sequenceNumber,corporateNumber,process,correct,updateDate,changeDate,name,nameImageId,kind,prefectureName,cityName,streetNumber,addressImageId,prefectureCode,cityCode,postCode,addressOutside,addressOutsideImageId,closeDate,closeCause,successorCorporateNumber,changeCause,assignmentDate,latest,enName,enPrefectureName,enCityName,enAddressOutside,furigana,hihyoji
11,1010002009145,登記記録の閉鎖等,0,2022-11-04,2022-10-31,有限会社金門ビル,,有限会社,東京都,文京区,本駒込２丁目１８番１３－７０２号,,13,105,1130021,,,2022-10-31,清算の結了等,,,2015-10-05,1,,,,,キンモンビル,0
12,1010003030851,登記記録の閉鎖等,0,2022-11-04,2022-10-28,合同会社ＡＬＥＲＯ４６,,合同会社,東京都,千代田区,神田錦町１丁目２１番１号,,13,101,1010054,,,2022-10-28,清算の結了等,,,2019-10-08,1,,,,,アレーロフォーティーシックス,0
13,1010003031131,登記記録の閉鎖等,0,2022-11-04,2022-10-28,合同会社ＸＹＺ,,合同会社,東京都,中央区,銀座７丁目１５番８号タウンハイツ銀座４０６,,13,102,1040061,,,2022-10-28,清算の結了等,,,2019-11-26,1,,,,,エックスワイゼット,0
38,1010502006303,登記記録の閉鎖等,0,2022-11-04,2022-11-01,竹内興業有限会社,,有限会社,東京都,台東区,上野６丁目２番１０号,,13,106,1100005,,,2022-11-01,清算の結了等,,,2015-10-05,1,,,,,タケウチコウギョウ,0
39,1010603006821,登記記録の閉鎖等,0,2022-11-04,2022-11-01,合同会社村松,,合同会社,東京都,江東区,白河３丁目７－１１グランフォークス清澄白河２０１号,,13,108,1350021,,,2022-11-01,清算の結了等,,,2017-07-10,1,,,,,ムラマツ,0
47,1010801006763,登記記録の閉鎖等,0,2022-11-04,2022-10-27,株式会社大房工機,,株式会社,東京都,大田区,矢口３丁目６番６号,,13,111,1460093,,,2022-10-27,清算の結了等,,,2015-10-05,1,,,,,ダイボウコウキ,0
49,1010802019343,登記記録の閉鎖等,0,2022-11-04,2022-10-27,有限会社鳥羽商店,,有限会社,千葉県,長生郡白子町,古所３２５０番地９３８,,12,424,2994212,,,2022-10-27,清算の結了等,,,2015-10-05,1,,,,,トバショウテン,0
54,1011001117260,登記記録の閉鎖等,0,2022-11-04,2022-10-31,ＭＶオネスト株式会社,,株式会社,愛知県,名古屋市中区,栄１丁目３０番１５号,,23,106,4600008,,,2022-10-31,清算の結了等,,,2017-07-11,1,,,,,エムブイオネスト,0
57,1011003013664,登記記録の閉鎖等,0,2022-11-04,2022-10-26,合同会社ＮＧＢ,,合同会社,東京都,渋谷区,代々木１丁目１８番１５号,,13,113,1510053,,,2022-10-26,清算の結了等,,,2021-11-02,1,,,,,エヌジービー,0
61,1011101071291,登記記録の閉鎖等,0,2022-11-04,2022-10-31,生井管財株式会社,,株式会社,東京都,新宿区,新宿７丁目１６番１２号,,13,104,1600022,,,2022-10-31,清算の結了等,,,2015-10-05,1,,,,,ナマイカンザイ,0
110,1030001093881,登記記録の閉鎖等,0,2022-11-04,2022-10-26,株式会社おおまえ,,株式会社,埼玉県,川口市,大字安行原１２７１番地の１３,,11,203,3340057,,,2022-10-26,清算の結了等,,,2015-10-05,1,,,,,オオマエ,0
158,1120001148494,登記記録の閉鎖等,0,2022-11-04,2022-10-31,ハウテック株式会社,,株式会社,大阪府,寝屋川市,石津南町１９－１－１３０５,,27,215,5720024,,,2022-10-31,清算の結了等,,,2015-10-05,1,,,,,ハウテック,0
162,1120001189381,登記記録の閉鎖等,0,2022-11-04,2022-10-31,株式会社アテーナ,,株式会社,大阪府,大阪市鶴見区,鶴見６丁目６番４４号,,27,124,5380053,,,2022-10-31,合併による解散等,3120002039798,令和４年１０月３１日大阪市都島区都島本通二丁目１４番６号株式会社シェ三宅（3120002039798）に合併し解散,2015-10-05,1,,,,,アテーナ,0
179,1120105007217,登記記録の閉鎖等,0,2022-11-04,2022-10-14,特定非営利活動法人ふれあい,,その他の設立登記法人,大阪府,阪南市,箱作３３４番地の１,,27,232,5990232,,,2022-10-14,合併による解散等,3120105008353,令和４年１０月１４日大阪府泉佐野市下瓦屋三丁目３番１７号１号室特定非営利活動法人やもりどろんこ野外活動支援センター（3120105008353）に合併し解散,2015-10-05,1,,,,,フレアイ,0
183,1120902009737,登記記録の閉鎖等,0,2022-11-04,2022-11-01,有限会社エス．ケイプランニング,,有限会社,大阪府,高槻市,浦堂本町４７番２２号,,27,207,5691028,,,2022-11-01,清算の結了等,,,2015-10-05,1,,,,,エスケイプランニング,0
195,1140001019256,登記記録の閉鎖等,0,2022-11-04,2022-11-01,株式会社ダブリューアイティ,,株式会社,大阪府,大阪市中央区,北久宝寺町２丁目４番９号,,27,128,5410057,,,2022-11-01,清算の結了等,,,2015-10-05,1,,,,,ダブリューアイティ,0
229,1190001022577,登記記録の閉鎖等,0,2022-11-04,2022-11-01,株式会社ＣＨＫ,,株式会社,三重県,伊勢市,御薗町長屋９５７番地２グランディオーソ１０１号,,24,203,5160804,,,2022-11-01,清算の結了等,,,2015-10-05,1,,,,,シーエイチケー,0
248,1240005009879,登記記録の閉鎖等,0,2022-11-04,2022-10-27,ビジネスサークル協同組合,,その他の設立登記法人,広島県,福山市,箕沖町１２４番地,,34,207,7210956,,,2022-10-27,清算の結了等,,,2015-10-05,1,,,,,ビジネスサークル,0
251,1250002003371,登記記録の閉鎖等,0,2022-11-04,2022-11-01,平田鉄工有限会社,,有限会社,山口県,防府市,大字富海２７２８番地の４,,35,206,7471111,,,2022-11-01,清算の結了等,,,2015-10-05,1,,,,,ヒラタテッコウ,0
262,1290001063974,登記記録の閉鎖等,0,2022-11-04,2022-11-01,ＭＡＫＩＨＡＵＳ株式会社,,株式会社,福岡県,福岡市博多区,博多駅南１丁目６番９号,,40,132,8120016,,,2022-11-01,合併による解散等,5290001007779,令和４年１１月１日福岡市博多区博多駅南一丁目６番９号三和エステート株式会社（5290001007779）に合併し解散,2015-10-05,1,,,,,マキハウス,0
271,1290002006841,登記記録の閉鎖等,0,2022-11-04,2022-10-31,有限会社柴光ビル,,有限会社,福岡県,福岡市城南区,茶山５丁目４番６号,,40,136,8140111,,,2022-10-31,清算の結了等,,,2015-10-05,1,,,,,シバコウビル,0
276,1290802014267,登記記録の閉鎖等,0,2022-11-04,2022-10-31,有限会社新興厚生保険事務所,,有限会社,福岡県,北九州市八幡西区,里中２丁目１２番２号,,40,109,8070846,,,2022-10-31,清算の結了等,,,2015-10-05,1,,,,,シンコウコウセイホケンジムショ,0
278,1300002005800,登記記録の閉鎖等,0,2022-11-04,2022-10-28,有限会社江頭酒店,,有限会社,佐賀県,武雄市,武雄町大字富岡８２７２番地３,,41,206,8430024,,,2022-10-28,清算の結了等,,,2015-10-05,1,,,,,,0
289,1330003005846,登記記録の閉鎖等,0,2022-11-04,2022-11-01,合同会社ＭＭ,,合同会社,熊本県,菊池市,泗水町永２８３７番地２４,,43,210,8611204,,,2022-11-01,合併による解散等,4330003005785,令和４年１１月１日熊本県菊池市旭志川辺１９２７番地１合同会社ＣＡＤ（4330003005785）に合併し解散,2015-10-05,1,,,,,エムエム,0
301,1370002006016,登記記録の閉鎖等,0,2022-11-04,2022-10-27,有限会社まこと商事,,有限会社,宮城県,仙台市若林区,河原町１丁目６番３２号ヴィルヌーブ河原町１００１号室,,04,103,9840816,,,2022-10-27,清算の結了等,,,2015-10-05,1,,,,,マコトショウジ,0
314,1420001016159,登記記録の閉鎖等,0,2022-11-04,2022-10-31,さくらコンサルティング株式会社,,株式会社,青森県,八戸市,小中野８丁目１３番１４号,,02,203,0310802,,,2022-10-31,清算の結了等,,,2018-04-25,1,,,,,サクラコンサルティング,0
349,2010401109949,登記記録の閉鎖等,0,2022-11-04,2022-10-19,株式会社リスパイア,,株式会社,東京都,港区,南青山５丁目３番１０号,,13,103,1070062,,,2022-10-19,清算の結了等,,,2015-10-05,1,,,,,リスパイア,0
350,2010401136935,登記記録の閉鎖等,0,2022-11-04,2022-10-20,株式会社ミライトオン,,株式会社,東京都,港区,浜松町２丁目２番１５号浜松町ダイヤビル２Ｆ,,13,103,1050013,,,2022-10-20,清算の結了等,,,2018-02-28,1,,,,,ミライトオン,0
370,2010901001639,登記記録の閉鎖等,0,2022-11-04,2022-10-31,エージヨー産業株式会社,,株式会社,東京都,世田谷区,松原５丁目２９番３号,,13,112,1560043,,,2022-10-31,清算の結了等,,,2015-10-05,1,,,,,エージヨーサンギョウ,0
371,2010901037492,登記記録の閉鎖等,0,2022-11-04,2022-11-01,株式会社オスプレイ,,株式会社,東京都,世田谷区,弦巻５丁目７番３０－１２７号,,13,112,1540016,,,2022-11-01,清算の結了等,,,2016-02-01,1,,,,,オスプレイ,0
375,2010905002724,登記記録の閉鎖等,0,2022-11-04,2022-11-01,特定非営利活動法人日本染織文化振興会,,その他の設立登記法人,東京都,世田谷区,北烏山６丁目１７番１４号,,13,112,1570061,,,2022-11-01,清算の結了等,,,2015-10-05,1,,,,,ニホンセンショクブンカシンコウカイ,0
403,2012401015854,登記記録の閉鎖等,0,2022-11-04,2022-10-28,株式会社アクティブ,,株式会社,東京都,三鷹市,下連雀３丁目２２番５号青木ビル３階,,13,204,1810013,,,2022-10-28,清算の結了等,,,2015-10-05,1,,,,,アクティブ,0
435,2030001118019,登記記録の閉鎖等,0,2022-11-04,2022-10-26,株式会社スパーク,,株式会社,埼玉県,坂戸市,にっさい花みず木４丁目８番地１ＳＯＮＮＥＢＬＤＶＩ２０１号室,00108930,11,239,3500269,,,2022-10-26,清算の結了等,,,2017-01-13,1,,,,,スパーク,0
441,2030005018470,登記記録の閉鎖等,0,2022-11-04,2022-10-26,特定非営利活動法人地域ケアネットみらい,,その他の設立登記法人,埼玉県,北葛飾郡杉戸町,高野台西３丁目４番地１６,,11,464,3450045,,,2022-10-26,清算の結了等,,,2017-04-20,1,,,,,チイキケアネットミライ,0
453,2050002008340,登記記録の閉鎖等,0,2022-11-04,2022-10-26,有限会社グリーンメンテナンス,,有限会社,茨城県,ひたちなか市,大字中根５０７２番地,,08,221,3120011,,,2022-10-26,清算の結了等,,,2015-10-05,1,,,,,グリーンメンテナンス,0
478,2120001125352,登記記録の閉鎖等,0,2022-11-04,2022-11-01,株式会社天一,,株式会社,大阪府,大阪市西成区,天下茶屋３丁目２２番１２号,,27,122,5570014,,,2022-11-01,合併による解散等,2120001112656,令和４年１１月１日大阪市浪速区元町三丁目１０番４号株式会社晋陽（2120001112656）に合併し解散,2015-10-05,1,,,,,テンイチ,0
489,2120001240300,登記記録の閉鎖等,0,2022-11-04,2022-11-01,株式会社Ｏｃｅａｎ,,株式会社,大阪府,大阪市北区,中津６丁目８番６－７０３号,,27,127,5310071,,,2022-11-01,清算の結了等,,,2021-09-10,1,,,,,オーシャン,0
502,2120103002012,登記記録の閉鎖等,0,2022-11-04,2022-11-02,合同会社大衡村メガソーラー,,合同会社,大阪府,泉佐野市,鶴原１８４７番地１－３０１号,,27,213,5980071,,,2022-11-02,清算の結了等,,,2015-10-05,1,,,,,オオヒラムラメガソーラー,0
504,2120901034818,登記記録の閉鎖等,0,2022-11-04,2022-11-01,ぐりん＆ぐりん株式会社,,株式会社,大阪府,豊中市,東豊中町４丁目１５番８号,,27,203,5600003,,,2022-11-01,清算の結了等,,,2015-10-05,1,,,,,グリンアンドグリン,0
527,2140002062816,登記記録の閉鎖等,0,2022-11-04,2022-11-01,有限会社ステップ,,有限会社,兵庫県,加東市,西古瀬９２６番地２,,28,228,6731425,,,2022-11-01,合併による解散等,7140001075120,令和４年１１月１日兵庫県加東市西古瀬９２６番地の２株式会社マルキン（7140001075120）に合併し解散,2015-10-05,1,,,,,ステップ,0
529,2140005009541,登記記録の閉鎖等,0,2022-11-04,2022-10-24,天理教氏達分教会,,その他の設立登記法人,兵庫県,加古川市,尾上町養田字樋口ノ下３５２番地２,00042223,28,210,6750025,,,2022-10-24,合併による解散等,5140005006189,令和４年１０月２４日兵庫県三木市志染町吉田７５８番地天理教源氏ケ原分教会（5140005006189）に合併し解散,2015-10-05,1,,,,,テンリキョウウジタツブンキョウカイ,0
540,2180001005053,登記記録の閉鎖等,0,2022-11-04,2022-10-31,株式会社日本玉台本社,,株式会社,愛知県,名古屋市千種区,今池５丁目１６番１７号,,23,101,4640850,,,2022-10-31,清算の結了等,,,2015-10-05,1,,,,,ニホンタマダイホンシャ,0
544,2180001022148,登記記録の閉鎖等,0,2022-11-04,2022-11-01,大和スリツト株式会社,,株式会社,愛知県,名古屋市熱田区,千年１丁目９番７０号,,23,109,4560054,,,2022-11-01,合併による解散等,3180001022147,令和４年１１月１日名古屋市熱田区千年一丁目９番７０号大和興業株式会社（3180001022147）に合併し解散,2015-10-05,1,,,,,ダイワスリツト,0
551,2180001106537,登記記録の閉鎖等,0,2022-11-04,2022-11-01,株式会社ファイン・イー,,株式会社,愛知県,名古屋市中区,正木４丁目１１番８号レインボー第三金山８０２号室,,23,106,4600024,,,2022-11-01,清算の結了等,,,2015-10-05,1,,,,,ファインイー,0
552,2180001143002,登記記録の閉鎖等,0,2022-11-04,2022-10-24,インオーダー株式会社,,株式会社,愛知県,名古屋市西区,名駅２丁目４番８号,,23,104,4510045,,,2022-10-24,清算の結了等,,,2020-10-01,1,,,,,インオーダー,0
558,2180002089624,登記記録の閉鎖等,0,2022-11-04,2022-11-01,有限会社縁,,有限会社,愛知県,愛西市,葛木町ギロ５番地,,23,232,4960932,,,2022-11-01,合併による解散等,2180001097207,令和４年１１月１日愛知県愛西市内佐屋町佐屋河原４８番地の３株式会社平山商会（2180001097207）に合併し解散,2015-10-05,1,,,,,エン,0
561,2180005017012,登記記録の閉鎖等,0,2022-11-04,2022-11-01,ＮＰＯ法人瑞穂骨折治療研究会,,その他の設立登記法人,愛知県,小牧市,大字北外山２９５３番地１３,,23,219,4850023,,,2022-11-01,清算の結了等,,,2016-10-26,1,,,,,ミズホコッセツチリョウケンキュウカイ,0
576,2220002010502,登記記録の閉鎖等,0,2022-11-04,2022-11-01,有限会社岸本ニット,,有限会社,石川県,小松市,梯町ヘ１６番地,,17,203,9230028,,,2022-11-01,清算の結了等,,,2015-10-05,1,,,,,キシモトニット,0
604,2290002022458,登記記録の閉鎖等,0,2022-11-04,2022-10-31,有限会社フジサンライズ丞豆屋,,有限会社,福岡県,那珂川市,仲１丁目１１４番地,,40,231,8111253,,,2022-10-31,清算の結了等,,,2015-10-05,1,,,,,フジサンライズジョウトウヤ,0
614,2340002012643,登記記録の閉鎖等,0,2022-11-04,2022-11-01,有限会社マイクロシステム,,有限会社,鹿児島県,日置市,東市来町長里１０５０番地６,,46,216,8992202,,,2022-11-01,清算の結了等,,,2015-10-05,1,,,,,マイクロシステム,0
615,2350001015002,登記記録の閉鎖等,0,2022-11-04,2022-10-31,都城総合物流株式会社,,株式会社,宮崎県,都城市,梅北町７３６０番地１,,45,202,8850063,,,2022-10-31,清算の結了等,,,2017-11-07,1,,,,,ミヤコノジョウソウゴウブツリュウ,0
629,2400005002957,登記記録の閉鎖等,0,2022-11-04,2022-10-28,社会福祉法人陽光福祉会,,その他の設立登記法人,岩手県,花巻市,愛宕町１番２５号,,03,205,0250071,,,2022-10-28,清算の結了等,,,2015-10-05,1,,,,,,0
631,2410002001944,登記記録の閉鎖等,0,2022-11-04,2022-10-31,有限会社信総業,,有限会社,秋田県,秋田市,八橋本町３丁目２番５号,,05,201,0100973,,,2022-10-31,清算の結了等,,,2015-10-05,1,,,,,シンソウギョウ,0
633,2430001023855,登記記録の閉鎖等,0,2022-11-04,2022-10-25,株式会社ノースエンジニアリング,,株式会社,北海道,札幌市清田区,平岡三条３丁目３番１号,,01,110,0040873,,,2022-10-25,清算の結了等,,,2015-10-05,1,,,,,ノースエンジニアリング,0
691,3010802008096,登記記録の閉鎖等,0,2022-11-04,2022-10-27,有限会社セニョールプラン,,有限会社,東京都,大田区,久が原３丁目３８番３号,,13,111,1460085,,,2022-10-27,清算の結了等,,,2015-10-05,1,,,,,セニョールプラン,0
696,3011001092782,登記記録の閉鎖等,0,2022-11-04,2022-10-25,株式会社ピタゴラス,,株式会社,東京都,渋谷区,恵比寿２丁目２８番１０号,,13,113,1500013,,,2022-10-25,清算の結了等,,,2015-10-05,1,,,,,ピタゴラス,0
701,3011002017160,登記記録の閉鎖等,0,2022-11-04,2022-10-24,有限会社アトリエ游,,有限会社,東京都,渋谷区,渋谷１丁目１０番７号,,13,113,1500002,,,2022-10-24,清算の結了等,,,2015-10-05,1,,,,,アトリエユウ,0
731,3020001124264,登記記録の閉鎖等,0,2022-11-04,2022-10-28,株式会社ＳＴＡＹ　ＧＯＬＤ,,株式会社,神奈川県,横浜市旭区,南本宿町１３８番地１３,,14,112,2410833,,,2022-10-28,清算の結了等,,,2017-12-14,1,,,,,,0
739,3021001060838,登記記録の閉鎖等,0,2022-11-04,2022-10-31,株式会社ピカサービス,,株式会社,神奈川県,綾瀬市,上土棚中６丁目７番２０号,,14,218,2521113,,,2022-10-31,清算の結了等,,,2016-12-08,1,,,,,ピカサービス,0
763,3040001033744,登記記録の閉鎖等,0,2022-11-04,2022-11-01,株式会社海宝,,株式会社,東京都,江東区,豊洲６丁目５番３号,,13,108,1350061,,,2022-11-01,合併による解散等,3010001085607,令和４年１１月１日東京都江東区豊洲六丁目５番１号株式会社海宝（3010001085607）に合併し解散,2015-10-05,1,,,,,カイホウ,0
787,3080101021959,登記記録の閉鎖等,0,2022-11-04,2022-11-01,三郎株式会社,,株式会社,静岡県,下田市,須原１０７８番地１,,22,219,4130716,,,2022-11-01,清算の結了等,,,2020-08-19,1,,,,,ザブロウ,0
797,3090002006389,登記記録の閉鎖等,0,2022-11-04,2022-10-28,有限会社一坪商事,,有限会社,山梨県,甲府市,下飯田３丁目１０番１７号,,19,201,4000064,,,2022-10-28,清算の結了等,,,2015-10-05,1,,,,,ヒトツボショウジ,0
803,3120001056836,登記記録の閉鎖等,0,2022-11-04,2022-11-01,株式会社長輝,,株式会社,大阪府,大阪市淀川区,野中北１丁目１２番１４号,,27,123,5320034,,,2022-11-01,清算の結了等,,,2015-10-05,1,,,,,チョウキ,0
829,3120902002450,登記記録の閉鎖等,0,2022-11-04,2022-11-01,有限会社プラスワーク,,有限会社,大阪府,吹田市,新芦屋上１０番１－３０４号,00124811,27,205,5650804,,,2022-11-01,清算の結了等,,,2015-10-05,1,,,,,プラスワーク,0
845,3160001008296,登記記録の閉鎖等,0,2022-11-04,2022-11-01,三雄興業株式会社,,株式会社,滋賀県,彦根市,東沼波町４５２番地の２,,25,202,5220027,,,2022-11-01,清算の結了等,,,2015-10-05,1,,,,,サンユウコウギョウ,0
858,3180001123003,登記記録の閉鎖等,0,2022-11-04,2022-10-31,株式会社カジスマイル,,株式会社,愛知県,一宮市,三ツ井２丁目２８番２３号,,23,203,4910827,,,2022-10-31,清算の結了等,,,2016-04-22,1,,,,,カジスマイル,0
867,3180002081357,登記記録の閉鎖等,0,2022-11-04,2022-10-31,有限会社門前屋,,有限会社,愛知県,稲沢市,矢合町２６６１番地,,23,220,4928342,,,2022-10-31,清算の結了等,,,2015-10-05,1,,,,,モンゼンヤ,0
869,3180301009760,登記記録の閉鎖等,0,2022-11-04,2022-10-26,株式会社池田建設,,株式会社,愛知県,豊川市,御津町赤根屋敷１６番地,,23,207,4410316,,,2022-10-26,清算の結了等,,,2015-10-05,1,,,,,イケダケンセツ,0
881,3240002042633,登記記録の閉鎖等,0,2022-11-04,2022-11-01,福商電工有限会社,,有限会社,広島県,福山市,北美台８番１号,,34,207,7200023,,,2022-11-01,清算の結了等,,,2015-10-05,1,,,,,フクショウデンコウ,0
882,3250001003833,登記記録の閉鎖等,0,2022-11-04,2022-10-31,株式会社セイコー堂,,株式会社,山口県,山陽小野田市,セメント町５番８号,,35,216,7560835,,,2022-10-31,清算の結了等,,,2015-10-05,1,,,,,セイコードウ,0
885,3250002016834,登記記録の閉鎖等,0,2022-11-04,2022-10-31,有限会社ヤマス通機,,有限会社,山口県,周南市,古泉１丁目７番６号,,35,215,7460024,,,2022-10-31,清算の結了等,,,2015-10-05,1,,,,,ヤマスツウキ,0
894,3290001016212,登記記録の閉鎖等,0,2022-11-04,2022-10-28,株式会社福岡ライティング,,株式会社,福岡県,福岡市博多区,上牟田１丁目８番３２号,,40,132,8120006,,,2022-10-28,清算の結了等,,,2015-10-05,1,,,,,フクオカライティング,0
930,3400002004831,登記記録の閉鎖等,0,2022-11-04,2022-11-01,有限会社リライエンス,,有限会社,岩手県,滝沢市,湯舟沢３２９番地１４３,,03,216,0200617,,,2022-11-01,清算の結了等,,,2015-10-05,1,,,,,リライエンス,0
1044,4021001073376,登記記録の閉鎖等,0,2022-11-04,2022-10-04,株式会社ｍｏｎｏｇｏｔｏ,,株式会社,神奈川県,鎌倉市,常盤１８番地３－５０３,,14,204,2480022,,,2022-10-04,清算の結了等,,,2021-07-16,1,,,,,モノゴト,0
1046,4021002052932,登記記録の閉鎖等,0,2022-11-04,2022-10-31,有限会社福松,,有限会社,神奈川県,小田原市,成田２１４番地,,14,206,2500862,,,2022-10-31,清算の結了等,,,2015-10-05,1,,,,,フクマツ,0
1052,4040001000710,登記記録の閉鎖等,0,2022-11-04,2022-10-27,株式会社岩澤運送,,株式会社,千葉県,千葉市花見川区,三角町２７番地５,,12,102,2620011,,,2022-10-27,清算の結了等,,,2015-10-05,1,,,,,イワサワウンソウ,0
1058,4040002013736,登記記録の閉鎖等,0,2022-11-04,2022-10-27,有限会社鳥里畜産,,有限会社,千葉県,千葉市花見川区,幕張町５丁目３６８番地１ニューキャピタル幕張４０１号,,12,102,2620032,,,2022-10-27,清算の結了等,,,2015-10-05,1,,,,,トリサトチクサン,0
1066,4060002023320,登記記録の閉鎖等,0,2022-11-04,2022-10-20,有限会社山一ビルメンテナンス,,有限会社,栃木県,那須郡那須町,大字寺子丙７７１番地２,,09,407,3293222,,,2022-10-20,清算の結了等,,,2015-10-05,1,,,,,ヤマイチビルメンテナンス,0
1082,4080405004238,登記記録の閉鎖等,0,2022-11-04,2022-11-01,特定非営利活動法人奥浜名湖観光まちづくりねっと,,その他の設立登記法人,静岡県,浜松市北区,引佐町井伊谷１９８９番地,,22,135,4312212,,,2022-11-01,清算の結了等,,,2015-10-05,1,,,,,オクハマナコカンコウマチヅクリネット,0
1113,4120103002687,登記記録の閉鎖等,0,2022-11-04,2022-11-02,合同会社小国上田合志,,合同会社,大阪府,泉佐野市,鶴原１８４７番地１－２０３号,,27,213,5980071,,,2022-11-02,清算の結了等,,,2017-03-14,1,,,,,オグニウエダゴウシ,0
1117,4130001005725,登記記録の閉鎖等,0,2022-11-04,2022-10-31,京都金糸株式会社,,株式会社,京都府,京都市北区,大宮東小野堀町１６番地の１,,26,101,6038406,,,2022-10-31,清算の結了等,,,2015-10-05,1,,,,,キョウトキンシ,0
1127,4140003016257,登記記録の閉鎖等,0,2022-11-04,2022-10-24,合同会社ＢＩＧＸ,,合同会社,大阪府,大阪市港区,夕凪１丁目１１番１３号,,27,107,5520004,,,2022-10-24,清算の結了等,,,2021-05-13,1,,,,,ビッグエックス,0
1132,4150002002158,登記記録の閉鎖等,0,2022-11-04,2022-11-01,有限会社ミヤギ翻訳事務所,,有限会社,奈良県,奈良市,学園北１丁目１６番３０－２０１号,,29,201,6310036,,,2022-11-01,清算の結了等,,,2015-10-05,1,,,,,ミヤギホンヤクジムショ,0
1146,4180001143520,登記記録の閉鎖等,0,2022-11-04,2022-10-26,クベーラ株式会社,,株式会社,愛知県,名古屋市北区,水切町５丁目７９番地,,23,103,4620833,,,2022-10-26,清算の結了等,,,2020-11-09,1,,,,,クベーラ,0
1152,4180002076950,登記記録の閉鎖等,0,2022-11-04,2022-10-31,有限会社土本プラスチック工業所,,有限会社,愛知県,一宮市,北方町北方字狐塚郷１０９番地,,23,203,4938001,,,2022-10-31,清算の結了等,,,2015-10-05,1,,,,,ツチモトプラスチックコウギョウショ,0
1155,4190002008267,登記記録の閉鎖等,0,2022-11-04,2022-10-28,千鳥ヶ淵不動産株式会社,,株式会社,東京都,千代田区,一番町４番５号,,13,101,1020082,,,2022-10-28,清算の結了等,,,2015-10-05,1,,,,,チドリガフチフドウサン,0
1167,4230005001099,登記記録の閉鎖等,0,2022-11-04,2022-11-01,安正寺,,その他の設立登記法人,富山県,富山市,下新本町５番１６号,,16,201,9300803,,,2022-11-01,清算の結了等,,,2015-10-05,1,,,,,アンショウジ,0
1189,4290801015718,登記記録の閉鎖等,0,2022-11-04,2022-11-01,株式会社ハセガワテック,,株式会社,福岡県,行橋市,大字稲童３６４９番地１,,40,213,8240022,,,2022-11-01,清算の結了等,,,2015-10-05,1,,,,,ハセガワテック,0
1191,4290805004881,登記記録の閉鎖等,0,2022-11-04,2022-10-18,天理教遠賀川分教会,,その他の設立登記法人,福岡県,中間市,大字垣生字塔ノ元２０３６番地の１,,40,215,8090001,,,2022-10-18,合併による解散等,4480005004449,令和４年１０月１３日徳島県阿南市椿町庄田８２番地３１天理教東阿分教会（4480005004449）に合併し解散,2015-10-05,1,,,,,,0
1228,4430001043513,登記記録の閉鎖等,0,2022-11-04,2022-10-25,株式会社木村食料品店,,株式会社,北海道,千歳市,大和１丁目４番２１号,,01,224,0660066,,,2022-10-25,清算の結了等,,,2015-10-05,1,,,,,キムラショクリョウヒンテン,0
1232,4430002050566,登記記録の閉鎖等,0,2022-11-04,2022-10-26,有限会社イワモト,,有限会社,北海道,三笠市,幾春別町３丁目１４２番地,,01,222,0682116,,,2022-10-26,清算の結了等,,,2015-10-05,1,,,,,イワモト,0
1233,4440002001270,登記記録の閉鎖等,0,2022-11-04,2022-10-28,有限会社ギフトショップドリーム,,有限会社,北海道,函館市,昭和３丁目１３番２６号,,01,202,0410812,,,2022-10-28,清算の結了等,,,2015-10-05,1,,,,,ギフトショップドリーム,0
1248,5010001132464,登記記録の閉鎖等,0,2022-11-04,2022-10-27,株式会社ジービー,,株式会社,茨城県,那珂市,菅谷４４５７番地の２５,,08,226,3110105,,,2022-10-27,清算の結了等,,,2015-10-05,1,,,,,ジービー,0
1249,5010001179464,登記記録の閉鎖等,0,2022-11-04,2022-10-28,株式会社シキューブソリューションズ,,株式会社,東京都,千代田区,九段南４丁目７番１９号ツボヤビル３階,,13,101,1020074,,,2022-10-28,清算の結了等,,,2016-11-09,1,,,,,シキューブソリューションズ,0
1255,5010002005801,登記記録の閉鎖等,0,2022-11-04,2022-10-31,有限会社まるや肉店,,有限会社,東京都,文京区,本郷４丁目３６番４号,,13,105,1130033,,,2022-10-31,清算の結了等,,,2015-10-05,1,,,,,マルヤニクテン,0
1256,5010003031466,登記記録の閉鎖等,0,2022-11-04,2022-10-28,合同会社ＡＬＥＲＯ４８,,合同会社,東京都,千代田区,神田錦町１丁目２１番１号,,13,101,1010054,,,2022-10-28,清算の結了等,,,2020-01-20,1,,,,,アレーロフォーティーエイト,0
1257,5010003036011,登記記録の閉鎖等,0,2022-11-04,2022-10-31,合同会社Ｎｏ．６,,合同会社,東京都,中央区,銀座１丁目６番１１号土志田ビルディング３Ｆ,,13,102,1040061,,,2022-10-31,清算の結了等,,,2021-10-13,1,,,,,ナンバーシックス,0
1275,5010403015242,登記記録の閉鎖等,0,2022-11-04,2022-10-31,新橋二丁目合同会社,,合同会社,東京都,新宿区,四谷４丁目３２番８号ＹＫＢサニービル６階,,13,104,1600004,,,2022-10-31,清算の結了等,,,2016-08-18,1,,,,,シンバシニチョウメ,0
1284,5010702003071,登記記録の閉鎖等,0,2022-11-04,2022-10-31,有限会社五反田デリバリー,,有限会社,東京都,品川区,西品川１丁目７番７号,,13,109,1410033,,,2022-10-31,清算の結了等,,,2015-10-05,1,,,,,ゴタンダデリバリー,0
1323,5013301024587,登記記録の閉鎖等,0,2022-11-04,2022-10-31,株式会社Ｓ・Ｙ・Ｇ,,株式会社,東京都,豊島区,池袋２丁目１０番３号,,13,116,1710014,,,2022-10-31,清算の結了等,,,2015-10-05,1,,,,,エスワイジー,0
1341,5020005008684,登記記録の閉鎖等,0,2022-11-04,2022-10-31,特定非営利活動法人生きいき・すまいまちづくり,,その他の設立登記法人,神奈川県,川崎市麻生区,白山５丁目１番６－１０８号,,14,137,2150014,,,2022-10-31,清算の結了等,,,2015-10-05,1,,,,,,0
1367,5050002000848,登記記録の閉鎖等,0,2022-11-04,2022-10-27,有限会社鴨耕商店,,有限会社,茨城県,水戸市,平戸町２７０番地,,08,201,3111113,,,2022-10-27,清算の結了等,,,2015-10-05,1,,,,,カモコウショウテン,0
1371,5060001024310,登記記録の閉鎖等,0,2022-11-04,2022-10-28,株式会社ヒライシ工芸,,株式会社,栃木県,栃木市,野中町１３６６番地３セントポーリアＰ－ＩＩ２０１号室,00105191,09,203,3280124,,,2022-10-28,清算の結了等,,,2015-10-05,1,,,,,ヒライシコウゲイ,0
1378,5080005000149,登記記録の閉鎖等,0,2022-11-04,2022-10-19,宗教法人淵龍寺,,その他の設立登記法人,静岡県,静岡市葵区,鍵穴４６７番地,,22,101,4211302,,,2022-10-19,合併による解散等,4080005000389,令和４年１０月１９日静岡市葵区坂本２４４番地清源寺（4080005000389）に合併し解散,2015-10-05,1,,,,,エンリュウジ,0
1381,5080102005026,登記記録の閉鎖等,0,2022-11-04,2022-11-01,有限会社グリーン・サプライ,,有限会社,静岡県,沼津市,大岡３５５３番地の２８,,22,203,4100022,,,2022-11-01,清算の結了等,,,2015-10-05,1,,,,,グリーンサプライ,0
1382,5080402022010,登記記録の閉鎖等,0,2022-11-04,2022-10-26,有限会社丸仁スズキ建築,,有限会社,静岡県,袋井市,中新田１６５番地の１,,22,216,4371111,,,2022-10-26,清算の結了等,,,2015-10-05,1,,,,,マルジンスズキケンチク,0
1411,5140001019707,登記記録の閉鎖等,0,2022-11-04,2022-10-31,サラソフト株式会社,,株式会社,兵庫県,神戸市中央区,中山手通４丁目１６番２６号山手ハイツ４０１,,28,110,6500004,,,2022-10-31,清算の結了等,,,2015-10-05,1,,,,,サラソフト,0
1412,5140001047121,登記記録の閉鎖等,0,2022-11-04,2022-10-26,フジコーポ株式会社,,株式会社,兵庫県,加古川市,野口町坂元５２２番地の１,,28,210,6750018,,,2022-10-26,清算の結了等,,,2015-10-05,1,,,,,フジコーポ,0
1428,5160001004748,登記記録の閉鎖等,0,2022-11-04,2022-11-01,株式会社ライク,,株式会社,大阪府,大阪市平野区,平野北１丁目８番６０号,,27,126,5470041,,,2022-11-01,清算の結了等,,,2015-10-05,1,,,,,ライク,0
1508,5370301001382,登記記録の閉鎖等,0,2022-11-04,2022-10-26,株式会社山大商店,,株式会社,宮城県,牡鹿郡女川町,鷲神１丁目９番地１０,,04,581,9862247,,,2022-10-26,清算の結了等,,,2015-10-05,1,,,,,ヤマダイショウテン,0
1513,5410002011783,登記記録の閉鎖等,0,2022-11-04,2022-10-31,有限会社平山商店,,有限会社,秋田県,大仙市,大曲中通町９番１１号,,05,212,0140024,,,2022-10-31,清算の結了等,,,2015-10-05,1,,,,,,0
1546,6010003036118,登記記録の閉鎖等,0,2022-11-04,2022-10-31,合同会社南海堺阪急北千里メトロ江坂プロジェクト,,合同会社,東京都,中央区,日本橋１丁目４番１号,,13,102,1030027,,,2022-10-31,清算の結了等,,,2021-10-28,1,,,,,ナンカイサカイハンキュウキタセンリメトロエサカプロジェクト,0
1562,6010401147598,登記記録の閉鎖等,0,2022-11-04,2022-10-19,株式会社ＲＡＭＡ,,株式会社,東京都,港区,南青山２丁目２番１５号ウィン青山９４２,,13,103,1070062,,,2022-10-19,清算の結了等,,,2019-08-22,1,,,,,ラマ,0
1574,6010602016619,登記記録の閉鎖等,0,2022-11-04,2022-11-01,有限会社シルバーメタル,,有限会社,東京都,墨田区,墨田１丁目１４番２号,,13,107,1310031,,,2022-11-01,清算の結了等,,,2015-10-05,1,,,,,シルバーメタル,0
1580,6010802013085,登記記録の閉鎖等,0,2022-11-04,2022-10-27,有限会社細江硝子店,,有限会社,東京都,大田区,西六郷１丁目３１番９号,,13,111,1440056,,,2022-10-27,清算の結了等,,,2015-10-05,1,,,,,ホソエガラステン,0
1594,6011101010352,登記記録の閉鎖等,0,2022-11-04,2022-10-28,水工サービス株式会社,,株式会社,東京都,新宿区,西新宿６丁目２２番１号,,13,104,1600023,,,2022-10-28,清算の結了等,,,2015-10-05,1,,,,,スイコウサービス,0
1595,6011101078984,登記記録の閉鎖等,0,2022-11-04,2022-11-01,株式会社ＴＫＰＳＰＶ－５号,,株式会社,東京都,新宿区,市谷八幡町８番地,,13,104,1620844,,,2022-11-01,清算の結了等,,,2016-12-12,1,,,,,ティーケーピーエスピーブイゴゴウ,0
1600,6011103008106,登記記録の閉鎖等,0,2022-11-04,2022-11-01,合同会社ジェイ・アイ・ケイ,,合同会社,東京都,新宿区,下宮比町１番４号,,13,104,1620822,,,2022-11-01,清算の結了等,,,2018-07-24,1,,,,,ジェイアイケイ,0
1604,6011301017949,登記記録の閉鎖等,0,2022-11-04,2022-10-28,株式会社銀鈴舎,,株式会社,東京都,杉並区,和田２丁目１４番３号,,13,115,1660012,,,2022-10-28,清算の結了等,,,2015-10-05,1,,,,,,0
1611,6011602006485,登記記録の閉鎖等,0,2022-11-04,2022-10-31,有限会社田中商店,,有限会社,東京都,練馬区,北町３丁目１９番４号,,13,120,1790081,,,2022-10-31,清算の結了等,,,2015-10-05,1,,,,,タナカショウテン,0
1633,6020003017983,登記記録の閉鎖等,0,2022-11-04,2022-10-27,合同会社はっとつー,,合同会社,神奈川県,横浜市南区,六ツ川３丁目７０番地６,,14,105,2320066,,,2022-10-27,清算の結了等,,,2020-06-10,1,,,,,ハットツー,0
1638,6021001050885,登記記録の閉鎖等,0,2022-11-04,2022-10-31,株式会社フィールドシップ,,株式会社,神奈川県,相模原市中央区,田名５１３６番地１,,14,152,2520244,,,2022-10-31,清算の結了等,,,2015-10-05,1,,,,,フィールドシップ,0
1641,6021002031918,登記記録の閉鎖等,0,2022-11-04,2022-10-28,有限会社新建工,,有限会社,神奈川県,厚木市,愛甲西１丁目２番６号,,14,212,2430028,,,2022-10-28,清算の結了等,,,2015-10-05,1,,,,,,0
1646,6030001032760,登記記録の閉鎖等,0,2022-11-04,2022-10-26,かねと衣料株式会社,,株式会社,埼玉県,羽生市,大字上新郷５５８６番地,,11,216,3480041,,,2022-10-26,清算の結了等,,,2015-10-05,1,,,,,カネトイリョウ,0
1664,6040002098230,登記記録の閉鎖等,0,2022-11-04,2022-10-27,有限会社蘭園,,有限会社,千葉県,野田市,木間ケ瀬１８３８番地３,,12,208,2700222,,,2022-10-27,清算の結了等,,,2015-10-05,1,,,,,,0
1665,6050001020037,登記記録の閉鎖等,0,2022-11-04,2022-10-26,ハートメディカル介護サービス株式会社,,株式会社,茨城県,ひたちなか市,栄町１丁目１１番９号,,08,221,3111223,,,2022-10-26,清算の結了等,,,2015-10-05,1,,,,,ハートメディカルカイゴサービス,0
1675,6070005008893,登記記録の閉鎖等,0,2022-11-04,2022-10-27,特定非営利活動法人ＮＰＯ産業観光学習館,,その他の設立登記法人,群馬県,伊勢崎市,寿町２０番地,,10,204,3720052,,,2022-10-27,清算の結了等,,,2015-10-05,1,,,,,エヌピーオーサンギョウカンコウガクシュウカン,0
1678,6080005000387,登記記録の閉鎖等,0,2022-11-04,2022-10-19,清雲寺,,その他の設立登記法人,静岡県,静岡市葵区,赤沢１１１番地,,22,101,4211305,,,2022-10-19,合併による解散等,4080005000389,令和４年１０月１９日静岡市葵区坂本２４４番地清源寺（4080005000389）に合併し解散,2015-10-05,1,,,,,セイウンジ,0
1703,6120001215216,登記記録の閉鎖等,0,2022-11-04,2022-11-02,ネットライン株式会社,,株式会社,大阪府,大阪市住吉区,南住吉３丁目１６番３０号,,27,120,5580041,,,2022-11-02,清算の結了等,,,2018-08-08,1,,,,,ネットライン,0
1713,6120003008857,登記記録の閉鎖等,0,2022-11-04,2022-11-02,合同会社九重湯坪ひかりの森プロジェクト,,合同会社,大阪府,大阪市天王寺区,玉造元町２番３２－２０３号,,27,109,5430014,,,2022-11-02,清算の結了等,,,2015-10-05,1,,,,,ココノエユツボヒカリノモリプロジェクト,0
1747,6180002010123,登記記録の閉鎖等,0,2022-11-04,2022-10-31,有限会社ヒノデ,,有限会社,愛知県,名古屋市瑞穂区,船原町２丁目１０番地,,23,108,4670878,,,2022-10-31,清算の結了等,,,2015-10-05,1,,,,,ヒノデ,0
1764,6220002010853,登記記録の閉鎖等,0,2022-11-04,2022-11-01,有限会社忠谷書店,,有限会社,石川県,小松市,京町７６番地,,17,203,9230918,,,2022-11-01,清算の結了等,,,2015-10-05,1,,,,,チュウヤショテン,0
1769,6230005000594,登記記録の閉鎖等,0,2022-11-04,2022-11-01,廣貫堂家庭薬協同組合,,その他の設立登記法人,富山県,富山市,梅沢町２丁目９番１号,,16,201,9300055,,,2022-11-01,清算の結了等,,,2015-10-05,1,,,,,コウカンドウカテイヤク,0
1780,6250005007134,登記記録の閉鎖等,0,2022-11-04,2022-10-17,天理教仁島分教会,,その他の設立登記法人,山口県,大島郡周防大島町,大字椋野第５２４番地,,35,305,7422302,,,2022-10-17,合併による解散等,5320005007722,令和４年１０月１１日大分県中津市大字下池永５１９番地天理教中津大教会（5320005007722）に合併し解散,2015-10-05,1,,,,,,0
1790,6290001007737,登記記録の閉鎖等,0,2022-11-04,2022-10-26,三宝住宅株式会社,,株式会社,福岡県,福岡市中央区,大濠公園２番３５号,,40,133,8100051,,,2022-10-26,清算の結了等,,,2022-09-01,1,,,,,,0
1805,6290005016552,登記記録の閉鎖等,0,2022-11-04,2022-10-31,一般社団法人ＱＵ　Ｖｅｎｔｕｒｅｓ,,その他の設立登記法人,福岡県,福岡市中央区,大名２丁目６番１１号,,40,133,8100041,,,2022-10-31,清算の結了等,,,2017-08-28,1,,,,,キューユーベンチャーズ,0
1827,6390001005937,登記記録の閉鎖等,0,2022-11-04,2022-10-31,株式会社タカノ,,株式会社,山形県,山形市,南三番町２番３１号,,06,201,9902443,,,2022-10-31,清算の結了等,,,2015-10-05,1,,,,,タカノ,0
1829,6400002002378,登記記録の閉鎖等,0,2022-11-04,2022-11-01,有限会社長沢物産,,有限会社,岩手県,盛岡市,西見前１４地割３５番地の２,,03,201,0200833,,,2022-11-01,清算の結了等,,,2015-10-05,1,,,,,ナガサワブッサン,0
1836,6430001074655,登記記録の閉鎖等,0,2022-11-04,2022-10-26,株式会社ハートアクシス,,株式会社,北海道,札幌市東区,東苗穂十四条３丁目２２番１１号,,01,103,0070814,,,2022-10-26,清算の結了等,,,2017-07-26,1,,,,,ハートアクシス,0
1892,7011101066798,登記記録の閉鎖等,0,2022-11-04,2022-11-01,株式会社ヘブンリージュ,,株式会社,東京都,新宿区,富久町２番２３号,,13,104,1620067,,,2022-11-01,清算の結了等,,,2015-10-05,1,,,,,,0
1901,7011603003571,登記記録の閉鎖等,0,2022-11-04,2022-10-28,合同会社梟,,合同会社,東京都,練馬区,上石神井１丁目１２－７ＲｅｆｕｇｅＨａｐｐｉｎｅｓｓＴｏｗｅｒ２０２号室,,13,120,1770044,,,2022-10-28,清算の結了等,,,2022-04-12,1,,,,,フクロウ,0
1932,7020002028460,登記記録の閉鎖等,0,2022-11-04,2022-10-31,有限会社山恵工業所,,有限会社,神奈川県,横浜市南区,永田みなみ台１番２－２０７号,,14,105,2320075,,,2022-10-31,清算の結了等,,,2015-10-05,1,,,,,サンケイコウギョウショ,0
1940,7021002045009,登記記録の閉鎖等,0,2022-11-04,2022-10-28,三栄企業有限会社,,有限会社,神奈川県,海老名市,東柏ケ谷３丁目７番６号,,14,215,2430401,,,2022-10-28,清算の結了等,,,2015-10-05,1,,,,,サンエイキギョウ,0
1952,7040001091821,登記記録の閉鎖等,0,2022-11-04,2022-10-27,株式会社ヴェルトホーム,,株式会社,千葉県,柏市,大山台１丁目２２番地,,12,217,2770837,,,2022-10-27,清算の結了等,,,2015-10-05,1,,,,,ヴェルトホーム,0
1966,7080005000824,登記記録の閉鎖等,0,2022-11-04,2022-11-02,用宗魚仲買人水産加工業協同組合,,その他の設立登記法人,静岡県,静岡市駿河区,用宗４丁目２１番２号,,22,102,4210122,,,2022-11-02,清算の結了等,,,2015-10-05,1,,,,,モチムネウオナカガイニンスイサンカコウギョウ,0
1992,7120001147540,登記記録の閉鎖等,0,2022-11-04,2022-11-01,株式会社オオノ,,株式会社,大阪府,寝屋川市,豊里町２８番８号,,27,215,5720071,,,2022-11-01,清算の結了等,,,2015-10-05,1,,,,,オオノ,0
2008,7120003009078,登記記録の閉鎖等,0,2022-11-04,2022-10-28,合同会社介護計画いきいき,,合同会社,大阪府,大阪市住吉区,万代６丁目８番１４号,,27,120,5580055,,,2022-10-28,清算の結了等,,,2015-10-05,1,,,,,カイゴケイカクイキイキ,0
2072,7200001003933,登記記録の閉鎖等,0,2022-11-04,2022-11-01,株式会社ナベヤトレーディング,,株式会社,岐阜県,岐阜市,金屋町１丁目１０番地,,21,201,5008065,,,2022-11-01,清算の結了等,,,2015-10-05,1,,,,,ナベヤトレーディング,0
2078,7240001021196,登記記録の閉鎖等,0,2022-11-04,2022-11-01,ＲＹＯ　Ｃｏｒｐｏｒａｔｉｏｎ　Ｊａｐａｎ株式会社,,株式会社,広島県,広島市安佐北区,深川２丁目３７番１号,,34,106,7391751,,,2022-11-01,清算の結了等,,,2015-10-05,1,,,,,リョーコーポレーションジャパン,0
2108,7290802005806,登記記録の閉鎖等,0,2022-11-04,2022-11-02,有限会社豊和,,有限会社,福岡県,北九州市小倉北区,京町２丁目４番８号,,40,106,8020002,,,2022-11-02,清算の結了等,,,2015-10-05,1,,,,,ホウワ,0
2126,7330003004842,登記記録の閉鎖等,0,2022-11-04,2022-11-01,合同会社ＪＯＹ,,合同会社,熊本県,菊池市,泗水町永２８３７番地２４,,43,210,8611204,,,2022-11-01,合併による解散等,4330003005785,令和４年１１月１日熊本県菊池市旭志川辺１９２７番地１合同会社ＣＡＤ（4330003005785）に合併し解散,2015-10-05,1,,,,,ジョイ,0
2129,7330003005171,登記記録の閉鎖等,0,2022-11-04,2022-11-01,合同会社ｐｉｏｅｎ,,合同会社,熊本県,菊池市,泗水町永２８３７番地２４,,43,210,8611204,,,2022-11-01,合併による解散等,4330003005785,令和４年１１月１日熊本県菊池市旭志川辺１９２７番地１合同会社ＣＡＤ（4330003005785）に合併し解散,2015-10-05,1,,,,,ピオン,0
2147,7390002005282,登記記録の閉鎖等,0,2022-11-04,2022-10-31,有限会社エフイー山形,,有限会社,山形県,天童市,大字荒谷４０３番地の５,,06,210,9940054,,,2022-10-31,清算の結了等,,,2015-10-05,1,,,,,エフイーヤマガタ,0
2158,7430002066634,登記記録の閉鎖等,0,2022-11-04,2022-10-25,有限会社水内不動産,,有限会社,北海道,小樽市,色内２丁目４番１４号,,01,203,0470031,,,2022-10-25,清算の結了等,,,2015-11-06,1,,,,,ミズウチフドウサン,0
2213,8010401144643,登記記録の閉鎖等,0,2022-11-04,2022-10-20,株式会社ゲームダッチー,,株式会社,東京都,港区,新橋５丁目１２番１１号天翔新橋５丁目ビル,,13,103,1050004,,,2022-10-20,清算の結了等,,,2019-03-27,1,,,,,ゲームダッチー,0
2220,8010402022534,登記記録の閉鎖等,0,2022-11-04,2022-10-18,有限会社ウノパーウノ,,有限会社,東京都,港区,南青山６丁目３番１３号,,13,103,1070062,,,2022-10-18,清算の結了等,,,2015-10-05,1,,,,,ウノパーウノ,0
2232,8010601016709,登記記録の閉鎖等,0,2022-11-04,2022-10-31,株式会社ラ・ベール青山,,株式会社,東京都,墨田区,墨田３丁目３８番１１号,,13,107,1310031,,,2022-10-31,清算の結了等,,,2015-10-05,1,,,,,ラベールアオヤマ,0
2270,8012402010378,登記記録の閉鎖等,0,2022-11-04,2022-10-26,有限会社イワキ工業,,有限会社,東京都,国分寺市,東元町２丁目５番１４号ネクステージ国分寺４０３,,13,214,1850022,,,2022-10-26,清算の結了等,,,2015-10-05,1,,,,,イワキコウギョウ,0
2277,8013302019311,登記記録の閉鎖等,0,2022-11-04,2022-10-31,有限会社ビサイド,,有限会社,東京都,豊島区,東池袋１丁目２２番１－４０３号,,13,116,1700013,,,2022-10-31,清算の結了等,,,2015-10-05,1,,,,,ビサイド,0
2295,8021001010103,登記記録の閉鎖等,0,2022-11-04,2022-10-31,アークフーズ株式会社,,株式会社,神奈川県,鎌倉市,玉縄１丁目３番１６号,,14,204,2470071,,,2022-10-31,清算の結了等,,,2015-10-05,1,,,,,アークフーズ,0
2296,8021001011398,登記記録の閉鎖等,0,2022-11-04,2022-10-31,株式会社榮明建設,,株式会社,神奈川県,相模原市南区,東林間５丁目１４番４号アーデルビル１Ｆ,,14,153,2520311,,,2022-10-31,清算の結了等,,,2015-10-05,1,,,,,,0
2302,8030001119309,登記記録の閉鎖等,0,2022-11-04,2022-10-24,株式会社Ｇトレーディング,,株式会社,埼玉県,熊谷市,銀座１丁目１２３番地４ＫＩビル４０２,,11,202,3600032,,,2022-10-24,清算の結了等,,,2017-03-23,1,,,,,ジートレーディング,0
2332,8080005000526,登記記録の閉鎖等,0,2022-11-04,2022-10-19,宗教法人洞泉寺,,その他の設立登記法人,静岡県,静岡市葵区,小島２３５番地,,22,101,4211301,,,2022-10-19,合併による解散等,4080005000389,令和４年１０月１９日静岡市葵区坂本２４４番地清源寺（4080005000389）に合併し解散,2015-10-05,1,,,,,トウセンジ,0
2334,8080101021616,登記記録の閉鎖等,0,2022-11-04,2022-11-01,丸五株式会社,,株式会社,静岡県,下田市,須原１０７８番地１,,22,219,4130716,,,2022-11-01,清算の結了等,,,2020-02-14,1,,,,,マルゴ,0
2340,8090001013398,登記記録の閉鎖等,0,2022-11-04,2022-10-28,株式会社イーグル,,株式会社,山梨県,甲斐市,大下条４３８番地５,,19,210,4000126,,,2022-10-28,清算の結了等,,,2015-10-05,1,,,,,,0
2375,8120002078338,登記記録の閉鎖等,0,2022-11-04,2022-11-02,有限会社光洋設計技研,,有限会社,大阪府,守口市,東郷通３丁目９番７号,,27,209,5700041,,,2022-11-02,清算の結了等,,,2015-10-05,1,,,,,コウヨウセッケイギケン,0
2385,8120103002130,登記記録の閉鎖等,0,2022-11-04,2022-11-02,合同会社メガソーラー４号,,合同会社,大阪府,泉佐野市,鶴原１８４７番地１－１０１号,,27,213,5980071,,,2022-11-02,清算の結了等,,,2015-10-05,1,,,,,メガソーラーヨンゴウ,0
2386,8120103003021,登記記録の閉鎖等,0,2022-11-04,2022-11-02,合同会社あづま小富士メガソーラー,,合同会社,大阪府,泉佐野市,鶴原１８４７番地１－２０３号,,27,213,5980071,,,2022-11-02,清算の結了等,,,2018-05-15,1,,,,,アズマコフジメガソーラー,0
2393,8140001047878,登記記録の閉鎖等,0,2022-11-04,2022-11-01,株式会社エス・イー・ラボ,,株式会社,兵庫県,尼崎市,南塚口町５丁目３番５号,,28,202,6610012,,,2022-11-01,清算の結了等,,,2015-10-05,1,,,,,エスイーラボ,0
2425,8180002003777,登記記録の閉鎖等,0,2022-11-04,2022-10-31,有限会社岡田旗店,,有限会社,愛知県,名古屋市千種区,振甫町３丁目２９番地,,23,101,4640072,,,2022-10-31,清算の結了等,,,2015-10-05,1,,,,,オカダハタテン,0
2444,8210002008582,登記記録の閉鎖等,0,2022-11-04,2022-11-01,有限会社むー,,有限会社,福井県,福井市,八重巻中町５の１４番地,,18,201,9100158,,,2022-11-01,清算の結了等,,,2015-10-05,1,,,,,ムー,0
2503,8370502000957,登記記録の閉鎖等,0,2022-11-04,2022-10-26,有限会社ヤマネ商店,,有限会社,宮城県,気仙沼市,魚町２丁目４番１７号,,04,205,9880013,,,2022-10-26,清算の結了等,,,2015-10-05,1,,,,,ヤマネショウテン,0
2504,8380001018954,登記記録の閉鎖等,0,2022-11-04,2022-10-31,株式会社エコ・フレンドリーかねやま,,株式会社,福島県,河沼郡会津坂下町,大字福原字屋敷添８２番地,,07,421,9696527,,,2022-10-31,清算の結了等,,,2015-10-05,1,,,,,エコフレンドリーカネヤマ,0
2510,8410001007318,登記記録の閉鎖等,0,2022-11-04,2022-10-31,株式会社八竜運輸,,株式会社,秋田県,能代市,字長崎８４番地１,,05,202,0160873,,,2022-10-31,清算の結了等,,,2015-10-05,1,,,,,ハチリュウウンユ,0
2518,8470001016833,登記記録の閉鎖等,0,2022-11-04,2022-10-31,株式会社明栄丸,,株式会社,香川県,さぬき市,津田町津田１２６９番地１,,37,206,7692401,,,2022-10-31,清算の結了等,,,2018-04-17,1,,,,,ミョウエイマル,0
2521,8470002001982,登記記録の閉鎖等,0,2022-11-04,2022-11-01,有限会社片山建装,,有限会社,香川県,高松市,花ノ宮町３丁目４番２３号,,37,201,7618063,,,2022-11-01,清算の結了等,,,2015-10-05,1,,,,,カタヤマケンソウ,0
2522,8480001008004,登記記録の閉鎖等,0,2022-11-04,2022-11-01,株式会社ヒロセ,,株式会社,徳島県,名西郡石井町,石井字石井１１６９番地５,,36,341,7793233,,,2022-11-01,清算の結了等,,,2015-10-05,1,,,,,ヒロセ,0
2550,9010401093492,登記記録の閉鎖等,0,2022-11-04,2022-10-19,株式会社エトワール,,株式会社,東京都,港区,新橋６丁目１９番１号シティハウス東京新橋４０９号室,,13,103,1050004,,,2022-10-19,清算の結了等,,,2015-10-05,1,,,,,エトワール,0
2559,9010403008143,登記記録の閉鎖等,0,2022-11-04,2022-10-31,オーパスキャピタルマネジメント合同会社,,合同会社,東京都,新宿区,西新宿１丁目２０番３号,,13,104,1600023,,,2022-10-31,合併による解散等,1010401078047,令和４年１０月１日東京都港区虎ノ門四丁目３番２０号神谷町ＭＴビル１４階Ｏｐｕｓ　Ｈｏｌｄｉｎｇｓ株式会社（1010401078047）に合併し解散,2015-10-05,1,,,,,オーパスキャピタルマネジメント,0
2576,9010901024245,登記記録の閉鎖等,0,2022-11-04,2022-11-01,株式会社ファルマ,,株式会社,東京都,世田谷区,太子堂２丁目１５番１号野村三軒茶屋ビル７階,,13,112,1540004,,,2022-11-01,合併による解散等,8010401167561,令和４年１０月１４日東京都港区元赤坂一丁目１番８号株式会社赤坂国際会計内株式会社ファルマ（8010401167561）に合併し解散,2015-10-05,1,,,,,ファルマ,0
2582,9011001115827,登記記録の閉鎖等,0,2022-11-04,2022-10-19,株式会社イリス,,株式会社,東京都,渋谷区,千駄ヶ谷３丁目１４番３号ワイズテラス原宿９０１,,13,113,1510051,,,2022-10-19,清算の結了等,,,2017-04-18,1,,,,,イリス,0
2593,9011103010050,登記記録の閉鎖等,0,2022-11-04,2022-11-01,合同会社ＥＳ３７,,合同会社,東京都,新宿区,下宮比町１番４号,,13,104,1620822,,,2022-11-01,清算の結了等,,,2020-09-28,1,,,,,イーエスサンジュウナナ,0
2606,9012701010152,登記記録の閉鎖等,0,2022-11-04,2022-11-01,デプラス株式会社,,株式会社,東京都,小平市,花小金井５丁目３４番４－７号,,13,211,1870002,,,2022-11-01,清算の結了等,,,2015-10-05,1,,,,,デプラス,0
2619,9020001094840,登記記録の閉鎖等,0,2022-11-04,2022-10-28,ＧＡＮＥＳＨＡ　ＩＮＴＥＲＮＡＴＩＯＮＡＬ株式会社,,株式会社,神奈川県,横浜市保土ケ谷区,天王町２丁目４４番１１,,14,106,2400003,,,2022-10-28,清算の結了等,,,2015-10-05,1,,,,,,0
2622,9020003018896,登記記録の閉鎖等,0,2022-11-04,2022-10-31,合同会社ＳＯＫＫＯＤＯ　ＧＡＷ,,合同会社,神奈川県,横浜市泉区,中田南１丁目１７番６号秋元館２０２号,,14,116,2450014,,,2022-10-31,清算の結了等,,,2020-12-07,1,,,,,ソッコウドウジーエーダウリュウ,0
2635,9030002080236,登記記録の閉鎖等,0,2022-11-04,2022-10-26,有限会社訪問介護事業所リリエンベルグ,,有限会社,埼玉県,ふじみ野市,大井中央２丁目２番１７号,,11,245,3560058,,,2022-10-26,清算の結了等,,,2015-10-05,1,,,,,ホウモンカイゴジギョウショリリエンベルグ,0
2644,9040002071952,登記記録の閉鎖等,0,2022-11-04,2022-10-27,有限会社那須美,,有限会社,千葉県,市原市,八幡１６１８番地１,,12,219,2900062,,,2022-10-27,清算の結了等,,,2015-10-05,1,,,,,ナスミ,0
2649,9050001017740,登記記録の閉鎖等,0,2022-11-04,2022-10-26,つくば調剤株式会社,,株式会社,茨城県,つくば市,二の宮２丁目５番地１,,08,220,3050051,,,2022-10-26,清算の結了等,,,2015-10-05,1,,,,,ツクバチョウザイ,0
2651,9050001042383,登記記録の閉鎖等,0,2022-11-04,2022-10-26,株式会社ルーツ８０８,,株式会社,埼玉県,草加市,住吉１丁目５番２７号,,11,221,3400014,,,2022-10-26,清算の結了等,,,2017-03-10,1,,,,,ルーツハチマルハチ,0
2659,9060001009935,登記記録の閉鎖等,0,2022-11-04,2022-10-26,株式会社茂木銀行,,株式会社,栃木県,芳賀郡茂木町,大字茂木２１５８番地３号,,09,343,3213531,,,2022-10-26,清算の結了等,,,2015-10-05,1,,,,,,0
2684,9120001011240,登記記録の閉鎖等,0,2022-11-04,2022-11-01,株式会社森家伸育堂,,株式会社,大阪府,大阪市東住吉区,今川３丁目７番２０号,,27,121,5460003,,,2022-11-01,清算の結了等,,,2015-10-05,1,,,,,モリヤシンイクドウ,0
2688,9120001089269,登記記録の閉鎖等,0,2022-11-04,2022-11-01,上町商会株式会社,,株式会社,大阪府,大阪市中央区,上町１丁目１９番４号,,27,128,5400005,,,2022-11-01,清算の結了等,,,2015-10-05,1,,,,,,0
2690,9120001149139,登記記録の閉鎖等,0,2022-11-04,2022-11-01,株式会社エフエムひらかた,,株式会社,大阪府,枚方市,岡東町１２番１－２０１号,,27,210,5730032,,,2022-11-01,清算の結了等,,,2015-10-05,1,,,,,エフエムヒラカタ,0
2691,9120001194647,登記記録の閉鎖等,0,2022-11-04,2022-11-01,株式会社Ｅｘｐｅｃｔ,,株式会社,大阪府,大阪市北区,西天満４丁目１番２号,,27,127,5300047,,,2022-11-01,清算の結了等,,,2015-11-24,1,,,,,エクスペクト,0
2729,9170003001631,登記記録の閉鎖等,0,2022-11-04,2022-11-01,合同会社ＨＡＮＡＭＯ,,合同会社,和歌山県,紀の川市,豊田４０６番地２,,30,208,6496445,,,2022-11-01,清算の結了等,,,2021-09-09,1,,,,,ハナモ,0
2746,9180003021447,登記記録の閉鎖等,0,2022-11-04,2022-10-31,合同会社かた屋,,合同会社,愛知県,稲沢市,日下部東町３丁目１９番地,,23,220,4928177,,,2022-10-31,清算の結了等,,,2020-07-30,1,,,,,カタヤ,0
2757,9200002016486,登記記録の閉鎖等,0,2022-11-04,2022-10-31,有限会社村雲建築,,有限会社,岐阜県,加茂郡東白川村,神土２６９４番地,,21,507,5091302,,,2022-10-31,清算の結了等,,,2015-10-05,1,,,,,ムラクモケンチク,0
2778,9260002025770,登記記録の閉鎖等,0,2022-11-04,2022-10-31,徳永建設有限会社,,有限会社,岡山県,井原市,上出部町６６５番地,,33,207,7150021,,,2022-10-31,清算の結了等,,,2015-10-05,1,,,,,トクナガケンセツ,0
2779,9270002010128,登記記録の閉鎖等,0,2022-11-04,2022-11-01,有限会社ジャスティス,,有限会社,鳥取県,倉吉市,伊木２１４番地３,,31,203,6820024,,,2022-11-01,合併による解散等,4270003000306,令和４年１１月１日鳥取県倉吉市秋喜４３９番地２７合同会社グラン・シティ（4270003000306）に合併し解散,2015-10-05,1,,,,,ジャスティス,0
2781,9290001084393,登記記録の閉鎖等,0,2022-11-04,2022-10-19,株式会社シャインフォレスト,,株式会社,東京都,港区,芝２丁目３０番６号ファインラック芝２Ｆ,,13,103,1050014,,,2022-10-19,清算の結了等,,,2019-03-05,1,,,,,シャインフォレスト,0
2795,9290805004761,登記記録の閉鎖等,0,2022-11-04,2022-10-18,天理教広渡分教会,,その他の設立登記法人,福岡県,遠賀郡遠賀町,大字広渡１２４２番地,,40,384,8114302,,,2022-10-18,合併による解散等,4480005004449,令和４年１０月１３日徳島県阿南市椿町庄田８２番地３１天理教東阿分教会（4480005004449）に合併し解散,2015-10-05,1,,,,,,0
2820,9360003007790,登記記録の閉鎖等,0,2022-11-04,2022-10-05,合同会社白い砂,,合同会社,東京都,港区,浜松町２丁目２番１５号浜松町ダイヤビル２Ｆ,,13,103,1050013,,,2022-10-05,清算の結了等,,,2016-09-27,1,,,,,シロイスナ,0
2826,9400002010840,登記記録の閉鎖等,0,2022-11-04,2022-10-31,有限会社ミナック,,有限会社,岩手県,宮古市,栄町３番３５号,,03,202,0270076,,,2022-10-31,清算の結了等,,,2015-10-05,1,,,,,,0
2836,9460101005810,登記記録の閉鎖等,0,2022-11-04,2022-10-31,株式会社プロワーク,,株式会社,北海道,帯広市,西十八条南３丁目１３番７号,,01,207,0800028,,,2022-10-31,清算の結了等,,,2015-10-09,1,,,,,プロワーク,0
