sequenceNumber,corporateNumber,process,correct,updateDate,changeDate,name,nameImageId,kind,prefectureName,cityName,streetNumber,addressImageId,prefectureCode,cityCode,postCode,addressOutside,addressOutsideImageId,closeDate,closeCause,successorCorporateNumber,changeCause,assignmentDate,latest,enName,enPrefectureName,enCityName,enAddressOutside,furigana,hihyoji
2,1010001048103,登記記録の閉鎖等,0,2022-02-03,2022-01-27,株式会社セントラル・コミュニケーション,,株式会社,東京都,中央区,日本橋人形町２丁目１８番９号,,13,102,1030013,,,2022-01-27,清算の結了等,,,2015-10-05,1,,,,,セントラルコミュニケーション,0
12,1010401095901,登記記録の閉鎖等,0,2022-02-03,2022-01-28,株式会社エルミタージュホテルズ,,株式会社,千葉県,市川市,市川１丁目９番７号,,12,203,2720034,,,2022-01-28,清算の結了等,,,2015-10-05,1,,,,,エルミタージュホテルズ,0
31,1010702001418,登記記録の閉鎖等,0,2022-02-03,2022-01-28,有限会社荏原建築会館,,有限会社,東京都,品川区,小山６丁目１３番１５号,,13,109,1420062,,,2022-01-28,清算の結了等,,,2015-10-05,1,,,,,エバラケンチクカイカン,0
34,1010801010815,登記記録の閉鎖等,0,2022-02-03,2022-01-26,株式会社豊玉,,株式会社,東京都,大田区,中央３丁目８番１４号,,13,111,1430024,,,2022-01-26,清算の結了等,,,2015-10-05,1,,,,,ホウギョク,0
35,1010801022488,登記記録の閉鎖等,0,2022-02-03,2022-02-01,株式会社デイタム,,株式会社,神奈川県,中郡大磯町,大磯３６４番地５,,14,341,2550003,,,2022-02-01,清算の結了等,,,2015-10-05,1,,,,,デイタム,0
47,1011005007821,登記記録の閉鎖等,0,2022-02-03,2022-01-31,一般社団法人ＣＩＥＥ国際教育交換協議会,,その他の設立登記法人,東京都,千代田区,紀尾井町７番１号,,13,101,1020094,,,2022-01-31,清算の結了等,,,2018-09-12,1,,,,,シーアイイーイーコクサイキョウイクコウカンキョウギカイ,0
57,1011701004048,登記記録の閉鎖等,0,2022-02-03,2022-01-31,株式会社ジョイハウス・システムズ,,株式会社,東京都,江戸川区,中葛西２丁目１０番１１号,,13,123,1340083,,,2022-01-31,清算の結了等,,,2015-10-05,1,,,,,ジョイハウスシステムズ,0
60,1011801024508,登記記録の閉鎖等,0,2022-02-03,2022-01-24,ＩＴネクスト株式会社,,株式会社,東京都,新宿区,西新宿８丁目５番１０号,,13,104,1600023,,,2022-01-24,合併による解散等,6430001008290,令和４年１月１日札幌市白石区南郷通一丁目北８番１号ＳＤエンターテイメント株式会社（6430001008290）に合併し解散,2015-10-05,1,,,,,アイティーネクスト,0
68,1012701001191,登記記録の閉鎖等,0,2022-02-03,2022-02-01,恵比須屋ホーム株式会社,,株式会社,東京都,東村山市,久米川町４丁目３３番地１６,,13,213,1890003,,,2022-02-01,清算の結了等,,,2015-10-05,1,,,,,エビスヤホーム,0
82,1020001139917,登記記録の閉鎖等,0,2022-02-03,2022-02-01,株式会社ＭＩＲＡＩ　ＥＳＴＡＴＥ,,株式会社,神奈川県,横浜市中区,花咲町１丁目１８番地,,14,104,2310063,,,2022-02-01,清算の結了等,,,2021-02-12,1,,,,,ミライエステート,0
95,1030001111866,登記記録の閉鎖等,0,2022-02-03,2022-01-31,株式会社二代目狼煙,,株式会社,埼玉県,さいたま市北区,植竹町１丁目１１４番地３,,11,102,3310813,,,2022-01-31,清算の結了等,,,2015-12-15,1,,,,,,0
97,1030003015974,登記記録の閉鎖等,0,2022-02-03,2022-02-01,合同会社ＭＹコーポレーション,,合同会社,埼玉県,上尾市,谷津２丁目１－５０－１１０４,,11,219,3620042,,,2022-02-01,清算の結了等,,,2020-10-05,1,,,,,エムワイコーポレーション,0
112,1040002051012,登記記録の閉鎖等,0,2022-02-03,2022-01-26,有限会社荒木電業,,有限会社,千葉県,流山市,松ケ丘４丁目５２０番地の２５７,,12,220,2700141,,,2022-01-26,清算の結了等,,,2015-10-05,1,,,,,アラキデンギョウ,0
118,1060002015436,登記記録の閉鎖等,0,2022-02-03,2022-02-01,有限会社矢野製材所,,有限会社,栃木県,日光市,小代１０７７番地１,,09,206,3211107,,,2022-02-01,清算の結了等,,,2015-10-05,1,,,,,ヤノセイザイショ,0
127,1110001013468,登記記録の閉鎖等,0,2022-02-03,2022-02-01,株式会社フェニックス,,株式会社,新潟県,新発田市,豊町２丁目１０番８号,,15,206,9570016,,,2022-02-01,清算の結了等,,,2015-10-05,1,,,,,フェニックス,0
129,1120001083213,登記記録の閉鎖等,0,2022-02-03,2022-01-31,株式会社ダイワエンジニアリング,,株式会社,大阪府,大阪市中央区,千日前２丁目８番４号,,27,128,5420074,,,2022-01-31,清算の結了等,,,2015-10-05,1,,,,,ダイワエンジニアリング,0
151,1130001053537,登記記録の閉鎖等,0,2022-02-03,2022-01-31,株式会社ＴＳＵＢＡＳＡ,,株式会社,京都府,京都市伏見区,向島鷹場町１０４番地１,,26,109,6128133,,,2022-01-31,清算の結了等,,,2015-10-05,1,,,,,ツバサ,0
184,1190001000847,登記記録の閉鎖等,0,2022-02-03,2022-02-01,株式会社ハイパーツ三重,,株式会社,三重県,津市,戸木町字赤部５０８１番地の４,,24,201,5141138,,,2022-02-01,清算の結了等,,,2015-10-05,1,,,,,ハイパーツミエ,0
212,1290002025924,登記記録の閉鎖等,0,2022-02-03,2022-01-31,有限会社オフィスアーリィ,,有限会社,福岡県,福岡市中央区,赤坂３丁目４番２２－１５０２号,,40,133,8100042,,,2022-01-31,清算の結了等,,,2015-10-05,1,,,,,オフィスアーリィ,0
260,2010001169212,登記記録の閉鎖等,0,2022-02-03,2022-02-01,ＢＴＣリサーチアソシエイツ株式会社,,株式会社,神奈川県,横浜市瀬谷区,南台１丁目３番１号南台ハイツＡ６棟３０２,,14,114,2460032,,,2022-02-01,清算の結了等,,,2015-10-05,1,,,,,ビーティーシーリサーチアソシエイツ,0
264,2010002042509,登記記録の閉鎖等,0,2022-02-03,2022-01-28,伊能商事有限会社,,有限会社,東京都,文京区,根津２丁目１２番５号,,13,105,1130031,,,2022-01-28,清算の結了等,,,2015-10-05,1,,,,,イノウショウジ,0
271,2010401090232,登記記録の閉鎖等,0,2022-02-03,2022-01-27,晟峰ソフト株式会社,,株式会社,東京都,港区,浜松町２丁目２番１５号,,13,103,1050013,,,2022-01-27,清算の結了等,,,2015-10-05,1,,,,,セイホウソフト,0
289,2010801023056,登記記録の閉鎖等,0,2022-02-03,2022-01-26,イグアス・ゼンド株式会社,,株式会社,東京都,大田区,蒲田５丁目３７番１号ニッセイアロマスクエア,,13,111,1440052,,,2022-01-26,清算の結了等,,,2015-10-05,1,,,,,イグアスゼンド,0
290,2010801028559,登記記録の閉鎖等,0,2022-02-03,2022-01-31,ＳｈａｒｅＴａｂｌｅ株式会社,,株式会社,東京都,中央区,日本橋本町３丁目３番６号,,13,102,1030023,,,2022-01-31,合併による解散等,4011801025957,令和４年１月３１日東京都中央区日本橋本町三丁目３番６号株式会社一創（4011801025957）に合併し解散,2018-02-16,1,,,,,シェアテーブル,0
308,2011101034768,登記記録の閉鎖等,0,2022-02-03,2022-02-01,株式会社ジャパン・セキュリティ・サポート,,株式会社,東京都,新宿区,左門町６番地４,,13,104,1600017,,,2022-02-01,清算の結了等,,,2015-10-05,1,,,,,ジャパンセキュリティサポート,0
313,2011101089242,登記記録の閉鎖等,0,2022-02-03,2022-01-31,株式会社Ｎｅｗｍｏｒｅ,,株式会社,東京都,新宿区,歌舞伎町２丁目２５番８号,,13,104,1600021,,,2022-01-31,清算の結了等,,,2019-10-10,1,,,,,ニューモア,0
316,2011301012433,登記記録の閉鎖等,0,2022-02-03,2022-02-01,株式会社ＭＩＳＨ,,株式会社,東京都,杉並区,本天沼１丁目１４番８号,,13,115,1670031,,,2022-02-01,清算の結了等,,,2015-10-05,1,,,,,ミッシュ,0
322,2011602005838,登記記録の閉鎖等,0,2022-02-03,2022-01-31,有限会社荘酒店,,有限会社,東京都,練馬区,大泉町５丁目６番４８号,,13,120,1780062,,,2022-01-31,清算の結了等,,,2015-10-05,1,,,,,ソウサケテン,0
335,2012401022009,登記記録の閉鎖等,0,2022-02-03,2022-02-01,株式会社ネクスト,,株式会社,神奈川県,横浜市瀬谷区,南台１丁目３番１号南台ハイツＡ６棟３０２,,14,114,2460032,,,2022-02-01,清算の結了等,,,2015-10-05,1,,,,,ネクスト,0
343,2020001049108,登記記録の閉鎖等,0,2022-02-03,2022-01-31,株式会社メルモ企画,,株式会社,神奈川県,横浜市保土ケ谷区,新桜ケ丘１丁目２５番１６号,,14,106,2400036,,,2022-01-31,清算の結了等,,,2015-10-05,1,,,,,メルモキカク,0
350,2020002021965,登記記録の閉鎖等,0,2022-02-03,2022-01-31,有限会社トナミ,,有限会社,神奈川県,横浜市旭区,都岡町２６番地１１,,14,112,2410805,,,2022-01-31,清算の結了等,,,2015-10-05,1,,,,,トナミ,0
357,2021002026095,登記記録の閉鎖等,0,2022-02-03,2022-01-31,有限会社孝誠クリーンサービス,,有限会社,東京都,八王子市,打越町１３１２番地の１７０,,13,201,1920911,,,2022-01-31,清算の結了等,,,2015-10-05,1,,,,,,0
370,2030003012203,登記記録の閉鎖等,0,2022-02-03,2022-01-24,荻野不動産合同会社,,合同会社,埼玉県,川越市,大字的場５４３番地１,,11,201,3501101,,,2022-01-24,清算の結了等,,,2018-07-23,1,,,,,オギノフドウサン,0
380,2050001021451,登記記録の閉鎖等,0,2022-02-03,2022-02-01,株式会社小林ゴム工業所,,株式会社,茨城県,潮来市,曲松２８０８番地の２,,08,223,3112447,,,2022-02-01,清算の結了等,,,2015-10-05,1,,,,,コバヤシゴムコウギョウショ,0
388,2060002035251,登記記録の閉鎖等,0,2022-02-03,2022-01-31,有限会社足南ブロイラー,,有限会社,栃木県,足利市,百頭町２０５２番地,,09,202,3260336,,,2022-01-31,清算の結了等,,,2015-10-05,1,,,,,アシナンブロイラー,0
395,2080101014468,登記記録の閉鎖等,0,2022-02-03,2022-02-02,株式会社後藤組,,株式会社,静岡県,下田市,西本郷２丁目２１番１１号,,22,219,4150036,,,2022-02-02,清算の結了等,,,2015-10-05,1,,,,,ゴトウグミ,0
407,2110002027904,登記記録の閉鎖等,0,2022-02-03,2022-01-31,有限会社島権,,有限会社,新潟県,長岡市,川崎４丁目４１９９番地,,15,202,9400864,,,2022-01-31,清算の結了等,,,2015-10-05,1,,,,,シマゴン,0
475,2240002022966,登記記録の閉鎖等,0,2022-02-03,2022-02-01,有限会社ティー・ティー・エム,,有限会社,広島県,広島市中区,鉄砲町３番８号,,34,101,7300017,,,2022-02-01,清算の結了等,,,2015-10-05,1,,,,,ティーティーエム,0
495,2310005002198,登記記録の閉鎖等,0,2022-02-03,2022-02-02,特定非営利活動法人長崎県難聴者・中途失聴者協会,,その他の設立登記法人,長崎県,諫早市,小豆崎町６３４番地４,,42,204,8590311,,,2022-02-02,清算の結了等,,,2015-10-05,1,,,,,ナガサキケンナンチョウシャチュウトシッチョウシャキョウカイ,0
504,2370001015090,登記記録の閉鎖等,0,2022-02-03,2022-02-01,株式会社ＭＡＰ重舗,,株式会社,宮城県,仙台市太白区,東郡山２丁目３０番１２号,,04,104,9820006,,,2022-02-01,清算の結了等,,,2015-10-05,1,,,,,,0
509,2370001043298,登記記録の閉鎖等,0,2022-02-03,2022-02-01,株式会社かなで,,株式会社,宮城県,仙台市泉区,南光台５丁目２７－１小野寺ビル１０２,,04,105,9818003,,,2022-02-01,清算の結了等,,,2018-07-11,1,,,,,,0
537,2440003000240,登記記録の閉鎖等,0,2022-02-03,2022-02-02,合名会社丸久村田商店,,合名会社,北海道,函館市,谷地頭町２５番１４号,,01,202,0400046,,,2022-02-02,清算の結了等,,,2015-10-05,1,,,,,マルキュウムラタショウテン,0
544,2500001005557,登記記録の閉鎖等,0,2022-02-03,2022-02-01,株式会社エンハンス,,株式会社,愛媛県,松山市,余戸東１丁目１番１０号,,38,201,7900044,,,2022-02-01,合併による解散等,3500001003155,令和４年２月１日愛媛県松山市余戸東一丁目１番１０号株式会社西日本常盤商行（3500001003155）に合併し解散,2015-10-05,1,,,,,エンハンス,0
559,3010005025963,登記記録の閉鎖等,0,2022-02-03,2022-02-01,一般社団法人開発２７号,,その他の設立登記法人,東京都,千代田区,一番町９番地８ノザワビルディング６階税理士法人シリウス内,,13,101,1020082,,,2022-02-01,清算の結了等,,,2016-11-02,1,,,,,カイハツニジュウナナゴウ,0
562,3010103001445,登記記録の閉鎖等,0,2022-02-03,2022-01-31,オプトサイト合同会社,,合同会社,東京都,八王子市,丸山町３３番地１５,,13,201,1920021,,,2022-01-31,清算の結了等,,,2019-09-05,1,,,,,オプトサイト,0
580,3010403021804,登記記録の閉鎖等,0,2022-02-03,2022-01-28,合同会社ＥＵＣ,,合同会社,東京都,港区,虎ノ門１丁目１２番１５号株式会社フォーカス内,,13,103,1050001,,,2022-01-28,清算の結了等,,,2019-11-18,1,,,,,イーユーシー,0
596,3011001069649,登記記録の閉鎖等,0,2022-02-03,2022-01-18,ジャイロテック株式会社,,株式会社,東京都,八王子市,日吉町１５－３リバーサイドアネックス５０１号,,13,201,1930836,,,2022-01-18,清算の結了等,,,2015-10-05,1,,,,,ジャイロテック,0
620,3011701021025,登記記録の閉鎖等,0,2022-02-03,2022-01-31,不動パートナーズ株式会社,,株式会社,東京都,江戸川区,南篠崎町４丁目１５番１０－２０１号,,13,123,1330065,,,2022-01-31,清算の結了等,,,2017-07-19,1,,,,,フドウパートナーズ,0
641,3021001053940,登記記録の閉鎖等,0,2022-02-03,2022-01-26,かながわ介護福祉事業株式会社,,株式会社,神奈川県,小田原市,浜町１丁目４番９号,,14,206,2500004,,,2022-01-26,合併による解散等,3021001061398,令和４年１月２６日神奈川県小田原市扇町一丁目１５番３号株式会社やさしい手かながわ（3021001061398）に合併し解散,2015-10-05,1,,,,,カナガワカイゴフクシジギョウ,0
664,3040002101780,登記記録の閉鎖等,0,2022-02-03,2022-01-26,有限会社源氏食堂,,有限会社,千葉県,いすみ市,大原８７０１番地,,12,238,2980004,,,2022-01-26,清算の結了等,,,2015-10-05,1,,,,,ゲンジショクドウ,0
680,3080002016950,登記記録の閉鎖等,0,2022-02-03,2022-01-31,有限会社橋本建商,,有限会社,静岡県,焼津市,高新田２７９番地の１１,,22,212,4210204,,,2022-01-31,清算の結了等,,,2015-10-05,1,,,,,ハシモトケンショウ,0
689,3120001116029,登記記録の閉鎖等,0,2022-02-03,2022-02-01,日商システム販売株式会社,,株式会社,大阪府,大阪市中央区,高麗橋２丁目２番７号,,27,128,5410043,,,2022-02-01,清算の結了等,,,2015-10-05,1,,,,,ニッショウシステムハンバイ,0
704,3120005019046,登記記録の閉鎖等,0,2022-02-03,2022-02-01,一般社団法人パッチワーク,,その他の設立登記法人,大阪府,大阪市生野区,巽北２丁目１３番７号松久マンション１０１,00108374,27,116,5440004,,,2022-02-01,清算の結了等,,,2016-11-11,1,,,,,パッチワーク,0
714,3130001029337,登記記録の閉鎖等,0,2022-02-03,2022-01-27,株式会社ｅｘａｃｔ,,株式会社,京都府,京都市下京区,七条通加茂川筋西入稲荷町４４８番地七条鴨川ビル３階,,26,106,6008133,,,2022-01-27,清算の結了等,,,2015-10-05,1,,,,,イグザクト,0
734,3180001107996,登記記録の閉鎖等,0,2022-02-03,2022-01-31,株式会社Ｆｌａｐ,,株式会社,愛知県,春日井市,鳥居松町６丁目５０番地,,23,206,4860844,,,2022-01-31,清算の結了等,,,2015-10-05,1,,,,,フラップ,0
736,3180001123696,登記記録の閉鎖等,0,2022-02-03,2022-02-02,株式会社森の太陽,,株式会社,愛知県,豊田市,田茂平町新子４３８番地１,,23,211,4700423,,,2022-02-02,清算の結了等,,,2016-06-09,1,,,,,モリノタイヨウ,0
740,3180002029991,登記記録の閉鎖等,0,2022-02-03,2022-01-31,有限会社エイアイ設計,,有限会社,愛知県,名古屋市中区,金山３丁目１５番１７号,,23,106,4600022,,,2022-01-31,清算の結了等,,,2015-10-05,1,,,,,エイアイセッケイ,0
750,3200001037852,登記記録の閉鎖等,0,2022-02-03,2022-01-26,株式会社ゆき家,,株式会社,岐阜県,多治見市,喜多町８丁目３４番地の４,,21,204,5070055,,,2022-01-26,清算の結了等,,,2020-09-23,1,,,,,ユキヤ,0
759,3260001019473,登記記録の閉鎖等,0,2022-02-03,2022-01-31,株式会社ＫＫＥ,,株式会社,岡山県,岡山市北区,今７丁目６番１４号,,33,101,7000975,,,2022-01-31,清算の結了等,,,2015-10-05,1,,,,,ケーケーイー,0
762,3270002001677,登記記録の閉鎖等,0,2022-02-03,2022-01-31,有限会社日本住宅,,有限会社,鳥取県,鳥取市,永楽温泉町３５９番地,,31,201,6800834,,,2022-01-31,清算の結了等,,,2015-10-05,1,,,,,ニホンジュウタク,0
785,3360001018993,登記記録の閉鎖等,0,2022-02-03,2022-01-31,株式会社新田会計,,株式会社,沖縄県,那覇市,若狭２丁目３番２１号新里ビル２Ｆ,,47,201,9000031,,,2022-01-31,清算の結了等,,,2015-10-05,1,,,,,,0
800,3430001013723,登記記録の閉鎖等,0,2022-02-03,2022-02-01,エコトラベル株式会社,,株式会社,北海道,札幌市白石区,東札幌二条１丁目２番３３号,,01,104,0030002,,,2022-02-01,合併による解散等,1430001009541,令和４年２月１日札幌市白石区東札幌二条一丁目２番３３号太平石炭株式会社（1430001009541）に合併し解散,2015-10-05,1,,,,,エコトラベル,0
814,3470002007349,登記記録の閉鎖等,0,2022-02-03,2022-02-01,有限会社よしみね,,有限会社,香川県,高松市,古馬場町７番地９,,37,201,7600045,,,2022-02-01,清算の結了等,,,2015-10-05,1,,,,,ヨシミネ,0
825,4010001119966,登記記録の閉鎖等,0,2022-02-03,2022-01-31,ＩｎｆｏＶｉｓｔａ　Ｊａｐａｎ株式会社,,株式会社,東京都,江東区,青海２丁目７番４号,,13,108,1350064,,,2022-01-31,合併による解散等,4011001043644,令和４年１月２０日東京都港区赤坂二丁目５番２７号ＩｎｆｏＶｉｓｔａ　Ｊａｐａｎ株式会社（4011001043644）に合併し解散,2015-10-05,1,,,,,インフォビスタジャパン,0
826,4010001121055,登記記録の閉鎖等,0,2022-02-03,2022-01-27,株式会社ニックスＮＥＥＤ,,株式会社,東京都,千代田区,一番町２２番地２,,13,101,1020082,,,2022-01-27,清算の結了等,,,2015-10-05,1,,,,,ニックスニード,0
832,4010001202210,登記記録の閉鎖等,0,2022-02-03,2022-01-19,株式会社フェアネス,,株式会社,東京都,千代田区,神田駿河台２丁目３番地１４,,13,101,1010062,,,2022-01-19,清算の結了等,,,2019-07-09,1,,,,,フェアネス,0
833,4010001203489,登記記録の閉鎖等,0,2022-02-03,2022-01-31,モゲチェック・リノベーション株式会社,,株式会社,東京都,千代田区,大手町１丁目６番１号,,13,101,1000004,,,2022-01-31,清算の結了等,,,2019-08-26,1,,,,,モゲチェックリノベーション,0
834,4010001204909,登記記録の閉鎖等,0,2022-02-03,2022-01-31,Ｈａｎａｂｉ　Ｓｕｃｃｅｓｓ株式会社,,株式会社,東京都,中央区,日本橋蛎殻町１丁目３３－６ビューハイツ日本橋１０２号室,,13,102,1030014,,,2022-01-31,清算の結了等,,,2019-10-28,1,,,,,ハナビサクセス,0
871,4011001130888,登記記録の閉鎖等,0,2022-02-03,2022-01-05,株式会社ＴＩＭＥＲＳ　ＣＡＲＥＥＲ,,株式会社,東京都,渋谷区,恵比寿南１丁目１番９号岩徳ビル４Ｆ,,13,113,1500022,,,2022-01-05,合併による解散等,8010401099788,令和３年１２月３１日東京都渋谷区恵比寿南一丁目１番９号岩徳ビル４Ｆ株式会社ＴＩＭＥＲＳ（8010401099788）に合併し解散,2019-11-19,1,,,,,タイマーズキャリア,0
903,4012801016269,登記記録の閉鎖等,0,2022-02-03,2022-02-01,株式会社タカデザインワークス,,株式会社,東京都,日野市,落川２００１番地の４,,13,212,1910034,,,2022-02-01,清算の結了等,,,2015-10-05,1,,,,,,0
935,4030002066818,登記記録の閉鎖等,0,2022-02-03,2022-01-31,有限会社成彊,,有限会社,茨城県,龍ケ崎市,泉町１５９２番地１,,08,208,3010857,,,2022-01-31,清算の結了等,,,2015-10-05,1,,,,,,0
938,4040001092772,登記記録の閉鎖等,0,2022-02-03,2022-01-31,株式会社ドラゴンジャパン,,株式会社,千葉県,富里市,中沢１１４４番地８,,12,233,2860222,,,2022-01-31,清算の結了等,,,2015-11-11,1,,,,,ドラゴンジャパン,0
968,4120002003786,登記記録の閉鎖等,0,2022-02-03,2022-02-01,ムツミ精機有限会社,,有限会社,大阪府,大阪市阿倍野区,昭和町４丁目７番２２号,,27,119,5450011,,,2022-02-01,清算の結了等,,,2015-10-05,1,,,,,ムツミセイキ,0
1023,4230001002407,登記記録の閉鎖等,0,2022-02-03,2022-02-01,株式会社ノア,,株式会社,富山県,富山市,西宮町８番７号,,16,201,9318335,,,2022-02-01,清算の結了等,,,2015-10-05,1,,,,,ノア,0
1031,4260001028671,登記記録の閉鎖等,0,2022-02-03,2022-02-02,株式会社Ｃｉｔｙ,,株式会社,岡山県,岡山市中区,門田屋敷２丁目２番８５号アルビオガーデン門田屋敷１１０２,,33,102,7038275,,,2022-02-02,清算の結了等,,,2015-10-05,1,,,,,,0
1070,4390001015442,登記記録の閉鎖等,0,2022-02-03,2022-02-01,ＳＫＫ　ＥＣＯ株式会社,,株式会社,山形県,米沢市,大字三沢２６１０６番地の４,,06,202,9921202,,,2022-02-01,清算の結了等,,,2018-09-18,1,,,,,エスケイケイエコ,0
1074,4400002007668,登記記録の閉鎖等,0,2022-02-03,2022-02-01,有限会社あしろ農場,,有限会社,岩手県,八幡平市,叺田１７６番地２,,03,214,0287533,,,2022-02-01,合併による解散等,8400001004159,令和４年２月１日岩手県八幡平市叺田１７６番地１株式会社北舘製麺（8400001004159）に合併し解散,2015-10-05,1,,,,,アシロノウジョウ,0
1075,4400601000040,登記記録の閉鎖等,0,2022-02-03,2022-02-01,株式会社岩手電気工業,,株式会社,岩手県,奥州市,水沢太日通り１丁目３番１７号,,03,215,0230827,,,2022-02-01,清算の結了等,,,2015-10-05,1,,,,,イワテデンキコウギョウ,0
1089,4460102002456,登記記録の閉鎖等,0,2022-02-03,2022-01-31,有限会社長澤薬局,,有限会社,北海道,河東郡音更町,大通５丁目２番地,,01,631,0800101,,,2022-01-31,清算の結了等,,,2015-10-05,1,,,,,ナガサワヤッキョク,0
1121,5010401106118,登記記録の閉鎖等,0,2022-02-03,2022-01-27,株式会社Ｖメディカル,,株式会社,東京都,港区,芝４丁目３番５号ファースト岡田ビル５階,,13,103,1080014,,,2022-01-27,清算の結了等,,,2015-10-05,1,,,,,ブイメディカル,0
1157,5011001137643,登記記録の閉鎖等,0,2022-02-03,2022-01-20,株式会社エイトラン,,株式会社,東京都,渋谷区,桜丘町２９番３３号渋谷三信マンション６０２号室,,13,113,1500031,,,2022-01-20,清算の結了等,,,2021-01-04,1,,,,,エイトラン,0
1170,5011301018881,登記記録の閉鎖等,0,2022-02-03,2022-02-01,株式会社ＷＯＲＫＥＲＳ　ＤＯＣＴＯＲＳ,,株式会社,東京都,千代田区,丸の内１丁目９番１号,,13,101,1000005,,,2022-02-01,合併による解散等,7010001067790,令和４年２月１日東京都千代田区丸の内一丁目９番１号株式会社メディカルリソース（7010001067790）に合併し解散,2015-10-05,1,,,,,ワーカーズドクターズ,0
1187,5020001002690,登記記録の閉鎖等,0,2022-02-03,2022-01-27,エースベーカリー株式会社,,株式会社,東京都,中央区,京橋１丁目１９番４号,,13,102,1040031,,,2022-01-27,清算の結了等,,,2015-10-05,1,,,,,エースベーカリー,0
1207,5030001032497,登記記録の閉鎖等,0,2022-02-03,2022-01-31,株式会社カワシマ,,株式会社,埼玉県,川越市,大字増形６８７番地１,,11,201,3501172,,,2022-01-31,清算の結了等,,,2015-10-05,1,,,,,カワシマ,0
1208,5030001037463,登記記録の閉鎖等,0,2022-02-03,2022-01-31,株式会社アルミソーカ,,株式会社,埼玉県,草加市,稲荷３丁目２７番２９号,,11,221,3400003,,,2022-01-31,清算の結了等,,,2015-10-05,1,,,,,アルミソーカ,0
1214,5030002090577,登記記録の閉鎖等,0,2022-02-03,2022-01-31,有限会社細沼企画,,有限会社,埼玉県,吉川市,中野２５３番地,,11,243,3420042,,,2022-01-31,清算の結了等,,,2015-10-05,1,,,,,ホソヌマキカク,0
1241,5060002012743,登記記録の閉鎖等,0,2022-02-03,2022-01-31,有限会社タイケイ,,有限会社,栃木県,さくら市,卯の里１丁目４番地１０,,09,214,3291323,,,2022-01-31,清算の結了等,,,2015-10-05,1,,,,,タイケイ,0
1252,5120001159091,登記記録の閉鎖等,0,2022-02-03,2022-01-31,パナソニックペンションファンドマネジメント株式会社,,株式会社,大阪府,門真市,中町１番１９号,,27,223,5710055,,,2022-01-31,清算の結了等,,,2015-10-05,1,,,,,パナソニックペンションファンドマネジメント,0
1260,5120003012348,登記記録の閉鎖等,0,2022-02-03,2022-02-01,合同会社ガリガリヤマネコ,,合同会社,大阪府,大阪市城東区,森之宮２丁目６番１２１３号,,27,118,5360025,,,2022-02-01,清算の結了等,,,2017-01-17,1,,,,,ガリガリヤマネコ,0
1308,5200002000799,登記記録の閉鎖等,0,2022-02-03,2022-02-01,有限会社オーパ,,有限会社,岐阜県,岐阜市,芥見大退１丁目２８８番地１,,21,201,5013111,,,2022-02-01,合併による解散等,8200002002933,令和４年２月１日岐阜県関市倉知３３２３番地株式会社タマガワ（8200002002933）に合併し解散,2015-10-05,1,,,,,オーパ,0
1313,5210002007843,登記記録の閉鎖等,0,2022-02-03,2022-01-31,高島プラスチック有限会社,00077868,有限会社,福井県,坂井市,丸岡町里竹田第３号２９番地,,18,210,9100277,,,2022-01-31,清算の結了等,,,2015-10-05,1,,,,,タカシマプラスチック,0
1327,5290001000552,登記記録の閉鎖等,0,2022-02-03,2022-02-01,株式会社日元倶楽部,,株式会社,福岡県,福岡市西区,生の松原２丁目４番５０号,,40,135,8190055,,,2022-02-01,合併による解散等,7290001032395,令和４年２月１日福岡市西区生の松原二丁目４番５０号株式会社ヘンミ企画（7290001032395）に合併し解散,2015-10-05,1,,,,,ニチゲンクラブ,0
1370,5400001009136,登記記録の閉鎖等,0,2022-02-03,2022-02-01,株式会社ａｉ,,株式会社,岩手県,花巻市,西大通り２丁目５番２７号,,03,205,0250091,,,2022-02-01,清算の結了等,,,2015-10-05,1,,,,,アイ,0
1377,5410005000148,登記記録の閉鎖等,0,2022-02-03,2022-01-31,秋田県物産卸事業協同組合,,その他の設立登記法人,秋田県,秋田市,新屋鳥木町１番８１号,,05,201,0101633,,,2022-01-31,清算の結了等,,,2015-10-05,1,,,,,アキタケンブッサンオロシ,0
1399,6010001000075,登記記録の閉鎖等,0,2022-02-03,2022-01-27,アイエスケー株式会社,,株式会社,東京都,文京区,湯島４丁目９番１２号,,13,105,1130034,,,2022-01-27,清算の結了等,,,2015-10-05,1,,,,,アイエスケー,0
1422,6010801023102,登記記録の閉鎖等,0,2022-02-03,2022-01-27,銀竜軍株式会社,,株式会社,東京都,品川区,東品川２丁目３－１５－２１０３,,13,109,1400002,,,2022-01-27,清算の結了等,,,2015-10-05,1,,,,,ギンリュウグン,0
1430,6011001019717,登記記録の閉鎖等,0,2022-02-03,2022-01-19,株式会社平尾寛設計事務所,00053095,株式会社,東京都,渋谷区,千駄ヶ谷４丁目１９番１５号５０２,,13,113,1510051,,,2022-01-19,清算の結了等,,,2015-10-05,1,,,,,ヒラオユタカセッケイジムショ,0
1476,6020001014322,登記記録の閉鎖等,0,2022-02-03,2022-01-31,株式会社ウェルダン,,株式会社,神奈川県,横浜市西区,北幸２丁目５番２２号,,14,103,2200004,,,2022-01-31,清算の結了等,,,2015-10-05,1,,,,,ウェルダン,0
1478,6020001023678,登記記録の閉鎖等,0,2022-02-03,2022-02-01,株式会社トリュート,,株式会社,神奈川県,横浜市港北区,岸根町３７３番地１,,14,109,2220034,,,2022-02-01,合併による解散等,2020001126880,令和４年２月１日横浜市港北区新横浜二丁目１５番地１２株式会社ダッドウェイホールディングス（2020001126880）に合併し解散,2015-10-05,1,,,,,トリュート,0
1486,6020002019881,登記記録の閉鎖等,0,2022-02-03,2022-02-01,有限会社マイクロテックサービス,,有限会社,神奈川県,横浜市磯子区,杉田２丁目１６番３５号,,14,107,2350033,,,2022-02-01,清算の結了等,,,2015-10-05,1,,,,,マイクロテックサービス,0
1493,6021003005111,登記記録の閉鎖等,0,2022-02-03,2022-01-20,合同会社Ｄナレッジ,,合同会社,神奈川県,横浜市港北区,新吉田東２丁目１番１号綱島パークホームズ４１４,,14,109,2230058,,,2022-01-20,清算の結了等,,,2015-10-05,1,,,,,ディーナレッジ,0
1494,6030001073086,登記記録の閉鎖等,0,2022-02-03,2022-01-31,エムティアート株式会社,,株式会社,埼玉県,川口市,大字安行吉蔵４０１番地,,11,203,3340053,,,2022-01-31,清算の結了等,,,2015-10-05,1,,,,,エムティアート,0
1495,6030001109988,登記記録の閉鎖等,0,2022-02-03,2022-01-21,株式会社みなみ,,株式会社,埼玉県,児玉郡上里町,大字神保原町３５２番地１,,11,385,3690305,,,2022-01-21,清算の結了等,,,2015-10-05,1,,,,,ミナミ,0
1521,6080402008883,登記記録の閉鎖等,0,2022-02-03,2022-02-01,有限会社ワキヤ,,有限会社,静岡県,浜松市北区,初生町３８９番地の１,,22,135,4338112,,,2022-02-01,清算の結了等,,,2015-10-05,1,,,,,ワキヤ,0
1523,6080402017307,登記記録の閉鎖等,0,2022-02-03,2022-02-01,有限会社共立木工所,,有限会社,静岡県,掛川市,初馬７６９番地の１２,,22,213,4360081,,,2022-02-01,清算の結了等,,,2015-10-05,1,,,,,キョウリツモッコウジョ,0
1524,6110001014057,登記記録の閉鎖等,0,2022-02-03,2022-02-01,株式会社クラブエッチ,,株式会社,新潟県,三条市,神明町２番１－８０１号,,15,204,9550063,,,2022-02-01,清算の結了等,,,2015-10-05,1,,,,,,0
1541,6120003010805,登記記録の閉鎖等,0,2022-02-03,2022-01-27,ＦＩＴ　ＣＯＲＰＯＲＡＴＩＯＮ合同会社,,合同会社,大阪府,大阪市中央区,安土町２丁目３－１３大阪国際ビルディング３１階,,27,128,5410052,,,2022-01-27,清算の結了等,,,2015-10-05,1,,,,,フィットコーポレーション,0
1556,6140001015903,登記記録の閉鎖等,0,2022-02-03,2022-01-28,株式会社加藤商店,,株式会社,兵庫県,神戸市長田区,山下町２丁目３番１２号,,28,106,6530852,,,2022-01-28,清算の結了等,,,2015-10-05,1,,,,,カトウショウテン,0
1557,6140001025142,登記記録の閉鎖等,0,2022-02-03,2022-02-01,株式会社クリヤ,,株式会社,兵庫県,神戸市垂水区,小束山本町２丁目２２番６号,,28,108,6550003,,,2022-02-01,清算の結了等,,,2015-10-05,1,,,,,クリヤ,0
1561,6140001107171,登記記録の閉鎖等,0,2022-02-03,2022-01-31,株式会社トリドールビジネスソリューションズ,,株式会社,兵庫県,神戸市中央区,小野柄通７丁目１番１号,,28,110,6510088,,,2022-01-31,清算の結了等,,,2017-08-04,1,,,,,トリドールビジネスソリューションズ,0
1579,6180301027743,登記記録の閉鎖等,0,2022-02-03,2022-02-02,株式会社コスモサービス,,株式会社,愛知県,岡崎市,蓑川新町１丁目６番地５,,23,202,4443526,,,2022-02-02,清算の結了等,,,2015-10-05,1,,,,,コスモサービス,0
1589,6220001017008,登記記録の閉鎖等,0,2022-02-03,2022-02-01,Ｈｅａｒｔ　Ｔｏ　Ｈｅａｒｔ　Ｃｏｎｎｅｃｔｉｏｎ株式会社,,株式会社,北海道,札幌市白石区,東札幌二条１丁目２番３３号,,01,104,0030002,,,2022-02-01,合併による解散等,1430001009541,令和４年２月１日札幌市白石区東札幌二条一丁目２番３３号太平石炭株式会社（1430001009541）に合併し解散,2015-10-05,1,,,,,ハートトゥハートコネクション,0
1613,6290002050281,登記記録の閉鎖等,0,2022-02-03,2022-01-18,有限会社陽光社,,有限会社,福岡県,久留米市,江戸屋敷２丁目５番４５号,,40,203,8300059,,,2022-01-18,清算の結了等,,,2015-10-05,1,,,,,ヨウコウシャ,0
1656,6450001005575,登記記録の閉鎖等,0,2022-02-03,2022-01-31,株式会社リアルターアップル,,株式会社,北海道,旭川市,二条通１９丁目３６７番地２,,01,204,0788212,,,2022-01-31,合併による解散等,2450001003450,令和４年１月３１日北海道旭川市二条通十九丁目３６７番地２株式会社リアルター（2450001003450）に合併し解散,2015-10-05,1,,,,,リアルターアップル,0
1665,7010001042059,登記記録の閉鎖等,0,2022-02-03,2022-02-02,株式会社クリオネ,,株式会社,神奈川県,横浜市西区,みなとみらい２丁目２－１横浜ランドマークタワー２０Ｆ,,14,103,2200012,,,2022-02-02,清算の結了等,,,2015-10-05,1,,,,,クリオネ,0
1667,7010001147808,登記記録の閉鎖等,0,2022-02-03,2022-02-01,株式会社デルファイ研究所,,株式会社,東京都,文京区,関口２丁目３番３号,,13,105,1120014,,,2022-02-01,清算の結了等,,,2015-10-05,1,,,,,デルファイケンキュウジョ,0
1674,7010002005510,登記記録の閉鎖等,0,2022-02-03,2022-01-28,有限会社北総,,有限会社,東京都,文京区,根津１丁目１番１４号,,13,105,1130031,,,2022-01-28,清算の結了等,,,2015-10-05,1,,,,,ホクソウ,0
1675,7010002021540,登記記録の閉鎖等,0,2022-02-03,2022-01-31,有限会社セントラル・スリーケー,,有限会社,東京都,中央区,日本橋人形町２丁目１８番９号,,13,102,1030013,,,2022-01-31,清算の結了等,,,2015-10-05,1,,,,,セントラルスリーケー,0
1694,7010601009746,登記記録の閉鎖等,0,2022-02-03,2022-01-25,行方ゴム工業株式会社,,株式会社,東京都,墨田区,八広４丁目１４番７号,,13,107,1310041,,,2022-01-25,清算の結了等,,,2015-10-05,1,,,,,ナメカタゴムコウギョウ,0
1698,7010902013471,登記記録の閉鎖等,0,2022-02-03,2022-01-31,有限会社プラス・ワンエレックス,,有限会社,東京都,世田谷区,八幡山３丁目２１番２号,,13,112,1560056,,,2022-01-31,清算の結了等,,,2015-10-05,1,,,,,プラスワンエレックス,0
1721,7011103007214,登記記録の閉鎖等,0,2022-02-03,2022-01-31,合同会社ジェイ・エックス・エックス,,合同会社,東京都,新宿区,下宮比町１番４号,,13,104,1620822,,,2022-01-31,清算の結了等,,,2017-07-25,1,,,,,ジェイエックスエックス,0
1770,7060002015414,登記記録の閉鎖等,0,2022-02-03,2022-02-01,有限会社森加工所,,有限会社,栃木県,日光市,土沢２０７８番地,,09,206,3211274,,,2022-02-01,清算の結了等,,,2015-10-05,1,,,,,モリカコウショ,0
1800,7120901009039,登記記録の閉鎖等,0,2022-02-03,2022-02-01,株式会社宇治商店,,株式会社,大阪府,摂津市,鳥飼新町１丁目６番４４号,,27,224,5660065,,,2022-02-01,清算の結了等,,,2015-10-05,1,,,,,ウジショウテン,0
1838,7210001004690,登記記録の閉鎖等,0,2022-02-03,2022-02-01,茅野工業株式会社,,株式会社,福井県,福井市,笹谷町第７号１５８番地,,18,201,9103645,,,2022-02-01,清算の結了等,,,2015-10-05,1,,,,,カヤノコウギョウ,0
1840,7220001018401,登記記録の閉鎖等,0,2022-02-03,2022-01-28,株式会社都商事,,株式会社,石川県,七尾市,橘町２２番地,,17,202,9260043,,,2022-01-28,清算の結了等,,,2015-10-05,1,,,,,ミヤコショウジ,0
1848,7240002026533,登記記録の閉鎖等,0,2022-02-03,2022-02-01,有限会社伊佐商事,,有限会社,広島県,広島市佐伯区,城山２丁目１３番２０号,,34,108,7315155,,,2022-02-01,清算の結了等,,,2015-10-05,1,,,,,イサショウジ,0
1861,7260002016375,登記記録の閉鎖等,0,2022-02-03,2022-02-01,有限会社アヲノ化学工業所,,有限会社,岡山県,倉敷市,加須山２７６番地３,,33,202,7100026,,,2022-02-01,清算の結了等,,,2015-10-05,1,,,,,アヲノカガクコウギョウショ,0
1865,7280002007851,登記記録の閉鎖等,0,2022-02-03,2022-01-27,有限会社和田食品,,有限会社,島根県,大田市,大田町大田ハ１０８番地１,,32,205,6940064,,,2022-01-27,清算の結了等,,,2015-10-05,1,,,,,,0
1901,7400002013399,登記記録の閉鎖等,0,2022-02-03,2022-02-01,有限会社稲村産業,,有限会社,岩手県,久慈市,長内町第２８地割１０３番地の１８,,03,207,0280041,,,2022-02-01,清算の結了等,,,2015-10-05,1,,,,,イナムラサンギョウ,0
1907,7430001060547,登記記録の閉鎖等,0,2022-02-03,2022-02-02,株式会社ティワイフーズ,,株式会社,北海道,札幌市東区,東苗穂十四条３丁目２３番１６号,,01,103,0070814,,,2022-02-02,清算の結了等,,,2015-10-05,1,,,,,,0
1916,7470002017939,登記記録の閉鎖等,0,2022-02-03,2022-01-28,有限会社野崎建装,,有限会社,香川県,さぬき市,志度１７４３番地４,,37,206,7692101,,,2022-01-28,清算の結了等,,,2015-10-05,1,,,,,ノザキケンソウ,0
1920,7500002004693,登記記録の閉鎖等,0,2022-02-03,2022-02-02,有限会社ドイダビル,,有限会社,愛媛県,松山市,土居田町５２６番地,,38,201,7900056,,,2022-02-02,清算の結了等,,,2015-10-05,1,,,,,ドイダビル,0
1921,7500002006789,登記記録の閉鎖等,0,2022-02-03,2022-02-02,有限会社村上ビルリース,,有限会社,愛媛県,松山市,大手町１丁目１０番地８,,38,201,7900067,,,2022-02-02,清算の結了等,,,2015-10-05,1,,,,,,0
1926,8010001062989,登記記録の閉鎖等,0,2022-02-03,2022-01-28,株式会社玉成会館,,株式会社,東京都,中央区,日本橋堀留町２丁目３番８号田源ビル９階　金澤法律事務所内,,13,102,1030012,,,2022-01-28,清算の結了等,,,2015-10-05,1,,,,,ギョクセイカイカン,0
1946,8010401121205,登記記録の閉鎖等,0,2022-02-03,2022-01-31,スタイルクリエイションジャパン株式会社,,株式会社,東京都,新宿区,高田馬場１丁目３０番５号,,13,104,1690075,,,2022-01-31,清算の結了等,,,2015-10-27,1,,,,,スタイルクリエイションジャパン,0
1950,8010401154295,登記記録の閉鎖等,0,2022-02-03,2022-01-27,Ｆａｓｈｉｏｎ－Ｇａｔｅ株式会社,,株式会社,東京都,港区,浜松町２丁目２番１５号浜松町ダイヤビル２Ｆ,,13,103,1050013,,,2022-01-27,清算の結了等,,,2020-08-04,1,,,,,ファッションゲート,0
1954,8010403015652,登記記録の閉鎖等,0,2022-02-03,2022-01-27,ＹＳオフィス合同会社,,合同会社,東京都,港区,白金４丁目９番１３－３０８号,,13,103,1080072,,,2022-01-27,清算の結了等,,,2016-11-29,1,,,,,ワイエスオフィス,0
1958,8010503005784,登記記録の閉鎖等,0,2022-02-03,2022-02-01,合同会社エスオー,,合同会社,東京都,台東区,上野６丁目１番６号,,13,106,1100005,,,2022-02-01,清算の結了等,,,2019-12-26,1,,,,,エスオー,0
1960,8010601001280,登記記録の閉鎖等,0,2022-02-03,2022-01-26,株式会社オオヤマ,,株式会社,東京都,江東区,平野２丁目１１番５号,,13,108,1350023,,,2022-01-26,清算の結了等,,,2015-10-05,1,,,,,オオヤマ,0
2012,8021002013633,登記記録の閉鎖等,0,2022-02-03,2022-02-02,有限会社パス,,有限会社,神奈川県,茅ヶ崎市,堤７０番地２１,,14,207,2530006,,,2022-02-02,清算の結了等,,,2015-10-05,1,,,,,パス,0
2020,8030002083925,登記記録の閉鎖等,0,2022-02-03,2022-01-31,有限会社村越メディカルサプライ,,有限会社,埼玉県,鴻巣市,吹上本町１丁目４番１３号,,11,217,3690115,,,2022-01-31,清算の結了等,,,2015-10-05,1,,,,,ムラコシメディカルサプライ,0
2023,8030005008532,登記記録の閉鎖等,0,2022-02-03,2022-01-27,医療法人長沢外科胃腸科,,その他の設立登記法人,埼玉県,ふじみ野市,苗間５７３番地３,,11,245,3560052,,,2022-01-27,清算の結了等,,,2015-10-05,1,,,,,ナガサワゲカイチョウカ,0
2028,8040001098832,登記記録の閉鎖等,0,2022-02-03,2022-01-31,株式会社ＮｅｘｔＳｔａｇｅ,,株式会社,千葉県,習志野市,谷津３丁目１２番３６号,,12,216,2750026,,,2022-01-31,清算の結了等,,,2017-02-15,1,,,,,ネクストステージ,0
2033,8040002028945,登記記録の閉鎖等,0,2022-02-03,2022-01-31,有限会社グッドチョイス,,有限会社,千葉県,八千代市,勝田台３丁目９番４号,,12,221,2760023,,,2022-01-31,清算の結了等,,,2015-10-05,1,,,,,グッドチョイス,0
2046,8060002035618,登記記録の閉鎖等,0,2022-02-03,2022-01-31,有限会社エル・コーポレーション,,有限会社,栃木県,足利市,上渋垂町３６９番地１,,09,202,3260335,,,2022-01-31,清算の結了等,,,2015-10-05,1,,,,,エルコーポレーション,0
2050,8080101015452,登記記録の閉鎖等,0,2022-02-03,2022-01-31,株式会社タシロ設計,,株式会社,静岡県,田方郡函南町,塚本１６０番地の１１,,22,325,4190124,,,2022-01-31,清算の結了等,,,2015-10-05,1,,,,,タシロセッケイ,0
2055,8080402010094,登記記録の閉鎖等,0,2022-02-03,2022-02-01,有限会社アンドアール,,有限会社,静岡県,浜松市東区,有玉台３丁目１５番８号,,22,132,4313126,,,2022-02-01,清算の結了等,,,2015-10-05,1,,,,,アンドアール,0
2064,8120001044332,登記記録の閉鎖等,0,2022-02-03,2022-01-31,新日本製鋼所株式会社,,株式会社,大阪府,大阪市西区,立売堀３丁目７番１６号,,27,106,5500012,,,2022-01-31,清算の結了等,,,2015-10-05,1,,,,,シンニホンセイコウショ,0
2092,8130001061780,登記記録の閉鎖等,0,2022-02-03,2022-01-31,株式会社ＫＳＮ,,株式会社,京都府,京都市北区,大将軍西町２番地１,,26,101,6038331,,,2022-01-31,清算の結了等,,,2018-03-28,1,,,,,ケーエスエヌ,0
2104,8140001066507,登記記録の閉鎖等,0,2022-02-03,2022-01-31,株式会社西田商店,,株式会社,兵庫県,三田市,西山２丁目２５番４号,,28,219,6691537,,,2022-01-31,清算の結了等,,,2015-10-05,1,,,,,ニシダショウテン,0
2134,8180003014889,登記記録の閉鎖等,0,2022-02-03,2022-01-28,合同会社ワンズプラスワン,,合同会社,愛知県,一宮市,奥町字堤下二８１番地２,,23,203,4910201,,,2022-01-28,清算の結了等,,,2015-10-05,1,,,,,ワンズプラスワン,0
2136,8180301030605,登記記録の閉鎖等,0,2022-02-03,2022-01-31,ツルタ鐵工株式会社,,株式会社,愛知県,豊川市,宿町古十王７２番地,,23,207,4410101,,,2022-01-31,清算の結了等,,,2017-07-31,1,,,,,ツルタテッコウ,0
2158,8230001002287,登記記録の閉鎖等,0,2022-02-03,2022-02-01,日本海ゴム株式会社,,株式会社,富山県,富山市,豊若町３丁目１０番１８号,,16,201,9318305,,,2022-02-01,清算の結了等,,,2015-10-05,1,,,,,ニホンカイゴム,0
2171,8260002010526,登記記録の閉鎖等,0,2022-02-03,2022-02-02,吉川ビル有限会社,,有限会社,岡山県,岡山市北区,弓之町２番８号,,33,101,7000817,,,2022-02-02,清算の結了等,,,2015-10-05,1,,,,,ヨシカワビル,0
2181,8310002003053,登記記録の閉鎖等,0,2022-02-03,2022-02-01,有限会社高橋商事,00095895,有限会社,長崎県,長崎市,浜町１１番１４号,,42,201,8500853,,,2022-02-01,合併による解散等,3310001001062,令和４年２月１日長崎市浜町８番３３号株式会社高橋呉服店（3310001001062）に合併し解散,2015-10-05,1,,,,,タカハシショウジ,0
2182,8310002004068,登記記録の閉鎖等,0,2022-02-03,2022-02-01,有限会社鳴滝ビル,,有限会社,長崎県,長崎市,浜町１１番１４号高橋ビル３０１号,00114705,42,201,8500853,,,2022-02-01,合併による解散等,3310001001062,令和４年２月１日長崎市浜町８番３３号株式会社高橋呉服店（3310001001062）に合併し解散,2015-10-05,1,,,,,ナルタキビル,0
2183,8310003001865,登記記録の閉鎖等,0,2022-02-03,2022-02-01,合同会社コクショウ,,合同会社,長崎県,諫早市,福田町１６１１番地１７３,,42,204,8540001,,,2022-02-01,清算の結了等,,,2015-10-05,1,,,,,コクショウ,0
2189,8340001023966,登記記録の閉鎖等,0,2022-02-03,2022-01-27,株式会社ＧｐｌｕｓＴ,,株式会社,東京都,渋谷区,千駄ヶ谷１丁目２４－１２,,13,113,1510051,,,2022-01-27,合併による解散等,3010801028987,令和４年１月１８日大阪市北区中之島六丁目２番２７号株式会社ＴＡＲＧＥＴ（3010801028987）に合併し解散,2021-08-12,1,,,,,ジープラスティー,0
2202,8430001018081,登記記録の閉鎖等,0,2022-02-03,2022-02-01,エコガードシステムズ株式会社,,株式会社,北海道,札幌市白石区,東札幌二条１丁目２番３３号,,01,104,0030002,,,2022-02-01,合併による解散等,1430001009541,令和４年２月１日札幌市白石区東札幌二条一丁目２番３３号太平石炭株式会社（1430001009541）に合併し解散,2015-10-05,1,,,,,エコガードシステムズ,0
2229,9010001024484,登記記録の閉鎖等,0,2022-02-03,2022-01-25,株式会社鳥海産業,,株式会社,東京都,千代田区,神田佐久間町３丁目２７番地,,13,101,1010025,,,2022-01-25,合併による解散等,1110001003295,令和４年１月２１日新潟市中央区日の出三丁目４番１５号中越クリーンサービス株式会社（1110001003295）に合併し解散,2015-10-05,1,,,,,チョウカイサンギョウ,0
2230,9010001054028,登記記録の閉鎖等,0,2022-02-03,2022-01-28,野村・中国投資株式会社,,株式会社,東京都,中央区,日本橋本町１丁目７番２号,,13,102,1030023,,,2022-01-28,清算の結了等,,,2015-10-05,1,,,,,ノムラチュウゴクトウシ,0
2232,9010001077805,登記記録の閉鎖等,0,2022-02-03,2022-01-28,日本橋アイケーコンサルティング株式会社,,株式会社,東京都,中央区,日本橋本町２丁目５番１号,,13,102,1030023,,,2022-01-28,清算の結了等,,,2015-10-05,1,,,,,ニホンバシアイケーコンサルティング,0
2253,9010005025801,登記記録の閉鎖等,0,2022-02-03,2022-02-01,一般社団法人開発１９号,,その他の設立登記法人,東京都,千代田区,一番町９番地８ノザワビルディング６階税理士法人シリウス内,,13,101,1020082,,,2022-02-01,清算の結了等,,,2016-09-14,1,,,,,カイハツジュウキュウゴウ,0
2263,9010402020537,登記記録の閉鎖等,0,2022-02-03,2022-01-28,青雲産業株式会社,,株式会社,東京都,港区,虎ノ門３丁目１８番１２号,,13,103,1050001,,,2022-01-28,清算の結了等,,,2015-10-05,1,,,,,セイウンサンギョウ,0
2271,9010901021093,登記記録の閉鎖等,0,2022-02-03,2022-01-31,株式会社ＢｅＨ　Ｌｉｆｅ,,株式会社,東京都,世田谷区,瀬田４丁目４０番１４号,,13,112,1580095,,,2022-01-31,清算の結了等,,,2015-10-05,1,,,,,ビーエイチライフ,0
2273,9010902014187,登記記録の閉鎖等,0,2022-02-03,2022-01-31,有限会社松尾運送店,,有限会社,東京都,世田谷区,弦巻２丁目２２番１３号,,13,112,1540016,,,2022-01-31,清算の結了等,,,2015-10-05,1,,,,,マツオウンソウテン,0
2282,9011101092413,登記記録の閉鎖等,0,2022-02-03,2022-01-31,Ｈｅｒｉｔａｇｅ　Ｔｏｋｙｏ１１５株式会社,,株式会社,東京都,新宿区,新宿３丁目１１番９号,,13,104,1600022,,,2022-01-31,清算の結了等,,,2020-09-07,1,,,,,ヘリテージトウキョウイチイチゴ,0
2309,9013101008027,登記記録の閉鎖等,0,2022-02-03,2022-01-28,株式会社Ｋ－５,,株式会社,東京都,あきる野市,二宮１０９７番地,,13,228,1970814,,,2022-01-28,清算の結了等,,,2019-02-06,1,,,,,ケーファイブ,0
2312,9013201016994,登記記録の閉鎖等,0,2022-02-03,2022-01-28,ＳＫＣ株式会社,,株式会社,東京都,中央区,八重洲２丁目８番７号,,13,102,1040028,,,2022-01-28,清算の結了等,,,2015-10-05,1,,,,,エスケーシー,0
2333,9021002030529,登記記録の閉鎖等,0,2022-02-03,2022-01-26,有限会社アンザイ,,有限会社,神奈川県,厚木市,愛名７４３番地の１,,14,212,2430038,,,2022-01-26,清算の結了等,,,2015-10-05,1,,,,,アンザイ,0
2334,9021002034356,登記記録の閉鎖等,0,2022-02-03,2022-01-31,丸山鉄工有限会社,,有限会社,神奈川県,愛甲郡愛川町,半原４１４６番地,,14,401,2430307,,,2022-01-31,清算の結了等,,,2015-10-05,1,,,,,マルヤマテッコウ,0
2339,9030001028896,登記記録の閉鎖等,0,2022-02-03,2022-01-31,本間研匠株式会社,,株式会社,埼玉県,所沢市,東所沢和田３丁目１０番地１２,,11,208,3590023,,,2022-01-31,清算の結了等,,,2015-10-05,1,,,,,,0
2363,9060002035798,登記記録の閉鎖等,0,2022-02-03,2022-01-31,有限会社勝クリエイト,,有限会社,栃木県,足利市,上渋垂町３６９番地１０,,09,202,3260335,,,2022-01-31,清算の結了等,,,2015-10-05,1,,,,,ショウクリエイト,0
2372,9080401015597,登記記録の閉鎖等,0,2022-02-03,2022-02-02,藤本商事株式会社,,株式会社,静岡県,菊川市,青葉台３丁目３番地の５,,22,224,4390012,,,2022-02-02,清算の結了等,,,2015-10-05,1,,,,,フジモトショウジ,0
2378,9110002025158,登記記録の閉鎖等,0,2022-02-03,2022-01-31,有限会社旅館赤倉荘,,有限会社,新潟県,妙高市,大字赤倉３０番地,,15,217,9492111,,,2022-01-31,清算の結了等,,,2015-10-05,1,,,,,リョカンアカクラソウ,0
2399,9120902017930,登記記録の閉鎖等,0,2022-02-03,2022-02-01,有限会社岡村製作所,,有限会社,大阪府,豊中市,三和町２丁目３番１４号,,27,203,5610828,,,2022-02-01,清算の結了等,,,2015-10-05,1,,,,,オカムラセイサクショ,0
2402,9122001021970,登記記録の閉鎖等,0,2022-02-03,2022-02-01,ＫＮＪエンタプライズ株式会社,,株式会社,大阪府,八尾市,北本町２丁目１０番５－３１４号,,27,212,5810802,,,2022-02-01,清算の結了等,,,2015-10-05,1,,,,,ケーエヌジェイエンタプライズ,0
2403,9122001023496,登記記録の閉鎖等,0,2022-02-03,2022-02-01,関西複合資材株式会社,,株式会社,大阪府,東大阪市,中新開２丁目６番３７号,,27,227,5780911,,,2022-02-01,清算の結了等,,,2015-10-05,1,,,,,カンサイフクゴウシザイ,0
2419,9140001033737,登記記録の閉鎖等,0,2022-02-03,2022-02-02,株式会社ＨＦＣ,,株式会社,兵庫県,神戸市東灘区,深江浜町１１４番地,,28,101,6580023,,,2022-02-02,清算の結了等,,,2015-10-05,1,,,,,エイチエフシー,0
2436,9180001003967,登記記録の閉鎖等,0,2022-02-03,2022-01-31,株式会社ゴトウ総合音響,,株式会社,愛知県,名古屋市千種区,日進通２丁目１番地,,23,101,4640844,,,2022-01-31,清算の結了等,,,2015-10-05,1,,,,,ゴトウソウゴウオンキョウ,0
2438,9180001083919,登記記録の閉鎖等,0,2022-02-03,2022-02-01,モリリン撚糸工業株式会社,,株式会社,愛知県,一宮市,本町４丁目２２番１０号,,23,203,4910859,,,2022-02-01,合併による解散等,3180001083916,令和４年２月１日愛知県一宮市本町四丁目２２番１０号モリリン株式会社（3180001083916）に合併し解散,2015-10-05,1,,,,,モリリンネンシコウギョウ,0
2439,9180001106266,登記記録の閉鎖等,0,2022-02-03,2022-02-01,株式会社ＡＧ,,株式会社,岐阜県,関市,倉知３３２３番地,,21,205,5013936,,,2022-02-01,合併による解散等,8200002002933,令和４年２月１日岐阜県関市倉知３３２３番地株式会社タマガワ（8200002002933）に合併し解散,2015-10-05,1,,,,,エージー,0
2440,9180001148424,登記記録の閉鎖等,0,2022-02-03,2022-02-01,宮野電気工事株式会社,,株式会社,愛知県,名古屋市緑区,鳴海町字神ノ倉１４５番地の１３,,23,114,4580811,,,2022-02-01,清算の結了等,,,2021-10-22,1,,,,,ミヤノデンキコウジ,0
2448,9180301005647,登記記録の閉鎖等,0,2022-02-03,2022-01-31,株式会社三州プロモーション,,株式会社,愛知県,豊橋市,駅前大通１丁目８１番地,,23,201,4400888,,,2022-01-31,清算の結了等,,,2015-10-05,1,,,,,サンシュウプロモーション,0
2450,9180301028219,登記記録の閉鎖等,0,2022-02-03,2022-01-31,株式会社東海通商,,株式会社,愛知県,豊川市,平井町芳添２番地１,,23,207,4410104,,,2022-01-31,清算の結了等,,,2015-10-05,1,,,,,トウカイツウショウ,0
2453,9180302001348,登記記録の閉鎖等,0,2022-02-03,2022-02-02,有限会社山和,,有限会社,愛知県,岡崎市,城北町１２番地の３６,,23,202,4440064,,,2022-02-02,清算の結了等,,,2015-10-05,1,,,,,サンワ,0
2462,9210002012336,登記記録の閉鎖等,0,2022-02-03,2022-02-02,有限会社高松防災商会,,有限会社,福井県,丹生郡越前町,新保第１４号１６番地,,18,423,9160313,,,2022-02-02,清算の結了等,,,2015-10-05,1,,,,,タカマツボウサイショウカイ,0
2464,9220001006610,登記記録の閉鎖等,0,2022-02-03,2022-01-31,松島信和商事株式会社,,株式会社,石川県,金沢市,松島３丁目１３５番地,,17,201,9200364,,,2022-01-31,清算の結了等,,,2015-10-05,1,,,,,マツシマシンワショウジ,0
2476,9290001035850,登記記録の閉鎖等,0,2022-02-03,2022-01-31,株式会社エスジー・ワーム生命科学研究所,,株式会社,福岡県,福津市,若木台５丁目１４番地の１５,,40,224,8113221,,,2022-01-31,清算の結了等,,,2015-10-05,1,,,,,エスジーワームセイメイカガクケンキュウショ,0
2503,9380001005423,登記記録の閉鎖等,0,2022-02-03,2022-01-31,株式会社信栄建設,,株式会社,福島県,田村郡三春町,大字富沢字平生田３０３番地,,07,521,9637782,,,2022-01-31,清算の結了等,,,2015-10-05,1,,,,,,0
2518,9430003009887,登記記録の閉鎖等,0,2022-02-03,2022-01-28,合同会社アマテラス,,合同会社,北海道,札幌市豊平区,西岡一条１０丁目１９番１０号,,01,105,0620031,,,2022-01-28,清算の結了等,,,2018-11-16,1,,,,,アマテラス,0
2523,9460102001627,登記記録の閉鎖等,0,2022-02-03,2022-02-01,有限会社菅野タイヤ商会,,有限会社,北海道,帯広市,西十九条北１丁目４番２号,,01,207,0802459,,,2022-02-01,清算の結了等,,,2015-10-05,1,,,,,カンノタイヤショウカイ,0
