sequenceNumber,corporateNumber,process,correct,updateDate,changeDate,name,nameImageId,kind,prefectureName,cityName,streetNumber,addressImageId,prefectureCode,cityCode,postCode,addressOutside,addressOutsideImageId,closeDate,closeCause,successorCorporateNumber,changeCause,assignmentDate,latest,enName,enPrefectureName,enCityName,enAddressOutside,furigana,hihyoji
5,1010001243100,新規,0,2024-03-21,2024-03-21,ＨＫＣ商事株式会社,,株式会社,東京都,千代田区,外神田２丁目１３番５号ＭＩＮＴＲＯＮ秋葉原ビル６階,,13,101,1010021,,,,,,,2024-03-21,1,,,,,エイチケーシーショウジ,0
6,1010001243174,新規,0,2024-03-21,2024-03-21,株式会社東京シェアオフィス,,株式会社,東京都,千代田区,神田錦町３丁目７－２,,13,101,1010054,,,,,,,2024-03-21,1,,,,,トウキョウシェアオフィス,0
7,1010001243240,新規,0,2024-03-21,2024-03-21,株式会社アドニセンス,,株式会社,東京都,千代田区,九段北１丁目３番１号,,13,101,1020073,,,,,,,2024-03-21,1,,,,,アドニセンス,0
8,1010001243249,新規,0,2024-03-21,2024-03-21,株式会社ＨＡエネルギーシステム,,株式会社,東京都,中央区,勝どき２丁目１０番１６号マンション勝どき５１０,,13,102,1040054,,,,,,,2024-03-21,1,,,,,エイチエーエネルギーシステム,0
9,1010001243298,新規,0,2024-03-21,2024-03-21,株式会社ＩＧＮＩＸ,,株式会社,東京都,中央区,銀座１丁目２２番１１号銀座大竹ビジデンス２Ｆ,,13,102,1040061,,,,,,,2024-03-21,1,,,,,イグニクス,0
14,1010005038075,新規,0,2024-03-21,2024-03-21,一般社団法人オリーブホールディングス,,その他の設立登記法人,東京都,千代田区,丸の内３丁目１番１号東京共同会計事務所内,,13,101,1000005,,,,,,,2024-03-21,1,,,,,オリーブホールディングス,0
19,1010401181098,新規,0,2024-03-21,2024-03-21,株式会社リアライズアビエーション,,株式会社,東京都,港区,六本木６丁目１０番１号六本木ヒルズ森タワー３４階,,13,103,1060032,,,,,,,2024-03-21,1,,,,,リアライズアビエーション,0
20,1010401181107,新規,0,2024-03-21,2024-03-21,株式会社ｃｈａｒｍ　ｍｏｉ,,株式会社,東京都,港区,南青山２丁目２番１５－９４２号,,13,103,1070062,,,,,,,2024-03-21,1,,,,,チャームモイ,0
21,1010401181131,新規,0,2024-03-21,2024-03-21,株式会社ｂｒｉｄｇｅ,,株式会社,東京都,港区,高輪２丁目１５－１１高輪ホワイトマンション９０４,,13,103,1080074,,,,,,,2024-03-21,1,,,,,ブリッジ,0
22,1010401181156,新規,0,2024-03-21,2024-03-21,ｔｒｉｎｅ株式会社,,株式会社,東京都,港区,海岸１丁目２番３号汐留芝離宮ビルディング２１Ｆ,,13,103,1050022,,,,,,,2024-03-21,1,,,,,トライン,0
23,1010401181180,新規,0,2024-03-21,2024-03-21,Ｎｓｉｇｈｔ株式会社,,株式会社,東京都,港区,新橋２丁目２０－１５,,13,103,1050004,,,,,,,2024-03-21,1,,,,,エヌサイト,0
24,1010401181206,新規,0,2024-03-21,2024-03-21,アースエナジー＆インタープレナー株式会社,,株式会社,東京都,港区,三田３丁目１番１１号エック三田ビル３階,,13,103,1080073,,,,,,,2024-03-21,1,,,,,アースエナジーアンドインタープレナー,0
25,1010401181239,新規,0,2024-03-21,2024-03-21,株式会社ベルヴィー,,株式会社,東京都,港区,芝大門２丁目１番１８号ＧＳハイム芝大門４０６号,,13,103,1050012,,,,,,,2024-03-21,1,,,,,ベルヴィー,0
26,1010401181263,新規,0,2024-03-21,2024-03-21,株式会社安部良アトリエ,,株式会社,東京都,港区,北青山１丁目３番１号アールキューブ青山３階,,13,103,1070061,,,,,,,2024-03-21,1,,,,,アベリョウアトリエ,0
31,1010403032191,新規,0,2024-03-21,2024-03-21,合同会社エムズプランニング,,合同会社,東京都,港区,北青山１丁目３番１号アールキューブ青山３階,,13,103,1070061,,,,,,,2024-03-21,1,,,,,エムズプランニング,0
32,1010403032200,新規,0,2024-03-21,2024-03-21,ＧＳＣ＆Ｐａｒｔｎｅｒｓ合同会社,,合同会社,東京都,港区,北青山１丁目３番１号アールキューブ青山３階,,13,103,1070061,,,,,,,2024-03-21,1,,,,,ジーエスシーアンドパートナーズ,0
33,1010403032225,新規,0,2024-03-21,2024-03-21,ＧＲＪ合同会社,,合同会社,東京都,港区,赤坂３丁目８番８号,,13,103,1070052,,,,,,,2024-03-21,1,,,,,ジーアールジェイ,0
34,1010501051960,新規,0,2024-03-21,2024-03-21,九八株式会社,,株式会社,東京都,台東区,北上野２丁目２５番９号－２０１号室,,13,106,1100014,,,,,,,2024-03-21,1,,,,,キューハチ,0
40,1010601064838,新規,0,2024-03-21,2024-03-21,Ｓｏｉｌ　Ｄｅｓｉｇｎ株式会社,,株式会社,東京都,江東区,永代１丁目１番７号イトーピア東京リバーサイドテラス４０５号,,13,108,1350034,,,,,,,2024-03-21,1,,,,,ソイルデザイン,0
41,1010601064846,新規,0,2024-03-21,2024-03-21,株式会社ｅｎ．,,株式会社,東京都,墨田区,江東橋４丁目６番１５－３０８号,,13,107,1300022,,,,,,,2024-03-21,1,,,,,エン,0
42,1010601064862,新規,0,2024-03-21,2024-03-21,株式会社ｍａｎａｇｅｍｅｎｔ　ＧＰ,,株式会社,東京都,江東区,豊洲１丁目２番３９－５０１号,,13,108,1350061,,,,,,,2024-03-21,1,,,,,マネージメントジェイピー,0
43,1010601064870,新規,0,2024-03-21,2024-03-21,エトワールメディカル株式会社,,株式会社,東京都,墨田区,太平２丁目４番３号,,13,107,1300012,,,,,,,2024-03-21,1,,,,,エトワールメディカル,0
44,1010605004303,新規,0,2024-03-21,2024-03-21,特定非営利活動法人親子の絆ｆｏｒ　Ｊａｐａｎ,,その他の設立登記法人,東京都,墨田区,太平４丁目１５番３号レアルコート太平１００３,,13,107,1300012,,,,,,,2024-03-21,1,,,,,オヤコノキズナフォージャパン,0
48,1010801034871,新規,0,2024-03-21,2024-03-21,ルームアンドミー株式会社,,株式会社,東京都,大田区,田園調布５丁目４１番２号,,13,111,1450071,,,,,,,2024-03-21,1,,,,,ルームアンドミー,0
51,1010901054910,新規,0,2024-03-21,2024-03-21,株式会社てんころるん,,株式会社,東京都,世田谷区,代沢２丁目４４番２号,,13,112,1550032,,,,,,,2024-03-21,1,,,,,テンコロルン,0
52,1010901054927,新規,0,2024-03-21,2024-03-21,株式会社Ａｕｒｏｒａ,,株式会社,東京都,世田谷区,下馬３丁目１７番９号,,13,112,1540002,,,,,,,2024-03-21,1,,,,,アウロラ,0
53,1010903008897,新規,0,2024-03-21,2024-03-21,ビジョネリア・インテグリタス・プラス合同会社,,合同会社,東京都,世田谷区,駒沢４丁目２８番１９号,,13,112,1540012,,,,,,,2024-03-21,1,,,,,ビジョネリアインテグリタスプラス,0
54,1010903008906,新規,0,2024-03-21,2024-03-21,合同会社８８８,,合同会社,東京都,世田谷区,用賀２丁目３０番５号,,13,112,1580097,,,,,,,2024-03-21,1,,,,,ハチミッツ,0
63,1011001160707,新規,0,2024-03-21,2024-03-21,株式会社ＧｏｏＸ,,株式会社,東京都,渋谷区,渋谷１丁目１番３号アミーホール,,13,113,1500002,,,,,,,2024-03-21,1,,,,,ゴークス,0
64,1011001160764,新規,0,2024-03-21,2024-03-21,ＷＡＮ‐ＰＡＫＵ株式会社,,株式会社,東京都,渋谷区,渋谷３丁目１０番１８号,,13,113,1500002,,,,,,,2024-03-21,1,,,,,ワンパク,0
65,1011001160772,新規,0,2024-03-21,2024-03-21,株式会社ＥｐｏｃｈＣｈａｉｎ,,株式会社,東京都,渋谷区,恵比寿西２丁目８－４ＥＸ恵比寿西ビル５階,,13,113,1500021,,,,,,,2024-03-21,1,,,,,エポックチェーン,0
66,1011003018721,新規,0,2024-03-21,2024-03-21,ＣＣＥ合同会社,,合同会社,東京都,渋谷区,神宮前６丁目２３番４号桑野ビル２階,,13,113,1500001,,,,,,,2024-03-21,1,,,,,シーシーイー,0
67,1011101106592,新規,0,2024-03-21,2024-03-21,株式会社糠信管財,,株式会社,東京都,新宿区,北新宿２丁目１０番４号,,13,104,1690074,,,,,,,2024-03-21,1,,,,,ヌカノブカンザイ,0
68,1011101106618,新規,0,2024-03-21,2024-03-21,株式会社Ｒｅ　ｓｔａｒ,,株式会社,東京都,新宿区,新宿１丁目１６番１０号コスモス御苑ビル５０１－Ｂ,,13,104,1600022,,,,,,,2024-03-21,1,,,,,リスタ,0
71,1011103014224,新規,0,2024-03-21,2024-03-21,合同会社ファントムビーストスタジオ,,合同会社,東京都,新宿区,西新宿３丁目３番１３号西新宿水間ビル６階,,13,104,1600023,,,,,,,2024-03-21,1,,,,,ファントムビーストスタジオ,0
72,1011103014232,新規,0,2024-03-21,2024-03-21,観兵衛合同会社,,合同会社,東京都,新宿区,西新宿３丁目３番１３号西新宿水間ビル６階,,13,104,1600023,,,,,,,2024-03-21,1,,,,,カンベエ,0
73,1011103014240,新規,0,2024-03-21,2024-03-21,合同会社ジェイ・イー・ヴイ,,合同会社,東京都,新宿区,下宮比町１番４号,,13,104,1620822,,,,,,,2024-03-21,1,,,,,ジェイイーヴイ,0
75,1011105010972,新規,0,2024-03-21,2024-03-21,一般社団法人Ｄ．Ｐ．Ｉ．,,その他の設立登記法人,東京都,新宿区,西新宿６丁目５番１号新宿アイランドタワー２階,,13,104,1600023,,,,,,,2024-03-21,1,,,,,ディーピーアイ,0
76,1011203004331,新規,0,2024-03-21,2024-03-21,合同会社未来,,合同会社,東京都,中野区,上高田３丁目１番１０号Ｂ－９０１,,13,114,1640002,,,,,,,2024-03-21,1,,,,,ミライ,0
79,1011401025947,新規,0,2024-03-21,2024-03-21,株式会社龍馬商事,,株式会社,東京都,板橋区,前野町４丁目１２－１１サンライフ見次公園４０３,,13,119,1740063,,,,,,,2024-03-21,1,,,,,リョウマショウジ,0
83,1011601027628,新規,0,2024-03-21,2024-03-21,Ｂｏｎｈｅｕｒ　Ｃｏｍｐａｎｙ株式会社,,株式会社,東京都,練馬区,春日町６丁目１６番１１－３０４号,,13,120,1790074,,,,,,,2024-03-21,1,,,,,ボヌールカンパニー,0
84,1011601027636,新規,0,2024-03-21,2024-03-21,株式会社ＢＥＢＥ,,株式会社,東京都,練馬区,関町北４丁目１１番１５号,,13,120,1770051,,,,,,,2024-03-21,1,,,,,ベベ,0
85,1011603004286,新規,0,2024-03-21,2024-03-21,合同会社コンバーチブル,,合同会社,東京都,練馬区,旭町２丁目４３－７ハイムみづき１０５,,13,120,1790071,,,,,,,2024-03-21,1,,,,,コンバーチブル,0
90,1012401041653,新規,0,2024-03-21,2024-03-21,株式会社インプルーム,,株式会社,東京都,多摩市,桜ヶ丘２丁目３６番地の８,,13,224,2060013,,,,,,,2024-03-21,1,,,,,インプルーム,0
92,1012801023053,新規,0,2024-03-21,2024-03-21,株式会社こじろー,,株式会社,東京都,昭島市,宮沢町２丁目３８番８号,,13,207,1960024,,,,,,,2024-03-21,1,,,,,コジロー,0
95,1013301052170,新規,0,2024-03-21,2024-03-21,株式会社ＣＯＭＰＡＳＳ,,株式会社,東京都,豊島区,池袋２丁目１１－２アルコイルスＫビル４Ｆ,,13,116,1710014,,,,,,,2024-03-21,1,,,,,コンパス,0
96,1013301052229,新規,0,2024-03-21,2024-03-21,ＳＨＡＮＤＯＲＡ　ＪＡＰＡＮ株式会社,,株式会社,東京都,豊島区,池袋２丁目１２番５号三宅ビル６階,,13,116,1710014,,,,,,,2024-03-21,1,,,,,シャンドラジャパン,0
97,1013303007057,新規,0,2024-03-21,2024-03-21,ＨＵＮＧ　ＹＥＮジャパン合同会社,,合同会社,東京都,豊島区,南大塚２丁目１４番７号三栄ビル４０２号,,13,116,1700005,,,,,,,2024-03-21,1,,,,,フンエンジャパン,0
106,1020001156276,新規,0,2024-03-21,2024-03-21,株式会社ｅｎｊｕ,,株式会社,神奈川県,横浜市中区,山下町１６８番地１－６０２号,,14,104,2310023,,,,,,,2024-03-21,1,,,,,エンジュ,0
107,1020001156292,新規,0,2024-03-21,2024-03-21,株式会社Ｈｙｇｇｅ　Ｐｌａｎｎｉｎｇ,,株式会社,神奈川県,横浜市泉区,岡津町２７９４番地９ランドシティ緑園都市４１０号,,14,116,2450003,,,,,,,2024-03-21,1,,,,,ヒュッゲプランニング,0
108,1020001156318,新規,0,2024-03-21,2024-03-21,Ｙ＆Ｒ株式会社,,株式会社,神奈川県,横浜市神奈川区,新浦島町１丁目１番地１ベイステージ横浜４３２－１０３９号,,14,102,2210031,,,,,,,2024-03-21,1,,,,,ワイアンドアール,0
114,1021001081729,新規,0,2024-03-21,2024-03-21,株式会社ふじさわびと,,株式会社,神奈川県,藤沢市,鵠沼橋一丁目１７番１１号順天ビル４Ｆ,,14,205,2510022,,,,,,,2024-03-21,1,,,,,フジサワビト,0
115,1021001081745,新規,0,2024-03-21,2024-03-21,株式会社Ａｒ‐Ｊ＆Ｃｏ．,,株式会社,神奈川県,茅ヶ崎市,南湖５丁目１番１号,,14,207,2530061,,,,,,,2024-03-21,1,,,,,アルジェイアンドカンパニー,0
116,1021001081761,新規,0,2024-03-21,2024-03-21,ビゴット株式会社,,株式会社,神奈川県,平塚市,横内４１８７－７,,14,203,2540002,,,,,,,2024-03-21,1,,,,,ビゴット,0
119,1021003014249,新規,0,2024-03-21,2024-03-21,合同会社ユニバーサルインテリジェンス,,合同会社,神奈川県,藤沢市,片瀬５丁目４番１７号湘南サンライズ２０１,,14,205,2510032,,,,,,,2024-03-21,1,,,,,ユニバーサルインテリジェンス,0
122,1030001159377,新規,0,2024-03-21,2024-03-21,株式会社ＨＵＤＡ,,株式会社,埼玉県,草加市,谷塚２丁目１３番３号ブルーメ谷塚５６・２０５号室,,11,221,3400028,,,,,,,2024-03-21,1,,,,,フダ,0
129,1030003023837,新規,0,2024-03-21,2024-03-21,合同会社ＹＯＳＨＩ,,合同会社,埼玉県,富士見市,東みずほ台１丁目４番地１サニークレストみずほ台６０３,,11,235,3540015,,,,,,,2024-03-21,1,,,,,ヨシ,0
130,1030005021590,新規,0,2024-03-21,2024-03-21,特定非営利活動法人比企未来プロジェクト,,その他の設立登記法人,埼玉県,東松山市,大字西本宿字深澤２３５４番地１,,11,212,3550062,,,,,,,2024-03-21,1,,,,,ヒキミライプロジェクト,0
135,1040001132639,新規,0,2024-03-21,2024-03-21,寿電光株式会社,,株式会社,千葉県,旭市,新町６６７番地１６,,12,215,2892501,,,,,,,2024-03-21,1,,,,,コトブキデンコウ,0
136,1040001132671,新規,0,2024-03-21,2024-03-21,株式会社ＦＳＫ,,株式会社,千葉県,松戸市,河原塚３５７番地,,12,207,2702254,,,,,,,2024-03-21,1,,,,,エフエスケイ,0
137,1040001132754,新規,0,2024-03-21,2024-03-21,株式会社ＡＣＴ,,株式会社,千葉県,柏市,あけぼの１丁目８番２２号,,12,217,2770841,,,,,,,2024-03-21,1,,,,,アクト,0
138,1040001132762,新規,0,2024-03-21,2024-03-21,株式会社ゆきのや,,株式会社,千葉県,南房総市,千倉町瀬戸２２９１番地２,,12,234,2950004,,,,,,,2024-03-21,1,,,,,ユキノヤ,0
139,1040001132795,新規,0,2024-03-21,2024-03-21,テクスタ株式会社,,株式会社,千葉県,流山市,大字東深井１１０９－１１２サニーメゾン３－２０２,,12,220,2700101,,,,,,,2024-03-21,1,,,,,テクスタ,0
140,1040003024553,新規,0,2024-03-21,2024-03-21,合同会社田所プランニング,,合同会社,千葉県,我孫子市,布佐６８９番地の１,,12,222,2701101,,,,,,,2024-03-21,1,,,,,タドコロプランニング,0
141,1040003024578,新規,0,2024-03-21,2024-03-21,合同会社Ａｇａｉｎｓｔ,,合同会社,千葉県,習志野市,鷺沼３丁目１９－１６,,12,216,2750014,,,,,,,2024-03-21,1,,,,,アゲインスト,0
142,1040003024594,新規,0,2024-03-21,2024-03-21,ケ商会合同会社,,合同会社,千葉県,野田市,山崎１８４８番地の６サンライズビル２Ｆ,,12,208,2780022,,,,,,,2024-03-21,1,,,,,ケショウカイ,0
143,1040003024603,新規,0,2024-03-21,2024-03-21,合同会社リンクル,,合同会社,千葉県,流山市,大字東深井４９３－１４５,,12,220,2700101,,,,,,,2024-03-21,1,,,,,リンクル,0
146,1050001054469,新規,0,2024-03-21,2024-03-21,株式会社ＳＫＣ,,株式会社,茨城県,結城市,大字上山川５１２６番地５,,08,207,3070021,,,,,,,2024-03-21,1,,,,,エスケーシー,0
147,1050001054485,新規,0,2024-03-21,2024-03-21,Ｔ‐Ｆａｌｍａ株式会社,,株式会社,茨城県,牛久市,ひたち野東３丁目１１番地６,,08,219,3001207,,,,,,,2024-03-21,1,,,,,ティーファルマ,0
150,1060001036929,新規,0,2024-03-21,2024-03-21,株式会社ＳＨＩＮ‐ＭＩＲＡＩ,,株式会社,栃木県,宇都宮市,下岡本町３７８６番地１０,,09,201,3291104,,,,,,,2024-03-21,1,,,,,シンミライ,0
151,1060001036937,新規,0,2024-03-21,2024-03-21,株式会社Ａｐｕｒｏ,,株式会社,栃木県,栃木市,倭町２番１９号Ｙ＆Ｍラフィネス１０１,,09,203,3280037,,,,,,,2024-03-21,1,,,,,アプロ,0
152,1060003004974,新規,0,2024-03-21,2024-03-21,合同会社栃木総合メンテナンス,,合同会社,栃木県,宇都宮市,徳次郎町１２９番地２,,09,201,3212116,,,,,,,2024-03-21,1,,,,,トチギソウゴウメンテナンス,0
153,1060003004982,新規,0,2024-03-21,2024-03-21,合同会社Ｔｓｕｍｕｇｉ,,合同会社,栃木県,小山市,天神町１丁目２番地２８号,,09,208,3230032,,,,,,,2024-03-21,1,,,,,ツムギ,0
157,1070001041515,新規,0,2024-03-21,2024-03-21,株式会社武井牧場,,株式会社,群馬県,沼田市,上沼須町４０８番地,,10,206,3780011,,,,,,,2024-03-21,1,,,,,タケイボクジョウ,0
161,1080003003157,新規,0,2024-03-21,2024-03-21,合同会社ＭＳＭ,,合同会社,静岡県,静岡市清水区,石川本町３番４号,,22,103,4240006,,,,,,,2024-03-21,1,,,,,エムエスエム,0
166,1080401027071,新規,0,2024-03-21,2024-03-21,株式会社ＥＳＴＲＩＳＥ,,株式会社,静岡県,浜松市中央区,初生町８１番地の３,,22,138,4338112,,,,,,,2024-03-21,1,,,,,エストライズ,0
169,1100001037286,新規,0,2024-03-21,2024-03-21,株式会社街建,,株式会社,長野県,長野市,三輪６丁目２１番１８号,,20,201,3800803,,,,,,,2024-03-21,1,,,,,ガイケン,0
170,1100001037294,新規,0,2024-03-21,2024-03-21,株式会社アクアス,,株式会社,長野県,上田市,古里１９６７番地６,,20,203,3860005,,,,,,,2024-03-21,1,,,,,アクアス,0
175,1110001038267,新規,0,2024-03-21,2024-03-21,佐渡尖閣湾リゾート株式会社,,株式会社,新潟県,佐渡市,北狄１５６１番地,,15,224,9522133,,,,,,,2024-03-21,1,,,,,サドセンカクワンリゾート,0
180,1120001263293,新規,0,2024-03-21,2024-03-21,株式会社元不動産販売,,株式会社,大阪府,大阪市中央区,島町２丁目４番３号,,27,128,5400034,,,,,,,2024-03-21,1,,,,,ゲンフドウサンハンバイ,0
181,1120001263335,新規,0,2024-03-21,2024-03-21,えんまん株式会社,,株式会社,大阪府,守口市,大日東町２番１３－１４０７号,,27,209,5700016,,,,,,,2024-03-21,1,,,,,エンマン,0
182,1120001263392,新規,0,2024-03-21,2024-03-21,株式会社Ｃ．ｌｏｖｅ．Ｒ,,株式会社,大阪府,大阪市旭区,清水２丁目６番７号,,27,117,5350021,,,,,,,2024-03-21,1,,,,,クローバー,0
186,1120005024205,新規,0,2024-03-21,2024-03-21,一般社団法人ブライト健康経営推進協会,,その他の設立登記法人,大阪府,大阪市北区,西天満３丁目５番１０号,,27,127,5300047,,,,,,,2024-03-21,1,,,,,ブライトケンコウケイエイスイシンキョウカイ,0
187,1120101069228,新規,0,2024-03-21,2024-03-21,誠熙商事株式会社,,株式会社,大阪府,貝塚市,東山１丁目２３番１２号,,27,208,5970046,,,,,,,2024-03-21,1,,,,,セイキショウジ,0
188,1120101069236,新規,0,2024-03-21,2024-03-21,株式会社ＴＨＵＭＢ　ＭＡＳＴＥＲ,,株式会社,大阪府,堺市堺区,東雲西町１丁２番７号出原ビル１０１,,27,141,5900013,,,,,,,2024-03-21,1,,,,,サムマスター,0
189,1120101069252,新規,0,2024-03-21,2024-03-21,株式会社ＰＵＢＬＩＣ　ＪＡＰＡＮ,,株式会社,大阪府,河内長野市,小山田町１２５０番地の１８９,,27,216,5860094,,,,,,,2024-03-21,1,,,,,パブリックジャパン,0
190,1120101069269,新規,0,2024-03-21,2024-03-21,株式会社ＭＯＡＴ　ＦＩＥＬＤ,,株式会社,大阪府,泉南市,馬場２丁目３３番８号,,27,228,5900525,,,,,,,2024-03-21,1,,,,,モートフィールド,0
191,1120103005726,新規,0,2024-03-21,2024-03-21,合同会社エクスパンシオン,,合同会社,大阪府,岸和田市,尾生町８００番地の１,,27,202,5960816,,,,,,,2024-03-21,1,,,,,エクスパンシオン,0
193,1120901048892,新規,0,2024-03-21,2024-03-21,創流株式会社,,株式会社,大阪府,豊中市,緑丘３丁目１９番２３号,,27,203,5600002,,,,,,,2024-03-21,1,,,,,ソウリュウ,0
194,1122001037917,新規,0,2024-03-21,2024-03-21,株式会社三好電工,,株式会社,大阪府,大東市,三箇３丁目１１番４３号,,27,218,5740077,,,,,,,2024-03-21,1,,,,,ミヨシデンコウ,0
201,1130005017034,新規,0,2024-03-21,2024-03-21,弁護士法人京都リレイズ法律事務所,,その他の設立登記法人,京都府,京都市中京区,河原町通二条上る清水町３５９番地ＡＢビル３階,,26,104,6040911,,,,,,,2024-03-21,1,,,,,キョウトリレイズホウリツジムショ,0
206,1140001133726,新規,0,2024-03-21,2024-03-21,株式会社ＣＲＯＳＳ,,株式会社,兵庫県,尼崎市,食満５丁目２７番１６号,,28,202,6610982,,,,,,,2024-03-21,1,,,,,クロス,0
207,1140001133742,新規,0,2024-03-21,2024-03-21,株式会社Ｒｉｚｚワークス,,株式会社,兵庫県,神戸市北区,日の峰１丁目５番地の４,,28,109,6511233,,,,,,,2024-03-21,1,,,,,リズワークス,0
208,1140001133791,新規,0,2024-03-21,2024-03-21,株式会社ＩＺＡ,,株式会社,兵庫県,神戸市中央区,加納町４丁目７番２３号とけいや館北野坂４０５,,28,110,6500001,,,,,,,2024-03-21,1,,,,,イザ,0
210,1140003020294,新規,0,2024-03-21,2024-03-21,合同会社猫組,,合同会社,兵庫県,神戸市灘区,土山町７－６ホワイトビュー六甲９Ｆ,,28,102,6570022,,,,,,,2024-03-21,1,,,,,ネコグミ,0
217,1160003003140,新規,0,2024-03-21,2024-03-21,合同会社サンエス工業,,合同会社,滋賀県,長浜市,南呉服町１１番３３号,,25,203,5260058,,,,,,,2024-03-21,1,,,,,サンエスコウギョウ,0
229,1180001160576,新規,0,2024-03-21,2024-03-21,株式会社金山,,株式会社,愛知県,名古屋市西区,八筋町２６０番地第三平松マンション６０２号室,,23,104,4520815,,,,,,,2024-03-21,1,,,,,カナヤマ,0
230,1180001160592,新規,0,2024-03-21,2024-03-21,株式会社リチャージ,,株式会社,愛知県,名古屋市名東区,社台３丁目９７番地,,23,115,4650092,,,,,,,2024-03-21,1,,,,,リチャージ,0
231,1180001160618,新規,0,2024-03-21,2024-03-21,ＴＵＮＥ　ＷＯＲＫＳ株式会社,,株式会社,愛知県,名古屋市中区,栄３丁目２７番７号,,23,106,4600008,,,,,,,2024-03-21,1,,,,,チューンワークス,0
232,1180001160683,新規,0,2024-03-21,2024-03-21,株式会社晃生,,株式会社,愛知県,東海市,加木屋町栗見坂２７番地の１シャトー栗見坂１０２号,,23,222,4770032,,,,,,,2024-03-21,1,,,,,コウセイ,0
238,1180003026494,新規,0,2024-03-21,2024-03-21,合同会社協創舎,,合同会社,愛知県,名古屋市北区,辻本通４丁目１１番地,,23,103,4620861,,,,,,,2024-03-21,1,,,,,キョウソウシャ,0
239,1180005020553,新規,0,2024-03-21,2024-03-21,ケアリンクス協同組合,,その他の設立登記法人,愛知県,名古屋市東区,徳川１丁目１４番１号,,23,102,4610025,,,,,,,2024-03-21,1,,,,,ケアリンクス,0
240,1190001031181,新規,0,2024-03-21,2024-03-21,ＡＬＩＫＡ株式会社,,株式会社,三重県,鈴鹿市,三日市町１８８０番地の５,,24,207,5130803,,,,,,,2024-03-21,1,,,,,アリカ,0
241,1190001031198,新規,0,2024-03-21,2024-03-21,株式会社ｋａｃｈｉａｉ,,株式会社,三重県,名張市,桔梗が丘５番町三街区４１番地,,24,208,5180625,,,,,,,2024-03-21,1,,,,,,0
242,1190001031207,新規,0,2024-03-21,2024-03-21,ボーレ技研株式会社,,株式会社,三重県,名張市,百合が丘東３番町７９番地,,24,208,5180473,,,,,,,2024-03-21,1,,,,,ボーレギケン,0
246,1210001019686,新規,0,2024-03-21,2024-03-21,株式会社モンソム,,株式会社,福井県,坂井市,三国町運動公園２丁目１０番３１号,,18,210,9130052,,,,,,,2024-03-21,1,,,,,モンソム,0
248,1230003002168,新規,0,2024-03-21,2024-03-21,合同会社ダブルサポート,,合同会社,富山県,富山市,赤田５３４－１,,16,201,9398064,,,,,,,2024-03-21,1,,,,,ダブルサポート,0
251,1240001062948,新規,0,2024-03-21,2024-03-21,株式会社セーフハウス,,株式会社,広島県,東広島市,西条中央３丁目１４番１４号,,34,212,7390025,,,,,,,2024-03-21,1,,,,,セーフハウス,0
252,1240001062980,新規,0,2024-03-21,2024-03-21,株式会社ＳＥＣホールディングス,,株式会社,広島県,広島市中区,吉島町４番５号,,34,101,7300821,,,,,,,2024-03-21,1,,,,,エスイーシーホールディングス,0
257,1260001038847,新規,0,2024-03-21,2024-03-21,吉備中央生コン株式会社,,株式会社,岡山県,加賀郡吉備中央町,北２６７４番地,,33,681,7161551,,,,,,,2024-03-21,1,,,,,キビチュウオウナマコン,0
258,1260001038863,新規,0,2024-03-21,2024-03-21,株式会社エフ・ライズ,,株式会社,岡山県,井原市,木之子町５１４０番地,,33,207,7150004,,,,,,,2024-03-21,1,,,,,エフライズ,0
259,1260001038871,新規,0,2024-03-21,2024-03-21,株式会社座花,,株式会社,岡山県,岡山市南区,浦安本町１０７番地２,,33,104,7028026,,,,,,,2024-03-21,1,,,,,ザハナ,0
265,1290001105058,新規,0,2024-03-21,2024-03-21,株式会社フロアクリエイション,,株式会社,福岡県,久留米市,藤光町９２５番地９７ｋ－ｉｄｅａｌ久留米ＩＩ－Ｉ号,00134148,40,203,8300054,,,,,,,2024-03-21,1,,,,,フロアクリエイション,0
266,1290001105082,新規,0,2024-03-21,2024-03-21,株式会社ＶｉｖｉｄＣｒｅａｔｉｏｎ,,株式会社,福岡県,福岡市中央区,輝国２丁目５番２２－７０５号,,40,133,8100032,,,,,,,2024-03-21,1,,,,,ヴィヴィッドクリエイション,0
267,1290001105090,新規,0,2024-03-21,2024-03-21,株式会社ＧＬＯＢＲＩＤＧＥ,,株式会社,福岡県,糸島市,三雲１１９番地２,,40,230,8191583,,,,,,,2024-03-21,1,,,,,グローブリッジ,0
268,1290001105108,新規,0,2024-03-21,2024-03-21,株式会社三州,,株式会社,福岡県,福岡市博多区,博多駅前３丁目２８番３号,,40,132,8120011,,,,,,,2024-03-21,1,,,,,サンシュウ,0
269,1290001105140,新規,0,2024-03-21,2024-03-21,Ｅｌｅｌｅ株式会社,,株式会社,福岡県,福岡市城南区,南片江４丁目４１番９号,,40,136,8140143,,,,,,,2024-03-21,1,,,,,エレレ,0
271,1290801030397,新規,0,2024-03-21,2024-03-21,株式会社ナイン,,株式会社,福岡県,北九州市八幡西区,皇后崎町７番２０－５０３号,,40,109,8060041,,,,,,,2024-03-21,1,,,,,ナイン,0
272,1290801030406,新規,0,2024-03-21,2024-03-21,富永コーチングカントリークラブ株式会社,,株式会社,福岡県,行橋市,大字金屋４１９番地４,,40,213,8240004,,,,,,,2024-03-21,1,,,,,トミナガコーチングカントリークラブ,0
273,1290801030414,新規,0,2024-03-21,2024-03-21,株式会社ＲＯＯＴＳ,,株式会社,福岡県,北九州市若松区,久岐の浜３番２－１００７号,,40,103,8080054,,,,,,,2024-03-21,1,,,,,ルーツ,0
274,1290803004647,新規,0,2024-03-21,2024-03-21,合同会社やさしい地球,,合同会社,福岡県,田川市,大字弓削田３２９９番地,,40,206,8260041,,,,,,,2024-03-21,1,,,,,ヤサシイチキュウ,0
276,1300001013655,新規,0,2024-03-21,2024-03-21,株式会社Ｆｕｎ　Ｆｕｎ楽,,株式会社,佐賀県,神埼市,神埼町本告牟田２００４番地,,41,210,8420013,,,,,,,2024-03-21,1,,,,,ファンファンラク,0
281,1320001020369,新規,0,2024-03-21,2024-03-21,株式会社ｍ．ａｎｄ,,株式会社,大分県,別府市,大字鶴見３７０番地の２,,44,202,8740840,,,,,,,2024-03-21,1,,,,,エムアンド,0
282,1320003004312,新規,0,2024-03-21,2024-03-21,合同会社アイモ,,合同会社,大分県,宇佐市,大字江須賀２５０４番地の４,,44,211,8720032,,,,,,,2024-03-21,1,,,,,アイモ,0
284,1330001031869,新規,0,2024-03-21,2024-03-21,ル・グリ株式会社,,株式会社,熊本県,熊本市中央区,萩原町３－２１－１００５号,,43,101,8600832,,,,,,,2024-03-21,1,,,,,ルグリ,0
285,1330003010268,新規,0,2024-03-21,2024-03-21,協和合同会社,,合同会社,熊本県,熊本市東区,水源２丁目２６番２号,,43,102,8620907,,,,,,,2024-03-21,1,,,,,キョウワ,0
286,1330003010276,新規,0,2024-03-21,2024-03-21,合同会社ｇ．ｌａｎｄ,,合同会社,熊本県,熊本市西区,上熊本３丁目１番２３－３０７号シティマンション上熊本,,43,103,8600079,,,,,,,2024-03-21,1,,,,,ジーランド,0
288,1350001018848,新規,0,2024-03-21,2024-03-21,株式会社コーダイ,,株式会社,宮崎県,東諸県郡国富町,大字宮王丸３２３番地,,45,382,8801102,,,,,,,2024-03-21,1,,,,,コーダイ,0
289,1350003004598,新規,0,2024-03-21,2024-03-21,合同会社Ｏｌｉｖｅ,,合同会社,宮崎県,小林市,真方７６０番地３,,45,205,8860007,,,,,,,2024-03-21,1,,,,,オリーブ,0
290,1360001033326,新規,0,2024-03-21,2024-03-21,株式会社ゼンシン,,株式会社,沖縄県,糸満市,字真栄里１８６０番地１－６棟－４０３号,,47,210,9010362,,,,,,,2024-03-21,1,,,,,ゼンシン,0
291,1360001033350,新規,0,2024-03-21,2024-03-21,ＧＬＯＷおきなわ株式会社,,株式会社,沖縄県,浦添市,仲西１丁目３番５号,,47,208,9012125,,,,,,,2024-03-21,1,,,,,グロウオキナワ,0
292,1360001033375,新規,0,2024-03-21,2024-03-21,株式会社ビズグレース,,株式会社,沖縄県,那覇市,金城５丁目２番６ラヴィシェール小禄駅前５０５,,47,201,9010155,,,,,,,2024-03-21,1,,,,,ビズグレース,0
297,1360005007004,新規,0,2024-03-21,2024-03-21,一般社団法人大東水中洞窟潜水協会,,その他の設立登記法人,沖縄県,島尻郡南大東村,字在所２５３番地,,47,357,9013805,,,,,,,2024-03-21,1,,,,,ダイトウスイチュウドウクツセンスイキョウカイ,0
298,1370001051079,新規,0,2024-03-21,2024-03-21,株式会社福商,,株式会社,宮城県,仙台市太白区,向山３丁目２０番５号Ｊコート１０３,,04,104,9820841,,,,,,,2024-03-21,1,,,,,フクショウ,0
308,1430003016081,新規,0,2024-03-21,2024-03-21,合同会社Ｎｏｒｔｈ　ＬＩＮＥ,,合同会社,北海道,札幌市白石区,川下７４１－６３,,01,104,0030869,,,,,,,2024-03-21,1,,,,,ノースライン,0
321,1500005008689,新規,0,2024-03-21,2024-03-21,弁護士法人ＳＯＨ,,その他の設立登記法人,愛媛県,松山市,一番町３丁目３番地６,,38,201,7900001,,,,,,,2024-03-21,1,,,,,ソウ,0
328,2010001243157,新規,0,2024-03-21,2024-03-21,株式会社レイスアーツ,,株式会社,東京都,中央区,銀座１丁目１２－４Ｎ＆ＥＢＬＤ．７階,,13,102,1040061,,,,,,,2024-03-21,1,,,,,レイスアーツ,0
329,2010001243173,新規,0,2024-03-21,2024-03-21,ＮｅｘＵｓＬｉｆｅ株式会社,,株式会社,東京都,中央区,日本橋室町１丁目１１番１２号日本橋水野ビル７階,,13,102,1030022,,,,,,,2024-03-21,1,,,,,ネクサスライフ,0
330,2010001243207,新規,0,2024-03-21,2024-03-21,ｏａｓｉｓ　ｄｅｓｉｇｎ株式会社,,株式会社,東京都,中央区,銀座１丁目１２番４号Ｎ＆ＥＢＬＤ．７階,,13,102,1040061,,,,,,,2024-03-21,1,,,,,オアシスデザイン,0
331,2010001243248,新規,0,2024-03-21,2024-03-21,株式会社Ｇｒｏｗｔｈ　ＩＰＯ　ｐａｒｔｎｅｒｓ,,株式会社,東京都,中央区,日本橋室町４丁目３番１８号東京建物室町ビル８階,,13,102,1030022,,,,,,,2024-03-21,1,,,,,グロースアイピーオーパートナーズ,0
332,2010001243256,新規,0,2024-03-21,2024-03-21,株式会社ＡＮＥＳ,,株式会社,東京都,文京区,小石川１丁目１０番１３号,,13,105,1120002,,,,,,,2024-03-21,1,,,,,アネス,0
333,2010001243280,新規,0,2024-03-21,2024-03-21,株式会社インデックス・サン,,株式会社,東京都,中央区,日本橋３丁目２番１４号新槇町ビル別館第一１Ｆ,,13,102,1030027,,,,,,,2024-03-21,1,,,,,インデックスサン,0
334,2010001243306,新規,0,2024-03-21,2024-03-21,株式会社インフラ・テックソリューションズ,,株式会社,東京都,千代田区,神田岩本町４番地１４,,13,101,1010033,,,,,,,2024-03-21,1,,,,,インフラテックソリューションズ,0
341,2010003043266,新規,0,2024-03-21,2024-03-21,合同会社Ｎ　ＤＥＳＩＧＮ,,合同会社,東京都,千代田区,神田和泉町１番地６－１６ヤマトビル４０５,,13,101,1010024,,,,,,,2024-03-21,1,,,,,エヌデザイン,0
342,2010003043274,新規,0,2024-03-21,2024-03-21,合同会社ｙｕｉｙａ,,合同会社,東京都,中央区,銀座１丁目２２番１１号銀座大竹ビジデンス２Ｆ,,13,102,1040061,,,,,,,2024-03-21,1,,,,,ユイヤ,0
343,2010005038009,新規,0,2024-03-21,2024-03-21,一般社団法人国際医療総合支援センター・医療人材育成交流学会,,その他の設立登記法人,東京都,中央区,銀座１丁目１５－４,,13,102,1040061,,,,,,,2024-03-21,1,,,,,コクサイイリョウソウゴウシエンセンターイリョウジンザイイクセイコウリュウガッカイ,0
344,2010005038066,新規,0,2024-03-21,2024-03-21,ＳＡＯ司法書士法人,,その他の設立登記法人,東京都,中央区,日本橋大伝馬町１３番７号日本橋大富ビル３階,,13,102,1030011,,,,,,,2024-03-21,1,,,,,エスエーオー,0
345,2010105002252,新規,0,2024-03-21,2024-03-21,特定非営利活動法人ＡＩ教育推進機構,,その他の設立登記法人,東京都,八王子市,下柚木３丁目１番地Ａ－３１０,,13,201,1920372,,,,,,,2024-03-21,1,,,,,,0
348,2010401181097,新規,0,2024-03-21,2024-03-21,株式会社一本堂,,株式会社,東京都,港区,南青山３丁目１番３６号,,13,103,1070062,,,,,,,2024-03-21,1,,,,,イッポンドウ,0
349,2010401181106,新規,0,2024-03-21,2024-03-21,株式会社トータル・キャピタル,,株式会社,東京都,港区,南青山５丁目１２番２４－３０５号,,13,103,1070062,,,,,,,2024-03-21,1,,,,,トータルキャピタル,0
350,2010401181114,新規,0,2024-03-21,2024-03-21,株式会社Ｐｌｕｓ,,株式会社,東京都,港区,南青山３丁目１番３６号青山丸竹ビル６階,,13,103,1070062,,,,,,,2024-03-21,1,,,,,プルス,0
351,2010401181130,新規,0,2024-03-21,2024-03-21,株式会社ＥＫＭ,,株式会社,東京都,港区,元赤坂１丁目１－８赤坂コミュニティビル９Ｆ,,13,103,1070051,,,,,,,2024-03-21,1,,,,,イーケーエム,0
352,2010401181147,新規,0,2024-03-21,2024-03-21,妊娠前デトックスラボ株式会社,,株式会社,東京都,港区,北青山１丁目２－３青山ビル９階,,13,103,1070061,,,,,,,2024-03-21,1,,,,,ニンシンマエデトックスラボ,0
353,2010401181213,新規,0,2024-03-21,2024-03-21,株式会社Ｖｅｇａｎ　Ｒａｍｅｎ　Ｔｏｋｙｏ,,株式会社,東京都,港区,南青山４丁目１７番３３号グランカーサ南青山２Ｆ,,13,103,1070062,,,,,,,2024-03-21,1,,,,,ヴィーガンラーメントウキョウ,0
354,2010401181221,新規,0,2024-03-21,2024-03-21,株式会社ＭＵＳＥ,,株式会社,東京都,港区,北青山１丁目３番１号アールキューブ青山３階,,13,103,1070061,,,,,,,2024-03-21,1,,,,,ミューズ,0
355,2010401181270,新規,0,2024-03-21,2024-03-21,株式会社メディ・エンジン,,株式会社,東京都,港区,芝大門２丁目８－５ＭＨＫビル４階,,13,103,1050012,,,,,,,2024-03-21,1,,,,,メディエンジン,0
356,2010403032190,新規,0,2024-03-21,2024-03-21,合同会社三愛リモデルケア,,合同会社,東京都,港区,北青山１丁目３番１号アールキューブ青山３階,,13,103,1070061,,,,,,,2024-03-21,1,,,,,サンアイリモデルケア,0
357,2010403032216,新規,0,2024-03-21,2024-03-21,ＥＺ　ｃｈａｔ　ＪＡＰＡＮ合同会社,,合同会社,東京都,港区,南麻布１丁目６番３１号タイガー南麻布１３０２,,13,103,1060047,,,,,,,2024-03-21,1,,,,,イージーチャットジャパン,0
358,2010403032224,新規,0,2024-03-21,2024-03-21,ＹＫＰＭ合同会社,,合同会社,東京都,港区,北青山１丁目３番１号アールキューブ青山３階,,13,103,1070061,,,,,,,2024-03-21,1,,,,,ワイケーピーエム,0
360,2010501051968,新規,0,2024-03-21,2024-03-21,Ｉ‐ＬＩＮＫ　ＰＲＯＤＵＣＥ株式会社,,株式会社,東京都,台東区,根岸１丁目５番１４－１１０１号,,13,106,1100003,,,,,,,2024-03-21,1,,,,,アイリンクプロデュース,0
361,2010601064837,新規,0,2024-03-21,2024-03-21,ＭＩＡＫＩ　ＮＥＸＴ株式会社,,株式会社,東京都,江東区,北砂５丁目１１番１０号,,13,108,1360073,,,,,,,2024-03-21,1,,,,,ミアキネクスト,0
362,2010601064861,新規,0,2024-03-21,2024-03-21,株式会社レモンサワー研究所,,株式会社,東京都,江東区,古石場２丁目１１番３－６０１号,,13,108,1350045,,,,,,,2024-03-21,1,,,,,レモンサワーケンキュウジョ,0
363,2010603010715,新規,0,2024-03-21,2024-03-21,ａｎｄ３ｓｔｙｌｅ合同会社,,合同会社,東京都,墨田区,錦糸４丁目１番２６－１３１２号,,13,107,1300013,,,,,,,2024-03-21,1,,,,,アンドスリースタイル,0
364,2010801034854,新規,0,2024-03-21,2024-03-21,株式会社ＰＩＣ,,株式会社,東京都,大田区,大森北６丁目２６番１７号４Ｆ,,13,111,1430016,,,,,,,2024-03-21,1,,,,,ピック,0
366,2010901054918,新規,0,2024-03-21,2024-03-21,株式会社ＭＯＶＩＥ　ＪＡＰＡＮ,,株式会社,東京都,世田谷区,代沢５丁目２３番１０号,,13,112,1550032,,,,,,,2024-03-21,1,,,,,ムービージャパン,0
367,2010901054926,新規,0,2024-03-21,2024-03-21,株式会社ＯＧＬＡ,,株式会社,東京都,世田谷区,太子堂２丁目９番２１号,,13,112,1540004,,,,,,,2024-03-21,1,,,,,オグラ,0
373,2011001160532,新規,0,2024-03-21,2024-03-21,株式会社ｂｅｓｔｉｅｅ,,株式会社,東京都,渋谷区,道玄坂１丁目１０番８号渋谷道玄坂東急ビル２Ｆ－Ｃ,,13,113,1500043,,,,,,,2024-03-21,1,,,,,ベスティー,0
374,2011001160689,新規,0,2024-03-21,2024-03-21,株式会社Ｐｅｒｓｏｎａｌｅ　Ｆｏｇｌｉａ,,株式会社,東京都,渋谷区,恵比寿西２丁目８番４号ＥＸ恵比寿西ビル５階,,13,113,1500021,,,,,,,2024-03-21,1,,,,,ペルサナーレフォリア,0
375,2011001160706,新規,0,2024-03-21,2024-03-21,株式会社Ｓｙｎａｐｓｅ,,株式会社,東京都,渋谷区,恵比寿２丁目１４番６号ウェルスクエアイズム恵比寿４０５,,13,113,1500013,,,,,,,2024-03-21,1,,,,,シナプス,0
376,2011001160714,新規,0,2024-03-21,2024-03-21,株式会社ｃｏｃｏ．ｍｏｔｉｉ,,株式会社,東京都,渋谷区,代官山町１４番９号,,13,113,1500034,,,,,,,2024-03-21,1,,,,,ココモッティ,0
377,2011001160813,新規,0,2024-03-21,2024-03-21,ＭｏｒｅＪｏｂ株式会社,,株式会社,東京都,渋谷区,恵比寿４丁目２０番３号恵比寿ガーデンプレイスタワー,,13,113,1500013,,,,,,,2024-03-21,1,,,,,モアジョブ,0
379,2011003018720,新規,0,2024-03-21,2024-03-21,合同会社ＡＬＭＡ,,合同会社,東京都,渋谷区,東３丁目２０番１号,,13,113,1500011,,,,,,,2024-03-21,1,,,,,アルマ,0
380,2011003018729,新規,0,2024-03-21,2024-03-21,合同会社ファンタスティックピーポー,,合同会社,東京都,渋谷区,代官山町１８－４代官山マンジビル地下１階,,13,113,1500034,,,,,,,2024-03-21,1,,,,,ファンタスティックピーポー,0
381,2011003018753,新規,0,2024-03-21,2024-03-21,合同会社Ｙｏｎａｉ,,合同会社,東京都,渋谷区,渋谷２丁目１９－１５宮益坂ビルディング６０９,,13,113,1500002,,,,,,,2024-03-21,1,,,,,ヨナイ,0
383,2011101106609,新規,0,2024-03-21,2024-03-21,ＭＡＲＩＮＥ株式会社,,株式会社,東京都,新宿区,河田町３番５１号河田町ガーデン２４１３,,13,104,1620054,,,,,,,2024-03-21,1,,,,,マリーン,0
384,2011101106617,新規,0,2024-03-21,2024-03-21,ＭＥＤＥＬ株式会社,,株式会社,東京都,新宿区,四谷三栄町１５番２号４Ｂ,,13,104,1600008,,,,,,,2024-03-21,1,,,,,メデル,0
385,2011101106633,新規,0,2024-03-21,2024-03-21,ジャストゴール株式会社,,株式会社,東京都,新宿区,新宿７丁目２６番７－５０３号,,13,104,1600022,,,,,,,2024-03-21,1,,,,,ジャストゴール,0
386,2011101106641,新規,0,2024-03-21,2024-03-21,株式会社Ｊエステート,,株式会社,東京都,新宿区,百人町１丁目８番２号,,13,104,1690073,,,,,,,2024-03-21,1,,,,,ジェーエステート,0
387,2011103014198,新規,0,2024-03-21,2024-03-21,合同会社綾乃堂,,合同会社,東京都,新宿区,西新宿３丁目３－１３西新宿水間ビル６階,,13,104,1600023,,,,,,,2024-03-21,1,,,,,アヤノドウ,0
388,2011103014223,新規,0,2024-03-21,2024-03-21,合同会社甘紋,,合同会社,東京都,新宿区,西新宿３丁目３番１３号西新宿水間ビル６階,,13,104,1600023,,,,,,,2024-03-21,1,,,,,カモン,0
394,2011303005096,新規,0,2024-03-21,2024-03-21,合同会社榮尚リフォーム,,合同会社,東京都,杉並区,上井草２丁目３２番地１７号上井草ガーデニア３０３,,13,115,1670023,,,,,,,2024-03-21,1,,,,,エイショウリフォーム,0
395,2011401025946,新規,0,2024-03-21,2024-03-21,Ａｓｉａ　ｉｎｖｅｓｔｍｅｎｔ株式会社,,株式会社,東京都,板橋区,蓮根３丁目２８番８西台マイコーポ４０３号室,,13,119,1740046,,,,,,,2024-03-21,1,,,,,アジアインベストメント,0
396,2011403004312,新規,0,2024-03-21,2024-03-21,ＢＩＮＤＡＢＡＳＩＮＩ合同会社,,合同会社,東京都,板橋区,赤塚５丁目１９番１１号ハイネス赤塚２０１,,13,119,1750092,,,,,,,2024-03-21,1,,,,,ビンダバシニ,0
398,2011601027627,新規,0,2024-03-21,2024-03-21,株式会社Ａ‐ＲＩＳＥ,,株式会社,東京都,練馬区,南田中３丁目２８番１２号,,13,120,1770035,,,,,,,2024-03-21,1,,,,,アライズ,0
399,2011605002576,新規,0,2024-03-21,2024-03-21,一般社団法人Ｇｒｅａｔ　Ｂｅａｕｔｙ,,その他の設立登記法人,東京都,練馬区,高野台１丁目２番２８号,,13,120,1770033,,,,,,,2024-03-21,1,,,,,グレイトビューティ,0
402,2011801043944,新規,0,2024-03-21,2024-03-21,株式会社ＧＡＩＡ　ＮＥＸＴ,,株式会社,東京都,葛飾区,西亀有３丁目２０番７号西亀有エコハイツ３０３号,,13,122,1250002,,,,,,,2024-03-21,1,,,,,ガイアネクスト,0
406,2012401041652,新規,0,2024-03-21,2024-03-21,株式会社Ａｓ　Ｖｉｓｉｏｎ,,株式会社,東京都,狛江市,駒井町２丁目１４番５号,,13,219,2010016,,,,,,,2024-03-21,1,,,,,アズビジョン,0
407,2012403006463,新規,0,2024-03-21,2024-03-21,合同会社むさし野行政連携研究所,,合同会社,東京都,調布市,調布ケ丘３丁目３８－１６フラームメゾン調布１０１号室,,13,208,1820021,,,,,,,2024-03-21,1,,,,,ムサシノギョウセイレンケイケンキュウショ,0
409,2012801023044,新規,0,2024-03-21,2024-03-21,株式会社ハチマル建築設計,,株式会社,東京都,東大和市,中央１丁目４番地の２４,,13,220,2070015,,,,,,,2024-03-21,1,,,,,ハチマルケンチクセッケイ,0
411,2013301052236,新規,0,2024-03-21,2024-03-21,ＣＡＮＮＡＢＩＳ０３株式会社,,株式会社,東京都,豊島区,東池袋１丁目２６番４号３０７,,13,116,1700013,,,,,,,2024-03-21,1,,,,,カンナビスゼロサン,0
422,2020001156242,新規,0,2024-03-21,2024-03-21,株式会社Ｌ．Ｉ．Ｇサービス,,株式会社,神奈川県,横浜市旭区,さちが丘１６２－１４,,14,112,2410822,,,,,,,2024-03-21,1,,,,,エルアイジーサービス,0
423,2020001156259,新規,0,2024-03-21,2024-03-21,株式会社ｗ．ａ．ｕ,,株式会社,神奈川県,横浜市青葉区,田奈町２３番地４スカイヒルズ弐番館１０１,,14,117,2270064,,,,,,,2024-03-21,1,,,,,ワウ,0
424,2020001156275,新規,0,2024-03-21,2024-03-21,株式会社Ｏ．Ｇカンパニー,,株式会社,神奈川県,川崎市多摩区,南生田７丁目２２番３号,,14,135,2140036,,,,,,,2024-03-21,1,,,,,オージーカンパニー,0
425,2020001156283,新規,0,2024-03-21,2024-03-21,株式会社ケー・スタイル,,株式会社,神奈川県,横浜市西区,みなとみらい２丁目２番１号横浜ランドマークタワー,,14,103,2200012,,,,,,,2024-03-21,1,,,,,ケースタイル,0
426,2020001156300,新規,0,2024-03-21,2024-03-21,株式会社Ｇｒｏｗｃａｌ,,株式会社,神奈川県,川崎市川崎区,駅前本町１１番地２川崎フロンティアビル４Ｆ,,14,131,2100007,,,,,,,2024-03-21,1,,,,,グロウカル,0
427,2020001156309,新規,0,2024-03-21,2024-03-21,株式会社Ｓｕｎｉｃｏ,,株式会社,神奈川県,横浜市緑区,長津田２丁目３２番１３号,,14,113,2260027,,,,,,,2024-03-21,1,,,,,サニコ,0
428,2020001156333,新規,0,2024-03-21,2024-03-21,株式会社ＹＴＳ,,株式会社,神奈川県,横浜市西区,西平沼町４番１－Ｗ１９２０号,,14,103,2200024,,,,,,,2024-03-21,1,,,,,ワイティーエス,0
429,2020003025742,新規,0,2024-03-21,2024-03-21,合同会社ＶＩＥＲＩ,,合同会社,神奈川県,川崎市中原区,小杉御殿町１丁目８８４番地－２０６,,14,133,2110068,,,,,,,2024-03-21,1,,,,,ヴィエリ,0
430,2020003025783,新規,0,2024-03-21,2024-03-21,Ｌｕａｎａ’ｎｅｔ合同会社,,合同会社,神奈川県,横浜市保土ケ谷区,新桜ケ丘１丁目４１番１０号,,14,106,2400036,,,,,,,2024-03-21,1,,,,,ルアナネット,0
434,2021001081744,新規,0,2024-03-21,2024-03-21,ＳＴＲＹＭ株式会社,,株式会社,神奈川県,鎌倉市,西御門２丁目１３番７号東御門第七コーポ１１８,,14,204,2480004,,,,,,,2024-03-21,1,,,,,ストリーム,0
435,2021001081752,新規,0,2024-03-21,2024-03-21,湘南プラント株式会社,,株式会社,神奈川県,藤沢市,片瀬２丁目１５番２５号,,14,205,2510032,,,,,,,2024-03-21,1,,,,,ショウナンプラント,0
436,2021001081760,新規,0,2024-03-21,2024-03-21,株式会社ぽかみたん,,株式会社,神奈川県,茅ヶ崎市,富士見町１２番２２号,,14,207,2530031,,,,,,,2024-03-21,1,,,,,ポカミタン,0
439,2021003014272,新規,0,2024-03-21,2024-03-21,ＡＴＥＬＩＥＲ　Ｋｉｔｃｈｅｎ合同会社,,合同会社,神奈川県,相模原市南区,下溝２５６３番地１,,14,153,2520335,,,,,,,2024-03-21,1,,,,,アトリエキッチン,0
440,2021003014280,新規,0,2024-03-21,2024-03-21,合同会社ＲｏｏｍＴｏｕｒ,,合同会社,神奈川県,横須賀市,大津町４丁目６－３０－３０５,,14,201,2390808,,,,,,,2024-03-21,1,,,,,ルームツアー,0
441,2021003014306,新規,0,2024-03-21,2024-03-21,エスドセナ合同会社,,合同会社,神奈川県,茅ヶ崎市,堤２１４５番地１,,14,207,2530006,,,,,,,2024-03-21,1,,,,,エスドセナ,0
447,2030001159252,新規,0,2024-03-21,2024-03-21,Ｍ企画株式会社,,株式会社,埼玉県,八潮市,大字大曽根８５３番地３,,11,234,3400834,,,,,,,2024-03-21,1,,,,,エムキカク,0
448,2030001159319,新規,0,2024-03-21,2024-03-21,株式会社三体,,株式会社,埼玉県,春日部市,栄町３丁目３０１番地４,,11,214,3440058,,,,,,,2024-03-21,1,,,,,サンタイ,0
458,2040001132695,新規,0,2024-03-21,2024-03-21,株式会社ＢＥＬＬＺＯＯ,,株式会社,千葉県,市川市,本北方１丁目３３番７号（２Ｆ）,,12,203,2720816,,,,,,,2024-03-21,1,,,,,ベルズ,0
459,2040001132761,新規,0,2024-03-21,2024-03-21,株式会社ベックワークス,,株式会社,千葉県,松戸市,小根本４５番地１２早稲田ビル７階,,12,207,2710073,,,,,,,2024-03-21,1,,,,,ベックワークス,0
460,2040003024544,新規,0,2024-03-21,2024-03-21,古谷合同会社,,合同会社,千葉県,野田市,桐ケ作１３０３番地２,,12,208,2700213,,,,,,,2024-03-21,1,,,,,フルヤ,0
461,2040003024585,新規,0,2024-03-21,2024-03-21,メスビー合同会社,,合同会社,千葉県,習志野市,藤崎５丁目７番２２－３０１号,,12,216,2750017,,,,,,,2024-03-21,1,,,,,メスビー,0
462,2050001054468,新規,0,2024-03-21,2024-03-21,株式会社ａｍａ,,株式会社,茨城県,取手市,藤代４３番地１,,08,217,3001512,,,,,,,2024-03-21,1,,,,,エーエムエー,0
463,2050001054492,新規,0,2024-03-21,2024-03-21,株式会社ＶＩＶ,,株式会社,茨城県,土浦市,桜町４丁目３番１８号,,08,203,3000037,,,,,,,2024-03-21,1,,,,,ヴィヴ,0
464,2050003008216,新規,0,2024-03-21,2024-03-21,ミネクリーンサービス合同会社,,合同会社,茨城県,潮来市,上戸２１５２番地,,08,223,3112435,,,,,,,2024-03-21,1,,,,,ミネクリーンサービス,0
468,2070001041506,新規,0,2024-03-21,2024-03-21,株式会社ＬＵＣＫ,,株式会社,群馬県,高崎市,菅谷町１１８１番地３,,10,202,3703522,,,,,,,2024-03-21,1,,,,,ラック,0
470,2070003005319,新規,0,2024-03-21,2024-03-21,合同会社プロチェーデレ,,合同会社,群馬県,前橋市,荒牧町１１９０番地３,,10,201,3710044,,,,,,,2024-03-21,1,,,,,プロチェーデレ,0
475,2080001026191,新規,0,2024-03-21,2024-03-21,株式会社Ｕ’ｓアスライト建設,,株式会社,静岡県,牧之原市,静波１０６６番地４,,22,226,4210422,,,,,,,2024-03-21,1,,,,,ユーズアスライトケンセツ,0
477,2080101024599,新規,0,2024-03-21,2024-03-21,株式会社そら建築,,株式会社,静岡県,沼津市,豊町１７番地の６,,22,203,4100018,,,,,,,2024-03-21,1,,,,,ソラケンチク,0
478,2080103003015,新規,0,2024-03-21,2024-03-21,合同会社イストルーム,,合同会社,静岡県,駿東郡長泉町,下土狩２３４番地の１,,22,342,4110943,,,,,,,2024-03-21,1,,,,,イストルーム,0
481,2100001037293,新規,0,2024-03-21,2024-03-21,株式会社ＦｕｎＢａｓｅ,,株式会社,長野県,北佐久郡軽井沢町,大字長倉１８２５番地１０,,20,321,3890111,,,,,,,2024-03-21,1,,,,,ファンベース,0
488,2110001038258,新規,0,2024-03-21,2024-03-21,株式会社シンフォニアシステムズ,,株式会社,新潟県,新潟市中央区,花園２丁目３番１号プレステージ新潟５０３,,15,103,9500086,,,,,,,2024-03-21,1,,,,,シンフォニアシステムズ,0
499,2120001263243,新規,0,2024-03-21,2024-03-21,ディア株式会社,,株式会社,大阪府,大阪市淀川区,西中島６丁目３番３２号,,27,123,5320011,,,,,,,2024-03-21,1,,,,,ディア,0
500,2120001263292,新規,0,2024-03-21,2024-03-21,株式会社Ｍｉｎｏｒｉ‐Ａｉｄ,,株式会社,大阪府,大阪市阿倍野区,美章園３丁目１－７ソルコート阿倍野文の里１００４,,27,119,5450003,,,,,,,2024-03-21,1,,,,,ミノリエイド,0
501,2120001263342,新規,0,2024-03-21,2024-03-21,ＦＯＳＴＥＲマネジメント株式会社,,株式会社,大阪府,大阪市淀川区,西中島４丁目２番２１号,,27,123,5320011,,,,,,,2024-03-21,1,,,,,フォスターマネジメント,0
502,2120003026193,新規,0,2024-03-21,2024-03-21,合同会社アッパーノース,,合同会社,大阪府,大阪市東淀川区,相川２丁目２３番１１号,,27,114,5330007,,,,,,,2024-03-21,1,,,,,アッパーノース,0
503,2120003026219,新規,0,2024-03-21,2024-03-21,Ａｎｄ　Ｐｈｉｌｏｓｏｐｈｙ合同会社,,合同会社,大阪府,大阪市港区,弁天４丁目７番８号,,27,107,5520007,,,,,,,2024-03-21,1,,,,,アンドフィロソフィー,0
504,2120005024204,新規,0,2024-03-21,2024-03-21,一般社団法人ファミリーコミュニケーション推進協会,,その他の設立登記法人,大阪府,大阪市中央区,天満橋京町一丁目２７番ファラン天満橋２２号,,27,128,5400032,,,,,,,2024-03-21,1,,,,,ファミリーコミュニケーションスイシンキョウカイ,0
510,2120101069235,新規,0,2024-03-21,2024-03-21,ＢＵ株式会社,,株式会社,大阪府,堺市中区,辻之１１７１番地５２,00134139,27,142,5998245,,,,,,,2024-03-21,1,,,,,ビーユー,0
511,2120101069268,新規,0,2024-03-21,2024-03-21,株式会社Ｊ‐ｓｔｙｌｅ,,株式会社,大阪府,堺市南区,城山台３丁１２番１１号,,27,145,5900137,,,,,,,2024-03-21,1,,,,,ジェイスタイル,0
513,2120901048933,新規,0,2024-03-21,2024-03-21,一徳工業株式会社,,株式会社,大阪府,豊中市,北条町２丁目５番５－１０２号,,27,203,5610812,,,,,,,2024-03-21,1,,,,,イットクコウギョウ,0
516,2122003002835,新規,0,2024-03-21,2024-03-21,合同会社マーケティングファースト,,合同会社,大阪府,八尾市,明美町２丁目５番１４号,,27,212,5810087,,,,,,,2024-03-21,1,,,,,マーケティングファースト,0
521,2130001076603,新規,0,2024-03-21,2024-03-21,株式会社ゆうき,,株式会社,京都府,乙訓郡大山崎町,字大山崎小字斗加坪１－５２,,26,303,6180071,,,,,,,2024-03-21,1,,,,,ユウキ,0
525,2140001133741,新規,0,2024-03-21,2024-03-21,株式会社まいた,,株式会社,兵庫県,洲本市,上物部４６２番地６,,28,205,6560053,,,,,,,2024-03-21,1,,,,,マイタ,0
527,2140003020277,新規,0,2024-03-21,2024-03-21,合同会社東輝,,合同会社,兵庫県,神戸市中央区,中山手通１丁目４－７,,28,110,6500004,,,,,,,2024-03-21,1,,,,,ハルキ,0
528,2140005026982,新規,0,2024-03-21,2024-03-21,一般社団法人神戸かざみどり福祉会,,その他の設立登記法人,兵庫県,神戸市垂水区,神陵台４丁目１番５５－５０１号,,28,108,6550041,,,,,,,2024-03-21,1,,,,,コウベカザミドリフクシカイ,0
539,2180001160559,新規,0,2024-03-21,2024-03-21,ブラザー機械株式会社,,株式会社,愛知県,名古屋市港区,小賀須４丁目１１２４番地小賀須ビル２Ｆ,,23,111,4550882,,,,,,,2024-03-21,1,,,,,ブラザーキカイ,0
540,2180001160567,新規,0,2024-03-21,2024-03-21,株式会社日輪アセットストラテジー,,株式会社,愛知県,名古屋市東区,白壁３丁目２１番１４号,,23,102,4610011,,,,,,,2024-03-21,1,,,,,ニチリンアセットストラテジー,0
541,2180001160591,新規,0,2024-03-21,2024-03-21,株式会社ユリーカ,,株式会社,愛知県,名古屋市中区,新栄２丁目１７番５号,,23,106,4600007,,,,,,,2024-03-21,1,,,,,ユリーカ,0
542,2180001160609,新規,0,2024-03-21,2024-03-21,株式会社ＡＬｉＥＮ,,株式会社,愛知県,知多市,新知東町１丁目７番地の２６,,23,224,4780065,,,,,,,2024-03-21,1,,,,,エイリアン,0
543,2180001160674,新規,0,2024-03-21,2024-03-21,株式会社ＫＥＥＰ‐ＬＡＢ．,,株式会社,愛知県,知多市,大草字四方田７７番地の１,,23,224,4780035,,,,,,,2024-03-21,1,,,,,キープラボ,0
548,2180003026493,新規,0,2024-03-21,2024-03-21,合同会社ＮＳ,,合同会社,愛知県,一宮市,丹陽町外崎字宮前７９９番地１,,23,203,4910825,,,,,,,2024-03-21,1,,,,,エヌエス,0
550,2190001031197,新規,0,2024-03-21,2024-03-21,株式会社クレア,,株式会社,三重県,鈴鹿市,東旭が丘１丁目１‐１,,24,207,5100211,,,,,,,2024-03-21,1,,,,,クレア,0
551,2190003004614,新規,0,2024-03-21,2024-03-21,合同会社りあん１２２１,,合同会社,三重県,津市,豊が丘１丁目３番３号,,24,201,5142222,,,,,,,2024-03-21,1,,,,,リアンイチニニイチ,0
552,2200001042283,新規,0,2024-03-21,2024-03-21,株式会社ＴＲＩＷＩＮ,,株式会社,岐阜県,土岐市,駄知町２２７９番地の１‐３階,,21,212,5095401,,,,,,,2024-03-21,1,,,,,トライウィン,0
555,2210001019685,新規,0,2024-03-21,2024-03-21,株式会社クラリー,,株式会社,福井県,福井市,渕２丁目９０３番地,,18,201,9188026,,,,,,,2024-03-21,1,,,,,クラリー,0
558,2220001025880,新規,0,2024-03-21,2024-03-21,株式会社武智,,株式会社,石川県,羽咋市,下曽祢町イ１番地１,,17,207,9250071,,,,,,,2024-03-21,1,,,,,タケチ,0
559,2230001020245,新規,0,2024-03-21,2024-03-21,株式会社Ｋｅｎｐａｔｈｙ,,株式会社,富山県,富山市,室町通り１丁目１番２０号,,16,201,9300051,,,,,,,2024-03-21,1,,,,,ケンパシー,0
561,2250001020573,新規,0,2024-03-21,2024-03-21,株式会社寧静,,株式会社,山口県,宇部市,浜田３丁目１６番２２号,,35,202,7550806,,,,,,,2024-03-21,1,,,,,ネイセイ,0
563,2260001038870,新規,0,2024-03-21,2024-03-21,株式会社優雅,,株式会社,岡山県,倉敷市,玉島上成４４４番地３,,33,202,7138101,,,,,,,2024-03-21,1,,,,,ユウガ,0
564,2260001038879,新規,0,2024-03-21,2024-03-21,株式会社アントレッド,,株式会社,岡山県,岡山市東区,上道北方７３０番地グランヴィスタ安倉２０４,,33,103,7090625,,,,,,,2024-03-21,1,,,,,アントレッド,0
568,2270001008939,新規,0,2024-03-21,2024-03-21,株式会社ガーデンクォーツ,,株式会社,鳥取県,米子市,角盤町４丁目２１番地２,,31,202,6830812,,,,,,,2024-03-21,1,,,,,ガーデンクォーツ,0
570,2290001105081,新規,0,2024-03-21,2024-03-21,株式会社リープス,,株式会社,福岡県,大牟田市,三川町４丁目９８番地１,,40,202,8360065,,,,,,,2024-03-21,1,,,,,リープス,0
571,2290001105123,新規,0,2024-03-21,2024-03-21,株式会社虹翔,,株式会社,福岡県,福岡市博多区,博多駅中央街８－１ＪＲＪＰ博多ビル３階,,40,132,8120012,,,,,,,2024-03-21,1,,,,,ナナト,0
572,2290001105148,新規,0,2024-03-21,2024-03-21,Ｓｅｎｕ株式会社,,株式会社,福岡県,福岡市博多区,千代４丁目２９番２４号,,40,132,8120044,,,,,,,2024-03-21,1,,,,,セニュー,0
574,2290801030388,新規,0,2024-03-21,2024-03-21,株式会社ＮＥＷＯＮＥ,,株式会社,福岡県,田川市,大字糒１６３９－７,,40,206,8250005,,,,,,,2024-03-21,1,,,,,ニューワン,0
575,2290803004646,新規,0,2024-03-21,2024-03-21,たかつき介護看護事業合同会社,,合同会社,福岡県,北九州市門司区,旧門司１丁目１番３４－６０１号,,40,101,8010854,,,,,,,2024-03-21,1,,,,,タカツキカイゴカンゴジギョウ,0
576,2300003002093,新規,0,2024-03-21,2024-03-21,合同会社ｗｋｗｋ．Ｌａｂｏ,,合同会社,佐賀県,嬉野市,嬉野町下宿乙１５１９番地ラフォーレみゆきＡ棟１０１号,,41,209,8430300,,,,,,,2024-03-21,1,,,,,ワクワクラボ,0
589,2330001031868,新規,0,2024-03-21,2024-03-21,アルカナテック株式会社,,株式会社,熊本県,熊本市西区,城山大塘１丁目１３番１５号Ｂ２０２,00134128,43,103,8600067,,,,,,,2024-03-21,1,,,,,アルカナテック,0
594,2330003010267,新規,0,2024-03-21,2024-03-21,ＳＨローヤル合同会社,,合同会社,熊本県,熊本市中央区,保田窪１丁目２－１０７,,43,101,8620926,,,,,,,2024-03-21,1,,,,,エスエイチローヤル,0
600,2350001018839,新規,0,2024-03-21,2024-03-21,株式会社ＧＯＯＤ　ＣＯＮＮＥＣＴＩＯＮＳ１５,,株式会社,宮崎県,宮崎市,南花ケ島町３４番地５,,45,201,8800055,,,,,,,2024-03-21,1,,,,,グッドコネクションズフィフティーン,0
603,2360001033366,新規,0,2024-03-21,2024-03-21,西むらファンフーズ株式会社,,株式会社,沖縄県,那覇市,久米２丁目３番１５号ＣＯＩ那覇ビル５階,,47,201,9000033,,,,,,,2024-03-21,1,,,,,ニシムラファンフーズ,0
604,2360001033382,新規,0,2024-03-21,2024-03-21,株式会社ケーカンパニー,,株式会社,沖縄県,中頭郡中城村,字北浜１０３番地４棚原倉庫１０２,,47,328,9012414,,,,,,,2024-03-21,1,,,,,ケーカンパニー,0
605,2360003013820,新規,0,2024-03-21,2024-03-21,合同会社ＪＵＮＧＬＩＬＡ,,合同会社,沖縄県,那覇市,牧志２丁目１７番２７号４０１,,47,201,9000013,,,,,,,2024-03-21,1,,,,,ジャングリラ,0
606,2370001051061,新規,0,2024-03-21,2024-03-21,円屋株式会社,,株式会社,宮城県,名取市,大手町５丁目１２番地の２,,04,207,9811232,,,,,,,2024-03-21,1,,,,,ツブラヤ,0
607,2370001051086,新規,0,2024-03-21,2024-03-21,株式会社シンコウ,,株式会社,宮城県,仙台市太白区,鈎取本町２丁目４番６号,,04,104,9820805,,,,,,,2024-03-21,1,,,,,シンコウ,0
611,2400003003230,新規,0,2024-03-21,2024-03-21,合同会社ＡＴ　ＭＯＲＩＯＫＡ,,合同会社,岩手県,盛岡市,猪去一本木３２番地２,,03,201,0200054,,,,,,,2024-03-21,1,,,,,アットモリオカ,0
615,2420001018641,新規,0,2024-03-21,2024-03-21,株式会社リ・シンシア,,株式会社,青森県,八戸市,大字白銀町字堀ノ内１９番地３,,02,203,0310822,,,,,,,2024-03-21,1,,,,,リシンシア,0
616,2430003016114,新規,0,2024-03-21,2024-03-21,合同会社リバップ,,合同会社,北海道,札幌市東区,北三十三条東７丁目１番２６号,,01,103,0650033,,,,,,,2024-03-21,1,,,,,リバップ,0
624,2490001010724,新規,0,2024-03-21,2024-03-21,株式会社アクトクリーン,,株式会社,高知県,高知市,神田２３３番地１コーポラス藤岡１０３号,,39,201,7808040,,,,,,,2024-03-21,1,,,,,アクトクリーン,0
632,3010001243230,新規,0,2024-03-21,2024-03-21,ＦＵＴＵＲＥ　ＩＮＴＥＬＬＩＧＥＮＣＥ株式会社,,株式会社,東京都,中央区,晴海４丁目７番４号ＣＲＯＳＳ・ＤＯＣＫ・ＨＡＲＵＭＩ,,13,102,1040053,,,,,,,2024-03-21,1,,,,,フューチャーインテリジェンス,0
633,3010001243247,新規,0,2024-03-21,2024-03-21,株式会社クラウテック,,株式会社,東京都,中央区,京橋２丁目５番１５号京橋ＲＫビル１１階,,13,102,1040031,,,,,,,2024-03-21,1,,,,,クラウテック,0
634,3010001243271,新規,0,2024-03-21,2024-03-21,ＢＣ　Ｓｉｇｎｐｏｓｔ株式会社,,株式会社,東京都,千代田区,丸の内１丁目１１番１号,,13,101,1000005,,,,,,,2024-03-21,1,,,,,ビーシーサインポスト,0
635,3010001243296,新規,0,2024-03-21,2024-03-21,株式会社ディーワークス,,株式会社,東京都,千代田区,神田錦町２丁目９番地安田グリーンパーク８階,,13,101,1010054,,,,,,,2024-03-21,1,,,,,ディーワークス,0
639,3010003043249,新規,0,2024-03-21,2024-03-21,ＬＩＮＯＯＮＡ合同会社,,合同会社,東京都,千代田区,九段南２丁目５番９－９０３号,,13,101,1020074,,,,,,,2024-03-21,1,,,,,リノーナ,0
641,3010005038065,新規,0,2024-03-21,2024-03-21,一般社団法人モビリティサービス協会,,その他の設立登記法人,東京都,千代田区,神田紺屋町１５番地グランファースト４Ｆ,,13,101,1010035,,,,,,,2024-03-21,1,,,,,モビリティサービスキョウカイ,0
646,3010401180940,新規,0,2024-03-21,2024-03-21,株式会社ＡＰアセットコンサルタンツ,,株式会社,東京都,港区,三田３丁目１４番１０号三田三丁目ＭＴビル６階,,13,103,1080073,,,,,,,2024-03-21,1,,,,,エーピーアセットコンサルタンツ,0
647,3010401181071,新規,0,2024-03-21,2024-03-21,ＫＬ　ＳＵＲＶＥＹＯＲ株式会社,,株式会社,東京都,港区,新橋３丁目９番１０号天翔新橋ビル７０９号室,,13,103,1050004,,,,,,,2024-03-21,1,,,,,ケーエルサーベイヤー,0
648,3010401181121,新規,0,2024-03-21,2024-03-21,創新株式会社,,株式会社,東京都,港区,浜松町１丁目１番６号ダイアパレス浜松町２０３,,13,103,1050013,,,,,,,2024-03-21,1,,,,,ソウシン,0
649,3010401181146,新規,0,2024-03-21,2024-03-21,スターアス株式会社,,株式会社,東京都,港区,虎ノ門３丁目１８番１２号１００４号室Ｂ,,13,103,1050001,,,,,,,2024-03-21,1,,,,,スターアス,0
650,3010401181204,新規,0,2024-03-21,2024-03-21,株式会社ハイケアジャパン,,株式会社,東京都,港区,南青山２丁目３番３－１６０４号,,13,103,1070062,,,,,,,2024-03-21,1,,,,,ハイケアジャパン,0
651,3010401181212,新規,0,2024-03-21,2024-03-21,株式会社グラン・ココ,,株式会社,東京都,港区,麻布十番３丁目３番１３－３０１号,,13,103,1060045,,,,,,,2024-03-21,1,,,,,グランココ,0
652,3010401181229,新規,0,2024-03-21,2024-03-21,株式会社ジェネシス・テック,,株式会社,東京都,港区,西麻布４丁目５番１０号１階,,13,103,1060031,,,,,,,2024-03-21,1,,,,,ジェネシステック,0
653,3010403032181,新規,0,2024-03-21,2024-03-21,シエスタル合同会社,,合同会社,東京都,港区,赤坂４丁目２番２２－３０３号,,13,103,1070052,,,,,,,2024-03-21,1,,,,,シエスタル,0
654,3010403032215,新規,0,2024-03-21,2024-03-21,Ｇｏｏｄ　Ｆｕｔｕｒｅ合同会社,,合同会社,東京都,港区,六本木３丁目１６番１９号オープンレジデンシア麻布六本木８０２,,13,103,1060032,,,,,,,2024-03-21,1,,,,,グッドフューチャー,0
655,3010403032223,新規,0,2024-03-21,2024-03-21,合同会社ＣＨＩＭＯＴＯ,,合同会社,東京都,港区,南青山３丁目１番３６号青山丸竹ビル６Ｆ,,13,103,1070062,,,,,,,2024-03-21,1,,,,,チモト,0
656,3010405023088,新規,0,2024-03-21,2024-03-21,一般社団法人住まいるサポート,,その他の設立登記法人,東京都,港区,浜松町２丁目２番１５号浜松町ダイヤビル２Ｆ,,13,103,1050013,,,,,,,2024-03-21,1,,,,,スマイルサポート,0
658,3010601064852,新規,0,2024-03-21,2024-03-21,株式会社Ｊｕｌｉａ　Ｂｌｕｅ,,株式会社,東京都,江東区,有明１丁目５番２号,,13,108,1350063,,,,,,,2024-03-21,1,,,,,ジュリアブルー,0
659,3010601064860,新規,0,2024-03-21,2024-03-21,株式会社Ｈ２Ｏ,,株式会社,東京都,墨田区,両国４丁目３２番１１号永信両国ハイツ７０２,,13,107,1300026,,,,,,,2024-03-21,1,,,,,エイチツーオー,0
660,3010601064869,新規,0,2024-03-21,2024-03-21,株式会社ＭＥＥＴＩＮＧ　ＰＯＩＮＴ,,株式会社,東京都,江東区,亀戸８丁目１４番１３号,,13,108,1360071,,,,,,,2024-03-21,1,,,,,ミーティングポイント,0
663,3010801034878,新規,0,2024-03-21,2024-03-21,ＦＯＲ株式会社,,株式会社,東京都,大田区,山王１丁目２７番１８号,,13,111,1430023,,,,,,,2024-03-21,1,,,,,フォー,0
664,3010805003103,新規,0,2024-03-21,2024-03-21,医療法人社団佳侑会,,その他の設立登記法人,東京都,大田区,北千束３丁目２５番１５号,,13,111,1450062,,,,,,,2024-03-21,1,,,,,ヨシユウカイ,0
665,3010901054891,新規,0,2024-03-21,2024-03-21,株式会社ＫＥＹＳＴＯＮＥ　ＷＯＲＫＳ,,株式会社,東京都,世田谷区,玉川２丁目７番３号２階,,13,112,1580094,,,,,,,2024-03-21,1,,,,,キーストーンワークス,0
666,3010901054900,新規,0,2024-03-21,2024-03-21,株式会社Ｐｒａｙｓ　ＰＲ,,株式会社,東京都,世田谷区,北沢３丁目２３番２２号スタイル下北沢Ｅ,,13,112,1550031,,,,,,,2024-03-21,1,,,,,プレイズピーアール,0
667,3010901054909,新規,0,2024-03-21,2024-03-21,株式会社ビーケーホーム,,株式会社,東京都,世田谷区,上用賀４丁目３４番１号馬事公苑前住宅１０５号,,13,112,1580098,,,,,,,2024-03-21,1,,,,,ビーケーホーム,0
668,3010901054917,新規,0,2024-03-21,2024-03-21,株式会社ｃｈｅｅｓｅ,,株式会社,東京都,世田谷区,三軒茶屋１丁目３６番１３号,,13,112,1540024,,,,,,,2024-03-21,1,,,,,チーズ,0
671,3010903008895,新規,0,2024-03-21,2024-03-21,合同会社エクストリーム,,合同会社,東京都,世田谷区,代田３丁目１５番１２号,,13,112,1550033,,,,,,,2024-03-21,1,,,,,エクストリーム,0
674,3011001160688,新規,0,2024-03-21,2024-03-21,ＴＫＳサービス株式会社,,株式会社,東京都,目黒区,祐天寺１丁目４－９,,13,110,1530052,,,,,,,2024-03-21,1,,,,,ティーケーエスサービス,0
675,3011001160713,新規,0,2024-03-21,2024-03-21,株式会社スカイエージｔｒｏｉｓ,,株式会社,東京都,渋谷区,代々木３丁目１番１１号パシフィックスクエア代々木４階,,13,113,1510053,,,,,,,2024-03-21,1,,,,,スカイエージトロワ,0
676,3011001160721,新規,0,2024-03-21,2024-03-21,株式会社アクシデンシャル,,株式会社,東京都,渋谷区,神泉町１０－１５アネックス神泉１１０２,,13,113,1500045,,,,,,,2024-03-21,1,,,,,アクシデンシャル,0
677,3011001160738,新規,0,2024-03-21,2024-03-21,Ｘｄｅｌｉｇｈｔ株式会社,,株式会社,東京都,渋谷区,恵比寿１丁目１５番９号日宝恵比寿ビル４０３,,13,113,1500013,,,,,,,2024-03-21,1,,,,,エクスディライト,0
678,3011001160770,新規,0,2024-03-21,2024-03-21,株式会社ｈａｖｅ　ａ　ｎｉｃｅ　ｄａｙ,,株式会社,東京都,渋谷区,初台１丁目５０－４－４０３,,13,113,1510061,,,,,,,2024-03-21,1,,,,,ハブアナイスデイ,0
679,3011003018728,新規,0,2024-03-21,2024-03-21,合同会社トルポジ写真商会,,合同会社,東京都,渋谷区,恵比寿１丁目１５番９号シルク恵比寿４０３,,13,113,1500013,,,,,,,2024-03-21,1,,,,,トルポジシャシンショウカイ,0
680,3011003018736,新規,0,2024-03-21,2024-03-21,合同会社ＬＷＢ,,合同会社,東京都,目黒区,自由が丘２丁目１６番１２号ＲＪ３,,13,110,1520035,,,,,,,2024-03-21,1,,,,,エルダブリュビー,0
686,3011101106558,新規,0,2024-03-21,2024-03-21,見守株式会社,,株式会社,東京都,新宿区,山吹町３５３－１Ｙ－１ビル６０１号室,,13,104,1620801,,,,,,,2024-03-21,1,,,,,ミマモリ,0
687,3011101106590,新規,0,2024-03-21,2024-03-21,株式会社好知,,株式会社,東京都,新宿区,新宿１丁目３３番１０号,,13,104,1600022,,,,,,,2024-03-21,1,,,,,スチ,0
688,3011101106599,新規,0,2024-03-21,2024-03-21,株式会社Ｍ’ｓコネクト,,株式会社,東京都,新宿区,西新宿７丁目１８番５号ＶＯＲＴ西新宿５０２,,13,104,1600023,,,,,,,2024-03-21,1,,,,,エムズコネクト,0
689,3011101106608,新規,0,2024-03-21,2024-03-21,ダブルツリーメディカルサービス株式会社,,株式会社,東京都,新宿区,百人町１丁目１７番４号,,13,104,1690073,,,,,,,2024-03-21,1,,,,,ダブルツリーメディカルサービス,0
690,3011101106640,新規,0,2024-03-21,2024-03-21,株式会社アクティベートキャリア,,株式会社,東京都,新宿区,高田馬場２丁目１７番３号,,13,104,1690075,,,,,,,2024-03-21,1,,,,,アクティベートキャリア,0
691,3011101106657,新規,0,2024-03-21,2024-03-21,株式会社ザ・ゴルフスター,,株式会社,東京都,新宿区,百人町１丁目２２番１７号,,13,104,1690073,,,,,,,2024-03-21,1,,,,,ザゴルフスター,0
695,3011103014222,新規,0,2024-03-21,2024-03-21,合同会社神防災,,合同会社,東京都,新宿区,西新宿３丁目５番１２号,,13,104,1600023,,,,,,,2024-03-21,1,,,,,ジンボウサイ,0
696,3011103014239,新規,0,2024-03-21,2024-03-21,合同会社ジェイ・イー・ユー,,合同会社,東京都,新宿区,下宮比町１番４号,,13,104,1620822,,,,,,,2024-03-21,1,,,,,ジェイイーユー,0
697,3011301029492,新規,0,2024-03-21,2024-03-21,Ｃａｌｍ　Ｈｏｒｉｚｏｎ株式会社,,株式会社,東京都,杉並区,阿佐谷北１丁目３１番１８号,,13,115,1660001,,,,,,,2024-03-21,1,,,,,カームホライズン,0
700,3011401025945,新規,0,2024-03-21,2024-03-21,北極星ソフトウェア株式会社,,株式会社,東京都,板橋区,弥生町６８－１１ＫＤＸレジデンス中板橋８０２,,13,119,1730021,,,,,,,2024-03-21,1,,,,,ホッキョクセイソフトウェア,0
701,3011403004311,新規,0,2024-03-21,2024-03-21,合同会社ＨＯＮＳＨＯ,,合同会社,東京都,板橋区,加賀１丁目８番１６号,,13,119,1730003,,,,,,,2024-03-21,1,,,,,ホンショウ,0
704,3011801043927,新規,0,2024-03-21,2024-03-21,株式会社フジローヤルサービス,,株式会社,東京都,足立区,竹の塚５丁目６番１８号,00134137,13,121,1210813,,,,,,,2024-03-21,1,,,,,フジローヤルサービス,0
705,3011801043935,新規,0,2024-03-21,2024-03-21,株式会社ｂ‐ｓｉｄｅ,,株式会社,東京都,足立区,青井２丁目１７番１８号,,13,121,1200012,,,,,,,2024-03-21,1,,,,,ビーサイド,0
706,3011801043943,新規,0,2024-03-21,2024-03-21,株式会社Ｂａｇｕｓ,,株式会社,東京都,足立区,梅田５丁目１３番２０－４０４号,,13,121,1230851,,,,,,,2024-03-21,1,,,,,バグース,0
707,3012401041651,新規,0,2024-03-21,2024-03-21,株式会社ＵＰ,,株式会社,東京都,調布市,仙川町１丁目１０‐１８,,13,208,1820002,,,,,,,2024-03-21,1,,,,,アップ,0
708,3012403006462,新規,0,2024-03-21,2024-03-21,ＧｒｅｅｎＸｅｅｄ合同会社,,合同会社,東京都,小金井市,本町６丁目２番２０－１４１４号プラウドタワー武蔵小金井クロス,,13,210,1840004,,,,,,,2024-03-21,1,,,,,グリーンシード,0
713,3013301052227,新規,0,2024-03-21,2024-03-21,株式会社Ｂｅａｕｔｙ　ｃｌｅａｒ　Ｌａｂｏ,,株式会社,東京都,豊島区,東池袋２丁目６０番２号池袋パークハイツ１１０５号室,,13,116,1700013,,,,,,,2024-03-21,1,,,,,ビューティークリアラボ,0
714,3013301052235,新規,0,2024-03-21,2024-03-21,マネキチキン株式会社,,株式会社,東京都,豊島区,西池袋１丁目２５番２号,,13,116,1710021,,,,,,,2024-03-21,1,,,,,マネキチキン,0
715,3013303007055,新規,0,2024-03-21,2024-03-21,ファーストペンギン合同会社,,合同会社,東京都,豊島区,南大塚３丁目３６番７号南大塚Ｔ＆Ｔビル５階,,13,116,1700005,,,,,,,2024-03-21,1,,,,,ファーストペンギン,0
716,3020001156233,新規,0,2024-03-21,2024-03-21,株式会社ｍｏｓｓ．,,株式会社,神奈川県,横浜市鶴見区,駒岡１丁目２６番１５号,,14,101,2300071,,,,,,,2024-03-21,1,,,,,モス,0
717,3020001156282,新規,0,2024-03-21,2024-03-21,七〇堂商事株式会社,,株式会社,神奈川県,横浜市西区,平沼１丁目４０番９号パークハイツ横浜１１１９,,14,103,2200023,,,,,,,2024-03-21,1,,,,,ナナマルドウショウジ,0
718,3020001156308,新規,0,2024-03-21,2024-03-21,株式会社ＴＨＡＮＫＳ,,株式会社,神奈川県,横浜市中区,南仲通２丁目２５番地１－１０２,,14,104,2310006,,,,,,,2024-03-21,1,,,,,サンクス,0
719,3020001156316,新規,0,2024-03-21,2024-03-21,株式会社長八商事,,株式会社,神奈川県,川崎市宮前区,有馬９丁目５番１９－３０４号,,14,136,2160003,,,,,,,2024-03-21,1,,,,,ナガハチショウジ,0
720,3020001156324,新規,0,2024-03-21,2024-03-21,株式会社バイタリティ,,株式会社,神奈川県,横浜市青葉区,美しが丘１丁目１３番地１０号,,14,117,2250002,,,,,,,2024-03-21,1,,,,,バイタリティ,0
721,3020001156349,新規,0,2024-03-21,2024-03-21,株式会社Ｎｅｒｏ＆Ｃｏ．,,株式会社,神奈川県,横浜市港北区,大曽根１丁目５番１０－２１号,,14,109,2220003,,,,,,,2024-03-21,1,,,,,ネロアンドコー,0
722,3020001156365,新規,0,2024-03-21,2024-03-21,ＮＥＸＴＯＵＳＨＩＮ株式会社,,株式会社,神奈川県,横浜市港北区,高田西３丁目２９番２号第二セリタビル６０３,,14,109,2230066,,,,,,,2024-03-21,1,,,,,ネクストーシン,0
724,3020003025766,新規,0,2024-03-21,2024-03-21,インピゲル２合同会社,,合同会社,神奈川県,横浜市旭区,若葉台４丁目１０番４０４号,,14,112,2410801,,,,,,,2024-03-21,1,,,,,インピゲルツー,0
725,3020003025782,新規,0,2024-03-21,2024-03-21,合同会社森谷商事,,合同会社,神奈川県,川崎市高津区,下作延１丁目９番７－５０２号ユニオンスクエア,,14,134,2130033,,,,,,,2024-03-21,1,,,,,モリヤショウジ,0
727,3021001081727,新規,0,2024-03-21,2024-03-21,株式会社アオコーナー,,株式会社,神奈川県,大和市,西鶴間７丁目４番９号,,14,213,2420005,,,,,,,2024-03-21,1,,,,,アオコーナー,0
728,3021001081735,新規,0,2024-03-21,2024-03-21,株式会社ジースタイル,,株式会社,神奈川県,厚木市,妻田東１丁目３番３３‐５０２号,,14,212,2430813,,,,,,,2024-03-21,1,,,,,ジースタイル,0
729,3021001081751,新規,0,2024-03-21,2024-03-21,ＬＤＫ不動産株式会社,,株式会社,神奈川県,平塚市,平塚１丁目１７番１７号,,14,203,2540052,,,,,,,2024-03-21,1,,,,,エルディーケーフドウサン,0
739,3030001159268,新規,0,2024-03-21,2024-03-21,株式会社ＹＳＰＥＣ,,株式会社,埼玉県,北葛飾郡松伏町,大字築比地１０１８－１,,11,465,3430102,,,,,,,2024-03-21,1,,,,,ワイスペック,0
740,3030001159284,新規,0,2024-03-21,2024-03-21,株式会社ＬＩＳＯ,,株式会社,埼玉県,鶴ヶ島市,大字上広谷５３番地１マテルレジデンスＫ・Ｉ－１０５号,,11,241,3502203,,,,,,,2024-03-21,1,,,,,リッソ,0
746,3030003023835,新規,0,2024-03-21,2024-03-21,合同会社ＣｕａｔｒｏＷｉｎ,,合同会社,埼玉県,さいたま市岩槻区,本丸１丁目３６－１７－３,,11,110,3390058,,,,,,,2024-03-21,1,,,,,クラトロウィン,0
747,3030003023851,新規,0,2024-03-21,2024-03-21,合同会社ＶＵＯＮＧ　ＴＲＡＮ,,合同会社,埼玉県,新座市,東北２丁目６－１４内海ハイム１０１,,11,230,3520001,,,,,,,2024-03-21,1,,,,,ヴオンチャン,0
750,3040001132694,新規,0,2024-03-21,2024-03-21,株式会社春夏秋冬,,株式会社,千葉県,香取郡多古町,北中１６２－２コーポ北中Ａ棟,,12,347,2892251,,,,,,,2024-03-21,1,,,,,シュンカシュウトウ,0
751,3040001132728,新規,0,2024-03-21,2024-03-21,株式会社ベルデ,,株式会社,千葉県,野田市,七光台３２１番地の２０サニースクエア２０２,,12,208,2780051,,,,,,,2024-03-21,1,,,,,ベルデ,0
752,3040001132736,新規,0,2024-03-21,2024-03-21,ＡＬＩ　ＢＥＳＴ　ＥＮＴＥＲＰＲＩＳＥ株式会社,,株式会社,千葉県,山武市,大木７０４番地７,,12,237,2891211,,,,,,,2024-03-21,1,,,,,アリベストエンタープライズ,0
753,3040001132752,新規,0,2024-03-21,2024-03-21,草場環境株式会社,,株式会社,千葉県,松戸市,五香西２丁目４０番地の８３,,12,207,2702218,,,,,,,2024-03-21,1,,,,,クサバカンキョウ,0
754,3040001132760,新規,0,2024-03-21,2024-03-21,株式会社ＳＡＢＩＳ,,株式会社,千葉県,市原市,本北方二丁目１７番１４号,,12,219,2900000,,,,,,,2024-03-21,1,,,,,セイビス,0
758,3040003024551,新規,0,2024-03-21,2024-03-21,ＭＩＵＲＡ　ＴＲＡＤＩＮＧ合同会社,,合同会社,千葉県,山武市,大木８２６番地１６６,,12,237,2891211,,,,,,,2024-03-21,1,,,,,ミウラトレーディング,0
759,3040003024592,新規,0,2024-03-21,2024-03-21,ＣＨＡＮＤＩＭＡＬ　ＥＮＴＥＲＰＲＩＳＥＳ合同会社,,合同会社,千葉県,大網白里市,四天木乙２３８１ＳＥＲＥＮＡ大網９号室,,12,239,2993203,,,,,,,2024-03-21,1,,,,,チャンディマルエンタープライゼズ,0
760,3040003024601,新規,0,2024-03-21,2024-03-21,合同会社Ｗｏｒｋｅｒ大将,,合同会社,千葉県,松戸市,上本郷８９５－２－１階,,12,207,2710064,,,,,,,2024-03-21,1,,,,,ワカダイショウ,0
764,3050001054467,新規,0,2024-03-21,2024-03-21,株式会社ＯＪＺＯ,,株式会社,茨城県,取手市,寺田６４２３番地９,,08,217,3020021,,,,,,,2024-03-21,1,,,,,,0
765,3050005013403,新規,0,2024-03-21,2024-03-21,一般社団法人ファミリハクリエーション,,その他の設立登記法人,茨城県,つくば市,水堀４８５番地１,,08,220,3002654,,,,,,,2024-03-21,1,,,,,ファミリハクリエーション,0
767,3060001036927,新規,0,2024-03-21,2024-03-21,株式会社ＡＣＥ,,株式会社,栃木県,那須塩原市,末広町５３番地１４８,,09,213,3250061,,,,,,,2024-03-21,1,,,,,エース,0
768,3060001036935,新規,0,2024-03-21,2024-03-21,株式会社エムプラウド,,株式会社,栃木県,宇都宮市,馬場通り３丁目４番７号宇都宮ＰＥＡＫＳ１２０８,,09,201,3200026,,,,,,,2024-03-21,1,,,,,エムプラウド,0
770,3060003004972,新規,0,2024-03-21,2024-03-21,合同会社石川商事,,合同会社,栃木県,鹿沼市,晃望台２８番地１０,,09,205,3220024,,,,,,,2024-03-21,1,,,,,イシカワショウジ,0
772,3070001041505,新規,0,2024-03-21,2024-03-21,株式会社ハレノオト,,株式会社,群馬県,桐生市,広沢町４丁目２０４０番地の１,,10,203,3760013,,,,,,,2024-03-21,1,,,,,ハレノオト,0
773,3070001041513,新規,0,2024-03-21,2024-03-21,株式会社ｅＬｅｃｔｉｏ　Ｒａｉｓｅ,,株式会社,群馬県,桐生市,本町５丁目５１番地１号東武桐生本町ビル３階Ｓ－１号室,,10,203,3760031,,,,,,,2024-03-21,1,,,,,エレクティオライズ,0
775,3080001026182,新規,0,2024-03-21,2024-03-21,株式会社ＯｎｅＬｉｆｅ,,株式会社,静岡県,静岡市駿河区,中島２０３番地１第二昌栄ビル３Ａ,,22,102,4228046,,,,,,,2024-03-21,1,,,,,ワンライフ,0
776,3080001026190,新規,0,2024-03-21,2024-03-21,株式会社ＯＮＥ・ＯＦＦ,,株式会社,静岡県,榛原郡吉田町,住吉５４３１番地の７３,,22,424,4210301,,,,,,,2024-03-21,1,,,,,ワンオフ,0
777,3080001026199,新規,0,2024-03-21,2024-03-21,Ｈｅａｌｔｈ　ｓｅａ株式会社,,株式会社,静岡県,焼津市,小川３７１２番地の１,,22,212,4250033,,,,,,,2024-03-21,1,,,,,ヘルシー,0
778,3080101024607,新規,0,2024-03-21,2024-03-21,株式会社彩葉,,株式会社,静岡県,富士市,広見西本町９番３－１２号,,22,210,4170863,,,,,,,2024-03-21,1,,,,,イロハ,0
779,3080103003014,新規,0,2024-03-21,2024-03-21,合同会社小村商店,,合同会社,静岡県,賀茂郡西伊豆町,安良里４２１番地の１１,,22,306,4103502,,,,,,,2024-03-21,1,,,,,コムラショウテン,0
780,3080401027061,新規,0,2024-03-21,2024-03-21,株式会社Ｌｏｖｅ＆Ｐｅａｃｅ,,株式会社,静岡県,袋井市,方丈６丁目１０番２７,,22,216,4370022,,,,,,,2024-03-21,1,,,,,ラブアンドピース,0
781,3080403004975,新規,0,2024-03-21,2024-03-21,シーイーオー合同会社,,合同会社,静岡県,御前崎市,池新田３０２６－８,,22,223,4371612,,,,,,,2024-03-21,1,,,,,シーイーオー,0
783,3090001018609,新規,0,2024-03-21,2024-03-21,株式会社ＵＫｉ,,株式会社,山梨県,韮崎市,大草町上條東割１１００番地１,,19,207,4070036,,,,,,,2024-03-21,1,,,,,ウキ,0
785,3110001038249,新規,0,2024-03-21,2024-03-21,株式会社杉山建設,,株式会社,新潟県,新潟市西蒲区,遠藤８８９番地,,15,108,9590506,,,,,,,2024-03-21,1,,,,,スギヤマケンセツ,0
786,3110001038265,新規,0,2024-03-21,2024-03-21,株式会社バウ,,株式会社,新潟県,長岡市,南町１丁目１０－１６柿川亭,,15,202,9400081,,,,,,,2024-03-21,1,,,,,バウ,0
794,3120001263234,新規,0,2024-03-21,2024-03-21,株式会社ＰＫＳ　ＯＦＦＩＣＥ,,株式会社,大阪府,大阪市中央区,法円坂１丁目２番１３号,,27,128,5400006,,,,,,,2024-03-21,1,,,,,ピーケイエスオフィス,0
795,3120001263267,新規,0,2024-03-21,2024-03-21,株式会社プロスペリティ,,株式会社,大阪府,大阪市住之江区,西住之江１丁目１０番１－５０１号,,27,125,5590005,,,,,,,2024-03-21,1,,,,,プロスペリティ,0
796,3120001263275,新規,0,2024-03-21,2024-03-21,株式会社サンセリテ,,株式会社,大阪府,大阪市北区,西天満２丁目３番６号大阪法曹ビル１０１号,,27,127,5300047,,,,,,,2024-03-21,1,,,,,サンセリテ,0
800,3120005024203,新規,0,2024-03-21,2024-03-21,一般社団法人好かれる言いかえラボ,,その他の設立登記法人,大阪府,大阪市東淀川区,井高野１丁目２番１－９０３号,,27,114,5330001,,,,,,,2024-03-21,1,,,,,スカレルイイカエラボ,0
804,3120101069234,新規,0,2024-03-21,2024-03-21,株式会社ＥＮＲＩＣＨ,,株式会社,大阪府,岸和田市,摩湯町６８０番地の１８,,27,202,5960806,,,,,,,2024-03-21,1,,,,,エンリッチ,0
805,3120101069275,新規,0,2024-03-21,2024-03-21,Ｎ．株式会社,,株式会社,大阪府,泉南郡熊取町,つばさが丘東１丁目６番８号,,27,361,5900442,,,,,,,2024-03-21,1,,,,,エヌドット,0
806,3120103005724,新規,0,2024-03-21,2024-03-21,合同会社ＪＡＮＥＢＡＴＡ,,合同会社,大阪府,河内長野市,野作町１５番２３号,,27,216,5860023,,,,,,,2024-03-21,1,,,,,ジャネバタ,0
807,3120103005732,新規,0,2024-03-21,2024-03-21,合同会社ＷＴＣ,,合同会社,大阪府,泉佐野市,泉ケ丘３丁目６番６号,,27,213,5980072,,,,,,,2024-03-21,1,,,,,ダブリューティーシー,0
809,3120901048908,新規,0,2024-03-21,2024-03-21,株式会社あんでん,,株式会社,大阪府,茨木市,真砂２丁目１１番４号,,27,211,5670851,,,,,,,2024-03-21,1,,,,,アンデン,0
810,3120901048916,新規,0,2024-03-21,2024-03-21,株式会社伊藤工業,,株式会社,大阪府,三島郡島本町,広瀬４丁目２４番３－３１６号,,27,301,6180011,,,,,,,2024-03-21,1,,,,,イトウコウギョウ,0
811,3120901048924,新規,0,2024-03-21,2024-03-21,株式会社ＥＬＬＩＥ,,株式会社,大阪府,豊中市,東寺内町１３番２３号６０３号,,27,203,5610871,,,,,,,2024-03-21,1,,,,,エリー,0
813,3122001037915,新規,0,2024-03-21,2024-03-21,サニオン株式会社,,株式会社,大阪府,大東市,中垣内５丁目６番１４号,,27,218,5740013,,,,,,,2024-03-21,1,,,,,サニオン,0
815,3122003002834,新規,0,2024-03-21,2024-03-21,合同会社８ミリフィルム映像同好会,,合同会社,大阪府,八尾市,本町４丁目２番２７号,,27,212,5810003,,,,,,,2024-03-21,1,,,,,ハチミリフィルムエイゾウドウコウカイ,0
820,3130001076619,新規,0,2024-03-21,2024-03-21,株式会社そらなＳＴＹＬＥ,,株式会社,京都府,京都市山科区,西野野色町１１１‐２０,,26,110,6078353,,,,,,,2024-03-21,1,,,,,ソラナスタイル,0
821,3130003009386,新規,0,2024-03-21,2024-03-21,合同会社ＳＯＬ,,合同会社,京都府,城陽市,観音堂西畑９１,,26,207,6100115,,,,,,,2024-03-21,1,,,,,ソル,0
826,3140001133518,新規,0,2024-03-21,2024-03-21,株式会社兜,,株式会社,兵庫県,姫路市,土山東の町７－１５,,28,201,6700995,,,,,,,2024-03-21,1,,,,,カブト,0
827,3140001133699,新規,0,2024-03-21,2024-03-21,Ｋソリューション株式会社,,株式会社,兵庫県,西宮市,甲子園口３丁目２３番１４号４０５号,,28,204,6638113,,,,,,,2024-03-21,1,,,,,ケイソリューション,0
828,3140001133724,新規,0,2024-03-21,2024-03-21,株式会社至誠警備保障,,株式会社,兵庫県,姫路市,城北新町１丁目１１番３１号,,28,201,6700883,,,,,,,2024-03-21,1,,,,,シセイケイビホショウ,0
829,3140001133732,新規,0,2024-03-21,2024-03-21,株式会社Ｉｔ’ｓ,,株式会社,兵庫県,西宮市,若草町２丁目１０番３号,,28,204,6638181,,,,,,,2024-03-21,1,,,,,イッツ,0
834,3150001027157,新規,0,2024-03-21,2024-03-21,株式会社マネーカレッジ,,株式会社,奈良県,生駒市,生駒台北５２番地,,29,209,6300203,,,,,,,2024-03-21,1,,,,,マネーカレッジ,0
846,3180001160533,新規,0,2024-03-21,2024-03-21,株式会社Ｌｕｘａｔｅｓ,,株式会社,愛知県,清須市,西枇杷島町古城２丁目２番地２フォレナ古城３０１,,23,233,4520001,,,,,,,2024-03-21,1,,,,,ルクスエイツ,0
847,3180001160640,新規,0,2024-03-21,2024-03-21,株式会社ＮｅｘｕＳｔｒｕｃｔ,,株式会社,愛知県,名古屋市名東区,香流３丁目１１９番地,,23,115,4650005,,,,,,,2024-03-21,1,,,,,ネクサストラクト,0
848,3180001160665,新規,0,2024-03-21,2024-03-21,Ｊｉｄａｉｙａ　Ｃｏｍｐａｎｙ　Ｊａｐａｎ株式会社,,株式会社,愛知県,名古屋市千種区,茶屋が坂１丁目２２番１２号アクセス茶屋ヶ坂３Ａ,,23,101,4640092,,,,,,,2024-03-21,1,,,,,ジダイヤカンパニージャパン,0
854,3190001031196,新規,0,2024-03-21,2024-03-21,株式会社ｍｅｔ‐ｇｏｕｒ‐ｍｅｔ,,株式会社,三重県,鈴鹿市,平田１丁目２‐３６,,24,207,5130844,,,,,,,2024-03-21,1,,,,,メグルメ,0
857,3200001042299,新規,0,2024-03-21,2024-03-21,和創ホールディングス株式会社,,株式会社,岐阜県,土岐市,下石陶史台４丁目１５番地,,21,212,5095203,,,,,,,2024-03-21,1,,,,,ワソウホールディングス,0
858,3210001019676,新規,0,2024-03-21,2024-03-21,株式会社ｆｕｕ　Ｒｅｓｏｒｔ　Ｇｒｏｕｐ,,株式会社,福井県,大飯郡高浜町,湯谷第２号１１番地１５,,18,481,9192214,,,,,,,2024-03-21,1,,,,,フゥリゾートグループ,0
859,3210001019684,新規,0,2024-03-21,2024-03-21,株式会社Ｓｕｎｒｉｓｅ,,株式会社,福井県,福井市,西谷町第１３号１番地１,,18,201,9188022,,,,,,,2024-03-21,1,,,,,サンライズ,0
862,3220001025871,新規,0,2024-03-21,2024-03-21,株式会社ｔｅｃｈ　ｂｉｚ．,,株式会社,石川県,金沢市,田上新町５５番地,,17,201,9201153,,,,,,,2024-03-21,1,,,,,テックビズ,0
864,3230001020252,新規,0,2024-03-21,2024-03-21,株式会社ＲＥＬｉｆｅ,,株式会社,富山県,射水市,あおば台２丁目９５番地,,16,211,9390247,,,,,,,2024-03-21,1,,,,,リライフ,0
865,3260001038837,新規,0,2024-03-21,2024-03-21,株式会社ｃａｒｅ　ｆｕｌｌ,,株式会社,岡山県,倉敷市,大島５０３‐１,,33,202,7100047,,,,,,,2024-03-21,1,,,,,ケアフル,0
866,3260001038861,新規,0,2024-03-21,2024-03-21,ノッテナーヴェ株式会社,,株式会社,岡山県,岡山市中区,円山２１６番地１９０,,33,102,7038271,,,,,,,2024-03-21,1,,,,,ノッテナーヴェ,0
867,3260001038878,新規,0,2024-03-21,2024-03-21,株式会社アイナ,,株式会社,岡山県,勝田郡勝央町,黒土１２７－５,,33,622,7094312,,,,,,,2024-03-21,1,,,,,アイナ,0
869,3260003004614,新規,0,2024-03-21,2024-03-21,Ｋ‐ＴＡＭ合同会社,,合同会社,岡山県,赤磐市,桜が丘西８丁目３６番９号,,33,213,7090802,,,,,,,2024-03-21,1,,,,,ケイタム,0
870,3260003004622,新規,0,2024-03-21,2024-03-21,合同会社Ｋ３マネジメント,,合同会社,岡山県,岡山市北区,富町１丁目２番２７号,,33,101,7000031,,,,,,,2024-03-21,1,,,,,ケースリーマネジメント,0
872,3260005011328,新規,0,2024-03-21,2024-03-21,一般社団法人ｗｉｎｄ,,その他の設立登記法人,岡山県,倉敷市,児島味野４丁目５番２０号,,33,202,7110913,,,,,,,2024-03-21,1,,,,,ウインド,0
873,3270001008938,新規,0,2024-03-21,2024-03-21,株式会社ＬＩＧ,,株式会社,鳥取県,岩美郡岩美町,大字高山２７３番地８,,31,302,6810061,,,,,,,2024-03-21,1,,,,,リグ,0
881,3290001105080,新規,0,2024-03-21,2024-03-21,株式会社ＭＡＥＴＡＫＥ,,株式会社,福岡県,福岡市東区,若宮４丁目１７番１８号,,40,131,8130036,,,,,,,2024-03-21,1,,,,,マエタケ,0
882,3290001105114,新規,0,2024-03-21,2024-03-21,日創テック株式会社,,株式会社,福岡県,福岡市東区,香椎照葉７丁目５番３－２８０２号,,40,131,8130017,,,,,,,2024-03-21,1,,,,,ニッソウテック,0
883,3290001105147,新規,0,2024-03-21,2024-03-21,株式会社レックスレックス,,株式会社,福岡県,糟屋郡志免町,南里２丁目１１番１３号,,40,343,8112207,,,,,,,2024-03-21,1,,,,,レックスレックス,0
884,3290001105155,新規,0,2024-03-21,2024-03-21,株式会社ＧＩＦＴ,,株式会社,福岡県,福岡市中央区,高砂１丁目２０番１２－８０１号,,40,133,8100011,,,,,,,2024-03-21,1,,,,,ギフト,0
889,3290801030404,新規,0,2024-03-21,2024-03-21,株式会社ＣＡＦＵＮＥ,,株式会社,福岡県,北九州市小倉北区,室町２丁目１１番１９－３０２号,,40,106,8030812,,,,,,,2024-03-21,1,,,,,カフネ,0
890,3290801030412,新規,0,2024-03-21,2024-03-21,株式会社Ｃ＆ＧＲＡＴＩＸ,,株式会社,福岡県,北九州市若松区,二島１丁目１番１０号,,40,103,8080103,,,,,,,2024-03-21,1,,,,,シーアンドグラティクス,0
891,3300001013653,新規,0,2024-03-21,2024-03-21,米倉工業株式会社,,株式会社,佐賀県,唐津市,半田１９６８番地１,,41,202,8470023,,,,,,,2024-03-21,1,,,,,ヨネクラコウギョウ,0
893,3300003002092,新規,0,2024-03-21,2024-03-21,合同会社Ｍａｒｕｅｍｕ,,合同会社,佐賀県,鳥栖市,本鳥栖町６６５番地グレイスメゾン鳥栖駅前１０３号室,,41,203,8410026,,,,,,,2024-03-21,1,,,,,マルエム,0
894,3310001018908,新規,0,2024-03-21,2024-03-21,株式会社ＤｏｔＬｉｎｋ,,株式会社,長崎県,長崎市,滑石３丁目１番１２号－ジュレニアム１号室,,42,201,8528061,,,,,,,2024-03-21,1,,,,,ドットリンク,0
898,3320001020367,新規,0,2024-03-21,2024-03-21,株式会社Ｎ．Ｋ２４,,株式会社,大分県,中津市,山国町宇曽２４６９番地,,44,203,8710715,,,,,,,2024-03-21,1,,,,,エヌドットケイニジュウヨン,0
901,3330001031875,新規,0,2024-03-21,2024-03-21,株式会社Ｎ・Ｋサービス,,株式会社,熊本県,熊本市南区,護藤町８０５番地,,43,104,8614117,,,,,,,2024-03-21,1,,,,,エヌケーサービス,0
903,3350001018838,新規,0,2024-03-21,2024-03-21,一歩輝総業株式会社,,株式会社,宮崎県,宮崎市,小戸町１０４番地１リベラル一ツ葉６０５号,,45,201,8800857,,,,,,,2024-03-21,1,,,,,イブキソウギョウ,0
905,3350003004596,新規,0,2024-03-21,2024-03-21,合同会社Ｓ・アセットカンパニー,,合同会社,宮崎県,宮崎市,橘通東１丁目６番１号朝日屋ビル３０３号,,45,201,8800805,,,,,,,2024-03-21,1,,,,,エスアセットカンパニー,0
906,3360001033365,新規,0,2024-03-21,2024-03-21,株式会社Ｊｙ,,株式会社,沖縄県,沖縄市,松本５丁目２番１７号,,47,211,9042151,,,,,,,2024-03-21,1,,,,,ジィー,0
907,3360001033373,新規,0,2024-03-21,2024-03-21,株式会社宮,,株式会社,沖縄県,那覇市,久茂地１丁目２番２５号Ｇ７ビル５－Ａ,,47,201,9000015,,,,,,,2024-03-21,1,,,,,ミヤ,0
909,3360003013828,新規,0,2024-03-21,2024-03-21,叶夢合同会社,,合同会社,沖縄県,国頭郡恩納村,字仲泊１４１１番地２２－３０１号,,47,311,9040415,,,,,,,2024-03-21,1,,,,,カナム,0
911,3370001051044,新規,0,2024-03-21,2024-03-21,株式会社Ｈ‐Ｆｉｅｌｄ,,株式会社,宮城県,仙台市青葉区,北目町２番４０号第一萬栄ビル２階,,04,101,9800023,,,,,,,2024-03-21,1,,,,,エイチフィールド,0
912,3370001051052,新規,0,2024-03-21,2024-03-21,株式会社Ｌｉｅｎ,,株式会社,宮城県,仙台市泉区,市名坂字石止９９番地の８プラウド泉市名坂３１０,,04,105,9813117,,,,,,,2024-03-21,1,,,,,リアン,0
913,3370001051060,新規,0,2024-03-21,2024-03-21,株式会社ウサコ,,株式会社,宮城県,岩沼市,朝日２丁目４番１０号,,04,211,9892474,,,,,,,2024-03-21,1,,,,,ウサコ,0
914,3370001051069,新規,0,2024-03-21,2024-03-21,株式会社ｓｉｒｏｏｐ,,株式会社,宮城県,仙台市太白区,東中田２丁目４番３９号,,04,104,9811107,,,,,,,2024-03-21,1,,,,,シロップ,0
915,3370001051077,新規,0,2024-03-21,2024-03-21,リボーン株式会社,,株式会社,宮城県,富谷市,富谷新町３９,,04,216,9813311,,,,,,,2024-03-21,1,,,,,リボーン,0
916,3370003006533,新規,0,2024-03-21,2024-03-21,合同会社ネクストバース,,合同会社,宮城県,仙台市青葉区,二日町９番２３－１４０７号,,04,101,9800802,,,,,,,2024-03-21,1,,,,,ネクストバース,0
924,3380001034361,新規,0,2024-03-21,2024-03-21,株式会社Ａｒｃｈｉ　Ｚｅｓｔ,,株式会社,福島県,郡山市,大槻町字堀切西２－３８,,07,203,9630201,,,,,,,2024-03-21,1,,,,,アーキゼスト,0
926,3380003005716,新規,0,2024-03-21,2024-03-21,合同会社齊藤商事,,合同会社,福島県,東白川郡棚倉町,大字棚倉字下町３５番地,,07,481,9636131,,,,,,,2024-03-21,1,,,,,サイトウショウジ,0
930,3400001016596,新規,0,2024-03-21,2024-03-21,株式会社ＤＡＳ,,株式会社,岩手県,奥州市,前沢字三日町新裏７２番地１,,03,215,0294207,,,,,,,2024-03-21,1,,,,,ディーエーエス,0
932,3410001013766,新規,0,2024-03-21,2024-03-21,株式会社Ｔｒｙ物流,,株式会社,秋田県,大仙市,字刈和野１０６番地,,05,212,0192112,,,,,,,2024-03-21,1,,,,,トライブツリュウ,0
933,3410003003906,新規,0,2024-03-21,2024-03-21,合同会社根子商店,,合同会社,秋田県,北秋田市,阿仁根子字根子又７８番地,,05,213,0184744,,,,,,,2024-03-21,1,,,,,ネッコショウテン,0
935,3420001018640,新規,0,2024-03-21,2024-03-21,一心株式会社,,株式会社,青森県,八戸市,大字根城字西ノ沢３５番地７,,02,203,0391166,,,,,,,2024-03-21,1,,,,,イッシン,0
936,3420001018649,新規,0,2024-03-21,2024-03-21,株式会社ミヤビ建装,,株式会社,青森県,弘前市,大字紙漉沢字山越３２番地２,,02,202,0361504,,,,,,,2024-03-21,1,,,,,ミヤビケンソウ,0
937,3420005007887,新規,0,2024-03-21,2024-03-21,一般社団法人全日本花輪式完全消臭連盟,,その他の設立登記法人,青森県,青森市,中央１丁目３０番３号,,02,201,0300822,,,,,,,2024-03-21,1,,,,,ゼンニホンハナワシキカンゼンショウシュウレンメイ,0
941,3450003002458,新規,0,2024-03-21,2024-03-21,合同会社Ｒｅａｌｉｚｅ,,合同会社,北海道,旭川市,末広二条１１丁目６番７号,,01,204,0718132,,,,,,,2024-03-21,1,,,,,リアライズ,0
943,3470001020088,新規,0,2024-03-21,2024-03-21,株式会社ＯＮ　ＴＨＥ　ＲＯＡＤ,,株式会社,香川県,坂出市,加茂町１１２９番地１１,,37,203,7620023,,,,,,,2024-03-21,1,,,,,オンザロード,0
946,3470003002605,新規,0,2024-03-21,2024-03-21,合同会社ＲＩＳＥ,,合同会社,香川県,高松市,木太町２０８４番地２コーポサンリーザ４０２,,37,201,7600080,,,,,,,2024-03-21,1,,,,,,0
955,4010001243089,新規,0,2024-03-21,2024-03-21,株式会社Ｇｒｏｗｔｈ　Ｓｐｏｒｔｓ　Ａｃａｄｅｍｙ,,株式会社,東京都,千代田区,丸の内３丁目１番１号,,13,101,1000005,,,,,,,2024-03-21,1,,,,,グローススポーツアカデミー,0
956,4010001243196,新規,0,2024-03-21,2024-03-21,ｍａｒｒｉａｇｅ　ｅｘｃｅｌｌｅｎｔ株式会社,,株式会社,東京都,中央区,銀座１丁目２２番１１号銀座大竹ビジデンス２Ｆ,,13,102,1040061,,,,,,,2024-03-21,1,,,,,マリッジエクセラン,0
957,4010001243205,新規,0,2024-03-21,2024-03-21,株式会社サクッとカンパニー,,株式会社,東京都,中央区,日本橋大伝馬町１番２号,,13,102,1030011,,,,,,,2024-03-21,1,,,,,サクットカンパニー,0
958,4010001243287,新規,0,2024-03-21,2024-03-21,コタロー株式会社,,株式会社,東京都,千代田区,平河町１丁目５番１４－１３０３,,13,101,1020093,,,,,,,2024-03-21,1,,,,,コタロー,0
960,4010003043272,新規,0,2024-03-21,2024-03-21,合同会社Ｔｏ　ｔｈｅ　ｎｅｘｔ　ｓｔａｇｅ,,合同会社,東京都,中央区,銀座１丁目２２番１１号銀座大竹ビジデンス２Ｆ,,13,102,1040061,,,,,,,2024-03-21,1,,,,,トゥーザネクストステージ,0
961,4010003043297,新規,0,2024-03-21,2024-03-21,ｆａｒＭｏｏｎ合同会社,,合同会社,東京都,中央区,日本橋兜町１７番１号日本橋ロイヤルプラザ７０６,,13,102,1030026,,,,,,,2024-03-21,1,,,,,ファームーン,0
964,4010005038064,新規,0,2024-03-21,2024-03-21,一般社団法人スポーツチームビルディング協会,,その他の設立登記法人,東京都,中央区,銀座１丁目１２番４号Ｎ＆Ｅ・ＢＬＤ．６Ｆ,,13,102,1040061,,,,,,,2024-03-21,1,,,,,スポーツチームビルディングキョウカイ,0
969,4010401181129,新規,0,2024-03-21,2024-03-21,株式会社ベイツ,,株式会社,東京都,港区,北青山２丁目７番１３号プラセオ青山ビル３Ｆ,,13,103,1070061,,,,,,,2024-03-21,1,,,,,ベイツ,0
970,4010401181137,新規,0,2024-03-21,2024-03-21,株式会社ＧｌｏｂａｌＢｒｉｄｇｅＡｌｌｉａｎｃｅ,,株式会社,東京都,港区,高輪４丁目２３－６ハイホーム高輪,,13,103,1080074,,,,,,,2024-03-21,1,,,,,グローバルブリッジアライアンス,0
971,4010401181178,新規,0,2024-03-21,2024-03-21,株式会社ＨＡＬ,,株式会社,東京都,港区,港南４丁目２番７－３１１２号,,13,103,1080075,,,,,,,2024-03-21,1,,,,,ハル,0
972,4010401181203,新規,0,2024-03-21,2024-03-21,株式会社ＲＥＧ,,株式会社,東京都,港区,新橋４丁目２１番３号,,13,103,1050004,,,,,,,2024-03-21,1,,,,,レグ,0
973,4010403032197,新規,0,2024-03-21,2024-03-21,合同会社シーエフオーズ,,合同会社,東京都,港区,赤坂４丁目８番１９号赤坂フロントタウン３階,,13,103,1070052,,,,,,,2024-03-21,1,,,,,シーエフオーズ,0
978,4010501051966,新規,0,2024-03-21,2024-03-21,株式会社きらり,,株式会社,東京都,台東区,竜泉２丁目５番１号片桐ビル１－Ｂ,,13,106,1100012,,,,,,,2024-03-21,1,,,,,キラリ,0
982,4010701045727,新規,0,2024-03-21,2024-03-21,株式会社Ｓｉｄｅ　Ｌｉｎｅｓ,,株式会社,東京都,品川区,東五反田１丁目４番１１－７０３号,,13,109,1410022,,,,,,,2024-03-21,1,,,,,サイドラインズ,0
985,4010801034877,新規,0,2024-03-21,2024-03-21,株式会社ｒｉｋｙｕ,,株式会社,東京都,大田区,大森北３丁目３２番２０－５０５号,,13,111,1430016,,,,,,,2024-03-21,1,,,,,リキュウ,0
986,4010805003102,新規,0,2024-03-21,2024-03-21,医療法人社団Ｒｅｓｐｉｒａｔｏｒｙ修仁会,,その他の設立登記法人,東京都,大田区,蒲田２丁目７番１７号中村ビル１階,,13,111,1440052,,,,,,,2024-03-21,1,,,,,レスピラトリーシュウジンカイ,0
989,4010901054890,新規,0,2024-03-21,2024-03-21,株式会社ふじやま堂,,株式会社,東京都,世田谷区,千歳台３丁目１番２号,,13,112,1570071,,,,,,,2024-03-21,1,,,,,フジヤマドウ,0
990,4010901054899,新規,0,2024-03-21,2024-03-21,株式会社ＶＩＶＡＮＴ,,株式会社,東京都,世田谷区,玉川３丁目９番１０号,,13,112,1580094,,,,,,,2024-03-21,1,,,,,ヴィヴァン,0
991,4010901054908,新規,0,2024-03-21,2024-03-21,株式会社パペモ,,株式会社,東京都,世田谷区,松原１丁目３８－１９東建ビル５０１,,13,112,1560043,,,,,,,2024-03-21,1,,,,,パペモ,0
992,4010901054924,新規,0,2024-03-21,2024-03-21,株式会社ＴＥＮＳＥＮＳ,,株式会社,東京都,世田谷区,池尻２丁目３２番１１号,,13,112,1540001,,,,,,,2024-03-21,1,,,,,テンセンス,0
994,4010903008894,新規,0,2024-03-21,2024-03-21,合同会社Ｂｉｇ　ａｔｓｕ,,合同会社,東京都,世田谷区,深沢５丁目１７番４号,,13,112,1580081,,,,,,,2024-03-21,1,,,,,ビッグアツ,0
996,4011001160679,新規,0,2024-03-21,2024-03-21,株式会社ｂｌｕｅ　ｒｅａｄ,,株式会社,東京都,渋谷区,代々木１丁目２９－５ＹＫビル５ＦＢ号室,,13,113,1510053,,,,,,,2024-03-21,1,,,,,ブルーリード,0
997,4011001160712,新規,0,2024-03-21,2024-03-21,ＡＩ　Ｍａｇｅ株式会社,,株式会社,東京都,渋谷区,道玄坂１丁目１０番８号渋谷道玄坂東急ビル２Ｆ－Ｃ,,13,113,1500043,,,,,,,2024-03-21,1,,,,,エーアイメイジ,0
998,4011001160729,新規,0,2024-03-21,2024-03-21,株式会社ＡＴＴ,,株式会社,東京都,目黒区,鷹番３丁目３番１８号川島共同ビル地下１階,,13,110,1520004,,,,,,,2024-03-21,1,,,,,エーティーティー,0
999,4011001160753,新規,0,2024-03-21,2024-03-21,株式会社ＫＡＳＥＧＥＬ,,株式会社,東京都,目黒区,目黒１丁目１番３３号,,13,110,1530063,,,,,,,2024-03-21,1,,,,,カセゲル,0
1001,4011003018132,新規,0,2024-03-21,2024-03-21,ＪＩＩＮ合同会社,,合同会社,東京都,渋谷区,渋谷２丁目３－３青山Ｏビル２０１,,13,113,1500002,,,,,,,2024-03-21,1,,,,,ジイン,0
1002,4011003018719,新規,0,2024-03-21,2024-03-21,合同会社ＤｉｇｉｔａｌＥｎａｂｌｅｒｓ,,合同会社,東京都,渋谷区,渋谷２丁目１９－１５宮益坂ビルディング６０９,,13,113,1500002,,,,,,,2024-03-21,1,,,,,デジタルイネーブラーズ,0
1003,4011003018735,新規,0,2024-03-21,2024-03-21,合同会社テンプテーション,,合同会社,東京都,目黒区,鷹番１丁目１２番１０号ヴィラージュ鷹番１０３,,13,110,1520004,,,,,,,2024-03-21,1,,,,,テンプテーション,0
1006,4011101106598,新規,0,2024-03-21,2024-03-21,ｓｈｉｎｅ　ｖｉｅｗ株式会社,,株式会社,東京都,新宿区,北新宿１丁目３０番３２号レジディア北新宿１０１,,13,104,1690074,,,,,,,2024-03-21,1,,,,,シャインビュー,0
1007,4011101106607,新規,0,2024-03-21,2024-03-21,株式会社アルト,,株式会社,東京都,新宿区,西落合２丁目１９番９号,,13,104,1610031,,,,,,,2024-03-21,1,,,,,アルト,0
1008,4011101106615,新規,0,2024-03-21,2024-03-21,株式会社リッツウェルイノベーション,,株式会社,東京都,新宿区,舟町１０番地,,13,104,1600006,,,,,,,2024-03-21,1,,,,,リッツウェルイノベーション,0
1009,4011103014246,新規,0,2024-03-21,2024-03-21,ＢｅｅＣｏｍ合同会社,,合同会社,東京都,新宿区,西新宿３丁目３番１３号西新宿水間ビル２階,,13,104,1600023,,,,,,,2024-03-21,1,,,,,ビーコム,0
1010,4011105010978,新規,0,2024-03-21,2024-03-21,一般社団法人ジェイ・エイチ・アール,,その他の設立登記法人,東京都,新宿区,下宮比町１番４号,,13,104,1620822,,,,,,,2024-03-21,1,,,,,ジェイエイチアール,0
1013,4011201025327,新規,0,2024-03-21,2024-03-21,盛明国際株式会社,,株式会社,東京都,中野区,本町４丁目３１番５－９０３号,,13,114,1640012,,,,,,,2024-03-21,1,,,,,セイメイコクサイ,0
1015,4011301029500,新規,0,2024-03-21,2024-03-21,ワイバース株式会社,,株式会社,東京都,杉並区,井草２丁目２５－１－２０１,,13,115,1670021,,,,,,,2024-03-21,1,,,,,ワイバース,0
1019,4011401025936,新規,0,2024-03-21,2024-03-21,株式会社団,,株式会社,東京都,板橋区,板橋２丁目８番６号志水ビル,,13,119,1730004,,,,,,,2024-03-21,1,,,,,ダン,0
1020,4011401025944,新規,0,2024-03-21,2024-03-21,株式会社大地,,株式会社,東京都,板橋区,富士見町６番１７号,,13,119,1740062,,,,,,,2024-03-21,1,,,,,ダイチ,0
1025,4011801043942,新規,0,2024-03-21,2024-03-21,株式会社ＤＢＯ,,株式会社,東京都,足立区,西伊興１丁目１番２４号,,13,121,1210824,,,,,,,2024-03-21,1,,,,,ディービーオー,0
1028,4012401041650,新規,0,2024-03-21,2024-03-21,株式会社Ｆ＆コンサルティング,,株式会社,東京都,狛江市,元和泉２丁目１１番１３号,,13,219,2010013,,,,,,,2024-03-21,1,,,,,エフアンドコンサルティング,0
1029,4012801023042,新規,0,2024-03-21,2024-03-21,株式会社ライズ一級建築士事務所,,株式会社,東京都,日野市,南平２丁目５４番地１４,,13,212,1910041,,,,,,,2024-03-21,1,,,,,ライズイッキュウケンチクシジムショ,0
1030,4012801023050,新規,0,2024-03-21,2024-03-21,株式会社アルファ土地販売,,株式会社,東京都,立川市,錦町１丁目６番１３号ハイツワタナベ３０３,,13,202,1900022,,,,,,,2024-03-21,1,,,,,アルファトチハンバイ,0
1032,4013301052226,新規,0,2024-03-21,2024-03-21,株式会社ヒマワリエデュケーション,,株式会社,東京都,豊島区,西池袋１丁目１７番７号池袋ルミエールビル４Ｆ,,13,116,1710021,,,,,,,2024-03-21,1,,,,,ヒマワリエデュケーション,0
1033,4013301052234,新規,0,2024-03-21,2024-03-21,株式会社ＮＮ,,株式会社,東京都,豊島区,南池袋３丁目１５番１５－１０１号,,13,116,1710022,,,,,,,2024-03-21,1,,,,,エヌエヌ,0
1034,4013301052242,新規,0,2024-03-21,2024-03-21,株式会社ＫＩＦＵＫＵＤＯ,,株式会社,東京都,豊島区,巣鴨３丁目１７番１６号,,13,116,1700002,,,,,,,2024-03-21,1,,,,,キフクドウ,0
1035,4013303007054,新規,0,2024-03-21,2024-03-21,合同会社ナース,,合同会社,東京都,豊島区,千早２丁目３６番８号,,13,116,1710044,,,,,,,2024-03-21,1,,,,,ナース,0
1038,4020001156265,新規,0,2024-03-21,2024-03-21,株式会社ｉｍａｃｏｃｏ,,株式会社,神奈川県,横浜市青葉区,青葉台１丁目１３－１,,14,117,2270062,,,,,,,2024-03-21,1,,,,,イマココ,0
1039,4020001156273,新規,0,2024-03-21,2024-03-21,Ｈａｍａ．ＡＣＴ株式会社,,株式会社,神奈川県,横浜市港北区,篠原町１１２１番地２０,,14,109,2220026,,,,,,,2024-03-21,1,,,,,ハマアクト,0
1040,4020001156281,新規,0,2024-03-21,2024-03-21,株式会社友和,,株式会社,神奈川県,横浜市港南区,日野８丁目２番２１号,,14,111,2340051,,,,,,,2024-03-21,1,,,,,ユウワ,0
1041,4020001156298,新規,0,2024-03-21,2024-03-21,ユニドット株式会社,,株式会社,神奈川県,川崎市麻生区,万福寺２丁目１７－３,,14,137,2150004,,,,,,,2024-03-21,1,,,,,ユニドット,0
1042,4020001156307,新規,0,2024-03-21,2024-03-21,株式会社ジョブエクスペリエンス,,株式会社,神奈川県,横浜市西区,北幸２丁目１０番４８号むつみビル３階,,14,103,2200004,,,,,,,2024-03-21,1,,,,,ジョブエクスペリエンス,0
1043,4020001156356,新規,0,2024-03-21,2024-03-21,株式会社ぎんどう,,株式会社,神奈川県,横浜市中区,桜木町１丁目１０１番地１クロスゲート７階,,14,104,2310062,,,,,,,2024-03-21,1,,,,,ギンドウ,0
1045,4020003025757,新規,0,2024-03-21,2024-03-21,ＤＵＯ　ｌｉｆｅ　ｍａｎａｇｅｍｅｎｔ合同会社,,合同会社,神奈川県,川崎市中原区,小杉町２丁目２２８－１Ｗ１８１１,,14,133,2110063,,,,,,,2024-03-21,1,,,,,デュオライフマネジメント,0
1049,4021001081726,新規,0,2024-03-21,2024-03-21,株式会社ケイズスタープロモーション,,株式会社,神奈川県,茅ヶ崎市,新栄町７番５号３階,,14,207,2530044,,,,,,,2024-03-21,1,,,,,ケイズスタープロモーション,0
1050,4021001081742,新規,0,2024-03-21,2024-03-21,株式会社レオブリッジ,,株式会社,神奈川県,藤沢市,鵠沼石上１丁目８－９ｍｅ－ｌａｂｏＩＩＩ３Ｆ－６,00134136,14,205,2510025,,,,,,,2024-03-21,1,,,,,レオブリッジ,0
1051,4021001081750,新規,0,2024-03-21,2024-03-21,株式会社雅,,株式会社,神奈川県,横須賀市,長沢６丁目３１番９号,,14,201,2390842,,,,,,,2024-03-21,1,,,,,ミヤビ,0
1052,4021001081775,新規,0,2024-03-21,2024-03-21,デガニス株式会社,,株式会社,神奈川県,厚木市,林４丁目４番１６号ロッキーハイツ３０１,,14,212,2430816,,,,,,,2024-03-21,1,,,,,デガニス,0
1060,4030001159358,新規,0,2024-03-21,2024-03-21,株式会社３１５,,株式会社,埼玉県,川越市,砂新田３丁目１３番地７,,11,201,3501137,,,,,,,2024-03-21,1,,,,,サンイチゴ,0
1065,4040001132669,新規,0,2024-03-21,2024-03-21,株式会社嘉右衛門,,株式会社,千葉県,流山市,大字大畔５６１番地,,12,220,2700122,,,,,,,2024-03-21,1,,,,,カエモン,0
1066,4040001132677,新規,0,2024-03-21,2024-03-21,株式会社東神,00134131,株式会社,千葉県,千葉市中央区,生実町２５２４番地１,,12,101,2600813,,,,,,,2024-03-21,1,,,,,トウシン,0
1067,4040001132693,新規,0,2024-03-21,2024-03-21,株式会社ウェルボック,,株式会社,千葉県,松戸市,幸谷７４７番地の７,,12,207,2700017,,,,,,,2024-03-21,1,,,,,ウェルボック,0
1068,4040001132735,新規,0,2024-03-21,2024-03-21,株式会社ＭｉＣＨｉＣＡ,,株式会社,千葉県,市川市,柏井町１丁目１５８１番地２７,,12,203,2720802,,,,,,,2024-03-21,1,,,,,ミチカ,0
1069,4040001132768,新規,0,2024-03-21,2024-03-21,Ｔｈｅ　Ｈｕｍａｎ株式会社,,株式会社,千葉県,千葉市花見川区,幕張本郷４丁目１６番１５号,,12,102,2620033,,,,,,,2024-03-21,1,,,,,ザヒューマン,0
1073,4040003024591,新規,0,2024-03-21,2024-03-21,ＣＨＡＮＤＡＮＩ　ＥＮＴＥＲＰＲＩＳＥＳ合同会社,,合同会社,千葉県,大網白里市,四天木乙２３８１ＳＥＲＥＮＡ大網８号室,,12,239,2993203,,,,,,,2024-03-21,1,,,,,チャンダニエンタープライゼズ,0
1079,4050001054466,新規,0,2024-03-21,2024-03-21,株式会社仁庭園,,株式会社,茨城県,かすみがうら市,柏崎７７６番地,,08,230,3000201,,,,,,,2024-03-21,1,,,,,ジンテイエン,0
1080,4050001054474,新規,0,2024-03-21,2024-03-21,株式会社おけど,,株式会社,茨城県,常総市,豊岡町丁５７８番地２,,08,211,3030041,,,,,,,2024-03-21,1,,,,,オケド,0
1081,4050001054490,新規,0,2024-03-21,2024-03-21,株式会社ＢｅｅＡｃｔ,,株式会社,茨城県,小美玉市,羽鳥２７９８番地５,,08,236,3190123,,,,,,,2024-03-21,1,,,,,ビーアクト,0
1085,4050003008206,新規,0,2024-03-21,2024-03-21,アカウンティングサポート合同会社,,合同会社,茨城県,古河市,新久田２０５番地３７,,08,204,3060044,,,,,,,2024-03-21,1,,,,,アカウンティングサポート,0
1086,4060001036926,新規,0,2024-03-21,2024-03-21,株式会社真弥櫻,,株式会社,栃木県,塩谷郡高根沢町,大字宝積寺２４５２番地３１,,09,386,3291233,,,,,,,2024-03-21,1,,,,,ミヤサクラ,0
1087,4060001036934,新規,0,2024-03-21,2024-03-21,株式会社インスペック・ソリューション,,株式会社,栃木県,宇都宮市,宝木本町１８６７－６,,09,201,3200075,,,,,,,2024-03-21,1,,,,,インスペックソリューション,0
1088,4060003004963,新規,0,2024-03-21,2024-03-21,合同会社ムジーク,,合同会社,栃木県,栃木市,薗部町４丁目９番３５－２号,,09,203,3280074,,,,,,,2024-03-21,1,,,,,ムジーク,0
1091,4070001041504,新規,0,2024-03-21,2024-03-21,株式会社ＺＥＮ,,株式会社,群馬県,北群馬郡吉岡町,大字大久保１３７４番地１,,10,345,3703602,,,,,,,2024-03-21,1,,,,,ゼン,0
1092,4070001041512,新規,0,2024-03-21,2024-03-21,株式会社ナカムラ建機,,株式会社,群馬県,沼田市,井土上町５４７番地,,10,206,3780035,,,,,,,2024-03-21,1,,,,,ナカムラケンキ,0
1098,4070003005317,新規,0,2024-03-21,2024-03-21,ＳＨＥＲ　ＴＲＡＤＩＮＧ合同会社,,合同会社,群馬県,伊勢崎市,昭和町１６３６の１,,10,204,3720014,,,,,,,2024-03-21,1,,,,,シエルトレーディング,0
1100,4080003003154,新規,0,2024-03-21,2024-03-21,合同会社ＫＯＫＯＩＫＯ,,合同会社,静岡県,静岡市清水区,中之郷１丁目４番２７号,,22,103,4240888,,,,,,,2024-03-21,1,,,,,ココイコ,0
1105,4090001018608,新規,0,2024-03-21,2024-03-21,株式会社Ｈ．Ｆ．Ｍｏｂｉｌｉｔｙ,,株式会社,山梨県,中巨摩郡昭和町,西条８９５番地１,,19,384,4093866,,,,,,,2024-03-21,1,,,,,エイチエフモビリティ,0
1117,4120001263217,新規,0,2024-03-21,2024-03-21,ハイグレード株式会社,,株式会社,大阪府,大阪市西成区,千本南１丁目２番１６号,,27,122,5570055,,,,,,,2024-03-21,1,,,,,ハイグレード,0
1122,4120101069225,新規,0,2024-03-21,2024-03-21,株式会社豊匠創建,,株式会社,大阪府,堺市北区,南花田町３０２番地１－３０１号,,27,146,5918011,,,,,,,2024-03-21,1,,,,,ホウショウソウケン,0
1123,4120101069258,新規,0,2024-03-21,2024-03-21,株式会社クレア,,株式会社,大阪府,泉佐野市,高松南２丁目４番４８号,,27,213,5980015,,,,,,,2024-03-21,1,,,,,クレア,0
1127,4120901048907,新規,0,2024-03-21,2024-03-21,日本ベクトルグループ株式会社,,株式会社,大阪府,吹田市,千里山星が丘１３番１－７１５号,,27,205,5650845,,,,,,,2024-03-21,1,,,,,ニホンベクトルグループ,0
1138,4130003009385,新規,0,2024-03-21,2024-03-21,合同会社Ｒｅｍｏｖｅ,,合同会社,京都府,相楽郡笠置町,大字笠置小字市場２番地,,26,364,6191303,,,,,,,2024-03-21,1,,,,,リムーヴ,0
1139,4140001133681,新規,0,2024-03-21,2024-03-21,株式会社コマテツ,,株式会社,兵庫県,神崎郡福崎町,大貫５８７番地,,28,443,6792201,,,,,,,2024-03-21,1,,,,,コマテツ,0
1140,4140001133723,新規,0,2024-03-21,2024-03-21,株式会社ＴＴＴ　Ｉｎｎｏｖａｔｉｏｎ,,株式会社,兵庫県,神戸市中央区,北長狭通２丁目１番１号イシノヤビル８階,,28,110,6500012,,,,,,,2024-03-21,1,,,,,ティーティーティーイノベーション,0
1141,4140001133789,新規,0,2024-03-21,2024-03-21,株式会社Ｄｅｆｔ,,株式会社,兵庫県,西宮市,甲子園口２丁目２３－８,,28,204,6638113,,,,,,,2024-03-21,1,,,,,デフト,0
1142,4140003020300,新規,0,2024-03-21,2024-03-21,合同会社アビリティサポート,,合同会社,兵庫県,神戸市中央区,磯上通８丁目１番２９号カサベラビルＣ＆Ｍ４０３号室,,28,110,6510086,,,,,,,2024-03-21,1,,,,,アビリティサポート,0
1143,4140003020317,新規,0,2024-03-21,2024-03-21,トーマ・ホーム合同会社,,合同会社,兵庫県,西宮市,田代町１９番６－２０３号,,28,204,6638201,,,,,,,2024-03-21,1,,,,,トーマホーム,0
1145,4140005026980,新規,0,2024-03-21,2024-03-21,一般社団法人全日本総合占術協会,,その他の設立登記法人,兵庫県,神戸市北区,鈴蘭台南町３丁目７番３号,,28,109,6511113,,,,,,,2024-03-21,1,,,,,ゼンニホンソウゴウセンジュツキョウカイ,0
1148,4160001025753,新規,0,2024-03-21,2024-03-21,株式会社Ｂｅｌｉｆｅ,,株式会社,滋賀県,愛知郡愛荘町,愛知川７７４番地５,,25,425,5291331,,,,,,,2024-03-21,1,,,,,ベリフェ,0
1154,4180001160557,新規,0,2024-03-21,2024-03-21,株式会社エーイー,,株式会社,愛知県,名古屋市中川区,打中２丁目２１３番地の１７,,23,110,4540927,,,,,,,2024-03-21,1,,,,,エーイー,0
1155,4180001160573,新規,0,2024-03-21,2024-03-21,株式会社ＩＮ　ＭＹ　ＰＬＡＣＥ．,,株式会社,愛知県,長久手市,富士浦３０１番地,,23,238,4801173,,,,,,,2024-03-21,1,,,,,インマイプレイス,0
1156,4180001160607,新規,0,2024-03-21,2024-03-21,株式会社ＳＴＭ,,株式会社,愛知県,名古屋市天白区,中砂町２９５番地の１,,23,116,4680065,,,,,,,2024-03-21,1,,,,,エスティーエム,0
1157,4180001160615,新規,0,2024-03-21,2024-03-21,株式会社着物いなほ,,株式会社,愛知県,日進市,藤枝町奥廻間１２０１番地１８６,,23,230,4700112,,,,,,,2024-03-21,1,,,,,キモノイナホ,0
1158,4180001160631,新規,0,2024-03-21,2024-03-21,株式会社碧,,株式会社,愛知県,名古屋市西区,上名古屋４丁目６番１９号,,23,104,4510025,,,,,,,2024-03-21,1,,,,,アオイ,0
1159,4180001160664,新規,0,2024-03-21,2024-03-21,株式会社バンブー,,株式会社,愛知県,一宮市,三ツ井６丁目２番１６－２号,,23,203,4910827,,,,,,,2024-03-21,1,,,,,バンブー,0
1160,4180001160672,新規,0,2024-03-21,2024-03-21,株式会社くるりくら,,株式会社,愛知県,名古屋市瑞穂区,桜見町１丁目５番地の１,,23,108,4670805,,,,,,,2024-03-21,1,,,,,クルリクラ,0
1166,4180003026509,新規,0,2024-03-21,2024-03-21,合同会社よつ笑,,合同会社,愛知県,名古屋市守山区,白山４丁目７０３番地２,,23,113,4630032,,,,,,,2024-03-21,1,,,,,ヨツワ,0
1167,4190001031170,新規,0,2024-03-21,2024-03-21,株式会社ホクフウ,,株式会社,三重県,四日市市,大字茂福２１７番地４,,24,202,5108027,,,,,,,2024-03-21,1,,,,,ホクフウ,0
1171,4210001019683,新規,0,2024-03-21,2024-03-21,株式会社ＦＴＷ,,株式会社,福井県,福井市,江端町２２－９－５,,18,201,9188016,,,,,,,2024-03-21,1,,,,,エフティーダブリュー,0
1172,4210003001771,新規,0,2024-03-21,2024-03-21,合同会社ＪＲＳ,,合同会社,福井県,福井市,若杉４丁目２５１８－２Ｆ,,18,201,9188055,,,,,,,2024-03-21,1,,,,,ジェイアールエス,0
1173,4220001025870,新規,0,2024-03-21,2024-03-21,株式会社藏田瓦,,株式会社,石川県,鹿島郡中能登町,大槻イ部５３番地,,17,407,9291702,,,,,,,2024-03-21,1,,,,,クラタガワラ,0
1174,4220001025879,新規,0,2024-03-21,2024-03-21,株式会社ＪＩＮ‐ＥＩ,,株式会社,石川県,金沢市,大友町ハ９４番地２（ＷＩＮＩＩＩ・１０１号）,00134129,17,201,9208222,,,,,,,2024-03-21,1,,,,,ジンエイ,0
1176,4240001062937,新規,0,2024-03-21,2024-03-21,株式会社ＳＫ産業,,株式会社,広島県,安芸高田市,吉田町吉田８９９番地１,,34,214,7310501,,,,,,,2024-03-21,1,,,,,エスケイサンギョウ,0
1177,4240001062945,新規,0,2024-03-21,2024-03-21,株式会社マキシリンク,,株式会社,広島県,三原市,古浜２丁目１０番２６号,,34,204,7230013,,,,,,,2024-03-21,1,,,,,マキシリンク,0
1178,4240001062953,新規,0,2024-03-21,2024-03-21,株式会社トライニスト,,株式会社,広島県,福山市,駅家町大字江良９２番地４,,34,207,7201141,,,,,,,2024-03-21,1,,,,,トライニスト,0
1179,4240001062961,新規,0,2024-03-21,2024-03-21,株式会社Ｋｏ‐Ｄｏ,,株式会社,広島県,広島市安佐南区,川内１丁目１０番１６号サンライズＭ１Ｆ－２号,,34,105,7310102,,,,,,,2024-03-21,1,,,,,コウドウ,0
1180,4240001062978,新規,0,2024-03-21,2024-03-21,株式会社Ｃ‐ＰＬＡＮＴＳ,,株式会社,広島県,三次市,十日市東２丁目３番８号,,34,209,7280013,,,,,,,2024-03-21,1,,,,,シープランツ,0
1182,4240005015750,新規,0,2024-03-21,2024-03-21,一般社団法人結夢皆,,その他の設立登記法人,広島県,三次市,四拾貫町９８番２２,,34,209,7280016,,,,,,,2024-03-21,1,,,,,ユウミン,0
1183,4250003003459,新規,0,2024-03-21,2024-03-21,合同会社ｂｅｌｌ　ｍｅｌｏｄｙ,,合同会社,山口県,山口市,吉敷赤田４丁目１６番３号,,35,203,7530817,,,,,,,2024-03-21,1,,,,,ベルメロディー,0
1185,4270001008945,新規,0,2024-03-21,2024-03-21,ＹＡＧＧＩＥＳ株式会社,,株式会社,鳥取県,鳥取市,気高町北浜３丁目１５８番地,,31,201,6890334,,,,,,,2024-03-21,1,,,,,ヤギーズ,0
1188,4290001105088,新規,0,2024-03-21,2024-03-21,Ｎｅｏ　Ｐｉｅｃｅ株式会社,,株式会社,福岡県,福岡市博多区,博多駅前１丁目２２番２５号博多ジーエルビル３Ｆ,,40,132,8120011,,,,,,,2024-03-21,1,,,,,ネオピース,0
1189,4290001105113,新規,0,2024-03-21,2024-03-21,株式会社ＫＢＹＭ,,株式会社,福岡県,春日市,平田台６丁目１０番地２,,40,218,8160812,,,,,,,2024-03-21,1,,,,,ケービーワイエム,0
1190,4290001105121,新規,0,2024-03-21,2024-03-21,株式会社ｈａｕ’ｏｌｉ,,株式会社,福岡県,糟屋郡志免町,志免中央２丁目１－１２Ｂ１０２号,,40,343,8112244,,,,,,,2024-03-21,1,,,,,ハウオリ,0
1191,4290001105138,新規,0,2024-03-21,2024-03-21,株式会社グリーンレモン,,株式会社,福岡県,福岡市城南区,別府３丁目１７番４－１０１号,,40,136,8140104,,,,,,,2024-03-21,1,,,,,グリーンレモン,0
1192,4290001105146,新規,0,2024-03-21,2024-03-21,株式会社嶋建,,株式会社,福岡県,福岡市南区,長丘５丁目２５番２９号,,40,134,8150075,,,,,,,2024-03-21,1,,,,,シマケン,0
1193,4290001105154,新規,0,2024-03-21,2024-03-21,株式会社Ｐｏｐｕｌａｒ　Ｆｏｒｅｓｔ,,株式会社,福岡県,糸島市,前原南１丁目１７番７号,,40,230,8191139,,,,,,,2024-03-21,1,,,,,ポピュラーフォレスト,0
1194,4290001105170,新規,0,2024-03-21,2024-03-21,久留米夢庭匠庭心株式会社,,株式会社,福岡県,久留米市,山本町豊田１３８７番地５,,40,203,8390827,,,,,,,2024-03-21,1,,,,,クルメユメテイショウテイシン,0
1199,4310001018907,新規,0,2024-03-21,2024-03-21,株式会社めぐみ,,株式会社,長崎県,諫早市,多良見町東園５３２番地２,,42,204,8590411,,,,,,,2024-03-21,1,,,,,メグミ,0
1200,4310001018915,新規,0,2024-03-21,2024-03-21,株式会社ｈｏｎｅｙ’ｓ　ｆｏｒｅｓｔ,,株式会社,長崎県,佐世保市,本島町３番９号,,42,202,8570871,,,,,,,2024-03-21,1,,,,,ハニーズフォレスト,0
1208,4330001031858,新規,0,2024-03-21,2024-03-21,株式会社ＱＡＬＥＳ,,株式会社,熊本県,菊池郡大津町,大字室２４８番地４どりーむ店舗１－Ａ号室,,43,403,8691235,,,,,,,2024-03-21,1,,,,,,0
1209,4330001031890,新規,0,2024-03-21,2024-03-21,ＹＡＨＯ　Ｓｙｓｔｅｍ　Ｔｅｃｈｎｏｌｏｇｙ株式会社,,株式会社,熊本県,菊池郡菊陽町,大字津久礼２０９８－１１１,,43,404,8691101,,,,,,,2024-03-21,1,,,,,ヤホシステムテクノロジー,0
1212,4350001018837,新規,0,2024-03-21,2024-03-21,株式会社Ｓｔｙｌｅ　Ｏｎｅ,,株式会社,宮崎県,延岡市,幸町２丁目２６－３,,45,203,8820053,,,,,,,2024-03-21,1,,,,,スタイルワン,0
1213,4350001018853,新規,0,2024-03-21,2024-03-21,きりしま電工株式会社,,株式会社,宮崎県,西諸県郡高原町,大字広原１０３６番地２,,45,361,8894411,,,,,,,2024-03-21,1,,,,,キリシマデンコウ,0
1215,4350003004595,新規,0,2024-03-21,2024-03-21,合同会社麻呂しか勝たん,,合同会社,宮崎県,都城市,山田町中霧島３４９８番地１１,,45,202,8894602,,,,,,,2024-03-21,1,,,,,マロシカカタン,0
1220,4360001033348,新規,0,2024-03-21,2024-03-21,株式会社ライアホーム,,株式会社,沖縄県,浦添市,牧港１丁目９番１１号２０２,,47,208,9012131,,,,,,,2024-03-21,1,,,,,ライアホーム,0
1221,4360001033364,新規,0,2024-03-21,2024-03-21,株式会社西江設備,,株式会社,沖縄県,島尻郡南風原町,字兼城１３６番地,,47,350,9011111,,,,,,,2024-03-21,1,,,,,ニシエセツビ,0
1224,4360005006993,新規,0,2024-03-21,2024-03-21,一般社団法人ライジングビジョン・ジャパン,,その他の設立登記法人,沖縄県,那覇市,高良１丁目１０番２８号,,47,201,9010145,,,,,,,2024-03-21,1,,,,,ライジングビジョンジャパン,0
1226,4370001051027,新規,0,2024-03-21,2024-03-21,株式会社禧福,,株式会社,宮城県,仙台市泉区,松森字台８６番地の１ＣｅｎｔｒａｌＳｏｌｅｉｌＩＩ－１０２,00134133,04,105,9813111,,,,,,,2024-03-21,1,,,,,キフク,0
1227,4370001051051,新規,0,2024-03-21,2024-03-21,株式会社ＹＫコーポレーション,,株式会社,宮城県,亘理郡亘理町,逢隈鹿島字寺前北１番地１,00134134,04,361,9892371,,,,,,,2024-03-21,1,,,,,ワイケーコーポレーション,0
1228,4370001051068,新規,0,2024-03-21,2024-03-21,株式会社医療・相続サポートセンター仙台,,株式会社,宮城県,仙台市若林区,卸町２丁目１５番２号５階,,04,103,9840015,,,,,,,2024-03-21,1,,,,,イリョウソウゾクサポートセンターセンダイ,0
1229,4370003006532,新規,0,2024-03-21,2024-03-21,合同会社３Ｒ’Ｓ,,合同会社,宮城県,大崎市,古川金五輪１丁目１０－１,,04,215,9896131,,,,,,,2024-03-21,1,,,,,スリーアールズ,0
1233,4400001016595,新規,0,2024-03-21,2024-03-21,Ｆｅｃｈｉｒｅ株式会社,,株式会社,岩手県,奥州市,水沢字日高西２０番地２,,03,215,0230806,,,,,,,2024-03-21,1,,,,,フェシレ,0
1234,4400003003229,新規,0,2024-03-21,2024-03-21,合同会社３９商会,,合同会社,岩手県,奥州市,江刺藤里字迎井沢２４９番地７イ号,,03,215,0231762,,,,,,,2024-03-21,1,,,,,サンキューショウカイ,0
1235,4410001013765,新規,0,2024-03-21,2024-03-21,株式会社秋田春工業,,株式会社,秋田県,大館市,山館字八幡下２３８番地１,,05,204,0170838,,,,,,,2024-03-21,1,,,,,アキタハルコウギョウ,0
1237,4420001018648,新規,0,2024-03-21,2024-03-21,株式会社ソイル,,株式会社,青森県,弘前市,大字撫牛子４丁目５番地７,,02,202,0368075,,,,,,,2024-03-21,1,,,,,ソイル,0
1241,4440001009406,新規,0,2024-03-21,2024-03-21,株式会社イシカワプランニング,,株式会社,北海道,函館市,人見町３番１４号,,01,202,0400005,,,,,,,2024-03-21,1,,,,,イシカワプランニング,0
1247,4490003001876,新規,0,2024-03-21,2024-03-21,合同会社ＦＥＲＮＡ,,合同会社,高知県,高知市,春野町南ケ丘２丁目３番地８,,39,201,7810314,,,,,,,2024-03-21,1,,,,,フェルナ,0
1258,5010001243121,新規,0,2024-03-21,2024-03-21,株式会社ＢｅＢｅ１６,,株式会社,東京都,中央区,銀座５丁目１４－８－４Ｆ（デザインペンギンミルク内）,,13,102,1040061,,,,,,,2024-03-21,1,,,,,ベベシックスティーン,0
1259,5010001243162,新規,0,2024-03-21,2024-03-21,株式会社ＳＥＮＳＥ,,株式会社,東京都,中央区,銀座１丁目１２番４号Ｎ＆ＥＢＬＤ．６階,,13,102,1040061,,,,,,,2024-03-21,1,,,,,センス,0
1260,5010001243179,新規,0,2024-03-21,2024-03-21,株式会社ＬＥＥ’Ｓ　ＥＳＴＡＴＥ,,株式会社,東京都,千代田区,内神田１丁目４番１０号ＡＴＳ大手町ビル１０Ｆ,,13,101,1010047,,,,,,,2024-03-21,1,,,,,リーズエステート,0
1261,5010001243187,新規,0,2024-03-21,2024-03-21,ＧＢｎｏｄｅ株式会社,,株式会社,東京都,千代田区,有楽町１丁目２番２号東宝日比谷ビル,,13,101,1000006,,,,,,,2024-03-21,1,,,,,ジービーノード,0
1262,5010001243204,新規,0,2024-03-21,2024-03-21,ＫＪＤ　Ｓｅｒｖｉｃｅｓ株式会社,,株式会社,東京都,文京区,千駄木１丁目２３番２－３０６号,,13,105,1130022,,,,,,,2024-03-21,1,,,,,ケージェーディーサービシーズ,0
1263,5010001243220,新規,0,2024-03-21,2024-03-21,株式会社障害福祉コネクト,,株式会社,東京都,千代田区,麹町４丁目１番４号西脇ビル４階,,13,101,1020083,,,,,,,2024-03-21,1,,,,,ショウガイフクシコネクト,0
1264,5010001243237,新規,0,2024-03-21,2024-03-21,ＪＭＶＬ株式会社,,株式会社,東京都,千代田区,丸の内１丁目９番２号グラントウキョウサウスタワー１１階,,13,101,1000005,,,,,,,2024-03-21,1,,,,,ジェイエムヴイエル,0
1265,5010001243294,新規,0,2024-03-21,2024-03-21,株式会社ＲＩＺＥＮ,,株式会社,東京都,中央区,銀座６丁目１３番１６号銀座ＷａｌｌビルＵＣＦ５階,,13,102,1040061,,,,,,,2024-03-21,1,,,,,ライゼン,0
1270,5010003043239,新規,0,2024-03-21,2024-03-21,合同会社下電ホテルマネジメント,,合同会社,東京都,千代田区,霞が関３丁目２番１号,,13,101,1000013,,,,,,,2024-03-21,1,,,,,シモデンホテルマネジメント,0
1271,5010003043263,新規,0,2024-03-21,2024-03-21,ｋｏｂａ合同会社,,合同会社,東京都,文京区,向丘１丁目１３番５号,,13,105,1130023,,,,,,,2024-03-21,1,,,,,コバ,0
1273,5010101016047,新規,0,2024-03-21,2024-03-21,株式会社Ｋａｐｏｎｏ,,株式会社,東京都,八王子市,四谷町６０５番地３,,13,201,1930813,,,,,,,2024-03-21,1,,,,,カポノ,0
1278,5010401180906,新規,0,2024-03-21,2024-03-21,スマートエネルギーテク株式会社,,株式会社,東京都,港区,赤坂８丁目１２－１６ＮＯＺＹ赤坂３０１,,13,103,1070052,,,,,,,2024-03-21,1,,,,,スマートエネルギーテク,0
1279,5010401181111,新規,0,2024-03-21,2024-03-21,株式会社ピーチフォーピース,,株式会社,東京都,港区,高輪１丁目５番５０－１２０３号,,13,103,1080074,,,,,,,2024-03-21,1,,,,,ピーチフォーピース,0
1280,5010401181136,新規,0,2024-03-21,2024-03-21,株式会社Ｙｏｂｏｕ　Ｌａｂｏ　Ｊａｐａｎ,,株式会社,東京都,港区,西麻布４丁目１５番３－７０１号,,13,103,1060031,,,,,,,2024-03-21,1,,,,,ヨボウラボジャパン,0
1281,5010401181152,新規,0,2024-03-21,2024-03-21,株式会社ＣＲＥＡＦＥ,,株式会社,東京都,港区,南青山５丁目１６番１４号,,13,103,1070062,,,,,,,2024-03-21,1,,,,,クリエイフ,0
1282,5010401181177,新規,0,2024-03-21,2024-03-21,株式会社エフエーション,,株式会社,東京都,港区,西麻布２丁目２５番９号ディアエクラス１０１,,13,103,1060031,,,,,,,2024-03-21,1,,,,,エフエーション,0
1283,5010401181193,新規,0,2024-03-21,2024-03-21,ｂｅ‐ｅｎ株式会社,,株式会社,東京都,港区,麻布十番２丁目２０番７号ＢＩＲＴＨＷＯＲＫ麻布十番,,13,103,1060045,,,,,,,2024-03-21,1,,,,,ビーエン,0
1284,5010401181210,新規,0,2024-03-21,2024-03-21,Ｕ株式会社,,株式会社,東京都,港区,白金６丁目３番１６号,,13,103,1080072,,,,,,,2024-03-21,1,,,,,ユー,0
1285,5010403032188,新規,0,2024-03-21,2024-03-21,クロスエッジ合同会社,,合同会社,東京都,港区,南青山３丁目１番３６号青山丸竹ビル６Ｆ,,13,103,1070062,,,,,,,2024-03-21,1,,,,,クロスエッジ,0
1286,5010403032196,新規,0,2024-03-21,2024-03-21,Ｈａｗｋｕｐ合同会社,,合同会社,東京都,港区,南青山３丁目１番３６号青山丸竹ビル６Ｆ,,13,103,1070062,,,,,,,2024-03-21,1,,,,,ホウクアップ,0
1287,5010403032221,新規,0,2024-03-21,2024-03-21,Ｍｉｔｓｕｋｉ　Ｔｒａｄｉｎｇ合同会社,,合同会社,東京都,港区,南青山３丁目１番３６号青山丸竹ビル６Ｆ,,13,103,1070062,,,,,,,2024-03-21,1,,,,,ミツキトレーディング,0
1288,5010403032238,新規,0,2024-03-21,2024-03-21,Ｃａｎｏｐｕｓ合同会社,,合同会社,東京都,港区,高輪４丁目１５―７ブリリア高輪レフィール１０３,,13,103,1080074,,,,,,,2024-03-21,1,,,,,カノープス,0
1290,5010501051973,新規,0,2024-03-21,2024-03-21,株式会社鈴友コーティング,,株式会社,東京都,台東区,台東２丁目３１番１１号,,13,106,1100016,,,,,,,2024-03-21,1,,,,,スズトモコーティング,0
1291,5010501051981,新規,0,2024-03-21,2024-03-21,株式会社ゼウス,,株式会社,東京都,台東区,浅草３丁目３９番１号アルビル１０１,,13,106,1110032,,,,,,,2024-03-21,1,,,,,ゼウス,0
1296,5010601064842,新規,0,2024-03-21,2024-03-21,株式会社ＤＡＩＴＥＣ,,株式会社,東京都,墨田区,向島５丁目２０番６号,,13,107,1310033,,,,,,,2024-03-21,1,,,,,ダイテック,0
1297,5010603010720,新規,0,2024-03-21,2024-03-21,ホークス警備アルファ合同会社,,合同会社,東京都,墨田区,両国３丁目２６番２－６０１号リヴゴーシュＡＴ,,13,107,1300026,,,,,,,2024-03-21,1,,,,,ホークスケイビアルファ,0
1302,5010801034876,新規,0,2024-03-21,2024-03-21,株式会社ＩＴＴＡＩ,,株式会社,東京都,大田区,中央５丁目２番５号,,13,111,1430024,,,,,,,2024-03-21,1,,,,,イッタイ,0
1308,5010901054907,新規,0,2024-03-21,2024-03-21,株式会社ＢＯＮＤ,,株式会社,東京都,世田谷区,桜上水２丁目６番１－１０２号,,13,112,1560045,,,,,,,2024-03-21,1,,,,,ボンド,0
1309,5010901054923,新規,0,2024-03-21,2024-03-21,株式会社充活,,株式会社,東京都,世田谷区,深沢８丁目６番６号,,13,112,1580081,,,,,,,2024-03-21,1,,,,,ジュウカツ,0
1319,5011001160711,新規,0,2024-03-21,2024-03-21,株式会社Ｈｕｂ‐ＴＶ,,株式会社,東京都,目黒区,中目黒３丁目２番１９－４０１号ラミアール中目黒,,13,110,1530061,,,,,,,2024-03-21,1,,,,,ハブティービー,0
1320,5011001160728,新規,0,2024-03-21,2024-03-21,株式会社ブックマークコンサルティング,,株式会社,東京都,渋谷区,円山町５番５号Ｎａｖｉ渋谷Ｖ３階,,13,113,1500044,,,,,,,2024-03-21,1,,,,,ブックマークコンサルティング,0
1321,5011001160736,新規,0,2024-03-21,2024-03-21,株式会社広告製作所,,株式会社,東京都,渋谷区,代々木５丁目５７番２号,,13,113,1510053,,,,,,,2024-03-21,1,,,,,コウコクセイサクジョ,0
1322,5011001160744,新規,0,2024-03-21,2024-03-21,株式会社Ｅｕｒｅｋａ　Ｃｒｅａｔｉｖｅ　Ｗｏｒｋｓ,,株式会社,東京都,渋谷区,道玄坂１丁目１０番８号渋谷道玄坂東急ビル２Ｆ－Ｃ,,13,113,1500043,,,,,,,2024-03-21,1,,,,,ユウリカクリエイティブワークス,0
1326,5011101106589,新規,0,2024-03-21,2024-03-21,株式会社ｈｏｗｆｕｎ,,株式会社,東京都,新宿区,西新宿３丁目３番１３号西新宿水間ビル６階,,13,104,1600023,,,,,,,2024-03-21,1,,,,,ハウファン,0
1327,5011101106606,新規,0,2024-03-21,2024-03-21,株式会社Ｂｒｉｇｈｔ　Ｆｕｔｕｒｅ,,株式会社,東京都,新宿区,市谷田町３丁目１４番地３階－Ａ市ヶ谷ガーデンテラス,,13,104,1620843,,,,,,,2024-03-21,1,,,,,ブライトフューチャー,0
1328,5011101106622,新規,0,2024-03-21,2024-03-21,株式会社ＩＧＮＩＸｉＯＮ,,株式会社,東京都,新宿区,新宿２丁目１２番１３号新宿アントレサロンビル２階,,13,104,1600022,,,,,,,2024-03-21,1,,,,,イグニッション,0
1330,5011103014229,新規,0,2024-03-21,2024-03-21,合同会社海蘊山,,合同会社,東京都,新宿区,新宿６丁目３番１５－２０４号,,13,104,1600022,,,,,,,2024-03-21,1,,,,,モズクヤマ,0
1331,5011103014237,新規,0,2024-03-21,2024-03-21,合同会社扇子,,合同会社,東京都,新宿区,西早稲田３丁目２８番地１号３０１号室,,13,104,1690051,,,,,,,2024-03-21,1,,,,,センス,0
1333,5011201025334,新規,0,2024-03-21,2024-03-21,株式会社いただき,,株式会社,東京都,中野区,上高田４丁目４７番３号,,13,114,1640002,,,,,,,2024-03-21,1,,,,,イタダキ,0
1339,5011301029499,新規,0,2024-03-21,2024-03-21,株式会社シックスブロウズ,,株式会社,東京都,杉並区,高円寺南１丁目３３番１－３０２号南高円寺コーポ,,13,115,1660003,,,,,,,2024-03-21,1,,,,,シックスブロウズ,0
1340,5011301029508,新規,0,2024-03-21,2024-03-21,株式会社原島設計,,株式会社,東京都,杉並区,上荻１丁目１８番３号,,13,115,1670043,,,,,,,2024-03-21,1,,,,,ハラシマセッケイ,0
1345,5011503005991,新規,0,2024-03-21,2024-03-21,ｉＧａｒｄｅｎ合同会社,,合同会社,東京都,北区,滝野川４丁目７番地８号,,13,117,1140023,,,,,,,2024-03-21,1,,,,,アイガーデン,0
1346,5011601027632,新規,0,2024-03-21,2024-03-21,株式会社西入企画,,株式会社,東京都,練馬区,石神井町３丁目１３番６号,,13,120,1770041,,,,,,,2024-03-21,1,,,,,ニシイリキカク,0
1347,5011605002573,新規,0,2024-03-21,2024-03-21,医療法人社団しろくま,,その他の設立登記法人,東京都,練馬区,平和台３丁目２５番１７号,,13,120,1790083,,,,,,,2024-03-21,1,,,,,シロクマ,0
1349,5011801043958,新規,0,2024-03-21,2024-03-21,株式会社結,,株式会社,東京都,足立区,島根２丁目２２―５―６０４,,13,121,1210815,,,,,,,2024-03-21,1,,,,,ムスビ,0
1350,5012301013831,新規,0,2024-03-21,2024-03-21,株式会社ラグナ,,株式会社,東京都,町田市,鶴間３丁目１５番地３,,13,209,1940004,,,,,,,2024-03-21,1,,,,,ラグナ,0
1352,5012403006460,新規,0,2024-03-21,2024-03-21,合同会社Ｄｏｎａｌ,,合同会社,東京都,三鷹市,下連雀３丁目２３‐１２‐２階,,13,204,1810013,,,,,,,2024-03-21,1,,,,,ドーナル,0
1353,5012801023041,新規,0,2024-03-21,2024-03-21,株式会社ＢＹＳ,,株式会社,東京都,昭島市,朝日町２丁目３番１７号,,13,207,1960025,,,,,,,2024-03-21,1,,,,,バイス,0
1355,5013301052233,新規,0,2024-03-21,2024-03-21,オフィス・クラークウッド株式会社,,株式会社,東京都,豊島区,東池袋１丁目３４番５号,,13,116,1700013,,,,,,,2024-03-21,1,,,,,オフィスクラークウッド,0
1359,5020001156272,新規,0,2024-03-21,2024-03-21,株式会社ＡｏｉＦｉｌｍ,,株式会社,神奈川県,横浜市都筑区,加賀原１丁目２４番８－２０３号,,14,118,2240055,,,,,,,2024-03-21,1,,,,,アオイフィルム,0
1360,5020001156280,新規,0,2024-03-21,2024-03-21,株式会社ＵＢＱ,,株式会社,神奈川県,横浜市保土ケ谷区,月見台２０番２４号２０５号,,14,106,2400012,,,,,,,2024-03-21,1,,,,,ユービーキュー,0
1361,5020001156297,新規,0,2024-03-21,2024-03-21,株式会社ＥＱＳＤ,,株式会社,神奈川県,川崎市宮前区,土橋６丁目１４番地２８,,14,136,2160005,,,,,,,2024-03-21,1,,,,,イーキューエスディー,0
1362,5020001156314,新規,0,2024-03-21,2024-03-21,株式会社ＭＭ３,,株式会社,神奈川県,横浜市栄区,公田町１０１９番地３２２,,14,115,2470014,,,,,,,2024-03-21,1,,,,,エムエムスリー,0
1363,5020001156322,新規,0,2024-03-21,2024-03-21,株式会社Ｃｒｙｓｔａｌ　Ｈａｒｍｏｎｙ,,株式会社,神奈川県,川崎市高津区,久本２丁目８番２２－１０２号,,14,134,2130011,,,,,,,2024-03-21,1,,,,,クリスタルハーモニー,0
1364,5020001156330,新規,0,2024-03-21,2024-03-21,マリーチ株式会社,,株式会社,神奈川県,横浜市南区,井土ケ谷中町１６２番地２－７１４号,,14,105,2320052,,,,,,,2024-03-21,1,,,,,マリーチ,0
1365,5020001156347,新規,0,2024-03-21,2024-03-21,株式会社ジャパン・ソーラー・ベース,,株式会社,神奈川県,横浜市中区,吉浜町１番地９エトアール吉浜２０３,,14,104,2310024,,,,,,,2024-03-21,1,,,,,ジャパンソーラーベース,0
1366,5020001156355,新規,0,2024-03-21,2024-03-21,株式会社ＥｍｏＬｏｇｉ,,株式会社,神奈川県,川崎市宮前区,小台２丁目９－６－２１７,,14,136,2160007,,,,,,,2024-03-21,1,,,,,エモロジ,0
1369,5020003025756,新規,0,2024-03-21,2024-03-21,ＭＵＫＵ合同会社,,合同会社,神奈川県,川崎市麻生区,万福寺２丁目１７番３号,,14,137,2150004,,,,,,,2024-03-21,1,,,,,ムク,0
1375,5021003014278,新規,0,2024-03-21,2024-03-21,合同会社シュート,,合同会社,神奈川県,藤沢市,片瀬山４丁目１６－２,,14,205,2510033,,,,,,,2024-03-21,1,,,,,シュート,0
1382,5030001159299,新規,0,2024-03-21,2024-03-21,株式会社リバレイズ,,株式会社,埼玉県,川越市,菅原町２４番地５,,11,201,3500046,,,,,,,2024-03-21,1,,,,,リバレイズ,0
1384,5030003023833,新規,0,2024-03-21,2024-03-21,ＴＯＭＡＲＵ合同会社,,合同会社,埼玉県,入間市,大字下谷ケ貫９１３番地１１,,11,225,3580041,,,,,,,2024-03-21,1,,,,,トマル,0
1387,5040001132742,新規,0,2024-03-21,2024-03-21,穂積建設株式会社,,株式会社,千葉県,市原市,ちはら台南３丁目１５番地１,,12,219,2900142,,,,,,,2024-03-21,1,,,,,ホヅミケンセツ,0
1388,5040001132750,新規,0,2024-03-21,2024-03-21,株式会社ケイズ,,株式会社,千葉県,船橋市,二和西２丁目２３番６３号,,12,204,2740806,,,,,,,2024-03-21,1,,,,,ケイズ,0
1391,5040003024558,新規,0,2024-03-21,2024-03-21,ＤＩＶＥＲＳＥ合同会社,,合同会社,千葉県,市川市,東菅野１丁目５番１３－２０４号（ベリテージ本八幡）,,12,203,2720823,,,,,,,2024-03-21,1,,,,,ダイバース,0
1392,5040003024566,新規,0,2024-03-21,2024-03-21,合同会社アンミリー．,,合同会社,千葉県,松戸市,西馬橋４丁目３１０番地の１２,,12,207,2710044,,,,,,,2024-03-21,1,,,,,アンミリー,0
1393,5040003024590,新規,0,2024-03-21,2024-03-21,ＳＡＨＡＮ　ＥＮＴＥＲＰＲＩＳＥＳ合同会社,,合同会社,千葉県,大網白里市,四天木乙２３８１ＳＥＲＥＮＡ大網１０号室,,12,239,2993203,,,,,,,2024-03-21,1,,,,,サハンエンタープライゼズ,0
1394,5040003024608,新規,0,2024-03-21,2024-03-21,合同会社シーカ,,合同会社,千葉県,佐倉市,西ユーカリが丘５丁目５番地１０,,12,212,2850850,,,,,,,2024-03-21,1,,,,,シーカ,0
1395,5050001054465,新規,0,2024-03-21,2024-03-21,株式会社ｍａｇｅｎｔａ,,株式会社,茨城県,つくば市,上ノ室１２６３番地４,,08,220,3050023,,,,,,,2024-03-21,1,,,,,マジェンタ,0
1396,5050001054473,新規,0,2024-03-21,2024-03-21,株式会社ＡＱＵＡ,,株式会社,茨城県,笠間市,旭町６０９番地５,,08,216,3091717,,,,,,,2024-03-21,1,,,,,アクア,0
1397,5050001054481,新規,0,2024-03-21,2024-03-21,庄栄工業株式会社,,株式会社,茨城県,日立市,久慈町６丁目１０番１７号,,08,202,3191222,,,,,,,2024-03-21,1,,,,,ショウエイコウギョウ,0
1398,5050003008196,新規,0,2024-03-21,2024-03-21,方波見牧場合同会社,,合同会社,茨城県,鉾田市,中居６０２番地,,08,234,3112115,,,,,,,2024-03-21,1,,,,,カタバミボクジョウ,0
1401,5060001036925,新規,0,2024-03-21,2024-03-21,株式会社テスラレポート,,株式会社,栃木県,下都賀郡野木町,大字友沼６４２９番地４,,09,364,3290101,,,,,,,2024-03-21,1,,,,,テスラレポート,0
1402,5060001036933,新規,0,2024-03-21,2024-03-21,株式会社ＴＲＹＳＩＡ,,株式会社,栃木県,さくら市,上阿久津４５７番地６メゾネットさくらＣ,,09,214,3291316,,,,,,,2024-03-21,1,,,,,トライシア,0
1403,5060003004979,新規,0,2024-03-21,2024-03-21,合同会社ＥＫＥ　ＦＡＳＴ,,合同会社,栃木県,鹿沼市,石橋町１６０２番地３,,09,205,3220055,,,,,,,2024-03-21,1,,,,,イークファスト,0
1407,5080001026180,新規,0,2024-03-21,2024-03-21,株式会社ＩＣＭ,,株式会社,静岡県,焼津市,塩津２１９番地の８,,22,212,4250085,,,,,,,2024-03-21,1,,,,,アイシーエム,0
1409,5080103003012,新規,0,2024-03-21,2024-03-21,タレントブリッジ合同会社,,合同会社,静岡県,熱海市,東海岸町６－５１メゾン紅葉７０２,,22,205,4130012,,,,,,,2024-03-21,1,,,,,タレントブリッジ,0
1416,5100001037282,新規,0,2024-03-21,2024-03-21,株式会社さんろくご,,株式会社,長野県,松本市,梓川梓５３９番地１,,20,202,3901702,,,,,,,2024-03-21,1,,,,,サンロクゴ,0
1417,5100003007449,新規,0,2024-03-21,2024-03-21,ＴＫコーポレーション合同会社,,合同会社,長野県,安曇野市,豊科２６１０－５１,,20,220,3998205,,,,,,,2024-03-21,1,,,,,ティーケーコーポレーション,0
1430,5120001263265,新規,0,2024-03-21,2024-03-21,株式会社ＳＳクリエイト,,株式会社,大阪府,大阪市西成区,松３丁目２番９号,,27,122,5570034,,,,,,,2024-03-21,1,,,,,エスエスクリエイト,0
1431,5120001263298,新規,0,2024-03-21,2024-03-21,株式会社森下電気工業,,株式会社,大阪府,大阪市城東区,天王田４－２７－７０１,,27,118,5360012,,,,,,,2024-03-21,1,,,,,モリシタデンキコウギョウ,0
1432,5120001263307,新規,0,2024-03-21,2024-03-21,株式会社Ｓｕｎｎｙ,,株式会社,大阪府,交野市,星田４丁目１５番５号アズステーション星田２０７,,27,230,5760016,,,,,,,2024-03-21,1,,,,,サニー,0
1433,5120003026166,新規,0,2024-03-21,2024-03-21,Ｄｒｅａｍ合同会社,,合同会社,大阪府,大阪市東住吉区,鷹合４丁目１３番２１号若潮ビル３０２号室,,27,121,5460014,,,,,,,2024-03-21,1,,,,,ドリーム,0
1434,5120003026216,新規,0,2024-03-21,2024-03-21,合同会社ＡＭＶＩＳＩＯＮ,,合同会社,大阪府,大阪市北区,梅田１丁目２番２号大阪駅前第２ビル１２‐１２,,27,127,5300001,,,,,,,2024-03-21,1,,,,,アンビジョン,0
1435,5120005024201,新規,0,2024-03-21,2024-03-21,一般社団法人スマイルマネジメント協会,,その他の設立登記法人,大阪府,大阪市北区,豊崎２丁目８番１１号８０６号室,,27,127,5310072,,,,,,,2024-03-21,1,,,,,スマイルマネジメントキョウカイ,0
1437,5120101069224,新規,0,2024-03-21,2024-03-21,株式会社Ｂ‐ＬＡＢ,,株式会社,大阪府,堺市中区,東山９４１番地１１,,27,142,5998247,,,,,,,2024-03-21,1,,,,,ビーラボ,0
1438,5120101069232,新規,0,2024-03-21,2024-03-21,株式会社ＳＨＩＮＥＩ,,株式会社,大阪府,南河内郡河南町,大字加納２３１番地の３,,27,382,5850012,,,,,,,2024-03-21,1,,,,,シンエイ,0
1439,5120101069265,新規,0,2024-03-21,2024-03-21,株式会社エスケイ,,株式会社,大阪府,堺市東区,日置荘田中町３２０番地,,27,143,5998113,,,,,,,2024-03-21,1,,,,,エスケイ,0
1442,5120103005739,新規,0,2024-03-21,2024-03-21,合同会社辻本住宅,00134150,合同会社,大阪府,貝塚市,半田１丁目７番１２号,,27,208,5970033,,,,,,,2024-03-21,1,,,,,ツジモトジュウタク,0
1443,5120105009837,新規,0,2024-03-21,2024-03-21,特定非営利活動法人Ｆｕｎ　Ｆａｎ　ＢＡＳＥ,,その他の設立登記法人,大阪府,和泉市,はつが野３丁目５番２１号,,27,219,5941106,,,,,,,2024-03-21,1,,,,,ファンファンベース,0
1444,5120901048906,新規,0,2024-03-21,2024-03-21,ミロク株式会社,,株式会社,大阪府,豊中市,新千里北町２丁目４０番Ｄ－１３０４号,,27,203,5600081,,,,,,,2024-03-21,1,,,,,ミロク,0
1446,5122001037913,新規,0,2024-03-21,2024-03-21,株式会社ミキオーサム,,株式会社,大阪府,八尾市,太田５丁目１１８番地,,27,212,5810037,,,,,,,2024-03-21,1,,,,,ミキオーサム,0
1452,5130001076617,新規,0,2024-03-21,2024-03-21,株式会社無色透明,,株式会社,京都府,京都市下京区,玉津島町２９４－２Ｆ,,26,106,6008427,,,,,,,2024-03-21,1,,,,,ムショクトウメイ,0
1453,5130001076633,新規,0,2024-03-21,2024-03-21,株式会社ＮＩＳＨＩＤＡ,,株式会社,京都府,綴喜郡井手町,大字井手小字南猪ノ阪６４番地の５,,26,343,6100302,,,,,,,2024-03-21,1,,,,,ニシダ,0
1454,5130003009392,新規,0,2024-03-21,2024-03-21,合同会社川崎,,合同会社,京都府,京都市左京区,一乗寺谷田町４１番地,,26,103,6068153,,,,,,,2024-03-21,1,,,,,カワサキ,0
1458,5140001133763,新規,0,2024-03-21,2024-03-21,株式会社ＩＸＯＭＥＩＳ,,株式会社,兵庫県,姫路市,飾磨区蓼野町１１６番地３,,28,201,6728072,,,,,,,2024-03-21,1,,,,,イクソミース,0
1463,5140003020290,新規,0,2024-03-21,2024-03-21,合同会社ＥＴ,,合同会社,兵庫県,神戸市北区,花山中尾台３丁目１８番地の７,,28,109,6511202,,,,,,,2024-03-21,1,,,,,イーティー,0
1464,5140003020316,新規,0,2024-03-21,2024-03-21,シンクスルー合同会社,,合同会社,兵庫県,加古川市,尾上町養田１５０番地の２,,28,210,6750025,,,,,,,2024-03-21,1,,,,,シンクスルー,0
1466,5150001027155,新規,0,2024-03-21,2024-03-21,株式会社レジット,,株式会社,奈良県,奈良市,古市町１７１９番地の１ディアーレコトブキＡ棟１０１号室,,29,201,6308424,,,,,,,2024-03-21,1,,,,,レジット,0
1479,5180001160556,新規,0,2024-03-21,2024-03-21,株式会社モノリス,,株式会社,愛知県,名古屋市中区,栄４丁目８番１６号プレコビル５Ｆ,,23,106,4600008,,,,,,,2024-03-21,1,,,,,モノリス,0
1480,5180001160580,新規,0,2024-03-21,2024-03-21,株式会社ＩＮＯＭＩＣＨＩ,,株式会社,愛知県,名古屋市中村区,名駅１丁目１番１号,,23,105,4500002,,,,,,,2024-03-21,1,,,,,イノミチ,0
1481,5180001160589,新規,0,2024-03-21,2024-03-21,株式会社Ｊｏｙ　Ｇｅｎｅｒａｔｏｒ,,株式会社,愛知県,名古屋市昭和区,広見町５丁目５９番地の２ＨＥＡＲＴＳ　ＷＡＶＥ５０３,,23,107,4660046,,,,,,,2024-03-21,1,,,,,ジョイジェネレーター,0
1482,5180001160606,新規,0,2024-03-21,2024-03-21,株式会社ＭＵＧＥＮ,,株式会社,愛知県,尾張旭市,北本地ケ原町２丁目１４０番地,,23,226,4880043,,,,,,,2024-03-21,1,,,,,ムゲン,0
1483,5180001160614,新規,0,2024-03-21,2024-03-21,株式会社和．いろは,,株式会社,愛知県,名古屋市中区,千代田４丁目２３番２２号,,23,106,4600012,,,,,,,2024-03-21,1,,,,,ワイロハ,0
1484,5180001160647,新規,0,2024-03-21,2024-03-21,株式会社侑良,,株式会社,愛知県,名古屋市緑区,浦里３丁目３３０番地,,23,114,4580847,,,,,,,2024-03-21,1,,,,,ユラ,0
1485,5180001160696,新規,0,2024-03-21,2024-03-21,株式会社ブーステック,,株式会社,愛知県,名古屋市名東区,宝が丘２８８番地,,23,115,4650043,,,,,,,2024-03-21,1,,,,,ブーステック,0
1488,5190001031194,新規,0,2024-03-21,2024-03-21,ＫＴＭ株式会社,,株式会社,三重県,桑名市,多度町香取４６４番地１,,24,205,5110102,,,,,,,2024-03-21,1,,,,,ケイティーエム,0
1493,5210001019674,新規,0,2024-03-21,2024-03-21,株式会社Ｔ＆Ｆ,,株式会社,福井県,坂井市,三国町下野第５９号３番地,,18,210,9130033,,,,,,,2024-03-21,1,,,,,ティーアンドエフ,0
1494,5210003001770,新規,0,2024-03-21,2024-03-21,合同会社ＪＭ,,合同会社,福井県,福井市,つくも２丁目８番１２号第２司コーポ３０３,,18,201,9188001,,,,,,,2024-03-21,1,,,,,ジェイエム,0
1497,5220001025878,新規,0,2024-03-21,2024-03-21,株式会社ライフギアジャパン,,株式会社,石川県,金沢市,神宮寺３丁目６‐２２,,17,201,9200806,,,,,,,2024-03-21,1,,,,,ライフギアジャパン,0
1501,5240001062944,新規,0,2024-03-21,2024-03-21,オフィスＴａｓｈｉｍａ株式会社,,株式会社,広島県,神石郡神石高原町,井関５４４２番地２２,,34,545,7201602,,,,,,,2024-03-21,1,,,,,オフィスタシマ,0
1504,5260001038876,新規,0,2024-03-21,2024-03-21,株式会社エンリ,,株式会社,岡山県,岡山市中区,原尾島３丁目１５‐１２‐１階,,33,102,7038235,,,,,,,2024-03-21,1,,,,,エンリ,0
1508,5260005011326,新規,0,2024-03-21,2024-03-21,一般財団法人備中屋高祖家住宅保存会,,その他の設立登記法人,岡山県,瀬戸内市,牛窓町牛窓４９４３番地１,,33,212,7014302,,,,,,,2024-03-21,1,,,,,ビッチュウヤコウソケジュウタクホゾンカイ,0
1514,5290001105087,新規,0,2024-03-21,2024-03-21,株式会社ＯＲＣＡＴＲＩＯ,,株式会社,福岡県,那珂川市,今光５丁目３１番地,,40,231,8111211,,,,,,,2024-03-21,1,,,,,オルカトリオ,0
1515,5290001105095,新規,0,2024-03-21,2024-03-21,ｂｏｕｑｕｅｔ　ｄｕ　ｃｏｔｏｎ株式会社,,株式会社,福岡県,福岡市南区,花畑２丁目１１番１０号,,40,134,8111356,,,,,,,2024-03-21,1,,,,,ブーケドゥコトン,0
1516,5290001105186,新規,0,2024-03-21,2024-03-21,株式会社ＲＯＹＡＬ　ＷＯＲＫＳ,,株式会社,福岡県,筑紫野市,二日市北４丁目２１番１４－Ｂ１０２号,,40,217,8180056,,,,,,,2024-03-21,1,,,,,ロイヤルワークス,0
1520,5290801030402,新規,0,2024-03-21,2024-03-21,株式会社リバティロジ,,株式会社,福岡県,北九州市小倉南区,沼本町１丁目５番１０号,,40,107,8000208,,,,,,,2024-03-21,1,,,,,リバティロジ,0
1521,5290801030419,新規,0,2024-03-21,2024-03-21,株式会社ｅｓ‐ｐｏｒｔ,,株式会社,福岡県,北九州市小倉北区,大畠１丁目２番２８－１号,,40,106,8020026,,,,,,,2024-03-21,1,,,,,エスポート,0
1522,5290803004643,新規,0,2024-03-21,2024-03-21,合同会社ＦＡＷＡＺ　ＡＵＴＯ,,合同会社,福岡県,鞍手郡鞍手町,大字永谷３５番地,,40,402,8071304,,,,,,,2024-03-21,1,,,,,ファワズオート,0
1526,5330001031865,新規,0,2024-03-21,2024-03-21,株式会社潜在美開花プロデュース,,株式会社,熊本県,熊本市北区,植木町滴水１４８番地９,,43,105,8610133,,,,,,,2024-03-21,1,,,,,センザイビカイカプロデュース,0
1527,5330001031881,新規,0,2024-03-21,2024-03-21,株式会社Ｍｉｒｕ,,株式会社,熊本県,熊本市東区,御領１丁目６番３２号,,43,102,8618035,,,,,,,2024-03-21,1,,,,,ミル,0
1528,5330003010272,新規,0,2024-03-21,2024-03-21,合同会社ホヌ,,合同会社,熊本県,玉名市,岱明町上１１１７－２１,,43,206,8690232,,,,,,,2024-03-21,1,,,,,,0
1534,5350001018844,新規,0,2024-03-21,2024-03-21,株式会社エムテック宮崎,,株式会社,宮崎県,宮崎市,大塚台東１丁目８番地３,,45,201,8800952,,,,,,,2024-03-21,1,,,,,,0
1535,5350001018852,新規,0,2024-03-21,2024-03-21,株式会社ＯＳＫ,,株式会社,宮崎県,延岡市,昭和町３丁目５７番地１５,,45,203,8820034,,,,,,,2024-03-21,1,,,,,オーエスケー,0
1536,5350003004594,新規,0,2024-03-21,2024-03-21,合同会社日高大工店,00134135,合同会社,宮崎県,宮崎市,大字柏原２１５番地８,,45,201,8802111,,,,,,,2024-03-21,1,,,,,ヒダカダイクテン,0
1541,5360003013818,新規,0,2024-03-21,2024-03-21,合同会社ＯＢＩ　ＭＡＲＩＮＥ,,合同会社,沖縄県,那覇市,字大道１００番地,,47,201,9020066,,,,,,,2024-03-21,1,,,,,オービーアイマリン,0
1542,5360003013834,新規,0,2024-03-21,2024-03-21,合同会社ＳＨＩＭＡ　Ｆａｃｔｏｒｙ,,合同会社,沖縄県,うるま市,与那城西原１０４１番地３,,47,213,9042302,,,,,,,2024-03-21,1,,,,,シマファクトリー,0
1543,5370001051034,新規,0,2024-03-21,2024-03-21,株式会社仙台ＮＡメディカル,,株式会社,宮城県,仙台市泉区,北中山３丁目２１番地の２３,,04,105,9813215,,,,,,,2024-03-21,1,,,,,センダイエヌエーメディカル,0
1544,5370001051050,新規,0,2024-03-21,2024-03-21,株式会社寿ネット,,株式会社,宮城県,加美郡色麻町,四竃字二反田８９番地３０１号,,04,444,9814122,,,,,,,2024-03-21,1,,,,,コトブキネット,0
1545,5370001051067,新規,0,2024-03-21,2024-03-21,株式会社ｕ’ｉ,,株式会社,宮城県,仙台市青葉区,花京院２丁目１番３５号,,04,101,9800013,,,,,,,2024-03-21,1,,,,,ウイ,0
1546,5370001051075,新規,0,2024-03-21,2024-03-21,針生内装興業株式会社,,株式会社,宮城県,仙台市若林区,日辺字宅地７７番地,,04,103,9840837,,,,,,,2024-03-21,1,,,,,ハリウナイソウコウギョウ,0
1547,5370003006523,新規,0,2024-03-21,2024-03-21,合同会社千ノ智,,合同会社,宮城県,仙台市青葉区,二日町１３番２６号ネオハイツ勾当台２０２,,04,101,9800802,,,,,,,2024-03-21,1,,,,,チノサトリ,0
1548,5380001034376,新規,0,2024-03-21,2024-03-21,株式会社竹中プランニング,,株式会社,福島県,いわき市,泉町５丁目８番５号エバグリーン３０２号,,07,204,9718185,,,,,,,2024-03-21,1,,,,,タケナカプランニング,0
1553,5410001013764,新規,0,2024-03-21,2024-03-21,株式会社山崎建窓,,株式会社,秋田県,大仙市,和合字荻ノ目２１番地,,05,212,0140033,,,,,,,2024-03-21,1,,,,,ヤマザキケンソウ,0
1559,5460001005880,新規,0,2024-03-21,2024-03-21,ベーコンエッグ株式会社,,株式会社,北海道,川上郡標茶町,字虹別４４２番地４,,01,664,0882462,,,,,,,2024-03-21,1,,,,,ベーコンエッグ,0
1563,5470003002603,新規,0,2024-03-21,2024-03-21,合同会社Ｗｅｅｋｅｎｄ,,合同会社,香川県,丸亀市,大手町１丁目３番１－２０２号サンハイツ大手町,,37,202,7630034,,,,,,,2024-03-21,1,,,,,ウィークエンド,0
1566,5480001012421,新規,0,2024-03-21,2024-03-21,株式会社グリーンハーツ,,株式会社,徳島県,徳島市,八万町中津山４番地４８,,36,201,7708071,,,,,,,2024-03-21,1,,,,,グリーンハーツ,0
1569,5490003001875,新規,0,2024-03-21,2024-03-21,合同会社トラスト,,合同会社,高知県,高知市,鴨部８９５－２５,,39,201,7808050,,,,,,,2024-03-21,1,,,,,トラスト,0
1572,6010001243161,新規,0,2024-03-21,2024-03-21,株式会社彩美内装,,株式会社,東京都,中央区,日本橋３丁目２番１４号,,13,102,1030027,,,,,,,2024-03-21,1,,,,,サイビナイソウ,0
1573,6010001243178,新規,0,2024-03-21,2024-03-21,株式会社ＮＪＫホールディングス,,株式会社,東京都,千代田区,内神田２丁目５番１１号,,13,101,1010047,,,,,,,2024-03-21,1,,,,,エヌジェイケイホールディングス,0
1574,6010001243203,新規,0,2024-03-21,2024-03-21,株式会社Ｓｔｏｃｋｅｄ,,株式会社,東京都,文京区,大塚３丁目１１番４号,,13,105,1120012,,,,,,,2024-03-21,1,,,,,ストックド,0
1575,6010001243211,新規,0,2024-03-21,2024-03-21,株式会社ｍａｏ,,株式会社,東京都,中央区,銀座８丁目５番９号銀座第２誠和ビル３階,,13,102,1040061,,,,,,,2024-03-21,1,,,,,マオ,0
1576,6010001243228,新規,0,2024-03-21,2024-03-21,株式会社ＣａｐｉｔａｌＬｉｎｋ,,株式会社,東京都,中央区,銀座１丁目１２番４号Ｎ＆ＥＢＬＤ．７階,,13,102,1040061,,,,,,,2024-03-21,1,,,,,キャピタルリンク,0
1577,6010001243285,新規,0,2024-03-21,2024-03-21,株式会社アイブレイン・テクノロジー,,株式会社,東京都,中央区,銀座１丁目１２番４号Ｎ＆ＥＢＬＤ．７階,,13,102,1040061,,,,,,,2024-03-21,1,,,,,アイブレインテクノロジー,0
1580,6010003043254,新規,0,2024-03-21,2024-03-21,ハッピーアドバンス合同会社,,合同会社,東京都,中央区,日本橋３丁目２番１４号新槇町ビル別館第一１階,,13,102,1030027,,,,,,,2024-03-21,1,,,,,ハッピーアドバンス,0
1582,6010005038062,新規,0,2024-03-21,2024-03-21,一般社団法人マインドハグ協会,,その他の設立登記法人,東京都,中央区,銀座６丁目６番１号銀座風月堂ビル５Ｆ,,13,102,1040061,,,,,,,2024-03-21,1,,,,,マインドハグキョウカイ,0
1583,6010005038070,新規,0,2024-03-21,2024-03-21,一般社団法人国際ＮＦＴアート協会,,その他の設立登記法人,東京都,千代田区,二番町１番地２,,13,101,1020084,,,,,,,2024-03-21,1,,,,,コクサイエヌエフティーアートキョウカイ,0
1592,6010401180681,新規,0,2024-03-21,2024-03-21,株式会社ｓｒａｎｇｅ,,株式会社,東京都,港区,南青山３丁目１２番１１号ボワゼ青山１０Ｆ,,13,103,1070062,,,,,,,2024-03-21,1,,,,,スランジ,0
1593,6010401181110,新規,0,2024-03-21,2024-03-21,アップウエイトカンパニー株式会社,,株式会社,東京都,港区,芝浦４丁目２１番１号,,13,103,1080023,,,,,,,2024-03-21,1,,,,,アップウエイトカンパニー,0
1594,6010401181119,新規,0,2024-03-21,2024-03-21,株式会社ＡＩＲ’ｓ,,株式会社,東京都,港区,浜松町２丁目２番１５号浜松町ダイヤビル２Ｆ,,13,103,1050013,,,,,,,2024-03-21,1,,,,,エアーズ,0
1595,6010401181127,新規,0,2024-03-21,2024-03-21,株式会社白鳳天,,株式会社,東京都,港区,元赤坂１丁目１番７－５０２号,,13,103,1070051,,,,,,,2024-03-21,1,,,,,ハクホウテン,0
1596,6010401181135,新規,0,2024-03-21,2024-03-21,株式会社ＩＴＳ,,株式会社,東京都,港区,北青山１丁目３番１号アールキューブ青山３階,,13,103,1070061,,,,,,,2024-03-21,1,,,,,アイティエス,0
1597,6010401181151,新規,0,2024-03-21,2024-03-21,株式会社ｓａｌｑ,,株式会社,東京都,港区,北青山１丁目３番１号アールキューブ青山３階,,13,103,1070061,,,,,,,2024-03-21,1,,,,,サルク,0
1598,6010401181201,新規,0,2024-03-21,2024-03-21,株式会社Ｅｎ‐Ｂｒｉｄｇｅ,,株式会社,東京都,港区,赤坂４丁目８番１９号赤坂フロントタウン３階,,13,103,1070052,,,,,,,2024-03-21,1,,,,,エンブリッジ,0
1599,6010401181234,新規,0,2024-03-21,2024-03-21,株式会社ＯｆｆｉｃｅＫｏｍａｋｉ,,株式会社,東京都,港区,港南２丁目１５番１号品川インターシティＡ棟２８階,,13,103,1080075,,,,,,,2024-03-21,1,,,,,オフィスコマキ,0
1600,6010401181259,新規,0,2024-03-21,2024-03-21,株式会社バーガーレボリューション,,株式会社,東京都,港区,六本木４丁目１２番８号,,13,103,1060032,,,,,,,2024-03-21,1,,,,,バーガーレボリューション,0
1601,6010403032204,新規,0,2024-03-21,2024-03-21,Ｃａｍｂｅｘ合同会社,,合同会社,東京都,港区,港南４丁目６番６－１６０５号,,13,103,1080075,,,,,,,2024-03-21,1,,,,,キャンベックス,0
1604,6010601064858,新規,0,2024-03-21,2024-03-21,株式会社九州エネルギーシステム,,株式会社,東京都,江東区,潮見２丁目３番９号３階,,13,108,1350052,,,,,,,2024-03-21,1,,,,,キュウシュウエネルギーシステム,0
1609,6010701045709,新規,0,2024-03-21,2024-03-21,株式会社ＦＥＳ　ＪＡＰＡＮ,,株式会社,東京都,品川区,東大井１丁目２４番１５号,,13,109,1400011,,,,,,,2024-03-21,1,,,,,フェスジャパン,0
1612,6010801034875,新規,0,2024-03-21,2024-03-21,株式会社ａｓ３１０３,,株式会社,東京都,大田区,東雪谷２丁目９番１２号,,13,111,1450065,,,,,,,2024-03-21,1,,,,,エースサンイチゼロサン,0
1613,6010901054914,新規,0,2024-03-21,2024-03-21,株式会社愉而今,,株式会社,東京都,世田谷区,東玉川１丁目３４番５号,,13,112,1580084,,,,,,,2024-03-21,1,,,,,ユニコン,0
1614,6010903008892,新規,0,2024-03-21,2024-03-21,ＢｌｕｅｄｅｅｒＴ＆Ｃ合同会社,,合同会社,東京都,世田谷区,玉川３丁目２０番２号マノア玉川第３ビル５０１号室,,13,112,1580094,,,,,,,2024-03-21,1,,,,,ブルーディアティーアンドシー,0
1615,6010903008901,新規,0,2024-03-21,2024-03-21,ＦＥＢ．合同会社,,合同会社,東京都,世田谷区,駒沢２丁目１４－１,,13,112,1540012,,,,,,,2024-03-21,1,,,,,フェブドット,0
1616,6010903008918,新規,0,2024-03-21,2024-03-21,合同会社Ｋａｚｕｋｉ,,合同会社,東京都,世田谷区,上祖師谷３丁目１４番２５号,,13,112,1570065,,,,,,,2024-03-21,1,,,,,カズキ,0
1620,6011001160710,新規,0,2024-03-21,2024-03-21,株式会社クリニックブリッジ,,株式会社,東京都,渋谷区,神宮前６丁目２３番４号桑野ビル２階,,13,113,1500001,,,,,,,2024-03-21,1,,,,,クリニックブリッジ,0
1621,6011003018725,新規,0,2024-03-21,2024-03-21,さとみつ合同会社,,合同会社,東京都,渋谷区,道玄坂１丁目１０番８号渋谷道玄坂東急ビル２Ｆ－Ｃ,,13,113,1500043,,,,,,,2024-03-21,1,,,,,サトミツ,0
1622,6011003018733,新規,0,2024-03-21,2024-03-21,４２０ｆｒｉｅｎｄｌｙ合同会社,,合同会社,東京都,目黒区,東山１丁目９番１３号,,13,110,1530043,,,,,,,2024-03-21,1,,,,,フォートゥエンティフレンドリー,0
1625,6011101106423,新規,0,2024-03-21,2024-03-21,株式会社サウンドロゴジャパン,,株式会社,東京都,新宿区,四谷坂町１番１１号,,13,104,1600002,,,,,,,2024-03-21,1,,,,,サウンドロゴジャパン,0
1626,6011101106588,新規,0,2024-03-21,2024-03-21,株式会社ＯＮＥ　ＰＩＣＳＡＬ,,株式会社,東京都,新宿区,西新宿３丁目３番１３号西新宿水間ビル２Ｆ,,13,104,1600023,,,,,,,2024-03-21,1,,,,,ワンピクセル,0
1627,6011101106596,新規,0,2024-03-21,2024-03-21,ソーンブリー株式会社,,株式会社,東京都,新宿区,西新宿８丁目４番１５号ローズガーデンハウス８０１,,13,104,1600023,,,,,,,2024-03-21,1,,,,,ソーンブリー,0
1628,6011101106605,新規,0,2024-03-21,2024-03-21,株式会社Ｃａｌｕｃｋ,,株式会社,東京都,新宿区,新宿５丁目２０－１６新宿伊藤ビル９Ｆ,,13,104,1600022,,,,,,,2024-03-21,1,,,,,キャラック,0
1629,6011101106613,新規,0,2024-03-21,2024-03-21,株式会社ｎｅｃｏ,,株式会社,東京都,新宿区,西新宿６丁目５番１号新宿アイランドタワー２階,,13,104,1600023,,,,,,,2024-03-21,1,,,,,ネコ,0
1630,6011101106621,新規,0,2024-03-21,2024-03-21,株式会社ＡＩベース,,株式会社,東京都,新宿区,新宿１丁目３６番２号新宿第七葉山ビル３階,,13,104,1600022,,,,,,,2024-03-21,1,,,,,エーアイベース,0
1631,6011101106638,新規,0,2024-03-21,2024-03-21,株式会社Ａチーム,,株式会社,東京都,新宿区,新宿５丁目１８番２０号ルックハイツ新宿８０３号,,13,104,1600022,,,,,,,2024-03-21,1,,,,,エーチーム,0
1636,6011301029507,新規,0,2024-03-21,2024-03-21,株式会社ＢＡＢＡ,,株式会社,東京都,杉並区,方南１丁目５１番７－９０３号日商岩井方南町マンション,,13,115,1680062,,,,,,,2024-03-21,1,,,,,ババ,0
1637,6011301029515,新規,0,2024-03-21,2024-03-21,株式会社ソルビス,,株式会社,東京都,杉並区,荻窪５丁目３０番１２号グローリア荻窪７１３号,,13,115,1670051,,,,,,,2024-03-21,1,,,,,ソルビス,0
1640,6011501030446,新規,0,2024-03-21,2024-03-21,＿＿映画株式会社,00134138,株式会社,東京都,荒川区,東日暮里５丁目４９－８－７０４,,13,118,1160014,,,,,,,2024-03-21,1,,,,,シンミョウエイガ,0
1641,6011501030454,新規,0,2024-03-21,2024-03-21,株式会社ＹＳＨ,,株式会社,東京都,荒川区,東日暮里６丁目４３番１５－２０４号秀和日暮里レジデンス,,13,118,1160014,,,,,,,2024-03-21,1,,,,,ワイエスエイチ,0
1642,6011601027623,新規,0,2024-03-21,2024-03-21,株式会社Ｋ‐ＮＥＴ,,株式会社,東京都,練馬区,北町２丁目２５番１４－３０３号,,13,120,1790081,,,,,,,2024-03-21,1,,,,,ケイネット,0
1643,6011603004281,新規,0,2024-03-21,2024-03-21,合同会社春木商店,,合同会社,東京都,練馬区,春日町６丁目８番４３号,,13,120,1790074,,,,,,,2024-03-21,1,,,,,ハルキショウテン,0
1647,6011803006136,新規,0,2024-03-21,2024-03-21,合同会社ダイヤモンド・ヘッド,,合同会社,東京都,足立区,西新井栄町１丁目３番９号,,13,121,1230843,,,,,,,2024-03-21,1,,,,,ダイヤモンドヘッド,0
1648,6012401041649,新規,0,2024-03-21,2024-03-21,株式会社光世,,株式会社,東京都,調布市,深大寺北町６丁目２４番地４９,,13,208,1820011,,,,,,,2024-03-21,1,,,,,ミツヨ,0
1649,6012401041665,新規,0,2024-03-21,2024-03-21,株式会社ＴＡＭＡＤＡ,,株式会社,東京都,小金井市,本町４丁目１９番２４号,,13,210,1840004,,,,,,,2024-03-21,1,,,,,タマダ,0
1650,6012403006468,新規,0,2024-03-21,2024-03-21,黒猫ハウス合同会社,,合同会社,東京都,稲城市,平尾１丁目５４番地の２０長財ビル３０１,,13,225,2060823,,,,,,,2024-03-21,1,,,,,クロネコハウス,0
1653,6013301052232,新規,0,2024-03-21,2024-03-21,株式会社ＳＡＲＡＩ,,株式会社,東京都,豊島区,上池袋１丁目３７番２２号レジディアタワー上池袋（タワー棟）１７０６号,,13,116,1700012,,,,,,,2024-03-21,1,,,,,サライ,0
1654,6013301052240,新規,0,2024-03-21,2024-03-21,株式会社ＴＲＹ　ＡＳ,,株式会社,東京都,豊島区,東池袋１丁目１７番１１号パークハイツ池袋１１０５号,,13,116,1700013,,,,,,,2024-03-21,1,,,,,トライアス,0
1655,6020001156271,新規,0,2024-03-21,2024-03-21,株式会社地域協奏事務所,,株式会社,神奈川県,横浜市港北区,師岡町２７９番地３１,,14,109,2220002,,,,,,,2024-03-21,1,,,,,チイキキョウソウジムショ,0
1656,6020001156296,新規,0,2024-03-21,2024-03-21,株式会社ｐｅｃｏ,,株式会社,神奈川県,横浜市瀬谷区,中央３番地６－３０８,,14,114,2460014,,,,,,,2024-03-21,1,,,,,ペコ,0
1657,6020001156321,新規,0,2024-03-21,2024-03-21,株式会社ＬＩＮＫ,,株式会社,神奈川県,横浜市都筑区,見花山１番３４,,14,118,2240066,,,,,,,2024-03-21,1,,,,,リンク,0
1658,6020001156338,新規,0,2024-03-21,2024-03-21,ＡｌｐｈａＧｏＸ株式会社,,株式会社,神奈川県,川崎市高津区,久本３丁目６番３号,,14,134,2130011,,,,,,,2024-03-21,1,,,,,アルファゴエックス,0
1659,6020001156346,新規,0,2024-03-21,2024-03-21,ＲＩＳＥＴ株式会社,,株式会社,神奈川県,横浜市港南区,野庭町２９番地６４,,14,111,2340056,,,,,,,2024-03-21,1,,,,,ライセット,0
1660,6020001156362,新規,0,2024-03-21,2024-03-21,株式会社横浜エデュケーション,,株式会社,神奈川県,横浜市磯子区,磯子台２７番Ｄ－７１０号,,14,107,2350019,,,,,,,2024-03-21,1,,,,,ヨコハマエデュケーション,0
1661,6020001156370,新規,0,2024-03-21,2024-03-21,株式会社ＯＴＧ,,株式会社,神奈川県,川崎市川崎区,浅田１丁目５番９号,,14,131,2100847,,,,,,,2024-03-21,1,,,,,オーティージー,0
1667,6020003025771,新規,0,2024-03-21,2024-03-21,マルエヌ不動産合同会社,,合同会社,神奈川県,横浜市青葉区,あざみ野２丁目１９番地４４,,14,117,2250011,,,,,,,2024-03-21,1,,,,,マルエヌフドウサン,0
1669,6021001081749,新規,0,2024-03-21,2024-03-21,ＳＴＰグローバル株式会社,,株式会社,神奈川県,藤沢市,鵠沼海岸５丁目１番３２号,,14,205,2510037,,,,,,,2024-03-21,1,,,,,エスティーピーグローバル,0
1670,6021001081765,新規,0,2024-03-21,2024-03-21,株式会社ｓ．ｔ．ｆ,,株式会社,神奈川県,相模原市中央区,相模原５丁目１０番５号オーベル相模原９０４,,14,152,2520231,,,,,,,2024-03-21,1,,,,,エスティーエフ,0
1671,6021003014285,新規,0,2024-03-21,2024-03-21,ＧＡＲＡＧＥ１３８合同会社,,合同会社,神奈川県,海老名市,門沢橋２丁目２３番１１号,,14,215,2430426,,,,,,,2024-03-21,1,,,,,ガレージイチサンハチ,0
1677,6030001159257,新規,0,2024-03-21,2024-03-21,ハートナー株式会社,,株式会社,埼玉県,さいたま市中央区,上峰２丁目１３番１５号,,11,105,3380014,,,,,,,2024-03-21,1,,,,,ハートナー,0
1678,6030001159273,新規,0,2024-03-21,2024-03-21,ＬＥＯＰＯＬＤ株式会社,,株式会社,埼玉県,越谷市,大沢１丁目１８番１６号,,11,222,3430025,,,,,,,2024-03-21,1,,,,,レオポルド,0
1679,6030001159307,新規,0,2024-03-21,2024-03-21,株式会社Ｒ＆Ｔ,,株式会社,埼玉県,朝霞市,幸町３丁目３番５号,,11,227,3510015,,,,,,,2024-03-21,1,,,,,アールアンドティー,0
1680,6030001159372,新規,0,2024-03-21,2024-03-21,株式会社サン・スリール,,株式会社,埼玉県,和光市,下新倉４丁目１７番２５号,,11,229,3510111,,,,,,,2024-03-21,1,,,,,サンスリール,0
1684,6030003023766,新規,0,2024-03-21,2024-03-21,合同会社Ｇマイナー,,合同会社,埼玉県,川口市,戸塚南２丁目２６番２２号,,11,203,3330817,,,,,,,2024-03-21,1,,,,,ジーマイナー,0
1685,6030003023865,新規,0,2024-03-21,2024-03-21,合同会社オオダイラ,,合同会社,埼玉県,比企郡小川町,みどりが丘５丁目１４番地８,,11,343,3550315,,,,,,,2024-03-21,1,,,,,オオダイラ,0
1686,6030003023873,新規,0,2024-03-21,2024-03-21,合同会社Ｓ＆Ｎ,,合同会社,埼玉県,志木市,幸町２丁目４番６０号,,11,228,3530005,,,,,,,2024-03-21,1,,,,,エスアンドエヌ,0
1687,6030005021586,新規,0,2024-03-21,2024-03-21,行政書士法人マチアド,,その他の設立登記法人,埼玉県,上尾市,西宮下１丁目６０番地,,11,219,3620043,,,,,,,2024-03-21,1,,,,,マチアド,0
1691,6040001132691,新規,0,2024-03-21,2024-03-21,株式会社トイズ・スタジオ,,株式会社,千葉県,いすみ市,大原８４３７番地２,,12,238,2980004,,,,,,,2024-03-21,1,,,,,トイズスタジオ,0
1692,6040001132700,新規,0,2024-03-21,2024-03-21,株式会社ビーム・アシスト,,株式会社,千葉県,千葉市若葉区,大宮台６丁目１８番１２号,,12,104,2640015,,,,,,,2024-03-21,1,,,,,ビームアシスト,0
1693,6040001132758,新規,0,2024-03-21,2024-03-21,株式会社Ｍｏｎｏｐｏｌｙ,,株式会社,千葉県,市原市,姉崎１２０６番地,,12,219,2990111,,,,,,,2024-03-21,1,,,,,モノポリー,0
1694,6040001132766,新規,0,2024-03-21,2024-03-21,株式会社植木屋卓,,株式会社,千葉県,八街市,八街へ１９９番地１４６１,,12,230,2891113,,,,,,,2024-03-21,1,,,,,ウエキヤタク,0
1695,6040001132790,新規,0,2024-03-21,2024-03-21,株式会社ＤＲＡＭＡ,,株式会社,千葉県,千葉市若葉区,加曽利町９４４－１０８,,12,104,2640017,,,,,,,2024-03-21,1,,,,,ドラマ,0
1696,6040003024557,新規,0,2024-03-21,2024-03-21,合同会社森の輪製作所,,合同会社,千葉県,山武郡芝山町,大里３０８番地１,,12,409,2891603,,,,,,,2024-03-21,1,,,,,モリノワセイサクジョ,0
1697,6040003024573,新規,0,2024-03-21,2024-03-21,ＡＩＬＩＮＥ合同会社,,合同会社,千葉県,市川市,市川１丁目５番６号Ｂ１Ｆ,,12,203,2720034,,,,,,,2024-03-21,1,,,,,エアイライン,0
1698,6050001054472,新規,0,2024-03-21,2024-03-21,つくば警備保障株式会社,,株式会社,茨城県,つくば市,花畑１丁目１０番地２１ルミエール花畑２０２号,,08,220,3003261,,,,,,,2024-03-21,1,,,,,ツクバケイビホショウ,0
1699,6050005013409,新規,0,2024-03-21,2024-03-21,医療法人社団豊正会,,その他の設立登記法人,茨城県,つくば市,原１番地４,,08,220,3050823,,,,,,,2024-03-21,1,,,,,ホウセイカイ,0
1700,6060001036924,新規,0,2024-03-21,2024-03-21,ＥＲＩＣ株式会社,,株式会社,栃木県,真岡市,田町１７８４番地,,09,209,3214325,,,,,,,2024-03-21,1,,,,,エリック,0
1706,6080001026188,新規,0,2024-03-21,2024-03-21,株式会社七福神,,株式会社,静岡県,島田市,中溝町１７１９番地の７,,22,209,4270047,,,,,,,2024-03-21,1,,,,,シチフクジン,0
1707,6080101024595,新規,0,2024-03-21,2024-03-21,株式会社ＲｏｚＲｙ,,株式会社,静岡県,三島市,大社町５番３３号,,22,206,4110853,,,,,,,2024-03-21,1,,,,,ロズリー,0
1709,6090005007621,新規,0,2024-03-21,2024-03-21,一般社団法人山梨市石油商業協会,,その他の設立登記法人,山梨県,山梨市,下神内川１４６番地,,19,205,4050017,,,,,,,2024-03-21,1,,,,,ヤマナシシセキユショウギョウキョウカイ,0
1712,6100001037298,新規,0,2024-03-21,2024-03-21,株式会社とも商会,,株式会社,長野県,千曲市,大字雨宮２４９６番地１８,,20,218,3870001,,,,,,,2024-03-21,1,,,,,トモショウカイ,0
1718,6110005017064,新規,0,2024-03-21,2024-03-21,ＮＰＯ法人Ａｔｌａｓ,,その他の設立登記法人,新潟県,新潟市江南区,早通１丁目１０番１２号アプリコットＡ２０１号,,15,104,9500168,,,,,,,2024-03-21,1,,,,,アトラス,0
1723,6120001263215,新規,0,2024-03-21,2024-03-21,正心株式会社,,株式会社,大阪府,大阪市中央区,松屋町９番２０号ローレルステート松屋町１３０６Ｂ,,27,128,5420067,,,,,,,2024-03-21,1,,,,,セイシン,0
1724,6120001263256,新規,0,2024-03-21,2024-03-21,イモータル株式会社,,株式会社,大阪府,大阪市福島区,福島５丁目１３番１８号,,27,103,5530003,,,,,,,2024-03-21,1,,,,,イモータル,0
1725,6120001263322,新規,0,2024-03-21,2024-03-21,ＭＯＡＴＷＥＬＬ株式会社,,株式会社,大阪府,大阪市北区,堂島１丁目１番２５号,,27,127,5300003,,,,,,,2024-03-21,1,,,,,モートウェル,0
1728,6120003026173,新規,0,2024-03-21,2024-03-21,結合同会社,,合同会社,大阪府,門真市,脇田町２７番２号,,27,223,5710011,,,,,,,2024-03-21,1,,,,,ムスビ,0
1731,6120005024209,新規,0,2024-03-21,2024-03-21,社会保険労務士法人ＴＯＺＥＮ,,その他の設立登記法人,大阪府,大阪市中央区,谷町２丁目５－４エフベースラドルフ３０６,,27,128,5400012,,,,,,,2024-03-21,1,,,,,トーゼン,0
1734,6120101069223,新規,0,2024-03-21,2024-03-21,株式会社トライアングル,,株式会社,大阪府,堺市東区,引野町２丁９１番地７,,27,143,5998104,,,,,,,2024-03-21,1,,,,,トライアングル,0
1735,6120101069256,新規,0,2024-03-21,2024-03-21,株式会社桜美舎,,株式会社,大阪府,富田林市,梅の里３丁目１３番２３号,,27,214,5840001,,,,,,,2024-03-21,1,,,,,オミシャ,0
1736,6120103005705,新規,0,2024-03-21,2024-03-21,ＭＯＡ　Ｃ＆Ｃ合同会社,,合同会社,大阪府,堺市西区,鳳中町４丁１２３番地４レゼ・おおとり２０５号,,27,144,5938327,,,,,,,2024-03-21,1,,,,,モアシーアンドシー,0
1737,6120103005738,新規,0,2024-03-21,2024-03-21,合同会社ｆｏｌｌｏｗ‐ｕｐ,,合同会社,大阪府,和泉市,光明台１丁目２９番５１号,,27,219,5941111,,,,,,,2024-03-21,1,,,,,フォローアップ,0
1738,6120105009836,新規,0,2024-03-21,2024-03-21,ＮＰＯ法人ココスマ,,その他の設立登記法人,大阪府,堺市北区,百舌鳥梅町１丁２番地１７,,27,146,5918032,,,,,,,2024-03-21,1,,,,,ココスマ,0
1740,6120901048921,新規,0,2024-03-21,2024-03-21,株式会社日隈良江,,株式会社,大阪府,豊中市,緑丘２丁目６番５号,,27,203,5600002,,,,,,,2024-03-21,1,,,,,ヒノクマヨシエ,0
1744,6122001037912,新規,0,2024-03-21,2024-03-21,ミナミ工業株式会社,,株式会社,大阪府,八尾市,八尾木北６丁目５５番地の５,,27,212,5810016,,,,,,,2024-03-21,1,,,,,ミナミコウギョウ,0
1745,6122001037920,新規,0,2024-03-21,2024-03-21,株式会社ラポールリンク,,株式会社,大阪府,大東市,灰塚２丁目７番９号,,27,218,5740043,,,,,,,2024-03-21,1,,,,,ラポールリンク,0
1746,6122001037929,新規,0,2024-03-21,2024-03-21,株式会社ソレイユ,,株式会社,大阪府,八尾市,大字山畑１１０番地の５,,27,212,5810864,,,,,,,2024-03-21,1,,,,,ソレイユ,0
1747,6122003002831,新規,0,2024-03-21,2024-03-21,合同会社鶴英,,合同会社,大阪府,大東市,三箇５丁目６番１１号リバーサイド２－２０３号,,27,218,5740077,,,,,,,2024-03-21,1,,,,,ツルヒデ,0
1753,6130001076599,新規,0,2024-03-21,2024-03-21,株式会社ホライズン・リアルエステート,,株式会社,京都府,京都市中京区,三条通新町西入ル釜座町２２番地ストークビル三条烏丸４０９,,26,104,6040000,,,,,,,2024-03-21,1,,,,,ホライズンリアルエステート,0
1754,6130001076608,新規,0,2024-03-21,2024-03-21,株式会社ブルーキャンバス,,株式会社,京都府,京都市中京区,堀川通三条下る橋浦町２２９－１３０２,,26,104,6048257,,,,,,,2024-03-21,1,,,,,ブルーキャンバス,0
1755,6130001076640,新規,0,2024-03-21,2024-03-21,株式会社キャリコ,,株式会社,京都府,京都市伏見区,下鳥羽長田町２２５番地,,26,109,6128471,,,,,,,2024-03-21,1,,,,,キャリコ,0
1756,6130003009391,新規,0,2024-03-21,2024-03-21,合同会社Ｍｔ．ｌｉｎｋ,,合同会社,京都府,京都市下京区,鶏鉾町４９３番地ムーンバットビル７Ｆ,,26,106,6008491,,,,,,,2024-03-21,1,,,,,エムティードットリンク,0
1757,6130005017038,新規,0,2024-03-21,2024-03-21,一般社団法人運送・軽貨物支援協会,,その他の設立登記法人,京都府,京都市下京区,塩屋町１７５－１－１１１号,,26,106,6008144,,,,,,,2024-03-21,1,,,,,ウンソウケイカモツシエンキョウカイ,0
1764,6140001133705,新規,0,2024-03-21,2024-03-21,馨丹株式会社,,株式会社,兵庫県,神戸市中央区,下山手通２丁目２－９ライトハウス３０１号室,,28,110,6500011,,,,,,,2024-03-21,1,,,,,,0
1765,6140001133721,新規,0,2024-03-21,2024-03-21,ｗｉｄｒｅｓｓ株式会社,,株式会社,兵庫県,神戸市中央区,海岸通３丁目１番５－３０５号,,28,110,6500024,,,,,,,2024-03-21,1,,,,,ワイドレス,0
1766,6140001133754,新規,0,2024-03-21,2024-03-21,株式会社プロスペリーブ,,株式会社,兵庫県,神戸市東灘区,御影３丁目２－１１－３０６,,28,101,6580047,,,,,,,2024-03-21,1,,,,,プロスペリーブ,0
1770,6160003003144,新規,0,2024-03-21,2024-03-21,合同会社Ｈ,,合同会社,滋賀県,彦根市,南川瀬町８７８－８,,25,202,5220222,,,,,,,2024-03-21,1,,,,,エイチ,0
1774,6180001160555,新規,0,2024-03-21,2024-03-21,株式会社エスケー,,株式会社,愛知県,北名古屋市,鹿田出町東３０４８番地３,,23,234,4810004,,,,,,,2024-03-21,1,,,,,エスケー,0
1775,6180001160571,新規,0,2024-03-21,2024-03-21,株式会社Ｋ　ｍｅｄｉｃａｌ,,株式会社,愛知県,大府市,江端町５丁目８０番地の８,,23,223,4740035,,,,,,,2024-03-21,1,,,,,ケーメディカル,0
1776,6180001160588,新規,0,2024-03-21,2024-03-21,株式会社ＬＡ‐ＳＥＩＮＥ　ａｎ,,株式会社,愛知県,岩倉市,下本町真光寺７３番地５,,23,228,4820005,,,,,,,2024-03-21,1,,,,,ラセーヌアン,0
1777,6180001160605,新規,0,2024-03-21,2024-03-21,株式会社後藤金属工業,,株式会社,愛知県,春日井市,高座台２丁目２番地１,,23,206,4870017,,,,,,,2024-03-21,1,,,,,ゴトウキンゾクコウギョウ,0
1778,6180001160638,新規,0,2024-03-21,2024-03-21,ＴＭコーポレーション株式会社,,株式会社,愛知県,名古屋市北区,平安１丁目１１番３９号,,23,103,4620819,,,,,,,2024-03-21,1,,,,,ティーエムコーポレーション,0
1779,6180001160646,新規,0,2024-03-21,2024-03-21,株式会社ｊｕｊｕ　ＧＲＯＵＰ,,株式会社,愛知県,江南市,飛高町中町３４番地４,,23,217,4838067,,,,,,,2024-03-21,1,,,,,ジュジュグループ,0
1780,6180001160662,新規,0,2024-03-21,2024-03-21,株式会社ＫＯＮＤＯ,,株式会社,愛知県,瀬戸市,坂上町８０８番地の１,,23,204,4890977,,,,,,,2024-03-21,1,,,,,コンドウ,0
1786,6180003026507,新規,0,2024-03-21,2024-03-21,合同会社ナビゴパートナーズ,,合同会社,愛知県,常滑市,青海町４丁目４１,,23,216,4790004,,,,,,,2024-03-21,1,,,,,ナビゴパートナーズ,0
1787,6180003026515,新規,0,2024-03-21,2024-03-21,合同会社ＤＳＥ,,合同会社,愛知県,名古屋市緑区,大清水西１３７番地,,23,114,4580806,,,,,,,2024-03-21,1,,,,,ディーエスイー,0
1794,6210001019681,新規,0,2024-03-21,2024-03-21,株式会社エコイノ,,株式会社,福井県,福井市,開発５丁目３１５,,18,201,9100842,,,,,,,2024-03-21,1,,,,,エコイノ,0
1808,6290001105086,新規,0,2024-03-21,2024-03-21,株式会社Ｅｕｇｅｎｅ,,株式会社,福岡県,福岡市中央区,清川２丁目２番２７－１４０１号,,40,133,8100005,,,,,,,2024-03-21,1,,,,,,0
1809,6290001105152,新規,0,2024-03-21,2024-03-21,株式会社和建,,株式会社,福岡県,筑紫野市,武蔵３丁目１０番１７号,,40,217,8180052,,,,,,,2024-03-21,1,,,,,カズケン,0
1810,6290003015044,新規,0,2024-03-21,2024-03-21,合同会社すずめリサーチ,,合同会社,福岡県,福岡市中央区,天神１丁目６番８号天神ツインビル７階明倫国際法律事務所内,,40,133,8100001,,,,,,,2024-03-21,1,,,,,スズメリサーチ,0
1813,6290801030418,新規,0,2024-03-21,2024-03-21,株式会社Ｄｅｎｓｅｉ,,株式会社,福岡県,北九州市小倉北区,白萩町１番３－６０３号,,40,106,8030825,,,,,,,2024-03-21,1,,,,,デンセイ,0
1823,6330001031856,新規,0,2024-03-21,2024-03-21,株式会社竜建装,,株式会社,熊本県,八代市,植柳上町３４０番地（Ｄ２‐２）,,43,202,8660081,,,,,,,2024-03-21,1,,,,,リュウケンソウ,0
1824,6330001031880,新規,0,2024-03-21,2024-03-21,唐和商事株式会社,,株式会社,熊本県,荒尾市,荒尾５９３番地１,,43,204,8640041,,,,,,,2024-03-21,1,,,,,トウワショウジ,0
1825,6330001031889,新規,0,2024-03-21,2024-03-21,株式会社マルショウ,,株式会社,熊本県,熊本市南区,城南町永９８３番地,,43,104,8614234,,,,,,,2024-03-21,1,,,,,マルショウ,0
1828,6350001018843,新規,0,2024-03-21,2024-03-21,株式会社樗不動産,,株式会社,宮崎県,都城市,平塚町２６３２番地１,,45,202,8850085,,,,,,,2024-03-21,1,,,,,オウチフドウサン,0
1829,6350001018851,新規,0,2024-03-21,2024-03-21,株式会社グルー,,株式会社,宮崎県,宮崎市,昭和町１２８番地２,,45,201,8800874,,,,,,,2024-03-21,1,,,,,グルー,0
1835,6370001051058,新規,0,2024-03-21,2024-03-21,株式会社鎌田金属,,株式会社,宮城県,仙台市泉区,七北田字野山１番地の５５,,04,105,9813131,,,,,,,2024-03-21,1,,,,,カマタキンゾク,0
1836,6370001051074,新規,0,2024-03-21,2024-03-21,株式会社Ｓ．Ｓ,,株式会社,宮城県,刈田郡蔵王町,遠刈田温泉字新地東裏山３４番地１１５,,04,301,9890916,,,,,,,2024-03-21,1,,,,,エスエス,0
1837,6370001051090,新規,0,2024-03-21,2024-03-21,株式会社アッスーム,,株式会社,宮城県,仙台市青葉区,国分町２丁目１０番１４号エムロードビル５階,,04,101,9800803,,,,,,,2024-03-21,1,,,,,アッスーム,0
1844,6400001016593,新規,0,2024-03-21,2024-03-21,株式会社ａ‐ｘｓモリオカ,,株式会社,岩手県,盛岡市,大通１丁目１０番１４号第二丸十ビル２階,,03,201,0200022,,,,,,,2024-03-21,1,,,,,アークスモリオカ,0
1845,6410001013763,新規,0,2024-03-21,2024-03-21,株式会社仙北農園,,株式会社,秋田県,大仙市,橋本字稲荷３５番地,,05,212,0140804,,,,,,,2024-03-21,1,,,,,センボクノウエン,0
1846,6420003002895,新規,0,2024-03-21,2024-03-21,エムウォーター合同会社,,合同会社,青森県,つがる市,森田町下相野野田３７番地１,,02,209,0382812,,,,,,,2024-03-21,1,,,,,エムウォーター,0
1852,6430001091320,新規,0,2024-03-21,2024-03-21,株式会社ＳＫＹ　Ｃｏｒｐ．,,株式会社,北海道,札幌市白石区,北郷四条１丁目３番１号,,01,104,0030834,,,,,,,2024-03-21,1,,,,,スカイコーポレーション,0
1853,6430001091329,新規,0,2024-03-21,2024-03-21,丸源みろく電気株式会社,,株式会社,北海道,札幌市東区,北三十七条東２丁目１番３０号１階,,01,103,0070837,,,,,,,2024-03-21,1,,,,,マルゲンミロクデンキ,0
1856,6440001009404,新規,0,2024-03-21,2024-03-21,宇田塗装株式会社,,株式会社,北海道,函館市,高松町５０５番地８,,01,202,0420952,,,,,,,2024-03-21,1,,,,,ウダトソウ,0
1857,6450001014262,新規,0,2024-03-21,2024-03-21,株式会社Ｓｐｕｒ,,株式会社,北海道,旭川市,神楽四条１１丁目４番７号,,01,204,0708004,,,,,,,2024-03-21,1,,,,,シュプール,0
1864,6500001025527,新規,0,2024-03-21,2024-03-21,株式会社カエチフーズ,,株式会社,愛媛県,松山市,木屋町２丁目５番地１５,,38,201,7900821,,,,,,,2024-03-21,1,,,,,カエチフーズ,0
1876,7010001243045,新規,0,2024-03-21,2024-03-21,嘉盛株式会社,,株式会社,東京都,中央区,日本橋本町３丁目８番５号－１階,,13,102,1030023,,,,,,,2024-03-21,1,,,,,カセイ,0
1877,7010001243160,新規,0,2024-03-21,2024-03-21,Ｌｅｉｓ株式会社,,株式会社,東京都,千代田区,有楽町１丁目５－２東宝日比谷プロムナードビルディング１１階,,13,101,1000006,,,,,,,2024-03-21,1,,,,,レイズ,0
1878,7010001243169,新規,0,2024-03-21,2024-03-21,株式会社和,,株式会社,東京都,文京区,小石川５丁目５番９号,,13,105,1120002,,,,,,,2024-03-21,1,,,,,カズ,0
1879,7010001243185,新規,0,2024-03-21,2024-03-21,株式会社クラフィン,,株式会社,東京都,千代田区,神田和泉町１番地６－１６ヤマトビル４０５,,13,101,1010024,,,,,,,2024-03-21,1,,,,,クラフィン,0
1880,7010001243219,新規,0,2024-03-21,2024-03-21,株式会社マルスビズ,,株式会社,東京都,中央区,日本橋室町１丁目１１番１２号日本橋水野ビル７階,,13,102,1030022,,,,,,,2024-03-21,1,,,,,マルスビズ,0
1881,7010001243227,新規,0,2024-03-21,2024-03-21,アークアール株式会社,,株式会社,東京都,千代田区,神田錦町３丁目１１番８号武蔵野ビル,,13,101,1010054,,,,,,,2024-03-21,1,,,,,アークアール,0
1882,7010001243243,新規,0,2024-03-21,2024-03-21,株式会社ＰＭＫ　Ｇｌｏｂａｌ　Ｂａｃｋｓｔａｇｅ,,株式会社,東京都,文京区,小石川３丁目２１－５,,13,105,1120002,,,,,,,2024-03-21,1,,,,,ピーエムケーグローバルバックステージ,0
1883,7010001243276,新規,0,2024-03-21,2024-03-21,ＴＲＮＴ株式会社,,株式会社,東京都,千代田区,神田和泉町１－６－１６ヤマトビル４０５,,13,101,1010024,,,,,,,2024-03-21,1,,,,,トランツ,0
1884,7010001243292,新規,0,2024-03-21,2024-03-21,株式会社ＫＡＮＴ,,株式会社,東京都,中央区,勝どき５丁目１２番４－１９０７号,,13,102,1040054,,,,,,,2024-03-21,1,,,,,カント,0
1885,7010001243334,新規,0,2024-03-21,2024-03-21,株式会社タウマゼイン,,株式会社,東京都,千代田区,六番町６番地２０グランドメゾン六番町３０３号,,13,101,1020085,,,,,,,2024-03-21,1,,,,,タウマゼイン,0
1892,7010003043261,新規,0,2024-03-21,2024-03-21,合同会社ＳＫＹ,,合同会社,東京都,中央区,佃２丁目２２番７－１００２号,,13,102,1040051,,,,,,,2024-03-21,1,,,,,スカイ,0
1893,7010005038053,新規,0,2024-03-21,2024-03-21,一般社団法人日本リスキリングキャリアコンサルタント協議会,,その他の設立登記法人,東京都,千代田区,神田神保町１丁目１０１番地神保町１０１ビル６階,,13,101,1010051,,,,,,,2024-03-21,1,,,,,ニホンリスキリングキャリアコンサルタントキョウギカイ,0
1895,7010401181118,新規,0,2024-03-21,2024-03-21,株式会社Ｏｎｓａ,,株式会社,東京都,港区,北青山２丁目７番９号,,13,103,1070061,,,,,,,2024-03-21,1,,,,,オンサ,0
1896,7010401181126,新規,0,2024-03-21,2024-03-21,株式会社Ｔｈｅ２５．,,株式会社,東京都,港区,六本木７丁目１２番２号,,13,103,1060032,,,,,,,2024-03-21,1,,,,,ザニーゴードット,0
1897,7010401181134,新規,0,2024-03-21,2024-03-21,株式会社ｎ,,株式会社,東京都,港区,南青山５丁目１１番２４号グレイセス２階,,13,103,1070062,,,,,,,2024-03-21,1,,,,,エヌ,0
1898,7010401181150,新規,0,2024-03-21,2024-03-21,ｉＣＰ株式会社,,株式会社,東京都,港区,虎ノ門１丁目１７番１号虎ノ門ヒルズビジネスタワー１５階,,13,103,1050001,,,,,,,2024-03-21,1,,,,,アイシーピー,0
1899,7010401181159,新規,0,2024-03-21,2024-03-21,株式会社Ｒｅｖｏｌｖａ,,株式会社,東京都,港区,赤坂８丁目５番４０－５１８号,,13,103,1070052,,,,,,,2024-03-21,1,,,,,リボルバ,0
1900,7010401181167,新規,0,2024-03-21,2024-03-21,株式会社Ｏｔａｋｓ,,株式会社,東京都,港区,虎ノ門５丁目１１番２号オランダヒルズ森タワー１６階,,13,103,1050001,,,,,,,2024-03-21,1,,,,,オタクス,0
1901,7010401181183,新規,0,2024-03-21,2024-03-21,株式会社Ｄｅｃｌｉｎａｉｓｏｎ　ｈｏｌｄｉｎｇｓ,,株式会社,東京都,港区,虎ノ門４丁目１番１号神谷町トラストタワー２３階,,13,103,1050001,,,,,,,2024-03-21,1,,,,,デクリネゾンホールディングス,0
1902,7010401181217,新規,0,2024-03-21,2024-03-21,Ｇｌｅａｒｎ株式会社,,株式会社,東京都,港区,芝浦１丁目６番４１－３１１５号,,13,103,1050023,,,,,,,2024-03-21,1,,,,,グラーン,0
1903,7010401181225,新規,0,2024-03-21,2024-03-21,株式会社ＳＴＯＲＹＰＯＤ,,株式会社,東京都,港区,北青山１丁目３番１号アールキューブ青山３階,,13,103,1070061,,,,,,,2024-03-21,1,,,,,ストーリーポッド,0
1904,7010401181233,新規,0,2024-03-21,2024-03-21,株式会社光英トレーディング,,株式会社,東京都,港区,赤坂６丁目８番２号ホライズンプレイス赤坂ビル３Ｆ０２,,13,103,1070052,,,,,,,2024-03-21,1,,,,,コウエイトレーディング,0
1906,7010403032178,新規,0,2024-03-21,2024-03-21,ＣＫ　Ｃｏｎｓｕｌｔｉｎｇ合同会社,,合同会社,東京都,港区,西新橋３丁目２４番８号山内ビル３階,,13,103,1050003,,,,,,,2024-03-21,1,,,,,シーケイコンサルティング,0
1907,7010403032194,新規,0,2024-03-21,2024-03-21,コムレイドコンサルティング合同会社,,合同会社,東京都,港区,南麻布４丁目１２番２－６０１号,,13,103,1060047,,,,,,,2024-03-21,1,,,,,コムレイドコンサルティング,0
1908,7010501051906,新規,0,2024-03-21,2024-03-21,凱添資本株式会社,,株式会社,東京都,台東区,東上野５丁目１８番１号上野アインスタワー１５０６,,13,106,1100015,,,,,,,2024-03-21,1,,,,,ガイテンシホン,0
1910,7010601064849,新規,0,2024-03-21,2024-03-21,株式会社ＰｒｉｍｅＣｒｅｗＳ,,株式会社,東京都,江東区,有明３丁目７番２６号有明フロンティアビルＢ棟９階,,13,108,1350063,,,,,,,2024-03-21,1,,,,,プライムクルーズ,0
1911,7010601064865,新規,0,2024-03-21,2024-03-21,株式会社Ｎｅｗ　Ａｃｅ,,株式会社,東京都,墨田区,立花５丁目１９番１７号,,13,107,1310043,,,,,,,2024-03-21,1,,,,,ニューエース,0
1915,7010703007103,新規,0,2024-03-21,2024-03-21,合同会社ソフィ,,合同会社,東京都,品川区,西中延３丁目５番１８－１０９号,,13,109,1420054,,,,,,,2024-03-21,1,,,,,ソフィ,0
1916,7010801034866,新規,0,2024-03-21,2024-03-21,株式会社ＰｒｏｓＧａｉｎ,,株式会社,東京都,大田区,東雪谷１丁目３４番２号,,13,111,1450065,,,,,,,2024-03-21,1,,,,,プロスゲイン,0
1917,7010801034874,新規,0,2024-03-21,2024-03-21,株式会社Ｌｉｎｏｌｅ’ａ,,株式会社,東京都,大田区,上池台２丁目１－１５ＦＲＡＭＥ１０２,,13,111,1450064,,,,,,,2024-03-21,1,,,,,リノレア,0
1919,7010901054896,新規,0,2024-03-21,2024-03-21,シェルアップ株式会社,,株式会社,東京都,世田谷区,深沢８丁目１１番１６号トーカンマンション深沢２０２,,13,112,1580081,,,,,,,2024-03-21,1,,,,,シェルアップ,0
1920,7010901054921,新規,0,2024-03-21,2024-03-21,ＡＳＵＬｉＮＯ株式会社,,株式会社,東京都,世田谷区,鎌田３丁目１７番２９号,,13,112,1570077,,,,,,,2024-03-21,1,,,,,アスリーノ,0
1921,7010903008900,新規,0,2024-03-21,2024-03-21,合同会社Ｌｅ　Ｃｉｅｌ　Ｂｌｅｕ,,合同会社,東京都,世田谷区,上北沢４丁目４番６号,,13,112,1560057,,,,,,,2024-03-21,1,,,,,ルシェルブルー,0
1927,7011001160701,新規,0,2024-03-21,2024-03-21,株式会社Ｒｅ　ＬＩＦＥ　ＣＲＥＡＴＥ,,株式会社,東京都,渋谷区,代官山町１３番８号キャッスルマンション代官山５１３号,,13,113,1500034,,,,,,,2024-03-21,1,,,,,リライフクリエイト,0
1928,7011001160718,新規,0,2024-03-21,2024-03-21,株式会社ＫＪ　ＳＴＵＤＩＯ,,株式会社,東京都,目黒区,中目黒３丁目２２番１号ＯＴＳＵＭＯＣＥＮＴＲＥ３０２,,13,110,1530061,,,,,,,2024-03-21,1,,,,,ケイジェイスタジオ,0
1929,7011001160742,新規,0,2024-03-21,2024-03-21,株式会社Ｇｅｒｂｅｒａ,,株式会社,東京都,渋谷区,道玄坂１丁目１０番８号渋谷道玄坂東急ビル２Ｆ－Ｃ,,13,113,1500043,,,,,,,2024-03-21,1,,,,,ガーベラ,0
1930,7011001160775,新規,0,2024-03-21,2024-03-21,株式会社ＴＨＲＥＥ,,株式会社,東京都,渋谷区,神泉町１０番１５号アネックス神泉３０１,,13,113,1500045,,,,,,,2024-03-21,1,,,,,スリー,0
1935,7011101106587,新規,0,2024-03-21,2024-03-21,株式会社ジャーニークエスト,,株式会社,東京都,新宿区,西新宿７丁目４番７号イマス浜田ビル５階,,13,104,1600023,,,,,,,2024-03-21,1,,,,,ジャーニークエスト,0
1936,7011101106604,新規,0,2024-03-21,2024-03-21,ＡＭＭホールディングス株式会社,,株式会社,東京都,新宿区,神楽坂６丁目２２番地田南ビル神楽坂,,13,104,1620825,,,,,,,2024-03-21,1,,,,,エーエムエムホールディングス,0
1937,7011101106612,新規,0,2024-03-21,2024-03-21,株式会社敬愛,,株式会社,東京都,新宿区,歌舞伎町２丁目４番１４－１４１０号,,13,104,1600021,,,,,,,2024-03-21,1,,,,,ケイアイ,0
1938,7011101106620,新規,0,2024-03-21,2024-03-21,株式会社ＭＯＦＦ,,株式会社,東京都,新宿区,上落合１丁目３０番１５－８０９号,,13,104,1610034,,,,,,,2024-03-21,1,,,,,モフ,0
1939,7011101106637,新規,0,2024-03-21,2024-03-21,株式会社ｎ０ｆｆｉｃｉａｌ,,株式会社,東京都,新宿区,西新宿３丁目３番１３号西新宿水間ビル２Ｆ,,13,104,1600023,,,,,,,2024-03-21,1,,,,,ノフィシャル,0
1940,7011103014202,新規,0,2024-03-21,2024-03-21,Ｇｌｏｂａｌ　Ｌｉｎｋ　Ｓｅｒｖｉｃｅｓ合同会社,,合同会社,東京都,新宿区,西新宿３丁目３番１３号西新宿水間ビル６階,,13,104,1600023,,,,,,,2024-03-21,1,,,,,グローバルリンクサービス,0
1941,7011103014227,新規,0,2024-03-21,2024-03-21,合同会社ＯＯ,,合同会社,東京都,新宿区,西新宿７丁目２２番３号ＢＰビル１０２号,,13,104,1600023,,,,,,,2024-03-21,1,,,,,ダブルオー,0
1942,7011103014243,新規,0,2024-03-21,2024-03-21,合同会社ジェイ・イー・ワイ,,合同会社,東京都,新宿区,下宮比町１番４号,,13,104,1620822,,,,,,,2024-03-21,1,,,,,ジェイイーワイ,0
1943,7011301029506,新規,0,2024-03-21,2024-03-21,株式会社なかむら工務店,,株式会社,東京都,杉並区,成田東５丁目６番１３号コーポ海老原２０２,,13,115,1660015,,,,,,,2024-03-21,1,,,,,ナカムラコウムテン,0
1947,7011501030437,新規,0,2024-03-21,2024-03-21,株式会社栄一,,株式会社,東京都,北区,豊島５丁目４番１－３２９号,,13,117,1140003,,,,,,,2024-03-21,1,,,,,エイイチ,0
1949,7011801043931,新規,0,2024-03-21,2024-03-21,Ｓｋｙ　Ｄｉａｍｏｎｄ　Ｇｒｏｕｐ株式会社,,株式会社,東京都,足立区,綾瀬３丁目１９番１４号,,13,121,1200005,,,,,,,2024-03-21,1,,,,,スカイダイアモンドグループ,0
1950,7011801043948,新規,0,2024-03-21,2024-03-21,株式会社縁,,株式会社,東京都,葛飾区,水元１丁目１番６号,,13,122,1250032,,,,,,,2024-03-21,1,,,,,エニシ,0
1951,7012401041648,新規,0,2024-03-21,2024-03-21,株式会社Ｏｐｔｉｍｏｒｒｏｗ,,株式会社,東京都,小金井市,本町６丁目１０番３－９１３号コスモフォーラム武蔵小金井,,13,210,1840004,,,,,,,2024-03-21,1,,,,,オプティモロウ,0
1952,7012801023048,新規,0,2024-03-21,2024-03-21,ａａｌｔｏ　ａａｎｉ．株式会社,,株式会社,東京都,昭島市,昭和町５丁目１１番１５－４０２号,,13,207,1960015,,,,,,,2024-03-21,1,,,,,アアルトアアニドット,0
1953,7013301052231,新規,0,2024-03-21,2024-03-21,株式会社ＭＳＮインターナショナル,,株式会社,東京都,豊島区,池袋１丁目１５番１０－３０１号,,13,116,1700014,,,,,,,2024-03-21,1,,,,,エムエスエヌインターナショナル,0
1959,7020001156287,新規,0,2024-03-21,2024-03-21,Ｔｈｅ　ＧＯＡＴ株式会社,,株式会社,神奈川県,横浜市西区,みなとみらい４丁目４番２号横浜ブルーアベニューセンター１２階,,14,103,2200012,,,,,,,2024-03-21,1,,,,,ザゴート,0
1960,7020001156295,新規,0,2024-03-21,2024-03-21,株式会社徳永商会,,株式会社,神奈川県,横浜市西区,高島２丁目１１番２号スカイメナー横浜５１９,,14,103,2200011,,,,,,,2024-03-21,1,,,,,トクナガショウカイ,0
1961,7020001156312,新規,0,2024-03-21,2024-03-21,Ｌｉｎｋ株式会社,,株式会社,神奈川県,横浜市中区,桜木町１丁目１－７ヒューリックみなとみらい１０階,,14,104,2310062,,,,,,,2024-03-21,1,,,,,リンク,0
1962,7020001156329,新規,0,2024-03-21,2024-03-21,株式会社ＳＣＲＵＭ,,株式会社,神奈川県,横浜市神奈川区,鶴屋町２丁目１１番地５,,14,102,2210835,,,,,,,2024-03-21,1,,,,,スクラム,0
1963,7020001156337,新規,0,2024-03-21,2024-03-21,株式会社Ｅｘｏｄｕｓ,,株式会社,神奈川県,川崎市川崎区,川中島１丁目２２番９号エステートピア柏３０１,,14,131,2100803,,,,,,,2024-03-21,1,,,,,エクソダス,0
1964,7020001156353,新規,0,2024-03-21,2024-03-21,株式会社ビークルアシスト,,株式会社,神奈川県,川崎市高津区,下作延３丁目８番７号,,14,134,2130033,,,,,,,2024-03-21,1,,,,,ビークルアシスト,0
1969,7020003025746,新規,0,2024-03-21,2024-03-21,合同会社カメマル,,合同会社,神奈川県,横浜市戸塚区,矢部町６９０番地２プリンスハイツ戸塚３０１号,,14,110,2440002,,,,,,,2024-03-21,1,,,,,カメマル,0
1970,7020003025787,新規,0,2024-03-21,2024-03-21,ＵＫＥＲＵ合同会社,,合同会社,神奈川県,横浜市神奈川区,金港町５－１４クアドリフォリオ８階,,14,102,2210056,,,,,,,2024-03-21,1,,,,,ウケル,0
1973,7021003014284,新規,0,2024-03-21,2024-03-21,合同会社まぁぶるｚＤＸ,,合同会社,神奈川県,海老名市,杉久保北４丁目３－２－２０９,,14,215,2430410,,,,,,,2024-03-21,1,,,,,マーブルズディーエックス,0
1984,7030001159231,新規,0,2024-03-21,2024-03-21,ＨＦＡ＆Ｐｅｒｋｓ　ＢＤ株式会社,,株式会社,埼玉県,所沢市,松葉町３０番２３号,,11,208,3590044,,,,,,,2024-03-21,1,,,,,エイチエフエーアンドピークスビーディー,0
1985,7030001159248,新規,0,2024-03-21,2024-03-21,株式会社佐藤建設,,株式会社,埼玉県,さいたま市浦和区,領家３丁目４番２号エクセルコート領家２０３,,11,107,3300072,,,,,,,2024-03-21,1,,,,,サトウケンセツ,0
1986,7030001159264,新規,0,2024-03-21,2024-03-21,ＫＳＳ株式会社,,株式会社,埼玉県,上尾市,大字上１７５７番地８,,11,219,3620001,,,,,,,2024-03-21,1,,,,,ケイエスエス,0
1987,7030001159272,新規,0,2024-03-21,2024-03-21,玉川桜木株式会社,,株式会社,埼玉県,入間市,豊岡１丁目３番２５号半田ビル２階ＫＩＶオフィス入間Ｆ号室,,11,225,3580003,,,,,,,2024-03-21,1,,,,,タマガワサクラギ,0
1988,7030001159297,新規,0,2024-03-21,2024-03-21,株式会社Ｄｅｓｉｇｎ　Ｏｆｆｉｃｅ　ＡＢＥ,,株式会社,埼玉県,吉川市,木売２丁目３番地１７ライオンズマンション吉川駅前５０１号,,11,243,3420045,,,,,,,2024-03-21,1,,,,,デザインオフィスアベ,0
1989,7030001159355,新規,0,2024-03-21,2024-03-21,Ｌｏｆｔｙ　Ｂｅａｕｔｙ株式会社,,株式会社,埼玉県,川口市,大字木曽呂４７８番地の６８,,11,203,3330831,,,,,,,2024-03-21,1,,,,,ロフティービューティー,0
1990,7030001159363,新規,0,2024-03-21,2024-03-21,株式会社皇匠,,株式会社,埼玉県,さいたま市南区,文蔵４丁目１２番４号アートヒル文蔵１０１,,11,108,3360025,,,,,,,2024-03-21,1,,,,,コウショウ,0
1991,7030001159371,新規,0,2024-03-21,2024-03-21,株式会社エイドオン,,株式会社,埼玉県,草加市,稲荷５丁目３番１号,,11,221,3400003,,,,,,,2024-03-21,1,,,,,エイドオン,0
1997,7030005021585,新規,0,2024-03-21,2024-03-21,医療法人社団ＲＩＴＡ,,その他の設立登記法人,埼玉県,朝霞市,根岸台３丁目２０番１号くみまちモールあさか２階,,11,227,3510005,,,,,,,2024-03-21,1,,,,,リタ,0
2000,7040001132682,新規,0,2024-03-21,2024-03-21,サンクスネット株式会社,,株式会社,千葉県,佐倉市,王子台５丁目３６番地１０,,12,212,2850837,,,,,,,2024-03-21,1,,,,,サンクスネット,0
2001,7040001132690,新規,0,2024-03-21,2024-03-21,株式会社アオギリシステム,,株式会社,千葉県,柏市,西山２丁目２０番８号,,12,217,2770063,,,,,,,2024-03-21,1,,,,,アオギリシステム,0
2002,7040001132724,新規,0,2024-03-21,2024-03-21,京葉装美株式会社,,株式会社,千葉県,千葉市若葉区,高品町１６２番地１ハイツ宮の腰１０３号,,12,104,2640024,,,,,,,2024-03-21,1,,,,,ケイヨウソウビ,0
2003,7040001132773,新規,0,2024-03-21,2024-03-21,株式会社雄装,,株式会社,千葉県,茂原市,早野１１９９番地１２,,12,210,2970037,,,,,,,2024-03-21,1,,,,,ユウソウ,0
2004,7040003024564,新規,0,2024-03-21,2024-03-21,合同会社ＤＵ,,合同会社,千葉県,柏市,あけぼの２丁目１番２７号,,12,217,2770841,,,,,,,2024-03-21,1,,,,,ディーユー,0
2005,7040003024589,新規,0,2024-03-21,2024-03-21,合同会社マルダイホーム,,合同会社,千葉県,市原市,根田１丁目３番地３ＮｅｗＲｉｃｈＩＩ２０５,00134140,12,219,2900024,,,,,,,2024-03-21,1,,,,,マルダイホーム,0
2006,7040003024597,新規,0,2024-03-21,2024-03-21,合同会社ＬＴＥＥソリューション,,合同会社,千葉県,千葉市美浜区,打瀬１丁目１１－１グリーナＡ２３２,,12,106,2610013,,,,,,,2024-03-21,1,,,,,エルティイソリューション,0
2007,7040003024606,新規,0,2024-03-21,2024-03-21,合同会社イノマール,,合同会社,千葉県,東金市,八坂台５丁目３２番地１,,12,213,2830801,,,,,,,2024-03-21,1,,,,,イノマール,0
2009,7050001054488,新規,0,2024-03-21,2024-03-21,ＲｅＮＥＳＵＳＳ株式会社,,株式会社,茨城県,笠間市,泉２２５３番地９,,08,216,3190209,,,,,,,2024-03-21,1,,,,,レネサス,0
2012,7050003008211,新規,0,2024-03-21,2024-03-21,合同会社ＩＮＣＡＮＴｏ,,合同会社,茨城県,つくば市,水守１３７３番地２,,08,220,3004245,,,,,,,2024-03-21,1,,,,,インカント,0
2013,7050005013408,新規,0,2024-03-21,2024-03-21,医療法人クジラ会,,その他の設立登記法人,茨城県,土浦市,田中３丁目４－４１,,08,203,3000048,,,,,,,2024-03-21,1,,,,,クジラカイ,0
2015,7060001036931,新規,0,2024-03-21,2024-03-21,株式会社野口工業,,株式会社,栃木県,宇都宮市,茂原１丁目３番１５－３号,,09,201,3210145,,,,,,,2024-03-21,1,,,,,ノグチコウギョウ,0
2025,7070001041492,新規,0,2024-03-21,2024-03-21,株式会社ＹＴ企画,,株式会社,群馬県,太田市,新田木崎町５４２番地３,,10,205,3700321,,,,,,,2024-03-21,1,,,,,ワイティーキカク,0
2028,7080101024594,新規,0,2024-03-21,2024-03-21,株式会社伊豆ナッツ,,株式会社,静岡県,賀茂郡河津町,逆川３８５番地の１,,22,302,4130516,,,,,,,2024-03-21,1,,,,,イズナッツ,0
2031,7090003002532,新規,0,2024-03-21,2024-03-21,合同会社ＷｉＧＯＴ,,合同会社,山梨県,都留市,田原２丁目５－２６,,19,204,4020054,,,,,,,2024-03-21,1,,,,,ウィゴット,0
2032,7090005007620,新規,0,2024-03-21,2024-03-21,一般社団法人ウエルネスＹＯＧＡ,,その他の設立登記法人,山梨県,大月市,駒橋３丁目１番１３号,,19,206,4010011,,,,,,,2024-03-21,1,,,,,ウエルネスヨーガ,0
2034,7100003007447,新規,0,2024-03-21,2024-03-21,合同会社ＶＯＬＥＲ,,合同会社,長野県,長野市,川中島町上氷鉋７１５番,,20,201,3812233,,,,,,,2024-03-21,1,,,,,ヴォレ,0
2036,7110001038245,新規,0,2024-03-21,2024-03-21,株式会社ＴＡＫＡＫＵＮＩホールディングス,,株式会社,新潟県,新潟市江南区,天野１７５９番地１,,15,104,9501134,,,,,,,2024-03-21,1,,,,,タカクニホールディングス,0
2041,7120001263040,新規,0,2024-03-21,2024-03-21,だるまや住まい株式会社,,株式会社,大阪府,大阪市天王寺区,真田山町２番３号住真田山２０１号,,27,109,5430015,,,,,,,2024-03-21,1,,,,,ダルマヤスマイ,0
2042,7120001263164,新規,0,2024-03-21,2024-03-21,ＷＩＮｇ　Ｍｅｄｉｃａｌ株式会社,,株式会社,大阪府,枚方市,星丘３丁目１番４３号,,27,210,5730013,,,,,,,2024-03-21,1,,,,,ウイングメディカル,0
2043,7120001263197,新規,0,2024-03-21,2024-03-21,株式会社河本ＨＤ２,,株式会社,大阪府,大阪市城東区,鴫野西５丁目１９番３５－１４０２号,,27,118,5360014,,,,,,,2024-03-21,1,,,,,カワモトエイチディーツー,0
2044,7120001263239,新規,0,2024-03-21,2024-03-21,株式会社アイエイト,,株式会社,大阪府,大阪市中央区,南船場４丁目７番５号アオイビル８階,,27,128,5420081,,,,,,,2024-03-21,1,,,,,アイエイト,0
2045,7120001263288,新規,0,2024-03-21,2024-03-21,リトルブレイク株式会社,,株式会社,大阪府,大阪市北区,梅田１丁目２番２号,,27,127,5300001,,,,,,,2024-03-21,1,,,,,リトルブレイク,0
2046,7120001263296,新規,0,2024-03-21,2024-03-21,株式会社食卓,,株式会社,大阪府,大阪市中央区,博労町４丁目７番２号,,27,128,5410059,,,,,,,2024-03-21,1,,,,,ショクタク,0
2047,7120001263338,新規,0,2024-03-21,2024-03-21,サクセスカンパニー株式会社,,株式会社,大阪府,大阪市中央区,東心斎橋１丁目１６番２４号ラ・メールビル４階,,27,128,5420083,,,,,,,2024-03-21,1,,,,,サクセスカンパニー,0
2048,7120001263437,新規,0,2024-03-21,2024-03-21,路安株式会社,,株式会社,大阪府,大阪市中央区,南船場１丁目３－９,,27,128,5420081,,,,,,,2024-03-21,1,,,,,ロアン,0
2053,7120101069222,新規,0,2024-03-21,2024-03-21,株式会社エムフィールド,,株式会社,大阪府,堺市西区,山田１丁１２３５番地１０,,27,144,5938316,,,,,,,2024-03-21,1,,,,,エムフィールド,0
2054,7120101069239,新規,0,2024-03-21,2024-03-21,株式会社笑顔いっぱい,,株式会社,大阪府,泉南郡熊取町,久保３丁目６番１４号,,27,361,5900441,,,,,,,2024-03-21,1,,,,,エガオイッパイ,0
2055,7120101069247,新規,0,2024-03-21,2024-03-21,株式会社サン・ウォッシュ,,株式会社,大阪府,堺市西区,神野町２丁１５－３３－３０５,,27,144,5938308,,,,,,,2024-03-21,1,,,,,サンウォッシュ,0
2058,7120103005729,新規,0,2024-03-21,2024-03-21,合同会社ビーヴィレッジ,,合同会社,大阪府,南河内郡河南町,大字上河内４８２－１,,27,382,5850024,,,,,,,2024-03-21,1,,,,,ビーヴィレッジ,0
2059,7120103005737,新規,0,2024-03-21,2024-03-21,合同会社ＹＮリフォーム,,合同会社,大阪府,羽曳野市,恵我之荘２丁目８番８号,,27,222,5830886,,,,,,,2024-03-21,1,,,,,ワイエヌリフォーム,0
2061,7120901048904,新規,0,2024-03-21,2024-03-21,株式会社Ｃｒｅａｔｉｖｅ　Ｉｎｎｏｖａｔｉｏｎ,,株式会社,大阪府,池田市,栄本町５番７号,,27,204,5630058,,,,,,,2024-03-21,1,,,,,クリエイティブイノベーション,0
2062,7120901048920,新規,0,2024-03-21,2024-03-21,株式会社やすおか,,株式会社,大阪府,豊中市,緑丘２丁目５番１５号,,27,203,5600002,,,,,,,2024-03-21,1,,,,,ヤスオカ,0
2066,7130001076598,新規,0,2024-03-21,2024-03-21,株式会社Ｋ．Ｒ．Ｎ,,株式会社,京都府,京都市伏見区,下鳥羽北円面田町９ＯＷＬ１０２,,26,109,6128497,,,,,,,2024-03-21,1,,,,,ケーアールエヌ,0
2067,7130001076623,新規,0,2024-03-21,2024-03-21,株式会社Ｓ・Ｓ・ＵＰ,,株式会社,京都府,長岡京市,東神足２丁目５０１番地１,,26,209,6170832,,,,,,,2024-03-21,1,,,,,エスエスアップ,0
2072,7140001133729,新規,0,2024-03-21,2024-03-21,株式会社くるみ,,株式会社,兵庫県,西宮市,甲子園口３丁目１０番２４－１０５号,,28,204,6638113,,,,,,,2024-03-21,1,,,,,クルミ,0
2073,7140001133737,新規,0,2024-03-21,2024-03-21,株式会社Ｍ＆Ｍ,,株式会社,兵庫県,神戸市北区,上津台２丁目４０番５号,,28,109,6511515,,,,,,,2024-03-21,1,,,,,エムアンドエム,0
2082,7160001025767,新規,0,2024-03-21,2024-03-21,株式会社一栄ホールディングス,,株式会社,滋賀県,近江八幡市,長光寺町７８１番地１５,,25,204,5230013,,,,,,,2024-03-21,1,,,,,イチエイホールディングス,0
2083,7160003003143,新規,0,2024-03-21,2024-03-21,合同会社Ｌｉｂｅｒｔｙ　Ｓｙｎｃ　Ｈｏｌｄｉｎｇｓ,,合同会社,滋賀県,高島市,鹿ケ瀬６４番地１７,,25,212,5201142,,,,,,,2024-03-21,1,,,,,リバティーシンクホールディングス,0
2091,7180001160554,新規,0,2024-03-21,2024-03-21,株式会社如月,,株式会社,愛知県,一宮市,木曽川町外割田字北乙五郎６２番地１,,23,203,4930007,,,,,,,2024-03-21,1,,,,,キサラギ,0
2092,7180001160562,新規,0,2024-03-21,2024-03-21,コアズＨＤ株式会社,,株式会社,愛知県,名古屋市中区,錦１丁目１６番２０号,,23,106,4600003,,,,,,,2024-03-21,1,,,,,コアズホールディングス,0
2093,7180001160579,新規,0,2024-03-21,2024-03-21,株式会社りゅばん,,株式会社,愛知県,名古屋市瑞穂区,松月町５丁目３５番地,,23,108,4670004,,,,,,,2024-03-21,1,,,,,リュバン,0
2094,7180001160637,新規,0,2024-03-21,2024-03-21,株式会社マルイチホールディングス,,株式会社,愛知県,瀬戸市,陶本町４丁目６番地,,23,204,4890045,,,,,,,2024-03-21,1,,,,,マルイチホールディングス,0
2095,7180001160686,新規,0,2024-03-21,2024-03-21,Ｙ’ｓアドバンス株式会社,,株式会社,愛知県,名古屋市守山区,小六町１３番９号,,23,113,4630054,,,,,,,2024-03-21,1,,,,,ワイズアドバンス,0
2103,7180003026497,新規,0,2024-03-21,2024-03-21,合同会社愛子,,合同会社,愛知県,名古屋市西区,大野木５丁目１０７番地,,23,104,4520803,,,,,,,2024-03-21,1,,,,,アイコ,0
2106,7190001031192,新規,0,2024-03-21,2024-03-21,こころＲｅＨｏｍｅ株式会社,,株式会社,三重県,鈴鹿市,林崎２丁目１５‐２６,,24,207,5130058,,,,,,,2024-03-21,1,,,,,ココロリホーム,0
2107,7190001031201,新規,0,2024-03-21,2024-03-21,株式会社平尾商事,,株式会社,三重県,伊賀市,ゆめが丘３丁目１番地の６,,24,216,5180131,,,,,,,2024-03-21,1,,,,,ヒラオショウジ,0
2109,7190005011918,新規,0,2024-03-21,2024-03-21,医療法人藤重会,,その他の設立登記法人,三重県,松阪市,大黒田町４６９‐１,,24,204,5150063,,,,,,,2024-03-21,1,,,,,トウジュウカイ,0
2113,7210003001769,新規,0,2024-03-21,2024-03-21,合同会社田中,,合同会社,福井県,福井市,板垣２丁目１９１６番地,,18,201,9188104,,,,,,,2024-03-21,1,,,,,タナカ,0
2114,7220001025876,新規,0,2024-03-21,2024-03-21,株式会社ＣＰＭラボ,,株式会社,石川県,金沢市,四十万町リ６４番地１,,17,201,9218133,,,,,,,2024-03-21,1,,,,,シーピーエムラボ,0
2115,7220003003698,新規,0,2024-03-21,2024-03-21,合同会社ｍｒ,,合同会社,石川県,金沢市,富樫３丁目４番１７号ブライトリー富樫１,,17,201,9218171,,,,,,,2024-03-21,1,,,,,エムアール,0
2116,7230001020249,新規,0,2024-03-21,2024-03-21,株式会社Ｎｅｗ　Ｒｉｃｈ　Ｈｏｍｅ,,株式会社,富山県,滑川市,上小泉１６７５番地５,,16,206,9360053,,,,,,,2024-03-21,1,,,,,ニューリッチホーム,0
2117,7230003002170,新規,0,2024-03-21,2024-03-21,合同会社アプリシエイト,,合同会社,富山県,砺波市,高道５３‐２,,16,208,9391383,,,,,,,2024-03-21,1,,,,,アプリシエイト,0
2120,7240001062942,新規,0,2024-03-21,2024-03-21,株式会社Ｕ‐Ｌｏｃｋ　Ｌｉｂ,,株式会社,広島県,福山市,坪生町１丁目１５番２０号１０２,,34,207,7210903,,,,,,,2024-03-21,1,,,,,ユーロックリブ,0
2121,7240001062959,新規,0,2024-03-21,2024-03-21,株式会社セイノブ産業,,株式会社,広島県,竹原市,竹原町３５８９番地９,,34,203,7250021,,,,,,,2024-03-21,1,,,,,セイノブサンギョウ,0
2122,7240001062967,新規,0,2024-03-21,2024-03-21,株式会社ＡＲＡＴＡ,,株式会社,広島県,尾道市,平原２丁目２１番２２号,,34,205,7220018,,,,,,,2024-03-21,1,,,,,アラタ,0
2124,7250003003456,新規,0,2024-03-21,2024-03-21,合同会社海匠徳山,,合同会社,山口県,周南市,銀座１丁目３１,,35,215,7450032,,,,,,,2024-03-21,1,,,,,カイショウトクヤマ,0
2131,7290001105119,新規,0,2024-03-21,2024-03-21,ＮＯＲＴＨ　ＦＩＥＬＤ　Ｍｅｄｉｃａｌ株式会社,,株式会社,福岡県,福岡市中央区,薬院１丁目１２番１０－１００４号,,40,133,8100022,,,,,,,2024-03-21,1,,,,,ノースフィールドメディカル,0
2132,7290001105151,新規,0,2024-03-21,2024-03-21,株式会社ＬａＶｉｔａ,,株式会社,福岡県,福岡市中央区,天神１丁目１―１アクロス福岡１階Ｆａｂｂｉｔ天神,,40,133,8100001,,,,,,,2024-03-21,1,,,,,ラヴィータ,0
2138,7290801030417,新規,0,2024-03-21,2024-03-21,株式会社ルネックスコーポレーション,,株式会社,福岡県,北九州市小倉北区,片野４丁目３番７号,,40,106,8020064,,,,,,,2024-03-21,1,,,,,ルネックスコーポレーション,0
2144,7310001018904,新規,0,2024-03-21,2024-03-21,株式会社海陽,,株式会社,長崎県,長崎市,琴海村松町１２２番地１５,,42,201,8513102,,,,,,,2024-03-21,1,,,,,カイヨウ,0
2147,7320001020371,新規,0,2024-03-21,2024-03-21,株式会社ｎｉｌ,,株式会社,大分県,大分市,大字横尾１８７２番地の１,,44,201,8700126,,,,,,,2024-03-21,1,,,,,ニル,0
2152,7330001031871,新規,0,2024-03-21,2024-03-21,株式会社ＧＲＡＣＥ　ＪＡＰＡＮ,,株式会社,熊本県,熊本市北区,植木町植木５５５番地ショッピングプラザウエッキー２Ｆ,,43,105,8610132,,,,,,,2024-03-21,1,,,,,グレースジャパン,0
2153,7330001031888,新規,0,2024-03-21,2024-03-21,株式会社のら,,株式会社,熊本県,球磨郡山江村,大字山田丙５２６番地,,43,512,8680092,,,,,,,2024-03-21,1,,,,,ノラ,0
2154,7330003010270,新規,0,2024-03-21,2024-03-21,合同会社Ｋｏｎｔｉ．,,合同会社,熊本県,上益城郡嘉島町,大字上島２１８２番地１２,,43,442,8613106,,,,,,,2024-03-21,1,,,,,コンティ,0
2158,7350001018850,新規,0,2024-03-21,2024-03-21,株式会社Ｃａｒｓｈｏｐ　Ｓｅｅｋｆｏｒ,,株式会社,宮崎県,宮崎市,山崎町四郎房９１２番地,,45,201,8800836,,,,,,,2024-03-21,1,,,,,カーショップシークフォー,0
2162,7360001033329,新規,0,2024-03-21,2024-03-21,株式会社Ｑｕｅｅｎ’ｓ　ＲＯＣＫ,,株式会社,沖縄県,中頭郡西原町,上原２丁目２８番地の１２,,47,329,9030125,,,,,,,2024-03-21,1,,,,,クイーンズロック,0
2163,7360001033353,新規,0,2024-03-21,2024-03-21,株式会社源楽,,株式会社,沖縄県,名護市,字源河２５３４番地４２６,,47,209,9051141,,,,,,,2024-03-21,1,,,,,ゲンラク,0
2165,7370001051057,新規,0,2024-03-21,2024-03-21,ＩＭＧ株式会社,,株式会社,宮城県,仙台市青葉区,大町１丁目１番１０号シエリアタワー仙台青葉通１５０４,,04,101,9800804,,,,,,,2024-03-21,1,,,,,アイエムジー,0
2166,7370001051073,新規,0,2024-03-21,2024-03-21,ｍｅｅｔ　ｍａｎｉａ株式会社,,株式会社,宮城県,仙台市青葉区,柏木１丁目４番３１号,,04,101,9810933,,,,,,,2024-03-21,1,,,,,ミートマニア,0
2170,7420001018637,新規,0,2024-03-21,2024-03-21,株式会社ＮｉｃｅＨｉｒｏｓａｋｉ,,株式会社,青森県,弘前市,大字南大町１丁目８番地７,,02,202,0368006,,,,,,,2024-03-21,1,,,,,ナイスヒロサキ,0
2173,7430001091369,新規,0,2024-03-21,2024-03-21,株式会社ＭＳＴ,,株式会社,北海道,苫小牧市,美原町２丁目２７番１６号,,01,213,0591262,,,,,,,2024-03-21,1,,,,,エムエスティー,0
2174,7440001009403,新規,0,2024-03-21,2024-03-21,株式会社ＬａｎｄＧｒｏｏｖｅ,,株式会社,北海道,北斗市,市渡１８番地の１０,,01,236,0411242,,,,,,,2024-03-21,1,,,,,ランドグルーヴ,0
2177,7470003002601,新規,0,2024-03-21,2024-03-21,合同会社寿,,合同会社,香川県,高松市,一宮町６５１番地１１,,37,201,7618084,,,,,,,2024-03-21,1,,,,,ヒサシ,0
2179,7480003002105,新規,0,2024-03-21,2024-03-21,ＭＹ合同会社,,合同会社,徳島県,徳島市,中常三島町１丁目３－１－２０５,,36,201,7700813,,,,,,,2024-03-21,1,,,,,エムワイ,0
2187,8010001243151,新規,0,2024-03-21,2024-03-21,株式会社グレートハック,,株式会社,東京都,千代田区,東神田１丁目１１番４号東神田藤井ビル４階,,13,101,1010031,,,,,,,2024-03-21,1,,,,,グレートハック,0
2188,8010001243168,新規,0,2024-03-21,2024-03-21,株式会社吉川デザイン事務所,,株式会社,東京都,中央区,日本橋富沢町５番１０号,,13,102,1030006,,,,,,,2024-03-21,1,,,,,キッカワデザインジムショ,0
2189,8010001243184,新規,0,2024-03-21,2024-03-21,株式会社ＲＥＬＩＥＦ　ＣＯＮＮＥＣＴＩＯＮ,,株式会社,東京都,中央区,日本橋蛎殻町１丁目１４番１３－１００１号,,13,102,1030014,,,,,,,2024-03-21,1,,,,,リリーフコネクション,0
2190,8010001243201,新規,0,2024-03-21,2024-03-21,株式会社ＭＡＲＫＫ,,株式会社,東京都,中央区,銀座１丁目１２－４Ｎ＆Ｅ．ＢＬＤ．７階,,13,102,1040061,,,,,,,2024-03-21,1,,,,,マーク,0
2191,8010001243226,新規,0,2024-03-21,2024-03-21,ＺＡＩＺＡＩ株式会社,,株式会社,東京都,千代田区,神田錦町３丁目２１番地,,13,101,1010054,,,,,,,2024-03-21,1,,,,,ザイザイ,0
2192,8010001243242,新規,0,2024-03-21,2024-03-21,株式会社スマート・ゴーイング・コンサーン,,株式会社,東京都,中央区,日本橋室町１丁目１１番１２号日本橋水野ビル７階,,13,102,1030022,,,,,,,2024-03-21,1,,,,,スマートゴーイングコンサーン,0
2193,8010001243275,新規,0,2024-03-21,2024-03-21,開晴トレーディング株式会社,,株式会社,東京都,千代田区,富士見１丁目３番１１号富士見デュープレックスＢ’ｓ４階,,13,101,1020071,,,,,,,2024-03-21,1,,,,,カイセイトレーディング,0
2194,8010001243283,新規,0,2024-03-21,2024-03-21,株式会社リガール,,株式会社,東京都,千代田区,永田町２丁目１７番５号,,13,101,1000014,,,,,,,2024-03-21,1,,,,,リガール,0
2195,8010001243291,新規,0,2024-03-21,2024-03-21,ＵＰＰＥＲＨＡＮＤ　Ｊａｐａｎ株式会社,,株式会社,東京都,中央区,新川１丁目３番２１号,,13,102,1040033,,,,,,,2024-03-21,1,,,,,アッパーハンドジャパン,0
2196,8010001243309,新規,0,2024-03-21,2024-03-21,Ｅｌｅｖａ　Ａｄｖｉｓｏｒｙ株式会社,,株式会社,東京都,中央区,日本橋室町１丁目１１番１２号日本橋水野ビル７階,,13,102,1030022,,,,,,,2024-03-21,1,,,,,エレバアドバイザリー,0
2203,8010005038028,新規,0,2024-03-21,2024-03-21,一般社団法人日本高度医療推進機構,,その他の設立登記法人,東京都,千代田区,紀尾井町１番１１号ウスイ紀尾井町ビル１階,,13,101,1020094,,,,,,,2024-03-21,1,,,,,ニホンコウドイリョウスイシンキコウ,0
2208,8010401180960,新規,0,2024-03-21,2024-03-21,ＷｅｓｔＰａｃ　Ｔｒｕｓｔ　Ｉｎｖｅｓｔｍｅｎｔ　Ｂａｎｋ株式会社,,株式会社,東京都,港区,北青山３丁目２番２号７階,,13,103,1070061,,,,,,,2024-03-21,1,,,,,ウェストパックトラストインベストメントバンク,0
2209,8010401181109,新規,0,2024-03-21,2024-03-21,ＡＲ株式会社,,株式会社,東京都,港区,六本木６丁目１番２０号電気ビル７Ｆ,,13,103,1060032,,,,,,,2024-03-21,1,,,,,エーアール,0
2210,8010401181125,新規,0,2024-03-21,2024-03-21,株式会社ＮＩＣＨＡ,,株式会社,東京都,港区,赤坂６丁目７番１４－５０８号,,13,103,1070052,,,,,,,2024-03-21,1,,,,,ニーチャ,0
2211,8010401181133,新規,0,2024-03-21,2024-03-21,株式会社プレイヤーズエージェンシー,,株式会社,東京都,港区,南青山４丁目１７番３３号,,13,103,1070062,,,,,,,2024-03-21,1,,,,,プレイヤーズエージェンシー,0
2212,8010401181141,新規,0,2024-03-21,2024-03-21,ＤＩＡＶＡＮＴＥ　Ｂｉｊｏｕｘ株式会社,,株式会社,東京都,港区,白金台２丁目９番３１号ＳＨＩＲＯＧＡＮＥＤＡＩＭＩＺＵＫＩＨＯＭＥ２０１,,13,103,1080071,,,,,,,2024-03-21,1,,,,,ディアバンテビジュー,0
2213,8010401181166,新規,0,2024-03-21,2024-03-21,株式会社ｔｅａｍ‐Ｘ,,株式会社,東京都,港区,芝大門１丁目６番１０－２０３号,,13,103,1050012,,,,,,,2024-03-21,1,,,,,チームエックス,0
2214,8010401181199,新規,0,2024-03-21,2024-03-21,ＳＵＭＩ　Ｇｌｏｂａｌ　Ｐａｒｔｎｅｒｓ株式会社,,株式会社,東京都,港区,白金３丁目１番１３号日恵ビル２階,,13,103,1080072,,,,,,,2024-03-21,1,,,,,スミグローバルパートナーズ,0
2216,8010403032185,新規,0,2024-03-21,2024-03-21,合同会社アズーラ,,合同会社,東京都,港区,南麻布５丁目２番５号,,13,103,1060047,,,,,,,2024-03-21,1,,,,,アズーラ,0
2217,8010403032193,新規,0,2024-03-21,2024-03-21,ＪＢ合同会社,,合同会社,東京都,港区,南青山３丁目８番４０号青山センタービル２階,,13,103,1070062,,,,,,,2024-03-21,1,,,,,ジェイビー,0
2218,8010403032202,新規,0,2024-03-21,2024-03-21,合同会社ｅｔｏｉｌｅ,,合同会社,東京都,港区,芝浦４丁目２０番２－１３２２号,,13,103,1080023,,,,,,,2024-03-21,1,,,,,エトワール,0
2219,8010403032210,新規,0,2024-03-21,2024-03-21,合同会社ワンダーベース,,合同会社,東京都,港区,六本木３丁目１番３０号Ａ・Ｂビル６階,,13,103,1060032,,,,,,,2024-03-21,1,,,,,ワンダーベース,0
2223,8010501051905,新規,0,2024-03-21,2024-03-21,ＭＲＨ国際株式会社,,株式会社,東京都,台東区,台東２丁目３１番１０号第２掛川ビル１１０号室,,13,106,1100016,,,,,,,2024-03-21,1,,,,,エムアールエイチコクサイ,0
2224,8010501051962,新規,0,2024-03-21,2024-03-21,株式会社Ａ・ＤＩＭＥＮＳＩＯＮ,,株式会社,東京都,台東区,蔵前４丁目２２番２号スギタビル５Ｆ,,13,106,1110051,,,,,,,2024-03-21,1,,,,,エーディメンション,0
2226,8010503007384,新規,0,2024-03-21,2024-03-21,Ｍａｒ合同会社,,合同会社,東京都,台東区,池之端４丁目３番８号,,13,106,1100008,,,,,,,2024-03-21,1,,,,,マール,0
2229,8010601064856,新規,0,2024-03-21,2024-03-21,株式会社東京エネルギーシステム,,株式会社,東京都,江東区,潮見１丁目２８番８号ベイフレール潮見７０３,,13,108,1350052,,,,,,,2024-03-21,1,,,,,トウキョウエネルギーシステム,0
2230,8010603010718,新規,0,2024-03-21,2024-03-21,合同会社Ｌａｂ　ＣＡＬＥＲＡ,,合同会社,東京都,江東区,亀戸７丁目４番１２号ＬａＴｏｒｒｅ亀戸１０１,,13,108,1360071,,,,,,,2024-03-21,1,,,,,ラボカレラ,0
2231,8010701045715,新規,0,2024-03-21,2024-03-21,Ｍ株式会社,,株式会社,東京都,品川区,北品川５丁目３番１号パークシティ大崎ザタワー１２１２,,13,109,1410001,,,,,,,2024-03-21,1,,,,,エム,0
2232,8010803004882,新規,0,2024-03-21,2024-03-21,合同会社四葉技術,,合同会社,東京都,大田区,池上８丁目３番３号,,13,111,1460082,,,,,,,2024-03-21,1,,,,,ヨツバギジュツ,0
2236,8010901054895,新規,0,2024-03-21,2024-03-21,クロスウェイ株式会社,,株式会社,東京都,世田谷区,東玉川１丁目１３－１１,,13,112,1580084,,,,,,,2024-03-21,1,,,,,クロスウェイ,0
2237,8010901054912,新規,0,2024-03-21,2024-03-21,Ｍｏｍｅｎｔ　Ｗｏｒｋｓ株式会社,,株式会社,東京都,世田谷区,等々力４丁目１９番２０号,,13,112,1580082,,,,,,,2024-03-21,1,,,,,モーメントワークス,0
2239,8010903008908,新規,0,2024-03-21,2024-03-21,合同会社ＡＴＧ６５ＰＲＯＤＵＣＴＩＯＮＳ,,合同会社,東京都,世田谷区,世田谷３丁目１８番２１号,,13,112,1540017,,,,,,,2024-03-21,1,,,,,エーティージーシックスティーファイブプロダクションズ,0
2240,8010903008916,新規,0,2024-03-21,2024-03-21,合同会社ＤＥＭＡＧＥＭＥＮＴ,,合同会社,東京都,世田谷区,経堂４丁目１６番１４号シャルム千歳３０１,,13,112,1560052,,,,,,,2024-03-21,1,,,,,ディマジメント,0
2247,8011001160700,新規,0,2024-03-21,2024-03-21,Ｔｏｋｙｏ　Ｃａｐｉｔａｌ　Ｐａｒｔｎｅｒ株式会社,,株式会社,東京都,渋谷区,代々木３丁目２４番３号新宿スリーケービル,,13,113,1510053,,,,,,,2024-03-21,1,,,,,トーキョーキャピタルパートナー,0
2248,8011001160733,新規,0,2024-03-21,2024-03-21,株式会社ｍａｉｃｓ,,株式会社,東京都,目黒区,下目黒１丁目１番１４号コノトラビル７Ｆ,,13,110,1530064,,,,,,,2024-03-21,1,,,,,マイクス,0
2249,8011001160799,新規,0,2024-03-21,2024-03-21,棗商事株式会社,,株式会社,東京都,渋谷区,渋谷２丁目１９－１５宮益坂ビルディング６０９,,13,113,1500002,,,,,,,2024-03-21,1,,,,,ナツメショウジ,0
2254,8011003018723,新規,0,2024-03-21,2024-03-21,ＵＥＭＵＫＩ合同会社,,合同会社,東京都,渋谷区,渋谷２丁目１９－１５宮益坂ビルディング６０９,,13,113,1500002,,,,,,,2024-03-21,1,,,,,ウエムキ,0
2255,8011003018764,新規,0,2024-03-21,2024-03-21,合同会社エスコート・ランナー,,合同会社,東京都,渋谷区,恵比寿西２丁目８番４号ＥＸ恵比寿西ビル５階,,13,113,1500021,,,,,,,2024-03-21,1,,,,,エスコートランナー,0
2261,8011101106446,新規,0,2024-03-21,2024-03-21,株式会社Ｆａｌｏ．Ｓｏｌｏ,,株式会社,東京都,新宿区,上落合３丁目２０－６ＦＬレジデンス青英公館２０２,,13,104,1610034,,,,,,,2024-03-21,1,,,,,フォロソロ,0
2262,8011101106578,新規,0,2024-03-21,2024-03-21,慧子国際医療支援株式会社,,株式会社,東京都,新宿区,西新宿１丁目２６番２号新宿野村ビル３２階,,13,104,1600023,,,,,,,2024-03-21,1,,,,,サトココクサイイリョウシエン,0
2263,8011101106603,新規,0,2024-03-21,2024-03-21,株式会社ｇｉｖｅｒｓ　ＰＴ,,株式会社,東京都,新宿区,新宿６丁目２９番３号新宿桑原ビル５階,,13,104,1600022,,,,,,,2024-03-21,1,,,,,ギバーズピーティー,0
2264,8011101106636,新規,0,2024-03-21,2024-03-21,ＲＥＲＩＳＥ　ＪＡＰＡＮ株式会社,,株式会社,東京都,新宿区,新宿５丁目１８番２０号ルックハイツ新宿８０３号,,13,104,1600022,,,,,,,2024-03-21,1,,,,,リライズジャパン,0
2266,8011103014226,新規,0,2024-03-21,2024-03-21,合同会社ばつぐみ,,合同会社,東京都,新宿区,西新宿３丁目３番１３号西新宿水間ビル６階,,13,104,1600023,,,,,,,2024-03-21,1,,,,,バツグミ,0
2267,8011103014242,新規,0,2024-03-21,2024-03-21,合同会社ジェイ・イー・エックス,,合同会社,東京都,新宿区,下宮比町１番４号,,13,104,1620822,,,,,,,2024-03-21,1,,,,,ジェイイーエックス,0
2269,8011105010974,新規,0,2024-03-21,2024-03-21,弁護士法人東日本総合法律会計事務所,,その他の設立登記法人,東京都,新宿区,四谷１丁目２０番地４中村ビル別館１階,,13,104,1600004,,,,,,,2024-03-21,1,,,,,ヒガシニホンソウゴウホウリツカイケイジムショ,0
2273,8011301029505,新規,0,2024-03-21,2024-03-21,Ｙ＆Ｊ　Ｃｌｉｎｉｃａｌ株式会社,,株式会社,東京都,杉並区,天沼３丁目６番２７号,,13,115,1670032,,,,,,,2024-03-21,1,,,,,ワイアンドジェイクリニカル,0
2274,8011301029513,新規,0,2024-03-21,2024-03-21,株式会社プラティプス,,株式会社,東京都,杉並区,今川４丁目１４番１２号,,13,115,1670035,,,,,,,2024-03-21,1,,,,,プラティプス,0
2276,8011303005090,新規,0,2024-03-21,2024-03-21,合同会社幸感,,合同会社,東京都,杉並区,高円寺南５丁目３１番１０－２０５号,,13,115,1660003,,,,,,,2024-03-21,1,,,,,コウカン,0
2282,8011801043939,新規,0,2024-03-21,2024-03-21,株式会社サンイチゴ,,株式会社,東京都,足立区,新田３丁目２９番１－４１０号グランスイートハートアイランド,,13,121,1230865,,,,,,,2024-03-21,1,,,,,サンイチゴ,0
2284,8012701018147,新規,0,2024-03-21,2024-03-21,株式会社Ｋｙｌｉｎ,,株式会社,東京都,東村山市,諏訪町２丁目８－８,,13,213,1890021,,,,,,,2024-03-21,1,,,,,キリン,0
2287,8013101009372,新規,0,2024-03-21,2024-03-21,株式会社ＭＫオート,,株式会社,東京都,青梅市,新町８丁目２９番地の３,,13,205,1980024,,,,,,,2024-03-21,1,,,,,エムケーオート,0
2292,8020001156278,新規,0,2024-03-21,2024-03-21,株式会社Ｖｅｒｔｕ３７５,,株式会社,神奈川県,川崎市中原区,木月４丁目４番１号,,14,133,2110025,,,,,,,2024-03-21,1,,,,,ベルチュサンナナゴ,0
2293,8020001156294,新規,0,2024-03-21,2024-03-21,株式会社ＴＲＵＳＴ,,株式会社,神奈川県,横浜市戸塚区,戸塚町１９０５番地５,,14,110,2440003,,,,,,,2024-03-21,1,,,,,トラスト,0
2294,8020001156303,新規,0,2024-03-21,2024-03-21,株式会社ユキラボ,,株式会社,神奈川県,横浜市西区,北幸２丁目１０番４８号むつみビル３階,,14,103,2200004,,,,,,,2024-03-21,1,,,,,ユキラボ,0
2295,8020001156311,新規,0,2024-03-21,2024-03-21,株式会社Ｈｏｌｏｍｕａ,,株式会社,神奈川県,横浜市保土ケ谷区,法泉１丁目４番２－１００３号,,14,106,2400032,,,,,,,2024-03-21,1,,,,,ホロムア,0
2296,8020001156336,新規,0,2024-03-21,2024-03-21,北川食品株式会社,,株式会社,神奈川県,横浜市神奈川区,神大寺４丁目３３番３２－１０２号,,14,102,2210801,,,,,,,2024-03-21,1,,,,,キタガワショクヒン,0
2297,8020001156344,新規,0,2024-03-21,2024-03-21,株式会社ミヤジマ塗装,,株式会社,神奈川県,横浜市栄区,亀井町２３番２０号,,14,115,2470028,,,,,,,2024-03-21,1,,,,,ミヤジマトソウ,0
2299,8020003025729,新規,0,2024-03-21,2024-03-21,Ｐｒｉｎｃｉｐｌｅ合同会社,,合同会社,神奈川県,横浜市西区,みなとみらいランドマークタワー２０階,,14,103,2200000,,,,,,,2024-03-21,1,,,,,プリンシプル,0
2300,8020003025753,新規,0,2024-03-21,2024-03-21,市村エステート合同会社,,合同会社,神奈川県,横浜市港南区,笹下４丁目１０番４号,,14,111,2340052,,,,,,,2024-03-21,1,,,,,イチムラエステート,0
2301,8020003025761,新規,0,2024-03-21,2024-03-21,ｇｒａｔｅｆｕｌ合同会社,,合同会社,神奈川県,川崎市多摩区,菅２丁目１５番３－４０２号,,14,135,2140001,,,,,,,2024-03-21,1,,,,,グレイトフル,0
2302,8020003025778,新規,0,2024-03-21,2024-03-21,合同会社マイクロアクション,,合同会社,神奈川県,横浜市中区,桜木町１丁目１０１番地１クロスゲート７階,,14,104,2310062,,,,,,,2024-03-21,1,,,,,マイクロアクション,0
2303,8020003025786,新規,0,2024-03-21,2024-03-21,スターダスト合同会社,,合同会社,神奈川県,横浜市保土ケ谷区,霞台２６番７号,,14,106,2400014,,,,,,,2024-03-21,1,,,,,スターダスト,0
2306,8021001081755,新規,0,2024-03-21,2024-03-21,キュービクルソリューションズ株式会社,,株式会社,神奈川県,相模原市南区,相南１丁目２４番３－５０１号,,14,153,2520312,,,,,,,2024-03-21,1,,,,,キュービクルソリューションズ,0
2307,8021001081763,新規,0,2024-03-21,2024-03-21,春株式会社,,株式会社,神奈川県,足柄下郡箱根町,仙石原１２８５番地の１７,,14,382,2500631,,,,,,,2024-03-21,1,,,,,ハル,0
2309,8021003014250,新規,0,2024-03-21,2024-03-21,Ｙ・Ｍテクノロジー合同会社,,合同会社,神奈川県,大和市,下鶴間５１８５,,14,213,2420001,,,,,,,2024-03-21,1,,,,,ワイエムテクノロジー,0
2310,8021003014275,新規,0,2024-03-21,2024-03-21,Ｐｅｒ　Ｓｏｌｅｍ合同会社,,合同会社,神奈川県,海老名市,国分南２丁目１６番５－７４７号,,14,215,2430405,,,,,,,2024-03-21,1,,,,,ペルソレム,0
2316,8030001159107,新規,0,2024-03-21,2024-03-21,株式会社ソーダチャン,,株式会社,埼玉県,蓮田市,馬込５丁目４６２番地,,11,238,3490114,,,,,,,2024-03-21,1,,,,,ソーダチャン,0
2317,8030001159263,新規,0,2024-03-21,2024-03-21,株式会社ＴＳＣ,,株式会社,埼玉県,春日部市,谷原新田２１２１－２８,,11,214,3440035,,,,,,,2024-03-21,1,,,,,ティエスシー,0
2318,8030001159288,新規,0,2024-03-21,2024-03-21,株式会社ｓｋｙＦ,,株式会社,埼玉県,吉川市,大字高久６８９番,,11,243,3420035,,,,,,,2024-03-21,1,,,,,スカイエフ,0
2319,8030001159296,新規,0,2024-03-21,2024-03-21,株式会社ティーコンサル,,株式会社,埼玉県,北葛飾郡杉戸町,倉松４丁目１番４５号,,11,464,3450034,,,,,,,2024-03-21,1,,,,,ティーコンサル,0
2320,8030001159313,新規,0,2024-03-21,2024-03-21,株式会社ブライトドア,,株式会社,埼玉県,川越市,大字山田１７２８番地８,,11,201,3500822,,,,,,,2024-03-21,1,,,,,ブライトドア,0
2321,8030001159346,新規,0,2024-03-21,2024-03-21,チャンネルアーキデザイン株式会社,,株式会社,埼玉県,さいたま市北区,盆栽町７４,,11,102,3310805,,,,,,,2024-03-21,1,,,,,チャンネルアーキデザイン,0
2323,8030003023839,新規,0,2024-03-21,2024-03-21,合同会社Ｃｈｉｌｌｉｓｍ,,合同会社,埼玉県,川越市,大字藤間２１３番地９,,11,201,3501142,,,,,,,2024-03-21,1,,,,,チルイズム,0
2326,8040001132731,新規,0,2024-03-21,2024-03-21,株式会社ＲＥＡＳＯＮＳ,,株式会社,千葉県,松戸市,千駄堀１６９６番地の４,,12,207,2702252,,,,,,,2024-03-21,1,,,,,リーズンズ,0
2327,8040001132756,新規,0,2024-03-21,2024-03-21,株式会社エスポワークス,,株式会社,千葉県,野田市,なみき３丁目５番１２号アルカディアＩＩ２０２号室,00134130,12,208,2700229,,,,,,,2024-03-21,1,,,,,エスポワークス,0
2329,8040003024571,新規,0,2024-03-21,2024-03-21,シルバーキャット合同会社,,合同会社,千葉県,千葉市花見川区,長作町１２３１番地５ダイヤモンドマンションビーランド２１７号,,12,102,2620044,,,,,,,2024-03-21,1,,,,,シルバーキャット,0
2330,8040003024588,新規,0,2024-03-21,2024-03-21,ちえのわ合同会社,,合同会社,千葉県,船橋市,本中山３丁目９番５号,,12,204,2730035,,,,,,,2024-03-21,1,,,,,チエノワ,0
2332,8050001054470,新規,0,2024-03-21,2024-03-21,株式会社Ｒｅｇｉｏｎ　Ｌｉｎｅ,,株式会社,茨城県,結城市,大字小田林１４０７番地,,08,207,3070007,,,,,,,2024-03-21,1,,,,,リージョンライン,0
2335,8050003008210,新規,0,2024-03-21,2024-03-21,ジネス合同会社,,合同会社,茨城県,つくば市,神郡５５番地４号,,08,220,3004212,,,,,,,2024-03-21,1,,,,,ジネス,0
2336,8050005013398,新規,0,2024-03-21,2024-03-21,特定非営利活動法人ＡＧＲＩ　ＢＡＴＯＮ　ＰＲＯＪＥＣＴ,,その他の設立登記法人,茨城県,龍ケ崎市,塗戸町２０４７番地,,08,208,3010803,,,,,,,2024-03-21,1,,,,,アグリバトンプロジェクト,0
2344,8060003004976,新規,0,2024-03-21,2024-03-21,Ｇｒａｃｅ合同会社,,合同会社,栃木県,日光市,板橋２３３４番地１,,09,206,3211102,,,,,,,2024-03-21,1,,,,,グレイス,0
2347,8070001041509,新規,0,2024-03-21,2024-03-21,株式会社ＬｉｎｏＧｒｏｗ,,株式会社,群馬県,高崎市,旭町３３番地,,10,202,3700052,,,,,,,2024-03-21,1,,,,,リノグロウ,0
2350,8080101024602,新規,0,2024-03-21,2024-03-21,株式会社まろく,,株式会社,静岡県,熱海市,上多賀１０６５－１２２９大島台２次１－８４６,,22,205,4130101,,,,,,,2024-03-21,1,,,,,マロク,0
2354,8090003002531,新規,0,2024-03-21,2024-03-21,ＳＬｉｍ　Ｂａｋｅｓ合同会社,,合同会社,山梨県,笛吹市,境川町寺尾４１９６番地,,19,211,4060854,,,,,,,2024-03-21,1,,,,,,0
2357,8100001037288,新規,0,2024-03-21,2024-03-21,株式会社Ｇａｎｅｓｈａ,,株式会社,長野県,飯田市,高羽町１丁目８番地６ＣＬＩＭＡＸビル１Ｆ,,20,205,3950051,,,,,,,2024-03-21,1,,,,,ガネーシャ,0
2359,8110001038260,新規,0,2024-03-21,2024-03-21,タカケン株式会社,,株式会社,新潟県,五泉市,青橋１２３１番地１,,15,218,9591755,,,,,,,2024-03-21,1,,,,,タカケン,0
2360,8110001038269,新規,0,2024-03-21,2024-03-21,株式会社ＣＬＪ,,株式会社,新潟県,燕市,吉田西太田３７６番地１,,15,213,9590221,,,,,,,2024-03-21,1,,,,,シーエルジェー,0
2367,8120001263171,新規,0,2024-03-21,2024-03-21,株式会社河本ＨＤ１,,株式会社,大阪府,大阪市城東区,鴫野西５丁目１９番３５－１４０２号,,27,118,5360014,,,,,,,2024-03-21,1,,,,,カワモトエイチディーワン,0
2368,8120001263205,新規,0,2024-03-21,2024-03-21,京熙株式会社,,株式会社,大阪府,大阪市大正区,三軒家西３丁目４番１６号中山ビル２１６Ａ,,27,108,5510001,,,,,,,2024-03-21,1,,,,,キョウキ,0
2369,8120001263270,新規,0,2024-03-21,2024-03-21,株式会社ＡＩＮＴ,,株式会社,大阪府,大阪市北区,西天満４丁目５番１６号二見老松Ｂｌｄ．１０２号室,,27,127,5300047,,,,,,,2024-03-21,1,,,,,アイント,0
2370,8120001263279,新規,0,2024-03-21,2024-03-21,株式会社メルヴェイユホールディングス,,株式会社,大阪府,大阪市東淀川区,西淡路３丁目１２番５号,,27,114,5330031,,,,,,,2024-03-21,1,,,,,メルヴェイユホールディングス,0
2371,8120001263320,新規,0,2024-03-21,2024-03-21,株式会社ｔａｃｔｉｃｓ　ｔｅｎｄｅｒ,,株式会社,大阪府,大阪市西区,立売堀４丁目７－２４ＴＭＧ阿波座ビル６０５,,27,106,5500012,,,,,,,2024-03-21,1,,,,,タクティクステンダー,0
2372,8120001263337,新規,0,2024-03-21,2024-03-21,ＡＫＡＲＩ‐Ａ不動産販売株式会社,,株式会社,大阪府,大阪市東成区,大今里１丁目３６番１９号,,27,115,5370012,,,,,,,2024-03-21,1,,,,,アカリエフドウサンハンバイ,0
2375,8120003026155,新規,0,2024-03-21,2024-03-21,合同会社ＪＯＨＮ’Ｓ　ＬＡＮＥ,,合同会社,大阪府,大阪市福島区,大開４丁目１番１１－１３１３号,,27,103,5530007,,,,,,,2024-03-21,1,,,,,ジョンズレーン,0
2376,8120003026171,新規,0,2024-03-21,2024-03-21,合同会社ウッドマン,,合同会社,大阪府,大阪市天王寺区,上汐４丁目４番２３－４０６号,,27,109,5430002,,,,,,,2024-03-21,1,,,,,ウッドマン,0
2382,8120101069238,新規,0,2024-03-21,2024-03-21,株式会社ＡＭＡＴＯＭＯ,,株式会社,大阪府,泉南市,岡田３丁目７番３３号,,27,228,5900531,,,,,,,2024-03-21,1,,,,,アマトモ,0
2383,8120101069246,新規,0,2024-03-21,2024-03-21,ラム・レムリア株式会社,,株式会社,大阪府,堺市堺区,三国ヶ丘御幸通１０－１三幸ビル５Ｆ,,27,141,5900028,,,,,,,2024-03-21,1,,,,,ラムレムリア,0
2384,8120101069254,新規,0,2024-03-21,2024-03-21,大部建装株式会社,,株式会社,大阪府,泉南市,樽井６丁目３番４７号,,27,228,5900521,,,,,,,2024-03-21,1,,,,,ダイブケンソウ,0
2385,8120101069270,新規,0,2024-03-21,2024-03-21,株式会社泉州ブラスト塗装,,株式会社,大阪府,堺市堺区,宿屋町東１丁１番５号７Ｆ－Ａ,,27,141,5900936,,,,,,,2024-03-21,1,,,,,センシュウブラストトソウ,0
2386,8120103005736,新規,0,2024-03-21,2024-03-21,合同会社しょっとすぽっと,,合同会社,大阪府,泉南郡田尻町,吉見６６４番地９,,27,362,5980092,,,,,,,2024-03-21,1,,,,,ショットスポット,0
2387,8120105009834,新規,0,2024-03-21,2024-03-21,一般社団法人水間門前町コ・デザイン区,,その他の設立登記法人,大阪府,貝塚市,水間６２４番地,,27,208,5970104,,,,,,,2024-03-21,1,,,,,ミズマモンゼンマチカイヅカコデザインク,0
2390,8122001037919,新規,0,2024-03-21,2024-03-21,株式会社興栄工業,,株式会社,大阪府,東大阪市,御幸町１５番６号,,27,227,5798057,,,,,,,2024-03-21,1,,,,,コウエイコウギョウ,0
2396,8130001076597,新規,0,2024-03-21,2024-03-21,三共ＨＬＤＧＳ株式会社,,株式会社,京都府,長岡京市,開田２丁目７番８,,26,209,6170826,,,,,,,2024-03-21,1,,,,,サンキョウホールディングス,0
2397,8130001076614,新規,0,2024-03-21,2024-03-21,株式会社宏栄,,株式会社,京都府,長岡京市,高台４丁目４番地５,,26,209,6170847,,,,,,,2024-03-21,1,,,,,コウエイ,0
2403,8140001133703,新規,0,2024-03-21,2024-03-21,株式会社寿,,株式会社,兵庫県,尼崎市,東難波町５丁目２－２２メゾンルネサンス１階,,28,202,6600892,,,,,,,2024-03-21,1,,,,,コトブキ,0
2404,8140001133752,新規,0,2024-03-21,2024-03-21,株式会社トップメンテ,,株式会社,兵庫県,芦屋市,岩園町３８番１６号１０１,,28,206,6590013,,,,,,,2024-03-21,1,,,,,トップメンテ,0
2405,8140003020305,新規,0,2024-03-21,2024-03-21,合同会社こうべ元町事務所,,合同会社,兵庫県,神戸市中央区,北長狭通４丁目８番３号,,28,110,6500012,,,,,,,2024-03-21,1,,,,,,0
2409,8160001025758,新規,0,2024-03-21,2024-03-21,Ｗｅｂランド株式会社,,株式会社,滋賀県,大津市,中庄２丁目１８番３１号,,25,201,5200837,,,,,,,2024-03-21,1,,,,,ウェブランド,0
2417,8180001160396,新規,0,2024-03-21,2024-03-21,株式会社ＯＭＨＧ,,株式会社,愛知県,名古屋市北区,黒川本通２丁目４６番地,,23,103,4620841,,,,,,,2024-03-21,1,,,,,オーエムエイチジー,0
2418,8180001160529,新規,0,2024-03-21,2024-03-21,株式会社ｈ＆ｍ,,株式会社,愛知県,名古屋市緑区,大高町字子ノ年１０番地,,23,114,4598001,,,,,,,2024-03-21,1,,,,,エイチアンドエム,0
2419,8180001160545,新規,0,2024-03-21,2024-03-21,株式会社イムラントレーディング,,株式会社,愛知県,清須市,朝日弥生１５２番地弥生ハウス２０３号,,23,233,4520932,,,,,,,2024-03-21,1,,,,,イムラントレーディング,0
2420,8180001160586,新規,0,2024-03-21,2024-03-21,株式会社ＣＡＮＴＡＳＴＩＣ,,株式会社,愛知県,名古屋市西区,上名古屋２丁目４番２号,,23,104,4510025,,,,,,,2024-03-21,1,,,,,キャンタスティック,0
2421,8180001160636,新規,0,2024-03-21,2024-03-21,株式会社ＥＬＥＦＡＮＴ,,株式会社,愛知県,名古屋市中村区,名駅南４丁目２４番５号第２森ビル４０１,,23,105,4500003,,,,,,,2024-03-21,1,,,,,エレファント,0
2422,8180001160669,新規,0,2024-03-21,2024-03-21,株式会社ＭＹＫコーポレーション,,株式会社,愛知県,名古屋市西区,新道１丁目１１番２４号,,23,104,4510043,,,,,,,2024-03-21,1,,,,,エムワイケイコーポレーション,0
2424,8190001031191,新規,0,2024-03-21,2024-03-21,花岡水産株式会社,,株式会社,三重県,度会郡南伊勢町,五ケ所浦３９４４番地,,24,472,5160101,,,,,,,2024-03-21,1,,,,,ハナオカスイサン,0
2425,8190005011917,新規,0,2024-03-21,2024-03-21,一般財団法人横山栄十郎記念会,,その他の設立登記法人,三重県,四日市市,北浜町８番１６号,,24,202,5100091,,,,,,,2024-03-21,1,,,,,ヨコヤマエイジュウロウキネンカイ,0
2426,8200003006272,新規,0,2024-03-21,2024-03-21,合同会社ＡＺシステムズ,,合同会社,岐阜県,岐阜市,六条北２丁目１３番７号,,21,201,5008359,,,,,,,2024-03-21,1,,,,,エーゼットシステムズ,0
2429,8230001020248,新規,0,2024-03-21,2024-03-21,株式会社ジー・スターサービス,,株式会社,富山県,高岡市,辻２８２番地,00134149,16,202,9330835,,,,,,,2024-03-21,1,,,,,,0
2431,8240003006582,新規,0,2024-03-21,2024-03-21,合同会社ＴＨＲＥＥ　ｏｆ　ＣＵＰＳ,,合同会社,広島県,広島市南区,黄金山町２０番９号,,34,103,7340041,,,,,,,2024-03-21,1,,,,,スリーオブカップス,0
2433,8260001038873,新規,0,2024-03-21,2024-03-21,Ｇｒｏｗｔｈ株式会社,,株式会社,岡山県,津山市,総社６１番地６,,33,203,7080007,,,,,,,2024-03-21,1,,,,,グロウス,0
2434,8260001038881,新規,0,2024-03-21,2024-03-21,株式会社ポルタジャッラ,,株式会社,岡山県,岡山市北区,幸町４－５カサセグーラ幸町１Ｆ,,33,101,7000903,,,,,,,2024-03-21,1,,,,,ポルタジャッラ,0
2437,8260003004601,新規,0,2024-03-21,2024-03-21,合同会社ＴＡＭＡＮＯげんこつ屋,,合同会社,岡山県,玉野市,築港２丁目１４－２,,33,204,7060002,,,,,,,2024-03-21,1,,,,,タマノゲンコツヤ,0
2438,8260003004618,新規,0,2024-03-21,2024-03-21,合同会社Ｃｈｅｅｒ　ｕｐ,,合同会社,岡山県,倉敷市,茶屋町早沖１５７７番地１５,,33,202,7101102,,,,,,,2024-03-21,1,,,,,チアアップ,0
2445,8290001105101,新規,0,2024-03-21,2024-03-21,株式会社ＭＵＡ,,株式会社,福岡県,糟屋郡篠栗町,大字尾仲９７５番地３０,,40,342,8112413,,,,,,,2024-03-21,1,,,,,エムユーエー,0
2446,8290001105167,新規,0,2024-03-21,2024-03-21,株式会社ロヂウラニコ,,株式会社,福岡県,福岡市城南区,樋井川３丁目８番７号,,40,136,8140153,,,,,,,2024-03-21,1,,,,,ロヂウラニコ,0
2447,8290003015067,新規,0,2024-03-21,2024-03-21,合同会社Ｅ・ＵＭ,,合同会社,福岡県,福岡市南区,寺塚２丁目１０－２,,40,134,8150074,,,,,,,2024-03-21,1,,,,,イウム,0
2448,8290003015075,新規,0,2024-03-21,2024-03-21,合同会社ＳＫＧ,,合同会社,福岡県,福岡市中央区,平尾４丁目４番２２,,40,133,8100014,,,,,,,2024-03-21,1,,,,,エスケージー,0
2449,8290003015091,新規,0,2024-03-21,2024-03-21,合同会社福津運送,,合同会社,福岡県,福津市,内殿１１５１番地,,40,224,8113205,,,,,,,2024-03-21,1,,,,,フクツウンソウ,0
2451,8290005019330,新規,0,2024-03-21,2024-03-21,一般財団法人福内山水緑化財団,,その他の設立登記法人,福岡県,福岡市博多区,博多駅南２丁目８－３５,,40,132,8120016,,,,,,,2024-03-21,1,,,,,フクナイサンスイリョッカザイダン,0
2453,8290801030399,新規,0,2024-03-21,2024-03-21,株式会社ノーブルグロウ,,株式会社,福岡県,北九州市八幡西区,引野１丁目２６番１号,,40,109,8060067,,,,,,,2024-03-21,1,,,,,ノーブルグロウ,0
2454,8290801030416,新規,0,2024-03-21,2024-03-21,株式会社ディオン,,株式会社,福岡県,北九州市小倉北区,浅野３丁目８番１号ＡＩＭビル６階,,40,106,8020001,,,,,,,2024-03-21,1,,,,,ディオン,0
2457,8290803004657,新規,0,2024-03-21,2024-03-21,合同会社笑．１,,合同会社,福岡県,北九州市八幡西区,鉄王２丁目２番４３号,,40,109,8060057,,,,,,,2024-03-21,1,,,,,エムワン,0
2461,8310001018911,新規,0,2024-03-21,2024-03-21,株式会社セナシーノ,,株式会社,長崎県,佐世保市,有福町４１８８番地１,,42,202,8593241,,,,,,,2024-03-21,1,,,,,セナシーノ,0
2462,8310003004752,新規,0,2024-03-21,2024-03-21,合同会社ＫＩＬＥＥＫ,,合同会社,長崎県,五島市,木場町２２６番地,,42,211,8530033,,,,,,,2024-03-21,1,,,,,キリーク,0
2469,8330005010771,新規,0,2024-03-21,2024-03-21,一般社団法人土地利用適正化支援機構,,その他の設立登記法人,熊本県,熊本市中央区,辛島町６９番地,,43,101,8600804,,,,,,,2024-03-21,1,,,,,トチリヨウテキセイカシエンキコウ,0
2472,8340003004403,新規,0,2024-03-21,2024-03-21,合同会社内野,,合同会社,鹿児島県,南さつま市,金峰町花瀬２１８６番地１,,46,220,8993512,,,,,,,2024-03-21,1,,,,,ウチノ,0
2475,8360001033294,新規,0,2024-03-21,2024-03-21,株式会社ミライテック沖縄,,株式会社,沖縄県,糸満市,西崎町３丁目３７５番地シンコウビル１Ｆ,,47,210,9010306,,,,,,,2024-03-21,1,,,,,ミライテックオキナワ,0
2476,8360001033336,新規,0,2024-03-21,2024-03-21,株式会社ＥＩＧＨＴ,,株式会社,沖縄県,浦添市,沢岻１丁目１番６号,,47,208,9012112,,,,,,,2024-03-21,1,,,,,エイト,0
2477,8360001033344,新規,0,2024-03-21,2024-03-21,株式会社ＡＣＴＰＬＡＮ,,株式会社,沖縄県,那覇市,首里山川町２丁目６９番地１４,,47,201,9030825,,,,,,,2024-03-21,1,,,,,アクトプラン,0
2478,8360001033352,新規,0,2024-03-21,2024-03-21,株式会社琉球七心楽,,株式会社,沖縄県,国頭郡本部町,字崎本部４３０番地,,47,308,9050225,,,,,,,2024-03-21,1,,,,,リュウキュウナナココラ,0
2479,8360001033369,新規,0,2024-03-21,2024-03-21,ＭＥＧ株式会社,,株式会社,沖縄県,豊見城市,字金良２９番地,,47,212,9010204,,,,,,,2024-03-21,1,,,,,エムイージー,0
2482,8370001051031,新規,0,2024-03-21,2024-03-21,株式会社Ａｎｐａｓ,,株式会社,宮城県,仙台市泉区,松森字斉兵衛５８番地の５２,,04,105,9813111,,,,,,,2024-03-21,1,,,,,アンパス,0
2483,8370001051064,新規,0,2024-03-21,2024-03-21,株式会社リぺララ,,株式会社,宮城県,遠田郡美里町,牛飼字新町２３番地１４,,04,505,9870004,,,,,,,2024-03-21,1,,,,,リペララ,0
2484,8370001051072,新規,0,2024-03-21,2024-03-21,株式会社ＮＲ,,株式会社,宮城県,仙台市泉区,館２丁目４番地の４,,04,105,9813214,,,,,,,2024-03-21,1,,,,,エヌアール,0
2485,8370003006520,新規,0,2024-03-21,2024-03-21,合同会社コネクト,,合同会社,宮城県,仙台市若林区,霞目２丁目１９番５号,,04,103,9840035,,,,,,,2024-03-21,1,,,,,コネクト,0
2489,8390003002220,新規,0,2024-03-21,2024-03-21,合同会社ドリームアセット,,合同会社,山形県,山形市,城南町３丁目３番１１号,,06,201,9900827,,,,,,,2024-03-21,1,,,,,ドリームアセット,0
2492,8420001018636,新規,0,2024-03-21,2024-03-21,株式会社ハート不動産,,株式会社,青森県,青森市,桜川７丁目４番１８号ラ・ネージュ桜川ＩＩ－１０２号,00134132,02,201,0300945,,,,,,,2024-03-21,1,,,,,ハートフドウサン,0
2494,8430003016075,新規,0,2024-03-21,2024-03-21,合同会社里都,,合同会社,北海道,札幌市北区,北十八条西５丁目１番２５号,,01,102,0010018,,,,,,,2024-03-21,1,,,,,リツ,0
2495,8430003016091,新規,0,2024-03-21,2024-03-21,合同会社４Ｌｉｎｋ,,合同会社,北海道,札幌市豊平区,月寒中央通１１丁目２番３３－１４０１号,,01,105,0620020,,,,,,,2024-03-21,1,,,,,フォーリンク,0
2496,8450001014260,新規,0,2024-03-21,2024-03-21,株式会社ライフエンジニア,,株式会社,北海道,旭川市,神楽岡七条７丁目５番１６号,,01,204,0788317,,,,,,,2024-03-21,1,,,,,ライフエンジニア,0
2503,8470001020083,新規,0,2024-03-21,2024-03-21,株式会社大志工業,,株式会社,香川県,仲多度郡多度津町,北鴨１丁目４番８－１１号,,37,404,7640022,,,,,,,2024-03-21,1,,,,,タイシコウギョウ,0
2504,8470001020091,新規,0,2024-03-21,2024-03-21,株式会社ソーシーズ,,株式会社,香川県,丸亀市,津森町９３８番地１,,37,202,7630052,,,,,,,2024-03-21,1,,,,,ソーシーズ,0
2505,8480001012410,新規,0,2024-03-21,2024-03-21,株式会社一哉,,株式会社,徳島県,海部郡海陽町,四方原字町西４５番地,,36,388,7750202,,,,,,,2024-03-21,1,,,,,イッサイ,0
2517,9010001243167,新規,0,2024-03-21,2024-03-21,株式会社きょうじん経営,,株式会社,東京都,中央区,日本橋室町１丁目１１番１２号日本橋水野ビル７階,,13,102,1030022,,,,,,,2024-03-21,1,,,,,キョウジンケイエイ,0
2518,9010001243183,新規,0,2024-03-21,2024-03-21,株式会社Ｍｕｌｔｉｐｌｅ　Ｊｏｂｓ　Ｐａｒｔｎｅｒ,,株式会社,東京都,中央区,入船２丁目１番１号入船ハイツ１３０５号室,,13,102,1040042,,,,,,,2024-03-21,1,,,,,マルティプルジョブズパートナー,0
2519,9010001243191,新規,0,2024-03-21,2024-03-21,教育フォース株式会社,,株式会社,東京都,文京区,白山４丁目２４番２３号,,13,105,1120001,,,,,,,2024-03-21,1,,,,,キョウイクフォース,0
2520,9010001243209,新規,0,2024-03-21,2024-03-21,株式会社Ｉｋｉｇａｉ,,株式会社,東京都,中央区,銀座１丁目１２番４号Ｎ＆ＥＢＬＤ．６Ｆ,,13,102,1040061,,,,,,,2024-03-21,1,,,,,イキガイ,0
2521,9010001243241,新規,0,2024-03-21,2024-03-21,株式会社Ｇｒｏｗｔｈ　Ｍ＆Ａ　ｐａｒｔｎｅｒｓ,,株式会社,東京都,中央区,日本橋室町４丁目３番１８号東京建物室町ビル８階,,13,102,1030022,,,,,,,2024-03-21,1,,,,,グロースエムアンドエーパートナーズ,0
2522,9010001243258,新規,0,2024-03-21,2024-03-21,株式会社ＫＡＩ,,株式会社,東京都,中央区,勝どき５丁目３番１－２４０２号,,13,102,1040054,,,,,,,2024-03-21,1,,,,,カイ,0
2523,9010001243274,新規,0,2024-03-21,2024-03-21,株式会社Ｒｅｍｉｎｅ,,株式会社,東京都,中央区,日本橋本石町４丁目２－２ＵＳビル３０２,,13,102,1030021,,,,,,,2024-03-21,1,,,,,リマイン,0
2528,9010003043243,新規,0,2024-03-21,2024-03-21,ｉｌｐ‐ｊｋ合同会社,,合同会社,東京都,千代田区,有楽町１丁目５－２東宝日比谷プロムナードビル１１階,,13,101,1000006,,,,,,,2024-03-21,1,,,,,アイエルピージェイケイ,0
2531,9010401181108,新規,0,2024-03-21,2024-03-21,株式会社Ｂｉｇ　Ｂｒｉｄｇｅ,,株式会社,東京都,港区,三田４丁目１番３１号ルシエル三田１階,,13,103,1080073,,,,,,,2024-03-21,1,,,,,ビックブリッジ,0
2532,9010401181116,新規,0,2024-03-21,2024-03-21,Ｓｙサービス株式会社,,株式会社,東京都,港区,高輪４丁目１１番２９－３０１号,,13,103,1080074,,,,,,,2024-03-21,1,,,,,エスワイサービス,0
2533,9010401181124,新規,0,2024-03-21,2024-03-21,ＩＮＮＳＮＳ　ＷＯＲＫＳ株式会社,,株式会社,東京都,港区,南青山２丁目１５番５号ＦＡＲＯ青山１階,,13,103,1070062,,,,,,,2024-03-21,1,,,,,イノセンスワークス,0
2534,9010401181140,新規,0,2024-03-21,2024-03-21,株式会社ＫＮＯＸＩＡ,,株式会社,東京都,港区,北青山１丁目３番１号アールキューブ青山３階,,13,103,1070061,,,,,,,2024-03-21,1,,,,,ノクシア,0
2535,9010401181157,新規,0,2024-03-21,2024-03-21,株式会社ＪＬＡＸ,,株式会社,東京都,港区,赤坂４丁目１３番５号,,13,103,1070052,,,,,,,2024-03-21,1,,,,,ジェイラックス,0
2536,9010401181198,新規,0,2024-03-21,2024-03-21,株式会社Ｋ,,株式会社,東京都,港区,赤坂３丁目１９番２号,,13,103,1070052,,,,,,,2024-03-21,1,,,,,ケー,0
2537,9010401181207,新規,0,2024-03-21,2024-03-21,株式会社ＯＨＳ,,株式会社,東京都,港区,六本木５丁目１１番２５号鳥居坂アネックス２Ｆ,,13,103,1060032,,,,,,,2024-03-21,1,,,,,オーエイチエス,0
2538,9010403032192,新規,0,2024-03-21,2024-03-21,ｆｌｏｗｅｒｔｉｄｅ合同会社,,合同会社,東京都,港区,西麻布４丁目１１番１４号ＦＬＥＧ西麻布ｖｉｅｒｇｅ５５５,,13,103,1060031,,,,,,,2024-03-21,1,,,,,フラワータイド,0
2539,9010403032201,新規,0,2024-03-21,2024-03-21,合同会社ラヴィット,,合同会社,東京都,港区,白金３丁目２３番２－２０３号,,13,103,1080072,,,,,,,2024-03-21,1,,,,,ラヴィット,0
2540,9010405023066,新規,0,2024-03-21,2024-03-21,一般社団法人日本エコ塗装認証機構,,その他の設立登記法人,東京都,港区,白金台５丁目２２番１２号前田道路白金ビル４階,,13,103,1080071,,,,,,,2024-03-21,1,,,,,ニホンエコトソウニンショウキコウ,0
2542,9010601064839,新規,0,2024-03-21,2024-03-21,株式会社Ａｏ,,株式会社,東京都,江東区,新砂３丁目４番３号,,13,108,1360075,,,,,,,2024-03-21,1,,,,,アオ,0
2543,9010601064855,新規,0,2024-03-21,2024-03-21,関東エネルギーシステム株式会社,,株式会社,東京都,江東区,潮見２丁目３番９号２階,,13,108,1350052,,,,,,,2024-03-21,1,,,,,カントウエネルギーシステム,0
2547,9010801034880,新規,0,2024-03-21,2024-03-21,株式会社コルジリネ,,株式会社,東京都,大田区,西蒲田５丁目２７番４号麻塲ビル１０１,,13,111,1440051,,,,,,,2024-03-21,1,,,,,コルジリネ,0
2550,9010901054894,新規,0,2024-03-21,2024-03-21,株式会社Ｋａｎｋｙｏ　Ｒｅｃｏｒｄｓ,,株式会社,東京都,世田谷区,上馬１丁目３５番１３号ロイヤルアークガーデン１０７号,,13,112,1540011,,,,,,,2024-03-21,1,,,,,カンキョウレコーズ,0
2554,9011001160708,新規,0,2024-03-21,2024-03-21,Ｂｉｓｈｏｏ株式会社,,株式会社,東京都,目黒区,緑が丘１丁目１９番２号,,13,110,1520034,,,,,,,2024-03-21,1,,,,,ビショー,0
2555,9011001160724,新規,0,2024-03-21,2024-03-21,株式会社ＬＥＩＭＥＩ,,株式会社,東京都,渋谷区,初台１丁目９－３,,13,113,1510061,,,,,,,2024-03-21,1,,,,,レイメイ,0
2556,9011001160831,新規,0,2024-03-21,2024-03-21,株式会社ＡＴＴＡ,,株式会社,東京都,目黒区,碑文谷４丁目４番１５号,,13,110,1520003,,,,,,,2024-03-21,1,,,,,アッタ,0
2558,9011003018722,新規,0,2024-03-21,2024-03-21,合同会社ＴＯＨＡＫＵ,,合同会社,東京都,渋谷区,西原３丁目２２番１４号西原水垣ビル２０１,,13,113,1510066,,,,,,,2024-03-21,1,,,,,トウハク,0
2559,9011003018730,新規,0,2024-03-21,2024-03-21,Ｔｒｉｅｓ＆Ｃｏ合同会社,,合同会社,東京都,目黒区,中根２丁目４番１７－３０３号ＧＳハイム都立大,,13,110,1520031,,,,,,,2024-03-21,1,,,,,トライズアンドコー,0
2560,9011003018771,新規,0,2024-03-21,2024-03-21,合同会社ＨＡＭ,,合同会社,東京都,渋谷区,道玄坂１丁目１０番８号渋谷道玄坂東急ビル２Ｆ－Ｃ,,13,113,1500043,,,,,,,2024-03-21,1,,,,,エイチエーエム,0
2566,9011101106585,新規,0,2024-03-21,2024-03-21,株式会社エレベーターアセット,,株式会社,東京都,新宿区,西新宿８丁目１１番１号,,13,104,1600023,,,,,,,2024-03-21,1,,,,,エレベーターアセット,0
2567,9011101106602,新規,0,2024-03-21,2024-03-21,株式会社辰榮,,株式会社,東京都,新宿区,神楽坂１丁目１２番１号,,13,104,1620825,,,,,,,2024-03-21,1,,,,,タツエ,0
2568,9011103014241,新規,0,2024-03-21,2024-03-21,合同会社ジェイ・イー・ダブリュー,,合同会社,東京都,新宿区,下宮比町１番４号,,13,104,1620822,,,,,,,2024-03-21,1,,,,,ジェイイーダブリュー,0
2569,9011105010973,新規,0,2024-03-21,2024-03-21,特定非営利活動法人カラフル・オルタレゴ,,その他の設立登記法人,東京都,新宿区,富久町６番１０号,,13,104,1620067,,,,,,,2024-03-21,1,,,,,カラフルオルタレゴ,0
2571,9011203004324,新規,0,2024-03-21,2024-03-21,合同会社ＭＡＲＳ,,合同会社,東京都,中野区,中野３丁目４８番１４号シャトー信濃２０５,,13,114,1640001,,,,,,,2024-03-21,1,,,,,マーズ,0
2572,9011301029504,新規,0,2024-03-21,2024-03-21,株式会社ＬｉｂｅｒｔｙＧｒｅｅｎ,,株式会社,東京都,杉並区,和泉４丁目１０番１４号,,13,115,1680063,,,,,,,2024-03-21,1,,,,,リバティグリーン,0
2573,9011301029512,新規,0,2024-03-21,2024-03-21,次世代測位技術株式会社,,株式会社,東京都,杉並区,高円寺南３丁目２３番１６号,,13,115,1660003,,,,,,,2024-03-21,1,,,,,ジセダイソクイギジュツ,0
2579,9011601027637,新規,0,2024-03-21,2024-03-21,株式会社えんがわ,,株式会社,東京都,練馬区,土支田３丁目２７番２２号,,13,120,1790076,,,,,,,2024-03-21,1,,,,,エンガワ,0
2581,9011701027116,新規,0,2024-03-21,2024-03-21,日本盛稻夫株式会社,,株式会社,東京都,江戸川区,平井５丁目４５番５号渡辺ハイツ１０１,,13,123,1320035,,,,,,,2024-03-21,1,,,,,ニッポンモリイナオ,0
2583,9011801043946,新規,0,2024-03-21,2024-03-21,江川工業株式会社,,株式会社,東京都,足立区,保木間３丁目３５番２号レナジア保木間１０１,,13,121,1210064,,,,,,,2024-03-21,1,,,,,エガワコウギョウ,0
2586,9012301013828,新規,0,2024-03-21,2024-03-21,株式会社シオン,,株式会社,東京都,町田市,上小山田町１８０番地１７,,13,209,1940201,,,,,,,2024-03-21,1,,,,,シオン,0
2588,9012403006465,新規,0,2024-03-21,2024-03-21,合同会社エムオー,,合同会社,東京都,小金井市,本町５丁目１７番１８－２０４号ブラディア武蔵小金井,,13,210,1840004,,,,,,,2024-03-21,1,,,,,エムオー,0
2589,9012801023054,新規,0,2024-03-21,2024-03-21,株式会社トリムルティ,,株式会社,東京都,立川市,富士見町４丁目３番５号,,13,202,1900013,,,,,,,2024-03-21,1,,,,,トリムルティ,0
2591,9013301052238,新規,0,2024-03-21,2024-03-21,株式会社禾一,,株式会社,東京都,豊島区,池袋２丁目６８－５－５０６,,13,116,1710014,,,,,,,2024-03-21,1,,,,,カイチ,0
2592,9013301052246,新規,0,2024-03-21,2024-03-21,株式会社ＰＡＲＡＤＩＧＭ　ＳＨＩＦＴ,,株式会社,東京都,豊島区,西池袋５丁目２１番４－１０２号,,13,116,1710021,,,,,,,2024-03-21,1,,,,,パラダイムシフト,0
2593,9013303007058,新規,0,2024-03-21,2024-03-21,Ｈｕｉｔ合同会社,,合同会社,東京都,豊島区,上池袋４丁目８番３号ラトール５－２０２号,,13,116,1700012,,,,,,,2024-03-21,1,,,,,ユイット,0
2594,9013305003583,新規,0,2024-03-21,2024-03-21,一般社団法人キッズゲート,,その他の設立登記法人,東京都,豊島区,駒込１丁目３番４－１００１号,,13,116,1700003,,,,,,,2024-03-21,1,,,,,キッズゲート,0
2600,9020001156269,新規,0,2024-03-21,2024-03-21,株式会社ａｎｄ　ｐｌｕｓ,,株式会社,神奈川県,横浜市西区,北幸２丁目１０番４８号むつみビル３階,,14,103,2200004,,,,,,,2024-03-21,1,,,,,アンドプラス,0
2601,9020001156277,新規,0,2024-03-21,2024-03-21,株式会社アンスリール,,株式会社,神奈川県,川崎市麻生区,王禅寺西２丁目１２番６号テラスハウスＢ,,14,137,2150017,,,,,,,2024-03-21,1,,,,,アンスリール,0
2602,9020001156293,新規,0,2024-03-21,2024-03-21,株式会社サークル,,株式会社,神奈川県,横浜市都筑区,中川中央１丁目２８番２２－２０１号,,14,118,2240003,,,,,,,2024-03-21,1,,,,,サークル,0
2603,9020001156302,新規,0,2024-03-21,2024-03-21,株式会社ｂｕｚｚ,,株式会社,神奈川県,横浜市南区,南太田４丁目３番９号,,14,105,2320006,,,,,,,2024-03-21,1,,,,,バズ,0
2604,9020001156310,新規,0,2024-03-21,2024-03-21,株式会社ＯＲＫＡ,,株式会社,神奈川県,横浜市保土ケ谷区,常盤台３３番２９号２Ｆ,,14,106,2400067,,,,,,,2024-03-21,1,,,,,オルカ,0
2605,9020001156319,新規,0,2024-03-21,2024-03-21,株式会社ＳＴＡＲＴ’Ｓ　ＧＡＴＥ,,株式会社,神奈川県,川崎市幸区,小向仲野町４番１２号,,14,132,2120002,,,,,,,2024-03-21,1,,,,,スターツゲート,0
2606,9020001156343,新規,0,2024-03-21,2024-03-21,扶揺商会株式会社,,株式会社,神奈川県,横浜市緑区,鴨居４丁目６０番３０－１０７号,,14,113,2260003,,,,,,,2024-03-21,1,,,,,フーヤオショウカイ,0
2614,9020003025760,新規,0,2024-03-21,2024-03-21,合同会社キュリオス,,合同会社,神奈川県,横浜市西区,北幸２丁目１０番４８号むつみビル３階,,14,103,2200004,,,,,,,2024-03-21,1,,,,,キュリオス,0
2615,9020005016312,新規,0,2024-03-21,2024-03-21,一般社団法人くくむ,,その他の設立登記法人,神奈川県,横浜市保土ケ谷区,宮田町２丁目１７３番地,,14,106,2400002,,,,,,,2024-03-21,1,,,,,ククム,0
2617,9021001081738,新規,0,2024-03-21,2024-03-21,株式会社加藤,,株式会社,神奈川県,厚木市,戸室１丁目７番１５号サンライズ戸室１０１,,14,212,2430031,,,,,,,2024-03-21,1,,,,,カトウ,0
2618,9021001081754,新規,0,2024-03-21,2024-03-21,株式会社Ａｌｏｎｇ　ｗｉｔｈ,,株式会社,神奈川県,三浦市,初声町下宮田４７３番地９,,14,210,2380111,,,,,,,2024-03-21,1,,,,,アロングウィズ,0
2619,9021001081762,新規,0,2024-03-21,2024-03-21,ｅ株式会社,,株式会社,神奈川県,相模原市南区,磯部１１６番９,,14,153,2520327,,,,,,,2024-03-21,1,,,,,イー,0
2621,9021003014274,新規,0,2024-03-21,2024-03-21,合同会社エクラタン,,合同会社,神奈川県,茅ヶ崎市,下町屋３丁目１番,,14,207,2530087,,,,,,,2024-03-21,1,,,,,エクラタン,0
2622,9021003014282,新規,0,2024-03-21,2024-03-21,エルピノス合同会社,,合同会社,神奈川県,茅ヶ崎市,菱沼海岸２番２２号イデアスサーフＤ,,14,207,2530037,,,,,,,2024-03-21,1,,,,,エルピノス,0
2626,9030001159254,新規,0,2024-03-21,2024-03-21,株式会社アズ‐ワークス,,株式会社,埼玉県,さいたま市緑区,芝原１丁目４番地４８,,11,109,3360917,,,,,,,2024-03-21,1,,,,,アズワークス,0
2627,9030001159312,新規,0,2024-03-21,2024-03-21,株式会社ＡＩＮＯＡＲＵ,,株式会社,埼玉県,さいたま市中央区,大戸１丁目３４番１２号,,11,105,3380012,,,,,,,2024-03-21,1,,,,,アイノアル,0
2628,9030001159337,新規,0,2024-03-21,2024-03-21,株式会社海世商会,,株式会社,埼玉県,三郷市,谷口１６８番地１,,11,237,3410042,,,,,,,2024-03-21,1,,,,,カイヨショウカイ,0
2630,9030003023870,新規,0,2024-03-21,2024-03-21,合同会社ＴＥＲＲＩＦＩＣ,,合同会社,埼玉県,越谷市,大字大杉５４４番地１３,,11,222,3430005,,,,,,,2024-03-21,1,,,,,テリフィック,0
2636,9040001132656,新規,0,2024-03-21,2024-03-21,株式会社イージーエー,,株式会社,千葉県,八千代市,大和田新田４６９番地３４７,,12,221,2760046,,,,,,,2024-03-21,1,,,,,イージーエー,0
2637,9040001132689,新規,0,2024-03-21,2024-03-21,株式会社ＳＯＬＶＥ,,株式会社,千葉県,白井市,平塚２８０２番地の１,,12,232,2701402,,,,,,,2024-03-21,1,,,,,ソルブ,0
2638,9040001132697,新規,0,2024-03-21,2024-03-21,株式会社ＩＮＯＴＥＣ,,株式会社,千葉県,千葉市中央区,富士見１丁目１４番１３号千葉大栄ビル８Ｆ,,12,101,2600015,,,,,,,2024-03-21,1,,,,,イノテック,0
2639,9040001132714,新規,0,2024-03-21,2024-03-21,株式会社鈴木工業,,株式会社,千葉県,八千代市,萱田町６５８番地４,,12,221,2760044,,,,,,,2024-03-21,1,,,,,スズキコウギョウ,0
2640,9040001132722,新規,0,2024-03-21,2024-03-21,株式会社北上塗装店,,株式会社,千葉県,千葉市緑区,土気町１４１７番地１５０,,12,105,2670061,,,,,,,2024-03-21,1,,,,,キタカミトソウテン,0
2641,9040001132763,新規,0,2024-03-21,2024-03-21,株式会社伊勢彦第二,,株式会社,千葉県,市川市,本行徳１０番８号,,12,203,2720103,,,,,,,2024-03-21,1,,,,,イセヒコダイニ,0
2643,9040003024562,新規,0,2024-03-21,2024-03-21,Ｓ＆Ｅ合同会社,,合同会社,千葉県,東金市,田間３丁目５７番地８,,12,213,2830005,,,,,,,2024-03-21,1,,,,,エスアンドイー,0
2644,9040003024570,新規,0,2024-03-21,2024-03-21,合同会社Ｂｅａｍｙ,,合同会社,千葉県,山武郡横芝光町,木戸９５７１－２３,,12,410,2891726,,,,,,,2024-03-21,1,,,,,ビーミー,0
2645,9040003024587,新規,0,2024-03-21,2024-03-21,イオンストライド合同会社,,合同会社,千葉県,浦安市,今川２丁目１－１８,,12,227,2790022,,,,,,,2024-03-21,1,,,,,イオンストライド,0
2646,9040003024595,新規,0,2024-03-21,2024-03-21,合同会社Ｋ＆Ａ,,合同会社,千葉県,船橋市,宮本６丁目４－１,,12,204,2730003,,,,,,,2024-03-21,1,,,,,ケーアンドエー,0
2647,9040005022325,新規,0,2024-03-21,2024-03-21,特定非営利活動法人ちばこどもホスピスプロジェクト,,その他の設立登記法人,千葉県,千葉市稲毛区,園生町１１０７番地７,,12,103,2630051,,,,,,,2024-03-21,1,,,,,チバコドモホスピスプロジェクト,0
2648,9050001054478,新規,0,2024-03-21,2024-03-21,Ａｃｔ株式会社,,株式会社,茨城県,水戸市,水府町１３７６番地,,08,201,3100005,,,,,,,2024-03-21,1,,,,,アクト,0
2653,9050005013406,新規,0,2024-03-21,2024-03-21,医療法人あべ歯科クリニック,,その他の設立登記法人,茨城県,守谷市,小山３３６番地の９,,08,224,3020122,,,,,,,2024-03-21,1,,,,,アベシカクリニック,0
2658,9080001026193,新規,0,2024-03-21,2024-03-21,株式会社フュチュール,,株式会社,静岡県,静岡市葵区,御幸町５番地の１７マサモリビル２Ｆ,,22,101,4200857,,,,,,,2024-03-21,1,,,,,フュチュール,0
2660,9080003003158,新規,0,2024-03-21,2024-03-21,リアン会計コンサルティング合同会社,,合同会社,静岡県,静岡市駿河区,宮本町９番２５－６０５号,,22,102,4228065,,,,,,,2024-03-21,1,,,,,リアンカイケイコンサルティング,0
2661,9080103003009,新規,0,2024-03-21,2024-03-21,合同会社マーシーパワー,,合同会社,静岡県,御殿場市,駒門５６番地の１０,,22,215,4120038,,,,,,,2024-03-21,1,,,,,マーシーパワー,0
2662,9080401027072,新規,0,2024-03-21,2024-03-21,株式会社ニシダ設備,,株式会社,静岡県,浜松市中央区,根洗町７３２番地の１０,,22,138,4338108,,,,,,,2024-03-21,1,,,,,ニシダセツビ,0
2663,9090003002530,新規,0,2024-03-21,2024-03-21,合同会社ＶａｎｄＳコンサルティング,,合同会社,山梨県,甲斐市,竜王新町１６３０番地１０,,19,210,4000111,,,,,,,2024-03-21,1,,,,,ブイアンドエスコンサルティング,0
2664,9100001037287,新規,0,2024-03-21,2024-03-21,トラベルハイブ株式会社,,株式会社,長野県,安曇野市,明科中川手３６１０番地７,,20,220,3997102,,,,,,,2024-03-21,1,,,,,トラベルハイブ,0
2665,9100001037295,新規,0,2024-03-21,2024-03-21,株式会社Ｇｒｏｏｖｅｒ　Ｌｅａｔｈｅｒ,,株式会社,長野県,千曲市,大字稲荷山７８３番地５,,20,218,3870021,,,,,,,2024-03-21,1,,,,,グルーバーレザー,0
2679,9120001263071,新規,0,2024-03-21,2024-03-21,三余商事株式会社,,株式会社,大阪府,大阪市浪速区,日本橋東２丁目９番１６号オリエンタル日本橋２０３号,,27,111,5560006,,,,,,,2024-03-21,1,,,,,サンヨショウジ,0
2680,9120001263204,新規,0,2024-03-21,2024-03-21,傑飛株式会社,,株式会社,大阪府,大阪市大正区,三軒家西３丁目４番１６号中山ビル１００９,,27,108,5510001,,,,,,,2024-03-21,1,,,,,ケツヒ,0
2687,9120003026154,新規,0,2024-03-21,2024-03-21,ＧＩＡ　ＫＨＡＮＧ合同会社,,合同会社,大阪府,大阪市浪速区,大国１丁目７－１－５Ｂ,,27,111,5560014,,,,,,,2024-03-21,1,,,,,ジャクーアン,0
2688,9120003026195,新規,0,2024-03-21,2024-03-21,Ｍａｎｙ　ｔｈａｎｋｓ合同会社,,合同会社,大阪府,大阪市北区,梅田１丁目１番３号大阪駅前第３ビル２９階１－１－１号室,,27,127,5300001,,,,,,,2024-03-21,1,,,,,メニーサンクス,0
2691,9120101069229,新規,0,2024-03-21,2024-03-21,株式会社センス・フォース,,株式会社,大阪府,堺市北区,百舌鳥梅北町５丁４４９番地１サーマル１階,,27,146,5918031,,,,,,,2024-03-21,1,,,,,センスフォース,0
2693,9120103005727,新規,0,2024-03-21,2024-03-21,合同会社ヴィルクリ,,合同会社,大阪府,堺市北区,中村町２２９番地１５,,27,146,5918012,,,,,,,2024-03-21,1,,,,,ヴィルクリ,0
2696,9120901048927,新規,0,2024-03-21,2024-03-21,株式会社ガーデンセンター華遊,,株式会社,大阪府,池田市,中川原町１４番地,,27,204,5630013,,,,,,,2024-03-21,1,,,,,ガーデンセンターカユウ,0
2700,9122001037918,新規,0,2024-03-21,2024-03-21,株式会社本郷の家,,株式会社,大阪府,柏原市,本郷５丁目１番１２号,,27,221,5820001,,,,,,,2024-03-21,1,,,,,モトサトノイエ,0
2706,9130001076646,新規,0,2024-03-21,2024-03-21,ＳＤＦｓ株式会社,,株式会社,京都府,京都市伏見区,横大路天王前５３,,26,109,6128294,,,,,,,2024-03-21,1,,,,,エスディーフーズ,0
2707,9130003009389,新規,0,2024-03-21,2024-03-21,合同会社創癒,,合同会社,京都府,綾部市,上延町管５６,,26,203,6230043,,,,,,,2024-03-21,1,,,,,ソウユ,0
2710,9140001133727,新規,0,2024-03-21,2024-03-21,株式会社Ｒｅｉ,,株式会社,兵庫県,神戸市垂水区,桃山台３丁目２２番地の２１,,28,108,6550854,,,,,,,2024-03-21,1,,,,,レイ,0
2714,9150005009567,新規,0,2024-03-21,2024-03-21,一般社団法人ＫＡＴＡＮＡクラブ,,その他の設立登記法人,奈良県,磯城郡川西町,大字結崎４５２－７１,,29,361,6360202,,,,,,,2024-03-21,1,,,,,カタナクラブ,0
2716,9160003003141,新規,0,2024-03-21,2024-03-21,フィールドデザイン合同会社,,合同会社,滋賀県,守山市,二町町３０番地１０５,,25,207,5240043,,,,,,,2024-03-21,1,,,,,フィールドデザイン,0
2717,9160005011290,新規,0,2024-03-21,2024-03-21,特定非営利活動法人ＨＩＥＩＺＡＮ　ｓｐｏｒｔｓ＆ｃｕｌｔｕｒｅ　ｃｌｕｂ　ＩＣＨＩＧＵ,,その他の設立登記法人,滋賀県,大津市,下阪本５丁目２３番地４５号,,25,201,5200105,,,,,,,2024-03-21,1,,,,,ヒエイザンスポーツアンドカルチャークラブイチグウ,0
2726,9180001160544,新規,0,2024-03-21,2024-03-21,橋本毛織株式会社,,株式会社,愛知県,一宮市,萩原町萩原字松山５５０番地,,23,203,4910353,,,,,,,2024-03-21,1,,,,,ハシモトケオリ,0
2727,9180001160552,新規,0,2024-03-21,2024-03-21,株式会社サニーレイズ,,株式会社,愛知県,名古屋市緑区,鹿山２丁目８２－１,,23,114,4580045,,,,,,,2024-03-21,1,,,,,サニーレイズ,0
2728,9180001160560,新規,0,2024-03-21,2024-03-21,株式会社ＡＲＳ,,株式会社,愛知県,犬山市,大字上野字南海道１３１４番地,,23,215,4840077,,,,,,,2024-03-21,1,,,,,エーアールエス,0
2729,9180001160577,新規,0,2024-03-21,2024-03-21,株式会社Ｍ・Ｓトレーディング,,株式会社,愛知県,名古屋市港区,高木町４丁目２５番地７,,23,111,4550821,,,,,,,2024-03-21,1,,,,,エムエストレーディング,0
2730,9180001160635,新規,0,2024-03-21,2024-03-21,株式会社ＩＭＡ,,株式会社,愛知県,名古屋市中区,栄３丁目１７番２５号‐２Ｆ,,23,106,4600008,,,,,,,2024-03-21,1,,,,,イマ,0
2733,9180003026495,新規,0,2024-03-21,2024-03-21,合同会社エムサービス,,合同会社,愛知県,知多郡阿久比町,宮津１丁目６６番地,,23,441,4702204,,,,,,,2024-03-21,1,,,,,エムサービス,0
2734,9180003026512,新規,0,2024-03-21,2024-03-21,合同会社Ｒｏｏｍ１１２５,,合同会社,愛知県,名古屋市港区,名港１丁目１番１９号三旺ポートタウン港３０１号,,23,111,4550037,,,,,,,2024-03-21,1,,,,,ルームイチイチニゴ,0
2735,9180005020554,新規,0,2024-03-21,2024-03-21,医療法人橄欖会,,その他の設立登記法人,愛知県,名古屋市港区,当知４丁目２０１番地,,23,111,4550804,,,,,,,2024-03-21,1,,,,,カンランカイ,0
2738,9190001031190,新規,0,2024-03-21,2024-03-21,株式会社夢叶,,株式会社,三重県,名張市,桔梗が丘５番町九街区９３番地,,24,208,5180625,,,,,,,2024-03-21,1,,,,,イブキ,0
2739,9190001031208,新規,0,2024-03-21,2024-03-21,株式会社手あかまみれのｔｈｅｏｒｙ,,株式会社,三重県,いなべ市,大安町石榑東１３６８番地６,,24,214,5110264,,,,,,,2024-03-21,1,,,,,テアカマミレノセオリー,0
2740,9190003004616,新規,0,2024-03-21,2024-03-21,合同会社みえみらい,,合同会社,三重県,津市,白塚町１０８０番地８１,,24,201,5140101,,,,,,,2024-03-21,1,,,,,ミエミライ,0
2743,9190005011916,新規,0,2024-03-21,2024-03-21,医療法人和平会,,その他の設立登記法人,三重県,名張市,桔梗が丘５番町九街区１８１２番地１,,24,208,5180625,,,,,,,2024-03-21,1,,,,,カズヒラカイ,0
2747,9210001019679,新規,0,2024-03-21,2024-03-21,株式会社ＨＩＴＯＮＯＷＡ,,株式会社,福井県,勝山市,本町３丁目１番３号,,18,206,9110806,,,,,,,2024-03-21,1,,,,,ヒトノワ,0
2748,9210001019687,新規,0,2024-03-21,2024-03-21,株式会社建築総合アドバイザー,,株式会社,福井県,福井市,中央３丁目３番２１号,,18,201,9100006,,,,,,,2024-03-21,1,,,,,ケンチクソウゴウアドバイザー,0
2749,9220001025882,新規,0,2024-03-21,2024-03-21,株式会社フレーム・メイカーズ,,株式会社,石川県,金沢市,中央通町１番１８号（１００６）,,17,201,9200866,,,,,,,2024-03-21,1,,,,,フレームメイカーズ,0
2750,9220005008818,新規,0,2024-03-21,2024-03-21,一般社団法人のと龍ノ翼プロジェクト,,その他の設立登記法人,石川県,七尾市,八幡町ろ部４１番地１,,17,202,9260038,,,,,,,2024-03-21,1,,,,,ノトリュウノツバサプロジェクト,0
2754,9240001062957,新規,0,2024-03-21,2024-03-21,菅野ホールディングス株式会社,,株式会社,広島県,広島市中区,羽衣町８番１９号,,34,101,7300814,,,,,,,2024-03-21,1,,,,,スガノホールディングス,0
2755,9240001062965,新規,0,2024-03-21,2024-03-21,株式会社ＪＡＰ,,株式会社,広島県,福山市,神辺町大字川南９３１番地１,,34,207,7202124,,,,,,,2024-03-21,1,,,,,ジャップ,0
2760,9250001020575,新規,0,2024-03-21,2024-03-21,株式会社ファイン整備自工,,株式会社,山口県,山口市,仁保中郷９４７番地,,35,203,7530302,,,,,,,2024-03-21,1,,,,,ファインセイビジコウ,0
2764,9270003001605,新規,0,2024-03-21,2024-03-21,合同会社吉祥苑,,合同会社,鳥取県,倉吉市,上井３６０－１小笹ビル１Ａ,,31,203,6820021,,,,,,,2024-03-21,1,,,,,キッショウエン,0
2765,9290001105091,新規,0,2024-03-21,2024-03-21,株式会社Ｎ．Ｐ．Ｎ．Ｇ,,株式会社,福岡県,福岡市博多区,博多駅前２丁目１９番１７号トーカン博多第５ビル３１２号室,,40,132,8120011,,,,,,,2024-03-21,1,,,,,エヌピーエヌジー,0
2766,9290001105166,新規,0,2024-03-21,2024-03-21,株式会社ＢＯＭＹ,,株式会社,福岡県,福岡市西区,姪浜駅南１丁目３番２４号,,40,135,8190006,,,,,,,2024-03-21,1,,,,,ボミー,0
2767,9290003015074,新規,0,2024-03-21,2024-03-21,合同会社九十三,,合同会社,福岡県,大野城市,下大利１丁目２１番２０号ＭＪＲザ・ガーデン下大利１３０４,,40,219,8160952,,,,,,,2024-03-21,1,,,,,キュウジュウサン,0
2768,9290003015090,新規,0,2024-03-21,2024-03-21,合同会社ＣＮＬ,,合同会社,福岡県,久留米市,御井旗崎４丁目７番３８号グランクレール４０２号,,40,203,8390841,,,,,,,2024-03-21,1,,,,,シーエヌエル,0
2769,9290801030398,新規,0,2024-03-21,2024-03-21,株式会社西猿,,株式会社,福岡県,北九州市門司区,東新町２丁目９番２８号,,40,101,8000055,,,,,,,2024-03-21,1,,,,,ニシザル,0
2770,9290801030415,新規,0,2024-03-21,2024-03-21,株式会社カノア,,株式会社,福岡県,田川郡福智町,金田５８２番地５,,40,610,8221201,,,,,,,2024-03-21,1,,,,,カノア,0
2774,9310001018902,新規,0,2024-03-21,2024-03-21,株式会社磯本左官,,株式会社,長崎県,佐世保市,上本山町１番地１６３,,42,202,8580903,,,,,,,2024-03-21,1,,,,,イソモトサカン,0
2775,9310001018910,新規,0,2024-03-21,2024-03-21,株式会社百叡,,株式会社,長崎県,佐世保市,針尾東町２３１５番地,,42,202,8593451,,,,,,,2024-03-21,1,,,,,ビャクエイ,0
2776,9320001020353,新規,0,2024-03-21,2024-03-21,株式会社エトウ商会,,株式会社,大分県,佐伯市,野岡町１丁目６番３８号,,44,205,8760815,,,,,,,2024-03-21,1,,,,,エトウショウカイ,0
2777,9320001020361,新規,0,2024-03-21,2024-03-21,株式会社まめ秀,,株式会社,大分県,別府市,駅前本町２,,44,202,8740934,,,,,,,2024-03-21,1,,,,,マメヒデ,0
2779,9330001031878,新規,0,2024-03-21,2024-03-21,株式会社ピックアップ,,株式会社,熊本県,熊本市東区,神園２丁目１番１７号,,43,102,8618044,,,,,,,2024-03-21,1,,,,,ピックアップ,0
2780,9330003010277,新規,0,2024-03-21,2024-03-21,合同会社誠希製作所,,合同会社,熊本県,人吉市,矢黒町２１４７番地７,,43,203,8680075,,,,,,,2024-03-21,1,,,,,セイキセイサクショ,0
2783,9340003004410,新規,0,2024-03-21,2024-03-21,合同会社グリーンプラザ,,合同会社,鹿児島県,鹿児島市,鷹師１丁目６番地７グランフォーレ西田エムディア７０５号,,46,201,8900043,,,,,,,2024-03-21,1,,,,,グリーンプラザ,0
2785,9350001018849,新規,0,2024-03-21,2024-03-21,株式会社ＳＴＵＤＩＯ　ＥＬＥＭＥＮＴ,,株式会社,宮崎県,都城市,久保原町１４街区３号,,45,202,8850086,,,,,,,2024-03-21,1,,,,,スタジオエレメント,0
2788,9360001033368,新規,0,2024-03-21,2024-03-21,株式会社オキスク,,株式会社,沖縄県,浦添市,字経塚２０１番地３,,47,208,9012111,,,,,,,2024-03-21,1,,,,,オキスク,0
2789,9360001033376,新規,0,2024-03-21,2024-03-21,株式会社Ｙ’ｓ建装,,株式会社,沖縄県,沖縄市,知花４丁目４６番８号,,47,211,9042143,,,,,,,2024-03-21,1,,,,,ワイズケンソウ,0
2791,9360003013822,新規,0,2024-03-21,2024-03-21,ＰＲＯＪＥＣＴ　ＳＵＮＣＡＴＣＨＥＲ合同会社,,合同会社,沖縄県,宜野湾市,真志喜２丁目５－２４,,47,205,9012224,,,,,,,2024-03-21,1,,,,,プロジェクトサンキャッチャー,0
2793,9370001051039,新規,0,2024-03-21,2024-03-21,ｐｉｆ株式会社,,株式会社,宮城県,仙台市太白区,長町７丁目１１番５号,,04,104,9820011,,,,,,,2024-03-21,1,,,,,ピーアイエフ,0
2794,9370001051063,新規,0,2024-03-21,2024-03-21,旭成建設工業株式会社,,株式会社,宮城県,登米市,中田町石森字霜降舘３４番地,,04,212,9870601,,,,,,,2024-03-21,1,,,,,キョクセイケンセツコウギョウ,0
2795,9370001051088,新規,0,2024-03-21,2024-03-21,株式会社加美富士林業,,株式会社,宮城県,加美郡加美町,字雁原１３番地３,,04,445,9814263,,,,,,,2024-03-21,1,,,,,カミフジリンギョウ,0
2802,9410001013760,新規,0,2024-03-21,2024-03-21,株式会社ＮＯＷＨＥＲＥ,,株式会社,秋田県,秋田市,手形山崎町８番１７号,,05,201,0100854,,,,,,,2024-03-21,1,,,,,ノーウェア,0
2807,9420001018651,新規,0,2024-03-21,2024-03-21,株式会社レガーメ,,株式会社,青森県,八戸市,小中野３丁目１６－１３,,02,203,0310802,,,,,,,2024-03-21,1,,,,,レガーメ,0
2808,9420003002892,新規,0,2024-03-21,2024-03-21,合同会社Ｗａｎｄｅｒｌｕｓｔ,,合同会社,青森県,十和田市,大字奥瀬字十和田湖畔休屋２９３番地４６号,,02,206,0185501,,,,,,,2024-03-21,1,,,,,ワンダラスト,0
2812,9430003016082,新規,0,2024-03-21,2024-03-21,合同会社英進堂,,合同会社,北海道,札幌市東区,東苗穂十二条３丁目２３番３号,,01,103,0070812,,,,,,,2024-03-21,1,,,,,エイシンドウ,0
2815,9440003001579,新規,0,2024-03-21,2024-03-21,とりさんのめぐみ合同会社,,合同会社,北海道,亀田郡七飯町,鳴川４丁目３番８号,,01,337,0411112,,,,,,,2024-03-21,1,,,,,トリサンノメグミ,0
