sequenceNumber,corporateNumber,process,correct,updateDate,changeDate,name,nameImageId,kind,prefectureName,cityName,streetNumber,addressImageId,prefectureCode,cityCode,postCode,addressOutside,addressOutsideImageId,closeDate,closeCause,successorCorporateNumber,changeCause,assignmentDate,latest,enName,enPrefectureName,enCityName,enAddressOutside,furigana,hihyoji
6,1010001145833,登記記録の閉鎖等,0,2023-12-28,2023-12-25,株式会社ナノックスイメージング,,株式会社,東京都,千代田区,大手町１丁目５番１号,,13,101,1000004,,,2023-12-25,清算の結了等,,,2015-10-05,1,,,,,ナノックスイメージング,0
15,1010005017987,登記記録の閉鎖等,0,2023-12-28,2023-12-25,山佐ＢＡＷ６一般社団法人,,その他の設立登記法人,東京都,千代田区,丸の内３丁目１番１号東京共同会計事務所内,,13,101,1000005,,,2023-12-25,清算の結了等,,,2015-10-05,1,,,,,ヤマサビーエーダブリューロク,0
16,1010005019587,登記記録の閉鎖等,0,2023-12-28,2023-12-25,山佐２００３ＨＫ一般社団法人,,その他の設立登記法人,東京都,千代田区,丸の内３丁目１番１号東京共同会計事務所内,,13,101,1000005,,,2023-12-25,清算の結了等,,,2015-10-05,1,,,,,ヤマサニセンサンエイチケイ,0
19,1010101011893,登記記録の閉鎖等,0,2023-12-28,2023-12-26,株式会社Ｊ＆Ｊ　Ｂｅａｕｔｙ　ｓａｌｏｎ,,株式会社,東京都,八王子市,中町１－３ドン・キホーテ八王子駅前店７Ｆ,,13,201,1920085,,,2023-12-26,清算の結了等,,,2015-10-05,1,,,,,ジェイアンドジェイビューティーサロン,0
22,1010401118067,登記記録の閉鎖等,0,2023-12-28,2023-12-20,株式会社弁天,,株式会社,東京都,港区,南青山２丁目２番１５号ウィン青山９４２,,13,103,1070062,,,2023-12-20,清算の結了等,,,2015-10-05,1,,,,,ベンテン,0
35,1010901012629,登記記録の閉鎖等,0,2023-12-28,2023-12-20,株式会社ライジング・スリー,,株式会社,東京都,世田谷区,桜丘４丁目１６番１号,,13,112,1560054,,,2023-12-20,清算の結了等,,,2015-10-05,1,,,,,ライジングスリー,0
36,1010901030317,登記記録の閉鎖等,0,2023-12-28,2023-12-25,株式会社ｍｅｔａｌ．ＡＲＣ,,株式会社,埼玉県,川口市,南鳩ヶ谷６丁目７番１１－１１１号,,11,203,3340013,,,2023-12-25,清算の結了等,,,2015-10-05,1,,,,,メタルアーク,0
38,1011001100935,登記記録の閉鎖等,0,2023-12-28,2023-12-26,株式会社Ｌａｍａｎａ,,株式会社,東京都,目黒区,自由が丘２丁目１１番９号,,13,110,1520035,,,2023-12-26,清算の結了等,,,2015-10-05,1,,,,,ラマナ,0
62,1011602006325,登記記録の閉鎖等,0,2023-12-28,2023-12-25,有限会社高忠工務店,,有限会社,東京都,練馬区,石神井台５丁目２８番２号,,13,120,1770045,,,2023-12-25,清算の結了等,,,2015-10-05,1,,,,,タカチュウコウムテン,0
81,1020001087843,登記記録の閉鎖等,0,2023-12-28,2023-12-21,日本モンタプラスト株式会社,,株式会社,神奈川県,横浜市港北区,新横浜２丁目６番地３ＤＳＭ新横浜ビル２Ｆ,,14,109,2220033,,,2023-12-21,清算の結了等,,,2015-10-05,1,,,,,,0
86,1020002038184,登記記録の閉鎖等,0,2023-12-28,2023-12-22,有限会社三惠,,有限会社,神奈川県,横浜市鶴見区,下野谷町４丁目１７２番地,,14,101,2300047,,,2023-12-22,清算の結了等,,,2015-10-05,1,,,,,ミエ,0
95,1021002026476,登記記録の閉鎖等,0,2023-12-28,2023-12-25,有限会社アイビーライフ,,有限会社,神奈川県,相模原市南区,古淵１丁目２番１０号,,14,153,2520344,,,2023-12-25,清算の結了等,,,2015-10-05,1,,,,,アイビーライフ,0
96,1021002033084,登記記録の閉鎖等,0,2023-12-28,2023-12-25,有限会社芳志工業,,有限会社,神奈川県,厚木市,三田３０３１番地３,,14,212,2430211,,,2023-12-25,清算の結了等,,,2015-10-05,1,,,,,ホウシコウギョウ,0
107,1030001131609,登記記録の閉鎖等,0,2023-12-28,2023-12-21,ＴＫＴ株式会社,,株式会社,埼玉県,草加市,花栗３丁目２０番４３号,,11,221,3400044,,,2023-12-21,清算の結了等,,,2019-06-25,1,,,,,ティーケイティー,0
114,1030002113102,登記記録の閉鎖等,0,2023-12-28,2023-12-18,有限会社木村塗装,,有限会社,埼玉県,熊谷市,柿沼９８６番地１８,,11,202,3600803,,,2023-12-18,清算の結了等,,,2015-10-05,1,,,,,キムラトソウ,0
124,1040002006065,登記記録の閉鎖等,0,2023-12-28,2023-12-15,有限会社鈴平,,有限会社,千葉県,千葉市花見川区,幕張本郷１丁目１２番８－１０２号,,12,102,2620033,,,2023-12-15,合併による解散等,4040001122455,令和５年１２月１５日千葉市花見川区幕張本郷一丁目１２番８－１０２号Ｓ－ＴＥＣ株式会社（4040001122455）に合併し解散,2015-10-05,1,,,,,スズヘイ,0
125,1040002098524,登記記録の閉鎖等,0,2023-12-28,2023-12-18,有限会社ケイ・エンタープライズ,,有限会社,千葉県,野田市,光葉町１丁目３２番地９,,12,208,2780057,,,2023-12-18,清算の結了等,,,2015-10-05,1,,,,,ケイエンタープライズ,0
134,1070002033263,登記記録の閉鎖等,0,2023-12-28,2023-12-22,有限会社亀山製袋,,有限会社,群馬県,館林市,大街道１丁目４番７号,,10,207,3740066,,,2023-12-22,清算の結了等,,,2015-10-05,1,,,,,カメヤマセイタイ,0
145,1120001008541,登記記録の閉鎖等,0,2023-12-28,2023-12-26,株式会社双葉製本所,,株式会社,大阪府,大阪市都島区,内代町４丁目１番２５号,,27,102,5340013,,,2023-12-26,清算の結了等,,,2015-10-05,1,,,,,フタバセイホンショ,0
150,1120001122210,登記記録の閉鎖等,0,2023-12-28,2023-12-26,株式会社港エステート,,株式会社,大阪府,大阪市港区,夕凪２丁目９番２０号,,27,107,5520004,,,2023-12-26,清算の結了等,,,2015-10-05,1,,,,,ミナトエステート,0
165,1140001028959,登記記録の閉鎖等,0,2023-12-28,2023-12-20,株式会社クリエートロード,,株式会社,兵庫県,神戸市東灘区,住吉本町２丁目１４番１－３０２号,,28,101,6580051,,,2023-12-20,合併による解散等,1140001012376,令和５年１２月１日神戸市兵庫区築地町１番２６号相田運輸株式会社（1140001012376）に合併し解散,2015-10-05,1,,,,,クリエートロード,0
170,1140002033108,登記記録の閉鎖等,0,2023-12-28,2023-12-26,有限会社西本商事,,有限会社,兵庫県,揖保郡太子町,太田１４９９番地の７,,28,464,6711511,,,2023-12-26,清算の結了等,,,2015-10-05,1,,,,,ニシモトショウジ,0
172,1140005003660,登記記録の閉鎖等,0,2023-12-28,2023-12-27,特定非営利活動法人暮しの寺小屋ライフサイエンス,,その他の設立登記法人,兵庫県,神戸市中央区,港島中町３丁目１番地の２神戸ポートビレジ２号棟３２１号,,28,110,6500046,,,2023-12-27,清算の結了等,,,2015-10-05,1,,,,,クラシノテラコヤライフサイエンス,0
181,1180001129992,登記記録の閉鎖等,0,2023-12-28,2023-12-25,株式会社Ｆｕｎ　Ｓｏｌｕｔｉｏｎｓ,,株式会社,愛知県,稲沢市,西島中町１５５番地,,23,220,4928327,,,2023-12-25,清算の結了等,,,2017-11-06,1,,,,,ファンソリューションズ,0
206,1300001007814,登記記録の閉鎖等,0,2023-12-28,2023-12-26,株式会社松尾創設,,株式会社,佐賀県,伊万里市,松浦町桃川３０３７番地,,41,205,8495261,,,2023-12-26,清算の結了等,,,2015-10-05,1,,,,,マツオソウセツ,0
211,1340001005401,登記記録の閉鎖等,0,2023-12-28,2023-12-27,南九州船用品株式会社,,株式会社,鹿児島県,鹿児島市,喜入中名町２８５６番５,,46,201,8910202,,,2023-12-27,清算の結了等,,,2015-10-05,1,,,,,ミナミキュウシュウセンヨウヒン,0
220,1370001007337,登記記録の閉鎖等,0,2023-12-28,2023-12-25,株式会社エッセンス,,株式会社,宮城県,仙台市青葉区,中央１丁目６番２７号,,04,101,9800021,,,2023-12-25,合併による解散等,5370001007358,令和５年１２月２５日仙台市青葉区中央一丁目６番２７号株式会社エンパル（5370001007358）に合併し解散,2015-10-05,1,,,,,エッセンス,0
226,1410002003297,登記記録の閉鎖等,0,2023-12-28,2023-12-25,有限会社プロス秋田,,有限会社,秋田県,秋田市,将軍野東３丁目１番１８号,,05,201,0110931,,,2023-12-25,清算の結了等,,,2015-10-05,1,,,,,プロスアキタ,0
228,1420005004069,登記記録の閉鎖等,0,2023-12-28,2023-12-20,中村川振興漁業協同組合,,その他の設立登記法人,青森県,西津軽郡鰺ヶ沢町,大字舞戸町字蒲生１１４番地１２,,02,321,0382761,,,2023-12-20,清算の結了等,,,2015-10-05,1,,,,,ナカムラガワシンコウ,0
240,1460103000701,登記記録の閉鎖等,0,2023-12-28,2023-12-26,合同会社Ｐｉｎｏｋｉｏ,,合同会社,北海道,帯広市,西十条南１３丁目３番地,,01,207,0800020,,,2023-12-26,清算の結了等,,,2015-10-05,1,,,,,ピノキオ,0
243,1470002005767,登記記録の閉鎖等,0,2023-12-28,2023-12-26,有限会社福井製麺,,有限会社,香川県,高松市,新田町甲３７５番地,,37,201,7610102,,,2023-12-26,清算の結了等,,,2015-10-05,1,,,,,フクイセイメン,0
258,2010001182009,登記記録の閉鎖等,0,2023-12-28,2023-12-25,エンデバー・ユナイテッド・パートナーズ・シックス株式会社,,株式会社,東京都,千代田区,丸の内２丁目５番１号丸の内二丁目ビル６階,,13,101,1000005,,,2023-12-25,清算の結了等,,,2017-03-08,1,,,,,エンデバーユナイテッドパートナーズシックス,0
265,2010002049974,登記記録の閉鎖等,0,2023-12-28,2023-12-26,有限会社トータル・ライフ・デザイン,,有限会社,東京都,目黒区,鷹番３丁目９番１１号,,13,110,1520004,,,2023-12-26,清算の結了等,,,2015-10-05,1,,,,,トータルライフデザイン,0
268,2010005030485,登記記録の閉鎖等,0,2023-12-28,2023-12-25,オーキッド一般社団法人,,その他の設立登記法人,東京都,千代田区,丸の内３丁目１番１号東京共同会計事務所内,,13,101,1000005,,,2023-12-25,清算の結了等,,,2019-07-19,1,,,,,オーキッド,0
287,2010702015425,登記記録の閉鎖等,0,2023-12-28,2023-12-25,有限会社芸能企画,,有限会社,東京都,品川区,大崎２丁目９番２－２４０９号,,13,109,1410032,,,2023-12-25,清算の結了等,,,2015-10-05,1,,,,,ゲイノウキカク,0
293,2010901032758,登記記録の閉鎖等,0,2023-12-28,2023-12-21,株式会社ソモ,,株式会社,東京都,世田谷区,桜３丁目１４番１０号,,13,112,1560053,,,2023-12-21,清算の結了等,,,2015-10-05,1,,,,,ソモ,0
310,2011101052621,登記記録の閉鎖等,0,2023-12-28,2023-12-25,Ｇｌｏｂａｌ　Ｍｅｄｉｃａｌ　Ｓｃｉｅｎｃｅ株式会社,,株式会社,東京都,新宿区,大久保１丁目１１番３号,,13,104,1690072,,,2023-12-25,清算の結了等,,,2015-10-05,1,,,,,グローバルメディカルサイエンス,0
319,2011301006798,登記記録の閉鎖等,0,2023-12-28,2023-12-25,株式会社マルマサ,,株式会社,東京都,小金井市,前原町５丁目１６番１号,,13,210,1840013,,,2023-12-25,清算の結了等,,,2015-10-05,1,,,,,,0
336,2013301028715,登記記録の閉鎖等,0,2023-12-28,2023-12-26,サイコリンク株式会社,,株式会社,東京都,新宿区,神楽坂１丁目１５神楽坂１丁目ビル５Ｆ,,13,104,1620825,,,2023-12-26,清算の結了等,,,2015-10-05,1,,,,,サイコリンク,0
353,2021002009793,登記記録の閉鎖等,0,2023-12-28,2023-12-26,有限会社沼上鉄工所,,有限会社,神奈川県,高座郡寒川町,一之宮９丁目２４番２２号,,14,321,2530111,,,2023-12-26,清算の結了等,,,2015-10-05,1,,,,,ヌマガミテッコウジョ,0
357,2021002059624,登記記録の閉鎖等,0,2023-12-28,2023-12-25,有限会社ほり工業,,有限会社,神奈川県,平塚市,南金目１４１８番地の１５,,14,203,2591201,,,2023-12-25,清算の結了等,,,2015-10-05,1,,,,,,0
367,2030002063247,登記記録の閉鎖等,0,2023-12-28,2023-12-21,有限会社住吉精肉店,00016929,有限会社,埼玉県,富士見市,貝塚２丁目４番１０号,,11,235,3540012,,,2023-12-21,清算の結了等,,,2015-10-05,1,,,,,スミヨシセイニクテン,0
371,2040001020875,登記記録の閉鎖等,0,2023-12-28,2023-12-19,株式会社成和,,株式会社,千葉県,八千代市,八千代台東２丁目１８番２７号,,12,221,2760032,,,2023-12-19,清算の結了等,,,2015-10-05,1,,,,,セイワ,0
377,2040001122218,登記記録の閉鎖等,0,2023-12-28,2023-12-15,株式会社ＦＤＬａｂｏ,,株式会社,千葉県,千葉市中央区,中央４丁目８－７グランデ千葉県庁前３Ｆ,,12,101,2600013,,,2023-12-15,清算の結了等,,,2022-02-16,1,,,,,エフディラボ,0
387,2050005012983,登記記録の閉鎖等,0,2023-12-28,2023-12-25,特定非営利活動法人和,,その他の設立登記法人,茨城県,水戸市,平須町１８８５番地の１,,08,201,3100853,,,2023-12-25,清算の結了等,,,2021-12-13,1,,,,,ナゴミ,0
393,2080402003384,登記記録の閉鎖等,0,2023-12-28,2023-12-25,有限会社サンマッチ,,有限会社,静岡県,浜松市中区,佐鳴台３丁目４６番２０号,,22,131,4328021,,,2023-12-25,清算の結了等,,,2015-10-05,1,,,,,サンマッチ,0
399,2120001187491,登記記録の閉鎖等,0,2023-12-28,2023-12-27,ツルガ生コンクリート工業株式会社,,株式会社,大阪府,大阪市此花区,常吉２丁目２番２７号,,27,104,5540052,,,2023-12-27,清算の結了等,,,2015-10-05,1,,,,,ツルガナマコンクリートコウギョウ,0
400,2120001252502,登記記録の閉鎖等,0,2023-12-28,2023-12-27,ＫＡＭ株式会社,,株式会社,大阪府,大阪市中央区,淡路町２丁目１番１０号,,27,128,5410047,,,2023-12-27,清算の結了等,,,2023-02-16,1,,,,,カム,0
407,2120002035047,登記記録の閉鎖等,0,2023-12-28,2023-12-25,有限会社華洋学院商会,,有限会社,大阪府,大阪市浪速区,難波中２丁目６番１５－７０１号,,27,111,5560011,,,2023-12-25,清算の結了等,,,2015-10-05,1,,,,,カヨウガクインショウカイ,0
421,2130003005295,登記記録の閉鎖等,0,2023-12-28,2023-12-20,合同会社竹繊維研究所,,合同会社,京都府,南丹市,八木町南広瀬中河原２８番地,,26,213,6290151,,,2023-12-20,清算の結了等,,,2017-11-29,1,,,,,タケセンイケンキュウショ,0
433,2160003001226,登記記録の閉鎖等,0,2023-12-28,2023-12-26,合同会社ＢＳＡ,,合同会社,滋賀県,大津市,大江５丁目３５番１３号,,25,201,5202141,,,2023-12-26,清算の結了等,,,2015-10-05,1,,,,,ビーサ,0
442,2180002000012,登記記録の閉鎖等,0,2023-12-28,2023-12-25,有限会社愛幸技研,,有限会社,愛知県,名古屋市守山区,天子田３丁目１２０５番地,,23,113,4630037,,,2023-12-25,清算の結了等,,,2015-10-05,1,,,,,アイコウギケン,0
447,2180302012822,登記記録の閉鎖等,0,2023-12-28,2023-12-21,有限会社井上溶接工業所,,有限会社,愛知県,豊川市,伊奈町慶応２３番地４９,,23,207,4410105,,,2023-12-21,清算の結了等,,,2015-10-05,1,,,,,イノウエヨウセツコウギョウショ,0
448,2180303004661,登記記録の閉鎖等,0,2023-12-28,2023-12-21,合同会社Ｔｒｕｓｔ,,合同会社,愛知県,豊田市,豊栄町３丁目１１２番地１１,,23,211,4701201,,,2023-12-21,清算の結了等,,,2020-06-18,1,,,,,トラスト,0
452,2190005010073,登記記録の閉鎖等,0,2023-12-28,2023-12-27,一般社団法人知徳会,,その他の設立登記法人,三重県,伊賀市,服部町２丁目９７番地,,24,216,5180007,,,2023-12-27,清算の結了等,,,2015-10-05,1,,,,,チトクカイ,0
461,2220002015286,登記記録の閉鎖等,0,2023-12-28,2023-12-26,有限会社みずはら,,有限会社,石川県,羽咋市,川原町チ１２１番地１,,17,207,9250033,,,2023-12-26,清算の結了等,,,2015-10-05,1,,,,,ミズハラ,0
462,2230002007695,登記記録の閉鎖等,0,2023-12-28,2023-12-21,有限会社田中建設,,有限会社,富山県,魚津市,経田西町１４番９号,,16,204,9370006,,,2023-12-21,清算の結了等,,,2015-10-05,1,,,,,タナカケンセツ,0
467,2240001021424,登記記録の閉鎖等,0,2023-12-28,2023-12-25,堀田ソリューション株式会社,,株式会社,広島県,広島市中区,吉島西３丁目６番１５－６０２号,,34,101,7300823,,,2023-12-25,清算の結了等,,,2015-10-05,1,,,,,ホッタソリューション,0
472,2270002002107,登記記録の閉鎖等,0,2023-12-28,2023-12-26,有限会社鳥取デンタル,,有限会社,鳥取県,鳥取市,大覚寺９３番地２７,,31,201,6800863,,,2023-12-26,清算の結了等,,,2015-10-05,1,,,,,,0
473,2270002004805,登記記録の閉鎖等,0,2023-12-28,2023-12-26,有限会社ズーム,,有限会社,鳥取県,鳥取市,南吉方１丁目３４番地,,31,201,6800843,,,2023-12-26,清算の結了等,,,2015-10-05,1,,,,,,0
504,2340002000160,登記記録の閉鎖等,0,2023-12-28,2023-12-27,有限会社南日本クリーンマット,,有限会社,鹿児島県,鹿児島市,宮之浦町３１９５番地１,,46,201,8911305,,,2023-12-27,清算の結了等,,,2015-10-05,1,,,,,ミナミニホンクリーンマット,0
507,2370002000050,登記記録の閉鎖等,0,2023-12-28,2023-12-25,有限会社アロエベラあかばね,,有限会社,宮城県,仙台市泉区,桂２丁目２２番６号,,04,105,9813134,,,2023-12-25,清算の結了等,,,2015-10-05,1,,,,,アロエベラアカバネ,0
509,2370802000794,登記記録の閉鎖等,0,2023-12-28,2023-12-26,有限会社越前商店,,有限会社,宮城県,岩沼市,南長谷字原西６１番地の６,,04,211,9892454,,,2023-12-26,清算の結了等,,,2015-10-05,1,,,,,エチゼンショウテン,0
513,2390005007850,登記記録の閉鎖等,0,2023-12-28,2023-12-15,特定非営利活動法人情報開発研究会,,その他の設立登記法人,山形県,酒田市,大川渡字五反割５６番地の２,,06,204,9996813,,,2023-12-15,清算の結了等,,,2015-10-05,1,,,,,ジョウホウカイハツケンキュウカイ,0
523,2480001007416,登記記録の閉鎖等,0,2023-12-28,2023-12-26,株式会社ラ・フォーレつるぎ山,,株式会社,徳島県,美馬郡つるぎ町,一宇字葛籠６１９８番地の２,00005833,36,468,7794306,,,2023-12-26,清算の結了等,,,2015-10-05,1,,,,,ラフォーレツルギサン,0
546,3010401024461,登記記録の閉鎖等,0,2023-12-28,2023-12-20,ハリウッドサービス株式会社,,株式会社,東京都,港区,六本木６丁目４番１号,,13,103,1060032,,,2023-12-20,合併による解散等,7010401024458,令和５年１２月２０日東京都港区六本木六丁目４番１号ハリウッド株式会社（7010401024458）に合併し解散,2015-10-05,1,,,,,ハリウッドサービス,0
557,3010501046967,登記記録の閉鎖等,0,2023-12-28,2023-12-25,成栄商運株式会社,,株式会社,東京都,台東区,浅草橋５丁目２番３号,,13,106,1110053,,,2023-12-25,清算の結了等,,,2021-02-25,1,,,,,セイエイショウウン,0
562,3010601029938,登記記録の閉鎖等,0,2023-12-28,2023-12-20,大和トレード株式会社,,株式会社,東京都,北区,東十条５丁目１０番１２号,,13,117,1140001,,,2023-12-20,清算の結了等,,,2015-10-05,1,,,,,ダイワトレード,0
576,3010901047846,登記記録の閉鎖等,0,2023-12-28,2023-12-21,株式会社ｋｕｋｋｉ,,株式会社,東京都,世田谷区,弦巻３丁目３０番５号,,13,112,1540016,,,2023-12-21,清算の結了等,,,2021-01-15,1,,,,,クッキ,0
593,3011002023349,登記記録の閉鎖等,0,2023-12-28,2023-12-27,有限会社キゴウラボ,,有限会社,東京都,渋谷区,渋谷３丁目１番９号矢沢ビル４階,,13,113,1500002,,,2023-12-27,清算の結了等,,,2015-10-05,1,,,,,キゴウラボ,0
594,3011003015436,登記記録の閉鎖等,0,2023-12-28,2023-12-22,合同会社ＭＥＡＣＯ,,合同会社,東京都,渋谷区,道玄坂１丁目１０番８号渋谷道玄坂東急ビル２Ｆ－Ｃ,,13,113,1500043,,,2023-12-22,清算の結了等,,,2022-09-27,1,,,,,メアコ,0
597,3011101032721,登記記録の閉鎖等,0,2023-12-28,2023-12-25,株式会社スペース・スリー,,株式会社,東京都,新宿区,大久保２丁目２４番８号,,13,104,1690072,,,2023-12-25,清算の結了等,,,2015-10-05,1,,,,,スペーススリー,0
617,3013201015597,登記記録の閉鎖等,0,2023-12-28,2023-12-22,株式会社三神エンタープライズ,,株式会社,東京都,目黒区,五本木３丁目７番１０号,,13,110,1530053,,,2023-12-22,清算の結了等,,,2015-10-05,1,,,,,ミカミエンタープライズ,0
623,3013303006296,登記記録の閉鎖等,0,2023-12-28,2023-12-18,Ｃｈｅｅｓｅ　Ｎｏｎｃｅ合同会社,,合同会社,東京都,豊島区,南大塚１丁目６０番２０号天翔大塚駅前ビルＳ５０８号室,,13,116,1700005,,,2023-12-18,清算の結了等,,,2022-09-16,1,,,,,チーズナンス,0
624,3013401000011,登記記録の閉鎖等,0,2023-12-28,2023-12-20,株式会社アクティブ,,株式会社,東京都,日野市,大坂上１丁目２９番１号,,13,212,1910061,,,2023-12-20,清算の結了等,,,2015-10-05,1,,,,,アクティブ,0
625,3020001031262,登記記録の閉鎖等,0,2023-12-28,2023-12-22,株式会社ライフクリエイト,,株式会社,神奈川県,横浜市金沢区,釜利谷東２丁目１１番１４号ＭＫビル２０２号,,14,108,2360042,,,2023-12-22,清算の結了等,,,2015-10-05,1,,,,,ライフクリエイト,0
627,3020001099036,登記記録の閉鎖等,0,2023-12-28,2023-12-25,株式会社トランスペアレント,,株式会社,神奈川県,大和市,大和東２丁目５番１２号,,14,213,2420017,,,2023-12-25,清算の結了等,,,2015-10-05,1,,,,,,0
630,3020002100611,登記記録の閉鎖等,0,2023-12-28,2023-12-22,有限会社バーゼルコーポレーション,,有限会社,埼玉県,川越市,大字的場１８３１番地１３,,11,201,3501101,,,2023-12-22,清算の結了等,,,2015-10-05,1,,,,,バーゼルコーポレーション,0
645,3030001029818,登記記録の閉鎖等,0,2023-12-28,2023-12-20,鎌倉街道株式会社,,株式会社,神奈川県,横浜市中区,滝之上１２０番地コンフォール滝ノ上４号棟２０２号室,,14,104,2310837,,,2023-12-20,清算の結了等,,,2015-10-05,1,,,,,カマクラカイドウ,0
648,3030001151068,登記記録の閉鎖等,0,2023-12-28,2023-12-18,森興産株式会社,,株式会社,埼玉県,和光市,新倉２丁目１２番１－２０６号　日神パレステージ和光,,11,229,3510115,,,2023-12-18,清算の結了等,,,2022-11-14,1,,,,,モリコウサン,0
653,3030002092344,登記記録の閉鎖等,0,2023-12-28,2023-12-11,有限会社小久保ソーイング,,有限会社,埼玉県,坂戸市,西坂戸３丁目１３番１４号,,11,239,3500247,,,2023-12-11,清算の結了等,,,2015-10-05,1,,,,,コクボソーイング,0
655,3030003019065,登記記録の閉鎖等,0,2023-12-28,2023-12-25,ＡＳＡＰ合同会社,,合同会社,埼玉県,春日部市,大場８０６－９,,11,214,3440021,,,2023-12-25,清算の結了等,,,2022-03-22,1,,,,,エイサップ,0
657,3040001088689,登記記録の閉鎖等,0,2023-12-28,2023-12-18,佐倉都市開発株式会社,,株式会社,千葉県,佐倉市,王子台１丁目２１番１４号,,12,212,2850837,,,2023-12-18,清算の結了等,,,2015-10-05,1,,,,,サクラトシカイハツ,0
659,3040002090207,登記記録の閉鎖等,0,2023-12-28,2023-12-18,有限会社スカイシステム,,有限会社,千葉県,柏市,増尾台３丁目８番２４号,,12,217,2770052,,,2023-12-18,清算の結了等,,,2015-10-05,1,,,,,スカイシステム,0
669,3060005001844,登記記録の閉鎖等,0,2023-12-28,2023-12-22,医療法人仁杖会,,その他の設立登記法人,栃木県,宇都宮市,本町１番１９号,,09,201,3200033,,,2023-12-22,清算の結了等,,,2015-10-05,1,,,,,ジンジョウカイ,0
677,3080001000501,登記記録の閉鎖等,0,2023-12-28,2023-12-26,株式会社岩田商会,,株式会社,静岡県,静岡市駿河区,広野２丁目６番４号,,22,102,4210121,,,2023-12-26,清算の結了等,,,2023-12-26,1,,,,,イワタショウカイ,0
678,3080101013972,登記記録の閉鎖等,0,2023-12-28,2023-12-25,アスカフーズ株式会社,,株式会社,静岡県,伊東市,玖須美元和田７２７番地の３２４,,22,208,4140045,,,2023-12-25,清算の結了等,,,2015-10-05,1,,,,,アスカフーズ,0
685,3100001030743,登記記録の閉鎖等,0,2023-12-28,2023-12-21,株式会社信越総合ビルド,,株式会社,長野県,長野市,西後町１５８４番地２,,20,201,3810000,,,2023-12-21,清算の結了等,,,2017-11-16,1,,,,,シンエツソウゴウビルド,0
689,3120001037745,登記記録の閉鎖等,0,2023-12-28,2023-12-26,河内屋鰹節株式会社,,株式会社,大阪府,大阪市浪速区,敷津東１丁目７番１７号,,27,111,5560012,,,2023-12-26,清算の結了等,,,2015-10-05,1,,,,,カワチヤカツオブシ,0
691,3120001169695,登記記録の閉鎖等,0,2023-12-28,2023-12-26,株式会社アルマダホールディングス,,株式会社,大阪府,大阪市北区,天満２丁目３番４号,,27,127,5300043,,,2023-12-26,清算の結了等,,,2015-10-05,1,,,,,アルマダホールディングス,0
704,3120003011285,登記記録の閉鎖等,0,2023-12-28,2023-12-26,合同会社Ｐａｎｄａ－ｙａ,,合同会社,大阪府,大阪市北区,芝田２丁目３番２号,,27,127,5300012,,,2023-12-26,清算の結了等,,,2016-01-12,1,,,,,パンダヤ,0
707,3120101027704,登記記録の閉鎖等,0,2023-12-28,2023-12-07,株式会社メディカルクリエイト,,株式会社,大阪府,堺市堺区,緑町１丁１４番地８,,27,141,5900907,,,2023-12-07,清算の結了等,,,2015-10-05,1,,,,,,0
711,3120901006147,登記記録の閉鎖等,0,2023-12-28,2023-12-26,株式会社北本商店,,株式会社,大阪府,吹田市,朝日町５番２２号,,27,205,5640027,,,2023-12-26,清算の結了等,,,2015-10-05,1,,,,,キタモトショウテン,0
718,3140001024254,登記記録の閉鎖等,0,2023-12-28,2023-12-25,東邦商会株式会社,,株式会社,兵庫県,神戸市中央区,磯辺通３丁目１番２号,,28,110,6510084,,,2023-12-25,清算の結了等,,,2015-10-05,1,,,,,トウホウショウカイ,0
720,3140001061850,登記記録の閉鎖等,0,2023-12-28,2023-12-25,株式会社三好屋青果,,株式会社,兵庫県,姫路市,延末２９５番地,,28,201,6700966,,,2023-12-25,清算の結了等,,,2015-10-05,1,,,,,ミヨシヤセイカ,0
732,3160002011290,登記記録の閉鎖等,0,2023-12-28,2023-12-25,有限会社木村建鐵,,有限会社,滋賀県,高島市,安曇川町北船木２６８７番地１,,25,212,5201232,,,2023-12-25,清算の結了等,,,2015-10-05,1,,,,,キムラケンテツ,0
741,3180302015824,登記記録の閉鎖等,0,2023-12-28,2023-12-20,有限会社フジタビルサービス,,有限会社,愛知県,蒲郡市,三谷町五舗１１番地,,23,214,4430021,,,2023-12-20,清算の結了等,,,2015-10-05,1,,,,,フジタビルサービス,0
747,3200001008242,登記記録の閉鎖等,0,2023-12-28,2023-12-26,株式会社澤田屋,,株式会社,岐阜県,岐阜市,野一色１丁目１１番８号,,21,201,5008226,,,2023-12-26,清算の結了等,,,2015-10-05,1,,,,,サワダヤ,0
748,3200001021204,登記記録の閉鎖等,0,2023-12-28,2023-12-25,株式会社一越商店,,株式会社,岐阜県,土岐市,泉町大富２４７番地の９,,21,212,5095132,,,2023-12-25,清算の結了等,,,2015-10-05,1,,,,,イチコシショウテン,0
752,3220001013827,登記記録の閉鎖等,0,2023-12-28,2023-12-26,温泉開発株式会社,,株式会社,石川県,加賀市,山代温泉桔梗丘２丁目５６番地,,17,206,9220257,,,2023-12-26,清算の結了等,,,2015-10-05,1,,,,,オンセンカイハツ,0
755,3220003001219,登記記録の閉鎖等,0,2023-12-28,2023-12-26,合資会社宮谷商会,,合資会社,石川県,羽咋市,東川原町柳橋７４番地６,,17,207,9250032,,,2023-12-26,清算の結了等,,,2015-10-05,1,,,,,ミヤタニショウカイ,0
758,3240001012678,登記記録の閉鎖等,0,2023-12-28,2023-12-22,株式会社レタス,,株式会社,広島県,広島市中区,土橋町１番１－１００３号,,34,101,7300854,,,2023-12-22,清算の結了等,,,2015-10-05,1,,,,,レタス,0
772,3290001051044,登記記録の閉鎖等,0,2023-12-28,2023-12-25,株式会社アイクル,,株式会社,福岡県,久留米市,荒木町荒木１９７８番地３７,,40,203,8300063,,,2023-12-25,清算の結了等,,,2015-10-05,1,,,,,,0
778,3290002048782,登記記録の閉鎖等,0,2023-12-28,2023-12-21,有限会社久留米オー・エー・システム,,有限会社,福岡県,久留米市,安武町武島８２７番地の２,,40,203,8300071,,,2023-12-21,清算の結了等,,,2015-10-05,1,,,,,クルメオーエーシステム,0
784,3320001014278,登記記録の閉鎖等,0,2023-12-28,2023-12-27,アクア農園株式会社,,株式会社,大分県,豊後大野市,緒方町下自在２５９番１,,44,212,8796643,,,2023-12-27,清算の結了等,,,2015-10-05,1,,,,,アクアノウエン,0
786,3320002021372,登記記録の閉鎖等,0,2023-12-28,2023-12-25,大和商事有限会社,,有限会社,大分県,中津市,耶馬溪町大字大島１０７番地,,44,203,8710431,,,2023-12-25,清算の結了等,,,2015-10-05,1,,,,,ヤマトショウジ,0
795,3370001020726,登記記録の閉鎖等,0,2023-12-28,2023-12-26,株式会社ＳＨＩＭＡ．Ｙ．Ｆアカデミー,,株式会社,宮城県,仙台市青葉区,台原３丁目２９番５０号,,04,101,9810911,,,2023-12-26,清算の結了等,,,2015-10-05,1,,,,,シマワイエフアカデミー,0
800,3390002015070,登記記録の閉鎖等,0,2023-12-28,2023-12-26,有限会社三嶋建設,,有限会社,山形県,長井市,中道１丁目６番３６号,,06,209,9930053,,,2023-12-26,清算の結了等,,,2015-10-05,1,,,,,ミシマケンセツ,0
805,3410001006968,登記記録の閉鎖等,0,2023-12-28,2023-12-25,釈迦内鉱山株式会社,00086396,株式会社,秋田県,大館市,釈迦内字二ツ森３８番地,00086397,05,204,0170012,,,2023-12-25,清算の結了等,,,2015-10-05,1,,,,,シャカナイコウザン,0
808,3420002012147,登記記録の閉鎖等,0,2023-12-28,2023-12-21,有限会社其田農園,,有限会社,青森県,五所川原市,金木町川倉宇田野１０２番地７,,02,205,0370201,,,2023-12-21,清算の結了等,,,2015-10-05,1,,,,,ソノタノウエン,0
813,3430001082330,登記記録の閉鎖等,0,2023-12-28,2023-12-21,株式会社ドーウ,,株式会社,北海道,札幌市豊平区,月寒中央通６丁目１番１５号,,01,105,0620020,,,2023-12-21,清算の結了等,,,2020-09-11,1,,,,,ドーウ,0
847,4010003034362,登記記録の閉鎖等,0,2023-12-28,2023-12-25,Ｎａｒｉｔａ　Ｒｅｎｅｗａｂｌｅ合同会社,,合同会社,東京都,千代田区,内神田２丁目２番６号５階あすな会計事務所内,,13,101,1010047,,,2023-12-25,清算の結了等,,,2021-03-05,1,,,,,ナリタリニューワブル,0
849,4010005025013,登記記録の閉鎖等,0,2023-12-28,2023-12-22,一般社団法人メディアーク,,その他の設立登記法人,東京都,文京区,西片２丁目１２番１２号,,13,105,1130024,,,2023-12-22,清算の結了等,,,2016-02-29,1,,,,,メディアーク,0
851,4010401032496,登記記録の閉鎖等,0,2023-12-28,2023-12-20,株式会社クレタ,,株式会社,東京都,港区,芝大門２丁目１０番１２号,,13,103,1050012,,,2023-12-20,清算の結了等,,,2015-10-05,1,,,,,クレタ,0
856,4010501047840,登記記録の閉鎖等,0,2023-12-28,2023-12-25,株式会社アシスト,,株式会社,東京都,台東区,竜泉１丁目９番１号,,13,106,1100012,,,2023-12-25,清算の結了等,,,2021-09-16,1,,,,,アシスト,0
865,4010701003412,登記記録の閉鎖等,0,2023-12-28,2023-12-21,コスミック産業株式会社,,株式会社,神奈川県,横浜市西区,北幸２丁目９番３０号,,14,103,2200004,,,2023-12-21,清算の結了等,,,2015-10-05,1,,,,,コスミックサンギョウ,0
869,4010803001719,登記記録の閉鎖等,0,2023-12-28,2023-12-25,合同会社きいとす,,合同会社,大分県,別府市,秋葉町３番５号,,44,202,8740937,,,2023-12-25,清算の結了等,,,2015-10-05,1,,,,,キイトス,0
893,4011101095313,登記記録の閉鎖等,0,2023-12-28,2023-12-26,株式会社ＶＲ　Ｍｕｓｉｃ,,株式会社,神奈川県,逗子市,久木６丁目３番１３号,,14,208,2490001,,,2023-12-26,清算の結了等,,,2021-06-04,1,,,,,ブイアールミュージック,0
895,4011202002168,登記記録の閉鎖等,0,2023-12-28,2023-12-26,有限会社甲州屋,,有限会社,東京都,中野区,弥生町３丁目７番７号,,13,114,1640013,,,2023-12-26,清算の結了等,,,2015-10-05,1,,,,,コウシュウヤ,0
913,4012702005081,登記記録の閉鎖等,0,2023-12-28,2023-12-25,有限会社吉田設備,,有限会社,東京都,西東京市,泉町１丁目１６番３号,,13,229,2020011,,,2023-12-25,清算の結了等,,,2015-10-05,1,,,,,ヨシダセツビ,0
915,4013201003510,登記記録の閉鎖等,0,2023-12-28,2023-12-26,株式会社高井義和建築設計事務所,,株式会社,東京都,目黒区,中町１丁目９番１８号プレアード目黒３０３,,13,110,1530065,,,2023-12-26,清算の結了等,,,2015-10-05,1,,,,,タカイヨシカズケンチクセッケイジムショ,0
920,4013302002898,登記記録の閉鎖等,0,2023-12-28,2023-12-22,グリーンハイツ有限会社,,有限会社,東京都,豊島区,駒込１丁目１３番１１号,,13,116,1700003,,,2023-12-22,清算の結了等,,,2015-10-05,1,,,,,グリーンハイツ,0
921,4020001000869,登記記録の閉鎖等,0,2023-12-28,2023-12-22,日昇ホーム株式会社,,株式会社,神奈川県,横浜市泉区,中田南１丁目１７番２号,,14,116,2450014,,,2023-12-22,清算の結了等,,,2015-10-05,1,,,,,ニッショウホーム,0
922,4020001082180,登記記録の閉鎖等,0,2023-12-28,2023-12-21,株式会社海月研究所,,株式会社,埼玉県,春日部市,南栄町１番地２,,11,214,3440057,,,2023-12-21,清算の結了等,,,2015-10-05,1,,,,,クラゲケンキュウジョ,0
923,4020001092535,登記記録の閉鎖等,0,2023-12-28,2023-12-22,株式会社グラン,,株式会社,神奈川県,川崎市多摩区,生田７丁目１７番７号,,14,135,2140038,,,2023-12-22,清算の結了等,,,2015-10-05,1,,,,,グラン,0
936,4021002054499,登記記録の閉鎖等,0,2023-12-28,2023-12-25,有限会社ガーネットクレアシオン,,有限会社,神奈川県,足柄下郡箱根町,湯本２０８番地の１５,,14,382,2500311,,,2023-12-25,合併による解散等,2021002051589,令和５年１２月２５日神奈川県足柄下郡箱根町湯本２０８番地の１５株式会社イーキャッスル（2021002051589）に合併し解散,2015-10-05,1,,,,,ガーネットクレアシオン,0
958,4050002028931,登記記録の閉鎖等,0,2023-12-28,2023-12-25,有限会社高森工務店,,有限会社,茨城県,行方市,山田１４７８番地,,08,233,3111704,,,2023-12-25,清算の結了等,,,2015-10-05,1,,,,,タカモリコウムテン,0
962,4050002035184,登記記録の閉鎖等,0,2023-12-28,2023-12-22,有限会社フラワーショップうすい,,有限会社,茨城県,常陸太田市,山下町４１３７番地６,,08,212,3130013,,,2023-12-22,清算の結了等,,,2015-10-05,1,,,,,フラワーショップウスイ,0
971,4080002018046,登記記録の閉鎖等,0,2023-12-28,2023-12-25,有限会社丸善木村建設,,有限会社,静岡県,藤枝市,平島７３２番地の２,,22,214,4260011,,,2023-12-25,清算の結了等,,,2015-10-05,1,,,,,マルゼンキムラケンセツ,0
989,4120001217362,登記記録の閉鎖等,0,2023-12-28,2023-12-25,株式会社チャチャモ,,株式会社,大阪府,大阪市住吉区,帝塚山中３丁目５番４－４０１号,,27,120,5580053,,,2023-12-25,合併による解散等,4120001169901,令和５年１２月２５日大阪市住吉区帝塚山中三丁目５番４－４０１号株式会社日本リートホールディングス（4120001169901）に合併し解散,2018-11-27,1,,,,,チャチャモ,0
1012,4140002002992,登記記録の閉鎖等,0,2023-12-28,2023-12-25,有限会社金谷モータープール,,有限会社,兵庫県,神戸市灘区,五毛通１丁目３番７号,,28,102,6570814,,,2023-12-25,清算の結了等,,,2015-10-05,1,,,,,カナヤモータープール,0
1022,4180001064766,登記記録の閉鎖等,0,2023-12-28,2023-12-22,株式会社光建装,,株式会社,愛知県,名古屋市港区,小碓３丁目３９番地の２,,23,111,4550801,,,2023-12-22,清算の結了等,,,2015-10-05,1,,,,,ヒカリケンソウ,0
1023,4180001067703,登記記録の閉鎖等,0,2023-12-28,2023-12-25,三光建設株式会社,,株式会社,愛知県,愛知郡東郷町,大字春木字白土１番地２３３,,23,302,4700162,,,2023-12-25,清算の結了等,,,2015-10-05,1,,,,,サンコウケンセツ,0
1031,4180003010181,登記記録の閉鎖等,0,2023-12-28,2023-12-25,合資会社アニモ,,合資会社,愛知県,春日井市,大手町３丁目１１番地１２,,23,206,4860807,,,2023-12-25,清算の結了等,,,2015-10-05,1,,,,,アニモ,0
1033,4180302022761,登記記録の閉鎖等,0,2023-12-28,2023-12-21,有限会社テクノメック,,有限会社,愛知県,豊田市,泉町２丁目６番地１３,,23,211,4710803,,,2023-12-21,清算の結了等,,,2015-10-05,1,,,,,テクノメック,0
1042,4230001006779,登記記録の閉鎖等,0,2023-12-28,2023-12-26,ワムデザインハウス株式会社,,株式会社,富山県,富山市,黒瀬１７０番地５,,16,201,9398213,,,2023-12-26,清算の結了等,,,2015-10-05,1,,,,,ワムデザインハウス,0
1049,4240002037566,登記記録の閉鎖等,0,2023-12-28,2023-12-20,有限会社エー・オー・シー,,有限会社,広島県,広島市南区,大須賀町１４番１２号,,34,103,7320821,,,2023-12-20,清算の結了等,,,2015-10-05,1,,,,,エーオーシー,0
1065,4290002043766,登記記録の閉鎖等,0,2023-12-28,2023-12-22,有限会社はとや,,有限会社,福岡県,朝倉市,来春１３５番地１Ｄ－ｒｏｏｍ来春２０７,,40,228,8380069,,,2023-12-22,清算の結了等,,,2015-10-05,1,,,,,ハトヤ,0
1066,4290002044616,登記記録の閉鎖等,0,2023-12-28,2023-12-21,有限会社浅田工務店,,有限会社,福岡県,嘉麻市,平１３１２番地の１２,,40,227,8200203,,,2023-12-21,清算の結了等,,,2015-10-05,1,,,,,アサダコウムテン,0
1070,4300003000054,登記記録の閉鎖等,0,2023-12-28,2023-12-27,横尾産業機械合資会社,,合資会社,佐賀県,佐賀市,六座町４番６号,,41,201,8400845,,,2023-12-27,清算の結了等,,,2015-10-05,1,,,,,ヨコオサンギョウキカイ,0
1071,4310001015012,登記記録の閉鎖等,0,2023-12-28,2023-12-28,株式会社コア,,株式会社,長崎県,長崎市,五島町７番１１－１００２号,,42,201,8500036,,,2023-12-28,清算の結了等,,,2017-07-12,1,,,,,コア,0
1075,4340001010431,登記記録の閉鎖等,0,2023-12-28,2023-12-27,株式会社シモケン,,株式会社,鹿児島県,鹿児島市,皆与志町４２５１番地,,46,201,8911206,,,2023-12-27,清算の結了等,,,2015-10-05,1,,,,,シモケン,0
1080,4370002017919,登記記録の閉鎖等,0,2023-12-28,2023-12-27,北産商事有限会社,,有限会社,宮城県,仙台市若林区,土樋２５６番地,00082038,04,103,9840065,,,2023-12-27,清算の結了等,,,2015-10-05,1,,,,,ホクサンショウジ,0
1092,4470001006474,登記記録の閉鎖等,0,2023-12-28,2023-12-27,株式会社オーエスアール,,株式会社,香川県,高松市,香川町大野３９番地,,37,201,7611701,,,2023-12-27,清算の結了等,,,2015-10-05,1,,,,,オーエスアール,0
1111,5010001012170,登記記録の閉鎖等,0,2023-12-28,2023-12-25,株式会社エース企画,,株式会社,東京都,渋谷区,渋谷２丁目１２番１１号,,13,113,1500002,,,2023-12-25,清算の結了等,,,2015-10-05,1,,,,,エースキカク,0
1123,5010005013462,登記記録の閉鎖等,0,2023-12-28,2023-12-25,Ｓｔ．Ｍａｒｔｉｎｓ　Ｊａｐａｎ　Ｔｒｕｓｔ一般社団法人,,その他の設立登記法人,東京都,千代田区,丸の内３丁目１番１号東京共同会計事務所内,,13,101,1000005,,,2023-12-25,清算の結了等,,,2015-10-05,1,,,,,セントマーティンズジャパントラスト,0
1131,5010401135455,登記記録の閉鎖等,0,2023-12-28,2023-12-20,ＡＩ　Ｉｎｆｉｎｉｔｙ株式会社,,株式会社,東京都,港区,南青山３丁目１－３スプライン青山東急ビル６Ｆ,,13,103,1070062,,,2023-12-20,清算の結了等,,,2017-12-11,1,,,,,エーアイインフィニティ,0
1149,5010802003624,登記記録の閉鎖等,0,2023-12-28,2023-12-25,有限会社桂製作所,,有限会社,東京都,大田区,東六郷３丁目１６番７号,,13,111,1440046,,,2023-12-25,清算の結了等,,,2015-10-05,1,,,,,カツラセイサクショ,0
1153,5010901040849,登記記録の閉鎖等,0,2023-12-28,2023-12-22,株式会社Ａｎｅｗ,,株式会社,東京都,千代田区,神田神保町２丁目７神保町二丁目ビル３階,,13,101,1010051,,,2023-12-22,清算の結了等,,,2017-09-26,1,,,,,エーニュウ,0
1155,5010905003785,登記記録の閉鎖等,0,2023-12-28,2023-12-21,一般社団法人Ｂ－ｉｓｈｉｋｉ,,その他の設立登記法人,東京都,世田谷区,三軒茶屋２丁目２２番１８号,,13,112,1540024,,,2023-12-21,清算の結了等,,,2019-06-04,1,,,,,ビイシキ,0
1185,5020001063725,登記記録の閉鎖等,0,2023-12-28,2023-12-22,株式会社アベバイオロジカルリサーチ,,株式会社,神奈川県,川崎市多摩区,西生田４丁目１番２号,,14,135,2140037,,,2023-12-22,清算の結了等,,,2015-10-05,1,,,,,アベバイオロジカルリサーチ,0
1197,5020003017258,登記記録の閉鎖等,0,2023-12-28,2023-12-22,オドリザ合同会社,,合同会社,神奈川県,川崎市高津区,坂戸３丁目１１番４１号ゲインズビルＩＩ２０２,00118801,14,134,2130012,,,2023-12-22,清算の結了等,,,2020-01-24,1,,,,,オドリザ,0
1198,5021001043502,登記記録の閉鎖等,0,2023-12-28,2023-12-22,三崎燃料株式会社,,株式会社,神奈川県,三浦市,原町１番７号,,14,210,2380223,,,2023-12-22,清算の結了等,,,2015-10-05,1,,,,,ミサキネンリョウ,0
1210,5030002077161,登記記録の閉鎖等,0,2023-12-28,2023-12-21,有限会社高澤製作所,00017147,有限会社,埼玉県,入間郡三芳町,大字上富４５９番地８,,11,324,3540045,,,2023-12-21,清算の結了等,,,2015-10-05,1,,,,,タカザワセイサクショ,0
1211,5030002121935,登記記録の閉鎖等,0,2023-12-28,2023-12-21,有限会社春日電子,,有限会社,埼玉県,秩父郡小鹿野町,下小鹿野３５６２番地,,11,365,3680101,,,2023-12-21,清算の結了等,,,2015-10-05,1,,,,,カスガデンシ,0
1213,5030003012365,登記記録の閉鎖等,0,2023-12-28,2023-12-21,東日本トレーディング合同会社,,合同会社,埼玉県,北葛飾郡杉戸町,大字堤根１０７９番地６,,11,464,3450024,,,2023-12-21,清算の結了等,,,2018-09-03,1,,,,,ヒガシニホントレーディング,0
1218,5040002019550,登記記録の閉鎖等,0,2023-12-28,2023-12-19,有限会社一直鮮,,有限会社,千葉県,船橋市,本町４丁目２３番３号,,12,204,2730005,,,2023-12-19,清算の結了等,,,2015-10-05,1,,,,,イッチョクセン,0
1220,5040002098512,登記記録の閉鎖等,0,2023-12-28,2023-12-18,有限会社東葛クリーンサービス,00021080,有限会社,千葉県,野田市,中里字阿部２２９２番地１,,12,208,2700237,,,2023-12-18,清算の結了等,,,2015-10-05,1,,,,,トウカツクリーンサービス,0
1223,5050001011755,登記記録の閉鎖等,0,2023-12-28,2023-12-22,鍋屋商事株式会社,,株式会社,茨城県,石岡市,小倉３７番地,,08,205,3150165,,,2023-12-22,清算の結了等,,,2015-10-05,1,,,,,ナベヤショウジ,0
1224,5050001045480,登記記録の閉鎖等,0,2023-12-28,2023-12-25,福岡建材工業株式会社,,株式会社,茨城県,稲敷郡阿見町,大字鈴木１６番地１９,,08,443,3000334,,,2023-12-25,清算の結了等,,,2019-01-22,1,,,,,フクオカケンザイコウギョウ,0
1234,5080402021490,登記記録の閉鎖等,0,2023-12-28,2023-12-25,有限会社上石野振興会,,有限会社,静岡県,袋井市,愛野南４丁目９番地の６,,22,216,4370040,,,2023-12-25,清算の結了等,,,2015-10-05,1,,,,,カミイシノシンコウカイ,0
1235,5100002001576,登記記録の閉鎖等,0,2023-12-28,2023-12-25,有限会社建創社,,有限会社,長野県,長野市,篠ノ井小森字西原７８７番地１,,20,201,3888003,,,2023-12-25,清算の結了等,,,2015-10-05,1,,,,,ケンソウシャ,0
1240,5120001114848,登記記録の閉鎖等,0,2023-12-28,2023-12-18,株式会社セールスレップコラボ,,株式会社,大阪府,大阪市中央区,南船場１丁目１１番９号長堀安田ビル２階,,27,128,5420081,,,2023-12-18,清算の結了等,,,2015-10-05,1,,,,,セールスレップコラボ,0
1271,5150001001762,登記記録の閉鎖等,0,2023-12-28,2023-12-20,奈良ブラザー販売株式会社,,株式会社,奈良県,奈良市,橋本町１３番地,,29,201,6308217,,,2023-12-20,合併による解散等,2150001000008,令和５年１２月２０日奈良市橋本町１３番地株式会社アオキ（2150001000008）に合併し解散,2015-10-05,1,,,,,ナラブラザーハンバイ,0
1279,5170001007064,登記記録の閉鎖等,0,2023-12-28,2023-12-26,株式会社豊成自動車,,株式会社,和歌山県,有田郡広川町,大字殿１０３番地の１,,30,362,6430062,,,2023-12-26,清算の結了等,,,2015-10-05,1,,,,,ホウセイジドウシャ,0
1287,5180001145524,登記記録の閉鎖等,0,2023-12-28,2023-12-13,Ｋ＆Ｙエンジニアリング株式会社,,株式会社,愛知県,名古屋市中村区,草薙町２丁目４４番地の１,,23,105,4530064,,,2023-12-13,清算の結了等,,,2021-04-08,1,,,,,ケイアンドワイエンジニアリング,0
1312,5270003001286,登記記録の閉鎖等,0,2023-12-28,2023-12-26,合同会社ＦＯＣＵＳ,,合同会社,鳥取県,米子市,車尾南２丁目１－２,,31,202,6830008,,,2023-12-26,清算の結了等,,,2021-03-17,1,,,,,フォーカス,0
1317,5290003014014,登記記録の閉鎖等,0,2023-12-28,2023-12-21,＿順合同会社,00130801,合同会社,福岡県,久留米市,善導寺町与田１５３－１吉田アパート２０１室,,40,203,8390823,,,2023-12-21,清算の結了等,,,2023-06-09,1,,,,,キンジュン,0
1321,5310005002575,登記記録の閉鎖等,0,2023-12-28,2023-12-20,新東海陸運送事業協同組合,,その他の設立登記法人,長崎県,佐世保市,万津町７番４７号,,42,202,8570877,,,2023-12-20,清算の結了等,,,2015-10-05,1,,,,,シントウカイリクウンソウジギョウ,0
1332,5350001010891,登記記録の閉鎖等,0,2023-12-28,2023-12-25,株式会社眞幸,,株式会社,宮崎県,小林市,堤２９００番地１,,45,205,8860003,,,2023-12-25,清算の結了等,,,2015-10-05,1,,,,,シンコウ,0
1333,5350002000487,登記記録の閉鎖等,0,2023-12-28,2023-12-26,有限会社アクレス,,有限会社,宮崎県,宮崎市,旭１丁目５番１１号,,45,201,8800803,,,2023-12-26,清算の結了等,,,2015-10-05,1,,,,,アクレス,0
1343,5380002004394,登記記録の閉鎖等,0,2023-12-28,2023-12-27,有限会社安藤冷設,,有限会社,福島県,福島市,南沢又字北川原１番地の１４,,07,201,9608254,,,2023-12-27,清算の結了等,,,2015-10-05,1,,,,,アンドウレイセツ,0
1345,5400005004488,登記記録の閉鎖等,0,2023-12-28,2023-12-22,浪板牧野農業協同組合,,その他の設立登記法人,岩手県,上閉伊郡大槌町,吉里吉里第１１地割３７番地,,03,461,0281100,,,2023-12-22,清算の結了等,,,2015-10-05,1,,,,,ナミイタボクヤ,0
1346,5400602000237,登記記録の閉鎖等,0,2023-12-28,2023-12-25,有限会社県南興産,,有限会社,岩手県,奥州市,水沢東中通り２丁目６番２７号,,03,215,0230822,,,2023-12-25,清算の結了等,,,2015-10-05,1,,,,,ケンナンコウサン,0
1347,5410001013252,登記記録の閉鎖等,0,2023-12-28,2023-12-22,株式会社ランドマーク,,株式会社,秋田県,秋田市,大住３丁目１５番２６号,,05,201,0101436,,,2023-12-22,清算の結了等,,,2022-08-09,1,,,,,ランドマーク,0
1349,5420002007888,登記記録の閉鎖等,0,2023-12-28,2023-12-25,有限会社東北アミューズメントサービス,,有限会社,青森県,八戸市,大字新井田字八幡川原１番地８,,02,203,0310813,,,2023-12-25,清算の結了等,,,2015-10-05,1,,,,,トウホクアミューズメントサービス,0
1351,5420005000997,登記記録の閉鎖等,0,2023-12-28,2023-12-25,日本山妙法寺小僧伽,,その他の設立登記法人,青森県,東津軽郡外ヶ浜町,字三厩宇鉄山番外地,00087981,02,307,0301719,,,2023-12-25,清算の結了等,,,2015-10-05,1,,,,,ニッポンザンミョウホウジショウサンガ,0
1357,5430002047710,登記記録の閉鎖等,0,2023-12-28,2023-12-20,有限会社志田商事,,有限会社,北海道,千歳市,富士４丁目９番１６号,,01,224,0660039,,,2023-12-20,清算の結了等,,,2015-10-05,1,,,,,シダショウジ,0
1366,5460101003974,登記記録の閉鎖等,0,2023-12-28,2023-12-26,株式会社ＨＩＲＯ,,株式会社,北海道,帯広市,大通南３丁目１８番地１,,01,207,0800010,,,2023-12-26,清算の結了等,,,2015-10-05,1,,,,,ヒロ,0
1367,5462502000740,登記記録の閉鎖等,0,2023-12-28,2023-12-25,有限会社丸吉漁業,,有限会社,北海道,目梨郡羅臼町,松法町１７番地３,,01,694,0861835,,,2023-12-25,清算の結了等,,,2015-10-05,1,,,,,マルキチギョギョウ,0
1380,6010001111442,登記記録の閉鎖等,0,2023-12-28,2023-12-22,日本ＩＦＡ株式会社,,株式会社,東京都,千代田区,一番町１３番地６－１９０１号,,13,101,1020082,,,2023-12-22,清算の結了等,,,2015-10-05,1,,,,,,0
1391,6010005000831,登記記録の閉鎖等,0,2023-12-28,2023-12-25,医療法人社団松仁会,,その他の設立登記法人,東京都,千代田区,鍛冶町２丁目２番９号,,13,101,1010044,,,2023-12-25,清算の結了等,,,2015-10-05,1,,,,,ショウジンカイ,0
1458,6012805002775,登記記録の閉鎖等,0,2023-12-28,2023-12-20,一般社団法人Ｒａｐｐｏｒｔ,,その他の設立登記法人,東京都,日野市,西平山５丁目１０番地の９,,13,212,1910055,,,2023-12-20,清算の結了等,,,2018-07-20,1,,,,,ラポール,0
1462,6013302002319,登記記録の閉鎖等,0,2023-12-28,2023-12-20,有限会社岡利商会,,有限会社,東京都,豊島区,南池袋１丁目２番４号,,13,116,1710022,,,2023-12-20,清算の結了等,,,2015-10-05,1,,,,,オカリショウカイ,0
1467,6020001066421,登記記録の閉鎖等,0,2023-12-28,2023-12-22,株式会社角製作所,,株式会社,神奈川県,川崎市高津区,諏訪３丁目４番３号,,14,134,2130004,,,2023-12-22,清算の結了等,,,2015-10-05,1,,,,,スミセイサクショ,0
1473,6020002080446,登記記録の閉鎖等,0,2023-12-28,2023-12-22,有限会社大西建築設計事務所,,有限会社,神奈川県,川崎市幸区,古市場２丁目６８番地,,14,132,2120052,,,2023-12-22,清算の結了等,,,2015-10-05,1,,,,,オオニシケンチクセッケイジムショ,0
1474,6020002085445,登記記録の閉鎖等,0,2023-12-28,2023-12-22,有限会社安田製作所,,有限会社,神奈川県,川崎市中原区,宮内４丁目７番２８号,,14,133,2110051,,,2023-12-22,清算の結了等,,,2015-10-05,1,,,,,ヤスダセイサクショ,0
1475,6020002098307,登記記録の閉鎖等,0,2023-12-28,2023-12-21,有限会社トップス,,有限会社,神奈川県,川崎市川崎区,大師駅前２丁目５番９号,,14,131,2100802,,,2023-12-21,清算の結了等,,,2015-10-05,1,,,,,トップス,0
1477,6021001002218,登記記録の閉鎖等,0,2023-12-28,2023-12-25,株式会社明細地図社,,株式会社,神奈川県,藤沢市,南藤沢８番１０号,,14,205,2510055,,,2023-12-25,清算の結了等,,,2015-10-05,1,,,,,メイサイチズシャ,0
1480,6021001080065,登記記録の閉鎖等,0,2023-12-28,2023-12-25,株式会社フラッグ,,株式会社,神奈川県,大和市,中央林間１丁目１０番７号,,14,213,2420007,,,2023-12-25,清算の結了等,,,2023-09-04,1,,,,,フラッグ,0
1492,6030001073078,登記記録の閉鎖等,0,2023-12-28,2023-12-25,株式会社エイシン,,株式会社,埼玉県,川口市,大字辻１２３番地５,00015237,11,203,3340004,,,2023-12-25,清算の結了等,,,2015-10-05,1,,,,,エイシン,0
1499,6030002065537,登記記録の閉鎖等,0,2023-12-28,2023-12-21,有限会社ぴこハウス,,有限会社,埼玉県,志木市,館１丁目６番地２－３０５号,,11,228,3530006,,,2023-12-21,清算の結了等,,,2015-10-05,1,,,,,ピコハウス,0
1500,6030002078539,登記記録の閉鎖等,0,2023-12-28,2023-12-22,有限会社タダコーポレーション,,有限会社,埼玉県,入間郡三芳町,大字藤久保４０１６番地４６,,11,324,3540041,,,2023-12-22,清算の結了等,,,2015-10-05,1,,,,,タダコーポレーション,0
1504,6030005000994,登記記録の閉鎖等,0,2023-12-28,2023-12-22,医療法人社団浩和会,,その他の設立登記法人,埼玉県,さいたま市緑区,東浦和３丁目２６番地３７,,11,109,3360926,,,2023-12-22,清算の結了等,,,2015-10-05,1,,,,,コウワカイ,0
1520,6060002036262,登記記録の閉鎖等,0,2023-12-28,2023-12-22,有限会社サクセス,,有限会社,栃木県,足利市,利保町１丁目３番地の３,,09,202,3260006,,,2023-12-22,清算の結了等,,,2015-10-05,1,,,,,サクセス,0
1527,6080001022468,登記記録の閉鎖等,0,2023-12-28,2023-12-25,株式会社Ｇｅｒｂｅｒａ,,株式会社,静岡県,静岡市清水区,船原２丁目２１３番地の４,,22,103,4240845,,,2023-12-25,清算の結了等,,,2018-10-03,1,,,,,ガーベラ,0
1533,6080402008231,登記記録の閉鎖等,0,2023-12-28,2023-12-27,有限会社明成住宅,,有限会社,静岡県,浜松市中区,高丘北２丁目５８番１３号,,22,131,4338119,,,2023-12-27,清算の結了等,,,2015-10-05,1,,,,,メイセイジュウタク,0
1536,6100002037900,登記記録の閉鎖等,0,2023-12-28,2023-12-22,有限会社ＳｉＮ,,有限会社,長野県,飯田市,松尾代田８８５番地１,,20,205,3950812,,,2023-12-22,清算の結了等,,,2015-10-05,1,,,,,エスアイエヌ,0
1537,6100003006739,登記記録の閉鎖等,0,2023-12-28,2023-12-25,合同会社ロコヴォイス,,合同会社,長野県,長野市,大字栗田２１２５番地長栄長野東口ビル１Ｆ，２Ｆ,,20,201,3800921,,,2023-12-25,清算の結了等,,,2022-10-25,1,,,,,ロコヴォイス,0
1540,6110002033535,登記記録の閉鎖等,0,2023-12-28,2023-12-25,有限会社本山,,有限会社,新潟県,南魚沼郡湯沢町,大字湯沢３１１１番地１,,15,461,9496101,,,2023-12-25,清算の結了等,,,2015-10-05,1,,,,,モトヤマ,0
1563,6130005005983,登記記録の閉鎖等,0,2023-12-28,2023-12-25,特定非営利活動法人スウィング,,その他の設立登記法人,京都府,京都市北区,上賀茂南大路町１９番地,,26,101,6038074,,,2023-12-25,清算の結了等,,,2015-10-05,1,,,,,スウィング,0
1581,6180001118413,登記記録の閉鎖等,0,2023-12-28,2023-12-22,株式会社ホットハートエデュケーション,,株式会社,愛知県,春日井市,鷹来町３３７７番地４,,23,206,4860804,,,2023-12-22,清算の結了等,,,2015-10-05,1,,,,,ホットハートエデュケーション,0
1593,6180302022891,登記記録の閉鎖等,0,2023-12-28,2023-12-20,有限会社豊田企画,,有限会社,愛知県,豊田市,緑ケ丘３丁目２９番地,,23,211,4710838,,,2023-12-20,清算の結了等,,,2015-10-05,1,,,,,トヨタキカク,0
1596,6190001014999,登記記録の閉鎖等,0,2023-12-28,2023-12-26,サンシリース株式会社,,株式会社,三重県,四日市市,河原田町１３０１番地,,24,202,5100874,,,2023-12-26,清算の結了等,,,2015-10-05,1,,,,,サンシリース,0
1603,6240002026749,登記記録の閉鎖等,0,2023-12-28,2023-12-20,有限会社ＥＸＣＥＥＤ,,有限会社,広島県,広島市安芸区,矢野西３丁目５３番７号,,34,107,7360085,,,2023-12-20,清算の結了等,,,2015-10-05,1,,,,,エクシード,0
1604,6240002053859,登記記録の閉鎖等,0,2023-12-28,2023-12-25,有限会社ヘスティア,,有限会社,広島県,三原市,宮浦３丁目３４番２５号,,34,204,7230051,,,2023-12-25,清算の結了等,,,2015-10-05,1,,,,,,0
1606,6280001008307,登記記録の閉鎖等,0,2023-12-28,2023-12-26,株式会社ＭＡＲＥＮ,,株式会社,島根県,浜田市,三隅町向野田３１４９番地,,32,202,6993212,,,2023-12-26,清算の結了等,,,2020-11-17,1,,,,,マレン,0
1630,6370002000757,登記記録の閉鎖等,0,2023-12-28,2023-12-26,有限会社広栄開発,,有限会社,宮城県,仙台市泉区,上谷刈２丁目１番３６号,,04,105,9813121,,,2023-12-26,清算の結了等,,,2015-10-05,1,,,,,コウエイカイハツ,0
1634,6400005005857,登記記録の閉鎖等,0,2023-12-28,2023-12-26,特定非営利活動法人立花展勝会,,その他の設立登記法人,岩手県,北上市,立花５地割１８番地８,,03,206,0240043,,,2023-12-26,清算の結了等,,,2015-10-05,1,,,,,タチバナテンショウカイ,0
1638,6420002009181,登記記録の閉鎖等,0,2023-12-28,2023-12-21,有限会社山武商事,,有限会社,青森県,八戸市,江陽５丁目８番２６号,,02,203,0310801,,,2023-12-21,清算の結了等,,,2015-10-05,1,,,,,ヤマタケショウジ,0
1641,6430002044277,登記記録の閉鎖等,0,2023-12-28,2023-12-21,有限会社海谷自工,,有限会社,北海道,北広島市,大曲工業団地１丁目４番地１,,01,234,0611274,,,2023-12-21,清算の結了等,,,2015-10-05,1,,,,,カイヤジコウ,0
1692,7010405019644,登記記録の閉鎖等,0,2023-12-28,2023-12-20,ＲＢソーラーパッション１ホールディングス一般社団法人,,その他の設立登記法人,東京都,港区,虎ノ門３丁目２２番１０－２０１号,,13,103,1050001,,,2023-12-20,清算の結了等,,,2021-03-29,1,,,,,アールビーソーラーパッションワンホールディングス,0
1699,7010701024629,登記記録の閉鎖等,0,2023-12-28,2023-12-20,株式会社オフィスパートナーズ,,株式会社,東京都,港区,新橋６丁目１９番２１号ミドリヤビル,,13,103,1050004,,,2023-12-20,清算の結了等,,,2015-10-05,1,,,,,オフィスパートナーズ,0
1701,7010703002442,登記記録の閉鎖等,0,2023-12-28,2023-12-22,合同会社ベアイズム,,合同会社,東京都,品川区,東中延１丁目２番１３号,,13,109,1420052,,,2023-12-22,清算の結了等,,,2015-10-05,1,,,,,ベアイズム,0
1702,7010703004190,登記記録の閉鎖等,0,2023-12-28,2023-12-22,合同会社エコ・グリーン２号,,合同会社,東京都,千代田区,麹町２丁目８番地ＭＬＣ麹町ビル４階フィンポート税理士法人内,,13,101,1020083,,,2023-12-22,清算の結了等,,,2018-03-28,1,,,,,エコグリーンニゴウ,0
1707,7010901040285,登記記録の閉鎖等,0,2023-12-28,2023-12-25,株式会社ハーツ,,株式会社,東京都,練馬区,北町２丁目１５番６号,,13,120,1790081,,,2023-12-25,清算の結了等,,,2017-06-15,1,,,,,ハーツ,0
1715,7011001051090,登記記録の閉鎖等,0,2023-12-28,2023-12-25,池貝ビジネスコンサルティング株式会社,,株式会社,東京都,渋谷区,上原２丁目３６番１８号,,13,113,1510064,,,2023-12-25,清算の結了等,,,2015-10-05,1,,,,,イケガイビジネスコンサルティング,0
1727,7011101059439,登記記録の閉鎖等,0,2023-12-28,2023-12-21,株式会社中央エイジエンシー,,株式会社,埼玉県,越谷市,大字小曽川８６４－１番,,11,222,3430802,,,2023-12-21,清算の結了等,,,2015-10-05,1,,,,,チュウオウエイジエンシー,0
1747,7013301034493,登記記録の閉鎖等,0,2023-12-28,2023-12-20,株式会社リュウセイ,,株式会社,東京都,豊島区,西巣鴨１丁目２－６－２０２アルテビル豊島,,13,116,1700001,,,2023-12-20,清算の結了等,,,2015-10-05,1,,,,,リュウセイ,0
1784,7040001065247,登記記録の閉鎖等,0,2023-12-28,2023-12-18,株式会社エイチ・アンド・エス,,株式会社,千葉県,柏市,増尾台３丁目８番２４号,,12,217,2770052,,,2023-12-18,清算の結了等,,,2015-10-05,1,,,,,エイチアンドエス,0
1786,7040001104657,登記記録の閉鎖等,0,2023-12-28,2023-12-18,株式会社ＧＲ・ＤＡＳＨ,,株式会社,千葉県,千葉市中央区,春日２丁目１１番２号,,12,101,2600033,,,2023-12-18,清算の結了等,,,2018-05-15,1,,,,,ジーアールダッシュ,0
1796,7080101002170,登記記録の閉鎖等,0,2023-12-28,2023-12-26,株式会社北工務店,,株式会社,静岡県,裾野市,佐野９２２番地の５,,22,220,4101118,,,2023-12-26,清算の結了等,,,2015-10-05,1,,,,,キタコウムテン,0
1801,7090001002518,登記記録の閉鎖等,0,2023-12-28,2023-12-28,株式会社ワールド貿易,,株式会社,山梨県,甲府市,山宮町２５６０番地２,,19,201,4000075,,,2023-12-28,清算の結了等,,,2015-10-05,1,,,,,ワールドボウエキ,0
1803,7100001011987,登記記録の閉鎖等,0,2023-12-28,2023-12-22,株式会社キジマ,,株式会社,長野県,下高井郡木島平村,大字往郷２８９３番地１,,20,562,3892302,,,2023-12-22,清算の結了等,,,2015-10-05,1,,,,,キジマ,0
1828,7120102027550,登記記録の閉鎖等,0,2023-12-28,2023-12-26,このゆびとまれ有限会社,,有限会社,大阪府,泉南市,馬場２丁目８番１２号,,27,228,5900525,,,2023-12-26,清算の結了等,,,2015-10-05,1,,,,,コノユビトマレ,0
1830,7120902018583,登記記録の閉鎖等,0,2023-12-28,2023-12-25,有限会社ジェンマ,,有限会社,大阪府,豊中市,服部元町２丁目１番１０号,,27,203,5610851,,,2023-12-25,清算の結了等,,,2015-10-05,1,,,,,ジェンマ,0
1841,7140001095341,登記記録の閉鎖等,0,2023-12-28,2023-12-19,株式会社ナカテック,,株式会社,兵庫県,尼崎市,東難波町１丁目５番４０－３０８号,,28,202,6600892,,,2023-12-19,清算の結了等,,,2015-10-05,1,,,,,ナカテック,0
1851,7170002008852,登記記録の閉鎖等,0,2023-12-28,2023-12-26,西部運送有限会社,,有限会社,和歌山県,田辺市,下三栖１４７５番地の１４３,,30,206,6460216,,,2023-12-26,清算の結了等,,,2015-10-05,1,,,,,セイブウンソウ,0
1852,7180001035335,登記記録の閉鎖等,0,2023-12-28,2023-12-25,川本不動産株式会社,,株式会社,愛知県,名古屋市中区,大須４丁目１１番３９号,,23,106,4600011,,,2023-12-25,合併による解散等,7180001149168,令和５年１２月２３日名古屋市中区大須四丁目１１番３９号株式会社ＫＡＷＡＭＯＴＯホールディングス（7180001149168）に合併し解散,2015-10-05,1,,,,,カワモトフドウサン,0
1855,7180001109675,登記記録の閉鎖等,0,2023-12-28,2023-11-01,株式会社恭栄サービス,,株式会社,愛知県,春日井市,白山町３丁目１１－１０,,23,206,4870034,,,2023-11-01,合併による解散等,2180002066276,令和５年１１月１日愛知県春日井市金ケ口町３番地９株式会社ショウワクリエイト（2180002066276）に合併し解散,2015-10-05,1,,,,,キョウエイサービス,0
1864,7180002079777,登記記録の閉鎖等,0,2023-12-28,2023-12-25,有限会社Ｋ・Ｙ・Ｈコーポレーション,,有限会社,愛知県,一宮市,萩原町富田方字流３５番地の２,,23,203,4910352,,,2023-12-25,清算の結了等,,,2015-10-05,1,,,,,ケイワイエイチコーポレーション,0
1871,7200002023757,登記記録の閉鎖等,0,2023-12-28,2023-12-26,有限会社カネハチ商店,,有限会社,岐阜県,恵那市,大井町２２２番地の１,,21,210,5097201,,,2023-12-26,清算の結了等,,,2015-10-05,1,,,,,カネハチショウテン,0
1878,7240002024207,登記記録の閉鎖等,0,2023-12-28,2023-12-20,有限会社新鹿島海運,,有限会社,広島県,広島市安芸区,矢野西４丁目１８番１３号,,34,107,7360085,,,2023-12-20,清算の結了等,,,2015-10-05,1,,,,,シンカシマカイウン,0
1879,7240005002399,登記記録の閉鎖等,0,2023-12-28,2023-12-20,広島内装表具協同組合,,その他の設立登記法人,広島県,広島市東区,牛田本町４丁目９番１９号峰ガーデン１０３号,,34,102,7320066,,,2023-12-20,清算の結了等,,,2015-10-05,1,,,,,ヒロシマナイソウヒョウグ,0
1884,7250002016938,登記記録の閉鎖等,0,2023-12-28,2023-12-25,有限会社クリエイト・ワーク,,有限会社,山口県,光市,大字立野８９５番地の１２,,35,210,7430062,,,2023-12-25,清算の結了等,,,2015-10-05,1,,,,,クリエイトワーク,0
1887,7280002011028,登記記録の閉鎖等,0,2023-12-28,2023-12-26,有限会社吉田建設,,有限会社,島根県,隠岐郡隠岐の島町,城北町４３７番地,,32,528,6850016,,,2023-12-26,清算の結了等,,,2015-10-05,1,,,,,ヨシダケンセツ,0
1897,7290002006019,登記記録の閉鎖等,0,2023-12-28,2023-12-25,松島製罐工業有限会社,,有限会社,福岡県,福岡市東区,松島６丁目６番１９号,,40,131,8130062,,,2023-12-25,清算の結了等,,,2015-10-05,1,,,,,マツシマセイカンコウギョウ,0
1902,7300001000961,登記記録の閉鎖等,0,2023-12-28,2023-12-27,みどりエンタープライズ株式会社,,株式会社,佐賀県,佐賀市,愛敬町７番１７号,,41,201,8400812,,,2023-12-27,清算の結了等,,,2015-10-05,1,,,,,ミドリエンタープライズ,0
1906,7310002007534,登記記録の閉鎖等,0,2023-12-28,2023-12-22,新日電設有限会社,,有限会社,長崎県,長崎市,小江町２４２６番地,,42,201,8511133,,,2023-12-22,清算の結了等,,,2015-10-05,1,,,,,シンニチデンセツ,0
1907,7310002009290,登記記録の閉鎖等,0,2023-12-28,2023-12-26,栄光商事有限会社,,有限会社,長崎県,佐世保市,万徳町７番１２号,,42,202,8570034,,,2023-12-26,清算の結了等,,,2015-10-05,1,,,,,エイコウショウジ,0
1921,7420002000057,登記記録の閉鎖等,0,2023-12-28,2023-12-25,有限会社青森県児童福祉施設職員共済会,,有限会社,青森県,青森市,中央３丁目２０番３０号,,02,201,0300822,,,2023-12-25,清算の結了等,,,2015-10-05,1,,,,,アオモリケンジドウフクシシセツショクインキョウサイカイ,0
1922,7420002017051,登記記録の閉鎖等,0,2023-12-28,2023-12-20,有限会社舛舘塗装興業,00087852,有限会社,青森県,十和田市,大字三本木字東小稲１７４番地１０２,,02,206,0340001,,,2023-12-20,清算の結了等,,,2015-10-05,1,,,,,マスダテトソウコウギョウ,0
1929,7480002010372,登記記録の閉鎖等,0,2023-12-28,2023-12-26,上撫海運有限会社,,有限会社,徳島県,鳴門市,撫養町弁財天字派名１９番地,,36,202,7720014,,,2023-12-26,清算の結了等,,,2015-10-05,1,,,,,カミナデカイウン,0
1938,7500002022431,登記記録の閉鎖等,0,2023-12-28,2023-12-26,有限会社アトン設計,,有限会社,愛媛県,宇和島市,長堀３丁目１１番１０号,,38,203,7980082,,,2023-12-26,清算の結了等,,,2015-10-05,1,,,,,,0
1946,8010001007770,登記記録の閉鎖等,0,2023-12-28,2023-12-20,株式会社明幸,,株式会社,東京都,世田谷区,祖師谷５丁目１５番１４号,,13,112,1570072,,,2023-12-20,清算の結了等,,,2015-10-05,1,,,,,メイコウ,0
1952,8010003023345,登記記録の閉鎖等,0,2023-12-28,2023-12-22,合同会社ヘルスケアワン,,合同会社,東京都,千代田区,麹町５丁目１番地ＮＫ真和ビル９階,,13,101,1020083,,,2023-12-22,清算の結了等,,,2016-04-01,1,,,,,ヘルスケアワン,0
1953,8010003031950,登記記録の閉鎖等,0,2023-12-28,2023-12-25,ＴＦＭＨ合同会社,,合同会社,東京都,千代田区,二番町５番地５・番町フィフスビル８Ｂ,,13,101,1020084,,,2023-12-25,清算の結了等,,,2020-03-25,1,,,,,ティーエフエムエイチ,0
1954,8010003038351,登記記録の閉鎖等,0,2023-12-28,2023-12-25,合同会社ＫＲＦ１０２,,合同会社,東京都,千代田区,内幸町２丁目１番６号,,13,101,1000011,,,2023-12-25,清算の結了等,,,2022-08-19,1,,,,,ケイアールエフヒャクニ,0
1956,8010005033045,登記記録の閉鎖等,0,2023-12-28,2023-12-25,一般社団法人Ｎａｒｉｔａ　Ｒｅｎｅｗａｂｌｅ,,その他の設立登記法人,東京都,千代田区,内神田２丁目２番６号５階あすな会計事務所内,,13,101,1010047,,,2023-12-25,清算の結了等,,,2021-03-05,1,,,,,ナリタリニューワブル,0
1970,8010803003802,登記記録の閉鎖等,0,2023-12-28,2023-12-25,合同会社Ｐｒｏｕｄｉａ,,合同会社,東京都,大田区,蒲田５丁目２０番７号,,13,111,1440052,,,2023-12-25,清算の結了等,,,2021-06-24,1,,,,,プラウディア,0
1986,8011003012874,登記記録の閉鎖等,0,2023-12-28,2023-12-26,合同会社恩田原片山１Ａ開発,,合同会社,東京都,渋谷区,千駄ヶ谷４丁目２５番２号修養団ＳＹＤビル株式会社フジタ内,,13,113,1510051,,,2023-12-26,清算の結了等,,,2021-06-10,1,,,,,オンダバラカタヤマイチエーカイハツ,0
2018,8020001033345,登記記録の閉鎖等,0,2023-12-28,2023-12-21,株式会社醉禧樓,,株式会社,神奈川県,横浜市栄区,桂台南１丁目９番１号,,14,115,2470033,,,2023-12-21,清算の結了等,,,2015-10-05,1,,,,,スイキロウ,0
2040,8030002034886,登記記録の閉鎖等,0,2023-12-28,2023-12-25,有限会社エヌエス技研,,有限会社,埼玉県,入間市,宮寺２９２０番地,,11,225,3580014,,,2023-12-25,清算の結了等,,,2015-10-05,1,,,,,エヌエスギケン,0
2042,8030002086977,登記記録の閉鎖等,0,2023-12-28,2023-12-21,有限会社立澤,,有限会社,埼玉県,越谷市,東町５丁目３１２番地,,11,222,3430826,,,2023-12-21,清算の結了等,,,2015-10-05,1,,,,,タツザワ,0
2043,8030003015860,登記記録の閉鎖等,0,2023-12-28,2023-12-25,ＭｅｒａｋＷｏｒｋｓ合同会社,,合同会社,埼玉県,朝霞市,東弁財３丁目１５番３号,,11,227,3510022,,,2023-12-25,清算の結了等,,,2020-09-14,1,,,,,メラクワークス,0
2054,8050002042367,登記記録の閉鎖等,0,2023-12-28,2023-12-25,有限会社野本畜産,,有限会社,茨城県,筑西市,下江連５１８番地,,08,227,3080851,,,2023-12-25,清算の結了等,,,2015-10-05,1,,,,,ノモトチクサン,0
2056,8070001027367,登記記録の閉鎖等,0,2023-12-28,2023-12-22,株式会社鴻利飯店,,株式会社,群馬県,館林市,成島町２２２番地,,10,207,3740055,,,2023-12-22,清算の結了等,,,2015-10-05,1,,,,,コウリハンテン,0
2060,8080002018083,登記記録の閉鎖等,0,2023-12-28,2023-12-25,有限会社山岸製作所,,有限会社,静岡県,藤枝市,大新島２７６番地の２,,22,214,4260043,,,2023-12-25,清算の結了等,,,2015-10-05,1,,,,,ヤマギシセイサクジョ,0
2063,8080401005673,登記記録の閉鎖等,0,2023-12-28,2023-12-25,株式会社ユニオン・サポート,,株式会社,静岡県,浜松市東区,松小池町１６０番地,,22,132,4350008,,,2023-12-25,清算の結了等,,,2015-10-05,1,,,,,ユニオンサポート,0
2065,8100001003109,登記記録の閉鎖等,0,2023-12-28,2023-12-25,北信電気工業株式会社,,株式会社,長野県,長野市,東鶴賀町大字鶴賀１９０６番地,,20,201,3800811,,,2023-12-25,清算の結了等,,,2015-10-05,1,,,,,ホクシンデンキコウギョウ,0
2076,8120002000425,登記記録の閉鎖等,0,2023-12-28,2023-12-27,有限会社スワン商会,,有限会社,大阪府,大阪市旭区,中宮１丁目１番１３号,,27,117,5350003,,,2023-12-27,清算の結了等,,,2015-10-05,1,,,,,スワンショウカイ,0
2093,8140005017316,登記記録の閉鎖等,0,2023-12-28,2023-12-26,はりま物流協同組合,,その他の設立登記法人,兵庫県,加西市,東笠原町６０２番地の１,,28,220,6752212,,,2023-12-26,清算の結了等,,,2015-10-05,1,,,,,,0
2102,8180001090560,登記記録の閉鎖等,0,2023-12-28,2023-12-26,株式会社サンアイファーム,,株式会社,愛知県,名古屋市昭和区,滝川町４７番地の１４７,,23,107,4660826,,,2023-12-26,清算の結了等,,,2015-10-05,1,,,,,サンアイファーム,0
2111,8180002000551,登記記録の閉鎖等,0,2023-12-28,2023-12-25,有限会社コスモ,,有限会社,愛知県,名古屋市守山区,大字上志段味字東谷２１０９番地の１６１,,23,113,4630001,,,2023-12-25,清算の結了等,,,2015-10-05,1,,,,,コスモ,0
2118,8180002069174,登記記録の閉鎖等,0,2023-12-28,2023-12-25,有限会社住宅機器タチバナ,,有限会社,愛知県,小牧市,大字本庄７番地の２,,23,219,4850821,,,2023-12-25,清算の結了等,,,2015-10-05,1,,,,,ジュウタクキキタチバナ,0
2120,8180003010483,登記記録の閉鎖等,0,2023-12-28,2023-12-19,合資会社いづみ化粧品店,,合資会社,愛知県,瀬戸市,末広町３丁目１８番２,,23,204,4890814,,,2023-12-19,清算の結了等,,,2015-10-05,1,,,,,イヅミケショウヒン,0
2126,8200002008773,登記記録の閉鎖等,0,2023-12-28,2023-12-27,有限会社トマ・プリーツ,,有限会社,岐阜県,岐阜市,西荘１丁目８番１－１０３号,,21,201,5008362,,,2023-12-27,清算の結了等,,,2015-10-05,1,,,,,トマプリーツ,0
2135,8240005007785,登記記録の閉鎖等,0,2023-12-28,2023-12-19,一般社団法人広島県東部美容協会,,その他の設立登記法人,広島県,福山市,西町２丁目１６番１５号,,34,207,7200067,,,2023-12-19,清算の結了等,,,2015-10-05,1,,,,,ヒロシマケントウブビヨウキョウカイ,0
2143,8270002008081,登記記録の閉鎖等,0,2023-12-28,2023-12-26,有限会社エイ・アンド・アイ住設サービス,,有限会社,鳥取県,西伯郡日吉津村,大字日吉津３９３番地,,31,384,6893553,,,2023-12-26,清算の結了等,,,2015-10-05,1,,,,,エイアンドアイジュウセツサービス,0
2157,8290803003097,登記記録の閉鎖等,0,2023-12-28,2023-12-26,合同会社瀬尾,00113072,合同会社,福岡県,北九州市八幡東区,西本町３丁目４番３－４０１号室,,40,108,8050061,,,2023-12-26,清算の結了等,,,2018-04-11,1,,,,,セオ,0
2163,8310002019090,登記記録の閉鎖等,0,2023-12-28,2023-12-25,有限会社しょうわ,,有限会社,長崎県,壱岐市,郷ノ浦町郷ノ浦１０９番地,,42,210,8115135,,,2023-12-25,清算の結了等,,,2015-10-05,1,,,,,ショウワ,0
2165,8330001020618,登記記録の閉鎖等,0,2023-12-28,2023-12-21,株式会社イノベーション,,株式会社,熊本県,荒尾市,下井手８０５番地,,43,204,8640011,,,2023-12-21,清算の結了等,,,2015-10-05,1,,,,,イノベーション,0
2169,8350002004056,登記記録の閉鎖等,0,2023-12-28,2023-12-21,有限会社渕脇商事,,有限会社,宮崎県,宮崎市,上野町８番２５号,,45,201,8800011,,,2023-12-21,清算の結了等,,,2015-10-05,1,,,,,フチワキショウジ,0
2172,8360002018534,登記記録の閉鎖等,0,2023-12-28,2023-12-25,有限会社名加建設,,有限会社,沖縄県,那覇市,松川３丁目１５番４９号,,47,201,9020062,,,2023-12-25,清算の結了等,,,2015-10-05,1,,,,,ナカケンセツ,0
2173,8360003003411,登記記録の閉鎖等,0,2023-12-28,2023-12-25,合資会社沖縄薬業,,合資会社,沖縄県,宜野湾市,野嵩１丁目６番１５号,,47,205,9012203,,,2023-12-25,清算の結了等,,,2015-10-05,1,,,,,オキナワヤクギョウ,0
2175,8370001019532,登記記録の閉鎖等,0,2023-12-28,2023-12-26,相沢商事株式会社,,株式会社,宮城県,仙台市泉区,南光台南３丁目１８番８号,,04,105,9818002,,,2023-12-26,清算の結了等,,,2015-10-05,1,,,,,アイザワショウジ,0
2179,8370605000136,登記記録の閉鎖等,0,2023-12-28,2023-12-25,協同組合連合会塩釜水産物仲卸市場,,その他の設立登記法人,宮城県,塩竈市,新浜町１丁目２０番７４号,,04,203,9850001,,,2023-12-25,清算の結了等,,,2015-10-05,1,,,,,シオガマスイサンブツナカオロシイチバ,0
2183,8400501000509,登記記録の閉鎖等,0,2023-12-28,2023-12-25,株式会社磐井木材,,株式会社,岩手県,一関市,千厩町奥玉字深芦沢１４８番地１０,00085432,03,209,0291111,,,2023-12-25,清算の結了等,,,2015-10-05,1,,,,,イワイモクザイ,0
2185,8420002003182,登記記録の閉鎖等,0,2023-12-28,2023-12-26,有限会社レストラン若潮,,有限会社,青森県,青森市,緑２丁目１５番地７,,02,201,0300845,,,2023-12-26,清算の結了等,,,2015-10-05,1,,,,,レストランワカシオ,0
2207,9010001200861,登記記録の閉鎖等,0,2023-12-28,2023-12-20,株式会社ＫＡＤＯＫＡＷＡ　ＫＥＹ－ＰＲＯＣＥＳＳ,,株式会社,東京都,千代田区,富士見２丁目１３番３号,,13,101,1020071,,,2023-12-20,合併による解散等,1010001013874,令和５年１２月１日東京都千代田区富士見二丁目１３番３号株式会社ＫＡＤＯＫＡＷＡ　ＫＥＹ‐ＰＲＯＣＥＳＳ（1010001013874）に合併し解散,2019-05-16,1,,,,,カドカワキープロセス,0
2214,9010003014112,登記記録の閉鎖等,0,2023-12-28,2023-12-25,合同会社ＦＫＫ,,合同会社,東京都,千代田区,飯田橋２丁目９番３号かすがビル７階,,13,101,1020072,,,2023-12-25,清算の結了等,,,2015-10-05,1,,,,,エフケーケー,0
2215,9010003020093,登記記録の閉鎖等,0,2023-12-28,2023-12-25,Ｇｒｙｐｈｏｎ２合同会社,,合同会社,東京都,中央区,新川２丁目３番１号,,13,102,1040033,,,2023-12-25,清算の結了等,,,2015-10-05,1,,,,,グリフォンツー,0
2218,9010005025982,登記記録の閉鎖等,0,2023-12-28,2023-12-18,一般社団法人地域医療共生構想振興会,,その他の設立登記法人,東京都,墨田区,太平１丁目１７番１０－６０１号,,13,107,1300012,,,2023-12-18,清算の結了等,,,2016-11-08,1,,,,,チイキイリョウキョウセイコウソウシンコウカイ,0
2221,9010403012211,登記記録の閉鎖等,0,2023-12-28,2023-12-20,合同会社めぐみ,,合同会社,東京都,港区,六本木４丁目３番１１－３１９号,,13,103,1060032,,,2023-12-20,清算の結了等,,,2015-10-05,1,,,,,メグミ,0
2224,9010501030882,登記記録の閉鎖等,0,2023-12-28,2023-12-21,株式会社ミラージュ,,株式会社,東京都,台東区,上野３丁目５番６号,,13,106,1100005,,,2023-12-21,清算の結了等,,,2015-10-05,1,,,,,ミラージュ,0
2228,9010602022077,登記記録の閉鎖等,0,2023-12-28,2023-12-25,有限会社白栄社,,有限会社,東京都,墨田区,八広５丁目２０番１７号,,13,107,1310041,,,2023-12-25,清算の結了等,,,2015-10-05,1,,,,,ハクエイシャ,0
2253,9011801007595,登記記録の閉鎖等,0,2023-12-28,2023-12-25,株式会社江北機械製作所,,株式会社,東京都,足立区,中央本町５丁目６番２号,,13,121,1210011,,,2023-12-25,清算の結了等,,,2015-10-05,1,,,,,コウホクキカイセイサクショ,0
2260,9013301039805,登記記録の閉鎖等,0,2023-12-28,2023-12-22,＿成株式会社,00108667,株式会社,東京都,豊島区,南大塚２丁目４６－１南大塚ＫＭビル８階,,13,116,1700005,,,2023-12-22,清算の結了等,,,2016-12-09,1,,,,,キンセイ,0
2273,9020002100044,登記記録の閉鎖等,0,2023-12-28,2023-12-25,有限会社未宇,,有限会社,東京都,江東区,亀戸５丁目４５番６号Ｋ・プラネット６０２,,13,108,1360071,,,2023-12-25,清算の結了等,,,2015-10-05,1,,,,,ミウ,0
2282,9030001083231,登記記録の閉鎖等,0,2023-12-28,2023-12-22,下野合成株式会社,,株式会社,埼玉県,川口市,大字久左衛門新田６４,,11,203,3330804,,,2023-12-22,清算の結了等,,,2015-10-05,1,,,,,シモノゴウセイ,0
2285,9030001151483,登記記録の閉鎖等,0,2023-12-28,2023-12-25,禅語株式会社,,株式会社,埼玉県,本庄市,寿３丁目２－１,,11,211,3670023,,,2023-12-25,清算の結了等,,,2022-12-16,1,,,,,ゼンゴ,0
2297,9040001079179,登記記録の閉鎖等,0,2023-12-28,2023-12-18,東総太陽光発電株式会社,,株式会社,千葉県,佐倉市,王子台１丁目２１番１４号,,12,212,2850837,,,2023-12-18,清算の結了等,,,2015-10-05,1,,,,,トウソウタイヨウコウハツデン,0
2300,9040002083782,登記記録の閉鎖等,0,2023-12-28,2023-12-20,有限会社ニューリフォームサービス,,有限会社,千葉県,香取郡多古町,大門２０６番地,,12,347,2892303,,,2023-12-20,清算の結了等,,,2015-10-05,1,,,,,ニューリフォームサービス,0
2301,9040002092098,登記記録の閉鎖等,0,2023-12-28,2023-12-20,有限会社ライト,,有限会社,千葉県,柏市,旭町８丁目５番１９号ひまわりマンション６号,,12,217,2770852,,,2023-12-20,清算の結了等,,,2015-10-05,1,,,,,ライト,0
2302,9060001016246,登記記録の閉鎖等,0,2023-12-28,2023-12-25,株式会社落合,,株式会社,栃木県,栃木市,嘉右衛門町２番９号,,09,203,3280072,,,2023-12-25,清算の結了等,,,2015-10-05,1,,,,,オチアイ,0
2331,9120002055393,登記記録の閉鎖等,0,2023-12-28,2023-12-27,有限会社Ｒ．Ｓ．Ｐ．コーポレーション,,有限会社,大阪府,豊中市,新千里西町２丁目２４番３０－７１１号,,27,203,5600083,,,2023-12-27,清算の結了等,,,2015-10-05,1,,,,,,0
2342,9120903003343,登記記録の閉鎖等,0,2023-12-28,2023-12-25,ＲＥＳＩＮＡＴＥ　Ｃｒａｆｔｓ合同会社,,合同会社,大阪府,茨木市,駅前２丁目１番２０号,,27,211,5670888,,,2023-12-25,清算の結了等,,,2020-09-15,1,,,,,レジネートクラフツ,0
2360,9180002022520,登記記録の閉鎖等,0,2023-12-28,2023-12-25,愛信印刷有限会社,,有限会社,愛知県,名古屋市西区,西原町９０番地,,23,104,4520848,,,2023-12-25,清算の結了等,,,2015-10-05,1,,,,,アイシンインサツ,0
2361,9180002026645,登記記録の閉鎖等,0,2023-12-28,2023-12-25,有限会社みどり急送,,有限会社,愛知県,名古屋市緑区,大高町字丸ノ内２１番地,,23,114,4598001,,,2023-12-25,清算の結了等,,,2015-10-05,1,,,,,ミドリキュウソウ,0
2376,9240003004164,登記記録の閉鎖等,0,2023-12-28,2023-12-06,グラエール合同会社,,合同会社,広島県,広島市安佐北区,可部南５丁目１番１３－５号,,34,106,7310223,,,2023-12-06,清算の結了等,,,2019-03-08,1,,,,,グラエール,0
2377,9240003004305,登記記録の閉鎖等,0,2023-12-28,2023-12-15,合同会社メンタルウェルフェア,,合同会社,広島県,福山市,多治米町１丁目１９番９号ハイムＮ＆Ｎ１０１号,,34,207,7200824,,,2023-12-15,清算の結了等,,,2019-07-05,1,,,,,メンタルウェルフェア,0
2386,9290001071094,登記記録の閉鎖等,0,2023-12-28,2023-12-21,株式会社サンドラアンドカンパニー,,株式会社,福岡県,福岡市中央区,赤坂２丁目３番１５－１０１号,,40,133,8100042,,,2023-12-21,清算の結了等,,,2015-10-05,1,,,,,サンドラアンドカンパニー,0
2389,9290003007716,登記記録の閉鎖等,0,2023-12-28,2023-12-26,空零合同会社,,合同会社,福岡県,久留米市,山川町１４７５－３,,40,203,8390817,,,2023-12-26,合併による解散等,3010003023804,令和５年１２月１日東京都中央区日本橋兜町１７番２号兜町第６葉山ビル４階鎧橋合同会社（3010003023804）に合併し解散,2018-01-11,1,,,,,,0
2400,9350005005884,登記記録の閉鎖等,0,2023-12-28,2023-12-18,一般社団法人マヤンヨガセラピスト協会,,その他の設立登記法人,宮崎県,都城市,安久町４７０７番地,,45,202,8850044,,,2023-12-18,清算の結了等,,,2019-10-23,1,,,,,マヤンヨガセラピストキョウカイ,0
2420,9470002001230,登記記録の閉鎖等,0,2023-12-28,2023-12-26,有限会社氏部金八商店,,有限会社,香川県,高松市,新田町甲２２４５番地,,37,201,7610102,,,2023-12-26,清算の結了等,,,2015-10-05,1,,,,,ウジベキンパチショウテン,0
2421,9480005000138,登記記録の閉鎖等,0,2023-12-28,2023-12-27,医療法人小川内科クリニック,,その他の設立登記法人,徳島県,徳島市,北佐古二番町２番１５号,,36,201,7700012,,,2023-12-27,清算の結了等,,,2015-10-05,1,,,,,オガワナイカクリニック,0
2434,9500002017462,登記記録の閉鎖等,0,2023-12-28,2023-12-26,有限会社テクニカルライズ,,有限会社,愛媛県,西条市,洲之内甲６４４番地,,38,206,7930053,,,2023-12-26,清算の結了等,,,2015-10-05,1,,,,,テクニカルライズ,0
2435,9500003002694,登記記録の閉鎖等,0,2023-12-28,2023-12-27,合同会社あじさい,,合同会社,愛媛県,大洲市,肱川町大谷４４２６番地,,38,207,7971507,,,2023-12-27,清算の結了等,,,2021-09-14,1,,,,,アジサイ,0
