sequenceNumber,corporateNumber,process,correct,updateDate,changeDate,name,nameImageId,kind,prefectureName,cityName,streetNumber,addressImageId,prefectureCode,cityCode,postCode,addressOutside,addressOutsideImageId,closeDate,closeCause,successorCorporateNumber,changeCause,assignmentDate,latest,enName,enPrefectureName,enCityName,enAddressOutside,furigana,hihyoji
32,1010601031169,登記記録の閉鎖等,0,2025-07-10,2025-06-30,ジェイティエンジニアリング株式会社,,株式会社,東京都,墨田区,横川１丁目１７番７号,,13,107,1300003,,,2025-06-30,清算の結了等,,,2015-10-05,1,,,,,ジェイティエンジニアリング,0
37,1010701039896,登記記録の閉鎖等,0,2025-07-10,2025-07-01,株式会社リトルフォレスト,,株式会社,東京都,品川区,南大井４丁目１４番１６号,,13,109,1400013,,,2025-07-01,清算の結了等,,,2020-10-06,1,,,,,リトルフォレスト,0
76,1011801011225,登記記録の閉鎖等,0,2025-07-10,2025-07-07,株式会社花坂,,株式会社,東京都,足立区,千住橋戸町５０番地,,13,121,1200038,,,2025-07-07,清算の結了等,,,2015-10-05,1,,,,,ハナサカ,0
80,1011803006248,登記記録の閉鎖等,0,2025-07-10,2025-07-04,合同会社ＣＦ,,合同会社,東京都,足立区,青井１丁目１２－１,,13,121,1200012,,,2025-07-04,清算の結了等,,,2024-05-17,1,,,,,シーエフ,0
118,1040005002490,登記記録の閉鎖等,0,2025-07-10,2025-06-25,習志野市資源回収株式会社,,株式会社,千葉県,習志野市,茜浜３丁目４番１０号,,12,216,2750024,,,2025-06-25,清算の結了等,,,2015-10-05,1,,,,,ナラシノシシゲンカイシュウ,0
126,1080101016936,登記記録の閉鎖等,0,2025-07-10,2025-06-27,株式会社ＣＥＮＴＥＲ　ＯＦ　ＵＮＩＶＥＲＳＥ,,株式会社,静岡県,伊豆市,上白岩９０２番地の１,,22,222,4102502,,,2025-06-27,清算の結了等,,,2015-10-05,1,,,,,センターオブユニバース,0
156,1120101041946,登記記録の閉鎖等,0,2025-07-10,2025-07-02,株式会社マルニ,,株式会社,大阪府,堺市西区,平岡町４９番地２,,27,144,5938307,,,2025-07-02,合併による解散等,3120101006690,令和７年７月１日大阪府堺市堺区老松町一丁３７番地株式会社堀内機械（3120101006690）に合併し解散,2015-10-05,1,,,,,マルニ,0
183,1180002062961,登記記録の閉鎖等,0,2025-07-10,2025-06-26,くりんここ有限会社,,有限会社,愛知県,日進市,東山１丁目２０１番地７,,23,230,4700116,,,2025-06-26,清算の結了等,,,2015-10-05,1,,,,,クリンココ,0
202,1240003006663,登記記録の閉鎖等,0,2025-07-10,2025-07-02,ＣＯ　ＭＹ合同会社,,合同会社,広島県,東広島市,西条町寺家６４９９番地２,,34,212,7390041,,,2025-07-02,清算の結了等,,,2024-05-16,1,,,,,コミー,0
220,1310002012548,登記記録の閉鎖等,0,2025-07-10,2025-06-30,有限会社山下自動車,,有限会社,長崎県,東彼杵郡波佐見町,折敷瀬郷１５５９番地１,,42,323,8593701,,,2025-06-30,清算の結了等,,,2015-10-05,1,,,,,ヤマシタジドウシャ,0
232,1370001041047,登記記録の閉鎖等,0,2025-07-10,2025-07-01,株式会社カツヨシグレイトフル,,株式会社,宮城県,仙台市青葉区,落合５丁目２番７号,,04,101,9893126,,,2025-07-01,合併による解散等,5370002007084,令和７年７月１日仙台市宮城野区大梶９番１号株式会社カツヨシ総業（5370002007084）に合併し解散,2017-03-03,1,,,,,カツヨシグレイトフル,0
235,1390001017350,登記記録の閉鎖等,0,2025-07-10,2025-07-02,株式会社ラ・ヴェリタ,,株式会社,山形県,米沢市,金池５丁目３番３１号アヴァンセ金池１階,,06,202,9920012,,,2025-07-02,合併による解散等,3390001014577,令和７年７月１日山形県米沢市大字芳泉町２５７９番２号株式会社ナカヤ（3390001014577）に合併し解散,2023-08-10,1,,,,,ラヴェリタ,0
240,1430003006157,登記記録の閉鎖等,0,2025-07-10,2025-06-27,合同会社大心,,合同会社,北海道,札幌市北区,あいの里四条９丁目１番１号,,01,102,0028074,,,2025-06-27,清算の結了等,,,2015-10-05,1,,,,,ダイシン,0
257,2010001179203,登記記録の閉鎖等,0,2025-07-10,2025-07-01,株式会社松吉ビジネス・アソシエイツ,,株式会社,東京都,文京区,湯島３丁目１４番９号,,13,105,1130034,,,2025-07-01,合併による解散等,3010001057531,令和７年７月１日東京都文京区湯島三丁目１４番９号松吉医科器械株式会社（3010001057531）に合併し解散,2016-10-26,1,,,,,マツヨシビジネスアソシエイツ,0
258,2010001200034,登記記録の閉鎖等,0,2025-07-10,2025-06-16,株式会社Ｎｉｄｏパフォーマンス塾,,株式会社,東京都,文京区,本郷３丁目２３番１４号ショウエイビル１０Ｆ,,13,105,1130033,,,2025-06-16,清算の結了等,,,2019-04-12,1,,,,,ニドパフォーマンスジュク,0
259,2010001212302,登記記録の閉鎖等,0,2025-07-10,2025-06-19,フォトジェン株式会社,,株式会社,東京都,千代田区,丸の内１丁目１１番１号パシフィックセンチュリープレイス１３Ｆ,,13,101,1000005,,,2025-06-19,清算の結了等,,,2020-09-14,1,,,,,フォトジェン,0
277,2010101007180,登記記録の閉鎖等,0,2025-07-10,2025-07-04,株式会社励明園本舗,,株式会社,東京都,板橋区,大谷口上町８３番１号,,13,119,1730032,,,2025-07-04,清算の結了等,,,2015-10-05,1,,,,,,0
279,2010401122539,登記記録の閉鎖等,0,2025-07-10,2025-07-01,株式会社ＮＯＫＩＯＯ　Ｃａｒｅｅｒ,,株式会社,静岡県,浜松市中央区,高林１丁目８番４３号,,22,138,4300907,,,2025-07-01,清算の結了等,,,2016-01-18,1,,,,,ノキオキャリア,0
301,2010901005961,登記記録の閉鎖等,0,2025-07-10,2025-07-01,株式会社スウェーデンハウスリフォーム,,株式会社,東京都,世田谷区,太子堂４丁目１番１号,,13,112,1540004,,,2025-07-01,合併による解散等,3010901005960,令和７年７月１日東京都世田谷区太子堂四丁目１番１号株式会社スウェーデンハウス（3010901005960）に合併し解散,2015-10-05,1,,,,,スウェーデンハウスリフォーム,0
320,2011102022276,登記記録の閉鎖等,0,2025-07-10,2025-06-16,有限会社ファイナンシャル・コア,,有限会社,東京都,新宿区,下落合４丁目９番２９号プレステージ目白３０１号,,13,104,1610033,,,2025-06-16,清算の結了等,,,2015-10-05,1,,,,,ファイナンシャルコア,0
344,2020001046781,登記記録の閉鎖等,0,2025-07-10,2025-07-04,株式会社マルキ梱包運送,,株式会社,神奈川県,横浜市港北区,新羽町２６１４番地,,14,109,2230057,,,2025-07-04,清算の結了等,,,2015-10-05,1,,,,,マルキコンポウウンソウ,0
346,2020001162323,登記記録の閉鎖等,0,2025-07-10,2025-07-01,川崎光学工業株式会社,,株式会社,神奈川県,川崎市中原区,井田９８４番地,,14,133,2110035,,,2025-07-01,清算の結了等,,,2025-04-11,1,,,,,カワサキコウガクコウギョウ,0
349,2020003019249,登記記録の閉鎖等,0,2025-07-10,2025-06-27,合同会社レッドガレージ,,合同会社,東京都,豊島区,上池袋１丁目１４番２号,,13,116,1700012,,,2025-06-27,清算の結了等,,,2021-03-11,1,,,,,レッドガレージ,0
354,2030001034868,登記記録の閉鎖等,0,2025-07-10,2025-07-01,協和電機工業株式会社,,株式会社,埼玉県,草加市,青柳２丁目３番１６号,,11,221,3400002,,,2025-07-01,清算の結了等,,,2015-10-05,1,,,,,キョウワデンキコウギョウ,0
355,2030001066498,登記記録の閉鎖等,0,2025-07-10,2025-07-02,株式会社エス・エス・ピー,,株式会社,埼玉県,越谷市,大字大林５６６番地５,,11,222,3430021,,,2025-07-02,清算の結了等,,,2015-10-05,1,,,,,エスエスピー,0
368,2030005002383,登記記録の閉鎖等,0,2025-07-10,2025-06-05,特定非営利活動法人コネクト埼玉,,その他の設立登記法人,埼玉県,さいたま市浦和区,高砂２丁目８－４－５Ｆ,,11,107,3300063,,,2025-06-05,清算の結了等,,,2015-10-05,1,,,,,コネクトサイタマ,0
372,2040002025700,登記記録の閉鎖等,0,2025-07-10,2025-06-30,有限会社ミュー,,有限会社,千葉県,船橋市,前原東５丁目２９番１５号,,12,204,2740824,,,2025-06-30,清算の結了等,,,2015-10-05,1,,,,,ミュー,0
429,2140001106565,登記記録の閉鎖等,0,2025-07-10,2025-07-03,株式会社ニナイテック,,株式会社,兵庫県,たつの市,龍野町島田６５５番地１,,28,229,6794121,,,2025-07-03,清算の結了等,,,2017-06-09,1,,,,,ニナイテック,0
450,2180301036731,登記記録の閉鎖等,0,2025-07-10,2025-06-27,ファーマーズ広場株式会社,,株式会社,愛知県,刈谷市,築地町５丁目１０番地９,,23,210,4480011,,,2025-06-27,清算の結了等,,,2022-10-18,1,,,,,ファーマーズヒロバ,0
453,2180302020486,登記記録の閉鎖等,0,2025-07-10,2025-07-04,有限会社新和塗装,,有限会社,愛知県,高浜市,田戸町１丁目３番地４,,23,227,4441323,,,2025-07-04,清算の結了等,,,2015-10-05,1,,,,,,0
457,2210005001383,登記記録の閉鎖等,0,2025-07-10,2025-07-03,正行寺,,その他の設立登記法人,福井県,福井市,手寄１丁目９番５号,,18,201,9100858,,,2025-07-03,清算の結了等,,,2015-10-05,1,,,,,ショウギョウジ,0
460,2240002031216,登記記録の閉鎖等,0,2025-07-10,2025-07-01,有限会社向原グリーン,,有限会社,広島県,安芸高田市,向原町長田３４８１番地,,34,214,7391203,,,2025-07-01,清算の結了等,,,2015-10-05,1,,,,,ムカイハラグリーン,0
461,2240005014845,登記記録の閉鎖等,0,2025-07-10,2025-07-02,特定非営利活動法人空家対策専門家協議会,,その他の設立登記法人,広島県,広島市中区,基町１３番１３号広島基町ＮＳビル６階,,34,101,7300011,,,2025-07-02,清算の結了等,,,2019-08-08,1,,,,,アキヤタイサクセンモンカキョウギカイ,0
464,2260002006686,登記記録の閉鎖等,0,2025-07-10,2025-06-23,有限会社テクノフェイス,,有限会社,岡山県,岡山市中区,兼基字砂場６１７番地の３,,33,102,7038227,,,2025-06-23,清算の結了等,,,2015-10-05,1,,,,,テクノフェイス,0
490,2430003008152,登記記録の閉鎖等,0,2025-07-10,2025-07-04,合同会社クラーク,,合同会社,北海道,札幌市豊平区,美園八条２丁目１－１９,,01,105,0620008,,,2025-07-04,合併による解散等,4010403015318,令和７年６月１日東京都港区港南三丁目５番１０号合同会社こうき（4010403015318）に合併し解散,2017-01-23,1,,,,,,0
492,2450002012376,登記記録の閉鎖等,0,2025-07-10,2025-07-07,有限会社マルヨかとう青果,,有限会社,北海道,留萌市,東雲町１丁目１０５番地,,01,212,0770011,,,2025-07-07,清算の結了等,,,2015-10-05,1,,,,,,0
501,2470002010106,登記記録の閉鎖等,0,2025-07-10,2025-07-02,有限会社ミドリ物流,,有限会社,香川県,高松市,国分寺町福家甲１２４番地４,,37,201,7690103,,,2025-07-02,清算の結了等,,,2015-10-05,1,,,,,ミドリブツリュウ,0
515,3010001017881,登記記録の閉鎖等,0,2025-07-10,2025-07-07,サンリツテクノス株式会社,,株式会社,東京都,千代田区,神田須田町１丁目２６番地の２,,13,101,1010041,,,2025-07-07,合併による解散等,7010601027913,令和７年７月１日東京都葛飾区西新小岩一丁目２番６号三洋環境株式会社（7010601027913）に合併し解散,2015-10-05,1,,,,,サンリツテクノス,0
516,3010001165697,登記記録の閉鎖等,0,2025-07-10,2025-06-16,Ｊｉｎｐａｏ　Ｐｒｅｃｉｓｉｏｎ　Ｊａｐａｎ株式会社,,株式会社,東京都,中央区,日本橋本町４丁目１番１３－１５０３号,,13,102,1030023,,,2025-06-16,清算の結了等,,,2015-10-05,1,,,,,ジンパオプレシジョンジャパン,0
594,3013301049941,登記記録の閉鎖等,0,2025-07-10,2025-06-27,ＬＩＦＥＬＩＮＥ株式会社,,株式会社,東京都,豊島区,上池袋１丁目１４番２号,,13,116,1700012,,,2025-06-27,清算の結了等,,,2022-11-16,1,,,,,ライフライン,0
597,3020001041971,登記記録の閉鎖等,0,2025-07-10,2025-07-03,ロコト株式会社,,株式会社,神奈川県,横浜市青葉区,市ケ尾町１０７７－３２,,14,117,2250024,,,2025-07-03,清算の結了等,,,2015-10-05,1,,,,,ロコト,0
605,3021001033026,登記記録の閉鎖等,0,2025-07-10,2025-07-04,株式会社中津工業,,株式会社,神奈川県,小田原市,城山１丁目１７番３号,,14,206,2500045,,,2025-07-04,清算の結了等,,,2015-10-05,1,,,,,,0
625,3040002065159,登記記録の閉鎖等,0,2025-07-10,2025-06-24,有限会社福栄商事,,有限会社,千葉県,四街道市,鹿渡２００３番地１０,,12,228,2840003,,,2025-06-24,清算の結了等,,,2015-10-05,1,,,,,,0
635,3080401001082,登記記録の閉鎖等,0,2025-07-10,2025-07-01,岡本工業株式会社,,株式会社,静岡県,浜松市中央区,松島町５４番地,,22,138,4300834,,,2025-07-01,清算の結了等,,,2015-10-05,1,,,,,オカモトコウギョウ,0
650,3110001003871,登記記録の閉鎖等,0,2025-07-10,2025-06-18,株式会社新潟設備センター,,株式会社,新潟県,新潟市中央区,鐙西２丁目９番１７号,,15,103,9500915,,,2025-06-18,合併による解散等,5110001004364,令和７年６月１日新潟市中央区米山四丁目６番１２号株式会社ナカムラ（5110001004364）に合併し解散,2015-10-05,1,,,,,ニイガタセツビセンター,0
669,3120003012291,登記記録の閉鎖等,0,2025-07-10,2025-06-30,合同会社ケイライズ,,合同会社,大阪府,門真市,千石東町２番３７号,,27,223,5710013,,,2025-06-30,清算の結了等,,,2016-12-22,1,,,,,,0
676,3120903004859,登記記録の閉鎖等,0,2025-07-10,2025-07-02,合同会社ルースデエスペランサ,,合同会社,大阪府,高槻市,城南町１丁目４番６号,,27,207,5690056,,,2025-07-02,清算の結了等,,,2023-10-12,1,,,,,ルースデエスペランサ,0
685,3140001106853,登記記録の閉鎖等,0,2025-07-10,2025-07-03,株式会社ライズステージ,,株式会社,兵庫県,神戸市北区,星和台６丁目１１番地の１,,28,109,6511121,,,2025-07-03,清算の結了等,,,2017-07-13,1,,,,,ライズステージ,0
690,3160001024624,登記記録の閉鎖等,0,2025-07-10,2025-06-30,株式会社丸修運輸,,株式会社,滋賀県,東近江市,幸町１番６５号セントラルオフィスＢ号,,25,213,5270031,,,2025-06-30,清算の結了等,,,2022-11-08,1,,,,,マルシュウウンユ,0
692,3170002000920,登記記録の閉鎖等,0,2025-07-10,2025-07-07,有限会社鎌田鉄筋工業,,有限会社,和歌山県,和歌山市,古屋２１５番地１ＩＭ八幡前Ｔ１０３号室,,30,201,6408435,,,2025-07-07,清算の結了等,,,2015-10-05,1,,,,,カマダテッキンコウギョウ,0
699,3180005020238,登記記録の閉鎖等,0,2025-07-10,2025-06-27,一般社団法人はなゑみ,,その他の設立登記法人,愛知県,名古屋市南区,観音町３丁目８２,,23,112,4570845,,,2025-06-27,清算の結了等,,,2023-06-14,1,,,,,ハナエミ,0
705,3190002018044,登記記録の閉鎖等,0,2025-07-10,2025-06-30,水谷産業有限会社,,有限会社,三重県,いなべ市,大安町石榑東２５３３番地,,24,214,5110264,,,2025-06-30,清算の結了等,,,2015-10-05,1,,,,,ミズタニサンギョウ,0
711,3220002005063,登記記録の閉鎖等,0,2025-07-10,2025-07-03,有限会社麸正,,有限会社,石川県,金沢市,千木１丁目９８番地,,17,201,9200002,,,2025-07-03,清算の結了等,,,2015-10-05,1,,,,,フマサ,0
712,3230002012083,登記記録の閉鎖等,0,2025-07-10,2025-07-04,有限会社丸栄黒川仏檀店,,有限会社,富山県,富山市,上袋６８６番地１,,16,201,9398071,,,2025-07-04,清算の結了等,,,2015-10-05,1,,,,,マルエイクロカワブツダンテン,0
714,3240001011572,登記記録の閉鎖等,0,2025-07-10,2025-07-02,三山産業株式会社,,株式会社,広島県,広島市中区,十日市町２丁目１番２５－１１０４号,,34,101,7300805,,,2025-07-02,清算の結了等,,,2015-10-05,1,,,,,ミヤマサンギョウ,0
717,3240002043417,登記記録の閉鎖等,0,2025-07-10,2025-07-01,メタルワークオガワ有限会社,,有限会社,広島県,福山市,加茂町大字下加茂５４番地,,34,207,7202412,,,2025-07-01,清算の結了等,,,2015-10-05,1,,,,,メタルワークオガワ,0
728,3290002050573,登記記録の閉鎖等,0,2025-07-10,2025-06-23,有限会社アルファ情報システム,,有限会社,福岡県,久留米市,長門石３丁目９－４４山下ビル４０１号,,40,203,8300027,,,2025-06-23,清算の結了等,,,2015-10-05,1,,,,,アルファジョウホウシステム,0
734,3310001017117,登記記録の閉鎖等,0,2025-07-10,2025-06-30,株式会社ｒａｉｓｅ,,株式会社,長崎県,諫早市,城見町１９番３号,,42,204,8540005,,,2025-06-30,清算の結了等,,,2021-02-26,1,,,,,レイズ,0
736,3330002013096,登記記録の閉鎖等,0,2025-07-10,2025-07-04,有限会社大野商店,,有限会社,熊本県,熊本市西区,田崎町４８４番地,,43,103,8600058,,,2025-07-04,清算の結了等,,,2015-10-05,1,,,,,オオノショウテン,0
748,3380001008258,登記記録の閉鎖等,0,2025-07-10,2025-07-07,石英理研株式会社,,株式会社,福島県,郡山市,田村町金屋字下タ川原１６７番地１２,,07,203,9630725,,,2025-07-07,合併による解散等,9020001036719,令和７年７月１日横浜市旭区都岡町５番地の１株式会社横浜石英（9020001036719）に合併し解散,2015-10-05,1,,,,,セキエイリケン,0
752,3390005000796,登記記録の閉鎖等,0,2025-07-10,2025-06-26,山形打刃物工業協同組合,,その他の設立登記法人,山形県,山形市,宮町５丁目１番１６号,,06,201,9900057,,,2025-06-26,清算の結了等,,,2015-10-05,1,,,,,ヤマガタウチハモノ,0
755,3420001012742,登記記録の閉鎖等,0,2025-07-10,2025-07-01,むつ中央観光株式会社,,株式会社,青森県,むつ市,大曲２丁目１３番３３号,,02,208,0350042,,,2025-07-01,合併による解散等,2420002019639,令和７年７月１日青森県むつ市大曲二丁目１３番３３号株式会社下北名産センター（2420002019639）に合併し解散,2015-10-05,1,,,,,ムツチュウオウカンコウ,0
763,3450001013382,登記記録の閉鎖等,0,2025-07-10,2025-07-07,株式会社車花,,株式会社,北海道,上川郡東神楽町,ひじり野北一条６丁目１番２号,,01,453,0711521,,,2025-07-07,清算の結了等,,,2021-06-23,1,,,,,シャカ,0
770,3500005006864,登記記録の閉鎖等,0,2025-07-10,2025-07-01,特定非営利活動法人頼れるふるさとネット,,その他の設立登記法人,愛媛県,越智郡上島町,弓削下弓削５１５番地,,38,356,7942506,,,2025-07-01,清算の結了等,,,2015-10-05,1,,,,,タヨレルフルサトネット,0
798,4010102007384,登記記録の閉鎖等,0,2025-07-10,2025-07-04,有限会社ワイテック,,有限会社,東京都,八王子市,西寺方町１１９７番の１,,13,201,1920153,,,2025-07-04,清算の結了等,,,2015-10-05,1,,,,,,0
808,4010601046156,登記記録の閉鎖等,0,2025-07-10,2025-06-30,株式会社大崎塗装,00051574,株式会社,東京都,江東区,北砂６丁目２５番１０号,,13,108,1360073,,,2025-06-30,清算の結了等,,,2015-10-05,1,,,,,オオサキトソウ,0
812,4010701038391,登記記録の閉鎖等,0,2025-07-10,2025-07-02,株式会社山長,,株式会社,東京都,品川区,豊町６丁目１１番４号,,13,109,1420042,,,2025-07-02,清算の結了等,,,2019-10-29,1,,,,,ヤマチョウ,0
848,4011102006442,登記記録の閉鎖等,0,2025-07-10,2025-06-16,秀和データファーム有限会社,,有限会社,東京都,新宿区,戸山１丁目１６番１２号,,13,104,1620052,,,2025-06-16,清算の結了等,,,2015-10-05,1,,,,,シュウワデータファーム,0
855,4011601015571,登記記録の閉鎖等,0,2025-07-10,2025-06-25,株式会社介護サービスいとう,,株式会社,東京都,練馬区,氷川台４丁目４４番１８－１０５号,,13,120,1790084,,,2025-06-25,清算の結了等,,,2015-10-05,1,,,,,カイゴサービスイトウ,0
864,4011802011675,登記記録の閉鎖等,0,2025-07-10,2025-07-01,有限会社菊地木工製作所,,有限会社,埼玉県,草加市,西町５０８番地９,,11,221,3400035,,,2025-07-01,清算の結了等,,,2015-10-05,1,,,,,キクチモッコウセイサクジョ,0
877,4013202002008,登記記録の閉鎖等,0,2025-07-10,2025-06-27,有限会社北沢商店,,有限会社,埼玉県,富士見市,西みずほ台１丁目２０番地１マーランドファイブ９０２,,11,235,3540018,,,2025-06-27,清算の結了等,,,2015-10-05,1,,,,,キタザワショウテン,0
879,4013401001082,登記記録の閉鎖等,0,2025-07-10,2025-07-01,幸栄商事株式会社,,株式会社,東京都,多摩市,関戸１丁目１番地５ザ・スクエア１Ｆ,,13,224,2060011,,,2025-07-01,清算の結了等,,,2015-10-05,1,,,,,,0
910,4030002118651,登記記録の閉鎖等,0,2025-07-10,2025-07-02,関東製菓工業有限会社,,有限会社,埼玉県,深谷市,小前田５１８番地２,,11,218,3691246,,,2025-07-02,清算の結了等,,,2015-10-05,1,,,,,カントウセイカコウギョウ,0
915,4030005020821,登記記録の閉鎖等,0,2025-07-10,2025-06-23,一般社団法人こぐまの家,,その他の設立登記法人,埼玉県,さいたま市岩槻区,宮町１丁目１０番２０－６号,,11,110,3390065,,,2025-06-23,清算の結了等,,,2022-04-15,1,,,,,コグマノイエ,0
935,4080402004570,登記記録の閉鎖等,0,2025-07-10,2025-07-01,有限会社大黒屋,,有限会社,静岡県,浜松市中央区,城北２丁目１８番１０号,,22,138,4328011,,,2025-07-01,清算の結了等,,,2015-10-05,1,,,,,ダイコクヤ,0
942,4100001012344,登記記録の閉鎖等,0,2025-07-10,2025-07-04,株式会社斑尾,,株式会社,長野県,中野市,大字永江２１３６番地,,20,211,3892104,,,2025-07-04,清算の結了等,,,2015-10-05,1,,,,,マダラオ,0
943,4100001024471,登記記録の閉鎖等,0,2025-07-10,2025-07-01,株式会社イーエム商事,,株式会社,長野県,北佐久郡軽井沢町,大字長倉字大池９番１３０,,20,321,3890111,,,2025-07-01,合併による解散等,3100002011726,令和７年７月１日長野県北佐久郡御代田町大字馬瀬口１６７１番地１株式会社成沢（3100002011726）に合併し解散,2015-10-05,1,,,,,イーエムショウジ,0
974,4122001008378,登記記録の閉鎖等,0,2025-07-10,2025-07-08,大阪カラー印刷株式会社,,株式会社,大阪府,東大阪市,水走２丁目４番１６号,,27,227,5780921,,,2025-07-08,合併による解散等,1120001022443,令和７年７月１日奈良県生駒市高山町８９１６番地１５上六印刷株式会社（1120001022443）に合併し解散,2015-10-05,1,,,,,オオサカラーインサツ,0
985,4140002011226,登記記録の閉鎖等,0,2025-07-10,2025-07-03,有限会社コーシンセレモニー,,有限会社,兵庫県,神戸市北区,山田町下谷上字小橋５番地の１８,,28,109,6511243,,,2025-07-03,清算の結了等,,,2015-10-05,1,,,,,コーシンセレモニー,0
995,4200001001188,登記記録の閉鎖等,0,2025-07-10,2025-07-01,株式会社岐阜イエローハット,,株式会社,岐阜県,岐阜市,下奈良２丁目１４番地の６,,21,201,5008385,,,2025-07-01,合併による解散等,7200001020986,令和７年７月１日岐阜県多治見市太平町三丁目６４番地株式会社新岐阜イエローハット（7200001020986）に合併し解散,2015-10-05,1,,,,,ギフイエローハット,0
996,4200001005065,登記記録の閉鎖等,0,2025-07-10,2025-07-02,株式会社丸高守口漬本店,00076490,株式会社,岐阜県,岐阜市,則武中３丁目２１番１１号,,21,201,5020932,,,2025-07-02,清算の結了等,,,2015-10-05,1,,,,,マルタカモリグチヅケホンテン,0
1016,4290003012316,登記記録の閉鎖等,0,2025-07-10,2025-06-26,合同会社善九郎,,合同会社,福岡県,嘉麻市,上山田８１２－９１,,40,227,8210012,,,2025-06-26,清算の結了等,,,2022-03-24,1,,,,,ゼンクロウ,0
1053,5010001165910,登記記録の閉鎖等,0,2025-07-10,2025-07-01,株式会社スリーワイズ,,株式会社,東京都,中央区,銀座１丁目２３番１０－２０４号,,13,102,1040061,,,2025-07-01,合併による解散等,6010001222090,令和７年７月１日東京都中央区銀座一丁目２３番１０－２０４号株式会社ジャスミンパートナーズ（6010001222090）に合併し解散,2015-10-05,1,,,,,スリーワイズ,0
1066,5010101009793,登記記録の閉鎖等,0,2025-07-10,2025-07-04,株式会社クリエイトバンク,,株式会社,東京都,八王子市,東町１－１０,,13,201,1920082,,,2025-07-04,清算の結了等,,,2015-10-05,1,,,,,クリエイトバンク,0
1070,5010401127790,登記記録の閉鎖等,0,2025-07-10,2025-07-01,株式会社ＣｏＣｏｍｅｄｉｘ,,株式会社,東京都,文京区,湯島３丁目１４番９号,,13,105,1130034,,,2025-07-01,合併による解散等,3010001057531,令和７年７月１日東京都文京区湯島三丁目１４番９号松吉医科器械株式会社（3010001057531）に合併し解散,2016-10-27,1,,,,,ココメディックス,0
1098,5010702015141,登記記録の閉鎖等,0,2025-07-10,2025-07-02,有限会社ジェラフル,,有限会社,東京都,品川区,小山６丁目４番１４号メディケア西小山７階,,13,109,1420062,,,2025-07-02,清算の結了等,,,2015-10-05,1,,,,,ジェラフル,0
1142,5020005010104,登記記録の閉鎖等,0,2025-07-10,2025-06-26,特定非営利活動法人みんなたいせつなひと,,その他の設立登記法人,神奈川県,横浜市神奈川区,台町１１番地の２０恒陽マンション３０２号,,14,102,2210834,,,2025-06-26,清算の結了等,,,2015-10-05,1,,,,,ミンナタイセツナヒト,0
1147,5030001035376,登記記録の閉鎖等,0,2025-07-10,2025-06-27,株式会社内藤不動産,,株式会社,埼玉県,草加市,手代１丁目３１番７号,,11,221,3400021,,,2025-06-27,清算の結了等,,,2015-10-05,1,,,,,ナイトウフドウサン,0
1155,5030002041027,登記記録の閉鎖等,0,2025-07-10,2025-07-02,有限会社カネテック,,有限会社,埼玉県,加須市,下谷８８６番地,,11,210,3470053,,,2025-07-02,清算の結了等,,,2015-10-05,1,,,,,カネテック,0
1159,5030002064952,登記記録の閉鎖等,0,2025-07-10,2025-07-01,有限会社宮下装飾,,有限会社,埼玉県,朝霞市,膝折町２丁目８番２－７０１号,,11,227,3510014,,,2025-07-01,清算の結了等,,,2015-10-05,1,,,,,ミヤシタソウショク,0
1170,5080001007817,登記記録の閉鎖等,0,2025-07-10,2025-06-30,株式会社海電社,,株式会社,静岡県,静岡市清水区,宮加三５５２番地,,22,103,4240911,,,2025-06-30,清算の結了等,,,2015-10-05,1,,,,,カイデンシャ,0
1185,5100002020832,登記記録の閉鎖等,0,2025-07-10,2025-07-04,有限会社デザイン・マール,,有限会社,長野県,松本市,大字岡田町８０１番地,,20,202,3900315,,,2025-07-04,清算の結了等,,,2015-10-05,1,,,,,デザインマール,0
1193,5110005016224,登記記録の閉鎖等,0,2025-07-10,2025-06-24,特定非営利活動法人なじらね沼垂,,その他の設立登記法人,新潟県,新潟市中央区,沼垂東２丁目１番１５号,,15,103,9500075,,,2025-06-24,清算の結了等,,,2018-02-27,1,,,,,ナジラネヌッタリ,0
1203,5120101050737,登記記録の閉鎖等,0,2025-07-10,2025-07-02,株式会社平岡商会,,株式会社,大阪府,堺市堺区,老松町１丁３７番地,,27,141,5900824,,,2025-07-02,合併による解散等,3120101006690,令和７年７月１日大阪府堺市堺区老松町一丁３７番地株式会社堀内機械（3120101006690）に合併し解散,2015-10-05,1,,,,,ヒラオカショウカイ,0
1215,5140003015241,登記記録の閉鎖等,0,2025-07-10,2025-07-03,合同会社ＳＯＯ,,合同会社,兵庫県,神戸市中央区,元町通５丁目８番１７－８０１号,,28,110,6500022,,,2025-07-03,清算の結了等,,,2020-08-12,1,,,,,エスオーオー,0
1227,5200001024394,登記記録の閉鎖等,0,2025-07-10,2025-07-01,株式会社イワク保険事務所,,株式会社,岐阜県,中津川市,落合２６番地の６６７,,21,206,5080006,,,2025-07-01,清算の結了等,,,2015-10-05,1,,,,,イワクホケンジムショ,0
1243,5290801026219,登記記録の閉鎖等,0,2025-07-10,2025-07-01,ＰＵＥＮＴＥＳ株式会社,,株式会社,福岡県,北九州市八幡西区,さつき台１丁目４－３,,40,109,8070868,,,2025-07-01,清算の結了等,,,2020-01-24,1,,,,,プエンテス,0
1258,5370001017811,登記記録の閉鎖等,0,2025-07-10,2025-06-26,株式会社オウエムコーポレーション,,株式会社,宮城県,黒川郡大郷町,東成田字新田１１番地の１,,04,422,9813522,,,2025-06-26,清算の結了等,,,2015-10-05,1,,,,,,0
1270,5470001002200,登記記録の閉鎖等,0,2025-07-10,2025-07-02,株式会社真和,,株式会社,香川県,高松市,多肥下町１５５９番地９,,37,201,7618075,,,2025-07-02,清算の結了等,,,2015-10-05,1,,,,,シンワ,0
1276,6010001006477,登記記録の閉鎖等,0,2025-07-10,2025-07-01,株式会社浜田商会,,株式会社,埼玉県,越谷市,谷中町２丁目１８８番地５,,11,222,3430856,,,2025-07-01,清算の結了等,,,2015-10-05,1,,,,,ハマダショウカイ,0
1315,6010601044892,登記記録の閉鎖等,0,2025-07-10,2025-06-30,株式会社エスシー企画東京西,,株式会社,東京都,墨田区,錦糸１丁目７番１４号,,13,107,1300013,,,2025-06-30,合併による解散等,4010501032256,令和７年６月３０日東京都墨田区錦糸一丁目７番１４号株式会社エスシー企画（4010501032256）に合併し解散,2015-10-05,1,,,,,エスシーキカクトウキョウニシ,0
1322,6010701042458,登記記録の閉鎖等,0,2025-07-10,2025-06-30,ｅＬｉｆｅ株式会社,,株式会社,東京都,品川区,西五反田３丁目１１番６号,,13,109,1410031,,,2025-06-30,合併による解散等,4010701047310,令和７年６月１７日東京都品川区西五反田三丁目１１番６号サンウエスト山手ビル４Ｆｅｌｉｆｅ株式会社（4010701047310）に合併し解散,2022-04-08,1,,,,,イーライフ,0
1341,6011001157913,登記記録の閉鎖等,0,2025-07-10,2025-06-12,Ｍａｉｓｏｎ　ｄｕ　Ｍｕｓｅｅ株式会社,,株式会社,東京都,渋谷区,渋谷４丁目２番９号,,13,113,1500002,,,2025-06-12,清算の結了等,,,2023-10-30,1,,,,,メゾンドミュゼ,0
1377,6020001041060,登記記録の閉鎖等,0,2025-07-10,2025-07-08,ＮＴＴデバイステクノ株式会社,,株式会社,神奈川県,横浜市神奈川区,新浦島町１丁目１番地３２,,14,102,2210031,,,2025-07-08,合併による解散等,5380001016770,令和７年７月１日茨城県那珂市戸６７００番地の２ＮＴＴデバイステクノ株式会社（5380001016770）に合併し解散,2015-10-05,1,,,,,エヌティティデバイステクノ,0
1388,6030001004157,登記記録の閉鎖等,0,2025-07-10,2025-07-01,ジー・ワイ・エス株式会社,,株式会社,埼玉県,さいたま市北区,日進町３丁目２６９番地の１,,11,102,3310823,,,2025-07-01,清算の結了等,,,2015-10-05,1,,,,,ジーワイエス,0
1389,6030001043956,登記記録の閉鎖等,0,2025-07-10,2025-07-02,株式会社トップ製作所,,株式会社,埼玉県,草加市,稲荷３丁目７番３号,,11,221,3400003,,,2025-07-02,清算の結了等,,,2015-10-05,1,,,,,トップセイサクショ,0
1408,6040001014766,登記記録の閉鎖等,0,2025-07-10,2025-06-23,丸勝建材工業株式会社,,株式会社,千葉県,習志野市,谷津２丁目１５番３２号,,12,216,2750026,,,2025-06-23,清算の結了等,,,2015-10-05,1,,,,,マルカツケンザイコウギョウ,0
1409,6040001016424,登記記録の閉鎖等,0,2025-07-10,2025-06-25,株式会社ビーズ,,株式会社,千葉県,習志野市,大久保２丁目１４番５－２１２号,,12,216,2750011,,,2025-06-25,清算の結了等,,,2015-10-05,1,,,,,ビーズ,0
1458,6120901006623,登記記録の閉鎖等,0,2025-07-10,2025-07-02,株式会社三栄エステート,,株式会社,大阪府,豊中市,少路２丁目３番１－４１０号,,27,203,5600004,,,2025-07-02,清算の結了等,,,2015-10-05,1,,,,,サンエイエステート,0
1464,6140001056443,登記記録の閉鎖等,0,2025-07-10,2025-07-01,株式会社加藤サービス,,株式会社,兵庫県,豊岡市,但東町出合９９番地の１,,28,209,6680311,,,2025-07-01,合併による解散等,8140001046780,令和７年７月１日兵庫県朝来市和田山町土田４３４番地１株式会社オートワールド信栄（8140001046780）に合併し解散,2015-10-05,1,,,,,カトウサービス,0
1474,6170002000653,登記記録の閉鎖等,0,2025-07-10,2025-07-04,有限会社小上石油店,,有限会社,和歌山県,和歌山市,手平１丁目６番２１号,,30,201,6408319,,,2025-07-04,清算の結了等,,,2025-06-24,1,,,,,オガミセキユテン,0
1489,6240002041723,登記記録の閉鎖等,0,2025-07-10,2025-07-02,有限会社タニハラオート,,有限会社,広島県,福山市,神村町５８５４番地の３,,34,207,7290112,,,2025-07-02,清算の結了等,,,2015-10-05,1,,,,,タニハラオート,0
1498,6300001008262,登記記録の閉鎖等,0,2025-07-10,2025-07-04,株式会社一和,,株式会社,佐賀県,佐賀市,鍋島町大字蛎久２３１４番地４,,41,201,8490931,,,2025-07-04,清算の結了等,,,2015-10-05,1,,,,,イチワ,0
1508,6350001014710,登記記録の閉鎖等,0,2025-07-10,2025-06-26,株式会社ひむかマーケット,,株式会社,宮崎県,小林市,真方５７４番地３,,45,205,8860007,,,2025-06-26,清算の結了等,,,2017-05-30,1,,,,,ヒムカマーケット,0
1509,6350001015238,登記記録の閉鎖等,0,2025-07-10,2025-07-01,株式会社プラウド,,株式会社,宮崎県,延岡市,瀬之口町２丁目２番地１５,,45,203,8820045,,,2025-07-01,合併による解散等,1350001006910,令和７年７月１日宮崎県延岡市瀬之口町二丁目２番地１５株式会社日中商事（1350001006910）に合併し解散,2018-04-24,1,,,,,プラウド,0
1530,6430005004749,登記記録の閉鎖等,0,2025-07-10,2025-06-26,花川中央商店街振興組合,,その他の設立登記法人,北海道,石狩市,花川南二条３丁目９１番地２,,01,235,0613202,,,2025-06-26,清算の結了等,,,2015-10-05,1,,,,,ハナカワチュウオウ,0
1580,7010701039206,登記記録の閉鎖等,0,2025-07-10,2025-07-01,株式会社ＮＡＤＤＩＣ　ＪＡＰＡＮ,,株式会社,東京都,品川区,西品川１丁目１番１号住友不動産大崎ガーデンタワー９階トンネル東京,,13,109,1410033,,,2025-07-01,清算の結了等,,,2020-04-24,1,,,,,ナディックジャパン,0
1596,7010903003488,登記記録の閉鎖等,0,2025-07-10,2025-07-09,合同会社ＰＥＲＴＩＣＡ,,合同会社,東京都,世田谷区,代田４丁目５番地１２ベルメゾンＩＩ１階,00109193,13,112,1550033,,,2025-07-09,清算の結了等,,,2017-02-08,1,,,,,ペルティカ,0
1641,7021001006408,登記記録の閉鎖等,0,2025-07-10,2025-07-04,株式会社電設センター,,株式会社,神奈川県,高座郡寒川町,大曲１丁目１番１８号,,14,321,2530113,,,2025-07-04,清算の結了等,,,2015-10-05,1,,,,,デンセツセンター,0
1644,7021002000533,登記記録の閉鎖等,0,2025-07-10,2025-07-01,有限会社一榮通信,,有限会社,神奈川県,藤沢市,藤沢４丁目１５番２３号,,14,205,2510052,,,2025-07-01,清算の結了等,,,2015-10-05,1,,,,,イチエイツウシン,0
1645,7021002063316,登記記録の閉鎖等,0,2025-07-10,2025-07-01,有限会社太田屋,,有限会社,神奈川県,横須賀市,根岸町１丁目８番１－９１８号,,14,201,2390807,,,2025-07-01,清算の結了等,,,2015-10-05,1,,,,,オオタヤ,0
1732,7240002009232,登記記録の閉鎖等,0,2025-07-10,2025-07-01,有限会社大向産業,,有限会社,広島県,広島市南区,宇品海岸２丁目１５番１０号,,34,103,7340011,,,2025-07-01,合併による解散等,1240001011624,令和７年７月１日広島市南区宇品海岸二丁目１５番１０号向江建設株式会社（1240001011624）に合併し解散,2015-10-05,1,,,,,ダイコウサンギョウ,0
1739,7250002014108,登記記録の閉鎖等,0,2025-07-10,2025-07-02,有限会社勝水産,,有限会社,山口県,長門市,東深川１７８番地の６,,35,211,7594101,,,2025-07-02,清算の結了等,,,2015-10-05,1,,,,,カツスイサン,0
1747,7290802016431,登記記録の閉鎖等,0,2025-07-10,2025-07-07,有限会社エスカルゴ,,有限会社,福岡県,遠賀郡芦屋町,山鹿２番１３号,,40,381,8070141,,,2025-07-07,清算の結了等,,,2015-10-05,1,,,,,エスカルゴ,0
1748,7290802023147,登記記録の閉鎖等,0,2025-07-10,2025-07-03,有限会社ショッピングセンター西,,有限会社,福岡県,京都郡みやこ町,犀川本庄４６５番地,,40,625,8240231,,,2025-07-03,清算の結了等,,,2015-10-05,1,,,,,ショッビングセンターニシ,0
1762,7370002012636,登記記録の閉鎖等,0,2025-07-10,2025-06-24,中村物産有限会社,,有限会社,宮城県,仙台市青葉区,米ケ袋３丁目８番５号,,04,101,9800813,,,2025-06-24,清算の結了等,,,2015-10-05,1,,,,,ナカムラブッサン,0
1774,7460001004162,登記記録の閉鎖等,0,2025-07-10,2025-07-07,ユーサー・エンジニアリング株式会社,,株式会社,北海道,釧路市,興津５丁目４番６号,,01,206,0850811,,,2025-07-07,清算の結了等,,,2015-10-05,1,,,,,ユーサーエンジニアリング,0
1778,7460002000458,登記記録の閉鎖等,0,2025-07-10,2025-07-07,有限会社オフィスシーアイ,,有限会社,北海道,釧路市,春採４丁目１８番２９号,,01,206,0850813,,,2025-07-07,合併による解散等,2460101004034,令和７年７月１日北海道帯広市大通南十二丁目２０番地リブラス株式会社（2460101004034）に合併し解散,2015-10-05,1,,,,,,0
1780,7460002002363,登記記録の閉鎖等,0,2025-07-10,2025-07-04,有限会社ビン・アート・プロダクシヨン,,有限会社,北海道,釧路市,昭和南５丁目８番２２号,,01,206,0840909,,,2025-07-04,清算の結了等,,,2015-10-05,1,,,,,ビンアートプロダクシヨン,0
1811,8010401169186,登記記録の閉鎖等,0,2025-07-10,2025-07-04,株式会社Ｌａｆｔｉｖｅ,,株式会社,神奈川県,川崎市川崎区,砂子１丁目２番４号,,14,131,2100006,,,2025-07-04,合併による解散等,7010401154676,令和７年６月１日神奈川県川崎市川崎区砂子一丁目２番４号株式会社ＢｕｄｄｙＣｏｍｐａｓｓ（7010401154676）に合併し解散,2022-08-24,1,,,,,ラフティブ,0
1840,8011002019994,登記記録の閉鎖等,0,2025-07-10,2025-07-07,有限会社白,,有限会社,東京都,台東区,北上野２丁目８番４号,,13,106,1100014,,,2025-07-07,合併による解散等,3011202006252,令和７年７月１日東京都中野区東中野二丁目２２番２１号株式会社友和管理サービス（3011202006252）に合併し解散,2015-10-05,1,,,,,ハク,0
1877,8020003003164,登記記録の閉鎖等,0,2025-07-10,2025-07-04,コアラベア合資会社,,合資会社,神奈川県,横浜市神奈川区,六角橋１丁目７番地の２,,14,102,2210802,,,2025-07-04,清算の結了等,,,2015-10-05,1,,,,,コアラベア,0
1878,8020005010167,登記記録の閉鎖等,0,2025-07-10,2025-06-27,協同組合横浜市建築調査機構,,その他の設立登記法人,神奈川県,横浜市中区,長者町３丁目８番１３号,,14,104,2310033,,,2025-06-27,清算の結了等,,,2015-10-05,1,,,,,ヨコハマシケンチクチョウサキコウ,0
1884,8030001014658,登記記録の閉鎖等,0,2025-07-10,2025-07-01,株式会社アサマ塗装創建,,株式会社,埼玉県,さいたま市見沼区,大字御蔵７１１番地４,,11,104,3370033,,,2025-07-01,清算の結了等,,,2015-10-05,1,,,,,アサマトソウソウケン,0
1886,8030001153638,登記記録の閉鎖等,0,2025-07-10,2025-07-01,株式会社ＩＤＳ商会,,株式会社,埼玉県,草加市,新善町４８０番地エクセルチヅ４０６,,11,221,3400054,,,2025-07-01,清算の結了等,,,2023-04-28,1,,,,,アイディーエスショカイ,0
1896,8030002077761,登記記録の閉鎖等,0,2025-07-10,2025-07-01,有限会社フルーツコウザイ,,有限会社,埼玉県,ふじみ野市,上福岡６丁目１番２号,,11,245,3560004,,,2025-07-01,清算の結了等,,,2015-10-05,1,,,,,フルーツコウザイ,0
1912,8050001027609,登記記録の閉鎖等,0,2025-07-10,2025-06-30,ビーバー商事株式会社,,株式会社,茨城県,取手市,米ノ井字東山１６７番地の７,,08,217,3020033,,,2025-06-30,清算の結了等,,,2015-10-05,1,,,,,ビーバーショウジ,0
1921,8080402019524,登記記録の閉鎖等,0,2025-07-10,2025-07-01,有限会社木村設備,,有限会社,静岡県,磐田市,富士見町１丁目２９番地の２２,,22,211,4380083,,,2025-07-01,清算の結了等,,,2015-10-05,1,,,,,キムラセツビ,0
1946,8120003029125,登記記録の閉鎖等,0,2025-07-10,2025-07-02,合同会社福西商店,,合同会社,大阪府,守口市,菊水通４丁目６番１２－５０２号,,27,209,5700032,,,2025-07-02,清算の結了等,,,2025-04-17,1,,,,,フクニシショウテン,0
1963,8140001032244,登記記録の閉鎖等,0,2025-07-10,2025-07-02,ユニオン・コンサルティング株式会社,,株式会社,兵庫県,西宮市,小曽根町２丁目５番１８－１号,,28,204,6638122,,,2025-07-02,清算の結了等,,,2015-10-05,1,,,,,ユニオンコンサルティング,0
1982,8190002021191,登記記録の閉鎖等,0,2025-07-10,2025-06-30,東桑運送有限会社,,有限会社,三重県,三重郡川越町,大字当新田２１３番地１,,24,344,5108111,,,2025-06-30,清算の結了等,,,2015-10-05,1,,,,,トウソウウンソウ,0
1990,8230001009381,登記記録の閉鎖等,0,2025-07-10,2025-07-04,株式会社青山森林サービス,,株式会社,富山県,砺波市,新明３０９番地１,,16,208,9391321,,,2025-07-04,清算の結了等,,,2015-10-05,1,,,,,アオヤマシンリンサービス,0
2005,8290802022412,登記記録の閉鎖等,0,2025-07-10,2025-07-03,手島エンジニアリング有限会社,,有限会社,福岡県,行橋市,大字金屋５２４番地の８,,40,213,8240004,,,2025-07-03,清算の結了等,,,2015-10-05,1,,,,,テシマエンジニアリング,0
2010,8310001012435,登記記録の閉鎖等,0,2025-07-10,2025-06-30,株式会社アカリ,,株式会社,長崎県,佐世保市,有福町２０５番地３,,42,202,8593241,,,2025-06-30,清算の結了等,,,2015-10-05,1,,,,,アカリ,0
2042,8500001009791,登記記録の閉鎖等,0,2025-07-10,2025-06-30,協進工業株式会社,,株式会社,愛媛県,新居浜市,多喜浜６丁目６番３９号,,38,205,7920893,,,2025-06-30,合併による解散等,4500001009705,令和７年６月３０日愛媛県新居浜市多喜浜六丁目６番４３号株式会社小野鐵工所（4500001009705）に合併し解散,2015-10-05,1,,,,,キョウシンコウギョウ,0
2052,9010001179510,登記記録の閉鎖等,0,2025-07-10,2025-06-25,株式会社テロワール・ジャポン,,株式会社,千葉県,成田市,本三里塚１７１番地３８号,,12,211,2860118,,,2025-06-25,清算の結了等,,,2016-11-10,1,,,,,テロワールジャポン,0
2063,9010005025999,登記記録の閉鎖等,0,2025-07-10,2025-06-26,一般社団法人ＦＳＵ工法普及協会,,その他の設立登記法人,東京都,中央区,日本橋堀留町２丁目５番７－１００５号,,13,102,1030012,,,2025-06-26,清算の結了等,,,2016-11-11,1,,,,,エフエスユーコウホウフキュウキョウカイ,0
2077,9010403015395,登記記録の閉鎖等,0,2025-07-10,2025-06-18,レオパレス２１支払口合同会社,,合同会社,東京都,港区,浜松町２丁目２番１５号浜松町ダイヤビル２Ｆ,,13,103,1050013,,,2025-06-18,清算の結了等,,,2016-09-28,1,,,,,レオパレスニジュウイチシハライグチ,0
2081,9010501023985,登記記録の閉鎖等,0,2025-07-10,2025-06-18,株式会社北青山プロパティ,,株式会社,東京都,千代田区,麹町６丁目２番６号,,13,101,1020083,,,2025-06-18,清算の結了等,,,2015-10-05,1,,,,,キタアオヤマプロパティ,0
2082,9010501031600,登記記録の閉鎖等,0,2025-07-10,2025-07-08,株式会社グランドユニット,,株式会社,東京都,台東区,浅草橋３丁目１９番４号ピノチオビル５階,,13,106,1110053,,,2025-07-08,合併による解散等,4013301036641,令和７年７月１日東京都中央区銀座五丁目１５番８号株式会社ＧＣＵ（4013301036641）に合併し解散,2015-10-05,1,,,,,グランドユニット,0
2105,9011101007998,登記記録の閉鎖等,0,2025-07-10,2025-06-19,株式会社ザフェイスオブジュエリー,,株式会社,東京都,文京区,小石川５丁目１１番１５－６０３号,,13,105,1120002,,,2025-06-19,清算の結了等,,,2015-10-05,1,,,,,ザフェイスオズジュエリー,0
2123,9020001086045,登記記録の閉鎖等,0,2025-07-10,2025-07-08,ＧＵＫＩ　ＣＥＬＬＡＲＳ　ＪＡＰＡＮ株式会社,,株式会社,神奈川県,横浜市中区,日本大通７合人社横浜日本大通り７ビル,,14,104,2310021,,,2025-07-08,清算の結了等,,,2015-10-05,1,,,,,グキセラースジャパン,0
2126,9020002028450,登記記録の閉鎖等,0,2025-07-10,2025-07-04,湊エンジニアリング有限会社,,有限会社,神奈川県,横浜市神奈川区,西神奈川１丁目９番地１９,,14,102,2210822,,,2025-07-04,清算の結了等,,,2015-10-05,1,,,,,ミナトエンジニアリング,0
2135,9021003008425,登記記録の閉鎖等,0,2025-07-10,2025-06-11,合同会社大富,,合同会社,神奈川県,藤沢市,鵠沼藤が谷２丁目２番７号,,14,205,2510031,,,2025-06-11,清算の結了等,,,2019-05-27,1,,,,,オオトミ,0
2137,9021005009925,登記記録の閉鎖等,0,2025-07-10,2025-07-04,特定非営利活動法人マーブリングハウス,,その他の設立登記法人,神奈川県,相模原市緑区,千木良８５６番地１,,14,151,2520174,,,2025-07-04,清算の結了等,,,2015-10-05,1,,,,,マーブリングハウス,0
2139,9030001053218,登記記録の閉鎖等,0,2025-07-10,2025-07-02,株式会社アクスル,,株式会社,埼玉県,越谷市,元柳田町９番２８号,,11,222,3430815,,,2025-07-02,清算の結了等,,,2015-10-05,1,,,,,アクスル,0
2148,9030002021578,登記記録の閉鎖等,0,2025-07-10,2025-07-02,有限会社デジフュージョン,,有限会社,埼玉県,さいたま市岩槻区,東岩槻４丁目６番地１４,,11,110,3390005,,,2025-07-02,清算の結了等,,,2015-10-05,1,,,,,デジフュージョン,0
2186,9110002017205,登記記録の閉鎖等,0,2025-07-10,2025-06-24,有限会社しあんくれーる,,有限会社,新潟県,三条市,横町２丁目１０番２５号,,15,204,9550064,,,2025-06-24,清算の結了等,,,2015-10-05,1,,,,,シアンクレール,0
2191,9120001178856,登記記録の閉鎖等,0,2025-07-10,2025-06-30,株式会社ファンテキスタイル,,株式会社,大阪府,大阪市中央区,久太郎町１丁目９番６号商栄ビル,,27,128,5410056,,,2025-06-30,清算の結了等,,,2015-10-05,1,,,,,ファンテキスタイル,0
2193,9120001227968,登記記録の閉鎖等,0,2025-07-10,2025-06-30,株式会社会計人ラボ,,株式会社,大阪府,大阪市北区,天神西町８番７号三島会計事務所内,,27,127,5300045,,,2025-06-30,清算の結了等,,,2020-03-23,1,,,,,カイケイジンラボ,0
2206,9120002021429,登記記録の閉鎖等,0,2025-07-10,2025-07-02,有限会社オフイスとまと,,有限会社,大阪府,大阪市西成区,松１丁目５番３０号,,27,122,5570034,,,2025-07-02,清算の結了等,,,2015-10-05,1,,,,,オフイストマト,0
2212,9120103003730,登記記録の閉鎖等,0,2025-07-10,2025-07-04,合同会社グッドプレイス,,合同会社,和歌山県,海南市,且来６８番地２,,30,202,6420015,,,2025-07-04,清算の結了等,,,2020-06-09,1,,,,,グッドプレイス,0
2228,9160001000388,登記記録の閉鎖等,0,2025-07-10,2025-06-30,株式会社大津スポーツ,,株式会社,滋賀県,大津市,京町１丁目３番４２号,,25,201,5200044,,,2025-06-30,清算の結了等,,,2015-10-05,1,,,,,オオツスポーツ,0
2241,9190001022842,登記記録の閉鎖等,0,2025-07-10,2025-06-30,株式会社キマタ設備工業,,株式会社,三重県,松阪市,豊原町１０８５番地１０,,24,204,5150205,,,2025-06-30,清算の結了等,,,2015-10-05,1,,,,,キマタセツビコウギョウ,0
2252,9220001015768,登記記録の閉鎖等,0,2025-07-10,2025-07-02,株式会社ブイネット,,株式会社,石川県,七尾市,藤野町ロ部３８番地,,17,202,9260028,,,2025-07-02,清算の結了等,,,2015-10-05,1,,,,,ブイネット,0
2253,9230001006709,登記記録の閉鎖等,0,2025-07-10,2025-07-01,株式会社グリア,,株式会社,富山県,富山市,吉作４７０４番地２,,16,201,9300142,,,2025-07-01,合併による解散等,9230002005437,令和７年７月１日富山市吉作４７０４番地２株式会社ＵＲｉＰ（9230002005437）に合併し解散,2015-10-05,1,,,,,グリア,0
2255,9230001015115,登記記録の閉鎖等,0,2025-07-10,2025-07-01,株式会社ＣＨＥＥＲＳ,,株式会社,富山県,富山市,二口町４丁目２番地２ベルパティオＣ棟,,16,201,9398211,,,2025-07-01,合併による解散等,4230001016737,令和７年７月１日富山市二口町四丁目２番地２ベルパティオＣ棟株式会社みらいデザインパートナーズ（4230001016737）に合併し解散,2015-10-05,1,,,,,チアーズ,0
2260,9240005005549,登記記録の閉鎖等,0,2025-07-10,2025-06-27,農事組合法人やまのうち,,その他の設立登記法人,広島県,庄原市,山内町７７７番地,,34,210,7296131,,,2025-06-27,清算の結了等,,,2015-10-05,1,,,,,ヤマノウチ,0
2297,9420003000707,登記記録の閉鎖等,0,2025-07-10,2025-06-26,合同会社マルカネ,,合同会社,青森県,八戸市,湊高台５丁目５番４号,,02,203,0310823,,,2025-06-26,清算の結了等,,,2015-10-05,1,,,,,マルカネ,0
2309,9450002005596,登記記録の閉鎖等,0,2025-07-10,2025-07-01,有限会社ミューロン,,有限会社,北海道,旭川市,大雪通１丁目８７２番地,,01,204,0700010,,,2025-07-01,合併による解散等,5450001000726,令和７年７月１日北海道旭川市永山北三条七丁目２番地株式会社表鉄工所（5450001000726）に合併し解散,2015-10-05,1,,,,,ミューロン,0
