sequenceNumber,corporateNumber,process,correct,updateDate,changeDate,name,nameImageId,kind,prefectureName,cityName,streetNumber,addressImageId,prefectureCode,cityCode,postCode,addressOutside,addressOutsideImageId,closeDate,closeCause,successorCorporateNumber,changeCause,assignmentDate,latest,enName,enPrefectureName,enCityName,enAddressOutside,furigana,hihyoji
2,1010001120349,登記記録の閉鎖等,0,2023-11-13,2023-11-06,商工事務局株式会社,,株式会社,東京都,千代田区,丸の内１丁目１番３号ＡＩＧビルＢ１－ＳＣ,,13,101,1000005,,,2023-11-06,清算の結了等,,,2015-10-05,1,,,,,ショウコウジムキョク,0
19,1010401115460,登記記録の閉鎖等,0,2023-11-13,2023-11-09,株式会社８２４＆Ｃｏ．,,株式会社,東京都,港区,台場２丁目２番２－１２０４号,,13,103,1350091,,,2023-11-09,合併による解散等,3010401113636,令和５年１１月１日神奈川県横浜市中区山下町３７番地８－１８１１号室株式会社１１３２＆Ｃｏ．（3010401113636）に合併し解散,2015-10-05,1,,,,,ハチニヨンアンドコ,0
20,1010401126516,登記記録の閉鎖等,0,2023-11-13,2023-11-07,株式会社バードキャリア,,株式会社,東京都,港区,芝４丁目９－１芝ニシイビル２階,,13,103,1080014,,,2023-11-07,清算の結了等,,,2016-08-16,1,,,,,バードキャリア,0
32,1010403021095,登記記録の閉鎖等,0,2023-11-13,2023-11-07,御前崎洋上風力発電所合同会社,,合同会社,東京都,港区,新橋６丁目１７番２１号,,13,103,1050004,,,2023-11-07,清算の結了等,,,2019-07-17,1,,,,,オマエザキヨウジョウフウリョクハツデンショ,0
34,1010403028529,登記記録の閉鎖等,0,2023-11-13,2023-11-07,新潟北部洋上風力発電合同会社,,合同会社,東京都,港区,新橋６丁目１７番２１号,,13,103,1050004,,,2023-11-07,清算の結了等,,,2022-09-21,1,,,,,ニイガタホクブヨウジョウフウリョクハツデン,0
42,1010601055762,登記記録の閉鎖等,0,2023-11-13,2023-11-07,Ａｔｌａｔｅｃ　Ｊａｐａｎ株式会社,,株式会社,東京都,江東区,有明１丁目４番１１号,,13,108,1350063,,,2023-11-07,清算の結了等,,,2019-07-04,1,,,,,アトラテックジャパン,0
43,1010602013232,登記記録の閉鎖等,0,2023-11-13,2023-11-07,有限会社ナカタケ,,有限会社,東京都,墨田区,東駒形４丁目２４番１３号,,13,107,1300005,,,2023-11-07,清算の結了等,,,2015-10-05,1,,,,,ナカタケ,0
46,1010705001489,登記記録の閉鎖等,0,2023-11-13,2023-11-06,特許業務法人鈴木国際特許事務所,,その他の設立登記法人,東京都,品川区,西五反田７丁目１３番６号,,13,109,1410031,,,2023-11-06,清算の結了等,,,2015-10-05,1,,,,,,0
53,1010901020821,登記記録の閉鎖等,0,2023-11-13,2023-10-31,アークジェイ建物管理株式会社,,株式会社,東京都,杉並区,上高井戸１丁目９番１０号,,13,115,1680074,,,2023-10-31,清算の結了等,,,2015-10-05,1,,,,,,0
79,1011101083824,登記記録の閉鎖等,0,2023-11-13,2023-11-08,株式会社北新宿,,株式会社,東京都,新宿区,北新宿３丁目１２番２６号,,13,104,1690074,,,2023-11-08,合併による解散等,7010003023809,令和５年１１月１日東京都中央区日本橋蛎殻町一丁目９番３－１００１号ＭＣＮ合同会社（7010003023809）に合併し解散,2018-04-12,1,,,,,キタシンジュク,0
88,1011302008142,登記記録の閉鎖等,0,2023-11-13,2023-10-31,有限会社プリメイラ,,有限会社,東京都,杉並区,荻窪５丁目３０番１７－１２１５号,,13,115,1670051,,,2023-10-31,清算の結了等,,,2015-10-05,1,,,,,プリメイラ,0
106,1020001065840,登記記録の閉鎖等,0,2023-11-13,2023-10-30,株式会社インフォマックス,,株式会社,神奈川県,川崎市宮前区,野川１１１９番地１フルーリッシュ野川３０２号,,14,136,2160001,,,2023-10-30,清算の結了等,,,2015-10-05,1,,,,,インフォマックス,0
120,1020002011728,登記記録の閉鎖等,0,2023-11-13,2023-11-01,有限会社ケンジ,,有限会社,神奈川県,横浜市戸塚区,戸塚町５６番地,,14,110,2440003,,,2023-11-01,清算の結了等,,,2015-10-05,1,,,,,ケンジ,0
121,1020002069361,登記記録の閉鎖等,0,2023-11-13,2023-11-07,有限会社シーズ・コンサルティング,,有限会社,神奈川県,横浜市旭区,中希望が丘４３番地３１,,14,112,2410825,,,2023-11-07,清算の結了等,,,2015-10-05,1,,,,,シーズコンサルティング,0
131,1021001031056,登記記録の閉鎖等,0,2023-11-13,2023-11-08,株式会社ラヴァン,,株式会社,神奈川県,伊勢原市,伊勢原３丁目１０番１号,,14,214,2591131,,,2023-11-08,清算の結了等,,,2015-10-05,1,,,,,ラヴァン,0
150,1040001077124,登記記録の閉鎖等,0,2023-11-13,2023-11-06,ロジスオールジャパン株式会社,,株式会社,東京都,千代田区,大手町１丁目１番３号大手センタービル,,13,101,1000004,,,2023-11-06,清算の結了等,,,2015-10-05,1,,,,,ロジスオールジャパン,0
169,1080002017703,登記記録の閉鎖等,0,2023-11-13,2023-11-10,有限会社ソネ,,有限会社,静岡県,藤枝市,志太３丁目５番３号,,22,214,4260071,,,2023-11-10,清算の結了等,,,2015-10-05,1,,,,,ソネ,0
174,1100002028714,登記記録の閉鎖等,0,2023-11-13,2023-11-02,有限会社日本フードビジネスサービス,,有限会社,長野県,諏訪市,南町８番地２,,20,206,3920014,,,2023-11-02,清算の結了等,,,2015-10-05,1,,,,,ニホンフードビジネスサービス,0
177,1120001010778,登記記録の閉鎖等,0,2023-11-13,2023-11-09,株式会社林商会,,株式会社,大阪府,大阪市東住吉区,山坂４丁目９番１０号,,27,121,5460035,,,2023-11-09,清算の結了等,,,2015-10-05,1,,,,,ハヤシショウカイ,0
179,1120001067372,登記記録の閉鎖等,0,2023-11-13,2023-11-09,デカトロンジャパン株式会社,,株式会社,大阪府,大阪市北区,堂島１丁目６－２０堂島アバンザ６階ＣＣＩＦＪ内,,27,127,5300003,,,2023-11-09,清算の結了等,,,2015-10-05,1,,,,,デカトロンジャパン,0
180,1120001107723,登記記録の閉鎖等,0,2023-11-13,2023-11-09,株式会社アスティルデザイン,,株式会社,大阪府,大阪市北区,松ケ枝町７番１４号サンクレスト南森町,,27,127,5300037,,,2023-11-09,清算の結了等,,,2015-10-05,1,,,,,アスティルデザイン,0
187,1120001258566,登記記録の閉鎖等,0,2023-11-13,2023-11-02,株式会社地所産業,,株式会社,大阪府,枚方市,中宮西之町１番６２号,,27,210,5730021,,,2023-11-02,清算の結了等,,,2023-10-03,1,,,,,クニドコロサンギョウ,0
191,1120002033778,登記記録の閉鎖等,0,2023-11-13,2023-11-09,有限会社よねまる,,有限会社,大阪府,大阪市北区,西天満１丁目８番９－３５０２号,,27,127,5300047,,,2023-11-09,合併による解散等,6010403005903,令和５年１１月１日東京都港区虎ノ門四丁目１番３４－３９０５号虎ノ門企画合同会社（6010403005903）に合併し解散,2015-10-05,1,,,,,,0
203,1122001025269,登記記録の閉鎖等,0,2023-11-13,2023-11-09,土方電工株式会社,,株式会社,大阪府,東大阪市,小阪２丁目６番３５号,,27,227,5770801,,,2023-11-09,清算の結了等,,,2015-10-05,1,,,,,,0
216,1140001081636,登記記録の閉鎖等,0,2023-11-13,2023-11-08,フジトップ株式会社,,株式会社,兵庫県,宝塚市,星の荘２４番２６号,,28,214,6650866,,,2023-11-08,清算の結了等,,,2015-10-05,1,,,,,フジトップ,0
224,1140003006863,登記記録の閉鎖等,0,2023-11-13,2023-11-08,ＳＫＭ合同会社,,合同会社,兵庫県,尼崎市,大庄中通３丁目１３番地,,28,202,6600075,,,2023-11-08,清算の結了等,,,2015-10-05,1,,,,,エスケーエム,0
228,1160001010881,登記記録の閉鎖等,0,2023-11-13,2023-11-10,西勝酒造株式会社,,株式会社,滋賀県,近江八幡市,仲屋町中６番地,,25,204,5230862,,,2023-11-10,清算の結了等,,,2015-10-05,1,,,,,ニシカツシュゾウ,0
242,1190001020713,登記記録の閉鎖等,0,2023-11-13,2023-11-09,株式会社Ｇｒｅｅｎ　Ｐｌａｎ,,株式会社,三重県,四日市市,富州原町１番１２号,,24,202,5108016,,,2023-11-09,清算の結了等,,,2015-10-05,1,,,,,グリーンプラン,0
243,1200002004358,登記記録の閉鎖等,0,2023-11-13,2023-11-10,有限会社マダム・サンアイ,,有限会社,岐阜県,岐阜市,問屋町東二丁目２番地,,21,201,5000000,,,2023-11-10,清算の結了等,,,2015-10-05,1,,,,,マダムサンアイ,0
247,1210001008763,登記記録の閉鎖等,0,2023-11-13,2023-10-31,株式会社アール,,株式会社,福井県,丹生郡越前町,気比庄第６３号４５番地１,,18,423,9160133,,,2023-10-31,清算の結了等,,,2015-10-05,1,,,,,アール,0
249,1220002010908,登記記録の閉鎖等,0,2023-11-13,2023-11-07,有限会社デージー,,有限会社,石川県,小松市,上八里町ニ３４７番地２,,17,203,9230051,,,2023-11-07,清算の結了等,,,2015-10-05,1,,,,,,0
251,1220002011559,登記記録の閉鎖等,0,2023-11-13,2023-11-08,有限会社ヤマシタ鋼機,,有限会社,石川県,能美市,佐野町子５５番地１,,17,211,9231112,,,2023-11-08,清算の結了等,,,2015-10-05,1,,,,,,0
252,1230003000295,登記記録の閉鎖等,0,2023-11-13,2023-11-10,押出技術研究所合同会社,,合同会社,富山県,富山市,豊若町１丁目１０番２１号,,16,201,9318305,,,2023-11-10,清算の結了等,,,2015-10-05,1,,,,,オシダシギジュツケンキュウショ,0
255,1240001041019,登記記録の閉鎖等,0,2023-11-13,2023-11-08,クロセ保険サービス株式会社,,株式会社,広島県,東広島市,黒瀬町楢原９３７番地８,00000615,34,212,7392613,,,2023-11-08,清算の結了等,,,2015-10-05,1,,,,,クロセホケンサービス,0
261,1250001019518,登記記録の閉鎖等,0,2023-11-13,2023-11-01,株式会社創友,,株式会社,山口県,宇部市,大字西岐波１１７３番地１７１,,35,202,7550151,,,2023-11-01,合併による解散等,3250001018419,令和５年１１月１日山口県宇部市大字西岐波１１７３番地１７１株式会社ＰＲＩＸ商事（3250001018419）に合併し解散,2022-04-21,1,,,,,ソウユウ,0
289,1300002008183,登記記録の閉鎖等,0,2023-11-13,2023-11-08,有限会社山口木工所,,有限会社,佐賀県,伊万里市,二里町八谷搦１９１番地５,,41,205,8480031,,,2023-11-08,清算の結了等,,,2015-10-05,1,,,,,ヤマグチモッコウショ,0
295,1330003005276,登記記録の閉鎖等,0,2023-11-13,2023-11-06,合同会社ゼロ,,合同会社,熊本県,熊本市東区,東京塚町１８番５４号,,43,102,8620923,,,2023-11-06,清算の結了等,,,2015-10-05,1,,,,,ゼロ,0
298,1350002014490,登記記録の閉鎖等,0,2023-11-13,2023-11-01,有限会社ティー・アール・ワイ,,有限会社,宮崎県,都城市,姫城町１４街区２６号,,45,202,8850073,,,2023-11-01,合併による解散等,8350001011433,令和５年１１月１日宮崎県都城市菓子野町１０２９８番地１株式会社フォーユー（8350001011433）に合併し解散,2015-10-05,1,,,,,ティーアールワイ,0
300,1350003001629,登記記録の閉鎖等,0,2023-11-13,2023-11-02,合名会社小玉船具店,,合名会社,宮崎県,日南市,油津２丁目９番１０号,,45,204,8870001,,,2023-11-02,清算の結了等,,,2015-10-05,1,,,,,コダマツリグテン,0
317,1400605000691,登記記録の閉鎖等,0,2023-11-13,2023-10-23,特定非営利活動法人前沢いきいきスポーツクラブ,,その他の設立登記法人,岩手県,奥州市,前沢白山字繁長２８番地１,,03,215,0294202,,,2023-10-23,清算の結了等,,,2015-10-05,1,,,,,マエサワイキイキスポーツクラブ,0
327,1480002011698,登記記録の閉鎖等,0,2023-11-13,2023-11-10,有限会社森水道設備,,有限会社,徳島県,板野郡藍住町,矢上字江ノ口４２番地,,36,403,7711253,,,2023-11-10,清算の結了等,,,2015-10-05,1,,,,,モリスイドウセツビ,0
329,1490002010419,登記記録の閉鎖等,0,2023-11-13,2023-11-10,有限会社金田包材店,,有限会社,高知県,須崎市,池ノ内１０５６番地４,,39,206,7850021,,,2023-11-10,清算の結了等,,,2015-10-05,1,,,,,カネダホウザイテン,0
331,1500002019193,登記記録の閉鎖等,0,2023-11-13,2023-11-10,有限会社今治いすゞマリン,,有限会社,愛媛県,今治市,南高下町２丁目２番３６号,,38,202,7940811,,,2023-11-10,清算の結了等,,,2015-10-05,1,,,,,,0
363,2010603009583,登記記録の閉鎖等,0,2023-11-13,2023-11-07,合同会社梅田テクノロジー,,合同会社,東京都,江東区,豊洲４丁目７－６－１００２室,,13,108,1350061,,,2023-11-07,清算の結了等,,,2022-06-10,1,,,,,ウメダテクノロジー,0
382,2011001094796,登記記録の閉鎖等,0,2023-11-13,2023-11-01,ＰＸ０１株式会社,,株式会社,東京都,渋谷区,神宮前２丁目３３番１６号６０１,,13,113,1500001,,,2023-11-01,合併による解散等,7011001091319,令和５年１０月３１日東京都渋谷区神宮前二丁目３３番１６号６０１株式会社イエロージャム（7011001091319）に合併し解散,2015-10-05,1,,,,,ピーエックスゼロワン,0
413,2011401013728,登記記録の閉鎖等,0,2023-11-13,2023-10-31,リ・クリエイトエンジニアリング株式会社,,株式会社,東京都,板橋区,常盤台３丁目９番１２号,,13,119,1740071,,,2023-10-31,清算の結了等,,,2015-10-05,1,,,,,,0
419,2011502002035,登記記録の閉鎖等,0,2023-11-13,2023-11-02,有限会社ゴーインターナショナル,,有限会社,東京都,北区,西が丘１丁目２５番７号,,13,117,1150056,,,2023-11-02,清算の結了等,,,2015-10-05,1,,,,,ゴーインターナショナル,0
420,2011502007934,登記記録の閉鎖等,0,2023-11-13,2023-11-09,有限会社喜久屋,00055895,有限会社,東京都,荒川区,南千住３丁目５番１８号,,13,118,1160003,,,2023-11-09,清算の結了等,,,2015-10-05,1,,,,,キクヤ,0
428,2012801002881,登記記録の閉鎖等,0,2023-11-13,2023-10-31,株式会社狭山観光サービス,,株式会社,東京都,武蔵村山市,中藤１丁目５４番地の２,,13,223,2080001,,,2023-10-31,清算の結了等,,,2015-10-05,1,,,,,サヤマカンコウサービス,0
433,2020001053332,登記記録の閉鎖等,0,2023-11-13,2023-11-02,新緑商事株式会社,,株式会社,神奈川県,横浜市鶴見区,北寺尾３丁目７番１６号,,14,101,2300074,,,2023-11-02,清算の結了等,,,2015-10-05,1,,,,,シンリョクショウジ,0
449,2020002083824,登記記録の閉鎖等,0,2023-11-13,2023-11-06,有限会社庄司商店,,有限会社,神奈川県,川崎市中原区,上小田中６丁目５０番１号,,14,133,2110053,,,2023-11-06,清算の結了等,,,2015-10-05,1,,,,,ショウジショウテン,0
451,2021001002816,登記記録の閉鎖等,0,2023-11-13,2023-11-09,株式会社エイ・ティデザイン,,株式会社,神奈川県,伊勢原市,高森台２丁目７番６号,,14,214,2591115,,,2023-11-09,清算の結了等,,,2015-10-05,1,,,,,エイティデザイン,0
457,2021002015370,登記記録の閉鎖等,0,2023-11-13,2023-11-09,有限会社はせがわ,,有限会社,神奈川県,鎌倉市,山崎７１０番地,,14,204,2470066,,,2023-11-09,清算の結了等,,,2015-10-05,1,,,,,ハセガワ,0
468,2030002038521,登記記録の閉鎖等,0,2023-11-13,2023-11-02,栄進工業有限会社,,有限会社,埼玉県,白岡市,西６丁目８番６,,11,246,3490205,,,2023-11-02,清算の結了等,,,2015-10-05,1,,,,,エイシンコウギョウ,0
469,2030002046838,登記記録の閉鎖等,0,2023-11-13,2023-11-06,有限会社久保田製作所,,有限会社,埼玉県,八潮市,大字木曽根１２１７番地３,,11,234,3400813,,,2023-11-06,清算の結了等,,,2015-10-05,1,,,,,クボタセイサクショ,0
484,2040001086941,登記記録の閉鎖等,0,2023-11-13,2023-11-02,株式会社横河建工,,株式会社,千葉県,袖ケ浦市,南袖１１番地,,12,229,2990268,,,2023-11-02,清算の結了等,,,2015-10-05,1,,,,,ヨコガワケンコウ,0
488,2040001093062,登記記録の閉鎖等,0,2023-11-13,2023-11-06,株式会社ＹＵメディカルサービス,,株式会社,千葉県,四街道市,中央４番地１プラーサ・ヴェール２０５号,,12,228,2840009,,,2023-11-06,清算の結了等,,,2015-12-01,1,,,,,,0
497,2050002016946,登記記録の閉鎖等,0,2023-11-13,2023-11-01,有限会社鯨井会計,,有限会社,茨城県,下妻市,下妻丁１３１番地,,08,210,3040068,,,2023-11-01,合併による解散等,9050002016832,令和５年１１月１日茨城県下妻市下妻丁１３２番地株式会社イゲタ商事（9050002016832）に合併し解散,2015-10-05,1,,,,,クジライカイケイ,0
502,2080002005153,登記記録の閉鎖等,0,2023-11-13,2023-11-10,有限会社フレンド工芸,,有限会社,静岡県,静岡市葵区,瀬名中央３丁目２８番４１号,,22,101,4200916,,,2023-11-10,清算の結了等,,,2015-10-05,1,,,,,フレンドコウゲイ,0
503,2080005004862,登記記録の閉鎖等,0,2023-11-13,2023-11-07,特定非営利活動法人こころ,,その他の設立登記法人,静岡県,島田市,島５８１番地の１４,,22,209,4280007,,,2023-11-07,清算の結了等,,,2015-10-05,1,,,,,ココロ,0
512,2110001020736,登記記録の閉鎖等,0,2023-11-13,2023-11-08,株式会社星野,,株式会社,新潟県,上越市,中央１丁目２７番１１号,,15,222,9420001,,,2023-11-08,清算の結了等,,,2015-10-05,1,,,,,ホシノ,0
514,2110002025032,登記記録の閉鎖等,0,2023-11-13,2023-11-07,有限会社吉原塗装店,,有限会社,新潟県,妙高市,工団町３番２５号,,15,217,9440020,,,2023-11-07,清算の結了等,,,2015-10-05,1,,,,,ヨシハラトソウテン,0
516,2110003002674,登記記録の閉鎖等,0,2023-11-13,2023-11-06,合同会社ＰＲＯＭＡＴＥ　ＣＲＥＡＴＩＯＮ,,合同会社,東京都,品川区,西五反田８丁目２番１２号フラッツ増沢７Ａ,,13,109,1410031,,,2023-11-06,清算の結了等,,,2015-10-05,1,,,,,プロメイトクリエイション,0
518,2120001020371,登記記録の閉鎖等,0,2023-11-13,2023-11-07,重吉造機株式会社,,株式会社,大阪府,大阪市平野区,加美東６丁目１番２４号,,27,126,5470002,,,2023-11-07,清算の結了等,,,2015-10-05,1,,,,,シゲヨシゾウキ,0
522,2120001150904,登記記録の閉鎖等,0,2023-11-13,2023-10-10,株式会社友栄,,株式会社,大阪府,枚方市,春日野１丁目１番４８号,,27,210,5730131,,,2023-10-10,合併による解散等,7120001081797,令和５年１０月１日大阪市中央区瓦町三丁目３番１０号ニッケ商事株式会社（7120001081797）に合併し解散,2015-10-05,1,,,,,ユウエイ,0
530,2130001000496,登記記録の閉鎖等,0,2023-11-13,2023-10-31,株式会社河光石油,,株式会社,京都府,京都市右京区,太秦一ノ井町３５番地,,26,108,6168107,,,2023-10-31,清算の結了等,,,2015-10-05,1,,,,,カワミツセキユ,0
556,2180001107551,登記記録の閉鎖等,0,2023-11-13,2023-11-08,株式会社ティーアールシー,,株式会社,愛知県,名古屋市北区,五反田町４２番地１,,23,103,4620011,,,2023-11-08,清算の結了等,,,2015-10-05,1,,,,,ティーアールシー,0
560,2180001128795,登記記録の閉鎖等,0,2023-11-13,2023-11-08,株式会社いろは,,株式会社,愛知県,小牧市,大字大草字年上坂６３７９番３,,23,219,4850802,,,2023-11-08,清算の結了等,,,2017-07-28,1,,,,,イロハ,0
561,2180001139256,登記記録の閉鎖等,0,2023-11-13,2023-11-07,株式会社Ｂ．ｐｏｔ,,株式会社,愛知県,名古屋市瑞穂区,弥富通一丁目３８番地の２,,23,108,4670000,,,2023-11-07,清算の結了等,,,2019-12-16,1,,,,,ビーポット,0
567,2180302002220,登記記録の閉鎖等,0,2023-11-13,2023-11-02,有限会社ほんだ電気管理事務所,,有限会社,愛知県,岡崎市,福岡町字東市仲６番地５,,23,202,4440825,,,2023-11-02,清算の結了等,,,2015-10-05,1,,,,,ホンダデンキカンリジムショ,0
569,2190001023814,登記記録の閉鎖等,0,2023-11-13,2023-11-09,株式会社アサヒカワカミ,,株式会社,三重県,松阪市,石津町１９２番地１ヴェルメゾン３０６,,24,204,5150006,,,2023-11-09,清算の結了等,,,2016-07-06,1,,,,,アサヒカワカミ,0
587,2240002036710,登記記録の閉鎖等,0,2023-11-13,2023-11-07,有限会社テクストン,,有限会社,広島県,廿日市市,阿品台北６番１１号,,34,213,7380051,,,2023-11-07,清算の結了等,,,2015-10-05,1,,,,,テクストン,0
591,2260002029662,登記記録の閉鎖等,0,2023-11-13,2023-11-08,有限会社山本杏林,,有限会社,岡山県,津山市,南新座３１番地,,33,203,7080036,,,2023-11-08,清算の結了等,,,2015-10-05,1,,,,,ヤマモトキョウリン,0
592,2260003001991,登記記録の閉鎖等,0,2023-11-13,2023-11-06,合同会社のへデザイン,,合同会社,大阪府,大阪市都島区,内代町２丁目７番３８号,,27,102,5340013,,,2023-11-06,清算の結了等,,,2016-04-28,1,,,,,ノヘデザイン,0
596,2290001009126,登記記録の閉鎖等,0,2023-11-13,2023-10-30,株式会社ＪＲ九州トランドール,,株式会社,福岡県,福岡市博多区,博多駅前３丁目２５番２１号,,40,132,8120011,,,2023-10-30,清算の結了等,,,2015-10-05,1,,,,,ジェイアールキュウシュウトランドール,0
611,2310002010492,登記記録の閉鎖等,0,2023-11-13,2023-11-09,有限会社節,,有限会社,長崎県,佐世保市,瀬戸越４丁目９番１７号,,42,202,8570134,,,2023-11-09,清算の結了等,,,2015-10-05,1,,,,,セツ,0
651,3010003017780,登記記録の閉鎖等,0,2023-11-13,2023-11-06,株式会社プリズム,,株式会社,東京都,中央区,東日本橋３丁目６番１６号,,13,102,1030004,,,2023-11-06,清算の結了等,,,2015-10-05,1,,,,,プリズム,0
654,3010005023083,登記記録の閉鎖等,0,2023-11-13,2023-11-01,ケネディクス商業リート投資法人,,その他の設立登記法人,東京都,千代田区,内幸町２丁目１番６号,,13,101,1000011,,,2023-11-01,合併による解散等,3010405006092,令和５年１１月１日東京都千代田区内幸町二丁目１番６号ＫＤＸ不動産投資法人（3010405006092）に合併し解散,2015-10-05,1,,,,,ケネディクスショウギョウリート,0
669,3010601007737,登記記録の閉鎖等,0,2023-11-13,2023-11-06,轟電気通信株式会社,,株式会社,東京都,北区,赤羽北２丁目２２番１０－１２１７号,,13,117,1150052,,,2023-11-06,清算の結了等,,,2015-10-05,1,,,,,トドロキデンキツウシン,0
670,3010603009582,登記記録の閉鎖等,0,2023-11-13,2023-11-07,合同会社横田テクノロジー,,合同会社,東京都,江東区,豊洲４丁目７－６－１００２室,,13,108,1350061,,,2023-11-07,清算の結了等,,,2022-06-10,1,,,,,ヨコタテクノロジー,0
672,3010701039837,登記記録の閉鎖等,0,2023-11-13,2023-11-07,ゼイム株式会社,,株式会社,鹿児島県,熊毛郡屋久島町,宮之浦２４６７番地１２,,46,505,8914205,,,2023-11-07,合併による解散等,6010001143849,令和５年９月２８日東京都港区南青山二丁目１３番１１号マストライフ南青山ビル３階株式会社六六（6010001143849）に合併し解散,2020-09-16,1,,,,,ゼイム,0
679,3011001111641,登記記録の閉鎖等,0,2023-11-13,2023-11-08,株式会社ティンク,,株式会社,東京都,港区,浜松町２丁目２番１５号浜松町ダイヤビル２階,,13,103,1050013,,,2023-11-08,清算の結了等,,,2016-06-29,1,,,,,ティンク,0
685,3011101022887,登記記録の閉鎖等,0,2023-11-13,2023-11-09,株式会社レゾン,,株式会社,東京都,新宿区,大久保２丁目２９番１２号,,13,104,1690072,,,2023-11-09,清算の結了等,,,2015-10-05,1,,,,,レゾン,0
712,3020002023820,登記記録の閉鎖等,0,2023-11-13,2023-11-06,有限会社サンテック,,有限会社,神奈川県,横浜市保土ケ谷区,権太坂１丁目１０番２２号,,14,106,2400026,,,2023-11-06,清算の結了等,,,2015-10-05,1,,,,,サンテック,0
716,3020003019859,登記記録の閉鎖等,0,2023-11-13,2023-11-07,シュウエイ合同会社,,合同会社,神奈川県,横浜市都筑区,中川３丁目３番１７号,,14,118,2240001,,,2023-11-07,清算の結了等,,,2021-05-26,1,,,,,シュウエイ,0
728,3030001068634,登記記録の閉鎖等,0,2023-11-13,2023-11-06,株式会社クラフト・リンク,,株式会社,埼玉県,川口市,大字東本郷９１８番地,,11,203,3340063,,,2023-11-06,清算の結了等,,,2015-10-05,1,,,,,クラフトリンク,0
729,3030001131540,登記記録の閉鎖等,0,2023-11-13,2023-11-02,株式会社アールリフォーム,,株式会社,埼玉県,本庄市,児玉町下浅見１０２５番地１１,,11,211,3670202,,,2023-11-02,清算の結了等,,,2019-06-21,1,,,,,アールリフォーム,0
742,3040001082568,登記記録の閉鎖等,0,2023-11-13,2023-11-08,ヤマネ株式会社,,株式会社,東京都,新宿区,戸山１丁目１３番１１号,,13,104,1620052,,,2023-11-08,清算の結了等,,,2015-10-05,1,,,,,ヤマネ,0
746,3040002033413,登記記録の閉鎖等,0,2023-11-13,2023-11-06,有限会社かめでん,,有限会社,千葉県,市川市,南大野２丁目３番Ｂ棟３０２号,,12,203,2720804,,,2023-11-06,清算の結了等,,,2015-10-05,1,,,,,カメデン,0
748,3050001013035,登記記録の閉鎖等,0,2023-11-13,2023-11-06,ニュー・ワールド株式会社,,株式会社,茨城県,土浦市,西根西１丁目２番２０号,,08,203,3000848,,,2023-11-06,清算の結了等,,,2015-10-05,1,,,,,ニューワールド,0
757,3070002029573,登記記録の閉鎖等,0,2023-11-13,2023-11-07,有限会社シュート,,有限会社,群馬県,太田市,本町２１番２５号,,10,205,3730057,,,2023-11-07,清算の結了等,,,2015-10-05,1,,,,,シュート,0
761,3080402010693,登記記録の閉鎖等,0,2023-11-13,2023-11-07,有限会社とりい松,,有限会社,静岡県,浜松市中区,泉１丁目３４番７号,,22,131,4338124,,,2023-11-07,清算の結了等,,,2015-10-05,1,,,,,トリイマツ,0
765,3100001030594,登記記録の閉鎖等,0,2023-11-13,2023-11-06,フェニックスワイン株式会社,,株式会社,東京都,千代田区,九段北１丁目１５番１５号,,13,101,1020073,,,2023-11-06,清算の結了等,,,2017-09-06,1,,,,,フェニックスワイン,0
775,3120003023693,登記記録の閉鎖等,0,2023-11-13,2023-11-02,明日美好生活合同会社,,合同会社,大阪府,大阪市西成区,聖天下１丁目９－１１－１０１号,,27,122,5570012,,,2023-11-02,清算の結了等,,,2023-03-27,1,,,,,アスミヨシセイカツ,0
783,3122002016521,登記記録の閉鎖等,0,2023-11-13,2023-11-07,Ｐｏｗｅｒ＆Ｇｒｅｅｎ　Ｃｏｎｓｕｌｔａｎｔ有限会社,,有限会社,大阪府,柏原市,国分本町７丁目８番５号,,27,221,5820021,,,2023-11-07,清算の結了等,,,2015-10-05,1,,,,,パワーアンドグリーンコンサルタント,0
785,3130001027472,登記記録の閉鎖等,0,2023-11-13,2023-11-02,株式会社エコシステム,,株式会社,京都府,京都市下京区,四条通油小路東入傘鉾町４３番地,,26,106,6008494,,,2023-11-02,清算の結了等,,,2015-10-05,1,,,,,エコシステム,0
788,3130002017547,登記記録の閉鎖等,0,2023-11-13,2023-11-02,有限会社村井保険事務所,,有限会社,京都府,京都市中京区,東洞院通御池下る笹屋町４３８－４アブニール御池３０３号,,26,104,6048187,,,2023-11-02,清算の結了等,,,2015-10-05,1,,,,,ムライホケンジムショ,0
791,3140001020872,登記記録の閉鎖等,0,2023-11-13,2023-10-31,株式会社アクア総合建究所,,株式会社,兵庫県,神戸市灘区,高羽町３丁目６番８号,,28,102,6570023,,,2023-10-31,清算の結了等,,,2015-10-05,1,,,,,アクアソウゴウケンキュウショ,0
793,3140001067526,登記記録の閉鎖等,0,2023-11-13,2023-11-08,株式会社Ｇ．Ｄ．Ｃ,,株式会社,兵庫県,神戸市兵庫区,新開地４丁目３番２１－１１０１号,,28,105,6520811,,,2023-11-08,清算の結了等,,,2015-10-05,1,,,,,ジーディーシー,0
797,3140003006382,登記記録の閉鎖等,0,2023-11-13,2023-11-07,合同会社宙桜書館,,合同会社,兵庫県,加古川市,野口町野口２６６番１７,,28,210,6750012,,,2023-11-07,清算の結了等,,,2015-10-05,1,,,,,チュウオウショカン,0
804,3180001080624,登記記録の閉鎖等,0,2023-11-13,2023-11-08,ジェイテック株式会社,,株式会社,愛知県,瀬戸市,みずの坂３丁目１４３番地,,23,204,4890909,,,2023-11-08,清算の結了等,,,2015-10-05,1,,,,,ジェイテック,0
805,3180002028465,登記記録の閉鎖等,0,2023-11-13,2023-11-08,有限会社トキワ,,有限会社,愛知県,名古屋市中村区,中村本町４丁目２番地,,23,105,4530828,,,2023-11-08,清算の結了等,,,2015-10-05,1,,,,,トキワ,0
806,3180002051657,登記記録の閉鎖等,0,2023-11-13,2023-11-08,有限会社石原装建,,有限会社,愛知県,北名古屋市,熊之庄山の前２１番地,,23,234,4810006,,,2023-11-08,清算の結了等,,,2015-10-05,1,,,,,イシハラソウケン,0
808,3180301019792,登記記録の閉鎖等,0,2023-11-13,2023-11-09,株式会社丸工モールド,,株式会社,愛知県,みよし市,三好町西荒田４９番地１,,23,236,4700224,,,2023-11-09,清算の結了等,,,2015-10-05,1,,,,,,0
826,3280002005479,登記記録の閉鎖等,0,2023-11-13,2023-11-08,有限会社松商運輸,,有限会社,島根県,出雲市,乙立町３０５０番地３６,,32,203,6930216,,,2023-11-08,清算の結了等,,,2015-10-05,1,,,,,マツショウウンユ,0
839,3320002004501,登記記録の閉鎖等,0,2023-11-13,2023-11-10,有限会社山井工業,,有限会社,大分県,大分市,高松東３丁目５番２１号今村シャンテ５０２,,44,201,8700916,,,2023-11-10,清算の結了等,,,2015-10-05,1,,,,,ヤマイコウギョウ,0
853,3380002028164,登記記録の閉鎖等,0,2023-11-13,2023-11-08,有限会社大洲タイル,,有限会社,福島県,相馬市,南飯渕字曲渕３３５番地,,07,209,9760026,,,2023-11-08,清算の結了等,,,2015-10-05,1,,,,,オオスタイル,0
856,3390002003315,登記記録の閉鎖等,0,2023-11-13,2023-11-02,有限会社フジデン,,有限会社,山形県,西村山郡朝日町,大字宮宿２３０６番地の１７,,06,323,9901442,,,2023-11-02,清算の結了等,,,2015-10-05,1,,,,,フジデン,0
871,3490002005689,登記記録の閉鎖等,0,2023-11-13,2023-11-06,和光トラベル有限会社,,有限会社,高知県,高知市,幸町１１番４号,,39,201,7800045,,,2023-11-06,清算の結了等,,,2015-10-05,1,,,,,ワコウトラベル,0
873,3500003001719,登記記録の閉鎖等,0,2023-11-13,2023-11-10,合同会社イノベーション,,合同会社,愛媛県,四国中央市,川之江町１９２３番地２,,38,213,7990101,,,2023-11-10,清算の結了等,,,2015-10-05,1,,,,,イノベーション,0
877,4010001113028,登記記録の閉鎖等,0,2023-11-13,2023-11-06,株式会社セカンドアヴェニュー,,株式会社,東京都,中央区,銀座７丁目１０番１０号,,13,102,1040061,,,2023-11-06,合併による解散等,8010001058681,令和５年１１月１日東京都中央区銀座二丁目１４番５号ＴＷＧ銀座イースト３階株式会社むらき（8010001058681）に合併し解散,2015-10-05,1,,,,,セカンドアヴェニュー,0
897,4010401078060,登記記録の閉鎖等,0,2023-11-13,2023-11-07,株式会社中央シティ総合研究所,,株式会社,福岡県,大牟田市,本町４丁目１０番地１,,40,202,8360046,,,2023-11-07,合併による解散等,6010401062946,令和５年１０月３１日東京都港区白金一丁目２番１－Ｅ７０３号株式会社地域経済振興機構（6010401062946）に合併し解散,2015-10-05,1,,,,,,0
908,4010403027180,登記記録の閉鎖等,0,2023-11-13,2023-11-07,いすみ洋上風力発電合同会社,,合同会社,東京都,港区,新橋６丁目１７番２１号住友不動産御成門駅前ビル１０階,,13,103,1050004,,,2023-11-07,清算の結了等,,,2022-03-01,1,,,,,イスミヨウジョウフウリョクハツデン,0
909,4010405010036,登記記録の閉鎖等,0,2023-11-13,2023-11-01,ケネディクス・レジデンシャル・ネクスト投資法人,,その他の設立登記法人,東京都,千代田区,内幸町２丁目１番６号,,13,101,1000011,,,2023-11-01,合併による解散等,3010405006092,令和５年１１月１日東京都千代田区内幸町二丁目１番６号ＫＤＸ不動産投資法人（3010405006092）に合併し解散,2015-10-05,1,,,,,ケネディクスレジデンシャルネクスト,0
914,4010501044037,登記記録の閉鎖等,0,2023-11-13,2023-11-07,株式会社Ｔｈｒｅｅ　Ｌｉｏｎｓ,,株式会社,東京都,港区,芝４丁目７番６号芝ビルディング７０４,,13,103,1080014,,,2023-11-07,清算の結了等,,,2019-04-19,1,,,,,スリーライオンズ,0
940,4011101051472,登記記録の閉鎖等,0,2023-11-13,2023-11-02,株式会社ＩＫＩＴＡ企画,,株式会社,東京都,江東区,有明３丁目７番２６号,,13,108,1350063,,,2023-11-02,清算の結了等,,,2015-10-05,1,,,,,イキタキカク,0
947,4011101085248,登記記録の閉鎖等,0,2023-11-13,2023-11-08,ＳＬＭケミカル株式会社,,株式会社,東京都,新宿区,新宿５丁目１８番２０号ルックハイツ新宿８０３号,,13,104,1600022,,,2023-11-08,清算の結了等,,,2018-08-31,1,,,,,エスエルエムケミカル,0
948,4011105006506,登記記録の閉鎖等,0,2023-11-13,2023-11-09,一般社団法人相続ソムリエ協会,,その他の設立登記法人,東京都,千代田区,平河町１丁目６番１５号ＵＳビル,,13,101,1020093,,,2023-11-09,清算の結了等,,,2015-10-05,1,,,,,ソウゾクソムリエキョウカイ,0
956,4011501028905,登記記録の閉鎖等,0,2023-11-13,2023-11-02,株式会社フタバ興発,,株式会社,東京都,荒川区,東尾久５丁目２４番３号,,13,118,1160012,,,2023-11-02,清算の結了等,,,2023-02-02,1,,,,,フタバコウハツ,0
979,4020001118760,登記記録の閉鎖等,0,2023-11-13,2023-11-08,株式会社ファソ・プロダクション・ジャパン,,株式会社,神奈川県,川崎市高津区,二子１丁目１８番３１号,,14,134,2130002,,,2023-11-08,清算の結了等,,,2016-11-21,1,,,,,ファソプロダクションジャパン,0
988,4020003021789,登記記録の閉鎖等,0,2023-11-13,2023-11-07,合同会社のくたーん,,合同会社,神奈川県,川崎市川崎区,藤崎１丁目１８－１２,,14,131,2100804,,,2023-11-07,清算の結了等,,,2022-05-19,1,,,,,ノクターン,0
1012,4030002093795,登記記録の閉鎖等,0,2023-11-13,2023-11-02,有限会社イシマル設備,,有限会社,埼玉県,入間郡越生町,越生東６丁目４番地１３,,11,327,3500414,,,2023-11-02,清算の結了等,,,2015-10-05,1,,,,,イシマルセツビ,0
1033,4080005004051,登記記録の閉鎖等,0,2023-11-13,2023-11-10,特定非営利活動法人清水ネット,,その他の設立登記法人,静岡県,静岡市清水区,庵原町５８２番地の２４,,22,103,4240114,,,2023-11-10,清算の結了等,,,2015-10-05,1,,,,,シミズネット,0
1038,4100001008516,登記記録の閉鎖等,0,2023-11-13,2023-11-01,株式会社大成不動産,,株式会社,長野県,小諸市,大字森山１８４番地３,,20,208,3840085,,,2023-11-01,清算の結了等,,,2015-10-05,1,,,,,タイセイフドウサン,0
1042,4110002015626,登記記録の閉鎖等,0,2023-11-13,2023-11-02,有限会社ヨウハン,,有限会社,新潟県,新発田市,五十公野６９２０番地,,15,206,9570021,,,2023-11-02,清算の結了等,,,2015-10-05,1,,,,,ヨウハン,0
1043,4110002033314,登記記録の閉鎖等,0,2023-11-13,2023-11-08,有限会社宮田織物工場,,有限会社,新潟県,南魚沼市,塩沢２６８番地３,,15,226,9496408,,,2023-11-08,清算の結了等,,,2015-10-05,1,,,,,ミヤタオリモノコウジョウ,0
1044,4110003000734,登記記録の閉鎖等,0,2023-11-13,2023-11-08,合資会社沢田屋商店,,合資会社,新潟県,五泉市,村松甲２２５４番地,,15,218,9591704,,,2023-11-08,清算の結了等,,,2015-10-05,1,,,,,サワダヤショウテン,0
1079,4180001050626,登記記録の閉鎖等,0,2023-11-13,2023-11-02,株式会社メアリーローズ,,株式会社,愛知県,名古屋市東区,泉２丁目２８番２４号,,23,102,4610001,,,2023-11-02,清算の結了等,,,2015-10-05,1,,,,,メアリーローズ,0
1087,4180003013382,登記記録の閉鎖等,0,2023-11-13,2023-11-07,合同会社ライフィット,,合同会社,愛知県,東海市,大田町上浜田１１５番地の３,,23,222,4770031,,,2023-11-07,清算の結了等,,,2015-10-05,1,,,,,ライフィット,0
1108,4260005001939,登記記録の閉鎖等,0,2023-11-13,2023-11-08,私鉄中国地方労働組合宇野バス支部,,その他の設立登記法人,岡山県,岡山市北区,表町２丁目３番７１号,,33,101,7000822,,,2023-11-08,清算の結了等,,,2015-10-05,1,,,,,シテツチュウゴクチホウウノバスシブ,0
1127,4350002008416,登記記録の閉鎖等,0,2023-11-13,2023-11-02,有限会社スワ自動車,,有限会社,宮崎県,東諸県郡国富町,大字深年６８０番地３,,45,382,8801224,,,2023-11-02,清算の結了等,,,2015-10-05,1,,,,,スワジドウシャ,0
1139,4410005001725,登記記録の閉鎖等,0,2023-11-13,2023-11-06,特定非営利活動法人通所センター男鹿浜辺の里,,その他の設立登記法人,秋田県,男鹿市,五里合琴川字浜台６５番地,,05,206,0100352,,,2023-11-06,清算の結了等,,,2015-10-05,1,,,,,ツウショセンターオガハマベノサト,0
1143,4430001051986,登記記録の閉鎖等,0,2023-11-13,2023-11-06,株式会社川端組,,株式会社,北海道,岩内郡岩内町,字栄２１０番地の１,,01,402,0450011,,,2023-11-06,清算の結了等,,,2015-10-05,1,,,,,,0
1144,4430002007046,登記記録の閉鎖等,0,2023-11-13,2023-11-06,株式会社ケイ・コーポレーション,,株式会社,北海道,札幌市南区,南沢二条２丁目６番１号,,01,106,0050822,,,2023-11-06,清算の結了等,,,2015-10-05,1,,,,,ケイコーポレーション,0
1148,4440001006790,登記記録の閉鎖等,0,2023-11-13,2023-11-08,株式会社アゼズ,,株式会社,北海道,函館市,柳町９番１８号,,01,202,0400002,,,2023-11-08,清算の結了等,,,2015-10-05,1,,,,,アゼズ,0
1153,4450002004826,登記記録の閉鎖等,0,2023-11-13,2023-11-10,有限会社ホンダウイングアルフア,,有限会社,北海道,旭川市,東光一条３丁目４１４番１９号,,01,204,0788341,,,2023-11-10,清算の結了等,,,2015-10-05,1,,,,,ホンダウイングアルフア,0
1158,5010001152628,登記記録の閉鎖等,0,2023-11-13,2023-11-06,株式会社アルテジオ,,株式会社,千葉県,千葉市美浜区,高浜５丁目２１番３号,,12,106,2610003,,,2023-11-06,清算の結了等,,,2015-10-05,1,,,,,アルテジオ,0
1173,5010403022263,登記記録の閉鎖等,0,2023-11-13,2023-11-07,玄海洋上風力発電合同会社,,合同会社,東京都,港区,新橋６丁目１７番２１号,,13,103,1050004,,,2023-11-07,清算の結了等,,,2020-02-04,1,,,,,ゲンカイヨウジョウフウリョクハツデン,0
1174,5010403022800,登記記録の閉鎖等,0,2023-11-13,2023-11-07,糸島西九州洋上風力発電合同会社,,合同会社,東京都,港区,新橋６丁目１７番２１号,,13,103,1050004,,,2023-11-07,清算の結了等,,,2020-04-09,1,,,,,イトシマニシキュウシュウヨウジョウフウリョクハツデン,0
1175,5010403023146,登記記録の閉鎖等,0,2023-11-13,2023-11-07,南九州川辺陸上風力発電合同会社,,合同会社,東京都,港区,新橋６丁目１７番２１号住友不動産御成門駅前ビル１０階,,13,103,1050004,,,2023-11-07,清算の結了等,,,2020-06-16,1,,,,,ミナミキュウシュウカワナベリクジョウフウリョクハツデン,0
1178,5010603006017,登記記録の閉鎖等,0,2023-11-13,2023-11-06,リンクウッド合同会社,,合同会社,東京都,中央区,銀座７丁目１３番６号サガミビル２階,,13,102,1040061,,,2023-11-06,清算の結了等,,,2015-10-05,1,,,,,リンクウッド,0
1224,5011702001825,登記記録の閉鎖等,0,2023-11-13,2023-11-07,有限会社エス・ケー・ケー,,有限会社,東京都,江東区,白河１丁目２番１０－１２０２号,,13,108,1350021,,,2023-11-07,清算の結了等,,,2015-10-05,1,,,,,エスケーケー,0
1226,5011801009521,登記記録の閉鎖等,0,2023-11-13,2023-11-07,株式会社タケキン,,株式会社,東京都,荒川区,南千住６丁目３７番９－３００２号,,13,118,1160003,,,2023-11-07,清算の結了等,,,2015-10-05,1,,,,,タケキン,0
1243,5020002033215,登記記録の閉鎖等,0,2023-11-13,2023-11-07,有限会社協栄社,,有限会社,神奈川県,横浜市都筑区,北山田６丁目２５番９号,,14,118,2240021,,,2023-11-07,清算の結了等,,,2015-10-05,1,,,,,キョウエイシャ,0
1249,5020003021210,登記記録の閉鎖等,0,2023-11-13,2023-11-07,合同会社ＡＱＵＡ,,合同会社,神奈川県,横浜市旭区,今宿町２６５８番地４３,,14,112,2410813,,,2023-11-07,清算の結了等,,,2022-01-28,1,,,,,アクア,0
1259,5021002001500,登記記録の閉鎖等,0,2023-11-13,2023-11-06,有限会社共同電子工業,,有限会社,神奈川県,藤沢市,遠藤２０１４番地の１２,,14,205,2520816,,,2023-11-06,清算の結了等,,,2015-10-05,1,,,,,キョウドウデンシコウギョウ,0
1270,5030005014748,登記記録の閉鎖等,0,2023-11-13,2023-10-31,医療法人基会,,その他の設立登記法人,埼玉県,日高市,大字田波目１番地,,11,242,3501201,,,2023-10-31,清算の結了等,,,2015-10-05,1,,,,,モトイカイ,0
1287,5060002001787,登記記録の閉鎖等,0,2023-11-13,2023-11-08,有限会社栄光カバン製作所,,有限会社,栃木県,宇都宮市,東峰町３０９２番地１３,,09,201,3210944,,,2023-11-08,合併による解散等,3060001004289,令和５年１１月４日栃木県宇都宮市問屋町３４２６番地５６株式会社三星（3060001004289）に合併し解散,2015-10-05,1,,,,,エイコウカバンセイサクジョ,0
1288,5060002006027,登記記録の閉鎖等,0,2023-11-13,2023-11-09,有限会社中條モータース商会,,有限会社,栃木県,宇都宮市,千波町１６番６号,,09,201,3200022,,,2023-11-09,清算の結了等,,,2015-10-05,1,,,,,チュウジョウモータースショウカイ,0
1289,5060002033707,登記記録の閉鎖等,0,2023-11-13,2023-11-08,有限会社山一産業,,有限会社,栃木県,栃木市,藤岡町甲１６６１番地,,09,203,3231105,,,2023-11-08,清算の結了等,,,2015-10-05,1,,,,,ヤマイチサンギョウ,0
1290,5060002040026,登記記録の閉鎖等,0,2023-11-13,2023-11-08,有限会社加藤材木店,,有限会社,栃木県,佐野市,鉢木町１７番１１号,,09,204,3270508,,,2023-11-08,清算の結了等,,,2015-10-05,1,,,,,カトウザイモクテン,0
1295,5100001027069,登記記録の閉鎖等,0,2023-11-13,2023-11-02,株式会社ワイドフライ・ジャパン,,株式会社,長野県,茅野市,玉川１１０５３番地４,,20,214,3910011,,,2023-11-02,清算の結了等,,,2015-10-05,1,,,,,ワイドフライジャパン,0
1316,5120105005794,登記記録の閉鎖等,0,2023-11-13,2023-11-08,学校法人願月学園,,その他の設立登記法人,大阪府,貝塚市,清児１０６９番地,,27,208,5970041,,,2023-11-08,清算の結了等,,,2015-10-05,1,,,,,ガンゲツガクエン,0
1319,5120901032430,登記記録の閉鎖等,0,2023-11-13,2023-11-06,株式会社朝日電業,,株式会社,大阪府,高槻市,川西町３丁目１１番６号,,27,207,5691133,,,2023-11-06,清算の結了等,,,2015-10-05,1,,,,,アサヒデンギョウ,0
1326,5130001009386,登記記録の閉鎖等,0,2023-11-13,2023-11-01,セイトク社株式会社,,株式会社,京都府,京都市東山区,五条橋東６丁目５４１番地,,26,105,6050846,,,2023-11-01,清算の結了等,,,2015-10-05,1,,,,,セイトクシャ,0
1340,5150001021455,登記記録の閉鎖等,0,2023-11-13,2023-11-10,株式会社ＥＩＰ,,株式会社,奈良県,磯城郡川西町,大字結崎３９２番地の４８,,29,361,6360202,,,2023-11-10,清算の結了等,,,2017-04-27,1,,,,,イーアイピー,0
1343,5180002008309,登記記録の閉鎖等,0,2023-11-13,2023-11-09,有限会社高岡装飾,,有限会社,愛知県,名古屋市緑区,桃山２丁目１１１番地の２,,23,114,4580002,,,2023-11-09,清算の結了等,,,2015-10-05,1,,,,,タカオカソウショク,0
1369,5290001096748,登記記録の閉鎖等,0,2023-11-13,2023-10-30,豊琳株式会社,,株式会社,福岡県,福岡市博多区,博多駅中央街８番１号,,40,132,8120012,,,2023-10-30,清算の結了等,,,2022-03-14,1,,,,,ホウリン,0
1374,5290003013676,登記記録の閉鎖等,0,2023-11-13,2023-10-31,ＬＩＮＫＤ　ＴＯＵＲＩＳＭ合同会社,,合同会社,福岡県,福岡市早良区,小田部７丁目２２番１５－１０１号グレートリバー１２,,40,137,8140032,,,2023-10-31,清算の結了等,,,2023-03-17,1,,,,,,0
1383,5330002001009,登記記録の閉鎖等,0,2023-11-13,2023-11-06,有限会社岩本室内,,有限会社,熊本県,熊本市南区,十禅寺２丁目１４番７号,,43,104,8600824,,,2023-11-06,清算の結了等,,,2015-10-05,1,,,,,イワモトシツナイ,0
1407,5450001008042,登記記録の閉鎖等,0,2023-11-13,2023-11-08,株式会社オツクス,,株式会社,北海道,稚内市,緑６丁目４１番２号,,01,214,0970004,,,2023-11-08,清算の結了等,,,2015-10-05,1,,,,,オツクス,0
1430,6010003034831,登記記録の閉鎖等,0,2023-11-13,2023-11-06,Ｃｅｒａｇｏｎ　Ｎｅｔｗｏｒｋｓ　Ｊａｐａｎ合同会社,,合同会社,東京都,中央区,日本橋３丁目９番１号日本橋三丁目スクエア１１階,,13,102,1030027,,,2023-11-06,清算の結了等,,,2021-05-18,1,,,,,セラゴンネットワークスジャパン,0
1432,6010003041448,登記記録の閉鎖等,0,2023-11-13,2023-11-07,ソーラーアイビー合同会社,,合同会社,東京都,中央区,八丁堀４丁目２番１０号ＡＯＪ税理士法人内,,13,102,1040032,,,2023-11-07,合併による解散等,3010001190191,令和５年１０月３０日東京都港区東新橋一丁目５番２号汐留シティセンター８階リアルブルーソーラー合同会社内株式会社あさかぜ開発（3010001190191）に合併し解散,2023-08-23,1,,,,,,0
1434,6010005027148,登記記録の閉鎖等,0,2023-11-13,2023-10-02,特定非営利活動法人Ｇｒａｓｓｒｏｏｔｓ　Ｊａｐａｎ,,その他の設立登記法人,埼玉県,秩父郡横瀬町,大字横瀬３６３０,,11,361,3680072,,,2023-10-02,清算の結了等,,,2017-07-25,1,,,,,グラスルーツジャパン,0
1442,6010403022799,登記記録の閉鎖等,0,2023-11-13,2023-11-07,糸島北佐賀洋上風力発電合同会社,,合同会社,東京都,港区,新橋６丁目１７番２１号,,13,103,1050004,,,2023-11-07,清算の結了等,,,2020-04-09,1,,,,,イトシマキタサガヨウジョウフウリョクハツデン,0
1448,6010602033894,登記記録の閉鎖等,0,2023-11-13,2023-11-07,有限会社協立,,有限会社,東京都,墨田区,立花３丁目８番６号,,13,107,1310043,,,2023-11-07,清算の結了等,,,2015-10-05,1,,,,,キョウリツ,0
1459,6011002007381,登記記録の閉鎖等,0,2023-11-13,2023-11-01,有限会社竹村水道工業所,,有限会社,神奈川県,川崎市幸区,戸手４丁目８番１０－３０１号,,14,132,2120005,,,2023-11-01,清算の結了等,,,2015-10-05,1,,,,,タケムラスイドウコウギョウショ,0
1461,6011003010145,登記記録の閉鎖等,0,2023-11-13,2023-11-07,ファイザーＵＰＪ合同会社,,合同会社,東京都,港区,虎ノ門５丁目１１番２号オランダヒルズ森タワー,,13,103,1050001,,,2023-11-07,合併による解散等,8010403012146,令和５年１１月１日東京都港区虎ノ門五丁目１１番２号オランダヒルズ森タワーヴィアトリス・ヘルスケア合同会社（8010403012146）に合併し解散,2019-07-05,1,,,,,ファイザーユーピージェイ,0
1474,6011301015572,登記記録の閉鎖等,0,2023-11-13,2023-10-31,株式会社インサイトイメージ,,株式会社,東京都,杉並区,永福２丁目７番１１号,,13,115,1680064,,,2023-10-31,清算の結了等,,,2015-10-05,1,,,,,インサイトイメージ,0
1487,6011502002469,登記記録の閉鎖等,0,2023-11-13,2023-11-01,有限会社山京,,有限会社,東京都,北区,王子１丁目１９番８号,,13,117,1140002,,,2023-11-01,清算の結了等,,,2015-10-05,1,,,,,サンキョウ,0
1494,6012801021523,登記記録の閉鎖等,0,2023-11-13,2023-11-02,万浩株式会社,,株式会社,東京都,日野市,高幡１００７番地の３クリオ高幡不動駅前８０２,,13,212,1910031,,,2023-11-02,清算の結了等,,,2022-04-21,1,,,,,マヒロ,0
1503,6020001018199,登記記録の閉鎖等,0,2023-11-13,2023-11-07,東南総業株式会社,,株式会社,神奈川県,横浜市鶴見区,生麦５丁目８番８号,,14,101,2300052,,,2023-11-07,清算の結了等,,,2015-10-05,1,,,,,トウナンソウギョウ,0
1504,6020001040649,登記記録の閉鎖等,0,2023-11-13,2023-11-01,株式会社エンゼルホーム,,株式会社,神奈川県,横浜市神奈川区,栄町５番地１横浜クリエーションスクエア１８Ｆ,,14,102,2210052,,,2023-11-01,清算の結了等,,,2015-10-05,1,,,,,エンゼルホーム,0
1517,6020002090189,登記記録の閉鎖等,0,2023-11-13,2023-11-06,有限会社鈴食品,,有限会社,神奈川県,川崎市宮前区,西野川１丁目３０番５号,,14,136,2160044,,,2023-11-06,清算の結了等,,,2015-10-05,1,,,,,スズショクヒン,0
1532,6030001013513,登記記録の閉鎖等,0,2023-11-13,2023-11-06,株式会社ハウスオン,,株式会社,埼玉県,さいたま市大宮区,桜木町２丁目３番地大宮マルイ７階,,11,103,3300854,,,2023-11-06,清算の結了等,,,2015-10-05,1,,,,,ハウスオン,0
1541,6030002024807,登記記録の閉鎖等,0,2023-11-13,2023-11-02,有限会社ドーメキ,,有限会社,埼玉県,戸田市,上戸田２丁目２７番１５号,,11,224,3350022,,,2023-11-02,清算の結了等,,,2015-10-05,1,,,,,ドーメキ,0
1548,6030005015381,登記記録の閉鎖等,0,2023-11-13,2023-11-01,税理士法人ちちぶ,,その他の設立登記法人,埼玉県,秩父市,日野田町１丁目１番２０号,,11,207,3680034,,,2023-11-01,清算の結了等,,,2015-10-05,1,,,,,チチブ,0
1556,6040002070313,登記記録の閉鎖等,0,2023-11-13,2023-11-06,有限会社トリカイ,,有限会社,千葉県,君津市,南子安５丁目６番２３号,,12,225,2991162,,,2023-11-06,清算の結了等,,,2015-10-05,1,,,,,トリカイ,0
1557,6040002081566,登記記録の閉鎖等,0,2023-11-13,2023-11-02,有限会社篠崎商店,00122599,有限会社,千葉県,茂原市,上茂原２２０番地１６,,12,210,2970052,,,2023-11-02,清算の結了等,,,2015-10-05,1,,,,,シノザキショウテン,0
1559,6040003010334,登記記録の閉鎖等,0,2023-11-13,2023-11-06,合同会社アシスト,,合同会社,千葉県,千葉市緑区,おゆみ野１丁目２５番地２－Ｗ３－３２２,,12,105,2660031,,,2023-11-06,清算の結了等,,,2017-07-13,1,,,,,アシスト,0
1575,6080402003422,登記記録の閉鎖等,0,2023-11-13,2023-11-07,有限会社Ｒｉｃｈ　Ｈｉｌｌ　Ｆｏｏｄｓ,,有限会社,静岡県,磐田市,豊岡２８５２番地１,,22,211,4380231,,,2023-11-07,清算の結了等,,,2015-10-05,1,,,,,リッチヒルフーズ,0
1577,6100002008042,登記記録の閉鎖等,0,2023-11-13,2023-11-08,有限会社まゆみだ薬局,,有限会社,長野県,長野市,檀田２丁目１６番７号,,20,201,3810052,,,2023-11-08,合併による解散等,2070001029807,令和５年１１月１日東京都千代田区丸の内一丁目１番１号さくら薬局株式会社（2070001029807）に合併し解散,2015-10-05,1,,,,,マユミダヤッキョク,0
1591,6120901024245,登記記録の閉鎖等,0,2023-11-13,2023-11-07,株式会社杉田製作所,,株式会社,兵庫県,宝塚市,中筋５丁目１３番１５号,,28,214,6650874,,,2023-11-07,清算の結了等,,,2015-10-05,1,,,,,スギタセイサクショ,0
1596,6122002016799,登記記録の閉鎖等,0,2023-11-13,2023-11-06,有限会社アイ,,有限会社,大阪府,八尾市,本町７丁目１０番１１号,,27,212,5810003,,,2023-11-06,清算の結了等,,,2015-10-05,1,,,,,アイ,0
1622,6200001016283,登記記録の閉鎖等,0,2023-11-13,2023-11-10,株式会社野村電化センター,,株式会社,岐阜県,揖斐郡池田町,青柳１３３番地,,21,404,5032423,,,2023-11-10,清算の結了等,,,2015-10-05,1,,,,,ノムラデンカセンター,0
1631,6230003001677,登記記録の閉鎖等,0,2023-11-13,2023-11-08,綾羽合同会社,,合同会社,富山県,富山市,五福３５１０番地,,16,201,9300887,,,2023-11-08,清算の結了等,,,2021-06-07,1,,,,,リョウバ,0
1636,6240005015030,登記記録の閉鎖等,0,2023-11-13,2023-11-02,特定非営利活動法人たまファーム,,その他の設立登記法人,広島県,広島市安芸区,矢野東１丁目４番２－６０３号,,34,107,7360083,,,2023-11-02,清算の結了等,,,2020-06-05,1,,,,,タマファーム,0
1638,6260003000833,登記記録の閉鎖等,0,2023-11-13,2023-11-08,株式会社在宅介護サービスたんぽぽ,,株式会社,岡山県,井原市,下稲木町１２６８番地１,,33,207,7150017,,,2023-11-08,合併による解散等,3010001025868,令和５年１１月１日東京都千代田区神田駿河台四丁目６番地株式会社ニチイ学館（3010001025868）に合併し解散,2015-10-05,1,,,,,ザイタクカイゴサービスタンポポ,0
1663,6340002010742,登記記録の閉鎖等,0,2023-11-13,2023-11-10,有限会社東開・デザイン,,有限会社,鹿児島県,鹿児島市,東開町３番地１５,,46,201,8910115,,,2023-11-10,清算の結了等,,,2015-10-05,1,,,,,トウカイデザイン,0
1674,6390003001926,登記記録の閉鎖等,0,2023-11-13,2023-11-10,合同会社Ｌｕｃｅ,,合同会社,山形県,天童市,久野本３丁目１２番１４－２２２号ブレインくのもとＩＩ,00127491,06,210,9940012,,,2023-11-10,清算の結了等,,,2022-02-16,1,,,,,ルーチェ,0
1721,7010003033089,登記記録の閉鎖等,0,2023-11-13,2023-11-06,Ａ－Ｌｉｎｋ合同会社,,合同会社,東京都,文京区,小石川３丁目２５番８号ブランズ文京小石川レジデンス４０２号,,13,105,1120002,,,2023-11-06,清算の結了等,,,2020-09-24,1,,,,,エーリンク,0
1723,7010102000246,登記記録の閉鎖等,0,2023-11-13,2023-11-10,有限会社秋山設備,,有限会社,東京都,八王子市,大和田町７丁目１番７号,,13,201,1920045,,,2023-11-10,清算の結了等,,,2015-10-05,1,,,,,アキヤマセツビ,0
1731,7010403016627,登記記録の閉鎖等,0,2023-11-13,2023-11-08,株式会社１００４,,株式会社,東京都,千代田区,紀尾井町３番１０号紀尾井町ガーデンタワー２５０４号（Ｃ／Ｏｓｈｉｍａｄａ－ｏｆｆｉｃｅ）,,13,101,1020094,,,2023-11-08,合併による解散等,8010401142944,令和５年１１月１日東京都港区赤坂三丁目１６番５号ＳＫＲ赤坂ビル１Ｆ株式会社Ｎｅｖｅｒ　Ｌｏｓｓ　Ｉｎｖｅｓｔｍｅｎｔ（8010401142944）に合併し解散,2017-05-24,1,,,,,,0
1732,7010403022798,登記記録の閉鎖等,0,2023-11-13,2023-11-07,糸島佐賀洋上風力発電合同会社,,合同会社,東京都,港区,新橋６丁目１７番２１号,,13,103,1050004,,,2023-11-07,清算の結了等,,,2020-04-09,1,,,,,イトシマサガヨウジョウフウリョクハツデン,0
1762,7011202000813,登記記録の閉鎖等,0,2023-11-13,2023-11-08,有限会社梅沢企画,,有限会社,東京都,大田区,大森北１丁目２７番５号２Ｆ,,13,111,1430016,,,2023-11-08,清算の結了等,,,2015-10-05,1,,,,,ウメザワキカク,0
1777,7011801023256,登記記録の閉鎖等,0,2023-11-13,2023-11-09,株式会社テスコ,,株式会社,東京都,足立区,青井６丁目２４番７号,,13,121,1210012,,,2023-11-09,清算の結了等,,,2015-10-05,1,,,,,テスコ,0
1779,7011802016738,登記記録の閉鎖等,0,2023-11-13,2023-11-09,有限会社中野花環店,,有限会社,東京都,足立区,伊興２丁目５番９号,,13,121,1210823,,,2023-11-09,清算の結了等,,,2015-10-05,1,,,,,ナカノハナワテン,0
1781,7012405004114,登記記録の閉鎖等,0,2023-11-13,2023-11-08,一般社団法人ベスト会,,その他の設立登記法人,東京都,武蔵野市,吉祥寺東町１丁目１１番２２号,,13,203,1800002,,,2023-11-08,清算の結了等,,,2017-12-15,1,,,,,ベストカイ,0
1805,7020001119244,登記記録の閉鎖等,0,2023-11-13,2023-11-01,ＩＣＩＮ株式会社,,株式会社,神奈川県,川崎市宮前区,水沢２丁目１７番１０号,,14,136,2160012,,,2023-11-01,合併による解散等,8020001043253,令和５年１１月１日横浜市港北区新横浜二丁目５番地１１カレント自動車株式会社（8020001043253）に合併し解散,2017-01-20,1,,,,,イシン,0
1808,7020001128930,登記記録の閉鎖等,0,2023-11-13,2023-11-01,ネオス株式会社,,株式会社,神奈川県,川崎市高津区,下作延５丁目３番３号上の橋丸定２０１号室,,14,134,2130033,,,2023-11-01,清算の結了等,,,2018-11-30,1,,,,,ネオス,0
1809,7020001146172,登記記録の閉鎖等,0,2023-11-13,2023-11-01,株式会社あんしん青葉,,株式会社,神奈川県,横浜市青葉区,藤が丘２丁目４番地１,,14,117,2270043,,,2023-11-01,清算の結了等,,,2022-04-20,1,,,,,アンシンアオバ,0
1810,7020001151098,登記記録の閉鎖等,0,2023-11-13,2023-10-31,株式会社Ｆａｎｉ,,株式会社,神奈川県,横浜市西区,北幸２丁目１０番地２８むつみビル３Ｆ,,14,103,2200004,,,2023-10-31,清算の結了等,,,2023-04-13,1,,,,,ファニ,0
1817,7020002053087,登記記録の閉鎖等,0,2023-11-13,2023-11-01,有限会社イノウエ工業,,有限会社,神奈川県,横浜市港南区,日野南７丁目９番２８号,,14,111,2340055,,,2023-11-01,清算の結了等,,,2015-10-05,1,,,,,イノウエコウギョウ,0
1820,7020002092770,登記記録の閉鎖等,0,2023-11-13,2023-11-02,有限会社新川崎興業,00011589,有限会社,神奈川県,川崎市多摩区,西生田４丁目３番２０号,,14,135,2140037,,,2023-11-02,清算の結了等,,,2015-10-05,1,,,,,シンカワサキコウギョウ,0
1822,7020002106407,登記記録の閉鎖等,0,2023-11-13,2023-11-02,有限会社橋本製作所,,有限会社,神奈川県,横浜市都筑区,大熊町７９番地４,,14,118,2240042,,,2023-11-02,清算の結了等,,,2015-10-05,1,,,,,ハシモトセイサクショ,0
1851,7040002032824,登記記録の閉鎖等,0,2023-11-13,2023-11-06,有限会社英豊,,有限会社,千葉県,市川市,行徳駅前２丁目８番２号,,12,203,2720133,,,2023-11-06,清算の結了等,,,2015-10-05,1,,,,,エイホウ,0
1856,7050001016273,登記記録の閉鎖等,0,2023-11-13,2023-11-06,株式会社植物ゲノムセンター,,株式会社,茨城県,守谷市,薬師台６丁目３番地２,,08,224,3020105,,,2023-11-06,清算の結了等,,,2015-10-05,1,,,,,ショクブツゲノムセンター,0
1862,7050002000243,登記記録の閉鎖等,0,2023-11-13,2023-11-06,有限会社茨城電柱広告社,,有限会社,茨城県,水戸市,新原１丁目２３番３６号,,08,201,3100045,,,2023-11-06,清算の結了等,,,2015-10-05,1,,,,,イバラキデンチュウコウコクシャ,0
1863,7050002010481,登記記録の閉鎖等,0,2023-11-13,2023-11-02,有限会社ユーズ・インターナショナル・カンパニー,,有限会社,茨城県,笠間市,笠間１９６番地,,08,216,3091611,,,2023-11-02,清算の結了等,,,2015-10-05,1,,,,,ユーズインターナショナルカンパニー,0
1865,7050002021198,登記記録の閉鎖等,0,2023-11-13,2023-11-01,株式会社アップドラフト,,株式会社,茨城県,つくば市,二の宮３丁目７番地５,,08,220,3050051,,,2023-11-01,合併による解散等,9050002016832,令和５年１１月１日茨城県下妻市下妻丁１３２番地株式会社イゲタ商事（9050002016832）に合併し解散,2015-10-05,1,,,,,アップドラフト,0
1867,7060001014359,登記記録の閉鎖等,0,2023-11-13,2023-11-09,株式会社セティアコーポレーション,,株式会社,栃木県,小山市,若木町２丁目１１番５号,,09,208,3230028,,,2023-11-09,清算の結了等,,,2015-10-05,1,,,,,セティアコーポレーション,0
1870,7070001010464,登記記録の閉鎖等,0,2023-11-13,2023-11-07,株式会社山岡商店,,株式会社,群馬県,高崎市,寄合町７番地,,10,202,3700822,,,2023-11-07,清算の結了等,,,2015-10-05,1,,,,,ヤマオカショウテン,0
1872,7070002007393,登記記録の閉鎖等,0,2023-11-13,2023-11-08,有限会社中澤商会,,有限会社,群馬県,前橋市,問屋町２丁目１６番地９,,10,201,3710855,,,2023-11-08,清算の結了等,,,2015-10-05,1,,,,,,0
1907,7130001055742,登記記録の閉鎖等,0,2023-11-13,2023-11-01,株式会社ヘルスケアＦＭ研究所,,株式会社,京都府,京都市右京区,太秦堀ケ内町１１番地,,26,108,6168152,,,2023-11-01,清算の結了等,,,2015-10-05,1,,,,,ヘルスケアエフエムケンキュウジョ,0
1908,7130001069239,登記記録の閉鎖等,0,2023-11-13,2023-10-24,株式会社天豊行,,株式会社,京都府,京都市下京区,櫛笥通丹波口下る裏片町１８８番地２,,26,106,6008822,,,2023-10-24,清算の結了等,,,2021-05-12,1,,,,,テンホウコウ,0
1909,7130001071310,登記記録の閉鎖等,0,2023-11-13,2023-11-06,株式会社秋本,,株式会社,京都府,京都市中京区,東洞院通錦小路上る元竹田町６３９番地１２,,26,104,6048145,,,2023-11-06,清算の結了等,,,2022-03-08,1,,,,,アキモト,0
1916,7150001017542,登記記録の閉鎖等,0,2023-11-13,2023-11-10,株式会社すちべい,,株式会社,奈良県,奈良市,左京３丁目２番地の１２,,29,201,6310801,,,2023-11-10,清算の結了等,,,2015-10-05,1,,,,,スチベイ,0
1933,7180002078325,登記記録の閉鎖等,0,2023-11-13,2023-11-07,ハヤシ塗装有限会社,,有限会社,愛知県,一宮市,蓮池字郷西７０番地の１,,23,203,4940019,,,2023-11-07,清算の結了等,,,2015-10-05,1,,,,,ハヤシトソウ,0
1941,7180302017429,登記記録の閉鎖等,0,2023-11-13,2023-11-02,有限会社ワイングートマルゲン,,有限会社,愛知県,安城市,東栄町１丁目９番５号,,23,212,4460007,,,2023-11-02,清算の結了等,,,2015-10-05,1,,,,,ワイングートマルゲン,0
1943,7180302026140,登記記録の閉鎖等,0,2023-11-13,2023-11-02,有限会社精華金型設計,,有限会社,愛知県,西尾市,新在家町西郷２９番地４,,23,213,4440311,,,2023-11-02,清算の結了等,,,2015-10-05,1,,,,,セイカカナガタセッケイ,0
1947,7200005007410,登記記録の閉鎖等,0,2023-11-13,2023-11-09,学校法人小石学園,,その他の設立登記法人,岐阜県,関市,坂下町１３番地,,21,205,5013888,,,2023-11-09,清算の結了等,,,2015-10-05,1,,,,,コイシガクエン,0
1949,7220001020522,登記記録の閉鎖等,0,2023-11-13,2023-11-09,株式会社リボーンエステート,,株式会社,石川県,金沢市,泉２丁目１番４号,,17,201,9218041,,,2023-11-09,清算の結了等,,,2015-10-05,1,,,,,リボーンエステート,0
1950,7220003002411,登記記録の閉鎖等,0,2023-11-13,2023-11-09,合同会社キッズスペース,,合同会社,石川県,金沢市,松島２丁目２３１番地クレマティースレジデンス松島１０１号室,,17,201,9200364,,,2023-11-09,清算の結了等,,,2018-04-10,1,,,,,キッズスペース,0
1959,7240002039122,登記記録の閉鎖等,0,2023-11-13,2023-11-06,有限会社あかつき,,有限会社,広島県,福山市,三之丸町８番２０号,,34,207,7200066,,,2023-11-06,清算の結了等,,,2015-10-05,1,,,,,アカツキ,0
1973,7290001010483,登記記録の閉鎖等,0,2023-11-13,2023-11-07,株式会社松崎組,,株式会社,福岡県,福岡市中央区,荒戸１丁目２番１４号,,40,133,8100062,,,2023-11-07,合併による解散等,2290002013143,令和５年１１月１日福岡市中央区荒戸一丁目２番１４号株式会社松崎興業（2290002013143）に合併し解散,2015-10-05,1,,,,,マツザキグミ,0
1987,7290801013149,登記記録の閉鎖等,0,2023-11-13,2023-11-13,株式会社ＴＫエステートマネジメント,,株式会社,福岡県,遠賀郡岡垣町,海老津駅南１丁目５番１号ハイツ石田２－Ｃ,,40,383,8114238,,,2023-11-13,清算の結了等,,,2015-10-05,1,,,,,ティケイエステートマネジメント,0
1992,7300002001975,登記記録の閉鎖等,0,2023-11-13,2023-11-09,有限会社リバー,,有限会社,佐賀県,佐賀市,諸富町大字諸富津２３５番地の２,,41,201,8402105,,,2023-11-09,清算の結了等,,,2015-10-05,1,,,,,リバー,0
2003,7350001001336,登記記録の閉鎖等,0,2023-11-13,2023-11-01,株式会社根井工務店,,株式会社,宮崎県,宮崎市,阿波岐原町前浜４２７６番地７６２,,45,201,8800835,,,2023-11-01,合併による解散等,3350001000291,令和５年１１月１日宮崎市大字恒久１８００番地１株式会社岡崎組（3350001000291）に合併し解散,2015-10-05,1,,,,,ネイコウムテン,0
2012,7380002023137,登記記録の閉鎖等,0,2023-11-13,2023-11-07,株式会社東日本エムテック．Ｇ,,株式会社,福島県,いわき市,好間町下好間字一町坪１１６番地の１,,07,204,9701151,,,2023-11-07,清算の結了等,,,2015-10-05,1,,,,,ヒガシニホンエムテックドットジー,0
2023,7430001043089,登記記録の閉鎖等,0,2023-11-13,2023-11-06,株式会社アシスタント,,株式会社,北海道,江別市,工栄町２６番地８,,01,217,0670051,,,2023-11-06,清算の結了等,,,2015-10-05,1,,,,,アシスタント,0
2048,8010003031356,登記記録の閉鎖等,0,2023-11-13,2023-11-08,日本バイオマス・インベストメント株式会社,,株式会社,東京都,千代田区,紀尾井町３番１０号紀尾井町ガーデンタワー２５０４号（Ｃ／Ｏｓｈｉｍａｄａ－ｏｆｆｉｃｅ）,,13,101,1020094,,,2023-11-08,合併による解散等,8010401142944,令和５年１１月１日東京都港区赤坂三丁目１６番５号ＳＫＲ赤坂ビル１Ｆ株式会社Ｎｅｖｅｒ　Ｌｏｓｓ　Ｉｎｖｅｓｔｍｅｎｔ（8010401142944）に合併し解散,2020-01-06,1,,,,,,0
2062,8010401170185,登記記録の閉鎖等,0,2023-11-13,2023-11-08,株式会社ＷＥ　ＡＲＥ　ＣＲＥＡＴＩＶＥ,,株式会社,東京都,港区,西麻布４丁目２番９号シーズンズ西麻布２０１号室,,13,103,1060031,,,2023-11-08,清算の結了等,,,2022-10-11,1,,,,,ウィーアークリエイティブ,0
2067,8010403022797,登記記録の閉鎖等,0,2023-11-13,2023-11-07,糸島玄海洋上風力発電合同会社,,合同会社,東京都,港区,新橋６丁目１７番２１号,,13,103,1050004,,,2023-11-07,清算の結了等,,,2020-04-09,1,,,,,イトシマゲンカイヨウジョウフウリョクハツデン,0
2079,8010902002267,登記記録の閉鎖等,0,2023-11-13,2023-11-07,有限会社エイ・ティー・エス・オフィスサービス,,有限会社,東京都,世田谷区,祖師谷３丁目２３番２２号,,13,112,1570072,,,2023-11-07,清算の結了等,,,2015-10-05,1,,,,,エイティーエスオフィスサービス,0
2119,8020001097407,登記記録の閉鎖等,0,2023-11-13,2023-11-02,株式会社ＰＦＰ,,株式会社,神奈川県,川崎市多摩区,南生田５丁目８番４号サンライズハイツ１０１,,14,135,2140036,,,2023-11-02,清算の結了等,,,2015-10-05,1,,,,,ピーエフピー,0
2142,8030001130983,登記記録の閉鎖等,0,2023-11-13,2023-11-06,株式会社Ｋ－ＡＣＥ,,株式会社,埼玉県,八潮市,八潮５丁目１１番地７,,11,234,3400815,,,2023-11-06,清算の結了等,,,2019-05-22,1,,,,,ケイエース,0
2155,8040002075038,登記記録の閉鎖等,0,2023-11-13,2023-11-06,有限会社松勇建築板金,,有限会社,千葉県,市原市,五井１０１９番地１,,12,219,2900056,,,2023-11-06,清算の結了等,,,2015-10-05,1,,,,,,0
2169,8080002012111,登記記録の閉鎖等,0,2023-11-13,2023-11-09,有限会社エス・コテージ,,有限会社,静岡県,静岡市清水区,江尻町３番１７号,,22,103,4240818,,,2023-11-09,清算の結了等,,,2015-10-05,1,,,,,エスコテージ,0
2174,8100002005467,登記記録の閉鎖等,0,2023-11-13,2023-11-02,有限会社山野井商事,,有限会社,長野県,長野市,大字鶴賀南千歳町９７１番地１常磐ビル,,20,201,3800822,,,2023-11-02,清算の結了等,,,2015-10-05,1,,,,,ヤマノイショウジ,0
2178,8120001159114,登記記録の閉鎖等,0,2023-11-13,2023-11-02,三晃地所株式会社,,株式会社,大阪府,守口市,桜町５番９号,,27,209,5700027,,,2023-11-02,清算の結了等,,,2023-09-26,1,,,,,サンコウチショ,0
2187,8120002022130,登記記録の閉鎖等,0,2023-11-13,2023-11-10,有限会社シージェーピー設計,,有限会社,大阪府,大阪市西区,西本町２丁目５番１１号－５０１,,27,106,5500005,,,2023-11-10,清算の結了等,,,2015-10-05,1,,,,,シージェーピーセッケイ,0
2192,8122001021369,登記記録の閉鎖等,0,2023-11-13,2023-11-09,株式会社クリアテック,,株式会社,大阪府,八尾市,郡川２丁目５２番地,,27,212,5810872,,,2023-11-09,清算の結了等,,,2015-10-05,1,,,,,クリアテック,0
2204,8140002020999,登記記録の閉鎖等,0,2023-11-13,2023-11-07,有限会社新興,,有限会社,兵庫県,神戸市兵庫区,上沢通２丁目５番８号,,28,105,6520046,,,2023-11-07,清算の結了等,,,2015-10-05,1,,,,,シンコウ,0
2218,8180001041571,登記記録の閉鎖等,0,2023-11-13,2023-11-07,株式会社やまきつ,,株式会社,愛知県,名古屋市瑞穂区,亀城町５丁目１１番地,,23,108,4670876,,,2023-11-07,清算の結了等,,,2015-10-05,1,,,,,ヤマキツ,0
2221,8180001128947,登記記録の閉鎖等,0,2023-11-13,2023-11-08,株式会社みくり,,株式会社,愛知県,名古屋市中村区,松原町２丁目１１番,,23,105,4530021,,,2023-11-08,清算の結了等,,,2017-08-09,1,,,,,ミクリ,0
2235,8240001052587,登記記録の閉鎖等,0,2023-11-13,2023-11-01,株式会社モアリープ,,株式会社,広島県,広島市南区,段原３丁目９番２５号,,34,103,7320811,,,2023-11-01,合併による解散等,6240001019539,令和５年１１月１日広島市南区段原三丁目９番２５号株式会社アビリティーライフ（6240001019539）に合併し解散,2018-04-03,1,,,,,モアリープ,0
2246,8290002020704,登記記録の閉鎖等,0,2023-11-13,2023-10-31,有限会社アルファスポーツ,,有限会社,福岡県,福岡市東区,馬出１丁目２１番１８－１０３号,,40,131,8120054,,,2023-10-31,清算の結了等,,,2015-10-05,1,,,,,,0
2272,8380002027830,登記記録の閉鎖等,0,2023-11-13,2023-11-08,有限会社スマイル,,有限会社,福島県,いわき市,鹿島町走熊字中島２１番地の１３,,07,204,9718141,,,2023-11-08,清算の結了等,,,2015-10-05,1,,,,,スマイル,0
2275,8400602001141,登記記録の閉鎖等,0,2023-11-13,2023-11-01,有限会社クイチロー石油,,有限会社,岩手県,胆沢郡金ケ崎町,西根中江甫２５番地５,,03,381,0294503,,,2023-11-01,清算の結了等,,,2015-10-05,1,,,,,クイチローセキユ,0
2282,8430002030894,登記記録の閉鎖等,0,2023-11-13,2023-11-06,有限会社北海道観測機器サービス,,有限会社,北海道,札幌市中央区,南二十五条西９丁目３番１３号,,01,101,0640925,,,2023-11-06,清算の結了等,,,2015-10-05,1,,,,,ホッカイドウカンソクキキサービス,0
2296,9010001113205,登記記録の閉鎖等,0,2023-11-13,2023-11-06,インヴァストキャピタルマネジメント株式会社,,株式会社,東京都,中央区,東日本橋１丁目５番６号,,13,102,1030004,,,2023-11-06,清算の結了等,,,2015-10-05,1,,,,,インヴァストキャピタルマネジメント,0
2317,9010403027119,登記記録の閉鎖等,0,2023-11-13,2023-11-07,和歌山洋上風力発電合同会社,,合同会社,東京都,港区,新橋６丁目１７番２１号住友不動産御成門駅前ビル１０階,,13,103,1050004,,,2023-11-07,清算の結了等,,,2022-02-24,1,,,,,ワカヤマヨウジョウフウリョクハツデン,0
2318,9010403028232,登記記録の閉鎖等,0,2023-11-13,2023-11-08,ＤＬＨ　Ｈｏｌｄｉｎｇｓ　Ｅｎｔｅｒｐｒｉｓｅ合同会社,,合同会社,東京都,港区,元麻布３丁目１番６号,,13,103,1060046,,,2023-11-08,清算の結了等,,,2022-08-12,1,,,,,ディーエルエイチホールディングスエンタープライズ,0
2322,9010601002121,登記記録の閉鎖等,0,2023-11-13,2023-11-06,新日本テクノ株式会社,,株式会社,東京都,江東区,亀戸２丁目２４番９号,,13,108,1360071,,,2023-11-06,清算の結了等,,,2015-10-05,1,,,,,シンニホンテクノ,0
2330,9011001002265,登記記録の閉鎖等,0,2023-11-13,2023-11-07,株式会社医事様式,,株式会社,東京都,渋谷区,代官山町１０番１号,,13,113,1500034,,,2023-11-07,清算の結了等,,,2015-10-05,1,,,,,イジヨウシキ,0
2347,9011101096406,登記記録の閉鎖等,0,2023-11-13,2023-11-10,Ｗｏｍｅｎ’ｓ　Ｓｕｃｃｅｓｓ　Ａｃａｄｅｍｙ株式会社,,株式会社,東京都,新宿区,西新宿６丁目１０番１号日土地西新宿ビル８階,,13,104,1600023,,,2023-11-10,清算の結了等,,,2021-09-30,1,,,,,ウーメンズサクセスアカデミー,0
2357,9011303002293,登記記録の閉鎖等,0,2023-11-13,2023-10-31,ファーストリサーチ合同会社,,合同会社,東京都,杉並区,和田３丁目４８番６号,,13,115,1660012,,,2023-10-31,清算の結了等,,,2015-10-05,1,,,,,,0
2369,9011701003744,登記記録の閉鎖等,0,2023-11-13,2023-11-06,株式会社ジェルティワールドトレーディング,,株式会社,東京都,中央区,日本橋本石町２丁目１番１号,,13,102,1030021,,,2023-11-06,清算の結了等,,,2015-10-05,1,,,,,ジェルティワールドトレーディング,0
2371,9011801022124,登記記録の閉鎖等,0,2023-11-13,2023-11-06,株式会社Ｂｌｕｅ　Ｓｔａｒ,,株式会社,東京都,足立区,鹿浜６丁目３７番８号,,13,121,1230864,,,2023-11-06,清算の結了等,,,2015-10-05,1,,,,,ブルースター,0
2393,9020001120596,登記記録の閉鎖等,0,2023-11-13,2023-11-02,雄進工業株式会社,,株式会社,神奈川県,横浜市保土ケ谷区,川島町４７１番地２上星川ガーデンコート９０７号室,,14,106,2400045,,,2023-11-02,清算の結了等,,,2017-03-29,1,,,,,ユウシンコウギョウ,0
2394,9020001125166,登記記録の閉鎖等,0,2023-11-13,2023-11-01,株式会社ヤマト,,株式会社,神奈川県,川崎市川崎区,砂子２丁目１０番地２カワサキ・ミッドマークタワー１１１０,,14,131,2100006,,,2023-11-01,清算の結了等,,,2018-02-20,1,,,,,ヤマト,0
2395,9020001128482,登記記録の閉鎖等,0,2023-11-13,2023-11-01,株式会社ＩＳＨＩＤＡ,,株式会社,神奈川県,横浜市青葉区,市ケ尾町４８４番地８,,14,117,2250024,,,2023-11-01,合併による解散等,6020001103975,令和５年１１月１日横浜市青葉区市ケ尾町４８４番地８株式会社Ｅ＆Ｅ（6020001103975）に合併し解散,2018-10-26,1,,,,,イシダ,0
2398,9020001149066,登記記録の閉鎖等,0,2023-11-13,2023-11-06,ＣＯＣＯＲＯＮＯ株式会社,,株式会社,神奈川県,横浜市中区,相生町４丁目６７番地レジディア横濱馬車道８０６,,14,104,2310012,,,2023-11-06,清算の結了等,,,2022-12-26,1,,,,,ココロノ,0
2403,9020002080237,登記記録の閉鎖等,0,2023-11-13,2023-11-07,有限会社伊勢元,,有限会社,神奈川県,川崎市幸区,下平間４０番地４,,14,132,2120053,,,2023-11-07,清算の結了等,,,2015-10-05,1,,,,,イセモト,0
2405,9020002091837,登記記録の閉鎖等,0,2023-11-13,2023-11-01,有限会社キャップ,,有限会社,神奈川県,川崎市多摩区,登戸新町８番地,,14,135,2140013,,,2023-11-01,清算の結了等,,,2015-10-05,1,,,,,キャップ,0
2410,9021001006661,登記記録の閉鎖等,0,2023-11-13,2023-11-09,株式会社大橋精機製作所,,株式会社,神奈川県,茅ヶ崎市,旭が丘１０番２０号,,14,207,2530026,,,2023-11-09,清算の結了等,,,2015-10-05,1,,,,,オオハシセイキセイサクショ,0
2422,9030001012909,登記記録の閉鎖等,0,2023-11-13,2023-11-06,株式会社下山基礎,,株式会社,埼玉県,さいたま市見沼区,大字小深作６４６番地１５,,11,104,3370005,,,2023-11-06,清算の結了等,,,2015-10-05,1,,,,,シモヤマキソ,0
2434,9040001076564,登記記録の閉鎖等,0,2023-11-13,2023-11-06,フューチャー・テクノロジー株式会社,,株式会社,千葉県,千葉市若葉区,加曽利町６４３番地,,12,104,2640017,,,2023-11-06,清算の結了等,,,2015-10-05,1,,,,,フューチャーテクノロジー,0
2439,9040002079104,登記記録の閉鎖等,0,2023-11-13,2023-10-27,有限会社サクセス２１,,有限会社,千葉県,東金市,家之子１７６番地２３,,12,213,2830001,,,2023-10-27,清算の結了等,,,2015-10-05,1,,,,,,0
2441,9050001047762,登記記録の閉鎖等,0,2023-11-13,2023-11-06,株式会社杉山ダイカスト,,株式会社,茨城県,つくば市,漆所２３９番地,,08,220,3004216,,,2023-11-06,清算の結了等,,,2020-07-10,1,,,,,スギヤマダイカスト,0
2447,9070001020957,登記記録の閉鎖等,0,2023-11-13,2023-11-08,桐生商管株式会社,,株式会社,群馬県,太田市,吉沢町９９０番地,,10,205,3730019,,,2023-11-08,清算の結了等,,,2015-10-05,1,,,,,キリュウショウカン,0
2469,9122002015591,登記記録の閉鎖等,0,2023-11-13,2023-11-07,勇芳メディカル有限会社,,有限会社,大阪府,柏原市,今町２丁目１番３２号,,27,221,5820002,,,2023-11-07,清算の結了等,,,2015-10-05,1,,,,,ユウホウメディカル,0
2481,9180001063235,登記記録の閉鎖等,0,2023-11-13,2023-11-06,株式会社ＦＬＹＰ,,株式会社,東京都,渋谷区,神宮前５丁目５番５号,,13,113,1500001,,,2023-11-06,清算の結了等,,,2015-10-05,1,,,,,エフエルワイピー,0
2484,9180001142765,登記記録の閉鎖等,0,2023-11-13,2023-11-07,株式会社アリビオケア,,株式会社,愛知県,春日井市,如意申町４丁目１１番地１２,,23,206,4860918,,,2023-11-07,清算の結了等,,,2020-09-08,1,,,,,アリビオケア,0
2486,9180001148259,登記記録の閉鎖等,0,2023-11-13,2023-11-07,ＡｎｄＬａｗ株式会社,,株式会社,愛知県,名古屋市中区,栄１丁目２２－２,,23,106,4600008,,,2023-11-07,清算の結了等,,,2021-10-13,1,,,,,アンドロー,0
2492,9200001028895,登記記録の閉鎖等,0,2023-11-13,2023-11-06,株式会社トレードスタイル・ミキ,,株式会社,岐阜県,高山市,一之宮町３５５８番地,,21,203,5093505,,,2023-11-06,清算の結了等,,,2015-10-05,1,,,,,トレードスタイルミキ,0
2517,9290001062738,登記記録の閉鎖等,0,2023-11-13,2023-10-31,広川電機工業株式会社,,株式会社,福岡県,福岡市博多区,比恵町１７番３０号,,40,132,8120014,,,2023-10-31,清算の結了等,,,2015-10-05,1,,,,,ヒロカワデンキコウギョウ,0
2518,9290001081837,登記記録の閉鎖等,0,2023-11-13,2023-10-25,窪商株式会社,,株式会社,福岡県,糸島市,二丈深江１８０７番地の５,,40,230,8191601,,,2023-10-25,清算の結了等,,,2018-06-19,1,,,,,クボショウ,0
2530,9300002001932,登記記録の閉鎖等,0,2023-11-13,2023-11-09,有限会社西日本医療設備,,有限会社,佐賀県,佐賀市,諸富町大字諸富津２３０番地,,41,201,8402105,,,2023-11-09,清算の結了等,,,2015-10-05,1,,,,,ニシニホンイリョウセツビ,0
2541,9350001018147,登記記録の閉鎖等,0,2023-11-13,2023-11-06,株式会社やまさき,,株式会社,宮崎県,宮崎市,清武町新町２丁目８－１０,,45,201,8891611,,,2023-11-06,清算の結了等,,,2023-01-25,1,,,,,ヤマサキ,0
2568,9430002006720,登記記録の閉鎖等,0,2023-11-13,2023-11-02,有限会社グローバルドリーム,,有限会社,北海道,札幌市手稲区,曙八条１丁目９－７,,01,109,0060838,,,2023-11-02,清算の結了等,,,2015-10-05,1,,,,,グローバルドリーム,0
