sequenceNumber,corporateNumber,process,correct,updateDate,changeDate,name,nameImageId,kind,prefectureName,cityName,streetNumber,addressImageId,prefectureCode,cityCode,postCode,addressOutside,addressOutsideImageId,closeDate,closeCause,successorCorporateNumber,changeCause,assignmentDate,latest,enName,enPrefectureName,enCityName,enAddressOutside,furigana,hihyoji
2,1010001109053,登記記録の閉鎖等,0,2023-08-07,2023-08-02,株式会社ヒューズ,,株式会社,東京都,足立区,西新井３丁目３番３号,,13,121,1230841,,,2023-08-02,清算の結了等,,,2015-10-05,1,,,,,ヒューズ,0
9,1010003030380,登記記録の閉鎖等,0,2023-08-07,2023-07-28,ＡＭＷ八王子ホールディング合同会社,,合同会社,東京都,千代田区,丸の内３丁目１番１号東京共同会計事務所内,,13,101,1000005,,,2023-07-28,清算の結了等,,,2019-08-08,1,,,,,エーエムダブリューハチオウジホールディング,0
12,1010005028646,登記記録の閉鎖等,0,2023-08-07,2023-07-31,一般社団法人Ｃａｓｓｉｓ,,その他の設立登記法人,東京都,千代田区,丸の内３丁目１番１号東京共同会計事務所内,,13,101,1000005,,,2023-07-31,清算の結了等,,,2018-06-12,1,,,,,カシス,0
31,1010801012852,登記記録の閉鎖等,0,2023-08-07,2023-08-03,鷲尾軌道工業株式会社,,株式会社,東京都,大田区,大森南２丁目４番９号,,13,111,1430013,,,2023-08-03,清算の結了等,,,2015-10-05,1,,,,,ワシオキドウコウギョウ,0
59,1013101007688,登記記録の閉鎖等,0,2023-08-07,2023-08-02,株式会社ダイデン,,株式会社,東京都,西多摩郡瑞穂町,長岡２丁目３番地５,,13,303,1901232,,,2023-08-02,清算の結了等,,,2017-09-04,1,,,,,ダイデン,0
60,1013202012348,登記記録の閉鎖等,0,2023-08-07,2023-07-28,有限会社ダイレクト・クリエイション,,有限会社,東京都,目黒区,上目黒３丁目１６番５－４０１号,,13,110,1530051,,,2023-07-28,清算の結了等,,,2015-10-05,1,,,,,ダイレクトクリエイション,0
63,1020001007149,登記記録の閉鎖等,0,2023-08-07,2023-07-12,株式会社エル・シーアプライアンス,,株式会社,神奈川県,横浜市戸塚区,原宿４丁目５２番７号,,14,110,2450063,,,2023-07-12,清算の結了等,,,2015-10-05,1,,,,,エルシーアプライアンス,0
66,1020001077084,登記記録の閉鎖等,0,2023-08-07,2023-07-25,株式会社サプライズ,,株式会社,神奈川県,川崎市宮前区,有馬２丁目１番１７号,,14,136,2160003,,,2023-07-25,清算の結了等,,,2015-10-05,1,,,,,サプライズ,0
80,1021001014325,登記記録の閉鎖等,0,2023-08-07,2023-07-31,横浜電気車輌株式会社,,株式会社,神奈川県,相模原市南区,南台５丁目１１番１９－１２０８号,,14,153,2520314,,,2023-07-31,清算の結了等,,,2015-10-05,1,,,,,ヨコハマデンキシャリョウ,0
86,1030001043176,登記記録の閉鎖等,0,2023-08-07,2023-07-11,株式会社パインフィールド,,株式会社,埼玉県,上尾市,浅間台４丁目３番地１２,,11,219,3620073,,,2023-07-11,清算の結了等,,,2015-10-05,1,,,,,パインフィールド,0
89,1030002094920,登記記録の閉鎖等,0,2023-08-07,2023-07-12,有限会社和田測量,,有限会社,埼玉県,坂戸市,本町１３番２７号ソフィア坂戸ラフィーネ３０１号室,,11,239,3500226,,,2023-07-12,清算の結了等,,,2015-10-05,1,,,,,ワダソクリョウ,0
112,1060001022276,登記記録の閉鎖等,0,2023-08-07,2023-08-01,株式会社こども未来学園,,株式会社,群馬県,館林市,本町２丁目１１番１４号アゼリアタワー館林－１４０２,,10,207,3740024,,,2023-08-01,清算の結了等,,,2015-10-05,1,,,,,コドモミライガクエン,0
134,1100002033474,登記記録の閉鎖等,0,2023-08-07,2023-08-01,有限会社レース伊那,,有限会社,長野県,伊那市,手良中坪６１４番地４,,20,209,3960004,,,2023-08-01,清算の結了等,,,2023-07-31,1,,,,,レースイナ,0
150,1120901034686,登記記録の閉鎖等,0,2023-08-07,2023-07-31,株式会社富テック,,株式会社,大阪府,箕面市,如意谷３丁目７番Ｃ－４０２号,,27,220,5620011,,,2023-07-31,清算の結了等,,,2015-10-05,1,,,,,トミテック,0
195,1180002006662,登記記録の閉鎖等,0,2023-08-07,2023-08-01,有限会社中部ポリエチレン工業,,有限会社,愛知県,名古屋市港区,金船町１丁目１番地の４１,,23,111,4550063,,,2023-08-01,清算の結了等,,,2015-10-05,1,,,,,チュウブポリエチレンコウギョウ,0
198,1180002081004,登記記録の閉鎖等,0,2023-08-07,2023-08-02,有限会社内藤設備,,有限会社,愛知県,稲沢市,西町３丁目４番１号,,23,220,4928218,,,2023-08-02,清算の結了等,,,2015-10-05,1,,,,,ナイトウセツビ,0
202,1180005014423,登記記録の閉鎖等,0,2023-08-07,2023-08-02,特定非営利活動法人妊娠中毒症と切迫早産の胎児と母体を守る会,,その他の設立登記法人,愛知県,名古屋市西区,名駅１丁目１番１７号名駅ダイヤメイテツビル２階,,23,104,4510045,,,2023-08-02,清算の結了等,,,2015-10-05,1,,,,,ニンシンチュウドクショウトセッパクソウザンノタイジトボタイヲマモルカイ,0
205,1180301023929,登記記録の閉鎖等,0,2023-08-07,2023-07-31,株式会社エイチエス,,株式会社,愛知県,西尾市,熊味町大道北８６番地１,,23,213,4450071,,,2023-07-31,清算の結了等,,,2015-10-05,1,,,,,エイチエス,0
210,1190001010598,登記記録の閉鎖等,0,2023-08-07,2023-07-31,株式会社宮田組,,株式会社,三重県,松阪市,西黒部町６８０番地,,24,204,5150103,,,2023-07-31,清算の結了等,,,2015-10-05,1,,,,,ミヤタグミ,0
211,1200001007551,登記記録の閉鎖等,0,2023-08-07,2023-08-01,株式会社マルや,,株式会社,岐阜県,各務原市,那加桐野町５丁目６番地,,21,213,5040008,,,2023-08-01,合併による解散等,5200001000692,令和５年８月１日岐阜市六条片田一丁目３番１号塩谷建設株式会社（5200001000692）に合併し解散,2015-10-05,1,,,,,マルヤ,0
216,1220001013077,登記記録の閉鎖等,0,2023-08-07,2023-07-31,株式会社小野商会,,株式会社,石川県,加賀市,大聖寺南町ニ７２番地の５,,17,206,9220811,,,2023-07-31,清算の結了等,,,2015-10-05,1,,,,,オノショウカイ,0
222,1240002035151,登記記録の閉鎖等,0,2023-08-07,2023-08-02,有限会社堂野崎板金,,有限会社,広島県,呉市,安浦町中央ハイツ３２番２０号,,34,202,7372514,,,2023-08-02,清算の結了等,,,2015-10-05,1,,,,,ドウノサキバンキン,0
247,1330001010352,登記記録の閉鎖等,0,2023-08-07,2023-08-01,株式会社龍文堂,,株式会社,熊本県,山鹿市,山鹿１００７番地,,43,208,8610501,,,2023-08-01,合併による解散等,4330001004137,令和５年８月１日熊本市中央区古川町１３番地株式会社古荘本店（4330001004137）に合併し解散,2015-10-05,1,,,,,リュウブンドウ,0
255,1380005003372,登記記録の閉鎖等,0,2023-08-07,2023-08-01,医療法人大久保クリニック,,その他の設立登記法人,福島県,田村市,船引町船引字扇田２１１番地,,07,211,9634312,,,2023-08-01,清算の結了等,,,2015-10-05,1,,,,,オオクボクリニック,0
280,1460002000851,登記記録の閉鎖等,0,2023-08-07,2023-08-02,有限会社釧路工業検査センター,,有限会社,北海道,釧路市,新野２４番１０８１,,01,206,0840925,,,2023-08-02,清算の結了等,,,2015-10-05,1,,,,,クシロコウギョウケンサセンター,0
282,1470002009108,登記記録の閉鎖等,0,2023-08-07,2023-07-28,有限会社サン・ステップ,,有限会社,香川県,木田郡三木町,大字井上２８７１番地１,,37,341,7610705,,,2023-07-28,合併による解散等,8010001133856,令和５年７月１日埼玉県川口市大字新堀６２９番地株式会社太陽技報堂（8010001133856）に合併し解散,2015-10-05,1,,,,,サンステップ,0
303,2010001041354,登記記録の閉鎖等,0,2023-08-07,2023-07-31,協和メディアサービス株式会社,,株式会社,東京都,中央区,日本橋箱崎町３６－２,,13,102,1030015,,,2023-07-31,清算の結了等,,,2015-10-05,1,,,,,キョウワメディアサービス,0
310,2010005028166,登記記録の閉鎖等,0,2023-08-07,2023-07-31,一般社団法人宇久島地所ホールディングス,,その他の設立登記法人,東京都,千代田区,丸の内３丁目１番１号東京共同会計事務所内,,13,101,1000005,,,2023-07-31,清算の結了等,,,2018-02-27,1,,,,,ウクジマジショホールディングス,0
326,2010802001218,登記記録の閉鎖等,0,2023-08-07,2023-08-01,有限会社礒辺工業所,,有限会社,東京都,大田区,羽田５丁目１３番１９号,,13,111,1440043,,,2023-08-01,清算の結了等,,,2015-10-05,1,,,,,イソベコウギョウショ,0
327,2010901012280,登記記録の閉鎖等,0,2023-08-07,2023-07-31,株式会社山崎工務店,,株式会社,東京都,世田谷区,船橋１丁目１番２号,,13,112,1560055,,,2023-07-31,清算の結了等,,,2015-10-05,1,,,,,ヤマザキコウムテン,0
333,2011001138958,登記記録の閉鎖等,0,2023-08-07,2023-08-01,ＴＯＹＯＮＩＣＳホールディングス株式会社,,株式会社,東京都,目黒区,大岡山１丁目３５番２２号,,13,110,1520033,,,2023-08-01,清算の結了等,,,2021-03-12,1,,,,,トーヨーニクスホールディングス,0
339,2011101041302,登記記録の閉鎖等,0,2023-08-07,2023-07-19,株式会社企画同人,,株式会社,東京都,新宿区,三栄町６番地１２,,13,104,1600008,,,2023-07-19,清算の結了等,,,2015-10-05,1,,,,,キカクドウジン,0
358,2020001071706,登記記録の閉鎖等,0,2023-08-07,2023-08-02,飛鳥交通川崎中央株式会社,,株式会社,神奈川県,川崎市幸区,北加瀬２丁目６番３８号,,14,132,2120057,,,2023-08-02,合併による解散等,3011101083905,令和５年８月１日東京都新宿区新宿六丁目２７番４８号飛鳥ＴＨＤ株式会社（3011101083905）に合併し解散,2015-10-05,1,,,,,アスカコウツウカワサキチュウオウ,0
359,2020001076424,登記記録の閉鎖等,0,2023-08-07,2023-07-26,株式会社プロモーション・インターナショナル,,株式会社,神奈川県,川崎市高津区,末長４丁目２１番３号プラウド武蔵新城スクエア２０１,,14,134,2130013,,,2023-07-26,清算の結了等,,,2015-10-05,1,,,,,プロモーションインターナショナル,0
370,2020002076794,登記記録の閉鎖等,0,2023-08-07,2023-07-25,有限会社小倉製作所,,有限会社,神奈川県,横浜市旭区,川井本町８２番地７,,14,112,2410803,,,2023-07-25,清算の結了等,,,2015-10-05,1,,,,,オグラセイサクショ,0
381,2030001090093,登記記録の閉鎖等,0,2023-08-07,2023-07-11,マックス株式会社,,株式会社,埼玉県,日高市,大字南平沢１４２４番地６,,11,242,3501206,,,2023-07-11,清算の結了等,,,2015-10-05,1,,,,,マックス,0
392,2040005003083,登記記録の閉鎖等,0,2023-08-07,2023-07-12,三山央町商店街振興組合,,その他の設立登記法人,千葉県,船橋市,三山６丁目４１番２８号,,12,204,2740072,,,2023-07-12,清算の結了等,,,2015-10-05,1,,,,,ミヤマナカマチ,0
401,2060001026251,登記記録の閉鎖等,0,2023-08-07,2023-07-24,株式会社まごころ,,株式会社,栃木県,宇都宮市,西３丁目４番２６号,,09,201,3200861,,,2023-07-24,清算の結了等,,,2015-10-05,1,,,,,マゴコロ,0
405,2070001029105,登記記録の閉鎖等,0,2023-08-07,2023-08-01,ストーンヒル藤岡ゴルフクラブ株式会社,,株式会社,群馬県,藤岡市,上日野６４９番地,,10,209,3750047,,,2023-08-01,合併による解散等,1070001029106,令和５年８月１日群馬県藤岡市上日野６１８番地２藤岡温泉ホテルリゾート株式会社（1070001029106）に合併し解散,2015-10-05,1,,,,,ストーンヒルフジオカゴルフクラブ,0
406,2070001032554,登記記録の閉鎖等,0,2023-08-07,2023-08-02,株式会社ＫＲＭ,,株式会社,群馬県,邑楽郡邑楽町,大字篠塚８番地６３,,10,525,3700615,,,2023-08-02,清算の結了等,,,2016-08-19,1,,,,,ケーアールエム,0
436,2120002059211,登記記録の閉鎖等,0,2023-08-07,2023-08-01,有限会社ＮＴＹエンジ,,有限会社,大阪府,大阪市淀川区,西中島４丁目４番６号新大阪三洋ビル３０２号室,,27,123,5320011,,,2023-08-01,合併による解散等,4120001104800,令和５年８月１日大阪市淀川区西中島四丁目４番６号新大阪三洋ビル３０２号室株式会社エヌ・ティ・ワイ（4120001104800）に合併し解散,2015-10-05,1,,,,,エヌティワイエンジ,0
452,2130001044205,登記記録の閉鎖等,0,2023-08-07,2023-07-25,株式会社川越精研,,株式会社,京都府,宇治市,開町５番地の５,,26,204,6110026,,,2023-07-25,清算の結了等,,,2015-10-05,1,,,,,カワゴエセイケン,0
475,2180001118078,登記記録の閉鎖等,0,2023-08-07,2023-08-02,株式会社ヤマサユーランド,,株式会社,愛知県,名古屋市熱田区,桜田町２０番１８号,,23,109,4560004,,,2023-08-02,清算の結了等,,,2015-10-05,1,,,,,ヤマサユーランド,0
492,2180301027986,登記記録の閉鎖等,0,2023-08-07,2023-07-31,株式会社大津興業,,株式会社,愛知県,岡崎市,奥殿町字赤坂１３番地,,23,202,4442108,,,2023-07-31,清算の結了等,,,2015-10-05,1,,,,,オオツコウギョウ,0
493,2180301029652,登記記録の閉鎖等,0,2023-08-07,2023-07-31,株式会社Ｐ．Ｏ．Ｍ,,株式会社,愛知県,知立市,南新地２丁目５番地６,,23,225,4720053,,,2023-07-31,清算の結了等,,,2016-10-04,1,,,,,ピーオーエム,0
498,2200001036855,登記記録の閉鎖等,0,2023-08-07,2023-08-02,株式会社ＳＯＵ,,株式会社,岐阜県,岐阜市,高田５丁目６番５号,,21,201,5008224,,,2023-08-02,清算の結了等,,,2019-11-15,1,,,,,エスオーユー,0
502,2210002007648,登記記録の閉鎖等,0,2023-08-07,2023-08-02,有限会社三澤機業場,,有限会社,福井県,あわら市,田中々第３０号８番地,,18,208,9104124,,,2023-08-02,清算の結了等,,,2015-10-05,1,,,,,ミサワキギョウジョウ,0
506,2230001013067,登記記録の閉鎖等,0,2023-08-07,2023-08-04,株式会社森田商店,,株式会社,富山県,射水市,本開発４８１番地１,,16,211,9390285,,,2023-08-04,清算の結了等,,,2015-10-05,1,,,,,モリタショウテン,0
524,2290005013999,登記記録の閉鎖等,0,2023-08-07,2023-07-25,特定非営利活動法人障害者自立支援ネットワーク,,その他の設立登記法人,福岡県,福岡市東区,名島４丁目６４番１５号,,40,131,8130043,,,2023-07-25,清算の結了等,,,2015-10-05,1,,,,,ショウガイシャジリツシエンネットワーク,0
526,2290802010141,登記記録の閉鎖等,0,2023-08-07,2023-08-03,有限会社森川哲朗建築設計事務所,,有限会社,福岡県,北九州市門司区,大字大積１２９０番地,,40,101,8010811,,,2023-08-03,清算の結了等,,,2015-10-05,1,,,,,モリカワテツロウケンチクセッケイジムショ,0
527,2290802018515,登記記録の閉鎖等,0,2023-08-07,2023-08-01,有限会社敬,,有限会社,福岡県,北九州市若松区,高須東４丁目８番１７号,,40,103,8080144,,,2023-08-01,清算の結了等,,,2015-10-05,1,,,,,タカシ,0
528,2290802019364,登記記録の閉鎖等,0,2023-08-07,2023-08-03,有限会社ひまわり保険企画,,有限会社,福岡県,北九州市若松区,浜町２丁目１５番３号,,40,103,8080024,,,2023-08-03,清算の結了等,,,2015-10-05,1,,,,,ヒマワリホケンキカク,0
529,2300001009215,登記記録の閉鎖等,0,2023-08-07,2023-08-01,株式会社ＪＭＣ,,株式会社,佐賀県,佐賀市,唐人１丁目５番４３号,,41,201,8400813,,,2023-08-01,合併による解散等,2300001009280,令和５年８月１日佐賀市中央本町３番１号株式会社ユニデザイン（2300001009280）に合併し解散,2015-10-05,1,,,,,ジェーエムシー,0
549,2370002000868,登記記録の閉鎖等,0,2023-08-07,2023-07-14,有限会社ハルク,,有限会社,宮城県,仙台市泉区,松陵４丁目２４番地の１０,,04,105,9813108,,,2023-07-14,清算の結了等,,,2015-10-05,1,,,,,ハルク,0
564,2420002001761,登記記録の閉鎖等,0,2023-08-07,2023-07-18,有限会社田中カメラ,,有限会社,青森県,青森市,中央１丁目２４番７号,,02,201,0300822,,,2023-07-18,清算の結了等,,,2015-10-05,1,,,,,タナカカメラ,0
566,2430001011182,登記記録の閉鎖等,0,2023-08-07,2023-08-01,東亜工業株式会社,,株式会社,北海道,札幌市中央区,宮の森三条１３丁目５番２４号,,01,101,0640953,,,2023-08-01,合併による解散等,6430001026631,令和５年８月１日札幌市東区東苗穂六条三丁目１番６号株式会社キース（6430001026631）に合併し解散,2015-10-05,1,,,,,トウアコウギョウ,0
569,2430002020356,登記記録の閉鎖等,0,2023-08-07,2023-07-18,有限会社ヤハタシール,,有限会社,北海道,札幌市東区,北三十九条東６丁目２番５－２０２号,,01,103,0070839,,,2023-07-18,清算の結了等,,,2015-10-05,1,,,,,ヤハタシール,0
575,2490002005517,登記記録の閉鎖等,0,2023-08-07,2023-08-01,有限会社吉川工業,,有限会社,高知県,高知市,東雲町２番３８号,,39,201,7800805,,,2023-08-01,清算の結了等,,,2015-10-05,1,,,,,ヨシカワコウギョウ,0
595,3010002012758,登記記録の閉鎖等,0,2023-08-07,2023-07-31,有限会社ときわ,,有限会社,東京都,千代田区,神田駿河台１丁目８番地１０,,13,101,1010062,,,2023-07-31,清算の結了等,,,2015-10-05,1,,,,,トキワ,0
597,3010003023977,登記記録の閉鎖等,0,2023-08-07,2023-07-10,風の松原ファンド合同会社,,合同会社,東京都,中央区,八重洲２丁目７番２号,,13,102,1040028,,,2023-07-10,清算の結了等,,,2016-08-15,1,,,,,カゼノマツバラファンド,0
600,3010005031846,登記記録の閉鎖等,0,2023-08-07,2023-07-31,ベリス一般社団法人,,その他の設立登記法人,東京都,千代田区,丸の内３丁目１番１号東京共同会計事務所内,,13,101,1000005,,,2023-07-31,清算の結了等,,,2020-05-21,1,,,,,ベリス,0
617,3010801007529,登記記録の閉鎖等,0,2023-08-07,2023-08-03,株式会社ディンプル,,株式会社,東京都,大田区,田園調布本町５６番７号,,13,111,1450072,,,2023-08-03,清算の結了等,,,2015-10-05,1,,,,,ディンプル,0
624,3011001097427,登記記録の閉鎖等,0,2023-08-07,2023-08-01,株式会社プレイラボ,,株式会社,東京都,渋谷区,円山町３番１号小木曽ビル３Ｆ,,13,113,1500044,,,2023-08-01,合併による解散等,4011001131457,令和５年８月１日東京都渋谷区円山町３番１号小木曽ビル３Ｆ株式会社リアライズ（4011001131457）に合併し解散,2015-10-05,1,,,,,プレイラボ,0
636,3011202005329,登記記録の閉鎖等,0,2023-08-07,2023-07-25,有限会社プロスペール,,有限会社,東京都,中野区,中央１丁目１２番２号,,13,114,1640011,,,2023-07-25,清算の結了等,,,2015-10-05,1,,,,,プロスペール,0
670,3030001021568,登記記録の閉鎖等,0,2023-08-07,2023-07-11,株式会社コモラボ,,株式会社,埼玉県,さいたま市浦和区,北浦和１丁目１７番１４号,,11,107,3300074,,,2023-07-11,清算の結了等,,,2015-10-05,1,,,,,コモラボ,0
676,3030002077361,登記記録の閉鎖等,0,2023-08-07,2023-07-12,有限会社みずほ台メディカルアソシエイト,,有限会社,埼玉県,富士見市,西みずほ台１丁目１９番地５,,11,235,3540018,,,2023-07-12,清算の結了等,,,2015-10-05,1,,,,,ミズホダイメディカルアソシエイト,0
714,3090001013857,登記記録の閉鎖等,0,2023-08-07,2023-08-02,株式会社アイズ,,株式会社,山梨県,甲府市,丸の内２丁目１６番６号平和ストリートビル２Ｆ,,19,201,4000031,,,2023-08-02,清算の結了等,,,2015-10-05,1,,,,,,0
768,3180001125965,登記記録の閉鎖等,0,2023-08-07,2023-08-03,笹野青果株式会社,,株式会社,愛知県,あま市,木田西浦８０番地３,,23,237,4901222,,,2023-08-03,清算の結了等,,,2016-12-20,1,,,,,ササノセイカ,0
769,3180001126740,登記記録の閉鎖等,0,2023-08-07,2023-08-02,ＫＥＫジャパン株式会社,,株式会社,愛知県,江南市,小杁町長者毛東１４７番地,,23,217,4838408,,,2023-08-02,清算の結了等,,,2017-03-03,1,,,,,ケーイーケージャパン,0
771,3180001140312,登記記録の閉鎖等,0,2023-08-07,2023-08-01,ＨＩ住宅ローン株式会社,,株式会社,愛知県,名古屋市東区,徳川１丁目９０１番地サンエース徳川５０１,,23,102,4610025,,,2023-08-01,合併による解散等,4180001123605,令和５年８月１日名古屋市中村区大正町三丁目２９番地未来モーゲージ株式会社（4180001123605）に合併し解散,2020-03-05,1,,,,,エイチアイジュウタクローン,0
781,3180002069963,登記記録の閉鎖等,0,2023-08-07,2023-08-03,有限会社松井テクノ,,有限会社,愛知県,小牧市,大字舟津７２番地の２,,23,219,4850073,,,2023-08-03,清算の結了等,,,2015-10-05,1,,,,,マツイテクノ,0
787,3190003001321,登記記録の閉鎖等,0,2023-08-07,2023-07-27,ワンプランニング合同会社,,合同会社,三重県,松阪市,下村町字坊山１９６５番２０,,24,204,5150043,,,2023-07-27,清算の結了等,,,2015-10-05,1,,,,,,0
791,3200002016392,登記記録の閉鎖等,0,2023-08-07,2023-08-01,有限会社タグチモータース,,有限会社,岐阜県,美濃加茂市,太田町４８１番地１,,21,211,5050041,,,2023-08-01,清算の結了等,,,2015-10-05,1,,,,,タグチモータース,0
794,3220002005988,登記記録の閉鎖等,0,2023-08-07,2023-08-02,有限会社ヤスハラ美装,,有限会社,石川県,金沢市,無量寺２丁目８１番地,,17,201,9200333,,,2023-08-02,清算の結了等,,,2015-10-05,1,,,,,ヤスハラビソウ,0
796,3230001006680,登記記録の閉鎖等,0,2023-08-07,2023-08-03,美加月飲食産業株式会社,,株式会社,富山県,富山市,東町２丁目２番１９,,16,201,9300039,,,2023-08-03,清算の結了等,,,2015-10-05,1,,,,,ミカヅキインショクサンギョウ,0
798,3230002003000,登記記録の閉鎖等,0,2023-08-07,2023-08-02,有限会社フジクラ,,有限会社,富山県,富山市,四方西岩瀬１２４番地,,16,201,9302241,,,2023-08-02,清算の結了等,,,2015-10-05,1,,,,,フジクラ,0
812,3270005002846,登記記録の閉鎖等,0,2023-08-07,2023-07-26,医療法人きむら小児科,,その他の設立登記法人,鳥取県,米子市,皆生３丁目１２番１号,,31,202,6830003,,,2023-07-26,清算の結了等,,,2015-10-05,1,,,,,キムラショウニカ,0
828,3290802019082,登記記録の閉鎖等,0,2023-08-07,2023-08-01,有限会社サンケイ,,有限会社,福岡県,北九州市若松区,高須東４丁目８番１７号,,40,103,8080144,,,2023-08-01,清算の結了等,,,2015-10-05,1,,,,,サンケイ,0
829,3300003001243,登記記録の閉鎖等,0,2023-08-07,2023-08-01,合同会社ＩＺＵＭＩ,,合同会社,佐賀県,佐賀市,本庄町大字袋４０８番地１９,,41,201,8400023,,,2023-08-01,合併による解散等,7300003000860,令和５年８月１日佐賀市本庄町大字袋４０８番地１９合同会社西木屋（7300003000860）に合併し解散,2016-12-28,1,,,,,イズミ,0
846,3370001015750,登記記録の閉鎖等,0,2023-08-07,2023-07-31,株式会社アディックス,,株式会社,宮城県,仙台市泉区,高森７丁目２９番地の７,,04,105,9813203,,,2023-07-31,清算の結了等,,,2015-10-05,1,,,,,アディックス,0
857,3410002003114,登記記録の閉鎖等,0,2023-08-07,2023-07-26,有限会社広小路たかはし,,有限会社,秋田県,秋田市,中通２丁目１番４号,,05,201,0100001,,,2023-07-26,清算の結了等,,,2015-10-05,1,,,,,ヒロコウジタカハシ,0
861,3420002011966,登記記録の閉鎖等,0,2023-08-07,2023-07-26,有限会社入船,,有限会社,青森県,五所川原市,十三羽黒崎１３３番地２０,,02,205,0370403,,,2023-07-26,清算の結了等,,,2015-10-05,1,,,,,イリフネ,0
863,3430005003910,登記記録の閉鎖等,0,2023-08-07,2023-07-18,特定非営利活動法人実りの里りん,,その他の設立登記法人,北海道,札幌市白石区,米里三条１丁目２－４,,01,104,0030873,,,2023-07-18,清算の結了等,,,2015-10-05,1,,,,,ミノリノサトリン,0
890,4010001200882,登記記録の閉鎖等,0,2023-08-07,2023-07-31,Ｓｏｓｈｉｋｉｚ株式会社,,株式会社,東京都,千代田区,九段南１丁目５番６号りそな九段ビル５階ＫＳフロア,,13,101,1020074,,,2023-07-31,清算の結了等,,,2019-05-27,1,,,,,ソシキズ,0
893,4010003037489,登記記録の閉鎖等,0,2023-08-07,2023-07-19,レクサス四条合同会社,,合同会社,東京都,千代田区,内神田２丁目２番６号５階あすな会計事務所内,,13,101,1010047,,,2023-07-19,合併による解散等,1010003036956,令和５年７月１９日東京都千代田区内神田二丁目２番６号５階あすな会計事務所内レクサスリニューワブル合同会社（1010003036956）に合併し解散,2022-04-13,1,,,,,レクサスシジョウ,0
902,4010502003314,登記記録の閉鎖等,0,2023-08-07,2023-08-01,有限会社錦美企画,,有限会社,東京都,台東区,根岸４丁目１３番２２号,,13,106,1100003,,,2023-08-01,清算の結了等,,,2015-10-05,1,,,,,キンビキカク,0
907,4010701023385,登記記録の閉鎖等,0,2023-08-07,2023-07-25,ＮＵＭＥＣＡジャパン株式会社,,株式会社,神奈川県,横浜市港北区,新横浜２丁目１００番地４５新横浜中央ビル,,14,109,2220033,,,2023-07-25,清算の結了等,,,2015-10-05,1,,,,,ニューメカジャパン,0
909,4010702008732,登記記録の閉鎖等,0,2023-08-07,2023-08-02,有限会社横島製作所,,有限会社,東京都,品川区,西大井４丁目１４番６号,,13,109,1400015,,,2023-08-02,清算の結了等,,,2015-10-05,1,,,,,ヨコシマセイサクショ,0
928,4011402002587,登記記録の閉鎖等,0,2023-08-07,2023-08-03,有限会社木島工務店,,有限会社,東京都,板橋区,大山金井町３４番８号,,13,119,1730024,,,2023-08-03,清算の結了等,,,2015-10-05,1,,,,,キジマコウムテン,0
955,4020002036664,登記記録の閉鎖等,0,2023-08-07,2023-07-20,有限会社ワールドフラワー,,有限会社,神奈川県,横浜市港北区,仲手原２丁目２１番１８号,,14,109,2220023,,,2023-07-20,清算の結了等,,,2015-10-05,1,,,,,ワールドフラワー,0
988,4060002005021,登記記録の閉鎖等,0,2023-08-07,2023-07-20,株式会社アニトマ,,株式会社,栃木県,宇都宮市,鶴田町５０７番地８,,09,201,3200851,,,2023-07-20,清算の結了等,,,2015-10-05,1,,,,,アニトマ,0
1007,4120001234151,登記記録の閉鎖等,0,2023-08-07,2023-07-28,科鵬株式会社,,株式会社,大阪府,大阪市西成区,千本南１丁目１７番２１号２０３－Ｃ室,,27,122,5570055,,,2023-07-28,清算の結了等,,,2021-02-08,1,,,,,カホウ,0
1017,4120901023661,登記記録の閉鎖等,0,2023-08-07,2023-07-28,株式会社興亜電機産業,,株式会社,大阪府,豊中市,上津島１丁目３番１号,,27,203,5610843,,,2023-07-28,清算の結了等,,,2015-10-05,1,,,,,コウアデンキサンギョウ,0
1022,4120902017191,登記記録の閉鎖等,0,2023-08-07,2023-07-31,有限会社リングポンプリサーチ,,有限会社,大阪府,箕面市,桜ケ丘１丁目１０番２２号,,27,220,5620046,,,2023-07-31,清算の結了等,,,2015-10-05,1,,,,,リングポンプリサーチ,0
1027,4130001040920,登記記録の閉鎖等,0,2023-08-07,2023-07-24,株式会社愛友堂,,株式会社,京都府,福知山市,字下新１０番地,,26,201,6200029,,,2023-07-24,清算の結了等,,,2015-10-05,1,,,,,アイユウドウ,0
1030,4130001067906,登記記録の閉鎖等,0,2023-08-07,2023-07-20,株式会社Ｌｕｘ,,株式会社,京都府,乙訓郡大山崎町,字円明寺小字横林２０番地１Ｃ１０２号,,26,303,6180091,,,2023-07-20,清算の結了等,,,2020-11-02,1,,,,,ルークス,0
1040,4140005005258,登記記録の閉鎖等,0,2023-08-07,2023-08-01,ＮＰＯ法人ひかりの家,,その他の設立登記法人,兵庫県,神戸市垂水区,清玄町４番地の１０,,28,108,6550865,,,2023-08-01,清算の結了等,,,2015-10-05,1,,,,,ヒカリノイエ,0
1052,4180001107896,登記記録の閉鎖等,0,2023-08-07,2023-08-04,株式会社慈母縁,,株式会社,愛知県,稲沢市,中之庄町川田６番地１,,23,220,4928435,,,2023-08-04,清算の結了等,,,2015-10-05,1,,,,,ジボエン,0
1053,4180001109455,登記記録の閉鎖等,0,2023-08-07,2023-08-01,株式会社アナザーワン,,株式会社,愛知県,名古屋市北区,光音寺町２丁目４３番地３,,23,103,4620053,,,2023-08-01,合併による解散等,7180001049450,令和５年８月１日名古屋市北区光音寺町二丁目４３番地の４株式会社Ｙ．Ｎ．Ｇ．（7180001049450）に合併し解散,2015-10-05,1,,,,,アナザーワン,0
1055,4180001117292,登記記録の閉鎖等,0,2023-08-07,2023-08-02,橘建設株式会社,,株式会社,愛知県,春日井市,上田楽町３４１３番地６,,23,206,4860801,,,2023-08-02,清算の結了等,,,2015-10-05,1,,,,,タチバナケンセツ,0
1067,4180002064229,登記記録の閉鎖等,0,2023-08-07,2023-07-28,バン有限会社,,有限会社,愛知県,豊明市,新田町吉池１１番地の７,,23,229,4701116,,,2023-07-28,清算の結了等,,,2015-10-05,1,,,,,バン,0
1077,4210005000813,登記記録の閉鎖等,0,2023-08-07,2023-07-27,福井県建築物清掃業協同組合,,その他の設立登記法人,福井県,福井市,江守の里１丁目１００６番地,,18,201,9188035,,,2023-07-27,清算の結了等,,,2015-10-05,1,,,,,フクイケンケンチクブツセイソウギョウ,0
1087,4280001007104,登記記録の閉鎖等,0,2023-08-07,2023-08-01,株式会社ライブリー,,株式会社,島根県,松江市,学園２丁目２６番８号,,32,201,6900825,,,2023-08-01,合併による解散等,3280001002948,令和５年８月１日島根県松江市学園二丁目２５番８号株式会社オレンジロード（3280001002948）に合併し解散,2015-12-02,1,,,,,ライブリー,0
1099,4300003001242,登記記録の閉鎖等,0,2023-08-07,2023-08-01,合同会社Ｈ＆Ｍ,,合同会社,佐賀県,佐賀市,本庄町大字袋４０８番地１９,,41,201,8400023,,,2023-08-01,合併による解散等,7300003000860,令和５年８月１日佐賀市本庄町大字袋４０８番地１９合同会社西木屋（7300003000860）に合併し解散,2016-12-28,1,,,,,エイチアンドエム,0
1102,4310005005983,登記記録の閉鎖等,0,2023-08-07,2023-08-03,特定非営利活動法人オハナ,,その他の設立登記法人,長崎県,南松浦郡新上五島町,阿瀬津郷５８８番地１,,42,411,8533322,,,2023-08-03,清算の結了等,,,2015-10-05,1,,,,,オハナ,0
1103,4320001018393,登記記録の閉鎖等,0,2023-08-07,2023-08-03,株式会社Ｔａｋａｙｏｓｈｉ　Ｈｏｍｅ,,株式会社,大分県,大分市,賀来北２丁目２２番２５号ピュアコート賀来１階,,44,201,8700848,,,2023-08-03,清算の結了等,,,2021-05-31,1,,,,,タカヨシホーム,0
1111,4350001008573,登記記録の閉鎖等,0,2023-08-07,2023-07-28,株式会社西部運輸建設,,株式会社,宮崎県,都城市,志比田町９６９０番地１,,45,202,8850093,,,2023-07-28,清算の結了等,,,2015-10-05,1,,,,,セイブウンユケンセツ,0
1126,4380002024410,登記記録の閉鎖等,0,2023-08-07,2023-08-01,有限会社西大商事,,有限会社,福島県,いわき市,大久町大久字北田１８番地の１,,07,204,9790338,,,2023-08-01,合併による解散等,3380001013167,令和５年８月１日福島県いわき市大久町大久字北田１８番地の１株式会社西大ハウス（3380001013167）に合併し解散,2015-10-05,1,,,,,セイダイショウジ,0
1129,4390003001878,登記記録の閉鎖等,0,2023-08-07,2023-08-02,合同会社Ｍ＆Ｋ財務パートナー,,合同会社,山形県,天童市,一日町１丁目１１番３０号,,06,210,9940044,,,2023-08-02,清算の結了等,,,2021-10-05,1,,,,,エムアンドケーザイムパートナー,0
1156,4430005014155,登記記録の閉鎖等,0,2023-08-07,2023-07-14,一般社団法人スモールタウンアーティスト,,その他の設立登記法人,北海道,札幌市中央区,北六条西２０丁目１番１０号,,01,101,0600006,,,2023-07-14,清算の結了等,,,2021-04-05,1,,,,,スモールタウンアーティスト,0
1182,5010002004704,登記記録の閉鎖等,0,2023-08-07,2023-07-27,有限会社ＦＰカンパニー,,有限会社,東京都,文京区,白山１丁目３２番５号,,13,105,1130001,,,2023-07-27,清算の結了等,,,2015-10-05,1,,,,,エフピーカンパニー,0
1198,5010503003873,登記記録の閉鎖等,0,2023-08-07,2023-08-02,ＮＳ企画合同会社,,合同会社,東京都,台東区,西浅草３丁目４番１０号,,13,106,1110035,,,2023-08-02,清算の結了等,,,2015-10-05,1,,,,,エヌエスキカク,0
1201,5010601054728,登記記録の閉鎖等,0,2023-08-07,2023-08-02,株式会社アオ,,株式会社,東京都,江東区,大島５丁目３５番１３号,,13,108,1360072,,,2023-08-02,清算の結了等,,,2018-12-05,1,,,,,アオ,0
1207,5010802012922,登記記録の閉鎖等,0,2023-08-07,2023-08-03,有限会社勉強亭,,有限会社,東京都,大田区,羽田１丁目１０番１８号,,13,111,1440043,,,2023-08-03,清算の結了等,,,2015-10-05,1,,,,,ベンキョウテイ,0
1212,5011001029007,登記記録の閉鎖等,0,2023-08-07,2023-07-27,株式会社フレンズ・カンパニイ・デザインオフィス,,株式会社,東京都,中央区,銀座２丁目３－１９,,13,102,1040061,,,2023-07-27,清算の結了等,,,2015-10-05,1,,,,,フレンズカンパニイデザインオフィス,0
1220,5011101070026,登記記録の閉鎖等,0,2023-08-07,2023-08-03,株式会社宇野事務所,,株式会社,東京都,新宿区,高田馬場１丁目２８番１０号三慶ビル３階３号室,,13,104,1690075,,,2023-08-03,合併による解散等,4011001100123,令和５年８月１日東京都新宿区高田馬場一丁目２８番１０号三慶ビル３階３号室株式会社ＰＬＡＮＥＴＳ（4011001100123）に合併し解散,2015-10-05,1,,,,,ウノジムショ,0
1226,5011601010836,登記記録の閉鎖等,0,2023-08-07,2023-08-02,株式会社共立エージェンシー,,株式会社,東京都,練馬区,富士見台２丁目１０番２号,,13,120,1770034,,,2023-08-02,清算の結了等,,,2015-10-05,1,,,,,キョウリツエージェンシー,0
1227,5011801038090,登記記録の閉鎖等,0,2023-08-07,2023-08-01,再起動株式会社,,株式会社,東京都,足立区,保木間１丁目３７番２号,,13,121,1210064,,,2023-08-01,合併による解散等,1011801020366,令和５年８月１日東京都足立区保木間一丁目３７番２号リブート株式会社（1011801020366）に合併し解散,2020-09-09,1,,,,,サイキドウ,0
1235,5013302021468,登記記録の閉鎖等,0,2023-08-07,2023-07-28,有限会社アートメディア,,有限会社,東京都,豊島区,要町３丁目２３番１２号クレセントビル３階,,13,116,1710043,,,2023-07-28,清算の結了等,,,2015-10-05,1,,,,,アートメディア,0
1244,5020003010691,登記記録の閉鎖等,0,2023-08-07,2023-07-25,株式会社イアトロス,,株式会社,神奈川県,横浜市港北区,篠原北１丁目１６番２６号,,14,109,2220021,,,2023-07-25,清算の結了等,,,2015-12-11,1,,,,,イアトロス,0
1265,5040001011368,登記記録の閉鎖等,0,2023-08-07,2023-07-12,株式会社ビッグフィールド,,株式会社,千葉県,千葉市中央区,仁戸名町４８３番地の５,,12,101,2600801,,,2023-07-12,清算の結了等,,,2015-10-05,1,,,,,ビッグフィールド,0
1267,5040001093423,登記記録の閉鎖等,0,2023-08-07,2023-07-18,株式会社グラブハーツ,,株式会社,千葉県,松戸市,横須賀１丁目１１番地の１４,,12,207,2700031,,,2023-07-18,清算の結了等,,,2015-12-24,1,,,,,グラブハーツ,0
1268,5040001097597,登記記録の閉鎖等,0,2023-08-07,2023-07-13,株式会社イメージストリート,,株式会社,千葉県,松戸市,日暮３丁目１０番地の５,,12,207,2702253,,,2023-07-13,清算の結了等,,,2016-11-14,1,,,,,イメージストリート,0
1277,5050002014187,登記記録の閉鎖等,0,2023-08-07,2023-07-31,有限会社兼子建材,,有限会社,茨城県,かすみがうら市,高倉１０６７番地,,08,230,3150077,,,2023-07-31,清算の結了等,,,2015-10-05,1,,,,,カネコケンザイ,0
1280,5050005008665,登記記録の閉鎖等,0,2023-08-07,2023-07-27,農事組合法人奥久慈百姓倶楽部,,その他の設立登記法人,茨城県,常陸大宮市,盛金２４２７番地の３,,08,225,3193102,,,2023-07-27,清算の結了等,,,2015-10-05,1,,,,,オククジヒャクショウクラブ,0
1282,5070005007962,登記記録の閉鎖等,0,2023-08-07,2023-08-02,特定非営利活動法人群馬ローカルクラブ,,その他の設立登記法人,群馬県,伊勢崎市,柴町３３７番地３,,10,204,3720824,,,2023-08-02,清算の結了等,,,2015-10-05,1,,,,,グンマローカルクラブ,0
1283,5080003001553,登記記録の閉鎖等,0,2023-08-07,2023-08-03,株式会社ノルド・リネアタラーラ,,株式会社,静岡県,藤枝市,水守２丁目４番地の１１,,22,214,4260005,,,2023-08-03,合併による解散等,9010901013669,令和５年７月３１日東京都世田谷区用賀三丁目１２番１９号株式会社リネアタラーラ（9010901013669）に合併し解散,2015-10-05,1,,,,,ノルドリネアタラーラ,0
1294,5100005004634,登記記録の閉鎖等,0,2023-08-07,2023-07-25,特定非営利活動法人千年のまちづくり,,その他の設立登記法人,長野県,小県郡長和町,古町２４６７番地,,20,350,3860603,,,2023-07-25,清算の結了等,,,2015-10-05,1,,,,,センネンノマチヅクリ,0
1296,5110001032605,登記記録の閉鎖等,0,2023-08-07,2023-07-27,株式会社ブレント,,株式会社,新潟県,新潟市中央区,上大川前通７番町１２３７番地４,,15,103,9518068,,,2023-07-27,清算の結了等,,,2017-08-01,1,,,,,ブレント,0
1299,5120001117116,登記記録の閉鎖等,0,2023-08-07,2023-08-01,グッドクロス株式会社,,株式会社,大阪府,大阪市北区,曾根崎２丁目８番５号,,27,127,5300057,,,2023-08-01,合併による解散等,8120001097974,令和５年８月１日大阪市福島区福島六丁目１３番６号アイブリッジ株式会社（8120001097974）に合併し解散,2015-10-05,1,,,,,グッドクロス,0
1301,5120001162351,登記記録の閉鎖等,0,2023-08-07,2023-08-01,株式会社エム・アンド・アイ,,株式会社,大阪府,大阪市中央区,高麗橋２丁目６番１０号,,27,128,5410043,,,2023-08-01,清算の結了等,,,2015-10-05,1,,,,,エムアンドアイ,0
1332,5130002022479,登記記録の閉鎖等,0,2023-08-07,2023-07-25,有限会社キャズ,,有限会社,京都府,京都市山科区,御陵上御廟野町７番地１,00037700,26,110,6078425,,,2023-07-25,清算の結了等,,,2015-10-05,1,,,,,キャズ,0
1333,5130002022867,登記記録の閉鎖等,0,2023-08-07,2023-07-21,有限会社ヤマモト,,有限会社,京都府,京都市北区,紫竹西桃ノ本町７３番地,,26,101,6038208,,,2023-07-21,清算の結了等,,,2015-10-05,1,,,,,ヤマモト,0
1359,5180003002070,登記記録の閉鎖等,0,2023-08-07,2023-08-01,合資会社味覚,,合資会社,愛知県,名古屋市南区,星崎町字阿原３４３番地,,23,112,4570062,,,2023-08-01,清算の結了等,,,2015-10-05,1,,,,,ミカク,0
1375,5190001027531,登記記録の閉鎖等,0,2023-08-07,2023-07-31,株式会社玉響,,株式会社,三重県,四日市市,天カ須賀１丁目４番２号,,24,202,5108001,,,2023-07-31,清算の結了等,,,2020-07-21,1,,,,,タマユラ,0
1383,5220001011102,登記記録の閉鎖等,0,2023-08-07,2023-08-01,株式会社リプラス,,株式会社,石川県,金沢市,湊２丁目１２０番地１５,,17,201,9200211,,,2023-08-01,合併による解散等,2220001000677,令和５年８月１日石川県金沢市湊二丁目１２０番地１５株式会社アクセス（2220001000677）に合併し解散,2015-10-05,1,,,,,リプラス,0
1389,5260002003078,登記記録の閉鎖等,0,2023-08-07,2023-08-01,有限会社協明不動産,,有限会社,岡山県,岡山市北区,錦町１番２７号,,33,101,7000902,,,2023-08-01,清算の結了等,,,2015-10-05,1,,,,,キョウメイフドウサン,0
1391,5260002011147,登記記録の閉鎖等,0,2023-08-07,2023-08-01,有限会社花本工作所,,有限会社,岡山県,赤磐市,岩田４１９番地の１,,33,213,7090822,,,2023-08-01,清算の結了等,,,2015-10-05,1,,,,,ハナモトコウサクショ,0
1406,5290001088118,登記記録の閉鎖等,0,2023-08-07,2023-07-14,株式会社ヒラキグループ,,株式会社,福岡県,福岡市中央区,今泉１丁目２番８号ＡＮＤＯＮ３Ｄ,,40,133,8100021,,,2023-07-14,清算の結了等,,,2020-02-19,1,,,,,ヒラキグループ,0
1434,5350003003480,登記記録の閉鎖等,0,2023-08-07,2023-07-28,合同会社マリーフーズ,,合同会社,宮崎県,都城市,都北町５６２０－１,,45,202,8850004,,,2023-07-28,清算の結了等,,,2020-01-08,1,,,,,マリーフーズ,0
1435,5360001025526,登記記録の閉鎖等,0,2023-08-07,2023-08-03,点点心株式会社,,株式会社,沖縄県,中頭郡北谷町,字宮城１番地１アルトゥーレ美浜１４１３,,47,326,9040113,,,2023-08-03,清算の結了等,,,2019-04-23,1,,,,,テンテンシン,0
1438,5370001025491,登記記録の閉鎖等,0,2023-08-07,2023-07-31,株式会社大黒屋,,株式会社,宮城県,仙台市太白区,八木山緑町１２番１号,,04,104,9820832,,,2023-07-31,清算の結了等,,,2015-10-05,1,,,,,,0
1488,6010403018062,登記記録の閉鎖等,0,2023-08-07,2023-07-31,合同会社志布志松元発電所,,合同会社,東京都,港区,芝公園２丁目２番１０号中和ビル３階,,13,103,1050011,,,2023-07-31,合併による解散等,9010403017078,令和５年７月３１日東京都港区芝公園二丁目２番１０号中和ビル３階ＧＰＳＳ４合同会社（9010403017078）に合併し解散,2018-02-09,1,,,,,シブシマツモトハツデンショ,0
1530,6012801018544,登記記録の閉鎖等,0,2023-08-07,2023-07-31,株式会社オフィス・サンライズ,,株式会社,東京都,国分寺市,西恋ヶ窪１丁目２９番地３５,,13,214,1850013,,,2023-07-31,清算の結了等,,,2018-02-06,1,,,,,オフィスサンライズ,0
1564,6021005004061,登記記録の閉鎖等,0,2023-08-07,2023-08-01,特定非営利活動法人日本わらべうた協会,,その他の設立登記法人,神奈川県,厚木市,林１丁目１７番１号,,14,212,2430816,,,2023-08-01,清算の結了等,,,2015-10-05,1,,,,,ニホンワラベウタキョウカイ,0
1565,6030001043923,登記記録の閉鎖等,0,2023-08-07,2023-07-11,株式会社上田企画,,株式会社,埼玉県,上尾市,緑丘２丁目１０番１４号,,11,219,3620015,,,2023-07-11,清算の結了等,,,2015-10-05,1,,,,,ウエダキカク,0
1567,6030001134078,登記記録の閉鎖等,0,2023-08-07,2023-07-12,株式会社アライ企画,,株式会社,埼玉県,さいたま市見沼区,大字東門前３８８番地３,,11,104,3370016,,,2023-07-12,清算の結了等,,,2019-12-09,1,,,,,アライキカク,0
1571,6030002057798,登記記録の閉鎖等,0,2023-08-07,2023-07-12,有限会社ＴＫエクステリア,,有限会社,埼玉県,上尾市,大字小敷谷８４５番地１,,11,219,3620064,,,2023-07-12,清算の結了等,,,2015-10-05,1,,,,,ティーケーエクステリア,0
1572,6030002089882,登記記録の閉鎖等,0,2023-08-07,2023-07-12,有限会社イワキ三郷吉川,,有限会社,埼玉県,吉川市,高富２丁目２番地２,,11,243,3420036,,,2023-07-12,清算の結了等,,,2015-10-05,1,,,,,イワキミサトヨシカワ,0
1575,6040001015293,登記記録の閉鎖等,0,2023-08-07,2023-07-13,シマ・プロダクツ株式会社,,株式会社,千葉県,習志野市,谷津４丁目４番１６－２０４号,,12,216,2750026,,,2023-07-13,清算の結了等,,,2015-10-05,1,,,,,シマプロダクツ,0
1579,6040001111927,登記記録の閉鎖等,0,2023-08-07,2023-07-03,株式会社令和建設,,株式会社,千葉県,千葉市中央区,星久喜町９４３番地７エコーハイツ２０３号,,12,101,2600808,,,2023-07-03,清算の結了等,,,2019-12-19,1,,,,,レイワケンセツ,0
1599,6080001020926,登記記録の閉鎖等,0,2023-08-07,2023-08-02,株式会社エフ・ナレッジ,,株式会社,静岡県,藤枝市,前島１丁目１０番９号,,22,214,4260067,,,2023-08-02,清算の結了等,,,2016-05-13,1,,,,,エフナレッジ,0
1607,6120001175815,登記記録の閉鎖等,0,2023-08-07,2023-08-04,株式会社オージーハウス,,株式会社,大阪府,大阪市中央区,南船場３丁目８番５号南船場ビル４０２号室,,27,128,5420081,,,2023-08-04,清算の結了等,,,2015-10-05,1,,,,,オージーハウス,0
1628,6122001012493,登記記録の閉鎖等,0,2023-08-07,2023-08-01,株式会社ワイム,,株式会社,大阪府,大阪市淀川区,西中島３丁目２１番９号,,27,123,5320011,,,2023-08-01,合併による解散等,4120002069902,令和５年７月３１日大阪市淀川区西中島三丁目２２番２号株式会社ＦＬＯＷ（4120002069902）に合併し解散,2015-10-05,1,,,,,ワイム,0
1632,6130002032618,登記記録の閉鎖等,0,2023-08-07,2023-07-24,有限会社サンマリオ企画,,有限会社,京都府,福知山市,字堀２２４８番地の１,,26,201,6200000,,,2023-07-24,清算の結了等,,,2015-10-05,1,,,,,サンマリオキカク,0
1636,6140002049025,登記記録の閉鎖等,0,2023-08-07,2023-07-31,有限会社城南,,有限会社,兵庫県,姫路市,御立西３丁目８番１６号,,28,201,6700074,,,2023-07-31,清算の結了等,,,2015-10-05,1,,,,,ジョウナン,0
1637,6140005011980,登記記録の閉鎖等,0,2023-08-07,2023-07-07,坊岡生産森林組合,,その他の設立登記法人,兵庫県,豊岡市,竹野町坊岡７７番地の２,,28,209,6696331,,,2023-07-07,清算の結了等,,,2015-10-05,1,,,,,ボウオカ,0
1641,6160002010827,登記記録の閉鎖等,0,2023-08-07,2023-08-02,有限会社ホープ装工,,有限会社,滋賀県,近江八幡市,友定町３６７番地の１,,25,204,5230011,,,2023-08-02,清算の結了等,,,2015-10-05,1,,,,,ホープソウコウ,0
1665,6210002000962,登記記録の閉鎖等,0,2023-08-07,2023-08-02,有限会社上口商事,,有限会社,福井県,福井市,丸山１丁目１２１０番地,,18,201,9100834,,,2023-08-02,清算の結了等,,,2015-10-05,1,,,,,カミグチショウジ,0
1678,6240002032805,登記記録の閉鎖等,0,2023-08-07,2023-08-02,有限会社コスモメディカル,,有限会社,広島県,呉市,宮原３丁目９番２１号,,34,202,7370024,,,2023-08-02,清算の結了等,,,2015-10-05,1,,,,,コスモメディカル,0
1680,6240005013785,登記記録の閉鎖等,0,2023-08-07,2023-08-02,特定非営利活動法人ＰＰＫしょうばら,,その他の設立登記法人,広島県,庄原市,西本町２丁目１９番１号,,34,210,7270013,,,2023-08-02,清算の結了等,,,2015-10-05,1,,,,,ピーピーケーショウバラ,0
1700,6300001008543,登記記録の閉鎖等,0,2023-08-07,2023-08-03,パクス株式会社,,株式会社,佐賀県,伊万里市,大坪町甲１５３２番地２,,41,205,8480021,,,2023-08-03,清算の結了等,,,2015-10-05,1,,,,,パクス,0
1703,6300003001240,登記記録の閉鎖等,0,2023-08-07,2023-08-01,合同会社ＭＡＭＥ,,合同会社,佐賀県,佐賀市,本庄町大字袋４０８番地１９,,41,201,8400023,,,2023-08-01,合併による解散等,7300003000860,令和５年８月１日佐賀市本庄町大字袋４０８番地１９合同会社西木屋（7300003000860）に合併し解散,2016-12-28,1,,,,,マメ,0
1704,6320001014655,登記記録の閉鎖等,0,2023-08-07,2023-08-01,株式会社阪神大分,,株式会社,大分県,大分市,政所１丁目２番６号,,44,201,8700268,,,2023-08-01,清算の結了等,,,2016-01-06,1,,,,,ハンシンオオイタ,0
1715,6360001008876,登記記録の閉鎖等,0,2023-08-07,2023-08-01,株式会社ステーション・ピー,,株式会社,沖縄県,宜野湾市,大山３丁目５番１号３階,,47,205,9012223,,,2023-08-01,合併による解散等,2360001008500,令和５年８月１日沖縄県浦添市沢岻二丁目１７番１号株式会社オーシーシー（2360001008500）に合併し解散,2015-10-05,1,,,,,ステーションピー,0
1716,6360001008975,登記記録の閉鎖等,0,2023-08-07,2023-08-01,株式会社データサービス沖縄,,株式会社,沖縄県,浦添市,沢岻２丁目１７番１号,,47,208,9012112,,,2023-08-01,合併による解散等,2360001008500,令和５年８月１日沖縄県浦添市沢岻二丁目１７番１号株式会社オーシーシー（2360001008500）に合併し解散,2015-10-05,1,,,,,データサービスオキナワ,0
1717,6360001017596,登記記録の閉鎖等,0,2023-08-07,2023-07-27,株式会社オフィス生田,,株式会社,沖縄県,沖縄市,上地３丁目１番３号小浜アパート３０２,,47,211,9040031,,,2023-07-27,清算の結了等,,,2015-10-05,1,,,,,オフィスイクタ,0
1718,6370001042882,登記記録の閉鎖等,0,2023-08-07,2023-07-31,株式会社ブリッチ,,株式会社,宮城県,仙台市青葉区,大手町６－１１,,04,101,9800805,,,2023-07-31,清算の結了等,,,2018-04-10,1,,,,,,0
1724,6380002012941,登記記録の閉鎖等,0,2023-08-07,2023-08-01,有限会社ユニオンメタル,,有限会社,福島県,郡山市,喜久田町字菖蒲池２２番地の４６１,,07,203,9630551,,,2023-08-01,清算の結了等,,,2015-10-05,1,,,,,ユニオンメタル,0
1727,6390002001828,登記記録の閉鎖等,0,2023-08-07,2023-08-01,有限会社テイアンドテイ,,有限会社,山形県,山形市,双月町２丁目６番１１号,,06,201,9900065,,,2023-08-01,清算の結了等,,,2015-10-05,1,,,,,テイアンドテイ,0
1731,6400001013797,登記記録の閉鎖等,0,2023-08-07,2023-07-24,大崎工業株式会社,,株式会社,岩手県,奥州市,胆沢小山字岩ケ馬場１８番地３４,,03,215,0230402,,,2023-07-24,清算の結了等,,,2017-07-27,1,,,,,オオサキコウギョウ,0
1735,6400603000268,登記記録の閉鎖等,0,2023-08-07,2023-07-26,合同会社高田商店,,合同会社,岩手県,奥州市,江刺岩谷堂字向山３番地７４,,03,215,0231101,,,2023-07-26,清算の結了等,,,2015-10-05,1,,,,,タカダショウテン,0
1746,6430005003791,登記記録の閉鎖等,0,2023-08-07,2023-07-18,特定非営利活動法人北の映像ミュージアム,,その他の設立登記法人,北海道,札幌市中央区,南二条西５丁目６番地７株式会社亜璃西社内,,01,101,0600062,,,2023-07-18,清算の結了等,,,2015-10-05,1,,,,,キタノエイゾウミュージアム,0
1770,7010001176096,登記記録の閉鎖等,0,2023-08-07,2023-07-26,蜂医科学研究所株式会社,,株式会社,東京都,中央区,日本橋茅場町３丁目１０番２号ＳＫＫビル５階,,13,102,1030025,,,2023-07-26,清算の結了等,,,2016-06-09,1,,,,,ハチイカガクケンキュウジョ,0
1771,7010001185428,登記記録の閉鎖等,0,2023-08-07,2023-07-27,株式会社アクアビット,,株式会社,東京都,中央区,東日本橋３丁目１２番１１号東日本橋ＴＳビル７Ｆ,,13,102,1030004,,,2023-07-27,清算の結了等,,,2017-08-07,1,,,,,アクアビット,0
1791,7010701014951,登記記録の閉鎖等,0,2023-08-07,2023-08-01,飛鳥ガス株式会社,,株式会社,東京都,品川区,東品川３丁目３２番２１号,,13,109,1400002,,,2023-08-01,合併による解散等,7010701037143,令和５年８月１日東京都品川区東品川三丁目３２番２１号飛鳥ガス株式会社（7010701037143）に合併し解散,2015-10-05,1,,,,,アスカガス,0
1807,7011002013370,登記記録の閉鎖等,0,2023-08-07,2023-07-28,有限会社ヤブノ事務所,,有限会社,東京都,渋谷区,幡ヶ谷１丁目１番５号第１岩田ビル７０５号,,13,113,1510072,,,2023-07-28,清算の結了等,,,2015-10-05,1,,,,,ヤブノジムショ,0
1811,7011101064315,登記記録の閉鎖等,0,2023-08-07,2023-07-27,株式会社ウィリスト,,株式会社,東京都,千代田区,神田佐久間町３丁目３７－６４スズセービル３Ｆ,,13,101,1010025,,,2023-07-27,清算の結了等,,,2015-10-05,1,,,,,ウィリスト,0
1813,7011101086656,登記記録の閉鎖等,0,2023-08-07,2023-08-03,パンケーキ株式会社,,株式会社,東京都,新宿区,四谷本塩町３－３,,13,104,1600003,,,2023-08-03,清算の結了等,,,2019-01-28,1,,,,,パンケーキ,0
1825,7011502009744,登記記録の閉鎖等,0,2023-08-07,2023-08-01,有限会社荒川彩花,,有限会社,東京都,荒川区,西尾久８丁目２９番６号,,13,118,1160011,,,2023-08-01,清算の結了等,,,2015-10-05,1,,,,,アラカワサイカ,0
1832,7012402019271,登記記録の閉鎖等,0,2023-08-07,2023-08-03,有限会社続橋電気商会,,有限会社,東京都,三鷹市,新川４丁目２５番１５－１０４号,,13,204,1810004,,,2023-08-03,清算の結了等,,,2015-10-05,1,,,,,ツヅキハシデンキショウカイ,0
1857,7021002048878,登記記録の閉鎖等,0,2023-08-07,2023-07-31,有限会社キト,,有限会社,神奈川県,大和市,中央林間４丁目８番１７号シャロン中央林間１０５号,,14,213,2420007,,,2023-07-31,清算の結了等,,,2015-10-05,1,,,,,キト,0
1864,7030001017026,登記記録の閉鎖等,0,2023-08-07,2023-07-13,株式会社アクアス・チェスタ,,株式会社,埼玉県,さいたま市見沼区,大字山１６０番地１,,11,104,3370025,,,2023-07-13,清算の結了等,,,2015-10-05,1,,,,,アクアスチェスタ,0
1872,7040001042007,登記記録の閉鎖等,0,2023-08-07,2023-07-13,株式会社エクセル,,株式会社,千葉県,松戸市,根本１３番地の１,,12,207,2710077,,,2023-07-13,清算の結了等,,,2015-10-05,1,,,,,エクセル,0
1898,7060001030249,登記記録の閉鎖等,0,2023-08-07,2023-07-25,株式会社ＣＩＡ,,株式会社,栃木県,那須烏山市,下境６４５番地１,,09,215,3210616,,,2023-07-25,清算の結了等,,,2018-02-16,1,,,,,シーアイエー,0
1913,7080402018139,登記記録の閉鎖等,0,2023-08-07,2023-08-02,有限会社朝日,,有限会社,静岡県,掛川市,大坂９０１番地の３,,22,213,4371421,,,2023-08-02,清算の結了等,,,2015-10-05,1,,,,,アサヒ,0
1917,7100002011342,登記記録の閉鎖等,0,2023-08-07,2023-08-01,有限会社ケン・コーポレーション,,有限会社,長野県,佐久市,田口６３１６番地５,,20,217,3840412,,,2023-08-01,合併による解散等,5100001007517,令和５年８月１日長野県佐久市田口６３３３番地株式会社アルガ商事（5100001007517）に合併し解散,2015-10-05,1,,,,,ケンコーポレーション,0
1919,7120001006754,登記記録の閉鎖等,0,2023-08-07,2023-08-02,大阪医薬品工業株式会社,,株式会社,大阪府,柏原市,円明町１０番６号,,27,221,5820027,,,2023-08-02,清算の結了等,,,2015-10-05,1,,,,,オオサカイヤクヒンコウギョウ,0
1946,7130002000598,登記記録の閉鎖等,0,2023-08-07,2023-07-21,有限会社こいのぼり,,有限会社,京都府,京都市右京区,常盤出口町１２番地４４,,26,108,6168218,,,2023-07-21,清算の結了等,,,2015-10-05,1,,,,,コイノボリ,0
1948,7130003002346,登記記録の閉鎖等,0,2023-08-07,2023-07-20,ワーログ合同会社,,合同会社,京都府,京都市左京区,岩倉長谷町６４９番地,,26,103,6060026,,,2023-07-20,清算の結了等,,,2015-10-05,1,,,,,ワーログ,0
1962,7180001001923,登記記録の閉鎖等,0,2023-08-07,2023-08-01,ケイ・ワイテクノシステム株式会社,,株式会社,愛知県,名古屋市西区,平出町３９番地,,23,104,4520832,,,2023-08-01,清算の結了等,,,2015-10-05,1,,,,,ケイワイテクノシステム,0
1970,7180001118305,登記記録の閉鎖等,0,2023-08-07,2023-08-01,株式会社さとう,,株式会社,愛知県,名古屋市北区,金城１丁目２番１－１２５号,,23,103,4620847,,,2023-08-01,清算の結了等,,,2015-10-05,1,,,,,サトウ,0
1982,7180002063070,登記記録の閉鎖等,0,2023-08-07,2023-08-02,有限会社くれたけ商事,,有限会社,愛知県,日進市,藤塚６丁目３１０番地,,23,230,4700117,,,2023-08-02,清算の結了等,,,2015-10-05,1,,,,,クレタケショウジ,0
1985,7180003005237,登記記録の閉鎖等,0,2023-08-07,2023-08-03,合資会社大正湯,,合資会社,愛知県,名古屋市中区,新栄３丁目１８番１６号,,23,106,4600007,,,2023-08-03,清算の結了等,,,2015-10-05,1,,,,,タイショウユ,0
1992,7180302012958,登記記録の閉鎖等,0,2023-08-07,2023-07-25,有限会社オーエム総合保険事務所,,有限会社,愛知県,豊川市,伊奈町古当１番地８,,23,207,4410105,,,2023-07-25,清算の結了等,,,2015-10-05,1,,,,,オーエムソウゴウホケンジムショ,0
2013,7240001019934,登記記録の閉鎖等,0,2023-08-07,2023-08-03,株式会社サンリープ,,株式会社,広島県,広島市西区,古江西町３０番８－１０２号,,34,104,7330874,,,2023-08-03,清算の結了等,,,2015-10-05,1,,,,,サンリープ,0
2029,7290005009852,登記記録の閉鎖等,0,2023-08-07,2023-07-25,久留米西鉄駅前商店街振興組合,,その他の設立登記法人,福岡県,久留米市,東町３９番地の９,,40,203,8300032,,,2023-07-25,清算の結了等,,,2015-10-05,1,,,,,,0
2031,7290802018353,登記記録の閉鎖等,0,2023-08-07,2023-08-03,有限会社きれいや,,有限会社,福岡県,北九州市八幡東区,白川町１番７号,,40,108,8050007,,,2023-08-03,清算の結了等,,,2015-10-05,1,,,,,キレイヤ,0
2035,7330001010867,登記記録の閉鎖等,0,2023-08-07,2023-07-18,株式会社遊歩人,,株式会社,熊本県,熊本市中央区,水前寺公園２８番２３－３０３号,,43,101,8620956,,,2023-07-18,合併による解散等,4330003003822,令和５年７月１５日熊本市中央区水前寺公園２８番２３－３０３号合同会社草野企画（4330003003822）に合併し解散,2015-10-05,1,,,,,ユウホジン,0
2036,7330003006293,登記記録の閉鎖等,0,2023-08-07,2023-07-21,合同会社田崎物産,,合同会社,熊本県,熊本市南区,川尻１丁目１番１３号,,43,104,8614115,,,2023-07-21,清算の結了等,,,2015-10-05,1,,,,,タサキブッサン,0
2044,7370002001804,登記記録の閉鎖等,0,2023-08-07,2023-07-27,有限会社マツダ,,有限会社,新潟県,新潟市中央区,西大畑町５８６番地３０,,15,103,9518104,,,2023-07-27,清算の結了等,,,2015-10-05,1,,,,,マツダ,0
2059,7450002009979,登記記録の閉鎖等,0,2023-08-07,2023-08-02,有限会社やまぐちビデオ・トゥエンティワン,,有限会社,北海道,名寄市,西十二条南１２丁目７５番地９８,,01,221,0960022,,,2023-08-02,清算の結了等,,,2015-10-05,1,,,,,ヤマグチビデオトゥエンティワン,0
2092,8010403017079,登記記録の閉鎖等,0,2023-08-07,2023-07-31,ＧＰＳＳ５合同会社,,合同会社,東京都,港区,芝公園２丁目２番１０号中和ビル３階,,13,103,1050011,,,2023-07-31,合併による解散等,9010403017078,令和５年７月３１日東京都港区芝公園二丁目２番１０号中和ビル３階ＧＰＳＳ４合同会社（9010403017078）に合併し解散,2017-08-22,1,,,,,ジーピーエスエスファイブ,0
2100,8010602006948,登記記録の閉鎖等,0,2023-08-07,2023-08-01,有限会社建由木工所,,有限会社,東京都,江東区,森下１丁目１１番７号,,13,108,1350004,,,2023-08-01,清算の結了等,,,2015-10-05,1,,,,,タテヨシモッコウショ,0
2106,8010901027950,登記記録の閉鎖等,0,2023-08-07,2023-07-31,ロータス・ブルー株式会社,,株式会社,東京都,千代田区,麹町２丁目１０番地１０パレスサイドステージホームズ麹町２０１,,13,101,1020083,,,2023-07-31,清算の結了等,,,2015-10-05,1,,,,,ロータスブルー,0
2108,8010901028602,登記記録の閉鎖等,0,2023-08-07,2023-07-31,株式会社ロウズ,,株式会社,東京都,世田谷区,池尻３丁目２７番２０－５０１号,,13,112,1540001,,,2023-07-31,清算の結了等,,,2015-10-05,1,,,,,ロウズ,0
2111,8011001054191,登記記録の閉鎖等,0,2023-08-07,2023-07-03,株式会社ハーツリー,,株式会社,東京都,品川区,東品川４丁目１２番４号,,13,109,1400002,,,2023-07-03,合併による解散等,3011001046912,令和５年７月１日東京都品川区東品川四丁目１２番４号株式会社ゴルフ・アライアンス（3011001046912）に合併し解散,2015-10-05,1,,,,,ハーツリー,0
2112,8011001061023,登記記録の閉鎖等,0,2023-08-07,2023-07-31,株式会社カザス,,株式会社,東京都,昭島市,玉川町３丁目７番５号,,13,207,1960034,,,2023-07-31,清算の結了等,,,2015-10-05,1,,,,,カザス,0
2113,8011001067243,登記記録の閉鎖等,0,2023-08-07,2023-07-31,株式会社Ｗｙｚａｒｔ,,株式会社,東京都,中央区,佃１丁目１１番３号パークサイドウィングス１２０１号,,13,102,1040051,,,2023-07-31,清算の結了等,,,2015-10-05,1,,,,,ワイザート,0
2114,8011001097232,登記記録の閉鎖等,0,2023-08-07,2023-08-01,ＣＣＣ株式会社,,株式会社,東京都,渋谷区,円山町３番１号小木曽ビル３Ｆ,,13,113,1500044,,,2023-08-01,合併による解散等,4011001131457,令和５年８月１日東京都渋谷区円山町３番１号小木曽ビル３Ｆ株式会社リアライズ（4011001131457）に合併し解散,2015-10-05,1,,,,,シーシーシー,0
2127,8011401010959,登記記録の閉鎖等,0,2023-08-07,2023-08-03,株式会社はなみずき,,株式会社,東京都,板橋区,西台１丁目４４番５号,,13,119,1740045,,,2023-08-03,清算の結了等,,,2015-10-05,1,,,,,ハナミズキ,0
2129,8011505000022,登記記録の閉鎖等,0,2023-08-07,2023-08-02,都北工業協同組合,,その他の設立登記法人,東京都,台東区,東上野１丁目１番１４号,,13,106,1100015,,,2023-08-02,清算の結了等,,,2015-10-05,1,,,,,トホクコウギョウ,0
2139,8012801001639,登記記録の閉鎖等,0,2023-08-07,2023-07-31,メカノエレクトロニック株式会社,,株式会社,東京都,立川市,柏町４丁目１２番３号,,13,202,1900004,,,2023-07-31,清算の結了等,,,2015-10-05,1,,,,,,0
2144,8020001016515,登記記録の閉鎖等,0,2023-08-07,2023-07-25,株式会社アイメーク,,株式会社,神奈川県,横浜市緑区,鴨居２丁目１６番１１号,,14,113,2260003,,,2023-07-25,清算の結了等,,,2015-10-05,1,,,,,アイメーク,0
2155,8020002069181,登記記録の閉鎖等,0,2023-08-07,2023-07-26,有限会社港北エヌテック,,有限会社,神奈川県,横浜市都筑区,荏田南５丁目６番１１号,,14,118,2240007,,,2023-07-26,清算の結了等,,,2015-10-05,1,,,,,コウホクエヌテック,0
2162,8021001058737,登記記録の閉鎖等,0,2023-08-07,2023-07-28,株式会社ＭＧＣ,,株式会社,神奈川県,大和市,中央林間西５丁目４番１３号,,14,213,2420008,,,2023-07-28,清算の結了等,,,2016-03-10,1,,,,,エムジーシー,0
2173,8030003008344,登記記録の閉鎖等,0,2023-08-07,2023-07-26,グクエドホールディングス合同会社,,合同会社,東京都,千代田区,神田三崎町３丁目１０番１７号インターバンク水道橋ビル,,13,101,1010061,,,2023-07-26,清算の結了等,,,2016-01-20,1,,,,,グクエドホールディングス,0
2207,8080002013299,登記記録の閉鎖等,0,2023-08-07,2023-08-03,有限会社たつみ電工,,有限会社,静岡県,静岡市駿河区,栗原３３番１２号,,22,102,4228008,,,2023-08-03,清算の結了等,,,2015-10-05,1,,,,,タツミデンコウ,0
2213,8110001032536,登記記録の閉鎖等,0,2023-08-07,2023-07-28,株式会社すまいる,,株式会社,新潟県,見附市,今町５丁目４５番２８号,,15,211,9540111,,,2023-07-28,清算の結了等,,,2017-07-14,1,,,,,スマイル,0
2246,8122002013324,登記記録の閉鎖等,0,2023-08-07,2023-08-03,有限会社奥田製作所,,有限会社,大阪府,八尾市,竹渕西４丁目６番地,,27,212,5810051,,,2023-08-03,清算の結了等,,,2015-10-05,1,,,,,オクダセイサクショ,0
2248,8130001044307,登記記録の閉鎖等,0,2023-08-07,2023-07-24,株式会社フェイス企画,,株式会社,京都府,京都市上京区,仁和寺街道六軒町西入四番町１２１番地２,,26,102,6028347,,,2023-07-24,清算の結了等,,,2015-10-05,1,,,,,フェイスキカク,0
2249,8130001045461,登記記録の閉鎖等,0,2023-08-07,2023-07-20,ＪＢＩシステムズ株式会社,,株式会社,京都府,京都市中京区,三条通烏丸西入御倉町８５番地１,,26,104,6048166,,,2023-07-20,清算の結了等,,,2015-10-05,1,,,,,ジェイビーアイシステムズ,0
2252,8130003002824,登記記録の閉鎖等,0,2023-08-07,2023-07-21,合同会社大江山スキー観光,,合同会社,京都府,宮津市,字小田４１３番地,,26,205,6260037,,,2023-07-21,清算の結了等,,,2015-10-05,1,,,,,オオエヤマスキーカンコウ,0
2266,8160001008829,登記記録の閉鎖等,0,2023-08-07,2023-08-03,株式会社メセナ,,株式会社,滋賀県,彦根市,高宮町３０８７番地の２,,25,202,5220201,,,2023-08-03,清算の結了等,,,2015-10-05,1,,,,,メセナ,0
2270,8180001047783,登記記録の閉鎖等,0,2023-08-07,2023-08-01,株式会社代商,,株式会社,愛知県,名古屋市北区,米が瀬町６８番地,,23,103,4620031,,,2023-08-01,合併による解散等,8180301033987,令和５年８月１日名古屋市北区米が瀬町１５７番地の２株式会社代商（8180301033987）に合併し解散,2015-10-05,1,,,,,ダイショウ,0
2271,8180001060142,登記記録の閉鎖等,0,2023-08-07,2023-08-02,株式会社ランドマーク,,株式会社,愛知県,名古屋市中区,千代田１丁目６番７号,,23,106,4600012,,,2023-08-02,清算の結了等,,,2015-10-05,1,,,,,ランドマーク,0
2273,8180001096161,登記記録の閉鎖等,0,2023-08-07,2023-08-04,株式会社兼松運送,,株式会社,愛知県,知多郡美浜町,大字奥田字南大西３６番地４,,23,446,4703233,,,2023-08-04,清算の結了等,,,2015-10-05,1,,,,,カネマツウンソウ,0
2274,8180001140258,登記記録の閉鎖等,0,2023-08-07,2023-08-01,株式会社ＯＮＥ　ＰＬＥＡＳＵＲＥ,,株式会社,愛知県,常滑市,榎戸町４丁目５８番地,,23,216,4790854,,,2023-08-01,清算の結了等,,,2020-03-05,1,,,,,ワンプレジャー,0
2291,8180303002668,登記記録の閉鎖等,0,2023-08-07,2023-07-31,合同会社フラッグス,,合同会社,愛知県,豊田市,梅坪町６丁目１４番地１０,,23,211,4710064,,,2023-07-31,清算の結了等,,,2015-10-05,1,,,,,フラッグス,0
2298,8210001002454,登記記録の閉鎖等,0,2023-08-07,2023-08-02,株式会社野坂テキスタイル,,株式会社,福井県,福井市,新田塚２丁目４１番２８号,,18,201,9100067,,,2023-08-02,清算の結了等,,,2015-10-05,1,,,,,ノサカテキスタイル,0
2304,8230002013630,登記記録の閉鎖等,0,2023-08-07,2023-08-02,有限会社浦本,,有限会社,富山県,射水市,高木１７３番地,,16,211,9340047,,,2023-08-02,清算の結了等,,,2015-10-05,1,,,,,ウラモト,0
2307,8240001028174,登記記録の閉鎖等,0,2023-08-07,2023-08-03,株式会社淀屋,,株式会社,広島県,廿日市市,串戸２丁目２０番３号,,34,213,7380033,,,2023-08-03,清算の結了等,,,2015-10-05,1,,,,,,0
2348,8330001021616,登記記録の閉鎖等,0,2023-08-07,2023-07-21,株式会社ＬＩＢ,,株式会社,熊本県,熊本市中央区,新市街３番１９号２階,,43,101,8600803,,,2023-07-21,清算の結了等,,,2015-10-05,1,,,,,リブ,0
2349,8330005002018,登記記録の閉鎖等,0,2023-08-07,2023-07-19,医療法人社団川島会,,その他の設立登記法人,熊本県,熊本市中央区,子飼本町１番１３号,,43,101,8600851,,,2023-07-19,清算の結了等,,,2015-10-05,1,,,,,カワシマカイ,0
2352,8350002005384,登記記録の閉鎖等,0,2023-08-07,2023-08-01,有限会社渡邊良二設計,00100746,有限会社,宮崎県,宮崎市,広島１丁目１番１３号,,45,201,8800806,,,2023-08-01,清算の結了等,,,2015-10-05,1,,,,,ワタナベリョウジセッケイ,0
2367,8400002000545,登記記録の閉鎖等,0,2023-08-07,2023-07-25,有限会社エス・アンド・エイ建築事務所,,有限会社,岩手県,盛岡市,上田堤１丁目７番５号,,03,201,0200113,,,2023-07-25,清算の結了等,,,2015-10-05,1,,,,,エスアンドエイケンチクジムショ,0
2407,9010003023435,登記記録の閉鎖等,0,2023-08-07,2023-07-31,ＪＲＥＦ合同会社,,合同会社,東京都,千代田区,永田町２丁目１３番１０号プルデンシャルタワー１６階,,13,101,1000014,,,2023-07-31,清算の結了等,,,2016-04-21,1,,,,,ジェーレフ,0
2411,9010005024563,登記記録の閉鎖等,0,2023-08-07,2023-07-31,一般社団法人フェニックス,,その他の設立登記法人,東京都,中央区,京橋２丁目２番１号,,13,102,1040031,,,2023-07-31,清算の結了等,,,2015-10-29,1,,,,,フェニックス,0
2454,9011102007568,登記記録の閉鎖等,0,2023-08-07,2023-08-04,有限会社大成企画,,有限会社,東京都,町田市,小山田桜台２丁目１１番地３６,,13,209,1940204,,,2023-08-04,清算の結了等,,,2015-10-05,1,,,,,タイセイキカク,0
2473,9020001073761,登記記録の閉鎖等,0,2023-08-07,2023-07-12,ナミキ建設工業株式会社,,株式会社,神奈川県,川崎市川崎区,日進町２６番地１１トーア川崎マンション３３４,,14,131,2100024,,,2023-07-12,清算の結了等,,,2023-04-05,1,,,,,ナミキケンセツコウギョウ,0
2486,9030001072317,登記記録の閉鎖等,0,2023-08-07,2023-07-12,株式会社トータルサービス,,株式会社,埼玉県,比企郡吉見町,大字田甲６５９番地３,,11,347,3550167,,,2023-07-12,清算の結了等,,,2015-10-05,1,,,,,トータルサービス,0
2491,9030002000854,登記記録の閉鎖等,0,2023-08-07,2023-07-11,有限会社アバンス技術研究所,,有限会社,埼玉県,さいたま市大宮区,三橋１丁目６１０番地の１洋伸大宮マンション５０５,,11,103,3300856,,,2023-07-11,清算の結了等,,,2015-10-05,1,,,,,アバンスギジュツケンキュウジョ,0
2501,9040003020958,登記記録の閉鎖等,0,2023-08-07,2023-07-12,リダラーン合同会社,,合同会社,千葉県,千葉市中央区,富士見２丁目７－９富士見ビル６０９,,12,101,2600015,,,2023-07-12,清算の結了等,,,2022-10-04,1,,,,,リダラーン,0
2509,9050001018235,登記記録の閉鎖等,0,2023-08-07,2023-07-31,ペンギンインストゥルメンツ株式会社,,株式会社,茨城県,つくば市,千現２丁目１番地６つくば研究支援センターＣＢ９,,08,220,3050047,,,2023-07-31,清算の結了等,,,2015-10-05,1,,,,,ペンギンインストゥルメンツ,0
2514,9050002025057,登記記録の閉鎖等,0,2023-08-07,2023-07-31,有限会社日翔機械工業,,有限会社,茨城県,古河市,雷電町１１番３３号日翔ビル１Ｆ,,08,204,3060004,,,2023-07-31,清算の結了等,,,2015-10-05,1,,,,,ニッショウキカイコウギョウ,0
2521,9080002011129,登記記録の閉鎖等,0,2023-08-07,2023-08-02,有限会社フラップ,,有限会社,静岡県,静岡市清水区,入江３丁目７番１０号,,22,103,4240831,,,2023-08-02,清算の結了等,,,2015-10-05,1,,,,,フラップ,0
2556,9120905004744,登記記録の閉鎖等,0,2023-08-07,2023-07-31,一般社団法人大阪スポーツ医学法人,,その他の設立登記法人,大阪府,吹田市,山田丘２番２号,,27,205,5650871,,,2023-07-31,清算の結了等,,,2015-10-05,1,,,,,オオサカスポーツイガクホウジン,0
2560,9130001037821,登記記録の閉鎖等,0,2023-08-07,2023-07-21,株式会社コンピューター会計記帳センター,,株式会社,京都府,綴喜郡井手町,大字井手小字段ノ下１番地の４,,26,343,6100302,,,2023-07-21,清算の結了等,,,2015-10-05,1,,,,,コンピューターカイケイキチョウセンター,0
2570,9140001034363,登記記録の閉鎖等,0,2023-08-07,2023-08-01,株式会社アスター,,株式会社,兵庫県,神戸市西区,伊川谷町有瀬１６９０番地の１,,28,111,6512113,,,2023-08-01,合併による解散等,3140002030037,令和５年８月１日神戸市西区狩場台五丁目９番地の１４株式会社ランティ（3140002030037）に合併し解散,2015-10-05,1,,,,,アスター,0
2578,9160001023208,登記記録の閉鎖等,0,2023-08-07,2023-08-02,株式会社ｓｙｎ,,株式会社,滋賀県,野洲市,小篠原２１０１番地２風異音素７０３号,,25,210,5202331,,,2023-08-02,清算の結了等,,,2021-04-08,1,,,,,シン,0
2584,9180001094305,登記記録の閉鎖等,0,2023-08-07,2023-08-03,株式会社坂本屋,,株式会社,愛知県,東海市,荒尾町チノ割５２番地,,23,222,4760003,,,2023-08-03,清算の結了等,,,2015-10-05,1,,,,,サカモトヤ,0
2586,9180001115770,登記記録の閉鎖等,0,2023-08-07,2023-08-01,株式会社アセンドサン,,株式会社,愛知県,名古屋市中村区,椿町３番１９号ウイングビル１Ｆ,,23,105,4530015,,,2023-08-01,合併による解散等,5180001010934,令和５年８月１日名古屋市中村区椿町３番１９号株式会社フォーベックス（5180001010934）に合併し解散,2015-10-05,1,,,,,アセンドサン,0
2596,9180003010788,登記記録の閉鎖等,0,2023-08-07,2023-08-02,菱野陸運合資会社,,合資会社,愛知県,瀬戸市,菱野町２１３番地,,23,204,4890934,,,2023-08-02,清算の結了等,,,2015-10-05,1,,,,,ヒシノリクウン,0
2603,9200001003238,登記記録の閉鎖等,0,2023-08-07,2023-08-02,株式会社タニグチ,,株式会社,岐阜県,岐阜市,石原２丁目３２番地の２,,21,201,5012535,,,2023-08-02,清算の結了等,,,2015-10-05,1,,,,,タニグチ,0
2611,9230002003234,登記記録の閉鎖等,0,2023-08-07,2023-08-03,有限会社堀田ビジネスプランニング,,有限会社,富山県,富山市,経堂３丁目６番１９号,,16,201,9300951,,,2023-08-03,清算の結了等,,,2015-10-05,1,,,,,ホリタビジネスプランニング,0
2614,9240001026763,登記記録の閉鎖等,0,2023-08-07,2023-08-02,株式会社松涛汽船,,株式会社,広島県,呉市,下蒲刈町下島３４０５番地,,34,202,7370303,,,2023-08-02,清算の結了等,,,2015-10-05,1,,,,,ショウトウキセン,0
2621,9250002011086,登記記録の閉鎖等,0,2023-08-07,2023-07-24,有限会社松福板金,,有限会社,山口県,下関市,長府中六波町６番９号,,35,201,7520944,,,2023-07-24,清算の結了等,,,2015-10-05,1,,,,,マツフクバンキン,0
2622,9260001010492,登記記録の閉鎖等,0,2023-08-07,2023-07-31,アルファ基礎構造株式会社,,株式会社,岡山県,岡山市北区,野田１丁目１３番２５号３０６,,33,101,7000971,,,2023-07-31,合併による解散等,6010001220103,令和５年７月３１日岡山市南区福吉町１８番１８号岩水開発株式会社（6010001220103）に合併し解散,2015-10-05,1,,,,,アルファキソコウゾウ,0
2637,9290802006579,登記記録の閉鎖等,0,2023-08-07,2023-08-04,有限会社藪内ミート,,有限会社,福岡県,北九州市小倉北区,熊谷１丁目２番１７号,,40,106,8030864,,,2023-08-04,清算の結了等,,,2015-10-05,1,,,,,ヤブウチミート,0
2664,9410002002390,登記記録の閉鎖等,0,2023-08-07,2023-07-21,有限会社高泉設計,00086549,有限会社,秋田県,秋田市,飯島長野中町１１番９号,,05,201,0110925,,,2023-07-21,清算の結了等,,,2015-10-05,1,,,,,タカイズミセッケイ,0
2677,9480005003925,登記記録の閉鎖等,0,2023-08-07,2023-08-03,特定非営利活動法人ボランティア鳴門西,,その他の設立登記法人,徳島県,鳴門市,鳴門町高島字北８６番地,,36,202,7720051,,,2023-08-03,清算の結了等,,,2015-10-05,1,,,,,ボランティアナルトニシ,0
