sequenceNumber,corporateNumber,process,correct,updateDate,changeDate,name,nameImageId,kind,prefectureName,cityName,streetNumber,addressImageId,prefectureCode,cityCode,postCode,addressOutside,addressOutsideImageId,closeDate,closeCause,successorCorporateNumber,changeCause,assignmentDate,latest,enName,enPrefectureName,enCityName,enAddressOutside,furigana,hihyoji
10,1010001227318,新規,0,2022-06-15,2022-06-15,株式会社一,,株式会社,東京都,中央区,銀座１丁目２１番１４号,,13,102,1040061,,,,,,,2022-06-15,1,,,,,ハジメ,0
11,1010001227367,新規,0,2022-06-15,2022-06-15,株式会社ハウオリ・マウ,,株式会社,東京都,中央区,勝どき１丁目８番１－４５１０号,,13,102,1040054,,,,,,,2022-06-15,1,,,,,ハウオリマウ,0
13,1010005035130,新規,0,2022-06-15,2022-06-15,一般社団法人国際エンパワーカラー協会,,その他の設立登記法人,東京都,中央区,銀座１丁目１２番４号Ｎ＆ＥＢＬＤ．７階,,13,102,1040061,,,,,,,2022-06-15,1,,,,,コクサイエンパワーカラーキョウカイ,0
20,1010401167915,新規,0,2022-06-15,2022-06-15,株式会社ＫＡＮＡＥ,,株式会社,東京都,港区,白金２丁目７番１９号アリアセレーナ白金８０２,,13,103,1080072,,,,,,,2022-06-15,1,,,,,カナエ,0
21,1010401167956,新規,0,2022-06-15,2022-06-15,株式会社ＢｉＬ,,株式会社,東京都,港区,新橋６丁目２０番地８号ミナトテラス１０１,,13,103,1050004,,,,,,,2022-06-15,1,,,,,ビル,0
22,1010401167964,新規,0,2022-06-15,2022-06-15,株式会社ＧＬＡＮＺ,,株式会社,東京都,港区,元麻布３丁目６番２号,,13,103,1060046,,,,,,,2022-06-15,1,,,,,グランツ,0
23,1010401167989,新規,0,2022-06-15,2022-06-15,株式会社ＦＡＢ,,株式会社,東京都,港区,六本木７丁目１８番１８号住友不動産六本木通ビル,,13,103,1060032,,,,,,,2022-06-15,1,,,,,ファブ,0
28,1010501048965,新規,0,2022-06-15,2022-06-15,株式会社ＭＤＫＧ,,株式会社,東京都,台東区,東上野１丁目２２番６号ＴＫＦ東上野ビル４階,,13,106,1100015,,,,,,,2022-06-15,1,,,,,エムディーケージー,0
29,1010501048973,新規,0,2022-06-15,2022-06-15,東森株式会社,,株式会社,東京都,台東区,三ノ輪２丁目３番８－１０１号,,13,106,1100011,,,,,,,2022-06-15,1,,,,,トウシン,0
36,1010801033048,新規,0,2022-06-15,2022-06-15,株式会社エスーガ,,株式会社,東京都,大田区,久が原３丁目４０番６号,,13,111,1460085,,,,,,,2022-06-15,1,,,,,エスーガ,0
43,1010903007461,新規,0,2022-06-15,2022-06-15,松澤通商合同会社,,合同会社,東京都,世田谷区,野毛２丁目２２－２１,,13,112,1580092,,,,,,,2022-06-15,1,,,,,マツサワツウショウ,0
49,1011001148066,新規,0,2022-06-15,2022-06-15,株式会社サーヴオール,,株式会社,東京都,渋谷区,代々木１丁目１３番８号,,13,113,1510053,,,,,,,2022-06-15,1,,,,,サーヴオール,0
50,1011001148157,新規,0,2022-06-15,2022-06-15,株式会社ｅＸａ,,株式会社,東京都,渋谷区,桜丘町２６番１号セルリアンタワー１５階,,13,113,1500031,,,,,,,2022-06-15,1,,,,,エクサ,0
51,1011003014712,新規,0,2022-06-15,2022-06-15,１３６０合同会社,,合同会社,東京都,渋谷区,代々木１丁目８番８号エムアールハウスＲｏｏｍ１,,13,113,1510053,,,,,,,2022-06-15,1,,,,,イチサンロクゼロ,0
56,1011101099192,新規,0,2022-06-15,2022-06-15,ＩＮＦＩＮＩＴＹ８株式会社,,株式会社,東京都,新宿区,西新宿３丁目７番１号新宿パークタワーＮ３０Ｆ,,13,104,1600023,,,,,,,2022-06-15,1,,,,,インフィニティエイト,0
57,1011101099234,新規,0,2022-06-15,2022-06-15,株式会社アダムとイブ,,株式会社,東京都,新宿区,大久保２丁目１８番１８号,,13,104,1690072,,,,,,,2022-06-15,1,,,,,アダムトイブ,0
59,1011103011849,新規,0,2022-06-15,2022-06-15,合同会社余白製作所,,合同会社,東京都,新宿区,白銀町５番１８号ｃｏｌｌｉｎｅ白銀３０３号室,,13,104,1620816,,,,,,,2022-06-15,1,,,,,ヨハクセイサクショ,0
60,1011103011857,新規,0,2022-06-15,2022-06-15,合同会社歳星社,,合同会社,東京都,新宿区,西新宿３丁目３番１３号西新宿水間ビル６階,,13,104,1600023,,,,,,,2022-06-15,1,,,,,サイセイシャ,0
63,1011301027853,新規,0,2022-06-15,2022-06-15,フジミ不動産販売株式会社,,株式会社,東京都,杉並区,高円寺南４丁目２６番１６号,,13,115,1660003,,,,,,,2022-06-15,1,,,,,フジミフドウサンハンバイ,0
65,1011303004446,新規,0,2022-06-15,2022-06-15,キャノピー合同会社,,合同会社,東京都,杉並区,高円寺北２丁目４１番４号,,13,115,1660002,,,,,,,2022-06-15,1,,,,,キャノピー,0
68,1012303001689,新規,0,2022-06-15,2022-06-15,ケーアイティホールディングスジャパン合同会社,,合同会社,東京都,町田市,相原町１８００番地５０,,13,209,1940211,,,,,,,2022-06-15,1,,,,,ケーアイティホールディングスジャパン,0
73,1013301049233,新規,0,2022-06-15,2022-06-15,株式会社アイエヌアンドカンパニー,,株式会社,東京都,豊島区,上池袋１丁目１０番５号コスモ上池袋７０５号,,13,116,1700012,,,,,,,2022-06-15,1,,,,,アイエヌアンドカンパニー,0
84,1020001146921,新規,0,2022-06-15,2022-06-15,株式会社エフクエスト,,株式会社,神奈川県,横浜市港北区,新羽町９３８番地,,14,109,2230057,,,,,,,2022-06-15,1,,,,,エフクエスト,0
85,1020001146938,新規,0,2022-06-15,2022-06-15,株式会社三方商事,,株式会社,神奈川県,横浜市港北区,新横浜１丁目４番地７ミスミコーチ９０６号室,,14,109,2220033,,,,,,,2022-06-15,1,,,,,サンポウショウジ,0
87,1020003021908,新規,0,2022-06-15,2022-06-15,合同会社菜の花産業医事務所,,合同会社,神奈川県,横浜市鶴見区,東寺尾中台２６番３１号,,14,101,2300017,,,,,,,2022-06-15,1,,,,,ナノハナサンギョウイジムショ,0
88,1020003021916,新規,0,2022-06-15,2022-06-15,合同会社ＹＵＰＰＹ,,合同会社,神奈川県,横浜市磯子区,杉田７丁目１９－８,,14,107,2350033,,,,,,,2022-06-15,1,,,,,ユッピー,0
89,1020003021932,新規,0,2022-06-15,2022-06-15,合同会社オーリーズ,,合同会社,神奈川県,横浜市港北区,下田町１丁目１番１－４０３号,,14,109,2230064,,,,,,,2022-06-15,1,,,,,オーリーズ,0
90,1020003021940,新規,0,2022-06-15,2022-06-15,合同会社海鋒デザイン事務所,,合同会社,神奈川県,横浜市都筑区,茅ケ崎東１丁目１番６－１４０５号,,14,118,2240033,,,,,,,2022-06-15,1,,,,,カイホコデザインジムショ,0
92,1021001076241,新規,0,2022-06-15,2022-06-15,株式会社ＣＲＥＡ　ＬＡＮＤ,,株式会社,神奈川県,藤沢市,善行１丁目２６番５号３階,,14,205,2510871,,,,,,,2022-06-15,1,,,,,クレアランド,0
96,1021003011832,新規,0,2022-06-15,2022-06-15,Ｔ‐ＣＯＵＲＳＥ合同会社,,合同会社,神奈川県,茅ヶ崎市,南湖２丁目１２番１３号,,14,207,2530061,,,,,,,2022-06-15,1,,,,,ティーコース,0
104,1030001148495,新規,0,2022-06-15,2022-06-15,株式会社快晴冷熱,,株式会社,埼玉県,さいたま市西区,大字塚本２２６番地,,11,101,3310066,,,,,,,2022-06-15,1,,,,,カイセイレイネツ,0
105,1030001148685,新規,0,2022-06-15,2022-06-15,株式会社アークライズ,,株式会社,埼玉県,川口市,宮町１０番５号,,11,203,3320028,,,,,,,2022-06-15,1,,,,,アークライズ,0
106,1030001148702,新規,0,2022-06-15,2022-06-15,協和テクノス株式会社,,株式会社,埼玉県,川口市,上青木３丁目１２番４号,,11,203,3330844,,,,,,,2022-06-15,1,,,,,キョウワテクノス,0
116,1040001123844,新規,0,2022-06-15,2022-06-15,株式会社Ｕ十企画,,株式会社,千葉県,鴨川市,八色４２２番地５,,12,223,2960033,,,,,,,2022-06-15,1,,,,,ユープラスキカク,0
117,1040001123852,新規,0,2022-06-15,2022-06-15,株式会社ｅｇＡｏ,,株式会社,千葉県,千葉市花見川区,作新台５丁目２２番２５号,,12,102,2620045,,,,,,,2022-06-15,1,,,,,エガオ,0
119,1040003020239,新規,0,2022-06-15,2022-06-15,合同会社ハイビス,,合同会社,千葉県,佐倉市,上志津原２８０番地８,,12,212,2850844,,,,,,,2022-06-15,1,,,,,ハイビス,0
120,1040003020263,新規,0,2022-06-15,2022-06-15,ＴＡＫＥ６１３合同会社,,合同会社,千葉県,印西市,戸神台１丁目１１－２１,,12,231,2701349,,,,,,,2022-06-15,1,,,,,テイクロクイチサン,0
124,1050001051227,新規,0,2022-06-15,2022-06-15,鯤鵬株式会社,,株式会社,茨城県,龍ケ崎市,若柴町３０１３番地３－１０１号,,08,208,3010041,,,,,,,2022-06-15,1,,,,,コンホウ,0
125,1050003006600,新規,0,2022-06-15,2022-06-15,ロン・ボヌール合同会社,,合同会社,茨城県,稲敷郡河内町,宮渕１４０,,08,447,3001326,,,,,,,2022-06-15,1,,,,,ロンボヌール,0
126,1060001034965,新規,0,2022-06-15,2022-06-15,株式会社インクルーシブ,,株式会社,栃木県,宇都宮市,泉が丘１丁目１５番２９号ＭＵＳＡＳＨＩ・ＢＡＳＥ・Ｒｏｏｍ２,,09,201,3210952,,,,,,,2022-06-15,1,,,,,インクルーシブ,0
131,1070001039328,新規,0,2022-06-15,2022-06-15,株式会社イデアール,,株式会社,群馬県,太田市,八幡町２３番１１号,,10,205,3730056,,,,,,,2022-06-15,1,,,,,イデアール,0
141,1080403004564,新規,0,2022-06-15,2022-06-15,合同会社Ｓ＆Ｔ,,合同会社,静岡県,菊川市,嶺田２４５５番地,,22,224,4371522,,,,,,,2022-06-15,1,,,,,エスアンドティー,0
143,1100001035447,新規,0,2022-06-15,2022-06-15,株式会社軽井沢デザイン,,株式会社,長野県,北佐久郡軽井沢町,大字長倉２９１３番地５,,20,321,3890111,,,,,,,2022-06-15,1,,,,,カルイザワデザイン,0
144,1100003006578,新規,0,2022-06-15,2022-06-15,合同会社ＫＥＷＴ,,合同会社,長野県,茅野市,湖東５０００番地６,,20,214,3910211,,,,,,,2022-06-15,1,,,,,キュウト,0
160,1120001246678,新規,0,2022-06-15,2022-06-15,株式会社おやゆび革命,,株式会社,大阪府,大阪市北区,梅田１丁目１－３大阪駅前第３ビル２９階１－１－１号室,,27,127,5300001,,,,,,,2022-06-15,1,,,,,オヤユビカクメイ,0
161,1120001246711,新規,0,2022-06-15,2022-06-15,ウェルクラム株式会社,,株式会社,大阪府,大阪市阿倍野区,丸山通１丁目３番２９号,,27,119,5450042,,,,,,,2022-06-15,1,,,,,ウェルクラム,0
170,1120101065739,新規,0,2022-06-15,2022-06-15,株式会社ジャーニー,,株式会社,大阪府,富田林市,甲田３丁目７番２２－９０４号,,27,214,5840036,,,,,,,2022-06-15,1,,,,,ジャーニー,0
171,1120101065755,新規,0,2022-06-15,2022-06-15,株式会社エイト,,株式会社,大阪府,堺市中区,陶器北４８６番３,,27,142,5998242,,,,,,,2022-06-15,1,,,,,エイト,0
173,1120103004736,新規,0,2022-06-15,2022-06-15,合同会社Ｇｒｏｗｔｈ　Ｏｒｉｅｎｔｅｄ,,合同会社,大阪府,岸和田市,荒木町２丁目５番２号Ｍ‘ｓビル,,27,202,5960004,,,,,,,2022-06-15,1,,,,,グロースオリエンテッド,0
176,1120901046095,新規,0,2022-06-15,2022-06-15,株式会社北大阪土地建物,,株式会社,大阪府,豊中市,中桜塚２丁目３１番１号中桜塚中央ビル２０１,,27,203,5610881,,,,,,,2022-06-15,1,,,,,キタオオサカトチタテモノ,0
179,1122001035978,新規,0,2022-06-15,2022-06-15,株式会社グローブス,,株式会社,大阪府,八尾市,上之島町北１丁目２８番６号,,27,212,5810845,,,,,,,2022-06-15,1,,,,,グローブス,0
193,1140001126366,新規,0,2022-06-15,2022-06-15,＿和産業株式会社,00126888,株式会社,兵庫県,神戸市西区,玉津町上池３２５番地の５,,28,111,6512126,,,,,,,2022-06-15,1,,,,,キンワサンギョウ,0
197,1150005009401,新規,0,2022-06-15,2022-06-15,一般社団法人サニーサイド,,その他の設立登記法人,奈良県,奈良市,朱雀１丁目８番７号,,29,201,6310806,,,,,,,2022-06-15,1,,,,,サニーサイド,0
198,1160001024287,新規,0,2022-06-15,2022-06-15,サウス株式会社,,株式会社,滋賀県,守山市,守山３丁目１４番４０号,,25,207,5240022,,,,,,,2022-06-15,1,,,,,サウス,0
205,1180305009354,新規,0,2022-06-15,2022-06-15,一般社団法人ＲＥＪＥＮＡ　ＴＯＹＯＴＡ　ＦＯＯＴＢＡＬＬ　ＣＬＵＢ,,その他の設立登記法人,愛知県,豊田市,渡刈町４丁目２３２番地,,23,211,4701202,,,,,,,2022-06-15,1,,,,,レジェーナトヨタフットボールクラブ,0
207,1190001029515,新規,0,2022-06-15,2022-06-15,ＳＰＩＲＡＬＮＥＴ株式会社,,株式会社,三重県,鈴鹿市,住吉５丁目８番２５号,,24,207,5130826,,,,,,,2022-06-15,1,,,,,スパイラルネット,0
210,1210001018960,新規,0,2022-06-15,2022-06-15,株式会社ｄｅｓａｆｉｏ,,株式会社,福井県,敦賀市,野神１号３３番地の３,,18,202,9140121,,,,,,,2022-06-15,1,,,,,デサフィオ,0
213,1230001019412,新規,0,2022-06-15,2022-06-15,アルカスフードサービス株式会社,,株式会社,富山県,砺波市,神島１０１番地２,,16,208,9391337,,,,,,,2022-06-15,1,,,,,アルカスフードサービス,0
214,1230003001863,新規,0,2022-06-15,2022-06-15,まこと商会合同会社,,合同会社,富山県,南砺市,福野１６５７番地１,,16,210,9391561,,,,,,,2022-06-15,1,,,,,マコトショウカイ,0
215,1230003001871,新規,0,2022-06-15,2022-06-15,合同会社ｃｏｃｏｎ,,合同会社,富山県,砺波市,庄川町古上野２５８番地,,16,208,9320311,,,,,,,2022-06-15,1,,,,,ココン,0
218,1240001059936,新規,0,2022-06-15,2022-06-15,ボースウィン株式会社,,株式会社,広島県,広島市中区,河原町１３－１０ネオライフ舟入１階,,34,101,7300856,,,,,,,2022-06-15,1,,,,,ボースウィン,0
225,1260001008825,新規,0,2022-06-15,2022-06-15,株式会社灘崎産業,00126821,株式会社,岡山県,岡山市南区,西高崎５番地,,33,104,7091204,,,,,,,2022-06-15,1,,,,,,0
226,1260001036941,新規,0,2022-06-15,2022-06-15,株式会社洪秀会,,株式会社,岡山県,岡山市東区,西大寺中野４９８番地１,,33,103,7048191,,,,,,,2022-06-15,1,,,,,コウシュウカイ,0
229,1270003001414,新規,0,2022-06-15,2022-06-15,合同会社ホーステック,,合同会社,鳥取県,米子市,尾高２５７６番地９,,31,202,6893514,,,,,,,2022-06-15,1,,,,,ホーステック,0
230,1280001008716,新規,0,2022-06-15,2022-06-15,明和建設株式会社,,株式会社,島根県,益田市,あけぼの西町２番地３,,32,204,6980025,,,,,,,2022-06-15,1,,,,,メイワケンセツ,0
237,1290001097907,新規,0,2022-06-15,2022-06-15,Ｈｕ‐ｐｉｄ株式会社,,株式会社,福岡県,福岡市博多区,博多駅前２丁目１９番１７号トーカン博多第５ビル３１２号室,,40,132,8120011,,,,,,,2022-06-15,1,,,,,ヒューピット,0
238,1290001097915,新規,0,2022-06-15,2022-06-15,株式会社グローバルアイ,,株式会社,福岡県,福岡市中央区,平尾２丁目２番２１号,,40,133,8100014,,,,,,,2022-06-15,1,,,,,グローバルアイ,0
239,1290001097923,新規,0,2022-06-15,2022-06-15,ＳＴＯＣＫ‐ＧＡＴＥＳ株式会社,,株式会社,福岡県,福岡市東区,西戸崎２丁目２－６,,40,131,8110321,,,,,,,2022-06-15,1,,,,,ストックゲイツ,0
240,1290001097931,新規,0,2022-06-15,2022-06-15,株式会社ＭＡＲＩＮＥ,,株式会社,福岡県,福岡市南区,井尻５丁目２０番１９号,,40,134,8111302,,,,,,,2022-06-15,1,,,,,マリーン,0
241,1290001097948,新規,0,2022-06-15,2022-06-15,株式会社島戸屋興業,,株式会社,福岡県,福岡市東区,奈多１丁目１１番８号,,40,131,8110204,,,,,,,2022-06-15,1,,,,,シマドヤコウギョウ,0
246,1290003012616,新規,0,2022-06-15,2022-06-15,合同会社ＯＷＬ,,合同会社,福岡県,春日市,白水池１丁目１８４番地,,40,218,8160848,,,,,,,2022-06-15,1,,,,,アウル,0
247,1290003012624,新規,0,2022-06-15,2022-06-15,スタートアップユニバーシティ合同会社,,合同会社,福岡県,福岡市博多区,神屋町５番５号,,40,132,8120022,,,,,,,2022-06-15,1,,,,,スタートアップユニバーシティ,0
255,1310005008618,新規,0,2022-06-15,2022-06-15,ＮＰＯ法人まちラボ,,その他の設立登記法人,長崎県,長崎市,脇岬町２０３６番地２,,42,201,8510506,,,,,,,2022-06-15,1,,,,,マチラボ,0
256,1320001019130,新規,0,2022-06-15,2022-06-15,株式会社船守舎,,株式会社,大分県,佐伯市,大手町３丁目５番７号,,44,205,8760831,,,,,,,2022-06-15,1,,,,,フナモリ,0
258,1330001029797,新規,0,2022-06-15,2022-06-15,創建なかの株式会社,,株式会社,熊本県,人吉市,宝来町１２７９番地１－２,,43,203,8680011,,,,,,,2022-06-15,1,,,,,ソウケンナカノ,0
259,1330001029839,新規,0,2022-06-15,2022-06-15,株式会社祐Ｐｌａｃｅ,,株式会社,熊本県,合志市,栄３７９４番地２８,,43,216,8611113,,,,,,,2022-06-15,1,,,,,ユウプレイス,0
260,1330003009418,新規,0,2022-06-15,2022-06-15,Ａｉ合同会社,,合同会社,熊本県,熊本市西区,花園７丁目４６番１９号,,43,103,8600072,,,,,,,2022-06-15,1,,,,,アイ,0
267,1360001030554,新規,0,2022-06-15,2022-06-15,株式会社ハウステラリゾート,,株式会社,沖縄県,沖縄市,上地３丁目２－２０、３Ｆ－Ｂ,,47,211,9040031,,,,,,,2022-06-15,1,,,,,ハウステラリゾート,0
275,1380001032887,新規,0,2022-06-15,2022-06-15,エム・ケー企画株式会社,,株式会社,福島県,伊達市,保原町字鉄炮町１３番地の１８,,07,213,9600606,,,,,,,2022-06-15,1,,,,,エムケーキカク,0
279,1390001016930,新規,0,2022-06-15,2022-06-15,株式会社デンクウ,,株式会社,山形県,鶴岡市,道田町１４番２１号,,06,203,9970837,,,,,,,2022-06-15,1,,,,,デンクウ,0
288,1430005014488,新規,0,2022-06-15,2022-06-15,一般社団法人ないえ共奏ネットワーク,,その他の設立登記法人,北海道,空知郡奈井江町,字奈井江１１番地,,01,424,0790300,,,,,,,2022-06-15,1,,,,,ナイエキョウソウネットワーク,0
297,1500003002850,新規,0,2022-06-15,2022-06-15,合同会社おおか,,合同会社,愛媛県,松山市,余戸西６丁目１番５号メゾンド武市２０５号室,,38,201,7900046,,,,,,,2022-06-15,1,,,,,オオカ,0
301,1700150109734,新規,0,2022-06-15,2022-06-15,ＲＳ　ＭＯＴＯＲＳ,,外国会社等,新潟県,妙高市,大字小濁７３１レンタルスペース１Ｆ－２,,15,217,9440221,スリランカ民主社会主義共和国、キャンディ、バトウゴダ、デイワナワタ、１０３／２,,,,,,2022-06-15,1,,,,,アルエスモータース,0
308,2010001227374,新規,0,2022-06-15,2022-06-15,株式会社ＮＪＫ,,株式会社,東京都,中央区,日本橋馬喰町１丁目２番２－２０４,,13,102,1030002,,,,,,,2022-06-15,1,,,,,エヌジェイケイ,0
309,2010001227382,新規,0,2022-06-15,2022-06-15,株式会社ＮＯ３プロ,,株式会社,東京都,千代田区,平河町１丁目５番１５号,,13,101,1020093,,,,,,,2022-06-15,1,,,,,ノースリープロ,0
310,2010003037887,新規,0,2022-06-15,2022-06-15,合同会社ＭＡＲＮＥ,,合同会社,東京都,中央区,銀座１丁目１２－４Ｎ＆Ｅ・ＢＬＤ．７階,,13,102,1040061,,,,,,,2022-06-15,1,,,,,マルネ,0
312,2010005035138,新規,0,2022-06-15,2022-06-15,一般社団法人日本動画制作協会,,その他の設立登記法人,東京都,中央区,銀座７丁目１３番８号,,13,102,1040061,,,,,,,2022-06-15,1,,,,,ニホンドウガセイサクキョウカイ,0
315,2010401167749,新規,0,2022-06-15,2022-06-15,株式会社プレゼンの達人,,株式会社,東京都,港区,浜松町２丁目２番１５号浜松町ダイヤビル２Ｆ,,13,103,1050013,,,,,,,2022-06-15,1,,,,,プレゼンノタツジン,0
316,2010401167930,新規,0,2022-06-15,2022-06-15,Ｔｏｔａｌ　Ａｎｉｍａｌ　Ｍｅｄｉ株式会社,,株式会社,東京都,港区,六本木４丁目２－４５高會堂ビル２階,,13,103,1060032,,,,,,,2022-06-15,1,,,,,トータルアニマルメディ,0
317,2010401167963,新規,0,2022-06-15,2022-06-15,株式会社わたしのナースバイト,,株式会社,東京都,港区,南青山２丁目２番１５号ウィン青山９４２,,13,103,1070062,,,,,,,2022-06-15,1,,,,,ワタシノナースバイト,0
318,2010401167996,新規,0,2022-06-15,2022-06-15,株式会社Ｄｒｅａｍ　Ｃｏｍｐａｓｓ,,株式会社,東京都,港区,北青山２丁目７－２０猪瀬ビル２Ｆ,,13,103,1070061,,,,,,,2022-06-15,1,,,,,ドリームコンパス,0
319,2010403027876,新規,0,2022-06-15,2022-06-15,合同会社ｓｏｕ,,合同会社,東京都,港区,南青山５丁目１１－２４グレイセス２Ｆ,,13,103,1070062,,,,,,,2022-06-15,1,,,,,ソウ,0
320,2010403027892,新規,0,2022-06-15,2022-06-15,合同会社Ｇｕｓａｋｉｓｓａ,,合同会社,東京都,港区,南青山２丁目２－１５,,13,103,1070062,,,,,,,2022-06-15,1,,,,,グウサキッサ,0
330,2010703006274,新規,0,2022-06-15,2022-06-15,カナルマネージメント合同会社,,合同会社,東京都,品川区,東品川２丁目３番１５号,,13,109,1400002,,,,,,,2022-06-15,1,,,,,カナルマネージメント,0
332,2010801033047,新規,0,2022-06-15,2022-06-15,株式会社みどりやプロダクション,,株式会社,東京都,大田区,西馬込２丁目２７－１８第一塚越１０１,,13,111,1430026,,,,,,,2022-06-15,1,,,,,ミドリヤプロダクション,0
338,2010901051056,新規,0,2022-06-15,2022-06-15,株式会社ボンディングジャパン,,株式会社,東京都,世田谷区,玉川４丁目１３番２－１０６号,,13,112,1580094,,,,,,,2022-06-15,1,,,,,ボンディングジャパン,0
339,2010903007452,新規,0,2022-06-15,2022-06-15,合同会社ＩＥＫＡＳＵ,,合同会社,東京都,世田谷区,瀬田２丁目５番３号,,13,112,1580095,,,,,,,2022-06-15,1,,,,,イエカス,0
340,2010903007460,新規,0,2022-06-15,2022-06-15,土開テクノロジー合同会社,,合同会社,東京都,世田谷区,上野毛４丁目１３－１５,,13,112,1580093,,,,,,,2022-06-15,1,,,,,ドカイテクノロジー,0
348,2011001148123,新規,0,2022-06-15,2022-06-15,株式会社ＭＹＵ‐ｌａｂｏ,,株式会社,東京都,渋谷区,恵比寿南３丁目９番８－４１６号,,13,113,1500022,,,,,,,2022-06-15,1,,,,,ミューラボ,0
349,2011001148131,新規,0,2022-06-15,2022-06-15,株式会社スターエージェンシー,,株式会社,東京都,渋谷区,渋谷１丁目９番４号,,13,113,1500002,,,,,,,2022-06-15,1,,,,,スターエージェンシー,0
351,2011005009593,新規,0,2022-06-15,2022-06-15,一般社団法人デジタル神経解剖病理フォーラム,,その他の設立登記法人,東京都,渋谷区,神宮前６丁目２３番４号桑野ビル２Ｆ,,13,113,1500001,,,,,,,2022-06-15,1,,,,,デジタルシンケイカイボウビョウリフォーラム,0
355,2011101099217,新規,0,2022-06-15,2022-06-15,山口電設株式会社,,株式会社,東京都,新宿区,白銀町５番１５,,13,104,1620816,,,,,,,2022-06-15,1,,,,,ヤマグチデンセツ,0
356,2011101099233,新規,0,2022-06-15,2022-06-15,株式会社ＷＩＬＤ　ＢＵＮＣＨ　Ｐｒｏｄｕｃｔｉｏｎｓ,,株式会社,東京都,新宿区,西新宿６丁目１０番１号日土地西新宿ビル８階,,13,104,1600023,,,,,,,2022-06-15,1,,,,,ワイルドバンチプロダクションズ,0
360,2011301027860,新規,0,2022-06-15,2022-06-15,株式会社ＡＮＴＥＬＯＰＥ,,株式会社,東京都,杉並区,高井戸東３丁目１６番５号,,13,115,1680072,,,,,,,2022-06-15,1,,,,,アンテロープ,0
362,2011303004445,新規,0,2022-06-15,2022-06-15,合同会社ハーフマウンテン,,合同会社,東京都,杉並区,高円寺南４丁目３６番９号メゾン・ラムール１０５,,13,115,1660003,,,,,,,2022-06-15,1,,,,,ハーフマウンテン,0
364,2011403003693,新規,0,2022-06-15,2022-06-15,合同会社Ｂｉｃ　Ｓｕｐｐｏｒｔ,,合同会社,東京都,板橋区,南常盤台１丁目１１番６号レフア南常盤台１０１号室,,13,119,1740072,,,,,,,2022-06-15,1,,,,,ビックサポート,0
365,2011501028139,新規,0,2022-06-15,2022-06-15,株式会社Ｗｉｔｈ,,株式会社,東京都,荒川区,町屋３丁目２８番１８号,,13,118,1160001,,,,,,,2022-06-15,1,,,,,ウィズ,0
366,2011601026034,新規,0,2022-06-15,2022-06-15,ｋｏｄｏｍｏｅ株式会社,,株式会社,東京都,練馬区,石神井町２丁目１３番１７号,,13,120,1770041,,,,,,,2022-06-15,1,,,,,コドモエ,0
369,2011701025381,新規,0,2022-06-15,2022-06-15,鴻星株式会社,,株式会社,東京都,江戸川区,西葛西６丁目１２番４号メゾン秋山２０１,,13,123,1340088,,,,,,,2022-06-15,1,,,,,コウセイ,0
370,2012401039300,新規,0,2022-06-15,2022-06-15,ＰｒｏＧＲＡＮＴ株式会社,,株式会社,東京都,武蔵野市,西久保２丁目６番３号大ビル２Ｆ,,13,203,1800013,,,,,,,2022-06-15,1,,,,,プログラント,0
371,2012703002476,新規,0,2022-06-15,2022-06-15,ＳＫカンパニー合同会社,,合同会社,東京都,西東京市,田無町６丁目２番１号ｌｅｃｉｅｌ田無２０１号,,13,229,1880011,,,,,,,2022-06-15,1,,,,,エスケイカンパニー,0
372,2012801021601,新規,0,2022-06-15,2022-06-15,株式会社分楽,,株式会社,東京都,国分寺市,本町３丁目４－４栄ビル２階,,13,214,1850012,,,,,,,2022-06-15,1,,,,,ブンラク,0
373,2012801021650,新規,0,2022-06-15,2022-06-15,株式会社ユアペティア・サロン,,株式会社,東京都,国分寺市,本町４丁目１２番１号,,13,214,1850012,,,,,,,2022-06-15,1,,,,,ユアペティアサロン,0
375,2013101008941,新規,0,2022-06-15,2022-06-15,株式会社ケーエーアイ・ｃｏｌｏｒｓ,,株式会社,東京都,あきる野市,草花７００番地２,,13,228,1970802,,,,,,,2022-06-15,1,,,,,ケーエーアイカラーズ,0
379,2013301049240,新規,0,2022-06-15,2022-06-15,株式会社シエラ不動産,,株式会社,東京都,豊島区,東池袋１丁目３１番１５号トーカン池袋第２キャステール４０７,,13,116,1700013,,,,,,,2022-06-15,1,,,,,シエラフドウサン,0
383,2020001146912,新規,0,2022-06-15,2022-06-15,株式会社ゼンシン,,株式会社,神奈川県,横浜市港北区,樽町３丁目７番１２－１０号,,14,109,2220001,,,,,,,2022-06-15,1,,,,,ゼンシン,0
384,2020001146937,新規,0,2022-06-15,2022-06-15,株式会社横浜ドローンウォーカー,,株式会社,神奈川県,横浜市都筑区,東山田３丁目６番６号,,14,118,2240023,,,,,,,2022-06-15,1,,,,,ヨコハマドローンウォーカー,0
385,2020001146961,新規,0,2022-06-15,2022-06-15,株式会社ＲｅｅｓｉｌＨ＆Ｃｏ．,,株式会社,神奈川県,横浜市神奈川区,松本町３丁目２４番地７－１０１号,,14,102,2210841,,,,,,,2022-06-15,1,,,,,リシルエイチアンドコー,0
387,2020003021931,新規,0,2022-06-15,2022-06-15,合同会社ＴＲＩＰＬＥ　ＯＮＥ　ＴＯＫＹＯ,,合同会社,神奈川県,川崎市高津区,蟹ケ谷２０９番地５,,14,134,2130025,,,,,,,2022-06-15,1,,,,,トリプルワントウキョウ,0
388,2020003021956,新規,0,2022-06-15,2022-06-15,アステル合同会社,,合同会社,神奈川県,横浜市中区,打越５３番地２ユナイト石川町エドワードの杜１０５号室,,14,104,2310867,,,,,,,2022-06-15,1,,,,,アステル,0
389,2021001076232,新規,0,2022-06-15,2022-06-15,ハトヤ株式会社,,株式会社,神奈川県,茅ヶ崎市,松林２丁目１９番２８号,,14,207,2530017,,,,,,,2022-06-15,1,,,,,ハトヤ,0
390,2021001076240,新規,0,2022-06-15,2022-06-15,ＷＫオフィス株式会社,,株式会社,神奈川県,三浦郡葉山町,一色１３８８番地の３,,14,301,2400111,,,,,,,2022-06-15,1,,,,,ダブリュケーオフィス,0
391,2021001076249,新規,0,2022-06-15,2022-06-15,ＭｅｄＩｎｆｏ株式会社,,株式会社,神奈川県,藤沢市,片瀬山４丁目２４番１３号,,14,205,2510033,,,,,,,2022-06-15,1,,,,,メドインフォ,0
394,2021003011807,新規,0,2022-06-15,2022-06-15,ＴＶＴ合同会社,,合同会社,神奈川県,伊勢原市,伊勢原１丁目３３番１７号,,14,214,2591131,,,,,,,2022-06-15,1,,,,,ティーヴィーティー,0
403,2030001148651,新規,0,2022-06-15,2022-06-15,株式会社パークホーム,,株式会社,埼玉県,新座市,大和田１丁目１８番２１号,,11,230,3520004,,,,,,,2022-06-15,1,,,,,パークホーム,0
404,2030001148684,新規,0,2022-06-15,2022-06-15,株式会社Ｆｒｅｉｈｅｉｔ,,株式会社,埼玉県,八潮市,大瀬１丁目１番地１,,11,234,3400822,,,,,,,2022-06-15,1,,,,,フライハイト,0
405,2030001148701,新規,0,2022-06-15,2022-06-15,株式会社Ｄｒｅａｍ　Ｆａｉｒｙ,,株式会社,埼玉県,久喜市,栗原３丁目６番地１４,,11,232,3460012,,,,,,,2022-06-15,1,,,,,ドリームフェアリー,0
406,2030001148718,新規,0,2022-06-15,2022-06-15,モルフォ建設株式会社,,株式会社,埼玉県,蕨市,北町２丁目９番１０号ネクストコンフォート６０１号,,11,223,3350001,,,,,,,2022-06-15,1,,,,,モルフォケンセツ,0
409,2030003019594,新規,0,2022-06-15,2022-06-15,合同会社Ｕ‐ＣａｒＳｈｏｐオグラ,,合同会社,埼玉県,北本市,深井８丁目２４６番地,,11,233,3640001,,,,,,,2022-06-15,1,,,,,ユーカーショップオグラ,0
411,2030005020889,新規,0,2022-06-15,2022-06-15,一般社団法人日本自営業支援学会,,その他の設立登記法人,埼玉県,行田市,大字荒木２０９４番地,,11,206,3610011,,,,,,,2022-06-15,1,,,,,ニホンジエイギョウシエンガッカイ,0
418,2040001123843,新規,0,2022-06-15,2022-06-15,ＳＡＫＵＲＡ咲く株式会社,,株式会社,千葉県,佐倉市,馬渡４３５番地２,,12,212,2850804,,,,,,,2022-06-15,1,,,,,サクラサク,0
419,2040001123868,新規,0,2022-06-15,2022-06-15,株式会社十三月コンサルティング,,株式会社,千葉県,市川市,宝２丁目１１番１９号,,12,203,2720122,,,,,,,2022-06-15,1,,,,,ジュウサンガツコンサルティング,0
420,2040001123876,新規,0,2022-06-15,2022-06-15,株式会社レア,,株式会社,千葉県,木更津市,瓜倉１１６０,,12,206,2920007,,,,,,,2022-06-15,1,,,,,レア,0
421,2040001123892,新規,0,2022-06-15,2022-06-15,リプルケア株式会社,,株式会社,千葉県,袖ケ浦市,蔵波台６丁目１２－１８,,12,229,2990245,,,,,,,2022-06-15,1,,,,,リプルケア,0
426,2040003020254,新規,0,2022-06-15,2022-06-15,合同会社縁,,合同会社,千葉県,八街市,泉台２丁目１９－１９,,12,230,2891105,,,,,,,2022-06-15,1,,,,,エン,0
427,2040003020262,新規,0,2022-06-15,2022-06-15,合同会社Ｋｉｎｄｉｓｈ,,合同会社,千葉県,船橋市,前原東２丁目８番１号,,12,204,2740824,,,,,,,2022-06-15,1,,,,,カインデッィシュ,0
434,2050001051234,新規,0,2022-06-15,2022-06-15,株式会社Ｈａｒｖｅｓｔ　Ｈｏｌｄｉｎｇｓ,,株式会社,茨城県,つくば市,吾妻３丁目１０番地１３,,08,220,3050031,,,,,,,2022-06-15,1,,,,,ハーベストホールディングス,0
435,2050001051242,新規,0,2022-06-15,2022-06-15,株式会社ワークフォースパートナーズ,,株式会社,茨城県,取手市,中田９１１－２,,08,217,3001533,,,,,,,2022-06-15,1,,,,,ワークフォースパートナーズ,0
437,2050003006599,新規,0,2022-06-15,2022-06-15,ラルク合同会社,,合同会社,茨城県,稲敷郡阿見町,大字阿見５２６１－５２,,08,443,3000331,,,,,,,2022-06-15,1,,,,,ラルク,0
439,2060001034980,新規,0,2022-06-15,2022-06-15,株式会社サンキ塗装,,株式会社,栃木県,下都賀郡壬生町,大字壬生甲３８０１番地４８,,09,361,3210214,,,,,,,2022-06-15,1,,,,,サンキトソウ,0
440,2060001034989,新規,0,2022-06-15,2022-06-15,株式会社ＷＡＬＩ　ＴＲＡＤＩＮＧ,,株式会社,栃木県,小山市,城北３丁目３番地１３アンビションＢ２号室,,09,208,3230029,,,,,,,2022-06-15,1,,,,,ワリートレーディング,0
444,2080001025020,新規,0,2022-06-15,2022-06-15,株式会社ビオラボラトリーズ,,株式会社,静岡県,静岡市清水区,興津中町１２９７番地の１２,,22,103,4240204,,,,,,,2022-06-15,1,,,,,ビオラボラトリーズ,0
448,2080405007465,新規,0,2022-06-15,2022-06-15,一般社団法人日本レジリエンスエデュケーション協会,,その他の設立登記法人,静岡県,浜松市東区,有玉南町１８６７番地の１,,22,132,4313122,,,,,,,2022-06-15,1,,,,,ニホンレジリエンスエデュケーションキョウカイ,0
449,2100001035438,新規,0,2022-06-15,2022-06-15,株式会社Ｗａｋｅ‐ｕｐ　Ｃａｌｌ,,株式会社,長野県,飯田市,川路４９１９,,20,205,3992431,,,,,,,2022-06-15,1,,,,,ウェイクアップコール,0
450,2100001035446,新規,0,2022-06-15,2022-06-15,光絆美総株式会社,,株式会社,長野県,長野市,大字高田２７８番地,,20,201,3810034,,,,,,,2022-06-15,1,,,,,コウキビソウ,0
452,2100003006585,新規,0,2022-06-15,2022-06-15,合同会社フィリピン経済研究所,,合同会社,長野県,佐久市,新子田１０３２－２,,20,217,3850007,,,,,,,2022-06-15,1,,,,,フィリピンケイザイケンキュウジョ,0
461,2120001246578,新規,0,2022-06-15,2022-06-15,ステディホームズ株式会社,,株式会社,大阪府,大阪市住之江区,粉浜２丁目２番１９号,,27,125,5590001,,,,,,,2022-06-15,1,,,,,ステディホームズ,0
462,2120001246611,新規,0,2022-06-15,2022-06-15,株式会社エステート都市建,,株式会社,大阪府,大阪市中央区,平野町４丁目６番４号,,27,128,5410046,,,,,,,2022-06-15,1,,,,,エステートトシケン,0
463,2120001246735,新規,0,2022-06-15,2022-06-15,株式会社華糸,,株式会社,大阪府,大阪市港区,弁天１丁目２番３０－３９０７号,,27,107,5520007,,,,,,,2022-06-15,1,,,,,カイト,0
466,2120003021871,新規,0,2022-06-15,2022-06-15,Ｄ＆Ｙ合同会社,,合同会社,大阪府,大阪市西成区,橘１丁目３番６号,,27,122,5570051,,,,,,,2022-06-15,1,,,,,ディーアンドワイ,0
467,2120003021896,新規,0,2022-06-15,2022-06-15,ニュートラペットシステムズアジア‐パシフィック‐ジャパン合同会社,,合同会社,大阪府,大阪市中央区,松屋町住吉６番２１号,,27,128,5400017,,,,,,,2022-06-15,1,,,,,ニュートラペットシステムズアジアパシフィックジャパン,0
468,2120101065738,新規,0,2022-06-15,2022-06-15,株式会社千福工業,,株式会社,大阪府,富田林市,桜井町１丁目１６番２３号,,27,214,5840013,,,,,,,2022-06-15,1,,,,,センブクコウギョウ,0
469,2120101065754,新規,0,2022-06-15,2022-06-15,株式会社ＤＯＤＥＣＡ,,株式会社,大阪府,羽曳野市,河原城９３６番地１,,27,222,5830867,,,,,,,2022-06-15,1,,,,,ドデカ,0
470,2120901046094,新規,0,2022-06-15,2022-06-15,株式会社パシフィックワークス,,株式会社,大阪府,池田市,城南２丁目４番８号,,27,204,5630025,,,,,,,2022-06-15,1,,,,,パシフィックワークス,0
471,2120901046111,新規,0,2022-06-15,2022-06-15,株式会社むすび,,株式会社,大阪府,豊中市,寺内２丁目６番２－５０３号,,27,203,5610872,,,,,,,2022-06-15,1,,,,,ムスビ,0
485,2140001126299,新規,0,2022-06-15,2022-06-15,株式会社ＡｎＤｉ,,株式会社,兵庫県,西宮市,津門大塚町７－５,,28,204,6638241,,,,,,,2022-06-15,1,,,,,アンディー,0
486,2140001126316,新規,0,2022-06-15,2022-06-15,株式会社イービス,,株式会社,兵庫県,神戸市垂水区,小束山２丁目１７番地の３,,28,108,6550002,,,,,,,2022-06-15,1,,,,,イービス,0
487,2140001126324,新規,0,2022-06-15,2022-06-15,株式会社マイスマイス,,株式会社,兵庫県,神戸市中央区,浜辺通６丁目１番１－１１２４号,,28,110,6510083,,,,,,,2022-06-15,1,,,,,マイスマイス,0
488,2140001126332,新規,0,2022-06-15,2022-06-15,株式会社Ｗｏｒｋｓ,,株式会社,兵庫県,洲本市,大野７５１－１,,28,205,6560055,,,,,,,2022-06-15,1,,,,,ワークス,0
489,2140001126357,新規,0,2022-06-15,2022-06-15,株式会社豊岡バイオガスエナジー,,株式会社,兵庫県,加古川市,平岡町高畑６１９番地の７,,28,210,6750103,,,,,,,2022-06-15,1,,,,,トヨオカバイオガスエナジー,0
492,2140003017777,新規,0,2022-06-15,2022-06-15,合同会社オレンジワーカーズ,,合同会社,兵庫県,尼崎市,潮江１丁目８番１号コーポ潮江１１０号室,,28,202,6610976,,,,,,,2022-06-15,1,,,,,オレンジワーカーズ,0
493,2150001025616,新規,0,2022-06-15,2022-06-15,株式会社フォーユー,,株式会社,奈良県,天理市,別所町８１番地８,,29,204,6320018,,,,,,,2022-06-15,1,,,,,フォーユー,0
497,2160001024286,新規,0,2022-06-15,2022-06-15,株式会社Ｃ　ＳＥＶＥＮ,,株式会社,滋賀県,犬上郡豊郷町,大字安食南３８９番地１１,,25,441,5291172,,,,,,,2022-06-15,1,,,,,シーセブン,0
502,2180001151780,新規,0,2022-06-15,2022-06-15,株式会社福籠建設,,株式会社,愛知県,名古屋市天白区,高島２丁目７２５,,23,116,4680022,,,,,,,2022-06-15,1,,,,,フクロウケンセツ,0
504,2180003023937,新規,0,2022-06-15,2022-06-15,ふらいでん合同会社,,合同会社,愛知県,名古屋市昭和区,御器所１丁目１６番４号－１,,23,107,4660051,,,,,,,2022-06-15,1,,,,,フライデン,0
507,2180301036327,新規,0,2022-06-15,2022-06-15,株式会社ＮＧＬＯＢＡＬ,,株式会社,愛知県,田原市,赤羽根町四貫目１１６番地,,23,231,4413502,,,,,,,2022-06-15,1,,,,,エヌグローバル,0
508,2180301036335,新規,0,2022-06-15,2022-06-15,株式会社イット,,株式会社,愛知県,碧南市,立山町３丁目２０番地,,23,209,4470075,,,,,,,2022-06-15,1,,,,,イット,0
509,2180301036343,新規,0,2022-06-15,2022-06-15,株式会社本田土建,,株式会社,愛知県,豊川市,東名町２丁目２９番地ビブレストＩＶ１０１,00126875,23,207,4420019,,,,,,,2022-06-15,1,,,,,ホンダドケン,0
512,2180305009353,新規,0,2022-06-15,2022-06-15,一般社団法人愛知県里親会連合会,,その他の設立登記法人,愛知県,岡崎市,上六名３丁目４番地１５,,23,202,4440858,,,,,,,2022-06-15,1,,,,,アイチケンサトオヤカイレンゴウカイ,0
516,2190001029506,新規,0,2022-06-15,2022-06-15,株式会社純八商店,,株式会社,三重県,員弁郡東員町,大字北大社１３２３番９,,24,324,5110257,,,,,,,2022-06-15,1,,,,,ジュンハチショウテン,0
517,2190001029522,新規,0,2022-06-15,2022-06-15,株式会社三重総合評価センター,,株式会社,三重県,津市,広明町１８９番地１,,24,201,5140006,,,,,,,2022-06-15,1,,,,,ミエソウゴウヒョウカセンター,0
518,2190003004011,新規,0,2022-06-15,2022-06-15,合同会社ｓｔｉｒ　ｐｅａｋ,,合同会社,三重県,伊勢市,小俣町元町１０５０番地,,24,203,5190503,,,,,,,2022-06-15,1,,,,,ステアピーク,0
527,2220001024899,新規,0,2022-06-15,2022-06-15,あんず企画株式会社,,株式会社,石川県,金沢市,笠市町１６番１０号レジデンス此花７０２号,,17,201,9200851,,,,,,,2022-06-15,1,,,,,アンズキカク,0
529,2220003003298,新規,0,2022-06-15,2022-06-15,合同会社Ａ’ｓコーポレーション,,合同会社,石川県,金沢市,西念４丁目５番１８号,,17,201,9200024,,,,,,,2022-06-15,1,,,,,アズコーポレーション,0
531,2240001059927,新規,0,2022-06-15,2022-06-15,ベストパートナーズ株式会社,,株式会社,広島県,広島市佐伯区,五日市中央４丁目１３番１２号,,34,108,7315128,,,,,,,2022-06-15,1,,,,,,0
532,2240001059951,新規,0,2022-06-15,2022-06-15,株式会社ＰＬＥＧＯＴＨ,,株式会社,広島県,広島市中区,鶴見町１３番１２号,,34,101,7300045,,,,,,,2022-06-15,1,,,,,プレゴス,0
540,2260001036949,新規,0,2022-06-15,2022-06-15,株式会社アンテナオフィス,,株式会社,岡山県,岡山市南区,植松３８－２,,33,104,7100151,,,,,,,2022-06-15,1,,,,,,0
541,2260001036957,新規,0,2022-06-15,2022-06-15,株式会社コラボ,,株式会社,岡山県,岡山市中区,浜３６８－３,,33,102,7038256,,,,,,,2022-06-15,1,,,,,コラボ,0
544,2260003003939,新規,0,2022-06-15,2022-06-15,合同会社ケイエイ,,合同会社,岡山県,真庭市,久世２４９１番地９,,33,214,7193201,,,,,,,2022-06-15,1,,,,,ケイエイ,0
545,2260003003947,新規,0,2022-06-15,2022-06-15,合同会社理叶,,合同会社,岡山県,岡山市北区,奉還町２丁目１９－８－９０１,,33,101,7000026,,,,,,,2022-06-15,1,,,,,リカナ,0
546,2280001008715,新規,0,2022-06-15,2022-06-15,株式会社森脇工務店,,株式会社,島根県,邑智郡邑南町,矢上４２７１番地１,,32,449,6960103,,,,,,,2022-06-15,1,,,,,モリワキコウムテン,0
547,2280003001619,新規,0,2022-06-15,2022-06-15,合同会社ＤＣＶｅｔｓ,,合同会社,島根県,益田市,乙吉町イ３３０番地１５,,32,204,6980003,,,,,,,2022-06-15,1,,,,,ディーシーベッツ,0
551,2290001097914,新規,0,2022-06-15,2022-06-15,株式会社ＳＥＶＥＮＴＨ,,株式会社,福岡県,大野城市,南大利２丁目３番１３号,,40,219,8160956,,,,,,,2022-06-15,1,,,,,セブンス,0
552,2290001097922,新規,0,2022-06-15,2022-06-15,株式会社フジ電気,,株式会社,福岡県,春日市,春日６丁目１２７番地５,,40,218,8160814,,,,,,,2022-06-15,1,,,,,フジデンキ,0
553,2290001097930,新規,0,2022-06-15,2022-06-15,株式会社桜美社中,,株式会社,福岡県,福岡市中央区,天神１丁目９番１７号福岡天神フコク生命ビル１５階,,40,133,8100001,,,,,,,2022-06-15,1,,,,,オウビシャチュウ,0
557,2290801028639,新規,0,2022-06-15,2022-06-15,株式会社キタノホーム,,株式会社,福岡県,中間市,岩瀬１丁目８番１号,,40,215,8090011,,,,,,,2022-06-15,1,,,,,キタノホーム,0
561,2310003004386,新規,0,2022-06-15,2022-06-15,合同会社ｉｓ．,,合同会社,長崎県,佐世保市,熊野町７番１号,,42,202,8570025,,,,,,,2022-06-15,1,,,,,イズ,0
567,2320005010002,新規,0,2022-06-15,2022-06-15,一般社団法人やまが地域創生機構,,その他の設立登記法人,大分県,杵築市,山香町大字内河野２５１０番地１,,44,210,8791311,,,,,,,2022-06-15,1,,,,,ヤマガチイキソウセイキコウ,0
571,2330001029838,新規,0,2022-06-15,2022-06-15,株式会社玉吉丸水産,,株式会社,熊本県,玉名郡長洲町,大字上沖洲２７２番地１,,43,368,8690104,,,,,,,2022-06-15,1,,,,,タマヨシマルスイサン,0
572,2330003009417,新規,0,2022-06-15,2022-06-15,合同会社ムラタプライス,,合同会社,熊本県,熊本市中央区,坪井６丁目８－２０－４０１,,43,101,8600863,,,,,,,2022-06-15,1,,,,,ムラタプライス,0
574,2340001024821,新規,0,2022-06-15,2022-06-15,サクセストレーディング株式会社,,株式会社,鹿児島県,鹿児島市,東谷山３丁目３２番２５号５０３号室,,46,201,8910113,,,,,,,2022-06-15,1,,,,,サクセストレーディング,0
577,2340003003831,新規,0,2022-06-15,2022-06-15,ＹＯｉＭＩＫＡＴＡ合同会社,,合同会社,鹿児島県,薩摩川内市,勝目町５７７７番地２,,46,215,8950031,,,,,,,2022-06-15,1,,,,,ヨイミカタ,0
583,2360003012087,新規,0,2022-06-15,2022-06-15,合同会社マリア,,合同会社,沖縄県,那覇市,久茂地１丁目１番１号９Ｆ,,47,201,9000015,,,,,,,2022-06-15,1,,,,,マリア,0
586,2370001048685,新規,0,2022-06-15,2022-06-15,株式会社一期一会ワークショップ,,株式会社,宮城県,仙台市泉区,紫山１丁目１９番地の５,,04,105,9813205,,,,,,,2022-06-15,1,,,,,イチゴイチエワークショップ,0
590,2380001032894,新規,0,2022-06-15,2022-06-15,株式会社ｓｔｅ,,株式会社,福島県,郡山市,大町１丁目２番２３号ＫＩＫ´Ｂ・Ｗ２１,,07,203,9638001,,,,,,,2022-06-15,1,,,,,エスティーイー,0
602,2420001017899,新規,0,2022-06-15,2022-06-15,株式会社フローレストラフィック,,株式会社,青森県,八戸市,大字新井田字石動木平２番地４,,02,203,0310813,,,,,,,2022-06-15,1,,,,,フローレストラフィック,0
611,2430001086803,新規,0,2022-06-15,2022-06-15,株式会社令月会,,株式会社,北海道,札幌市中央区,北一条西３丁目３番２７号札幌北１条駅前通りビル９階,,01,101,0600001,,,,,,,2022-06-15,1,,,,,レイゲツカイ,0
612,2430001086828,新規,0,2022-06-15,2022-06-15,株式会社ＳＡＳＡＫＥＮ,,株式会社,北海道,札幌市中央区,南六条西９丁目１０１９番地１２札幌第１パークハイツ８１９号,,01,101,0640806,,,,,,,2022-06-15,1,,,,,ササケン,0
613,2430001086860,新規,0,2022-06-15,2022-06-15,株式会社フィールドサーチ,,株式会社,北海道,札幌市東区,北三十八条東４丁目１番３－１０３号,,01,103,0070838,,,,,,,2022-06-15,1,,,,,フィールドサーチ,0
615,2430003014002,新規,0,2022-06-15,2022-06-15,さっち合同会社,,合同会社,北海道,石狩郡新篠津村,第４７線北５１番地,,01,304,0681100,,,,,,,2022-06-15,1,,,,,サッチ,0
616,2440001009102,新規,0,2022-06-15,2022-06-15,Ｇｌｏｂａｌ　Ｉｎｆｌｕｅｎｃｅ株式会社,,株式会社,北海道,函館市,中道２丁目１６番１３号,,01,202,0410853,,,,,,,2022-06-15,1,,,,,グローバルインフルエンス,0
620,2470003002201,新規,0,2022-06-15,2022-06-15,空ｉｃｈｉ合同会社,,合同会社,香川県,丸亀市,飯山町下法軍寺６４７番地１０,,37,202,7620083,,,,,,,2022-06-15,1,,,,,ソライチ,0
622,2470005006448,新規,0,2022-06-15,2022-06-15,一般社団法人鎌野墓地管理組合,,その他の設立登記法人,香川県,高松市,三谷町２４２番地,,37,201,7610450,,,,,,,2022-06-15,1,,,,,カマノボチカンリクアイ,0
627,2700150049211,新規,0,2022-06-15,2015-10-09,サンテン・グループ,,その他,石川県,白山市,徳丸町３７０番地,,17,210,9240804,,,,,,,2015-10-09,1,,,,,サンテングループ,0
628,2700150109790,新規,0,2022-06-15,2022-06-15,道玄坂二丁目南地区市街地再開発組合,,その他,東京都,渋谷区,道玄坂２丁目１０番７号,,13,113,1500043,,,,,,,2022-06-15,1,,,,,ドウゲンザカニチヨウメミナミチクシガイチサイカイハツクミアイ,0
632,3010001227316,新規,0,2022-06-15,2022-06-15,株式会社ＦＣＳ,,株式会社,東京都,千代田区,丸の内３丁目２番２号丸の内二重橋ビル２階,,13,101,1000005,,,,,,,2022-06-15,1,,,,,エフシーエス,0
633,3010001227365,新規,0,2022-06-15,2022-06-15,株式会社マウナ・ケア,,株式会社,東京都,文京区,白山１丁目２５番７号,,13,105,1130001,,,,,,,2022-06-15,1,,,,,マウナケア,0
634,3010001227415,新規,0,2022-06-15,2022-06-15,株式会社日興,,株式会社,東京都,文京区,小石川３丁目２８番１４,,13,105,1120002,,,,,,,2022-06-15,1,,,,,ニッコウ,0
635,3010005035137,新規,0,2022-06-15,2022-06-15,特定目的会社Ｃｙａｎ　Ｈｏｌｄｉｎｇｓ１,,その他の設立登記法人,東京都,千代田区,丸の内３丁目１番１号東京共同会計事務所内,,13,101,1000005,,,,,,,2022-06-15,1,,,,,シアンホールディングスワン,0
647,3010401167921,新規,0,2022-06-15,2022-06-15,株式会社Ｃｏｍｍｏｎｓ　Ｔｅｃｈｎｏｌｏｇｉｅｓ,,株式会社,東京都,港区,南青山２丁目２番１５号,,13,103,1070062,,,,,,,2022-06-15,1,,,,,コモンズテクノロジーズ,0
648,3010401167962,新規,0,2022-06-15,2022-06-15,Ｂｌｕｅ　Ｂｉｒｄｓ　Ｃｏｎｓｕｌｔｉｎｇ株式会社,,株式会社,東京都,港区,南青山５丁目１２番５号第一和田ビル,,13,103,1070062,,,,,,,2022-06-15,1,,,,,ブルーバーズコンサルティング,0
649,3010401167995,新規,0,2022-06-15,2022-06-15,メタバース不動産株式会社,,株式会社,東京都,港区,海岸１丁目２番３号汐留芝離宮ビルディング２１階,,13,103,1050022,,,,,,,2022-06-15,1,,,,,メタバースフドウサン,0
652,3010403027875,新規,0,2022-06-15,2022-06-15,合同会社ＧＲＡＴＩＡＭ,,合同会社,東京都,港区,南青山２丁目２番１５号,,13,103,1070062,,,,,,,2022-06-15,1,,,,,グラティアム,0
653,3010403027891,新規,0,2022-06-15,2022-06-15,ＳＯＣＩＥＴＡ合同会社,,合同会社,東京都,港区,三田４丁目７番１３－５０５号,,13,103,1080073,,,,,,,2022-06-15,1,,,,,ソシエタ,0
654,3010403027900,新規,0,2022-06-15,2022-06-15,合同会社ｓｉｘ,,合同会社,東京都,港区,南青山２丁目２番１５号,,13,103,1070062,,,,,,,2022-06-15,1,,,,,シックス,0
655,3010403027909,新規,0,2022-06-15,2022-06-15,合同会社Ｎｅｘｔ　Ｉｎｎｏｖａｔｉｏｎｓ,,合同会社,東京都,港区,南青山２丁目２番１５号,,13,103,1070062,,,,,,,2022-06-15,1,,,,,ネクストイノベーションズ,0
656,3010405021075,新規,0,2022-06-15,2022-06-15,一般社団法人ミズゴケ学会,,その他の設立登記法人,東京都,港区,芝３丁目１８番５号,,13,103,1050014,,,,,,,2022-06-15,1,,,,,ミズゴケガッカイ,0
660,3010603009590,新規,0,2022-06-15,2022-06-15,合同会社ｓａｌｏｎ　ｄｅ姫,,合同会社,東京都,江東区,東砂３丁目２０番２４－５０１号,,13,108,1360074,,,,,,,2022-06-15,1,,,,,サロンドヒメ,0
661,3010605004094,新規,0,2022-06-15,2022-06-15,一般社団法人Ａ＆Ｓ　ＬＯＴＵＳ　ＩＤＥＡＬ,,その他の設立登記法人,東京都,墨田区,錦糸３丁目７番７－２０５号太田ビル,,13,107,1300013,,,,,,,2022-06-15,1,,,,,エーアンドエスロータスアイディール,0
662,3010701042824,新規,0,2022-06-15,2022-06-15,株式会社Ａ．ｐｌｕｓ,,株式会社,東京都,品川区,旗の台６丁目２８番６－４１２号,,13,109,1420064,,,,,,,2022-06-15,1,,,,,エープラス,0
663,3010801033054,新規,0,2022-06-15,2022-06-15,株式会社ＫＵＭＡカンパニー,,株式会社,東京都,大田区,南蒲田２丁目１４番１１号ベルツリー１０２号室,,13,111,1440035,,,,,,,2022-06-15,1,,,,,クマカンパニー,0
673,3011001147966,新規,0,2022-06-15,2022-06-15,株式会社トップノート,,株式会社,東京都,渋谷区,千駄ヶ谷２丁目１番１０号赤坂ビルディング３０３,,13,113,1510051,,,,,,,2022-06-15,1,,,,,トップノート,0
674,3011001148080,新規,0,2022-06-15,2022-06-15,株式会社Ｒコネクト,,株式会社,東京都,渋谷区,代々木２丁目２３番１号,,13,113,1510053,,,,,,,2022-06-15,1,,,,,アールコネクト,0
675,3011001148163,新規,0,2022-06-15,2022-06-15,株式会社ニマユマ,,株式会社,東京都,目黒区,中目黒３丁目２－１５スモリバアパートメント１０５,,13,110,1530061,,,,,,,2022-06-15,1,,,,,ニマユマ,0
684,3011101099199,新規,0,2022-06-15,2022-06-15,株式会社ジェイエスアイコンサルティング,,株式会社,東京都,新宿区,四谷４丁目２９番地５－１１０４,,13,104,1600004,,,,,,,2022-06-15,1,,,,,ジェイエスアイコンサルティング,0
685,3011101099224,新規,0,2022-06-15,2022-06-15,株式会社寛之,,株式会社,東京都,新宿区,早稲田鶴巻町３７１－１パレステュディオ早稲田７０５号,,13,104,1620041,,,,,,,2022-06-15,1,,,,,ヒロユキ,0
686,3011101099232,新規,0,2022-06-15,2022-06-15,株式会社モアモアコ,,株式会社,東京都,新宿区,新宿１丁目３４番１３号貝塚ビル１００１,,13,104,1600022,,,,,,,2022-06-15,1,,,,,モアモアコ,0
688,3011103011855,新規,0,2022-06-15,2022-06-15,合同会社マジカルラボ,,合同会社,東京都,新宿区,早稲田鶴巻町１１２,,13,104,1620041,,,,,,,2022-06-15,1,,,,,マジカルラボ,0
695,3011501028146,新規,0,2022-06-15,2022-06-15,悦宸株式会社,,株式会社,東京都,荒川区,南千住３丁目５番２３－３０２号,,13,118,1160003,,,,,,,2022-06-15,1,,,,,エツシン,0
697,3011601026033,新規,0,2022-06-15,2022-06-15,株式会社東豊,,株式会社,東京都,練馬区,豊玉中４丁目５番３号,,13,120,1760013,,,,,,,2022-06-15,1,,,,,トウホウ,0
699,3011603003625,新規,0,2022-06-15,2022-06-15,アスペンツリー合同会社,,合同会社,東京都,練馬区,豊玉北４丁目１４番地９－３０２号,,13,120,1760012,,,,,,,2022-06-15,1,,,,,アスペンツリー,0
706,3012401039290,新規,0,2022-06-15,2022-06-15,ｃｏｌａｂｏｆａｃｔ株式会社,,株式会社,東京都,調布市,深大寺元町１丁目１１番地１，１階３３－１，３５区画,,13,208,1820017,,,,,,,2022-06-15,1,,,,,コラボファクト,0
707,3012401039299,新規,0,2022-06-15,2022-06-15,株式会社Ａ＆Ｃサポート,,株式会社,東京都,多摩市,諏訪１丁目６５番地の１,,13,224,2060024,,,,,,,2022-06-15,1,,,,,エーアンドシーサポート,0
708,3012703002475,新規,0,2022-06-15,2022-06-15,ＶＩＢＥＬＩＴＡ合同会社,,合同会社,東京都,西東京市,谷戸町２丁目６番９－４１５号,,13,229,1880001,,,,,,,2022-06-15,1,,,,,ヴィベリータ,0
716,3020001146903,新規,0,2022-06-15,2022-06-15,株式会社ＫＡＭＥＹＡ　ＲＥＰＵＢＬＩＣ,,株式会社,神奈川県,横浜市神奈川区,高島台５番地３,,14,102,2210833,,,,,,,2022-06-15,1,,,,,カメヤリパブリック,0
717,3020001146936,新規,0,2022-06-15,2022-06-15,カルウ株式会社,,株式会社,神奈川県,横浜市都筑区,中川中央１丁目７番１号,,14,118,2240003,,,,,,,2022-06-15,1,,,,,カルウ,0
718,3020001146952,新規,0,2022-06-15,2022-06-15,ＮＳＬ株式会社,,株式会社,神奈川県,横浜市中区,本牧間門１０番３号,,14,104,2310825,,,,,,,2022-06-15,1,,,,,エヌエスエル,0
719,3020001146960,新規,0,2022-06-15,2022-06-15,大誠実業株式会社,,株式会社,神奈川県,川崎市川崎区,桜本２丁目３２番１号,,14,131,2100833,,,,,,,2022-06-15,1,,,,,ダイセイジツギョウ,0
723,3020003021939,新規,0,2022-06-15,2022-06-15,ＣＯＭＳ合同会社,,合同会社,神奈川県,横浜市神奈川区,西寺尾２丁目２０番５号,,14,102,2210001,,,,,,,2022-06-15,1,,,,,コムス,0
724,3020003021955,新規,0,2022-06-15,2022-06-15,合同会社ＣＨＵＲＥＲＥＮＴ,,合同会社,神奈川県,横浜市西区,北幸１丁目１１番１号７階,,14,103,2200004,,,,,,,2022-06-15,1,,,,,チュレレント,0
725,3020003021963,新規,0,2022-06-15,2022-06-15,合同会社まはな計画相談所,,合同会社,神奈川県,横浜市中区,本牧間門８番１２号,,14,104,2310825,,,,,,,2022-06-15,1,,,,,マハナケイカクソウダンジョ,0
730,3021001076264,新規,0,2022-06-15,2022-06-15,株式会社リトルスマイリー,,株式会社,神奈川県,藤沢市,鵠沼海岸１丁目５番１３号,,14,205,2510037,,,,,,,2022-06-15,1,,,,,リトルスマイリー,0
732,3021003011822,新規,0,2022-06-15,2022-06-15,合同会社藤村本店,,合同会社,神奈川県,藤沢市,亀井野２丁目４８番地の６,,14,205,2520813,,,,,,,2022-06-15,1,,,,,フジムラホンテン,0
733,3021003011830,新規,0,2022-06-15,2022-06-15,合同会社アネラ,,合同会社,神奈川県,藤沢市,藤が岡３丁目１番８～６１０号,,14,205,2510004,,,,,,,2022-06-15,1,,,,,アネラ,0
735,3021005012546,新規,0,2022-06-15,2022-06-15,一般社団法人ＭＡＳＪＩＤ　ＡＬ　ＡＱＳＡ,,その他の設立登記法人,神奈川県,藤沢市,宮原３３４４番地１,,14,205,2520826,,,,,,,2022-06-15,1,,,,,マスジドアルアクサ,0
740,3030001148683,新規,0,2022-06-15,2022-06-15,株式会社Ｐｏｓｔｓｃｒｉｐｔ,,株式会社,埼玉県,入間市,久保稲荷２丁目１１番地８,,11,225,3580024,,,,,,,2022-06-15,1,,,,,ポストスクリプト,0
741,3030001148691,新規,0,2022-06-15,2022-06-15,株式会社Ｎｅｘｔ　ａｇｅ,,株式会社,埼玉県,春日部市,備後西４丁目５番３６号,,11,214,3440033,,,,,,,2022-06-15,1,,,,,ネクストエイジ,0
742,3030001148700,新規,0,2022-06-15,2022-06-15,株式会社エー・ジー・エス・パートナー,,株式会社,埼玉県,さいたま市中央区,上落合２丁目３番２号Ｍｉｏ新都心７階,,11,105,3380001,,,,,,,2022-06-15,1,,,,,エージーエスパートナー,0
743,3030001148709,新規,0,2022-06-15,2022-06-15,株式会社ａｍａｔｓｕｈｉ,,株式会社,埼玉県,朝霞市,宮戸３丁目４番１号,,11,227,3510031,,,,,,,2022-06-15,1,,,,,アマツヒ,0
745,3030003019619,新規,0,2022-06-15,2022-06-15,ｐｏｎｏｎ合同会社,,合同会社,埼玉県,草加市,稲荷４丁目９番２７－５０２号,,11,221,3400003,,,,,,,2022-06-15,1,,,,,ポノン,0
751,3040001123834,新規,0,2022-06-15,2022-06-15,株式会社サイトウ工務店,,株式会社,千葉県,勝浦市,植野８６番地,,12,218,2995265,,,,,,,2022-06-15,1,,,,,サイトウコウムテン,0
752,3040001123850,新規,0,2022-06-15,2022-06-15,株式会社マックプランニング,,株式会社,千葉県,松戸市,常盤平２丁目１６番地の５,,12,207,2702261,,,,,,,2022-06-15,1,,,,,マックプランニング,0
753,3040001123867,新規,0,2022-06-15,2022-06-15,株式会社パディーズ,,株式会社,千葉県,柏市,豊四季台２丁目１番１０６－８０１号,,12,217,2770845,,,,,,,2022-06-15,1,,,,,パディーズ,0
754,3040001123883,新規,0,2022-06-15,2022-06-15,株式会社Ｈ・Ｋ・Ｅ,,株式会社,千葉県,船橋市,習志野５丁目３番８－５０１号,,12,204,2740071,,,,,,,2022-06-15,1,,,,,エイチケーイー,0
755,3040001123891,新規,0,2022-06-15,2022-06-15,株式会社ＪＡＰＡＮ　ＡＲＡＬＩＹＡ,,株式会社,千葉県,八街市,根古谷５１０番地２,,12,230,2891136,,,,,,,2022-06-15,1,,,,,ジャパンアラリヤ,0
757,3040003020253,新規,0,2022-06-15,2022-06-15,合同会社エイチエム,,合同会社,千葉県,柏市,あけぼの３丁目５－２４,,12,217,2770841,,,,,,,2022-06-15,1,,,,,エイチエム,0
760,3050001051233,新規,0,2022-06-15,2022-06-15,株式会社美ノ流,,株式会社,茨城県,土浦市,大畑４５５番地３,,08,203,3004111,,,,,,,2022-06-15,1,,,,,ミノル,0
764,3060001034971,新規,0,2022-06-15,2022-06-15,国際アグリワールドＳＡＮＯ株式会社,,株式会社,栃木県,佐野市,山形町３７７番地,,09,204,3270324,,,,,,,2022-06-15,1,,,,,コクサイアグリワールドサノ,0
765,3060001034988,新規,0,2022-06-15,2022-06-15,株式会社ディーセント・リワーク,,株式会社,栃木県,佐野市,栃本町１７０７番地,,09,204,3270312,,,,,,,2022-06-15,1,,,,,ディーセントリワーク,0
772,3080101023360,新規,0,2022-06-15,2022-06-15,株式会社エミリーポム,,株式会社,静岡県,富士宮市,大岩１１８番地の１９,,22,207,4180013,,,,,,,2022-06-15,1,,,,,エミリーポム,0
773,3080103002602,新規,0,2022-06-15,2022-06-15,合同会社Ｋ＆Ｙ,,合同会社,静岡県,伊豆の国市,長岡３４８番地の１,,22,225,4102211,,,,,,,2022-06-15,1,,,,,ケイアンドワイ,0
775,3090001017619,新規,0,2022-06-15,2022-06-15,株式会社エフイズ,,株式会社,山梨県,笛吹市,石和町松本５番地,,19,211,4060021,,,,,,,2022-06-15,1,,,,,エフイズ,0
777,3100001035437,新規,0,2022-06-15,2022-06-15,株式会社プラマーズライン,,株式会社,長野県,東筑摩郡生坂村,２８７６番地,,20,448,3997201,,,,,,,2022-06-15,1,,,,,プラマーズライン,0
778,3100003006576,新規,0,2022-06-15,2022-06-15,合同会社ＯＨＡＮＡ,,合同会社,長野県,上伊那郡辰野町,富士塚３４４７番地２富士塚団地１２号,00126874,20,382,3990400,,,,,,,2022-06-15,1,,,,,オハナ,0
779,3100003006584,新規,0,2022-06-15,2022-06-15,ぱんみーる合同会社,,合同会社,長野県,長野市,柳町一丁目２番地小池ビル２階Ｎ－ｐｏｒｔ＋,,20,201,3800805,,,,,,,2022-06-15,1,,,,,パンミール,0
792,3120001246494,新規,0,2022-06-15,2022-06-15,株式会社チア‐ズ,,株式会社,大阪府,大阪市淀川区,西中島１丁目１０番１０号６０５,,27,123,5320011,,,,,,,2022-06-15,1,,,,,チアーズ,0
793,3120001246577,新規,0,2022-06-15,2022-06-15,株式会社シンセリティリフォーム,,株式会社,大阪府,大阪市東淀川区,菅原３丁目１８番１－２０２号,,27,114,5330022,,,,,,,2022-06-15,1,,,,,シンセリティリフォーム,0
794,3120001246593,新規,0,2022-06-15,2022-06-15,木宮株式会社,,株式会社,大阪府,大阪市中央区,淡路町１丁目３番２－８０３号,,27,128,5410047,,,,,,,2022-06-15,1,,,,,キノミヤ,0
798,3120003021912,新規,0,2022-06-15,2022-06-15,大明合同会社,,合同会社,大阪府,大阪市中央区,千日前１丁目５番１９号寿楽ビル１００４号室,,27,128,5420074,,,,,,,2022-06-15,1,,,,,ダイメイ,0
799,3120005022999,新規,0,2022-06-15,2022-06-15,一般社団法人フルフィル協会,,その他の設立登記法人,大阪府,大阪市北区,梅田１丁目２番２－２００号大阪駅前第二ビル２階３－１－２,,27,127,5300001,,,,,,,2022-06-15,1,,,,,フルフィルキョウカイ,0
804,3120901046102,新規,0,2022-06-15,2022-06-15,ＭＩＹＡ　ＩＮＶＥＳＴＭＥＮＴ株式会社,,株式会社,大阪府,吹田市,千里山月が丘７番５－６０７号,,27,205,5650847,,,,,,,2022-06-15,1,,,,,ミヤインベストメント,0
806,3120905006333,新規,0,2022-06-15,2022-06-15,一般社団法人ひとみらい共育ＬＡＢＯ,,その他の設立登記法人,大阪府,摂津市,正雀本町１丁目３８番１０号ＩＳＡＫＵ１,,27,224,5660024,,,,,,,2022-06-15,1,,,,,ヒトミライキョウイクラボ,0
810,3122001035951,新規,0,2022-06-15,2022-06-15,株式会社ＦＡＶＯＲＩＳＴ,,株式会社,大阪府,八尾市,光南町２丁目３番１７号,,27,212,5810007,,,,,,,2022-06-15,1,,,,,フェイバリスト,0
820,3130003007984,新規,0,2022-06-15,2022-06-15,オフィスＨｉｒｏ合同会社,,合同会社,京都府,京都市北区,平野宮西町１０９－１,,26,101,6038357,,,,,,,2022-06-15,1,,,,,オフィスヒロ,0
826,3140001126331,新規,0,2022-06-15,2022-06-15,株式会社ＰＨＪ,,株式会社,兵庫県,姫路市,飾磨区中島３４５６,,28,201,6728035,,,,,,,2022-06-15,1,,,,,ピーエイチジェー,0
827,3140001126364,新規,0,2022-06-15,2022-06-15,株式会社Ｒｏｋｕｎａｎａ,,株式会社,兵庫県,神戸市中央区,山本通４丁目８番１２号,,28,110,6500003,,,,,,,2022-06-15,1,,,,,ロクナナ,0
828,3140001126389,新規,0,2022-06-15,2022-06-15,株式会社エイス,,株式会社,兵庫県,神戸市中央区,加納町３丁目１３番４－３０１号,,28,110,6500001,,,,,,,2022-06-15,1,,,,,エイス,0
829,3140001126430,新規,0,2022-06-15,2022-06-15,株式会社Ｈｉｃｋ　ｏｎｅｓ,,株式会社,兵庫県,三木市,緑が丘町本町１丁目２３４－２ナガセビル２Ｆ,,28,215,6730534,,,,,,,2022-06-15,1,,,,,,0
837,3180001151747,新規,0,2022-06-15,2022-06-15,株式会社ダンクイノベーション,,株式会社,愛知県,名古屋市東区,大幸２丁目５番７号,,23,102,4610043,,,,,,,2022-06-15,1,,,,,ダンクイノベーション,0
838,3180003023911,新規,0,2022-06-15,2022-06-15,合同会社ボエム,,合同会社,愛知県,名古屋市中村区,十王町１丁目４,,23,105,,,,,,,,2022-06-15,1,,,,,ボエム,0
839,3180003023936,新規,0,2022-06-15,2022-06-15,合同会社エンヤテクノサービス,,合同会社,愛知県,知多郡武豊町,字梨子ノ木５丁目２２５番地,,23,447,4702309,,,,,,,2022-06-15,1,,,,,エンヤテクノサービス,0
841,3180301036326,新規,0,2022-06-15,2022-06-15,株式会社ＰＴＩ,,株式会社,愛知県,刈谷市,一ツ木町２丁目１番地１,,23,210,4480003,,,,,,,2022-06-15,1,,,,,ピーティーアイ,0
842,3180301036334,新規,0,2022-06-15,2022-06-15,ＨＡＮＡＩ　ＪＡＰＡＮ株式会社,,株式会社,愛知県,刈谷市,銀座２丁目６８番地,,23,210,4480845,,,,,,,2022-06-15,1,,,,,ハナイジャパン,0
848,3190001029521,新規,0,2022-06-15,2022-06-15,清水管工株式会社,,株式会社,三重県,伊勢市,二見町山田原６９番地５,,24,203,5190604,,,,,,,2022-06-15,1,,,,,シミズカンコウ,0
855,3230001019410,新規,0,2022-06-15,2022-06-15,株式会社プラウドワークス,,株式会社,富山県,高岡市,伏木本町６番地２５,,16,202,9330106,,,,,,,2022-06-15,1,,,,,プラウドワークス,0
866,3260001036948,新規,0,2022-06-15,2022-06-15,株式会社ポケットＡＮＤ,,株式会社,岡山県,岡山市北区,中仙道２丁目８番２２号,,33,101,7000964,,,,,,,2022-06-15,1,,,,,ポケットアンド,0
869,3260003003946,新規,0,2022-06-15,2022-06-15,合同会社ＤｅｖｅｌｏｐＷ,,合同会社,岡山県,岡山市北区,田益５８６番地,,33,101,7011154,,,,,,,2022-06-15,1,,,,,デベロップダブリュー,0
873,3290001097905,新規,0,2022-06-15,2022-06-15,株式会社エムコネクション,,株式会社,福岡県,福岡市中央区,警固２丁目１８番１３号,,40,133,8100023,,,,,,,2022-06-15,1,,,,,エムコネクション,0
874,3290001097913,新規,0,2022-06-15,2022-06-15,株式会社悠華,,株式会社,福岡県,福岡市博多区,中洲４丁目２－５中洲岡部ビル３号館３０１,,40,132,8100801,,,,,,,2022-06-15,1,,,,,ユウカ,0
875,3290001097921,新規,0,2022-06-15,2022-06-15,株式会社Ｌａｎｄ　Ｅｓｔａｔｅ,,株式会社,福岡県,福岡市南区,大楠２丁目５番８号,,40,134,8150082,,,,,,,2022-06-15,1,,,,,ランドエステート,0
876,3290001097938,新規,0,2022-06-15,2022-06-15,藤村建設株式会社,,株式会社,福岡県,大牟田市,三川町２丁目８３番地１,,40,202,8360065,,,,,,,2022-06-15,1,,,,,フジムラケンセツ,0
877,3290001097946,新規,0,2022-06-15,2022-06-15,株式会社キングダム,,株式会社,福岡県,大牟田市,久保田二丁目２番地１１,,40,202,8360000,,,,,,,2022-06-15,1,,,,,キングダム,0
878,3290003012622,新規,0,2022-06-15,2022-06-15,合同会社Ｏｆｆｉｃｅ　Ｗａｄａ,,合同会社,福岡県,福岡市中央区,天神３丁目７番３１号,,40,133,8100001,,,,,,,2022-06-15,1,,,,,オフィスワダ,0
879,3290003012630,新規,0,2022-06-15,2022-06-15,合同会社サンズクラフト,,合同会社,福岡県,福岡市博多区,築港本町８４番２の４０５,,40,132,8120021,,,,,,,2022-06-15,1,,,,,サンズクラフト,0
887,3330001029837,新規,0,2022-06-15,2022-06-15,株式会社かいよう水産,,株式会社,熊本県,玉名市,大浜町３４４５番地,,43,206,8650055,,,,,,,2022-06-15,1,,,,,カイヨウスイサン,0
894,3350003004101,新規,0,2022-06-15,2022-06-15,アリアカンパニー合同会社,,合同会社,宮崎県,宮崎市,大塚町祝子前１７７３番地１ピュアＭ弐番館２０２号,,45,201,8800951,,,,,,,2022-06-15,1,,,,,アリアカンパニー,0
896,3360001030536,新規,0,2022-06-15,2022-06-15,ＨｔｏＡ株式会社,,株式会社,沖縄県,那覇市,久茂地２丁目１５番３号嘉栄産業ビル２階,,47,201,9000015,,,,,,,2022-06-15,1,,,,,エイチトゥエー,0
897,3360001030552,新規,0,2022-06-15,2022-06-15,Ａｌｌ　Ｂｅｓｔ株式会社,,株式会社,沖縄県,島尻郡南風原町,字与那覇４８番地３・３階３０３,,47,350,9011103,,,,,,,2022-06-15,1,,,,,オールベスト,0
899,3360003012086,新規,0,2022-06-15,2022-06-15,イーストライン合同会社,,合同会社,沖縄県,中頭郡中城村,字南上原７１７番地３－２００号,,47,328,9012424,,,,,,,2022-06-15,1,,,,,イーストライン,0
903,3370005010491,新規,0,2022-06-15,2022-06-15,医療法人神山クリニック,,その他の設立登記法人,宮城県,東松島市,赤井字川前四番１－６,,04,214,9810501,,,,,,,2022-06-15,1,,,,,カミヤマクリニック,0
910,3380001032893,新規,0,2022-06-15,2022-06-15,株式会社ＬＩＧ,,株式会社,福島県,福島市,丸子字町頭１７番地の６オーエス丸子１０２,,07,201,9600111,,,,,,,2022-06-15,1,,,,,リグ,0
919,3430001086810,新規,0,2022-06-15,2022-06-15,株式会社Ａｍｂｉｔｉｏｕｓ,,株式会社,北海道,札幌市北区,新琴似一条１丁目５番１５号,,01,102,0010901,,,,,,,2022-06-15,1,,,,,アンビシャス,0
920,3430001086827,新規,0,2022-06-15,2022-06-15,株式会社大谷経営・保険事務所,,株式会社,北海道,石狩市,花川南一条４丁目１６５番地,,01,235,0613201,,,,,,,2022-06-15,1,,,,,オオタニケイエイホケンジムショ,0
922,3440003001469,新規,0,2022-06-15,2022-06-15,合同会社ＢＡＳＡＲＡ,,合同会社,北海道,上磯郡木古内町,字中野６５－５,,01,334,0490441,,,,,,,2022-06-15,1,,,,,,0
925,3460103001466,新規,0,2022-06-15,2022-06-15,合同会社さのっちｆａｍ,,合同会社,北海道,帯広市,西十六条北２丁目３７番４号,,01,207,0800046,,,,,,,2022-06-15,1,,,,,サノッチファム,0
929,3480001011771,新規,0,2022-06-15,2022-06-15,株式会社ＴＯＭＩＤＡ,,株式会社,徳島県,徳島市,助任橋３丁目２１番地４,,36,201,7700815,,,,,,,2022-06-15,1,,,,,トミダ,0
933,3490003001670,新規,0,2022-06-15,2022-06-15,コサキメンテ合同会社,,合同会社,高知県,高知市,神田２８７番地５,,39,201,7808040,,,,,,,2022-06-15,1,,,,,コサキメンテ,0
937,3700150009809,新規,0,2022-06-15,2015-10-09,シャルマンコーポ池袋管理組合,,その他,東京都,豊島区,池袋３丁目１６－８,,13,116,1710014,,,,,,,2015-10-09,1,,,,,シヤルマンコーポイケブクロカンリクミアイ,0
939,3700150109278,新規,0,2022-06-15,2022-06-07,Ｕｂｅｒｓｃｈａｌｌ　Ｒｅｃｏｒｄｓ,,その他,東京都,世田谷区,上北沢４丁目１６－７上北沢グリーンコーポ１００１,,13,112,1560057,,,,,,,2022-06-07,1,,,,,ウバーシヤルレコーズ,0
957,4010001227372,新規,0,2022-06-15,2022-06-15,株式会社ＬＡＮＶＩＣ,,株式会社,東京都,千代田区,隼町２番１６号ブルンネン半蔵門３０１号室,,13,101,1020092,,,,,,,2022-06-15,1,,,,,ランビック,0
960,4010005035128,新規,0,2022-06-15,2022-06-15,特定非営利活動法人キリロム・アセアン・アカデミー,,その他の設立登記法人,東京都,千代田区,富士見１丁目３番１１号,,13,101,1020071,,,,,,,2022-06-15,1,,,,,キリロムアセアンアカデミー,0
961,4010101015215,新規,0,2022-06-15,2022-06-15,Ｖｉｓｕａｌ　Ｒｅｅｌ　Ｅｎｔｅｒｔａｉｎｍｅｎｔ株式会社,,株式会社,東京都,八王子市,宇津木町６５２番地２ナッツフィールド１０１号,,13,201,1920024,,,,,,,2022-06-15,1,,,,,ビジュアルリールエンターテイメント,0
969,4010401167920,新規,0,2022-06-15,2022-06-15,ＢｅＴｏｕｃｈ株式会社,,株式会社,東京都,港区,南青山６丁目１番１３－３０８号,,13,103,1070062,,,,,,,2022-06-15,1,,,,,ビータッチ,0
970,4010401167945,新規,0,2022-06-15,2022-06-15,クリプト道株式会社,,株式会社,東京都,港区,六本木１丁目７番１０号パークコート六本木ヒルトップ１３０８,,13,103,1060032,,,,,,,2022-06-15,1,,,,,クリプトドウ,0
972,4010403027882,新規,0,2022-06-15,2022-06-15,Ｍａｎｓｕｋｅ合同会社,,合同会社,東京都,港区,浜松町２丁目２番１５号浜松町ダイヤビル２階,,13,103,1050013,,,,,,,2022-06-15,1,,,,,マンスケ,0
973,4010403027899,新規,0,2022-06-15,2022-06-15,ＪＡＭ合同会社,,合同会社,東京都,港区,六本木３丁目７－１,,13,103,1060032,,,,,,,2022-06-15,1,,,,,ジャム,0
974,4010405021074,新規,0,2022-06-15,2022-06-15,一般社団法人ラブジャパン,,その他の設立登記法人,東京都,港区,虎ノ門１丁目１６－２岩尾ビル６Ｆ,,13,103,1050001,,,,,,,2022-06-15,1,,,,,ラブジャパン,0
979,4010701042807,新規,0,2022-06-15,2022-06-15,株式会社ピジェクス,,株式会社,東京都,品川区,上大崎３丁目５番２号,,13,109,1410021,,,,,,,2022-06-15,1,,,,,ピジェクス,0
980,4010801033045,新規,0,2022-06-15,2022-06-15,ＡＮＤ’ｓ企画株式会社,,株式会社,東京都,大田区,田園調布１丁目１０番３フラット田園調布１００１号,,13,111,1450071,,,,,,,2022-06-15,1,,,,,アンドエスキカク,0
981,4010901051054,新規,0,2022-06-15,2022-06-15,株式会社ＦＯＵＮＴＡＩＮ,,株式会社,東京都,世田谷区,砧６丁目４０番５号,,13,112,1570073,,,,,,,2022-06-15,1,,,,,ファウンテン,0
982,4010903007450,新規,0,2022-06-15,2022-06-15,ＦＯＲＭＯＭ合同会社,,合同会社,東京都,世田谷区,玉川３丁目２０番２号マノア玉川第３ビル５０１号室,,13,112,1580094,,,,,,,2022-06-15,1,,,,,フォーマム,0
983,4010903007459,新規,0,2022-06-15,2022-06-15,土開商事合同会社,,合同会社,東京都,世田谷区,上野毛４丁目１３－１５,,13,112,1580093,,,,,,,2022-06-15,1,,,,,ドカイショウジ,0
989,4011001148096,新規,0,2022-06-15,2022-06-15,株式会社ｍｅｄｉｏ,,株式会社,東京都,渋谷区,神宮前６丁目２３番４号桑野ビル２階,,13,113,1500001,,,,,,,2022-06-15,1,,,,,メディオ,0
997,4011101099215,新規,0,2022-06-15,2022-06-15,株式会社Ｃａｍｐａｎｅｌｌｏ,,株式会社,東京都,新宿区,北新宿３丁目１番１６－１０４号ザ・パークハウス新宿柏木,,13,104,1690074,,,,,,,2022-06-15,1,,,,,カンパネッロ,0
998,4011101099231,新規,0,2022-06-15,2022-06-15,デイラボ株式会社,,株式会社,東京都,新宿区,西新宿８丁目８番１３号,,13,104,1600023,,,,,,,2022-06-15,1,,,,,デイラボ,0
999,4011103011854,新規,0,2022-06-15,2022-06-15,合同会社スティブナイト,,合同会社,東京都,新宿区,西新宿７丁目５番５号Ｐｌａｚａ西新宿ＵＣＦ４階,,13,104,1600023,,,,,,,2022-06-15,1,,,,,スティブナイト,0
1006,4011703003169,新規,0,2022-06-15,2022-06-15,合同会社東京セカンド,,合同会社,東京都,江戸川区,平井４丁目１２番１８号,,13,123,1320035,,,,,,,2022-06-15,1,,,,,トウキョウセカンド,0
1010,4012401039298,新規,0,2022-06-15,2022-06-15,株式会社アジック,,株式会社,東京都,調布市,国領町８丁目２番地２,,13,208,1820022,,,,,,,2022-06-15,1,,,,,アジック,0
1014,4012403005430,新規,0,2022-06-15,2022-06-15,ＯＴＯＫＯ　Ｓｔｙｌｅ　Ｌａｂ合同会社,,合同会社,東京都,狛江市,駒井町２丁目３０番２２号,,13,219,2010016,,,,,,,2022-06-15,1,,,,,オトコスタイルラボ,0
1017,4012701017103,新規,0,2022-06-15,2022-06-15,Ｒａｎｕｎｔｉｅｒ株式会社,,株式会社,東京都,小平市,学園西町２丁目１２番３１－５号,,13,211,1870045,,,,,,,2022-06-15,1,,,,,ラナンティア,0
1019,4012703002474,新規,0,2022-06-15,2022-06-15,合同会社好縁,,合同会社,東京都,西東京市,東伏見３丁目２番１号,,13,229,2020021,,,,,,,2022-06-15,1,,,,,コウエン,0
1026,4020001146910,新規,0,2022-06-15,2022-06-15,株式会社クレアル,,株式会社,神奈川県,横浜市瀬谷区,宮沢２丁目２５番地１０,,14,114,2460038,,,,,,,2022-06-15,1,,,,,クレアル,0
1027,4020001146927,新規,0,2022-06-15,2022-06-15,イルーナジャパン株式会社,,株式会社,神奈川県,川崎市麻生区,はるひ野４丁目９番１３号,,14,137,2150036,,,,,,,2022-06-15,1,,,,,イルーナジャパン,0
1031,4020003021830,新規,0,2022-06-15,2022-06-15,ＳＯＶ開発合同会社,,合同会社,神奈川県,横浜市中区,山下町２番地,,14,104,2310023,,,,,,,2022-06-15,1,,,,,エスオーブイカイハツ,0
1033,4021001076239,新規,0,2022-06-15,2022-06-15,ダイバーシティ株式会社,,株式会社,神奈川県,大和市,中央７丁目１番９大和一番館２０３号室,,14,213,2420021,,,,,,,2022-06-15,1,,,,,ダイバーシティ,0
1034,4021001076255,新規,0,2022-06-15,2022-06-15,株式会社Ｌａｂｌｏｏｍ,,株式会社,神奈川県,大和市,中央林間２丁目３番２０号,,14,213,2420007,,,,,,,2022-06-15,1,,,,,ラブルーム,0
1040,4030001148682,新規,0,2022-06-15,2022-06-15,株式会社マスカコーポレーション,,株式会社,埼玉県,さいたま市南区,太田窪５丁目８番２９号,,11,108,3360015,,,,,,,2022-06-15,1,,,,,マスカコーポレーション,0
1041,4030001148708,新規,0,2022-06-15,2022-06-15,株式会社ＭＡＳＡＭＩＣＨＩ,,株式会社,埼玉県,八潮市,中央３丁目２０番６号,,11,234,3400816,,,,,,,2022-06-15,1,,,,,マサミチ,0
1051,4040001123874,新規,0,2022-06-15,2022-06-15,株式会社Ｔ＆Ｔ総建,,株式会社,千葉県,長生郡白子町,古所３２９０番地４,,12,424,2994212,,,,,,,2022-06-15,1,,,,,ティーアンドティーソウケン,0
1053,4040003020236,新規,0,2022-06-15,2022-06-15,ｄｕａｌ合同会社,,合同会社,千葉県,習志野市,袖ケ浦１丁目１２－６,,12,216,2750021,,,,,,,2022-06-15,1,,,,,デュアル,0
1061,4050001051232,新規,0,2022-06-15,2022-06-15,株式会社ベストランドフードサービス,,株式会社,茨城県,つくば市,研究学園５丁目１２番地１０,,08,220,3050817,,,,,,,2022-06-15,1,,,,,ベストランドフードサービス,0
1066,4060001034979,新規,0,2022-06-15,2022-06-15,株式会社アール・サーベイ,,株式会社,栃木県,大田原市,富士見１丁目３８３７番地１１４,,09,210,3240028,,,,,,,2022-06-15,1,,,,,アールサーベイ,0
1069,4070001039325,新規,0,2022-06-15,2022-06-15,小野上林業株式会社,,株式会社,群馬県,渋川市,小野子２３７９番地７,,10,208,3770312,,,,,,,2022-06-15,1,,,,,オノガミリンギョウ,0
1075,4080101023327,新規,0,2022-06-15,2022-06-15,藤井電設株式会社,,株式会社,静岡県,裾野市,深良３６７９番地の１,,22,220,4101102,,,,,,,2022-06-15,1,,,,,フジイデンセツ,0
1076,4080401025881,新規,0,2022-06-15,2022-06-15,株式会社ＡＬＢＡＬＩＺＥ,,株式会社,静岡県,浜松市中区,和合北２丁目８番３２朝日プラザ和合１０２号,,22,131,4338127,,,,,,,2022-06-15,1,,,,,アルバライズ,0
1080,4110001036739,新規,0,2022-06-15,2022-06-15,株式会社久保農園,,株式会社,新潟県,長岡市,脇川新田町５２５番地,,15,202,9402461,,,,,,,2022-06-15,1,,,,,クボノウエン,0
1096,4120001246378,新規,0,2022-06-15,2022-06-15,三洋金属ホールディングス株式会社,,株式会社,大阪府,大阪市鶴見区,今津北４丁目１０番２５号,,27,124,5380041,,,,,,,2022-06-15,1,,,,,サンヨウキンゾクホールディングスカブ,0
1097,4120001246601,新規,0,2022-06-15,2022-06-15,株式会社ｒｅＡ,,株式会社,大阪府,大阪市鶴見区,焼野１丁目南８番５号ボンボヌール鶴見緑地３０１,,27,124,5380037,,,,,,,2022-06-15,1,,,,,リエース,0
1100,4120003021894,新規,0,2022-06-15,2022-06-15,合同会社大翔,,合同会社,大阪府,大阪市生野区,舎利寺３丁目１５番１８－６０５号,,27,116,5440022,,,,,,,2022-06-15,1,,,,,ダイショウ,0
1101,4120003021903,新規,0,2022-06-15,2022-06-15,ＨＯＰＥ’Ｓ．合同会社,,合同会社,大阪府,大阪市生野区,巽北４丁目１１番１４号アパルトタツミ７ＡＨＯＰＥ′Ｓ．,00126886,27,116,5440004,,,,,,,2022-06-15,1,,,,,ホープズ,0
1102,4120003021911,新規,0,2022-06-15,2022-06-15,洛基合同会社,,合同会社,大阪府,大阪市中央区,千日前１丁目５番１９号寿楽ビル１００３号室,,27,128,5420074,,,,,,,2022-06-15,1,,,,,ラクキ,0
1103,4120101065752,新規,0,2022-06-15,2022-06-15,株式会社剛妃,,株式会社,大阪府,泉北郡忠岡町,北出２丁目１９番１２号,,27,341,5950803,,,,,,,2022-06-15,1,,,,,ゴウヒ,0
1104,4120101065760,新規,0,2022-06-15,2022-06-15,株式会社Ｔｅｎ,,株式会社,大阪府,泉南市,男里７丁目１１番１４号,,27,228,5900526,,,,,,,2022-06-15,1,,,,,テン,0
1106,4120105009573,新規,0,2022-06-15,2022-06-15,一般社団法人あビジョン,,その他の設立登記法人,大阪府,大阪狭山市,東茱萸木３丁目２１４６番地の１０４,,27,231,5890012,,,,,,,2022-06-15,1,,,,,アビジョン,0
1109,4120901046101,新規,0,2022-06-15,2022-06-15,Ｓｃｅｎａｒｉｏ株式会社,,株式会社,大阪府,豊中市,北桜塚４丁目１４番９の４号,,27,203,5600022,,,,,,,2022-06-15,1,,,,,シナリオ,0
1111,4122003002362,新規,0,2022-06-15,2022-06-15,合同会社ＫＩＺＵＮＡ,,合同会社,大阪府,東大阪市,高井田本通１丁目５番３０号,,27,227,5770066,,,,,,,2022-06-15,1,,,,,キズナ,0
1119,4130003007983,新規,0,2022-06-15,2022-06-15,オフィスＮａｏ合同会社,,合同会社,京都府,京都市北区,平野宮西町１０９－１,,26,101,6038357,,,,,,,2022-06-15,1,,,,,オフィスナオ,0
1135,4140001126330,新規,0,2022-06-15,2022-06-15,株式会社すずらんフードインベスト,,株式会社,兵庫県,尼崎市,西立花町２丁目７番１号,,28,202,6600054,,,,,,,2022-06-15,1,,,,,スズランフードインベスト,0
1136,4140001126355,新規,0,2022-06-15,2022-06-15,ＫＴフィード株式会社,,株式会社,兵庫県,たつの市,神岡町東觜崎５６２番地７,,28,229,6794109,,,,,,,2022-06-15,1,,,,,ケーティーフィード,0
1140,4140005026205,新規,0,2022-06-15,2022-06-15,特定非営利活動法人伊丹サードプレイス,,その他の設立登記法人,兵庫県,伊丹市,寺本３丁目２番地昆陽里コーポラス２０２号,,28,207,6640026,,,,,,,2022-06-15,1,,,,,イタミサードプレイス,0
1144,4160001024284,新規,0,2022-06-15,2022-06-15,株式会社コルク,,株式会社,滋賀県,草津市,南笠東１丁目１９番３号,,25,206,5250071,,,,,,,2022-06-15,1,,,,,コルク,0
1156,4180003023935,新規,0,2022-06-15,2022-06-15,合同会社Ｙ＆Ｍプロダクト,,合同会社,愛知県,名古屋市天白区,元八事５丁目１３６,,23,116,4680066,,,,,,,2022-06-15,1,,,,,ワイエムプロダクト,0
1164,4190001029512,新規,0,2022-06-15,2022-06-15,株式会社ＭＺＳ,,株式会社,三重県,桑名市,大字赤須賀５２６番地７５,,24,205,5110033,,,,,,,2022-06-15,1,,,,,エムズエス,0
1165,4190001029520,新規,0,2022-06-15,2022-06-15,株式会社ＮアンドパートナーズＬＬＣ,,株式会社,三重県,伊賀市,緑ケ丘東町１０２３番地１,,24,216,5180833,,,,,,,2022-06-15,1,,,,,エヌアンドパートナーズエルエルシー,0
1169,4200005013353,新規,0,2022-06-15,2022-06-15,弁護士法人れんげ総合法律事務所,,その他の設立登記法人,岐阜県,岐阜市,美江寺町１丁目５番地岐阜北青色会館３階北西号室,,21,201,5008812,,,,,,,2022-06-15,1,,,,,レンゲソウゴウホウリツジムショ,0
1172,4230003001869,新規,0,2022-06-15,2022-06-15,レオ・ナガタ合同会社,,合同会社,富山県,魚津市,諏訪町１４番１７号,,16,204,9370056,,,,,,,2022-06-15,1,,,,,レオナガタ,0
1181,4260001036939,新規,0,2022-06-15,2022-06-15,株式会社ＡＲＣ,,株式会社,岡山県,岡山市中区,乙多見３５２番地７,,33,102,7038228,,,,,,,2022-06-15,1,,,,,アーク,0
1183,4270001008557,新規,0,2022-06-15,2022-06-15,株式会社竹内興業,,株式会社,鳥取県,鳥取市,桂見７９０番地１,,31,201,6801417,,,,,,,2022-06-15,1,,,,,タケウチコウギョウ,0
1184,4290001097862,新規,0,2022-06-15,2022-06-15,シモカワソリューションシステムズ株式会社,,株式会社,福岡県,飯塚市,若菜２５６番地１０５,,40,205,8200082,,,,,,,2022-06-15,1,,,,,シモカワソリューションシステムズ,0
1185,4290001097887,新規,0,2022-06-15,2022-06-15,株式会社夜空赤津ファミリーオフィス,,株式会社,福岡県,福岡市南区,筑紫丘１丁目２３番３１号,,40,134,8150036,,,,,,,2022-06-15,1,,,,,ヨゾラアカツファミリーオフィス,0
1186,4290001097904,新規,0,2022-06-15,2022-06-15,株式会社Ｋ’ｓアシスト,,株式会社,福岡県,福岡市東区,多の津５丁目２１番１０号,,40,131,8130034,,,,,,,2022-06-15,1,,,,,ケーズアシスト,0
1187,4290001097912,新規,0,2022-06-15,2022-06-15,株式会社Ｈｅｔｔｅ,,株式会社,福岡県,福津市,西福間５丁目６番１９号,,40,224,8113219,,,,,,,2022-06-15,1,,,,,ヘッテ,0
1188,4290001097920,新規,0,2022-06-15,2022-06-15,株式会社ケアトレＰＬＵＳ,,株式会社,福岡県,大川市,大字榎津２７８番地１,,40,212,8310004,,,,,,,2022-06-15,1,,,,,ケアトレプラス,0
1189,4290001097953,新規,0,2022-06-15,2022-06-15,株式会社アドヴァンテージ,,株式会社,福岡県,福津市,本木１１０６－１,,40,224,8113203,,,,,,,2022-06-15,1,,,,,アドヴァンテージ,0
1191,4290003012621,新規,0,2022-06-15,2022-06-15,合同会社ＡＲＬ　ｓｍｉｌｅ,,合同会社,福岡県,福岡市南区,長住７丁目２番１３－９０１号,,40,134,8111362,,,,,,,2022-06-15,1,,,,,オールスマイル,0
1193,4290801028629,新規,0,2022-06-15,2022-06-15,株式会社ＴＲＵＳＴＡＴＥ,,株式会社,福岡県,北九州市小倉南区,長行東２丁目１５－１,,40,107,8030273,,,,,,,2022-06-15,1,,,,,トラステート,0
1201,4300001012968,新規,0,2022-06-15,2022-06-15,株式会社ブルー・フラッグ,,株式会社,佐賀県,神埼市,神埼町姉川９９４番地,,41,210,8420014,,,,,,,2022-06-15,1,,,,,ブルーフラッグ,0
1204,4310001017909,新規,0,2022-06-15,2022-06-15,株式会社三矢建築,,株式会社,長崎県,佐世保市,梅田町５７番地３,,42,202,8570017,,,,,,,2022-06-15,1,,,,,ミツヤケンチク,0
1206,4330001029828,新規,0,2022-06-15,2022-06-15,株式会社エンリッチライフ,,株式会社,熊本県,八代市,田中町４９番地６,,43,202,8660872,,,,,,,2022-06-15,1,,,,,エンリッチライフ,0
1207,4330003009415,新規,0,2022-06-15,2022-06-15,合同会社地域紡企画,,合同会社,熊本県,熊本市東区,戸島５丁目１５－３８パストラルマンション２０１号,,43,102,8618041,,,,,,,2022-06-15,1,,,,,チイキツムギキカク,0
1211,4350003004100,新規,0,2022-06-15,2022-06-15,合同会社江藤林業,,合同会社,宮崎県,西臼杵郡五ヶ瀬町,大字鞍岡３２７８番地２,,45,443,8821201,,,,,,,2022-06-15,1,,,,,エトウリンギョウ,0
1212,4360001030551,新規,0,2022-06-15,2022-06-15,株式会社官民連携ネットワーク,,株式会社,沖縄県,浦添市,宮城６丁目６番９号,,47,208,9012126,,,,,,,2022-06-15,1,,,,,カンミンレンケイネットワーク,0
1213,4360003012085,新規,0,2022-06-15,2022-06-15,合同会社ＰＯＴＳ,,合同会社,沖縄県,中頭郡北谷町,字北前４１６番地２Ｆ,,47,326,9040117,,,,,,,2022-06-15,1,,,,,ポッツ,0
1216,4370001048683,新規,0,2022-06-15,2022-06-15,Ｌｉｌｙ　ａｎｄ　Ｒｏｓｅｓ株式会社,,株式会社,宮城県,仙台市青葉区,一番町２丁目８－４６ＯＳビル３Ｆ,,04,101,9800811,,,,,,,2022-06-15,1,,,,,リリーアンドローズ,0
1220,4390001016928,新規,0,2022-06-15,2022-06-15,清三郎株式会社,,株式会社,山形県,山形市,平清水２丁目８番８号,,06,201,9902401,,,,,,,2022-06-15,1,,,,,セイザブロウ,0
1224,4400001015911,新規,0,2022-06-15,2022-06-15,ＫＲＳヒナタ株式会社,,株式会社,岩手県,奥州市,水沢字桜屋敷７８２番地,,03,215,0230865,,,,,,,2022-06-15,1,,,,,ケイアールエスヒナタ,0
1227,4400003002949,新規,0,2022-06-15,2022-06-15,合同会社銀次郎キッチン,,合同会社,岩手県,遠野市,下組町１番２２号,,03,208,0280526,,,,,,,2022-06-15,1,,,,,ギンジロウキッチン,0
1229,4420001017889,新規,0,2022-06-15,2022-06-15,株式会社福田水産,,株式会社,青森県,東津軽郡蓬田村,大字郷沢字浜田１３６番地１１４,,02,304,0301203,,,,,,,2022-06-15,1,,,,,フクダスイサン,0
1236,4430001086792,新規,0,2022-06-15,2022-06-15,株式会社ペガサス,,株式会社,北海道,札幌市厚別区,厚別南２丁目３０番２７号,,01,108,0040022,,,,,,,2022-06-15,1,,,,,ペガサス,0
1242,4450003002218,新規,0,2022-06-15,2022-06-15,合同会社さんぺい動物病院,,合同会社,北海道,名寄市,字徳田１０５番地６８,,01,221,0960071,,,,,,,2022-06-15,1,,,,,サンペイドウブツビョウイン,0
1245,4480001011770,新規,0,2022-06-15,2022-06-15,株式会社１９,,株式会社,徳島県,海部郡海陽町,野江字南前４８番地１,,36,388,7750304,,,,,,,2022-06-15,1,,,,,ナインティーン,0
1248,4700150109731,新規,0,2022-06-15,2022-06-15,ＴＯＹＯ　ＴＡＫＹ　ＰＲＩＶＡＴＥ　ＬＩＭＩＴＥＤ,,外国会社等,新潟県,妙高市,大字小濁７３１レンタルスペース２Ｆ－２,,15,217,9440221,スリランカ民主社会主義共和国、キャンディ、バトゥゴダ、カサワタ、４３３番,,,,,,2022-06-15,1,,,,,トヨタキプライベートリミテツド,0
1260,5010001227314,新規,0,2022-06-15,2022-06-15,ｔｅｅｓｇｏｌｆ株式会社,,株式会社,東京都,文京区,本郷２丁目１７番１２号ＴＨＥＨＩＬＬＳＨＯＮＧＯ５階,,13,105,1130033,,,,,,,2022-06-15,1,,,,,ティーズゴルフ,0
1261,5010001227339,新規,0,2022-06-15,2022-06-15,株式会社ｈｅｎｓｉｎｅ,,株式会社,東京都,千代田区,有楽町１丁目２番２号東宝日比谷ビル９階,,13,101,1000006,,,,,,,2022-06-15,1,,,,,ヘンシン,0
1262,5010001227347,新規,0,2022-06-15,2022-06-15,アストロメディア株式会社,,株式会社,東京都,中央区,銀座１丁目２３番１０－４０２号,,13,102,1040061,,,,,,,2022-06-15,1,,,,,アストロメディア,0
1263,5010001227363,新規,0,2022-06-15,2022-06-15,株式会社Ｍ　ＴＲＡＤＥ,,株式会社,東京都,中央区,銀座６丁目１３番１６号,,13,102,1040061,,,,,,,2022-06-15,1,,,,,,0
1264,5010001227371,新規,0,2022-06-15,2022-06-15,株式会社ビッグルーフレーシング,,株式会社,東京都,千代田区,神田神保町３丁目１７番２９－２０１号,,13,101,1010051,,,,,,,2022-06-15,1,,,,,ビッグルーフレーシング,0
1265,5010001227438,新規,0,2022-06-15,2022-06-15,サンフォード・Ｃ・バーンスタイン株式会社,,株式会社,東京都,千代田区,丸の内３丁目１番１号国際ビル９階東京共同会計事務所内,,13,101,1000005,,,,,,,2022-06-15,1,,,,,サンフォードシーバーンスタイン,0
1266,5010003037876,新規,0,2022-06-15,2022-06-15,ミテミル合同会社,,合同会社,東京都,中央区,銀座１丁目２２番１１号銀座大竹ビジデンス２階,,13,102,1040061,,,,,,,2022-06-15,1,,,,,ミテミル,0
1267,5010003037892,新規,0,2022-06-15,2022-06-15,合同会社Ａｖｅｎｔａｄｏｒ　Ｈｏｌｄｉｎｇｓ,,合同会社,東京都,千代田区,丸の内３丁目１番１号東京共同会計事務所内,,13,101,1000005,,,,,,,2022-06-15,1,,,,,アヴェンタドールホールディングス,0
1270,5010005035143,新規,0,2022-06-15,2022-06-15,ＡＭ　ａｌｐｈａ　Ｆｏｕｒ特定目的会社,,その他の設立登記法人,東京都,千代田区,霞が関３丁目２番５号,,13,101,1000013,,,,,,,2022-06-15,1,,,,,エーエムアルファフォー,0
1276,5010401167738,新規,0,2022-06-15,2022-06-15,ジョンソンデジタルジャパン株式会社,,株式会社,東京都,港区,海岸１丁目２番３号汐留芝離宮ビルディング２１階,,13,103,1050022,,,,,,,2022-06-15,1,,,,,ジョンソンデジタルジャパン,0
1277,5010401167903,新規,0,2022-06-15,2022-06-15,株式会社Ｄｅｌｉｇｈｔ　Ｌｉｎｋ,,株式会社,東京都,港区,芝４丁目１６番１－１１０６号,,13,103,1080014,,,,,,,2022-06-15,1,,,,,ディライトリンク,0
1278,5010401167911,新規,0,2022-06-15,2022-06-15,ＭＣＰ９株式会社,,株式会社,東京都,港区,元赤坂１丁目１番８号株式会社赤坂国際会計内,,13,103,1070051,,,,,,,2022-06-15,1,,,,,エムシーピーナイン,0
1279,5010401167952,新規,0,2022-06-15,2022-06-15,株式会社イーグルワークス,,株式会社,東京都,港区,赤坂９丁目６－２８,,13,103,1070052,,,,,,,2022-06-15,1,,,,,イーグルワークス,0
1282,5010501048978,新規,0,2022-06-15,2022-06-15,みつぼし株式会社,,株式会社,東京都,台東区,雷門２丁目１９番１７号,,13,106,1110034,,,,,,,2022-06-15,1,,,,,ミツボシ,0
1286,5010701042806,新規,0,2022-06-15,2022-06-15,株式会社みなみロックサービス,,株式会社,東京都,品川区,南大井３丁目２９番８号勝又ビル６０１,,13,109,1400013,,,,,,,2022-06-15,1,,,,,ミナミロックサービス,0
1287,5010701042822,新規,0,2022-06-15,2022-06-15,株式会社Ｔ２Ｄｅｓｉｇｎ,,株式会社,東京都,品川区,南大井３丁目６番１８号有馬ビル２Ｆ－Ａ,,13,109,1400013,,,,,,,2022-06-15,1,,,,,ティーツーデザイン,0
1293,5010801033044,新規,0,2022-06-15,2022-06-15,株式会社ホウジュカ,,株式会社,東京都,大田区,南千束３丁目１番１号,,13,111,1450063,,,,,,,2022-06-15,1,,,,,ホウジュカ,0
1294,5010801033052,新規,0,2022-06-15,2022-06-15,株式会社ビッグ,,株式会社,東京都,大田区,大森北１丁目３番地９号春日ビル２階,,13,111,1430016,,,,,,,2022-06-15,1,,,,,ビッグ,0
1295,5010803004209,新規,0,2022-06-15,2022-06-15,ＥｘｅｅｄｏＸ合同会社,,合同会社,東京都,大田区,山王１丁目３番１－４０３号,,13,111,1430023,,,,,,,2022-06-15,1,,,,,エクシードクス,0
1299,5010903007458,新規,0,2022-06-15,2022-06-15,合同会社ＭａｂＬｉｓｓ,,合同会社,東京都,世田谷区,南烏山２丁目３５番２号ロカテラーザ１３１０,,13,112,1570062,,,,,,,2022-06-15,1,,,,,マブリス,0
1305,5011001148062,新規,0,2022-06-15,2022-06-15,ぷらん堂株式会社,,株式会社,東京都,目黒区,目黒２丁目１４番６号目黒パーク・ホームズ２０２,,13,110,1530063,,,,,,,2022-06-15,1,,,,,プランドウ,0
1306,5011001148079,新規,0,2022-06-15,2022-06-15,株式会社ブラボーチーム,,株式会社,東京都,渋谷区,松濤１丁目２９番２４－１０２号,,13,113,1500046,,,,,,,2022-06-15,1,,,,,ブラボーチーム,0
1307,5011001148087,新規,0,2022-06-15,2022-06-15,株式会社Ｓ＆Ｃ　ａｒｃｈｉｔｅｃｔ,,株式会社,東京都,渋谷区,渋谷１丁目７番５号,,13,113,1500002,,,,,,,2022-06-15,1,,,,,エスアンドシーアーキテクト,0
1308,5011003014808,新規,0,2022-06-15,2022-06-15,合同会社ＷｉｓｔｅｒｉＡ,,合同会社,東京都,目黒区,上目黒３丁目４２－２５ユニハイム目黒１０５,,13,110,1530051,,,,,,,2022-06-15,1,,,,,ウィステリア,0
1313,5011101099008,新規,0,2022-06-15,2022-06-15,株式会社Ｐフル,,株式会社,東京都,新宿区,市谷薬王寺町６７－１０１号,,13,104,1620063,,,,,,,2022-06-15,1,,,,,ピーフル,0
1314,5011101099197,新規,0,2022-06-15,2022-06-15,株式会社新宿セブン,,株式会社,東京都,新宿区,新宿７丁目２番４号,,13,104,1600022,,,,,,,2022-06-15,1,,,,,シンジュクセブン,0
1317,5011301027858,新規,0,2022-06-15,2022-06-15,株式会社レスィ,,株式会社,東京都,杉並区,阿佐谷北３丁目１３番１１号１Ｆ,,13,115,1660001,,,,,,,2022-06-15,1,,,,,レスィ,0
1321,5011603003623,新規,0,2022-06-15,2022-06-15,合同会社坂原企画,,合同会社,東京都,練馬区,豊玉北５丁目３番１１号ブランズ練馬８０２,,13,120,1760012,,,,,,,2022-06-15,1,,,,,サカハラキカク,0
1326,5012301013022,新規,0,2022-06-15,2022-06-15,株式会社ｅｐｉｃｒｏｓｓ,,株式会社,東京都,町田市,西成瀬１丁目３－８,,13,209,1940046,,,,,,,2022-06-15,1,,,,,エピクロス,0
1327,5012401039297,新規,0,2022-06-15,2022-06-15,株式会社ロジスティクスナイト・ジャパン,,株式会社,東京都,小金井市,緑町３丁目１３－２１,,13,210,1840003,,,,,,,2022-06-15,1,,,,,ロジスティクスナイトジャパン,0
1329,5012701017102,新規,0,2022-06-15,2022-06-15,株式会社ＥＮＩＦＥ,,株式会社,東京都,清瀬市,中清戸４丁目９７５番地１３,,13,221,2040012,,,,,,,2022-06-15,1,,,,,エニフ,0
1330,5013101008947,新規,0,2022-06-15,2022-06-15,株式会社山崎電設,00126882,株式会社,東京都,青梅市,梅郷４丁目７３８番地３ベルパレスＩＩＩ－２０１,00126883,13,205,1980063,,,,,,,2022-06-15,1,,,,,ヤマザキデンセツ,0
1335,5020001146835,新規,0,2022-06-15,2022-06-15,Ｎｏｔｉｃｅアドバイザリー株式会社,,株式会社,神奈川県,横浜市港北区,岸根町５７３番地１１７,,14,109,2220034,,,,,,,2022-06-15,1,,,,,ノーティスアドバイザリー,0
1336,5020001146918,新規,0,2022-06-15,2022-06-15,株式会社Ｒｅｖｅｕｒ,,株式会社,神奈川県,横浜市中区,山手町２７番地５ベイステージ元町３１１,,14,104,2310862,,,,,,,2022-06-15,1,,,,,レヴール,0
1337,5020001146926,新規,0,2022-06-15,2022-06-15,株式会社ＳＳＥＮ　ＤＥＳＩＧＮ,,株式会社,神奈川県,川崎市多摩区,西生田３丁目２０番９号,,14,135,2140037,,,,,,,2022-06-15,1,,,,,センデザイン,0
1338,5020001146942,新規,0,2022-06-15,2022-06-15,株式会社クァオリア,,株式会社,神奈川県,横浜市神奈川区,神之木町１番１号,,14,102,2210015,,,,,,,2022-06-15,1,,,,,クァオリア,0
1341,5020003021929,新規,0,2022-06-15,2022-06-15,ＬＥＧＩＴ　ＰＡＲＴＮＥＲＳ合同会社,,合同会社,神奈川県,横浜市港北区,師岡町９６４番地１アークエルム大倉山ＩＩ１０３号,00126876,14,109,2220002,,,,,,,2022-06-15,1,,,,,レジットパートナーズ,0
1342,5020003021937,新規,0,2022-06-15,2022-06-15,ＨＯＭＥ　ＷＯＲＫＥＲ合同会社,,合同会社,神奈川県,横浜市都筑区,茅ケ崎南１丁目３番１０－３０８号,,14,118,2240037,,,,,,,2022-06-15,1,,,,,ホームワーカー,0
1343,5020003021945,新規,0,2022-06-15,2022-06-15,ワイエムトゥー合同会社,,合同会社,神奈川県,横浜市都筑区,北山田３丁目１６番２１号,,14,118,2240021,,,,,,,2022-06-15,1,,,,,ワイエムトゥー,0
1344,5021001076238,新規,0,2022-06-15,2022-06-15,株式会社鈴武建設,,株式会社,神奈川県,相模原市緑区,相原３丁目５番１５号フローレオ相原２０６,,14,151,2520141,,,,,,,2022-06-15,1,,,,,スズタケケンセツ,0
1345,5021001076246,新規,0,2022-06-15,2022-06-15,ＳＹジャパン株式会社,,株式会社,神奈川県,相模原市緑区,西橋本１丁目６番２０号橋本大河原ビル３０５,,14,151,2520131,,,,,,,2022-06-15,1,,,,,エスワイジャパン,0
1346,5021003011829,新規,0,2022-06-15,2022-06-15,ＧＯ　ＴＯ　ＴＨＥ　ＭＯＯＮ合同会社,,合同会社,神奈川県,平塚市,宮松町１４番１－５１６号パークホームズＬａＬａ湘南平塚,,14,203,2540036,,,,,,,2022-06-15,1,,,,,ゴートゥーザムーン,0
1347,5021003011837,新規,0,2022-06-15,2022-06-15,合同会社チョークトリップ,,合同会社,神奈川県,厚木市,戸室５丁目３１番１号,,14,212,2430031,,,,,,,2022-06-15,1,,,,,チョークトリップ,0
1352,5030001148673,新規,0,2022-06-15,2022-06-15,美信株式会社,,株式会社,埼玉県,蕨市,南町２丁目２９番１２号,,11,223,3350003,,,,,,,2022-06-15,1,,,,,ビシン,0
1353,5030001148681,新規,0,2022-06-15,2022-06-15,Ｋａ　Ｐｉｌｉｎａ‐Ｌｉｆｅ株式会社,,株式会社,埼玉県,川口市,弥平１丁目３番１２号,,11,203,3320002,,,,,,,2022-06-15,1,,,,,カピリナライフ,0
1354,5030001148731,新規,0,2022-06-15,2022-06-15,Ａケイテック株式会社,,株式会社,埼玉県,北本市,深井３丁目６２番地,,11,233,3640001,,,,,,,2022-06-15,1,,,,,エーケイテック,0
1355,5030003019600,新規,0,2022-06-15,2022-06-15,資産を増やす合同会社,,合同会社,埼玉県,春日部市,南３丁目１８番２６号,,11,214,3440064,,,,,,,2022-06-15,1,,,,,シサンヲフヤス,0
1359,5040001123832,新規,0,2022-06-15,2022-06-15,株式会社ＡＭＥ商事,,株式会社,千葉県,柏市,末広町１１番１６－８０１号,,12,217,2770842,,,,,,,2022-06-15,1,,,,,エーエムイーショウジ,0
1360,5040001123849,新規,0,2022-06-15,2022-06-15,ＧＨＳ株式会社,,株式会社,千葉県,船橋市,金杉７丁目２５番１４号,,12,204,2730853,,,,,,,2022-06-15,1,,,,,ジーエイチエス,0
1364,5040003020219,新規,0,2022-06-15,2022-06-15,ｒｏｏｔ　ｈａｒｂｏｒ合同会社,,合同会社,千葉県,市川市,相之川１丁目９番２４号,,12,203,2720143,,,,,,,2022-06-15,1,,,,,ルートハーバー,0
1365,5040003020243,新規,0,2022-06-15,2022-06-15,合同会社ＣＨＥＲＩＳＨ　ＹＯＵ,,合同会社,千葉県,柏市,根戸４９４番地７５,,12,217,2770831,,,,,,,2022-06-15,1,,,,,チェリッシュユー,0
1366,5040003020251,新規,0,2022-06-15,2022-06-15,ＧｒｅｅｎＲａｔｉｎｇ合同会社,,合同会社,千葉県,市川市,東菅野３丁目１３－１１,,12,203,2720823,,,,,,,2022-06-15,1,,,,,グリーンレイティング,0
1373,5050003006621,新規,0,2022-06-15,2022-06-15,合同会社ＹＵＭＥＥＮ　ＭＯＴＯＲＳ,,合同会社,茨城県,筑西市,寺上野字須久保塚４００番地５,,08,227,3004525,,,,,,,2022-06-15,1,,,,,ユメーンモータース,0
1375,5060001034978,新規,0,2022-06-15,2022-06-15,株式会社ｅｃｏ　ｍａｒｕ,,株式会社,栃木県,さくら市,氏家１８１７番地６,,09,214,3291311,,,,,,,2022-06-15,1,,,,,エコマル,0
1376,5060001034986,新規,0,2022-06-15,2022-06-15,株式会社エレメンツ,,株式会社,栃木県,さくら市,氏家２６４２番地,,09,214,3291311,,,,,,,2022-06-15,1,,,,,エレメンツ,0
1377,5070001039324,新規,0,2022-06-15,2022-06-15,株式会社イトウ,,株式会社,群馬県,伊勢崎市,日乃出町１１４７－５２,,10,204,3720022,,,,,,,2022-06-15,1,,,,,イトウ,0
1378,5070001039332,新規,0,2022-06-15,2022-06-15,株式会社オリジン,,株式会社,群馬県,伊勢崎市,太田町３００番地,,10,204,3720006,,,,,,,2022-06-15,1,,,,,オリジン,0
1379,5070003004516,新規,0,2022-06-15,2022-06-15,合同会社結,,合同会社,群馬県,吾妻郡東吾妻町,大字岩井８５０番地１,,10,429,3770804,,,,,,,2022-06-15,1,,,,,ユイ,0
1385,5080003002816,新規,0,2022-06-15,2022-06-15,Ｆｕｎｕｐ合同会社,,合同会社,静岡県,焼津市,下江留６９３番地の１,,22,212,4210218,,,,,,,2022-06-15,1,,,,,ファナップ,0
1386,5080401025889,新規,0,2022-06-15,2022-06-15,ユニテック株式会社,,株式会社,静岡県,浜松市中区,高丘東５丁目２０番５号ロザージュＡ１０１,,22,131,4338117,,,,,,,2022-06-15,1,,,,,ユニテック,0
1389,5090001017617,新規,0,2022-06-15,2022-06-15,株式会社Ｃｌｏｖｅｒ,,株式会社,山梨県,甲府市,向町２５９番地１,,19,201,4000813,,,,,,,2022-06-15,1,,,,,クローバー,0
1391,5100001035435,新規,0,2022-06-15,2022-06-15,株式会社トラストワン,,株式会社,長野県,上田市,岩下１０４番地,,20,203,3860153,,,,,,,2022-06-15,1,,,,,トラストワン,0
1392,5100001035443,新規,0,2022-06-15,2022-06-15,株式会社ＭＣＭＬ,,株式会社,長野県,松本市,並柳３丁目１０番１７号ロイテ・ローゼ１０２,,20,202,3900825,,,,,,,2022-06-15,1,,,,,エムシーエムエル,0
1393,5100003006582,新規,0,2022-06-15,2022-06-15,サステイナブル信州合同会社,,合同会社,長野県,北佐久郡軽井沢町,大字長倉３４１８番地４９、２,,20,321,3890111,,,,,,,2022-06-15,1,,,,,サステイナブルシンシュウ,0
1397,5110003004791,新規,0,2022-06-15,2022-06-15,合同会社あかつき,,合同会社,新潟県,新潟市北区,松浜１丁目１番地６,,15,101,9503126,,,,,,,2022-06-15,1,,,,,アカツキ,0
1409,5120001246699,新規,0,2022-06-15,2022-06-15,株式会社マネーボール,,株式会社,大阪府,大阪市淀川区,西中島５丁目２番１２－１０１号,,27,123,5320011,,,,,,,2022-06-15,1,,,,,マネーボール,0
1411,5120003021893,新規,0,2022-06-15,2022-06-15,合同会社オーエヌーケー,,合同会社,大阪府,大阪市住吉区,沢之町２丁目６番１３号コーポシャルマン２０２号,,27,120,5580031,,,,,,,2022-06-15,1,,,,,オーエヌーケー,0
1412,5120003021910,新規,0,2022-06-15,2022-06-15,合同会社フルール訪問介護サービス,,合同会社,大阪府,大阪市東住吉区,駒川３丁目３－８,,27,121,5460043,,,,,,,2022-06-15,1,,,,,フルールホウモンカイゴサービス,0
1414,5120005022997,新規,0,2022-06-15,2022-06-15,一般社団法人日本不動産鑑定適正化機構,,その他の設立登記法人,大阪府,大阪市中央区,法円坂１丁目２番７号,,27,128,5400006,,,,,,,2022-06-15,1,,,,,ニホンフドウサンカンテイテキセイカキコウ,0
1418,5120101065727,新規,0,2022-06-15,2022-06-15,株式会社ｓｅｗｎ．,,株式会社,大阪府,泉佐野市,東羽倉崎町１５番１４－１号,,27,213,5980031,,,,,,,2022-06-15,1,,,,,ソウン,0
1419,5120101065735,新規,0,2022-06-15,2022-06-15,株式会社ＯＮ,,株式会社,大阪府,堺市堺区,中瓦町１丁４番２２号大阪信用金庫堺東ビル２Ｆ,,27,141,5900077,,,,,,,2022-06-15,1,,,,,オン,0
1420,5120901046091,新規,0,2022-06-15,2022-06-15,株式会社アルプスキーパー,,株式会社,大阪府,豊中市,岡町北３丁目６番１５号,,27,203,5610884,,,,,,,2022-06-15,1,,,,,アルプスキーパー,0
1421,5120901046109,新規,0,2022-06-15,2022-06-15,呈銘株式会社,,株式会社,大阪府,池田市,伏尾町７６－１６バードヒルズ１号館公園４１６室,,27,204,5630011,,,,,,,2022-06-15,1,,,,,テイメイ,0
1422,5120903004188,新規,0,2022-06-15,2022-06-15,愛媛家合同会社,,合同会社,大阪府,高槻市,昭和台町２丁目１５番９号１階,,27,207,5690815,,,,,,,2022-06-15,1,,,,,アイカ,0
1426,5122003002361,新規,0,2022-06-15,2022-06-15,合同会社ユーケーサービス,,合同会社,大阪府,東大阪市,中野１丁目１２番２６号エステートピア中野２０１,,27,227,5780913,,,,,,,2022-06-15,1,,,,,ユーケーサービス,0
1432,5140001126222,新規,0,2022-06-15,2022-06-15,株式会社山楽,,株式会社,兵庫県,神戸市灘区,永手町３丁目４番３号,,28,102,6570027,,,,,,,2022-06-15,1,,,,,サンラク,0
1433,5140001126387,新規,0,2022-06-15,2022-06-15,株式会社ハー企画,,株式会社,兵庫県,西宮市,樋之池町２３番２３号,,28,204,6620084,,,,,,,2022-06-15,1,,,,,ハーキカク,0
1437,5140003017782,新規,0,2022-06-15,2022-06-15,合同会社Ｔｗｏ　Ａｌｌ,,合同会社,兵庫県,尼崎市,塚口町６丁目４番地の１８,,28,202,6610002,,,,,,,2022-06-15,1,,,,,トゥーオール,0
1440,5160001024283,新規,0,2022-06-15,2022-06-15,株式会社ＦＯＵＲ　ＡＣＥ,,株式会社,滋賀県,大津市,横木２丁目３０番１号,,25,201,5200063,,,,,,,2022-06-15,1,,,,,フォアアース,0
1450,5180001151704,新規,0,2022-06-15,2022-06-15,株式会社Ａｒｉｅｓ,,株式会社,愛知県,名古屋市中区,錦３丁目１３番２９号ＡＢＣビル南館２階,,23,106,4600003,,,,,,,2022-06-15,1,,,,,アリーズ,0
1451,5180001151720,新規,0,2022-06-15,2022-06-15,株式会社ＶＥＣ,,株式会社,愛知県,豊明市,沓掛町坊主山１番地１,,23,229,4701101,,,,,,,2022-06-15,1,,,,,ベック,0
1452,5180001151753,新規,0,2022-06-15,2022-06-15,株式会社マセヒラ,,株式会社,愛知県,名古屋市東区,徳川１丁目１１番２１号,,23,102,4610025,,,,,,,2022-06-15,1,,,,,マセヒラ,0
1453,5180003023892,新規,0,2022-06-15,2022-06-15,東岳テクノロジーズ合同会社,,合同会社,愛知県,名古屋市昭和区,折戸町２丁目２３番地の２,,23,107,4660858,,,,,,,2022-06-15,1,,,,,トウガクテクノロジーズ,0
1454,5180003023942,新規,0,2022-06-15,2022-06-15,ＭＯＲＩＫＯＢＯ合同会社,,合同会社,愛知県,名古屋市中川区,中島新町２丁目１５２４番地,,23,110,4540932,,,,,,,2022-06-15,1,,,,,モリコボ,0
1460,5190001029511,新規,0,2022-06-15,2022-06-15,株式会社ＵＰ,,株式会社,三重県,鈴鹿市,五祝町７３３－１,,24,207,5100252,,,,,,,2022-06-15,1,,,,,アップ,0
1465,5210001018965,新規,0,2022-06-15,2022-06-15,株式会社輝建設,,株式会社,福井県,坂井市,三国町殿島６番８号,,18,210,9130026,,,,,,,2022-06-15,1,,,,,カガヤキケンセツ,0
1485,5290001097886,新規,0,2022-06-15,2022-06-15,ホウワ福岡株式会社,,株式会社,福岡県,福岡市博多区,西月隈５丁目７番２８－２号パンリバーズ１１　４号室,,40,132,8120857,,,,,,,2022-06-15,1,,,,,ホウワフクオカ,0
1486,5290001097894,新規,0,2022-06-15,2022-06-15,株式会社ハピネスベイス,,株式会社,福岡県,福岡市中央区,天神１丁目１－１ｆａｂｂｉｔ内,,40,133,8100001,,,,,,,2022-06-15,1,,,,,ハピネスベイス,0
1487,5290001097903,新規,0,2022-06-15,2022-06-15,株式会社ＦＯＯＤ　ＬＩＮＫＳ,,株式会社,福岡県,八女市,本町２番地６４６甲斐田店舗Ａ号室,,40,210,8340031,,,,,,,2022-06-15,1,,,,,フードリンクス,0
1488,5290001097911,新規,0,2022-06-15,2022-06-15,株式会社ＣＫジャパン,,株式会社,福岡県,福岡市城南区,友丘２丁目７番１６号,,40,136,8140112,,,,,,,2022-06-15,1,,,,,シーケージャパン,0
1489,5290001097928,新規,0,2022-06-15,2022-06-15,株式会社キトレペ,,株式会社,福岡県,福岡市南区,大楠３丁目２２番１７号,,40,134,8150082,,,,,,,2022-06-15,1,,,,,キトレペ,0
1490,5290001097936,新規,0,2022-06-15,2022-06-15,株式会社ヤマシタ,,株式会社,福岡県,朝倉市,甘木３４５番地１,,40,228,8380068,,,,,,,2022-06-15,1,,,,,ヤマシタ,0
1493,5290003012620,新規,0,2022-06-15,2022-06-15,合同会社手続サポート,,合同会社,福岡県,福岡市南区,弥永４丁目１１番３号,,40,134,8111323,,,,,,,2022-06-15,1,,,,,テツヅキサポート,0
1497,5300001012967,新規,0,2022-06-15,2022-06-15,ミナミ商会株式会社,,株式会社,佐賀県,西松浦郡有田町,立部乙２５４５番地７,,41,401,8494153,,,,,,,2022-06-15,1,,,,,ミナミショウカイ,0
1504,5340001024819,新規,0,2022-06-15,2022-06-15,株式会社富尾ファーム,,株式会社,鹿児島県,霧島市,国分重久２７１５番地２５,,46,218,8994301,,,,,,,2022-06-15,1,,,,,トミオファーム,0
1507,5370001048682,新規,0,2022-06-15,2022-06-15,株式会社千葉住建,,株式会社,宮城県,仙台市泉区,住吉台西４丁目１７番地の６,,04,105,9813223,,,,,,,2022-06-15,1,,,,,チバジュウケン,0
1514,5390001016927,新規,0,2022-06-15,2022-06-15,株式会社井上農場,,株式会社,山形県,鶴岡市,渡前字白山前１４番地,,06,203,9997683,,,,,,,2022-06-15,1,,,,,イノウエノウジョウ,0
1524,5420001017896,新規,0,2022-06-15,2022-06-15,株式会社にこらっと,,株式会社,青森県,平川市,李平下安原２５番地１,,02,210,0360201,,,,,,,2022-06-15,1,,,,,ニコラット,0
1537,5460305001980,新規,0,2022-06-15,2022-06-15,無限責任上斜里南第一負債整理組合,,その他の設立登記法人,北海道,斜里郡斜里町,大字斜里村字上斜里原野地区内,,01,545,0994100,,,,,,,2022-06-15,1,,,,,,0
1538,5470003002198,新規,0,2022-06-15,2022-06-15,Ｒｅ．ｇｒｅｅｎ合同会社,,合同会社,香川県,高松市,東ハゼ町２２番地２５,,37,201,7618054,,,,,,,2022-06-15,1,,,,,リグリーン,0
1540,5490003001669,新規,0,2022-06-15,2022-06-15,合同会社Ｓ＆Ａ,,合同会社,高知県,幡多郡三原村,大字宮ノ川１２５２番地１５,,39,427,7870802,,,,,,,2022-06-15,1,,,,,エスアンドエー,0
1543,5500001024265,新規,0,2022-06-15,2022-06-15,株式会社いまじん,,株式会社,愛媛県,新居浜市,阿島２丁目８番１８号,,38,205,7920896,,,,,,,2022-06-15,1,,,,,イマジン,0
1544,5700150109730,新規,0,2022-06-15,2022-06-15,ＮＥＷ　ＬＡＮＫＡ　ＭＯＴＯＲ　ＴＲＡＤＥＲＳ　ＰＲＩＶＡＴＥ　ＬＩＭＩＴＥＤ,,外国会社等,新潟県,妙高市,大字小濁７３１レンタルスペース１Ｆ－４,,15,217,9440221,スリランカ民主社会主義共和国、キャンディ、アラワトウゴダ、アランベポラ、１４１番,,,,,,2022-06-15,1,,,,,ニユランカモータトレーデスプライベートリミテツド,0
1545,5700150109739,新規,0,2022-06-15,2022-06-15,港南台こまどり団地マンション建替組合,,その他,東京都,江東区,東陽２丁目４番２４号,,13,108,1350016,,,,,,,2022-06-15,1,,,,,コウナンダイコマドリダンチマンシヨンタテカエクミアイ,0
1550,6010001227338,新規,0,2022-06-15,2022-06-15,株式会社Ｋ＆Ｂ,,株式会社,東京都,中央区,銀座６丁目１３番１６号銀座ＷａｌｌビルＵＣＦ５０１,,13,102,1040061,,,,,,,2022-06-15,1,,,,,ケーアンドビー,0
1551,6010001227362,新規,0,2022-06-15,2022-06-15,株式会社ＦＢマネジメントグループ,,株式会社,東京都,中央区,東日本橋２丁目２２番１号クロスシー東日本橋ビル８Ｆ,,13,102,1030004,,,,,,,2022-06-15,1,,,,,エフビーマネジメントグループ,0
1552,6010003037875,新規,0,2022-06-15,2022-06-15,合同会社引越びより,,合同会社,東京都,中央区,銀座１丁目２２番１１号銀座大竹ビジデンス２階,,13,102,1040061,,,,,,,2022-06-15,1,,,,,ヒッコシビヨリ,0
1553,6010003037900,新規,0,2022-06-15,2022-06-15,合同会社ＡＭ　ａｌｐｈａ　Ｆｏｕｒ,,合同会社,東京都,千代田区,霞が関３丁目２番５号,,13,101,1000013,,,,,,,2022-06-15,1,,,,,エーエムアルファフォー,0
1554,6010005035142,新規,0,2022-06-15,2022-06-15,一般社団法人ＡＭ　ａｌｐｈａ　Ｆｏｕｒ,,その他の設立登記法人,東京都,千代田区,霞が関３丁目２番５号,,13,101,1000013,,,,,,,2022-06-15,1,,,,,エーエムアルファフォー,0
1563,6010401167984,新規,0,2022-06-15,2022-06-15,株式会社ＭＯＮＲＯＥ,,株式会社,東京都,港区,白金１丁目１７－１－２０１３,,13,103,1080072,,,,,,,2022-06-15,1,,,,,モンロー,0
1568,6010501048969,新規,0,2022-06-15,2022-06-15,株式会社アカダ,,株式会社,東京都,台東区,上野３丁目１６番２号天翔上野末広町ビル９１０号室,,13,106,1100005,,,,,,,2022-06-15,1,,,,,アカダ,0
1569,6010501048977,新規,0,2022-06-15,2022-06-15,株式会社ＲＡＭ,,株式会社,東京都,台東区,駒形１丁目６番２号丸隆ビル３０１,,13,106,1110043,,,,,,,2022-06-15,1,,,,,ラム,0
1571,6010603009588,新規,0,2022-06-15,2022-06-15,合同会社イースリー,,合同会社,東京都,江東区,越中島３丁目６番１－４１６号,,13,108,1350044,,,,,,,2022-06-15,1,,,,,イースリー,0
1583,6010801033043,新規,0,2022-06-15,2022-06-15,株式会社ＮＩＮＰＯ,,株式会社,東京都,大田区,中央５丁目２０番１２号グランエクセル中央１０１,,13,111,1430024,,,,,,,2022-06-15,1,,,,,ニンポウ,0
1584,6010801033051,新規,0,2022-06-15,2022-06-15,株式会社一源,,株式会社,東京都,大田区,大森西７丁目５番１３号,,13,111,1430015,,,,,,,2022-06-15,1,,,,,ミナモト,0
1586,6010803004208,新規,0,2022-06-15,2022-06-15,ＢＥＥ　Ｆｕｎ　ｆｅｅｌｉｎｇｓ合同会社,,合同会社,東京都,大田区,池上６丁目２９番８－４０８号ラヴィーナ池上,,13,111,1460082,,,,,,,2022-06-15,1,,,,,ビーファンフィーリングス,0
1592,6011001148086,新規,0,2022-06-15,2022-06-15,株式会社ＮＵＭＥＲＯ５ＰＡＲＩＳ,,株式会社,東京都,目黒区,緑が丘１丁目２３番１０号ＮｔｍＯｎｅ２階,,13,110,1520034,,,,,,,2022-06-15,1,,,,,ヌメロサンクパリ,0
1593,6011001148160,新規,0,2022-06-15,2022-06-15,株式会社コントリ,,株式会社,東京都,渋谷区,道玄坂１丁目１０－８渋谷道玄坂東急ビル２Ｆ－Ｃ,,13,113,1500043,,,,,,,2022-06-15,1,,,,,コントリ,0
1604,6011101099205,新規,0,2022-06-15,2022-06-15,株式会社マリブ,,株式会社,東京都,新宿区,弁天町１３８番地ハウスレイヌ早稲田１０１,,13,104,1620851,,,,,,,2022-06-15,1,,,,,マリブ,0
1605,6011101099238,新規,0,2022-06-15,2022-06-15,ＭＩＳＡＷＡ　ＬＩＦＥ株式会社,,株式会社,東京都,新宿区,西新宿７丁目５番６号新宿ダイカンプラザ７５６－８０５号,,13,104,1600023,,,,,,,2022-06-15,1,,,,,ミサワライフ,0
1606,6011105010282,新規,0,2022-06-15,2022-06-15,一般社団法人全国学校給食推進連合会,,その他の設立登記法人,東京都,新宿区,神楽坂１丁目２番地研究社英語センタービル３階,,13,104,1620825,,,,,,,2022-06-15,1,,,,,ゼンコクガッコウキュウショクスイシンレンゴウカイ,0
1613,6011401024325,新規,0,2022-06-15,2022-06-15,株式会社イージェイ,,株式会社,東京都,板橋区,舟渡２丁目４番３－１０７号,,13,119,1740041,,,,,,,2022-06-15,1,,,,,イージェイ,0
1614,6011501028119,新規,0,2022-06-15,2022-06-15,株式会社龍也,,株式会社,東京都,北区,浮間３丁目１１番３０－５０３号,,13,117,1150051,,,,,,,2022-06-15,1,,,,,リュウヤ,0
1615,6011501028135,新規,0,2022-06-15,2022-06-15,株式会社Ｌａｍｂｏ,,株式会社,東京都,北区,浮間３丁目１９番２号,,13,117,1150051,,,,,,,2022-06-15,1,,,,,ランボ,0
1617,6011601026030,新規,0,2022-06-15,2022-06-15,レッドストーン株式会社,,株式会社,東京都,練馬区,下石神井１丁目５番１８号,,13,120,1770042,,,,,,,2022-06-15,1,,,,,レッドストーン,0
1618,6011603003622,新規,0,2022-06-15,2022-06-15,合同会社エムエス商会,,合同会社,東京都,練馬区,豊玉上２丁目３番１５－１０８号,,13,120,1760011,,,,,,,2022-06-15,1,,,,,エムエスショウカイ,0
1624,6012301013021,新規,0,2022-06-15,2022-06-15,株式会社アーク,,株式会社,東京都,町田市,三輪町２１８番地１,,13,209,1950054,,,,,,,2022-06-15,1,,,,,アーク,0
1626,6012401039296,新規,0,2022-06-15,2022-06-15,ＨＷ株式会社,,株式会社,東京都,調布市,富士見町４丁目１５番地１４,,13,208,1820033,,,,,,,2022-06-15,1,,,,,エイチダブリュー,0
1627,6012403005429,新規,0,2022-06-15,2022-06-15,合同会社Ｆ＆ｈ．ｒ,,合同会社,東京都,調布市,調布ケ丘２丁目２０番２０号,,13,208,1820021,,,,,,,2022-06-15,1,,,,,エフアンドエイチアール,0
1636,6020001146875,新規,0,2022-06-15,2022-06-15,株式会社モノリス,,株式会社,神奈川県,横浜市南区,永楽町２丁目２６番地３Ｌ－Ｆｌａｔ横浜大通り公園５０４,,14,105,2320031,,,,,,,2022-06-15,1,,,,,モノリス,0
1637,6020001146917,新規,0,2022-06-15,2022-06-15,株式会社小島興業,,株式会社,神奈川県,川崎市麻生区,高石６丁目２３番１２－３号,,14,137,2150003,,,,,,,2022-06-15,1,,,,,コジマコウギョウ,0
1638,6020001146933,新規,0,2022-06-15,2022-06-15,株式会社１ｏｎ１ｅｖａｎｇｅｌｉｓｔ,,株式会社,神奈川県,横浜市港北区,樽町３丁目７番５３－６０９号,,14,109,2220001,,,,,,,2022-06-15,1,,,,,ワンオンワンエヴァンジェリスト,0
1639,6020001146958,新規,0,2022-06-15,2022-06-15,株式会社アンフィールド,,株式会社,神奈川県,横浜市港北区,新吉田東３丁目７番２８号,,14,109,2230058,,,,,,,2022-06-15,1,,,,,アンフィールド,0
1642,6020003021829,新規,0,2022-06-15,2022-06-15,ＣＬＶ開発合同会社,,合同会社,神奈川県,横浜市中区,山下町２番地,,14,104,2310023,,,,,,,2022-06-15,1,,,,,シーエルブイカイハツ,0
1643,6020003021928,新規,0,2022-06-15,2022-06-15,合同会社ｉｎｄｉＣＯ,,合同会社,神奈川県,横浜市旭区,本村町４８番地３,,14,112,2410024,,,,,,,2022-06-15,1,,,,,インディコ,0
1647,6021001076237,新規,0,2022-06-15,2022-06-15,雅工業株式会社,,株式会社,神奈川県,相模原市中央区,田名８０５８番地１２,,14,152,2520244,,,,,,,2022-06-15,1,,,,,ミヤビコウギョウ,0
1648,6021001076245,新規,0,2022-06-15,2022-06-15,株式会社ＬＨＣ,,株式会社,神奈川県,厚木市,中町２丁目１３番１４号サンシャインビル４０２,,14,212,2430018,,,,,,,2022-06-15,1,,,,,エルエイチシー,0
1651,6021003011828,新規,0,2022-06-15,2022-06-15,合同会社ボディメンテナンスｔｏｔｏｎｏｉ,,合同会社,神奈川県,厚木市,旭町２丁目１１－１０－３０６,,14,212,2430014,,,,,,,2022-06-15,1,,,,,ボディメンテナンストトノイ,0
1657,6030001148680,新規,0,2022-06-15,2022-06-15,株式会社ピエナ,,株式会社,埼玉県,さいたま市緑区,東浦和８丁目２２番地１７,,11,109,3360926,,,,,,,2022-06-15,1,,,,,ピエナ,0
1658,6030001148730,新規,0,2022-06-15,2022-06-15,株式会社Ａスタッフ,,株式会社,埼玉県,北本市,深井３丁目６２番地,,11,233,3640001,,,,,,,2022-06-15,1,,,,,エースタッフ,0
1659,6030003019599,新規,0,2022-06-15,2022-06-15,友心合同会社,,合同会社,埼玉県,さいたま市浦和区,神明２丁目２１番２０号,,11,107,3300065,,,,,,,2022-06-15,1,,,,,ユウシン,0
1660,6030003019608,新規,0,2022-06-15,2022-06-15,オーエスラボ合同会社,,合同会社,埼玉県,富士見市,水谷２丁目１番３号,,11,235,3540014,,,,,,,2022-06-15,1,,,,,オーエスラボ,0
1664,6030005020893,新規,0,2022-06-15,2022-06-15,一般社団法人ａｍｉｅｍｉ,,その他の設立登記法人,埼玉県,所沢市,中新井２丁目６８８番地の２,,11,208,3590041,,,,,,,2022-06-15,1,,,,,アミエミ,0
1668,6040001123781,新規,0,2022-06-15,2022-06-15,株式会社ギントジャパン,,株式会社,千葉県,印旛郡栄町,矢口神明４丁目１４－１－１０２号,,12,329,2701501,,,,,,,2022-06-15,1,,,,,ギントジャパン,0
1669,6040001123831,新規,0,2022-06-15,2022-06-15,Ｍａｇｏｃｏｒｏ　Ｊａｐａｎ株式会社,,株式会社,千葉県,八千代市,緑が丘１丁目１１０６番地５－１Ｆ４５,,12,221,2760049,,,,,,,2022-06-15,1,,,,,マゴコロジャパン,0
1670,6040001123848,新規,0,2022-06-15,2022-06-15,株式会社ハレオアフ,,株式会社,千葉県,流山市,江戸川台西３丁目３５番地の１７,,12,220,2700115,,,,,,,2022-06-15,1,,,,,ハレオアフ,0
1671,6040001123872,新規,0,2022-06-15,2022-06-15,ＶＡＮＬＥＥ株式会社,,株式会社,千葉県,松戸市,根本１２２番２－朝日松戸プラザ３０４号室,,12,207,2710077,,,,,,,2022-06-15,1,,,,,ヴァンリー,0
1672,6040001123880,新規,0,2022-06-15,2022-06-15,株式会社ビルドアップサポート,,株式会社,千葉県,千葉市稲毛区,小中台町６００番地２ヴィレッジハウス小中台４０１号,,12,103,2630044,,,,,,,2022-06-15,1,,,,,ビルドアップサポート,0
1675,6040003020250,新規,0,2022-06-15,2022-06-15,合同会社八角堂,,合同会社,千葉県,千葉市中央区,祐光４丁目１７番１５号,,12,101,2600007,,,,,,,2022-06-15,1,,,,,ハッカクドウ,0
1676,6040003020259,新規,0,2022-06-15,2022-06-15,ＳＳプランニング合同会社,,合同会社,千葉県,船橋市,前原西１丁目９番２０号,,12,204,2740825,,,,,,,2022-06-15,1,,,,,エスエスプランニング,0
1678,6050001051222,新規,0,2022-06-15,2022-06-15,株式会社ＳｔｅｐＯｎｅ,,株式会社,茨城県,龍ケ崎市,泉町１４９８番地１,,08,208,3010857,,,,,,,2022-06-15,1,,,,,ステップワン,0
1680,6050003006612,新規,0,2022-06-15,2022-06-15,Ｒｅｄ　Ｄａｗｎ合同会社,,合同会社,茨城県,つくば市,北条３４６,,08,220,3004231,,,,,,,2022-06-15,1,,,,,レッドダウン,0
1683,6060001034993,新規,0,2022-06-15,2022-06-15,株式会社聚,,株式会社,栃木県,芳賀郡益子町,城内坂８,,09,342,3214218,,,,,,,2022-06-15,1,,,,,ジュウ,0
1693,6080001025025,新規,0,2022-06-15,2022-06-15,株式会社ルシェルブルー,,株式会社,静岡県,榛原郡川根本町,東藤川２２７６番地,,22,429,4280414,,,,,,,2022-06-15,1,,,,,ルシェルブルー,0
1700,6090001017616,新規,0,2022-06-15,2022-06-15,株式会社稲山貴則建築設計事務所,,株式会社,山梨県,甲府市,朝日１丁目６番１号,,19,201,4000025,,,,,,,2022-06-15,1,,,,,イネヤマタカノリケンチクセッケイジムショ,0
1701,6090003002104,新規,0,2022-06-15,2022-06-15,ＮＯＺＡＷＡ合同会社,,合同会社,山梨県,甲府市,青葉町９番２８号,,19,201,4000828,,,,,,,2022-06-15,1,,,,,ノザワ,0
1702,6100001035442,新規,0,2022-06-15,2022-06-15,株式会社ｉｃｈｉ＆ｈｉｒｏ,,株式会社,長野県,松本市,征矢野２丁目１１番１１号,,20,202,3900842,,,,,,,2022-06-15,1,,,,,イチアンドヒロ,0
1703,6100003006581,新規,0,2022-06-15,2022-06-15,合同会社ＫＧＧ,,合同会社,長野県,北安曇郡池田町,大字会染２４９１番地,,20,481,3998602,,,,,,,2022-06-15,1,,,,,ケージージー,0
1706,6110001036737,新規,0,2022-06-15,2022-06-15,山岸建工株式会社,,株式会社,新潟県,上越市,平成町３５８番地,,15,222,9430151,,,,,,,2022-06-15,1,,,,,ヤマギシケンコウ,0
1707,6110001036745,新規,0,2022-06-15,2022-06-15,株式会社Ｃｒｕｎｘ,,株式会社,新潟県,南魚沼市,姥島新田６６７番地,,15,226,9496425,,,,,,,2022-06-15,1,,,,,クランクス,0
1709,6110003004790,新規,0,2022-06-15,2022-06-15,合同会社Ｓｕｎ,,合同会社,新潟県,五泉市,下条１９９番地９,,15,218,9591803,,,,,,,2022-06-15,1,,,,,サン,0
1719,6120001246599,新規,0,2022-06-15,2022-06-15,株式会社大誠,,株式会社,大阪府,守口市,寺方本通２丁目２１番４号,,27,209,5700048,,,,,,,2022-06-15,1,,,,,ダイセイ,0
1720,6120001246657,新規,0,2022-06-15,2022-06-15,株式会社米津デザイン室,,株式会社,大阪府,大阪市浪速区,幸町２丁目２番４０－１２０２号,,27,111,5560021,,,,,,,2022-06-15,1,,,,,ヨネツデザインシツ,0
1721,6120001246698,新規,0,2022-06-15,2022-06-15,株式会社ＬＰＣＶ,,株式会社,大阪府,大阪市北区,梅田１丁目１番３－５００大阪駅前第３ビル５階１０号,,27,127,5300001,,,,,,,2022-06-15,1,,,,,エルピーシーブイ,0
1722,6120001246707,新規,0,2022-06-15,2022-06-15,萬通國際株式会社,,株式会社,大阪府,大阪市中央区,西心斎橋２丁目１２番２２号朝日プラザ心斎橋５１２号,,27,128,5420086,,,,,,,2022-06-15,1,,,,,マンツウコクサイ,0
1723,6120001246731,新規,0,2022-06-15,2022-06-15,株式会社ＰＧ‐Ｌｅａｆ,,株式会社,大阪府,大阪市福島区,福島６丁目９番１５号,,27,103,5530003,,,,,,,2022-06-15,1,,,,,ピージーリーフ,0
1727,6120003021884,新規,0,2022-06-15,2022-06-15,合同会社ＫＡＩＺＥＮ‐ＹＡ,,合同会社,大阪府,大阪市西成区,千本南１丁目３番１４－３１２号,,27,122,5570055,,,,,,,2022-06-15,1,,,,,カイゼンヤ,0
1729,6120005022996,新規,0,2022-06-15,2022-06-15,一般社団法人亜堂グループ会,,その他の設立登記法人,大阪府,大阪市東淀川区,東中島２丁目９番１５号日大和生ビル１０１,,27,114,5330033,,,,,,,2022-06-15,1,,,,,アドウグループカイ,0
1734,6120101065734,新規,0,2022-06-15,2022-06-15,株式会社サンウエスト,,株式会社,大阪府,貝塚市,東山２丁目１３番９号,,27,208,5970046,,,,,,,2022-06-15,1,,,,,サンウエスト,0
1735,6120101065750,新規,0,2022-06-15,2022-06-15,株式会社Ｃｈａｐｔｅｒ,,株式会社,大阪府,堺市東区,北野田４７２番地１ウォールストリート１０１号,,27,143,5998123,,,,,,,2022-06-15,1,,,,,チャプター,0
1737,6120901046082,新規,0,2022-06-15,2022-06-15,株式会社Ｄｒ．ＨＯＵＳＥ　Ｄｅｓｉｇｎ,,株式会社,大阪府,豊中市,南桜塚４丁目１３番８－４０１号,,27,203,5610882,,,,,,,2022-06-15,1,,,,,ドクターハウスデザイン,0
1738,6120901046090,新規,0,2022-06-15,2022-06-15,株式会社サンクチュアリ,,株式会社,大阪府,茨木市,宿川原町１７番３号,,27,211,5670055,,,,,,,2022-06-15,1,,,,,サンクチュアリ,0
1739,6120901046099,新規,0,2022-06-15,2022-06-15,株式会社クワプリ,,株式会社,大阪府,高槻市,下田部町１丁目２０番５号,,27,207,5690062,,,,,,,2022-06-15,1,,,,,クワプリ,0
1745,6122001035973,新規,0,2022-06-15,2022-06-15,株式会社ＡＲＥＡ４,,株式会社,大阪府,東大阪市,小若江１丁目５番６号,,27,227,5770818,,,,,,,2022-06-15,1,,,,,エリアフォー,0
1750,6130003008014,新規,0,2022-06-15,2022-06-15,合同会社ＥＭＩＲＩ,,合同会社,京都府,京都市西京区,大原野北春日町５８７番地,,26,111,6101152,,,,,,,2022-06-15,1,,,,,エミリ,0
1756,6140003017781,新規,0,2022-06-15,2022-06-15,合同会社ＫａｎＢｅｉ,,合同会社,兵庫県,尼崎市,東七松町２丁目２番１０号,,28,202,6600051,,,,,,,2022-06-15,1,,,,,カンベエ,0
1762,6160001024290,新規,0,2022-06-15,2022-06-15,株式会社アプデエナジー,,株式会社,滋賀県,近江八幡市,上野町５８番地１,,25,204,5230046,,,,,,,2022-06-15,1,,,,,アプデエナジー,0
1771,6180001151752,新規,0,2022-06-15,2022-06-15,株式会社リッジ,,株式会社,愛知県,一宮市,光明寺字天王裏４番地６,,23,203,4910135,,,,,,,2022-06-15,1,,,,,リッジ,0
1772,6180001151769,新規,0,2022-06-15,2022-06-15,Ｒ　ｔｏ　ｔｈｅ　ｆｕｔｕｒｅ株式会社,,株式会社,愛知県,名古屋市東区,泉１丁目２２番２６号,,23,102,4610001,,,,,,,2022-06-15,1,,,,,アールトゥザフューチャー,0
1776,6180003023941,新規,0,2022-06-15,2022-06-15,Ｕ．イルハン合同会社,,合同会社,愛知県,稲沢市,増田西町１４４番地ビレッジハウス増田２－４０２,,23,220,4928429,,,,,,,2022-06-15,1,,,,,ユーイルハン,0
1780,6190001029510,新規,0,2022-06-15,2022-06-15,株式会社ＢＥＮｃｈｍａｒｋ,,株式会社,三重県,四日市市,別山２丁目１０５番地１,,24,202,5120936,,,,,,,2022-06-15,1,,,,,ベンチマーク,0
1785,6200001040184,新規,0,2022-06-15,2022-06-15,株式会社インビジョン,,株式会社,岐阜県,多治見市,昭和町１８番地,,21,204,5070836,,,,,,,2022-06-15,1,,,,,インビジョン,0
1790,6210003001522,新規,0,2022-06-15,2022-06-15,合同会社ＳａｋｏＤＧｓ,,合同会社,福井県,福井市,開発４丁目１１１番地,,18,201,9100842,,,,,,,2022-06-15,1,,,,,サコディージーズ,0
1810,6260005011102,新規,0,2022-06-15,2022-06-15,特定非営利活動法人ＤＥＥＲ,,その他の設立登記法人,岡山県,岡山市東区,可知３丁目１７番４３－１号,,33,103,7048173,,,,,,,2022-06-15,1,,,,,ディアー,0
1811,6270001008555,新規,0,2022-06-15,2022-06-15,株式会社ＡＵＴＯ　ＭＯＤＥ,,株式会社,鳥取県,倉吉市,下田中町８８３番地３,,31,203,6820812,,,,,,,2022-06-15,1,,,,,オートモード,0
1812,6270003001418,新規,0,2022-06-15,2022-06-15,Ｂｅａｔｍｉｎｅｒｚ合同会社,,合同会社,鳥取県,鳥取市,興南町９５番地４シロハコビル２Ｆ,,31,201,6800844,,,,,,,2022-06-15,1,,,,,ビートマイナーズ,0
1817,6290001097893,新規,0,2022-06-15,2022-06-15,株式会社宝住ホーム,,株式会社,福岡県,福岡市博多区,博多駅東２丁目１８番２８－９０４号,,40,132,8120013,,,,,,,2022-06-15,1,,,,,ホウジュウホーム,0
1818,6290001097910,新規,0,2022-06-15,2022-06-15,株式会社ＩＢＵネットワークス,,株式会社,福岡県,宗像市,田久５丁目２１番２１号,,40,220,8114175,,,,,,,2022-06-15,1,,,,,アイビーユーネットワークス,0
1819,6290001097951,新規,0,2022-06-15,2022-06-15,株式会社ＢｌｕｅＢａｙ,,株式会社,福岡県,福岡市博多区,浦田１丁目３５番１８号,,40,132,8120861,,,,,,,2022-06-15,1,,,,,ブルーベイ,0
1825,6330001029826,新規,0,2022-06-15,2022-06-15,株式会社奥村,,株式会社,熊本県,宇城市,豊野町上郷１８０８番地１,,43,213,8614303,,,,,,,2022-06-15,1,,,,,オクムラ,0
1826,6330003009413,新規,0,2022-06-15,2022-06-15,合同会社Ｉ‐Ｔ‐Ｋ　ＫＩＫＡＫＵ,,合同会社,熊本県,熊本市北区,徳王２丁目１６番１５号,,43,105,8615525,,,,,,,2022-06-15,1,,,,,アイティーケーキカク,0
1829,6340001024818,新規,0,2022-06-15,2022-06-15,株式会社ミヤイチ,,株式会社,鹿児島県,出水市,五万石町２８８番地,,46,208,8990214,,,,,,,2022-06-15,1,,,,,ミヤイチ,0
1830,6340003003828,新規,0,2022-06-15,2022-06-15,合同会社友心,,合同会社,鹿児島県,伊佐市,菱刈川北１８０５番地,,46,224,8952708,,,,,,,2022-06-15,1,,,,,ユウシン,0
1838,6370001048681,新規,0,2022-06-15,2022-06-15,カエルファーム株式会社,,株式会社,宮城県,仙台市青葉区,片平１丁目４番１５号１Ｆ,,04,101,9800812,,,,,,,2022-06-15,1,,,,,カエルファーム,0
1839,6370003005730,新規,0,2022-06-15,2022-06-15,合同会社Ｔｏｂｙ,,合同会社,宮城県,仙台市青葉区,荒巻中央１０番１２号ラ・パルク山の手２０７,,04,101,9810964,,,,,,,2022-06-15,1,,,,,トビー,0
1840,6380001032899,新規,0,2022-06-15,2022-06-15,株式会社いん・べすと,,株式会社,福島県,福島市,旭町２番地２９シティハイムパールシティ２０１,,07,201,9608113,,,,,,,2022-06-15,1,,,,,インベスト,0
1850,6430001086816,新規,0,2022-06-15,2022-06-15,株式会社Ｋ‐ＳＴＹＬＥ,,株式会社,北海道,苫小牧市,拓勇西町８丁目２番７号,,01,213,0591302,,,,,,,2022-06-15,1,,,,,ケースタイル,0
1862,6700150010904,新規,0,2022-06-15,2015-10-09,奥多摩町日原自治会,,その他,東京都,西多摩郡奥多摩町,日原７６０,,13,308,1980211,,,,,,,2015-10-09,1,,,,,オクタママチニツパラジチカイ,0
1864,6700150109267,新規,0,2022-06-15,2022-06-07,Ｎｅｘｘｘ,,その他,大阪府,泉大津市,松之浜町２丁目３－７ＤＪ－ＢＡＲ　ＯＴＯ　ＯＴＯ　内,,27,206,5950072,,,,,,,2022-06-07,1,,,,,ネツクス,0
1865,6700150109309,新規,0,2022-06-15,2022-06-08,労働協同組合　光里,,その他,大分県,大分市,高城西町３２番３６号,,44,201,8700154,,,,,,,2022-06-08,1,,,,,ロウドウキヨウドウクミアイアカリ,0
1878,7010401167884,新規,0,2022-06-15,2022-06-15,株式会社中島仮設,,株式会社,東京都,港区,元麻布３丁目１２番１号,,13,103,1060046,,,,,,,2022-06-15,1,,,,,ナカジマカセツ,0
1879,7010401167918,新規,0,2022-06-15,2022-06-15,株式会社プラチナハート,,株式会社,東京都,港区,白金台４丁目８番７－７０１号,,13,103,1080071,,,,,,,2022-06-15,1,,,,,,0
1880,7010401167967,新規,0,2022-06-15,2022-06-15,アイオーティ株式会社,,株式会社,東京都,港区,赤坂５丁目２番２０号赤坂パークビル２３階テレシスネットワーク株式会社内,,13,103,1070052,,,,,,,2022-06-15,1,,,,,アイオーティ,0
1885,7010403027855,新規,0,2022-06-15,2022-06-15,Ｍｉｔｓｕｂａ　Ｔｒａｄｅ合同会社,,合同会社,東京都,港区,浜松町２丁目２番１５号,,13,103,1050013,,,,,,,2022-06-15,1,,,,,ミツバトレード,0
1886,7010403027896,新規,0,2022-06-15,2022-06-15,合同会社ＵＮＮＯＮ,,合同会社,東京都,港区,南青山２丁目２－１５,,13,103,1070062,,,,,,,2022-06-15,1,,,,,アンノン,0
1892,7010601061301,新規,0,2022-06-15,2022-06-15,株式会社Ｒｏａｄ　Ｔｅｃｈ　Ｓｏｌｕｔｉｏｎ,,株式会社,東京都,江東区,青海２丁目７－４ｔｈｅＳＯＨＯ１１２６,,13,108,1350064,,,,,,,2022-06-15,1,,,,,ロードテックソリューション,0
1893,7010601061334,新規,0,2022-06-15,2022-06-15,株式会社Ｓｅｌｌｉｎｇ　Ｔｈｅ　Ｓｅａ,,株式会社,東京都,江東区,豊洲４丁目９番１３－４２３号,,13,108,1350061,,,,,,,2022-06-15,1,,,,,セリングザシー,0
1896,7010701042820,新規,0,2022-06-15,2022-06-15,Ｅｎｔｒｉｂｅ株式会社,,株式会社,東京都,品川区,北品川５丁目５番１５号,,13,109,1410001,,,,,,,2022-06-15,1,,,,,エントライブ,0
1898,7010801033042,新規,0,2022-06-15,2022-06-15,株式会社Ｍ２,,株式会社,東京都,大田区,鵜の木３丁目９番３号,,13,111,1460091,,,,,,,2022-06-15,1,,,,,エムツー,0
1900,7010803004207,新規,0,2022-06-15,2022-06-15,合同会社ニコルサイン,,合同会社,東京都,大田区,矢口３丁目９番３号,,13,111,1460093,,,,,,,2022-06-15,1,,,,,ニコルサイン,0
1903,7010905004328,新規,0,2022-06-15,2022-06-15,一般社団法人希望支援協会,,その他の設立登記法人,東京都,世田谷区,奥沢２丁目３７番１５号,,13,112,1580083,,,,,,,2022-06-15,1,,,,,キボウシエンキョウカイ,0
1908,7011001148052,新規,0,2022-06-15,2022-06-15,株式会社ＦＡＣＴＯＲＹ,,株式会社,東京都,渋谷区,恵比寿３丁目３９番９－６０１号,,13,113,1500013,,,,,,,2022-06-15,1,,,,,ファクトリー,0
1909,7011001148060,新規,0,2022-06-15,2022-06-15,スーパーセカンズ株式会社,,株式会社,東京都,渋谷区,渋谷２丁目２４番１２号渋谷スクランブルスクエア３９階,,13,113,1500002,,,,,,,2022-06-15,1,,,,,スーパーセカンズ,0
1910,7011001148143,新規,0,2022-06-15,2022-06-15,株式会社ＵＮＴＯＲＮ,,株式会社,東京都,渋谷区,神宮前２丁目２１番１４号プラザＦ３ビル２Ｆ,,13,113,1500001,,,,,,,2022-06-15,1,,,,,アントーン,0
1912,7011005009606,新規,0,2022-06-15,2022-06-15,医療法人社団ＴＯＹＯ　ＳＭＩＬＥ　ＤＥＳＩＧＮ,,その他の設立登記法人,東京都,渋谷区,恵比寿４丁目３番１号クイズ恵比寿３階Ｎ区画,,13,113,1500013,,,,,,,2022-06-15,1,,,,,,0
1915,7011101099195,新規,0,2022-06-15,2022-06-15,ＪＩテック株式会社,,株式会社,東京都,新宿区,戸山３丁目２１番５号ロータスコート西早稲田８０１,,13,104,1620052,,,,,,,2022-06-15,1,,,,,ジェイアイテック,0
1916,7011101099204,新規,0,2022-06-15,2022-06-15,株式会社Ｖ,,株式会社,東京都,新宿区,新宿１丁目９番４号中公ビル御苑グリーンハイツ６０１,,13,104,1600022,,,,,,,2022-06-15,1,,,,,ブイ,0
1917,7011101099229,新規,0,2022-06-15,2022-06-15,株式会社Ｒｅｓｅａｒｃｈ,,株式会社,東京都,新宿区,新宿６丁目１６番６号ルーブル新宿２０３,,13,104,1600022,,,,,,,2022-06-15,1,,,,,リサーチ,0
1922,7011401024324,新規,0,2022-06-15,2022-06-15,株式会社ＲｏｒＳ,,株式会社,東京都,板橋区,弥生町３３－３西野ビル５Ｆ,,13,119,1730021,,,,,,,2022-06-15,1,,,,,ロールス,0
1924,7011501028142,新規,0,2022-06-15,2022-06-15,株式会社アンティアス,,株式会社,東京都,北区,西ケ原４丁目５１番３５号,,13,117,1140024,,,,,,,2022-06-15,1,,,,,アンティアス,0
1925,7011503005189,新規,0,2022-06-15,2022-06-15,合同会社ライズカラー,,合同会社,東京都,荒川区,南千住８丁目９番２－１０１４号,,13,118,1160003,,,,,,,2022-06-15,1,,,,,ライズカラー,0
1926,7011601026038,新規,0,2022-06-15,2022-06-15,株式会社Ｈｏｍｉｅ,,株式会社,東京都,練馬区,石神井台４丁目２１番１２号グリーンパークＩ２０４,00126877,13,120,1770045,,,,,,,2022-06-15,1,,,,,ホーミー,0
1927,7011603003621,新規,0,2022-06-15,2022-06-15,合同会社Ｈｅａｒｔｙ‐ｇｒｏｕｐ,,合同会社,東京都,練馬区,豊玉北３丁目８番８－１０１号,,13,120,1760012,,,,,,,2022-06-15,1,,,,,ハーティーグループ,0
1928,7011701025385,新規,0,2022-06-15,2022-06-15,クンヤーイ株式会社,,株式会社,東京都,江戸川区,西小岩１丁目２２番８号ＪＳＩＩビル２階,00126884,13,123,1330057,,,,,,,2022-06-15,1,,,,,クンヤーイ,0
1935,7011803005129,新規,0,2022-06-15,2022-06-15,ＡＲＴＥＨＡＩＲ合同会社,,合同会社,東京都,葛飾区,西新小岩１丁目２番１１号キクヤビル３Ｆ,,13,122,1240025,,,,,,,2022-06-15,1,,,,,アルテヘア,0
1940,7012403005428,新規,0,2022-06-15,2022-06-15,合同会社イデアルクリエイト,,合同会社,東京都,府中市,是政１丁目２０番地の１３５,,13,206,1830014,,,,,,,2022-06-15,1,,,,,イデアルクリエイト,0
1943,7013101008945,新規,0,2022-06-15,2022-06-15,株式会社マナテック,,株式会社,東京都,青梅市,今井３丁目２４番地の５,,13,205,1980023,,,,,,,2022-06-15,1,,,,,マナテック,0
1948,7020001146874,新規,0,2022-06-15,2022-06-15,グリーンエネルギーテクノ株式会社,,株式会社,神奈川県,川崎市川崎区,渡田向町２６－１０,,14,131,2100841,,,,,,,2022-06-15,1,,,,,グリーンエネルギーテクノ,0
1949,7020001146949,新規,0,2022-06-15,2022-06-15,株式会社ＣＬＶラボ,,株式会社,神奈川県,横浜市保土ケ谷区,川辺町３番地１－Ｃ１０５号,,14,106,2400001,,,,,,,2022-06-15,1,,,,,シイエルブイラボ,0
1950,7020001146957,新規,0,2022-06-15,2022-06-15,株式会社十色,,株式会社,神奈川県,横浜市鶴見区,下末吉３丁目１２番４３号,,14,101,2300012,,,,,,,2022-06-15,1,,,,,トイロ,0
1955,7020003021927,新規,0,2022-06-15,2022-06-15,合同会社ミウ,,合同会社,神奈川県,川崎市川崎区,本町１丁目６番地３,,14,131,2100001,,,,,,,2022-06-15,1,,,,,ミウ,0
1960,7021001076228,新規,0,2022-06-15,2022-06-15,湘南ホームナーシング株式会社,,株式会社,神奈川県,茅ヶ崎市,小和田２丁目８番２３号,,14,207,2530012,,,,,,,2022-06-15,1,,,,,ショウナンホームナーシング,0
1961,7021001076236,新規,0,2022-06-15,2022-06-15,株式会社ワンダフルワークス,,株式会社,神奈川県,伊勢原市,東大竹９３９番地の９,,14,214,2591133,,,,,,,2022-06-15,1,,,,,ワンダフルワークス,0
1975,7030001148671,新規,0,2022-06-15,2022-06-15,ワイ・イー・ピー株式会社,,株式会社,埼玉県,所沢市,東狭山ケ丘１丁目１７番地１３,,11,208,3591106,,,,,,,2022-06-15,1,,,,,ワイイーピー,0
1979,7030003019598,新規,0,2022-06-15,2022-06-15,ＴＥ‐ＫＡ合同会社,,合同会社,埼玉県,加須市,陽光台１丁目３００番地６２,,11,210,3491204,,,,,,,2022-06-15,1,,,,,テカ,0
1980,7030003019607,新規,0,2022-06-15,2022-06-15,合同会社澄昇,,合同会社,埼玉県,上尾市,川１丁目２７－４６,,11,219,3620048,,,,,,,2022-06-15,1,,,,,,0
1982,7030005020892,新規,0,2022-06-15,2022-06-15,ライオンズガーデン花崎団地管理組合法人,,その他の設立登記法人,埼玉県,加須市,花崎北２丁目１６番地１,,11,210,3470016,,,,,,,2022-06-15,1,,,,,ライオンズガーデンハナサキ,0
1993,7040001123830,新規,0,2022-06-15,2022-06-15,株式会社ＭＥＤＦＯＯＤ　ＪＡＰＡＮ,,株式会社,千葉県,柏市,松葉町２丁目２８番地の３メゾン・ド・ベルウッドＡ－１０２号,,12,217,2770827,,,,,,,2022-06-15,1,,,,,メドフードジャパン,0
1994,7040001123839,新規,0,2022-06-15,2022-06-15,株式会社小原澤建築,,株式会社,千葉県,千葉市若葉区,小倉台６丁目１６番１６号,,12,104,2640006,,,,,,,2022-06-15,1,,,,,コハラザワケンチク,0
1995,7040001123847,新規,0,2022-06-15,2022-06-15,株式会社ｒｉｎａｔｏ,,株式会社,千葉県,柏市,篠籠田１４４７番地１４,,12,217,2770862,,,,,,,2022-06-15,1,,,,,リナト,0
1999,7040003020217,新規,0,2022-06-15,2022-06-15,合同会社ＢＵＮ,,合同会社,千葉県,流山市,大字東深井４９３番地の１７１,,12,220,2700101,,,,,,,2022-06-15,1,,,,,ブン,0
2002,7050001051238,新規,0,2022-06-15,2022-06-15,株式会社１１５,,株式会社,茨城県,龍ケ崎市,白羽１丁目１９番地１,,08,208,3010841,,,,,,,2022-06-15,1,,,,,イチイチゴ,0
2003,7050001051246,新規,0,2022-06-15,2022-06-15,ＮＶＨ株式会社,,株式会社,茨城県,常総市,崎房字葉田１９９１番５,,08,211,3002747,,,,,,,2022-06-15,1,,,,,エヌブイエイチ,0
2005,7050003006611,新規,0,2022-06-15,2022-06-15,合同会社キッズバランス,,合同会社,茨城県,つくば市,千現２丁目１番６,,08,220,3050047,,,,,,,2022-06-15,1,,,,,キッズバランス,0
2006,7050005013085,新規,0,2022-06-15,2022-06-15,一般社団法人共栄国際協会,,その他の設立登記法人,茨城県,つくば市,島名１１８１番地１（香取台Ｂ１２街区９）,,08,220,3002655,,,,,,,2022-06-15,1,,,,,キョウエイコクサイキョウカイ,0
2012,7070001039322,新規,0,2022-06-15,2022-06-15,株式会社宮ホールディングス,,株式会社,群馬県,太田市,茂木町４６１番地１,,10,205,3730809,,,,,,,2022-06-15,1,,,,,ミヤホールディングス,0
2013,7070001039330,新規,0,2022-06-15,2022-06-15,黒岩技研株式会社,,株式会社,群馬県,高崎市,菅谷町１１０１番地１,,10,202,3703522,,,,,,,2022-06-15,1,,,,,クロイワギケン,0
2014,7070001039339,新規,0,2022-06-15,2022-06-15,株式会社青木総業,,株式会社,群馬県,前橋市,富田町２８８番地１,,10,201,3792161,,,,,,,2022-06-15,1,,,,,アオキソウギョウ,0
2019,7080005007464,新規,0,2022-06-15,2022-06-15,特定非営利活動法人しまだつながり研究所,,その他の設立登記法人,静岡県,島田市,阪本１３９３番地の１,,22,209,4270111,,,,,,,2022-06-15,1,,,,,シマダツナガリケンキュウジョ,0
2020,7080101023357,新規,0,2022-06-15,2022-06-15,大藤総合開発株式会社,,株式会社,静岡県,沼津市,大岡１７０５番地の４,,22,203,4100022,,,,,,,2022-06-15,1,,,,,オオフジソウゴウカイハツ,0
2025,7080401025879,新規,0,2022-06-15,2022-06-15,株式会社Ｂｅ．Ｈｏｕｓｅ,,株式会社,静岡県,湖西市,古見１２１４番地,,22,221,4310442,,,,,,,2022-06-15,1,,,,,ビハウス,0
2026,7080401025887,新規,0,2022-06-15,2022-06-15,久通株式会社,,株式会社,静岡県,袋井市,宇刈１１１５番地の１,,22,216,4370121,,,,,,,2022-06-15,1,,,,,キュウツウ,0
2030,7100001035441,新規,0,2022-06-15,2022-06-15,株式会社寿建工,,株式会社,長野県,松本市,大字松原３１番地４９,,20,202,3990022,,,,,,,2022-06-15,1,,,,,コトブキケンコウ,0
2039,7110005016817,新規,0,2022-06-15,2022-06-15,一般社団法人ヴィスキオ,,その他の設立登記法人,新潟県,新潟市西蒲区,巻甲３１８４番地８号ＬＵＮＡハウス１０３,,15,108,9530041,,,,,,,2022-06-15,1,,,,,ヴィスキオ,0
2051,7120001246598,新規,0,2022-06-15,2022-06-15,株式会社ＡＲＴｉｎｎｏｖａｔｉｏｎ,,株式会社,大阪府,大阪市城東区,鴫野東２丁目１５番３号,,27,118,5360013,,,,,,,2022-06-15,1,,,,,アートイノベーション,0
2052,7120001246607,新規,0,2022-06-15,2022-06-15,株式会社ネモフィラ,,株式会社,大阪府,大阪市福島区,海老江１丁目１１番１７号,,27,103,5530001,,,,,,,2022-06-15,1,,,,,ネモフィラ,0
2053,7120001246631,新規,0,2022-06-15,2022-06-15,株式会社彩風テックデザイン,,株式会社,大阪府,大阪市福島区,福島６丁目８番２０－５０１号,,27,103,5530003,,,,,,,2022-06-15,1,,,,,アヤカゼテックデザイン,0
2054,7120001246648,新規,0,2022-06-15,2022-06-15,加藤総業株式会社,,株式会社,大阪府,大阪市阿倍野区,天王寺町北３丁目１４番１４号,,27,119,5450001,,,,,,,2022-06-15,1,,,,,カトウソウギョウ,0
2056,7120003021900,新規,0,2022-06-15,2022-06-15,Ｕｐｓｅｔ　ｉｎ　Ｍｉｒａｃｌｅ合同会社,,合同会社,大阪府,寝屋川市,八坂町１４番１６－３０２号,,27,215,5720838,,,,,,,2022-06-15,1,,,,,アプセットインミラクル,0
2057,7120003021909,新規,0,2022-06-15,2022-06-15,ＣＯ　ＣＨＵ　ＬＯＮ合同会社,,合同会社,大阪府,大阪市生野区,巽中３丁目８番２号,00126879,27,116,5440013,,,,,,,2022-06-15,1,,,,,コチューロン,0
2059,7120005022995,新規,0,2022-06-15,2022-06-15,弁護士法人池田咲子法律事務所,,その他の設立登記法人,大阪府,大阪市北区,西天満１丁目２番５号大阪ＪＡビル１３階,,27,127,5300047,,,,,,,2022-06-15,1,,,,,イケダサキコホウリツジムショ,0
2062,7120101065758,新規,0,2022-06-15,2022-06-15,株式会社アンベリ,,株式会社,大阪府,泉南市,馬場１丁目６番４号,,27,228,5900525,,,,,,,2022-06-15,1,,,,,アンベリ,0
2080,7140001126360,新規,0,2022-06-15,2022-06-15,株式会社ＰＩＴＴＡＮ,,株式会社,兵庫県,神戸市灘区,水道筋６丁目１番３号,,28,102,6570831,,,,,,,2022-06-15,1,,,,,ピッタン,0
2090,7160001024281,新規,0,2022-06-15,2022-06-15,株式会社トレンドライブ,,株式会社,滋賀県,守山市,吉身７丁目４番１２号,,25,207,5240021,,,,,,,2022-06-15,1,,,,,トレンドライブ,0
2091,7160003002590,新規,0,2022-06-15,2022-06-15,合同会社ふくろう,,合同会社,滋賀県,近江八幡市,中村町２０－１５コルージャビル３Ｆ,,25,204,5230894,,,,,,,2022-06-15,1,,,,,フクロウ,0
2098,7180001151784,新規,0,2022-06-15,2022-06-15,株式会社ベルミエール,,株式会社,愛知県,名古屋市東区,東桜２丁目９番３４号成田ビル１Ｆ,,23,102,4610005,,,,,,,2022-06-15,1,,,,,ベルミエール,0
2101,7180003023940,新規,0,2022-06-15,2022-06-15,ａｐｅｘ合同会社,,合同会社,愛知県,名古屋市熱田区,四番２丁目２番２６号,,23,109,4560051,,,,,,,2022-06-15,1,,,,,アペックス,0
2103,7180301036339,新規,0,2022-06-15,2022-06-15,株式会社ＫＩＤＯＵ,,株式会社,愛知県,豊田市,貝津町西向畑７番地２４,,23,211,4700348,,,,,,,2022-06-15,1,,,,,キドウ,0
2107,7200001040183,新規,0,2022-06-15,2022-06-15,株式会社創建,,株式会社,岐阜県,岐阜市,六条北４丁目３番３号,,21,201,5008359,,,,,,,2022-06-15,1,,,,,ソウケン,0
2109,7200003005589,新規,0,2022-06-15,2022-06-15,合同会社ＪＳＫ,,合同会社,岐阜県,郡上市,高鷲町鮎立６１８５番地９０,,21,219,5015304,,,,,,,2022-06-15,1,,,,,ジェイエスケイ,0
2110,7220005008679,新規,0,2022-06-15,2022-06-15,一般社団法人いまここ親の会,,その他の設立登記法人,石川県,加賀市,大聖寺南町チ３５番地７,,17,206,9220811,,,,,,,2022-06-15,1,,,,,イマココオヤノカイ,0
2112,7230001019415,新規,0,2022-06-15,2022-06-15,株式会社リクリエイト,,株式会社,富山県,富山市,今泉３０番地１メゾン今泉６０６号,,16,201,9398075,,,,,,,2022-06-15,1,,,,,,0
2115,7230003001866,新規,0,2022-06-15,2022-06-15,合同会社ＴＡＭＡＩ,,合同会社,富山県,高岡市,野村１５２１番地１信開ドムス野村３１４号,,16,202,9330014,,,,,,,2022-06-15,1,,,,,タマイ,0
2124,7260001036928,新規,0,2022-06-15,2022-06-15,株式会社ＢＴ,,株式会社,岡山県,岡山市北区,青江１丁目３番２２号,,33,101,7000941,,,,,,,2022-06-15,1,,,,,ビーティー,0
2127,7270003001417,新規,0,2022-06-15,2022-06-15,合同会社Ｗｉｎｄｙｓ,,合同会社,鳥取県,鳥取市,掛出町２８－１４ペシェントビレ２０３号,,31,201,6800041,,,,,,,2022-06-15,1,,,,,ウィンディーズ,0
2128,7280001008719,新規,0,2022-06-15,2022-06-15,株式会社李杏堂,,株式会社,島根県,江津市,嘉久志町イ６８０番地,,32,207,6950016,,,,,,,2022-06-15,1,,,,,リアンドウ,0
2129,7280003001622,新規,0,2022-06-15,2022-06-15,合名会社安来精米所,,合名会社,島根県,安来市,安来町２１４３番地,,32,206,6920011,,,,,,,2022-06-15,1,,,,,ヤスギセイマイショ,0
2132,7290001097892,新規,0,2022-06-15,2022-06-15,株式会社ポルターダ,,株式会社,福岡県,大野城市,仲畑１丁目３１番４５号,,40,219,8160921,,,,,,,2022-06-15,1,,,,,ポルターダ,0
2133,7290001097901,新規,0,2022-06-15,2022-06-15,株式会社タカロジ,,株式会社,福岡県,福岡市南区,弥永４丁目１０番１６号,,40,134,8111323,,,,,,,2022-06-15,1,,,,,タカロジ,0
2134,7290001097918,新規,0,2022-06-15,2022-06-15,株式会社ＫＹＵ,,株式会社,福岡県,福岡市博多区,東光寺町２丁目７番５－４０８号アプローズ竹下駅東ＩＩＩ,00126885,40,132,8120896,,,,,,,2022-06-15,1,,,,,キュウ,0
2135,7290001097926,新規,0,2022-06-15,2022-06-15,トラストデザイン株式会社,,株式会社,福岡県,福岡市東区,原田１丁目１番１６号,,40,131,8120063,,,,,,,2022-06-15,1,,,,,トラストデザイン,0
2136,7290001097942,新規,0,2022-06-15,2022-06-15,株式会社高建,,株式会社,福岡県,福岡市博多区,東平尾３丁目１番３６号,,40,132,8120853,,,,,,,2022-06-15,1,,,,,タカケン,0
2137,7290003012635,新規,0,2022-06-15,2022-06-15,ジェイ・エンターテイメント合同会社,,合同会社,福岡県,福岡市博多区,住吉２丁目１３番１５－７０３号アネックス住乃江,,40,132,8120018,,,,,,,2022-06-15,1,,,,,ジェイエンターテイメント,0
2138,7290005018721,新規,0,2022-06-15,2022-06-15,一般社団法人子どもの視力を守る会,,その他の設立登記法人,福岡県,太宰府市,吉松２丁目５番１０号,,40,221,8180138,,,,,,,2022-06-15,1,,,,,コドモノシリョクヲマモルカイ,0
2143,7310001017906,新規,0,2022-06-15,2022-06-15,株式会社アダチ,,株式会社,長崎県,南島原市,南有馬町乙２３７７番地４,,42,214,8592412,,,,,,,2022-06-15,1,,,,,アダチ,0
2145,7330001029817,新規,0,2022-06-15,2022-06-15,株式会社ＢＲＥＡＴＨ,,株式会社,熊本県,玉名郡和水町,原口７００－１－２,,43,369,8650124,,,,,,,2022-06-15,1,,,,,ブレス,0
2146,7330001029833,新規,0,2022-06-15,2022-06-15,株式会社３０７,,株式会社,熊本県,熊本市中央区,南坪井町５番２１号２階,,43,101,8600848,,,,,,,2022-06-15,1,,,,,サンマルナナ,0
2150,7340001024800,新規,0,2022-06-15,2022-06-15,株式会社九州理美容サービス,,株式会社,鹿児島県,姶良市,西餅田５６１番地１コーポ松本２０４号,,46,225,8995431,,,,,,,2022-06-15,1,,,,,キュウシュウリビヨウサービス,0
2153,7350001017803,新規,0,2022-06-15,2022-06-15,株式会社サンクリエイト宮崎,,株式会社,宮崎県,児湯郡都農町,大字川北５４３６番地,,45,406,8891201,,,,,,,2022-06-15,1,,,,,サンクリエイトミヤザキ,0
2155,7360001030557,新規,0,2022-06-15,2022-06-15,新広堂株式会社,,株式会社,沖縄県,浦添市,安波茶２丁目６番１３号,,47,208,9012114,,,,,,,2022-06-15,1,,,,,シンコウドウ,0
2158,7370001048672,新規,0,2022-06-15,2022-06-15,株式会社芋沢エクスプレス,,株式会社,宮城県,仙台市青葉区,赤坂３丁目１０番地の２２,,04,101,9893211,,,,,,,2022-06-15,1,,,,,イモザワエクスプレス,0
2161,7380001032907,新規,0,2022-06-15,2022-06-15,ささきけん事務所株式会社,,株式会社,福島県,福島市,霞町６番２６号,,07,201,9608021,,,,,,,2022-06-15,1,,,,,ササキケンジムショ,0
2175,7430005014490,新規,0,2022-06-15,2022-06-15,一般社団法人相続事務サポート協会,,その他の設立登記法人,北海道,札幌市西区,西町北１４丁目１－１５,,01,107,0630061,,,,,,,2022-06-15,1,,,,,ソウゾクジムサポートキョウカイ,0
2182,7480001011768,新規,0,2022-06-15,2022-06-15,株式会社ＧＬＯＢＡＬ　ＴＩＧＥＲ,,株式会社,徳島県,徳島市,川内町平石住吉２９５番地１リッチ・ド・川内３・６０４号室,,36,201,7710134,,,,,,,2022-06-15,1,,,,,グローバルタイガー,0
2188,7700150108441,新規,0,2022-06-15,2022-04-28,昭和とらいあんぐる,,その他,東京都,墨田区,業平２丁目１５－９コモンドエフ３０２,,13,107,1300002,,,,,,,2022-04-28,1,,,,,シヨウワトライアングル,0
2200,8010001227311,新規,0,2022-06-15,2022-06-15,日本興澤株式会社,,株式会社,東京都,中央区,日本橋３丁目３－３アネラビル８階,,13,102,1030027,,,,,,,2022-06-15,1,,,,,ニホンコウタク,0
2201,8010001227336,新規,0,2022-06-15,2022-06-15,株式会社うさみみ,,株式会社,東京都,千代田区,内神田１丁目１５番７号,,13,101,1010047,,,,,,,2022-06-15,1,,,,,ウサミミ,0
2209,8010401167933,新規,0,2022-06-15,2022-06-15,ＥＡＴＡＲＴ株式会社,,株式会社,東京都,港区,港南１丁目８番１５号Ｗビル２Ｆリブポート品川,,13,103,1080075,,,,,,,2022-06-15,1,,,,,イートアート,0
2210,8010401167941,新規,0,2022-06-15,2022-06-15,安全ｗｏｒｋｓ株式会社,,株式会社,東京都,港区,港南２丁目３番１号,,13,103,1080075,,,,,,,2022-06-15,1,,,,,アンゼンワークス,0
2214,8010405021112,新規,0,2022-06-15,2022-06-15,レオホールディングス一般社団法人,,その他の設立登記法人,東京都,港区,虎ノ門３丁目２２番１０－２０１号,,13,103,1050001,,,,,,,2022-06-15,1,,,,,レオホールディングス,0
2219,8010603009586,新規,0,2022-06-15,2022-06-15,エルテイメント合同会社,,合同会社,東京都,江東区,越中島１丁目３番１－６１９号,,13,108,1350044,,,,,,,2022-06-15,1,,,,,エルテイメント,0
2221,8010705003371,新規,0,2022-06-15,2022-06-15,行政書士法人川原経営,,その他の設立登記法人,東京都,品川区,北品川４丁目７番３５号御殿山トラストタワー,,13,109,1400001,,,,,,,2022-06-15,1,,,,,カワハラケイエイ,0
2223,8010801033041,新規,0,2022-06-15,2022-06-15,さるすぃ株式会社,,株式会社,東京都,大田区,山王２丁目５番６号ＳＡＮＮＯ　ＢＲＩＤＧＥ,,13,111,1430023,,,,,,,2022-06-15,1,,,,,サルスィ,0
2225,8010803004206,新規,0,2022-06-15,2022-06-15,合同会社ＧＲコーディング,,合同会社,東京都,大田区,矢口３丁目３２番１号多摩川ハウス３０５,,13,111,1460093,,,,,,,2022-06-15,1,,,,,ジーアールコーディング,0
2241,8011003014821,新規,0,2022-06-15,2022-06-15,ＬＯＯＫＵＰ　ＣＯＮＳＵＬＴＩＮＧ合同会社,,合同会社,東京都,渋谷区,神宮前６丁目２３番４号桑野ビル２階,,13,113,1500001,,,,,,,2022-06-15,1,,,,,ルックアップコンサルティング,0
2242,8011003014854,新規,0,2022-06-15,2022-06-15,ｌａｍｉｎａｒ合同会社,,合同会社,東京都,渋谷区,神宮前６丁目２３番４号桑野ビル２階,,13,113,1500001,,,,,,,2022-06-15,1,,,,,ラミナー,0
2246,8011101099228,新規,0,2022-06-15,2022-06-15,トータルエナジー株式会社,,株式会社,東京都,新宿区,高田馬場２丁目２番１２号,,13,104,1690075,,,,,,,2022-06-15,1,,,,,トータルエナジー,0
2249,8011103011850,新規,0,2022-06-15,2022-06-15,合同会社夏目坂エステート,,合同会社,東京都,新宿区,戸山１丁目１７番５号,,13,104,1620052,,,,,,,2022-06-15,1,,,,,ナツメザカエステート,0
2250,8011301027855,新規,0,2022-06-15,2022-06-15,株式会社はこぶね建設,,株式会社,東京都,杉並区,上井草２丁目１７番１９号上井草グリーンハイツ１１５,,13,115,1670023,,,,,,,2022-06-15,1,,,,,ハコブネケンセツ,0
2254,8011601026037,新規,0,2022-06-15,2022-06-15,株式会社リシュブルー,,株式会社,東京都,練馬区,豊玉中４丁目１２－１オーベル練馬センティア３２４,,13,120,1760013,,,,,,,2022-06-15,1,,,,,リシュブルー,0
2255,8011603003620,新規,0,2022-06-15,2022-06-15,合同会社リクオー,,合同会社,東京都,練馬区,下石神井６丁目４４番９号プライム・石神井２０２,,13,120,1770042,,,,,,,2022-06-15,1,,,,,リクオー,0
2259,8011803005128,新規,0,2022-06-15,2022-06-15,合同会社莉新設備,,合同会社,東京都,足立区,伊興３丁目１３－７杉本ハイツ１０１,,13,121,1210823,,,,,,,2022-06-15,1,,,,,リッシンセツビ,0
2260,8012303001690,新規,0,2022-06-15,2022-06-15,合同会社Ｈｕｍａｎ　Ｌｏｖｅ,,合同会社,東京都,町田市,矢部町２８１８番地１,,13,209,1940214,,,,,,,2022-06-15,1,,,,,ヒューマンラブ,0
2261,8012401039294,新規,0,2022-06-15,2022-06-15,誠真設備株式会社,,株式会社,東京都,狛江市,中和泉５丁目３番２５号,,13,219,2010012,,,,,,,2022-06-15,1,,,,,セイシンセツビ,0
2268,8013301049243,新規,0,2022-06-15,2022-06-15,サミットティシイ株式会社,,株式会社,東京都,豊島区,南池袋２丁目６－８興一ビル３０２号,,13,116,1710022,,,,,,,2022-06-15,1,,,,,サミットティシイ,0
2269,8013303006192,新規,0,2022-06-15,2022-06-15,Ｓ＆Ｃ合同会社,,合同会社,東京都,豊島区,南長崎１丁目１９番２号スワンレイク山手２０２号,,13,116,1710052,,,,,,,2022-06-15,1,,,,,エスアンドシー,0
2280,8020001146923,新規,0,2022-06-15,2022-06-15,株式会社真建,,株式会社,神奈川県,横浜市旭区,川島町１９６９番地１１,,14,112,2410011,,,,,,,2022-06-15,1,,,,,シンケン,0
2281,8020001146931,新規,0,2022-06-15,2022-06-15,株式会社ＢＯＯＭＡ,,株式会社,神奈川県,川崎市宮前区,けやき平１番２６－２０３号,,14,136,2160023,,,,,,,2022-06-15,1,,,,,ブーマ,0
2282,8020001146948,新規,0,2022-06-15,2022-06-15,株式会社ケーアールエム,,株式会社,神奈川県,横浜市港北区,大倉山７丁目７番８号,,14,109,2220037,,,,,,,2022-06-15,1,,,,,ケーアールエム,0
2283,8020001146956,新規,0,2022-06-15,2022-06-15,株式会社王騎,,株式会社,神奈川県,横浜市港北区,菊名７丁目３番３８－１０５号,,14,109,2220011,,,,,,,2022-06-15,1,,,,,オウキ,0
2289,8020003021934,新規,0,2022-06-15,2022-06-15,スターク合同会社,,合同会社,神奈川県,横浜市緑区,東本郷６丁目２２番１－８１７号,,14,113,2260002,,,,,,,2022-06-15,1,,,,,スターク,0
2290,8020003021942,新規,0,2022-06-15,2022-06-15,合同会社ＩＡＤ,,合同会社,神奈川県,横浜市都筑区,茅ケ崎南３丁目１９番１１号,,14,118,2240037,,,,,,,2022-06-15,1,,,,,アイエーディー,0
2292,8020005015570,新規,0,2022-06-15,2022-06-15,一般社団法人ゼロムスジャパン,,その他の設立登記法人,神奈川県,横浜市旭区,さちが丘１４１番地４,,14,112,2410822,,,,,,,2022-06-15,1,,,,,ゼロムスジャパン,0
2294,8021001076235,新規,0,2022-06-15,2022-06-15,石川工業株式会社,,株式会社,神奈川県,相模原市中央区,清新８丁目８番２９号ロイヤルプラザ清新３０２,,14,152,2520216,,,,,,,2022-06-15,1,,,,,イシカワコウギョウ,0
2296,8021003011834,新規,0,2022-06-15,2022-06-15,ＡＰＯＣ合同会社,,合同会社,神奈川県,厚木市,温水９８８番地５ディアコートＤ１０３,,14,212,2430033,,,,,,,2022-06-15,1,,,,,アポック,0
2304,8030001148654,新規,0,2022-06-15,2022-06-15,株式会社良美,,株式会社,埼玉県,草加市,手代３丁目４６番１号,,11,221,3400021,,,,,,,2022-06-15,1,,,,,ヨシミ,0
2305,8030001148670,新規,0,2022-06-15,2022-06-15,株式会社ダックホームズ,,株式会社,埼玉県,草加市,八幡町１１９３番地１,,11,221,3400006,,,,,,,2022-06-15,1,,,,,ダックホームズ,0
2306,8030001148720,新規,0,2022-06-15,2022-06-15,株式会社ＳＯＨ,,株式会社,埼玉県,越谷市,大沢３丁目１３番３８号,,11,222,3430025,,,,,,,2022-06-15,1,,,,,,0
2307,8030001148729,新規,0,2022-06-15,2022-06-15,Ｃ＆Ｒ商事株式会社,,株式会社,埼玉県,蕨市,中央４丁目３番３号,,11,223,3350004,,,,,,,2022-06-15,1,,,,,シーアンドアールショウジ,0
2308,8030003019597,新規,0,2022-06-15,2022-06-15,Ｎｉｃｏ　Ａｓｓｏｒｔ合同会社,,合同会社,埼玉県,熊谷市,久保島１５８番地３,,11,202,3600831,,,,,,,2022-06-15,1,,,,,ニコアソート,0
2309,8030003019606,新規,0,2022-06-15,2022-06-15,合同会社ＰＬＡＮ　ＩＮ　ＰＬＡＣＥ,,合同会社,埼玉県,朝霞市,膝折町１丁目１１番４１号,,11,227,3510014,,,,,,,2022-06-15,1,,,,,プランインプレイス,0
2315,8040001123854,新規,0,2022-06-15,2022-06-15,株式会社テクニカルオートサービス,,株式会社,千葉県,印旛郡酒々井町,篠山新田５３番地３,,12,322,2850901,,,,,,,2022-06-15,1,,,,,テクニカルオートサービス,0
2319,8040003020240,新規,0,2022-06-15,2022-06-15,合同会社ももここら,,合同会社,千葉県,市川市,八幡３丁目７－２,,12,203,2720021,,,,,,,2022-06-15,1,,,,,モモココラ,0
2320,8040003020249,新規,0,2022-06-15,2022-06-15,ＪＧコンサルティング合同会社,,合同会社,千葉県,市川市,湊新田２丁目７番１号,,12,203,2720132,,,,,,,2022-06-15,1,,,,,ジェージーコンサルティング,0
2321,8040003020265,新規,0,2022-06-15,2022-06-15,オーシャンサイド合同会社,,合同会社,千葉県,いすみ市,深堀２番地１６,,12,238,2980003,,,,,,,2022-06-15,1,,,,,オーシャンサイド,0
2324,8050001051229,新規,0,2022-06-15,2022-06-15,株式会社高佐道路,,株式会社,茨城県,稲敷市,角崎５７７番地１４,,08,229,3001416,,,,,,,2022-06-15,1,,,,,タカサドウロ,0
2325,8050001051245,新規,0,2022-06-15,2022-06-15,泰和商事株式会社,,株式会社,茨城県,結城市,大字結城４８６－１０,,08,207,3070001,,,,,,,2022-06-15,1,,,,,タイワショウジ,0
2328,8060001034983,新規,0,2022-06-15,2022-06-15,相澤設備工業株式会社,,株式会社,栃木県,足利市,小俣南町２４番地９,,09,202,3260142,,,,,,,2022-06-15,1,,,,,アイザワセツビコウギョウ,0
2332,8070003004496,新規,0,2022-06-15,2022-06-15,ＭＡＤＵＳＨＡＮ　ＣＯＮＳＴＲＵＣＴＩＯＮ＆ＭＡＴＥＲＩＡＬ　ＳＵＰＰＬＩＥＲＳ合同会社,,合同会社,群馬県,桐生市,相生町５丁目４３１番５－Ｃ１０２号,,10,203,3760011,,,,,,,2022-06-15,1,,,,,マドゥシャンコンストラクションアンドマテリアルズサプライヤーズ,0
2333,8070003004513,新規,0,2022-06-15,2022-06-15,ＹＡＭＡＤＡケンネル合同会社,,合同会社,群馬県,安中市,安中４３４１番地１,,10,211,3790116,,,,,,,2022-06-15,1,,,,,ヤマダケンネル,0
2339,8080001025023,新規,0,2022-06-15,2022-06-15,株式会社後藤,,株式会社,静岡県,静岡市清水区,高橋町６９７番地の３,,22,103,4240048,,,,,,,2022-06-15,1,,,,,ゴトウ,0
2341,8080005007463,新規,0,2022-06-15,2022-06-15,一般社団法人富山管財,,その他の設立登記法人,静岡県,静岡市駿河区,高松２丁目２３番２７号,,22,102,4228034,,,,,,,2022-06-15,1,,,,,トミヤマカンザイ,0
2342,8080101023356,新規,0,2022-06-15,2022-06-15,株式会社Ｆｉｌｌｅｄ　ｗｉｔｈ,,株式会社,静岡県,富士市,松岡１０６９,,22,210,4160909,,,,,,,2022-06-15,1,,,,,フィルドウィズ,0
2343,8080103002606,新規,0,2022-06-15,2022-06-15,合同会社ＬＳＡ,,合同会社,静岡県,沼津市,日の出町２－１８コーポラス三枚橋Ｓ８－３０１号,,22,203,4100032,,,,,,,2022-06-15,1,,,,,エルエスエー,0
2345,8080401025886,新規,0,2022-06-15,2022-06-15,株式会社ＰＲＯＧＴＩＮＧ,,株式会社,静岡県,磐田市,明ケ島原４４－２,,22,211,4380019,,,,,,,2022-06-15,1,,,,,プログティング,0
2354,8100001035440,新規,0,2022-06-15,2022-06-15,株式会社クンストアジア,,株式会社,長野県,伊那市,富県７８００番地１,,20,209,3960621,,,,,,,2022-06-15,1,,,,,クンストアジア,0
2364,8110001036735,新規,0,2022-06-15,2022-06-15,株式会社Ｄｅａｆ　Ｈｅａｒｔ,,株式会社,新潟県,柏崎市,関町１４番１１号,,15,205,9450832,,,,,,,2022-06-15,1,,,,,デフハート,0
2365,8110001036743,新規,0,2022-06-15,2022-06-15,Ｅｍｉ‐ｕｓ貿易株式会社,,株式会社,新潟県,柏崎市,幸町８番２６号サザンウインドビル２Ｆ,,15,205,9450821,,,,,,,2022-06-15,1,,,,,エミアスボウエキ,0
2377,8120001246589,新規,0,2022-06-15,2022-06-15,株式会社ＥＭＵＰＲＯ,,株式会社,大阪府,大阪市中央区,徳井町１丁目１番９号都住創徳井町２０１号,,27,128,5400025,,,,,,,2022-06-15,1,,,,,エムプロ,0
2378,8120001246597,新規,0,2022-06-15,2022-06-15,株式会社Ｃｒｙｐｔｏ．Ｔ．Ｃｈａｉｎ,,株式会社,大阪府,大阪市東淀川区,東中島１丁目１７番５－１１５２号,,27,114,5330033,,,,,,,2022-06-15,1,,,,,クリプトティチェーン,0
2379,8120001246622,新規,0,2022-06-15,2022-06-15,株式会社ＡＰＳＡＲＡＳ,,株式会社,大阪府,寝屋川市,明徳２丁目４番３３号,,27,215,5720011,,,,,,,2022-06-15,1,,,,,アプサラス,0
2380,8120001246663,新規,0,2022-06-15,2022-06-15,株式会社ＩＩＩ’ｓ,,株式会社,大阪府,大阪市西区,北堀江１丁目２３－９ルクレ北堀江１４０５,,27,106,5500014,,,,,,,2022-06-15,1,,,,,サンズ,0
2381,8120001246696,新規,0,2022-06-15,2022-06-15,株式会社ｏｍｕｓｕｂｉ　ｃｏｍｐａｎｙ,,株式会社,大阪府,大阪市此花区,島屋６丁目２－１１０アリスの森１９１１,,27,104,5540024,,,,,,,2022-06-15,1,,,,,オムスビカンパニー,0
2388,8120101065732,新規,0,2022-06-15,2022-06-15,株式会社総煌建設,,株式会社,大阪府,堺市西区,菱木２０２３番地２,,27,144,5930000,,,,,,,2022-06-15,1,,,,,ソウコウケンセツ,0
2389,8120101065740,新規,0,2022-06-15,2022-06-15,株式会社Ｂｉｇ　Ｂｅａｒ,,株式会社,大阪府,松原市,大堀１丁目９番１０号,,27,217,5800006,,,,,,,2022-06-15,1,,,,,ビッグベアー,0
2390,8120101065757,新規,0,2022-06-15,2022-06-15,ｉＰＥＡＫ株式会社,,株式会社,大阪府,堺市堺区,柏木町４丁１番２６－１号,,27,141,5900837,,,,,,,2022-06-15,1,,,,,アイピーク,0
2391,8120101065765,新規,0,2022-06-15,2022-06-15,株式会社Ｓｉｌｖｅｒ　ｏｗｌ,,株式会社,大阪府,岸和田市,上町２６番４号,,27,202,5960077,,,,,,,2022-06-15,1,,,,,シルバーオウル,0
2396,8120901046097,新規,0,2022-06-15,2022-06-15,株式会社天道屋,,株式会社,大阪府,摂津市,鳥飼本町５丁目７番５号,,27,224,5660052,,,,,,,2022-06-15,1,,,,,テントヤ,0
2403,8122001035963,新規,0,2022-06-15,2022-06-15,ワンパ株式会社,,株式会社,大阪府,東大阪市,島之内２丁目１１番２－１０９号,,27,227,5780981,,,,,,,2022-06-15,1,,,,,ワンパ,0
2404,8122001035971,新規,0,2022-06-15,2022-06-15,株式会社マツダアートプリント,,株式会社,大阪府,東大阪市,西堤本通西２丁目６番１８号,,27,227,5770046,,,,,,,2022-06-15,1,,,,,マツダアートプリント,0
2405,8122003002359,新規,0,2022-06-15,2022-06-15,合同会社森村経営サポート,,合同会社,大阪府,東大阪市,長堂２丁目７－１９－１０２,,27,227,5770056,,,,,,,2022-06-15,1,,,,,モリムラケイエイサポート,0
2423,8140001126426,新規,0,2022-06-15,2022-06-15,株式会社ダイフク建業,,株式会社,兵庫県,神戸市須磨区,大池町５丁目５番５号４０６,,28,107,6540026,,,,,,,2022-06-15,1,,,,,ダイフクケンギョウ,0
2429,8160001024280,新規,0,2022-06-15,2022-06-15,株式会社セルフアート,,株式会社,滋賀県,大津市,膳所池ノ内町７４１番地,,25,201,5200825,,,,,,,2022-06-15,1,,,,,セルフアート,0
2430,8160001024289,新規,0,2022-06-15,2022-06-15,株式会社ＰｒｏｇｒｅＳｅｅｄ,,株式会社,滋賀県,東近江市,平柳町９４９番地２,,25,213,5270102,,,,,,,2022-06-15,1,,,,,プログレシード,0
2440,8180001151791,新規,0,2022-06-15,2022-06-15,株式会社名古屋教育サポート,,株式会社,愛知県,名古屋市東区,泉１丁目１１番６号ミソカビル２Ｆ,,23,102,4610001,,,,,,,2022-06-15,1,,,,,ナゴヤキョウイクサポート,0
2441,8180001151800,新規,0,2022-06-15,2022-06-15,株式会社フローリス不動産,,株式会社,愛知県,名古屋市名東区,一社４丁目４７番地の１９,,23,115,4650093,,,,,,,2022-06-15,1,,,,,フローリスフドウサン,0
2444,8180003023931,新規,0,2022-06-15,2022-06-15,合資会社笑楽,,合資会社,愛知県,小牧市,藤島１丁目１２７番地,,23,219,4850068,,,,,,,2022-06-15,1,,,,,エラク,0
2451,8190001029509,新規,0,2022-06-15,2022-06-15,株式会社ランドサポートいなべ,,株式会社,三重県,いなべ市,員弁町笠田新田５１番地,,24,214,5110205,,,,,,,2022-06-15,1,,,,,ランドサポートイナベ,0
2456,8230001019414,新規,0,2022-06-15,2022-06-15,株式会社Ｅｅｏ,,株式会社,富山県,富山市,婦中町速星３３５番地４,,16,201,9392706,,,,,,,2022-06-15,1,,,,,イーイーオー,0
2458,8230003001865,新規,0,2022-06-15,2022-06-15,オールアウト合同会社,,合同会社,富山県,富山市,西二俣６３３番地,,16,201,9300177,,,,,,,2022-06-15,1,,,,,オールアウト,0
2470,8260001036943,新規,0,2022-06-15,2022-06-15,株式会社ＦＩＲＳＴ　ＬＩＧＨＴ,,株式会社,岡山県,倉敷市,林２９２番地１５,,33,202,7100142,,,,,,,2022-06-15,1,,,,,ファーストライト,0
2471,8270003001416,新規,0,2022-06-15,2022-06-15,地域共創マネジメント合同会社,,合同会社,鳥取県,鳥取市,田園町４丁目２８２番地１,,31,201,6800803,,,,,,,2022-06-15,1,,,,,チイキキョウソウマネジメント,0
2475,8280003001621,新規,0,2022-06-15,2022-06-15,合同会社凪,,合同会社,島根県,出雲市,知井宮町１２２３番地２,,32,203,6930033,,,,,,,2022-06-15,1,,,,,ナギ,0
2481,8290001097891,新規,0,2022-06-15,2022-06-15,株式会社アサヒトレーディング,,株式会社,福岡県,福岡市南区,鶴田４丁目３４番８号,,40,134,8111352,,,,,,,2022-06-15,1,,,,,アサヒトレーディング,0
2482,8290001097917,新規,0,2022-06-15,2022-06-15,株式会社Ｌｉｎｋ,,株式会社,福岡県,福岡市中央区,長浜２丁目３番１８－１４０６号,,40,133,8100072,,,,,,,2022-06-15,1,,,,,リンク,0
2483,8290001097925,新規,0,2022-06-15,2022-06-15,株式会社日本Ｌ・Ｂサービス,,株式会社,福岡県,福岡市東区,香住ヶ丘２丁目２番１４号,,40,131,8130003,,,,,,,2022-06-15,1,,,,,ニホンエルビーサービス,0
2484,8290001097941,新規,0,2022-06-15,2022-06-15,株式会社Ａｓｓｉｓｔ,,株式会社,福岡県,福岡市城南区,東油山４丁目１１番１０－１号,,40,136,8140155,,,,,,,2022-06-15,1,,,,,アシスト,0
2493,8310003004389,新規,0,2022-06-15,2022-06-15,合同会社和共,,合同会社,長崎県,壱岐市,石田町久喜触２７番地,,42,210,8115223,,,,,,,2022-06-15,1,,,,,ワキョウ,0
2494,8330001029824,新規,0,2022-06-15,2022-06-15,ビューティー・リゾート株式会社,,株式会社,熊本県,宇城市,三角町三角浦１１５９番地２１９,,43,213,8693207,,,,,,,2022-06-15,1,,,,,ビューティーリゾート,0
2495,8330001029832,新規,0,2022-06-15,2022-06-15,株式会社ＳＥＩＷＡ,,株式会社,熊本県,上益城郡御船町,大字滝川３８番地,,43,441,8613205,,,,,,,2022-06-15,1,,,,,セイワ,0
2502,8360005006668,新規,0,2022-06-15,2022-06-15,一般社団法人沖縄スポーツ関連産業協会,,その他の設立登記法人,沖縄県,豊見城市,字豊崎３番地５９,,47,212,9010225,,,,,,,2022-06-15,1,,,,,オキナワスポーツカンレンサンギョウキョウカイ,0
2506,8370001048663,新規,0,2022-06-15,2022-06-15,ｍｉｃｏ．株式会社,,株式会社,宮城県,仙台市青葉区,五橋１丁目１－５８ダイアパレス仙台中央４２１号,,04,101,9800022,,,,,,,2022-06-15,1,,,,,ミコ,0
2507,8370001048688,新規,0,2022-06-15,2022-06-15,ＲＩＮＳＥＮ＆Ｃｏ．株式会社,,株式会社,宮城県,亘理郡山元町,浅生原字日向１６番地４,,04,362,9892203,,,,,,,2022-06-15,1,,,,,リンセンアンドカンパニー,0
2508,8370003005737,新規,0,2022-06-15,2022-06-15,合同会社栗原屋トランスポート,,合同会社,宮城県,栗原市,一迫真坂字清水小畑前５番地,,04,213,9872308,,,,,,,2022-06-15,1,,,,,クリハラヤトランスポート,0
2511,8380001032897,新規,0,2022-06-15,2022-06-15,株式会社介護タクシー華,,株式会社,福島県,福島市,蓬莱町４丁目１３番１２号,,07,201,9608157,,,,,,,2022-06-15,1,,,,,カイゴタクシーハナ,0
2512,8390001016932,新規,0,2022-06-15,2022-06-15,株式会社リプラス,,株式会社,山形県,酒田市,駅東１丁目５番地の９,,06,204,9980022,,,,,,,2022-06-15,1,,,,,リプラス,0
2517,8420001017893,新規,0,2022-06-15,2022-06-15,株式会社鮮,,株式会社,青森県,むつ市,大曲１丁目１番２４号,,02,208,0350042,,,,,,,2022-06-15,1,,,,,セン,0
2525,8430001086814,新規,0,2022-06-15,2022-06-15,株式会社ほっとハウス不動産販売,,株式会社,北海道,札幌市中央区,南四条西３丁目９番５号,,01,101,0640804,,,,,,,2022-06-15,1,,,,,ホットハウスフドウサンハンバイ,0
2526,8430001086822,新規,0,2022-06-15,2022-06-15,株式会社ｓｅｔｓｕ,,株式会社,北海道,北広島市,大曲幸町３丁目１番地１１,,01,234,0611278,,,,,,,2022-06-15,1,,,,,セツ,0
2527,8430001086847,新規,0,2022-06-15,2022-06-15,株式会社米倉屋,,株式会社,北海道,札幌市東区,東雁来七条１丁目１４番７号,,01,103,0070827,,,,,,,2022-06-15,1,,,,,ヨネクラヤ,0
2532,8430003014005,新規,0,2022-06-15,2022-06-15,ｒｏｏｆｏｏｒ．ｃｏｍ合同会社,,合同会社,北海道,恵庭市,大町３丁目５番１２号,,01,231,0611424,,,,,,,2022-06-15,1,,,,,ルーフールドットコム,0
2533,8430003014013,新規,0,2022-06-15,2022-06-15,Ｈｏｓｈｉｅ合同会社,,合同会社,北海道,札幌市中央区,南一条東２丁目３番地４南１条イーストビル３Ｂ,,01,101,0600051,,,,,,,2022-06-15,1,,,,,ホシエ,0
2538,8480003001840,新規,0,2022-06-15,2022-06-15,合同会社システイル,,合同会社,徳島県,徳島市,上八万町中山１７番地の３３２,,36,201,7708040,,,,,,,2022-06-15,1,,,,,システイル,0
2544,8700150109307,新規,0,2022-06-15,2022-06-08,竜神地区コミュニティ会議,,その他,愛知県,豊田市,竜神町新生１１５－２,,23,211,4730907,,,,,,,2022-06-08,1,,,,,リユウジンチクコミユニテイカイギ,0
2545,8700150109736,新規,0,2022-06-15,2022-06-15,勝見自治会,,その他,鳥取県,鳥取市,気高町勝見６８４番地７,,31,201,6890332,,,,,,,2022-06-15,1,,,,,カチミジチカイ,0
2554,9010001227376,新規,0,2022-06-15,2022-06-15,株式会社Ｏｕｔｌｏｗ,,株式会社,東京都,中央区,入船３丁目２番７号明治ビル５Ｆ－Ｂ,,13,102,1040042,,,,,,,2022-06-15,1,,,,,アウトロー,0
2555,9010001227384,新規,0,2022-06-15,2022-06-15,ＳＳＡパートナーズ株式会社,,株式会社,東京都,中央区,湊２丁目１５番１４－１５０４号,,13,102,1040043,,,,,,,2022-06-15,1,,,,,エスエスエーパートナーズ,0
2557,9010003037872,新規,0,2022-06-15,2022-06-15,合同会社Ｃ＆Ｆ　ＪＡＰＡＮ,,合同会社,東京都,中央区,銀座７丁目１５番８号タウンハイツ銀座４０６,,13,102,1040061,,,,,,,2022-06-15,1,,,,,シーアンドエフジャパン,0
2558,9010003037889,新規,0,2022-06-15,2022-06-15,ＡＮＧＯ合同会社,,合同会社,東京都,千代田区,大手町１丁目５番１号大手町ファーストスクエアイーストタワー４階,,13,101,1000004,,,,,,,2022-06-15,1,,,,,アンゴ,0
2570,9010401167932,新規,0,2022-06-15,2022-06-15,株式会社ＥＭＥＲＧＥ,,株式会社,東京都,港区,麻布十番１丁目７－８宮下ビル３０２,,13,103,1060045,,,,,,,2022-06-15,1,,,,,エマージ,0
2571,9010401167940,新規,0,2022-06-15,2022-06-15,株式会社Ｓａｕｎａ　Ｌｉｆｅ,,株式会社,東京都,港区,南麻布１丁目３－１４－５０１,,13,103,1060047,,,,,,,2022-06-15,1,,,,,サウナライフ,0
2572,9010401167957,新規,0,2022-06-15,2022-06-15,株式会社永成,,株式会社,東京都,港区,浜松町２丁目２番１５号浜松町ダイヤビル２Ｆ,,13,103,1050013,,,,,,,2022-06-15,1,,,,,エイセイ,0
2573,9010401167973,新規,0,2022-06-15,2022-06-15,株式会社ＲＤＩ,,株式会社,東京都,港区,北青山２丁目１３－４青山ＭＹビル３階,,13,103,1070061,,,,,,,2022-06-15,1,,,,,アールディーアイ,0
2576,9010501009448,新規,0,2022-06-15,2022-06-15,東京金物工事株式会社,,株式会社,東京都,台東区,根岸２丁目１６番１１号,,13,106,1100003,,,,,,,2022-06-15,1,,,,,,0
2577,9010501048974,新規,0,2022-06-15,2022-06-15,錦戸株式会社,,株式会社,東京都,台東区,三ノ輪２丁目３番８－１０５号,,13,106,1100011,,,,,,,2022-06-15,1,,,,,ニシキド,0
2579,9010503006617,新規,0,2022-06-15,2022-06-15,ＪＥＴ合同会社,,合同会社,東京都,台東区,上野６丁目８番１９号小野田ビル３Ｆ,,13,106,1100005,,,,,,,2022-06-15,1,,,,,ジェット,0
2582,9010601061308,新規,0,2022-06-15,2022-06-15,株式会社リディア,,株式会社,東京都,江東区,大島１丁目３３番１４号,,13,108,1360072,,,,,,,2022-06-15,1,,,,,リディア,0
2587,9010803004205,新規,0,2022-06-15,2022-06-15,合同会社松栄堂エステート,,合同会社,東京都,大田区,山王４丁目３０番８号,,13,111,1430023,,,,,,,2022-06-15,1,,,,,ショウエイドウエステート,0
2591,9010903007462,新規,0,2022-06-15,2022-06-15,松澤ホールディング合同会社,,合同会社,東京都,世田谷区,野毛２丁目２２－２１,,13,112,1580092,,,,,,,2022-06-15,1,,,,,マツサワホールディング,0
2599,9011001148075,新規,0,2022-06-15,2022-06-15,株式会社ＹＤ,,株式会社,東京都,目黒区,東山２丁目２番５号日興パレス東山２０１,,13,110,1530043,,,,,,,2022-06-15,1,,,,,ワイディ,0
2600,9011001148125,新規,0,2022-06-15,2022-06-15,株式会社ＡＲＵＴＯ,,株式会社,東京都,渋谷区,東２丁目１２番５号,,13,113,1500011,,,,,,,2022-06-15,1,,,,,アルト,0
2601,9011001148174,新規,0,2022-06-15,2022-06-15,ＭＧパートナーズ株式会社,,株式会社,東京都,渋谷区,道玄坂１丁目１２番１号渋谷マークシティＷ２２階,,13,113,1500043,,,,,,,2022-06-15,1,,,,,エムジーパートナーズ,0
2604,9011003014861,新規,0,2022-06-15,2022-06-15,合同会社ＢＡＬＡＮ,,合同会社,東京都,渋谷区,神宮前３丁目４２番２号,,13,113,1500001,,,,,,,2022-06-15,1,,,,,バラン,0
2605,9011101099193,新規,0,2022-06-15,2022-06-15,ｏｎｅ　ｂｒｉｄｇｅ株式会社,,株式会社,東京都,新宿区,西新宿３丁目７番１号新宿パークタワーＮ３０Ｆ,,13,104,1600023,,,,,,,2022-06-15,1,,,,,ワンブリッジ,0
2606,9011101099227,新規,0,2022-06-15,2022-06-15,株式会社ＪＢ,,株式会社,東京都,新宿区,西新宿３丁目３番１３号西新宿水間ビル６階,,13,104,1600023,,,,,,,2022-06-15,1,,,,,ジェイビー,0
2610,9011301027862,新規,0,2022-06-15,2022-06-15,株式会社ｉｍｐ,,株式会社,東京都,杉並区,和田２丁目３３番５号,,13,115,1660012,,,,,,,2022-06-15,1,,,,,インプ,0
2611,9011303004447,新規,0,2022-06-15,2022-06-15,ＭＡＹＡ合同会社,,合同会社,東京都,杉並区,天沼１丁目２７－２静三壮２階８号室,,13,115,1670032,,,,,,,2022-06-15,1,,,,,,0
2612,9011401024322,新規,0,2022-06-15,2022-06-15,株式会社ビルドアセッツ,,株式会社,東京都,板橋区,大山東町１４番１－９０９号,,13,119,1730014,,,,,,,2022-06-15,1,,,,,ビルドアセッツ,0
2617,9011501028132,新規,0,2022-06-15,2022-06-15,岡電機株式会社,,株式会社,東京都,荒川区,東尾久２丁目２番９号三祥ビル２２５,,13,118,1160012,,,,,,,2022-06-15,1,,,,,オカデンキ,0
2618,9011601026036,新規,0,2022-06-15,2022-06-15,株式会社ＢＥＨＯＭＡ,,株式会社,東京都,練馬区,土支田２丁目３７番５号カーサカルダ１０１,,13,120,1790076,,,,,,,2022-06-15,1,,,,,ベホマ,0
2623,9012301013019,新規,0,2022-06-15,2022-06-15,工務店ＦＬＯＷ株式会社,,株式会社,東京都,町田市,野津田町３５７２番地３,,13,209,1950063,,,,,,,2022-06-15,1,,,,,コウムテンフロー,0
2625,9012401039302,新規,0,2022-06-15,2022-06-15,株式会社ユーアンドエム,,株式会社,東京都,府中市,南町１丁目３３番地の３５,,13,206,1830026,,,,,,,2022-06-15,1,,,,,ユーアンドエム,0
2626,9012403005434,新規,0,2022-06-15,2022-06-15,合同会社ＲＣコンサルティング,,合同会社,東京都,三鷹市,下連雀３丁目３３番２０－２０３号,,13,204,1810013,,,,,,,2022-06-15,1,,,,,アールシーコンサルティング,0
2639,9020001146914,新規,0,2022-06-15,2022-06-15,株式会社ＬＩＢＲＡ,,株式会社,神奈川県,横浜市鶴見区,佃野町２２番１３－８０１号,,14,101,2300061,,,,,,,2022-06-15,1,,,,,リブラ,0
2640,9020001146930,新規,0,2022-06-15,2022-06-15,株式会社ＫＰＮ,,株式会社,神奈川県,横浜市鶴見区,矢向４丁目１８番２１号,,14,101,2300001,,,,,,,2022-06-15,1,,,,,ケーピーエヌ,0
2641,9020001146939,新規,0,2022-06-15,2022-06-15,ＪＩＤＥＮ株式会社,,株式会社,神奈川県,川崎市川崎区,池上新町１丁目１０番１号,,14,131,2100832,,,,,,,2022-06-15,1,,,,,ジデン,0
2642,9020001146947,新規,0,2022-06-15,2022-06-15,株式会社ＫＡＳＵＭＩコンサルティング,,株式会社,神奈川県,横浜市都筑区,中川中央１丁目３０番１号,,14,118,2240003,,,,,,,2022-06-15,1,,,,,カスミコンサルティング,0
2644,9020003021925,新規,0,2022-06-15,2022-06-15,合同会社Ｈ．Ｓ,,合同会社,神奈川県,横浜市栄区,鍛冶ケ谷２丁目１６番２１号,,14,115,2470009,,,,,,,2022-06-15,1,,,,,エイチエス,0
2645,9020003021941,新規,0,2022-06-15,2022-06-15,合同会社芳道,,合同会社,神奈川県,横浜市鶴見区,栄町通４丁目４４番地２５号,,14,101,2300038,,,,,,,2022-06-15,1,,,,,ヨシミチ,0
2652,9021001076218,新規,0,2022-06-15,2022-06-15,株式会社ＹＡＧＯ防水工業,,株式会社,神奈川県,相模原市南区,若松３丁目１７番５号,,14,153,2520334,,,,,,,2022-06-15,1,,,,,ヤゴボウスイコウギョウ,0
2653,9021001076234,新規,0,2022-06-15,2022-06-15,株式会社りまる,,株式会社,神奈川県,平塚市,北金目１６７９番地７,,14,203,2591207,,,,,,,2022-06-15,1,,,,,リマル,0
2654,9021001076242,新規,0,2022-06-15,2022-06-15,麻日株式会社,,株式会社,神奈川県,横須賀市,秋谷５３６７番地３,,14,201,2400105,,,,,,,2022-06-15,1,,,,,アサヒ,0
2655,9021001076250,新規,0,2022-06-15,2022-06-15,株式会社まるかつ,,株式会社,神奈川県,海老名市,大谷南１丁目１番１号,,14,215,2430418,,,,,,,2022-06-15,1,,,,,マルカツ,0
2657,9021003011817,新規,0,2022-06-15,2022-06-15,合同会社ｂｅ　ｆｒｏｎｔｉｅｒ,,合同会社,神奈川県,藤沢市,鵠沼桜が岡３丁目１７番３８号,,14,205,2510027,,,,,,,2022-06-15,1,,,,,ビーフロンティア,0
2658,9021003011833,新規,0,2022-06-15,2022-06-15,Ｄａｙ　ｆｉｅｌｄｓ合同会社,,合同会社,神奈川県,綾瀬市,蓼川３丁目１番５８号,,14,218,2521105,,,,,,,2022-06-15,1,,,,,デイフィールズ,0
2664,9030001148686,新規,0,2022-06-15,2022-06-15,株式会社東亜電巧,,株式会社,埼玉県,さいたま市緑区,大字中尾７３５番地５,,11,109,3360932,,,,,,,2022-06-15,1,,,,,トウアデンコウ,0
2665,9030001148728,新規,0,2022-06-15,2022-06-15,株式会社カライドスコープ,,株式会社,埼玉県,草加市,花栗４丁目２０番３５ー２０５号,,11,221,3400044,,,,,,,2022-06-15,1,,,,,カライドスコープ,0
2678,9040001123878,新規,0,2022-06-15,2022-06-15,株式会社あそび家,,株式会社,千葉県,館山市,香１７８番地８,,12,205,2940301,,,,,,,2022-06-15,1,,,,,アソビヤ,0
2686,9040003020165,新規,0,2022-06-15,2022-06-15,合同会社ゆるゆら,,合同会社,千葉県,市川市,本塩２５―１５,,12,203,2720104,,,,,,,2022-06-15,1,,,,,ユルユラ,0
2692,9050001051228,新規,0,2022-06-15,2022-06-15,株式会社ＳＫＹ　Ｌｉｎｋ,,株式会社,茨城県,つくば市,上ノ室１２６３番地４,,08,220,3050023,,,,,,,2022-06-15,1,,,,,エスケーワイリンク,0
2693,9050001051244,新規,0,2022-06-15,2022-06-15,株式会社Ｃｅｕ　Ａｚｕｌ,,株式会社,茨城県,つくば市,学園南２丁目４番地３レーベン研究学園ＮＥＸＩＯ１３１１号,,08,220,3050818,,,,,,,2022-06-15,1,,,,,セウアズール,0
2695,9050003006618,新規,0,2022-06-15,2022-06-15,合同会社羽美,,合同会社,茨城県,水戸市,酒門町４３６０番地の８,,08,201,3100841,,,,,,,2022-06-15,1,,,,,ハミ,0
2697,9060001034966,新規,0,2022-06-15,2022-06-15,スターズ株式会社,,株式会社,栃木県,那須塩原市,井口５７８番地３０室井ハイム２０３号,,09,213,3292763,,,,,,,2022-06-15,1,,,,,スターズ,0
2698,9060001034990,新規,0,2022-06-15,2022-06-15,株式会社ＭＵＳＴＡＦＡ　ＴＲＡＤＩＮＧ,,株式会社,栃木県,小山市,駅南町３丁目１９番５号ヤマトスカイハイツ２０６号室,,09,208,3230822,,,,,,,2022-06-15,1,,,,,ムスタファトレーディング,0
2701,9070001039329,新規,0,2022-06-15,2022-06-15,ＹＵＭＯＴＯ株式会社,,株式会社,群馬県,前橋市,新堀町４１９番地２,,10,201,3792143,,,,,,,2022-06-15,1,,,,,ユモト,0
2702,9070003004512,新規,0,2022-06-15,2022-06-15,合同会社ＴｒｕｓｔＣｒｅａｔｉｏｎ,,合同会社,群馬県,高崎市,白銀町９白銀ビル,,10,202,3700825,,,,,,,2022-06-15,1,,,,,トラストクリエイション,0
2707,9080001025014,新規,0,2022-06-15,2022-06-15,株式会社ジモベジワークス,,株式会社,静岡県,藤枝市,上藪田１２４番地の１２,,22,214,4260202,,,,,,,2022-06-15,1,,,,,ジモベジワークス,0
2709,9080401025877,新規,0,2022-06-15,2022-06-15,ＨＤ株式会社,,株式会社,静岡県,御前崎市,御前崎４２９９番地の１,,22,223,4371621,,,,,,,2022-06-15,1,,,,,エイチディー,0
2717,9100003006579,新規,0,2022-06-15,2022-06-15,合同会社ｓａｃｒａ‐Ｌａｂｓ,,合同会社,長野県,諏訪郡下諏訪町,４４５９番地２,,20,361,3930000,,,,,,,2022-06-15,1,,,,,サクララブズ,0
2721,9110001036742,新規,0,2022-06-15,2022-06-15,株式会社アジネ,,株式会社,新潟県,燕市,新興野１３番地１１,,15,213,9590116,,,,,,,2022-06-15,1,,,,,アジネ,0
2725,9120001054867,新規,0,2022-06-15,2022-06-15,協和住研株式会社,,株式会社,大阪府,大阪市淀川区,西中島６丁目７番３－５０２号,,27,123,5320011,,,,,,,2022-06-15,1,,,,,キョウワジュウケン,0
2734,9120001246662,新規,0,2022-06-15,2022-06-15,株式会社エスユーエヌ,,株式会社,大阪府,大阪市阿倍野区,相生通２丁目７番４４号,,27,119,5450033,,,,,,,2022-06-15,1,,,,,エスユーエヌ,0
2735,9120001246670,新規,0,2022-06-15,2022-06-15,株式会社ＰＡＰＭＡ,,株式会社,大阪府,大阪市西区,南堀江１丁目１４番１２号,,27,106,5500015,,,,,,,2022-06-15,1,,,,,パプマ,0
2736,9120001246720,新規,0,2022-06-15,2022-06-15,ＶＩＮＡ　ＣＯＳＥ２株式会社,,株式会社,大阪府,大阪市西成区,花園北１丁目７番１２号加護ビル１Ｆ西側,,27,122,5570016,,,,,,,2022-06-15,1,,,,,ヴィナコースニ,0
2737,9120001246729,新規,0,2022-06-15,2022-06-15,株式会社ＰＵＲＥＰＯＳＩＴＩＶＥ,,株式会社,大阪府,大阪市福島区,吉野２丁目５－１７－１１０２,,27,103,5530006,,,,,,,2022-06-15,1,,,,,ピュアポジティブ,0
2754,9130001071960,新規,0,2022-06-15,2022-06-15,株式会社ＤＡＩロード,,株式会社,京都府,京都市右京区,太秦樋ノ内町９番地５（１Ｆ）,,26,108,6168142,,,,,,,2022-06-15,1,,,,,ダイロード,0
2760,9140001126359,新規,0,2022-06-15,2022-06-15,株式会社Ｋ＆Ｋ,,株式会社,兵庫県,神戸市東灘区,本山中町３丁目３番２３号,,28,101,6580016,,,,,,,2022-06-15,1,,,,,ケイアンドケイ,0
2773,9180003023930,新規,0,2022-06-15,2022-06-15,Ｌａ　Ｌｉｂｅｒｔａ合同会社,,合同会社,愛知県,名古屋市中区,上前津２丁目２番４号（パークコート上前津プレミアプラス４０３号）,,23,106,4600013,,,,,,,2022-06-15,1,,,,,ラリベルタ,0
2774,9180005019803,新規,0,2022-06-15,2022-06-15,社会保険労務士法人経営アシスト名古屋,,その他の設立登記法人,愛知県,名古屋市昭和区,鶴舞３丁目１２番２号,,23,107,4660064,,,,,,,2022-06-15,1,,,,,ケイエイアシストナゴヤ,0
2780,9190001029524,新規,0,2022-06-15,2022-06-15,株式会社ベジホ玉城,,株式会社,三重県,度会郡玉城町,冨岡２４３番地,,24,461,5190421,,,,,,,2022-06-15,1,,,,,ベジホタマキ,0
2784,9190003004013,新規,0,2022-06-15,2022-06-15,合同会社月乙ＰＬＵＳ,,合同会社,三重県,亀山市,川合町５５３番地,,24,210,5190103,,,,,,,2022-06-15,1,,,,,ツキオトプラス,0
2791,9210001018961,新規,0,2022-06-15,2022-06-15,株式会社Ａｔｔ,,株式会社,福井県,福井市,御幸１丁目１１番１２号,,18,201,9100854,,,,,,,2022-06-15,1,,,,,アット,0
2792,9230001019413,新規,0,2022-06-15,2022-06-15,株式会社マイコム,,株式会社,富山県,富山市,西荒屋７２６番地５,,16,201,9398251,,,,,,,2022-06-15,1,,,,,マイコム,0
2799,9260003003908,新規,0,2022-06-15,2022-06-15,ゼロ・プラネット合同会社,,合同会社,岡山県,笠岡市,小平井２９９１番地,,33,205,7140012,,,,,,,2022-06-15,1,,,,,ゼロプラネット,0
2800,9260005011099,新規,0,2022-06-15,2022-06-15,一般社団法人なみたま,,その他の設立登記法人,岡山県,倉敷市,児島味野２丁目７番２６号,,33,202,7110913,,,,,,,2022-06-15,1,,,,,ナミタマ,0
2802,9270001008560,新規,0,2022-06-15,2022-06-15,とりけんサポート株式会社,,株式会社,鳥取県,鳥取市,南吉方２丁目８番地メゾンドール１階,,31,201,6800843,,,,,,,2022-06-15,1,,,,,トリケンサポート,0
2806,9280003001620,新規,0,2022-06-15,2022-06-15,合同会社ラック電工,,合同会社,島根県,出雲市,国富町８８７番地,,32,203,6910011,,,,,,,2022-06-15,1,,,,,ラックデンコウ,0
2811,9290001097890,新規,0,2022-06-15,2022-06-15,天祐建匠株式会社,,株式会社,福岡県,宗像市,日の里５丁目５番６号東郷設備ビル,,40,220,8113425,,,,,,,2022-06-15,1,,,,,テンユウケンショウ,0
2812,9290001097908,新規,0,2022-06-15,2022-06-15,株式会社Ｔｅｎｋｕ,,株式会社,福岡県,福岡市東区,香椎照葉６丁目４番２－１３０５号フォレストプレイス香椎照葉ザ・テラス０２,,40,131,8130017,,,,,,,2022-06-15,1,,,,,テンク,0
2813,9290001097924,新規,0,2022-06-15,2022-06-15,株式会社ナラティブリンク,,株式会社,福岡県,福岡市中央区,天神２丁目３番１０号天神パインクレスト７１９号,,40,133,8100001,,,,,,,2022-06-15,1,,,,,ナラティブリンク,0
2814,9290001097940,新規,0,2022-06-15,2022-06-15,株式会社まんぼう,,株式会社,福岡県,福岡市博多区,西月隈３丁目９番２３号,,40,132,8120857,,,,,,,2022-06-15,1,,,,,マンボウ,0
2815,9290001097949,新規,0,2022-06-15,2022-06-15,株式会社ａｄ　ｃｏａＳＴ,,株式会社,福岡県,福岡市早良区,百道浜２丁目９０２－１マリゾンＢ棟２階,,40,137,8140001,,,,,,,2022-06-15,1,,,,,アドコースト,0
2816,9290003012575,新規,0,2022-06-15,2022-06-15,合同会社中島淳一アート,,合同会社,福岡県,福岡市博多区,中洲中島町２－３福岡フジランドビル８階,,40,132,8100802,,,,,,,2022-06-15,1,,,,,ナカシマジュンイチアート,0
2819,9290801028640,新規,0,2022-06-15,2022-06-15,株式会社ＫＡＯＲＩＮＯ　ＣＯＣＣＯＬＥ,,株式会社,福岡県,北九州市八幡東区,中央２丁目８番２７－１１０１号,,40,108,8050019,,,,,,,2022-06-15,1,,,,,カオリノコッコレ,0
2822,9300001012971,新規,0,2022-06-15,2022-06-15,株式会社Ｅｎｉｓｅｅｄｓ,,株式会社,佐賀県,鹿島市,大字納富分２８８６番地２,,41,207,8491312,,,,,,,2022-06-15,1,,,,,エニシーズ,0
2823,9300003001857,新規,0,2022-06-15,2022-06-15,ＥＤＤＩＥＢＯＮＤ合同会社,,合同会社,佐賀県,佐賀市,神園６丁目６番３４号,,41,201,8400806,,,,,,,2022-06-15,1,,,,,エディーボンド,0
2826,9310005008619,新規,0,2022-06-15,2022-06-15,一般社団法人ｂｌｏｏｍＲＥＬＡＩＲ,,その他の設立登記法人,長崎県,長崎市,出雲２丁目８番１１号,,42,201,8500924,,,,,,,2022-06-15,1,,,,,ブルームリレア,0
2828,9330001029823,新規,0,2022-06-15,2022-06-15,株式会社ＬＩＺＧＲＡＰＨＩＣ,,株式会社,熊本県,熊本市中央区,新大江２丁目１４番２４号,,43,101,8620972,,,,,,,2022-06-15,1,,,,,リズグラフィック,0
2829,9330001029831,新規,0,2022-06-15,2022-06-15,株式会社ヨシダ創建,,株式会社,熊本県,熊本市南区,土河原町１６３番地３,,43,104,8615252,,,,,,,2022-06-15,1,,,,,ヨシダソウケン,0
2840,9360001030563,新規,0,2022-06-15,2022-06-15,株式会社宮里興業,,株式会社,沖縄県,沖縄市,与儀１丁目４番３号あがりてぃ－だ４０３,,47,211,9042174,,,,,,,2022-06-15,1,,,,,ミヤザトコウギョウ,0
2841,9360003012072,新規,0,2022-06-15,2022-06-15,野原建築設計事務所合同会社,,合同会社,沖縄県,石垣市,美崎町８番地５,,47,207,9070012,,,,,,,2022-06-15,1,,,,,ノハラケンチクセッケイジムショ,0
2842,9360003012080,新規,0,2022-06-15,2022-06-15,アセットファイナンス福岡中洲合同会社,,合同会社,沖縄県,那覇市,松山２丁目１番１２号,,47,201,9000032,,,,,,,2022-06-15,1,,,,,アセットファイナンスフクオカナカス,0
2843,9360003012089,新規,0,2022-06-15,2022-06-15,合同会社かりゆし経営情報室,,合同会社,沖縄県,糸満市,西崎町３丁目７番７号マンション絢１０８,,47,210,9010306,,,,,,,2022-06-15,1,,,,,カリユシケイエイジョウホウシツ,0
2851,9370001048670,新規,0,2022-06-15,2022-06-15,株式会社ＳＡＴＯＲＩ,,株式会社,宮城県,仙台市青葉区,大町２丁目５番１号,,04,101,9800804,,,,,,,2022-06-15,1,,,,,サトリ,0
2852,9370001048687,新規,0,2022-06-15,2022-06-15,株式会社ＥＳＭ,,株式会社,宮城県,仙台市青葉区,中央３丁目５番３０号４階,,04,101,9800021,,,,,,,2022-06-15,1,,,,,イーエスエム,0
2854,9370003005736,新規,0,2022-06-15,2022-06-15,合同会社Ｒｅ’Ｌｉｅｎ,,合同会社,宮城県,仙台市青葉区,栗生３丁目１３－１８,,04,101,9893122,,,,,,,2022-06-15,1,,,,,リリアン,0
2856,9370005010494,新規,0,2022-06-15,2022-06-15,医療法人社団和奏会,,その他の設立登記法人,宮城県,大崎市,古川字竹ノ内２４３番地２,,04,215,9896223,,,,,,,2022-06-15,1,,,,,ワソウカイ,0
2861,9380001032896,新規,0,2022-06-15,2022-06-15,嘉華国際医療株式会社,,株式会社,福島県,郡山市,富田町字天神林６２番地の１４,,07,203,9638041,,,,,,,2022-06-15,1,,,,,カカコクサイイリョウ,0
2862,9380003005198,新規,0,2022-06-15,2022-06-15,合同会社和,,合同会社,福島県,田村市,都路町岩井沢字中ノ沢７７,,07,211,9634702,,,,,,,2022-06-15,1,,,,,ワ,0
2879,9430001086813,新規,0,2022-06-15,2022-06-15,株式会社エイチピーエム,,株式会社,北海道,札幌市中央区,南八条西４丁目４２２番地,,01,101,0640808,,,,,,,2022-06-15,1,,,,,エイチピーエム,0
2880,9430001086862,新規,0,2022-06-15,2022-06-15,株式会社ＮＲＳ,,株式会社,北海道,江別市,野幌住吉町７番地の８,,01,217,0690816,,,,,,,2022-06-15,1,,,,,エヌアールエス,0
2886,9430003014012,新規,0,2022-06-15,2022-06-15,合同会社ＡＭＡＴＳＵ,,合同会社,北海道,札幌市東区,伏古九条２丁目３番１８号ウイングコート伏古１０２号,,01,103,0070869,,,,,,,2022-06-15,1,,,,,アマツ,0
2889,9430005014489,新規,0,2022-06-15,2022-06-15,一般社団法人北海道鳶工業会,,その他の設立登記法人,北海道,札幌市白石区,菊水六条２丁目１番１５－２０２号,,01,104,0030806,,,,,,,2022-06-15,1,,,,,ホッカイドウトビコウギョウカイ,0
2895,9470001019117,新規,0,2022-06-15,2022-06-15,株式会社葉月,,株式会社,香川県,高松市,古馬場町１３番地２５プレジデントビル３階,,37,201,7600045,,,,,,,2022-06-15,1,,,,,ハヅキ,0
2897,9480001011766,新規,0,2022-06-15,2022-06-15,ＪＤエンジニアリング株式会社,,株式会社,徳島県,徳島市,山城西４丁目２１番地の２フレグランス船城Ｂ‐２０２号,,36,201,7708054,,,,,,,2022-06-15,1,,,,,ジェイディエンジニアリング,0
