sequenceNumber,corporateNumber,process,correct,updateDate,changeDate,name,nameImageId,kind,prefectureName,cityName,streetNumber,addressImageId,prefectureCode,cityCode,postCode,addressOutside,addressOutsideImageId,closeDate,closeCause,successorCorporateNumber,changeCause,assignmentDate,latest,enName,enPrefectureName,enCityName,enAddressOutside,furigana,hihyoji
1,1010001002415,登記記録の閉鎖等,0,2022-04-26,2022-04-18,株式会社シノケンアメニティ,,株式会社,東京都,港区,浜松町２丁目３番１号,,13,103,1050013,,,2022-04-18,合併による解散等,3290001034057,令和４年４月１日福岡市中央区天神一丁目１番１号株式会社シノケンファシリティーズ（3290001034057）に合併し解散,2015-10-05,1,,,,,シノケンアメニティ,0
15,1010005005224,登記記録の閉鎖等,0,2022-04-26,2022-04-13,市民福祉サポートセンター,,その他の設立登記法人,東京都,千代田区,一番町９番地７一番町村上ビル,,13,101,1020082,,,2022-04-13,清算の結了等,,,2015-10-05,1,,,,,シミンフクシサポートセンター,0
47,1011001103137,登記記録の閉鎖等,0,2022-04-26,2022-04-11,株式会社ＢＵグローバル戦略研究所,,株式会社,東京都,渋谷区,広尾４丁目１番２７－４１３号,,13,113,1500012,,,2022-04-11,清算の結了等,,,2015-10-05,1,,,,,,0
62,1011402002020,登記記録の閉鎖等,0,2022-04-26,2022-04-22,有限会社落合製作所,,有限会社,東京都,板橋区,新河岸１丁目１５番２号,,13,119,1750081,,,2022-04-22,清算の結了等,,,2015-10-05,1,,,,,,0
79,1013402000788,登記記録の閉鎖等,0,2022-04-26,2022-04-21,有限会社スリー・ストリングス,,有限会社,東京都,日野市,日野台２丁目４０番地の２５,,13,212,1910003,,,2022-04-21,清算の結了等,,,2015-10-05,1,,,,,,0
82,1020001008717,登記記録の閉鎖等,0,2022-04-26,2022-04-18,株式会社信海商,,株式会社,神奈川県,横浜市都筑区,茅ケ崎南５丁目２５番３５号,,14,118,2240037,,,2022-04-18,清算の結了等,,,2015-10-05,1,,,,,ノブカイショウ,0
86,1020001060296,登記記録の閉鎖等,0,2022-04-26,2022-04-18,ＮＥＸＴ株式会社,,株式会社,神奈川県,横浜市中区,野毛町４丁目１６７番地バロック神２０１,,14,104,2310064,,,2022-04-18,清算の結了等,,,2015-10-05,1,,,,,ネクスト,0
92,1020001124381,登記記録の閉鎖等,0,2022-04-26,2022-04-20,株式会社高千穂ライフニックス,,株式会社,神奈川県,横浜市西区,みなとみらい２丁目２番１号横浜ランドマークタワー,,14,103,2200012,,,2022-04-20,合併による解散等,9350001012100,令和４年４月１日宮崎県都城市山田町中霧島４４８０番地１０株式会社高千穂シラスアグリ研究所（9350001012100）に合併し解散,2017-12-26,1,,,,,タカチホライフニックス,0
102,1021001017930,登記記録の閉鎖等,0,2022-04-26,2022-04-20,株式会社ＫＵ－ＣＯ工房,,株式会社,神奈川県,相模原市南区,下溝３２５６番地３,,14,153,2520335,,,2022-04-20,清算の結了等,,,2015-10-05,1,,,,,クーココウボウ,0
106,1021001052110,登記記録の閉鎖等,0,2022-04-26,2022-04-19,株式会社リバイバル,,株式会社,神奈川県,大和市,中央林間４丁目２５番１３号,,14,213,2420007,,,2022-04-19,清算の結了等,,,2015-10-05,1,,,,,リバイバル,0
110,1021002065383,登記記録の閉鎖等,0,2022-04-26,2022-04-20,有限会社マルセ,,有限会社,神奈川県,横須賀市,田浦町４丁目８番地,,14,201,2370075,,,2022-04-20,清算の結了等,,,2015-10-05,1,,,,,マルセ,0
111,1021005008793,登記記録の閉鎖等,0,2022-04-26,2022-04-22,特定非営利活動法人フラワーピープル,,その他の設立登記法人,大阪府,大阪市港区,夕凪１丁目９番１５号,,27,107,5520004,,,2022-04-22,清算の結了等,,,2015-10-05,1,,,,,フラワーピープル,0
112,1030001031668,登記記録の閉鎖等,0,2022-04-26,2022-04-19,株式会社彩美社,,株式会社,埼玉県,久喜市,吉羽２丁目４番地５,,11,232,3460014,,,2022-04-19,清算の結了等,,,2015-10-05,1,,,,,サイビシャ,0
121,1030002043761,登記記録の閉鎖等,0,2022-04-26,2022-04-01,有限会社片山,,有限会社,埼玉県,草加市,新里町６２番地,,11,221,3400031,,,2022-04-01,清算の結了等,,,2015-10-05,1,,,,,カタヤマ,0
123,1030005008679,登記記録の閉鎖等,0,2022-04-26,2022-04-15,埼玉県文具紙製品卸商協同組合,,その他の設立登記法人,埼玉県,熊谷市,問屋町３丁目１番地１３,,11,202,3600024,,,2022-04-15,清算の結了等,,,2015-10-05,1,,,,,サイタマケンブングカミセイヒンオロシショウ,0
148,1100001010565,登記記録の閉鎖等,0,2022-04-26,2022-04-21,株式会社日中提携社,,株式会社,長野県,上田市,別所温泉１８３６番地６,,20,203,3861431,,,2022-04-21,清算の結了等,,,2015-10-05,1,,,,,ニッチュウテイケイシャ,0
153,1110005000470,登記記録の閉鎖等,0,2022-04-26,2022-04-21,赤塚漁業協同組合,,その他の設立登記法人,新潟県,新潟市西区,赤塚４７１６番地４,,15,107,9502261,,,2022-04-21,清算の結了等,,,2015-10-05,1,,,,,アカツカ,0
158,1120001095695,登記記録の閉鎖等,0,2022-04-26,2022-04-21,エスイー工業株式会社,,株式会社,兵庫県,尼崎市,三反田町３丁目６番１０号,,28,202,6610024,,,2022-04-21,清算の結了等,,,2015-10-05,1,,,,,エスイーコウギョウ,0
172,1120002001917,登記記録の閉鎖等,0,2022-04-26,2022-04-20,有限会社国分商店,,有限会社,大阪府,大阪市西成区,千本北１丁目１１番３２号,,27,122,5570053,,,2022-04-20,清算の結了等,,,2015-10-05,1,,,,,コクブショウテン,0
194,1130001045261,登記記録の閉鎖等,0,2022-04-26,2022-04-20,株式会社牟尼庵,,株式会社,京都府,京都市中京区,木屋町４８４番地,,26,104,6040961,,,2022-04-20,清算の結了等,,,2015-10-05,1,,,,,ムニアン,0
213,1170002003512,登記記録の閉鎖等,0,2022-04-26,2022-04-25,有限会社松原テック,,有限会社,和歌山県,和歌山市,鳴神９５０番地の８,,30,201,6408303,,,2022-04-25,清算の結了等,,,2015-10-05,1,,,,,,0
214,1170003000665,登記記録の閉鎖等,0,2022-04-26,2022-04-25,紀の川リサーチ合同会社,,合同会社,和歌山県,紀の川市,古和田１９３番地４,,30,208,6496432,,,2022-04-25,清算の結了等,,,2015-10-05,1,,,,,,0
215,1170005002156,登記記録の閉鎖等,0,2022-04-26,2022-04-04,天理教神野川分教会,,その他の設立登記法人,和歌山県,海草郡紀美野町,福田４２２番地,,30,304,6401244,,,2022-04-04,合併による解散等,6170005003001,令和４年４月４日和歌山県紀の川市中三谷４２１番地天理教陽明分教会（6170005003001）に合併し解散,2015-10-05,1,,,,,テンリキョウコウノガワブンキョウカイ,0
219,1180001025110,登記記録の閉鎖等,0,2022-04-26,2022-04-21,株式会社かねくら実業,,株式会社,愛知県,名古屋市西区,市場木町３８７番地,,23,104,4520805,,,2022-04-21,清算の結了等,,,2015-10-05,1,,,,,カネクラジツギョウ,0
220,1180001062244,登記記録の閉鎖等,0,2022-04-26,2022-04-18,ＭＫコーポレーション株式会社,,株式会社,愛知県,名古屋市緑区,鳴海町字長田７２番地の１,,23,114,4580801,,,2022-04-18,清算の結了等,,,2015-10-05,1,,,,,エムケーコーポレーション,0
234,1180302010513,登記記録の閉鎖等,0,2022-04-26,2022-04-19,有限会社リスロン豊橋,,有限会社,愛知県,豊橋市,東脇３丁目１番地の３,,23,201,4418083,,,2022-04-19,清算の結了等,,,2015-10-05,1,,,,,リスロントヨハシ,0
239,1220001009513,登記記録の閉鎖等,0,2022-04-26,2022-04-20,株式会社リバシー,,株式会社,石川県,白山市,水澄町１２番地,,17,210,9240053,,,2022-04-20,清算の結了等,,,2015-10-05,1,,,,,リバシー,0
242,1220005001838,登記記録の閉鎖等,0,2022-04-26,2022-04-05,医療法人社団慈恵会,,その他の設立登記法人,石川県,金沢市,東山３丁目５番１０号,,17,201,9200831,,,2022-04-05,合併による解散等,5180005002531,令和４年４月１日名古屋市港区川西通五丁目２４番地医療法人スワン会（5180005002531）に合併し解散,2015-10-05,1,,,,,ジケイカイ,0
247,1240001027760,登記記録の閉鎖等,0,2022-04-26,2022-04-25,ベイロード株式会社,,株式会社,広島県,江田島市,大柿町柿浦２６７１番地４,,34,215,7372211,,,2022-04-25,清算の結了等,,,2015-10-05,1,,,,,,0
260,1290001063652,登記記録の閉鎖等,0,2022-04-26,2022-04-20,株式会社ミソノ電気,,株式会社,福岡県,福岡市中央区,六本松１丁目３番３２号,,40,133,8100044,,,2022-04-20,清算の結了等,,,2015-10-05,1,,,,,ミソノデンキ,0
267,1290005015617,登記記録の閉鎖等,0,2022-04-26,2022-04-22,特定非営利活動法人サイバーネットワーク研究センター,,その他の設立登記法人,福岡県,福岡市博多区,博多駅前３丁目２６番２９号,,40,132,8120011,,,2022-04-22,清算の結了等,,,2015-10-16,1,,,,,サイバーネットワークケンキュウセンター,0
271,1300003001674,登記記録の閉鎖等,0,2022-04-26,2022-04-22,合同会社サークルデリ,,合同会社,佐賀県,小城市,小城町５５６番地１,,41,208,8450001,,,2022-04-22,清算の結了等,,,2021-05-12,1,,,,,サークルデリ,0
282,1360001026065,登記記録の閉鎖等,0,2022-04-26,2022-04-21,０１．Ｌａｂ株式会社,,株式会社,愛知県,名古屋市中村区,名駅３丁目２８番１２号大名古屋ビルヂング２５階,,23,105,4500002,,,2022-04-21,清算の結了等,,,2019-08-30,1,,,,,ゼロイチラボ,0
291,1380005001005,登記記録の閉鎖等,0,2022-04-26,2022-04-06,特定非営利活動法人サステイナブル・コミュニティ研究所,,その他の設立登記法人,福島県,福島市,荒町４番７号,,07,201,9608042,,,2022-04-06,清算の結了等,,,2015-10-05,1,,,,,サスティナブルコミュニティケンキュウショ,0
294,1390005005624,登記記録の閉鎖等,0,2022-04-26,2022-04-19,一般財団法人村山市余暇開発公社,,その他の設立登記法人,山形県,村山市,碁点１０３４番地の７,,06,208,9950209,,,2022-04-19,清算の結了等,,,2015-10-05,1,,,,,ムラヤマシヨカカイハツコウシャ,0
295,1410001004528,登記記録の閉鎖等,0,2022-04-26,2022-04-15,秋田医療福祉株式会社,,株式会社,秋田県,秋田市,中通３丁目２番２７号,,05,201,0100001,,,2022-04-15,清算の結了等,,,2015-10-05,1,,,,,,0
296,1410002003041,登記記録の閉鎖等,0,2022-04-26,2022-04-19,有限会社ハヤシ商事,,有限会社,秋田県,秋田市,土崎港南１丁目１４番３７号,,05,201,0110943,,,2022-04-19,清算の結了等,,,2015-10-05,1,,,,,ハヤシショウジ,0
301,1430001019796,登記記録の閉鎖等,0,2022-04-26,2022-04-11,札幌国際エアカーゴターミナル株式会社,,株式会社,北海道,札幌市中央区,北四条西４丁目１番地,,01,101,0600004,,,2022-04-11,合併による解散等,7430001079728,令和４年４月１日北海道千歳市美々９８７番地２２北海道エアポート株式会社（7430001079728）に合併し解散,2015-10-05,1,,,,,サッポロコクサイエアカーゴターミナル,0
318,1480002011500,登記記録の閉鎖等,0,2022-04-26,2022-04-25,有限会社キムラ商社,,有限会社,徳島県,板野郡藍住町,勝瑞字西地１２８番地の１,,36,403,7711270,,,2022-04-25,清算の結了等,,,2015-10-05,1,,,,,キムラショウシャ,0
319,1490002001797,登記記録の閉鎖等,0,2022-04-26,2022-04-21,有限会社ゴルフシヨツプクニヨシ,,有限会社,高知県,高知市,菜園場町３番３号,,39,201,7800823,,,2022-04-21,清算の結了等,,,2015-10-05,1,,,,,ゴルフショップクニヨシ,0
345,2010401048825,登記記録の閉鎖等,0,2022-04-26,2022-04-11,中村水産株式会社,,株式会社,東京都,港区,海岸３丁目３番１５号,,13,103,1080022,,,2022-04-11,清算の結了等,,,2015-10-05,1,,,,,,0
362,2010801007546,登記記録の閉鎖等,0,2022-04-26,2022-04-18,株式会社テクニー,,株式会社,東京都,大田区,東糀谷４丁目７番６号,,13,111,1440033,,,2022-04-18,清算の結了等,,,2015-10-05,1,,,,,,0
381,2011002027581,登記記録の閉鎖等,0,2022-04-26,2022-04-11,有限会社フレイ,,有限会社,東京都,港区,南青山３丁目１５番９号ＭＩＮＯＷＡ表参道３階,,13,103,1070062,,,2022-04-11,清算の結了等,,,2015-10-05,1,,,,,フレイ,0
384,2011101094894,登記記録の閉鎖等,0,2022-04-26,2022-04-19,株式会社ＯＣＳ,,株式会社,東京都,新宿区,大久保１丁目１１番３号大東ビル６階,,13,104,1690072,,,2022-04-19,清算の結了等,,,2021-04-23,1,,,,,オーシーエス,0
398,2011702015497,登記記録の閉鎖等,0,2022-04-26,2022-04-22,有限会社木裂陶,,有限会社,東京都,江戸川区,南篠崎町４丁目１９番１０号,,13,123,1330065,,,2022-04-22,清算の結了等,,,2015-10-05,1,,,,,,0
400,2011801028722,登記記録の閉鎖等,0,2022-04-26,2022-04-25,株式会社Ｄｅｓｉｇｎ　Ａｒｃｓ,,株式会社,東京都,台東区,東上野３丁目１番１３号,,13,106,1100015,,,2022-04-25,清算の結了等,,,2015-10-05,1,,,,,デザインアークス,0
405,2013202001713,登記記録の閉鎖等,0,2022-04-26,2022-04-11,有限会社ガイ空間設計,,有限会社,東京都,目黒区,目黒本町５丁目３３番４号,,13,110,1520002,,,2022-04-11,清算の結了等,,,2015-10-05,1,,,,,ガイクウカンセッケイ,0
416,2020001119208,登記記録の閉鎖等,0,2022-04-26,2022-04-11,株式会社ラーメン屋けん,,株式会社,神奈川県,川崎市中原区,今井南町１９番９号,,14,133,2110064,,,2022-04-11,清算の結了等,,,2016-12-21,1,,,,,ラーメンヤケン,0
429,2030001029587,登記記録の閉鎖等,0,2022-04-26,2022-04-19,ウェディングストリート株式会社,,株式会社,埼玉県,狭山市,大字下奥富６１４番地の１,,11,215,3501332,,,2022-04-19,清算の結了等,,,2015-10-05,1,,,,,ウェディングストリート,0
430,2030001054040,登記記録の閉鎖等,0,2022-04-26,2022-04-19,Ｃ＆Ｙ株式会社,,株式会社,埼玉県,所沢市,星の宮１丁目３番５号,,11,208,3591127,,,2022-04-19,清算の結了等,,,2015-10-05,1,,,,,シーアンドワイ,0
432,2030001089160,登記記録の閉鎖等,0,2022-04-26,2022-04-19,ＨＧＰ株式会社,,株式会社,埼玉県,熊谷市,佐谷田３２４８番地,,11,202,3600023,,,2022-04-19,清算の結了等,,,2015-10-05,1,,,,,エッチジーピー,0
456,2040005001871,登記記録の閉鎖等,0,2022-04-26,2022-04-22,税理士法人影山会計事務所,,その他の設立登記法人,千葉県,千葉市稲毛区,緑町１丁目１０番１１号,,12,103,2630023,,,2022-04-22,清算の結了等,,,2015-10-05,1,,,,,カゲヤマカイケイジムショ,0
469,2080102012925,登記記録の閉鎖等,0,2022-04-26,2022-04-22,有限会社勝又工業,,有限会社,静岡県,駿東郡長泉町,南一色１８０番地の１９,,22,342,4110932,,,2022-04-22,清算の結了等,,,2015-10-05,1,,,,,カツマタコウギョウ,0
503,2120002072412,登記記録の閉鎖等,0,2022-04-26,2022-04-20,有限会社三大青果,,有限会社,大阪府,寝屋川市,長栄寺町２０番１０号,,27,215,5720061,,,2022-04-20,清算の結了等,,,2015-10-05,1,,,,,サンダイセイカ,0
515,2130001008036,登記記録の閉鎖等,0,2022-04-26,2022-04-20,株式会社カワイ,,株式会社,京都府,京都市西京区,山田庄田町３番地の６１,,26,111,6158261,,,2022-04-20,清算の結了等,,,2015-10-05,1,,,,,カワイ,0
526,2140001055754,登記記録の閉鎖等,0,2022-04-26,2022-04-20,三栄株式会社,,株式会社,兵庫県,尼崎市,長洲西通２丁目９番１５号,,28,202,6600807,,,2022-04-20,清算の結了等,,,2015-10-05,1,,,,,サンエイ,0
527,2140001084844,登記記録の閉鎖等,0,2022-04-26,2022-04-20,濱千鳥酒造株式会社,,株式会社,兵庫県,洲本市,五色町都志３５０番地,,28,205,6561301,,,2022-04-20,清算の結了等,,,2015-10-05,1,,,,,ハマチドリシュゾウ,0
533,2140002062056,登記記録の閉鎖等,0,2022-04-26,2022-04-21,有限会社眞鍋縫工,,有限会社,兵庫県,多可郡多可町,中区奥中７９７番地,,28,365,6791107,,,2022-04-21,清算の結了等,,,2015-10-05,1,,,,,マナベホウコウ,0
553,2180002014607,登記記録の閉鎖等,0,2022-04-26,2022-04-11,有限会社美容室ヒダカ,,有限会社,愛知県,名古屋市南区,西桜町２５番地,,23,112,4570039,,,2022-04-11,清算の結了等,,,2015-10-05,1,,,,,ビヨウシツヒダカ,0
571,2220005000095,登記記録の閉鎖等,0,2022-04-26,2022-04-01,一般社団法人石川県配合飼料価格安定基金協会,,その他の設立登記法人,石川県,金沢市,古府１丁目１９７番地,,17,201,9200362,,,2022-04-01,合併による解散等,6220005008655,令和４年４月１日福井市花堂中二丁目１７番３号一般社団法人福井県配合飼料価格安定基金協会（3210005000038）、富山市手屋三丁目１０番１５号一般社団法人富山県配合飼料価格安定基金協会（2230005000053）と合併して石川県金沢市古府一丁目１９７番地一般社団法人北陸配合飼料価格安定基金協会（6220005008655）を設立し解散,2015-10-05,1,,,,,イシカワケンハイゴウシリョウカカクアンテイキキンキョウカイ,0
578,2260001014913,登記記録の閉鎖等,0,2022-04-26,2022-04-25,株式会社水島食糧,,株式会社,岡山県,倉敷市,水島東常盤町７番１４号,,33,202,7128058,,,2022-04-25,清算の結了等,,,2015-10-05,1,,,,,ミズシマショクリョウ,0
585,2270001006884,登記記録の閉鎖等,0,2022-04-26,2022-04-12,株式会社コロナ農業振興,,株式会社,鳥取県,東伯郡湯梨浜町,大字旭９５番地,,31,370,6890713,,,2022-04-12,清算の結了等,,,2016-02-05,1,,,,,コロナノウギョウシンコウ,0
591,2290001082569,登記記録の閉鎖等,0,2022-04-26,2022-04-20,株式会社岡本企画,,株式会社,福岡県,春日市,平田台４丁目２１番地２１,,40,218,8160812,,,2022-04-20,清算の結了等,,,2018-08-30,1,,,,,オカモトキカク,0
596,2290002055730,登記記録の閉鎖等,0,2022-04-26,2022-04-08,有限会社ヘルス・サービス,,有限会社,福岡県,大牟田市,大字歴木４番地１７,,40,202,8370924,,,2022-04-08,清算の結了等,,,2015-10-05,1,,,,,ヘルスサービス,0
597,2290003007623,登記記録の閉鎖等,0,2022-04-26,2022-04-19,合同会社ＡＺ,,合同会社,福岡県,福岡市中央区,桜坂１丁目７－１３,,40,133,8100024,,,2022-04-19,清算の結了等,,,2017-11-20,1,,,,,エーゼット,0
638,2460402000203,登記記録の閉鎖等,0,2022-04-26,2022-04-25,有限会社辰政,,有限会社,北海道,根室市,梅ケ枝町１丁目１５番地,,01,223,0870052,,,2022-04-25,清算の結了等,,,2015-10-05,1,,,,,,0
647,2500002003634,登記記録の閉鎖等,0,2022-04-26,2022-04-22,有限会社スーパーうごもり,,有限会社,愛媛県,松山市,西垣生町８３０番地１,,38,201,7918044,,,2022-04-22,清算の結了等,,,2015-10-05,1,,,,,スーパーウゴモリ,0
661,3010001135799,登記記録の閉鎖等,0,2022-04-26,2022-04-21,株式会社Ｐ＆Ｐ,,株式会社,福岡県,福岡市中央区,天神４丁目６番２８号,,40,133,8100001,,,2022-04-21,合併による解散等,2020001028342,令和４年３月３１日東京都港区六本木六丁目８番１０号株式会社Ｓｕｃｃｅｓｓ　Ｈｏｌｄｅｒｓ（2020001028342）に合併し解散,2015-10-05,1,,,,,ピーアンドピー,0
700,3010801022189,登記記録の閉鎖等,0,2022-04-26,2022-04-18,アクト株式会社,,株式会社,東京都,大田区,西糀谷３丁目３７番１３－５０４号,,13,111,1440034,,,2022-04-18,清算の結了等,,,2015-10-05,1,,,,,アクト,0
721,3011802011924,登記記録の閉鎖等,0,2022-04-26,2022-04-20,有限会社キヤリオールシユーズ,,有限会社,東京都,足立区,中央本町４丁目１１番３１号,,13,121,1210011,,,2022-04-20,清算の結了等,,,2015-10-05,1,,,,,キヤリオールシユーズ,0
725,3013202002306,登記記録の閉鎖等,0,2022-04-26,2022-04-11,有限会社圭アート,,有限会社,東京都,目黒区,下目黒１丁目６番３号,,13,110,1530064,,,2022-04-11,合併による解散等,3013201012116,令和４年４月１０日東京都目黒区下目黒一丁目６番３号株式会社華陽（3013201012116）に合併し解散,2015-10-05,1,,,,,ケイアート,0
736,3020001090192,登記記録の閉鎖等,0,2022-04-26,2022-04-13,株式会社アイワ,,株式会社,神奈川県,横浜市港南区,港南６丁目３番１０号,,14,111,2330003,,,2022-04-13,清算の結了等,,,2015-10-05,1,,,,,アイワ,0
749,3021001039361,登記記録の閉鎖等,0,2022-04-26,2022-04-15,八重咲総研株式会社,,株式会社,神奈川県,平塚市,万田５９８番地,,14,203,2540913,,,2022-04-15,合併による解散等,3010401081197,令和４年４月１日神奈川県平塚市東豊田５９４番地３１ジャパンフードテック株式会社（3010401081197）に合併し解散,2015-10-05,1,,,,,ヤエサキ,0
753,3021002013646,登記記録の閉鎖等,0,2022-04-26,2022-04-19,アイタップス有限会社,,有限会社,神奈川県,高座郡寒川町,一之宮７丁目４番Ｅ－４０４号,,14,321,2530111,,,2022-04-19,清算の結了等,,,2015-10-05,1,,,,,アイタップス,0
757,3030001066332,登記記録の閉鎖等,0,2022-04-26,2022-04-08,きたいち販売株式会社,,株式会社,千葉県,市川市,八幡１丁目１７番３号,,12,203,2720021,,,2022-04-08,清算の結了等,,,2015-10-05,1,,,,,キタイチハンバイ,0
774,3040001061893,登記記録の閉鎖等,0,2022-04-26,2022-04-15,長治郎屋建設株式会社,,株式会社,千葉県,旭市,横根字散畑１３４４番地７,,12,215,2892712,,,2022-04-15,清算の結了等,,,2015-10-05,1,,,,,チョウジロウヤケンセツ,0
780,3040003017489,登記記録の閉鎖等,0,2022-04-26,2022-04-18,ホープ合同会社,,合同会社,千葉県,船橋市,高根台１丁目１番８棟３０３号,,12,204,2740065,,,2022-04-18,清算の結了等,,,2021-04-13,1,,,,,ホープ,0
823,3120002047628,登記記録の閉鎖等,0,2022-04-26,2022-04-20,有限会社御門屋,,有限会社,大阪府,大阪市北区,中之島４丁目２番４１－６０１号,,27,127,5300005,,,2022-04-20,清算の結了等,,,2015-10-05,1,,,,,ミカドヤ,0
865,3180003012113,登記記録の閉鎖等,0,2022-04-26,2022-04-19,合資会社エンドレス,,合資会社,愛知県,一宮市,大和町馬引字焼野２０番地の７,,23,203,4910931,,,2022-04-19,清算の結了等,,,2015-10-05,1,,,,,エンドレス,0
881,3230001003298,登記記録の閉鎖等,0,2022-04-26,2022-04-22,松井商事株式会社,,株式会社,富山県,富山市,長江５丁目１番４１号,,16,201,9300974,,,2022-04-22,清算の結了等,,,2015-10-05,1,,,,,マツイショウジ,0
921,3330005009934,登記記録の閉鎖等,0,2022-04-26,2022-04-18,税理士法人ファーロ,,その他の設立登記法人,熊本県,菊池郡菊陽町,光の森２丁目２番２,,43,404,8691108,,,2022-04-18,清算の結了等,,,2018-10-31,1,,,,,ファーロ,0
925,3360001011247,登記記録の閉鎖等,0,2022-04-26,2022-04-12,農業生産法人大鏡農研株式会社,,株式会社,沖縄県,那覇市,字小禄９１２番地１,,47,201,9010152,,,2022-04-12,清算の結了等,,,2015-10-05,1,,,,,ノウギョウセイサンホウジンダイキョウノウケン,0
943,3400002000062,登記記録の閉鎖等,0,2022-04-26,2022-04-25,有限会社アイカワ,,有限会社,岩手県,盛岡市,黒川２１地割３２番地１５,,03,201,0200402,,,2022-04-25,清算の結了等,,,2015-10-05,1,,,,,アイカワ,0
946,3420001015381,登記記録の閉鎖等,0,2022-04-26,2022-04-12,合同会社ユーラス新小田野沢風力,,合同会社,青森県,下北郡東通村,大字岩屋字苦蕨平１番地４,,02,424,0350113,,,2022-04-12,合併による解散等,5420001012625,令和４年４月１日青森県下北郡東通村大字岩屋字苦蕨平１番地４合同会社ユーラスエナジー小田野沢（5420001012625）に合併し解散,2016-08-26,1,,,,,ユーラスシンオダノサワフウリョク,0
961,3470001007184,登記記録の閉鎖等,0,2022-04-26,2022-04-15,株式会社パートナーズ・Ｕ,,株式会社,香川県,高松市,川島本町３０８番地１Ａ２０１,,37,201,7610442,,,2022-04-15,清算の結了等,,,2015-10-05,1,,,,,パートナーズユー,0
974,4010001017063,登記記録の閉鎖等,0,2022-04-26,2022-04-08,株式会社三京エンタープライズ,,株式会社,東京都,千代田区,神田三崎町２丁目２１番２号,,13,101,1010061,,,2022-04-08,清算の結了等,,,2015-10-05,1,,,,,サンキョウエンタープライズ,0
978,4010001177279,登記記録の閉鎖等,0,2022-04-26,2022-04-08,ベル・パレット株式会社,,株式会社,東京都,中央区,日本橋室町１丁目１０番１１号,,13,102,1030022,,,2022-04-08,合併による解散等,4013202004978,令和４年４月１日東京都中央区日本橋室町一丁目１０番１１号株式会社ハイプランニング（4013202004978）に合併し解散,2016-07-28,1,,,,,ベルパレット,0
982,4010003032358,登記記録の閉鎖等,0,2022-04-26,2022-04-08,合同会社カニエソーラー,,合同会社,東京都,千代田区,大手町２丁目１番１号,,13,101,1000004,,,2022-04-08,清算の結了等,,,2020-06-09,1,,,,,カニエソーラー,0
986,4010102001932,登記記録の閉鎖等,0,2022-04-26,2022-04-22,有限会社神山重三商店,,有限会社,東京都,八王子市,元横山町３丁目１１番８号,,13,201,1920063,,,2022-04-22,清算の結了等,,,2015-10-05,1,,,,,カミヤマジュウゾウショウテン,0
988,4010401032307,登記記録の閉鎖等,0,2022-04-26,2022-04-18,株式会社コズミックブルー,,株式会社,神奈川県,横浜市西区,北幸１丁目１１番１号水信ビル７階,,14,103,2200004,,,2022-04-18,清算の結了等,,,2015-10-05,1,,,,,コズミックブルー,0
1000,4010703003947,登記記録の閉鎖等,0,2022-04-26,2022-04-18,スピアトラスト合同会社,,合同会社,東京都,品川区,東品川１丁目１９番１０号１階,,13,109,1400002,,,2022-04-18,清算の結了等,,,2017-11-22,1,,,,,スピアトラスト,0
1022,4011103000923,登記記録の閉鎖等,0,2022-04-26,2022-04-19,合資会社大和屋,,合資会社,東京都,新宿区,四谷３丁目１番地,,13,104,1600004,,,2022-04-19,清算の結了等,,,2015-10-05,1,,,,,ヤマトヤ,0
1031,4011802008408,登記記録の閉鎖等,0,2022-04-26,2022-04-21,有限会社ヨネダ,,有限会社,東京都,葛飾区,白鳥２丁目２２番１６号,,13,122,1250063,,,2022-04-21,清算の結了等,,,2015-10-05,1,,,,,,0
1054,4020002040583,登記記録の閉鎖等,0,2022-04-26,2022-04-18,有限会社ヤマサン設備,,有限会社,神奈川県,横浜市鶴見区,駒岡１丁目１８番１６号,,14,101,2300071,,,2022-04-18,清算の結了等,,,2015-10-05,1,,,,,ヤマサンセツビ,0
1056,4021001039609,登記記録の閉鎖等,0,2022-04-26,2022-04-19,曙商事株式会社,,株式会社,神奈川県,平塚市,長持４００番地６,,14,203,2591217,,,2022-04-19,清算の結了等,,,2015-10-05,1,,,,,アケボノショウジ,0
1076,4040001042034,登記記録の閉鎖等,0,2022-04-26,2022-04-08,株式会社ａｍｐ,,株式会社,東京都,文京区,大塚５丁目７番１２号ＮＫビル新大塚３階,,13,105,1120012,,,2022-04-08,合併による解散等,4010001074443,令和４年４月１日東京都千代田区神田東松下町１０番２翔和神田ビル４階株式会社アナハイム・テクノロジー（4010001074443）に合併し解散,2015-10-05,1,,,,,アンプ,0
1081,4040002064548,登記記録の閉鎖等,0,2022-04-26,2022-04-19,有限会社エヌユーコーポレーション,,有限会社,千葉県,八街市,八街い１４３番地,,12,230,2891143,,,2022-04-19,清算の結了等,,,2015-10-05,1,,,,,エヌユーコーポレーション,0
1085,4050005011232,登記記録の閉鎖等,0,2022-04-26,2022-04-01,特定非営利活動法人かしま遊休地活用クラブ,,その他の設立登記法人,茨城県,鹿嶋市,大字宮中４６３１番地１,,08,222,3140031,,,2022-04-01,合併による解散等,8050005011740,令和４年４月１日茨城県鹿嶋市中３１２６番２特定非営利活動法人あっとホームたかまつ（8050005011740）に合併し解散,2015-10-05,1,,,,,カシマユウキュウチカツヨウクラブ,0
1090,4080001017131,登記記録の閉鎖等,0,2022-04-26,2022-04-18,株式会社タック,,株式会社,千葉県,市川市,堀之内３丁目２１番地１号,,12,203,2720837,,,2022-04-18,清算の結了等,,,2015-10-05,1,,,,,タック,0
1091,4080001023501,登記記録の閉鎖等,0,2022-04-26,2022-04-25,株式会社マルモフォレスト,,株式会社,静岡県,静岡市葵区,諸子沢５９４番地,,22,101,4211402,,,2022-04-25,清算の結了等,,,2020-04-09,1,,,,,マルモフォレスト,0
1101,4100001000167,登記記録の閉鎖等,0,2022-04-26,2022-04-21,安茂里農村工業株式会社,,株式会社,長野県,長野市,大字安茂里１１９６番地,,20,201,3800941,,,2022-04-21,清算の結了等,,,2015-10-05,1,,,,,アモリノウソンコウギョウ,0
1109,4120001160744,登記記録の閉鎖等,0,2022-04-26,2022-04-19,株式会社Ｅｎｖｉｃｅ　Ｏｎｅ,,株式会社,大阪府,大阪市中央区,内久宝寺町２丁目１番８－２１０１号,,27,128,5400013,,,2022-04-19,清算の結了等,,,2015-10-05,1,,,,,エンヴィスワン,0
1130,4120101022357,登記記録の閉鎖等,0,2022-04-26,2022-04-22,ハウストップ株式会社,,株式会社,大阪府,高石市,綾園２丁目２３番１６号,,27,225,5920014,,,2022-04-22,清算の結了等,,,2015-10-05,1,,,,,ハウストップ,0
1139,4140001055001,登記記録の閉鎖等,0,2022-04-26,2022-04-25,株式会社グリーンチケット,,株式会社,大阪府,池田市,住吉２丁目１３番２３号,,27,204,5630033,,,2022-04-25,清算の結了等,,,2015-10-05,1,,,,,グリーンチケット,0
1157,4180001023648,登記記録の閉鎖等,0,2022-04-26,2022-04-12,山和フエンス株式会社,,株式会社,愛知県,名古屋市天白区,大坪１丁目４０７番地,,23,116,4680072,,,2022-04-12,清算の結了等,,,2015-10-05,1,,,,,サンワフェンス,0
1168,4180301021095,登記記録の閉鎖等,0,2022-04-26,2022-04-18,株式会社グリーンステップ,,株式会社,愛知県,豊田市,東広瀬町城下１番地８,,23,211,4700307,,,2022-04-18,清算の結了等,,,2015-10-05,1,,,,,グリーンステップ,0
1182,4240001038383,登記記録の閉鎖等,0,2022-04-26,2022-04-19,株式会社西日本デンソー,,株式会社,広島県,尾道市,美ノ郷町三成８１９番地の１,,34,205,7220215,,,2022-04-19,清算の結了等,,,2015-10-05,1,,,,,,0
1187,4250002004573,登記記録の閉鎖等,0,2022-04-26,2022-04-21,有限会社清中鮮魚,,有限会社,山口県,宇部市,松島町１０番１１号,,35,202,7550042,,,2022-04-21,清算の結了等,,,2015-10-05,1,,,,,キヨナカセンギョ,0
1217,4320002004871,登記記録の閉鎖等,0,2022-04-26,2022-04-21,有限会社トモス,,有限会社,大分県,大分市,萩原３丁目２２番１号,,44,201,8700921,,,2022-04-21,清算の結了等,,,2015-10-05,1,,,,,トモス,0
1234,4370001006352,登記記録の閉鎖等,0,2022-04-26,2022-04-07,株式会社レンタルシステム東北,,株式会社,宮城県,仙台市宮城野区,扇町３丁目６番２１号,,04,102,9830034,,,2022-04-07,合併による解散等,6020001008241,令和４年４月１日川崎市川崎区南渡田町１番１号レンタルシステム株式会社（6020001008241）に合併し解散,2015-10-05,1,,,,,レンタルシステムトウホク,0
1273,5010003028875,登記記録の閉鎖等,0,2022-04-26,2022-04-08,合同会社ＡＬＥＲＯ３５,,合同会社,東京都,千代田区,神田美土代町９番１号,,13,101,1010053,,,2022-04-08,清算の結了等,,,2018-12-12,1,,,,,アレーロサーティーファイブ,0
1311,5011101046018,登記記録の閉鎖等,0,2022-04-26,2022-04-22,ビックス株式会社,,株式会社,東京都,新宿区,改代町２６－１,,13,104,1620802,,,2022-04-22,清算の結了等,,,2015-10-05,1,,,,,,0
1344,5020002067741,登記記録の閉鎖等,0,2022-04-26,2022-04-18,有限会社創建舎,,有限会社,神奈川県,横浜市磯子区,栗木２丁目２９番１号,,14,107,2350041,,,2022-04-18,清算の結了等,,,2015-10-05,1,,,,,,0
1350,5030001019825,登記記録の閉鎖等,0,2022-04-26,2022-04-19,株式会社ウィンブライト,,株式会社,埼玉県,さいたま市北区,土呂町２丁目４８番地２２,,11,102,3310804,,,2022-04-19,清算の結了等,,,2015-10-05,1,,,,,ウィンブライト,0
1380,5080001019060,登記記録の閉鎖等,0,2022-04-26,2022-04-19,株式会社プラスサラダ,,株式会社,静岡県,静岡市清水区,入船町１１番１号,,22,103,4240942,,,2022-04-19,合併による解散等,2080001008256,令和４年４月１日静岡市清水区入船町１１番１号エスエスケイフーズ株式会社（2080001008256）に合併し解散,2015-10-05,1,,,,,プラスサラダ,0
1382,5080002016924,登記記録の閉鎖等,0,2022-04-26,2022-04-25,有限会社プランニングスタッフ,,有限会社,静岡県,焼津市,大村２丁目２０番地の８,,22,212,4250082,,,2022-04-25,清算の結了等,,,2015-10-05,1,,,,,プランニングスタッフ,0
1396,5120001126554,登記記録の閉鎖等,0,2022-04-26,2022-04-19,株式会社平田照樹堂,,株式会社,大阪府,大阪市中央区,西心斎橋１丁目１０番１６号,,27,128,5420086,,,2022-04-19,清算の結了等,,,2015-10-05,1,,,,,ヒラタショウジュドウ,0
1417,5120901028692,登記記録の閉鎖等,0,2022-04-26,2022-04-25,日栄実業株式会社,,株式会社,大阪府,池田市,八王寺１丁目２番１７－３０８号,,27,204,5630037,,,2022-04-25,清算の結了等,,,2015-10-05,1,,,,,,0
1426,5130002017504,登記記録の閉鎖等,0,2022-04-26,2022-04-20,有限会社三ッ星美容室,,有限会社,京都府,京都市中京区,猪熊通御池上る最上町３８４番地２,,26,104,6048303,,,2022-04-20,清算の結了等,,,2015-10-05,1,,,,,,0
1430,5140001108897,登記記録の閉鎖等,0,2022-04-26,2022-04-21,ＴＨＥＯＲＥＭＡ　ＥＧＲＥＧＩＵＭ株式会社,,株式会社,兵庫県,西宮市,大井手町６－２５ＪＥＯ１Ｆ,,28,204,6620036,,,2022-04-21,清算の結了等,,,2018-01-24,1,,,,,セオレマイグレギューマ,0
1437,5140003007420,登記記録の閉鎖等,0,2022-04-26,2022-04-18,合同会社エフイーテック,,合同会社,兵庫県,姫路市,夢前町菅生澗１５９７番地,,28,201,6712134,,,2022-04-18,清算の結了等,,,2015-10-05,1,,,,,エフイーテック,0
1439,5140005005810,登記記録の閉鎖等,0,2022-04-26,2022-04-01,社会福祉法人藤江保育所,,その他の設立登記法人,兵庫県,明石市,藤が丘１丁目２６番５号,,28,203,6730046,,,2022-04-01,合併による解散等,6140005005818,令和４年４月１日兵庫県明石市藤江７５６番地１社会福祉法人ゆたか福祉会（6140005005818）に合併し解散,2015-10-05,1,,,,,フジエホイクショ,0
1443,5150002010977,登記記録の閉鎖等,0,2022-04-26,2022-04-22,有限会社谷建設,,有限会社,奈良県,五條市,今井３丁目１番５号,,29,207,6370004,,,2022-04-22,清算の結了等,,,2015-10-05,1,,,,,タニケンセツ,0
1446,5180001012716,登記記録の閉鎖等,0,2022-04-26,2022-04-18,株式会社中日映像出版,,株式会社,愛知県,名古屋市北区,金城町２丁目６０番地の１,,23,103,4620047,,,2022-04-18,清算の結了等,,,2015-10-05,1,,,,,チュウニチエイゾウシュッパン,0
1447,5180001086974,登記記録の閉鎖等,0,2022-04-26,2022-04-19,麗明システム株式会社,,株式会社,愛知県,一宮市,今伊勢町宮後字芝野１２番地１サンシャイン芝野３０３号,,23,203,4910057,,,2022-04-19,清算の結了等,,,2015-10-05,1,,,,,レイメイシステム,0
1449,5180001134989,登記記録の閉鎖等,0,2022-04-26,2022-04-19,株式会社松桑,,株式会社,愛知県,一宮市,開明字北葭野４番地,,23,203,4940001,,,2022-04-19,清算の結了等,,,2018-12-28,1,,,,,マツクワ,0
1456,5180003018100,登記記録の閉鎖等,0,2022-04-26,2022-04-19,平松印刷合同会社,,合同会社,愛知県,一宮市,東五城字三味廓３番地１,,23,203,4940008,,,2022-04-19,清算の結了等,,,2017-07-18,1,,,,,ヒラマツインサツ,0
1504,5290002025490,登記記録の閉鎖等,0,2022-04-26,2022-04-20,有限会社碧,,有限会社,福岡県,福岡市博多区,青木１丁目１番３８号,,40,132,8120851,,,2022-04-20,清算の結了等,,,2015-10-05,1,,,,,ミドリ,0
1526,5380001018874,登記記録の閉鎖等,0,2022-04-26,2022-04-19,今市興産株式会社,,株式会社,栃木県,日光市,猪倉字立沢原３５０７番地５４,,09,206,3212344,,,2022-04-19,清算の結了等,,,2015-10-05,1,,,,,イマイチコウサン,0
1533,5410002004168,登記記録の閉鎖等,0,2022-04-26,2022-04-01,株式会社ヒューマンレジャー,,株式会社,秋田県,秋田市,大町３丁目２番３０号,,05,201,0100921,,,2022-04-01,合併による解散等,2410001009798,令和４年４月１日秋田市手形字山崎９２番地５－１１０１号アジマックスビル管理株式会社（2410001009798）に合併し解散,2015-10-05,1,,,,,ヒューマンレジャー,0
1547,5490002007361,登記記録の閉鎖等,0,2022-04-26,2022-04-21,有限会社欒建築事務所,,有限会社,高知県,高知市,槙山町１番１号,,39,201,7800000,,,2022-04-21,清算の結了等,,,2015-10-05,1,,,,,ランケンチクジムショ,0
1549,5490005002590,登記記録の閉鎖等,0,2022-04-26,2022-04-01,社会福祉法人幡多福祉会,,その他の設立登記法人,高知県,宿毛市,平田町中山８６７番地,,39,208,7880782,,,2022-04-01,合併による解散等,4490005004704,令和４年４月１日高知県南国市小籠１０７番地社会福祉法人土佐希望の家（4490005004704）に合併し解散,2015-10-05,1,,,,,ハタフクシカイ,0
1551,5500002006444,登記記録の閉鎖等,0,2022-04-26,2022-04-22,有限会社丸興建装社,,有限会社,愛媛県,松山市,鷹子町３７１番地１,,38,201,7900925,,,2022-04-22,清算の結了等,,,2015-10-05,1,,,,,,0
1563,6010005024293,登記記録の閉鎖等,0,2022-04-26,2022-04-20,一般社団法人オーストラリア・ニュージーランド留学協会,,その他の設立登記法人,東京都,千代田区,麹町３丁目５番地２,,13,101,1020083,,,2022-04-20,清算の結了等,,,2015-10-05,1,,,,,オーストラリアニュージーランドリュウガクキョウカイ,0
1569,6010401080106,登記記録の閉鎖等,0,2022-04-26,2022-04-11,アステアインターナショナルジャパン株式会社,,株式会社,東京都,港区,赤坂１丁目１２番３２号アーク森ビル１２階,,13,103,1070052,,,2022-04-11,清算の結了等,,,2015-10-05,1,,,,,アステアインターナショナルジャパン,0
1581,6011001017316,登記記録の閉鎖等,0,2022-04-26,2022-04-22,日福電気株式会社,,株式会社,東京都,渋谷区,笹塚１丁目６２番９号,00064374,13,113,1510073,,,2022-04-22,清算の結了等,,,2015-10-05,1,,,,,ニチフクデンキ,0
1594,6011105008442,登記記録の閉鎖等,0,2022-04-26,2022-04-21,一般社団法人西台開発研究会,,その他の設立登記法人,東京都,新宿区,四谷２丁目９番地１５東京ユナイテッド綜合事務所内,,13,104,1600004,,,2022-04-21,清算の結了等,,,2018-07-23,1,,,,,ニシダイカイハツケンキュウカイ,0
1604,6012303000810,登記記録の閉鎖等,0,2022-04-26,2022-04-14,合同会社ドメイン輝,,合同会社,東京都,町田市,大蔵町９４１番地１ドメイン町田鶴川２０２,,13,209,1950062,,,2022-04-14,清算の結了等,,,2015-10-05,1,,,,,ドメインカガヤキ,0
1605,6012402015619,登記記録の閉鎖等,0,2022-04-26,2022-04-19,有限会社アマネセール,,有限会社,東京都,国分寺市,内藤２丁目２番地３７,,13,214,1850033,,,2022-04-19,清算の結了等,,,2015-10-05,1,,,,,,0
1612,6020001094901,登記記録の閉鎖等,0,2022-04-26,2022-04-15,株式会社佐藤エージェンシー,,株式会社,神奈川県,横浜市金沢区,高舟台２丁目８番２４号,,14,108,2360044,,,2022-04-15,清算の結了等,,,2015-10-05,1,,,,,サトウエージェンシー,0
1616,6020001122612,登記記録の閉鎖等,0,2022-04-26,2022-04-01,株式会社Ｓ－ＰＬＡＮＥＴ,,株式会社,神奈川県,横浜市西区,みなとみらい２丁目３－５クイーンズタワーＣー１３階,,14,103,2200012,,,2022-04-01,合併による解散等,7020001030228,令和４年４月１日横浜市西区みなとみらい２－３－５クイーンズタワーＣ－１３階株式会社ワイエスシー（7020001030228）に合併し解散,2017-08-21,1,,,,,エスプラネット,0
1620,6020002104618,登記記録の閉鎖等,0,2022-04-26,2022-04-21,オプトンヒムヌス有限会社,,有限会社,神奈川県,川崎市中原区,新丸子東２丁目９２６番地ユタカビル２階,,14,133,2110004,,,2022-04-21,清算の結了等,,,2015-10-05,1,,,,,オプトンヒムヌス,0
1634,6030001072443,登記記録の閉鎖等,0,2022-04-26,2022-04-19,マーベラスウェディング株式会社,,株式会社,埼玉県,東松山市,松本町２丁目１０番３０号,,11,212,3550014,,,2022-04-19,清算の結了等,,,2015-10-05,1,,,,,マーベラスウェディング,0
1644,6030002072582,登記記録の閉鎖等,0,2022-04-26,2022-04-07,有限会社オーテック,,有限会社,埼玉県,川越市,大字小室２２４番地１６,,11,201,3501106,,,2022-04-07,清算の結了等,,,2015-10-05,1,,,,,オーテック,0
1647,6040001027529,登記記録の閉鎖等,0,2022-04-26,2022-04-18,保健情報システム株式会社,,株式会社,千葉県,市川市,福栄３丁目２３番１号,,12,203,2720137,,,2022-04-18,清算の結了等,,,2015-10-05,1,,,,,ホケンジョウホウシステム,0
1671,6080103001774,登記記録の閉鎖等,0,2022-04-26,2022-04-22,合同会社Ｓｈａｐｅ　ｉｎ　Ｓｐａｃｅ,,合同会社,静岡県,沼津市,大岡２０３２番地の２レアールクボタ３０１,,22,203,4100022,,,2022-04-22,清算の結了等,,,2018-01-17,1,,,,,シェープインスペース,0
1704,6130001002869,登記記録の閉鎖等,0,2022-04-26,2022-04-20,株式会社錦聚苑,,株式会社,京都府,京都市上京区,猪熊通丸太町上る木屋之町４８５番地,,26,102,6028146,,,2022-04-20,清算の結了等,,,2015-10-05,1,,,,,キンジュエン,0
1717,6140001054570,登記記録の閉鎖等,0,2022-04-26,2022-04-21,株式会社ジーリズム,,株式会社,兵庫県,尼崎市,上ノ島町２丁目１６番１－１０２号,,28,202,6610014,,,2022-04-21,清算の結了等,,,2015-10-05,1,,,,,ジーリズム,0
1735,6180001147833,登記記録の閉鎖等,0,2022-04-26,2022-04-14,スマイルコンタクト株式会社,,株式会社,愛知県,北名古屋市,西之保立石３番地,,23,234,4810033,,,2022-04-14,清算の結了等,,,2021-09-16,1,,,,,スマイルコンタクト,0
1758,6220001021744,登記記録の閉鎖等,0,2022-04-26,2022-04-20,株式会社グリーンコップ金沢,,株式会社,石川県,金沢市,疋田２丁目１９番地,,17,201,9200003,,,2022-04-20,清算の結了等,,,2017-07-14,1,,,,,グリーンコップカナザワ,0
1799,6330001016089,登記記録の閉鎖等,0,2022-04-26,2022-04-13,味岡生コンクリート株式会社,,株式会社,熊本県,球磨郡多良木町,大字多良木１４４番地の１,,43,505,8680501,,,2022-04-13,合併による解散等,1330001016085,令和４年３月３１日熊本県球磨郡多良木町大字多良木１４４番地の１味岡建設株式会社（1330001016085）に合併し解散,2015-10-05,1,,,,,アジオカナマコンクリート,0
1805,6340001011122,登記記録の閉鎖等,0,2022-04-26,2022-04-22,株式会社アリキ,,株式会社,鹿児島県,鹿児島市,坂之上７丁目３１番２８号,,46,201,8910150,,,2022-04-22,清算の結了等,,,2015-10-05,1,,,,,アリキ,0
1808,6360001006847,登記記録の閉鎖等,0,2022-04-26,2022-04-11,デニッシュ・クラウン・フーズ・ジャパン株式会社,,株式会社,沖縄県,那覇市,久茂地３丁目１番１号日本生命那覇ビル９階,,47,201,9000015,,,2022-04-11,清算の結了等,,,2015-10-05,1,,,,,デニッシュクラウンフーズジャパン,0
1835,6450001009460,登記記録の閉鎖等,0,2022-04-26,2022-04-04,東海石油株式会社,,株式会社,北海道,紋別市,本町１丁目２番１号,,01,219,0940004,,,2022-04-04,合併による解散等,6450001008231,令和４年４月１日北海道稚内市港五丁目６番２８号日東水産株式会社（6450001008231）に合併し解散,2015-10-05,1,,,,,トウカイセキユ,0
1842,7010001208535,登記記録の閉鎖等,0,2022-04-26,2022-04-08,Ｅｏｓ株式会社,,株式会社,東京都,千代田区,永田町２丁目１４番２号山王グランドビル３階スリーアイズキャピタル株式会社内,,13,101,1000014,,,2022-04-08,清算の結了等,,,2020-03-25,1,,,,,エオス,0
1848,7010003028436,登記記録の閉鎖等,0,2022-04-26,2022-04-08,合同会社みょうほう,,合同会社,東京都,千代田区,霞が関３丁目２番５号,,13,101,1000013,,,2022-04-08,清算の結了等,,,2018-10-15,1,,,,,ミョウホウ,0
1871,7010502004144,登記記録の閉鎖等,0,2022-04-26,2022-04-22,有限会社駒木紙工所,,有限会社,東京都,台東区,台東３丁目３５番１号,,13,106,1100016,,,2022-04-22,清算の結了等,,,2015-10-05,1,,,,,コマキシコウショ,0
1874,7010702002708,登記記録の閉鎖等,0,2022-04-26,2022-04-15,有限会社ケイ・エス・オー,,有限会社,東京都,品川区,上大崎１丁目１０番２０号,,13,109,1410021,,,2022-04-15,清算の結了等,,,2015-10-05,1,,,,,ケイエスオー,0
1891,7011001069959,登記記録の閉鎖等,0,2022-04-26,2022-04-11,株式会社アヴァロンインベストメンツ,,株式会社,東京都,渋谷区,広尾１丁目８番５号グランシャルム広尾３２１,,13,113,1500012,,,2022-04-11,清算の結了等,,,2015-10-05,1,,,,,アバロンインベストメンツ,0
1916,7011702010188,登記記録の閉鎖等,0,2022-04-26,2022-04-22,有限会社古田金型製作所,,有限会社,東京都,江戸川区,平井７丁目２４番１１号,,13,123,1320035,,,2022-04-22,清算の結了等,,,2015-10-05,1,,,,,,0
1925,7013301036804,登記記録の閉鎖等,0,2022-04-26,2022-04-11,株式会社立教ライブラリーマネジメント,,株式会社,東京都,豊島区,西池袋５丁目１０番５号,,13,116,1710021,,,2022-04-11,合併による解散等,4013301031717,令和４年４月１日東京都豊島区西池袋五丁目１０番５号株式会社立教オフィスマネジメント（4013301031717）に合併し解散,2015-10-05,1,,,,,リッキョウライブラリーマネジメント,0
1928,7020001024072,登記記録の閉鎖等,0,2022-04-26,2022-04-18,日産商事株式会社,,株式会社,神奈川県,横浜市泉区,上飯田町１１２番１,,14,116,2450018,,,2022-04-18,合併による解散等,6020001046357,令和４年４月１日横浜市西区花咲町六丁目１３９番地神奈川日産自動車株式会社（6020001046357）に合併し解散,2015-10-05,1,,,,,ニッサンショウジ,0
1931,7020001074183,登記記録の閉鎖等,0,2022-04-26,2022-04-18,株式会社注連内,,株式会社,神奈川県,川崎市川崎区,京町１丁目１６番６号,,14,131,2100848,,,2022-04-18,清算の結了等,,,2015-10-05,1,,,,,シメノウチ,0
1948,7021002028772,登記記録の閉鎖等,0,2022-04-26,2022-04-20,有限会社井上,,有限会社,神奈川県,相模原市緑区,牧野１０６５２番地,,14,151,2520186,,,2022-04-20,清算の結了等,,,2015-10-05,1,,,,,イノウエ,0
1981,7060002021073,登記記録の閉鎖等,0,2022-04-26,2022-04-21,有限会社ユニオンモータース,,有限会社,栃木県,鹿沼市,奈佐原町６１３番地３,,09,205,3220528,,,2022-04-21,清算の結了等,,,2015-10-05,1,,,,,ユニオンモータース,0
2003,7120001156921,登記記録の閉鎖等,0,2022-04-26,2022-04-15,ユニオン空調工業株式会社,,株式会社,大阪府,守口市,寺方本通２丁目７番７号,,27,209,5700048,,,2022-04-15,清算の結了等,,,2015-10-05,1,,,,,,0
2034,7120901026975,登記記録の閉鎖等,0,2022-04-26,2022-04-25,株式会社ピジョンウェスト,,株式会社,大阪府,豊中市,中桜塚５丁目１９番３１号,,27,203,5610881,,,2022-04-25,清算の結了等,,,2015-10-05,1,,,,,,0
2039,7140001078701,登記記録の閉鎖等,0,2022-04-26,2022-04-21,株式会社中山製作所,,株式会社,兵庫県,伊丹市,東有岡３丁目４４番地,,28,207,6640845,,,2022-04-21,清算の結了等,,,2015-10-05,1,,,,,ナカヤマセイサクショ,0
2062,7180002017530,登記記録の閉鎖等,0,2022-04-26,2022-04-18,有限会社江口瓦店,,有限会社,愛知県,名古屋市中川区,五女子町５丁目８６番地,,23,110,4540034,,,2022-04-18,清算の結了等,,,2015-10-05,1,,,,,エグチカワラテン,0
2066,7180002065653,登記記録の閉鎖等,0,2022-04-26,2022-04-18,有限会社加納設備,,有限会社,愛知県,春日井市,美濃町２丁目１６８番地,,23,206,4860917,,,2022-04-18,清算の結了等,,,2015-10-05,1,,,,,カノウセツビ,0
2074,7180302028491,登記記録の閉鎖等,0,2022-04-26,2022-04-15,有限会社渋谷材木店,,有限会社,愛知県,新城市,玖老勢字森下１３番地,,23,221,4411945,,,2022-04-15,清算の結了等,,,2022-02-18,1,,,,,シブヤザイモクテン,0
2075,7180303004541,登記記録の閉鎖等,0,2022-04-26,2022-04-15,合同会社Ｈ・Ｓ・Ｃ,,合同会社,愛知県,豊川市,柑子町川原１６番地,,23,207,4420828,,,2022-04-15,清算の結了等,,,2020-02-07,1,,,,,エイチエスシー,0
2088,7240002050673,登記記録の閉鎖等,0,2022-04-26,2022-04-22,有限会社信誠技研,,有限会社,広島県,尾道市,西藤町１５１番地の２,,34,205,7290142,,,2022-04-22,清算の結了等,,,2015-10-05,1,,,,,,0
2094,7250002015345,登記記録の閉鎖等,0,2022-04-26,2022-04-15,丸高商事有限会社,,有限会社,山口県,周南市,入船町６番２７号,,35,215,7450047,,,2022-04-15,清算の結了等,,,2015-10-05,1,,,,,マルタカショウジ,0
2098,7270002006821,登記記録の閉鎖等,0,2022-04-26,2022-04-15,有限会社平木ふとん店,,有限会社,鳥取県,米子市,日原６１番地,,31,202,6830015,,,2022-04-15,清算の結了等,,,2015-10-05,1,,,,,ヒラキフトンテン,0
2110,7310002002519,登記記録の閉鎖等,0,2022-04-26,2022-04-25,有限会社白木食品,,有限会社,長崎県,長崎市,白木町３番１０号,,42,201,8500812,,,2022-04-25,清算の結了等,,,2015-10-05,1,,,,,シラキショクヒン,0
2141,7410005003438,登記記録の閉鎖等,0,2022-04-26,2022-04-08,医療法人笹村整形外科,,その他の設立登記法人,秋田県,鹿角市,花輪字扇ノ間７９番地,,05,209,0185201,,,2022-04-08,清算の結了等,,,2015-10-05,1,,,,,ササムラセイケイゲカ,0
2144,7430001035400,登記記録の閉鎖等,0,2022-04-26,2022-04-18,株式会社ワタベ機工,,株式会社,北海道,札幌市手稲区,新発寒三条２丁目４番１２号,,01,109,0060803,,,2022-04-18,清算の結了等,,,2015-10-05,1,,,,,ワタベキコウ,0
2151,7450002003321,登記記録の閉鎖等,0,2022-04-26,2022-04-25,有限会社タカシマ,,有限会社,北海道,上川郡当麻町,三条西３丁目１１番１０号,,01,454,0781303,,,2022-04-25,清算の結了等,,,2015-10-05,1,,,,,タカシマ,0
2174,8010401014697,登記記録の閉鎖等,0,2022-04-26,2022-04-06,株式会社新橋電機工業所,,株式会社,東京都,港区,浜松町２丁目６番８号,,13,103,1050013,,,2022-04-06,清算の結了等,,,2015-10-05,1,,,,,シンバシデンキコウギョウショ,0
2201,8010905000739,登記記録の閉鎖等,0,2022-04-26,2022-04-20,学校法人木下未来学園,,その他の設立登記法人,東京都,世田谷区,上馬４丁目１番６号,,13,112,1540011,,,2022-04-20,清算の結了等,,,2015-10-05,1,,,,,キノシタミライガクエン,0
2203,8011001070016,登記記録の閉鎖等,0,2022-04-26,2022-04-11,株式会社ターミナル,,株式会社,東京都,渋谷区,富ヶ谷１丁目４１番７号クリサンテ１００２,,13,113,1510063,,,2022-04-11,合併による解散等,9011001101356,令和４年３月３１日東京都渋谷区富ヶ谷一丁目４１番７号ＯｎＪａｐａｎ株式会社（9011001101356）に合併し解散,2015-10-05,1,,,,,,0
2211,8011101058687,登記記録の閉鎖等,0,2022-04-26,2022-04-22,株式会社クロスロード,,株式会社,東京都,新宿区,西新宿５丁目１２番１２号,,13,104,1600023,,,2022-04-22,清算の結了等,,,2015-10-05,1,,,,,クロスロード,0
2236,8013301042867,登記記録の閉鎖等,0,2022-04-26,2022-04-18,３Ｈホールディングス株式会社,,株式会社,東京都,豊島区,南池袋１丁目１３番２３号,,13,116,1710022,,,2022-04-18,合併による解散等,1013301022702,令和４年３月３１日東京都豊島区南池袋一丁目１３番２３号３Ｈクリニカルトライアル株式会社（1013301022702）に合併し解散,2018-10-03,1,,,,,スリーエイチホールディングス,0
2240,8020001054110,登記記録の閉鎖等,0,2022-04-26,2022-04-18,株式会社シーワイシー,,株式会社,神奈川県,横浜市栄区,笠間５丁目２８番３８－５０３号,,14,115,2470006,,,2022-04-18,清算の結了等,,,2015-10-05,1,,,,,シーワイシー,0
2249,8020001102587,登記記録の閉鎖等,0,2022-04-26,2022-04-19,株式会社Ｍエンタープライズ,,株式会社,神奈川県,横浜市鶴見区,鶴見中央３丁目５－１０－２０３,,14,101,2300051,,,2022-04-19,清算の結了等,,,2015-10-05,1,,,,,エムエンタープライズ,0
2280,8030001061147,登記記録の閉鎖等,0,2022-04-26,2022-04-18,株式会社サカガミ,,株式会社,埼玉県,本庄市,日の出４丁目５番３０号,,11,211,3670022,,,2022-04-18,清算の結了等,,,2015-10-05,1,,,,,サカガミ,0
2288,8030002095656,登記記録の閉鎖等,0,2022-04-26,2022-04-19,有限会社小川自動車観光サービス,,有限会社,埼玉県,比企郡ときがわ町,大字田中６２４番地１,,11,349,3550357,,,2022-04-19,清算の結了等,,,2015-10-05,1,,,,,オガワジドウシャカンコウサービス,0
2305,8060001007477,登記記録の閉鎖等,0,2022-04-26,2022-04-20,株式会社凌雲社,,株式会社,栃木県,宇都宮市,馬場通り３丁目１番１０号馬上ビル,,09,201,3200026,,,2022-04-20,清算の結了等,,,2015-10-05,1,,,,,リョウウンシャ,0
2323,8120002001860,登記記録の閉鎖等,0,2022-04-26,2022-04-20,有限会社玉水園茶舗,,有限会社,大阪府,大阪市西成区,千本北１丁目１１番３２号,,27,122,5570053,,,2022-04-20,清算の結了等,,,2015-10-05,1,,,,,ギョクスイエンチャホ,0
2402,8220001022963,登記記録の閉鎖等,0,2022-04-26,2022-04-19,株式会社ＭＳＫパワーズ,,株式会社,石川県,金沢市,神宮寺３丁目８番１４号,,17,201,9200806,,,2022-04-19,清算の結了等,,,2019-06-28,1,,,,,エムエスケーパワーズ,0
2407,8230001017756,登記記録の閉鎖等,0,2022-04-26,2022-04-22,アシスト人事株式会社,,株式会社,富山県,氷見市,栄町２５番９号,,16,205,9350005,,,2022-04-22,清算の結了等,,,2019-02-12,1,,,,,アシストジンジ,0
2412,8240001057280,登記記録の閉鎖等,0,2022-04-26,2022-04-18,呉エフエム放送株式会社,,株式会社,広島県,呉市,宝町４番４４号,,34,202,7370029,,,2022-04-18,清算の結了等,,,2021-01-21,1,,,,,クレエフエムホウソウ,0
2424,8290001066327,登記記録の閉鎖等,0,2022-04-26,2022-04-20,テールズモバイル株式会社,,株式会社,福岡県,福岡市博多区,博多駅前３丁目２６番２９号,,40,132,8120011,,,2022-04-20,清算の結了等,,,2015-10-05,1,,,,,テールズモバイル,0
2434,8300002010918,登記記録の閉鎖等,0,2022-04-26,2022-04-21,有限会社康洋汽船,,有限会社,佐賀県,唐津市,肥前町納所戊２０７番地１,,41,202,8471525,,,2022-04-21,清算の結了等,,,2015-10-05,1,,,,,コウヨウキセン,0
2441,8330001003052,登記記録の閉鎖等,0,2022-04-26,2022-04-14,株式会社ティア,,株式会社,熊本県,熊本市中央区,桜町１番３号,,43,101,8600805,,,2022-04-14,清算の結了等,,,2015-10-05,1,,,,,,0
2454,8380002025735,登記記録の閉鎖等,0,2022-04-26,2022-04-21,福芝システム有限会社,,有限会社,福島県,いわき市,内郷御厩町４丁目３２番地,00083972,07,204,9738402,,,2022-04-21,清算の結了等,,,2015-10-05,1,,,,,フクシバシステム,0
2455,8380002029802,登記記録の閉鎖等,0,2022-04-26,2022-04-20,昭工業有限会社,,有限会社,福島県,双葉郡双葉町,大字山田字下萩平２３番地,,07,546,9791431,,,2022-04-20,清算の結了等,,,2015-10-05,1,,,,,アキコウギョウ,0
2461,8420001012622,登記記録の閉鎖等,0,2022-04-26,2022-04-12,合同会社ユーラスエナジー尻労,,合同会社,青森県,下北郡東通村,大字岩屋字苦蕨平１番地４,,02,424,0350113,,,2022-04-12,合併による解散等,8420001012572,令和４年４月１日青森県下北郡東通村大字岩屋字苦蕨平１番地４合同会社ユーラス東通風力（8420001012572）に合併し解散,2015-10-05,1,,,,,ユーラスエナジーシツカリ,0
2462,8420002020038,登記記録の閉鎖等,0,2022-04-26,2022-04-22,有限会社エビスコーポレーション,,有限会社,青森県,むつ市,緑町１９番１６号,,02,208,0350053,,,2022-04-22,清算の結了等,,,2015-10-05,1,,,,,エビスコーポレーション,0
2463,8420003000336,登記記録の閉鎖等,0,2022-04-26,2022-04-22,合同会社スリーダイヤモンド保険,,合同会社,青森県,青森市,栄町２丁目８番１６号,,02,201,0300903,,,2022-04-22,清算の結了等,,,2015-10-05,1,,,,,スリーダイヤモンドホケン,0
2473,8430005013054,登記記録の閉鎖等,0,2022-04-26,2022-04-01,みなみ北海道農業共済組合,,その他の設立登記法人,北海道,札幌市中央区,北四条西１丁目１番地,,01,101,0600004,,,2022-04-01,合併による解散等,6430005014442,令和４年４月１日北海道深川市一条５番５号北海道中央農業共済組合（7450005004093）と北海道帯広市川西町基線５９番地２８十勝農業共済組合（5460105000349）と北海道標津郡中標津町西六条南十一丁目６番地１北海道ひがし農業共済組合（1460005001450）と北海道北見市美園４９７番地１オホーツク農業共済組合（6460305001311）と合併して札幌市中央区北四条西一丁目１番地北海道農業共済組合（6430005014442）を設立し解散,2017-03-09,1,,,,,ミナミホッカイドウ,0
2474,8460302004125,登記記録の閉鎖等,0,2022-04-26,2022-04-21,有限会社オノ,,有限会社,北海道,北見市,とん田西町２１８番地３６,,01,208,0900834,,,2022-04-21,清算の結了等,,,2015-10-05,1,,,,,オノ,0
2510,9010401157314,登記記録の閉鎖等,0,2022-04-26,2022-04-06,Ａ．Ｏ．Ｗｅａｌｔｈ　Ｍａｎａｇｅｍｅｎｔ株式会社,,株式会社,東京都,港区,南麻布５丁目２番３２号,,13,103,1060047,,,2022-04-06,清算の結了等,,,2020-12-25,1,,,,,エーオーウェルスマネジメント,0
2519,9010602024445,登記記録の閉鎖等,0,2022-04-26,2022-04-13,有限会社山洋重機,,有限会社,東京都,江東区,平野２丁目１６番２３号,,13,108,1350023,,,2022-04-13,清算の結了等,,,2015-10-05,1,,,,,サンヨウジュウキ,0
2575,9020001068596,登記記録の閉鎖等,0,2022-04-26,2022-04-18,株式会社睦屋大橋商店,,株式会社,神奈川県,川崎市宮前区,水沢１丁目１番１号,,14,136,2160012,,,2022-04-18,清算の結了等,,,2015-10-05,1,,,,,ムツミヤオオハシショウテン,0
2594,9030001026636,登記記録の閉鎖等,0,2022-04-26,2022-04-19,株式会社増島建鐵,,株式会社,埼玉県,狭山市,大字下奥富２０８８番地,,11,215,3501332,,,2022-04-19,清算の結了等,,,2015-10-05,1,,,,,マスジマケンテツ,0
2612,9040002072463,登記記録の閉鎖等,0,2022-04-26,2022-04-20,有限会社梅原自動車部品,,有限会社,千葉県,市原市,青柳２丁目７番地３,,12,219,2990102,,,2022-04-20,清算の結了等,,,2015-10-05,1,,,,,ウメハラジドウシャブヒン,0
2626,9080401018096,登記記録の閉鎖等,0,2022-04-26,2022-04-21,株式会社Ｅ－ＬＩＮＥ,,株式会社,静岡県,浜松市浜北区,高畑１２番地の１,,22,136,4340034,,,2022-04-21,清算の結了等,,,2015-10-05,1,,,,,イーライン,0
2630,9110001017635,登記記録の閉鎖等,0,2022-04-26,2022-04-22,株式会社ムラヤマ,,株式会社,新潟県,柏崎市,新橋７番３号,,15,205,9450056,,,2022-04-22,清算の結了等,,,2015-10-05,1,,,,,ムラヤマ,0
2636,9120001087891,登記記録の閉鎖等,0,2022-04-26,2022-04-20,株式会社ビーネット,,株式会社,大阪府,大阪市中央区,本町橋２番２３号,,27,128,5400029,,,2022-04-20,清算の結了等,,,2015-10-05,1,,,,,ビーネット,0
2644,9120001215130,登記記録の閉鎖等,0,2022-04-26,2022-04-14,株式会社ＤＭＵ,,株式会社,大阪府,大阪市中央区,安土町２丁目３番１３号,,27,128,5410052,,,2022-04-14,合併による解散等,8010401117310,令和４年３月３１日大阪市中央区安土町二丁目３番１３号株式会社ジンジブ（8010401117310）に合併し解散,2018-08-06,1,,,,,ディーエムユー,0
2671,9140001053157,登記記録の閉鎖等,0,2022-04-26,2022-04-21,ビルケア株式会社,,株式会社,兵庫県,西宮市,甲陽園西山町２番１１号,,28,204,6620017,,,2022-04-21,清算の結了等,,,2015-10-05,1,,,,,ビルケア,0
2683,9170001004289,登記記録の閉鎖等,0,2022-04-26,2022-04-22,株式会社キヨスクオペレーションサービス和歌山,,株式会社,和歌山県,和歌山市,黒田９９番地１２寺本興産第二ビル２Ｆ,,30,201,6408341,,,2022-04-22,合併による解散等,6140001055008,令和４年４月１日兵庫県尼崎市潮江一丁目２番１２号株式会社ジェイアール西日本デイリーサービスネット（6140001055008）に合併し解散,2015-10-05,1,,,,,キヨスクオペレーションサービスワカヤマ,0
2698,9180301027765,登記記録の閉鎖等,0,2022-04-26,2022-04-21,株式会社山口電工,,株式会社,愛知県,豊橋市,若松町字北ケ谷１６１番地の１,,23,201,4418123,,,2022-04-21,清算の結了等,,,2015-10-05,1,,,,,,0
2701,9180302026881,登記記録の閉鎖等,0,2022-04-26,2022-04-15,有限会社左右田鉄工,,有限会社,愛知県,刈谷市,稲場町６丁目８０６番地３,,23,210,4480038,,,2022-04-15,清算の結了等,,,2015-10-05,1,,,,,ソウダテッコウ,0
2705,9220001006032,登記記録の閉鎖等,0,2022-04-26,2022-04-20,株式会社ホクシン,,株式会社,石川県,金沢市,元町１丁目３番１７号,,17,201,9200842,,,2022-04-20,清算の結了等,,,2015-10-05,1,,,,,ホクシン,0
2724,9290002031007,登記記録の閉鎖等,0,2022-04-26,2022-04-19,有限会社アップス,,有限会社,福岡県,福岡市中央区,西公園９番２２号,,40,133,8100061,,,2022-04-19,清算の結了等,,,2015-10-05,1,,,,,アップス,0
2733,9320202001078,登記記録の閉鎖等,0,2022-04-26,2022-04-06,野津タクシー有限会社,,有限会社,大分県,臼杵市,野津町大字野津市６１番地の４,,44,206,8750201,,,2022-04-06,合併による解散等,1320201000022,令和４年３月３１日大分県臼杵市大字臼杵字洲崎７２番地の８９臼杵タクシー株式会社（1320201000022）に合併し解散,2015-10-05,1,,,,,,0
2734,9330001018883,登記記録の閉鎖等,0,2022-04-26,2022-04-13,株式会社ココロ・コーポレーション,,株式会社,熊本県,熊本市中央区,国府３丁目５番２４－８０１,,43,101,8620949,,,2022-04-13,清算の結了等,,,2015-10-05,1,,,,,ココロコーポレーション,0
2743,9370001009160,登記記録の閉鎖等,0,2022-04-26,2022-04-15,千賀薬品株式会社,,株式会社,宮城県,仙台市青葉区,木町通１丁目４番２３号,,04,101,9800801,,,2022-04-15,合併による解散等,3370001009422,令和４年４月１日仙台市青葉区木町通一丁目４番２３号徳生商事株式会社（3370001009422）に合併し解散,2015-10-05,1,,,,,チガヤクヒン,0
2744,9370001015002,登記記録の閉鎖等,0,2022-04-26,2022-04-13,株式会社教育計画,,株式会社,宮城県,仙台市青葉区,中央４丁目７番２２号,,04,101,9800021,,,2022-04-13,合併による解散等,6370001019526,令和４年４月５日仙台市青葉区中央四丁目７番２２号株式会社数理計画（6370001019526）に合併し解散,2015-10-05,1,,,,,キョウイクケイカク,0
