sequenceNumber,corporateNumber,process,correct,updateDate,changeDate,name,nameImageId,kind,prefectureName,cityName,streetNumber,addressImageId,prefectureCode,cityCode,postCode,addressOutside,addressOutsideImageId,closeDate,closeCause,successorCorporateNumber,changeCause,assignmentDate,latest,enName,enPrefectureName,enCityName,enAddressOutside,furigana,hihyoji
12,1010001256696,新規,0,2025-07-11,2025-07-11,株式会社ケンタウロス,,株式会社,東京都,千代田区,麹町１丁目６番地９,,13,101,1020083,,,,,,,2025-07-11,1,,,,,ケンタウロス,0
13,1010001256746,新規,0,2025-07-11,2025-07-11,Ｓｈａｍｕｒｏｋｋｕ　Ｐａｎ　Ｐａｃｉｆｉｃ株式会社,,株式会社,東京都,中央区,日本橋茅場町１丁目１３番２１号阪神ビル６階,,13,102,1030025,,,,,,,2025-07-11,1,,,,,シャムロックパンパシフィック,0
14,1010001256754,新規,0,2025-07-11,2025-07-11,ＣｈｅｅｒＳ株式会社,,株式会社,東京都,文京区,本郷３丁目４番５号２階,,13,105,1130033,,,,,,,2025-07-11,1,,,,,チアーズ,0
15,1010001256795,新規,0,2025-07-11,2025-07-11,株式会社福吉グループ,,株式会社,東京都,千代田区,神田神保町２丁目２６番地４マルニビル３０１,,13,101,1010051,,,,,,,2025-07-11,1,,,,,フクキチグループ,0
16,1010001256804,新規,0,2025-07-11,2025-07-11,株式会社エターナル,,株式会社,東京都,中央区,日本橋本町４丁目３番４号東海日本橋ビル６階,,13,102,1030023,,,,,,,2025-07-11,1,,,,,エターナル,0
17,1010001256812,新規,0,2025-07-11,2025-07-11,ＴｏｋｕｍａＬａｂｓ株式会社,,株式会社,東京都,中央区,日本橋茅場町１丁目８番１号３Ｆ３０３,,13,102,1030025,,,,,,,2025-07-11,1,,,,,トクマラボ,0
19,1010003047978,新規,0,2025-07-11,2025-07-11,合同会社Ｒｉｎｆｉｎｉｔｙ,,合同会社,東京都,中央区,月銀座一丁目２２番地１１号銀座大竹ビジデンス２Ｆ,,13,102,1030000,,,,,,,2025-07-11,1,,,,,リンフィニティ,0
20,1010003048002,新規,0,2025-07-11,2025-07-11,合同会社福栄商事,,合同会社,東京都,中央区,日本橋人形町１丁目１２－１１,,13,102,1030013,,,,,,,2025-07-11,1,,,,,フクエイショウジ,0
21,1010003048019,新規,0,2025-07-11,2025-07-11,合同会社オトアワセ,,合同会社,東京都,中央区,銀座１丁目１２番４号Ｎ＆ＥＢＬＤ．６Ｆ,,13,102,1040061,,,,,,,2025-07-11,1,,,,,オトアワセ,0
24,1010101016760,新規,0,2025-07-11,2025-07-11,株式会社Ｍｏｖｅ　ｏｎ,,株式会社,東京都,八王子市,暁町２丁目３４番３号,,13,201,1920043,,,,,,,2025-07-11,1,,,,,ムーブオン,0
25,1010103002610,新規,0,2025-07-11,2025-07-11,チューンファインドジャパン合同会社,,合同会社,東京都,八王子市,旭町４－２５－９０５,,13,201,1920083,,,,,,,2025-07-11,1,,,,,チューンファインドジャパン,0
29,1010401191659,新規,0,2025-07-11,2025-07-11,株式会社４ｏｎｅ’ｓ,,株式会社,東京都,港区,南青山５丁目４－２９南青山信和ビル４階,,13,103,1070062,,,,,,,2025-07-11,1,,,,,フォネス,0
30,1010401191675,新規,0,2025-07-11,2025-07-11,株式会社アンリホールディングス,,株式会社,東京都,港区,南麻布４丁目５番６３号,,13,103,1060047,,,,,,,2025-07-11,1,,,,,アンリホールディングス,0
31,1010401191683,新規,0,2025-07-11,2025-07-11,セブンズリーグ株式会社,,株式会社,東京都,港区,南麻布１丁目４番２１－２０１号ブランズ麻布十番,,13,103,1060047,,,,,,,2025-07-11,1,,,,,セブンズリーグ,0
32,1010401191700,新規,0,2025-07-11,2025-07-11,株式会社ＪＯＳＥＰＨＥ　ＲＯＳＥ,,株式会社,東京都,港区,南青山７丁目２番１０－２０３号,,13,103,1070062,,,,,,,2025-07-11,1,,,,,ジョゼフローズ,0
39,1010801036380,新規,0,2025-07-11,2025-07-11,株式会社三福商事,,株式会社,東京都,大田区,新蒲田３丁目２６番２号,,13,111,1440054,,,,,,,2025-07-11,1,,,,,サンフクショウジ,0
43,1010901057731,新規,0,2025-07-11,2025-07-11,株式会社ＣＬＡＲＴＥ,,株式会社,東京都,世田谷区,太子堂４丁目１８番１５号,,13,112,1540004,,,,,,,2025-07-11,1,,,,,クラルテ,0
44,1010901057748,新規,0,2025-07-11,2025-07-11,株式会社ｃｒｅａｔｉｖｅ　ｔｏｋｙｏ,,株式会社,東京都,世田谷区,太子堂４丁目１４番１２号,,13,112,1540004,,,,,,,2025-07-11,1,,,,,クリエイティブトウキョウ,0
48,1011001170391,新規,0,2025-07-11,2025-07-11,グローバルマーク株式会社,,株式会社,東京都,渋谷区,広尾５丁目４番１２号大成鋼機ビル４階,,13,113,1500012,,,,,,,2025-07-11,1,,,,,グローバルマーク,0
49,1011001170706,新規,0,2025-07-11,2025-07-11,株式会社Ｓｆｉｎｉｔｙ,,株式会社,東京都,渋谷区,道玄坂１丁目１０番８号渋谷道玄坂東急ビル２Ｆ－Ｃ,,13,113,1500043,,,,,,,2025-07-11,1,,,,,エスフィニティ,0
50,1011001170937,新規,0,2025-07-11,2025-07-11,ＧＭＯ家庭のコンパネ株式会社,,株式会社,東京都,渋谷区,道玄坂１丁目２番３号,,13,113,1500043,,,,,,,2025-07-11,1,,,,,ジーエムオーカテイノコンパネ,0
51,1011001170961,新規,0,2025-07-11,2025-07-11,株式会社ｅｍｉｌｉｅ,,株式会社,東京都,渋谷区,恵比寿１丁目１８番４号ヴィレッジイースト３Ｆ,,13,113,1500013,,,,,,,2025-07-11,1,,,,,エミリー,0
53,1011003021915,新規,0,2025-07-11,2025-07-11,ｂｕｄ　ｔｅｃｈ合同会社,,合同会社,東京都,渋谷区,神宮前６丁目２３番４号桑野ビル２階,,13,113,1500001,,,,,,,2025-07-11,1,,,,,バドテック,0
60,1011103016088,新規,0,2025-07-11,2025-07-11,合同会社ｇｉｒａｆｆｅ,,合同会社,東京都,新宿区,西新宿３丁目３番１３号西新宿水間ビル６階,,13,104,1600023,,,,,,,2025-07-11,1,,,,,ジラフ,0
66,1011501032298,新規,0,2025-07-11,2025-07-11,株式会社ＭＡＳＨＩＲＡ,,株式会社,東京都,北区,豊島８丁目４番８号コロナハイツ６０３号室,,13,117,1140003,,,,,,,2025-07-11,1,,,,,マシラ,0
67,1011501032307,新規,0,2025-07-11,2025-07-11,ＫＭＫ　ＦＩＴ株式会社,,株式会社,東京都,荒川区,南千住１丁目３６－１,,13,118,1160003,,,,,,,2025-07-11,1,,,,,ケーエムケーフィット,0
68,1011701028501,新規,0,2025-07-11,2025-07-11,株式会社ブリラントット,,株式会社,東京都,江戸川区,西瑞江３丁目３３番地１５６,,13,123,1320015,,,,,,,2025-07-11,1,,,,,ブリラントット,0
69,1011801046452,新規,0,2025-07-11,2025-07-11,でし株式会社,,株式会社,東京都,足立区,関原２丁目３１番９号,,13,121,1230852,,,,,,,2025-07-11,1,,,,,デシ,0
71,1012401043336,新規,0,2025-07-11,2025-07-11,株式会社Ｗｉｚａｒｄ　Ｌｉｆｅ,,株式会社,東京都,調布市,菊野台２丁目５７番地６,,13,208,1820007,,,,,,,2025-07-11,1,,,,,ウィザードライフ,0
75,1012801024101,新規,0,2025-07-11,2025-07-11,株式会社Ｗ．Ｅ．,,株式会社,東京都,東大和市,新堀２丁目１４９３－１４,,13,220,2070012,,,,,,,2025-07-11,1,,,,,ウィー,0
77,1013101009742,新規,0,2025-07-11,2025-07-11,株式会社国際人材支援機構,,株式会社,東京都,福生市,加美平２丁目３番地３浜名コーポ２０２,,13,218,1970012,,,,,,,2025-07-11,1,,,,,コクサイジンザイシエンキコウ,0
84,1020001163850,新規,0,2025-07-11,2025-07-11,株式会社ＦｕｋｕＦｕｋｕ,,株式会社,神奈川県,川崎市川崎区,駅前本町１８－１メルスサイトー７０２,,14,131,2100007,,,,,,,2025-07-11,1,,,,,フクフク,0
89,1021001085671,新規,0,2025-07-11,2025-07-11,株式会社施而美,,株式会社,神奈川県,大和市,下和田２３番地７,,14,213,2420015,,,,,,,2025-07-11,1,,,,,シジビ,0
90,1021001085705,新規,0,2025-07-11,2025-07-11,プラス電工株式会社,,株式会社,神奈川県,厚木市,下依知３丁目２１番１０号,,14,212,2430806,,,,,,,2025-07-11,1,,,,,プラスデンコウ,0
91,1021001085721,新規,0,2025-07-11,2025-07-11,株式会社ブルーフォレスト,,株式会社,神奈川県,相模原市緑区,町屋４丁目２２番７号,,14,151,2520101,,,,,,,2025-07-11,1,,,,,ブルーフォレスト,0
92,1021001085754,新規,0,2025-07-11,2025-07-11,株式会社Ｓｔｅｅｄ　Ｃｏｒｅ,,株式会社,神奈川県,伊勢原市,岡崎６８９６番地の３ラミーナＩ２０３号,00139901,14,214,2591135,,,,,,,2025-07-11,1,,,,,スティードコア,0
100,1030003027185,新規,0,2025-07-11,2025-07-11,合同会社スマホラボ,,合同会社,埼玉県,戸田市,中町２丁目１７番５－５１２号（コスモシティ戸田公園）,,11,224,3350012,,,,,,,2025-07-11,1,,,,,スマホラボ,0
104,1040001139543,新規,0,2025-07-11,2025-07-11,株式会社Ｙ　ＧＡＴＥ,,株式会社,千葉県,柏市,中央１丁目４－２８セントラルオークテナント２,,12,217,2770023,,,,,,,2025-07-11,1,,,,,ワイゲート,0
105,1040001139626,新規,0,2025-07-11,2025-07-11,株式会社アレグリア,,株式会社,千葉県,野田市,柳沢１４４番地の７,,12,208,2780006,,,,,,,2025-07-11,1,,,,,アレグリア,0
109,1040003028018,新規,0,2025-07-11,2025-07-11,Ｂｒｉｄｇｅ　Ｔｏｐ　Ｏｎｅ合同会社,,合同会社,千葉県,銚子市,前宿町６７５番地の５シャルム銚子１０３号室,,12,202,2880031,,,,,,,2025-07-11,1,,,,,ブリッジトップワン,0
110,1040003028026,新規,0,2025-07-11,2025-07-11,合同会社Ｎｓｔｙｌｅ,,合同会社,千葉県,我孫子市,緑１丁目４番１７号,,12,222,2701153,,,,,,,2025-07-11,1,,,,,エヌスタイル,0
118,1070001043148,新規,0,2025-07-11,2025-07-11,株式会社ＢｕｄｄｉＣａｒｅ,,株式会社,群馬県,前橋市,大手町２丁目１５番８号首都圏ＮＳプラザｉｎ前橋２１００号室,,10,201,3710026,,,,,,,2025-07-11,1,,,,,バディケア,0
119,1070003005988,新規,0,2025-07-11,2025-07-11,合同会社スリーアイテム,,合同会社,群馬県,高崎市,上大類町１１５６番地１,,10,202,3700031,,,,,,,2025-07-11,1,,,,,スリーアイテム,0
121,1080001027034,新規,0,2025-07-11,2025-07-11,株式会社アーチ,,株式会社,静岡県,静岡市葵区,新間６７０番地の２７,,22,101,4211201,,,,,,,2025-07-11,1,,,,,アーチ,0
124,1090003002851,新規,0,2025-07-11,2025-07-11,合同会社佐藤,,合同会社,山梨県,南都留郡鳴沢村,１８０１番地,,19,429,4010320,,,,,,,2025-07-11,1,,,,,,0
132,1120001277376,新規,0,2025-07-11,2025-07-11,株式会社ＢＥ　ｃｌｏｃｋ,,株式会社,大阪府,大阪市中央区,内本町２丁目４番１６号オフィスポート内本町５階５１０号室,,27,128,5400026,,,,,,,2025-07-11,1,,,,,ビークロック,0
133,1120001277698,新規,0,2025-07-11,2025-07-11,株式会社Ｌｉｎｏ　Ｂｌｏｏｍ,,株式会社,大阪府,大阪市北区,梅田１丁目１－３大阪駅前第３ビル２９階１－１－１号室,,27,127,5300001,,,,,,,2025-07-11,1,,,,,リノブルーム,0
134,1120001277806,新規,0,2025-07-11,2025-07-11,株式会社ＲＯＭＡＮＣＥ　ＤＡＷＮ,,株式会社,大阪府,大阪市中央区,西心斎橋１丁目１６番７号サザンウエストビル１Ａ,,27,128,5420086,,,,,,,2025-07-11,1,,,,,ロマンスドーン,0
135,1120001277830,新規,0,2025-07-11,2025-07-11,株式会社ＳＪ　Ｂｕｉｌｄ,,株式会社,大阪府,大阪市東住吉区,杭全２丁目１番１５号,,27,121,5460002,,,,,,,2025-07-11,1,,,,,エスジェイビルド,0
139,1120003029825,新規,0,2025-07-11,2025-07-11,合同会社ヴァーストゥ,,合同会社,大阪府,門真市,新橋町５番３４号東ビル１階,,27,223,5710048,,,,,,,2025-07-11,1,,,,,ヴァーストゥ,0
140,1120003029916,新規,0,2025-07-11,2025-07-11,合同会社ネクスト,,合同会社,大阪府,大阪市北区,本庄東３丁目１０番１４－１２０４号,,27,127,5310074,,,,,,,2025-07-11,1,,,,,ネクスト,0
143,1120101072090,新規,0,2025-07-11,2025-07-11,株式会社Ｓｏｗａ,,株式会社,大阪府,河内長野市,荘園町３３番１３号,,27,216,5860093,,,,,,,2025-07-11,1,,,,,ソウワ,0
144,1120103006567,新規,0,2025-07-11,2025-07-11,合同会社ＭｏｏｎＬｉｇｈｔＦｒｕｉｔ,,合同会社,大阪府,和泉市,仏並町１３１０番地,,27,219,5941136,,,,,,,2025-07-11,1,,,,,ムーンライトフルーツ,0
148,1122003003248,新規,0,2025-07-11,2025-07-11,合同会社ｉｒｉｓ,,合同会社,大阪府,東大阪市,西堤楠町３丁目４－１９,,27,227,5770047,,,,,,,2025-07-11,1,,,,,イーリス,0
149,1130001080044,新規,0,2025-07-11,2025-07-11,株式会社ラプラス,,株式会社,京都府,京都市下京区,西洞院通綾小路下る西入綾西洞院町７４１番地９,,26,106,6008474,,,,,,,2025-07-11,1,,,,,ラプラス,0
158,1140001139228,新規,0,2025-07-11,2025-07-11,株式会社Ｋ　ＷＩＮＧ,,株式会社,兵庫県,芦屋市,東芦屋町２５番３９号,00139905,28,206,6590095,,,,,,,2025-07-11,1,,,,,ケーウィング,0
159,1160001026886,新規,0,2025-07-11,2025-07-11,株式会社ハクタニ,,株式会社,滋賀県,野洲市,久野部３５番地シャーメゾンフェヴリエＢ２０３号,,25,210,5202353,,,,,,,2025-07-11,1,,,,,ハクタニ,0
166,1180001167588,新規,0,2025-07-11,2025-07-11,株式会社レーヴワルツ,,株式会社,愛知県,名古屋市千種区,星が丘山手１３０１番地エルザ星ケ丘１００１号,,23,101,4640808,,,,,,,2025-07-11,1,,,,,レーヴワルツ,0
167,1180001167679,新規,0,2025-07-11,2025-07-11,株式会社メゾンルイズ,,株式会社,愛知県,春日井市,東野町４丁目１番地２,,23,206,4860817,,,,,,,2025-07-11,1,,,,,メゾンルイズ,0
168,1180001167687,新規,0,2025-07-11,2025-07-11,フクトク相互株式会社,,株式会社,愛知県,春日井市,中央台４丁目１番地３、２１６号棟５０１号室,,23,206,4870011,,,,,,,2025-07-11,1,,,,,フクトクソウゴ,0
169,1180001167704,新規,0,2025-07-11,2025-07-11,株式会社スラッシュキャリア,,株式会社,愛知県,名古屋市西区,名駅２丁目２７番８号名古屋プライムセントラルタワー３階,,23,104,4510045,,,,,,,2025-07-11,1,,,,,スラッシュキャリア,0
170,1180001167737,新規,0,2025-07-11,2025-07-11,ＷｅａｖｅＬｉｆｅ株式会社,,株式会社,愛知県,名古屋市中村区,名駅３丁目４－１０アルティメイト名駅１ｓｔ２階,,23,105,4500002,,,,,,,2025-07-11,1,,,,,ウィーヴライフ,0
172,1180003028739,新規,0,2025-07-11,2025-07-11,合同会社トキノネコ,,合同会社,愛知県,名古屋市中村区,名駅３丁目４－１０アルティメイト名駅１ｓｔ２階,,23,105,4500002,,,,,,,2025-07-11,1,,,,,トキノネコ,0
173,1180005021147,新規,0,2025-07-11,2025-07-11,医療法人直心会,,その他の設立登記法人,愛知県,愛知郡東郷町,大字春木字上正葉廻間１３番地１,,23,302,4700162,,,,,,,2025-07-11,1,,,,,ジキシンカイ,0
174,1190001032386,新規,0,2025-07-11,2025-07-11,株式会社たなかｆａｒｍ,,株式会社,三重県,鈴鹿市,甲斐町１９１番地の２,,24,207,5130021,,,,,,,2025-07-11,1,,,,,タナカファーム,0
177,1200001044009,新規,0,2025-07-11,2025-07-11,株式会社タクト,,株式会社,岐阜県,岐阜市,錦町６丁目３３番地１,,21,201,5008331,,,,,,,2025-07-11,1,,,,,タクト,0
185,1220001026797,新規,0,2025-07-11,2025-07-11,株式会社植正,,株式会社,石川県,金沢市,南四十万１丁目１２０番地,,17,201,9218134,,,,,,,2025-07-11,1,,,,,ウエマサ,0
188,1230001020997,新規,0,2025-07-11,2025-07-11,株式会社インドアエンジニア,,株式会社,富山県,砺波市,三郎丸３４番地１５,,16,208,9391308,,,,,,,2025-07-11,1,,,,,インドアエンジニア,0
191,1240001065224,新規,0,2025-07-11,2025-07-11,株式会社ＳＰやまゆう,,株式会社,広島県,広島市安佐南区,東原１丁目１６番１号,,34,105,7310112,,,,,,,2025-07-11,1,,,,,エスピーヤマユウ,0
192,1240003007298,新規,0,2025-07-11,2025-07-11,ドリーム合同会社,,合同会社,広島県,福山市,駅家町大字倉光２４９番地６,,34,207,7201132,,,,,,,2025-07-11,1,,,,,ドリーム,0
199,1250001021242,新規,0,2025-07-11,2025-07-11,プラタ株式会社,,株式会社,山口県,周南市,久米中央１丁目１２番５号,,35,215,7450809,,,,,,,2025-07-11,1,,,,,プラタ,0
208,1290001110644,新規,0,2025-07-11,2025-07-11,株式会社ジチタイリンク,,株式会社,福岡県,福岡市中央区,薬院１丁目１４番５号ＭＧ薬院ビル,,40,133,8100022,,,,,,,2025-07-11,1,,,,,ジチタイリンク,0
209,1290001110677,新規,0,2025-07-11,2025-07-11,莱斯株式会社,,株式会社,福岡県,福岡市東区,和白４丁目２７番９－１０１号,,40,131,8110202,,,,,,,2025-07-11,1,,,,,ライシ,0
214,1290803005100,新規,0,2025-07-11,2025-07-11,合同会社ＢｌｕｅＭｏｏｎ,,合同会社,福岡県,北九州市八幡西区,大畑町１２番地７号,,40,109,8060053,,,,,,,2025-07-11,1,,,,,ブルームーン,0
218,1310005008865,新規,0,2025-07-11,2025-07-11,一般社団法人ｓｅｅｄ,,その他の設立登記法人,長崎県,佐世保市,広田３丁目２５－４２,,42,202,8593223,,,,,,,2025-07-11,1,,,,,シード,0
220,1330001033386,新規,0,2025-07-11,2025-07-11,株式会社ばりきや,,株式会社,熊本県,荒尾市,下井出１６１６番地６７,,43,204,8640000,,,,,,,2025-07-11,1,,,,,バリキヤ,0
221,1330001033394,新規,0,2025-07-11,2025-07-11,株式会社サグ・ライフ,,株式会社,熊本県,上益城郡嘉島町,大字鯰１０９９番地１,,43,442,8613101,,,,,,,2025-07-11,1,,,,,サグライフ,0
229,1380001035428,新規,0,2025-07-11,2025-07-11,株式会社ファーストフーズ・シバセンホールディングス,,株式会社,福島県,福島市,飯坂町平野字中荒田７番地の１,,07,201,9600231,,,,,,,2025-07-11,1,,,,,ファーストフーズシバセンホールディングス,0
231,1390001018051,新規,0,2025-07-11,2025-07-11,アーテック株式会社,,株式会社,山形県,山形市,飯塚町字岡９０７番地５,,06,201,9900845,,,,,,,2025-07-11,1,,,,,アーテック,0
243,1480003002283,新規,0,2025-07-11,2025-07-11,合同会社ＫＧＳ,,合同会社,徳島県,徳島市,新浜本町１丁目６番３２号水口マンション１０５号室,,36,201,7708007,,,,,,,2025-07-11,1,,,,,ケージーエス,0
255,2010001256646,新規,0,2025-07-11,2025-07-11,株式会社メタクラフターズファクトリー,,株式会社,東京都,千代田区,神田佐久間町１丁目８番地４アルテール秋葉原７０８,,13,101,1010025,,,,,,,2025-07-11,1,,,,,メタクラフターズファクトリー,0
256,2010001256687,新規,0,2025-07-11,2025-07-11,ＴＯＨＯＳＡ株式会社,,株式会社,東京都,文京区,後楽１丁目５番３号,,13,105,1120004,,,,,,,2025-07-11,1,,,,,トホサ,0
263,2010003048001,新規,0,2025-07-11,2025-07-11,合同会社ｍ＆ｓ　ＬＬＣ,,合同会社,東京都,千代田区,神田須田町１丁目７番８号ＶＯＲＴ秋葉原ＩＶ２Ｆ,00139904,13,101,1010041,,,,,,,2025-07-11,1,,,,,エムアンドエスエルエルシー,0
273,2010401191501,新規,0,2025-07-11,2025-07-11,エンジェルナビ・キャピタル株式会社,,株式会社,東京都,港区,芝浦１丁目９番７号,,13,103,1050023,,,,,,,2025-07-11,1,,,,,エンジェルナビキャピタル,0
274,2010401191658,新規,0,2025-07-11,2025-07-11,株式会社ＬＭ,,株式会社,東京都,港区,六本木３丁目１６番１２号六本木ＫＳビル５Ｆ,,13,103,1060032,,,,,,,2025-07-11,1,,,,,エルエム,0
275,2010401191682,新規,0,2025-07-11,2025-07-11,株式会社まえかぶ,,株式会社,東京都,港区,六本木３丁目１６番１２号六本木ＫＳビル５Ｆ,,13,103,1060032,,,,,,,2025-07-11,1,,,,,マエカブ,0
276,2010401191699,新規,0,2025-07-11,2025-07-11,株式会社ミエール,,株式会社,東京都,港区,新橋２丁目２０番１５号新橋駅前ビル１号館２０９号室,,13,103,1050004,,,,,,,2025-07-11,1,,,,,ミエール,0
277,2010401191757,新規,0,2025-07-11,2025-07-11,株式会社プラスセキュリティ,,株式会社,東京都,港区,六本木３丁目１６番１２号六本木ＫＳビル５階,,13,103,1060032,,,,,,,2025-07-11,1,,,,,プラスセキュリティ,0
278,2010403035581,新規,0,2025-07-11,2025-07-11,芝浦カナルオフィス合同会社,,合同会社,東京都,港区,浜松町２丁目２－１５ダイヤビル２階,,13,103,1050013,,,,,,,2025-07-11,1,,,,,シバウラカナルオフィス,0
281,2010701047972,新規,0,2025-07-11,2025-07-11,ＮＶＡ　Ｇｒｏｕｐ　ｈｏｌｄｉｎｇｓ株式会社,,株式会社,東京都,品川区,戸越３丁目８番２号,,13,109,1420041,,,,,,,2025-07-11,1,,,,,エヌブイエーグループホールディングス,0
282,2010901057730,新規,0,2025-07-11,2025-07-11,株式会社ニュートラルエンタテインメント,,株式会社,東京都,世田谷区,北沢１丁目３８番１４号しょうわ下北ビル２階スタートアップしもきたコワーキングスペース,,13,112,1550031,,,,,,,2025-07-11,1,,,,,ニュートラルエンタテインメント,0
283,2010901057739,新規,0,2025-07-11,2025-07-11,株式会社Ｂｉｚ‐Ｍａｅｓｔｒｏ,,株式会社,東京都,世田谷区,弦巻５丁目２２番３号,,13,112,1540016,,,,,,,2025-07-11,1,,,,,ビズマエストロ,0
285,2010903010092,新規,0,2025-07-11,2025-07-11,合同会社ＡｃｔＰｌｕｓ,,合同会社,東京都,世田谷区,北沢２丁目１９番１６号コスモ下北沢３Ｆ,,13,112,1550031,,,,,,,2025-07-11,1,,,,,アクトプラス,0
293,2011001170622,新規,0,2025-07-11,2025-07-11,株式会社らしく,,株式会社,東京都,渋谷区,道玄坂１丁目１０番８号渋谷道玄坂東急ビル２Ｆ－Ｃ,,13,113,1500043,,,,,,,2025-07-11,1,,,,,ラシク,0
294,2011001170639,新規,0,2025-07-11,2025-07-11,株式会社Ｎｅｗ　Ｐｌａｎｅｔ,,株式会社,東京都,渋谷区,道玄坂１丁目１０番８号渋谷道玄坂東急ビル２Ｆ－Ｃ,,13,113,1500043,,,,,,,2025-07-11,1,,,,,ニュープラネット,0
295,2011001170671,新規,0,2025-07-11,2025-07-11,日々のハコ株式会社,,株式会社,東京都,渋谷区,恵比寿２丁目３－４,,13,113,1500013,,,,,,,2025-07-11,1,,,,,ヒビノハコ,0
296,2011001170936,新規,0,2025-07-11,2025-07-11,ＧＭＯ少額短期設立準備株式会社,,株式会社,東京都,渋谷区,道玄坂１丁目２番３号,,13,113,1500043,,,,,,,2025-07-11,1,,,,,ジーエムオーショウガクタンキセツリツジュンビ,0
297,2011001170944,新規,0,2025-07-11,2025-07-11,株式会社レイクビュー・アベニュー,,株式会社,東京都,渋谷区,道玄坂１丁目１０番８号渋谷道玄坂東急ビル２Ｆ－Ｃ,,13,113,1500043,,,,,,,2025-07-11,1,,,,,レイクビューアベニュー,0
298,2011001170960,新規,0,2025-07-11,2025-07-11,Ｔｏｗａ　Ｓｔｅｌｌａｒ株式会社,,株式会社,東京都,渋谷区,道玄坂１丁目１０番８号渋谷道玄坂東急ビル２Ｆ－Ｃ,,13,113,1500043,,,,,,,2025-07-11,1,,,,,トワステラー,0
299,2011001171125,新規,0,2025-07-11,2025-07-11,株式会社Ｐｉｃｏｒｅａ,,株式会社,東京都,渋谷区,宇田川町４０番１号,,13,113,1500042,,,,,,,2025-07-11,1,,,,,ピコリア,0
300,2011001171216,新規,0,2025-07-11,2025-07-11,株式会社ＥＴＥＬＩＯ,,株式会社,東京都,渋谷区,道玄坂１丁目１０番８号渋谷道玄坂東急ビル２Ｆ－Ｃ,,13,113,1500043,,,,,,,2025-07-11,1,,,,,エテリオ,0
302,2011003021988,新規,0,2025-07-11,2025-07-11,合同会社Ｒｅｌｌｅｃｔ,,合同会社,東京都,渋谷区,道玄坂１丁目１０－８渋谷道玄坂東急ビル２Ｆ－Ｃ,,13,113,1500043,,,,,,,2025-07-11,1,,,,,リレクト,0
303,2011101112367,新規,0,2025-07-11,2025-07-11,株式会社ａｍ　ｗｏｒｋｓ,,株式会社,東京都,新宿区,中落合２丁目１２番２３号中銀落合マンション６０２,,13,104,1610032,,,,,,,2025-07-11,1,,,,,エーエムワークス,0
305,2011103016120,新規,0,2025-07-11,2025-07-11,Ｎｅｘｔ　ｉｎｎｏｖａｔｉｏＮ合同会社,,合同会社,東京都,新宿区,西新宿３丁目３番１３号西新宿水間ビル２Ｆ,,13,104,1600023,,,,,,,2025-07-11,1,,,,,ネクストイノベーション,0
306,2011301030716,新規,0,2025-07-11,2025-07-11,株式会社えみけん,,株式会社,東京都,杉並区,和泉４丁目４３番２号,,13,115,1680063,,,,,,,2025-07-11,1,,,,,エミケン,0
311,2011501032306,新規,0,2025-07-11,2025-07-11,株式会社ＣＡＬＤＯ,,株式会社,東京都,荒川区,荒川４丁目９－５アーバンハウス宮地６０１,,13,118,1160002,,,,,,,2025-07-11,1,,,,,カルド,0
323,2012401043310,新規,0,2025-07-11,2025-07-11,株式会社いてふ,,株式会社,東京都,三鷹市,牟礼６丁目１番８号,,13,204,1810002,,,,,,,2025-07-11,1,,,,,イテフ,0
325,2013101009741,新規,0,2025-07-11,2025-07-11,ＴＯＭＯＳＵ株式会社,,株式会社,東京都,青梅市,今寺２丁目５５９－１０,,13,205,1980021,,,,,,,2025-07-11,1,,,,,トモス,0
339,2021001085704,新規,0,2025-07-11,2025-07-11,株式会社御手洗塗装,,株式会社,神奈川県,厚木市,中荻野７３６番地５,,14,212,2430202,,,,,,,2025-07-11,1,,,,,ミタライトソウ,0
341,2021005013396,新規,0,2025-07-11,2025-07-11,一般社団法人ＷＩＬＤ　ＨＡＲＶＥＳＴ　ＷＯＲＫＳ,,その他の設立登記法人,神奈川県,綾瀬市,深谷上７丁目１４番３号,,14,218,2521108,,,,,,,2025-07-11,1,,,,,ワイルドハーベストワークス,0
342,2030001167627,新規,0,2025-07-11,2025-07-11,オネストパーフェクト株式会社,,株式会社,埼玉県,川口市,元郷４丁目８番２６号,,11,203,3320011,,,,,,,2025-07-11,1,,,,,オネストパーフェクト,0
343,2030003027192,新規,0,2025-07-11,2025-07-11,アルフォコミュニティ合同会社,,合同会社,埼玉県,鶴ヶ島市,大字上広谷１７６－１３コムステージ３０３,,11,241,3502203,,,,,,,2025-07-11,1,,,,,アルフォコミュニティ,0
351,2040001139526,新規,0,2025-07-11,2025-07-11,株式会社ＫＹＭ,,株式会社,千葉県,鎌ケ谷市,東道野辺７丁目１８番２号,,12,224,2730115,,,,,,,2025-07-11,1,,,,,ケイワイエム,0
352,2040001139583,新規,0,2025-07-11,2025-07-11,株式会社ＢＰ　ＤＥＳＩＧＮ,,株式会社,千葉県,船橋市,前原東１丁目１５番２２号,,12,204,2740824,,,,,,,2025-07-11,1,,,,,ビーピーデザイン,0
353,2040003028025,新規,0,2025-07-11,2025-07-11,ＡＡＲＢＩ合同会社,,合同会社,千葉県,我孫子市,並木７丁目３番２８号,,12,222,2701165,,,,,,,2025-07-11,1,,,,,アルビ,0
355,2050001056869,新規,0,2025-07-11,2025-07-11,株式会社釋學館,,株式会社,茨城県,つくば市,天久保１丁目１３－１三洋ロジュマン４０４号,,08,220,3050005,,,,,,,2025-07-11,1,,,,,,0
356,2050001056893,新規,0,2025-07-11,2025-07-11,株式会社猪野工業,,株式会社,茨城県,結城市,新福寺６丁目４番地１５,,08,207,3070053,,,,,,,2025-07-11,1,,,,,イノコウギョウ,0
357,2050001056919,新規,0,2025-07-11,2025-07-11,株式会社スカインフィー,,株式会社,茨城県,那珂市,菅谷２３６６番地１ＴＮＢ第二ビル３０１,,08,226,3110105,,,,,,,2025-07-11,1,,,,,スカインフィー,0
358,2050001056927,新規,0,2025-07-11,2025-07-11,みらいばーす株式会社,,株式会社,茨城県,守谷市,中央１丁目１１番地１３,,08,224,3020115,,,,,,,2025-07-11,1,,,,,ミライバース,0
360,2060001038395,新規,0,2025-07-11,2025-07-11,株式会社大京,,株式会社,栃木県,佐野市,高砂町８６番地,,09,204,3270022,,,,,,,2025-07-11,1,,,,,ダイキョウ,0
364,2070001043139,新規,0,2025-07-11,2025-07-11,株式会社上州労務サポート,,株式会社,群馬県,高崎市,上大類町４８８番地１ハイツマルヤマ２０１,,10,202,3700031,,,,,,,2025-07-11,1,,,,,ジョウシュウロウムサポート,0
369,2080001027033,新規,0,2025-07-11,2025-07-11,田園村株式会社,,株式会社,静岡県,静岡市清水区,本郷町１０番２５－８０１号,,22,103,4240814,,,,,,,2025-07-11,1,,,,,デンエンムラ,0
370,2080101025647,新規,0,2025-07-11,2025-07-11,株式会社オーシャン,,株式会社,静岡県,三島市,壱町田１０４番地の１シャリエ三島壱町田４０７,,22,206,4110025,,,,,,,2025-07-11,1,,,,,オーシャン,0
375,2090003002859,新規,0,2025-07-11,2025-07-11,合同会社スケッチラボ,,合同会社,山梨県,笛吹市,八代町北４４１番地３,,19,211,4060821,,,,,,,2025-07-11,1,,,,,スケッチラボ,0
379,2100001038754,新規,0,2025-07-11,2025-07-11,株式会社いじりや,,株式会社,長野県,飯田市,上郷別府３３７６番地２,,20,205,3950003,,,,,,,2025-07-11,1,,,,,イジリヤ,0
384,2110001039421,新規,0,2025-07-11,2025-07-11,株式会社ＣＨＩＮＡＭＩＥ,,株式会社,新潟県,加茂市,仲町１番１９号,,15,209,9591351,,,,,,,2025-07-11,1,,,,,チナミエ,0
389,2120001277680,新規,0,2025-07-11,2025-07-11,Ｌｉｂｅｎｅｓｔ株式会社,,株式会社,大阪府,大阪市東住吉区,南田辺１丁目３番１６号,,27,121,5460033,,,,,,,2025-07-11,1,,,,,リベネスト,0
390,2120001277730,新規,0,2025-07-11,2025-07-11,株式会社コトウリ,,株式会社,大阪府,大阪市中央区,船場中央１丁目３番２－１０１号大阪デザインセンター内,,27,128,5410055,,,,,,,2025-07-11,1,,,,,コトウリ,0
391,2120001277739,新規,0,2025-07-11,2025-07-11,Ｌｏｇ株式会社,,株式会社,大阪府,大阪市阿倍野区,阪南町５丁目４番２８ファイブコート阪南町７号,,27,119,5450021,,,,,,,2025-07-11,1,,,,,ログ,0
392,2120001277747,新規,0,2025-07-11,2025-07-11,株式会社ストラテジア,,株式会社,大阪府,大阪市北区,梅田１丁目１－３大阪駅前第３ビル２９階１－１－１号室,,27,127,5300001,,,,,,,2025-07-11,1,,,,,ストラテジア,0
393,2120001277755,新規,0,2025-07-11,2025-07-11,株式会社オール・フォー・ワン,,株式会社,大阪府,大阪市北区,梅田１丁目２番２号大阪駅前第２ビル１２－１２,,27,127,5300001,,,,,,,2025-07-11,1,,,,,オールフォーワン,0
394,2120001277805,新規,0,2025-07-11,2025-07-11,小満株式会社,,株式会社,大阪府,大阪市生野区,新今里６丁目３－１０エクラ新今里２０２,,27,116,5440001,,,,,,,2025-07-11,1,,,,,ショウマン,0
395,2120001277821,新規,0,2025-07-11,2025-07-11,株式会社Ｓ　Ｉｎｃ,,株式会社,大阪府,大阪市中央区,南久宝寺町３丁目１番３号２階,,27,128,5410058,,,,,,,2025-07-11,1,,,,,エスインク,0
397,2120003029989,新規,0,2025-07-11,2025-07-11,ＰＧＳコンサルティング合同会社,,合同会社,大阪府,大阪市西区,京町堀１丁目１１番７号京旺ビル４階Ｂ号室,,27,106,5500003,,,,,,,2025-07-11,1,,,,,ピージーエスコンサルティング,0
399,2120101072073,新規,0,2025-07-11,2025-07-11,株式会社フルサワでんき,,株式会社,大阪府,羽曳野市,碓井１丁目２番８号,,27,222,5830851,,,,,,,2025-07-11,1,,,,,フルサワデンキ,0
400,2120101072081,新規,0,2025-07-11,2025-07-11,株式会社クラタ,,株式会社,大阪府,貝塚市,畠中２丁目１４番８号,,27,208,5970072,,,,,,,2025-07-11,1,,,,,クラタ,0
401,2120103006558,新規,0,2025-07-11,2025-07-11,シン・コーポレーション合同会社,,合同会社,大阪府,堺市北区,百舌鳥梅町１丁２番２７号,,27,146,5918032,,,,,,,2025-07-11,1,,,,,シンコーポレーション,0
402,2120103006566,新規,0,2025-07-11,2025-07-11,合同会社ゆう,,合同会社,大阪府,泉佐野市,鶴原２１９番地の７,,27,213,5980071,,,,,,,2025-07-11,1,,,,,ユウ,0
409,2130001080027,新規,0,2025-07-11,2025-07-11,株式会社石水,,株式会社,京都府,京都市西京区,嵐山内田町４３番地３フローレンス京都４０２,,26,111,6160027,,,,,,,2025-07-11,1,,,,,セキスイ,0
415,2150001028263,新規,0,2025-07-11,2025-07-11,株式会社ＮＴＣ,,株式会社,奈良県,奈良市,あやめ池南７丁目８８１番地の７,,29,201,6310033,,,,,,,2025-07-11,1,,,,,エヌティーシー,0
417,2150003003652,新規,0,2025-07-11,2025-07-11,合同会社ヴァレ,,合同会社,奈良県,大和高田市,礒野新町１－３,,29,202,6350063,,,,,,,2025-07-11,1,,,,,ヴァレ,0
420,2180001167595,新規,0,2025-07-11,2025-07-11,株式会社インフリンク,,株式会社,愛知県,名古屋市熱田区,三番町４番２５号,,23,109,4560056,,,,,,,2025-07-11,1,,,,,,0
421,2180001167637,新規,0,2025-07-11,2025-07-11,株式会社グレイスターベース,,株式会社,愛知県,名古屋市中区,丸の内３丁目２３番２０号,,23,106,4600002,,,,,,,2025-07-11,1,,,,,グレイスターベース,0
422,2180001167645,新規,0,2025-07-11,2025-07-11,株式会社暮らしのサポート,,株式会社,愛知県,名古屋市中村区,名駅３丁目４番１０号,,23,105,4500002,,,,,,,2025-07-11,1,,,,,クラシノサポート,0
423,2180001167703,新規,0,2025-07-11,2025-07-11,ｌｉｔｔｌｅ．Ｐ株式会社,,株式会社,愛知県,稲沢市,平苅田町１２７番地１,,23,220,4928336,,,,,,,2025-07-11,1,,,,,リトルピー,0
424,2180001167711,新規,0,2025-07-11,2025-07-11,株式会社ＧＬＡＮＺ　ＭＡＲＩＮ,,株式会社,愛知県,名古屋市南区,弥次ヱ町３丁目３４番地の５,,23,112,4570821,,,,,,,2025-07-11,1,,,,,グランツマリン,0
425,2180001167728,新規,0,2025-07-11,2025-07-11,株式会社ＳＰＹ,,株式会社,愛知県,名古屋市中川区,高畑５丁目３４番地の２,,23,110,4540911,,,,,,,2025-07-11,1,,,,,スパイ,0
427,2180005021146,新規,0,2025-07-11,2025-07-11,税理士法人上島会計事務所,,その他の設立登記法人,愛知県,名古屋市昭和区,福江２丁目１３番１号,,23,107,4660059,,,,,,,2025-07-11,1,,,,,ウエジマカイケイジムショ,0
428,2180301040015,新規,0,2025-07-11,2025-07-11,株式会社アシーム,,株式会社,愛知県,岡崎市,美合町字中長根３３番地１０,,23,202,4440802,,,,,,,2025-07-11,1,,,,,,0
429,2180303006641,新規,0,2025-07-11,2025-07-11,合同会社Ｃｈａｔ　Ｎｏｉｒ,,合同会社,愛知県,豊田市,槙本町後田３５番地１,,23,211,4710000,,,,,,,2025-07-11,1,,,,,シャノワール,0
430,2190001032385,新規,0,2025-07-11,2025-07-11,株式会社ＢＹＳ,,株式会社,三重県,松阪市,下村町１１４７番地,,24,204,5150043,,,,,,,2025-07-11,1,,,,,ビーワイエス,0
431,2190003005109,新規,0,2025-07-11,2025-07-11,合同会社Ｊ＆Ｂ,,合同会社,三重県,桑名市,八幡町５１番地２,,24,205,5110049,,,,,,,2025-07-11,1,,,,,ジェイアンドビー,0
432,2190005012061,新規,0,2025-07-11,2025-07-11,特定非営利活動法人ヴィ・クオーレ,,その他の設立登記法人,三重県,四日市市,川島町５９３０番地２１２,,24,202,5120934,,,,,,,2025-07-11,1,,,,,ヴィクオーレ,0
434,2220001026805,新規,0,2025-07-11,2025-07-11,株式会社Ａｒｍｓ不動産,,株式会社,石川県,かほく市,白尾カ１番地,,17,209,9291177,,,,,,,2025-07-11,1,,,,,アームズフドウサン,0
438,2240001065198,新規,0,2025-07-11,2025-07-11,株式会社９４１,,株式会社,広島県,福山市,三吉町５丁目２番２０号,,34,207,7200031,,,,,,,2025-07-11,1,,,,,キュウヨンイチ,0
451,2350001019655,新規,0,2025-07-11,2025-07-11,株式会社黒木,,株式会社,宮崎県,児湯郡都農町,大字川北１３８８４番地２１,,45,406,8891201,,,,,,,2025-07-11,1,,,,,クロギ,0
453,2350003004977,新規,0,2025-07-11,2025-07-11,合同会社ＭＩＮＥＲ,,合同会社,宮崎県,宮崎市,丸島町１番２６号クイーンズパレスキヨスエ５０５号,,45,201,8800813,,,,,,,2025-07-11,1,,,,,マイナー,0
456,2380001035419,新規,0,2025-07-11,2025-07-11,ヤマシロ商会株式会社,,株式会社,福島県,伊達市,梁川町五十沢字聖天前３番地１,,07,213,9600701,,,,,,,2025-07-11,1,,,,,ヤマシロショウカイ,0
463,2490001011111,新規,0,2025-07-11,2025-07-11,田村商事株式会社,,株式会社,高知県,南国市,伊達野２９０番地,,39,204,7830008,,,,,,,2025-07-11,1,,,,,タムラショウジ,0
464,2700150090941,新規,0,2025-07-11,2018-09-27,雲南市地域自主組織連絡協議会,,その他,島根県,雲南市,木次町里方５２１番地１,,32,209,6991311,,,,,,,2018-09-27,1,,,,,ウンナンシチイキジシユソシキレンラクキヨウギカイ,0
471,3010003048000,新規,0,2025-07-11,2025-07-11,合同会社つむぐ,,合同会社,東京都,文京区,目白台３丁目１８番１１号,,13,105,1120015,,,,,,,2025-07-11,1,,,,,ツムグ,0
472,3010003048009,新規,0,2025-07-11,2025-07-11,合同会社ツバサインベストメント,,合同会社,東京都,千代田区,平河町１丁目６番１５号シルスフィア会計事務所内,,13,101,1020093,,,,,,,2025-07-11,1,,,,,ツバサインベストメント,0
478,3010401191640,新規,0,2025-07-11,2025-07-11,デコボコ株式会社,,株式会社,東京都,港区,南青山２丁目５番１７号,,13,103,1070062,,,,,,,2025-07-11,1,,,,,デコボコ,0
481,3010403035572,新規,0,2025-07-11,2025-07-11,合同会社オルカアドバイザーズ,,合同会社,東京都,港区,浜松町２丁目２番１５号浜松町ダイヤビル２Ｆ,,13,103,1050013,,,,,,,2025-07-11,1,,,,,オルカアドバイザーズ,0
489,3010701047906,新規,0,2025-07-11,2025-07-11,株式会社ＡＲＩＧＡＴＯ　ＬＡＢ,,株式会社,東京都,品川区,北品川５丁目８番１５号,,13,109,1410001,,,,,,,2025-07-11,1,,,,,アリガトラボ,0
499,3011001170547,新規,0,2025-07-11,2025-07-11,停滞計画株式会社,,株式会社,東京都,渋谷区,恵比寿南２丁目２６－１パークコート恵比寿ヒルトップレジデンス４０５,,13,113,1500022,,,,,,,2025-07-11,1,,,,,テイタイケイカク,0
500,3011001170935,新規,0,2025-07-11,2025-07-11,ＧＭＯ　Ｏｎｅ　Ａｃｃｏｕｎｔ株式会社,,株式会社,東京都,渋谷区,道玄坂１丁目２番３号,,13,113,1500043,,,,,,,2025-07-11,1,,,,,ジーエムオーワンアカウント,0
509,3011303005608,新規,0,2025-07-11,2025-07-11,Ｋａｓｕｇａ　Ａｎｅｓｔｈｅｓｉａ　Ｍａｎａｇｅｍｅｎｔ合同会社,,合同会社,東京都,杉並区,井草３丁目３０－２０－２０６,,13,115,1670021,,,,,,,2025-07-11,1,,,,,,0
516,3011801046368,新規,0,2025-07-11,2025-07-11,宮崎オーストラリア株式会社,,株式会社,東京都,足立区,梅島１丁目５－１９,,13,121,1210816,,,,,,,2025-07-11,1,,,,,ミヤザキオーストラリア,0
517,3011803006956,新規,0,2025-07-11,2025-07-11,Ｇ商事合同会社,,合同会社,東京都,足立区,伊興４丁目１１番６－３０３号,,13,121,1210823,,,,,,,2025-07-11,1,,,,,ジーショウジ,0
519,3012401043334,新規,0,2025-07-11,2025-07-11,中川設備株式会社,,株式会社,東京都,府中市,是政４丁目２番地の７７,,13,206,1830014,,,,,,,2025-07-11,1,,,,,ナカガワセツビ,0
522,3012803003794,新規,0,2025-07-11,2025-07-11,合同会社日ノ環,,合同会社,東京都,日野市,多摩平２丁目１３番地の１５－４０１,,13,212,1910062,,,,,,,2025-07-11,1,,,,,ヒノワ,0
523,3013101009740,新規,0,2025-07-11,2025-07-11,株式会社さわ,,株式会社,東京都,あきる野市,二宮２２１６番地２,,13,228,1970814,,,,,,,2025-07-11,1,,,,,サワ,0
529,3020001163808,新規,0,2025-07-11,2025-07-11,株式会社３ＣＡＮＶＡＳ,,株式会社,神奈川県,横浜市旭区,柏町２２‐１４,,14,112,2410835,,,,,,,2025-07-11,1,,,,,スリーキャンバス,0
530,3020001163816,新規,0,2025-07-11,2025-07-11,株式会社ＮｉＡｒ,,株式会社,神奈川県,横浜市西区,中央２丁目５番７－４０１号,,14,103,2200051,,,,,,,2025-07-11,1,,,,,ニアー,0
531,3020001163824,新規,0,2025-07-11,2025-07-11,フォージバンド株式会社,,株式会社,神奈川県,横浜市磯子区,汐見台１丁目３番３－５０６号,,14,107,2350022,,,,,,,2025-07-11,1,,,,,フォージバンド,0
532,3020001163849,新規,0,2025-07-11,2025-07-11,株式会社ＯＰＥＮ　ＣＬＩＦＦ,,株式会社,神奈川県,横浜市栄区,小菅ケ谷１６４６－９,,14,115,2470000,,,,,,,2025-07-11,1,,,,,オープンクリフト,0
534,3020003028884,新規,0,2025-07-11,2025-07-11,合同会社Ｒ‐Ｐｌｕｓ,,合同会社,神奈川県,横浜市中区,山下町２５番地１上田ビル７０４,,14,104,2310023,,,,,,,2025-07-11,1,,,,,アールプラス,0
535,3020003028918,新規,0,2025-07-11,2025-07-11,合同会社ＨＹＦアセット,,合同会社,神奈川県,横浜市神奈川区,金港町５－１４クアドリフォリオ８階,,14,102,2210056,,,,,,,2025-07-11,1,,,,,エイチワイエフアセット,0
536,3020003028926,新規,0,2025-07-11,2025-07-11,合同会社ＦＬＭ,,合同会社,神奈川県,横浜市中区,桜木町１丁目１０１－１クロスゲート７階,,14,104,2310062,,,,,,,2025-07-11,1,,,,,エフエルエム,0
542,3021001085694,新規,0,2025-07-11,2025-07-11,株式会社太平ホールディングス,,株式会社,神奈川県,厚木市,岡田１丁目１３番１０号,,14,212,2430021,,,,,,,2025-07-11,1,,,,,タイヘイホールディングス,0
553,3030001167568,新規,0,2025-07-11,2025-07-11,ケーオーガレージ株式会社,,株式会社,埼玉県,越谷市,大字平方２８５４番地５,,11,222,3430002,,,,,,,2025-07-11,1,,,,,ケーオーガレージ,0
554,3030001167584,新規,0,2025-07-11,2025-07-11,株式会社ＡＧＩＴＯ　ｐｒｏｊｅｃｔ,,株式会社,埼玉県,春日部市,粕壁５８７２－１,,11,214,3440061,,,,,,,2025-07-11,1,,,,,アギトプロジェクト,0
555,3030001167601,新規,0,2025-07-11,2025-07-11,ＬＵＭＩ株式会社,,株式会社,埼玉県,さいたま市大宮区,上小町１４９０－１－５１２,,11,103,3300855,,,,,,,2025-07-11,1,,,,,ルミ,0
556,3030003027175,新規,0,2025-07-11,2025-07-11,合同会社Ｍｕｔ,,合同会社,埼玉県,上尾市,本町５丁目１３番３号グリナージュ３０３,,11,219,3620014,,,,,,,2025-07-11,1,,,,,ムート,0
559,3040001139525,新規,0,2025-07-11,2025-07-11,株式会社ブリーズ２５,,株式会社,千葉県,千葉市若葉区,若松町２１２３番地３６,,12,104,2640021,,,,,,,2025-07-11,1,,,,,ブリーズニジュウゴ,0
560,3040001139574,新規,0,2025-07-11,2025-07-11,株式会社バウンド,,株式会社,千葉県,柏市,宿連寺４４１番地３ジェルメＡ‐２０２号,,12,217,2770826,,,,,,,2025-07-11,1,,,,,バウンド,0
561,3040001139608,新規,0,2025-07-11,2025-07-11,株式会社ＭｇＨ３,,株式会社,千葉県,柏市,若柴１７８番地４柏の葉キャンパス１４８街区２ショップ＆オフィス棟６階,,12,217,2770871,,,,,,,2025-07-11,1,,,,,エムジーエイチスリー,0
563,3040003027983,新規,0,2025-07-11,2025-07-11,合同会社ＬＥＯＮＡＲＤＯ,,合同会社,千葉県,松戸市,小金原２丁目２２番地の２６,,12,207,2700021,,,,,,,2025-07-11,1,,,,,レオナルド,0
564,3040003028016,新規,0,2025-07-11,2025-07-11,エムアイビー合同会社,,合同会社,千葉県,松戸市,八ケ崎４丁目４３番地の２,,12,207,2700023,,,,,,,2025-07-11,1,,,,,エムアイビー,0
568,3050001056926,新規,0,2025-07-11,2025-07-11,株式会社栄高,,株式会社,茨城県,古河市,鴻巣４７７番地１,,08,204,3060041,,,,,,,2025-07-11,1,,,,,エイコウ,0
569,3050001056942,新規,0,2025-07-11,2025-07-11,株式会社Ｓｌｏｎａ,,株式会社,茨城県,つくば市,吾妻２丁目５番地１,,08,220,3050031,,,,,,,2025-07-11,1,,,,,スローナ,0
571,3060001038386,新規,0,2025-07-11,2025-07-11,ＪＡＭＵＮＡ　ＴＲＡＤＩＮＧ株式会社,,株式会社,栃木県,足利市,伊勢町１丁目２番地２浜田ビル１Ｆ,,09,202,3260053,,,,,,,2025-07-11,1,,,,,ジャムナトレーディング,0
572,3060001038403,新規,0,2025-07-11,2025-07-11,株式会社ベニッシュプラス,,株式会社,栃木県,佐野市,戸奈良町１７２８番地２,,09,204,3270323,,,,,,,2025-07-11,1,,,,,ベニッシュプラス,0
574,3060003005640,新規,0,2025-07-11,2025-07-11,ＨＥＩＷＡ　ＴＲＡＤＩＮＧ合同会社,,合同会社,栃木県,宇都宮市,下小池町３６６番地１４７,,09,201,3212105,,,,,,,2025-07-11,1,,,,,ヘイワトレーディング,0
579,3070005010407,新規,0,2025-07-11,2025-07-11,一般財団法人愛の共生社会づくり財団,,その他の設立登記法人,群馬県,前橋市,本町２丁目１４番８号（新生情報ビル）,,10,201,3710023,,,,,,,2025-07-11,1,,,,,アイノキョウセイシャカイヅクリザイダン,0
582,3080001027032,新規,0,2025-07-11,2025-07-11,株式会社ウィズコントレイル,,株式会社,静岡県,静岡市葵区,両替町１丁目６番地の８第一松永ビル３階,,22,101,4200032,,,,,,,2025-07-11,1,,,,,ウィズコントレイル,0
583,3080003003502,新規,0,2025-07-11,2025-07-11,合同会社ＣＲＥＳＭＡＩＳＯＮ８,,合同会社,静岡県,静岡市駿河区,馬渕２丁目７番１６－４０１号,,22,102,4228063,,,,,,,2025-07-11,1,,,,,クリスメイソンエイト,0
587,3110001039429,新規,0,2025-07-11,2025-07-11,株式会社富士鷹刃物,,株式会社,新潟県,見附市,今町５丁目４０８番地３,,15,211,9540111,,,,,,,2025-07-11,1,,,,,フジタカハモノ,0
595,3120001277655,新規,0,2025-07-11,2025-07-11,株式会社新谷製作所,,株式会社,大阪府,守口市,南寺方東通６丁目４番１６号,,27,209,5700043,,,,,,,2025-07-11,1,,,,,シンタニセイサクショ,0
596,3120001277738,新規,0,2025-07-11,2025-07-11,ナナコホールディングス株式会社,,株式会社,大阪府,大阪市北区,東天満１丁目１０番１２号,,27,127,5300044,,,,,,,2025-07-11,1,,,,,ナナコホールディングス,0
597,3120001277754,新規,0,2025-07-11,2025-07-11,株式会社ふわっと会,,株式会社,大阪府,大阪市阿倍野区,阪南町１丁目２７－１７,,27,119,5450021,,,,,,,2025-07-11,1,,,,,フワットカイ,0
598,3120001277812,新規,0,2025-07-11,2025-07-11,株式会社ザ・ミヤビ,,株式会社,大阪府,大阪市北区,大淀南２丁目２番９号,,27,127,5310075,,,,,,,2025-07-11,1,,,,,ザミヤビ,0
606,3120003029971,新規,0,2025-07-11,2025-07-11,合同会社プログレス,,合同会社,大阪府,大阪市生野区,田島４丁目２番４号,,27,116,5440011,,,,,,,2025-07-11,1,,,,,プログレス,0
613,3120101072023,新規,0,2025-07-11,2025-07-11,株式会社Ｎ‐Ｔｅｃｈ,,株式会社,大阪府,堺市東区,野尻町３６９番地ラヴィアンコート１０３号,,27,143,5998116,,,,,,,2025-07-11,1,,,,,エヌテック,0
614,3120101072056,新規,0,2025-07-11,2025-07-11,株式会社ＯＣＲＡＶＥ,,株式会社,大阪府,堺市美原区,多治井２５３番地１,,27,147,5870012,,,,,,,2025-07-11,1,,,,,オーシーレイブ,0
615,3120101072072,新規,0,2025-07-11,2025-07-11,株式会社ゼロトライ,,株式会社,大阪府,岸和田市,小松里町５４３番地の４,,27,202,5960821,,,,,,,2025-07-11,1,,,,,ゼロトライ,0
616,3120101072080,新規,0,2025-07-11,2025-07-11,株式会社ＴＯＳＨＩ　Ａｒｃｓ,,株式会社,大阪府,羽曳野市,大黒３２９番地１,,27,222,5830847,,,,,,,2025-07-11,1,,,,,トシアークス,0
617,3120101072089,新規,0,2025-07-11,2025-07-11,株式会社ＨＵ‐ＷＡＮ,,株式会社,大阪府,泉南郡熊取町,七山３丁目９９６番地の３（２０６）,,27,361,5900421,,,,,,,2025-07-11,1,,,,,ヒューワン,0
620,3120103006565,新規,0,2025-07-11,2025-07-11,合同会社みのり,,合同会社,大阪府,堺市南区,稲葉３丁１６０４番地,,27,145,5900156,,,,,,,2025-07-11,1,,,,,ミノリ,0
621,3120901051151,新規,0,2025-07-11,2025-07-11,株式会社まるまさ,,株式会社,大阪府,茨木市,西田中町７番２３号,,27,211,5670027,,,,,,,2025-07-11,1,,,,,マルマサ,0
624,3130001080026,新規,0,2025-07-11,2025-07-11,株式会社千手,,株式会社,京都府,京都市山科区,小山小川町４７番地８,,26,110,6078107,,,,,,,2025-07-11,1,,,,,センジュ,0
625,3130001080050,新規,0,2025-07-11,2025-07-11,株式会社ＡＩＲ‐ＴＲＡＮＳ,,株式会社,京都府,京都市中京区,押堀町４４番地１,,26,104,6040054,,,,,,,2025-07-11,1,,,,,エアートランス,0
626,3130001080091,新規,0,2025-07-11,2025-07-11,株式会社ＨＡＳＯＢＥ,,株式会社,京都府,京都市山科区,勧修寺東栗栖野町４番地３７,,26,110,6078211,,,,,,,2025-07-11,1,,,,,ハソベ,0
634,3160001026876,新規,0,2025-07-11,2025-07-11,株式会社坂井建築設計事務所,,株式会社,滋賀県,長浜市,大寺町１００２番地４,,25,203,5290144,,,,,,,2025-07-11,1,,,,,サカイケンチクセッケイジムショ,0
635,3170001018708,新規,0,2025-07-11,2025-07-11,株式会社ＳＳＧ,,株式会社,和歌山県,有田市,千田３６２番地,,30,204,6490313,,,,,,,2025-07-11,1,,,,,エスエスジー,0
638,3180001167636,新規,0,2025-07-11,2025-07-11,株式会社グレイスター,,株式会社,愛知県,名古屋市中区,丸の内３丁目２３番２０号,,23,106,4600002,,,,,,,2025-07-11,1,,,,,グレイスター,0
639,3180001167652,新規,0,2025-07-11,2025-07-11,株式会社久富,,株式会社,愛知県,知多郡南知多町,大字豊浜字下大田面５３番地の８,,23,445,4703412,,,,,,,2025-07-11,1,,,,,クトミ,0
640,3180001167710,新規,0,2025-07-11,2025-07-11,株式会社ＡｌｌＣｒｅｓｔ,,株式会社,愛知県,名古屋市中村区,名駅４丁目２４番５号第２森ビル４０１,,23,105,4500002,,,,,,,2025-07-11,1,,,,,オールクレスト,0
645,3180301040014,新規,0,2025-07-11,2025-07-11,Ｄ‐Ｔａｉｌｏｒ株式会社,,株式会社,愛知県,豊橋市,松井町字松井９８番地貸家Ｄ,,23,201,4418143,,,,,,,2025-07-11,1,,,,,ディーテイラー,0
648,3200001044015,新規,0,2025-07-11,2025-07-11,株式会社ＲＳ　ＪＡＰＡＮ,,株式会社,岐阜県,岐阜市,椿洞４２５番地９９,,21,201,5020801,,,,,,,2025-07-11,1,,,,,アールエスジャパン,0
649,3220001026804,新規,0,2025-07-11,2025-07-11,金沢生活支援サービス株式会社,,株式会社,石川県,金沢市,石引３丁目７－４１シェア金沢３１１,,17,201,9200935,,,,,,,2025-07-11,1,,,,,カナザワセイカツシエンサービス,0
659,3240001065222,新規,0,2025-07-11,2025-07-11,株式会社メイプルレッズ,,株式会社,広島県,広島市東区,二葉の里３丁目３番１号,,34,102,7320057,,,,,,,2025-07-11,1,,,,,メイプルレッズ,0
661,3240003007305,新規,0,2025-07-11,2025-07-11,合同会社合悦,,合同会社,広島県,廿日市市,住吉１丁目１３番１２－１０１号,,34,213,7380014,,,,,,,2025-07-11,1,,,,,ゴウエツ,0
664,3260003005265,新規,0,2025-07-11,2025-07-11,合同会社ＴＡＭ　ｎｉｃｏ不動産,,合同会社,岡山県,岡山市北区,宿４００－８旭コーポ１０４,,33,101,7000001,,,,,,,2025-07-11,1,,,,,タムニコフドウサン,0
676,3290003017084,新規,0,2025-07-11,2025-07-11,ＮＯＫＡ合同会社,,合同会社,福岡県,福岡市東区,青葉６丁目２９番２８号,,40,131,8130025,,,,,,,2025-07-11,1,,,,,ノカ,0
679,3300003002316,新規,0,2025-07-11,2025-07-11,合同会社みやきベース,,合同会社,佐賀県,三養基郡みやき町,大字東津３４１番地,,41,346,8401104,,,,,,,2025-07-11,1,,,,,ミヤキベース,0
683,3320003004715,新規,0,2025-07-11,2025-07-11,合同会社だいち林業,,合同会社,大分県,佐伯市,宇目大字小野市５２５３番地上越野団地Ｂ－２,,44,205,8793301,,,,,,,2025-07-11,1,,,,,ダイチリンギョウ,0
684,3340003004894,新規,0,2025-07-11,2025-07-11,合同会社龍華設備,,合同会社,鹿児島県,姶良市,松原町１丁目１１番地１１,,46,225,8995422,,,,,,,2025-07-11,1,,,,,リュウカセツビ,0
685,3350001019654,新規,0,2025-07-11,2025-07-11,聖京株式会社,,株式会社,宮崎県,串間市,大字北方３４２番地,,45,207,8880005,,,,,,,2025-07-11,1,,,,,セイキョウ,0
688,3360001035469,新規,0,2025-07-11,2025-07-11,株式会社照屋創業,,株式会社,沖縄県,名護市,字為又１２１９番地２１１、２Ｆ,,47,209,9050005,,,,,,,2025-07-11,1,,,,,テルヤソウギョウ,0
689,3360003015097,新規,0,2025-07-11,2025-07-11,合同会社ＰＵＲＡＮＡ,,合同会社,沖縄県,国頭郡今帰仁村,字諸志２０３１―３７,,47,306,9050426,,,,,,,2025-07-11,1,,,,,プラーナ,0
691,3370001052835,新規,0,2025-07-11,2025-07-11,株式会社ＮＥＰＰＯＮ,,株式会社,宮城県,岩沼市,下野郷字北谷地１－９,,04,211,9892421,,,,,,,2025-07-11,1,,,,,ネッポン,0
692,3370003007192,新規,0,2025-07-11,2025-07-11,合同会社大芳,,合同会社,宮城県,仙台市青葉区,本町１丁目１３番８号,,04,101,9800014,,,,,,,2025-07-11,1,,,,,タイホウ,0
696,3380001035418,新規,0,2025-07-11,2025-07-11,早川マネジメント株式会社,,株式会社,福島県,郡山市,安積町笹川字高瀬５５番地,,07,203,9630102,,,,,,,2025-07-11,1,,,,,ハヤカワマネジメント,0
698,3380005012990,新規,0,2025-07-11,2025-07-11,特定非営利活動法人ＰＢＣおとぎの王国,,その他の設立登記法人,福島県,福島市,二子塚字道南１２番地,,07,201,9602263,,,,,,,2025-07-11,1,,,,,ピービーシーオトギノオウコク,0
708,3470001020798,新規,0,2025-07-11,2025-07-11,株式会社つばめ不動産,,株式会社,香川県,高松市,上天神町６８７番地１０,,37,201,7618056,,,,,,,2025-07-11,1,,,,,ツバメフドウサン,0
709,3470003002927,新規,0,2025-07-11,2025-07-11,合同会社アナザーワン,,合同会社,香川県,高松市,上之町１丁目９番２５－１０２号,,37,201,7618064,,,,,,,2025-07-11,1,,,,,アナザーワン,0
711,3500001026412,新規,0,2025-07-11,2025-07-11,株式会社ＨＩＫＡＲＩ,,株式会社,愛媛県,宇和島市,和霊町１８４９番地３,,38,203,7980012,,,,,,,2025-07-11,1,,,,,ヒカリ,0
719,4010001256685,新規,0,2025-07-11,2025-07-11,日本星野株式会社,,株式会社,東京都,文京区,後楽１丁目５番３号,,13,105,1120004,,,,,,,2025-07-11,1,,,,,ニホンホシノ,0
720,4010001256776,新規,0,2025-07-11,2025-07-11,ＴＯＲＥＣＯエンターテインメント株式会社,,株式会社,東京都,千代田区,東神田３丁目１番９号,,13,101,1010031,,,,,,,2025-07-11,1,,,,,トレコエンターテインメント,0
722,4010003047975,新規,0,2025-07-11,2025-07-11,合同会社Ｓｍｉｔｔｙ　Ｈ　ＧＫ,,合同会社,東京都,中央区,新川１丁目１７番１８号,,13,102,1040033,,,,,,,2025-07-11,1,,,,,スミティエイチジーケー,0
723,4010003048008,新規,0,2025-07-11,2025-07-11,ロカヒ合同会社,,合同会社,東京都,中央区,銀座６丁目１３番１６号銀座ＷａｌｌビルＵＣＦ５階,,13,102,1040061,,,,,,,2025-07-11,1,,,,,ロカヒ,0
724,4010003048024,新規,0,2025-07-11,2025-07-11,プランドエイチ合同会社,,合同会社,東京都,千代田区,神田須田町１丁目７番８号ＶＯＲＴ秋葉原ＩＶ２Ｆ,00139903,13,101,1010041,,,,,,,2025-07-11,1,,,,,プランドエイチ,0
735,4010603011661,新規,0,2025-07-11,2025-07-11,合同会社ＹＵＮＡ,,合同会社,東京都,江東区,豊洲５丁目１番１３－７１０号,,13,108,1350061,,,,,,,2025-07-11,1,,,,,ユウナ,0
740,4010901057737,新規,0,2025-07-11,2025-07-11,株式会社ナガサキ企画,,株式会社,東京都,世田谷区,野沢４丁目１７番１１号,,13,112,1540003,,,,,,,2025-07-11,1,,,,,ナガサキキカク,0
741,4010901057745,新規,0,2025-07-11,2025-07-11,ＳＭＡＳＨ　ＣＲＡＦＴ株式会社,,株式会社,東京都,世田谷区,北沢２丁目３３番６号藤原ビル１階,,13,112,1550031,,,,,,,2025-07-11,1,,,,,スマッシュクラフト,0
742,4010903010090,新規,0,2025-07-11,2025-07-11,Ｅｓｐｅｒａｎ合同会社,,合同会社,東京都,世田谷区,玉堤１丁目２１番１６号第２東京園マンション３０１,,13,112,1580087,,,,,,,2025-07-11,1,,,,,エスペラン,0
749,4011001170587,新規,0,2025-07-11,2025-07-11,株式会社ＳＣＥＮＥ’Ｓ　ＲＥＣＯＲＤ,,株式会社,東京都,渋谷区,渋谷３丁目１５番６号,,13,113,1500002,,,,,,,2025-07-11,1,,,,,シーンズレコード,0
750,4011001171197,新規,0,2025-07-11,2025-07-11,ｆｏ５株式会社,,株式会社,東京都,渋谷区,円山町５番５号Ｎａｖｉ渋谷Ｖ３階,00139898,13,113,1500044,,,,,,,2025-07-11,1,,,,,エフオーファイブ,0
751,4011003021929,新規,0,2025-07-11,2025-07-11,Ｂｏｋｙｎａ合同会社,,合同会社,東京都,渋谷区,神宮前６丁目２８番９号東武ビル６階,,13,113,1500001,,,,,,,2025-07-11,1,,,,,ボーカイナ,0
756,4011103016110,新規,0,2025-07-11,2025-07-11,合同会社ＥＢＩＳＳ,,合同会社,東京都,新宿区,早稲田鶴巻町５２３番地１７レジデンシャルスター早稲田ＵＢ１０３,,13,104,1620041,,,,,,,2025-07-11,1,,,,,エビス,0
775,4011801046458,新規,0,2025-07-11,2025-07-11,乾宇国際貿易株式会社,,株式会社,東京都,葛飾区,青戸７丁目２３番１１号,,13,122,1250062,,,,,,,2025-07-11,1,,,,,ケンウコクサイボウエキ,0
777,4012401043300,新規,0,2025-07-11,2025-07-11,株式会社スファイラ,,株式会社,東京都,小金井市,本町５丁目１７番１６－３０４号ユニーブル武蔵小金井クインテット,,13,210,1840004,,,,,,,2025-07-11,1,,,,,スファイラ,0
778,4012401043333,新規,0,2025-07-11,2025-07-11,Ｋｙｌｉｎ　Ｓｗａｌｌｏｗ株式会社,,株式会社,東京都,小金井市,緑町５丁目３番２５－２０１号,,13,210,1840003,,,,,,,2025-07-11,1,,,,,キリンスウォロー,0
780,4012703003316,新規,0,2025-07-11,2025-07-11,合同会社ルパル,,合同会社,東京都,清瀬市,松山３丁目３番４号,,13,221,2040022,,,,,,,2025-07-11,1,,,,,ルパル,0
781,4012801024107,新規,0,2025-07-11,2025-07-11,株式会社Ｋ．Ｔ　Ｂｒｏｓ,,株式会社,東京都,日野市,大坂上３丁目２３番地の１２,,13,212,1910061,,,,,,,2025-07-11,1,,,,,ケーティーブロス,0
786,4020001163575,新規,0,2025-07-11,2025-07-11,ＳｔａｒＩｎ株式会社,,株式会社,神奈川県,横浜市中区,松影町４丁目１４番地６ロータリーライフ石川町１１０４号室,,14,104,2310025,,,,,,,2025-07-11,1,,,,,スターイン,0
787,4020001163807,新規,0,2025-07-11,2025-07-11,株式会社Ｄｒｏｏｍ,,株式会社,神奈川県,川崎市高津区,向ケ丘２７番地４,,14,134,2130035,,,,,,,2025-07-11,1,,,,,ドローム,0
788,4020001163848,新規,0,2025-07-11,2025-07-11,株式会社ＹＵＲＵ　ＢＡＳＥ,,株式会社,神奈川県,横浜市西区,浅間町１丁目４番３号ウィザードビル４０２,,14,103,2200072,,,,,,,2025-07-11,1,,,,,ユルベース,0
789,4020003028917,新規,0,2025-07-11,2025-07-11,ＹＫ管理合同会社,,合同会社,神奈川県,川崎市幸区,南加瀬５丁目３０番５号,,14,132,2120055,,,,,,,2025-07-11,1,,,,,ワイケイカンリ,0
790,4020003028941,新規,0,2025-07-11,2025-07-11,ＨＡヨコタ合同会社,,合同会社,神奈川県,横浜市西区,浅間町１丁目４番３号ウィザードビル４０２,,14,103,2200072,,,,,,,2025-07-11,1,,,,,エイチエーヨコタ,0
794,4021001085693,新規,0,2025-07-11,2025-07-11,株式会社ＬＩＦＥ　ＩＳ　ＭＵＳＥＵＭ,,株式会社,神奈川県,三浦郡葉山町,一色２１４７番地の２葉山コンパウンド・ハウジングＢ－１,,14,301,2400111,,,,,,,2025-07-11,1,,,,,ライフイズミュージアム,0
795,4021001085702,新規,0,2025-07-11,2025-07-11,ｅプランニング株式会社,,株式会社,神奈川県,藤沢市,善行坂２丁目８番２０号,,14,205,2510876,,,,,,,2025-07-11,1,,,,,イープランニング,0
796,4021001085727,新規,0,2025-07-11,2025-07-11,株式会社グローバルスポーツ,,株式会社,神奈川県,大和市,西鶴間１丁目１０番１３号ライオンズプラザ鶴間９０１号室,,14,213,2420005,,,,,,,2025-07-11,1,,,,,グローバルスポーツ,0
798,4021003016259,新規,0,2025-07-11,2025-07-11,合同会社タクラボ,,合同会社,神奈川県,大和市,中央林間３丁目１８番６号コーポホソヤ２０２,,14,213,2420007,,,,,,,2025-07-11,1,,,,,タクラボ,0
801,4030001167591,新規,0,2025-07-11,2025-07-11,株式会社アイノ,,株式会社,埼玉県,春日部市,一ノ割１丁目２１番４９号,,11,214,3440031,,,,,,,2025-07-11,1,,,,,アイノ,0
802,4030001167625,新規,0,2025-07-11,2025-07-11,大力産業株式会社,,株式会社,埼玉県,羽生市,大字羽生１４７番地１ｎａｒｕｓｅ羽生ビル２０７号室,,11,216,3480055,,,,,,,2025-07-11,1,,,,,ダイリキサンギョウ,0
810,4040001139516,新規,0,2025-07-11,2025-07-11,株式会社リプラス,,株式会社,千葉県,いすみ市,釈迦谷４２４番地５,,12,238,2980015,,,,,,,2025-07-11,1,,,,,リプラス,0
811,4040001139549,新規,0,2025-07-11,2025-07-11,株式会社アベニュー,,株式会社,千葉県,成田市,並木町１５１番地,,12,211,2860045,,,,,,,2025-07-11,1,,,,,アベニュー,0
812,4040001139607,新規,0,2025-07-11,2025-07-11,マシンエンジニアリング株式会社,,株式会社,千葉県,柏市,松ケ崎１１７０番地３７３,,12,217,2770835,,,,,,,2025-07-11,1,,,,,マシンエンジニアリング,0
813,4040001139623,新規,0,2025-07-11,2025-07-11,株式会社Ｌｅｇｅｎｄ．Ｍ,,株式会社,千葉県,八街市,泉台２丁目８番地１７,,12,230,2891105,,,,,,,2025-07-11,1,,,,,レジェンドエム,0
820,4060001038393,新規,0,2025-07-11,2025-07-11,ヒノキプランテック株式会社,,株式会社,栃木県,真岡市,大道泉１８８番地１,,09,209,3214545,,,,,,,2025-07-11,1,,,,,ヒノキプランテック,0
821,4060001038402,新規,0,2025-07-11,2025-07-11,ブルーム株式会社,,株式会社,栃木県,下野市,仁良川１６５１番地３　６０街区１６　Ｓａｎｓｆｉｎｅ　Ｇｒａｎｄｉｒ２０３,,09,216,3290432,,,,,,,2025-07-11,1,,,,,ブルーム,0
822,4060003005631,新規,0,2025-07-11,2025-07-11,合同会社フォース,,合同会社,栃木県,さくら市,鷲宿１９４７番地１,,09,214,3291411,,,,,,,2025-07-11,1,,,,,フォース,0
825,4070003006001,新規,0,2025-07-11,2025-07-11,合同会社田畑電設,,合同会社,群馬県,前橋市,城東町４丁目２２－１１,,10,201,3710016,,,,,,,2025-07-11,1,,,,,タバタデンセツ,0
827,4080001027031,新規,0,2025-07-11,2025-07-11,株式会社濱中商店,,株式会社,静岡県,静岡市清水区,永楽町１３番５－４０２号,,22,103,4240043,,,,,,,2025-07-11,1,,,,,ハマナカショウテン,0
828,4080403005304,新規,0,2025-07-11,2025-07-11,ナインポケットジャパン合同会社,,合同会社,静岡県,浜松市中央区,舘山寺町２２９５－１,,22,138,4311209,,,,,,,2025-07-11,1,,,,,ナインポケットジャパン,0
829,4090001019390,新規,0,2025-07-11,2025-07-11,株式会社しち,,株式会社,山梨県,甲府市,朝気３丁目８番２０号,,19,201,4000862,,,,,,,2025-07-11,1,,,,,シチ,0
830,4090005007722,新規,0,2025-07-11,2025-07-11,一般社団法人アート・バイ・カルチャー・フジ,,その他の設立登記法人,山梨県,甲府市,相生１丁目７番５号,,19,201,4000858,,,,,,,2025-07-11,1,,,,,アートバイカルチャーフジ,0
832,4110003005824,新規,0,2025-07-11,2025-07-11,Ａｓｈｉ　ＡＲＴ合同会社,,合同会社,新潟県,長岡市,大手通２丁目２番地６,,15,202,9400062,,,,,,,2025-07-11,1,,,,,アシアート,0
836,4120001277679,新規,0,2025-07-11,2025-07-11,ライズ株式会社,,株式会社,大阪府,大阪市淀川区,西中島３丁目１４番２０号６０１号室,,27,123,5320011,,,,,,,2025-07-11,1,,,,,ライズ,0
837,4120001277704,新規,0,2025-07-11,2025-07-11,ＨＩＫＡＲＩ株式会社,,株式会社,大阪府,大阪市東淀川区,瑞光１丁目５－１８－３０３号,,27,114,5330005,,,,,,,2025-07-11,1,,,,,ヒカリ,0
838,4120001277737,新規,0,2025-07-11,2025-07-11,三形商事株式会社,,株式会社,大阪府,大阪市北区,梅田１丁目２番２号大阪駅前第２ビル１２－１２,,27,127,5300001,,,,,,,2025-07-11,1,,,,,ミカタショウジ,0
839,4120001277753,新規,0,2025-07-11,2025-07-11,株式会社将來創建,,株式会社,大阪府,大阪市都島区,都島本通４丁目３番２３－９０４号,,27,102,5340021,,,,,,,2025-07-11,1,,,,,ミライソウケン,0
840,4120001277828,新規,0,2025-07-11,2025-07-11,株式会社Ｔ．ＳＴＹＬＥ,,株式会社,大阪府,大阪市鶴見区,鶴見３丁目５番２‐１１０５号,,27,124,5380053,,,,,,,2025-07-11,1,,,,,ティースタイル,0
841,4120001277852,新規,0,2025-07-11,2025-07-11,＿＿株式会社,00139899,株式会社,大阪府,大阪市東成区,大今里３丁目１５番６号ＩｍａｚａｔｏＴｏｗｅｒ５０５Ｇ,,27,115,5370012,,,,,,,2025-07-11,1,,,,,トウキン,0
847,4120101072055,新規,0,2025-07-11,2025-07-11,東和通商株式会社,,株式会社,大阪府,堺市堺区,北瓦町１丁２番１５号ポピービル３０１,,27,141,5900076,,,,,,,2025-07-11,1,,,,,トウワツウショウ,0
848,4120101072063,新規,0,2025-07-11,2025-07-11,ずいちょ株式会社,,株式会社,大阪府,岸和田市,荒木町２丁目８番２６号,,27,202,5960004,,,,,,,2025-07-11,1,,,,,ズイチョ,0
849,4120101072088,新規,0,2025-07-11,2025-07-11,アーム工業株式会社,,株式会社,大阪府,羽曳野市,南恵我之荘３丁目１２－５ハナハウス１０５号,,27,222,5830885,,,,,,,2025-07-11,1,,,,,アームコウギョウ,0
850,4120103006556,新規,0,2025-07-11,2025-07-11,合同会社Ｈｕｉｔ＆ｃｏ,,合同会社,大阪府,大阪狭山市,池尻自由丘２丁目１８－１４,,27,231,5890008,,,,,,,2025-07-11,1,,,,,ユイットアンドコー,0
851,4120103006572,新規,0,2025-07-11,2025-07-11,シュリンプ合同会社,,合同会社,大阪府,松原市,天美北８丁目３番４４号,,27,217,5800031,,,,,,,2025-07-11,1,,,,,シュリンプ,0
858,4130001080099,新規,0,2025-07-11,2025-07-11,株式会社小原工房,,株式会社,京都府,長岡京市,馬場見場走り１０－１０,,26,209,6170828,,,,,,,2025-07-11,1,,,,,コハラコウボウ,0
861,4130005017394,新規,0,2025-07-11,2025-07-11,医療法人清雅会,,その他の設立登記法人,京都府,京都市伏見区,深草鳥居崎町６０１番地,,26,109,6120864,,,,,,,2025-07-11,1,,,,,セイガカイ,0
862,4140005027558,新規,0,2025-07-11,2025-07-11,税理士法人松野茂税理士事務所,,その他の設立登記法人,兵庫県,尼崎市,御園町２４番地尼崎第一ビル,,28,202,6600861,,,,,,,2025-07-11,1,,,,,マツノシゲルゼイリシジムショ,0
863,4160001026875,新規,0,2025-07-11,2025-07-11,Ｄ　Ｔｏｕｒｓ　Ｊａｐａｎ株式会社,,株式会社,滋賀県,大津市,北比良７１９番地,,25,201,5200503,,,,,,,2025-07-11,1,,,,,ディーツアーズジャパン,0
871,4180001167569,新規,0,2025-07-11,2025-07-11,株式会社らしく,,株式会社,愛知県,北名古屋市,法成寺八竜３６番地,,23,234,4810039,,,,,,,2025-07-11,1,,,,,ラシク,0
872,4180001167610,新規,0,2025-07-11,2025-07-11,株式会社ＲＵＭ,,株式会社,愛知県,名古屋市中村区,名駅３丁目４－１０アルティメイト名駅１ｓｔ２階,,23,105,4500002,,,,,,,2025-07-11,1,,,,,ラム,0
873,4180001167635,新規,0,2025-07-11,2025-07-11,株式会社モアナ,,株式会社,愛知県,名古屋市港区,正保町８丁目７４番地,,23,111,4550074,,,,,,,2025-07-11,1,,,,,モアナ,0
874,4180001167668,新規,0,2025-07-11,2025-07-11,俺達総業株式会社,,株式会社,愛知県,名古屋市西区,名駅２丁目３４番１７号セントラル名古屋１００１,,23,104,4510045,,,,,,,2025-07-11,1,,,,,オレタチソウギョウ,0
875,4180003028694,新規,0,2025-07-11,2025-07-11,合同会社シルリルリー,,合同会社,愛知県,名古屋市北区,金城２丁目３－３,,23,103,4620847,,,,,,,2025-07-11,1,,,,,シルリルリー,0
876,4180301039996,新規,0,2025-07-11,2025-07-11,株式会社シャインブライト,,株式会社,愛知県,西尾市,菱池町大道１０番地１,,23,213,4450874,,,,,,,2025-07-11,1,,,,,シャインブライト,0
879,4190001032383,新規,0,2025-07-11,2025-07-11,株式会社ペイントハウス,,株式会社,三重県,松阪市,田村町４３６番地１,,24,204,5150055,,,,,,,2025-07-11,1,,,,,ペイントハウス,0
882,4220001026794,新規,0,2025-07-11,2025-07-11,金丸商店株式会社,,株式会社,石川県,鳳珠郡能登町,字宇出津へ字２９番地１,,17,463,9270433,,,,,,,2025-07-11,1,,,,,カネマルショウテン,0
886,4240001065188,新規,0,2025-07-11,2025-07-11,株式会社アオ,,株式会社,広島県,広島市東区,山根町１８番７－６,,34,102,7320048,,,,,,,2025-07-11,1,,,,,アオ,0
895,4260001040362,新規,0,2025-07-11,2025-07-11,株式会社裕建,,株式会社,岡山県,瀬戸内市,邑久町福中５２９番地５,,33,212,7014244,,,,,,,2025-07-11,1,,,,,ユウケン,0
902,4290001110666,新規,0,2025-07-11,2025-07-11,港順行日本株式会社,,株式会社,福岡県,福岡市博多区,神屋町９－２０－２０５号,,40,132,8120022,,,,,,,2025-07-11,1,,,,,コウジュンコウニホン,0
903,4290001110674,新規,0,2025-07-11,2025-07-11,株式会社Ｒｉｏｒｎｏ,,株式会社,福岡県,福岡市中央区,天神２丁目２番１２号Ｔ＆Ｊビルディング７Ｆ,,40,133,8100001,,,,,,,2025-07-11,1,,,,,リオルノ,0
907,4290003017083,新規,0,2025-07-11,2025-07-11,合同会社Ｆａｔｈｉｍａ,,合同会社,福岡県,福岡市中央区,大手門２丁目４番３６号,,40,133,8100074,,,,,,,2025-07-11,1,,,,,ファティマ,0
908,4290801031707,新規,0,2025-07-11,2025-07-11,風音株式会社,,株式会社,福岡県,北九州市小倉北区,中津口１丁目１０番４５－７０２号,,40,106,8020018,,,,,,,2025-07-11,1,,,,,カゼネ,0
909,4300001014270,新規,0,2025-07-11,2025-07-11,びーとるず株式会社,,株式会社,佐賀県,唐津市,町田１丁目８番５号,,41,202,8470821,,,,,,,2025-07-11,1,,,,,ビートルズ,0
911,4310001019698,新規,0,2025-07-11,2025-07-11,ＢＥＡＵＴＹ　ＴＥＣＨ　ＪＡＰＡＮ株式会社,,株式会社,長崎県,北松浦郡佐々町,鴨川免９８番地１,,42,391,8570313,,,,,,,2025-07-11,1,,,,,ビューティーテックジャパン,0
915,4330003011115,新規,0,2025-07-11,2025-07-11,合同会社竹藤,,合同会社,熊本県,熊本市中央区,本荘４丁目１０番２３号ＬＩＢＴＨ本荘タワー９０３,,43,101,8600811,,,,,,,2025-07-11,1,,,,,タケフジ,0
916,4340001027509,新規,0,2025-07-11,2025-07-11,株式会社栄縁,,株式会社,鹿児島県,鹿児島市,城西２丁目６番２９号城西ハイツ５０３号,,46,201,8900041,,,,,,,2025-07-11,1,,,,,エイエン,0
919,4350003004983,新規,0,2025-07-11,2025-07-11,Ｍｉｉｉｃｈ合同会社,,合同会社,宮崎県,宮崎市,千草町１４番１５号ＭＹ千草ビル,,45,201,8800006,,,,,,,2025-07-11,1,,,,,ミーチ,0
924,4370001052818,新規,0,2025-07-11,2025-07-11,ＭｉＴｒｉ　Ｍｅｄｉｃａｌ　Ｃｏｎｓｕｌｔｉｎｇ株式会社,,株式会社,宮城県,仙台市青葉区,堤通雨宮町１番６７－１０７号,,04,101,9810914,,,,,,,2025-07-11,1,,,,,マイトラメディカルコンサルティング,0
928,4380003006085,新規,0,2025-07-11,2025-07-11,合同会社集華,,合同会社,福島県,福島市,三河北町１７番１５号サーパス三河台７０２,,07,201,9608054,,,,,,,2025-07-11,1,,,,,シュウカ,0
930,4400003003501,新規,0,2025-07-11,2025-07-11,合同会社アルサートケア,,合同会社,岩手県,滝沢市,鵜飼上高柳５６番地,,03,216,0200671,,,,,,,2025-07-11,1,,,,,アルサートケア,0
931,4430001094845,新規,0,2025-07-11,2025-07-11,オーシャンブルーエナジー株式会社,,株式会社,北海道,苫小牧市,明野新町３丁目２１番１１号,,01,213,0530054,,,,,,,2025-07-11,1,,,,,オーシャンブルーエナジー,0
935,4460003001061,新規,0,2025-07-11,2025-07-11,合同会社ステーブルワークス,,合同会社,北海道,釧路市,松浦町９―８,,01,206,0850005,,,,,,,2025-07-11,1,,,,,ステーブルワークス,0
936,4480001012884,新規,0,2025-07-11,2025-07-11,株式会社ＰＩＮＰＯＮ,,株式会社,徳島県,徳島市,末広４丁目１番３１－３１５号,,36,201,7700866,,,,,,,2025-07-11,1,,,,,ピンポン,0
953,5010001256701,新規,0,2025-07-11,2025-07-11,東郷キャピタル株式会社,,株式会社,東京都,中央区,銀座６丁目６番１号銀座風月堂ビル５Ｆ,,13,102,1040061,,,,,,,2025-07-11,1,,,,,トウゴウキャピタル,0
954,5010001256718,新規,0,2025-07-11,2025-07-11,株式会社ツタストレージ,,株式会社,東京都,中央区,日本橋室町１丁目１１番１２号日本橋水野ビル７階,,13,102,1030022,,,,,,,2025-07-11,1,,,,,ツタストレージ,0
955,5010001256726,新規,0,2025-07-11,2025-07-11,株式会社ＳＰＹ,,株式会社,東京都,千代田区,東神田１丁目３番５号グランプレイス東神田２階,,13,101,1010031,,,,,,,2025-07-11,1,,,,,エスピーワイ,0
956,5010001256750,新規,0,2025-07-11,2025-07-11,株式会社ｏｆｆｎｏｔｅ,,株式会社,東京都,中央区,銀座３丁目４番１号大倉別館５階,,13,102,1040061,,,,,,,2025-07-11,1,,,,,オフノート,0
957,5010001256759,新規,0,2025-07-11,2025-07-11,アッシュリー株式会社,,株式会社,東京都,千代田区,大手町２丁目２－１新大手町ビル７階,,13,101,1000004,,,,,,,2025-07-11,1,,,,,アッシュリー,0
958,5010001256775,新規,0,2025-07-11,2025-07-11,株式会社マイスターセンス,,株式会社,東京都,中央区,銀座１丁目１２番４号Ｎ＆ＥＢＬＤ．７階,,13,102,1040061,,,,,,,2025-07-11,1,,,,,マイスターセンス,0
959,5010001256783,新規,0,2025-07-11,2025-07-11,株式会社Ｍａｎｄｅｙ,,株式会社,東京都,千代田区,一番町１５番２０号一番町フェニックスビル１０３号,,13,101,1020082,,,,,,,2025-07-11,1,,,,,マンディ,0
961,5010003047702,新規,0,2025-07-11,2025-07-11,合同会社サークルスロー,,合同会社,東京都,千代田区,神田佐久間町３丁目７番地由良ビル５階,,13,101,1010025,,,,,,,2025-07-11,1,,,,,サークルスロー,0
962,5010003048015,新規,0,2025-07-11,2025-07-11,合同会社フロー商店,,合同会社,東京都,中央区,日本橋室町１丁目１１番１２号日本橋水野ビル７階,,13,102,1030022,,,,,,,2025-07-11,1,,,,,フローショウテン,0
963,5010005040341,新規,0,2025-07-11,2025-07-11,一般社団法人Ｓｍｉｔｔｙ　Ｈ　ＩＳＨ,,その他の設立登記法人,東京都,中央区,新川１丁目１７番１８号,,13,102,1040033,,,,,,,2025-07-11,1,,,,,スミティエイチアイエスエイチ,0
964,5010005040358,新規,0,2025-07-11,2025-07-11,一般社団法人ツバサインベストメント,,その他の設立登記法人,東京都,千代田区,平河町１丁目６番１５号シルスフィア会計事務所内,,13,101,1020093,,,,,,,2025-07-11,1,,,,,ツバサインベストメント,0
967,5010401191639,新規,0,2025-07-11,2025-07-11,株式会社Ａｌｕｎａｒａ,,株式会社,東京都,港区,南青山５丁目１２番２７号ｗｉｓｅ５１２ビル３０５,,13,103,1070062,,,,,,,2025-07-11,1,,,,,アルナラ,0
968,5010401191663,新規,0,2025-07-11,2025-07-11,株式会社港町,,株式会社,東京都,港区,赤坂２丁目１２番２０号ディアシティ赤坂東館２０８号,,13,103,1070052,,,,,,,2025-07-11,1,,,,,ミナトマチ,0
969,5010401191671,新規,0,2025-07-11,2025-07-11,アトムラボ株式会社,,株式会社,東京都,港区,北青山１丁目３番１号アールキューブ青山３階,,13,103,1070061,,,,,,,2025-07-11,1,,,,,アトムラボ,0
975,5010701047994,新規,0,2025-07-11,2025-07-11,福＿株式会社,00139895,株式会社,東京都,品川区,東五反田１丁目１９番１号,,13,109,1410022,,,,,,,2025-07-11,1,,,,,フクシン,0
979,5010901057728,新規,0,2025-07-11,2025-07-11,株式会社ラトニカ,,株式会社,東京都,世田谷区,中町５丁目９番１号,,13,112,1580091,,,,,,,2025-07-11,1,,,,,ラトニカ,0
980,5010901057736,新規,0,2025-07-11,2025-07-11,株式会社ＣＶＨｉｌｌｓ,,株式会社,東京都,世田谷区,深沢２丁目１番４－９０６号,,13,112,1580081,,,,,,,2025-07-11,1,,,,,シーブイヒルズ,0
981,5010901057744,新規,0,2025-07-11,2025-07-11,株式会社ｓａｉｋａ．,,株式会社,東京都,世田谷区,池尻２丁目４番５号２階ＭＩＤＯＲＩ．ｓｏＩｋｅｊｉｒｉ,,13,112,1540001,,,,,,,2025-07-11,1,,,,,サイカ,0
982,5010903010081,新規,0,2025-07-11,2025-07-11,Ｐｈｉｌｏｓ　Ｏｎｅ合同会社,,合同会社,東京都,世田谷区,上馬４丁目８番５号,,13,112,1540011,,,,,,,2025-07-11,1,,,,,フィロスワン,0
987,5011001170586,新規,0,2025-07-11,2025-07-11,株式会社Ｏｒｃａ,,株式会社,東京都,渋谷区,恵比寿西２丁目８番４号ＥＸ恵比寿西ビル５階,,13,113,1500021,,,,,,,2025-07-11,1,,,,,オルカ,0
989,5011001170941,新規,0,2025-07-11,2025-07-11,アレシア総研株式会社,,株式会社,東京都,渋谷区,恵比寿１丁目１０番５号中田ビル４０１,,13,113,1500013,,,,,,,2025-07-11,1,,,,,アレシアソウケン,0
990,5011001171122,新規,0,2025-07-11,2025-07-11,ｗｉｌｌｓｅｎ株式会社,,株式会社,東京都,渋谷区,神南１丁目１１－４ＦＰＧリンクス神南５階,,13,113,1500041,,,,,,,2025-07-11,1,,,,,ウィルセン,0
995,5011103016150,新規,0,2025-07-11,2025-07-11,むぅさんワークス合同会社,,合同会社,東京都,新宿区,西新宿３丁目３番１３号西新宿水間ビル２Ｆ,,13,104,1600023,,,,,,,2025-07-11,1,,,,,ムゥサンワークス,0
996,5011501032303,新規,0,2025-07-11,2025-07-11,株式会社グルマンシエル,,株式会社,東京都,荒川区,荒川７丁目４６番１号マークスタワー１０８,,13,118,1160002,,,,,,,2025-07-11,1,,,,,グルマンシエル,0
997,5011501032311,新規,0,2025-07-11,2025-07-11,莨室株式会社,,株式会社,東京都,北区,浮間１丁目７－２３兆豊浮間ビル５０２号室,,13,117,1150051,,,,,,,2025-07-11,1,,,,,タバコシツ,0
1010,5012401043332,新規,0,2025-07-11,2025-07-11,株式会社富士建装,,株式会社,東京都,多摩市,東寺方５９０番地の２東寺方戸建賃貸住宅Ｂ号室,,13,224,2060003,,,,,,,2025-07-11,1,,,,,フジケンソウ,0
1013,5013101009739,新規,0,2025-07-11,2025-07-11,Ｄ．Ｍ．Ｐａｒｔｎｅｒｓ株式会社,,株式会社,東京都,青梅市,梅郷２丁目４４４番地の２,,13,205,1980063,,,,,,,2025-07-11,1,,,,,ディーエムパートナーズ,0
1015,5013301054592,新規,0,2025-07-11,2025-07-11,ＫＩＺＡＷＡパートナーズ株式会社,,株式会社,東京都,豊島区,目白２丁目１６番２２号ロンアイル池袋４０２号室,,13,116,1710031,,,,,,,2025-07-11,1,,,,,キザワパートナーズ,0
1019,5020001163673,新規,0,2025-07-11,2025-07-11,株式会社Ｂｅｓｋａｒ,,株式会社,神奈川県,横浜市磯子区,洋光台６丁目１６番１４号,,14,107,2350045,,,,,,,2025-07-11,1,,,,,ベスカー,0
1020,5020001163764,新規,0,2025-07-11,2025-07-11,青葉機械デザイン株式会社,,株式会社,神奈川県,横浜市青葉区,荏田町４４９番地６,,14,117,2250013,,,,,,,2025-07-11,1,,,,,アオバキカイデザイン,0
1021,5020001163847,新規,0,2025-07-11,2025-07-11,株式会社ＴＹＳ,,株式会社,神奈川県,横浜市鶴見区,北寺尾１丁目１３番１４号,,14,101,2300074,,,,,,,2025-07-11,1,,,,,ティーワイエス,0
1026,5021001085676,新規,0,2025-07-11,2025-07-11,株式会社福岡事務所,,株式会社,神奈川県,小田原市,中村原７２３－３,,14,206,2560803,,,,,,,2025-07-11,1,,,,,フクオカジムショ,0
1027,5021001085726,新規,0,2025-07-11,2025-07-11,Ｓｐｏｒｔｓ＆Ｆｉｔｎｅｓｓ　ＮＡＧＩ株式会社,,株式会社,神奈川県,大和市,西鶴間１丁目１０番１３号ライオンズプラザ鶴間９０１号室,,14,213,2420005,,,,,,,2025-07-11,1,,,,,スポーツアンドフィットネスナギ,0
1028,5021001085734,新規,0,2025-07-11,2025-07-11,ディボート株式会社,,株式会社,神奈川県,藤沢市,遠藤８４５番地の１０,,14,205,2520816,,,,,,,2025-07-11,1,,,,,ディボート,0
1031,5030001167459,新規,0,2025-07-11,2025-07-11,株式会社佑冷熱,,株式会社,埼玉県,川口市,大字安行領根岸２８０４番地の２デュオガーデン川口さくらの杜７０５号,,11,203,3330834,,,,,,,2025-07-11,1,,,,,タスクレイネツ,0
1032,5030001167541,新規,0,2025-07-11,2025-07-11,株式会社ギブレッジ,,株式会社,埼玉県,新座市,栗原１丁目６番１９－６１２号,,11,230,3520035,,,,,,,2025-07-11,1,,,,,シンウォン,0
1033,5030001167558,新規,0,2025-07-11,2025-07-11,山水国際株式会社,,株式会社,埼玉県,狭山市,祇園２－４狭山ニューシティビル３２２号室,,11,215,3501307,,,,,,,2025-07-11,1,,,,,サンスイコクサイ,0
1034,5030001167599,新規,0,2025-07-11,2025-07-11,株式会社ＵＬＮＯＩＲ,,株式会社,埼玉県,秩父市,下影森６２６番地１,,11,207,3691871,,,,,,,2025-07-11,1,,,,,ウルノワール,0
1040,5040001139606,新規,0,2025-07-11,2025-07-11,南州不動産株式会社,,株式会社,千葉県,千葉市中央区,道場北２丁目２番８号,,12,101,2600006,,,,,,,2025-07-11,1,,,,,ナンシュウフドウサン,0
1041,5040001139622,新規,0,2025-07-11,2025-07-11,株式会社トラストインベスト,,株式会社,千葉県,袖ケ浦市,久保田３４３３番地,,12,229,2990242,,,,,,,2025-07-11,1,,,,,トラストインベスト,0
1047,5050001056916,新規,0,2025-07-11,2025-07-11,株式会社老犬の家カピリナ,,株式会社,茨城県,石岡市,小幡１０５５番地１,,08,205,3150155,,,,,,,2025-07-11,1,,,,,ロウケンノイエカピリナ,0
1048,5050003009401,新規,0,2025-07-11,2025-07-11,ＰＨＵＯＣ　ＡＮ合同会社,,合同会社,茨城県,常総市,水海道諏訪町３２２１番地１０,,08,211,3030021,,,,,,,2025-07-11,1,,,,,フォックアン,0
1050,5060001038392,新規,0,2025-07-11,2025-07-11,株式会社Ｆｒａｇｒａｎｃｅ　Ｅｎｒｉｃｈ,,株式会社,栃木県,鹿沼市,西茂呂４丁目２１番地２,,09,205,3220029,,,,,,,2025-07-11,1,,,,,フレグランスエンリッチ,0
1051,5060001038401,新規,0,2025-07-11,2025-07-11,株式会社ＦＰＴ,,株式会社,栃木県,小山市,大字横倉４３５番地４２,,09,208,3230813,,,,,,,2025-07-11,1,,,,,エフピィティ,0
1058,5070003006000,新規,0,2025-07-11,2025-07-11,合同会社苗と実,,合同会社,群馬県,桐生市,新里町新川５８１番地,,10,203,3760121,,,,,,,2025-07-11,1,,,,,ナエトミ,0
1069,5120001277447,新規,0,2025-07-11,2025-07-11,白金天成株式会社,,株式会社,大阪府,大阪市西成区,萩之茶屋２丁目６番４号ニューかめや１８７号室,,27,122,5570004,,,,,,,2025-07-11,1,,,,,シロガネテンセイ,0
1070,5120001277736,新規,0,2025-07-11,2025-07-11,株式会社ＹＵＤＥＮ,,株式会社,大阪府,大阪市東成区,中本３丁目１３番１８号,,27,115,5370022,,,,,,,2025-07-11,1,,,,,ユウデン,0
1071,5120001277810,新規,0,2025-07-11,2025-07-11,吉光株式会社,,株式会社,大阪府,大阪市浪速区,桜川４丁目３－２２－６Ｆ,,27,111,5560022,,,,,,,2025-07-11,1,,,,,ヨシミツ,0
1072,5120003029945,新規,0,2025-07-11,2025-07-11,合同会社トータルアセット,,合同会社,大阪府,大阪市中央区,安堂寺町１丁目３番１８号３０１,,27,128,5420061,,,,,,,2025-07-11,1,,,,,トータルアセット,0
1073,5120003029986,新規,0,2025-07-11,2025-07-11,合同会社晴れ米屋,,合同会社,大阪府,寝屋川市,堀溝１丁目２５番８号,,27,215,5720814,,,,,,,2025-07-11,1,,,,,ハレマイヤ,0
1074,5120101072070,新規,0,2025-07-11,2025-07-11,株式会社ＳＨＩＢＡＴＡ,,株式会社,大阪府,高石市,取石４丁目７番１０号,,27,225,5920013,,,,,,,2025-07-11,1,,,,,シバタ,0
1075,5120101072079,新規,0,2025-07-11,2025-07-11,クルマ工房株式会社,,株式会社,大阪府,大阪狭山市,茱萸木７丁目１１８７番地の１,,27,231,5890013,,,,,,,2025-07-11,1,,,,,クルマコウボウ,0
1076,5120101072087,新規,0,2025-07-11,2025-07-11,株式会社モコラン,,株式会社,大阪府,堺市南区,赤坂台１丁２０番４号,,27,145,5900144,,,,,,,2025-07-11,1,,,,,モコラン,0
1078,5120103006555,新規,0,2025-07-11,2025-07-11,Ｒ＆Ｓ合同会社,,合同会社,大阪府,堺市西区,浜寺諏訪森町西４丁３４５番地の１,,27,144,5928347,,,,,,,2025-07-11,1,,,,,アールアンドエス,0
1079,5120103006563,新規,0,2025-07-11,2025-07-11,ＵＢＵＳＵＮＡ合同会社,,合同会社,大阪府,泉大津市,東雲町７番２８－３号,,27,206,5950026,,,,,,,2025-07-11,1,,,,,ウブスナ,0
1086,5130001080040,新規,0,2025-07-11,2025-07-11,株式会社ＯＲＩＧＩＮ,,株式会社,京都府,京都市東山区,弁財天町２６番地１Ｆ,,26,105,6050086,,,,,,,2025-07-11,1,,,,,オリジン,0
1087,5130001080049,新規,0,2025-07-11,2025-07-11,株式会社ＡＩＲ‐ＴＩＭＥＳ,,株式会社,京都府,京都市中京区,押堀町４４番地１,,26,104,6040054,,,,,,,2025-07-11,1,,,,,エアータイムズ,0
1088,5130001080073,新規,0,2025-07-11,2025-07-11,フォームメーラー株式会社,,株式会社,京都府,京都市下京区,中堂寺粟田町９１番地京都リサーチパーク９号館,,26,106,6008815,,,,,,,2025-07-11,1,,,,,フォームメーラー,0
1092,5150005009711,新規,0,2025-07-11,2025-07-11,一般社団法人吉野ストアサポート,,その他の設立登記法人,奈良県,吉野郡大淀町,大字下渕３６０番地,,29,442,6380821,,,,,,,2025-07-11,1,,,,,ヨシノストアサポート,0
1094,5160001026882,新規,0,2025-07-11,2025-07-11,株式会社西山農産,,株式会社,滋賀県,犬上郡豊郷町,大字八町１００１番地,,25,441,5291162,,,,,,,2025-07-11,1,,,,,ニシヤマノウサン,0
1095,5170001018706,新規,0,2025-07-11,2025-07-11,株式会社ＲＩＮＧＳＴＡＲ,,株式会社,和歌山県,和歌山市,吉田４３２番地シティビル太田２３０３号室,,30,201,6408343,,,,,,,2025-07-11,1,,,,,リングスター,0
1097,5180001167659,新規,0,2025-07-11,2025-07-11,株式会社友翔,,株式会社,愛知県,小牧市,光ケ丘１丁目６９番地３,,23,219,4850811,,,,,,,2025-07-11,1,,,,,ユウショウ,0
1098,5180001167675,新規,0,2025-07-11,2025-07-11,株式会社ジラーチ,,株式会社,愛知県,小牧市,大字東田中６９３番地１,,23,219,4850826,,,,,,,2025-07-11,1,,,,,ジラーチ,0
1099,5180001167709,新規,0,2025-07-11,2025-07-11,株式会社ｆｉｖｅ　ｌｉｎｋ,,株式会社,愛知県,瀬戸市,東赤重町２丁目１２番地,,23,204,4890877,,,,,,,2025-07-11,1,,,,,ファイブリンク,0
1100,5180003028685,新規,0,2025-07-11,2025-07-11,Ｅａｓｙ　Ｆｏｏｄｓ合同会社,,合同会社,愛知県,小牧市,大字横内４４０－１－Ｃ,,23,219,4850081,,,,,,,2025-07-11,1,,,,,イージーフズ,0
1101,5180003028693,新規,0,2025-07-11,2025-07-11,Ｊ　Ｊ　ＩＮＴＥＲＮＡＴＩＯＮＡＬ合同会社,,合同会社,愛知県,名古屋市千種区,萱場２丁目２－１ハートインカヤバ３Ｂ,,23,101,4640086,,,,,,,2025-07-11,1,,,,,ジェイジェイインターナショナル,0
1106,5180305009706,新規,0,2025-07-11,2025-07-11,医療法人慶祐会,,その他の設立登記法人,愛知県,岡崎市,竜美東１丁目８番地３,,23,202,4440878,,,,,,,2025-07-11,1,,,,,ケイユウカイ,0
1110,5200005013781,新規,0,2025-07-11,2025-07-11,一般社団法人新日本ガス共済会,,その他の設立登記法人,岐阜県,岐阜市,則武東３丁目１５番７号,,21,201,5020929,,,,,,,2025-07-11,1,,,,,シンニホンガスキョウサイカイ,0
1115,5220001026802,新規,0,2025-07-11,2025-07-11,株式会社エンヤ,,株式会社,石川県,金沢市,近岡町４１２番地１,,17,201,9208217,,,,,,,2025-07-11,1,,,,,エンヤ,0
1122,5240001065204,新規,0,2025-07-11,2025-07-11,株式会社猪俣電工,,株式会社,広島県,福山市,多治米町６丁目１５番１４号メゾンクレスト多治米１Ａ,,34,207,7200824,,,,,,,2025-07-11,1,,,,,イノマタデンコウ,0
1127,5290001110608,新規,0,2025-07-11,2025-07-11,株式会社ＲＥＡＬＯ,,株式会社,福岡県,福岡市城南区,田島３丁目１０番１０号,,40,136,8140113,,,,,,,2025-07-11,1,,,,,レアロ,0
1128,5290003017082,新規,0,2025-07-11,2025-07-11,Ｒサポート合同会社,,合同会社,福岡県,福岡市南区,井尻４丁目２番１０号,,40,134,8111302,,,,,,,2025-07-11,1,,,,,アールサポート,0
1129,5290801031706,新規,0,2025-07-11,2025-07-11,株式会社ＪＵ　ＳＯＬＡＲ　ＡＮＤ　ＡＵＴＯ　ＴＲＡＤＩＮＧ,,株式会社,福岡県,北九州市小倉南区,下城野１丁目９－３０ビブレマンション城野６０４号室,,40,107,8020804,,,,,,,2025-07-11,1,,,,,ジェイユーソーラーアンドオートトレーディング,0
1131,5300005007253,新規,0,2025-07-11,2025-07-11,一般社団法人日本スマート麻雀協会,,その他の設立登記法人,佐賀県,鳥栖市,東町１丁目１０２９番地９,,41,203,8410035,,,,,,,2025-07-11,1,,,,,ニッポンスマートマージャンキョウカイ,0
1138,5330001033390,新規,0,2025-07-11,2025-07-11,株式会社Ｎｅｘｕｓ,,株式会社,熊本県,熊本市中央区,黒髪２丁目２１番３０号,,43,101,8600862,,,,,,,2025-07-11,1,,,,,ネクサス,0
1140,5330003011097,新規,0,2025-07-11,2025-07-11,合同会社インテリアヒロ,,合同会社,熊本県,熊本市北区,硯川町７６１番地８,,43,105,8615524,,,,,,,2025-07-11,1,,,,,インテリアヒロ,0
1141,5330003011114,新規,0,2025-07-11,2025-07-11,合同会社ＴＯＲＡＹＡ,,合同会社,熊本県,熊本市東区,花立５丁目１２番１－１０１号,,43,102,8620918,,,,,,,2025-07-11,1,,,,,トラヤ,0
1142,5330005010931,新規,0,2025-07-11,2025-07-11,ＮＰＯ法人にっこり,,その他の設立登記法人,熊本県,天草郡苓北町,志岐４４９番地１７,,43,531,8632503,,,,,,,2025-07-11,1,,,,,ニッコリ,0
1144,5340001027508,新規,0,2025-07-11,2025-07-11,株式会社ＴＳ‐ｈｕｂ,,株式会社,鹿児島県,鹿児島市,上福元町６６８３番地１７,,46,201,8910116,,,,,,,2025-07-11,1,,,,,ティエスハブ,0
1148,5350003004974,新規,0,2025-07-11,2025-07-11,トミテク合同会社,,合同会社,宮崎県,西都市,大字黒生野３９６番地,,45,208,8810002,,,,,,,2025-07-11,1,,,,,トミテク,0
1153,5370001052809,新規,0,2025-07-11,2025-07-11,株式会社カケハシ,,株式会社,宮城県,塩竈市,新浜町１丁目１７番２９号,,04,203,9850001,,,,,,,2025-07-11,1,,,,,カケハシ,0
1154,5370001052817,新規,0,2025-07-11,2025-07-11,北陽金属株式会社,,株式会社,宮城県,仙台市泉区,紫山１丁目２３番地の６,,04,105,9813205,,,,,,,2025-07-11,1,,,,,ホクヨウキンゾク,0
1155,5370001052833,新規,0,2025-07-11,2025-07-11,株式会社ＭＩＴ,,株式会社,宮城県,仙台市太白区,西多賀３丁目１５番１－５号,,04,104,9820034,,,,,,,2025-07-11,1,,,,,エムアイティー,0
1156,5370001052841,新規,0,2025-07-11,2025-07-11,株式会社ＲＩＺＥＬＩＡ,,株式会社,宮城県,仙台市太白区,山田新町５０,,04,104,9820818,,,,,,,2025-07-11,1,,,,,リゼリア,0
1157,5370005010993,新規,0,2025-07-11,2025-07-11,一般社団法人ハートランド,,その他の設立登記法人,宮城県,仙台市泉区,松森字鹿島４１番地の４７,,04,105,9813111,,,,,,,2025-07-11,1,,,,,ハートランド,0
1161,5380001035449,新規,0,2025-07-11,2025-07-11,Ａｌｌｏｎｓｙ株式会社,,株式会社,福島県,いわき市,泉滝尻１丁目１６番地の４さくらアパート１０２,,07,204,9718189,,,,,,,2025-07-11,1,,,,,アロンジー,0
1172,5410001014218,新規,0,2025-07-11,2025-07-11,株式会社メトキラボ,,株式会社,秋田県,鹿角郡小坂町,荒谷字荒川４４番地６,,05,303,0170204,,,,,,,2025-07-11,1,,,,,メトキラボ,0
1173,5420001019208,新規,0,2025-07-11,2025-07-11,株式会社ＳＵＮＲＥＡＣＨ,,株式会社,青森県,青森市,篠田１丁目５番１２号,,02,201,0380011,,,,,,,2025-07-11,1,,,,,,0
1180,5490005006996,新規,0,2025-07-11,2025-07-11,農事組合法人横田農園,,その他の設立登記法人,高知県,高知市,五台山２２０１番地,,39,201,7818125,,,,,,,2025-07-11,1,,,,,ヨコタノウエン,0
1182,5500001026419,新規,0,2025-07-11,2025-07-11,ＰａｗＡｓｓｉｓｔ株式会社,,株式会社,愛媛県,松山市,西垣生町１７１９番地２６,,38,201,7918044,,,,,,,2025-07-11,1,,,,,パウアシスト,0
1192,6010001256816,新規,0,2025-07-11,2025-07-11,株式会社レンイチ,,株式会社,東京都,千代田区,岩本町２丁目２番１１号ガレリアドゥエル神田岩本町６０３号,,13,101,1010032,,,,,,,2025-07-11,1,,,,,レンイチ,0
1194,6010003047981,新規,0,2025-07-11,2025-07-11,長岡ＦＰ事務所合同会社,,合同会社,東京都,中央区,銀座１丁目１５－４,,13,102,1040061,,,,,,,2025-07-11,1,,,,,ナガオカエフピー,0
1195,6010003048014,新規,0,2025-07-11,2025-07-11,銀座ＳＫＲ合同会社,,合同会社,東京都,中央区,勝どき２丁目３番地３アクアフロント勝どきＷＥＳＴ２０１号,,13,102,1040054,,,,,,,2025-07-11,1,,,,,ギンザエスケーアール,0
1196,6010005040357,新規,0,2025-07-11,2025-07-11,東ノ宮ソーラー一般社団法人,,その他の設立登記法人,東京都,千代田区,霞が関３丁目２番５号霞が関ビルディング３１階,,13,101,1000013,,,,,,,2025-07-11,1,,,,,ヒガシノミヤソーラー,0
1202,6010401191638,新規,0,2025-07-11,2025-07-11,株式会社ａｐｏｌｌｏｎ,,株式会社,東京都,港区,南青山５丁目１２番２７号ｗｉｓｅ５１２ビル３０５,,13,103,1070062,,,,,,,2025-07-11,1,,,,,アポロン,0
1203,6010401191646,新規,0,2025-07-11,2025-07-11,株式会社ＩＡＭ＆Ｂ,,株式会社,東京都,港区,赤坂８丁目５番６－２０７号,,13,103,1070052,,,,,,,2025-07-11,1,,,,,アイアムアンドビー,0
1204,6010401191654,新規,0,2025-07-11,2025-07-11,ＣｌａｓｓＺｅｒｏ株式会社,,株式会社,東京都,港区,北青山１丁目３番１号アールキューブ青山３階,,13,103,1070061,,,,,,,2025-07-11,1,,,,,クラスゼロ,0
1205,6010401191670,新規,0,2025-07-11,2025-07-11,株式会社Ｔｒｅｘ,,株式会社,東京都,港区,六本木３丁目１６番１２号ＫＳビル５Ｆ,,13,103,1060032,,,,,,,2025-07-11,1,,,,,ティーレックス,0
1206,6010403035586,新規,0,2025-07-11,2025-07-11,ストリームリアルティ合同会社,,合同会社,東京都,港区,高輪３丁目１８番１１号高輪テラスＥ,,13,103,1080074,,,,,,,2025-07-11,1,,,,,ストリームリアルティ,0
1207,6010405024521,新規,0,2025-07-11,2025-07-11,一般社団法人日本性教育技術学会,,その他の設立登記法人,東京都,港区,六本木３丁目１６番１２号六本木ＫＳビル５Ｆ,,13,103,1060032,,,,,,,2025-07-11,1,,,,,ニホンセイキョウイクギジュツガッカイ,0
1215,6010901057727,新規,0,2025-07-11,2025-07-11,Ｌａｉｄｂａｃｋ　Ｃａｐｉｔａｌ株式会社,,株式会社,東京都,世田谷区,太子堂４丁目１８番１５号マガザン三軒茶屋２・３Ｆ－３,,13,112,1540004,,,,,,,2025-07-11,1,,,,,レイドバックキャピタル,0
1216,6010901057735,新規,0,2025-07-11,2025-07-11,Ｏ．Ｃ．Ｕｐｗａｒｄ＆Ｃｏ．株式会社,,株式会社,東京都,世田谷区,等々力７丁目２０番１４－７０３号,,13,112,1580082,,,,,,,2025-07-11,1,,,,,オーシーアップワードアンドカンパニー,0
1218,6010905004799,新規,0,2025-07-11,2025-07-11,一般社団法人川崎市ＥＳＤ研究会,,その他の設立登記法人,東京都,世田谷区,上馬１丁目１７番１７号,,13,112,1540011,,,,,,,2025-07-11,1,,,,,カワサキシイーエスディーケンキュウカイ,0
1225,6011001170940,新規,0,2025-07-11,2025-07-11,株式会社僕信,,株式会社,東京都,渋谷区,代々木１丁目４０番１６－３０９号アームスコート代々木,,13,113,1510053,,,,,,,2025-07-11,1,,,,,ボクシン,0
1228,6011003021951,新規,0,2025-07-11,2025-07-11,合同会社エオネ,,合同会社,東京都,渋谷区,道玄坂１丁目１６－６二葉ビル８Ｂ,,13,113,1500043,,,,,,,2025-07-11,1,,,,,エオネ,0
1231,6011103016091,新規,0,2025-07-11,2025-07-11,合同会社イン,,合同会社,東京都,新宿区,大久保１丁目４番２０号三島屋ビル２０１－Ｋ,,13,104,1690072,,,,,,,2025-07-11,1,,,,,イン,0
1232,6011201026505,新規,0,2025-07-11,2025-07-11,株式会社Ａｒｏｍａ,,株式会社,東京都,中野区,若宮１丁目３６番１,,13,114,1650033,,,,,,,2025-07-11,1,,,,,アロマ,0
1239,6011403004754,新規,0,2025-07-11,2025-07-11,合同会社もとのね,,合同会社,東京都,板橋区,熊野町３７番２－２０７号,,13,119,1730025,,,,,,,2025-07-11,1,,,,,モトノネ,0
1240,6011601028794,新規,0,2025-07-11,2025-07-11,株式会社リノア,,株式会社,東京都,練馬区,関町北３丁目３５番１号センチュリー田中２０１号室,,13,120,1770051,,,,,,,2025-07-11,1,,,,,リノア,0
1245,6011801046456,新規,0,2025-07-11,2025-07-11,Ｙａｃｒｏｓｓ株式会社,,株式会社,東京都,足立区,西新井５丁目１３番１４号,,13,121,1230841,,,,,,,2025-07-11,1,,,,,ヤクロス,0
1248,6012401043323,新規,0,2025-07-11,2025-07-11,株式会社ポルテケア,,株式会社,東京都,狛江市,岩戸北１丁目１０－６甲武ビル２０３,,13,219,2010004,,,,,,,2025-07-11,1,,,,,ポルテケア,0
1249,6012401043331,新規,0,2025-07-11,2025-07-11,株式会社ＨＹＴ,,株式会社,東京都,狛江市,西野川４丁目１０番２号,,13,219,2010001,,,,,,,2025-07-11,1,,,,,エイチワイティー,0
1251,6012701018974,新規,0,2025-07-11,2025-07-11,株式会社キラ,,株式会社,東京都,小平市,御幸町２７５－５,,13,211,1870012,,,,,,,2025-07-11,1,,,,,キラ,0
1259,6020001163838,新規,0,2025-07-11,2025-07-11,株式会社東岸,,株式会社,神奈川県,横浜市都筑区,茅ケ崎東２丁目２４番８号,,14,118,2240033,,,,,,,2025-07-11,1,,,,,ヒガシ,0
1260,6020001163862,新規,0,2025-07-11,2025-07-11,株式会社東信,,株式会社,神奈川県,横浜市金沢区,釜利谷東６丁目９番２号,,14,108,2360042,,,,,,,2025-07-11,1,,,,,トウシン,0
1261,6020001163887,新規,0,2025-07-11,2025-07-11,株式会社１ｃｈｉｌｌ,,株式会社,神奈川県,横浜市中区,相生町１丁目２４番地２第二リバースビル３階,,14,104,2310012,,,,,,,2025-07-11,1,,,,,ワンチル,0
1268,6021001085700,新規,0,2025-07-11,2025-07-11,株式会社ＴＡＲＯ,,株式会社,神奈川県,三浦郡葉山町,下山口１４９４番地,,14,301,2400116,,,,,,,2025-07-11,1,,,,,タロウ,0
1269,6021001085725,新規,0,2025-07-11,2025-07-11,株式会社ｍｉｎｉｍｏｒｉ,,株式会社,神奈川県,大和市,西鶴間１丁目１０番１３号ライオンズプラザ鶴間９０１号室,,14,213,2420005,,,,,,,2025-07-11,1,,,,,ミニモリ,0
1271,6021003016249,新規,0,2025-07-11,2025-07-11,合同会社Ｓ‐Ｌｉｎｅ,,合同会社,神奈川県,相模原市中央区,田名２７７２番地２９,,14,152,2520244,,,,,,,2025-07-11,1,,,,,エスライン,0
1272,6021003016265,新規,0,2025-07-11,2025-07-11,ＳＵＮＬＡＣＨＡ　ＥＮＴＥＲＰＲＩＳＥＳ合同会社,,合同会社,神奈川県,厚木市,三田３２８７番地１,,14,212,2430211,,,,,,,2025-07-11,1,,,,,サンラチャエンタープライセス,0
1276,6030001167417,新規,0,2025-07-11,2025-07-11,株式会社ｉＳＯＲＣＥ,,株式会社,埼玉県,所沢市,三ケ島５丁目１５８６番地,,11,208,3591164,,,,,,,2025-07-11,1,,,,,アイソース,0
1277,6030001167615,新規,0,2025-07-11,2025-07-11,株式会社ＶＩＴＡＬＩＱＵＥ,,株式会社,埼玉県,新座市,東北２丁目１６番３号エレンシア２０１号室,,11,230,3520001,,,,,,,2025-07-11,1,,,,,ビタリーク,0
1283,6040001139497,新規,0,2025-07-11,2025-07-11,株式会社ｊｏｕｒｎｅｙ,,株式会社,千葉県,柏市,手賀の杜５丁目１８番地１２,,12,217,2701447,,,,,,,2025-07-11,1,,,,,ジャーニー,0
1284,6040001139613,新規,0,2025-07-11,2025-07-11,株式会社ＬｉＮＫ,,株式会社,千葉県,佐倉市,栄町１４番地,,12,212,2850014,,,,,,,2025-07-11,1,,,,,リンク,0
1285,6040001139621,新規,0,2025-07-11,2025-07-11,株式会社チトワ,,株式会社,千葉県,市川市,下貝塚１丁目１３番２８号,,12,203,2720821,,,,,,,2025-07-11,1,,,,,チトワ,0
1294,6050001056923,新規,0,2025-07-11,2025-07-11,株式会社Ａｉｚｕ,,株式会社,茨城県,鹿嶋市,大字下津２８９－３,,08,222,3140004,,,,,,,2025-07-11,1,,,,,アイズ,0
1296,6050003009417,新規,0,2025-07-11,2025-07-11,合同会社ケアプランセンターつくし,,合同会社,茨城県,日立市,南高野町２丁目２０番４号,,08,202,3191224,,,,,,,2025-07-11,1,,,,,ケアプランセンターツクシ,0
1297,6060001038375,新規,0,2025-07-11,2025-07-11,株式会社いちごとお米,,株式会社,栃木県,大田原市,戸野内１０９番地,,09,210,3240066,,,,,,,2025-07-11,1,,,,,イチゴトオコメ,0
1298,6060001038383,新規,0,2025-07-11,2025-07-11,Ｏｆｆｉｃｅ　ＨＡＬ株式会社,,株式会社,栃木県,宇都宮市,栄町１番１５号サーパス宇都宮県庁前通り１１０１号室,,09,201,3200024,,,,,,,2025-07-11,1,,,,,オフィスハル,0
1299,6060001038400,新規,0,2025-07-11,2025-07-11,株式会社和合,,株式会社,栃木県,塩谷郡高根沢町,光陽台１丁目３番５号,,09,386,3291232,,,,,,,2025-07-11,1,,,,,ワゴウ,0
1301,6060003005638,新規,0,2025-07-11,2025-07-11,まごころカーゴ合同会社,,合同会社,栃木県,塩谷郡高根沢町,宝石台２丁目４－３,,09,386,3291231,,,,,,,2025-07-11,1,,,,,マゴコロカーゴ,0
1321,6110001039401,新規,0,2025-07-11,2025-07-11,ＣＷサービス株式会社,,株式会社,新潟県,新潟市東区,紫竹卸新町１８０８番地２２,,15,102,9500868,,,,,,,2025-07-11,1,,,,,シーダブリュサービス,0
1322,6110001039426,新規,0,2025-07-11,2025-07-11,株式会社瑞雪楼,,株式会社,新潟県,新潟市南区,保坂２９３番地１,,15,106,9501233,,,,,,,2025-07-11,1,,,,,ミユキロウ,0
1330,6120001277504,新規,0,2025-07-11,2025-07-11,Ｒｕｎ　Ｈｏｌｄｉｎｇｓ株式会社,,株式会社,大阪府,大阪市天王寺区,生玉前町１番１７号,,27,109,5430072,,,,,,,2025-07-11,1,,,,,ランホールディングス,0
1331,6120001277727,新規,0,2025-07-11,2025-07-11,株式会社ＡＧＡＰＥリサイクル,,株式会社,大阪府,交野市,東倉治３丁目１４番６号,,27,230,5760061,,,,,,,2025-07-11,1,,,,,アガペリサイクル,0
1332,6120001277875,新規,0,2025-07-11,2025-07-11,株式会社ＦＡＭＥＬ,,株式会社,大阪府,大阪市北区,梅田１丁目２番２号大阪駅前第２ビル１２‐１２,,27,127,5300001,,,,,,,2025-07-11,1,,,,,ファメル,0
1333,6120001277909,新規,0,2025-07-11,2025-07-11,昭煥株式会社,,株式会社,大阪府,大阪市西成区,鶴見橋１丁目７番２７号ＲＥＩＫＹＯ・ＨＡＮＡＺＯＮＯ管理室,,27,122,5570031,,,,,,,2025-07-11,1,,,,,ショウカン,0
1335,6120003030002,新規,0,2025-07-11,2025-07-11,エデン合同会社,,合同会社,大阪府,大阪市東淀川区,下新庄４丁目１５番２７－２０６号,,27,114,5330021,,,,,,,2025-07-11,1,,,,,エデン,0
1336,6120003030010,新規,0,2025-07-11,2025-07-11,安潤国際合同会社,,合同会社,大阪府,大阪市東住吉区,住道矢田５丁目１２番２０号,,27,121,5460022,,,,,,,2025-07-11,1,,,,,アンジュンコクサイ,0
1337,6120005025041,新規,0,2025-07-11,2025-07-11,医療法人エストリナ,,その他の設立登記法人,大阪府,大阪市浪速区,湊町２丁目２番２２号アーベインウエスト１号室,,27,111,5560017,,,,,,,2025-07-11,1,,,,,エストリナ,0
1338,6120101072053,新規,0,2025-07-11,2025-07-11,吉康遠志株式会社,,株式会社,大阪府,堺市南区,深阪南１０４－２,,27,145,5900103,,,,,,,2025-07-11,1,,,,,ヨシヤスエンシ,0
1339,6120101072061,新規,0,2025-07-11,2025-07-11,株式会社ワークス,,株式会社,大阪府,泉大津市,森町２丁目３番１４号,,27,206,5950005,,,,,,,2025-07-11,1,,,,,ワークス,0
1340,6120101072078,新規,0,2025-07-11,2025-07-11,スカイリエゾン株式会社,,株式会社,大阪府,岸和田市,岸城町２４番６号,,27,202,5960073,,,,,,,2025-07-11,1,,,,,スカイリエゾン,0
1341,6120101072086,新規,0,2025-07-11,2025-07-11,松尾組株式会社,,株式会社,大阪府,泉大津市,末広町１丁目４番１４号,,27,206,5950002,,,,,,,2025-07-11,1,,,,,マツオグミ,0
1342,6120101072094,新規,0,2025-07-11,2025-07-11,株式会社桜,,株式会社,大阪府,和泉市,東阪本町３５１番地の１（パストラル和泉８０２）,,27,219,5940051,,,,,,,2025-07-11,1,,,,,サクラ,0
1343,6120103006562,新規,0,2025-07-11,2025-07-11,スリーセブン合同会社,,合同会社,大阪府,松原市,天美東８丁目９番１２号,,27,217,5800032,,,,,,,2025-07-11,1,,,,,スリーセブン,0
1344,6120105010034,新規,0,2025-07-11,2025-07-11,医療法人勇美会,,その他の設立登記法人,大阪府,堺市東区,日置荘西町４丁３５番１０号メディカルスクエア初芝駅前２階,,27,143,5998114,,,,,,,2025-07-11,1,,,,,ユウビカイ,0
1353,6130001080056,新規,0,2025-07-11,2025-07-11,孫四郎ファーム株式会社,,株式会社,京都府,福知山市,字岩井５４番地,,26,201,6200922,,,,,,,2025-07-11,1,,,,,マゴシロウファーム,0
1355,6130003010597,新規,0,2025-07-11,2025-07-11,合同会社Ｓｏｕｎｄ　Ｃｅｌｌｔｉｑｕｅ,,合同会社,京都府,京都市南区,上鳥羽西浦町３２９番地,,26,107,6018145,,,,,,,2025-07-11,1,,,,,サウンドセルティーク,0
1362,6140001139173,新規,0,2025-07-11,2025-07-11,株式会社スリーラック,,株式会社,兵庫県,尼崎市,瓦宮１丁目８番２８号,,28,202,6610971,,,,,,,2025-07-11,1,,,,,スリーラック,0
1363,6140001139207,新規,0,2025-07-11,2025-07-11,株式会社リクリ,,株式会社,兵庫県,神戸市東灘区,住吉宮町３丁目１５番１８号,,28,101,6580053,,,,,,,2025-07-11,1,,,,,リクリ,0
1365,6150001028268,新規,0,2025-07-11,2025-07-11,スマイカンリ株式会社,,株式会社,奈良県,天理市,長柄町７８０,,29,204,6320062,,,,,,,2025-07-11,1,,,,,スマイカンリ,0
1370,6180001167666,新規,0,2025-07-11,2025-07-11,株式会社ＬＩＢＺＩＮＤ,,株式会社,愛知県,名古屋市港区,港栄３丁目２番２０号,,23,111,4550015,,,,,,,2025-07-11,1,,,,,リブジン,0
1371,6180001167690,新規,0,2025-07-11,2025-07-11,株式会社ＦＫｗｏｒｋｓ,,株式会社,愛知県,尾張旭市,井田町４丁目３８番地,,23,226,4880024,,,,,,,2025-07-11,1,,,,,エフケーワークス,0
1372,6180001167708,新規,0,2025-07-11,2025-07-11,株式会社大熙,,株式会社,愛知県,江南市,尾崎町上田６３番地,,23,217,4838161,,,,,,,2025-07-11,1,,,,,ダイキ,0
1373,6180001167716,新規,0,2025-07-11,2025-07-11,株式会社ｓｅｖｅｎｈｕｎｄｒｅｄ　ｓｅｖｅｎｔｙ　ｓｅｖｅｎ,,株式会社,愛知県,名古屋市熱田区,三本松町１３番１９号,,23,109,4560032,,,,,,,2025-07-11,1,,,,,セブンハンドレッドセブンティセブン,0
1377,6180003028718,新規,0,2025-07-11,2025-07-11,合同会社Ｐｌａｙｉｎｇ‐Ａｌｏｎｅ,,合同会社,愛知県,常滑市,矢田字大力７６番地の１,,23,216,4790001,,,,,,,2025-07-11,1,,,,,プレイングアローン,0
1380,6180303006638,新規,0,2025-07-11,2025-07-11,Ａ６　ＪＡＰＡＮ　ＣＯＬＬＥＣＴＩＯＮ合同会社,,合同会社,愛知県,西尾市,寺津町田地山２５番地,,23,213,4440324,,,,,,,2025-07-11,1,,,,,エイシックスジャパンコレクション,0
1381,6180303006654,新規,0,2025-07-11,2025-07-11,ＳＡＮＳＥＩ　ＡＵＴＯ合同会社,,合同会社,愛知県,岡崎市,日名南町８－８,,23,202,4440915,,,,,,,2025-07-11,1,,,,,サンセイオート,0
1383,6190001032381,新規,0,2025-07-11,2025-07-11,株式会社ｌａｎｇｅ,,株式会社,三重県,鈴鹿市,道伯２丁目７－２７,,24,207,5130823,,,,,,,2025-07-11,1,,,,,レンジ,0
1384,6190005012058,新規,0,2025-07-11,2025-07-11,久保田会計税理士法人,,その他の設立登記法人,三重県,伊勢市,二俣２丁目４番２１号,,24,203,5160064,,,,,,,2025-07-11,1,,,,,クボタカイケイ,0
1388,6200005013780,新規,0,2025-07-11,2025-07-11,一般社団法人サヴァリッシュ・クラシックス,,その他の設立登記法人,岐阜県,可児市,広見１丁目１７番地,,21,214,5090214,,,,,,,2025-07-11,1,,,,,サヴァリッシュクラシックス,0
1394,6240001065211,新規,0,2025-07-11,2025-07-11,株式会社千神屋,,株式会社,広島県,福山市,千田町３丁目２４番２２－６号,,34,207,7200017,,,,,,,2025-07-11,1,,,,,チガミヤ,0
1396,6240003007293,新規,0,2025-07-11,2025-07-11,合同会社美悦琳,,合同会社,広島県,広島市安芸区,中野５丁目１７番６号１０２号室,,34,107,7390321,,,,,,,2025-07-11,1,,,,,メユリ,0
1397,6250003003770,新規,0,2025-07-11,2025-07-11,合同会社ズバ,,合同会社,山口県,下関市,長府宮崎町５番１３号,,35,201,7520984,,,,,,,2025-07-11,1,,,,,ズバ,0
1404,6290001110672,新規,0,2025-07-11,2025-07-11,株式会社ＳｌｏｗＢｌｏｏｍ　Ｃｏｍｐａｎｙ,,株式会社,福岡県,福岡市博多区,博多駅前１丁目２３番２号ＰａｒｋＦｒｏｎｔ博多駅前１丁目５Ｆ－Ｂ,,40,132,8120011,,,,,,,2025-07-11,1,,,,,スローブルームカンパニー,0
1407,6290003017081,新規,0,2025-07-11,2025-07-11,にこいち・スマイルプランニング合同会社,,合同会社,福岡県,福岡市中央区,天神４丁目６－２８いちご天神ノースビル７階,,40,133,8100001,,,,,,,2025-07-11,1,,,,,ニコイチスマイルプランニング,0
1408,6290003017107,新規,0,2025-07-11,2025-07-11,合同会社輪華,,合同会社,福岡県,八女郡広川町,大字久泉７８７－１７,,40,544,8340112,,,,,,,2025-07-11,1,,,,,リンカ,0
1409,6290003017131,新規,0,2025-07-11,2025-07-11,Ｍ＆Ｍ薬局合同会社,,合同会社,福岡県,福岡市中央区,赤坂１丁目８－２３,,40,133,8100042,,,,,,,2025-07-11,1,,,,,エムアンドエムヤッキョク,0
1413,6310001019696,新規,0,2025-07-11,2025-07-11,鎧ＪＡＰＡＮ株式会社,,株式会社,長崎県,長崎市,かき道４丁目４４番３号,,42,201,8510115,,,,,,,2025-07-11,1,,,,,ヨロイジャパン,0
1414,6310001019705,新規,0,2025-07-11,2025-07-11,寛騎株式会社,,株式会社,長崎県,長崎市,片淵２丁目１１番２１号,,42,201,8500003,,,,,,,2025-07-11,1,,,,,カンキ,0
1415,6330001033398,新規,0,2025-07-11,2025-07-11,株式会社ｆｕｔｕｒｅ　ｓｋｙ,,株式会社,熊本県,菊池郡菊陽町,大字津久礼２６９２番地４プラネスト菊陽ＩＩ６０１号,00139900,43,404,8691101,,,,,,,2025-07-11,1,,,,,フューチャースカイ,0
1417,6330005010930,新規,0,2025-07-11,2025-07-11,一般社団法人ママの色あかちゃんの詩,,その他の設立登記法人,熊本県,阿蘇市,一の宮町坂梨１１５４番地４,,43,214,8692611,,,,,,,2025-07-11,1,,,,,ママノイロアカチャンノウタ,0
1425,6350001019643,新規,0,2025-07-11,2025-07-11,Ｋ’ｓアセットマネージメント株式会社,,株式会社,宮崎県,宮崎市,阿波岐原町前浜４２７６番地９５５,,45,201,8800835,,,,,,,2025-07-11,1,,,,,ケーズアセットマネージメント,0
1426,6350001019651,新規,0,2025-07-11,2025-07-11,株式会社戸梶農園,,株式会社,宮崎県,宮崎市,大字島之内１０５５３番地,,45,201,8800121,,,,,,,2025-07-11,1,,,,,トカジノウエン,0
1427,6350003004981,新規,0,2025-07-11,2025-07-11,スタープラチナ合同会社,,合同会社,宮崎県,宮崎市,江平西１丁目１番２１号,,45,201,8800051,,,,,,,2025-07-11,1,,,,,スタープラチナ,0
1436,6370001052816,新規,0,2025-07-11,2025-07-11,ネクサス・コア株式会社,,株式会社,宮城県,仙台市青葉区,折立１丁目３番２６号,,04,101,9893161,,,,,,,2025-07-11,1,,,,,ネクサスコア,0
1450,6460103001728,新規,0,2025-07-11,2025-07-11,合同会社十勝蒸気屋,,合同会社,北海道,帯広市,西二十四条北２丁目５番地９９,,01,207,0802464,,,,,,,2025-07-11,1,,,,,トカチジョウキヤ,0
1452,6470001020795,新規,0,2025-07-11,2025-07-11,株式会社Ｒｅ．ＲＩＮＥ．ＢＡＳＥ,,株式会社,香川県,高松市,古馬場町９番地番２６二見ビル６階,,37,201,7600045,,,,,,,2025-07-11,1,,,,,リラインベース,0
1453,6470005006634,新規,0,2025-07-11,2025-07-11,一般財団法人百々の杖,,その他の設立登記法人,香川県,高松市,南新町６番地１,,37,201,7600051,,,,,,,2025-07-11,1,,,,,モモノツエ,0
1465,7010001256716,新規,0,2025-07-11,2025-07-11,株式会社ＡＭＥＹ,,株式会社,東京都,文京区,千駄木５丁目１９番３－２０１号,,13,105,1130022,,,,,,,2025-07-11,1,,,,,エイミー,0
1466,7010001256749,新規,0,2025-07-11,2025-07-11,株式会社Ｔ＆Ｃｏ．,,株式会社,東京都,中央区,銀座１丁目３－３Ｇ１ビル７階,,13,102,1040061,,,,,,,2025-07-11,1,,,,,ティーアンドコー,0
1467,7010001256781,新規,0,2025-07-11,2025-07-11,株式会社Ｃｒｙｓｔａｌ　Ｆｏｒｃｅ,,株式会社,東京都,中央区,勝どき６丁目３－２－４５０９号,,13,102,1040054,,,,,,,2025-07-11,1,,,,,クリスタルフォース,0
1468,7010001256815,新規,0,2025-07-11,2025-07-11,ロケットスタート株式会社,,株式会社,東京都,千代田区,六番町７番地１１エスカリエ六番町１階,,13,101,1020085,,,,,,,2025-07-11,1,,,,,ロケットスタート,0
1469,7010001256831,新規,0,2025-07-11,2025-07-11,株式会社アクアリンク,,株式会社,東京都,千代田区,神田神保町２丁目３４－１鳴海ビル２０４号室,,13,101,1010051,,,,,,,2025-07-11,1,,,,,,0
1470,7010001256856,新規,0,2025-07-11,2025-07-11,ＥＳグローバルジャパン株式会社,,株式会社,東京都,中央区,銀座１丁目２２番１１号,,13,102,1040061,,,,,,,2025-07-11,1,,,,,イーエスグローバルジャパン,0
1475,7010003047956,新規,0,2025-07-11,2025-07-11,ＮｅｘＣａｐ　Ｊａｐａｎ合同会社,,合同会社,東京都,中央区,銀座１丁目２２番１１号銀座大竹ビジデンス２Ｆ,,13,102,1040061,,,,,,,2025-07-11,1,,,,,ネクスキャップジャパン,0
1476,7010003047980,新規,0,2025-07-11,2025-07-11,Ｂｏｌｔ６合同会社,,合同会社,東京都,中央区,築地５丁目４番１９号,,13,102,1040045,,,,,,,2025-07-11,1,,,,,ボルトシックス,0
1477,7010003047997,新規,0,2025-07-11,2025-07-11,合同会社ライトハウス２号,,合同会社,東京都,千代田区,霞が関３丁目２番５号,,13,101,1000013,,,,,,,2025-07-11,1,,,,,ライトハウスニゴウ,0
1478,7010003048013,新規,0,2025-07-11,2025-07-11,合同会社ＳＰＣ１０,,合同会社,東京都,千代田区,平河町１丁目６番１５号シルスフィア会計事務所内,,13,101,1020093,,,,,,,2025-07-11,1,,,,,エスピーシーテン,0
1487,7010401191356,新規,0,2025-07-11,2025-07-11,株式会社馥友社,,株式会社,東京都,港区,赤坂８丁目４－１４青山タワープレイス８階,,13,103,1070052,,,,,,,2025-07-11,1,,,,,フクユウシャ,0
1488,7010401191562,新規,0,2025-07-11,2025-07-11,サンライズ株式会社,,株式会社,東京都,港区,南青山４丁目１８－１１フォレストビルイーストウィング２Ｆ,,13,103,1070062,,,,,,,2025-07-11,1,,,,,サンライズ,0
1489,7010401191612,新規,0,2025-07-11,2025-07-11,株式会社日本繊維輸出協会,,株式会社,東京都,港区,麻布十番１丁目４－７－７Ｆ,,13,103,1060045,,,,,,,2025-07-11,1,,,,,ニホンセンイユシュツキョウカイ,0
1490,7010401191645,新規,0,2025-07-11,2025-07-11,株式会社Ｅｍｏａ,,株式会社,東京都,港区,南麻布２丁目９番１５－８０５号,,13,103,1060047,,,,,,,2025-07-11,1,,,,,エモア,0
1498,7010503007922,新規,0,2025-07-11,2025-07-11,合同会社ニルヴァーナホールディングス,,合同会社,東京都,台東区,上野５丁目２３－８キューアス御徒町ビル,,13,106,1100005,,,,,,,2025-07-11,1,,,,,ニルヴァーナホールディングス,0
1502,7010801036367,新規,0,2025-07-11,2025-07-11,ＢＰＫマネジメント株式会社,,株式会社,東京都,大田区,上池台１丁目７番１６号大田長原オフィス２２３号室,,13,111,1450064,,,,,,,2025-07-11,1,,,,,ビーピーケーマネジメント,0
1505,7010901057734,新規,0,2025-07-11,2025-07-11,株式会社ラヴィニール,,株式会社,東京都,世田谷区,松原６丁目２９番１－４０６号,,13,112,1560043,,,,,,,2025-07-11,1,,,,,ラヴィニール,0
1508,7011001170592,新規,0,2025-07-11,2025-07-11,ＳＡＮＧ株式会社,,株式会社,東京都,渋谷区,円山町５番５号Ｎａｖｉ渋谷Ｖ３階,00139893,13,113,1500044,,,,,,,2025-07-11,1,,,,,サング,0
1509,7011001170601,新規,0,2025-07-11,2025-07-11,ＡｒｔＬａｕｎｃｈｅｒ株式会社,,株式会社,東京都,渋谷区,渋谷２丁目１９－１５宮益坂ビルディング６０９,,13,113,1500002,,,,,,,2025-07-11,1,,,,,アートランチャー,0
1510,7011001170634,新規,0,2025-07-11,2025-07-11,Ｉｒｗｉｎ＆ｃｏ株式会社,,株式会社,東京都,目黒区,目黒４丁目１１－１０,,13,110,1530063,,,,,,,2025-07-11,1,,,,,アーウィンアンドカンパニー,0
1511,7011001170709,新規,0,2025-07-11,2025-07-11,株式会社音繋,,株式会社,東京都,渋谷区,恵比寿西２丁目８番４号ＥＸ恵比寿西ビル５階,,13,113,1500021,,,,,,,2025-07-11,1,,,,,オトツナグ,0
1512,7011001170931,新規,0,2025-07-11,2025-07-11,ワタナベホールディングス株式会社,,株式会社,東京都,目黒区,目黒１丁目１７番１７号,,13,110,1530063,,,,,,,2025-07-11,1,,,,,ワタナベホールディングス,0
1515,7011101112395,新規,0,2025-07-11,2025-07-11,株式会社Ｄｏｃｔｏｒ　Ｆｏｒｃｅ,,株式会社,東京都,新宿区,西新宿３丁目３番１３号西新宿水間ビル２Ｆ,,13,104,1600023,,,,,,,2025-07-11,1,,,,,ドクターフォース,0
1516,7011101112511,新規,0,2025-07-11,2025-07-11,株式会社Ｋｉｋｉ,,株式会社,東京都,新宿区,西新宿３丁目５－１２トーカン新宿第２キャステール２０９号室,,13,104,1600023,,,,,,,2025-07-11,1,,,,,キキ,0
1517,7011401027244,新規,0,2025-07-11,2025-07-11,株式会社ＮｅｗＰｏｒｔ,,株式会社,東京都,板橋区,清水町５５番９号ｂ’ｃａｓａｉｔａｂａｓｈｉ４０２,,13,119,1740053,,,,,,,2025-07-11,1,,,,,ニューポート,0
1520,7011701028504,新規,0,2025-07-11,2025-07-11,株式会社自由こそ全て,,株式会社,東京都,江戸川区,船堀６丁目１０番２１号,,13,123,1340091,,,,,,,2025-07-11,1,,,,,ジユウコソスベテ,0
1523,7011801046430,新規,0,2025-07-11,2025-07-11,株式会社アモール,,株式会社,東京都,葛飾区,西新小岩５丁目１９番１４号,,13,122,1240025,,,,,,,2025-07-11,1,,,,,アモール,0
1526,7012403007226,新規,0,2025-07-11,2025-07-11,ヴィジョナリーセブン合同会社,,合同会社,東京都,三鷹市,下連雀３丁目９番４－１０１号,,13,204,1810013,,,,,,,2025-07-11,1,,,,,ヴィジョナリーセブン,0
1527,7012701018957,新規,0,2025-07-11,2025-07-11,株式会社ビルテン,,株式会社,東京都,東村山市,秋津町４丁目２０番地２１,,13,213,1890001,,,,,,,2025-07-11,1,,,,,ビルテン,0
1528,7012801024104,新規,0,2025-07-11,2025-07-11,株式会社成瀬建装,,株式会社,東京都,東大和市,立野１丁目２番地の１６カレントーＢ１０２,,13,220,2070021,,,,,,,2025-07-11,1,,,,,ナルセケンソウ,0
1532,7020001163713,新規,0,2025-07-11,2025-07-11,株式会社ＢＩＴＡＬＫ,,株式会社,神奈川県,横浜市旭区,二俣川１丁目５７番地２３リベルテ二俣川Ｂ棟５０２号,,14,112,2410821,,,,,,,2025-07-11,1,,,,,バイトーク,0
1533,7020001163754,新規,0,2025-07-11,2025-07-11,株式会社Ｈｕｇ　Ｔｒｅｅ,,株式会社,神奈川県,横浜市旭区,東希望が丘２０４－１５,,14,112,2410826,,,,,,,2025-07-11,1,,,,,ハグツリー,0
1534,7020001163812,新規,0,2025-07-11,2025-07-11,サンスマイリング株式会社,,株式会社,神奈川県,横浜市神奈川区,入江２丁目２番３－３０１号,,14,102,2210014,,,,,,,2025-07-11,1,,,,,サンスマイリング,0
1536,7020003028831,新規,0,2025-07-11,2025-07-11,合同会社ひこいち旭,,合同会社,神奈川県,横浜市港北区,師岡町４１８－２グリーンヒル大倉山Ｂ２０４,,14,109,2220002,,,,,,,2025-07-11,1,,,,,ヒコイチアサヒ,0
1538,7021001085666,新規,0,2025-07-11,2025-07-11,株式会社むとうガーデンサービス,,株式会社,神奈川県,南足柄市,塚原４６２７番地１４６,,14,217,2500117,,,,,,,2025-07-11,1,,,,,ムトウガーデンサービス,0
1539,7021001085699,新規,0,2025-07-11,2025-07-11,株式会社大松,,株式会社,神奈川県,鎌倉市,笛田２丁目５番２号,,14,204,2480027,,,,,,,2025-07-11,1,,,,,ダイマツ,0
1543,7030001167572,新規,0,2025-07-11,2025-07-11,ＢＯＮＳＡＩ　ＭＡＮＩＡ株式会社,,株式会社,埼玉県,朝霞市,本町１丁目１３番３９号,,11,227,3510011,,,,,,,2025-07-11,1,,,,,ボンサイマニア,0
1544,7030001167597,新規,0,2025-07-11,2025-07-11,ＲＹ流通株式会社,,株式会社,埼玉県,越谷市,大字弥十郎７２２番地７,,11,222,3430047,,,,,,,2025-07-11,1,,,,,アールワイリュウツウ,0
1545,7030001167606,新規,0,2025-07-11,2025-07-11,株式会社アークス,,株式会社,埼玉県,蓮田市,大字根金１７６５番地１,,11,238,3490131,,,,,,,2025-07-11,1,,,,,アークス,0
1551,7040001139604,新規,0,2025-07-11,2025-07-11,株式会社Ｍｉｒｉｚｉｎ,,株式会社,千葉県,佐倉市,弥勒町３－１２,,12,212,2850038,,,,,,,2025-07-11,1,,,,,ミライジン,0
1556,7040003028012,新規,0,2025-07-11,2025-07-11,合同会社Ｌｅａｐ　Ｉｎｔｅｒｎａｔｉｏｎａｌ,,合同会社,千葉県,旭市,萬力２４１２,,12,215,2890517,,,,,,,2025-07-11,1,,,,,リープインターナショナル,0
1557,7040003028020,新規,0,2025-07-11,2025-07-11,合同会社豊栄アセット,,合同会社,千葉県,流山市,三輪野山３丁目１０番地の１１,,12,220,2700175,,,,,,,2025-07-11,1,,,,,ホウエイアセット,0
1558,7040003028029,新規,0,2025-07-11,2025-07-11,ＯＭ　ＴＲＡＤＩＮＧ合同会社,,合同会社,千葉県,千葉市花見川区,花見川９番２８棟３０３号,,12,102,2620046,,,,,,,2025-07-11,1,,,,,オムトレーディング,0
1562,7050001056914,新規,0,2025-07-11,2025-07-11,株式会社日本オーガニック,,株式会社,茨城県,小美玉市,竹原１３２３番地１,,08,236,3190113,,,,,,,2025-07-11,1,,,,,ニホンオーガニック,0
1563,7050001056922,新規,0,2025-07-11,2025-07-11,赤丸工業株式会社,,株式会社,茨城県,ひたちなか市,大字勝倉１４２８番地２,,08,221,3120024,,,,,,,2025-07-11,1,,,,,アカマルコウギョウ,0
1564,7050001056939,新規,0,2025-07-11,2025-07-11,株式会社Ｇｒａｙｓｃａｌｅ,,株式会社,茨城県,水戸市,笠原町７２８番地の４,,08,201,3100852,,,,,,,2025-07-11,1,,,,,グレースケール,0
1568,7060003005637,新規,0,2025-07-11,2025-07-11,ＷＫカンパニー合同会社,,合同会社,栃木県,日光市,鬼怒川温泉滝４８２番地６,,09,206,3212526,,,,,,,2025-07-11,1,,,,,ダブリュウケイカンパニー,0
1570,7070001043134,新規,0,2025-07-11,2025-07-11,株式会社沙和,,株式会社,群馬県,前橋市,文京町１丁目３２番７－１００１号ホーユーパレス前橋文京町,,10,201,3710801,,,,,,,2025-07-11,1,,,,,サワ,0
1571,7070001043142,新規,0,2025-07-11,2025-07-11,株式会社Ｎ‐ｇａｒａｇｅ,,株式会社,群馬県,高崎市,上並榎町２３２番地２,,10,202,3700801,,,,,,,2025-07-11,1,,,,,エヌガレージ,0
1574,7080001027037,新規,0,2025-07-11,2025-07-11,株式会社ｆｕｎｎｙｆｕｎｃｔｉｏｎ,,株式会社,静岡県,静岡市葵区,栄町２番地５アークビルディング５０２,,22,101,4200859,,,,,,,2025-07-11,1,,,,,ファニーファンクション,0
1578,7080103003373,新規,0,2025-07-11,2025-07-11,合同会社錨猫,,合同会社,静岡県,熱海市,春日町１６番４５号,,22,205,4130005,,,,,,,2025-07-11,1,,,,,アンカーキャット,0
1579,7090003002854,新規,0,2025-07-11,2025-07-11,Ｌｅａｐ　Ｆｏｒｗａｒｄ合同会社,,合同会社,山梨県,富士吉田市,新町３丁目１３番１０号,,19,202,4030019,,,,,,,2025-07-11,1,,,,,リープフォワード,0
1587,7110001039441,新規,0,2025-07-11,2025-07-11,株式会社ライトワークス,,株式会社,新潟県,長岡市,関東町３番地２,,15,202,9400067,,,,,,,2025-07-11,1,,,,,ライトワークス,0
1597,7120001277825,新規,0,2025-07-11,2025-07-11,ＭＵＦＵ株式会社,,株式会社,大阪府,大阪市中央区,北久宝寺町１丁目２‐１オーセンティック東船場２０２,,27,128,5410057,,,,,,,2025-07-11,1,,,,,ムーフー,0
1598,7120001277866,新規,0,2025-07-11,2025-07-11,福騰株式会社,,株式会社,大阪府,大阪市淀川区,三津屋北２丁目１１番８号リバーサイド三津屋１０２号室,,27,123,5320032,,,,,,,2025-07-11,1,,,,,フクトウ,0
1604,7120003029919,新規,0,2025-07-11,2025-07-11,合同会社Ｂｌｕｅ　Ｈｏｒｉｚｏｎ,,合同会社,大阪府,大阪市住吉区,山之内２丁目１１－２９,,27,120,5580023,,,,,,,2025-07-11,1,,,,,ブルーホライズン,0
1605,7120003029976,新規,0,2025-07-11,2025-07-11,合同会社Ｖｅｅｍｌｅｔ,,合同会社,大阪府,大阪市北区,梅田１丁目２番２号大阪駅前第２ビル１２－１２,,27,127,5300001,,,,,,,2025-07-11,1,,,,,ビームレット,0
1606,7120003030001,新規,0,2025-07-11,2025-07-11,合同会社インテリアアート森山,,合同会社,大阪府,大阪市西淀川区,姫島５丁目７番２５号,,27,113,5550033,,,,,,,2025-07-11,1,,,,,インテリアアートモリヤマ,0
1607,7120005025024,新規,0,2025-07-11,2025-07-11,一般社団法人未来へつなぐ工務店の会関西,,その他の設立登記法人,大阪府,大阪市北区,西天満２丁目８－１大江ビルヂングＢ６有限会社ダイシンビルド内,,27,127,5300047,,,,,,,2025-07-11,1,,,,,ミライヘツナグコウムテンノカイカンサイ,0
1611,7120101072060,新規,0,2025-07-11,2025-07-11,株式会社西日本技術センター,,株式会社,大阪府,富田林市,西板持町８丁目７番２３号,,27,214,5840048,,,,,,,2025-07-11,1,,,,,ニシニホンギジュツセンター,0
1612,7120101072085,新規,0,2025-07-11,2025-07-11,株式会社Ａ‐ＴＥＣ,,株式会社,大阪府,貝塚市,海塚１丁目１番２３－Ｆ０４号,,27,208,5970083,,,,,,,2025-07-11,1,,,,,エーテック,0
1614,7120105010033,新規,0,2025-07-11,2025-07-11,医療法人理誠会,,その他の設立登記法人,大阪府,堺市東区,日置荘西町４丁３５番１０号メディカルスクエア初芝駅前２階,,27,143,5998114,,,,,,,2025-07-11,1,,,,,リセイカイ,0
1622,7130001080105,新規,0,2025-07-11,2025-07-11,Ｍｏｒｅａ株式会社,,株式会社,京都府,与謝郡与謝野町,字三河内８６９－２,,26,465,6292313,,,,,,,2025-07-11,1,,,,,モレア,0
1624,7140003022302,新規,0,2025-07-11,2025-07-11,合同会社訪問看護ステーションえがお,,合同会社,兵庫県,神戸市垂水区,塩屋町３丁目１２番４４号,,28,108,6550872,,,,,,,2025-07-11,1,,,,,ホウモンカンゴステーションエガオ,0
1625,7150001028267,新規,0,2025-07-11,2025-07-11,株式会社治作,,株式会社,奈良県,香芝市,下田西４丁目１５５番地１,,29,210,6390231,,,,,,,2025-07-11,1,,,,,ジサク,0
1626,7150003003648,新規,0,2025-07-11,2025-07-11,合同会社Ｈｉｐｌｉｎ　Ｓｔｕｄｉｏ,,合同会社,奈良県,生駒郡三郷町,三室２丁目８－１８,,29,343,6360802,,,,,,,2025-07-11,1,,,,,ヒップリンスタジオ,0
1627,7160001026880,新規,0,2025-07-11,2025-07-11,株式会社原製作所,,株式会社,滋賀県,蒲生郡日野町,大字小御門４６３番地３,,25,383,5291652,,,,,,,2025-07-11,1,,,,,ハラセイサクショ,0
1628,7160005011425,新規,0,2025-07-11,2025-07-11,一般社団法人どろんこ学童保育所,,その他の設立登記法人,滋賀県,湖南市,夏見１８５０番地３,,25,211,5203223,,,,,,,2025-07-11,1,,,,,ドロンコガクドウホイクショ,0
1629,7180001167657,新規,0,2025-07-11,2025-07-11,株式会社ＫＡＮＥＫＯ,,株式会社,愛知県,名古屋市瑞穂区,膳棚町３丁目１７番地の３ＨＯＵＳＩＮＧ１０１－２０１号室,,23,108,4670013,,,,,,,2025-07-11,1,,,,,カネコ,0
1630,7180001167707,新規,0,2025-07-11,2025-07-11,株式会社ＮＳＳ,,株式会社,愛知県,名古屋市北区,田幡１丁目２番４号,,23,103,4620843,,,,,,,2025-07-11,1,,,,,エヌエスエス,0
1631,7180001167715,新規,0,2025-07-11,2025-07-11,ＬＯＦＴＹ株式会社,,株式会社,愛知県,名古屋市中川区,戸田西３丁目２４１５番地,,23,110,4540967,,,,,,,2025-07-11,1,,,,,ロフティー,0
1632,7180001167772,新規,0,2025-07-11,2025-07-11,株式会社Ｖｅｌｏｕｒａ,,株式会社,愛知県,名古屋市中区,栄３丁目２番２９号,,23,106,4600008,,,,,,,2025-07-11,1,,,,,ヴェルーラ,0
1634,7180003028709,新規,0,2025-07-11,2025-07-11,合同会社和快,,合同会社,愛知県,名古屋市中村区,宿跡町３丁目３６番地,,23,105,4530067,,,,,,,2025-07-11,1,,,,,,0
1635,7180301039985,新規,0,2025-07-11,2025-07-11,株式会社大貴,,株式会社,愛知県,安城市,古井町一本木４６番地６,,23,212,4460025,,,,,,,2025-07-11,1,,,,,ダイキ,0
1641,7210003001934,新規,0,2025-07-11,2025-07-11,ＨＫＡ合同会社,,合同会社,福井県,あわら市,春宮３丁目７番６号,,18,208,9190632,,,,,,,2025-07-11,1,,,,,エイチケイエー,0
1658,7290001110606,新規,0,2025-07-11,2025-07-11,株式会社ＳＨＯＷＡ,,株式会社,福岡県,福岡市南区,老司３丁目４番１０号,,40,134,8111346,,,,,,,2025-07-11,1,,,,,ショーワ,0
1659,7290001110671,新規,0,2025-07-11,2025-07-11,株式会社リプラル,,株式会社,福岡県,久留米市,野中町３４８番地２－１階,,40,203,8390862,,,,,,,2025-07-11,1,,,,,リプラル,0
1662,7290801031695,新規,0,2025-07-11,2025-07-11,株式会社プラスメタル九州,,株式会社,福岡県,北九州市小倉南区,吉田にれの木坂２丁目１３番７号,,40,107,8000210,,,,,,,2025-07-11,1,,,,,プラスメタルキュウシュウ,0
1663,7290801031704,新規,0,2025-07-11,2025-07-11,株式会社Ｋ９Ｊａｐａｎ,,株式会社,福岡県,北九州市門司区,畑田町３－１門司港団地１９５０　Ａ棟Ａ－８,,40,101,8010874,,,,,,,2025-07-11,1,,,,,ケーナインジャパン,0
1668,7300001014276,新規,0,2025-07-11,2025-07-11,株式会社イブマル,,株式会社,佐賀県,佐賀市,川副町大字早津江６０４番地４,,41,201,8402203,,,,,,,2025-07-11,1,,,,,イブマル,0
1673,7330001033389,新規,0,2025-07-11,2025-07-11,株式会社グランルミエール,,株式会社,熊本県,熊本市南区,江越１丁目２８番２２号,,43,104,8600834,,,,,,,2025-07-11,1,,,,,グランルミエール,0
1674,7330003011112,新規,0,2025-07-11,2025-07-11,合同会社ハルノスケ,,合同会社,熊本県,熊本市東区,戸島２丁目１番３４号,,43,102,8618041,,,,,,,2025-07-11,1,,,,,ハルノスケ,0
1676,7350001019650,新規,0,2025-07-11,2025-07-11,株式会社ＳＥＶＥＮＳ,,株式会社,宮崎県,宮崎市,大塚町大迫南平４５００番地１,,45,201,8800951,,,,,,,2025-07-11,1,,,,,セブンス,0
1677,7350003004980,新規,0,2025-07-11,2025-07-11,合同会社Ｎｉｃｏ　Ｃａｒｅ,,合同会社,宮崎県,都城市,郡元町２９０５番地１４,,45,202,8850013,,,,,,,2025-07-11,1,,,,,ニコケア,0
1678,7370001052815,新規,0,2025-07-11,2025-07-11,株式会社鎌田林産,,株式会社,宮城県,加美郡加美町,字鹿原東原１４番地３,,04,445,9814355,,,,,,,2025-07-11,1,,,,,カマタリンサン,0
1679,7370001052823,新規,0,2025-07-11,2025-07-11,株式会社ＡＮＥＹ,,株式会社,宮城県,仙台市太白区,鈎取２丁目１番２６号,,04,104,9820804,,,,,,,2025-07-11,1,,,,,アニー,0
1681,7370003007189,新規,0,2025-07-11,2025-07-11,アダチウェルネスベース合同会社,,合同会社,宮城県,仙台市青葉区,上杉５丁目８－５５,,04,101,9800011,,,,,,,2025-07-11,1,,,,,アダチウェルネスベース,0
1683,7380001035422,新規,0,2025-07-11,2025-07-11,東北アライアンス建設株式会社,,株式会社,福島県,郡山市,石渕町１番９号,,07,203,9638814,,,,,,,2025-07-11,1,,,,,トウホクアライアンスケンセツ,0
1689,7400003003498,新規,0,2025-07-11,2025-07-11,柴田フォレストリーラボ合同会社,,合同会社,岩手県,二戸郡一戸町,鳥越字上野平３６番地３,,03,524,0285313,,,,,,,2025-07-11,1,,,,,シバタフォレストリーラボ,0
1702,7470003002923,新規,0,2025-07-11,2025-07-11,アウトランド合同会社,,合同会社,香川県,高松市,塩江町上西甲５３５番地,,37,201,7611613,,,,,,,2025-07-11,1,,,,,アウトランド,0
1703,7480003002286,新規,0,2025-07-11,2025-07-11,合同会社いつき接骨院．出張サービス．,,合同会社,徳島県,板野郡上板町,神宅字西金屋８８番地５,,36,405,7711320,,,,,,,2025-07-11,1,,,,,イツキセッコツインシュッチョウサービス,0
1704,7490005006994,新規,0,2025-07-11,2025-07-11,一般社団法人こじゃんと学童香美,,その他の設立登記法人,高知県,香美市,物部町大栃１７５１番地１０,,39,212,7814401,,,,,,,2025-07-11,1,,,,,コジャントガクドウカミ,0
1716,8010001256533,新規,0,2025-07-11,2025-07-11,株式会社銀座国際コンサルティング,,株式会社,東京都,中央区,銀座８丁目４番２５号大分合同新聞ビル５階,,13,102,1040061,,,,,,,2025-07-11,1,,,,,ギンザコクサイコンサルティング,0
1717,8010001256707,新規,0,2025-07-11,2025-07-11,東京洲際能研株式会社,,株式会社,東京都,千代田区,丸の内３丁目２番２号丸の内二重橋ビル２階,,13,101,1000005,,,,,,,2025-07-11,1,,,,,トウキョウシュウサイノウケン,0
1718,8010001256772,新規,0,2025-07-11,2025-07-11,株式会社ＳＰＥＥＤ　ＳＴＡＲ,,株式会社,東京都,中央区,京橋３丁目１番１号,,13,102,1040031,,,,,,,2025-07-11,1,,,,,スピードスター,0
1719,8010001256830,新規,0,2025-07-11,2025-07-11,株式会社東陽地所,,株式会社,東京都,千代田区,神田神保町２丁目３４－１鳴海ビル２２３号室,,13,101,1010051,,,,,,,2025-07-11,1,,,,,トウヨウチショ,0
1720,8010001256847,新規,0,2025-07-11,2025-07-11,Ｇｌｏｒｉａ　Ｎｅｓｔ株式会社,,株式会社,東京都,中央区,日本橋人形町３丁目１２番７－１００１号,,13,102,1030013,,,,,,,2025-07-11,1,,,,,グロリアネスト,0
1724,8010003047947,新規,0,2025-07-11,2025-07-11,合同会社Ｍｅｎｏ　Ｓｍｉｌｅ,,合同会社,東京都,中央区,勝どき１丁目８番１－４２０１号,,13,102,1040054,,,,,,,2025-07-11,1,,,,,メノスマイル,0
1725,8010003047971,新規,0,2025-07-11,2025-07-11,ＲＡＣ＆ＣＯ合同会社,,合同会社,東京都,中央区,銀座７丁目１３番２０号銀座ＴＨビル９階,,13,102,1040061,,,,,,,2025-07-11,1,,,,,ラックアンドコー,0
1726,8010003047996,新規,0,2025-07-11,2025-07-11,合同会社Ｍｉｘ　Ｓａｎｄ　Ｋｕｓａｔｓｕ　ＭＬ,,合同会社,東京都,千代田区,霞が関３丁目２番５号,,13,101,1000013,,,,,,,2025-07-11,1,,,,,ミックスサンドクサツエムエル,0
1728,8010101016746,新規,0,2025-07-11,2025-07-11,ミレネクス株式会社,,株式会社,東京都,八王子市,子安町１丁目４８番９号２０２号室,,13,201,1920904,,,,,,,2025-07-11,1,,,,,ミレネクス,0
1739,8010401191636,新規,0,2025-07-11,2025-07-11,株式会社２Ｓｑｕａｒｅ,,株式会社,東京都,港区,芝浦４丁目２２番１－３４１２号,,13,103,1080023,,,,,,,2025-07-11,1,,,,,ツースクエア,0
1740,8010401191652,新規,0,2025-07-11,2025-07-11,株式会社ヨミー,,株式会社,東京都,港区,浜松町２丁目２番１５号浜松町ダイヤビル２Ｆ,,13,103,1050013,,,,,,,2025-07-11,1,,,,,ヨミー,0
1741,8010401191710,新規,0,2025-07-11,2025-07-11,株式会社ミライブースト,,株式会社,東京都,港区,東新橋１丁目６番３号ザ・ロイヤルパークホテル・アイコニック東京汐留２４Ｆ,,13,103,1050021,,,,,,,2025-07-11,1,,,,,ミライブースト,0
1748,8010901057733,新規,0,2025-07-11,2025-07-11,Ｌｉｆｔｅｄ．株式会社,,株式会社,東京都,世田谷区,太子堂４丁目１８番１５号マガザン三軒茶屋２－３Ｆ－３,,13,112,1540004,,,,,,,2025-07-11,1,,,,,リフテッド,0
1750,8011001170716,新規,0,2025-07-11,2025-07-11,株式会社ＨＵＭＩＸ,,株式会社,東京都,渋谷区,神南１丁目１１－４ＦＰＧリンクス神南５階,,13,113,1500041,,,,,,,2025-07-11,1,,,,,ヒューミックス,0
1751,8011001170955,新規,0,2025-07-11,2025-07-11,株式会社エルミナ,,株式会社,東京都,目黒区,中目黒４丁目１６番１３号,,13,110,1530061,,,,,,,2025-07-11,1,,,,,エルミナ,0
1754,8011003022114,新規,0,2025-07-11,2025-07-11,ｉｂａｓｈｏ合同会社,,合同会社,東京都,渋谷区,神南１丁目１１－４ＦＰＧリンクス神南５階,,13,113,1500041,,,,,,,2025-07-11,1,,,,,イバショ,0
1767,8011201026503,新規,0,2025-07-11,2025-07-11,株式会社Ｍａｒｋ　Ｎ,,株式会社,東京都,中野区,南台３丁目６番２６－２０３号,,13,114,1640014,,,,,,,2025-07-11,1,,,,,マークエヌ,0
1771,8011501032309,新規,0,2025-07-11,2025-07-11,創技電通株式会社,,株式会社,東京都,荒川区,南千住３丁目２７－２浅草ビル５０８,,13,118,1160003,,,,,,,2025-07-11,1,,,,,ソウギデンツウ,0
1772,8011601028792,新規,0,2025-07-11,2025-07-11,株式会社Ｔプランニング,,株式会社,東京都,練馬区,栄町９番２－３０６号,,13,120,1760006,,,,,,,2025-07-11,1,,,,,ティープランニング,0
1775,8011701028503,新規,0,2025-07-11,2025-07-11,壱視聴株式会社,,株式会社,東京都,江戸川区,平井５丁目４４－６ＣＷＨ平井ビルディング３０７号室,,13,123,1320035,,,,,,,2025-07-11,1,,,,,イッシチョウ,0
1776,8011801046454,新規,0,2025-07-11,2025-07-11,株式会社Ｘ　Ｂｅｓｍｉｌｅ,,株式会社,東京都,葛飾区,堀切４丁目１９番１３－５０３号アンビシャス堀切菖蒲園,,13,122,1240006,,,,,,,2025-07-11,1,,,,,エックスビースマイル,0
1778,8012401043321,新規,0,2025-07-11,2025-07-11,株式会社高橋クリーニング,,株式会社,東京都,多摩市,連光寺１丁目１４番地の３６,,13,224,2060021,,,,,,,2025-07-11,1,,,,,タカハシクリーニング,0
1779,8012401043338,新規,0,2025-07-11,2025-07-11,株式会社ＳＵＮＴＥＲＡ企画,,株式会社,東京都,調布市,国領町６丁目１０番地１３,,13,208,1820022,,,,,,,2025-07-11,1,,,,,サンテラキカク,0
1781,8012403007209,新規,0,2025-07-11,2025-07-11,合同会社シーズン,,合同会社,東京都,小金井市,貫井南町５丁目１４番８号２０３,,13,210,1840014,,,,,,,2025-07-11,1,,,,,シーズン,0
1782,8012403007233,新規,0,2025-07-11,2025-07-11,合同会社スタジオぺれ,,合同会社,東京都,小金井市,東町１丁目３１－１６,,13,210,1840011,,,,,,,2025-07-11,1,,,,,スタジオペレ,0
1783,8012801024094,新規,0,2025-07-11,2025-07-11,株式会社シェイクハンズ,,株式会社,東京都,国分寺市,富士本３丁目９番地４３,,13,214,1850031,,,,,,,2025-07-11,1,,,,,シェイクハンズ,0
1784,8012801024103,新規,0,2025-07-11,2025-07-11,株式会社永島電工,,株式会社,東京都,国分寺市,東戸倉１丁目２０番地１３パティオ１Ｆ,,13,214,1850002,,,,,,,2025-07-11,1,,,,,ナガシマデンコウ,0
1791,8020001163852,新規,0,2025-07-11,2025-07-11,株式会社ＫＭＹ,,株式会社,神奈川県,川崎市川崎区,日進町１番地５－１２０４,,14,131,2100024,,,,,,,2025-07-11,1,,,,,ケイエムワイ,0
1792,8020001163877,新規,0,2025-07-11,2025-07-11,株式会社ｃｏｃｏｒａｋｕ,,株式会社,神奈川県,川崎市多摩区,菅北浦３丁目８番３１号ファミーユ・サンク１０２,,14,135,2140008,,,,,,,2025-07-11,1,,,,,ココラク,0
1801,8021001085707,新規,0,2025-07-11,2025-07-11,株式会社Ｇ．Ｉ．Ｓ,,株式会社,神奈川県,横須賀市,森崎３丁目６番２０号,,14,201,2380023,,,,,,,2025-07-11,1,,,,,ジーアイエス,0
1802,8021001085715,新規,0,2025-07-11,2025-07-11,ＮＳエンジ株式会社,,株式会社,神奈川県,平塚市,南原２丁目４番５－２０１号,,14,203,2540065,,,,,,,2025-07-11,1,,,,,エヌエスエンジ,0
1803,8021001085731,新規,0,2025-07-11,2025-07-11,株式会社海の声,,株式会社,神奈川県,茅ヶ崎市,東海岸南６丁目６－１７Ａ２０６,,14,207,2530054,,,,,,,2025-07-11,1,,,,,ウミノコエ,0
1809,8030001167547,新規,0,2025-07-11,2025-07-11,日南商事株式会社,,株式会社,埼玉県,川越市,大字下赤坂５８６－２,,11,201,3501155,,,,,,,2025-07-11,1,,,,,ニチナンショウジ,0
1810,8030001167638,新規,0,2025-07-11,2025-07-11,株式会社ＤＲＥＸＸ,,株式会社,埼玉県,さいたま市大宮区,桜木町２丁目９０２番地１００２号室,,11,103,3300854,,,,,,,2025-07-11,1,,,,,ディーレックス,0
1820,8040001139495,新規,0,2025-07-11,2025-07-11,株式会社誠農,,株式会社,千葉県,香取市,八筋川甲２１１５番地２,,12,236,2870815,,,,,,,2025-07-11,1,,,,,セイノウ,0
1821,8040001139512,新規,0,2025-07-11,2025-07-11,エスアイユー株式会社,,株式会社,千葉県,成田市,赤荻８６２番地１,,12,211,2860832,,,,,,,2025-07-11,1,,,,,エスアイユー,0
1822,8040001139520,新規,0,2025-07-11,2025-07-11,清和株式会社,,株式会社,千葉県,船橋市,本町６丁目１６番１８号,,12,204,2730005,,,,,,,2025-07-11,1,,,,,セイワ,0
1826,8050001056921,新規,0,2025-07-11,2025-07-11,株式会社ＴＫｃｒａｆｔ,,株式会社,茨城県,笠間市,石井１９４５番地５,,08,216,3091613,,,,,,,2025-07-11,1,,,,,ティーケイクラフト,0
1830,8050003009407,新規,0,2025-07-11,2025-07-11,合同会社ｐｅｎ＆ｕｓａ,,合同会社,茨城県,つくば市,谷田部８７２番地陣場Ｇ１５街区４６,,08,220,3050861,,,,,,,2025-07-11,1,,,,,ペンアンドウサ,0
1831,8050005013662,新規,0,2025-07-11,2025-07-11,一般社団法人オオエノキ,,その他の設立登記法人,茨城県,つくば市,大曽根２９３０番地,,08,220,3003253,,,,,,,2025-07-11,1,,,,,オオエノキ,0
1834,8060003005636,新規,0,2025-07-11,2025-07-11,ＺＳ　Ｅｎｔｅｒｐｒｉｓｅｓ合同会社,,合同会社,栃木県,宇都宮市,平松町５１１番地３,,09,201,3210931,,,,,,,2025-07-11,1,,,,,ゼットエスエンタープライズ,0
1836,8080001027028,新規,0,2025-07-11,2025-07-11,マイスター・オートドア株式会社,,株式会社,静岡県,静岡市駿河区,東新田１丁目１４番２５号,,22,102,4210112,,,,,,,2025-07-11,1,,,,,マイスターオートドア,0
1841,8080401028022,新規,0,2025-07-11,2025-07-11,株式会社ＫＡＩ,,株式会社,静岡県,浜松市中央区,泉３丁目８番３２号,,22,138,4338124,,,,,,,2025-07-11,1,,,,,カイ,0
1850,8110001039424,新規,0,2025-07-11,2025-07-11,皇ホールディングス株式会社,,株式会社,新潟県,三条市,尾崎２７８１番地,,15,204,9591148,,,,,,,2025-07-11,1,,,,,スメラギホールディングス,0
1853,8110003005812,新規,0,2025-07-11,2025-07-11,合同会社ＳＡＫＵＲＡＩカンパニー,,合同会社,新潟県,長岡市,上前島３丁目１８２３番地,,15,202,9401140,,,,,,,2025-07-11,1,,,,,サクライカンパニー,0
1859,8120001277626,新規,0,2025-07-11,2025-07-11,株式会社グレース,,株式会社,大阪府,枚方市,香里園山之手町４８番４号,,27,210,5730087,,,,,,,2025-07-11,1,,,,,グレース,0
1860,8120001277865,新規,0,2025-07-11,2025-07-11,巨石株式会社,,株式会社,大阪府,大阪市淀川区,三津屋北２丁目１１番８号リバーサイド三津屋１０１号室,,27,123,5320032,,,,,,,2025-07-11,1,,,,,キョセキ,0
1865,8120101072068,新規,0,2025-07-11,2025-07-11,株式会社マツウラ,,株式会社,大阪府,藤井寺市,小山４丁目５番１４号,,27,226,5830033,,,,,,,2025-07-11,1,,,,,マツウラ,0
1866,8120101072076,新規,0,2025-07-11,2025-07-11,株式会社エスエヌ,,株式会社,大阪府,堺市北区,百舌鳥梅町３丁１８番地７,,27,146,5918032,,,,,,,2025-07-11,1,,,,,エヌエヌ,0
1867,8120101072092,新規,0,2025-07-11,2025-07-11,株式会社あいのかぜ,,株式会社,大阪府,羽曳野市,西浦５丁目４１４－１９,,27,222,5830861,,,,,,,2025-07-11,1,,,,,アイノカゼ,0
1868,8120101072101,新規,0,2025-07-11,2025-07-11,株式会社藤田興業,,株式会社,大阪府,和泉市,国分町８２４番地の２,,27,219,5941114,,,,,,,2025-07-11,1,,,,,フジタコウギョウ,0
1870,8120103006560,新規,0,2025-07-11,2025-07-11,合同会社Ｌｅｘｉｓ,,合同会社,大阪府,和泉市,阪本町１３９番地,,27,219,5940052,,,,,,,2025-07-11,1,,,,,レクシス,0
1871,8120105010032,新規,0,2025-07-11,2025-07-11,ＴＯＭＯＮＩ一般財団法人,,その他の設立登記法人,大阪府,泉南郡岬町,淡輪６０９２番地３－４Ｆ,,27,366,5990301,,,,,,,2025-07-11,1,,,,,トモニ,0
1885,8150003003655,新規,0,2025-07-11,2025-07-11,合同会社ＳＲ商会,,合同会社,奈良県,奈良市,富雄元町３丁目３－１２エクセレント河３０３号室,,29,201,6310078,,,,,,,2025-07-11,1,,,,,エスアールショウカイ,0
1886,8170001018711,新規,0,2025-07-11,2025-07-11,株式会社ＫＩＺＵＮＡホールディングス,,株式会社,和歌山県,有田郡有田川町,大字水尻７３２－３,,30,366,6430024,,,,,,,2025-07-11,1,,,,,キズナホールディングス,0
1887,8180001167482,新規,0,2025-07-11,2025-07-11,株式会社Ｓａｉｋｉ,,株式会社,愛知県,名古屋市中区,栄１丁目１８番１５号（ラ・レジダンス・ド・シャトレーヌ２０８号）,,23,106,4600008,,,,,,,2025-07-11,1,,,,,サイキ,0
1888,8180001167607,新規,0,2025-07-11,2025-07-11,株式会社セールスグリッド,,株式会社,愛知県,一宮市,大和町妙興寺字坊ケ池１８番地１,,23,203,4910922,,,,,,,2025-07-11,1,,,,,セールスグリッド,0
1889,8180001167615,新規,0,2025-07-11,2025-07-11,株式会社Ｌ＆Ｊ,,株式会社,愛知県,名古屋市中区,栄３丁目２－３１ＮＯＡビル２Ａ,,23,106,4600008,,,,,,,2025-07-11,1,,,,,エルアンドジェー,0
1891,8180003028732,新規,0,2025-07-11,2025-07-11,合同会社ＡＬＢＡ,,合同会社,愛知県,名古屋市瑞穂区,駒場町５丁目１３番地２,,23,108,4670807,,,,,,,2025-07-11,1,,,,,アルバ,0
1897,8190003005111,新規,0,2025-07-11,2025-07-11,合同会社ノグチ商事,,合同会社,三重県,度会郡玉城町,宮古１６番地,,24,461,5190427,,,,,,,2025-07-11,1,,,,,ノグチショウジ,0
1898,8190005012064,新規,0,2025-07-11,2025-07-11,医療法人おおた内科循環器科,,その他の設立登記法人,三重県,三重郡菰野町,大字田口新田２９０９番地５,,24,341,5101322,,,,,,,2025-07-11,1,,,,,オオタナイカジュンカンキカ,0
1899,8200001044019,新規,0,2025-07-11,2025-07-11,株式会社Ｃｌｏｕｄｙ,,株式会社,岐阜県,土岐市,下石町２５４９番地の１１,,21,212,5095202,,,,,,,2025-07-11,1,,,,,クラウディ,0
1901,8200005013779,新規,0,2025-07-11,2025-07-11,一般社団法人グリーンヒルズ福岡管理組合,,その他の設立登記法人,岐阜県,中津川市,福岡１８４２番地２１３,,21,206,5080203,,,,,,,2025-07-11,1,,,,,グリーンヒルズフクオカカンリクミアイ,0
1913,8240001065226,新規,0,2025-07-11,2025-07-11,株式会社アセンドトレーニング,,株式会社,広島県,広島市中区,白島中町９番１号松中ビル１０２号,,34,101,7300002,,,,,,,2025-07-11,1,,,,,アセンドトレーニング,0
1920,8260001040359,新規,0,2025-07-11,2025-07-11,株式会社ｅｘｃｅｌｌｅｎｔ　ｌｕｃｋ,,株式会社,岡山県,倉敷市,西阿知町７０８,,33,202,7100807,,,,,,,2025-07-11,1,,,,,エクセレントラック,0
1926,8290001110720,新規,0,2025-07-11,2025-07-11,株式会社Ｌｕｃｋｙ　Ｅｓｔａｔｅ,,株式会社,福岡県,福岡市城南区,長尾１丁目４番３６号,,40,136,8140123,,,,,,,2025-07-11,1,,,,,ラッキーエステート,0
1930,8290803005102,新規,0,2025-07-11,2025-07-11,合同会社一念一灯,,合同会社,福岡県,北九州市八幡東区,中央３丁目１番１０号,,40,108,8050019,,,,,,,2025-07-11,1,,,,,イチネンイットウ,0
1931,8300001014275,新規,0,2025-07-11,2025-07-11,株式会社大川三世代,,株式会社,佐賀県,伊万里市,大川町立川丸野１３２３番地,,41,205,8495254,,,,,,,2025-07-11,1,,,,,オオカワサンセダイ,0
1933,8300003002311,新規,0,2025-07-11,2025-07-11,千々岩興産合同会社,,合同会社,佐賀県,佐賀市,本庄町大字袋３１２番地３,,41,201,8400023,,,,,,,2025-07-11,1,,,,,チヂイワコウサン,0
1941,8330001033396,新規,0,2025-07-11,2025-07-11,株式会社ソラノワ,,株式会社,熊本県,熊本市中央区,辛島町４番３５－１４０８号ラシック辛島,,43,101,8600804,,,,,,,2025-07-11,1,,,,,ソラノワ,0
1942,8330003011103,新規,0,2025-07-11,2025-07-11,構木経営合同会社,,合同会社,熊本県,熊本市中央区,水前寺３丁目４４番９－３０２号,,43,101,8620950,,,,,,,2025-07-11,1,,,,,カマキケイエイ,0
1952,8370001052806,新規,0,2025-07-11,2025-07-11,株式会社シントランス,,株式会社,宮城県,仙台市青葉区,高野原４丁目６番地の１２,,04,101,9893216,,,,,,,2025-07-11,1,,,,,シントランス,0
1953,8370001052814,新規,0,2025-07-11,2025-07-11,株式会社Ｗｉｓｈ＆Ｌｉｆｅ,,株式会社,宮城県,仙台市青葉区,中央４丁目４番１９号,,04,101,9800021,,,,,,,2025-07-11,1,,,,,ウィッシュアンドライフ,0
1954,8370001052822,新規,0,2025-07-11,2025-07-11,株式会社パパパパ,,株式会社,宮城県,仙台市青葉区,国分町３丁目４－２０清和ビルＢ１Ｆ,,04,101,9800803,,,,,,,2025-07-11,1,,,,,パパパパ,0
1955,8370003007188,新規,0,2025-07-11,2025-07-11,合同会社トータルサポート健建,,合同会社,宮城県,栗原市,一迫柳目字天王下３４０－２,,04,213,9872309,,,,,,,2025-07-11,1,,,,,トータルサポートケンケン,0
1962,8430001094767,新規,0,2025-07-11,2025-07-11,株式会社Ｂｒｉｄｇｅ,,株式会社,北海道,恵庭市,福住町２丁目３番１４,,01,231,0611447,,,,,,,2025-07-11,1,,,,,ブリッジ,0
1967,8470003002922,新規,0,2025-07-11,2025-07-11,Ｐｌａｉｎ合同会社,,合同会社,香川県,高松市,観光町５３３―１,,37,201,7600076,,,,,,,2025-07-11,1,,,,,プレイン,0
1968,8470003002930,新規,0,2025-07-11,2025-07-11,合同会社パワーリンク,,合同会社,香川県,高松市,天神前１０番１２号,,37,201,7600018,,,,,,,2025-07-11,1,,,,,パワーリンク,0
1969,8470005006632,新規,0,2025-07-11,2025-07-11,一般社団法人こんぴら観光まちづくり協会,,その他の設立登記法人,香川県,仲多度郡琴平町,榎井８６９番地５,,37,403,7660004,,,,,,,2025-07-11,1,,,,,,0
1970,8480003002285,新規,0,2025-07-11,2025-07-11,船越合同会社,,合同会社,徳島県,阿南市,羽ノ浦町中庄上ナカレ２１番地２,,36,204,7791101,,,,,,,2025-07-11,1,,,,,フナコシ,0
1973,8490005006993,新規,0,2025-07-11,2025-07-11,特定非営利活動法人こねくと高知,,その他の設立登記法人,高知県,高知市,桜馬場５番８号,,39,201,7800929,,,,,,,2025-07-11,1,,,,,コネクトコウチ,0
1976,8700150131161,新規,0,2025-07-11,2025-06-19,千葉県海洋人材確保育成協議会,,その他,千葉県,千葉市中央区,中央３丁目３－１,,12,101,2600013,,,,,,,2025-06-19,1,,,,,チバケンカイヨウジンザイカクホイクセイキヨウギカイ,0
1989,9010001256573,新規,0,2025-07-11,2025-07-11,株式会社ベストセールス,,株式会社,東京都,千代田区,丸の内２丁目７番２号ＪＰタワー２２階,,13,101,1000005,,,,,,,2025-07-11,1,,,,,ベストセールス,0
1990,9010001256706,新規,0,2025-07-11,2025-07-11,Ｒｅ‐ＣＲＥＡＴＩＯＮ株式会社,,株式会社,東京都,文京区,湯島２丁目５番２号,,13,105,1130034,,,,,,,2025-07-11,1,,,,,リクリエーション,0
1991,9010001256771,新規,0,2025-07-11,2025-07-11,株式会社ＷＩＳＨＷＡＹ,,株式会社,東京都,中央区,日本橋人形町３丁目３番５号天翔日本橋人形町ビル８階８０４号室,,13,102,1030013,,,,,,,2025-07-11,1,,,,,ウィッシュウェイ,0
1993,9010003047938,新規,0,2025-07-11,2025-07-11,合同会社クリエイトネットワーク,,合同会社,東京都,千代田区,神田須田町１丁目７番８号,,13,101,1010041,,,,,,,2025-07-11,1,,,,,クリエイトネットワーク,0
1994,9010003047995,新規,0,2025-07-11,2025-07-11,御徒町インベストメント合同会社,,合同会社,東京都,千代田区,霞が関３丁目２番５号,,13,101,1000013,,,,,,,2025-07-11,1,,,,,オカチマチインベストメント,0
1996,9010103002611,新規,0,2025-07-11,2025-07-11,ネオン幻夢舎合同会社,,合同会社,東京都,八王子市,松木６－６メゾンドールスティ３０１号,,13,201,1920362,,,,,,,2025-07-11,1,,,,,ネオンゲンムシャ,0
2002,9010401191585,新規,0,2025-07-11,2025-07-11,株式会社ＵＫ,,株式会社,東京都,港区,北青山１丁目３番１号,,13,103,1070061,,,,,,,2025-07-11,1,,,,,ユーケー,0
2003,9010401191627,新規,0,2025-07-11,2025-07-11,ＨａｓＫＫ株式会社,,株式会社,東京都,港区,虎ノ門１丁目１７番１号虎ノ門ヒルズビジネスタワー１６Ｆ,,13,103,1050001,,,,,,,2025-07-11,1,,,,,ハスク,0
2004,9010401191643,新規,0,2025-07-11,2025-07-11,リフォームエージェント株式会社,,株式会社,東京都,港区,港南４丁目６番１－１９０１号,,13,103,1080075,,,,,,,2025-07-11,1,,,,,リフォームエージェント,0
2005,9010401191676,新規,0,2025-07-11,2025-07-11,株式会社Ｂｒｉｄｇｅｎｔ,,株式会社,東京都,港区,六本木３丁目１６番１２号六本木ＫＳビル５Ｆ,,13,103,1060032,,,,,,,2025-07-11,1,,,,,ブリッジェント,0
2016,9010801036357,新規,0,2025-07-11,2025-07-11,株式会社ＯＮキャピタル,,株式会社,東京都,大田区,西馬込１丁目４番７－１０５号,,13,111,1430026,,,,,,,2025-07-11,1,,,,,,0
2018,9010901057732,新規,0,2025-07-11,2025-07-11,株式会社ＴＥＡＭＳ,,株式会社,東京都,世田谷区,太子堂４丁目１８番１５号マガザン三軒茶屋２－３Ｆ－３,,13,112,1540004,,,,,,,2025-07-11,1,,,,,チームス,0
2019,9010901057740,新規,0,2025-07-11,2025-07-11,株式会社キタガワセイアンジョ,,株式会社,東京都,世田谷区,太子堂４丁目１８番１５号マガザン三軒茶屋２・３Ｆ－３,,13,112,1540004,,,,,,,2025-07-11,1,,,,,キタガワセイアンジョ,0
2028,9011001170599,新規,0,2025-07-11,2025-07-11,株式会社ｈＡＮＧＥＲ,,株式会社,東京都,渋谷区,神宮前１丁目８－１８マンバビル２階,,13,113,1500001,,,,,,,2025-07-11,1,,,,,ハンガー,0
2029,9011001170962,新規,0,2025-07-11,2025-07-11,株式会社デザインふじやま,,株式会社,東京都,渋谷区,渋谷２丁目１９番１９号ワコー宮益坂ビル５階,,13,113,1500002,,,,,,,2025-07-11,1,,,,,デザインフジヤマ,0
2030,9011001171085,新規,0,2025-07-11,2025-07-11,株式会社ＭＹ　ＦＡＮＳ,,株式会社,東京都,渋谷区,千駄ヶ谷４丁目５番１５号ストークメイジュ７０２号室,,13,113,1510051,,,,,,,2025-07-11,1,,,,,エムワイファンズ,0
2031,9011001171192,新規,0,2025-07-11,2025-07-11,株式会社ＬＩＦＥ　ｔｏ　ＬＩＦＥ,,株式会社,東京都,目黒区,目黒１丁目３番２－５０５号,,13,110,1530063,,,,,,,2025-07-11,1,,,,,ライフトゥーライフ,0
2033,9011101112410,新規,0,2025-07-11,2025-07-11,株式会社Ｓｅｅｄｅｒ　Ｔａｂｌｅ,,株式会社,東京都,新宿区,住吉町６番３号ヤマギシコーポラス３０１,,13,104,1620065,,,,,,,2025-07-11,1,,,,,シーダーテーブル,0
2034,9011103016155,新規,0,2025-07-11,2025-07-11,合同会社グロウリス,,合同会社,東京都,新宿区,西新宿３丁目３番１３号西新宿水間ビル６階,,13,104,1600023,,,,,,,2025-07-11,1,,,,,グロウリス,0
2036,9011201026502,新規,0,2025-07-11,2025-07-11,株式会社ミカツキ,,株式会社,東京都,中野区,東中野４丁目３０番６号,,13,114,1640003,,,,,,,2025-07-11,1,,,,,ミカツキ,0
2037,9011301030676,新規,0,2025-07-11,2025-07-11,アヴェント株式会社,,株式会社,東京都,杉並区,南荻窪２丁目１７番１１号,,13,115,1670052,,,,,,,2025-07-11,1,,,,,アヴェント,0
2040,9011401027242,新規,0,2025-07-11,2025-07-11,株式会社聖,,株式会社,東京都,板橋区,中丸町５番４号ボンズテラス池袋２０３,,13,119,1730026,,,,,,,2025-07-11,1,,,,,ヒジリ,0
2041,9011401027250,新規,0,2025-07-11,2025-07-11,株式会社ＨＩＲＯコーポレーション,,株式会社,東京都,板橋区,小茂根２丁目１０番１０号,,13,119,1730037,,,,,,,2025-07-11,1,,,,,ヒロコーポレーション,0
2042,9011403004751,新規,0,2025-07-11,2025-07-11,合同会社成増堂,,合同会社,東京都,板橋区,成増１丁目１８－１５,,13,119,1750094,,,,,,,2025-07-11,1,,,,,ナリマスドウ,0
2043,9011501032308,新規,0,2025-07-11,2025-07-11,道通智能日本株式会社,,株式会社,東京都,荒川区,南千住３丁目２７－２浅草ビル５０８,,13,118,1160003,,,,,,,2025-07-11,1,,,,,ドウツウチノウニホン,0
2045,9011801046453,新規,0,2025-07-11,2025-07-11,株式会社ＴＥＮＳ,,株式会社,東京都,葛飾区,堀切７丁目２番３号,,13,122,1240006,,,,,,,2025-07-11,1,,,,,テンズ,0
2046,9012401043312,新規,0,2025-07-11,2025-07-11,株式会社ファーイースト,,株式会社,東京都,調布市,仙川町３丁目９番地１８,,13,208,1820002,,,,,,,2025-07-11,1,,,,,ファーイースト,0
2047,9012401043329,新規,0,2025-07-11,2025-07-11,株式会社樹縁,,株式会社,東京都,小金井市,前原町１丁目９番１７号,,13,210,1840013,,,,,,,2025-07-11,1,,,,,キエン,0
2048,9012401043337,新規,0,2025-07-11,2025-07-11,株式会社トライアローズエンジ,,株式会社,東京都,武蔵野市,吉祥寺北町２丁目２１番１２号,,13,203,1800001,,,,,,,2025-07-11,1,,,,,トライアローズエンジ,0
2051,9012701018971,新規,0,2025-07-11,2025-07-11,株式会社ＫＯＩＫＩ,,株式会社,東京都,東村山市,久米川町２丁目４０番地４３,,13,213,1890003,,,,,,,2025-07-11,1,,,,,コイキ,0
2053,9012801024102,新規,0,2025-07-11,2025-07-11,株式会社未来への道標,,株式会社,東京都,立川市,若葉町２丁目２６番地の５２,,13,202,1900001,,,,,,,2025-07-11,1,,,,,ミライヘノミチシルベ,0
2054,9013101009743,新規,0,2025-07-11,2025-07-11,株式会社丸亜,,株式会社,東京都,西多摩郡瑞穂町,箱根ケ崎西松原４８番地１２,,13,303,1901223,,,,,,,2025-07-11,1,,,,,マルア,0
2058,9013301054564,新規,0,2025-07-11,2025-07-11,株式会社ライズキャピタルワン,,株式会社,東京都,豊島区,東池袋３丁目１番１号サンシャインシティ６０、１２階１２５２号室,,13,116,1700013,,,,,,,2025-07-11,1,,,,,ライズキャピタルワン,0
2059,9013301054580,新規,0,2025-07-11,2025-07-11,株式会社大雄,,株式会社,東京都,豊島区,東池袋２丁目６２番８号ＢＩＧオフィスプラザ池袋１２０６,,13,116,1700013,,,,,,,2025-07-11,1,,,,,ダイユウ,0
2062,9020001163835,新規,0,2025-07-11,2025-07-11,株式会社アラタス,,株式会社,神奈川県,横浜市金沢区,六浦南４丁目２０番３－４１５号,,14,108,2360038,,,,,,,2025-07-11,1,,,,,アラタス,0
2064,9020003028895,新規,0,2025-07-11,2025-07-11,合同会社Ｅｎｉｓｈｉｗａ,,合同会社,神奈川県,横浜市西区,北幸２丁目１０－４８むつみビル３階,,14,103,2200004,,,,,,,2025-07-11,1,,,,,エニシワ,0
2068,9021001085689,新規,0,2025-07-11,2025-07-11,株式会社Ｑｏｄｅｍｉａ,,株式会社,神奈川県,横須賀市,秋谷４３１７番地２８,,14,201,2400105,,,,,,,2025-07-11,1,,,,,コーデミア,0
2069,9021001085730,新規,0,2025-07-11,2025-07-11,Ｕ‐ＰＬＡＮ株式会社,,株式会社,神奈川県,横須賀市,汐見台２丁目３番７号,,14,201,2380054,,,,,,,2025-07-11,1,,,,,ユープラン,0
2072,9030001167595,新規,0,2025-07-11,2025-07-11,株式会社レジェンド,,株式会社,埼玉県,所沢市,東狭山ケ丘５丁目２７２７番地,,11,208,3591106,,,,,,,2025-07-11,1,,,,,レジェンド,0
2073,9030001167612,新規,0,2025-07-11,2025-07-11,株式会社フジイワークス,,株式会社,埼玉県,上尾市,大字平方領々家６２番地,,11,219,3620055,,,,,,,2025-07-11,1,,,,,フジイワークス,0
2079,9040001139536,新規,0,2025-07-11,2025-07-11,株式会社承越,,株式会社,千葉県,千葉市花見川区,検見川町３丁目３２３番地１０,,12,102,2620023,,,,,,,2025-07-11,1,,,,,ジョウエツ,0
2081,9040003028019,新規,0,2025-07-11,2025-07-11,ＡＺ＆ＡＺ　ＩＮＴＥＲＮＡＴＩＯＮＡＬ合同会社,,合同会社,千葉県,佐倉市,大篠塚７７２番地,,12,212,2850806,,,,,,,2025-07-11,1,,,,,エイズィーアンドエイズィーインターナショナル,0
2083,9050001056912,新規,0,2025-07-11,2025-07-11,株式会社荘司,,株式会社,茨城県,水戸市,笠原町４１２番地,,08,201,3100852,,,,,,,2025-07-11,1,,,,,ショウジ,0
2084,9050001056920,新規,0,2025-07-11,2025-07-11,ハイネット株式会社,,株式会社,茨城県,つくば市,天久保２丁目４番地２２平砂マンション２１０,,08,220,3050005,,,,,,,2025-07-11,1,,,,,ハイネット,0
2086,9060001038397,新規,0,2025-07-11,2025-07-11,株式会社ソエノ,,株式会社,栃木県,宇都宮市,花房２丁目４番１７号,,09,201,3200827,,,,,,,2025-07-11,1,,,,,ソエノ,0
2089,9070001043099,新規,0,2025-07-11,2025-07-11,株式会社ＴＥＮ‐ＳＩＸ,,株式会社,群馬県,館林市,松原２丁目２１番１１号,,10,207,3740016,,,,,,,2025-07-11,1,,,,,テンシックス,0
2090,9070003005997,新規,0,2025-07-11,2025-07-11,合同会社星の未来,,合同会社,群馬県,安中市,安中１丁目４番１８号,,10,211,3790116,,,,,,,2025-07-11,1,,,,,ホシノミライ,0
2093,9080001027027,新規,0,2025-07-11,2025-07-11,株式会社Ｓ‐ＣＥＥＤ,,株式会社,静岡県,藤枝市,築地６２７番地の１レフォルテ２０５号,,22,214,4260031,,,,,,,2025-07-11,1,,,,,エスシード,0
2094,9080001027035,新規,0,2025-07-11,2025-07-11,株式会社ＩＫＥ住販,,株式会社,静岡県,焼津市,宗高１２１６番地の３,,22,212,4210205,,,,,,,2025-07-11,1,,,,,アイケーイージュウハン,0
2095,9080003003505,新規,0,2025-07-11,2025-07-11,合同会社想,,合同会社,静岡県,静岡市駿河区,八幡５丁目３３番８号,,22,102,4228076,,,,,,,2025-07-11,1,,,,,ソウ,0
2100,9100003008261,新規,0,2025-07-11,2025-07-11,合同会社Ｔｉ‐Ｄａ,,合同会社,長野県,上水内郡小川村,大字瀬戸川１１７６３番地３,,20,588,3813304,,,,,,,2025-07-11,1,,,,,ティーダ,0
2101,9100003008286,新規,0,2025-07-11,2025-07-11,合同会社ｗｅｌｌｂｅ‐Ｊｕ,,合同会社,長野県,下高井郡野沢温泉村,大字平林８８０番地,,20,563,3892614,,,,,,,2025-07-11,1,,,,,ウェルビージュ,0
2103,9110001039431,新規,0,2025-07-11,2025-07-11,株式会社新生企画,,株式会社,新潟県,新潟市西区,小針４丁目２６番１７号,,15,107,9502022,,,,,,,2025-07-11,1,,,,,シンセイキカク,0
2104,9110003005811,新規,0,2025-07-11,2025-07-11,ＮＥＬＬＹ合同会社,,合同会社,新潟県,長岡市,北山２丁目６１番地３,,15,202,9402114,,,,,,,2025-07-11,1,,,,,ネリー,0
2112,9120001277633,新規,0,2025-07-11,2025-07-11,ＵｐａＬａｂｓ株式会社,,株式会社,大阪府,大阪市西区,新町１丁目３３番１－１１０３号,,27,106,5500013,,,,,,,2025-07-11,1,,,,,ウーパーラボ,0
2113,9120001277716,新規,0,2025-07-11,2025-07-11,株式会社ベイコート,,株式会社,大阪府,大阪市中央区,高津２丁目４－１２－５Ｆ,,27,128,5420072,,,,,,,2025-07-11,1,,,,,ベイコート,0
2114,9120001277724,新規,0,2025-07-11,2025-07-11,株式会社蘭和住宅,,株式会社,大阪府,大阪市北区,梅田２丁目５番１３号桜橋第一ビル３０４号,,27,127,5300001,,,,,,,2025-07-11,1,,,,,ランワジュウタク,0
2115,9120001277749,新規,0,2025-07-11,2025-07-11,株式会社ＨｏｋｕｌｅＡ,,株式会社,大阪府,大阪市北区,梅田３丁目２－１２３イノゲート大阪９階,,27,127,5300001,,,,,,,2025-07-11,1,,,,,ホクレア,0
2116,9120001277930,新規,0,2025-07-11,2025-07-11,群馬ビバレッジ株式会社,,株式会社,大阪府,大阪市北区,梅田１丁目１３番１号,,27,127,5300001,,,,,,,2025-07-11,1,,,,,グンマビバレッジ,0
2118,9120003029925,新規,0,2025-07-11,2025-07-11,合同会社Ｒｅｄｒａｗ,,合同会社,大阪府,大阪市東淀川区,菅原３丁目１４－２８－１１０１,,27,114,5330022,,,,,,,2025-07-11,1,,,,,リドロー,0
2119,9120003029958,新規,0,2025-07-11,2025-07-11,合同会社Ｊｏｓｅｐｈ,,合同会社,大阪府,大阪市住吉区,墨江３丁目１４番１０号,,27,120,5580043,,,,,,,2025-07-11,1,,,,,ジョセフ,0
2120,9120003029966,新規,0,2025-07-11,2025-07-11,ＨｏｍｅＲｕｎ合同会社,,合同会社,大阪府,大阪市旭区,大宮１丁目１０番１５－６０３号,,27,117,5350002,,,,,,,2025-07-11,1,,,,,ホームラン,0
2121,9120003030008,新規,0,2025-07-11,2025-07-11,ＲＪ　Ｏｐｔｉｃａｌ　Ｊａｐａｎ合同会社,,合同会社,大阪府,大阪市北区,堂山町１番５号三共梅田ビル７階,,27,127,5300027,,,,,,,2025-07-11,1,,,,,アールジェイオプティカルジャパン,0
2124,9120101072059,新規,0,2025-07-11,2025-07-11,株式会社リミエール,,株式会社,大阪府,堺市堺区,向陵西町４丁１１番５号シュアビル２０１号,,27,141,5900026,,,,,,,2025-07-11,1,,,,,リミエール,0
2128,9120901051154,新規,0,2025-07-11,2025-07-11,株式会社ｎｅｅｄｓ,,株式会社,大阪府,吹田市,江坂町１丁目２３－１９米澤第５江坂７０５号室,,27,205,5640063,,,,,,,2025-07-11,1,,,,,ニーズ,0
2129,9120901051195,新規,0,2025-07-11,2025-07-11,株式会社ＳＯＮ　ＪＡＰＡＮ,,株式会社,大阪府,豊中市,蛍池中町二丁目３番１－１０２号,,27,203,5600000,,,,,,,2025-07-11,1,,,,,サンジャパン,0
2133,9130001080037,新規,0,2025-07-11,2025-07-11,株式会社嶋田電気土木,,株式会社,京都府,相楽郡精華町,精華台４丁目１０番地７、Ａ０３,,26,366,6190238,,,,,,,2025-07-11,1,,,,,シマダデンキドボク,0
2135,9130003010611,新規,0,2025-07-11,2025-07-11,Ｙｕｉ合同会社,,合同会社,京都府,京都市下京区,七条通河原町西入材木町４７８番地,,26,106,6008146,,,,,,,2025-07-11,1,,,,,ユイ,0
2136,9140001139179,新規,0,2025-07-11,2025-07-11,株式会社西日本メンテナンス,,株式会社,兵庫県,尼崎市,三反田町２丁目７番１７号,,28,202,6610024,,,,,,,2025-07-11,1,,,,,ニシニホンメンテナンス,0
2139,9140003022300,新規,0,2025-07-11,2025-07-11,合同会社Ｇｏｏｄ３９,,合同会社,兵庫県,尼崎市,浜２丁目５－２シュロス尼崎駅前２０２,,28,202,6610967,,,,,,,2025-07-11,1,,,,,グッドサンキュー,0
2140,9160001026895,新規,0,2025-07-11,2025-07-11,株式会社ＭＪＲ,,株式会社,滋賀県,守山市,守山３丁目２１番２７号,,25,207,5240022,,,,,,,2025-07-11,1,,,,,エムジェイアール,0
2141,9170001018710,新規,0,2025-07-11,2025-07-11,カリス・プライム株式会社,,株式会社,和歌山県,和歌山市,木ノ本４５２番地２,,30,201,6408453,,,,,,,2025-07-11,1,,,,,カリスプライム,0
2143,9170003002241,新規,0,2025-07-11,2025-07-11,合同会社スマートエンジン,,合同会社,和歌山県,海南市,下津町下２２４番地５リーゼンラート加茂郷５－Ｂ,,30,202,6490133,,,,,,,2025-07-11,1,,,,,スマートエンジン,0
2145,9180001167572,新規,0,2025-07-11,2025-07-11,株式会社オラシオン,,株式会社,愛知県,一宮市,中町１丁目１０番地１,,23,203,4910913,,,,,,,2025-07-11,1,,,,,オラシオン,0
2146,9180001167606,新規,0,2025-07-11,2025-07-11,株式会社ＫＳＳ,,株式会社,愛知県,名古屋市千種区,赤坂町６丁目４３番地,,23,101,4640094,,,,,,,2025-07-11,1,,,,,ケイエスエス,0
2147,9180001167639,新規,0,2025-07-11,2025-07-11,株式会社サカエ電氣,,株式会社,愛知県,知多郡武豊町,大字冨貴字寺東５５番地９,,23,447,4702531,,,,,,,2025-07-11,1,,,,,サカエデンキ,0
2148,9180001167671,新規,0,2025-07-11,2025-07-11,株式会社ＧＲＩＴ　ＷＯＲＫＳ,,株式会社,愛知県,名古屋市名東区,上社１丁目５１２かとう館ビル３階南Ｄ号室,,23,115,4650025,,,,,,,2025-07-11,1,,,,,グリットワークス,0
2151,9180003028731,新規,0,2025-07-11,2025-07-11,合同会社Ｇ‐ＭＥＴ,,合同会社,愛知県,名古屋市名東区,社台３丁目１３３番地,,23,115,4650092,,,,,,,2025-07-11,1,,,,,ジーメット,0
2156,9190001032387,新規,0,2025-07-11,2025-07-11,株式会社ＴＤＯ,,株式会社,三重県,津市,大里睦合町３２０番地６,,24,201,5140126,,,,,,,2025-07-11,1,,,,,ティーディーオー,0
2158,9190003005110,新規,0,2025-07-11,2025-07-11,合同会社わらわら,,合同会社,三重県,四日市市,小生町２７５番地１アンビシアＩＩ－１０２,00139894,24,202,5120932,,,,,,,2025-07-11,1,,,,,ワラワラ,0
2165,9220001026798,新規,0,2025-07-11,2025-07-11,株式会社Ｒｅｖｉｎｓ,,株式会社,石川県,金沢市,四十万町イ６２番地２,,17,201,9218133,,,,,,,2025-07-11,1,,,,,レヴィンズ,0
2172,9240001065209,新規,0,2025-07-11,2025-07-11,株式会社ストナード,,株式会社,広島県,安芸郡府中町,八幡３丁目１９番１６号,,34,302,7350012,,,,,,,2025-07-11,1,,,,,ストナード,0
2174,9240003007308,新規,0,2025-07-11,2025-07-11,ＲＥＩ合同会社,,合同会社,広島県,広島市中区,住吉町１６番２４－６０３号,,34,101,7300813,,,,,,,2025-07-11,1,,,,,レイ,0
2175,9250001021243,新規,0,2025-07-11,2025-07-11,株式会社Ｓｕｎｓｅｔ　Ｌａｕｇｈ　Ｃｏｍｐａｎｙ,,株式会社,山口県,岩国市,麻里布町４丁目１番１０号,,35,208,7400018,,,,,,,2025-07-11,1,,,,,サンセットラフカンパニー,0
2189,9300001014274,新規,0,2025-07-11,2025-07-11,株式会社ＧＲＡＣＥ,,株式会社,佐賀県,佐賀市,大財５丁目６番９号,,41,201,8400811,,,,,,,2025-07-11,1,,,,,グレイス,0
2191,9330001033379,新規,0,2025-07-11,2025-07-11,株式会社藤耀産業,,株式会社,熊本県,八代市,新港町２丁目３番地１４,,43,202,8660034,,,,,,,2025-07-11,1,,,,,トウヨウサンギョウ,0
2192,9330001033395,新規,0,2025-07-11,2025-07-11,株式会社シートメタルワークス・コシガエ,,株式会社,熊本県,熊本市中央区,坪井４丁目１９番２号,,43,101,8600863,,,,,,,2025-07-11,1,,,,,シートメタルワークスコシガエ,0
2193,9330003011110,新規,0,2025-07-11,2025-07-11,合同会社鍋島商店,,合同会社,熊本県,菊池郡大津町,大字陣内１１８１番地１,,43,403,8691221,,,,,,,2025-07-11,1,,,,,ナベシマショウテン,0
2197,9340001027479,新規,0,2025-07-11,2025-07-11,株式会社いろは,,株式会社,鹿児島県,肝属郡肝付町,新富３８７番地１,,46,492,8931207,,,,,,,2025-07-11,1,,,,,イロハ,0
2198,9360001035488,新規,0,2025-07-11,2025-07-11,株式会社Ｌｅ　ｃｈａｍｂｒｅ,,株式会社,沖縄県,那覇市,首里山川町２丁目１８番地,,47,201,9030825,,,,,,,2025-07-11,1,,,,,ルシャンブル,0
2199,9360003015075,新規,0,2025-07-11,2025-07-11,合同会社Ｍｉｎｇｓ,,合同会社,沖縄県,宜野湾市,志真志１丁目５－１トミハマアパート１、１０２号室,,47,205,9012213,,,,,,,2025-07-11,1,,,,,ミングス,0
2200,9370003007187,新規,0,2025-07-11,2025-07-11,Ｂｌａｃｋ　Ｐｏｎｄ合同会社,,合同会社,宮城県,柴田郡村田町,大字村田字末広町１１８番地,,04,322,9891305,,,,,,,2025-07-11,1,,,,,ブラックポンド,0
2202,9380001035461,新規,0,2025-07-11,2025-07-11,株式会社サクラ,,株式会社,福島県,郡山市,日和田町高倉字下杉下１番地の１,,07,203,9630531,,,,,,,2025-07-11,1,,,,,サクラ,0
2204,9390001018052,新規,0,2025-07-11,2025-07-11,株式会社ＦＡＲＮＥＬ,,株式会社,山形県,寒河江市,大字宮内５８番地,,06,206,9900501,,,,,,,2025-07-11,1,,,,,ファーネル,0
2210,9420001019204,新規,0,2025-07-11,2025-07-11,透福電興株式会社,,株式会社,青森県,八戸市,大字中居林字仕替場１０番地１サンライフＤ号,,02,203,0310002,,,,,,,2025-07-11,1,,,,,トオフクデンコウ,0
2211,9420001019212,新規,0,2025-07-11,2025-07-11,株式会社ＨＯＰＥ,,株式会社,青森県,青森市,栄町１丁目１３－１７ＡＲＴビル１階Ｂ号,,02,201,0300903,,,,,,,2025-07-11,1,,,,,ホープ,0
2212,9420003003148,新規,0,2025-07-11,2025-07-11,Ｐａｒａｄｉｓｅ　Ｊａｐａｎ合同会社,,合同会社,青森県,三戸郡田子町,大字田子字田子５４－１,,02,443,0390201,,,,,,,2025-07-11,1,,,,,パラダイスジャパン,0
2213,9420003003156,新規,0,2025-07-11,2025-07-11,合同会社Ｓｉｎｃｅｒｉｔｅ,,合同会社,青森県,青森市,妙見２丁目１４番２６号,,02,201,0300121,,,,,,,2025-07-11,1,,,,,サンセリテ,0
2219,9470001020792,新規,0,2025-07-11,2025-07-11,株式会社木の葉,,株式会社,香川県,高松市,牟礼町牟礼９４３番地,,37,201,7610121,,,,,,,2025-07-11,1,,,,,コノハ,0
2220,9480001012888,新規,0,2025-07-11,2025-07-11,株式会社愛ホールディングス,,株式会社,徳島県,阿南市,富岡町あ石２７番地４,,36,204,7740030,,,,,,,2025-07-11,1,,,,,,0
2221,9480003002284,新規,0,2025-07-11,2025-07-11,合同会社藤田会計企画,,合同会社,徳島県,徳島市,丈六町丈領１７４番地の７,,36,201,7714263,,,,,,,2025-07-11,1,,,,,フジタカイケイキカク,0
2225,9700150066209,新規,0,2025-07-11,2015-10-09,泊児童クラブ,,その他,沖縄県,那覇市,泊２丁目２３－１０,,47,201,9000012,,,,,,,2015-10-09,1,,,,,トマリジドウクラブ,0
