sequenceNumber,corporateNumber,process,correct,updateDate,changeDate,name,nameImageId,kind,prefectureName,cityName,streetNumber,addressImageId,prefectureCode,cityCode,postCode,addressOutside,addressOutsideImageId,closeDate,closeCause,successorCorporateNumber,changeCause,assignmentDate,latest,enName,enPrefectureName,enCityName,enAddressOutside,furigana,hihyoji
1,1010001147499,登記記録の閉鎖等,0,2023-03-27,2023-03-20,エスエフコンサルティング株式会社,,株式会社,東京都,中央区,日本橋馬喰町２丁目２番１２号,,13,102,1030002,,,2023-03-20,清算の結了等,,,2015-10-05,1,,,,,エスエフコンサルティング,0
10,1010501031847,登記記録の閉鎖等,0,2023-03-27,2023-03-22,株式会社エリアワークス,,株式会社,東京都,台東区,柳橋１丁目８番５号,,13,106,1110052,,,2023-03-22,清算の結了等,,,2015-10-05,1,,,,,エリアワークス,0
13,1010601047289,登記記録の閉鎖等,0,2023-03-27,2023-03-24,株式会社クラウドリーム,,株式会社,東京都,江戸川区,中央２丁目２４番３号村山ビル３Ｆ,,13,123,1320021,,,2023-03-24,清算の結了等,,,2015-10-05,1,,,,,クラウドリーム,0
15,1010701019964,登記記録の閉鎖等,0,2023-03-27,2023-03-20,株式会社エモーショナル・インテリジェンス,,株式会社,東京都,品川区,東五反田２丁目４番２号,,13,109,1410022,,,2023-03-20,清算の結了等,,,2015-10-05,1,,,,,エモーショナルインテリジェンス,0
16,1010701021854,登記記録の閉鎖等,0,2023-03-27,2023-03-22,株式会社ｅ－ｃｈａｎｃｅ,,株式会社,東京都,品川区,南大井３丁目２４番１３号Ｅｂｕｃｈｉビル４階,,13,109,1400013,,,2023-03-22,清算の結了等,,,2015-10-05,1,,,,,イーチャンス,0
21,1010802013437,登記記録の閉鎖等,0,2023-03-27,2023-03-20,有限会社マックス産業,,有限会社,東京都,大田区,中馬込３丁目１１番２９号,,13,111,1430027,,,2023-03-20,清算の結了等,,,2015-10-05,1,,,,,マックスサンギョウ,0
23,1010902002546,登記記録の閉鎖等,0,2023-03-27,2023-03-22,有限会社エステート・ファミリー,,有限会社,東京都,世田谷区,新町２丁目２５番６号,,13,112,1540014,,,2023-03-22,清算の結了等,,,2015-10-05,1,,,,,エステートファミリー,0
24,1010902004047,登記記録の閉鎖等,0,2023-03-27,2023-03-22,有限会社カトウスタジオ,,有限会社,東京都,世田谷区,上祖師谷４丁目２番２－２０１号,,13,112,1570065,,,2023-03-22,清算の結了等,,,2015-10-05,1,,,,,カトウスタジオ,0
27,1011001057110,登記記録の閉鎖等,0,2023-03-27,2023-03-22,株式会社ｅラボ,,株式会社,東京都,新宿区,新宿１丁目３６番２号,,13,104,1600022,,,2023-03-22,清算の結了等,,,2015-10-05,1,,,,,イーラボ,0
61,1012801017212,登記記録の閉鎖等,0,2023-03-27,2023-03-20,株式会社亮幸,,株式会社,東京都,日野市,豊田３丁目３９番地の２２,,13,212,1910053,,,2023-03-20,清算の結了等,,,2016-04-27,1,,,,,,0
94,1040002033183,登記記録の閉鎖等,0,2023-03-27,2023-03-20,有限会社小川興業,,有限会社,千葉県,市川市,本北方３丁目２３番９号,,12,203,2720816,,,2023-03-20,清算の結了等,,,2015-10-05,1,,,,,オガワコウギョウ,0
101,1050002018299,登記記録の閉鎖等,0,2023-03-27,2023-03-22,有限会社東不動産,,有限会社,茨城県,猿島郡境町,大字染谷７５１番地,,08,546,3060421,,,2023-03-22,清算の結了等,,,2015-10-05,1,,,,,アズマフドウサン,0
102,1050002031310,登記記録の閉鎖等,0,2023-03-27,2023-03-22,有限会社ヒロキ,,有限会社,茨城県,日立市,小木津町１丁目５番６－１号,,08,202,3191413,,,2023-03-22,清算の結了等,,,2015-10-05,1,,,,,ヒロキ,0
109,1080101000535,登記記録の閉鎖等,0,2023-03-27,2023-03-22,株式会社げんき,,株式会社,静岡県,沼津市,春日町６４番地の２,,22,203,4100844,,,2023-03-22,清算の結了等,,,2015-10-05,1,,,,,ゲンキ,0
140,1130001026146,登記記録の閉鎖等,0,2023-03-27,2023-03-22,株式会社ＦＩＮＥ　ＰＬＵＳ,,株式会社,京都府,宇治市,槇島町目川１４０番地１,,26,204,6110041,,,2023-03-22,清算の結了等,,,2015-10-05,1,,,,,,0
154,1150001006014,登記記録の閉鎖等,0,2023-03-27,2023-03-16,株式会社ニシタニ,,株式会社,奈良県,大和郡山市,北鍛冶町１８番地,,29,203,6391165,,,2023-03-16,清算の結了等,,,2015-10-05,1,,,,,ニシタニ,0
159,1180001017999,登記記録の閉鎖等,0,2023-03-27,2023-03-20,株式会社ハネリューコーポレーション,,株式会社,愛知県,名古屋市西区,枇杷島４丁目１番１５号,,23,104,4510053,,,2023-03-20,清算の結了等,,,2015-10-05,1,,,,,ハネリューコーポレーション,0
161,1180001112858,登記記録の閉鎖等,0,2023-03-27,2023-03-22,株式会社グラスバレー,,株式会社,愛知県,東海市,名和町３丁目６８番地の２,,23,222,4760002,,,2023-03-22,清算の結了等,,,2015-10-05,1,,,,,グラスバレー,0
183,1240002012530,登記記録の閉鎖等,0,2023-03-27,2023-03-24,有限会社野坂工務店,,有限会社,広島県,広島市西区,己斐上４丁目４番５９号,,34,104,7330815,,,2023-03-24,清算の結了等,,,2015-10-05,1,,,,,ノサカコウムテン,0
223,1430003008517,登記記録の閉鎖等,0,2023-03-27,2023-03-22,合同会社石川製作所,,合同会社,北海道,札幌市北区,新琴似五条１７丁目１番２－１００５号,,01,102,0010905,,,2023-03-22,合併による解散等,4430001028885,令和５年３月２１日札幌市西区発寒十七条十四丁目３番１号株式会社石川技研工業（4430001028885）に合併し解散,2017-06-28,1,,,,,イシカワセイサクショ,0
249,2010801026067,登記記録の閉鎖等,0,2023-03-27,2023-03-24,株式会社マチマチ,,株式会社,東京都,渋谷区,神宮前６丁目２３番４号,,13,113,1500001,,,2023-03-24,清算の結了等,,,2015-10-05,1,,,,,マチマチ,0
284,2011501000659,登記記録の閉鎖等,0,2023-03-27,2023-03-20,株式会社越後屋商店,,株式会社,東京都,北区,豊島４丁目１５番２８－１２０４号プレール玉石,,13,117,1140003,,,2023-03-20,清算の結了等,,,2015-10-05,1,,,,,エチゴヤショウテン,0
300,2020002013970,登記記録の閉鎖等,0,2023-03-27,2023-03-22,有限会社兼光工務店,,有限会社,神奈川県,横浜市青葉区,千草台３７番地３９,,14,117,2270051,,,2023-03-22,清算の結了等,,,2015-10-05,1,,,,,カネミツコウムテン,0
306,2021002008639,登記記録の閉鎖等,0,2023-03-27,2023-03-20,有限会社ソラテス・ラボ,,有限会社,神奈川県,藤沢市,遠藤２００９番地の３,,14,205,2520816,,,2023-03-20,清算の結了等,,,2015-10-05,1,,,,,ソラテスラボ,0
308,2030001123019,登記記録の閉鎖等,0,2023-03-27,2023-03-20,ＩＳＨＡＮ株式会社,,株式会社,埼玉県,さいたま市岩槻区,東岩槻２丁目１番１６号,,11,110,3390005,,,2023-03-20,清算の結了等,,,2017-11-15,1,,,,,イシュハン,0
317,2040001054691,登記記録の閉鎖等,0,2023-03-27,2023-03-22,株式会社ブルーメンテナンス,,株式会社,千葉県,市原市,岩野見１６番地４,,12,219,2900052,,,2023-03-22,清算の結了等,,,2015-10-05,1,,,,,ブルーメンテナンス,0
339,2080102015449,登記記録の閉鎖等,0,2023-03-27,2023-03-01,有限会社リージョナルサービス,,有限会社,静岡県,富士市,大渕３６８５番地の１,,22,210,4170000,,,2023-03-01,合併による解散等,1080102014179,令和５年３月１日静岡県富士市伝法３００番地の１株式会社ＴＫトランス（1080102014179）に合併し解散,2015-10-05,1,,,,,リージョナルサービス,0
345,2110003000364,登記記録の閉鎖等,0,2023-03-27,2023-03-24,合資会社ネットサポートオージーエー,,合資会社,新潟県,新潟市西区,須賀１番９号,,15,107,9502043,,,2023-03-24,清算の結了等,,,2015-10-05,1,,,,,ネットサポートオージーエー,0
346,2120001079012,登記記録の閉鎖等,0,2023-03-27,2023-03-24,平野町株式会社,,株式会社,大阪府,大阪市中央区,平野町１丁目８番７号,,27,128,5410046,,,2023-03-24,清算の結了等,,,2015-10-05,1,,,,,,0
352,2120001236471,登記記録の閉鎖等,0,2023-03-27,2023-03-17,金澤一家株式会社,,株式会社,大阪府,大阪市淀川区,宮原２丁目１２番１０号,,27,123,5320003,,,2023-03-17,清算の結了等,,,2021-04-06,1,,,,,カナザワイッカ,0
389,2180003022047,登記記録の閉鎖等,0,2023-03-27,2023-03-22,Ｓｔａｎｄ　Ｐｒｏｊｅｃｔ合同会社,,合同会社,愛知県,名古屋市中区,栄３丁目２－３名古屋日興證券ビル４階,,23,106,4600008,,,2023-03-22,清算の結了等,,,2021-01-20,1,,,,,スタンドプロジェクト,0
405,2290005016093,登記記録の閉鎖等,0,2023-03-27,2023-03-24,ＮＰＯ法人アーチリンク,,その他の設立登記法人,福岡県,糸島市,二丈福井１１３７番地４,,40,230,8191631,,,2023-03-24,清算の結了等,,,2016-10-14,1,,,,,,0
406,2290801016924,登記記録の閉鎖等,0,2023-03-27,2023-03-24,株式会社Ｄ－ＬＩＴＳ,,株式会社,福岡県,田川市,大字夏吉１３９８番地の１,,40,206,8250004,,,2023-03-24,清算の結了等,,,2015-10-05,1,,,,,ディーリッツ,0
417,2360003010974,登記記録の閉鎖等,0,2023-03-27,2023-03-17,合同会社籾山ハウジング,,合同会社,沖縄県,中頭郡北中城村,字美崎１５０番地１－２Ｆ,,47,327,9012321,,,2023-03-17,清算の結了等,,,2021-03-09,1,,,,,,0
428,2400001007456,登記記録の閉鎖等,0,2023-03-27,2023-03-20,株式会社川口商店,,株式会社,岩手県,上閉伊郡大槌町,港町４番２１号,,03,461,0281103,,,2023-03-20,清算の結了等,,,2015-10-05,1,,,,,カワグチショウテン,0
441,2470002004529,登記記録の閉鎖等,0,2023-03-27,2023-03-23,有限会社莨谷商店,,有限会社,香川県,高松市,西内町１０番１号,,37,201,7600022,,,2023-03-23,清算の結了等,,,2015-10-05,1,,,,,タバコダニショウテン,0
451,3010001132276,登記記録の閉鎖等,0,2023-03-27,2023-03-24,株式会社エルイーテック,,株式会社,東京都,江戸川区,東葛西４丁目３７－２－３０２,,13,123,1340084,,,2023-03-24,清算の結了等,,,2015-10-05,1,,,,,,0
452,3010001136260,登記記録の閉鎖等,0,2023-03-27,2023-03-14,株式会社ジャルコアミューズメントサービス,,株式会社,東京都,中央区,日本橋２丁目１６番１１号,,13,102,1030027,,,2023-03-14,合併による解散等,3010001111395,令和５年３月１日東京都中央区日本橋二丁目１６番１１号株式会社ジャルコ（3010001111395）に合併し解散,2015-10-05,1,,,,,ジャルコアミューズメントサービス,0
461,3010005024123,登記記録の閉鎖等,0,2023-03-27,2023-03-22,特定非営利活動法人ＮＰＯティ・エヌ・ジー・サポート,,その他の設立登記法人,東京都,品川区,東品川４丁目１３番２４－１２０５号,,13,109,1400002,,,2023-03-22,清算の結了等,,,2015-10-05,1,,,,,エヌピーオーティエヌジーサポート,0
488,3011101097483,登記記録の閉鎖等,0,2023-03-27,2023-03-23,株式会社アクア,,株式会社,東京都,新宿区,西新宿３丁目３番１３号西新宿水間ビル６階,,13,104,1600023,,,2023-03-23,清算の結了等,,,2022-01-18,1,,,,,アクア,0
499,3011601017040,登記記録の閉鎖等,0,2023-03-27,2023-03-23,株式会社インターネットサポート,,株式会社,大阪府,大阪市西区,京町堀１丁目１６番２２号牧野ビル４０６号室,,27,106,5500003,,,2023-03-23,合併による解散等,5140001029664,令和５年３月２３日大阪市中央区南本町二丁目２番３号株式会社Ｎｅｘｔ　Ｆｕｔｕｒｅ　Ｈｏｌｄｉｎｇｓ（5140001029664）に合併し解散,2015-10-05,1,,,,,インターネットサポート,0
501,3011802014638,登記記録の閉鎖等,0,2023-03-27,2023-03-17,有限会社政明プレス製作所,,有限会社,東京都,足立区,関原２丁目５番８号,,13,121,1230852,,,2023-03-17,清算の結了等,,,2015-10-05,1,,,,,マサアキプレス,0
532,3040003004966,登記記録の閉鎖等,0,2023-03-27,2023-03-22,ＲＡＮ企画合同会社,,合同会社,千葉県,千葉市稲毛区,小仲台２丁目１番１－４０５号,,12,103,2630043,,,2023-03-22,清算の結了等,,,2015-10-05,1,,,,,ランキカク,0
544,3070002003561,登記記録の閉鎖等,0,2023-03-27,2023-03-13,有限会社千葉製作所,,有限会社,群馬県,前橋市,堀越町１３５１番地,,10,201,3710231,,,2023-03-13,清算の結了等,,,2015-10-05,1,,,,,チバセイサクショ,0
563,3120001168937,登記記録の閉鎖等,0,2023-03-27,2023-03-22,ハルト株式会社,,株式会社,大阪府,大阪市旭区,千林２丁目１１番２４号,,27,117,5350012,,,2023-03-22,清算の結了等,,,2015-10-05,1,,,,,ハルト,0
568,3120001245273,登記記録の閉鎖等,0,2023-03-27,2023-03-24,株式会社Ｈｕａ　ｈｕａ,,株式会社,大阪府,大阪市中央区,玉造２丁目１５番５号,,27,128,5400004,,,2023-03-24,清算の結了等,,,2022-04-18,1,,,,,フアフア,0
573,3120005011119,登記記録の閉鎖等,0,2023-03-27,2023-03-24,医療法人恵陽会,,その他の設立登記法人,大阪府,大阪市北区,東天満１丁目１番１５号,,27,127,5300044,,,2023-03-24,清算の結了等,,,2015-10-05,1,,,,,,0
575,3120103002374,登記記録の閉鎖等,0,2023-03-27,2023-03-24,ふんわり合同会社,,合同会社,大阪府,堺市西区,浜寺船尾町西１丁１０４番地,,27,144,5928342,,,2023-03-24,清算の結了等,,,2016-01-29,1,,,,,,0
581,3122002015077,登記記録の閉鎖等,0,2023-03-27,2023-03-23,有限会社山野製作所,,有限会社,大阪府,八尾市,跡部南の町１丁目２番１２号,,27,212,5810055,,,2023-03-23,清算の結了等,,,2015-10-05,1,,,,,ヤマノセイサクショ,0
589,3140001066973,登記記録の閉鎖等,0,2023-03-27,2023-03-17,ＳＵＮＡＭＩ株式会社,,株式会社,兵庫県,三田市,つつじが丘南２丁目３番地１１,,28,219,6691347,,,2023-03-17,清算の結了等,,,2015-10-05,1,,,,,スナミ,0
601,3180001115108,登記記録の閉鎖等,0,2023-03-27,2023-03-20,株式会社アクト,,株式会社,愛知県,名古屋市港区,小碓２丁目７５番地,,23,111,4550801,,,2023-03-20,清算の結了等,,,2015-10-05,1,,,,,アクト,0
615,3200001037381,登記記録の閉鎖等,0,2023-03-27,2023-03-23,株式会社龜山,,株式会社,岐阜県,下呂市,金山町戸部４０１３番地,,21,220,5091605,,,2023-03-23,清算の結了等,,,2020-04-21,1,,,,,カメヤマ,0
617,3230003001804,登記記録の閉鎖等,0,2023-03-27,2023-03-23,合同会社ＫＯＨＭＥＩ,,合同会社,富山県,富山市,安養坊７０７－１０パンプキン２０１,,16,201,9300881,,,2023-03-23,清算の結了等,,,2022-02-18,1,,,,,コーメイ,0
627,3290002002228,登記記録の閉鎖等,0,2023-03-27,2023-03-24,有限会社里崎自動車,,有限会社,福岡県,福岡市南区,清水１丁目１３番２５号,,40,134,8150031,,,2023-03-24,清算の結了等,,,2015-10-05,1,,,,,サトザキジドウシャ,0
639,3310002011317,登記記録の閉鎖等,0,2023-03-27,2023-03-23,有限会社平兵衛製陶所,,有限会社,長崎県,佐世保市,三川内町８９９番地の３,,42,202,8593155,,,2023-03-23,清算の結了等,,,2015-10-05,1,,,,,ヘイベイセイトウショ,0
660,3370602000218,登記記録の閉鎖等,0,2023-03-27,2023-03-24,有限会社色川自動車工業,,有限会社,宮城県,塩竈市,貞山通３丁目５番６号,,04,203,9850011,,,2023-03-24,清算の結了等,,,2015-10-05,1,,,,,,0
665,3420005005073,登記記録の閉鎖等,0,2023-03-27,2023-03-17,天理教東星分教会,,その他の設立登記法人,青森県,黒石市,大字下山形字中村平１０番地,,02,204,0360414,,,2023-03-17,合併による解散等,6420005005070,令和５年３月１７日青森県黒石市幸町１０２番地天理教黒石分教会（6420005005070）に合併し解散,2015-10-05,1,,,,,,0
678,3430003001362,登記記録の閉鎖等,0,2023-03-27,2023-03-22,株式会社イシカワＲＣ,,株式会社,北海道,札幌市北区,新琴似五条１７丁目１番２－１００５号,,01,102,0010905,,,2023-03-22,合併による解散等,4430001028885,令和５年３月２１日札幌市西区発寒十七条十四丁目３番１号株式会社石川技研工業（4430001028885）に合併し解散,2015-10-05,1,,,,,イシカワアールシー,0
712,4010401146222,登記記録の閉鎖等,0,2023-03-27,2023-03-23,豊受コンサルティング株式会社,,株式会社,東京都,足立区,千住宮元町３２番１３号大久保ビル,,13,121,1200043,,,2023-03-23,清算の結了等,,,2019-06-17,1,,,,,トヨウケコンサルティング,0
750,4011105008799,登記記録の閉鎖等,0,2023-03-27,2023-03-24,一般社団法人Ｌｉｆｅ　Ｐｌａｃｅ　Ｄｅｓｉｇｎ,,その他の設立登記法人,東京都,新宿区,西新宿４丁目２９番２号ヴィエッティ西新宿３０２号室,,13,104,1600023,,,2023-03-24,清算の結了等,,,2019-06-10,1,,,,,ライフプレイスデザイン,0
763,4012402014416,登記記録の閉鎖等,0,2023-03-27,2023-03-24,有限会社協和空調設備,,有限会社,東京都,狛江市,西野川１丁目１６番１４号,,13,219,2010001,,,2023-03-24,清算の結了等,,,2015-10-05,1,,,,,,0
787,4030002092839,登記記録の閉鎖等,0,2023-03-27,2023-03-15,有限会社藤井動物病院,,有限会社,埼玉県,坂戸市,薬師町３６番地６,,11,239,3500229,,,2023-03-15,清算の結了等,,,2015-10-05,1,,,,,フジイドウブツビョウイン,0
790,4040001019115,登記記録の閉鎖等,0,2023-03-27,2023-03-20,リュウシン設備工業株式会社,,株式会社,千葉県,船橋市,丸山２丁目５２番１０号,,12,204,2730048,,,2023-03-20,清算の結了等,,,2015-10-05,1,,,,,リュウシンセツビコウギョウ,0
813,4080001018253,登記記録の閉鎖等,0,2023-03-27,2023-03-24,株式会社グローバルコム,,株式会社,静岡県,焼津市,中港２丁目５番１３号,,22,212,4250021,,,2023-03-24,清算の結了等,,,2015-10-05,1,,,,,グローバルコム,0
820,4120001085504,登記記録の閉鎖等,0,2023-03-27,2023-03-24,東洋テクノ株式会社,,株式会社,大阪府,大阪市中央区,久太郎町１丁目４番１５号宇治保ビル,,27,128,5410056,,,2023-03-24,清算の結了等,,,2015-10-05,1,,,,,トウヨウテクノ,0
822,4120001127066,登記記録の閉鎖等,0,2023-03-27,2023-03-24,株式会社オーディオ堂,,株式会社,大阪府,大阪市東住吉区,北田辺６丁目１４番１８号,,27,121,5460044,,,2023-03-24,清算の結了等,,,2015-10-05,1,,,,,,0
826,4120001186351,登記記録の閉鎖等,0,2023-03-27,2023-03-23,株式会社日本アセットマネジメント,,株式会社,大阪府,大阪市西区,京町堀１丁目１６番２２号牧野ビル４０６号室,,27,106,5500003,,,2023-03-23,合併による解散等,5140001029664,令和５年３月２３日大阪市中央区南本町二丁目２番３号株式会社Ｎｅｘｔ　Ｆｕｔｕｒｅ　Ｈｏｌｄｉｎｇｓ（5140001029664）に合併し解散,2015-10-05,1,,,,,ニホンアセットマネジメント,0
835,4120101001220,登記記録の閉鎖等,0,2023-03-27,2023-03-23,株式会社関西商工,,株式会社,大阪府,堺市東区,北野田４４番地の５北野田第１ビル,,27,143,5998123,,,2023-03-23,清算の結了等,,,2023-01-04,1,,,,,カンサイショウコウ,0
836,4120101060670,登記記録の閉鎖等,0,2023-03-27,2023-03-24,株式会社エムライズ,,株式会社,大阪府,堺市美原区,黒山６１１番地１,,27,147,5870002,,,2023-03-24,清算の結了等,,,2019-10-11,1,,,,,エムライズ,0
855,4180001074294,登記記録の閉鎖等,0,2023-03-27,2023-03-22,株式会社三角定規,,株式会社,愛知県,春日井市,白山町６丁目１１番地の１９,,23,206,4870034,,,2023-03-22,清算の結了等,,,2015-10-05,1,,,,,サンカクジョウギ,0
861,4180002016378,登記記録の閉鎖等,0,2023-03-27,2023-03-22,有限会社テイキ,,有限会社,愛知県,名古屋市中区,栄２丁目７番１３号,,23,106,4600008,,,2023-03-22,合併による解散等,4180002062769,令和５年３月２２日名古屋市昭和区南山町１３番地の３株式会社ＹＪＹ（4180002062769）に合併し解散,2015-10-05,1,,,,,テイキ,0
862,4180002022946,登記記録の閉鎖等,0,2023-03-27,2023-03-22,有限会社岡本屋,,有限会社,愛知県,名古屋市北区,中味鋺３丁目９１７番地,,23,103,4620015,,,2023-03-22,清算の結了等,,,2023-02-22,1,,,,,オカモトヤ,0
865,4180301016962,登記記録の閉鎖等,0,2023-03-27,2023-03-13,株式会社コーエイセキュリティー,,株式会社,愛知県,知立市,堀切２丁目４１番地萩原事務所２号,,23,225,4720036,,,2023-03-13,清算の結了等,,,2015-10-05,1,,,,,コーエイセキュリティー,0
880,4240005006493,登記記録の閉鎖等,0,2023-03-27,2023-03-13,大窪寺,,その他の設立登記法人,広島県,江田島市,大柿町深江３０２２番地の３,,34,215,7372214,,,2023-03-13,清算の結了等,,,2015-10-05,1,,,,,オオクボデラ,0
881,4280002009652,登記記録の閉鎖等,0,2023-03-27,2023-03-24,有限会社みずほ,,有限会社,島根県,邑智郡邑南町,下田所２６３番地１,,32,449,6960222,,,2023-03-24,清算の結了等,,,2015-10-05,1,,,,,ミズホ,0
886,4310002010342,登記記録の閉鎖等,0,2023-03-27,2023-03-22,柴崎水産有限会社,00095992,有限会社,長崎県,佐世保市,東浜町１０５０番地８,,42,202,8571172,,,2023-03-22,清算の結了等,,,2015-10-05,1,,,,,シバサキスイサン,0
905,4420003000430,登記記録の閉鎖等,0,2023-03-27,2023-03-23,合資会社赤塚順次郎商事,,合資会社,青森県,三戸郡三戸町,大字同心町字同心町平７番地５,,02,441,0390134,,,2023-03-23,清算の結了等,,,2015-10-05,1,,,,,アカツカジュンジロウショウジ,0
927,5010005015252,登記記録の閉鎖等,0,2023-03-27,2023-03-23,カインド事務所司法書士法人,,その他の設立登記法人,東京都,千代田区,永田町２丁目１７番５号ローレル永田町１０９,,13,101,1000014,,,2023-03-23,清算の結了等,,,2015-10-05,1,,,,,カインドジムショ,0
930,5010401011607,登記記録の閉鎖等,0,2023-03-27,2023-03-15,株式会社サンバースト,,株式会社,東京都,港区,東麻布１丁目２５番３号第２富田ビル１階,,13,103,1060044,,,2023-03-15,清算の結了等,,,2015-10-05,1,,,,,サンバースト,0
941,5010602002090,登記記録の閉鎖等,0,2023-03-27,2023-03-20,有限会社日下商店,,有限会社,東京都,江東区,東陽３丁目１１番８号,,13,108,1350016,,,2023-03-20,清算の結了等,,,2015-10-05,1,,,,,クサカショウテン,0
959,5011102024575,登記記録の閉鎖等,0,2023-03-27,2023-03-22,有限会社アーパ・ビジネス・コンサルティング,,有限会社,東京都,新宿区,富久町３－１,,13,104,1620067,,,2023-03-22,清算の結了等,,,2015-10-05,1,,,,,アーパビジネスコンサルティング,0
965,5011602023969,登記記録の閉鎖等,0,2023-03-27,2023-03-20,有限会社インターバリュー,,有限会社,東京都,練馬区,桜台６丁目４番１５号ラピス氷川台３０２,,13,120,1760002,,,2023-03-20,清算の結了等,,,2015-10-05,1,,,,,インターバリュー,0
981,5020001029569,登記記録の閉鎖等,0,2023-03-27,2023-03-20,横浜貿易建物株式会社,,株式会社,神奈川県,横浜市中区,尾上町１丁目６番地ＩＣＯＮ関内７０５,,14,104,2310015,,,2023-03-20,清算の結了等,,,2015-10-05,1,,,,,ヨコハマボウエキタテモノ,0
992,5020002086320,登記記録の閉鎖等,0,2023-03-27,2023-03-16,有限会社クエスタ,,有限会社,東京都,大田区,南馬込３丁目１８番８号Ｋ・ＨＯＵＳＥ２Ｆ,,13,111,1430025,,,2023-03-16,清算の結了等,,,2015-10-05,1,,,,,クエスタ,0
1089,5180005017793,登記記録の閉鎖等,0,2023-03-27,2023-03-22,一般社団法人Ｌｅｅｄ,,その他の設立登記法人,愛知県,名古屋市中区,栄５丁目２６番３６号,,23,106,4600008,,,2023-03-22,清算の結了等,,,2018-04-25,1,,,,,リード,0
1093,5210002004799,登記記録の閉鎖等,0,2023-03-27,2023-03-23,有限会社エス・エス繊維,,有限会社,福井県,福井市,重立町第１０号３番地,,18,201,9100823,,,2023-03-23,清算の結了等,,,2015-10-05,1,,,,,エスエスセンイ,0
1096,5220002004253,登記記録の閉鎖等,0,2023-03-27,2023-03-24,有限会社永島商店,,有限会社,石川県,金沢市,無量寺３丁目２４番地,,17,201,9200333,,,2023-03-24,清算の結了等,,,2015-10-05,1,,,,,ナガシマショウテン,0
1097,5220002015184,登記記録の閉鎖等,0,2023-03-27,2023-03-22,有限会社とよ天,,有限会社,石川県,羽咋市,酒井町わ１０１番地,,17,207,9291574,,,2023-03-22,清算の結了等,,,2015-10-05,1,,,,,トヨテン,0
1105,5280002001559,登記記録の閉鎖等,0,2023-03-27,2023-03-23,有限会社トスク,,有限会社,島根県,松江市,東津田町４１９番地,,32,201,6900011,,,2023-03-23,清算の結了等,,,2015-10-05,1,,,,,トスク,0
1107,5290001037371,登記記録の閉鎖等,0,2023-03-27,2023-03-24,株式会社すすき牧場,,株式会社,福岡県,宗像市,河東１番地,,40,220,8113402,,,2023-03-24,清算の結了等,,,2015-10-05,1,,,,,ススキボクジョウ,0
1111,5290002035333,登記記録の閉鎖等,0,2023-03-27,2023-03-24,株式会社Ｐｒａｉｒｉｅ　Ｃａｔｔｌｅ,,株式会社,福岡県,宗像市,河東１番地,,40,220,8113402,,,2023-03-24,清算の結了等,,,2015-10-05,1,,,,,プレイリーキャトル,0
1122,5340005008231,登記記録の閉鎖等,0,2023-03-27,2023-03-24,特定非営利活動法人ＮＰＯ法人真珠の華,,その他の設立登記法人,鹿児島県,鹿児島市,武岡１丁目１４番地１３,,46,201,8900031,,,2023-03-24,清算の結了等,,,2015-10-05,1,,,,,シンジュノハナ,0
1124,5360001006204,登記記録の閉鎖等,0,2023-03-27,2023-03-17,株式会社エレガント食品,,株式会社,沖縄県,那覇市,字小禄８４３番地１３－１－Ｂ,,47,201,9010152,,,2023-03-17,清算の結了等,,,2015-10-05,1,,,,,,0
1127,5360005003172,登記記録の閉鎖等,0,2023-03-27,2023-03-16,特定非営利活動法人ＣＯＣＯＮＥＴ,,その他の設立登記法人,沖縄県,中頭郡北谷町,字桑江５７５番地５、１Ｆ,,47,326,9040103,,,2023-03-16,清算の結了等,,,2015-10-05,1,,,,,ココネット,0
1132,5390001004700,登記記録の閉鎖等,0,2023-03-27,2023-03-20,株式会社トップ・ロジ,,株式会社,山形県,東村山郡中山町,大字長崎４１７５番地１,,06,302,9900401,,,2023-03-20,清算の結了等,,,2015-10-05,1,,,,,トップロジ,0
1153,5480001004971,登記記録の閉鎖等,0,2023-03-27,2023-03-24,共栄興産株式会社,,株式会社,徳島県,鳴門市,撫養町木津１１２５番地,,36,202,7720004,,,2023-03-24,清算の結了等,,,2015-10-05,1,,,,,キョウエイコウサン,0
1183,6010801003062,登記記録の閉鎖等,0,2023-03-27,2023-03-20,株式会社君嶋工務店,,株式会社,東京都,大田区,仲池上２丁目６番２３号,,13,111,1460081,,,2023-03-20,清算の結了等,,,2015-10-05,1,,,,,キミシマコウムテン,0
1194,6011102014245,登記記録の閉鎖等,0,2023-03-27,2023-03-22,有限会社ローンズ学燈社,,有限会社,東京都,新宿区,高田馬場２丁目１９番７号タックイレブン,,13,104,1690075,,,2023-03-22,清算の結了等,,,2015-10-05,1,,,,,ローンズガクトウシャ,0
1207,6013301021105,登記記録の閉鎖等,0,2023-03-27,2023-03-15,株式会社フォレスト・アイ,,株式会社,東京都,豊島区,上池袋３丁目１６番６号池袋東方マンション２１３,,13,116,1700012,,,2023-03-15,清算の結了等,,,2015-10-05,1,,,,,フォレストアイ,0
1211,6020001065398,登記記録の閉鎖等,0,2023-03-27,2023-02-27,株式会社テシマインターナショナル,,株式会社,東京都,町田市,小野路町１６１１番地２サンシティ町田１－８１３,,13,209,1950064,,,2023-02-27,清算の結了等,,,2015-10-05,1,,,,,テシマインターナショナル,0
1219,6020003010088,登記記録の閉鎖等,0,2023-03-27,2023-03-22,合同会社たつのこ,,合同会社,神奈川県,川崎市麻生区,下麻生１丁目７番地２５号２０４,,14,137,2150022,,,2023-03-22,清算の結了等,,,2015-10-05,1,,,,,タツノコ,0
1220,6020003012150,登記記録の閉鎖等,0,2023-03-27,2023-03-22,合同会社ＩＷＡＳＥ,,合同会社,神奈川県,横浜市都筑区,茅ケ崎南４丁目１２番１３－３０１号,,14,118,2240037,,,2023-03-22,清算の結了等,,,2016-12-19,1,,,,,イワセ,0
1226,6021002049357,登記記録の閉鎖等,0,2023-03-27,2023-03-23,有限会社タカハシ,,有限会社,神奈川県,海老名市,扇町４番１－４０８号,,14,215,2430436,,,2023-03-23,清算の結了等,,,2015-10-05,1,,,,,タカハシ,0
1238,6030003018592,登記記録の閉鎖等,0,2023-03-27,2023-03-23,テックソリューション合同会社,,合同会社,埼玉県,東松山市,若松町１丁目１２－１０,,11,212,3550037,,,2023-03-23,清算の結了等,,,2022-01-11,1,,,,,テックソリューション,0
1285,6130001059117,登記記録の閉鎖等,0,2023-03-27,2023-03-22,株式会社スマイルキッチン,,株式会社,京都府,亀岡市,曽我部町南条北向田７番地４９,,26,206,6210022,,,2023-03-22,清算の結了等,,,2017-01-31,1,,,,,スマイルキッチン,0
1289,6130002030613,登記記録の閉鎖等,0,2023-03-27,2023-03-20,有限会社大島不動産,,有限会社,京都府,城陽市,寺田垣内後５番地,,26,207,6100121,,,2023-03-20,清算の結了等,,,2015-10-05,1,,,,,オオシマフドウサン,0
1314,6220001020333,登記記録の閉鎖等,0,2023-03-27,2023-03-22,株式会社ＧＯＤ,,株式会社,石川県,金沢市,米泉町４丁目５７番地２,,17,201,9218044,,,2023-03-22,清算の結了等,,,2015-10-05,1,,,,,ゴッド,0
1322,6250001017129,登記記録の閉鎖等,0,2023-03-27,2023-03-22,ＩＹＫ株式会社,,株式会社,山口県,宇部市,大字中山３３番地１,,35,202,7550058,,,2023-03-22,清算の結了等,,,2018-05-16,1,,,,,アイワイケー,0
1340,6340001012830,登記記録の閉鎖等,0,2023-03-27,2023-03-22,株式会社松建設,,株式会社,鹿児島県,南九州市,知覧町瀬世２３９８番地,,46,223,8970305,,,2023-03-22,清算の結了等,,,2015-10-05,1,,,,,マツケンセツ,0
1355,6400005003398,登記記録の閉鎖等,0,2023-03-27,2023-03-16,天理教湯田分教会,,その他の設立登記法人,岩手県,和賀郡西和賀町,中村５８地割３７番地の１,,03,366,0295522,,,2023-03-16,合併による解散等,7410005002704,令和５年３月１５日秋田県雄勝郡東成瀬村椿川字下段３１番地天理教椿川分教会（7410005002704）に合併し解散,2015-10-05,1,,,,,,0
1365,6430005011753,登記記録の閉鎖等,0,2023-03-27,2023-03-20,一般社団法人日本スポーツ雪かき連盟,,その他の設立登記法人,北海道,小樽市,住ノ江２丁目４番６号,,01,203,0470014,,,2023-03-20,清算の結了等,,,2015-10-05,1,,,,,ニッポンスポーツユキカキレンメイ,0
1400,7010401072928,登記記録の閉鎖等,0,2023-03-27,2023-03-15,アドテクス株式会社,,株式会社,東京都,港区,西新橋２丁目１５番１７号,,13,103,1050003,,,2023-03-15,清算の結了等,,,2015-10-05,1,,,,,アドテクス,0
1402,7010401145782,登記記録の閉鎖等,0,2023-03-27,2023-03-15,トパーズ・アドバイザリー株式会社,,株式会社,東京都,港区,愛宕２丁目５番１号愛宕グリーンヒルズＭＯＲＩタワー３９階,,13,103,1050002,,,2023-03-15,合併による解散等,8010001147501,令和５年３月１５日東京都港区愛宕二丁目５番１号愛宕グリーンヒルズＭＯＲＩタワー３９階トパーズ・キャピタル株式会社（8010001147501）に合併し解散,2019-05-28,1,,,,,トパーズアドバイザリー,0
1404,7010403027533,登記記録の閉鎖等,0,2023-03-27,2023-03-14,合同会社千織部,,合同会社,東京都,港区,南青山２丁目２番１５号ウィン青山９４２,,13,103,1070062,,,2023-03-14,清算の結了等,,,2022-05-06,1,,,,,チオリベ,0
1408,7010505001312,登記記録の閉鎖等,0,2023-03-27,2023-03-24,台東ファッションフェア事業協同組合,,その他の設立登記法人,東京都,台東区,清川１丁目２１番４号,,13,106,1110022,,,2023-03-24,清算の結了等,,,2015-10-05,1,,,,,タイトウファッションフェア,0
1431,7011501007798,登記記録の閉鎖等,0,2023-03-27,2023-03-20,東成商亊株式会社,,株式会社,東京都,荒川区,西日暮里５丁目１０番１３号,,13,118,1160013,,,2023-03-20,清算の結了等,,,2015-10-05,1,,,,,,0
1441,7012402018629,登記記録の閉鎖等,0,2023-03-27,2023-03-23,有限会社杏苑,,有限会社,東京都,三鷹市,下連雀７丁目９番４号,,13,204,1810013,,,2023-03-23,清算の結了等,,,2015-10-05,1,,,,,,0
1445,7012801007694,登記記録の閉鎖等,0,2023-03-27,2023-03-09,株式会社ビークル,,株式会社,東京都,立川市,羽衣町２丁目４９番１２号,,13,202,1900021,,,2023-03-09,清算の結了等,,,2015-10-05,1,,,,,ビークル,0
1455,7020001127833,登記記録の閉鎖等,0,2023-03-27,2023-03-22,株式会社ＣＫ,,株式会社,神奈川県,川崎市川崎区,東田町３番地１４世良ビル３階,,14,131,2100005,,,2023-03-22,清算の結了等,,,2018-09-07,1,,,,,シーケー,0
1467,7021003011793,登記記録の閉鎖等,0,2023-03-27,2023-03-22,森家合同会社,,合同会社,神奈川県,藤沢市,鵠沼桜が岡４丁目１番１４号,,14,205,2510027,,,2023-03-22,清算の結了等,,,2022-08-25,1,,,,,モリケ,0
1472,7030001127683,登記記録の閉鎖等,0,2023-03-27,2023-03-22,株式会社アイ・カーサｓｔｙｌｅ,,株式会社,埼玉県,草加市,西町４５３番地７,,11,221,3400035,,,2023-03-22,清算の結了等,,,2018-10-03,1,,,,,アイカーサスタイル,0
1512,7100005006439,登記記録の閉鎖等,0,2023-03-27,2023-02-20,特定非営利活動法人幸の家,,その他の設立登記法人,長野県,松本市,反町４９８番地１８,,20,202,3997418,,,2023-02-20,清算の結了等,,,2015-10-05,1,,,,,サチノイエ,0
1520,7120001250237,登記記録の閉鎖等,0,2023-03-27,2023-03-22,ＴＫ株式会社,,株式会社,大阪府,大阪市中央区,東高麗橋１番１２号,,27,128,5400039,,,2023-03-22,合併による解散等,5010001180892,令和５年３月２１日大阪市中央区東高麗橋１番１２号クリニファー株式会社（5010001180892）に合併し解散,2022-11-10,1,,,,,ティーケー,0
1541,7122003001106,登記記録の閉鎖等,0,2023-03-27,2023-03-16,合同会社クローバー,,合同会社,沖縄県,那覇市,銘苅１丁目３番３３号グランスイート新都心１階,,47,201,9000004,,,2023-03-16,清算の結了等,,,2015-10-05,1,,,,,クローバー,0
1542,7130001005268,登記記録の閉鎖等,0,2023-03-27,2023-03-22,株式会社沼田工業所,,株式会社,京都府,京都市北区,紫野門前町４４番地の２０,,26,101,6038216,,,2023-03-22,清算の結了等,,,2015-10-05,1,,,,,ヌマタコウギョウショ,0
1558,7140005006930,登記記録の閉鎖等,0,2023-03-27,2023-03-23,宍粟郡生活必需品商業協同組合,,その他の設立登記法人,兵庫県,宍粟市,山崎町山崎９２番地,,28,227,6712577,,,2023-03-23,清算の結了等,,,2015-10-05,1,,,,,シソウグンセイカツヒツジュヒンショウギョウ,0
1574,7180303004830,登記記録の閉鎖等,0,2023-03-27,2023-03-16,合同会社アウルＯＧＵ,,合同会社,愛知県,岡崎市,上地３丁目２３番地２０,,23,202,4440823,,,2023-03-16,清算の結了等,,,2020-12-08,1,,,,,アウル,0
1575,7190002019880,登記記録の閉鎖等,0,2023-03-27,2023-03-23,有限会社北添土木,,有限会社,三重県,四日市市,万古町２番１６号,,24,202,5100804,,,2023-03-23,清算の結了等,,,2020-10-28,1,,,,,キタゾエドボク,0
1578,7200002016224,登記記録の閉鎖等,0,2023-03-27,2023-03-17,有限会社丸福紙器工業所,,有限会社,岐阜県,美濃加茂市,伊深町８４８番地の２,,21,211,5050008,,,2023-03-17,清算の結了等,,,2015-10-05,1,,,,,マルフクシキコウギョウショ,0
1588,7250001008655,登記記録の閉鎖等,0,2023-03-27,2023-03-22,株式会社浅谷工務店,,株式会社,山口県,下松市,駅南１丁目６の３－７０１,,35,207,7440007,,,2023-03-22,清算の結了等,,,2015-10-05,1,,,,,アサタニコウムテン,0
1590,7250002013753,登記記録の閉鎖等,0,2023-03-27,2023-03-22,有限会社恩村林産,,有限会社,山口県,萩市,大字平安古町２８３番地の２,,35,204,7580074,,,2023-03-22,清算の結了等,,,2015-10-05,1,,,,,オンムラリンサン,0
1591,7260001027051,登記記録の閉鎖等,0,2023-03-27,2023-03-23,岡南土地株式会社,,株式会社,岡山県,都窪郡早島町,大字早島１９７０番地,,33,423,7010300,,,2023-03-23,清算の結了等,,,2022-11-11,1,,,,,,0
1594,7260005010508,登記記録の閉鎖等,0,2023-03-27,2023-03-23,一般社団法人ザイング,,その他の設立登記法人,岡山県,岡山市北区,弓之町１０－２５,,33,101,7000817,,,2023-03-23,清算の結了等,,,2018-10-24,1,,,,,ザイング,0
1598,7280002009848,登記記録の閉鎖等,0,2023-03-27,2023-03-23,有限会社大谷鈑金工業所,,有限会社,島根県,益田市,染羽町４番６９号,,32,204,6980011,,,2023-03-23,清算の結了等,,,2015-10-05,1,,,,,,0
1607,7290001090419,登記記録の閉鎖等,0,2023-03-27,2023-03-23,株式会社ホーム＆ライフデザイン,,株式会社,福岡県,春日市,小倉７丁目２８番地１０２号,,40,218,8160824,,,2023-03-23,清算の結了等,,,2020-10-12,1,,,,,ホームアンドライフデザイン,0
1614,7340002017902,登記記録の閉鎖等,0,2023-03-27,2023-03-22,有限会社ゼンシン,,有限会社,鹿児島県,いちき串木野市,日出町１５９番地,,46,219,8960054,,,2023-03-22,清算の結了等,,,2015-10-05,1,,,,,ゼンシン,0
1648,7450002011200,登記記録の閉鎖等,0,2023-03-27,2023-03-22,有限会社モリツウ,,有限会社,北海道,稚内市,大黒３丁目２番１５号,,01,214,0970005,,,2023-03-22,清算の結了等,,,2015-10-05,1,,,,,,0
1662,8010002047601,登記記録の閉鎖等,0,2023-03-27,2023-03-20,有限会社サザンインベストメント,,有限会社,東京都,千代田区,丸の内２丁目１番１号,,13,101,1000005,,,2023-03-20,清算の結了等,,,2015-10-05,1,,,,,サザンインベストメント,0
1667,8010401161432,登記記録の閉鎖等,0,2023-03-27,2023-03-22,クラシス・グループ株式会社,,株式会社,東京都,新宿区,四谷三栄町３－７森山ビル東館２Ｆ,,13,104,1600008,,,2023-03-22,合併による解散等,4010401087466,令和５年３月１日東京都千代田区神田小川町二丁目１番地株式会社クロスシー（4010401087466）に合併し解散,2021-07-12,1,,,,,クラシスグループ,0
1670,8010501025933,登記記録の閉鎖等,0,2023-03-27,2023-03-22,株式会社メディカル・マネジメント・コンサルティング,,株式会社,東京都,台東区,柳橋１丁目８番５号,,13,106,1110052,,,2023-03-22,清算の結了等,,,2015-10-05,1,,,,,メディカルマネジメントコンサルティング,0
1674,8010502016642,登記記録の閉鎖等,0,2023-03-27,2023-03-22,ケイエスプランニング有限会社,,有限会社,東京都,台東区,柳橋１丁目８番５号,,13,106,1110052,,,2023-03-22,清算の結了等,,,2015-10-05,1,,,,,ケイエスプランニング,0
1676,8010601057125,登記記録の閉鎖等,0,2023-03-27,2023-03-24,味楽株式会社,,株式会社,福岡県,福岡市中央区,天神３丁目３番１４号,,40,133,8100001,,,2023-03-24,清算の結了等,,,2020-03-30,1,,,,,ミラク,0
1702,8011502002459,登記記録の閉鎖等,0,2023-03-27,2023-03-20,有限会社三兼酒蔵,,有限会社,東京都,北区,東十条３丁目１７番１１号,,13,117,1140001,,,2023-03-20,清算の結了等,,,2015-10-05,1,,,,,サンカネシュゾウ,0
1705,8011701012804,登記記録の閉鎖等,0,2023-03-27,2023-03-20,株式会社トラフィックメディア,,株式会社,東京都,中央区,銀座１丁目１６番７号銀座大栄ビル５Ｆ,,13,102,1040061,,,2023-03-20,清算の結了等,,,2015-10-05,1,,,,,トラフィックメディア,0
1708,8012302008761,登記記録の閉鎖等,0,2023-03-27,2023-03-24,有限会社足立商会,,有限会社,東京都,町田市,薬師台１丁目７番地６,,13,209,1950073,,,2023-03-24,清算の結了等,,,2015-10-05,1,,,,,アダチショウカイ,0
1719,8020001105433,登記記録の閉鎖等,0,2023-03-27,2023-03-22,ペルシンク株式会社,,株式会社,神奈川県,横浜市中区,本町１丁目７番地,,14,104,2310005,,,2023-03-22,清算の結了等,,,2015-10-05,1,,,,,ペルシンク,0
1721,8020002052732,登記記録の閉鎖等,0,2023-03-27,2023-03-20,有限会社サンセール商会,,有限会社,神奈川県,横浜市中区,かもめ町４番地,,14,104,2310813,,,2023-03-20,清算の結了等,,,2015-10-05,1,,,,,サンセールショウカイ,0
1722,8020002097835,登記記録の閉鎖等,0,2023-03-27,2023-03-22,太陽ビル有限会社,,有限会社,神奈川県,川崎市川崎区,東門前３丁目１１番１９号,,14,131,2100812,,,2023-03-22,清算の結了等,,,2015-10-05,1,,,,,タイヨウビル,0
1763,8060002011932,登記記録の閉鎖等,0,2023-03-27,2023-03-22,有限会社マロニエ技術研究所,,有限会社,栃木県,宇都宮市,平松本町４３８－８,,09,201,3210932,,,2023-03-22,清算の結了等,,,2015-10-05,1,,,,,マロニエギジュツケンキュウジョ,0
1793,8120005012120,登記記録の閉鎖等,0,2023-03-27,2023-03-23,特定非営利活動法人美術の教室,,その他の設立登記法人,大阪府,大阪市城東区,中央１丁目８番２号,,27,118,5360005,,,2023-03-23,清算の結了等,,,2015-10-05,1,,,,,ビジュツノキョウシツ,0
1807,8140005022290,登記記録の閉鎖等,0,2023-03-27,2023-03-22,特定非営利活動法人博美社,,その他の設立登記法人,兵庫県,神戸市中央区,布引町４丁目３番１１号ＨＫビル４０１号,,28,110,6510097,,,2023-03-22,清算の結了等,,,2015-10-05,1,,,,,ハクビシャ,0
1819,8190002000732,登記記録の閉鎖等,0,2023-03-27,2023-03-23,有限会社下津建設,,有限会社,三重県,津市,新東町塔世１１７番地,,24,201,5140026,,,2023-03-23,清算の結了等,,,2015-10-05,1,,,,,シモヅケンセツ,0
1837,8320002021228,登記記録の閉鎖等,0,2023-03-27,2023-03-22,矢頭土木有限会社,,有限会社,大分県,中津市,大字福島２２９５番地の２,,44,203,8790112,,,2023-03-22,清算の結了等,,,2015-10-05,1,,,,,ヤズドボク,0
1850,8360001024095,登記記録の閉鎖等,0,2023-03-27,2023-03-03,ＢＡＩＢ株式会社,,株式会社,沖縄県,島尻郡南風原町,字津嘉山１１０３番地１,,47,350,9011117,,,2023-03-03,合併による解散等,3360001005249,令和５年２月１日沖縄県島尻郡八重瀬町字外間１６９番地の１株式会社ラッキー自動車商会（3360001005249）に合併し解散,2018-06-06,1,,,,,ビーアイビー,0
1893,9010401135360,登記記録の閉鎖等,0,2023-03-27,2023-03-14,株式会社Ｂａ－ＢａＬ　ＷＩＤＥ,,株式会社,東京都,港区,南青山２丁目２－１５ＷｉｎＡｏｙａｍａビル－ＵＣＦ９１７,,13,103,1070062,,,2023-03-14,清算の結了等,,,2017-12-07,1,,,,,バーバルワイド,0
1901,9010501009200,登記記録の閉鎖等,0,2023-03-27,2023-03-17,株式会社東京ワーク,,株式会社,東京都,台東区,寿３丁目１７番７号,,13,106,1110042,,,2023-03-17,清算の結了等,,,2015-10-05,1,,,,,,0
1915,9011001047566,登記記録の閉鎖等,0,2023-03-27,2023-03-22,株式会社スタジオイストリア,,株式会社,東京都,新宿区,新宿６丁目２７番３０号,,13,104,1600022,,,2023-03-22,清算の結了等,,,2015-10-05,1,,,,,スタジオイストリア,0
1934,9011402009504,登記記録の閉鎖等,0,2023-03-27,2023-03-23,有限会社和栄自動車,,有限会社,東京都,板橋区,富士見町２７番８号,,13,119,1740062,,,2023-03-23,清算の結了等,,,2015-10-05,1,,,,,ワエイジドウシャ,0
1964,9021002040973,登記記録の閉鎖等,0,2023-03-27,2023-03-20,有限会社坂元塗装店,,有限会社,神奈川県,大和市,西鶴間６丁目２８番５号,,14,213,2420005,,,2023-03-20,清算の結了等,,,2015-10-05,1,,,,,サカモトトソウテン,0
1970,9030002041460,登記記録の閉鎖等,0,2023-03-27,2023-03-15,有限会社マヨリスタ農産,,有限会社,埼玉県,加須市,下谷８５９番地,,11,210,3470053,,,2023-03-15,清算の結了等,,,2015-10-05,1,,,,,マヨリスタノウサン,0
1976,9050001044264,登記記録の閉鎖等,0,2023-03-27,2023-03-20,株式会社ＡＢＣ１２３,,株式会社,茨城県,坂東市,寺久１２９８番地３８,,08,228,3060656,,,2023-03-20,清算の結了等,,,2018-04-12,1,,,,,エービーシーワンツースリー,0
1980,9060001013318,登記記録の閉鎖等,0,2023-03-27,2023-03-22,株式会社飯嶋商会,,株式会社,栃木県,矢板市,扇町１丁目４番２３号,,09,211,3292161,,,2023-03-22,清算の結了等,,,2015-10-05,1,,,,,イイジマショウカイ,0
1981,9060001023812,登記記録の閉鎖等,0,2023-03-27,2023-03-22,Ｔ・ＧＯＯＤ株式会社,,株式会社,栃木県,那須塩原市,黒磯字白崖６５２番地１７,,09,213,3250017,,,2023-03-22,清算の結了等,,,2015-10-05,1,,,,,,0
2021,9130001025487,登記記録の閉鎖等,0,2023-03-27,2023-03-14,西日本開発株式会社,,株式会社,京都府,京都市中京区,壬生賀陽御所町３番地３－１０４,,26,104,6048811,,,2023-03-14,清算の結了等,,,2015-10-05,1,,,,,ニシニホンカイハツ,0
2024,9130002000506,登記記録の閉鎖等,0,2023-03-27,2023-03-23,有限会社キヨウトビサス,,有限会社,京都府,京都市右京区,花園内畑町３０番地,,26,108,6168045,,,2023-03-23,清算の結了等,,,2015-10-05,1,,,,,キヨウトビサス,0
2025,9130002021221,登記記録の閉鎖等,0,2023-03-27,2023-03-23,有限会社アドアイ,,有限会社,京都府,京都市右京区,西院清水町１４１番地,,26,108,6150052,,,2023-03-23,清算の結了等,,,2015-10-05,1,,,,,アドアイ,0
2028,9150003000032,登記記録の閉鎖等,0,2023-03-27,2023-03-16,合資会社林事務所,,合資会社,奈良県,奈良市,富雄元町１丁目１５番１１号,,29,201,6310078,,,2023-03-16,清算の結了等,,,2015-10-05,1,,,,,ハヤシジムショ,0
2058,9290001089236,登記記録の閉鎖等,0,2023-03-27,2023-03-24,美晶水産株式会社,,株式会社,福岡県,福岡市中央区,天神１丁目９番１７号,,40,133,8100001,,,2023-03-24,清算の結了等,,,2020-06-24,1,,,,,ミショウスイサン,0
2074,9350003002677,登記記録の閉鎖等,0,2023-03-27,2023-03-14,合同会社Ｅｎｅｒｇｙ　Ｇａｔｅｗａｙ　Ｎｏ２,,合同会社,東京都,港区,元赤坂１丁目２番７号赤坂Ｋタワー,,13,103,1070051,,,2023-03-14,清算の結了等,,,2016-03-29,1,,,,,エネルギーゲートウェイナンバーツー,0
2109,9490005001886,登記記録の閉鎖等,0,2023-03-27,2023-03-24,医療法人仁井田,,その他の設立登記法人,高知県,高知市,仁井田６８３番地８,,39,201,7810112,,,2023-03-24,清算の結了等,,,2015-10-05,1,,,,,ニイダ,0
