sequenceNumber,corporateNumber,process,correct,updateDate,changeDate,name,nameImageId,kind,prefectureName,cityName,streetNumber,addressImageId,prefectureCode,cityCode,postCode,addressOutside,addressOutsideImageId,closeDate,closeCause,successorCorporateNumber,changeCause,assignmentDate,latest,enName,enPrefectureName,enCityName,enAddressOutside,furigana,hihyoji
17,1010401022021,登記記録の閉鎖等,0,2026-01-09,2025-12-12,株式会社ニューライフスポーツ,,株式会社,東京都,港区,南青山５丁目９番１２号,,13,103,1070062,,,2025-12-12,清算の結了等,,,2015-10-05,1,,,,,ニューライフスポーツ,0
20,1010401074046,登記記録の閉鎖等,0,2026-01-09,2025-12-15,株式会社Ｕｂｕｄ,,株式会社,東京都,港区,浜松町２丁目８番６号,,13,103,1050013,,,2025-12-15,清算の結了等,,,2015-10-05,1,,,,,,0
32,1010403028446,登記記録の閉鎖等,0,2026-01-09,2025-12-15,合同会社ＳＭＨ　Ｄｅｖｅｌｏｐｍｅｎｔ,,合同会社,東京都,港区,南青山３丁目１７番３号,,13,103,1070062,,,2025-12-15,清算の結了等,,,2022-09-12,1,,,,,エスエムエイチデベロップメント,0
49,1010701006137,登記記録の閉鎖等,0,2026-01-09,2026-01-05,株式会社ティー・アンド・ピー,,株式会社,東京都,品川区,東大井５丁目２２番５号,,13,109,1400011,,,2026-01-05,合併による解散等,9010001043154,令和８年１月１日東京都品川区東大井五丁目２２番５号三愛リテールサービス株式会社（9010001043154）に合併し解散,2015-10-05,1,,,,,ティーアンドピー,0
53,1010901024467,登記記録の閉鎖等,0,2026-01-09,2026-01-05,株式会社キャンディ,,株式会社,神奈川県,横浜市西区,北幸２丁目１０番４８号むつみビル３Ｆ,,14,103,2200004,,,2026-01-05,清算の結了等,,,2015-10-05,1,,,,,キャンディ,0
77,1011102002782,登記記録の閉鎖等,0,2026-01-09,2025-12-09,有限会社オフィス・ティー,,有限会社,東京都,新宿区,市谷薬王寺町１０番１０号,,13,104,1620063,,,2025-12-09,清算の結了等,,,2015-10-05,1,,,,,オフィスティー,0
80,1011302011740,登記記録の閉鎖等,0,2026-01-09,2025-12-25,有限会社デイインテリアワークス,,有限会社,東京都,杉並区,永福２丁目１６番１６号,,13,115,1680064,,,2025-12-25,清算の結了等,,,2015-10-05,1,,,,,デイインテリアワークス,0
84,1011501007192,登記記録の閉鎖等,0,2026-01-09,2026-01-05,株式会社ゼスト,,株式会社,東京都,荒川区,荒川８丁目２４番１－１３０１号,,13,118,1160002,,,2026-01-05,清算の結了等,,,2015-10-05,1,,,,,ゼスト,0
89,1011801008122,登記記録の閉鎖等,0,2026-01-09,2026-01-05,株式会社ササキビルド,,株式会社,東京都,足立区,西伊興３丁目１８番２３号,,13,121,1210824,,,2026-01-05,清算の結了等,,,2015-10-05,1,,,,,ササキビルド,0
93,1011802001885,登記記録の閉鎖等,0,2026-01-09,2026-01-05,有限会社カドヤ,,有限会社,東京都,葛飾区,堀切３丁目２番１５号,,13,122,1240006,,,2026-01-05,清算の結了等,,,2015-10-05,1,,,,,カドヤ,0
102,1012402007546,登記記録の閉鎖等,0,2026-01-09,2025-12-24,有限会社エム・キャラット,,有限会社,東京都,杉並区,西荻北４丁目３８番３７号,,13,115,1670042,,,2025-12-24,清算の結了等,,,2015-10-05,1,,,,,エムキャラット,0
118,1020002109258,登記記録の閉鎖等,0,2026-01-09,2026-01-05,有限会社こがねや,,有限会社,神奈川県,横浜市西区,西戸部一丁目２９番地,,14,103,2200000,,,2026-01-05,清算の結了等,,,2025-10-30,1,,,,,コガネヤ,0
122,1030001044975,登記記録の閉鎖等,0,2026-01-09,2025-12-26,永峯寝具株式会社,,株式会社,埼玉県,朝霞市,幸町１丁目１番１号,,11,227,3510015,,,2025-12-26,清算の結了等,,,2015-10-05,1,,,,,ナガミネシング,0
137,1050002002732,登記記録の閉鎖等,0,2026-01-09,2025-12-25,有限会社平良久屋運輸,,有限会社,茨城県,水戸市,酒門町３２９８番地の３,,08,201,3100841,,,2025-12-25,清算の結了等,,,2015-10-05,1,,,,,ヒラクヤウンユ,0
141,1060003004033,登記記録の閉鎖等,0,2026-01-09,2026-01-06,Ｗｏｒｅｍ合同会社,,合同会社,栃木県,宇都宮市,雀の宮２丁目７番１３号チサンマンション３０４,,09,201,3210132,,,2026-01-06,清算の結了等,,,2022-04-15,1,,,,,ウォーレム,0
146,1080401003246,登記記録の閉鎖等,0,2026-01-09,2025-12-25,株式会社釣具センター山内,,株式会社,静岡県,浜松市中央区,池町２２１番地の１０,,22,138,4300945,,,2025-12-25,清算の結了等,,,2015-10-05,1,,,,,ツリグセンターヤマウチ,0
151,1110001020035,登記記録の閉鎖等,0,2026-01-09,2025-12-24,株式会社桑原エステート,,株式会社,新潟県,上越市,大字上中田２５１番地１３,,15,222,9430884,,,2025-12-24,清算の結了等,,,2015-10-05,1,,,,,クワバラエステート,0
158,1120001188631,登記記録の閉鎖等,0,2026-01-09,2026-01-05,株式会社ファウスト,,株式会社,大阪府,大阪市天王寺区,玉造元町１０番４号,,27,109,5430014,,,2026-01-05,合併による解散等,2180001119893,令和８年１月１日大阪市天王寺区石ケ辻町１６番１８号９０３株式会社Ｎｅｘｔ（2180001119893）に合併し解散,2015-10-05,1,,,,,ファウスト,0
159,1120001195479,登記記録の閉鎖等,0,2026-01-09,2026-01-05,株式会社ＣＳプランニング,,株式会社,大阪府,寝屋川市,黒原新町２番８号,,27,215,5720059,,,2026-01-05,清算の結了等,,,2016-01-07,1,,,,,シーエスプランニング,0
160,1120001196452,登記記録の閉鎖等,0,2026-01-09,2026-01-05,株式会社ユウ翔,,株式会社,大阪府,大阪市東淀川区,豊新１丁目１３番１０号,,27,114,5330014,,,2026-01-05,清算の結了等,,,2016-02-23,1,,,,,,0
188,1140001014281,登記記録の閉鎖等,0,2026-01-09,2026-01-06,株式会社水島酸素商会,,株式会社,兵庫県,神戸市兵庫区,高松町２番２８号,,28,105,6520874,,,2026-01-06,合併による解散等,6120001142204,令和８年１月１日大阪市中央区南船場四丁目４番２１号エア・ウォーター西日本株式会社（6120001142204）に合併し解散,2015-10-05,1,,,,,ミズシマサンソショウカイ,0
190,1140001106079,登記記録の閉鎖等,0,2026-01-09,2026-01-07,株式会社ＮＳフォスター,,株式会社,兵庫県,神戸市中央区,磯辺通１丁目１番１８号,,28,110,6510084,,,2026-01-07,合併による解散等,6120001039326,令和８年１月１日大阪市浪速区大国二丁目１番１９号株式会社ナニワシステム（6120001039326）に合併し解散,2017-05-11,1,,,,,エヌエスフォスター,0
196,1140002062750,登記記録の閉鎖等,0,2026-01-09,2025-12-26,有限会社グリーンルミナス,,有限会社,兵庫県,小野市,黒川町５２６番地の１,,28,218,6751371,,,2025-12-26,清算の結了等,,,2015-10-05,1,,,,,グリーンルミナス,0
210,1180001072920,登記記録の閉鎖等,0,2026-01-09,2026-01-06,株式会社マーケティングリンク,,株式会社,愛知県,名古屋市中区,金山１丁目２番４号,,23,106,4600022,,,2026-01-06,清算の結了等,,,2015-10-05,1,,,,,マーケティングリンク,0
220,1180002002967,登記記録の閉鎖等,0,2026-01-09,2026-01-05,有限会社オフィス・アドミー,,有限会社,愛知県,名古屋市千種区,星が丘元町１５番１４号,,23,101,4640802,,,2026-01-05,清算の結了等,,,2015-10-05,1,,,,,オフィスアドミー,0
231,1200005006203,登記記録の閉鎖等,0,2026-01-09,2025-12-26,光明寺,,その他の設立登記法人,岐阜県,揖斐郡大野町,大字大野３６５番地の２,,21,403,5010513,,,2025-12-26,清算の結了等,,,2015-10-05,1,,,,,コウミョウジ,0
233,1210002001503,登記記録の閉鎖等,0,2026-01-09,2026-01-05,サノ土建有限会社,,有限会社,福井県,福井市,上森田３丁目１３０３番地１,,18,201,9100142,,,2026-01-05,清算の結了等,,,2015-10-05,1,,,,,サノドケン,0
236,1230001016649,登記記録の閉鎖等,0,2026-01-09,2026-01-06,株式会社コーポレートパートナー,,株式会社,富山県,射水市,戸破２２１１番地の８,,16,211,9390351,,,2026-01-06,清算の結了等,,,2016-09-28,1,,,,,コーポレートパートナー,0
237,1240001024436,登記記録の閉鎖等,0,2026-01-09,2026-01-05,サンテックス株式会社,,株式会社,広島県,三次市,三次町１６３５番地の１２,,34,209,7280021,,,2026-01-05,合併による解散等,5240001031809,令和８年１月１日広島県福山市川口町一丁目７番３号広建コンサルタンツ株式会社（5240001031809）に合併し解散,2015-10-05,1,,,,,サンテックス,0
238,1240001032380,登記記録の閉鎖等,0,2026-01-09,2026-01-05,エムライン株式会社,,株式会社,広島県,福山市,川口町１丁目７番３号,,34,207,7200822,,,2026-01-05,合併による解散等,5240001031809,令和８年１月１日広島県福山市川口町一丁目７番３号広建コンサルタンツ株式会社（5240001031809）に合併し解散,2015-10-05,1,,,,,エムライン,0
241,1240002047155,登記記録の閉鎖等,0,2026-01-09,2025-12-26,有限会社サラダコーポレーション,,有限会社,広島県,府中市,鵜飼町５９４番地の１０,,34,208,7260002,,,2025-12-26,清算の結了等,,,2015-10-05,1,,,,,サラダコーポレーション,0
248,1260005003681,登記記録の閉鎖等,0,2026-01-09,2025-12-26,医療法人はやしま歯科,,その他の設立登記法人,岡山県,都窪郡早島町,早島２３０６番地の４,,33,423,7010304,,,2025-12-26,清算の結了等,,,2015-10-05,1,,,,,ハヤシマシカ,0
257,1290801001530,登記記録の閉鎖等,0,2026-01-09,2025-12-23,株式会社西海,,株式会社,福岡県,北九州市小倉北区,西港町９４番地１６,,40,106,8030801,,,2025-12-23,清算の結了等,,,2015-10-05,1,,,,,ニシカイ,0
264,1310002012498,登記記録の閉鎖等,0,2026-01-09,2026-01-07,有限会社ブティックあき,,有限会社,長崎県,東彼杵郡波佐見町,折敷瀬郷１４５９番地,,42,323,8593701,,,2026-01-07,清算の結了等,,,2015-10-05,1,,,,,ブティックアキ,0
265,1320001008769,登記記録の閉鎖等,0,2026-01-09,2025-12-26,国東時間株式会社,,株式会社,大分県,国東市,安岐町富清３２０９番地２,,44,214,8730355,,,2025-12-26,清算の結了等,,,2015-10-05,1,,,,,クニサキジカン,0
267,1320001011657,登記記録の閉鎖等,0,2026-01-09,2025-12-26,ホオリイ株式会社,,株式会社,大分県,大分市,錦町３丁目２番１号,,44,201,8700024,,,2025-12-26,清算の結了等,,,2015-10-05,1,,,,,ホオリイ,0
306,1460001006049,登記記録の閉鎖等,0,2026-01-09,2026-01-05,株式会社拓洋不動産,,株式会社,北海道,釧路市,春採２丁目７番５号小松清四方,,01,206,0850813,,,2026-01-05,清算の結了等,,,2025-12-04,1,,,,,タクヨウフドウサン,0
315,2010001175474,登記記録の閉鎖等,0,2026-01-09,2025-12-15,スイフト・サポート株式会社,,株式会社,東京都,中央区,日本橋兜町５番１号兜町第１平和ビル７階,,13,102,1030026,,,2025-12-15,清算の結了等,,,2016-05-11,1,,,,,スイフトサポート,0
324,2010005035360,登記記録の閉鎖等,0,2026-01-09,2026-01-05,一般社団法人シオシオ,,その他の設立登記法人,東京都,千代田区,丸の内１丁目４番１号東京共同会計事務所内,,13,101,1000005,,,2026-01-05,清算の結了等,,,2022-07-29,1,,,,,シオシオ,0
345,2010405014071,登記記録の閉鎖等,0,2026-01-09,2025-12-15,ＡＰ　ＪＮＭＴ特定目的会社,,その他の設立登記法人,東京都,港区,虎ノ門３丁目２２番１０－２０１号,,13,103,1050001,,,2025-12-15,清算の結了等,,,2015-10-05,1,,,,,エーピージェイエヌエムティー,0
381,2011502011481,登記記録の閉鎖等,0,2026-01-09,2025-12-26,明和運送有限会社,,有限会社,東京都,荒川区,南千住３丁目２６番５号,,13,118,1160003,,,2025-12-26,清算の結了等,,,2015-10-05,1,,,,,メイワウンソウ,0
390,2011802013731,登記記録の閉鎖等,0,2026-01-09,2026-01-05,有限会社鹿浜電設,,有限会社,東京都,足立区,鹿浜２丁目８番６号,,13,121,1230864,,,2026-01-05,清算の結了等,,,2015-10-05,1,,,,,シカハマデンセツ,0
407,2020002062654,登記記録の閉鎖等,0,2026-01-09,2025-12-18,有限会社ファーイーストコネクション,,有限会社,神奈川県,横浜市神奈川区,白幡上町１番１号,,14,102,2210075,,,2025-12-18,清算の結了等,,,2015-10-05,1,,,,,ファーイーストコネクション,0
414,2030001164599,登記記録の閉鎖等,0,2026-01-09,2025-12-26,株式会社ＦｕｔｕｒｅＰａｔｈ,,株式会社,埼玉県,三郷市,谷中１３番地,,11,237,3410032,,,2025-12-26,清算の結了等,,,2025-01-29,1,,,,,フューチャーパス,0
429,2060002032694,登記記録の閉鎖等,0,2026-01-09,2026-01-07,株式会社片柳商店,,株式会社,栃木県,栃木市,片柳町１丁目１６番１４号,,09,203,3280053,,,2026-01-07,清算の結了等,,,2015-10-05,1,,,,,カタヤナギショウテン,0
433,2080001023445,登記記録の閉鎖等,0,2026-01-09,2026-01-05,株式会社ＯＤホールディングス,,株式会社,静岡県,静岡市清水区,有東坂２丁目３３８番地の３,,22,103,4240873,,,2026-01-05,合併による解散等,8080001008548,令和８年１月１日静岡市清水区押切８１１番地株式会社ＯＤホールディングス（8080001008548）に合併し解散,2020-03-12,1,,,,,オーディーホールディングス,0
445,2110002030635,登記記録の閉鎖等,0,2026-01-09,2025-12-26,有限会社丸相建設,,有限会社,新潟県,長岡市,小国町太郎丸６２４番地２,,15,202,9495335,,,2025-12-26,清算の結了等,,,2015-10-05,1,,,,,マルアイケンセツ,0
452,2120001270231,登記記録の閉鎖等,0,2026-01-09,2026-01-05,明燈株式会社,,株式会社,大阪府,大阪市都島区,東野田町４丁目１－５吉升ビル３０３室,,27,102,5340024,,,2026-01-05,清算の結了等,,,2024-11-14,1,,,,,メイトウ,0
457,2120002025213,登記記録の閉鎖等,0,2026-01-09,2025-12-26,有限会社相佳設備,,有限会社,大阪府,大阪市淀川区,木川西１丁目４番１７号,,27,123,5320013,,,2025-12-26,清算の結了等,,,2015-10-05,1,,,,,アイカセツビ,0
468,2120901039239,登記記録の閉鎖等,0,2026-01-09,2026-01-06,株式会社ＨＭホーム,,株式会社,大阪府,茨木市,田中町１０番７号,,27,211,5670025,,,2026-01-06,清算の結了等,,,2017-11-22,1,,,,,エッチエムホーム,0
495,2180001087034,登記記録の閉鎖等,0,2026-01-09,2026-01-07,株式会社ネオメディカ,,株式会社,愛知県,稲沢市,日下部東町２丁目１２９番地１,,23,220,4928177,,,2026-01-07,清算の結了等,,,2015-10-05,1,,,,,ネオメディカ,0
496,2180001090566,登記記録の閉鎖等,0,2026-01-09,2026-01-05,アンフィニネットワーク株式会社,,株式会社,愛知県,名古屋市港区,正徳町５丁目６番地,,23,111,4550075,,,2026-01-05,清算の結了等,,,2015-10-05,1,,,,,アンフィニネットワーク,0
499,2180002028128,登記記録の閉鎖等,0,2026-01-09,2026-01-06,有限会社太閤工業,,有限会社,愛知県,名古屋市中村区,太閤５丁目２番８号の１,,23,105,4530801,,,2026-01-06,清算の結了等,,,2015-10-05,1,,,,,タイコウコウギョウ,0
507,2180302013630,登記記録の閉鎖等,0,2026-01-09,2025-12-25,有限会社外山金型,,有限会社,愛知県,豊川市,住吉町２丁目２７番地,,23,207,4420819,,,2025-12-25,清算の結了等,,,2015-10-05,1,,,,,トヤマカナガタ,0
512,2190002013707,登記記録の閉鎖等,0,2026-01-09,2025-12-25,有限会社角屋材木店,,有限会社,三重県,松阪市,西之庄町１１０番地,,24,204,5150816,,,2025-12-25,清算の結了等,,,2015-10-05,1,,,,,カドヤザイモクテン,0
513,2190005011360,登記記録の閉鎖等,0,2026-01-09,2025-12-23,特定非営利活動法人輝龍,,その他の設立登記法人,三重県,三重郡菰野町,大字杉谷字岡７０番地,,24,341,5101326,,,2025-12-23,清算の結了等,,,2019-09-26,1,,,,,キリュウ,0
526,2250001013528,登記記録の閉鎖等,0,2026-01-09,2026-01-05,株式会社ｍｉｎｎａ,,株式会社,山口県,周南市,銀南街４番地徳山銀南街ビル１階,,35,215,7450031,,,2026-01-05,合併による解散等,6250001009200,令和８年１月１日山口県周南市銀座一丁目２番地株式会社オーパス（6250001009200）に合併し解散,2015-10-05,1,,,,,ミナ,0
546,2330001030721,登記記録の閉鎖等,0,2026-01-09,2025-12-26,株式会社スカイ,,株式会社,熊本県,熊本市中央区,帯山２丁目１４番５５号ラフィーネ帯山４０６号,,43,101,8620924,,,2025-12-26,清算の結了等,,,2023-04-05,1,,,,,スカイ,0
547,2330003006736,登記記録の閉鎖等,0,2026-01-09,2025-12-24,オフィスエフ・エム合同会社,,合同会社,熊本県,熊本市中央区,水前寺１丁目１番１６号フェリーチェ新水前寺８０５号,,43,101,8620950,,,2025-12-24,清算の結了等,,,2016-06-22,1,,,,,オフィスエフエム,0
556,2370602001299,登記記録の閉鎖等,0,2026-01-09,2025-12-24,有限会社テイク歯研,,有限会社,宮城県,宮城郡利府町,花園１丁目２４番地の４,,04,406,9810132,,,2025-12-24,清算の結了等,,,2015-10-05,1,,,,,テイクシケン,0
564,2430001016355,登記記録の閉鎖等,0,2026-01-09,2026-01-08,株式会社ミカミ塗工部,,株式会社,北海道,札幌市北区,新川二条３丁目２番５号,,01,102,0010922,,,2026-01-08,清算の結了等,,,2015-10-05,1,,,,,,0
573,2440003001263,登記記録の閉鎖等,0,2026-01-09,2025-12-26,合同会社ＷＥＳＴ　ＲＩＶＥＲ,,合同会社,北海道,松前郡福島町,字福島２０５番地,,01,332,0491312,,,2025-12-26,清算の結了等,,,2019-04-12,1,,,,,ウエストリバー,0
584,3010001154782,登記記録の閉鎖等,0,2026-01-09,2025-12-23,株式会社米一,,株式会社,東京都,江東区,豊洲１丁目２番２７－１１３号,,13,108,1350061,,,2025-12-23,清算の結了等,,,2015-10-05,1,,,,,コメイチ,0
597,3010401021871,登記記録の閉鎖等,0,2026-01-09,2025-11-27,日洋航空株式会社,,株式会社,東京都,港区,南青山６丁目１３番２号,,13,103,1070062,,,2025-11-27,清算の結了等,,,2015-10-05,1,,,,,ニチヨウコウクウ,0
610,3010701031447,登記記録の閉鎖等,0,2026-01-09,2025-12-15,チョットデキル株式会社,,株式会社,東京都,中央区,東日本橋２丁目２８番４号日本橋ＣＥＴビル２階,,13,102,1030004,,,2025-12-15,清算の結了等,,,2015-10-05,1,,,,,チョットデキル,0
616,3010901055460,登記記録の閉鎖等,0,2026-01-09,2026-01-05,新開商事株式会社,,株式会社,東京都,世田谷区,等々力８丁目２０番１１号,,13,112,1580082,,,2026-01-05,清算の結了等,,,2024-06-12,1,,,,,シンカイショウジ,0
619,3011001036772,登記記録の閉鎖等,0,2026-01-09,2025-12-12,インフィス株式会社,,株式会社,東京都,渋谷区,渋谷２丁目１２番１５号,,13,113,1500002,,,2025-12-12,清算の結了等,,,2015-10-05,1,,,,,インフィス,0
650,3011501028880,登記記録の閉鎖等,0,2026-01-09,2026-01-05,布瑞吉株式会社,,株式会社,東京都,荒川区,町屋３丁目２４番２号面川ビル２０８号室,,13,118,1160001,,,2026-01-05,清算の結了等,,,2023-01-19,1,,,,,フバキチ,0
654,3011602002735,登記記録の閉鎖等,0,2026-01-09,2026-01-05,有限会社亀井瑞泉堂,,有限会社,東京都,練馬区,栄町３６番１２号,,13,120,1760006,,,2026-01-05,清算の結了等,,,2015-10-05,1,,,,,カメイズイセンドウ,0
710,3080405004313,登記記録の閉鎖等,0,2026-01-09,2025-12-19,静岡経営支援協同組合,,その他の設立登記法人,静岡県,浜松市中央区,伝馬町３１３番地の２４伝馬町中央ビル７階,,22,138,4300935,,,2025-12-19,清算の結了等,,,2015-10-05,1,,,,,シズオカケイエイシエン,0
719,3120001021468,登記記録の閉鎖等,0,2026-01-09,2026-01-05,平野木材株式会社,,株式会社,大阪府,大阪市平野区,平野東１丁目９番５号,,27,126,5470043,,,2026-01-05,合併による解散等,5120002010724,令和８年１月１日大阪市平野区平野東一丁目９番１号株式会社エコーホーム（5120002010724）に合併し解散,2015-10-05,1,,,,,ヒラノモクザイ,0
726,3120001174340,登記記録の閉鎖等,0,2026-01-09,2025-12-11,株式会社高木商店,00019616,株式会社,千葉県,浦安市,鉄鋼通り３丁目５番２号,,12,227,2790025,,,2025-12-11,清算の結了等,,,2015-10-05,1,,,,,タカギショウテン,0
728,3120001200963,登記記録の閉鎖等,0,2026-01-09,2025-12-15,株式会社サジテール,,株式会社,東京都,中央区,日本橋富沢町３番１－１２０６号,,13,102,1030006,,,2025-12-15,合併による解散等,3120002047586,令和７年１２月１５日東京都中央区日本橋人形町二丁目１３番６号キトプランニングビル株式会社キトプランニング（3120002047586）に合併し解散,2016-10-03,1,,,,,サジテール,0
729,3120001202258,登記記録の閉鎖等,0,2026-01-09,2026-01-05,ａｓａｐ株式会社,,株式会社,大阪府,大阪市中央区,南船場４丁目１０番５号南船場ＳＯＨＯビル７０２,,27,128,5420081,,,2026-01-05,清算の結了等,,,2016-12-06,1,,,,,エーエスエーピー,0
751,3130002019163,登記記録の閉鎖等,0,2026-01-09,2026-01-05,有限会社キグコーポレーション,,有限会社,京都府,京都市上京区,仲御霊町７３番地,,26,102,6028283,,,2026-01-05,清算の結了等,,,2015-10-05,1,,,,,キグコーポレーション,0
759,3140005025414,登記記録の閉鎖等,0,2026-01-09,2025-12-26,非営利型一般社団法人あした会議,,その他の設立登記法人,兵庫県,赤穂郡上郡町,野桑１２９１番地２,,28,481,6781202,,,2025-12-26,清算の結了等,,,2020-12-15,1,,,,,ヒエイリガタアシタカイギ,0
780,3180002088360,登記記録の閉鎖等,0,2026-01-09,2026-01-06,有限会社ナガイ工業,,有限会社,愛知県,知多市,岡田字袖山７９番地,,23,224,4780021,,,2026-01-06,清算の結了等,,,2015-10-05,1,,,,,ナガイコウギョウ,0
789,3200005009609,登記記録の閉鎖等,0,2026-01-09,2026-01-05,特定非営利活動法人クオリティーオブライフひよこキッズファミリー,,その他の設立登記法人,岐阜県,中津川市,中一色町５番３４号,,21,206,5080003,,,2026-01-05,清算の結了等,,,2015-10-05,1,,,,,クオリティーオブライフヒヨコキッズファミリー,0
794,3240001050620,登記記録の閉鎖等,0,2026-01-09,2025-12-26,株式会社ＣＬパートナーズ,,株式会社,広島県,広島市中区,白島北町１０番１１号,,34,101,7300001,,,2025-12-26,清算の結了等,,,2017-02-09,1,,,,,シーエルパートナーズ,0
795,3240001051288,登記記録の閉鎖等,0,2026-01-09,2025-12-26,株式会社イナベ,,株式会社,広島県,広島市佐伯区,藤の木３丁目１３番２９号,,34,108,7315103,,,2025-12-26,清算の結了等,,,2017-06-19,1,,,,,イナベ,0
796,3240002038061,登記記録の閉鎖等,0,2026-01-09,2026-01-08,有限会社宮浜電設,,有限会社,広島県,廿日市市,八坂１丁目５番１０号,,34,213,7390455,,,2026-01-08,清算の結了等,,,2015-10-05,1,,,,,ミヤハマデンセツ,0
797,3240002042071,登記記録の閉鎖等,0,2026-01-09,2026-01-05,中西観光有限会社,,有限会社,岡山県,笠岡市,茂平１７８９番地１,,33,205,7140062,,,2026-01-05,清算の結了等,,,2015-10-05,1,,,,,ナカニシカンコウ,0
804,3290001084390,登記記録の閉鎖等,0,2026-01-09,2025-12-15,株式会社ヴァンテ・ユイット,,株式会社,福岡県,福岡市博多区,月隈６丁目２１番３３号,,40,132,8120858,,,2025-12-15,清算の結了等,,,2019-03-01,1,,,,,ヴァンテユイット,0
820,3360001019109,登記記録の閉鎖等,0,2026-01-09,2025-12-26,株式会社琉球プラン,,株式会社,沖縄県,那覇市,三原２丁目２１番２８号１階,,47,201,9020063,,,2025-12-26,清算の結了等,,,2015-10-05,1,,,,,リュウキュウプラン,0
822,3360002009364,登記記録の閉鎖等,0,2026-01-09,2025-12-26,有限会社マルミヤ産業,,有限会社,沖縄県,糸満市,西崎町３丁目１７番地,,47,210,9010306,,,2025-12-26,清算の結了等,,,2015-10-05,1,,,,,マルミヤサンギョウ,0
841,3450001007062,登記記録の閉鎖等,0,2026-01-09,2026-01-05,株式会社なかた,,株式会社,北海道,空知郡上富良野町,栄町３丁目２番４号,,01,460,0710544,,,2026-01-05,清算の結了等,,,2015-10-05,1,,,,,ナカタ,0
842,3450001008606,登記記録の閉鎖等,0,2026-01-09,2025-12-26,ＰＦＩヤム・ワッカ・ナイ株式会社,,株式会社,北海道,稚内市,潮見１丁目９番１５号,,01,214,0970002,,,2025-12-26,清算の結了等,,,2015-10-05,1,,,,,ピーエフアイヤムワッカナイ,0
852,4010001247825,登記記録の閉鎖等,0,2026-01-09,2026-01-06,ＡＢ５Ａ２４０３株式会社,,株式会社,東京都,千代田区,丸の内２丁目４番１号,,13,101,1000005,,,2026-01-06,合併による解散等,8120001230824,令和７年１２月２６日大阪市中央区本町二丁目３番８号株式会社キノシタ（8120001230824）に合併し解散,2024-08-28,1,,,,,エービーゴエーニヨンゼロサン,0
864,4010101013739,登記記録の閉鎖等,0,2026-01-09,2026-01-07,株式会社ビヨンドサイエンス,,株式会社,東京都,八王子市,三崎町四丁目１１番地トーネンビル５Ｆ－Ａ,,13,201,1920084,,,2026-01-07,清算の結了等,,,2019-06-03,1,,,,,,0
867,4010103000603,登記記録の閉鎖等,0,2026-01-09,2026-01-06,合同会社経営合宿研究所,,合同会社,東京都,八王子市,川町１２８番地１００,,13,201,1930821,,,2026-01-06,清算の結了等,,,2015-10-05,1,,,,,ケイエイガッシュクケンキュウジョ,0
914,4011101000925,登記記録の閉鎖等,0,2026-01-09,2025-12-25,株式会社アド・ストーク,,株式会社,埼玉県,朝霞市,本町２丁目１番７号,,11,227,3510011,,,2025-12-25,清算の結了等,,,2015-10-05,1,,,,,アドストーク,0
916,4011101099223,登記記録の閉鎖等,0,2026-01-09,2025-12-08,株式会社友成総建,,株式会社,東京都,新宿区,西新宿３丁目３番１３号西新宿水間ビル６階,,13,104,1600023,,,2025-12-08,清算の結了等,,,2022-06-14,1,,,,,ユウセイソウケン,0
919,4011201017233,登記記録の閉鎖等,0,2026-01-09,2025-12-26,株式会社イー・シー・エム,,株式会社,東京都,中野区,大和町２丁目４０番３号,,13,114,1650034,,,2025-12-26,清算の結了等,,,2015-10-05,1,,,,,イーシーエム,0
925,4011501008329,登記記録の閉鎖等,0,2026-01-09,2026-01-05,株式会社林野建設,,株式会社,東京都,荒川区,西尾久６丁目１８番４号,,13,118,1160011,,,2026-01-05,清算の結了等,,,2015-10-05,1,,,,,ハヤシノケンセツ,0
932,4011801036434,登記記録の閉鎖等,0,2026-01-09,2026-01-05,株式会社あおぞら企画,,株式会社,東京都,葛飾区,青戸７丁目９番６号,,13,122,1250062,,,2026-01-05,清算の結了等,,,2019-07-31,1,,,,,アオゾラキカク,0
949,4013303002600,登記記録の閉鎖等,0,2026-01-09,2025-12-18,株式会社Ａ　ｔｏ　Ｏｎｅ,,株式会社,東京都,渋谷区,桜丘町３１番１４号,,13,113,1500031,,,2025-12-18,合併による解散等,1011403002473,令和７年１２月１日東京都渋谷区桜丘町３１番１４号ウミガメ株式会社（1011403002473）に合併し解散,2015-10-05,1,,,,,エートゥーワン,0
962,4021001067568,登記記録の閉鎖等,0,2026-01-09,2026-01-05,東海トリムホールディングス株式会社,,株式会社,三重県,鈴鹿市,寺家町９８７番地の１,,24,207,5100253,,,2026-01-05,合併による解散等,2190001005218,令和８年１月１日三重県鈴鹿市寺家町９８７番地の１東海トリム株式会社（2190001005218）に合併し解散,2019-06-20,1,,,,,トウカイトリムホールディングス,0
964,4021002052560,登記記録の閉鎖等,0,2026-01-09,2025-12-15,有限会社藤栄宝飾,,有限会社,神奈川県,小田原市,栄町４丁目４番１７号,,14,206,2500011,,,2025-12-15,清算の結了等,,,2015-10-05,1,,,,,トウエイホウショク,0
976,4040001054814,登記記録の閉鎖等,0,2026-01-09,2025-12-15,北島産業株式会社,,株式会社,千葉県,市原市,海保６７１番地の１,,12,219,2900266,,,2025-12-15,清算の結了等,,,2015-10-05,1,,,,,キタジマサンギョウ,0
993,4060001027181,登記記録の閉鎖等,0,2026-01-09,2026-01-07,株式会社エヌ・オネスト,,株式会社,栃木県,宇都宮市,上戸祭町９４番地６８,,09,201,3200051,,,2026-01-07,清算の結了等,,,2015-10-05,1,,,,,エヌオネスト,0
1002,4110001021088,登記記録の閉鎖等,0,2026-01-09,2025-12-26,株式会社田代屋百貨店,,株式会社,新潟県,十日町市,上山己１５６４番地１,,15,210,9498401,,,2025-12-26,清算の結了等,,,2015-10-05,1,,,,,タシロヤヒャッカテン,0
1009,4120001208213,登記記録の閉鎖等,0,2026-01-09,2026-01-05,株式会社Ｎｅｘｔ,,株式会社,大阪府,大阪市中央区,南船場２丁目７番１１号,,27,128,5420081,,,2026-01-05,合併による解散等,2180001119893,令和８年１月１日大阪市天王寺区石ケ辻町１６番１８号９０３株式会社Ｎｅｘｔ（2180001119893）に合併し解散,2017-09-20,1,,,,,ネクスト,0
1028,4120101037966,登記記録の閉鎖等,0,2026-01-09,2026-01-05,株式会社井上商事,,株式会社,大阪府,貝塚市,脇浜１丁目１６番３６号,,27,208,5970073,,,2026-01-05,合併による解散等,1120101038117,令和８年１月１日大阪府貝塚市脇浜一丁目１６番３６号株式会社小西建設（1120101038117）に合併し解散,2015-10-05,1,,,,,イノウエショウジ,0
1040,4130001010023,登記記録の閉鎖等,0,2026-01-09,2026-01-05,井本住建株式会社,,株式会社,京都府,京都市南区,久世大藪町８番地の２２,,26,107,6010000,,,2026-01-05,清算の結了等,,,2015-10-05,1,,,,,イモトジュウケン,0
1042,4130001067567,登記記録の閉鎖等,0,2026-01-09,2026-01-05,黄桜興産株式会社,,株式会社,京都府,京都市伏見区,横大路下三栖梶原町５３番地,,26,109,6128242,,,2026-01-05,合併による解散等,8130001056979,令和８年１月１日京都市伏見区横大路下三栖梶原町５３番地司産業株式会社（8130001056979）に合併し解散,2020-09-09,1,,,,,キザクラコウサン,0
1044,4130002021044,登記記録の閉鎖等,0,2026-01-09,2026-01-05,有限会社トータルプラン・コシ,,有限会社,京都府,京都市上京区,仲御霊町７３番地,,26,102,6028283,,,2026-01-05,清算の結了等,,,2015-10-05,1,,,,,トータルプランコシ,0
1069,4180002059410,登記記録の閉鎖等,0,2026-01-09,2026-01-05,有限会社タクマ工務店,,有限会社,愛知県,名古屋市中川区,万場１丁目１４０７番地,,23,110,4540997,,,2026-01-05,清算の結了等,,,2015-10-05,1,,,,,タクマコウムテン,0
1071,4180005018157,登記記録の閉鎖等,0,2026-01-09,2026-01-05,農事組合法人あまファーム,,その他の設立登記法人,愛知県,あま市,七宝町桂北海道２０７０番地２,,23,237,4970004,,,2026-01-05,清算の結了等,,,2019-03-04,1,,,,,アマファーム,0
1078,4200003004461,登記記録の閉鎖等,0,2026-01-09,2025-12-26,合同会社カモケンラボ,,合同会社,岐阜県,美濃加茂市,蜂屋町中蜂屋１３２７番地,,21,211,5050005,,,2025-12-26,清算の結了等,,,2019-05-10,1,,,,,カモケンラボ,0
1086,4240001058555,登記記録の閉鎖等,0,2026-01-09,2026-01-08,株式会社アーツ,,株式会社,広島県,広島市西区,己斐上２丁目３７番２８号,,34,104,7330815,,,2026-01-08,清算の結了等,,,2021-09-02,1,,,,,アーツ,0
1116,4320005004266,登記記録の閉鎖等,0,2026-01-09,2025-12-26,農事組合法人八幡の里生産組合,,その他の設立登記法人,大分県,宇佐市,大字北宇佐１５４５番地の１,,44,211,8720103,,,2025-12-26,清算の結了等,,,2015-10-05,1,,,,,ハチマンノサトセイサンクミアイ,0
1135,4430001031609,登記記録の閉鎖等,0,2026-01-09,2025-12-26,株式会社北季香,,株式会社,北海道,札幌市北区,新琴似九条４丁目１番１８号,,01,102,0010909,,,2025-12-26,清算の結了等,,,2015-10-05,1,,,,,ホッキコウ,0
1151,5010001008202,登記記録の閉鎖等,0,2026-01-09,2025-12-15,吉田飼料株式会社,,株式会社,東京都,文京区,本郷５丁目３番１５号,,13,105,1130033,,,2025-12-15,清算の結了等,,,2015-10-05,1,,,,,ヨシダシリョウ,0
1153,5010001190875,登記記録の閉鎖等,0,2026-01-09,2026-01-07,ＪＲＣモビリティ株式会社,,株式会社,東京都,中央区,日本橋人形町２丁目３１番１１号,,13,102,1030013,,,2026-01-07,合併による解散等,3012401012867,令和８年１月１日東京都三鷹市牟礼六丁目２１番１１号日本無線株式会社（3012401012867）に合併し解散,2018-04-09,1,,,,,ジェイアールシーモビリティ,0
1211,5011103009823,登記記録の閉鎖等,0,2026-01-09,2025-12-24,非破壊検査機器合同会社,,合同会社,東京都,西東京市,南町６丁目６番１６－３１５号,,13,229,1880012,,,2025-12-24,清算の結了等,,,2020-07-07,1,,,,,ヒハカイケンサキキ,0
1216,5011402001472,登記記録の閉鎖等,0,2026-01-09,2026-01-05,有限会社エスケイエス,,有限会社,東京都,板橋区,志村１丁目１５番２０号,,13,119,1740056,,,2026-01-05,清算の結了等,,,2015-10-05,1,,,,,エスケイエス,0
1222,5011602011684,登記記録の閉鎖等,0,2026-01-09,2026-01-05,有限会社福井電子技研,,有限会社,東京都,練馬区,大泉学園町４丁目１１番１２号,,13,120,1780061,,,2026-01-05,清算の結了等,,,2015-10-05,1,,,,,フクイデンシギケン,0
1225,5011701026063,登記記録の閉鎖等,0,2026-01-09,2025-12-24,株式会社ＢｉｚＦｉｒｓｔ,,株式会社,東京都,江戸川区,西葛西２丁目２２番４５－２１１号,,13,123,1340088,,,2025-12-24,清算の結了等,,,2023-03-07,1,,,,,,0
1238,5020001121706,登記記録の閉鎖等,0,2026-01-09,2026-01-05,明石通商株式会社,,株式会社,神奈川県,横浜市青葉区,桜台６番地４４,,14,117,2270061,,,2026-01-05,清算の結了等,,,2017-06-14,1,,,,,アカシツウショウ,0
1261,5030005018897,登記記録の閉鎖等,0,2026-01-09,2025-12-25,サガルマータ事業協同組合,,その他の設立登記法人,埼玉県,日高市,高萩東１丁目２５番９号,,11,242,3501215,,,2025-12-25,清算の結了等,,,2018-03-12,1,,,,,サガルマータ,0
1262,5040001065125,登記記録の閉鎖等,0,2026-01-09,2025-12-15,株式会社旭工房,,株式会社,千葉県,柏市,日立台２丁目４番１６号,,12,217,2770083,,,2025-12-15,清算の結了等,,,2015-10-05,1,,,,,アサヒコウボウ,0
1267,5040002016259,登記記録の閉鎖等,0,2026-01-09,2025-12-12,有限会社ＪＨＭ渡辺工業,,有限会社,千葉県,千葉市中央区,宮崎町６８７番地８,,12,101,2600805,,,2025-12-12,清算の結了等,,,2015-10-05,1,,,,,ジェイエイチエムワタナベコウギョウ,0
1278,5070002013311,登記記録の閉鎖等,0,2026-01-09,2026-01-05,有限会社ＳＨＯ,,有限会社,群馬県,高崎市,連雀町５５番地１,,10,202,3700826,,,2026-01-05,清算の結了等,,,2015-10-05,1,,,,,ショー,0
1280,5080001016041,登記記録の閉鎖等,0,2026-01-09,2026-01-05,株式会社ブルーム,,株式会社,静岡県,焼津市,焼津５丁目１０番１８号,,22,212,4250026,,,2026-01-05,清算の結了等,,,2015-10-05,1,,,,,ブルーム,0
1282,5080101009143,登記記録の閉鎖等,0,2026-01-09,2026-01-05,キヤリアエンジニアリング株式会社,,株式会社,静岡県,富士市,蓼原３３６番地,,22,210,4160931,,,2026-01-05,清算の結了等,,,2015-10-05,1,,,,,キヤリアエンジニアリング,0
1294,5120001233235,登記記録の閉鎖等,0,2026-01-09,2026-01-05,株式会社ＳａＳａＲａ,,株式会社,大阪府,大阪市住吉区,長居東１丁目２６番１６－２０１号,,27,120,5580004,,,2026-01-05,清算の結了等,,,2020-11-19,1,,,,,ササラ,0
1314,5130001039607,登記記録の閉鎖等,0,2026-01-09,2026-01-05,ヘルツジャパン株式会社,,株式会社,京都府,京田辺市,薪畠９番地２４,,26,211,6100341,,,2026-01-05,清算の結了等,,,2015-10-05,1,,,,,,0
1316,5130001064423,登記記録の閉鎖等,0,2026-01-09,2026-01-05,ＤＩＧ　ＴＨＥ　ＬＩＮＥ株式会社,,株式会社,京都府,京都市左京区,浄土寺下馬場町４９番地,,26,103,6068413,,,2026-01-05,合併による解散等,1130001051862,令和８年１月５日京都市左京区浄土寺下馬場町４９番地株式会社酒八（1130001051862）に合併し解散,2019-05-09,1,,,,,ディグザライン,0
1318,5130003009839,登記記録の閉鎖等,0,2026-01-09,2026-01-05,合同会社ヤマト,,合同会社,京都府,宮津市,字中津２１０－１,,26,205,6260053,,,2026-01-05,清算の結了等,,,2024-09-17,1,,,,,ヤマト,0
1344,5180301016557,登記記録の閉鎖等,0,2026-01-09,2025-12-25,株式会社ヨコテツ,,株式会社,愛知県,高浜市,田戸町７丁目５番地３１,,23,227,4441323,,,2025-12-25,清算の結了等,,,2015-10-05,1,,,,,ヨコテツ,0
1345,5180301032645,登記記録の閉鎖等,0,2026-01-09,2025-12-26,株式会社新美電設,,株式会社,愛知県,西尾市,小島町寺内１番地３,,23,213,4450006,,,2025-12-26,清算の結了等,,,2019-06-05,1,,,,,ニイミデンセツ,0
1347,5180303006275,登記記録の閉鎖等,0,2026-01-09,2025-12-09,合同会社朝岡,,合同会社,愛知県,西尾市,丁田町上ノ切６３番地,,23,213,4450062,,,2025-12-09,清算の結了等,,,2024-10-01,1,,,,,アサオカ,0
1355,5200002022315,登記記録の閉鎖等,0,2026-01-09,2026-01-05,有限会社杉本新聞店,,有限会社,岐阜県,多治見市,笠原町２１７０番地の１,,21,204,5070901,,,2026-01-05,清算の結了等,,,2015-10-05,1,,,,,スギモトシンブンテン,0
1365,5260001014992,登記記録の閉鎖等,0,2026-01-09,2026-01-07,倉敷スクールタイガー縫製株式会社,,株式会社,岡山県,倉敷市,玉島勇崎１０９７番地の１７,,33,202,7138125,,,2026-01-07,清算の結了等,,,2015-10-05,1,,,,,,0
1366,5260002017235,登記記録の閉鎖等,0,2026-01-09,2026-01-05,有限会社小幡会計事務所,,有限会社,岡山県,倉敷市,玉島乙島６７７０番地の６,,33,202,7138103,,,2026-01-05,清算の結了等,,,2015-10-05,1,,,,,オバタカイケイジムショ,0
1378,5290002043336,登記記録の閉鎖等,0,2026-01-09,2025-12-19,有限会社朝倉運輸,,有限会社,福岡県,朝倉市,三奈木２４８１番地の５,,40,228,8380023,,,2025-12-19,清算の結了等,,,2015-10-05,1,,,,,アサクラウンユ,0
1382,5290801003721,登記記録の閉鎖等,0,2026-01-09,2026-01-05,株式会社もりかわ園,,株式会社,福岡県,北九州市小倉北区,金鶏町９番１８号,,40,106,8030843,,,2026-01-05,合併による解散等,1290801009433,令和８年１月１日北九州市八幡東区昭和一丁目７番２号マルイリ製茶株式会社（1290801009433）に合併し解散,2015-10-05,1,,,,,モリカワエン,0
1390,5320002001364,登記記録の閉鎖等,0,2026-01-09,2025-12-25,有限会社テックエノモト,,有限会社,大分県,大分市,大字猪野１７３番地の６,,44,201,8700134,,,2025-12-25,清算の結了等,,,2015-10-05,1,,,,,テックエノモト,0
1395,5340001013012,登記記録の閉鎖等,0,2026-01-09,2025-12-23,株式会社ファルマチアマリナ,,株式会社,鹿児島県,姶良市,加治木町木田７４７番地１,,46,225,8995241,,,2025-12-23,清算の結了等,,,2015-10-05,1,,,,,ファルマチアマリナ,0
1402,5360001028719,登記記録の閉鎖等,0,2026-01-09,2025-12-25,株式会社Ｐｉｓａｒａ　Ｒｅｖｉｖｅ,,株式会社,沖縄県,宮古島市,平良字下里２１６－１－２１０号室,,47,214,9060013,,,2025-12-25,清算の結了等,,,2021-05-10,1,,,,,ピサラリバイブ,0
1414,5420003001915,登記記録の閉鎖等,0,2026-01-09,2025-12-23,合同会社福津測量設計,,合同会社,青森県,上北郡おいらせ町,下明堂５８番地２,,02,412,0392224,,,2025-12-23,清算の結了等,,,2018-09-21,1,,,,,フクツソクリョウセッケイ,0
1421,5430003006335,登記記録の閉鎖等,0,2026-01-09,2025-12-26,デジファースト合同会社,,合同会社,北海道,札幌市南区,藤野四条５丁目９番４号,,01,106,0612284,,,2025-12-26,清算の結了等,,,2015-10-05,1,,,,,,0
1423,5450001005353,登記記録の閉鎖等,0,2026-01-09,2025-12-26,株式会社ダイメックス,,株式会社,北海道,旭川市,三条通９丁目５５１番地２,,01,204,0700033,,,2025-12-26,合併による解散等,3450001006205,令和７年１２月２６日北海道旭川市三条通九丁目５５１番地２株式会社ダイメックスフードサービス（3450001006205）に合併し解散,2015-10-05,1,,,,,ダイメックス,0
1478,6011101012118,登記記録の閉鎖等,0,2026-01-09,2025-12-09,株式会社太平総合研究所,,株式会社,東京都,新宿区,新小川町９番７号,,13,104,1620814,,,2025-12-09,清算の結了等,,,2015-10-05,1,,,,,タイヘイソウゴウケンキュウジョ,0
1482,6011102004221,登記記録の閉鎖等,0,2026-01-09,2025-12-09,有限会社ケイズカンパニー,,有限会社,東京都,新宿区,河田町６番２５,,13,104,1620054,,,2025-12-09,清算の結了等,,,2015-10-05,1,,,,,ケイズカンパニー,0
1495,6011501018623,登記記録の閉鎖等,0,2026-01-09,2026-01-05,株式会社マリスインターナショナル,,株式会社,東京都,北区,昭和町２丁目３番２－２０７号リーデンススクエア滝野川,,13,117,1140011,,,2026-01-05,清算の結了等,,,2015-10-05,1,,,,,マリスインターナショナル,0
1500,6011602008770,登記記録の閉鎖等,0,2026-01-09,2026-01-05,有限会社プラスワン企画,,有限会社,東京都,練馬区,貫井５丁目１６番１号,,13,120,1760021,,,2026-01-05,清算の結了等,,,2015-10-05,1,,,,,プラスワンキカク,0
1501,6011602009653,登記記録の閉鎖等,0,2026-01-09,2026-01-05,有限会社南野プロダクツ,,有限会社,東京都,練馬区,大泉学園町１丁目６番１０号,,13,120,1780061,,,2026-01-05,清算の結了等,,,2015-10-05,1,,,,,ミナミノプロダクツ,0
1509,6012401017211,登記記録の閉鎖等,0,2026-01-09,2026-01-05,株式会社レイズウェイ,,株式会社,東京都,調布市,国領町１丁目１３番地１０,,13,208,1820022,,,2026-01-05,清算の結了等,,,2015-10-05,1,,,,,レイズウェイ,0
1510,6012401022946,登記記録の閉鎖等,0,2026-01-09,2025-12-26,株式会社桶矢,,株式会社,東京都,国立市,西２丁目３番地の６６ガーデンコート国立２０１,,13,215,1860005,,,2025-12-26,清算の結了等,,,2015-10-05,1,,,,,オケヤ,0
1524,6013302021756,登記記録の閉鎖等,0,2026-01-09,2025-12-25,有限会社ジェレック,,有限会社,東京都,杉並区,上井草３丁目１９番４号,,13,115,1670023,,,2025-12-25,清算の結了等,,,2015-10-05,1,,,,,ジェレック,0
1557,6080401016111,登記記録の閉鎖等,0,2026-01-09,2025-12-25,大島建設株式会社,,株式会社,静岡県,磐田市,豊田２６５番地,,22,211,4380808,,,2025-12-25,清算の結了等,,,2015-10-05,1,,,,,オオシマケンセツ,0
1568,6120001049234,登記記録の閉鎖等,0,2026-01-09,2026-01-06,株式会社内海木型製作所,,株式会社,大阪府,大阪市西淀川区,佃２丁目１番２８号,,27,113,5550001,,,2026-01-06,清算の結了等,,,2015-10-05,1,,,,,ウツミキガタセイサクショ,0
1570,6120001133343,登記記録の閉鎖等,0,2026-01-09,2026-01-05,株式会社ミタカ,,株式会社,大阪府,大阪市西区,江之子島１丁目８番１７号,,27,106,5500006,,,2026-01-05,清算の結了等,,,2015-10-05,1,,,,,ミタカ,0
1610,6140002031338,登記記録の閉鎖等,0,2026-01-09,2026-01-05,有限会社岡崎ローディングサービス,,有限会社,兵庫県,神戸市西区,室谷１丁目２番地４,,28,111,6512241,,,2026-01-05,合併による解散等,2140001006682,令和８年１月１日神戸市中央区御幸通三丁目１番３号株式会社岡崎製作所（2140001006682）に合併し解散,2015-10-05,1,,,,,オカザキローディングサービス,0
1617,6150005009710,登記記録の閉鎖等,0,2026-01-09,2026-01-05,一般社団法人みらいの杜,,その他の設立登記法人,奈良県,橿原市,木原町６５番地の１,,29,205,6340004,,,2026-01-05,清算の結了等,,,2025-07-09,1,,,,,ミライノモリ,0
1619,6170001011478,登記記録の閉鎖等,0,2026-01-09,2026-01-06,新宮酸素株式会社,,株式会社,和歌山県,新宮市,鴻田２丁目３番１５号,,30,207,6470082,,,2026-01-06,合併による解散等,6120001142204,令和８年１月１日大阪市中央区南船場四丁目４番２１号エア・ウォーター西日本株式会社（6120001142204）に合併し解散,2015-10-05,1,,,,,シングウサンソ,0
1622,6180001076470,登記記録の閉鎖等,0,2026-01-09,2026-01-05,株式会社マツダ,,株式会社,愛知県,小牧市,小針２丁目１６７番地,,23,219,4850037,,,2026-01-05,清算の結了等,,,2015-10-05,1,,,,,マツダ,0
1639,6200005009011,登記記録の閉鎖等,0,2026-01-09,2025-12-26,常楽寺,,その他の設立登記法人,岐阜県,中津川市,駒場１６５３番地,,21,206,5080011,,,2025-12-26,清算の結了等,,,2015-10-05,1,,,,,ジョウラクジ,0
1650,6220001004476,登記記録の閉鎖等,0,2026-01-09,2025-12-26,株式会社土井,,株式会社,石川県,金沢市,入江２丁目１８０番地,,17,201,9218011,,,2025-12-26,清算の結了等,,,2015-10-05,1,,,,,,0
1652,6230005004406,登記記録の閉鎖等,0,2026-01-09,2026-01-05,滑川商店連合協同組合,,その他の設立登記法人,富山県,滑川市,田中町１３２番地,,16,206,9360057,,,2026-01-05,清算の結了等,,,2015-10-05,1,,,,,ナメリカワショウテンレンゴウ,0
1660,6250001009191,登記記録の閉鎖等,0,2026-01-09,2026-01-05,株式会社ヒゴヤ総業,,株式会社,山口県,周南市,銀座１丁目２番地,,35,215,7450032,,,2026-01-05,合併による解散等,6250001009200,令和８年１月１日山口県周南市銀座一丁目２番地株式会社オーパス（6250001009200）に合併し解散,2015-10-05,1,,,,,ヒゴヤソウギョウ,0
1669,6260005003388,登記記録の閉鎖等,0,2026-01-09,2025-12-26,倉敷えびす商店街協同組合,,その他の設立登記法人,岡山県,倉敷市,阿知２丁目１６番４０号,,33,202,7100055,,,2025-12-26,清算の結了等,,,2015-10-05,1,,,,,クラシキエビスショウテンガイ,0
1690,6350002011137,登記記録の閉鎖等,0,2026-01-09,2025-12-26,有限会社倉澤商店,,有限会社,宮崎県,東臼杵郡門川町,大字門川尾末８５３８番地１,,45,421,8890611,,,2025-12-26,清算の結了等,,,2015-10-05,1,,,,,クラサワショウテン,0
1693,6360003002332,登記記録の閉鎖等,0,2026-01-09,2025-12-25,合資会社福翁舎,,合資会社,沖縄県,糸満市,字大里１４５番地,,47,210,9010325,,,2025-12-25,清算の結了等,,,2015-10-05,1,,,,,フクオウシャ,0
1709,6430001072205,登記記録の閉鎖等,0,2026-01-09,2025-12-01,株式会社Ｈ．ＥウェルネスＣ,,株式会社,北海道,札幌市中央区,南七条西１丁目２１番地１第３弘安ビル８階,,01,101,0640807,,,2025-12-01,合併による解散等,5430001086734,令和７年１２月１日札幌市中央区南七条西一丁目２１番地１第３弘安ビル８階株式会社Ｈ．Ｅエステート（5430001086734）に合併し解散,2016-08-22,1,,,,,エイチイーウェルネスシー,0
1714,6430003009444,登記記録の閉鎖等,0,2026-01-09,2026-01-05,合同会社豊楽,,合同会社,北海道,札幌市厚別区,厚別中央三条２丁目４番１３号ビックバーンズマンション新札幌４０６号室,,01,108,0040053,,,2026-01-05,合併による解散等,2430003006602,令和８年１月１日札幌市厚別区厚別中央三条二丁目４番１３号ビックバーンズマンション新札幌４０６号室合同会社協進（2430003006602）に合併し解散,2018-06-06,1,,,,,ホウラク,0
1716,6470001013873,登記記録の閉鎖等,0,2026-01-09,2026-01-06,シコク・フーズ保険サービス株式会社,,株式会社,香川県,丸亀市,土器町東８丁目５３７番地１,,37,202,7630082,,,2026-01-06,合併による解散等,7470001007560,令和８年１月１日香川県丸亀市土器町東八丁目５３７番地１シコク・フーズ商事株式会社（7470001007560）に合併し解散,2015-10-05,1,,,,,シコクフーズホケンサービス,0
1730,7010003037247,登記記録の閉鎖等,0,2026-01-09,2025-12-15,アジアコア合同会社,,合同会社,東京都,中央区,銀座１丁目６番１１号アースタックス税理士法人内,,13,102,1040061,,,2025-12-15,清算の結了等,,,2022-03-18,1,,,,,アジアコア,0
1732,7010003040341,登記記録の閉鎖等,0,2026-01-09,2025-12-15,合同会社白兎,,合同会社,東京都,中央区,勝どき１丁目１３番６―３００６号,,13,102,1040054,,,2025-12-15,清算の結了等,,,2023-04-13,1,,,,,ハクト,0
1748,7010401149825,登記記録の閉鎖等,0,2026-01-09,2025-12-22,絶味食品日本株式会社,,株式会社,東京都,港区,赤坂４丁目１番１号,,13,103,1070052,,,2025-12-22,清算の結了等,,,2019-12-16,1,,,,,ゼツミショクヒンニホン,0
1749,7010401174617,登記記録の閉鎖等,0,2026-01-09,2026-01-06,ＭＣＰ１７株式会社,,株式会社,東京都,港区,元赤坂１丁目１番７－１２０９号株式会社赤坂国際会計内,,13,103,1070051,,,2026-01-06,合併による解散等,2010501028396,令和７年１２月２６日東京都北区東田端二丁目１番３号株式会社東邦技研（2010501028396）に合併し解散,2023-05-29,1,,,,,エムシーピーワンセブン,0
1762,7010405021600,登記記録の閉鎖等,0,2026-01-09,2025-12-12,Ｌｅｇｅｎｄ　Ｏｎｅ一般社団法人,,その他の設立登記法人,東京都,港区,虎ノ門３丁目２２番１０－２０１号,,13,103,1050001,,,2025-12-12,清算の結了等,,,2022-11-28,1,,,,,レジェンドワン,0
1774,7010701048082,登記記録の閉鎖等,0,2026-01-09,2025-12-25,ＢｉｚＥｎｔｒｙ株式会社,,株式会社,東京都,品川区,戸越５丁目４番３号ビズサークル戸越オフィス２３号室,,13,109,1420041,,,2025-12-25,清算の結了等,,,2025-07-30,1,,,,,ビズエントリー,0
1779,7010802008893,登記記録の閉鎖等,0,2026-01-09,2025-12-25,竹本有限会社,,有限会社,東京都,大田区,久が原４丁目３６番５号,,13,111,1460085,,,2025-12-25,清算の結了等,,,2015-10-05,1,,,,,タケモト,0
1780,7010802019387,登記記録の閉鎖等,0,2026-01-09,2025-12-25,有限会社我夢計画,,有限会社,東京都,大田区,北馬込１丁目１６番７－７０９号,,13,111,1430021,,,2025-12-25,清算の結了等,,,2015-10-05,1,,,,,ガムケイカク,0
1783,7011001065529,登記記録の閉鎖等,0,2026-01-09,2025-12-08,株式会社シータプロモーション,,株式会社,東京都,渋谷区,恵比寿１丁目１３番８号,,13,113,1500013,,,2025-12-08,清算の結了等,,,2015-10-05,1,,,,,シータプロモーション,0
1787,7011001130786,登記記録の閉鎖等,0,2026-01-09,2025-12-11,株式会社Ｂ・Ｃフーズ,,株式会社,東京都,渋谷区,恵比寿４丁目２０番３号恵比寿ガーデンプレイスタワー１６階,,13,113,1500013,,,2025-12-11,合併による解散等,6010701026436,令和７年１０月１日東京都渋谷区恵比寿四丁目２０番３号恵比寿ガーデンプレイスタワー１６階株式会社ブッシュクロフィード（6010701026436）に合併し解散,2019-11-08,1,,,,,ビーシーフーズ,0
1795,7011101006779,登記記録の閉鎖等,0,2026-01-09,2025-12-09,公和商事株式会社,,株式会社,東京都,新宿区,神楽坂１丁目１４番地,,13,104,1620825,,,2025-12-09,清算の結了等,,,2015-10-05,1,,,,,コウワショウジ,0
1801,7011101020292,登記記録の閉鎖等,0,2026-01-09,2025-12-24,丸善建設株式会社,,株式会社,東京都,新宿区,西新宿６丁目１６番１３号,,13,104,1600023,,,2025-12-24,清算の結了等,,,2016-12-13,1,,,,,マルゼンケンセツ,0
1802,7011101073885,登記記録の閉鎖等,0,2026-01-09,2025-12-23,株式会社プリッシュ新宿,,株式会社,東京都,豊島区,南大塚３丁目２－１４漆澤ビル２Ｆ,,13,116,1700005,,,2025-12-23,合併による解散等,6011101055240,令和７年１２月２３日東京都豊島区南大塚三丁目２－１４漆澤ビル２Ｆ株式会社ネイルデザイン（6011101055240）に合併し解散,2015-10-05,1,,,,,プリッシュシンジュク,0
1821,7011601000612,登記記録の閉鎖等,0,2026-01-09,2025-12-26,泉三和産業株式会社,,株式会社,東京都,練馬区,南大泉６丁目１０番２２号,,13,120,1780064,,,2025-12-26,清算の結了等,,,2015-10-05,1,,,,,イズミサンワサンギョウ,0
1823,7011602011261,登記記録の閉鎖等,0,2026-01-09,2026-01-06,有限会社イーシージャングル,,有限会社,東京都,練馬区,富士見台３丁目３３番１７号,,13,120,1770034,,,2026-01-06,清算の結了等,,,2015-10-05,1,,,,,イーシージャングル,0
1833,7012801023469,登記記録の閉鎖等,0,2026-01-09,2026-01-05,株式会社Ａｌｔａｉｒ　Ｂｅｇａ,,株式会社,東京都,昭島市,緑町４丁目２６－７,,13,207,1960004,,,2026-01-05,清算の結了等,,,2024-10-10,1,,,,,アルタイルベガ,0
1842,7020001141669,登記記録の閉鎖等,0,2026-01-09,2026-01-05,株式会社ＨＩＫＥ　ＬＩＦＥ,,株式会社,神奈川県,川崎市宮前区,菅生１丁目１６－２４－２,,14,136,2160015,,,2026-01-05,清算の結了等,,,2021-06-04,1,,,,,ハイクライフ,0
1843,7020001151354,登記記録の閉鎖等,0,2026-01-09,2025-12-24,株式会社Ｅｉｇｈｔ,,株式会社,神奈川県,横浜市中区,尾上町３丁目４３番地横浜パークサイド関内７－Ｃ,,14,104,2310015,,,2025-12-24,清算の結了等,,,2023-05-01,1,,,,,エイト,0
1848,7020003014039,登記記録の閉鎖等,0,2026-01-09,2026-01-05,Ｓｕｒｇｅ合同会社,,合同会社,神奈川県,横浜市旭区,上白根２丁目５７番８号,,14,112,2410002,,,2026-01-05,清算の結了等,,,2018-03-12,1,,,,,サージ,0
1872,7040001031463,登記記録の閉鎖等,0,2026-01-09,2025-12-12,株式会社エムツー,,株式会社,千葉県,市川市,新田３丁目１０番４号,,12,203,2720035,,,2025-12-12,清算の結了等,,,2015-10-05,1,,,,,エムツー,0
1873,7040001044812,登記記録の閉鎖等,0,2026-01-09,2025-12-15,株式会社ガイア,,株式会社,千葉県,成田市,飯仲４５番地,,12,211,2860046,,,2025-12-15,清算の結了等,,,2015-10-05,1,,,,,ガイア,0
1877,7040001130876,登記記録の閉鎖等,0,2026-01-09,2025-12-15,株式会社防水屋ＳＨ,,株式会社,千葉県,四街道市,大日２２１４－３３,,12,228,2840001,,,2025-12-15,清算の結了等,,,2023-11-09,1,,,,,ボウスイヤエスエイチ,0
1885,7060002032830,登記記録の閉鎖等,0,2026-01-09,2026-01-07,渡辺工業有限会社,,有限会社,栃木県,小山市,大字羽川９番地２４,,09,208,3230012,,,2026-01-07,清算の結了等,,,2015-10-05,1,,,,,ワタナベコウギョウ,0
1892,7080101016204,登記記録の閉鎖等,0,2026-01-09,2026-01-05,株式会社りはすぽ,,株式会社,静岡県,静岡市葵区,錦町７番地の８,,22,101,4200015,,,2026-01-05,合併による解散等,8080102015625,令和８年１月１日静岡市葵区錦町７番地の８株式会社快明堂（8080102015625）に合併し解散,2015-10-05,1,,,,,リハスポ,0
1894,7080102004414,登記記録の閉鎖等,0,2026-01-09,2026-01-05,有限会社東京ランドリー,,有限会社,静岡県,裾野市,御宿１７８番地の１１,,22,220,4101107,,,2026-01-05,清算の結了等,,,2015-10-05,1,,,,,トウキョウランドリー,0
1897,7080402009773,登記記録の閉鎖等,0,2026-01-09,2025-12-25,有限会社岩通,,有限会社,静岡県,浜松市中央区,雄踏町宇布見８９２４番地,,22,138,4310102,,,2025-12-25,清算の結了等,,,2015-10-05,1,,,,,イワツウ,0
1914,7120001201017,登記記録の閉鎖等,0,2026-01-09,2026-01-05,株式会社ボンコンセイユ,,株式会社,大阪府,大阪市西区,西本町２丁目６番１１号,,27,106,5500005,,,2026-01-05,合併による解散等,7120001113336,令和８年１月１日大阪市西区西本町二丁目６番１１号株式会社クレドリシャス・ホールディングス（7120001113336）に合併し解散,2016-10-05,1,,,,,ボンコンセイユ,0
1922,7120002078000,登記記録の閉鎖等,0,2026-01-09,2025-12-22,有限会社イタヤ住宅,,有限会社,大阪府,守口市,馬場町３丁目１４番６号,,27,209,5700062,,,2025-12-22,清算の結了等,,,2024-01-31,1,,,,,イタヤジュウタク,0
1934,7130001028153,登記記録の閉鎖等,0,2026-01-09,2025-12-26,株式会社ボーテ,,株式会社,京都府,京都市北区,出雲路俵町３９番地６,,26,101,6038135,,,2025-12-26,合併による解散等,3130001048923,令和７年１１月３０日京都市下京区東中筋通六条上る天使突抜四丁目４５９番１１ふたえ株式会社（3130001048923）に合併し解散,2015-10-05,1,,,,,ボーテ,0
1935,7130001042625,登記記録の閉鎖等,0,2026-01-09,2026-01-05,株式会社アースホーム,,株式会社,京都府,福知山市,厚中町７３番地,,26,201,6200056,,,2026-01-05,清算の結了等,,,2015-10-05,1,,,,,アースホーム,0
1967,7200001006481,登記記録の閉鎖等,0,2026-01-09,2025-12-26,株式会社エム・アート,,株式会社,岐阜県,岐阜市,今町４丁目１番地,,21,201,5008023,,,2025-12-26,清算の結了等,,,2015-10-05,1,,,,,エムアート,0
1968,7200001016761,登記記録の閉鎖等,0,2026-01-09,2026-01-05,株式会社研壮テクノ,,株式会社,岐阜県,大垣市,新田町４丁目１１番地,,21,202,5030856,,,2026-01-05,清算の結了等,,,2015-10-05,1,,,,,ケンソウテクノ,0
1977,7240001007427,登記記録の閉鎖等,0,2026-01-09,2026-01-08,株式会社凪スクエア,,株式会社,広島県,広島市中区,中町７番１６号,,34,101,7300037,,,2026-01-08,清算の結了等,,,2015-10-05,1,,,,,ナギスクエア,0
1981,7240002015619,登記記録の閉鎖等,0,2026-01-09,2026-01-08,有限会社松田鉄工所,,有限会社,広島県,広島市中区,舟入南１丁目１番２２号,,34,101,7300847,,,2026-01-08,清算の結了等,,,2015-10-05,1,,,,,マツダテッコウショ,0
1988,7270002010419,登記記録の閉鎖等,0,2026-01-09,2026-01-07,中部電工有限会社,,有限会社,鳥取県,倉吉市,下田中町８７３番地,,31,203,6820812,,,2026-01-07,清算の結了等,,,2015-10-05,1,,,,,チュウブデンコウ,0
1993,7290002054083,登記記録の閉鎖等,0,2026-01-09,2025-12-12,有限会社柳川電設,,有限会社,福岡県,柳川市,佃町６２０番地２,,40,207,8320051,,,2025-12-12,清算の結了等,,,2015-10-05,1,,,,,ヤナガワデンセツ,0
1998,7310001004631,登記記録の閉鎖等,0,2026-01-09,2026-01-05,西部ガスリアルライフ長崎株式会社,,株式会社,長崎県,長崎市,尾上町６番２０号,,42,201,8500058,,,2026-01-05,合併による解散等,1310001001956,令和８年１月１日長崎市葉山一丁目３２番１６号星野管工設備株式会社（1310001001956）に合併し解散,2015-10-05,1,,,,,サイブガスリアルライフナガサキ,0
2014,7330003006203,登記記録の閉鎖等,0,2026-01-09,2026-01-05,ベストチーム合同会社,,合同会社,熊本県,熊本市西区,島崎３丁目１番９号,,43,103,8600073,,,2026-01-05,清算の結了等,,,2015-10-05,1,,,,,ベストチーム,0
2019,7350002017843,登記記録の閉鎖等,0,2026-01-09,2025-12-26,有限会社下野記帳センター,,有限会社,宮崎県,小林市,細野２０３６番地１２,,45,205,8860004,,,2025-12-26,清算の結了等,,,2015-10-05,1,,,,,シモノキチョウセンター,0
2022,7360001022488,登記記録の閉鎖等,0,2026-01-09,2025-12-25,株式会社比嘉墨出し業,,株式会社,沖縄県,宜野湾市,大謝名２丁目２８－５,,47,205,9012225,,,2025-12-25,清算の結了等,,,2017-06-16,1,,,,,ヒガスミダシギョウ,0
2031,7360003007644,登記記録の閉鎖等,0,2026-01-09,2025-12-26,合同会社ｓｍｉｌｅ　ｗｏｒｋｓ,,合同会社,沖縄県,宮古島市,平良字下里１３２８番地３０,,47,214,9060013,,,2025-12-26,清算の結了等,,,2016-06-06,1,,,,,スマイルワークス,0
2037,7380005003607,登記記録の閉鎖等,0,2026-01-09,2025-12-25,神習教三山田村分教会,,その他の設立登記法人,福島県,田村市,船引町荒和田字西小屋４３番地,,07,211,9634322,,,2025-12-25,清算の結了等,,,2015-10-05,1,,,,,,0
2054,7460002003799,登記記録の閉鎖等,0,2026-01-09,2026-01-06,有限会社エーアイ・カンパニー,,有限会社,北海道,釧路市,桜田十一線９９番地,,01,206,0850251,,,2026-01-06,清算の結了等,,,2015-10-05,1,,,,,エーアイカンパニー,0
2055,7460301000126,登記記録の閉鎖等,0,2026-01-09,2026-01-07,株式会社岡久設計,,株式会社,北海道,網走郡美幌町,字日の出２丁目１番地の５,,01,543,0920069,,,2026-01-07,清算の結了等,,,2015-10-05,1,,,,,オカヒサセッケイ,0
2059,7480003000694,登記記録の閉鎖等,0,2026-01-09,2026-01-06,合同会社ＤＯＭＥＮ,,合同会社,徳島県,美馬郡つるぎ町,半田字小野１９２番地２,,36,468,7794401,,,2026-01-06,清算の結了等,,,2015-10-05,1,,,,,ドーメン,0
2084,8010401165805,登記記録の閉鎖等,0,2026-01-09,2025-12-12,株式会社ＦＯＲＴＵＮＥ．８,,株式会社,東京都,港区,南青山２丁目２番１５号,,13,103,1070062,,,2025-12-12,清算の結了等,,,2022-02-25,1,,,,,フォーチュンエイト,0
2119,8011101073884,登記記録の閉鎖等,0,2026-01-09,2025-12-23,株式会社ネイルデザインエデュケーション,,株式会社,東京都,豊島区,南大塚３丁目２－１４漆澤ビル２Ｆ,,13,116,1700005,,,2025-12-23,合併による解散等,6011101055240,令和７年１２月２３日東京都豊島区南大塚三丁目２－１４漆澤ビル２Ｆ株式会社ネイルデザイン（6011101055240）に合併し解散,2015-10-05,1,,,,,ネイルデザインエデュケーション,0
2128,8011601024123,登記記録の閉鎖等,0,2026-01-09,2026-01-06,株式会社ゼットン,,株式会社,東京都,練馬区,石神井台７丁目２４番４３号,,13,120,1770045,,,2026-01-06,清算の結了等,,,2020-04-06,1,,,,,ゼットン,0
2132,8011603004115,登記記録の閉鎖等,0,2026-01-09,2026-01-05,合同会社スカイビーチステーブル,,合同会社,東京都,練馬区,北町２丁目３６番３号,,13,120,1790081,,,2026-01-05,清算の結了等,,,2023-11-06,1,,,,,スカイビーチステーブル,0
2133,8011703004246,登記記録の閉鎖等,0,2026-01-09,2025-12-25,木多多合同会社,,合同会社,東京都,江戸川区,西小岩５丁目１３番１３－１５１号,,13,123,1330057,,,2025-12-25,清算の結了等,,,2025-05-22,1,,,,,キタタ,0
2147,8012701001887,登記記録の閉鎖等,0,2026-01-09,2025-12-23,三葉化工株式会社,,株式会社,東京都,東村山市,久米川町１丁目３７番地２,,13,213,1890003,,,2025-12-23,清算の結了等,,,2015-10-05,1,,,,,ミツバカコウ,0
2154,8020001108295,登記記録の閉鎖等,0,2026-01-09,2026-01-07,株式会社Ｓｈｉｎｅ,,株式会社,神奈川県,横浜市南区,永田台３２番１４－２号,,14,105,2320076,,,2026-01-07,清算の結了等,,,2015-10-05,1,,,,,シャイン,0
2156,8020001122189,登記記録の閉鎖等,0,2026-01-09,2025-12-23,株式会社プリッシュ横浜,,株式会社,東京都,豊島区,南大塚３丁目２－１４漆澤ビル２Ｆ,,13,116,1700005,,,2025-12-23,合併による解散等,6011101055240,令和７年１２月２３日東京都豊島区南大塚三丁目２－１４漆澤ビル２Ｆ株式会社ネイルデザイン（6011101055240）に合併し解散,2017-07-18,1,,,,,プリッシュヨコハマ,0
2166,8020003010391,登記記録の閉鎖等,0,2026-01-09,2025-12-25,合同会社なっぱ,,合同会社,神奈川県,川崎市中原区,新丸子東１丁目９８３番地１,,14,133,2110004,,,2025-12-25,清算の結了等,,,2015-10-05,1,,,,,ナッパ,0
2179,8030005015842,登記記録の閉鎖等,0,2026-01-09,2026-01-05,一般社団法人演芸ぼっくす,,その他の設立登記法人,埼玉県,さいたま市浦和区,本太２丁目９番１０－３号,,11,107,3300052,,,2026-01-05,清算の結了等,,,2015-10-05,1,,,,,エンゲイボックス,0
2181,8040001082563,登記記録の閉鎖等,0,2026-01-09,2025-11-14,歓喜株式会社,,株式会社,千葉県,市川市,福栄１丁目１７番２３号,,12,203,2720137,,,2025-11-14,清算の結了等,,,2015-10-05,1,,,,,カンキ,0
2183,8040001129001,登記記録の閉鎖等,0,2026-01-09,2025-12-04,ネプタス株式会社,,株式会社,千葉県,印西市,舞姫１丁目７番地１０,,12,231,2701608,,,2025-12-04,清算の結了等,,,2023-06-29,1,,,,,ネプタス,0
2184,8040001136088,登記記録の閉鎖等,0,2026-01-09,2025-12-12,株式会社次元工房,,株式会社,千葉県,流山市,おおたかの森北１丁目４番地の１ソライエグラン流山おおたかの森８４３,,12,220,2700119,,,2025-12-12,清算の結了等,,,2024-11-12,1,,,,,ジゲンコウボウ,0
2194,8060002001421,登記記録の閉鎖等,0,2026-01-09,2026-01-07,有限会社いまむら,,有限会社,栃木県,宇都宮市,西川田本町２丁目１２番２９号,,09,201,3210158,,,2026-01-07,清算の結了等,,,2015-10-05,1,,,,,イマムラ,0
2208,8080405001339,登記記録の閉鎖等,0,2026-01-09,2025-12-25,湖西市商業協同組合,,その他の設立登記法人,静岡県,湖西市,鷲津３３２番地の８,,22,221,4310431,,,2025-12-25,清算の結了等,,,2015-10-05,1,,,,,コサイシショウギョウ,0
2240,8130001072472,登記記録の閉鎖等,0,2026-01-09,2025-12-22,株式会社Ｐｓｙｃｈｏｎｏｉｄ,,株式会社,福岡県,福岡市中央区,笹丘３丁目２５－１０ヒルトップ笹丘２０１,,40,133,8100034,,,2025-12-22,清算の結了等,,,2022-08-18,1,,,,,サイコノイド,0
2244,8140001066416,登記記録の閉鎖等,0,2026-01-09,2026-01-05,しみず株式会社,,株式会社,兵庫県,三田市,あかしあ台５丁目３０番地２・２棟３０３号,,28,219,6691323,,,2026-01-05,清算の結了等,,,2015-10-05,1,,,,,シミズ,0
2251,8140002009126,登記記録の閉鎖等,0,2026-01-09,2026-01-05,株式会社ヒルトン製靴,,株式会社,兵庫県,神戸市長田区,長楽町６丁目２番２８号,,28,106,6530054,,,2026-01-05,清算の結了等,,,2015-10-05,1,,,,,ヒルトンセイカ,0
2264,8180001082731,登記記録の閉鎖等,0,2026-01-09,2026-01-07,伸栄工業株式会社,,株式会社,愛知県,一宮市,奥町字甚四前４９番地の１０,,23,203,4910201,,,2026-01-07,清算の結了等,,,2015-10-05,1,,,,,シンエイコウギョウ,0
2277,8180302020729,登記記録の閉鎖等,0,2026-01-09,2025-12-25,有限会社永坂軽合金,,有限会社,愛知県,碧南市,洲先町１丁目２９番地,,23,209,4470086,,,2025-12-25,清算の結了等,,,2015-10-05,1,,,,,ナガサカケイゴウキン,0
2282,8200005011361,登記記録の閉鎖等,0,2026-01-09,2025-12-24,特定非営利活動法人さくらゆき,,その他の設立登記法人,岐阜県,岐阜市,鷺山南２４番５号,,21,201,5020867,,,2025-12-24,清算の結了等,,,2015-10-05,1,,,,,サクラユキ,0
2308,8290801007637,登記記録の閉鎖等,0,2026-01-09,2025-12-24,株式会社アキヨシ,,株式会社,福岡県,北九州市小倉北区,西港町９４番地の９,,40,106,8030801,,,2025-12-24,清算の結了等,,,2015-10-05,1,,,,,アキヨシ,0
2310,8320002001015,登記記録の閉鎖等,0,2026-01-09,2025-12-26,有限会社伊延造船鉄工所,,有限会社,大分県,大分市,新川町１丁目５番１８号,,44,201,8700016,,,2025-12-26,清算の結了等,,,2015-10-05,1,,,,,,0
2315,8330001024767,登記記録の閉鎖等,0,2026-01-09,2025-12-26,ビヨンドコンサルティング株式会社,,株式会社,熊本県,熊本市中央区,水前寺公園４－２０－２Ｆ,,43,101,8620956,,,2025-12-26,清算の結了等,,,2017-12-01,1,,,,,ビヨンドコンサルティング,0
2332,8370002003345,登記記録の閉鎖等,0,2026-01-09,2026-01-05,有限会社たまや商店,,有限会社,宮城県,仙台市太白区,向山１丁目１７番１８号,,04,104,9820841,,,2026-01-05,清算の結了等,,,2015-10-05,1,,,,,タマヤショウテン,0
2336,8390002012922,登記記録の閉鎖等,0,2026-01-09,2026-01-06,有限会社サイトシーイング樹氷,,有限会社,山形県,米沢市,万世町片子７６６番地,,06,202,9921125,,,2026-01-06,清算の結了等,,,2015-10-05,1,,,,,サイトシーイングジュヒョウ,0
2363,9010001168892,登記記録の閉鎖等,0,2026-01-09,2025-12-23,株式会社プリッシュ銀座,,株式会社,東京都,豊島区,南大塚３丁目２－１４漆澤ビル２Ｆ,,13,116,1700005,,,2025-12-23,合併による解散等,6011101055240,令和７年１２月２３日東京都豊島区南大塚三丁目２－１４漆澤ビル２Ｆ株式会社ネイルデザイン（6011101055240）に合併し解散,2015-10-05,1,,,,,プリッシュギンザ,0
2364,9010001174445,登記記録の閉鎖等,0,2026-01-09,2025-12-23,株式会社築地オフィス,,株式会社,東京都,大田区,山王２丁目７番１３－４０４号,,13,111,1430023,,,2025-12-23,清算の結了等,,,2016-03-23,1,,,,,ツキジオフィス,0
2387,9010402004184,登記記録の閉鎖等,0,2026-01-09,2025-12-25,有限会社グッドモーニング,,有限会社,東京都,杉並区,上高井戸１丁目２５番７号,,13,115,1680074,,,2025-12-25,清算の結了等,,,2015-10-05,1,,,,,グッドモーニング,0
2393,9010501053776,登記記録の閉鎖等,0,2026-01-09,2025-12-24,ＫＬＹ株式会社,,株式会社,東京都,台東区,清川１丁目２１－５ＷＡＬＬａｐａｒｔｍｅｎｔ５階大区画号室,,13,106,1110022,,,2025-12-24,清算の結了等,,,2025-03-12,1,,,,,ケイエルワイ,0
2413,9010801015369,登記記録の閉鎖等,0,2026-01-09,2025-12-25,株式会社芙蓉計画,,株式会社,東京都,大田区,北馬込１丁目１６番７－７０９号,,13,111,1430021,,,2025-12-25,清算の結了等,,,2015-10-05,1,,,,,フヨウケイカク,0
2419,9010902018270,登記記録の閉鎖等,0,2026-01-09,2025-12-23,有限会社ショウエイ,,有限会社,東京都,大田区,鵜の木３丁目１７番１－４０２号,,13,111,1460091,,,2025-12-23,清算の結了等,,,2015-10-05,1,,,,,ショウエイ,0
2426,9011003020091,登記記録の閉鎖等,0,2026-01-09,2025-12-11,Ｋａｍｄａｒ　Ｇｒｏｕｐ合同会社,,合同会社,東京都,渋谷区,神山町３番１０号代々木公園プラザ３０１,,13,113,1500047,,,2025-12-11,清算の結了等,,,2024-09-26,1,,,,,カンダーグループ,0
2427,9011101094459,登記記録の閉鎖等,0,2026-01-09,2025-12-09,株式会社Ｒｉｃｅｂａｌｌ,,株式会社,東京都,新宿区,余丁町１３番２５号,,13,104,1620055,,,2025-12-09,清算の結了等,,,2021-03-23,1,,,,,ライスボール,0
2434,9011601003448,登記記録の閉鎖等,0,2026-01-09,2025-12-26,株式会社鈴木靴店,,株式会社,東京都,練馬区,石神井台２丁目４番２３号,,13,120,1770045,,,2025-12-26,清算の結了等,,,2015-10-05,1,,,,,スズキクツテン,0
2435,9011601027546,登記記録の閉鎖等,0,2026-01-09,2026-01-05,株式会社まごころプラス,,株式会社,東京都,練馬区,北町１丁目１６番６号,,13,120,1790081,,,2026-01-05,清算の結了等,,,2024-02-26,1,,,,,マゴコロプラス,0
2436,9011602003166,登記記録の閉鎖等,0,2026-01-09,2026-01-05,有限会社九段歯科補綴研究所,,有限会社,東京都,練馬区,石神井台５丁目１７番３号,,13,120,1770045,,,2026-01-05,清算の結了等,,,2015-10-05,1,,,,,クダンシカホテツケンキュウジョ,0
2441,9012401011070,登記記録の閉鎖等,0,2026-01-09,2025-12-26,楠本商事株式会社,,株式会社,東京都,武蔵野市,西久保３丁目８番２号,,13,203,1800013,,,2025-12-26,清算の結了等,,,2015-10-05,1,,,,,,0
2447,9012405002347,登記記録の閉鎖等,0,2026-01-09,2025-12-26,一般社団法人グルーヴ・ホールディングス,,その他の設立登記法人,神奈川県,横浜市港北区,綱島西２丁目５番３０号,,14,109,2230053,,,2025-12-26,清算の結了等,,,2015-10-05,1,,,,,グルーブホールディングス,0
2450,9020001072185,登記記録の閉鎖等,0,2026-01-09,2025-12-26,栄大商事株式会社,,株式会社,神奈川県,川崎市川崎区,東田町５番地６,,14,131,2100005,,,2025-12-26,清算の結了等,,,2015-10-05,1,,,,,エイダイショウジ,0
2452,9020001164107,登記記録の閉鎖等,0,2026-01-09,2026-01-05,株式会社ＨＤ１,,株式会社,神奈川県,川崎市宮前区,犬蔵２丁目３９番２－５１５号,,14,136,2160011,,,2026-01-05,清算の結了等,,,2025-08-08,1,,,,,エイチディーワン,0
2454,9020003011926,登記記録の閉鎖等,0,2026-01-09,2026-01-06,合同会社ＹＨＫ,,合同会社,神奈川県,横浜市戸塚区,鳥が丘５１番地８,,14,110,2440001,,,2026-01-06,清算の結了等,,,2016-10-18,1,,,,,,0
2468,9030003016057,登記記録の閉鎖等,0,2026-01-09,2025-12-19,合同会社訪問看護ステーションさくら,,合同会社,埼玉県,越谷市,神明町３丁目３４６番地３,,11,222,3430805,,,2025-12-19,清算の結了等,,,2020-10-21,1,,,,,ホウモンカンゴステーションサクラ,0
2470,9040001113730,登記記録の閉鎖等,0,2026-01-09,2025-12-04,ビージーフリー株式会社,,株式会社,千葉県,印西市,舞姫１丁目７番地１０,,12,231,2701608,,,2025-12-04,清算の結了等,,,2020-05-26,1,,,,,ビージーフリー,0
2471,9040002037020,登記記録の閉鎖等,0,2026-01-09,2025-12-11,森商事有限会社,,有限会社,千葉県,市川市,宮久保３丁目２１番１０号,,12,203,2720822,,,2025-12-11,清算の結了等,,,2015-10-05,1,,,,,モリショウジ,0
2526,9140001088194,登記記録の閉鎖等,0,2026-01-09,2026-01-05,神戸中央不動産株式会社,,株式会社,兵庫県,神戸市中央区,相生町４丁目８番５号,,28,110,6500025,,,2026-01-05,清算の結了等,,,2015-10-05,1,,,,,コウベチュウオウフドウサン,0
2527,9140001089853,登記記録の閉鎖等,0,2026-01-09,2026-01-07,株式会社作兵衛,,株式会社,兵庫県,宝塚市,中筋８丁目１９番７号,,28,214,6650874,,,2026-01-07,合併による解散等,7120001063507,令和８年１月１日大阪市北区梅田一丁目１番３－２０００号大阪駅前第３ビル株式会社現代広告社（7120001063507）に合併し解散,2015-10-05,1,,,,,サクベイ,0
2541,9180001033584,登記記録の閉鎖等,0,2026-01-09,2025-12-24,株式会社アーバンホーム,,株式会社,愛知県,名古屋市中区,栄２丁目４番１号,,23,106,4600008,,,2025-12-24,清算の結了等,,,2023-08-09,1,,,,,アーバンホーム,0
2543,9180001138111,登記記録の閉鎖等,0,2026-01-09,2026-01-05,株式会社ＶＡＢＯ,,株式会社,愛知県,名古屋市緑区,大高町字亀原５番地の２,,23,114,4598001,,,2026-01-05,清算の結了等,,,2019-09-18,1,,,,,バボ,0
2546,9180002044226,登記記録の閉鎖等,0,2026-01-09,2026-01-05,有限会社通寛,,有限会社,愛知県,名古屋市千種区,千種２丁目１１番２１号,,23,101,4640858,,,2026-01-05,清算の結了等,,,2015-10-05,1,,,,,ツウカン,0
2547,9180003015853,登記記録の閉鎖等,0,2026-01-09,2026-01-05,日本労務カウンセリング合同会社,,合同会社,愛知県,名古屋市名東区,平和が丘２丁目１２２番地,,23,115,4650097,,,2026-01-05,清算の結了等,,,2015-10-05,1,,,,,ニホンロウムカウンセリング,0
2548,9180301007560,登記記録の閉鎖等,0,2026-01-09,2026-01-07,ヨシダ株式会社,,株式会社,愛知県,豊橋市,神明町８８番地,,23,201,4400882,,,2026-01-07,合併による解散等,9080401000830,令和８年１月１日静岡県浜松市中央区丸塚町５４１番地の２０遠鉄アシスト株式会社（9080401000830）に合併し解散,2015-10-05,1,,,,,ヨシダ,0
2558,9210003000959,登記記録の閉鎖等,0,2026-01-09,2026-01-05,Ｋｅｉｓｈｉ合同会社,,合同会社,福井県,敦賀市,若葉町１丁目１００６番地,,18,202,9140125,,,2026-01-05,清算の結了等,,,2016-11-25,1,,,,,ケイシ,0
2564,9240001032539,登記記録の閉鎖等,0,2026-01-09,2025-12-26,株式会社読宣備後,,株式会社,広島県,福山市,沖野上町５丁目１３番１３号,,34,207,7200825,,,2025-12-26,清算の結了等,,,2015-10-05,1,,,,,ヨミセンビンゴ,0
2568,9250001005106,登記記録の閉鎖等,0,2026-01-09,2026-01-05,株式会社一村鉄工所,,株式会社,山口県,下関市,彦島老町１丁目２番４号,,35,201,7500072,,,2026-01-05,清算の結了等,,,2015-10-05,1,,,,,イチムラテッコウショ,0
2569,9250002014493,登記記録の閉鎖等,0,2026-01-09,2026-01-05,有限会社河島ビル,,有限会社,山口県,周南市,梅園町２丁目２４番地,,35,215,7450076,,,2026-01-05,清算の結了等,,,2015-10-05,1,,,,,カワシマビル,0
2573,9290001073859,登記記録の閉鎖等,0,2026-01-09,2025-12-19,ＪＡＣＢＯ株式会社,,株式会社,福岡県,福岡市東区,蒲田４丁目５番５３号,,40,131,8130023,,,2025-12-19,清算の結了等,,,2016-05-10,1,,,,,ジェイエイシービーオー,0
2583,9290801018740,登記記録の閉鎖等,0,2026-01-09,2025-12-23,株式会社アクスコーポレーション,,株式会社,福岡県,田川市,大字夏吉１９２番地１,,40,206,8250004,,,2025-12-23,清算の結了等,,,2015-10-05,1,,,,,アクスコーポレーション,0
2589,9310001015131,登記記録の閉鎖等,0,2026-01-09,2026-01-05,株式会社ミライ施工,,株式会社,福岡県,遠賀郡水巻町,吉田西１丁目４番７号,,40,382,8070046,,,2026-01-05,清算の結了等,,,2017-09-05,1,,,,,ミライセコウ,0
2590,9310001016583,登記記録の閉鎖等,0,2026-01-09,2026-01-08,株式会社モッコ,,株式会社,長崎県,東彼杵郡波佐見町,井石郷１５２２番地,,42,323,8593711,,,2026-01-08,清算の結了等,,,2020-03-05,1,,,,,モッコ,0
2612,9400005007719,登記記録の閉鎖等,0,2026-01-09,2025-12-26,特定非営利活動法人宮古地域医療情報連携ネットワーク協議会,,その他の設立登記法人,岩手県,宮古市,西町１丁目６番２号,,03,202,0270061,,,2025-12-26,清算の結了等,,,2016-10-07,1,,,,,ミヤコチイキイリョウジョウホウレンケイネットワークキョウギカイ,0
2617,9430001053796,登記記録の閉鎖等,0,2026-01-09,2025-12-25,北海道エンジニアリング株式会社,,株式会社,北海道,苫小牧市,美原町３丁目１８番２２号,,01,213,0591262,,,2025-12-25,清算の結了等,,,2015-10-05,1,,,,,,0
2623,9430005001982,登記記録の閉鎖等,0,2026-01-09,2026-01-05,医療法人社団ひきた皮膚泌尿器科医院,,その他の設立登記法人,北海道,札幌市南区,澄川三条２丁目４番１５号,,01,106,0050003,,,2026-01-05,清算の結了等,,,2015-10-05,1,,,,,ヒキタヒフヒニョウキカイイン,0
2625,9460002001173,登記記録の閉鎖等,0,2026-01-09,2026-01-06,有限会社佐藤山菜農産物加工所,,有限会社,北海道,白糠郡白糠町,西一条北３丁目３番地４,,01,668,0880321,,,2026-01-06,清算の結了等,,,2015-10-05,1,,,,,,0
