sequenceNumber,corporateNumber,process,correct,updateDate,changeDate,name,nameImageId,kind,prefectureName,cityName,streetNumber,addressImageId,prefectureCode,cityCode,postCode,addressOutside,addressOutsideImageId,closeDate,closeCause,successorCorporateNumber,changeCause,assignmentDate,latest,enName,enPrefectureName,enCityName,enAddressOutside,furigana,hihyoji
10,1010001234735,新規,0,2023-04-26,2023-04-26,クリエイト・セブンズ株式会社,,株式会社,東京都,中央区,日本橋兜町１７番１号日本橋ロイヤルプラザ７０６,,13,102,1030026,,,,,,,2023-04-26,1,,,,,クリエイトセブンズ,0
11,1010001234784,新規,0,2023-04-26,2023-04-26,株式会社スフィア,,株式会社,東京都,中央区,日本橋室町１丁目１１番１２号日本橋水野ビル７階,,13,102,1030022,,,,,,,2023-04-26,1,,,,,スフィア,0
12,1010001234834,新規,0,2023-04-26,2023-04-26,株式会社３６ｑ,,株式会社,東京都,中央区,銀座１丁目１２番４号Ｎ＆Ｅ．ＢＬＤ．６Ｆ,,13,102,1040061,,,,,,,2023-04-26,1,,,,,ミロク,0
13,1010001234867,新規,0,2023-04-26,2023-04-26,株式会社楽糖,,株式会社,東京都,千代田区,神田三崎町３丁目７番１３号Ｂ１,,13,101,1010061,,,,,,,2023-04-26,1,,,,,ラクトウ,0
20,1010101015606,新規,0,2023-04-26,2023-04-26,ＫＡＩＺＥＮ　ＩＮＴＥＲＮＡＴＩＯＮＡＬ株式会社,,株式会社,東京都,八王子市,子安町３丁目２１番１１号シャルム松山１０１号,,13,201,1920904,,,,,,,2023-04-26,1,,,,,カイゼンインターナショナル,0
22,1010401173987,新規,0,2023-04-26,2023-04-26,株式会社ＦＬＯＷＥＲＰＯＷＥＲ,,株式会社,東京都,港区,南青山２丁目２番１５号ウィン青山９４２,,13,103,1070062,,,,,,,2023-04-26,1,,,,,フラワーパワー,0
32,1010803004518,新規,0,2023-04-26,2023-04-26,合同会社ブロッサムテックス,,合同会社,東京都,大田区,南六郷２丁目６－１５,,13,111,1440045,,,,,,,2023-04-26,1,,,,,ブロッサムテックス,0
36,1010901052930,新規,0,2023-04-26,2023-04-26,株式会社アンカー,,株式会社,東京都,世田谷区,池尻４丁目１０番１号グレンパーク駒場Ｗ８０７,,13,112,1540001,,,,,,,2023-04-26,1,,,,,アンカー,0
54,1011001153974,新規,0,2023-04-26,2023-04-26,株式会社美倭,,株式会社,東京都,目黒区,下目黒２丁目１９番１８号,,13,110,1530064,,,,,,,2023-04-26,1,,,,,ミワ,0
55,1011001153982,新規,0,2023-04-26,2023-04-26,株式会社ＳＥＶＥＮＲＩＣＨ　Ｓｏｍｅｎ,,株式会社,東京都,渋谷区,渋谷３丁目１９番１号,,13,113,1500002,,,,,,,2023-04-26,1,,,,,セブンリッチソーメン,0
56,1011001154015,新規,0,2023-04-26,2023-04-26,株式会社ＭＡＴ,,株式会社,東京都,目黒区,八雲３丁目１０番１０号,,13,110,1520023,,,,,,,2023-04-26,1,,,,,マット,0
57,1011001154064,新規,0,2023-04-26,2023-04-26,株式会社ハッピーフルネス,,株式会社,東京都,渋谷区,円山町５番５号Ｎａｖｉ渋谷Ｖ３階,,13,113,1500044,,,,,,,2023-04-26,1,,,,,ハッピーフルネス,0
67,1011501029204,新規,0,2023-04-26,2023-04-26,株式会社遠智,,株式会社,東京都,北区,浮間１丁目１－１４リムジンビル１０６号,,13,117,1150051,,,,,,,2023-04-26,1,,,,,エンチ,0
75,1012701017626,新規,0,2023-04-26,2023-04-26,株式会社ＣＩＭＡｚ,,株式会社,東京都,西東京市,保谷町６丁目１９番８号,,13,229,2020015,,,,,,,2023-04-26,1,,,,,シマズ,0
90,1020001151335,新規,0,2023-04-26,2023-04-26,株式会社ｅｓ,,株式会社,神奈川県,横浜市港北区,綱島西２丁目３番２－３０４号,,14,109,2230053,,,,,,,2023-04-26,1,,,,,エス,0
100,1020005015965,新規,0,2023-04-26,2023-04-26,特定非営利活動法人ＪＵＤＯ　ＹＯＫＯＨＡＭＡ,,その他の設立登記法人,神奈川県,横浜市泉区,領家４丁目２２－１６,,14,116,2450004,,,,,,,2023-04-26,1,,,,,ジュウドウヨコハマ,0
101,1020005015973,新規,0,2023-04-26,2023-04-26,一般社団法人ＦＲＡＳＣＯ,,その他の設立登記法人,神奈川県,横浜市港北区,下田町６丁目４番３３－２号,,14,109,2230064,,,,,,,2023-04-26,1,,,,,フラスコ,0
106,1021001078857,新規,0,2023-04-26,2023-04-26,株式会社トラスト,,株式会社,神奈川県,相模原市南区,相模大野７丁目３５番１－２５１０,,14,153,2520303,,,,,,,2023-04-26,1,,,,,トラスト,0
107,1021001078865,新規,0,2023-04-26,2023-04-26,株式会社ＡＲＣ,,株式会社,神奈川県,相模原市緑区,西橋本２丁目２５番３号,,14,151,2520131,,,,,,,2023-04-26,1,,,,,エーアールシー,0
108,1021003013028,新規,0,2023-04-26,2023-04-26,合同会社あらもーど鎌倉,,合同会社,神奈川県,鎌倉市,長谷２丁目７番１５号,,14,204,2480016,,,,,,,2023-04-26,1,,,,,アラモードカマクラ,0
110,1021005012795,新規,0,2023-04-26,2023-04-26,ＮＰＯ法人ｌａｇｒａｉｎｅ,,その他の設立登記法人,神奈川県,愛甲郡愛川町,三増７６０番地の３,,14,401,2430308,,,,,,,2023-04-26,1,,,,,ラグレーヌ,0
118,1030001153594,新規,0,2023-04-26,2023-04-26,株式会社一羽,,株式会社,埼玉県,川口市,大字安行領根岸４４４番地の１３,,11,203,3330834,,,,,,,2023-04-26,1,,,,,イチワ,0
119,1030001153603,新規,0,2023-04-26,2023-04-26,株式会社ｎａｏｒａｉ,,株式会社,埼玉県,飯能市,大字阿須２１１番地１,,11,209,3570046,,,,,,,2023-04-26,1,,,,,ナオライ,0
122,1030003021650,新規,0,2023-04-26,2023-04-26,合同会社マレー,,合同会社,埼玉県,春日部市,米島４３６番地６,,11,214,3440115,,,,,,,2023-04-26,1,,,,,マレー,0
123,1030003021659,新規,0,2023-04-26,2023-04-26,ＡＮ　ＰＨＡＴ合同会社,,合同会社,埼玉県,坂戸市,末広町５番地２１,,11,239,3500272,,,,,,,2023-04-26,1,,,,,アンファット,0
134,1040003022474,新規,0,2023-04-26,2023-04-26,合同会社ボートブリッジ企画,,合同会社,千葉県,船橋市,大穴南１丁目２１番１６号,,12,204,2740067,,,,,,,2023-04-26,1,,,,,ボートブリッジキカク,0
140,1060003004529,新規,0,2023-04-26,2023-04-26,合同会社栗原企画,,合同会社,栃木県,佐野市,閑馬町１８９０,,09,204,3270321,,,,,,,2023-04-26,1,,,,,クリハラキカク,0
142,1070001040376,新規,0,2023-04-26,2023-04-26,株式会社ＧＬＯＷＮ,,株式会社,群馬県,前橋市,元総社町２丁目２４番地１スタジオ１３,,10,201,3710846,,,,,,,2023-04-26,1,,,,,グロウン,0
144,1070003004924,新規,0,2023-04-26,2023-04-26,合同会社叶家,,合同会社,群馬県,藤岡市,中大塚１６１番地３,,10,209,3750053,,,,,,,2023-04-26,1,,,,,カナウヤ,0
145,1080003002968,新規,0,2023-04-26,2023-04-26,祐宗合同会社,,合同会社,静岡県,島田市,新町通１番の１２,,22,209,4270055,,,,,,,2023-04-26,1,,,,,スケムネ,0
146,1080101023957,新規,0,2023-04-26,2023-04-26,株式会社ＺＥＲＯ　ＰＲＯＭＯＴＩＯＮ,,株式会社,静岡県,駿東郡長泉町,南一色４５－１大樹の丘Ｃ２０５,,22,342,4110932,,,,,,,2023-04-26,1,,,,,ゼロプロモーション,0
149,1090001018098,新規,0,2023-04-26,2023-04-26,ＭＳ商事株式会社,,株式会社,山梨県,南アルプス市,上八田１１８３－１,,19,208,4000215,,,,,,,2023-04-26,1,,,,,エムエスショウジ,0
155,1110001037483,新規,0,2023-04-26,2023-04-26,株式会社梶田総建,,株式会社,新潟県,上越市,春日山町１丁目２３番３４号,,15,222,9430807,,,,,,,2023-04-26,1,,,,,カジタソウケン,0
158,1110005016938,新規,0,2023-04-26,2023-04-26,医療法人社団慈幸会,,その他の設立登記法人,新潟県,上越市,頸城区舟津１９番地１,,15,222,9420173,,,,,,,2023-04-26,1,,,,,ジコウカイ,0
165,1120001254383,新規,0,2023-04-26,2023-04-26,株式会社Ｔａｂｌｅｓｓ　ｆｉｅｌｄ,,株式会社,大阪府,大阪市中央区,久太郎町２丁目４番１８ブランズ大阪本町４０１号,,27,128,5410056,,,,,,,2023-04-26,1,,,,,タブレスフィールド,0
166,1120001254425,新規,0,2023-04-26,2023-04-26,Ｃｒａｆｔ　Ｂａｍｂｏｏ　Ｒａｃｉｎｇ　Ｊａｐａｎ株式会社,,株式会社,大阪府,大阪市中央区,本町橋６番２１号,,27,128,5400029,,,,,,,2023-04-26,1,,,,,クラフトバンブーレーシングジャパン,0
168,1120003023927,新規,0,2023-04-26,2023-04-26,合同会社ノースグッド,,合同会社,大阪府,大阪市城東区,野江３丁目７－１５希栄住業ビル２階,,27,118,5360006,,,,,,,2023-04-26,1,,,,,ノースグッド,0
169,1120005023586,新規,0,2023-04-26,2023-04-26,一般社団法人日本新聞販売協会近畿,,その他の設立登記法人,大阪府,大阪市北区,梅田２丁目５番４号,,27,127,5300001,,,,,,,2023-04-26,1,,,,,ニホンシンブンハンバイキョウカイキンキ,0
170,1120101067438,新規,0,2023-04-26,2023-04-26,株式会社トーナル,,株式会社,大阪府,和泉市,王子町１１１６番２１,,27,219,5940004,,,,,,,2023-04-26,1,,,,,トーナル,0
171,1120105009717,新規,0,2023-04-26,2023-04-26,ＮＰＯ法人ａｎｄ　ｍｏｍ,,その他の設立登記法人,大阪府,堺市北区,東浅香山町３丁１４５番地１浅香山団地１１－５０２号,,27,146,5918008,,,,,,,2023-04-26,1,,,,,アンドマム,0
177,1130001074178,新規,0,2023-04-26,2023-04-26,株式会社ＭＡＲＫＳ,,株式会社,京都府,京都市南区,久世高田町３７３番地１京都桂川つむぎの街グランスクエア１５３２号,,26,107,6018211,,,,,,,2023-04-26,1,,,,,マークス,0
178,1130001074186,新規,0,2023-04-26,2023-04-26,株式会社Ｄｉａｍｏｎｄ　Ｌｉｌｙ,,株式会社,京都府,京都市北区,小山花ノ木町５４番地の２６,,26,101,6038122,,,,,,,2023-04-26,1,,,,,ダイヤモンドリリー,0
180,1130003008687,新規,0,2023-04-26,2023-04-26,ＴＲＡＮＧ　ＳＨＯＰ合同会社,,合同会社,京都府,京都市南区,東九条柳下町４０番地７,,26,107,6018025,,,,,,,2023-04-26,1,,,,,チャンショップ,0
186,1140001129971,新規,0,2023-04-26,2023-04-26,株式会社ｕｎｅ．,,株式会社,兵庫県,神戸市東灘区,御影本町５丁目６－１１,,28,101,6580046,,,,,,,2023-04-26,1,,,,,ユヌ,0
192,1160001024997,新規,0,2023-04-26,2023-04-26,株式会社中河会計事務所,,株式会社,滋賀県,彦根市,西今町５８番地６北栄ビル２－Ａ号,,25,202,5220054,,,,,,,2023-04-26,1,,,,,ナカガワカイケイジムショ,0
193,1160003002860,新規,0,2023-04-26,2023-04-26,合同会社のびしろ,,合同会社,滋賀県,守山市,金森町７４４番地４,,25,207,5240045,,,,,,,2023-04-26,1,,,,,ノビシロ,0
204,1180301037342,新規,0,2023-04-26,2023-04-26,株式会社Ｍ．ＣＯＮＥＴ,,株式会社,愛知県,岡崎市,向山町５番地１,,23,202,4440848,,,,,,,2023-04-26,1,,,,,エムコネット,0
227,1280003001727,新規,0,2023-04-26,2023-04-26,合同会社ｃｈｉｂｕｒｉｌａｎｄ,,合同会社,島根県,隠岐郡知夫村,１２４２番地１,,32,527,6840100,,,,,,,2023-04-26,1,,,,,チブリランド,0
234,1290001101239,新規,0,2023-04-26,2023-04-26,あかつき株式会社,,株式会社,福岡県,久留米市,三潴町玉満字魚取の一４９番４,,40,203,8300112,,,,,,,2023-04-26,1,,,,,アカツキ,0
235,1290001101321,新規,0,2023-04-26,2023-04-26,株式会社ＩＢ,,株式会社,福岡県,福岡市博多区,博多駅前３丁目２３－１８アバンダント９２－８Ｆ,,40,132,8120011,,,,,,,2023-04-26,1,,,,,アイビー,0
237,1290003013837,新規,0,2023-04-26,2023-04-26,合同会社とらぽ,,合同会社,福岡県,久留米市,六ツ門町１９番地１,,40,203,8300031,,,,,,,2023-04-26,1,,,,,トラポ,0
241,1300003001955,新規,0,2023-04-26,2023-04-26,合同会社ＶＥＣＴＥＲ,,合同会社,佐賀県,武雄市,武雄町大字武雄１８２３－４,,41,206,8430022,,,,,,,2023-04-26,1,,,,,ベクター,0
242,1310001018372,新規,0,2023-04-26,2023-04-26,株式会社Ｋｉｒａｎａｈ,,株式会社,長崎県,佐世保市,藤原町４６－４１,,42,202,8570832,,,,,,,2023-04-26,1,,,,,キラナ,0
244,1320001019709,新規,0,2023-04-26,2023-04-26,株式会社貴翔,,株式会社,大分県,大分市,大字森町２３６番地の１,,44,201,8700127,,,,,,,2023-04-26,1,,,,,タカショウ,0
247,1330001030805,新規,0,2023-04-26,2023-04-26,ＬＩＹＥＩ日本株式会社,,株式会社,熊本県,宇土市,野鶴町４３番地,,43,211,8690463,,,,,,,2023-04-26,1,,,,,リーイーニホン,0
259,1390001017243,新規,0,2023-04-26,2023-04-26,株式会社鍋倉林業,,株式会社,山形県,山形市,大字下宝沢３９１番地１６,,06,201,9900018,,,,,,,2023-04-26,1,,,,,ナベクラリンギョウ,0
260,1400001016219,新規,0,2023-04-26,2023-04-26,株式会社ＳＢＳ,,株式会社,岩手県,盛岡市,内丸６番１５号Ｅｓｔ．２１ビル３Ｆ,,03,201,0200023,,,,,,,2023-04-26,1,,,,,,0
263,1420001018238,新規,0,2023-04-26,2023-04-26,株式会社ギガダンボ,,株式会社,青森県,十和田市,大字法量字焼山６４番地２２６,,02,206,0340303,,,,,,,2023-04-26,1,,,,,ギガダンボ,0
264,1430001088932,新規,0,2023-04-26,2023-04-26,株式会社カメヤ,,株式会社,北海道,札幌市清田区,北野六条２丁目１４番２号,,01,110,0040866,,,,,,,2023-04-26,1,,,,,カメヤ,0
265,1430001088965,新規,0,2023-04-26,2023-04-26,株式会社ＦＯＨ,,株式会社,北海道,札幌市豊平区,平岸四条１６丁目３番２６号,,01,105,0620934,,,,,,,2023-04-26,1,,,,,エフオーエイチ,0
266,1430001088973,新規,0,2023-04-26,2023-04-26,株式会社ライトホープ,,株式会社,北海道,札幌市北区,東茨戸三条２丁目４番５号,,01,102,0028044,,,,,,,2023-04-26,1,,,,,ライトホープ,0
270,1430003014969,新規,0,2023-04-26,2023-04-26,インヴェ合同会社,,合同会社,北海道,札幌市北区,屯田八条１２丁目１０番６グリーンリーフ２０１号,,01,102,0020858,,,,,,,2023-04-26,1,,,,,インヴェ,0
271,1440001009251,新規,0,2023-04-26,2023-04-26,株式会社クローム,,株式会社,北海道,函館市,本町１番３０号ＨＫＣビル１階,,01,202,0400011,,,,,,,2023-04-26,1,,,,,,0
280,1700150115740,新規,0,2023-04-26,2023-04-26,ＢｏＨｕａＳｈｉＨｕａＧａｏＬｉＤｉａｎＺｉＫｅＪｉＹｏｕＸｉａｎＧｏｎｇＳｉ,,外国会社等,,,,,,,,ＸｉｎＪｉａｎｇＢｏＺｈｏｕＢｏＬｅＢｉａｎＪｉｎｇＪｉｎｇＪｉＨｅＺｕｏＱｕＧｕａｎＬｉＷｅｉＹｕａｎＨｕｉ　ＤｉａｎＺｉＣｈａｎＹｅＹｕａｎＥｒＱｉ１Ｈａｏ　ＢｏＨｕａ　ＸｉｎＪｉａｎｇ　８３３４００　ＣＮ,,,,,,2023-04-26,1,,,,,ボーラーシーフワーガオリーディエンズーコージーヨウシエンゴンスー,0
287,2010003040445,新規,0,2023-04-26,2023-04-26,合同会社１００１ＰＲＯＤＵＣＴＩＯＮ,,合同会社,東京都,中央区,日本橋箱崎町１７番８号７山京ビル７階８号室,,13,102,1030015,,,,,,,2023-04-26,1,,,,,イチゼロゼロイチプロダクション,0
290,2010005036573,新規,0,2023-04-26,2023-04-26,一般社団法人ティグリスウーヌス,,その他の設立登記法人,東京都,千代田区,麹町６丁目２番６号,,13,101,1020083,,,,,,,2023-04-26,1,,,,,ティグリスウーヌス,0
294,2010401173929,新規,0,2023-04-26,2023-04-26,株式会社ＥＡＲＴＨ,,株式会社,東京都,港区,南青山２丁目２番１５号,,13,103,1070062,,,,,,,2023-04-26,1,,,,,アース,0
295,2010401173945,新規,0,2023-04-26,2023-04-26,ディーズライフデザイン株式会社,,株式会社,東京都,港区,芝２丁目２９番１０号,,13,103,1050014,,,,,,,2023-04-26,1,,,,,ディーズライフデザイン,0
298,2010501050350,新規,0,2023-04-26,2023-04-26,花禾株式会社,,株式会社,東京都,台東区,上野３丁目１１番５号,,13,106,1100005,,,,,,,2023-04-26,1,,,,,ハナイネ,0
299,2010501050367,新規,0,2023-04-26,2023-04-26,株式会社インシル,,株式会社,東京都,台東区,三筋１丁目３番７－７０７号グリーンフォレスト蔵前,,13,106,1110055,,,,,,,2023-04-26,1,,,,,インシル,0
309,2010803004517,新規,0,2023-04-26,2023-04-26,キズナオシ合同会社,,合同会社,東京都,大田区,仲池上１丁目４－７,,13,111,1460081,,,,,,,2023-04-26,1,,,,,キズナオシ,0
313,2010901052946,新規,0,2023-04-26,2023-04-26,株式会社ＴＫＭ,,株式会社,東京都,世田谷区,深沢４丁目３４番１７号,,13,112,1580081,,,,,,,2023-04-26,1,,,,,ティーケーエム,0
314,2010903008104,新規,0,2023-04-26,2023-04-26,合同会社Ａｘｅｌｅｒａｔｅ,,合同会社,東京都,世田谷区,北烏山３丁目１９―１５メゾン美鈴１０２,,13,112,1570061,,,,,,,2023-04-26,1,,,,,アクセラレート,0
326,2011101102665,新規,0,2023-04-26,2023-04-26,株式会社むすひさぽーと,,株式会社,東京都,新宿区,下落合３丁目６番２９－１０７号,,13,104,1610033,,,,,,,2023-04-26,1,,,,,ムスヒサポート,0
329,2011303004726,新規,0,2023-04-26,2023-04-26,合同会社Ｌｉｅｎ,,合同会社,東京都,杉並区,和泉２丁目３０番１２号１０５,,13,115,1680063,,,,,,,2023-04-26,1,,,,,リアン,0
338,2012801022310,新規,0,2023-04-26,2023-04-26,株式会社Ａｑｕａ　Ｃｈａｎｎｅｌ,,株式会社,東京都,立川市,錦町１丁目４－４サニービル２Ｆ,,13,202,1900022,,,,,,,2023-04-26,1,,,,,アクアチャンネル,0
347,2020003023713,新規,0,2023-04-26,2023-04-26,Ｔｒｕｓｔ　Ｙｏｕｒ　Ｃｒｅａｔｉｖｉｔｙ合同会社,,合同会社,神奈川県,横浜市緑区,三保町２１７５－１コンフォール三保５０２,,14,113,2260015,,,,,,,2023-04-26,1,,,,,トラストユアクリエイティビティー,0
349,2021001078848,新規,0,2023-04-26,2023-04-26,株式会社サザンビーチ,,株式会社,神奈川県,平塚市,紅谷町９番１２号アロー平塚３０番館３階,,14,203,2540043,,,,,,,2023-04-26,1,,,,,サザンビーチ,0
353,2021003013027,新規,0,2023-04-26,2023-04-26,ＦＥＲＮＡ合同会社,,合同会社,神奈川県,鎌倉市,七里ガ浜１丁目１１番２３号,,14,204,2480026,,,,,,,2023-04-26,1,,,,,フェルナ,0
361,2030001153478,新規,0,2023-04-26,2023-04-26,＿陽株式会社,00130269,株式会社,埼玉県,川口市,西青木１丁目１２番１１号,,11,203,3320035,,,,,,,2023-04-26,1,,,,,シンヨウ,0
362,2030001153627,新規,0,2023-04-26,2023-04-26,株式会社プロップスパーク,,株式会社,埼玉県,久喜市,久喜北２丁目２番１２号,,11,232,3460007,,,,,,,2023-04-26,1,,,,,プロップスパーク,0
363,2030003021600,新規,0,2023-04-26,2023-04-26,合同会社ＯＫＮ,,合同会社,埼玉県,三郷市,栄１丁目７９番地,,11,237,3410043,,,,,,,2023-04-26,1,,,,,オーケーエヌ,0
364,2030003021658,新規,0,2023-04-26,2023-04-26,合同会社ＫＭＷ,,合同会社,埼玉県,行田市,旭町１４番１４－１号,,11,206,3610074,,,,,,,2023-04-26,1,,,,,ケイエムダブリュウ,0
370,2040001128099,新規,0,2023-04-26,2023-04-26,株式会社Ｓａｌｕｔｏｎ,,株式会社,千葉県,松戸市,本町１７－１１,,12,207,2710091,,,,,,,2023-04-26,1,,,,,サルートン,0
371,2040001128124,新規,0,2023-04-26,2023-04-26,株式会社寺脇,,株式会社,千葉県,市川市,大野町４丁目２８５９番地７,,12,203,2720805,,,,,,,2023-04-26,1,,,,,テラワキ,0
372,2040001128140,新規,0,2023-04-26,2023-04-26,Ａ２株式会社,,株式会社,千葉県,松戸市,新松戸南２丁目３１９ハイツジュン１０５号室,,12,207,2700035,,,,,,,2023-04-26,1,,,,,エーツー,0
373,2040001128149,新規,0,2023-04-26,2023-04-26,アジアン絆株式会社,,株式会社,千葉県,市川市,妙典３丁目１５番１９号,,12,203,2720111,,,,,,,2023-04-26,1,,,,,アジアンキズナ,0
377,2050001052736,新規,0,2023-04-26,2023-04-26,株式会社ｓｕｎｍｉｌｅ,,株式会社,茨城県,神栖市,土合南１丁目５番２８－１号Ａ号室,,08,232,3140345,,,,,,,2023-04-26,1,,,,,サンマイル,0
387,2070003004923,新規,0,2023-04-26,2023-04-26,合同会社Ｄ＆Ｃリサイクル,,合同会社,群馬県,伊勢崎市,間野谷町９０番１,,10,204,3792201,,,,,,,2023-04-26,1,,,,,ディーアンドシーリサイクル,0
394,2080401026452,新規,0,2023-04-26,2023-04-26,株式会社ＳＰＲＩＮＧ　ＦＩＥＬＤ,,株式会社,静岡県,磐田市,大久保８８８番地７６,,22,211,4380002,,,,,,,2023-04-26,1,,,,,スプリングフィールド,0
397,2100003006940,新規,0,2023-04-26,2023-04-26,合同会社Ｃａｌｌａ,,合同会社,長野県,北安曇郡白馬村,大字北城２５５７－１,,20,485,3999301,,,,,,,2023-04-26,1,,,,,カラー,0
400,2110003005033,新規,0,2023-04-26,2023-04-26,合同会社スリーエヌ,,合同会社,新潟県,新潟市西区,亀貝字前田８８８番地,,15,107,9502033,,,,,,,2023-04-26,1,,,,,スリーエヌ,0
414,2120001254374,新規,0,2023-04-26,2023-04-26,株式会社ｙｕｔｈ,,株式会社,大阪府,大阪市北区,梅田１丁目２番２号大阪駅前第２ビル１２－１２,,27,127,5300001,,,,,,,2023-04-26,1,,,,,ユース,0
415,2120001254432,新規,0,2023-04-26,2023-04-26,株式会社イツキ電気,,株式会社,大阪府,大阪市福島区,海老江３丁目２４番４２号,,27,103,5530001,,,,,,,2023-04-26,1,,,,,イツキデンキ,0
416,2120001254440,新規,0,2023-04-26,2023-04-26,農豊貿易株式会社,,株式会社,大阪府,大阪市西区,南堀江４丁目３－１９ブライトゾーン南堀江３０５号室,,27,106,5500015,,,,,,,2023-04-26,1,,,,,ノウホウボウエキ,0
417,2120001254449,新規,0,2023-04-26,2023-04-26,ＷＩＮＴ株式会社,,株式会社,大阪府,大阪市東住吉区,北田辺５丁目２－４－７０２,,27,121,5460044,,,,,,,2023-04-26,1,,,,,ウィント,0
421,2120003023950,新規,0,2023-04-26,2023-04-26,合同会社ＲＵＡＬ,,合同会社,大阪府,大阪市西区,新町３丁目１－１７ジオ新町１５０３号室,,27,106,5500013,,,,,,,2023-04-26,1,,,,,ルアル,0
422,2120101067429,新規,0,2023-04-26,2023-04-26,株式会社ＡＶＥＮＴＡＨＯＬＤＩＮＧＳ,,株式会社,大阪府,和泉市,三林町３９－３,,27,219,5941112,,,,,,,2023-04-26,1,,,,,アヴェンタホールディングス,0
425,2122003002570,新規,0,2023-04-26,2023-04-26,合同会社Ｄａｄｄｙ’ｓ　ＢＡＳＥ大阪,,合同会社,大阪府,東大阪市,柏田西３丁目２番３１号,,27,227,5770835,,,,,,,2023-04-26,1,,,,,ダディーズベースオオサカ,0
428,2130001074185,新規,0,2023-04-26,2023-04-26,京都技商株式会社,,株式会社,京都府,宇治市,大久保町田原２６番地の６５,,26,204,6110033,,,,,,,2023-04-26,1,,,,,キョウトギショウ,0
441,2140001129921,新規,0,2023-04-26,2023-04-26,株式会社えべっさんカフェ,,株式会社,兵庫県,西宮市,小松南町１丁目６番６号,,28,204,6638124,,,,,,,2023-04-26,1,,,,,エベッサンカフェ,0
442,2140001129954,新規,0,2023-04-26,2023-04-26,株式会社ＭＡＲＯ,,株式会社,兵庫県,神戸市東灘区,御影中町３丁目２番４－３７１０号,,28,101,6580054,,,,,,,2023-04-26,1,,,,,マロ,0
443,2140001129979,新規,0,2023-04-26,2023-04-26,株式会社インフィニティ,,株式会社,兵庫県,神戸市中央区,磯辺通３丁目１番２号,,28,110,6510084,,,,,,,2023-04-26,1,,,,,インフィニティ,0
455,2180001156004,新規,0,2023-04-26,2023-04-26,株式会社Ｍクリーン,,株式会社,愛知県,名古屋市東区,白壁１丁目２１番地名東ビル２Ｂ,,23,102,4610011,,,,,,,2023-04-26,1,,,,,エムクリーン,0
469,2220001025377,新規,0,2023-04-26,2023-04-26,株式会社３０年後の未来総合研究所,,株式会社,石川県,能美市,和光台２丁目３５番地,,17,211,9231227,,,,,,,2023-04-26,1,,,,,サンジュウネンゴノミライソウゴウケンキュウショ,0
473,2240001061429,新規,0,2023-04-26,2023-04-26,株式会社Ｔｏｆｔ,,株式会社,広島県,福山市,横尾町１丁目１７－２９,,34,207,7200011,,,,,,,2023-04-26,1,,,,,トフト,0
479,2240003006118,新規,0,2023-04-26,2023-04-26,合同会社ＴＡＳＵＫＵ,,合同会社,広島県,廿日市市,宮内４２０８―１,,34,213,7380034,,,,,,,2023-04-26,1,,,,,タスク,0
481,2260001037897,新規,0,2023-04-26,2023-04-26,高寺商事株式会社,00130281,株式会社,岡山県,和気郡和気町,本３１番地１,,33,346,7090462,,,,,,,2023-04-26,1,,,,,タカテラショウジ,0
487,2280003001726,新規,0,2023-04-26,2023-04-26,ＮＳＤ合同会社,,合同会社,島根県,大田市,大田町大田イ２７５９番地２６,,32,205,6940064,,,,,,,2023-04-26,1,,,,,エヌエスディー,0
495,2290001101320,新規,0,2023-04-26,2023-04-26,株式会社辰貴,,株式会社,福岡県,福岡市東区,多の津５丁目２１番２０号,,40,131,8130034,,,,,,,2023-04-26,1,,,,,タツキ,0
496,2290001101329,新規,0,2023-04-26,2023-04-26,株式会社オレンジリングスタジオ,,株式会社,福岡県,福岡市博多区,対馬小路１２番３号,,40,132,8120020,,,,,,,2023-04-26,1,,,,,オレンジリングスタジオ,0
501,2290003013836,新規,0,2023-04-26,2023-04-26,合同会社オークソン,,合同会社,福岡県,福岡市早良区,大字脇山５１８番地１３,,40,137,8111111,,,,,,,2023-04-26,1,,,,,オークソン,0
502,2290003013844,新規,0,2023-04-26,2023-04-26,合同会社ＫＴＳ福岡,,合同会社,福岡県,糟屋郡久山町,大字久原１８４３番地２０５,,40,348,8112501,,,,,,,2023-04-26,1,,,,,ケイティエスフクオカ,0
520,2370005010625,新規,0,2023-04-26,2023-04-26,一般社団法人大和新しい風,,その他の設立登記法人,宮城県,塩竈市,錦町７番１８号,,04,203,9850024,,,,,,,2023-04-26,1,,,,,ヤマトアタラシイカゼ,0
527,2390005009005,新規,0,2023-04-26,2023-04-26,一般社団法人平和の夢,,その他の設立登記法人,山形県,米沢市,中央２丁目４番５号,,06,202,9920045,,,,,,,2023-04-26,1,,,,,ヘイワノユメ,0
529,2420001018237,新規,0,2023-04-26,2023-04-26,株式会社斉正組,,株式会社,青森県,弘前市,大字一野渡字西平山１３番地７,,02,202,0368134,,,,,,,2023-04-26,1,,,,,サイマサグミ,0
530,2420005007847,新規,0,2023-04-26,2023-04-26,医療法人三峰会,,その他の設立登記法人,青森県,弘前市,大字駅前３丁目３番７号ＡＫＩＭＯＴＯビル３階,,02,202,0368002,,,,,,,2023-04-26,1,,,,,サンポウカイ,0
535,2430001088766,新規,0,2023-04-26,2023-04-26,株式会社ＨｉＢｉＧＡ,,株式会社,北海道,札幌市東区,北二十六条東７丁目３番２３丸岡ビル１階,,01,103,0650026,,,,,,,2023-04-26,1,,,,,ヒビガ,0
536,2430001088923,新規,0,2023-04-26,2023-04-26,株式会社Ｈｏｋｋａｉｄｏ　ＳＰＡＣＥ　Ｗｉｎｅｒｙ,,株式会社,北海道,夕張郡長沼町,本町北１丁目１番地１,,01,428,0691333,,,,,,,2023-04-26,1,,,,,ホッカイドウスペースワイナリー,0
538,2430003014968,新規,0,2023-04-26,2023-04-26,合同会社５ａｕｒａ,,合同会社,北海道,苫小牧市,宮前町２丁目９番１７号,,01,213,0591264,,,,,,,2023-04-26,1,,,,,ゴーラ,0
540,2470003002408,新規,0,2023-04-26,2023-04-26,合同会社Ｇｒａｎｄｉｒ　Ｅｎｓｅｎｂｌｅ,,合同会社,香川県,丸亀市,魚屋町４４番地２,,37,202,7630006,,,,,,,2023-04-26,1,,,,,グランディアアンサンブル,0
543,2500001024895,新規,0,2023-04-26,2023-04-26,株式会社フードテック,,株式会社,愛媛県,宇和島市,寄松甲１３８５番地,,38,203,7980084,,,,,,,2023-04-26,1,,,,,フードテック,0
546,2700150115756,新規,0,2023-04-26,2023-04-26,武漢図浩科技有限公司,,外国会社等,,,,,,,,中国湖北省武漢市青山区中国一冶高新技術産業園（冶金大道１８０号）３棟４０８２室,,,,,,2023-04-26,1,,,,,ブカンズコウカギユウゲンコウシ,0
555,3010001234659,新規,0,2023-04-26,2023-04-26,株式会社アイヴィ不動産,,株式会社,東京都,中央区,日本橋茅場町２丁目１１番５号,,13,102,1030025,,,,,,,2023-04-26,1,,,,,アイヴィフドウサン,0
557,3010003040345,新規,0,2023-04-26,2023-04-26,ＭＩＹＡＫＯ　Ｇｌｏｂａｌ合同会社,,合同会社,東京都,中央区,日本橋３丁目２番１４号新槇町ビル別館第一２階,,13,102,1030027,,,,,,,2023-04-26,1,,,,,ミヤコグローバル,0
558,3010003040452,新規,0,2023-04-26,2023-04-26,Ｓａｋｕｒａ３合同会社,,合同会社,東京都,中央区,日本橋３丁目９番１号日本橋三丁目スクエア１１階,,13,102,1030027,,,,,,,2023-04-26,1,,,,,サクラサン,0
567,3010401173952,新規,0,2023-04-26,2023-04-26,ｗｉｚＯｎＣｈａｉｎ株式会社,,株式会社,東京都,港区,高輪３丁目２３－１７品川センタービルディング４Ｆ,,13,103,1080074,,,,,,,2023-04-26,1,,,,,ウィズオンチェイン,0
575,3010501050325,新規,0,2023-04-26,2023-04-26,福屋株式会社,,株式会社,東京都,台東区,上野６丁目７－１６川久保ビル５０７号室,,13,106,1100005,,,,,,,2023-04-26,1,,,,,フクヤ,0
576,3010501050366,新規,0,2023-04-26,2023-04-26,嘉崎国際株式会社,,株式会社,東京都,台東区,東上野５丁目７番３号セブンスタ－マンション５０４号室,,13,106,1100015,,,,,,,2023-04-26,1,,,,,カザキコクサイ,0
577,3010503006969,新規,0,2023-04-26,2023-04-26,ＢＬＡＣＫＢＩＲＤ　ＪＡＰＡＮ合同会社,,合同会社,東京都,台東区,上野３丁目１６番２号天翔上野末広町ビル４階４０６号室,,13,106,1100005,,,,,,,2023-04-26,1,,,,,ブラックバードジャパン,0
585,3010801033888,新規,0,2023-04-26,2023-04-26,株式会社ＵｎｌｅａｓｈＵ,,株式会社,東京都,大田区,蒲田４丁目１９－５,,13,111,1440052,,,,,,,2023-04-26,1,,,,,アンリーシュ,0
596,3011001154062,新規,0,2023-04-26,2023-04-26,玖玖株式会社,,株式会社,東京都,渋谷区,東３丁目１６番１０号三浦ビル５０１号室,,13,113,1500011,,,,,,,2023-04-26,1,,,,,キュウキュウ,0
597,3011001154070,新規,0,2023-04-26,2023-04-26,株式会社おおさこ,,株式会社,東京都,渋谷区,恵比寿西２丁目１７－１７Ｂ１Ｆ,,13,113,1500021,,,,,,,2023-04-26,1,,,,,オオサコ,0
598,3011001154079,新規,0,2023-04-26,2023-04-26,Ｒｅ・Ｌａｎｄ株式会社,,株式会社,東京都,渋谷区,初台２丁目２７番５号,,13,113,1510061,,,,,,,2023-04-26,1,,,,,リランド,0
602,3011101102664,新規,0,2023-04-26,2023-04-26,株式会社ＰＳＪＧ,,株式会社,東京都,新宿区,赤城下町２９番地,,13,104,1620803,,,,,,,2023-04-26,1,,,,,ピーエスジェージー,0
605,3011201024610,新規,0,2023-04-26,2023-04-26,株式会社パントナ,,株式会社,東京都,中野区,中央３丁目６番７号ハーモニーレジデンス中野坂上１０３,,13,114,1640011,,,,,,,2023-04-26,1,,,,,パントナ,0
612,3011501029210,新規,0,2023-04-26,2023-04-26,ＤＳＬＪＡＰＡＮ株式会社,,株式会社,東京都,荒川区,西日暮里５丁目３３番３号横地ビル１階,,13,118,1160013,,,,,,,2023-04-26,1,,,,,ディーエスエルジャパン,0
615,3011603003906,新規,0,2023-04-26,2023-04-26,合同会社Ｆｋｍｓ,,合同会社,東京都,練馬区,石神井台８丁目２６番５号２Ｆ,,13,120,1770045,,,,,,,2023-04-26,1,,,,,エフケーエムエス,0
618,3012701017624,新規,0,2023-04-26,2023-04-26,株式会社アーストラスト,,株式会社,東京都,東久留米市,柳窪２丁目１６番９号,,13,222,2030044,,,,,,,2023-04-26,1,,,,,アーストラスト,0
623,3020001151309,新規,0,2023-04-26,2023-04-26,株式会社八熊設備,,株式会社,神奈川県,横浜市青葉区,新石川４丁目３３番地３,,14,117,2250003,,,,,,,2023-04-26,1,,,,,ヤグマセツビ,0
629,3021001078863,新規,0,2023-04-26,2023-04-26,株式会社ティーズ,,株式会社,神奈川県,大和市,下和田８０３－３,,14,213,2420015,,,,,,,2023-04-26,1,,,,,ティーズ,0
633,3021003013034,新規,0,2023-04-26,2023-04-26,合同会社アクア,,合同会社,神奈川県,大和市,福田７丁目１２番地４０,,14,213,2420024,,,,,,,2023-04-26,1,,,,,アクア,0
646,3030001153568,新規,0,2023-04-26,2023-04-26,ＯＴＴ株式会社,,株式会社,埼玉県,蕨市,南町３丁目２８番１０号,,11,223,3350003,,,,,,,2023-04-26,1,,,,,,0
647,3030001153576,新規,0,2023-04-26,2023-04-26,＿華株式会社,00130274,株式会社,埼玉県,草加市,柿木町４４８番地１,,11,221,3400001,,,,,,,2023-04-26,1,,,,,シンカ,0
658,3040003022489,新規,0,2023-04-26,2023-04-26,合同会社ＶＮＫ　Ｅｘｐｒｅｓｓ,,合同会社,千葉県,八千代市,上高野１３３２番地９３,,12,221,2760022,,,,,,,2023-04-26,1,,,,,ブイエヌケーエクスプレス,0
662,3050001052751,新規,0,2023-04-26,2023-04-26,株式会社ティー＆ケー,,株式会社,茨城県,取手市,米ノ井４８４番地３,,08,217,3020033,,,,,,,2023-04-26,1,,,,,ティーアンドケー,0
678,3080101023955,新規,0,2023-04-26,2023-04-26,株式会社ぴかいち,,株式会社,静岡県,富士市,岩淵１４５１番地の１ベル・アンジュ１０５号,,22,210,4213305,,,,,,,2023-04-26,1,,,,,ピカイチ,0
694,3120001254349,新規,0,2023-04-26,2023-04-26,シンフォニックスリール株式会社,,株式会社,大阪府,大阪市中央区,平野町３丁目１番８号プロスパー平野町２０４,,27,128,5410046,,,,,,,2023-04-26,1,,,,,シンフォニックスリール,0
695,3120001254381,新規,0,2023-04-26,2023-04-26,Ａｉｍｉｎｇ株式会社,,株式会社,大阪府,大阪市大正区,三軒家西３丁目４番１６号中山ビル３０７Ｂ,,27,108,5510001,,,,,,,2023-04-26,1,,,,,エーミング,0
696,3120001254415,新規,0,2023-04-26,2023-04-26,株式会社賢材社,,株式会社,大阪府,大阪市淀川区,宮原１丁目１９番１０号新大阪エクセルビル４０４,,27,123,5320003,,,,,,,2023-04-26,1,,,,,ケンザイシャ,0
697,3120001254431,新規,0,2023-04-26,2023-04-26,株式会社モモヤコネクト,,株式会社,大阪府,大阪市生野区,勝山北１丁目１１番３９号,,27,116,5440033,,,,,,,2023-04-26,1,,,,,モモヤコネクト,0
698,3120001254448,新規,0,2023-04-26,2023-04-26,ＡＶＥＲＥＥＬ株式会社,,株式会社,大阪府,大阪市中央区,淡路町１丁目６－９－８Ｆ,,27,128,5410047,,,,,,,2023-04-26,1,,,,,アビリル,0
702,3120003023900,新規,0,2023-04-26,2023-04-26,合同会社クチュメイク,,合同会社,大阪府,大阪市福島区,海老江１丁目８番１５－７０１号,,27,103,5530001,,,,,,,2023-04-26,1,,,,,クチュメイク,0
708,3122001036917,新規,0,2023-04-26,2023-04-26,株式会社ＫＯＵＥＩ　ＴＥＣ,,株式会社,大阪府,東大阪市,菱江３丁目５番５号,,27,227,5780984,,,,,,,2023-04-26,1,,,,,コウエイテック,0
720,3130003008693,新規,0,2023-04-26,2023-04-26,合同会社ＡＨＭ,,合同会社,京都府,京都市下京区,七条通油小路東入大黒町２２７番地第２キョートビル４０２,,26,106,6008223,,,,,,,2023-04-26,1,,,,,エーエイチエム,0
726,3140005026585,新規,0,2023-04-26,2023-04-26,労働者協同組合保険相談センター,,その他の設立登記法人,兵庫県,神戸市垂水区,東舞子町１５番２５－１０１号,,28,108,6550047,,,,,,,2023-04-26,1,,,,,ホケンソウダンセンター,0
728,3150001026340,新規,0,2023-04-26,2023-04-26,株式会社二和機械ＪＡＰＡＮ,,株式会社,奈良県,北葛城郡王寺町,舟戸１丁目５番３１号まさごマンションＢ棟２０１号室,,29,425,6360001,,,,,,,2023-04-26,1,,,,,ニワキカイジャパン,0
729,3150005009473,新規,0,2023-04-26,2023-04-26,一般社団法人ちきゅうかぞく村,,その他の設立登記法人,奈良県,生駒郡斑鳩町,目安４丁目５－７,,29,344,6360132,,,,,,,2023-04-26,1,,,,,チキュカゾクムラ,0
731,3160005011189,新規,0,2023-04-26,2023-04-26,一般社団法人滋賀県医療ソーシャルワーカー協会,,その他の設立登記法人,滋賀県,草津市,笠山７丁目８番１３８号,,25,206,5250072,,,,,,,2023-04-26,1,,,,,シガケンイリョウソーシャルワーカーキョウカイ,0
738,3180001155970,新規,0,2023-04-26,2023-04-26,ＨＡＵＳ株式会社,,株式会社,愛知県,瀬戸市,山口町２５３番地,,23,204,4890865,,,,,,,2023-04-26,1,,,,,ハウス,0
744,3180303005691,新規,0,2023-04-26,2023-04-26,合同会社ＣｏｒＳａｎａひろみ式ボディケア協会,,合同会社,愛知県,岡崎市,井ノ口新町２番地１１,,23,202,4442132,,,,,,,2023-04-26,1,,,,,コルサナヒロミシキボディケアキョウカイ,0
751,3200001041235,新規,0,2023-04-26,2023-04-26,株式会社創夢建装,,株式会社,岐阜県,岐阜市,川部６丁目４８番地５,,21,201,5011151,,,,,,,2023-04-26,1,,,,,ソウムケンソウ,0
759,3250001020069,新規,0,2023-04-26,2023-04-26,株式会社ティー・アスク,,株式会社,山口県,宇部市,黒石北２丁目４番７－６号,,35,202,7590213,,,,,,,2023-04-26,1,,,,,ティーアスク,0
774,3290801029495,新規,0,2023-04-26,2023-04-26,株式会社ＡＳＰ総合メンテナンス,,株式会社,福岡県,北九州市八幡西区,穴生１丁目７番２号秋山アパート１０３号室,,40,109,8060049,,,,,,,2023-04-26,1,,,,,エーエスピーソウゴウメンテナンス,0
779,3310001018387,新規,0,2023-04-26,2023-04-26,５ｔｏＵ株式会社,,株式会社,長崎県,長崎市,三原１丁目７番３２号,,42,201,8528123,,,,,,,2023-04-26,1,,,,,ファイブトゥユー,0
780,3310003004559,新規,0,2023-04-26,2023-04-26,ＢｕｎｋｏｕＦａｒｍｓ島原合同会社,,合同会社,長崎県,島原市,広高野町甲９６７番地,,42,203,8550024,,,,,,,2023-04-26,1,,,,,ブンコウファームシマバラ,0
783,3320005010075,新規,0,2023-04-26,2023-04-26,一般社団法人佐伯市ベースボールイノベーション協会,,その他の設立登記法人,大分県,佐伯市,蒲江大字竹野浦河内５５９番地２,,44,205,8762301,,,,,,,2023-04-26,1,,,,,サイキシベースボールイノベーションキョウカイ,0
793,3360001031930,新規,0,2023-04-26,2023-04-26,株式会社みらいのタネ,,株式会社,沖縄県,那覇市,真嘉比３丁目２番１０号ジャイロ古島５０１,,47,201,9020068,,,,,,,2023-04-26,1,,,,,ミライノタネ,0
798,3360003012920,新規,0,2023-04-26,2023-04-26,合同会社レガーレ,,合同会社,沖縄県,島尻郡八重瀬町,字具志頭２０１番地,,47,362,9010512,,,,,,,2023-04-26,1,,,,,レガーレ,0
800,3370001049889,新規,0,2023-04-26,2023-04-26,Ａ＆Ｎ　ＴＲＡＤＩＮＧ株式会社,,株式会社,宮城県,仙台市太白区,八木山松波町２番２１号アカデミックハイツ２０１,,04,104,9820836,,,,,,,2023-04-26,1,,,,,エーアンドエヌトレーディング,0
808,3400001016225,新規,0,2023-04-26,2023-04-26,福寿興産株式会社,,株式会社,岩手県,花巻市,四日町２丁目３番３０号,,03,205,0250072,,,,,,,2023-04-26,1,,,,,フクジュコウサン,0
810,3430001088914,新規,0,2023-04-26,2023-04-26,株式会社エムズガード,,株式会社,北海道,札幌市白石区,米里三条１丁目１０番２７号,,01,104,0030873,,,,,,,2023-04-26,1,,,,,エムズガード,0
811,3430001088922,新規,0,2023-04-26,2023-04-26,株式会社Ｈｏｋｋａｉｄｏ　ＳＰＡＣＥ　Ｖｉｎｅｙａｒｄ,,株式会社,北海道,夕張郡長沼町,本町北１丁目１番地１,,01,428,0691333,,,,,,,2023-04-26,1,,,,,ホッカイドウスペースヴィンヤード,0
814,3470003002407,新規,0,2023-04-26,2023-04-26,合同会社ＪＵ‐ＪＡＰＡＮ,,合同会社,香川県,仲多度郡多度津町,堀江３丁目５番１５号,,37,404,7640021,,,,,,,2023-04-26,1,,,,,ジェイユージャパン,0
817,3500001024894,新規,0,2023-04-26,2023-04-26,株式会社ステージ・オン,,株式会社,愛媛県,伊予郡松前町,大字西古泉５７５番地１,,38,401,7913134,,,,,,,2023-04-26,1,,,,,ステージオン,0
818,3700150115739,新規,0,2023-04-26,2023-04-26,ＳＨＥＮＺＨＥＮＳＨＡＮＧＪＩＡＭＥＩＰＩＮＤＩＡＮＺＩＳＨＡＮＧＷＵＹＯＵＸＩＡＮＧＯＮＧＳＩ,,外国会社等,,,,,,,,Ｌｏｎｇｇａｎｇｑｕｊｉｈｕａｊｉｅｄａｏｌｉｈｕｓｈｅｑｕ　Ｌｉｈｕｈｕａｙｕａｎ２８ｄｏｎｇｈｕｘｉｕｇｅ８Ｅ　Ｓｈｅｎｚｈｅｎ　Ｇｕａｎｇｄｏｎｇ　５１８０００　ＣＮ,,,,,,2023-04-26,1,,,,,シェンジェンシャンジャーメイピンディエンズーシャンウーヨウシエンゴンスー,0
819,3700150115755,新規,0,2023-04-26,2023-04-26,湖北凝輝商貿有限公司,,外国会社等,,,,,,,,中国湖北省随州市曽都区神龍公園市民中心四楼曽都区貝貝商務工作室,,,,,,2023-04-26,1,,,,,コホクギヨウキシヨウボウユウゲンコウシ,0
826,4010001234798,新規,0,2023-04-26,2023-04-26,株式会社ＩＤＥ　ＰＲＯＪＥＣＴ,,株式会社,東京都,千代田区,丸の内２丁目５番１号丸の内二丁目ビル,,13,101,1000005,,,,,,,2023-04-26,1,,,,,イデプロジェクト,0
843,4010601063003,新規,0,2023-04-26,2023-04-26,昇鵬株式会社,,株式会社,東京都,墨田区,押上１丁目１５番２－４０２号,,13,107,1310045,,,,,,,2023-04-26,1,,,,,ショウホウ,0
849,4010803004523,新規,0,2023-04-26,2023-04-26,セカンドフード合同会社,,合同会社,東京都,大田区,西蒲田７丁目６７番１２号三晃ＶＩビル３階,00130272,13,111,1440051,,,,,,,2023-04-26,1,,,,,セカンドフード,0
855,4011001154053,新規,0,2023-04-26,2023-04-26,株式会社ｓｕｋｉ,,株式会社,東京都,渋谷区,宇田川町１番１２－１６０５号,,13,113,1500042,,,,,,,2023-04-26,1,,,,,スキ,0
856,4011003016714,新規,0,2023-04-26,2023-04-26,アニューマ合同会社,,合同会社,東京都,渋谷区,渋谷２丁目１９－１５宮益坂ビルディング６０９,,13,113,1500002,,,,,,,2023-04-26,1,,,,,アニューマ,0
866,4011103012992,新規,0,2023-04-26,2023-04-26,合同会社高野デザイン研究室,,合同会社,東京都,新宿区,西新宿３丁目５番３－３１８号,,13,104,1600023,,,,,,,2023-04-26,1,,,,,タカノデザインケンキュウシツ,0
869,4011301028667,新規,0,2023-04-26,2023-04-26,株式会社トライアス,,株式会社,東京都,杉並区,西荻北２丁目２番１４号第二喜志コーポ５０５,,13,115,1670042,,,,,,,2023-04-26,1,,,,,,0
872,4011501029226,新規,0,2023-04-26,2023-04-26,翔鵬株式会社,,株式会社,東京都,荒川区,南千住２丁目１６番９－３０１号,,13,118,1160003,,,,,,,2023-04-26,1,,,,,ショウホウ,0
875,4011603003905,新規,0,2023-04-26,2023-04-26,合同会社ヒロシ,,合同会社,東京都,練馬区,南大泉３丁目３１番２０号井口ビル３０２,,13,120,1780064,,,,,,,2023-04-26,1,,,,,ヒロシ,0
887,4012701017623,新規,0,2023-04-26,2023-04-26,Ｃｒｅａｔｉｖｅ　Ｗｉｚａｒｄｓ株式会社,,株式会社,東京都,西東京市,泉町６丁目４番３号１Ｆ,,13,229,2020011,,,,,,,2023-04-26,1,,,,,クリエイティブウィザーズ,0
889,4013103001224,新規,0,2023-04-26,2023-04-26,ＡＳＵＫＡ合同会社,,合同会社,東京都,福生市,大字福生８８７番地２山上ビル３０３号,,13,218,1970011,,,,,,,2023-04-26,1,,,,,アスカ,0
892,4013301050650,新規,0,2023-04-26,2023-04-26,株式会社アンビションエージェンシー,,株式会社,東京都,豊島区,東池袋３丁目４─３,,13,116,1700013,,,,,,,2023-04-26,1,,,,,アンビションエージェンシー,0
898,4020001151159,新規,0,2023-04-26,2023-04-26,株式会社ブレイマルシェ,,株式会社,神奈川県,川崎市川崎区,日ノ出１丁目１２番８号１階,,14,131,2100824,,,,,,,2023-04-26,1,,,,,ブレイマルシェ,0
899,4020001151316,新規,0,2023-04-26,2023-04-26,ＣＩＡＨ　Ｊａｐａｎ株式会社,,株式会社,神奈川県,川崎市川崎区,砂子２丁目１－７太陽軒ビル５階,,14,131,2100006,,,,,,,2023-04-26,1,,,,,シーアイエーエイチジャパン,0
900,4020001151324,新規,0,2023-04-26,2023-04-26,ネイルパートナー横浜株式会社,,株式会社,神奈川県,横浜市神奈川区,鶴屋町３丁目３１－５久保田ビル７Ｆ,,14,102,2210835,,,,,,,2023-04-26,1,,,,,ネイルパートナーヨコハマ,0
904,4020003023760,新規,0,2023-04-26,2023-04-26,合同会社ＡＬＥ,,合同会社,神奈川県,川崎市麻生区,高石１丁目６‐２１‐１,,14,137,2150003,,,,,,,2023-04-26,1,,,,,エイエルイー,0
905,4020003023777,新規,0,2023-04-26,2023-04-26,ＭＧ合同会社,,合同会社,神奈川県,横浜市西区,浅間町１丁目４番３号ウィザードビル４０２,,14,103,2200072,,,,,,,2023-04-26,1,,,,,エムジー,0
912,4021001078862,新規,0,2023-04-26,2023-04-26,株式会社トラストハート,,株式会社,神奈川県,大和市,福田３３４５番地１１,,14,213,2420024,,,,,,,2023-04-26,1,,,,,トラストハート,0
916,4021003013033,新規,0,2023-04-26,2023-04-26,合同会社エル,,合同会社,神奈川県,座間市,相模が丘３丁目６３番３７号,,14,216,2520001,,,,,,,2023-04-26,1,,,,,エル,0
925,4030001153427,新規,0,2023-04-26,2023-04-26,株式会社トレジャーアイランド,,株式会社,埼玉県,熊谷市,久下３丁目１３７番地５,,11,202,3600026,,,,,,,2023-04-26,1,,,,,トレジャーアイランド,0
926,4030001153559,新規,0,2023-04-26,2023-04-26,株式会社八潮室内装飾,,株式会社,埼玉県,八潮市,八潮７丁目１７番地２０,,11,234,3400815,,,,,,,2023-04-26,1,,,,,,0
927,4030001153583,新規,0,2023-04-26,2023-04-26,株式会社Ｄｉｆｅ,,株式会社,埼玉県,三郷市,新和１丁目４２８番地,,11,237,3410034,,,,,,,2023-04-26,1,,,,,ダイフ,0
932,4030003021648,新規,0,2023-04-26,2023-04-26,ｄｙｃｅ合同会社,,合同会社,埼玉県,川口市,川口１丁目９番２２－９０１号,,11,203,3320015,,,,,,,2023-04-26,1,,,,,ダイス,0
944,4040001128130,新規,0,2023-04-26,2023-04-26,株式会社Ｗａｇわん,,株式会社,千葉県,流山市,南流山１丁目２１番地の８,,12,220,2700163,,,,,,,2023-04-26,1,,,,,ワグワン,0
945,4040001128139,新規,0,2023-04-26,2023-04-26,金子建設工業株式会社,,株式会社,千葉県,柏市,藤ケ谷５３４番地２,,12,217,2770931,,,,,,,2023-04-26,1,,,,,カネコケンセツコウギョウ,0
948,4040003022463,新規,0,2023-04-26,2023-04-26,グリーンコーポレーション合同会社,,合同会社,千葉県,船橋市,前原東６丁目１２－１４,,12,204,2740824,,,,,,,2023-04-26,1,,,,,グリーンコーポレーション,0
949,4040003022471,新規,0,2023-04-26,2023-04-26,ＧｏｖｖｉＪａｐａｎ合同会社,,合同会社,千葉県,千葉市緑区,あすみが丘２丁目１番４号花澤ビルディング４Ｆ,,12,105,2670066,,,,,,,2023-04-26,1,,,,,ゴビージャパン,0
950,4040005021975,新規,0,2023-04-26,2023-04-26,医療法人社団清成会,,その他の設立登記法人,千葉県,松戸市,新松戸３丁目１３５番地エム・フォレストビル３階,,12,207,2700034,,,,,,,2023-04-26,1,,,,,セイセイカイ,0
967,4070001040373,新規,0,2023-04-26,2023-04-26,株式会社デンタル・ギルド・アート,,株式会社,群馬県,高崎市,稲荷町１２番地２８,,10,202,3700062,,,,,,,2023-04-26,1,,,,,,0
968,4070005010100,新規,0,2023-04-26,2023-04-26,一般社団法人日本国際貿易輸出入協会,,その他の設立登記法人,群馬県,伊勢崎市,八斗島町１５９７－２,,10,204,3720827,,,,,,,2023-04-26,1,,,,,ニホンコクサイボウエキユシュツニュウキョウカイ,0
969,4070005010117,新規,0,2023-04-26,2023-04-26,一般社団法人伊香保温泉,,その他の設立登記法人,群馬県,渋川市,伊香保町伊香保４５番地,,10,208,3770102,,,,,,,2023-04-26,1,,,,,イカホオンセン,0
972,4080101023954,新規,0,2023-04-26,2023-04-26,株式会社彩と将,,株式会社,静岡県,下田市,柿崎３番８号,,22,219,4150013,,,,,,,2023-04-26,1,,,,,アヤトショウ,0
973,4080103002790,新規,0,2023-04-26,2023-04-26,ＮＫコンサルタント合同会社,,合同会社,静岡県,伊東市,富戸９８０番地の１６４,,22,208,4130231,,,,,,,2023-04-26,1,,,,,エヌケイコンサルタント,0
987,4120001253977,新規,0,2023-04-26,2023-04-26,株式会社ザルワワ,,株式会社,大阪府,大阪市住之江区,安立２丁目１０番１４号三坂ビル２０５号室,,27,125,5590003,,,,,,,2023-04-26,1,,,,,ザルワワ,0
988,4120001254240,新規,0,2023-04-26,2023-04-26,株式会社ＳＡＫＩＹＯＭＩ,,株式会社,大阪府,大阪市北区,茶屋町６番２３号茶屋町ＴＡＴＳＵＭＩビル７０５,,27,127,5300013,,,,,,,2023-04-26,1,,,,,サキヨミ,0
989,4120001254397,新規,0,2023-04-26,2023-04-26,株式会社大川建設,,株式会社,大阪府,枚方市,春日西町４番１６号,,27,210,5730000,,,,,,,2023-04-26,1,,,,,オオカワケンセツ,0
990,4120001254414,新規,0,2023-04-26,2023-04-26,株式会社トラスタ,,株式会社,大阪府,大阪市北区,大淀中４丁目８－３－５０３,,27,127,5310076,,,,,,,2023-04-26,1,,,,,トラスタ,0
991,4120001254439,新規,0,2023-04-26,2023-04-26,栄浩株式会社,,株式会社,大阪府,大阪市港区,池島３丁目１０－１１船田マンション５０３室,,27,107,5520015,,,,,,,2023-04-26,1,,,,,エイコウ,0
998,4120003023924,新規,0,2023-04-26,2023-04-26,合同会社アニー,,合同会社,大阪府,枚方市,藤阪東町３丁目２番２－４０３号,,27,210,5730153,,,,,,,2023-04-26,1,,,,,アニー,0
1002,4120101067443,新規,0,2023-04-26,2023-04-26,ＹＳＢ管理株式会社,,株式会社,大阪府,羽曳野市,恵我之荘６丁目９－６,,27,222,5830886,,,,,,,2023-04-26,1,,,,,ワイエスビーカンリ,0
1003,4122001036916,新規,0,2023-04-26,2023-04-26,株式会社Ｍ‐ｓｐｒａｙ,,株式会社,大阪府,東大阪市,森河内東２丁目１７番１２号,,27,227,5770062,,,,,,,2023-04-26,1,,,,,エムスプレー,0
1004,4122003002569,新規,0,2023-04-26,2023-04-26,Ｏｐｐｏｒｔｕｎｉｔｙ合同会社,,合同会社,大阪府,八尾市,安中町３丁目２番３９－７２４号,,27,212,5810085,,,,,,,2023-04-26,1,,,,,オポチュニティ,0
1018,4140003019029,新規,0,2023-04-26,2023-04-26,合同会社ＴＡＭＡＴＡＮ　ＣＯＭＰＡＮＹ,,合同会社,兵庫県,神戸市北区,西大池２丁目１２番１－７０３,,28,109,6511201,,,,,,,2023-04-26,1,,,,,タマタンカンパニー,0
1030,4180001156019,新規,0,2023-04-26,2023-04-26,株式会社ハッピーシニア,,株式会社,愛知県,名古屋市名東区,牧の里３丁目１０４番地の２,,23,115,4650068,,,,,,,2023-04-26,1,,,,,ハッピーシニア,0
1061,4250001020068,新規,0,2023-04-26,2023-04-26,株式会社アイムウェルネス,,株式会社,山口県,岩国市,通津２５６３番地,,35,208,7400044,,,,,,,2023-04-26,1,,,,,アイムウェルネス,0
1062,4250003003260,新規,0,2023-04-26,2023-04-26,ｐｌａｉｓｉｒ合同会社,,合同会社,山口県,岩国市,今津町１丁目１５－２ポレスター岩国７０１,,35,208,7400017,,,,,,,2023-04-26,1,,,,,プラジール,0
1064,4260001037895,新規,0,2023-04-26,2023-04-26,株式会社ＳＫＩＳ,,株式会社,岡山県,赤磐市,西窪田５３４番地２,,33,213,7012224,,,,,,,2023-04-26,1,,,,,スキーズ,0
1080,4290001101319,新規,0,2023-04-26,2023-04-26,株式会社ＦＮ通信,,株式会社,福岡県,嘉麻市,漆生８９４番地９,,40,227,8200201,,,,,,,2023-04-26,1,,,,,エフエヌツウシン,0
1086,4290003013842,新規,0,2023-04-26,2023-04-26,Ｌａｖｏ　Ｆｕｋｕｏｋａ合同会社,,合同会社,福岡県,福岡市博多区,竹下１丁目１８番２５－６０４号フレックス博多Ｖ,00130270,40,132,8120895,,,,,,,2023-04-26,1,,,,,ラボフクオカ,0
1088,4290801029494,新規,0,2023-04-26,2023-04-26,株式会社モコちゃんカー,,株式会社,福岡県,田川市,大字伊加利２１８８番地１,,40,206,8250001,,,,,,,2023-04-26,1,,,,,モコチャンカー,0
1089,4290803004405,新規,0,2023-04-26,2023-04-26,合同会社大心,,合同会社,福岡県,直方市,知古１丁目８番１３号カーサ宮ノ前Ａ－１０２号,,40,204,8220022,,,,,,,2023-04-26,1,,,,,ダイシン,0
1092,4310001018386,新規,0,2023-04-26,2023-04-26,Ｈａｂｉｂａ株式会社,,株式会社,長崎県,佐世保市,山県町１番２５号,,42,202,8570878,,,,,,,2023-04-26,1,,,,,ハビバ,0
1093,4320001019714,新規,0,2023-04-26,2023-04-26,株式会社ＲＵＫＵエージェンシー,,株式会社,大分県,大分市,西大道３丁目２番７６号,,44,201,8700820,,,,,,,2023-04-26,1,,,,,ルクエージェンシー,0
1094,4320001019722,新規,0,2023-04-26,2023-04-26,株式会社廣吉,,株式会社,大分県,大分市,横尾東町４丁目１４番３０号ｈａｋｏｔｏｔｕｔｕｙｏｋｏｏ９号室,,44,201,8700130,,,,,,,2023-04-26,1,,,,,ヒロヨシ,0
1095,4320005010074,新規,0,2023-04-26,2023-04-26,ＮＰＯ法人中津外国人共生支援協会,,その他の設立登記法人,大分県,中津市,塩町１１１３番地２,,44,203,8710073,,,,,,,2023-04-26,1,,,,,ナカツガイコクジンキョウセイシエンキョウカイ,0
1101,4350001018317,新規,0,2023-04-26,2023-04-26,株式会社ストラステージ,,株式会社,宮崎県,宮崎市,佐土原町東上那珂１８１７７番地,,45,201,8800303,,,,,,,2023-04-26,1,,,,,ストラステージ,0
1105,4350003004348,新規,0,2023-04-26,2023-04-26,合同会社Ｂｕｄｄｙ　Ｃｏ．,,合同会社,宮崎県,宮崎市,橘通東４丁目６番２７号,,45,201,8800805,,,,,,,2023-04-26,1,,,,,バディカンパニー,0
1109,4370001049888,新規,0,2023-04-26,2023-04-26,株式会社佐藤建設,,株式会社,宮城県,大崎市,岩出山字浦小路４０番地６、２Ｆ,,04,215,9896435,,,,,,,2023-04-26,1,,,,,サトウケンセツ,0
1123,4400001016224,新規,0,2023-04-26,2023-04-26,株式会社ｒｅａｔｏｒｅ,,株式会社,岩手県,一関市,字北＿＿３９番地１トゥー・ル・モンドＢ５,00130283,03,209,0210814,,,,,,,2023-04-26,1,,,,,リアトレ,0
1126,4420001018235,新規,0,2023-04-26,2023-04-26,衆誠産業株式会社,,株式会社,青森県,三戸郡三戸町,大字梅内字竹林１４８番地１,,02,441,0390112,,,,,,,2023-04-26,1,,,,,ジュウセイサンギョウ,0
1127,4420003002708,新規,0,2023-04-26,2023-04-26,合同会社クララス,,合同会社,青森県,青森市,浪岡福田１丁目１１番地１１,,02,201,0381306,,,,,,,2023-04-26,1,,,,,クララス,0
1131,4430003014958,新規,0,2023-04-26,2023-04-26,合同会社銀河,,合同会社,北海道,札幌市東区,北三十八条東３丁目２番１号,,01,103,0070838,,,,,,,2023-04-26,1,,,,,ギンガ,0
1132,4430003014974,新規,0,2023-04-26,2023-04-26,合同会社ＤｏｐｅＣｏｄｅｓ,,合同会社,北海道,札幌市白石区,菊水三条１丁目２－１４ハイデンス菊水Ｂ１０２,,01,104,0030803,,,,,,,2023-04-26,1,,,,,ドープコーズ,0
1137,4480001012083,新規,0,2023-04-26,2023-04-26,株式会社ＰＡＬＥＸ,,株式会社,徳島県,徳島市,南田宮４丁目４番４６－７号,,36,201,7700004,,,,,,,2023-04-26,1,,,,,パレックス,0
1143,4700150115738,新規,0,2023-04-26,2023-04-26,ＳｈｅｎＺｈｅｎＳｈｉＷｅｉＬｉＨｕａＭａｏＹｉＹｏｕＸｉａｎＧｏｎｇＳｉ,,外国会社等,,,,,,,,ｓｈｅｎｚｈｅｎｓｈｉ　ｌｏｎｇｇａｎｇｑｕ　ｐｉｎｇｈｕｊｉｅｄａｏ　ｐｉｎｇｈｕｓｈｅｑｕ　ｍｉｎｌｅｌｕ　１２ｈａｏ　Ｃ　ｄｏｎｇ　３０２,,,,,,2023-04-26,1,,,,,シェンジェンシーウェイリーフワーマオイーヨウシエンゴンスー,0
1144,4700150115754,新規,0,2023-04-26,2023-04-26,厦門＿綉セイ電子商務有限公司,00130261,外国会社等,,,,,,,,中国厦門市湖里区レイ南里３０号１２０２室,,,,,,2023-04-26,1,,,,,アモイケイシユウセイデンシシヨウムユウゲンコウシ,0
1162,5010001234806,新規,0,2023-04-26,2023-04-26,八丈島麦酒株式会社,,株式会社,東京都,八丈島八丈町,中之郷２６１６番地７,,13,401,1001623,,,,,,,2023-04-26,1,,,,,ハチジョウジマバクシュ,0
1163,5010001234863,新規,0,2023-04-26,2023-04-26,株式会社ＣＨＣＰコーポレートソリューションズ,,株式会社,東京都,千代田区,丸の内１丁目８番１号,,13,101,1000005,,,,,,,2023-04-26,1,,,,,シーエイチシーピーコーポレートソリューションズ,0
1168,5010003040442,新規,0,2023-04-26,2023-04-26,合同会社須原電気管理事務所,,合同会社,東京都,中央区,銀座１丁目２２番１１号銀座大竹ビジデンス２Ｆ,,13,102,1040061,,,,,,,2023-04-26,1,,,,,スハラデンキカンリジムショ,0
1171,5010101015610,新規,0,2023-04-26,2023-04-26,株式会社サムライ・ブロックチェーン,,株式会社,東京都,八王子市,東町１番１０号,,13,201,1920082,,,,,,,2023-04-26,1,,,,,サムライブロックチェーン,0
1178,5010401173934,新規,0,2023-04-26,2023-04-26,株式会社ＲＯＭＥ,,株式会社,東京都,港区,南青山６丁目６番２１－８０２号,,13,103,1070062,,,,,,,2023-04-26,1,,,,,ローマ,0
1182,5010501050364,新規,0,2023-04-26,2023-04-26,株式会社ＩＲＥＡＳ,,株式会社,東京都,台東区,東上野３丁目１６番３号４階,,13,106,1100015,,,,,,,2023-04-26,1,,,,,イリアス,0
1187,5010703006676,新規,0,2023-04-26,2023-04-26,セントラルビレッジコーポレーション合同会社,,合同会社,東京都,品川区,北品川５丁目５番１５号,,13,109,1410001,,,,,,,2023-04-26,1,,,,,セントラルビレッジコーポレーション,0
1193,5010801033853,新規,0,2023-04-26,2023-04-26,木島工業株式会社,,株式会社,東京都,大田区,蒲田１丁目６番２５号,,13,111,1440052,,,,,,,2023-04-26,1,,,,,キジマコウギョウ,0
1196,5010803004522,新規,0,2023-04-26,2023-04-26,ＡＭＩ合同会社,,合同会社,東京都,大田区,西蒲田２丁目１１番９号シティパレス１０２,,13,111,1440051,,,,,,,2023-04-26,1,,,,,エーエムアイ,0
1201,5011001154028,新規,0,2023-04-26,2023-04-26,株式会社ＦＬＹＤ,,株式会社,東京都,目黒区,中目黒３丁目３番１７号,,13,110,1530061,,,,,,,2023-04-26,1,,,,,フライド,0
1202,5011001154069,新規,0,2023-04-26,2023-04-26,ＮｏｕｖｅｌｌｅＥｒｅ株式会社,,株式会社,東京都,渋谷区,神宮前６丁目２８番９号東武ビル６階,,13,113,1500001,,,,,,,2023-04-26,1,,,,,ヌーヴェルエール,0
1204,5011101102679,新規,0,2023-04-26,2023-04-26,株式会社ラッカンスター,,株式会社,東京都,新宿区,西新宿３丁目３番１３号,,13,104,1600023,,,,,,,2023-04-26,1,,,,,ラッカンスター,0
1212,5011601026766,新規,0,2023-04-26,2023-04-26,株式会社ライフグリーンネオ,,株式会社,東京都,練馬区,石神井台３丁目２０番１８号,,13,120,1770045,,,,,,,2023-04-26,1,,,,,ライフグリーンネオ,0
1213,5011603003904,新規,0,2023-04-26,2023-04-26,合同会社フジオカ,,合同会社,東京都,練馬区,南大泉３丁目３１番２０号井口ビル３０２,,13,120,1780064,,,,,,,2023-04-26,1,,,,,フジオカ,0
1222,5012701017622,新規,0,2023-04-26,2023-04-26,株式会社ｓｏｌｉｄ　ｗｏｒｋｓ,,株式会社,東京都,小平市,花小金井４丁目１０番２９号３０３号室,,13,211,1870002,,,,,,,2023-04-26,1,,,,,ソリッドワークス,0
1225,5013301050641,新規,0,2023-04-26,2023-04-26,株式会社祈りレム尋,,株式会社,東京都,豊島区,東池袋３丁目１５番２－９０５号,,13,116,1700013,,,,,,,2023-04-26,1,,,,,イノリレムヒロ,0
1226,5013301050674,新規,0,2023-04-26,2023-04-26,株式会社ＳＲＴ,,株式会社,東京都,豊島区,目白３丁目５番１２号,,13,116,1710031,,,,,,,2023-04-26,1,,,,,エスアールティー,0
1232,5020003023776,新規,0,2023-04-26,2023-04-26,合同会社ゼロ,,合同会社,神奈川県,横浜市西区,平沼２丁目１４番５－５０１号,,14,103,2200023,,,,,,,2023-04-26,1,,,,,ゼロ,0
1235,5021001078829,新規,0,2023-04-26,2023-04-26,かなう株式会社,,株式会社,神奈川県,横須賀市,秋谷１丁目１番１－６０１号,,14,201,2400105,,,,,,,2023-04-26,1,,,,,カナウ,0
1236,5021001078853,新規,0,2023-04-26,2023-04-26,株式会社ＴＡＧＵＣＨＩ,,株式会社,神奈川県,相模原市中央区,相模原２丁目２－７田中ビル３Ｆ,,14,152,2520231,,,,,,,2023-04-26,1,,,,,タグチ,0
1237,5021001078861,新規,0,2023-04-26,2023-04-26,Ｑｒｉｏｃｉｔｙ株式会社,,株式会社,神奈川県,藤沢市,辻堂元町５丁目２番１７号,,14,205,2510043,,,,,,,2023-04-26,1,,,,,クリオシティ,0
1239,5021003013032,新規,0,2023-04-26,2023-04-26,合同会社協翔,,合同会社,神奈川県,横須賀市,佐原１丁目１４番１０号アンテール３０３,,14,201,2390835,,,,,,,2023-04-26,1,,,,,キョウショウ,0
1247,5030001153228,新規,0,2023-04-26,2023-04-26,ｍｏｒｏメディコ株式会社,,株式会社,埼玉県,蓮田市,藤ノ木３丁目１３２番地３,,11,238,3490105,,,,,,,2023-04-26,1,,,,,モロメディコ,0
1248,5030001153574,新規,0,2023-04-26,2023-04-26,株式会社フォーエス,,株式会社,埼玉県,さいたま市大宮区,三橋２丁目３１９番地９,,11,103,3300856,,,,,,,2023-04-26,1,,,,,フォーエス,0
1249,5030001153582,新規,0,2023-04-26,2023-04-26,株式会社Ｋ＆Ｈ,,株式会社,埼玉県,川口市,東川口２丁目６番８号,,11,203,3330801,,,,,,,2023-04-26,1,,,,,ケーアンドエイチ,0
1260,5040003022454,新規,0,2023-04-26,2023-04-26,合同会社リリクレール,,合同会社,千葉県,木更津市,請西南２丁目１８番地１０ブランショコラＢ２０１,,12,206,2920807,,,,,,,2023-04-26,1,,,,,リリクレール,0
1261,5040003022462,新規,0,2023-04-26,2023-04-26,Ｊａｓｍｉｎｅ　Ｔｒｅｅ合同会社,,合同会社,千葉県,山武市,美杉野１丁目６－１０,,12,237,2891224,,,,,,,2023-04-26,1,,,,,ジャスミンツリー,0
1262,5040003022470,新規,0,2023-04-26,2023-04-26,合同会社呉商事,,合同会社,千葉県,木更津市,八幡台２丁目３番１１号,,12,206,2920814,,,,,,,2023-04-26,1,,,,,クレショウジ,0
1277,5070001040372,新規,0,2023-04-26,2023-04-26,株式会社ｍｏｘｉｅ,,株式会社,群馬県,高崎市,乗附町１５６３番地２４,,10,202,3700867,,,,,,,2023-04-26,1,,,,,モキシー,0
1279,5070005010116,新規,0,2023-04-26,2023-04-26,赤城酪農業協同組合,,その他の設立登記法人,群馬県,前橋市,二之宮町１４４８番地,,10,201,3792117,,,,,,,2023-04-26,1,,,,,,0
1285,5110001037471,新規,0,2023-04-26,2023-04-26,株式会社長原左工,,株式会社,新潟県,柏崎市,大字西長鳥甲２４６５番地１,,15,205,9493723,,,,,,,2023-04-26,1,,,,,ナガハラサコウ,0
1293,5120001254396,新規,0,2023-04-26,2023-04-26,東洋リニューアル株式会社,,株式会社,大阪府,大阪市城東区,放出西１丁目２番４３号,,27,118,5360011,,,,,,,2023-04-26,1,,,,,トウヨウリニューアル,0
1294,5120001254413,新規,0,2023-04-26,2023-04-26,ＡＭ株式会社,,株式会社,大阪府,大阪市旭区,赤川３丁目１１番９－１０６号,,27,117,5350005,,,,,,,2023-04-26,1,,,,,アム,0
1295,5120001254438,新規,0,2023-04-26,2023-04-26,株式会社ＧＲＯＷＴＨ,,株式会社,大阪府,寝屋川市,下木田町１３－５－Ｄ１０３,,27,215,5720823,,,,,,,2023-04-26,1,,,,,グロース,0
1296,5120001254446,新規,0,2023-04-26,2023-04-26,九斗株式会社,,株式会社,大阪府,大阪市北区,天神橋１丁目１番２４－２１７号,,27,127,5300041,,,,,,,2023-04-26,1,,,,,キュウト,0
1297,5120001254454,新規,0,2023-04-26,2023-04-26,桑原商事株式会社,,株式会社,大阪府,大阪市阿倍野区,三明町１丁目７番２６号サンピース阿倍野３０３号,,27,119,5450005,,,,,,,2023-04-26,1,,,,,クワハラショウジ,0
1304,5120003023824,新規,0,2023-04-26,2023-04-26,合同会社ａ．ｉ　ｂａｋｅ,,合同会社,大阪府,大阪市住吉区,我孫子３丁目８－１８,,27,120,5580014,,,,,,,2023-04-26,1,,,,,エイアイベイク,0
1305,5120003023898,新規,0,2023-04-26,2023-04-26,Ｍ・ＳＴＡＲＴ合同会社,,合同会社,大阪府,大阪市此花区,西九条１丁目３４番１７号,,27,104,5540012,,,,,,,2023-04-26,1,,,,,エムスタート,0
1306,5120003023915,新規,0,2023-04-26,2023-04-26,Ｘｍｉｒａｉ合同会社,,合同会社,大阪府,大阪市生野区,勝山北１丁目１６－１,,27,116,5440033,,,,,,,2023-04-26,1,,,,,エックスミライ,0
1307,5120003023948,新規,0,2023-04-26,2023-04-26,合同会社ＴＥＮＥＴ,,合同会社,大阪府,大阪市西区,立売堀５丁目３－９、１１０３,,27,106,5500012,,,,,,,2023-04-26,1,,,,,テネット,0
1310,5120101067434,新規,0,2023-04-26,2023-04-26,志輝商運株式会社,,株式会社,大阪府,泉佐野市,鶴原９２７番地の１（２－１０７）,,27,213,5980071,,,,,,,2023-04-26,1,,,,,シキショウウン,0
1314,5120901047445,新規,0,2023-04-26,2023-04-26,株式会社ＤＩＳ　ＤＡＩＤＯ,,株式会社,大阪府,高槻市,安満西の町２５番２４－２０８号室,,27,207,5691107,,,,,,,2023-04-26,1,,,,,ディーアイエスダイドー,0
1315,5122001036915,新規,0,2023-04-26,2023-04-26,株式会社ボニート,,株式会社,大阪府,東大阪市,小阪本町１丁目１番３０号,,27,227,5770802,,,,,,,2023-04-26,1,,,,,ボニート,0
1321,5130001074190,新規,0,2023-04-26,2023-04-26,株式会社敬愛興業,,株式会社,京都府,京都市左京区,一乗寺里ノ前町８５－１４,,26,103,6068117,,,,,,,2023-04-26,1,,,,,ケイアイコウギョウ,0
1326,5140003019028,新規,0,2023-04-26,2023-04-26,合同会社コンフォーレ,,合同会社,兵庫県,神戸市北区,大原２丁目６番地の２,,28,109,6511222,,,,,,,2023-04-26,1,,,,,コンフォーレ,0
1329,5150001026347,新規,0,2023-04-26,2023-04-26,株式会社山宝ホールディングス,,株式会社,奈良県,大和高田市,大字西坊城５７番地１４,,29,202,6350058,,,,,,,2023-04-26,1,,,,,ヤマホウホールディングス,0
1348,5190001030345,新規,0,2023-04-26,2023-04-26,株式会社中川建築,,株式会社,三重県,名張市,夏見１３５番地,,24,208,5180441,,,,,,,2023-04-26,1,,,,,ナカガワケンチク,0
1349,5190001030361,新規,0,2023-04-26,2023-04-26,株式会社ＺＥＲＯＰＯＩＮＴ,,株式会社,三重県,鈴鹿市,西条１丁目２３番１６号,,24,207,5130809,,,,,,,2023-04-26,1,,,,,ゼロポイント,0
1350,5200001041241,新規,0,2023-04-26,2023-04-26,株式会社地域振興社,,株式会社,岐阜県,岐阜市,神田町７丁目１６番地４,,21,201,5008833,,,,,,,2023-04-26,1,,,,,チイキシンコウシャ,0
1351,5200003005938,新規,0,2023-04-26,2023-04-26,合同会社ＩＮＤＵＳ,,合同会社,岐阜県,多治見市,昭栄町５８番地１７,,21,204,5070076,,,,,,,2023-04-26,1,,,,,インダス,0
1357,5230001019813,新規,0,2023-04-26,2023-04-26,株式会社暮らしのサポート,,株式会社,富山県,富山市,蓮町１丁目７番ＳＣＯＰ　ＴＯＹＡＭＡ４０６,,16,201,9318333,,,,,,,2023-04-26,1,,,,,クラシノサポート,0
1363,5250001020067,新規,0,2023-04-26,2023-04-26,たまのや農園株式会社,,株式会社,山口県,防府市,大字大崎１６７３番地の１,,35,206,7470065,,,,,,,2023-04-26,1,,,,,タマノヤノウエン,0
1365,5260001037894,新規,0,2023-04-26,2023-04-26,株式会社カナヤマ金属,,株式会社,岡山県,岡山市南区,藤田５６０番地３０７,,33,104,7010221,,,,,,,2023-04-26,1,,,,,カナヤマキンゾク,0
1366,5290001101301,新規,0,2023-04-26,2023-04-26,株式会社リクロステック,,株式会社,福岡県,福岡市中央区,大名２丁目９番１７号ＡＲＩＳＴ大名,,40,133,8100041,,,,,,,2023-04-26,1,,,,,リクロステック,0
1367,5290001101326,新規,0,2023-04-26,2023-04-26,株式会社アリエス,,株式会社,福岡県,大野城市,つつじケ丘４丁目３番７号,,40,219,8160962,,,,,,,2023-04-26,1,,,,,アリエス,0
1368,5290003013841,新規,0,2023-04-26,2023-04-26,合同会社パキラ,,合同会社,福岡県,大野城市,白木原４丁目１３番２２号,,40,219,8160943,,,,,,,2023-04-26,1,,,,,パキラ,0
1369,5290803004404,新規,0,2023-04-26,2023-04-26,合同会社エンプレス,,合同会社,福岡県,北九州市八幡西区,皇后崎町１番１０－４０８号,,40,109,8060041,,,,,,,2023-04-26,1,,,,,エンプレス,0
1370,5310003004557,新規,0,2023-04-26,2023-04-26,艸艸庵合同会社,,合同会社,長崎県,長崎市,長浦町１８１２番地２５,,42,201,8513212,,,,,,,2023-04-26,1,,,,,ソウソウアン,0
1372,5320001019721,新規,0,2023-04-26,2023-04-26,株式会社きものななすけ,,株式会社,大分県,中津市,大字大悟法４５２番地８,,44,203,8710151,,,,,,,2023-04-26,1,,,,,キモノナナスケ,0
1374,5330001030792,新規,0,2023-04-26,2023-04-26,株式会社ハートフル,,株式会社,熊本県,熊本市東区,上南部１丁目４番８８号,,43,102,8618010,,,,,,,2023-04-26,1,,,,,ハートフル,0
1375,5330003009819,新規,0,2023-04-26,2023-04-26,合同会社Ｓ,,合同会社,熊本県,菊池市,赤星１３８１番地,,43,210,8611311,,,,,,,2023-04-26,1,,,,,エス,0
1378,5360001031937,新規,0,2023-04-26,2023-04-26,株式会社ＳＡＮＫＡＩ,,株式会社,沖縄県,宮古島市,平良字西里７１３番地２、２０３,,47,214,9060012,,,,,,,2023-04-26,1,,,,,サンカイ,0
1381,5360003012910,新規,0,2023-04-26,2023-04-26,合同会社みとも企画,,合同会社,沖縄県,沖縄市,大里３丁目１２番３９号２Ｆ,,47,211,9042163,,,,,,,2023-04-26,1,,,,,ミトモキカク,0
1383,5370001049887,新規,0,2023-04-26,2023-04-26,株式会社バップウィンド,,株式会社,宮城県,仙台市太白区,八木山本町１丁目３３番地の３,,04,104,9820801,,,,,,,2023-04-26,1,,,,,バップウィンド,0
1384,5370003006110,新規,0,2023-04-26,2023-04-26,合同会社フルスロジスティクス,,合同会社,宮城県,仙台市青葉区,中央２丁目２－１０,,04,101,9800021,,,,,,,2023-04-26,1,,,,,フルスロジスティクス,0
1388,5400001016223,新規,0,2023-04-26,2023-04-26,株式会社ＢＳコンサルティング,,株式会社,岩手県,北上市,新穀町２丁目２番７号,,03,206,0240092,,,,,,,2023-04-26,1,,,,,ビーエスコンサルティング,0
1397,5430001088937,新規,0,2023-04-26,2023-04-26,株式会社友秀会,,株式会社,北海道,登別市,若山町４丁目４３番地２,,01,230,0590026,,,,,,,2023-04-26,1,,,,,ユウシュウカイ,0
1398,5430001088945,新規,0,2023-04-26,2023-04-26,株式会社みつばち,,株式会社,北海道,札幌市南区,藤野二条６丁目１番８号,,01,106,0612282,,,,,,,2023-04-26,1,,,,,ミツバチ,0
1400,5430003014957,新規,0,2023-04-26,2023-04-26,合同会社龍馬,,合同会社,北海道,札幌市東区,北三十八条東３丁目２番１号,,01,103,0070838,,,,,,,2023-04-26,1,,,,,リョウマ,0
1404,5490005006897,新規,0,2023-04-26,2023-04-26,農事組合法人佐岡集落営農組合,,その他の設立登記法人,高知県,香美市,土佐山田町佐野１５５－４番地,,39,212,7820079,,,,,,,2023-04-26,1,,,,,,0
1405,5700150115737,新規,0,2023-04-26,2023-04-26,Ｇｕａｎｇｚｈｏｕ　Ｙｉ　Ｍｉｎｇ　ＥＤＵ　Ｔｅｃｈｎｏｌｏｇｙ　Ｃｏ　Ｌｔｄ,,外国会社等,,,,,,,,Ｒｏｏｍ　２０３－２，Ｂｕｉｌｄｉｎｇ　１７，Ｇｉａｎｔ　Ｃｒｅａｔｉｖｅ　Ｉｎｄｕｓｔｒｙ　Ｐａｒｋ，Ｎｏ．６４４　Ｓｈｉｂｅｉ　Ｉｎｄｕｓｔｒｉａｌ　Ｒｏａｄ，Ｄａｓｈｉ　Ｓｔｒｅｅｔ，Ｐａｎｙｕ　Ｄｉｓｔｒｉｃｔ，Ｇｕａｎｇｚｈｏｕ,,,,,,2023-04-26,1,,,,,グワンジョウシーイーミンジャオイーコージーヨウシエンゴンスー,0
1411,6010001234672,新規,0,2023-04-26,2023-04-26,山口興産ホールディングス株式会社,,株式会社,東京都,千代田区,丸の内２丁目７番２号,,13,101,1000005,,,,,,,2023-04-26,1,,,,,ヤマグチコウサンホールディングス,0
1412,6010001234805,新規,0,2023-04-26,2023-04-26,株式会社ボルドバイオテクノロジーフューチャー,,株式会社,東京都,中央区,銀座５丁目１０番２号ＧＩＮＺＡ・ＭＩＳＳ・ＰＡＲＩＳ,,13,102,1040061,,,,,,,2023-04-26,1,,,,,ボルドバイオテクノロジーフューチャー,0
1429,6010403029968,新規,0,2023-04-26,2023-04-26,合同会社ＹｕｉＭｏＡ,,合同会社,東京都,港区,南青山２丁目２番１５号,,13,103,1070062,,,,,,,2023-04-26,1,,,,,ユイモア,0
1430,6010403029976,新規,0,2023-04-26,2023-04-26,Ｂｌｕｅ　Ｄｉａｍｏｎｄ　Ａｌｍｏｎｄ　Ｇｒｏｗｅｒｓ　Ｊａｐａｎ合同会社,,合同会社,東京都,港区,南麻布４丁目１１番２２号南麻布Ｔ＆Ｆビル８階,,13,103,1060047,,,,,,,2023-04-26,1,,,,,ブルーダイアモンドアーモンドグロワースジャパン,0
1443,6010901052926,新規,0,2023-04-26,2023-04-26,東光ホールディングス株式会社,,株式会社,東京都,世田谷区,玉川田園調布２丁目５番６号,,13,112,1580085,,,,,,,2023-04-26,1,,,,,トウコウホールディングス,0
1444,6010901052942,新規,0,2023-04-26,2023-04-26,株式会社こあじち,,株式会社,東京都,世田谷区,松原３丁目２７番２６号京王下高井戸ビル６０１,,13,112,1560043,,,,,,,2023-04-26,1,,,,,コアジチ,0
1458,6011001154068,新規,0,2023-04-26,2023-04-26,Ｋｅｙｌｉｍｅ株式会社,,株式会社,東京都,渋谷区,渋谷２丁目９番１１－５０２号,,13,113,1500002,,,,,,,2023-04-26,1,,,,,キーライム,0
1461,6011101102661,新規,0,2023-04-26,2023-04-26,株式会社ＦＬＯＷ,,株式会社,東京都,新宿区,歌舞伎町２丁目３４－８,,13,104,1600021,,,,,,,2023-04-26,1,,,,,フロウ,0
1462,6011101102678,新規,0,2023-04-26,2023-04-26,株式会社クローマシーン,,株式会社,東京都,新宿区,北新宿１丁目１番１５号,,13,104,1690074,,,,,,,2023-04-26,1,,,,,クローマシーン,0
1476,6011803005625,新規,0,2023-04-26,2023-04-26,合同会社Ｂ．ＳＹ,,合同会社,東京都,足立区,関原３丁目３８番１７号,,13,121,1230852,,,,,,,2023-04-26,1,,,,,ビーエスワイ,0
1478,6012401040469,新規,0,2023-04-26,2023-04-26,株式会社レオ,,株式会社,東京都,多摩市,和田５５番地の２,,13,224,2060001,,,,,,,2023-04-26,1,,,,,レオ,0
1480,6012805003195,新規,0,2023-04-26,2023-04-26,一般社団法人ＦＯＢ　ｃｈｉｌｄｒｅｎ,,その他の設立登記法人,東京都,国分寺市,本町４丁目１３番７号北田ビル２階,,13,214,1850012,,,,,,,2023-04-26,1,,,,,フォブチルドレン,0
1485,6013303006608,新規,0,2023-04-26,2023-04-26,合同会社グァバボーイ,,合同会社,東京都,豊島区,西池袋５丁目５番地２１－１３１０号,,13,116,1710021,,,,,,,2023-04-26,1,,,,,グァバボーイ,0
1494,6020003023817,新規,0,2023-04-26,2023-04-26,オアシス・アンド・カンパニー合同会社,,合同会社,神奈川県,横浜市中区,山下町９１番地リシェ横浜山下公園２１０号室,,14,104,2310023,,,,,,,2023-04-26,1,,,,,オアシスアンドカンパニー,0
1500,6021001078852,新規,0,2023-04-26,2023-04-26,株式会社ＷＡＴＡＮＡＢＥ,,株式会社,神奈川県,茅ヶ崎市,芹沢２４８２番地,,14,207,2530008,,,,,,,2023-04-26,1,,,,,ワタナベ,0
1501,6021001078860,新規,0,2023-04-26,2023-04-26,株式会社Ｚｕｎ　ｔｅｃｈｎｏｌｏｇｙ,,株式会社,神奈川県,茅ヶ崎市,白浜町１－７－８,,14,207,2530036,,,,,,,2023-04-26,1,,,,,ズンテクノロジー,0
1503,6021003013023,新規,0,2023-04-26,2023-04-26,相模原市緑区牧野防災工事合同会社,,合同会社,神奈川県,相模原市緑区,牧野２３８６番３１,,14,151,2520186,,,,,,,2023-04-26,1,,,,,サガミハラシミドリクマキノボウサイコウジ,0
1504,6021003013031,新規,0,2023-04-26,2023-04-26,ゑびすや本店合同会社,,合同会社,神奈川県,藤沢市,宮原１３１６番地,,14,205,2520826,,,,,,,2023-04-26,1,,,,,エビスヤホンテン,0
1513,6030001153581,新規,0,2023-04-26,2023-04-26,Ａ＆Ｎ株式会社,,株式会社,埼玉県,春日部市,中央７丁目３番地２,,11,214,3440067,,,,,,,2023-04-26,1,,,,,エーアンドエヌ,0
1514,6030001153615,新規,0,2023-04-26,2023-04-26,株式会社マハロ,,株式会社,埼玉県,越谷市,大字弥十郎５００番地９,,11,222,3430047,,,,,,,2023-04-26,1,,,,,マハロ,0
1522,6030003021646,新規,0,2023-04-26,2023-04-26,合同会社ｓｅｅｄｓ,,合同会社,埼玉県,川口市,朝日１丁目１９番１１号３Ｆ,,11,203,3320001,,,,,,,2023-04-26,1,,,,,シード,0
1523,6030003021670,新規,0,2023-04-26,2023-04-26,文佳合同会社,,合同会社,埼玉県,川口市,西川口３丁目２番１－５０２号,,11,203,3320021,,,,,,,2023-04-26,1,,,,,フミカ,0
1527,6040001128104,新規,0,2023-04-26,2023-04-26,ＡＱ　ＡＵＴＯ株式会社,,株式会社,千葉県,成田市,大清水２４４番地６,,12,211,2860122,,,,,,,2023-04-26,1,,,,,エィキュウオート,0
1528,6040001128145,新規,0,2023-04-26,2023-04-26,株式会社八雲興業,,株式会社,千葉県,市川市,大野町１丁目３９０番地３,,12,203,2720805,,,,,,,2023-04-26,1,,,,,ヤクモコウギョウ,0
1529,6040001128153,新規,0,2023-04-26,2023-04-26,Ｔ’ｓ　ｓｕｎ株式会社,,株式会社,千葉県,市川市,南八幡４丁目１６番３－４０２号,,12,203,2720023,,,,,,,2023-04-26,1,,,,,ティーズサン,0
1540,6050003007445,新規,0,2023-04-26,2023-04-26,ｍｙｓｉｇ合同会社,,合同会社,茨城県,稲敷市,蒲ケ山４５番地１０,,08,229,3000522,,,,,,,2023-04-26,1,,,,,ミューシグ,0
1543,6070001040371,新規,0,2023-04-26,2023-04-26,株式会社インフィニティ,,株式会社,群馬県,前橋市,荒口町５６１番地２１,,10,201,3792107,,,,,,,2023-04-26,1,,,,,インフィニティ,0
1562,6100003006994,新規,0,2023-04-26,2023-04-26,Ｍｔ．ｌｉｎｋｓ合同会社,,合同会社,長野県,諏訪郡富士見町,境１７３１－１,,20,362,3990101,,,,,,,2023-04-26,1,,,,,マウントリンクス,0
1563,6110001037487,新規,0,2023-04-26,2023-04-26,株式会社ｈｅｉｚｉ,,株式会社,新潟県,長岡市,滝谷町１８１７－１６,,15,202,9401138,,,,,,,2023-04-26,1,,,,,ヘイジ,0
1579,6120001254230,新規,0,2023-04-26,2023-04-26,株式会社Ｂｅａｕｔｙ　Ｗｅｌｌ,,株式会社,大阪府,大阪市中央区,東心斎橋１丁目４－１,,27,128,5420083,,,,,,,2023-04-26,1,,,,,ビューティーウェル,0
1580,6120001254288,新規,0,2023-04-26,2023-04-26,株式会社ＯＳＫ運送,,株式会社,大阪府,大阪市平野区,喜連５丁目１番９号２０７,,27,126,5470027,,,,,,,2023-04-26,1,,,,,オーエスケーウンソウ,0
1581,6120001254379,新規,0,2023-04-26,2023-04-26,株式会社Ｊ＆Ｄ　ＪＡＰＡＮ,,株式会社,大阪府,大阪市大正区,三軒家西３丁目４番１６号中山ビル３０８Ｂ,,27,108,5510001,,,,,,,2023-04-26,1,,,,,ジェーアンドディージャパン,0
1582,6120001254387,新規,0,2023-04-26,2023-04-26,ｚｏｓｉｍｏ株式会社,,株式会社,大阪府,大阪市浪速区,恵美須西３丁目３番２６－２０２号,,27,111,5560003,,,,,,,2023-04-26,1,,,,,ゾシモ,0
1583,6120001254412,新規,0,2023-04-26,2023-04-26,株式会社レグルス,,株式会社,大阪府,大阪市生野区,勝山南４丁目１１番９号,,27,116,5440021,,,,,,,2023-04-26,1,,,,,レグルス,0
1584,6120001254429,新規,0,2023-04-26,2023-04-26,株式会社東鵬商事,,株式会社,大阪府,大阪市住之江区,西加賀屋３丁目１８番２１号１Ｆ,,27,125,5590016,,,,,,,2023-04-26,1,,,,,トウホウショウジ,0
1585,6120001254437,新規,0,2023-04-26,2023-04-26,株式会社ＳＰＡＲＫＳ,,株式会社,大阪府,大阪市東淀川区,上新庄１丁目６番６号,,27,114,5330006,,,,,,,2023-04-26,1,,,,,スパークス,0
1586,6120001254453,新規,0,2023-04-26,2023-04-26,アックス・ジョブ株式会社,,株式会社,大阪府,大阪市此花区,春日出南３丁目３番４１－２０５号,,27,104,5540023,,,,,,,2023-04-26,1,,,,,アックスジョブ,0
1590,6120003023897,新規,0,2023-04-26,2023-04-26,合同会社ＴｅｎＴＡＰ,,合同会社,大阪府,大阪市北区,国分寺２丁目３番１２号,,27,127,5310064,,,,,,,2023-04-26,1,,,,,テンタップ,0
1592,6120101067433,新規,0,2023-04-26,2023-04-26,株式会社三宝,,株式会社,大阪府,岸和田市,加守町４丁目３０番１号,,27,202,5960042,,,,,,,2023-04-26,1,,,,,サンポウ,0
1593,6120903004617,新規,0,2023-04-26,2023-04-26,合同会社あゆみ,,合同会社,大阪府,高槻市,富田町１丁目１３番２６－３０３,,27,207,5690814,,,,,,,2023-04-26,1,,,,,アユミ,0
1599,6140003019027,新規,0,2023-04-26,2023-04-26,合同会社メデル,,合同会社,兵庫県,丹波市,青垣町西芦田９１０番地５,00130268,28,223,6693803,,,,,,,2023-04-26,1,,,,,メデル,0
1601,6150001026346,新規,0,2023-04-26,2023-04-26,株式会社ＫＤＮ,,株式会社,奈良県,奈良市,帝塚山西１丁目１８番１１号,00130265,29,201,6310066,,,,,,,2023-04-26,1,,,,,ケーディーエヌ,0
1602,6150001026354,新規,0,2023-04-26,2023-04-26,株式会社ツクヨミ,,株式会社,奈良県,奈良市,学園南１丁目８番３３－６２１号,,29,201,6310034,,,,,,,2023-04-26,1,,,,,ツクヨミ,0
1615,6180001155919,新規,0,2023-04-26,2023-04-26,株式会社テンプメイト,,株式会社,愛知県,名古屋市中村区,大宮町１丁目６番,,23,105,4530821,,,,,,,2023-04-26,1,,,,,テンプメイト,0
1616,6180001156000,新規,0,2023-04-26,2023-04-26,ハイセレクト株式会社,,株式会社,愛知県,春日井市,白山町３丁目４番地２１,,23,206,4870034,,,,,,,2023-04-26,1,,,,,ハイセレクト,0
1617,6180001156017,新規,0,2023-04-26,2023-04-26,ＢＬＥＳＳ株式会社,,株式会社,愛知県,名古屋市守山区,桜坂２丁目９１４番地,,23,113,4630018,,,,,,,2023-04-26,1,,,,,ブレス,0
1622,6180003025129,新規,0,2023-04-26,2023-04-26,バードワークス合同会社,,合同会社,愛知県,名古屋市中村区,大宮町１丁目６番地,,23,105,4530821,,,,,,,2023-04-26,1,,,,,バードワークス,0
1633,6200001041240,新規,0,2023-04-26,2023-04-26,くらしケアグループ株式会社,,株式会社,岐阜県,岐阜市,六条東２丁目１番３号,,21,201,5008353,,,,,,,2023-04-26,1,,,,,クラシケアグループ,0
1642,6240005015567,新規,0,2023-04-26,2023-04-26,一般社団法人まなびぃ,,その他の設立登記法人,広島県,神石郡神石高原町,下豊松４１７番地１,,34,545,7201704,,,,,,,2023-04-26,1,,,,,マナビィ,0
1644,6260001037885,新規,0,2023-04-26,2023-04-26,株式会社倉敷児島学校給食サービス,,株式会社,岡山県,倉敷市,西中新田６３２番地１,,33,202,7100833,,,,,,,2023-04-26,1,,,,,クラシキコジマガッコウキュウショクサービス,0
1648,6260005011218,新規,0,2023-04-26,2023-04-26,一般財団法人備前市文化芸術振興財団,,その他の設立登記法人,岡山県,備前市,東片上１２６番地,,33,211,7050022,,,,,,,2023-04-26,1,,,,,ビゼンシブンカゲイジュツシンコウザイダン,0
1655,6290001101300,新規,0,2023-04-26,2023-04-26,株式会社中正和,,株式会社,福岡県,福岡市中央区,舞鶴１丁目３番３１－４１１号,,40,133,8100073,,,,,,,2023-04-26,1,,,,,チュウセイワ,0
1656,6290001101309,新規,0,2023-04-26,2023-04-26,株式会社タツトータルカンパニー,,株式会社,福岡県,福岡市中央区,警固２丁目１７番地１４－７０１,,40,133,8100023,,,,,,,2023-04-26,1,,,,,タツトータルカンパニー,0
1657,6290001101317,新規,0,2023-04-26,2023-04-26,株式会社Ｈｉｒａｋｕａ,,株式会社,福岡県,福岡市東区,香椎照葉３丁目２－４－１３２２,,40,131,8130017,,,,,,,2023-04-26,1,,,,,ヒラクア,0
1663,6310001018384,新規,0,2023-04-26,2023-04-26,株式会社ＡＩＷＡ,,株式会社,長崎県,諫早市,天満町１２番１０号,,42,204,8540006,,,,,,,2023-04-26,1,,,,,アイワ,0
1669,6340003004108,新規,0,2023-04-26,2023-04-26,合同会社一,,合同会社,鹿児島県,鹿児島市,名山町４－１０三宝ビル２階,,46,201,8920821,,,,,,,2023-04-26,1,,,,,カズ,0
1674,6360001031928,新規,0,2023-04-26,2023-04-26,株式会社おきなわ津堅島水産,,株式会社,沖縄県,うるま市,勝連津堅１２７６番,,47,213,9042317,,,,,,,2023-04-26,1,,,,,オキナワツケンジマスイサン,0
1675,6360001031936,新規,0,2023-04-26,2023-04-26,株式会社クロノラボ,,株式会社,沖縄県,宜野湾市,我如古２丁目２９番１６号,,47,205,9012214,,,,,,,2023-04-26,1,,,,,クロノラボ,0
1678,6360003012918,新規,0,2023-04-26,2023-04-26,冨士屋合同会社,,合同会社,沖縄県,中頭郡読谷村,字楚辺１４００－１４,,47,324,9040304,,,,,,,2023-04-26,1,,,,,フジヤ,0
1680,6370001049886,新規,0,2023-04-26,2023-04-26,株式会社イーストジャパンホールディングス,,株式会社,宮城県,仙台市青葉区,北山１丁目２番１５号,,04,101,9810931,,,,,,,2023-04-26,1,,,,,イーストジャパンホールディングス,0
1687,6400001016222,新規,0,2023-04-26,2023-04-26,株式会社にこにこＦａｒｍ,,株式会社,岩手県,滝沢市,巣子１２４８番地１,,03,216,0200611,,,,,,,2023-04-26,1,,,,,,0
1696,6480003001974,新規,0,2023-04-26,2023-04-26,合同会社アントデザイン事務所,,合同会社,徳島県,名西郡石井町,浦庄字下浦７８－１３,,36,341,7793244,,,,,,,2023-04-26,1,,,,,アントデザインジムショ,0
1702,6700150115736,新規,0,2023-04-26,2023-04-26,Ｓｈｅｎｚｈｅｎｓｈｉ　Ｙｉｆｅｉ　Ｔｅｃｈｎｏｌｏｇｙ　Ｃｏ　Ｌｔｄ,,外国会社等,,,,,,,,２４０５Ｂ１５，Ｈｕａｒｏｎｇ　Ｂｕｉｌｄｉｎｇ，Ｎｏ．１７８　Ｍｉｎｔｉａｎ　Ｒｏａｄ，Ｆｕａｎ　Ｃｏｍｍｕｎｉｔｙ，Ｆｕｔｉａｎ　Ｓｔｒｅｅｔ，Ｆｕｔｉａｎ　Ｄｉｓｔｒｉｃｔ，Ｓｈｅｎｚｈｅｎ,,,,,,2023-04-26,1,,,,,シェンジェンシーイーフェイコージーヨウシエンゴンスー,0
1706,7010003040325,新規,0,2023-04-26,2023-04-26,合同会社ブレーン・トラスト,,合同会社,東京都,千代田区,内幸町２丁目２－３日比谷国際ビル３１２号,,13,101,1000011,,,,,,,2023-04-26,1,,,,,ブレーントラスト,0
1707,7010005036569,新規,0,2023-04-26,2023-04-26,一般社団法人ＫＲＦ,,その他の設立登記法人,東京都,中央区,日本橋１丁目４番１号日本橋一丁目ビルディング,,13,102,1030027,,,,,,,2023-04-26,1,,,,,ケイアールエフ,0
1720,7010401173924,新規,0,2023-04-26,2023-04-26,株式会社ＳＫＳ,,株式会社,東京都,港区,六本木７丁目１５－１４塩業会館ビル４階,,13,103,1060032,,,,,,,2023-04-26,1,,,,,エスケーエス,0
1726,7010601063000,新規,0,2023-04-26,2023-04-26,ＧＵＡＲＤ　ＭＧＭＴ株式会社,,株式会社,東京都,江東区,富岡２丁目３番５号堀ビル２０２,,13,108,1350047,,,,,,,2023-04-26,1,,,,,ガードマネジメント,0
1732,7010803004520,新規,0,2023-04-26,2023-04-26,ｒａｐｐｏｒｔ合同会社,,合同会社,東京都,大田区,東嶺町１０番８号,,13,111,1450074,,,,,,,2023-04-26,1,,,,,ラポール,0
1743,7011001154059,新規,0,2023-04-26,2023-04-26,株式会社ＯＴＣ,,株式会社,東京都,渋谷区,道玄坂１丁目１０番８号渋谷道玄坂東急ビル２Ｆ－Ｃ,,13,113,1500043,,,,,,,2023-04-26,1,,,,,オーティーシー,0
1748,7011101102693,新規,0,2023-04-26,2023-04-26,ＧＡＮＪＩＮＧＷＯＲＬＤ株式会社,,株式会社,東京都,新宿区,西新宿５丁目５－１,,13,104,1600023,,,,,,,2023-04-26,1,,,,,ガンジンワールド,0
1761,7011601026772,新規,0,2023-04-26,2023-04-26,理山株式会社,,株式会社,東京都,練馬区,氷川台３丁目２９番１号パインフラッツ１０１号室,,13,120,1790084,,,,,,,2023-04-26,1,,,,,リサン,0
1770,7011801042297,新規,0,2023-04-26,2023-04-26,株式会社ＡＳＯＮＡ,,株式会社,東京都,足立区,入谷１丁目１５番１７－２０２号,,13,121,1210836,,,,,,,2023-04-26,1,,,,,アソナ,0
1771,7011803005624,新規,0,2023-04-26,2023-04-26,合同会社クロケイト,,合同会社,東京都,葛飾区,西水元２丁目２０番２２号,,13,122,1250031,,,,,,,2023-04-26,1,,,,,クロケイト,0
1774,7012301013417,新規,0,2023-04-26,2023-04-26,株式会社ＲＶＤコンサルティング,,株式会社,東京都,町田市,小山ヶ丘４丁目１－１１－１２０４,,13,209,1940215,,,,,,,2023-04-26,1,,,,,アールブイディーコンサルティング,0
1775,7012403005956,新規,0,2023-04-26,2023-04-26,合同会社持田豊,,合同会社,東京都,武蔵野市,吉祥寺本町３丁目１０番１０－３０２号,,13,203,1800004,,,,,,,2023-04-26,1,,,,,モチダユタカ,0
1780,7020001151239,新規,0,2023-04-26,2023-04-26,株式会社Ａ．Ｉ．Ｂ　ｃｏｍｐａｎｙ,,株式会社,神奈川県,横浜市戸塚区,戸塚町８ラピス戸塚２Ｂ１Ｆ,,14,110,2440003,,,,,,,2023-04-26,1,,,,,エイアイビーカンパニー,0
1781,7020003023808,新規,0,2023-04-26,2023-04-26,諏訪百刺合同会社,,合同会社,神奈川県,横浜市戸塚区,汲沢７丁目３番４５－２０１号室,,14,110,2450061,,,,,,,2023-04-26,1,,,,,スワヒャクシ,0
1794,7021003013030,新規,0,2023-04-26,2023-04-26,合同会社徳増商店,00130273,合同会社,神奈川県,鎌倉市,常盤２０９,,14,204,2480022,,,,,,,2023-04-26,1,,,,,トクマスショウテン,0
1801,7030001153597,新規,0,2023-04-26,2023-04-26,株式会社ＲＨ,,株式会社,埼玉県,所沢市,喜多町６番１３－２０１号サーディアム幸喜,,11,208,3591113,,,,,,,2023-04-26,1,,,,,アールエイチ,0
1802,7030003021637,新規,0,2023-04-26,2023-04-26,合同会社Ｄａｄｄｙ’ｓ　ＢＡＳＥ,,合同会社,埼玉県,八潮市,大字浮塚５７７番地１,,11,234,3400835,,,,,,,2023-04-26,1,,,,,ダディーズベース,0
1803,7030003021645,新規,0,2023-04-26,2023-04-26,合同会社ＣＩＮＱ　ＳＥＮＳ,,合同会社,埼玉県,川口市,朝日１丁目１９番１１号３Ｆ,,11,203,3320001,,,,,,,2023-04-26,1,,,,,シンクセンス,0
1804,7030003021661,新規,0,2023-04-26,2023-04-26,合同会社角義,,合同会社,埼玉県,越谷市,大字恩間２３３番地１パークサイド１０２,,11,222,3430033,,,,,,,2023-04-26,1,,,,,カクヨシ,0
1813,7040001128004,新規,0,2023-04-26,2023-04-26,麗華ロジスティクス株式会社,,株式会社,千葉県,習志野市,本大久保２丁目４－７、８０３号,,12,216,2750012,,,,,,,2023-04-26,1,,,,,レイカロジスティクス,0
1814,7040001128128,新規,0,2023-04-26,2023-04-26,東大福株式会社,,株式会社,千葉県,佐倉市,上志津字赤弥陀１６５６番地１６,,12,212,2850846,,,,,,,2023-04-26,1,,,,,トウダイフク,0
1815,7040001128144,新規,0,2023-04-26,2023-04-26,株式会社シャトル,,株式会社,千葉県,市原市,八幡７６４番地１４,,12,219,2900062,,,,,,,2023-04-26,1,,,,,シャトル,0
1820,7040003022460,新規,0,2023-04-26,2023-04-26,合同会社藤原医廉企画,,合同会社,千葉県,成田市,公津の杜４丁目６番地７サングランデアルフフィーヌＡ１１５号,,12,211,2860048,,,,,,,2023-04-26,1,,,,,フジワライレンキカク,0
1837,7110001037478,新規,0,2023-04-26,2023-04-26,ＫＡＭＩＹＡ商事株式会社,,株式会社,新潟県,南魚沼郡湯沢町,大字土樽９４７番地,,15,461,9496103,,,,,,,2023-04-26,1,,,,,カミヤショウジ,0
1848,7120001254287,新規,0,2023-04-26,2023-04-26,株式会社一心,,株式会社,大阪府,守口市,佐太東町１丁目４３番２９号,,27,209,5700017,,,,,,,2023-04-26,1,,,,,イッシン,0
1849,7120001254345,新規,0,2023-04-26,2023-04-26,株式会社Ｋ’ｓ,,株式会社,大阪府,大阪市北区,浪花町９番１２－５０２号,,27,127,5300022,,,,,,,2023-04-26,1,,,,,ケーズ,0
1850,7120001254378,新規,0,2023-04-26,2023-04-26,深視コンサルティング株式会社,,株式会社,大阪府,大阪市大正区,三軒家西３丁目４番１６号中山ビル２０８Ｂ,,27,108,5510001,,,,,,,2023-04-26,1,,,,,シンシコンサルティング,0
1851,7120001254411,新規,0,2023-04-26,2023-04-26,祥渝株式会社,,株式会社,大阪府,大阪市中央区,船越町１丁目５番８－４０１号,,27,128,5400036,,,,,,,2023-04-26,1,,,,,ショウユ,0
1852,7120001254428,新規,0,2023-04-26,2023-04-26,株式会社ＡＬＯ’ｓ,,株式会社,大阪府,大阪市西区,新町１丁目１４番２１－４８１８号,,27,106,5500013,,,,,,,2023-04-26,1,,,,,アローズ,0
1853,7120001254444,新規,0,2023-04-26,2023-04-26,株式会社翔亢,,株式会社,大阪府,大阪市鶴見区,茨田大宮１丁目７番１０号,,27,124,5380031,,,,,,,2023-04-26,1,,,,,ショウコウ,0
1854,7120001254469,新規,0,2023-04-26,2023-04-26,祐里株式会社,,株式会社,大阪府,寝屋川市,香里北之町１番１－１２０２号,,27,215,5720080,,,,,,,2023-04-26,1,,,,,ユウリ,0
1856,7120003023938,新規,0,2023-04-26,2023-04-26,合同会社ＭＫＴ,,合同会社,大阪府,大阪市北区,中津１丁目１８番８号,,27,127,5310071,,,,,,,2023-04-26,1,,,,,エムケーティー,0
1861,7120101067325,新規,0,2023-04-26,2023-04-26,株式会社木寺保温工業,,株式会社,大阪府,堺市西区,草部３９８番地２,,27,144,5938312,,,,,,,2023-04-26,1,,,,,キテラホオンコウギョウ,0
1862,7120101067432,新規,0,2023-04-26,2023-04-26,クリアフィルター株式会社,,株式会社,大阪府,松原市,天美北４丁目７番７号,,27,217,5800031,,,,,,,2023-04-26,1,,,,,クリアフィルター,0
1869,7122001036913,新規,0,2023-04-26,2023-04-26,株式会社大倉美装,,株式会社,大阪府,東大阪市,西堤本通東１丁目２番２１号,,27,227,5770045,,,,,,,2023-04-26,1,,,,,オオクラビソウ,0
1876,7130001074189,新規,0,2023-04-26,2023-04-26,株式会社ミセる,,株式会社,京都府,京都市右京区,太秦唐渡町１８番地２,,26,108,6168134,,,,,,,2023-04-26,1,,,,,ミセル,0
1878,7130003008681,新規,0,2023-04-26,2023-04-26,合同会社Ｃｅｌｅｓｔｅ,,合同会社,京都府,京都市北区,紫野西蓮台野町７１番地４１,,26,101,6038245,,,,,,,2023-04-26,1,,,,,セレステ,0
1884,7150001026345,新規,0,2023-04-26,2023-04-26,ワイエスディー企画株式会社,,株式会社,奈良県,桜井市,大字桜井１２１番地の７,,29,206,6330091,,,,,,,2023-04-26,1,,,,,ワイエスディーキカク,0
1886,7170001017565,新規,0,2023-04-26,2023-04-26,株式会社ＨＡＮＡＢＩ,,株式会社,和歌山県,日高郡みなべ町,晩稲１３０番地５,,30,391,6450022,,,,,,,2023-04-26,1,,,,,ハナビ,0
1904,7180001156008,新規,0,2023-04-26,2023-04-26,株式会社リトルシュガー,,株式会社,愛知県,一宮市,木曽川町里小牧字寺東２０番地,,23,203,4930005,,,,,,,2023-04-26,1,,,,,リトルシュガー,0
1905,7180001156016,新規,0,2023-04-26,2023-04-26,株式会社ＨＯＫＩ,,株式会社,愛知県,豊明市,新栄町５丁目１番地１グローリアスコート豊明新栄第５－３０３号,,23,229,4701154,,,,,,,2023-04-26,1,,,,,ホキ,0
1923,7250001020065,新規,0,2023-04-26,2023-04-26,株式会社アスビルド,,株式会社,山口県,下関市,彦島角倉町１丁目６番１９号,,35,201,7500081,,,,,,,2023-04-26,1,,,,,アスビルド,0
1936,7290001101308,新規,0,2023-04-26,2023-04-26,株式会社ＬＩＦＥ,,株式会社,福岡県,糟屋郡新宮町,大字新宮１２７,,40,345,8110115,,,,,,,2023-04-26,1,,,,,ライフ,0
1937,7290001101316,新規,0,2023-04-26,2023-04-26,ジェネリック製薬株式会社,,株式会社,福岡県,福岡市中央区,渡辺通５丁目１４番１２号,,40,133,8100004,,,,,,,2023-04-26,1,,,,,ジェネリックセイヤク,0
1945,7310001018383,新規,0,2023-04-26,2023-04-26,紳太商事株式会社,,株式会社,長崎県,五島市,江川町１０番地６,,42,211,8530006,,,,,,,2023-04-26,1,,,,,シンタショウジ,0
1947,7320001019711,新規,0,2023-04-26,2023-04-26,株式会社上伸海運,,株式会社,大分県,臼杵市,大字臼杵２の１０７番地の６０４,,44,206,8750041,,,,,,,2023-04-26,1,,,,,ジョウシンカイウン,0
1954,7360001031927,新規,0,2023-04-26,2023-04-26,株式会社Ｈ＆Ｂジェラ沖縄,,株式会社,沖縄県,那覇市,松尾２丁目１０番１号,,47,201,9000014,,,,,,,2023-04-26,1,,,,,エイチアンドビージェラオキナワ,0
1955,7360001031935,新規,0,2023-04-26,2023-04-26,株式会社Ａ．Ｅ．Ｔ,,株式会社,沖縄県,那覇市,久米２丁目９番１７号ライオンズマンション久米第２－２０２,,47,201,9000033,,,,,,,2023-04-26,1,,,,,エーイーティー,0
1966,7420001018240,新規,0,2023-04-26,2023-04-26,株式会社竹ヶ原建設,,株式会社,青森県,青森市,桜川９丁目１番２１号,,02,201,0300945,,,,,,,2023-04-26,1,,,,,タケガハラケンセツ,0
1970,7430001088943,新規,0,2023-04-26,2023-04-26,株式会社ＰＥＡＣＥ,,株式会社,北海道,札幌市中央区,南十一条西１８丁目２番１号,,01,101,0640811,,,,,,,2023-04-26,1,,,,,ピース,0
1971,7430001088951,新規,0,2023-04-26,2023-04-26,株式会社Ｈｏｌｉｄａｙ,,株式会社,北海道,江別市,大麻新町２５番地の４３,,01,217,0690863,,,,,,,2023-04-26,1,,,,,ホリデイ,0
1972,7430001089000,新規,0,2023-04-26,2023-04-26,株式会社Ｙ’ｓ　Ｌｉｎｋｓ,,株式会社,北海道,札幌市中央区,円山西町７丁目４番７号,,01,101,0640944,,,,,,,2023-04-26,1,,,,,ワイズリンクス,0
1979,7480003001973,新規,0,2023-04-26,2023-04-26,合同会社馬くり,,合同会社,徳島県,小松島市,中田町字内開１６番地４,,36,203,7730015,,,,,,,2023-04-26,1,,,,,マクリ,0
1981,7700150115735,新規,0,2023-04-26,2023-04-26,Ｒｕｉａｎ　ＬＩＨＥＲ　Ｔｒａｄｉｎｇ　Ｃｏ．，Ｌｔｄ．,,外国会社等,,,,,,,,Ｑｉａｏｔｏｕ　Ｒｏａｄ，Ｄｏｎｇｙａｎｇ　Ｖｉｌｌａｇｅ，Ｆｅｉｙｕｎ　Ｓｔｒｅｅｔ，Ｒｕｉａｎ　ＮＯ．４３　Ｗｅｎｚｈｏｕ　Ｚｈｅｊｉａｎｇ　３２５２０７　ＣＮ,,,,,,2023-04-26,1,,,,,ルイアンシーリーホーシャンマオヨウシエンゴンスー,0
1991,8010001234588,新規,0,2023-04-26,2023-04-26,カズハシステムズ株式会社,,株式会社,東京都,中央区,八丁堀４丁目９番１３号,,13,102,1040032,,,,,,,2023-04-26,1,,,,,カズハシステムズ,0
2013,8010601063008,新規,0,2023-04-26,2023-04-26,株式会社ＤＡＳＨ建設,,株式会社,東京都,墨田区,石原２丁目１５番９号１階,,13,107,1300011,,,,,,,2023-04-26,1,,,,,ダーシュケンセツ,0
2026,8010903008115,新規,0,2023-04-26,2023-04-26,合同会社恵比寿,,合同会社,東京都,世田谷区,砧４丁目３２番２２号,,13,112,1570073,,,,,,,2023-04-26,1,,,,,エビス,0
2033,8011001154066,新規,0,2023-04-26,2023-04-26,株式会社斉藤ベーシック,,株式会社,東京都,渋谷区,神宮前３丁目２２番１０号斉藤ビル６０１,,13,113,1500001,,,,,,,2023-04-26,1,,,,,サイトウベーシック,0
2039,8011003016553,新規,0,2023-04-26,2023-04-26,合同会社ｉｖｙ,,合同会社,東京都,渋谷区,神泉町１０番１５号,,13,113,1500045,,,,,,,2023-04-26,1,,,,,アイビー,0
2040,8011003016727,新規,0,2023-04-26,2023-04-26,合同会社ＨＯＮＥＹ　ＢＵＮＮＹ,,合同会社,東京都,渋谷区,道玄坂１丁目１０番８号渋谷道玄坂東急ビル２Ｆ－Ｃ,,13,113,1500043,,,,,,,2023-04-26,1,,,,,ハニーバニー,0
2051,8011501029197,新規,0,2023-04-26,2023-04-26,創建商株式会社,,株式会社,東京都,荒川区,東日暮里３丁目３９番７号,,13,118,1160014,,,,,,,2023-04-26,1,,,,,,0
2066,8012801022305,新規,0,2023-04-26,2023-04-26,株式会社アンダーパディ,,株式会社,東京都,昭島市,昭和町３丁目９番１２号,,13,207,1960015,,,,,,,2023-04-26,1,,,,,,0
2082,8020003023815,新規,0,2023-04-26,2023-04-26,Ｓｔｅｌｌａ　Ｌｉｖｉｎｇ合同会社,,合同会社,神奈川県,横浜市神奈川区,大野町１－８アルテ横浜１２０６,,14,102,2210055,,,,,,,2023-04-26,1,,,,,ステラリビング,0
2086,8021001078850,新規,0,2023-04-26,2023-04-26,株式会社いえの屋倉林,,株式会社,神奈川県,藤沢市,辻堂元町１丁目６番１６号,,14,205,2510043,,,,,,,2023-04-26,1,,,,,イエノヤクラバヤシ,0
2095,8030001153596,新規,0,2023-04-26,2023-04-26,株式会社ｔｏ‐ｃｏ．,,株式会社,埼玉県,さいたま市大宮区,桜木町２丁目３番地大宮マルイ７階,,11,103,3300854,,,,,,,2023-04-26,1,,,,,トゥコ,0
2099,8030003021644,新規,0,2023-04-26,2023-04-26,嘉桁合同会社,,合同会社,埼玉県,熊谷市,筑波２丁目５４番地４錦峰ビル６Ｆ,,11,202,3600037,,,,,,,2023-04-26,1,,,,,カコウ,0
2100,8030003021652,新規,0,2023-04-26,2023-04-26,暗礁合同会社,,合同会社,埼玉県,さいたま市浦和区,上木崎６丁目２４番３８号ベルピア浦和第一２０６号室,,11,107,3300071,,,,,,,2023-04-26,1,,,,,アンショウ,0
2102,8040001128151,新規,0,2023-04-26,2023-04-26,株式会社Ｅｕｒｅｋａ,,株式会社,千葉県,市川市,富浜２丁目４番２２－３０２号（クラウン妙典）,,12,203,2720115,,,,,,,2023-04-26,1,,,,,エウレカ,0
2108,8050005013258,新規,0,2023-04-26,2023-04-26,一般社団法人ひたちのくに楽友協会,,その他の設立登記法人,茨城県,那珂郡東海村,大字石神外宿２３７番地３,,08,341,3191101,,,,,,,2023-04-26,1,,,,,ヒタチノクニガクユウキョウカイ,0
2110,8060003004530,新規,0,2023-04-26,2023-04-26,Ｃａｒｉｎｏ合同会社,,合同会社,栃木県,宇都宮市,上横田町７２１番３号エストレヤ２０１,,09,201,3210106,,,,,,,2023-04-26,1,,,,,カリーナ,0
2114,8080101023959,新規,0,2023-04-26,2023-04-26,株式会社ハンモックタイ古式,,株式会社,静岡県,賀茂郡東伊豆町,奈良本１４４４番地の７３,,22,301,4130302,,,,,,,2023-04-26,1,,,,,ハンモックタイコシキ,0
2117,8080103002787,新規,0,2023-04-26,2023-04-26,合同会社サブマリン,,合同会社,静岡県,三島市,徳倉３丁目１８－９,,22,206,4110044,,,,,,,2023-04-26,1,,,,,サブマリン,0
2118,8080105006332,新規,0,2023-04-26,2023-04-26,一般社団法人カミーニョスポーツクラブ,,その他の設立登記法人,静岡県,駿東郡長泉町,下土狩１３３４番地の６ロイヤルシャトー長泉ＩＩ棟８０４号,00130264,22,342,4110943,,,,,,,2023-04-26,1,,,,,カミーニョスポーツクラブ,0
2137,8120001254328,新規,0,2023-04-26,2023-04-26,株式会社イムア,,株式会社,大阪府,大阪市北区,豊崎４丁目９番１９－２０８号,,27,127,5310072,,,,,,,2023-04-26,1,,,,,イムア,0
2138,8120001254377,新規,0,2023-04-26,2023-04-26,ＰａｎＨａｎＴｅｃｈ株式会社,,株式会社,大阪府,大阪市大正区,三軒家西３丁目４番１６号中山ビル４０２Ｂ,,27,108,5510001,,,,,,,2023-04-26,1,,,,,パンハンテッチ,0
2139,8120001254385,新規,0,2023-04-26,2023-04-26,株式会社ＦＲＥＳＣＯ,,株式会社,大阪府,大阪市中央区,南本町２丁目６番５－１００３号,,27,128,5410054,,,,,,,2023-04-26,1,,,,,フレスコ,0
2140,8120001254410,新規,0,2023-04-26,2023-04-26,ＨｉＦｉｎｄ株式会社,,株式会社,大阪府,大阪市中央区,北久宝寺町２丁目６－１０ニューライフ船場１００９号室,,27,128,5410057,,,,,,,2023-04-26,1,,,,,ハイファインド,0
2141,8120001254435,新規,0,2023-04-26,2023-04-26,株式会社ＣＯＲＥＦＵＬ,,株式会社,大阪府,大阪市中央区,谷町６丁目４番３８－１０２号,,27,128,5420012,,,,,,,2023-04-26,1,,,,,コアフル,0
2142,8120003023912,新規,0,2023-04-26,2023-04-26,合同会社ＳＣ,,合同会社,大阪府,大阪市天王寺区,上汐５丁目４番２２号ＡＭ夕陽丘セカンド３０１号室,,27,109,5430002,,,,,,,2023-04-26,1,,,,,エスシー,0
2143,8120003023920,新規,0,2023-04-26,2023-04-26,キャナル合同会社,,合同会社,大阪府,大阪市城東区,放出西３丁目２番１９号２階,,27,118,5360011,,,,,,,2023-04-26,1,,,,,キャナル,0
2144,8120003023929,新規,0,2023-04-26,2023-04-26,合同会社ゴールドウェル,,合同会社,大阪府,大阪市西淀川区,出来島２丁目４－１３,,27,113,5550031,,,,,,,2023-04-26,1,,,,,ゴールドウェル,0
2149,8120901047459,新規,0,2023-04-26,2023-04-26,株式会社ぼちぼちいこうか,,株式会社,大阪府,茨木市,南春日丘１丁目１３番３２号,,27,211,5670046,,,,,,,2023-04-26,1,,,,,ボチボチイコウカ,0
2150,8120903004598,新規,0,2023-04-26,2023-04-26,ＯｆｆｉｃｅＲＥＩ合同会社,,合同会社,大阪府,吹田市,千里山竹園１丁目１０－１８－３０８,,27,205,5650852,,,,,,,2023-04-26,1,,,,,オフィスレイ,0
2152,8122003002573,新規,0,2023-04-26,2023-04-26,合同会社ＮＯＡ,,合同会社,大阪府,東大阪市,加納８丁目３２番１０号,,27,227,5780901,,,,,,,2023-04-26,1,,,,,ノア,0
2155,8130001074171,新規,0,2023-04-26,2023-04-26,株式会社ライト・ワーカー,,株式会社,京都府,木津川市,相楽台９丁目１番１号,,26,214,6190223,,,,,,,2023-04-26,1,,,,,ライトワーカー,0
2156,8130003008672,新規,0,2023-04-26,2023-04-26,合同会社ツジモトケンジと愉快な音楽仲間たち,,合同会社,京都府,宇治市,菟道谷下り８番地１０パデシオン宇治三室戸ＩＩＩ番館１０８号,00130277,26,204,6110000,,,,,,,2023-04-26,1,,,,,ツジモトケンジトユカイナオンガクナカマタチ,0
2160,8140003019033,新規,0,2023-04-26,2023-04-26,合同会社ＤＬＣ,,合同会社,兵庫県,神戸市中央区,港島中町３丁目１番地ポートアイランド団地５６棟５２３号室,,28,110,6500046,,,,,,,2023-04-26,1,,,,,ディーエルシー,0
2166,8150001026344,新規,0,2023-04-26,2023-04-26,株式会社ＵｐＦｌｉｇｈｔ,,株式会社,奈良県,磯城郡田原本町,大字大網２２０－１,,29,363,6360353,,,,,,,2023-04-26,1,,,,,アップフライト,0
2170,8170003001863,新規,0,2023-04-26,2023-04-26,合同会社Ｔｅ　ｔｏｏ　Ｔｅ,,合同会社,和歌山県,橋本市,御幸辻２５番地の３,00130263,30,203,6480096,,,,,,,2023-04-26,1,,,,,テトテ,0
2193,8210001019291,新規,0,2023-04-26,2023-04-26,株式会社ｋｏｓｈｅｌｌ,,株式会社,福井県,越前市,家久町第７１号１６番地,,18,209,9150801,,,,,,,2023-04-26,1,,,,,コッシェル,0
2198,8240001061423,新規,0,2023-04-26,2023-04-26,株式会社ＳＡＥＣＡ＆Ｃｏ．,,株式会社,広島県,広島市西区,楠木町３丁目３番１号,,34,104,7330002,,,,,,,2023-04-26,1,,,,,サエカアンドコー,0
2201,8240003006120,新規,0,2023-04-26,2023-04-26,合同会社オオミワ,,合同会社,広島県,広島市中区,流川町２番１６号カープビル２０２号,,34,101,7300028,,,,,,,2023-04-26,1,,,,,オオミワ,0
2205,8250005008816,新規,0,2023-04-26,2023-04-26,特定非営利活動法人櫻花ジャパン,,その他の設立登記法人,山口県,周南市,大字須万２５９０番地の１,,35,215,7450401,,,,,,,2023-04-26,1,,,,,サクラジャパン,0
2211,8270001008768,新規,0,2023-04-26,2023-04-26,株式会社槇原工業,,株式会社,鳥取県,米子市,福万４７９番地２,,31,202,6893523,,,,,,,2023-04-26,1,,,,,マキハラコウギョウ,0
2218,8290001101224,新規,0,2023-04-26,2023-04-26,株式会社ＥＦＦＥＣＴ,,株式会社,福岡県,福岡市中央区,天神２丁目２番１２号Ｔ＆Ｊビルディング７Ｆ,,40,133,8100001,,,,,,,2023-04-26,1,,,,,エフェクト,0
2219,8290001101323,新規,0,2023-04-26,2023-04-26,株式会社ジョブキャリア,,株式会社,福岡県,福岡市中央区,大名２丁目３番３－７０２号,,40,133,8100041,,,,,,,2023-04-26,1,,,,,ジョブキャリア,0
2229,8320001019719,新規,0,2023-04-26,2023-04-26,Ｇｌｉｄｅ　Ｊａｐａｎ株式会社,,株式会社,大分県,別府市,千代町１２番９号,,44,202,8740942,,,,,,,2023-04-26,1,,,,,グライドジャパン,0
2233,8340001025525,新規,0,2023-04-26,2023-04-26,株式会社エッジ,,株式会社,鹿児島県,出水市,五万石町９１０番地,,46,208,8990214,,,,,,,2023-04-26,1,,,,,エッジ,0
2240,8360001031926,新規,0,2023-04-26,2023-04-26,ドバイコーポレーション株式会社,,株式会社,沖縄県,中頭郡中城村,字南上原９３４番地７ライトハウス３０７号室,,47,328,9012424,,,,,,,2023-04-26,1,,,,,ドバイコーポレーション,0
2255,8430001088934,新規,0,2023-04-26,2023-04-26,株式会社オタモイの調べ,,株式会社,北海道,札幌市西区,山の手三条４丁目２番７号,,01,107,0630003,,,,,,,2023-04-26,1,,,,,オタモイノシラベ,0
2256,8430001088942,新規,0,2023-04-26,2023-04-26,株式会社ティーアイピー,,株式会社,北海道,札幌市中央区,南六条西１８丁目１番１３－９０１号,,01,101,0640806,,,,,,,2023-04-26,1,,,,,ティーアイピー,0
2257,8430001088950,新規,0,2023-04-26,2023-04-26,株式会社エフエムびばい,,株式会社,北海道,美唄市,西三条南１丁目１番１号,,01,215,0720026,,,,,,,2023-04-26,1,,,,,エフエムビバイ,0
2266,8470001019588,新規,0,2023-04-26,2023-04-26,株式会社裕建築,,株式会社,香川県,三豊市,三野町大見甲１３７番地４,,37,208,7670031,,,,,,,2023-04-26,1,,,,,ヒロケンチク,0
2268,8700150115734,新規,0,2023-04-26,2023-04-26,ｙａｎｔａｉｓｈｕｂｏｄｉａｎｚｉｓｈａｎｇｗｕｙｏｕｘｉａｎｇｏｎｇｓｉ,,外国会社等,,,,,,,,Ｎｏ．１８０２，Ｂｕｉｌｄｉｎｇ　１，Ｆｕｒａｏ　Ｃｅｎｔｅｒ，Ｎｏ．２００，Ｙａｎｔａｉ　Ａｒｅａ，Ｃｈｉｎａ（Ｓｈａｎｄｏｎｇ）Ｐｉｌｏｔ　Ｆｒｅｅ　Ｔｒａｄｅ　Ｚｏｎｅ,,,,,,2023-04-26,1,,,,,イエンタイシューボーディエンズーシャンウーヨウシエンゴンスー,0
2269,8700150115742,新規,0,2023-04-26,2023-04-26,方上町協議会,,その他,徳島県,徳島市,方上町宮谷７－１,,36,201,7708033,,,,,,,2023-04-26,1,,,,,カタノカミチヨウキヨウギカイ,0
2270,8700150115750,新規,0,2023-04-26,2023-04-26,深セン市優立銘科技有限公司,,外国会社等,,,,,,,,中国深セン市龍華新区観瀾街道金域九悦花園４棟２６０３,,,,,,2023-04-26,1,,,,,シンセンシユウリツメイカギユウゲンコウシ,0
2279,9010001234785,新規,0,2023-04-26,2023-04-26,株式会社バードソング,,株式会社,東京都,千代田区,神田東松下町２５番地９１２号,,13,101,1010042,,,,,,,2023-04-26,1,,,,,バードソング,0
2280,9010001234810,新規,0,2023-04-26,2023-04-26,トップエナジー株式会社,,株式会社,東京都,中央区,日本橋小網町３番１４号茅場町Ｋ１ビル７階－Ａ,,13,102,1030016,,,,,,,2023-04-26,1,,,,,トップエナジー,0
2281,9010001234835,新規,0,2023-04-26,2023-04-26,株式会社ＣＯＭＭＡ,,株式会社,東京都,千代田区,外神田５丁目１－１０千住ビル１Ｆ,,13,101,1010021,,,,,,,2023-04-26,1,,,,,カンマ,0
2296,9010401173922,新規,0,2023-04-26,2023-04-26,中央トレード株式会社,,株式会社,東京都,港区,赤坂６丁目１２番１２号,,13,103,1070052,,,,,,,2023-04-26,1,,,,,チュウオウトレード,0
2297,9010403029981,新規,0,2023-04-26,2023-04-26,合同会社ＮＴ,,合同会社,東京都,港区,西麻布２丁目１０番５号第三竹皮屋ビル６Ｂ,,13,103,1060031,,,,,,,2023-04-26,1,,,,,エヌティー,0
2298,9010405022035,新規,0,2023-04-26,2023-04-26,一般社団法人Ｊａｐａｎ　Ｔａｉｋｏ　Ｆｉｌｌ　Ｃｏｎｆｅｒｅｎｃｅ,,その他の設立登記法人,東京都,港区,三田２丁目１２番５号,,13,103,1080073,,,,,,,2023-04-26,1,,,,,ジャパンタイコフィルカンファレンス,0
2299,9010601063007,新規,0,2023-04-26,2023-04-26,株式会社Ｂｌｕｅ　Ｍｏｏｎ,,株式会社,東京都,江東区,平野２丁目３番２９号,,13,108,1350023,,,,,,,2023-04-26,1,,,,,ブルームーン,0
2302,9010803004519,新規,0,2023-04-26,2023-04-26,合同会社浅野商会,,合同会社,東京都,大田区,中馬込３丁目１２番１６号,,13,111,1430027,,,,,,,2023-04-26,1,,,,,アサノショウカイ,0
2313,9011001154016,新規,0,2023-04-26,2023-04-26,株式会社ＣＨＡＮＣＥ,,株式会社,東京都,目黒区,上目黒２丁目４４番２４号ＣＯＭＳＮＡＫＡＭＥＧＵＲＯ３Ｆ,,13,110,1530051,,,,,,,2023-04-26,1,,,,,チャンス,0
2314,9011001154049,新規,0,2023-04-26,2023-04-26,ＧＭＯグローバルスタジオ株式会社,,株式会社,東京都,渋谷区,桜丘町２６番１号,,13,113,1500031,,,,,,,2023-04-26,1,,,,,ジーエムオーグローバルスタジオ,0
2315,9011001154081,新規,0,2023-04-26,2023-04-26,ＦｌｕｔｔｅｒＣｏｄｅ株式会社,,株式会社,東京都,渋谷区,渋谷２丁目１９番１５号宮益坂ビルディング６０９,,13,113,1500002,,,,,,,2023-04-26,1,,,,,フラッターコード,0
2317,9011003016726,新規,0,2023-04-26,2023-04-26,合同会社ｂｒａｎｃｈ,,合同会社,東京都,渋谷区,神泉町１０番９－２０６号,,13,113,1500045,,,,,,,2023-04-26,1,,,,,ブランチ,0
2318,9011003016734,新規,0,2023-04-26,2023-04-26,ヒューマンウェルネスインスティテュート合同会社,,合同会社,東京都,渋谷区,渋谷３丁目１番１５－３０５号,,13,113,1500002,,,,,,,2023-04-26,1,,,,,ヒューマンウェルネスインスティテュート,0
2320,9011005010058,新規,0,2023-04-26,2023-04-26,一般社団法人ｓｈｏｈｏｏ,,その他の設立登記法人,東京都,渋谷区,神宮前５丁目５０番５号,,13,113,1500001,,,,,,,2023-04-26,1,,,,,ショホー,0
2331,9011501029221,新規,0,2023-04-26,2023-04-26,ＤＯＵＢＬＥ１１株式会社,,株式会社,東京都,北区,浮間１丁目７－２３兆豊浮間ビル４０１号室,,13,117,1150051,,,,,,,2023-04-26,1,,,,,ダブルイレブン,0
2342,9012701017627,新規,0,2023-04-26,2023-04-26,株式会社Ｇ．Ｏ．Ｄ　ｃｏｍｐａｎｙ,,株式会社,東京都,清瀬市,野塩３丁目１０番地１８,,13,221,2040004,,,,,,,2023-04-26,1,,,,,ジーオーディーカンパニー,0
2344,9012703002692,新規,0,2023-04-26,2023-04-26,ＮＲ合同会社,,合同会社,東京都,東久留米市,南沢４丁目９番７号,,13,222,2030023,,,,,,,2023-04-26,1,,,,,エヌアール,0
2345,9012801022312,新規,0,2023-04-26,2023-04-26,ワンホールショット株式会社,,株式会社,東京都,武蔵村山市,神明４丁目８－４,,13,223,2080002,,,,,,,2023-04-26,1,,,,,ワンホールショット,0
2356,9013303006596,新規,0,2023-04-26,2023-04-26,合同会社ラボ,,合同会社,東京都,豊島区,東池袋１丁目３１番１６号菅野ビル４階,,13,116,1700013,,,,,,,2023-04-26,1,,,,,ラボ,0
2365,9020001151311,新規,0,2023-04-26,2023-04-26,Ｂｉｏｒｉｇｉｎａｌ　Ａｓｉａ株式会社,,株式会社,神奈川県,横浜市中区,尾上町６丁目８６番地１,,14,104,2310015,,,,,,,2023-04-26,1,,,,,バイオリジナルエイジア,0
2377,9020003023814,新規,0,2023-04-26,2023-04-26,ＴＯＫＹＯ　ＣＡＲＢＯＮ　ＭＡＮＡＧＥＭＥＮＴ合同会社,,合同会社,神奈川県,横浜市戸塚区,原宿５丁目１４番１３号,,14,110,2450063,,,,,,,2023-04-26,1,,,,,トウキョウカーボンマネジメント,0
2381,9021001078858,新規,0,2023-04-26,2023-04-26,カチクル株式会社,,株式会社,神奈川県,茅ヶ崎市,共恵１丁目１－５Ｂ．Ｌ．Ｄ．Ｎａｇａｓｈｉｍａ３０１,,14,207,2530056,,,,,,,2023-04-26,1,,,,,カチクル,0
2382,9021003013029,新規,0,2023-04-26,2023-04-26,合同会社Ｌｅａｄ　ｌｅａ,,合同会社,神奈川県,中郡大磯町,国府本郷４６１番地５,,14,341,2590111,,,,,,,2023-04-26,1,,,,,リーレア,0
2390,9030001153570,新規,0,2023-04-26,2023-04-26,ＫＯ‐ＢＯ‐ＧＲＯＵＰ株式会社,,株式会社,埼玉県,越谷市,南越谷１丁目１５－１南越谷ラクーン４Ｆ,,11,222,3430845,,,,,,,2023-04-26,1,,,,,コーボーグループ,0
2391,9030001153579,新規,0,2023-04-26,2023-04-26,灯人株式会社,,株式会社,埼玉県,志木市,中宗岡５丁目１８番１号メゾンＳＩＮＯ１０７,,11,228,3530002,,,,,,,2023-04-26,1,,,,,ヒビト,0
2392,9030001153604,新規,0,2023-04-26,2023-04-26,株式会社リビルド,,株式会社,埼玉県,さいたま市大宮区,寿能町１丁目４０－１１－４０２,,11,103,3300805,,,,,,,2023-04-26,1,,,,,リビルド,0
2396,9030003021651,新規,0,2023-04-26,2023-04-26,合同会社オール,,合同会社,埼玉県,さいたま市桜区,町谷３丁目２５番３５－１号,,11,106,3380836,,,,,,,2023-04-26,1,,,,,オール,0
2400,9040001128027,新規,0,2023-04-26,2023-04-26,株式会社マッチャンズ１１,,株式会社,千葉県,市川市,南八幡４丁目３番１号２階,,12,203,2720023,,,,,,,2023-04-26,1,,,,,マッチャンズイレブン,0
2401,9040001128068,新規,0,2023-04-26,2023-04-26,Ａｕｔｏｎｏｍｉｃ　Ｉｎｔｅｌｌｉｇｅｎｃｅ株式会社,,株式会社,千葉県,柏市,若柴１７８番地４柏の葉キャンパス１４８街区２ショップ＆オフィス棟６階,,12,217,2770871,,,,,,,2023-04-26,1,,,,,オートノミックインテリジェンス,0
2402,9040001128126,新規,0,2023-04-26,2023-04-26,株式会社オプティマス,,株式会社,千葉県,船橋市,駿河台１丁目４番８－Ａ２０１号,,12,204,2730862,,,,,,,2023-04-26,1,,,,,オプティマス,0
2403,9040001128142,新規,0,2023-04-26,2023-04-26,株式会社Ｂ‐ｎｅｔ,,株式会社,千葉県,千葉市花見川区,幕張町４丁目４番地キャロットハイツＩ２０５号,00130271,12,102,2620032,,,,,,,2023-04-26,1,,,,,ビーネット,0
2409,9040003022491,新規,0,2023-04-26,2023-04-26,合同会社ラリー商事,,合同会社,千葉県,八千代市,平戸２１５番地３,,12,221,2760017,,,,,,,2023-04-26,1,,,,,ラリーショウジ,0
2416,9070001040377,新規,0,2023-04-26,2023-04-26,Ａｔｔｒａｉｔ株式会社,,株式会社,群馬県,前橋市,敷島町２４１番地１３,,10,201,3710036,,,,,,,2023-04-26,1,,,,,アトレ,0
2433,9110001037476,新規,0,2023-04-26,2023-04-26,株式会社タイシン,,株式会社,新潟県,阿賀野市,関屋３７４番地１,,15,223,9592133,,,,,,,2023-04-26,1,,,,,タイシン,0
2435,9110005016939,新規,0,2023-04-26,2023-04-26,一般社団法人いきいきライフ協会新発田,,その他の設立登記法人,新潟県,新発田市,東新町２丁目３番２８号,,15,206,9570015,,,,,,,2023-04-26,1,,,,,イキイキライフキョウカイシバタ,0
2443,9120001254401,新規,0,2023-04-26,2023-04-26,嘉文国際株式会社,,株式会社,大阪府,大阪市東成区,中道１丁目１番３６号,,27,115,5370025,,,,,,,2023-04-26,1,,,,,カブンコクサイ,0
2444,9120001254434,新規,0,2023-04-26,2023-04-26,株式会社ｎｏｂｉｓｉｒｏ,,株式会社,大阪府,大阪市北区,梅田１丁目１番３号大阪駅前第３ビル２９Ｆ１－１－１号室,,27,127,5300001,,,,,,,2023-04-26,1,,,,,ノビシロ,0
2450,9120003023853,新規,0,2023-04-26,2023-04-26,ＨＣ合同会社,,合同会社,大阪府,大阪市西成区,長橋１丁目１３番２２号金輝ビル２０３,,27,122,5570025,,,,,,,2023-04-26,1,,,,,エイチシー,0
2451,9120003023944,新規,0,2023-04-26,2023-04-26,合同会社梅六,,合同会社,大阪府,大阪市北区,梅田１丁目１－３大阪駅前第３ビル２９階１－１－１号室,,27,127,5300001,,,,,,,2023-04-26,1,,,,,ウメロク,0
2466,9160003002861,新規,0,2023-04-26,2023-04-26,２４区合同会社,,合同会社,滋賀県,東近江市,乙女浜町３４１番地,,25,213,5211241,,,,,,,2023-04-26,1,,,,,ニジュウヨンク,0
2490,9190001030358,新規,0,2023-04-26,2023-04-26,鈴鹿あられ株式会社,,株式会社,三重県,鈴鹿市,土師町６４４番地１,,24,207,5130812,,,,,,,2023-04-26,1,,,,,スズカアラレ,0
2503,9250001020063,新規,0,2023-04-26,2023-04-26,株式会社春風,,株式会社,山口県,下関市,綾羅木本町６丁目５番１０号,,35,201,7510849,,,,,,,2023-04-26,1,,,,,ハルカゼ,0
2511,9270001008767,新規,0,2023-04-26,2023-04-26,株式会社サインインエステート,,株式会社,鳥取県,米子市,両三柳２５５番地８,,31,202,6830853,,,,,,,2023-04-26,1,,,,,サインインエステート,0
2513,9290001101339,新規,0,2023-04-26,2023-04-26,株式会社Ｌｅｇａｌ　Ｐａｒｔｎｅｒｓ,,株式会社,福岡県,福岡市博多区,博多駅東２丁目５番１９号サンライフ第３ビル５階,,40,132,8120013,,,,,,,2023-04-26,1,,,,,リーガルパートナーズ,0
2516,9290003013838,新規,0,2023-04-26,2023-04-26,合同会社桜企画,,合同会社,福岡県,福岡市博多区,東比恵２丁目９番２１号,,40,132,8120007,,,,,,,2023-04-26,1,,,,,サクラキカク,0
2527,9360001031917,新規,0,2023-04-26,2023-04-26,日＿商店株式会社,00130266,株式会社,沖縄県,名護市,字中山７３１番地,,47,209,9050004,,,,,,,2023-04-26,1,,,,,ニッシンショウテン,0
2528,9360001031933,新規,0,2023-04-26,2023-04-26,株式会社ＳＬＡＭ　ＪＡＰＡＮ,,株式会社,沖縄県,那覇市,泉崎２丁目１５０－１、１Ｆ,,47,201,9000021,,,,,,,2023-04-26,1,,,,,スラムジャパン,0
2532,9370001049883,新規,0,2023-04-26,2023-04-26,株式会社テクニカルサービス遊佐,,株式会社,宮城県,仙台市青葉区,高野原４丁目１番地の１０,,04,101,9893216,,,,,,,2023-04-26,1,,,,,テクニカルサービスユサ,0
2543,9390005009007,新規,0,2023-04-26,2023-04-26,一般社団法人ワイルドジャーニー,,その他の設立登記法人,山形県,西村山郡西川町,大字海味６５１番地６,,06,322,9900702,,,,,,,2023-04-26,1,,,,,ワイルドジャーニー,0
2547,9430001088933,新規,0,2023-04-26,2023-04-26,株式会社Ｍａｉｓｏｎ　Ｇｒｏｕｐ,,株式会社,北海道,札幌市中央区,南四条東２丁目３番地１デュオヒルズ札幌Ｍｉｄ８０２,,01,101,0600054,,,,,,,2023-04-26,1,,,,,メゾングループ,0
