sequenceNumber,corporateNumber,process,correct,updateDate,changeDate,name,nameImageId,kind,prefectureName,cityName,streetNumber,addressImageId,prefectureCode,cityCode,postCode,addressOutside,addressOutsideImageId,closeDate,closeCause,successorCorporateNumber,changeCause,assignmentDate,latest,enName,enPrefectureName,enCityName,enAddressOutside,furigana,hihyoji
1,1010001014063,登記記録の閉鎖等,0,2023-09-08,2023-08-30,株式会社ガイア,,株式会社,東京都,千代田区,九段南４丁目８番３０号,,13,101,1020074,,,2023-08-30,清算の結了等,,,2015-10-05,1,,,,,ガイア,0
34,1010701031036,登記記録の閉鎖等,0,2023-09-08,2023-09-01,龍図日本株式会社,,株式会社,東京都,北区,田端新町１丁目７番１４号ビズフィールド西日暮里２１１,,13,117,1140012,,,2023-09-01,清算の結了等,,,2015-10-05,1,,,,,ロントウニホン,0
37,1010801017199,登記記録の閉鎖等,0,2023-09-08,2023-09-05,株式会社山口不動産,,株式会社,東京都,大田区,東馬込２丁目１２番１２号,,13,111,1430022,,,2023-09-05,清算の結了等,,,2015-10-05,1,,,,,ヤマグチフドウサン,0
49,1011001068149,登記記録の閉鎖等,0,2023-09-08,2023-09-05,パナデリーア株式会社,,株式会社,東京都,渋谷区,神宮前６丁目３１番１５号,,13,113,1500001,,,2023-09-05,清算の結了等,,,2015-10-05,1,,,,,パナデリーア,0
52,1011001141756,登記記録の閉鎖等,0,2023-09-08,2023-09-01,株式会社Ｃｈｉｍｎｅｙ　Ｃｏｆｆｅｅ,,株式会社,東京都,千代田区,九段南１丁目５番６号りそな九段ビル５階ＫＳフロア,,13,101,1020074,,,2023-09-01,合併による解散等,2011001118687,令和５年８月３１日東京都千代田区九段南一丁目５番６号りそな九段ビル５階ＫＳフロア株式会社ＣＨＩＭＮＥＹ　ＴＯＷＮ（2011001118687）に合併し解散,2021-07-14,1,,,,,チムニーコーヒー,0
88,1020001036783,登記記録の閉鎖等,0,2023-09-08,2023-09-01,株式会社イーエムキュー,,株式会社,神奈川県,横浜市南区,前里町１丁目２０番地,,14,105,2320004,,,2023-09-01,合併による解散等,1020001013205,令和５年９月１日横浜市南区前里町一丁目２０番地大徳興業株式会社（1020001013205）に合併し解散,2015-10-05,1,,,,,イーエムキュー,0
111,1021005010122,登記記録の閉鎖等,0,2023-09-08,2023-09-04,特定非営利活動法人一歩,,その他の設立登記法人,神奈川県,横須賀市,長沢３丁目１番１３－１０２号,,14,201,2390842,,,2023-09-04,清算の結了等,,,2015-10-05,1,,,,,イッポ,0
118,1030002049742,登記記録の閉鎖等,0,2023-09-08,2023-08-15,有限会社フォルサルト,,有限会社,埼玉県,三郷市,さつき平２丁目２番２－５１６号,,11,237,3410021,,,2023-08-15,清算の結了等,,,2015-10-05,1,,,,,フォルサルト,0
119,1030002116229,登記記録の閉鎖等,0,2023-09-08,2023-08-04,有限会社古久屋,,有限会社,埼玉県,深谷市,小前田６７８番地２,,11,218,3691246,,,2023-08-04,清算の結了等,,,2015-10-05,1,,,,,コクヤ,0
123,1040001042607,登記記録の閉鎖等,0,2023-09-08,2023-09-01,株式会社エム・アール・エス,,株式会社,茨城県,つくば市,二の宮１丁目１１－９ＴＯＳＩＩＩ４階Ｃ号,00108732,08,220,3050051,,,2023-09-01,清算の結了等,,,2015-10-05,1,,,,,エムアールエス,0
140,1070001003597,登記記録の閉鎖等,0,2023-09-08,2023-09-05,大和ビジネスサービス株式会社,,株式会社,群馬県,前橋市,古市町１１８番地,,10,201,3710844,,,2023-09-05,清算の結了等,,,2015-10-05,1,,,,,ヤマトビジネスサービス,0
170,1120001231060,登記記録の閉鎖等,0,2023-09-08,2023-09-04,株式会社ＬＩＧＥＲＯ,,株式会社,大阪府,大阪市中央区,西心斎橋２丁目１０番１５号,,27,128,5420086,,,2023-09-04,清算の結了等,,,2020-08-17,1,,,,,リジェロ,0
207,1140005012736,登記記録の閉鎖等,0,2023-09-08,2023-09-06,おじろ観光協同組合,,その他の設立登記法人,兵庫県,美方郡香美町,小代区城山４６３番地,,28,585,6671502,,,2023-09-06,清算の結了等,,,2015-10-05,1,,,,,オジロカンコウ,0
211,1180001062459,登記記録の閉鎖等,0,2023-09-08,2023-09-01,株式会社グランディール,,株式会社,愛知県,愛西市,町方町北堤外７６番地９３,,23,232,4968014,,,2023-09-01,清算の結了等,,,2015-10-05,1,,,,,グランディール,0
239,1240005000342,登記記録の閉鎖等,0,2023-09-08,2023-08-28,正隆寺,,その他の設立登記法人,広島県,広島市中区,昭和町１０番１号,,34,101,7300046,,,2023-08-28,合併による解散等,8240005000336,令和５年８月２８日広島市中区寺町３番１１号善正寺（8240005000336）に合併し解散,2015-10-05,1,,,,,ショウリュウジ,0
240,1260002033368,登記記録の閉鎖等,0,2023-09-08,2023-09-04,有限会社友親,,有限会社,岡山県,玉野市,東高崎２５番地の７,,33,204,7060134,,,2023-09-04,清算の結了等,,,2015-10-05,1,,,,,ユウシン,0
257,1330002027387,登記記録の閉鎖等,0,2023-09-08,2023-08-08,有限会社大知,,有限会社,熊本県,八代市,鏡町貝洲１１５８番地,,43,202,8694223,,,2023-08-08,清算の結了等,,,2015-10-05,1,,,,,ダイチ,0
263,1360001028945,登記記録の閉鎖等,0,2023-09-08,2023-09-07,賛美株式会社,,株式会社,沖縄県,中頭郡西原町,上原２丁目２５－１ドリームパレス石原４０１号室,,47,329,9030125,,,2023-09-07,清算の結了等,,,2021-06-21,1,,,,,サンビ,0
280,1410002006894,登記記録の閉鎖等,0,2023-09-08,2023-09-01,有限会社本荘クリーンセンター,,有限会社,秋田県,由利本荘市,内黒瀬字小深沢１０８番地５７,,05,210,0150022,,,2023-09-01,合併による解散等,1410001005204,令和５年９月１日秋田県由利本荘市内黒瀬字小深沢１０８番地５７株式会社鳥海リース（1410001005204）に合併し解散,2015-10-05,1,,,,,ホンジョウクリーンセンター,0
309,2010001229528,登記記録の閉鎖等,0,2023-09-08,2023-09-05,株式会社ＫＭ‐ＬＩＮＥ,,株式会社,東京都,千代田区,神田神保町１丁目５２番１２号,,13,101,1010051,,,2023-09-05,清算の結了等,,,2022-09-20,1,,,,,ケーエムライン,0
313,2010005033067,登記記録の閉鎖等,0,2023-09-08,2023-09-01,代々木駅前開発特定目的会社,,その他の設立登記法人,神奈川県,横浜市中区,扇町２丁目５番１５号リラックスビル８階,,14,104,2310027,,,2023-09-01,清算の結了等,,,2021-03-15,1,,,,,ヨヨギエキマエカイハツ,0
319,2010401057982,登記記録の閉鎖等,0,2023-09-08,2023-08-02,ＯＳＩｓｏｆｔ　Ｊａｐａｎ株式会社,,株式会社,東京都,港区,芝浦２丁目１５番６号,,13,103,1080023,,,2023-08-02,合併による解散等,7020001034501,　令和５年８月１日東京都港区芝浦二丁目１５番６号オアーゼ芝浦ＭＪビルアヴィバ株式会社（7020001034501）に合併し解散,2015-10-05,1,,,,,オーエスアイソフトジャパン,0
321,2010401142826,登記記録の閉鎖等,0,2023-09-08,2023-09-05,株式会社グロースフェーズ,,株式会社,東京都,豊島区,西池袋５丁目１９－１０プリモ池袋２０２,,13,116,1710021,,,2023-09-05,清算の結了等,,,2018-12-27,1,,,,,グロースフェーズ,0
322,2010401153773,登記記録の閉鎖等,0,2023-09-08,2023-08-21,Ｇｈｏｓｔ株式会社,,株式会社,東京都,港区,芝大門２丁目４番５号芝ダイヤハイツ９０８,,13,103,1050012,,,2023-08-21,清算の結了等,,,2020-07-07,1,,,,,ゴースト,0
329,2010403021417,登記記録の閉鎖等,0,2023-09-08,2023-08-18,芝インベストメンツ３合同会社,,合同会社,東京都,港区,六本木１丁目６番１号泉ガーデンタワー,,13,103,1060032,,,2023-08-18,清算の結了等,,,2019-09-10,1,,,,,シバインベストメンツスリー,0
363,2011105004825,登記記録の閉鎖等,0,2023-09-08,2023-09-05,公益財団法人かなえ医薬振興財団,,その他の設立登記法人,東京都,新宿区,西新宿３丁目２０番２号,,13,104,1600023,,,2023-09-05,清算の結了等,,,2015-10-05,1,,,,,カナエイヤクシンコウザイダン,0
367,2011301007425,登記記録の閉鎖等,0,2023-09-08,2023-09-04,株式会社吉野建築設計事務所,,株式会社,東京都,杉並区,下井草１丁目２番８号,,13,115,1670022,,,2023-09-04,清算の結了等,,,2015-10-05,1,,,,,ヨシノケンチクセッケイジムショ,0
378,2011802025223,登記記録の閉鎖等,0,2023-09-08,2023-09-05,有限会社クリエイティブパワー・エイト,,有限会社,東京都,足立区,鹿浜６丁目２１番３号,,13,121,1230864,,,2023-09-05,清算の結了等,,,2015-10-05,1,,,,,クリエイティブパワーエイト,0
394,2020001115561,登記記録の閉鎖等,0,2023-09-08,2023-09-01,株式会社ｅペット,,株式会社,神奈川県,横浜市西区,みなとみらい２丁目２番１号,,14,103,2200012,,,2023-09-01,清算の結了等,,,2016-04-08,1,,,,,イーペット,0
417,2030001112847,登記記録の閉鎖等,0,2023-09-08,2023-08-14,ｎｕｌａ株式会社,,株式会社,埼玉県,本庄市,児玉町共栄２３９番１号,,11,211,3670206,,,2023-08-14,清算の結了等,,,2016-02-16,1,,,,,ヌーラ,0
442,2040005009865,登記記録の閉鎖等,0,2023-09-08,2023-08-23,特定非営利活動法人タンポポ,,その他の設立登記法人,千葉県,市川市,八幡１丁目１４番５号５５ビル１階,,12,203,2720021,,,2023-08-23,清算の結了等,,,2015-10-05,1,,,,,タンポポ,0
449,2060002002920,登記記録の閉鎖等,0,2023-09-08,2023-08-31,雷工業有限会社,,有限会社,栃木県,宇都宮市,駒生町３３２８番地８,,09,201,3200065,,,2023-08-31,清算の結了等,,,2015-10-05,1,,,,,カミナリコウギョウ,0
451,2070001023322,登記記録の閉鎖等,0,2023-09-08,2023-09-01,株式会社ヴィラージュ,,株式会社,群馬県,利根郡川場村,大字生品１８２８番地,,10,444,3780113,,,2023-09-01,清算の結了等,,,2015-10-05,1,,,,,ヴィラージュ,0
456,2080005001034,登記記録の閉鎖等,0,2023-09-08,2023-09-04,協同組合静岡茶業,,その他の設立登記法人,静岡県,静岡市葵区,水道町５番地の３,,22,101,4200008,,,2023-09-04,清算の結了等,,,2015-10-05,1,,,,,シズオカチャギョウ,0
465,2100002014531,登記記録の閉鎖等,0,2023-09-08,2023-08-31,有限会社ナカヤマ,,有限会社,長野県,上田市,上野２２５７番地,,20,203,3860003,,,2023-08-31,清算の結了等,,,2015-10-05,1,,,,,ナカヤマ,0
466,2100002028556,登記記録の閉鎖等,0,2023-09-08,2023-08-31,有限会社ツカサ工機,,有限会社,長野県,諏訪市,大字中洲４４０５番地１,,20,206,3920015,,,2023-08-31,清算の結了等,,,2015-10-05,1,,,,,ツカサコウキ,0
467,2100002032723,登記記録の閉鎖等,0,2023-09-08,2023-08-31,有限会社北原商事,,有限会社,長野県,上伊那郡南箕輪村,２９３６番地５,,20,385,3994511,,,2023-08-31,清算の結了等,,,2015-10-05,1,,,,,キタハラショウジ,0
473,2120001060500,登記記録の閉鎖等,0,2023-09-08,2023-09-06,株式会社アルビ・ファイナンス,,株式会社,大阪府,大阪市北区,中津３丁目３番３４号,,27,127,5310071,,,2023-09-06,清算の結了等,,,2015-10-05,1,,,,,アルビファイナンス,0
474,2120001077098,登記記録の閉鎖等,0,2023-09-08,2023-09-04,株式会社カルチェラタン,,株式会社,大阪府,箕面市,西小路３丁目３番１１号,,27,220,5620003,,,2023-09-04,清算の結了等,,,2015-10-05,1,,,,,カルチェラタン,0
475,2120001126615,登記記録の閉鎖等,0,2023-09-08,2023-09-01,株式会社ＹＳＫ,,株式会社,大阪府,大阪市中央区,難波千日前１２番５号朱雀ビル３階,,27,128,5420075,,,2023-09-01,合併による解散等,5120001179610,令和５年９月１日大阪市中央区難波千日前１２番５号朱雀ビル４Ｆ株式会社ＳＫＹ（5120001179610）に合併し解散,2015-10-05,1,,,,,ワイエスケイ,0
478,2120001147883,登記記録の閉鎖等,0,2023-09-08,2023-09-04,サカエ紙業株式会社,,株式会社,大阪府,寝屋川市,香里西之町１番５号,,27,215,5720089,,,2023-09-04,清算の結了等,,,2015-10-05,1,,,,,サカエシギョウ,0
495,2120102020808,登記記録の閉鎖等,0,2023-09-08,2023-09-05,有限会社ウエスト,,有限会社,大阪府,岸和田市,上松町３０２０番地の１,,27,202,5960827,,,2023-09-05,清算の結了等,,,2015-10-05,1,,,,,ウエスト,0
499,2130001012178,登記記録の閉鎖等,0,2023-09-08,2023-08-28,株式会社京都ハイライト,,株式会社,京都府,京都市北区,平野八丁柳町７番地,,26,101,6038345,,,2023-08-28,清算の結了等,,,2015-10-05,1,,,,,キョウトハイライト,0
501,2130001037992,登記記録の閉鎖等,0,2023-09-08,2023-08-23,株式会社カンベ建設工業,,株式会社,京都府,八幡市,川口西扇６番地１５、２ＦＢ,,26,210,6148117,,,2023-08-23,清算の結了等,,,2015-10-05,1,,,,,カンベケンセツコウギョウ,0
506,2130003000610,登記記録の閉鎖等,0,2023-09-08,2023-09-04,湯口合資会社,,合資会社,京都府,京都市北区,小山南大野町１１番地,,26,101,6038163,,,2023-09-04,清算の結了等,,,2015-10-05,1,,,,,ユグチ,0
507,2130003007333,登記記録の閉鎖等,0,2023-09-08,2023-08-25,合同会社Ｃｌｏｖｅｒ,,合同会社,京都府,京田辺市,薪茶屋前３１番地３５,,26,211,6100341,,,2023-08-25,清算の結了等,,,2021-06-24,1,,,,,クローバー,0
523,2160001017496,登記記録の閉鎖等,0,2023-09-08,2023-09-01,株式会社宝山園,,株式会社,滋賀県,守山市,荒見町１３２番地の１,,25,207,5240016,,,2023-09-01,合併による解散等,3160001017495,令和５年９月１日滋賀県守山市荒見町１３２番地の１中西宝山園株式会社（3160001017495）に合併し解散,2015-10-05,1,,,,,ホウザンエン,0
542,2180301011429,登記記録の閉鎖等,0,2023-09-08,2023-08-31,山口工業株式会社,,株式会社,愛知県,蒲郡市,大塚町星越４６番地の７,,23,214,4430013,,,2023-08-31,清算の結了等,,,2015-10-05,1,,,,,ヤマグチコウギョウ,0
543,2180302015684,登記記録の閉鎖等,0,2023-09-08,2023-08-31,牧野繊維有限会社,,有限会社,愛知県,蒲郡市,神明町２１番１４号,,23,214,4430056,,,2023-08-31,清算の結了等,,,2015-10-05,1,,,,,マキノセンイ,0
573,2290801017947,登記記録の閉鎖等,0,2023-09-08,2023-09-07,株式会社神楽,,株式会社,福岡県,北九州市戸畑区,幸町１番１１号,,40,105,8040084,,,2023-09-07,清算の結了等,,,2015-10-05,1,,,,,カグラ,0
578,2330002022387,登記記録の閉鎖等,0,2023-09-08,2023-09-01,有限会社ドリーム,,有限会社,熊本県,荒尾市,水野１５５６番地,,43,204,8640023,,,2023-09-01,清算の結了等,,,2015-10-05,1,,,,,ドリーム,0
585,2380001015239,登記記録の閉鎖等,0,2023-09-08,2023-09-05,株式会社アーバンＳ,,株式会社,福島県,いわき市,小名浜字竹町１０２番地,,07,204,9718101,,,2023-09-05,清算の結了等,,,2015-10-05,1,,,,,アーバンエス,0
608,2480001000817,登記記録の閉鎖等,0,2023-09-08,2023-09-06,四国システムサービス株式会社,,株式会社,徳島県,徳島市,国府町敷地１１８番地の１,,36,201,7793115,,,2023-09-06,清算の結了等,,,2015-10-05,1,,,,,シコクシステムサービス,0
622,3010003018184,登記記録の閉鎖等,0,2023-09-08,2023-09-01,合同会社ＲＡＹ,,合同会社,東京都,中央区,八丁堀２丁目１９番８号,,13,102,1040032,,,2023-09-01,清算の結了等,,,2015-10-05,1,,,,,レイ,0
634,3010402006426,登記記録の閉鎖等,0,2023-09-08,2023-08-18,芝サン陽印刷有限会社,,有限会社,東京都,港区,三田５丁目２番１８－１０２０号,,13,103,1080073,,,2023-08-18,清算の結了等,,,2015-10-05,1,,,,,シバサンヨウインサツ,0
637,3010403021416,登記記録の閉鎖等,0,2023-09-08,2023-08-18,芝マネジメント合同会社,,合同会社,東京都,港区,六本木１丁目６番１号泉ガーデンタワー,,13,103,1060032,,,2023-08-18,清算の結了等,,,2019-09-10,1,,,,,シバマネジメント,0
641,3010501014494,登記記録の閉鎖等,0,2023-09-08,2023-09-06,明和ハウス株式会社,,株式会社,東京都,台東区,台東３丁目１７番９号,,13,106,1100016,,,2023-09-06,清算の結了等,,,2015-10-05,1,,,,,メイワハウス,0
650,3010801011448,登記記録の閉鎖等,0,2023-09-08,2023-08-24,株式会社美喜屋,,株式会社,東京都,目黒区,五本木２丁目４８番９号,,13,110,1530053,,,2023-08-24,清算の結了等,,,2015-10-05,1,,,,,ミキヤ,0
653,3010903007501,登記記録の閉鎖等,0,2023-09-08,2023-08-18,宝メディカルサービス合同会社,,合同会社,東京都,世田谷区,中町４丁目１２番１２号,,13,112,1580091,,,2023-08-18,清算の結了等,,,2022-07-05,1,,,,,タカラメディカルサービス,0
654,3011001049147,登記記録の閉鎖等,0,2023-09-08,2023-09-04,株式会社ＦＸプライムｂｙＧＭＯ,,株式会社,東京都,渋谷区,道玄坂１丁目２番３号,,13,113,1500043,,,2023-09-04,合併による解散等,7011001113188,令和５年９月１日東京都渋谷区道玄坂一丁目２番３号ＧＭＯコイン株式会社（7011001113188）に合併し解散,2015-10-05,1,,,,,エフエックスプライムバイジーエムオー,0
655,3011001065672,登記記録の閉鎖等,0,2023-09-08,2023-09-01,株式会社ＴＯＭＯ,,株式会社,東京都,渋谷区,神宮前６丁目９番１号,,13,113,1500001,,,2023-09-01,合併による解散等,5011001037934,令和５年９月１日東京都渋谷区神宮前六丁目９番１号地下１階株式会社フェブライオディアレス（5011001037934）に合併し解散,2015-10-05,1,,,,,トモ,0
678,3011802013680,登記記録の閉鎖等,0,2023-09-08,2023-09-05,有限会社伸幸,,有限会社,東京都,足立区,西竹の塚２丁目４番２３号,,13,121,1210822,,,2023-09-05,清算の結了等,,,2015-10-05,1,,,,,シンコウ,0
698,3020001143017,登記記録の閉鎖等,0,2023-09-08,2023-09-01,株式会社ユニオン自動車,,株式会社,神奈川県,川崎市多摩区,東生田４丁目６番３号,,14,135,2140031,,,2023-09-01,清算の結了等,,,2021-09-17,1,,,,,ユニオンジドウシャ,0
704,3020002101295,登記記録の閉鎖等,0,2023-09-08,2023-09-01,有限会社和田塗装,,有限会社,神奈川県,川崎市幸区,下平間３５９番地,,14,132,2120053,,,2023-09-01,清算の結了等,,,2015-10-05,1,,,,,ワダトソウ,0
706,3020003016311,登記記録の閉鎖等,0,2023-09-08,2023-08-31,ビッグノーズトーキョー合同会社,,合同会社,神奈川県,川崎市宮前区,小台１丁目１９番地５東急鷺沼ドエル８０８,,14,136,2160007,,,2023-08-31,清算の結了等,,,2019-07-04,1,,,,,,0
709,3021001034940,登記記録の閉鎖等,0,2023-09-08,2023-09-01,株式会社ＭＡＳＴＥＲ,,株式会社,神奈川県,小田原市,酒匂４丁目１３番４３－８０１号,,14,206,2560816,,,2023-09-01,清算の結了等,,,2015-10-05,1,,,,,マスター,0
710,3021001042919,登記記録の閉鎖等,0,2023-09-08,2023-09-04,株式会社ハマシタ,,株式会社,神奈川県,横須賀市,大矢部４丁目４０番２２号,,14,201,2380024,,,2023-09-04,清算の結了等,,,2015-10-05,1,,,,,ハマシタ,0
748,3050002034435,登記記録の閉鎖等,0,2023-09-08,2023-09-01,有限会社巧研舎,,有限会社,茨城県,稲敷市,高田１５１４番地１,,08,229,3000511,,,2023-09-01,清算の結了等,,,2015-10-05,1,,,,,コウケンシャ,0
761,3080002013618,登記記録の閉鎖等,0,2023-09-08,2023-09-06,有限会社サンエス,,有限会社,静岡県,島田市,旭３丁目２２番２９号,,22,209,4270018,,,2023-09-06,清算の結了等,,,2015-10-05,1,,,,,サンエス,0
784,3120002036548,登記記録の閉鎖等,0,2023-09-08,2023-09-06,有限会社スタジオカズ,,有限会社,大阪府,大阪市中央区,南船場３丁目２番２８号,,27,128,5420081,,,2023-09-06,清算の結了等,,,2015-10-05,1,,,,,スタジオカズ,0
836,3180002039306,登記記録の閉鎖等,0,2023-09-08,2023-09-01,有限会社エクセル二十一,,有限会社,愛知県,名古屋市北区,池花町２１８番地,,23,103,4620005,,,2023-09-01,清算の結了等,,,2015-10-05,1,,,,,エクセルニジュウイチ,0
839,3180301022417,登記記録の閉鎖等,0,2023-09-08,2023-09-05,株式会社木村鋳造所,,株式会社,愛知県,西尾市,平坂町七良清水５番地,,23,213,4440305,,,2023-09-05,清算の結了等,,,2015-10-05,1,,,,,キムラチュウゾウショ,0
841,3200001026806,登記記録の閉鎖等,0,2023-09-08,2023-09-05,株式会社あすか,,株式会社,岐阜県,各務原市,蘇原早苗町８４番地,,21,213,5040826,,,2023-09-05,清算の結了等,,,2015-10-05,1,,,,,アスカ,0
843,3200001029049,登記記録の閉鎖等,0,2023-09-08,2023-09-05,株式会社夢現塾,,株式会社,岐阜県,瑞穂市,馬場上光町３丁目１４番地,,21,216,5010203,,,2023-09-05,清算の結了等,,,2015-10-05,1,,,,,ムゲンジュク,0
851,3240002015085,登記記録の閉鎖等,0,2023-09-08,2023-09-04,宝資不動産有限会社,,有限会社,広島県,広島市東区,若草町１０番６号,,34,102,7320053,,,2023-09-04,清算の結了等,,,2015-10-05,1,,,,,ホウシフドウサン,0
857,3260002025710,登記記録の閉鎖等,0,2023-09-08,2023-09-04,有限会社サン・アート,,有限会社,岡山県,井原市,井原町１８７番地の３,,33,207,7150019,,,2023-09-04,清算の結了等,,,2015-10-05,1,,,,,サンアート,0
871,3290805005278,登記記録の閉鎖等,0,2023-09-08,2023-08-04,天理教高塔分教会,,その他の設立登記法人,福岡県,北九州市若松区,波打町６番２７号,,40,103,8080013,,,2023-08-04,合併による解散等,7290805001125,令和５年８月４日北九州市戸畑区西大谷一丁目４番２２号天理教洞ノ海分教会（7290805001125）に合併し解散,2015-10-05,1,,,,,テンリキョウタカトウブンキョウカイ,0
895,3430001059989,登記記録の閉鎖等,0,2023-09-08,2023-08-29,株式会社馬の夢工房,,株式会社,北海道,浦河郡浦河町,字東栄５７１番地の６,,01,607,0593461,,,2023-08-29,清算の結了等,,,2015-10-05,1,,,,,ウマノユメコウボウ,0
918,4010001047787,登記記録の閉鎖等,0,2023-09-08,2023-08-31,株式会社スポーツ・インフォマ・ジャパン,,株式会社,東京都,世田谷区,尾山台３丁目１５番２０号,,13,112,1580086,,,2023-08-31,清算の結了等,,,2015-10-05,1,,,,,スポーツインフォマジャパン,0
919,4010001067802,登記記録の閉鎖等,0,2023-09-08,2023-09-01,株式会社インテグラル,,株式会社,東京都,千代田区,神田猿楽町２丁目１番１４号,,13,101,1010064,,,2023-09-01,清算の結了等,,,2015-10-05,1,,,,,インテグラル,0
930,4010001230970,登記記録の閉鎖等,0,2023-09-08,2023-09-01,株式会社ロイ,,株式会社,東京都,千代田区,神田猿楽町２丁目１番２号鎌形ビル４階,,13,101,1010064,,,2023-09-01,清算の結了等,,,2022-11-24,1,,,,,ロイ,0
940,4010401098117,登記記録の閉鎖等,0,2023-09-08,2023-08-21,プライムワールド株式会社,,株式会社,東京都,港区,南青山３丁目１４番２６－２０１号,,13,103,1070062,,,2023-08-21,清算の結了等,,,2015-10-05,1,,,,,プライムワールド,0
942,4010402006937,登記記録の閉鎖等,0,2023-09-08,2023-08-18,有限会社昭和塗装工芸,,有限会社,東京都,港区,新橋４丁目６番１０号,,13,103,1050004,,,2023-08-18,清算の結了等,,,2015-10-05,1,,,,,ショウワトソウコウゲイ,0
944,4010405011397,登記記録の閉鎖等,0,2023-09-08,2023-08-18,一般社団法人営業部女子課の会,,その他の設立登記法人,東京都,港区,南青山３丁目８番４０号青山センタービル２階,,13,103,1070062,,,2023-08-18,清算の結了等,,,2015-10-05,1,,,,,エイギョウブジョシカノカイ,0
945,4010405017857,登記記録の閉鎖等,0,2023-09-08,2023-09-05,一般社団法人ライフシンキング研究所,,その他の設立登記法人,東京都,渋谷区,神宮前２丁目３０番９号１０５号室,,13,113,1500001,,,2023-09-05,清算の結了等,,,2019-07-23,1,,,,,ライフシンキングケンキュウジョ,0
947,4010501041983,登記記録の閉鎖等,0,2023-09-08,2023-09-04,株式会社アーキスカイ,,株式会社,東京都,台東区,秋葉原５番９号明治安田生命秋葉原ビル,,13,106,1100006,,,2023-09-04,清算の結了等,,,2017-12-22,1,,,,,アーキスカイ,0
954,4011001061885,登記記録の閉鎖等,0,2023-09-08,2023-09-04,株式会社ワイズインテグレーション,,株式会社,東京都,渋谷区,千駄ヶ谷４丁目２３番５号ＪＰＲ千駄ヶ谷ビル,,13,113,1510051,,,2023-09-04,合併による解散等,7011001129374,令和５年９月１日東京都渋谷区千駄ヶ谷四丁目２３番５号ＪＰＲ千駄ヶ谷ビル株式会社サニーサイドアップ（7011001129374）に合併し解散,2015-10-05,1,,,,,ワイズインテグレーション,0
970,4011105004121,登記記録の閉鎖等,0,2023-09-08,2023-09-05,一般社団法人全日本公道ゴーカート協会,,その他の設立登記法人,東京都,千代田区,外神田２丁目４番６号,,13,101,1010021,,,2023-09-05,清算の結了等,,,2015-10-05,1,,,,,ゼンニホンコウドウゴーカートキョウカイ,0
973,4011302001763,登記記録の閉鎖等,0,2023-09-08,2023-09-06,有限会社エム・エム企画,,有限会社,東京都,武蔵野市,中町１丁目５番８号親和ビル３階,,13,203,1800006,,,2023-09-06,合併による解散等,9011202007798,令和５年９月１日川崎市川崎区駅前本町３番地３ムラタヤビル５階株式会社藏人（9011202007798）に合併し解散,2015-10-05,1,,,,,エムエムキカク,0
978,4011402019004,登記記録の閉鎖等,0,2023-09-08,2023-09-04,有限会社ＭＤ研究会,,有限会社,東京都,板橋区,赤塚３丁目３７－２１キャニオンビュー成増３０６号,,13,119,1750092,,,2023-09-04,清算の結了等,,,2015-10-05,1,,,,,エムディーケンキュウカイ,0
1011,4020003008282,登記記録の閉鎖等,0,2023-09-08,2023-09-01,合同会社岩瀬事務所,,合同会社,神奈川県,横浜市青葉区,美しが丘３丁目３２番地１,,14,117,2250002,,,2023-09-01,清算の結了等,,,2015-10-05,1,,,,,イワセジムショ,0
1020,4021002054136,登記記録の閉鎖等,0,2023-09-08,2023-09-01,有限会社住むすむ,,有限会社,神奈川県,小田原市,栢山２６５１番地１,,14,206,2500852,,,2023-09-01,清算の結了等,,,2015-10-05,1,,,,,,0
1054,4070001029417,登記記録の閉鎖等,0,2023-09-08,2023-09-01,株式会社高商ホテルズ,,株式会社,群馬県,高崎市,北双葉町５番１号,,10,202,3700842,,,2023-09-01,合併による解散等,4070001025390,令和５年９月１日群馬県高崎市飯塚町３４７番地２株式会社高商（4070001025390）に合併し解散,2015-10-05,1,,,,,タカショウホテルズ,0
1068,4110001001387,登記記録の閉鎖等,0,2023-09-08,2023-09-04,株式会社ウイネット,,株式会社,新潟県,新潟市中央区,弁天３丁目２番２０号,,15,103,9500901,,,2023-09-04,合併による解散等,3110001006247,令和５年９月１日新潟市中央区弁天三丁目２番２０号株式会社ウイネット（3110001006247）に合併し解散,2015-10-05,1,,,,,ウイネット,0
1069,4110001027110,登記記録の閉鎖等,0,2023-09-08,2023-08-31,株式会社夢化学,,株式会社,新潟県,南魚沼市,宮２２９４番地１５,,15,226,9496775,,,2023-08-31,清算の結了等,,,2015-10-05,1,,,,,ユメカガク,0
1075,4120001033264,登記記録の閉鎖等,0,2023-09-08,2023-09-04,株式会社トツプエージエンシ,,株式会社,大阪府,大阪市住吉区,長居２丁目９番４号,,27,120,5580003,,,2023-09-04,清算の結了等,,,2015-10-05,1,,,,,トップエージェンシ,0
1078,4120001133915,登記記録の閉鎖等,0,2023-09-08,2023-09-07,株式会社ジェイアンドシー企画,,株式会社,大阪府,大阪市中央区,瓦町４丁目３番１４号御堂アーバンライフ,,27,128,5410048,,,2023-09-07,清算の結了等,,,2015-10-05,1,,,,,ジェイアンドシーキカク,0
1086,4120001209698,登記記録の閉鎖等,0,2023-09-08,2023-09-05,株式会社ＤＳＧコーポレーション,,株式会社,大阪府,大阪市淀川区,東三国５丁目８番７号,,27,123,5320002,,,2023-09-05,合併による解散等,5180001102707,令和５年９月１日名古屋市中村区名駅五丁目３８番５号株式会社ＤＳＧ１（5180001102707）に合併し解散,2017-11-24,1,,,,,,0
1087,4120001227948,登記記録の閉鎖等,0,2023-09-08,2023-09-01,株式会社ｂｌｅｕｃｌａｉｒ,,株式会社,東京都,中央区,銀座１丁目１２番４Ｎ＆Ｅ・ＢＬＤ．７階,,13,102,1040061,,,2023-09-01,清算の結了等,,,2020-03-23,1,,,,,ブルークレール,0
1128,4160001018105,登記記録の閉鎖等,0,2023-09-08,2023-09-06,ホームバンク株式会社,,株式会社,三重県,桑名市,野田６丁目７－８,,24,205,5110904,,,2023-09-06,合併による解散等,4160001009582,令和５年９月１日滋賀県彦根市大堀町９６５－１１ハウジング光正株式会社（4160001009582）に合併し解散,2015-10-05,1,,,,,ホームバンク,0
1133,4180001046368,登記記録の閉鎖等,0,2023-09-08,2023-09-04,株式会社ジャパンジェム,,株式会社,愛知県,名古屋市中区,上前津２丁目１４番２２号,,23,106,4600013,,,2023-09-04,清算の結了等,,,2015-10-05,1,,,,,ジャパンジェム,0
1150,4180305007173,登記記録の閉鎖等,0,2023-09-08,2023-08-22,光明寺,,その他の設立登記法人,愛知県,西尾市,吉良町上横須賀宮前１４番地,,23,213,4440521,,,2023-08-22,合併による解散等,5180305004822,令和５年８月２２日愛知県碧南市松江町三丁目１０３番地松江寺（5180305004822）に合併し解散,2015-10-05,1,,,,,コウミョウジ,0
1164,4270001007526,登記記録の閉鎖等,0,2023-09-08,2023-09-01,株式会社ジョブファーム,,株式会社,鳥取県,鳥取市,湖山町西１丁目６５６番地,,31,201,6800947,,,2023-09-01,合併による解散等,9270001006060,令和５年９月１日鳥取市覚寺６１番地２株式会社ウィルファーム（9270001006060）に合併し解散,2018-05-23,1,,,,,ジョブファーム,0
1187,4380001027579,登記記録の閉鎖等,0,2023-09-08,2023-09-05,株式会社エンゼル那須白河,,株式会社,福島県,岩瀬郡天栄村,大字羽鳥字高戸屋３９番地,,07,344,9620623,,,2023-09-05,合併による解散等,1010401010471,令和５年９月１日静岡県熱海市田原本町９番１号株式会社エンゼルフォレストリゾート（1010401010471）に合併し解散,2016-12-06,1,,,,,エンゼルナスシラカワ,0
1205,4470002017628,登記記録の閉鎖等,0,2023-09-08,2023-09-05,有限会社グリーンハウスきむら,,有限会社,香川県,さぬき市,寒川町石田東甲７２２番地２,,37,206,7692321,,,2023-09-05,清算の結了等,,,2015-10-05,1,,,,,グリーンハウスキムラ,0
1220,5010001044370,登記記録の閉鎖等,0,2023-09-08,2023-09-01,株式会社三惠,,株式会社,東京都,中央区,日本橋横山町６番７号,,13,102,1030003,,,2023-09-01,清算の結了等,,,2015-10-05,1,,,,,サンケイ,0
1234,5010401016804,登記記録の閉鎖等,0,2023-09-08,2023-08-21,株式会社泰友オーナーメント,,株式会社,東京都,港区,白金４丁目９番２号,,13,103,1080072,,,2023-08-21,清算の結了等,,,2015-10-05,1,,,,,タイユウオーナーメント,0
1239,5010401126917,登記記録の閉鎖等,0,2023-09-08,2023-08-18,株式会社ウエダテキスト,,株式会社,東京都,港区,南青山２丁目２番１５号ウィン青山ビルＵＣＦ９１７号,,13,103,1070062,,,2023-08-18,清算の結了等,,,2016-09-07,1,,,,,ウエダテキスト,0
1245,5010402020012,登記記録の閉鎖等,0,2023-09-08,2023-08-21,有限会社コモ・ラ・ルナ,,有限会社,東京都,港区,赤坂３丁目１番６号ベルビー赤坂２０５号,,13,103,1070052,,,2023-08-21,清算の結了等,,,2015-10-05,1,,,,,,0
1259,5010701036543,登記記録の閉鎖等,0,2023-09-08,2023-08-18,ＺｅｎＰｅｔ株式会社,,株式会社,東京都,港区,浜松町２丁目２番１５号,,13,103,1050013,,,2023-08-18,清算の結了等,,,2018-10-03,1,,,,,ゼンペット,0
1287,5011705000485,登記記録の閉鎖等,0,2023-09-08,2023-09-06,医療法人社団悠々会,,その他の設立登記法人,東京都,江戸川区,篠崎町７丁目２７番２３号ＩＳＩビル４階,,13,123,1330061,,,2023-09-06,清算の結了等,,,2015-10-05,1,,,,,ユウユウカイ,0
1295,5020001073939,登記記録の閉鎖等,0,2023-09-08,2023-09-05,東京油槽株式会社,,株式会社,神奈川県,川崎市川崎区,千鳥町４番１号,,14,131,2100865,,,2023-09-05,合併による解散等,7010001032976,令和５年９月１日東京都中央区日本橋堀留町二丁目２番１号セントラル・タンクターミナル株式会社（7010001032976）に合併し解散,2015-10-05,1,,,,,,0
1325,5040001071420,登記記録の閉鎖等,0,2023-09-08,2023-08-24,株式会社日装建,,株式会社,千葉県,袖ケ浦市,神納３５番地１,,12,229,2990257,,,2023-08-24,清算の結了等,,,2015-10-05,1,,,,,ニッソウケン,0
1344,5070001027782,登記記録の閉鎖等,0,2023-09-08,2023-09-04,株式会社ピッチ,,株式会社,群馬県,高崎市,石原町３２２６番地２,,10,202,3700864,,,2023-09-04,清算の結了等,,,2015-10-05,1,,,,,,0
1348,5080002003328,登記記録の閉鎖等,0,2023-09-08,2023-09-04,青山有限会社,,有限会社,静岡県,静岡市葵区,瀬名１丁目２５番２号,,22,101,4200911,,,2023-09-04,清算の結了等,,,2015-10-05,1,,,,,アオヤマ,0
1351,5080002016370,登記記録の閉鎖等,0,2023-09-08,2023-09-06,有限会社焼津谷島屋,,有限会社,静岡県,焼津市,栄町４丁目２番４号,,22,212,4250027,,,2023-09-06,清算の結了等,,,2015-10-05,1,,,,,ヤイヅヤジマヤ,0
1371,5120002004890,登記記録の閉鎖等,0,2023-09-08,2023-09-07,宮電機産業有限会社,,有限会社,大阪府,大阪市鶴見区,浜２丁目２番２８－２０５号,,27,124,5380035,,,2023-09-07,清算の結了等,,,2015-10-05,1,,,,,ミヤデンキサンギョウ,0
1373,5120003011192,登記記録の閉鎖等,0,2023-09-08,2023-09-01,清美商事合同会社,,合同会社,大阪府,大阪市淀川区,宮原２丁目１１－９,,27,123,5320003,,,2023-09-01,清算の結了等,,,2015-12-02,1,,,,,,0
1378,5120005022782,登記記録の閉鎖等,0,2023-09-08,2023-09-06,特定非営利活動法人Ｐａｒａｄｅｒｏ,,その他の設立登記法人,大阪府,大阪市中央区,大手通１丁目４－１ニュー大手ビル２階１号,,27,128,5400021,,,2023-09-06,清算の結了等,,,2022-02-07,1,,,,,パラデロ,0
1386,5122001009441,登記記録の閉鎖等,0,2023-09-08,2023-09-01,株式会社アール・ワン,,株式会社,大阪府,東大阪市,宝持２丁目３番６号,,27,227,5770805,,,2023-09-01,合併による解散等,2122001002060,令和５年９月１日大阪府東大阪市宝持二丁目３番６号株式会社ケイ・アイ・エス（2122001002060）に合併し解散,2015-10-05,1,,,,,アールワン,0
1387,5122002002973,登記記録の閉鎖等,0,2023-09-08,2023-09-05,有限会社谷口リース,,有限会社,大阪府,大阪市阿倍野区,播磨町１丁目１７番１０号,,27,119,5450022,,,2023-09-05,清算の結了等,,,2015-10-05,1,,,,,タニグチリース,0
1420,5180001023382,登記記録の閉鎖等,0,2023-09-08,2023-09-01,オリモス株式会社,,株式会社,愛知県,日進市,藤塚６丁目１８９番地,,23,230,4700117,,,2023-09-01,清算の結了等,,,2015-10-05,1,,,,,オリモス,0
1424,5180001100553,登記記録の閉鎖等,0,2023-09-08,2023-09-04,仙雲山株式会社,,株式会社,愛知県,名古屋市守山区,青葉台１０２番地,,23,113,4630815,,,2023-09-04,清算の結了等,,,2015-10-05,1,,,,,センウンザン,0
1435,5180001142785,登記記録の閉鎖等,0,2023-09-08,2023-09-01,株式会社ＴＡＫＥ,,株式会社,愛知県,名古屋市守山区,八剣２丁目２０８番地の３,,23,113,4630022,,,2023-09-01,清算の結了等,,,2020-09-09,1,,,,,テイク,0
1437,5180001151035,登記記録の閉鎖等,0,2023-09-08,2023-09-06,日昇貿易株式会社,,株式会社,愛知県,名古屋市東区,東桜２丁目１３番１号,,23,102,4610005,,,2023-09-06,清算の結了等,,,2022-04-21,1,,,,,ニッショウボウエキ,0
1456,5200001006797,登記記録の閉鎖等,0,2023-09-08,2023-09-05,株式会社アーバン不動産,,株式会社,岐阜県,各務原市,鵜沼三ツ池町３丁目５９番地,,21,213,5090146,,,2023-09-05,清算の結了等,,,2015-10-05,1,,,,,アーバンフドウサン,0
1460,5210002000179,登記記録の閉鎖等,0,2023-09-08,2023-09-06,有限会社朝丸電設,,有限会社,福井県,福井市,新保３丁目８０１番地,,18,201,9100833,,,2023-09-06,清算の結了等,,,2015-10-05,1,,,,,アサマルデンセツ,0
1469,5260002024438,登記記録の閉鎖等,0,2023-09-08,2023-09-01,有限会社あくらケアサービス,,有限会社,岡山県,倉敷市,粒江２０番地２０,,33,202,7100034,,,2023-09-01,合併による解散等,4260002022450,令和５年９月１日岡山県倉敷市粒江２０番地２０株式会社フラップ（4260002022450）に合併し解散,2015-10-05,1,,,,,アクラケアサービス,0
1488,5320002011347,登記記録の閉鎖等,0,2023-09-08,2023-09-05,有限会社交宣社,,有限会社,大分県,別府市,大字鉄輪１１番地の６,,44,202,8740000,,,2023-09-05,清算の結了等,,,2015-10-05,1,,,,,,0
1489,5320002012080,登記記録の閉鎖等,0,2023-09-08,2023-09-01,有限会社沼田商店,,有限会社,大分県,別府市,大字鶴見２４７番地,,44,202,8740840,,,2023-09-01,清算の結了等,,,2015-10-05,1,,,,,,0
1499,5360003008487,登記記録の閉鎖等,0,2023-09-08,2023-08-24,合同会社メディア・ソリューションズ・セキ,,合同会社,沖縄県,豊見城市,字根差部３４９番地７,,47,212,9010205,,,2023-08-24,清算の結了等,,,2017-10-31,1,,,,,,0
1507,5400005004587,登記記録の閉鎖等,0,2023-09-08,2023-09-01,協同組合二戸ポイントカード会,,その他の設立登記法人,岩手県,二戸市,福岡字横丁２４番地,,03,213,0286101,,,2023-09-01,清算の結了等,,,2015-10-05,1,,,,,ニノヘポイントカードカイ,0
1523,5490005000405,登記記録の閉鎖等,0,2023-09-08,2023-09-01,高知県土地開発公社,,その他の設立登記法人,高知県,高知市,九反田４番１０－４０２号,,39,201,7800832,,,2023-09-01,清算の結了等,,,2015-10-05,1,,,,,コウチケン,0
1524,5500001007518,登記記録の閉鎖等,0,2023-09-08,2023-09-07,株式会社ワイズロコ,,株式会社,愛媛県,伊予郡松前町,大字南黒田６７０番地,,38,401,7913101,,,2023-09-07,清算の結了等,,,2015-10-05,1,,,,,ワイズロコ,0
1544,6010001119808,登記記録の閉鎖等,0,2023-09-08,2023-09-01,株式会社デジタルライツ,,株式会社,東京都,千代田区,神田猿楽町２丁目１番１４号,,13,101,1010064,,,2023-09-01,清算の結了等,,,2015-10-05,1,,,,,デジタルライツ,0
1557,6010005031471,登記記録の閉鎖等,0,2023-09-08,2023-09-04,多治見特定目的会社,,その他の設立登記法人,東京都,千代田区,平河町１丁目６番１５号シルスフィア会計事務所内,,13,101,1020093,,,2023-09-04,清算の結了等,,,2020-02-19,1,,,,,タジミ,0
1566,6010401140652,登記記録の閉鎖等,0,2023-09-08,2023-08-31,株式会社ＰＡＮＰＡＮＰＡＮ,,株式会社,北海道,広尾郡大樹町,西本通２６,,01,641,0892152,,,2023-08-31,合併による解散等,7460101006835,令和５年８月２８日東京都千代田区神田錦町二丁目２番地１株式会社こむぎの（7460101006835）に合併し解散,2018-09-06,1,,,,,パンパンパン,0
1567,6010401159684,登記記録の閉鎖等,0,2023-09-08,2023-08-18,株式会社ＯＭＯＴＥＮＡＳＨＩ　ＳＴＹＬＥ,,株式会社,東京都,港区,南麻布１丁目２７番２０号カーサ麻布ＡＮＮＥＸ４０３号室,,13,103,1060047,,,2023-08-18,清算の結了等,,,2021-04-21,1,,,,,オモテナシスタイル,0
1571,6010403011950,登記記録の閉鎖等,0,2023-09-08,2023-09-05,Ｂｒｉｇａｄｅ　Ｃａｐｉｔａｌ　Ｊａｐａｎ合同会社,,合同会社,東京都,新宿区,西新宿３丁目５番３－２０２号,,13,104,1600023,,,2023-09-05,清算の結了等,,,2015-10-05,1,,,,,ブリゲードキャピタルジャパン,0
1583,6011001069687,登記記録の閉鎖等,0,2023-09-08,2023-09-05,フルハウス株式会社,,株式会社,東京都,渋谷区,神宮前５丁目１２－４アルカディア表参道１０２号,,13,113,1500001,,,2023-09-05,清算の結了等,,,2015-10-05,1,,,,,フルハウス,0
1624,6020001041127,登記記録の閉鎖等,0,2023-09-08,2023-08-31,株式会社ツボイエージェント,,株式会社,神奈川県,横浜市磯子区,洋光台３丁目１１番２３号,,14,107,2350045,,,2023-08-31,清算の結了等,,,2015-10-05,1,,,,,ツボイエージェント,0
1628,6020003018536,登記記録の閉鎖等,0,2023-09-08,2023-08-31,サウンドスケープリサーチ合同会社,,合同会社,神奈川県,横浜市中区,桜木町１丁目１０１番地１クロスゲート７階,,14,104,2310062,,,2023-08-31,清算の結了等,,,2020-09-24,1,,,,,サウンドスケープリサーチ,0
1630,6021001038377,登記記録の閉鎖等,0,2023-09-08,2023-09-04,さくらテック株式会社,,株式会社,神奈川県,平塚市,御殿３丁目２３番３９－１号,,14,203,2540061,,,2023-09-04,清算の結了等,,,2015-10-05,1,,,,,サクラテック,0
1637,6030001128583,登記記録の閉鎖等,0,2023-09-08,2023-09-06,株式会社Ｌｅｇｉｔ　Ｎｅｔｗｏｒｋｓ,,株式会社,東京都,新宿区,西新宿１丁目２５番１号,,13,104,1600023,,,2023-09-06,清算の結了等,,,2018-12-07,1,,,,,レジットネットワークス,0
1655,6040002021142,登記記録の閉鎖等,0,2023-09-08,2023-08-16,有限会社近江屋,,有限会社,千葉県,船橋市,本町２丁目２８番９号,,12,204,2730005,,,2023-08-16,清算の結了等,,,2015-10-05,1,,,,,オオミヤ,0
1671,6070001001745,登記記録の閉鎖等,0,2023-09-08,2023-09-04,株式会社鈴木商会,,株式会社,群馬県,前橋市,問屋町２丁目３番地の３,,10,201,3710855,,,2023-09-04,清算の結了等,,,2015-10-05,1,,,,,スズキショウカイ,0
1676,6080001015199,登記記録の閉鎖等,0,2023-09-08,2023-09-05,丸久漁業株式会社,,株式会社,静岡県,焼津市,栄町２丁目８番１９号,,22,212,4250027,,,2023-09-05,清算の結了等,,,2015-10-05,1,,,,,マルキュウギョギョウ,0
1677,6080105005930,登記記録の閉鎖等,0,2023-09-08,2023-09-05,一般社団法人日本整理士協会,,その他の設立登記法人,静岡県,沼津市,大手町３丁目４番１１号日本整理士会館ビルディング３Ｆ,,22,203,4100801,,,2023-09-05,清算の結了等,,,2019-03-28,1,,,,,ニホンセイリシキョウカイ,0
1684,6100002030616,登記記録の閉鎖等,0,2023-09-08,2023-08-31,有限会社矢ヶ崎自動車,,有限会社,長野県,茅野市,本町東１３番２１号,,20,214,3910003,,,2023-08-31,清算の結了等,,,2015-10-05,1,,,,,ヤガサキジドウシャ,0
1688,6120001037940,登記記録の閉鎖等,0,2023-09-08,2023-09-05,株式会社近商,,株式会社,大阪府,堺市中区,深井清水町３６０４－１０６号室,,27,142,5998273,,,2023-09-05,清算の結了等,,,2015-10-05,1,,,,,キンショウ,0
1701,6120003018063,登記記録の閉鎖等,0,2023-09-08,2023-09-06,合同会社ネクストロジーズ,,合同会社,大阪府,大阪市西区,新町１丁目１４番２１号,,27,106,5500013,,,2023-09-06,清算の結了等,,,2020-09-10,1,,,,,ネクストロジーズ,0
1702,6120005008938,登記記録の閉鎖等,0,2023-09-08,2023-09-05,特定非営利活動法人浪速魚菜の会,,その他の設立登記法人,大阪府,大阪市天王寺区,逢阪２丁目４番７号,00031935,27,109,5430062,,,2023-09-05,清算の結了等,,,2015-10-05,1,,,,,ナニワギョサイノカイ,0
1718,6180001008787,登記記録の閉鎖等,0,2023-09-08,2023-09-01,中部宇部産業株式会社,,株式会社,愛知県,名古屋市昭和区,白金１丁目６番１０号鈴木ビル２階,,23,107,4660058,,,2023-09-01,清算の結了等,,,2015-10-05,1,,,,,チュウブウベサンギョウ,0
1730,6180002051935,登記記録の閉鎖等,0,2023-09-08,2023-09-04,有限会社高須建具,00073203,有限会社,愛知県,北名古屋市,熊之庄新宮２２８番地,,23,234,4810006,,,2023-09-04,清算の結了等,,,2015-10-05,1,,,,,タカスカグ,0
1737,6180005001202,登記記録の閉鎖等,0,2023-09-08,2023-08-28,天理教愛東陽分教会,,その他の設立登記法人,愛知県,名古屋市昭和区,福江２丁目３番１０号,,23,107,4660059,,,2023-08-28,合併による解散等,3180005010585,令和５年８月２８日愛知県稲沢市片原一色町才ノ上５０番地の１、５１番地の１天理教金城西分教会（3180005010585）に合併し解散,2015-10-05,1,,,,,テンリキョウアイトウヨウブンキョウカイ,0
1743,6190001020634,登記記録の閉鎖等,0,2023-09-08,2023-09-04,株式会社イイミライ,,株式会社,三重県,四日市市,川島町６０００番地１７５,,24,202,5120934,,,2023-09-04,清算の結了等,,,2015-10-05,1,,,,,,0
1748,6190002010023,登記記録の閉鎖等,0,2023-09-08,2023-09-01,有限会社吉村建設,,有限会社,三重県,伊勢市,小俣町相合１２５０番地１,,24,203,5190502,,,2023-09-01,合併による解散等,5190002010024,令和５年９月１日三重県伊勢市上地町４２３９番地１株式会社吉村工作所（5190002010024）に合併し解散,2015-10-05,1,,,,,ヨシムラケンセツ,0
1759,6230002012270,登記記録の閉鎖等,0,2023-09-08,2023-09-06,有限会社横山洋品店,,有限会社,富山県,高岡市,坂下町２７番地,,16,202,9330038,,,2023-09-06,清算の結了等,,,2015-10-05,1,,,,,ヨコヤマヨウヒンテン,0
1761,6240001016486,登記記録の閉鎖等,0,2023-09-08,2023-09-04,アイストック株式会社,,株式会社,広島県,広島市南区,皆実町４丁目１番１４号,,34,103,7340007,,,2023-09-04,清算の結了等,,,2015-10-05,1,,,,,アイストック,0
1762,6240001031386,登記記録の閉鎖等,0,2023-09-08,2023-09-04,株式会社テックス,,株式会社,広島県,福山市,本町６番１２号,,34,207,7200056,,,2023-09-04,清算の結了等,,,2015-10-05,1,,,,,テックス,0
1765,6240002006478,登記記録の閉鎖等,0,2023-09-08,2023-09-01,有限会社佐伯産業,,有限会社,広島県,広島市佐伯区,五日市町大字石内１３３０番地の７４,,34,108,7315102,,,2023-09-01,清算の結了等,,,2015-10-05,1,,,,,サエキサンギョウ,0
1773,6270001002319,登記記録の閉鎖等,0,2023-09-08,2023-09-05,澤田工業株式会社,,株式会社,鳥取県,鳥取市,用瀬町鷹狩６６１番地１,,31,201,6891213,,,2023-09-05,清算の結了等,,,2015-10-05,1,,,,,サワダコウギョウ,0
1774,6290001035390,登記記録の閉鎖等,0,2023-09-08,2023-08-24,太康開発株式会社,,株式会社,福岡県,福岡市東区,香椎照葉７丁目１番２４号,,40,131,8130017,,,2023-08-24,清算の結了等,,,2015-10-05,1,,,,,タイコウカイハツ,0
1784,6330005007365,登記記録の閉鎖等,0,2023-09-08,2023-08-30,ＮＰＯ法人天草木場の杜自然学校,,その他の設立登記法人,熊本県,天草郡苓北町,都呂々６１１８番地２,,43,531,8632611,,,2023-08-30,清算の結了等,,,2015-10-05,1,,,,,アマクサコバノモリシゼンガッコウ,0
1787,6350002008744,登記記録の閉鎖等,0,2023-09-08,2023-09-01,有限会社ＰＥＡＣＥ．Ｋ２,,有限会社,宮崎県,東諸県郡国富町,大字本庄９１３番地,,45,382,8801101,,,2023-09-01,清算の結了等,,,2015-10-05,1,,,,,ピースケイツウ,0
1811,6430001066140,登記記録の閉鎖等,0,2023-09-08,2023-09-05,マスターラインジャパン株式会社,,株式会社,北海道,札幌市豊平区,平岸八条１３丁目１番１２－２号,,01,105,0620938,,,2023-09-05,清算の結了等,,,2015-10-05,1,,,,,マスターラインジャパン,0
1817,6470002004938,登記記録の閉鎖等,0,2023-09-08,2023-08-29,有限会社トモエ化粧品店,,有限会社,香川県,高松市,香西本町４１５番地２,,37,201,7618012,,,2023-08-29,清算の結了等,,,2015-10-05,1,,,,,トモエケショウヒンテン,0
1819,6490002010983,登記記録の閉鎖等,0,2023-09-08,2023-09-04,有限会社島井百貨店,,有限会社,高知県,高岡郡四万十町,大正大奈路７８番地,,39,412,7860312,,,2023-09-04,清算の結了等,,,2015-10-05,1,,,,,シマイヒャッカテン,0
1844,7010102003488,登記記録の閉鎖等,0,2023-09-08,2023-09-04,有限会社杉本鉄工所,,有限会社,東京都,八王子市,中野上町２丁目８番３号,,13,201,1920041,,,2023-09-04,清算の結了等,,,2015-10-05,1,,,,,スギモトテッコウジョ,0
1856,7010403021338,登記記録の閉鎖等,0,2023-09-08,2023-08-18,芝インベストメンツ２合同会社,,合同会社,東京都,港区,六本木１丁目６番１号泉ガーデンタワー,,13,103,1060032,,,2023-08-18,清算の結了等,,,2019-08-28,1,,,,,シバインベストメンツツー,0
1857,7010403026493,登記記録の閉鎖等,0,2023-09-08,2023-08-17,Ｐｉｒａｍａｌ　Ｐｈａｒｍａ　Ｊａｐａｎ合同会社,,合同会社,東京都,港区,赤坂２丁目２３番１号アークヒルズ・フロントタワーＩｎＣｏｎｔｒｏｌ内,,13,103,1070052,,,2023-08-17,清算の結了等,,,2021-11-10,1,,,,,ピラマルファーマジャパン,0
1858,7010501021719,登記記録の閉鎖等,0,2023-09-08,2023-09-06,株式会社前川建築研究室,,株式会社,東京都,台東区,鳥越１丁目１２番１号,,13,106,1110054,,,2023-09-06,清算の結了等,,,2015-10-05,1,,,,,マエカワケンチクケンキュウシツ,0
1885,7011005009093,登記記録の閉鎖等,0,2023-09-08,2023-09-04,一般社団法人日本ダンス連合,,その他の設立登記法人,東京都,目黒区,自由が丘１丁目２番７国際パレス自由が丘２０３号,,13,110,1520035,,,2023-09-04,清算の結了等,,,2021-06-17,1,,,,,ニッポンダンスレンゴウ,0
1892,7011201024573,登記記録の閉鎖等,0,2023-09-08,2023-09-07,株式会社Ｎａｕｔｉｌｅ,,株式会社,東京都,中野区,南台２丁目９－１－１３０１,,13,114,1640014,,,2023-09-07,清算の結了等,,,2023-04-18,1,,,,,ノティール,0
1894,7011401010687,登記記録の閉鎖等,0,2023-09-08,2023-09-07,株式会社恒仁,,株式会社,東京都,板橋区,桜川１丁目５番１号,,13,119,1740075,,,2023-09-07,清算の結了等,,,2015-10-05,1,,,,,コウジン,0
1911,7012401011097,登記記録の閉鎖等,0,2023-09-08,2023-09-06,ケイアイユーシステム株式会社,,株式会社,東京都,武蔵野市,中町１丁目４番４号,,13,203,1800006,,,2023-09-06,清算の結了等,,,2015-10-05,1,,,,,,0
1913,7012701008710,登記記録の閉鎖等,0,2023-09-08,2023-09-05,株式会社ＭＪコンサルタンツ,,株式会社,東京都,東村山市,美住町１丁目９番地１０,,13,213,1890023,,,2023-09-05,清算の結了等,,,2015-10-05,1,,,,,エムジェイコンサルタンツ,0
1921,7020001077624,登記記録の閉鎖等,0,2023-09-08,2023-08-31,株式会社トリビュート,,株式会社,神奈川県,川崎市川崎区,大島３丁目２９番６号,,14,131,2100834,,,2023-08-31,清算の結了等,,,2015-10-05,1,,,,,トリビュート,0
1922,7020001082921,登記記録の閉鎖等,0,2023-09-08,2023-09-06,株式会社ジャップスギャップス,,株式会社,東京都,稲城市,東長沼９９９番地の１ステージ１－４０２号室,,13,225,2060802,,,2023-09-06,清算の結了等,,,2015-10-05,1,,,,,ジャプスギャップス,0
1923,7020001083192,登記記録の閉鎖等,0,2023-09-08,2023-08-31,株式会社ＨＢＲ,,株式会社,神奈川県,横浜市磯子区,磯子３丁目１３番Ｊ－１０６号,,14,107,2350016,,,2023-08-31,清算の結了等,,,2015-10-05,1,,,,,エイチビーアール,0
1928,7020002000139,登記記録の閉鎖等,0,2023-09-08,2023-08-31,有限会社海コーポレーション,,有限会社,神奈川県,横浜市栄区,元大橋２丁目３０番１８号,,14,115,2470011,,,2023-08-31,清算の結了等,,,2015-10-05,1,,,,,カイコーポレーション,0
1930,7020002060348,登記記録の閉鎖等,0,2023-09-08,2023-09-01,ブリッツェン有限会社,,有限会社,神奈川県,横浜市緑区,長津田５丁目４番２８号アミティエＳＱ３０５,,14,113,2260027,,,2023-09-01,清算の結了等,,,2015-10-05,1,,,,,ブリッツェン,0
1943,7030001024096,登記記録の閉鎖等,0,2023-09-08,2023-08-14,株式会社埼玉計算センター,,株式会社,埼玉県,所沢市,小手指町４丁目１６番７号,,11,208,3591141,,,2023-08-14,清算の結了等,,,2015-10-05,1,,,,,サイタマケイサンセンター,0
1956,7030005013863,登記記録の閉鎖等,0,2023-09-08,2023-08-25,天理教東行田分教会,,その他の設立登記法人,埼玉県,行田市,佐間２丁目１１番１４号,,11,206,3610032,,,2023-08-25,合併による解散等,5030005013865,令和５年８月２５日埼玉県行田市本丸１２番３４号天理教吹上分教会（5030005013865）に合併し解散,2015-10-05,1,,,,,テンリキョウヒガシギョウダブンキョウカイ,0
1995,7080401019666,登記記録の閉鎖等,0,2023-09-08,2023-09-06,株式会社ワールド,,株式会社,静岡県,浜松市東区,丸塚町５３０番地４,00079751,22,132,4350046,,,2023-09-06,清算の結了等,,,2015-10-05,1,,,,,ワールド,0
2007,7110001011359,登記記録の閉鎖等,0,2023-09-08,2023-09-04,株式会社蔦屋,,株式会社,新潟県,阿賀野市,堀越６００番地,,15,223,9592055,,,2023-09-04,清算の結了等,,,2015-10-05,1,,,,,ツタヤ,0
2009,7110005009449,登記記録の閉鎖等,0,2023-09-08,2023-09-04,特定非営利活動法人さいがたぬくもりの会,,その他の設立登記法人,新潟県,上越市,大潟区犀潟４６８番地１,,15,222,9493116,,,2023-09-04,清算の結了等,,,2015-10-05,1,,,,,サイガタヌクモリノカイ,0
2011,7120001081293,登記記録の閉鎖等,0,2023-09-08,2023-09-04,株式会社シャトル,,株式会社,大阪府,大阪市中央区,高麗橋４丁目６番１４号,,27,128,5410043,,,2023-09-04,清算の結了等,,,2015-10-05,1,,,,,シャトル,0
2015,7120001174304,登記記録の閉鎖等,0,2023-09-08,2023-09-04,マブチ建設株式会社,,株式会社,大阪府,寝屋川市,美井元町２４番３３号,,27,215,5720006,,,2023-09-04,清算の結了等,,,2015-10-05,1,,,,,マブチケンセツ,0
2019,7120002013411,登記記録の閉鎖等,0,2023-09-08,2023-09-05,有限会社ナカキン,,有限会社,大阪府,大阪市天王寺区,上本町８丁目２番８－１２０２号,,27,109,5430001,,,2023-09-05,清算の結了等,,,2015-10-05,1,,,,,ナカキン,0
2036,7130001010301,登記記録の閉鎖等,0,2023-09-08,2023-08-23,河田染色株式会社,,株式会社,京都府,京都市南区,吉祥院石原上川原町５７番地,,26,107,6018382,,,2023-08-23,清算の結了等,,,2015-10-05,1,,,,,カワタセンショク,0
2037,7130001011530,登記記録の閉鎖等,0,2023-09-08,2023-08-25,百寶堂株式会社,,株式会社,京都府,京都市南区,吉祥院南落合町１０番地の１,,26,107,6018326,,,2023-08-25,清算の結了等,,,2015-10-05,1,,,,,ヒャクホウドウ,0
2042,7140001073140,登記記録の閉鎖等,0,2023-09-08,2023-08-21,実久利株式会社,,株式会社,東京都,港区,西新橋２丁目４番３号プロス西新橋ビル６Ｆ,,13,103,1050003,,,2023-08-21,清算の結了等,,,2015-10-05,1,,,,,ミクリ,0
2054,7140005004488,登記記録の閉鎖等,0,2023-09-08,2023-09-05,特定非営利活動法人フットサポート・ピドクラブ,,その他の設立登記法人,兵庫県,神戸市灘区,日尾町１丁目２番９号豆田ビル１階,,28,102,6570029,,,2023-09-05,清算の結了等,,,2015-10-05,1,,,,,フットサポートピドクラブ,0
2065,7180002004421,登記記録の閉鎖等,0,2023-09-08,2023-09-01,有限会社ジャック企画,,有限会社,愛知県,名古屋市千種区,園山町１丁目２３番地の２,,23,101,4640812,,,2023-09-01,清算の結了等,,,2015-10-05,1,,,,,ジャックキカク,0
2073,7190001001732,登記記録の閉鎖等,0,2023-09-08,2023-09-04,ＣＭＣマテリアルズ株式会社,,株式会社,三重県,津市,芸濃町北神山１２８７番地の１９,,24,201,5142213,,,2023-09-04,合併による解散等,5010401098925,令和５年８月７日東京都港区三田一丁目４番２８号インテグリス・ジャパン株式会社（5010401098925）に合併し解散,2015-10-05,1,,,,,シーエムシーマテリアルズ,0
2084,7290001012190,登記記録の閉鎖等,0,2023-09-08,2023-08-28,甲斐原工機株式会社,,株式会社,福岡県,福津市,手光南１丁目７番８号,,40,224,8113218,,,2023-08-28,清算の結了等,,,2015-10-05,1,,,,,カイバラコウキ,0
2101,7310002012740,登記記録の閉鎖等,0,2023-09-08,2023-09-05,オリーブ有限会社,,有限会社,長崎県,佐世保市,柚木元町２３１７番地,,42,202,8570115,,,2023-09-05,清算の結了等,,,2015-10-05,1,,,,,オリーブ,0
2112,7350003003768,登記記録の閉鎖等,0,2023-09-08,2023-09-01,合同会社富士電装サービス,,合同会社,宮崎県,宮崎市,花ケ島町字小無田６４９番地８,,45,201,8800036,,,2023-09-01,清算の結了等,,,2021-03-05,1,,,,,フジデンソーサービス,0
2125,7430002020104,登記記録の閉鎖等,0,2023-09-08,2023-08-30,有限会社元町薬品,,有限会社,北海道,札幌市南区,真駒内本町６丁目２番３号,,01,106,0050021,,,2023-08-30,清算の結了等,,,2015-10-05,1,,,,,モトマチヤクヒン,0
2131,7490001003483,登記記録の閉鎖等,0,2023-09-08,2023-09-01,株式会社生田ビルディングメンテナンス,,株式会社,高知県,高知市,天神町１４番２号,,39,201,7808012,,,2023-09-01,合併による解散等,1490001003571,令和５年９月１日高知市天神町１１番１３号四国昇降機サービス株式会社（1490001003571）に合併し解散,2015-10-05,1,,,,,イクタビルディングメンテナンス,0
2134,7500002001071,登記記録の閉鎖等,0,2023-09-08,2023-09-07,有限会社井上建具,,有限会社,愛媛県,松山市,針田町９８番地４,,38,201,7900055,,,2023-09-07,清算の結了等,,,2015-10-05,1,,,,,イノウエタテグ,0
2135,7500002017547,登記記録の閉鎖等,0,2023-09-08,2023-09-06,有限会社Ｗ＆Ｓサポート,,有限会社,愛媛県,新居浜市,萩生３５６番地の２,,38,205,7920050,,,2023-09-06,清算の結了等,,,2015-10-05,1,,,,,ダブルアンドエスサポート,0
2146,8010001088324,登記記録の閉鎖等,0,2023-09-08,2023-09-01,株式会社ヨーク,,株式会社,東京都,千代田区,二番町８番地８,,13,101,1020084,,,2023-09-01,合併による解散等,2010001098023,令和５年９月１日東京都千代田区二番町８番地８株式会社イトーヨーカ堂（2010001098023）に合併し解散,2015-10-05,1,,,,,ヨーク,0
2147,8010001115458,登記記録の閉鎖等,0,2023-09-08,2023-09-01,株式会社ａｎｙｔｉｍｅ,,株式会社,東京都,中央区,日本橋人形町２丁目１４番９号５Ａ,,13,102,1030013,,,2023-09-01,清算の結了等,,,2015-10-05,1,,,,,エニタイム,0
2150,8010001203460,登記記録の閉鎖等,0,2023-09-08,2023-09-01,ロータス・ケア・サービス株式会社,,株式会社,東京都,千代田区,西神田１丁目３番１４号根木ビル２０３,,13,101,1010065,,,2023-09-01,清算の結了等,,,2019-08-26,1,,,,,ロータスケアサービス,0
2155,8010003020185,登記記録の閉鎖等,0,2023-09-08,2023-09-01,スターリアルエステイト合同会社,,合同会社,東京都,中央区,日本橋人形町３丁目６番３－４０１号,,13,102,1030013,,,2023-09-01,清算の結了等,,,2015-10-05,1,,,,,スターリアルエステイト,0
2160,8010102002514,登記記録の閉鎖等,0,2023-09-08,2023-09-04,有限会社コウヘイホーム,,有限会社,東京都,八王子市,大谷町４４番地４,,13,201,1920034,,,2023-09-04,清算の結了等,,,2015-10-05,1,,,,,コウヘイホーム,0
2172,8010405018075,登記記録の閉鎖等,0,2023-09-08,2023-08-18,芝キャピタル１一般社団法人,,その他の設立登記法人,東京都,港区,六本木１丁目６番１号泉ガーデンタワー,,13,103,1060032,,,2023-08-18,清算の結了等,,,2019-09-18,1,,,,,シバキャピタルワン,0
2180,8010703003613,登記記録の閉鎖等,0,2023-09-08,2023-09-04,合同会社Ｈａｖｅ　ａ　ｇｏｏｄ　ｔｉｍｅ,,合同会社,東京都,世田谷区,給田５丁目１３番２－１０９号,,13,112,1570064,,,2023-09-04,清算の結了等,,,2017-05-16,1,,,,,ハブアグッドタイム,0
2181,8010801010486,登記記録の閉鎖等,0,2023-09-08,2023-09-05,株式会社不動樹脂工業所,,株式会社,東京都,大田区,仲六郷１丁目５７番１号,,13,111,1440055,,,2023-09-05,清算の結了等,,,2015-10-05,1,,,,,フドウジュシコウギョウショ,0
2195,8011002026280,登記記録の閉鎖等,0,2023-09-08,2023-09-04,有限会社グレイスアカデミー,,有限会社,福岡県,北九州市八幡西区,光貞台１丁目８番６－４１１号,,40,109,8070805,,,2023-09-04,清算の結了等,,,2015-10-05,1,,,,,グレイスアカデミー,0
2230,8012301006254,登記記録の閉鎖等,0,2023-09-08,2023-09-05,株式会社装工社,,株式会社,東京都,町田市,高ヶ坂７丁目９番２７号,,13,209,1940014,,,2023-09-05,清算の結了等,,,2015-10-05,1,,,,,ソウコウシャ,0
2235,8012701013412,登記記録の閉鎖等,0,2023-09-08,2023-09-05,株式会社Ｄ’Ｓ　ＳＴＹＬＥ東京西,,株式会社,東京都,東村山市,青葉町２丁目１９番地８,,13,213,1890002,,,2023-09-05,清算の結了等,,,2015-10-29,1,,,,,ディーズスタイルトウキョウニシ,0
2253,8020002069883,登記記録の閉鎖等,0,2023-09-08,2023-09-01,有限会社共和,,有限会社,神奈川県,横浜市都筑区,茅ケ崎中央１１番５号パスタビル１階,,14,118,2240032,,,2023-09-01,清算の結了等,,,2015-10-05,1,,,,,,0
2278,8030002092216,登記記録の閉鎖等,0,2023-09-08,2023-08-10,有限会社小川石油,,有限会社,埼玉県,坂戸市,大字中小坂１００３番地の１,,11,239,3500206,,,2023-08-10,清算の結了等,,,2015-10-05,1,,,,,オガワセキユ,0
2289,8040002040009,登記記録の閉鎖等,0,2023-09-08,2023-08-23,有限会社岡三企画,,有限会社,千葉県,市川市,塩焼２丁目２番２号棟４０３号,,12,203,2720114,,,2023-08-23,清算の結了等,,,2015-10-05,1,,,,,オカサンキカク,0
2303,8060002027722,登記記録の閉鎖等,0,2023-09-08,2023-08-31,有限会社アライ,,有限会社,栃木県,栃木市,箱森町２９番２５号,,09,203,3280075,,,2023-08-31,清算の結了等,,,2015-10-05,1,,,,,アライ,0
2317,8110001033823,登記記録の閉鎖等,0,2023-09-08,2023-09-04,株式会社アイエヌテック国上,,株式会社,新潟県,柏崎市,大字藤井１４０８番地１,,15,205,9450114,,,2023-09-04,清算の結了等,,,2019-02-12,1,,,,,アイエヌテッククガミ,0
2322,8120001166358,登記記録の閉鎖等,0,2023-09-08,2023-09-01,株式会社北大阪文植センター,,株式会社,大阪府,大阪市北区,中津３丁目２５番５号,,27,127,5310071,,,2023-09-01,清算の結了等,,,2015-10-05,1,,,,,キタオオサカブンショクセンター,0
2323,8120001205438,登記記録の閉鎖等,0,2023-09-08,2023-09-04,アイレス株式会社,,株式会社,大阪府,大阪市平野区,背戸口５丁目３番３号,,27,126,5470034,,,2023-09-04,清算の結了等,,,2017-05-12,1,,,,,アイレス,0
2332,8120101041279,登記記録の閉鎖等,0,2023-09-08,2023-09-01,大房毛糸紡績株式会社,,株式会社,大阪府,和泉市,伏屋町２丁目１７番１７号,,27,219,5940031,,,2023-09-01,合併による解散等,5120101042016,令和５年９月１日大阪府和泉市伏屋町二丁目１７番１７号株式会社山本毛糸紡績（5120101042016）に合併し解散,2015-10-05,1,,,,,オオフサケイトボウセキ,0
2345,8130001064263,登記記録の閉鎖等,0,2023-09-08,2023-08-23,株式会社エスママ,,株式会社,京都府,京都市中京区,天神山町２８０番地石勘ビル５Ｆ－７,,26,104,6048221,,,2023-08-23,清算の結了等,,,2019-04-05,1,,,,,エスママ,0
2348,8130002002164,登記記録の閉鎖等,0,2023-09-08,2023-08-24,有限会社オフイスエム,,有限会社,京都府,京都市上京区,一条通西洞院東入元真如堂町３７５番地の２,,26,102,6020926,,,2023-08-24,清算の結了等,,,2015-10-05,1,,,,,オフィスエム,0
2359,8160002005791,登記記録の閉鎖等,0,2023-09-08,2023-09-05,有限会社和伸会,,有限会社,滋賀県,甲賀市,信楽町勅旨岩倉１０番地,,25,209,5291804,,,2023-09-05,清算の結了等,,,2023-07-31,1,,,,,ワシンカイ,0
2362,8180001061421,登記記録の閉鎖等,0,2023-09-08,2023-09-06,株式会社ベジ・ファー,,株式会社,愛知県,名古屋市中川区,戸田２丁目１５０３番地２,,23,110,4540962,,,2023-09-06,清算の結了等,,,2015-10-05,1,,,,,ベジファー,0
2372,8180003011333,登記記録の閉鎖等,0,2023-09-08,2023-09-07,合同会社ティーズ,,合同会社,愛知県,丹羽郡扶桑町,大字山那字屋敷地６８３,,23,362,4800101,,,2023-09-07,清算の結了等,,,2015-10-05,1,,,,,ティーズ,0
2391,8240002037199,登記記録の閉鎖等,0,2023-09-08,2023-09-04,有限会社沖デザイン事務所,,有限会社,広島県,廿日市市,四季が丘９丁目９番地の１５,,34,213,7380036,,,2023-09-04,清算の結了等,,,2015-10-05,1,,,,,オキデザインジムショ,0
2401,8280001005079,登記記録の閉鎖等,0,2023-09-08,2023-09-06,長藤木工株式会社,,株式会社,島根県,益田市,常盤町５番２３号,,32,204,6980023,,,2023-09-06,清算の結了等,,,2015-10-05,1,,,,,ナガフジモッコウ,0
2406,8290001093544,登記記録の閉鎖等,0,2023-09-08,2023-08-28,株式会社Ｊａｚｚ　Ｃｏｋｅ,,株式会社,福岡県,福岡市博多区,博多駅前１丁目１１番１５－７０３号,,40,132,8120011,,,2023-08-28,清算の結了等,,,2021-06-17,1,,,,,ジャズコーク,0
2415,8290801007190,登記記録の閉鎖等,0,2023-09-08,2023-09-05,甲菱技研株式会社,,株式会社,福岡県,北九州市小倉南区,曽根新田南１丁目６番１号,,40,107,8000220,,,2023-09-05,清算の結了等,,,2015-10-05,1,,,,,コウリョウギケン,0
2420,8330001010107,登記記録の閉鎖等,0,2023-09-08,2023-08-30,株式会社九州四季穀菜,,株式会社,熊本県,合志市,上生４９７番地,,43,216,8611105,,,2023-08-30,清算の結了等,,,2015-10-05,1,,,,,,0
2429,8360001023782,登記記録の閉鎖等,0,2023-09-08,2023-09-04,株式会社ジェニッククリエイション,,株式会社,沖縄県,那覇市,牧志１丁目４番２６号,,47,201,9000013,,,2023-09-04,清算の結了等,,,2018-04-06,1,,,,,ジェニッククリエイション,0
2441,8420005007313,登記記録の閉鎖等,0,2023-09-08,2023-08-29,特定非営利活動法人弘前劇場,,その他の設立登記法人,青森県,青森市,千刈３丁目２番９号,,02,201,0380015,,,2023-08-29,清算の結了等,,,2015-10-05,1,,,,,ヒロサキゲキジョウ,0
2451,8450002004863,登記記録の閉鎖等,0,2023-09-08,2023-09-07,有限会社ホリイ興業,,有限会社,北海道,旭川市,豊岡六条２丁目４番２号,,01,204,0788236,,,2023-09-07,清算の結了等,,,2015-10-05,1,,,,,ホリイコウギョウ,0
2469,8500002012869,登記記録の閉鎖等,0,2023-09-08,2023-09-06,有限会社タナカ,,有限会社,愛媛県,喜多郡内子町,小田３８４番地,,38,422,7913501,,,2023-09-06,清算の結了等,,,2015-10-05,1,,,,,タナカ,0
2494,9010001235627,登記記録の閉鎖等,0,2023-09-08,2023-08-31,日昌不動産株式会社,,株式会社,東京都,中央区,八重洲２丁目８番７号,,13,102,1040028,,,2023-08-31,清算の結了等,,,2023-05-31,1,,,,,ニッショウフドウサン,0
2500,9010005030966,登記記録の閉鎖等,0,2023-09-08,2023-09-05,メック都市開発１１号一般社団法人,,その他の設立登記法人,東京都,中央区,新川２丁目２７番１号,,13,102,1040033,,,2023-09-05,清算の結了等,,,2019-11-01,1,,,,,メックトシカイハツジュウイチゴウ,0
2506,9010401106675,登記記録の閉鎖等,0,2023-09-08,2023-08-18,株式会社麻布フードサービス,,株式会社,東京都,港区,東麻布１丁目２４－６,,13,103,1060044,,,2023-08-18,清算の結了等,,,2015-10-05,1,,,,,アザブフードサービス,0
2511,9010405018033,登記記録の閉鎖等,0,2023-09-08,2023-08-18,芝インベストメンツ特定目的会社,,その他の設立登記法人,東京都,港区,六本木１丁目６番１号泉ガーデンタワー,,13,103,1060032,,,2023-08-18,清算の結了等,,,2019-09-04,1,,,,,シバインベストメンツ,0
2519,9010701001956,登記記録の閉鎖等,0,2023-09-08,2023-09-05,株式会社小川商事,,株式会社,東京都,大田区,東馬込１丁目４４番１４号,,13,111,1430022,,,2023-09-05,清算の結了等,,,2015-10-05,1,,,,,オガワショウジ,0
2526,9010801027117,登記記録の閉鎖等,0,2023-09-08,2023-09-04,イーストハウス株式会社,,株式会社,東京都,渋谷区,東３丁目１５番１１号,,13,113,1500011,,,2023-09-04,清算の結了等,,,2016-10-06,1,,,,,イーストハウス,0
2527,9010802012027,登記記録の閉鎖等,0,2023-09-08,2023-09-05,有限会社日の出パーツ,,有限会社,東京都,大田区,西六郷２丁目４０番７号,,13,111,1440056,,,2023-09-05,清算の結了等,,,2015-10-05,1,,,,,ヒノデパーツ,0
2533,9011001016083,登記記録の閉鎖等,0,2023-09-08,2023-09-05,トランステクネインターナシヨナル株式会社,,株式会社,東京都,渋谷区,笹塚１丁目６０番２号エスティ２１,,13,113,1510073,,,2023-09-05,清算の結了等,,,2015-10-05,1,,,,,トランステクネインターナシヨナル,0
2536,9011001122435,登記記録の閉鎖等,0,2023-09-08,2023-09-04,株式会社Ｃｙｍｕｓｉｃ,,株式会社,東京都,渋谷区,南平台町１７番１７号,,13,113,1500036,,,2023-09-04,清算の結了等,,,2018-05-31,1,,,,,サイミュージック,0
2555,9011802002785,登記記録の閉鎖等,0,2023-09-08,2023-09-05,有限会社ゴカ商会,,有限会社,東京都,葛飾区,お花茶屋３丁目２６番２３号,,13,122,1240003,,,2023-09-05,清算の結了等,,,2015-10-05,1,,,,,ゴカショウカイ,0
2575,9020001022578,登記記録の閉鎖等,0,2023-09-08,2023-09-01,小畑建設株式会社,,株式会社,神奈川県,横浜市神奈川区,大口通６８番地１,,14,102,2210002,,,2023-09-01,清算の結了等,,,2015-10-05,1,,,,,オバタケンセツ,0
2591,9021003002816,登記記録の閉鎖等,0,2023-09-08,2023-09-01,合名会社岡本肉店,,合名会社,神奈川県,横須賀市,船越町１丁目５８番地,,14,201,2370076,,,2023-09-01,清算の結了等,,,2015-10-05,1,,,,,オカモトニクテン,0
2599,9030002020159,登記記録の閉鎖等,0,2023-09-08,2023-08-10,有限会社水口工業,,有限会社,埼玉県,さいたま市桜区,大字宿２９４番地１,,11,106,3380814,,,2023-08-10,清算の結了等,,,2015-10-05,1,,,,,ミズグチコウギョウ,0
2618,9060001008152,登記記録の閉鎖等,0,2023-09-08,2023-08-30,八溝総合サービス株式会社,,株式会社,栃木県,那須郡那珂川町,久那瀬３４０番地１,,09,411,3240614,,,2023-08-30,清算の結了等,,,2015-10-05,1,,,,,ヤミゾソウゴウサービス,0
2621,9060002000521,登記記録の閉鎖等,0,2023-09-08,2023-08-31,有限会社青木石材店,,有限会社,栃木県,宇都宮市,駒生町１４１０番地,,09,201,3200065,,,2023-08-31,清算の結了等,,,2015-10-05,1,,,,,アオキセキザイテン,0
2623,9060005008909,登記記録の閉鎖等,0,2023-09-08,2023-08-17,一般社団法人ライフトレーナー協会,,その他の設立登記法人,東京都,港区,白金１丁目２５番２５号,,13,103,1080072,,,2023-08-17,清算の結了等,,,2015-10-05,1,,,,,ライフトレーナーキョウカイ,0
2625,9070002000710,登記記録の閉鎖等,0,2023-09-08,2023-09-01,有限会社いわさき,,有限会社,群馬県,前橋市,小屋原町３８４番地１,,10,201,3792121,,,2023-09-01,合併による解散等,7070001000969,令和５年９月１日群馬県前橋市小屋原町３８４番地１群馬中央バス株式会社（7070001000969）に合併し解散,2015-10-05,1,,,,,イワサキ,0
2626,9070003002862,登記記録の閉鎖等,0,2023-09-08,2023-09-04,合同会社ＨｎｔＡｉｒ,,合同会社,群馬県,前橋市,幸塚町１４８番地１,,10,201,3710053,,,2023-09-04,清算の結了等,,,2017-03-10,1,,,,,ハントエアー,0
2629,9080402018649,登記記録の閉鎖等,0,2023-09-08,2023-09-07,有限会社信栄堂,,有限会社,静岡県,菊川市,本所１４０３番地の７,,22,224,4390018,,,2023-09-07,清算の結了等,,,2015-10-05,1,,,,,シンエイドウ,0
2632,9100001022314,登記記録の閉鎖等,0,2023-09-08,2023-08-31,加藤製菓株式会社,,株式会社,長野県,飯田市,鼎東鼎２０番地６,,20,205,3950817,,,2023-08-31,清算の結了等,,,2015-10-05,1,,,,,カトウセイカ,0
2636,9100002028938,登記記録の閉鎖等,0,2023-09-08,2023-08-31,丸正精機有限会社,,有限会社,長野県,諏訪市,小和田南７番２６号,,20,206,3920023,,,2023-08-31,清算の結了等,,,2015-10-05,1,,,,,マルショウセイキ,0
2637,9100002038722,登記記録の閉鎖等,0,2023-09-08,2023-08-31,有限会社オフィス・ムーン,,有限会社,長野県,飯田市,松尾代田８７２番地,,20,205,3950812,,,2023-08-31,清算の結了等,,,2015-10-05,1,,,,,オフィスムーン,0
2639,9120001023839,登記記録の閉鎖等,0,2023-09-08,2023-09-01,伸友不動産販売株式会社,,株式会社,大阪府,大阪市浪速区,大国１丁目２番６号,,27,111,5560014,,,2023-09-01,清算の結了等,,,2015-10-05,1,,,,,シンユウフドウサンハンバイ,0
2640,9120001100241,登記記録の閉鎖等,0,2023-09-08,2023-09-06,株式会社伏見町商事,,株式会社,大阪府,大阪市中央区,伏見町２丁目６番４号,,27,128,5410044,,,2023-09-06,清算の結了等,,,2015-10-05,1,,,,,フシミマチショウジ,0
2652,9120102016907,登記記録の閉鎖等,0,2023-09-08,2023-09-05,有限会社タカトミ,,有限会社,大阪府,富田林市,五軒家２丁目１５番１４号,,27,214,5840079,,,2023-09-05,清算の結了等,,,2015-10-05,1,,,,,タカトミ,0
2655,9120905004819,登記記録の閉鎖等,0,2023-09-08,2023-09-05,特定非営利活動法人理科支援隊ひょうたん島,,その他の設立登記法人,大阪府,池田市,姫室町８番１２号,,27,204,5630046,,,2023-09-05,清算の結了等,,,2015-10-05,1,,,,,リカシエンタイヒョウタンジマ,0
2658,9130001052647,登記記録の閉鎖等,0,2023-09-08,2023-08-28,株式会社京都ぽてとの塔,,株式会社,京都府,京都市伏見区,深草稲荷中之町３２,,26,109,6120807,,,2023-08-28,清算の結了等,,,2015-10-05,1,,,,,キョウトポテトノトウ,0
2674,9170002007794,登記記録の閉鎖等,0,2023-09-08,2023-09-06,大伸印刷紙工有限会社,,有限会社,和歌山県,紀の川市,貴志川町岸小野５９３番地の１,,30,208,6400422,,,2023-09-06,清算の結了等,,,2015-10-05,1,,,,,,0
2685,9180002077903,登記記録の閉鎖等,0,2023-09-08,2023-09-07,有限会社山本鉄筋工業,,有限会社,愛知県,一宮市,浅井町前野字新開１番地２,,23,203,4910103,,,2023-09-07,清算の結了等,,,2015-10-05,1,,,,,ヤマモトテッキンコウギョウ,0
2696,9210002003392,登記記録の閉鎖等,0,2023-09-08,2023-09-06,有限会社ホテル花山,,有限会社,福井県,福井市,計石町５４字１１番地,,18,201,9102331,,,2023-09-06,清算の結了等,,,2015-10-05,1,,,,,,0
2698,9210005009494,登記記録の閉鎖等,0,2023-09-08,2023-09-06,特定非営利活動法人福井ＡＲＣ,,その他の設立登記法人,福井県,福井市,米松１丁目４番３号,,18,201,9100851,,,2023-09-06,清算の結了等,,,2015-10-05,1,,,,,フクイアーク,0
2700,9230002002624,登記記録の閉鎖等,0,2023-09-08,2023-09-06,有限会社西町コンタクト,,有限会社,富山県,富山市,上本町５番２５号,,16,201,9300057,,,2023-09-06,清算の結了等,,,2015-10-05,1,,,,,ニシチョウコンタクト,0
2718,9290002054172,登記記録の閉鎖等,0,2023-09-08,2023-08-25,有限会社ヨダ,,有限会社,福岡県,柳川市,東蒲池７４６番地,,40,207,8320006,,,2023-08-25,清算の結了等,,,2015-10-05,1,,,,,ヨダ,0
2725,9330002021746,登記記録の閉鎖等,0,2023-09-08,2023-09-01,有限会社クリーン平成,,有限会社,熊本県,荒尾市,蔵満１８８４番地１,,43,204,8640027,,,2023-09-01,清算の結了等,,,2015-10-05,1,,,,,クリーンヘイセイ,0
2741,9380002026170,登記記録の閉鎖等,0,2023-09-08,2023-09-05,有限会社丸高酒店,,有限会社,福島県,いわき市,小名浜岡小名字台ノ下１６番地,,07,204,9718151,,,2023-09-05,清算の結了等,,,2015-10-05,1,,,,,マルタカサケテン,0
2742,9400001001139,登記記録の閉鎖等,0,2023-09-08,2023-09-05,東洋ハウス株式会社,,株式会社,岩手県,盛岡市,上堂１丁目１８番２６号,,03,201,0200125,,,2023-09-05,清算の結了等,,,2015-10-05,1,,,,,トウヨウハウス,0
