sequenceNumber,corporateNumber,process,correct,updateDate,changeDate,name,nameImageId,kind,prefectureName,cityName,streetNumber,addressImageId,prefectureCode,cityCode,postCode,addressOutside,addressOutsideImageId,closeDate,closeCause,successorCorporateNumber,changeCause,assignmentDate,latest,enName,enPrefectureName,enCityName,enAddressOutside,furigana,hihyoji
8,1010001237325,新規,0,2023-08-03,2023-08-03,株式会社ナンディ,,株式会社,東京都,文京区,小日向１丁目２３番２４号,,13,105,1120006,,,,,,,2023-08-03,1,,,,,ナンディ,0
9,1010001237333,新規,0,2023-08-03,2023-08-03,株式会社ＪＢＧ総研,,株式会社,東京都,文京区,本郷１丁目２５番５号見学ビル６階,,13,105,1130033,,,,,,,2023-08-03,1,,,,,ジェイビージーソウケン,0
10,1010001237341,新規,0,2023-08-03,2023-08-03,ワークワンダース株式会社,,株式会社,東京都,中央区,日本橋兜町１７－２,,13,102,1030026,,,,,,,2023-08-03,1,,,,,ワークワンダース,0
11,1010003041262,新規,0,2023-08-03,2023-08-03,ＣＥＳ福島３太陽光発電所合同会社,,合同会社,東京都,千代田区,丸の内１丁目８番２号鉄鋼ビルディング４階,,13,101,1000005,,,,,,,2023-08-03,1,,,,,シーイーエスフクシマスリータイヨウコウハツデンショ,0
12,1010003041270,新規,0,2023-08-03,2023-08-03,ＣＥＳ大分３太陽光発電所合同会社,,合同会社,東京都,千代田区,丸の内１丁目８番２号鉄鋼ビルディング４階,,13,101,1000005,,,,,,,2023-08-03,1,,,,,シーイーエスオオイタスリータイヨウコウハツデンショ,0
14,1010005037036,新規,0,2023-08-03,2023-08-03,ソーラープリズムホールディングス一般社団法人,,その他の設立登記法人,東京都,中央区,八丁堀４丁目２番１０号ＡＯＪ税理士法人内,,13,102,1040032,,,,,,,2023-08-03,1,,,,,ソーラープリズムホールディングス,0
21,1010401176049,新規,0,2023-08-03,2023-08-03,株式会社ラディオン,,株式会社,東京都,港区,芝公園１丁目３番５号ＪＰ－ＢＡＳＥ芝公園６Ｆ,,13,103,1050011,,,,,,,2023-08-03,1,,,,,ラディオン,0
22,1010401176073,新規,0,2023-08-03,2023-08-03,株式会社リーフホールディングス,,株式会社,東京都,港区,虎ノ門１丁目２１番１９号東急虎ノ門ビル,,13,103,1050001,,,,,,,2023-08-03,1,,,,,リーフホールディングス,0
23,1010401176107,新規,0,2023-08-03,2023-08-03,株式会社インテルワークス,,株式会社,東京都,港区,元赤坂１丁目２番７号赤坂Ｋタワー４Ｆ,,13,103,1070051,,,,,,,2023-08-03,1,,,,,インテルワークス,0
24,1010401176115,新規,0,2023-08-03,2023-08-03,ａｎｄ　ｈｅａｌｔｈ株式会社,,株式会社,東京都,港区,虎ノ門４丁目１番４０号,,13,103,1050001,,,,,,,2023-08-03,1,,,,,アンドヘルス,0
25,1010401176123,新規,0,2023-08-03,2023-08-03,株式会社ＫＰ‐２,,株式会社,東京都,港区,東新橋１丁目９番２号汐留住友ビル１６階,,13,103,1050021,,,,,,,2023-08-03,1,,,,,ケーピーツー,0
29,1010503007102,新規,0,2023-08-03,2023-08-03,合同会社中村,,合同会社,東京都,台東区,浅草４丁目４３番３号,,13,106,1110032,,,,,,,2023-08-03,1,,,,,ナカムラ,0
32,1010701044657,新規,0,2023-08-03,2023-08-03,Ｃｏｎｔｒａｉｌ株式会社,,株式会社,東京都,品川区,西五反田３丁目４番１０号目黒ＭＡＲＣレジデンスタワー３１０,,13,109,1410031,,,,,,,2023-08-03,1,,,,,コントレイル,0
34,1010801034211,新規,0,2023-08-03,2023-08-03,エムブライトソリューションズ株式会社,,株式会社,東京都,大田区,南蒲田１丁目２６－５－４０６,,13,111,1440035,,,,,,,2023-08-03,1,,,,,エムブライトソリューションズ,0
35,1010803004625,新規,0,2023-08-03,2023-08-03,合同会社心和会,,合同会社,東京都,大田区,西蒲田７丁目５３番５号,,13,111,1440051,,,,,,,2023-08-03,1,,,,,シンワカイ,0
38,1011001156036,新規,0,2023-08-03,2023-08-03,株式会社ＤＧ　Ｄａｉｗａ　Ｖｅｎｔｕｒｅｓ３号,,株式会社,東京都,渋谷区,恵比寿南３丁目５番７号,,13,113,1500022,,,,,,,2023-08-03,1,,,,,ディージーダイワベンチャーズサンゴウ,0
39,1011001156044,新規,0,2023-08-03,2023-08-03,株式会社ＩＧＮＩＳ　ＧＡＴＥ,,株式会社,東京都,渋谷区,円山町５番５号Ｎａｖｉ渋谷Ｖ３階,,13,113,1500044,,,,,,,2023-08-03,1,,,,,イグニスゲート,0
40,1011001156077,新規,0,2023-08-03,2023-08-03,株式会社モア,,株式会社,東京都,目黒区,鷹番３丁目２１番２１号,,13,110,1520004,,,,,,,2023-08-03,1,,,,,モア,0
41,1011001156085,新規,0,2023-08-03,2023-08-03,株式会社コンステート,,株式会社,東京都,渋谷区,恵比寿１丁目２３番１７－１３０７号,,13,113,1500013,,,,,,,2023-08-03,1,,,,,コンステート,0
45,1011003017285,新規,0,2023-08-03,2023-08-03,合同会社ＲＩＳＥ,,合同会社,東京都,目黒区,碑文谷５丁目１５番１－６０１号碑文谷マンション,,13,110,1520003,,,,,,,2023-08-03,1,,,,,ライズ,0
46,1011003017302,新規,0,2023-08-03,2023-08-03,合同会社クローニケ,,合同会社,東京都,渋谷区,渋谷２丁目５番１２－１１０１号アトラス青山レジデンシャル,,13,113,1500002,,,,,,,2023-08-03,1,,,,,クローニケ,0
50,1011101103862,新規,0,2023-08-03,2023-08-03,株式会社ＩＴソリューションズ,,株式会社,東京都,新宿区,新宿３丁目１２番４号新宿Ｎタウンプラザ３０９号,,13,104,1600022,,,,,,,2023-08-03,1,,,,,アイティーソリューションズ,0
51,1011101103879,新規,0,2023-08-03,2023-08-03,株式会社トレカテクノロジーズ,,株式会社,東京都,新宿区,新宿４丁目１－６ＪＲミライナタワー１８Ｆ,,13,104,1600022,,,,,,,2023-08-03,1,,,,,トレカテクノロジーズ,0
52,1011301028901,新規,0,2023-08-03,2023-08-03,ダーウィン株式会社,,株式会社,東京都,杉並区,方南１丁目５２－７,,13,115,1680062,,,,,,,2023-08-03,1,,,,,,0
54,1011403004065,新規,0,2023-08-03,2023-08-03,合同会社ダイナモ・デザイン,,合同会社,東京都,板橋区,蓮根２丁目２９番１２－５０２号,,13,119,1740046,,,,,,,2023-08-03,1,,,,,ダイナモデザイン,0
61,1012303001854,新規,0,2023-08-03,2023-08-03,合同会社ＪｏｙＴａｂｌｅ,,合同会社,東京都,町田市,能ヶ谷２丁目１２番４１号,,13,209,1950053,,,,,,,2023-08-03,1,,,,,ジョイテーブル,0
62,1012401040804,新規,0,2023-08-03,2023-08-03,華益健業株式会社,,株式会社,東京都,狛江市,猪方３丁目３７番２２－２０２号,,13,219,2010015,,,,,,,2023-08-03,1,,,,,カエキケンギョウ,0
63,1012401040812,新規,0,2023-08-03,2023-08-03,株式会社アイビー,,株式会社,東京都,武蔵野市,吉祥寺本町１丁目２８番６号迦葉武蔵野第３マンション１０２,,13,203,1800004,,,,,,,2023-08-03,1,,,,,アイビー,0
65,1012701017774,新規,0,2023-08-03,2023-08-03,ＳＯＬＡＲ　ＷＯＲＫＳ株式会社,,株式会社,東京都,西東京市,富士町１丁目７番７４－３０４号,,13,229,2020014,,,,,,,2023-08-03,1,,,,,ソーラーワークス,0
71,1020001152787,新規,0,2023-08-03,2023-08-03,ＬＣＥ　Ｏｐｔｉｃｓ．ＪＡＰＡＮ株式会社,,株式会社,神奈川県,横浜市神奈川区,台町１０－２７－２１０号,,14,102,2210834,,,,,,,2023-08-03,1,,,,,エルシーイーオプティクスピリオドジャパン,0
79,1021001079780,新規,0,2023-08-03,2023-08-03,株式会社ＳＡＧＡＭＩコーポレーション,,株式会社,神奈川県,相模原市中央区,田名５１３６番１,,14,152,2520244,,,,,,,2023-08-03,1,,,,,サガミコーポレーション,0
86,1030001155252,新規,0,2023-08-03,2023-08-03,株式会社ｂｒｏ．,,株式会社,埼玉県,越谷市,川柳町４丁目７９番地１,,11,222,3430827,,,,,,,2023-08-03,1,,,,,ブロ,0
96,1040001129420,新規,0,2023-08-03,2023-08-03,株式会社ＧＩＶＩＮＧＢＡＣＫ,,株式会社,千葉県,印西市,小倉台１丁目１番地ＳＵ棟７０４号,,12,231,2701356,,,,,,,2023-08-03,1,,,,,ギビングバック,0
98,1040003023068,新規,0,2023-08-03,2023-08-03,Ｋ‐ＲＹＳＫ合同会社,,合同会社,千葉県,千葉市美浜区,若葉３丁目１－１８幕張ベイパーククロスレジデンスＳ２－１,,12,106,2610014,,,,,,,2023-08-03,1,,,,,クリスク,0
102,1050003007689,新規,0,2023-08-03,2023-08-03,合同会社ミール進学アカデミー,,合同会社,茨城県,土浦市,木田余西台１４番１７号,,08,203,3000056,,,,,,,2023-08-03,1,,,,,ミールシンガクアカデミー,0
103,1050005013306,新規,0,2023-08-03,2023-08-03,特定非営利活動法人地域知見ＬＩＶＥ,,その他の設立登記法人,茨城県,稲敷郡阿見町,大字荒川本郷１番地１９,,08,443,3001152,,,,,,,2023-08-03,1,,,,,チイキチケンライブ,0
107,1060001036210,新規,0,2023-08-03,2023-08-03,株式会社もりしま薬局,,株式会社,栃木県,那須烏山市,城東１９番３９号,,09,215,3210622,,,,,,,2023-08-03,1,,,,,モリシマヤッキョク,0
108,1060001036219,新規,0,2023-08-03,2023-08-03,株式会社クリーニングトミー,,株式会社,栃木県,宇都宮市,滝谷町１番９号,,09,201,3200847,,,,,,,2023-08-03,1,,,,,クリーニングトミー,0
112,1070001040698,新規,0,2023-08-03,2023-08-03,株式会社ｍｏｒｅ,,株式会社,群馬県,前橋市,千代田町５丁目２番地２,,10,201,3710022,,,,,,,2023-08-03,1,,,,,モア,0
118,1080101024146,新規,0,2023-08-03,2023-08-03,株式会社泉橋塗装工業,,株式会社,静岡県,伊東市,宮川町２丁目４番１３号,,22,208,4140036,,,,,,,2023-08-03,1,,,,,イズミバシトソウコウギョウ,0
119,1080401026635,新規,0,2023-08-03,2023-08-03,株式会社ヒシノブ,,株式会社,静岡県,掛川市,杉谷５１５番地の５,,22,213,4360017,,,,,,,2023-08-03,1,,,,,ヒシノブ,0
122,1100001036643,新規,0,2023-08-03,2023-08-03,株式会社マーク,,株式会社,長野県,長野市,丹波島２丁目１２番地５,,20,201,3812246,,,,,,,2023-08-03,1,,,,,マーク,0
123,1100002039356,新規,0,2023-08-03,2023-08-03,有限会社代長商事,,有限会社,長野県,下高井郡山ノ内町,大字平穏４１０６番地,,20,561,3810401,,,,,,,2023-08-03,1,,,,,ヨナガショウジ,0
125,1110001037723,新規,0,2023-08-03,2023-08-03,株式会社シードラゴン,,株式会社,新潟県,新潟市中央区,東堀通５番町４４０番小林ビル３Ｆ,,15,103,9518065,,,,,,,2023-08-03,1,,,,,シードラゴン,0
126,1110001037731,新規,0,2023-08-03,2023-08-03,株式会社ケトル,,株式会社,新潟県,新潟市西区,五十嵐２の町８４６６番地５,,15,107,9502102,,,,,,,2023-08-03,1,,,,,ケトル,0
136,1120001256933,新規,0,2023-08-03,2023-08-03,スカイインテグラル株式会社,,株式会社,大阪府,大阪市中央区,伏見町３丁目１番１－１００５号,,27,128,5410044,,,,,,,2023-08-03,1,,,,,スカイインテグラル,0
137,1120001257031,新規,0,2023-08-03,2023-08-03,株式会社瑞昊商事,,株式会社,大阪府,大阪市中央区,日本橋１丁目２４－２３クレアール３０１号室,,27,128,5420073,,,,,,,2023-08-03,1,,,,,ルイハオショウジ,0
144,1120101067974,新規,0,2023-08-03,2023-08-03,株式会社イノウエ,,株式会社,大阪府,羽曳野市,恵我之荘５丁目７番７号,,27,222,5830886,,,,,,,2023-08-03,1,,,,,イノウエ,0
155,1130001074847,新規,0,2023-08-03,2023-08-03,株式会社１００Ｋ,,株式会社,京都府,京都市下京区,小稲荷町８５番地８,,26,106,6008208,,,,,,,2023-08-03,1,,,,,ヒャッケイ,0
156,1130001074896,新規,0,2023-08-03,2023-08-03,株式会社ＲｉＯ,,株式会社,京都府,京田辺市,山手西２丁目８番地８,,26,211,6100355,,,,,,,2023-08-03,1,,,,,リオ,0
158,1130003008893,新規,0,2023-08-03,2023-08-03,合同会社ＳＣＲＵＭ,,合同会社,京都府,相楽郡精華町,大字祝園小字一丁田５番地２７,,26,366,6190241,,,,,,,2023-08-03,1,,,,,スクラム,0
160,1140001131110,新規,0,2023-08-03,2023-08-03,株式会社Ｔｒｉｇｇｅｒ,,株式会社,兵庫県,西宮市,高座町１２番１８－８０１号,,28,204,6620872,,,,,,,2023-08-03,1,,,,,トリガー,0
161,1140001131127,新規,0,2023-08-03,2023-08-03,ハウスドクター株式会社,,株式会社,兵庫県,尼崎市,額田町１２番２２号,,28,202,6610962,,,,,,,2023-08-03,1,,,,,ハウスドクター,0
167,1170001017711,新規,0,2023-08-03,2023-08-03,株式会社榎本石材,,株式会社,和歌山県,新宮市,千穂１丁目８番１６号,,30,207,6470015,,,,,,,2023-08-03,1,,,,,エノモトセキザイ,0
174,1180005020306,新規,0,2023-08-03,2023-08-03,一般社団法人ライフ＆シニアサポート,,その他の設立登記法人,愛知県,名古屋市中区,正木３丁目２番８４号,,23,106,4600024,,,,,,,2023-08-03,1,,,,,ライフアンドシニアサポート,0
175,1180005020314,新規,0,2023-08-03,2023-08-03,中本行政書士法人,,その他の設立登記法人,愛知県,知多郡武豊町,字道崎２６番地の６,,23,447,4702347,,,,,,,2023-08-03,1,,,,,ナカモト,0
179,1190003004400,新規,0,2023-08-03,2023-08-03,合同会社紹興,,合同会社,三重県,松阪市,春日町２丁目１番地,,24,204,5150078,,,,,,,2023-08-03,1,,,,,ショウコウ,0
181,1200001041550,新規,0,2023-08-03,2023-08-03,株式会社ＰＲＥＳＴＯ,,株式会社,岐阜県,可児市,羽生ケ丘３丁目１１６番地,,21,214,5090223,,,,,,,2023-08-03,1,,,,,プレスト,0
184,1210003001675,新規,0,2023-08-03,2023-08-03,合同会社Ｒｉｖｅｒｐｌａｉｎ,,合同会社,福井県,福井市,勝見２丁目８－５,,18,201,9100856,,,,,,,2023-08-03,1,,,,,リバープレイン,0
197,1250001020211,新規,0,2023-08-03,2023-08-03,株式会社ＫＮプラン,,株式会社,山口県,宇部市,西桃山１丁目５番１号,,35,202,7550069,,,,,,,2023-08-03,1,,,,,ケイエヌプラン,0
201,1270003001546,新規,0,2023-08-03,2023-08-03,ＴＫＹ企画合同会社,,合同会社,鳥取県,西伯郡伯耆町,大瀧２９９番地３,,31,390,6894222,,,,,,,2023-08-03,1,,,,,ティーケーワイ,0
202,1280005007565,新規,0,2023-08-03,2023-08-03,医療法人清水歯科,,その他の設立登記法人,島根県,松江市,嫁島町１５－２０,,32,201,6900047,,,,,,,2023-08-03,1,,,,,シミズシカ,0
206,1290001102476,新規,0,2023-08-03,2023-08-03,平江空調株式会社,,株式会社,福岡県,福岡市西区,石丸２丁目５番２号－３号室,,40,135,8190025,,,,,,,2023-08-03,1,,,,,ヒラエクウチョウ,0
207,1290001102501,新規,0,2023-08-03,2023-08-03,株式会社ｃ．ｓ．ｋ,,株式会社,福岡県,福岡市博多区,博多駅東２丁目５番１９号サンライフ第３ビル５Ｆ・６Ｆ,,40,132,8120013,,,,,,,2023-08-03,1,,,,,シーエスケー,0
220,1290801029745,新規,0,2023-08-03,2023-08-03,株式会社シーエスピー,,株式会社,福岡県,北九州市八幡西区,夕原町４番８号,,40,109,8070813,,,,,,,2023-08-03,1,,,,,シーエスピー,0
237,1340003004194,新規,0,2023-08-03,2023-08-03,合同会社Ｒａｃ　ｓｏｌｕｔｉｏｎ,,合同会社,鹿児島県,霧島市,国分中央１丁目１４－５７パークサイドハイツ１０５号室,,46,218,8994332,,,,,,,2023-08-03,1,,,,,アールエーシーソリューション,0
248,1380001033885,新規,0,2023-08-03,2023-08-03,株式会社グロースハック・テクノロジー,,株式会社,福島県,福島市,黒岩字弥生３９番地の１４,,07,201,9608153,,,,,,,2023-08-03,1,,,,,グロースハックテクノロジー,0
249,1380001033893,新規,0,2023-08-03,2023-08-03,株式会社杉田自動車,,株式会社,福島県,二本松市,杉田町２丁目９６番地,,07,210,9640865,,,,,,,2023-08-03,1,,,,,スギタジドウシャ,0
256,1390003002128,新規,0,2023-08-03,2023-08-03,合同会社ｅｍｏｎ,,合同会社,山形県,鶴岡市,藤島字山ノ前４５番地１,,06,203,9997601,,,,,,,2023-08-03,1,,,,,エモン,0
257,1400003003124,新規,0,2023-08-03,2023-08-03,合同会社キングダム,,合同会社,岩手県,盛岡市,菜園２丁目８番１８－３０６号,,03,201,0200024,,,,,,,2023-08-03,1,,,,,キングダム,0
262,1420003002768,新規,0,2023-08-03,2023-08-03,合同会社かがや,,合同会社,青森県,青森市,堤町２丁目３番３号,,02,201,0300812,,,,,,,2023-08-03,1,,,,,カガヤ,0
267,1430001089633,新規,0,2023-08-03,2023-08-03,株式会社Ｋｏｈａｋｕ,,株式会社,北海道,札幌市中央区,北四条西２丁目１番地１８邦洋札幌Ｎ４・２ビル１１階,,01,101,0600004,,,,,,,2023-08-03,1,,,,,コハク,0
268,1430001089641,新規,0,2023-08-03,2023-08-03,株式会社ＱＯＬインターナショナル,,株式会社,北海道,札幌市白石区,本通４丁目南２番６号,,01,104,0030026,,,,,,,2023-08-03,1,,,,,キューオーエルインターナショナル,0
269,1430001089658,新規,0,2023-08-03,2023-08-03,株式会社基輝鉄工,,株式会社,北海道,札幌市手稲区,手稲前田４５０番２８,,01,109,0060829,,,,,,,2023-08-03,1,,,,,モトキテッコウ,0
270,1430001089682,新規,0,2023-08-03,2023-08-03,株式会社大上興業,,株式会社,北海道,札幌市白石区,平和通１７丁目北１２番１４－１０２号,,01,104,0030029,,,,,,,2023-08-03,1,,,,,オオウエコウギョウ,0
272,1450001014069,新規,0,2023-08-03,2023-08-03,株式会社ハセガワ,,株式会社,北海道,上川郡当麻町,四条南３丁目９番２号,,01,454,0781324,,,,,,,2023-08-03,1,,,,,ハセガワ,0
284,1700150118578,新規,0,2023-08-03,2023-08-03,ＳＨＥＮＺＨＥＮＳＨＩ　ＡＯＭＥＩＳＩ　ＤＩＡＮＺＩＳＨＡＮＧＷＵ　ＹＯＵＸＩＡＮＧＯＮＧＳＩ,,外国会社等,,,,,,,,Ｊｉｎｈｅｔｉａｎ　Ｂｕｓｉｎｅｓｓ　Ｃｅｎｔｅｒ　Ｋ４０９，Ｎｏ．３２９，３ｒｄ　Ｌｏｎｇｈｕａｎ　Ｒｏａｄ，Ｈｅｌｉａｎ　Ｃｏｍｍｕｎｉｔｙ，Ｌｏｎｇｈｕａ　Ｓｔｒｅｅｔ，Ｌｏｎｇｈｕａ　Ｄｉｓｔｒｉｃｔ，Ｓｈｅｎｚｈｅｎ　ｓｈｅｎｚｈｅｎ　ｇｕａｎｇｄｏｎｇ　Ｃｈｉｎａ,,,,,,2023-08-03,1,,,,,シンセンシーアオメイシディアンツィシャングユウゲンコウシ,0
285,1700150118735,新規,0,2023-08-03,2023-08-03,Ｃｈｏｎｇｑｉｎｇ　ＬｉｔｔｌｅＪｕｎｇｌｅ　Ｎｅｔｗｏｒｋ　Ｔｅｃｈｎｏｌｏｇｙ　Ｃｏ．，Ｌｔｄ．,,外国会社等,,,,,,,,Ｎｏ．３１９　Ｈａｉｅｒ　Ｒｏａｄ，Ｊｉａｎｇｂｅｉ　Ｄｉｓｔｒｉｃｔ，Ｃｈｏｎｇｑｉｎｇ,,,,,,2023-08-03,1,,,,,ジュウケイショウソウリンワンラクカギユウゲンコウシ,0
286,1700150118743,新規,0,2023-08-03,2023-08-03,ｓｈｅｎｚｈｅｎｓｈｉ　ｚｈｅｎｙｕｅｘｉａｎｇｋｅｊｉ　ｙｏｕｘｉａｎｇｏｎｇｓｉ,,外国会社等,,,,,,,,ｓｈｅｎｚｈｅｎｓｈｉ　ｂａｏａｎｑｕ　ｈａｎｇｃｈｅｎｇｊｉｅｄａｏ　ｚｈｏｎｇｗｕｓｈｅｑｕ　ｚｈｏｎｇｗｕｘｉｎｇｏｎｇｙｅｙｕａｎ　６７ｄｏｎｇ　３ｃｅｎｇ　５１８０００　ＣＮ,,,,,,2023-08-03,1,,,,,シンセンシゼンユエシャンケジヨウシェンゴンスー,0
287,1700150118751,新規,0,2023-08-03,2023-08-03,ＭＡＰＬＥ　ＴＥＣＨＮＯＬＯＧＹ　ＣＯ．，ＬＴＤ．,,外国会社等,,,,,,,,１Ｆ．，Ｎｏ．１１９，Ｙｏｕｈｅｎｇ　Ｓｔ．，Ｄｅｙｉ　Ｖｉｌ．，Ｓｏｕｔｈ　Ｄｉｓｔ．，Ｔａｉｃｈｕｎｇ　Ｃｉｔｙ，ＴＡＩＷＡＮ（Ｒ．Ｏ．Ｃ．），Ｔａｉｗａｎ　４０２,,,,,,2023-08-03,1,,,,,メイチーリンコージーグーフェンヨウシエンゴンスー,0
291,2010001237357,新規,0,2023-08-03,2023-08-03,株式会社ＫＧＹ,,株式会社,東京都,中央区,勝どき６丁目３－２－５３０６東京タワーズミッドタワー,,13,102,1040054,,,,,,,2023-08-03,1,,,,,ケージーワイ,0
292,2010001237373,新規,0,2023-08-03,2023-08-03,コズミッククリエイターズ株式会社,,株式会社,東京都,中央区,銀座１丁目２２番１１号,,13,102,1040061,,,,,,,2023-08-03,1,,,,,コズミッククリエイターズ,0
299,2010005037035,新規,0,2023-08-03,2023-08-03,ソーラーシグマホールディングス一般社団法人,,その他の設立登記法人,東京都,中央区,八丁堀４丁目２番１０号ＡＯＪ税理士法人内,,13,102,1040032,,,,,,,2023-08-03,1,,,,,ソーラーシグマホールディングス,0
314,2010401176106,新規,0,2023-08-03,2023-08-03,株式会社アウトラウド,,株式会社,東京都,港区,北青山１丁目３番１号アールキューブ青山３階,,13,103,1070061,,,,,,,2023-08-03,1,,,,,アウトラウド,0
315,2010401176122,新規,0,2023-08-03,2023-08-03,ＢｌｕｅＷＸ株式会社,,株式会社,東京都,港区,南青山７丁目１２番１６－１１３号,,13,103,1070062,,,,,,,2023-08-03,1,,,,,ブルーウェザー,0
316,2010403030632,新規,0,2023-08-03,2023-08-03,合同会社ＣＡＯ,,合同会社,東京都,港区,三田１丁目７番１―１７０８号,,13,103,1080073,,,,,,,2023-08-03,1,,,,,シーエーオー,0
317,2010601063533,新規,0,2023-08-03,2023-08-03,株式会社ｎｋ．,,株式会社,東京都,江東区,南砂４丁目１７番１３号,,13,108,1360076,,,,,,,2023-08-03,1,,,,,エヌケー,0
320,2010701044664,新規,0,2023-08-03,2023-08-03,株式会社東京寿司,,株式会社,東京都,品川区,大崎１丁目１１番２号,,13,109,1410032,,,,,,,2023-08-03,1,,,,,トウキョウズシ,0
323,2010801034210,新規,0,2023-08-03,2023-08-03,株式会社藤重組,,株式会社,東京都,大田区,上池台３丁目８番１２号,,13,111,1450064,,,,,,,2023-08-03,1,,,,,フジシゲグミ,0
328,2011001156027,新規,0,2023-08-03,2023-08-03,株式会社夢世界,,株式会社,東京都,渋谷区,神宮前６丁目２３番４号桑野ビル２階,,13,113,1500001,,,,,,,2023-08-03,1,,,,,ユメセカイ,0
329,2011001156051,新規,0,2023-08-03,2023-08-03,株式会社ＨＬＴ,,株式会社,東京都,渋谷区,神宮前６丁目２５番２号エクセル原宿グレイスコート８０３号,,13,113,1500001,,,,,,,2023-08-03,1,,,,,エイチエルティー,0
335,2011103013332,新規,0,2023-08-03,2023-08-03,合同会社粋華,,合同会社,東京都,新宿区,西新宿５丁目５番１号,,13,104,1600023,,,,,,,2023-08-03,1,,,,,スイカ,0
343,2011801042814,新規,0,2023-08-03,2023-08-03,株式会社Ｓｔａｒ　Ｍａｘ,,株式会社,東京都,葛飾区,堀切８丁目１１番地１５号２０２号室,,13,122,1240006,,,,,,,2023-08-03,1,,,,,スターマックス,0
347,2012401040811,新規,0,2023-08-03,2023-08-03,株式会社ＰＩＡ,,株式会社,東京都,武蔵野市,吉祥寺東町２丁目１番４－９０２号,,13,203,1800002,,,,,,,2023-08-03,1,,,,,ピーアイエー,0
359,2020001152778,新規,0,2023-08-03,2023-08-03,美陸株式会社,,株式会社,神奈川県,横浜市神奈川区,白楽３８番地,,14,102,2210065,,,,,,,2023-08-03,1,,,,,ミリク,0
362,2020003024298,新規,0,2023-08-03,2023-08-03,合同会社ビーウォーター,,合同会社,神奈川県,横浜市保土ケ谷区,和田１丁目１３－１９－３０９,,14,106,2400065,,,,,,,2023-08-03,1,,,,,ビーウォーター,0
365,2021005012869,新規,0,2023-08-03,2023-08-03,特定非営利活動法人乳がん経験者団体ＨＡＰＰＹＦＯＲＥＶＥＲ,,その他の設立登記法人,神奈川県,逗子市,桜山４丁目８番２０号クレール逗子１０１,,14,208,2490005,,,,,,,2023-08-03,1,,,,,ニュウガンケイケンシャダンタイハッピーフォーエバー,0
369,2030001154922,新規,0,2023-08-03,2023-08-03,株式会社さくらイノベーション,,株式会社,埼玉県,川口市,末広３丁目７－７ロイヤルサンシティ６０６号,,11,203,3320006,,,,,,,2023-08-03,1,,,,,サクライノベーション,0
383,2050003007688,新規,0,2023-08-03,2023-08-03,つきみどり合同会社,,合同会社,茨城県,水戸市,見川２丁目８５－２,,08,201,3100912,,,,,,,2023-08-03,1,,,,,ツキミドリ,0
386,2070003005054,新規,0,2023-08-03,2023-08-03,合同会社ＭａｈａｎＡ,,合同会社,群馬県,前橋市,広瀬町３丁目３５番地３,,10,201,3710812,,,,,,,2023-08-03,1,,,,,,0
388,2080001025763,新規,0,2023-08-03,2023-08-03,株式会社ＭＳＰＬＡＮＴ,,株式会社,静岡県,焼津市,宗高１３９５番地の２,,22,212,4210205,,,,,,,2023-08-03,1,,,,,エムエスプラント,0
389,2080001025771,新規,0,2023-08-03,2023-08-03,株式会社豊浩リース,,株式会社,静岡県,静岡市清水区,鳥坂１２２３番地１,,22,103,4240067,,,,,,,2023-08-03,1,,,,,トヨヒロリース,0
391,2080003003024,新規,0,2023-08-03,2023-08-03,合同会社イトウ自動車,,合同会社,静岡県,焼津市,利右衛門２７０３番地,,22,212,4210212,,,,,,,2023-08-03,1,,,,,イトウジドウシャ,0
405,2120001256957,新規,0,2023-08-03,2023-08-03,株式会社ファーム,,株式会社,大阪府,大阪市城東区,中央２丁目３番２０号,,27,118,5360005,,,,,,,2023-08-03,1,,,,,ファーム,0
407,2120003024627,新規,0,2023-08-03,2023-08-03,ＫＯＩＫＥ　ＰＲＥＳＳ合同会社,,合同会社,大阪府,大阪市中央区,久太郎町４丁目１－３大阪センタービル６Ｆ－２３５,,27,128,5410056,,,,,,,2023-08-03,1,,,,,コイケプレス,0
408,2120003024643,新規,0,2023-08-03,2023-08-03,合同会社紬,,合同会社,大阪府,大阪市東住吉区,田辺６丁目１２番３号,,27,121,5460031,,,,,,,2023-08-03,1,,,,,ツムギ,0
414,2122001037206,新規,0,2023-08-03,2023-08-03,株式会社ＮＴ,,株式会社,大阪府,大東市,灰塚５丁目１番４５号ＢＵＩＬＤよしかわ,,27,218,5740043,,,,,,,2023-08-03,1,,,,,エヌティー,0
415,2122001037222,新規,0,2023-08-03,2023-08-03,株式会社リレア,,株式会社,大阪府,東大阪市,友井２丁目１６番２４号カーサルミエールＩＩ１０１号,00131383,27,227,5770816,,,,,,,2023-08-03,1,,,,,リレア,0
419,2130001074854,新規,0,2023-08-03,2023-08-03,ＴＳ保険パートナーズ株式会社,,株式会社,京都府,京都市伏見区,淀生津町６５０番地,,26,109,6130914,,,,,,,2023-08-03,1,,,,,ティエスホケンパートナーズ,0
420,2130001074870,新規,0,2023-08-03,2023-08-03,智山興業株式会社,,株式会社,京都府,亀岡市,東本梅町東大谷生子田６４番地９,,26,206,6210235,,,,,,,2023-08-03,1,,,,,トモヤマコウギョウ,0
426,2140001131092,新規,0,2023-08-03,2023-08-03,株式会社ＬＩＢ,,株式会社,兵庫県,尼崎市,口田中２丁目７番６号,,28,202,6610983,,,,,,,2023-08-03,1,,,,,リブ,0
427,2140001131101,新規,0,2023-08-03,2023-08-03,株式会社ｃｏｃｏｉｃｏ,,株式会社,兵庫県,尼崎市,南武庫之荘９丁目２０番１８－２号,,28,202,6610033,,,,,,,2023-08-03,1,,,,,ココイコ,0
428,2140001131118,新規,0,2023-08-03,2023-08-03,株式会社Ｔａｓｔｅｆｕｌ,,株式会社,兵庫県,川西市,鴬の森町１番４４号,,28,217,6660001,,,,,,,2023-08-03,1,,,,,テイストフル,0
431,2140003019385,新規,0,2023-08-03,2023-08-03,ＦＹ２４Ａｄｖｉｓｏｒｉｅｓ合同会社,,合同会社,兵庫県,神戸市須磨区,月見山町１丁目２番,,28,107,6540063,,,,,,,2023-08-03,1,,,,,エフワイトゥエンティフォーアドバイザリーズ,0
434,2150001026580,新規,0,2023-08-03,2023-08-03,株式会社香久山の郷,,株式会社,奈良県,橿原市,八木町１丁目８番１５号,,29,205,6340078,,,,,,,2023-08-03,1,,,,,カグヤマノサト,0
446,2180001157340,新規,0,2023-08-03,2023-08-03,株式会社Ｓｃｅｎｅｒｙ,,株式会社,愛知県,名古屋市瑞穂区,初日町２丁目４番地の６,,23,108,4670028,,,,,,,2023-08-03,1,,,,,シーナリー,0
447,2180001157407,新規,0,2023-08-03,2023-08-03,株式会社アイティエス,,株式会社,愛知県,名古屋市天白区,山根町１１７番地の３,,23,116,4680038,,,,,,,2023-08-03,1,,,,,アイティエス,0
452,2180005020313,新規,0,2023-08-03,2023-08-03,中本土地家屋調査士法人,,その他の設立登記法人,愛知県,知多郡武豊町,字道崎２６番地の６,,23,447,4702347,,,,,,,2023-08-03,1,,,,,ナカモト,0
463,2200001041558,新規,0,2023-08-03,2023-08-03,株式会社Ｈｉｄａ　Ｔｒａｄｉｎｇ,,株式会社,岐阜県,飛騨市,古川町上野２８８番地１,,21,217,5094263,,,,,,,2023-08-03,1,,,,,ヒダトレーディング,0
467,2210003001674,新規,0,2023-08-03,2023-08-03,合同会社ＫＵＲＡＳＯ,,合同会社,福井県,坂井市,坂井町河和田１７－３,,18,210,9190505,,,,,,,2023-08-03,1,,,,,クラソ,0
468,2220001025526,新規,0,2023-08-03,2023-08-03,株式会社ワカクサ,,株式会社,石川県,金沢市,古府町南８５４番地１,,17,201,9200363,,,,,,,2023-08-03,1,,,,,ワカクサ,0
472,2230005009326,新規,0,2023-08-03,2023-08-03,特定非営利活動法人富山まちなか生活マルチサポートセンター,,その他の設立登記法人,富山県,富山市,太田口通り３丁目５－１６,,16,201,9300063,,,,,,,2023-08-03,1,,,,,,0
475,2240001061899,新規,0,2023-08-03,2023-08-03,株式会社レステート,,株式会社,広島県,広島市中区,袋町４番２号,,34,101,7300036,,,,,,,2023-08-03,1,,,,,レステート,0
480,2250001020210,新規,0,2023-08-03,2023-08-03,アリーロ株式会社,,株式会社,山口県,下関市,長府松小田中町１０番１号,,35,201,7520935,,,,,,,2023-08-03,1,,,,,アリーロ,0
481,2250001020227,新規,0,2023-08-03,2023-08-03,株式会社ホシキＨ＆Ｔ,,株式会社,山口県,下関市,綾羅木本町２丁目５番２１号,,35,201,7510849,,,,,,,2023-08-03,1,,,,,ホシキエイチアンドティー,0
484,2260001038169,新規,0,2023-08-03,2023-08-03,株式会社光岡事務所,,株式会社,岡山県,岡山市北区,十日市中町５番２６号４Ｆ,,33,101,7000855,,,,,,,2023-08-03,1,,,,,ミツオカジムショ,0
485,2270003001545,新規,0,2023-08-03,2023-08-03,はわいシステム開発合同会社,,合同会社,鳥取県,東伯郡湯梨浜町,大字下浅津１０４,,31,370,6820711,,,,,,,2023-08-03,1,,,,,ハワイシステムカイハツ,0
486,2280001009003,新規,0,2023-08-03,2023-08-03,株式会社すぎまる,,株式会社,島根県,松江市,千鳥町２６番地１湖北ビル３０４号,,32,201,6900852,,,,,,,2023-08-03,1,,,,,スギマル,0
489,2280005007564,新規,0,2023-08-03,2023-08-03,ＮＰＯ法人日本犬益田柴犬育成会,,その他の設立登記法人,島根県,益田市,向横田町ロ１２８番地,,32,204,6995134,,,,,,,2023-08-03,1,,,,,ニホンケンマスダシバイヌイクセイカイ,0
492,2290001102459,新規,0,2023-08-03,2023-08-03,株式会社ＴＹＳ,,株式会社,福岡県,福岡市中央区,小笹４丁目１９番３６号,,40,133,8100033,,,,,,,2023-08-03,1,,,,,ティワイエス,0
493,2290001102467,新規,0,2023-08-03,2023-08-03,株式会社徳永フード,00131380,株式会社,福岡県,福岡市南区,井尻４丁目３０番１号,,40,134,8111302,,,,,,,2023-08-03,1,,,,,トクナガフード,0
494,2290001102483,新規,0,2023-08-03,2023-08-03,株式会社ＴＡＩＫＯ,,株式会社,福岡県,筑紫野市,大字古賀３０番地１,,40,217,8180047,,,,,,,2023-08-03,1,,,,,タイコウ,0
495,2290001102491,新規,0,2023-08-03,2023-08-03,株式会社Ｐｒｏｓｐｅｒ　ｗｏｏｄ,,株式会社,福岡県,福岡市南区,清水１丁目１６－８第二明永ビル２０１,,40,134,8150031,,,,,,,2023-08-03,1,,,,,プロスパーウッド,0
496,2290003014173,新規,0,2023-08-03,2023-08-03,ＭＩＭＯ合同会社,,合同会社,福岡県,春日市,大字小倉四丁目１８番地２０８号,,40,218,8160824,,,,,,,2023-08-03,1,,,,,ミモ,0
505,2320001019914,新規,0,2023-08-03,2023-08-03,株式会社徳永座,,株式会社,大分県,大分市,都町１丁目１番５号親和ビル２階,,44,201,8700034,,,,,,,2023-08-03,1,,,,,トクナガザ,0
506,2320001019922,新規,0,2023-08-03,2023-08-03,ジークウェブ株式会社,,株式会社,大分県,大分市,大字寒田１５７５番地の２６,,44,201,8701123,,,,,,,2023-08-03,1,,,,,ジークウェブ,0
508,2340003004193,新規,0,2023-08-03,2023-08-03,合同会社ＣＯＶＥＳ,,合同会社,鹿児島県,鹿児島市,上之園町１８－２０－９０２,,46,201,8900052,,,,,,,2023-08-03,1,,,,,コーブス,0
512,2370001050245,新規,0,2023-08-03,2023-08-03,株式会社引地美装,,株式会社,宮城県,角田市,角田字稔町１５番地１３,,04,208,9811505,,,,,,,2023-08-03,1,,,,,ヒキチビソウ,0
535,2490001010550,新規,0,2023-08-03,2023-08-03,エコプラス株式会社,,株式会社,高知県,高知市,朝倉丙５１４－１－１０５,,39,201,7808063,,,,,,,2023-08-03,1,,,,,エコプラス,0
544,2700150118040,新規,0,2023-08-03,2023-08-03,Ｓｕｐａｒｅｅ　Ｅｌｅｃｔｒｏｎｉｃｓ　Ｃｏ．，ＬＴＤ,,外国会社等,,,,,,,,Ｓｈｏｐ　１１１，Ｈｕｉｑｉａｏ　Ｂｕｉｌｄｉｎｇ，Ｎｏ．６Ｐｅｎｇｓｈａｎｇ　Ｘｉｎｇｆｕ　Ｒｏａｄ　Ｈｅｌｏｎｇ　Ｓｔｒｅｅｔ，Ｂａｉｙｕｎ　Ｄｉｓｔｒｉｃｔ，Ｇｕａｎｇｚｈｏｕ，Ｇｕａｎｇｄｏｎｇ　５１０４４０　ＣＮ,,,,,,2023-08-03,1,,,,,コウシュウソハクライデンシユウゲンコウシ,0
545,2700150118734,新規,0,2023-08-03,2023-08-03,ｓｈｅｎｚｈｅｎｓｈｉｈｕｉｙｕｅｄｅｓｈｉｐｉｎｙｏｕｘｉａｎｇｏｎｇｓｉ,,外国会社等,,,,,,,,ｇｕａｎｌａｎｊｉｅｄａｏｇｕｉｘｉａｎｇｓｈｅｑｕ　ｊｉａｙｉｇｏｎｇｙｅｙｕａｎ５ｈａｏｓｅｎｓｈｕｑｉａｎｇｃｈａｎｇｆａｎｇ４０１ｌｏｎｇｈｕａｑｕ　ｓｈｅｎｚｈｅｎｓｈｉ５１８１０１ＣＮ,,,,,,2023-08-03,1,,,,,シンセンシコウイントクシヒンユウゲンコウシ,0
546,2700150118742,新規,0,2023-08-03,2023-08-03,ｙｉｗｕｓｈｉ　ｓｈｅｎｇｍａｉｊｉｎｃｈｕｋｏｕｍａｏｙｉ　ｙｏｕｘｉａｎｇｏｎｇｓｉ,,外国会社等,,,,,,,,ｙｉｔｉｎｇｚｈｅｎｃｈｏｕｙｉｌｕ１７９ｈａｏｚｏｎｇｈｅｌｏｕ２ｌｏｕ２０３　ｙｉｗｕｓｈｉ，ｚｈｅｊｉａｎｇｓｈｅｎｇ　３２２０００　ＣＮ,,,,,,2023-08-03,1,,,,,イウシセンマイジンツコオマオイヨウシェンゴンスー,0
547,2700150118750,新規,0,2023-08-03,2023-08-03,Ｆｏｓｈａｎ　Ｈｕｉｃｕｉ　Ｆｕｒｎｉｔｕｒｅ　Ｃｏ．，ＬＴＤ,,外国会社等,,,,,,,,４Ｆ　２，Ｂｕｉｌｄｉｎｇ　Ｄ，Ｄｉｇｆｕ　Ｐｌａｓｔｉｃ　Ｂｕｓｉｎｅｓｓ　Ｃｅｎｔｅｒ，Ｎｏ．６４－６６，Ｊｉａｎｓｈｅ　Ｒｏａｄ，Ｅａｓｔ　Ｄｉｓｔｒｉｃｔ，Ｌｅｃｏｎｇ　Ｔｏｗｎ，Ｓｈｕｎｄｅ　Ｄｉｓｔｒｉｃｔ，Ｆｏｓｈａｎ　Ｃｉｔｙ，Ｇｕａｎｇｄｏｎｇ　Ｐｒｏｖｉｎｃｅ,,,,,,2023-08-03,1,,,,,フォーシャンシーフイツイジャージーヨウシエンゴンスー,0
548,2700150118759,新規,0,2023-08-03,2023-08-03,ＪＥ　Ｐｒｏｄｕｃｔｓ　Ｃｏｒｐ,,外国会社等,,,,,,,,１７３０　Ｗ　Ｑｕａｉｌ　Ｃｔ，Ｕｎｉｔ　３，Ａｒｌｉｎｇｔｏｎ　Ｈｅｉｇｈｔｓ　ＩＬ　６０００４　ＵＳＡ,,,,,,2023-08-03,1,,,,,ジェイイープロダクツコープ,0
557,3010001237356,新規,0,2023-08-03,2023-08-03,株式会社増田総合事務所,,株式会社,東京都,千代田区,神田猿楽町２丁目８番１１号ＶＯＲＴ水道橋ＩＩＩ,00131385,13,101,1010064,,,,,,,2023-08-03,1,,,,,マスダソウゴウジムショ,0
558,3010001237372,新規,0,2023-08-03,2023-08-03,商工中金キャピタル株式会社,,株式会社,東京都,中央区,八重洲２丁目１０番１７号,,13,102,1040028,,,,,,,2023-08-03,1,,,,,ショウコウチュウキンキャピタル,0
564,3010003041087,新規,0,2023-08-03,2023-08-03,グランデイズ合同会社,,合同会社,東京都,中央区,日本橋室町１丁目１１番１２号日本橋水野ビル７階,,13,102,1030022,,,,,,,2023-08-03,1,,,,,グランデイズ,0
565,3010003041252,新規,0,2023-08-03,2023-08-03,合同会社ｔｏｍａｒｉ,,合同会社,東京都,中央区,日本橋室町１丁目１１番１２号７階,,13,102,1030022,,,,,,,2023-08-03,1,,,,,トマリ,0
566,3010003041269,新規,0,2023-08-03,2023-08-03,ＣＥＳ大分２太陽光発電所合同会社,,合同会社,東京都,千代田区,丸の内１丁目８番２号鉄鋼ビルディング４階,,13,101,1000005,,,,,,,2023-08-03,1,,,,,シーイーエスオオイタツータイヨウコウハツデンショ,0
569,3010005036952,新規,0,2023-08-03,2023-08-03,ひかり土地家屋調査士法人,,その他の設立登記法人,東京都,千代田区,丸の内３丁目１番１号,,13,101,1000005,,,,,,,2023-08-03,1,,,,,ヒカリ,0
570,3010005037034,新規,0,2023-08-03,2023-08-03,ソーラーエテルナホールディングス一般社団法人,,その他の設立登記法人,東京都,中央区,八丁堀４丁目２番１０号ＡＯＪ税理士法人内,,13,102,1040032,,,,,,,2023-08-03,1,,,,,ソーラーエテルナホールディングス,0
576,3010401176170,新規,0,2023-08-03,2023-08-03,株式会社ビーボス,,株式会社,東京都,港区,赤坂６丁目１９番５４－３０９号,,13,103,1070052,,,,,,,2023-08-03,1,,,,,ビーボス,0
580,3010503007100,新規,0,2023-08-03,2023-08-03,合同会社百泉,,合同会社,東京都,台東区,台東４丁目２７番５－６０３号,,13,106,1100016,,,,,,,2023-08-03,1,,,,,ヒャクセン,0
582,3010601063532,新規,0,2023-08-03,2023-08-03,衆億商事株式会社,,株式会社,東京都,江東区,亀戸７丁目５０番２号アーテプルミエ４０１号室,,13,108,1360071,,,,,,,2023-08-03,1,,,,,シュウオクショウジ,0
591,3010903008350,新規,0,2023-08-03,2023-08-03,合同会社トゥチ,,合同会社,東京都,世田谷区,等々力７丁目２２－２ブランＡ１０２,,13,112,1580082,,,,,,,2023-08-03,1,,,,,トゥチ,0
605,3011001156026,新規,0,2023-08-03,2023-08-03,株式会社ＴＲＵＳＴ　ＲＯＯＴＳ,,株式会社,東京都,渋谷区,恵比寿南１丁目４番５号ユニカムビル４Ｆ,,13,113,1500022,,,,,,,2023-08-03,1,,,,,トラストルーツ,0
606,3011001156034,新規,0,2023-08-03,2023-08-03,株式会社Ｇｕｉｎｏｔ　Ｆｒａｎｃｈｉｓｅ　Ｊａｐａｎ,,株式会社,東京都,目黒区,五本木２丁目９番５号,,13,110,1530053,,,,,,,2023-08-03,1,,,,,ギノーフランチャイズジャパン,0
607,3011001156067,新規,0,2023-08-03,2023-08-03,株式会社ｓｕｉ,,株式会社,東京都,渋谷区,渋谷３丁目２７番１１号祐真ビル本館９階,,13,113,1500002,,,,,,,2023-08-03,1,,,,,スイ,0
609,3011003017309,新規,0,2023-08-03,2023-08-03,合同会社エムエスジー,,合同会社,東京都,渋谷区,代々木３丁目５８－２－１０１,,13,113,1510053,,,,,,,2023-08-03,1,,,,,エムエスジー,0
610,3011005010162,新規,0,2023-08-03,2023-08-03,一般社団法人太陽のプロジェクト,,その他の設立登記法人,東京都,渋谷区,南平台町１２番１１号,,13,113,1500036,,,,,,,2023-08-03,1,,,,,タイヨウノプロジェクト,0
616,3011301028899,新規,0,2023-08-03,2023-08-03,株式会社クリムゾン,,株式会社,東京都,杉並区,荻窪１丁目１７番９号,,13,115,1670051,,,,,,,2023-08-03,1,,,,,,0
621,3011403004071,新規,0,2023-08-03,2023-08-03,ＳＷフォース合同会社,,合同会社,東京都,板橋区,前野町１丁目４６番７号,,13,119,1740063,,,,,,,2023-08-03,1,,,,,エスダブリューフォース,0
623,3011501029607,新規,0,2023-08-03,2023-08-03,嘉傳株式会社,,株式会社,東京都,北区,東田端２丁目９番１７号マンション西新宿２０９号室,,13,117,1140013,,,,,,,2023-08-03,1,,,,,カデン,0
625,3011505002568,新規,0,2023-08-03,2023-08-03,一般社団法人関東卓球普及協会,,その他の設立登記法人,東京都,北区,神谷１丁目２番１５号コエル第三ビルＢ１,,13,117,1150043,,,,,,,2023-08-03,1,,,,,カントウタッキュウフキュウキョウカイ,0
634,3012301013544,新規,0,2023-08-03,2023-08-03,株式会社プロテクトワン,,株式会社,東京都,町田市,森野１丁目３６番２号,,13,209,1940022,,,,,,,2023-08-03,1,,,,,プロテクトワン,0
636,3012401040810,新規,0,2023-08-03,2023-08-03,株式会社椛,,株式会社,東京都,稲城市,坂浜５３９－１４,,13,225,2060822,,,,,,,2023-08-03,1,,,,,モミジ,0
637,3012403006099,新規,0,2023-08-03,2023-08-03,未来創造合同会社,,合同会社,東京都,小金井市,緑町５丁目２‐３２（１５）,,13,210,1840003,,,,,,,2023-08-03,1,,,,,ミライソウゾウ,0
638,3012701017780,新規,0,2023-08-03,2023-08-03,株式会社ラークフル,,株式会社,東京都,西東京市,ひばりが丘１丁目４番９号小松ビル１階,,13,229,2020001,,,,,,,2023-08-03,1,,,,,ラークフル,0
641,3012801022549,新規,0,2023-08-03,2023-08-03,株式会社北多摩不動産,,株式会社,東京都,武蔵村山市,大南３丁目６９番地４,,13,223,2080013,,,,,,,2023-08-03,1,,,,,キタタマフドウサン,0
649,3020001152653,新規,0,2023-08-03,2023-08-03,株式会社ラフ,,株式会社,神奈川県,横浜市緑区,台村町３２４番地,,14,113,2260014,,,,,,,2023-08-03,1,,,,,ラフ,0
650,3020001152736,新規,0,2023-08-03,2023-08-03,株式会社Ｅｕｐｈｏｒｉａ,,株式会社,神奈川県,川崎市川崎区,貝塚１丁目１５番１号ラグレア２Ｆ,,14,131,2100014,,,,,,,2023-08-03,1,,,,,ユーフォリア,0
651,3020001152810,新規,0,2023-08-03,2023-08-03,土佐商会株式会社,,株式会社,神奈川県,横浜市中区,山手町２７番地５ベイステージ元町５１２,,14,104,2310862,,,,,,,2023-08-03,1,,,,,トサショウカイ,0
659,3021001079779,新規,0,2023-08-03,2023-08-03,株式会社Ｏ‐ＴＥＣ,,株式会社,神奈川県,横須賀市,浦賀７丁目１１番１号,,14,201,2390822,,,,,,,2023-08-03,1,,,,,オーテック,0
682,3040005022082,新規,0,2023-08-03,2023-08-03,一般社団法人メディアリテラシー研究所,,その他の設立登記法人,千葉県,市川市,関ケ島１番１７－３０５号,,12,203,2720105,,,,,,,2023-08-03,1,,,,,メディアリテラシーケンキュウジョ,0
685,3050005013304,新規,0,2023-08-03,2023-08-03,アイエージェント行政書士法人,,その他の設立登記法人,茨城県,稲敷郡阿見町,大字実穀１６７４番地８２,,08,443,3001153,,,,,,,2023-08-03,1,,,,,アイエージェント,0
686,3060001036191,新規,0,2023-08-03,2023-08-03,ＲＮＫ　ＪＡＰＡＮ株式会社,,株式会社,栃木県,栃木市,平柳町３丁目４６番１３号,,09,203,3280012,,,,,,,2023-08-03,1,,,,,アールエヌケージャパン,0
692,3080001025762,新規,0,2023-08-03,2023-08-03,株式会社クラウドドア,,株式会社,静岡県,静岡市駿河区,寿町２０番１５号,,22,102,4228055,,,,,,,2023-08-03,1,,,,,クラウドドア,0
694,3080101024144,新規,0,2023-08-03,2023-08-03,株式会社村松商店,,株式会社,静岡県,三島市,一番町２番３１号フォンテーヌｕ．３０１,,22,206,4110036,,,,,,,2023-08-03,1,,,,,ムラマツショウテン,0
695,3080101024152,新規,0,2023-08-03,2023-08-03,株式会社ＫＩＲＡＬＩＶＥ,,株式会社,静岡県,駿東郡長泉町,東野６０８番地の１２０,,22,342,4110931,,,,,,,2023-08-03,1,,,,,キラライブ,0
716,3120001256931,新規,0,2023-08-03,2023-08-03,株式会社吉端,,株式会社,大阪府,大阪市大正区,三軒家西２丁目１番１１号,,27,108,5510001,,,,,,,2023-08-03,1,,,,,ヨシハタ,0
717,3120001256956,新規,0,2023-08-03,2023-08-03,株式会社ＤＦエンジニアリング,,株式会社,大阪府,大阪市中央区,森ノ宮中央１丁目３番４号Ｒｅｓｉｄｅｎｃｅ難波宮２０２,,27,128,5400003,,,,,,,2023-08-03,1,,,,,ディエフエンジニアリング,0
718,3120001256964,新規,0,2023-08-03,2023-08-03,株式会社岡田工務店,,株式会社,大阪府,大阪市住吉区,沢之町１丁目７番１７号,,27,120,5580031,,,,,,,2023-08-03,1,,,,,オカダコウムテン,0
719,3120001256972,新規,0,2023-08-03,2023-08-03,株式会社セブンセキュリティ,,株式会社,大阪府,大阪市都島区,東野田町４丁目７番５号,,27,102,5340024,,,,,,,2023-08-03,1,,,,,セブンセキュリティ,0
720,3120001257005,新規,0,2023-08-03,2023-08-03,ＵＮＣＨＩ　ＦＲＡＮＣＨＩＳＥ２０２３株式会社,,株式会社,大阪府,大阪市淀川区,西中島５丁目７番２５－１００４号,,27,123,5320011,,,,,,,2023-08-03,1,,,,,ウンチフランチャイズ,0
721,3120001257013,新規,0,2023-08-03,2023-08-03,ボーテックス株式会社,,株式会社,大阪府,大阪市西区,立売堀２丁目５番４１号,,27,106,5500012,,,,,,,2023-08-03,1,,,,,ボーテックス,0
725,3120003024626,新規,0,2023-08-03,2023-08-03,合同会社ＳＳＫ,,合同会社,大阪府,門真市,三ツ島６丁目９－２０,,27,223,5710015,,,,,,,2023-08-03,1,,,,,エスエスケイ,0
726,3120003024642,新規,0,2023-08-03,2023-08-03,合同会社ＮＡＧＡ,,合同会社,大阪府,大阪市中央区,日本橋１丁目１７番１７号,,27,128,5420073,,,,,,,2023-08-03,1,,,,,ナガ,0
731,3120901047884,新規,0,2023-08-03,2023-08-03,イーエーピーエスジャパン株式会社,,株式会社,大阪府,豊中市,春日町１丁目１２番７号,,27,203,5600052,,,,,,,2023-08-03,1,,,,,イーエーピーエスジャパン,0
733,3122001037205,新規,0,2023-08-03,2023-08-03,株式会社永井製作所,,株式会社,大阪府,八尾市,福栄町２丁目１０番１号,,27,212,5810844,,,,,,,2023-08-03,1,,,,,ナガイセイサクショ,0
737,3130001074845,新規,0,2023-08-03,2023-08-03,株式会社ＳＯＬＡ,,株式会社,京都府,京都市伏見区,竹田浄菩提院町１４６番地,,26,109,6128445,,,,,,,2023-08-03,1,,,,,ソラ,0
738,3130001074853,新規,0,2023-08-03,2023-08-03,林亀不動産株式会社,,株式会社,京都府,京都市左京区,松ケ崎芝本町２１番地,,26,103,6060913,,,,,,,2023-08-03,1,,,,,ハヤシカメフドウサン,0
739,3130001074894,新規,0,2023-08-03,2023-08-03,株式会社山商,,株式会社,京都府,宇治市,小倉町西山７０番地６,,26,204,6110042,,,,,,,2023-08-03,1,,,,,ヤマショウ,0
748,3140005026701,新規,0,2023-08-03,2023-08-03,ＷＯＲＫ　ＴＥＡＭ社会保険労務士法人,,その他の設立登記法人,兵庫県,神戸市東灘区,向洋町中１丁目１番地１４１号棟２０３号室,,28,101,6580032,,,,,,,2023-08-03,1,,,,,ワークチーム,0
751,3160001025234,新規,0,2023-08-03,2023-08-03,株式会社デイズクリーン,,株式会社,滋賀県,蒲生郡日野町,大字松尾１５３９番地,,25,383,5291601,,,,,,,2023-08-03,1,,,,,デイズクリーン,0
764,3180001157406,新規,0,2023-08-03,2023-08-03,株式会社ピコ・ホールディングス,,株式会社,愛知県,名古屋市中村区,名駅南１丁目１９番２９号,,23,105,4500003,,,,,,,2023-08-03,1,,,,,ピコホールディングス,0
767,3180005020312,新規,0,2023-08-03,2023-08-03,中本司法書士法人,,その他の設立登記法人,愛知県,知多郡武豊町,字道崎２６番地の６,,23,447,4702347,,,,,,,2023-08-03,1,,,,,ナカモト,0
772,3200001041549,新規,0,2023-08-03,2023-08-03,株式会社鈴木電設,,株式会社,岐阜県,瑞浪市,高月町２丁目１６番地,,21,208,5096126,,,,,,,2023-08-03,1,,,,,スズキデンセツ,0
773,3200005013511,新規,0,2023-08-03,2023-08-03,一般社団法人日本プロフェッショナル技能認定協会,,その他の設立登記法人,岐阜県,岐阜市,柳津町上佐波１丁目３３６番地,,21,201,5016121,,,,,,,2023-08-03,1,,,,,ニホンプロフェッショナルギノウニンテイキョウカイ,0
776,3220001025525,新規,0,2023-08-03,2023-08-03,株式会社プロフィット開発,,株式会社,石川県,金沢市,高畠３丁目１９８番地１,,17,201,9218001,,,,,,,2023-08-03,1,,,,,プロフィットカイハツ,0
778,3220003003561,新規,0,2023-08-03,2023-08-03,合同会社ワイプラ,,合同会社,石川県,能美市,寺井町ニ７１番地２,,17,211,9231121,,,,,,,2023-08-03,1,,,,,ワイプラ,0
780,3230001019939,新規,0,2023-08-03,2023-08-03,龍巳工業株式会社,,株式会社,富山県,富山市,草島１２３番地４５,,16,201,9302201,,,,,,,2023-08-03,1,,,,,タツミコウギョウ,0
787,3240001061898,新規,0,2023-08-03,2023-08-03,トウマ株式会社,,株式会社,広島県,広島市西区,東観音町１８番１５号,,34,104,7330032,,,,,,,2023-08-03,1,,,,,トウマ,0
788,3240001061907,新規,0,2023-08-03,2023-08-03,株式会社パワーバレーズ,,株式会社,広島県,広島市佐伯区,城山１丁目３番７－６－７０１号,,34,108,7315155,,,,,,,2023-08-03,1,,,,,パワーバレーズ,0
793,3260001038176,新規,0,2023-08-03,2023-08-03,株式会社クレシェンド,,株式会社,岡山県,岡山市東区,西平島９８番地７,,33,103,7090633,,,,,,,2023-08-03,1,,,,,クレシェンド,0
797,3260003004374,新規,0,2023-08-03,2023-08-03,合同会社ブルーネイチャー,,合同会社,岡山県,浅口郡里庄町,大字新庄グリーンクレスト２０－９,,33,445,7190304,,,,,,,2023-08-03,1,,,,,ブルーネイチャー,0
798,3260003004382,新規,0,2023-08-03,2023-08-03,地球子舎合同会社,,合同会社,岡山県,岡山市北区,清輝橋４丁目３番１６号－７０５,,33,101,7000861,,,,,,,2023-08-03,1,,,,,テラコヤ,0
802,3290001102482,新規,0,2023-08-03,2023-08-03,株式会社エアリアル,,株式会社,福岡県,福岡市博多区,博多駅南１丁目４番６号,,40,132,8120016,,,,,,,2023-08-03,1,,,,,エアリアル,0
803,3290001102490,新規,0,2023-08-03,2023-08-03,株式会社ラフテル,,株式会社,福岡県,福岡市中央区,天神２丁目１１番１号福岡ＰＡＲＣＯ新館５階,,40,133,8100001,,,,,,,2023-08-03,1,,,,,ラフテル,0
816,3320001019921,新規,0,2023-08-03,2023-08-03,大分ベスト建設株式会社,,株式会社,大分県,大分市,大字政所２１４８番地,,44,201,8700268,,,,,,,2023-08-03,1,,,,,オオイタベストケンセツ,0
818,3330001031099,新規,0,2023-08-03,2023-08-03,エムオー株式会社,,株式会社,熊本県,熊本市中央区,新屋敷３丁目７番１８号,,43,101,8620975,,,,,,,2023-08-03,1,,,,,エムオー,0
820,3340001025769,新規,0,2023-08-03,2023-08-03,株式会社リアルマジック,,株式会社,鹿児島県,霧島市,国分新町９０３番地１,,46,218,8994351,,,,,,,2023-08-03,1,,,,,リアルマジック,0
825,3370001050228,新規,0,2023-08-03,2023-08-03,株式会社ｈｙｍｎ,,株式会社,宮城県,仙台市青葉区,小田原６丁目１番３３号２階,,04,101,9800003,,,,,,,2023-08-03,1,,,,,ヒム,0
827,3370005010665,新規,0,2023-08-03,2023-08-03,一般社団法人フードバンクせんだい泉,,その他の設立登記法人,宮城県,仙台市泉区,泉中央３丁目１８番４号,,04,105,9813133,,,,,,,2023-08-03,1,,,,,フードバンクセンダイイズミ,0
828,3380001033883,新規,0,2023-08-03,2023-08-03,エイワンケア株式会社,,株式会社,福島県,郡山市,安積町日出山３丁目１９５番地,,07,203,9630101,,,,,,,2023-08-03,1,,,,,エイワンケア,0
835,3430001089664,新規,0,2023-08-03,2023-08-03,ＳＡＧＡＳ株式会社,,株式会社,北海道,札幌市西区,西野六条４丁目３番１号,,01,107,0630036,,,,,,,2023-08-03,1,,,,,サガス,0
836,3430001089689,新規,0,2023-08-03,2023-08-03,株式会社ｍｉｏｍｏｎｄ,,株式会社,北海道,札幌市白石区,栄通１７丁目７－２１－２０３,,01,104,0030021,,,,,,,2023-08-03,1,,,,,ミオモンド,0
839,3440001009299,新規,0,2023-08-03,2023-08-03,株式会社ミライテチョ,,株式会社,北海道,函館市,谷地頭町２９番１２－４０３号,,01,202,0400046,,,,,,,2023-08-03,1,,,,,ミライテチョ,0
841,3450003002367,新規,0,2023-08-03,2023-08-03,合同会社コーダ総業,,合同会社,北海道,旭川市,東旭川町上兵村２０１番地,,01,204,0788207,,,,,,,2023-08-03,1,,,,,コーダソウギョウ,0
845,3500001025091,新規,0,2023-08-03,2023-08-03,株式会社Ｙａｍａｓｈｉｔａ‐Ｐｅａｒｌ,,株式会社,愛媛県,宇和島市,平浦９９５番地３,,38,203,7980095,,,,,,,2023-08-03,1,,,,,ヤマシタパール,0
846,3700150118254,新規,0,2023-08-03,2023-08-03,ＫＩＮＧＳＭＩＴＨ　ＴＥＣＨＮＯＬＯＧＹ　ＣＯＭＰＡＮＹ　ＬＩＭＩＴＥＤ,,外国会社等,,,,,,,,Ｈｏｌｌｙｗｏｏｄ　ｂｕｓｉｎｅｓｓ　ｃｅｎｔｒｅ，６１０　Ｎａｔｈａｎ　Ｒｏａｄ，Ｍｏｎｇｋｏｋ　Ｒｏｏｍ　１３１８－１９，Ｋｏｗｌｏｏｎ　ＨＯＮＧＫＯＮＧ　ＨＫ,,,,,,2023-08-03,1,,,,,キングスミステクノロジーカンパニーリミテッド,0
847,3700150118741,新規,0,2023-08-03,2023-08-03,Ｓｈｅｎｚｈｅｎ　ＴｒｕＢｏｏｓｔ　Ｅｌｅｃｔｒｏｎｉｃ　Ｔｅｃｈｎｏｌｏｇｙ　Ｃｏ．，Ｌｔｄ．,,外国会社等,,,,,,,,１４ｔｈ　Ｆｌｏｏｒ，Ｂｌｄｇ　Ｂ，ＱｉｎｇＨｕ　Ｔｅｃｈ　Ｐａｒｋ，Ｑｉｎｇｘｉａｎｇ　ＲＤ，Ｑｉｎｇｈｕ　Ｃｏｍｍｕｎｉｔｙ，ＬｏｎｇＨｕａ　Ｓｔｒｅｅｔ，ＬｏｎｇＨｕａ　Ｄｉｓｔｒｉｃｔ　ＳｈｅｎＺｈｅｎ　ＧｕａｎｇＤｏｎｇ,,,,,,2023-08-03,1,,,,,シンセンシトクハクシデンシカギユウゲンコウシ,0
848,3700150118758,新規,0,2023-08-03,2023-08-03,宏洋（広州）紡織科技有限公司,,外国会社等,,,,,,,,中国広州市増城新塘鎮東華村漁＿山（厂房）,00131366,,,,,2023-08-03,1,,,,,コウヨウコウシュウボウショクカギユウゲンコウシ,0
855,4010001237339,新規,0,2023-08-03,2023-08-03,イノベイトネクサス株式会社,,株式会社,東京都,千代田区,丸の内２丁目１番１号明治安田生命ビル２１階,,13,101,1000005,,,,,,,2023-08-03,1,,,,,イノベイトネクサス,0
856,4010001237347,新規,0,2023-08-03,2023-08-03,株式会社ＣｙｂｅｒＴｅｃｈＣｏｎｆｒｏｎｔ,,株式会社,東京都,千代田区,神田錦町３丁目７番地２東京堂錦町ビルディング８０７,,13,101,1010054,,,,,,,2023-08-03,1,,,,,サイバーテックコンフロント,0
857,4010001237371,新規,0,2023-08-03,2023-08-03,株式会社パーペチュアルヴィジョンズ,,株式会社,東京都,中央区,八丁堀３丁目１２番８号,,13,102,1040032,,,,,,,2023-08-03,1,,,,,パーペチュアルヴィジョンズ,0
858,4010001237413,新規,0,2023-08-03,2023-08-03,株式会社ジスキー,,株式会社,東京都,中央区,日本橋３丁目１番１４号ＳＴＡＧＥ日本橋３Ｆ,,13,102,1030027,,,,,,,2023-08-03,1,,,,,ジスキー,0
859,4010003041268,新規,0,2023-08-03,2023-08-03,ＣＥＳ中部６太陽光発電所合同会社,,合同会社,東京都,千代田区,丸の内１丁目８番２号鉄鋼ビルディング４階,,13,101,1000005,,,,,,,2023-08-03,1,,,,,シーイーエスチュウブシックスタイヨウコウハツデンショ,0
868,4010401176079,新規,0,2023-08-03,2023-08-03,株式会社ｓｈａｎｄｙ,,株式会社,東京都,港区,南青山３丁目１番３６号青山丸竹ビル６Ｆ,,13,103,1070062,,,,,,,2023-08-03,1,,,,,シャンディ,0
869,4010401176137,新規,0,2023-08-03,2023-08-03,エイベックス・スタイルス株式会社,,株式会社,東京都,港区,三田１丁目４番１号,,13,103,1080073,,,,,,,2023-08-03,1,,,,,エイベックススタイルス,0
873,4010403030597,新規,0,2023-08-03,2023-08-03,合同会社三鷹ＳＩＸ,,合同会社,東京都,港区,赤坂３丁目２１－１７,,13,103,1070052,,,,,,,2023-08-03,1,,,,,ミタカシックス,0
875,4010503007099,新規,0,2023-08-03,2023-08-03,合同会社ＳＡＩＫＯＯ　ＭＥＤＩＡ,,合同会社,東京都,台東区,西浅草３丁目２９番１４号アメイジングビル３階,,13,106,1110035,,,,,,,2023-08-03,1,,,,,サイコーメディア,0
878,4010601063531,新規,0,2023-08-03,2023-08-03,中斉株式会社,,株式会社,東京都,墨田区,東駒形２丁目２番１３－２０２号,,13,107,1300005,,,,,,,2023-08-03,1,,,,,チュウサイ,0
883,4010701044662,新規,0,2023-08-03,2023-08-03,株式会社Ｕ＆Ｍ,,株式会社,東京都,品川区,旗の台５丁目１１番７号,,13,109,1420064,,,,,,,2023-08-03,1,,,,,ユーアンドエム,0
885,4010703006801,新規,0,2023-08-03,2023-08-03,合同会社Ｊａｃｋ,,合同会社,東京都,品川区,中延２丁目１１番７号,,13,109,1420053,,,,,,,2023-08-03,1,,,,,ジャック,0
886,4010801034209,新規,0,2023-08-03,2023-08-03,株式会社ＲＥＳＴＯＲＥ　ＷＯＲＫＳ,,株式会社,東京都,大田区,西糀谷４丁目２３番９号増田店舗１０１,,13,111,1440034,,,,,,,2023-08-03,1,,,,,レストアワークス,0
895,4011001155761,新規,0,2023-08-03,2023-08-03,株式会社メガネ丸,,株式会社,東京都,目黒区,上目黒３丁目８番１４号リバフィ中目黒２０２号室,,13,110,1530051,,,,,,,2023-08-03,1,,,,,メガネマル,0
896,4011003017274,新規,0,2023-08-03,2023-08-03,亀井商店合同会社,,合同会社,東京都,渋谷区,道玄坂１丁目１０番８号渋谷道玄坂東急ビル２Ｆ－Ｃ,,13,113,1500043,,,,,,,2023-08-03,1,,,,,カメイショウテン,0
897,4011003017282,新規,0,2023-08-03,2023-08-03,ＳＫ‐Ｇ　Ｈｏｌｄｉｎｇｓ合同会社,,合同会社,東京都,渋谷区,広尾２丁目９番１５号,,13,113,1500012,,,,,,,2023-08-03,1,,,,,エスケージーホールディングス,0
898,4011003017308,新規,0,2023-08-03,2023-08-03,ブラックウォールナット合同会社,,合同会社,東京都,渋谷区,道玄坂１丁目１０番８号渋谷道玄坂東急ビル２Ｆ－Ｃ,,13,113,1500043,,,,,,,2023-08-03,1,,,,,ブラックウォールナット,0
915,4011503005704,新規,0,2023-08-03,2023-08-03,合同会社医食同源,,合同会社,東京都,北区,赤羽２丁目２８番１号,,13,117,1150045,,,,,,,2023-08-03,1,,,,,イショクドウゲン,0
916,4011601027022,新規,0,2023-08-03,2023-08-03,株式会社Ｓｏｆｔｗａｒｅ　ＧｅＮｉｅ,,株式会社,東京都,練馬区,田柄２丁目１番１７号コーポインシャルムＩＩ１０５,00131382,13,120,1790073,,,,,,,2023-08-03,1,,,,,ソフトウェアジーニー,0
917,4011701026477,新規,0,2023-08-03,2023-08-03,Ｍ’ｓ工房株式会社,,株式会社,東京都,江戸川区,松島２丁目３９－１０サンケイビル２０２,,13,123,1320031,,,,,,,2023-08-03,1,,,,,エムズコウボウ,0
929,4012803003141,新規,0,2023-08-03,2023-08-03,エールマーケティング合同会社,,合同会社,東京都,東大和市,桜が丘２丁目２２８－１－９０２,,13,220,2070022,,,,,,,2023-08-03,1,,,,,エールマーケティング,0
938,4020001152743,新規,0,2023-08-03,2023-08-03,ＢＲトランスファー株式会社,,株式会社,神奈川県,横浜市西区,北幸２丁目１０－２８むつみビル３Ｆ,,14,103,2200004,,,,,,,2023-08-03,1,,,,,ビーアールトランスファー,0
939,4020001152776,新規,0,2023-08-03,2023-08-03,株式会社ｃｏｄｉｅ’ｓ,,株式会社,神奈川県,横浜市中区,新山下１丁目５番７号,,14,104,2310801,,,,,,,2023-08-03,1,,,,,コディーズ,0
949,4021003013388,新規,0,2023-08-03,2023-08-03,合同会社Ｃｒｕｍｂ‐クラム,,合同会社,神奈川県,藤沢市,辻堂元町２丁目６‐３２‐１３,,14,205,2510043,,,,,,,2023-08-03,1,,,,,クラム,0
984,4080001025761,新規,0,2023-08-03,2023-08-03,株式会社桜エステート,,株式会社,静岡県,藤枝市,高柳２１６２番地の１,,22,214,4260041,,,,,,,2023-08-03,1,,,,,サクラエステート,0
986,4080101024143,新規,0,2023-08-03,2023-08-03,株式会社デザインメモラブル,,株式会社,静岡県,富士市,大淵２８９２番地の２の２,,22,210,4170801,,,,,,,2023-08-03,1,,,,,デザインメモラブル,0
988,4080401026632,新規,0,2023-08-03,2023-08-03,株式会社ふぉーぴーす,,株式会社,静岡県,掛川市,大坂６８２７番地の４,,22,213,4371421,,,,,,,2023-08-03,1,,,,,フォーピース,0
991,4080403004842,新規,0,2023-08-03,2023-08-03,合同会社ＫＯＳ,,合同会社,静岡県,御前崎市,御前崎３３番地の１,,22,223,4371621,,,,,,,2023-08-03,1,,,,,ケーオーエス,0
992,4080405007562,新規,0,2023-08-03,2023-08-03,一般社団法人磐田社会福祉協力会,,その他の設立登記法人,静岡県,磐田市,二之宮東１０番地４,,22,211,4380073,,,,,,,2023-08-03,1,,,,,イワタシャカイフクシキョウリョクカイ,0
996,4110001037737,新規,0,2023-08-03,2023-08-03,株式会社ＩＱＦコンサルティング,,株式会社,新潟県,新発田市,中曽根町２丁目１２番１１号ＦｌｏｒｅｎｃｅＳａｉｔｏＡ,,15,206,9570067,,,,,,,2023-08-03,1,,,,,アイキューエフコンサルティング,0
1003,4120001256939,新規,0,2023-08-03,2023-08-03,株式会社ＣＳＲ　ＪＡＰＡＮ,,株式会社,大阪府,大阪市淀川区,西中島６丁目２－３チサンマンション第７新大阪５１０号室,,27,123,5320011,,,,,,,2023-08-03,1,,,,,シーエスアールジャパン,0
1004,4120001256971,新規,0,2023-08-03,2023-08-03,瑞和株式会社,,株式会社,大阪府,大阪市生野区,巽北１丁目１番１号２Ｆ－Ｃ,00131388,27,116,5440004,,,,,,,2023-08-03,1,,,,,ズイカ,0
1005,4120001256988,新規,0,2023-08-03,2023-08-03,ＳＳＴジャパン株式会社,,株式会社,大阪府,枚方市,星丘２丁目３番６号,,27,210,5730013,,,,,,,2023-08-03,1,,,,,エスエスティジャパン,0
1006,4120001257029,新規,0,2023-08-03,2023-08-03,株式会社クリエイション,,株式会社,大阪府,大阪市淀川区,宮原１丁目１５番１８－１３０３号,,27,123,5320003,,,,,,,2023-08-03,1,,,,,クリエイション,0
1007,4120001257061,新規,0,2023-08-03,2023-08-03,株式会社タイキ,,株式会社,大阪府,寝屋川市,高宮栄町１７番３－２０１号,,27,215,5720846,,,,,,,2023-08-03,1,,,,,タイキ,0
1010,4120003024591,新規,0,2023-08-03,2023-08-03,デコポン２合同会社,,合同会社,大阪府,大阪市住之江区,西加賀屋４丁目７番１６号岩崎ビル１Ｆ,,27,125,5590016,,,,,,,2023-08-03,1,,,,,デコポンズ,0
1011,4120003024617,新規,0,2023-08-03,2023-08-03,合同会社吉福,,合同会社,大阪府,大阪市住吉区,長居西３丁目６－２７長居ハイツ３Ａ,,27,120,5580002,,,,,,,2023-08-03,1,,,,,ヨシフク,0
1012,4120003024633,新規,0,2023-08-03,2023-08-03,合同会社典隆庵,,合同会社,大阪府,大阪市北区,梅田１丁目１－３大阪駅前第３ビル２９階１－１－１号室,,27,127,5300001,,,,,,,2023-08-03,1,,,,,テンリュウアン,0
1022,4120901047875,新規,0,2023-08-03,2023-08-03,キタノフードサービス株式会社,,株式会社,大阪府,摂津市,正雀本町１丁目２４番８号,,27,224,5660024,,,,,,,2023-08-03,1,,,,,キタノフードサービス,0
1024,4122001037229,新規,0,2023-08-03,2023-08-03,株式会社フラットスタイル不動産,,株式会社,大阪府,東大阪市,岩田町６丁目１番１９号,,27,227,5780941,,,,,,,2023-08-03,1,,,,,フラットスタイルフドウサン,0
1027,4130001074852,新規,0,2023-08-03,2023-08-03,株式会社真刀,,株式会社,京都府,京都市東山区,轆轤町１０８番地６,,26,105,6050813,,,,,,,2023-08-03,1,,,,,シントウ,0
1028,4130001074885,新規,0,2023-08-03,2023-08-03,ＱＵＡＮＴＵＭ　ＡＮＤ　ＡＳＳＯＣＩＡＴＥＳ株式会社,,株式会社,京都府,京都市下京区,東洞院仏光寺下ル高橋町６１３番地４（３０３）,,26,106,6000000,,,,,,,2023-08-03,1,,,,,クワンタムアンドアソシエイツ,0
1029,4130001074893,新規,0,2023-08-03,2023-08-03,株式会社鳥井金網工芸,,株式会社,京都府,京都市下京区,高辻通柳馬場西入泉正寺町４５２番地,00131381,26,106,6008076,,,,,,,2023-08-03,1,,,,,トリイカナアミコウゲイ,0
1034,4140001131033,新規,0,2023-08-03,2023-08-03,Ｋ＆Ｋアセットマネジメント株式会社,,株式会社,兵庫県,西宮市,甲子園二番町２番４４号,,28,204,6638172,,,,,,,2023-08-03,1,,,,,ケーアンドケーアセットマネジメント,0
1035,4140001131058,新規,0,2023-08-03,2023-08-03,株式会社ＡＺＵＭＩ,,株式会社,兵庫県,朝来市,和田山町桑原７０７番地,,28,225,6695214,,,,,,,2023-08-03,1,,,,,アズミ,0
1050,4180001157413,新規,0,2023-08-03,2023-08-03,株式会社ｌｉｔ．,,株式会社,愛知県,名古屋市千種区,東山通４丁目１番地の１,,23,101,4640807,,,,,,,2023-08-03,1,,,,,リット,0
1054,4180003025568,新規,0,2023-08-03,2023-08-03,合同会社晃成,,合同会社,愛知県,名古屋市緑区,作の山町１０５番地,,23,114,4580038,,,,,,,2023-08-03,1,,,,,コウセイ,0
1060,4190003004397,新規,0,2023-08-03,2023-08-03,ＲＥＢＯＲＮ合同会社,,合同会社,三重県,伊勢市,小俣町湯田７１番地,,24,203,5190506,,,,,,,2023-08-03,1,,,,,リボーン,0
1062,4200001041548,新規,0,2023-08-03,2023-08-03,株式会社ホープ,,株式会社,岐阜県,大垣市,羽衣町７丁目１番地３２,,21,202,5030861,,,,,,,2023-08-03,1,,,,,ホープ,0
1063,4200001041564,新規,0,2023-08-03,2023-08-03,株式会社アークス,,株式会社,岐阜県,可児市,今渡１６１９番地４４０,,21,214,5090207,,,,,,,2023-08-03,1,,,,,アークス,0
1068,4230001019938,新規,0,2023-08-03,2023-08-03,株式会社たけ也,,株式会社,富山県,高岡市,姫野６４５番地５,,16,202,9340093,,,,,,,2023-08-03,1,,,,,タケナリ,0
1071,4230003002058,新規,0,2023-08-03,2023-08-03,田中尚希事務所合同会社,,合同会社,富山県,富山市,宝町２丁目２－１,,16,201,9300007,,,,,,,2023-08-03,1,,,,,タナカナオキジムショ,0
1088,4260001038159,新規,0,2023-08-03,2023-08-03,株式会社ヴァーブ,,株式会社,岡山県,岡山市北区,新屋敷町３丁目４番６号,,33,101,7000986,,,,,,,2023-08-03,1,,,,,ヴァーブ,0
1090,4260003004381,新規,0,2023-08-03,2023-08-03,合同会社絆昇,,合同会社,岡山県,岡山市北区,伊島町２丁目２０－２６エクセレント津島２Ｆ,,33,101,7000016,,,,,,,2023-08-03,1,,,,,キショウ,0
1091,4260005011260,新規,0,2023-08-03,2023-08-03,一般社団法人Ｏｗｌ,,その他の設立登記法人,岡山県,岡山市北区,吉備津４１７,,33,101,7011341,,,,,,,2023-08-03,1,,,,,,0
1092,4270001008821,新規,0,2023-08-03,2023-08-03,株式会社デパール,,株式会社,鳥取県,鳥取市,若葉台北４丁目６番１号,,31,201,6891111,,,,,,,2023-08-03,1,,,,,デパール,0
1101,4290001102457,新規,0,2023-08-03,2023-08-03,株式会社オート福岡,,株式会社,福岡県,福岡市城南区,長尾１丁目７番２３号,,40,136,8140123,,,,,,,2023-08-03,1,,,,,オートフクオカ,0
1102,4290001102465,新規,0,2023-08-03,2023-08-03,株式会社おーちかｍａｐ,,株式会社,福岡県,福岡市中央区,長浜３丁目１－１６－８０１,,40,133,8100072,,,,,,,2023-08-03,1,,,,,オーチカマップ,0
1108,4290801029750,新規,0,2023-08-03,2023-08-03,株式会社エヌペット,,株式会社,福岡県,北九州市小倉北区,高坊２丁目１２番６号島名第六ビル１０５号,,40,106,8020053,,,,,,,2023-08-03,1,,,,,エヌペット,0
1112,4310001018543,新規,0,2023-08-03,2023-08-03,株式会社ＫＩＬ,,株式会社,長崎県,長崎市,三原２丁目２６番１１号,,42,201,8528123,,,,,,,2023-08-03,1,,,,,ケイアイエル,0
1114,4310005008697,新規,0,2023-08-03,2023-08-03,税理士法人ＴＡＧ会計事務所,,その他の設立登記法人,長崎県,佐世保市,大岳台町１番１３号,,42,202,8571163,,,,,,,2023-08-03,1,,,,,ティーエージーカイケイジムショ,0
1115,4320001019920,新規,0,2023-08-03,2023-08-03,株式会社アールツリー,,株式会社,大分県,大分市,大字松岡８２２０番地の１２,,44,201,8700125,,,,,,,2023-08-03,1,,,,,アールツリー,0
1116,4330001031098,新規,0,2023-08-03,2023-08-03,アーキエステート株式会社,,株式会社,熊本県,熊本市東区,西原２丁目３５番３３号,,43,102,8618029,,,,,,,2023-08-03,1,,,,,アーキエステート,0
1119,4340005009635,新規,0,2023-08-03,2023-08-03,特定非営利活動法人古江わくわくまちおこし,,その他の設立登記法人,鹿児島県,鹿屋市,古江町７４４４番地,,46,203,8912321,,,,,,,2023-08-03,1,,,,,フルエワクワクマチオコシ,0
1124,4380001033882,新規,0,2023-08-03,2023-08-03,株式会社コーポコヤナギ,,株式会社,福島県,郡山市,日和田町字南原２番地,,07,203,9630534,,,,,,,2023-08-03,1,,,,,コーポコヤナギ,0
1136,4430001089498,新規,0,2023-08-03,2023-08-03,株式会社ＭＩＲＡＩ　ＰＬＵＳ,,株式会社,北海道,岩内郡岩内町,字大浜６５番地７,,01,402,0450001,,,,,,,2023-08-03,1,,,,,ミライプラス,0
1137,4450005004377,新規,0,2023-08-03,2023-08-03,社会保険労務士法人Ｋオフィス,,その他の設立登記法人,北海道,富良野市,瑞穂町１番４６号,,01,229,0760056,,,,,,,2023-08-03,1,,,,,ケイオフィス,0
1144,4500001025090,新規,0,2023-08-03,2023-08-03,株式会社公栄,,株式会社,愛媛県,今治市,伯方町北浦甲４８３番地,,38,202,7942304,,,,,,,2023-08-03,1,,,,,コウエイ,0
1145,4500001025099,新規,0,2023-08-03,2023-08-03,株式会社ｕｎｉ,,株式会社,愛媛県,新居浜市,泉池町７番１７号,,38,205,7920013,,,,,,,2023-08-03,1,,,,,ユニ,0
1149,4700150118039,新規,0,2023-08-03,2023-08-03,ＳＨＥＮ　ＺＨＥＮ　ＳＨＩ　ＹＯＮＧ　ＮＵＯ　ＪＩＮ　ＫＥ　ＪＩ　ＹＯＵ　ＸＩＡＮ　ＧＯＮＧ　ＳＩ,,外国会社等,,,,,,,,ＬＯＮＧＪＵＮ　ＧＯＮＧＹＥＱＵ　ＤＩ　９　ＤＯＮＧ　ＤＩ　５　ＣＥＮＧ　ＤＯＮＧ　ＢＩＡＮ　ＬＯＮＧＨＵＡ　ＸＩＮＱＵ　ＤＡＬＡＮＧＪＩＥＤＡＯ　ＨＥＰＩＮＧ　ＸＩ　ＬＵ　ＢＵＪＩＵＷＯ　ＳＨＥＮＺＨＥＮ　ＳＨＩ,,,,,,2023-08-03,1,,,,,シンセンシナガダクキンカギユウゲンコウシ,0
1150,4700150118253,新規,0,2023-08-03,2023-08-03,Ｅｌｉｔｅｃｈ（ＵＫ）Ｌｉｍｉｔｅｄ,,外国会社等,,,,,,,,Ｕｎｉｔ　１３　Ｇｒｅｅｎｗｉｃｈ　Ｃｅｎｔｒｅ　Ｂｕｓｉｎｅｓｓ　Ｐａｒｋ，５３　Ｎｏｒｍａｎ　Ｒｏａｄ，Ｌｏｎｄｏｎ，Ｇｒｅａｔｅｒ　Ｌｏｎｄｏｎ，Ｕｎｉｔｅｄ　Ｋｉｎｇｄｏｍ，ＳＥ１０　９ＱＦ,,,,,,2023-08-03,1,,,,,イーライタクユケイリミテッド,0
1151,4700150118740,新規,0,2023-08-03,2023-08-03,ｆｕ　ｑｉｎｇ　ｓｈｉ　ｊｕｎ　ｍｅｎｇ　ｋｅ　ｊｉ　ｙｏｕ　ｘｉａｎ　ｇｏｎｇ　ｓｉ,,外国会社等,,,,,,,,Ｆｕｊｉａｎ　Ｆｕｚｈｏｕ　Ｎｏ．１８７，Ｄｏｎｇｘｉａｏ，Ｚｈａｎｇｃｕｏ　Ｖｉｌｌａｇｅ，Ｊｉａｎｇｊｉｎｇ　Ｔｏｗｎ,,,,,,2023-08-03,1,,,,,フクセイシシュンムカギユウゲンコウシ,0
1152,4700150118749,新規,0,2023-08-03,2023-08-03,ＳＨＥＮＺＨＥＮＳＨＩＷＥＩＲＵＩＪＩＮＧＫＥ　ＤＩＡＮＺＩＹＯＵＸＩＡＮＧＯＮＧＳＩ,,外国会社等,,,,,,,,１００１，１２０１，Ｂｕｉｌｄｉｎｇ　３８，Ｘｉａｌａｎｇ　Ｉｎｄｕｓｔｒｉａｌ　Ｚｏｎｅ，Ｈｅｓｈｕｉｋｏｕ　Ｃｏｍｍｕｎｉｔｙ，Ｍａｔｉａｎ　Ｓｔｒｅｅｔ，Ｇｕａｎｇｍｉｎｇ　Ｄｉｓｔｒｉｃｔ，Ｓｈｅｎｚｈｅｎ,,,,,,2023-08-03,1,,,,,シェンジェンシーウェイルイジンコーディエンズーヨウシエンゴンスー,0
1153,4700150118757,新規,0,2023-08-03,2023-08-03,上海正光貿易有限公司,00131363,外国会社等,,,,,,,,中国上海市奉賢区奉浦大道９９号７０３室,00131364,,,,,2023-08-03,1,,,,,シャンハイセイコウボウエキユウゲンコウシ,0
1157,5010001237354,新規,0,2023-08-03,2023-08-03,株式会社かりんこ生活,,株式会社,東京都,文京区,後楽２丁目１６番１０－３０３号,,13,105,1120004,,,,,,,2023-08-03,1,,,,,カリンコセイカツ,0
1158,5010001237404,新規,0,2023-08-03,2023-08-03,株式会社グリートリンク,,株式会社,東京都,千代田区,神田佐久間町１丁目８番４号アルテール秋葉原７０８,,13,101,1010025,,,,,,,2023-08-03,1,,,,,グリートリンク,0
1162,5010003041250,新規,0,2023-08-03,2023-08-03,合同会社プロステージ,,合同会社,東京都,中央区,日本橋室町１丁目１１番１２号日本橋水野ビル７階,,13,102,1030022,,,,,,,2023-08-03,1,,,,,プロステージ,0
1163,5010003041267,新規,0,2023-08-03,2023-08-03,ＣＥＳ中部５太陽光発電所合同会社,,合同会社,東京都,千代田区,丸の内１丁目８番２号鉄鋼ビルディング４階,,13,101,1000005,,,,,,,2023-08-03,1,,,,,シーイーエスチュウブファイブタイヨウコウハツデンショ,0
1164,5010003041275,新規,0,2023-08-03,2023-08-03,合同会社八鹿堂,,合同会社,東京都,中央区,銀座１丁目２２番１１号２Ｆ,,13,102,1040061,,,,,,,2023-08-03,1,,,,,ハッカドウ,0
1180,5010601063522,新規,0,2023-08-03,2023-08-03,株式会社アルマット,,株式会社,東京都,江東区,越中島１丁目３－１２－５０６,,13,108,1350044,,,,,,,2023-08-03,1,,,,,アルマット,0
1181,5010601063547,新規,0,2023-08-03,2023-08-03,株式会社墨田ＦＥＥＬ,,株式会社,東京都,墨田区,吾妻橋２丁目３番１２号大瀬プラザステーションビル８０１,,13,107,1300001,,,,,,,2023-08-03,1,,,,,スミダフィール,0
1183,5010603010282,新規,0,2023-08-03,2023-08-03,合同会社Ｐｕｅｎｔｅ,,合同会社,東京都,江東区,千石２丁目８番１２号,,13,108,1350015,,,,,,,2023-08-03,1,,,,,プエンテ,0
1195,5011001156032,新規,0,2023-08-03,2023-08-03,株式会社ＧＯ‐ＮＯＷ．,,株式会社,東京都,渋谷区,神宮前６丁目２３番４号桑野ビル２階,,13,113,1500001,,,,,,,2023-08-03,1,,,,,ゴーナウ,0
1196,5011001156040,新規,0,2023-08-03,2023-08-03,株式会社ティニダンゴ,,株式会社,東京都,渋谷区,代々木１丁目１８番１２－１Ｆ,,13,113,1510053,,,,,,,2023-08-03,1,,,,,ティニダンゴ,0
1197,5011005010160,新規,0,2023-08-03,2023-08-03,一般社団法人ＧＲＡＮＤ　ＴＯＵＲＩＳＭ　ＯＲＧＡＮＩＺＡＴＩＯＮ,,その他の設立登記法人,東京都,渋谷区,上原３丁目７番１１号,,13,113,1510064,,,,,,,2023-08-03,1,,,,,グランドツーリズムオーガニゼイション,0
1198,5011101015146,新規,0,2023-08-03,2023-08-03,東京フェリックス株式会社,,株式会社,東京都,新宿区,西新宿７丁目１０番１７号,,13,104,1600023,,,,,,,2023-08-03,1,,,,,トウキョウフェリックス,0
1209,5011401025324,新規,0,2023-08-03,2023-08-03,株式会社ＴｏｄａｙＦｕｌ,,株式会社,東京都,板橋区,徳丸２丁目２９－２カーサワタナベ２０３,,13,119,1750083,,,,,,,2023-08-03,1,,,,,,0
1210,5011401025332,新規,0,2023-08-03,2023-08-03,株式会社Ｐａｎｄｏｒａ,,株式会社,東京都,板橋区,常盤台２丁目５番４号Ｖａｌｉａｎｔビル２Ｆ,,13,119,1740071,,,,,,,2023-08-03,1,,,,,パンドラ,0
1211,5011401025340,新規,0,2023-08-03,2023-08-03,株式会社ＲＥＩＮＡ,,株式会社,東京都,板橋区,中台３丁目２７サンシティＡ棟１００８号,,13,119,1740064,,,,,,,2023-08-03,1,,,,,レイナ,0
1217,5011705001789,新規,0,2023-08-03,2023-08-03,一般社団法人ウィステイリアサポート協会,,その他の設立登記法人,東京都,江戸川区,北小岩６丁目２５番６号２０３号室,,13,123,1330051,,,,,,,2023-08-03,1,,,,,ウィステリアサポートキョウカイ,0
1219,5012301013542,新規,0,2023-08-03,2023-08-03,株式会社Ｏｆｆｉｃｅエーエムアイ,,株式会社,東京都,町田市,根岸１丁目１３番地８,,13,209,1940038,,,,,,,2023-08-03,1,,,,,オフィスエーエムアイ,0
1221,5012701017779,新規,0,2023-08-03,2023-08-03,株式会社輝水,,株式会社,東京都,西東京市,下保谷５丁目１番９号みどり野ハイツ１０１号,,13,229,2020004,,,,,,,2023-08-03,1,,,,,コウスイ,0
1222,5012801022547,新規,0,2023-08-03,2023-08-03,株式会社佐々木工業,,株式会社,東京都,武蔵村山市,中原３丁目２５番地の１８,,13,223,2080035,,,,,,,2023-08-03,1,,,,,ササキコウギョウ,0
1239,5020001152742,新規,0,2023-08-03,2023-08-03,株式会社ＫＯＫＯＭＡＭＥ,,株式会社,神奈川県,横浜市都筑区,中川中央１丁目２１－３－２０１,,14,118,2240003,,,,,,,2023-08-03,1,,,,,ココマメ,0
1241,5021001079711,新規,0,2023-08-03,2023-08-03,Ｍａｔｒｉｘ　Ｔｅｃｈ株式会社,,株式会社,神奈川県,平塚市,小鍋島２５１５番地,,14,203,2540004,,,,,,,2023-08-03,1,,,,,マトリツクステツク,0
1242,5021001079769,新規,0,2023-08-03,2023-08-03,株式会社Ａｕｇｍｅｎｔ,,株式会社,神奈川県,藤沢市,片瀬２丁目２－２８レガシープレイス片瀬３０７,,14,205,2510032,,,,,,,2023-08-03,1,,,,,オーグメント,0
1253,5030003022216,新規,0,2023-08-03,2023-08-03,Ｊａｐａｎ　Ｅｘｐｅｒｉｅｎｃｅｓ　ａｎｄ　Ｔｏｕｒｓ合同会社,,合同会社,埼玉県,さいたま市大宮区,吉敷町３丁目１４４番地１－３０１,,11,103,3300843,,,,,,,2023-08-03,1,,,,,ジャパンエクスペリエンスアンドツアーズ,0
1261,5040003023048,新規,0,2023-08-03,2023-08-03,合同会社サミージャパン,,合同会社,千葉県,千葉市若葉区,旦谷町４３５番地１,,12,104,2650071,,,,,,,2023-08-03,1,,,,,サミージャパン,0
1275,5070001040711,新規,0,2023-08-03,2023-08-03,株式会社ライトアップ,,株式会社,群馬県,桐生市,広沢町６丁目２５６番地１,,10,203,3760013,,,,,,,2023-08-03,1,,,,,ライトアップ,0
1276,5080001025777,新規,0,2023-08-03,2023-08-03,株式会社ＡＯＫＩ　ＥＮＴＥＲＰＲＩＳＥ,,株式会社,静岡県,静岡市葵区,栄町４番地の８スルガ栄町ビル３０７,,22,101,4200859,,,,,,,2023-08-03,1,,,,,アオキエンタープライズ,0
1283,5100005013049,新規,0,2023-08-03,2023-08-03,特定非営利活動法人すがかわ暮らし応援隊,,その他の設立登記法人,長野県,下高井郡山ノ内町,大字夜間瀬８５７９番地１,,20,561,3810405,,,,,,,2023-08-03,1,,,,,スガカワクラシオウエンタイ,0
1285,5110001037728,新規,0,2023-08-03,2023-08-03,株式会社ヤマザキ,,株式会社,新潟県,新潟市江南区,亀田新明町５丁目１番１１号,,15,104,9500125,,,,,,,2023-08-03,1,,,,,ヤマザキ,0
1286,5120001045606,新規,0,2023-08-03,2023-08-03,デイジタルコントロールズ株式会社,,株式会社,大阪府,大阪市西区,北堀江１丁目５番２号,,27,106,5500014,,,,,,,2023-08-03,1,,,,,デジタルコントロールズ,0
1293,5120001256954,新規,0,2023-08-03,2023-08-03,ＮＣＡＭ株式会社,,株式会社,大阪府,大阪市浪速区,恵美須西１丁目４－２３住吉ビル３１１号室,,27,111,5560003,,,,,,,2023-08-03,1,,,,,エヌカム,0
1294,5120001256987,新規,0,2023-08-03,2023-08-03,株式会社フルスペック,,株式会社,大阪府,寝屋川市,緑町１９番８号,,27,215,5720022,,,,,,,2023-08-03,1,,,,,フルスペック,0
1302,5120005023797,新規,0,2023-08-03,2023-08-03,医療法人恵永会,,その他の設立登記法人,大阪府,大阪市城東区,今福西１丁目９番３号メディカルアベニュー城東２階３階,,27,118,5360004,,,,,,,2023-08-03,1,,,,,ケイエイカイ,0
1303,5120103005359,新規,0,2023-08-03,2023-08-03,合同会社いつくむ,,合同会社,大阪府,富田林市,廿山１丁目８番４１号,,27,214,5840081,,,,,,,2023-08-03,1,,,,,イツクム,0
1306,5120901047874,新規,0,2023-08-03,2023-08-03,株式会社ドリームインド,,株式会社,大阪府,吹田市,江坂町１丁目１４番２０号グランドステージ江坂７０２号室,,27,205,5640063,,,,,,,2023-08-03,1,,,,,ドリームインド,0
1307,5122001037228,新規,0,2023-08-03,2023-08-03,ホンゴ株式会社,,株式会社,大阪府,東大阪市,高井田西６丁目３番６号１階,,27,227,5770067,,,,,,,2023-08-03,1,,,,,ホンゴ,0
1308,5122001037236,新規,0,2023-08-03,2023-08-03,株式会社ＣＡＲＯＮＥ,,株式会社,大阪府,八尾市,太田新町９丁目８５－２,,27,212,5810039,,,,,,,2023-08-03,1,,,,,カロネ,0
1311,5130001074851,新規,0,2023-08-03,2023-08-03,株式会社善佐コーポレーション,,株式会社,京都府,京都市南区,壬生通八条下る東寺町５２６番地２,,26,107,6018478,,,,,,,2023-08-03,1,,,,,ゼンサコーポレーション,0
1316,5140001131131,新規,0,2023-08-03,2023-08-03,株式会社ＹＯＳＨＩＤＡ　ＦＡＲＭ,,株式会社,兵庫県,多可郡多可町,加美区寺内３９２番地,,28,365,6791211,,,,,,,2023-08-03,1,,,,,ヨシダファーム,0
1317,5140003019374,新規,0,2023-08-03,2023-08-03,合同会社ホーム・ワン,,合同会社,兵庫県,神戸市灘区,大石東町１丁目４番１８－１号,,28,102,6570043,,,,,,,2023-08-03,1,,,,,ホームワン,0
1320,5150003003022,新規,0,2023-08-03,2023-08-03,合同会社Ｃ’ｓ　Ｖａｌｕｅ,,合同会社,奈良県,橿原市,白橿町２丁目４番１１号,,29,205,6340051,,,,,,,2023-08-03,1,,,,,シーズバリュー,0
1331,5180005020310,新規,0,2023-08-03,2023-08-03,特定非営利活動法人チェリッシュ,,その他の設立登記法人,愛知県,名古屋市中区,千代田２丁目７番２８号,,23,106,4600012,,,,,,,2023-08-03,1,,,,,チェリッシュ,0
1339,5190001030626,新規,0,2023-08-03,2023-08-03,株式会社辻岡左官店,,株式会社,三重県,鈴鹿市,稲生塩屋２丁目１８番２６号,,24,207,5100207,,,,,,,2023-08-03,1,,,,,ツジオカサカンテン,0
1340,5200001041547,新規,0,2023-08-03,2023-08-03,株式会社鳶木村工業,,株式会社,岐阜県,各務原市,蘇原沢上町４丁目４番地１４,,21,213,5040827,,,,,,,2023-08-03,1,,,,,トビキムラコウギョウ,0
1349,5230003002057,新規,0,2023-08-03,2023-08-03,合同会社ワイト,,合同会社,富山県,黒部市,植木４９４番地５,,16,207,9380014,,,,,,,2023-08-03,1,,,,,ワイト,0
1354,5250001020224,新規,0,2023-08-03,2023-08-03,株式会社イートック,,株式会社,山口県,宇部市,大字木田５０３番地,,35,202,7590136,,,,,,,2023-08-03,1,,,,,イートック,0
1367,5290001102448,新規,0,2023-08-03,2023-08-03,Ａ‐Ｇｒｅｅｄ株式会社,,株式会社,福岡県,福岡市東区,香椎２丁目８番４－３号ＲｅｇａｌｅｓｔＡｙａ香椎１０３号,,40,131,8130011,,,,,,,2023-08-03,1,,,,,エーグリード,0
1368,5290001102456,新規,0,2023-08-03,2023-08-03,株式会社まえばる不動産,,株式会社,福岡県,糸島市,前原中央２丁目６番１８号,,40,230,8191116,,,,,,,2023-08-03,1,,,,,マエバルフドウサン,0
1369,5290001102497,新規,0,2023-08-03,2023-08-03,株式会社ゆめ看護,,株式会社,福岡県,福岡市中央区,草香江２丁目１１番１－６０１号,,40,133,8100045,,,,,,,2023-08-03,1,,,,,ユメカンゴ,0
1378,5300001013412,新規,0,2023-08-03,2023-08-03,株式会社野田商店,,株式会社,佐賀県,小城市,三日月町金田１１３３番地４,,41,208,8450032,,,,,,,2023-08-03,1,,,,,ノダショウテン,0
1381,5310001018534,新規,0,2023-08-03,2023-08-03,株式会社西旺興産,,株式会社,長崎県,佐世保市,祇園町２番５号,,42,202,8570801,,,,,,,2023-08-03,1,,,,,セイオウコウサン,0
1393,5360001032357,新規,0,2023-08-03,2023-08-03,軒轅株式会社,,株式会社,沖縄県,うるま市,字具志川２９９５番地２,,47,213,9042223,,,,,,,2023-08-03,1,,,,,ケンエン,0
1398,5390001017330,新規,0,2023-08-03,2023-08-03,株式会社片桐ニット,,株式会社,山形県,西村山郡大江町,大字左沢１００３番地の１,,06,324,9901101,,,,,,,2023-08-03,1,,,,,カタギリニット,0
1401,5400001016330,新規,0,2023-08-03,2023-08-03,株式会社テル設備,,株式会社,岩手県,北上市,堤ケ丘１丁目８番３３号,,03,206,0240011,,,,,,,2023-08-03,1,,,,,テルセツビ,0
1411,5430001089662,新規,0,2023-08-03,2023-08-03,ｈｙｕｕｉ株式会社,,株式会社,北海道,札幌市白石区,平和通１６丁目北８番３０号,,01,104,0030029,,,,,,,2023-08-03,1,,,,,ヒューイ,0
1412,5430001089670,新規,0,2023-08-03,2023-08-03,株式会社北翔,,株式会社,北海道,札幌市豊平区,西岡二条８丁目６－２６,,01,105,0620032,,,,,,,2023-08-03,1,,,,,ホクショウ,0
1413,5430001089679,新規,0,2023-08-03,2023-08-03,栗山旭台管財株式会社,,株式会社,北海道,夕張郡栗山町,字旭台１番地１５,,01,429,0691507,,,,,,,2023-08-03,1,,,,,クリヤマアサヒダイカンザイ,0
1419,5450003002365,新規,0,2023-08-03,2023-08-03,合同会社ネクストケア,,合同会社,北海道,深川市,八条２０番５２号,,01,228,0740008,,,,,,,2023-08-03,1,,,,,,0
1422,5490001010548,新規,0,2023-08-03,2023-08-03,株式会社サンユー,,株式会社,高知県,高知市,介良乙１６３０番地１,,39,201,7815106,,,,,,,2023-08-03,1,,,,,サンユー,0
1425,5700150117403,新規,0,2023-08-03,2023-08-03,ｓｈｅｎ　ｚｈｅｎ　ｌｉ　ｚｕ　ｓｈｉ　ｄａｉ　ｋｅ　ｊｉ　ｙｏｕ　ｘｉａｎ　ｇｏｎｇ　ｓｉ,,外国会社等,,,,,,,,１９０８Ａ－１，Ｂｕｉｌｄｉｎｇ　２，Ｊｉｎｇｊｉ　Ｙｕｊｉｎｇ　Ｔｉｍｅｓ　Ｂｕｉｌｄｉｎｇ，Ｈｕａｎｇｇｅｋｅｎｇ　Ｃｏｍｍｕｎｉｔｙ，Ｌｏｎｇｃｈｅｎｇ　Ｓｔｒｅｅｔ，Ｌｏｎｇｇａｎｇ　Ｄｉｓｔｒｉｃｔ，Ｓｈｅｎｚｈｅｎ　５１８１００　ＣＮ,,,,,,2023-08-03,1,,,,,シンセンリゾクジダイカギカイシャ,0
1426,5700150118748,新規,0,2023-08-03,2023-08-03,ｓｈａｎｇｈａｉｈｏｎｇｄｕｇｕｏｊｉｍａｏｙｉｙｏｕｘｉａｎｇｏｎｇｓｉ,,外国会社等,,,,,,,,ｈａｉｋｕｎｌｕ１ｈａｏ１ｚｈｕａｎｇ　ｆｅｎｇｘｉａｎｑｕ　ｓｈａｎｇｈａｉｓｈｉ　ＣＮ　２０１４９９,,,,,,2023-08-03,1,,,,,シャンハイホンドウグオジーマオイーヨウシエンゴンスー,0
1427,5700150118756,新規,0,2023-08-03,2023-08-03,Ｏｒａｎｇｅ　Ｖｉｅｗ　Ｌｉｍｉｔｅｄ,,外国会社等,,,,,,,,中国香港九龍長沙湾道７８８号法律商業広場６楼６０３室,,,,,,2023-08-03,1,,,,,オレンジビューリミテッド,0
1435,6010003041258,新規,0,2023-08-03,2023-08-03,ハピドリ合同会社,,合同会社,東京都,中央区,日本橋室町１丁目１１番１２号日本橋水野ビル７階,,13,102,1030022,,,,,,,2023-08-03,1,,,,,ハピドリ,0
1436,6010003041266,新規,0,2023-08-03,2023-08-03,ＣＥＳ中部４太陽光発電所合同会社,,合同会社,東京都,千代田区,丸の内１丁目８番２号鉄鋼ビルディング４階,,13,101,1000005,,,,,,,2023-08-03,1,,,,,シーイーエスチュウブフォータイヨウコウハツデンショ,0
1437,6010003041274,新規,0,2023-08-03,2023-08-03,合同会社ａｎｄ　Ｌｉｎｋ　Ｔｒａｎｓｐｏｒｔ,,合同会社,東京都,中央区,銀座１丁目１２番４号Ｎ＆Ｅビル７階,,13,102,1040061,,,,,,,2023-08-03,1,,,,,アンドリンクトランスポート,0
1439,6010005037031,新規,0,2023-08-03,2023-08-03,Ｒマネジメント一般社団法人,,その他の設立登記法人,東京都,千代田区,九段南３丁目７番７号成和綜合会計事務所内,,13,101,1020074,,,,,,,2023-08-03,1,,,,,アールマネジメント,0
1451,6010601063546,新規,0,2023-08-03,2023-08-03,株式会社ＡＮＹＸ,,株式会社,東京都,墨田区,太平４丁目６番１７－９０３号,,13,107,1300012,,,,,,,2023-08-03,1,,,,,エニクス,0
1455,6010701044660,新規,0,2023-08-03,2023-08-03,株式会社エンジニアフォーカス,,株式会社,東京都,品川区,西五反田１丁目２６番２号五反田サンハイツ２Ｆ,,13,109,1410031,,,,,,,2023-08-03,1,,,,,エンジニアフォーカス,0
1461,6010905004510,新規,0,2023-08-03,2023-08-03,一般社団法人ｔｓｕｎｄｏｋｕ,,その他の設立登記法人,東京都,世田谷区,北烏山１丁目８番６号,,13,112,1570061,,,,,,,2023-08-03,1,,,,,ツンドク,0
1469,6011001156007,新規,0,2023-08-03,2023-08-03,マジリス株式会社,,株式会社,東京都,渋谷区,渋谷２丁目１９番１５号宮益坂ビルディング６０９,,13,113,1500002,,,,,,,2023-08-03,1,,,,,マジリス,0
1470,6011001156072,新規,0,2023-08-03,2023-08-03,Ｍ＆Ａ開発支援株式会社,,株式会社,東京都,渋谷区,広尾１丁目３番１８号広尾オフィスビル３Ｆ,,13,113,1500012,,,,,,,2023-08-03,1,,,,,エムアンドエーカイハツシエン,0
1472,6011003017297,新規,0,2023-08-03,2023-08-03,合同会社ＺＥＫＩＳＯＦＴ,,合同会社,東京都,渋谷区,渋谷２丁目１９－１５宮益坂ビルディング６０９,,13,113,1500002,,,,,,,2023-08-03,1,,,,,ゼキソフト,0
1473,6011003017306,新規,0,2023-08-03,2023-08-03,メドアクト合同会社,,合同会社,東京都,渋谷区,桜丘町２３番１７号シティコート桜丘４０８,,13,113,1500031,,,,,,,2023-08-03,1,,,,,メドアクト,0
1476,6011101103817,新規,0,2023-08-03,2023-08-03,株式会社ＹＥＬＬ　ＭＡＲＫＥＴＩＮＧ　ＳＥＲＶＩＣＥ,,株式会社,東京都,新宿区,新宿５丁目１３番１４号花園ビル１階,,13,104,1600022,,,,,,,2023-08-03,1,,,,,エールマーケティングサービス,0
1484,6011401025323,新規,0,2023-08-03,2023-08-03,株式会社島崎商事,,株式会社,東京都,板橋区,大和町４０番１２号,,13,119,1730012,,,,,,,2023-08-03,1,,,,,シマザキショウジ,0
1486,6011403004069,新規,0,2023-08-03,2023-08-03,合同会社プロパティＯｎｅ,,合同会社,東京都,板橋区,加賀２丁目３番１－４３０号加賀ガーデンハイツ,,13,119,1730003,,,,,,,2023-08-03,1,,,,,,0
1495,6011701026475,新規,0,2023-08-03,2023-08-03,株式会社ハーモニー,,株式会社,東京都,江戸川区,北小岩６丁目１４－６メゾン親和４０２号,,13,123,1330051,,,,,,,2023-08-03,1,,,,,ハーモニー,0
1499,6012301013541,新規,0,2023-08-03,2023-08-03,モリヤ電設株式会社,,株式会社,東京都,町田市,木曽町５１０番地１８,,13,209,1940033,,,,,,,2023-08-03,1,,,,,モリヤデンセツ,0
1503,6012403006096,新規,0,2023-08-03,2023-08-03,合同会社Ｐｉｎｏｒｉｏ,,合同会社,東京都,三鷹市,上連雀７丁目２６番２３‐２０２号,,13,204,1810012,,,,,,,2023-08-03,1,,,,,ピノリオ,0
1504,6012701017778,新規,0,2023-08-03,2023-08-03,株式会社南雲美術,,株式会社,東京都,小平市,栄町３丁目１３番３７号,,13,211,1870034,,,,,,,2023-08-03,1,,,,,ナグモビジュツ,0
1516,6020003024294,新規,0,2023-08-03,2023-08-03,合同会社スリーズドール,,合同会社,神奈川県,横浜市旭区,鶴ケ峰本町２丁目１－３パレドール鶴ヶ峰２１３,,14,112,2410021,,,,,,,2023-08-03,1,,,,,スリーズドール,0
1532,6040001129440,新規,0,2023-08-03,2023-08-03,株式会社ＳｈｏｐＤｒ．ＮｅｗＭｏ,,株式会社,千葉県,茂原市,本納４３１番地９,,12,210,2994114,,,,,,,2023-08-03,1,,,,,ショップドクターニューモ,0
1533,6040001129515,新規,0,2023-08-03,2023-08-03,株式会社ｋａｗａｃｏｙａ,,株式会社,千葉県,市川市,大野町３丁目１９６０番地１２,,12,203,2720805,,,,,,,2023-08-03,1,,,,,カワコヤ,0
1538,6050001053235,新規,0,2023-08-03,2023-08-03,株式会社清水工業,,株式会社,茨城県,鉾田市,半原２１４番地５０,,08,234,3111526,,,,,,,2023-08-03,1,,,,,シミズコウギョウ,0
1543,6060001036214,新規,0,2023-08-03,2023-08-03,株式会社貴心工業,,株式会社,栃木県,鹿沼市,東町３丁目６番３６号,,09,205,3220022,,,,,,,2023-08-03,1,,,,,タカシンコウギョウ,0
1544,6060003004656,新規,0,2023-08-03,2023-08-03,ゆると合同会社,,合同会社,栃木県,宇都宮市,馬場通り３丁目２－９マスキンアネックスビル１階,,09,201,3200026,,,,,,,2023-08-03,1,,,,,ユルト,0
1547,6070001040702,新規,0,2023-08-03,2023-08-03,ＯＲＡＮＧ　ＺＡＩＢ　ＴＲＡＤＩＮＧ株式会社,,株式会社,群馬県,邑楽郡板倉町,大字大高嶋３３４２番地,,10,521,3740122,,,,,,,2023-08-03,1,,,,,オラングゼイブトレーディング,0
1552,6080001025768,新規,0,2023-08-03,2023-08-03,株式会社至誠学院,,株式会社,静岡県,榛原郡吉田町,住吉１７３１番地の５,,22,424,4210301,,,,,,,2023-08-03,1,,,,,シセイガクイン,0
1558,6100001036639,新規,0,2023-08-03,2023-08-03,株式会社ＣＨＯＣＯＬＡＴ,,株式会社,長野県,上田市,小島２４５番地３,,20,203,3861322,,,,,,,2023-08-03,1,,,,,ショコラ,0
1568,6120001256961,新規,0,2023-08-03,2023-08-03,滝野ロジスティクス株式会社,,株式会社,大阪府,大阪市北区,曾根崎２丁目８番５号,,27,127,5300057,,,,,,,2023-08-03,1,,,,,タキノロジスティクス,0
1569,6120001256978,新規,0,2023-08-03,2023-08-03,株式会社ベルコーポレーション,,株式会社,大阪府,大阪市天王寺区,上汐４丁目１番２３号ライフイン上汐,,27,109,5430002,,,,,,,2023-08-03,1,,,,,ベルコーポレーション,0
1574,6120101067978,新規,0,2023-08-03,2023-08-03,株式会社パピエ,,株式会社,大阪府,松原市,天美我堂１丁目７－５０１,,27,217,5800026,,,,,,,2023-08-03,1,,,,,パピエ,0
1575,6120101067986,新規,0,2023-08-03,2023-08-03,株式会社ライズワン,,株式会社,大阪府,貝塚市,三ツ松２２４１番地４,,27,208,5970105,,,,,,,2023-08-03,1,,,,,ライズワン,0
1578,6120901047857,新規,0,2023-08-03,2023-08-03,北材商工株式会社,,株式会社,大阪府,吹田市,垂水町３丁目１８番９号,,27,205,5640062,,,,,,,2023-08-03,1,,,,,ホクザイショウコウ,0
1579,6120901047873,新規,0,2023-08-03,2023-08-03,株式会社ベジ彩ファーム,,株式会社,大阪府,高槻市,大字田能小字スハノ下３１番地の２,,27,207,5691002,,,,,,,2023-08-03,1,,,,,ベジサイファーム,0
1594,6140001131064,新規,0,2023-08-03,2023-08-03,株式会社ＢＶＩホールディングス,,株式会社,兵庫県,尼崎市,杭瀬本町１丁目２３番２号カーサフジイ２Ｆ,,28,202,6600814,,,,,,,2023-08-03,1,,,,,ビーブイアイホールディングス,0
1595,6140001131072,新規,0,2023-08-03,2023-08-03,株式会社ＦＵＪＩＴＡ,,株式会社,兵庫県,神戸市中央区,港島９丁目１１－１,,28,110,6500045,,,,,,,2023-08-03,1,,,,,フジタ,0
1596,6140001131106,新規,0,2023-08-03,2023-08-03,株式会社クルーズ,,株式会社,兵庫県,西宮市,甲陽園東山町１２－３１,,28,204,6620012,,,,,,,2023-08-03,1,,,,,クルーズ,0
1597,6140003019373,新規,0,2023-08-03,2023-08-03,合同会社実務サポート,,合同会社,兵庫県,明石市,林１丁目２番７号,,28,203,6730034,,,,,,,2023-08-03,1,,,,,ジツムサポート,0
1598,6140003019381,新規,0,2023-08-03,2023-08-03,合同会社ネストダイニング,,合同会社,兵庫県,尼崎市,南武庫之荘５丁目１９番３２号,,28,202,6610033,,,,,,,2023-08-03,1,,,,,ネストダイニング,0
1599,6140005026698,新規,0,2023-08-03,2023-08-03,一般社団法人そらにくも社,,その他の設立登記法人,兵庫県,西宮市,市庭町４番１１号,,28,204,6620975,,,,,,,2023-08-03,1,,,,,ソラニクモシャ,0
1600,6150001026593,新規,0,2023-08-03,2023-08-03,株式会社シンコーリノベーション,,株式会社,奈良県,奈良市,石木町３９番地の１,,29,201,6310054,,,,,,,2023-08-03,1,,,,,シンコーリノベーション,0
1602,6170003001907,新規,0,2023-08-03,2023-08-03,合同会社Ａ．クリエイト,,合同会社,和歌山県,和歌山市,西高松１丁目５番４５号,,30,201,6410051,,,,,,,2023-08-03,1,,,,,エークリエイト,0
1613,6180001157279,新規,0,2023-08-03,2023-08-03,株式会社グッドサプライズ,,株式会社,愛知県,名古屋市中区,栄２丁目９番３号,,23,106,4600008,,,,,,,2023-08-03,1,,,,,グッドサプライズ,0
1614,6180001157394,新規,0,2023-08-03,2023-08-03,株式会社ＫＡＮＯ,,株式会社,愛知県,名古屋市中村区,大宮町３丁目３９番地,,23,105,4530821,,,,,,,2023-08-03,1,,,,,カノウ,0
1615,6180001157452,新規,0,2023-08-03,2023-08-03,株式会社ＮＩＮＥＯＮＥ　Ｃｏｓｍｅｄｉ　Ｊａｐａｎ,,株式会社,愛知県,名古屋市中区,錦３丁目５番１５号パークウェストビル５階,,23,106,4600003,,,,,,,2023-08-03,1,,,,,ナインワンコスメディジャパン,0
1630,6200001041562,新規,0,2023-08-03,2023-08-03,株式会社大平縫製,,株式会社,岐阜県,可児郡御嵩町,御嵩１７５２番地１,,21,521,5050116,,,,,,,2023-08-03,1,,,,,オオヒラホウセイ,0
1631,6200003006035,新規,0,2023-08-03,2023-08-03,合同会社キナリネ,,合同会社,岐阜県,岐阜市,鏡島中１丁目９番１号,,21,201,5010124,,,,,,,2023-08-03,1,,,,,キナリネ,0
1635,6230001019944,新規,0,2023-08-03,2023-08-03,ホームコンサル株式会社,,株式会社,富山県,富山市,秋吉１０１－９,,16,201,9300953,,,,,,,2023-08-03,1,,,,,ホームコンサル,0
1643,6240001061895,新規,0,2023-08-03,2023-08-03,株式会社ＪＴＮグループ西日本,,株式会社,広島県,広島市西区,庚午中１丁目２番５０号レジデンス庚午ヒライ２０１号,,34,104,7330822,,,,,,,2023-08-03,1,,,,,ジェイティーエヌグループニシニホン,0
1644,6240001061904,新規,0,2023-08-03,2023-08-03,株式会社Ａ’ｐｒｉｍｅ,,株式会社,広島県,広島市中区,幟町７番２１号,,34,101,7300016,,,,,,,2023-08-03,1,,,,,エイプライム,0
1649,6240003006246,新規,0,2023-08-03,2023-08-03,合同会社ファイブトップ,,合同会社,広島県,広島市佐伯区,五日市中央２丁目４番２６号,,34,108,7315128,,,,,,,2023-08-03,1,,,,,ファイブトップ,0
1651,6250003003325,新規,0,2023-08-03,2023-08-03,合同会社中関不動産管理,,合同会社,山口県,防府市,大字田島１７０７番地,,35,206,7470834,,,,,,,2023-08-03,1,,,,,ナカノセキフドウサンカンリ,0
1658,6290001102463,新規,0,2023-08-03,2023-08-03,株式会社ＧＯＡＴリレーション,,株式会社,福岡県,福岡市南区,高宮３丁目１９－２４セレッソ高宮５０２,,40,134,8150083,,,,,,,2023-08-03,1,,,,,ゴートリレーション,0
1663,6290003014178,新規,0,2023-08-03,2023-08-03,ＭＩＮＨ　ＨＯＡＮＧ合同会社,,合同会社,福岡県,三井郡大刀洗町,大字上高橋１１１５番地１－２階Ｄ－５号室,,40,503,8301222,,,,,,,2023-08-03,1,,,,,ミンホアン,0
1664,6290003014186,新規,0,2023-08-03,2023-08-03,アイ・エス・エイ合同会社,,合同会社,福岡県,久留米市,田主丸町益生田５５２番地５,,40,203,8391213,,,,,,,2023-08-03,1,,,,,アイエスエイ,0
1668,6300001013411,新規,0,2023-08-03,2023-08-03,株式会社メルシー,,株式会社,佐賀県,佐賀市,大財１丁目８番４０号,,41,201,8400811,,,,,,,2023-08-03,1,,,,,,0
1669,6310001018533,新規,0,2023-08-03,2023-08-03,Ｂｒｉｎｇ　Ｔｏ　Ｌｉｆｅ　Ｃｏｍｐａｎｙ株式会社,,株式会社,長崎県,長崎市,大浦町２番３４－７０３号,,42,201,8500918,,,,,,,2023-08-03,1,,,,,ブリングトゥライフカンパニー,0
1670,6310001018541,新規,0,2023-08-03,2023-08-03,株式会社ナディア,,株式会社,長崎県,佐世保市,比良町１番１３号,,42,202,8570040,,,,,,,2023-08-03,1,,,,,ナディア,0
1673,6330001031088,新規,0,2023-08-03,2023-08-03,宏遠商事株式会社,,株式会社,熊本県,玉名郡玉東町,大字山口字井手下３４番,,43,364,8690302,,,,,,,2023-08-03,1,,,,,コウエンショウジ,0
1682,6380005012732,新規,0,2023-08-03,2023-08-03,一般社団法人地域教育文化振興機構,,その他の設立登記法人,福島県,双葉郡楢葉町,大字山田岡字堂ノ下６番４,,07,542,9790513,,,,,,,2023-08-03,1,,,,,チイキキョウイクブンカシンコウキコウ,0
1689,6430001089678,新規,0,2023-08-03,2023-08-03,株式会社ＫＯＴＯＢＵＫＩホールディングス,,株式会社,北海道,札幌市手稲区,新発寒七条２丁目２番１１号,,01,109,0060807,,,,,,,2023-08-03,1,,,,,コトブキホールディングス,0
1690,6440003001532,新規,0,2023-08-03,2023-08-03,合同会社共,,合同会社,北海道,函館市,松陰町７番７－４０３号ライオンズマンション松陰町第２,,01,202,0400003,,,,,,,2023-08-03,1,,,,,トモ,0
1694,6480001012164,新規,0,2023-08-03,2023-08-03,株式会社ＨＮＳ,,株式会社,徳島県,徳島市,大原町内開８０番地ウイングコーポ大原３０１,,36,201,7708012,,,,,,,2023-08-03,1,,,,,エイチエヌエス,0
1695,6490001010547,新規,0,2023-08-03,2023-08-03,株式会社ナカガワ建装,,株式会社,高知県,高知市,石立町２９番地２,,39,201,7808038,,,,,,,2023-08-03,1,,,,,ナカガワケンソウ,0
1700,6500001025097,新規,0,2023-08-03,2023-08-03,近藤電気商会株式会社,,株式会社,愛媛県,新居浜市,垣生４丁目１番１３号,,38,205,7920872,,,,,,,2023-08-03,1,,,,,コンドウデンキショウカイ,0
1704,6700150118739,新規,0,2023-08-03,2023-08-03,ＳＨＡＮＧＨＡＩ　ＴＩＭＥＭＯＲＥ　ＣＯＦＦＥＥ　ＥＱＵＩＰＭＥＮＴ　ＣＯ．，ＬＴＤ．,,外国会社等,,,,,,,,ＣＮ　Ｓｈａｎｇｈａｉ　Ｆｅｎｇｘｉａｎｑｕ　Ｆｅｎｇｃｈｅｎｇｚｈｅｎ　Ｌｕｋｏｕｃｕｎ　８２７,,,,,,2023-08-03,1,,,,,シャンハイタイマコーヒーキグユウゲンコウシ,0
1705,6700150118747,新規,0,2023-08-03,2023-08-03,ｓｈｅｎｚｈｅｎｓｈｉｓｈｕｎｌｕｘｉｎｇｋｅｊｉｙｏｕｘｉａｎｇｏｎｇｓｉ,,外国会社等,,,,,,,,Ｇｕａｎｇｄｏｎｇ　Ｐｒｏｖｉｎｃｅ，Ｓｈｅｎｚｈｅｎ　Ｃｉｔｙ，ｌｏｎｇｈｕａＤｉｓｔｒｉｃｔ，ｇｕａｎｌａｎ　Ｓｔｒｅｅｔ　ｇｕａｎｌａｎ　Ｃｏｍｍｕｎｉｔｙ　Ｂｕｉｌｄｉｎｇ　３　Ｈｏｕｓｉｎｇ　Ｖｉｌｌａｇｅ　Ｎｏ．１７２　Ｒｏｏｍ２０３、Ｎｏ．１７８,,,,,,2023-08-03,1,,,,,シェンジェンシーシュンルーシンコージーヨウシエンゴンスー,0
1706,6700150118755,新規,0,2023-08-03,2023-08-03,深セン簡単有為科技有限公司,,外国会社等,,,,,,,,中国深セン市南山区粤海街道濱海社区高新南九道９９号Ａ８音楽大厦１５Ｃ,00131362,,,,,2023-08-03,1,,,,,シンセンカンタンユウイカギユウゲンコウシ,0
1716,7010003041265,新規,0,2023-08-03,2023-08-03,ＣＥＳ中部３太陽光発電所合同会社,,合同会社,東京都,千代田区,丸の内１丁目８番２号鉄鋼ビルディング４階,,13,101,1000005,,,,,,,2023-08-03,1,,,,,シーイーエスチュウブスリータイヨウコウハツデンショ,0
1721,7010005037047,新規,0,2023-08-03,2023-08-03,熊本大津ロジスティック特定目的会社,,その他の設立登記法人,東京都,中央区,八重洲２丁目２番１号,,13,102,1040028,,,,,,,2023-08-03,1,,,,,クマモトオオツロジスティック,0
1727,7010401176051,新規,0,2023-08-03,2023-08-03,ｍｉｋａｋｕ株式会社,,株式会社,東京都,港区,高輪１丁目２２番３号,,13,103,1080074,,,,,,,2023-08-03,1,,,,,ミカク,0
1728,7010401176076,新規,0,2023-08-03,2023-08-03,Ｍａｒｕ株式会社,,株式会社,東京都,港区,南青山３丁目１番３６号青山丸竹ビル６Ｆ,,13,103,1070062,,,,,,,2023-08-03,1,,,,,マル,0
1732,7010403030652,新規,0,2023-08-03,2023-08-03,リビルドテック合同会社,,合同会社,東京都,港区,南青山３丁目１番３６号青山丸竹ビル６Ｆ,,13,103,1070062,,,,,,,2023-08-03,1,,,,,リビルドテック,0
1733,7010405022375,新規,0,2023-08-03,2023-08-03,一般社団法人南部３地域活性化基金,,その他の設立登記法人,東京都,港区,虎ノ門３丁目２２番１０－２０１号,,13,103,1050001,,,,,,,2023-08-03,1,,,,,ナンブスリーチイキカッセイカキキン,0
1735,7010603010280,新規,0,2023-08-03,2023-08-03,合同会社ラスカル,,合同会社,東京都,江東区,大島８丁目２８番５号－２１０８,,13,108,1360072,,,,,,,2023-08-03,1,,,,,ラスカル,0
1739,7010801034214,新規,0,2023-08-03,2023-08-03,株式会社Ｄ．Ｓ．Ｆ,,株式会社,東京都,大田区,西蒲田７丁目４０番６－３０１号,,13,111,1440051,,,,,,,2023-08-03,1,,,,,ディーエスエフ,0
1749,7011001156039,新規,0,2023-08-03,2023-08-03,株式会社Ｓａｍｍｙ　Ｓｏｕｎｄ,,株式会社,東京都,渋谷区,道玄坂１丁目１０番８号渋谷道玄坂東急ビル２Ｆ－Ｃ,,13,113,1500043,,,,,,,2023-08-03,1,,,,,サミーサウンド,0
1750,7011001156055,新規,0,2023-08-03,2023-08-03,株式会社ウォージット,,株式会社,東京都,渋谷区,渋谷２丁目１９－１５宮益坂ビルディング６０９,,13,113,1500002,,,,,,,2023-08-03,1,,,,,ウォージット,0
1751,7011001156088,新規,0,2023-08-03,2023-08-03,株式会社ＩＮ‐Ｌａｂ．,,株式会社,東京都,目黒区,駒場４丁目３番２４号,,13,110,1530041,,,,,,,2023-08-03,1,,,,,インラボ,0
1763,7011701026482,新規,0,2023-08-03,2023-08-03,株式会社翔陽フーズ,,株式会社,東京都,江戸川区,上一色２丁目３番１３号,,13,123,1330041,,,,,,,2023-08-03,1,,,,,ショウヨウフーズ,0
1770,7011801042818,新規,0,2023-08-03,2023-08-03,鳳凰堂株式会社,,株式会社,東京都,足立区,椿２丁目２３番１９号,,13,121,1230871,,,,,,,2023-08-03,1,,,,,ホウオウドウ,0
1771,7011803005764,新規,0,2023-08-03,2023-08-03,合同会社マヤビ,,合同会社,東京都,足立区,宮城１丁目３３―１２,,13,121,1200047,,,,,,,2023-08-03,1,,,,,マヤビ,0
1772,7012301013540,新規,0,2023-08-03,2023-08-03,株式会社Ｏ,,株式会社,東京都,町田市,忠生３丁目２番地５１,,13,209,1940035,,,,,,,2023-08-03,1,,,,,オー,0
1774,7012703002769,新規,0,2023-08-03,2023-08-03,アイク合同会社,,合同会社,東京都,小平市,栄町３丁目１番３号,,13,211,1870034,,,,,,,2023-08-03,1,,,,,アイク,0
1783,7020001152773,新規,0,2023-08-03,2023-08-03,株式会社ＲＲ,,株式会社,神奈川県,横浜市金沢区,能見台５丁目１３番地１８アークメゾン能見台１,,14,108,2360057,,,,,,,2023-08-03,1,,,,,アールアール,0
1803,7060003004663,新規,0,2023-08-03,2023-08-03,ＡＹＵＳＨ　ＴＲＡＤＩＮＧ合同会社,,合同会社,栃木県,栃木市,岩舟町新里１３０３－２番地４４号室,,09,203,3294316,,,,,,,2023-08-03,1,,,,,アユシトレーディング,0
1807,7070001040701,新規,0,2023-08-03,2023-08-03,株式会社前橋産直組合,,株式会社,群馬県,前橋市,上佐鳥町７７５番地１,,10,201,3710816,,,,,,,2023-08-03,1,,,,,マエバシサンチョククミアイ,0
1808,7080001025767,新規,0,2023-08-03,2023-08-03,インテリア・ライフ・プロモーション株式会社,,株式会社,静岡県,静岡市駿河区,中田本町５９番１４号,,22,102,4228043,,,,,,,2023-08-03,1,,,,,インテリアライフプロモーション,0
1809,7080001025775,新規,0,2023-08-03,2023-08-03,株式会社いなば,,株式会社,静岡県,静岡市清水区,由比北田１１４番地の１,,22,103,4213104,,,,,,,2023-08-03,1,,,,,イナバ,0
1822,7110001037734,新規,0,2023-08-03,2023-08-03,株式会社ワタリドリ,,株式会社,新潟県,長岡市,琴平２丁目８－８,,15,202,9400038,,,,,,,2023-08-03,1,,,,,ワタリドリ,0
1823,7110003005128,新規,0,2023-08-03,2023-08-03,合同会社ＣＬＡＳＳＩＣＡ,,合同会社,新潟県,新潟市中央区,礎町通上１ノ町１９２６番地２Ｆ,,15,103,9518054,,,,,,,2023-08-03,1,,,,,クラシカ,0
1836,7120001256804,新規,0,2023-08-03,2023-08-03,ＹＩＮＧ　ＫＡＩ株式会社,,株式会社,大阪府,大阪市旭区,今市１丁目２－５カルム千林３０１号室,,27,117,5350011,,,,,,,2023-08-03,1,,,,,インカイ,0
1837,7120001257001,新規,0,2023-08-03,2023-08-03,株式会社ＵＮＩＴＥ,,株式会社,大阪府,寝屋川市,萱島南町２１番１－３０５号,,27,215,5720825,,,,,,,2023-08-03,1,,,,,ユナイト,0
1838,7120001257034,新規,0,2023-08-03,2023-08-03,株式会社ＫＫＦコーポレーション,,株式会社,大阪府,大阪市住之江区,御崎１丁目６番１０号ハイツ御崎館５Ｂ,,27,125,5590013,,,,,,,2023-08-03,1,,,,,ケーケーエフコーポレーション,0
1839,7120001257059,新規,0,2023-08-03,2023-08-03,株式会社藍,,株式会社,大阪府,大阪市東淀川区,東淡路１丁目５－２－６１１,,27,114,5330023,,,,,,,2023-08-03,1,,,,,アイ,0
1842,7120003024548,新規,0,2023-08-03,2023-08-03,合同会社エコアップス,,合同会社,大阪府,大阪市浪速区,湊町ニ丁目２番５号,,27,111,5560000,,,,,,,2023-08-03,1,,,,,エコアップス,0
1846,7120101067969,新規,0,2023-08-03,2023-08-03,インテグラル美ジョン株式会社,,株式会社,大阪府,堺市東区,高松４７８番地３,,27,143,5998121,,,,,,,2023-08-03,1,,,,,インテグラルビジョン,0
1847,7120101067977,新規,0,2023-08-03,2023-08-03,株式会社Ｆｒｅｅ　Ｍｏｖｅｍｅｎｔ　Ｊａｐａｎ,,株式会社,大阪府,藤井寺市,林１丁目１５番１７号,,27,226,5830007,,,,,,,2023-08-03,1,,,,,フリームーブメントジャパン,0
1848,7120101067985,新規,0,2023-08-03,2023-08-03,天庄建物株式会社,,株式会社,大阪府,堺市堺区,香ヶ丘町４丁５番１５－５０１号,,27,141,5900011,,,,,,,2023-08-03,1,,,,,テンショウタテモノ,0
1850,7120901047880,新規,0,2023-08-03,2023-08-03,ＭＴ株式会社,,株式会社,大阪府,豊中市,山ノ上町１３番２９号,,27,203,5610892,,,,,,,2023-08-03,1,,,,,エムティ,0
1854,7130003008888,新規,0,2023-08-03,2023-08-03,ベルファモ合同会社,,合同会社,京都府,京都市下京区,玉津島町２９４,,26,106,6008427,,,,,,,2023-08-03,1,,,,,ベルファモ,0
1861,7140001131063,新規,0,2023-08-03,2023-08-03,株式会社メニューデザイン研究所,,株式会社,兵庫県,神戸市中央区,元町通６丁目１番６号,,28,110,6500022,,,,,,,2023-08-03,1,,,,,メニューデザインケンキュウショ,0
1862,7140001131113,新規,0,2023-08-03,2023-08-03,株式会社Ｐｕｐｕ　ｕ,,株式会社,兵庫県,西宮市,津門稲荷町４番４号,,28,204,6638247,,,,,,,2023-08-03,1,,,,,ププユー,0
1863,7140001131121,新規,0,2023-08-03,2023-08-03,株式会社ユタカ,,株式会社,兵庫県,姫路市,奥山３０６番地１,,28,201,6728003,,,,,,,2023-08-03,1,,,,,ユタカ,0
1869,7140003019364,新規,0,2023-08-03,2023-08-03,合同会社満足不動産,,合同会社,兵庫県,尼崎市,武庫元町２丁目２２番１３号,,28,202,6610043,,,,,,,2023-08-03,1,,,,,マンゾクフドウサン,0
1871,7150001026584,新規,0,2023-08-03,2023-08-03,北海道小水力発電株式会社,,株式会社,奈良県,吉野郡下市町,大字新住１１１８番地,,29,443,6380045,,,,,,,2023-08-03,1,,,,,ホッカイドウショウスイリョクハツデン,0
1872,7150001026592,新規,0,2023-08-03,2023-08-03,株式会社丸山工務店,,株式会社,奈良県,大和郡山市,千日町３２－６,,29,203,6391053,,,,,,,2023-08-03,1,,,,,マルヤマコウムテン,0
1880,7170001017714,新規,0,2023-08-03,2023-08-03,Ｇｉｖｅｒ株式会社,,株式会社,和歌山県,和歌山市,有本３５番地１,,30,201,6408390,,,,,,,2023-08-03,1,,,,,ギバー,0
1891,7180001157352,新規,0,2023-08-03,2023-08-03,伸栄製菓株式会社,,株式会社,愛知県,名古屋市中村区,千原町１０番５８号,,23,105,4530011,,,,,,,2023-08-03,1,,,,,シンエイセイカ,0
1892,7180001157410,新規,0,2023-08-03,2023-08-03,ゆづりは建設株式会社,,株式会社,愛知県,名古屋市緑区,浦里１丁目１６７番地２,,23,114,4580847,,,,,,,2023-08-03,1,,,,,ユヅリハケンセツ,0
1893,7180001157419,新規,0,2023-08-03,2023-08-03,株式会社大山商店,,株式会社,愛知県,名古屋市港区,大西１丁目６２番地の１,,23,111,4550861,,,,,,,2023-08-03,1,,,,,オオヤマショウテン,0
1897,7180002077269,新規,0,2023-08-03,2023-08-03,長谷毛織有限会社,,有限会社,愛知県,一宮市,奥町字南目草１０番地,,23,203,4910201,,,,,,,2023-08-03,1,,,,,ナガタニケオリ,0
1902,7190001030632,新規,0,2023-08-03,2023-08-03,株式会社Ｆｕｙｕ,,株式会社,三重県,亀山市,布気町８５２番地２アイルーム亀山上道野３０３号,,24,210,5190166,,,,,,,2023-08-03,1,,,,,フユー,0
1910,7200001041553,新規,0,2023-08-03,2023-08-03,株式会社アクトオートモーティブ,,株式会社,岐阜県,恵那市,大井町４０５番地４,,21,210,5097201,,,,,,,2023-08-03,1,,,,,アクトオートモーティブ,0
1911,7200001041561,新規,0,2023-08-03,2023-08-03,株式会社八海ホールディングス,,株式会社,岐阜県,山県市,大字赤尾字沖６４１番１,,21,215,5012100,,,,,,,2023-08-03,1,,,,,ハッカイホールディングス,0
1915,7210001019409,新規,0,2023-08-03,2023-08-03,株式会社Ｌｉｂｅｒｔｙ,,株式会社,福井県,福井市,みのり４丁目２番２４号,,18,201,9188005,,,,,,,2023-08-03,1,,,,,リバティ,0
1916,7210003001678,新規,0,2023-08-03,2023-08-03,合同会社山田商店,,合同会社,福井県,丹生郡越前町,気比庄第６３号４５番地１,,18,423,9160133,,,,,,,2023-08-03,1,,,,,ヤマダショウテン,0
1918,7230001019943,新規,0,2023-08-03,2023-08-03,ムサシ光学株式会社,,株式会社,富山県,射水市,高木６２番地,,16,211,9340047,,,,,,,2023-08-03,1,,,,,ムサシコウガク,0
1923,7240001061886,新規,0,2023-08-03,2023-08-03,中谷造船海運株式会社,,株式会社,広島県,江田島市,能美町高田３３２８番地の２,,34,215,7372303,,,,,,,2023-08-03,1,,,,,ナカタニゾウセンカイウン,0
1927,7240003006245,新規,0,2023-08-03,2023-08-03,合同会社ミズワークス,,合同会社,広島県,廿日市市,宮島口２丁目６番１７号,,34,213,7390411,,,,,,,2023-08-03,1,,,,,ミズワークス,0
1928,7240005015624,新規,0,2023-08-03,2023-08-03,一般社団法人ひろしま空き家相談窓口,,その他の設立登記法人,広島県,三原市,久井町坂井原５６６４番地,,34,204,7221414,,,,,,,2023-08-03,1,,,,,ヒロシマアキヤソウダンマドグチ,0
1943,7290001102462,新規,0,2023-08-03,2023-08-03,株式会社アールツーエンジニアリング,,株式会社,福岡県,福岡市南区,塩原１丁目１１番７－７０１号,,40,134,8150032,,,,,,,2023-08-03,1,,,,,アールツーエンジニアリング,0
1944,7290001102470,新規,0,2023-08-03,2023-08-03,大成リフォーム株式会社,,株式会社,福岡県,春日市,天神山３丁目１２５番地,,40,218,8160855,,,,,,,2023-08-03,1,,,,,タイセイリフォーム,0
1945,7290001102479,新規,0,2023-08-03,2023-08-03,株式会社木戸フーズ,,株式会社,福岡県,福岡市南区,大橋１丁目３番１８－５０４号ＲＥ・ＢＬＤＧ,,40,134,8150033,,,,,,,2023-08-03,1,,,,,キドフーズ,0
1946,7290001102495,新規,0,2023-08-03,2023-08-03,揚帆商事株式会社,,株式会社,福岡県,福岡市東区,御島崎２丁目２０番３１－６０７アプローズ香住ヶ丘弐番館,,40,131,8130005,,,,,,,2023-08-03,1,,,,,ヨウハンショウジ,0
1947,7290001102504,新規,0,2023-08-03,2023-08-03,株式会社ＫＡＩ,,株式会社,福岡県,大野城市,白木原４丁目６番３１号,,40,219,8160943,,,,,,,2023-08-03,1,,,,,カイ,0
1953,7300001013402,新規,0,2023-08-03,2023-08-03,株式会社ユーアンドジャパン,,株式会社,佐賀県,佐賀市,大和町大字久池井４１１３番地１,,41,201,8400202,,,,,,,2023-08-03,1,,,,,ユーアンドジャパン,0
1954,7300001013410,新規,0,2023-08-03,2023-08-03,株式会社やまさきファーム,,株式会社,佐賀県,小城市,小城町栗原１２４２番地１１,,41,208,8450013,,,,,,,2023-08-03,1,,,,,ヤマサキファーム,0
1963,7330001031070,新規,0,2023-08-03,2023-08-03,株式会社ＯＮＥｃｅ,,株式会社,熊本県,熊本市南区,刈草１丁目１番１－１２１３号,,43,104,8614134,,,,,,,2023-08-03,1,,,,,ワンス,0
1966,7340001025765,新規,0,2023-08-03,2023-08-03,株式会社ＬＴＳ,,株式会社,鹿児島県,鹿児島市,下荒田４丁目４３番１９号,,46,201,8900056,,,,,,,2023-08-03,1,,,,,エルティエス,0
1972,7370001050240,新規,0,2023-08-03,2023-08-03,株式会社Ｋプランニングス,,株式会社,宮城県,仙台市青葉区,みやぎ台４丁目１０番３号,,04,101,9893214,,,,,,,2023-08-03,1,,,,,ケープランニングス,0
1975,7410003003828,新規,0,2023-08-03,2023-08-03,合同会社Ｌｉｇｈｔｌｙ,,合同会社,秋田県,秋田市,南通亀の町４－１５ヤマキウ南倉庫２Ｆ,,05,201,0100011,,,,,,,2023-08-03,1,,,,,ライトリィ,0
1978,7430001089660,新規,0,2023-08-03,2023-08-03,株式会社ＴＳ　ｍａｘ‐ｐｒｏｄｕｃｔ,,株式会社,北海道,石狩市,緑苑台東二条１丁目１２７番地１,,01,235,0613222,,,,,,,2023-08-03,1,,,,,ティーエスマックスプロダクト,0
1979,7440003001531,新規,0,2023-08-03,2023-08-03,合同会社函館ＩＭＡＩ,,合同会社,北海道,函館市,青柳町３９番６号,,01,202,0400044,,,,,,,2023-08-03,1,,,,,イマイ,0
1981,7462501000962,新規,0,2023-08-03,2023-08-03,株式会社ＬＩＦＬＩＺ　ＨＯＭＥ,,株式会社,北海道,標津郡中標津町,西町７丁目４８番地,,01,692,0861157,,,,,,,2023-08-03,1,,,,,リフリスホーム,0
1982,7470001007684,新規,0,2023-08-03,2023-08-03,松屋不動産株式会社,,株式会社,香川県,丸亀市,大手町３丁目１３番１０号,,37,202,7630034,,,,,,,2023-08-03,1,,,,,マツヤフドウサン,0
1985,7490001010554,新規,0,2023-08-03,2023-08-03,株式会社１０３１ＧａｍｅＳｔｕｄｉｏ,,株式会社,高知県,高知市,桜井町１丁目８番３６号グランドール桜井４０１,,39,201,7800821,,,,,,,2023-08-03,1,,,,,イチゼロサンイチゲームスタジオ,0
1987,7500001025096,新規,0,2023-08-03,2023-08-03,株式会社パールナカガワ,,株式会社,愛媛県,宇和島市,遊子２９３７番地,,38,203,7980103,,,,,,,2023-08-03,1,,,,,パールナカガワ,0
1993,7700150118738,新規,0,2023-08-03,2023-08-03,Ｈａｎｇｚｈｏｕ　Ｏｕｌｕ　Ｎｅｔｗｏｒｋ　Ｔｅｃｈｎｏｌｏｇｙ　Ｃｏ．，Ｌｔｄ,,外国会社等,,,,,,,,＃１０５８　ｋｅｊｉｇｕａｎ　Ｓｔｒｅｅｔ　Ｚｈｏｎｇｙｕｅ　Ｃｈｕａｎｇｚｈｉ　Ｂｕｉｌｄｉｎｇ　Ｓｕｉｔｅ　１２３５　Ｃｈａｎｇｈｅ　Ｓｔｒｅｅｔ，　Ｂｉｎｊｉａｎｇ　Ｄｉｓｔｒｉｃｔ　Ｈａｎｇｚｈｏｕ　Ｚｈｅｊｉａｎｇ　３１００５２　ＣＮ,,,,,,2023-08-03,1,,,,,コウシュウオロネットカギユウゲンガイシャ,0
1994,7700150118746,新規,0,2023-08-03,2023-08-03,Ｚｈｅｊｉａｎｇ　Ｈｕａｌｉｎｇ　ｆｌａｎｇｅ　Ｃｏ．，Ｌｔｄ,,外国会社等,,,,,,,,８７　Ｆｕｈａｉ　Ｒｏａｄ，Ｈａｉｂｉｎ　ｓｔｒｅｅｔ，Ｌｏｎｇｗａｎ　Ｄｉｓｔｒｉｃｔ　Ｗｅｎｚｈｏｕ　Ｚｈｅｊｉａｎｇ　３２５０００　ＣＮ,,,,,,2023-08-03,1,,,,,ゼジャンホゥアリンフランジカンパニーリミテッド,0
1995,7700150118754,新規,0,2023-08-03,2023-08-03,広州通量能源有限責任公司,,外国会社等,,,,,,,,中国広東省広州市番禺区石一村謝石公路中段８０号２棟１０１房,,,,,,2023-08-03,1,,,,,コウシュウツウリョウノウゲンユウゲンセキニンコウシ,0
1996,7700150118762,新規,0,2023-08-03,2023-08-03,ｓｈｅｎｚｈｅｎ　ｓｈａｎｑｕ　ｋｅｊｉ　ｙｏｕｘｉａｎｇｏｎｇｓｉ,,外国会社等,,,,,,,,ＣＮ　Ｇｕａｎｇｄｏｎｇ　Ｓｈｅｎｚｈｅｎ　ｎａｎｓｈａｎ　ｔａｏｙｕａｎｊｉｅｄａｏ　ｚｈｕｇｕａｎｇｌｕ５２　ｚｈｕｇｕａｎｇｃｈｕａｎｇｘｉｎｋｅｊｉｙｕａｎ　２ｄｏｎｇ６０１,,,,,,2023-08-03,1,,,,,シンセンサンシュカギユウゲンコウシ,0
2001,8010001237351,新規,0,2023-08-03,2023-08-03,株式会社せんべり,,株式会社,東京都,千代田区,神田駿河台２丁目９番３３－１２０２号,,13,101,1010062,,,,,,,2023-08-03,1,,,,,センベリ,0
2002,8010001237376,新規,0,2023-08-03,2023-08-03,エヌエスイーホールディングス株式会社,,株式会社,東京都,千代田区,大手町２丁目１番１号大手町野村ビル２０階,,13,101,1000004,,,,,,,2023-08-03,1,,,,,エヌエスイーホールディングス,0
2005,8010003041264,新規,0,2023-08-03,2023-08-03,ＣＥＳ中部２太陽光発電所合同会社,,合同会社,東京都,千代田区,丸の内１丁目８番２号鉄鋼ビルディング４階,,13,101,1000005,,,,,,,2023-08-03,1,,,,,シーイーエスチュウブツータイヨウコウハツデンショ,0
2006,8010003041272,新規,0,2023-08-03,2023-08-03,ＣＥＳ宮城３太陽光発電所合同会社,,合同会社,東京都,千代田区,丸の内１丁目８番２号鉄鋼ビルディング４階,,13,101,1000005,,,,,,,2023-08-03,1,,,,,シーイーエスミヤギスリータイヨウコウハツデンショ,0
2012,8010005036964,新規,0,2023-08-03,2023-08-03,一般社団法人日本心臓血管外科総合研究所,,その他の設立登記法人,東京都,文京区,本郷３丁目９番１１号平原ビル２０２号室,,13,105,1130033,,,,,,,2023-08-03,1,,,,,ニホンシンゾウケッカンゲカソウゴウケンキュウジョ,0
2023,8010401176083,新規,0,2023-08-03,2023-08-03,株式会社ＣｅｒｅｂｒｏＴｅｃｈｎｏｌｏｇｙ,,株式会社,東京都,港区,白金台４丁目９－２エスペランサ白金台４０２号室,,13,103,1080071,,,,,,,2023-08-03,1,,,,,セレブロテクノロジー,0
2024,8010403030602,新規,0,2023-08-03,2023-08-03,合同会社ＭＫ,,合同会社,東京都,港区,六本木３丁目７番１－６２４号,,13,103,1060032,,,,,,,2023-08-03,1,,,,,エムケー,0
2025,8010405022374,新規,0,2023-08-03,2023-08-03,一般社団法人南部２地域活性化基金,,その他の設立登記法人,東京都,港区,虎ノ門３丁目２２番１０－２０１号,,13,103,1050001,,,,,,,2023-08-03,1,,,,,ナンブツーチイキカッセイカキキン,0
2026,8010505003431,新規,0,2023-08-03,2023-08-03,税理士法人あおいコンサルティング,,その他の設立登記法人,東京都,台東区,花川戸２丁目１５番６号,,13,106,1110033,,,,,,,2023-08-03,1,,,,,アオイコンサルティング,0
2034,8010601063544,新規,0,2023-08-03,2023-08-03,株式会社エコロク,,株式会社,東京都,江東区,北砂４丁目１４番２号,,13,108,1360073,,,,,,,2023-08-03,1,,,,,エコロク,0
2038,8010701044659,新規,0,2023-08-03,2023-08-03,株式会社ＥＳホーム,,株式会社,東京都,品川区,上大崎３丁目１番２－３８０８号,,13,109,1410021,,,,,,,2023-08-03,1,,,,,イーエスホーム,0
2041,8010901053534,新規,0,2023-08-03,2023-08-03,株式会社ゴリラパーティーゾーン,,株式会社,東京都,世田谷区,上馬１丁目２８番１０号シャーメゾン上馬ファースト２０１,,13,112,1540011,,,,,,,2023-08-03,1,,,,,ゴリラパーティーゾーン,0
2042,8010901053542,新規,0,2023-08-03,2023-08-03,株式会社ニューヨークコーポレーション,,株式会社,東京都,世田谷区,大原１丁目３４番１９号ＶＩＴＡ下北沢１Ｅ,,13,112,1560041,,,,,,,2023-08-03,1,,,,,ニューヨークコーポレーション,0
2054,8011003017287,新規,0,2023-08-03,2023-08-03,合同会社ＢｌｕｅＷａｖｅＥｎｔｅｒｔａｉｎｍｅｎｔ,,合同会社,東京都,渋谷区,渋谷２丁目１９－１５宮益坂ビルディング６０９,,13,113,1500002,,,,,,,2023-08-03,1,,,,,ブルーウェーブエンターテインメント,0
2063,8011101103880,新規,0,2023-08-03,2023-08-03,株式会社サイレント,,株式会社,東京都,新宿区,新宿１丁目３６－２新宿第七葉山ビル３階,,13,104,1600022,,,,,,,2023-08-03,1,,,,,サイレント,0
2066,8011103013310,新規,0,2023-08-03,2023-08-03,合同会社ＴＵ１５,,合同会社,東京都,新宿区,四谷２丁目９番地１５東京ユナイテッド綜合事務所内,,13,104,1600004,,,,,,,2023-08-03,1,,,,,ティーユージュウゴ,0
2075,8011301028894,新規,0,2023-08-03,2023-08-03,株式会社ｌｏｗ,,株式会社,東京都,杉並区,井草１丁目２３番８号,,13,115,1670021,,,,,,,2023-08-03,1,,,,,ロウ,0
2078,8011701026481,新規,0,2023-08-03,2023-08-03,株式会社ウッズ,,株式会社,東京都,江戸川区,一之江８丁目１１番９号,,13,123,1320024,,,,,,,2023-08-03,1,,,,,ウッズ,0
2083,8011803005763,新規,0,2023-08-03,2023-08-03,ＡＮＩＬ合同会社,,合同会社,東京都,葛飾区,堀切７丁目２１番１０号ホワイトパレス３０１,,13,122,1240006,,,,,,,2023-08-03,1,,,,,アニル,0
2085,8012401040806,新規,0,2023-08-03,2023-08-03,株式会社ステップワン,,株式会社,東京都,多摩市,永山５丁目２１番地７－２,,13,224,2060025,,,,,,,2023-08-03,1,,,,,ステップワン,0
2086,8012403006094,新規,0,2023-08-03,2023-08-03,合同会社家門,,合同会社,東京都,府中市,白糸台１丁目２番地１６、２階,,13,206,1830011,,,,,,,2023-08-03,1,,,,,イエモン,0
2100,8020001152509,新規,0,2023-08-03,2023-08-03,Ｌｏｒｄ　Ｅｌ　Ｃ株式会社,,株式会社,神奈川県,横浜市中区,野毛町３丁目１３３番地１ベイサイドレジデンス桜木町１０２,,14,104,2310064,,,,,,,2023-08-03,1,,,,,ロードエルシー,0
2101,8020001152715,新規,0,2023-08-03,2023-08-03,株式会社エムケー企画,,株式会社,神奈川県,横浜市中区,扇町１丁目１番２５号キンガビル１階,,14,104,2310027,,,,,,,2023-08-03,1,,,,,エムケーキカク,0
2102,8020001152723,新規,0,2023-08-03,2023-08-03,株式会社Ｃａｉｎｄ,,株式会社,神奈川県,横浜市緑区,北八朔町３１９－３,,14,113,2260021,,,,,,,2023-08-03,1,,,,,カインド,0
2103,8020001152756,新規,0,2023-08-03,2023-08-03,株式会社鈴や,,株式会社,神奈川県,横浜市泉区,和泉町５７３２番地２－４１－２０１,,14,116,2450016,,,,,,,2023-08-03,1,,,,,スズヤ,0
2104,8020001152772,新規,0,2023-08-03,2023-08-03,プレプラス株式会社,,株式会社,神奈川県,横浜市金沢区,鳥浜町１２番地１１,,14,108,2360002,,,,,,,2023-08-03,1,,,,,プレプラス,0
2106,8020003024292,新規,0,2023-08-03,2023-08-03,ライズ合同会社,,合同会社,神奈川県,川崎市川崎区,渡田山王町２１番１２号－８０５号,,14,131,2100845,,,,,,,2023-08-03,1,,,,,ライズ,0
2110,8021001079700,新規,0,2023-08-03,2023-08-03,株式会社結人,,株式会社,神奈川県,相模原市南区,文京２丁目８番２－４０４号,,14,153,2520307,,,,,,,2023-08-03,1,,,,,ムスビト,0
2114,8030001057392,新規,0,2023-08-03,2023-08-03,株式会社青和興業,,株式会社,埼玉県,川越市,大字寺尾９０２番地１１,,11,201,3501141,,,,,,,2023-08-03,1,,,,,セイワコウギョウ,0
2127,8070005010154,新規,0,2023-08-03,2023-08-03,医療法人アサヒメディカルシステム,,その他の設立登記法人,群馬県,高崎市,上並榎町４７番地２,,10,202,3700801,,,,,,,2023-08-03,1,,,,,アサヒメディカルシステム,0
2129,8080001025774,新規,0,2023-08-03,2023-08-03,ＴＨＥ　ＦＯＲ　ＬＩＮＫ株式会社,,株式会社,静岡県,静岡市駿河区,小鹿３丁目１７番２２号ファミール２１・３０２号,,22,102,4228021,,,,,,,2023-08-03,1,,,,,ザフォーリンク,0
2131,8080401026637,新規,0,2023-08-03,2023-08-03,株式会社クリークス,,株式会社,静岡県,掛川市,掛川５００番地の３,,22,213,4360079,,,,,,,2023-08-03,1,,,,,クリークス,0
2132,8090001018240,新規,0,2023-08-03,2023-08-03,株式会社ＫＭＣ,,株式会社,山梨県,甲州市,大和町初鹿野１８３４番地１,,19,213,4091203,,,,,,,2023-08-03,1,,,,,ケーエムシー,0
2134,8100001036637,新規,0,2023-08-03,2023-08-03,株式会社ＳＥｉ,,株式会社,長野県,北佐久郡軽井沢町,大字軽井沢１３２３－１４,,20,321,3890102,,,,,,,2023-08-03,1,,,,,セイ,0
2135,8100001036645,新規,0,2023-08-03,2023-08-03,ソライロ株式会社,,株式会社,長野県,下伊那郡高森町,吉田１３２２別棟,,20,403,3993102,,,,,,,2023-08-03,1,,,,,ソライロ,0
2136,8110001037725,新規,0,2023-08-03,2023-08-03,株式会社ルメルシー,,株式会社,新潟県,小千谷市,大字桜町１００３番地２,,15,208,9470035,,,,,,,2023-08-03,1,,,,,ルメルシー,0
2138,8110003005127,新規,0,2023-08-03,2023-08-03,合同会社Ｃｕ,,合同会社,新潟県,新潟市秋葉区,柄目木３１６番地１３,,15,105,9560852,,,,,,,2023-08-03,1,,,,,シーユー,0
2149,8120001256943,新規,0,2023-08-03,2023-08-03,株式会社エムフェリア,,株式会社,大阪府,大阪市旭区,今市１丁目１８－１１グレイスビル２０１,,27,117,5350011,,,,,,,2023-08-03,1,,,,,エムフェリア,0
2150,8120001256968,新規,0,2023-08-03,2023-08-03,株式会社ＫＯＴＴＡ,,株式会社,大阪府,枚方市,交北１丁目５－５－１０７,,27,210,5731161,,,,,,,2023-08-03,1,,,,,コッタ,0
2154,8120003024621,新規,0,2023-08-03,2023-08-03,合同会社楓工業,,合同会社,大阪府,大阪市平野区,西脇１丁目９番１１号,,27,126,5470035,,,,,,,2023-08-03,1,,,,,カエデコウギョウ,0
2155,8120005023794,新規,0,2023-08-03,2023-08-03,医療法人かなで,,その他の設立登記法人,大阪府,大阪市東成区,大今里西１丁目２６番５号ロハスプラザ今里２階,,27,115,5370014,,,,,,,2023-08-03,1,,,,,カナデ,0
2163,8130001074865,新規,0,2023-08-03,2023-08-03,株式会社はたした工務店,,株式会社,京都府,京都市南区,唐橋西寺町３,,26,107,6018466,,,,,,,2023-08-03,1,,,,,ハタシタコウムテン,0
2170,8140001131054,新規,0,2023-08-03,2023-08-03,株式会社橋野建興,,株式会社,兵庫県,神戸市北区,京地３丁目７－３０,,28,109,6511304,,,,,,,2023-08-03,1,,,,,ハシノケンコウ,0
2171,8140001131062,新規,0,2023-08-03,2023-08-03,株式会社ＭＣ１６,,株式会社,兵庫県,三田市,三田町５番９号,,28,219,6691533,,,,,,,2023-08-03,1,,,,,エムシーシックスティーン,0
2173,8140003019363,新規,0,2023-08-03,2023-08-03,合同会社福光,,合同会社,兵庫県,神戸市西区,岩岡町印路５６番地,,28,111,6512402,,,,,,,2023-08-03,1,,,,,フクミツ,0
2177,8150001026583,新規,0,2023-08-03,2023-08-03,石川小水力発電株式会社,,株式会社,奈良県,吉野郡下市町,大字新住１１１８番地,,29,443,6380045,,,,,,,2023-08-03,1,,,,,イシカワショウスイリョクハツデン,0
2186,8180001157384,新規,0,2023-08-03,2023-08-03,株式会社ＫＩＲＹＵ　ＡＴＥＬＩＥＲ＆Ｔ,,株式会社,愛知県,名古屋市天白区,平針２丁目１１１１番地（Ａ２ビル４０７号）,,23,116,4680011,,,,,,,2023-08-03,1,,,,,キリュウアトリエアンドティー,0
2191,8180003025556,新規,0,2023-08-03,2023-08-03,合同会社ダウザー,,合同会社,愛知県,名古屋市南区,豊２丁目３０－３２－３０２,,23,112,4570863,,,,,,,2023-08-03,1,,,,,ダウザー,0
2192,8180003025564,新規,0,2023-08-03,2023-08-03,合同会社マコト,,合同会社,愛知県,名古屋市北区,大野町１丁目１番地アーバンラフレ志賀６棟１０５号,,23,103,4620035,,,,,,,2023-08-03,1,,,,,マコト,0
2193,8180003025580,新規,0,2023-08-03,2023-08-03,合同会社ＩＫＫＩ,,合同会社,愛知県,一宮市,北方町中島字西郷２７番地８,,23,203,4938003,,,,,,,2023-08-03,1,,,,,イッキ,0
2197,8200001041552,新規,0,2023-08-03,2023-08-03,株式会社ニノミヤ,,株式会社,岐阜県,各務原市,三井町３丁目３番地２,,21,213,5040941,,,,,,,2023-08-03,1,,,,,ニノミヤ,0
2210,8240001061885,新規,0,2023-08-03,2023-08-03,ＭＣＲＡＦＴ株式会社,,株式会社,広島県,福山市,引野町北４丁目１７番９号,,34,207,7210941,,,,,,,2023-08-03,1,,,,,エムクラフト,0
2211,8240001061893,新規,0,2023-08-03,2023-08-03,株式会社ＭＩＣＯ,,株式会社,広島県,広島市中区,南吉島１丁目３番２３号,,34,101,7300826,,,,,,,2023-08-03,1,,,,,ミコ,0
2212,8240001061910,新規,0,2023-08-03,2023-08-03,株式会社ウィローテックソリューション,,株式会社,広島県,広島市中区,橋本町１０番１号,,34,101,7300015,,,,,,,2023-08-03,1,,,,,ウィローテックソリューション,0
2213,8250003003315,新規,0,2023-08-03,2023-08-03,合同会社シンデザイン,,合同会社,山口県,防府市,国衙５丁目１１番８３号メゾン国衙１０２,,35,206,7470024,,,,,,,2023-08-03,1,,,,,シンデザイン,0
2218,8260001038171,新規,0,2023-08-03,2023-08-03,株式会社ジェイエックス,,株式会社,岡山県,倉敷市,児島味野４丁目７番６号,,33,202,7110913,,,,,,,2023-08-03,1,,,,,ジェイエックス,0
2227,8290003014176,新規,0,2023-08-03,2023-08-03,合同会社ＳｅａＬｕｃｋｓ,,合同会社,福岡県,福岡市博多区,須崎町１－２アイセレブ天神東８０１,,40,132,8120028,,,,,,,2023-08-03,1,,,,,シーラックス,0
2228,8290003014184,新規,0,2023-08-03,2023-08-03,合同会社ＣＵＥ　ＣＲＥＡＴＩＶＥ　ＡＧＥＮＣＹ,,合同会社,福岡県,福岡市中央区,大手門３丁目１４番２７号ラフォーレ大濠パークアベニュー６０４,,40,133,8100074,,,,,,,2023-08-03,1,,,,,キュークリエイティブエージェンシー,0
2229,8290003014192,新規,0,2023-08-03,2023-08-03,合同会社ＳｔｅｐＳｔａｒｔ,,合同会社,福岡県,福岡市中央区,天神２丁目３番１０号天神パインクレスト７１９号,,40,133,8100001,,,,,,,2023-08-03,1,,,,,ステップスタート,0
2237,8290801029747,新規,0,2023-08-03,2023-08-03,株式会社正秀,,株式会社,福岡県,田川郡糸田町,４０２０番地,,40,604,8221300,,,,,,,2023-08-03,1,,,,,セイシュウ,0
2239,8290803004475,新規,0,2023-08-03,2023-08-03,合同会社福住,,合同会社,福岡県,北九州市八幡西区,御開４丁目２番１号,,40,109,8070806,,,,,,,2023-08-03,1,,,,,フクスミ,0
2241,8300003002006,新規,0,2023-08-03,2023-08-03,合同会社エヌオフィス,,合同会社,佐賀県,唐津市,鏡１８４３番地２,,41,202,8470022,,,,,,,2023-08-03,1,,,,,エヌオフィス,0
2246,8360001032354,新規,0,2023-08-03,2023-08-03,株式会社石垣島の広告社,,株式会社,沖縄県,石垣市,美崎町１番地ユーグレナ離島ターミナル内,,47,207,9070012,,,,,,,2023-08-03,1,,,,,イシガキジマノコウコクシャ,0
2247,8360001032362,新規,0,2023-08-03,2023-08-03,大浦組株式会社,,株式会社,沖縄県,中頭郡中城村,字北上原５５３番地,,47,328,9012423,,,,,,,2023-08-03,1,,,,,オオウラグミ,0
2263,8420001018347,新規,0,2023-08-03,2023-08-03,株式会社いちおか,,株式会社,青森県,むつ市,大曲２丁目１４番２５号,,02,208,0350042,,,,,,,2023-08-03,1,,,,,イチオカ,0
2269,8450001000335,新規,0,2023-08-03,2023-08-03,旭川神居山スキー場株式会社,,株式会社,北海道,旭川市,神居町西丘１１２番地,,01,204,0741181,,,,,,,2023-08-03,1,,,,,,0
2271,8462501000961,新規,0,2023-08-03,2023-08-03,株式会社筒井鐵工,,株式会社,北海道,標津郡中標津町,東十四条南８丁目１７番地,,01,692,0861014,,,,,,,2023-08-03,1,,,,,ツツイテッコウ,0
2273,8490001010553,新規,0,2023-08-03,2023-08-03,まちだ農園株式会社,,株式会社,高知県,高岡郡中土佐町,大野見奈路５２０番地,,39,401,7891404,,,,,,,2023-08-03,1,,,,,マチダノウエン,0
2277,8700150118043,新規,0,2023-08-03,2023-08-03,ＸＩＡＭＥＮＹＵＮＣＨＵＡＮＧＹＩＫＥＤＩＡＮＺＩＳＨＡＮＧＷＵＹＯＵＸＩＡＮＧＯＮＧＳＩ,,外国会社等,,,,,,,,ｘｉａｍｅｎｓｈｉｓｉｍｉｎｇｑｕｈｕｂｉｎｎａｎｌｕ８２５－１１０５,,,,,,2023-08-03,1,,,,,アモイウンソウオクキャクデンシショウムユウゲンコウシ,0
2278,8700150118737,新規,0,2023-08-03,2023-08-03,Ｇｕａｎｇｚｈｏｕ　Ｔｉａｎｌｅｉ　Ｔｒａｄｉｎｇ　Ｌｔｄ．,,外国会社等,,,,,,,,Ｃｈｉｎａ，Ｇｕａｎｇｚｈｏｕ　Ｂａｉ　Ｙｕｎ　Ｑｕ　Ｚｅｎｇ　Ｃｈａ　Ｌｕ　Ｌｕｏ　Ｙｏｎｇ　Ｗｅｉ　Ｓｈｕ　Ｙａ　Ｇｕａｎｇｚｈｏｕ　ＢａｉＹｕｎ　Ｍｏ　Ｔｕｏ　Ｃｈｅ　Ｐｅｉ　Ｊｉａｎ　Ｐｉ　Ｆａ　Ｓｈｉ　Ｃｈａｎｇ　Ｎｅｉ　１１０９,,,,,,2023-08-03,1,,,,,コウシュウシテンライボウエキユウゲンコウシ,0
2279,8700150118745,新規,0,2023-08-03,2023-08-03,ｓｈｅｎｚｈｅｎｓｈｉ　ｊｉｙｉｋｅｊｉ　ｙｏｕｘｉａｎｇｏｎｇｓｉ,,外国会社等,,,,,,,,ｓｈｅｎｚｈｅｎｓｈｉ　ｌｏｎｇｇａｎｇｑｕ　ｂａｎｔｉａｎｊｉｅｄａｏ　ｍａａｎｔａｎｇｓｈｅｑｕ　ｂｕｌｏｎｇｌｕ３６９ｈａｏ　ｄｏｎｇｈａｉｗａｎｇｄａｓｈａ　Ｃｚｕｏ２０２－１　５１８０００　ＣＮ,,,,,,2023-08-03,1,,,,,シェンゼェンシジイケジヨウシェンゴンスー,0
2280,8700150118753,新規,0,2023-08-03,2023-08-03,北京瑩熙商貿有限公司,,外国会社等,,,,,,,,中国北京市延慶区延慶鎮恒安小区２８号楼２層５単元２８－１Ａ６,,,,,,2023-08-03,1,,,,,ペキンエイキショウボウユウゲンコウシ,0
2281,8700150118761,新規,0,2023-08-03,2023-08-03,ｓｈｅｎｚｈｅｎｍａｉｃｈｅｎｇｋｅｊｉｃｈｕａｎｇｘｉｎｙｏｕｘｉａｎｇｏｎｇｓｉ,,外国会社等,,,,,,,,Ｌｏｎｇｃｈｅｎｇ　Ｓｔｒｅｅｔ　１６Ｂ，Ｂｌｏｃｋ　Ｂ，Ｂｕｌｌｄｉｎｇ　１，Ｈａｏｔｉｎｇ　Ｊｉｘｉａｎｇｌｉ　Ｈｕａｎｇｇｅｋｅｎｇ　Ｃｏｍｍｕｎｉｔｙ　Ｌｏｎｇｇａｎｇ　Ｄｉｓｔｒｉｃｔ　Ｓｈｅｎｚｈｅｎ　Ｃｉｔｙ，Ｇｕａｎｇｄｏｎｇ，ＣＮ,,,,,,2023-08-03,1,,,,,シンセンバクテイカギソウシンユウゲンコウシ,0
2296,9010003041255,新規,0,2023-08-03,2023-08-03,合同会社Ｍｅｄｉｓａｎｔｅ．Ａｎ,,合同会社,東京都,中央区,日本橋室町１丁目１１番１２号日本橋水野ビル７階,,13,102,1030022,,,,,,,2023-08-03,1,,,,,メディサンテアン,0
2297,9010003041263,新規,0,2023-08-03,2023-08-03,ＣＥＳ福島４太陽光発電所合同会社,,合同会社,東京都,千代田区,丸の内１丁目８番２号鉄鋼ビルディング４階,,13,101,1000005,,,,,,,2023-08-03,1,,,,,シーイーエスフクシマフォータイヨウコウハツデンショ,0
2298,9010003041271,新規,0,2023-08-03,2023-08-03,ＣＥＳ宮城２太陽光発電所合同会社,,合同会社,東京都,千代田区,丸の内１丁目８番２号鉄鋼ビルディング４階,,13,101,1000005,,,,,,,2023-08-03,1,,,,,シーイーエスミヤギツータイヨウコウハツデンショ,0
2300,9010005037037,新規,0,2023-08-03,2023-08-03,ソーラーリバティホールディングス一般社団法人,,その他の設立登記法人,東京都,中央区,八丁堀４丁目２番１０号ＡＯＪ税理士法人内,,13,102,1040032,,,,,,,2023-08-03,1,,,,,ソーラーリバティホールディングス,0
2306,9010401176108,新規,0,2023-08-03,2023-08-03,ダイオクト株式会社,,株式会社,東京都,港区,南青山４丁目１８番１１号フォレストヒルズイーストウィング２Ｆ,,13,103,1070062,,,,,,,2023-08-03,1,,,,,ダイオクト,0
2307,9010401176124,新規,0,2023-08-03,2023-08-03,株式会社ＫＰ‐１,,株式会社,東京都,港区,東新橋１丁目９番２号汐留住友ビル１６階,,13,103,1050021,,,,,,,2023-08-03,1,,,,,ケーピーワン,0
2308,9010401176140,新規,0,2023-08-03,2023-08-03,株式会社エイベックス・アニメーションレーベルズ,,株式会社,東京都,港区,三田１丁目４番１号,,13,103,1080073,,,,,,,2023-08-03,1,,,,,エイベックスアニメーションレーベルズ,0
2310,9010403030618,新規,0,2023-08-03,2023-08-03,Ｃｏｌｔデータセンターサービス・ジャパン・オペレーティング合同会社,,合同会社,東京都,港区,六本木１丁目６番１号泉ガーデンタワー２７階,,13,103,1060032,,,,,,,2023-08-03,1,,,,,コルトデータセンターサービスジャパンオペレーティング,0
2311,9010403030642,新規,0,2023-08-03,2023-08-03,ＳＦＣ　ＰＪ合同会社,,合同会社,東京都,港区,六本木１丁目６番１号泉ガーデンタワー,,13,103,1060032,,,,,,,2023-08-03,1,,,,,エスエフシーピージェイ,0
2315,9010701044658,新規,0,2023-08-03,2023-08-03,株式会社ドラゴンバンク,,株式会社,東京都,品川区,西五反田８丁目２番１２アール五反田７Ａ,,13,109,1410031,,,,,,,2023-08-03,1,,,,,ドラゴンバンク,0
2326,9011005010165,新規,0,2023-08-03,2023-08-03,一般社団法人Ｄｉｇｉｔａｌ　Ｋｉｄｓ　Ｃｌｕｂ,,その他の設立登記法人,東京都,渋谷区,神宮前６丁目２３番４号桑野ビル２階,,13,113,1500001,,,,,,,2023-08-03,1,,,,,デジタルキッズクラブ,0
2332,9011103013334,新規,0,2023-08-03,2023-08-03,平永合同会社,,合同会社,東京都,新宿区,榎町３４－３榎町ビル７階－２５室,,13,104,1620806,,,,,,,2023-08-03,1,,,,,ヒラナガ,0
2333,9011301028910,新規,0,2023-08-03,2023-08-03,株式会社ＡＴＲＡＭ,,株式会社,東京都,杉並区,南荻窪４丁目３５番２０号ゼネラルビル３階,,13,115,1670052,,,,,,,2023-08-03,1,,,,,アトラム,0
2334,9011303004843,新規,0,2023-08-03,2023-08-03,合同会社ＫＨインベストメント,,合同会社,東京都,杉並区,和田３丁目６１－８－１００３,,13,115,1660012,,,,,,,2023-08-03,1,,,,,ケイエッチインベストメント,0
2338,9011701026480,新規,0,2023-08-03,2023-08-03,株式会社悠惺,,株式会社,東京都,江戸川区,大杉５丁目３２番１２－４０６号カインドコート,,13,123,1320022,,,,,,,2023-08-03,1,,,,,ハルセイ,0
2340,9011801042816,新規,0,2023-08-03,2023-08-03,三洋セラム株式会社,,株式会社,東京都,足立区,江北１丁目３１番２０－１０４号,,13,121,1230872,,,,,,,2023-08-03,1,,,,,サンヨウセラム,0
2341,9012301013539,新規,0,2023-08-03,2023-08-03,株式会社特掃社,,株式会社,東京都,町田市,野津田町２４０８番地１０,,13,209,1950063,,,,,,,2023-08-03,1,,,,,トクソウシャ,0
2343,9012701017775,新規,0,2023-08-03,2023-08-03,株式会社純彩,,株式会社,東京都,清瀬市,竹丘１丁目１７番２９号,,13,221,2040023,,,,,,,2023-08-03,1,,,,,ジュンサイ,0
2358,9020001152326,新規,0,2023-08-03,2023-08-03,株式会社ミノルビズ,,株式会社,神奈川県,川崎市麻生区,王禅寺西６丁目２番２号サンヒルズ新百合２０４,,14,137,2150017,,,,,,,2023-08-03,1,,,,,ミノルビズ,0
2359,9020001152747,新規,0,2023-08-03,2023-08-03,株式会社絶対色域デザイン研究所,,株式会社,神奈川県,横浜市緑区,長津田町２４６９番地東向地団地３棟３５１号,,14,113,2260026,,,,,,,2023-08-03,1,,,,,ゼッタイシキイキデザインケンキュウジョ,0
2360,9020003024291,新規,0,2023-08-03,2023-08-03,石山産業合同会社,,合同会社,神奈川県,川崎市宮前区,馬絹５丁目５番５－３０１号ミオカステーロ宮崎台,,14,136,2160035,,,,,,,2023-08-03,1,,,,,イシヤマサンギョウ,0
2363,9021001079773,新規,0,2023-08-03,2023-08-03,株式会社ＭＯＳＴ,,株式会社,神奈川県,足柄上郡山北町,谷峨２６８番地,,14,364,2580100,,,,,,,2023-08-03,1,,,,,モスト,0
2364,9021001079781,新規,0,2023-08-03,2023-08-03,株式会社ＰＤＧ,,株式会社,神奈川県,鎌倉市,材木座５丁目８番２５号,,14,204,2480013,,,,,,,2023-08-03,1,,,,,ピーディージー,0
2367,9021003013383,新規,0,2023-08-03,2023-08-03,ＳＳ日本商会合同会社,,合同会社,神奈川県,厚木市,下依知３丁目１０－１１ジュネスＳＡＴＯＨ１０１,,14,212,2430806,,,,,,,2023-08-03,1,,,,,エスエスニホンショウカイ,0
2368,9021003013391,新規,0,2023-08-03,2023-08-03,合同会社ｎｉｋｋｉ．＆ｃｏ,,合同会社,神奈川県,相模原市緑区,橋本３丁目１７－４橋本第一ビル５Ｆ,,14,151,2520143,,,,,,,2023-08-03,1,,,,,ニッキアンドコー,0
2378,9040001129512,新規,0,2023-08-03,2023-08-03,ビンデソリ株式会社,,株式会社,千葉県,船橋市,湊町２丁目１４－２５－１０５,,12,204,2730011,,,,,,,2023-08-03,1,,,,,ビンデソリ,0
2382,9040003023069,新規,0,2023-08-03,2023-08-03,キアズマ合同会社,,合同会社,千葉県,市川市,須和田２丁目１６―１４,,12,203,2720825,,,,,,,2023-08-03,1,,,,,キアズマ,0
2384,9040005022085,新規,0,2023-08-03,2023-08-03,特定非営利活動法人ＰＩＴ,,その他の設立登記法人,千葉県,市川市,大野町２丁目９７１番地６,,12,203,2720805,,,,,,,2023-08-03,1,,,,,ピット,0
2388,9070001040708,新規,0,2023-08-03,2023-08-03,株式会社フィールドアラウンド,,株式会社,群馬県,高崎市,下小塙町１３５６番地５,,10,202,3700076,,,,,,,2023-08-03,1,,,,,フィールドアラウンド,0
2401,9110001037724,新規,0,2023-08-03,2023-08-03,コーヨーベース株式会社,,株式会社,新潟県,新潟市東区,向陽２丁目８番地１５,,15,102,9500011,,,,,,,2023-08-03,1,,,,,コーヨーベース,0
2410,9120001256975,新規,0,2023-08-03,2023-08-03,株式会社ＴＩＤＹ,,株式会社,大阪府,大阪市中央区,天満橋京町２番６号天満橋八千代ビル別館７階Ａ号室,,27,128,5400032,,,,,,,2023-08-03,1,,,,,タイディ,0
2411,9120001256983,新規,0,2023-08-03,2023-08-03,株式会社ＵＫ,,株式会社,大阪府,大阪市中央区,東心斎橋２丁目３番１３号日宝スターライトビル１階１号,,27,128,5420083,,,,,,,2023-08-03,1,,,,,ユーケー,0
2415,9120101067967,新規,0,2023-08-03,2023-08-03,晴凪電工株式会社,,株式会社,大阪府,堺市北区,北花田町４丁１１４番地２,,27,146,5918002,,,,,,,2023-08-03,1,,,,,セナデンコウ,0
2416,9120101067983,新規,0,2023-08-03,2023-08-03,株式会社ＭＡＫＩＴ,,株式会社,大阪府,堺市堺区,中瓦町１丁４－２６堺東ＰＳビル２Ｆ,,27,141,5900077,,,,,,,2023-08-03,1,,,,,メイキット,0
2420,9122001037199,新規,0,2023-08-03,2023-08-03,株式会社ＫＡＫＩＺＵＫＡ,,株式会社,大阪府,東大阪市,長堂１丁目２－１６Ｒｅ：ＺＯＮＥ布施０１－４０９号,,27,227,5770056,,,,,,,2023-08-03,1,,,,,カキヅカ,0
2421,9122003002639,新規,0,2023-08-03,2023-08-03,合同会社友陽,,合同会社,大阪府,東大阪市,高井田西５丁目３番１９号リーリエ２０２号,,27,227,5770067,,,,,,,2023-08-03,1,,,,,ユウヒ,0
2423,9130001074856,新規,0,2023-08-03,2023-08-03,株式会社ＬＥＣＳＨＩＮ,,株式会社,京都府,京都市山科区,西野楳本町１３１番地７,,26,110,6078358,,,,,,,2023-08-03,1,,,,,レクシン,0
2424,9130001074872,新規,0,2023-08-03,2023-08-03,株式会社Ｋ５,,株式会社,京都府,京都市右京区,西院高山寺町１２番地５,,26,108,6160000,,,,,,,2023-08-03,1,,,,,ケイファイブ,0
2431,9140001131061,新規,0,2023-08-03,2023-08-03,株式会社ＦＩＶＥ　ＳＴＡＲ,,株式会社,兵庫県,姫路市,御立中５丁目１０番８号,,28,201,6700073,,,,,,,2023-08-03,1,,,,,ファイブスター,0
2432,9140001131086,新規,0,2023-08-03,2023-08-03,株式会社はく,,株式会社,兵庫県,神戸市中央区,磯辺通１丁目１番１８号カサベラ国際プラザビル７０７号室,,28,110,6510084,,,,,,,2023-08-03,1,,,,,ハク,0
2433,9140001131111,新規,0,2023-08-03,2023-08-03,エルサイバー株式会社,,株式会社,兵庫県,神戸市中央区,北長狭通３丁目３番９号潮海ビル４Ｆ,,28,110,6500012,,,,,,,2023-08-03,1,,,,,エルサイバー,0
2434,9140001131128,新規,0,2023-08-03,2023-08-03,株式会社上床工業,,株式会社,兵庫県,尼崎市,南武庫之荘５丁目２２番２０号,,28,202,6610033,,,,,,,2023-08-03,1,,,,,,0
2435,9140003019379,新規,0,2023-08-03,2023-08-03,合同会社ＲＹＯ,,合同会社,兵庫県,明石市,藤江１８２９番地の８,,28,203,6730044,,,,,,,2023-08-03,1,,,,,アールワイオー,0
2441,9150001026582,新規,0,2023-08-03,2023-08-03,富山小水力発電株式会社,,株式会社,奈良県,吉野郡下市町,大字新住１１１８番地,,29,443,6380045,,,,,,,2023-08-03,1,,,,,トヤマショウスイリョクハツデン,0
2444,9160003002944,新規,0,2023-08-03,2023-08-03,あーりー合同会社,,合同会社,滋賀県,東近江市,東沖野２丁目２番８号メゾン・ド・沖野３０３号室,,25,213,5270033,,,,,,,2023-08-03,1,,,,,アーリー,0
2446,9170001017712,新規,0,2023-08-03,2023-08-03,株式会社Ｇ．Ａｔｔｒａｃｔｉｏｎ,,株式会社,和歌山県,岩出市,堀口４４番地の１７,,30,209,6496206,,,,,,,2023-08-03,1,,,,,ジーアトラクション,0
2454,9180001157425,新規,0,2023-08-03,2023-08-03,株式会社ＣＫＥ,,株式会社,愛知県,名古屋市北区,浪打町１丁目１０番地の１,,23,103,4620041,,,,,,,2023-08-03,1,,,,,シーケーイー,0
2457,9180003025522,新規,0,2023-08-03,2023-08-03,合同会社ＫＯＵＦＥＳ,,合同会社,愛知県,名古屋市中川区,大当郎３丁目２２０３番地の２,,23,110,4540943,,,,,,,2023-08-03,1,,,,,コウフェス,0
2459,9180005020315,新規,0,2023-08-03,2023-08-03,一般社団法人日本医学投資科専門医育成機構,,その他の設立登記法人,愛知県,名古屋市中区,栄５丁目１５番１７号名古屋再生医療幹細胞免疫センタービル６階,,23,106,4600008,,,,,,,2023-08-03,1,,,,,ニホンイガクトウシカセンモンイイクセイキコウ,0
2465,9200001041551,新規,0,2023-08-03,2023-08-03,株式会社ＭＹコーポレーション,,株式会社,岐阜県,養老郡養老町,柏尾４０２番地,,21,341,5031253,,,,,,,2023-08-03,1,,,,,エムワイコーポレーション,0
2467,9210001019407,新規,0,2023-08-03,2023-08-03,押田興産株式会社,,株式会社,福井県,越前市,平出３丁目４番１号,,18,209,9150803,,,,,,,2023-08-03,1,,,,,オシダコウサン,0
2468,9210003001676,新規,0,2023-08-03,2023-08-03,合同会社箱庭ラボ,,合同会社,福井県,福井市,問屋町３丁目１１１番地,,18,201,9188231,,,,,,,2023-08-03,1,,,,,ハコニワラボ,0
2479,9240001061892,新規,0,2023-08-03,2023-08-03,ｒｅＬａｄｙ株式会社,,株式会社,広島県,広島市安佐南区,古市１丁目３６番１４－９０１号,,34,105,7310123,,,,,,,2023-08-03,1,,,,,リレディ,0
2480,9240001061918,新規,0,2023-08-03,2023-08-03,Ｓｋｙ　Ｓｔｅｐ株式会社,,株式会社,広島県,府中市,目崎町４６５番地１,,34,208,7260033,,,,,,,2023-08-03,1,,,,,,0
2486,9270003001547,新規,0,2023-08-03,2023-08-03,合同会社ＲＥ,,合同会社,鳥取県,米子市,米原８丁目８番４８号,,31,202,6830804,,,,,,,2023-08-03,1,,,,,アールイー,0
2491,9290001102493,新規,0,2023-08-03,2023-08-03,株式会社スペリオール,,株式会社,福岡県,飯塚市,川津１９４番地２,,40,205,8200067,,,,,,,2023-08-03,1,,,,,スペリオール,0
2492,9290001102502,新規,0,2023-08-03,2023-08-03,株式会社プレコムマネージメント,,株式会社,福岡県,福岡市博多区,博多駅南１丁目１５番２８号,,40,132,8120016,,,,,,,2023-08-03,1,,,,,プレコムマネージメント,0
2497,9290801029754,新規,0,2023-08-03,2023-08-03,株式会社ななつば,,株式会社,福岡県,北九州市八幡西区,南王子町２－３３－１２０８,,40,109,8060038,,,,,,,2023-08-03,1,,,,,ナナツバ,0
2501,9300001013409,新規,0,2023-08-03,2023-08-03,株式会社シンワ管工,,株式会社,佐賀県,佐賀市,富士町大字内野４９番地１２,,41,201,8400514,,,,,,,2023-08-03,1,,,,,シンワカンコウ,0
2504,9340001025763,新規,0,2023-08-03,2023-08-03,株式会社南興商事,,株式会社,鹿児島県,鹿児島市,明和１丁目９番１２号,,46,201,8900024,,,,,,,2023-08-03,1,,,,,ナンコウショウジ,0
2506,9370001050247,新規,0,2023-08-03,2023-08-03,株式会社ＦｅＮｎｅｃ,,株式会社,宮城県,仙台市太白区,長町南３丁目３８番１０号レジデンスリバーサイドＡ棟１０３,,04,104,9820012,,,,,,,2023-08-03,1,,,,,フェネック,0
2520,9390003002129,新規,0,2023-08-03,2023-08-03,合同会社ウッドラック,,合同会社,山形県,東田川郡庄内町,余目字猿田８０番地６,,06,428,9997781,,,,,,,2023-08-03,1,,,,,ウッドラック,0
2524,9420001018346,新規,0,2023-08-03,2023-08-03,株式会社齊匠,,株式会社,青森県,弘前市,大字一野渡字岡本２９番地３,,02,202,0368134,,,,,,,2023-08-03,1,,,,,サイショウ,0
2529,9430003015299,新規,0,2023-08-03,2023-08-03,合同会社ＨＡＲＥ晴れ,,合同会社,北海道,札幌市中央区,大通東１丁目２番地,,01,101,0600041,,,,,,,2023-08-03,1,,,,,ハレバレ,0
2530,9430003015324,新規,0,2023-08-03,2023-08-03,合同会社ｂｒｉｌｏ,,合同会社,北海道,札幌市手稲区,手稲前田５５９番地１１,,01,109,0060829,,,,,,,2023-08-03,1,,,,,ブリーロ,0
2535,9470001019728,新規,0,2023-08-03,2023-08-03,海洋テック株式会社,,株式会社,香川県,高松市,屋島東町５１４番地１６,,37,201,7610111,,,,,,,2023-08-03,1,,,,,カイヨウテック,0
2536,9490001010544,新規,0,2023-08-03,2023-08-03,株式会社さとわ,,株式会社,高知県,高知市,中宝永町５番６号,,39,201,7800817,,,,,,,2023-08-03,1,,,,,サトワ,0
2539,9700150118736,新規,0,2023-08-03,2023-08-03,ｓｈｅｎｚｈｅｎｓｈｉｔａｉｋａｉｓｅｗａｎｊｕｙｏｕｘｉａｎｇｏｎｇｓｉ,,外国会社等,,,,,,,,ｌｏｎｇｈｕａｊｉｅｄａｏｙｏｕｓｏｎｇｓｈｅｑｕ　ｙｏｕｓｏｎｇｌｕ７４ｈａｏｈｅｎｇｌｅｄａｓｈａ１２２０ｌｏｎｇｈｕａｑｕ　ｓｈｅｎｚｈｅｎｓｈｉ，ＣＮ,,,,,,2023-08-03,1,,,,,シンセンシタイカイセボウグユウゲンコウシ,0
2540,9700150118744,新規,0,2023-08-03,2023-08-03,Ｇｕａｎｇ　Ｚｈｏｕ　Ｙｕ　Ｙａ　Ｍａｏ　Ｙｉ　Ｙｏｕ　Ｘｉａｎ　Ｇｏｎｇ　Ｓｉ,,外国会社等,,,,,,,,Ｇｕａｎｇ　Ｚｈｏｕ　Ｓｈｉ　Ｚｅｎｇ　Ｃｈｅｎｇ　Ｑｕ　Ｌｉ　Ｃｈｅｎｇ　Ｊｉｅ　Ｇａｎｇ　Ｑｉａｎ　Ｘｉ　Ｌｕ　２５　Ｈａｏ　１０２　Ｆａｎｇ　Ｇｕａｎｇｚｈｏｕ　Ｇｕａｎｇｄｏｎｇ　５１１３００　ＣＮ,,,,,,2023-08-03,1,,,,,グゥアンゾォウユヤマオイヨウシェンゴンスー,0
2541,9700150118752,新規,0,2023-08-03,2023-08-03,彦根市北部土地改良区,,その他,滋賀県,彦根市,松原町字大黒３７５８番地,,25,202,5220002,,,,,,,2023-08-03,1,,,,,ヒコネシホクブトチカイリヨウク,0
2542,9700150118760,新規,0,2023-08-03,2023-08-03,Ｓｈｅｎｚｈｅｎｓｈｉ　Ｄｅｌａｍｕｄｉａｎｚｉｓｈａｎｏｗｕｙｏｕｘｉａｎｇｏｎｇｓｉ,,外国会社等,,,,,,,,Ｃｈｉｎａ，ｇｕａｎｇｄｏｎｇｓｈｅｎｇ，ｓｈｅｎｚｈｅｎｓｈｉｌｏｎｇｈｕａｑｕｌｏｎｇｈｕａｊｉｅｄａｏｑｉｎｇｈｕａｓｈｅｑｕｑｉｎｇｌｏｎｇｌｕ６ｈａｏｇａｎｇｚｈｉｌｏｎｇｋｅｊｉｙｕａｎｓｈａｎｇｗｕｚｈｏｎｇｘｉｎＡ、ＢｄｏｎｇＡｄｏｎｇ４ｃｅｎｇ４０１ｓｈｉ,,,,,,2023-08-03,1,,,,,シンセンシトクラムデンシショウムユウゲンコウシ,0
