sequenceNumber,corporateNumber,process,correct,updateDate,changeDate,name,nameImageId,kind,prefectureName,cityName,streetNumber,addressImageId,prefectureCode,cityCode,postCode,addressOutside,addressOutsideImageId,closeDate,closeCause,successorCorporateNumber,changeCause,assignmentDate,latest,enName,enPrefectureName,enCityName,enAddressOutside,furigana,hihyoji
6,1010001197214,登記記録の閉鎖等,0,2026-01-05,2025-12-15,ＪＰＡ第１６２号株式会社,,株式会社,東京都,千代田区,霞が関３丁目２番１号,,13,101,1000013,,,2025-12-15,清算の結了等,,,2018-12-19,1,,,,,ジェイピーエーダイヒャクロクジュウニゴウ,0
10,1010001251094,登記記録の閉鎖等,0,2026-01-05,2025-11-12,株式会社Ｎｏ．２,,株式会社,東京都,千代田区,丸の内３丁目２－２丸の内二重橋ビル２Ｆ,,13,101,1000005,,,2025-11-12,清算の結了等,,,2025-01-08,1,,,,,ナンバーツー,0
16,1010003031032,登記記録の閉鎖等,0,2026-01-05,2025-12-12,トルナーレオフィス合同会社,,合同会社,東京都,千代田区,内神田１丁目３番７号４０１あすな会計事務所内,,13,101,1010047,,,2025-12-12,清算の結了等,,,2019-11-13,1,,,,,トルナーレオフィス,0
17,1010003039067,登記記録の閉鎖等,0,2026-01-05,2025-12-12,Ｌｅｇｅｎｄ　Ｏｎｅ合同会社,,合同会社,東京都,千代田区,丸の内２丁目２番３号丸の内仲通りビル６階,,13,101,1000005,,,2025-12-12,清算の結了等,,,2022-11-10,1,,,,,レジェンドワン,0
36,1010802008998,登記記録の閉鎖等,0,2026-01-05,2025-12-19,タツミ建装有限会社,,有限会社,東京都,大田区,大森本町１丁目６番２－９０７号,,13,111,1430011,,,2025-12-19,清算の結了等,,,2015-10-05,1,,,,,タツミケンソウ,0
54,1011601015995,登記記録の閉鎖等,0,2026-01-05,2025-12-25,株式会社ブリエ,,株式会社,東京都,練馬区,豊玉中３丁目３番３号ドエル豊玉２０２,,13,120,1760013,,,2025-12-25,清算の結了等,,,2015-10-05,1,,,,,ブリエ,0
72,1021001062571,登記記録の閉鎖等,0,2026-01-05,2025-12-11,株式会社プロスペリティ,,株式会社,神奈川県,藤沢市,藤沢１０３１番地１－４０６号,,14,205,2510052,,,2025-12-11,清算の結了等,,,2017-07-12,1,,,,,プロスペリティ,0
90,1040002030197,登記記録の閉鎖等,0,2026-01-05,2025-12-08,有限会社マツドウオート,,有限会社,千葉県,鎌ケ谷市,軽井沢２１４９番地２,,12,224,2730131,,,2025-12-08,清算の結了等,,,2015-10-05,1,,,,,マツドウオート,0
97,1070005009244,登記記録の閉鎖等,0,2026-01-05,2025-12-25,特定非営利活動法人瑞光会,,その他の設立登記法人,群馬県,太田市,矢田堀町３８８番地,,10,205,3730016,,,2025-12-25,清算の結了等,,,2016-10-25,1,,,,,ズイコウカイ,0
98,1080101022042,登記記録の閉鎖等,0,2026-01-05,2025-12-19,株式会社ＮａｇｉＴｅｃｈ,,株式会社,静岡県,伊豆の国市,長者原１４４５番地の４８１,,22,225,4102312,,,2025-12-19,清算の結了等,,,2020-09-29,1,,,,,ナギテック,0
99,1080105003204,登記記録の閉鎖等,0,2026-01-05,2025-12-24,学校法人神和学園,,その他の設立登記法人,静岡県,富士市,平垣本町６番１８号,,22,210,4160913,,,2025-12-24,清算の結了等,,,2015-10-05,1,,,,,シンワガクエン,0
101,1080402003451,登記記録の閉鎖等,0,2026-01-05,2025-12-22,有限会社三糧商会,,有限会社,静岡県,浜松市中央区,和合町２２０番地の１１４１,,22,138,4338125,,,2025-12-22,清算の結了等,,,2015-10-05,1,,,,,サンリョウショウカイ,0
104,1110001020506,登記記録の閉鎖等,0,2026-01-05,2025-12-24,株式会社コラボレーション,,株式会社,新潟県,上越市,五智１丁目１８番２２号,,15,222,9420081,,,2025-12-24,清算の結了等,,,2015-10-05,1,,,,,コラボレーション,0
106,1110002011099,登記記録の閉鎖等,0,2026-01-05,2025-12-25,有限会社込山電機,,有限会社,新潟県,新潟市西蒲区,曽根１４８１番地１,,15,108,9590422,,,2025-12-25,清算の結了等,,,2015-10-05,1,,,,,コミヤマデンキ,0
125,1122003000947,登記記録の閉鎖等,0,2026-01-05,2025-12-18,ＡＣＴ経営コンサルティング合同会社,,合同会社,大阪府,八尾市,北久宝寺１丁目４番１３号久宝寺グリーンマンション２０６号,,27,212,5810071,,,2025-12-18,清算の結了等,,,2015-10-05,1,,,,,アクトケイエイコンサルティング,0
143,1180003022485,登記記録の閉鎖等,0,2026-01-05,2025-12-19,アイル合同会社,,合同会社,愛知県,愛西市,森川町東柳３２６２－１,,23,232,4960943,,,2025-12-19,清算の結了等,,,2021-05-12,1,,,,,アイル,0
149,1180301030751,登記記録の閉鎖等,0,2026-01-05,2025-12-22,ＮＴコーポレーション株式会社,,株式会社,愛知県,刈谷市,西境町花池６３番地２,,23,210,4480006,,,2025-12-22,清算の結了等,,,2017-09-08,1,,,,,エヌティコーポレーション,0
152,1200001019539,登記記録の閉鎖等,0,2026-01-05,2025-12-23,株式会社プラスアルファ,,株式会社,岐阜県,関市,下有知１７８５番地,,21,205,5013217,,,2025-12-23,清算の結了等,,,2015-10-05,1,,,,,プラスアルファ,0
156,1200002019091,登記記録の閉鎖等,0,2026-01-05,2025-12-22,有限会社双和刃物製作所,,有限会社,岐阜県,関市,西旭ケ丘５番１７号,,21,205,5013828,,,2025-12-22,清算の結了等,,,2015-10-05,1,,,,,フタワハモノセイサクショ,0
160,1240001035953,登記記録の閉鎖等,0,2026-01-05,2025-12-24,トラスト・アポテック株式会社,,株式会社,広島県,福山市,沖野上町３丁目１３番２３号,,34,207,7200825,,,2025-12-24,清算の結了等,,,2015-10-05,1,,,,,トラストアポテック,0
168,1270002006926,登記記録の閉鎖等,0,2026-01-05,2025-12-25,有限会社ベアー工業,,有限会社,鳥取県,米子市,榎原１２８番地１０,,31,202,6830257,,,2025-12-25,清算の結了等,,,2015-10-05,1,,,,,,0
172,1290001081084,登記記録の閉鎖等,0,2026-01-05,2025-12-15,甑工業株式会社,,株式会社,福岡県,福津市,中央５丁目２５番１３号,,40,224,8113217,,,2025-12-15,清算の結了等,,,2018-04-09,1,,,,,コシキコウギョウ,0
182,1290802005308,登記記録の閉鎖等,0,2026-01-05,2025-12-26,有限会社樋口土建,00094397,有限会社,福岡県,北九州市戸畑区,千防３丁目２１番１２号,,40,105,8040081,,,2025-12-26,清算の結了等,,,2015-10-05,1,,,,,ヒグチドケン,0
190,1340002012677,登記記録の閉鎖等,0,2026-01-05,2025-12-24,有限会社ゆみ,,有限会社,鹿児島県,日置市,東市来町伊作田１８２３番地,,46,216,8992203,,,2025-12-24,清算の結了等,,,2015-10-05,1,,,,,ユミ,0
196,1360001009937,登記記録の閉鎖等,0,2026-01-05,2025-12-04,ＡＲＣＨＩ・ＤＯ株式会社,,株式会社,沖縄県,南城市,大里字稲嶺９３３番地１、１Ｆ,,47,215,9011204,,,2025-12-04,合併による解散等,6360001009668,令和７年１２月１日沖縄県南城市大里字稲嶺９３３番地１、２Ｆ株式会社謝花組（6360001009668）に合併し解散,2015-10-05,1,,,,,アーキドゥ,0
201,1380005004247,登記記録の閉鎖等,0,2026-01-05,2025-12-23,医療法人しかの眼科,,その他の設立登記法人,福島県,二本松市,根崎１丁目１０７番地２,,07,210,9640903,,,2025-12-23,清算の結了等,,,2015-10-05,1,,,,,シカノガンカ,0
205,1430002005250,登記記録の閉鎖等,0,2026-01-05,2025-12-24,有限会社我忘,,有限会社,北海道,札幌市手稲区,手稲本町一条２丁目１番３号,,01,109,0060021,,,2025-12-24,清算の結了等,,,2015-10-05,1,,,,,ガボウ,0
208,1460005000064,登記記録の閉鎖等,0,2026-01-05,2025-12-05,天理教久壽里分教会,,その他の設立登記法人,北海道,釧路市,浦見３丁目４番９号,,01,206,0850835,,,2025-12-05,合併による解散等,9160005002760,令和７年１２月５日滋賀県甲賀市水口町新町一丁目１番３５号天理教水口大教会（9160005002760）に合併し解散,2015-10-05,1,,,,,,0
209,1470001017912,登記記録の閉鎖等,0,2026-01-05,2025-12-25,株式会社ＡｉＭＥＳ,,株式会社,香川県,高松市,香西北町４８９番地１,,37,201,7618011,,,2025-12-25,清算の結了等,,,2020-02-28,1,,,,,アイメス,0
210,1470002001758,登記記録の閉鎖等,0,2026-01-05,2025-12-25,有限会社小原木工所,,有限会社,香川県,高松市,木太町２３６４番地１４,,37,201,7600080,,,2025-12-25,清算の結了等,,,2015-10-05,1,,,,,,0
213,1500002002141,登記記録の閉鎖等,0,2026-01-05,2025-12-26,有限会社川崎鉄筋工業,,有限会社,愛媛県,松山市,馬木町９６５番地１,,38,201,7992655,,,2025-12-26,清算の結了等,,,2015-10-05,1,,,,,カワサキテッキンコウギョウ,0
221,2010001192957,登記記録の閉鎖等,0,2026-01-05,2025-12-15,ＪＰＡ第１３３号株式会社,,株式会社,東京都,千代田区,霞が関３丁目２番１号,,13,101,1000013,,,2025-12-15,清算の結了等,,,2018-07-03,1,,,,,ジェイピーエーダイヒャクサンジュウサンゴウ,0
223,2010001221105,登記記録の閉鎖等,0,2026-01-05,2025-12-09,株式会社スノーラビット,,株式会社,東京都,中央区,銀座１丁目２２番１１号銀座大竹ビジデンス２階,,13,102,1040061,,,2025-12-09,清算の結了等,,,2021-09-13,1,,,,,スノーラビット,0
224,2010001226954,登記記録の閉鎖等,0,2026-01-05,2025-12-10,株式会社いくら,,株式会社,東京都,中央区,銀座１丁目２８番１７－３０１号,,13,102,1040061,,,2025-12-10,清算の結了等,,,2022-05-27,1,,,,,イクラ,0
229,2010002049058,登記記録の閉鎖等,0,2026-01-05,2025-12-24,有限会社エムアンドエイ・ソリューション,,有限会社,東京都,豊島区,巣鴨５丁目１５番８－６０１号,,13,116,1700002,,,2025-12-24,清算の結了等,,,2015-10-05,1,,,,,エムアンドエイソリューション,0
233,2010102000770,登記記録の閉鎖等,0,2026-01-05,2025-12-26,有限会社井筒石材工業,,有限会社,東京都,八王子市,東浅川町６７４番地２６,,13,201,1930834,,,2025-12-26,清算の結了等,,,2015-10-05,1,,,,,イヅツセキザイコウギョウ,0
237,2010401123891,登記記録の閉鎖等,0,2026-01-05,2025-12-08,株式会社エデュテイメントワークス,,株式会社,東京都,港区,虎ノ門１丁目１番３号磯村ビル８Ｆ,,13,103,1050001,,,2025-12-08,清算の結了等,,,2016-03-25,1,,,,,エデュテイメントワークス,0
248,2010403009453,登記記録の閉鎖等,0,2026-01-05,2025-12-15,合同会社ＣＬＦ第２６号,,合同会社,東京都,千代田区,霞が関３丁目２番１号,,13,101,1000013,,,2025-12-15,清算の結了等,,,2015-10-05,1,,,,,シーエルエフダイニジュウロクゴウ,0
273,2011701012875,登記記録の閉鎖等,0,2026-01-05,2025-12-19,株式会社佐々木鉄筋,,株式会社,東京都,江戸川区,東葛西４丁目２１番１６号,,13,123,1340084,,,2025-12-19,清算の結了等,,,2015-10-05,1,,,,,ササキテッキン,0
284,2013201000682,登記記録の閉鎖等,0,2026-01-05,2025-12-19,岩田保温工業株式会社,,株式会社,東京都,目黒区,目黒本町４丁目７番１６号,,13,110,1520002,,,2025-12-19,清算の結了等,,,2015-10-05,1,,,,,イワタホオンコウギョウ,0
292,2013401001464,登記記録の閉鎖等,0,2026-01-05,2025-12-24,西東京タイヤ販売株式会社,,株式会社,東京都,多摩市,豊ヶ丘２丁目１１番地１－４０１,,13,224,2060031,,,2025-12-24,清算の結了等,,,2015-10-05,1,,,,,ニシトウキョウタイヤハンバイ,0
293,2020001034480,登記記録の閉鎖等,0,2026-01-05,2025-12-24,株式会社ピーブイテック,,株式会社,神奈川県,横浜市鶴見区,鶴見中央１丁目２４番１０号,,14,101,2300051,,,2025-12-24,清算の結了等,,,2015-10-05,1,,,,,ピーブイテック,0
303,2030001098590,登記記録の閉鎖等,0,2026-01-05,2025-12-23,株式会社大岩トラスト,,株式会社,埼玉県,北本市,本町４丁目４７番５号,,11,233,3640033,,,2025-12-23,清算の結了等,,,2015-10-05,1,,,,,オオイワトラスト,0
313,2040001035072,登記記録の閉鎖等,0,2026-01-05,2025-12-08,株式会社小川モータース,,株式会社,千葉県,松戸市,竹ケ花１４８番地,,12,207,2710072,,,2025-12-08,清算の結了等,,,2015-10-05,1,,,,,オガワモータース,0
314,2040001040907,登記記録の閉鎖等,0,2026-01-05,2025-12-08,株式会社ＨＫプロジェクト,,株式会社,千葉県,松戸市,本町１２番地の１３,,12,207,2710091,,,2025-12-08,清算の結了等,,,2015-10-05,1,,,,,エイチケイプロジェクト,0
340,2080101009781,登記記録の閉鎖等,0,2026-01-05,2025-12-25,丸和紙工株式会社,,株式会社,静岡県,富士市,伝法２６６２番地の１,,22,210,4170061,,,2025-12-25,清算の結了等,,,2015-10-05,1,,,,,マルワシコウ,0
342,2080103002165,登記記録の閉鎖等,0,2026-01-05,2025-12-25,合同会社Ｐｉｎｏ,,合同会社,静岡県,富士市,本町１４番６号森ビル３Ｆ,,22,210,4160914,,,2025-12-25,清算の結了等,,,2020-06-09,1,,,,,ピノ,0
354,2110002005901,登記記録の閉鎖等,0,2026-01-05,2025-12-23,有限会社北越電気商会,,有限会社,新潟県,新潟市中央区,女池神明１丁目８番地２,,15,103,9500943,,,2025-12-23,清算の結了等,,,2015-10-05,1,,,,,ホクエツデンキショウカイ,0
364,2120002067503,登記記録の閉鎖等,0,2026-01-05,2025-12-24,中萬・フードサービス有限会社,,有限会社,大阪府,大阪市旭区,森小路１丁目９番９号,,27,117,5350013,,,2025-12-24,清算の結了等,,,2015-10-05,1,,,,,ナカマンフードサービス,0
367,2120003027241,登記記録の閉鎖等,0,2026-01-05,2025-12-12,合同会社ｗｅａｌｐｓ,,合同会社,大阪府,大阪市中央区,淡路町３丁目６番１２号ローズプラザ６０４号,,27,128,5410047,,,2025-12-12,清算の結了等,,,2024-08-06,1,,,,,ウェルプス,0
368,2120101059194,登記記録の閉鎖等,0,2026-01-05,2025-12-23,株式会社シャム,,株式会社,大阪府,岸和田市,南上町２丁目１０番５号,,27,202,5960078,,,2025-12-23,清算の結了等,,,2018-12-21,1,,,,,シャム,0
381,2140001123544,登記記録の閉鎖等,0,2026-01-05,2025-12-22,株式会社ＴＵ,,株式会社,兵庫県,神戸市中央区,下山手通１丁目３番６号Ｖメルヘンビル６階６－Ｂ号室,,28,110,6500011,,,2025-12-22,清算の結了等,,,2021-10-19,1,,,,,ティーユー,0
390,2180001149271,登記記録の閉鎖等,0,2026-01-05,2025-12-25,株式会社ＳＬＣ,,株式会社,愛知県,春日井市,勝川町６丁目１５１番地ルネッサンスシティ勝川２番街１０２,,23,206,4860945,,,2025-12-25,清算の結了等,,,2021-12-23,1,,,,,エスエルシー,0
396,2180002038473,登記記録の閉鎖等,0,2026-01-05,2025-12-25,有限会社ズー・コーポレーション,,有限会社,愛知県,日進市,藤塚３丁目５６６番地,,23,230,4700117,,,2025-12-25,清算の結了等,,,2015-10-05,1,,,,,ズーコーポレーション,0
398,2180002088741,登記記録の閉鎖等,0,2026-01-05,2025-12-25,有限会社レイセック．,,有限会社,愛知県,知多市,八幡字笹廻間１２番地の８３３,,23,224,4780001,,,2025-12-25,清算の結了等,,,2015-10-05,1,,,,,,0
402,2180301018366,登記記録の閉鎖等,0,2026-01-05,2025-12-22,株式会社ジーアンドアール・カトー,,株式会社,愛知県,豊田市,若林東町上り戸３１番地,,23,211,4730914,,,2025-12-22,清算の結了等,,,2015-10-05,1,,,,,ジーアンドアールカトー,0
403,2180301039098,登記記録の閉鎖等,0,2026-01-05,2025-12-22,大真陸運株式会社,,株式会社,愛知県,西尾市,平坂町坂下７番地,,23,213,4440305,,,2025-12-22,清算の結了等,,,2024-10-03,1,,,,,ダイシンリクウン,0
404,2180303005560,登記記録の閉鎖等,0,2026-01-05,2025-12-22,合同会社コハナスタッド,,合同会社,愛知県,刈谷市,御幸町１丁目２０７番地シティライフ刈谷３０２号室,,23,210,4480821,,,2025-12-22,清算の結了等,,,2023-01-12,1,,,,,コハナスタッド,0
410,2200002014406,登記記録の閉鎖等,0,2026-01-05,2025-12-24,有限会社ＴＹＣ,,有限会社,岐阜県,大垣市,中曽根町３２番地１,,21,202,5030986,,,2025-12-24,清算の結了等,,,2015-10-05,1,,,,,ティーワイシー,0
411,2200002027630,登記記録の閉鎖等,0,2026-01-05,2025-12-19,トモシゲ工業有限会社,,有限会社,岐阜県,可児郡御嵩町,上恵土７７６番地４,,21,521,5050126,,,2025-12-19,清算の結了等,,,2015-10-05,1,,,,,トモシゲコウギョウ,0
418,2240001061387,登記記録の閉鎖等,0,2026-01-05,2025-12-26,株式会社タケダ,,株式会社,広島県,広島市西区,南観音８丁目１３番３１号アルカーサル谷本４０２,,34,104,7330035,,,2025-12-26,清算の結了等,,,2023-04-18,1,,,,,タケダ,0
419,2240002041371,登記記録の閉鎖等,0,2026-01-05,2025-12-22,有限会社瀬戸活魚センター,,有限会社,広島県,福山市,田尻町４２８９番地,,34,207,7200203,,,2025-12-22,清算の結了等,,,2015-10-05,1,,,,,セトカツギョセンター,0
423,2290001048396,登記記録の閉鎖等,0,2026-01-05,2025-12-15,株式会社猪口工業,,株式会社,福岡県,久留米市,宮ノ陣町八丁島２３２番地の１,,40,203,8390805,,,2025-12-15,清算の結了等,,,2015-10-05,1,,,,,イノクチコウギョウ,0
453,2490001008396,登記記録の閉鎖等,0,2026-01-05,2025-12-26,マルサ花卉農園株式会社,,株式会社,高知県,土佐市,塚地２１２番地,,39,205,7811153,,,2025-12-26,清算の結了等,,,2016-07-06,1,,,,,,0
454,2490005002511,登記記録の閉鎖等,0,2026-01-05,2025-11-05,日本基督改革派清水教会,,その他の設立登記法人,高知県,土佐清水市,元町５番１８号,,39,209,7870304,,,2025-11-05,合併による解散等,6490005002722,令和７年１１月５日高知県宿毛市中央二丁目３番３号日本基督改革派宿毛教会（6490005002722）に合併し解散,2015-10-05,1,,,,,,0
461,3010001176083,登記記録の閉鎖等,0,2026-01-05,2025-12-10,株式会社築地三京,,株式会社,東京都,中央区,築地６丁目２６番１,,13,102,1040045,,,2025-12-10,清算の結了等,,,2016-06-02,1,,,,,ツキジサンキョウ,0
462,3010001192956,登記記録の閉鎖等,0,2026-01-05,2025-12-15,ＪＰＡ第１３２号株式会社,,株式会社,東京都,千代田区,霞が関３丁目２番１号,,13,101,1000013,,,2025-12-15,清算の結了等,,,2018-07-03,1,,,,,ジェイピーエーダイヒャクサンジュウニゴウ,0
463,3010001222952,登記記録の閉鎖等,0,2026-01-05,2025-12-08,Ｄｅ　Ｂｅｅｒｓ株式会社,,株式会社,東京都,港区,虎ノ門４丁目１番１号神谷町トラストタワー２２階,,13,103,1050001,,,2025-12-08,清算の結了等,,,2021-12-03,1,,,,,デビアス,0
485,3010403028618,登記記録の閉鎖等,0,2026-01-05,2025-12-08,合同会社明日学舎,,合同会社,東京都,港区,北青山１丁目３番１号,,13,103,1070061,,,2025-12-08,清算の結了等,,,2022-10-04,1,,,,,アシタマナビヤ,0
487,3010405016257,登記記録の閉鎖等,0,2026-01-05,2025-12-10,奈良一般社団法人,,その他の設立登記法人,東京都,港区,西新橋１丁目１番１号ＥＰコンサルティングサービス内,,13,103,1050003,,,2025-12-10,清算の結了等,,,2017-11-27,1,,,,,ナラ,0
497,3010801005714,登記記録の閉鎖等,0,2026-01-05,2025-12-19,株式会社ジャンピエール,,株式会社,東京都,大田区,大森北１丁目５番５号,,13,111,1430016,,,2025-12-19,清算の結了等,,,2015-10-05,1,,,,,ジャンピエール,0
501,3010903006569,登記記録の閉鎖等,0,2026-01-05,2025-12-22,合同会社ＴＡ　ＴＲＡＤＩＮＧ,,合同会社,東京都,世田谷区,用賀３丁目２５番１８号グランフォート用賀１０６,,13,112,1580097,,,2025-12-22,清算の結了等,,,2021-06-02,1,,,,,ティーエートレーディング,0
502,3010905001898,登記記録の閉鎖等,0,2026-01-05,2025-12-25,特定非営利活動法人Ｆａｓｈｉｏｎ　Ｆｌｏｗ　Ｒｅ－Ｕｎｉｏｎ,,その他の設立登記法人,東京都,世田谷区,太子堂１丁目１番地１１－１０２,,13,112,1540004,,,2025-12-25,清算の結了等,,,2015-10-05,1,,,,,ファッションフロウリユニオン,0
503,3011001025288,登記記録の閉鎖等,0,2026-01-05,2025-12-24,株式会社ルバーブ,,株式会社,京都府,京都市中京区,間之町通御池下る綿屋町５２６番地１－３０４,,26,104,6048181,,,2025-12-24,清算の結了等,,,2015-10-05,1,,,,,ルバーブ,0
527,3020001135328,登記記録の閉鎖等,0,2026-01-05,2025-12-19,株式会社ブライトプラス,,株式会社,東京都,大田区,北千束２丁目３６番２０号朝日北千束マンション２０１,,13,111,1450062,,,2025-12-19,清算の結了等,,,2020-03-16,1,,,,,ブライトプラス,0
538,3020005016689,登記記録の閉鎖等,0,2026-01-05,2025-12-23,ＳＡＴ１一般社団法人,,その他の設立登記法人,神奈川県,川崎市川崎区,東田町２番１９号エステムプラザ川崎９０１号室,,14,131,2100005,,,2025-12-23,清算の結了等,,,2025-01-09,1,,,,,エスエーティーワン,0
554,3040001125285,登記記録の閉鎖等,0,2026-01-05,2025-12-08,株式会社ＱＲＥＳｉＡ,,株式会社,千葉県,八街市,希望ヶ丘２６１－８５,,12,230,2891131,,,2025-12-08,清算の結了等,,,2022-10-07,1,,,,,クレジア,0
568,3080101003346,登記記録の閉鎖等,0,2026-01-05,2025-12-25,富士プラスチックス株式会社,,株式会社,静岡県,富士市,大淵３８００番地の５２,,22,210,4170801,,,2025-12-25,合併による解散等,8010501011330,令和７年１２月１８日東京都台東区上野五丁目２４番１７号東タイ株式会社（8010501011330）に合併し解散,2015-10-05,1,,,,,フジプラスチックス,0
573,3080403003960,登記記録の閉鎖等,0,2026-01-05,2025-12-19,エイチエス設計合同会社,,合同会社,静岡県,浜松市中央区,高丘北３丁目３４番５号,,22,138,4338119,,,2025-12-19,清算の結了等,,,2019-12-05,1,,,,,エイチエスセッケイ,0
579,3100002017319,登記記録の閉鎖等,0,2026-01-05,2025-12-24,有限会社堀建設工業,,有限会社,長野県,飯山市,大字下木島３０７番地,,20,213,3892232,,,2025-12-24,清算の結了等,,,2015-10-05,1,,,,,ホリケンセツコウギョウ,0
583,3110001026583,登記記録の閉鎖等,0,2026-01-05,2025-12-24,山崎建設工業株式会社,,株式会社,新潟県,南魚沼市,大沢７６８番地,,15,226,9496361,,,2025-12-24,清算の結了等,,,2015-10-05,1,,,,,ヤマザキケンセツコウギョウ,0
584,3110002021220,登記記録の閉鎖等,0,2026-01-05,2025-12-24,有限会社フォーユー,,有限会社,新潟県,柏崎市,大字下田尻１３０１番地１３,,15,205,9451345,,,2025-12-24,清算の結了等,,,2015-10-05,1,,,,,フォーユー,0
597,3120901041284,登記記録の閉鎖等,0,2026-01-05,2025-12-26,株式会社ナギサガスフィッティングス,,株式会社,大阪府,豊中市,名神口３丁目７番１号,,27,203,5610841,,,2025-12-26,清算の結了等,,,2019-05-13,1,,,,,,0
599,3120905000443,登記記録の閉鎖等,0,2026-01-05,2025-12-24,特定非営利活動法人日本関西福祉教育センター,,その他の設立登記法人,大阪府,茨木市,丑寅２丁目１番６号,,27,211,5670877,,,2025-12-24,清算の結了等,,,2015-10-05,1,,,,,ニホンカンサイフクシキョウイクセンター,0
620,3180002013715,登記記録の閉鎖等,0,2026-01-05,2025-12-26,有限会社コスモ・ナイン,,有限会社,愛知県,名古屋市南区,元柴田東町４丁目８３番地,,23,112,4570816,,,2025-12-26,清算の結了等,,,2015-10-05,1,,,,,コスモナイン,0
621,3180002015323,登記記録の閉鎖等,0,2026-01-05,2025-12-25,赤塚商事有限会社,,有限会社,愛知県,名古屋市東区,矢田５丁目１番３号,,23,102,4610040,,,2025-12-25,清算の結了等,,,2015-10-05,1,,,,,アカツカショウジ,0
627,3180301035617,登記記録の閉鎖等,0,2026-01-05,2025-12-22,株式会社ＤＩＶＡ,,株式会社,愛知県,豊橋市,松葉町１丁目５７番地１サンレジャービルＩＩＩ１Ｆ,00131666,23,201,4400897,,,2025-12-22,清算の結了等,,,2021-11-11,1,,,,,ディーバ,0
631,3200001013242,登記記録の閉鎖等,0,2026-01-05,2025-12-22,今津電気工事株式会社,,株式会社,岐阜県,大垣市,友江１丁目１９番地,,21,202,5030955,,,2025-12-22,清算の結了等,,,2015-10-05,1,,,,,イマヅデンキコウジ,0
633,3210001010437,登記記録の閉鎖等,0,2026-01-05,2025-12-24,Ｆ・Ｉテック株式会社,,株式会社,福井県,福井市,加茂緑苑町９１７番地,,18,201,9188058,,,2025-12-24,清算の結了等,,,2015-10-05,1,,,,,エフアイテック,0
635,3220001011748,登記記録の閉鎖等,0,2026-01-05,2025-12-24,株式会社石川県不動産鑑定事務所,,株式会社,石川県,小松市,本町３丁目１１番地,,17,203,9230937,,,2025-12-24,清算の結了等,,,2015-10-05,1,,,,,イシカワケンフドウサンカンテイジムショ,0
638,3230001002226,登記記録の閉鎖等,0,2026-01-05,2025-12-25,株式会社ＴＲＳ,,株式会社,富山県,富山市,掛尾町５００番地,,16,201,9398212,,,2025-12-25,清算の結了等,,,2015-10-05,1,,,,,ティーアールエス,0
643,3240003004649,登記記録の閉鎖等,0,2026-01-05,2025-12-25,岡鐵商事合同会社,,合同会社,広島県,安芸郡府中町,浜田２丁目１番４４－１００１号,,34,302,7350013,,,2025-12-25,清算の結了等,,,2020-05-12,1,,,,,オカテツショウジ,0
644,3250002014763,登記記録の閉鎖等,0,2026-01-05,2025-12-25,有限会社ジュネス,,有限会社,山口県,周南市,横浜町１６番５９号,,35,215,7450812,,,2025-12-25,清算の結了等,,,2015-10-05,1,,,,,ジュネス,0
649,3280001006164,登記記録の閉鎖等,0,2026-01-05,2025-12-26,株式会社マルエイ水産,,株式会社,島根県,出雲市,高松町５７０番地,,32,203,6930053,,,2025-12-26,清算の結了等,,,2015-10-05,1,,,,,マルエイスイサン,0
665,3300005004401,登記記録の閉鎖等,0,2026-01-05,2025-12-25,農事組合法人山門畜産組合,,その他の設立登記法人,佐賀県,西松浦郡有田町,大木宿甲１３６６番地,,41,401,8494154,,,2025-12-25,清算の結了等,,,2015-10-05,1,,,,,ヤマカドチクサンクミアイ,0
668,3310001009790,登記記録の閉鎖等,0,2026-01-05,2025-12-25,株式会社原城振興公社,,株式会社,長崎県,南島原市,南有馬町丁１３３番地,,42,214,8592414,,,2025-12-25,清算の結了等,,,2015-10-05,1,,,,,ハラジョウシンコウコウシャ,0
681,3410001009863,登記記録の閉鎖等,0,2026-01-05,2025-12-25,株式会社イーストワン,,株式会社,秋田県,秋田市,新屋北浜町５番７号,,05,201,0101608,,,2025-12-25,清算の結了等,,,2015-10-05,1,,,,,イーストワン,0
682,3410002007957,登記記録の閉鎖等,0,2026-01-05,2025-12-25,有限会社佐々木製麺所,00086690,有限会社,秋田県,雄勝郡羽後町,杉宮字元稲田１４９番地３,,05,463,0121126,,,2025-12-25,清算の結了等,,,2015-10-05,1,,,,,ササキセイメンジョ,0
684,3430003009579,登記記録の閉鎖等,0,2026-01-05,2025-12-25,合同会社フェリス,,合同会社,北海道,札幌市清田区,美しが丘二条６丁目８番３号,,01,110,0040812,,,2025-12-25,清算の結了等,,,2018-07-23,1,,,,,フェリス,0
688,3470002007010,登記記録の閉鎖等,0,2026-01-05,2025-12-26,有限会社森本組,,有限会社,香川県,高松市,松島町３丁目７番２３号,,37,201,7600068,,,2025-12-26,清算の結了等,,,2015-10-05,1,,,,,モリモトグミ,0
697,4010001186536,登記記録の閉鎖等,0,2026-01-05,2025-12-15,ＪＰＡ第９３号株式会社,,株式会社,東京都,千代田区,霞が関３丁目２番１号,,13,101,1000013,,,2025-12-15,清算の結了等,,,2017-09-27,1,,,,,ジェイピーエーダイキュウジュウサンゴウ,0
702,4010003024322,登記記録の閉鎖等,0,2026-01-05,2025-12-10,ファーレ合同会社,,合同会社,東京都,中央区,日本橋兜町１７番２号兜町第６葉山ビル４階,,13,102,1030026,,,2025-12-10,清算の結了等,,,2016-10-31,1,,,,,ファーレ,0
721,4010801027682,登記記録の閉鎖等,0,2026-01-05,2025-12-12,株式会社ジェイエクスポート,,株式会社,東京都,千代田区,岩本町３丁目１０番７号,,13,101,1010032,,,2025-12-12,清算の結了等,,,2017-04-14,1,,,,,ジェイエクスポート,0
725,4010902000266,登記記録の閉鎖等,0,2026-01-05,2025-12-26,有限会社アープ,,有限会社,東京都,世田谷区,豪徳寺２丁目６番１３号,,13,112,1540021,,,2025-12-26,清算の結了等,,,2015-10-05,1,,,,,アープ,0
733,4011105010565,登記記録の閉鎖等,0,2026-01-05,2025-12-02,一般社団法人楽楽終活,,その他の設立登記法人,東京都,新宿区,箪笥町３７番地,,13,104,1620833,,,2025-12-02,清算の結了等,,,2023-03-06,1,,,,,ラクラクシュウカツ,0
754,4021001016632,登記記録の閉鎖等,0,2026-01-05,2025-12-10,株式会社イエローウッド,,株式会社,神奈川県,相模原市中央区,上溝１７２９番地１,,14,152,2520243,,,2025-12-10,清算の結了等,,,2015-10-05,1,,,,,,0
760,4030001059855,登記記録の閉鎖等,0,2026-01-05,2025-12-22,株式会社ＭＧ　ＯＺＡＷＡ,,株式会社,埼玉県,川越市,岸町２丁目５番地５,,11,201,3501131,,,2025-12-22,清算の結了等,,,2015-10-05,1,,,,,エムジーオザワ,0
768,4030005005608,登記記録の閉鎖等,0,2026-01-05,2025-12-01,天理教榮輝分教会,,その他の設立登記法人,埼玉県,草加市,神明１丁目１番２５号,,11,221,3400012,,,2025-12-01,合併による解散等,7030005005613,令和７年１２月１日埼玉県草加市氷川町２１０３番地１２天理教草加分教会（7030005005613）に合併し解散,2015-10-05,1,,,,,テンリキョウエイキブンキョウカイ,0
774,4040002016086,登記記録の閉鎖等,0,2026-01-05,2025-12-09,有限会社安田電機,,有限会社,千葉県,千葉市中央区,道場南１丁目１０番２３号,,12,101,2600005,,,2025-12-09,清算の結了等,,,2015-10-05,1,,,,,ヤスダデンキ,0
778,4050001018033,登記記録の閉鎖等,0,2026-01-05,2025-12-19,株式会社サンワァッツ,,株式会社,茨城県,つくば市,梶内３１７番地,,08,220,3050064,,,2025-12-19,清算の結了等,,,2015-10-05,1,,,,,,0
796,4100005012910,登記記録の閉鎖等,0,2026-01-05,2025-11-12,特定非営利活動法人アルボグランデ,,その他の設立登記法人,長野県,諏訪市,大字四賀２５１３番地,,20,206,3920012,,,2025-11-12,清算の結了等,,,2022-10-07,1,,,,,アルボグランデ,0
827,4130001050928,登記記録の閉鎖等,0,2026-01-05,2025-12-12,株式会社京都山村,,株式会社,京都府,八幡市,橋本意足７番１２号,,26,210,6148331,,,2025-12-12,清算の結了等,,,2015-10-05,1,,,,,キョウトヤマムラ,0
835,4140002067722,登記記録の閉鎖等,0,2026-01-05,2025-12-26,伸宏商事株式会社,,株式会社,和歌山県,和歌山市,中６４９－３－６１１,,30,201,6408451,,,2025-12-26,清算の結了等,,,2015-10-05,1,,,,,シンコウショウジ,0
838,4180001029224,登記記録の閉鎖等,0,2026-01-05,2025-12-23,アクト設備システム株式会社,,株式会社,愛知県,名古屋市中村区,沖田町３８９番地,,23,105,4530825,,,2025-12-23,清算の結了等,,,2015-10-05,1,,,,,アクトセツビシステム,0
840,4180001096826,登記記録の閉鎖等,0,2026-01-05,2025-12-25,中部大陽ガスセンター株式会社,,株式会社,愛知県,海部郡蟹江町,大字蟹江本町字エノ割３番地の１,,23,425,4970033,,,2025-12-25,清算の結了等,,,2015-10-05,1,,,,,チュウブタイヨウガスセンター,0
842,4180001139361,登記記録の閉鎖等,0,2026-01-05,2025-12-24,株式会社美美企画,,株式会社,愛知県,名古屋市西区,花の木２丁目１３番４号（フェリスタ３０１号）,,23,104,4510062,,,2025-12-24,清算の結了等,,,2019-12-25,1,,,,,ビビキカク,0
847,4180301035822,登記記録の閉鎖等,0,2026-01-05,2025-12-19,株式会社プリマーヴ,,株式会社,愛知県,豊田市,小坂本町１丁目１５番地８シティハイツＡＴ２０４号,,23,211,4710034,,,2025-12-19,清算の結了等,,,2022-01-13,1,,,,,プリマーヴ,0
850,4200001025006,登記記録の閉鎖等,0,2026-01-05,2025-12-19,株式会社坪根電設,,株式会社,岐阜県,高山市,大新町３丁目１６６番地,,21,203,5060851,,,2025-12-19,清算の結了等,,,2015-10-05,1,,,,,ツボネデンセツ,0
857,4220002011110,登記記録の閉鎖等,0,2026-01-05,2025-12-26,有限会社じょうしょう,,有限会社,石川県,小松市,符津町う５番地,,17,203,9230302,,,2025-12-26,清算の結了等,,,2015-10-05,1,,,,,,0
859,4240001005739,登記記録の閉鎖等,0,2026-01-05,2025-12-25,第一エンジニアリング株式会社,,株式会社,広島県,広島市安佐南区,祇園３丁目３７番１４号,,34,105,7310138,,,2025-12-25,清算の結了等,,,2015-10-05,1,,,,,ダイイチエンジニアリング,0
861,4240002050949,登記記録の閉鎖等,0,2026-01-05,2025-12-25,ダイゴ産業有限会社,,有限会社,広島県,尾道市,高須町５７６１番地の７,,34,205,7290141,,,2025-12-25,清算の結了等,,,2015-10-05,1,,,,,ダイゴサンギョウ,0
898,4400502000206,登記記録の閉鎖等,0,2026-01-05,2025-12-23,有限会社安東ハウジング,,有限会社,岩手県,一関市,舞川字山根１９８番地２６８,,03,209,0210221,,,2025-12-23,清算の結了等,,,2015-10-05,1,,,,,アントウハウジング,0
902,4410002003815,登記記録の閉鎖等,0,2026-01-05,2025-12-26,有限会社ヤリ三総合設備,,有限会社,秋田県,秋田市,川尻みよし町１５番２４号,,05,201,0100945,,,2025-12-26,清算の結了等,,,2015-10-05,1,,,,,ヤリサンソウゴウセツビ,0
906,4430005005369,登記記録の閉鎖等,0,2026-01-05,2025-12-01,医療法人社団サン内科外科医院,,その他の設立登記法人,北海道,札幌市清田区,清田二条１丁目８番１号,,01,110,0040842,,,2025-12-01,合併による解散等,3430005011707,令和７年１２月１日札幌市中央区宮の森三条一丁目１番３８号医療法人社団青葉（3430005011707）に合併し解散,2015-10-05,1,,,,,サンナイカゲカイイン,0
909,4450002012738,登記記録の閉鎖等,0,2026-01-05,2025-12-25,有限会社平成運輸,,有限会社,北海道,紋別市,南が丘町７丁目５２番地の５,,01,219,0940013,,,2025-12-25,清算の結了等,,,2015-10-05,1,,,,,ヘイセイウンユ,0
914,4470002018626,登記記録の閉鎖等,0,2026-01-05,2025-12-25,有限会社丸善設備,,有限会社,香川県,東かがわ市,小磯２９８番地,,37,207,7692511,,,2025-12-25,清算の結了等,,,2015-10-05,1,,,,,マルゼンセツビ,0
917,4490002003502,登記記録の閉鎖等,0,2026-01-05,2025-12-25,有限会社土佐会館,,有限会社,高知県,高知市,はりまや町１丁目３番８号,,39,201,7800822,,,2025-12-25,清算の結了等,,,2015-10-05,1,,,,,トサカイカン,0
918,4500002000621,登記記録の閉鎖等,0,2026-01-05,2025-12-26,有限会社アングルー,,有限会社,愛媛県,松山市,西一万町４番地７,,38,201,7900805,,,2025-12-26,清算の結了等,,,2015-10-05,1,,,,,アングルー,0
923,5010001205699,登記記録の閉鎖等,0,2026-01-05,2025-12-12,ライチサービス株式会社,,株式会社,東京都,中央区,新川１丁目３番２１号,,13,102,1040033,,,2025-12-12,清算の結了等,,,2019-11-28,1,,,,,ライチサービス,0
930,5010003038412,登記記録の閉鎖等,0,2026-01-05,2025-12-09,合同会社ハッピー浅草,,合同会社,東京都,千代田区,霞が関３丁目２番５号,,13,101,1000013,,,2025-12-09,清算の結了等,,,2022-08-16,1,,,,,ハッピーアサクサ,0
938,5010101002476,登記記録の閉鎖等,0,2026-01-05,2025-12-25,株式会社ティ・エス・エス・エンジニアリング,,株式会社,東京都,八王子市,明神町２丁目２番８号八王子スカイマンション３１５号,,13,201,1920046,,,2025-12-25,清算の結了等,,,2015-10-05,1,,,,,ティエスエスエンジニアリング,0
953,5010403033707,登記記録の閉鎖等,0,2026-01-05,2025-12-08,合同会社Ｌａｂｏｒ　Ａｆｆａｉｒｓ　Ｌａｂｏ,,合同会社,東京都,港区,北青山１丁目３番１号アールキューブ青山３階,,13,103,1070061,,,2025-12-08,清算の結了等,,,2024-10-29,1,,,,,レイバーアフェアーズラボ,0
959,5010801025677,登記記録の閉鎖等,0,2026-01-05,2025-12-19,キムコジャパン株式会社,,株式会社,東京都,大田区,平和島６丁目１番１号,,13,111,1430006,,,2025-12-19,清算の結了等,,,2015-10-05,1,,,,,キムコジャパン,0
962,5010903007490,登記記録の閉鎖等,0,2026-01-05,2025-12-23,オンネリネン合同会社,,合同会社,東京都,世田谷区,下馬１丁目２５番３号,,13,112,1540002,,,2025-12-23,清算の結了等,,,2022-06-29,1,,,,,オンネリネン,0
963,5010905001954,登記記録の閉鎖等,0,2026-01-05,2025-12-25,一般社団法人リーガルケア,,その他の設立登記法人,東京都,世田谷区,玉川１丁目８番５号,,13,112,1580094,,,2025-12-25,清算の結了等,,,2015-10-05,1,,,,,リーガルケア,0
964,5011001141208,登記記録の閉鎖等,0,2026-01-05,2025-12-10,ハウスエルフ株式会社,,株式会社,東京都,中央区,銀座１丁目１２番４号Ｎ＆ＥＢＬＤ．７階,,13,102,1040061,,,2025-12-10,清算の結了等,,,2021-06-22,1,,,,,ハウスエルフ,0
973,5011003015814,登記記録の閉鎖等,0,2026-01-05,2025-12-15,合同会社ＰＬＵＳ,,合同会社,東京都,渋谷区,恵比寿西２丁目２０番１,,13,113,1500021,,,2025-12-15,合併による解散等,8011003015712,令和７年１２月１０日東京都渋谷区恵比寿西二丁目２０番１合同会社ＮＥＸＴ（8011003015712）に合併し解散,2022-12-02,1,,,,,プラス,0
997,5011802002459,登記記録の閉鎖等,0,2026-01-05,2025-12-22,有限会社黒崎設計事務所,00057199,有限会社,東京都,葛飾区,亀有２丁目５８番４号大黒商工内,,13,122,1250061,,,2025-12-22,清算の結了等,,,2015-10-05,1,,,,,,0
1012,5020001089539,登記記録の閉鎖等,0,2026-01-05,2025-12-22,エンバークトレードアンドコンサルティング株式会社,,株式会社,神奈川県,横浜市中区,小港町１丁目１番地２、１－１００５,,14,104,2310802,,,2025-12-22,清算の結了等,,,2015-10-05,1,,,,,エンバークトレードアンドコンサルティング,0
1013,5020001092195,登記記録の閉鎖等,0,2026-01-05,2025-12-08,株式会社関根エンタープライズＥＸＴ,,株式会社,神奈川県,横浜市神奈川区,三枚町５５１－４１,,14,102,2210862,,,2025-12-08,合併による解散等,7030001065231,令和７年１２月１日埼玉県越谷市大字増森２０７番地１２株式会社関根エンタープライズ（7030001065231）に合併し解散,2015-10-05,1,,,,,セキネエンタープライズイーエックスティー,0
1018,5021005004590,登記記録の閉鎖等,0,2026-01-05,2025-12-11,神奈中バス労働組合連合会,,その他の設立登記法人,神奈川県,厚木市,栄町１丁目１番７号アーベインＳＴＫ栄町ビル６階,,14,212,2430017,,,2025-12-11,清算の結了等,,,2015-10-05,1,,,,,カナチュウバスレンゴウカイ,0
1021,5030001035070,登記記録の閉鎖等,0,2026-01-05,2025-12-22,株式会社清水商店,,株式会社,埼玉県,草加市,苗塚町６１番地６,,11,221,3400036,,,2025-12-22,清算の結了等,,,2015-10-05,1,,,,,シミズショウテン,0
1046,5080105006087,登記記録の閉鎖等,0,2026-01-05,2025-12-22,特定非営利活動法人社会人サークルｎｏ　ｂｏｒｄｅｒｓ,,その他の設立登記法人,静岡県,富士宮市,万野原新田４０２９番地の１１,,22,207,4180001,,,2025-12-22,清算の結了等,,,2020-11-02,1,,,,,シャカイジンサークルノーボーダーズ,0
1049,5100001003482,登記記録の閉鎖等,0,2026-01-05,2025-12-23,株式会社ミヤノ工業,,株式会社,長野県,長野市,大字稲葉字上千田沖３４９番地,,20,201,3800911,,,2025-12-23,清算の結了等,,,2015-10-05,1,,,,,ミヤノコウギョウ,0
1067,5120002000510,登記記録の閉鎖等,0,2026-01-05,2025-12-24,有限会社つのだ商業デザイン,,有限会社,大阪府,大阪市旭区,新森２丁目１０番８号,,27,117,5350022,,,2025-12-24,清算の結了等,,,2015-10-05,1,,,,,ツノダショウギョウデザイン,0
1069,5120005024424,登記記録の閉鎖等,0,2026-01-05,2025-12-24,一般社団法人丸光管財人団,,その他の設立登記法人,大阪府,大阪市中央区,北久宝寺町２丁目５番５号,,27,128,5410057,,,2025-12-24,清算の結了等,,,2024-07-16,1,,,,,マルミツカンザイニンダン,0
1070,5120101045010,登記記録の閉鎖等,0,2026-01-05,2025-12-24,佐野第一交通株式会社,,株式会社,大阪府,泉佐野市,南中樫井６７２番地１,,27,213,5980035,,,2025-12-24,清算の結了等,,,2015-10-05,1,,,,,サノダイイチコウツウ,0
1079,5130002020838,登記記録の閉鎖等,0,2026-01-05,2025-12-24,有限会社アークプランニング,,有限会社,京都府,京都市右京区,嵯峨野嵯峨ノ段町３１番地３,,26,108,6168311,,,2025-12-24,清算の結了等,,,2015-10-05,1,,,,,アークプランニング,0
1085,5140002000426,登記記録の閉鎖等,0,2026-01-05,2025-12-24,株式会社三裕産業,,株式会社,兵庫県,神戸市中央区,磯辺通４丁目１番４１－３２０１号,,28,110,6510084,,,2025-12-24,清算の結了等,,,2015-10-05,1,,,,,サンユウサンギョウ,0
1099,5180002088086,登記記録の閉鎖等,0,2026-01-05,2025-12-25,有限会社山口商事,,有限会社,愛知県,東海市,名和町北三ケ月２番地,,23,222,4760002,,,2025-12-25,清算の結了等,,,2015-10-05,1,,,,,ヤマグチショウジ,0
1101,5180301008587,登記記録の閉鎖等,0,2026-01-05,2025-12-26,株式会社有水,,株式会社,愛知県,豊橋市,多米西町２丁目５番地の２６,,23,201,4400026,,,2025-12-26,清算の結了等,,,2015-10-05,1,,,,,アリミズ,0
1103,5180301034534,登記記録の閉鎖等,0,2026-01-05,2025-12-23,榊原エコソリューションズ株式会社,,株式会社,愛知県,岡崎市,上地２丁目４１番地３,,23,202,4440823,,,2025-12-23,清算の結了等,,,2021-01-15,1,,,,,サカキバラエコソリューションズ,0
1110,5190002019016,登記記録の閉鎖等,0,2026-01-05,2025-12-24,朝明工業有限会社,,有限会社,三重県,四日市市,山城町１１１６番地,,24,202,5128048,,,2025-12-24,清算の結了等,,,2015-10-05,1,,,,,アサケコウギョウ,0
1113,5200002011152,登記記録の閉鎖等,0,2026-01-05,2025-12-19,有限会社富士松工業,,有限会社,岐阜県,羽島郡笠松町,長池５９２番地,,21,303,5016063,,,2025-12-19,清算の結了等,,,2015-10-05,1,,,,,フジマツコウギョウ,0
1114,5200003005376,登記記録の閉鎖等,0,2026-01-05,2025-12-23,合同会社ＫＩＲＡＮ,,合同会社,三重県,津市,乙部１３番７号,,24,201,5140016,,,2025-12-23,清算の結了等,,,2021-11-15,1,,,,,キラン,0
1115,5210001010963,登記記録の閉鎖等,0,2026-01-05,2025-12-24,株式会社ケア・サービス・アイ,,株式会社,福井県,敦賀市,清水町１丁目６番５号,,18,202,9140052,,,2025-12-24,清算の結了等,,,2015-10-05,1,,,,,ケアサービスアイ,0
1118,5230001002141,登記記録の閉鎖等,0,2026-01-05,2025-12-25,ＴＣＳ株式会社,,株式会社,富山県,富山市,掛尾町５００番地,,16,201,9398212,,,2025-12-25,清算の結了等,,,2015-10-05,1,,,,,ティーシーエス,0
1128,5260002016187,登記記録の閉鎖等,0,2026-01-05,2025-12-23,有限会社赤松アイメディカル,,有限会社,岡山県,倉敷市,五日市１１０９番地の５２,,33,202,7100041,,,2025-12-23,清算の結了等,,,2015-10-05,1,,,,,アカマツアイメディカル,0
1132,5290001059473,登記記録の閉鎖等,0,2026-01-05,2025-12-15,エーアール株式会社,,株式会社,福岡県,福岡市中央区,天神２丁目２番１２号Ｔ＆Ｊビルディング７Ｆ,,40,133,8100001,,,2025-12-15,清算の結了等,,,2015-10-05,1,,,,,エーアール,0
1133,5290001067039,登記記録の閉鎖等,0,2026-01-05,2025-12-15,ＳＵＮＲＩＳＥ株式会社,,株式会社,福岡県,大野城市,牛頸３丁目１１番２６号,,40,219,8160971,,,2025-12-15,清算の結了等,,,2015-10-05,1,,,,,サンライズ,0
1140,5290002054977,登記記録の閉鎖等,0,2026-01-05,2025-12-12,エースサービス有限会社,,有限会社,福岡県,大牟田市,不知火町２丁目１番地の１４,,40,202,8360843,,,2025-12-12,清算の結了等,,,2015-10-05,1,,,,,エースサービス,0
1155,5370001052965,登記記録の閉鎖等,0,2026-01-05,2025-12-25,株式会社佐六建築,,株式会社,宮城県,栗原市,一迫狐崎寺前６０番地,,04,213,9872305,,,2025-12-25,清算の結了等,,,2025-08-13,1,,,,,サロクケンチク,0
1158,5370102002118,登記記録の閉鎖等,0,2026-01-05,2025-12-24,駒草観光自動車有限会社,,有限会社,宮城県,刈田郡蔵王町,大字円田字和田７８番地,,04,301,9890821,,,2025-12-24,清算の結了等,,,2015-10-05,1,,,,,コマクサカンコウジドウシャ,0
1159,5370301000525,登記記録の閉鎖等,0,2026-01-05,2025-12-22,株式会社櫻井洋品店,,株式会社,宮城県,石巻市,中央１丁目１４番５号リバーサイドＭＯＴＯＭＡＴＩ１７０３,,04,202,9860822,,,2025-12-22,清算の結了等,,,2015-10-05,1,,,,,サクライヨウヒンテン,0
1165,5380003004113,登記記録の閉鎖等,0,2026-01-05,2025-12-19,合同会社葵保険サービス,,合同会社,福島県,会津若松市,神指町高瀬５８番地,,07,202,9650063,,,2025-12-19,清算の結了等,,,2017-10-12,1,,,,,アオイホケンサービス,0
1188,6010001188480,登記記録の閉鎖等,0,2026-01-05,2025-12-15,ＪＰＡ第１１５号株式会社,,株式会社,東京都,千代田区,霞が関３丁目２番１号,,13,101,1000013,,,2025-12-15,清算の結了等,,,2017-12-20,1,,,,,ジェイピーエーダイヒャクジュウゴゴウ,0
1199,6010401055545,登記記録の閉鎖等,0,2026-01-05,2025-12-08,クレディ・アグリコル・リーシング株式会社,,株式会社,東京都,港区,東新橋１丁目９番２号,,13,103,1050021,,,2025-12-08,清算の結了等,,,2015-10-05,1,,,,,クレディアグリコルリーシング,0
1216,6010703006007,登記記録の閉鎖等,0,2026-01-05,2025-12-09,合同会社ＬＩＭＩＴ,,合同会社,東京都,中央区,晴海５丁目５番６号,,13,102,1040053,,,2025-12-09,清算の結了等,,,2021-11-17,1,,,,,リミット,0
1219,6010901004992,登記記録の閉鎖等,0,2026-01-05,2025-12-26,株式会社サンヨコ,,株式会社,東京都,世田谷区,赤堤１丁目３６番１５号,,13,112,1560044,,,2025-12-26,清算の結了等,,,2025-07-15,1,,,,,サンヨコ,0
1221,6011001158507,登記記録の閉鎖等,0,2026-01-05,2025-12-08,株式会社鈴木商店,,株式会社,東京都,渋谷区,恵比寿西１丁目３３番６号１階,,13,113,1500021,,,2025-12-08,清算の結了等,,,2023-12-05,1,,,,,スズキショウテン,0
1245,6013301016154,登記記録の閉鎖等,0,2026-01-05,2025-12-16,株式会社ソフトヴェッセル,,株式会社,東京都,豊島区,東池袋４丁目２６番１３号東栄ビル８Ｆ,,13,116,1700013,,,2025-12-16,清算の結了等,,,2015-10-05,1,,,,,ソフトヴェッセル,0
1267,6040001044111,登記記録の閉鎖等,0,2026-01-05,2025-12-08,株式会社オーユー,,株式会社,千葉県,成田市,十余三１２２番地１,,12,211,2860101,,,2025-12-08,清算の結了等,,,2015-10-05,1,,,,,オーユー,0
1273,6040002052121,登記記録の閉鎖等,0,2026-01-05,2025-12-08,有限会社柏進機工,,有限会社,千葉県,流山市,こうのす台２５４番地の７,,12,220,2700102,,,2025-12-08,清算の結了等,,,2015-10-05,1,,,,,ハクシンキコウ,0
1282,6050001029359,登記記録の閉鎖等,0,2026-01-05,2025-12-19,岡野化成工業株式会社,,株式会社,茨城県,常総市,坂手町１７６２番地,,08,211,3030042,,,2025-12-19,清算の結了等,,,2015-10-05,1,,,,,オカノカセイコウギョウ,0
1285,6060001013790,登記記録の閉鎖等,0,2026-01-05,2025-12-11,株式会社楓雅,,株式会社,栃木県,日光市,中宮祠２４８２番１,,09,206,3211661,,,2025-12-11,合併による解散等,9070001023753,令和７年１２月１日群馬県吾妻郡草津町大字草津字白根４６４番地２７草津高原リゾート開発株式会社（9070001023753）に合併し解散,2015-10-05,1,,,,,フウガ,0
1287,6070001018814,登記記録の閉鎖等,0,2026-01-05,2025-12-23,株式会社エス・ピー・シー・メンテナンス,,株式会社,群馬県,太田市,牛沢町１２４番地１,,10,205,3730833,,,2025-12-23,清算の結了等,,,2015-10-05,1,,,,,エスピーシーメンテナンス,0
1289,6070002004581,登記記録の閉鎖等,0,2026-01-05,2025-12-23,有限会社フジイペイント,,有限会社,群馬県,前橋市,天川大島町３丁目４４番地の１３,,10,201,3792154,,,2025-12-23,清算の結了等,,,2015-10-05,1,,,,,フジイペイント,0
1299,6080402018313,登記記録の閉鎖等,0,2026-01-05,2025-12-18,有限会社ヤギイ,,有限会社,静岡県,菊川市,嶺田２１１１番地,,22,224,4371522,,,2025-12-18,清算の結了等,,,2015-10-05,1,,,,,ヤギイ,0
1300,6080405006819,登記記録の閉鎖等,0,2026-01-05,2025-12-19,一般社団法人花咲乃庄,,その他の設立登記法人,静岡県,磐田市,壱貫地４２９番地,,22,211,4380116,,,2025-12-19,清算の結了等,,,2016-01-13,1,,,,,ハナサカノショウ,0
1305,6110002002861,登記記録の閉鎖等,0,2026-01-05,2025-12-24,有限会社サンヒル,,有限会社,新潟県,新潟市西区,寺尾上２丁目３番８２号,,15,107,9502055,,,2025-12-24,清算の結了等,,,2015-10-05,1,,,,,サンヒル,0
1309,6120001251491,登記記録の閉鎖等,0,2026-01-05,2025-12-22,＿澤株式会社,00128941,株式会社,大阪府,大阪市住吉区,長居１丁目１５番１７号ムックマンション４０５号室,,27,120,5580003,,,2025-12-22,清算の結了等,,,2023-01-05,1,,,,,コウタク,0
1311,6120001259171,登記記録の閉鎖等,0,2026-01-05,2025-12-26,ＴＮＥＴ株式会社,,株式会社,大阪府,豊中市,西緑丘３丁目１２－１３－４０３,,27,203,5600005,,,2025-12-26,清算の結了等,,,2023-10-25,1,,,,,ティーネット,0
1324,6130001076657,登記記録の閉鎖等,0,2026-01-05,2025-12-24,株式会社サードクリエイト,,株式会社,京都府,京都市左京区,粟田口鳥居町５１番地３,,26,103,6068436,,,2025-12-24,清算の結了等,,,2024-03-25,1,,,,,サードクリエイト,0
1327,6140001033104,登記記録の閉鎖等,0,2026-01-05,2025-12-25,トルニンガー株式会社,,株式会社,兵庫県,神戸市中央区,古湊通２丁目３－５峰松ビル１０１号室,,28,110,6500026,,,2025-12-25,清算の結了等,,,2015-10-05,1,,,,,トルニンガー,0
1340,6180001133387,登記記録の閉鎖等,0,2026-01-05,2025-12-25,株式会社ＧＦＣ,,株式会社,愛知県,名古屋市南区,内田橋１丁目１４－１０ひるがの荘２号,,23,112,4570862,,,2025-12-25,清算の結了等,,,2018-08-14,1,,,,,,0
1342,6180003019519,登記記録の閉鎖等,0,2026-01-05,2025-12-24,合同会社エイジオブディスカバリー,,合同会社,富山県,富山市,藤木２６５４番地,,16,201,9300936,,,2025-12-24,清算の結了等,,,2018-12-13,1,,,,,エイジオブディスカバリー,0
1347,6180302011894,登記記録の閉鎖等,0,2026-01-05,2025-12-23,有限会社マルイ伊藤園芸,,有限会社,愛知県,田原市,高松町中瀬古１番地,,23,231,4413501,,,2025-12-23,清算の結了等,,,2015-10-05,1,,,,,マルイイトウエンゲイ,0
1348,6200001037148,登記記録の閉鎖等,0,2026-01-05,2025-12-24,株式会社フラット,,株式会社,岐阜県,岐阜市,神田町３丁目８番地１Ｆ,,21,201,5008833,,,2025-12-24,清算の結了等,,,2020-02-10,1,,,,,フラット,0
1361,6240002008029,登記記録の閉鎖等,0,2026-01-05,2025-12-25,有限会社松福,,有限会社,広島県,広島市西区,東観音町２４番２７－８０１号,,34,104,7330032,,,2025-12-25,清算の結了等,,,2015-10-05,1,,,,,ショウフク,0
1362,6240005014908,登記記録の閉鎖等,0,2026-01-05,2025-12-26,ＵＡゼンセンイオングループ労働組合連合会マックスバリュ西日本労働組合,,その他の設立登記法人,広島県,広島市南区,段原南１丁目３－５２広島段原ショッピングセンター５Ｆマックスバリュ西日本（株）本社内,,34,103,7320814,,,2025-12-26,清算の結了等,,,2019-10-31,1,,,,,ユーエーゼンセンイオングループレンゴウカイマックスバリュニシニホン,0
1363,6250002015429,登記記録の閉鎖等,0,2026-01-05,2025-12-26,有限会社山本プロセス,,有限会社,山口県,周南市,久米中央３丁目２番７号,,35,215,7450809,,,2025-12-26,清算の結了等,,,2015-10-05,1,,,,,ヤマモトプロセス,0
1366,6280002006301,登記記録の閉鎖等,0,2026-01-05,2025-12-26,有限会社佐藤洋行工務店,,有限会社,島根県,出雲市,斐川町神氷２７９８番地,,32,203,6990613,,,2025-12-26,清算の結了等,,,2015-10-05,1,,,,,サトウヨウコウコウムテン,0
1368,6290001035399,登記記録の閉鎖等,0,2026-01-05,2025-12-05,株式会社高力,00092383,株式会社,福岡県,福岡市早良区,百道１丁目３１番３－３０３号,,40,137,8140006,,,2025-12-05,清算の結了等,,,2015-10-05,1,,,,,コーリキ,0
1375,6290801001229,登記記録の閉鎖等,0,2026-01-05,2025-12-15,株式会社クレスト,,株式会社,福岡県,北九州市小倉北区,大田町１番１－１０１号,,40,106,8020015,,,2025-12-15,清算の結了等,,,2015-10-05,1,,,,,,0
1381,6310001015480,登記記録の閉鎖等,0,2026-01-05,2025-12-26,株式会社ＳＪコンサルタント,,株式会社,長崎県,佐世保市,母ケ浦町８８８番地１,,42,202,8580912,,,2025-12-26,清算の結了等,,,2018-04-06,1,,,,,エスジェイコンサルタント,0
1392,6370001003653,登記記録の閉鎖等,0,2026-01-05,2025-12-12,東鋼産業株式会社,,株式会社,宮城県,仙台市若林区,六丁目字南９７番３,,04,103,9840031,,,2025-12-12,合併による解散等,2010001037344,令和７年１２月１日東京都千代田区大手町一丁目６番１号伊藤忠丸紅住商テクノスチール株式会社（2010001037344）に合併し解散,2015-10-05,1,,,,,トウコウサンギョウ,0
1394,6370001051066,登記記録の閉鎖等,0,2026-01-05,2025-12-25,株式会社つむぎ,,株式会社,宮城県,仙台市若林区,若林５丁目１０番３－６号,,04,103,9840826,,,2025-12-25,清算の結了等,,,2024-03-19,1,,,,,ツムギ,0
1399,6420002011047,登記記録の閉鎖等,0,2026-01-05,2025-12-23,有限会社菊地シート商会,,有限会社,青森県,五所川原市,字敷島町６番地４,,02,205,0370067,,,2025-12-23,清算の結了等,,,2015-10-05,1,,,,,キクチシートショウカイ,0
1401,6420005007265,登記記録の閉鎖等,0,2026-01-05,2025-12-22,鶴翔りんご組合農事組合法人,,その他の設立登記法人,青森県,北津軽郡鶴田町,大字妙堂崎字米山２８３番地,,02,384,0383543,,,2025-12-22,清算の結了等,,,2015-10-05,1,,,,,カクショウリンゴクミアイ,0
1408,6430002032983,登記記録の閉鎖等,0,2026-01-05,2025-12-25,有限会社藤弘,,有限会社,北海道,札幌市北区,西茨戸５番地４７,,01,102,0028038,,,2025-12-25,清算の結了等,,,2015-10-05,1,,,,,フジヒロ,0
1409,6430002036654,登記記録の閉鎖等,0,2026-01-05,2025-12-25,有限会社ライフケーアイ,,有限会社,北海道,札幌市豊平区,月寒東二条５丁目４番８号,,01,105,0620052,,,2025-12-25,清算の結了等,,,2015-10-05,1,,,,,ライフケーアイ,0
1413,6470002018079,登記記録の閉鎖等,0,2026-01-05,2025-12-25,有限会社横山建設,,有限会社,香川県,さぬき市,津田町津田２８７６番地１７,,37,206,7692401,,,2025-12-25,清算の結了等,,,2015-10-05,1,,,,,ヨコヤマケンセツ,0
1414,6480001010671,登記記録の閉鎖等,0,2026-01-05,2025-12-26,株式会社ＴＫＳウェブジャパン,,株式会社,徳島県,徳島市,秋田町１丁目５３番地ロイヤルクレイン秋田町２０２号室,,36,201,7700934,,,2025-12-26,清算の結了等,,,2019-04-17,1,,,,,ティーケイエスウェブジャパン,0
1416,6490001004086,登記記録の閉鎖等,0,2026-01-05,2025-12-25,株式会社みかづきハイドレート,,株式会社,高知県,高知市,万々２４４番地,,39,201,7800973,,,2025-12-25,清算の結了等,,,2015-10-05,1,,,,,ミカヅキハイドレート,0
1422,7010001119492,登記記録の閉鎖等,0,2026-01-05,2025-12-24,株式会社Ｇ－Ｓｅｃｕ,,株式会社,東京都,新宿区,早稲田鶴巻町５１８号,,13,104,1620041,,,2025-12-24,清算の結了等,,,2015-10-05,1,,,,,ジーセキュー,0
1423,7010001195559,登記記録の閉鎖等,0,2026-01-05,2025-12-15,ＪＰＡ第１４８号株式会社,,株式会社,東京都,千代田区,霞が関３丁目２番１号,,13,101,1000013,,,2025-12-15,清算の結了等,,,2018-10-16,1,,,,,ジェイピーエーダイヒャクヨンジュウハチゴウ,0
1424,7010001199279,登記記録の閉鎖等,0,2026-01-05,2025-12-15,ＪＰＡ第１７６号株式会社,,株式会社,東京都,千代田区,霞が関３丁目２番１号,,13,101,1000013,,,2025-12-15,清算の結了等,,,2019-03-15,1,,,,,ジェイピーエーダイヒャクナナジュウロクゴウ,0
1433,7010401004542,登記記録の閉鎖等,0,2026-01-05,2025-12-08,株式会社エスエルシー,,株式会社,東京都,港区,芝浦２丁目１４番７号,,13,103,1080023,,,2025-12-08,清算の結了等,,,2015-10-05,1,,,,,エスエルシー,0
1434,7010401040232,登記記録の閉鎖等,0,2026-01-05,2025-12-24,アデプト株式会社,,株式会社,東京都,港区,芝３丁目１５番４号２０２,,13,103,1050014,,,2025-12-24,合併による解散等,5010001195577,令和７年１２月１９日東京都中央区日本橋大伝馬町１３－７日本橋大富ビル２Ｆ株式会社デジタルドロップ（5010001195577）に合併し解散,2015-10-05,1,,,,,アデプト,0
1466,7011105003797,登記記録の閉鎖等,0,2026-01-05,2025-12-10,特定非営利活動法人シーズ・市民活動を支える制度をつくる会,,その他の設立登記法人,東京都,港区,芝４丁目７番１号西山ビル４階,,13,103,1080014,,,2025-12-10,清算の結了等,,,2015-10-05,1,,,,,シーズシミンカツドウヲササエルセイドヲツクルカイ,0
1471,7011301017205,登記記録の閉鎖等,0,2026-01-05,2025-12-05,株式会社ワンダーゲート,,株式会社,東京都,渋谷区,広尾５丁目２３番５号長谷部第一ビル,,13,113,1500012,,,2025-12-05,清算の結了等,,,2015-10-05,1,,,,,ワンダーゲート,0
1485,7012401037720,登記記録の閉鎖等,0,2026-01-05,2025-12-19,株式会社ＲＥＤＣＡＲＰＥＴ,,株式会社,東京都,狛江市,岩戸南２丁目２番２４号,,13,219,2010005,,,2025-12-19,清算の結了等,,,2021-04-01,1,,,,,レッドカーッペット,0
1493,7020001038915,登記記録の閉鎖等,0,2026-01-05,2025-12-22,株式会社タイデン・ジャパン,,株式会社,神奈川県,横浜市緑区,鴨居町８４３番地５０,,14,113,2260004,,,2025-12-22,清算の結了等,,,2015-10-05,1,,,,,タイデンジャパン,0
1500,7020003011399,登記記録の閉鎖等,0,2026-01-05,2025-12-25,マインドゲームス合同会社,,合同会社,神奈川県,川崎市高津区,坂戸３丁目２番２－９１１号,,14,134,2130012,,,2025-12-25,清算の結了等,,,2016-06-03,1,,,,,マインドゲームス,0
1504,7021001047963,登記記録の閉鎖等,0,2026-01-05,2025-12-10,株式会社山本工業,,株式会社,神奈川県,相模原市中央区,緑が丘１丁目３４番１０号,,14,152,2520225,,,2025-12-10,清算の結了等,,,2015-10-05,1,,,,,ヤマモトコウギョウ,0
1511,7021002015639,登記記録の閉鎖等,0,2026-01-05,2025-12-10,有限会社松下スペースプロデュース,,有限会社,神奈川県,鎌倉市,御成町６番２４号,,14,204,2480012,,,2025-12-10,清算の結了等,,,2015-10-05,1,,,,,マツシタスペースプロデュース,0
1517,7040001007389,登記記録の閉鎖等,0,2026-01-05,2025-12-05,宮野木工業株式会社,,株式会社,千葉県,千葉市稲毛区,宮野木町１６４９番地の６,,12,103,2630054,,,2025-12-05,清算の結了等,,,2015-10-05,1,,,,,ミヤノギコウギョウ,0
1524,7050005003573,登記記録の閉鎖等,0,2026-01-05,2025-12-22,八郷造園業協同組合,,その他の設立登記法人,茨城県,石岡市,小倉４９７番地,,08,205,3150165,,,2025-12-22,清算の結了等,,,2015-10-05,1,,,,,ヤサトゾウエンギョウ,0
1532,7070002015677,登記記録の閉鎖等,0,2026-01-05,2025-12-23,有限会社田中建設,,有限会社,群馬県,高崎市,新町１２２７番地４,,10,202,3701301,,,2025-12-23,清算の結了等,,,2015-10-05,1,,,,,タナカケンセツ,0
1543,7080402009195,登記記録の閉鎖等,0,2026-01-05,2025-12-22,有限会社大阪薬局,,有限会社,静岡県,湖西市,駅南２丁目１２番１２号,,22,221,4310427,,,2025-12-22,清算の結了等,,,2015-10-05,1,,,,,オオサカヤッキョク,0
1548,7100002022026,登記記録の閉鎖等,0,2026-01-05,2025-12-24,有限会社山本不動産,,有限会社,長野県,松本市,大手２丁目９番２３号,,20,202,3900874,,,2025-12-24,清算の結了等,,,2015-10-05,1,,,,,ヤマモトフドウサン,0
1564,7120002034226,登記記録の閉鎖等,0,2026-01-05,2025-12-26,有限会社井上守建築事務所,,有限会社,大阪府,大阪市東淀川区,西淡路６丁目５番４－１１０７号,,27,114,5330031,,,2025-12-26,清算の結了等,,,2015-10-05,1,,,,,イノウエマモルケンチクジムショ,0
1578,7140001068207,登記記録の閉鎖等,0,2026-01-05,2025-12-22,株式会社太田工務店,,株式会社,兵庫県,西宮市,山口町下山口２丁目６番９号,,28,204,6511412,,,2025-12-22,清算の結了等,,,2015-10-05,1,,,,,オオタコウムテン,0
1595,7180301001805,登記記録の閉鎖等,0,2026-01-05,2025-12-22,東洋レジンクロス株式会社,,株式会社,愛知県,岡崎市,稲熊町字後田３番地２,,23,202,4440071,,,2025-12-22,清算の結了等,,,2015-10-05,1,,,,,トウヨウレジンクロス,0
1599,7180305003450,登記記録の閉鎖等,0,2026-01-05,2025-12-03,医療法人精粋会,,その他の設立登記法人,静岡県,磐田市,豊岡３５６６番地１,,22,211,4380231,,,2025-12-03,合併による解散等,2080105003203,令和７年１２月１日静岡県富士市伝法１７７番地の１医療法人社団泉会（2080105003203）に合併し解散,2015-10-05,1,,,,,セイスイカイ,0
1600,7190002000733,登記記録の閉鎖等,0,2026-01-05,2025-12-25,有限会社下田建設,,有限会社,三重県,津市,片田田中町１８７３番地の１,,24,201,5140081,,,2025-12-25,清算の結了等,,,2015-10-05,1,,,,,シモダケンセツ,0
1602,7190005011224,登記記録の閉鎖等,0,2026-01-05,2025-12-25,特定非営利活動法人つぼみの明日の会,,その他の設立登記法人,三重県,鈴鹿市,国府町４９２２番地の２６０,,24,207,5130836,,,2025-12-25,清算の結了等,,,2018-08-01,1,,,,,ツボミノアシタノカイ,0
1606,7230001012733,登記記録の閉鎖等,0,2026-01-05,2025-12-24,大門タクシー株式会社,,株式会社,富山県,射水市,大門２０５番地,,16,211,9390232,,,2025-12-24,清算の結了等,,,2015-10-05,1,,,,,ダイモンタクシー,0
1609,7240001016551,登記記録の閉鎖等,0,2026-01-05,2025-12-26,吉本木材工業株式会社,,株式会社,広島県,広島市佐伯区,湯来町大字麦谷２３１０番地の１,,34,108,7380602,,,2025-12-26,清算の結了等,,,2015-10-05,1,,,,,ヨシモトモクザイコウギョウ,0
1610,7240001028638,登記記録の閉鎖等,0,2026-01-05,2025-12-25,株式会社古沢商店,,株式会社,広島県,廿日市市,梅原１丁目６番１７号,,34,213,7390442,,,2025-12-25,清算の結了等,,,2015-10-05,1,,,,,フルサワショウテン,0
1611,7240002045888,登記記録の閉鎖等,0,2026-01-05,2025-12-26,有限会社タケヤコーポレーション,,有限会社,広島県,福山市,松永町２丁目２７番１８号,,34,207,7290104,,,2025-12-26,清算の結了等,,,2015-10-05,1,,,,,,0
1616,7250005003669,登記記録の閉鎖等,0,2026-01-05,2025-12-09,天理教寶水分教会,,その他の設立登記法人,山口県,下関市,武久町１丁目１４番１１号,,35,201,7510833,,,2025-12-09,合併による解散等,3250005003664,令和７年１２月９日山口県下関市長崎新町１番１３号天理教硯海分教会（3250005003664）に合併し解散,2015-10-05,1,,,,,,0
1617,7260001024916,登記記録の閉鎖等,0,2026-01-05,2025-12-24,株式会社アビオ,,株式会社,岡山県,岡山市中区,山崎１５５番地１４,,33,102,7038267,,,2025-12-24,清算の結了等,,,2015-10-05,1,,,,,アビオ,0
1626,7290005018845,登記記録の閉鎖等,0,2026-01-05,2025-12-24,一般社団法人ＥＨＣ．２４,,その他の設立登記法人,福岡県,福岡市南区,野間４丁目２９番１号,,40,134,8150041,,,2025-12-24,清算の結了等,,,2022-11-04,1,,,,,イーエイチシードットニジュウヨン,0
1644,7380005002674,登記記録の閉鎖等,0,2026-01-05,2025-12-19,郡山菓子商工協同組合,,その他の設立登記法人,福島県,郡山市,堂前町２０番１６号,,07,203,9638877,,,2025-12-19,清算の結了等,,,2015-10-05,1,,,,,コオリヤマカシショウコウ,0
1645,7410002000223,登記記録の閉鎖等,0,2026-01-05,2025-12-26,有限会社安保薬局,,有限会社,秋田県,秋田市,中通６丁目１３番２２号,,05,201,0100001,,,2025-12-26,清算の結了等,,,2015-10-05,1,,,,,アンポヤッキョク,0
1646,7410002006393,登記記録の閉鎖等,0,2026-01-05,2025-12-25,有限会社マックグリーン,,有限会社,秋田県,南秋田郡大潟村,字東４丁目４７番地５,,05,368,0100442,,,2025-12-25,清算の結了等,,,2015-10-05,1,,,,,マックグリーン,0
1648,7430001071718,登記記録の閉鎖等,0,2026-01-05,2025-12-26,株式会社グローリーライン,,株式会社,北海道,札幌市白石区,北郷三条９丁目１番３８号エフォート北郷Ａ棟２０３号,,01,104,0030833,,,2025-12-26,清算の結了等,,,2016-06-07,1,,,,,グローリーライン,0
1660,8010001000131,登記記録の閉鎖等,0,2026-01-05,2025-12-12,株式会社相川書房,,株式会社,東京都,文京区,小石川５丁目３１番６号,,13,105,1120002,,,2025-12-12,清算の結了等,,,2015-10-05,1,,,,,アイカワショボウ,0
1663,8010001188479,登記記録の閉鎖等,0,2026-01-05,2025-12-15,ＪＰＡ第１１４号株式会社,,株式会社,東京都,千代田区,霞が関３丁目２番１号,,13,101,1000013,,,2025-12-15,清算の結了等,,,2017-12-20,1,,,,,ジェイピーエーダイヒャクジュウヨンゴウ,0
1664,8010001192233,登記記録の閉鎖等,0,2026-01-05,2025-12-15,ＪＰＡ第１１６号株式会社,,株式会社,東京都,千代田区,霞が関３丁目２番１号,,13,101,1000013,,,2025-12-15,清算の結了等,,,2018-06-01,1,,,,,ジェイピーエーダイヒャクジュウロクゴウ,0
1665,8010001195558,登記記録の閉鎖等,0,2026-01-05,2025-12-15,ＪＰＡ第１４７号株式会社,,株式会社,東京都,千代田区,霞が関３丁目２番１号,,13,101,1000013,,,2025-12-15,清算の結了等,,,2018-10-16,1,,,,,ジェイピーエーダイヒャクヨンジュウナナゴウ,0
1666,8010001199278,登記記録の閉鎖等,0,2026-01-05,2025-12-15,ＪＰＡ第１７５号株式会社,,株式会社,東京都,千代田区,霞が関３丁目２番１号,,13,101,1000013,,,2025-12-15,清算の結了等,,,2019-03-14,1,,,,,ジェイピーエーダイヒャクナナジュウゴゴウ,0
1674,8010003042782,登記記録の閉鎖等,0,2026-01-05,2025-11-20,ＢＯＭＬ合同会社,,合同会社,東京都,中央区,銀座１丁目１２－４Ｎ＆ＥＢＬＤ．７Ｆ,,13,102,1040061,,,2025-11-20,清算の結了等,,,2024-02-07,1,,,,,,0
1684,8010401092982,登記記録の閉鎖等,0,2026-01-05,2025-12-08,アローインフォメーション株式会社,,株式会社,東京都,港区,芝浦３丁目２番１６号,,13,103,1080023,,,2025-12-08,合併による解散等,6010901023043,令和７年１１月２５日東京都港区芝浦三丁目２番１６号ＴＡＣホールディングス株式会社（6010901023043）に合併し解散,2015-10-05,1,,,,,アローインフォメーション,0
1705,8010702001089,登記記録の閉鎖等,0,2026-01-05,2025-12-23,有限会社ウイング・アイ,,有限会社,東京都,品川区,南大井５丁目１３番１９－１０８号,,13,109,1400013,,,2025-12-23,清算の結了等,,,2015-10-05,1,,,,,ウイングアイ,0
1713,8010901043329,登記記録の閉鎖等,0,2026-01-05,2025-12-23,東成株式会社,,株式会社,東京都,世田谷区,北沢５丁目３９番７号,,13,112,1550031,,,2025-12-23,清算の結了等,,,2018-12-18,1,,,,,トウセイ,0
1718,8010902014139,登記記録の閉鎖等,0,2026-01-05,2025-12-24,有限会社馬上工務店,,有限会社,東京都,世田谷区,三軒茶屋２丁目２２番１３号,,13,112,1540024,,,2025-12-24,清算の結了等,,,2015-10-05,1,,,,,マカミコウムテン,0
1724,8011001151708,登記記録の閉鎖等,0,2026-01-05,2025-12-19,株式会社ブレイシング・チューン,,株式会社,東京都,渋谷区,神南１丁目１２番１４号渋谷宮田ビル,,13,113,1500041,,,2025-12-19,清算の結了等,,,2023-01-04,1,,,,,ブレイシングチューン,0
1726,8011101031801,登記記録の閉鎖等,0,2026-01-05,2025-12-25,株式会社アイクリエイション,,株式会社,東京都,新宿区,左門町６番地７,,13,104,1600017,,,2025-12-25,清算の結了等,,,2015-10-05,1,,,,,アイクリエイション,0
1730,8011105009843,登記記録の閉鎖等,0,2026-01-05,2025-12-24,一般社団法人Ｈｅａｌｔｈｙ　Ｂｏｄｙ運動指導士協会,,その他の設立登記法人,東京都,新宿区,四谷３丁目１１－１アローズビル５階,,13,104,1600004,,,2025-12-24,清算の結了等,,,2021-06-16,1,,,,,ヘルシーボディウンドウシドウシキョウカイ,0
1731,8011302016444,登記記録の閉鎖等,0,2026-01-05,2025-12-23,有限会社サカモト画廊,,有限会社,東京都,杉並区,松庵１丁目７番４号,,13,115,1670054,,,2025-12-23,清算の結了等,,,2015-10-05,1,,,,,サカモトガロウ,0
1737,8011702005195,登記記録の閉鎖等,0,2026-01-05,2025-12-18,有限会社サロン・ド・トミー,,有限会社,東京都,江戸川区,平井１丁目３番１８号,,13,123,1320035,,,2025-12-18,清算の結了等,,,2015-10-05,1,,,,,サロンドトミー,0
1738,8011801031522,登記記録の閉鎖等,0,2026-01-05,2025-12-25,株式会社Ｔラインズ,,株式会社,兵庫県,神戸市須磨区,高倉台６丁目２２番４号,,28,107,6540081,,,2025-12-25,清算の結了等,,,2016-03-15,1,,,,,ティーラインズ,0
1745,8012802010696,登記記録の閉鎖等,0,2026-01-05,2025-12-24,有限会社四つ葉,,有限会社,東京都,立川市,砂川町７丁目３２番地の１７ＴＫハイツ１０３,,13,202,1900031,,,2025-12-24,清算の結了等,,,2015-10-05,1,,,,,ヨツバ,0
1750,8020001043914,登記記録の閉鎖等,0,2026-01-05,2025-12-01,株式会社モリヤマ茨城,00009503,株式会社,東京都,八王子市,北野町５９３番地９,,13,201,1920906,,,2025-12-01,合併による解散等,8010101007530,令和７年１２月１日東京都八王子市北野町５９３番地９東電子工業株式会社（8010101007530）に合併し解散,2015-10-05,1,,,,,モリヤマイバラギ,0
1758,8030001096507,登記記録の閉鎖等,0,2026-01-05,2025-12-22,株式会社小井土塗工,,株式会社,埼玉県,さいたま市南区,辻４丁目１６番５号,00015675,11,108,3360026,,,2025-12-22,清算の結了等,,,2015-10-05,1,,,,,コイドトコウ,0
1781,8070001030346,登記記録の閉鎖等,0,2026-01-05,2025-12-23,株式会社カーム,,株式会社,群馬県,吾妻郡草津町,大字草津２２６番地３８,,10,426,3771711,,,2025-12-23,清算の結了等,,,2015-10-05,1,,,,,カーム,0
1786,8080003002739,登記記録の閉鎖等,0,2026-01-05,2025-12-24,合同会社ｕｃｈｉｃｃｈｉ,,合同会社,静岡県,静岡市葵区,春日３丁目６番１２号,,22,101,4200823,,,2025-12-24,清算の結了等,,,2022-02-21,1,,,,,ウチッチ,0
1787,8080102014288,登記記録の閉鎖等,0,2026-01-05,2025-12-24,有限会社整磨,,有限会社,静岡県,富士市,依田橋２５５番地の５,,22,210,4170002,,,2025-12-24,清算の結了等,,,2015-10-05,1,,,,,セイマ,0
1788,8080102020963,登記記録の閉鎖等,0,2026-01-05,2025-12-24,有限会社酒井電気商会,,有限会社,静岡県,下田市,二丁目３番３４号,,22,219,4150022,,,2025-12-24,清算の結了等,,,2015-10-05,1,,,,,サカイデンキショウカイ,0
1794,8080402003775,登記記録の閉鎖等,0,2026-01-05,2025-12-18,有限会社将監美薗,,有限会社,静岡県,浜松市中央区,将監町２４番地の１５,,22,138,4300802,,,2025-12-18,清算の結了等,,,2015-10-05,1,,,,,ショウゲンミソノ,0
1795,8080402017148,登記記録の閉鎖等,0,2026-01-05,2025-12-19,安間アセットマネジメント有限会社,,有限会社,静岡県,掛川市,杉谷１丁目３番６号,,22,213,4360017,,,2025-12-19,清算の結了等,,,2015-10-05,1,,,,,アンマアセットマネジメント,0
1796,8080402019136,登記記録の閉鎖等,0,2026-01-05,2025-12-19,有限会社ドド,,有限会社,静岡県,掛川市,上張１５０６番地の２,,22,213,4360022,,,2025-12-19,清算の結了等,,,2015-10-05,1,,,,,ドド,0
1807,8120001250970,登記記録の閉鎖等,0,2026-01-05,2025-12-22,明成株式会社,,株式会社,大阪府,大阪市住之江区,西加賀屋２丁目１２－１８住吉ハイツ３０２号室,,27,125,5590016,,,2025-12-22,清算の結了等,,,2022-12-14,1,,,,,メイセイ,0
1812,8120005017193,登記記録の閉鎖等,0,2026-01-05,2025-12-24,一般社団法人ＳＬＡＴ,,その他の設立登記法人,大阪府,大阪市北区,西天満４丁目９番２号西天満ビル,,27,127,5300047,,,2025-12-24,清算の結了等,,,2015-10-05,1,,,,,スラット,0
1817,8120901016397,登記記録の閉鎖等,0,2026-01-05,2025-12-25,株式会社モレキュラーイメージングラボ,,株式会社,大阪府,吹田市,江の木町１３番９－５０５号,,27,205,5640053,,,2025-12-25,清算の結了等,,,2015-10-05,1,,,,,モレキュラーイメージングラボ,0
1821,8130001058190,登記記録の閉鎖等,0,2026-01-05,2025-12-25,株式会社アシスト,,株式会社,京都府,京都市南区,東九条北松ノ木町３７番地,,26,107,6018022,,,2025-12-25,清算の結了等,,,2016-08-31,1,,,,,アシスト,0
1827,8140001132110,登記記録の閉鎖等,0,2026-01-05,2025-12-05,株式会社吉祥吉ホールディングス,,株式会社,兵庫県,神戸市中央区,元町通２丁目４番１４号,,28,110,6500022,,,2025-12-05,合併による解散等,4010401188231,令和７年１１月１日東京都港区赤坂九丁目７番１号ミッドタウン・タワー２４階ＬＣＪ　Ｃｈａｍｐｉｏｎ株式会社（4010401188231）に合併し解散,2023-10-27,1,,,,,キッショウキチホールディングス,0
1829,8140003020313,登記記録の閉鎖等,0,2026-01-05,2025-12-25,合同会社ＷＣ・ＬＩＮＥ,,合同会社,兵庫県,明石市,大久保町森田１６９番地の３,,28,203,6740061,,,2025-12-25,清算の結了等,,,2024-03-19,1,,,,,ダブルシーライン,0
1833,8180001013513,登記記録の閉鎖等,0,2026-01-05,2025-12-25,株式会社丸幸食品センター,,株式会社,愛知県,名古屋市北区,志賀町４丁目８０番地,,23,103,4620037,,,2025-12-25,清算の結了等,,,2015-10-05,1,,,,,マルコウショクヒンセンター,0
1849,8200001003395,登記記録の閉鎖等,0,2026-01-05,2025-12-12,株式会社忠節モータース,,株式会社,岐阜県,岐阜市,忠節町２丁目１０番地,,21,201,5008801,,,2025-12-12,清算の結了等,,,2015-10-05,1,,,,,チュウセツモータース,0
1851,8200001029952,登記記録の閉鎖等,0,2026-01-05,2025-12-15,株式会社サンワ・アイシーティー,,株式会社,岐阜県,大垣市,上石津町一之瀬１２０５番地,,21,202,5031614,,,2025-12-15,清算の結了等,,,2015-10-05,1,,,,,サンワアイシーティー,0
1867,8240002048782,登記記録の閉鎖等,0,2026-01-05,2025-12-26,有限会社山地内装工芸,,有限会社,広島県,安芸郡府中町,瀬戸ハイム３丁目２５番１４号,,34,302,7350011,,,2025-12-26,清算の結了等,,,2015-10-05,1,,,,,ヤマジナイソウコウゲイ,0
1884,8310002013119,登記記録の閉鎖等,0,2026-01-05,2025-12-26,有限会社満潮商事,00096050,有限会社,長崎県,北松浦郡佐々町,松瀬免１７８番地１,,42,391,8570322,,,2025-12-26,清算の結了等,,,2015-10-05,1,,,,,マンチョウショウジ,0
1885,8310005001839,登記記録の閉鎖等,0,2026-01-05,2025-12-26,西彼中央土地開発公社,,その他の設立登記法人,長崎県,西彼杵郡長与町,嬉里郷６５９番地１,,42,307,8512128,,,2025-12-26,清算の結了等,,,2015-10-05,1,,,,,セイヒチュウオウ,0
1889,8330002020872,登記記録の閉鎖等,0,2026-01-05,2025-12-22,有限会社オガタ玩具店,,有限会社,熊本県,玉名市,高瀬２７０番地,,43,206,8650025,,,2025-12-22,清算の結了等,,,2015-10-05,1,,,,,オガタガングテン,0
1890,8340001020006,登記記録の閉鎖等,0,2026-01-05,2025-12-23,株式会社ｂｏｄａｉｊｕ,,株式会社,鹿児島県,枕崎市,住吉町３番地,,46,204,8980017,,,2025-12-23,清算の結了等,,,2017-01-26,1,,,,,ボダイジュ,0
1902,8400002003812,登記記録の閉鎖等,0,2026-01-05,2025-12-23,有限会社岩姫製作所,,有限会社,岩手県,滝沢市,葉の木沢山３１番地１５,,03,216,0200625,,,2025-12-23,清算の結了等,,,2015-10-05,1,,,,,イワヒメセイサクショ,0
1912,8490005006886,登記記録の閉鎖等,0,2026-01-05,2025-12-24,労働者協同組合土佐共同組合,,その他の設立登記法人,高知県,土佐市,高岡町乙３５６３,,39,205,7811102,,,2025-12-24,清算の結了等,,,2023-03-03,1,,,,,,0
1918,9010001151915,登記記録の閉鎖等,0,2026-01-05,2025-12-24,テルモハート株式会社,,株式会社,東京都,新宿区,西新宿３丁目２０番２号,,13,104,1600023,,,2025-12-24,清算の結了等,,,2015-10-05,1,,,,,テルモハート,0
1919,9010001157227,登記記録の閉鎖等,0,2026-01-05,2025-12-05,株式会社マクロミル,,株式会社,東京都,港区,港南２丁目１６番１号,,13,103,1080075,,,2025-12-05,合併による解散等,7010001247946,令和７年１１月１日東京都千代田区霞が関三丁目２番５号ＴＪ１株式会社（7010001247946）に合併し解散,2015-10-05,1,,,,,マクロミル,0
1920,9010001186531,登記記録の閉鎖等,0,2026-01-05,2025-12-15,ＪＰＡ第８８号株式会社,,株式会社,東京都,千代田区,霞が関３丁目２番１号,,13,101,1000013,,,2025-12-15,清算の結了等,,,2017-09-27,1,,,,,ジェイピエーダイハチジュウハチゴウ,0
1921,9010001188478,登記記録の閉鎖等,0,2026-01-05,2025-12-15,ＪＰＡ第１１３号株式会社,,株式会社,東京都,千代田区,霞が関３丁目２番１号,,13,101,1000013,,,2025-12-15,清算の結了等,,,2017-12-20,1,,,,,ジェイピーエーダイヒャクジュウサンゴウ,0
1924,9010001199285,登記記録の閉鎖等,0,2026-01-05,2025-12-15,ＪＰＡ第１８２号株式会社,,株式会社,東京都,千代田区,霞が関３丁目２番１号,,13,101,1000013,,,2025-12-15,清算の結了等,,,2019-03-15,1,,,,,ジェイピーエーダイヒャクハチジュウニゴウ,0
1935,9010005038365,登記記録の閉鎖等,0,2026-01-05,2025-12-24,ソーラーロイズホールディングス一般社団法人,,その他の設立登記法人,東京都,中央区,京橋２丁目１２番６号ＡＯＪ税理士法人内,,13,102,1040031,,,2025-12-24,清算の結了等,,,2024-06-04,1,,,,,ソーラーロイズホールディングス,0
1955,9010802000171,登記記録の閉鎖等,0,2026-01-05,2025-12-18,有限会社相澤,,有限会社,東京都,大田区,南六郷２丁目３５番１号,,13,111,1440045,,,2025-12-18,清算の結了等,,,2015-10-05,1,,,,,アイザワ,0
1956,9011001029812,登記記録の閉鎖等,0,2026-01-05,2025-12-18,株式会社童プロ,,株式会社,東京都,渋谷区,本町３丁目１０番地３号,,13,113,1510071,,,2025-12-18,清算の結了等,,,2015-10-05,1,,,,,,0
1966,9011101055171,登記記録の閉鎖等,0,2026-01-05,2025-12-24,株式会社モデルアート東京,,株式会社,東京都,新宿区,北新宿３丁目２番１６－７０４号,,13,104,1690074,,,2025-12-24,清算の結了等,,,2015-10-05,1,,,,,モデルアートトウキョウ,0
1976,9011801008841,登記記録の閉鎖等,0,2026-01-05,2025-12-22,スエヒロ通商株式会社,,株式会社,東京都,足立区,千住５丁目６番９号,,13,121,1200034,,,2025-12-22,清算の結了等,,,2015-10-05,1,,,,,スエヒロツウショウ,0
1978,9012401000701,登記記録の閉鎖等,0,2026-01-05,2025-12-24,株式会社四季建設,,株式会社,東京都,府中市,分梅町４丁目５番１号,,13,206,1830033,,,2025-12-24,清算の結了等,,,2015-10-05,1,,,,,,0
1986,9020001096837,登記記録の閉鎖等,0,2026-01-05,2025-12-11,株式会社心五季,,株式会社,神奈川県,厚木市,妻田北３丁目６番２２号,,14,212,2430812,,,2025-12-11,合併による解散等,1320001012845,令和７年１２月１１日神奈川県厚木市中町四丁目４番１５号株式会社ＳＫ（1320001012845）に合併し解散,2015-10-05,1,,,,,コイキ,0
1990,9020002075170,登記記録の閉鎖等,0,2026-01-05,2025-12-23,有限会社ウエルファ,,有限会社,神奈川県,横浜市都筑区,茅ケ崎中央１９－８さくらビル６０１,,14,118,2240032,,,2025-12-23,清算の結了等,,,2015-10-05,1,,,,,ウエルファ,0
2007,9040001115842,登記記録の閉鎖等,0,2026-01-05,2025-12-08,株式会社マリンサービス進藤,,株式会社,千葉県,富津市,岩坂２５３番地１,,12,226,2991608,,,2025-12-08,清算の結了等,,,2020-11-11,1,,,,,マリンサービスシンドウ,0
2010,9050001028226,登記記録の閉鎖等,0,2026-01-05,2025-12-18,常陽観光開発株式会社,,株式会社,茨城県,つくばみらい市,谷井田１３５３番地の１３,,08,235,3002337,,,2025-12-18,清算の結了等,,,2015-10-05,1,,,,,ジョウヨウカンコウカイハツ,0
2012,9050002041434,登記記録の閉鎖等,0,2026-01-05,2025-12-19,有限会社ミジョウ,,有限会社,茨城県,常総市,本石下８７番地,,08,211,3002707,,,2025-12-19,清算の結了等,,,2015-10-05,1,,,,,ミジョウ,0
2020,9080102013578,登記記録の閉鎖等,0,2026-01-05,2025-12-25,有限会社奥野組,,有限会社,静岡県,富士市,松岡３９５番地の１７,,22,210,4160909,,,2025-12-25,清算の結了等,,,2015-10-05,1,,,,,オクノグミ,0
2024,9100001028749,登記記録の閉鎖等,0,2026-01-05,2025-12-24,株式会社Ａ・Ｃ,,株式会社,長野県,長野市,篠ノ井塩崎３７３９番地８,,20,201,3888014,,,2025-12-24,清算の結了等,,,2015-10-05,1,,,,,エーシー,0
2028,9110001020886,登記記録の閉鎖等,0,2026-01-05,2025-12-23,株式会社エーデル,,株式会社,新潟県,十日町市,山谷１１２１番地１２,,15,210,9480102,,,2025-12-23,清算の結了等,,,2015-10-05,1,,,,,エーデル,0
2029,9110002005465,登記記録の閉鎖等,0,2026-01-05,2025-12-22,有限会社五福,,有限会社,新潟県,新潟市中央区,美咲町１丁目４番１５号,,15,103,9500954,,,2025-12-22,清算の結了等,,,2015-10-05,1,,,,,ゴフク,0
2034,9120001200693,登記記録の閉鎖等,0,2026-01-05,2025-12-25,株式会社ビッグハンドマネジメント,,株式会社,大阪府,東大阪市,友井５丁目４番５号,,27,227,5770816,,,2025-12-25,清算の結了等,,,2016-09-13,1,,,,,ビッグハンドマネジメント,0
2037,9120001256389,登記記録の閉鎖等,0,2026-01-05,2025-12-26,株式会社春,,株式会社,大阪府,大阪市旭区,高殿７丁目９－１１,,27,117,5350031,,,2025-12-26,清算の結了等,,,2023-07-13,1,,,,,ハル,0
2051,9130002001982,登記記録の閉鎖等,0,2026-01-05,2025-12-24,有限会社アミ,,有限会社,京都府,京都市上京区,一条通御前通西入２丁目大上之町７３番地,,26,102,6028375,,,2025-12-24,清算の結了等,,,2015-10-05,1,,,,,アミ,0
2052,9130002016659,登記記録の閉鎖等,0,2026-01-05,2025-12-25,有限会社染織工房いと花,,有限会社,京都府,京都市中京区,室町通六角下る鯉山町５３０番地,,26,104,6048163,,,2025-12-25,清算の結了等,,,2015-10-05,1,,,,,センショクコウボウイトハナ,0
2070,9180301024564,登記記録の閉鎖等,0,2026-01-05,2025-12-26,株式会社和,,株式会社,愛知県,みよし市,打越町上屋敷５５番地,,23,236,4700213,,,2025-12-26,清算の結了等,,,2015-10-05,1,,,,,ナゴミ,0
2071,9180305008670,登記記録の閉鎖等,0,2026-01-05,2025-12-22,一般社団法人モビリティ・ビレッジ,,その他の設立登記法人,愛知県,豊田市,畝部東町川田一丁目７２番地,,23,211,4701211,,,2025-12-22,清算の結了等,,,2017-07-20,1,,,,,モビリティビレッジ,0
2080,9240001062081,登記記録の閉鎖等,0,2026-01-05,2025-12-24,株式会社ＭＩＫＯＹＡ,,株式会社,愛知県,名古屋市天白区,菅田２丁目７１０,,23,116,4680043,,,2025-12-24,清算の結了等,,,2023-09-08,1,,,,,ミコヤ,0
2098,9290005013654,登記記録の閉鎖等,0,2026-01-05,2025-12-23,医療法人光咲会,,その他の設立登記法人,福岡県,福岡市東区,和白丘２丁目３番８号,,40,131,8110213,,,2025-12-23,清算の結了等,,,2015-10-05,1,,,,,コウサキカイ,0
2128,9480005001391,登記記録の閉鎖等,0,2026-01-05,2025-12-05,天理教上道分教会,,その他の設立登記法人,徳島県,名東郡佐那河内村,上字宮前６５番地の１,,36,321,7714102,,,2025-12-05,合併による解散等,8480005003455,令和７年１２月５日徳島県鳴門市撫養町木津４６１番地天理教撫養大教会（8480005003455）に合併し解散,2015-10-05,1,,,,,テンリキョウカミミチブンキョウカイ,0
2129,9480005002506,登記記録の閉鎖等,0,2026-01-05,2025-12-05,天理教高鉾分教会,00006208,その他の設立登記法人,徳島県,勝浦郡上勝町,大字正木字平間１０９番地の１,,36,302,7714505,,,2025-12-05,合併による解散等,8480005003455,令和７年１２月５日徳島県鳴門市撫養町木津４６１番地天理教撫養大教会（8480005003455）に合併し解散,2015-10-05,1,,,,,テンリキョウタカホコブンキョウカイ,0
