sequenceNumber,corporateNumber,process,correct,updateDate,changeDate,name,nameImageId,kind,prefectureName,cityName,streetNumber,addressImageId,prefectureCode,cityCode,postCode,addressOutside,addressOutsideImageId,closeDate,closeCause,successorCorporateNumber,changeCause,assignmentDate,latest,enName,enPrefectureName,enCityName,enAddressOutside,furigana,hihyoji
3,1010001243579,新規,0,2024-04-04,2024-04-04,株式会社アイリスブライトＪＰ,,株式会社,東京都,千代田区,神田小川町３丁目１１番地Ｅ－Ｆｒｏｎｔビル６階,,13,101,1010052,,,,,,,2024-04-04,1,,,,,アイリスブライトジェーピー,0
4,1010001243587,新規,0,2024-04-04,2024-04-04,明安株式会社,,株式会社,東京都,千代田区,神田三崎町２丁目１０番１１号４Ａ－７,,13,101,1010061,,,,,,,2024-04-04,1,,,,,メイアン,0
5,1010001243612,新規,0,2024-04-04,2024-04-04,Ｃ・Ｙ商事株式会社,,株式会社,東京都,文京区,千石４丁目２６－２－５０５,,13,105,1120011,,,,,,,2024-04-04,1,,,,,シワイショウジ,0
7,1010005038125,新規,0,2024-04-04,2024-04-04,一般社団法人日本脳神経看護学会,,その他の設立登記法人,東京都,文京区,大塚５丁目３番１３号,,13,105,1120012,,,,,,,2024-04-04,1,,,,,ニホンノウシンケイカンゴガッカイ,0
14,1010401181420,新規,0,2024-04-04,2024-04-04,Ｃａｎｎａｔｒｅｋ　Ｊａｐａｎ株式会社,,株式会社,東京都,港区,六本木１丁目９番１０号アークヒルズ仙石山森タワー２８階べーカー＆マッケンジー法律事務所（外国法共同事業）内,,13,103,1060032,,,,,,,2024-04-04,1,,,,,カンナトレックジャパン,0
15,1010401181461,新規,0,2024-04-04,2024-04-04,莎月事務所株式会社,,株式会社,東京都,港区,北青山１丁目３番１号アールキューブ青山３階,,13,103,1070061,,,,,,,2024-04-04,1,,,,,サツキジムショ,0
16,1010401181486,新規,0,2024-04-04,2024-04-04,ＥＶＯＫＥＳ株式会社,,株式会社,東京都,港区,南青山４丁目１８番１１号,,13,103,1070062,,,,,,,2024-04-04,1,,,,,エヴォークス,0
17,1010401181503,新規,0,2024-04-04,2024-04-04,シャディ・グローバルフーズ株式会社,,株式会社,東京都,港区,虎ノ門４丁目３番１号,,13,103,1050001,,,,,,,2024-04-04,1,,,,,シャディグローバルフーズ,0
18,1010401181602,新規,0,2024-04-04,2024-04-04,株式会社ＭＡＶ　ＢＥＡＵＴＥ,,株式会社,東京都,港区,北青山１丁目３番１号アールキューブ青山３階,,13,103,1070061,,,,,,,2024-04-04,1,,,,,マブボーテ,0
19,1010403032332,新規,0,2024-04-04,2024-04-04,合同会社隼人,,合同会社,東京都,港区,南青山２丁目１５－２２－４１３,,13,103,1070062,,,,,,,2024-04-04,1,,,,,ハヤト,0
20,1010501052001,新規,0,2024-04-04,2024-04-04,南宮株式会社,,株式会社,東京都,台東区,浅草７丁目６番３号テンフィールドビル,,13,106,1110032,,,,,,,2024-04-04,1,,,,,ナンキュウ,0
24,1010601064945,新規,0,2024-04-04,2024-04-04,Ｌ‐ＴＲｉＳＥ株式会社,,株式会社,東京都,江東区,東砂８丁目６番２－４０７号,,13,108,1360074,,,,,,,2024-04-04,1,,,,,エルトライズ,0
28,1010901055000,新規,0,2024-04-04,2024-04-04,株式会社プロデューサーズアイ,,株式会社,東京都,世田谷区,北沢２丁目１９番５号,,13,112,1550031,,,,,,,2024-04-04,1,,,,,プロデューサーズアイ,0
29,1010901055017,新規,0,2024-04-04,2024-04-04,Ｐａｓｓｉｏｎ　Ｆｉｅｌｄ　Ｊａｐａｎ株式会社,,株式会社,東京都,世田谷区,下馬３丁目３０番２１号,,13,112,1540002,,,,,,,2024-04-04,1,,,,,パッションフィールドジャパン,0
31,1011001161077,新規,0,2024-04-04,2024-04-04,株式会社ＢｅｓＴａｂ,,株式会社,東京都,渋谷区,神泉町１０番１５号アネックス神泉３０１,,13,113,1500045,,,,,,,2024-04-04,1,,,,,ベスタブ,0
32,1011001161102,新規,0,2024-04-04,2024-04-04,株式会社キャリアレップ,,株式会社,東京都,目黒区,東山３丁目４番８号東北林業ビル２０１,,13,110,1530043,,,,,,,2024-04-04,1,,,,,キャリアレップ,0
34,1011101106799,新規,0,2024-04-04,2024-04-04,データネクサス株式会社,,株式会社,東京都,新宿区,北新宿４丁目５番１１号ストーク北新宿２－４階,,13,104,1690074,,,,,,,2024-04-04,1,,,,,データネクサス,0
35,1011101106824,新規,0,2024-04-04,2024-04-04,株式会社つばきパートナーズ,,株式会社,東京都,新宿区,新宿２丁目１５番２号３Ｆ,,13,104,1600022,,,,,,,2024-04-04,1,,,,,ツバキパートナーズ,0
38,1011203004348,新規,0,2024-04-04,2024-04-04,合同会社Ｋ．Ｋｒａｆｔ,,合同会社,東京都,中野区,弥生町５丁目１６番１６号,,13,114,1640013,,,,,,,2024-04-04,1,,,,,ケイクラフト,0
46,1011601027660,新規,0,2024-04-04,2024-04-04,株式会社フェアウェイキープ,,株式会社,東京都,練馬区,桜台３丁目１５番４号,,13,120,1760002,,,,,,,2024-04-04,1,,,,,フェアウェイキープ,0
58,1020001156417,新規,0,2024-04-04,2024-04-04,尚品株式会社,,株式会社,神奈川県,横浜市中区,末吉町３丁目５１番地メゾンイセザキ２０６,,14,104,2310055,,,,,,,2024-04-04,1,,,,,ショウヒン,0
59,1020001156524,新規,0,2024-04-04,2024-04-04,株式会社ＪＯＹＣｒｅａｔｉｏｎ,,株式会社,神奈川県,川崎市多摩区,登戸２６６２番地１プラザ向ヶ丘遊園３Ｆ,,14,135,2140014,,,,,,,2024-04-04,1,,,,,ジョイクリエーション,0
60,1020001156581,新規,0,2024-04-04,2024-04-04,株式会社ビルシステムホールディングス,,株式会社,神奈川県,横浜市中区,尾上町４丁目５７番地,,14,104,2310015,,,,,,,2024-04-04,1,,,,,ビルシステムホールディングス,0
61,1020001156607,新規,0,2024-04-04,2024-04-04,三一産業株式会社,,株式会社,神奈川県,横浜市神奈川区,片倉２丁目８番３６号,,14,102,2210865,,,,,,,2024-04-04,1,,,,,サンイチサンギョウ,0
62,1020001156615,新規,0,2024-04-04,2024-04-04,結株式会社,,株式会社,神奈川県,川崎市中原区,苅宿３４－４,,14,133,2110022,,,,,,,2024-04-04,1,,,,,ユイ,0
68,1021001081869,新規,0,2024-04-04,2024-04-04,株式会社Ｍａｌｉａ　Ｐｒｏｄｕｃｔｉｏｎ,,株式会社,神奈川県,藤沢市,円行１丁目９番地の１６,,14,205,2520805,,,,,,,2024-04-04,1,,,,,マリアプロダクション,0
73,1030001159550,新規,0,2024-04-04,2024-04-04,株式会社ディスト,,株式会社,埼玉県,さいたま市南区,白幡５丁目３番３号ハーヴェスト浦和２階,,11,108,3360022,,,,,,,2024-04-04,1,,,,,ディスト,0
74,1030001159559,新規,0,2024-04-04,2024-04-04,株式会社ＡＩＭ,,株式会社,埼玉県,川口市,末広１丁目４番９‐９０１号,,11,203,3320006,,,,,,,2024-04-04,1,,,,,エーアイエム,0
75,1030001159591,新規,0,2024-04-04,2024-04-04,株式会社巧,,株式会社,埼玉県,上尾市,小泉３丁目８番地２４－２０２号,,11,219,3620063,,,,,,,2024-04-04,1,,,,,タクミ,0
76,1030001159600,新規,0,2024-04-04,2024-04-04,株式会社ＳＶ,,株式会社,埼玉県,三郷市,新和３丁目４０１番地,,11,237,3410034,,,,,,,2024-04-04,1,,,,,エスブイ,0
77,1030001159625,新規,0,2024-04-04,2024-04-04,株式会社ＩＴＤ,,株式会社,埼玉県,川口市,南鳩ヶ谷３丁目１８番３６－６１６号,,11,203,3340013,,,,,,,2024-04-04,1,,,,,アイティディ,0
78,1030001159633,新規,0,2024-04-04,2024-04-04,株式会社サイクルコネクト,,株式会社,埼玉県,草加市,谷塚町７３１番地１グリーンアベニュー谷塚１号棟３０４号室,,11,221,3400023,,,,,,,2024-04-04,1,,,,,サイクルコネクト,0
81,1030003023960,新規,0,2024-04-04,2024-04-04,合同会社Ｉｎｔｉ　Ｒａｙｍｉ,,合同会社,埼玉県,さいたま市見沼区,春岡３丁目４９番地１２,,11,104,3370008,,,,,,,2024-04-04,1,,,,,インティライミ,0
82,1030003023969,新規,0,2024-04-04,2024-04-04,合同会社早見工業,,合同会社,埼玉県,川越市,大字笠幡１９３８番地３,,11,201,3501175,,,,,,,2024-04-04,1,,,,,ハヤミコウギョウ,0
83,1030003023977,新規,0,2024-04-04,2024-04-04,Ａｘｉｖｅ　Ｋｎｏｗｌｅｇｅ合同会社,,合同会社,埼玉県,富士見市,東みずほ台２丁目３－２０,,11,235,3540015,,,,,,,2024-04-04,1,,,,,アクシブナレッジ,0
84,1040001132993,新規,0,2024-04-04,2024-04-04,株式会社フリースタイル,,株式会社,千葉県,茂原市,大芝３丁目１３番地２２,,12,210,2970033,,,,,,,2024-04-04,1,,,,,フリースタイル,0
85,1040001133001,新規,0,2024-04-04,2024-04-04,ＰＭＧ株式会社,,株式会社,千葉県,千葉市中央区,栄町９番１１号千葉ゴールデンプラザビル５０１号,,12,101,2600016,,,,,,,2024-04-04,1,,,,,ピーエムジー,0
87,1040003024644,新規,0,2024-04-04,2024-04-04,合同会社ＩＫＵ,,合同会社,千葉県,八千代市,大和田新田１０４９番地１８,,12,221,2760046,,,,,,,2024-04-04,1,,,,,アイケーユー,0
88,1040003024702,新規,0,2024-04-04,2024-04-04,合同会社嘉瀬,,合同会社,千葉県,山武郡横芝光町,鳥喰新田７８６番地１,,12,410,2891739,,,,,,,2024-04-04,1,,,,,カセ,0
93,1050005013413,新規,0,2024-04-04,2024-04-04,医療法人外山歯科医院,,その他の設立登記法人,茨城県,水戸市,大塚町１７４１番地１１,,08,201,3114143,,,,,,,2024-04-04,1,,,,,トヤマシカイイン,0
96,1070001041523,新規,0,2024-04-04,2024-04-04,Ｈ２Ｏｓａｕｎａ株式会社,,株式会社,群馬県,藤岡市,鬼石３５２番地１,,10,209,3701401,,,,,,,2024-04-04,1,,,,,エイチトゥオウサウナ,0
97,1070001041597,新規,0,2024-04-04,2024-04-04,株式会社ジー,,株式会社,群馬県,前橋市,下小出町２丁目１０番地１１、１０１号,,10,201,3710031,,,,,,,2024-04-04,1,,,,,ジー,0
100,1080001026218,新規,0,2024-04-04,2024-04-04,株式会社ミキサー車オンリー,,株式会社,静岡県,静岡市葵区,内牧２８３番地の３,,22,101,4212118,,,,,,,2024-04-04,1,,,,,ミキサーシャオンリー,0
101,1080001026226,新規,0,2024-04-04,2024-04-04,メソテス株式会社,,株式会社,静岡県,島田市,大代２３８－３,,22,209,4280009,,,,,,,2024-04-04,1,,,,,メソテス,0
103,1080101024641,新規,0,2024-04-04,2024-04-04,日食サービス＆ファシリティーズ株式会社,,株式会社,静岡県,富士市,田島３０番地,,22,210,4170031,,,,,,,2024-04-04,1,,,,,ニッショクサービスアンドファシリティーズ,0
107,1080403004985,新規,0,2024-04-04,2024-04-04,藤井アセットマネジメント合同会社,,合同会社,静岡県,浜松市中央区,蜆塚３丁目８－４１－５,,22,138,4328018,,,,,,,2024-04-04,1,,,,,フジイアセットマネジメント,0
111,1110001038291,新規,0,2024-04-04,2024-04-04,株式会社雅工業,,株式会社,新潟県,魚沼市,下田１３９番地,,15,225,9460107,,,,,,,2024-04-04,1,,,,,ミヤビコウギョウ,0
112,1110001038300,新規,0,2024-04-04,2024-04-04,株式会社坂詰森林再生,,株式会社,新潟県,阿賀野市,保田３８５８番地,,15,223,9592221,,,,,,,2024-04-04,1,,,,,サカヅメシンリンサイセイ,0
119,1120001263731,新規,0,2024-04-04,2024-04-04,道通株式会社,,株式会社,大阪府,大阪市中央区,農人橋２丁目１番３５号,,27,128,5400011,,,,,,,2024-04-04,1,,,,,ドウツウ,0
120,1120001263756,新規,0,2024-04-04,2024-04-04,株式会社ＫＡＭ,,株式会社,大阪府,大阪市淀川区,西中島２丁目１４番２号,,27,123,5320011,,,,,,,2024-04-04,1,,,,,ケーエーエム,0
121,1120001263764,新規,0,2024-04-04,2024-04-04,Ａｐｏｌｌｏ株式会社,,株式会社,大阪府,大阪市中央区,南船場１丁目３番１４－７０９号,,27,128,5420081,,,,,,,2024-04-04,1,,,,,アポロ,0
122,1120001263780,新規,0,2024-04-04,2024-04-04,株式会社Ｂメディア,,株式会社,大阪府,大阪市中央区,谷町２丁目２番４号,,27,128,5400012,,,,,,,2024-04-04,1,,,,,ビーメディア,0
125,1120003026252,新規,0,2024-04-04,2024-04-04,ＴＡＫＭＡＫ　ＩＮＴＥＲＮＡＴＩＯＮＡＬ合同会社,,合同会社,大阪府,大阪市北区,豊崎３丁目１６番１６－１１０１号,,27,127,5310072,,,,,,,2024-04-04,1,,,,,タクマックインターナショナル,0
126,1120003026285,新規,0,2024-04-04,2024-04-04,Ｈプランニング合同会社,,合同会社,大阪府,大阪市中央区,玉造２丁目１番１１－１１０２号,,27,128,5400004,,,,,,,2024-04-04,1,,,,,エイチプランニング,0
127,1120003026293,新規,0,2024-04-04,2024-04-04,合同会社ＯＮ‐ＣＬＯＵＤ,,合同会社,大阪府,大阪市中央区,南船場１丁目１１－２２－１００１,,27,128,5420081,,,,,,,2024-04-04,1,,,,,オンクラウド,0
129,1120005024238,新規,0,2024-04-04,2024-04-04,一般社団法人権利擁護なにわ,,その他の設立登記法人,大阪府,大阪市阿倍野区,阪南町１丁目２５番３１号（２０２号室）,,27,119,5450021,,,,,,,2024-04-04,1,,,,,ケンリヨウゴナニワ,0
132,1120101069327,新規,0,2024-04-04,2024-04-04,株式会社シャヒトレーディング,,株式会社,大阪府,和泉市,松尾寺町２１６４－２３０,,27,219,5941154,,,,,,,2024-04-04,1,,,,,シャヒトレーディング,0
133,1120101069335,新規,0,2024-04-04,2024-04-04,株式会社ＳＫホールディングス,,株式会社,大阪府,岸和田市,荒木町１丁目１１番１１－１０５号,,27,202,5960004,,,,,,,2024-04-04,1,,,,,エスケーホールディングス,0
135,1120103005759,新規,0,2024-04-04,2024-04-04,合同会社エンパワー,,合同会社,大阪府,堺市北区,百舌鳥本町３丁３８２番地１７,,27,146,5918036,,,,,,,2024-04-04,1,,,,,エンパワー,0
136,1120901048991,新規,0,2024-04-04,2024-04-04,株式会社ＳＰＵＮＫＹ,,株式会社,大阪府,高槻市,氷室町２丁目７番１２号,,27,207,5691141,,,,,,,2024-04-04,1,,,,,スパンキー,0
137,1120903005108,新規,0,2024-04-04,2024-04-04,合同会社ニシカワコラボ,,合同会社,大阪府,豊中市,上野西２丁目１８番１２号,,27,203,5600011,,,,,,,2024-04-04,1,,,,,ニシカワコラボ,0
138,1122001037974,新規,0,2024-04-04,2024-04-04,中内工業設備株式会社,,株式会社,大阪府,東大阪市,新池島町３丁目１０番１４号,,27,227,5798065,,,,,,,2024-04-04,1,,,,,ナカウチコウギョウセツビ,0
139,1130001076711,新規,0,2024-04-04,2024-04-04,株式会社きくらげ研究所,,株式会社,京都府,京都市南区,吉祥院石原町５４番地,,26,107,6018367,,,,,,,2024-04-04,1,,,,,キクラゲケンキュウジョ,0
143,1130005017050,新規,0,2024-04-04,2024-04-04,医療法人ＩＤＡクリニック,,その他の設立登記法人,京都府,京都市山科区,安朱南屋敷町３５番地ラクトＤ６階,,26,110,6078011,,,,,,,2024-04-04,1,,,,,イダクリニック,0
145,1140001133825,新規,0,2024-04-04,2024-04-04,株式会社コウベヴィクトリ,,株式会社,兵庫県,神戸市灘区,鶴甲４丁目７番２０－４０３号,,28,102,6570011,,,,,,,2024-04-04,1,,,,,コウベヴィクトリ,0
146,1140001133924,新規,0,2024-04-04,2024-04-04,株式会社北神戸ＦＰサービス,,株式会社,兵庫県,神戸市北区,西大池１丁目２７－２５,,28,109,6511201,,,,,,,2024-04-04,1,,,,,キタコウベエフピーサービス,0
147,1140001133932,新規,0,2024-04-04,2024-04-04,株式会社Ｎ　ＳＨＥＥＴ　ＭＥＴＡＬ,,株式会社,兵庫県,神戸市北区,鈴蘭台南町１丁目２－３,,28,109,6511113,,,,,,,2024-04-04,1,,,,,エヌシートメタル,0
148,1140001133957,新規,0,2024-04-04,2024-04-04,神戸検査株式会社,,株式会社,兵庫県,神戸市西区,竹の台６丁目７番地７０５号,,28,111,6512274,,,,,,,2024-04-04,1,,,,,コウベケンサ,0
149,1140001133981,新規,0,2024-04-04,2024-04-04,株式会社多田姫路,,株式会社,兵庫県,姫路市,広畑区西夢前台５丁目１７４番地,,28,201,6711103,,,,,,,2024-04-04,1,,,,,タダヒメジ,0
151,1140003020360,新規,0,2024-04-04,2024-04-04,テッラドーノ合同会社,,合同会社,兵庫県,丹波市,市島町酒梨１５３番地,,28,223,6694337,,,,,,,2024-04-04,1,,,,,テッラドーノ,0
152,1140003020369,新規,0,2024-04-04,2024-04-04,緑のまきば合同会社,,合同会社,兵庫県,芦屋市,岩園町１０番４号,,28,206,6590013,,,,,,,2024-04-04,1,,,,,ミドリノマキバ,0
158,1160001025797,新規,0,2024-04-04,2024-04-04,株式会社東亜開発,,株式会社,滋賀県,甲賀市,甲南町深川８９番地３,,25,209,5203322,,,,,,,2024-04-04,1,,,,,トウアカイハツ,0
159,1160001025806,新規,0,2024-04-04,2024-04-04,株式会社Ｌｉｇｈｔ,,株式会社,滋賀県,草津市,西草津１丁目８番２６号,,25,206,5250035,,,,,,,2024-04-04,1,,,,,ライト,0
160,1160003003157,新規,0,2024-04-04,2024-04-04,Ｍｅ‐ｔｉｍｅ合同会社,,合同会社,滋賀県,大津市,湖城が丘１７番３６号,,25,201,5200821,,,,,,,2024-04-04,1,,,,,ミータイム,0
168,1180001160758,新規,0,2024-04-04,2024-04-04,ヴィジョナリーホールディングス株式会社,,株式会社,愛知県,名古屋市西区,清里町１８番地,,23,104,4520801,,,,,,,2024-04-04,1,,,,,ヴィジョナリーホールディングス,0
173,1190003004631,新規,0,2024-04-04,2024-04-04,合同会社とちたて,,合同会社,三重県,伊賀市,千戸１６１３,,24,216,5181401,,,,,,,2024-04-04,1,,,,,トチタテ,0
178,1230001020287,新規,0,2024-04-04,2024-04-04,株式会社アキヤテラス,,株式会社,富山県,高岡市,川原町２番４号,,16,202,9330942,,,,,,,2024-04-04,1,,,,,アキヤテラス,0
179,1230003002176,新規,0,2024-04-04,2024-04-04,Ｉ．Ｎ．Ａ＆Ｃｏ．合同会社,,合同会社,富山県,富山市,堤町通り２丁目２番１８号,,16,201,9300046,,,,,,,2024-04-04,1,,,,,アイエヌエーアンドカンパニー,0
180,1240001063054,新規,0,2024-04-04,2024-04-04,ＣＯＭＡ　Ｌｉｆｔ株式会社,,株式会社,広島県,広島市佐伯区,八幡２丁目１１番１－１０号,,34,108,7315116,,,,,,,2024-04-04,1,,,,,コマリフト,0
181,1240001063062,新規,0,2024-04-04,2024-04-04,株式会社ＭＩＹＡＢＩ　ｃｒｅａｔｉｏｎ,,株式会社,広島県,広島市安佐南区,山本１丁目５番１１－３号,,34,105,7310137,,,,,,,2024-04-04,1,,,,,ミヤビクリエーション,0
184,1240003006614,新規,0,2024-04-04,2024-04-04,合同会社食未来Ｌａｂｏ,,合同会社,広島県,広島市東区,二葉の里１丁目１番７２－７０１号,,34,102,7320057,,,,,,,2024-04-04,1,,,,,ショクミライラボ,0
186,1250001020590,新規,0,2024-04-04,2024-04-04,株式会社光産業,,株式会社,山口県,防府市,大字江泊２２７２番地,,35,206,7470014,,,,,,,2024-04-04,1,,,,,ヒカリサンギョウ,0
187,1250001020599,新規,0,2024-04-04,2024-04-04,株式会社オフィスカネダ,,株式会社,山口県,山口市,大内長野１４８１番地２１,,35,203,7530211,,,,,,,2024-04-04,1,,,,,オフィスカネダ,0
190,1260003004632,新規,0,2024-04-04,2024-04-04,ＭＭＣ合同会社,,合同会社,岡山県,高梁市,成羽町小泉３７１番地,,33,209,7160332,,,,,,,2024-04-04,1,,,,,エムエムシー,0
192,1280001009152,新規,0,2024-04-04,2024-04-04,ＴーＣＬＡＩＬ株式会社,,株式会社,島根県,松江市,浜乃木２丁目１５番２９－７０５号,,32,201,6900044,,,,,,,2024-04-04,1,,,,,ティークレイル,0
195,1290805009727,新規,0,2024-04-04,2024-04-04,行政書士法人よしはら事務所,,その他の設立登記法人,福岡県,遠賀郡水巻町,頃末北４丁目２番１８－１０３号,,40,382,8070022,,,,,,,2024-04-04,1,,,,,ヨシハラジムショ,0
201,1310001018934,新規,0,2024-04-04,2024-04-04,株式会社長崎マルジョウ,,株式会社,長崎県,雲仙市,小浜町富津４２３９番地,,42,213,8540516,,,,,,,2024-04-04,1,,,,,ナガサキマルジョウ,0
207,1360001033425,新規,0,2024-04-04,2024-04-04,株式会社根路銘ペイント,,株式会社,沖縄県,沖縄市,東１丁目２４番６号,,47,211,9042154,,,,,,,2024-04-04,1,,,,,ネロメペイント,0
208,1360003013854,新規,0,2024-04-04,2024-04-04,合同会社ディオス,,合同会社,沖縄県,那覇市,首里久場川町１丁目８０番地３３,,47,201,9030807,,,,,,,2024-04-04,1,,,,,ディオス,0
209,1360003013870,新規,0,2024-04-04,2024-04-04,合同会社Ｔａｓｕｋｉ,,合同会社,沖縄県,糸満市,字座波２５５番地の２,,47,210,9010314,,,,,,,2024-04-04,1,,,,,タスキ,0
220,1430001091432,新規,0,2024-04-04,2024-04-04,株式会社八木橋設備,,株式会社,北海道,札幌市白石区,菊水元町七条２丁目８番２７号,,01,104,0030827,,,,,,,2024-04-04,1,,,,,ヤギハシセツビ,0
221,1430001091473,新規,0,2024-04-04,2024-04-04,株式会社丸大北一建設,,株式会社,北海道,札幌市北区,太平五条６丁目６番１１号,,01,102,0028005,,,,,,,2024-04-04,1,,,,,マルダイキタイチケンセツ,0
235,2010003043365,新規,0,2024-04-04,2024-04-04,Ｃａｔ　ｐｕｎｃｈ合同会社,,合同会社,東京都,中央区,銀座１丁目２２－１１－２Ｆ,,13,102,1040061,,,,,,,2024-04-04,1,,,,,キャットパンチ,0
236,2010003043398,新規,0,2024-04-04,2024-04-04,合同会社ＭｉｒａＬａｂ,,合同会社,東京都,千代田区,九段南１丁目５番６号りそな九段ビル５Ｆ－ＫＳフロア,,13,101,1020074,,,,,,,2024-04-04,1,,,,,ミララボ,0
237,2010005038116,新規,0,2024-04-04,2024-04-04,一般社団法人ＳＣ１号,,その他の設立登記法人,東京都,千代田区,霞が関３丁目２番５号,,13,101,1000013,,,,,,,2024-04-04,1,,,,,エスシーイチゴウ,0
238,2010101016074,新規,0,2024-04-04,2024-04-04,ＰＬＡＮＴＥＺＡ株式会社,,株式会社,東京都,八王子市,上柚木２丁目１１２番地６９,,13,201,1920373,,,,,,,2024-04-04,1,,,,,,0
242,2010401181469,新規,0,2024-04-04,2024-04-04,株式会社原点回帰,,株式会社,東京都,港区,西麻布３丁目２２番９号,,13,103,1060031,,,,,,,2024-04-04,1,,,,,ゲンテンカイキ,0
243,2010401181477,新規,0,2024-04-04,2024-04-04,株式会社Ｄｒｉｖｅ,,株式会社,東京都,港区,白金１丁目２番１－Ｅ１１０９号,,13,103,1080072,,,,,,,2024-04-04,1,,,,,ドライブ,0
244,2010401181485,新規,0,2024-04-04,2024-04-04,株式会社ＱＵＩＲＩＯ,,株式会社,東京都,港区,南青山３丁目１番３６号青山丸竹ビル６Ｆ,,13,103,1070062,,,,,,,2024-04-04,1,,,,,クイリオ,0
250,2010501052058,新規,0,2024-04-04,2024-04-04,株式会社Ｐｅａｋビュー,,株式会社,東京都,台東区,松が谷２丁目３０番９号ＴＨＥＭＡＪＥＳＴＩＣＫＩＩ２０３,00134303,13,106,1110036,,,,,,,2024-04-04,1,,,,,ピークビュー,0
252,2010505003511,新規,0,2024-04-04,2024-04-04,一般財団法人横山一也がん研究所,,その他の設立登記法人,東京都,台東区,上野１丁目４番８号上野横山ビル,,13,106,1100005,,,,,,,2024-04-04,1,,,,,ヨコヤマカズヤガンケンキュウショ,0
254,2010601064944,新規,0,2024-04-04,2024-04-04,株式会社玄石,,株式会社,東京都,江東区,越中島１丁目３番１２号門前仲町スカイハイツ１４１１号,,13,108,1350044,,,,,,,2024-04-04,1,,,,,ゲンセキ,0
255,2010601064960,新規,0,2024-04-04,2024-04-04,株式会社ＳＴマテリアルズ,,株式会社,東京都,江東区,永代２丁目２１番７号３０１,,13,108,1350034,,,,,,,2024-04-04,1,,,,,,0
256,2010603010748,新規,0,2024-04-04,2024-04-04,合同会社オフィスイチ,,合同会社,東京都,江東区,潮見１丁目２１番９号マリテックス内,,13,108,1350052,,,,,,,2024-04-04,1,,,,,オフィスイチ,0
257,2010605004310,新規,0,2024-04-04,2024-04-04,一般社団法人介護独立支援サンライフ,,その他の設立登記法人,東京都,江東区,東陽５丁目５番２号,,13,108,1350016,,,,,,,2024-04-04,1,,,,,カイゴドクリツシエンサンライフ,0
266,2010801034929,新規,0,2024-04-04,2024-04-04,株式会社キッズアカデミア,,株式会社,東京都,大田区,田園調布２丁目２２番２号田園プラネット１０１,,13,111,1450071,,,,,,,2024-04-04,1,,,,,キッズアカデミア,0
271,2011001160929,新規,0,2024-04-04,2024-04-04,ネクストブリッジ株式会社,,株式会社,東京都,渋谷区,渋谷２丁目１９－１５宮益坂ビルディング６０９,,13,113,1500002,,,,,,,2024-04-04,1,,,,,ネクストブリッジ,0
272,2011001161051,新規,0,2024-04-04,2024-04-04,株式会社地域共創創発構想,,株式会社,東京都,目黒区,駒場１丁目１９番２１号,,13,110,1530041,,,,,,,2024-04-04,1,,,,,チイキキョウソウソウハツコウソウ,0
273,2011001161076,新規,0,2024-04-04,2024-04-04,株式会社ＰＲＯＡＣＴ,,株式会社,東京都,目黒区,下目黒１丁目１番１４号コノトラビル７Ｆ,,13,110,1530064,,,,,,,2024-04-04,1,,,,,プロアクト,0
275,2011003018786,新規,0,2024-04-04,2024-04-04,合同会社ＨＵＧ,,合同会社,東京都,渋谷区,神泉町１０番１５号アネックス神泉３０１,,13,113,1500045,,,,,,,2024-04-04,1,,,,,ハグ,0
276,2011003018860,新規,0,2024-04-04,2024-04-04,合同会社ぜろいちの湯,,合同会社,東京都,渋谷区,渋谷２丁目１９－１５宮益坂ビルディング６０９,,13,113,1500002,,,,,,,2024-04-04,1,,,,,ゼロイチノユ,0
278,2011201025378,新規,0,2024-04-04,2024-04-04,株式会社イージスト,,株式会社,東京都,中野区,本町４丁目２５番２号カーサエルモーサ１０５号,,13,114,1640012,,,,,,,2024-04-04,1,,,,,イージスト,0
280,2011301029543,新規,0,2024-04-04,2024-04-04,株式会社モトケン,,株式会社,東京都,杉並区,永福３丁目３３番１４号,,13,115,1680064,,,,,,,2024-04-04,1,,,,,モトケン,0
285,2011601027668,新規,0,2024-04-04,2024-04-04,ＡＫマネジメント株式会社,,株式会社,東京都,練馬区,田柄２丁目４１番２１－１０４号,,13,120,1790073,,,,,,,2024-04-04,1,,,,,エーケーマネジメント,0
288,2011701027171,新規,0,2024-04-04,2024-04-04,株式会社エイツーコンサル,,株式会社,東京都,江戸川区,西小岩３丁目２１番１５号,,13,123,1330057,,,,,,,2024-04-04,1,,,,,エイツーコンサル,0
293,2011801044001,新規,0,2024-04-04,2024-04-04,株式会社カミン,,株式会社,東京都,足立区,扇３丁目１６番２９号,,13,121,1230873,,,,,,,2024-04-04,1,,,,,カミン,0
295,2012301013859,新規,0,2024-04-04,2024-04-04,株式会社ＧＫフードソリューションズ,,株式会社,東京都,町田市,能ヶ谷４丁目４番２３号,,13,209,1950053,,,,,,,2024-04-04,1,,,,,ジーケーフードソリューションズ,0
297,2012401041702,新規,0,2024-04-04,2024-04-04,株式会社ＡＧＲＯ,,株式会社,東京都,府中市,若松町５丁目６－７８クレストフォルム東府中サウスステージ４１２,,13,206,1830005,,,,,,,2024-04-04,1,,,,,アグロ,0
298,2012801023085,新規,0,2024-04-04,2024-04-04,株式会社ジニア,,株式会社,東京都,国分寺市,本町２丁目１４番３号,,13,214,1850012,,,,,,,2024-04-04,1,,,,,ジニア,0
299,2012801023093,新規,0,2024-04-04,2024-04-04,株式会社ＵＴＴＹＰｌｕｓ,,株式会社,東京都,昭島市,福島町３丁目２４番５号,,13,207,1960031,,,,,,,2024-04-04,1,,,,,ユーティーティーワイプラス,0
304,2020001156531,新規,0,2024-04-04,2024-04-04,瑞海商会株式会社,,株式会社,神奈川県,横浜市泉区,和泉町１４４０番地３,,14,116,2450016,,,,,,,2024-04-04,1,,,,,ミズミショウカイ,0
305,2020001156564,新規,0,2024-04-04,2024-04-04,株式会社リバーサイド・１,,株式会社,神奈川県,横浜市神奈川区,青木町１０番地の８,,14,102,2210057,,,,,,,2024-04-04,1,,,,,リバーサイドワン,0
306,2020001156580,新規,0,2024-04-04,2024-04-04,株式会社ＯＲＥＸ　ＳＡＩ,,株式会社,神奈川県,川崎市川崎区,日進町５９番地１６,,14,131,2100024,,,,,,,2024-04-04,1,,,,,オレックスサイ,0
307,2020001156606,新規,0,2024-04-04,2024-04-04,ＨＤＳ株式会社,,株式会社,神奈川県,横浜市旭区,川井宿町２３－５０,,14,112,2410804,,,,,,,2024-04-04,1,,,,,エイチディエス,0
308,2020001156639,新規,0,2024-04-04,2024-04-04,株式会社ストックワン,,株式会社,神奈川県,横浜市西区,北幸２丁目１０－４８むつみビル３階,,14,103,2200004,,,,,,,2024-04-04,1,,,,,ストックワン,0
311,2020003025841,新規,0,2024-04-04,2024-04-04,合同会社メイコウ,,合同会社,神奈川県,川崎市川崎区,池田１丁目１番２－２０１号,,14,131,2100022,,,,,,,2024-04-04,1,,,,,メイコウ,0
312,2020003025858,新規,0,2024-04-04,2024-04-04,合同会社藤丸企画,,合同会社,神奈川県,横浜市西区,藤棚町２丁目２２１番地４パレス藤棚１０１号,,14,103,2200053,,,,,,,2024-04-04,1,,,,,フジマルキカク,0
313,2020003025866,新規,0,2024-04-04,2024-04-04,合同会社ケイ・アール,,合同会社,神奈川県,横浜市青葉区,あざみ野４丁目１３番地４０,,14,117,2250011,,,,,,,2024-04-04,1,,,,,ケイアール,0
314,2020003025874,新規,0,2024-04-04,2024-04-04,ランタロウ合同会社,,合同会社,神奈川県,川崎市川崎区,駅前本町１１番地２川崎フロンティアビル４階,,14,131,2100007,,,,,,,2024-04-04,1,,,,,ランタロウ,0
320,2030001159558,新規,0,2024-04-04,2024-04-04,株式会社Ｍ＆Ｔ水道工業,,株式会社,埼玉県,鴻巣市,広田３３７５番地１,,11,217,3650005,,,,,,,2024-04-04,1,,,,,エムアンドティスイドウコウギョウ,0
321,2030001159582,新規,0,2024-04-04,2024-04-04,株式会社グレイスウィズ,,株式会社,埼玉県,春日部市,樋堀３２６番地１３,,11,214,3440005,,,,,,,2024-04-04,1,,,,,グレイスウィズ,0
322,2030001159590,新規,0,2024-04-04,2024-04-04,株式会社友田興業,,株式会社,埼玉県,さいたま市南区,大字大谷口９７７番地９,,11,108,3360042,,,,,,,2024-04-04,1,,,,,トモダコウギョウ,0
323,2030001159599,新規,0,2024-04-04,2024-04-04,情報技術教材研究開発株式会社,,株式会社,埼玉県,さいたま市大宮区,櫛引町１丁目３２４番地２－７２３号,,11,103,3300851,,,,,,,2024-04-04,1,,,,,ジョウホウギジュツキョウザイケンキュウカイハツ,0
324,2030001159616,新規,0,2024-04-04,2024-04-04,ｎｏｍｏ．ｃｈａｎｔ．株式会社,,株式会社,埼玉県,さいたま市大宮区,櫛引町１丁目４０９番地１,,11,103,3300851,,,,,,,2024-04-04,1,,,,,ノモチャント,0
325,2030001159632,新規,0,2024-04-04,2024-04-04,株式会社ｐｉｖｏｔ,,株式会社,埼玉県,吉川市,栄町１３６４番地１４,,11,243,3420050,,,,,,,2024-04-04,1,,,,,ピボット,0
326,2030001159640,新規,0,2024-04-04,2024-04-04,株式会社Ｂ‐スタイル,,株式会社,埼玉県,越谷市,大字上間久里４２８番地４,,11,222,3430043,,,,,,,2024-04-04,1,,,,,ビースタイル,0
328,2030003023968,新規,0,2024-04-04,2024-04-04,合同会社Ａｃｅ,,合同会社,埼玉県,坂戸市,千代田１丁目２－５４－２,,11,239,3500214,,,,,,,2024-04-04,1,,,,,エース,0
330,2040001132860,新規,0,2024-04-04,2024-04-04,株式会社ＹＵＭＩＫＯ　ＣＬＵＢ,,株式会社,千葉県,柏市,布施７４８番地９,,12,217,2770825,,,,,,,2024-04-04,1,,,,,ユミコクラブ,0
331,2040001132927,新規,0,2024-04-04,2024-04-04,隆豪商事株式会社,,株式会社,千葉県,香取郡多古町,水戸９７３番地８,,12,347,2892247,,,,,,,2024-04-04,1,,,,,リュウゴウショウジ,0
332,2040001132968,新規,0,2024-04-04,2024-04-04,株式会社Ａ‐ＳＥＳＳＩＯＮ,,株式会社,千葉県,千葉市中央区,塩田町４３４番地１千葉竹徳ビル３Ｆ,,12,101,2600823,,,,,,,2024-04-04,1,,,,,エーセッション,0
333,2040001132992,新規,0,2024-04-04,2024-04-04,ＯＫＹ株式会社,,株式会社,千葉県,千葉市中央区,浜野町９６１番地１グランドヒルズ２０２,,12,101,2600824,,,,,,,2024-04-04,1,,,,,オーケイワイ,0
335,2040003024643,新規,0,2024-04-04,2024-04-04,合同会社売上向上委員会,,合同会社,千葉県,館山市,船形１２７７－４２,,12,205,2940056,,,,,,,2024-04-04,1,,,,,ウリアゲコウジョウイインカイ,0
339,2050003008249,新規,0,2024-04-04,2024-04-04,合同会社ドライバーズワン,,合同会社,茨城県,つくば市,高野台２丁目４－３,,08,220,3050074,,,,,,,2024-04-04,1,,,,,ドライバーズワン,0
341,2060003005014,新規,0,2024-04-04,2024-04-04,合同会社ＭＹプリント,,合同会社,栃木県,佐野市,富岡町１５１５番地,,09,204,3270844,,,,,,,2024-04-04,1,,,,,エムワイプリント,0
344,2070005010250,新規,0,2024-04-04,2024-04-04,特定非営利活動法人寺まちネットワーク,,その他の設立登記法人,群馬県,吾妻郡嬬恋村,大字鎌原鬼の泉水１４４５覺正寺念佛堂内,,10,425,3771402,,,,,,,2024-04-04,1,,,,,テラマチネットワーク,0
345,2080101024640,新規,0,2024-04-04,2024-04-04,Ｋ・Ｓアセット株式会社,,株式会社,静岡県,富士市,中丸２８２番地の１０コスモビレッジＶ１０１,00134292,22,210,4160933,,,,,,,2024-04-04,1,,,,,ケイエスアセット,0
346,2080101024649,新規,0,2024-04-04,2024-04-04,福蘭株式会社,,株式会社,静岡県,伊豆の国市,長岡１６９番地の７,,22,225,4102211,,,,,,,2024-04-04,1,,,,,フクラン,0
347,2080101024657,新規,0,2024-04-04,2024-04-04,株式会社ｍｅｌａ,,株式会社,静岡県,裾野市,佐野１３６９番地の５,,22,220,4101118,,,,,,,2024-04-04,1,,,,,メラ,0
352,2090001018626,新規,0,2024-04-04,2024-04-04,株式会社茅デザインオフィス,,株式会社,山梨県,韮崎市,穂坂町宮久保５３７５番地,,19,207,4070175,,,,,,,2024-04-04,1,,,,,カヤデザインオフィス,0
353,2090001018634,新規,0,2024-04-04,2024-04-04,株式会社グリーンネクスト,,株式会社,山梨県,甲府市,貢川２丁目２番１１号,,19,201,4000065,,,,,,,2024-04-04,1,,,,,,0
354,2090005007625,新規,0,2024-04-04,2024-04-04,一般社団法人刀剣保存ネットワーク,,その他の設立登記法人,山梨県,北杜市,明野町上手５２４番地３０,,19,209,4080204,,,,,,,2024-04-04,1,,,,,トウケンホゾンネットワーク,0
356,2100003007476,新規,0,2024-04-04,2024-04-04,合同会社ほっこりラビット,,合同会社,長野県,諏訪市,大字上諏訪８３０３番地１０,,20,206,3920003,,,,,,,2024-04-04,1,,,,,ホッコリラビット,0
358,2110003005347,新規,0,2024-04-04,2024-04-04,合同会社リビングトータルサポート,,合同会社,新潟県,南魚沼市,黒土新田７７２番地２,,15,226,9497241,,,,,,,2024-04-04,1,,,,,リビングトータルサポート,0
359,2110003005355,新規,0,2024-04-04,2024-04-04,合同会社フラット・アイ,,合同会社,新潟県,新潟市中央区,清五郎２５２番地１ハイムリンデ２０６号,,15,103,9500933,,,,,,,2024-04-04,1,,,,,フラットアイ,0
365,2120001263689,新規,0,2024-04-04,2024-04-04,株式会社ブルー・ブランシュ,,株式会社,大阪府,大阪市住吉区,長居東３丁目１５－２６－４１３,,27,120,5580004,,,,,,,2024-04-04,1,,,,,ブルーブランシュ,0
366,2120001263697,新規,0,2024-04-04,2024-04-04,株式会社ＴＳ　Ｈｏｌｄｉｎｇｓ,,株式会社,大阪府,大阪市生野区,勝山北２丁目７番１３号,,27,116,5440033,,,,,,,2024-04-04,1,,,,,ティーエスホールディングス,0
367,2120001263730,新規,0,2024-04-04,2024-04-04,Ｍａｒｓ株式会社,,株式会社,大阪府,大阪市港区,弁天４丁目５－１１ザ・ファインタワーウエストコースト８０８,,27,107,5520007,,,,,,,2024-04-04,1,,,,,マース,0
368,2120001263747,新規,0,2024-04-04,2024-04-04,株式会社ＬＥＡＦ　Ｐａｒｔｎｅｒｓ,,株式会社,大阪府,大阪市北区,梅田２丁目２－２ヒルトンプラザウエストオフィスタワー１９階,,27,127,5300001,,,,,,,2024-04-04,1,,,,,リーフパートナーズ,0
369,2120001263788,新規,0,2024-04-04,2024-04-04,株式会社デザイア,,株式会社,大阪府,大阪市北区,梅田１丁目１－３大阪駅前第３ビル２９階１－１－１号室,,27,127,5300001,,,,,,,2024-04-04,1,,,,,デザイア,0
372,2120101069334,新規,0,2024-04-04,2024-04-04,株式会社山英,,株式会社,大阪府,堺市南区,逆瀬川１２８０番地６７,,27,145,5900123,,,,,,,2024-04-04,1,,,,,サンエイ,0
373,2120101069359,新規,0,2024-04-04,2024-04-04,株式会社ベック,,株式会社,大阪府,大阪狭山市,東池尻３丁目８８１－４,,27,231,5890004,,,,,,,2024-04-04,1,,,,,ベック,0
374,2120103005758,新規,0,2024-04-04,2024-04-04,ＫＥＶＩＮＺ合同会社,,合同会社,大阪府,堺市中区,毛穴町３２４番地７１,,27,142,5998266,,,,,,,2024-04-04,1,,,,,ケビンズ,0
376,2120901048999,新規,0,2024-04-04,2024-04-04,株式会社ＭＩＧＡＱ,,株式会社,大阪府,箕面市,瀬川２丁目４番５２－１０３号,,27,220,5620045,,,,,,,2024-04-04,1,,,,,ミガク,0
377,2122005003740,新規,0,2024-04-04,2024-04-04,一般社団法人Ｅｘｃｅｌｌｅｎｔ　Ｂｒｅａｔｈ　Ａｌｌｉａｎｃｅ　Ｃｌｉｎｉｃｓ,,その他の設立登記法人,大阪府,東大阪市,小若江３丁目９番２１号,,27,227,5770818,,,,,,,2024-04-04,1,,,,,エクセレントブレスアライアンスクリニックス,0
383,2130001076710,新規,0,2024-04-04,2024-04-04,株式会社Ｓ‐ＲＩＲＥ,,株式会社,京都府,京都市下京区,五条通堀川東入中金仏町２１５番地ヴィルヌーブ堀川五条２０６号室,,26,106,6008332,,,,,,,2024-04-04,1,,,,,エスリール,0
384,2130003009429,新規,0,2024-04-04,2024-04-04,Ｋ‐ｔｅｃ合同会社,,合同会社,京都府,京田辺市,草内穴口１４番地１２,,26,211,6100311,,,,,,,2024-04-04,1,,,,,ケイテック,0
385,2130005017058,新規,0,2024-04-04,2024-04-04,一般社団法人京都サービス経営研究所,,その他の設立登記法人,京都府,京都市中京区,油小路通六角下る六角油小路町３４５番地３,,26,104,6048245,,,,,,,2024-04-04,1,,,,,キョウトサービスケイエイケンキュウショ,0
389,2140001133923,新規,0,2024-04-04,2024-04-04,ＴＫ‐Ｎｅｔｗｏｒｋ株式会社,,株式会社,兵庫県,高砂市,米田町米田１３１番地の１５,,28,216,6760805,,,,,,,2024-04-04,1,,,,,ティーケーネットワーク,0
390,2140001133964,新規,0,2024-04-04,2024-04-04,光オンデマンドケミカル株式会社,,株式会社,兵庫県,神戸市灘区,六甲台町１番１号,,28,102,6570013,,,,,,,2024-04-04,1,,,,,ヒカリオンデマンドケミカル,0
392,2140003020244,新規,0,2024-04-04,2024-04-04,合同会社Ｏｃｕｐｉｎｅ,,合同会社,兵庫県,神戸市北区,大沢町市原１８‐１,,28,109,6511521,,,,,,,2024-04-04,1,,,,,オクパイン,0
393,2140003020368,新規,0,2024-04-04,2024-04-04,合同会社ｙｓ　ｓｙｓｔｅｍ,,合同会社,兵庫県,川西市,萩原１丁目９番２５号３０２,,28,217,6660004,,,,,,,2024-04-04,1,,,,,ワイエスシステム,0
394,2160001025805,新規,0,2024-04-04,2024-04-04,ＳＫＫグループ株式会社,,株式会社,滋賀県,東近江市,八日市上之町９番２８号,,25,213,5270022,,,,,,,2024-04-04,1,,,,,エスケーケーグループ,0
395,2160003003156,新規,0,2024-04-04,2024-04-04,合同会社ＫＯＲＯ,,合同会社,滋賀県,甲賀市,甲賀町大原市場２２番地４－７Ｃ号,,25,209,5203433,,,,,,,2024-04-04,1,,,,,コロ,0
396,2170001018080,新規,0,2024-04-04,2024-04-04,株式会社肉のとりやす,,株式会社,和歌山県,和歌山市,堀止西２丁目１０番５６号,,30,201,6410045,,,,,,,2024-04-04,1,,,,,ニクノトリヤス,0
403,2180001160807,新規,0,2024-04-04,2024-04-04,Ｄ‐ＥＬＥＣ株式会社,,株式会社,愛知県,名古屋市東区,東桜２丁目３番７号東カン名古屋キャステール９２２号室,,23,102,4610005,,,,,,,2024-04-04,1,,,,,ディエレック,0
406,2180005020577,新規,0,2024-04-04,2024-04-04,一般社団法人Ｅａｒｔｈｌｉｎｇ,,その他の設立登記法人,愛知県,知多郡南知多町,大字内海字小桝１４２番地の１３,,23,445,4703321,,,,,,,2024-04-04,1,,,,,アースリング,0
409,2190001031247,新規,0,2024-04-04,2024-04-04,希リネンサービス株式会社,,株式会社,三重県,桑名市,大字和泉５６２番地１,,24,205,5110838,,,,,,,2024-04-04,1,,,,,ノゾミリネンサービス,0
410,2190003004630,新規,0,2024-04-04,2024-04-04,ＶＩＮＨ　ＮＧＯＣ　ＫＨＡＮＧ合同会社,,合同会社,三重県,四日市市,十志町１２８番地２,,24,202,5108026,,,,,,,2024-04-04,1,,,,,ヴィンゴックハン,0
411,2200001042366,新規,0,2024-04-04,2024-04-04,株式会社飛騨高山舞地美恵,,株式会社,岐阜県,高山市,久々野町久々野４９７番地３,,21,203,5093205,,,,,,,2024-04-04,1,,,,,ヒダタカヤママイジビエ,0
413,2220005008824,新規,0,2024-04-04,2024-04-04,一般社団法人スポーツコミッションかほく,,その他の設立登記法人,石川県,かほく市,遠塚ロ５７番地６,,17,209,9291173,,,,,,,2024-04-04,1,,,,,スポーツコミッションカホク,0
414,2230001020286,新規,0,2024-04-04,2024-04-04,坂上工業株式会社,,株式会社,富山県,富山市,婦中町河原町５２０番地１,,16,201,9392605,,,,,,,2024-04-04,1,,,,,サカシタコウギョウ,0
416,2240001063045,新規,0,2024-04-04,2024-04-04,株式会社ひにあらた,,株式会社,広島県,福山市,木之庄町５丁目１８番２２号,,34,207,7200082,,,,,,,2024-04-04,1,,,,,ヒニアラタ,0
422,2260001038920,新規,0,2024-04-04,2024-04-04,ブルーオート株式会社,,株式会社,岡山県,倉敷市,中庄１３２０番地１,,33,202,7100016,,,,,,,2024-04-04,1,,,,,ブルーオート,0
423,2260001038937,新規,0,2024-04-04,2024-04-04,株式会社りすぺくと,,株式会社,岡山県,玉野市,玉原２丁目１０－３７,,33,204,7060014,,,,,,,2024-04-04,1,,,,,リスペクト,0
428,2280005007606,新規,0,2024-04-04,2024-04-04,一般社団法人島根県トライアスロン協会,,その他の設立登記法人,島根県,出雲市,多伎町小田８４８番地６,,32,203,6990903,,,,,,,2024-04-04,1,,,,,シマネケントライアスロンキョウカイ,0
432,2290801030470,新規,0,2024-04-04,2024-04-04,株式会社Ｄａｎｄｅｌｉｏｎ,,株式会社,福岡県,北九州市八幡西区,浅川学園台３丁目１９番１５号,,40,109,8070871,,,,,,,2024-04-04,1,,,,,ダンデライオン,0
433,2290801030479,新規,0,2024-04-04,2024-04-04,マルイチ経済不動産株式会社,,株式会社,福岡県,北九州市小倉南区,徳力３丁目１８番１－２０１号,,40,107,8020974,,,,,,,2024-04-04,1,,,,,マルイチケイザイフドウサン,0
434,2290805009726,新規,0,2024-04-04,2024-04-04,一般社団法人カワラカケル,,その他の設立登記法人,福岡県,田川郡香春町,大字採銅所２５９５番地４（ＪＲ採銅所駅舎内第二待合室）,,40,601,8221401,,,,,,,2024-04-04,1,,,,,カワラカケル,0
437,2310001018941,新規,0,2024-04-04,2024-04-04,株式会社建築工房絆,,株式会社,長崎県,佐世保市,知見寺町１３７５番地,,42,202,8570101,,,,,,,2024-04-04,1,,,,,ケンチクコウボウキズナ,0
445,2350001018896,新規,0,2024-04-04,2024-04-04,株式会社ＢＦＦ,,株式会社,宮崎県,宮崎市,吾妻町１５１番地８,,45,201,8800864,,,,,,,2024-04-04,1,,,,,ビーエフエフ,0
446,2360001033424,新規,0,2024-04-04,2024-04-04,サンフーズ株式会社,,株式会社,沖縄県,宜野湾市,新城１丁目４番１６号平良ビル１－Ａ号室,,47,205,9012201,,,,,,,2024-04-04,1,,,,,サンフーズ,0
447,2360001033457,新規,0,2024-04-04,2024-04-04,株式会社Ｂｒｏｔｈｅｒ,,株式会社,沖縄県,石垣市,字平得３９９番地２２（Ｈ．ＧＡＲＡＧＥ１２号室）,,47,207,9070003,,,,,,,2024-04-04,1,,,,,ブラザー,0
449,2360003013853,新規,0,2024-04-04,2024-04-04,合同会社ホヌ,,合同会社,沖縄県,八重山郡竹富町,字黒島１５１１番地,,47,381,9071311,,,,,,,2024-04-04,1,,,,,ホヌ,0
451,2370001051152,新規,0,2024-04-04,2024-04-04,ＥＮＡＴＥＣＨ株式会社,,株式会社,宮城県,仙台市若林区,舟丁１６番地,,04,103,9840806,,,,,,,2024-04-04,1,,,,,エナテック,0
458,2390005009062,新規,0,2024-04-04,2024-04-04,一般社団法人如松育英会,,その他の設立登記法人,山形県,鶴岡市,本町１丁目７番４８号,,06,203,9970034,,,,,,,2024-04-04,1,,,,,ジョショウイクエイカイ,0
465,2430001091489,新規,0,2024-04-04,2024-04-04,株式会社北海道グリーンサポート,,株式会社,北海道,札幌市西区,平和一条９丁目１番９号,,01,107,0630021,,,,,,,2024-04-04,1,,,,,ホッカイドウグリーンサポート,0
468,2450001014274,新規,0,2024-04-04,2024-04-04,株式会社オバタファーム,,株式会社,北海道,士別市,多寄町三十七線西２３番地,,01,220,0980475,,,,,,,2024-04-04,1,,,,,オバタファーム,0
470,2460103001608,新規,0,2024-04-04,2024-04-04,合同会社グリーン・リーフ,,合同会社,北海道,帯広市,西四条南２１丁目１番地２,,01,207,0800014,,,,,,,2024-04-04,1,,,,,グリーンリーフ,0
482,3010001243610,新規,0,2024-04-04,2024-04-04,株式会社プレモジャパンホールディングス,,株式会社,東京都,中央区,八丁堀４丁目６番５号,,13,102,1040032,,,,,,,2024-04-04,1,,,,,プレモジャパンホールディングス,0
483,3010001243676,新規,0,2024-04-04,2024-04-04,戸田建設不動産投資顧問株式会社,,株式会社,東京都,中央区,八丁堀２丁目２０番８号八丁堀綜通ビル４階,,13,102,1040032,,,,,,,2024-04-04,1,,,,,トダケンセツフドウサントウシコモン,0
484,3010001243775,新規,0,2024-04-04,2024-04-04,ＣＨＯＳＥＮ　ＴＥＣＨＮＯＬＯＧＹ株式会社,,株式会社,東京都,中央区,銀座１丁目２２番１１号銀座大竹ビジデンス２Ｆ,,13,102,1040061,,,,,,,2024-04-04,1,,,,,チョーズンテクノロジー,0
499,3010401181476,新規,0,2024-04-04,2024-04-04,株式会社ａｃｃｅｌｅｒａｔｅ　ｃａｐｉｔａｌ,,株式会社,東京都,港区,浜松町２丁目２番１５号,,13,103,1050013,,,,,,,2024-04-04,1,,,,,アクセラレートキャピタル,0
500,3010401181484,新規,0,2024-04-04,2024-04-04,株式会社スターライト,,株式会社,東京都,港区,芝５丁目２０番７号グランドメゾン三田２０２号室,,13,103,1080014,,,,,,,2024-04-04,1,,,,,スターライト,0
501,3010401181534,新規,0,2024-04-04,2024-04-04,株式会社ＡＰ７９,,株式会社,東京都,港区,虎ノ門４丁目１番２８号虎ノ門タワーズオフィス１７階,,13,103,1050001,,,,,,,2024-04-04,1,,,,,エーピーナナジュウキュウ,0
502,3010401181625,新規,0,2024-04-04,2024-04-04,株式会社ＭｅｔＧｌｏｃａｌ,,株式会社,東京都,港区,南青山２丁目２番１５号ウィン青山９４２,,13,103,1070062,,,,,,,2024-04-04,1,,,,,メットグローカル,0
505,3010403032306,新規,0,2024-04-04,2024-04-04,Ｍｉｎｄｂｏｄｙ　ＣｌａｓｓＰａｓｓ　Ｊａｐａｎ合同会社,,合同会社,東京都,港区,元麻布３丁目１番６号,,13,103,1060046,,,,,,,2024-04-04,1,,,,,マインドボディークラスパスジャパン,0
506,3010403032314,新規,0,2024-04-04,2024-04-04,Ｋｅｎ　Ｃｏｎｎｅｃｔｉｏｎ合同会社,,合同会社,東京都,港区,北青山１丁目３番１号アールキューブ青山３階,,13,103,1070061,,,,,,,2024-04-04,1,,,,,ケンコネクション,0
507,3010403032322,新規,0,2024-04-04,2024-04-04,うえみや合同会社,,合同会社,東京都,港区,高輪４丁目１０番３１号,,13,103,1080074,,,,,,,2024-04-04,1,,,,,ウエミヤ,0
509,3010405023113,新規,0,2024-04-04,2024-04-04,一般社団法人ＬｅＳｐａｃｅ,,その他の設立登記法人,東京都,港区,赤坂３丁目２番２号日総第２４ビル,,13,103,1070052,,,,,,,2024-04-04,1,,,,,ルスペース,0
511,3010501052024,新規,0,2024-04-04,2024-04-04,Ｔｅｍｉｓ　Ｌｕｘｕｒｙ　Ｊａｐａｎ株式会社,,株式会社,東京都,台東区,清川１丁目２１－５ＷＡＬＬａｐａｒｔｍｅｎｔ５階大区画号室,,13,106,1110022,,,,,,,2024-04-04,1,,,,,テミスラグジュアリージャパン,0
516,3010901054999,新規,0,2024-04-04,2024-04-04,株式会社Ｆｏｏｄ‐Ｘ,,株式会社,東京都,世田谷区,瀬田１丁目１２番１２号,,13,112,1580095,,,,,,,2024-04-04,1,,,,,フードエックス,0
517,3010901055015,新規,0,2024-04-04,2024-04-04,株式会社イチローメディカル研究所Ｋ．Ｋ．,,株式会社,東京都,世田谷区,玉川３丁目２９番５号,,13,112,1580094,,,,,,,2024-04-04,1,,,,,イチローメディカルケンキュウジョケーケー,0
519,3010903008945,新規,0,2024-04-04,2024-04-04,合同会社福拓,,合同会社,東京都,世田谷区,若林３丁目９番３－２０２号,,13,112,1540023,,,,,,,2024-04-04,1,,,,,フクヒロ,0
525,3011001161018,新規,0,2024-04-04,2024-04-04,株式会社ネットメディアクリエーション,,株式会社,東京都,渋谷区,桜丘町１５番１４号フジビル４０・７Ｆ,,13,113,1500031,,,,,,,2024-04-04,1,,,,,ネットメディアクリエーション,0
526,3011001161091,新規,0,2024-04-04,2024-04-04,株式会社ｓｏｏｎ．,,株式会社,東京都,渋谷区,神宮前６丁目１２番３号原宿アーバンビル３０１,,13,113,1500001,,,,,,,2024-04-04,1,,,,,スーン,0
527,3011001161100,新規,0,2024-04-04,2024-04-04,株式会社Ｍａｘ　Ｋｉｔｃｈｅｎ　Ｓｔｕｄｉｏ,,株式会社,東京都,渋谷区,千駄ヶ谷１丁目２３番６サンビューハイツ北参道１０２号,,13,113,1510051,,,,,,,2024-04-04,1,,,,,マックスキッチンスタジオ,0
528,3011001161125,新規,0,2024-04-04,2024-04-04,株式会社ＫＯＵＪＯＵＳＨＩＮ,,株式会社,東京都,渋谷区,猿楽町１４番２８ー１０１号,,13,113,1500033,,,,,,,2024-04-04,1,,,,,コウジョウシン,0
529,3011003018835,新規,0,2024-04-04,2024-04-04,合同会社ゼネラルフォース,,合同会社,東京都,渋谷区,広尾１丁目８－２リテラス広尾３０４,,13,113,1500012,,,,,,,2024-04-04,1,,,,,ゼネラルフォース,0
530,3011003018843,新規,0,2024-04-04,2024-04-04,合同会社ＳＹＮＴＨＥＳＩＳ,,合同会社,東京都,渋谷区,神南１丁目１３番１０号ＥＧＧビル１階,,13,113,1500041,,,,,,,2024-04-04,1,,,,,ジンテーゼ,0
531,3011003018851,新規,0,2024-04-04,2024-04-04,合同会社Ｃｈａｒｉｓｍａ,,合同会社,東京都,渋谷区,恵比寿１丁目１５番９号日宝恵比寿ビル４０３,,13,113,1500013,,,,,,,2024-04-04,1,,,,,カリスマ,0
532,3011003018868,新規,0,2024-04-04,2024-04-04,Ｂａｓｈｉｋｏｍａ合同会社,,合同会社,東京都,渋谷区,道玄坂１丁目１０番８号渋谷道玄坂東急ビル２Ｆ－Ｃ,,13,113,1500043,,,,,,,2024-04-04,1,,,,,バシコマ,0
535,3011101106830,新規,0,2024-04-04,2024-04-04,株式会社オブリガード,,株式会社,東京都,新宿区,西新宿６丁目５番１号新宿アイランドタワー２階,,13,104,1600023,,,,,,,2024-04-04,1,,,,,オブリガード,0
537,3011201025385,新規,0,2024-04-04,2024-04-04,株式会社ＡＺＵＮ,,株式会社,東京都,中野区,中央３丁目２２－８,,13,114,1640011,,,,,,,2024-04-04,1,,,,,アズン,0
538,3011301029542,新規,0,2024-04-04,2024-04-04,株式会社コクリ研究所,,株式会社,東京都,杉並区,高円寺北４丁目２４番７－２０２号,,13,115,1660002,,,,,,,2024-04-04,1,,,,,コクリケンキュウジョ,0
539,3011303005120,新規,0,2024-04-04,2024-04-04,合同会社ＴＥＭＰＳ,,合同会社,東京都,杉並区,西荻北３丁目３１番６号,,13,115,1670042,,,,,,,2024-04-04,1,,,,,テンプス,0
540,3011305002974,新規,0,2024-04-04,2024-04-04,医療法人社団永靖会,,その他の設立登記法人,東京都,杉並区,下井草１丁目３２番５号北誠ビル１階,,13,115,1670022,,,,,,,2024-04-04,1,,,,,エイセイカイ,0
542,3011601027667,新規,0,2024-04-04,2024-04-04,株式会社岸工務店,,株式会社,東京都,練馬区,高松５丁目１６番１７－２０３号,,13,120,1790075,,,,,,,2024-04-04,1,,,,,キシコウムテン,0
546,3011701027170,新規,0,2024-04-04,2024-04-04,株式会社クラウドアドバンス,,株式会社,東京都,江戸川区,西小岩１丁目１９－２６ＰｉｅｎｉＫａｌｌｉｏ０５,,13,123,1330057,,,,,,,2024-04-04,1,,,,,クラウドアドバンス,0
550,3012301013858,新規,0,2024-04-04,2024-04-04,株式会社サイゴウ工業,,株式会社,東京都,町田市,高ヶ坂２丁目１５番１号,,13,209,1940014,,,,,,,2024-04-04,1,,,,,サイゴウコウギョウ,0
552,3012801023084,新規,0,2024-04-04,2024-04-04,株式会社ＲＩＳＥ,,株式会社,東京都,立川市,錦町１丁目４番４号,,13,202,1900022,,,,,,,2024-04-04,1,,,,,ライズ,0
553,3012803003349,新規,0,2024-04-04,2024-04-04,エンジェルハート合同会社,,合同会社,東京都,国立市,東４丁目３番地の８、Ｂ‐３,,13,215,1860002,,,,,,,2024-04-04,1,,,,,エンジェルハート,0
555,3020001156497,新規,0,2024-04-04,2024-04-04,株式会社Ｈｏｎｅｓｔａｒ,,株式会社,神奈川県,横浜市神奈川区,大口仲町１７３－１２ユナイト大口メルキュールの杜１０３号室,,14,102,2210003,,,,,,,2024-04-04,1,,,,,オーネスター,0
556,3020001156539,新規,0,2024-04-04,2024-04-04,ＨＩＴ　ＰＯＷＥＲ株式会社,,株式会社,神奈川県,横浜市緑区,長津田７丁目１番４８号２０６,,14,113,2260027,,,,,,,2024-04-04,1,,,,,エイチアイティパワー,0
560,3021001081883,新規,0,2024-04-04,2024-04-04,株式会社大浩テクニークス,,株式会社,神奈川県,相模原市南区,麻溝台１丁目６番１３号,,14,153,2520328,,,,,,,2024-04-04,1,,,,,オオヒロテクニークス,0
563,3030001159565,新規,0,2024-04-04,2024-04-04,株式会社ネコブクロ,,株式会社,埼玉県,蓮田市,関山２丁目７番２１号,,11,238,3490121,,,,,,,2024-04-04,1,,,,,ネコブクロ,0
564,3030001159581,新規,0,2024-04-04,2024-04-04,Ｓｐａｒｋｌｅｚ株式会社,,株式会社,埼玉県,さいたま市中央区,上落合１丁目６－１,,11,105,3380001,,,,,,,2024-04-04,1,,,,,スパークルズ,0
565,3030001159598,新規,0,2024-04-04,2024-04-04,Ａｎｂｅｙ株式会社,,株式会社,埼玉県,さいたま市南区,鹿手袋４丁目２５番３１号サンピア・ベル２０１,,11,108,3360031,,,,,,,2024-04-04,1,,,,,アンビー,0
566,3030001159607,新規,0,2024-04-04,2024-04-04,株式会社カワムラ,,株式会社,埼玉県,越谷市,大字小曽川１００６番地２,,11,222,3430802,,,,,,,2024-04-04,1,,,,,カワムラ,0
567,3030001159631,新規,0,2024-04-04,2024-04-04,株式会社ツカサ企画,,株式会社,埼玉県,さいたま市緑区,東浦和５丁目１２番８号,,11,109,3360926,,,,,,,2024-04-04,1,,,,,ツカサキカク,0
568,3030001159680,新規,0,2024-04-04,2024-04-04,ＦＸＹ株式会社,,株式会社,埼玉県,川口市,幸町２丁目７番１０－２０１号アクシーズタワー川口幸町,,11,203,3320016,,,,,,,2024-04-04,1,,,,,エフエックスワイ,0
570,3030003023926,新規,0,2024-04-04,2024-04-04,ＡＳＫＫ合同会社,,合同会社,埼玉県,さいたま市北区,宮原町３丁目５２７番１号第１シマ企画ビル２Ｆ,,11,102,3310812,,,,,,,2024-04-04,1,,,,,アスク,0
571,3030003023959,新規,0,2024-04-04,2024-04-04,合同会社Ｔ．Ａ．Ｃ,,合同会社,埼玉県,さいたま市桜区,田島３丁目２９番６号,,11,106,3380837,,,,,,,2024-04-04,1,,,,,ティーエーシー,0
572,3030003023983,新規,0,2024-04-04,2024-04-04,皆楽来合同会社,,合同会社,埼玉県,羽生市,大字下新郷６４２番地５,,11,216,3480047,,,,,,,2024-04-04,1,,,,,ミラクル,0
573,3030003024008,新規,0,2024-04-04,2024-04-04,エルフレンド合同会社,,合同会社,埼玉県,所沢市,和ケ原２丁目２１９－２,,11,208,3591162,,,,,,,2024-04-04,1,,,,,エルフレンド,0
574,3040001132959,新規,0,2024-04-04,2024-04-04,株式会社ＦＬトランスポート,,株式会社,千葉県,千葉市若葉区,みつわ台５丁目１番８３号,,12,104,2640032,,,,,,,2024-04-04,1,,,,,エフエルトランスポート,0
575,3040003024683,新規,0,2024-04-04,2024-04-04,合同会社ウィル,,合同会社,千葉県,千葉市中央区,都町１丁目５４番２２－１０８号,,12,101,2600001,,,,,,,2024-04-04,1,,,,,ウィル,0
581,3070003005342,新規,0,2024-04-04,2024-04-04,ＫＡＮＧ　ＢＡＫＳＯ合同会社,,合同会社,群馬県,邑楽郡大泉町,大字寄木戸３７番地タナーＨ号,,10,524,3700535,,,,,,,2024-04-04,1,,,,,カングバクソ,0
583,3080001026224,新規,0,2024-04-04,2024-04-04,谷稲葉商店株式会社,,株式会社,静岡県,藤枝市,谷稲葉２０７番地の１,,22,214,4260083,,,,,,,2024-04-04,1,,,,,ヤイナバショウテン,0
588,3080103003022,新規,0,2024-04-04,2024-04-04,合同会社ボランチ,,合同会社,静岡県,三島市,一番町１２番１９号Ｋ３ＢＬＤＧ．２階,,22,206,4110036,,,,,,,2024-04-04,1,,,,,ボランチ,0
595,3090003002536,新規,0,2024-04-04,2024-04-04,合同会社ｅｘｅ,,合同会社,山梨県,甲府市,住吉２丁目４番３４号,,19,201,4000851,,,,,,,2024-04-04,1,,,,,エグゼ,0
599,3110001038298,新規,0,2024-04-04,2024-04-04,株式会社山新建設,,株式会社,新潟県,長岡市,宮原１丁目２番２１号,,15,202,9400083,,,,,,,2024-04-04,1,,,,,ヤマシンケンセツ,0
600,3110001038307,新規,0,2024-04-04,2024-04-04,わしお農産株式会社,,株式会社,新潟県,新潟市西区,黒鳥５８７８番地,,15,107,9501123,,,,,,,2024-04-04,1,,,,,ワシオノウサン,0
603,3110003005354,新規,0,2024-04-04,2024-04-04,テングリインターナショナル合同会社,,合同会社,新潟県,新潟市北区,木崎２２２９－９６,,15,101,9503304,,,,,,,2024-04-04,1,,,,,テングリインターナショナル,0
610,3120001263696,新規,0,2024-04-04,2024-04-04,Ｓｅｎｓｅ５ｓｔｅｖｉｃｏ　Ｊａｐａｎ株式会社,,株式会社,大阪府,大阪市東淀川区,相川２丁目１０番１４－３０１号,,27,114,5330007,,,,,,,2024-04-04,1,,,,,センスファイブステヴィコジャパン,0
611,3120001263705,新規,0,2024-04-04,2024-04-04,株式会社クレアール,,株式会社,大阪府,大阪市港区,弁天１丁目３番１３－２６０２号,,27,107,5520007,,,,,,,2024-04-04,1,,,,,クレアール,0
612,3120001263721,新規,0,2024-04-04,2024-04-04,株式会社ｔｉｐｔａｐｓ,,株式会社,大阪府,大阪市都島区,毛馬町２丁目１１番３７－９０４号,,27,102,5340001,,,,,,,2024-04-04,1,,,,,ティップタップス,0
613,3120001263738,新規,0,2024-04-04,2024-04-04,株式会社千尋,,株式会社,大阪府,大阪市住之江区,新北島７丁目２－２７ノアーズアーク住之江１４０２,,27,125,5590024,,,,,,,2024-04-04,1,,,,,チヒロ,0
614,3120001263746,新規,0,2024-04-04,2024-04-04,株式会社スマイルＳＦＬ,,株式会社,大阪府,大阪市生野区,田島４丁目１９番１６号,,27,116,5440011,,,,,,,2024-04-04,1,,,,,スマイルエスエフエル,0
615,3120001263754,新規,0,2024-04-04,2024-04-04,株式会社小倉山荘製造,,株式会社,大阪府,大阪市淀川区,西中島５丁目６番２４号,,27,123,5320011,,,,,,,2024-04-04,1,,,,,オグラサンソウセイゾウ,0
616,3120001263804,新規,0,2024-04-04,2024-04-04,ＪＡＰＡＮ　ＭＥＴＡＬ株式会社,,株式会社,大阪府,大阪市中央区,南船場２丁目６番２９号鴨川ビル４０１,,27,128,5420081,,,,,,,2024-04-04,1,,,,,ジャパンメタル,0
619,3120003026291,新規,0,2024-04-04,2024-04-04,合同会社Ｓｈａｗａｒｍａｒｕ,,合同会社,大阪府,大阪市北区,天神橋３丁目３番１８号,,27,127,5300041,,,,,,,2024-04-04,1,,,,,シャワルマル,0
621,3120005024228,新規,0,2024-04-04,2024-04-04,一般社団法人大阪府高校ラグビー交流会,,その他の設立登記法人,大阪府,大阪市北区,天神橋４丁目１１番１８号,,27,127,5300041,,,,,,,2024-04-04,1,,,,,オオサカフコウコウラグビーコウリュウカイ,0
625,3120101069333,新規,0,2024-04-04,2024-04-04,株式会社ＳＨＩＯ空調,,株式会社,大阪府,堺市西区,上野芝向ヶ丘町２丁２２番２２号,,27,144,5938303,,,,,,,2024-04-04,1,,,,,シオクウチョウ,0
626,3120101069341,新規,0,2024-04-04,2024-04-04,株式会社永広農芸,,株式会社,大阪府,岸和田市,積川町１０７番地,,27,202,5960104,,,,,,,2024-04-04,1,,,,,エイコウノウゲイ,0
628,3122001037972,新規,0,2024-04-04,2024-04-04,株式会社Ｎｓｔｙｌｅ建築工房,,株式会社,大阪府,八尾市,黒谷３丁目１２７番地の８,,27,212,5810873,,,,,,,2024-04-04,1,,,,,エヌスタイルケンチクコウボウ,0
629,3122001037980,新規,0,2024-04-04,2024-04-04,ゴールドホールディングス株式会社,,株式会社,大阪府,八尾市,上尾町４丁目１１番地の１５,,27,212,5810851,,,,,,,2024-04-04,1,,,,,ゴールドホールディングス,0
636,3130001076759,新規,0,2024-04-04,2024-04-04,株式会社トラストワーク,,株式会社,京都府,木津川市,城山台５丁目２７番地５－１Ｆ,,26,214,6190218,,,,,,,2024-04-04,1,,,,,トラストワーク,0
637,3130003009411,新規,0,2024-04-04,2024-04-04,ＢＴＰ　ＤＥＳＩＧＮ合同会社,,合同会社,京都府,京都市上京区,油小路中立売西入る甲斐守町９７番地西陣産業創造会館,,26,102,6020000,,,,,,,2024-04-04,1,,,,,ビーティーピーデザイン,0
642,3140001133922,新規,0,2024-04-04,2024-04-04,株式会社安積営農,,株式会社,兵庫県,宍粟市,一宮町安積７９５番地１,,28,227,6714131,,,,,,,2024-04-04,1,,,,,アズミエイノウ,0
644,3140003020367,新規,0,2024-04-04,2024-04-04,ｂ．ｏ．ａ合同会社,,合同会社,兵庫県,西宮市,六軒町２－２－１０６,,28,204,6620874,,,,,,,2024-04-04,1,,,,,ビーオーエー,0
645,3140003020375,新規,0,2024-04-04,2024-04-04,合同会社中川コンサルティング,,合同会社,兵庫県,尼崎市,七松町２丁目２５番１５号,,28,202,6600052,,,,,,,2024-04-04,1,,,,,ナカガワコンサルティング,0
648,3160001025795,新規,0,2024-04-04,2024-04-04,株式会社ＮＥＥＤ,,株式会社,滋賀県,東近江市,大沢町１９７番地,,25,213,5270114,,,,,,,2024-04-04,1,,,,,ニード,0
649,3160003003155,新規,0,2024-04-04,2024-04-04,合同会社さんてらす,,合同会社,滋賀県,彦根市,肥田町３３９,,25,202,5211123,,,,,,,2024-04-04,1,,,,,サンテラス,0
657,3190001017864,新規,0,2024-04-04,2024-04-04,株式会社鍛冶宗,,株式会社,三重県,四日市市,高浜町９番３０号,,24,202,5100026,,,,,,,2024-04-04,1,,,,,,0
658,3190001031238,新規,0,2024-04-04,2024-04-04,株式会社ＦＲＳ,,株式会社,三重県,四日市市,三ツ谷町１３番２号,,24,202,5100802,,,,,,,2024-04-04,1,,,,,エフアールエス,0
659,3190003004638,新規,0,2024-04-04,2024-04-04,ＦＡＭＯＵＳ合同会社,,合同会社,三重県,四日市市,大字日永５２１７番地１市営１‐８号,,24,202,5100885,,,,,,,2024-04-04,1,,,,,フェイマス,0
673,3240001063028,新規,0,2024-04-04,2024-04-04,株式会社Ｄ・リレーションズ,,株式会社,広島県,福山市,引野町北２丁目２３番７号,,34,207,7210941,,,,,,,2024-04-04,1,,,,,ディーリレーションズ,0
675,3250003003468,新規,0,2024-04-04,2024-04-04,合同会社すまいむ,,合同会社,山口県,山口市,駅通り１丁目４番５号,,35,203,7530048,,,,,,,2024-04-04,1,,,,,スマイム,0
676,3260001038936,新規,0,2024-04-04,2024-04-04,ジャパンアグリパワー株式会社,,株式会社,岡山県,岡山市北区,万成東町１２番２７号,,33,101,7000072,,,,,,,2024-04-04,1,,,,,ジャパンアグリパワー,0
679,3280005007605,新規,0,2024-04-04,2024-04-04,一般社団法人雲南医師会,,その他の設立登記法人,島根県,雲南市,大東町飯田９６番地１雲南市立病院内,,32,209,6991221,,,,,,,2024-04-04,1,,,,,ウンナンイシカイ,0
681,3290801030478,新規,0,2024-04-04,2024-04-04,エミエル株式会社,,株式会社,福岡県,直方市,大字感田３１１３番地７,,40,204,8220001,,,,,,,2024-04-04,1,,,,,エミエル,0
682,3290805009725,新規,0,2024-04-04,2024-04-04,医療法人福岡・みずまき母と子の心療所,,その他の設立登記法人,福岡県,遠賀郡水巻町,猪熊８丁目１８番２８号,,40,382,8070001,,,,,,,2024-04-04,1,,,,,フクオカミズマキハハトコノシンリョウジョ,0
683,3300001013678,新規,0,2024-04-04,2024-04-04,株式会社イムズ,,株式会社,佐賀県,佐賀市,久保田町大字徳万８００番地１,,41,201,8490201,,,,,,,2024-04-04,1,,,,,イムズ,0
685,3310001018940,新規,0,2024-04-04,2024-04-04,株式会社東光,,株式会社,長崎県,長崎市,大浦町９番５号３階,,42,201,8500918,,,,,,,2024-04-04,1,,,,,トウコウ,0
689,3320001020391,新規,0,2024-04-04,2024-04-04,株式会社ＴＯＵＳＥＩ,,株式会社,大分県,大分市,大字曲６１１番地の１５,,44,201,8700946,,,,,,,2024-04-04,1,,,,,トウセイ,0
691,3330001031917,新規,0,2024-04-04,2024-04-04,株式会社創永建設,,株式会社,熊本県,玉名市,築地８６５番地１パレド築地１１１号,,43,206,8650065,,,,,,,2024-04-04,1,,,,,ソウエイケンセツ,0
692,3330001031925,新規,0,2024-04-04,2024-04-04,株式会社ｓｏｒａ,,株式会社,熊本県,八代市,平山新町２５２４番地５,,43,202,8660074,,,,,,,2024-04-04,1,,,,,ソラ,0
699,3340001026429,新規,0,2024-04-04,2024-04-04,株式会社弥栄工業,,株式会社,鹿児島県,霧島市,国分下井１９３２番地３,,46,218,8994463,,,,,,,2024-04-04,1,,,,,ミエコウギョウ,0
700,3340005009719,新規,0,2024-04-04,2024-04-04,一般社団法人シニアサポートおおすみ,,その他の設立登記法人,鹿児島県,鹿屋市,旭原町３５８９番地４,,46,203,8930022,,,,,,,2024-04-04,1,,,,,シニアサポートオオスミ,0
701,3350001018879,新規,0,2024-04-04,2024-04-04,株式会社ｊｉｙａｍａｄｏｒｉ,,株式会社,宮崎県,宮崎市,下北方町陣ノ下７４番地１,,45,201,8800035,,,,,,,2024-04-04,1,,,,,ジヤマドリ,0
704,3360001033398,新規,0,2024-04-04,2024-04-04,株式会社ユニバーサルクルーズ宮古島,,株式会社,沖縄県,宮古島市,平良字下里３１０７－４５２,,47,214,9060013,,,,,,,2024-04-04,1,,,,,ユニバーサルクルーズミヤコジマ,0
705,3360001033448,新規,0,2024-04-04,2024-04-04,株式会社石垣島不動産,,株式会社,沖縄県,石垣市,字平得１２７３番地１８５,,47,207,9070003,,,,,,,2024-04-04,1,,,,,イシガキジマフドウサン,0
706,3360001033464,新規,0,2024-04-04,2024-04-04,株式会社トレード学院,,株式会社,沖縄県,那覇市,久茂地２丁目２番２号,,47,201,9000015,,,,,,,2024-04-04,1,,,,,トレードガクイン,0
708,3360003013869,新規,0,2024-04-04,2024-04-04,合同会社Ｈ＆Ｍ．Ｇ,,合同会社,沖縄県,島尻郡南風原町,字宮平２５７番地３・８０９,,47,350,9011104,,,,,,,2024-04-04,1,,,,,エイチアンドエムジー,0
709,3370001051143,新規,0,2024-04-04,2024-04-04,株式会社アイ・エヌ装美,,株式会社,宮城県,仙台市宮城野区,小鶴１丁目２０番１０号アミューズハイツ１０２号,,04,102,9830031,,,,,,,2024-04-04,1,,,,,アイエヌソウビ,0
710,3370003006558,新規,0,2024-04-04,2024-04-04,合同会社Ｏｎｅ　Ｍａｔｃｈ,,合同会社,宮城県,仙台市泉区,虹の丘４丁目２―２１,,04,105,9818007,,,,,,,2024-04-04,1,,,,,ワンマッチ,0
718,3410001013774,新規,0,2024-04-04,2024-04-04,八峰しらかみ株式会社,,株式会社,秋田県,能代市,浜通町１番４５号,,05,202,0160801,,,,,,,2024-04-04,1,,,,,ハッポウシラカミ,0
723,3430001091455,新規,0,2024-04-04,2024-04-04,株式会社ＨＯＫＵＥＩ,,株式会社,北海道,北広島市,輪厚工業団地１丁目２番地３,,01,234,0611281,,,,,,,2024-04-04,1,,,,,ホクエイ,0
726,3460001005882,新規,0,2024-04-04,2024-04-04,ＫＴＳ株式会社,,株式会社,北海道,川上郡標茶町,開運７丁目６８番地,,01,664,0882311,,,,,,,2024-04-04,1,,,,,ケーティーエス,0
730,3470001020113,新規,0,2024-04-04,2024-04-04,株式会社クラクション,,株式会社,香川県,高松市,上福岡町２０５８番地５,,37,201,7600077,,,,,,,2024-04-04,1,,,,,クラクション,0
731,3470001020121,新規,0,2024-04-04,2024-04-04,株式会社アイパー・ジャパン,,株式会社,香川県,高松市,栗林町１丁目１５番１８号,,37,201,7600073,,,,,,,2024-04-04,1,,,,,アイパージャパン,0
733,3500001025562,新規,0,2024-04-04,2024-04-04,株式会社ギャツビー・インターナショナル,,株式会社,愛媛県,松山市,千舟町８丁目７２番地１,,38,201,7900011,,,,,,,2024-04-04,1,,,,,ギャツビーインターナショナル,0
736,3700150111746,新規,0,2024-04-04,2024-04-04,ｂｉｇｅｓａｉｌｅ（ｇｕａｎｇｚｈｏｕ）ｍａｏｙｉｙｏｕｘｉａｎｇｏｎｇｓｉ,,外国会社等,,,,,,,,ｘｉｎｔａｎｇｚｈｅｎ　ｎｉｕｚａｉｃｈｅｎｇ　ｓａｎｌｕ２ｈａｏ（ｃｈａｎｇｆａｎｇ）Ｂ　ｄｏｎｇｅｒｌｏｕ２０１ｓｈｉ　ｚｅｎｇｃｈｅｎｇｑｕ　ｇｕａｎｇｚｈｏｕｓｈｉ　ｇｕａｎｇｄｏｎｇｓｈｅｎｇ,,,,,,2024-04-04,1,,,,,ビゲサイルグワンジョウマオイヨウシエンゴンス,0
737,3700150124707,新規,0,2024-04-04,2024-04-04,ゆうあい労働協同組合だんだん,,その他,大分県,大分市,高城西町３２－３６,,44,201,8700154,,,,,,,2024-04-04,1,,,,,ユウアイロウドウキョウドウクミアイダンダン,0
743,4010003043347,新規,0,2024-04-04,2024-04-04,合同会社ＭＩＬＡＫＵ,,合同会社,東京都,中央区,銀座１丁目２２番１１号銀座大竹ビジデンス２Ｆ,,13,102,1040061,,,,,,,2024-04-04,1,,,,,ミラク,0
758,4010803004903,新規,0,2024-04-04,2024-04-04,アーストリニティ合同会社,,合同会社,東京都,大田区,北嶺町８番７号,,13,111,1450073,,,,,,,2024-04-04,1,,,,,アーストリニティ,0
763,4011001161017,新規,0,2024-04-04,2024-04-04,ＦｅｅｄＢｏｏｋ株式会社,,株式会社,東京都,渋谷区,桜丘町１５番１４号フジビル４０・７Ｆ,,13,113,1500031,,,,,,,2024-04-04,1,,,,,フィードブック,0
764,4011001161041,新規,0,2024-04-04,2024-04-04,株式会社ｉｎｏｕｇｈ,,株式会社,東京都,渋谷区,神南１丁目２３番１４号リージャス渋谷公園通りビル１Ｆ,,13,113,1500041,,,,,,,2024-04-04,1,,,,,イナフ,0
765,4011001161066,新規,0,2024-04-04,2024-04-04,株式会社ピーチコンサルティング,,株式会社,東京都,渋谷区,東２丁目１６番９号,,13,113,1500011,,,,,,,2024-04-04,1,,,,,ピーチコンサルティング,0
766,4011001161090,新規,0,2024-04-04,2024-04-04,ファーストアルファ株式会社,,株式会社,東京都,目黒区,青葉台１丁目２２番１０号４０２,,13,110,1530042,,,,,,,2024-04-04,1,,,,,ファーストアルファ,0
767,4011003018859,新規,0,2024-04-04,2024-04-04,ＷａｔｏＥｙ合同会社,,合同会社,東京都,渋谷区,西原１丁目３５番１４号,,13,113,1510066,,,,,,,2024-04-04,1,,,,,ワトエィ,0
768,4011101106788,新規,0,2024-04-04,2024-04-04,ＦＸＭ株式会社,,株式会社,東京都,新宿区,片町１番１号,,13,104,1600001,,,,,,,2024-04-04,1,,,,,エフエックスエム,0
769,4011105011002,新規,0,2024-04-04,2024-04-04,一般社団法人投資不動産販売員協会,,その他の設立登記法人,東京都,新宿区,西新宿８丁目１１番１号,,13,104,1600023,,,,,,,2024-04-04,1,,,,,トウシフドウサンハンバイインキョウカイ,0
772,4011205002594,新規,0,2024-04-04,2024-04-04,一般社団法人堤式母乳助産師協会,,その他の設立登記法人,東京都,中野区,新井２丁目５番４号,,13,114,1650026,,,,,,,2024-04-04,1,,,,,ツツミシキボニュウジョサンシキョウカイ,0
773,4011301029541,新規,0,2024-04-04,2024-04-04,ＴＭＥ株式会社,,株式会社,東京都,杉並区,上高井戸３丁目４番９号,,13,115,1680074,,,,,,,2024-04-04,1,,,,,ティーエムイー,0
774,4011401025993,新規,0,2024-04-04,2024-04-04,株式会社モア,,株式会社,東京都,板橋区,徳丸５丁目１１－１８,,13,119,1750083,,,,,,,2024-04-04,1,,,,,モア,0
783,4011801044016,新規,0,2024-04-04,2024-04-04,ファームグランマ株式会社,,株式会社,東京都,足立区,日ノ出町２８番５号,,13,121,1200021,,,,,,,2024-04-04,1,,,,,ファームグランマ,0
785,4012403006494,新規,0,2024-04-04,2024-04-04,合同会社青山中小企業診断士事務所,,合同会社,東京都,調布市,西つつじケ丘３丁目２６－７アーバンフラッツＭＡ２０３,,13,208,1820006,,,,,,,2024-04-04,1,,,,,アオヤマチュウショウキギョウシンダンシジムショ,0
786,4012801023083,新規,0,2024-04-04,2024-04-04,株式会社神谷建設,,株式会社,東京都,昭島市,上川原町１丁目１９番６号,,13,207,1960011,,,,,,,2024-04-04,1,,,,,カミヤケンセツ,0
787,4012801023091,新規,0,2024-04-04,2024-04-04,株式会社フューチャー,,株式会社,東京都,国分寺市,本町１丁目５番１２号,,13,214,1850012,,,,,,,2024-04-04,1,,,,,フューチャー,0
788,4012803003348,新規,0,2024-04-04,2024-04-04,合同会社未陽,,合同会社,東京都,国立市,中２丁目１９番地の１３,,13,215,1860004,,,,,,,2024-04-04,1,,,,,ミヤ,0
796,4020001156513,新規,0,2024-04-04,2024-04-04,Ｍ３スタッフ株式会社,,株式会社,神奈川県,横浜市中区,桜木町１丁目１０１番１号クロスゲート７階,,14,104,2310062,,,,,,,2024-04-04,1,,,,,エムスリースタッフ,0
797,4020001156538,新規,0,2024-04-04,2024-04-04,株式会社ＹＳＭクリエイト,,株式会社,神奈川県,横浜市西区,北幸１丁目１１番１号水信ビル７階,,14,103,2200004,,,,,,,2024-04-04,1,,,,,ワイエスエムクリエイト,0
798,4020001156604,新規,0,2024-04-04,2024-04-04,日本アイエフイ株式会社,,株式会社,神奈川県,川崎市川崎区,小川町１７－１４アリウス１４０２号,,14,131,2100023,,,,,,,2024-04-04,1,,,,,ニホンアイエフイ,0
801,4020003025848,新規,0,2024-04-04,2024-04-04,合同会社Ｃｕｏｒｅ,,合同会社,神奈川県,川崎市幸区,下平間１８８番地１３,,14,132,2120053,,,,,,,2024-04-04,1,,,,,クオーレ,0
802,4020003025864,新規,0,2024-04-04,2024-04-04,Ｓｔａｒ　Ｔａｌｋ合同会社,,合同会社,神奈川県,横浜市港北区,小机町５８番地１カーネルライフＩＩ１階Ａ,00134297,14,109,2220036,,,,,,,2024-04-04,1,,,,,スタートーク,0
803,4020003025872,新規,0,2024-04-04,2024-04-04,合同会社縁星,,合同会社,神奈川県,横浜市金沢区,六浦東３丁目１０番３号,,14,108,2360037,,,,,,,2024-04-04,1,,,,,エンセイ,0
806,4030001159556,新規,0,2024-04-04,2024-04-04,松栄企画株式会社,,株式会社,埼玉県,さいたま市大宮区,吉敷町１丁目５番地,,11,103,3300843,,,,,,,2024-04-04,1,,,,,ショウエイキカク,0
807,4030001159572,新規,0,2024-04-04,2024-04-04,ＧＴ　Ａｓｉａ株式会社,,株式会社,埼玉県,加須市,杓子木１２４番地１,,11,210,3491142,,,,,,,2024-04-04,1,,,,,ジーティーアジア,0
808,4030001159580,新規,0,2024-04-04,2024-04-04,株式会社ＯＳＡＷＡ,,株式会社,埼玉県,さいたま市大宮区,大門町３丁目１０３番地２－２Ｆ,,11,103,3300846,,,,,,,2024-04-04,1,,,,,オオサワ,0
809,4030001159606,新規,0,2024-04-04,2024-04-04,株式会社Ｌ‐ＯＮＥ,,株式会社,埼玉県,さいたま市大宮区,桜木町１丁目３９８番地１アドグレイス大宮７階,,11,103,3300854,,,,,,,2024-04-04,1,,,,,エルワン,0
810,4030001159647,新規,0,2024-04-04,2024-04-04,株式会社＿,00134304,株式会社,埼玉県,比企郡小川町,大字青山１０１１番地１０,,11,343,3550324,,,,,,,2024-04-04,1,,,,,ジン,0
811,4030001159688,新規,0,2024-04-04,2024-04-04,株式会社ＳＯＲＡＥ,,株式会社,埼玉県,深谷市,針ヶ谷７９３番地６,,11,218,3690213,,,,,,,2024-04-04,1,,,,,ソラエ,0
813,4030003023958,新規,0,2024-04-04,2024-04-04,ｋ‐ｔｒａｄｅ合同会社,,合同会社,埼玉県,さいたま市緑区,道祖土４丁目３７番１２号のぞみ荘２号,,11,109,3360907,,,,,,,2024-04-04,1,,,,,ケートレード,0
814,4030003023982,新規,0,2024-04-04,2024-04-04,合同会社ＩＭＰＡＣＴ,,合同会社,埼玉県,さいたま市南区,別所５丁目１５番２号,,11,108,3360021,,,,,,,2024-04-04,1,,,,,インパクト,0
818,4040001132982,新規,0,2024-04-04,2024-04-04,菜の花アセットコンサルティング株式会社,,株式会社,千葉県,千葉市中央区,中央２丁目３番１６号,,12,101,2600013,,,,,,,2024-04-04,1,,,,,ナノハナアセットコンサルティング,0
820,4040005022338,新規,0,2024-04-04,2024-04-04,医療法人社団真惺会,,その他の設立登記法人,千葉県,印西市,中央北１丁目１番地ＡＰＯＬＬＯＰＬＡＮＴＭＡＬＬ２Ｆ－８,00134294,12,231,2701350,,,,,,,2024-04-04,1,,,,,シンセイカイ,0
822,4050003008247,新規,0,2024-04-04,2024-04-04,ココロオドル合同会社,,合同会社,茨城県,つくば市,高野台２丁目１９番地２１,,08,220,3050074,,,,,,,2024-04-04,1,,,,,ココロオドル,0
824,4060005010191,新規,0,2024-04-04,2024-04-04,一般財団法人飯村平和財団,,その他の設立登記法人,栃木県,宇都宮市,京町４番１０号,,09,201,3200842,,,,,,,2024-04-04,1,,,,,イイムラヘイワザイダン,0
828,4070001041578,新規,0,2024-04-04,2024-04-04,株式会社クリーンアート,,株式会社,群馬県,前橋市,南町３丁目５０番地２プラザアン２階Ｄ－６０,,10,201,3710805,,,,,,,2024-04-04,1,,,,,クリーンアート,0
830,4080001026223,新規,0,2024-04-04,2024-04-04,株式会社ノースポート,,株式会社,静岡県,静岡市駿河区,国吉田４丁目１６番１０号,,22,102,4228004,,,,,,,2024-04-04,1,,,,,ノースポート,0
833,4080101024639,新規,0,2024-04-04,2024-04-04,株式会社エコデモ,,株式会社,静岡県,富士宮市,山宮３５０７番地の１９,,22,207,4180111,,,,,,,2024-04-04,1,,,,,エコデモ,0
834,4080101024655,新規,0,2024-04-04,2024-04-04,Ｔｈｅ　Ｌａｙｅｒ株式会社,,株式会社,静岡県,熱海市,咲見町６－３６野中山マンション５１１号,,22,205,4130019,,,,,,,2024-04-04,1,,,,,ザレイヤー,0
843,4090001018632,新規,0,2024-04-04,2024-04-04,株式会社ＲｉＣＨＥ,,株式会社,山梨県,中巨摩郡昭和町,河東中島１７４２番地４,,19,384,4093863,,,,,,,2024-04-04,1,,,,,リッシュ,0
848,4100003007466,新規,0,2024-04-04,2024-04-04,丸ヒ伊南社平澤製糸合資会社,,合資会社,長野県,伊那市,西春近５２１２番地,,20,209,3994431,,,,,,,2024-04-04,1,,,,,マルヒイナンシャヒラサワセイシ,0
850,4110001038289,新規,0,2024-04-04,2024-04-04,株式会社ＣｏｗＣｏｗＣｏｍｐａｎｙ,,株式会社,新潟県,佐渡市,石田４４５番地３,,15,224,9521322,,,,,,,2024-04-04,1,,,,,カウカウカンパニー,0
851,4110001038297,新規,0,2024-04-04,2024-04-04,株式会社勝又住設,,株式会社,新潟県,柏崎市,大字宮川２３６３番地,,15,205,9450402,,,,,,,2024-04-04,1,,,,,カツマタジュウセツ,0
855,4110003005353,新規,0,2024-04-04,2024-04-04,合同会社ＱＵ,,合同会社,新潟県,燕市,東太田６７４９－１クレッセント燕Ａ１０５,,15,213,9591289,,,,,,,2024-04-04,1,,,,,キューユー,0
859,4120001263687,新規,0,2024-04-04,2024-04-04,ＤＡＦ　ＳＨＯＥＳ株式会社,,株式会社,大阪府,大阪市西区,北堀江１丁目６番２号サンワールドビル,,27,106,5500014,,,,,,,2024-04-04,1,,,,,ダフシューズ,0
860,4120001263695,新規,0,2024-04-04,2024-04-04,株式会社トラベルエージェンシー,,株式会社,大阪府,大阪市阿倍野区,松崎町２丁目１番３６－３２０１号,,27,119,5450053,,,,,,,2024-04-04,1,,,,,トラベルエージェンシー,0
861,4120001263737,新規,0,2024-04-04,2024-04-04,株式会社グランシャリオ,,株式会社,大阪府,大阪市平野区,長吉長原２丁目２－２２,,27,126,5470016,,,,,,,2024-04-04,1,,,,,グランシャリオ,0
862,4120001263761,新規,0,2024-04-04,2024-04-04,Ｂｏｕｎｄａｒｙ株式会社,,株式会社,大阪府,大阪市北区,梅田１丁目１－３大阪駅前第３ビル２９階１－１－１号室,,27,127,5300001,,,,,,,2024-04-04,1,,,,,バウンダリー,0
866,4120003026324,新規,0,2024-04-04,2024-04-04,合同会社Ｔａｌｏｎ,,合同会社,大阪府,大阪市北区,梅田１丁目２番２号大阪駅前第２ビル１２‐１２,,27,127,5300001,,,,,,,2024-04-04,1,,,,,タロン,0
870,4120101069349,新規,0,2024-04-04,2024-04-04,株式会社ＴＯＵＲ　ＣＬＵＢ　ＪＡＰＡＮ,,株式会社,大阪府,泉佐野市,高松東１丁目１０番３７号泉佐野センタービル１３１５号室,,27,213,5980012,,,,,,,2024-04-04,1,,,,,ツアークラブジャパン,0
875,4130005017064,新規,0,2024-04-04,2024-04-04,医療法人すざく小林歯科,,その他の設立登記法人,京都府,京都市中京区,壬生朱雀町２番地１３朱雀Ｋ’ｓビル２階・３階,,26,104,6048871,,,,,,,2024-04-04,1,,,,,スザクコバヤシシカ,0
877,4140001133913,新規,0,2024-04-04,2024-04-04,株式会社ＪＫ．ａｇｅｎｔ,,株式会社,兵庫県,神戸市中央区,港島中町６丁目１４番地Ｂ棟２３０３号,,28,110,6500046,,,,,,,2024-04-04,1,,,,,ジェーケイドットエージェント,0
878,4140001133921,新規,0,2024-04-04,2024-04-04,株式会社内野工業,,株式会社,兵庫県,揖保郡太子町,下阿曽１３番地１,,28,464,6711552,,,,,,,2024-04-04,1,,,,,ウチノコウギョウ,0
879,4140001133938,新規,0,2024-04-04,2024-04-04,株式会社エース興産,,株式会社,兵庫県,神戸市兵庫区,新開地１丁目４番１６－１３０６号,,28,105,6520811,,,,,,,2024-04-04,1,,,,,エースコウサン,0
880,4140001133962,新規,0,2024-04-04,2024-04-04,株式会社白鷺,,株式会社,兵庫県,姫路市,広畑区北野町２丁目２７番地,,28,201,6711112,,,,,,,2024-04-04,1,,,,,シラサギ,0
881,4140001133979,新規,0,2024-04-04,2024-04-04,株式会社紡樹,,株式会社,兵庫県,川西市,丸山台２丁目３番地の８６,,28,217,6660152,,,,,,,2024-04-04,1,,,,,ツムギ,0
883,4140005027021,新規,0,2024-04-04,2024-04-04,労働者協同組合グリーンクルー,,その他の設立登記法人,兵庫県,神戸市垂水区,小束山手２丁目２－１ブランチ神戸学園都市まちづくりスポット神戸内,,28,108,6550009,,,,,,,2024-04-04,1,,,,,グリーンクルー,0
885,4160001025803,新規,0,2024-04-04,2024-04-04,株式会社大真,,株式会社,滋賀県,長浜市,南田附町２６９番地３,,25,203,5260844,,,,,,,2024-04-04,1,,,,,ダイシン,0
886,4160003003154,新規,0,2024-04-04,2024-04-04,合同会社ＹＴカンパニー,,合同会社,滋賀県,長浜市,地福寺町１５番６号,,25,203,5260036,,,,,,,2024-04-04,1,,,,,ワイティーカンパニー,0
889,4170001018087,新規,0,2024-04-04,2024-04-04,株式会社アブソープション,,株式会社,和歌山県,田辺市,高雄１丁目１４―１４,,30,206,6460028,,,,,,,2024-04-04,1,,,,,アブソープション,0
895,4180001160821,新規,0,2024-04-04,2024-04-04,株式会社ペガサスシステム,,株式会社,愛知県,名古屋市中区,錦２丁目８番２６号,,23,106,4600003,,,,,,,2024-04-04,1,,,,,ペガサスシステム,0
896,4180001160846,新規,0,2024-04-04,2024-04-04,株式会社ＹＧ　ＥＳＴＡＴＥ,,株式会社,愛知県,名古屋市西区,則武新町４丁目４番２５号ＡＤＵＳＡＹ１Ｆ,,23,104,4510051,,,,,,,2024-04-04,1,,,,,ワイジーエステイト,0
899,4180003026590,新規,0,2024-04-04,2024-04-04,丙癸合同会社,,合同会社,愛知県,名古屋市中区,栄１丁目１３番２０号,,23,106,4600008,,,,,,,2024-04-04,1,,,,,ヘイキ,0
904,4180005020575,新規,0,2024-04-04,2024-04-04,一般社団法人日本搬送学会,,その他の設立登記法人,愛知県,長久手市,岩作雁又１番地１（愛知医科大学病院高度救命救急センター内）,,23,238,4801103,,,,,,,2024-04-04,1,,,,,ニホンハンソウガッカイ,0
908,4190001031237,新規,0,2024-04-04,2024-04-04,株式会社田中商事,,株式会社,三重県,四日市市,富士町５番１３号,,24,202,5100013,,,,,,,2024-04-04,1,,,,,タナカショウジ,0
909,4190001031245,新規,0,2024-04-04,2024-04-04,株式会社竜電工,,株式会社,三重県,松阪市,駅部田町７０９番地４,,24,204,5150045,,,,,,,2024-04-04,1,,,,,タツデンコウ,0
915,4240001063019,新規,0,2024-04-04,2024-04-04,株式会社ヤマケン,,株式会社,広島県,廿日市市,宮園上３丁目４番１３号,,34,213,7380037,,,,,,,2024-04-04,1,,,,,ヤマケン,0
918,4250001020596,新規,0,2024-04-04,2024-04-04,株式会社木本管工,,株式会社,山口県,山口市,秋穂東４１３３番地５,,35,203,7541101,,,,,,,2024-04-04,1,,,,,キモトカンコウ,0
923,4280005007604,新規,0,2024-04-04,2024-04-04,一般社団法人かわもと暮らし,,その他の設立登記法人,島根県,邑智郡川本町,大字川本６０８番地１,,32,441,6960001,,,,,,,2024-04-04,1,,,,,カワモトグラシ,0
930,4290803004669,新規,0,2024-04-04,2024-04-04,ＤＵ合同会社,,合同会社,福岡県,北九州市小倉北区,赤坂３丁目６番２２－２０３号,,40,106,8020032,,,,,,,2024-04-04,1,,,,,ディーユー,0
935,4320001020390,新規,0,2024-04-04,2024-04-04,株式会社ロール不動産,,株式会社,大分県,大分市,牧２丁目３番２８号,,44,201,8700924,,,,,,,2024-04-04,1,,,,,ロールフドウサン,0
937,4330001031924,新規,0,2024-04-04,2024-04-04,Ｂｏｓａｉ　Ｔｅｃｈ株式会社,,株式会社,熊本県,熊本市中央区,下通１丁目１２－２７－５Ｆ,,43,101,8600807,,,,,,,2024-04-04,1,,,,,,0
938,4330001031932,新規,0,2024-04-04,2024-04-04,株式会社リペアサポート,,株式会社,熊本県,熊本市中央区,八王寺町６番５号,,43,101,8600831,,,,,,,2024-04-04,1,,,,,リペアサポート,0
939,4340001026428,新規,0,2024-04-04,2024-04-04,農業生産法人アーセンキッチン株式会社,,株式会社,鹿児島県,肝属郡南大隅町,根占川北４３番地１５,,46,491,8932501,,,,,,,2024-04-04,1,,,,,ノウギョウセイサンホウジンアーセンキッチン,0
942,4340003004423,新規,0,2024-04-04,2024-04-04,合同会社Ｎｏｖａ　Ｎｅｘｕｓ,,合同会社,鹿児島県,霧島市,隼人町住吉１７１－２,,46,218,8995101,,,,,,,2024-04-04,1,,,,,ノヴァネクサス,0
943,4340005009718,新規,0,2024-04-04,2024-04-04,一般社団法人ｅｖｅｒｙｂｏｄｙ　ｔｅｍｐｏ,,その他の設立登記法人,鹿児島県,霧島市,隼人町小浜７６６番地,,46,218,8995103,,,,,,,2024-04-04,1,,,,,エブリバディテンポ,0
945,4360003013876,新規,0,2024-04-04,2024-04-04,合同会社Ｅｖｅｒｇｌｏｗ,,合同会社,沖縄県,那覇市,曙３丁目２１－１海宝マンション９０１,,47,201,9000002,,,,,,,2024-04-04,1,,,,,エバーグロー,0
947,4370001051126,新規,0,2024-04-04,2024-04-04,株式会社宮城メイコー,,株式会社,宮城県,石巻市,重吉町８番地５,,04,202,9860844,,,,,,,2024-04-04,1,,,,,ミヤギメイコー,0
948,4370003006549,新規,0,2024-04-04,2024-04-04,ブルーグラスレーシング合同会社,,合同会社,宮城県,仙台市若林区,若林１丁目４番１７号,,04,103,9840826,,,,,,,2024-04-04,1,,,,,ブルーグラスレーシング,0
964,4430001091462,新規,0,2024-04-04,2024-04-04,野本工業株式会社,,株式会社,北海道,室蘭市,日の出町３丁目１４番１５号,,01,205,0500081,,,,,,,2024-04-04,1,,,,,ノモトコウギョウ,0
965,4430001091495,新規,0,2024-04-04,2024-04-04,株式会社シーワークス,,株式会社,北海道,古宇郡泊村,大字茅沼村字臼別２１６番地,,01,403,0450202,,,,,,,2024-04-04,1,,,,,シーワークス,0
966,4430003016161,新規,0,2024-04-04,2024-04-04,合同会社ＹＵＭＥ　ＴＲＡＶＥＬ,,合同会社,北海道,札幌市中央区,北四条西１１丁目１２番地－４０８,,01,101,0600004,,,,,,,2024-04-04,1,,,,,ユメトラベル,0
968,4460003000988,新規,0,2024-04-04,2024-04-04,合同会社Ｃｏｎｎｅｃｔ技建,,合同会社,北海道,釧路市,文苑４丁目４１番１４号,,01,206,0850063,,,,,,,2024-04-04,1,,,,,,0
970,4470003002620,新規,0,2024-04-04,2024-04-04,はざま篠原農産合同会社,,合同会社,香川県,仲多度郡まんのう町,羽間２４１４番地３,,37,406,7660014,,,,,,,2024-04-04,1,,,,,ハザマシノハラノウサン,0
971,4480001012430,新規,0,2024-04-04,2024-04-04,株式会社Ｔｈｉｒｄ　Ｐｌａｃｅ,,株式会社,徳島県,徳島市,万代町５丁目７１番地の４号,,36,201,7700941,,,,,,,2024-04-04,1,,,,,サードプレイス,0
972,4500001025561,新規,0,2024-04-04,2024-04-04,株式会社Ｍ’ｓＲ３９,,株式会社,愛媛県,越智郡上島町,弓削久司浦１０９４番地１,,38,356,7942501,,,,,,,2024-04-04,1,,,,,エムズアールサンキュー,0
974,4700150124706,新規,0,2024-04-04,2024-04-04,ｓｈｅｎｚｈｅｎｓｈｉｘｉｔｉａｎｂａｏｍａｏｙｉｙｏｕｘｉａｎｇｏｎｇｓｉ,,外国会社等,,,,,,,,ｓｈｅｎｚｈｅｎｓｈｉｌｏｎｇｇａｎｇｑｕｈｅｎｇｇａｎｇｊｉｅｄａｏｈｅｎｇｇａｎｇｓｈｅｑｕｈｕａｘｉｅｒｌｕ２１ｈａｏＡｄｏｎｇ５０１,,,,,,2024-04-04,1,,,,,シェンジェンシーシイティエンバオマオイーヨウシエンゴーンスー,0
980,5010001243600,新規,0,2024-04-04,2024-04-04,株式会社ＰＬＡＹＭＡＫＥＲ,,株式会社,東京都,千代田区,神田須田町１丁目１８番地,,13,101,1010041,,,,,,,2024-04-04,1,,,,,プレイメーカー,0
983,5010101016071,新規,0,2024-04-04,2024-04-04,Ｍ６株式会社,,株式会社,東京都,八王子市,上川町１６６４番地１,,13,201,1920151,,,,,,,2024-04-04,1,,,,,エムシックス,0
989,5010401181490,新規,0,2024-04-04,2024-04-04,株式会社Ｃｌｅａｒ　ｓｋｙ,,株式会社,東京都,港区,南麻布４丁目１４番５号,,13,103,1060047,,,,,,,2024-04-04,1,,,,,クリアスカイ,0
992,5010501052055,新規,0,2024-04-04,2024-04-04,株式会社ＭＵＲＡＳＡＫＩ　ＳＵＲＦＢＯＡＲＤ　ＩＮＤＵＳＴＲＩＥＳ,,株式会社,東京都,台東区,上野７丁目１４番５号,,13,106,1100005,,,,,,,2024-04-04,1,,,,,ムラサキサーフボードインダストリーズ,0
994,5010503007395,新規,0,2024-04-04,2024-04-04,ジガロ合同会社,,合同会社,東京都,台東区,浅草１丁目１３番５号井門浅草すしや通りビル４階－１０,,13,106,1110032,,,,,,,2024-04-04,1,,,,,ジガロ,0
995,5010505003509,新規,0,2024-04-04,2024-04-04,一般社団法人バイオマスボイラ工業会,,その他の設立登記法人,東京都,台東区,台東３丁目１２番５号,,13,106,1100016,,,,,,,2024-04-04,1,,,,,バイオマスボイラコウギョウカイ,0
1004,5010603010745,新規,0,2024-04-04,2024-04-04,合同会社Ｒｏａ,,合同会社,東京都,墨田区,押上２丁目３３番７－３０３号押上ＰＡＲＫＳＱＵＡＲＥ,,13,107,1310045,,,,,,,2024-04-04,1,,,,,ロア,0
1006,5010901055005,新規,0,2024-04-04,2024-04-04,株式会社エスティフロー,,株式会社,東京都,世田谷区,上野毛１丁目２９番１号２０２号,,13,112,1580093,,,,,,,2024-04-04,1,,,,,エスティフロー,0
1010,5011001161040,新規,0,2024-04-04,2024-04-04,株式会社医食部,,株式会社,東京都,目黒区,中根１丁目３番１７号パピルス都立大Ｂ１,,13,110,1520031,,,,,,,2024-04-04,1,,,,,イショクブ,0
1011,5011001161081,新規,0,2024-04-04,2024-04-04,株式会社エム・エイチ,,株式会社,東京都,目黒区,五本木２丁目３６番１０号ホワイトハイツ五本木Ｂ,,13,110,1530053,,,,,,,2024-04-04,1,,,,,エムエイチ,0
1012,5011001161098,新規,0,2024-04-04,2024-04-04,株式会社ＣＷＢ,,株式会社,東京都,目黒区,自由が丘２丁目１５番２２号オカベビル,,13,110,1520035,,,,,,,2024-04-04,1,,,,,シーダブリュービー,0
1016,5011101106820,新規,0,2024-04-04,2024-04-04,株式会社ＤＡＥＧ,,株式会社,東京都,新宿区,新宿２丁目１２－１３新宿アントレサロンビル２階,,13,104,1600022,,,,,,,2024-04-04,1,,,,,ダエグ,0
1019,5011301029540,新規,0,2024-04-04,2024-04-04,株式会社ＦＭＰ,,株式会社,東京都,杉並区,高円寺南２丁目５４番７号スウォナーレ１０２,,13,115,1660003,,,,,,,2024-04-04,1,,,,,エフエムピー,0
1021,5011303005119,新規,0,2024-04-04,2024-04-04,合同会社メディアデリバリー,,合同会社,東京都,杉並区,成田東１丁目２７番５号,,13,115,1660015,,,,,,,2024-04-04,1,,,,,メディアデリバリー,0
1025,5011601027665,新規,0,2024-04-04,2024-04-04,株式会社エス・フィールド,,株式会社,東京都,練馬区,石神井台６丁目４番１０号,,13,120,1770045,,,,,,,2024-04-04,1,,,,,エスフィールド,0
1028,5012301013848,新規,0,2024-04-04,2024-04-04,株式会社Ｒｅ．Ｆｕｔｕｒｅ,,株式会社,東京都,町田市,鶴間６丁目１５－２４,,13,209,1940004,,,,,,,2024-04-04,1,,,,,リフューチャー,0
1030,5012401041699,新規,0,2024-04-04,2024-04-04,株式会社福ちゃん福祉Ｂｉｚ研究所,,株式会社,東京都,多摩市,鶴牧６丁目１番地１４－１,,13,224,2060034,,,,,,,2024-04-04,1,,,,,フクチャンフクシビズケンキュウジョ,0
1031,5012401041708,新規,0,2024-04-04,2024-04-04,株式会社Ｋｏｌｍｉｏ,,株式会社,東京都,三鷹市,中原１丁目６番２１号仙川プラスＢ,,13,204,1810005,,,,,,,2024-04-04,1,,,,,コルミオ,0
1035,5020001156529,新規,0,2024-04-04,2024-04-04,株式会社ヴィータ,,株式会社,神奈川県,川崎市宮前区,梶ケ谷１４７２番地８,,14,136,2160034,,,,,,,2024-04-04,1,,,,,ヴィータ,0
1036,5020001156586,新規,0,2024-04-04,2024-04-04,株式会社ヤマロジスティクス,,株式会社,神奈川県,川崎市高津区,子母口５０７番地,,14,134,2130023,,,,,,,2024-04-04,1,,,,,ヤマロジスティクス,0
1037,5020001156603,新規,0,2024-04-04,2024-04-04,株式会社ライズワークス神奈川,,株式会社,神奈川県,川崎市中原区,木月１丁目２４番６号,,14,133,2110025,,,,,,,2024-04-04,1,,,,,ライズワークスカナガワ,0
1042,5020003025855,新規,0,2024-04-04,2024-04-04,誠実舎合同会社,,合同会社,神奈川県,横浜市西区,藤棚町２丁目２２１番地４パレス藤棚２０５号,,14,103,2200053,,,,,,,2024-04-04,1,,,,,セイジツシャ,0
1043,5020003025888,新規,0,2024-04-04,2024-04-04,合同会社ＳＳＯＴ,,合同会社,神奈川県,横浜市西区,楠町７番地１,,14,103,2200003,,,,,,,2024-04-04,1,,,,,エスエスオーティ,0
1048,5030001159563,新規,0,2024-04-04,2024-04-04,株式会社幸星ビルサービス,,株式会社,埼玉県,さいたま市見沼区,大字大谷４５番地２６,,11,104,3370014,,,,,,,2024-04-04,1,,,,,コウセイビルサービス,0
1049,5030001159571,新規,0,2024-04-04,2024-04-04,株式会社コラボ企画,,株式会社,埼玉県,上尾市,五番町１２番地７,,11,219,3620024,,,,,,,2024-04-04,1,,,,,コラボキカク,0
1050,5030003023973,新規,0,2024-04-04,2024-04-04,合同会社とことこ,,合同会社,埼玉県,越谷市,花田２丁目１７番地３,,11,222,3430015,,,,,,,2024-04-04,1,,,,,トコトコ,0
1051,5030003023981,新規,0,2024-04-04,2024-04-04,ニューライフ合同会社,,合同会社,埼玉県,熊谷市,万平町１丁目１３４番地,,11,202,3600034,,,,,,,2024-04-04,1,,,,,ニューライフ,0
1053,5040001132809,新規,0,2024-04-04,2024-04-04,株式会社かつみ工務店,,株式会社,千葉県,野田市,日の出町７番地の２,,12,208,2700234,,,,,,,2024-04-04,1,,,,,カツミコウムテン,0
1054,5040001132949,新規,0,2024-04-04,2024-04-04,株式会社ＫＩＴＡ,,株式会社,千葉県,船橋市,前原西２丁目２５番６号ホーマス第４ビル２Ｆ,,12,204,2740825,,,,,,,2024-04-04,1,,,,,キタ,0
1055,5040001132998,新規,0,2024-04-04,2024-04-04,ＯｎＫ株式会社,,株式会社,千葉県,市原市,能満２０６０番地,,12,219,2900011,,,,,,,2024-04-04,1,,,,,オウエヌケイ,0
1059,5040003024681,新規,0,2024-04-04,2024-04-04,合同会社エスティコンサルタンツ,,合同会社,千葉県,浦安市,海楽１丁目１４番２９号,,12,227,2790003,,,,,,,2024-04-04,1,,,,,エスティコンサルタンツ,0
1060,5040003024707,新規,0,2024-04-04,2024-04-04,ＤＣ　ＩＮＴＥＲＮＡＴＩＯＮＡＬ合同会社,,合同会社,千葉県,佐倉市,上志津原１３２１番地,,12,212,2850844,,,,,,,2024-04-04,1,,,,,ディーシーインターナショナル,0
1063,5050001054523,新規,0,2024-04-04,2024-04-04,株式会社ＥＰＩＣ,,株式会社,茨城県,つくば市,松代１丁目３番地１２,,08,220,3050035,,,,,,,2024-04-04,1,,,,,エピック,0
1064,5050001054531,新規,0,2024-04-04,2024-04-04,株式会社参伍八,,株式会社,茨城県,守谷市,松ケ丘３丁目１３番地１５,,08,224,3020127,,,,,,,2024-04-04,1,,,,,サンゴヤ,0
1069,5050003008246,新規,0,2024-04-04,2024-04-04,合同会社ノブリスト,,合同会社,茨城県,那珂市,瓜連１１６９番５,,08,226,3192102,,,,,,,2024-04-04,1,,,,,ノブリスト,0
1072,5050005013426,新規,0,2024-04-04,2024-04-04,一般社団法人茨城県空手道連盟,,その他の設立登記法人,茨城県,結城市,大字結城７２５０番地８,,08,207,3070001,,,,,,,2024-04-04,1,,,,,イバラキケンカラテドウレンメイ,0
1073,5060001036974,新規,0,2024-04-04,2024-04-04,株式会社Ｉ．Ｇ運送,,株式会社,栃木県,宇都宮市,緑３丁目１番９号,,09,201,3210165,,,,,,,2024-04-04,1,,,,,アイジーウンソウ,0
1074,5060001036982,新規,0,2024-04-04,2024-04-04,株式会社大出塗装工業,,株式会社,栃木県,栃木市,岩舟町曲ケ島１７９６番地１１,,09,203,3294306,,,,,,,2024-04-04,1,,,,,オオデトソウコウギョウ,0
1077,5070001041602,新規,0,2024-04-04,2024-04-04,株式会社タカハシ,,株式会社,群馬県,高崎市,上小鳥町４３８番地４,,10,202,3700078,,,,,,,2024-04-04,1,,,,,タカハシ,0
1079,5070003005357,新規,0,2024-04-04,2024-04-04,オフィスシープ合同会社,,合同会社,群馬県,高崎市,綿貫町字堤西３８２番１,,10,202,3701207,,,,,,,2024-04-04,1,,,,,オフィスシープ,0
1081,5080001026222,新規,0,2024-04-04,2024-04-04,ライフサービスグループ株式会社,,株式会社,静岡県,静岡市駿河区,曲金６丁目４番９号,,22,102,4228006,,,,,,,2024-04-04,1,,,,,ライフサービスグループ,0
1084,5080101024638,新規,0,2024-04-04,2024-04-04,株式会社自遊舎,,株式会社,静岡県,田方郡函南町,柏谷３２番地の３,,22,325,4190112,,,,,,,2024-04-04,1,,,,,ジユウシャ,0
1085,5080103003020,新規,0,2024-04-04,2024-04-04,ＳＴＡＲＲＹ合同会社,,合同会社,静岡県,駿東郡長泉町,桜堤３丁目３番２０号,,22,342,4110951,,,,,,,2024-04-04,1,,,,,スターリー,0
1086,5080103003029,新規,0,2024-04-04,2024-04-04,ハッピータイム合同会社,,合同会社,静岡県,富士市,松本８６番地の１,,22,210,4160903,,,,,,,2024-04-04,1,,,,,ハッピータイム,0
1091,5090001018623,新規,0,2024-04-04,2024-04-04,株式会社清水屋代右衛門,,株式会社,山梨県,韮崎市,本町１丁目６番５号,,19,207,4070024,,,,,,,2024-04-04,1,,,,,シミズヤダイエモン,0
1092,5090001018631,新規,0,2024-04-04,2024-04-04,株式会社優心,,株式会社,山梨県,甲府市,徳行４丁目１番２６号,,19,201,4000047,,,,,,,2024-04-04,1,,,,,ユウシン,0
1096,5110001038288,新規,0,2024-04-04,2024-04-04,株式会社ライトアップ,,株式会社,新潟県,南魚沼市,水尾１８７番地１,,15,226,9497252,,,,,,,2024-04-04,1,,,,,ライトアップ,0
1098,5110005017073,新規,0,2024-04-04,2024-04-04,ＮＰＯ法人まちづくり未来ネット・名立,,その他の設立登記法人,新潟県,上越市,名立区名立大町２００番地１,,15,222,9491602,,,,,,,2024-04-04,1,,,,,マチヅクリミライネットナダチ,0
1106,5120001263752,新規,0,2024-04-04,2024-04-04,株式会社ＣＨＥＮＥ,,株式会社,大阪府,大阪市中央区,南船場４丁目６番２２号心斎橋ＭＳビル７０２号室,,27,128,5420081,,,,,,,2024-04-04,1,,,,,シエンヌ,0
1107,5120001263777,新規,0,2024-04-04,2024-04-04,株式会社西航コンフィデンス,,株式会社,大阪府,大阪市旭区,大宮４丁目１５番１３号,,27,117,5350002,,,,,,,2024-04-04,1,,,,,セイコウコンフィデンス,0
1108,5120001263793,新規,0,2024-04-04,2024-04-04,株式会社越智工務店,,株式会社,大阪府,大阪市東淀川区,南江口３丁目４番６号,,27,114,5330003,,,,,,,2024-04-04,1,,,,,オチコウムテン,0
1113,5120003026298,新規,0,2024-04-04,2024-04-04,ブーブーモーター合同会社,,合同会社,大阪府,大阪市住吉区,墨江４丁目１０番１４号,,27,120,5580043,,,,,,,2024-04-04,1,,,,,ブーブーモーター,0
1114,5120003026331,新規,0,2024-04-04,2024-04-04,合同会社ＡＣＣＡ,,合同会社,大阪府,大阪市淀川区,西三国１丁目１７番３‐３０１号,,27,123,5320006,,,,,,,2024-04-04,1,,,,,エーシーシーエー,0
1115,5120005024234,新規,0,2024-04-04,2024-04-04,一般社団法人技術科教育研修協会,,その他の設立登記法人,大阪府,枚方市,藤阪北町２１番１号ライオンズガーデン枚方藤阪１０４,,27,210,5730151,,,,,,,2024-04-04,1,,,,,ギジュツカキョウイクケンシュウキョウカイ,0
1116,5120005024242,新規,0,2024-04-04,2024-04-04,一般財団法人大阪府バレーボール協会,,その他の設立登記法人,大阪府,大阪市浪速区,難波中２丁目７番２５号ナンバビル３０４号,,27,111,5560011,,,,,,,2024-04-04,1,,,,,オオサカフバレーボールキョウカイ,0
1119,5120101069331,新規,0,2024-04-04,2024-04-04,株式会社ＫＩＴＡＧＡＷＡ,,株式会社,大阪府,和泉市,のぞみ野１丁目２１番２６号,,27,219,5941105,,,,,,,2024-04-04,1,,,,,キタガワ,0
1120,5120101069348,新規,0,2024-04-04,2024-04-04,株式会社テンメイ,,株式会社,大阪府,堺市西区,鳳西町３丁１番地５－３０３,,27,144,5938326,,,,,,,2024-04-04,1,,,,,テンメイ,0
1121,5120103005763,新規,0,2024-04-04,2024-04-04,合同会社ＥＶＮＲ,,合同会社,大阪府,泉南郡熊取町,小垣内１丁目５番２８号,,27,361,5900432,,,,,,,2024-04-04,1,,,,,イブネル,0
1125,5120901048988,新規,0,2024-04-04,2024-04-04,株式会社水野プランニング,,株式会社,大阪府,箕面市,小野原東５丁目１２番１６号,,27,220,5620031,,,,,,,2024-04-04,1,,,,,ミズノプランニング,0
1126,5120901049004,新規,0,2024-04-04,2024-04-04,株式会社リレーション,,株式会社,大阪府,豊中市,三和町４丁目５番４－１０１号,,27,203,5610828,,,,,,,2024-04-04,1,,,,,リレーション,0
1128,5122001037979,新規,0,2024-04-04,2024-04-04,株式会社瑞和,,株式会社,大阪府,八尾市,春日町４丁目５番２７号,,27,212,5810061,,,,,,,2024-04-04,1,,,,,ミズワ,0
1134,5130001076708,新規,0,2024-04-04,2024-04-04,株式会社Ｓａｎｋａｋｕ　Ｓｔｕｄｉｏ,,株式会社,京都府,亀岡市,畑野町千ケ畑高橋２番地１６０,,26,206,6210261,,,,,,,2024-04-04,1,,,,,サンカクスタジオ,0
1138,5130005017063,新規,0,2024-04-04,2024-04-04,医療法人睛志会,,その他の設立登記法人,京都府,京都市北区,上賀茂桜井町１００番地Ｂｒｉｌｌｉａ北山１階,,26,101,6038054,,,,,,,2024-04-04,1,,,,,セイシカイ,0
1139,5140001133920,新規,0,2024-04-04,2024-04-04,株式会社ヴェルワーク,,株式会社,兵庫県,神戸市兵庫区,上沢通４丁目１－４,,28,105,6520046,,,,,,,2024-04-04,1,,,,,ヴェルワーク,0
1140,5140001133961,新規,0,2024-04-04,2024-04-04,株式会社米倉興業,,株式会社,兵庫県,尼崎市,杭瀬本町３丁目２番１６号,,28,202,6600814,,,,,,,2024-04-04,1,,,,,ヨネクラコウギョウ,0
1143,5150001027188,新規,0,2024-04-04,2024-04-04,森村総合株式会社,,株式会社,奈良県,大和高田市,幸町２番３３号奈良産業会館４０７,,29,202,6350015,,,,,,,2024-04-04,1,,,,,モリムラソウゴウ,0
1144,5150001027196,新規,0,2024-04-04,2024-04-04,株式会社ウェルビー,,株式会社,奈良県,生駒市,ひかりが丘２丁目８番２１号,,29,209,6300141,,,,,,,2024-04-04,1,,,,,ウェルビー,0
1147,5160001025810,新規,0,2024-04-04,2024-04-04,ＪＰＡＳ株式会社,,株式会社,滋賀県,近江八幡市,西本郷町２８４番地リジェール八幡２０１,,25,204,5230813,,,,,,,2024-04-04,1,,,,,ジェイピーエーエス,0
1151,5170001018078,新規,0,2024-04-04,2024-04-04,株式会社Ｋａｓｉｍａｓ,,株式会社,和歌山県,和歌山市,鳴神１６０番地１,,30,201,6408303,,,,,,,2024-04-04,1,,,,,カシマス,0
1154,5180001160804,新規,0,2024-04-04,2024-04-04,株式会社ＰＡＳＳＩＯＮ,,株式会社,愛知県,名古屋市中川区,露橋２丁目１５番５３号,,23,110,4540022,,,,,,,2024-04-04,1,,,,,パッション,0
1155,5180001160853,新規,0,2024-04-04,2024-04-04,株式会社ＥＤＩＡＮＤ,,株式会社,愛知県,名古屋市中村区,名駅５丁目３１－１０,,23,105,4500002,,,,,,,2024-04-04,1,,,,,エディアンド,0
1165,5190001031244,新規,0,2024-04-04,2024-04-04,株式会社Ｍ,,株式会社,三重県,多気郡多気町,相可台２５番地１５,,24,441,5192182,,,,,,,2024-04-04,1,,,,,エム,0
1166,5190001031252,新規,0,2024-04-04,2024-04-04,株式会社ＳＡＮＩ,,株式会社,三重県,桑名市,大字坂井５９８‐３,,24,205,5110939,,,,,,,2024-04-04,1,,,,,サーニ,0
1172,5210001019708,新規,0,2024-04-04,2024-04-04,株式会社ＶｉｌｉＶ,,株式会社,福井県,福井市,高木中央２丁目２８１０番地高山ビル２－Ａ,,18,201,9100804,,,,,,,2024-04-04,1,,,,,ビリーヴ,0
1179,5260001038918,新規,0,2024-04-04,2024-04-04,アロイ株式会社,,株式会社,岡山県,津山市,油木下５５１番地,,33,203,7094634,,,,,,,2024-04-04,1,,,,,アロイ,0
1180,5260001038934,新規,0,2024-04-04,2024-04-04,友進産業株式会社,,株式会社,岡山県,倉敷市,船穂町船穂２５９２番地１３,,33,202,7100261,,,,,,,2024-04-04,1,,,,,ユウシンサンギョウ,0
1184,5280001009149,新規,0,2024-04-04,2024-04-04,株式会社葵ペイント,,株式会社,島根県,益田市,かもしま北町８番地１,,32,204,6980045,,,,,,,2024-04-04,1,,,,,アオイペイント,0
1192,5290803004668,新規,0,2024-04-04,2024-04-04,合同会社スポット,,合同会社,福岡県,行橋市,大字吉国２６２番地５,,40,213,8240066,,,,,,,2024-04-04,1,,,,,スポット,0
1193,5290803004676,新規,0,2024-04-04,2024-04-04,合同会社ミツワ,,合同会社,福岡県,宮若市,黒丸１５３９番地,,40,226,8220146,,,,,,,2024-04-04,1,,,,,ミツワ,0
1195,5310001018930,新規,0,2024-04-04,2024-04-04,株式会社ホットスタッフ長崎,,株式会社,長崎県,西彼杵郡時津町,元村郷８１５番地１,,42,308,8512103,,,,,,,2024-04-04,1,,,,,ホットスタッフナガサキ,0
1197,5330003010297,新規,0,2024-04-04,2024-04-04,合同会社ハートアスリート,,合同会社,熊本県,熊本市東区,上南部１丁目４番８８号,,43,102,8618010,,,,,,,2024-04-04,1,,,,,ハートアスリート,0
1198,5330005010782,新規,0,2024-04-04,2024-04-04,一般社団法人歯科維新会,,その他の設立登記法人,熊本県,熊本市西区,上熊本３丁目７番１号,,43,103,8600079,,,,,,,2024-04-04,1,,,,,シカイシンカイ,0
1200,5350001018893,新規,0,2024-04-04,2024-04-04,株式会社ｒ‐ｈａｔａ,,株式会社,宮崎県,宮崎市,吉村町上西中甲１３７８番地９,,45,201,8800841,,,,,,,2024-04-04,1,,,,,アールハタ,0
1203,5360001033438,新規,0,2024-04-04,2024-04-04,株式会社石川アルミ建材,,株式会社,沖縄県,うるま市,石川東恩納５４５番地１,,47,213,9041111,,,,,,,2024-04-04,1,,,,,イシカワアルミケンザイ,0
1204,5360001033446,新規,0,2024-04-04,2024-04-04,星道株式会社,,株式会社,沖縄県,浦添市,大平２丁目１９番７号,,47,208,9012113,,,,,,,2024-04-04,1,,,,,セイトウ,0
1205,5360001033470,新規,0,2024-04-04,2024-04-04,株式会社やんばるグローアップサポート,,株式会社,沖縄県,国頭郡今帰仁村,字兼次８１３番地２３,,47,306,9050427,,,,,,,2024-04-04,1,,,,,ヤンバルグローアップサポート,0
1206,5360003013867,新規,0,2024-04-04,2024-04-04,うるま陶器合同会社,,合同会社,沖縄県,うるま市,与那城屋慶名４０５番地うるま陶器,,47,213,9042304,,,,,,,2024-04-04,1,,,,,ウルマトウキ,0
1207,5360005007017,新規,0,2024-04-04,2024-04-04,医療法人己珀会,,その他の設立登記法人,沖縄県,糸満市,潮崎町２丁目１番地１５－１０１,,47,210,9010364,,,,,,,2024-04-04,1,,,,,コハクカイ,0
1211,5400003003244,新規,0,2024-04-04,2024-04-04,合同会社ライトリソース,,合同会社,岩手県,九戸郡九戸村,大字伊保内第１０地割１１番地６,,03,506,0286502,,,,,,,2024-04-04,1,,,,,ライトリソース,0
1214,5410005006574,新規,0,2024-04-04,2024-04-04,農事組合法人こめぷらす,,その他の設立登記法人,秋田県,仙北郡美郷町,浪花字才ノ神９８,,05,434,0191501,,,,,,,2024-04-04,1,,,,,コメプラス,0
1217,5430001091511,新規,0,2024-04-04,2024-04-04,株式会社エーラッキー,,株式会社,北海道,札幌市手稲区,星置一条２丁目３番２－１００８号,,01,109,0060851,,,,,,,2024-04-04,1,,,,,エーラッキー,0
1219,5430003016169,新規,0,2024-04-04,2024-04-04,合同会社日昇,,合同会社,北海道,札幌市北区,篠路八条６丁目９番７号,,01,102,0028028,,,,,,,2024-04-04,1,,,,,ニッショウ,0
1220,5430005014947,新規,0,2024-04-04,2024-04-04,一般社団法人北海道大学山とスキーの会,,その他の設立登記法人,北海道,札幌市西区,山の手四条１１丁目６番４５号,,01,107,0630004,,,,,,,2024-04-04,1,,,,,ホッカイドウダイガクヤマトスキーノカイ,0
1222,5490005006930,新規,0,2024-04-04,2024-04-04,一般社団法人国際経済発展総合機構,,その他の設立登記法人,高知県,高知市,塚ノ原７４番地１スカイハイツ塚ノ原２０２,,39,201,7800952,,,,,,,2024-04-04,1,,,,,,0
1224,5500001025544,新規,0,2024-04-04,2024-04-04,Ｔ‐ＷＯＲＫＳ株式会社,,株式会社,愛媛県,西条市,朔日市７９２番地３,,38,206,7930027,,,,,,,2024-04-04,1,,,,,ティーワークス,0
1225,5500001025560,新規,0,2024-04-04,2024-04-04,株式会社ＴＭトラベル,,株式会社,愛媛県,松山市,美沢１丁目８番４６号,,38,201,7918022,,,,,,,2024-04-04,1,,,,,ティーエムトラベル,0
1230,5700150124705,新規,0,2024-04-04,2024-04-04,ｄｏｎｇ　ｇｕａｎ　ｘｉｎ　ｘｉｎｇ　ｈｕａ　ｓｈａｎｇ　ｍａｏ　ｙｏｕ　ｘｉａｎ　ｇｏｎｇ　ｓｉ,,外国会社等,,,,,,,,ｍａ　ｔｉ　ｇａｎｇ　ｓｈａ　ｊｉｎｇ　ｔｏｕ　５　ｘｉａｎｇ　１２　ｈａｏ　２０６　ｆａｎｇ，ｄａ　ｌｉｎｇ　ｓｈａｎ　ｚｈｅｎ，ｄｏｎｇ　ｇｕａｎ　ｓｈｉ，ｇｕａｎｇ　ｄｏｎｇ　ｓｈｅｎｇ,,,,,,2024-04-04,1,,,,,ドーングワンシンシーンホワシャーンマオヨウシエンゴーンスー,0
1238,6010005038129,新規,0,2024-04-04,2024-04-04,一般社団法人日本林業技士会,,その他の設立登記法人,東京都,千代田区,六番町７番地,,13,101,1020085,,,,,,,2024-04-04,1,,,,,ニホンリンギョウギシカイ,0
1247,6010401181457,新規,0,2024-04-04,2024-04-04,株式会社シェンロンスポーツアンドエンタテインメント,,株式会社,東京都,港区,白金台４丁目２０番９号パシフィック白金台６０８,,13,103,1080071,,,,,,,2024-04-04,1,,,,,シェンロンスポーツアンドエンタテインメント,0
1248,6010601064949,新規,0,2024-04-04,2024-04-04,株式会社Ｐａｃｋ　Ｒａｔ,,株式会社,東京都,江東区,森下２丁目５番８号１Ｆ,,13,108,1350004,,,,,,,2024-04-04,1,,,,,パックラット,0
1249,6010601064965,新規,0,2024-04-04,2024-04-04,株式会社Ｊ　Ｅｘｐｒｅｓｓ,,株式会社,東京都,江東区,青梅２－７－４ｔｈｅＳＯＨＯＯｄａｉｂａ６３６,,13,108,1350000,,,,,,,2024-04-04,1,,,,,ジェーエクスプレス,0
1253,6010901055004,新規,0,2024-04-04,2024-04-04,ＢＡＫＵＴＡＮ株式会社,,株式会社,東京都,世田谷区,成城３丁目２４番５３号,,13,112,1570066,,,,,,,2024-04-04,1,,,,,バクタン,0
1254,6010901055012,新規,0,2024-04-04,2024-04-04,株式会社Ｂｌｕｅ　Ｓｎｏｗ　Ｃｏｎｓｕｌｔａｎｔ,,株式会社,東京都,世田谷区,上北沢４丁目１４番１２号,,13,112,1560057,,,,,,,2024-04-04,1,,,,,ブルースノーコンサルタント,0
1257,6010903008950,新規,0,2024-04-04,2024-04-04,伊沢合同会社,,合同会社,東京都,世田谷区,北沢２丁目２５番８号東洋百貨店１０,,13,112,1550031,,,,,,,2024-04-04,1,,,,,イザワ,0
1262,6011001161048,新規,0,2024-04-04,2024-04-04,株式会社ハットトリック,,株式会社,東京都,目黒区,中目黒１丁目１０番２２－１５０７号,,13,110,1530061,,,,,,,2024-04-04,1,,,,,ハットトリック,0
1263,6011001161064,新規,0,2024-04-04,2024-04-04,ＯＦＦＩＣＥ　ＢＬＯＯＭ株式会社,,株式会社,東京都,目黒区,下目黒１丁目１番１４号コノトラビル７Ｆ,,13,110,1530064,,,,,,,2024-04-04,1,,,,,オフィスブルーム,0
1264,6011003018840,新規,0,2024-04-04,2024-04-04,合同会社方円舎,,合同会社,東京都,渋谷区,渋谷３丁目６番２号エクラート渋谷ビル５階,,13,113,1500002,,,,,,,2024-04-04,1,,,,,ホウエンシャ,0
1266,6011103014293,新規,0,2024-04-04,2024-04-04,Ａｒａｂｌｅ合同会社,,合同会社,東京都,新宿区,神楽坂６丁目８文悠ビルＢ１,,13,104,1620825,,,,,,,2024-04-04,1,,,,,アラブル,0
1272,6011301029548,新規,0,2024-04-04,2024-04-04,株式会社コマキ構造,,株式会社,東京都,杉並区,西荻北４丁目２３－９－１０２,,13,115,1670042,,,,,,,2024-04-04,1,,,,,コマキコウゾウ,0
1273,6011401025975,新規,0,2024-04-04,2024-04-04,株式会社ｋｏｔｏｓａｋＡ,,株式会社,東京都,板橋区,大和町２１番９号,,13,119,1730012,,,,,,,2024-04-04,1,,,,,コトサカ,0
1274,6011701027176,新規,0,2024-04-04,2024-04-04,株式会社デジタルクルーズ,,株式会社,東京都,江戸川区,宇喜田町１４３２－９,,13,123,1340082,,,,,,,2024-04-04,1,,,,,デジタルクルーズ,0
1277,6011801044014,新規,0,2024-04-04,2024-04-04,株式会社Ｃｈｒｏｍ,,株式会社,東京都,足立区,西保木間２丁目２番２２－１０４号,,13,121,1210812,,,,,,,2024-04-04,1,,,,,クロム,0
1278,6012401041723,新規,0,2024-04-04,2024-04-04,株式会社サッソウ,,株式会社,東京都,武蔵野市,吉祥寺北町３丁目８－２８,,13,203,1800001,,,,,,,2024-04-04,1,,,,,,0
1285,6020001156528,新規,0,2024-04-04,2024-04-04,株式会社Ｂ’ｆｒｅｅ,,株式会社,神奈川県,横浜市南区,高砂町２丁目２７番地１０コーポＧ１０２,,14,105,2320025,,,,,,,2024-04-04,1,,,,,ビーフリー,0
1286,6020001156577,新規,0,2024-04-04,2024-04-04,株式会社ＴＫ,,株式会社,神奈川県,横浜市保土ケ谷区,天王町１丁目２２番１６号,,14,106,2400003,,,,,,,2024-04-04,1,,,,,ティーケー,0
1287,6020001156593,新規,0,2024-04-04,2024-04-04,株式会社グッドワン・リアルティ,,株式会社,神奈川県,横浜市金沢区,寺前１丁目１番２６マックコート金沢文庫２０２号,,14,108,2360014,,,,,,,2024-04-04,1,,,,,グッドワンリアルティ,0
1288,6020003025846,新規,0,2024-04-04,2024-04-04,合同会社ＭＩＹＡＢＩ,,合同会社,神奈川県,横浜市西区,南浅間町２１番地１西横浜ハイタウン３１４号,,14,103,2200074,,,,,,,2024-04-04,1,,,,,ミヤビ,0
1289,6020003025854,新規,0,2024-04-04,2024-04-04,合同会社アオトエムビー,,合同会社,神奈川県,横浜市都筑区,池辺町２５０９番地３,,14,118,2240053,,,,,,,2024-04-04,1,,,,,アオトエムビー,0
1290,6020003025870,新規,0,2024-04-04,2024-04-04,合同会社Ｊａｃ,,合同会社,神奈川県,横浜市中区,南仲通４丁目４９番地福久ビル３Ｆ,,14,104,2310006,,,,,,,2024-04-04,1,,,,,ジャック,0
1291,6020003025879,新規,0,2024-04-04,2024-04-04,合同会社トモシビ,,合同会社,神奈川県,横浜市都筑区,荏田南１丁目４番１０号,,14,118,2240007,,,,,,,2024-04-04,1,,,,,トモシビ,0
1294,6021001081897,新規,0,2024-04-04,2024-04-04,株式会社えのは,,株式会社,神奈川県,藤沢市,片瀬３丁目１４番３１号,,14,205,2510032,,,,,,,2024-04-04,1,,,,,エノハ,0
1296,6030001159554,新規,0,2024-04-04,2024-04-04,ＴＳＴ株式会社,,株式会社,埼玉県,加須市,南大桑８４７番地５,,11,210,3470015,,,,,,,2024-04-04,1,,,,,ティーエスティー,0
1297,6030001159562,新規,0,2024-04-04,2024-04-04,英総建株式会社,,株式会社,埼玉県,狭山市,根岸２丁目２６番１号,,11,215,3501325,,,,,,,2024-04-04,1,,,,,ハナブサソウケン,0
1298,6030001159570,新規,0,2024-04-04,2024-04-04,株式会社ＫＡＹ,,株式会社,埼玉県,越谷市,川柳町４丁目２４５番地１－１０２２,,11,222,3430827,,,,,,,2024-04-04,1,,,,,ケイ,0
1299,6030001159645,新規,0,2024-04-04,2024-04-04,株式会社シンシア,,株式会社,埼玉県,川越市,南台３丁目２番地４５,,11,201,3501165,,,,,,,2024-04-04,1,,,,,シンシア,0
1300,6030003023948,新規,0,2024-04-04,2024-04-04,合同会社居宅介護支援事業所おうか,,合同会社,埼玉県,春日部市,粕壁東５丁目６番３号,,11,214,3440062,,,,,,,2024-04-04,1,,,,,キョタクカイゴシエンジギョウショオウカ,0
1301,6030005021636,新規,0,2024-04-04,2024-04-04,医療法人あかね,,その他の設立登記法人,埼玉県,川越市,大字的場１３１０番地５的場駅前タウンＡ棟１０１号,,11,201,3501101,,,,,,,2024-04-04,1,,,,,アカネ,0
1306,6040001132989,新規,0,2024-04-04,2024-04-04,株式会社ＤｒｅａｍＬａｂ,,株式会社,千葉県,浦安市,入船４丁目２９番１１号ＳＳＣエリアＩ２０１号室,00134302,12,227,2790012,,,,,,,2024-04-04,1,,,,,ドリームラボ,0
1311,6060003005010,新規,0,2024-04-04,2024-04-04,合同会社ブルース,,合同会社,栃木県,佐野市,植上町１３５５番地２,,09,204,3270832,,,,,,,2024-04-04,1,,,,,ブルース,0
1313,6070001041568,新規,0,2024-04-04,2024-04-04,株式会社岩井田,,株式会社,群馬県,伊勢崎市,本町１６番地９,,10,204,3720047,,,,,,,2024-04-04,1,,,,,イワイダ,0
1315,6070005010247,新規,0,2024-04-04,2024-04-04,特定非営利活動法人ＦＬＯＷＬＩＳＨ　ＧＵＮＭＡ,,その他の設立登記法人,群馬県,前橋市,天川原町２丁目２２５番地２５,,10,201,3710803,,,,,,,2024-04-04,1,,,,,フローリッシュグンマ,0
1317,6080001026221,新規,0,2024-04-04,2024-04-04,株式会社ＣｈａＣｈａＣｈａ,,株式会社,静岡県,静岡市駿河区,池田１０２２番地,,22,102,4228005,,,,,,,2024-04-04,1,,,,,チャチャチャ,0
1319,6080101024645,新規,0,2024-04-04,2024-04-04,株式会社ＳＫＹＨＩＧＨ,,株式会社,静岡県,熱海市,下多賀１００１番地の３,,22,205,4130102,,,,,,,2024-04-04,1,,,,,スカイハイ,0
1322,6080103003028,新規,0,2024-04-04,2024-04-04,合同会社ＭＹＦＣ,,合同会社,静岡県,富士市,厚原９６５－２１,,22,210,4190201,,,,,,,2024-04-04,1,,,,,マイエフシー,0
1323,6080401027109,新規,0,2024-04-04,2024-04-04,株式会社アイビーエステート,,株式会社,静岡県,浜松市中央区,曳馬６丁目３番１０号,,22,138,4300901,,,,,,,2024-04-04,1,,,,,アイビーエステート,0
1324,6090001018639,新規,0,2024-04-04,2024-04-04,株式会社ＴＷＤ,,株式会社,山梨県,都留市,中津森２５７番地１,,19,204,4020046,,,,,,,2024-04-04,1,,,,,ティーダブルディー,0
1339,6120001263677,新規,0,2024-04-04,2024-04-04,武ＧＬＯＶＩ産業株式会社,,株式会社,大阪府,大阪市福島区,吉野１丁目１１番１８号３Ｆ,,27,103,5530006,,,,,,,2024-04-04,1,,,,,タケグロビサンギョウ,0
1340,6120001263727,新規,0,2024-04-04,2024-04-04,株式会社ステラコンサルタント,,株式会社,大阪府,大阪市淀川区,三津屋南１丁目７番１５号,,27,123,5320035,,,,,,,2024-04-04,1,,,,,ステラコンサルタント,0
1341,6120001263768,新規,0,2024-04-04,2024-04-04,株式会社ｚｏｏファーマシー,,株式会社,大阪府,大阪市北区,万歳町３番１６号天満病院グループ梅田ビル７階,,27,127,5300028,,,,,,,2024-04-04,1,,,,,ズーファーマシー,0
1342,6120001263917,新規,0,2024-04-04,2024-04-04,株式会社ＣＡＣＵＴＩ,,株式会社,大阪府,大阪市平野区,平野市町１丁目５－３,,27,126,5470042,,,,,,,2024-04-04,1,,,,,カクタイ,0
1343,6120003026280,新規,0,2024-04-04,2024-04-04,合同会社ヒノデ,,合同会社,大阪府,大阪市西成区,天下茶屋２丁目２－５,,27,122,5570014,,,,,,,2024-04-04,1,,,,,ヒノデ,0
1344,6120003026322,新規,0,2024-04-04,2024-04-04,合同会社雅,,合同会社,大阪府,大阪市阿倍野区,北畠３丁目１‐４７,,27,119,5450035,,,,,,,2024-04-04,1,,,,,ミヤビ,0
1348,6120101069297,新規,0,2024-04-04,2024-04-04,ＳＭＢホームズ株式会社,,株式会社,大阪府,松原市,大堀２丁目１９－１２,,27,217,5800006,,,,,,,2024-04-04,1,,,,,エスエムビーホームズ,0
1349,6120101069355,新規,0,2024-04-04,2024-04-04,株式会社インダストレーディング,,株式会社,大阪府,和泉市,伏屋町１丁目１１番２９号,,27,219,5940031,,,,,,,2024-04-04,1,,,,,インダストレーディング,0
1351,6120901049003,新規,0,2024-04-04,2024-04-04,株式会社ａｉｎｅ,,株式会社,大阪府,豊中市,庄内東町２丁目６番８号,,27,203,5610831,,,,,,,2024-04-04,1,,,,,アイネ,0
1353,6122001037978,新規,0,2024-04-04,2024-04-04,株式会社Ｌｇｒａｓｓ,,株式会社,大阪府,八尾市,安中町３丁目２番３９号５０７,,27,212,5810085,,,,,,,2024-04-04,1,,,,,エルグラス,0
1354,6122003002848,新規,0,2024-04-04,2024-04-04,合同会社Ｎｏ　ｆｉｎｅ　Ｎｏ　ｌｉｆｅ,,合同会社,大阪府,八尾市,山本町１丁目２番３号,,27,212,5810867,,,,,,,2024-04-04,1,,,,,ノーファインノーライフ,0
1355,6130001076707,新規,0,2024-04-04,2024-04-04,株式会社ＳＴＲＡＩＧＨＴ,,株式会社,京都府,宇治市,開町２５番地の３,,26,204,6110026,,,,,,,2024-04-04,1,,,,,ストレート,0
1356,6130001076723,新規,0,2024-04-04,2024-04-04,株式会社セファテクノロジー京都,,株式会社,京都府,久世郡久御山町,佐山新開地７４番１号,,26,322,6130034,,,,,,,2024-04-04,1,,,,,セファテクノロジーキョウト,0
1357,6130001076731,新規,0,2024-04-04,2024-04-04,株式会社達磨ライン,,株式会社,京都府,向日市,上植野町池ノ尻７－１府営住宅上植野団地１棟５０５号,,26,208,6170006,,,,,,,2024-04-04,1,,,,,ダルマライン,0
1364,6140001133928,新規,0,2024-04-04,2024-04-04,叶全株式会社,,株式会社,兵庫県,伊丹市,松ケ丘１丁目４１番地,,28,207,6640024,,,,,,,2024-04-04,1,,,,,カナゼン,0
1365,6140001133944,新規,0,2024-04-04,2024-04-04,株式会社佐野,,株式会社,兵庫県,神戸市中央区,波止場町６－８,,28,110,6500042,,,,,,,2024-04-04,1,,,,,サノ,0
1366,6140001133960,新規,0,2024-04-04,2024-04-04,株式会社ＲＥＭ,,株式会社,兵庫県,西宮市,門戸荘１７番地の４８松本第一ビル１０３号室,,28,204,6620825,,,,,,,2024-04-04,1,,,,,アールイーエム,0
1367,6140001133969,新規,0,2024-04-04,2024-04-04,株式会社ｍｕ．ｍｕ．,,株式会社,兵庫県,高砂市,荒井町東本町５番２２号ＧＡＲＡＧＥＲＡＦＦＩＮＡＴＯ０２,,28,216,6760017,,,,,,,2024-04-04,1,,,,,ムム,0
1368,6140001133977,新規,0,2024-04-04,2024-04-04,株式会社Ａｐｅｌ,,株式会社,兵庫県,川西市,向陽台３丁目３番地の５０,,28,217,6660115,,,,,,,2024-04-04,1,,,,,アペル,0
1371,6140003020364,新規,0,2024-04-04,2024-04-04,合同会社ｉｐ‐ｌａｂｏ,,合同会社,兵庫県,明石市,西明石東町２番地の２０,,28,203,6730009,,,,,,,2024-04-04,1,,,,,アイピーラボ,0
1372,6140003020372,新規,0,2024-04-04,2024-04-04,合同会社スペースメリット,,合同会社,兵庫県,尼崎市,金楽寺町２丁目５－４６,,28,202,6600806,,,,,,,2024-04-04,1,,,,,スペースメリット,0
1373,6150001027187,新規,0,2024-04-04,2024-04-04,株式会社山口自動車．,,株式会社,奈良県,御所市,大字本馬６９番地の２,,29,208,6392242,,,,,,,2024-04-04,1,,,,,ヤマグチジドウシャ,0
1374,6150001027195,新規,0,2024-04-04,2024-04-04,エミシア株式会社,,株式会社,奈良県,大和郡山市,西田中町１０番地１,,29,203,6391043,,,,,,,2024-04-04,1,,,,,エミシア,0
1376,6160001025801,新規,0,2024-04-04,2024-04-04,株式会社マタハリ,,株式会社,滋賀県,東近江市,八日市上之町２番７号,,25,213,5270022,,,,,,,2024-04-04,1,,,,,マタハリ,0
1379,6160005011293,新規,0,2024-04-04,2024-04-04,一般社団法人ＨＦＹ,,その他の設立登記法人,滋賀県,甲賀市,土山町前野３７４番地,,25,209,5280232,,,,,,,2024-04-04,1,,,,,エイチエフワイ,0
1382,6170001018077,新規,0,2024-04-04,2024-04-04,株式会社黒木商事,,株式会社,和歌山県,紀の川市,田中馬場１２７番地７,,30,208,6496421,,,,,,,2024-04-04,1,,,,,クロキショウジ,0
1383,6170001018085,新規,0,2024-04-04,2024-04-04,極楽寺プロジェクト株式会社,,株式会社,和歌山県,日高郡みなべ町,西本庄８３０番地１,,30,391,6450027,,,,,,,2024-04-04,1,,,,,ゴクラクジプロジェクト,0
1388,6180001160877,新規,0,2024-04-04,2024-04-04,株式会社エンパワーゲート,,株式会社,愛知県,名古屋市中区,千代田２丁目１９番２０号トーカンマンション鶴舞３０７号,,23,106,4600012,,,,,,,2024-04-04,1,,,,,エンパワーゲート,0
1392,6190001031227,新規,0,2024-04-04,2024-04-04,株式会社藤原電力,,株式会社,三重県,津市,藤方２４３２‐１４エステート藤方１０１,,24,201,5140815,,,,,,,2024-04-04,1,,,,,フジワラデンリョク,0
1393,6190001031235,新規,0,2024-04-04,2024-04-04,株式会社土井工業,,株式会社,三重県,桑名市,新倉持４７番地,,24,205,5110855,,,,,,,2024-04-04,1,,,,,ドイコウギョウ,0
1396,6200003006290,新規,0,2024-04-04,2024-04-04,デレソンスポーツクラブ合同会社,,合同会社,岐阜県,関市,武芸川町跡部８７７番地,,21,205,5012605,,,,,,,2024-04-04,1,,,,,デレソンスポーツクラブ,0
1398,6220001025910,新規,0,2024-04-04,2024-04-04,株式会社エヌケー,,株式会社,石川県,金沢市,湊１丁目９４番地,,17,201,9200211,,,,,,,2024-04-04,1,,,,,エヌケー,0
1402,6240005015757,新規,0,2024-04-04,2024-04-04,一般社団法人北広島町地域エネルギー会社,,その他の設立登記法人,広島県,山県郡北広島町,有田１２３４番地,,34,369,7311533,,,,,,,2024-04-04,1,,,,,キタヒロシマチョウチイキエネルギーガイシャ,0
1407,6260001038933,新規,0,2024-04-04,2024-04-04,ＤＡ・テクノ・イノベーション株式会社,,株式会社,岡山県,岡山市南区,西市５９７番地９,,33,104,7000953,,,,,,,2024-04-04,1,,,,,ディーエーテクノイノベーション,0
1411,6290001105276,新規,0,2024-04-04,2024-04-04,株式会社Ｌｕｃｉａ,,株式会社,福岡県,福岡市東区,香椎駅前２丁目１５番２１－２０１号,,40,131,8130013,,,,,,,2024-04-04,1,,,,,ルシア,0
1412,6290005019340,新規,0,2024-04-04,2024-04-04,一般財団法人ジチタイ未来研究財団,,その他の設立登記法人,福岡県,福岡市中央区,薬院１丁目１４番５号ＭＧ薬院ビル,,40,133,8100022,,,,,,,2024-04-04,1,,,,,ジチタイミライケンキュウザイダン,0
1414,6300003002098,新規,0,2024-04-04,2024-04-04,合同会社Ｋｉｒｏｒｏ１４０,,合同会社,佐賀県,武雄市,山内町大字宮野２４６７３番地,,41,206,8492305,,,,,,,2024-04-04,1,,,,,キロロワンフォーティー,0
1415,6300005007186,新規,0,2024-04-04,2024-04-04,医療法人あさのはこどもクリニック,,その他の設立登記法人,佐賀県,佐賀市,開成５丁目９－２７,,41,201,8490934,,,,,,,2024-04-04,1,,,,,アサノハコドモクリニック,0
1416,6330001031914,新規,0,2024-04-04,2024-04-04,フロンティア技研株式会社,,株式会社,熊本県,熊本市東区,尾ノ上１丁目４３－１３,,43,102,8620913,,,,,,,2024-04-04,1,,,,,フロンティアギケン,0
1418,6330003010296,新規,0,2024-04-04,2024-04-04,合同会社ＯＺ　ＤｅｎｔａｌＬａｂ,,合同会社,熊本県,菊池郡大津町,大字大津１番地５,,43,403,8691233,,,,,,,2024-04-04,1,,,,,オズデンタルラボ,0
1420,6340001026426,新規,0,2024-04-04,2024-04-04,株式会社村添運送,,株式会社,鹿児島県,西之表市,現和４００９番地,,46,213,8913103,,,,,,,2024-04-04,1,,,,,ムラゾエウンソウ,0
1422,6340003004421,新規,0,2024-04-04,2024-04-04,合同会社ＦＥＮｉＲＥＳ,,合同会社,鹿児島県,鹿児島市,和田３丁目３２番１３号,,46,201,8910143,,,,,,,2024-04-04,1,,,,,フェニリス,0
1428,6360001033461,新規,0,2024-04-04,2024-04-04,株式会社ＪＯ．,,株式会社,沖縄県,南城市,知念字久手堅５６８番地２,,47,215,9011511,,,,,,,2024-04-04,1,,,,,ジョウドット,0
1433,6370001051149,新規,0,2024-04-04,2024-04-04,株式会社ＳＴＦ,,株式会社,宮城県,仙台市泉区,八乙女中央１丁目３番１７号,,04,105,9813135,,,,,,,2024-04-04,1,,,,,エスティーエフ,0
1434,6370001051157,新規,0,2024-04-04,2024-04-04,株式会社コンネクトホーム,,株式会社,宮城県,仙台市青葉区,春日町８番７号プルミエールハイツ１０２,,04,101,9800821,,,,,,,2024-04-04,1,,,,,コンネクトホーム,0
1435,6370003006555,新規,0,2024-04-04,2024-04-04,合同会社みずまる,,合同会社,宮城県,仙台市若林区,荒町１７２,,04,103,9840073,,,,,,,2024-04-04,1,,,,,ミズマル,0
1436,6380001034425,新規,0,2024-04-04,2024-04-04,株式会社アカベコランド,,株式会社,福島県,会津若松市,七日町８－５,,07,202,9650044,,,,,,,2024-04-04,1,,,,,アカベコランド,0
1437,6390005009059,新規,0,2024-04-04,2024-04-04,一般財団法人森の学校,,その他の設立登記法人,山形県,山形市,小白川町１丁目４番１２号山形大学小白川キャンパス内,,06,201,9900021,,,,,,,2024-04-04,1,,,,,モリノガッコウ,0
1442,6430001091394,新規,0,2024-04-04,2024-04-04,株式会社塩崎,,株式会社,北海道,札幌市豊平区,豊平三条１３丁目２番２０号,,01,105,0620903,,,,,,,2024-04-04,1,,,,,シオザキ,0
1443,6430001091436,新規,0,2024-04-04,2024-04-04,株式会社アマビリス,,株式会社,北海道,札幌市西区,宮の沢一条５丁目２番１３号,,01,107,0630051,,,,,,,2024-04-04,1,,,,,アマビリス,0
1444,6430001091452,新規,0,2024-04-04,2024-04-04,株式会社ＬＩＦＥＲＥＣ,,株式会社,北海道,札幌市北区,北二十一条西１３丁目５番３号,,01,102,0010021,,,,,,,2024-04-04,1,,,,,ライフレック,0
1449,6430005014954,新規,0,2024-04-04,2024-04-04,一般社団法人ＭＯＮＬＥＮＯ,,その他の設立登記法人,北海道,札幌市東区,東苗穂十条２丁目６番１０号,,01,103,0070810,,,,,,,2024-04-04,1,,,,,モンレノ,0
1455,6470001020110,新規,0,2024-04-04,2024-04-04,株式会社Ｈａｓｈ　Ｔｏｗｎ,,株式会社,香川県,高松市,鍛冶屋町１－７ＡＫＢビル１階,,37,201,7600028,,,,,,,2024-04-04,1,,,,,ハッシュタウン,0
1456,6470001020119,新規,0,2024-04-04,2024-04-04,株式会社Ｓ‐ＳＴＹＬＥ,,株式会社,香川県,三豊市,財田町財田中３４３０－１１,,37,208,7690402,,,,,,,2024-04-04,1,,,,,,0
1459,6500001025551,新規,0,2024-04-04,2024-04-04,光電溶株式会社,,株式会社,愛媛県,今治市,近見町２丁目５番６１号,,38,202,7940007,,,,,,,2024-04-04,1,,,,,ヒカリデンヨウ,0
1467,7010001243532,新規,0,2024-04-04,2024-04-04,馬可仕株式会社,,株式会社,東京都,中央区,日本橋浜町２丁目２９番２号セブンスターマンション第一日本橋８０２号室,,13,102,1030007,,,,,,,2024-04-04,1,,,,,マカセ,0
1468,7010001243680,新規,0,2024-04-04,2024-04-04,日本建設エンジニアリング株式会社,,株式会社,東京都,千代田区,丸の内３丁目２番２号丸の内二重橋ビル２階,,13,101,1000005,,,,,,,2024-04-04,1,,,,,ニホンケンセツエンジニアリング,0
1469,7010003043352,新規,0,2024-04-04,2024-04-04,ＤＨブリッジ１合同会社,,合同会社,東京都,千代田区,飯田橋４丁目７番１号結和税理士法人内,,13,101,1020072,,,,,,,2024-04-04,1,,,,,ディエイチブリッジワン,0
1470,7010003043360,新規,0,2024-04-04,2024-04-04,合同会社研修王国,,合同会社,東京都,中央区,晴海５丁目６－５－１３０２,,13,102,1040053,,,,,,,2024-04-04,1,,,,,ケンシュウオウコク,0
1472,7010401181448,新規,0,2024-04-04,2024-04-04,Ｃａｎｎａｔｒｅｋ　Ｍｅｄｉｃａｌ株式会社,,株式会社,東京都,港区,六本木１丁目９番１０号アークヒルズ仙石山森タワー２８階べーカー＆マッケンジー法律事務所（外国法共同事業）内,,13,103,1060032,,,,,,,2024-04-04,1,,,,,カンナトレックメディカル,0
1473,7010401181480,新規,0,2024-04-04,2024-04-04,株式会社ＧＡＰＦＩＬＬ,,株式会社,東京都,港区,南青山３丁目１番３６号青山丸竹ビル６Ｆ,,13,103,1070062,,,,,,,2024-04-04,1,,,,,ギャップフィル,0
1474,7010401181530,新規,0,2024-04-04,2024-04-04,株式会社ザイマックスデジタル,,株式会社,東京都,港区,赤坂１丁目１番１号,,13,103,1070052,,,,,,,2024-04-04,1,,,,,ザイマックスデジタル,0
1475,7010401181555,新規,0,2024-04-04,2024-04-04,株式会社ＴＯＥ,,株式会社,東京都,港区,南青山２丁目２番１５号,,13,103,1070062,,,,,,,2024-04-04,1,,,,,ティーオーイー,0
1479,7010403032293,新規,0,2024-04-04,2024-04-04,シー・アイ・ファイブ・ジャパン・コー・エー合同会社,,合同会社,東京都,港区,虎ノ門４丁目１番１３号プライムテラス神谷町５階,,13,103,1050001,,,,,,,2024-04-04,1,,,,,シーアイファイブジャパンコーエー,0
1480,7010403032310,新規,0,2024-04-04,2024-04-04,合同会社ストレンジャー,,合同会社,東京都,港区,南青山３丁目１番３６号青山丸竹ビル６Ｆ,,13,103,1070062,,,,,,,2024-04-04,1,,,,,ストレンジャー,0
1481,7010403032319,新規,0,2024-04-04,2024-04-04,合同会社アーリーフィールド,,合同会社,東京都,港区,浜松町２丁目２番１５号浜松町ダイヤビル２Ｆ,,13,103,1050013,,,,,,,2024-04-04,1,,,,,アーリーフィールド,0
1483,7010601064931,新規,0,2024-04-04,2024-04-04,和心株式会社,,株式会社,東京都,江東区,亀戸６丁目６番５－１０３号ヴェラハイツ第２亀戸,,13,108,1360071,,,,,,,2024-04-04,1,,,,,ワシン,0
1484,7010601064948,新規,0,2024-04-04,2024-04-04,株式会社Ｒｏａｄ　Ｆａｒｍ,,株式会社,東京都,江東区,豊洲６丁目２番３１－２１０９号,,13,108,1350061,,,,,,,2024-04-04,1,,,,,ロードファーム,0
1485,7010601064964,新規,0,2024-04-04,2024-04-04,株式会社ルイ商事,,株式会社,東京都,墨田区,江東橋４丁目２１番６－１１０７号錦糸町ハイタウン,,13,107,1300022,,,,,,,2024-04-04,1,,,,,ルイショウジ,0
1488,7010801034924,新規,0,2024-04-04,2024-04-04,株式会社エイチツリー,,株式会社,東京都,大田区,山王２丁目５番１３号大森北口ビル５Ｆ,,13,111,1430023,,,,,,,2024-04-04,1,,,,,エイチツリー,0
1492,7010905004600,新規,0,2024-04-04,2024-04-04,一般社団法人製薬ビジネス研究会,,その他の設立登記法人,東京都,世田谷区,宮坂２丁目２２番５号,,13,112,1560051,,,,,,,2024-04-04,1,,,,,セイヤクビジネスケンキュウカイ,0
1493,7011001161039,新規,0,2024-04-04,2024-04-04,株式会社都葵,,株式会社,東京都,渋谷区,恵比寿西２丁目４番８号ウィンド恵比寿ビル８Ｆ,,13,113,1500021,,,,,,,2024-04-04,1,,,,,ツキ,0
1494,7011001161055,新規,0,2024-04-04,2024-04-04,ＵＭＡＩ　ＢＯＸ株式会社,,株式会社,東京都,目黒区,三田１丁目１１番１号ＹＴタナカビルディング３Ｆ,,13,110,1530062,,,,,,,2024-04-04,1,,,,,ウマイボックス,0
1495,7011001161105,新規,0,2024-04-04,2024-04-04,株式会社ミナミ,,株式会社,東京都,渋谷区,道玄坂１丁目１０番８号渋谷道玄坂東急ビル２Ｆ－Ｃ,,13,113,1500043,,,,,,,2024-04-04,1,,,,,ミナミ,0
1496,7011001161113,新規,0,2024-04-04,2024-04-04,株式会社ＮＥＸＵＳ,,株式会社,東京都,目黒区,東山１丁目３番１０号銀河東山ビル３階,,13,110,1530043,,,,,,,2024-04-04,1,,,,,ネクサス,0
1497,7011001161162,新規,0,2024-04-04,2024-04-04,株式会社ｐｂｌｃ,,株式会社,東京都,渋谷区,元代々木町１０―７―３０２,,13,113,1510062,,,,,,,2024-04-04,1,,,,,ピービーエルシー,0
1499,7011003018848,新規,0,2024-04-04,2024-04-04,合同会社Ｅｎｄｅａｖｏｒ　Ｅｎｇｌｉｓｈ,,合同会社,東京都,渋谷区,神泉町１０番１５号Ａｎｎｅｘ神泉３０１,,13,113,1500045,,,,,,,2024-04-04,1,,,,,エンデバーイングリッシュ,0
1501,7011101106827,新規,0,2024-04-04,2024-04-04,株式会社ｍｏｒｅｔｈａｎ．ｐ,,株式会社,東京都,新宿区,西新宿３丁目３番１３号西新宿水間ビル２階,,13,104,1600023,,,,,,,2024-04-04,1,,,,,モアザンプランニング,0
1504,7011401025974,新規,0,2024-04-04,2024-04-04,株式会社スイーツセレクション,,株式会社,東京都,板橋区,大山町４７－５ハッピーロード大山商店街吉岡屋ビル２Ｆ,,13,119,1730023,,,,,,,2024-04-04,1,,,,,スイーツセレクション,0
1505,7011601027655,新規,0,2024-04-04,2024-04-04,株式会社輝盛,,株式会社,東京都,練馬区,南大泉４丁目５０番５－３０２号,,13,120,1780064,,,,,,,2024-04-04,1,,,,,キセイ,0
1506,7011601027663,新規,0,2024-04-04,2024-04-04,藤田設備株式会社,,株式会社,東京都,練馬区,土支田２丁目３４番８号,,13,120,1790076,,,,,,,2024-04-04,1,,,,,フジタセツビ,0
1507,7011703003793,新規,0,2024-04-04,2024-04-04,アルマース合同会社,,合同会社,東京都,江戸川区,西小岩３丁目３６番５号,,13,123,1330057,,,,,,,2024-04-04,1,,,,,アルマース,0
1508,7011801044021,新規,0,2024-04-04,2024-04-04,ＴＫ２株式会社,,株式会社,東京都,葛飾区,高砂８丁目６番２号パラシオアマビーレ１０２,,13,122,1250054,,,,,,,2024-04-04,1,,,,,テイクツー,0
1509,7011803006093,新規,0,2024-04-04,2024-04-04,合同会社太工房,,合同会社,東京都,葛飾区,東新小岩１丁目１８番９号,,13,122,1240023,,,,,,,2024-04-04,1,,,,,タイコウボウ,0
1510,7012801023080,新規,0,2024-04-04,2024-04-04,マキト技建株式会社,,株式会社,東京都,東大和市,高木２丁目１１８番地の６,,13,220,2070005,,,,,,,2024-04-04,1,,,,,マキトギケン,0
1511,7012801023089,新規,0,2024-04-04,2024-04-04,株式会社アレハ,,株式会社,東京都,国分寺市,高木町１丁目１２番地１０,,13,214,1850036,,,,,,,2024-04-04,1,,,,,アレハ,0
1512,7012803003345,新規,0,2024-04-04,2024-04-04,合同会社ＸＸ,,合同会社,東京都,昭島市,緑町４丁目３番１８号フラットＡ２０１号,,13,207,1960004,,,,,,,2024-04-04,1,,,,,ダブルエックス,0
1520,7020001156535,新規,0,2024-04-04,2024-04-04,株式会社ＡＲ,,株式会社,神奈川県,横浜市西区,浅間町２丁目１０５番地４クリオ横浜フロントレジデンス１０５号室,,14,103,2200072,,,,,,,2024-04-04,1,,,,,エーアール,0
1521,7020001156576,新規,0,2024-04-04,2024-04-04,株式会社ＳＨＥａＦ,,株式会社,神奈川県,横浜市都筑区,荏田東２丁目８番８号,,14,118,2240006,,,,,,,2024-04-04,1,,,,,シーフ,0
1522,7020001156584,新規,0,2024-04-04,2024-04-04,株式会社ＩＴ　Ｐｏｗｅｒｅｄ,,株式会社,神奈川県,横浜市保土ケ谷区,神戸町１５７番地２３,,14,106,2400005,,,,,,,2024-04-04,1,,,,,アイティパワード,0
1525,7020003025845,新規,0,2024-04-04,2024-04-04,合同会社賢健,,合同会社,神奈川県,川崎市中原区,上小田中１丁目３１番地２５号,,14,133,2110053,,,,,,,2024-04-04,1,,,,,ケンケン,0
1528,7021001081847,新規,0,2024-04-04,2024-04-04,ＨＭＣサービス株式会社,,株式会社,神奈川県,藤沢市,鵠沼石上１丁目５－９メガサンエスビル６階,,14,205,2510025,,,,,,,2024-04-04,1,,,,,エイチエムシーサービス,0
1529,7021001081855,新規,0,2024-04-04,2024-04-04,株式会社ＲａＹ,,株式会社,神奈川県,茅ヶ崎市,白浜町２－３１,,14,207,2530036,,,,,,,2024-04-04,1,,,,,レイ,0
1530,7021001081863,新規,0,2024-04-04,2024-04-04,株式会社ＴＭアドバンス,,株式会社,神奈川県,横須賀市,森崎３丁目２番７号,,14,201,2380023,,,,,,,2024-04-04,1,,,,,ティーエムアドバンス,0
1532,7030001159561,新規,0,2024-04-04,2024-04-04,株式会社ＣＲＥＳＴ,,株式会社,埼玉県,東松山市,大字西本宿２３５４番地６,,11,212,3550062,,,,,,,2024-04-04,1,,,,,クレスト,0
1533,7030001159594,新規,0,2024-04-04,2024-04-04,タカハシ建設株式会社,,株式会社,埼玉県,川口市,大字東内野５４１番地の３,,11,203,3330821,,,,,,,2024-04-04,1,,,,,タカハシケンセツ,0
1534,7030001159603,新規,0,2024-04-04,2024-04-04,よろずやーず株式会社,,株式会社,埼玉県,さいたま市大宮区,桜木町１丁目１９５番地１大宮ソラミチＫＯＺ４階,,11,103,3300854,,,,,,,2024-04-04,1,,,,,ヨロズヤーズ,0
1535,7030001159636,新規,0,2024-04-04,2024-04-04,株式会社ＴＲＥＡＴＭＥＮＴ,,株式会社,埼玉県,八潮市,大字大曽根２２５番地１,,11,234,3400834,,,,,,,2024-04-04,1,,,,,トリートメント,0
1536,7030001159652,新規,0,2024-04-04,2024-04-04,あおぞらリビングサービス株式会社,,株式会社,埼玉県,春日部市,粕壁東５丁目５番２－３号,,11,214,3440062,,,,,,,2024-04-04,1,,,,,アオゾラリビングサービス,0
1537,7030003023807,新規,0,2024-04-04,2024-04-04,合同会社ＭＧ,,合同会社,埼玉県,久喜市,久喜東１丁目４番１０号タウニーイーストＡ棟１０２,,11,232,3460016,,,,,,,2024-04-04,1,,,,,エムジー,0
1538,7030003023955,新規,0,2024-04-04,2024-04-04,Ｓｅｌｌｔｅｃ　Ｎｉｈｏｎ合同会社,,合同会社,埼玉県,坂戸市,伊豆の山町２１番地４７ＫＩＶオフィス伊豆の山１号棟Ａ号室,,11,239,3500275,,,,,,,2024-04-04,1,,,,,セルテックニホン,0
1539,7030003023963,新規,0,2024-04-04,2024-04-04,トップガン屋合同会社,,合同会社,埼玉県,戸田市,下前１丁目７番２号,,11,224,3350016,,,,,,,2024-04-04,1,,,,,トップガンヤ,0
1540,7030003024004,新規,0,2024-04-04,2024-04-04,合同会社誉田,,合同会社,埼玉県,川口市,大字芝６２２４－１,,11,203,3330866,,,,,,,2024-04-04,1,,,,,ホムタ,0
1541,7030005021643,新規,0,2024-04-04,2024-04-04,一般社団法人ｏｔｏｇｕｒａ‐音藏,,その他の設立登記法人,埼玉県,飯能市,大字中藤上郷４４番地,,11,209,3570121,,,,,,,2024-04-04,1,,,,,オトグラ,0
1557,7070005010254,新規,0,2024-04-04,2024-04-04,ＮＰＯ法人ＭＡＴＡＴＡＢＩ　ＢＡＳＥ,,その他の設立登記法人,群馬県,前橋市,上泉町１０７８番地２,,10,201,3710007,,,,,,,2024-04-04,1,,,,,マタタビベース,0
1558,7080003003168,新規,0,2024-04-04,2024-04-04,合同会社ヤマダ商店,,合同会社,静岡県,静岡市清水区,八坂西町１８番１０号,,22,103,4240025,,,,,,,2024-04-04,1,,,,,ヤマダシヨウテン,0
1561,7080101024644,新規,0,2024-04-04,2024-04-04,株式会社雄山,,株式会社,静岡県,富士宮市,小泉６０５番地の３,,22,207,4180022,,,,,,,2024-04-04,1,,,,,ユウザン,0
1562,7080101024652,新規,0,2024-04-04,2024-04-04,株式会社ちびっこハウス,,株式会社,静岡県,富士市,松本９２番地の５,,22,210,4160903,,,,,,,2024-04-04,1,,,,,チビッコハウス,0
1564,7080103003027,新規,0,2024-04-04,2024-04-04,パラドックス合同会社,,合同会社,静岡県,伊豆の国市,南條１４５４番地の１６,,22,225,4102114,,,,,,,2024-04-04,1,,,,,パラドックス,0
1566,7080105006416,新規,0,2024-04-04,2024-04-04,医療法人社団Ｉ．Ｈ．Ｓ．Ｃ．ａｓｓｏｃｉａｔｉｏｎ,,その他の設立登記法人,静岡県,伊東市,玖須美元和田７２０番地の１４３伊東ショッピングプラザデュオ１階,,22,208,4140045,,,,,,,2024-04-04,1,,,,,アイエイチエスシーアソシエーション,0
1573,7090001018621,新規,0,2024-04-04,2024-04-04,株式会社颯組,,株式会社,山梨県,笛吹市,石和町河内１２５番地グローリオ石和１０３,,19,211,4060043,,,,,,,2024-04-04,1,,,,,ハヤテグミ,0
1578,7110001038303,新規,0,2024-04-04,2024-04-04,株式会社Ｄｆｏｏｄｓ,,株式会社,新潟県,新潟市中央区,鐙１丁目１６番１３号コーポラスリム４０７号,,15,103,9500913,,,,,,,2024-04-04,1,,,,,ディーフーズ,0
1579,7110003005350,新規,0,2024-04-04,2024-04-04,合同会社青空,,合同会社,新潟県,新潟市西区,大友５６番地２,,15,107,9502126,,,,,,,2024-04-04,1,,,,,アオゾラ,0
1580,7110003005359,新規,0,2024-04-04,2024-04-04,合同会社リエゾン,,合同会社,新潟県,見附市,柳橋町２８８‐１９,,15,211,9540082,,,,,,,2024-04-04,1,,,,,リエゾン,0
1585,7120001263676,新規,0,2024-04-04,2024-04-04,株式会社Ｋｒｏｏｍ,,株式会社,大阪府,大阪市都島区,中野町２丁目５番３－８０７号,,27,102,5340027,,,,,,,2024-04-04,1,,,,,クローム,0
1586,7120001263701,新規,0,2024-04-04,2024-04-04,ＡＰＩＴＨＥＲＡ　ＡＤＬＯＮ株式会社,,株式会社,大阪府,大阪市西区,北堀江１丁目１１－３大富士ビル２階,,27,106,5500014,,,,,,,2024-04-04,1,,,,,アピテラアドロン,0
1587,7120001263726,新規,0,2024-04-04,2024-04-04,株式会社ｄｄｄ,,株式会社,大阪府,大阪市中央区,瓦屋町２丁目１８番１１号ＩＣｕｂｅ松屋町４０５,,27,128,5420066,,,,,,,2024-04-04,1,,,,,ディーディーディー,0
1588,7120001263750,新規,0,2024-04-04,2024-04-04,株式会社ＫＡＵＮＹ,,株式会社,大阪府,大阪市港区,市岡１丁目２４番２２号,,27,107,5520012,,,,,,,2024-04-04,1,,,,,カウニー,0
1589,7120001263759,新規,0,2024-04-04,2024-04-04,シード株式会社,,株式会社,大阪府,大阪市北区,梅田１丁目２番２号大阪駅前第２ビル１２－１２,,27,127,5300001,,,,,,,2024-04-04,1,,,,,,0
1590,7120001263767,新規,0,2024-04-04,2024-04-04,株式会社ケアナス,,株式会社,大阪府,大阪市北区,万歳町３番１６号天満病院グループ梅田ビル７階,,27,127,5300028,,,,,,,2024-04-04,1,,,,,ケアナス,0
1591,7120001263783,新規,0,2024-04-04,2024-04-04,株式会社組織営業総研,,株式会社,大阪府,大阪市北区,梅田１丁目１１番４号大阪駅前第４ビル９階９２３－８９５号,,27,127,5300001,,,,,,,2024-04-04,1,,,,,ソシキエイギョウソウケン,0
1592,7120001263882,新規,0,2024-04-04,2024-04-04,株式会社Ｕｃａ,,株式会社,大阪府,大阪市北区,梅田１丁目２番２号大阪駅前第２ビル１２－１２,,27,127,5300001,,,,,,,2024-04-04,1,,,,,ウカ,0
1594,7120101069346,新規,0,2024-04-04,2024-04-04,株式会社ＫＯＢＡＹＡＳＨＩ,,株式会社,大阪府,堺市北区,大豆塚町１丁２４番地６,,27,146,5918042,,,,,,,2024-04-04,1,,,,,コバヤシ,0
1595,7120101069354,新規,0,2024-04-04,2024-04-04,株式会社ＲＥＮ,,株式会社,大阪府,和泉市,王子町２丁目１番８－１０４号,,27,219,5940004,,,,,,,2024-04-04,1,,,,,レン,0
1597,7120103005761,新規,0,2024-04-04,2024-04-04,合同会社アイティオウ,,合同会社,大阪府,藤井寺市,道明寺５丁目８番９号,,27,226,5830012,,,,,,,2024-04-04,1,,,,,アイティオウ,0
1599,7120901048986,新規,0,2024-04-04,2024-04-04,株式会社アサシン,,株式会社,大阪府,摂津市,三島２丁目１番４５号,,27,224,5660022,,,,,,,2024-04-04,1,,,,,アサシン,0
1600,7120901048994,新規,0,2024-04-04,2024-04-04,株式会社アイ・シー・ラボ,,株式会社,大阪府,茨木市,大字大岩２５３番地,,27,211,5680091,,,,,,,2024-04-04,1,,,,,アイシーラボ,0
1601,7122001037969,新規,0,2024-04-04,2024-04-04,株式会社Ａｄｖａｎｃｅ　Ｆａｍｉｌｙ,,株式会社,大阪府,東大阪市,衣摺５丁目１７番４－２０５号,,27,227,5770827,,,,,,,2024-04-04,1,,,,,アドバンスファミリー,0
1602,7122001037985,新規,0,2024-04-04,2024-04-04,株式会社弦楽堂,,株式会社,大阪府,東大阪市,横小路町２丁目２番１０号,,27,227,5798063,,,,,,,2024-04-04,1,,,,,ゲンガクドウ,0
1605,7130001076706,新規,0,2024-04-04,2024-04-04,株式会社ＭＯＬＴＥＭＡＮＩ,,株式会社,京都府,京都市下京区,中堂寺前田町２０番地１４,,26,106,6008804,,,,,,,2024-04-04,1,,,,,モルテマニ,0
1606,7130001076730,新規,0,2024-04-04,2024-04-04,株式会社ｍａｃｈｉ‐ｈｕｂ,,株式会社,京都府,京都市上京区,御前通西裏上の下立売上る北町５８０番地４,,26,102,6028368,,,,,,,2024-04-04,1,,,,,マチハブ,0
1607,7130003009424,新規,0,2024-04-04,2024-04-04,合同会社森口産業医事務所,,合同会社,京都府,京都市上京区,今出川通浄福寺西入二丁目東上善寺町１６４番地レスタージュ西陣８０３号,,26,102,6020000,,,,,,,2024-04-04,1,,,,,モリグチサンギョウイジムショ,0
1608,7130003009440,新規,0,2024-04-04,2024-04-04,合同会社継青堂,,合同会社,京都府,南丹市,園部町小桜町７７番地１,,26,213,6220004,,,,,,,2024-04-04,1,,,,,ケイセイドウ,0
1613,7140001133902,新規,0,2024-04-04,2024-04-04,株式会社アベスト３３０ホールディングス,,株式会社,兵庫県,神戸市中央区,波止場町６番１号,,28,110,6500042,,,,,,,2024-04-04,1,,,,,アベストミサオホールディングス,0
1615,7140003020371,新規,0,2024-04-04,2024-04-04,中溝プラントエンジニアリング合同会社,,合同会社,兵庫県,神戸市中央区,割塚通２丁目３－３－１リーフビル割塚２０１,,28,110,6510065,,,,,,,2024-04-04,1,,,,,ナカミゾプラントエンジニアリング,0
1617,7150001027186,新規,0,2024-04-04,2024-04-04,株式会社ＮＥＸＴ,,株式会社,奈良県,奈良市,法華寺町２７８番地の２－２０２号,,29,201,6308001,,,,,,,2024-04-04,1,,,,,ネクスト,0
1618,7150005009577,新規,0,2024-04-04,2024-04-04,特定非営利活動法人未来つなぐワークケア,,その他の設立登記法人,奈良県,大和郡山市,北大工町４２－１番地,,29,203,6391146,,,,,,,2024-04-04,1,,,,,ミライツナグワークケア,0
1620,7160001025800,新規,0,2024-04-04,2024-04-04,株式会社ビースリープラス,,株式会社,滋賀県,彦根市,野良田町４１１番地２４,,25,202,5211124,,,,,,,2024-04-04,1,,,,,ビースリープラス,0
1621,7160001025809,新規,0,2024-04-04,2024-04-04,株式会社トータルペイント,,株式会社,滋賀県,大津市,穴太２丁目１０番１１－１号,,25,201,5200114,,,,,,,2024-04-04,1,,,,,トータルペイント,0
1625,7170001018084,新規,0,2024-04-04,2024-04-04,株式会社バルクラボ,,株式会社,和歌山県,和歌山市,北ノ新地１丁目３１番地ＤＵＯ近畿ビル２０２号室,,30,201,6408355,,,,,,,2024-04-04,1,,,,,バルクラボ,0
1629,7180005020572,新規,0,2024-04-04,2024-04-04,医療法人内和会,,その他の設立登記法人,愛知県,一宮市,大志１丁目１３番地９,,23,203,4910852,,,,,,,2024-04-04,1,,,,,ウチワカイ,0
1631,7190001031242,新規,0,2024-04-04,2024-04-04,株式会社メディエール,,株式会社,三重県,四日市市,芝田１丁目９番３４号,,24,202,5100822,,,,,,,2024-04-04,1,,,,,メディエール,0
1634,7200001042345,新規,0,2024-04-04,2024-04-04,昇仁堂株式会社,,株式会社,岐阜県,高山市,上二之町７６番地,,21,203,5060845,,,,,,,2024-04-04,1,,,,,ショウジンドウ,0
1637,7220005008828,新規,0,2024-04-04,2024-04-04,一般社団法人加越,,その他の設立登記法人,石川県,能美市,中町ソ９０番地５,,17,211,9290123,,,,,,,2024-04-04,1,,,,,カエツ,0
1638,7230001020281,新規,0,2024-04-04,2024-04-04,株式会社ソレイユ,,株式会社,富山県,砺波市,太郎丸１丁目５番９号,,16,208,9391363,,,,,,,2024-04-04,1,,,,,ソレイユ,0
1642,7240001063057,新規,0,2024-04-04,2024-04-04,株式会社琉真海運,,株式会社,広島県,江田島市,大柿町深江８０９番地１,,34,215,7372214,,,,,,,2024-04-04,1,,,,,リュウシンカイウン,0
1648,7260001038940,新規,0,2024-04-04,2024-04-04,株式会社ＫＴＭ,,株式会社,岡山県,倉敷市,連島町鶴新田１７１８番地５,,33,202,7128006,,,,,,,2024-04-04,1,,,,,ケイティエム,0
1650,7260003004635,新規,0,2024-04-04,2024-04-04,合同会社ばんぶう,,合同会社,岡山県,玉野市,玉２丁目１３番１号,,33,204,7060012,,,,,,,2024-04-04,1,,,,,バンブウ,0
1654,7290001105283,新規,0,2024-04-04,2024-04-04,株式会社Ｎｅｘｔｏｒｍ,,株式会社,福岡県,福岡市早良区,藤崎１丁目１番４６号,,40,137,8140013,,,,,,,2024-04-04,1,,,,,ネクストーム,0
1659,7290803004666,新規,0,2024-04-04,2024-04-04,アイランドフォーチュン合同会社,,合同会社,福岡県,行橋市,行事５丁目１１－１３,,40,213,8240001,,,,,,,2024-04-04,1,,,,,アイランドフォーチュン,0
1660,7290803004674,新規,0,2024-04-04,2024-04-04,テルミガーデン合同会社,,合同会社,福岡県,田川郡添田町,大字中元寺３７２０,,40,602,8240603,,,,,,,2024-04-04,1,,,,,テルミガーデン,0
1662,7300001013666,新規,0,2024-04-04,2024-04-04,井上工業株式会社,,株式会社,佐賀県,唐津市,和多田南先石７番４５号サウスフォアフロントＩＩ１０２,00134291,41,202,8470081,,,,,,,2024-04-04,1,,,,,イノウエコウギョウ,0
1663,7300001013674,新規,0,2024-04-04,2024-04-04,こだまどりぃむ株式会社,,株式会社,佐賀県,武雄市,朝日町大字甘久２２３３番地２,,41,206,8430001,,,,,,,2024-04-04,1,,,,,コダマドリィム,0
1664,7310001018937,新規,0,2024-04-04,2024-04-04,株式会社Ｌｅｃｃｏｔ,,株式会社,長崎県,長崎市,滑石５丁目９番９－５０６号,,42,201,8528061,,,,,,,2024-04-04,1,,,,,レコット,0
1665,7310003004761,新規,0,2024-04-04,2024-04-04,Ｎ．Ｋ合同会社,,合同会社,長崎県,諫早市,多良見町化屋７６０番地４,,42,204,8590401,,,,,,,2024-04-04,1,,,,,エヌケイ,0
1669,7330001031913,新規,0,2024-04-04,2024-04-04,株式会社佐田建設,,株式会社,熊本県,玉名郡南関町,大字細永９０５番地５,,43,367,8610831,,,,,,,2024-04-04,1,,,,,サタケンセツ,0
1671,7340001026425,新規,0,2024-04-04,2024-04-04,株式会社ルードラスター,,株式会社,鹿児島県,鹿児島市,祇園之洲町４９番地１Ｆ,,46,201,8920803,,,,,,,2024-04-04,1,,,,,ルードラスター,0
1676,7360001033428,新規,0,2024-04-04,2024-04-04,株式会社丸希,,株式会社,沖縄県,那覇市,字天久８０２番地,,47,201,9000005,,,,,,,2024-04-04,1,,,,,マルキ,0
1677,7360001033436,新規,0,2024-04-04,2024-04-04,株式会社ＣＤＯ,,株式会社,沖縄県,南城市,大里字古堅１２６０番地４,,47,215,9011207,,,,,,,2024-04-04,1,,,,,シーディーオー,0
1678,7360001033452,新規,0,2024-04-04,2024-04-04,株式会社巧解体,,株式会社,沖縄県,うるま市,字昆布９２０番地２,,47,213,9042201,,,,,,,2024-04-04,1,,,,,タクミカイタイ,0
1679,7360003013857,新規,0,2024-04-04,2024-04-04,合同会社マニュファクトリー,,合同会社,沖縄県,中頭郡読谷村,字楚辺２１１１番地２,,47,324,9040304,,,,,,,2024-04-04,1,,,,,マニュファクトリー,0
1680,7360003013865,新規,0,2024-04-04,2024-04-04,合同会社ＡＫＡＳＨＩ,,合同会社,沖縄県,那覇市,首里儀保町２丁目１０番地２,,47,201,9030821,,,,,,,2024-04-04,1,,,,,アカシ,0
1681,7360005007015,新規,0,2024-04-04,2024-04-04,一般社団法人ＵＩＴＥＭＡＴＥ沖縄,,その他の設立登記法人,沖縄県,宜野湾市,宜野湾２丁目２番２９号ｎｅＸｔａｇｅ　Ｌｅ　ｒｅｖｅ　２Ｆ,,47,205,9012211,,,,,,,2024-04-04,1,,,,,ウイテマテオキナワ,0
1682,7370001051123,新規,0,2024-04-04,2024-04-04,株式会社臥龍舎,,株式会社,宮城県,仙台市泉区,実沢字中山南３１番地の５－５Ｆ,,04,105,9813217,,,,,,,2024-04-04,1,,,,,ガリュウシャ,0
1683,7370001051156,新規,0,2024-04-04,2024-04-04,株式会社蔵屋工藤商店,,株式会社,宮城県,塩竈市,新浜一丁目４８番４５号,,04,203,9850000,,,,,,,2024-04-04,1,,,,,クラヤクドウショウテン,0
1685,7390001017568,新規,0,2024-04-04,2024-04-04,株式会社かん牧場,,株式会社,山形県,最上郡最上町,大字志茂７６８番地,,06,362,9996212,,,,,,,2024-04-04,1,,,,,カンボクジョウ,0
1686,7390003002221,新規,0,2024-04-04,2024-04-04,合同会社ＳＡＩＢＡＩＭＡＮ　ＩＮＣ,,合同会社,山形県,寒河江市,船橋町４番地の１２,,06,206,9910055,,,,,,,2024-04-04,1,,,,,サイバイマンアイエヌシー,0
1688,7430001091410,新規,0,2024-04-04,2024-04-04,株式会社ＴＳＫ,,株式会社,北海道,札幌市北区,北十二条西４丁目１－１４,,01,102,0010012,,,,,,,2024-04-04,1,,,,,ティエスケイ,0
1696,7460301005208,新規,0,2024-04-04,2024-04-04,株式会社Ｙフーズ,,株式会社,北海道,北見市,東三輪４丁目８番地３０,,01,208,0900836,,,,,,,2024-04-04,1,,,,,ワイフーズ,0
1702,7490001010736,新規,0,2024-04-04,2024-04-04,株式会社こころざし,,株式会社,高知県,高知市,帯屋町１丁目１４－８,,39,201,7800841,,,,,,,2024-04-04,1,,,,,ココロザシ,0
1703,7490005006929,新規,0,2024-04-04,2024-04-04,一般社団法人ＣＬＳ高知,,その他の設立登記法人,高知県,高知市,西塚ノ原６２－１ミルパーチェ１０３号室,,39,201,7800951,,,,,,,2024-04-04,1,,,,,シーエルエスコウチ,0
1704,7500001025559,新規,0,2024-04-04,2024-04-04,株式会社ＬＯＯＦ,,株式会社,愛媛県,松山市,西石井１丁目９番３１号西岡プラザ３０２号,,38,201,7900931,,,,,,,2024-04-04,1,,,,,ルーフ,0
1711,8010001243614,新規,0,2024-04-04,2024-04-04,Ｗａｌｋｉｎｇ　Ｌｉｆｅ　Ｐｌｕｓ株式会社,,株式会社,東京都,中央区,入船１丁目７番８－７０１号,,13,102,1040042,,,,,,,2024-04-04,1,,,,,ウォーキングライフプラス,0
1712,8010001243754,新規,0,2024-04-04,2024-04-04,株式会社共創支援パートナーズ,,株式会社,東京都,中央区,八丁堀３丁目１４番４号八丁堀サード８階,,13,102,1040032,,,,,,,2024-04-04,1,,,,,キョウソウシエンパートナーズ,0
1713,8010003043368,新規,0,2024-04-04,2024-04-04,イーロッジング・マーズ合同会社,,合同会社,東京都,千代田区,麹町５丁目１番地ＮＫ真和ビル９階,,13,101,1020083,,,,,,,2024-04-04,1,,,,,イーロッジングマーズ,0
1714,8010003043392,新規,0,2024-04-04,2024-04-04,ＴａｌｅｎｔＬｉｎｋ合同会社,,合同会社,東京都,中央区,日本橋室町１丁目１１番１２号日本橋水野ビル７階,,13,102,1030022,,,,,,,2024-04-04,1,,,,,タレントリンク,0
1725,8010401181488,新規,0,2024-04-04,2024-04-04,ＡＱＸ株式会社,,株式会社,東京都,港区,海岸１丁目２番２０号汐留ビルディング３階,,13,103,1050022,,,,,,,2024-04-04,1,,,,,エーキューエックス,0
1727,8010403032318,新規,0,2024-04-04,2024-04-04,合同会社ＥＴＥＲＮＩＴＹ,,合同会社,東京都,港区,白金３丁目３番１７－３０２号,,13,103,1080072,,,,,,,2024-04-04,1,,,,,エタニティー,0
1731,8010701045806,新規,0,2024-04-04,2024-04-04,株式会社ｓｎｉｐ‐ｓｎａｐ,,株式会社,東京都,品川区,西品川１丁目２９番１２号ＣＳＲ品川,,13,109,1410033,,,,,,,2024-04-04,1,,,,,スニップスナップ,0
1733,8010901055010,新規,0,2024-04-04,2024-04-04,株式会社ＴＯＰ,,株式会社,東京都,世田谷区,豪徳寺１丁目５０番１７号,,13,112,1540021,,,,,,,2024-04-04,1,,,,,トップ,0
1734,8010901055019,新規,0,2024-04-04,2024-04-04,ＥＵＧＥＮＥ　ＰＬＵＳ株式会社,,株式会社,東京都,世田谷区,松原６丁目５番２０号,,13,112,1560043,,,,,,,2024-04-04,1,,,,,ユージーンプラス,0
1735,8010903008940,新規,0,2024-04-04,2024-04-04,合同会社立川商事,,合同会社,東京都,世田谷区,北沢２丁目３７番１７号ピエノ下北沢２階,,13,112,1550031,,,,,,,2024-04-04,1,,,,,タツカワショウジ,0
1736,8010905004599,新規,0,2024-04-04,2024-04-04,社会保険労務士法人メディヴァ,,その他の設立登記法人,東京都,世田谷区,用賀２丁目４１番１８号アーバンサイドテラス１Ｆ,,13,112,1580097,,,,,,,2024-04-04,1,,,,,メディヴァ,0
1739,8011001161038,新規,0,2024-04-04,2024-04-04,株式会社Ｓｐｉｃｙ,,株式会社,東京都,渋谷区,恵比寿西２丁目４番８号ウィンド恵比寿ビル８Ｆ,,13,113,1500021,,,,,,,2024-04-04,1,,,,,スパイシー,0
1740,8011001161054,新規,0,2024-04-04,2024-04-04,株式会社Ｃｏｎｓａｙ,,株式会社,東京都,渋谷区,神宮前６丁目２３番４号桑野ビル２階,,13,113,1500001,,,,,,,2024-04-04,1,,,,,コンセイ,0
1741,8011001161062,新規,0,2024-04-04,2024-04-04,株式会社ＭｉＫｅホールディングス,,株式会社,東京都,渋谷区,渋谷２丁目１９－１５宮益坂ビルディング６０９,,13,113,1500002,,,,,,,2024-04-04,1,,,,,ミケホールディングス,0
1742,8011001161070,新規,0,2024-04-04,2024-04-04,株式会社Ｖｏｏｄｏｏ　Ｃｈｉｌｄ,,株式会社,東京都,渋谷区,道玄坂１丁目１０番８号２Ｆ－Ｃ,,13,113,1500043,,,,,,,2024-04-04,1,,,,,ヴードゥーチャイルド,0
1743,8011001161079,新規,0,2024-04-04,2024-04-04,株式会社灯乃番,,株式会社,東京都,渋谷区,広尾５丁目１９番２号,,13,113,1500012,,,,,,,2024-04-04,1,,,,,ヒノバン,0
1744,8011001161112,新規,0,2024-04-04,2024-04-04,株式会社Ｋ,,株式会社,東京都,渋谷区,代々木４丁目４１番７号参宮橋マンション１２１,,13,113,1510053,,,,,,,2024-04-04,1,,,,,ケー,0
1745,8011001161153,新規,0,2024-04-04,2024-04-04,株式会社ＯＹＫＯＴ,,株式会社,東京都,渋谷区,渋谷２丁目１９―１５宮益坂ビルディング６０９,,13,113,1500002,,,,,,,2024-04-04,1,,,,,オイコット,0
1746,8011003018673,新規,0,2024-04-04,2024-04-04,Ｐａｓａｎｅｔ合同会社,,合同会社,東京都,渋谷区,神宮前６丁目２３番４号桑野ビル２階,,13,113,1500001,,,,,,,2024-04-04,1,,,,,パサネット,0
1747,8011005010463,新規,0,2024-04-04,2024-04-04,一般社団法人日本ＤＡＯ協会,,その他の設立登記法人,東京都,渋谷区,恵比寿南３丁目５番７号デジタルゲートビル２階,,13,113,1500022,,,,,,,2024-04-04,1,,,,,ニッポンダオキョウカイ,0
1750,8011101106784,新規,0,2024-04-04,2024-04-04,株式会社ＦｏｌｌｏｗＰｏｉｎｔ,,株式会社,東京都,新宿区,新宿１丁目３６－２新宿第七葉山ビル３Ｆ,,13,104,1600022,,,,,,,2024-04-04,1,,,,,フォローポイント,0
1751,8011101106818,新規,0,2024-04-04,2024-04-04,株式会社ヒートポイント,,株式会社,東京都,新宿区,西新宿６丁目１８番１号,,13,104,1600023,,,,,,,2024-04-04,1,,,,,ヒートポイント,0
1758,8011601027662,新規,0,2024-04-04,2024-04-04,株式会社トモチ漏水調査,,株式会社,東京都,練馬区,豊玉中１丁目１番１７号クラッシィハウス練馬豊玉２０６,,13,120,1760013,,,,,,,2024-04-04,1,,,,,トモチロウスイチョウサ,0
1761,8011805003360,新規,0,2024-04-04,2024-04-04,一般社団法人ＧＭ‐ＣＳＦ吸入推進機構,,その他の設立登記法人,東京都,足立区,保木間３丁目３５番１５号,,13,121,1210064,,,,,,,2024-04-04,1,,,,,ジーエムシーエスエフキュウニュウスイシンキコウ,0
1770,8012401041713,新規,0,2024-04-04,2024-04-04,株式会社みらいけいかく,,株式会社,東京都,調布市,菊野台３丁目４７番地９ベルヒーロー四番館２０４,,13,208,1820007,,,,,,,2024-04-04,1,,,,,ミライケイカク,0
1773,8012801023088,新規,0,2024-04-04,2024-04-04,株式会社ｅ‐ｒｉｚｅ,,株式会社,東京都,国分寺市,並木町１丁目３２番地３ダイアパレス国分寺鷹の台５０２,,13,214,1850005,,,,,,,2024-04-04,1,,,,,イーライズ,0
1778,8020001156575,新規,0,2024-04-04,2024-04-04,株式会社ＷＧｒａｙ,,株式会社,神奈川県,横浜市鶴見区,市場富士見町１番１０－３０２号,,14,101,2300026,,,,,,,2024-04-04,1,,,,,グレー,0
1779,8020001156583,新規,0,2024-04-04,2024-04-04,株式会社リクカツ,,株式会社,神奈川県,横浜市西区,みなとみらい２丁目２番１号横浜ランドマークタワー２０Ｆ,,14,103,2200012,,,,,,,2024-04-04,1,,,,,リクカツ,0
1780,8020001156600,新規,0,2024-04-04,2024-04-04,共創システム研究所株式会社,,株式会社,神奈川県,川崎市高津区,二子４丁目１２番２－１号,,14,134,2130002,,,,,,,2024-04-04,1,,,,,キョウソウシステムケンキュウジョ,0
1783,8020003025869,新規,0,2024-04-04,2024-04-04,インフィニティ・アビエーション・アソシエイツ合同会社,,合同会社,神奈川県,横浜市戸塚区,上矢部町６３５番地２セレーノ・レジデンス１０２号室,,14,110,2450053,,,,,,,2024-04-04,1,,,,,インフィニティアビエーションアソシエイツ,0
1784,8020003025902,新規,0,2024-04-04,2024-04-04,合同会社梨会計,,合同会社,神奈川県,横浜市都筑区,池辺町４０３５番地１３パークシティＬａＬａ横浜１０２７号室,,14,118,2240053,,,,,,,2024-04-04,1,,,,,ナシカイケイ,0
1791,8030001159544,新規,0,2024-04-04,2024-04-04,株式会社ＣＯＭ,,株式会社,埼玉県,春日部市,大場１６０８－２９,,11,214,3440021,,,,,,,2024-04-04,1,,,,,シーオーエム,0
1792,8030001159577,新規,0,2024-04-04,2024-04-04,株式会社けやきファーム,,株式会社,埼玉県,深谷市,明戸５６番地,,11,218,3660024,,,,,,,2024-04-04,1,,,,,ケヤキファーム,0
1793,8030001159602,新規,0,2024-04-04,2024-04-04,株式会社ＡＩＰＯＷＥＲ　ＪＡＰＡＮ,,株式会社,埼玉県,上尾市,大字原市４７番地１８,,11,219,3620021,,,,,,,2024-04-04,1,,,,,エイアイパワージャパン,0
1794,8030001159610,新規,0,2024-04-04,2024-04-04,株式会社ＴＴＢ,,株式会社,埼玉県,三郷市,中央４丁目２０番地２メイツ三郷中央サラテラス２０９,,11,237,3410038,,,,,,,2024-04-04,1,,,,,ティーティービー,0
1795,8030001159643,新規,0,2024-04-04,2024-04-04,ＰＬロジスティクスサービス株式会社,,株式会社,埼玉県,吉川市,大字高久５５５番地,,11,243,3420035,,,,,,,2024-04-04,1,,,,,ピーエルロジスティクスサービス,0
1797,8040001132938,新規,0,2024-04-04,2024-04-04,株式会社ｍｏｍｏコンサルティング,,株式会社,千葉県,四街道市,物井８６６番地１１,,12,228,2840012,,,,,,,2024-04-04,1,,,,,モモコンサルティング,0
1798,8040001132954,新規,0,2024-04-04,2024-04-04,株式会社ちばくる,,株式会社,千葉県,千葉市美浜区,幸町２丁目１番２号,,12,106,2610001,,,,,,,2024-04-04,1,,,,,チバクル,0
1799,8040001132987,新規,0,2024-04-04,2024-04-04,株式会社笹木組,,株式会社,千葉県,四街道市,千代田５丁目４２番２号,,12,228,2840015,,,,,,,2024-04-04,1,,,,,ササキグミ,0
1801,8040003024704,新規,0,2024-04-04,2024-04-04,合同会社ＴＳＵＮＡＧＵ,,合同会社,千葉県,東金市,田間９０３－１４,,12,213,2830005,,,,,,,2024-04-04,1,,,,,ツナグ,0
1808,8050001054561,新規,0,2024-04-04,2024-04-04,株式会社ソルテ,,株式会社,茨城県,稲敷郡阿見町,中央６丁目１２番５号,,08,443,3000332,,,,,,,2024-04-04,1,,,,,ソルテ,0
1814,8050003008235,新規,0,2024-04-04,2024-04-04,Ｊｐ　ｔｒａｄｉｎｇ合同会社,,合同会社,茨城県,古河市,中田２２８９－１コーポ藤塚２階２０１号室,,08,204,3060053,,,,,,,2024-04-04,1,,,,,ジェーピートレーディング,0
1815,8050003008251,新規,0,2024-04-04,2024-04-04,合同会社本図管工,,合同会社,茨城県,水戸市,見和１丁目４５７番地の６カーサ・トミナガ３０３号,,08,201,3100911,,,,,,,2024-04-04,1,,,,,モトズカンコウ,0
1817,8060003005009,新規,0,2024-04-04,2024-04-04,Ｈａｓｓａｎ　Ｔｒａｄｉｎｇ合同会社,,合同会社,栃木県,栃木市,岩舟町新里１３０４番地１４号室,,09,203,3294316,,,,,,,2024-04-04,1,,,,,ハッサントレーディング,0
1825,8070003005346,新規,0,2024-04-04,2024-04-04,合同会社ＩＴ　Ａｓｓｉｓｔ,,合同会社,群馬県,高崎市,飯塚町１５００番地,,10,202,3700069,,,,,,,2024-04-04,1,,,,,アイティーアシスト,0
1827,8080101024651,新規,0,2024-04-04,2024-04-04,株式会社アイロガレージ,,株式会社,静岡県,御殿場市,茱萸沢５７５番地の２ＧＢＡＳＥぐみ沢０２,,22,215,4120041,,,,,,,2024-04-04,1,,,,,アイロガレージ,0
1831,8090001018637,新規,0,2024-04-04,2024-04-04,株式会社ＦＩＸ,,株式会社,山梨県,笛吹市,石和町下平井１３６番地３,,19,211,4060027,,,,,,,2024-04-04,1,,,,,フィックス,0
1835,8110001038293,新規,0,2024-04-04,2024-04-04,株式会社ＥＣＯ．ｓｔａｆｆ,,株式会社,新潟県,新潟市秋葉区,草水町３丁目５番２１号,,15,105,9560833,,,,,,,2024-04-04,1,,,,,エコスタッフ,0
1846,8120001263717,新規,0,2024-04-04,2024-04-04,株式会社グループホームライフケア,,株式会社,大阪府,大阪市浪速区,日本橋東１丁目２番１４号ロイヤルミナミ３０１号,,27,111,5560006,,,,,,,2024-04-04,1,,,,,グループホームライフケア,0
1847,8120001263733,新規,0,2024-04-04,2024-04-04,静陽株式会社,,株式会社,大阪府,大阪市中央区,本町３丁目３－９－９Ｆ,,27,128,5410053,,,,,,,2024-04-04,1,,,,,セイヨウ,0
1848,8120001263766,新規,0,2024-04-04,2024-04-04,ＭＵプランニング株式会社,,株式会社,大阪府,大阪市西区,靱本町１丁目１５番１０－５０３号,,27,106,5500004,,,,,,,2024-04-04,1,,,,,ミュープランニング,0
1849,8120001263799,新規,0,2024-04-04,2024-04-04,株式会社仙左衛門,,株式会社,大阪府,大阪市東淀川区,東中島１丁目７－１８アドバンス新大阪８０７,,27,114,5330033,,,,,,,2024-04-04,1,,,,,センザエモン,0
1852,8120003026295,新規,0,2024-04-04,2024-04-04,合同会社ＷＡＲＩＳ,,合同会社,大阪府,大阪市浪速区,幸町３丁目８番２４－１４０５号,,27,111,5560021,,,,,,,2024-04-04,1,,,,,ワリス,0
1854,8120101069337,新規,0,2024-04-04,2024-04-04,岡田板金工業株式会社,,株式会社,大阪府,堺市西区,浜寺石津町中２丁６番１８号,,27,144,5928334,,,,,,,2024-04-04,1,,,,,オカダバンキンコウギョウ,0
1856,8120103005760,新規,0,2024-04-04,2024-04-04,ＫＡＮＳＡＩＦＡＲＭ合同会社,,合同会社,大阪府,貝塚市,麻生中３３５,,27,208,5970081,,,,,,,2024-04-04,1,,,,,カンサイファーム,0
1861,8130001076705,新規,0,2024-04-04,2024-04-04,株式会社将大鍛刀場,,株式会社,京都府,亀岡市,本梅町西加舎石敷３２番地１,,26,206,6210255,,,,,,,2024-04-04,1,,,,,マサヒロタントウジョウ,0
1862,8130001076713,新規,0,2024-04-04,2024-04-04,株式会社長岡京小倉山荘,,株式会社,京都府,長岡京市,今里蓮ケ糸４５番地,,26,209,6170814,,,,,,,2024-04-04,1,,,,,ナガオカキョウオグラサンソウ,0
1863,8130001076738,新規,0,2024-04-04,2024-04-04,株式会社Ｇｒｉｄ　Ｆｌａｇ,,株式会社,京都府,京都市中京区,西ノ京藤ノ木町１０－４８,,26,104,6048455,,,,,,,2024-04-04,1,,,,,グリッドフラッグ,0
1864,8130001076762,新規,0,2024-04-04,2024-04-04,株式会社上田コンサルティングオフィス,,株式会社,京都府,京都市下京区,烏丸通五条下る大坂町３９２番地,,26,106,6008177,,,,,,,2024-04-04,1,,,,,ウエダコンサルティングオフィス,0
1866,8130003009423,新規,0,2024-04-04,2024-04-04,ｅｃｈｉｋｙｕ合同会社,,合同会社,京都府,京都市上京区,烏丸通一条下る龍前町５９４－１０２,,26,102,6020912,,,,,,,2024-04-04,1,,,,,エチキュウ,0
1867,8130003009431,新規,0,2024-04-04,2024-04-04,Ｍｋ　Ｃｏｎｓｕｌｔｉｎｇ合同会社,,合同会社,京都府,京都市下京区,花屋町通東洞院西入橋詰町１５０番地安達マンション３０２号室,,26,106,6008187,,,,,,,2024-04-04,1,,,,,エムケーコンサルティング,0
1871,8140001133918,新規,0,2024-04-04,2024-04-04,株式会社工房いとまき,,株式会社,兵庫県,姫路市,野里３２８番地１,,28,201,6700811,,,,,,,2024-04-04,1,,,,,コウボウイトマキ,0
1872,8140001133942,新規,0,2024-04-04,2024-04-04,韓氏株式会社,,株式会社,兵庫県,神戸市灘区,曽和町三丁目２番１２エヌヴィ六甲曽和町３０３,,28,102,6570000,,,,,,,2024-04-04,1,,,,,カンシ,0
1873,8140001133983,新規,0,2024-04-04,2024-04-04,株式会社アクセルピア,,株式会社,兵庫県,川西市,清和台西２丁目３番地の１３,,28,217,6660143,,,,,,,2024-04-04,1,,,,,アクセルピア,0
1874,8140003020370,新規,0,2024-04-04,2024-04-04,合同会社アップリフト,,合同会社,兵庫県,神戸市灘区,篠原北町２丁目１番３１号,,28,102,6570068,,,,,,,2024-04-04,1,,,,,アップリフト,0
1875,8140003020379,新規,0,2024-04-04,2024-04-04,合同会社ＫＳＬ,,合同会社,兵庫県,西宮市,松生町１８番２４－３０１号,,28,204,6620076,,,,,,,2024-04-04,1,,,,,ケーエスエル,0
1879,8160001025808,新規,0,2024-04-04,2024-04-04,株式会社ウォーターサイド,,株式会社,滋賀県,大津市,におの浜２丁目２番２－１１０号,,25,201,5200801,,,,,,,2024-04-04,1,,,,,ウォーターサイド,0
1880,8160003003159,新規,0,2024-04-04,2024-04-04,あいりす合同会社,,合同会社,滋賀県,大津市,平津１丁目３８番２４号,,25,201,5200862,,,,,,,2024-04-04,1,,,,,アイリス,0
1884,8170001018083,新規,0,2024-04-04,2024-04-04,株式会社まちタグ,,株式会社,和歌山県,有田市,箕島２５番地,,30,204,6490304,,,,,,,2024-04-04,1,,,,,マチタグ,0
1888,8180001160859,新規,0,2024-04-04,2024-04-04,株式会社オフィス八木,,株式会社,愛知県,名古屋市西区,大野木４丁目１３８番地,,23,104,4520803,,,,,,,2024-04-04,1,,,,,オフィスヤギ,0
1894,8180003026595,新規,0,2024-04-04,2024-04-04,ＭＩＴシステムズ合同会社,,合同会社,愛知県,一宮市,今伊勢町本神戸字名栗１９６番地２,,23,203,4910053,,,,,,,2024-04-04,1,,,,,エムアイティシステムズ,0
1899,8190001031233,新規,0,2024-04-04,2024-04-04,株式会社ＢＧＳ,,株式会社,三重県,桑名市,一色町４６番地,,24,205,5110046,,,,,,,2024-04-04,1,,,,,ビージーエス,0
1900,8190001031241,新規,0,2024-04-04,2024-04-04,共和テクノロジテム株式会社,,株式会社,三重県,亀山市,阿野田町１７３３番地,,24,210,5190137,,,,,,,2024-04-04,1,,,,,キョウワテクノロジテム,0
1901,8190003004633,新規,0,2024-04-04,2024-04-04,合同会社スペース２１,,合同会社,三重県,桑名市,桑名本郷３２６番地,,24,205,5110000,,,,,,,2024-04-04,1,,,,,スペースニジュウイチ,0
1905,8200001042360,新規,0,2024-04-04,2024-04-04,株式会社ペイントクラブ,,株式会社,岐阜県,岐阜市,須賀２丁目２番２号（メゾンドデュオＩ・２０１号室）,00134296,21,201,5008289,,,,,,,2024-04-04,1,,,,,ペイントクラブ,0
1910,8210001019713,新規,0,2024-04-04,2024-04-04,株式会社ＭｅｄｉｃａｌＡｐｐ,,株式会社,福井県,福井市,順化１丁目１５番２９号２階,,18,201,9100023,,,,,,,2024-04-04,1,,,,,メディカルアップ,0
1912,8230001020289,新規,0,2024-04-04,2024-04-04,ネオサイエンス株式会社,,株式会社,富山県,富山市,池多１６０２番地１,,16,201,9300158,,,,,,,2024-04-04,1,,,,,ネオサイエンス,0
1914,8230003002178,新規,0,2024-04-04,2024-04-04,合同会社Ｃ,,合同会社,富山県,富山市,荒川３丁目１７４番地３,,16,201,9300982,,,,,,,2024-04-04,1,,,,,シー,0
1918,8240001063031,新規,0,2024-04-04,2024-04-04,株式会社ＮＩＣＨＥ,,株式会社,広島県,福山市,引野町５丁目９番３６号,,34,207,7210942,,,,,,,2024-04-04,1,,,,,ニッチ,0
1919,8240001063056,新規,0,2024-04-04,2024-04-04,堀田ガラス株式会社,,株式会社,広島県,呉市,阿賀南７丁目４番２号,,34,202,7370004,,,,,,,2024-04-04,1,,,,,ホッタガラス,0
1920,8240003006608,新規,0,2024-04-04,2024-04-04,合同会社ロードサポートエスオフ,,合同会社,広島県,尾道市,木ノ庄町畑８７３番地２,,34,205,7220231,,,,,,,2024-04-04,1,,,,,ロードサポートエスオフ,0
1923,8260001038915,新規,0,2024-04-04,2024-04-04,株式会社倉敷ツールカンパニー,,株式会社,岡山県,倉敷市,福田町古新田３７０番地３５,,33,202,7128046,,,,,,,2024-04-04,1,,,,,クラシキツールカンパニー,0
1924,8260001038923,新規,0,2024-04-04,2024-04-04,株式会社エストラット,,株式会社,岡山県,岡山市北区,新屋敷町１丁目６番９号,,33,101,7000986,,,,,,,2024-04-04,1,,,,,エストラット,0
1925,8260003004634,新規,0,2024-04-04,2024-04-04,合同会社Ｎ．Ｋ．ｃｏｍｐａｎｙ,,合同会社,岡山県,岡山市東区,金岡東町２丁目１９番１９号カーサ・デ・ラ武鎗３０２,,33,103,7048194,,,,,,,2024-04-04,1,,,,,エヌケーカンパニー,0
1927,8270005005588,新規,0,2024-04-04,2024-04-04,特定非営利活動法人倉北ユナイテッド,,その他の設立登記法人,鳥取県,倉吉市,福庭町１丁目１８０番地,,31,203,6820018,,,,,,,2024-04-04,1,,,,,クラキタユナイテッド,0
1937,8290801030465,新規,0,2024-04-04,2024-04-04,株式会社ヴェリティー,,株式会社,福岡県,遠賀郡遠賀町,大字上別府１０５６番地の４,,40,384,8114332,,,,,,,2024-04-04,1,,,,,ヴェリティー,0
1938,8290801030473,新規,0,2024-04-04,2024-04-04,株式会社黒志,,株式会社,福岡県,直方市,大字感田２６４２番地１ヴァンベール感田２０５号,,40,204,8220001,,,,,,,2024-04-04,1,,,,,コクシ,0
1939,8290803004673,新規,0,2024-04-04,2024-04-04,合同会社麻企画,,合同会社,福岡県,遠賀郡芦屋町,大字芦屋６６７番地１９,,40,381,8070133,,,,,,,2024-04-04,1,,,,,アサキカク,0
1940,8290805009729,新規,0,2024-04-04,2024-04-04,一般社団法人Ａｓｈｉｆｉｃ,,その他の設立登記法人,福岡県,遠賀郡芦屋町,幸町２番２０号,,40,381,8070101,,,,,,,2024-04-04,1,,,,,アシフィック,0
1941,8300003002096,新規,0,2024-04-04,2024-04-04,ニルマラ合同会社,,合同会社,佐賀県,鳥栖市,大正町７７８番地４,,41,203,8410032,,,,,,,2024-04-04,1,,,,,ニルマラ,0
1942,8310001018944,新規,0,2024-04-04,2024-04-04,株式会社アルファ,,株式会社,長崎県,長崎市,戸石町６８１番地１６２グランクレイラＳ棟１０１,,42,201,8510113,,,,,,,2024-04-04,1,,,,,アルファ,0
1944,8320003004330,新規,0,2024-04-04,2024-04-04,ウィーグッド合同会社,,合同会社,大分県,大分市,大字森１０８番地の１５,,44,201,8700128,,,,,,,2024-04-04,1,,,,,,0
1948,8330001031912,新規,0,2024-04-04,2024-04-04,株式会社アクウィー,,株式会社,熊本県,阿蘇郡南阿蘇村,大字河陽４７３２－８,,43,433,8691404,,,,,,,2024-04-04,1,,,,,アクウィー,0
1949,8330003010294,新規,0,2024-04-04,2024-04-04,合同会社ＧＯＮＴＯ,,合同会社,熊本県,菊池市,出田６４９番地３,,43,210,8611313,,,,,,,2024-04-04,1,,,,,,0
1952,8350001018874,新規,0,2024-04-04,2024-04-04,株式会社アクアサービス日南,,株式会社,宮崎県,日南市,木山３丁目９番１９号,,45,204,8870013,,,,,,,2024-04-04,1,,,,,,0
1957,8350003004609,新規,0,2024-04-04,2024-04-04,合同会社つばめの会,,合同会社,宮崎県,日向市,大字日知屋１６３２８番地１,,45,206,8830062,,,,,,,2024-04-04,1,,,,,ツバメノカイ,0
1958,8360001033443,新規,0,2024-04-04,2024-04-04,株式会社ＡＩＷＡ,,株式会社,沖縄県,うるま市,字西原４３８番地８,,47,213,9042204,,,,,,,2024-04-04,1,,,,,アイワ,0
1959,8360001033468,新規,0,2024-04-04,2024-04-04,株式会社琉球アクアファーム,,株式会社,沖縄県,国頭郡国頭村,字安田６２番地,,47,301,9051503,,,,,,,2024-04-04,1,,,,,リュウキュウアクアファーム,0
1960,8360003013856,新規,0,2024-04-04,2024-04-04,ＧＯＤＯＭ沖縄合同会社,,合同会社,沖縄県,那覇市,辻１丁目１６番９号サングリーンビル１階,00134295,47,201,9000037,,,,,,,2024-04-04,1,,,,,ゴーダムオキナワ,0
1961,8360003013872,新規,0,2024-04-04,2024-04-04,合同会社ＳＫＣ,,合同会社,沖縄県,中頭郡北谷町,字吉原７３０－１２－Ｂ,,47,326,9040105,,,,,,,2024-04-04,1,,,,,エスケーシー,0
1964,8370001051147,新規,0,2024-04-04,2024-04-04,株式会社松知特殊伐採,,株式会社,宮城県,登米市,米山町中津山字平２５番地,,04,212,9870331,,,,,,,2024-04-04,1,,,,,マツトモトクシュバッサイ,0
1965,8370001051155,新規,0,2024-04-04,2024-04-04,株式会社芳賀精肉店,,株式会社,宮城県,仙台市宮城野区,平成２丁目６番５６号,,04,102,9830037,,,,,,,2024-04-04,1,,,,,ハガセイニクテン,0
1968,8400005008404,新規,0,2024-04-04,2024-04-04,学校法人水沢学苑,,その他の設立登記法人,岩手県,奥州市,水沢字多賀２１番地２,,03,215,0230032,,,,,,,2024-04-04,1,,,,,ミズサワガクエン,0
1976,8430001091467,新規,0,2024-04-04,2024-04-04,株式会社紙彰,,株式会社,北海道,札幌市東区,本町二条９丁目２番１５－５０８号,,01,103,0650042,,,,,,,2024-04-04,1,,,,,カミショウ,0
1977,8430001091491,新規,0,2024-04-04,2024-04-04,株式会社アルティ不動産,,株式会社,北海道,札幌市北区,新琴似一条２丁目５番６号,,01,102,0010901,,,,,,,2024-04-04,1,,,,,アルティフドウサン,0
1978,8430001091525,新規,0,2024-04-04,2024-04-04,株式会社サンズ,,株式会社,北海道,札幌市中央区,南六条西８丁目３‐３シェトラーゼ２０６号室,,01,101,0640806,,,,,,,2024-04-04,1,,,,,サンズ,0
1980,8470001020109,新規,0,2024-04-04,2024-04-04,ＫＩＭ　ＶＵＯＮＧ株式会社,,株式会社,香川県,坂出市,本町２丁目１番２１号,,37,203,7620044,,,,,,,2024-04-04,1,,,,,キムヴォン,0
1981,8470003002617,新規,0,2024-04-04,2024-04-04,合同会社Ｌ．Ｉ．Ｃ,,合同会社,香川県,善通寺市,上吉田町４丁目９番３６号,,37,204,7650011,,,,,,,2024-04-04,1,,,,,エルアイシー,0
1982,8480001012435,新規,0,2024-04-04,2024-04-04,株式会社ｗｅｌｌｗｉｌｌ,,株式会社,徳島県,徳島市,南庄町３丁目１２番地６,,36,201,7700045,,,,,,,2024-04-04,1,,,,,ウェルウィル,0
1987,8700150124702,新規,0,2024-04-04,2024-04-04,ＡＩＣＨＩＬＡＮＫＡ　ＰＶＴ　ＬＴＤ,,外国会社等,千葉県,山武市,麻生新田８５番地５,,12,237,2891203,スリランカ民主社会主義共和国、キャンディ、アルッポラ、アルッポラマワタ０５、Ｎｏ．４３,,,,,,2024-04-04,1,,,,,アイチランカプライベートリミテツド,0
1991,9010001243613,新規,0,2024-04-04,2024-04-04,興亜商会株式会社,,株式会社,東京都,中央区,月島４丁目２１番６－２０２号,,13,102,1040052,,,,,,,2024-04-04,1,,,,,コウアショウカイ,0
1992,9010001243679,新規,0,2024-04-04,2024-04-04,株式会社３ＰｌｕｓＸ,,株式会社,東京都,千代田区,外神田２丁目１番１２号,,13,101,1010021,,,,,,,2024-04-04,1,,,,,サンプラスエックス,0
1995,9010003043359,新規,0,2024-04-04,2024-04-04,合同会社健康王国,,合同会社,東京都,中央区,晴海５丁目６－５ハルミフラッグパークビレッジＥ棟１３０２,,13,102,1040053,,,,,,,2024-04-04,1,,,,,ケンコウオウコク,0
1998,9010401181454,新規,0,2024-04-04,2024-04-04,ＥｃｈｏＸ株式会社,,株式会社,東京都,港区,虎ノ門３丁目８－２５近鉄虎ノ門ビル６階,,13,103,1050001,,,,,,,2024-04-04,1,,,,,エコーエックス,0
2000,9010403032317,新規,0,2024-04-04,2024-04-04,合同会社つばさラボ,,合同会社,東京都,港区,芝浦４丁目１３番１２－５０３号,,13,103,1080023,,,,,,,2024-04-04,1,,,,,ツバサラボ,0
2001,9010403032325,新規,0,2024-04-04,2024-04-04,合同会社ユークロニア,,合同会社,東京都,港区,南青山２丁目２番１５号,,13,103,1070062,,,,,,,2024-04-04,1,,,,,ユークロニア,0
2004,9010501052051,新規,0,2024-04-04,2024-04-04,株式会社とまり木製作所,,株式会社,東京都,台東区,浅草橋５丁目２０－６ＣＳタワーアネックス１０２豊田ミシン内,,13,106,1110053,,,,,,,2024-04-04,1,,,,,トマリギセイサクショ,0
2010,9010901055018,新規,0,2024-04-04,2024-04-04,株式会社ＫＩＸ,,株式会社,東京都,世田谷区,代沢３丁目１６番１５号,,13,112,1550032,,,,,,,2024-04-04,1,,,,,キクス,0
2012,9011001161020,新規,0,2024-04-04,2024-04-04,株式会社ＺＥＲＯ１,,株式会社,東京都,渋谷区,代々木４丁目３３番１０号トーシンビルＢ２,,13,113,1510053,,,,,,,2024-04-04,1,,,,,ゼロワン,0
2013,9011001161037,新規,0,2024-04-04,2024-04-04,株式会社ＬＺＫ,,株式会社,東京都,渋谷区,道玄坂１丁目１０番８号,,13,113,1500043,,,,,,,2024-04-04,1,,,,,エルゼットケー,0
2014,9011001161045,新規,0,2024-04-04,2024-04-04,株式会社ＲＰＪ,,株式会社,東京都,渋谷区,千駄ヶ谷４丁目９番７号,,13,113,1510051,,,,,,,2024-04-04,1,,,,,アールピージェイ,0
2015,9011001161094,新規,0,2024-04-04,2024-04-04,株式会社ＳＨ‐ＬＤＳ,,株式会社,東京都,渋谷区,桜丘町２３番１７号シティコート桜丘４０８,,13,113,1500031,,,,,,,2024-04-04,1,,,,,シールズ,0
2016,9011001161103,新規,0,2024-04-04,2024-04-04,株式会社ＪＯＷ,,株式会社,東京都,目黒区,中目黒４丁目９番９号,,13,110,1530061,,,,,,,2024-04-04,1,,,,,ジェイオーダブリュー,0
2017,9011001161136,新規,0,2024-04-04,2024-04-04,株式会社ｍｉｎ’ｓ,,株式会社,東京都,渋谷区,恵比寿３丁目３番１７号,,13,113,1500013,,,,,,,2024-04-04,1,,,,,ミンズ,0
2018,9011003018581,新規,0,2024-04-04,2024-04-04,合同会社オーシャンズ４,,合同会社,東京都,渋谷区,神宮前６丁目２３番４号桑野ビル２階,,13,113,1500001,,,,,,,2024-04-04,1,,,,,オーシャンズフォー,0
2019,9011003018854,新規,0,2024-04-04,2024-04-04,合同会社ＳｕｎＢｏ,,合同会社,東京都,目黒区,上目黒３丁目３９番９号パル中目黒２０３,,13,110,1530051,,,,,,,2024-04-04,1,,,,,サンボー,0
2020,9011003018862,新規,0,2024-04-04,2024-04-04,合同会社Ｗｏｒｋｓ,,合同会社,東京都,渋谷区,道玄坂１丁目１０番８号渋谷道玄坂東急ビル２Ｆ－Ｃ,,13,113,1500043,,,,,,,2024-04-04,1,,,,,ワークス,0
2023,9011101106734,新規,0,2024-04-04,2024-04-04,株式会社富士エジュケーション,,株式会社,東京都,新宿区,北新宿１丁目７番２１号,,13,104,1690074,,,,,,,2024-04-04,1,,,,,フジエジュケーション,0
2024,9011101106791,新規,0,2024-04-04,2024-04-04,株式会社ビルズ,,株式会社,東京都,新宿区,新宿５丁目１４－１２－６０７,,13,104,1600022,,,,,,,2024-04-04,1,,,,,ビルズ,0
2028,9011203004349,新規,0,2024-04-04,2024-04-04,合同会社ｙｕｚｕｔｏｒｅｍｏｎ,,合同会社,東京都,中野区,南台４丁目４７番８号コーポロングワン２０２,,13,114,1640014,,,,,,,2024-04-04,1,,,,,ユズトレモン,0
2035,9011705001827,新規,0,2024-04-04,2024-04-04,一般社団法人福祉環境サービス評価機構,,その他の設立登記法人,東京都,江戸川区,松江７丁目３１番２号,,13,123,1320025,,,,,,,2024-04-04,1,,,,,,0
2036,9012401041704,新規,0,2024-04-04,2024-04-04,株式会社ＢＥＭ,,株式会社,東京都,武蔵野市,吉祥寺南町２丁目２９番６号ＧＯＬＤ’ＳＡＰＡＲＴＭＥＮＴ２０１,,13,203,1800003,,,,,,,2024-04-04,1,,,,,ベム,0
2037,9012401041712,新規,0,2024-04-04,2024-04-04,株式会社ＭＩＤ,,株式会社,東京都,稲城市,東長沼８６９番地の３,,13,225,2060802,,,,,,,2024-04-04,1,,,,,エムアイディ,0
2040,9013303007074,新規,0,2024-04-04,2024-04-04,合同会社Ｍｅｄｉｔｃｈ,,合同会社,東京都,豊島区,雑司が谷２丁目８－２７,,13,116,1710032,,,,,,,2024-04-04,1,,,,,メディッチ,0
2048,9020001156500,新規,0,2024-04-04,2024-04-04,京浜興産株式会社,,株式会社,神奈川県,横浜市鶴見区,下末吉５丁目２９番１８号,,14,101,2300012,,,,,,,2024-04-04,1,,,,,ケイヒンコウサン,0
2049,9020001156657,新規,0,2024-04-04,2024-04-04,株式会社イーシー・アドバタイズ,,株式会社,神奈川県,横浜市西区,浅間町１丁目４番３号ウィザードビル４０２,,14,103,2200072,,,,,,,2024-04-04,1,,,,,イーシーアドバタイズ,0
2054,9020003025868,新規,0,2024-04-04,2024-04-04,ゆうらく合同会社,,合同会社,神奈川県,横浜市西区,北幸２丁目１０番４８号むつみビル３階,,14,103,2200004,,,,,,,2024-04-04,1,,,,,ユウラク,0
2055,9021001081861,新規,0,2024-04-04,2024-04-04,雅商会株式会社,,株式会社,神奈川県,相模原市緑区,青野原９９７番地,,14,151,2520161,,,,,,,2024-04-04,1,,,,,ミヤビショウカイ,0
2056,9021001081894,新規,0,2024-04-04,2024-04-04,株式会社Ｐｕｒａｎａ,,株式会社,神奈川県,相模原市緑区,東橋本２丁目１番１２号エヌズハウス東橋本１０２,,14,151,2520144,,,,,,,2024-04-04,1,,,,,プラーナ,0
2057,9030001159535,新規,0,2024-04-04,2024-04-04,株式会社ＹＵＮ,,株式会社,埼玉県,川口市,西川口１丁目２２－１仁志第二クイーンコーポ９０２,,11,203,3320021,,,,,,,2024-04-04,1,,,,,ワイユーエヌ,0
2058,9030001159551,新規,0,2024-04-04,2024-04-04,ＫＴＭサポート株式会社,,株式会社,埼玉県,さいたま市大宮区,天沼町１丁目２５６番地,,11,103,3300834,,,,,,,2024-04-04,1,,,,,ケィティエムサポート,0
2059,9030001159568,新規,0,2024-04-04,2024-04-04,株式会社ひだまり,,株式会社,埼玉県,川口市,並木３丁目９番１６－７０１号エクセレントシティ川口並木,,11,203,3320034,,,,,,,2024-04-04,1,,,,,ヒダマリ,0
2060,9030001159576,新規,0,2024-04-04,2024-04-04,株式会社村野工業,,株式会社,埼玉県,秩父郡小鹿野町,小鹿野６８９番地１,,11,365,3680105,,,,,,,2024-04-04,1,,,,,ムラノコウギョウ,0
2061,9030001159592,新規,0,2024-04-04,2024-04-04,株式会社古賀タイル,,株式会社,埼玉県,さいたま市緑区,大字大間木１６８７番地４,,11,109,3360923,,,,,,,2024-04-04,1,,,,,,0
2062,9030001159601,新規,0,2024-04-04,2024-04-04,株式会社コーティングウェスト,,株式会社,埼玉県,さいたま市見沼区,大字御蔵８４番地６,,11,104,3370033,,,,,,,2024-04-04,1,,,,,コーティングウェスト,0
2063,9030001159626,新規,0,2024-04-04,2024-04-04,株式会社メディアスタンド,,株式会社,埼玉県,上尾市,小泉６丁目３０番地１２,,11,219,3620063,,,,,,,2024-04-04,1,,,,,メディアスタンド,0
2064,9030003023961,新規,0,2024-04-04,2024-04-04,ＩＴヤナギダ合同会社,,合同会社,埼玉県,川口市,芝１丁目１６番２２号,,11,203,3330866,,,,,,,2024-04-04,1,,,,,アイティーヤナギダ,0
2065,9030003023986,新規,0,2024-04-04,2024-04-04,合同会社ＡＮＴ,,合同会社,埼玉県,川越市,脇田本町６－７グランセプトビル１Ｆ,,11,201,3501123,,,,,,,2024-04-04,1,,,,,エーエヌティー,0
2066,9040001132986,新規,0,2024-04-04,2024-04-04,株式会社ＮＯＭＡＤＯ,,株式会社,千葉県,いすみ市,岬町谷上１８２３番地,,12,238,2994507,,,,,,,2024-04-04,1,,,,,ノマド,0
2068,9040003024703,新規,0,2024-04-04,2024-04-04,ＬＥＯそふび坊や合同会社,,合同会社,千葉県,香取市,小見川１１６６番地５,,12,236,2890313,,,,,,,2024-04-04,1,,,,,レオソフビボウヤ,0
2077,9050003008234,新規,0,2024-04-04,2024-04-04,ヒランヤー合同会社,,合同会社,茨城県,筑西市,海老ヶ島字下内並木１２５４番２,,08,227,3004517,,,,,,,2024-04-04,1,,,,,ヒランヤー,0
2079,9060003005008,新規,0,2024-04-04,2024-04-04,アトリエテンソウ合同会社,,合同会社,栃木県,宇都宮市,兵庫塚３丁目１－４２,,09,201,3210138,,,,,,,2024-04-04,1,,,,,アトリエテンソウ,0
2080,9060003005016,新規,0,2024-04-04,2024-04-04,合同会社三真,,合同会社,栃木県,下野市,緑２丁目１３番地７,,09,216,3290433,,,,,,,2024-04-04,1,,,,,サンシン,0
2081,9070001041565,新規,0,2024-04-04,2024-04-04,株式会社電信和楽屋,,株式会社,群馬県,邑楽郡邑楽町,大字藤川３６６番地１,,10,525,3700605,,,,,,,2024-04-04,1,,,,,,0
2082,9070001041598,新規,0,2024-04-04,2024-04-04,株式会社Ｋｏｊｉｍｏ,,株式会社,群馬県,高崎市,下小鳥町１９４番地１エルシード３０２号,,10,202,3700074,,,,,,,2024-04-04,1,,,,,コジモ,0
2088,9070005010244,新規,0,2024-04-04,2024-04-04,税理士法人ＢｌｕｅＲｏｓｅｓ,,その他の設立登記法人,群馬県,前橋市,文京町３丁目３４番１号,,10,201,3710801,,,,,,,2024-04-04,1,,,,,ブルーローゼス,0
2089,9080001026227,新規,0,2024-04-04,2024-04-04,株式会社Ｗｉｔｈ　Ｈａｒｍｏｎｉｃｓ,,株式会社,静岡県,島田市,東町１２１２番地の１,,22,209,4270011,,,,,,,2024-04-04,1,,,,,ウィズハーモニクス,0
2093,9080105006414,新規,0,2024-04-04,2024-04-04,医療法人社団慈恕公徳会,,その他の設立登記法人,静岡県,富士市,広見本町２番４０号,,22,210,4170864,,,,,,,2024-04-04,1,,,,,,0
2098,9090003002539,新規,0,2024-04-04,2024-04-04,裕雅合同会社,,合同会社,山梨県,北杜市,高根町蔵原３２１５－４,,19,209,4080000,,,,,,,2024-04-04,1,,,,,ユウガ,0
2108,9120001263625,新規,0,2024-04-04,2024-04-04,株式会社安恩・明,,株式会社,大阪府,大阪市淀川区,西中島６丁目９番２０－７０３号,,27,123,5320011,,,,,,,2024-04-04,1,,,,,アンオンメイ,0
2109,9120001263682,新規,0,2024-04-04,2024-04-04,那＿株式会社,00134293,株式会社,大阪府,大阪市中央区,日本橋２丁目１－２６金悦マンション５０１号室,,27,128,5420073,,,,,,,2024-04-04,1,,,,,ナキ,0
2110,9120001263716,新規,0,2024-04-04,2024-04-04,Ｂａｎｄｅｓｈａ　Ｔｒａｄｉｎｇ株式会社,,株式会社,大阪府,大阪市浪速区,下寺２丁目６番１９－２Ｂ号,,27,111,5560001,,,,,,,2024-04-04,1,,,,,バンデシャトレーディング,0
2111,9120003026253,新規,0,2024-04-04,2024-04-04,合同会社Ｓｉｓｌｅｃａ,,合同会社,大阪府,大阪市北区,梅田１丁目１－３大阪駅前第３ビル２９階１－１－１号室,,27,127,5300001,,,,,,,2024-04-04,1,,,,,シスレカ,0
2112,9120003026286,新規,0,2024-04-04,2024-04-04,合同会社ヤト,,合同会社,大阪府,大阪市西区,本田４丁目６番２１－６０３号,,27,106,5500022,,,,,,,2024-04-04,1,,,,,ヤト,0
2113,9120003026294,新規,0,2024-04-04,2024-04-04,合同会社Ｌｅｇｎａ,,合同会社,大阪府,大阪市北区,天満１丁目１０番１５号ＬＩＨＩＴ１Ｆ,,27,127,5300043,,,,,,,2024-04-04,1,,,,,レグナ,0
2114,9120003026303,新規,0,2024-04-04,2024-04-04,リワンソフト合同会社,,合同会社,大阪府,大阪市中央区,南船場３丁目２番２２号おおきに南船場ビル２０５,,27,128,5420081,,,,,,,2024-04-04,1,,,,,リワンソフト,0
2118,9120101069360,新規,0,2024-04-04,2024-04-04,株式会社果樹,,株式会社,大阪府,堺市東区,高松３９５番地３,,27,143,5998121,,,,,,,2024-04-04,1,,,,,カジュ,0
2119,9120901048984,新規,0,2024-04-04,2024-04-04,株式会社ロスピン,,株式会社,大阪府,吹田市,南吹田４丁目６番１３号ハイツプリムローズ３０３,,27,205,5640043,,,,,,,2024-04-04,1,,,,,ロスピン,0
2120,9120901048992,新規,0,2024-04-04,2024-04-04,株式会社ＬＥＡ,,株式会社,大阪府,豊中市,岡町北３丁目１番５号,,27,203,5610884,,,,,,,2024-04-04,1,,,,,レア,0
2130,9130003009439,新規,0,2024-04-04,2024-04-04,合同会社マリアデルソル,,合同会社,京都府,京都市下京区,朱雀宝蔵町４４番地協栄ビル２階京都朱雀スタジオ,,26,106,6008846,,,,,,,2024-04-04,1,,,,,マリアデルソル,0
2131,9130005017051,新規,0,2024-04-04,2024-04-04,医療法人Ｓｈｉｎｓ,,その他の設立登記法人,京都府,長岡京市,花山３丁目４８番地２,,26,209,6170842,,,,,,,2024-04-04,1,,,,,シン,0
2134,9140001133909,新規,0,2024-04-04,2024-04-04,株式会社東神,,株式会社,兵庫県,神戸市東灘区,向洋町中５丁目６番地の１、３１５号,,28,101,6580032,,,,,,,2024-04-04,1,,,,,トウシン,0
2135,9140001133917,新規,0,2024-04-04,2024-04-04,株式会社ＳＯコーポレーション,,株式会社,兵庫県,尼崎市,名神町３丁目３番１３号,,28,202,6610021,,,,,,,2024-04-04,1,,,,,エスオーコーポレーション,0
2136,9140001133933,新規,0,2024-04-04,2024-04-04,Ｙｏｓａｇｅ　Ｐｒｏｊｅｃｔ株式会社,,株式会社,兵庫県,神戸市中央区,北長狭通４丁目２番１９号,,28,110,6500012,,,,,,,2024-04-04,1,,,,,ヨサゲプロジェクト,0
2137,9140005027025,新規,0,2024-04-04,2024-04-04,一般社団法人こっち,,その他の設立登記法人,兵庫県,明石市,大久保町松陰４４５番地の２１,,28,203,6740053,,,,,,,2024-04-04,1,,,,,コッチ,0
2141,9160001025807,新規,0,2024-04-04,2024-04-04,ａｉ・ｎｏｔｅ株式会社,,株式会社,滋賀県,大津市,今堅田２丁目３１番２２号,,25,201,5200241,,,,,,,2024-04-04,1,,,,,アイノテ,0
2142,9160003003158,新規,0,2024-04-04,2024-04-04,Ａｋａｌａ合同会社,,合同会社,滋賀県,湖南市,サイドタウン１丁目１１番２１号,,25,211,5203244,,,,,,,2024-04-04,1,,,,,アカラ,0
2145,9180001160783,新規,0,2024-04-04,2024-04-04,株式会社Ｓｅｖｅｎ’ｓ　Ｃｒｅａｔｉｖｅ,,株式会社,愛知県,海部郡蟹江町,城３丁目４８０番地第１井上マンション１Ｆ,,23,425,4970040,,,,,,,2024-04-04,1,,,,,セブンスクリエイティブ,0
2146,9180001160916,新規,0,2024-04-04,2024-04-04,岩田通信工業株式会社,,株式会社,愛知県,知多郡東浦町,大字石浜字午池４５番地７,,23,442,4702103,,,,,,,2024-04-04,1,,,,,イワタツウシンコウギョウ,0
2151,9180305009561,新規,0,2024-04-04,2024-04-04,一般社団法人みよし市カヌー協会,,その他の設立登記法人,愛知県,みよし市,三好町東山２０９番地１,,23,236,4700224,,,,,,,2024-04-04,1,,,,,ミヨシシカヌーキョウカイ,0
2152,9190001031232,新規,0,2024-04-04,2024-04-04,株式会社プロケア,,株式会社,三重県,四日市市,天カ須賀４丁目７番２８号,,24,202,5108001,,,,,,,2024-04-04,1,,,,,プロケア,0
2154,9190003004632,新規,0,2024-04-04,2024-04-04,合同会社三重企画,,合同会社,三重県,津市,白山町川口４７２５番地２２,,24,201,5152603,,,,,,,2024-04-04,1,,,,,ミエキカク,0
2161,9230003002177,新規,0,2024-04-04,2024-04-04,Ｅｍｏｔｉｖｅ　Ｐｒｏｍｏｔｉｏｎ合同会社,,合同会社,富山県,高岡市,野村５５４番地１,,16,202,9330014,,,,,,,2024-04-04,1,,,,,,0
2162,9230005009377,新規,0,2024-04-04,2024-04-04,一般社団法人富山県漁業者協会,,その他の設立登記法人,富山県,下新川郡入善町,高畠３８１番地,,16,342,9390666,,,,,,,2024-04-04,1,,,,,トヤマケンギョギョウシャキョウカイ,0
2167,9250003003470,新規,0,2024-04-04,2024-04-04,合同会社トヨタ通運,,合同会社,山口県,周南市,大字久米３２７番地の２０,,35,215,7450801,,,,,,,2024-04-04,1,,,,,トヨタツウウン,0
2172,9260001038906,新規,0,2024-04-04,2024-04-04,株式会社アンレース,,株式会社,岡山県,真庭市,下方１２６７番地２,,33,214,7193155,,,,,,,2024-04-04,1,,,,,アンレース,0
2173,9260001038930,新規,0,2024-04-04,2024-04-04,株式会社エイル,,株式会社,岡山県,岡山市北区,下石井１丁目１番１号アーバンオフィスビル,,33,101,7000907,,,,,,,2024-04-04,1,,,,,エイル,0
2174,9260001038947,新規,0,2024-04-04,2024-04-04,株式会社つやまＮＳファーム,,株式会社,岡山県,津山市,加茂町小中原４４番地,,33,203,7093906,,,,,,,2024-04-04,1,,,,,ツヤマエヌエスファーム,0
2175,9270003001613,新規,0,2024-04-04,2024-04-04,ＬＯＡＦ合同会社,,合同会社,鳥取県,西伯郡日吉津村,大字今吉４１２,,31,384,6893551,,,,,,,2024-04-04,1,,,,,ローフ,0
2176,9290005019338,新規,0,2024-04-04,2024-04-04,特定非営利活動法人源流の森づくり,,その他の設立登記法人,福岡県,朝倉郡東峰村,大字小石原１００８番地２０,,40,448,8381601,,,,,,,2024-04-04,1,,,,,,0
2177,9290801030448,新規,0,2024-04-04,2024-04-04,株式会社トーレスト,,株式会社,福岡県,田川市,大字川宮５３４－３,,40,206,8260042,,,,,,,2024-04-04,1,,,,,トーレスト,0
2178,9290801030456,新規,0,2024-04-04,2024-04-04,株式会社ＮＥＸＴ　ＵＰ,,株式会社,福岡県,北九州市若松区,白山２丁目６番１１号,,40,103,8080035,,,,,,,2024-04-04,1,,,,,ネクストアップ,0
2179,9290801030472,新規,0,2024-04-04,2024-04-04,株式会社ＯＲＨ,,株式会社,福岡県,北九州市小倉南区,北方３丁目６番９号,,40,107,8020841,,,,,,,2024-04-04,1,,,,,オーアールエイチ,0
2181,9290803004672,新規,0,2024-04-04,2024-04-04,合同会社こどもいろ,,合同会社,福岡県,北九州市若松区,高須西２丁目１番３６号,,40,103,8080146,,,,,,,2024-04-04,1,,,,,コドモイロ,0
2182,9290803004680,新規,0,2024-04-04,2024-04-04,白虹合同会社,,合同会社,福岡県,北九州市小倉北区,黄金１丁目２番１５－１４０７号,,40,106,8020071,,,,,,,2024-04-04,1,,,,,ハッコウ,0
2183,9300001013680,新規,0,2024-04-04,2024-04-04,株式会社リペア,,株式会社,佐賀県,三養基郡上峰町,大字前牟田１７９６番地２,,41,345,8490122,,,,,,,2024-04-04,1,,,,,リペア,0
2184,9310003004768,新規,0,2024-04-04,2024-04-04,ＲＥＩコーポレーション合同会社,,合同会社,長崎県,長崎市,籠町８番３５号１０１,,42,201,8500905,,,,,,,2024-04-04,1,,,,,レイコーポレーション,0
2186,9330001031903,新規,0,2024-04-04,2024-04-04,ライフコンタクト株式会社,,株式会社,熊本県,八代市,岡町小路９０３番地,,43,202,8694611,,,,,,,2024-04-04,1,,,,,ライフコンタクト,0
2187,9330001031928,新規,0,2024-04-04,2024-04-04,株式会社ＬＩＦＥ,,株式会社,熊本県,熊本市中央区,新屋敷２丁目１９番３１号,,43,101,8620975,,,,,,,2024-04-04,1,,,,,ライフ,0
2190,9340001026415,新規,0,2024-04-04,2024-04-04,株式会社Ｍｕｔ,,株式会社,鹿児島県,鹿児島市,東谷山４丁目１４番１５－２号,,46,201,8910113,,,,,,,2024-04-04,1,,,,,エムユーティー,0
2195,9360003013863,新規,0,2024-04-04,2024-04-04,合同会社五光,,合同会社,沖縄県,沖縄市,海邦２丁目２７番８号幸地貸事務所１Ｆ,,47,211,9042162,,,,,,,2024-04-04,1,,,,,ゴコウ,0
2196,9360005007013,新規,0,2024-04-04,2024-04-04,一般社団法人みらいらいん,,その他の設立登記法人,沖縄県,那覇市,繁多川４丁目８番２７号プライムハイツ２０１,,47,201,9020071,,,,,,,2024-04-04,1,,,,,ミライライン,0
2197,9370001051162,新規,0,2024-04-04,2024-04-04,蔵王アシスト株式会社,,株式会社,宮城県,刈田郡蔵王町,遠刈田温泉字小妻坂５３番地６９,,04,301,9890916,,,,,,,2024-04-04,1,,,,,ザオウアシスト,0
2203,9400005008403,新規,0,2024-04-04,2024-04-04,特定非営利活動法人さくらの杜プロジェクト陸前高田,,その他の設立登記法人,岩手県,陸前高田市,米崎町字和方１１番地,,03,210,0292206,,,,,,,2024-04-04,1,,,,,サクラノモリプロジェクトリクゼンタカタ,0
2210,9430001091458,新規,0,2024-04-04,2024-04-04,株式会社クレイホープ,,株式会社,北海道,札幌市北区,北三十八条西８丁目１番１９－３０１号,,01,102,0010038,,,,,,,2024-04-04,1,,,,,クレイホープ,0
2211,9430001091490,新規,0,2024-04-04,2024-04-04,株式会社ククル,,株式会社,北海道,石狩郡当別町,太美町１５００番地７３,,01,303,0613776,,,,,,,2024-04-04,1,,,,,ククル,0
2212,9430005014951,新規,0,2024-04-04,2024-04-04,一般社団法人北海道インタービジョン協会,,その他の設立登記法人,北海道,北広島市,大曲光４丁目４番地１４,,01,234,0611277,,,,,,,2024-04-04,1,,,,,ホッカイドウインタービジョンキョウカイ,0
2213,9450001014268,新規,0,2024-04-04,2024-04-04,株式会社令和設備工業,,株式会社,北海道,稚内市,朝日５丁目１０番１３号,,01,214,0970015,,,,,,,2024-04-04,1,,,,,レイワセツビコウギョウ,0
2217,9470003002616,新規,0,2024-04-04,2024-04-04,合同会社東神チャージ,,合同会社,香川県,さぬき市,鴨庄８８８番地６,,37,206,7692102,,,,,,,2024-04-04,1,,,,,トウシンチャージ,0
