sequenceNumber,corporateNumber,process,correct,updateDate,changeDate,name,nameImageId,kind,prefectureName,cityName,streetNumber,addressImageId,prefectureCode,cityCode,postCode,addressOutside,addressOutsideImageId,closeDate,closeCause,successorCorporateNumber,changeCause,assignmentDate,latest,enName,enPrefectureName,enCityName,enAddressOutside,furigana,hihyoji
33,1010403015741,登記記録の閉鎖等,0,2022-06-03,2022-05-02,合同会社ｂｒｉｇｈｔｇｏｄ,,合同会社,千葉県,柏市,高柳１丁目１番地１,,12,217,2770941,,,2022-05-02,合併による解散等,7040003009607,令和４年５月１日千葉県柏市高柳１４８８番地１合同会社ｂｒｉｇｈｔ（7040003009607）に合併し解散,2016-12-12,1,,,,,ブライトゴッド,0
46,1010703005649,登記記録の閉鎖等,0,2022-06-03,2022-05-18,サンライズ合同会社,,合同会社,東京都,港区,浜松町２丁目２番１５号浜松町ダイヤビル２Ｆ,,13,103,1050013,,,2022-05-18,清算の結了等,,,2021-03-02,1,,,,,サンライズ,0
50,1010901029796,登記記録の閉鎖等,0,2022-06-03,2022-05-30,株式会社ジーノ,,株式会社,東京都,世田谷区,上北沢４丁目１２番８号,,13,112,1560057,,,2022-05-30,清算の結了等,,,2015-10-05,1,,,,,ジーノ,0
63,1011101065707,登記記録の閉鎖等,0,2022-06-03,2022-05-16,株式会社第一書林,,株式会社,東京都,新宿区,西新宿２丁目４番１号,,13,104,1600023,,,2022-05-16,合併による解散等,4180001046442,令和４年５月１日愛知県名古屋市名東区上社三丁目８０１番地ポールトゥウィン株式会社（4180001046442）に合併し解散,2015-10-05,1,,,,,ダイイチショリン,0
64,1011101090382,登記記録の閉鎖等,0,2022-06-03,2022-05-16,ＰＴＷジャパン株式会社,,株式会社,東京都,新宿区,西新宿２丁目４番１号,,13,104,1600023,,,2022-05-16,合併による解散等,2013301025670,令和４年５月１日東京都豊島区南大塚二丁目３７番５号エンタライズ株式会社（2013301025670）に合併し解散,2020-02-17,1,"PTW Japan Co., Ltd.",Tokyo,"2-4-1, Nishi-Shinjuku, Shinjuku ku",,ピーティーダブリュージャパン,0
68,1011201003954,登記記録の閉鎖等,0,2022-06-03,2022-05-31,中野溶接株式会社,,株式会社,東京都,中野区,中野４丁目１４番９号,,13,114,1640001,,,2022-05-31,合併による解散等,6011801018356,令和４年５月２６日東京都足立区千住五丁目２８番１号株式会社熊谷軌道（6011801018356）に合併し解散,2015-10-05,1,,,,,ナカノヨウセツ,0
72,1011402000940,登記記録の閉鎖等,0,2022-06-03,2022-05-31,有限会社伊藤電気工事,,有限会社,東京都,板橋区,泉町２６番２号,,13,119,1740055,,,2022-05-31,清算の結了等,,,2015-10-05,1,,,,,イトウデンキコウジ,0
73,1011601004585,登記記録の閉鎖等,0,2022-06-03,2022-06-01,株式会社東京ビジネスサービス,,株式会社,東京都,練馬区,南田中５丁目１０番１６号,,13,120,1770035,,,2022-06-01,清算の結了等,,,2015-10-05,1,,,,,トウキョウビジネスサービス,0
105,1021002034727,登記記録の閉鎖等,0,2022-06-03,2022-05-31,有限会社大谷産業,,有限会社,神奈川県,伊勢原市,岡崎７０３６番地の２,,14,214,2591135,,,2022-05-31,清算の結了等,,,2015-10-05,1,,,,,オオタニサンギョウ,0
147,1070002017704,登記記録の閉鎖等,0,2022-06-03,2022-05-26,有限会社藤岡遊技場,,有限会社,群馬県,藤岡市,藤岡６３１番地１６,,10,209,3750024,,,2022-05-26,清算の結了等,,,2015-10-05,1,,,,,フジオカユウギジョウ,0
168,1110005013852,登記記録の閉鎖等,0,2022-06-03,2022-05-31,農事組合法人　ファーム宮野下,,その他の設立登記法人,新潟県,南魚沼市,宮野下１９８番地,,15,226,9496365,,,2022-05-31,清算の結了等,,,2015-10-05,1,,,,,ファームミヤノシタ,0
173,1120001031568,登記記録の閉鎖等,0,2022-06-03,2022-06-01,福岡工業株式会社,,株式会社,大阪府,大阪市住之江区,東加賀屋２丁目４番１２号,,27,125,5590012,,,2022-06-01,清算の結了等,,,2015-10-05,1,,,,,フクオカコウギョウ,0
175,1120001052151,登記記録の閉鎖等,0,2022-06-03,2022-06-02,株式会社セリテック,,株式会社,大阪府,大阪市東淀川区,豊里４丁目５番２１号ハイツサンコー２１２号,,27,114,5330013,,,2022-06-02,清算の結了等,,,2015-10-05,1,,,,,セリテック,0
209,1120101028209,登記記録の閉鎖等,0,2022-06-03,2022-06-01,株式会社恒和,,株式会社,大阪府,堺市堺区,北旅籠町東１丁１番８号,,27,141,5900923,,,2022-06-01,清算の結了等,,,2015-10-05,1,,,,,コウワ,0
217,1120105007282,登記記録の閉鎖等,0,2022-06-03,2022-05-31,医療法人福森歯科,,その他の設立登記法人,大阪府,阪南市,尾崎町１０６番地の１,,27,232,5990201,,,2022-05-31,清算の結了等,,,2015-10-05,1,,,,,フクモリシカ,0
218,1120105007670,登記記録の閉鎖等,0,2022-06-03,2022-06-01,特定非営利活動法人ほのか,,その他の設立登記法人,大阪府,堺市西区,浜寺南町１丁７５７番地３,,27,144,5928344,,,2022-06-01,清算の結了等,,,2015-10-05,1,,,,,ホノカ,0
232,1140001033876,登記記録の閉鎖等,0,2022-06-03,2022-06-01,株式会社シード,,株式会社,大阪府,大阪市平野区,瓜破２丁目２番６号,,27,126,5470024,,,2022-06-01,合併による解散等,1120002006115,令和４年６月１日大阪市平野区加美鞍作三丁目１１番８号株式会社プラザワン（1120002006115）に合併し解散,2015-10-05,1,,,,,シード,0
253,1180003016446,登記記録の閉鎖等,0,2022-06-03,2022-05-31,合同会社ｌｅｆｔ,,合同会社,愛知県,名古屋市中区,栄３丁目１５番２７号いちご栄ビル９階,,23,106,4600008,,,2022-05-31,清算の結了等,,,2015-10-05,1,,,,,レフト,0
262,1190001023212,登記記録の閉鎖等,0,2022-06-03,2022-05-30,株式会社紀伊国際開発,,株式会社,三重県,津市,白山町上ノ村４８番地９５,,24,201,5152623,,,2022-05-30,清算の結了等,,,2015-11-20,1,,,,,キイコクサイカイハツ,0
277,1240002021085,登記記録の閉鎖等,0,2022-06-03,2022-06-01,有限会社ドリームマスター,,有限会社,広島県,広島市西区,三滝本町１丁目３４－１３,,34,104,7330802,,,2022-06-01,清算の結了等,,,2015-10-05,1,,,,,ドリームマスター,0
293,1290001050832,登記記録の閉鎖等,0,2022-06-03,2022-05-31,株式会社ラグレス・ＬＵＸＲＥＳ,,株式会社,佐賀県,佐賀市,川副町鹿江２２１番地５,,41,201,8490000,,,2022-05-31,清算の結了等,,,2015-10-05,1,,,,,ラグレス,0
317,1320005009409,登記記録の閉鎖等,0,2022-06-03,2022-05-31,一般財団法人情報経営管理機構,,その他の設立登記法人,佐賀県,佐賀市,川副町鹿江６７０番地８,,41,201,8490000,,,2022-05-31,清算の結了等,,,2016-08-08,1,,,,,ジョウホウケイエイカンリキコウ,0
327,1340002000104,登記記録の閉鎖等,0,2022-06-03,2022-06-01,有限会社高口工業建設,,有限会社,鹿児島県,鹿児島市,牟礼岡１丁目１５番３号,,46,201,8911306,,,2022-06-01,清算の結了等,,,2015-10-05,1,,,,,コウグチコウギョウケンセツ,0
358,1450005000610,登記記録の閉鎖等,0,2022-06-03,2022-06-02,農事組合法人稲荷晨明農園,,その他の設立登記法人,北海道,上川郡東神楽町,南１３号左支線奥１９番地,,01,453,0711570,,,2022-06-02,清算の結了等,,,2015-10-05,1,,,,,イナリシンメイノウエン,0
390,2010003025504,登記記録の閉鎖等,0,2022-06-03,2022-05-26,ＨＫＲＪ　Ｈａｌｕｗａ　ＭＬ合同会社,,合同会社,東京都,千代田区,平河町１丁目６番１５号シルスフィア会計事務所内,,13,101,1020093,,,2022-05-26,清算の結了等,,,2017-06-20,1,,,,,エイチケーアールジェイハルーワエムエル,0
432,2011201017144,登記記録の閉鎖等,0,2022-06-03,2022-05-26,米持技建株式会社,,株式会社,東京都,中野区,中野３丁目５０番１４号,,13,114,1640001,,,2022-05-26,清算の結了等,,,2015-10-05,1,,,,,ヨネモチギケン,0
437,2011302006418,登記記録の閉鎖等,0,2022-06-03,2022-06-01,有限会社冨岡,,有限会社,東京都,杉並区,今川３丁目３番４－１０２号,,13,115,1670035,,,2022-06-01,清算の結了等,,,2015-10-05,1,,,,,トミオカ,0
439,2011501020806,登記記録の閉鎖等,0,2022-06-03,2022-05-30,株式会社ファインヴィラ,,株式会社,東京都,北区,西ケ原１丁目２６番２－７０２号,,13,117,1140024,,,2022-05-30,清算の結了等,,,2015-10-05,1,,,,,ファインビラ,0
450,2012802005792,登記記録の閉鎖等,0,2022-06-03,2022-05-31,有限会社住まいの三貴,,有限会社,東京都,東大和市,芋窪４丁目１４２３番地３,,13,220,2070033,,,2022-05-31,清算の結了等,,,2015-10-05,1,,,,,スマイノミキ,0
463,2020001128241,登記記録の閉鎖等,0,2022-06-03,2022-05-30,ジェネクスト保険サービス株式会社,,株式会社,神奈川県,横浜市港北区,新横浜３丁目１８番３号,,14,109,2220033,,,2022-05-30,清算の結了等,,,2018-10-05,1,,,,,ジェネクストホケンサービス,0
470,2021001068056,登記記録の閉鎖等,0,2022-06-03,2022-05-30,株式会社ｅｉｇｈｔ,,株式会社,神奈川県,藤沢市,南藤沢３番４号,,14,205,2510055,,,2022-05-30,清算の結了等,,,2019-08-30,1,,,,,エイト,0
505,2080001007654,登記記録の閉鎖等,0,2022-06-03,2022-05-31,イハラレンタリース株式会社,,株式会社,静岡県,静岡市清水区,八坂東２丁目１５番２５号,,22,103,4240024,,,2022-05-31,清算の結了等,,,2015-10-05,1,,,,,イハラレンタリース,0
506,2080002000658,登記記録の閉鎖等,0,2022-06-03,2022-05-26,有限会社岩崎恭三商店,,有限会社,静岡県,静岡市葵区,平和１丁目３番５４号,,22,101,4200876,,,2022-05-26,清算の結了等,,,2015-10-05,1,,,,,イワサキキョウゾウショウテン,0
507,2080002001185,登記記録の閉鎖等,0,2022-06-03,2022-06-02,大浜精工有限会社,,有限会社,静岡県,静岡市駿河区,登呂２丁目６番３２号,,22,102,4228033,,,2022-06-02,清算の結了等,,,2015-10-05,1,,,,,オオハマセイコウ,0
516,2080405000445,登記記録の閉鎖等,0,2022-06-03,2022-05-27,静岡県西部生コン販売事業協同組合,,その他の設立登記法人,静岡県,浜松市東区,薬師町３４６番地,,22,132,4350017,,,2022-05-27,清算の結了等,,,2015-10-05,1,,,,,シズオカケンセイブナマコンハンバイ,0
535,2120001236653,登記記録の閉鎖等,0,2022-06-03,2022-05-30,株式会社日本会計ビジネス研究所,,株式会社,大阪府,大阪市阿倍野区,松崎町２丁目６番２－１１０２号,,27,119,5450053,,,2022-05-30,清算の結了等,,,2021-04-12,1,,,,,ニホンカイケイビジネスケンキュウショ,0
582,2160002005260,登記記録の閉鎖等,0,2022-06-03,2022-06-01,有限会社芳川商店,,有限会社,滋賀県,湖南市,北山台４丁目３番地１５,,25,211,5203241,,,2022-06-01,清算の結了等,,,2015-10-05,1,,,,,ヨシカワショウテン,0
595,2180005002575,登記記録の閉鎖等,0,2022-06-03,2022-05-11,医療法人千代田,,その他の設立登記法人,愛知県,名古屋市守山区,大森八龍２丁目１０１６番地,,23,113,4630028,,,2022-05-11,合併による解散等,6180005002720,令和４年５月１１日名古屋市千種区今池南２５番５号医療法人和伸会（6180005002720）に合併し解散,2015-10-05,1,,,,,チヨダ,0
653,2320005009671,登記記録の閉鎖等,0,2022-06-03,2022-06-01,社会保険労務士法人シャローム・サトー事務所,,その他の設立登記法人,大分県,大分市,千代町１丁目３番２２号,,44,201,8700033,,,2022-06-01,清算の結了等,,,2019-04-09,1,,,,,シャロームサトージムショ,0
696,3010001208332,登記記録の閉鎖等,0,2022-06-03,2022-05-26,株式会社Ｍｉｋｏｔｏ　Ｊａｐａｎ,,株式会社,東京都,千代田区,永田町２丁目１１－１山王パークタワー３階,,13,101,1000014,,,2022-05-26,清算の結了等,,,2020-03-19,1,,,,,ミコトジャパン,0
716,3010401156775,登記記録の閉鎖等,0,2022-06-03,2022-05-18,ＧＡＭＥＭＡＴＣＨ株式会社,,株式会社,東京都,港区,赤坂８丁目４－１４青山タワープレイス８Ｆ,,13,103,1070052,,,2022-05-18,清算の結了等,,,2020-12-01,1,,,,,ゲームマッチ,0
717,3010403021242,登記記録の閉鎖等,0,2022-06-03,2022-05-17,合同会社ポータル,,合同会社,東京都,港区,芝大門２丁目４番５号芝ダイヤハイツ９０８,,13,103,1050012,,,2022-05-17,清算の結了等,,,2019-08-07,1,,,,,ポータル,0
724,3010501031119,登記記録の閉鎖等,0,2022-06-03,2022-06-01,宇部野田生コン株式会社,,株式会社,東京都,台東区,上野７丁目１２番１３号,,13,106,1100005,,,2022-06-01,合併による解散等,1010501003400,令和４年６月１日東京都台東区上野七丁目１２番１３号株式会社協和（1010501003400）に合併し解散,2015-10-05,1,,,,,ウベノダナマコン,0
726,3010501041357,登記記録の閉鎖等,0,2022-06-03,2022-06-01,株式会社愛住ランド,,株式会社,東京都,台東区,池之端２丁目１番３５－３３０７号ルネッサンスタワー上野池之端,,13,106,1100008,,,2022-06-01,合併による解散等,3010501001600,令和４年６月１日東京都台東区上野一丁目１８番１０号株式会社愛住設計（3010501001600）に合併し解散,2017-07-25,1,,,,,アイスミランド,0
753,3011105005970,登記記録の閉鎖等,0,2022-06-03,2022-05-31,一般社団法人ＦＳ協会,,その他の設立登記法人,東京都,新宿区,新宿６丁目２７番４８号,,13,104,1600022,,,2022-05-31,清算の結了等,,,2015-10-05,1,,,,,エフエスキョウカイ,0
756,3011301024386,登記記録の閉鎖等,0,2022-06-03,2022-05-30,株式会社オーバーウォッチフィルムズ,,株式会社,東京都,杉並区,和泉２丁目８番４号,,13,115,1680063,,,2022-05-30,清算の結了等,,,2018-08-13,1,,,,,オーバーウォッチフィルムズ,0
760,3011605000430,登記記録の閉鎖等,0,2022-06-03,2022-05-31,医療法人社団雄伸会,,その他の設立登記法人,東京都,練馬区,大泉学園町５丁目１８番１９号,,13,120,1780061,,,2022-05-31,清算の結了等,,,2015-10-05,1,,,,,ユウシンカイ,0
767,3012403001604,登記記録の閉鎖等,0,2022-06-03,2022-06-01,合同会社理賀,,合同会社,東京都,国立市,西２丁目８番地の２８理賀コーポ２０３,,13,215,1860005,,,2022-06-01,清算の結了等,,,2015-10-05,1,,,,,リガ,0
785,3020002041599,登記記録の閉鎖等,0,2022-06-03,2022-05-31,有限会社エバーグリーンシンデイケート,,有限会社,神奈川県,横浜市中区,山下町１４２番地,,14,104,2310023,,,2022-05-31,清算の結了等,,,2015-10-05,1,,,,,エバーグリーンシンデイケート,0
793,3021002035723,登記記録の閉鎖等,0,2022-06-03,2022-05-27,ワイケイインターナショナルマシナリ有限会社,,有限会社,神奈川県,厚木市,鳶尾４丁目１９番５号,,14,212,2430204,,,2022-05-27,清算の結了等,,,2015-10-05,1,,,,,ワイケイインターナショナルマシナリ,0
809,3040002008877,登記記録の閉鎖等,0,2022-06-03,2022-05-31,有限会社日晃,,有限会社,千葉県,千葉市稲毛区,小仲台７丁目８番２８－９０２号,,12,103,2630043,,,2022-05-31,清算の結了等,,,2015-10-05,1,,,,,ニッコウ,0
866,3120102004099,登記記録の閉鎖等,0,2022-06-03,2022-06-02,有限会社福田工業,,有限会社,大阪府,堺市西区,浜寺南町２丁１４０番地１１,,27,144,5928344,,,2022-06-02,清算の結了等,,,2015-10-05,1,,,,,フクダコウギョウ,0
876,3130005009228,登記記録の閉鎖等,0,2022-06-03,2022-06-01,特定非営利活動法人七田チャイルドアカデミー働く外国人家庭のこどもたちを支援する会,,その他の設立登記法人,京都府,城陽市,寺田垣内後２番地の３,,26,207,6100121,,,2022-06-01,清算の結了等,,,2015-10-05,1,,,,,シチダチャイルドアカデミーハタラクガイコクジンカテイノコドモタチヲシエンスルカイ,0
881,3140005023046,登記記録の閉鎖等,0,2022-06-03,2022-06-01,特定非営利活動法人アートゆるり,,その他の設立登記法人,兵庫県,神戸市灘区,土山町１４番３号,,28,102,6570022,,,2022-06-01,清算の結了等,,,2016-07-19,1,,,,,アートユルリ,0
884,3150001019443,登記記録の閉鎖等,0,2022-06-03,2022-05-31,株式会社Ａｄａｇｉｏ,,株式会社,神奈川県,横浜市西区,平沼２丁目４番２２号,,14,103,2200023,,,2022-05-31,清算の結了等,,,2015-10-05,1,,,,,アダージョ,0
890,3180001019250,登記記録の閉鎖等,0,2022-06-03,2022-05-31,株式会社河正螺子製作所,,株式会社,愛知県,名古屋市中川区,八神町１丁目２９番地,,23,110,4540041,,,2022-05-31,清算の結了等,,,2015-10-05,1,,,,,カワショウラシセイサクショ,0
898,3180001144676,登記記録の閉鎖等,0,2022-06-03,2022-05-31,イヴォーク出版株式会社,,株式会社,愛知県,名古屋市西区,中小田井４丁目４３８番地,,23,104,4520822,,,2022-05-31,清算の結了等,,,2021-02-08,1,,,,,イヴォークシュッパン,0
921,3220002009675,登記記録の閉鎖等,0,2022-06-03,2022-06-01,有限会社アベール,,有限会社,石川県,金沢市,粟崎町５丁目２４番地１,,17,201,9200226,,,2022-06-01,合併による解散等,7220001003774,令和４年６月１日石川県金沢市問屋町三丁目１７番地株式会社ソテック（7220001003774）に合併し解散,2015-10-05,1,,,,,アベール,0
936,3260001019928,登記記録の閉鎖等,0,2022-06-03,2022-06-01,株式会社タダカン,,株式会社,岡山県,津山市,一方３３５番地の１,,33,203,7080883,,,2022-06-01,合併による解散等,6260001019768,令和４年６月１日岡山県津山市上之町３５番地山陽熱工業株式会社（6260001019768）に合併し解散,2015-10-05,1,,,,,タダカン,0
953,3300005004649,登記記録の閉鎖等,0,2022-06-03,2022-05-12,光道寺,,その他の設立登記法人,佐賀県,鳥栖市,儀徳町字浦田３２７４番地４,,41,203,8410066,,,2022-05-12,合併による解散等,2290005000163,令和４年５月９日福岡市博多区山王一丁目１１番１１号光薫寺（2290005000163）に合併し解散,2015-10-05,1,,,,,,0
998,3430003001890,登記記録の閉鎖等,0,2022-06-03,2022-05-27,合同会社ＹＫ企画,,合同会社,北海道,札幌市北区,新琴似十一条９丁目９番２号,,01,102,0010911,,,2022-05-27,清算の結了等,,,2015-10-05,1,,,,,ワイケイキカク,0
1004,3470002010377,登記記録の閉鎖等,0,2022-06-03,2022-05-31,有限会社Ｃ２・アクティブ,,有限会社,香川県,高松市,元山町１１８２番地１,,37,201,7610311,,,2022-05-31,清算の結了等,,,2015-10-05,1,,,,,,0
1015,4010001004227,登記記録の閉鎖等,0,2022-06-03,2022-05-25,ゼネラル企業株式会社,,株式会社,東京都,文京区,千石４丁目４４番９号,,13,105,1120011,,,2022-05-25,清算の結了等,,,2015-10-05,1,,,,,ゼネラルキギョウ,0
1018,4010001052770,登記記録の閉鎖等,0,2022-06-03,2022-05-26,中島オールプリシジョン株式会社,,株式会社,東京都,中央区,日本橋箱崎町２５番７号,,13,102,1030015,,,2022-05-26,清算の結了等,,,2015-10-05,1,,,,,ナカジマオールプリシジョン,0
1033,4010401121217,登記記録の閉鎖等,0,2022-06-03,2022-06-01,株式会社ビーグル,,株式会社,東京都,千代田区,霞が関３丁目２番５号,,13,101,1000013,,,2022-06-01,合併による解散等,2010401140540,令和４年６月１日東京都千代田区霞が関三丁目２番５号株式会社レイズ（2010401140540）に合併し解散,2015-10-27,1,,,,,ビーグル,0
1041,4010405017824,登記記録の閉鎖等,0,2022-06-03,2022-05-17,ブルーホールディングス４一般社団法人,,その他の設立登記法人,東京都,港区,虎ノ門３丁目２２番１０－２０１号,,13,103,1050001,,,2022-05-17,清算の結了等,,,2019-07-01,1,,,,,ブルーホールディングスフォー,0
1059,4011005007868,登記記録の閉鎖等,0,2022-06-03,2022-05-19,一般社団法人日本デート協会,,その他の設立登記法人,東京都,渋谷区,渋谷１丁目７番５号青山セブンハイツ９０３,,13,113,1500002,,,2022-05-19,清算の結了等,,,2018-10-18,1,,,,,ニホンデートキョウカイ,0
1066,4011201003828,登記記録の閉鎖等,0,2022-06-03,2022-05-24,東和建設株式会社,,株式会社,東京都,中野区,本町４丁目２１番１９号,,13,114,1640012,,,2022-05-24,清算の結了等,,,2015-10-05,1,,,,,トウワケンセツ,0
1078,4011501022841,登記記録の閉鎖等,0,2022-06-03,2022-05-31,株式会社ベル．セレモニー,,株式会社,東京都,板橋区,大山金井町５４番１５－４０２号,,13,119,1730024,,,2022-05-31,清算の結了等,,,2017-07-12,1,,,,,ベルセレモニー,0
1098,4020001042135,登記記録の閉鎖等,0,2022-06-03,2022-05-30,株式会社オートサプライジャパン,,株式会社,神奈川県,横浜市中区,太田町６丁目８６番地,,14,104,2310011,,,2022-05-30,清算の結了等,,,2015-10-05,1,,,,,オートサプライジャパン,0
1104,4020003009322,登記記録の閉鎖等,0,2022-06-03,2022-05-31,合同会社岩井制巧舎,,合同会社,神奈川県,横浜市栄区,笠間５丁目１６番１２号,,14,115,2470006,,,2022-05-31,清算の結了等,,,2015-10-05,1,,,,,イワイセイコウシャ,0
1131,4050002042940,登記記録の閉鎖等,0,2022-06-03,2022-05-26,有限会社下条製作所,,有限会社,茨城県,筑西市,八幡１３２番地,,08,227,3091112,,,2022-05-26,清算の結了等,,,2015-10-05,1,,,,,シモジョウセイサクジョ,0
1139,4070002032997,登記記録の閉鎖等,0,2022-06-03,2022-05-26,有限会社アイイーシステム,,有限会社,群馬県,邑楽郡板倉町,大字板倉２９２５番地の１,,10,521,3740132,,,2022-05-26,清算の結了等,,,2015-10-05,1,,,,,アイイーシステム,0
1142,4080002004954,登記記録の閉鎖等,0,2022-06-03,2022-06-02,富士見真空有限会社,,有限会社,静岡県,静岡市駿河区,豊田２丁目５番２８号,,22,102,4228027,,,2022-06-02,清算の結了等,,,2015-10-05,1,,,,,フジミシンクウ,0
1144,4080005006808,登記記録の閉鎖等,0,2022-06-03,2022-06-01,税理士法人鈴木総合会計事務所,,その他の設立登記法人,静岡県,静岡市葵区,上土１丁目１７番４号,,22,101,4200810,,,2022-06-01,清算の結了等,,,2015-10-05,1,,,,,スズキソウゴウカイケイジムショ,0
1160,4100002006270,登記記録の閉鎖等,0,2022-06-03,2022-06-01,有限会社高橋住建,00118463,有限会社,長野県,長野市,豊野町蟹沢２６００番地１,,20,201,3891103,,,2022-06-01,清算の結了等,,,2015-10-05,1,,,,,タカハシジュウケン,0
1161,4100002020775,登記記録の閉鎖等,0,2022-06-03,2022-06-01,有限会社つた源,,有限会社,長野県,松本市,大手４丁目１１番６号,,20,202,3900874,,,2022-06-01,清算の結了等,,,2015-10-05,1,,,,,ツタゲン,0
1185,4120005011893,登記記録の閉鎖等,0,2022-06-03,2022-06-02,一般社団法人やわらぎ,,その他の設立登記法人,大阪府,大阪市北区,芝田１丁目１２番７号,,27,127,5300012,,,2022-06-02,清算の結了等,,,2015-10-05,1,,,,,ヤワラギ,0
1187,4120101053294,登記記録の閉鎖等,0,2022-06-03,2022-06-01,阪神商会株式会社,,株式会社,大阪府,大阪狭山市,東野東２丁目４６１番地の４,,27,231,5890003,,,2022-06-01,清算の結了等,,,2015-10-05,1,,,,,ハンシンショウカイ,0
1216,4170001012123,登記記録の閉鎖等,0,2022-06-03,2022-06-02,株式会社清水ケアプラン,,株式会社,和歌山県,有田郡有田川町,大字清水１８９２番地２,,30,366,6430521,,,2022-06-02,清算の結了等,,,2015-10-05,1,,,,,シミズケアプラン,0
1219,4180001047820,登記記録の閉鎖等,0,2022-06-03,2022-05-31,株式会社近藤タイプ,,株式会社,愛知県,名古屋市瑞穂区,姫宮町１丁目４７番地１第二新瑞ビル１０１号,,23,108,4670834,,,2022-05-31,清算の結了等,,,2015-10-05,1,,,,,コンドウタイプ,0
1222,4180001075557,登記記録の閉鎖等,0,2022-06-03,2022-05-30,株式会社イトウ電機,,株式会社,愛知県,小牧市,大字河内屋新田８８番地の１３,,23,219,4850085,,,2022-05-30,清算の結了等,,,2015-10-05,1,,,,,イトウデンキ,0
1232,4180002053974,登記記録の閉鎖等,0,2022-06-03,2022-05-31,吉田商事株式会社,,株式会社,愛知県,名古屋市中区,錦２丁目６番１０号,,23,106,4600003,,,2022-05-31,合併による解散等,4180001041773,令和４年５月３１日名古屋市中区錦二丁目６番１０号株式会社ライヴ（4180001041773）に合併し解散,2015-10-05,1,,,,,ヨシダショウジ,0
1233,4180005006376,登記記録の閉鎖等,0,2022-06-03,2022-05-31,特定非営利活動法人国際技術文化交流センター,,その他の設立登記法人,愛知県,名古屋市中区,丸の内３丁目１５－３,,23,106,4600002,,,2022-05-31,清算の結了等,,,2015-10-05,1,,,,,コクサイギジュツブンカコウリュウセンター,0
1234,4180005017605,登記記録の閉鎖等,0,2022-06-03,2022-06-01,一般社団法人フィット,,その他の設立登記法人,愛知県,知多郡美浜町,大字布土字中平井１９８番地,,23,446,4702401,,,2022-06-01,清算の結了等,,,2017-12-20,1,,,,,フィット,0
1236,4180301015007,登記記録の閉鎖等,0,2022-06-03,2022-05-31,安全興業株式会社,,株式会社,愛知県,碧南市,須磨町１番地２３,,23,209,4470854,,,2022-05-31,清算の結了等,,,2015-10-05,1,,,,,アンゼンコウギョウ,0
1251,4210001008950,登記記録の閉鎖等,0,2022-06-03,2022-05-31,株式会社ジャイロテック,,株式会社,福井県,福井市,毛矢３丁目２番４号,,18,201,9188003,,,2022-05-31,清算の結了等,,,2015-10-05,1,,,,,ジャイロテック,0
1255,4230001001540,登記記録の閉鎖等,0,2022-06-03,2022-05-31,大洋不動産株式会社,,株式会社,富山県,富山市,中央通り２丁目２番２０号,,16,201,9300044,,,2022-05-31,清算の結了等,,,2015-10-05,1,,,,,タイヨウフドウサン,0
1269,4250001011810,登記記録の閉鎖等,0,2022-06-03,2022-06-01,株式会社福本工務店,,株式会社,山口県,岩国市,美和町田ノ口４１９番地,,35,208,7401222,,,2022-06-01,清算の結了等,,,2015-10-05,1,,,,,フクモトコウムテン,0
1289,4290801007426,登記記録の閉鎖等,0,2022-06-03,2022-06-02,株式会社フォトスタジオｅｓｔ,,株式会社,福岡県,北九州市小倉北区,木町３丁目１番２２号,,40,106,8030851,,,2022-06-02,清算の結了等,,,2015-10-05,1,,,,,,0
1297,4320001001440,登記記録の閉鎖等,0,2022-06-03,2022-06-01,株式会社シャローム,,株式会社,大分県,大分市,千代町１丁目３番２２号,,44,201,8700033,,,2022-06-01,清算の結了等,,,2015-10-05,1,,,,,シャローム,0
1298,4320001002190,登記記録の閉鎖等,0,2022-06-03,2022-06-01,株式会社西日本新聞広告社大分,,株式会社,大分県,大分市,都町１丁目１番２３号,,44,201,8700034,,,2022-06-01,清算の結了等,,,2015-10-05,1,,,,,ニシニホンシンブンコウコクシャオオイタ,0
1329,4400001008709,登記記録の閉鎖等,0,2022-06-03,2022-06-02,株式会社ランウェイ,,株式会社,岩手県,花巻市,星が丘１丁目２０番１３号,,03,205,0250065,,,2022-06-02,清算の結了等,,,2015-10-05,1,,,,,ランウェイ,0
1345,4430003009322,登記記録の閉鎖等,0,2022-06-03,2022-05-02,合同会社テンロン,,合同会社,北海道,札幌市北区,北七条西１丁目１番１１バームハイツ２０６号,,01,102,0600807,,,2022-05-02,合併による解散等,9430001071988,令和４年５月１日札幌市北区北七条西二丁目６番地３７山京ビル６１８号ブライトネス株式会社（9430001071988）に合併し解散,2018-04-25,1,,,,,テンロン,0
1364,5010001054907,登記記録の閉鎖等,0,2022-06-03,2022-05-30,株式会社美光システムワークス,,株式会社,東京都,北区,滝野川１丁目６０番５号ミナトヤビル１Ｆ,,13,117,1140023,,,2022-05-30,清算の結了等,,,2015-10-05,1,,,,,ビコウシステムワークス,0
1408,5011003006598,登記記録の閉鎖等,0,2022-06-03,2022-05-18,合同会社Ｓｙｎｏｎｙｍ,,合同会社,東京都,渋谷区,幡ヶ谷３丁目３９番１２号渋谷ウェストビル１階,,13,113,1510072,,,2022-05-18,清算の結了等,,,2016-02-24,1,,,,,シノニム,0
1420,5011402005754,登記記録の閉鎖等,0,2022-06-03,2022-05-30,有限会社立原プレス工業所,,有限会社,埼玉県,坂戸市,芦山町２８番地１,,11,239,3500273,,,2022-05-30,清算の結了等,,,2015-10-05,1,,,,,タチハラプレスコウギョウショ,0
1426,5011605001294,登記記録の閉鎖等,0,2022-06-03,2022-06-01,特定非営利活動法人グローバル・カルチャー・センター,,その他の設立登記法人,東京都,練馬区,春日町４丁目３５番２４号,,13,120,1790074,,,2022-06-01,清算の結了等,,,2015-10-05,1,,,,,グローバルカルチャーセンター,0
1439,5012405002482,登記記録の閉鎖等,0,2022-06-03,2022-05-24,一般社団法人美術と地域をつくる会,,その他の設立登記法人,東京都,三鷹市,上連雀２丁目１５番１８号,,13,204,1810012,,,2022-05-24,清算の結了等,,,2015-10-05,1,,,,,ビジュツトチイキヲツクルカイ,0
1448,5020001109619,登記記録の閉鎖等,0,2022-06-03,2022-05-31,株式会社ダイバーシンク,,株式会社,神奈川県,横浜市港北区,新横浜３丁目１番１号,,14,109,2220033,,,2022-05-31,清算の結了等,,,2015-10-05,1,,,,,ダイバーシンク,0
1454,5020003014040,登記記録の閉鎖等,0,2022-06-03,2022-05-12,合同会社Ｎ＆Ｒ,,合同会社,神奈川県,横浜市神奈川区,六角橋５丁目３４番１８－２号,,14,102,2210802,,,2022-05-12,合併による解散等,9021003006560,令和４年４月３０日相模原市南区下溝５０８番地３６合同会社エリーセブン（9021003006560）に合併し解散,2018-03-14,1,,,,,エヌアンドアール,0
1485,5040005003452,登記記録の閉鎖等,0,2022-06-03,2022-05-12,天理教伊豆九分教会,,その他の設立登記法人,千葉県,八千代市,八千代台北１２丁目３２番９号,,12,221,2760031,,,2022-05-12,合併による解散等,6040005003451,令和４年５月１２日千葉県八千代市勝田台四丁目３２番地の６天理教伊豆一分教会（6040005003451）に合併し解散,2015-10-05,1,,,,,テンリキョウイズキュウブンキョウカイ,0
1491,5050002035274,登記記録の閉鎖等,0,2022-06-03,2022-05-27,ユニアート建設有限会社,,有限会社,茨城県,常陸太田市,岩手町６７３番地,,08,212,3130112,,,2022-05-27,清算の結了等,,,2015-10-05,1,,,,,ユニアートケンセツ,0
1502,5080101000333,登記記録の閉鎖等,0,2022-06-03,2022-06-01,大林開発株式会社,,株式会社,静岡県,沼津市,大諏訪８８５番地,,22,203,4100873,,,2022-06-01,合併による解散等,4080101000400,令和４年６月１日静岡県沼津市大諏訪８８５番地株式会社加藤工務店（4080101000400）に合併し解散,2015-10-05,1,,,,,オオバヤシカイハツ,0
1551,5120101038344,登記記録の閉鎖等,0,2022-06-03,2022-06-02,株式会社二色の浜マイカーランド,,株式会社,大阪府,岸和田市,大手町６番９号,,27,202,5960063,,,2022-06-02,清算の結了等,,,2015-10-05,1,,,,,,0
1555,5120901042917,登記記録の閉鎖等,0,2022-06-03,2022-05-09,ＧＬＡＭ．Ｒ株式会社,,株式会社,大阪府,吹田市,江坂町２丁目１０番５号,,27,205,5640063,,,2022-05-09,合併による解散等,6020001111094,令和４年４月１日横浜市港北区新横浜一丁目１４－２０Ｔ．Ｈ．Ｉ．Ｒ株式会社（6020001111094）に合併し解散,2020-07-10,1,,,,,グラムアール,0
1584,5180002022607,登記記録の閉鎖等,0,2022-06-03,2022-05-31,有限会社足立商店,,有限会社,愛知県,名古屋市西区,江向町４丁目６２番地,,23,104,4510013,,,2022-05-31,清算の結了等,,,2015-10-05,1,,,,,アダチショウテン,0
1596,5190002002178,登記記録の閉鎖等,0,2022-06-03,2022-05-30,有限会社堀山金型,,有限会社,三重県,津市,一志町片野２９１番地の２,,24,201,5152511,,,2022-05-30,清算の結了等,,,2015-10-05,1,,,,,ホリヤマカナガタ,0
1609,5240002010638,登記記録の閉鎖等,0,2022-06-03,2022-06-01,有限会社つるかめ屋,,有限会社,広島県,広島市安佐北区,可部５丁目１番５号,,34,106,7310221,,,2022-06-01,清算の結了等,,,2015-10-05,1,,,,,ツルカメヤ,0
1613,5250002019182,登記記録の閉鎖等,0,2022-06-03,2022-05-31,有限会社瀬戸内海産,,有限会社,山口県,岩国市,玖珂町５１４１番地２０,,35,208,7420344,,,2022-05-31,清算の結了等,,,2015-10-05,1,,,,,セトウチカイサン,0
1615,5260001019653,登記記録の閉鎖等,0,2022-06-03,2022-06-01,株式会社カンテツ,,株式会社,岡山県,津山市,市場２２９８番地の１,,33,203,7081206,,,2022-06-01,合併による解散等,6260001019768,令和４年６月１日岡山県津山市上之町３５番地山陽熱工業株式会社（6260001019768）に合併し解散,2015-10-05,1,,,,,カンテツ,0
1616,5260001020025,登記記録の閉鎖等,0,2022-06-03,2022-06-01,ツチダ電工株式会社,,株式会社,岡山県,勝田郡勝央町,植月北９７１番地２,,33,622,7094331,,,2022-06-01,合併による解散等,6260001019768,令和４年６月１日岡山県津山市上之町３５番地山陽熱工業株式会社（6260001019768）に合併し解散,2015-10-05,1,,,,,ツチダデンコウ,0
1623,5290001051629,登記記録の閉鎖等,0,2022-06-03,2022-05-02,株式会社梅の花ｐｌｕｓ,,株式会社,福岡県,久留米市,天神町１４６番地,,40,203,8300033,,,2022-05-02,合併による解散等,6290001051974,令和４年５月１日福岡県久留米市天神町１４６番地株式会社古市庵プラス（6290001051974）に合併し解散,2015-10-05,1,,,,,ウメノハナプラス,0
1624,5290001058896,登記記録の閉鎖等,0,2022-06-03,2022-05-31,サンコーテクノ株式会社,,株式会社,福岡県,春日市,松ヶ丘６丁目３８番地,,40,218,8160843,,,2022-05-31,清算の結了等,,,2015-10-05,1,,,,,サンコーテクノ,0
1639,5290805008163,登記記録の閉鎖等,0,2022-06-03,2022-05-31,一般社団法人相続・贈与相談センター北九州,,その他の設立登記法人,福岡県,北九州市戸畑区,中原新町３番３号,,40,105,8040003,,,2022-05-31,清算の結了等,,,2015-10-05,1,,,,,ソウゾクゾウヨソウダンセンターキタキュウシュウ,0
1683,5462502000476,登記記録の閉鎖等,0,2022-06-03,2022-05-27,株式会社トータルラインパック津山,,株式会社,北海道,目梨郡羅臼町,知昭町４２９番地,,01,694,0861836,,,2022-05-27,清算の結了等,,,2015-10-05,1,,,,,,0
1706,6010001206787,登記記録の閉鎖等,0,2022-06-03,2022-05-27,株式会社ＳＣソリューションズ,,株式会社,東京都,中央区,日本橋茅場町１丁目６番１７号十字屋ビル７階,,13,102,1030025,,,2022-05-27,清算の結了等,,,2020-01-20,1,,,,,エスシーソリューションズ,0
1707,6010001208016,登記記録の閉鎖等,0,2022-06-03,2022-05-25,株式会社ＣＡＴ,,株式会社,東京都,千代田区,神田佐久間町１丁目１６番１号大橋ビル６０１,,13,101,1010025,,,2022-05-25,清算の結了等,,,2020-03-06,1,,,,,キャット,0
1735,6010601054974,登記記録の閉鎖等,0,2022-06-03,2022-04-22,株式会社ベルルミエール企画,,株式会社,東京都,江東区,豊洲５丁目６番２９号,,13,108,1350061,,,2022-04-22,清算の結了等,,,2019-01-31,1,,,,,ベルルミエールキカク,0
1782,6020002083457,登記記録の閉鎖等,0,2022-06-03,2022-05-31,有限会社荻野商事,,有限会社,神奈川県,川崎市中原区,新丸子町９１１番地,,14,133,2110005,,,2022-05-31,清算の結了等,,,2015-10-05,1,,,,,オギノショウジ,0
1797,6030001123535,登記記録の閉鎖等,0,2022-06-03,2022-05-13,株式会社ＲＪ,,株式会社,東京都,千代田区,外神田２丁目１４番１０号,,13,101,1010021,,,2022-05-13,合併による解散等,4010001018053,令和４年５月１日東京都千代田区外神田二丁目１４番１０号株式会社サードウェーブ（4010001018053）に合併し解散,2017-12-20,1,,,,,アールジェイ,0
1811,6050002008023,登記記録の閉鎖等,0,2022-06-03,2022-05-30,有限会社アタラリペア,,有限会社,茨城県,ひたちなか市,後野２丁目１番地１,,08,221,3120014,,,2022-05-30,清算の結了等,,,2015-10-05,1,,,,,アタラリペア,0
1817,6070001015241,登記記録の閉鎖等,0,2022-06-03,2022-05-30,株式会社ＳＫＳ,,株式会社,群馬県,伊勢崎市,下植木町５９６番地３,,10,204,3720024,,,2022-05-30,清算の結了等,,,2015-10-05,1,,,,,エスケーエス,0
1824,6080401006491,登記記録の閉鎖等,0,2022-06-03,2022-05-31,株式会社エコテイスト,,株式会社,静岡県,浜松市東区,篠ケ瀬町９８４番地,,22,132,4350042,,,2022-05-31,清算の結了等,,,2015-10-05,1,,,,,エコテイスト,0
1856,6120105007518,登記記録の閉鎖等,0,2022-06-03,2022-06-01,ＮＰＯ法人いるか,,その他の設立登記法人,大阪府,阪南市,下出７５番地,,27,232,5990202,,,2022-06-01,清算の結了等,,,2015-10-05,1,,,,,イルカ,0
1866,6130002016595,登記記録の閉鎖等,0,2022-06-03,2022-05-31,有限会社杉下印染工場,,有限会社,京都府,京都市中京区,油小路通三条下る三条油小路町１５９番地,,26,104,6048251,,,2022-05-31,清算の結了等,,,2015-10-05,1,,,,,スギシタインセンコウジョウ,0
1897,6180302014369,登記記録の閉鎖等,0,2022-06-03,2022-05-26,有限会社松浦機械設計,,有限会社,愛知県,豊川市,明野町４丁目１８番地,,23,207,4420887,,,2022-05-26,清算の結了等,,,2015-10-05,1,,,,,マツウラキカイセッケイ,0
1915,6220002006736,登記記録の閉鎖等,0,2022-06-03,2022-06-01,有限会社舩本建築,,有限会社,石川県,野々市市,本町１丁目２７番１号,,17,212,9218815,,,2022-06-01,清算の結了等,,,2015-10-05,1,,,,,フナモトケンチク,0
1930,6240002021980,登記記録の閉鎖等,0,2022-06-03,2022-06-01,有限会社西尾表装,,有限会社,広島県,広島市西区,南観音町１番１４号,,34,104,7330034,,,2022-06-01,清算の結了等,,,2015-10-05,1,,,,,ニシオヒョウソウ,0
1935,6260001019628,登記記録の閉鎖等,0,2022-06-03,2022-06-01,開発精機株式会社,,株式会社,岡山県,津山市,一方３３０番地の１,,33,203,7080883,,,2022-06-01,合併による解散等,6260001019768,令和４年６月１日岡山県津山市上之町３５番地山陽熱工業株式会社（6260001019768）に合併し解散,2015-10-05,1,,,,,カイハツセイキ,0
1963,6320001010803,登記記録の閉鎖等,0,2022-06-03,2022-06-01,株式会社スオウ,,株式会社,大分県,中津市,大字永添２２６６番地５,,44,203,8710162,,,2022-06-01,清算の結了等,,,2015-10-05,1,,,,,スオウ,0
2030,7010401067119,登記記録の閉鎖等,0,2022-06-03,2022-05-18,株式会社ビホウ,,株式会社,東京都,港区,浜松町２丁目４番１号,,13,103,1050013,,,2022-05-18,清算の結了等,,,2015-10-05,1,,,,,ビホウ,0
2044,7010501045247,登記記録の閉鎖等,0,2022-06-03,2022-05-26,株式会社ＵＮＥＬＩ,,株式会社,東京都,中央区,東日本橋３丁目１０－９備広東日本橋ビルＩＩ２階,00119195,13,102,1030004,,,2022-05-26,清算の結了等,,,2020-02-04,1,,,,,ウネリ,0
2046,7010502003848,登記記録の閉鎖等,0,2022-06-03,2022-06-02,有限会社寿家,,有限会社,東京都,台東区,千束４丁目３１番４号,,13,106,1110031,,,2022-06-02,清算の結了等,,,2015-10-05,1,,,,,,0
2049,7010603009133,登記記録の閉鎖等,0,2022-06-03,2022-05-30,合同会社ときわ企画,,合同会社,東京都,江東区,常盤１丁目１０番１２号,,13,108,1350006,,,2022-05-30,清算の結了等,,,2021-09-02,1,,,,,トキワキカク,0
2057,7010901006170,登記記録の閉鎖等,0,2022-06-03,2022-05-31,スノブプラニングボード株式会社,,株式会社,東京都,世田谷区,太子堂５丁目２５番７－４０５号,,13,112,1540004,,,2022-05-31,清算の結了等,,,2015-10-05,1,,,,,スノブプラニングボード,0
2074,7011005006529,登記記録の閉鎖等,0,2022-06-03,2022-05-18,一般社団法人お金の専門家協会,,その他の設立登記法人,東京都,目黒区,三田２丁目４番１７号,,13,110,1530062,,,2022-05-18,清算の結了等,,,2015-10-28,1,,,,,オカネノセンモンカキョウカイ,0
2100,7011801024320,登記記録の閉鎖等,0,2022-06-03,2022-05-30,株式会社ＢＬＵＥ　ＯＣＥＡＮ　ＳＰＯＲＴＳ,,株式会社,東京都,足立区,竹の塚５丁目１７番８号東光ビル３階,,13,121,1210813,,,2022-05-30,清算の結了等,,,2015-10-05,1,,,,,,0
2117,7020002049770,登記記録の閉鎖等,0,2022-06-03,2022-05-31,有限会社守工業所,,有限会社,神奈川県,横浜市西区,藤棚町２丁目１９７番地,,14,103,2200053,,,2022-05-31,清算の結了等,,,2015-10-05,1,,,,,モリコウギョウショ,0
2119,7020003012686,登記記録の閉鎖等,0,2022-06-03,2022-05-31,合同会社おもてなし,,合同会社,神奈川県,横浜市神奈川区,新子安２丁目１４番１４－７０９号,,14,102,2210013,,,2022-05-31,清算の結了等,,,2017-05-09,1,,,,,オモテナシ,0
2120,7021001041413,登記記録の閉鎖等,0,2022-06-03,2022-05-31,株式会社ミカド,,株式会社,神奈川県,横須賀市,三春町３丁目２５番地,,14,201,2380014,,,2022-05-31,清算の結了等,,,2015-10-05,1,,,,,ミカド,0
2135,7040005007369,登記記録の閉鎖等,0,2022-06-03,2022-05-12,天理教伊豆千葉分教会,,その他の設立登記法人,千葉県,佐倉市,西志津８丁目１３番９号,,12,212,2850845,,,2022-05-12,合併による解散等,6040005003451,令和４年５月１２日千葉県八千代市勝田台四丁目３２番地の６天理教伊豆一分教会（6040005003451）に合併し解散,2015-10-05,1,,,,,テンリキョウイズチバブンキョウカイ,0
2162,7100002028584,登記記録の閉鎖等,0,2022-06-03,2022-06-01,有限会社東洋技研,,有限会社,長野県,諏訪市,大字中洲２８６５番地７,,20,206,3920015,,,2022-06-01,清算の結了等,,,2015-10-05,1,,,,,トウヨウギケン,0
2188,7120002072366,登記記録の閉鎖等,0,2022-06-03,2022-06-01,有限会社三泰,,有限会社,大阪府,寝屋川市,早子町２３番２－１１１号,,27,215,5720837,,,2022-06-01,合併による解散等,2120001148106,令和４年６月１日大阪府寝屋川市東大利町２番１９号泰斗興産株式会社（2120001148106）に合併し解散,2015-10-05,1,,,,,サンタイ,0
2198,7120102012817,登記記録の閉鎖等,0,2022-06-03,2022-06-02,有限会社フットリフォーム,,有限会社,大阪府,堺市堺区,綾之町東１丁３番３９号,,27,141,5900925,,,2022-06-02,清算の結了等,,,2015-10-05,1,,,,,フットリフォーム,0
2210,7130001048069,登記記録の閉鎖等,0,2022-06-03,2022-06-01,株式会社ナイトランタン,,株式会社,大阪府,枚方市,大垣内町２丁目１７番８号,,27,210,5730027,,,2022-06-01,合併による解散等,1130001045022,令和４年６月１日大阪府枚方市大垣内町二丁目１７番８号株式会社ヒナプロジェクト（1130001045022）に合併し解散,2015-10-05,1,,,,,ナイトランタン,0
2274,7250003001641,登記記録の閉鎖等,0,2022-06-03,2022-05-31,合同会社やまぐちエナジー,,合同会社,山口県,山口市,佐山４２８１番地２,,35,203,7540894,,,2022-05-31,清算の結了等,,,2015-10-05,1,,,,,ヤマグチエナジー,0
2278,7260002022027,登記記録の閉鎖等,0,2022-06-03,2022-06-01,有限会社ヨシハラ,,有限会社,岡山県,倉敷市,児島味野５丁目６番１９号,,33,202,7110913,,,2022-06-01,清算の結了等,,,2015-10-05,1,,,,,ヨシハラ,0
2282,7270002008982,登記記録の閉鎖等,0,2022-06-03,2022-05-27,有限会社美樹,,有限会社,鳥取県,境港市,新屋町１２５１番地１,,31,204,6840051,,,2022-05-27,清算の結了等,,,2015-10-05,1,,,,,ミキ,0
2307,7320001007484,登記記録の閉鎖等,0,2022-06-03,2022-05-31,ミナミテックス大分株式会社,,株式会社,大分県,大分市,西ノ州１番地,,44,201,8700100,,,2022-05-31,清算の結了等,,,2015-10-05,1,,,,,ミナミテックスオオイタ,0
2312,7340001009859,登記記録の閉鎖等,0,2022-06-03,2022-06-01,株式会社稲留建設,,株式会社,鹿児島県,熊毛郡屋久島町,宮之浦２７７番地２６,,46,505,8914205,,,2022-06-01,清算の結了等,,,2015-10-05,1,,,,,イナトメケンセツ,0
2316,7340002023677,登記記録の閉鎖等,0,2022-06-03,2022-05-31,有限会社マルイ商店,,有限会社,鹿児島県,南さつま市,加世田本町４３番地８,,46,220,8970006,,,2022-05-31,清算の結了等,,,2015-10-05,1,,,,,マルイショウテン,0
2360,7490005003249,登記記録の閉鎖等,0,2022-06-03,2022-04-11,天理教高成分教会,,その他の設立登記法人,高知県,高岡郡佐川町,庄田４１６番地１,,39,402,7891216,,,2022-04-11,合併による解散等,8490005003339,令和４年４月１１日高知県吾川郡仁淀川町土居甲７０４番地２天理教池川分教会（8490005003339）に合併し解散,2015-10-05,1,,,,,テンリキョウタカナルブンキョウカイ,0
2365,8010001052767,登記記録の閉鎖等,0,2022-06-03,2022-05-26,中島オール株式会社,,株式会社,東京都,中央区,日本橋箱崎町２５番７号,,13,102,1030015,,,2022-05-26,清算の結了等,,,2015-10-05,1,,,,,ナカジマオール,0
2378,8010401060873,登記記録の閉鎖等,0,2022-06-03,2022-05-09,株式会社バンダイナムコライツマーケティング,,株式会社,東京都,千代田区,神田鍛冶町３丁目５番地２,,13,101,1010045,,,2022-05-09,合併による解散等,9011301002956,令和４年４月１日東京都渋谷区恵比寿一丁目１８番１４号株式会社バンダイナムコフィルムワークス（9011301002956）に合併し解散,2015-10-05,1,,,,,,0
2381,8010401141533,登記記録の閉鎖等,0,2022-06-03,2022-05-31,株式会社太田商事,,株式会社,埼玉県,戸田市,下前１丁目１３－１８－４０２室,,11,224,3350016,,,2022-05-31,清算の結了等,,,2018-10-17,1,,,,,オオタショウジ,0
2384,8010403023663,登記記録の閉鎖等,0,2022-06-03,2022-05-18,合同会社フライドポテトだいすき,,合同会社,東京都,港区,浜松町２丁目２－１５浜松町ダイヤビル２Ｆ,,13,103,1050013,,,2022-05-18,清算の結了等,,,2020-09-07,1,,,,,フライドポテトダイスキ,0
2387,8010501011297,登記記録の閉鎖等,0,2022-06-03,2022-05-31,株式会社大栄,,株式会社,東京都,台東区,西浅草３丁目２９番１０号,,13,106,1110035,,,2022-05-31,清算の結了等,,,2015-10-05,1,,,,,ダイエイ,0
2390,8010501038217,登記記録の閉鎖等,0,2022-06-03,2022-06-02,株式会社ＲＯＤＥＭ　Ｅ＆Ｃ,,株式会社,東京都,台東区,東上野３丁目１５番４号ほていビル２Ｆ,,13,106,1100015,,,2022-06-02,清算の結了等,,,2015-10-05,1,,,,,ロデムイーアンドシー,0
2400,8010702002987,登記記録の閉鎖等,0,2022-06-03,2022-05-31,有限会社後藤商会,,有限会社,東京都,品川区,南大井４丁目１８番１８号,,13,109,1400013,,,2022-05-31,清算の結了等,,,2015-10-05,1,,,,,ゴトウショウカイ,0
2407,8010902013826,登記記録の閉鎖等,0,2022-06-03,2022-05-26,有限会社本郷通駐車場,,有限会社,東京都,中央区,銀座６丁目１０番１号,,13,102,1040061,,,2022-05-26,清算の結了等,,,2015-10-05,1,,,,,ホンゴウドオリチュウシャジョウ,0
2443,8013301017233,登記記録の閉鎖等,0,2022-06-03,2022-05-30,株式会社ワンズ・システム,,株式会社,埼玉県,ふじみ野市,旭１丁目１３番２０号,,11,245,3560055,,,2022-05-30,清算の結了等,,,2015-10-05,1,,,,,ワンズシステム,0
2475,8040001101199,登記記録の閉鎖等,0,2022-06-03,2022-05-27,株式会社ＦＬＯＷＥＲ,,株式会社,千葉県,成田市,花崎町７３６番地５１開運ビル,,12,211,2860033,,,2022-05-27,清算の結了等,,,2017-08-01,1,,,,,フラワー,0
2496,8080401012637,登記記録の閉鎖等,0,2022-06-03,2022-05-31,株式会社はぎわら,,株式会社,静岡県,浜松市北区,三幸町４１９番地の１６,,22,135,4338101,,,2022-05-31,清算の結了等,,,2015-10-05,1,,,,,ハギワラ,0
2516,8120001096712,登記記録の閉鎖等,0,2022-06-03,2022-06-01,株式会社マスダック,,株式会社,大阪府,大阪市淀川区,西中島６丁目２番３号,,27,123,5320011,,,2022-06-01,清算の結了等,,,2015-10-05,1,,,,,マスダック,0
2569,8170001003358,登記記録の閉鎖等,0,2022-06-03,2022-06-02,保田電機株式会社,,株式会社,和歌山県,和歌山市,屋形町４丁目１０番地,,30,201,6408151,,,2022-06-02,清算の結了等,,,2015-10-05,1,,,,,ヤスダデンキ,0
2583,8180302009490,登記記録の閉鎖等,0,2022-06-03,2022-05-27,有限会社冨士美土建,,有限会社,愛知県,豊橋市,船渡町字向山２８番地,,23,201,4418072,,,2022-05-27,清算の結了等,,,2015-10-05,1,,,,,フジミドケン,0
2585,8180305008218,登記記録の閉鎖等,0,2022-06-03,2022-05-02,税理士法人東海経営,,その他の設立登記法人,愛知県,豊橋市,広小路３丁目４４－２,,23,201,4400881,,,2022-05-02,合併による解散等,1180305008406,令和４年５月２日愛知県豊橋市大橋通一丁目１０１番地税理士法人ＳＨＩＰ（1180305008406）に合併し解散,2015-10-05,1,,,,,トウカイケイエイ,0
2586,8190001012035,登記記録の閉鎖等,0,2022-06-03,2022-05-30,株式会社伊藤文,,株式会社,三重県,桑名市,大橋通り一丁目３４６番地,,24,205,5110000,,,2022-05-30,清算の結了等,,,2015-10-05,1,,,,,イトウブン,0
2589,8190002014583,登記記録の閉鎖等,0,2022-06-03,2022-05-31,有限会社森川商店,,有限会社,三重県,松阪市,中町１８３３番地,,24,204,5150083,,,2022-05-31,清算の結了等,,,2015-10-05,1,,,,,モリカワショウテン,0
2606,8250001011030,登記記録の閉鎖等,0,2022-06-03,2022-05-31,株式会社Ｙ・Ｅ・Ｓ,,株式会社,山口県,周南市,新宿通６丁目２番７号,,35,215,7450056,,,2022-05-31,清算の結了等,,,2015-10-05,1,,,,,イエス,0
2608,8260001027496,登記記録の閉鎖等,0,2022-06-03,2022-05-31,株式会社アロンテクノ,,株式会社,岡山県,倉敷市,福井１１６番地３,,33,202,7100844,,,2022-05-31,清算の結了等,,,2015-10-05,1,,,,,アロンテクノ,0
2630,8310001007138,登記記録の閉鎖等,0,2022-06-03,2022-05-31,株式会社ハッピーライフ,,株式会社,福岡県,福岡市中央区,舞鶴１丁目９－３朝日プラザ天神２０３号,,40,133,8100073,,,2022-05-31,清算の結了等,,,2015-10-05,1,,,,,ハッピーライフ,0
2631,8310002006997,登記記録の閉鎖等,0,2022-06-03,2022-06-01,有限会社プロセスクリエーターティー,,有限会社,長崎県,長崎市,滑石２丁目６番２４号,,42,201,8528061,,,2022-06-01,合併による解散等,8310001001033,令和４年６月１日長崎市滑石二丁目６番２４号株式会社田浦組（8310001001033）に合併し解散,2015-10-05,1,,,,,プロセスクリエーターティー,0
2639,8330005010144,登記記録の閉鎖等,0,2022-06-03,2022-05-31,一般社団法人忠魂碑を守る会,,その他の設立登記法人,熊本県,熊本市北区,龍田８丁目８番５０号,,43,105,8618006,,,2022-05-31,清算の結了等,,,2020-02-10,1,,,,,チュウコンヒヲマモルカイ,0
2669,8420001006913,登記記録の閉鎖等,0,2022-06-03,2022-05-31,東北砕石工業株式会社,,株式会社,青森県,八戸市,南郷大字島守字下巻２６番地１,,02,203,0310202,,,2022-05-31,清算の結了等,,,2015-10-05,1,,,,,トウホクサイセキコウギョウ,0
2685,8470002011668,登記記録の閉鎖等,0,2022-06-03,2022-06-01,有限会社三連,,有限会社,香川県,丸亀市,土居町２丁目１５番１６号,,37,202,7630012,,,2022-06-01,清算の結了等,,,2015-10-05,1,,,,,サンレン,0
2715,9010405017737,登記記録の閉鎖等,0,2022-06-03,2022-05-17,ブルーホールディングス３一般社団法人,,その他の設立登記法人,東京都,港区,虎ノ門３丁目２２番１０－２０１号,,13,103,1050001,,,2022-05-17,清算の結了等,,,2019-06-03,1,,,,,ブルーホールディングススリー,0
2744,9011101039298,登記記録の閉鎖等,0,2022-06-03,2022-05-31,株式会社ラムカノンＩＮＣ．,,株式会社,東京都,新宿区,下宮比町２－２８－３２４,,13,104,1620822,,,2022-05-31,清算の結了等,,,2015-10-05,1,,,,,ラムカノンインク,0
2745,9011101047202,登記記録の閉鎖等,0,2022-06-03,2022-05-30,ビーエムエスシージャパン株式会社,,株式会社,東京都,新宿区,富久町１３番１５号,,13,104,1620067,,,2022-05-30,合併による解散等,8011101046733,令和４年５月３０日東京都新宿区富久町１３番１５号サンエステートミナミ株式会社（8011101046733）に合併し解散,2015-10-05,1,,,,,ビーエムエスシージャパン,0
2751,9011201003492,登記記録の閉鎖等,0,2022-06-03,2022-05-27,テクニカル・アド・システム株式会社,,株式会社,東京都,中野区,野方１丁目３２番２号,,13,114,1650027,,,2022-05-27,清算の結了等,,,2015-10-05,1,,,,,テクニカルアドシステム,0
2758,9011801022826,登記記録の閉鎖等,0,2022-06-03,2022-05-30,株式会社仁や,,株式会社,東京都,足立区,東保木間１丁目５番５号,,13,121,1210063,,,2022-05-30,清算の結了等,,,2015-10-05,1,,,,,ジンヤ,0
2767,9013101004942,登記記録の閉鎖等,0,2022-06-03,2022-06-01,美咲興業株式会社,,株式会社,東京都,青梅市,木野下１丁目４５３番地４,,13,205,1980013,,,2022-06-01,清算の結了等,,,2015-10-05,1,,,,,ミサキコウギョウ,0
2770,9020001064612,登記記録の閉鎖等,0,2022-06-03,2022-05-31,株式会社はしば,,株式会社,神奈川県,川崎市多摩区,菅２丁目３番８号,,14,135,2140001,,,2022-05-31,清算の結了等,,,2015-10-05,1,,,,,ハシバ,0
2781,9020002089765,登記記録の閉鎖等,0,2022-06-03,2022-05-31,有限会社とん忠,,有限会社,神奈川県,川崎市高津区,向ケ丘７０番地４,,14,134,2130035,,,2022-05-31,清算の結了等,,,2015-10-05,1,,,,,トンチュウ,0
2783,9020003017634,登記記録の閉鎖等,0,2022-06-03,2022-05-31,Ｅｋｏｗｏｒｋｓ合同会社,,合同会社,神奈川県,横浜市戸塚区,吉田町１１１０番地２７,,14,110,2440817,,,2022-05-31,清算の結了等,,,2020-04-01,1,,,,,エコワークス,0
2788,9030001096489,登記記録の閉鎖等,0,2022-06-03,2022-05-30,ショウサイ・トラスト株式会社,,株式会社,埼玉県,北足立郡伊奈町,大字小室４６８５番地１,,11,301,3620806,,,2022-05-30,清算の結了等,,,2015-10-05,1,,,,,,0
2813,9070001015387,登記記録の閉鎖等,0,2022-06-03,2022-05-30,株式会社ＴＯＫＵＥ　ＬＡＮＤ,,株式会社,群馬県,伊勢崎市,連取町３１１０番地２０,,10,204,3720812,,,2022-05-30,清算の結了等,,,2015-10-05,1,,,,,,0
2815,9080002004264,登記記録の閉鎖等,0,2022-06-03,2022-06-02,登呂成形有限会社,,有限会社,静岡県,静岡市駿河区,登呂２丁目６番３２号,,22,102,4228033,,,2022-06-02,清算の結了等,,,2015-10-05,1,,,,,トロセイケイ,0
2819,9080002013463,登記記録の閉鎖等,0,2022-06-03,2022-05-31,有限会社ウェルアート,,有限会社,静岡県,島田市,本通２丁目２番の１０,,22,209,4270022,,,2022-05-31,清算の結了等,,,2015-10-05,1,,,,,ウェルアート,0
2827,9100001019946,登記記録の閉鎖等,0,2022-06-03,2022-06-01,株式会社ニューエイジ,,株式会社,長野県,茅野市,塚原１丁目３番２１号,,20,214,3910002,,,2022-06-01,清算の結了等,,,2015-10-05,1,,,,,ニューエイジ,0
2830,9100001027379,登記記録の閉鎖等,0,2022-06-03,2022-06-01,株式会社ＬＡＫＥ・Ｅ２,,株式会社,長野県,岡谷市,本町３丁目８番７号,,20,204,3940028,,,2022-06-01,合併による解散等,3100002030874,令和４年６月１日長野県岡谷市本町三丁目８番７号レイクＲ＆Ｄ株式会社（3100002030874）に合併し解散,2015-10-05,1,,,,,レイクイーツー,0
2858,9120105005155,登記記録の閉鎖等,0,2022-06-03,2022-05-11,一般社団法人羽曳野青年会議所,,その他の設立登記法人,大阪府,羽曳野市,軽里１丁目１番１号,,27,222,5830854,,,2022-05-11,合併による解散等,1120105005154,令和４年４月１日大阪府藤井寺市岡一丁目２番１６号藤井寺市商工会議所内一般社団法人藤井寺青年会議所（1120105005154）に合併し解散,2015-10-05,1,,,,,ハビキノセイネンカイギショ,0
2889,9180002049563,登記記録の閉鎖等,0,2022-06-03,2022-06-01,有限会社イー・エス・テクノ,,有限会社,愛知県,名古屋市港区,小碓２丁目１６４番地,,23,111,4550801,,,2022-06-01,清算の結了等,,,2015-10-05,1,,,,,イーエステクノ,0
2903,9190002002265,登記記録の閉鎖等,0,2022-06-03,2022-05-31,有限会社倉平商事,,有限会社,三重県,津市,河芸町東千里１７９番地の１,,24,201,5100303,,,2022-05-31,清算の結了等,,,2015-10-05,1,,,,,クラヘイショウジ,0
2918,9240002045779,登記記録の閉鎖等,0,2022-06-03,2022-06-01,ＳＡマリン有限会社,,有限会社,広島県,福山市,沖野上町３丁目９番３１号,,34,207,7200825,,,2022-06-01,清算の結了等,,,2015-10-05,1,,,,,エスエーマリン,0
2933,9280005007104,登記記録の閉鎖等,0,2022-06-03,2022-05-30,農事組合法人いいなし,,その他の設立登記法人,島根県,安来市,飯梨町９１７番地,,32,206,6920066,,,2022-05-30,清算の結了等,,,2016-01-18,1,,,,,イイナシ,0
2947,9300005005170,登記記録の閉鎖等,0,2022-06-03,2022-05-02,天理教本九唐分教会,,その他の設立登記法人,佐賀県,唐津市,八幡町７３４番地１９２,,41,202,8470102,,,2022-05-02,合併による解散等,5300005005752,令和４年５月２日佐賀県唐津市相知町相知１９３１番地天理教本九分教会（5300005005752）に合併し解散,2015-10-05,1,,,,,テンリキョウホンキュウトウブンキョウカイ,0
2962,9360001005004,登記記録の閉鎖等,0,2022-06-03,2022-05-02,株式会社鋼築工業,,株式会社,沖縄県,中頭郡西原町,字小那覇１４９１番地,,47,329,9030103,,,2022-05-02,合併による解散等,7360001004346,沖縄県中頭郡西原町字小那覇１４９１番地株式会社大興鋼業（7360001004346）に合併し解散,2015-10-05,1,,,,,コウチクコウギョウ,0
2993,9460102000521,登記記録の閉鎖等,0,2022-06-03,2022-06-01,有限会社落合開発,,有限会社,北海道,帯広市,西十三条南２７丁目４番地１６,,01,207,0800023,,,2022-06-01,合併による解散等,8460101000135,令和４年６月１日北海道帯広市西十三条南二十七丁目４番地１６株式会社ウエスタン（8460101000135）に合併し解散,2015-10-05,1,,,,,オチアイカイハツ,0
3000,9500005004193,登記記録の閉鎖等,0,2022-06-03,2022-05-10,天理教高繩分教会,00008523,その他の設立登記法人,愛媛県,西条市,丹原町高松１１６９番地の３,,38,206,7910524,,,2022-05-10,合併による解散等,7500005004055,令和４年５月１０日愛媛県西条市氷見丙９７２番地天理教氷見分教会（7500005004055）に合併し解散,2015-10-05,1,,,,,テンリキョウタカナワブンキョウカイ,0
