sequenceNumber,corporateNumber,process,correct,updateDate,changeDate,name,nameImageId,kind,prefectureName,cityName,streetNumber,addressImageId,prefectureCode,cityCode,postCode,addressOutside,addressOutsideImageId,closeDate,closeCause,successorCorporateNumber,changeCause,assignmentDate,latest,enName,enPrefectureName,enCityName,enAddressOutside,furigana,hihyoji
15,1010001229041,新規,0,2022-08-24,2022-08-24,株式会社ライブアンドワールド,,株式会社,東京都,千代田区,九段南１丁目５番６号,,13,101,1020074,,,,,,,2022-08-24,1,,,,,ライブアンドワールド,0
29,1010403028347,新規,0,2022-08-24,2022-08-24,ノナコンサルティング合同会社,,合同会社,東京都,港区,赤坂１丁目３番５号赤坂アビタシオン３Ｆ,,13,103,1070052,,,,,,,2022-08-24,1,,,,,ノナコンサルティング,0
33,1010601061736,新規,0,2022-08-24,2022-08-24,ＫＧ株式会社,,株式会社,東京都,江東区,東陽２丁目４番３９号新東陽ビル４階４７号室,,13,108,1350016,,,,,,,2022-08-24,1,,,,,ケージー,0
35,1010703006366,新規,0,2022-08-24,2022-08-24,合同会社ＣＡＭＡＲＡＤＯ,,合同会社,東京都,品川区,戸越５丁目１８番７号２階,,13,109,1420041,,,,,,,2022-08-24,1,,,,,カマラード,0
39,1010901051486,新規,0,2022-08-24,2022-08-24,ブルベア株式会社,,株式会社,東京都,世田谷区,三軒茶屋２丁目５２番１２号Ｆｏｕｎｔａｉｎ４Ｆ,,13,112,1540024,,,,,,,2022-08-24,1,,,,,ブルベア,0
46,1011001149386,新規,0,2022-08-24,2022-08-24,タッドリセス株式会社,,株式会社,東京都,渋谷区,道玄坂１丁目１０番８号渋谷道玄坂東急ビル２Ｆ－Ｃ,,13,113,1500043,,,,,,,2022-08-24,1,,,,,タッドリセス,0
47,1011001149394,新規,0,2022-08-24,2022-08-24,株式会社ＴＫＫ,,株式会社,東京都,渋谷区,神南１丁目１３番８号パーク・アヴェニュー神南８０１,,13,113,1500041,,,,,,,2022-08-24,1,,,,,ティーケイケイ,0
50,1011003015264,新規,0,2022-08-24,2022-08-24,Ｙ’ｓ合同会社,,合同会社,東京都,渋谷区,神宮前６丁目２３番４号桑野ビル２階,,13,113,1500001,,,,,,,2022-08-24,1,,,,,ワイズ,0
54,1011101099944,新規,0,2022-08-24,2022-08-24,株式会社ＴＨＥ　ＦＩＲＳＴ　ＴＡＫＥ,,株式会社,東京都,新宿区,神楽坂６丁目６６番地１宝生堂ビル１階,,13,104,1620825,,,,,,,2022-08-24,1,,,,,ザファーストテイク,0
60,1011701025556,新規,0,2022-08-24,2022-08-24,株式会社ザッツ,,株式会社,東京都,江戸川区,南葛西５丁目９番１７－２０５号,,13,123,1340085,,,,,,,2022-08-24,1,,,,,ザッツ,0
61,1011803005233,新規,0,2022-08-24,2022-08-24,ＭＡＹＯＢＥ合同会社,,合同会社,東京都,葛飾区,新小岩１丁目２３番１号八重ビル２０１,,13,122,1240024,,,,,,,2022-08-24,1,,,,,マヨベ,0
63,1012303001714,新規,0,2022-08-24,2022-08-24,陶ｓｈｉｒａｋｕ合同会社,,合同会社,東京都,町田市,高ヶ坂１丁目４－１５,,13,209,1940014,,,,,,,2022-08-24,1,,,,,トウシラク,0
72,1012803002864,新規,0,2022-08-24,2022-08-24,合同会社ｍｉＱｓ,,合同会社,東京都,武蔵村山市,残堀５丁目８６番地の１６,,13,223,2080034,,,,,,,2022-08-24,1,,,,,ミックス,0
84,1021001076836,新規,0,2022-08-24,2022-08-24,株式会社ありさん,,株式会社,神奈川県,小田原市,曽比１５４６番地の３,,14,206,2500851,,,,,,,2022-08-24,1,,,,,アリサン,0
90,1030001149774,新規,0,2022-08-24,2022-08-24,株式会社ラッキートレーディング,,株式会社,埼玉県,川口市,西川口１丁目３０番２０号２Ｆ,,11,203,3320021,,,,,,,2022-08-24,1,,,,,ラッキートレーディング,0
101,1060001035204,新規,0,2022-08-24,2022-08-24,株式会社ケーダッシュ,,株式会社,栃木県,宇都宮市,富士見が丘１丁目１７－９,,09,201,3200011,,,,,,,2022-08-24,1,,,,,ケーダッシュ,0
115,1110003004845,新規,0,2022-08-24,2022-08-24,中林不動産合同会社,,合同会社,新潟県,長岡市,堤町１番２２号,,15,202,9402014,,,,,,,2022-08-24,1,,,,,ナカバヤシフドウサン,0
122,1120001248369,新規,0,2022-08-24,2022-08-24,株式会社Ｌａ　Ｐｌａｉｓｉｒ,,株式会社,大阪府,大阪市北区,梅田１丁目１－３,,27,127,5300001,,,,,,,2022-08-24,1,,,,,ラプレジール,0
123,1120001248377,新規,0,2022-08-24,2022-08-24,株式会社ＫＹＬＡＮ,,株式会社,大阪府,大阪市都島区,善源寺町２丁目２番１－１４２３号,,27,102,5340015,,,,,,,2022-08-24,1,,,,,カイラン,0
124,1120001248385,新規,0,2022-08-24,2022-08-24,ＪＰＳＰ株式会社,,株式会社,大阪府,大阪市中央区,森之宮二丁目１１－６,,27,128,5390000,,,,,,,2022-08-24,1,,,,,ジェーピーエスピー,0
126,1120003022326,新規,0,2022-08-24,2022-08-24,合同会社Ａｒｌ,,合同会社,大阪府,大阪市中央区,日本橋１丁目３番１３号,,27,128,5420073,,,,,,,2022-08-24,1,,,,,エール,0
130,1120103004819,新規,0,2022-08-24,2022-08-24,ファーストクリエイク合同会社,,合同会社,大阪府,大阪狭山市,半田５丁目２６２２番地の５,,27,231,5890011,,,,,,,2022-08-24,1,,,,,ファーストクリエイク,0
131,1120901046392,新規,0,2022-08-24,2022-08-24,株式会社林,,株式会社,大阪府,豊中市,服部元町１丁目９番１号,,27,203,5610851,,,,,,,2022-08-24,1,,,,,ハヤシ,0
140,1140001127166,新規,0,2022-08-24,2022-08-24,株式会社成翔,,株式会社,兵庫県,たつの市,揖西町小神１２９番地９,,28,229,6794003,,,,,,,2022-08-24,1,,,,,セイショウ,0
141,1140001127174,新規,0,2022-08-24,2022-08-24,株式会社松籟Ｒ,,株式会社,兵庫県,神戸市東灘区,御影山手５丁目９番１１号,,28,101,6580065,,,,,,,2022-08-24,1,,,,,ショウライアール,0
145,1160003002654,新規,0,2022-08-24,2022-08-24,永富合同会社,,合同会社,滋賀県,大津市,仰木の里２丁目１５番６号,,25,201,5200246,,,,,,,2022-08-24,1,,,,,ナガトミ,0
149,1170003001762,新規,0,2022-08-24,2022-08-24,合同会社Ｊｕｎｇｌｅ　Ｖｅｇｅｔａｂｌｅｓ,,合同会社,和歌山県,橋本市,高野口町小田１０１,,30,203,6497204,,,,,,,2022-08-24,1,,,,,ジャングルベジタブルズ,0
154,1180001152706,新規,0,2022-08-24,2022-08-24,ＡＹＷ株式会社,,株式会社,愛知県,一宮市,光明寺字権現塚１２１番地,,23,203,4910135,,,,,,,2022-08-24,1,,,,,エーワイダブリュー,0
164,1230001019494,新規,0,2022-08-24,2022-08-24,クリール株式会社,,株式会社,富山県,下新川郡入善町,芦崎６９番地,,16,342,9390667,,,,,,,2022-08-24,1,,,,,,0
165,1240001060258,新規,0,2022-08-24,2022-08-24,スリーテック株式会社,,株式会社,広島県,広島市安佐北区,安佐町大字久地６６１５番地,,34,106,7313362,,,,,,,2022-08-24,1,,,,,スリーテック,0
179,1290001098632,新規,0,2022-08-24,2022-08-24,株式会社Ｊ　Ｔｒａｖｅｌ　Ｓｅｒｖｉｃｅ,,株式会社,福岡県,福岡市博多区,博多駅前４丁目１８番２４－５０２号,,40,132,8120011,,,,,,,2022-08-24,1,,,,,ジェイトラベルサービス,0
183,1330001030045,新規,0,2022-08-24,2022-08-24,株式会社まよみ堂,,株式会社,熊本県,熊本市中央区,帯山３丁目３９番１３号石川ビル１０３号,,43,101,8620924,,,,,,,2022-08-24,1,,,,,マヨミドウ,0
187,1330003009491,新規,0,2022-08-24,2022-08-24,合同会社トラッシュアート,,合同会社,熊本県,阿蘇市,永草１５８８番地１,,43,214,8692231,,,,,,,2022-08-24,1,,,,,トラッシュアート,0
194,1360003012261,新規,0,2022-08-24,2022-08-24,合同会社ウッドケア,,合同会社,沖縄県,国頭郡金武町,字伊芸２１４,,47,314,9041202,,,,,,,2022-08-24,1,,,,,ウッドケア,0
195,1370001048959,新規,0,2022-08-24,2022-08-24,株式会社ｅ‐ａｃｔ,,株式会社,宮城県,石巻市,美園２丁目１６番２６グランチェスタＭ２０１号,,04,202,9860033,,,,,,,2022-08-24,1,,,,,イーアクト,0
198,1380001033068,新規,0,2022-08-24,2022-08-24,株式会社松本石材,,株式会社,福島県,福島市,方木田字葉ノ木立２９番地１９５,,07,201,9608163,,,,,,,2022-08-24,1,,,,,マツモトセキザイ,0
209,1700150111500,新規,0,2022-08-24,2022-08-24,Ｓｔｅｍｃｏ　ＰＴＹ　ＬＴＤ,,外国会社等,北海道,虻田郡倶知安町,字樺山５９－１１９,,01,400,0440078,６２４　Ｇｒａｓｓｄａｌｅ　Ｒｏａｄ，Ｇｕｍｄａｒｅ　ＱＬＤ　４１５４　Ａｕｓｔｒａｌｉａ,,,,,,2022-08-24,1,,,,,ステムコピーテイワイリミテツド,0
224,2010001228942,新規,0,2022-08-24,2022-08-24,株式会社ハネダ,,株式会社,東京都,中央区,日本橋茅場町２丁目１番１１号,,13,102,1030025,,,,,,,2022-08-24,1,,,,,ハネダ,0
225,2010001228975,新規,0,2022-08-24,2022-08-24,株式会社ＡＳＫ,,株式会社,東京都,千代田区,丸の内３丁目２番２号丸の内二重橋ビル２階,,13,101,1000005,,,,,,,2022-08-24,1,,,,,,0
226,2010001228991,新規,0,2022-08-24,2022-08-24,株式会社Ｙ＆Ｐ　ＡＳＳＥＴ　ＭＡＮＡＧＥＭＥＮＴ,,株式会社,東京都,中央区,銀座１丁目２２番１１号銀座大竹ビジデンス２階,,13,102,1040061,,,,,,,2022-08-24,1,,,,,ワイアンドピーアセットマネジメント,0
227,2010001229016,新規,0,2022-08-24,2022-08-24,株式会社セブントラベル,,株式会社,東京都,千代田区,六番町４‐１１,,13,101,1020085,,,,,,,2022-08-24,1,,,,,セブントラベル,0
228,2010001229057,新規,0,2022-08-24,2022-08-24,株式会社匠企画,,株式会社,東京都,中央区,日本橋２丁目１番３号アーバンネット日本橋二丁目ビル１０階,,13,102,1030027,,,,,,,2022-08-24,1,,,,,タクミキカク,0
237,2010005035476,新規,0,2022-08-24,2022-08-24,一般社団法人ＶＥＲＥＤ４,,その他の設立登記法人,東京都,中央区,八丁堀４丁目２番１０号ＡＯＪ税理士法人内,,13,102,1040032,,,,,,,2022-08-24,1,,,,,ヴェレッドフォー,0
248,2010401169274,新規,0,2022-08-24,2022-08-24,株式会社お寿司弥さん,,株式会社,東京都,港区,東麻布１丁目２９番１５号東麻布２９６ビル１階,,13,103,1060044,,,,,,,2022-08-24,1,,,,,オスシヤサン,0
249,2010401169282,新規,0,2022-08-24,2022-08-24,株式会社２ｎｄ　Ｖｉｌｌａｇｅ,,株式会社,東京都,港区,南麻布１丁目９番４－１００１号,,13,103,1060047,,,,,,,2022-08-24,1,,,,,セカンドヴィレッジ,0
250,2010401169290,新規,0,2022-08-24,2022-08-24,イートンリアルエステート株式会社,,株式会社,東京都,港区,元赤坂１丁目１番５号富士陰ビル７階,,13,103,1070051,,,,,,,2022-08-24,1,,,,,イートンリアルエステート,0
252,2010403028255,新規,0,2022-08-24,2022-08-24,合同会社Ｘ,,合同会社,東京都,港区,六本木３丁目２－１,,13,103,1060032,,,,,,,2022-08-24,1,,,,,エックス,0
255,2010601061727,新規,0,2022-08-24,2022-08-24,株式会社ＳＨＡＲＥＺ,,株式会社,東京都,江東区,有明１丁目４番１１－２２１８号,,13,108,1350063,,,,,,,2022-08-24,1,,,,,シェアズ,0
256,2010601061735,新規,0,2022-08-24,2022-08-24,株式会社ＩＮＶＥＬ,,株式会社,東京都,江東区,青海２丁目５番１０号テレコムセンタービル東棟１４階,,13,108,1350064,,,,,,,2022-08-24,1,,,,,インヴェル,0
267,2011001149360,新規,0,2022-08-24,2022-08-24,株式会社ＳＬＥＥＰ　ＴＩＬＬ　ＴＯＫＹＯ,,株式会社,東京都,渋谷区,恵比寿４丁目１６番６号,,13,113,1500013,,,,,,,2022-08-24,1,,,,,スリープティルトウキョウ,0
268,2011001149377,新規,0,2022-08-24,2022-08-24,株式会社ｍｉｚｕｓａｓｈｉ,,株式会社,東京都,目黒区,下目黒３丁目６番３－６０５号パークリュクス目黒,,13,110,1530064,,,,,,,2022-08-24,1,,,,,ミズサシ,0
269,2011001149385,新規,0,2022-08-24,2022-08-24,株式会社ＡｉｒＫａｍｕｙ,,株式会社,東京都,目黒区,東山２丁目８番２号グラン目黒東山２０２,,13,110,1530043,,,,,,,2022-08-24,1,,,,,エアカムイ,0
270,2011001149393,新規,0,2022-08-24,2022-08-24,株式会社ｓｈａｒｅ,,株式会社,東京都,渋谷区,宇田川町１番１２－１９１１号,,13,113,1500042,,,,,,,2022-08-24,1,,,,,シェア,0
271,2011001149410,新規,0,2022-08-24,2022-08-24,株式会社ＳＰＥＳ,,株式会社,東京都,渋谷区,神宮前６丁目２３番４号桑野ビル２階,,13,113,1500001,,,,,,,2022-08-24,1,,,,,スペース,0
276,2011101099951,新規,0,2022-08-24,2022-08-24,株式会社アニメマーケット,,株式会社,東京都,新宿区,西新宿３丁目３番１３号西新宿水間ビル２Ｆ,,13,104,1600023,,,,,,,2022-08-24,1,,,,,アニメマーケット,0
277,2011105010369,新規,0,2022-08-24,2022-08-24,一般社団法人人間関係心理学協会,,その他の設立登記法人,東京都,新宿区,西新宿３丁目３番１３号西新宿水間ビル６階,,13,104,1600023,,,,,,,2022-08-24,1,,,,,ニンゲンカンケイシンリガクキョウカイ,0
281,2011501028361,新規,0,2022-08-24,2022-08-24,株式会社Ｌｉ‐ｔｕ,,株式会社,東京都,北区,浮間１丁目３－１－１１４号,,13,117,1150051,,,,,,,2022-08-24,1,,,,,リーツ,0
282,2011701025555,新規,0,2022-08-24,2022-08-24,株式会社ｍｉｍｉｃｏ,,株式会社,東京都,江戸川区,一之江町３０１１番地７,,13,123,1340092,,,,,,,2022-08-24,1,,,,,ミミコ,0
285,2012303001713,新規,0,2022-08-24,2022-08-24,ＴＮプランニング合同会社,,合同会社,東京都,町田市,南町田４丁目１３番１－１１０号,,13,209,1940005,,,,,,,2022-08-24,1,,,,,ティエヌプランニング,0
287,2012401039564,新規,0,2022-08-24,2022-08-24,株式会社ヌエボパソ,,株式会社,東京都,稲城市,東長沼３１０６番地の４,,13,225,2060802,,,,,,,2022-08-24,1,,,,,ヌエボパソ,0
300,2020005015634,新規,0,2022-08-24,2022-08-24,一般社団法人かながわ婦人懇話会,,その他の設立登記法人,神奈川県,横浜市港南区,港南台４丁目４番５号,,14,111,2340054,,,,,,,2022-08-24,1,,,,,カナガワフジンコンワカイ,0
303,2021001076827,新規,0,2022-08-24,2022-08-24,翔設計神奈川株式会社,,株式会社,神奈川県,三浦郡葉山町,堀内１３６３番地の４,,14,301,2400112,,,,,,,2022-08-24,1,,,,,ショウセッケイカナガワ,0
315,2030003020024,新規,0,2022-08-24,2022-08-24,ＰｉｇｌａｃｅＰｌｕｓ合同会社,,合同会社,埼玉県,上尾市,大字小敷谷６６番地８,,11,219,3620064,,,,,,,2022-08-24,1,,,,,ピグラスプラス,0
329,2040005021705,新規,0,2022-08-24,2022-08-24,一般社団法人自由民主党市川市支部,,その他の設立登記法人,千葉県,市川市,八幡２丁目２番１４号,,12,203,2720021,,,,,,,2022-08-24,1,,,,,ジユウミンシュトウイチカワシシブ,0
333,2050003006789,新規,0,2022-08-24,2022-08-24,合同会社ロードワークス,,合同会社,茨城県,つくば市,栗原７１８番地,,08,220,3050001,,,,,,,2022-08-24,1,,,,,ロードワークス,0
335,2060001035203,新規,0,2022-08-24,2022-08-24,株式会社ＭＪＳ,,株式会社,栃木県,宇都宮市,塙田３丁目１番１６号,,09,201,3200027,,,,,,,2022-08-24,1,,,,,エムジェイエス,0
338,2070003004601,新規,0,2022-08-24,2022-08-24,ＳＡＫＵＲＡ　ＥＮＴＥＲＰＲＩＳＥＳ合同会社,,合同会社,群馬県,桐生市,相生町２丁目８７６番地カニヤハイツＡ‐１０１,,10,203,3760011,,,,,,,2022-08-24,1,,,,,サクラエンタープライズ,0
339,2070005010028,新規,0,2022-08-24,2022-08-24,一般社団法人国際美容芸術振興協会,,その他の設立登記法人,群馬県,太田市,内ケ島町１５６７番地５,,10,205,3730813,,,,,,,2022-08-24,1,,,,,コクサイビヨウゲイジュツシンコウキョウカイ,0
341,2080001025144,新規,0,2022-08-24,2022-08-24,株式会社ビーブリッジ,,株式会社,静岡県,静岡市駿河区,曲金４丁目１４番１２号,,22,102,4228006,,,,,,,2022-08-24,1,,,,,ビーブリッジ,0
350,2110001036906,新規,0,2022-08-24,2022-08-24,Ｄ＆Ｉソリューションズ株式会社,,株式会社,新潟県,新潟市中央区,明石１丁目７番１２号新潟ＯＳＥビル５階,,15,103,9500084,,,,,,,2022-08-24,1,,,,,ディーアンドアイソリューションズ,0
359,2120001248376,新規,0,2022-08-24,2022-08-24,ＵＮＫ株式会社,,株式会社,大阪府,大阪市都島区,都島本通４丁目９番１－３０４号,,27,102,5340021,,,,,,,2022-08-24,1,,,,,ユーエヌケー,0
360,2120001248384,新規,0,2022-08-24,2022-08-24,株式会社岡山商会,,株式会社,大阪府,枚方市,香里ケ丘８丁目１８番地の１１,,27,210,5730084,,,,,,,2022-08-24,1,,,,,オカヤマショウカイ,0
363,2120003022341,新規,0,2022-08-24,2022-08-24,合同会社ＯＺＩＮ,,合同会社,大阪府,大阪市北区,南森町１丁目３番２９号ＭＳＴ南森町４０５,,27,127,5300054,,,,,,,2022-08-24,1,,,,,オージン,0
365,2120005023148,新規,0,2022-08-24,2022-08-24,一般社団法人ジャパンキッズ,,その他の設立登記法人,大阪府,大阪市北区,豊崎５丁目３番２３号株式会社ココロ内,,27,127,5310072,,,,,,,2022-08-24,1,,,,,ジャパンキッズ,0
369,2120105009617,新規,0,2022-08-24,2022-08-24,特定非営利活動法人大阪福祉連合会,,その他の設立登記法人,大阪府,和泉市,伯太町４丁目８番３１号,,27,219,5940023,,,,,,,2022-08-24,1,,,,,オオサカフクシレンゴウカイ,0
370,2120901046391,新規,0,2022-08-24,2022-08-24,株式会社ＥＳＯ,,株式会社,大阪府,豊中市,緑丘３丁目６番３号,,27,203,5600002,,,,,,,2022-08-24,1,,,,,イーエスオー,0
371,2122001036190,新規,0,2022-08-24,2022-08-24,ＳＨＩＮ‐ライン株式会社,,株式会社,大阪府,八尾市,高安町南７丁目１１－８０２号,,27,212,5810875,,,,,,,2022-08-24,1,,,,,シンライン,0
374,2130001072486,新規,0,2022-08-24,2022-08-24,株式会社ソーシャルアイデンティティ,,株式会社,京都府,京都市中京区,町頭町１１０,,26,104,6048206,,,,,,,2022-08-24,1,,,,,ソーシャルアイデンティティ,0
375,2130001072494,新規,0,2022-08-24,2022-08-24,日本綜合ビジネス株式会社,,株式会社,京都府,京都市伏見区,向島二ノ丸町３３６番地１６,,26,109,6128141,,,,,,,2022-08-24,1,,,,,ニホンソウゴウビジネス,0
380,2140001127149,新規,0,2022-08-24,2022-08-24,株式会社ＨＭＧ,,株式会社,兵庫県,神戸市北区,鈴蘭台西町６丁目１８番５０号,,28,109,6511114,,,,,,,2022-08-24,1,,,,,エイチエムジー,0
381,2140001127157,新規,0,2022-08-24,2022-08-24,株式会社ｇｒｏｗ　ｕｐ,,株式会社,兵庫県,尼崎市,神田北通２丁目１２番地の１大陽ビルディング１Ｆ,,28,202,6600883,,,,,,,2022-08-24,1,,,,,グロウアップ,0
382,2140001127173,新規,0,2022-08-24,2022-08-24,株式会社松籟マネジメント,,株式会社,兵庫県,神戸市東灘区,御影山手５丁目９番１１号,,28,101,6580065,,,,,,,2022-08-24,1,,,,,ショウライマネジメント,0
384,2170001017248,新規,0,2022-08-24,2022-08-24,株式会社エクセレント,,株式会社,和歌山県,和歌山市,駕町５６番地,,30,201,6408293,,,,,,,2022-08-24,1,,,,,エクセレント,0
387,2170003001761,新規,0,2022-08-24,2022-08-24,合同会社タクト,,合同会社,和歌山県,和歌山市,北島４０４番地１１９,,30,201,6408403,,,,,,,2022-08-24,1,,,,,タクト,0
398,2230001019493,新規,0,2022-08-24,2022-08-24,株式会社まめやコーヒー,,株式会社,富山県,富山市,五番町５番１号,,16,201,9300052,,,,,,,2022-08-24,1,,,,,マメヤコーヒー,0
399,2240001060257,新規,0,2022-08-24,2022-08-24,株式会社ベイシスハート,,株式会社,広島県,広島市中区,立町４－２,,34,101,7300032,,,,,,,2022-08-24,1,,,,,ベイシスハート,0
400,2240001060265,新規,0,2022-08-24,2022-08-24,株式会社ＫＤＦ,,株式会社,広島県,広島市南区,仁保３丁目１番９号サンシティー仁保２０５号,,34,103,7340026,,,,,,,2022-08-24,1,,,,,ケーディーエフ,0
411,2280003001643,新規,0,2022-08-24,2022-08-24,合同会社もりやま会計事務所,,合同会社,島根県,出雲市,中野町７８３番地５,,32,203,6930062,,,,,,,2022-08-24,1,,,,,,0
419,2290001098706,新規,0,2022-08-24,2022-08-24,株式会社Ａ‐ＬＰＩＮＵＳ,,株式会社,福岡県,大野城市,栄町２丁目５番２４号デイズマンション６０４,,40,219,8160924,,,,,,,2022-08-24,1,,,,,アルピナス,0
422,2290003012870,新規,0,2022-08-24,2022-08-24,１ｅａｄ’ｓ合同会社,,合同会社,福岡県,福岡市南区,塩原３丁目１７番１４号ウエストヒルズ塩原３０１,,40,134,8150032,,,,,,,2022-08-24,1,,,,,リーズ,0
425,2310003004428,新規,0,2022-08-24,2022-08-24,合同会社アセット・ランド,,合同会社,長崎県,長崎市,立山２丁目１番３号,,42,201,8500007,,,,,,,2022-08-24,1,,,,,アセットランド,0
428,2340001024986,新規,0,2022-08-24,2022-08-24,株式会社祥大,,株式会社,鹿児島県,薩摩川内市,御陵下町１８番３０号,,46,215,8950061,,,,,,,2022-08-24,1,,,,,ショウダイ,0
429,2340003003889,新規,0,2022-08-24,2022-08-24,Ｆｏｕｒ　Ｓｅａｍ合同会社,,合同会社,鹿児島県,鹿児島市,宇宿７丁目１０番１３号,,46,201,8900073,,,,,,,2022-08-24,1,,,,,フォーシーム,0
431,2360001030867,新規,0,2022-08-24,2022-08-24,ＮＭＴ株式会社,,株式会社,沖縄県,宜野湾市,大山６丁目８番１号エヌエイチオフィスビル３Ｆ夢空間Ａ－０６室,,47,205,9012223,,,,,,,2022-08-24,1,,,,,エヌエムティー,0
433,2360003012252,新規,0,2022-08-24,2022-08-24,合同会社Ｓ．Ｈ．Ｃ,,合同会社,沖縄県,中頭郡北中城村,字島袋７０６－１,,47,327,9012301,,,,,,,2022-08-24,1,,,,,エスエイチシー,0
434,2360003012260,新規,0,2022-08-24,2022-08-24,合同会社ちねん酒店,,合同会社,沖縄県,中頭郡西原町,字我謝８０２番地,,47,329,9030112,,,,,,,2022-08-24,1,,,,,チネンサケテン,0
439,2370001048974,新規,0,2022-08-24,2022-08-24,Ｌ’ｓ　Ｃｏｎｎｅｃｔ株式会社,,株式会社,宮城県,仙台市泉区,南光台４丁目５番１７号,,04,105,9818003,,,,,,,2022-08-24,1,,,,,エルズコネクト,0
443,2380003005262,新規,0,2022-08-24,2022-08-24,合同会社ａｅｒｕ,,合同会社,福島県,郡山市,熱海町熱海５丁目２７１,,07,203,9631309,,,,,,,2022-08-24,1,,,,,アエル,0
453,2470001019222,新規,0,2022-08-24,2022-08-24,アップステアーズ株式会社,,株式会社,香川県,高松市,桜町２丁目７番４号,,37,201,7600074,,,,,,,2022-08-24,1,,,,,アップステアーズ,0
458,2700150111499,新規,0,2022-08-24,2022-08-24,ＦＡＳＴ　ＲＥＴＡＩＬＩＮＧ　（ＩＮＤＩＡ）　ＭＡＮＡＧＥＭＥＮＴ　ＣＯＮＳＵＬＴＩＮＧ　ＰＲＩＶＡＴＥ　ＬＩＭＩＴＥＤ,,外国会社等,,,,,,,,ＨＭＴ　Ｆａｃｔｏｒｙ　Ｍａｉｎ　Ｒｏａｄ，Ｐｅｅｎｙａ　１ｓｔ　Ｓｔａｇｅ，Ｂｅｎｇａｌｕｒｕ，Ｋａｒｎａｔａｋａ，Ｉｎｄｉａ,,,,,,2022-08-24,1,,,,,フアーストリテイリングインドマネジメントコンサルテイングプライベートリミテッド,0
468,3010001229007,新規,0,2022-08-24,2022-08-24,エアロプロビング・ジャパン株式会社,,株式会社,東京都,中央区,日本橋２丁目１番１７号丹生ビル２階,,13,102,1030027,,,,,,,2022-08-24,1,,,,,エアロプロビングジャパン,0
469,3010001229015,新規,0,2022-08-24,2022-08-24,Ｇｏｉｓｔｅｃｈ株式会社,,株式会社,東京都,千代田区,平河町２丁目７番２号３階,,13,101,1020093,,,,,,,2022-08-24,1,,,,,ゴイステック,0
470,3010001229023,新規,0,2022-08-24,2022-08-24,佳海株式会社,,株式会社,東京都,千代田区,内神田３丁目１７番８号小山第一ビル４０２号室,,13,101,1010047,,,,,,,2022-08-24,1,,,,,ジャハイ,0
472,3010005035434,新規,0,2022-08-24,2022-08-24,弁護士法人山本綜合法律事務所,,その他の設立登記法人,東京都,千代田区,神田佐久間町２丁目１奥田ビル６Ｆ,,13,101,1010025,,,,,,,2022-08-24,1,,,,,,0
473,3010005035475,新規,0,2022-08-24,2022-08-24,一般社団法人ＶＥＲＥＤ３,,その他の設立登記法人,東京都,中央区,八丁堀４丁目２番１０号ＡＯＪ税理士法人内,,13,102,1040032,,,,,,,2022-08-24,1,,,,,ヴェレッドスリー,0
482,3010401169174,新規,0,2022-08-24,2022-08-24,株式会社やまぐち,,株式会社,東京都,港区,六本木４丁目４番３号六本木協和ビル西館１階,,13,103,1060032,,,,,,,2022-08-24,1,,,,,ヤマグチ,0
483,3010401169281,新規,0,2022-08-24,2022-08-24,株式会社ａ　Ｔｒｉｂｅ　Ａｇｅｎｃｙ,,株式会社,東京都,港区,西麻布２丁目１３番１号メイプル西麻布６Ｆ,,13,103,1060031,,,,,,,2022-08-24,1,,,,,エートライブエージェンシー,0
487,3010601061726,新規,0,2022-08-24,2022-08-24,株式会社Ｌｕｕｎａ,,株式会社,東京都,江東区,大島３丁目８番７号,,13,108,1360072,,,,,,,2022-08-24,1,,,,,ルーナ,0
488,3010701043112,新規,0,2022-08-24,2022-08-24,ＳＴＲ８株式会社,,株式会社,東京都,品川区,西五反田６丁目２５番８号,,13,109,1410031,,,,,,,2022-08-24,1,,,,,ストレート,0
493,3011001149293,新規,0,2022-08-24,2022-08-24,株式会社マミーウィル,,株式会社,東京都,目黒区,東山３丁目４－５,,13,110,1530043,,,,,,,2022-08-24,1,,,,,マミーウィル,0
494,3011001149376,新規,0,2022-08-24,2022-08-24,株式会社Ｎｅｗ　Ｓｔａｎｄａｒｄ,,株式会社,東京都,渋谷区,代々木２丁目２０番２号美和プラザ新宿２０３,,13,113,1510053,,,,,,,2022-08-24,1,,,,,ニュースタンダード,0
495,3011001149384,新規,0,2022-08-24,2022-08-24,株式会社スペースライブ,,株式会社,東京都,渋谷区,道玄坂２丁目１９番３－５１７号,,13,113,1500043,,,,,,,2022-08-24,1,,,,,,0
498,3011005009691,新規,0,2022-08-24,2022-08-24,一般社団法人杉原千畝友愛人道支援機構,,その他の設立登記法人,東京都,目黒区,鷹番１丁目２番１０号,,13,110,1520004,,,,,,,2022-08-24,1,,,,,スギハラチウネユウアイジンドウシエンキコウ,0
503,3011101099934,新規,0,2022-08-24,2022-08-24,株式会社ＳＡＲＵＨＩＫＯ,,株式会社,東京都,新宿区,西新宿３丁目３番１３号西新宿水間ビル６Ｆ,,13,104,1600023,,,,,,,2022-08-24,1,,,,,サルヒコ,0
504,3011101099942,新規,0,2022-08-24,2022-08-24,株式会社Ｔｒｙｎｎｏｘ,,株式会社,東京都,新宿区,西新宿７丁目７番２６号ワコーレ新宿第一ビル４１０,,13,104,1600023,,,,,,,2022-08-24,1,,,,,トライノクス,0
505,3011101099967,新規,0,2022-08-24,2022-08-24,株式会社Ｂ．Ａｍｂｉ,,株式会社,東京都,新宿区,西新宿３丁目３番１３号西新宿水間ビル６階,,13,104,1600023,,,,,,,2022-08-24,1,,,,,ビーアンビ,0
506,3011103012093,新規,0,2022-08-24,2022-08-24,西新宿えい月合同会社,,合同会社,東京都,新宿区,西新宿５丁目１０－１９,,13,104,1600023,,,,,,,2022-08-24,1,,,,,ニシシンジュクエイゲツ,0
508,3011301028057,新規,0,2022-08-24,2022-08-24,株式会社ＩＮＦＩＮＩＴＩ８,,株式会社,東京都,杉並区,高円寺南５丁目１８番１７号,,13,115,1660003,,,,,,,2022-08-24,1,,,,,インフィニティエイト,0
517,3011803005231,新規,0,2022-08-24,2022-08-24,合同会社アップトゥリー,,合同会社,東京都,足立区,千住河原町７－１５,,13,121,1200037,,,,,,,2022-08-24,1,,,,,アップトゥリー,0
519,3012401039497,新規,0,2022-08-24,2022-08-24,Ａｗａｒｅｎｅｓｓ　Ｓｃｉｅｎｃｅ株式会社,,株式会社,東京都,小金井市,中町２丁目２４番１６号,,13,210,1840012,,,,,,,2022-08-24,1,,,,,アウェアネスサイエンス,0
520,3012401039555,新規,0,2022-08-24,2022-08-24,株式会社利再来迎戸,,株式会社,東京都,三鷹市,井の頭４丁目５番７号,,13,204,1810001,,,,,,,2022-08-24,1,,,,,リサイクルゲート,0
536,3020003022284,新規,0,2022-08-24,2022-08-24,合同会社すずね,,合同会社,神奈川県,横浜市港北区,新横浜１丁目１４番地４,,14,109,2220033,,,,,,,2022-08-24,1,,,,,スズネ,0
542,3021001076826,新規,0,2022-08-24,2022-08-24,北辰商事株式会社,,株式会社,神奈川県,大和市,柳橋３丁目３５番地６,,14,213,2420022,,,,,,,2022-08-24,1,,,,,ホクシンショウジ,0
546,3021003012052,新規,0,2022-08-24,2022-08-24,合同会社Ａ‐ＬＩＮＥ,,合同会社,神奈川県,藤沢市,羽鳥２丁目４番６号オークヒルズ２０３,,14,205,2510056,,,,,,,2022-08-24,1,,,,,エーライン,0
548,3021005012595,新規,0,2022-08-24,2022-08-24,一般社団法人木救,,その他の設立登記法人,神奈川県,南足柄市,塚原４３５１番地,,14,217,2500117,,,,,,,2022-08-24,1,,,,,キヲスク,0
557,3030003020048,新規,0,2022-08-24,2022-08-24,世鵬興業合同会社,,合同会社,埼玉県,入間市,大字新光５２４－３,,11,225,3580055,,,,,,,2022-08-24,1,,,,,セホウコウギョウ,0
566,3040003020690,新規,0,2022-08-24,2022-08-24,合同会社ＤＲ　ＤＩＭＡＮＴＨＡ　ＴＲＡＤＩＮＧ,,合同会社,千葉県,白井市,中１７５番地８,,12,232,2701406,,,,,,,2022-08-24,1,,,,,ディーアールディマンタトレーディング,0
570,3050003006788,新規,0,2022-08-24,2022-08-24,ＹＵＨＡＳ　ＬＡＮＫＡ　ＥＮＴＥＲＰＲＩＳＥＳ合同会社,,合同会社,茨城県,結城市,大字大木１９１７番地コーポアキタ１００２Ａ,,08,207,3070031,,,,,,,2022-08-24,1,,,,,ユハスランカエンタープライセス,0
574,3080003002859,新規,0,2022-08-24,2022-08-24,合同会社Ｔｒｅｓｏｒ,,合同会社,静岡県,静岡市葵区,人宿町１丁目１－１０ＳＯＺＯＳＹＡＭビル３Ｆ,,22,101,4200037,,,,,,,2022-08-24,1,,,,,トレゾア,0
578,3080101023492,新規,0,2022-08-24,2022-08-24,株式会社後藤精肉店,,株式会社,静岡県,駿東郡長泉町,下土狩１１３１番地,,22,342,4110943,,,,,,,2022-08-24,1,,,,,ゴトウセイニクテン,0
579,3080403004604,新規,0,2022-08-24,2022-08-24,ブルードラゴン合同会社,,合同会社,静岡県,菊川市,堀之内１１０番地の１コーポ石川１階１０１号室,,22,224,4390006,,,,,,,2022-08-24,1,,,,,ブルードラゴン,0
580,3090003002156,新規,0,2022-08-24,2022-08-24,ビーフォー合同会社,,合同会社,山梨県,笛吹市,石和町四日市場７５９番地１０,,19,211,4060032,,,,,,,2022-08-24,1,,,,,ビーフォー,0
584,3100003006667,新規,0,2022-08-24,2022-08-24,合同会社ＣＡＰＨ　ＴＥＣＨ,,合同会社,長野県,安曇野市,穂高有明９０８０番地１３,,20,220,3998301,,,,,,,2022-08-24,1,,,,,カフテク,0
587,3110001036905,新規,0,2022-08-24,2022-08-24,株式会社ビューハウスＳａｎｔｅ　ｄｅ　ＴＯＭＯ,,株式会社,新潟県,新潟市西区,青山１丁目７‐８,,15,107,9502002,,,,,,,2022-08-24,1,,,,,ビューハウスサンテドトモ,0
595,3120001248342,新規,0,2022-08-24,2022-08-24,梟ブランディング株式会社,,株式会社,大阪府,大阪市北区,芝田２丁目８－１１共栄ビル３Ｆ,,27,127,5300012,,,,,,,2022-08-24,1,,,,,フクロウブランディング,0
596,3120001248359,新規,0,2022-08-24,2022-08-24,株式会社アイツール,,株式会社,大阪府,大阪市西区,立売堀６丁目７番５０－９０１号,,27,106,5500012,,,,,,,2022-08-24,1,,,,,アイツール,0
597,3120001248383,新規,0,2022-08-24,2022-08-24,株式会社アールティアール,,株式会社,大阪府,大阪市平野区,西脇２丁目７番１５－７０５号,,27,126,5470035,,,,,,,2022-08-24,1,,,,,アールティアール,0
602,3120003022332,新規,0,2022-08-24,2022-08-24,合同会社ＴＯＨＭＡ,,合同会社,大阪府,大阪市西区,京町堀１丁目３―１３辰巳ビル５階,,27,106,5500003,,,,,,,2022-08-24,1,,,,,トーマ,0
605,3120101066124,新規,0,2022-08-24,2022-08-24,株式会社ヴィーダ・クリエイション,,株式会社,大阪府,和泉市,府中町４丁目５番１６号,,27,219,5940071,,,,,,,2022-08-24,1,,,,,ヴィーダクリエイション,0
606,3120103004825,新規,0,2022-08-24,2022-08-24,あーる合同会社,,合同会社,大阪府,堺市北区,長曽根町３０７９番地６,,27,146,5918025,,,,,,,2022-08-24,1,,,,,アール,0
607,3120105009616,新規,0,2022-08-24,2022-08-24,一般社団法人ＭＥＴＡ堺,,その他の設立登記法人,大阪府,堺市美原区,今井１９０番地６,,27,147,5870061,,,,,,,2022-08-24,1,,,,,メタサカイ,0
616,3140001127164,新規,0,2022-08-24,2022-08-24,株式会社ＴＫＵ,,株式会社,兵庫県,姫路市,書写２３４２番地４,,28,201,6712201,,,,,,,2022-08-24,1,,,,,ティケーユー,0
617,3140001127172,新規,0,2022-08-24,2022-08-24,株式会社松籟コーポレーション,,株式会社,兵庫県,神戸市東灘区,御影山手５丁目９番１１号,,28,101,6580065,,,,,,,2022-08-24,1,,,,,ショウライコーポレーション,0
618,3140001127180,新規,0,2022-08-24,2022-08-24,株式会社サクラ花,,株式会社,兵庫県,神戸市兵庫区,菊水町１０丁目３９番地の１１夢野団地１－９１３号,,28,105,6520058,,,,,,,2022-08-24,1,,,,,サクラハナ,0
621,3140003018056,新規,0,2022-08-24,2022-08-24,合同会社Ｑｕａｔｔｒｏ,,合同会社,兵庫県,川西市,緑が丘２丁目１番１０号,,28,217,6660157,,,,,,,2022-08-24,1,,,,,クアトロ,0
624,3160001024467,新規,0,2022-08-24,2022-08-24,株式会社ニシムラ・ウェル・ビーイング,,株式会社,滋賀県,大津市,国分１丁目９番２５号,,25,201,5200844,,,,,,,2022-08-24,1,,,,,ニシムラウェルビーイング,0
625,3170001017247,新規,0,2022-08-24,2022-08-24,株式会社加治佐,,株式会社,和歌山県,和歌山市,本渡９２番地３,,30,201,6400324,,,,,,,2022-08-24,1,,,,,カジサ,0
627,3180001152670,新規,0,2022-08-24,2022-08-24,株式会社ＡＫＯ設計,,株式会社,愛知県,名古屋市中村区,豊国通２丁目３番地,,23,105,4530834,,,,,,,2022-08-24,1,,,,,アコセッケイ,0
631,3190001029711,新規,0,2022-08-24,2022-08-24,株式会社福屋,,株式会社,三重県,熊野市,木本町６９６番地７５,,24,212,5194323,,,,,,,2022-08-24,1,,,,,フクヤ,0
634,3220003003347,新規,0,2022-08-24,2022-08-24,合同会社ＨＩＮＡＴＡ,,合同会社,石川県,金沢市,八日市１丁目６４２番地,,17,201,9218064,,,,,,,2022-08-24,1,,,,,ヒナタ,0
636,3240001060264,新規,0,2022-08-24,2022-08-24,株式会社メリア,,株式会社,広島県,広島市中区,三川町７番４－３０１号,,34,101,7300029,,,,,,,2022-08-24,1,,,,,メリア,0
638,3240003005762,新規,0,2022-08-24,2022-08-24,はなぶさ合同会社,,合同会社,広島県,広島市佐伯区,五日市町大字下河内６６４番地１－１１０４号,,34,108,7315152,,,,,,,2022-08-24,1,,,,,ハナブサ,0
658,3340001024985,新規,0,2022-08-24,2022-08-24,株式会社栄心工業,,株式会社,鹿児島県,鹿児島市,西陵８丁目２４番２０号,,46,201,8900032,,,,,,,2022-08-24,1,,,,,エイシンコウギョウ,0
663,3360003012251,新規,0,2022-08-24,2022-08-24,合同会社菜々福,,合同会社,沖縄県,うるま市,与那城西原１０２番地１,,47,213,9042302,,,,,,,2022-08-24,1,,,,,ナナフク,0
675,3430001087354,新規,0,2022-08-24,2022-08-24,株式会社ＧＵＣＲＡＦＴ,,株式会社,北海道,札幌市白石区,本通４丁目南８番４号,,01,104,0030026,,,,,,,2022-08-24,1,,,,,ジーユークラフト,0
685,3470003002233,新規,0,2022-08-24,2022-08-24,合同会社縁・ｅｎ,,合同会社,香川県,高松市,十川西町９３４番地１９,,37,201,7610433,,,,,,,2022-08-24,1,,,,,エン,0
690,3500003002881,新規,0,2022-08-24,2022-08-24,合同会社オフィス岡田,,合同会社,愛媛県,新居浜市,中筋町１丁目１４番２５号,,38,205,7920841,,,,,,,2022-08-24,1,,,,,オフィスオカダ,0
691,3700150111498,新規,0,2022-08-24,2022-08-24,ＳＪＫＶ　（ＡＵ）　ＰＴＹ　ＬＴＤ,,外国会社等,東京都,清瀬市,松山１丁目４４－３,,13,221,2040022,ＵＮＩＴ　１６／２８，ＢＥＬＭＯＮＴ　ＡＶＥＮＵＥ，ＲＩＶＥＲＶＡＬＥ，ＷＡ６１０３，ＡＵＳＴＲＡＬＩＡ,,,,,,2022-08-24,1,,,,,エスジエーケーブイエーユーピーテイーワイエルテイーデイー,0
698,4010001228866,新規,0,2022-08-24,2022-08-24,株式会社Ｐｌｕｍ＆Ｃｏ．,,株式会社,東京都,中央区,日本橋室町１丁目１２－１２水島ビル３Ｆ,,13,102,1030022,,,,,,,2022-08-24,1,,,,,プラムコ,0
699,4010001228981,新規,0,2022-08-24,2022-08-24,株式会社ＱＯＬ,,株式会社,東京都,千代田区,神田神保町３丁目２番２８号,,13,101,1010051,,,,,,,2022-08-24,1,,,,,キューオーエル,0
700,4010001229014,新規,0,2022-08-24,2022-08-24,株式会社Ｒｅｆｅａｒｔ,,株式会社,東京都,中央区,銀座１丁目２２番１１号,,13,102,1040061,,,,,,,2022-08-24,1,,,,,レファート,0
703,4010401169000,新規,0,2022-08-24,2022-08-24,株式会社ソニッククリエーション,,株式会社,東京都,港区,六本木４丁目３番２１号,,13,103,1060032,,,,,,,2022-08-24,1,,,,,ソニッククリエーション,0
704,4010401169173,新規,0,2022-08-24,2022-08-24,株式会社堀田慎一事務所,,株式会社,東京都,港区,港南４丁目６番８－２７０５号,,13,103,1080075,,,,,,,2022-08-24,1,,,,,ホッタシンイチジムショ,0
705,4010401169181,新規,0,2022-08-24,2022-08-24,株式会社ｑｏｏｄｉａ,,株式会社,東京都,港区,六本木７丁目７－７トライセブンロッポンギ８階,,13,103,1060032,,,,,,,2022-08-24,1,,,,,クーディア,0
706,4010401169215,新規,0,2022-08-24,2022-08-24,株式会社Ｍｉｔｓｕ　Ｅｌｅｃｔｒｉｃ,,株式会社,東京都,港区,西麻布２丁目２４番３－２０４号,,13,103,1060031,,,,,,,2022-08-24,1,,,,,ミツエレクトリック,0
707,4010401169264,新規,0,2022-08-24,2022-08-24,株式会社ＡＫＩＧＲＩＴ,,株式会社,東京都,港区,南青山３丁目１－３スプライン青山東急ビル,,13,103,1070062,,,,,,,2022-08-24,1,,,,,アキグリット,0
726,4011001149367,新規,0,2022-08-24,2022-08-24,株式会社アクア,,株式会社,東京都,渋谷区,渋谷２丁目１２番１２号三貴ビル２階,,13,113,1500002,,,,,,,2022-08-24,1,,,,,アクア,0
727,4011001149375,新規,0,2022-08-24,2022-08-24,株式会社ネクスト,,株式会社,東京都,渋谷区,渋谷２丁目１９－１５宮益坂ビルディング６０９,,13,113,1500002,,,,,,,2022-08-24,1,,,,,ネクスト,0
729,4011003015237,新規,0,2022-08-24,2022-08-24,ＭＴＤ合同会社,,合同会社,東京都,渋谷区,神宮前２丁目２番３９－１９０２号ＴＨＥＣＯＵＲＴ神宮外苑,,13,113,1500001,,,,,,,2022-08-24,1,,,,,エムティーディー,0
733,4011101099941,新規,0,2022-08-24,2022-08-24,株式会社ＳＵＮ,,株式会社,東京都,新宿区,西新宿３丁目２番９号新宿ワシントンホテルビル本館２Ｆ,,13,104,1600023,,,,,,,2022-08-24,1,,,,,サン,0
734,4011101099958,新規,0,2022-08-24,2022-08-24,Ｒｅｎｄｅｒ　Ｐｏｒｔ株式会社,,株式会社,東京都,新宿区,神楽坂２丁目１３番地,,13,104,1620825,,,,,,,2022-08-24,1,,,,,レンダーポート,0
735,4011101099966,新規,0,2022-08-24,2022-08-24,ＡＳＵｅｅ株式会社,,株式会社,東京都,新宿区,高田馬場１丁目３１番８号高田馬場ダイカンプラザ８２１,,13,104,1690075,,,,,,,2022-08-24,1,,,,,アスイー,0
738,4011201024064,新規,0,2022-08-24,2022-08-24,株式会社Ｓｏｌ．,,株式会社,東京都,中野区,江古田１丁目２８番３号ガーデンハウスエゴタＢ,,13,114,1650022,,,,,,,2022-08-24,1,,,,,ソル,0
744,4011801041186,新規,0,2022-08-24,2022-08-24,株式会社Ｋｏｕｓｈｉｎ住設,,株式会社,東京都,足立区,青井４丁目４７番１０号,,13,121,1210012,,,,,,,2022-08-24,1,,,,,コウシンジュウセツ,0
749,4012801021797,新規,0,2022-08-24,2022-08-24,株式会社ＬＩＦＥ　ＦＵＮ　ＮＥＭＯＴＯ,,株式会社,東京都,東大和市,南街３丁目２５番地の１２－２,,13,220,2070014,,,,,,,2022-08-24,1,,,,,ライフファンネモト,0
755,4013301049552,新規,0,2022-08-24,2022-08-24,株式会社聖坤元,,株式会社,東京都,豊島区,東池袋５丁目７番１号ＤＲＳ第３ビル６０１号室,,13,116,1700013,,,,,,,2022-08-24,1,,,,,セイコンゲン,0
756,4013301049560,新規,0,2022-08-24,2022-08-24,久保株式会社,,株式会社,東京都,豊島区,巣鴨５丁目２３－１５ルリコーポ１０３,,13,116,1700002,,,,,,,2022-08-24,1,,,,,クボ,0
770,4020001147842,新規,0,2022-08-24,2022-08-24,株式会社スピードスター,,株式会社,神奈川県,横浜市西区,高島２丁目１１番２号スカイメナー横浜５１９,,14,103,2200011,,,,,,,2022-08-24,1,,,,,スピードスター,0
771,4020001147909,新規,0,2022-08-24,2022-08-24,株式会社サンテ・エ・ボーテ,,株式会社,神奈川県,横浜市神奈川区,高島台１番地３１,,14,102,2210833,,,,,,,2022-08-24,1,,,,,サンテエボーテ,0
772,4020001147917,新規,0,2022-08-24,2022-08-24,株式会社安田,,株式会社,神奈川県,横浜市神奈川区,沢渡４３番地１ハイツ４３１－２０３号,,14,102,2210844,,,,,,,2022-08-24,1,,,,,ヤスダ,0
774,4020003022283,新規,0,2022-08-24,2022-08-24,合同会社ＳＩＰ,,合同会社,神奈川県,横浜市緑区,白山４丁目４５番２８号,,14,113,2260006,,,,,,,2022-08-24,1,,,,,エスアイピー,0
785,4030003019964,新規,0,2022-08-24,2022-08-24,合同会社ｎｏｍｏｎ,,合同会社,埼玉県,川口市,大字里１４９２番地の４,,11,203,3340005,,,,,,,2022-08-24,1,,,,,ノモン,0
786,4030003020055,新規,0,2022-08-24,2022-08-24,Ａｑｕａ　Ｃｈａｉｎ　Ｃａｐｉｔａｌ合同会社,,合同会社,埼玉県,上尾市,大字瓦葺１９８８番地８ベラージオ２０１,,11,219,3620022,,,,,,,2022-08-24,1,,,,,アクアチェインキャピタル,0
789,4040005021703,新規,0,2022-08-24,2022-08-24,特定非営利活動法人九十九里浜観光振興会,,その他の設立登記法人,千葉県,山武郡九十九里町,田中荒生字浜芝１５９４番地４４,,12,403,2830103,,,,,,,2022-08-24,1,,,,,クジュウクリハマカンコウシンコウカイ,0
796,4070001039572,新規,0,2022-08-24,2022-08-24,株式会社ｄｅｓｓｉｏｎ,,株式会社,群馬県,高崎市,白銀町９番地白銀ビル３Ｆ,,10,202,3700825,,,,,,,2022-08-24,1,,,,,ディジョン,0
799,4070003004599,新規,0,2022-08-24,2022-08-24,合同会社ｇｏｏＤｓｕｎ,,合同会社,群馬県,高崎市,山名町２５０２番地２,,10,202,3701213,,,,,,,2022-08-24,1,,,,,グッドサン,0
800,4080001025150,新規,0,2022-08-24,2022-08-24,株式会社エスサン,,株式会社,静岡県,静岡市葵区,鷹匠２丁目５番５号エクラージュ鷹匠２０２号,,22,101,4200839,,,,,,,2022-08-24,1,,,,,エスサン,0
807,4100003006666,新規,0,2022-08-24,2022-08-24,斑尾ホスピタリティ合同会社,,合同会社,長野県,飯山市,大字飯山１１４９２番地３２１,,20,213,3892253,,,,,,,2022-08-24,1,,,,,マダラオホスピタリティ,0
808,4110001036904,新規,0,2022-08-24,2022-08-24,株式会社Ｌｉｖｅ　Ｓｉｃ,,株式会社,新潟県,上越市,大貫４丁目８番２４号,,15,222,9430893,,,,,,,2022-08-24,1,,,,,リブシック,0
817,4120001248333,新規,0,2022-08-24,2022-08-24,虹定株式会社,,株式会社,大阪府,大阪市生野区,新今里３丁目４番１７号シャトー第４今里１０６Ｂ,,27,116,5440001,,,,,,,2022-08-24,1,,,,,コウテイ,0
821,4120003022331,新規,0,2022-08-24,2022-08-24,合同会社ＢＡＯ　ＭＩＮＨ,,合同会社,大阪府,大阪市港区,南市岡３丁目３番１８号,,27,107,5520011,,,,,,,2022-08-24,1,,,,,バオミン,0
823,4120005023146,新規,0,2022-08-24,2022-08-24,一般財団法人士業育成財団,,その他の設立登記法人,大阪府,大阪市北区,天神橋２丁目５の２５,,27,127,5300041,,,,,,,2022-08-24,1,,,,,シギョウイクセイザイダン,0
842,4130001072492,新規,0,2022-08-24,2022-08-24,エーケーワーク株式会社,,株式会社,京都府,京丹後市,大宮町口大野１９６７番地の５,,26,212,6292501,,,,,,,2022-08-24,1,,,,,エーケーワーク,0
853,4140003018047,新規,0,2022-08-24,2022-08-24,清閑合同会社,,合同会社,兵庫県,神戸市中央区,国香通２丁目２番４－４０５号室,,28,110,6510066,,,,,,,2022-08-24,1,,,,,セイカン,0
863,4180001152653,新規,0,2022-08-24,2022-08-24,日立企画株式会社,,株式会社,愛知県,名古屋市緑区,大高町字西大高畑２５番地,,23,114,4598001,,,,,,,2022-08-24,1,,,,,ヒタチキカク,0
864,4180001152728,新規,0,2022-08-24,2022-08-24,新エトロフ漁業株式会社,,株式会社,愛知県,名古屋市南区,鳥山町２丁目６７番地,,23,112,4570057,,,,,,,2022-08-24,1,,,,,シンエトロフギョギョウ,0
865,4180003024181,新規,0,2022-08-24,2022-08-24,合同会社加藤塗工,,合同会社,愛知県,名古屋市東区,白壁２丁目１１番１３号,,23,102,4610011,,,,,,,2022-08-24,1,,,,,カトウトコウ,0
880,4220003003346,新規,0,2022-08-24,2022-08-24,金沢市道路公園灯メンテナンス合同会社,,合同会社,石川県,金沢市,昭和町１２番６号,,17,201,9200856,,,,,,,2022-08-24,1,,,,,カナザワシドウロコウエントウメンテナンス,0
883,4240001060255,新規,0,2022-08-24,2022-08-24,株式会社ｗｏｌｆｒａｍ,,株式会社,広島県,広島市安佐南区,西原２丁目２０番５－５号,,34,105,7310113,,,,,,,2022-08-24,1,,,,,ウォルフラム,0
894,4290001098662,新規,0,2022-08-24,2022-08-24,錦江国際株式会社,,株式会社,福岡県,福岡市博多区,諸岡６丁目２１番地８号塚本ハイツＡ棟１０１,,40,132,8120894,,,,,,,2022-08-24,1,,,,,キンコウコクサイ,0
895,4290001098670,新規,0,2022-08-24,2022-08-24,福岡ＥＣサイト株式会社,,株式会社,福岡県,福岡市博多区,博多駅前３丁目４番２５号,,40,132,8120011,,,,,,,2022-08-24,1,,,,,フクオカイーシーサイト,0
896,4290001098679,新規,0,2022-08-24,2022-08-24,株式会社エスポワーク,,株式会社,福岡県,福岡市東区,和白丘４丁目６番２６号,,40,131,8110213,,,,,,,2022-08-24,1,,,,,エスポワーク,0
902,4330001030050,新規,0,2022-08-24,2022-08-24,株式会社ＧＬＯＲＩＯＵＳ　ＴＩＭＥ,,株式会社,熊本県,熊本市中央区,神水２丁目１３番３４号,,43,101,8620954,,,,,,,2022-08-24,1,,,,,グロリアスタイム,0
905,4330003009489,新規,0,2022-08-24,2022-08-24,合同会社ＵＴロジスティクス,,合同会社,熊本県,山鹿市,鹿本町来民１７２５番地１,,43,208,8610331,,,,,,,2022-08-24,1,,,,,ユーティーロジスティクス,0
908,4340001024984,新規,0,2022-08-24,2022-08-24,サーブ・バイオファーマ株式会社,,株式会社,鹿児島県,鹿児島市,東郡元町１９番１０－１２０１号,,46,201,8900068,,,,,,,2022-08-24,1,,,,,サーブバイオファーマ,0
914,4360003012259,新規,0,2022-08-24,2022-08-24,合同会社ｉｍａｎｏｒｙ,,合同会社,沖縄県,宮古島市,平良字西里２７番地１０２Ｂ,,47,214,9060012,,,,,,,2022-08-24,1,,,,,イマノリー,0
933,4430001087353,新規,0,2022-08-24,2022-08-24,株式会社イーストアジアジャパン,,株式会社,北海道,札幌市西区,宮の沢四条３丁目１６番２９号,,01,107,0630054,,,,,,,2022-08-24,1,,,,,イーストアジアジャパン,0
938,4500001024415,新規,0,2022-08-24,2022-08-24,せんねん不動産株式会社,,株式会社,愛媛県,松山市,立花５丁目１番４８号,,38,201,7900966,,,,,,,2022-08-24,1,,,,,センネンフドウサン,0
939,4700150111480,新規,0,2022-08-24,2022-08-24,Ｊｅｌｌｙ　ｂｕｔｔｏｎ　ＬＴＤ,,外国会社等,,,,,,,,イスラエル,,,,,,2022-08-24,1,,,,,ジエリーボタンリミテツド,0
947,5010001229038,新規,0,2022-08-24,2022-08-24,株式会社ＧＢＲ,,株式会社,東京都,中央区,晴海３丁目１０番１号,,13,102,1040053,,,,,,,2022-08-24,1,,,,,ジービーアール,0
948,5010003038362,新規,0,2022-08-24,2022-08-24,ＳＥＶＥＮ　ＮＵＴＳ合同会社,,合同会社,東京都,中央区,銀座１丁目２２番１１号,,13,102,1040061,,,,,,,2022-08-24,1,,,,,セブンナッツ,0
949,5010003038486,新規,0,2022-08-24,2022-08-24,合同会社ブルトン,,合同会社,東京都,中央区,日本橋１丁目４番１号,,13,102,1030027,,,,,,,2022-08-24,1,,,,,ブルトン,0
952,5010005035449,新規,0,2022-08-24,2022-08-24,石神井台インベストメントワン一般社団法人,,その他の設立登記法人,東京都,千代田区,九段南３丁目７番７号成和綜合会計事務所内,,13,101,1020074,,,,,,,2022-08-24,1,,,,,シャクジイダイインベストメントワン,0
957,5010401169172,新規,0,2022-08-24,2022-08-24,株式会社アイエルエム・パートナーズ,,株式会社,東京都,港区,新橋１丁目７番２号成瀬ビル４階,,13,103,1050004,,,,,,,2022-08-24,1,,,,,アイエルエムパートナーズ,0
958,5010401169271,新規,0,2022-08-24,2022-08-24,株式会社フオリポルタ,,株式会社,東京都,港区,赤坂６丁目３番８号高松ビルＢ１Ｆ,,13,103,1070052,,,,,,,2022-08-24,1,,,,,フオリポルタ,0
959,5010403028343,新規,0,2022-08-24,2022-08-24,ＯＹＳＴＥＲＳ合同会社,,合同会社,東京都,港区,北青山３丁目５番１４号６階,,13,103,1070061,,,,,,,2022-08-24,1,,,,,オイスターズ,0
960,5010403028351,新規,0,2022-08-24,2022-08-24,ＣＥＳ北海道１太陽光発電所合同会社,,合同会社,東京都,港区,南青山１丁目１番１号新青山ビル西館７階,,13,103,1070062,,,,,,,2022-08-24,1,,,,,シーイーエスホッカイドウイチタイヨウコウハツデンショ,0
964,5010501049274,新規,0,2022-08-24,2022-08-24,株式会社ＬＣ　Ｐａｒｔｎｅｒｓ,,株式会社,東京都,台東区,三筋１丁目５番５号三橋ビル２Ｆ,,13,106,1110055,,,,,,,2022-08-24,1,,,,,エルシーパートナーズ,0
965,5010603009705,新規,0,2022-08-24,2022-08-24,合同会社トポロジー,,合同会社,東京都,墨田区,京島１丁目１番１号イーストコア曳舟Ｉ番館２００２号,00127602,13,107,1310046,,,,,,,2022-08-24,1,,,,,トポロジー,0
971,5011001149358,新規,0,2022-08-24,2022-08-24,Ｓｕｍｍｅｒ　ｂ株式会社,,株式会社,東京都,渋谷区,代々木１丁目７番３号マノアールビル２０１,,13,113,1510053,,,,,,,2022-08-24,1,,,,,サマービー,0
977,5011101099949,新規,0,2022-08-24,2022-08-24,株式会社ＯＴＴ,,株式会社,東京都,新宿区,西新宿３丁目３番１３号西新宿水間ビル２Ｆ,,13,104,1600023,,,,,,,2022-08-24,1,,,,,オーティーティー,0
978,5011101099957,新規,0,2022-08-24,2022-08-24,株式会社ＦＩＫＳ,,株式会社,東京都,新宿区,西新宿４丁目３０番９号,,13,104,1600023,,,,,,,2022-08-24,1,,,,,エフアイケイエス,0
981,5011103012091,新規,0,2022-08-24,2022-08-24,アーチキャピタル合同会社,,合同会社,東京都,新宿区,新宿６丁目２７番２９号コンフォリア新宿イーストサイドタワー６２２,,13,104,1600022,,,,,,,2022-08-24,1,,,,,アーチキャピタル,0
983,5011301028055,新規,0,2022-08-24,2022-08-24,株式会社ディノプロ,,株式会社,東京都,杉並区,大宮２丁目１４番２７号,,13,115,1680061,,,,,,,2022-08-24,1,,,,,ディノプロ,0
985,5011501028409,新規,0,2022-08-24,2022-08-24,株式会社ＴＳコンサルタント,,株式会社,東京都,北区,浮間１丁目１番１４号リムジンビル３４６,,13,117,1150051,,,,,,,2022-08-24,1,,,,,ティーエスコンサルタント,0
1007,5012801021796,新規,0,2022-08-24,2022-08-24,リソーサービス株式会社,,株式会社,東京都,国分寺市,東元町２丁目５番１０号,,13,214,1850022,,,,,,,2022-08-24,1,,,,,リソーサービス,0
1025,5020001147908,新規,0,2022-08-24,2022-08-24,株式会社ＯＥＣ,,株式会社,神奈川県,横浜市旭区,白根８丁目１９番２６号,,14,112,2410005,,,,,,,2022-08-24,1,,,,,オーイーシー,0
1026,5020001147916,新規,0,2022-08-24,2022-08-24,株式会社関口,,株式会社,神奈川県,横浜市南区,永田東１丁目１４番２６号,,14,105,2320072,,,,,,,2022-08-24,1,,,,,セキグチ,0
1030,5020003022282,新規,0,2022-08-24,2022-08-24,セイフテックコンサルタント合同会社,,合同会社,神奈川県,川崎市麻生区,片平３丁目１２番１２号,,14,137,2150023,,,,,,,2022-08-24,1,,,,,セイフテックコンサルタント,0
1043,5030003020054,新規,0,2022-08-24,2022-08-24,合同会社エルユルマズ工業,,合同会社,埼玉県,川口市,元郷６丁目４番１号ヒマワリハイツ３０１号,,11,203,3320011,,,,,,,2022-08-24,1,,,,,エルユルマズコウギョウ,0
1045,5040001124806,新規,0,2022-08-24,2022-08-24,プレジール株式会社,,株式会社,千葉県,船橋市,西船５丁目８番１号,,12,204,2730031,,,,,,,2022-08-24,1,,,,,プレジール,0
1049,5040003020689,新規,0,2022-08-24,2022-08-24,合同会社ＩＭＥＴＨ　ＩＮＴＥＲＮＡＴＩＯＮＡＬ,,合同会社,千葉県,印西市,高西新田１０２番地１,,12,231,2701365,,,,,,,2022-08-24,1,,,,,イメットインターナショナル,0
1051,5050003006778,新規,0,2022-08-24,2022-08-24,合同会社サンライズ,,合同会社,茨城県,土浦市,木田余７０３－１２,,08,203,3000026,,,,,,,2022-08-24,1,,,,,サンライズ,0
1053,5060001035209,新規,0,2022-08-24,2022-08-24,株式会社ＭＩＹＵＫＩ　ＦＯＯＤ　ＣＯＭＰＡＮＹ,,株式会社,栃木県,宇都宮市,兵庫塚３丁目４６番８号坪山ビル１階,,09,201,3210138,,,,,,,2022-08-24,1,,,,,ミユキフードカンパニー,0
1056,5070003004598,新規,0,2022-08-24,2022-08-24,合同会社高崎技術コンサルティング,,合同会社,群馬県,高崎市,弓町１０５番地１,,10,202,3700051,,,,,,,2022-08-24,1,,,,,タカサキギジュツコンサルティング,0
1061,5080401026012,新規,0,2022-08-24,2022-08-24,株式会社ナナティック,,株式会社,静岡県,浜松市中区,中島３丁目２７番７号,,22,131,4300856,,,,,,,2022-08-24,1,,,,,ナナティック,0
1062,5090003002154,新規,0,2022-08-24,2022-08-24,ＴＫ　Ａｕｔｏ　Ｓｅｒｖｉｃｅ合同会社,,合同会社,山梨県,南アルプス市,有野３９３９番地,,19,208,4000226,,,,,,,2022-08-24,1,,,,,ティーケーオートサービス,0
1075,5120001248332,新規,0,2022-08-24,2022-08-24,皆有福株式会社,,株式会社,大阪府,大阪市中央区,松屋町９番２０号ローレルステート松屋町６０２Ｂ,,27,128,5420067,,,,,,,2022-08-24,1,,,,,カイユウフク,0
1076,5120001248365,新規,0,2022-08-24,2022-08-24,株式会社ＣＡＭＰ　ＭＡＮ,,株式会社,大阪府,交野市,東倉治４丁目２３番３号,,27,230,5760061,,,,,,,2022-08-24,1,,,,,キャンプマン,0
1077,5120001248373,新規,0,2022-08-24,2022-08-24,株式会社ＡＲＴＲＡＣＴ,,株式会社,大阪府,大阪市中央区,南久宝寺町１丁目９番１０号,,27,128,5410058,,,,,,,2022-08-24,1,,,,,アートラクト,0
1078,5120003022339,新規,0,2022-08-24,2022-08-24,合同会社ＳＥＶＥＮ,,合同会社,大阪府,大阪市北区,浪花町３－２４ヒシヤビル１階,,27,127,5300022,,,,,,,2022-08-24,1,,,,,セブン,0
1081,5120103004823,新規,0,2022-08-24,2022-08-24,まる工房合同会社,,合同会社,大阪府,松原市,田井城１丁目１２２番地の７,,27,217,5800044,,,,,,,2022-08-24,1,,,,,マルコウボウ,0
1084,5120901046397,新規,0,2022-08-24,2022-08-24,佐藤建設株式会社,,株式会社,大阪府,豊中市,若竹町１丁目３番２３号,,27,203,5610811,,,,,,,2022-08-24,1,,,,,サトウケンセツ,0
1090,5130001072500,新規,0,2022-08-24,2022-08-24,山口造園土木株式会社,,株式会社,京都府,京田辺市,田辺茂ケ谷１３７番地,,26,211,6100331,,,,,,,2022-08-24,1,,,,,ヤマグチゾウエンドボク,0
1094,5130003008122,新規,0,2022-08-24,2022-08-24,合同会社Ｔｉｍｅ,,合同会社,京都府,京都市中京区,材木町１８１番地ニュー京都ビル１０４,,26,104,6048017,,,,,,,2022-08-24,1,,,,,タイム,0
1105,5140003018054,新規,0,2022-08-24,2022-08-24,合同会社光,,合同会社,兵庫県,尼崎市,東難波町３丁目１番２号プレジール東難波１０１,,28,202,6600892,,,,,,,2022-08-24,1,,,,,ヒカリ,0
1112,5180001152727,新規,0,2022-08-24,2022-08-24,株式会社ミラクルホーム,,株式会社,愛知県,愛西市,稲葉町米野２９１番地,,23,232,4960907,,,,,,,2022-08-24,1,,,,,ミラクルホーム,0
1119,5200001040383,新規,0,2022-08-24,2022-08-24,太陽社マニュファクチャリング株式会社,,株式会社,岐阜県,多治見市,小田町６丁目１番地,,21,204,5070023,,,,,,,2022-08-24,1,,,,,タイヨウシャマニュファクチャリング,0
1120,5200001040391,新規,0,2022-08-24,2022-08-24,株式会社大協組,,株式会社,岐阜県,関市,観音前５１番地３,,21,205,5013835,,,,,,,2022-08-24,1,,,,,ダイキョウグミ,0
1126,5230001019499,新規,0,2022-08-24,2022-08-24,もりじ株式会社,,株式会社,富山県,富山市,新屋２番地３,,16,201,9300822,,,,,,,2022-08-24,1,,,,,モリジ,0
1131,5240001060262,新規,0,2022-08-24,2022-08-24,株式会社ＰＥＲＦＯＲＭ,,株式会社,広島県,福山市,西深津町３丁目８番２０－８号,,34,207,7210975,,,,,,,2022-08-24,1,,,,,パフォーム,0
1138,5250001019737,新規,0,2022-08-24,2022-08-24,北浦ドック株式会社,,株式会社,山口県,萩市,大字山田５３２５番地７,,35,204,7580063,,,,,,,2022-08-24,1,,,,,キタウラドック,0
1140,5260001037168,新規,0,2022-08-24,2022-08-24,株式会社天海,,株式会社,岡山県,岡山市南区,大福４０９－２７シャーメゾンガーデンズ大福１０１,,33,104,7010204,,,,,,,2022-08-24,1,,,,,テンカイ,0
1150,5290001098678,新規,0,2022-08-24,2022-08-24,株式会社Ｆｏｒｔｒｅｓｓ,,株式会社,福岡県,福岡市中央区,渡辺通３丁目１０番３９－４０９号,,40,133,8100004,,,,,,,2022-08-24,1,,,,,フォートレス,0
1151,5290001098686,新規,0,2022-08-24,2022-08-24,株式会社Ｓｔｒａｔｏｉｍｍｕｎｅ,,株式会社,福岡県,久留米市,百年公園１番１号,,40,203,8390864,,,,,,,2022-08-24,1,,,,,ストラトイミューン,0
1154,5290003012769,新規,0,2022-08-24,2022-08-24,合同会社ＨＭ　Ｃｏｎｓｕｌｔａｎｃｙ,,合同会社,福岡県,福岡市南区,清水３丁目１１番２０号,,40,134,8150031,,,,,,,2022-08-24,1,,,,,エイチエムコンサルタンシー,0
1158,5320001019291,新規,0,2022-08-24,2022-08-24,株式会社ゼンケン,,株式会社,大分県,大分市,明野高尾２丁目１５番１２号,,44,201,8700162,,,,,,,2022-08-24,1,,,,,ゼンケン,0
1159,5330001030041,新規,0,2022-08-24,2022-08-24,株式会社ＳＭＪ,,株式会社,熊本県,八代市,旭中央通１９－６,,43,202,8660844,,,,,,,2022-08-24,1,,,,,エスエムジェイ,0
1164,5360003012258,新規,0,2022-08-24,2022-08-24,サンエス合同会社,,合同会社,沖縄県,宮古島市,平良字西里２７番地１０４Ｂ,,47,214,9060012,,,,,,,2022-08-24,1,,,,,サンエス,0
1165,5370001048971,新規,0,2022-08-24,2022-08-24,株式会社ＮＡプランニング,,株式会社,宮城県,仙台市青葉区,本町２丁目１０番３３号第二日本オフィスビル９Ｆ８号室,,04,101,9800014,,,,,,,2022-08-24,1,,,,,エヌエイプランニング,0
1168,5380001033064,新規,0,2022-08-24,2022-08-24,株式会社ＡＣＥ,,株式会社,福島県,いわき市,好間町下好間字鬼越１１番地の１,,07,204,9701151,,,,,,,2022-08-24,1,,,,,エース,0
1171,5410003003697,新規,0,2022-08-24,2022-08-24,合同会社バディワン,,合同会社,秋田県,雄勝郡羽後町,字南西馬音内１番地１,,05,463,0121100,,,,,,,2022-08-24,1,,,,,バディワン,0
1172,5410005006483,新規,0,2022-08-24,2022-08-24,一般社団法人ＵＲＳＰ協会,,その他の設立登記法人,秋田県,秋田市,仁井田福島２丁目８番１１号,,05,201,0101432,,,,,,,2022-08-24,1,,,,,ユーアールエスピーキョウカイ,0
1177,5430001087352,新規,0,2022-08-24,2022-08-24,株式会社リ・ボーンズ,,株式会社,北海道,札幌市中央区,南二条東３丁目９－１－８０５,,01,101,0600052,,,,,,,2022-08-24,1,,,,,リボーンズ,0
1183,5460003000913,新規,0,2022-08-24,2022-08-24,合同会社しおんらぽーる,,合同会社,北海道,釧路市,鳥取南８丁目５番３３号,,01,206,0840905,,,,,,,2022-08-24,1,,,,,シオンラポール,0
1184,5460101007240,新規,0,2022-08-24,2022-08-24,株式会社西田製麺,,株式会社,北海道,帯広市,西三条南４丁目１９番地,,01,207,0800013,,,,,,,2022-08-24,1,,,,,ニシダセイメン,0
1190,5480003001868,新規,0,2022-08-24,2022-08-24,合同会社Ｔｗｉｎｓ,,合同会社,徳島県,徳島市,上八万町西山２６２番地,,36,201,7708041,,,,,,,2022-08-24,1,,,,,ツインズ,0
1194,5700150111488,新規,0,2022-08-24,2022-08-24,ＳＭＡＬ　ＳＴＵＦＦ　ＰＴＹ　ＬＴＤ,,外国会社等,長野県,下高井郡野沢温泉村,大字豊郷麻釜８６７３－２－３階,,20,563,3892502,５１　Ｐｒｉｎｃｅｓｓ　Ａｖｅｎｕｅ，ＲＯＳＥＢＥＲＹ　ＮＳＷ　２０１８,,,,,,2022-08-24,1,,,,,,0
1201,6010001228971,新規,0,2022-08-24,2022-08-24,株式会社グローバルスタートアップハブ,,株式会社,東京都,中央区,日本橋茅場町１丁目８番１号茅場町一丁目平和ビル８階ＢｃＨ,,13,102,1030025,,,,,,,2022-08-24,1,,,,,グローバルスタートアップハブ,0
1205,6010003038444,新規,0,2022-08-24,2022-08-24,合同会社Ｘ,,合同会社,東京都,千代田区,東神田２丁目８番１６号,,13,101,1010031,,,,,,,2022-08-24,1,,,,,エックス,0
1206,6010003038477,新規,0,2022-08-24,2022-08-24,ＩＲＩＳ合同会社,,合同会社,東京都,千代田区,丸の内３丁目１番１号東京共同会計事務所内,,13,101,1000005,,,,,,,2022-08-24,1,,,,,アイリス,0
1207,6010003038493,新規,0,2022-08-24,2022-08-24,合同会社ｃｏｍｆｏｒｔＵ,,合同会社,東京都,中央区,銀座１丁目１２番４号Ｎ＆ＥＢＬＤ．６Ｆ,,13,102,1040061,,,,,,,2022-08-24,1,,,,,コンフォーツ,0
1209,6010101015287,新規,0,2022-08-24,2022-08-24,株式会社Ｋ‐Ｓｔｙｌｅ,,株式会社,東京都,八王子市,打越町６６０番地,,13,201,1920911,,,,,,,2022-08-24,1,,,,,ケースタイル,0
1223,6010401169171,新規,0,2022-08-24,2022-08-24,株式会社ＦＵＫＵ,,株式会社,東京都,港区,東麻布１丁目２９－９,,13,103,1060044,,,,,,,2022-08-24,1,,,,,フク,0
1227,6010603009704,新規,0,2022-08-24,2022-08-24,ＡｐｐＥｎｇｉｎｅ合同会社,,合同会社,東京都,江東区,平野２丁目２番３－６０１号,,13,108,1350023,,,,,,,2022-08-24,1,,,,,アップエンジン,0
1230,6010705003407,新規,0,2022-08-24,2022-08-24,一般社団法人全国ビジネスオーナー協会,,その他の設立登記法人,東京都,品川区,大崎１丁目１９－１３－８１０,,13,109,1410032,,,,,,,2022-08-24,1,,,,,ゼンコクビジネスオーナーキョウカイ,0
1237,6010901051465,新規,0,2022-08-24,2022-08-24,株式会社ＫＩＴＡＺＡＷＡ,,株式会社,東京都,世田谷区,下馬３丁目１８番５号,,13,112,1540002,,,,,,,2022-08-24,1,,,,,キタザワ,0
1238,6010901051481,新規,0,2022-08-24,2022-08-24,株式会社パラビアコーポレーション,,株式会社,東京都,世田谷区,太子堂２丁目４番１号メゾンエスペランサ１０２,,13,112,1540004,,,,,,,2022-08-24,1,,,,,パラビアコーポレーション,0
1243,6011001149357,新規,0,2022-08-24,2022-08-24,ジェシー株式会社,,株式会社,東京都,渋谷区,渋谷２丁目１１番１２－５０４Ａ号,,13,113,1500002,,,,,,,2022-08-24,1,,,,,ジェシー,0
1250,6011301028062,新規,0,2022-08-24,2022-08-24,易安樓株式会社,,株式会社,東京都,杉並区,西荻南１丁目２３番１１号,,13,115,1670053,,,,,,,2022-08-24,1,,,,,エキヤスロウ,0
1254,6011503005264,新規,0,2022-08-24,2022-08-24,合同会社ＧＯＲＤＯＮ,,合同会社,東京都,荒川区,荒川３丁目４３番４－１０３号ラ・ブランシュ,,13,118,1160002,,,,,,,2022-08-24,1,,,,,ゴードン,0
1264,6020001147873,新規,0,2022-08-24,2022-08-24,株式会社ＳＡＸＩＹ,,株式会社,神奈川県,川崎市中原区,中丸子１２３７番地１クレッセント武蔵小杉グランデイズ弐番館２０３,,14,133,2110012,,,,,,,2022-08-24,1,,,,,サクシー,0
1269,6021001076831,新規,0,2022-08-24,2022-08-24,ＬＯＮＧ　ＳＴＯＲＹ’Ｚ株式会社,,株式会社,神奈川県,茅ヶ崎市,赤羽根１４３４番地３,,14,207,2530001,,,,,,,2022-08-24,1,,,,,ロングストーリーズ,0
1274,6030001149778,新規,0,2022-08-24,2022-08-24,株式会社スカイときがわ,,株式会社,埼玉県,比企郡ときがわ町,大字大野字勝負平１２５０番１０,,11,349,3550366,,,,,,,2022-08-24,1,,,,,スカイトキガワ,0
1276,6030003020061,新規,0,2022-08-24,2022-08-24,ＭＡＬＣ合同会社,,合同会社,埼玉県,入間市,黒須２丁目６番２２号,,11,225,3580007,,,,,,,2022-08-24,1,,,,,エムエーエルシー,0
1282,6040001124739,新規,0,2022-08-24,2022-08-24,株式会社ネイキッド,,株式会社,千葉県,市川市,国分２丁目２番７号,,12,203,2720834,,,,,,,2022-08-24,1,,,,,ネイキッド,0
1285,6040003020671,新規,0,2022-08-24,2022-08-24,合同会社吉利,,合同会社,千葉県,山武郡横芝光町,尾垂イ３６５６番地７,,12,410,2891725,,,,,,,2022-08-24,1,,,,,ヨシトシ,0
1286,6040005021701,新規,0,2022-08-24,2022-08-24,特定非営利活動法人峰上交通,,その他の設立登記法人,千葉県,富津市,宇藤原３２２番地,,12,226,2991732,,,,,,,2022-08-24,1,,,,,ミネガミコウツウ,0
1289,6050001051577,新規,0,2022-08-24,2022-08-24,株式会社オーサム・ワン,,株式会社,茨城県,守谷市,松ケ丘３丁目２０番地１４,,08,224,3020127,,,,,,,2022-08-24,1,,,,,オーサムワン,0
1290,6050001051585,新規,0,2022-08-24,2022-08-24,ＲＯＹＡＬ　ＬＡＮＫＡ　ＥＸＰＯＲＴ株式会社,,株式会社,茨城県,古河市,関戸８６４番地４,,08,204,3060205,,,,,,,2022-08-24,1,,,,,ロイヤルランカエクスポート,0
1293,6050003006777,新規,0,2022-08-24,2022-08-24,合同会社Ｒ．Ｈ．Ｙ,,合同会社,茨城県,土浦市,木田余７０３－１２,,08,203,3000026,,,,,,,2022-08-24,1,,,,,アールエイチワイ,0
1294,6050003006785,新規,0,2022-08-24,2022-08-24,ＴＥＫＩＴＯ　ＬＡＮＤ合同会社,,合同会社,茨城県,東茨城郡茨城町,大字神谷７７８番地９,,08,302,3113141,,,,,,,2022-08-24,1,,,,,テキトーランド,0
1297,6070001039562,新規,0,2022-08-24,2022-08-24,株式会社モハラ,,株式会社,群馬県,太田市,小舞木町２５番地,,10,205,3730818,,,,,,,2022-08-24,1,,,,,モハラ,0
1299,6080001025149,新規,0,2022-08-24,2022-08-24,グルファ株式会社,,株式会社,静岡県,榛原郡川根本町,上長尾４２１－４,,22,429,4280313,,,,,,,2022-08-24,1,,,,,グルファ,0
1317,6120001248307,新規,0,2022-08-24,2022-08-24,株式会社Ａｓｓｉｓｔ,,株式会社,大阪府,寝屋川市,萱島東３丁目４番９号,,27,215,5720824,,,,,,,2022-08-24,1,,,,,アシスト,0
1318,6120001248389,新規,0,2022-08-24,2022-08-24,株式会社ビリケンアイ,,株式会社,大阪府,大阪市中央区,平野町１丁目６－８メロディーハイム平野町２０２,,27,128,5410046,,,,,,,2022-08-24,1,,,,,ビリケンアイ,0
1319,6120001248414,新規,0,2022-08-24,2022-08-24,株式会社ＲＳＤ工業,,株式会社,大阪府,守口市,大日町２丁目１３番５号,,27,209,5700003,,,,,,,2022-08-24,1,,,,,アールエスディーコウギョウ,0
1322,6120003022338,新規,0,2022-08-24,2022-08-24,合同会社ジュマリ,,合同会社,大阪府,大阪市阿倍野区,旭町１丁目１番２１－９０１号,,27,119,5450051,,,,,,,2022-08-24,1,,,,,ジュマリ,0
1333,6130001072490,新規,0,2022-08-24,2022-08-24,株式会社ＥＮ‐Ｗａｖｅ　ＸＧ,,株式会社,京都府,京都市右京区,嵯峨釈迦堂門前南中院町９番地２７,,26,108,6168424,,,,,,,2022-08-24,1,,,,,エンウェイブエックスジー,0
1341,6170001017252,新規,0,2022-08-24,2022-08-24,株式会社具嶋商事,,株式会社,和歌山県,橋本市,菖蒲谷４６番地の２,,30,203,6480082,,,,,,,2022-08-24,1,,,,,グシマショウジ,0
1347,6180001152726,新規,0,2022-08-24,2022-08-24,株式会社Ｎ‐ＴＲＡＤＩＮＧ,,株式会社,愛知県,名古屋市中村区,森末町２丁目５０番地の３,,23,105,4530052,,,,,,,2022-08-24,1,,,,,エヌトレーディング,0
1353,6190003004073,新規,0,2022-08-24,2022-08-24,合同会社雲のアトリエ,,合同会社,三重県,多気郡大台町,弥起井１５８―２,,24,443,5192405,,,,,,,2022-08-24,1,,,,,クモノソウゴウケンキュウショ,0
1358,6230001019498,新規,0,2022-08-24,2022-08-24,株式会社ＡｎｙＳｉｇｎ,,株式会社,富山県,富山市,婦中町羽根新１０５番地３,,16,201,9392704,,,,,,,2022-08-24,1,,,,,エニーサイン,0
1378,6290001098677,新規,0,2022-08-24,2022-08-24,株式会社日日,,株式会社,福岡県,福岡市早良区,曙１丁目９番２５－１０１号,,40,137,8140004,,,,,,,2022-08-24,1,,,,,ニチニチ,0
1379,6290001098693,新規,0,2022-08-24,2022-08-24,株式会社カフゥ・カンパニー,,株式会社,福岡県,福岡市東区,名島１丁目１５番１０,,40,131,8130043,,,,,,,2022-08-24,1,,,,,カフゥカンパニー,0
1382,6290003012875,新規,0,2022-08-24,2022-08-24,Ｔ‐ＯＮＥ合同会社,,合同会社,福岡県,福岡市南区,野多目３丁目２番１－１２０３号,,40,134,8111347,,,,,,,2022-08-24,1,,,,,ティーワン,0
1384,6290801028833,新規,0,2022-08-24,2022-08-24,株式会社ＳＥＡＥＬ‐Ｄ,,株式会社,福岡県,北九州市八幡西区,上上津役１丁目２４番１号,,40,109,8070072,,,,,,,2022-08-24,1,,,,,シールディー,0
1395,6360003012257,新規,0,2022-08-24,2022-08-24,宮古３９合同会社,,合同会社,沖縄県,宮古島市,平良字西里２７番地１０４Ａ,,47,214,9060012,,,,,,,2022-08-24,1,,,,,ミヤコサンキュウ,0
1411,6470001019227,新規,0,2022-08-24,2022-08-24,セトイン株式会社,,株式会社,香川県,丸亀市,本島町笠島３８０－１,,37,202,7630221,,,,,,,2022-08-24,1,,,,,,0
1414,6500001024421,新規,0,2022-08-24,2022-08-24,株式会社愛媛協和住宅,,株式会社,愛媛県,松山市,北条辻１１５９番地１３,00127604,38,201,7992430,,,,,,,2022-08-24,1,,,,,エヒメキョウワジュウタク,0
1426,7010001228987,新規,0,2022-08-24,2022-08-24,株式会社ヌードルバンク,,株式会社,東京都,文京区,千駄木３丁目５０番１４－１００２号,,13,105,1130022,,,,,,,2022-08-24,1,,,,,ヌードルバンク,0
1427,7010001228995,新規,0,2022-08-24,2022-08-24,イアンノット株式会社,,株式会社,東京都,中央区,銀座１丁目２２番１１号,,13,102,1040061,,,,,,,2022-08-24,1,,,,,イアンノット,0
1429,7010003038492,新規,0,2022-08-24,2022-08-24,合同会社ｍｉｎｅ　ｈｅａｒｔ,,合同会社,東京都,中央区,銀座１丁目２２番１１号,,13,102,1040061,,,,,,,2022-08-24,1,,,,,マインハート,0
1430,7010005035447,新規,0,2022-08-24,2022-08-24,一般社団法人未来人材ベンチャーイノベーション,,その他の設立登記法人,東京都,中央区,八丁堀３丁目１８番１１号,,13,102,1040032,,,,,,,2022-08-24,1,,,,,ミライジンザイベンチャーイノベーション,0
1438,7010401169055,新規,0,2022-08-24,2022-08-24,監査役ＤＸ株式会社,,株式会社,東京都,港区,浜松町２丁目２番１５号浜松町ダイヤビル２Ｆ,,13,103,1050013,,,,,,,2022-08-24,1,,,,,カンサヤクディーエックス,0
1442,7010403028259,新規,0,2022-08-24,2022-08-24,合同会社Ｒｙｏｋｉｔｅ,,合同会社,東京都,港区,南麻布３丁目２１－１４フロンティアレジデンス南麻布７０８,,13,103,1060047,,,,,,,2022-08-24,1,,,,,リョウカイト,0
1443,7010403028333,新規,0,2022-08-24,2022-08-24,Ｗｅｒｔｅｌｌ合同会社,,合同会社,東京都,港区,北青山２丁目７番２０号猪瀬ビル２Ｆ,,13,103,1070061,,,,,,,2022-08-24,1,,,,,ワーテル,0
1444,7010403028341,新規,0,2022-08-24,2022-08-24,パシフィックソーラーパーク合同会社,,合同会社,東京都,港区,麻布十番２丁目８番１６号ＩＳＩビル５階,,13,103,1060045,,,,,,,2022-08-24,1,,,,,パシフィックソーラーパーク,0
1448,7010501049272,新規,0,2022-08-24,2022-08-24,株式会社トラストマネジメントサービス,,株式会社,東京都,台東区,竜泉３丁目３９番１０号,,13,106,1100012,,,,,,,2022-08-24,1,,,,,トラストマネジメントサービス,0
1449,7010603009703,新規,0,2022-08-24,2022-08-24,Ｓｏｌｏ　Ｂｒａｎｄｓ　Ｊａｐａｎ合同会社,,合同会社,東京都,江東区,豊洲６丁目２番３１－１９１７号,,13,108,1350061,,,,,,,2022-08-24,1,,,,,ソロブランズジャパン,0
1467,7011001149364,新規,0,2022-08-24,2022-08-24,株式会社レンズ,,株式会社,東京都,渋谷区,上原３丁目２９番１号,,13,113,1510064,,,,,,,2022-08-24,1,,,,,レンズ,0
1469,7011005009671,新規,0,2022-08-24,2022-08-24,一般社団法人みらいＤＸ推進協会,,その他の設立登記法人,東京都,渋谷区,渋谷２丁目１９番１５号宮益坂ビルディング６０９,,13,113,1500002,,,,,,,2022-08-24,1,,,,,ミライディーエックススイシンキョウカイ,0
1472,7011301028045,新規,0,2022-08-24,2022-08-24,ウエブン教材株式会社,,株式会社,東京都,杉並区,高円寺北３丁目２５番５号アルサーテ３０２,,13,115,1660002,,,,,,,2022-08-24,1,,,,,ウエブンキョウザイ,0
1475,7011601026194,新規,0,2022-08-24,2022-08-24,株式会社ねこＬａｂｏｒａｔｏｒｙ,,株式会社,東京都,練馬区,南大泉１丁目２４番８号１Ｆ,,13,120,1780064,,,,,,,2022-08-24,1,,,,,ネコラボラトリー,0
1492,7020001147906,新規,0,2022-08-24,2022-08-24,株式会社ミヤウチ,,株式会社,神奈川県,横浜市青葉区,もえぎ野１８番地１３アンジェレ藤が丘３０３,,14,117,2270044,,,,,,,2022-08-24,1,,,,,ミヤウチ,0
1496,7020003022264,新規,0,2022-08-24,2022-08-24,ＳＵＮＬＵＡＮＡ合同会社,,合同会社,神奈川県,川崎市幸区,中幸町２丁目２４,,14,132,2120012,,,,,,,2022-08-24,1,,,,,サンルアナ,0
1497,7020003022289,新規,0,2022-08-24,2022-08-24,合同会社Ｈａｋｕｔａｋｕｕ,,合同会社,神奈川県,横浜市西区,高島２丁目１１番２号スカイメナー横浜５１９,,14,103,2200011,,,,,,,2022-08-24,1,,,,,ハクタクウ,0
1498,7020005015638,新規,0,2022-08-24,2022-08-24,一般社団法人障碍者家族の財産相談窓口,,その他の設立登記法人,神奈川県,横浜市港北区,大豆戸町６３６番地２コンフォート・パレス菊名ウエストコート６０５号室,,14,109,2220032,,,,,,,2022-08-24,1,,,,,ショウガイシャカゾクノザイサンソウダンマドグチ,0
1505,7021001076806,新規,0,2022-08-24,2022-08-24,株式会社ｍｓｃ,,株式会社,神奈川県,相模原市南区,東林間１丁目１６番１２－７０３号,,14,153,2520311,,,,,,,2022-08-24,1,,,,,エムエスシー,0
1521,7040001124770,新規,0,2022-08-24,2022-08-24,株式会社小堀瓦店,,株式会社,千葉県,船橋市,松が丘４丁目３１番１２号,,12,204,2740064,,,,,,,2022-08-24,1,,,,,コホリカワラテン,0
1527,7040003020695,新規,0,2022-08-24,2022-08-24,合同会社Ｃｏｍｆｅｅｐ,,合同会社,千葉県,白井市,西白井２丁目９番地５,,12,232,2701408,,,,,,,2022-08-24,1,,,,,コンフィープ,0
1529,7060001035207,新規,0,2022-08-24,2022-08-24,株式会社宮の杜,,株式会社,栃木県,栃木市,平柳町１丁目２３番２６号,,09,203,3280012,,,,,,,2022-08-24,1,,,,,ミヤノモリ,0
1534,7070005010031,新規,0,2022-08-24,2022-08-24,社会保険労務士法人佐田労務管理,,その他の設立登記法人,群馬県,みどり市,笠懸町鹿３２３０番地,,10,212,3792313,,,,,,,2022-08-24,1,,,,,サタロウムカンリ,0
1539,7110001036901,新規,0,2022-08-24,2022-08-24,株式会社上越建設,,株式会社,新潟県,上越市,大字稲谷１０４５番地,,15,222,9430425,,,,,,,2022-08-24,1,,,,,ジョウエツケンセツ,0
1550,7120001248306,新規,0,2022-08-24,2022-08-24,櫻之美株式会社,,株式会社,大阪府,大阪市東成区,深江北３丁目４番２１号エクラ深江橋２０１Ｂ,,27,115,5370001,,,,,,,2022-08-24,1,,,,,サクラノビ,0
1551,7120001248330,新規,0,2022-08-24,2022-08-24,莫尼特株式会社,,株式会社,大阪府,大阪市東成区,深江北３丁目４番２１号エクラ深江橋４１０Ｂ,,27,115,5370001,,,,,,,2022-08-24,1,,,,,バクニトク,0
1552,7120001248355,新規,0,2022-08-24,2022-08-24,いろは不動産株式会社,,株式会社,大阪府,大阪市港区,南市岡３丁目８番２５号,,27,107,5520011,,,,,,,2022-08-24,1,,,,,イロハフドウサン,0
1553,7120001248371,新規,0,2022-08-24,2022-08-24,株式会社シェア経理,,株式会社,大阪府,大阪市中央区,南船場２丁目６番１０号,,27,128,5420081,,,,,,,2022-08-24,1,,,,,シェアケイリ,0
1554,7120001248446,新規,0,2022-08-24,2022-08-24,株式会社シンクロワークス,,株式会社,大阪府,大阪市東成区,東今里１丁目４番１５号,,27,115,5370011,,,,,,,2022-08-24,1,,,,,シンクロワークス,0
1567,7130003008145,新規,0,2022-08-24,2022-08-24,合同会社ワールド,,合同会社,京都府,京都市下京区,和泉屋町１６３番地１木屋町ビル３０１,,26,106,6008014,,,,,,,2022-08-24,1,,,,,ワールド,0
1571,7140001127177,新規,0,2022-08-24,2022-08-24,トータルウェルネス神戸株式会社,,株式会社,兵庫県,神戸市垂水区,日向２丁目１番１６－６０１号,,28,108,6550893,,,,,,,2022-08-24,1,,,,,トータルウェルネスコウベ,0
1586,7190001029699,新規,0,2022-08-24,2022-08-24,日本未来株式会社,,株式会社,三重県,桑名郡木曽岬町,大字西対海地３０９番地,,24,303,4980807,,,,,,,2022-08-24,1,,,,,ニホンミライ,0
1597,7230001019497,新規,0,2022-08-24,2022-08-24,ＤＩＮＡＳ株式会社,,株式会社,富山県,射水市,太閤町７３番地グリーンヒルズ２０１,,16,211,9390361,,,,,,,2022-08-24,1,,,,,ディナス,0
1605,7240001060252,新規,0,2022-08-24,2022-08-24,ＯＨＫＵＲＡ興産株式会社,,株式会社,広島県,尾道市,西藤町１９２５番地１５,,34,205,7290142,,,,,,,2022-08-24,1,,,,,オークラコウサン,0
1608,7240003005759,新規,0,2022-08-24,2022-08-24,リパブリックマネージメント合同会社,,合同会社,広島県,広島市東区,光町１丁目６番１７号光町ハイム１０６,,34,102,7320052,,,,,,,2022-08-24,1,,,,,リパブリックマネージメント,0
1610,7260001037166,新規,0,2022-08-24,2022-08-24,株式会社Ｎ設計,,株式会社,岡山県,倉敷市,西阿知町４７番地１２,,33,202,7100807,,,,,,,2022-08-24,1,,,,,エヌセッケイ,0
1615,7290001098635,新規,0,2022-08-24,2022-08-24,株式会社ＫＹＴ,,株式会社,福岡県,筑後市,大字野町８０５－５アウローラ弐番館１０１号,,40,211,8330032,,,,,,,2022-08-24,1,,,,,ケイワイティー,0
1616,7290001098676,新規,0,2022-08-24,2022-08-24,株式会社ｅｎｎｅ,,株式会社,福岡県,福岡市西区,姪の浜５丁目２２番２２号,,40,135,8190002,,,,,,,2022-08-24,1,,,,,エンネ,0
1639,7340003003884,新規,0,2022-08-24,2022-08-24,合同会社ＥＢＩ　ＨＯＭＥ,,合同会社,鹿児島県,姶良市,松原町２丁目８番地２２,,46,225,8995422,,,,,,,2022-08-24,1,,,,,エビホーム,0
1640,7360003012256,新規,0,2022-08-24,2022-08-24,合同会社ＭＩＮＡＭＩ,,合同会社,沖縄県,中頭郡読谷村,字大湾４４２番地１,,47,324,9040313,,,,,,,2022-08-24,1,,,,,ミナミ,0
1643,7400001015982,新規,0,2022-08-24,2022-08-24,株式会社ＡＴＲＥ,,株式会社,岩手県,盛岡市,月が丘１丁目２８番２６号,,03,201,0200121,,,,,,,2022-08-24,1,,,,,,0
1653,7430001087342,新規,0,2022-08-24,2022-08-24,大＿株式会社,00127600,株式会社,北海道,伊達市,弄月町４２番地４３,,01,233,0520013,,,,,,,2022-08-24,1,,,,,タイセイ,0
1655,7430003014204,新規,0,2022-08-24,2022-08-24,合同会社ＤＥＮ　ＰＬＡＮ,,合同会社,北海道,岩見沢市,一条東４丁目２番地５,,01,210,0680001,,,,,,,2022-08-24,1,,,,,デンプラン,0
1657,7470001019226,新規,0,2022-08-24,2022-08-24,株式会社ＭＲ．ＨＡＮＤＭＡＮ,,株式会社,香川県,善通寺市,金蔵寺町１０８５番地３,,37,204,7650031,,,,,,,2022-08-24,1,,,,,ミスターハンドマン,0
1667,8010001228912,新規,0,2022-08-24,2022-08-24,アクティブライフ株式会社,,株式会社,東京都,中央区,新川１丁目２６番１６－７０３号,,13,102,1040033,,,,,,,2022-08-24,1,,,,,アクティブライフ,0
1668,8010001228978,新規,0,2022-08-24,2022-08-24,株式会社マナビバ,,株式会社,東京都,中央区,銀座１丁目２２番１１号銀座大竹ビジデンス２階,,13,102,1040061,,,,,,,2022-08-24,1,,,,,マナビバ,0
1671,8010003038483,新規,0,2022-08-24,2022-08-24,斑尾開発合同会社,,合同会社,東京都,中央区,銀座１丁目６番１１号土志田ビルディング３Ｆ,,13,102,1040061,,,,,,,2022-08-24,1,,,,,マダラオカイハツ,0
1672,8010003038491,新規,0,2022-08-24,2022-08-24,安那投資合同会社,,合同会社,東京都,中央区,佃１丁目１１番９号シティフロントタワー２４０３,,13,102,1040051,,,,,,,2022-08-24,1,,,,,アンナトウシ,0
1673,8010005035470,新規,0,2022-08-24,2022-08-24,一般社団法人ブルトン,,その他の設立登記法人,東京都,中央区,日本橋１丁目４番１号,,13,102,1030027,,,,,,,2022-08-24,1,,,,,ブルトン,0
1678,8010401169186,新規,0,2022-08-24,2022-08-24,株式会社Ｌａｆｔｉｖｅ,,株式会社,東京都,港区,芝４丁目７番６号芝ビルディング７０４,,13,103,1080014,,,,,,,2022-08-24,1,,,,,ラフティブ,0
1679,8010401169252,新規,0,2022-08-24,2022-08-24,株式会社おっさんず１１,,株式会社,東京都,港区,台場１丁目３番４－３００２号,,13,103,1350091,,,,,,,2022-08-24,1,,,,,オッサンズイレブン,0
1682,8010403028290,新規,0,2022-08-24,2022-08-24,合同会社ｓｈｔ,,合同会社,東京都,港区,南青山２丁目２番１５号,,13,103,1070062,,,,,,,2022-08-24,1,,,,,エスエイチティ,0
1684,8010505003332,新規,0,2022-08-24,2022-08-24,一般社団法人ＦＰＶドローン協会,,その他の設立登記法人,東京都,台東区,台東１丁目８番５号秋葉原ラボ,,13,106,1100016,,,,,,,2022-08-24,1,,,,,エフピーブイドローンキョウカイ,0
1701,8011101099938,新規,0,2022-08-24,2022-08-24,株式会社モアザンワーズ,,株式会社,東京都,新宿区,西新宿３丁目７番１号新宿パークタワー３０階,,13,104,1600023,,,,,,,2022-08-24,1,,,,,モアザンワーズ,0
1710,8012701017215,新規,0,2022-08-24,2022-08-24,株式会社ＲＩＳＥ２３,,株式会社,東京都,東村山市,秋津町４丁目１６番地１６４,,13,213,1890001,,,,,,,2022-08-24,1,,,,,ライズツースリー,0
1718,8020001147888,新規,0,2022-08-24,2022-08-24,株式会社ｄｉｇｉｔａｌＡ,,株式会社,神奈川県,横浜市瀬谷区,宮沢１丁目２５番地３７,,14,114,2460038,,,,,,,2022-08-24,1,,,,,デジタルエー,0
1719,8020001147913,新規,0,2022-08-24,2022-08-24,ＳＢＨＪＡＰＡＮ株式会社,,株式会社,神奈川県,横浜市西区,西戸部町２丁目１３３番地１４メゾン藤本１０２号,,14,103,2200046,,,,,,,2022-08-24,1,,,,,エスビーエイチジャパン,0
1728,8021001076821,新規,0,2022-08-24,2022-08-24,株式会社６６ＨＥＲＯＥＳ,,株式会社,神奈川県,藤沢市,片瀬目白山１－８－７,,14,205,2510034,,,,,,,2022-08-24,1,,,,,ロクロクヒーローズ,0
1729,8021001076838,新規,0,2022-08-24,2022-08-24,株式会社おともや,,株式会社,神奈川県,鎌倉市,山ノ内３０９－９,,14,204,2470062,,,,,,,2022-08-24,1,,,,,オトモヤ,0
1739,8030003020068,新規,0,2022-08-24,2022-08-24,ラクーン合同会社,,合同会社,埼玉県,戸田市,笹目３丁目６－９,,11,224,3350034,,,,,,,2022-08-24,1,,,,,ラクーン,0
1748,8040003020439,新規,0,2022-08-24,2022-08-24,ＣＡＭＡＲＡＤＥ合同会社,,合同会社,千葉県,浦安市,明海５丁目２パークシティ新浦安Ｄ－１２０１,,12,227,2790014,,,,,,,2022-08-24,1,,,,,カマラード,0
1749,8040003020678,新規,0,2022-08-24,2022-08-24,合同会社ミドルアース,,合同会社,千葉県,浦安市,明海５丁目３番Ｂ－３０４号グランファースト新浦安,,12,227,2790014,,,,,,,2022-08-24,1,,,,,ミドルアース,0
1751,8040005021708,新規,0,2022-08-24,2022-08-24,特定非営利活動法人ＬＥＣＪａｐａｎ,,その他の設立登記法人,千葉県,山武郡横芝光町,中台８４６番地４,,12,410,2891741,,,,,,,2022-08-24,1,,,,,エルイーシージャパン,0
1753,8050001051567,新規,0,2022-08-24,2022-08-24,株式会社中村不動産,,株式会社,茨城県,坂東市,大崎２４６番地の２,,08,228,3060622,,,,,,,2022-08-24,1,,,,,ナカムラフドウサン,0
1754,8050001051583,新規,0,2022-08-24,2022-08-24,エンコネクト株式会社,,株式会社,茨城県,つくば市,飯田２８４番地２,,08,220,3050874,,,,,,,2022-08-24,1,,,,,エンコネクト,0
1758,8060001035197,新規,0,2022-08-24,2022-08-24,株式会社Ｗｉｎｋ,,株式会社,栃木県,佐野市,中町６２３番地２,,09,204,3270504,,,,,,,2022-08-24,1,,,,,ウィンク,0
1763,8070001039569,新規,0,2022-08-24,2022-08-24,株式会社くるまのマエバシ,,株式会社,群馬県,前橋市,平和町２丁目１０番１１号,,10,201,3710027,,,,,,,2022-08-24,1,,,,,クルマノマエバシ,0
1769,8090001017746,新規,0,2022-08-24,2022-08-24,株式会社ＴＨセカンド,,株式会社,山梨県,中巨摩郡昭和町,西条９９番地３,,19,384,4093866,,,,,,,2022-08-24,1,,,,,ティーエイチセカンド,0
1771,8100001035639,新規,0,2022-08-24,2022-08-24,はじめ商事株式会社,,株式会社,長野県,塩尻市,大字堀ノ内２５０番地１,,20,215,3990714,,,,,,,2022-08-24,1,,,,,ハジメショウジ,0
1787,8120001248230,新規,0,2022-08-24,2022-08-24,株式会社梧桐三島,,株式会社,大阪府,大阪市淀川区,三津屋北１丁目３４－２水月２Ｆ,,27,123,5320032,,,,,,,2022-08-24,1,,,,,ゴトウミシマ,0
1788,8120001248305,新規,0,2022-08-24,2022-08-24,徳作株式会社,00127601,株式会社,大阪府,大阪市生野区,新今里３丁目４番１７号シャトー第４今里３１３Ｂ,,27,116,5440001,,,,,,,2022-08-24,1,,,,,トクサク,0
1789,8120001248379,新規,0,2022-08-24,2022-08-24,株式会社結弦,,株式会社,大阪府,大阪市中央区,久太郎町１丁目５番１３号,,27,128,5410056,,,,,,,2022-08-24,1,,,,,ユヅル,0
1790,8120001248395,新規,0,2022-08-24,2022-08-24,株式会社サスティナブルキッチン,,株式会社,大阪府,大阪市東住吉区,桑津３丁目２６番２号,,27,121,5460041,,,,,,,2022-08-24,1,,,,,サスティナブルキッチン,0
1791,8120001248404,新規,0,2022-08-24,2022-08-24,ＶＩＲＡ株式会社,,株式会社,大阪府,大阪市生野区,鶴橋２丁目１４－１４,,27,116,5440031,,,,,,,2022-08-24,1,,,,,ヴィラ,0
1792,8120003022336,新規,0,2022-08-24,2022-08-24,スリーピース合同会社,,合同会社,大阪府,枚方市,南楠葉１丁目６番８号プレザントハウスビル１０４号,,27,210,5731105,,,,,,,2022-08-24,1,,,,,スリーピース,0
1795,8120005023150,新規,0,2022-08-24,2022-08-24,特定非営利活動法人大阪・うなぎの森植樹実行委員会,,その他の設立登記法人,大阪府,大阪市住之江区,平林南１丁目１番８号,,27,125,5590025,,,,,,,2022-08-24,1,,,,,オオサカウナギノモリショクジュジッコウイインカイ,0
1825,8180001152732,新規,0,2022-08-24,2022-08-24,株式会社Ｔｉｍ’ｓ,,株式会社,愛知県,名古屋市東区,相生町７８番地主税ビル６０５,,23,102,4610012,,,,,,,2022-08-24,1,,,,,ティムズ,0
1826,8180001152740,新規,0,2022-08-24,2022-08-24,株式会社Ｌｉｌｙ　Ｋ,,株式会社,愛知県,名古屋市昭和区,五軒家町２８番地７,,23,107,4660838,,,,,,,2022-08-24,1,,,,,リリーケイ,0
1834,8200003005646,新規,0,2022-08-24,2022-08-24,ＳＧナーシング合同会社,,合同会社,岐阜県,多治見市,美坂町８丁目１２番地の２,,21,204,5070803,,,,,,,2022-08-24,1,,,,,エスジーナーシング,0
1840,8240001060251,新規,0,2022-08-24,2022-08-24,株式会社ＩＭサポート,,株式会社,広島県,広島市西区,高須台２丁目６番７号,,34,104,7330876,,,,,,,2022-08-24,1,,,,,アイエムサポート,0
1860,8290801028831,新規,0,2022-08-24,2022-08-24,馬場商店株式会社,,株式会社,福岡県,北九州市若松区,本町１丁目６－８,,40,103,8080034,,,,,,,2022-08-24,1,,,,,ババショウテン,0
1861,8300001013046,新規,0,2022-08-24,2022-08-24,株式会社ＴＭＫ,,株式会社,佐賀県,佐賀市,水ヶ江３丁目１０番１号,,41,201,8400054,,,,,,,2022-08-24,1,,,,,ティーエムケイ,0
1867,8360003012255,新規,0,2022-08-24,2022-08-24,合同会社イサラ農産,,合同会社,沖縄県,宮古島市,城辺字福里２７２番地３,,47,214,9060103,,,,,,,2022-08-24,1,,,,,イサラノウサン,0
1870,8370001048969,新規,0,2022-08-24,2022-08-24,株式会社手島資産管理,,株式会社,宮城県,仙台市青葉区,八幡１丁目９番１４号,,04,101,9800871,,,,,,,2022-08-24,1,,,,,テシマシサンカンリ,0
1880,8430003014203,新規,0,2022-08-24,2022-08-24,合同会社聚楽,,合同会社,北海道,札幌市中央区,南三条西２０丁目２－８,,01,101,0640803,,,,,,,2022-08-24,1,,,,,ジュラク,0
1882,8480005006912,新規,0,2022-08-24,2022-08-24,一般社団法人次世代教習所共創コンソーシアム,,その他の設立登記法人,徳島県,徳島市,南田宮２丁目４番３号,,36,201,7700004,,,,,,,2022-08-24,1,,,,,ジセダイキョウシュウジョキョウソウコンソーシアム,0
1883,8490002013415,新規,0,2022-08-24,2022-08-24,永森木材有限会社,,有限会社,高知県,長岡郡大豊町,西峰４０６番地,,39,344,7890300,,,,,,,2022-08-24,1,,,,,ナガモリモクザイ,0
1895,9010001228985,新規,0,2022-08-24,2022-08-24,株式会社かるがもアセットマネジメント,,株式会社,東京都,文京区,本郷１丁目３０番２７－１２１１号,,13,105,1130033,,,,,,,2022-08-24,1,,,,,カルガモアセットマネジメント,0
1896,9010001228993,新規,0,2022-08-24,2022-08-24,ニーハイメディア株式会社,,株式会社,東京都,中央区,日本橋兜町６番５号,,13,102,1030026,,,,,,,2022-08-24,1,,,,,ニーハイメディア,0
1897,9010001229026,新規,0,2022-08-24,2022-08-24,伊欣泰株式会社,,株式会社,東京都,文京区,白山３丁目４番１２－１０８号,,13,105,1120001,,,,,,,2022-08-24,1,,,,,イキンタイ,0
1901,9010003038474,新規,0,2022-08-24,2022-08-24,Ｐａｃｋｅｔ　Ｉｎｓｔｉｔｕｔｅ合同会社,,合同会社,東京都,文京区,本郷１丁目５番１７号,,13,105,1130033,,,,,,,2022-08-24,1,,,,,パケットインスティテュート,0
1912,9010401169268,新規,0,2022-08-24,2022-08-24,株式会社ＡＳＡ,,株式会社,東京都,港区,高輪３丁目１２番８号,,13,103,1080074,,,,,,,2022-08-24,1,,,,,アサ,0
1913,9010401169276,新規,0,2022-08-24,2022-08-24,Ｇｏｌｄｅｎ　Ｈｏｕｒ株式会社,,株式会社,東京都,港区,六本木２丁目２番７－９０２号,,13,103,1060032,,,,,,,2022-08-24,1,,,,,ゴールデンアワー,0
1914,9010403028257,新規,0,2022-08-24,2022-08-24,合同会社太陽,,合同会社,東京都,港区,芝浦３丁目２０番７－８０２号,,13,103,1080023,,,,,,,2022-08-24,1,,,,,タイヨウ,0
1916,9010405021276,新規,0,2022-08-24,2022-08-24,一般社団法人不動産安心相談センター,,その他の設立登記法人,東京都,港区,麻布十番１丁目５番７号第一長門ビル３０２,,13,103,1060045,,,,,,,2022-08-24,1,,,,,フドウサンアンシンソウダンセンター,0
1922,9010603009701,新規,0,2022-08-24,2022-08-24,ＡＹＡＹＡ合同会社,,合同会社,東京都,江東区,東砂７丁目１８－２－１０３,,13,108,1360074,,,,,,,2022-08-24,1,,,,,アヤヤ,0
1931,9010801033222,新規,0,2022-08-24,2022-08-24,のうづか経営コンサルティング株式会社,,株式会社,東京都,大田区,西馬込２丁目６番２４号,,13,111,1430026,,,,,,,2022-08-24,1,,,,,ノウヅカケイエイコンサルティング,0
1935,9011001149379,新規,0,2022-08-24,2022-08-24,Ｐｅｅｂａ　Ｊａｐａｎ株式会社,,株式会社,東京都,渋谷区,渋谷２丁目１９番１５号宮益坂ビルディング６０９,,13,113,1500002,,,,,,,2022-08-24,1,,,,,ピーバジャパン,0
1936,9011001149387,新規,0,2022-08-24,2022-08-24,株式会社ＥＧＨＡＭ,,株式会社,東京都,目黒区,目黒１丁目４番１６号目黒Ｇビル７階,,13,110,1530063,,,,,,,2022-08-24,1,,,,,エガム,0
1937,9011001149395,新規,0,2022-08-24,2022-08-24,株式会社ホロン,,株式会社,東京都,渋谷区,恵比寿４丁目２０番４号恵比寿ガーデンプレイスグラススクエアＢ１階ＰＯＴＡＬＰＯＩＮＴ－Ｅｂｉｓ－,,13,113,1500013,,,,,,,2022-08-24,1,,,,,ホロン,0
1940,9011003015100,新規,0,2022-08-24,2022-08-24,プラスマジック合同会社,,合同会社,東京都,渋谷区,渋谷２丁目１９－１５宮益坂ビルディング６０９,,13,113,1500002,,,,,,,2022-08-24,1,,,,,プラスマジック,0
1941,9011003015265,新規,0,2022-08-24,2022-08-24,合同会社プレジャーＫＥＩＲＩＮ,,合同会社,東京都,目黒区,上目黒４丁目２３番９,,13,110,1530051,,,,,,,2022-08-24,1,,,,,プレジャーケイリン,0
1945,9011101099937,新規,0,2022-08-24,2022-08-24,クルーズワークス株式会社,,株式会社,東京都,新宿区,下宮比町２番２８号飯田橋ハイタウン７０７,,13,104,1620822,,,,,,,2022-08-24,1,,,,,クルーズワークス,0
1946,9011101099945,新規,0,2022-08-24,2022-08-24,Ｂｒｏｏｋｌｙｎ株式会社,,株式会社,東京都,新宿区,高田馬場２丁目１番１号,,13,104,1690075,,,,,,,2022-08-24,1,,,,,ブルックリン,0
1947,9011101099953,新規,0,2022-08-24,2022-08-24,汕湾総合サービス株式会社,,株式会社,東京都,新宿区,新宿２丁目２番１０号サニープラザ新宿御苑５０２号,,13,104,1600022,,,,,,,2022-08-24,1,,,,,サンワンソウゴウサービス,0
1948,9011101099961,新規,0,2022-08-24,2022-08-24,ワイアセット株式会社,,株式会社,東京都,新宿区,荒木町１９番地８,,13,104,1600007,,,,,,,2022-08-24,1,,,,,ワイアセット,0
1950,9011103012096,新規,0,2022-08-24,2022-08-24,合同会社ＷａＴ,,合同会社,東京都,新宿区,北新宿１丁目２８番１４号,,13,104,1690074,,,,,,,2022-08-24,1,,,,,ワット,0
1951,9011201024043,新規,0,2022-08-24,2022-08-24,株式会社こうかはばつぐんだ,,株式会社,東京都,中野区,松が丘１丁目２８番１６号カスティーロ松が丘２０２号,,13,114,1650024,,,,,,,2022-08-24,1,,,,,コウカハバツグンダ,0
1955,9011703003239,新規,0,2022-08-24,2022-08-24,ＯＴＳ　ＮＥＸＴ合同会社,,合同会社,東京都,江戸川区,南葛西５丁目１６番１号,,13,123,1340085,,,,,,,2022-08-24,1,,,,,オーティーエスネクスト,0
1957,9011801041181,新規,0,2022-08-24,2022-08-24,株式会社ギフト,,株式会社,東京都,葛飾区,堀切５丁目３２番８号,,13,122,1240006,,,,,,,2022-08-24,1,,,,,ギフト,0
1959,9012805003143,新規,0,2022-08-24,2022-08-24,拓実リーガル司法書士法人,,その他の設立登記法人,東京都,立川市,柴崎町３丁目１１番４号東京ロジテック千代田ビル８階,,13,202,1900023,,,,,,,2022-08-24,1,,,,,タクミリーガル,0
1960,9013103001161,新規,0,2022-08-24,2022-08-24,合同会社コップルス,,合同会社,東京都,あきる野市,二宮１５３８番地６,,13,228,1970814,,,,,,,2022-08-24,1,,,,,コップルス,0
1970,9020001147870,新規,0,2022-08-24,2022-08-24,株式会社オールイン,,株式会社,神奈川県,横浜市南区,六ツ川１丁目１３２番地１ヒルズ横浜南ガーデニア２号棟１０３号,,14,105,2320066,,,,,,,2022-08-24,1,,,,,オールイン,0
1981,9021001076829,新規,0,2022-08-24,2022-08-24,秀佳株式会社,,株式会社,神奈川県,大和市,下鶴間２０１７番地６ダイアパレスつきみ野壱番館３０２号,,14,213,2420001,,,,,,,2022-08-24,1,,,,,シュウカ,0
1984,9021003012063,新規,0,2022-08-24,2022-08-24,合同会社ＭＴ＆Ｋ,,合同会社,神奈川県,茅ヶ崎市,円蔵１丁目１１番７０－３０８号,,14,207,2530084,,,,,,,2022-08-24,1,,,,,エムティーアンドケイ,0
1990,9030001149783,新規,0,2022-08-24,2022-08-24,株式会社Ｆｏｒｚａ,,株式会社,埼玉県,越谷市,南越谷５丁目４番地６エクレール南越谷４０１号,,11,222,3430845,,,,,,,2022-08-24,1,,,,,フォルサ,0
1991,9030003020050,新規,0,2022-08-24,2022-08-24,ＬＹ合同会社,,合同会社,埼玉県,坂戸市,千代田４丁目７番１１－４０３号,,11,239,3500214,,,,,,,2022-08-24,1,,,,,エルワイ,0
1995,9040001124777,新規,0,2022-08-24,2022-08-24,株式会社パークオート,,株式会社,千葉県,我孫子市,中峠３０５０番地の２１,,12,222,2701121,,,,,,,2022-08-24,1,,,,,パークオート,0
1996,9040001124785,新規,0,2022-08-24,2022-08-24,大福株式会社,,株式会社,千葉県,浦安市,海楽２丁目２番２６－１号,,12,227,2790003,,,,,,,2022-08-24,1,,,,,ダイフク,0
1998,9040005021707,新規,0,2022-08-24,2022-08-24,一般社団法人フリーランスユースフル協会,,その他の設立登記法人,千葉県,市川市,大野町３丁目１８２７番地２（パストラル石井２０６号）,,12,203,2720805,,,,,,,2022-08-24,1,,,,,フリーランスユースフルキョウカイ,0
2000,9050001051525,新規,0,2022-08-24,2022-08-24,株式会社Ｍ．Ｏ住設,,株式会社,茨城県,牛久市,小坂町１９２９番地１８,,08,219,3001286,,,,,,,2022-08-24,1,,,,,エムオージュウセツ,0
2013,9070001039568,新規,0,2022-08-24,2022-08-24,株式会社Ｄ‐ｉｎｔｅｒｉｏｒ,,株式会社,群馬県,桐生市,新里町新川３９１８番地５,,10,203,3760121,,,,,,,2022-08-24,1,,,,,ディーインテリア,0
2040,9120001248337,新規,0,2022-08-24,2022-08-24,株式会社瑞昇ライジング,,株式会社,大阪府,大阪市生野区,巽北１丁目１番１号３Ｆ－Ｆ,,27,116,5440004,,,,,,,2022-08-24,1,,,,,ズイショウライジング,0
2041,9120001248386,新規,0,2022-08-24,2022-08-24,耀輝株式会社,,株式会社,大阪府,大阪市平野区,瓜破２丁目１－５０アビタシオン２３,,27,126,5470024,,,,,,,2022-08-24,1,,,,,ヨウキ,0
2043,9120003022335,新規,0,2022-08-24,2022-08-24,Ｆｕｎｓｙｓ合同会社,,合同会社,大阪府,大阪市北区,西天満３丁目１３－２９シティタワー梅田イースト４０３号室,,27,127,5300047,,,,,,,2022-08-24,1,,,,,ファンシス,0
2046,9120101066127,新規,0,2022-08-24,2022-08-24,株式会社なないろ・ひといろケアセンター,,株式会社,大阪府,堺市堺区,中三国ヶ丘町７丁４－４,,27,141,5900022,,,,,,,2022-08-24,1,,,,,ナナイロヒトイロケアセンター,0
2051,9122001036192,新規,0,2022-08-24,2022-08-24,３Ｒ＆ｉｎｎｏｖａｔｉｏｎ株式会社,,株式会社,大阪府,大東市,諸福５丁目２番６４号,,27,218,5740044,,,,,,,2022-08-24,1,,,,,スリーアールアンドイノベーション,0
2062,9130005016557,新規,0,2022-08-24,2022-08-24,一般社団法人産業動物細菌叢評価・活用機構,,その他の設立登記法人,京都府,綴喜郡宇治田原町,大字立川小字間谷１１番地１,,26,344,6100231,,,,,,,2022-08-24,1,,,,,サンギョウドウブツサイキンソウヒョウカカツヨウキコウ,0
2066,9180001152723,新規,0,2022-08-24,2022-08-24,株式会社かたべら,,株式会社,愛知県,名古屋市昭和区,白金１丁目１番４号プレザント白金７０１号,,23,107,4660058,,,,,,,2022-08-24,1,,,,,カタベラ,0
2069,9180005019902,新規,0,2022-08-24,2022-08-24,きぼう監査法人,,その他の設立登記法人,愛知県,名古屋市中村区,名駅南１丁目２８番２６号,,23,105,4500003,,,,,,,2022-08-24,1,,,,,キボウ,0
2073,9190003004070,新規,0,2022-08-24,2022-08-24,ＭＡＳＨＡ　ＡＵＴＯ合同会社,,合同会社,三重県,鈴鹿市,住吉町８３３２,,24,207,5130825,,,,,,,2022-08-24,1,,,,,マーシャオート,0
2085,9240001060259,新規,0,2022-08-24,2022-08-24,株式会社ジョージア園芸,,株式会社,広島県,尾道市,因島重井町６０５５番地１,,34,205,7222102,,,,,,,2022-08-24,1,,,,,ジョージアエンゲイ,0
2086,9240003005765,新規,0,2022-08-24,2022-08-24,合同会社アンドプラス,,合同会社,広島県,福山市,南蔵王町３丁目４番８号,,34,207,7210973,,,,,,,2022-08-24,1,,,,,アンドプラス,0
2087,9250003003132,新規,0,2022-08-24,2022-08-24,合同会社カサブランカ,,合同会社,山口県,周南市,大内町１番２２号,,35,215,7450824,,,,,,,2022-08-24,1,,,,,カサブランカ,0
2091,9260001037172,新規,0,2022-08-24,2022-08-24,Ｙｕｉｔ．株式会社,,株式会社,岡山県,岡山市北区,田中１７７－１０７ＰＬＡＮＤＯＲ１０３,,33,101,7000951,,,,,,,2022-08-24,1,,,,,ユイットドット,0
2099,9290001098682,新規,0,2022-08-24,2022-08-24,株式会社ＨＡＮＡ,,株式会社,福岡県,福岡市中央区,白金２丁目１３－１日野山第５ビル１０Ｆ,,40,133,8100012,,,,,,,2022-08-24,1,,,,,ハナ,0
2107,9290003012864,新規,0,2022-08-24,2022-08-24,合同会社青良,,合同会社,福岡県,福岡市南区,大楠３丁目２－１８－２０３号メゾンドファシル,,40,134,8150082,,,,,,,2022-08-24,1,,,,,キヨラ,0
2143,9430001087381,新規,0,2022-08-24,2022-08-24,株式会社キャリアアドバイザリーグループ,,株式会社,北海道,札幌市中央区,双子山３丁目２番３２号,,01,101,0640946,,,,,,,2022-08-24,1,,,,,キャリアアドバイザリーグループ,0
2150,9500001024419,新規,0,2022-08-24,2022-08-24,株式会社エイトゥリー,,株式会社,愛媛県,今治市,大新田町３丁目４番７号,,38,202,7940005,,,,,,,2022-08-24,1,,,,,エイトゥリー,0
