sequenceNumber,corporateNumber,process,correct,updateDate,changeDate,name,nameImageId,kind,prefectureName,cityName,streetNumber,addressImageId,prefectureCode,cityCode,postCode,addressOutside,addressOutsideImageId,closeDate,closeCause,successorCorporateNumber,changeCause,assignmentDate,latest,enName,enPrefectureName,enCityName,enAddressOutside,furigana,hihyoji
7,1010001238926,新規,0,2023-10-05,2023-10-05,株式会社ＫＭＭ,,株式会社,東京都,千代田区,紀尾井町４番１号ニューオータニガーデンコート８Ｆ税理士法人エクラコンサルティング内,,13,101,1020094,,,,,,,2023-10-05,1,,,,,ケーエムエム,0
8,1010001238942,新規,0,2023-10-05,2023-10-05,株式会社ＩＮＦＩＮＩＴＹ,,株式会社,東京都,中央区,京橋２丁目５－２１,,13,102,1040031,,,,,,,2023-10-05,1,,,,,インフィニティ,0
9,1010001238967,新規,0,2023-10-05,2023-10-05,株式会社ＹＴＧＡＴＥ,,株式会社,東京都,中央区,新富１丁目８番２号,,13,102,1040041,,,,,,,2023-10-05,1,,,,,ワイティーゲート,0
10,1010001239008,新規,0,2023-10-05,2023-10-05,株式会社Ｓｕｓｔｅｎｄ,,株式会社,東京都,千代田区,九段南１丁目６番５号,,13,101,1020074,,,,,,,2023-10-05,1,,,,,サステンド,0
12,1010003041840,新規,0,2023-10-05,2023-10-05,神田ホテルマネジメント合同会社,,合同会社,東京都,千代田区,丸の内３丁目１番１号東京共同会計事務所内,,13,101,1000005,,,,,,,2023-10-05,1,,,,,カンダホテルマネジメント,0
14,1010101015837,新規,0,2023-10-05,2023-10-05,株式会社オルタナエージェント,,株式会社,東京都,八王子市,明神町２丁目１３番１号ＮＥＰビル１０３,,13,201,1920046,,,,,,,2023-10-05,1,,,,,オルタナエージェント,0
15,1010103002214,新規,0,2023-10-05,2023-10-05,合同会社ＭＡＳＴ,,合同会社,東京都,八王子市,堀之内３丁目２３－１－４２３,,13,201,1920355,,,,,,,2023-10-05,1,,,,,マスト,0
26,1010401177567,新規,0,2023-10-05,2023-10-05,株式会社Ｙｓｔａｒ,,株式会社,東京都,港区,南青山５丁目４番４４号,,13,103,1070062,,,,,,,2023-10-05,1,,,,,ワイスター,0
27,1010401177609,新規,0,2023-10-05,2023-10-05,株式会社ベリーベスト不動産,,株式会社,東京都,港区,六本木１丁目８番７号ＭＦＰＲ六本木麻布台ビル８階,,13,103,1060032,,,,,,,2023-10-05,1,,,,,ベリーベストフドウサン,0
28,1010401177617,新規,0,2023-10-05,2023-10-05,株式会社Ｅｘａ　Ｅｎｔｅｒｐｒｉｓｅ　ＡＩ,,株式会社,東京都,港区,東新橋１丁目９番２号,,13,103,1050021,,,,,,,2023-10-05,1,,,,,エクサエンタープライズエーアイ,0
33,1010403031053,新規,0,2023-10-05,2023-10-05,合同会社アシスト,,合同会社,東京都,港区,南青山２丁目２番１５号,,13,103,1070062,,,,,,,2023-10-05,1,,,,,アシスト,0
37,1010601063864,新規,0,2023-10-05,2023-10-05,ＯＲＡＮＧＥ国際株式会社,,株式会社,東京都,江東区,門前仲町２丁目２番１５号大竹ビル３０４,,13,108,1350048,,,,,,,2023-10-05,1,,,,,オレンジコクサイ,0
38,1010703006894,新規,0,2023-10-05,2023-10-05,合同会社アンクール,,合同会社,東京都,品川区,東大井１丁目１４番２４－１５１２号,,13,109,1400011,,,,,,,2023-10-05,1,,,,,アンクール,0
39,1010705003543,新規,0,2023-10-05,2023-10-05,特定非営利活動法人文化財保管活用支援機構,,その他の設立登記法人,東京都,品川区,小山３丁目２７番５号武蔵小山創業支援センター,,13,109,1420062,,,,,,,2023-10-05,1,,,,,ブンカザイホカンカツヨウシエンキコウ,0
42,1010901053945,新規,0,2023-10-05,2023-10-05,株式会社ＯＭ　ＪＡＹ　ＥＮＴＥＲＰＲＩＳＥ,,株式会社,東京都,世田谷区,南烏山５丁目１３番２号三松ビル２Ｆ,,13,112,1570062,,,,,,,2023-10-05,1,,,,,オムジェイエンタープライズ,0
43,1010901053953,新規,0,2023-10-05,2023-10-05,株式会社ＧＶ　Ｔｏｋｙｏ,,株式会社,東京都,世田谷区,祖師谷５丁目２２番２３号,,13,112,1570072,,,,,,,2023-10-05,1,,,,,ジーブイトウキョウ,0
52,1011001157331,新規,0,2023-10-05,2023-10-05,ＨａｃｈｉＰｉｘｅｌ株式会社,,株式会社,東京都,渋谷区,恵比寿２丁目２８番１０号,,13,113,1500013,,,,,,,2023-10-05,1,,,,,ハチピクセル,0
53,1011001157348,新規,0,2023-10-05,2023-10-05,株式会社Ｆｕｌｌ　Ｂｅｔ　Ｇｒｏｕｐ,,株式会社,東京都,渋谷区,円山町３番６号Ｅ・スペースタワー６階,,13,113,1500044,,,,,,,2023-10-05,1,,,,,フルベットグループ,0
54,1011001157356,新規,0,2023-10-05,2023-10-05,株式会社ＴＯＰＲＯＰ,,株式会社,東京都,渋谷区,道玄坂１丁目１０番８号渋谷道玄坂東急ビル２Ｆ－Ｃ,,13,113,1500043,,,,,,,2023-10-05,1,,,,,トップロップ,0
55,1011001157364,新規,0,2023-10-05,2023-10-05,株式会社Ｔ’ｓ　ａｇｅｎｃｙ,,株式会社,東京都,渋谷区,神宮前６丁目２３番４号桑野ビル２階,,13,113,1500001,,,,,,,2023-10-05,1,,,,,ティーズエージェンシー,0
56,1011001157389,新規,0,2023-10-05,2023-10-05,株式会社Ｆｒｏｍ　Ｎｅｘｔ,,株式会社,東京都,渋谷区,道玄坂１丁目１０番８号渋谷道玄坂東急ビル２Ｆ－Ｃ,,13,113,1500043,,,,,,,2023-10-05,1,,,,,フロムネクスト,0
61,1011101104605,新規,0,2023-10-05,2023-10-05,株式会社インスタテック,,株式会社,東京都,新宿区,西新宿１丁目８番１号新宿ビルディング,,13,104,1600023,,,,,,,2023-10-05,1,,,,,インスタテック,0
62,1011101104621,新規,0,2023-10-05,2023-10-05,株式会社Ｅ‐Ｓｕｒｆ,,株式会社,東京都,新宿区,西新宿３丁目２－９,,13,104,1600023,,,,,,,2023-10-05,1,,,,,イーサーフ,0
63,1011101104654,新規,0,2023-10-05,2023-10-05,株式会社思果デジタル,,株式会社,東京都,新宿区,新宿５丁目１４番１２号６０９号室,,13,104,1600022,,,,,,,2023-10-05,1,,,,,シカデジタル,0
64,1011103013556,新規,0,2023-10-05,2023-10-05,合同会社原嶋企画,,合同会社,東京都,新宿区,西新宿６丁目２０番７－１７１８号,,13,104,1600023,,,,,,,2023-10-05,1,,,,,ハラシマキカク,0
65,1011103013564,新規,0,2023-10-05,2023-10-05,アンドジャーニー合同会社,,合同会社,東京都,新宿区,内藤町１－１２１－内藤町ハウス３０４,,13,104,1600014,,,,,,,2023-10-05,1,,,,,アンドジャーニー,0
66,1011103013572,新規,0,2023-10-05,2023-10-05,Ｗａｌｎｕｔ合同会社,,合同会社,東京都,新宿区,西新宿３丁目３番１３号西新宿水間ビル６階,,13,104,1600023,,,,,,,2023-10-05,1,,,,,ウォルナット,0
67,1011105010808,新規,0,2023-10-05,2023-10-05,一般社団法人アカデミスト起業学会,,その他の設立登記法人,東京都,新宿区,大久保２丁目１０番２号山崎ビル２０２,,13,104,1690072,,,,,,,2023-10-05,1,,,,,アカデミストキギョウガッカイ,0
72,1011503005789,新規,0,2023-10-05,2023-10-05,合同会社ＧＬＡＤ,,合同会社,東京都,荒川区,東日暮里３丁目４１番３－１０１号,,13,118,1160014,,,,,,,2023-10-05,1,,,,,,0
74,1011601027157,新規,0,2023-10-05,2023-10-05,株式会社ＴＥＮＪＩＮ　ＳＴＵＤＩＯ,,株式会社,東京都,練馬区,土支田４丁目９番１３号,,13,120,1790076,,,,,,,2023-10-05,1,,,,,テンジンスタジオ,0
75,1011601027165,新規,0,2023-10-05,2023-10-05,株式会社オファー,,株式会社,東京都,練馬区,高野台１丁目７番１７－６０７号,,13,120,1770033,,,,,,,2023-10-05,1,,,,,オファー,0
83,1011803005869,新規,0,2023-10-05,2023-10-05,合同会社藤井工業,,合同会社,東京都,足立区,大谷田３丁目６番２２号プレミール１０２,,13,121,1200001,,,,,,,2023-10-05,1,,,,,フジイコウギョウ,0
84,1012301013620,新規,0,2023-10-05,2023-10-05,株式会社遠藤建装,,株式会社,東京都,町田市,金井２丁目１５番地３エーデルハイムＩ－２０４,00132142,13,209,1950072,,,,,,,2023-10-05,1,,,,,エンドウケンソウ,0
85,1012701017865,新規,0,2023-10-05,2023-10-05,ＺＥＴＴＯＮ株式会社,,株式会社,東京都,東村山市,青葉町２丁目４３番地２５,,13,213,1890002,,,,,,,2023-10-05,1,,,,,ゼットン,0
86,1012801022666,新規,0,2023-10-05,2023-10-05,アドバンスト・サポート・サービス株式会社,,株式会社,東京都,国分寺市,東恋ヶ窪２丁目１番地１－３０６,,13,214,1850014,,,,,,,2023-10-05,1,,,,,アドバンストサポートサービス,0
87,1012803003202,新規,0,2023-10-05,2023-10-05,あいば合同会社,,合同会社,東京都,武蔵村山市,大南３丁目７７番地の８,,13,223,2080013,,,,,,,2023-10-05,1,,,,,アイバ,0
91,1013305003525,新規,0,2023-10-05,2023-10-05,司法書士法人横田文吉事務所,,その他の設立登記法人,東京都,豊島区,西池袋２丁目３６番１１号,,13,116,1710021,,,,,,,2023-10-05,1,,,,,ヨコタブンキチジムショ,0
94,1020001153760,新規,0,2023-10-05,2023-10-05,ことばの泉株式会社,,株式会社,神奈川県,横浜市西区,境之谷１１５番地１０３,,14,103,2200054,,,,,,,2023-10-05,1,,,,,コトバノイズミ,0
95,1020001153777,新規,0,2023-10-05,2023-10-05,株式会社Ｄａｕｎｔｌｅｓｓ,,株式会社,神奈川県,横浜市都筑区,北山田１丁目９番３－１００３号,,14,118,2240021,,,,,,,2023-10-05,1,,,,,ドーントレス,0
96,1020001153785,新規,0,2023-10-05,2023-10-05,株式会社ＥＭＣ,,株式会社,神奈川県,横浜市青葉区,たちばな台１丁目１９番地１７,,14,117,2270046,,,,,,,2023-10-05,1,,,,,イーエムシー,0
97,1020001153793,新規,0,2023-10-05,2023-10-05,ＴＷＳ株式会社,,株式会社,神奈川県,横浜市港北区,日吉２丁目２７番１－３０８号,,14,109,2230061,,,,,,,2023-10-05,1,,,,,ティーダブルエス,0
98,1020001153802,新規,0,2023-10-05,2023-10-05,ＮＩＳＳＯホールディングス株式会社,,株式会社,神奈川県,横浜市港北区,新横浜１丁目４番１号,,14,109,2220033,,,,,,,2023-10-05,1,,,,,ニッソーホールディングス,0
99,1020001153810,新規,0,2023-10-05,2023-10-05,株式会社ＫＯＵＮＡＮ,,株式会社,神奈川県,横浜市港南区,下永谷４丁目３番１８号,,14,111,2330016,,,,,,,2023-10-05,1,,,,,コウナン,0
100,1020001153819,新規,0,2023-10-05,2023-10-05,ハイディーイ株式会社,,株式会社,神奈川県,横浜市磯子区,岡村１丁目３番１５号,,14,107,2350021,,,,,,,2023-10-05,1,,,,,ハイディーイ,0
101,1020001153827,新規,0,2023-10-05,2023-10-05,株式会社ＤＲＳ　Ｇｒｏｕｐ,,株式会社,神奈川県,横浜市都筑区,中川中央１丁目４番１０－３０６号,,14,118,2240003,,,,,,,2023-10-05,1,,,,,ディーアールエスグループ,0
102,1020001153851,新規,0,2023-10-05,2023-10-05,株式会社岡田硝子,,株式会社,神奈川県,横浜市港北区,仲手原１丁目１９番３１－６０４号,,14,109,2220023,,,,,,,2023-10-05,1,,,,,オカダガラス,0
104,1020003024695,新規,0,2023-10-05,2023-10-05,レイドバックサウンズ合同会社,,合同会社,神奈川県,川崎市宮前区,宮前平３丁目７番地５クレッセント宮崎台ＩＩ２０７,00132146,14,136,2160006,,,,,,,2023-10-05,1,,,,,レイドバックサウンズ,0
105,1020003024704,新規,0,2023-10-05,2023-10-05,合同会社フラグシップ,,合同会社,神奈川県,横浜市中区,吉田町７４番地,,14,104,2310041,,,,,,,2023-10-05,1,,,,,フラグシップ,0
111,1021001080350,新規,0,2023-10-05,2023-10-05,ものがたり食堂株式会社,,株式会社,神奈川県,鎌倉市,材木座５丁目１０－９,,14,204,2480013,,,,,,,2023-10-05,1,,,,,モノガタリショクドウ,0
112,1021001080375,新規,0,2023-10-05,2023-10-05,株式会社ホクレア,,株式会社,神奈川県,平塚市,代官町９番２６号Ｍ宮代会館１Ｆ,,14,203,2540807,,,,,,,2023-10-05,1,,,,,ホクレア,0
115,1021003013639,新規,0,2023-10-05,2023-10-05,合同会社湘南建築設計事務所,,合同会社,神奈川県,海老名市,国分南３丁目１番３７号,,14,215,2430405,,,,,,,2023-10-05,1,,,,,ショウナンケンチクセッケイジムショ,0
120,1030001156424,新規,0,2023-10-05,2023-10-05,カンナ不動産株式会社,,株式会社,埼玉県,さいたま市北区,吉野町１丁目３６３番地３,,11,102,3310811,,,,,,,2023-10-05,1,,,,,カンナフドウサン,0
121,1030001156449,新規,0,2023-10-05,2023-10-05,株式会社ＬＩＶＥＬＹ,,株式会社,埼玉県,さいたま市大宮区,桜木町２丁目３番地大宮マルイ７階,,11,103,3300854,,,,,,,2023-10-05,1,,,,,ライヴリー,0
124,1030003022707,新規,0,2023-10-05,2023-10-05,Ｒ＆Ｓ合同会社,,合同会社,埼玉県,富士見市,大字水子１２５２番地みずほ台店舗付住宅,,11,235,3540011,,,,,,,2023-10-05,1,,,,,アルアンドエス,0
132,1040001130353,新規,0,2023-10-05,2023-10-05,シーズユナイト株式会社,,株式会社,千葉県,千葉市中央区,中央２丁目５号１番千葉中央ツインビル２号館７階,,12,101,2600013,,,,,,,2023-10-05,1,,,,,シーズユナイト,0
134,1040003023448,新規,0,2023-10-05,2023-10-05,イーエムオフィス合同会社,,合同会社,千葉県,千葉市中央区,問屋町８番１号ハーバーレジデンス１４１１,,12,101,2600025,,,,,,,2023-10-05,1,,,,,イーエムオフィス,0
135,1040005022134,新規,0,2023-10-05,2023-10-05,釋迦院,,その他の設立登記法人,千葉県,千葉市若葉区,若松町２３６４番地１０,,12,104,2640021,,,,,,,2023-10-05,1,,,,,シャカイン,0
139,1060001036383,新規,0,2023-10-05,2023-10-05,株式会社Ｃａｒｒｉｅ,,株式会社,栃木県,栃木市,大町３１番２２号,,09,203,3280071,,,,,,,2023-10-05,1,,,,,カリー,0
143,1060003004751,新規,0,2023-10-05,2023-10-05,ＴＲＩＳＲＡ合同会社,,合同会社,栃木県,宇都宮市,御蔵町２番１６号御蔵マンション１階１０５号室,,09,201,3200823,,,,,,,2023-10-05,1,,,,,トゥリスラ,0
148,1080001025896,新規,0,2023-10-05,2023-10-05,株式会社インテリアふしみ,,株式会社,静岡県,静岡市葵区,千代田６丁目１７番１４号,,22,101,4200803,,,,,,,2023-10-05,1,,,,,インテリアフシミ,0
155,1100001036841,新規,0,2023-10-05,2023-10-05,株式会社歩夢ヘルパーステーション,,株式会社,長野県,千曲市,大字内川９４４番地１,,20,218,3890802,,,,,,,2023-10-05,1,,,,,アユムヘルパーステーション,0
156,1100001036858,新規,0,2023-10-05,2023-10-05,Ｐｅｇａｓｕｓ　Ｈａｋｕｂａ株式会社,,株式会社,長野県,北安曇郡白馬村,大字神城２４４１３番地,,20,485,3999211,,,,,,,2023-10-05,1,,,,,ペガサスハクバ,0
158,1100003007205,新規,0,2023-10-05,2023-10-05,合同会社巨大エンタープライズ,,合同会社,長野県,松本市,大字和田３８１０番地２,,20,202,3901242,,,,,,,2023-10-05,1,,,,,ジャンボエンタープライズ,0
160,1110001037896,新規,0,2023-10-05,2023-10-05,株式会社クリーンライフ倉島,,株式会社,新潟県,阿賀野市,金渕甲４６３６番地３,,15,223,9592103,,,,,,,2023-10-05,1,,,,,,0
169,1120001258558,新規,0,2023-10-05,2023-10-05,ＳＴＵＤＩＯ１０００株式会社,,株式会社,大阪府,大阪市都島区,東野田町３丁目１番４号,,27,102,5340024,,,,,,,2023-10-05,1,,,,,スタジオセン,0
170,1120001258582,新規,0,2023-10-05,2023-10-05,株式会社スタート,,株式会社,大阪府,大阪市東淀川区,淡路１丁目１０番２号ベルヴィーコート１０１号,,27,114,5330032,,,,,,,2023-10-05,1,,,,,スタート,0
171,1120001258599,新規,0,2023-10-05,2023-10-05,株式会社一人前,,株式会社,大阪府,大阪市旭区,千林１丁目９番１８－１０５号,,27,117,5350012,,,,,,,2023-10-05,1,,,,,イチニンマエ,0
172,1120001258608,新規,0,2023-10-05,2023-10-05,ＨｕＮｉ　ｆｏｏｄｓ株式会社,,株式会社,大阪府,門真市,上島町２－２３,,27,223,5710071,,,,,,,2023-10-05,1,,,,,フニフード,0
173,1120001258616,新規,0,2023-10-05,2023-10-05,株式会社ＵＫＩＹＯ　ｅｄｕｃａｔｉｏｎ,,株式会社,大阪府,大阪市北区,梅田１丁目２番２号大阪駅前第２ビル１２－１２,,27,127,5300001,,,,,,,2023-10-05,1,,,,,ウキヨエデュケーション,0
175,1120003025031,新規,0,2023-10-05,2023-10-05,タクハ合同会社,,合同会社,大阪府,大阪市西区,南堀江１丁目１１番９号ＳＯＮＯ四ツ橋ビル４Ｆ４０６号,,27,106,5500015,,,,,,,2023-10-05,1,,,,,タクハ,0
176,1120003025056,新規,0,2023-10-05,2023-10-05,マツモトジャパン合同会社,,合同会社,大阪府,大阪市淀川区,東三国２丁目３０番１号,,27,123,5320002,,,,,,,2023-10-05,1,,,,,マツモトジャパン,0
177,1120005023917,新規,0,2023-10-05,2023-10-05,税理士法人ｓｔｒａｔｅｇｉｓｔ,,その他の設立登記法人,大阪府,大阪市中央区,糸屋町１丁目３番２号都住創糸屋町１０２,,27,128,5400022,,,,,,,2023-10-05,1,,,,,ストラテジスト,0
180,1120101068329,新規,0,2023-10-05,2023-10-05,株式会社創人舎,,株式会社,大阪府,堺市美原区,多治井２３２番地１４５,,27,147,5870012,,,,,,,2023-10-05,1,,,,,ソウジンシャ,0
188,1120901048141,新規,0,2023-10-05,2023-10-05,株式会社Ｃｈｏｕｅｔｔｅ,,株式会社,大阪府,三島郡島本町,高浜３丁目３番１－１３２０号,,27,301,6180012,,,,,,,2023-10-05,1,,,,,シュエット,0
190,1130001075300,新規,0,2023-10-05,2023-10-05,株式会社ＯＣＬａｂｏ,,株式会社,京都府,京都市西京区,松尾木ノ曽町３８番地１５,,26,111,6158281,,,,,,,2023-10-05,1,,,,,オーシーラボ,0
191,1130001075333,新規,0,2023-10-05,2023-10-05,ビーグッドカンパニー株式会社,,株式会社,京都府,向日市,寺戸町殿長３３番地の１,,26,208,6170002,,,,,,,2023-10-05,1,,,,,ビーグッドカンパニー,0
194,1140001131837,新規,0,2023-10-05,2023-10-05,株式会社ＲＡＹＳ,,株式会社,兵庫県,加古川市,東神吉町西井ノ口６２３番地の５,,28,210,6750055,,,,,,,2023-10-05,1,,,,,レイズ,0
195,1140001131853,新規,0,2023-10-05,2023-10-05,株式会社ブランドビオ,,株式会社,兵庫県,尼崎市,七松町３丁目１５番７号,,28,202,6600052,,,,,,,2023-10-05,1,,,,,ブランドビオ,0
201,1150001026755,新規,0,2023-10-05,2023-10-05,ミンシン株式会社,,株式会社,奈良県,御所市,大字三室５２８番地の４,,29,208,6392306,,,,,,,2023-10-05,1,,,,,ミンシン,0
203,1150003003083,新規,0,2023-10-05,2023-10-05,ＦＯＲＭＬＥＳＳ合同会社,,合同会社,奈良県,橿原市,新賀町９５番地の１Ｌ．ｅ．Ｏ１０１,,29,205,6340006,,,,,,,2023-10-05,1,,,,,フォームレス,0
204,1160001025392,新規,0,2023-10-05,2023-10-05,株式会社平中工務店,,株式会社,滋賀県,草津市,岡本町３５２番地５,,25,206,5250044,,,,,,,2023-10-05,1,,,,,ヒラナカコウムテン,0
207,1160005011232,新規,0,2023-10-05,2023-10-05,医療法人眞岡歯科医院,,その他の設立登記法人,滋賀県,甲賀市,甲南町寺庄１０８１番地,,25,209,5203301,,,,,,,2023-10-05,1,,,,,サナオカシカイイン,0
209,1170001017810,新規,0,2023-10-05,2023-10-05,株式会社原電設工業,,株式会社,和歌山県,岩出市,安上１０４番地の１５,,30,209,6496252,,,,,,,2023-10-05,1,,,,,ハラデンセツコウギョウ,0
218,1180001158281,新規,0,2023-10-05,2023-10-05,中部電力グランドワークス株式会社,,株式会社,愛知県,名古屋市中村区,太閤通７丁目３２番地,,23,105,4530811,,,,,,,2023-10-05,1,,,,,チュウブデンリョクグランドワークス,0
219,1180001158298,新規,0,2023-10-05,2023-10-05,Ｖｅｚｉｒ株式会社,,株式会社,愛知県,名古屋市名東区,一社２丁目１３２番地アップルコート一社１Ｆ,,23,115,4650093,,,,,,,2023-10-05,1,,,,,ベジール,0
220,1180001158307,新規,0,2023-10-05,2023-10-05,株式会社エスフォー,,株式会社,愛知県,豊明市,間米町敷田１２２５番地４０７,,23,229,4701132,,,,,,,2023-10-05,1,,,,,エスフォー,0
221,1180001158331,新規,0,2023-10-05,2023-10-05,Ｎｅｅｄｓ　ｗｅｌｌ株式会社,,株式会社,愛知県,瀬戸市,西十三塚町３番地,,23,204,4890057,,,,,,,2023-10-05,1,,,,,ニーズウェル,0
222,1180001158348,新規,0,2023-10-05,2023-10-05,シースリーエスセティックス株式会社,,株式会社,愛知県,名古屋市中区,大須３丁目３０番４０号,,23,106,4600011,,,,,,,2023-10-05,1,,,,,シースリーエスセティックス,0
229,1180003025819,新規,0,2023-10-05,2023-10-05,合同会社Ｌｉｔ　ｌｉａｎ,,合同会社,愛知県,名古屋市南区,砂口町２６３番地の３（リバーサイドマンション青山２０５号）,,23,112,4570054,,,,,,,2023-10-05,1,,,,,リットリアン,0
230,1180301037870,新規,0,2023-10-05,2023-10-05,株式会社ＡＤＭ,,株式会社,愛知県,豊橋市,弥生町字西豊和１０４番地１,,23,201,4418106,,,,,,,2023-10-05,1,,,,,エーディーエム,0
231,1180301037879,新規,0,2023-10-05,2023-10-05,８ＧＥＡＲ株式会社,,株式会社,愛知県,豊田市,永覚町車坂５３番地１,,23,211,4701205,,,,,,,2023-10-05,1,,,,,エイトギア,0
233,1200001041781,新規,0,2023-10-05,2023-10-05,株式会社ＴＪＭ　Ｐｒｏｄｕｃｔｓ　Ｊａｐａｎ,,株式会社,岐阜県,多治見市,明和町２丁目６４番地の５,,21,204,5070072,,,,,,,2023-10-05,1,,,,,ティージェーエムプロダクツジャパン,0
239,1240001062213,新規,0,2023-10-05,2023-10-05,ＬＯＯＺ株式会社,,株式会社,広島県,広島市東区,矢賀新町４丁目５番２７－１４０３号,,34,102,7320044,,,,,,,2023-10-05,1,,,,,ルーズ,0
243,1240003006341,新規,0,2023-10-05,2023-10-05,合同会社Ｓｅｎ,,合同会社,広島県,広島市安佐南区,大塚西２丁目１３－１３,,34,105,7313167,,,,,,,2023-10-05,1,,,,,セン,0
246,1250003003362,新規,0,2023-10-05,2023-10-05,合同会社そわかリフォーム,,合同会社,山口県,山口市,小郡光が丘２１番１３号,,35,203,7540033,,,,,,,2023-10-05,1,,,,,ソワカリフォーム,0
249,1270001008849,新規,0,2023-10-05,2023-10-05,株式会社ＣｏＣｏ　Ｆｉｒｓｔ,,株式会社,鳥取県,鳥取市,岩吉２５５番地１,,31,201,6800931,,,,,,,2023-10-05,1,,,,,ココファースト,0
255,1290003014439,新規,0,2023-10-05,2023-10-05,合同会社Ｋ．Ｈ．Ｌ,,合同会社,福岡県,福岡市中央区,大名２丁目２番７号大名センタービル６Ｆ,,40,133,8100041,,,,,,,2023-10-05,1,,,,,ケイエイチエル,0
259,1320003004188,新規,0,2023-10-05,2023-10-05,合同会社ご縁,,合同会社,大分県,大分市,大字城原１８１７番地の３エールＩ棟７０４,00132135,44,201,8700267,,,,,,,2023-10-05,1,,,,,ゴエン,0
260,1330001031316,新規,0,2023-10-05,2023-10-05,サンコネクト株式会社,,株式会社,熊本県,宇城市,三角町波多４２４１番地,,43,213,8693205,,,,,,,2023-10-05,1,,,,,サンコネクト,0
261,1330001031324,新規,0,2023-10-05,2023-10-05,株式会社信源,,株式会社,熊本県,天草市,御所浦町御所浦２３０５番地４,,43,215,8660313,,,,,,,2023-10-05,1,,,,,シンゲン,0
264,1340003004277,新規,0,2023-10-05,2023-10-05,ＪＡＭプラットホーム合同会社,,合同会社,鹿児島県,鹿児島市,薬師２丁目５番５号,,46,201,8900042,,,,,,,2023-10-05,1,,,,,ジャムプラットホーム,0
267,1360001032625,新規,0,2023-10-05,2023-10-05,ＢＡＳＥＤ株式会社,,株式会社,沖縄県,那覇市,久茂地２丁目２番２号タイムスビル２Ｆ,,47,201,9000015,,,,,,,2023-10-05,1,,,,,ベイスド,0
268,1360001032633,新規,0,2023-10-05,2023-10-05,ＳＡＳＵＫＥ株式会社,,株式会社,沖縄県,中頭郡北谷町,字美浜３４番地３,,47,326,9040115,,,,,,,2023-10-05,1,,,,,サスケ,0
269,1360001032641,新規,0,2023-10-05,2023-10-05,岡崎鉱業株式会社,,株式会社,沖縄県,糸満市,字糸満１５０５番地１,,47,210,9010361,,,,,,,2023-10-05,1,,,,,オカザキコウギョウ,0
272,1360003013350,新規,0,2023-10-05,2023-10-05,合同会社ＳＥＮＡＫＯＡＲＩＯ沖縄,,合同会社,沖縄県,うるま市,字兼箇段１６４６番地２,,47,213,9042241,,,,,,,2023-10-05,1,,,,,セナコアリオオキナワ,0
280,1380001034009,新規,0,2023-10-05,2023-10-05,株式会社ＳＵＫＡＧＡＷＡチャレンジ,,株式会社,福島県,須賀川市,中町３９番地,,07,207,9620845,,,,,,,2023-10-05,1,,,,,スカガワチャレンジ,0
281,1380001034033,新規,0,2023-10-05,2023-10-05,株式会社ＣＡＢＢＡＧＥ　ＤＲＥＡＭ,,株式会社,福島県,郡山市,方八町１丁目６番３号バースランド郡山６０３号,,07,203,9638811,,,,,,,2023-10-05,1,,,,,キャベッジドリーム,0
283,1420001018428,新規,0,2023-10-05,2023-10-05,津軽白神村山農産株式会社,,株式会社,青森県,西津軽郡深浦町,大字正道尻字小礒５５番地９,,02,323,0382203,,,,,,,2023-10-05,1,,,,,ツガルシラカミムラヤマノウサン,0
289,1450001014102,新規,0,2023-10-05,2023-10-05,株式会社Ｄ＆Ｈプランニング,,株式会社,北海道,旭川市,豊岡十三条４丁目１番１３号,,01,204,0788243,,,,,,,2023-10-05,1,,,,,ディーアンドエイチプランニング,0
293,1480001012235,新規,0,2023-10-05,2023-10-05,株式会社コンシダス,,株式会社,徳島県,徳島市,名東町２丁目３７４番地の８,,36,201,7700047,,,,,,,2023-10-05,1,,,,,コンシダス,0
294,1480003002028,新規,0,2023-10-05,2023-10-05,合同会社ＤＦＡ,,合同会社,徳島県,阿南市,上中町中原２２番地１３,,36,204,7740044,,,,,,,2023-10-05,1,,,,,ディーエフエー,0
295,1490001010601,新規,0,2023-10-05,2023-10-05,株式会社トラストノート,,株式会社,高知県,高知市,北本町１丁目５番２０号,,39,201,7800056,,,,,,,2023-10-05,1,,,,,トラストノート,0
302,2010001238941,新規,0,2023-10-05,2023-10-05,株式会社Ｍ＆Ａエグゼクティブパートナーズ,,株式会社,東京都,千代田区,丸の内１丁目８番１号丸の内トラストタワーＮ館１８階,,13,101,1000005,,,,,,,2023-10-05,1,,,,,エムアンドエーエグゼクティブパートナーズ,0
303,2010001238958,新規,0,2023-10-05,2023-10-05,株式会社ＴＡＫＵＭＩ,,株式会社,東京都,千代田区,丸の内１丁目１１－１パシフィックセンチュリープレイス１３階,,13,101,1000005,,,,,,,2023-10-05,1,,,,,タクミ,0
304,2010001238982,新規,0,2023-10-05,2023-10-05,銀座丸山株式会社,,株式会社,東京都,中央区,銀座１丁目４番９号銀座オザミビル,,13,102,1040061,,,,,,,2023-10-05,1,,,,,ギンザマルヤマ,0
305,2010001238990,新規,0,2023-10-05,2023-10-05,ミツワ商事株式会社,,株式会社,東京都,中央区,日本橋人形町１丁目１２番１１号,,13,102,1030013,,,,,,,2023-10-05,1,,,,,ミツワショウジ,0
316,2010401177608,新規,0,2023-10-05,2023-10-05,ベリーベストテクノロジーズ株式会社,,株式会社,東京都,港区,六本木１丁目８番７号ＭＦＰＲ六本木麻布台ビル１１階,,13,103,1060032,,,,,,,2023-10-05,1,,,,,ベリーベストテクノロジーズ,0
322,2010405022520,新規,0,2023-10-05,2023-10-05,Ｊａｐａｎ　Ｏｕｔｓｏｕｒｃｉｎｇ　Ｓｏｌｕｔｉｏｎｓ社会保険労務士法人,,その他の設立登記法人,東京都,港区,西新橋３丁目２４番８号山内ビル３階,,13,103,1050003,,,,,,,2023-10-05,1,,,,,ジャパンアウトソーシングソリューションズ,0
323,2010405022529,新規,0,2023-10-05,2023-10-05,一般社団法人孝榮学館,,その他の設立登記法人,東京都,港区,南青山３丁目１番３６号青山丸竹ビル６Ｆ,,13,103,1070062,,,,,,,2023-10-05,1,,,,,コウエイガッカン,0
329,2010603010401,新規,0,2023-10-05,2023-10-05,合同会社富泉商事,,合同会社,東京都,江東区,新砂３丁目４番３５－１８１３号,,13,108,1360075,,,,,,,2023-10-05,1,,,,,トミセンショウジ,0
331,2010701044920,新規,0,2023-10-05,2023-10-05,株式会社肉弁当,,株式会社,東京都,品川区,戸越３丁目２番３号,,13,109,1420041,,,,,,,2023-10-05,1,,,,,ニクベントウ,0
334,2010705003542,新規,0,2023-10-05,2023-10-05,一般社団法人ＬＨ,,その他の設立登記法人,東京都,品川区,大崎３丁目１０番１８号,,13,109,1410032,,,,,,,2023-10-05,1,,,,,エルエイチ,0
337,2010801034391,新規,0,2023-10-05,2023-10-05,株式会社寿限無ネットワーク,,株式会社,東京都,大田区,上池台１丁目２１番２号,,13,111,1450064,,,,,,,2023-10-05,1,,,,,ジュゲムネットワーク,0
339,2010901053969,新規,0,2023-10-05,2023-10-05,株式会社リターンズ,,株式会社,東京都,世田谷区,北沢１丁目３５番６号池の上ハイツ２０５,,13,112,1550031,,,,,,,2023-10-05,1,,,,,リターンズ,0
340,2010903008491,新規,0,2023-10-05,2023-10-05,合同会社つたや,,合同会社,東京都,世田谷区,池尻４丁目３２番２号,,13,112,1540001,,,,,,,2023-10-05,1,,,,,ツタヤ,0
341,2010903008500,新規,0,2023-10-05,2023-10-05,ＴａｎｄＩクリエイト合同会社,,合同会社,東京都,世田谷区,野毛２丁目１８番５号,,13,112,1580092,,,,,,,2023-10-05,1,,,,,ティーアンドアイクリエイト,0
345,2011001157363,新規,0,2023-10-05,2023-10-05,株式会社ＨＹＶ,,株式会社,東京都,渋谷区,初台１丁目５１番１号,,13,113,1510061,,,,,,,2023-10-05,1,,,,,ハイヴ,0
346,2011001157388,新規,0,2023-10-05,2023-10-05,フロムヒア株式会社,,株式会社,東京都,渋谷区,渋谷２丁目１９番１５号宮益坂ビルディング,,13,113,1500002,,,,,,,2023-10-05,1,,,,,フロムヒア,0
355,2011101104579,新規,0,2023-10-05,2023-10-05,株式会社リクポッツ,,株式会社,東京都,新宿区,住吉町４番１－２０３号,,13,104,1620065,,,,,,,2023-10-05,1,,,,,リクポッツ,0
356,2011101104604,新規,0,2023-10-05,2023-10-05,株式会社ノルンコンサルティング,,株式会社,東京都,新宿区,西新宿３丁目３番１３号西新宿水間ビル６階,,13,104,1600023,,,,,,,2023-10-05,1,,,,,ノルンコンサルティング,0
357,2011101104629,新規,0,2023-10-05,2023-10-05,プライムタイム株式会社,,株式会社,東京都,新宿区,西新宿６丁目１０－１－８Ｆ,,13,104,1600023,,,,,,,2023-10-05,1,,,,,プライムタイム,0
360,2011103013555,新規,0,2023-10-05,2023-10-05,合同会社ちえの輪,,合同会社,東京都,新宿区,新宿２丁目１２番１３号新宿アントレサロンビル２階,,13,104,1600022,,,,,,,2023-10-05,1,,,,,チエノワ,0
361,2011103013563,新規,0,2023-10-05,2023-10-05,合同会社一宇,,合同会社,東京都,新宿区,神楽坂２丁目２２,,13,104,1620825,,,,,,,2023-10-05,1,,,,,イチウ,0
367,2011703003617,新規,0,2023-10-05,2023-10-05,合同会社ピクマーズ,,合同会社,東京都,江戸川区,一之江８丁目１１－１１カーサベルデ一之江５０３,,13,123,1320024,,,,,,,2023-10-05,1,,,,,ピクマーズ,0
370,2011801043127,新規,0,2023-10-05,2023-10-05,株式会社ＭＡＳＡＨＡＲＵ,,株式会社,東京都,葛飾区,細田２丁目６番２０号,,13,122,1240021,,,,,,,2023-10-05,1,,,,,マサハル,0
373,2012403006216,新規,0,2023-10-05,2023-10-05,合同会社ＴＥＳＳ,,合同会社,東京都,武蔵野市,吉祥寺南町２丁目９番１０号ベイリオル吉祥寺２０２,,13,203,1800003,,,,,,,2023-10-05,1,,,,,テス,0
374,2012701017864,新規,0,2023-10-05,2023-10-05,株式会社小嶋設備,,株式会社,東京都,小平市,小川町１丁目３２１番地１７－Ｃ棟２０２号,,13,211,1870032,,,,,,,2023-10-05,1,,,,,コジマセツビ,0
376,2012801022665,新規,0,2023-10-05,2023-10-05,株式会社黒木工業,,株式会社,東京都,日野市,新町５丁目１番地の２６,,13,212,1910002,,,,,,,2023-10-05,1,,,,,クロキコウギョウ,0
380,2013305003524,新規,0,2023-10-05,2023-10-05,ＳＭＥ　Ｊａｐａｎ税理士法人,,その他の設立登記法人,東京都,豊島区,池袋２丁目３８番１２号,,13,116,1710014,,,,,,,2023-10-05,1,,,,,エスエムイージャパン,0
384,2020001153776,新規,0,2023-10-05,2023-10-05,株式会社ＹＢＳデザイン,,株式会社,神奈川県,横浜市都筑区,池辺町４３８８番地,,14,118,2240053,,,,,,,2023-10-05,1,,,,,ワイビーエスデザイン,0
385,2020001153784,新規,0,2023-10-05,2023-10-05,株式会社ＮｅＸＴ　ａｃｔ　ＷＯＲＫＳ,,株式会社,神奈川県,川崎市川崎区,浅田４丁目７番３号泉コーポ２０２,,14,131,2100847,,,,,,,2023-10-05,1,,,,,ネクストアクトワークス,0
386,2020001153792,新規,0,2023-10-05,2023-10-05,株式会社ココカナ,,株式会社,神奈川県,川崎市多摩区,登戸１８９６番地１－２０６青野方,,14,135,2140014,,,,,,,2023-10-05,1,,,,,ココカナ,0
387,2020003024694,新規,0,2023-10-05,2023-10-05,合同会社共同ガス圧接,,合同会社,神奈川県,川崎市多摩区,菅馬場２丁目５番２７号アンソレイユ・タマヒルズ１０２,,14,135,2140004,,,,,,,2023-10-05,1,,,,,キョウドウガスアッセツ,0
388,2020003024703,新規,0,2023-10-05,2023-10-05,ＫＡＷＡＴＥＲＵ合同会社,,合同会社,神奈川県,川崎市中原区,今井南町１９－２,,14,133,2110064,,,,,,,2023-10-05,1,,,,,カワテル,0
389,2020003024736,新規,0,2023-10-05,2023-10-05,リブレーク合同会社,,合同会社,神奈川県,横浜市栄区,上郷町２６２番地３２・３号館４１０号,,14,115,2470013,,,,,,,2023-10-05,1,,,,,リブレーク,0
392,2021001080358,新規,0,2023-10-05,2023-10-05,株式会社天照経営研究所,,株式会社,神奈川県,茅ヶ崎市,小和田１丁目６番１０号,,14,207,2530012,,,,,,,2023-10-05,1,,,,,アマテラスケイエイケンキュウジョ,0
394,2021003013646,新規,0,2023-10-05,2023-10-05,合同会社アイランド,,合同会社,神奈川県,相模原市中央区,清新２丁目１－９スペーシア相模原１０２号室,,14,152,2520216,,,,,,,2023-10-05,1,,,,,アイランド,0
399,2030001156332,新規,0,2023-10-05,2023-10-05,ＳｕｐｅｒＬｉｎｋ株式会社,,株式会社,埼玉県,さいたま市大宮区,高鼻町２丁目６９－３０－２０１号,,11,103,3300803,,,,,,,2023-10-05,1,,,,,スーパーリンク,0
400,2030001156472,新規,0,2023-10-05,2023-10-05,株式会社Ｒａｙ,,株式会社,埼玉県,川口市,大字安行吉岡１５９３番地の１,,11,203,3340072,,,,,,,2023-10-05,1,,,,,レイ,0
404,2040001130352,新規,0,2023-10-05,2023-10-05,株式会社サクマホーム,,株式会社,千葉県,千葉市若葉区,小倉台７丁目１番５号,,12,104,2640006,,,,,,,2023-10-05,1,,,,,サクマホーム,0
409,2040003023422,新規,0,2023-10-05,2023-10-05,合同会社Ｎａｍｅｌｅｓｓ,,合同会社,千葉県,長生郡一宮町,東浪見７５２８－１Ａ０３,,12,421,2994303,,,,,,,2023-10-05,1,,,,,ネームレス,0
410,2040003023447,新規,0,2023-10-05,2023-10-05,合同会社Ｂｅｅ’ｓＨａｎｄｙｍａｎ,,合同会社,千葉県,千葉市稲毛区,稲毛台町２４－１０ジュネパレス稲毛第４－２０５,,12,103,2630032,,,,,,,2023-10-05,1,,,,,ビーズハンディマン,0
411,2040003023471,新規,0,2023-10-05,2023-10-05,合同会社２５ｆａｃｔｏｒｙ,,合同会社,千葉県,柏市,根戸３８３番地４１,,12,217,2770831,,,,,,,2023-10-05,1,,,,,ニコファクトリー,0
412,2040003023496,新規,0,2023-10-05,2023-10-05,ＥＬＥＭＯｓ合同会社,,合同会社,千葉県,東金市,八坂台５丁目２９－６,,12,213,2830801,,,,,,,2023-10-05,1,,,,,エレモーズ,0
416,2050001053602,新規,0,2023-10-05,2023-10-05,株式会社ＢＥＮＴＹ,,株式会社,茨城県,土浦市,田村町２０９３番地２,,08,203,3000024,,,,,,,2023-10-05,1,,,,,ベンティ,0
418,2050005013338,新規,0,2023-10-05,2023-10-05,税理士法人あるた,,その他の設立登記法人,茨城県,鹿嶋市,大字下塙１１７５番地１,,08,222,3140025,,,,,,,2023-10-05,1,,,,,アルタ,0
420,2060001036399,新規,0,2023-10-05,2023-10-05,株式会社アカツ設備,,株式会社,栃木県,宇都宮市,中岡本町２７３２番地１１,,09,201,3291105,,,,,,,2023-10-05,1,,,,,アカツセツビ,0
426,2080001025895,新規,0,2023-10-05,2023-10-05,株式会社Ｑｕｅ・Ｓｅｒａ,,株式会社,静岡県,静岡市清水区,中之郷３丁目４番１８号,,22,103,4240888,,,,,,,2023-10-05,1,,,,,ケセラ,0
434,2100001036849,新規,0,2023-10-05,2023-10-05,株式会社ＰＯＲＴ,,株式会社,長野県,長野市,篠ノ井布施高田５９６番地１１,,20,201,3888007,,,,,,,2023-10-05,1,,,,,ポート,0
441,2110003005173,新規,0,2023-10-05,2023-10-05,合同会社ＯＤＡ,,合同会社,新潟県,新潟市中央区,本町通７番町１０９８番地１ディナミス４０３号,,15,103,9518067,,,,,,,2023-10-05,1,,,,,オーディエー,0
450,2120001258598,新規,0,2023-10-05,2023-10-05,株式会社ワンツー,,株式会社,大阪府,大阪市中央区,船越町２丁目３番１５号,,27,128,5400036,,,,,,,2023-10-05,1,,,,,ワンツー,0
451,2120001258607,新規,0,2023-10-05,2023-10-05,日本大唐中央株式会社,,株式会社,大阪府,大阪市天王寺区,上汐４丁目４番２３－７０５号,,27,109,5430002,,,,,,,2023-10-05,1,,,,,ニホンダイトウチュウオウ,0
452,2120001258615,新規,0,2023-10-05,2023-10-05,株式会社七宝メンテナンス,,株式会社,大阪府,大阪市浪速区,桜川１丁目３番２－２０１号,,27,111,5560022,,,,,,,2023-10-05,1,,,,,シチホウメンテナンス,0
453,2120001258656,新規,0,2023-10-05,2023-10-05,コバコ株式会社,,株式会社,大阪府,大阪市平野区,背戸口４丁目６番２７号,,27,126,5470034,,,,,,,2023-10-05,1,,,,,コバコ,0
455,2120003025030,新規,0,2023-10-05,2023-10-05,Ｄ＆Ｔ合同会社,,合同会社,大阪府,大阪市西成区,鶴見橋１丁目６番１７号塩谷マンション１階１０１号室,,27,122,5570031,,,,,,,2023-10-05,1,,,,,ディーアンドティー,0
456,2120003025039,新規,0,2023-10-05,2023-10-05,合同会社ｅｔｈｉｃａｌ,,合同会社,大阪府,大阪市浪速区,戎本町１丁目６番４－１０１号,,27,111,5560013,,,,,,,2023-10-05,1,,,,,エシカル,0
457,2120003025047,新規,0,2023-10-05,2023-10-05,合同会社エコパワー６,,合同会社,大阪府,大阪市北区,梅田１丁目１番３号大阪駅前第３ビル３０階,,27,127,5300001,,,,,,,2023-10-05,1,,,,,エコパワーシックス,0
459,2120101068328,新規,0,2023-10-05,2023-10-05,株式会社アイリサーチ,,株式会社,大阪府,堺市東区,日置荘田中町２３９番地２,,27,143,5998113,,,,,,,2023-10-05,1,,,,,アイリサーチ,0
460,2120103005452,新規,0,2023-10-05,2023-10-05,合同会社Ｃｈｅｅｒ,,合同会社,大阪府,堺市中区,辻之１１７２番地２,,27,142,5998245,,,,,,,2023-10-05,1,,,,,チア,0
461,2120903004851,新規,0,2023-10-05,2023-10-05,グッド・プラクティス合同会社,,合同会社,大阪府,豊中市,服部豊町１丁目１４番２４－６０１号,,27,203,5610859,,,,,,,2023-10-05,1,,,,,グッドプラクティス,0
468,2130001075316,新規,0,2023-10-05,2023-10-05,遠望商事株式会社,,株式会社,京都府,京都市右京区,西京極郡町９９番地,,26,108,6150884,,,,,,,2023-10-05,1,,,,,エンボウショウジ,0
469,2130001075349,新規,0,2023-10-05,2023-10-05,瀛海グループ株式会社,,株式会社,京都府,京都市伏見区,深草フチ町６番地３－２０２号室,,26,109,6128438,,,,,,,2023-10-05,1,,,,,エイカイグループ,0
470,2130001075365,新規,0,2023-10-05,2023-10-05,ＦＬＡＳＨメディカル株式会社,,株式会社,京都府,亀岡市,南つつじケ丘大葉台２丁目４１番１８号,,26,206,6210846,,,,,,,2023-10-05,1,,,,,フラッシュメディカル,0
478,2140001131836,新規,0,2023-10-05,2023-10-05,株式会社五島建築,,株式会社,兵庫県,加古川市,加古川町美乃利３１０番地の５９,,28,210,6750062,,,,,,,2023-10-05,1,,,,,ゴトウケンチク,0
479,2140003019625,新規,0,2023-10-05,2023-10-05,合同会社マツオカ,,合同会社,兵庫県,尼崎市,大庄中通１丁目７１番地の７,,28,202,6600075,,,,,,,2023-10-05,1,,,,,マツオカ,0
482,2150001026770,新規,0,2023-10-05,2023-10-05,森田エンジニアリング株式会社,,株式会社,奈良県,大和郡山市,椎木町３９３－１,,29,203,6391039,,,,,,,2023-10-05,1,,,,,モリタエンジニアリング,0
485,2160001025391,新規,0,2023-10-05,2023-10-05,株式会社グリーン茨木,,株式会社,滋賀県,近江八幡市,鷹飼町１１７０番地５,,25,204,5230891,,,,,,,2023-10-05,1,,,,,グリーンイバラギ,0
488,2170001017818,新規,0,2023-10-05,2023-10-05,株式会社喫茶,,株式会社,和歌山県,岩出市,西国分５６９番地の３（９１０号）,,30,209,6496213,,,,,,,2023-10-05,1,,,,,キッサ,0
495,2180001158289,新規,0,2023-10-05,2023-10-05,株式会社プラム,,株式会社,愛知県,名古屋市名東区,梅森坂３丁目３９０１番地の２,,23,115,4650065,,,,,,,2023-10-05,1,,,,,プラム,0
496,2180001158306,新規,0,2023-10-05,2023-10-05,株式会社Ｂｅｌｉｅｖｅ,,株式会社,愛知県,名古屋市緑区,滝ノ水５丁目２３０１番地,,23,114,4580021,,,,,,,2023-10-05,1,,,,,ビリーブ,0
497,2180001158314,新規,0,2023-10-05,2023-10-05,株式会社ＹＫクリエイティブ,,株式会社,愛知県,瀬戸市,共栄通３丁目２３番地,,23,204,4890809,,,,,,,2023-10-05,1,,,,,ワイケイクリエイティブ,0
498,2180001158339,新規,0,2023-10-05,2023-10-05,株式会社ＧｏｏｄＰａｉｎｔ,,株式会社,愛知県,江南市,草井町千代見１２２番地,,23,217,4838077,,,,,,,2023-10-05,1,,,,,グッドペイント,0
513,2220001025625,新規,0,2023-10-05,2023-10-05,庄司商事株式会社,,株式会社,石川県,かほく市,白尾ラ１０７番地２,,17,209,9291177,,,,,,,2023-10-05,1,,,,,ショウジショウジ,0
518,2240001062204,新規,0,2023-10-05,2023-10-05,株式会社外構房,,株式会社,広島県,東広島市,西条町吉行１４３８番地,,34,212,7390002,,,,,,,2023-10-05,1,,,,,ガイコウボウ,0
519,2240001062220,新規,0,2023-10-05,2023-10-05,株式会社ＴｅＬＡＲＩＡ,,株式会社,広島県,広島市中区,西平塚町３番１７号,,34,101,7300024,,,,,,,2023-10-05,1,,,,,テラリア,0
523,2240003006349,新規,0,2023-10-05,2023-10-05,ｎａｆｆ合同会社,,合同会社,広島県,廿日市市,浅原１６０１番地,,34,213,7380223,,,,,,,2023-10-05,1,,,,,ナフ,0
524,2240003006357,新規,0,2023-10-05,2023-10-05,合同会社ＴＡＮＢＡＹＡ,,合同会社,広島県,安芸高田市,吉田町吉田１１８３番地５（２階）,,34,214,7310501,,,,,,,2023-10-05,1,,,,,タンバヤ,0
527,2260001038375,新規,0,2023-10-05,2023-10-05,エントキャリコ株式会社,,株式会社,岡山県,岡山市南区,泉田３丁目４番３号レジデンス泉３０７,,33,104,7000944,,,,,,,2023-10-05,1,,,,,エントキャリコ,0
528,2260003004458,新規,0,2023-10-05,2023-10-05,合同会社松栄,,合同会社,岡山県,倉敷市,北畝３丁目１番２号,,33,202,7128032,,,,,,,2023-10-05,1,,,,,ショウエイ,0
530,2270001008848,新規,0,2023-10-05,2023-10-05,株式会社ＢＲＩＧＨＴ　ＲＩＮＧ,,株式会社,鳥取県,米子市,蚊屋３１６番地１３,,31,202,6893543,,,,,,,2023-10-05,1,,,,,ブライトリング,0
534,2290001103168,新規,0,2023-10-05,2023-10-05,株式会社ｇｅｎｉｃ,,株式会社,福岡県,福岡市南区,大楠１丁目３２－１１－６０２号,,40,134,8150082,,,,,,,2023-10-05,1,,,,,ジェニック,0
535,2290001103226,新規,0,2023-10-05,2023-10-05,株式会社トラストテックライフ,,株式会社,福岡県,那珂川市,松木４丁目５番１２－４０３号（ジョイナス博多南）,,40,231,8111251,,,,,,,2023-10-05,1,,,,,トラストテックライフ,0
536,2290001103267,新規,0,2023-10-05,2023-10-05,株式会社一品香大野城店,,株式会社,福岡県,大野城市,川久保１丁目１０番７号,,40,219,8160905,,,,,,,2023-10-05,1,,,,,イーピンシャンオオノジョウテン,0
539,2290003014421,新規,0,2023-10-05,2023-10-05,合同会社こねくと,,合同会社,福岡県,糸島市,有田５９２－３,,40,230,8191132,,,,,,,2023-10-05,1,,,,,コネクト,0
540,2290003014438,新規,0,2023-10-05,2023-10-05,合同会社Ｋ．Ｈ．Ｋ,,合同会社,福岡県,福岡市中央区,大名２丁目２番７号大名センタービル６Ｆ,,40,133,8100041,,,,,,,2023-10-05,1,,,,,ケイエイチケイ,0
542,2300003002028,新規,0,2023-10-05,2023-10-05,合同会社金属リサイクルセンター,,合同会社,佐賀県,佐賀市,高木瀬町大字長瀬３００番地４,,41,201,8490917,,,,,,,2023-10-05,1,,,,,キンゾクリサイクルセンター,0
546,2320001020046,新規,0,2023-10-05,2023-10-05,株式会社エイセイ,,株式会社,大分県,大分市,ふじが丘西１丁目３番４号,,44,201,8701185,,,,,,,2023-10-05,1,,,,,エイセイ,0
550,2330001031315,新規,0,2023-10-05,2023-10-05,株式会社ＴＹＵＧＩ商事,,株式会社,熊本県,宇土市,住吉町２６４２番地,,43,211,8690401,,,,,,,2023-10-05,1,,,,,チュウギショウジ,0
551,2330001031323,新規,0,2023-10-05,2023-10-05,株式会社Ｍｔ．ＯＮ,,株式会社,熊本県,菊池郡菊陽町,光の森７丁目２３番地１１プラトゥー光の森１Ｆ,,43,404,8691108,,,,,,,2023-10-05,1,,,,,マウントオン,0
552,2330001031331,新規,0,2023-10-05,2023-10-05,株式会社Ｓｅｒｉｖｅｒ,,株式会社,熊本県,熊本市東区,長嶺南７丁目６番１号,,43,102,8618039,,,,,,,2023-10-05,1,,,,,セリバー,0
556,2350003004449,新規,0,2023-10-05,2023-10-05,合同会社ひまわり,,合同会社,宮崎県,東臼杵郡門川町,宮ケ原４丁目４３番,,45,421,8890623,,,,,,,2023-10-05,1,,,,,ヒマワリ,0
559,2360001032640,新規,0,2023-10-05,2023-10-05,株式会社ｙ．ｓ　ｈｏｍｅ,,株式会社,沖縄県,南城市,大里字稲嶺１４６番地３－１０２号,,47,215,9011204,,,,,,,2023-10-05,1,,,,,ワイエスホーム,0
560,2360003013325,新規,0,2023-10-05,2023-10-05,合同会社ｅｎ,,合同会社,沖縄県,中頭郡中城村,字南上原７２６番地１（３０３）,,47,328,9012424,,,,,,,2023-10-05,1,,,,,エン,0
561,2360005006913,新規,0,2023-10-05,2023-10-05,一般社団法人沖縄未来人材育成ラボ,,その他の設立登記法人,沖縄県,那覇市,泉崎１丁目２０番１号,,47,201,9000021,,,,,,,2023-10-05,1,,,,,オキナワミライジンザイイクセイラボ,0
566,2380001034024,新規,0,2023-10-05,2023-10-05,株式会社ＫＡＴＥＫＹＯ相馬,,株式会社,福島県,相馬市,中村１丁目７番地１角丸ビル３Ｆ,,07,209,9760042,,,,,,,2023-10-05,1,,,,,カテキョーソウマ,0
567,2380001034032,新規,0,2023-10-05,2023-10-05,株式会社國分エンジニアリング,,株式会社,福島県,本宮市,本宮字葭ヶ入１３８番地１２,,07,214,9691145,,,,,,,2023-10-05,1,,,,,コクブンエンジニアリング,0
576,2400001016408,新規,0,2023-10-05,2023-10-05,株式会社木生,,株式会社,岩手県,胆沢郡金ケ崎町,三ケ尻鎌田東５番地７,,03,381,0294502,,,,,,,2023-10-05,1,,,,,キナリ,0
585,2420001018427,新規,0,2023-10-05,2023-10-05,株式会社Ｆｒｏｍ　Ｚｅｒｏ,,株式会社,青森県,八戸市,大字長苗代字下亀子谷地６番地８,,02,203,0391103,,,,,,,2023-10-05,1,,,,,フロムゼロ,0
587,2430001090086,新規,0,2023-10-05,2023-10-05,株式会社ＮＫサービス,,株式会社,北海道,岩内郡共和町,老古美８３番地６２,,01,401,0450032,,,,,,,2023-10-05,1,,,,,エヌケーサービス,0
592,2430005014801,新規,0,2023-10-05,2023-10-05,一般社団法人ＬｅＣｉｅｌ,,その他の設立登記法人,北海道,札幌市東区,伏古三条４丁目１番３２号,,01,103,0070863,,,,,,,2023-10-05,1,,,,,ルシエル,0
593,2450003002392,新規,0,2023-10-05,2023-10-05,Ｓｉｄｅｑｕｅｓｔ合同会社,,合同会社,北海道,旭川市,東光五条１０丁目６番１１号,,01,204,0788345,,,,,,,2023-10-05,1,,,,,サイドクエスト,0
600,2700150121077,新規,0,2023-10-05,2023-10-05,Ｃａｒｌ　Ｚｅｉｓｓ　ＳＭＴ　ＧｍｂＨ,,外国会社等,,,,,,,,Ｃａｒｌ－Ｚｅｉｓｓ－Ｐｒｏｍｅｎａｄｅ　１０，Ｊｅｎａ　０７７４５，Ｇｅｒｍａｎｙ,,,,,,2023-10-05,1,,,,,カールツアイスエスエムテイージーエムビーエイチ,0
607,3010001238940,新規,0,2023-10-05,2023-10-05,株式会社Ｍ＆Ａファイナンシャル,,株式会社,東京都,千代田区,丸の内１丁目８番１号丸の内トラストタワーＮ館１８階,,13,101,1000005,,,,,,,2023-10-05,1,,,,,エムアンドエーファイナンシャル,0
608,3010001238965,新規,0,2023-10-05,2023-10-05,株式会社ＭＩＴ,,株式会社,東京都,中央区,佃２丁目５番７－９１０号,,13,102,1040051,,,,,,,2023-10-05,1,,,,,エムアイティ,0
609,3010001238981,新規,0,2023-10-05,2023-10-05,株式会社Ｐ．Ｇ．Ａｇｅｎｔ,,株式会社,東京都,千代田区,外神田４丁目７番５号,,13,101,1010021,,,,,,,2023-10-05,1,,,,,ピージーエージェント,0
610,3010001239006,新規,0,2023-10-05,2023-10-05,株式会社ＳＫキャピタル,,株式会社,東京都,中央区,銀座１丁目２２番１１号銀座大竹ビジデンス２Ｆ,,13,102,1040061,,,,,,,2023-10-05,1,,,,,エスケーキャピタル,0
612,3010003041839,新規,0,2023-10-05,2023-10-05,ジェイ・シー・エイチ・ワン・ホールディング合同会社,,合同会社,東京都,千代田区,丸の内３丁目１番１号東京共同会計事務所内,,13,101,1000005,,,,,,,2023-10-05,1,,,,,ジェイシーエイチワンホールディング,0
614,3010005037331,新規,0,2023-10-05,2023-10-05,エスティヨコハマ一般社団法人,,その他の設立登記法人,東京都,千代田区,丸の内３丁目１番１号東京共同会計事務所内,,13,101,1000005,,,,,,,2023-10-05,1,,,,,エスティヨコハマ,0
615,3010103002212,新規,0,2023-10-05,2023-10-05,石井電子計測合同会社,,合同会社,東京都,八王子市,別所１丁目４１番地１、６－１８０４,,13,201,1920363,,,,,,,2023-10-05,1,,,,,イシイデンシケイソク,0
622,3010401177664,新規,0,2023-10-05,2023-10-05,株式会社コレクションホビーズ,,株式会社,東京都,港区,東新橋１丁目２番１０号ＰＡＬ汐留,,13,103,1050021,,,,,,,2023-10-05,1,,,,,コレクションホビーズ,0
624,3010403031068,新規,0,2023-10-05,2023-10-05,合同会社ＧＭｐｌｕｓ,,合同会社,東京都,港区,浜松町２丁目２番１５号浜松町ダイヤビル２Ｆ,,13,103,1050013,,,,,,,2023-10-05,1,,,,,ジーエムプラス,0
630,3010601063912,新規,0,2023-10-05,2023-10-05,Ｅｖｏ　Ｖｅｎｔｕｒｅｓ株式会社,,株式会社,東京都,墨田区,墨田１丁目９－６,,13,107,1310031,,,,,,,2023-10-05,1,,,,,エボベンチャーズ,0
631,3010701044936,新規,0,2023-10-05,2023-10-05,株式会社マクリス,,株式会社,東京都,品川区,旗の台２丁目１番２５号,,13,109,1420064,,,,,,,2023-10-05,1,,,,,マクリス,0
634,3010801034390,新規,0,2023-10-05,2023-10-05,株式会社工房なかろく,,株式会社,東京都,大田区,西六郷４丁目１４番１６号,,13,111,1440056,,,,,,,2023-10-05,1,,,,,コウボウナカロク,0
636,3010803004706,新規,0,2023-10-05,2023-10-05,合同会社Ｔｈｒｅｅ　ｅｉｇｈｔ,,合同会社,東京都,大田区,新蒲田３丁目２３番２０号,,13,111,1440054,,,,,,,2023-10-05,1,,,,,スリーエイト,0
640,3011001157338,新規,0,2023-10-05,2023-10-05,株式会社ベンチャーファースト,,株式会社,東京都,渋谷区,道玄坂１丁目１０番８号渋谷道玄坂東急ビル２Ｆ－Ｃ,,13,113,1500043,,,,,,,2023-10-05,1,,,,,ベンチャーファースト,0
641,3011001157346,新規,0,2023-10-05,2023-10-05,株式会社ＦＲＥＤ,,株式会社,東京都,渋谷区,渋谷２丁目６番１１号花門ビル３階,,13,113,1500002,,,,,,,2023-10-05,1,,,,,フレッド,0
642,3011001157354,新規,0,2023-10-05,2023-10-05,株式会社ダイアログ・キャンバス,,株式会社,東京都,目黒区,八雲２丁目２１－９オープンレジデンシア目黒八雲２０２,,13,110,1520023,,,,,,,2023-10-05,1,,,,,ダイアログキャンバス,0
645,3011003017655,新規,0,2023-10-05,2023-10-05,合同会社ＮＴＣ,,合同会社,東京都,目黒区,祐天寺１丁目２７番７号,,13,110,1530052,,,,,,,2023-10-05,1,,,,,エヌティーシー,0
648,3011101104603,新規,0,2023-10-05,2023-10-05,スズワ株式会社,,株式会社,東京都,新宿区,西落合２丁目２４番１８号,,13,104,1610031,,,,,,,2023-10-05,1,,,,,スズワ,0
649,3011101104611,新規,0,2023-10-05,2023-10-05,Ｌｉｆｅ　Ｂｉｚ株式会社,,株式会社,東京都,新宿区,新宿４丁目３番１７号ＦＯＲＥＣＡＳＴ新宿ＳＯＵＴＨ３階,,13,104,1600022,,,,,,,2023-10-05,1,,,,,ライフビズ,0
650,3011101104636,新規,0,2023-10-05,2023-10-05,ＨＹＡＣＣＡ株式会社,,株式会社,東京都,新宿区,北新宿２丁目２１－１新宿フロントタワー１６階,,13,104,1690074,,,,,,,2023-10-05,1,,,,,ヒャッカ,0
651,3011101104652,新規,0,2023-10-05,2023-10-05,株式会社ＧＲＥＹ　ＥＮＴＥＲＰＲＩＳＥ,,株式会社,東京都,新宿区,新宿３丁目４番８号京王フレンテ新宿三丁目８階,,13,104,1600022,,,,,,,2023-10-05,1,,,,,グレイエンタープライズ,0
653,3011103013538,新規,0,2023-10-05,2023-10-05,ギンガオフィス合同会社,,合同会社,東京都,新宿区,大京町２０－５８,,13,104,1600015,,,,,,,2023-10-05,1,,,,,ギンガオフィス,0
654,3011103013546,新規,0,2023-10-05,2023-10-05,合同会社ダダダ,,合同会社,東京都,新宿区,中落合２丁目５番３１号中落合シティハウス４０３,,13,104,1610032,,,,,,,2023-10-05,1,,,,,ダダダ,0
655,3011103013554,新規,0,2023-10-05,2023-10-05,カプセルファーマシー合同会社,,合同会社,東京都,新宿区,北新宿４丁目３２番１０号アストラル北新宿１階,,13,104,1690074,,,,,,,2023-10-05,1,,,,,カプセルファーマシー,0
656,3011103013562,新規,0,2023-10-05,2023-10-05,合同会社Ｓｕｎ　Ｂｅａｃｈ,,合同会社,東京都,新宿区,西早稲田２丁目４番１６号エスユービル２階,,13,104,1690051,,,,,,,2023-10-05,1,,,,,サンビーチ,0
659,3011301029047,新規,0,2023-10-05,2023-10-05,株式会社ＢＥＡＣＨ,,株式会社,東京都,杉並区,上井草３丁目１０－１０,,13,115,1670023,,,,,,,2023-10-05,1,,,,,ビーチ,0
664,3011801043126,新規,0,2023-10-05,2023-10-05,Ｂｅｓｔ　Ｓｅｒｖｉｃｅ株式会社,,株式会社,東京都,葛飾区,青戸７丁目２３番１１号,,13,122,1250062,,,,,,,2023-10-05,1,,,,,ベストサービス,0
665,3011801043134,新規,0,2023-10-05,2023-10-05,株式会社タクト,,株式会社,東京都,葛飾区,東新小岩８丁目２１番１１号,,13,122,1240023,,,,,,,2023-10-05,1,,,,,タクト,0
667,3012301013619,新規,0,2023-10-05,2023-10-05,株式会社小川製作所,,株式会社,東京都,町田市,小野路町３３２８番地２,,13,209,1950064,,,,,,,2023-10-05,1,,,,,オガワセイサクショ,0
669,3012403006215,新規,0,2023-10-05,2023-10-05,橘祥コミュニケーションズ合同会社,,合同会社,東京都,武蔵野市,吉祥寺南町１丁目３１番８号,,13,203,1800003,,,,,,,2023-10-05,1,,,,,,0
670,3012701017863,新規,0,2023-10-05,2023-10-05,株式会社美栄設備,,株式会社,東京都,東久留米市,八幡町２丁目１１番３号,,13,222,2030042,,,,,,,2023-10-05,1,,,,,ビエイセツビ,0
671,3012703002814,新規,0,2023-10-05,2023-10-05,ＴＵＹＳＴＡＡ合同会社,,合同会社,東京都,清瀬市,元町１丁目７番８号,,13,221,2040021,,,,,,,2023-10-05,1,,,,,ツイスター,0
674,3012801022664,新規,0,2023-10-05,2023-10-05,株式会社やまとリフォーム,,株式会社,東京都,東大和市,南街３丁目２６番地の１２,,13,220,2070014,,,,,,,2023-10-05,1,,,,,ヤマトリフォーム,0
682,3020001153750,新規,0,2023-10-05,2023-10-05,天海株式会社,,株式会社,神奈川県,横浜市中区,福富町西通１番７号セントレー横浜関内１２０５号室,,14,104,2310042,,,,,,,2023-10-05,1,,,,,テンカイ,0
683,3020001153775,新規,0,2023-10-05,2023-10-05,株式会社ＹＤ‐Ｒ,,株式会社,神奈川県,横浜市南区,井土ケ谷下町３０番地３調美荘２０７,,14,105,2320053,,,,,,,2023-10-05,1,,,,,ワイディーアール,0
684,3020001153783,新規,0,2023-10-05,2023-10-05,株式会社立花,,株式会社,神奈川県,横浜市中区,伊勢佐木町４丁目１１７番地２階,,14,104,2310045,,,,,,,2023-10-05,1,,,,,タチバナ,0
685,3020001153791,新規,0,2023-10-05,2023-10-05,メディフロー株式会社,,株式会社,神奈川県,横浜市西区,北幸１丁目１１番１号水信ビル７階,,14,103,2200004,,,,,,,2023-10-05,1,,,,,メディフロー,0
686,3020001153800,新規,0,2023-10-05,2023-10-05,木工房株式会社,,株式会社,神奈川県,横浜市栄区,小菅ケ谷３丁目２番１－１０５号,,14,115,2470007,,,,,,,2023-10-05,1,,,,,モクコウボウ,0
687,3020001153809,新規,0,2023-10-05,2023-10-05,株式会社松本電工,,株式会社,神奈川県,横浜市鶴見区,菅沢町１１－５,,14,101,2300027,,,,,,,2023-10-05,1,,,,,マツモトデンコウ,0
688,3020001153817,新規,0,2023-10-05,2023-10-05,株式会社タカショー,,株式会社,神奈川県,横浜市保土ケ谷区,岡沢町２１９番地３,,14,106,2400062,,,,,,,2023-10-05,1,,,,,タカショー,0
693,3020005016136,新規,0,2023-10-05,2023-10-05,一般社団法人後発医薬品卸サポート委員会,,その他の設立登記法人,神奈川県,横浜市港北区,新横浜２丁目５番１０号楓第２ビル９Ｆ・Ｃ室,,14,109,2220033,,,,,,,2023-10-05,1,,,,,コウハツイヤクヒンオロシサポートイインカイ,0
696,3021001080324,新規,0,2023-10-05,2023-10-05,株式会社松本建設,,株式会社,神奈川県,鎌倉市,手広４丁目３０番２９号,,14,204,2480036,,,,,,,2023-10-05,1,,,,,マツモトケンセツ,0
701,3021003013645,新規,0,2023-10-05,2023-10-05,合同会社マルシンテクノ,,合同会社,神奈川県,厚木市,寿町２丁目３－２,,14,212,2430003,,,,,,,2023-10-05,1,,,,,マルシンテクノ,0
702,3021003013661,新規,0,2023-10-05,2023-10-05,ＪＲ　ＴＲＡＤＩＮＧ合同会社,,合同会社,神奈川県,座間市,栗原中央１丁目３１番１５号井上コーポ２０６号,,14,216,2520014,,,,,,,2023-10-05,1,,,,,ジェイアールトレーディング,0
706,3030001156307,新規,0,2023-10-05,2023-10-05,株式会社Ｕｐｓｔａｒｔ,,株式会社,埼玉県,川口市,長蔵１丁目１８－１Ｎｉｃｏワークオフィス２０２,,11,203,3330807,,,,,,,2023-10-05,1,,,,,アップスタート,0
707,3030001156471,新規,0,2023-10-05,2023-10-05,文化新聞株式会社,,株式会社,埼玉県,飯能市,大字原市場８１番地,,11,209,3570124,,,,,,,2023-10-05,1,,,,,ブンカシンブン,0
713,3030003022622,新規,0,2023-10-05,2023-10-05,ＬＵＸ合同会社,,合同会社,埼玉県,さいたま市岩槻区,大字裏慈恩寺３３５番地１,,11,110,3390002,,,,,,,2023-10-05,1,,,,,ラックス,0
723,3040001130335,新規,0,2023-10-05,2023-10-05,株式会社ケイホームサービス,,株式会社,千葉県,野田市,東高野３２番地の内２,,12,208,2700211,,,,,,,2023-10-05,1,,,,,ケイホームサービス,0
725,3040005022157,新規,0,2023-10-05,2023-10-05,医療法人社団祥正会,,その他の設立登記法人,千葉県,柏市,南柏中央７番地１フィールズ南柏モールＩ３階,00132147,12,217,2770075,,,,,,,2023-10-05,1,,,,,ショウセイカイ,0
726,3050001053576,新規,0,2023-10-05,2023-10-05,アシュリ総合建設株式会社,,株式会社,茨城県,水戸市,栗崎町１２１５番地の６,,08,201,3111133,,,,,,,2023-10-05,1,,,,,アシュリソウゴウケンセツ,0
728,3050003007836,新規,0,2023-10-05,2023-10-05,Ｈａｕ’ｏｌｉ合同会社,,合同会社,茨城県,取手市,戸頭２４２６－７,,08,217,3020034,,,,,,,2023-10-05,1,,,,,ハウオリ,0
732,3060001036398,新規,0,2023-10-05,2023-10-05,株式会社Ｔ’ｓリフォーム,,株式会社,栃木県,足利市,月谷町１０５７番地２,,09,202,3260068,,,,,,,2023-10-05,1,,,,,ティーズリフォーム,0
733,3060003004741,新規,0,2023-10-05,2023-10-05,ガレーヂカミヤマ合同会社,,合同会社,栃木県,栃木市,野中町４６４番地１,,09,203,3280124,,,,,,,2023-10-05,1,,,,,ガレーヂカミヤマ,0
747,3100001036856,新規,0,2023-10-05,2023-10-05,タマキ工業株式会社,,株式会社,長野県,長野市,大字川合新田２１番地１,,20,201,3800913,,,,,,,2023-10-05,1,,,,,タマキコウギョウ,0
751,3110001037878,新規,0,2023-10-05,2023-10-05,株式会社小野牧場,,株式会社,新潟県,新発田市,大友１９１３番地１,,15,206,9570347,,,,,,,2023-10-05,1,,,,,オノボクジョウ,0
753,3110005017001,新規,0,2023-10-05,2023-10-05,一般社団法人防災ドローン実践研究会,,その他の設立登記法人,新潟県,新潟市中央区,近江３丁目２１番９号,,15,103,9500971,,,,,,,2023-10-05,1,,,,,ボウサイドローンジッセンケンキュウカイ,0
759,3120001258548,新規,0,2023-10-05,2023-10-05,奕蘭株式会社,,株式会社,大阪府,大阪市城東区,鴫野西２丁目２－８－４０７号室,,27,118,5360014,,,,,,,2023-10-05,1,,,,,イラン,0
760,3120001258572,新規,0,2023-10-05,2023-10-05,邏魁株式会社,,株式会社,大阪府,大阪市大正区,三軒家西３丁目４番１６号中山ビル２１３Ａ,,27,108,5510001,,,,,,,2023-10-05,1,,,,,ラカイ,0
761,3120001258597,新規,0,2023-10-05,2023-10-05,猪目株式会社,,株式会社,大阪府,大阪市西区,南堀江２丁目３番１３号３Ｆ,,27,106,5500015,,,,,,,2023-10-05,1,,,,,イノメ,0
762,3120001258614,新規,0,2023-10-05,2023-10-05,株式会社成琉,,株式会社,大阪府,大阪市西成区,北津守３丁目３番１号,,27,122,5570061,,,,,,,2023-10-05,1,,,,,セイリュウ,0
763,3120001258622,新規,0,2023-10-05,2023-10-05,株式会社ティーエスフーズ,,株式会社,大阪府,大阪市西淀川区,大和田５丁目６番６号,,27,113,5550032,,,,,,,2023-10-05,1,,,,,ティーエスフーズ,0
765,3120101068319,新規,0,2023-10-05,2023-10-05,株式会社ＡＥＣ,,株式会社,大阪府,貝塚市,王子８７９番地１２,,27,208,5970051,,,,,,,2023-10-05,1,,,,,エーイーシー,0
766,3120901048123,新規,0,2023-10-05,2023-10-05,株式会社オースリーエス,,株式会社,大阪府,摂津市,千里丘２丁目１４－３第２岡本ビル３Ｂ,,27,224,5660001,,,,,,,2023-10-05,1,,,,,オースリーエス,0
767,3120905006523,新規,0,2023-10-05,2023-10-05,一般社団法人Ｈｅａｒｔ　ｒｅｓＱ,,その他の設立登記法人,大阪府,吹田市,朝日が丘町１７番２０－１０１号,,27,205,5640083,,,,,,,2023-10-05,1,,,,,ハートレスキュー,0
770,3130001075348,新規,0,2023-10-05,2023-10-05,ＮｅｘＴｉｅｒ株式会社,,株式会社,京都府,京都市東山区,清水４丁目１５６番地２０,,26,105,6050862,,,,,,,2023-10-05,1,,,,,ネクスティア,0
771,3130001075364,新規,0,2023-10-05,2023-10-05,株式会社灘本コンサルケア,,株式会社,京都府,城陽市,長池北裏１８番地５,,26,207,6100112,,,,,,,2023-10-05,1,,,,,ナダモトコンサルケア,0
774,3140001131843,新規,0,2023-10-05,2023-10-05,ジョイ株式会社,,株式会社,兵庫県,西宮市,生瀬町１丁目８番１５号,,28,204,6691102,,,,,,,2023-10-05,1,,,,,ジョイ,0
775,3140001131851,新規,0,2023-10-05,2023-10-05,株式会社魁明工業,,株式会社,兵庫県,加古川市,加古川町友沢３１番地の７,,28,210,6750035,,,,,,,2023-10-05,1,,,,,カイメイコウギョウ,0
778,3160001025390,新規,0,2023-10-05,2023-10-05,株式会社Ｒｅ・Ｓｈｉｎｅ,,株式会社,滋賀県,東近江市,下羽田町２２８番地１３,,25,213,5270085,,,,,,,2023-10-05,1,,,,,リシャイン,0
789,3180001158296,新規,0,2023-10-05,2023-10-05,株式会社整市建設,,株式会社,愛知県,春日井市,十三塚町３０３０番地２５４,,23,206,4860815,,,,,,,2023-10-05,1,,,,,ナリイチケンセツ,0
790,3180001158313,新規,0,2023-10-05,2023-10-05,株式会社イワサ,,株式会社,愛知県,春日井市,旭町４丁目４７番地,,23,206,4860929,,,,,,,2023-10-05,1,,,,,イワサ,0
791,3180001158321,新規,0,2023-10-05,2023-10-05,ユウヤ工業株式会社,,株式会社,愛知県,一宮市,大赤見字神明東１０番地２,,23,203,4910015,,,,,,,2023-10-05,1,,,,,ユウヤコウギョウ,0
794,3180005020378,新規,0,2023-10-05,2023-10-05,土地家屋調査士法人あおばグループ,,その他の設立登記法人,愛知県,名古屋市千種区,今池３丁目１１番２０号,,23,101,4640850,,,,,,,2023-10-05,1,,,,,アオバグループ,0
795,3180301037869,新規,0,2023-10-05,2023-10-05,株式会社Ａｉｒ　Ｆｌｅｘ,,株式会社,愛知県,安城市,小川町山中１６４番地１,,23,212,4441162,,,,,,,2023-10-05,1,,,,,エアーフレックス,0
796,3180301037885,新規,0,2023-10-05,2023-10-05,株式会社Ｇ．Ｍ．Ｓ企画,,株式会社,愛知県,豊橋市,前田町２丁目８－１－１０４,,23,201,4400814,,,,,,,2023-10-05,1,,,,,ジーエムエスキカク,0
801,3200001041788,新規,0,2023-10-05,2023-10-05,株式会社まごころモータース,,株式会社,岐阜県,多治見市,太平町３丁目１５番地,,21,204,5070041,,,,,,,2023-10-05,1,,,,,マゴコロモータース,0
803,3210001019494,新規,0,2023-10-05,2023-10-05,リリース株式会社,,株式会社,福井県,福井市,照手４丁目４番２１号,,18,201,9100024,,,,,,,2023-10-05,1,,,,,リリース,0
805,3220001025624,新規,0,2023-10-05,2023-10-05,株式会社Ａｓｕｒａ　Ｍｏｄｅ,,株式会社,石川県,加賀市,山代温泉幸町１４番地,,17,206,9220255,,,,,,,2023-10-05,1,,,,,アスラモード,0
810,3250001020309,新規,0,2023-10-05,2023-10-05,株式会社東水産,,株式会社,山口県,大島郡周防大島町,大字浮島４９番地１,,35,305,7422801,,,,,,,2023-10-05,1,,,,,アズマスイサン,0
811,3250001020317,新規,0,2023-10-05,2023-10-05,株式会社ジョーシスワン,,株式会社,山口県,周南市,築港町４番３号,,35,215,7450025,,,,,,,2023-10-05,1,,,,,ジョーシスワン,0
814,3260001038374,新規,0,2023-10-05,2023-10-05,ＭＫ会計株式会社,,株式会社,岡山県,岡山市北区,新庄上９１番地,,33,101,7011345,,,,,,,2023-10-05,1,,,,,エムケイカイケイ,0
816,3260003004457,新規,0,2023-10-05,2023-10-05,ＳＥＴＯＤＥＺＡ合同会社,,合同会社,岡山県,岡山市北区,北長瀬表町２丁目１７番８０号ＢＲＡＮＣＨ岡山北長瀬ハッシュタグ岡山,,33,101,7000962,,,,,,,2023-10-05,1,,,,,セトデザ,0
817,3270001008847,新規,0,2023-10-05,2023-10-05,株式会社Ｕｓ,,株式会社,鳥取県,米子市,皆生新田２丁目７番１０号１０１号,,31,202,6830002,,,,,,,2023-10-05,1,,,,,アス,0
820,3290001103217,新規,0,2023-10-05,2023-10-05,株式会社シロ田,,株式会社,福岡県,柳川市,三橋町下百町２１０番地１柳川駅東口ビル１階,,40,207,8320822,,,,,,,2023-10-05,1,,,,,シロタ,0
822,3290003014437,新規,0,2023-10-05,2023-10-05,シンキプリンティング合同会社,,合同会社,福岡県,久留米市,三潴町清松４７１番地２,,40,203,8300116,,,,,,,2023-10-05,1,,,,,シンキプリンティング,0
825,3290803004513,新規,0,2023-10-05,2023-10-05,合同会社フラワードリームサミゾ,,合同会社,福岡県,田川郡赤村,大字赤２７番地,,40,609,8240431,,,,,,,2023-10-05,1,,,,,フラワードリームサミゾ,0
826,3300005007156,新規,0,2023-10-05,2023-10-05,特定非営利活動法人ソーレ・スマイル,,その他の設立登記法人,佐賀県,佐賀市,久保田町大字徳万２５２９番地３,,41,201,8490201,,,,,,,2023-10-05,1,,,,,ソーレスマイル,0
833,3330001031314,新規,0,2023-10-05,2023-10-05,株式会社スカイグラフ,,株式会社,熊本県,熊本市北区,植木町正清３７番地,,43,105,8610117,,,,,,,2023-10-05,1,,,,,スカイグラフ,0
834,3330001031322,新規,0,2023-10-05,2023-10-05,株式会社ワン・プラス・ワン,,株式会社,熊本県,熊本市西区,上熊本３丁目１番７号,,43,103,8600079,,,,,,,2023-10-05,1,,,,,ワンプラスワン,0
837,3340001025950,新規,0,2023-10-05,2023-10-05,株式会社トモファーム,,株式会社,鹿児島県,出水市,高尾野町下水流２７０５番地５,,46,208,8990405,,,,,,,2023-10-05,1,,,,,トモファーム,0
838,3340003004275,新規,0,2023-10-05,2023-10-05,合同会社アンバー,,合同会社,鹿児島県,薩摩川内市,国分寺町６８２６番地３,,46,215,8950073,,,,,,,2023-10-05,1,,,,,アンバー,0
840,3360001032631,新規,0,2023-10-05,2023-10-05,株式会社ＨＹＮ,,株式会社,沖縄県,那覇市,泊１丁目１２番地２０,,47,201,9000012,,,,,,,2023-10-05,1,,,,,エイチワイエヌ,0
841,3360001032648,新規,0,2023-10-05,2023-10-05,株式会社上原商会,,株式会社,沖縄県,那覇市,東町５番１４号ＰＯＳＴビル１Ｆ,,47,201,9000034,,,,,,,2023-10-05,1,,,,,ウエハラショウカイ,0
843,3360003013349,新規,0,2023-10-05,2023-10-05,合同会社海香丸水産,,合同会社,沖縄県,糸満市,潮崎町３丁目２１番地の１,,47,210,9010364,,,,,,,2023-10-05,1,,,,,ミカマルスイサン,0
844,3360003013357,新規,0,2023-10-05,2023-10-05,ｓｉｅｒｒａ２１合同会社,,合同会社,沖縄県,うるま市,勝連南風原３１８６番地１,,47,213,9042311,,,,,,,2023-10-05,1,,,,,シエラニジュウイチ,0
848,3370001050483,新規,0,2023-10-05,2023-10-05,株式会社リスポルト,,株式会社,宮城県,白石市,字長町３２番地６,,04,206,9890274,,,,,,,2023-10-05,1,,,,,リスポルト,0
849,3370003006310,新規,0,2023-10-05,2023-10-05,合同会社ラシク,,合同会社,宮城県,仙台市太白区,富沢南１丁目３番地１号第５小島ビル１０２号室,,04,104,9820036,,,,,,,2023-10-05,1,,,,,ラシク,0
850,3380001034023,新規,0,2023-10-05,2023-10-05,石附左官株式会社,,株式会社,福島県,相馬市,大曲字権浪４１番地,,07,209,9760032,,,,,,,2023-10-05,1,,,,,イシツキサカン,0
857,3430001090102,新規,0,2023-10-05,2023-10-05,株式会社Ｈｉｓｔｏｒｙ,,株式会社,北海道,札幌市北区,新琴似四条１丁目１番３２号,,01,102,0010904,,,,,,,2023-10-05,1,,,,,ヒストリー,0
860,3430003015503,新規,0,2023-10-05,2023-10-05,合同会社ＡＴＳ,,合同会社,北海道,札幌市東区,東苗穂九条３丁目１番２号,,01,103,0070809,,,,,,,2023-10-05,1,,,,,エーティーエス,0
861,3440001009332,新規,0,2023-10-05,2023-10-05,株式会社ＤＤＥＦＩＮＴＥＣ北海道,,株式会社,北海道,函館市,若松町２６番７号,,01,202,0400063,,,,,,,2023-10-05,1,,,,,ディーディーイーフィンテックホッカイドウ,0
871,3500001025232,新規,0,2023-10-05,2023-10-05,株式会社ＩＳ空調,,株式会社,愛媛県,新居浜市,西泉町２番５６号シャーメゾン西泉Ａ棟１０１号,,38,205,7920832,,,,,,,2023-10-05,1,,,,,アイエスクウチヨウ,0
877,3700150121068,新規,0,2023-10-05,2023-10-05,ＢＲＩＤＧＥ－Ｃ　ＡＤＶＩＳＯＲＹ　ＰＴＥ．ＬＴＤ．,,外国会社等,,,,,,,,１８　ＲＯＢＩＮＳＯＮ　ＲＯＡＤ　＃２０－０２　１８　ＲＯＢＩＮＳＯＮ　ＳＩＮＧＡＰＯＲＥ,,,,,,2023-10-05,1,,,,,ブリツジシーアドバイザリーピーテイーイーエルテイーデイー,0
881,4010001238948,新規,0,2023-10-05,2023-10-05,エスケー・インフィニティ株式会社,,株式会社,東京都,中央区,八丁堀１丁目４番２号,,13,102,1040032,,,,,,,2023-10-05,1,,,,,エスケーインフィニティ,0
882,4010001238956,新規,0,2023-10-05,2023-10-05,株式会社ＭＵＦＧサステナブルエナジー,,株式会社,東京都,千代田区,大手町１丁目６番１号,,13,101,1000004,,,,,,,2023-10-05,1,,,,,エムユーエフジーサステナブルエナジー,0
883,4010001239013,新規,0,2023-10-05,2023-10-05,株式会社ＦＫ,,株式会社,東京都,千代田区,九段南２丁目３番２５号,,13,101,1020074,,,,,,,2023-10-05,1,,,,,エフケー,0
884,4010001239021,新規,0,2023-10-05,2023-10-05,株式会社ＭＩＲＡＩ,,株式会社,東京都,中央区,日本橋浜町２丁目３６番２号,,13,102,1030007,,,,,,,2023-10-05,1,,,,,ミライ,0
888,4010003041846,新規,0,2023-10-05,2023-10-05,小豆島安田ホテルマネジメント合同会社,,合同会社,東京都,千代田区,霞が関３丁目２番１号,,13,101,1000013,,,,,,,2023-10-05,1,,,,,ショウドシマヤスダホテルマネジメント,0
896,4010401177556,新規,0,2023-10-05,2023-10-05,株式会社Ｔｕｌｉｐｅ,,株式会社,東京都,港区,南青山５丁目４番４４－２０３号ラポール南青山,,13,103,1070062,,,,,,,2023-10-05,1,,,,,チューリップ,0
897,4010401177606,新規,0,2023-10-05,2023-10-05,株式会社ＦＯＸ,,株式会社,東京都,港区,南青山２丁目８番２－３０４号,,13,103,1070062,,,,,,,2023-10-05,1,,,,,フォックス,0
899,4010503007173,新規,0,2023-10-05,2023-10-05,共創合同会社,,合同会社,東京都,台東区,台東１丁目３番１号,,13,106,1100016,,,,,,,2023-10-05,1,,,,,キョウソウ,0
901,4010601063853,新規,0,2023-10-05,2023-10-05,ニューライフ株式会社,,株式会社,東京都,墨田区,横川３丁目６番７号２－Ａ室,,13,107,1300003,,,,,,,2023-10-05,1,,,,,ニューライフ,0
902,4010601063894,新規,0,2023-10-05,2023-10-05,株式会社Ａｗｅｓｏｍｅ,,株式会社,東京都,墨田区,東墨田２丁目２６番５－７０８号,,13,107,1310042,,,,,,,2023-10-05,1,,,,,オーサム,0
903,4010701044935,新規,0,2023-10-05,2023-10-05,株式会社ウワムキ,,株式会社,東京都,品川区,荏原４丁目２－５ワールドパレス第三武蔵小山１０１,,13,109,1420063,,,,,,,2023-10-05,1,,,,,ウワムキ,0
908,4010901053934,新規,0,2023-10-05,2023-10-05,株式会社ＬＥＯＮ,,株式会社,東京都,世田谷区,等々力４丁目２４番２０号１Ｂ,,13,112,1580082,,,,,,,2023-10-05,1,,,,,レオン,0
909,4010903008424,新規,0,2023-10-05,2023-10-05,合同会社協栄,,合同会社,東京都,世田谷区,瀬田５丁目３－９,,13,112,1580095,,,,,,,2023-10-05,1,,,,,キョウエイ,0
910,4010903008498,新規,0,2023-10-05,2023-10-05,合同会社ワンションコーポレーション,,合同会社,東京都,世田谷区,用賀１丁目７番５号,,13,112,1580097,,,,,,,2023-10-05,1,,,,,ワンションコーポレーション,0
921,4011001157270,新規,0,2023-10-05,2023-10-05,ＴＩＦＦＡ株式会社,,株式会社,東京都,渋谷区,渋谷２丁目１９番１７号グローリア渋谷５０１,,13,113,1500002,,,,,,,2023-10-05,1,,,,,ティファ,0
922,4011001157361,新規,0,2023-10-05,2023-10-05,株式会社５つ星,,株式会社,東京都,渋谷区,神宮前５丁目９番２号４０６,,13,113,1500001,,,,,,,2023-10-05,1,,,,,,0
923,4011003017654,新規,0,2023-10-05,2023-10-05,椎名ＩＴシステム合同会社,,合同会社,東京都,渋谷区,道玄坂１丁目１６－６二葉ビル８ｂ,,13,113,1500043,,,,,,,2023-10-05,1,,,,,シイナアイティーシステム,0
924,4011101104627,新規,0,2023-10-05,2023-10-05,株式会社ＹＯＵ,,株式会社,東京都,新宿区,西新宿４丁目３５番１号,,13,104,1600023,,,,,,,2023-10-05,1,,,,,ユー,0
926,4011103013561,新規,0,2023-10-05,2023-10-05,合同会社ワイエム・リサーチ,,合同会社,東京都,新宿区,市谷砂土原町２丁目１番地４－４１３号,,13,104,1620842,,,,,,,2023-10-05,1,,,,,ワイエムリサーチ,0
927,4011203004188,新規,0,2023-10-05,2023-10-05,合同会社つかさ介護ヘルパー事業所,,合同会社,東京都,中野区,若宮２丁目８番９号グリーンハイム２０５,,13,114,1650033,,,,,,,2023-10-05,1,,,,,ツカサカイゴヘルパージギョウショ,0
928,4011303004922,新規,0,2023-10-05,2023-10-05,新日本みらいＵ‐ｃａｒ合同会社,,合同会社,東京都,杉並区,上井草３丁目３１番１７－２０２号,,13,115,1670023,,,,,,,2023-10-05,1,,,,,シンニッポンミライユーカー,0
929,4011503005786,新規,0,2023-10-05,2023-10-05,合同会社ＳｈｉｎｃＡ,,合同会社,東京都,北区,東十条３丁目１４番地１２栗陶ビル２Ｆ,,13,117,1140001,,,,,,,2023-10-05,1,,,,,シンカ,0
933,4011801043117,新規,0,2023-10-05,2023-10-05,株式会社甲斐工務店,,株式会社,東京都,足立区,南花畑３丁目１４番２９号,,13,121,1210062,,,,,,,2023-10-05,1,,,,,カイコウムテン,0
935,4011803005874,新規,0,2023-10-05,2023-10-05,合同会社ｄＭａｔｅ,,合同会社,東京都,足立区,千住大川町３７―９,,13,121,1200031,,,,,,,2023-10-05,1,,,,,ディーメイト,0
936,4012301013618,新規,0,2023-10-05,2023-10-05,株式会社瀬尾工務店,00132143,株式会社,東京都,町田市,真光寺３丁目２５番地６,,13,209,1950057,,,,,,,2023-10-05,1,,,,,セオコウムテン,0
940,4012801022663,新規,0,2023-10-05,2023-10-05,Ｂｅｉｎｇ　ｓｔｙｌｅ株式会社,,株式会社,東京都,立川市,富士見町４丁目１５番７号,,13,202,1900013,,,,,,,2023-10-05,1,,,,,ビーイングスタイル,0
941,4012801022671,新規,0,2023-10-05,2023-10-05,株式会社ＣＡＣＴＵＳ,,株式会社,東京都,武蔵村山市,学園４丁目３７番地の１４,,13,223,2080011,,,,,,,2023-10-05,1,,,,,カクタス,0
945,4013301051434,新規,0,2023-10-05,2023-10-05,株式会社アミサポ,,株式会社,東京都,豊島区,東池袋３丁目１番１号サンシャイン６０,,13,116,1700013,,,,,,,2023-10-05,1,,,,,アミサポ,0
946,4013303006824,新規,0,2023-10-05,2023-10-05,合同会社ＰＬＡＹＭＡＮ,,合同会社,東京都,豊島区,南池袋１丁目９番１８号,,13,116,1710022,,,,,,,2023-10-05,1,,,,,プレイマン,0
949,4020001153774,新規,0,2023-10-05,2023-10-05,Ｅｆｆｏｒｔ株式会社,,株式会社,神奈川県,横浜市港南区,港南中央通２番９－１０２号,,14,111,2330004,,,,,,,2023-10-05,1,,,,,エフォート,0
950,4020001153790,新規,0,2023-10-05,2023-10-05,株式会社ＪＲＣＸ,,株式会社,神奈川県,横浜市中区,錦町１５番地,,14,104,2310812,,,,,,,2023-10-05,1,,,,,ジェイアールシーエックス,0
951,4020001153808,新規,0,2023-10-05,2023-10-05,株式会社ＦＰディライト,,株式会社,神奈川県,横浜市港北区,大倉山１丁目２３番１８号,,14,109,2220037,,,,,,,2023-10-05,1,,,,,エフピーディライト,0
952,4020001153816,新規,0,2023-10-05,2023-10-05,株式会社読売センター三ツ境,,株式会社,神奈川県,横浜市旭区,中希望が丘２３６番地,,14,112,2410825,,,,,,,2023-10-05,1,,,,,ヨミウリセンターミツキョウ,0
953,4020001153824,新規,0,2023-10-05,2023-10-05,株式会社アンサンブルＢ．Ｐ．Ｃ．,,株式会社,神奈川県,横浜市港北区,下田町５丁目２２番１２－７号,,14,109,2230064,,,,,,,2023-10-05,1,,,,,アンサンブルビーピーシー,0
954,4020001153832,新規,0,2023-10-05,2023-10-05,エースセキュリティー株式会社,,株式会社,神奈川県,川崎市中原区,小杉町１丁目３６５番地１,,14,133,2110063,,,,,,,2023-10-05,1,,,,,エースセキュリティー,0
960,4021001080323,新規,0,2023-10-05,2023-10-05,株式会社ＡＩｄｅｎｔｉｔｙ,,株式会社,神奈川県,藤沢市,湘南台１丁目７番９号フォーレ湘南台５階,,14,205,2520804,,,,,,,2023-10-05,1,,,,,アイデンティティ,0
961,4021001080348,新規,0,2023-10-05,2023-10-05,株式会社ＧＲＡＮＤ　ＳＬＡＭ,,株式会社,神奈川県,横須賀市,不入斗町３丁目５２番地,,14,201,2380051,,,,,,,2023-10-05,1,,,,,グランドスラム,0
964,4021003013644,新規,0,2023-10-05,2023-10-05,ＤＭＣ合同会社,,合同会社,神奈川県,伊勢原市,高森１４９４番地の９－１２－１０４,,14,214,2591114,,,,,,,2023-10-05,1,,,,,ディエムシー,0
967,4030001156388,新規,0,2023-10-05,2023-10-05,株式会社おっくる,,株式会社,埼玉県,熊谷市,箱田５丁目１４番７号,,11,202,3600014,,,,,,,2023-10-05,1,,,,,オックル,0
970,4040001130334,新規,0,2023-10-05,2023-10-05,東盛株式会社,,株式会社,千葉県,大網白里市,清明幸谷９３１－１Ｆ－１０２号,,12,239,2993200,,,,,,,2023-10-05,1,,,,,トウセイ,0
974,4040003023420,新規,0,2023-10-05,2023-10-05,合同会社Ｌｉｎｏａ,,合同会社,千葉県,野田市,桜台１０７９番地の２クレマチスＡ１０１,,12,208,2780032,,,,,,,2023-10-05,1,,,,,リノア,0
975,4040003023445,新規,0,2023-10-05,2023-10-05,合同会社エアビズ,,合同会社,千葉県,千葉市中央区,浜野町１０６８番地,,12,101,2600824,,,,,,,2023-10-05,1,,,,,エアビズ,0
976,4040003023453,新規,0,2023-10-05,2023-10-05,順平木材合同会社,,合同会社,千葉県,千葉市花見川区,さつきが丘２丁目１０番２０棟２０３号,,12,102,2620014,,,,,,,2023-10-05,1,,,,,ジュンペイモクザイ,0
981,4060003004740,新規,0,2023-10-05,2023-10-05,合同会社雷都グループ,,合同会社,栃木県,宇都宮市,本丸町１１－１４,,09,201,3200817,,,,,,,2023-10-05,1,,,,,ライトグループ,0
982,4060003004749,新規,0,2023-10-05,2023-10-05,ＦＡＩＳＡＬ　ＴＲＡＤＩＮＧ合同会社,,合同会社,栃木県,小山市,大字粟宮１８６３番地１宮内コーポＢ棟１０１号室,,09,208,3290201,,,,,,,2023-10-05,1,,,,,ファイサルトレーディング,0
989,4100001036847,新規,0,2023-10-05,2023-10-05,株式会社あすかデジタル,,株式会社,長野県,松本市,野溝木工１丁目６番４８号,,20,202,3990005,,,,,,,2023-10-05,1,,,,,アスカデジタル,0
990,4100001036855,新規,0,2023-10-05,2023-10-05,株式会社農林航空検査センター,,株式会社,長野県,小諸市,大字山浦４８５７番地１,,20,208,3840807,,,,,,,2023-10-05,1,,,,,ノウリンコウクウケンサセンター,0
991,4100003007210,新規,0,2023-10-05,2023-10-05,合同会社マツモトトレーディング,,合同会社,長野県,松本市,大字和田６８３番地２,,20,202,3901242,,,,,,,2023-10-05,1,,,,,マツモトトレーディング,0
998,4110003005171,新規,0,2023-10-05,2023-10-05,合同会社ｍｅｌｌ,,合同会社,新潟県,新潟市中央区,寄居町３４５番地,,15,103,9518113,,,,,,,2023-10-05,1,,,,,,0
1001,4120001258539,新規,0,2023-10-05,2023-10-05,ＨＷＹＳ株式会社,,株式会社,大阪府,大阪市北区,天神橋３丁目９番１９号ＭＡＮＳＩＯＮ萬ＶＩ３０１号室,00132136,27,127,5300041,,,,,,,2023-10-05,1,,,,,ハイウェイズ,0
1002,4120001258571,新規,0,2023-10-05,2023-10-05,Ｈ．Ｂ株式会社,,株式会社,大阪府,大阪市生野区,巽南２丁目１１番２３号,00132134,27,116,5440015,,,,,,,2023-10-05,1,,,,,エイチビー,0
1003,4120001258588,新規,0,2023-10-05,2023-10-05,株式会社Ｐ＆Ｈ,,株式会社,大阪府,大阪市浪速区,日本橋５丁目５番３号コモハイム松本３０８,,27,111,5560005,,,,,,,2023-10-05,1,,,,,ピーアンドエイチ,0
1004,4120001258605,新規,0,2023-10-05,2023-10-05,株式会社松栄重量,,株式会社,大阪府,大阪市東淀川区,下新庄４丁目１２番６号,,27,114,5330021,,,,,,,2023-10-05,1,,,,,ショウエイジュウリョウ,0
1005,4120001258621,新規,0,2023-10-05,2023-10-05,株式会社Ｓ　ｍｅａｔ,,株式会社,大阪府,大阪市北区,堂山町１１番１８号中嶋ビル,,27,127,5300027,,,,,,,2023-10-05,1,,,,,エスミート,0
1006,4120001258679,新規,0,2023-10-05,2023-10-05,株式会社鵬陳,,株式会社,大阪府,大阪市中央区,内淡路町２丁目４番１３－９０２号,,27,128,5400038,,,,,,,2023-10-05,1,,,,,ホウチン,0
1008,4120003025037,新規,0,2023-10-05,2023-10-05,合同会社ＹｘＰ,,合同会社,大阪府,大阪市城東区,野江３丁目９番１３－９１３号,,27,118,5360006,,,,,,,2023-10-05,1,,,,,ワイピー,0
1009,4120003025045,新規,0,2023-10-05,2023-10-05,合同会社エコパワー４,,合同会社,大阪府,大阪市北区,梅田１丁目１番３号大阪駅前第３ビル３０階,,27,127,5300001,,,,,,,2023-10-05,1,,,,,エコパワーフォー,0
1011,4120101068326,新規,0,2023-10-05,2023-10-05,株式会社寺田空調,,株式会社,大阪府,堺市北区,百舌鳥梅町３丁１０番地９,,27,146,5918032,,,,,,,2023-10-05,1,,,,,テラダクウチョウ,0
1013,4120901048114,新規,0,2023-10-05,2023-10-05,株式会社ＳＨＩＲＯＫＵＭＡ,,株式会社,大阪府,茨木市,稲葉町１番１０号タイガーマンション１０３号,,27,211,5670827,,,,,,,2023-10-05,1,,,,,シロクマ,0
1014,4120901048122,新規,0,2023-10-05,2023-10-05,株式会社Ｂｅａｕｔｙ　ｌａｎｄ,,株式会社,大阪府,吹田市,山田西１丁目１１－４,,27,205,5650824,,,,,,,2023-10-05,1,,,,,ビューティーランド,0
1024,4130001075339,新規,0,2023-10-05,2023-10-05,株式会社ＤＡＹＬＩＧＨＴ,,株式会社,京都府,京都市南区,吉祥院西ノ庄西浦町８１番地スターノエル４０３号室,,26,107,6018301,,,,,,,2023-10-05,1,,,,,デイライト,0
1025,4130001075347,新規,0,2023-10-05,2023-10-05,株式会社ハレの日,,株式会社,京都府,京都市右京区,嵯峨天龍寺造路町３１番７,,26,108,6168384,,,,,,,2023-10-05,1,,,,,ハレノヒ,0
1027,4130003009022,新規,0,2023-10-05,2023-10-05,ＩｎｔｅｒＭｅｄｉａ合同会社,,合同会社,京都府,京都市下京区,七条通油小路東入大黒町２２７第２キョートビル４０２,,26,106,6008223,,,,,,,2023-10-05,1,,,,,インターメディア,0
1031,4140001131842,新規,0,2023-10-05,2023-10-05,株式会社建心技研,,株式会社,兵庫県,西宮市,馬場町１番１３号,,28,204,6620915,,,,,,,2023-10-05,1,,,,,ケンシンギケン,0
1032,4140001131850,新規,0,2023-10-05,2023-10-05,ＭＵＵＭ株式会社,,株式会社,兵庫県,神戸市長田区,腕塚町１丁目１番２８号,,28,106,6530036,,,,,,,2023-10-05,1,,,,,ムーム,0
1033,4140001131859,新規,0,2023-10-05,2023-10-05,株式会社ＫＡＮＡＤＥ,,株式会社,兵庫県,伊丹市,伊丹２丁目３番３８－１０１号,,28,207,6640846,,,,,,,2023-10-05,1,,,,,カナデ,0
1036,4150001026752,新規,0,2023-10-05,2023-10-05,株式会社貴博,,株式会社,奈良県,御所市,大字元町４９３番地の１１８,,29,208,6392301,,,,,,,2023-10-05,1,,,,,タカヒロ,0
1040,4170001017808,新規,0,2023-10-05,2023-10-05,株式会社エフシーコネクト,,株式会社,和歌山県,西牟婁郡上富田町,生馬２２７０番地の２,,30,404,6492103,,,,,,,2023-10-05,1,,,,,エフシーコネクト,0
1052,4180001158279,新規,0,2023-10-05,2023-10-05,株式会社早川工業,,株式会社,愛知県,大府市,江端町６丁目８２番地,,23,223,4740035,,,,,,,2023-10-05,1,,,,,ハヤカワコウギョウ,0
1053,4180001158312,新規,0,2023-10-05,2023-10-05,株式会社松井鉄筋,,株式会社,愛知県,名古屋市天白区,平針２丁目２０７番地ライオンズマンション平針３０２号,,23,116,4680011,,,,,,,2023-10-05,1,,,,,マツイテッキン,0
1054,4180001158329,新規,0,2023-10-05,2023-10-05,株式会社ワンオーワン,,株式会社,愛知県,稲沢市,下津土山町６４番地１,,23,220,4928077,,,,,,,2023-10-05,1,,,,,ワンオーワン,0
1058,4180301037868,新規,0,2023-10-05,2023-10-05,株式会社ＮｅｗＯＲＤＥＲ,,株式会社,愛知県,豊川市,小田渕町卯足５９番地,,23,207,4420844,,,,,,,2023-10-05,1,,,,,ニューオーダー,0
1059,4180301037876,新規,0,2023-10-05,2023-10-05,株式会社小野田設備,,株式会社,愛知県,豊橋市,二川町字東向山２２番地６７,,23,201,4413153,,,,,,,2023-10-05,1,,,,,オノダセツビ,0
1062,4210001019493,新規,0,2023-10-05,2023-10-05,株式会社サンプラザ,,株式会社,福井県,福井市,照手４丁目４番２１号,,18,201,9100024,,,,,,,2023-10-05,1,,,,,サンプラザ,0
1074,4250001020308,新規,0,2023-10-05,2023-10-05,株式会社ケイユー商事,,株式会社,山口県,下関市,王司神田２丁目１番３１号,,35,201,7520911,,,,,,,2023-10-05,1,,,,,ケイユーショウジ,0
1079,4260001038373,新規,0,2023-10-05,2023-10-05,ＦＬＯＯＤ　ＴＩＤＥ株式会社,,株式会社,岡山県,岡山市北区,野田３丁目２２番１１号,,33,101,7000971,,,,,,,2023-10-05,1,,,,,フラッドタイド,0
1080,4260003004456,新規,0,2023-10-05,2023-10-05,合同会社ＣＯＣＯワン,,合同会社,岡山県,岡山市中区,小橋町１丁目３番１０－４号,,33,102,7038293,,,,,,,2023-10-05,1,,,,,ココワン,0
1081,4270001008846,新規,0,2023-10-05,2023-10-05,株式会社ｐｒｏｍｅｎａｄｅ,,株式会社,鳥取県,米子市,西福原３丁目７番３２号（ホンムラビル２０２号室）,,31,202,6830805,,,,,,,2023-10-05,1,,,,,プロムナード,0
1083,4290001103232,新規,0,2023-10-05,2023-10-05,九州合同株式会社,,株式会社,福岡県,福岡市博多区,博多駅前１丁目４番１号,,40,132,8120011,,,,,,,2023-10-05,1,,,,,キュウシュウゴウドウ,0
1084,4290001103249,新規,0,2023-10-05,2023-10-05,株式会社お茶の山口園,,株式会社,福岡県,福岡市博多区,三筑２丁目１７番１号,,40,132,8120887,,,,,,,2023-10-05,1,,,,,オチャノヤマグチエン,0
1085,4290001103298,新規,0,2023-10-05,2023-10-05,株式会社ｊａｖ,,株式会社,福岡県,福岡市南区,野間４丁目１３－２７,,40,134,8150041,,,,,,,2023-10-05,1,,,,,,0
1097,4330001031288,新規,0,2023-10-05,2023-10-05,株式会社ＢＡＳＥ,,株式会社,熊本県,菊池市,大平５０９番地,,43,210,8611683,,,,,,,2023-10-05,1,,,,,ベース,0
1098,4330001031321,新規,0,2023-10-05,2023-10-05,ファンビットフード株式会社,,株式会社,熊本県,熊本市中央区,帯山９丁目１番７号,,43,101,8620924,,,,,,,2023-10-05,1,,,,,ファンビットフード,0
1103,4360001032647,新規,0,2023-10-05,2023-10-05,株式会社クッチーナ・キヨ,,株式会社,沖縄県,那覇市,銘苅１丁目２－１７クレセントビル２Ｆ－Ｂ,,47,201,9000004,,,,,,,2023-10-05,1,,,,,クッチーナキヨ,0
1104,4360003013356,新規,0,2023-10-05,2023-10-05,合同会社はっぴーらいふ,,合同会社,沖縄県,宜野湾市,真栄原３丁目２０－１サンハイムＭ１－１０２号室,,47,205,9012215,,,,,,,2023-10-05,1,,,,,ハッピーライフ,0
1110,4370001050490,新規,0,2023-10-05,2023-10-05,ｃｅｌｅｓｔｅ株式会社,,株式会社,宮城県,仙台市太白区,日本平５１番７号,,04,104,9820221,,,,,,,2023-10-05,1,,,,,セレスト,0
1116,4400001016406,新規,0,2023-10-05,2023-10-05,小林工業株式会社,,株式会社,岩手県,釜石市,上中島町４丁目４番３６－１号,,03,211,0260041,,,,,,,2023-10-05,1,,,,,コバヤシコウギョウ,0
1125,4460002005732,新規,0,2023-10-05,2023-10-05,有限会社安川興業,,有限会社,北海道,釧路市,鶴野東２丁目２１番６号,,01,206,0840923,,,,,,,2023-10-05,1,,,,,ヤスカワコウギョウ,0
1131,4480001012240,新規,0,2023-10-05,2023-10-05,株式会社ＭＡＳＡ,,株式会社,徳島県,徳島市,中昭和町１丁目９５番地の１－２０４号室,,36,201,7700943,,,,,,,2023-10-05,1,,,,,マサ,0
1140,4700150121067,新規,0,2023-10-05,2023-10-05,ＭＨＩ　Ｅｎｇｉｎｅｅｒｉｎｇ　ａｎｄ　Ｉｎｄｕｓｔｒｉａｌ　Ｐｒｏｊｅｃｔｓ　Ｉｎｄｉａ　Ｐｒｉｖａｔｅ　Ｌｉｍｉｔｅｄ,,外国会社等,,,,,,,,Ｕｎｉｔ　Ｎｏ．９０７，Ｕｎｉｔｅｃｈ　Ｓｉｇｎａｔｕｒｅ　Ｔｏｗｅｒｓ，ＴｏｗｅｒＢ，９ｔｈ　Ｆｌｏｏｒ，Ｓｏｕｔｈ　Ｃｉｔｙ－１，Ｇｕｒｇａｏｎ－１２２００１，Ｈａｒｙａｎａ，ＩＮＤＩＡ,,,,,,2023-10-05,1,,,,,エムエイチアイエンジニアリングインダストリアルプロジエクトインデイアプライベートリミテツド,0
1147,5010001238922,新規,0,2023-10-05,2023-10-05,ＬＩＮＯＲＥＧ株式会社,,株式会社,東京都,千代田区,二番町７番地１ミレニアムガーデンコート９０７号,,13,101,1020084,,,,,,,2023-10-05,1,,,,,ライノレグ,0
1148,5010001238930,新規,0,2023-10-05,2023-10-05,Ｉｎｃｕｂａｔｉｏｎ　Ｂａｓｅ株式会社,,株式会社,東京都,中央区,銀座１丁目１２番４号Ｎ＆ＥＢＬＤ．７Ｆ,,13,102,1040061,,,,,,,2023-10-05,1,,,,,インキュベーションベース,0
1149,5010001238939,新規,0,2023-10-05,2023-10-05,ＩｍＶｉｓｉｏｎＬａｂｓ株式会社,,株式会社,東京都,文京区,本郷７丁目３－１東京大学南研究棟アントレプレナーラボ,,13,105,1130033,,,,,,,2023-10-05,1,,,,,インビジョンラボズ,0
1150,5010001238963,新規,0,2023-10-05,2023-10-05,ＬＩＮＫ‐ＨＯＬＤＩＮＧＳ株式会社,,株式会社,東京都,中央区,日本橋人形町２丁目２５番１１号三幸ビル,,13,102,1030013,,,,,,,2023-10-05,1,,,,,リンクホールディングス,0
1151,5010001238971,新規,0,2023-10-05,2023-10-05,株式会社カムイ,,株式会社,東京都,中央区,築地４丁目４番１５号,,13,102,1040045,,,,,,,2023-10-05,1,,,,,カムイ,0
1152,5010001239020,新規,0,2023-10-05,2023-10-05,株式会社インソースクリエイティブソリューションズ,,株式会社,東京都,千代田区,神田小川町３丁目２０番地,,13,101,1010052,,,,,,,2023-10-05,1,,,,,インソースクリエイティブソリューションズ,0
1153,5010003041829,新規,0,2023-10-05,2023-10-05,ＳＨＣ合同会社,,合同会社,東京都,千代田区,九段南１丁目５番６号りそな九段ビル５Ｆ,,13,101,1020074,,,,,,,2023-10-05,1,,,,,エスエイチシー,0
1162,5010505003459,新規,0,2023-10-05,2023-10-05,一般社団法人ホルス,,その他の設立登記法人,東京都,台東区,池之端４丁目１６番３３－５０４号,,13,106,1100008,,,,,,,2023-10-05,1,,,,,ホルス,0
1168,5010703006899,新規,0,2023-10-05,2023-10-05,合同会社ＫＴＮ　ＢＲＯＳ．,,合同会社,東京都,品川区,東大井１丁目２番８号,,13,109,1400011,,,,,,,2023-10-05,1,,,,,ケーティーエヌブロス,0
1171,5010803004704,新規,0,2023-10-05,2023-10-05,合同会社Ｂａｖｉｔ,,合同会社,東京都,大田区,中央８丁目８番２号,,13,111,1430024,,,,,,,2023-10-05,1,,,,,バビット,0
1172,5010901053958,新規,0,2023-10-05,2023-10-05,株式会社ＫＳＭＴＹ,,株式会社,東京都,世田谷区,船橋６丁目１０－４サンスカラー船橋３０２号室,,13,112,1560055,,,,,,,2023-10-05,1,,,,,キスミティー,0
1173,5010903008497,新規,0,2023-10-05,2023-10-05,合同会社建築住研,,合同会社,東京都,世田谷区,中町３丁目２９－６－１０１,,13,112,1580091,,,,,,,2023-10-05,1,,,,,ケンチクジュウケン,0
1174,5010903008506,新規,0,2023-10-05,2023-10-05,合同会社ＫＩＫ,,合同会社,東京都,世田谷区,粕谷４丁目８番１０号粕谷ハウス２Ｂ,,13,112,1570063,,,,,,,2023-10-05,1,,,,,ケーアイケー,0
1177,5011001157303,新規,0,2023-10-05,2023-10-05,株式会社ＢｉｏＢｅａｔ,,株式会社,東京都,渋谷区,渋谷２丁目１９番１５号宮益坂ビルディング６０９,,13,113,1500002,,,,,,,2023-10-05,1,,,,,バイオビート,0
1178,5011001157344,新規,0,2023-10-05,2023-10-05,トライアスリード株式会社,,株式会社,東京都,渋谷区,初台２丁目１６－２１－３０３,,13,113,1510061,,,,,,,2023-10-05,1,,,,,トライアスリード,0
1179,5011001157352,新規,0,2023-10-05,2023-10-05,株式会社テンカメレ,,株式会社,東京都,渋谷区,道玄坂１丁目１０番８号渋谷道玄坂東急ビル２Ｆ－Ｃ,,13,113,1500043,,,,,,,2023-10-05,1,,,,,テンカメレ,0
1180,5011001157393,新規,0,2023-10-05,2023-10-05,愛迪株式会社,,株式会社,東京都,渋谷区,本町２丁目３３番２号３階ＨＡＮＡＲＥＢｕｓｉｎｅｓｓＣａｐｓｕｌｅＡ,,13,113,1510071,,,,,,,2023-10-05,1,,,,,アイテキ,0
1189,5011101104592,新規,0,2023-10-05,2023-10-05,株式会社スピカ,,株式会社,東京都,新宿区,新宿２丁目１１番７号第３３宮庭ビル５階,,13,104,1600022,,,,,,,2023-10-05,1,,,,,スピカ,0
1190,5011101104626,新規,0,2023-10-05,2023-10-05,ＷｏｒｋＷｉｚ株式会社,,株式会社,東京都,新宿区,新宿２丁目４番８号,,13,104,1600022,,,,,,,2023-10-05,1,,,,,ワークウィズ,0
1191,5011103013552,新規,0,2023-10-05,2023-10-05,合同会社エンゲージメント・アドバイザーズ,,合同会社,東京都,新宿区,市谷砂土原町３丁目１５番１０号,,13,104,1620842,,,,,,,2023-10-05,1,,,,,エンゲージメントアドバイザーズ,0
1192,5011103013560,新規,0,2023-10-05,2023-10-05,合同会社Ａ‐ＳＴＹＬＥ,,合同会社,東京都,新宿区,新宿３丁目１２番４号熊三ビル２階２０１,,13,104,1600022,,,,,,,2023-10-05,1,,,,,エースタイル,0
1194,5011201024955,新規,0,2023-10-05,2023-10-05,ＳＳＡＷ株式会社,,株式会社,東京都,中野区,野方６丁目１８番８号,,13,114,1650027,,,,,,,2023-10-05,1,,,,,エスエスエーダブリュー,0
1198,5011603004076,新規,0,2023-10-05,2023-10-05,合同会社ＣＲＥＳＣＥＮＴ,,合同会社,東京都,練馬区,練馬１丁目１番７号,,13,120,1760001,,,,,,,2023-10-05,1,,,,,クレッセント,0
1199,5011603004084,新規,0,2023-10-05,2023-10-05,合同会社ゴルフランド,,合同会社,東京都,練馬区,高野台５丁目１９番１１号２Ｆ,,13,120,1770033,,,,,,,2023-10-05,1,,,,,ゴルフランド,0
1200,5011701026633,新規,0,2023-10-05,2023-10-05,株式会社常憲社,,株式会社,東京都,江戸川区,西一之江２丁目１５番２０号,,13,123,1320023,,,,,,,2023-10-05,1,,,,,ジョウケンシャ,0
1201,5011703003614,新規,0,2023-10-05,2023-10-05,ふくなが内装合同会社,,合同会社,東京都,江戸川区,中葛西４丁目１５―５グランフォルム５０２,,13,123,1340083,,,,,,,2023-10-05,1,,,,,フクナガナイソウ,0
1204,5012401041071,新規,0,2023-10-05,2023-10-05,株式会社鈴正,,株式会社,東京都,三鷹市,北野４丁目２番７号,,13,204,1810003,,,,,,,2023-10-05,1,,,,,スズショウ,0
1208,5012403006196,新規,0,2023-10-05,2023-10-05,Ｙ．Ｍ．Ａ．Ｇ合同会社,,合同会社,東京都,稲城市,坂浜３３２２―１１,,13,225,2060822,,,,,,,2023-10-05,1,,,,,ワイエムエージー,0
1211,5012703002812,新規,0,2023-10-05,2023-10-05,合同会社Ｃｉｒｃｌｅｓ,,合同会社,東京都,西東京市,保谷町５丁目１７番６号,,13,229,2020015,,,,,,,2023-10-05,1,,,,,サークルズ,0
1212,5012801022662,新規,0,2023-10-05,2023-10-05,株式会社ｂｌｅｎｄｅｄ,,株式会社,東京都,日野市,多摩平５丁目１６番地の１パークハウス豊田多摩平６０５,,13,212,1910062,,,,,,,2023-10-05,1,,,,,ブレンデッド,0
1214,5013301051433,新規,0,2023-10-05,2023-10-05,株式会社オフィスＵＳＢ,,株式会社,東京都,豊島区,南大塚３丁目３０番１５号,,13,116,1700005,,,,,,,2023-10-05,1,,,,,オフィスユーエスビー,0
1220,5020001153773,新規,0,2023-10-05,2023-10-05,株式会社いちさん,,株式会社,神奈川県,横浜市港北区,日吉本町４丁目１４番１－２１６号,,14,109,2230062,,,,,,,2023-10-05,1,,,,,イチサン,0
1221,5020001153798,新規,0,2023-10-05,2023-10-05,タカヤマ写真株式会社,,株式会社,神奈川県,横浜市青葉区,千草台２１番地１１藤和シティホームズ藤が丘２０９号,,14,117,2270051,,,,,,,2023-10-05,1,,,,,タカヤマシャシン,0
1222,5020001153815,新規,0,2023-10-05,2023-10-05,株式会社Ｑｐｌｕｓ,,株式会社,神奈川県,横浜市栄区,本郷台２丁目７番９号,,14,115,2470008,,,,,,,2023-10-05,1,,,,,キュウプラス,0
1223,5020001153831,新規,0,2023-10-05,2023-10-05,ランドコンサル株式会社,,株式会社,神奈川県,横浜市南区,山王町２丁目２２番地小瀬ビル３０２号室,,14,105,2320013,,,,,,,2023-10-05,1,,,,,ランドコンサル,0
1225,5020003024691,新規,0,2023-10-05,2023-10-05,ｄｏｔ　ｂｒａｉｎ合同会社,,合同会社,神奈川県,川崎市宮前区,鷺沼２丁目１４番地２２,,14,136,2160004,,,,,,,2023-10-05,1,,,,,ドットブレイン,0
1226,5020003024700,新規,0,2023-10-05,2023-10-05,合同会社Ｃａｒｐ　Ｃｌｉｍｂ,,合同会社,神奈川県,川崎市川崎区,南町１番地１１エルグランジュテ川崎１１０６,,14,131,2100015,,,,,,,2023-10-05,1,,,,,カープクライム,0
1227,5020003024725,新規,0,2023-10-05,2023-10-05,金山技建合同会社,,合同会社,神奈川県,川崎市宮前区,菅生６丁目１９番２５－１号,,14,136,2160015,,,,,,,2023-10-05,1,,,,,カナヤマギケン,0
1235,5021001080330,新規,0,2023-10-05,2023-10-05,株式会社ｗ‐ｍｏｔｉｏｎ,,株式会社,神奈川県,茅ヶ崎市,出口町４番５４号,,14,207,2530028,,,,,,,2023-10-05,1,,,,,ダブルモーション,0
1236,5021001080339,新規,0,2023-10-05,2023-10-05,株式会社麗速買,,株式会社,神奈川県,座間市,相武台３丁目４２番４３号コスモスビル３階,,14,216,2520011,,,,,,,2023-10-05,1,,,,,リースーマイ,0
1237,5021001080347,新規,0,2023-10-05,2023-10-05,株式会社ＬＯＶＥ＆ＨＡＲＭＯＮＹ,,株式会社,神奈川県,相模原市南区,上鶴間６丁目１番７－１１１号,,14,153,2520302,,,,,,,2023-10-05,1,,,,,ラブアンドハーモニー,0
1238,5021001080396,新規,0,2023-10-05,2023-10-05,ｎｉｕ　ｔｅｃｈ株式会社,,株式会社,神奈川県,横須賀市,小原台３９番１３号,,14,201,2390812,,,,,,,2023-10-05,1,,,,,ニウテック,0
1239,5021001080405,新規,0,2023-10-05,2023-10-05,株式会社ＳＧ,,株式会社,神奈川県,藤沢市,辻堂西海岸３丁目１番２７－４４８号,,14,205,2510046,,,,,,,2023-10-05,1,,,,,エスジー,0
1247,5030001156123,新規,0,2023-10-05,2023-10-05,株式会社音羽屋,,株式会社,埼玉県,入間郡毛呂山町,中央４丁目１０番地６,,11,326,3500461,,,,,,,2023-10-05,1,,,,,オトワヤ,0
1248,5030001156288,新規,0,2023-10-05,2023-10-05,三友商事株式会社,,株式会社,埼玉県,越谷市,大字平方３１１６番地６,,11,222,3430002,,,,,,,2023-10-05,1,,,,,ミツトモショウジ,0
1249,5030001156395,新規,0,2023-10-05,2023-10-05,ＳＴ株式会社,,株式会社,埼玉県,川口市,柳崎１丁目２６－１４,,11,203,3330861,,,,,,,2023-10-05,1,,,,,エスティー,0
1250,5030001156412,新規,0,2023-10-05,2023-10-05,株式会社ディバイン,,株式会社,埼玉県,川口市,元郷６丁目１１番１３号,,11,203,3320011,,,,,,,2023-10-05,1,,,,,ディバイン,0
1258,5030003022711,新規,0,2023-10-05,2023-10-05,合同会社ＴＲＡＮＳ　ＯＮＥ,,合同会社,埼玉県,所沢市,大字牛沼２９９－１１,,11,208,3590026,,,,,,,2023-10-05,1,,,,,トランスワン,0
1265,5040001130333,新規,0,2023-10-05,2023-10-05,株式会社ＬＩＦＡＣＴ,,株式会社,千葉県,市川市,南行徳１丁目１８番１３－２０５号,,12,203,2720138,,,,,,,2023-10-05,1,,,,,リフアクト,0
1266,5040001130341,新規,0,2023-10-05,2023-10-05,株式会社ＣＬＯＵＤ,,株式会社,千葉県,市川市,宮久保５丁目１０－９,,12,203,2720822,,,,,,,2023-10-05,1,,,,,クラウド,0
1268,5040003023436,新規,0,2023-10-05,2023-10-05,ＫＢＴ　Ｂｒｏｓ．Ｊａｐａｎ合同会社,,合同会社,千葉県,柏市,名戸ケ谷１丁目６－５,,12,217,2770032,,,,,,,2023-10-05,1,,,,,ケービーティーブラザーズジャパン,0
1269,5040003023477,新規,0,2023-10-05,2023-10-05,エスホーム合同会社,,合同会社,千葉県,浦安市,堀江４丁目２９番２５号,,12,227,2790041,,,,,,,2023-10-05,1,,,,,エスホーム,0
1270,5040003023485,新規,0,2023-10-05,2023-10-05,合同会社ＣＡＲＩＴＥＳ,,合同会社,千葉県,千葉市美浜区,高洲３丁目５番２棟９０６号,,12,106,2610004,,,,,,,2023-10-05,1,,,,,カリテス,0
1272,5050003007834,新規,0,2023-10-05,2023-10-05,ウィルエンジニア合同会社,,合同会社,茨城県,笠間市,福原７５,,08,216,3091634,,,,,,,2023-10-05,1,,,,,ウィルエンジニア,0
1280,5080103002897,新規,0,2023-10-05,2023-10-05,合同会社菓子々,,合同会社,静岡県,富士宮市,星山８５番地の２２０,,22,207,4180035,,,,,,,2023-10-05,1,,,,,カシカシ,0
1281,5080403004882,新規,0,2023-10-05,2023-10-05,合同会社ＴＡＫＡＨＡＳＨＩ,,合同会社,静岡県,磐田市,森下１００１番地７,,22,211,4380834,,,,,,,2023-10-05,1,,,,,タカハシ,0
1282,5080405007578,新規,0,2023-10-05,2023-10-05,一般社団法人静波パラサーフィンフェスタ実行委員会,,その他の設立登記法人,静岡県,掛川市,中５５３５番地の１,,22,213,4371405,,,,,,,2023-10-05,1,,,,,シズナミパラサーフィンフェスタジッコウイインカイ,0
1284,5100001036838,新規,0,2023-10-05,2023-10-05,ア・ワンド株式会社,,株式会社,長野県,安曇野市,明科七貴８４０６番地,,20,220,3997104,,,,,,,2023-10-05,1,,,,,アワンド,0
1285,5100001036846,新規,0,2023-10-05,2023-10-05,株式会社Ｄ‐ＮＥＯＲＩＳＥ,,株式会社,長野県,東筑摩郡山形村,５０１２番地２６,,20,450,3901301,,,,,,,2023-10-05,1,,,,,ディーネオライズ,0
1286,5100001036854,新規,0,2023-10-05,2023-10-05,株式会社Ｔ‐Ａｒｃｓ,,株式会社,長野県,松本市,寿台４丁目７番４号,,20,202,3990025,,,,,,,2023-10-05,1,,,,,ティーアークス,0
1291,5120001258579,新規,0,2023-10-05,2023-10-05,株式会社ＳＵＮＲＩＳＥ,,株式会社,大阪府,大阪市北区,大淀中３丁目１４番２６号,,27,127,5310076,,,,,,,2023-10-05,1,,,,,サンライズ,0
1292,5120001258595,新規,0,2023-10-05,2023-10-05,株式会社サクラコーダーズ,,株式会社,大阪府,大阪市阿倍野区,昭和町１丁目２１－１松田ビル３０２,,27,119,5450011,,,,,,,2023-10-05,1,,,,,サクラコーダーズ,0
1293,5120001258620,新規,0,2023-10-05,2023-10-05,株式会社中地,,株式会社,大阪府,大阪市鶴見区,放出東３丁目２１番４０－９０６号,,27,124,5380044,,,,,,,2023-10-05,1,,,,,ナカジ,0
1294,5120001258637,新規,0,2023-10-05,2023-10-05,株式会社Ｓ‐Ｈｏｌｄｉｎｇｓ,,株式会社,大阪府,大阪市中央区,谷町６丁目１７番５号,,27,128,5420012,,,,,,,2023-10-05,1,,,,,エスホールディングス,0
1295,5120001258653,新規,0,2023-10-05,2023-10-05,株式会社馬力屋商會,,株式会社,大阪府,大阪市大正区,小林西２丁目４番１号,,27,108,5510013,,,,,,,2023-10-05,1,,,,,バリキヤショウカイ,0
1296,5120001258661,新規,0,2023-10-05,2023-10-05,株式会社ＢＡＳＥ‐ＳＨ,,株式会社,大阪府,大阪市西淀川区,姫島４丁目２－１０,,27,113,5550033,,,,,,,2023-10-05,1,,,,,ベースエスエイチ,0
1297,5120003025028,新規,0,2023-10-05,2023-10-05,朝日合同会社,,合同会社,大阪府,大阪市天王寺区,南河堀町９－３４ラ・カーサ天王寺５０１,,27,109,5430054,,,,,,,2023-10-05,1,,,,,アサヒ,0
1298,5120003025036,新規,0,2023-10-05,2023-10-05,合同会社Ｍａｃｋｅｙ,,合同会社,大阪府,枚方市,牧野北町６番１１－３０１号,,27,210,5731149,,,,,,,2023-10-05,1,,,,,マッキー,0
1299,5120003025052,新規,0,2023-10-05,2023-10-05,合同会社池田守,,合同会社,大阪府,大阪市浪速区,難波中２丁目１０番５２－１１０２号,,27,111,5560011,,,,,,,2023-10-05,1,,,,,イケダマモル,0
1306,5120103005474,新規,0,2023-10-05,2023-10-05,合同会社ＤＩＧＩＴＡＬＩＡＮ,,合同会社,大阪府,堺市西区,浜寺諏訪森町東２丁１０４番地２４,,27,144,5928349,,,,,,,2023-10-05,1,,,,,デジタリアン,0
1307,5120901048121,新規,0,2023-10-05,2023-10-05,株式会社カルテット,,株式会社,大阪府,吹田市,千里山高塚７番９‐５０３号,,27,205,5650848,,,,,,,2023-10-05,1,,,,,カルテット,0
1308,5120903004857,新規,0,2023-10-05,2023-10-05,合同会社未来価値,,合同会社,大阪府,箕面市,小野原西６丁目１６番１６号,,27,220,5620032,,,,,,,2023-10-05,1,,,,,ミライカチ,0
1310,5122001037442,新規,0,2023-10-05,2023-10-05,株式会社ルートアース,,株式会社,大阪府,東大阪市,今米１丁目２番４８－２０３号,,27,227,5780903,,,,,,,2023-10-05,1,,,,,ルートアース,0
1312,5130001075379,新規,0,2023-10-05,2023-10-05,株式会社ｍｏｃａ,,株式会社,京都府,京都市中京区,高倉通二条下る瓦町５４０番地,,26,104,6040827,,,,,,,2023-10-05,1,,,,,モカ,0
1315,5130003009021,新規,0,2023-10-05,2023-10-05,ウィンテック合同会社,,合同会社,京都府,南丹市,園部町高屋宮ノ前２番地,,26,213,6220032,,,,,,,2023-10-05,1,,,,,ウィンテック,0
1320,5140001131833,新規,0,2023-10-05,2023-10-05,株式会社ホームキーパー,,株式会社,兵庫県,加古川市,加古川町稲屋７９０－１,,28,210,6750034,,,,,,,2023-10-05,1,,,,,ホームキーパー,0
1321,5140001131858,新規,0,2023-10-05,2023-10-05,株式会社エリーマネジメント,,株式会社,兵庫県,尼崎市,南塚口町６丁目２番８号,,28,202,6610012,,,,,,,2023-10-05,1,,,,,エリーマネジメント,0
1323,5140003019622,新規,0,2023-10-05,2023-10-05,合同会社マッチ,,合同会社,兵庫県,洲本市,上内膳１１０５番地６－２０５号,,28,205,6560017,,,,,,,2023-10-05,1,,,,,マッチ,0
1324,5150001026776,新規,0,2023-10-05,2023-10-05,株式会社結,,株式会社,奈良県,葛城市,柿本４２－１９,,29,211,6392111,,,,,,,2023-10-05,1,,,,,ムスビ,0
1334,5180001158204,新規,0,2023-10-05,2023-10-05,株式会社アマルフィ,,株式会社,愛知県,名古屋市東区,徳川１丁目８２９番地の１,,23,102,4610025,,,,,,,2023-10-05,1,,,,,アマルフィ,0
1335,5180001158336,新規,0,2023-10-05,2023-10-05,株式会社ヤマホ,,株式会社,愛知県,海部郡大治町,大字三本木字村部３５番地の２,,23,424,4901142,,,,,,,2023-10-05,1,,,,,ヤマホ,0
1336,5180301037867,新規,0,2023-10-05,2023-10-05,アイケイ株式会社,,株式会社,愛知県,豊橋市,弥生町字東豊和５３番地１,,23,201,4418106,,,,,,,2023-10-05,1,,,,,アイケイ,0
1337,5180301037875,新規,0,2023-10-05,2023-10-05,株式会社ＲＹＮＫＳ,,株式会社,愛知県,豊田市,金谷町５丁目６２番地,,23,211,4710876,,,,,,,2023-10-05,1,,,,,リンクス,0
1342,5210001019484,新規,0,2023-10-05,2023-10-05,寺尾商店株式会社,,株式会社,福井県,越前市,米口町第１８号２番地の１,,18,209,9151212,,,,,,,2023-10-05,1,,,,,テラオショウテン,0
1343,5210001019492,新規,0,2023-10-05,2023-10-05,株式会社武田塗装,,株式会社,福井県,福井市,二の宮５丁目１２番２９号,,18,201,9100015,,,,,,,2023-10-05,1,,,,,タケダトソウ,0
1345,5220003003601,新規,0,2023-10-05,2023-10-05,合同会社ベンチマーク,,合同会社,石川県,輪島市,河井町２１部１番地２１,,17,204,9280001,,,,,,,2023-10-05,1,,,,,ベンチマーク,0
1357,5240001062192,新規,0,2023-10-05,2023-10-05,株式会社ｉＦｕ．ｄｅｓｉｇｎ　ｏｆｆｉｃｅ,,株式会社,広島県,広島市中区,舟入本町１９番１５－１００３号,,34,101,7300843,,,,,,,2023-10-05,1,,,,,イフデザインオフィス,0
1359,5240003006346,新規,0,2023-10-05,2023-10-05,合同会社Ｋｎａｃｋ,,合同会社,広島県,広島市中区,江波南１丁目３３番１５－２０２号,,34,101,7300835,,,,,,,2023-10-05,1,,,,,ナク,0
1360,5250001020307,新規,0,2023-10-05,2023-10-05,株式会社ｍｉｓｏｎｏ,,株式会社,山口県,防府市,大字江泊２３８９番地の２,,35,206,7470014,,,,,,,2023-10-05,1,,,,,ミソノオ,0
1366,5260001038364,新規,0,2023-10-05,2023-10-05,久＿株式会社,00132148,株式会社,岡山県,岡山市北区,伊島町３丁目６番２２号ラジール伊島４０３,,33,101,7000016,,,,,,,2023-10-05,1,,,,,キュウゲツ,0
1367,5260001038372,新規,0,2023-10-05,2023-10-05,製油パートナーズジャパン株式会社,,株式会社,岡山県,倉敷市,水島海岸通３丁目２番地,,33,202,7128071,,,,,,,2023-10-05,1,,,,,セイユパートナーズジャパン,0
1368,5260003004455,新規,0,2023-10-05,2023-10-05,ＲＭｄｅｓｉｇｎ合同会社,,合同会社,岡山県,岡山市南区,福田１００３番地４,,33,104,7028021,,,,,,,2023-10-05,1,,,,,アールエムデザイン,0
1371,5290001103231,新規,0,2023-10-05,2023-10-05,株式会社エムロジ,,株式会社,福岡県,福岡市早良区,室見１丁目２２番９－５０２号,,40,137,8140015,,,,,,,2023-10-05,1,,,,,エムロジ,0
1372,5290001103289,新規,0,2023-10-05,2023-10-05,株式会社ＧＲＡＣＥ　ＵＰ,,株式会社,福岡県,福岡市博多区,博多駅前２丁目１９番１７－３１２号,,40,132,8120011,,,,,,,2023-10-05,1,,,,,グレイスアップ,0
1380,5320001020027,新規,0,2023-10-05,2023-10-05,株式会社リキオカ,,株式会社,大分県,豊後高田市,新地１６２０番地１２,,44,209,8790627,,,,,,,2023-10-05,1,,,,,リキオカ,0
1384,5320003004192,新規,0,2023-10-05,2023-10-05,合同会社ＴＬＳ,,合同会社,大分県,大分市,大字駄原２０８７番地の５５,,44,201,8700100,,,,,,,2023-10-05,1,,,,,ティーエルエス,0
1386,5330001031320,新規,0,2023-10-05,2023-10-05,暮らしと庭設計室ｋｕｍａｍｏｔｏ株式会社,,株式会社,熊本県,熊本市北区,楠２丁目１番４０号シティライフ楠まち通り１Ｆ,,43,105,8618003,,,,,,,2023-10-05,1,,,,,クラシトニワセッケイシツクマモト,0
1387,5330001031337,新規,0,2023-10-05,2023-10-05,ユナイテッドワークス株式会社,,株式会社,熊本県,熊本市北区,津浦町２番４７号,,43,105,8600088,,,,,,,2023-10-05,1,,,,,ユナイテッドワークス,0
1390,5350001018596,新規,0,2023-10-05,2023-10-05,株式会社フミカ,,株式会社,宮崎県,北諸県郡三股町,新馬場３２番地１０,,45,341,8891904,,,,,,,2023-10-05,1,,,,,フミカ,0
1394,5360003013347,新規,0,2023-10-05,2023-10-05,合同会社Ｏｎｅ　Ｄｏｇ,,合同会社,沖縄県,国頭郡本部町,字新里６１８,,47,308,9050208,,,,,,,2023-10-05,1,,,,,ワンドッグ,0
1395,5360005006910,新規,0,2023-10-05,2023-10-05,ＰＭＡサポート行政書士法人,,その他の設立登記法人,沖縄県,沖縄市,高原４丁目１５番５号,,47,211,9042171,,,,,,,2023-10-05,1,,,,,ピーエムエーサポート,0
1406,5430001090100,新規,0,2023-10-05,2023-10-05,株式会社ＴＡＫＥ,,株式会社,北海道,苫小牧市,拓勇東町５丁目１０番２３号,,01,213,0591303,,,,,,,2023-10-05,1,,,,,タケ,0
1407,5430001090141,新規,0,2023-10-05,2023-10-05,株式会社リペアホームズ,,株式会社,北海道,札幌市北区,新川四条４丁目１番４号,,01,102,0010924,,,,,,,2023-10-05,1,,,,,リペアホームズ,0
1410,5480005006989,新規,0,2023-10-05,2023-10-05,医療法人北斗,,その他の設立登記法人,徳島県,三好市,池田町マチ２５２６番地７,,36,208,7780002,,,,,,,2023-10-05,1,,,,,ホクト,0
1413,5500001025222,新規,0,2023-10-05,2023-10-05,株式会社サイドアッププラス,,株式会社,愛媛県,今治市,大西町九王甲２１０２番地３コーポ立岩２０３号室,,38,202,7992201,,,,,,,2023-10-05,1,,,,,サイドアッププラス,0
1415,5700150121066,新規,0,2023-10-05,2023-10-05,ＡＶＥＶＡ　Ｓｏｆｔｗａｒｅ　Ｓｉｎｇａｐｏｒｅ,,外国会社等,,,,,,,,１５　Ｃｈａｎｇｉ　Ｂｕｓｉｎｅｓｓ　Ｐａｒｋ，Ｃｅｎｔｒａｌ　１，＃０３－０１／０５，Ｓｉｎｇａｐｏｒｅ，４８６０５７,,,,,,2023-10-05,1,,,,,アヴイバソフトウエアシンガポール,0
1426,6010001238896,新規,0,2023-10-05,2023-10-05,ウィリングゴルフ株式会社,,株式会社,東京都,中央区,銀座１丁目２０番４号西川ビル５Ａ,,13,102,1040061,,,,,,,2023-10-05,1,,,,,ウィリングゴルフ,0
1427,6010001238913,新規,0,2023-10-05,2023-10-05,Ｊａｐａｎ　Ａｌｔｅｒｎａｔｉｖｅ　Ｍａｒｋｅｔ株式会社,,株式会社,東京都,千代田区,平河町１丁目６番４号,,13,101,1020093,,,,,,,2023-10-05,1,,,,,ジャパンオルタナティブマーケット,0
1428,6010001238962,新規,0,2023-10-05,2023-10-05,Ｖｅｓｐｅｒ株式会社,,株式会社,東京都,中央区,銀座１丁目５－２西勢ビル５Ｆ,,13,102,1040061,,,,,,,2023-10-05,1,,,,,ヴェスパー,0
1429,6010001238987,新規,0,2023-10-05,2023-10-05,ヒトヒカリフィナンシャル株式会社,,株式会社,東京都,千代田区,神田淡路町１丁目９番５号,,13,101,1010063,,,,,,,2023-10-05,1,,,,,ヒトヒカリフィナンシャル,0
1432,6010003041828,新規,0,2023-10-05,2023-10-05,アセッツナビ合同会社,,合同会社,東京都,中央区,銀座１丁目１２－４Ｎ＆ＥＢＬＤ．７階,,13,102,1040061,,,,,,,2023-10-05,1,,,,,アセッツナビ,0
1433,6010003041844,新規,0,2023-10-05,2023-10-05,ＫＡＮＡビューティー合同会社,,合同会社,東京都,千代田区,神田佐久間町３丁目２８星野ビル５２１号,,13,101,1010025,,,,,,,2023-10-05,1,,,,,カナビューティー,0
1435,6010005037337,新規,0,2023-10-05,2023-10-05,弁護士法人香川総合法律事務所,,その他の設立登記法人,東京都,中央区,銀座１丁目１４番１０号銀座松楠ビル２階,,13,102,1040061,,,,,,,2023-10-05,1,,,,,カガワソウゴウホウリツジムショ,0
1436,6010101015840,新規,0,2023-10-05,2023-10-05,巧正株式会社,,株式会社,東京都,八王子市,大和田町６丁目１９－８ウィングマンション２０５号,,13,201,1920045,,,,,,,2023-10-05,1,,,,,コウセイ,0
1437,6010103002218,新規,0,2023-10-05,2023-10-05,ＲＭＳ合同会社,,合同会社,東京都,八王子市,長房町２９０番地１０,,13,201,1930824,,,,,,,2023-10-05,1,,,,,アールエムエス,0
1444,6010405022558,新規,0,2023-10-05,2023-10-05,ＧＡＲＮＥＴ春日一般社団法人,,その他の設立登記法人,東京都,港区,六本木１丁目６番１号泉ガーデンタワー１２階,,13,103,1060032,,,,,,,2023-10-05,1,,,,,ガーネットカスガ,0
1447,6010503007171,新規,0,2023-10-05,2023-10-05,合同会社ビタミン,,合同会社,東京都,台東区,小島１丁目７番１５号,,13,106,1110056,,,,,,,2023-10-05,1,,,,,ビタミン,0
1450,6010601063892,新規,0,2023-10-05,2023-10-05,株式会社Ｂｒａｖｏ　Ｃｈｏｉｃｅ,,株式会社,東京都,江東区,東雲１丁目９番４１－３４１１号,,13,108,1350062,,,,,,,2023-10-05,1,,,,,ブラヴォーチョイス,0
1452,6010701044925,新規,0,2023-10-05,2023-10-05,株式会社レジバル,,株式会社,東京都,品川区,小山２丁目６番１３号,,13,109,1420062,,,,,,,2023-10-05,1,,,,,レジバル,0
1453,6010703006898,新規,0,2023-10-05,2023-10-05,白象合同会社,,合同会社,東京都,品川区,上大崎１丁目２２番１７－１５０１号,,13,109,1410021,,,,,,,2023-10-05,1,,,,,ビャクゾウ,0
1455,6010901053940,新規,0,2023-10-05,2023-10-05,株式会社ＫＵＳＥＭＯＮＯ,,株式会社,東京都,世田谷区,北沢１丁目１５番１９号,,13,112,1550031,,,,,,,2023-10-05,1,,,,,クセモノ,0
1456,6010901053949,新規,0,2023-10-05,2023-10-05,株式会社ＥＹＥＷＡＬＬ,,株式会社,東京都,世田谷区,梅丘３丁目１３番３号,,13,112,1540022,,,,,,,2023-10-05,1,,,,,アイウォール,0
1457,6010903008496,新規,0,2023-10-05,2023-10-05,トラトラ合同会社,,合同会社,東京都,世田谷区,北沢３丁目２４番９号メナハウス１０５,,13,112,1550031,,,,,,,2023-10-05,1,,,,,トラトラ,0
1458,6010903008505,新規,0,2023-10-05,2023-10-05,合同会社ジーアール,,合同会社,東京都,世田谷区,用賀４丁目１６－３,,13,112,1580097,,,,,,,2023-10-05,1,,,,,ジーアール,0
1460,6011001157327,新規,0,2023-10-05,2023-10-05,株式会社ＩＮＣＬＵＳＩＶＥ,,株式会社,東京都,渋谷区,上原１丁目２５番７号Ｌｅｏｔａｘビル１階,,13,113,1510064,,,,,,,2023-10-05,1,,,,,,0
1461,6011001157392,新規,0,2023-10-05,2023-10-05,株式会社フローライト,,株式会社,東京都,目黒区,青葉台３丁目１８番３号,,13,110,1530042,,,,,,,2023-10-05,1,,,,,フローライト,0
1462,6011001157418,新規,0,2023-10-05,2023-10-05,株式会社Ｓｃａｐｕｌａ,,株式会社,東京都,渋谷区,恵比寿西１丁目８番８号ライオンズマンション小川恵比寿５０１,,13,113,1500021,,,,,,,2023-10-05,1,,,,,スキャプラ,0
1463,6011001157467,新規,0,2023-10-05,2023-10-05,株式会社ＦＳＴＯ,,株式会社,東京都,渋谷区,神宮前６丁目２３番４号桑野ビル２階,,13,113,1500001,,,,,,,2023-10-05,1,,,,,フィスト,0
1467,6011101104600,新規,0,2023-10-05,2023-10-05,フェア＆スクエア・パートナーズ株式会社,,株式会社,東京都,新宿区,天神町６５番地１８,,13,104,1620808,,,,,,,2023-10-05,1,,,,,フェアアンドスクエアパートナーズ,0
1468,6011101104609,新規,0,2023-10-05,2023-10-05,株式会社ブックセラーズ＆カンパニー,,株式会社,東京都,新宿区,新宿３丁目１７番７号,,13,104,1600022,,,,,,,2023-10-05,1,,,,,ブックセラーズアンドカンパニー,0
1469,6011101104625,新規,0,2023-10-05,2023-10-05,ＴＯＹＯＮＤジャパン株式会社,,株式会社,東京都,新宿区,新宿５丁目１５－６新宿光陽ビル８０４号室,,13,104,1600022,,,,,,,2023-10-05,1,,,,,トーヨンドジャパン,0
1470,6011101104633,新規,0,2023-10-05,2023-10-05,株式会社ムブショ,,株式会社,東京都,新宿区,西新宿３丁目３番１３号西新宿水間ビル６階,,13,104,1600023,,,,,,,2023-10-05,1,,,,,ムブショ,0
1475,6011103013543,新規,0,2023-10-05,2023-10-05,合同会社ＴＵ１８,,合同会社,東京都,新宿区,四谷２丁目９番地１５東京ユナイテッド綜合事務所内,,13,104,1600004,,,,,,,2023-10-05,1,,,,,ティーユージュウハチ,0
1476,6011105010811,新規,0,2023-10-05,2023-10-05,一般社団法人日本就業支援調査機構,,その他の設立登記法人,東京都,新宿区,新宿１丁目３６－２新宿第七葉山ビル３Ｆ,,13,104,1600022,,,,,,,2023-10-05,1,,,,,ニホンシュウギョウシエンチョウサキコウ,0
1479,6011303004929,新規,0,2023-10-05,2023-10-05,合同会社燈家,,合同会社,東京都,杉並区,荻窪３丁目１２番２１号,,13,115,1670051,,,,,,,2023-10-05,1,,,,,アカリエ,0
1487,6011701026640,新規,0,2023-10-05,2023-10-05,株式会社ＭＳＢ,,株式会社,東京都,江戸川区,一之江４丁目６番１９号クィーンズコート２０１,,13,123,1320024,,,,,,,2023-10-05,1,,,,,,0
1488,6011801043115,新規,0,2023-10-05,2023-10-05,株式会社ＡＣクリエイション,,株式会社,東京都,足立区,西竹の塚２丁目３番３５号,,13,121,1210822,,,,,,,2023-10-05,1,,,,,エーシークリエイション,0
1489,6011801043131,新規,0,2023-10-05,2023-10-05,株式会社山田木工所,,株式会社,東京都,葛飾区,青戸３丁目２５番１３号,,13,122,1250062,,,,,,,2023-10-05,1,,,,,ヤマダモッコウジョ,0
1490,6011805003305,新規,0,2023-10-05,2023-10-05,一般社団法人東京都社会福祉支援センター,,その他の設立登記法人,東京都,葛飾区,小菅３丁目１９番３号,,13,122,1240001,,,,,,,2023-10-05,1,,,,,トウキョウトシャカイフクシシエンセンター,0
1492,6012401041062,新規,0,2023-10-05,2023-10-05,株式会社エスプランニング,,株式会社,東京都,多摩市,関戸１丁目３番地の１コーボック桜ヶ丘４０３,,13,224,2060011,,,,,,,2023-10-05,1,,,,,エスプランニング,0
1496,6013301051432,新規,0,2023-10-05,2023-10-05,株式会社フェアキャリアテック,,株式会社,東京都,豊島区,北大塚２丁目１５番９号ＩＴＹ大塚ビル７階,,13,116,1700004,,,,,,,2023-10-05,1,,,,,フェアキャリアテック,0
1499,6020001153756,新規,0,2023-10-05,2023-10-05,株式会社アルタレス,,株式会社,神奈川県,横浜市港北区,大倉山３丁目１４番５号,,14,109,2220037,,,,,,,2023-10-05,1,,,,,アルタレス,0
1500,6020001153764,新規,0,2023-10-05,2023-10-05,株式会社Ｎ’ｙ　Ｓｅｒｖｉｃｅ,,株式会社,神奈川県,川崎市中原区,市ノ坪４４２－８８,,14,133,2110016,,,,,,,2023-10-05,1,,,,,エヌワイサービス,0
1501,6020001153780,新規,0,2023-10-05,2023-10-05,株式会社優輝,,株式会社,神奈川県,川崎市中原区,木月１丁目３２番３号内田マンション２階,,14,133,2110025,,,,,,,2023-10-05,1,,,,,ユウキ,0
1502,6020001153797,新規,0,2023-10-05,2023-10-05,株式会社ＧＯＯＤＣＲＡＦＴ,,株式会社,神奈川県,川崎市多摩区,登戸２１２１番地１－７１２号,,14,135,2140014,,,,,,,2023-10-05,1,,,,,グッドクラフト,0
1503,6020001153814,新規,0,2023-10-05,2023-10-05,株式会社志遠商事,,株式会社,神奈川県,横浜市中区,山下町１４３番地,,14,104,2310023,,,,,,,2023-10-05,1,,,,,シエンショウジ,0
1508,6021001080387,新規,0,2023-10-05,2023-10-05,エーワン株式会社,,株式会社,神奈川県,相模原市中央区,宮下本町３丁目７番１５号,,14,152,2520211,,,,,,,2023-10-05,1,,,,,エーワン,0
1510,6021003013650,新規,0,2023-10-05,2023-10-05,合同会社ｓｅａｒｓ,,合同会社,神奈川県,藤沢市,白旗２丁目１－４－１０１,,14,205,2510051,,,,,,,2023-10-05,1,,,,,シアーズ,0
1517,6030001156196,新規,0,2023-10-05,2023-10-05,株式会社ニシキ,,株式会社,埼玉県,川口市,芝中田１丁目２４番９－３号,,11,203,3330847,,,,,,,2023-10-05,1,,,,,ニシキ,0
1518,6030001156279,新規,0,2023-10-05,2023-10-05,アラゴス株式会社,,株式会社,埼玉県,川口市,柳崎３丁目１１番３１－４０４号セジュール柳崎,,11,203,3330861,,,,,,,2023-10-05,1,,,,,アラゴス,0
1519,6030001156295,新規,0,2023-10-05,2023-10-05,株式会社ＭＳ,,株式会社,埼玉県,戸田市,喜沢１丁目２５番地の６,,11,224,3350013,,,,,,,2023-10-05,1,,,,,エムエス,0
1520,6030003022669,新規,0,2023-10-05,2023-10-05,ＥＬＩＴＥ　ＪＡＰＡＮ合同会社,,合同会社,埼玉県,鶴ヶ島市,大字藤金８７３－６コーポ久保２０６,,11,241,3502206,,,,,,,2023-10-05,1,,,,,エリートジャパン,0
1524,6040001130316,新規,0,2023-10-05,2023-10-05,株式会社鈴木笑店,,株式会社,千葉県,流山市,西初石３丁目１番地の１７,,12,220,2700121,,,,,,,2023-10-05,1,,,,,スズキショウテン,0
1525,6040001130332,新規,0,2023-10-05,2023-10-05,株式会社ＹＡＧ,,株式会社,千葉県,千葉市美浜区,幸町２丁目１４番１２棟４０８号,,12,106,2610001,,,,,,,2023-10-05,1,,,,,ワイエイジイ,0
1527,6040003023484,新規,0,2023-10-05,2023-10-05,Ｒａｙａｎ　Ｓｅｌ合同会社,,合同会社,千葉県,八街市,八街ほ１０３９番地２９－１０２,,12,230,2891115,,,,,,,2023-10-05,1,,,,,ラヤンセル,0
1528,6040003023492,新規,0,2023-10-05,2023-10-05,合同会社Ｍａｉｓｏｎ　ｂｏｏｋ　ｇａｒｄｅｎ,,合同会社,千葉県,千葉市美浜区,幸町２丁目８番１９棟１０６号,,12,106,2610001,,,,,,,2023-10-05,1,,,,,メゾンブックガーデン,0
1529,6050003007833,新規,0,2023-10-05,2023-10-05,米倉ファーム合同会社,,合同会社,茨城県,石岡市,山崎２２６７番地７,,08,205,3150125,,,,,,,2023-10-05,1,,,,,ヨネクラファーム,0
1535,6060003004739,新規,0,2023-10-05,2023-10-05,Ｔａｓｌｅｅｍ　Ｔｒａｄｉｎｇ合同会社,,合同会社,栃木県,栃木市,岩舟町新里１３０３－２番地４０号室,,09,203,3294316,,,,,,,2023-10-05,1,,,,,タスリーントレーディング,0
1538,6080105006367,新規,0,2023-10-05,2023-10-05,医療法人社団ＨＹＯＤＯ,,その他の設立登記法人,静岡県,三島市,谷田５７０番地の１,,22,206,4110801,,,,,,,2023-10-05,1,,,,,ヒョウドウ,0
1541,6100001036837,新規,0,2023-10-05,2023-10-05,株式会社ＨＡＲＩＳ　ＴＲＡＤＩＮＧ,,株式会社,長野県,飯田市,鼎下山１２９９番地,,20,205,3950803,,,,,,,2023-10-05,1,,,,,ハリストレーディング,0
1542,6100001036845,新規,0,2023-10-05,2023-10-05,株式会社あおい工務店,,株式会社,長野県,松本市,笹部２丁目１０番２３号モルトクリエンテビル西２号,,20,202,3900847,,,,,,,2023-10-05,1,,,,,アオイコウムテン,0
1544,6100003007209,新規,0,2023-10-05,2023-10-05,合同会社りんごや,,合同会社,長野県,下伊那郡喬木村,８４３番地１,,20,415,3951100,,,,,,,2023-10-05,1,,,,,リンゴヤ,0
1547,6110001037867,新規,0,2023-10-05,2023-10-05,株式会社ｔｈａｎｋ,,株式会社,新潟県,糸魚川市,大字中野口５４７番地１,,15,216,9491314,,,,,,,2023-10-05,1,,,,,サンク,0
1557,6120001258578,新規,0,2023-10-05,2023-10-05,株式会社ＬＥＰ,,株式会社,大阪府,大阪市北区,梅田１丁目１番３－２６７号,,27,127,5300001,,,,,,,2023-10-05,1,,,,,エルイーピー,0
1558,6120001258586,新規,0,2023-10-05,2023-10-05,弘伸株式会社,,株式会社,大阪府,大阪市西区,新町１丁目１３番１６号８階南室,,27,106,5500013,,,,,,,2023-10-05,1,,,,,ヒロシン,0
1559,6120001258603,新規,0,2023-10-05,2023-10-05,ニケ株式会社,,株式会社,大阪府,大阪市西区,江戸堀２丁目７－３２－２０４,,27,106,5500002,,,,,,,2023-10-05,1,,,,,ニケ,0
1560,6120001258628,新規,0,2023-10-05,2023-10-05,株式会社アンサング,,株式会社,大阪府,大阪市西区,土佐堀１丁目４番６号,,27,106,5500001,,,,,,,2023-10-05,1,,,,,アンサング,0
1562,6120003025027,新規,0,2023-10-05,2023-10-05,亀山社中合同会社,,合同会社,大阪府,大阪市中央区,博労町３丁目６番１４号ＴＡＧ北心斎橋ビル４０３,,27,128,5410059,,,,,,,2023-10-05,1,,,,,カメヤマシャチュウ,0
1563,6120003025035,新規,0,2023-10-05,2023-10-05,ＳＴＥＬＬＡ合同会社,,合同会社,大阪府,大阪市此花区,朝日２丁目１８番８号３Ｆ－６５０,,27,104,5540011,,,,,,,2023-10-05,1,,,,,ステラ,0
1564,6120005023912,新規,0,2023-10-05,2023-10-05,一般財団法人守口市門真市勤労者互助会,,その他の設立登記法人,大阪府,門真市,栄町６番９号門真プラザ７０７号,,27,223,5710047,,,,,,,2023-10-05,1,,,,,モリグチシカドマシキンロウシャゴジョカイ,0
1566,6120101068324,新規,0,2023-10-05,2023-10-05,株式会社Ｍｉｎａｍａｒｕ,,株式会社,大阪府,堺市東区,日置荘西町７丁１８番２６号,,27,143,5998114,,,,,,,2023-10-05,1,,,,,ミナマル,0
1569,6120901048112,新規,0,2023-10-05,2023-10-05,株式会社阿波佐直商店,,株式会社,大阪府,箕面市,箕面２丁目６番２０号,,27,220,5620001,,,,,,,2023-10-05,1,,,,,アワサナオショウテン,0
1570,6120901048120,新規,0,2023-10-05,2023-10-05,株式会社ル・レーヴ,,株式会社,大阪府,箕面市,箕面２丁目１１番５３－２０６号,,27,220,5620001,,,,,,,2023-10-05,1,,,,,ルレーヴ,0
1572,6120903004856,新規,0,2023-10-05,2023-10-05,合同会社ａｕｔｕｍｎ,,合同会社,大阪府,吹田市,片山町３丁目１５－２０－２０２,,27,205,5640082,,,,,,,2023-10-05,1,,,,,オータム,0
1581,6130001075345,新規,0,2023-10-05,2023-10-05,株式会社ＭＡＴＴ　ＪＡＰＡＮ,,株式会社,京都府,京都市下京区,御供石町３６８,,26,106,6008429,,,,,,,2023-10-05,1,,,,,マットジャパン,0
1582,6130003009020,新規,0,2023-10-05,2023-10-05,合同会社Ｌｉａｍ＆Ｅａｍｏｎ,,合同会社,京都府,京田辺市,同志社山手３丁目２番地６２,,26,211,6100315,,,,,,,2023-10-05,1,,,,,リアムアンドエイモン,0
1584,6140001131808,新規,0,2023-10-05,2023-10-05,株式会社ＳＫ　Ｆｒｅｅ,,株式会社,兵庫県,姫路市,飾磨区中野田３丁目４４番地,,28,201,6728045,,,,,,,2023-10-05,1,,,,,エスケーフリー,0
1585,6140001131832,新規,0,2023-10-05,2023-10-05,Ｙ＆Ｊ株式会社,,株式会社,兵庫県,宝塚市,花屋敷荘園１丁目８番５号,,28,214,6650802,,,,,,,2023-10-05,1,,,,,ワイアンドジェイ,0
1594,6160001025388,新規,0,2023-10-05,2023-10-05,株式会社Ｈ．Ａ．Ｓ,,株式会社,滋賀県,犬上郡多賀町,大字多賀１２６９番地７７,,25,443,5220341,,,,,,,2023-10-05,1,,,,,エイチエーエス,0
1595,6160001025396,新規,0,2023-10-05,2023-10-05,株式会社ＡＪＩＴＯ,,株式会社,滋賀県,彦根市,芹橋１丁目７番３４号,,25,202,5220087,,,,,,,2023-10-05,1,,,,,アジト,0
1599,6170001017806,新規,0,2023-10-05,2023-10-05,株式会社ＹＧＭ,,株式会社,和歌山県,橋本市,野６９７番地の７１,,30,203,6480074,,,,,,,2023-10-05,1,,,,,ワイジーエム,0
1600,6170001017814,新規,0,2023-10-05,2023-10-05,株式会社Ｔｒｕｓｔ,,株式会社,和歌山県,田辺市,湊１２番３２号日ノ出ビル２階,,30,206,6460031,,,,,,,2023-10-05,1,,,,,トラスト,0
1606,6180001158244,新規,0,2023-10-05,2023-10-05,株式会社ＮＲＳ,,株式会社,愛知県,名古屋市南区,明治２丁目１７番１号プレシャス明治Ｃ号,,23,112,4570861,,,,,,,2023-10-05,1,,,,,エヌアールエス,0
1607,6180001158277,新規,0,2023-10-05,2023-10-05,エスエンジニアリング株式会社,,株式会社,愛知県,名古屋市守山区,小幡３丁目１４番１９号,,23,113,4630011,,,,,,,2023-10-05,1,,,,,エスエンジニアリング,0
1608,6180001158293,新規,0,2023-10-05,2023-10-05,株式会社明進工業,,株式会社,愛知県,名古屋市港区,東茶屋２丁目４３４番地,,23,111,4550851,,,,,,,2023-10-05,1,,,,,メイシンコウギョウ,0
1609,6180001158310,新規,0,2023-10-05,2023-10-05,グラストプランテック株式会社,,株式会社,愛知県,東海市,富木島町伏見１丁目１３番地２３,,23,222,4760012,,,,,,,2023-10-05,1,,,,,グラストプランテック,0
1610,6180001158319,新規,0,2023-10-05,2023-10-05,株式会社中島モーター販売,,株式会社,愛知県,清須市,西枇杷島町末広３２番地,,23,233,4520003,,,,,,,2023-10-05,1,,,,,ナカシマモーターハンバイ,0
1611,6180001158327,新規,0,2023-10-05,2023-10-05,スタックストック株式会社,,株式会社,愛知県,大府市,神田町６丁目１３３番地,,23,223,4740003,,,,,,,2023-10-05,1,,,,,スタックストック,0
1612,6180001158335,新規,0,2023-10-05,2023-10-05,株式会社ミライノフォルム,,株式会社,愛知県,名古屋市中区,錦３丁目６番１５号先名古屋テレビ塔３階,,23,106,4600003,,,,,,,2023-10-05,1,,,,,ミライノフォルム,0
1616,6180003025822,新規,0,2023-10-05,2023-10-05,合同会社Ｓｔｒａｔｅｇｙ,,合同会社,愛知県,半田市,亀崎北浦町３丁目１３番地ロイヤルコート半田弐番館４０８号,,23,205,4750027,,,,,,,2023-10-05,1,,,,,ストラテジー,0
1617,6180005020375,新規,0,2023-10-05,2023-10-05,特定非営利活動法人アシスト,,その他の設立登記法人,愛知県,名古屋市中区,平和１丁目２１番４号かねり荘１Ｆ,,23,106,4600021,,,,,,,2023-10-05,1,,,,,アシスト,0
1618,6180005020383,新規,0,2023-10-05,2023-10-05,一般社団法人国際医療福祉交流協会,,その他の設立登記法人,愛知県,名古屋市中村区,烏森町４丁目１番地の２（メゾン烏森１－１１号）,,23,105,4530855,,,,,,,2023-10-05,1,,,,,コクサイイリョウフクシコウリュウキョウカイ,0
1620,6180301037874,新規,0,2023-10-05,2023-10-05,ＫＯＭＯＲＩ株式会社,,株式会社,愛知県,豊橋市,東脇３丁目９番地８,,23,201,4418083,,,,,,,2023-10-05,1,,,,,コモリ,0
1621,6180301037882,新規,0,2023-10-05,2023-10-05,株式会社テイク,,株式会社,愛知県,豊川市,御津町下佐脇鎌田１５１番地６,,23,207,4410302,,,,,,,2023-10-05,1,,,,,テイク,0
1626,6210001019491,新規,0,2023-10-05,2023-10-05,株式会社井上忠右衛門,,株式会社,福井県,鯖江市,河和田町第１２号３５番地,,18,207,9161222,,,,,,,2023-10-05,1,,,,,イノウエチュウエモン,0
1628,6220003003600,新規,0,2023-10-05,2023-10-05,わこころ合同会社,,合同会社,石川県,金沢市,小立野５丁目１番１１号フィオーレ２０１号室,,17,201,9200942,,,,,,,2023-10-05,1,,,,,ワココロ,0
1629,6240003006353,新規,0,2023-10-05,2023-10-05,合同会社ｆｉｃｕｓ,,合同会社,広島県,広島市安佐南区,西原８丁目４１番４－１３０１号,,34,105,7310113,,,,,,,2023-10-05,1,,,,,フィカス,0
1630,6250001020306,新規,0,2023-10-05,2023-10-05,株式会社江本ブロック,,株式会社,山口県,周南市,清光台町１１番１号,,35,215,7450653,,,,,,,2023-10-05,1,,,,,エモトブロック,0
1631,6250001020314,新規,0,2023-10-05,2023-10-05,株式会社小川計装,,株式会社,山口県,周南市,緑町３丁目４９番地,,35,215,7450075,,,,,,,2023-10-05,1,,,,,オガワケイソウ,0
1634,6260001038363,新規,0,2023-10-05,2023-10-05,株式会社ＳＨＯＷＡ,,株式会社,岡山県,岡山市北区,久米１４２番地３,,33,101,7010144,,,,,,,2023-10-05,1,,,,,ショウワ,0
1635,6260003004454,新規,0,2023-10-05,2023-10-05,合同会社Ｆｕｎ,,合同会社,岡山県,真庭市,蒜山富掛田６５３番地８８,,33,214,7170502,,,,,,,2023-10-05,1,,,,,ファン,0
1640,6290003014442,新規,0,2023-10-05,2023-10-05,Ｈａｊｉｍｅ合同会社,,合同会社,福岡県,福岡市中央区,谷１丁目１２番３４－１号,,40,133,8100031,,,,,,,2023-10-05,1,,,,,ハジメ,0
1643,6290801029914,新規,0,2023-10-05,2023-10-05,株式会社ＭＩＺＵｄｅｓｉｇｎ,,株式会社,福岡県,北九州市戸畑区,天籟寺２丁目９番３号,,40,105,8040041,,,,,,,2023-10-05,1,,,,,ミズデザイン,0
1644,6290801029922,新規,0,2023-10-05,2023-10-05,株式会社ＳＵＮＳＵＮ商事,,株式会社,福岡県,築上郡上毛町,大字宇野８７４番地１,,40,646,8710914,,,,,,,2023-10-05,1,,,,,サンサンショウジ,0
1648,6330001031311,新規,0,2023-10-05,2023-10-05,株式会社ＡＢリペアランス,,株式会社,熊本県,阿蘇市,乙姫字構口上２０９３番地２６,,43,214,8692226,,,,,,,2023-10-05,1,,,,,エービーリペアランス,0
1654,6340001025956,新規,0,2023-10-05,2023-10-05,神守不動産株式会社,,株式会社,鹿児島県,鹿児島市,荒田２丁目３番１２号,,46,201,8900054,,,,,,,2023-10-05,1,,,,,カミモリフドウサン,0
1655,6340003004272,新規,0,2023-10-05,2023-10-05,合同会社オフィス和顔施,,合同会社,鹿児島県,鹿児島市,唐湊１丁目７番２１号,,46,201,8900081,,,,,,,2023-10-05,1,,,,,オフィスワガンセ,0
1659,6360001032629,新規,0,2023-10-05,2023-10-05,株式会社ＨＩ設計,,株式会社,沖縄県,名護市,字屋部３０５番地９,,47,209,9050007,,,,,,,2023-10-05,1,,,,,エイチアイセッケイ,0
1660,6360001032637,新規,0,2023-10-05,2023-10-05,株式会社りえすと,,株式会社,沖縄県,那覇市,首里鳥堀町４丁目７番地,,47,201,9030805,,,,,,,2023-10-05,1,,,,,リエスト,0
1663,6370001050472,新規,0,2023-10-05,2023-10-05,株式会社すずらん,,株式会社,宮城県,仙台市青葉区,落合５丁目７番１１号,,04,101,9893126,,,,,,,2023-10-05,1,,,,,スズラン,0
1664,6370001050480,新規,0,2023-10-05,2023-10-05,佐々電株式会社,,株式会社,宮城県,加美郡色麻町,四竈字町西２４－１,,04,444,9814100,,,,,,,2023-10-05,1,,,,,ササデン,0
1666,6380003005580,新規,0,2023-10-05,2023-10-05,合同会社テクノサービス,,合同会社,福島県,郡山市,安積町荒井字安倍５番地の５,,07,203,9630111,,,,,,,2023-10-05,1,,,,,テクノサービス,0
1667,6400001016404,新規,0,2023-10-05,2023-10-05,株式会社秋田金物工業,,株式会社,岩手県,盛岡市,永井１６地割６６番地１,,03,201,0200834,,,,,,,2023-10-05,1,,,,,アキタカナモノコウギョウ,0
1671,6420003002805,新規,0,2023-10-05,2023-10-05,合同会社ＳＯＬ,,合同会社,青森県,三戸郡階上町,大字道仏字榊平５番地１,,02,446,0391201,,,,,,,2023-10-05,1,,,,,エスオーエル,0
1674,6430001090082,新規,0,2023-10-05,2023-10-05,株式会社宿泊ＤＸサポート,,株式会社,北海道,札幌市中央区,北一条西７丁目４番パシフィックマークス札幌北１条５０２,,01,101,0600001,,,,,,,2023-10-05,1,,,,,シュクハクディーエックスサポート,0
1680,6460103001562,新規,0,2023-10-05,2023-10-05,安心防災合同会社,,合同会社,北海道,河西郡芽室町,西二条南２丁目１番地１７,,01,637,0820062,,,,,,,2023-10-05,1,,,,,アンシンボウサイ,0
1682,6480003002031,新規,0,2023-10-05,2023-10-05,合同会社おなじみや,,合同会社,徳島県,徳島市,八万町武丈５０番地１,,36,201,7708070,,,,,,,2023-10-05,1,,,,,オナジミヤ,0
1692,7010001238986,新規,0,2023-10-05,2023-10-05,株式会社匠ソリューション,,株式会社,東京都,千代田区,神田和泉町１番地６－１６ヤマトビル４０５,,13,101,1010024,,,,,,,2023-10-05,1,,,,,タクミソリューション,0
1693,7010001239019,新規,0,2023-10-05,2023-10-05,株式会社インソースコンサルティング,,株式会社,東京都,千代田区,神田小川町３丁目２０番地,,13,101,1010052,,,,,,,2023-10-05,1,,,,,インソースコンサルティング,0
1696,7010003041851,新規,0,2023-10-05,2023-10-05,ＡＭＴＫ２合同会社,,合同会社,東京都,文京区,本郷４丁目３３－１２,,13,105,1130033,,,,,,,2023-10-05,1,,,,,エーエムティーケイツー,0
1699,7010005037328,新規,0,2023-10-05,2023-10-05,ＫＲＤ備後町開発特定目的会社,,その他の設立登記法人,東京都,中央区,日本橋１丁目４番１号,,13,102,1030027,,,,,,,2023-10-05,1,,,,,ケーアールディービンゴマチカイハツ,0
1700,7010005037336,新規,0,2023-10-05,2023-10-05,医療法人社団健長会,,その他の設立登記法人,東京都,千代田区,神田駿河台２丁目８瀬川ビル７階,,13,101,1010062,,,,,,,2023-10-05,1,,,,,,0
1701,7010103002217,新規,0,2023-10-05,2023-10-05,ＴＵＭＵＧＩ　ＥＮＴＥＲＴＡＩＮＭＥＮＴ　ＷＯＲＬＤ合同会社,,合同会社,東京都,八王子市,長房町２３０番地３３,,13,201,1930824,,,,,,,2023-10-05,1,,,,,ツムギエンターテイメントワールド,0
1711,7010403031072,新規,0,2023-10-05,2023-10-05,アバンデルアソシエイツ合同会社,,合同会社,東京都,港区,赤坂２丁目１７番５０－４００８号,,13,103,1070052,,,,,,,2023-10-05,1,,,,,アバンデルアソシエイツ,0
1716,7010405022524,新規,0,2023-10-05,2023-10-05,糸島デジタルインフラパーク特定目的会社,,その他の設立登記法人,東京都,港区,赤坂２丁目１０番５号税理士法人赤坂国際会計事務所内,,13,103,1070052,,,,,,,2023-10-05,1,,,,,イトシマデジタルインフラパーク,0
1717,7010405022532,新規,0,2023-10-05,2023-10-05,一般財団法人ドリーム,,その他の設立登記法人,東京都,港区,東新橋１丁目１０番１号,,13,103,1050021,,,,,,,2023-10-05,1,,,,,ドリーム,0
1719,7010501051146,新規,0,2023-10-05,2023-10-05,株式会社村上コーポレーション,,株式会社,東京都,台東区,浅草橋４丁目１０番８号ＴＦＡビル３Ｆ,,13,106,1110053,,,,,,,2023-10-05,1,,,,,ムラカミコーポレーション,0
1720,7010501051154,新規,0,2023-10-05,2023-10-05,株式会社Ｙ．Ｓ．ＨＤ,,株式会社,東京都,台東区,東上野３丁目３２番１４号エヴァーグリーン上野１００１,,13,106,1100015,,,,,,,2023-10-05,1,,,,,ワイエスホールディングス,0
1721,7010501051162,新規,0,2023-10-05,2023-10-05,株式会社太郎,,株式会社,東京都,台東区,浅草橋５丁目２－３鈴和ビル２Ｆ,,13,106,1110053,,,,,,,2023-10-05,1,,,,,タロウ,0
1725,7010603010405,新規,0,2023-10-05,2023-10-05,合同会社Ｓｏｌｏ　Ｓｉｇｎ,,合同会社,東京都,墨田区,立花１丁目１０番５－７０５号,,13,107,1310043,,,,,,,2023-10-05,1,,,,,ソロサイン,0
1726,7010701044924,新規,0,2023-10-05,2023-10-05,株式会社ＦＣＣ,,株式会社,東京都,品川区,旗の台４丁目７番８号コーポカトレア旗の台１０２,,13,109,1420064,,,,,,,2023-10-05,1,,,,,エフシーシー,0
1727,7010703006897,新規,0,2023-10-05,2023-10-05,合同会社ＭａｋｅＣｒｕｓｈ,,合同会社,東京都,品川区,西五反田１丁目２６番２号五反田サンハイツ８０９号室,,13,109,1410031,,,,,,,2023-10-05,1,,,,,メイククラッシュ,0
1730,7010903008495,新規,0,2023-10-05,2023-10-05,サンドグレース合同会社,,合同会社,東京都,世田谷区,下馬１丁目１４番６号,,13,112,1540002,,,,,,,2023-10-05,1,,,,,サンドグレース,0
1731,7010903008504,新規,0,2023-10-05,2023-10-05,ＳＩＬＶＥＲ　ＬＡＮＣＥ　ＦＩＬＭＳ合同会社,,合同会社,東京都,世田谷区,上馬４丁目１０番１４－２０６号,,13,112,1540011,,,,,,,2023-10-05,1,,,,,シルバーランスフィルムズ,0
1738,7011001157318,新規,0,2023-10-05,2023-10-05,株式会社ＮＯＭＡＤＺ,,株式会社,東京都,渋谷区,神宮前６丁目２３番４号桑野ビル２階,,13,113,1500001,,,,,,,2023-10-05,1,,,,,ノマズ,0
1739,7011001157334,新規,0,2023-10-05,2023-10-05,株式会社プロダクション・エコー,,株式会社,東京都,渋谷区,東３丁目１８番３号,,13,113,1500011,,,,,,,2023-10-05,1,,,,,プロダクションエコー,0
1740,7011001157342,新規,0,2023-10-05,2023-10-05,株式会社Ｔ‐ＡＴＴＡＣＫ,,株式会社,東京都,渋谷区,幡ヶ谷１丁目２－２京王幡ヶ谷ビル４階,,13,113,1510072,,,,,,,2023-10-05,1,,,,,ティーアタック,0
1741,7011001157409,新規,0,2023-10-05,2023-10-05,株式会社ＳＯＲＡ,,株式会社,東京都,渋谷区,上原２丁目２５番１２号,,13,113,1510064,,,,,,,2023-10-05,1,,,,,ソラ,0
1746,7011005010233,新規,0,2023-10-05,2023-10-05,一般社団法人グローカル・コンテンツ・アソシエーション,,その他の設立登記法人,東京都,渋谷区,神山町５番８号ステラハイム神山６０１号室,,13,113,1500047,,,,,,,2023-10-05,1,,,,,グローカルコンテンツアソシエーション,0
1752,7011101104599,新規,0,2023-10-05,2023-10-05,ｍｉｌａｂ株式会社,,株式会社,東京都,新宿区,西新宿２丁目１番１号新宿三井ビル４９階,,13,104,1600023,,,,,,,2023-10-05,1,,,,,ミラボ,0
1753,7011101104624,新規,0,2023-10-05,2023-10-05,株式会社バシコミ,,株式会社,東京都,新宿区,新宿５丁目１５番２池与ビル５０３,,13,104,1600022,,,,,,,2023-10-05,1,,,,,バシコミ,0
1755,7011103013542,新規,0,2023-10-05,2023-10-05,ヨコハマブリッジ合同会社,,合同会社,東京都,新宿区,四谷２丁目９番地１５東京ユナイテッド綜合事務所内,,13,104,1600004,,,,,,,2023-10-05,1,,,,,ヨコハマブリッジ,0
1756,7011103013550,新規,0,2023-10-05,2023-10-05,日本エスティージー合同会社,,合同会社,東京都,新宿区,西新宿３丁目３番１３号西新宿水間ビル２Ｆ,,13,104,1600023,,,,,,,2023-10-05,1,,,,,ニホンエスティージー,0
1757,7011103013567,新規,0,2023-10-05,2023-10-05,合同会社ＡＬＩＣＩＡ,,合同会社,東京都,新宿区,西新宿６丁目２５番８－１２０２号,,13,104,1600023,,,,,,,2023-10-05,1,,,,,アリシア,0
1760,7011301029043,新規,0,2023-10-05,2023-10-05,株式会社ＭＫＧ　Ｊａｐａｎ,,株式会社,東京都,杉並区,高円寺南２丁目２－１３アンビエンス高円寺３階Ｃ室,,13,115,1660003,,,,,,,2023-10-05,1,,,,,エムケージージャパン,0
1761,7011301029051,新規,0,2023-10-05,2023-10-05,京儀興業株式会社,,株式会社,東京都,杉並区,高円寺南５丁目２１番３号,,13,115,1660003,,,,,,,2023-10-05,1,,,,,キョウギコウギョウ,0
1766,7011403004134,新規,0,2023-10-05,2023-10-05,合同会社ＳＵＰＡ　ＮＩＮＫＩ,,合同会社,東京都,板橋区,板橋１丁目５３－１２板橋ビュータワー３０８,,13,119,1730004,,,,,,,2023-10-05,1,,,,,スーパーニンキ,0
1768,7011503005791,新規,0,2023-10-05,2023-10-05,ＲＯＹＡＬ　ＨＡＲＶＥＳＴ合同会社,,合同会社,東京都,荒川区,東日暮里６丁目１１番５号マルサ荘２０８,,13,118,1160014,,,,,,,2023-10-05,1,,,,,ロイヤルハーベスト,0
1774,7011801043122,新規,0,2023-10-05,2023-10-05,株式会社ＵＰ　ＢＲＡＩＮＳ,,株式会社,東京都,葛飾区,四つ木４丁目２８－１５,,13,122,1240011,,,,,,,2023-10-05,1,,,,,アップブレインズ,0
1775,7011801043130,新規,0,2023-10-05,2023-10-05,株式会社ビーソリッド,,株式会社,東京都,足立区,千住河原町６番１０－１０１号,,13,121,1200037,,,,,,,2023-10-05,1,,,,,ビーソリッド,0
1784,7020001153672,新規,0,2023-10-05,2023-10-05,株式会社信栄,,株式会社,神奈川県,横浜市鶴見区,馬場１丁目７－６ステラ横浜馬場１０３号,,14,101,2300076,,,,,,,2023-10-05,1,,,,,シンエイ,0
1785,7020001153796,新規,0,2023-10-05,2023-10-05,株式会社サイコー,,株式会社,神奈川県,川崎市幸区,戸手４丁目１０番１－４０３号フジトピア川崎,,14,132,2120005,,,,,,,2023-10-05,1,,,,,サイコー,0
1786,7020001153805,新規,0,2023-10-05,2023-10-05,株式会社ユナイト,,株式会社,神奈川県,横浜市旭区,東希望が丘９９番地,,14,112,2410826,,,,,,,2023-10-05,1,,,,,ユナイト,0
1787,7020001153813,新規,0,2023-10-05,2023-10-05,株式会社美の旅,,株式会社,神奈川県,横浜市中区,尾上町４丁目５７横浜市尾上町ビルディング８Ｆ,,14,104,2310015,,,,,,,2023-10-05,1,,,,,ビノタビ,0
1788,7020001153846,新規,0,2023-10-05,2023-10-05,株式会社ＫＯＤＵＫＡ,,株式会社,神奈川県,横浜市都筑区,川和町２４７番地,,14,118,2240057,,,,,,,2023-10-05,1,,,,,コヅカ,0
1792,7020003024681,新規,0,2023-10-05,2023-10-05,王美合同会社,,合同会社,神奈川県,横浜市中区,相生町２丁目５２,,14,104,2310012,,,,,,,2023-10-05,1,,,,,オウビ,0
1793,7020003024715,新規,0,2023-10-05,2023-10-05,ＶＵＤＤＹ　ＢＡＳＥ合同会社,,合同会社,神奈川県,川崎市川崎区,観音１丁目１３番１０号,,14,131,2100831,,,,,,,2023-10-05,1,,,,,ヴュディーベイス,0
1798,7021001080304,新規,0,2023-10-05,2023-10-05,株式会社佐藤美装,,株式会社,神奈川県,大和市,草柳１丁目３番地５０８号,,14,213,2420026,,,,,,,2023-10-05,1,,,,,サトウビソウ,0
1799,7021001080329,新規,0,2023-10-05,2023-10-05,株式会社ＢＬＧ,,株式会社,神奈川県,藤沢市,南藤沢２３－３ＦＫビル３Ｆ,,14,205,2510055,,,,,,,2023-10-05,1,,,,,ビーエルジー,0
1800,7021001080378,新規,0,2023-10-05,2023-10-05,光陽ペイント株式会社,,株式会社,神奈川県,南足柄市,和田河原１７９,,14,217,2500112,,,,,,,2023-10-05,1,,,,,コウヨウペイント,0
1807,7030005021404,新規,0,2023-10-05,2023-10-05,一般社団法人在さいたまベトナム協会,,その他の設立登記法人,埼玉県,蕨市,塚越１丁目２番１４号花見第３ビル５０５号室,,11,223,3350002,,,,,,,2023-10-05,1,,,,,ザイサイタマベトナムキョウカイ,0
1811,7040001130323,新規,0,2023-10-05,2023-10-05,株式会社キタガワ,,株式会社,千葉県,市川市,菅野４丁目１番２１号,,12,203,2720824,,,,,,,2023-10-05,1,,,,,キタガワ,0
1812,7040001130331,新規,0,2023-10-05,2023-10-05,宋福記株式会社,,株式会社,千葉県,千葉市花見川区,犢橋町８１９番地１,,12,102,2620013,,,,,,,2023-10-05,1,,,,,ソウフクキ,0
1813,7040005022153,新規,0,2023-10-05,2023-10-05,医療法人社団東陽会,,その他の設立登記法人,千葉県,船橋市,葛飾町２丁目３３５番地１アルマース弐番館２階,,12,204,2730032,,,,,,,2023-10-05,1,,,,,,0
1820,7060001036403,新規,0,2023-10-05,2023-10-05,株式会社ＥｘｅｃｕＩＴ,,株式会社,栃木県,宇都宮市,宮みらい２番２６号センチュリー宇都宮壱番館１５０１号室,,09,201,3210969,,,,,,,2023-10-05,1,,,,,エクスキューイット,0
1825,7080001025882,新規,0,2023-10-05,2023-10-05,株式会社クアトロレーヴ,,株式会社,静岡県,静岡市葵区,鷹匠３丁目１８番４号,,22,101,4200839,,,,,,,2023-10-05,1,,,,,クアトロレーヴ,0
1838,7100001036836,新規,0,2023-10-05,2023-10-05,株式会社東栄工業,,株式会社,長野県,東御市,海善寺６４５番地１,,20,219,3890504,,,,,,,2023-10-05,1,,,,,トウエイコウギョウ,0
1839,7100001036844,新規,0,2023-10-05,2023-10-05,株式会社壬生建築,,株式会社,長野県,飯田市,鼎名古熊２２３３番地１３,,20,205,3950804,,,,,,,2023-10-05,1,,,,,ミブケンチク,0
1841,7100003007208,新規,0,2023-10-05,2023-10-05,合同会社ソラシアプラス,,合同会社,長野県,飯田市,丸山町１丁目４番地１７,,20,205,3950077,,,,,,,2023-10-05,1,,,,,ソラシアプラス,0
1843,7110001037874,新規,0,2023-10-05,2023-10-05,カタギリ技研株式会社,,株式会社,新潟県,新潟市南区,上下諏訪木１３３番地１,,15,106,9501214,,,,,,,2023-10-05,1,,,,,カタギリギケン,0
1844,7110001037890,新規,0,2023-10-05,2023-10-05,株式会社ＱＯＬ．,,株式会社,新潟県,新潟市西区,松海が丘１丁目５番１５号,,15,107,9502075,,,,,,,2023-10-05,1,,,,,クオル,0
1849,7120001258552,新規,0,2023-10-05,2023-10-05,Ｒｉｃｈ　Ｌｉｆｅ株式会社,,株式会社,大阪府,大阪市阿倍野区,阪南町１丁目９－１２－２０１,,27,119,5450021,,,,,,,2023-10-05,1,,,,,リッチライフ,0
1850,7120001258585,新規,0,2023-10-05,2023-10-05,三福ホーム株式会社,,株式会社,大阪府,大阪市港区,港晴３丁目１番６号２０１室,,27,107,5520023,,,,,,,2023-10-05,1,,,,,ミフクホーム,0
1851,7120001258602,新規,0,2023-10-05,2023-10-05,株式会社ギャラクシーコーポレーションジャパン,,株式会社,大阪府,大阪市淀川区,西中島３丁目２２番２号,,27,123,5320011,,,,,,,2023-10-05,1,,,,,ギャラクシーコーポレーションジャパン,0
1852,7120001258668,新規,0,2023-10-05,2023-10-05,株式会社ハーモニー,,株式会社,大阪府,大阪市北区,天神橋３丁目２番３２号,,27,127,5300041,,,,,,,2023-10-05,1,,,,,ハーモニー,0
1853,7120003025001,新規,0,2023-10-05,2023-10-05,ラッフル合同会社,,合同会社,大阪府,大阪市生野区,巽中２丁目１３‐２３,,27,116,5440013,,,,,,,2023-10-05,1,,,,,ラッフル,0
1854,7120003025050,新規,0,2023-10-05,2023-10-05,合同会社ＫＳＡ,,合同会社,大阪府,大阪市阿倍野区,松崎町３丁目１番７－４０１号,,27,119,5450053,,,,,,,2023-10-05,1,,,,,ケイエスエー,0
1856,7120101068315,新規,0,2023-10-05,2023-10-05,株式会社ＥＭＯ,,株式会社,大阪府,泉佐野市,日根野１１６２番地の６,,27,213,5980021,,,,,,,2023-10-05,1,,,,,エモ,0
1857,7120101068331,新規,0,2023-10-05,2023-10-05,株式会社ＲＹＯＭＡ,,株式会社,大阪府,堺市東区,白鷺町１丁６番１０－３０５号,,27,143,5998107,,,,,,,2023-10-05,1,,,,,リョウマ,0
1869,7140001131856,新規,0,2023-10-05,2023-10-05,ＲｅＬｉｆｅ株式会社,,株式会社,兵庫県,神戸市東灘区,御影本町２丁目７番２９号,,28,101,6580046,,,,,,,2023-10-05,1,,,,,リライフ,0
1871,7140003019604,新規,0,2023-10-05,2023-10-05,ＨＳＲＫ合同会社,,合同会社,兵庫県,西宮市,津門大箇町７－３,,28,204,6638243,,,,,,,2023-10-05,1,,,,,エイチエスアールケイ,0
1872,7140005026755,新規,0,2023-10-05,2023-10-05,一般社団法人文化教育研究所,,その他の設立登記法人,兵庫県,尼崎市,崇徳院２丁目７２番地の５,,28,202,6600071,,,,,,,2023-10-05,1,,,,,ブンカキョウイクケンキュウジョ,0
1874,7150001026766,新規,0,2023-10-05,2023-10-05,株式会社寶鹿亭,,株式会社,奈良県,奈良市,下御門町３２番地,,29,201,6308365,,,,,,,2023-10-05,1,,,,,ホウロクテイ,0
1876,7160001025379,新規,0,2023-10-05,2023-10-05,株式会社セーリングスタッフカンパニー,,株式会社,滋賀県,大津市,桜野町１丁目７番７号,,25,201,5200026,,,,,,,2023-10-05,1,,,,,セーリングスタッフカンパニー,0
1877,7160001025395,新規,0,2023-10-05,2023-10-05,株式会社ＭａｎｙＯｎｅ,,株式会社,滋賀県,大津市,蓮池町１１番１２号,,25,201,5200001,,,,,,,2023-10-05,1,,,,,メニーワン,0
1878,7160005011235,新規,0,2023-10-05,2023-10-05,ＮＰＯ法人ぴとてらす,,その他の設立登記法人,滋賀県,大津市,大江２丁目１９－７,,25,201,5202141,,,,,,,2023-10-05,1,,,,,ピトテラス,0
1880,7170003001930,新規,0,2023-10-05,2023-10-05,合同会社ビッグヘルプ,,合同会社,和歌山県,和歌山市,紀三井寺４１９－５,,30,201,6410012,,,,,,,2023-10-05,1,,,,,ビッグヘルプ,0
1882,7180001158227,新規,0,2023-10-05,2023-10-05,株式会社ＪＣ,,株式会社,愛知県,名古屋市中村区,名駅４丁目２４番５号第２森ビル４０１,,23,105,4500002,,,,,,,2023-10-05,1,,,,,ジェーシー,0
1883,7180001158276,新規,0,2023-10-05,2023-10-05,株式会社ＹＡＪＩＭＡ,,株式会社,愛知県,名古屋市千種区,千種１丁目１４番３７号,,23,101,4640858,,,,,,,2023-10-05,1,,,,,ヤジマ,0
1884,7180001158292,新規,0,2023-10-05,2023-10-05,株式会社エフリゾート,,株式会社,愛知県,小牧市,小牧３丁目２７４番地,,23,219,4850041,,,,,,,2023-10-05,1,,,,,エフリゾート,0
1885,7180001158326,新規,0,2023-10-05,2023-10-05,石龍株式会社,,株式会社,愛知県,名古屋市港区,新茶屋４丁目２８０５番地,,23,111,4550863,,,,,,,2023-10-05,1,,,,,セキリュウ,0
1891,7180301037881,新規,0,2023-10-05,2023-10-05,株式会社レイズサービス,,株式会社,愛知県,豊橋市,中野町字二本松西２６番地,,23,201,4418149,,,,,,,2023-10-05,1,,,,,レイズサービス,0
1897,7210001019490,新規,0,2023-10-05,2023-10-05,ＲＯＢＩＮ株式会社,,株式会社,福井県,福井市,大瀬町第６号５番地,,18,201,9188063,,,,,,,2023-10-05,1,,,,,ロビン,0
1900,7220001025620,新規,0,2023-10-05,2023-10-05,株式会社ココロ,,株式会社,石川県,金沢市,松村３丁目５０５番地,,17,201,9200348,,,,,,,2023-10-05,1,,,,,ココロ,0
1902,7220005008786,新規,0,2023-10-05,2023-10-05,チャレンジドクリーンいしかわ事業協同組合,,その他の設立登記法人,石川県,金沢市,保古２丁目５９番地,,17,201,9218052,,,,,,,2023-10-05,1,,,,,チャレンジドクリーンイシカワジギョウ,0
1906,7240001062232,新規,0,2023-10-05,2023-10-05,ビオトープ株式会社,,株式会社,広島県,広島市中区,舟入南３丁目１８番３１号,,34,101,7300847,,,,,,,2023-10-05,1,,,,,ビオトープ,0
1911,7240003006352,新規,0,2023-10-05,2023-10-05,アイリス合同会社,,合同会社,広島県,東広島市,八本松南１丁目４番１号,,34,212,7390144,,,,,,,2023-10-05,1,,,,,アイリス,0
1918,7260001038362,新規,0,2023-10-05,2023-10-05,栄工業株式会社,,株式会社,岡山県,倉敷市,茶屋町１６７番地１９（１０１）,,33,202,7101101,,,,,,,2023-10-05,1,,,,,サカエコウギョウ,0
1919,7260001038370,新規,0,2023-10-05,2023-10-05,株式会社バンブーグリーン,,株式会社,岡山県,倉敷市,鶴の浦３丁目４番６－２０号,,33,202,7128007,,,,,,,2023-10-05,1,,,,,バンブーグリーン,0
1922,7260003004453,新規,0,2023-10-05,2023-10-05,合同会社まほら農園,,合同会社,岡山県,津山市,東一宮４番地１５,,33,203,7080814,,,,,,,2023-10-05,1,,,,,マホラノウエン,0
1929,7290001103246,新規,0,2023-10-05,2023-10-05,株式会社ＨＡＢ　ＲＥＣＹＣＬＥ,,株式会社,福岡県,福岡市早良区,四箇６丁目４－２－１０２,,40,137,8111103,,,,,,,2023-10-05,1,,,,,ハブリサイクル,0
1933,7290003014433,新規,0,2023-10-05,2023-10-05,ｍｏｄｉＱ合同会社,,合同会社,福岡県,糟屋郡宇美町,貴船３丁目６番３２号,,40,341,8112131,,,,,,,2023-10-05,1,,,,,モディック,0
1937,7290801029921,新規,0,2023-10-05,2023-10-05,株式会社興宝工業,,株式会社,福岡県,田川郡糸田町,１０５０番地,,40,604,8221300,,,,,,,2023-10-05,1,,,,,コウホウコウギョウ,0
1946,7330001031327,新規,0,2023-10-05,2023-10-05,株式会社宮崎興業,00132137,株式会社,熊本県,八代市,古麓町３０５番地７,,43,202,8660803,,,,,,,2023-10-05,1,,,,,ミヤザキコウギョウ,0
1947,7330003010007,新規,0,2023-10-05,2023-10-05,合同会社ＭＯＧＵ‐ＲＡ,,合同会社,熊本県,熊本市中央区,上鍛冶屋町２番地１ダイアパレス慶徳２０４,,43,101,8600021,,,,,,,2023-10-05,1,,,,,モグーラ,0
1948,7340001025947,新規,0,2023-10-05,2023-10-05,株式会社ＯＤＯＭＡ,,株式会社,鹿児島県,鹿児島市,西伊敷７丁目９番１８号Ｎ－ｄｕｅ、Ａ棟１０２号,,46,201,8911202,,,,,,,2023-10-05,1,,,,,オドマ,0
1949,7340001025955,新規,0,2023-10-05,2023-10-05,株式会社イーベンチャー,,株式会社,鹿児島県,出水市,緑町２６－２８－１,,46,208,8990201,,,,,,,2023-10-05,1,,,,,イーベンチャー,0
1951,7340005009665,新規,0,2023-10-05,2023-10-05,一般社団法人鹿児島スリランカ国際経済交流協会,,その他の設立登記法人,鹿児島県,鹿児島市,中央町１９番地４０ザ・パークハウス鹿児島中央タワー１７０８号,,46,201,8900053,,,,,,,2023-10-05,1,,,,,カゴシマスリランカコクサイケイザイコウリュウキョウカイ,0
1955,7360001032628,新規,0,2023-10-05,2023-10-05,株式会社ホカマ,,株式会社,沖縄県,宜野湾市,宇地泊３丁目１２番１９－３０５号,,47,205,9012227,,,,,,,2023-10-05,1,,,,,ホカマ,0
1956,7360001032644,新規,0,2023-10-05,2023-10-05,株式会社ＪＥＥＴ,,株式会社,沖縄県,那覇市,若狭２丁目２１番６号シーサイドマンション４０１,,47,201,9000031,,,,,,,2023-10-05,1,,,,,ジート,0
1957,7360003013345,新規,0,2023-10-05,2023-10-05,ＬＥＯホールディングス合同会社,,合同会社,沖縄県,中頭郡読谷村,字宇座１８６１番地,,47,324,9040328,,,,,,,2023-10-05,1,,,,,エルイーオーホールディングス,0
1958,7360003013353,新規,0,2023-10-05,2023-10-05,合同会社マルケイ,,合同会社,沖縄県,うるま市,石川１丁目２２番２８号,,47,213,9041106,,,,,,,2023-10-05,1,,,,,マルケイ,0
1961,7370001050463,新規,0,2023-10-05,2023-10-05,株式会社さくらコーポレーション,,株式会社,宮城県,仙台市泉区,南中山１丁目４１番地の５,,04,105,9813213,,,,,,,2023-10-05,1,,,,,サクラコーポレーション,0
1962,7370001050471,新規,0,2023-10-05,2023-10-05,株式会社阿部木工所,,株式会社,宮城県,仙台市宮城野区,蒲生字南城道田５２番地の３,,04,102,9830002,,,,,,,2023-10-05,1,,,,,アベモッコウショ,0
1963,7370001050488,新規,0,2023-10-05,2023-10-05,株式会社ＳＡＮ,,株式会社,宮城県,仙台市若林区,卸町２丁目１番地の８パークホームズ仙台卸町２１０７,,04,103,9840015,,,,,,,2023-10-05,1,,,,,サン,0
1968,7370003006315,新規,0,2023-10-05,2023-10-05,合同会社ササヨーパーキング,,合同会社,宮城県,仙台市太白区,長町１丁目６番１１号,,04,104,9820011,,,,,,,2023-10-05,1,,,,,ササヨーパーキング,0
1972,7410001013614,新規,0,2023-10-05,2023-10-05,株式会社ネクステリア,,株式会社,秋田県,秋田市,御所野堤台２丁目６番地２０７,,05,201,0101419,,,,,,,2023-10-05,1,,,,,ネクステリア,0
1979,7430005014796,新規,0,2023-10-05,2023-10-05,医療法人社団ＦＬＡＸ,,その他の設立登記法人,北海道,札幌市西区,八軒六条西６丁目３番１７号,,01,107,0630846,,,,,,,2023-10-05,1,,,,,フラックス,0
1984,7460103001561,新規,0,2023-10-05,2023-10-05,合同会社レジデンス,,合同会社,北海道,帯広市,西十六条北１丁目１８番地２５,,01,207,0800046,,,,,,,2023-10-05,1,,,,,レジデンス,0
1990,7480001012246,新規,0,2023-10-05,2023-10-05,株式会社ＺＳＴ　ＨＯＭＥ　Ｓｅｒｖｉｃｅ,,株式会社,徳島県,鳴門市,大津町段関字宝蔵１７番地１,,36,202,7720043,,,,,,,2023-10-05,1,,,,,ゼストホームサービス,0
1991,7480003002030,新規,0,2023-10-05,2023-10-05,トップス財経合同会社,,合同会社,徳島県,徳島市,川内町平石若宮２９７番地の９,,36,201,7710137,,,,,,,2023-10-05,1,,,,,,0
1997,7500003003109,新規,0,2023-10-05,2023-10-05,合同会社ｅｎｖｏｌ,,合同会社,愛媛県,宇和島市,泉町２丁目１番５号,,38,203,7980026,,,,,,,2023-10-05,1,,,,,アンヴォル,0
2005,8010001238928,新規,0,2023-10-05,2023-10-05,泓徳能源科技日本株式会社,00132140,株式会社,東京都,中央区,日本橋３丁目８番７号坂本ビル６階,,13,102,1030027,,,,,,,2023-10-05,1,,,,,ホンデノウゲンカギジャパン,0
2006,8010001238936,新規,0,2023-10-05,2023-10-05,Ｎｅｗ　Ｎｅｃｋ株式会社,,株式会社,東京都,中央区,銀座１丁目２２番１１号銀座大竹ビジデンス２階,,13,102,1040061,,,,,,,2023-10-05,1,,,,,ニューネック,0
2007,8010001238944,新規,0,2023-10-05,2023-10-05,株式会社ジリス,,株式会社,東京都,千代田区,神田佐久間町３丁目２１－２４ＡＫＩＨＡＢＡＲＡＣＥＮＴＲＡＬＳＱＵＡＲＥ３Ｆ,,13,101,1010025,,,,,,,2023-10-05,1,,,,,ジリス,0
2008,8010001238952,新規,0,2023-10-05,2023-10-05,株式会社ＲＹＺＥＡＬ,,株式会社,東京都,千代田区,霞が関１丁目４番１号日土地ビル２Ｆ,,13,101,1000013,,,,,,,2023-10-05,1,,,,,ライジール,0
2009,8010001238960,新規,0,2023-10-05,2023-10-05,株式会社ＤＸＥ‐Ｌａｂ,,株式会社,東京都,中央区,東日本橋２丁目２８番５号,,13,102,1030004,,,,,,,2023-10-05,1,,,,,ディエックスイーラボ,0
2010,8010001239001,新規,0,2023-10-05,2023-10-05,株式会社キャリログ,,株式会社,東京都,千代田区,神田司町２丁目１６佐一第二ビル４階,,13,101,1010048,,,,,,,2023-10-05,1,,,,,キャリログ,0
2011,8010001239026,新規,0,2023-10-05,2023-10-05,株式会社ＢＣＪ‐７８,,株式会社,東京都,千代田区,丸の内１丁目１番１号パレスビル５階,,13,101,1000005,,,,,,,2023-10-05,1,,,,,ビーシージェイセブンティーエイト,0
2014,8010003041834,新規,0,2023-10-05,2023-10-05,合同会社ＵＴＡＶＩＡ,,合同会社,東京都,中央区,銀座８丁目１６－５銀座中央ビル６階,,13,102,1040061,,,,,,,2023-10-05,1,,,,,ウタビア,0
2015,8010003041842,新規,0,2023-10-05,2023-10-05,クラウドエンジニア合同会社,,合同会社,東京都,千代田区,神田和泉町１番地６の１６ヤマトビル４０５号,,13,101,1010024,,,,,,,2023-10-05,1,,,,,クラウドエンジニア,0
2016,8010005037327,新規,0,2023-10-05,2023-10-05,一般社団法人メンタルケア・ネスト,,その他の設立登記法人,東京都,中央区,日本橋室町１丁目１１番１２号日本橋水野ビル７階,,13,102,1030022,,,,,,,2023-10-05,1,,,,,メンタルケアネスト,0
2018,8010103002216,新規,0,2023-10-05,2023-10-05,合同会社ハルテック,,合同会社,東京都,八王子市,東浅川町５５７‐６‐２０１,,13,201,1930834,,,,,,,2023-10-05,1,,,,,ハルテック,0
2024,8010401177536,新規,0,2023-10-05,2023-10-05,株式会社ＦＲＯＮＴＩＥＲ　ＡＧＥＮＴ,,株式会社,東京都,港区,六本木４丁目３番１１号六本木ユニハウス,,13,103,1060032,,,,,,,2023-10-05,1,,,,,フロンティアエージェント,0
2025,8010401177552,新規,0,2023-10-05,2023-10-05,株式会社ＴＯＢＥ　ＤＩＧＩＴＡＬ,,株式会社,東京都,港区,芝５丁目３６番４号札の辻スクエア９階,,13,103,1080014,,,,,,,2023-10-05,1,,,,,トゥービーデジタル,0
2026,8010401177577,新規,0,2023-10-05,2023-10-05,株式会社ＩＧＲ,,株式会社,東京都,港区,東新橋２丁目５番１１号メトロ沖山ビル３Ｆ,,13,103,1050021,,,,,,,2023-10-05,1,,,,,アイジーアール,0
2030,8010501051153,新規,0,2023-10-05,2023-10-05,Ｂｅｓｔｃａｒ株式会社,,株式会社,東京都,台東区,浅草３丁目２１－９トーラス浅草２０７号,,13,106,1110032,,,,,,,2023-10-05,1,,,,,ベストカー,0
2038,8010801034394,新規,0,2023-10-05,2023-10-05,株式会社プロモクリエイターズ,,株式会社,東京都,大田区,蒲田５丁目２１番１３号ペガサスステーションプラザ蒲田Ｂ２Ｆ,,13,111,1440052,,,,,,,2023-10-05,1,,,,,プロモクリエイターズ,0
2041,8010903008486,新規,0,2023-10-05,2023-10-05,合同会社ＭＡＲＫＵＰ,,合同会社,東京都,世田谷区,桜１丁目２７－３２－３０４,,13,112,1560053,,,,,,,2023-10-05,1,,,,,マークアップ,0
2045,8011001157390,新規,0,2023-10-05,2023-10-05,トライフェーズ株式会社,,株式会社,東京都,目黒区,目黒４丁目１３番１２号,,13,110,1530063,,,,,,,2023-10-05,1,,,,,トライフェーズ,0
2046,8011001157408,新規,0,2023-10-05,2023-10-05,株式会社北杜マネージメント,,株式会社,東京都,渋谷区,上原２丁目２５番１２号,,13,113,1510064,,,,,,,2023-10-05,1,,,,,ホクトマネージメント,0
2047,8011001157424,新規,0,2023-10-05,2023-10-05,株式会社リテイア,,株式会社,東京都,渋谷区,恵比寿２丁目２８番１０号,,13,113,1500013,,,,,,,2023-10-05,1,,,,,リテイア,0
2049,8011003017650,新規,0,2023-10-05,2023-10-05,合同会社ＣＨＡＺ,,合同会社,東京都,渋谷区,道玄坂１丁目１０－８渋谷道玄坂東急ビル２Ｆ－Ｃ,,13,113,1500043,,,,,,,2023-10-05,1,,,,,チャズ,0
2054,8011103013558,新規,0,2023-10-05,2023-10-05,ａｎｄ　ｂ　Ｌａｂ合同会社,,合同会社,東京都,新宿区,内藤町１番地７－２０２号,,13,104,1600014,,,,,,,2023-10-05,1,,,,,アンドビーラボ,0
2055,8011103013566,新規,0,2023-10-05,2023-10-05,ＭｉｘＷｉｌｌ合同会社,,合同会社,東京都,新宿区,歌舞伎町２丁目３９－２三幸ビル２階,,13,104,1600021,,,,,,,2023-10-05,1,,,,,ミックスウィル,0
2056,8011103013574,新規,0,2023-10-05,2023-10-05,合同会社Ｋ７１,,合同会社,東京都,新宿区,西新宿３丁目３番１３号西新宿水間ビル６階,,13,104,1600023,,,,,,,2023-10-05,1,,,,,ケイナナジュウイチ,0
2058,8011203004184,新規,0,2023-10-05,2023-10-05,Ｕｎａｎｉｎａ合同会社,,合同会社,東京都,中野区,鷺宮２丁目１６－６コーポ鷺宮１棟３０１,,13,114,1650032,,,,,,,2023-10-05,1,,,,,ユナニナ,0
2059,8011301029050,新規,0,2023-10-05,2023-10-05,株式会社ワールドトラベラー,,株式会社,東京都,杉並区,浜田山２丁目２０番１７－３０１号,,13,115,1680065,,,,,,,2023-10-05,1,,,,,ワールドトラベラー,0
2060,8011303004919,新規,0,2023-10-05,2023-10-05,合同会社ＲＥＧＳＴ,,合同会社,東京都,杉並区,天沼３丁目７番１４号ハイリビング関根Ａ－２０１,,13,115,1670032,,,,,,,2023-10-05,1,,,,,レグスト,0
2065,8011501029841,新規,0,2023-10-05,2023-10-05,ユニチー株式会社,,株式会社,東京都,北区,浮間１丁目１番１４号リムジンビル１０２,,13,117,1150051,,,,,,,2023-10-05,1,,,,,ユニチー,0
2067,8011503005790,新規,0,2023-10-05,2023-10-05,ＷＡＬＩＦ　ＩＮＴＥＲＮＡＴＩＯＮＡＬ合同会社,,合同会社,東京都,北区,十条仲原１丁目２８番１号,,13,117,1140031,,,,,,,2023-10-05,1,,,,,ワリフインターナショナル,0
2068,8011701026639,新規,0,2023-10-05,2023-10-05,株式会社Ｋ‐５,,株式会社,東京都,江戸川区,西小松川町２４－１３コーポ白鳩２０２号室,,13,123,1320032,,,,,,,2023-10-05,1,,,,,ケイファイブ,0
2070,8011801043121,新規,0,2023-10-05,2023-10-05,株式会社チコウナビ,,株式会社,東京都,足立区,扇２丁目２６番４号,,13,121,1230873,,,,,,,2023-10-05,1,,,,,チコウナビ,0
2071,8011803005870,新規,0,2023-10-05,2023-10-05,Ｃｏｉｌｙ合同会社,,合同会社,東京都,葛飾区,東金町６丁目１６番１９号,,13,122,1250041,,,,,,,2023-10-05,1,,,,,コイリー,0
2072,8012401041069,新規,0,2023-10-05,2023-10-05,株式会社Ｇａｃｋｓ,,株式会社,東京都,狛江市,岩戸北４丁目５番１２－２０１号,,13,219,2010004,,,,,,,2023-10-05,1,,,,,ガックス,0
2077,8020001153795,新規,0,2023-10-05,2023-10-05,株式会社タルカス,,株式会社,神奈川県,川崎市高津区,末長４丁目２６番３３号ホワイトコーポ１－Ｂ,,14,134,2130013,,,,,,,2023-10-05,1,,,,,タルカス,0
2078,8020001153804,新規,0,2023-10-05,2023-10-05,株式会社プチボヌール,,株式会社,神奈川県,横浜市瀬谷区,阿久和東１丁目２８番地５,,14,114,2460023,,,,,,,2023-10-05,1,,,,,プチボヌール,0
2079,8020001153820,新規,0,2023-10-05,2023-10-05,不動産法務プランナー株式会社,,株式会社,神奈川県,横浜市西区,浅間町２丁目９８－４北尾ビル２０１,,14,103,2200072,,,,,,,2023-10-05,1,,,,,フドウサンホウムプランナー,0
2080,8020001153829,新規,0,2023-10-05,2023-10-05,株式会社Ｌ＆Ｔ,,株式会社,神奈川県,川崎市川崎区,大師本町１番６－１号,,14,131,2100817,,,,,,,2023-10-05,1,,,,,エルアンドティー,0
2081,8020001153853,新規,0,2023-10-05,2023-10-05,株式会社エス,,株式会社,神奈川県,横浜市港南区,最戸１丁目２４番９号,,14,111,2330008,,,,,,,2023-10-05,1,,,,,エス,0
2082,8020003024697,新規,0,2023-10-05,2023-10-05,合同会社ＣＨＡＮＧＥ,,合同会社,神奈川県,川崎市川崎区,砂子２丁目８番地１０ジャパンビル２Ｄ号室,,14,131,2100006,,,,,,,2023-10-05,1,,,,,チェンジ,0
2085,8021001080328,新規,0,2023-10-05,2023-10-05,Ｃａｔｈｅｃｔ　Ｔｒａｄｉｎｇ株式会社,,株式会社,神奈川県,相模原市南区,若松２丁目１番２８号,,14,153,2520334,,,,,,,2023-10-05,1,,,,,カセクトトレーディング,0
2086,8021001080344,新規,0,2023-10-05,2023-10-05,株式会社刻ノ製作舎,,株式会社,神奈川県,鎌倉市,津西１丁目２４番２０－１号,,14,204,2480034,,,,,,,2023-10-05,1,,,,,トキノセイサクシャ,0
2087,8021001080352,新規,0,2023-10-05,2023-10-05,株式会社椈,,株式会社,神奈川県,逗子市,沼間３丁目３０番１５号,,14,208,2490004,,,,,,,2023-10-05,1,,,,,ブナ,0
2088,8021001080369,新規,0,2023-10-05,2023-10-05,株式会社さがみ中央電気,,株式会社,神奈川県,相模原市中央区,中央６丁目９番３－４０３号,,14,152,2520239,,,,,,,2023-10-05,1,,,,,サガミチュウオウデンキ,0
2089,8021001080377,新規,0,2023-10-05,2023-10-05,株式会社ＤＯ　ＳＰＥＥＤ,,株式会社,神奈川県,茅ヶ崎市,浜見平１５－３４オハナ茅ヶ崎ガーデニア６１８,,14,207,2530062,,,,,,,2023-10-05,1,,,,,ドゥスピード,0
2090,8021001080393,新規,0,2023-10-05,2023-10-05,株式会社カネカ,,株式会社,神奈川県,足柄下郡湯河原町,福浦吉浜１７４番地１,,14,384,2590316,,,,,,,2023-10-05,1,,,,,カネカ,0
2091,8021001080402,新規,0,2023-10-05,2023-10-05,株式会社Ｍｏｒｅｖｉｓｉｏｎ　Ｓｙｓｔｅｍｓ,,株式会社,神奈川県,相模原市南区,相模大野１丁目７番８号,,14,153,2520303,,,,,,,2023-10-05,1,,,,,モアビジョンシステムズ,0
2100,8030001156491,新規,0,2023-10-05,2023-10-05,株式会社Ａｒｔ,,株式会社,埼玉県,川口市,青木４丁目２５番２０－４０６号,,11,203,3320031,,,,,,,2023-10-05,1,,,,,アート,0
2102,8030003022709,新規,0,2023-10-05,2023-10-05,合同会社雨ｔｏ犬,,合同会社,埼玉県,川口市,中青木５丁目１４番５号１０２,,11,203,3320032,,,,,,,2023-10-05,1,,,,,アメトイヌ,0
2103,8030003022741,新規,0,2023-10-05,2023-10-05,合同会社ＤＤＡＭ,,合同会社,埼玉県,春日部市,藤塚２５０―５３,,11,214,3440011,,,,,,,2023-10-05,1,,,,,ディーディーエーエム,0
2108,8040001130322,新規,0,2023-10-05,2023-10-05,株式会社ＳＤＦ,,株式会社,千葉県,野田市,木間ケ瀬２００６番地２,,12,208,2700222,,,,,,,2023-10-05,1,,,,,エスディーエフ,0
2109,8040001130396,新規,0,2023-10-05,2023-10-05,株式会社藤巻工業,,株式会社,千葉県,市川市,真間２丁目２５－１６,,12,203,2720826,,,,,,,2023-10-05,1,,,,,フジマキコウギョウ,0
2112,8040003023466,新規,0,2023-10-05,2023-10-05,合同会社マイビズアシスト,,合同会社,千葉県,千葉市中央区,本町１丁目４番２４号,,12,101,2600012,,,,,,,2023-10-05,1,,,,,マイビズアシスト,0
2115,8050001053596,新規,0,2023-10-05,2023-10-05,株式会社つくさ家,,株式会社,茨城県,つくば市,学園の森２丁目１１番地８,,08,220,3050816,,,,,,,2023-10-05,1,,,,,ツクサカ,0
2118,8060001036402,新規,0,2023-10-05,2023-10-05,株式会社ＧＯＬＤＥＮ　ＳＨＡＲＫ,,株式会社,栃木県,小山市,大字粟宮１６９６番地２２,,09,208,3290201,,,,,,,2023-10-05,1,,,,,ゴールデンシャーク,0
2120,8060003004737,新規,0,2023-10-05,2023-10-05,合同会社ｎ．ｗｏｒｋｓ,,合同会社,栃木県,下都賀郡壬生町,大字壬生丁２２８－２６Ｋハイツ２０１,,09,361,3210216,,,,,,,2023-10-05,1,,,,,エヌドットワークス,0
2130,8080101024255,新規,0,2023-10-05,2023-10-05,株式会社望勝組,,株式会社,静岡県,富士市,厚原８８１番地の５１,,22,210,4190201,,,,,,,2023-10-05,1,,,,,モチカツグミ,0
2135,8080401026760,新規,0,2023-10-05,2023-10-05,株式会社ＤｙＪ,,株式会社,静岡県,浜松市南区,増楽町６５４番地の１アソルティ増楽１０３号,,22,134,4328062,,,,,,,2023-10-05,1,,,,,ディーワイジェイ,0
2138,8090003002399,新規,0,2023-10-05,2023-10-05,合同会社Ａｃｔ,,合同会社,山梨県,南アルプス市,下今井２２０番地３,,19,208,4000331,,,,,,,2023-10-05,1,,,,,アクト,0
2140,8110001037881,新規,0,2023-10-05,2023-10-05,株式会社キャンプの力研究所,,株式会社,新潟県,三条市,中野原４５６番地,,15,204,9550147,,,,,,,2023-10-05,1,,,,,キャンプノチカラケンキュウジョ,0
2147,8120001258551,新規,0,2023-10-05,2023-10-05,恒瑞貿易株式会社,,株式会社,大阪府,大阪市西区,九条南４丁目３番１１－２０２号,,27,106,5500025,,,,,,,2023-10-05,1,,,,,コウセイボウエキ,0
2148,8120001258576,新規,0,2023-10-05,2023-10-05,株式会社Ｔ＆Ｄ,,株式会社,大阪府,大阪市住吉区,我孫子東１丁目１２番４－５２１号,,27,120,5580013,,,,,,,2023-10-05,1,,,,,ティーアンドディー,0
2149,8120001258601,新規,0,2023-10-05,2023-10-05,株式会社ｃｈａｍ,,株式会社,大阪府,大阪市中央区,南船場４丁目９－７日宝南船場キャトルビル２Ｆ,,27,128,5420081,,,,,,,2023-10-05,1,,,,,チャム,0
2150,8120001258634,新規,0,2023-10-05,2023-10-05,株式会社ＴＲＡＩＬＢＬＡＺＥＲ,,株式会社,大阪府,大阪市北区,芝田２丁目４番２４号,,27,127,5300012,,,,,,,2023-10-05,1,,,,,トレイルブレイザー,0
2151,8120001258650,新規,0,2023-10-05,2023-10-05,アンテック株式会社,,株式会社,大阪府,大阪市淀川区,野中南２丁目９番２３号,,27,123,5320022,,,,,,,2023-10-05,1,,,,,アンテック,0
2152,8120001258667,新規,0,2023-10-05,2023-10-05,神戸ビフテキ亭株式会社,,株式会社,大阪府,大阪市淀川区,宮原１丁目１６－４４,,27,123,5320003,,,,,,,2023-10-05,1,,,,,コウベビフテキテイ,0
2155,8120003025082,新規,0,2023-10-05,2023-10-05,合同会社プロット,,合同会社,大阪府,大阪市北区,梅田１丁目２番２号大阪駅前第２ビル１２‐１２,,27,127,5300001,,,,,,,2023-10-05,1,,,,,プロット,0
2160,8120101068314,新規,0,2023-10-05,2023-10-05,株式会社さくら管理システム,,株式会社,大阪府,松原市,新堂３丁目９番１５号,,27,217,5800015,,,,,,,2023-10-05,1,,,,,サクラカンリシステム,0
2161,8120101068322,新規,0,2023-10-05,2023-10-05,オイルキャリーｎｅｔ株式会社,,株式会社,大阪府,岸和田市,流木町７００番地の４,,27,202,5960835,,,,,,,2023-10-05,1,,,,,オイルキャリーネット,0
2164,8120901048119,新規,0,2023-10-05,2023-10-05,隆源貿易株式会社,,株式会社,大阪府,摂津市,東別府２丁目２７－１,,27,224,5660042,,,,,,,2023-10-05,1,,,,,リュウゲンボウエキ,0
2165,8120901048127,新規,0,2023-10-05,2023-10-05,エクスボーラ株式会社,,株式会社,大阪府,茨木市,鮎川２丁目１０－２１,,27,211,5670831,,,,,,,2023-10-05,1,,,,,エクスボーラ,0
2168,8120903004854,新規,0,2023-10-05,2023-10-05,合同会社クロスヒルズ,,合同会社,大阪府,吹田市,岸部北２丁目８番５号,,27,205,5640001,,,,,,,2023-10-05,1,,,,,クロスヒルズ,0
2172,8122001037448,新規,0,2023-10-05,2023-10-05,株式会社ティケイ企画,,株式会社,大阪府,東大阪市,足代１丁目２１番４号,,27,227,5770841,,,,,,,2023-10-05,1,,,,,ティケイキカク,0
2178,8140001131822,新規,0,2023-10-05,2023-10-05,松辰株式会社,,株式会社,兵庫県,神戸市中央区,花隈町３３番１８－１４０２号,,28,110,6500013,,,,,,,2023-10-05,1,,,,,マツシン,0
2179,8140001131855,新規,0,2023-10-05,2023-10-05,株式会社ＳＥＶＥＮＴＨ　ＨＥＡＶＥＮ,,株式会社,兵庫県,明石市,大久保町駅前１丁目１５番地の４プレステージ大久保駅前７０５号,,28,203,6740058,,,,,,,2023-10-05,1,,,,,セブンスヘブン,0
2181,8150001026773,新規,0,2023-10-05,2023-10-05,辰巳造園土木株式会社,,株式会社,奈良県,高市郡明日香村,大字御園８番地の２,,29,402,6340131,,,,,,,2023-10-05,1,,,,,タツミゾウエンドボク,0
2183,8160001025386,新規,0,2023-10-05,2023-10-05,株式会社ＳＫＹｐｌａｎｎｉｎｇ,,株式会社,滋賀県,栗東市,出庭１７１７番地２,,25,208,5203041,,,,,,,2023-10-05,1,,,,,スカイプランニング,0
2185,8160003003002,新規,0,2023-10-05,2023-10-05,ＵＭＩ合同会社,,合同会社,滋賀県,草津市,西渋川１丁目３番３０－２０７号,,25,206,5250025,,,,,,,2023-10-05,1,,,,,ユーエムアイ,0
2187,8160005011234,新規,0,2023-10-05,2023-10-05,一般社団法人エンモニー,,その他の設立登記法人,滋賀県,野洲市,小篠原１９７８番地８,,25,210,5202331,,,,,,,2023-10-05,1,,,,,エンモニー,0
2189,8170001017812,新規,0,2023-10-05,2023-10-05,株式会社ＦＩＶＥ　ＦＥＥＬＳ,,株式会社,和歌山県,和歌山市,古屋５－１９,,30,201,6408435,,,,,,,2023-10-05,1,,,,,ファイブフィールズ,0
2195,8180001158309,新規,0,2023-10-05,2023-10-05,株式会社ＳＥＮ,,株式会社,愛知県,春日井市,穴橋町２丁目１０番地４６,,23,206,4860853,,,,,,,2023-10-05,1,,,,,セン,0
2196,8180001158325,新規,0,2023-10-05,2023-10-05,株式会社Ｍａｈａｌ,,株式会社,愛知県,知多市,新知字東屋敷６９番地１,,23,224,4780017,,,,,,,2023-10-05,1,,,,,マハル,0
2197,8180001158366,新規,0,2023-10-05,2023-10-05,株式会社ＷＫ,,株式会社,愛知県,名古屋市守山区,大字上志段味字羽根５５３番地の２,,23,113,4630001,,,,,,,2023-10-05,1,,,,,ダブルケイ,0
2201,8180003025829,新規,0,2023-10-05,2023-10-05,ＮＥＷ　ＷＯＲＫＳ　ＳＴＵＤＩＯ合同会社,,合同会社,愛知県,名古屋市名東区,山の手３丁目１４０９番地,,23,115,4650011,,,,,,,2023-10-05,1,,,,,ニューワークススタジオ,0
2205,8180005020381,新規,0,2023-10-05,2023-10-05,一般社団法人ＲＨＬ,,その他の設立登記法人,愛知県,長久手市,熊田１１０１番地３,,23,238,4801144,,,,,,,2023-10-05,1,,,,,アールエイチエル,0
2214,8210001019481,新規,0,2023-10-05,2023-10-05,株式会社杉本瓦店,,株式会社,福井県,福井市,小稲津町第３０号５２番地,,18,201,9188131,,,,,,,2023-10-05,1,,,,,スギモトカワラテン,0
2215,8210001019498,新規,0,2023-10-05,2023-10-05,株式会社Ｒａｉｎｂｏｗ,,株式会社,福井県,坂井市,春江町江留下屋敷２６１番地２,,18,210,9190414,,,,,,,2023-10-05,1,,,,,レインボー,0
2220,8240001062223,新規,0,2023-10-05,2023-10-05,株式会社由村工務店,,株式会社,広島県,広島市東区,福田４丁目４０１６番地８,,34,102,7320029,,,,,,,2023-10-05,1,,,,,ヨシムラコウムテン,0
2221,8250001020320,新規,0,2023-10-05,2023-10-05,株式会社Ｅｖａｌｕｅ,,株式会社,山口県,下松市,潮音町２丁目６番５号レオパレスおおのみ２０４号,,35,207,7440074,,,,,,,2023-10-05,1,,,,,イーバリュー,0
2229,8290001103229,新規,0,2023-10-05,2023-10-05,株式会社トップレンジ,,株式会社,福岡県,福岡市博多区,金の隈１丁目１０番１－３０７号スワンマンション空港南ＩＩ,00132145,40,132,8120863,,,,,,,2023-10-05,1,,,,,トップレンジ,0
2230,8290001103278,新規,0,2023-10-05,2023-10-05,株式会社ＳＥＬＥＣＴ,,株式会社,福岡県,福岡市博多区,美野島１丁目２３番３１－２０１号,,40,132,8120017,,,,,,,2023-10-05,1,,,,,セレクト,0
2235,8290003014424,新規,0,2023-10-05,2023-10-05,合同会社ｅｍｐａｔｈｙ,,合同会社,福岡県,福岡市博多区,博多駅前２丁目１９番１７号トーカン博多第５キャステール３１２号,,40,132,8120011,,,,,,,2023-10-05,1,,,,,エンパシー,0
2236,8290003014440,新規,0,2023-10-05,2023-10-05,合同会社Ｋ．Ｈ．Ｍ,,合同会社,福岡県,福岡市中央区,大名２丁目２番７号大名センタービル６Ｆ,,40,133,8100041,,,,,,,2023-10-05,1,,,,,ケイエイチエム,0
2239,8300003002030,新規,0,2023-10-05,2023-10-05,合同会社ＸＡ,,合同会社,佐賀県,鳥栖市,蔵上３丁目２１０,,41,203,8410056,,,,,,,2023-10-05,1,,,,,エックスエイ,0
2243,8320001020032,新規,0,2023-10-05,2023-10-05,株式会社Ｂｅａｕｔｙ＆Ｈｅａｌｔｈ　Ｌａｂｏ,,株式会社,大分県,中津市,大字島田５８０番地２,,44,203,8710033,,,,,,,2023-10-05,1,,,,,ビューティーアンドヘルスラボ,0
2248,8330001031334,新規,0,2023-10-05,2023-10-05,ＡＣＴ株式会社,,株式会社,熊本県,宇城市,松橋町松橋１３９０番地４,,43,213,8690502,,,,,,,2023-10-05,1,,,,,アクト,0
2251,8330003010006,新規,0,2023-10-05,2023-10-05,合同会社田村制作事務所,,合同会社,熊本県,熊本市中央区,新大江２丁目９番１号,,43,101,8620972,,,,,,,2023-10-05,1,,,,,タムラセイサクジムショ,0
2256,8340005009664,新規,0,2023-10-05,2023-10-05,一般社団法人種子島アニマルレスキュー,,その他の設立登記法人,鹿児島県,熊毛郡中種子町,納官４２２０番地１,,46,501,8913601,,,,,,,2023-10-05,1,,,,,タネガシマアニマルレスキュー,0
2258,8360001032635,新規,0,2023-10-05,2023-10-05,株式会社渡,,株式会社,沖縄県,島尻郡南風原町,字津嘉山１２７７番地１シャールレーク南風原津嘉山１００１,,47,350,9011117,,,,,,,2023-10-05,1,,,,,ワタリ,0
2261,8360003013344,新規,0,2023-10-05,2023-10-05,合同会社源氣,,合同会社,沖縄県,国頭郡今帰仁村,字今泊１８７番地１,,47,306,9050428,,,,,,,2023-10-05,1,,,,,ゲンキ,0
2264,8370003006314,新規,0,2023-10-05,2023-10-05,合同会社ｋａｎｋｕｒｏ,,合同会社,宮城県,仙台市宮城野区,萩野町３丁目４番１１号,,04,102,9830043,,,,,,,2023-10-05,1,,,,,カンクロ,0
2268,8380001034027,新規,0,2023-10-05,2023-10-05,株式会社３ＢＯ,,株式会社,福島県,郡山市,緑町９番１２号,,07,203,9638023,,,,,,,2023-10-05,1,,,,,サンボウ,0
2269,8400001016402,新規,0,2023-10-05,2023-10-05,株式会社ウィズエリア,,株式会社,岩手県,盛岡市,稲荷町１０番４１号,,03,201,0200142,,,,,,,2023-10-05,1,,,,,ウィズエリア,0
2270,8400001016410,新規,0,2023-10-05,2023-10-05,株式会社一彩興業,,株式会社,岩手県,滝沢市,鵜飼洞畑５７番地１４,,03,216,0200652,,,,,,,2023-10-05,1,,,,,ヒイロコウギョウ,0
2272,8410001013605,新規,0,2023-10-05,2023-10-05,株式会社ＳＯＡＲ,,株式会社,秋田県,秋田市,中通６丁目１９番１３号Ｓ．１スクエア１階Ｂ,,05,201,0100001,,,,,,,2023-10-05,1,,,,,ソアー,0
2273,8410001013613,新規,0,2023-10-05,2023-10-05,株式会社ロードサービス秋田,,株式会社,秋田県,秋田市,寺内字三千刈４７３番地１,,05,201,0110901,,,,,,,2023-10-05,1,,,,,ロードサービスアキタ,0
2281,8460301005173,新規,0,2023-10-05,2023-10-05,得斗工業株式会社,,株式会社,北海道,北見市,中央三輪１丁目２７７番地５,,01,208,0900837,,,,,,,2023-10-05,1,,,,,トクトコウギョウ,0
2291,9010001238919,新規,0,2023-10-05,2023-10-05,ＭｉｃｒｏＰｏｒｔ　Ｄ‐Ｐｕｌｓｅ　Ｍｅｄｉｃａｌ　Ｊａｐａｎ株式会社,,株式会社,東京都,千代田区,霞が関３丁目２番６号東京倶楽部ビルディング１１階,,13,101,1000013,,,,,,,2023-10-05,1,,,,,マイクロポートディーパルスメディカルジャパン,0
2292,9010001238943,新規,0,2023-10-05,2023-10-05,株式会社ＩＮＦＩＮＩＴＹ,,株式会社,東京都,文京区,根津１丁目２１－１１,,13,105,1130031,,,,,,,2023-10-05,1,,,,,インフィニティ,0
2293,9010001238951,新規,0,2023-10-05,2023-10-05,株式会社ＩＳＯＣＥＲＴ　ＪＡＰＡＮ,,株式会社,東京都,中央区,日本橋本町３丁目３番６号ワカ末ビル７階,,13,102,1030023,,,,,,,2023-10-05,1,,,,,アイエスオーサートジャパン,0
2294,9010001238984,新規,0,2023-10-05,2023-10-05,エム・エーライフマテリアルズ株式会社,,株式会社,東京都,中央区,八重洲２丁目２番１号,,13,102,1040028,,,,,,,2023-10-05,1,,,,,エムエーライフマテリアルズ,0
2295,9010001239000,新規,0,2023-10-05,2023-10-05,株式会社康和,,株式会社,東京都,千代田区,神田三崎町２丁目１０番１１号４Ａ－６,,13,101,1010061,,,,,,,2023-10-05,1,,,,,コウワ,0
2296,9010001239025,新規,0,2023-10-05,2023-10-05,株式会社ＢＣＪ‐７７,,株式会社,東京都,千代田区,丸の内１丁目１番１号パレスビル５階,,13,101,1000005,,,,,,,2023-10-05,1,,,,,ビーシージェイセブンティーセブン,0
2297,9010001239033,新規,0,2023-10-05,2023-10-05,株式会社ＴＧＫフーズ,,株式会社,東京都,中央区,日本橋兜町２２番３号ＴＯＫＹＯＰＬＡＣＥＮＩＨＯＮＢＡＳＨＩ２階,,13,102,1030026,,,,,,,2023-10-05,1,,,,,ティージーケイフーズ,0
2302,9010003041817,新規,0,2023-10-05,2023-10-05,ＡＲＣＨＩＭＥＤ　Ｊａｐａｎ合同会社,,合同会社,東京都,中央区,日本橋本町２丁目２番２号日本橋本町ＹＳビル在日フランス商工会議所内,,13,102,1030023,,,,,,,2023-10-05,1,,,,,アルキメッドジャパン,0
2303,9010003041833,新規,0,2023-10-05,2023-10-05,ＲＴＹＰＥ合同会社,,合同会社,東京都,中央区,銀座１丁目１２－４Ｎ＆Ｅ・ＢＬＤ．７階,,13,102,1040061,,,,,,,2023-10-05,1,,,,,アールタイプ,0
2309,9010401177568,新規,0,2023-10-05,2023-10-05,アドミットエーアイ株式会社,,株式会社,東京都,港区,新橋２丁目１６番１号ニュー新橋ビル３０５Ｃ,,13,103,1050004,,,,,,,2023-10-05,1,,,,,アドミットエーアイ,0
2310,9010403031087,新規,0,2023-10-05,2023-10-05,ＪＦＲブリッジ合同会社,,合同会社,東京都,港区,元赤坂１丁目１番８号赤坂コミュニティビル４階,,13,103,1070051,,,,,,,2023-10-05,1,,,,,ジェイエフアールブリッジ,0
2316,9010405022555,新規,0,2023-10-05,2023-10-05,一般社団法人Ｓａｉｎｔ　Ｃｒｅｓｐｉｎ,,その他の設立登記法人,東京都,港区,虎ノ門５丁目１番４号,,13,103,1050001,,,,,,,2023-10-05,1,,,,,セントクレスピン,0
2321,9010601063915,新規,0,2023-10-05,2023-10-05,株式会社ローカルＷｅｂ３,,株式会社,東京都,江東区,平野３丁目２番１５－６０４号,,13,108,1350023,,,,,,,2023-10-05,1,,,,,ローカルウェブスリー,0
2323,9010603010403,新規,0,2023-10-05,2023-10-05,合同会社セレクトコレクション,,合同会社,東京都,江東区,北砂３丁目２８番７－５０７号,,13,108,1360073,,,,,,,2023-10-05,1,,,,,セレクトコレクション,0
2324,9010701044930,新規,0,2023-10-05,2023-10-05,滝Ｊａｐａｎ株式会社,,株式会社,東京都,品川区,東大井４丁目１３番６－５０１号,,13,109,1400011,,,,,,,2023-10-05,1,,,,,タキジャパン,0
2326,9010703006895,新規,0,2023-10-05,2023-10-05,合同会社３９ＬＡＮＤ,,合同会社,東京都,品川区,上大崎２丁目１１番１０－４０３号,,13,109,1410021,,,,,,,2023-10-05,1,,,,,サンキューランド,0
2327,9010801034393,新規,0,2023-10-05,2023-10-05,株式会社ＴＡＣｓコンサルティング,,株式会社,東京都,大田区,大森本町１丁目２－６,,13,111,1430011,,,,,,,2023-10-05,1,,,,,タックスコンサルティング,0
2329,9010903008493,新規,0,2023-10-05,2023-10-05,合同会社Ｔ＆Ｍ,,合同会社,東京都,世田谷区,駒沢１丁目１７番１５号アルコ駒沢ビル３０１,,13,112,1540012,,,,,,,2023-10-05,1,,,,,ティーアンドエム,0
2330,9010903008502,新規,0,2023-10-05,2023-10-05,ＹＡＴＴＭＡＮ合同会社,,合同会社,東京都,世田谷区,北沢２丁目１２番６号リバーストーンビルＢ１Ｆ,,13,112,1550031,,,,,,,2023-10-05,1,,,,,ヤットマン,0
2335,9011001157324,新規,0,2023-10-05,2023-10-05,株式会社Ａｄ　Ｂｌｏｏｍ,,株式会社,東京都,渋谷区,神山町１０－４ルーエ渋谷神山町５０４,,13,113,1500047,,,,,,,2023-10-05,1,,,,,アドブルーム,0
2336,9011001157332,新規,0,2023-10-05,2023-10-05,株式会社Ｒ＆Ｋ２,,株式会社,東京都,渋谷区,神宮前２丁目２番３９－４１０号ＴＨＥＣＯＵＲＴ神宮外苑,,13,113,1500001,,,,,,,2023-10-05,1,,,,,アールアンドケーツー,0
2337,9011001157340,新規,0,2023-10-05,2023-10-05,株式会社ナチュラルケア,,株式会社,東京都,目黒区,鷹番３丁目３番１９号中村ビル２Ｆ,,13,110,1520004,,,,,,,2023-10-05,1,,,,,ナチュラルケア,0
2338,9011001157373,新規,0,2023-10-05,2023-10-05,株式会社ＲＥＰＬＩＣＡ,,株式会社,東京都,渋谷区,渋谷１丁目８番５号,,13,113,1500002,,,,,,,2023-10-05,1,,,,,レプリカ,0
2339,9011001157398,新規,0,2023-10-05,2023-10-05,株式会社Ｋ＆Ｔアソシエイツ,,株式会社,東京都,渋谷区,神宮前２丁目３４番２０号シャーレー原宿５０３,,13,113,1500001,,,,,,,2023-10-05,1,,,,,ケーアンドティーアソシエイツ,0
2340,9011001157423,新規,0,2023-10-05,2023-10-05,ＦｒｏｚｅｎＢａｎｋ株式会社,,株式会社,東京都,渋谷区,広尾１丁目１－３９恵比寿プライムスクエアタワー３Ｆ・ＳＨＮ,,13,113,1500012,,,,,,,2023-10-05,1,,,,,フローズンバンク,0
2342,9011003017658,新規,0,2023-10-05,2023-10-05,合同会社ｅｎＲｉｃｏ　ｄｅｓｉｇｎ,,合同会社,東京都,目黒区,下目黒５丁目４番４号,,13,110,1530064,,,,,,,2023-10-05,1,,,,,エンリコデザイン,0
2343,9011003017674,新規,0,2023-10-05,2023-10-05,ｏｆｆｉｃｅ　ｍｏｅｂｉｕｓ合同会社,,合同会社,東京都,渋谷区,神泉町１６番１２号光和パレス４０７,,13,113,1500045,,,,,,,2023-10-05,1,,,,,オフィスメビウス,0
2350,9011101104572,新規,0,2023-10-05,2023-10-05,Ｂ‐ＦＩＶＥ　ＳＨＡＲＥ　ＧＹＭ株式会社,,株式会社,東京都,新宿区,西新宿３丁目３番１３号西新宿水間ビル２Ｆ,,13,104,1600023,,,,,,,2023-10-05,1,,,,,ビーファイブシェアジム,0
2351,9011101104606,新規,0,2023-10-05,2023-10-05,株式会社ｔｏＣＡＲＯ,,株式会社,東京都,新宿区,納戸町３２番地３,,13,104,1620837,,,,,,,2023-10-05,1,,,,,トゥカーロ,0
2352,9011101104622,新規,0,2023-10-05,2023-10-05,株式会社Ａｗａｋ,,株式会社,東京都,新宿区,西新宿３丁目３番１３号西新宿水間ビル６階,,13,104,1600023,,,,,,,2023-10-05,1,,,,,アウェイク,0
2353,9011101104630,新規,0,2023-10-05,2023-10-05,株式会社ＭＹＵ,,株式会社,東京都,新宿区,西新宿３丁目３番１３号６階,,13,104,1600023,,,,,,,2023-10-05,1,,,,,ミュー,0
2367,9011601027158,新規,0,2023-10-05,2023-10-05,株式会社テンジンエステートＨＤ,,株式会社,東京都,練馬区,土支田４丁目９番１３号,,13,120,1790076,,,,,,,2023-10-05,1,,,,,テンジンエステートエイチディー,0
2368,9011603004080,新規,0,2023-10-05,2023-10-05,合同会社心技躰研究所,,合同会社,東京都,練馬区,南大泉４丁目８番５号,,13,120,1780064,,,,,,,2023-10-05,1,,,,,シンギタイケンキュウジョ,0
2371,9011801043129,新規,0,2023-10-05,2023-10-05,株式会社Ｇｅｒｍｅ,,株式会社,東京都,足立区,梅島３丁目６番１９‐３０３号,,13,121,1210816,,,,,,,2023-10-05,1,,,,,ジェルム,0
2375,9012301013621,新規,0,2023-10-05,2023-10-05,ＢＥＡＮ株式会社,,株式会社,東京都,町田市,玉川学園２丁目６番６号デンコウビル１０２,,13,209,1940041,,,,,,,2023-10-05,1,,,,,ビーン,0
2378,9012701017866,新規,0,2023-10-05,2023-10-05,株式会社エバーグローブ,,株式会社,東京都,小平市,小川西町５丁目１３番２号,,13,211,1870035,,,,,,,2023-10-05,1,,,,,エバーグローブ,0
2379,9012801022667,新規,0,2023-10-05,2023-10-05,株式会社くにたち数学クラブ,,株式会社,東京都,国立市,東１丁目６番地の３０,,13,215,1860002,,,,,,,2023-10-05,1,,,,,クニタチスウガククラブ,0
2381,9013301051438,新規,0,2023-10-05,2023-10-05,株式会社ケープラス,,株式会社,東京都,豊島区,上池袋１丁目２５番２号コスモス２６上池袋３０２号,,13,116,1700012,,,,,,,2023-10-05,1,,,,,ケープラス,0
2385,9020001153761,新規,0,2023-10-05,2023-10-05,ＳＩＹＯＭＩＣＯ・ＨＯＬＤＩＮＧＳ・ＪＡＰＡＮ株式会社,,株式会社,神奈川県,横浜市中区,長者町２丁目５番地１８ピアセントラルビル４０６号室,,14,104,2310033,,,,,,,2023-10-05,1,,,,,シヨミコホールディングスジャパン,0
2386,9020001153778,新規,0,2023-10-05,2023-10-05,株式会社ＯＷＥＮ,,株式会社,神奈川県,横浜市西区,戸部本町３８番７号山口ビル２Ｆ,,14,103,2200041,,,,,,,2023-10-05,1,,,,,オーウェン,0
2387,9020001153786,新規,0,2023-10-05,2023-10-05,ＮＳファシリティーズ株式会社,,株式会社,神奈川県,横浜市都筑区,牛久保西１丁目２４番地４１ヴィンテージビル２Ｆ,,14,118,2240015,,,,,,,2023-10-05,1,,,,,エヌエスファシリティーズ,0
2388,9020001153794,新規,0,2023-10-05,2023-10-05,株式会社シティ・アドバンス,,株式会社,神奈川県,横浜市中区,常盤町４丁目４７番地,,14,104,2310014,,,,,,,2023-10-05,1,,,,,シティアドバンス,0
2389,9020001153803,新規,0,2023-10-05,2023-10-05,株式会社横堀建装,,株式会社,神奈川県,横浜市鶴見区,北寺尾４丁目１５番１－７０４号,,14,101,2300074,,,,,,,2023-10-05,1,,,,,ヨコボリケンソウ,0
2390,9020003024705,新規,0,2023-10-05,2023-10-05,合同会社テイクヒーロー,,合同会社,神奈川県,川崎市宮前区,有馬３丁目２８番８－２号,,14,136,2160003,,,,,,,2023-10-05,1,,,,,テイクヒーロー,0
2391,9020005016139,新規,0,2023-10-05,2023-10-05,一般社団法人エンパワープラス協会,,その他の設立登記法人,神奈川県,横浜市西区,北幸１丁目１－８－５０３,,14,103,2200004,,,,,,,2023-10-05,1,,,,,エンパワープラスキョウカイ,0
2395,9021001080351,新規,0,2023-10-05,2023-10-05,株式会社アールデザイン,,株式会社,神奈川県,相模原市中央区,横山台２丁目３０番１０－２,,14,152,2520241,,,,,,,2023-10-05,1,,,,,アールデザイン,0
2396,9021001080392,新規,0,2023-10-05,2023-10-05,株式会社ＦＬＯＹＤ,,株式会社,神奈川県,逗子市,桜山１丁目７番３１号,,14,208,2490005,,,,,,,2023-10-05,1,,,,,フロイド,0
2397,9021001080401,新規,0,2023-10-05,2023-10-05,株式会社大伸建設,,株式会社,神奈川県,秦野市,今泉台２丁目１０－６－１０２,,14,211,2570018,,,,,,,2023-10-05,1,,,,,ダイシンケンセツ,0
2402,9021003013656,新規,0,2023-10-05,2023-10-05,合同会社西湘教育センター,,合同会社,神奈川県,南足柄市,怒田２８０１番地５,,14,217,2500106,,,,,,,2023-10-05,1,,,,,セイショウキョウイクセンター,0
2404,9021005012904,新規,0,2023-10-05,2023-10-05,一般社団法人ちがさきロサンゼルス歯科協議会,,その他の設立登記法人,神奈川県,茅ヶ崎市,新栄町１３番４８号２階,,14,207,2530044,,,,,,,2023-10-05,1,,,,,チガサキロサンゼルスシカキョウギカイ,0
2405,9030001156391,新規,0,2023-10-05,2023-10-05,株式会社ＮＳ‐ａｃｃｅｚ,,株式会社,埼玉県,川口市,大字赤井１１５６番地の４,,11,203,3340073,,,,,,,2023-10-05,1,,,,,エヌエスアクセス,0
2406,9030001156433,新規,0,2023-10-05,2023-10-05,漢路株式会社,,株式会社,埼玉県,戸田市,本町１丁目２１番１３－１１０３号,,11,224,3350023,,,,,,,2023-10-05,1,,,,,カンジ,0
2420,9040001130395,新規,0,2023-10-05,2023-10-05,株式会社ｃｏｎｆｉｎｅ,,株式会社,千葉県,千葉市美浜区,中瀬１丁目３番幕張テクノガーデンＣＢ棟３階ＭＢＰ,,12,106,2610023,,,,,,,2023-10-05,1,,,,,コンフィーネ,0
2422,9040003023044,新規,0,2023-10-05,2023-10-05,合同会社パインウェル,,合同会社,千葉県,浦安市,舞浜２丁目９番１２号,,12,227,2790031,,,,,,,2023-10-05,1,,,,,パインウェル,0
2423,9040003023416,新規,0,2023-10-05,2023-10-05,合同会社亀道楽,,合同会社,千葉県,安房郡鋸南町,元名６５１番地,,12,463,2991901,,,,,,,2023-10-05,1,,,,,カメドウラク,0
2424,9040003023440,新規,0,2023-10-05,2023-10-05,合同会社ｓｈ‐ｗｏｒｋｓ,,合同会社,千葉県,船橋市,本町３丁目１３番９号東方,,12,204,2730005,,,,,,,2023-10-05,1,,,,,シューワークス,0
2426,9040005022135,新規,0,2023-10-05,2023-10-05,一般社団法人看護法務後見支援機構,,その他の設立登記法人,千葉県,柏市,柏の葉２丁目３番地の３３,,12,217,2770882,,,,,,,2023-10-05,1,,,,,カンゴホウムコウケンシエンキコウ,0
2429,9050001053595,新規,0,2023-10-05,2023-10-05,株式会社テクノ監査,,株式会社,茨城県,つくば市,吾妻１丁目５－７ダイワロイネットホテルビル２階,,08,220,3050031,,,,,,,2023-10-05,1,,,,,テクノカンサ,0
2433,9060001036401,新規,0,2023-10-05,2023-10-05,株式会社ｋａｂａｃｏ　ｎｅｘｔ,,株式会社,栃木県,大田原市,中央１丁目３番１５号ＴＯＫＯ－ＴＯＫＯおおたわら１Ｆ,,09,210,3240056,,,,,,,2023-10-05,1,,,,,カバコネクスト,0
2434,9060003004744,新規,0,2023-10-05,2023-10-05,合同会社大地,,合同会社,栃木県,栃木市,嘉右衛門町１２番１５号,,09,203,3280072,,,,,,,2023-10-05,1,,,,,ダイチ,0
2435,9060003004752,新規,0,2023-10-05,2023-10-05,合同会社リライト,,合同会社,栃木県,宇都宮市,戸祭２丁目１１番１８号,,09,201,3200056,,,,,,,2023-10-05,1,,,,,リライト,0
2437,9080003003067,新規,0,2023-10-05,2023-10-05,トタル・ＳＢ１号合同会社,,合同会社,静岡県,静岡市葵区,七間町１４番地の１ザ・エンブル七間町２７０１号,,22,101,4200035,,,,,,,2023-10-05,1,,,,,トタルエスビーイチゴウ,0
2443,9100001036842,新規,0,2023-10-05,2023-10-05,株式会社ファイブシフト,,株式会社,長野県,飯田市,松尾代田６３８番地２,,20,205,3950812,,,,,,,2023-10-05,1,,,,,ファイブシフト,0
2444,9100001036859,新規,0,2023-10-05,2023-10-05,株式会社Ｈ‐ＬＩＮＥ,,株式会社,長野県,須坂市,大字九反田９３番地１,,20,207,3820000,,,,,,,2023-10-05,1,,,,,エイチライン,0
2447,9110001037880,新規,0,2023-10-05,2023-10-05,新潟開発設計株式会社,,株式会社,新潟県,新潟市秋葉区,新保１２６３番地１,,15,105,9560112,,,,,,,2023-10-05,1,,,,,ニイガタカイハツセッケイ,0
2448,9110001037897,新規,0,2023-10-05,2023-10-05,株式会社キララＣＳ,,株式会社,新潟県,三条市,南四日町２丁目５番４号,,15,204,9550852,,,,,,,2023-10-05,1,,,,,キララクリーンサービス,0
2451,9110005017004,新規,0,2023-10-05,2023-10-05,医療法人柏樹会,,その他の設立登記法人,新潟県,魚沼市,中原字大塚８０番１,,15,225,9460024,,,,,,,2023-10-05,1,,,,,ハクジュカイ,0
2456,9120001258550,新規,0,2023-10-05,2023-10-05,エースアート株式会社,,株式会社,大阪府,大阪市生野区,巽北１丁目２１－２９生野ハイツ２１１号室,,27,116,5440004,,,,,,,2023-10-05,1,,,,,エースアート,0
2457,9120001258583,新規,0,2023-10-05,2023-10-05,株式会社中原商店,,株式会社,大阪府,大阪市北区,梅田１丁目１２番１２号東京建物梅田ビル１２階,,27,127,5300001,,,,,,,2023-10-05,1,,,,,ナカハラショウテン,0
2458,9120001258600,新規,0,2023-10-05,2023-10-05,春日株式会社,,株式会社,大阪府,大阪市浪速区,恵美須西３丁目１１－３－Ａ棟,,27,111,5560003,,,,,,,2023-10-05,1,,,,,カスガ,0
2459,9120003025032,新規,0,2023-10-05,2023-10-05,ハチ合同会社,,合同会社,大阪府,大阪市東淀川区,豊新２丁目６番２０－４０５号,,27,114,5330014,,,,,,,2023-10-05,1,,,,,ハチ,0
2460,9120003025040,新規,0,2023-10-05,2023-10-05,Ｄｏｕｃｅ　Ｆｒａｎｃｅ合同会社,,合同会社,大阪府,大阪市淀川区,木川西３丁目５－１３－４０４号,,27,123,5320013,,,,,,,2023-10-05,1,,,,,ドゥースフランス,0
2461,9120005023918,新規,0,2023-10-05,2023-10-05,一般社団法人日本ペットビジネスサポート協会,,その他の設立登記法人,大阪府,大阪市旭区,高殿５丁目４番２４号,,27,117,5350031,,,,,,,2023-10-05,1,,,,,ニッポンペットビジネスサポートキョウカイ,0
2467,9120101068305,新規,0,2023-10-05,2023-10-05,サーキュラー・リソース・サービス株式会社,,株式会社,大阪府,松原市,三宅西１丁目３４５－７,,27,217,5800045,,,,,,,2023-10-05,1,,,,,サーキュラーリソースサービス,0
2468,9120101068313,新規,0,2023-10-05,2023-10-05,株式会社岡本タイル,,株式会社,大阪府,松原市,北新町４丁目１番１１号,,27,217,5800025,,,,,,,2023-10-05,1,,,,,オカモトタイル,0
2470,9120103005470,新規,0,2023-10-05,2023-10-05,合同会社彩音,,合同会社,大阪府,泉大津市,我孫子１７８－２,,27,206,5950031,,,,,,,2023-10-05,1,,,,,アヤネ,0
2471,9120901048118,新規,0,2023-10-05,2023-10-05,株式会社ハウスエイド,,株式会社,大阪府,吹田市,春日４丁目２番１－１１２１号,,27,205,5650853,,,,,,,2023-10-05,1,,,,,ハウスエイド,0
2472,9120903004853,新規,0,2023-10-05,2023-10-05,合同会社ｎｉｈｏ,,合同会社,大阪府,豊中市,服部元町２丁目４番２０号Ｒｅｆｌｅｔ服部元町１Ｆ,,27,203,5610851,,,,,,,2023-10-05,1,,,,,ニホ,0
2474,9122001037430,新規,0,2023-10-05,2023-10-05,株式会社Ｋ．Ｙ．Ｔコーポレーション,,株式会社,大阪府,大東市,灰塚４丁目９番４号,00132139,27,218,5740043,,,,,,,2023-10-05,1,,,,,ケーワイティーコーポレーション,0
2475,9122001037447,新規,0,2023-10-05,2023-10-05,モダンアーキテック株式会社,,株式会社,大阪府,東大阪市,御厨東１丁目５番３２号,,27,227,5770033,,,,,,,2023-10-05,1,,,,,モダンアーキテック,0
2477,9130001075350,新規,0,2023-10-05,2023-10-05,株式会社ＥａｓｔＬｉｎｋｅｒ,,株式会社,京都府,京都市左京区,田中門前町１０２番地２Ｆ,,26,103,6068225,,,,,,,2023-10-05,1,,,,,イーストリンカー,0
2482,9140003019610,新規,0,2023-10-05,2023-10-05,合同会社祥工務店,,合同会社,兵庫県,高砂市,曽根町７７５,,28,216,6760082,,,,,,,2023-10-05,1,,,,,ショウコウムテン,0
2483,9140003019627,新規,0,2023-10-05,2023-10-05,合同会社神戸白黒,,合同会社,兵庫県,神戸市北区,有野台１丁目６番地Ａ１２棟５０１号,,28,109,6511321,,,,,,,2023-10-05,1,,,,,コウベハッコク,0
2484,9150001026756,新規,0,2023-10-05,2023-10-05,関谷土木株式会社,,株式会社,奈良県,桜井市,大字大泉２６８番地,,29,206,6330076,,,,,,,2023-10-05,1,,,,,セキヤドボク,0
2485,9160001025385,新規,0,2023-10-05,2023-10-05,株式会社創彩,,株式会社,滋賀県,東近江市,佐野町３８７－５メゾンエイコー能登川ＩＩ１０１号室,00132133,25,213,5211222,,,,,,,2023-10-05,1,,,,,ソウサイ,0
2486,9160005011233,新規,0,2023-10-05,2023-10-05,医療法人田村歯科医院,,その他の設立登記法人,滋賀県,大津市,打出浜４番８号,,25,201,5200806,,,,,,,2023-10-05,1,,,,,タムラシカイイン,0
2490,9170001017803,新規,0,2023-10-05,2023-10-05,株式会社古道の梅屋,,株式会社,和歌山県,田辺市,中辺路町川合１８６７番地の３,,30,206,6461417,,,,,,,2023-10-05,1,,,,,コドウノウメヤ,0
2495,9180001158258,新規,0,2023-10-05,2023-10-05,株式会社シーエント,,株式会社,愛知県,名古屋市港区,小碓４丁目２２１番地,,23,111,4550801,,,,,,,2023-10-05,1,,,,,シーエント,0
2496,9180001158290,新規,0,2023-10-05,2023-10-05,ＰｒｏｃｅＬｉｆｅ株式会社,,株式会社,愛知県,弥富市,前ケ須町午新田５１０番地１,,23,235,4980017,,,,,,,2023-10-05,1,,,,,プロセライフ,0
2497,9180001158316,新規,0,2023-10-05,2023-10-05,株式会社ＢＭ設備,,株式会社,愛知県,名古屋市熱田区,田中町４０９番地の１ＡＸＩＳ１階,,23,109,4560047,,,,,,,2023-10-05,1,,,,,ビーエムセツビ,0
2498,9180001158324,新規,0,2023-10-05,2023-10-05,株式会社ＮＫプラン,,株式会社,愛知県,一宮市,小信中島字新田前３８番地６,,23,203,4940007,,,,,,,2023-10-05,1,,,,,エヌケープラン,0
2504,9180303005851,新規,0,2023-10-05,2023-10-05,合同会社エスエスライン,,合同会社,愛知県,豊川市,下長山町北側９６番地の１,,23,207,4420824,,,,,,,2023-10-05,1,,,,,エスエスライン,0
2505,9200001041790,新規,0,2023-10-05,2023-10-05,株式会社想像プロダクション,,株式会社,岐阜県,各務原市,那加信長町１丁目１４番地,,21,213,5040909,,,,,,,2023-10-05,1,,,,,ソウゾウプロダクション,0
2508,9210001019489,新規,0,2023-10-05,2023-10-05,株式会社シンボ漆器店,,株式会社,福井県,鯖江市,莇生田町第１２号４番地,,18,207,9161224,,,,,,,2023-10-05,1,,,,,シンボシッキテン,0
2518,9250001020311,新規,0,2023-10-05,2023-10-05,株式会社吉本建築,,株式会社,山口県,岩国市,尾津町５丁目４番３４号,,35,208,7400032,,,,,,,2023-10-05,1,,,,,ヨシモトケンチク,0
2521,9290001103228,新規,0,2023-10-05,2023-10-05,株式会社Ｅ,,株式会社,福岡県,福岡市博多区,中洲１丁目３番１５号オンリーワンビル２Ｆ,,40,132,8100801,,,,,,,2023-10-05,1,,,,,イー,0
2525,9290003014423,新規,0,2023-10-05,2023-10-05,合同会社Ｍｉｔｏｒａ,,合同会社,福岡県,福岡市中央区,高砂１丁目１番２５号ニューガイアオフィス１２０５,,40,133,8100011,,,,,,,2023-10-05,1,,,,,ミトラ,0
2526,9290003014431,新規,0,2023-10-05,2023-10-05,合同会社Ｚ,,合同会社,福岡県,福岡市中央区,赤坂１丁目１４番２２号,,40,133,8100042,,,,,,,2023-10-05,1,,,,,ゼット,0
2529,9290801029928,新規,0,2023-10-05,2023-10-05,株式会社ＪＮＣ,,株式会社,福岡県,北九州市小倉北区,米町１丁目５番１５号,,40,106,8020003,,,,,,,2023-10-05,1,,,,,ジェーエヌシー,0
2534,9290805009678,新規,0,2023-10-05,2023-10-05,特定非営利活動法人光太郎,,その他の設立登記法人,福岡県,北九州市八幡西区,大平２丁目５番２０号１号室,,40,109,8070083,,,,,,,2023-10-05,1,,,,,コウタロウ,0
2535,9310001018646,新規,0,2023-10-05,2023-10-05,株式会社梅田水産,,株式会社,長崎県,佐世保市,鹿町町長串３９５番地１０,,42,202,8596206,,,,,,,2023-10-05,1,,,,,ウメダスイサン,0
2537,9310005008718,新規,0,2023-10-05,2023-10-05,医療法人ＫＥＣ,,その他の設立登記法人,長崎県,西彼杵郡長与町,高田郷１３番地１,,42,307,8512127,,,,,,,2023-10-05,1,,,,,ケーイーシー,0
2539,9330001031333,新規,0,2023-10-05,2023-10-05,株式会社山田工業,,株式会社,熊本県,合志市,御代志１９４９番地１１,,43,216,8611104,,,,,,,2023-10-05,1,,,,,ヤマダコウギョウ,0
2541,9360001032626,新規,0,2023-10-05,2023-10-05,ＲＢＳビジネスデザインラボ株式会社,,株式会社,沖縄県,石垣市,字新川２４９４番地,,47,207,9070024,,,,,,,2023-10-05,1,,,,,アールビーエスビジネスデザインラボ,0
2542,9360001032634,新規,0,2023-10-05,2023-10-05,株式会社イイネレンタカー,,株式会社,沖縄県,宮古島市,平良字東仲宗根添１７５３番地１３７,,47,214,9060011,,,,,,,2023-10-05,1,,,,,イイネレンタカー,0
2543,9360001032650,新規,0,2023-10-05,2023-10-05,株式会社Ｈａｐｐｙ　Ｌｉｆｅ,,株式会社,沖縄県,宮古島市,城辺字比嘉６２７番地４,,47,214,9060104,,,,,,,2023-10-05,1,,,,,ハッピーライフ,0
2545,9360003013351,新規,0,2023-10-05,2023-10-05,合同会社永和クリエイト,,合同会社,沖縄県,宜野湾市,志真志１丁目９番９号,,47,205,9012213,,,,,,,2023-10-05,1,,,,,トワクリエイト,0
2548,9370001050478,新規,0,2023-10-05,2023-10-05,株式会社リトルストーム,,株式会社,宮城県,仙台市太白区,西の平２丁目３０番１号,,04,104,9820825,,,,,,,2023-10-05,1,,,,,リトルストーム,0
2551,9380001034026,新規,0,2023-10-05,2023-10-05,株式会社今井会計事務所,,株式会社,福島県,福島市,八木田字榎内１９番地の３,,07,201,9608164,,,,,,,2023-10-05,1,,,,,イマイカイケイジムショ,0
2555,9380005012754,新規,0,2023-10-05,2023-10-05,医療法人奥州Ｐｒｅｍｉｕｍ,,その他の設立登記法人,福島県,福島市,本町１番３号ＭＯＴＯＭＡＣＨＩ　ＴＷＩＮ　ＳＵＳＵＭＵ１階,,07,201,9608035,,,,,,,2023-10-05,1,,,,,オウシュウプレミアム,0
2573,9450001014103,新規,0,2023-10-05,2023-10-05,株式会社アーキ,,株式会社,北海道,旭川市,旭町一条１１丁目２２０４番地２２,,01,204,0700831,,,,,,,2023-10-05,1,,,,,アーキ,0
2574,9450001014111,新規,0,2023-10-05,2023-10-05,株式会社ＨＩＫＡＲＩ　ｃｏｒｐｏｒａｔｉｏｎ,,株式会社,北海道,旭川市,豊岡五条４丁目２番１４号ハーモニー豊岡１階,,01,204,0788235,,,,,,,2023-10-05,1,,,,,ヒカリコーポレーション,0
2580,9490001010602,新規,0,2023-10-05,2023-10-05,株式会社マツウラ,,株式会社,高知県,須崎市,妙見町１５番２号,,39,206,7850042,,,,,,,2023-10-05,1,,,,,マツウラ,0
2582,9490003001822,新規,0,2023-10-05,2023-10-05,合同会社ソライロ,,合同会社,高知県,高知市,朝倉丙４４３番地６,,39,201,7808063,,,,,,,2023-10-05,1,,,,,ソライロ,0
