sequenceNumber,corporateNumber,process,correct,updateDate,changeDate,name,nameImageId,kind,prefectureName,cityName,streetNumber,addressImageId,prefectureCode,cityCode,postCode,addressOutside,addressOutsideImageId,closeDate,closeCause,successorCorporateNumber,changeCause,assignmentDate,latest,enName,enPrefectureName,enCityName,enAddressOutside,furigana,hihyoji
2,1010001036487,登記記録の閉鎖等,0,2022-10-07,2022-10-03,葵レバンテ株式会社,,株式会社,東京都,品川区,東五反田１丁目１０番７号,,13,109,1410022,,,2022-10-03,清算の結了等,,,2015-10-05,1,,,,,アオイレバンテ,0
3,1010001049134,登記記録の閉鎖等,0,2022-10-07,2022-10-03,大日本明治製糖株式会社,,株式会社,東京都,千代田区,内幸町２丁目１番１号,,13,101,1000011,,,2022-10-03,合併による解散等,8010001213162,令和４年１０月１日東京都中央区日本橋箱崎町３６番２号ＤＭ三井製糖株式会社（8010001213162）に合併し解散,2015-10-05,1,,,,,ダイニッポンメイジセイトウ,0
6,1010001108162,登記記録の閉鎖等,0,2022-10-07,2022-10-03,株式会社サカエロジスティクス,,株式会社,東京都,文京区,音羽２丁目１１番１４号,,13,105,1120013,,,2022-10-03,合併による解散等,6010001093227,令和４年１０月１日東京都文京区音羽二丁目１１番１４号株式会社アイシーティ（6010001093227）に合併し解散,2015-10-05,1,,,,,サカエロジスティクス,0
7,1010001141915,登記記録の閉鎖等,0,2022-10-07,2022-10-03,井草建物株式会社,,株式会社,栃木県,那須郡那須町,大字湯本２０６番地３６５,,09,407,3250301,,,2022-10-03,合併による解散等,3010001088717,令和４年１０月１日栃木県那須郡那須町湯本２０６番地３６５青星通商株式会社（3010001088717）に合併し解散,2015-10-05,1,,,,,イグサタテモノ,0
19,1010003026180,登記記録の閉鎖等,0,2022-10-07,2022-10-03,合同会社ペールアクア,,合同会社,東京都,中央区,銀座６丁目１３番１６号銀座ＷａｌｌビルＵＣＦ５階,,13,102,1040061,,,2022-10-03,合併による解散等,1010003022683,令和４年１０月１日東京都中央区日本橋二丁目２番３号ＲＩＳＨＥビルＵＣＦ４階株式会社ＭＥ－Ｃａｐｉｔａｌ（1010003022683）に合併し解散,2017-10-06,1,,,,,,0
24,1010102002462,登記記録の閉鎖等,0,2022-10-07,2022-10-04,有限会社小いけ,00050317,有限会社,東京都,八王子市,日吉町１７番３号,,13,201,1930836,,,2022-10-04,清算の結了等,,,2015-10-05,1,,,,,コイケ,0
38,1010601002021,登記記録の閉鎖等,0,2022-10-07,2022-09-30,株式会社佐藤博英商店,,株式会社,東京都,江東区,亀戸６丁目１３番１号,,13,108,1360071,,,2022-09-30,清算の結了等,,,2015-10-05,1,,,,,サトウヒロヒデショウテン,0
61,1011005006195,登記記録の閉鎖等,0,2022-10-07,2022-09-27,Ｉｗａｋｉ　Ｓｏｌａｒ一般社団法人,,その他の設立登記法人,東京都,渋谷区,広尾１丁目１１番２号ＡＩＯＳ広尾ビル５０５号室,,13,113,1500012,,,2022-09-27,清算の結了等,,,2015-10-05,1,,,,,イワキソーラー,0
64,1011101038803,登記記録の閉鎖等,0,2022-10-07,2022-10-03,アニコムフロンティア株式会社,,株式会社,東京都,新宿区,西新宿８丁目１７番１号住友不動産新宿グランドタワー３９階,,13,104,1600023,,,2022-10-03,合併による解散等,2011101038471,令和４年１０月１日東京都新宿区西新宿八丁目１７番１号住友不動産新宿グランドタワー３９階アニコムパフェ株式会社（2011101038471）に合併し解散,2015-10-05,1,,,,,アニコムフロンティア,0
73,1011201015256,登記記録の閉鎖等,0,2022-10-07,2022-09-26,株式会社アクセルワーク,,株式会社,東京都,中野区,中央３丁目５番５号,,13,114,1640011,,,2022-09-26,清算の結了等,,,2015-10-05,1,,,,,アクセルワーク,0
96,1013201003240,登記記録の閉鎖等,0,2022-10-07,2022-09-26,創工機材株式会社,,株式会社,東京都,目黒区,平町１丁目２６番６号,,13,110,1520032,,,2022-09-26,清算の結了等,,,2015-10-05,1,,,,,ソウコウキザイ,0
97,1020001018641,登記記録の閉鎖等,0,2022-10-07,2022-09-30,川嶋食品株式会社,,株式会社,神奈川県,川崎市川崎区,東扇島２４番地,,14,131,2100869,,,2022-09-30,清算の結了等,,,2015-10-05,1,,,,,カワシマショクヒン,0
117,1021002017112,登記記録の閉鎖等,0,2022-10-07,2022-10-03,株式会社ベルトラン,,株式会社,東京都,新宿区,西新宿７丁目１７番１４号新宿シティ源共同ビル,,13,104,1600023,,,2022-10-03,合併による解散等,9011101037566,令和４年１０月１日東京都新宿区西新宿七丁目１７番１４号新宿シティ源共同ビル株式会社スゴロク（9011101037566）に合併し解散,2015-10-05,1,,,,,ベルトラン,0
139,1030002099275,登記記録の閉鎖等,0,2022-10-07,2022-09-27,有限会社野村表具店,,有限会社,埼玉県,川口市,大字辻８４０番地の４,00017567,11,203,3340004,,,2022-09-27,清算の結了等,,,2015-10-05,1,,,,,ノムラヒョウグテン,0
148,1040002000472,登記記録の閉鎖等,0,2022-10-07,2022-09-30,有限会社旭不動産,,有限会社,千葉県,千葉市中央区,富士見１丁目１０番８号,,12,101,2600015,,,2022-09-30,清算の結了等,,,2015-10-05,1,,,,,アサヒフドウサン,0
170,1080402000944,登記記録の閉鎖等,0,2022-10-07,2022-10-03,有限会社稲穂製作,,有限会社,静岡県,浜松市南区,若林町２１０５番地の１,,22,134,4328051,,,2022-10-03,清算の結了等,,,2015-10-05,1,,,,,イナホセイサク,0
176,1100001019284,登記記録の閉鎖等,0,2022-10-07,2022-10-04,株式会社若林電工,,株式会社,長野県,茅野市,ちの３０７５番地,,20,214,3910001,,,2022-10-04,清算の結了等,,,2015-10-05,1,,,,,ワカバヤシデンコウ,0
179,1100001030225,登記記録の閉鎖等,0,2022-10-07,2022-10-03,株式会社Ｍパートナーズ,,株式会社,長野県,長野市,大字石渡３６番地１０,,20,201,3810015,,,2022-10-03,合併による解散等,8100002008734,令和４年１０月１日長野県須坂市大字小河原３９５４番地７株式会社ＭＩＳＵＹＡ（8100002008734）に合併し解散,2017-04-27,1,,,,,エムパートナーズ,0
218,1140001047810,登記記録の閉鎖等,0,2022-10-07,2022-10-05,内海電機株式会社,,株式会社,兵庫県,尼崎市,東初島町２番２８号,,28,202,6600832,,,2022-10-05,合併による解散等,2120001021304,令和４年１０月１日大阪市平野区加美北六丁目１５番１４号ハシダ技研工業株式会社（2120001021304）に合併し解散,2015-10-05,1,,,,,ウツミデンキ,0
233,1140005025151,登記記録の閉鎖等,0,2022-10-07,2022-08-26,一般社団法人ワカモノート,,その他の設立登記法人,兵庫県,尼崎市,南武庫之荘２丁目２番７号新井ビル３Ｆ,,28,202,6610033,,,2022-08-26,清算の結了等,,,2020-05-12,1,,,,,ワカモノート,0
265,1180302013441,登記記録の閉鎖等,0,2022-10-07,2022-09-26,創美建設有限会社,,有限会社,愛知県,豊川市,豊が丘町１８９番地,,23,207,4420808,,,2022-09-26,清算の結了等,,,2015-10-05,1,,,,,ソウビケンセツ,0
278,1210002007459,登記記録の閉鎖等,0,2022-10-07,2022-10-03,有限会社坂井公益社,,有限会社,福井県,坂井市,坂井町長畑１３号６番地の１,,18,210,9190511,,,2022-10-03,合併による解散等,1210001003649,令和４年１０月１日福井市角折町第６号１番地福井環境事業株式会社（1210001003649）に合併し解散,2015-10-05,1,,,,,サカイコウエキシャ,0
290,1250002008486,登記記録の閉鎖等,0,2022-10-07,2022-10-05,有限会社御茶處はりまや,,有限会社,山口県,下関市,長門町１０番１号,,35,201,7500026,,,2022-10-05,清算の結了等,,,2015-10-05,1,,,,,オチャドコロハリマヤ,0
306,1310001014140,登記記録の閉鎖等,0,2022-10-07,2022-10-06,しのさん本舗株式会社,,株式会社,長崎県,西彼杵郡時津町,野田郷６６２番地,,42,308,8512104,,,2022-10-06,清算の結了等,,,2016-03-29,1,,,,,シノサンホンポ,0
340,1430001081978,登記記録の閉鎖等,0,2022-10-07,2022-10-05,株式会社ＣＡＬＣＥＳ,,株式会社,北海道,札幌市豊平区,水車町３丁目４番３２号,,01,105,0620912,,,2022-10-05,清算の結了等,,,2020-07-29,1,,,,,カルチャス,0
386,2010402028990,登記記録の閉鎖等,0,2022-10-07,2022-09-15,ビーアイトパーズリース有限会社,,有限会社,東京都,港区,東新橋１丁目９番２号,,13,103,1050021,,,2022-09-15,清算の結了等,,,2015-10-05,1,,,,,ビーアイトパーズリース,0
398,2010605004013,登記記録の閉鎖等,0,2022-10-07,2022-10-03,特定非営利活動法人Ｃｕｅ,,その他の設立登記法人,東京都,江東区,豊洲３丁目６番５－１２１９号,,13,108,1350061,,,2022-10-03,清算の結了等,,,2021-11-01,1,,,,,キュー,0
400,2010701033023,登記記録の閉鎖等,0,2022-10-07,2022-09-09,株式会社まるっとチェンジ,,株式会社,東京都,豊島区,東池袋４丁目２１番１号,,13,116,1700013,,,2022-09-09,合併による解散等,2010001147267,令和４年９月１日東京都豊島区東池袋四丁目２１番１号アウルタワー３階株式会社ラストワンマイル（2010001147267）に合併し解散,2016-09-21,1,,,,,マルットチェンジ,0
406,2010901017247,登記記録の閉鎖等,0,2022-10-07,2022-10-03,ＭＥＫＩＳジャパン株式会社,,株式会社,東京都,世田谷区,若林１丁目１８番１０号,,13,112,1540023,,,2022-10-03,清算の結了等,,,2015-10-05,1,,,,,メキスジャパン,0
407,2010903003856,登記記録の閉鎖等,0,2022-10-07,2022-10-03,合同会社エステートプレザン,,合同会社,東京都,世田谷区,太子堂５丁目２２番５号,,13,112,1540004,,,2022-10-03,合併による解散等,7010903003182,令和４年１０月１日東京都世田谷区太子堂五丁目２２番５号合同会社ハセガワコンサルティング（7010903003182）に合併し解散,2017-09-12,1,,,,,エステートプレザン,0
421,2011101084409,登記記録の閉鎖等,0,2022-10-07,2022-10-03,株式会社ＳＰＯＷＥＲＴＳ,,株式会社,東京都,新宿区,神楽坂６丁目４２番神楽坂喜多川ビル３Ｆ,,13,104,1620825,,,2022-10-03,合併による解散等,3011001069046,令和４年１０月１日東京都新宿区神楽坂６－４２神楽坂喜多川ビル３Ｆ株式会社ｏｎｅ（3011001069046）に合併し解散,2018-06-08,1,,,,,スポワーズ,0
437,2011701004724,登記記録の閉鎖等,0,2022-10-07,2022-10-03,大東電機産業株式会社,,株式会社,東京都,江戸川区,南篠崎町４丁目２６番１１号,,13,123,1330065,,,2022-10-03,清算の結了等,,,2015-10-05,1,,,,,ダイトウデンキサンギョウ,0
438,2011701004848,登記記録の閉鎖等,0,2022-10-07,2022-10-04,株式会社高純工務店,00056422,株式会社,東京都,江戸川区,西小松川町４番４号,,13,123,1320032,,,2022-10-04,清算の結了等,,,2015-10-05,1,,,,,タカジュンコウムテン,0
440,2011801005580,登記記録の閉鎖等,0,2022-10-07,2022-10-04,アコー設備工業株式会社,,株式会社,東京都,足立区,梅島１丁目２７番１１号,,13,121,1210816,,,2022-10-04,清算の結了等,,,2015-10-05,1,,,,,アコーセツビコウギョウ,0
480,2030001010002,登記記録の閉鎖等,0,2022-10-07,2022-09-28,株式会社きりん工房,,株式会社,埼玉県,さいたま市南区,大字太田窪２２２３－１,,11,108,3360015,,,2022-09-28,清算の結了等,,,2015-10-05,1,,,,,キリンコウボウ,0
486,2030001112434,登記記録の閉鎖等,0,2022-10-07,2022-09-27,朝日大島グループ総合保険サービス株式会社,,株式会社,埼玉県,久喜市,久喜中央１丁目６番３号,,11,232,3460003,,,2022-09-27,清算の結了等,,,2016-01-20,1,,,,,アサヒオオシマグループソウゴウホケンサービス,0
493,2030002078047,登記記録の閉鎖等,0,2022-10-07,2022-09-27,有限会社東邦レーザー加工,,有限会社,埼玉県,川越市,大字下赤坂６７５番地３,,11,201,3501155,,,2022-09-27,清算の結了等,,,2015-10-05,1,,,,,トウホウレーザーカコウ,0
496,2040001040634,登記記録の閉鎖等,0,2022-10-07,2022-09-28,株式会社道楽,,株式会社,千葉県,流山市,松ケ丘２丁目３３０番地の１５８,,12,220,2700141,,,2022-09-28,清算の結了等,,,2015-10-05,1,,,,,ドウラク,0
503,2040002080803,登記記録の閉鎖等,0,2022-10-07,2022-09-30,有限会社ウィル,,有限会社,千葉県,茂原市,茂原３８２番地,,12,210,2970026,,,2022-09-30,清算の結了等,,,2015-10-05,1,,,,,ウィル,0
520,2080102012611,登記記録の閉鎖等,0,2022-10-07,2022-10-05,有限会社キングジョージ,,有限会社,静岡県,田方郡函南町,桑原８８０番地の７２,,22,325,4190101,,,2022-10-05,清算の結了等,,,2015-10-05,1,,,,,キングジョージ,0
521,2080102013304,登記記録の閉鎖等,0,2022-10-07,2022-10-05,有限会社泉工業,,有限会社,静岡県,富士市,大渕３１０５番地の５７,,22,210,4170000,,,2022-10-05,清算の結了等,,,2015-10-05,1,,,,,イズミコウギョウ,0
525,2080402010562,登記記録の閉鎖等,0,2022-10-07,2022-10-03,有限会社ゼル,,有限会社,愛知県,名古屋市東区,泉１丁目１７番２８号,,23,102,4610001,,,2022-10-03,清算の結了等,,,2015-10-05,1,,,,,ゼル,0
532,2100001034927,登記記録の閉鎖等,0,2022-10-07,2022-10-03,プレイリーホールディングス株式会社,,株式会社,長野県,松本市,大字笹賀７１１６番地１,,20,202,3990033,,,2022-10-03,合併による解散等,2100001013988,令和４年１０月１日長野県松本市大字笹賀７１１６番地１プレイリーホームズ株式会社（2100001013988）に合併し解散,2021-12-28,1,,,,,プレイリーホールディングス,0
535,2100002037383,登記記録の閉鎖等,0,2022-10-07,2022-10-04,丸三総合開発有限会社,,有限会社,長野県,飯田市,上郷飯沼１４５２番地１,,20,205,3950002,,,2022-10-04,清算の結了等,,,2015-10-05,1,,,,,マルサンソウゴウカイハツ,0
549,2120001126417,登記記録の閉鎖等,0,2022-10-07,2022-09-30,アイワ鋼管株式会社,,株式会社,大阪府,大阪市西区,立売堀５丁目６番１５号,,27,106,5500012,,,2022-09-30,清算の結了等,,,2015-10-05,1,,,,,アイワコウカン,0
550,2120001136325,登記記録の閉鎖等,0,2022-10-07,2022-10-05,ＰＦＩ大津地方合同庁舎株式会社,,株式会社,大阪府,大阪市北区,中之島３丁目６番３２号,,27,127,5300005,,,2022-10-05,清算の結了等,,,2015-10-05,1,,,,,ピーエフアイオオツチホウゴウドウチョウシャ,0
565,2120002045863,登記記録の閉鎖等,0,2022-10-07,2022-10-03,有限会社アドネット,,有限会社,大阪府,大阪市淀川区,塚本４丁目４番９号,,27,123,5320026,,,2022-10-03,清算の結了等,,,2015-10-05,1,,,,,アドネット,0
597,2180001085979,登記記録の閉鎖等,0,2022-10-07,2022-10-03,株式会社アイイーソリューションサービス,,株式会社,愛知県,稲沢市,幸町１２０番地の１,,23,220,4928221,,,2022-10-03,合併による解散等,8180001086047,令和４年１０月１日愛知県稲沢市幸町１２０番地の１株式会社日立アイイーシステム（8180001086047）に合併し解散,2015-10-05,1,,,,,アイイーソリューションサービス,0
645,2310005006397,登記記録の閉鎖等,0,2022-10-07,2022-10-05,医療法人陽迎堂,,その他の設立登記法人,長崎県,松浦市,今福町北免２０９１番地１,,42,208,8594521,,,2022-10-05,清算の結了等,,,2015-10-05,1,,,,,ヨウゲイドウ,0
647,2310005008294,登記記録の閉鎖等,0,2022-10-07,2022-10-06,一般社団法人シラスの会,,その他の設立登記法人,長崎県,西彼杵郡時津町,日並郷３６５０番地,,42,308,8512108,,,2022-10-06,清算の結了等,,,2019-04-09,1,,,,,シラスノカイ,0
667,2380002018653,登記記録の閉鎖等,0,2022-10-07,2022-09-30,有限会社和田製作所,,有限会社,福島県,白河市,栄町２番地の１,,07,205,9610803,,,2022-09-30,清算の結了等,,,2015-10-05,1,,,,,ワダセイサクジョ,0
668,2390001007152,登記記録の閉鎖等,0,2022-10-07,2022-09-30,タカダクリーン株式会社,,株式会社,山形県,東田川郡庄内町,余目字上朝丸３５番地１,,06,428,9997781,,,2022-09-30,清算の結了等,,,2015-10-05,1,,,,,タカダクリーン,0
670,2410002011423,登記記録の閉鎖等,0,2022-10-07,2022-09-30,有限会社後三年新聞販売所,,有限会社,秋田県,仙北郡美郷町,金沢西根字上四ツ谷１４６番地の５,,05,434,0191235,,,2022-09-30,清算の結了等,,,2015-10-05,1,,,,,,0
730,3010801003346,登記記録の閉鎖等,0,2022-10-07,2022-10-05,遠宏株式会社,,株式会社,東京都,豊島区,池袋２丁目６０番６－８０６号,,13,116,1710014,,,2022-10-05,清算の結了等,,,2015-10-05,1,,,,,エンコウ,0
735,3011101058072,登記記録の閉鎖等,0,2022-10-07,2022-09-09,株式会社ＩＴサポート,,株式会社,東京都,豊島区,東池袋４丁目２１番１号アウルタワー３階,,13,116,1700013,,,2022-09-09,合併による解散等,2010001147267,令和４年９月１日東京都豊島区東池袋四丁目２１番１号アウルタワー３階株式会社ラストワンマイル（2010001147267）に合併し解散,2015-10-05,1,,,,,アイティーサポート,0
738,3011101094737,登記記録の閉鎖等,0,2022-10-07,2022-10-03,株式会社ＣＲＡＺＹ　ＣＡＰＩＴＡＬ,,株式会社,東京都,新宿区,神楽坂６丁目４２番神楽坂喜多川ビル３Ｆ,,13,104,1620825,,,2022-10-03,合併による解散等,3011001069046,令和４年１０月１日東京都新宿区神楽坂６－４２神楽坂喜多川ビル３Ｆ株式会社ｏｎｅ（3011001069046）に合併し解散,2021-04-13,1,,,,,クレイジーキャピタル,0
764,3012801020726,登記記録の閉鎖等,0,2022-10-07,2022-09-27,Ｓｉｎｃｅｒｅ　Ｒｅｇｅｎ株式会社,,株式会社,東京都,渋谷区,恵比寿１丁目１９番１９号恵比寿ビジネスタワー１０階,,13,113,1500013,,,2022-09-27,清算の結了等,,,2021-03-22,1,,,,,シンシアリージェン,0
781,3020002005810,登記記録の閉鎖等,0,2022-10-07,2022-09-29,有限会社川向建設,,有限会社,神奈川県,横浜市都筑区,川向町５６番地２,,14,118,2240044,,,2022-09-29,清算の結了等,,,2015-10-05,1,,,,,カワムカイケンセツ,0
786,3020005002334,登記記録の閉鎖等,0,2022-10-07,2022-09-30,横浜南ガス協同組合,,その他の設立登記法人,神奈川県,横浜市戸塚区,上矢部町１９７４番地,,14,110,2450053,,,2022-09-30,清算の結了等,,,2015-10-05,1,,,,,ヨコハマミナミガス,0
798,3030001081918,登記記録の閉鎖等,0,2022-10-07,2022-09-27,株式会社関根建装,,株式会社,埼玉県,川口市,大字木曽呂８２９番地の６,,11,203,3330831,,,2022-09-27,清算の結了等,,,2015-10-05,1,,,,,セキネケンソウ,0
810,3030002088425,登記記録の閉鎖等,0,2022-10-07,2022-09-28,有限会社サンワサービス,,有限会社,埼玉県,越谷市,越ヶ谷３丁目５番９号,,11,222,3430813,,,2022-09-28,清算の結了等,,,2015-10-05,1,,,,,サンワサービス,0
811,3030003017829,登記記録の閉鎖等,0,2022-10-07,2022-09-28,Ｏｒｉｇｉｎ＆Ｆｕｔｕｒｅ合同会社,,合同会社,埼玉県,川越市,小仙波町２丁目２７番地４号,,11,201,3500036,,,2022-09-28,清算の結了等,,,2021-09-08,1,,,,,オリジンアンドフューチャー,0
820,3040001110997,登記記録の閉鎖等,0,2022-10-07,2022-09-30,イベントリー株式会社,,株式会社,千葉県,市川市,福栄２丁目４番１号,,12,203,2720137,,,2022-09-30,清算の結了等,,,2019-10-03,1,,,,,イベントリー,0
842,3070005007667,登記記録の閉鎖等,0,2022-10-07,2022-09-30,大津牧野農業協同組合,,その他の設立登記法人,群馬県,吾妻郡長野原町,大字大津２４５番地,,10,424,3771308,,,2022-09-30,清算の結了等,,,2015-10-05,1,,,,,オオツボクヤ,0
853,3100001030132,登記記録の閉鎖等,0,2022-10-07,2022-09-30,アスコット株式会社,,株式会社,長野県,長野市,市場３番地４３,,20,201,3812202,,,2022-09-30,清算の結了等,,,2017-04-14,1,,,,,アスコット,0
857,3110001014828,登記記録の閉鎖等,0,2022-10-07,2022-10-03,株式会社和光化学,,株式会社,新潟県,三条市,北新保１丁目１９番５号,,15,204,9550861,,,2022-10-03,合併による解散等,7110001014436,令和４年１０月１日新潟県三条市北新保一丁目１９番５号株式会社東邦社（7110001014436）に合併し解散,2015-10-05,1,,,,,ワコウカガク,0
859,3120001048313,登記記録の閉鎖等,0,2022-10-07,2022-10-04,淀川機工株式会社,,株式会社,大阪府,大阪市西区,江之子島１丁目７番３号,,27,106,5500006,,,2022-10-04,清算の結了等,,,2015-10-05,1,,,,,ヨドガワキコウ,0
879,3120003010361,登記記録の閉鎖等,0,2022-10-07,2022-10-05,ひびき土地建物株式会社,,株式会社,兵庫県,西宮市,甲子園五番町７番１－３０１号,,28,204,6638175,,,2022-10-05,合併による解散等,4120001213956,令和４年９月３０日大阪市北区東天満二丁目８番１号ひびき不動産取引株式会社（4120001213956）に合併し解散,2015-10-05,1,,,,,ヒビキトチタテモノ,0
881,3120003015278,登記記録の閉鎖等,0,2022-10-07,2022-09-30,合同会社富士総合事務所,,合同会社,大阪府,大阪市浪速区,敷津東３丁目６番８号ライフステージヨシダ７１２,,27,111,5560012,,,2022-09-30,清算の結了等,,,2019-02-07,1,,,,,フジソウゴウジムショ,0
903,3140002000840,登記記録の閉鎖等,0,2022-10-07,2022-10-03,有限会社味楽,,有限会社,兵庫県,芦屋市,西山町１０番１号,,28,206,6590083,,,2022-10-03,清算の結了等,,,2015-10-05,1,,,,,ミラク,0
931,3190002001479,登記記録の閉鎖等,0,2022-10-07,2022-10-04,有限会社マルスギ,,有限会社,三重県,津市,大門１７番１２号,,24,201,5140027,,,2022-10-04,清算の結了等,,,2015-10-05,1,,,,,マルスギ,0
974,3290005004733,登記記録の閉鎖等,0,2022-10-07,2022-10-05,ＮＰＯ法人笑老ライフ研究所,,その他の設立登記法人,福岡県,福岡市南区,曰佐４丁目３９番２８号,,40,134,8111313,,,2022-10-05,清算の結了等,,,2015-10-05,1,,,,,ショウロウライフケンキュウジョ,0
975,3290005006977,登記記録の閉鎖等,0,2022-10-07,2022-10-06,特定非営利活動法人自然農アグリコミュニティ,,その他の設立登記法人,福岡県,大野城市,筒井１丁目４番２２号,,40,219,8160931,,,2022-10-06,清算の結了等,,,2015-10-05,1,,,,,シゼンノウアグリコミュニティ,0
986,3300002007522,登記記録の閉鎖等,0,2022-10-07,2022-09-30,有限会社ＢＭ－ＴＥＣ,,有限会社,佐賀県,武雄市,朝日町大字中野６３８３番地８,,41,206,8430002,,,2022-09-30,清算の結了等,,,2015-10-05,1,,,,,ビーエムテック,0
987,3310002000096,登記記録の閉鎖等,0,2022-10-07,2022-10-04,有限会社赤木建設,,有限会社,長崎県,長崎市,宮崎町２０２５番地５,,42,201,8510408,,,2022-10-04,清算の結了等,,,2015-10-05,1,,,,,アカギケンセツ,0
1008,3370102002276,登記記録の閉鎖等,0,2022-10-07,2022-09-30,有限会社遠藤工務店,,有限会社,宮城県,白石市,斎川字駒板脇５１番地,,04,206,9890215,,,2022-09-30,清算の結了等,,,2015-10-05,1,,,,,エンドウコムテン,0
1016,3430005004495,登記記録の閉鎖等,0,2022-10-07,2022-09-27,医療法人社団豊平おおたこどもクリニック,,その他の設立登記法人,北海道,札幌市豊平区,豊平四条３丁目３番１０号豊平メディカルプラザ１階,,01,105,0620904,,,2022-09-27,清算の結了等,,,2015-10-05,1,,,,,トヨヒラオオタコドモクリニック,0
1018,3440002008127,登記記録の閉鎖等,0,2022-10-07,2022-09-30,有限会社宏紀水産,,有限会社,北海道,函館市,中道１丁目１０番１号,,01,202,0410853,,,2022-09-30,清算の結了等,,,2015-10-05,1,,,,,コウキスイサン,0
1029,4010001182304,登記記録の閉鎖等,0,2022-10-07,2022-10-03,ＢＬＤファシリティーズ株式会社,,株式会社,東京都,中央区,銀座２丁目４番９号,,13,102,1040061,,,2022-10-03,合併による解散等,9010001124350,令和４年１０月１日東京都中央区銀座二丁目４番９号ＢＬＤ　ＷＥＤＤＩＮＧＳ株式会社（9010001124350）に合併し解散,2017-03-22,1,,,,,ビーエルディーファシリティーズ,0
1043,4010402028989,登記記録の閉鎖等,0,2022-10-07,2022-09-15,ビーアイルビーリース有限会社,,有限会社,東京都,港区,東新橋１丁目９番２号,,13,103,1050021,,,2022-09-15,清算の結了等,,,2015-10-05,1,,,,,ビーアイルビーリース,0
1051,4010601017933,登記記録の閉鎖等,0,2022-10-07,2022-10-05,ベアーズエンジニアリング株式会社,,株式会社,東京都,江東区,東陽５丁目３０番１３号,,13,108,1350016,,,2022-10-05,清算の結了等,,,2015-10-05,1,,,,,ベアーズエンジニアリング,0
1074,4011001117720,登記記録の閉鎖等,0,2022-10-07,2022-09-26,ＢＯＲＮ　Ｊａｐａｎ株式会社,,株式会社,東京都,渋谷区,宇田川町３６番６号ワールド宇田川ビル６階,,13,113,1500042,,,2022-09-26,清算の結了等,,,2017-08-09,1,,,,,ボーンジャパン,0
1112,4012402011231,登記記録の閉鎖等,0,2022-10-07,2022-10-04,有限会社三和工芸,,有限会社,東京都,調布市,国領町８丁目１番地３５都営調布くすのきアパート９－１００８号,,13,208,1820022,,,2022-10-04,清算の結了等,,,2015-10-05,1,,,,,サンワコウゲイ,0
1138,4020002022029,登記記録の閉鎖等,0,2022-10-07,2022-09-30,有限会社ナガセ,,有限会社,神奈川県,横浜市旭区,上白根町１２０８番地３０,,14,112,2410001,,,2022-09-30,清算の結了等,,,2015-10-05,1,,,,,ナガセ,0
1149,4021002014635,登記記録の閉鎖等,0,2022-10-07,2022-10-04,有限会社小町薬局,,有限会社,神奈川県,鎌倉市,大町６丁目５番４号,,14,204,2480007,,,2022-10-04,清算の結了等,,,2015-10-05,1,,,,,コマチヤッキョク,0
1168,4030002037042,登記記録の閉鎖等,0,2022-10-07,2022-09-28,有限会社リョウ設計事務所,,有限会社,埼玉県,入間市,高倉２丁目３番６号,,11,225,3580021,,,2022-09-28,清算の結了等,,,2015-10-05,1,,,,,リョウセッケイジムショ,0
1176,4040001072353,登記記録の閉鎖等,0,2022-10-07,2022-09-30,株式会社サムウェル,,株式会社,千葉県,野田市,木間ケ瀬５０３９番地２,,12,208,2700222,,,2022-09-30,清算の結了等,,,2015-10-05,1,,,,,サムウェル,0
1197,4050005003015,登記記録の閉鎖等,0,2022-10-07,2022-10-03,学校法人美浦学園,,その他の設立登記法人,茨城県,稲敷郡美浦村,大字大須賀津字沢田１２４５番地,,08,442,3000422,,,2022-10-03,清算の結了等,,,2015-10-05,1,,,,,ミホガクエン,0
1201,4060001026902,登記記録の閉鎖等,0,2022-10-07,2022-09-30,株式会社彩エンタープライズ,,株式会社,栃木県,宇都宮市,日の出２丁目５番８号,,09,201,3200832,,,2022-09-30,合併による解散等,6060001029960,令和４年９月３０日栃木県宇都宮市南大通り二丁目６番１号ＫＩＤＳ１ＳＴＢＬＤ株式会社キッズコーポレーションホールディングス（6060001029960）に合併し解散,2015-10-05,1,,,,,イロドリエンタープライズ,0
1243,4122002000417,登記記録の閉鎖等,0,2022-10-07,2022-10-05,有限会社旭荘,,有限会社,大阪府,枚方市,楠葉並木２丁目１６番６号,,27,210,5731118,,,2022-10-05,清算の結了等,,,2015-10-05,1,,,,,アサヒソウ,0
1244,4130001028536,登記記録の閉鎖等,0,2022-10-07,2022-09-29,株式会社ＥＳＲ,,株式会社,京都府,京都市伏見区,過書町７９１番地３階,,26,109,6128202,,,2022-09-29,清算の結了等,,,2015-10-05,1,,,,,,0
1250,4140001009741,登記記録の閉鎖等,0,2022-10-07,2022-10-03,株式会社トラベルルーム,,株式会社,兵庫県,神戸市北区,緑町７丁目３番４８号,,28,109,6511221,,,2022-10-03,清算の結了等,,,2015-10-05,1,,,,,トラベルルーム,0
1261,4140002039003,登記記録の閉鎖等,0,2022-10-07,2022-09-30,有限会社日栄物産,,有限会社,兵庫県,加古川市,平岡町新在家９２９番地２１,,28,210,6750101,,,2022-09-30,清算の結了等,,,2015-10-05,1,,,,,ニチエイブッサン,0
1279,4190001009456,登記記録の閉鎖等,0,2022-10-07,2022-10-03,日本浄化槽水道工事株式会社,,株式会社,三重県,名張市,蔵持町原出５２８番地の１２,,24,208,5180752,,,2022-10-03,清算の結了等,,,2015-10-05,1,,,,,ニホンジョウカソウスイドウコウジ,0
1283,4200002009775,登記記録の閉鎖等,0,2022-10-07,2022-10-06,有限会社松野住設,,有限会社,岐阜県,瑞穂市,穂積２２７０番地の２,,21,216,5010223,,,2022-10-06,清算の結了等,,,2015-10-05,1,,,,,マツノジュウセツ,0
1289,4220002000328,登記記録の閉鎖等,0,2022-10-07,2022-10-06,有限会社エムツージャパン,,有限会社,石川県,野々市市,太平寺４丁目７番地,,17,212,9218845,,,2022-10-06,清算の結了等,,,2015-10-05,1,,,,,エムツージャパン,0
1306,4300001011210,登記記録の閉鎖等,0,2022-10-07,2022-10-03,株式会社楽匠,,株式会社,佐賀県,唐津市,竹木場５６１３番地１,,41,202,8470881,,,2022-10-03,清算の結了等,,,2018-03-22,1,,,,,ラクショウ,0
1309,4310001013949,登記記録の閉鎖等,0,2022-10-07,2022-10-06,株式会社ヘルスミナ,,株式会社,長崎県,西彼杵郡時津町,野田郷６６２番地,,42,308,8512104,,,2022-10-06,清算の結了等,,,2015-11-20,1,,,,,ヘルスミナ,0
1312,4310003003626,登記記録の閉鎖等,0,2022-10-07,2022-10-05,合同会社漁師食堂五島灘,,合同会社,長崎県,五島市,福江町１１９０番地９,,42,211,8530007,,,2022-10-05,清算の結了等,,,2019-03-05,1,,,,,リョウシショクドウゴトウナダ,0
1313,4320002018079,登記記録の閉鎖等,0,2022-10-07,2022-10-05,有限会社優栄商会,,有限会社,大分県,竹田市,大字三宅１３２６番地,,44,208,8780007,,,2022-10-05,清算の結了等,,,2015-10-05,1,,,,,ユウエイショウカイ,0
1317,4330002007072,登記記録の閉鎖等,0,2022-10-07,2022-10-03,有限会社天神部屋,,有限会社,熊本県,熊本市中央区,中央街１番３０号ハツピービル１階,,43,101,8600802,,,2022-10-03,清算の結了等,,,2015-10-05,1,,,,,テンジンベヤ,0
1320,4340001002065,登記記録の閉鎖等,0,2022-10-07,2022-10-06,株式会社田中商事,,株式会社,鹿児島県,鹿屋市,古前城町９番２５号,,46,203,8930001,,,2022-10-06,清算の結了等,,,2015-10-05,1,,,,,タナカショウジ,0
1323,4340002024372,登記記録の閉鎖等,0,2022-10-07,2022-10-03,有限会社外薗工業,,有限会社,鹿児島県,南九州市,川辺町永田４３８８番地１,,46,223,8970222,,,2022-10-03,清算の結了等,,,2015-10-05,1,,,,,ホカゾノコウギョウ,0
1334,4420001002172,登記記録の閉鎖等,0,2022-10-07,2022-10-04,株式会社平和商事,,株式会社,青森県,青森市,橋本３丁目１３番５－１０４号,,02,201,0300823,,,2022-10-04,清算の結了等,,,2015-10-05,1,,,,,ヘイワショウジ,0
1340,4430003011971,登記記録の閉鎖等,0,2022-10-07,2022-10-05,合同会社札幌新月堂,,合同会社,北海道,札幌市中央区,南十二条西２０丁目２番１２－３０１号,,01,101,0640912,,,2022-10-05,清算の結了等,,,2020-09-28,1,,,,,,0
1357,5010001166966,登記記録の閉鎖等,0,2022-10-07,2022-09-29,株式会社ｗｏｒｋｕｐ,,株式会社,東京都,中央区,銀座７丁目１３番６号,,13,102,1040061,,,2022-09-29,清算の結了等,,,2015-10-05,1,,,,,ワークアップ,0
1362,5010001195172,登記記録の閉鎖等,0,2022-10-07,2022-10-03,株式会社ｂｅｔｔｅｒ,,株式会社,東京都,中央区,日本橋人形町１丁目５番５号芳町ビル３０１号,,13,102,1030013,,,2022-10-03,合併による解散等,2011001073585,令和４年９月３０日東京都新宿区新宿四丁目１番６号ＪＲ新宿ミライナタワー２８階辻・本郷ＩＴコンサルティング株式会社（2011001073585）に合併し解散,2018-10-01,1,,,,,ベター,0
1368,5010003033025,登記記録の閉鎖等,0,2022-10-07,2022-10-03,ジャパンイノベーションキャピタル合同会社,,合同会社,東京都,中央区,勝どき５丁目３番１号勝どきザタワー７１０,,13,102,1040054,,,2022-10-03,合併による解散等,6010003029121,令和４年１０月１日東京都中央区勝どき五丁目３番１号勝どきザタワー７１０合同会社ＭＳＢＣ（6010003029121）に合併し解散,2020-09-15,1,,,,,ジャパンイノベーションキャピタル,0
1375,5010401095740,登記記録の閉鎖等,0,2022-10-07,2022-09-16,株式会社ＫＩＭＵ　ＫＩＭＵ,,株式会社,東京都,港区,浜松町２丁目２番１５号浜松町ダイヤビル２Ｆ,,13,103,1050013,,,2022-09-16,清算の結了等,,,2015-10-05,1,,,,,キムキム,0
1376,5010401158349,登記記録の閉鎖等,0,2022-10-07,2022-09-16,モクテキ株式会社,,株式会社,東京都,港区,南青山２丁目２番１５号ウィン青山１２１４号,,13,103,1070062,,,2022-09-16,清算の結了等,,,2021-02-26,1,,,,,モクテキ,0
1377,5010401163539,登記記録の閉鎖等,0,2022-10-07,2022-09-16,株式会社Ｍａｒｂｌｅ,,株式会社,東京都,港区,麻布十番２丁目２１番１４－４０２号,,13,103,1060045,,,2022-09-16,清算の結了等,,,2021-10-29,1,,,,,マーブル,0
1406,5011001027118,登記記録の閉鎖等,0,2022-10-07,2022-09-26,ユニクラフト株式会社,,株式会社,東京都,渋谷区,上原１丁目４７番２号,,13,113,1510064,,,2022-09-26,清算の結了等,,,2015-10-05,1,,,,,ユニクラフト,0
1418,5011101084190,登記記録の閉鎖等,0,2022-10-07,2022-10-03,株式会社ｅｉｇｈｔ,,株式会社,東京都,新宿区,神楽坂６丁目４２番神楽坂喜多川ビル３Ｆ,,13,104,1620825,,,2022-10-03,合併による解散等,3011001069046,令和４年１０月１日東京都新宿区神楽坂６－４２神楽坂喜多川ビル３Ｆ株式会社ｏｎｅ（3011001069046）に合併し解散,2018-05-18,1,,,,,エイト,0
1440,5012401007502,登記記録の閉鎖等,0,2022-10-07,2022-10-03,株式会社加納興業,,株式会社,東京都,葛飾区,東新小岩７丁目２４番１２号,,13,122,1240023,,,2022-10-03,合併による解散等,1011801000871,令和４年１０月１日東京都葛飾区東新小岩七丁目２４番１２号尾花興業株式会社（1011801000871）に合併し解散,2015-10-05,1,,,,,カノウコウギョウ,0
1449,5013301008730,登記記録の閉鎖等,0,2022-10-07,2022-09-28,東和物産株式会社,,株式会社,東京都,品川区,上大崎２丁目１７番４号,,13,109,1410021,,,2022-09-28,清算の結了等,,,2015-10-05,1,,,,,トウワブッサン,0
1452,5020001064624,登記記録の閉鎖等,0,2022-10-07,2022-09-30,株式会社ビッグレクリエーション,,株式会社,神奈川県,川崎市多摩区,登戸２７３５番地,,14,135,2140014,,,2022-09-30,清算の結了等,,,2015-10-05,1,,,,,ビッグレクリエーション,0
1462,5020002048741,登記記録の閉鎖等,0,2022-10-07,2022-09-29,有限会社エムテック,,有限会社,神奈川県,横浜市神奈川区,白幡東町３１番１－１２１号,,14,102,2210072,,,2022-09-29,清算の結了等,,,2015-10-05,1,,,,,エムテック,0
1485,5030001126274,登記記録の閉鎖等,0,2022-10-07,2022-09-28,株式会社配送社,,株式会社,埼玉県,志木市,下宗岡２丁目１６番２号,,11,228,3530003,,,2022-09-28,清算の結了等,,,2018-06-26,1,,,,,ハイソウシャ,0
1486,5030001130763,登記記録の閉鎖等,0,2022-10-07,2022-09-26,邦リフォーム株式会社,,株式会社,埼玉県,所沢市,大字北秋津３５５番地７,,11,208,3590038,,,2022-09-26,清算の結了等,,,2019-05-13,1,,,,,クニリフォーム,0
1502,5040001081213,登記記録の閉鎖等,0,2022-10-07,2022-09-30,渡部グローバルコンサル株式会社,,株式会社,千葉県,浦安市,弁天４丁目２０番１３号,,12,227,2790026,,,2022-09-30,清算の結了等,,,2015-10-05,1,,,,,ワタベグローバルコンサル,0
1519,5080001019754,登記記録の閉鎖等,0,2022-10-07,2022-10-05,株式会社けんだいパートナーズ,,株式会社,静岡県,静岡市駿河区,谷田５２番１号静岡県立大学学生ホール７３２１,,22,102,4228002,,,2022-10-05,清算の結了等,,,2015-10-05,1,,,,,ケンダイパートナーズ,0
1527,5090001000944,登記記録の閉鎖等,0,2022-10-07,2022-10-05,株式会社佐野住研,,株式会社,山梨県,甲府市,徳行４丁目１番２０号,,19,201,4000047,,,2022-10-05,清算の結了等,,,2015-10-05,1,,,,,サノジュウケン,0
1537,5110002029658,登記記録の閉鎖等,0,2022-10-07,2022-10-03,有限会社リンクテック,,有限会社,新潟県,長岡市,神田町３丁目２番地２,,15,202,9400052,,,2022-10-03,清算の結了等,,,2015-10-05,1,,,,,リンクテック,0
1550,5120001199014,登記記録の閉鎖等,0,2022-10-07,2022-10-03,株式会社Ｃｏｎｎｅｃｔ　Ｓｔａｇｅ,,株式会社,大阪府,大阪市北区,中津１丁目６番２９－３２０５号,,27,127,5310071,,,2022-10-03,合併による解散等,4120001111994,令和４年１０月１日大阪市北区芝田一丁目１４番８号株式会社アライヴ・ウエル（4120001111994）に合併し解散,2016-06-22,1,,,,,コネクトステージ,0
1559,5120002015194,登記記録の閉鎖等,0,2022-10-07,2022-10-05,有限会社荒川歯切工場,,有限会社,大阪府,大阪市港区,市岡３丁目１６番２１号,,27,107,5520012,,,2022-10-05,清算の結了等,,,2015-10-05,1,,,,,アラカワハギリコウジョウ,0
1578,5130002001904,登記記録の閉鎖等,0,2022-10-07,2022-10-03,有限会社京都新聞山ノ内販売所,,有限会社,京都府,京都市右京区,山ノ内苗町６番地,,26,108,6150074,,,2022-10-03,清算の結了等,,,2015-10-05,1,,,,,キョウトシンブンヤマノウチハンバイショ,0
1581,5140001006829,登記記録の閉鎖等,0,2022-10-07,2022-10-03,関西アクション株式会社,,株式会社,兵庫県,神戸市中央区,熊内町８丁目５－１４カネシカビル１Ｆ,,28,110,6510056,,,2022-10-03,清算の結了等,,,2015-10-05,1,,,,,カンサイアクション,0
1593,5150002009004,登記記録の閉鎖等,0,2022-10-07,2022-10-04,有限会社昭和社,,有限会社,奈良県,香芝市,今泉１２１１番地の１,,29,210,6390264,,,2022-10-04,清算の結了等,,,2015-10-05,1,,,,,,0
1639,5280001007375,登記記録の閉鎖等,0,2022-10-07,2022-10-05,株式会社アヴァンス,,株式会社,島根県,浜田市,周布町ロ４７０番地８,,32,202,6971321,,,2022-10-05,清算の結了等,,,2017-01-10,1,,,,,アヴァンス,0
1645,5290805006373,登記記録の閉鎖等,0,2022-10-07,2022-10-04,医療法人泉歯科医院,,その他の設立登記法人,福岡県,行橋市,門樋町１１番３８号,00094971,40,213,8240006,,,2022-10-04,清算の結了等,,,2015-10-05,1,,,,,イズミシカイイン,0
1653,5330001000952,登記記録の閉鎖等,0,2022-10-07,2022-10-04,株式会社暁栄,,株式会社,熊本県,熊本市中央区,黒髪１丁目１１番３号,,43,101,8600862,,,2022-10-04,清算の結了等,,,2015-10-05,1,,,,,ギョウエイ,0
1671,5370002007167,登記記録の閉鎖等,0,2022-10-07,2022-09-28,有限会社岸和,,有限会社,宮城県,仙台市宮城野区,原町５丁目３番９号,,04,102,9830841,,,2022-09-28,清算の結了等,,,2015-10-05,1,,,,,キシワ,0
1688,5430002054104,登記記録の閉鎖等,0,2022-10-07,2022-09-27,有限会社かねいこやなぎ,,有限会社,北海道,小樽市,入船１丁目８番１号,,01,203,0470021,,,2022-09-27,清算の結了等,,,2015-10-05,1,,,,,カネイコヤナギ,0
1713,6010401021638,登記記録の閉鎖等,0,2022-10-07,2022-09-16,株式会社ニツセイシーエムエム,,株式会社,東京都,港区,高輪３丁目２５番２７号,,13,103,1080074,,,2022-09-16,清算の結了等,,,2015-10-05,1,,,,,ニッセイシーエムエム,0
1716,6010401079791,登記記録の閉鎖等,0,2022-10-07,2022-10-03,Ｒｅｅｄ　ＩＳＧ　Ｊａｐａｎ株式会社,,株式会社,東京都,新宿区,西新宿１丁目２６番２号新宿野村ビル１４階,,13,104,1600023,,,2022-10-03,合併による解散等,7011101022545,令和４年１０月１日東京都新宿区西新宿一丁目２６番２号新宿野村ビルＲＸ　Ｊａｐａｎ株式会社（7011101022545）に合併し解散,2015-10-05,1,,,,,リードアイエスジージャパン,0
1739,6010701034884,登記記録の閉鎖等,0,2022-10-07,2022-09-15,株式会社ニシキ,,株式会社,東京都,港区,芝５丁目２７番３号ＭＢＣ,,13,103,1080014,,,2022-09-15,清算の結了等,,,2017-10-31,1,,,,,ニシキ,0
1753,6011002008677,登記記録の閉鎖等,0,2022-10-07,2022-10-03,有限会社桐陽,,有限会社,神奈川県,横須賀市,芦名１丁目１７番１１号ライオンズリゾート芦名Ｂ棟７０６号室,,14,201,2400104,,,2022-10-03,清算の結了等,,,2015-10-05,1,,,,,トウヨウ,0
1766,6011203001662,登記記録の閉鎖等,0,2022-10-07,2022-09-27,合同会社ブロック,,合同会社,東京都,中野区,新井３丁目１２番７号,,13,114,1650026,,,2022-09-27,清算の結了等,,,2015-10-05,1,,,,,ブロック,0
1787,6013302016541,登記記録の閉鎖等,0,2022-10-07,2022-10-03,有限会社リカーバンク,,有限会社,東京都,豊島区,池袋２丁目６番６号,,13,116,1710014,,,2022-10-03,合併による解散等,6013301003111,令和４年１０月１日東京都豊島区池袋二丁目７５番８号株式会社折原（6013301003111）に合併し解散,2015-10-05,1,,,,,リカーバンク,0
1788,6013405000715,登記記録の閉鎖等,0,2022-10-07,2022-09-30,特定非営利活動法人一穂会,,その他の設立登記法人,東京都,日野市,大坂上３丁目２１番地の２０,,13,212,1910061,,,2022-09-30,清算の結了等,,,2015-10-05,1,,,,,イチホカイ,0
1791,6020001062560,登記記録の閉鎖等,0,2022-10-07,2022-09-29,シィーケーケーセンター株式会社,,株式会社,神奈川県,横浜市神奈川区,栄町１０番地３５ザ・ヨコハマタワーズＷ３３０９号,,14,102,2210052,,,2022-09-29,清算の結了等,,,2015-10-05,1,,,,,シィーケーケーセンター,0
1805,6020002022836,登記記録の閉鎖等,0,2022-10-07,2022-09-29,有限会社横浜セキュリティ,,有限会社,神奈川県,横浜市金沢区,富岡西１丁目５７番７号,,14,108,2360052,,,2022-09-29,清算の結了等,,,2015-10-05,1,,,,,ヨコハマセキュリティ,0
1807,6021001002168,登記記録の閉鎖等,0,2022-10-07,2022-10-03,株式会社三鈴工業,,株式会社,神奈川県,茅ヶ崎市,萩園字下河原２６５８番地１３,,14,207,2530071,,,2022-10-03,合併による解散等,4021001007012,令和４年１０月１日神奈川県茅ヶ崎市萩園字下河原２６５８番地１３株式会社鈴木製作所（4021001007012）に合併し解散,2015-10-05,1,,,,,ミスズコウギョウ,0
1808,6021001020946,登記記録の閉鎖等,0,2022-10-07,2022-10-03,いせはらクミアイ産業株式会社,,株式会社,神奈川県,伊勢原市,田中２５０番地,,14,214,2591142,,,2022-10-03,合併による解散等,2021001037201,令和４年１０月１日神奈川県平塚市西真土一丁目６番８６号平塚くみあい商事株式会社（2021001037201）に合併し解散,2015-10-05,1,,,,,イセハラクミアイサンギョウ,0
1821,6040001020987,登記記録の閉鎖等,0,2022-10-07,2022-09-29,株式会社都市鑑定ハウジング,,株式会社,千葉県,船橋市,大穴南５丁目１７番２１号,,12,204,2740067,,,2022-09-29,清算の結了等,,,2015-10-05,1,,,,,トシカンテイハウジング,0
1836,6070001031024,登記記録の閉鎖等,0,2022-10-07,2022-09-30,日本ビルシステム群馬株式会社,,株式会社,群馬県,高崎市,大八木町９１９番４,,10,202,3700072,,,2022-09-30,清算の結了等,,,2015-10-05,1,,,,,ニホンビルシステムグンマ,0
1838,6080001014564,登記記録の閉鎖等,0,2022-10-07,2022-10-05,株式会社テクノ・アイ,,株式会社,静岡県,牧之原市,細江６５２番地２,,22,226,4210421,,,2022-10-05,清算の結了等,,,2015-10-05,1,,,,,テクノアイ,0
1848,6110002008495,登記記録の閉鎖等,0,2022-10-07,2022-10-03,株式会社スペース,,株式会社,新潟県,新潟市中央区,山二ツ５２１番地１,,15,103,9500922,,,2022-10-03,合併による解散等,8110002012025,令和４年１０月１日新潟市中央区山二ツ５７６－１１株式会社ニュースペース（8110002012025）に合併し解散,2015-10-05,1,,,,,スペース,0
1859,6120001199013,登記記録の閉鎖等,0,2022-10-07,2022-10-03,株式会社Ｎｅｘｔ　Ｓｔａｇｅ,,株式会社,大阪府,大阪市北区,芝田１丁目１４番８号,,27,127,5300012,,,2022-10-03,合併による解散等,4120001111994,令和４年１０月１日大阪市北区芝田一丁目１４番８号株式会社アライヴ・ウエル（4120001111994）に合併し解散,2016-06-22,1,,,,,ネクストステージ,0
1877,6120101034350,登記記録の閉鎖等,0,2022-10-07,2022-10-05,株式会社光進,,株式会社,大阪府,河内長野市,緑ケ丘中町１０番１８号,,27,216,5860082,,,2022-10-05,清算の結了等,,,2015-10-05,1,,,,,,0
1878,6120101060347,登記記録の閉鎖等,0,2022-10-07,2022-10-03,株式会社ＯＫＡ,,株式会社,大阪府,貝塚市,三ツ松４８９番地３,,27,208,5970105,,,2022-10-03,清算の結了等,,,2019-08-08,1,,,,,オカ,0
1894,6140001006828,登記記録の閉鎖等,0,2022-10-07,2022-10-03,関西アクションマネジメント株式会社,,株式会社,兵庫県,神戸市中央区,熊内町８丁目５－１４カネシカビル１Ｆ,,28,110,6510056,,,2022-10-03,清算の結了等,,,2015-10-05,1,,,,,カンサイアクションマネジメント,0
1900,6140002057523,登記記録の閉鎖等,0,2022-10-07,2022-10-03,有限会社阪神企画,,有限会社,兵庫県,西宮市,神垣町６番５０号,,28,204,6620865,,,2022-10-03,清算の結了等,,,2015-10-05,1,,,,,ハンシンキカク,0
1936,6240001042607,登記記録の閉鎖等,0,2022-10-07,2022-10-03,大川橋商店株式会社,,株式会社,広島県,広島市西区,横川町１丁目６番１７号,,34,104,7330011,,,2022-10-03,合併による解散等,5240001009986,令和４年１０月１日広島市西区横川町一丁目６番１７号広川エナス株式会社（5240001009986）に合併し解散,2015-10-05,1,,,,,オオカワバシショウテン,0
1945,6260001005256,登記記録の閉鎖等,0,2022-10-07,2022-10-05,株式会社日和,,株式会社,岡山県,岡山市南区,松浜町１５番３７号,,33,104,7028038,,,2022-10-05,清算の結了等,,,2015-10-05,1,,,,,ヒヨリ,0
1958,6290005017534,登記記録の閉鎖等,0,2022-10-07,2022-10-05,一般社団法人日中教育研学協会,,その他の設立登記法人,福岡県,福岡市西区,愛宕浜２丁目３番９－９０３号,,40,135,8190013,,,2022-10-05,清算の結了等,,,2019-11-29,1,,,,,ニッチュウキョウイクケンガクキョウカイ,0
1965,6320002018960,登記記録の閉鎖等,0,2022-10-07,2022-10-05,有限会社二豊商事,,有限会社,大分県,日田市,田島２丁目８番１７号丸今荘１５号,,44,204,8770025,,,2022-10-05,清算の結了等,,,2015-10-05,1,,,,,ニホウショウジ,0
2005,6470002012296,登記記録の閉鎖等,0,2022-10-07,2022-10-04,有限会社前田洋ラン,,有限会社,香川県,丸亀市,川西町北１６４４番地１,,37,202,7630091,,,2022-10-04,清算の結了等,,,2015-10-05,1,,,,,マエダヨウラン,0
2032,7010401116429,登記記録の閉鎖等,0,2022-10-07,2022-10-03,株式会社モダンエイジング,,株式会社,東京都,千代田区,霞が関３丁目２番５号,,13,101,1000013,,,2022-10-03,合併による解散等,8010401056616,令和４年９月３０日東京都千代田区霞が関三丁目２番５号株式会社ユカリア（8010401056616）に合併し解散,2015-10-05,1,,,,,モダンエイジング,0
2043,7010403016338,登記記録の閉鎖等,0,2022-10-07,2022-09-20,日本底地保有３号合同会社,,合同会社,東京都,港区,虎ノ門１丁目１４番１号,,13,103,1050001,,,2022-09-20,清算の結了等,,,2017-03-28,1,,,,,,0
2049,7010601046558,登記記録の閉鎖等,0,2022-10-07,2022-10-03,大和リビングユーティリティーズ株式会社,,株式会社,東京都,新宿区,西新宿６丁目１１番３号,,13,104,1600023,,,2022-10-03,合併による解散等,5010601042427,令和４年１０月１日東京都新宿区西新宿六丁目１１番３号大和リビング株式会社（5010601042427）に合併し解散,2015-10-05,1,,,,,ダイワリビングユーティリティーズ,0
2051,7010701034090,登記記録の閉鎖等,0,2022-10-07,2022-09-30,株式会社ｋａｅｒｕ,,株式会社,東京都,品川区,南品川４丁目４番１７号品川サウスタワー,,13,109,1400004,,,2022-09-30,清算の結了等,,,2017-05-02,1,,,,,カエル,0
2061,7011001027149,登記記録の閉鎖等,0,2022-10-07,2022-09-26,株式会社タチカワシルキーハウス,,株式会社,東京都,渋谷区,代々木２丁目１６番４号,,13,113,1510053,,,2022-09-26,清算の結了等,,,2015-10-05,1,,,,,タチカワシルキーハウス,0
2087,7011501002428,登記記録の閉鎖等,0,2022-10-07,2022-09-30,全國漬物株式会社,,株式会社,東京都,北区,東田端１丁目１０番３号,,13,117,1140013,,,2022-09-30,清算の結了等,,,2015-10-05,1,,,,,ゼンコクツケモノ,0
2112,7020001128666,登記記録の閉鎖等,0,2022-10-07,2022-09-29,株式会社Ｆｅａｓｔｅｒｉａ,,株式会社,神奈川県,横浜市港北区,日吉３丁目７番７号グリーンフラット日吉２０６号,,14,109,2230061,,,2022-09-29,清算の結了等,,,2018-11-07,1,,,,,フィーステリア,0
2134,7021003006307,登記記録の閉鎖等,0,2022-10-07,2022-10-03,合同会社ひまわり,,合同会社,神奈川県,厚木市,温水３１８番地４,,14,212,2430033,,,2022-10-03,清算の結了等,,,2016-11-17,1,,,,,ヒマワリ,0
2145,7030002035019,登記記録の閉鎖等,0,2022-10-07,2022-09-27,有限会社カモシタ製作所,,有限会社,埼玉県,入間市,宮寺３２８４番地１６,,11,225,3580014,,,2022-09-27,清算の結了等,,,2015-10-05,1,,,,,カモシタセイサクショ,0
2153,7040001113427,登記記録の閉鎖等,0,2022-10-07,2022-09-30,Ｊ－ＧＡＴＥ株式会社,,株式会社,千葉県,船橋市,湊町２丁目１２番２４号湊町日本橋ビル６Ｆ,,12,204,2730011,,,2022-09-30,清算の結了等,,,2020-04-22,1,,,,,ジェイゲイト,0
2158,7040002030274,登記記録の閉鎖等,0,2022-10-07,2022-09-30,有限会社三晴,,有限会社,千葉県,八千代市,高津３９０番地１３９,,12,221,2760036,,,2022-09-30,清算の結了等,,,2015-10-05,1,,,,,サンセイ,0
2160,7040002070709,登記記録の閉鎖等,0,2022-10-07,2022-09-29,町田電機有限会社,,有限会社,千葉県,君津市,外箕輪３丁目４番２２号,,12,225,2991173,,,2022-09-29,清算の結了等,,,2015-10-05,1,,,,,マチダデンキ,0
2171,7070001020265,登記記録の閉鎖等,0,2022-10-07,2022-10-03,薮塚木材工業株式会社,,株式会社,群馬県,伊勢崎市,上植木本町７４５番地,,10,204,3720013,,,2022-10-03,清算の結了等,,,2015-10-05,1,,,,,ヤブヅカモクザイコウギョウ,0
2178,7080102008662,登記記録の閉鎖等,0,2022-10-07,2022-10-03,有限会社松屋商店,,有限会社,静岡県,伊豆市,小下田１７０４番地,,22,222,4103304,,,2022-10-03,清算の結了等,,,2015-10-05,1,,,,,マツヤショウテン,0
2181,7090002014743,登記記録の閉鎖等,0,2022-10-07,2022-10-04,有限会社井上板金工業所,,有限会社,山梨県,南巨摩郡富士川町,大椚２１４番地の６,,19,368,4000506,,,2022-10-04,清算の結了等,,,2015-10-05,1,,,,,イノウエバンキンコウギョウショ,0
2182,7100001005898,登記記録の閉鎖等,0,2022-10-07,2022-10-03,株式会社ミスヤトラスト,,株式会社,長野県,須坂市,大字小河原３９５４番地７,,20,207,3820000,,,2022-10-03,合併による解散等,8100001005749,令和４年１０月１日長野県須坂市大字小河原３９５４番地７株式会社美須弥工業（8100001005749）に合併し解散,2015-10-05,1,,,,,ミスヤトラスト,0
2190,7120001015004,登記記録の閉鎖等,0,2022-10-07,2022-10-05,株式会社三登,,株式会社,大阪府,大阪市東淀川区,大桐４丁目４番２２号,,27,114,5330011,,,2022-10-05,清算の結了等,,,2015-10-05,1,,,,,サント,0
2218,7122001023589,登記記録の閉鎖等,0,2022-10-07,2022-10-03,株式会社ＫＳライフプランニング,,株式会社,大阪府,東大阪市,足代３丁目１番７号リップル布施南ビル７０２,,27,227,5770841,,,2022-10-03,清算の結了等,,,2015-10-05,1,,,,,,0
2231,7140001002941,登記記録の閉鎖等,0,2022-10-07,2022-10-05,株式会社アイエルティー,,株式会社,大阪府,大阪市北区,鶴野町３番９－２９０５号,,27,127,5300014,,,2022-10-05,清算の結了等,,,2015-10-05,1,,,,,アイエルティー,0
2256,7180301003801,登記記録の閉鎖等,0,2022-10-07,2022-09-27,株式会社泰斗樹脂,,株式会社,愛知県,岡崎市,赤渋町字野中３２番地,,23,202,4440241,,,2022-09-27,清算の結了等,,,2015-10-05,1,,,,,タイトジュシ,0
2292,7250001011576,登記記録の閉鎖等,0,2022-10-07,2022-10-04,株式会社はざま,,株式会社,山口県,岩国市,麻里布町３丁目１２番７号,,35,208,7400018,,,2022-10-04,清算の結了等,,,2015-10-05,1,,,,,,0
2300,7290001010005,登記記録の閉鎖等,0,2022-10-07,2022-10-03,株式会社福岡調剤センター,,株式会社,福岡県,福岡市博多区,博多駅前３丁目９番１号,,40,132,8120011,,,2022-10-03,合併による解散等,3290001006642,令和４年１０月１日福岡市博多区博多駅前三丁目９番１号株式会社大賀薬局（3290001006642）に合併し解散,2015-10-05,1,,,,,フクオカチョウザイセンター,0
2304,7290001069256,登記記録の閉鎖等,0,2022-10-07,2022-10-03,株式会社バイタルゲート,,株式会社,福岡県,福岡市中央区,平尾３丁目２５番１号,,40,133,8100014,,,2022-10-03,清算の結了等,,,2015-10-05,1,,,,,バイタルゲート,0
2318,7330002027324,登記記録の閉鎖等,0,2022-10-07,2022-10-04,有限会社リスクマネージメント八代,,有限会社,熊本県,八代市,松崎町４８８番地の２,,43,202,8660884,,,2022-10-04,清算の結了等,,,2015-10-05,1,,,,,リスクマネージメントヤツシロ,0
2326,7370001007546,登記記録の閉鎖等,0,2022-10-07,2022-09-28,チーム・エクステリア株式会社,,株式会社,宮城県,仙台市青葉区,中山４丁目２番３０号,,04,101,9810952,,,2022-09-28,清算の結了等,,,2015-10-05,1,,,,,チームエクステリア,0
2332,7370501000265,登記記録の閉鎖等,0,2022-10-07,2022-09-28,昇光断熱株式会社,,株式会社,宮城県,気仙沼市,最知荒沢１７０番４,,04,205,9880214,,,2022-09-28,清算の結了等,,,2015-10-05,1,,,,,ショウコウダンネツ,0
2344,7420001014529,登記記録の閉鎖等,0,2022-10-07,2022-10-03,株式会社中屋敷技研,,株式会社,青森県,三沢市,深谷２丁目９４番地３０３号,,02,207,0330152,,,2022-10-03,合併による解散等,3420001011471,令和４年１０月１日青森県三沢市深谷二丁目９４番地３０３号株式会社中屋敷建設（3420001011471）に合併し解散,2015-10-05,1,,,,,,0
2368,8010001100286,登記記録の閉鎖等,0,2022-10-07,2022-09-30,株式会社Ｌ．Ａ．ライフマネジメント,,株式会社,東京都,千代田区,内神田１丁目６番１０号笠原ビルディング３階,,13,101,1010047,,,2022-09-30,合併による解散等,5010001075639,令和４年９月２９日東京都千代田区内神田一丁目６番１０号笠原ビルディング３階リーガル・アソシエイツ株式会社（5010001075639）に合併し解散,2015-10-05,1,,,,,エルエーライフマネジメント,0
2435,8011103007122,登記記録の閉鎖等,0,2022-10-07,2022-10-03,合同会社エステートボヌール,,合同会社,東京都,世田谷区,太子堂５丁目２２番５号,,13,112,1540004,,,2022-10-03,合併による解散等,7010903003182,令和４年１０月１日東京都世田谷区太子堂五丁目２２番５号合同会社ハセガワコンサルティング（7010903003182）に合併し解散,2017-06-15,1,,,,,エステートボヌール,0
2453,8012702004220,登記記録の閉鎖等,0,2022-10-07,2022-10-05,有限会社五味川表具店,,有限会社,東京都,西東京市,保谷町６丁目１５番１３号,,13,229,2020015,,,2022-10-05,清算の結了等,,,2015-10-05,1,,,,,ゴミカワヒョウグテン,0
2507,8050001018277,登記記録の閉鎖等,0,2022-10-07,2022-09-29,株式会社いろは堂,,株式会社,茨城県,古河市,中央町２丁目１番２号,,08,204,3060033,,,2022-09-29,清算の結了等,,,2015-10-05,1,,,,,イロハドウ,0
2512,8050002007139,登記記録の閉鎖等,0,2022-10-07,2022-09-29,有限会社大圧工業,,有限会社,茨城県,那珂郡東海村,大字須和間１４３６番地の１,,08,341,3191114,,,2022-09-29,清算の結了等,,,2015-10-05,1,,,,,ダイアツコウギョウ,0
2514,8060001016833,登記記録の閉鎖等,0,2022-10-07,2022-10-03,サンクリーン工業株式会社,,株式会社,栃木県,栃木市,都賀町平川２８６番地,,09,203,3280112,,,2022-10-03,清算の結了等,,,2015-10-05,1,,,,,サンクリーンコウギョウ,0
2522,8080401022025,登記記録の閉鎖等,0,2022-10-07,2022-10-06,中自動車株式会社,,株式会社,静岡県,菊川市,東横地２０８番地の１,,22,224,4390022,,,2022-10-06,清算の結了等,,,2017-03-06,1,,,,,ナカジドウシャ,0
2534,8120001126956,登記記録の閉鎖等,0,2022-10-07,2022-10-05,ハルビルド株式会社,,株式会社,大阪府,大阪市淀川区,西中島３丁目２３番９号,,27,123,5320011,,,2022-10-05,合併による解散等,1120901038530,令和４年１０月１日大阪府吹田市円山町８番２５－３０８号株式会社ハルフィールド（1120901038530）に合併し解散,2015-10-05,1,,,,,,0
2535,8120001134819,登記記録の閉鎖等,0,2022-10-07,2022-10-03,株式会社ワールド物流,,株式会社,大阪府,大阪市住之江区,平林北２丁目９番８２号,,27,125,5590026,,,2022-10-03,合併による解散等,6120001008025,令和４年１０月１日大阪市住之江区平林北二丁目９番８２号株式会社橘運送（6120001008025）に合併し解散,2015-10-05,1,,,,,ワールドブツリュウ,0
2538,8120001161937,登記記録の閉鎖等,0,2022-10-07,2022-10-06,株式会社アットワン,,株式会社,大阪府,大阪市浪速区,元町１丁目９番６－６０３号,,27,111,5560016,,,2022-10-06,清算の結了等,,,2015-10-05,1,,,,,アットワン,0
2604,8200002019886,登記記録の閉鎖等,0,2022-10-07,2022-10-05,有限会社アイコー,,有限会社,岐阜県,多治見市,昭栄町９６番地の３８,,21,204,5070076,,,2022-10-05,清算の結了等,,,2015-10-05,1,,,,,アイコー,0
2609,8240001025345,登記記録の閉鎖等,0,2022-10-07,2022-10-03,株式会社華能,,株式会社,広島県,広島市南区,松原町５番２－５２０５号,,34,103,7320822,,,2022-10-03,合併による解散等,7240001046664,令和４年１０月１日広島市南区松原町５番２号株式会社Ｌｉ　Ｃｏｒｐｏｒａｔｉｏｎ（7240001046664）に合併し解散,2015-10-05,1,,,,,カノウ,0
2613,8240002037505,登記記録の閉鎖等,0,2022-10-07,2022-10-04,有限会社ヤマネ,,有限会社,広島県,廿日市市,宮島口西１丁目６番２２号,,34,213,7390412,,,2022-10-04,清算の結了等,,,2015-10-05,1,,,,,ヤマネ,0
2614,8240002053048,登記記録の閉鎖等,0,2022-10-07,2022-10-03,有限会社勝原カンパニー,,有限会社,広島県,三原市,宮沖５丁目１０番１８号,,34,204,7230016,,,2022-10-03,清算の結了等,,,2015-10-05,1,,,,,カツハラカンパニー,0
2622,8290001000252,登記記録の閉鎖等,0,2022-10-07,2022-10-03,株式会社サンユー建設,,株式会社,福岡県,福岡市西区,周船寺２丁目９番１２号,,40,135,8190373,,,2022-10-03,清算の結了等,,,2015-10-05,1,,,,,サンユーケンセツ,0
2631,8290802009863,登記記録の閉鎖等,0,2022-10-07,2022-10-05,有限会社ファイブトラベル,,有限会社,福岡県,北九州市門司区,柳町１丁目４番２４号,,40,101,8000025,,,2022-10-05,清算の結了等,,,2015-10-05,1,,,,,ファイブトラベル,0
2649,8380001004797,登記記録の閉鎖等,0,2022-10-07,2022-10-03,株式会社香緒コーポレーション,,株式会社,福島県,郡山市,堂前町２３番１５号,,07,203,9638877,,,2022-10-03,清算の結了等,,,2015-10-05,1,,,,,カオコーポレーション,0
2652,8410002012176,登記記録の閉鎖等,0,2022-10-07,2022-10-03,有限会社ササキ,,有限会社,秋田県,大仙市,円行寺字蕗ケ台４４番地,,05,212,0192201,,,2022-10-03,清算の結了等,,,2015-10-05,1,,,,,,0
2665,8460001000029,登記記録の閉鎖等,0,2022-10-07,2022-10-04,株式会社秋田商会,,株式会社,北海道,釧路市,星が浦北４丁目２番１５号,,01,206,0840911,,,2022-10-04,清算の結了等,,,2015-10-05,1,,,,,アキタショウカイ,0
2695,9010403021534,登記記録の閉鎖等,0,2022-10-07,2022-09-16,ＪＶ神楽坂合同会社,,合同会社,東京都,港区,虎ノ門４丁目３番９号,,13,103,1050001,,,2022-09-16,清算の結了等,,,2019-10-01,1,,,,,ジェーブイカグラザカ,0
2698,9010501024892,登記記録の閉鎖等,0,2022-10-07,2022-09-30,株式会社ホーム・リビルド,,株式会社,茨城県,土浦市,中高津２丁目２番４号,,08,203,3000815,,,2022-09-30,清算の結了等,,,2015-10-05,1,,,,,,0
2702,9010502006576,登記記録の閉鎖等,0,2022-10-07,2022-10-05,有限会社高橋印刷,,有限会社,東京都,台東区,橋場１丁目３０番４号,,13,106,1110023,,,2022-10-05,清算の結了等,,,2015-10-05,1,,,,,,0
2703,9010502014050,登記記録の閉鎖等,0,2022-10-07,2022-10-03,有限会社ティー・エス・ワイせきぐち,,有限会社,東京都,台東区,浅草６丁目６番１０号,,13,106,1110032,,,2022-10-03,清算の結了等,,,2015-10-05,1,,,,,ティーエスワイセキグチ,0
2807,9060001006668,登記記録の閉鎖等,0,2022-10-07,2022-10-03,マルトチ運輸株式会社,,株式会社,栃木県,河内郡上三川町,大字磯岡４５２番地,,09,301,3290606,,,2022-10-03,合併による解散等,8060001016734,令和４年１０月１日栃木県栃木市大平町蔵井６７８番地大坂屋運送株式会社（8060001016734）に合併し解散,2015-10-05,1,,,,,マルトチトチウンユ,0
2831,9120001172990,登記記録の閉鎖等,0,2022-10-07,2022-10-05,株式会社ユーハル,,株式会社,大阪府,大阪市淀川区,西中島３丁目２３番９号,,27,123,5320011,,,2022-10-05,合併による解散等,1120901038530,令和４年１０月１日大阪府吹田市円山町８番２５－３０８号株式会社ハルフィールド（1120901038530）に合併し解散,2015-10-05,1,,,,,,0
2881,9140001023390,登記記録の閉鎖等,0,2022-10-07,2022-09-30,株式会社環境整備エンジニアリング,,株式会社,兵庫県,神戸市東灘区,御影３丁目２番１１－９０号,,28,101,6580047,,,2022-09-30,清算の結了等,,,2015-10-05,1,,,,,カンキョウセイビエンジニアリング,0
2916,9180302008211,登記記録の閉鎖等,0,2022-10-07,2022-09-29,有限会社ダイケン製菓所,,有限会社,愛知県,豊橋市,東雲町４１番地,,23,201,4400051,,,2022-09-29,清算の結了等,,,2015-10-05,1,,,,,ダイケンセイカジョ,0
2931,9240001043544,登記記録の閉鎖等,0,2022-10-07,2022-10-03,株式会社バルコムフーズ,,株式会社,広島県,広島市安佐南区,中筋３丁目８番１０号,,34,105,7310122,,,2022-10-03,合併による解散等,1240001009024,令和４年１０月１日広島市安佐南区中筋三丁目８番１０号株式会社バルコム（1240001009024）に合併し解散,2015-10-05,1,,,,,バルコムフーズ,0
2932,9240002048105,登記記録の閉鎖等,0,2022-10-07,2022-10-03,有限会社小塚工業,,有限会社,広島県,安芸郡熊野町,出来庭７丁目２５番２号,,34,307,7314221,,,2022-10-03,清算の結了等,,,2015-10-05,1,,,,,コヅカコウギョウ,0
2936,9250002015707,登記記録の閉鎖等,0,2022-10-07,2022-10-03,有限会社サン企画,,有限会社,山口県,下松市,清瀬町２丁目１番７号,,35,207,7440071,,,2022-10-03,清算の結了等,,,2015-10-05,1,,,,,サンキカク,0
2967,9340002006969,登記記録の閉鎖等,0,2022-10-07,2022-10-06,有限会社東京堂時計店,,有限会社,鹿児島県,鹿児島市,千年２丁目３４番１３号,,46,201,8900001,,,2022-10-06,清算の結了等,,,2015-10-05,1,,,,,トウキョウドウトケイテン,0
2968,9340002012686,登記記録の閉鎖等,0,2022-10-07,2022-10-03,有限会社美山土蔵,,有限会社,鹿児島県,日置市,東市来町美山１１６５番地３,,46,216,8992431,,,2022-10-03,清算の結了等,,,2015-10-05,1,,,,,ミヤマドゾウ,0
2969,9340005001026,登記記録の閉鎖等,0,2022-10-07,2022-10-06,医療法人あゆみ会,,その他の設立登記法人,鹿児島県,鹿児島市,大竜町９番１号,,46,201,8920805,,,2022-10-06,清算の結了等,,,2015-10-05,1,,,,,アユミカイ,0
2974,9370001021719,登記記録の閉鎖等,0,2022-10-07,2022-09-28,ダイヤオフィス東北株式会社,,株式会社,宮城県,仙台市青葉区,一番町２丁目４番１号,,04,101,9800811,,,2022-09-28,清算の結了等,,,2015-10-05,1,,,,,ダイヤオフィストウホク,0
2993,9420001002341,登記記録の閉鎖等,0,2022-10-07,2022-10-04,株式会社ビックドライ,,株式会社,青森県,青森市,大字野内字菊川７７番５３号,,02,201,0393503,,,2022-10-04,清算の結了等,,,2015-10-05,1,,,,,ビックドライ,0
2998,9460102006394,登記記録の閉鎖等,0,2022-10-07,2022-10-03,有限会社ハヤサカ,,有限会社,北海道,足寄郡陸別町,字陸別本通１丁目１７番地,,01,648,0894300,,,2022-10-03,清算の結了等,,,2015-10-05,1,,,,,ハヤサカ,0
