sequenceNumber,corporateNumber,process,correct,updateDate,changeDate,name,nameImageId,kind,prefectureName,cityName,streetNumber,addressImageId,prefectureCode,cityCode,postCode,addressOutside,addressOutsideImageId,closeDate,closeCause,successorCorporateNumber,changeCause,assignmentDate,latest,enName,enPrefectureName,enCityName,enAddressOutside,furigana,hihyoji
10,1010001247159,新規,0,2024-08-14,2024-08-14,株式会社ジャパロニア,,株式会社,東京都,中央区,八重洲２丁目１番１号ＹＡＮＭＡＲＴＯＫＹＯ１２階,,13,102,1040028,,,,,,,2024-08-14,1,,,,,ジャパロニア,0
11,1010001247357,新規,0,2024-08-14,2024-08-14,株式会社ＨＪ‐ｏｎｅ,,株式会社,東京都,中央区,銀座１丁目１２－４Ｎ＆ＥＢＬＤ７階,,13,102,1040061,,,,,,,2024-08-14,1,,,,,エイチジェイワン,0
12,1010001247373,新規,0,2024-08-14,2024-08-14,ＪＰＧ第３号株式会社,,株式会社,東京都,千代田区,霞が関３丁目２番１号,,13,101,1000013,,,,,,,2024-08-14,1,,,,,ジェイピージーダイサンゴウ,0
16,1010003044554,新規,0,2024-08-14,2024-08-14,ＮＶＳ合同会社,,合同会社,東京都,文京区,根津２丁目１３番２－１０１号シャローム根津,,13,105,1130031,,,,,,,2024-08-14,1,,,,,エヌブイエス,0
17,1010003044604,新規,0,2024-08-14,2024-08-14,合同会社Ｄ‐Ｃｒｏｓｓｉｎｇ,,合同会社,東京都,中央区,日本橋室町１丁目１１番１２号日本橋水野ビル７階,,13,102,1030022,,,,,,,2024-08-14,1,,,,,ディークロッシング,0
25,1010401182823,新規,0,2024-08-14,2024-08-14,株式会社ＴＫハウス,,株式会社,東京都,港区,西麻布１丁目４番７号３０１,,13,103,1060031,,,,,,,2024-08-14,1,,,,,ティーケーハウス,0
26,1010401184365,新規,0,2024-08-14,2024-08-14,株式会社Ｑｎｅｅ,,株式会社,東京都,港区,南青山３丁目１番３６号青山丸竹ビル６Ｆ,,13,103,1070062,,,,,,,2024-08-14,1,,,,,キユーニー,0
27,1010401184456,新規,0,2024-08-14,2024-08-14,株式会社ことのはブランディング,,株式会社,東京都,港区,南青山３丁目３番３号リビエラ南青山ビルＡ館１Ｆ,,13,103,1070062,,,,,,,2024-08-14,1,,,,,コトノハブランディング,0
28,1010401184464,新規,0,2024-08-14,2024-08-14,ＭＩＮＭＡＸ　ＪＡＰＡＮ株式会社,,株式会社,東京都,港区,港南１丁目９番３６号アレア品川ビル１３階,,13,103,1080075,,,,,,,2024-08-14,1,,,,,ミンマックスジャパン,0
30,1010403033207,新規,0,2024-08-14,2024-08-14,合同会社ＣＶＮ,,合同会社,東京都,港区,虎ノ門３丁目１４番１号,,13,103,1050001,,,,,,,2024-08-14,1,,,,,シーブイエヌ,0
42,1010603011020,新規,0,2024-08-14,2024-08-14,ＭａＳｔａｃｋｓ合同会社,,合同会社,東京都,墨田区,押上３丁目７番地１号,,13,107,1310045,,,,,,,2024-08-14,1,,,,,マスタックス,0
45,1010901055768,新規,0,2024-08-14,2024-08-14,株式会社東南海商事,,株式会社,東京都,世田谷区,上祖師谷５丁目３番１号,,13,112,1570065,,,,,,,2024-08-14,1,,,,,トウナンカイショウジ,0
47,1011001163973,新規,0,2024-08-14,2024-08-14,株式会社ソレッコ,,株式会社,東京都,渋谷区,渋谷２丁目５番１２－１４０１号アトラス青山レジデンシャル,,13,113,1500002,,,,,,,2024-08-14,1,,,,,ソレッコ,0
48,1011001164022,新規,0,2024-08-14,2024-08-14,Ｇｒａｐｅ株式会社,,株式会社,東京都,渋谷区,道玄坂１丁目１２番１号,,13,113,1500043,,,,,,,2024-08-14,1,,,,,グレープ,0
49,1011001164030,新規,0,2024-08-14,2024-08-14,株式会社Ｓ‐ａｓｅｔｔ,,株式会社,東京都,渋谷区,神宮前６丁目２３番４号,,13,113,1500001,,,,,,,2024-08-14,1,,,,,エスアセット,0
50,1011001164039,新規,0,2024-08-14,2024-08-14,株式会社Ｄｉ,,株式会社,東京都,渋谷区,道玄坂１丁目１０番８号渋谷道玄坂東急ビル２Ｆ－Ｃ,,13,113,1500043,,,,,,,2024-08-14,1,,,,,ディーアイ,0
51,1011001164063,新規,0,2024-08-14,2024-08-14,サブリエ株式会社,,株式会社,東京都,渋谷区,渋谷２丁目１９－１５宮益坂ビルディング６０９,,13,113,1500002,,,,,,,2024-08-14,1,,,,,サブリエ,0
52,1011001164071,新規,0,2024-08-14,2024-08-14,株式会社ＢＵＣＣＨＩＧＩＲＩ　Ｐｒｏｄｕｃｔｉｏｎ,,株式会社,東京都,目黒区,青葉台４丁目４番１号,,13,110,1530042,,,,,,,2024-08-14,1,,,,,ブッチギリプロダクション,0
53,1011001164096,新規,0,2024-08-14,2024-08-14,ＳＩＣＩＳＴＡ株式会社,,株式会社,東京都,渋谷区,道玄坂１丁目１０番８号渋谷道玄坂東急ビル２Ｆ‐Ｃ,,13,113,1500043,,,,,,,2024-08-14,1,,,,,シシスタ,0
54,1011001164113,新規,0,2024-08-14,2024-08-14,株式会社Ｂａｃｏｎｎｉｔｏ　Ｅｎｔｅｒｐｒｉｓｅ,,株式会社,東京都,渋谷区,神山町２０番１２号神山コート３Ｆ,,13,113,1500047,,,,,,,2024-08-14,1,,,,,ベーコンニトウエンタープライズ,0
57,1011003019744,新規,0,2024-08-14,2024-08-14,合同会社スタジオ鈴,,合同会社,東京都,渋谷区,恵比寿西２丁目４番８号ウィンド恵比寿ビル８Ｆ,,13,113,1500021,,,,,,,2024-08-14,1,,,,,スタジオスズ,0
58,1011003019835,新規,0,2024-08-14,2024-08-14,ＤｉｇｉｔａｌＸ２２合同会社,,合同会社,東京都,渋谷区,代々木４丁目２６番１‐６０２号,,13,113,1510053,,,,,,,2024-08-14,1,,,,,デジタルエックストゥエンティツー,0
64,1011101108333,新規,0,2024-08-14,2024-08-14,シルバーコーポ株式会社,,株式会社,東京都,新宿区,大京町９番地,,13,104,1600015,,,,,,,2024-08-14,1,,,,,シルバーコーポ,0
65,1011101108366,新規,0,2024-08-14,2024-08-14,クードスコスモス株式会社,,株式会社,東京都,新宿区,高田馬場１丁目３１番１６－５０６号ワイム高田馬場ビル,,13,104,1690075,,,,,,,2024-08-14,1,,,,,クードスコスモス,0
66,1011101108374,新規,0,2024-08-14,2024-08-14,株式会社Ｓ・Ｋ・Ｔ,,株式会社,東京都,新宿区,津久戸町５番１８号,,13,104,1620821,,,,,,,2024-08-14,1,,,,,エスケイティ,0
67,1011101108408,新規,0,2024-08-14,2024-08-14,株式会社第７地区,,株式会社,東京都,新宿区,岩戸町１４番地神楽坂不二ビル１Ｆ,,13,104,1620832,,,,,,,2024-08-14,1,,,,,ダイナナチク,0
68,1011101108440,新規,0,2024-08-14,2024-08-14,株式会社グローバルサポートパートナーズ,,株式会社,東京都,新宿区,新宿６丁目２８番７号,,13,104,1600022,,,,,,,2024-08-14,1,,,,,グローバルサポートパートナーズ,0
69,1011101108457,新規,0,2024-08-14,2024-08-14,株式会社ニシキテック,,株式会社,東京都,新宿区,払方町４番地３－３０１,,13,104,1620841,,,,,,,2024-08-14,1,,,,,ニシキテック,0
70,1011105011120,新規,0,2024-08-14,2024-08-14,一般社団法人日本脳血管内電極学会,,その他の設立登記法人,東京都,新宿区,信濃町３５番地,,13,104,1600016,,,,,,,2024-08-14,1,,,,,ニホンノウケッカンナイデンキョクガッカイ,0
74,1011501031036,新規,0,2024-08-14,2024-08-14,株式会社ＣＲＡＳ,,株式会社,東京都,荒川区,南千住５丁目４３－１３ウィン南千住エクシオン１０２,,13,118,1160003,,,,,,,2024-08-14,1,,,,,クラス,0
83,1011801044679,新規,0,2024-08-14,2024-08-14,株式会社ＡＬＴＡＦ　ＭＯＴＯＲＳ,,株式会社,東京都,葛飾区,西亀有１丁目１２番３号サンモール５０２号,,13,122,1240002,,,,,,,2024-08-14,1,,,,,アルタフモータース,0
84,1011801044687,新規,0,2024-08-14,2024-08-14,株式会社タジマ,,株式会社,東京都,葛飾区,奥戸２丁目２１番３号,,13,122,1240022,,,,,,,2024-08-14,1,,,,,タジマ,0
85,1011801044695,新規,0,2024-08-14,2024-08-14,ＺＡＹＯ株式会社,,株式会社,東京都,足立区,栗原３丁目２６番１号２Ｆ,,13,121,1230842,,,,,,,2024-08-14,1,,,,,ザヨ,0
87,1011805003383,新規,0,2024-08-14,2024-08-14,一般社団法人Ｂｅ　Ｄｅｌｉｖｅｒｙ,,その他の設立登記法人,東京都,葛飾区,東金町１丁目４５－１２－１９ＡＳビル,,13,122,1250041,,,,,,,2024-08-14,1,,,,,ビーデリバリー,0
93,1012403006712,新規,0,2024-08-14,2024-08-14,合同会社ｃｈａｒｍ　ｄｅａｒ,,合同会社,東京都,多摩市,鶴牧１丁目２５－２－３０７,,13,224,2060034,,,,,,,2024-08-14,1,,,,,チャームディア,0
94,1012703003070,新規,0,2024-08-14,2024-08-14,エムシステム合同会社,,合同会社,東京都,西東京市,富士町１丁目３番１１－４号,,13,229,2020014,,,,,,,2024-08-14,1,,,,,エムシステム,0
98,1013301052988,新規,0,2024-08-14,2024-08-14,株式会社マハロ,,株式会社,東京都,豊島区,東池袋４丁目１４番５号黒柳製本ビル３Ｆ,,13,116,1700013,,,,,,,2024-08-14,1,,,,,マハロ,0
102,1020001158462,新規,0,2024-08-14,2024-08-14,株式会社星雲ソフト,,株式会社,神奈川県,川崎市川崎区,大師本町７－６－３,,14,131,2100817,,,,,,,2024-08-14,1,,,,,セイウンソフト,0
103,1020001158470,新規,0,2024-08-14,2024-08-14,株式会社ミドラシュ,,株式会社,神奈川県,横浜市神奈川区,白幡仲町９－１６ＮＯＣＥ白楽１０７号室,,14,102,2210071,,,,,,,2024-08-14,1,,,,,ミドラシュ,0
110,1021001082974,新規,0,2024-08-14,2024-08-14,株式会社イクヨトレーディング,,株式会社,神奈川県,厚木市,上依知３０１９番地,,14,212,2430801,,,,,,,2024-08-14,1,,,,,イクヨトレーディング,0
111,1021001082982,新規,0,2024-08-14,2024-08-14,ｒ株式会社,,株式会社,神奈川県,鎌倉市,笹目町８番１４号,,14,204,2480015,,,,,,,2024-08-14,1,,,,,アール,0
112,1021001082990,新規,0,2024-08-14,2024-08-14,株式会社幸多商事,,株式会社,神奈川県,藤沢市,長後１４１８番地の１,,14,205,2520801,,,,,,,2024-08-14,1,,,,,コタショウジ,0
113,1021001083007,新規,0,2024-08-14,2024-08-14,不動産ショップ株式会社,,株式会社,神奈川県,横須賀市,安針台１４番１－５０７号,,14,201,2380048,,,,,,,2024-08-14,1,,,,,フドウサンショップ,0
126,1030001161829,新規,0,2024-08-14,2024-08-14,株式会社菱友昇降機,,株式会社,埼玉県,さいたま市北区,大成町４丁目４４１番地１４,,11,102,3310815,,,,,,,2024-08-14,1,,,,,リョウユウショウコウキ,0
127,1030001161952,新規,0,2024-08-14,2024-08-14,株式会社逍遥,00135937,株式会社,埼玉県,新座市,栗原３丁目１番１５－１９号,,11,230,3520035,,,,,,,2024-08-14,1,,,,,ショウヨウ,0
128,1030001161960,新規,0,2024-08-14,2024-08-14,株式会社Ｋｉｎｇ,,株式会社,埼玉県,川口市,八幡木２丁目２３－３９,,11,203,3340012,,,,,,,2024-08-14,1,,,,,キング,0
129,1030001161985,新規,0,2024-08-14,2024-08-14,株式会社万盛国際,,株式会社,埼玉県,川口市,並木１丁目８番３２号,,11,203,3320034,,,,,,,2024-08-14,1,,,,,バンセイコクサイ,0
138,1040001134916,新規,0,2024-08-14,2024-08-14,福祥柏元株式会社,,株式会社,千葉県,松戸市,松戸１４０１番地,,12,207,2710092,,,,,,,2024-08-14,1,,,,,フクショウカヤモト,0
139,1040001134940,新規,0,2024-08-14,2024-08-14,株式会社三原,,株式会社,千葉県,松戸市,松戸新田１６８番２５号２棟１０３室,,12,207,2702241,,,,,,,2024-08-14,1,,,,,ミハラ,0
140,1040003025601,新規,0,2024-08-14,2024-08-14,合同会社建材店‐管工事等,,合同会社,千葉県,八千代市,大和田新田１５番地高津団地７－２４－２０７,,12,221,2760046,,,,,,,2024-08-14,1,,,,,ケンザイテンカンコウジナド,0
142,1050001055244,新規,0,2024-08-14,2024-08-14,株式会社ＫＡＳＵＭＩＹＡ,,株式会社,茨城県,かすみがうら市,中志筑２１５５番地１,,08,230,3150075,,,,,,,2024-08-14,1,,,,,カスミヤ,0
144,1050005013479,新規,0,2024-08-14,2024-08-14,一般社団法人茨城パラスポーツ協会,,その他の設立登記法人,茨城県,かすみがうら市,宍倉６１９０番地９８,,08,230,3000121,,,,,,,2024-08-14,1,,,,,イバラキパラスポーツキョウカイ,0
149,1080401027385,新規,0,2024-08-14,2024-08-14,株式会社ＭＹ　Ｐｌａｎｎｉｎｇ,,株式会社,静岡県,浜松市中央区,葵西６丁目２５番６６号,,22,138,4338111,,,,,,,2024-08-14,1,,,,,エムワイプランニング,0
150,1100001037781,新規,0,2024-08-14,2024-08-14,株式会社ブラスロード,,株式会社,長野県,松本市,井川城３丁目６番５１号ヤマキビル,,20,202,3900831,,,,,,,2024-08-14,1,,,,,ブラスロード,0
163,1120001267583,新規,0,2024-08-14,2024-08-14,株式会社Ｍｏｉｒａｉ　Ｐｒｏｊｅｃｔ,,株式会社,大阪府,大阪市東成区,中本４丁目１番１０号,,27,115,5370022,,,,,,,2024-08-14,1,,,,,モイライプロジェクト,0
164,1120001267658,新規,0,2024-08-14,2024-08-14,株式会社ＣＯＲＲＥＣＴリアルエステート,,株式会社,大阪府,大阪市中央区,北久宝寺町２丁目２番１３号マエダビル８０１号,,27,128,5410057,,,,,,,2024-08-14,1,,,,,コレクトリアルエステート,0
165,1120001267666,新規,0,2024-08-14,2024-08-14,株式会社ＨＡＫＥＮ,,株式会社,大阪府,大阪市北区,本庄西２丁目８番４号,,27,127,5310073,,,,,,,2024-08-14,1,,,,,ハケン,0
166,1120001267690,新規,0,2024-08-14,2024-08-14,大阪経営クリニック株式会社,,株式会社,大阪府,大阪市淀川区,西宮原１丁目５番３３号,,27,123,5320004,,,,,,,2024-08-14,1,,,,,オオサカケイエイクリニック,0
167,1120001267724,新規,0,2024-08-14,2024-08-14,株式会社ｓｔｙｌｅｒｚ,,株式会社,大阪府,大阪市城東区,蒲生１丁目１２番１０－５０３号,,27,118,5360016,,,,,,,2024-08-14,1,,,,,スタイラーズ,0
168,1120001267740,新規,0,2024-08-14,2024-08-14,隆盛商事株式会社,,株式会社,大阪府,寝屋川市,対馬江西町６番１２号,,27,215,5720065,,,,,,,2024-08-14,1,,,,,タカモリショウジ,0
169,1120001267757,新規,0,2024-08-14,2024-08-14,クオレエステート株式会社,,株式会社,大阪府,大阪市中央区,南船場４丁目１０－２１号日宝エコービル５Ｆ９号,,27,128,5420081,,,,,,,2024-08-14,1,,,,,クオレエステート,0
171,1120101070144,新規,0,2024-08-14,2024-08-14,株式会社谷中,,株式会社,大阪府,堺市北区,北花田町１丁４１－９,,27,146,5918002,,,,,,,2024-08-14,1,,,,,タニナカ,0
172,1120901049619,新規,0,2024-08-14,2024-08-14,株式会社シルバーバック,,株式会社,大阪府,豊中市,小曽根４丁目１４番１７号,,27,203,5610813,,,,,,,2024-08-14,1,,,,,シルバーバック,0
176,1130001077684,新規,0,2024-08-14,2024-08-14,株式会社きらきらｃｒｅｗ,,株式会社,京都府,京都市右京区,龍安寺斎宮町１６番地の１,,26,108,6168011,,,,,,,2024-08-14,1,,,,,キラキラクルー,0
177,1130001077692,新規,0,2024-08-14,2024-08-14,株式会社ｃｈａｎｃｅ,,株式会社,京都府,京都市中京区,壬生仙念町１４－１玄風館ビル４０２,,26,104,6048854,,,,,,,2024-08-14,1,,,,,チャンス,0
178,1130001077701,新規,0,2024-08-14,2024-08-14,株式会社ｍｕｋｕ,,株式会社,京都府,京都市東山区,新門前通大和大路東入西之町２２２番地,,26,105,6050088,,,,,,,2024-08-14,1,,,,,ムク,0
179,1130003009784,新規,0,2024-08-14,2024-08-14,ＣＭＳＫ合同会社,,合同会社,京都府,京都市伏見区,深草藤森町３７番地の３８,,26,109,6120863,,,,,,,2024-08-14,1,,,,,コムスク,0
188,1140001135508,新規,0,2024-08-14,2024-08-14,株式会社スリープラス,,株式会社,兵庫県,芦屋市,宮塚町１５－４パークフロント芦屋宮塚３０１,,28,206,6590062,,,,,,,2024-08-14,1,,,,,スリープラス,0
189,1140001135532,新規,0,2024-08-14,2024-08-14,株式会社アプライド・メディライン,,株式会社,兵庫県,神戸市中央区,中山手通７丁目１４番１－９１２号,,28,110,6500004,,,,,,,2024-08-14,1,,,,,アプライドメディライン,0
200,1160003003248,新規,0,2024-08-14,2024-08-14,グローバルブリッジ合同会社,,合同会社,滋賀県,草津市,笠山１丁目２番１１２－９０７号ｐｒｏｎｉｔｙｈｉｌｌ,,25,206,5250072,,,,,,,2024-08-14,1,,,,,グローバルブリッジ,0
202,1170001018271,新規,0,2024-08-14,2024-08-14,株式会社池田建設,,株式会社,和歌山県,田辺市,宝来町７番１１号,,30,206,6460026,,,,,,,2024-08-14,1,,,,,イケダケンセツ,0
208,1180001162894,新規,0,2024-08-14,2024-08-14,株式会社志,,株式会社,愛知県,名古屋市中村区,名駅南１丁目１６番２５号第３森ビル４階,,23,105,4500003,,,,,,,2024-08-14,1,,,,,ココロザシ,0
210,1180003027212,新規,0,2024-08-14,2024-08-14,合同会社ＧＯプラス,,合同会社,愛知県,名古屋市中区,新栄１丁目３番３号ルオ新栄ビル３０２,,23,106,4600007,,,,,,,2024-08-14,1,,,,,ゴープラス,0
220,1200001042821,新規,0,2024-08-14,2024-08-14,株式会社おくむら,,株式会社,岐阜県,多治見市,西坂町４丁目２８２番地,,21,204,5070051,,,,,,,2024-08-14,1,,,,,オクムラ,0
239,1290001106691,新規,0,2024-08-14,2024-08-14,株式会社ＫＹＡＬＡ,,株式会社,福岡県,福岡市博多区,千代１丁目３２番１１号,,40,132,8120044,,,,,,,2024-08-14,1,,,,,キャラ,0
243,1290801030785,新規,0,2024-08-14,2024-08-14,株式会社Ｋ‐レックス,,株式会社,福岡県,北九州市八幡西区,南八千代町４番２号,,40,109,8060024,,,,,,,2024-08-14,1,,,,,ケイレックス,0
244,1290801030802,新規,0,2024-08-14,2024-08-14,ヤマノウチデザイン株式会社,,株式会社,福岡県,北九州市八幡東区,石坪町１２番１８－３０５号,,40,108,8050021,,,,,,,2024-08-14,1,,,,,ヤマノウチデザイン,0
249,1330001032306,新規,0,2024-08-14,2024-08-14,株式会社ｋａｎａｄｅ,,株式会社,熊本県,熊本市東区,戸島５丁目１１番４８号,,43,102,8618041,,,,,,,2024-08-14,1,,,,,カナデ,0
257,1360001033994,新規,0,2024-08-14,2024-08-14,株式会社沖縄ブーメラン,,株式会社,沖縄県,国頭郡恩納村,字安富祖１８９６番地ＧＥビルＡＦＵＳＯ１－Ｂ,,47,311,9040402,,,,,,,2024-08-14,1,,,,,オキナワブーメラン,0
258,1360001034068,新規,0,2024-08-14,2024-08-14,Ｆａｂ　Ｌａｂ　ＫＡＩ株式会社,,株式会社,沖縄県,石垣市,字新川２３５９番地１－４０２号室,,47,207,9070024,,,,,,,2024-08-14,1,,,,,ファブラボカイ,0
259,1370001051640,新規,0,2024-08-14,2024-08-14,株式会社ＤＥＡＳイノベーション,,株式会社,宮城県,東松島市,小松字沖砂利前３９２番地,,04,214,9810504,,,,,,,2024-08-14,1,,,,,デアスイノベーション,0
267,1390001017714,新規,0,2024-08-14,2024-08-14,ＢｒｉｌｌｉｓｔａＧｌｏｂａｌＣｏｍｍｅｒｃｅ株式会社,,株式会社,山形県,米沢市,塩井町塩野１４９８番地の１０,,06,202,9920042,,,,,,,2024-08-14,1,,,,,ブリリスタグローバルコマース,0
276,1420001018832,新規,0,2024-08-14,2024-08-14,株式会社晴海自動車,,株式会社,青森県,上北郡野辺地町,字古明前３３番地７,,02,401,0393106,,,,,,,2024-08-14,1,,,,,ハルミジドウシャ,0
277,1420003002974,新規,0,2024-08-14,2024-08-14,合同会社ｇｒｏｗｅｒ,,合同会社,青森県,弘前市,大字原ケ平５丁目１番地８,,02,202,0368144,,,,,,,2024-08-14,1,,,,,グロワー,0
282,1430001092348,新規,0,2024-08-14,2024-08-14,株式会社ベアベノワ,,株式会社,北海道,札幌市中央区,南五条西１５丁目２番３号リズム医大前５０３号室,,01,101,0640805,,,,,,,2024-08-14,1,,,,,ベアベノワ,0
283,1430003016676,新規,0,2024-08-14,2024-08-14,合同会社ネットエスアイサポート,,合同会社,北海道,室蘭市,港北町３丁目１８番８号,,01,205,0500063,,,,,,,2024-08-14,1,,,,,ネットエスアイサポート,0
286,1440001009482,新規,0,2024-08-14,2024-08-14,株式会社加賀総業,,株式会社,北海道,函館市,陣川１丁目１１番１４号,,01,202,0410837,,,,,,,2024-08-14,1,,,,,カガソウギョウ,0
291,1480001012573,新規,0,2024-08-14,2024-08-14,株式会社内海水産,,株式会社,徳島県,板野郡松茂町,長原３４番地,,36,401,7710216,,,,,,,2024-08-14,1,,,,,ウツミスイサン,0
292,1480003002168,新規,0,2024-08-14,2024-08-14,Ｒａｋｕｇａｋｉｙａ合同会社,,合同会社,徳島県,徳島市,八万町中津浦２４番地の８６,,36,201,7708072,,,,,,,2024-08-14,1,,,,,ラクガキヤ,0
293,1500001025820,新規,0,2024-08-14,2024-08-14,株式会社カーセンター岡本,,株式会社,愛媛県,伊予市,宮下３番地３,,38,210,7993102,,,,,,,2024-08-14,1,,,,,カーセンターオカモト,0
303,2010001246663,新規,0,2024-08-14,2024-08-14,アペリティフ株式会社,,株式会社,東京都,文京区,根津２丁目３４－２１,,13,105,1130031,,,,,,,2024-08-14,1,,,,,アペリティフ,0
304,2010001247182,新規,0,2024-08-14,2024-08-14,株式会社Ａｒｉａｑｕｅ,,株式会社,東京都,中央区,日本橋室町１丁目１１番１２号日本橋水野ビル７階,,13,102,1030022,,,,,,,2024-08-14,1,,,,,アリアケ,0
305,2010001247372,新規,0,2024-08-14,2024-08-14,ＪＰＧ第２号株式会社,,株式会社,東京都,千代田区,霞が関３丁目２番１号,,13,101,1000013,,,,,,,2024-08-14,1,,,,,ジェイピージーダイニゴウ,0
310,2010003044487,新規,0,2024-08-14,2024-08-14,合同会社ルナ,,合同会社,東京都,千代田区,二番町３番地麹町スクエア株式会社シリウス・アドバイザリー内,,13,101,1020084,,,,,,,2024-08-14,1,,,,,ルナ,0
311,2010003044578,新規,0,2024-08-14,2024-08-14,合同会社ＫＩＭＫ　ｃｏｍｐａｎｙ,,合同会社,東京都,中央区,日本橋茅場町２丁目１７番６号,,13,102,1030025,,,,,,,2024-08-14,1,,,,,ケイアイエムケーカンパニー,0
312,2010003044594,新規,0,2024-08-14,2024-08-14,合同会社幸里,,合同会社,東京都,中央区,銀座６丁目１０番１号８階,,13,102,1040061,,,,,,,2024-08-14,1,,,,,サトリ,0
314,2010005038594,新規,0,2024-08-14,2024-08-14,社会保険労務士法人友竹,,その他の設立登記法人,東京都,中央区,日本橋富沢町７番７号タイヨービル３階,,13,102,1030006,,,,,,,2024-08-14,1,,,,,トモタケ,0
316,2010101016280,新規,0,2024-08-14,2024-08-14,株式会社潤来,,株式会社,東京都,八王子市,小宮町８６９番地３,,13,201,1920031,,,,,,,2024-08-14,1,,,,,ジュンライ,0
321,2010401184348,新規,0,2024-08-14,2024-08-14,株式会社Ｇｍｅｍｅ,,株式会社,東京都,港区,南青山３丁目１番３６号青山丸竹ビル,,13,103,1070062,,,,,,,2024-08-14,1,,,,,ジーメメ,0
322,2010401184356,新規,0,2024-08-14,2024-08-14,株式会社８十２,,株式会社,東京都,港区,芝４丁目１６番１－２７０６号,,13,103,1080014,,,,,,,2024-08-14,1,,,,,ハチタスニ,0
323,2010401184447,新規,0,2024-08-14,2024-08-14,パンテオン・リアルエステート株式会社,,株式会社,東京都,港区,東麻布３丁目２番１号,,13,103,1060044,,,,,,,2024-08-14,1,,,,,パンテオンリアルエステート,0
324,2010401184455,新規,0,2024-08-14,2024-08-14,株式会社ハレ,,株式会社,東京都,港区,芝浦４丁目２１番１－３９１５号,,13,103,1080023,,,,,,,2024-08-14,1,,,,,ハレ,0
325,2010401184463,新規,0,2024-08-14,2024-08-14,株式会社ストラディアン,,株式会社,東京都,港区,高輪３丁目１１－８－１８０５,,13,103,1080074,,,,,,,2024-08-14,1,,,,,ストラディアン,0
328,2010405023460,新規,0,2024-08-14,2024-08-14,一般社団法人ＪＵＭＰ　ｆｏｒ　Ｔｈｅ　Ｅａｒｔｈ　ＰＲＯＪＥＣＴ,,その他の設立登記法人,東京都,港区,三田４丁目１－４,,13,103,1080073,,,,,,,2024-08-14,1,,,,,ジャンプフォージアースプロジェクト,0
338,2010601065728,新規,0,2024-08-14,2024-08-14,株式会社ステイションズ,,株式会社,東京都,墨田区,錦糸１丁目１５番３号,,13,107,1300013,,,,,,,2024-08-14,1,,,,,ステイションズ,0
347,2010905004646,新規,0,2024-08-14,2024-08-14,一般社団法人国際スカルプインク協会,,その他の設立登記法人,東京都,世田谷区,北沢３丁目３１－１５ＮＨ下北沢ビル２Ｆ,,13,112,1550031,,,,,,,2024-08-14,1,,,,,コクサイスカルプインクキョウカイ,0
348,2010905004654,新規,0,2024-08-14,2024-08-14,一般社団法人Ｆａｍｉｌｙ　Ｏｆｆｉｃｅ　Ｌｅｇａｃｙ,,その他の設立登記法人,東京都,世田谷区,代田３丁目４番１０号,,13,112,1550033,,,,,,,2024-08-14,1,,,,,ファミリーオフィスレガシー,0
352,2011001164021,新規,0,2024-08-14,2024-08-14,株式会社役式,,株式会社,東京都,目黒区,青葉台３丁目２番６号,,13,110,1530042,,,,,,,2024-08-14,1,,,,,ヤクシキ,0
353,2011001164087,新規,0,2024-08-14,2024-08-14,株式会社コマースブースト,,株式会社,東京都,渋谷区,桜丘町１６番１３号桜丘フロントＩＩビル３Ｆ,00135945,13,113,1500031,,,,,,,2024-08-14,1,,,,,コマースブースト,0
354,2011001164095,新規,0,2024-08-14,2024-08-14,株式会社Ｄｅｖｏｔｅ,,株式会社,東京都,渋谷区,恵比寿西２丁目４番８号ウィンド恵比寿ビル８Ｆ,,13,113,1500021,,,,,,,2024-08-14,1,,,,,デボート,0
357,2011003019669,新規,0,2024-08-14,2024-08-14,合同会社アセットポジション,,合同会社,東京都,渋谷区,道玄坂１丁目１５番３号,,13,113,1500043,,,,,,,2024-08-14,1,,,,,アセットポジション,0
358,2011003019826,新規,0,2024-08-14,2024-08-14,合同会社カノンコード,,合同会社,東京都,渋谷区,代々木２丁目２３－１１ニューステイトメナー３５７,,13,113,1510053,,,,,,,2024-08-14,1,,,,,カノンコード,0
360,2011005010618,新規,0,2024-08-14,2024-08-14,特定非営利活動法人ミライト,,その他の設立登記法人,東京都,渋谷区,神宮前４丁目１５番２号,,13,113,1500001,,,,,,,2024-08-14,1,,,,,ミライト,0
375,2011101108365,新規,0,2024-08-14,2024-08-14,株式会社ｍｕｓｕｂｕ,,株式会社,東京都,新宿区,西新宿３丁目３番１３号西新宿水間ビル６階,,13,104,1600023,,,,,,,2024-08-14,1,,,,,ムスブ,0
376,2011101108373,新規,0,2024-08-14,2024-08-14,菲常株式会社,,株式会社,東京都,新宿区,百人町２丁目４番５号及川ビル５Ｆ,,13,104,1690073,,,,,,,2024-08-14,1,,,,,ヒジョウ,0
377,2011101108398,新規,0,2024-08-14,2024-08-14,株式会社リサーチコンパス,,株式会社,東京都,新宿区,西新宿６丁目５番１号新宿アイランドタワー２階,,13,104,1600023,,,,,,,2024-08-14,1,,,,,リサーチコンパス,0
378,2011101108407,新規,0,2024-08-14,2024-08-14,株式会社Ｔｈａｎｋｓ　Ｏａｔ,,株式会社,東京都,新宿区,西新宿８丁目８番３号吉住ビル２階,,13,104,1600023,,,,,,,2024-08-14,1,,,,,サンクスオート,0
381,2011201025725,新規,0,2024-08-14,2024-08-14,圏央道環境開発株式会社,,株式会社,東京都,中野区,中央３丁目２２番２５号,,13,114,1640011,,,,,,,2024-08-14,1,,,,,ケンオウドウカンキョウカイハツ,0
392,2011501031027,新規,0,2024-08-14,2024-08-14,株式会社群豊,,株式会社,東京都,北区,浮間１丁目７－２３兆豊浮間ビル４０３号室,,13,117,1150051,,,,,,,2024-08-14,1,,,,,グントヨ,0
396,2011801044686,新規,0,2024-08-14,2024-08-14,株式会社豊盛,,株式会社,東京都,足立区,花畑２丁目７番２１－１０３号,,13,121,1210061,,,,,,,2024-08-14,1,,,,,ホウセイ,0
398,2011803006395,新規,0,2024-08-14,2024-08-14,ポエシア合同会社,,合同会社,東京都,足立区,西綾瀬３丁目３６番１４号,,13,121,1200014,,,,,,,2024-08-14,1,,,,,ポエシア,0
402,2012403006703,新規,0,2024-08-14,2024-08-14,Ｈ２Ｃｏｎｓｕｌｔｉｎｇ合同会社,,合同会社,東京都,調布市,仙川町２丁目６番地５プラウドシティ仙川９０３,,13,208,1820002,,,,,,,2024-08-14,1,,,,,エイチツーコンサルティング,0
403,2012403006711,新規,0,2024-08-14,2024-08-14,合同会社ｇｒａｓｐ,,合同会社,東京都,府中市,府中町３丁目３番地の８,,13,206,1830055,,,,,,,2024-08-14,1,,,,,グラス,0
408,2013301052979,新規,0,2024-08-14,2024-08-14,ＳＳウェルネス株式会社,,株式会社,東京都,豊島区,西池袋３丁目２１番１３－１７１０号,,13,116,1710021,,,,,,,2024-08-14,1,,,,,エスエスウェルネス,0
415,2020001158404,新規,0,2024-08-14,2024-08-14,株式会社櫻澤工業,,株式会社,神奈川県,川崎市川崎区,小田１丁目２１１番地,,14,131,2100846,,,,,,,2024-08-14,1,,,,,,0
423,2021001082998,新規,0,2024-08-14,2024-08-14,ＡＩＭ・ＰＲＩＤＥ株式会社,,株式会社,神奈川県,三浦市,南下浦町金田９６２番地,,14,210,2380103,,,,,,,2024-08-14,1,,,,,エイムプライド,0
424,2021001083006,新規,0,2024-08-14,2024-08-14,株式会社カミノ,,株式会社,神奈川県,横須賀市,米が浜通１丁目７番１４号,,14,201,2380011,,,,,,,2024-08-14,1,,,,,カミノ,0
425,2021001083014,新規,0,2024-08-14,2024-08-14,株式会社Ａ‐ｔｓｕ,,株式会社,神奈川県,伊勢原市,東大竹１４９７,,14,214,2591133,,,,,,,2024-08-14,1,,,,,アーツ,0
428,2021003014891,新規,0,2024-08-14,2024-08-14,ベースバード合同会社,,合同会社,神奈川県,鎌倉市,雪ノ下１丁目１１番３２号,,14,204,2480005,,,,,,,2024-08-14,1,,,,,ベースバード,0
432,2030001161860,新規,0,2024-08-14,2024-08-14,株式会社ＪＡＰＡＮ　ＡＵＴＯ,,株式会社,埼玉県,草加市,谷塚上町１５１番地５－２０８号,,11,221,3400024,,,,,,,2024-08-14,1,,,,,ジャパンオート,0
433,2030001161910,新規,0,2024-08-14,2024-08-14,ミルハウス株式会社,,株式会社,埼玉県,三郷市,鷹野１丁目３４９番地８,,11,237,3410035,,,,,,,2024-08-14,1,,,,,ミルハウス,0
434,2030001161927,新規,0,2024-08-14,2024-08-14,株式会社翔商事,,株式会社,埼玉県,坂戸市,芦山町１２番地１サンパーク栄４０３号室,,11,239,3500273,,,,,,,2024-08-14,1,,,,,カケルショウジ,0
435,2030001161968,新規,0,2024-08-14,2024-08-14,株式会社ミライズ,,株式会社,埼玉県,狭山市,入間川３丁目４番１７号,,11,215,3501305,,,,,,,2024-08-14,1,,,,,ミライズ,0
436,2030003024900,新規,0,2024-08-14,2024-08-14,合同会社アキ,,合同会社,埼玉県,比企郡川島町,大字中山１２０８番地３,,11,346,3500165,,,,,,,2024-08-14,1,,,,,アキ,0
437,2030003024925,新規,0,2024-08-14,2024-08-14,合同会社ＮＡＴＵ,,合同会社,埼玉県,さいたま市大宮区,宮町４丁目６２番地１,,11,103,3300802,,,,,,,2024-08-14,1,,,,,ナツ,0
441,2040001134915,新規,0,2024-08-14,2024-08-14,Ｓ‐ＢＲ株式会社,,株式会社,千葉県,富津市,上飯野１７０９番地３三浦貸家Ａ棟,,12,226,2930005,,,,,,,2024-08-14,1,,,,,エスビーアール,0
442,2040001134931,新規,0,2024-08-14,2024-08-14,株式会社ｄ‐ｄｏｔ,,株式会社,千葉県,柏市,若柴２７８番地７中央１７０街区１サニーグランツＢ－１０４号,,12,217,2770871,,,,,,,2024-08-14,1,,,,,ディードット,0
443,2050001055243,新規,0,2024-08-14,2024-08-14,株式会社マハロタウン２・境,,株式会社,茨城県,猿島郡境町,大字長井戸１６８３番地,,08,546,3060404,,,,,,,2024-08-14,1,,,,,マハロタウンツーサカイ,0
446,2070003005541,新規,0,2024-08-14,2024-08-14,ＳＫＵ合同会社,,合同会社,群馬県,伊勢崎市,境上武士３１７番地１,,10,204,3700127,,,,,,,2024-08-14,1,,,,,エスケイユウ,0
451,2100001037673,新規,0,2024-08-14,2024-08-14,株式会社ＡＵＬＡＮ,,株式会社,長野県,茅野市,金沢２０９番地,,20,214,3910012,,,,,,,2024-08-14,1,,,,,オーラン,0
452,2100001037748,新規,0,2024-08-14,2024-08-14,株式会社ＳＡＮＤＨＹＡ,,株式会社,長野県,長野市,南高田２丁目４番地１１,,20,201,3810033,,,,,,,2024-08-14,1,,,,,サンディア,0
464,2120001267665,新規,0,2024-08-14,2024-08-14,株式会社Ｎａｉｌ．Ｃ,,株式会社,大阪府,大阪市西成区,千本中２丁目７番３号,,27,122,5570054,,,,,,,2024-08-14,1,,,,,ネイルドットシー,0
465,2120001267673,新規,0,2024-08-14,2024-08-14,大吉フーズ株式会社,,株式会社,大阪府,交野市,私部南２丁目９番６号,,27,230,5760035,,,,,,,2024-08-14,1,,,,,ダイキチフーズ,0
466,2120001267715,新規,0,2024-08-14,2024-08-14,株式会社ａ‐ｃｕｂｅ,,株式会社,大阪府,大阪市中央区,南船場１丁目３－１４ストークビル南船場６０９,,27,128,5420081,,,,,,,2024-08-14,1,,,,,エーキューブ,0
467,2120001267731,新規,0,2024-08-14,2024-08-14,株式会社ＵＴＡＧＥ,,株式会社,大阪府,大阪市北区,芝田２丁目８番１１号共栄ビル３階,,27,127,5300012,,,,,,,2024-08-14,1,,,,,ウタゲ,0
468,2120001267797,新規,0,2024-08-14,2024-08-14,盛京通商株式会社,,株式会社,大阪府,大阪市西成区,鶴見橋１丁目１０番１４号１０３室,,27,122,5570031,,,,,,,2024-08-14,1,,,,,セイキョウツウショウ,0
475,2120003027282,新規,0,2024-08-14,2024-08-14,國信合同会社,,合同会社,大阪府,大阪市天王寺区,逢阪１丁目３番５６号ル・パルトネール夕陽丘天神坂３０５号,00135939,27,109,5430062,,,,,,,2024-08-14,1,,,,,クニシン,0
483,2120903005305,新規,0,2024-08-14,2024-08-14,合同会社ＭＩＭＩ,,合同会社,大阪府,箕面市,船場東１丁目１５－５箕面サウンドヒルズ２７－４０１号室,,27,220,5620035,,,,,,,2024-08-14,1,,,,,ミミ,0
485,2130001077717,新規,0,2024-08-14,2024-08-14,株式会社ミラボ・アーキテクツ,,株式会社,京都府,京都市左京区,一乗寺築田町８５番地１,,26,103,6068175,,,,,,,2024-08-14,1,,,,,ミラボアーキテツク,0
491,2140001135473,新規,0,2024-08-14,2024-08-14,株式会社昇辰,,株式会社,兵庫県,高砂市,高砂町戎町２４２番地の２,,28,216,6760045,,,,,,,2024-08-14,1,,,,,ショウシン,0
492,2140001135507,新規,0,2024-08-14,2024-08-14,株式会社ＯｎｅＯｎｅＯｎｅレインボー,,株式会社,兵庫県,神戸市西区,狩場台１丁目５０番地の４,,28,111,6512272,,,,,,,2024-08-14,1,,,,,ワンワンワンレインボー,0
493,2140001135523,新規,0,2024-08-14,2024-08-14,七宝株式会社,,株式会社,兵庫県,神戸市垂水区,狩口台７丁目１５－４７,,28,108,6550049,,,,,,,2024-08-14,1,,,,,シッポ,0
498,2150001027496,新規,0,2024-08-14,2024-08-14,株式会社シュエット,,株式会社,奈良県,橿原市,内膳町３丁目８－５ＢｉｚＷｏｒｋ２０２,,29,205,6340804,,,,,,,2024-08-14,1,,,,,シュエット,0
502,2160001026167,新規,0,2024-08-14,2024-08-14,株式会社ＳＨＩＮＤＯ,,株式会社,滋賀県,近江八幡市,北末町１番地１,,25,204,5230884,,,,,,,2024-08-14,1,,,,,シンドウ,0
503,2170003002090,新規,0,2024-08-14,2024-08-14,合同会社ビービーボックス,,合同会社,和歌山県,和歌山市,松島５４３番地１６,,30,201,6408304,,,,,,,2024-08-14,1,,,,,ビービーボックス,0
519,2180001162794,新規,0,2024-08-14,2024-08-14,株式会社ＨＡＰ,,株式会社,愛知県,一宮市,妙興寺２丁目４番１５号プロムナード２０１号,,23,203,4910921,,,,,,,2024-08-14,1,,,,,エイチエーピー,0
522,2180003027194,新規,0,2024-08-14,2024-08-14,合同会社よなさし,,合同会社,愛知県,名古屋市港区,本宮新町７３番地,,23,111,4550065,,,,,,,2024-08-14,1,,,,,ヨナサシ,0
527,2190001031569,新規,0,2024-08-14,2024-08-14,株式会社エイチワイエステート,,株式会社,三重県,松阪市,射和町１１１番地,,24,204,5192145,,,,,,,2024-08-14,1,,,,,エイチワイエステート,0
528,2200001042820,新規,0,2024-08-14,2024-08-14,株式会社ポメ,,株式会社,岐阜県,可児市,鳩吹台７丁目１１１番地,,21,214,5090264,,,,,,,2024-08-14,1,,,,,ポメ,0
531,2210003001831,新規,0,2024-08-14,2024-08-14,片田商店合同会社,,合同会社,福井県,福井市,長本町８０１番地,,18,201,9100844,,,,,,,2024-08-14,1,,,,,カタダショウテン,0
543,2240005015810,新規,0,2024-08-14,2024-08-14,特定非営利活動法人リベラルアーツ文化倶楽部,00135951,その他の設立登記法人,広島県,三次市,畠敷町３５２－３,,34,209,7280006,,,,,,,2024-08-14,1,,,,,リベラルアーツブンカクラブ,0
547,2280001009234,新規,0,2024-08-14,2024-08-14,株式会社みさとＭ‐ＮＯマイン,,株式会社,島根県,邑智郡美郷町,乙原１３９番地,,32,448,6994626,,,,,,,2024-08-14,1,,,,,ミサトエムノーマイン,0
552,2290801030801,新規,0,2024-08-14,2024-08-14,株式会社ＯＫＡＺＡＫＩ,,株式会社,福岡県,遠賀郡岡垣町,吉木東２丁目１５番６号,,40,383,8114241,,,,,,,2024-08-14,1,,,,,オカザキ,0
567,2360003014224,新規,0,2024-08-14,2024-08-14,輝きヨーガ合同会社,,合同会社,沖縄県,那覇市,泊３丁目３番地１メゾンセンチュリー１１０２号室,,47,201,9000012,,,,,,,2024-08-14,1,,,,,カガヤキヨーガ,0
568,2370001051648,新規,0,2024-08-14,2024-08-14,株式会社Ｒｅ　Ｈｏｕｓｅ,,株式会社,宮城県,仙台市青葉区,本町１丁目５番２８号カーニープレイス仙台駅前通６０３号室,,04,101,9800014,,,,,,,2024-08-14,1,,,,,リハウス,0
572,2420001018831,新規,0,2024-08-14,2024-08-14,株式会社ナイスリー,,株式会社,青森県,八戸市,根城１丁目１番１２号－Ａ,,02,203,0391166,,,,,,,2024-08-14,1,,,,,ナイスリー,0
575,2430003016675,新規,0,2024-08-14,2024-08-14,合同会社百華,,合同会社,北海道,札幌市北区,麻生町３丁目１０番１０号光道力ビル１階,,01,102,0010045,,,,,,,2024-08-14,1,,,,,モモカ,0
576,2440001009481,新規,0,2024-08-14,2024-08-14,株式会社丸千,,株式会社,北海道,函館市,入舟町１６番３５号,,01,202,0400057,,,,,,,2024-08-14,1,,,,,マルセン,0
577,2480003002167,新規,0,2024-08-14,2024-08-14,合同会社Ｃｕｔｉ,,合同会社,徳島県,板野郡松茂町,中喜来字中瀬西ノ越１５番地７,,36,401,7710212,,,,,,,2024-08-14,1,,,,,チュティ,0
578,2500001025811,新規,0,2024-08-14,2024-08-14,株式会社空庵,,株式会社,愛媛県,宇和島市,石応１６１６番地,,38,203,7980091,,,,,,,2024-08-14,1,,,,,クウアン,0
590,3010001247371,新規,0,2024-08-14,2024-08-14,ＪＰＧ第１号株式会社,,株式会社,東京都,千代田区,霞が関３丁目２番１号,,13,101,1000013,,,,,,,2024-08-14,1,,,,,ジェイピージーダイイチゴウ,0
591,3010001247388,新規,0,2024-08-14,2024-08-14,ＭＣＰＭアコンプリール株式会社,,株式会社,東京都,千代田区,丸の内１丁目６番５号,,13,101,1000005,,,,,,,2024-08-14,1,,,,,エムシーピーエムアコンプリール,0
592,3010001247413,新規,0,2024-08-14,2024-08-14,株式会社ｗｉｔｈ,,株式会社,東京都,千代田区,平河町１丁目６番１５号ＵＳビル８Ｆ,,13,101,1020093,,,,,,,2024-08-14,1,,,,,ウィズ,0
593,3010001247479,新規,0,2024-08-14,2024-08-14,株式会社ＷＩＴＨ　ＡＬＯＨＡ,,株式会社,東京都,中央区,銀座１丁目１２－４Ｎ＆ＥＢＬＤ．７階,,13,102,1040061,,,,,,,2024-08-14,1,,,,,ウィズアロハ,0
595,3010003044486,新規,0,2024-08-14,2024-08-14,合同会社プルート,,合同会社,東京都,千代田区,二番町３番地麹町スクエア株式会社シリウス・アドバイザリー内,,13,101,1020084,,,,,,,2024-08-14,1,,,,,プルート,0
596,3010003044593,新規,0,2024-08-14,2024-08-14,ｏｄｏｒａｔｕｓ合同会社,,合同会社,東京都,中央区,日本橋浜町３丁目４５番５－７０３号,,13,102,1030007,,,,,,,2024-08-14,1,,,,,オドラータス,0
603,3010401184462,新規,0,2024-08-14,2024-08-14,株式会社ＶＩＧＯ,,株式会社,東京都,港区,南青山５丁目１２番２４－３１４号,,13,103,1070062,,,,,,,2024-08-14,1,,,,,ヴィゴー,0
604,3010401184487,新規,0,2024-08-14,2024-08-14,株式会社Ａ　ＬＯＮＧＬＩＦＥ　ＪＯＵＲＮＥＹ,,株式会社,東京都,港区,麻布狸穴町４４番地１,,13,103,1060042,,,,,,,2024-08-14,1,,,,,アロングライフジャーニー,0
612,3010603011027,新規,0,2024-08-14,2024-08-14,ＮａｔｕｒｅＳｏｕｃｅ合同会社,,合同会社,東京都,墨田区,錦糸３丁目１３－５サイレンス錦糸町８０２号,,13,107,1300013,,,,,,,2024-08-14,1,,,,,ナチュラソース,0
616,3010801035323,新規,0,2024-08-14,2024-08-14,株式会社セントロイドグローバル,,株式会社,東京都,大田区,久が原１丁目３６番５号,,13,111,1460085,,,,,,,2024-08-14,1,,,,,セントロイドグローバル,0
619,3010903009282,新規,0,2024-08-14,2024-08-14,合同会社Ｌｏｎｇ‐ｌａｓｔｉｎｇ　Ｓｏｕｎｄ,,合同会社,東京都,世田谷区,桜１丁目１６－８,,13,112,1560053,,,,,,,2024-08-14,1,,,,,ロングラスティングサウンド,0
623,3011001164020,新規,0,2024-08-14,2024-08-14,ＶＰＮ　Ｓｅｃｕｒｅ　ＩＰ　Ｐｒｏｘｙ　Ｗｉｆｉ株式会社,,株式会社,東京都,渋谷区,広尾１丁目１５番３号クオリア恵比寿パークフロント７０２,,13,113,1500012,,,,,,,2024-08-14,1,,,,,ブイピーエヌセキュアアイピープロキシワイファイ,0
624,3011001164037,新規,0,2024-08-14,2024-08-14,Ａクん株式会社,,株式会社,東京都,渋谷区,道玄坂１丁目１６－６二葉ビル８ｂ,,13,113,1500043,,,,,,,2024-08-14,1,,,,,エクン,0
625,3011001164053,新規,0,2024-08-14,2024-08-14,株式会社ｓｔｕｄｉｏ　ＧＯＤ,,株式会社,東京都,渋谷区,上原１丁目２４番１３号,,13,113,1510064,,,,,,,2024-08-14,1,,,,,スタジオゴッド,0
626,3011001164086,新規,0,2024-08-14,2024-08-14,株式会社ＬＦＮ　Ｃｒｅａｔｏｒｓ,,株式会社,東京都,渋谷区,恵比寿１丁目１５番１号ＴＡＭＡＷＯＯＤＹＧＡＴＥＥＢＩＳＵ３階,,13,113,1500013,,,,,,,2024-08-14,1,,,,,ライフネクストクリエイターズ,0
627,3011003019734,新規,0,2024-08-14,2024-08-14,ＭＩＣＲＯＧＬＯＢＥ合同会社,,合同会社,東京都,渋谷区,松濤１丁目２７－７－４０４,,13,113,1500046,,,,,,,2024-08-14,1,,,,,マイクログローブ,0
629,3011005010625,新規,0,2024-08-14,2024-08-14,特定非営利活動法人ＳＴＵＤＹ　ＦＯＲ　ＴＷＯ,,その他の設立登記法人,東京都,目黒区,目黒本町５丁目１４番１４号ステアズ２２,,13,110,1520002,,,,,,,2024-08-14,1,,,,,スタディーフォーツー,0
639,3011101108372,新規,0,2024-08-14,2024-08-14,株式会社ＳＰＡＲＴ,,株式会社,東京都,新宿区,歌舞伎町２丁目２７番９号アタックビル２階,,13,104,1600021,,,,,,,2024-08-14,1,,,,,スパート,0
640,3011101108389,新規,0,2024-08-14,2024-08-14,株式会社鶴亀,,株式会社,東京都,新宿区,西新宿７丁目１９－９前波ビル２Ｆ,,13,104,1600023,,,,,,,2024-08-14,1,,,,,ツルカメ,0
641,3011101108422,新規,0,2024-08-14,2024-08-14,株式会社リブラ,,株式会社,東京都,新宿区,西新宿３丁目３番１３号西新宿水間ビル２Ｆ,,13,104,1600023,,,,,,,2024-08-14,1,,,,,リブラ,0
642,3011101108430,新規,0,2024-08-14,2024-08-14,ゴーワイズ株式会社,,株式会社,東京都,新宿区,西新宿７丁目７番２６号,,13,104,1600023,,,,,,,2024-08-14,1,,,,,ゴーワイズ,0
644,3011103014783,新規,0,2024-08-14,2024-08-14,合同会社ＨＡＣアセット,,合同会社,東京都,新宿区,北新宿３丁目３７番３号,,13,104,1690074,,,,,,,2024-08-14,1,,,,,ハクアセット,0
645,3011105011119,新規,0,2024-08-14,2024-08-14,一般社団法人インクルーシブ・ラーニング推進協会,,その他の設立登記法人,東京都,新宿区,西新宿３丁目１５番５－７１１号,,13,104,1600023,,,,,,,2024-08-14,1,,,,,インクルーシブラーニングスイシンキョウカイ,0
649,3011401026357,新規,0,2024-08-14,2024-08-14,株式会社久高興業,,株式会社,東京都,板橋区,高島平１丁目７番６号コンドミニアム・Ｕ３０３,,13,119,1750082,,,,,,,2024-08-14,1,,,,,クダカコウギョウ,0
657,3011801044677,新規,0,2024-08-14,2024-08-14,株式会社＿源,00135935,株式会社,東京都,足立区,東伊興１丁目１番２１－３０７号ファミュＣ,,13,121,1210801,,,,,,,2024-08-14,1,,,,,シンゲン,0
663,3012303002033,新規,0,2024-08-14,2024-08-14,豊銘商事合同会社,,合同会社,東京都,町田市,金森４丁目７番６号,,13,209,1940012,,,,,,,2024-08-14,1,,,,,ホウメイショウジ,0
664,3012401042170,新規,0,2024-08-14,2024-08-14,株式会社ＴＭＬソリューション,,株式会社,東京都,狛江市,和泉本町１丁目６番９－５０４号,,13,219,2010003,,,,,,,2024-08-14,1,,,,,ティーエムエルソリューション,0
666,3012701018399,新規,0,2024-08-14,2024-08-14,株式会社ＭＡＳＴ,,株式会社,東京都,小平市,小川町１丁目１０８７番地の１６,,13,211,1870032,,,,,,,2024-08-14,1,,,,,マスト,0
668,3012703003069,新規,0,2024-08-14,2024-08-14,ジェイエル合同会社,,合同会社,東京都,東久留米市,浅間町３丁目６番１３号,,13,222,2030012,,,,,,,2024-08-14,1,,,,,ジェイエル,0
670,3012801023398,新規,0,2024-08-14,2024-08-14,ＭＨＫ株式会社,,株式会社,東京都,国分寺市,西元町２丁目８番２号,,13,214,1850023,,,,,,,2024-08-14,1,,,,,エムエイチケイ,0
678,3013301052978,新規,0,2024-08-14,2024-08-14,ＯＫＡＥＲＩ株式会社,,株式会社,東京都,豊島区,東池袋１丁目３４番５号,,13,116,1700013,,,,,,,2024-08-14,1,,,,,オカエリ,0
679,3013301052986,新規,0,2024-08-14,2024-08-14,３Ｃ株式会社,,株式会社,東京都,豊島区,東池袋４丁目２１－１－４５０９,,13,116,1700013,,,,,,,2024-08-14,1,,,,,スリーシー,0
681,3013305003630,新規,0,2024-08-14,2024-08-14,行政書士法人佳山法務,,その他の設立登記法人,東京都,豊島区,巣鴨３丁目１－１桜並木通りビル３０１,,13,116,1700002,,,,,,,2024-08-14,1,,,,,ヨシヤマホウム,0
696,3020003026756,新規,0,2024-08-14,2024-08-14,ＴＫＳコンサルティング合同会社,,合同会社,神奈川県,横浜市鶴見区,馬場１丁目７番７号,,14,101,2300076,,,,,,,2024-08-14,1,,,,,ティケイエスコンサルティング,0
697,3021001082972,新規,0,2024-08-14,2024-08-14,株式会社ほけん相談ＳＨＯＰ,,株式会社,神奈川県,海老名市,大谷北２丁目２７番３５号,,14,215,2430419,,,,,,,2024-08-14,1,,,,,ホケンソウダンショップ,0
698,3021001083005,新規,0,2024-08-14,2024-08-14,株式会社ＣＯＮＮＥＣＴ,,株式会社,神奈川県,中郡大磯町,大磯４７３－２,,14,341,2550003,,,,,,,2024-08-14,1,,,,,コネクト,0
699,3021001083013,新規,0,2024-08-14,2024-08-14,ＳＫＳホールディングス株式会社,,株式会社,神奈川県,厚木市,みはる野２丁目２番６号,,14,212,2430208,,,,,,,2024-08-14,1,,,,,エスケイエスホールディングス,0
705,3030001161934,新規,0,2024-08-14,2024-08-14,株式会社ＷＡＴＡＮＡＢＥ,,株式会社,埼玉県,朝霞市,溝沼７丁目１２番８号,,11,227,3510023,,,,,,,2024-08-14,1,,,,,ワタナベ,0
706,3030001161950,新規,0,2024-08-14,2024-08-14,株式会社Ｆｏｒ　ＡＬＬ,,株式会社,埼玉県,さいたま市中央区,新中里５丁目１２－３１,,11,105,3380011,,,,,,,2024-08-14,1,,,,,フォーオール,0
707,3030001161959,新規,0,2024-08-14,2024-08-14,株式会社リテック,,株式会社,埼玉県,児玉郡上里町,大字忍保１２８３番地１,,11,385,3690303,,,,,,,2024-08-14,1,,,,,リテック,0
708,3030001161967,新規,0,2024-08-14,2024-08-14,株式会社ＴＥＮＴ,,株式会社,埼玉県,草加市,苗塚町６０２番地６,,11,221,3400036,,,,,,,2024-08-14,1,,,,,テント,0
709,3030001161983,新規,0,2024-08-14,2024-08-14,株式会社サムライコンサルティング,,株式会社,埼玉県,さいたま市西区,大字内野本郷９９２番地１１,,11,101,3310045,,,,,,,2024-08-14,1,,,,,サムライコンサルティング,0
716,3040001134930,新規,0,2024-08-14,2024-08-14,ＶｏｇｕｅＶｏｒｔｅｘ株式会社,,株式会社,千葉県,市川市,相之川４丁目４番１３－３０１号（吉田ビル）,,12,203,2720143,,,,,,,2024-08-14,1,,,,,ヴォーグボルテックス,0
717,3040001134939,新規,0,2024-08-14,2024-08-14,株式会社エフォール,,株式会社,千葉県,野田市,岩名１７４８番地の６,,12,208,2780055,,,,,,,2024-08-14,1,,,,,エフォール,0
720,3060001037396,新規,0,2024-08-14,2024-08-14,城西商事株式会社,,株式会社,栃木県,矢板市,扇町２丁目１５２５番地８,,09,211,3292161,,,,,,,2024-08-14,1,,,,,ジョウサイショウジ,0
722,3070001042081,新規,0,2024-08-14,2024-08-14,株式会社Ｒｅａｌｉｚｅ,,株式会社,群馬県,館林市,花山町１８番地の１,,10,207,3740005,,,,,,,2024-08-14,1,,,,,リアライズ,0
726,3080001026447,新規,0,2024-08-14,2024-08-14,株式会社しまだ不動産,,株式会社,静岡県,静岡市清水区,梅ヶ谷２３番地の４,,22,103,4240001,,,,,,,2024-08-14,1,,,,,シマダフドウサン,0
728,3080003003279,新規,0,2024-08-14,2024-08-14,合同会社エフォート,,合同会社,静岡県,静岡市駿河区,中原８５９番地の５,,22,102,4228058,,,,,,,2024-08-14,1,,,,,エフォート,0
729,3080101024953,新規,0,2024-08-14,2024-08-14,株式会社まるは園,,株式会社,静岡県,富士市,中野７３４番地,,22,210,4170809,,,,,,,2024-08-14,1,,,,,マルハエン,0
744,3120001267672,新規,0,2024-08-14,2024-08-14,株式会社ＲＩＲＥＳ,,株式会社,大阪府,交野市,東倉治３丁目１０番４－１号,,27,230,5760061,,,,,,,2024-08-14,1,,,,,リリス,0
745,3120001267680,新規,0,2024-08-14,2024-08-14,ＤＩＡＬＯＧＵＥ株式会社,,株式会社,大阪府,大阪市住吉区,長居東４丁目４－１５ペリドット長居公園６０２,,27,120,5580004,,,,,,,2024-08-14,1,,,,,ダイアログ,0
746,3120001267697,新規,0,2024-08-14,2024-08-14,株式会社フクロク工作所,,株式会社,大阪府,大阪市西淀川区,大野３丁目７番２４号,,27,113,5550043,,,,,,,2024-08-14,1,,,,,フクロクコウサクショ,0
747,3120001267739,新規,0,2024-08-14,2024-08-14,株式会社シャンテノ,,株式会社,大阪府,大阪市中央区,森ノ宮中央２丁目２番４号,,27,128,5400003,,,,,,,2024-08-14,1,,,,,シャンテノ,0
748,3120001267755,新規,0,2024-08-14,2024-08-14,株式会社山崎興業,00135936,株式会社,大阪府,門真市,下馬伏町２７番２２号,,27,223,5710009,,,,,,,2024-08-14,1,,,,,ヤマサキコウギョウ,0
749,3120001267796,新規,0,2024-08-14,2024-08-14,靖成貿易株式会社,,株式会社,大阪府,大阪市西成区,萩之茶屋２丁目８－３ハイツニューコンパ３０５,,27,122,5570004,,,,,,,2024-08-14,1,,,,,ジョウジョウボウエキ,0
753,3120003027281,新規,0,2024-08-14,2024-08-14,合同会社一枚岩,,合同会社,大阪府,大阪市生野区,桃谷４丁目１５番７号３階,,27,116,5440034,,,,,,,2024-08-14,1,,,,,イチマイイワ,0
754,3120003027298,新規,0,2024-08-14,2024-08-14,合同会社ベルフラット,,合同会社,大阪府,大阪市淀川区,西宮原３丁目１番１９－１００８号,,27,123,5320004,,,,,,,2024-08-14,1,,,,,ベルフラット,0
755,3120003027307,新規,0,2024-08-14,2024-08-14,合同会社えがお,,合同会社,大阪府,大阪市中央区,農人橋３丁目１番１号Ｖｉｎｏプレジオ本町１５０４,,27,128,5400011,,,,,,,2024-08-14,1,,,,,エガオ,0
757,3120101070159,新規,0,2024-08-14,2024-08-14,株式会社ｍ・ｇ,,株式会社,大阪府,大阪狭山市,大野台４丁目３番１１号,,27,231,5890023,,,,,,,2024-08-14,1,,,,,エムジー,0
758,3120901049609,新規,0,2024-08-14,2024-08-14,株式会社Ｐｏｎｏ,,株式会社,大阪府,摂津市,千里丘東１丁目１２番１１号,,27,224,5660011,,,,,,,2024-08-14,1,,,,,ポノ,0
759,3120901049617,新規,0,2024-08-14,2024-08-14,Ｃｏ‐Ｃｒｅａｔｉｏｎ　Ｌａｂｏｒａｔｏｒｙ株式会社,,株式会社,大阪府,茨木市,彩都やまぶき２丁目２番Ｂ－１２０８号,,27,211,5670086,,,,,,,2024-08-14,1,,,,,コークリエイションラボラトリー,0
760,3120903005304,新規,0,2024-08-14,2024-08-14,合同会社ウィーコネクト,,合同会社,大阪府,茨木市,新和町１７番２２－３号,,27,211,5670855,,,,,,,2024-08-14,1,,,,,ウィーコネクト,0
765,3130001077690,新規,0,2024-08-14,2024-08-14,株式会社一冷,,株式会社,京都府,京都市伏見区,醍醐内ケ井戸１８番地１音羽の杜倉庫２Ｆ－１,,26,109,6011302,,,,,,,2024-08-14,1,,,,,イチレイ,0
766,3130001077699,新規,0,2024-08-14,2024-08-14,株式会社シンジケート,,株式会社,京都府,京都市東山区,宮川筋四条下る宮川筋五丁目３５２番地７,,26,105,6050000,,,,,,,2024-08-14,1,,,,,シンジケート,0
767,3130003009758,新規,0,2024-08-14,2024-08-14,合同会社Ｃｏｎｃｏｒｄ,,合同会社,京都府,京都市下京区,大黒町２２７番地第２キョートビル４０２,,26,106,6008043,,,,,,,2024-08-14,1,,,,,コンコード,0
773,3140001135472,新規,0,2024-08-14,2024-08-14,ＲｏＷｍａｎ株式会社,,株式会社,兵庫県,加古川市,加古川町稲屋３１４番地の７,,28,210,6750034,,,,,,,2024-08-14,1,,,,,ロウマン,0
774,3140001135480,新規,0,2024-08-14,2024-08-14,株式会社ＳｏＩＬ,,株式会社,兵庫県,加古川市,平岡町新在家８７１番地の８,,28,210,6750101,,,,,,,2024-08-14,1,,,,,ソイル,0
775,3140001135489,新規,0,2024-08-14,2024-08-14,株式会社ＥＶｉＳ,,株式会社,兵庫県,尼崎市,戸ノ内町５丁目１０番４号,,28,202,6610961,,,,,,,2024-08-14,1,,,,,エビス,0
776,3140001135497,新規,0,2024-08-14,2024-08-14,結宝観光株式会社,,株式会社,兵庫県,宝塚市,大原野字岡田１２番地,,28,214,6691211,,,,,,,2024-08-14,1,,,,,ユイホウカンコウ,0
777,3140001135506,新規,0,2024-08-14,2024-08-14,株式会社ＡＲＧＡＭＡ,,株式会社,兵庫県,西宮市,浜甲子園２丁目１７－７,,28,204,6638154,,,,,,,2024-08-14,1,,,,,アーガマ,0
778,3140001135514,新規,0,2024-08-14,2024-08-14,ＫＯＨＡ株式会社,,株式会社,兵庫県,神戸市長田区,苅藻通４丁目４番１０号,,28,106,6530032,,,,,,,2024-08-14,1,,,,,コーハ,0
781,3160001026158,新規,0,2024-08-14,2024-08-14,株式会社ＭＡＲＵＳＥＩ,,株式会社,滋賀県,長浜市,七条町９６０番地,,25,203,5260817,,,,,,,2024-08-14,1,,,,,マルセイ,0
782,3160001026166,新規,0,2024-08-14,2024-08-14,株式会社エルノックス,,株式会社,滋賀県,大津市,京町４丁目５番１３号,,25,201,5200044,,,,,,,2024-08-14,1,,,,,エルノックス,0
787,3180001162843,新規,0,2024-08-14,2024-08-14,株式会社コレクションＣａｒ,,株式会社,愛知県,瀬戸市,南ケ丘町７０番地,,23,204,4890955,,,,,,,2024-08-14,1,,,,,コレクションカー,0
792,3180003027227,新規,0,2024-08-14,2024-08-14,合同会社金獅子,,合同会社,愛知県,名古屋市東区,泉１丁目１２番２５号シティタワー名古屋久屋大通公園１５０６号,,23,102,4610001,,,,,,,2024-08-14,1,,,,,キンジシ,0
794,3180303006228,新規,0,2024-08-14,2024-08-14,合同会社ＧＥＡＲ,,合同会社,愛知県,豊川市,緑町５５番地,,23,207,4420049,,,,,,,2024-08-14,1,,,,,ギア,0
797,3210003001830,新規,0,2024-08-14,2024-08-14,合同会社優和,,合同会社,福井県,鯖江市,水落町１丁目１２番６号,,18,207,9160022,,,,,,,2024-08-14,1,,,,,ユウワ,0
802,3230001020491,新規,0,2024-08-14,2024-08-14,株式会社ＭＳトレーディング,,株式会社,富山県,富山市,八町４９０７番地１,,16,201,9302226,,,,,,,2024-08-14,1,,,,,エムエストレーディング,0
806,3230003002273,新規,0,2024-08-14,2024-08-14,合同会社ＣｈｏｕＣｈｏｕｎａ,,合同会社,富山県,富山市,婦中町友坂７０２,,16,201,9392759,,,,,,,2024-08-14,1,,,,,シュシュナ,0
811,3260003004845,新規,0,2024-08-14,2024-08-14,合同会社エスタ,,合同会社,岡山県,倉敷市,吉岡３８８番地１３（１階）,,33,202,7100842,,,,,,,2024-08-14,1,,,,,エスタ,0
812,3280001009233,新規,0,2024-08-14,2024-08-14,Ｂｌｕｅ　ｐｒｉｎｔ株式会社,,株式会社,島根県,出雲市,渡橋町３３４－１,,32,203,6930004,,,,,,,2024-08-14,1,,,,,ブループリント,0
819,3290801030726,新規,0,2024-08-14,2024-08-14,徳晟株式会社,,株式会社,福岡県,田川郡川崎町,大字田原９８,,40,605,8270004,,,,,,,2024-08-14,1,,,,,トクセイ,0
823,3300003002167,新規,0,2024-08-14,2024-08-14,合同会社ＫＴカンパニー,,合同会社,佐賀県,三養基郡みやき町,大字白壁２７０４番地１ウィンノーブルＡ棟２０１,,41,346,8490111,,,,,,,2024-08-14,1,,,,,ケーティーカンパニー,0
828,3330003010522,新規,0,2024-08-14,2024-08-14,合同会社ＭＯＡＮＡ,,合同会社,熊本県,上天草市,大矢野町上８０７５番地１,,43,212,8693602,,,,,,,2024-08-14,1,,,,,モアナ,0
832,3360001034058,新規,0,2024-08-14,2024-08-14,株式会社常設備,,株式会社,沖縄県,沖縄市,桃原２丁目４番１０号,,47,211,9042164,,,,,,,2024-08-14,1,,,,,ツネセツビ,0
839,3370001051639,新規,0,2024-08-14,2024-08-14,東北モニター販売株式会社,,株式会社,宮城県,仙台市宮城野区,燕沢東３丁目１２番１７号,,04,102,9830822,,,,,,,2024-08-14,1,,,,,トウホクモニターハンバイ,0
840,3370001051647,新規,0,2024-08-14,2024-08-14,奥山総業株式会社,,株式会社,宮城県,宮城郡利府町,青山４丁目２番地１３,,04,406,9810131,,,,,,,2024-08-14,1,,,,,オクヤマソウギョウ,0
848,3390001017712,新規,0,2024-08-14,2024-08-14,株式会社ＮＡＯ設備,,株式会社,山形県,山形市,千歳２丁目９番７－９号,,06,201,9900812,,,,,,,2024-08-14,1,,,,,ナオセツビ,0
849,3420001018830,新規,0,2024-08-14,2024-08-14,株式会社東日本機器管財,,株式会社,青森県,黒石市,岩木町７５番地,,02,204,0360318,,,,,,,2024-08-14,1,,,,,ヒガシニホンキキカンザイ,0
850,3420005007920,新規,0,2024-08-14,2024-08-14,たなか税理士法人,,その他の設立登記法人,青森県,五所川原市,大字小曲字豊里７番地３,,02,205,0370076,,,,,,,2024-08-14,1,,,,,タナカ,0
855,3430001092461,新規,0,2024-08-14,2024-08-14,株式会社Ｃｒｅｓｔ,,株式会社,北海道,札幌市東区,北二十五条東１６丁目２番２５－１０３号グランメールＮ２５元町,,01,103,0650025,,,,,,,2024-08-14,1,,,,,クレスト,0
857,3480003002166,新規,0,2024-08-14,2024-08-14,合同会社ノビルＢ　Ｅｘｔｅｎｄ,,合同会社,徳島県,海部郡牟岐町,大字牟岐浦字浜崎１３８番地２,,36,383,7750011,,,,,,,2024-08-14,1,,,,,ノビルビーエクステンド,0
858,3490001010855,新規,0,2024-08-14,2024-08-14,株式会社大野塗装店,,株式会社,高知県,高知市,朝倉丙１５９５番地６０,,39,201,7808063,,,,,,,2024-08-14,1,,,,,,0
867,4010001247305,新規,0,2024-08-14,2024-08-14,株式会社ねこのてさがし,,株式会社,東京都,文京区,湯島３丁目４３番８号クリスタルユシマ１０３,,13,105,1130034,,,,,,,2024-08-14,1,,,,,ネコノテサガシ,0
868,4010001247321,新規,0,2024-08-14,2024-08-14,ピースエントリーアライアンス株式会社,,株式会社,東京都,千代田区,永田町２丁目４－１１フレンドビル３階,,13,101,1000014,,,,,,,2024-08-14,1,,,,,ピースエントリーアライアンス,0
869,4010001247387,新規,0,2024-08-14,2024-08-14,株式会社ＷｉｓｅＷｅａｌｔｈ,,株式会社,東京都,中央区,佃２丁目１番２－３５１５号,,13,102,1040051,,,,,,,2024-08-14,1,,,,,ワイズウェルス,0
870,4010001247429,新規,0,2024-08-14,2024-08-14,アンドマーケティング株式会社,,株式会社,東京都,中央区,日本橋室町１丁目２－６日本橋大栄ビル７階,,13,102,1030022,,,,,,,2024-08-14,1,,,,,アンドマーケティング,0
872,4010003044485,新規,0,2024-08-14,2024-08-14,合同会社ジュピター,,合同会社,東京都,千代田区,二番町３番地麹町スクエア株式会社シリウス・アドバイザリー内,,13,101,1020084,,,,,,,2024-08-14,1,,,,,ジュピター,0
873,4010003044510,新規,0,2024-08-14,2024-08-14,合同会社ホワイトニンフェア,,合同会社,東京都,中央区,日本橋１丁目４番１号,,13,102,1030027,,,,,,,2024-08-14,1,,,,,ホワイトニンフェア,0
874,4010003044568,新規,0,2024-08-14,2024-08-14,ＡＮＨ合同会社,,合同会社,東京都,千代田区,外神田５丁目４番６号,,13,101,1010021,,,,,,,2024-08-14,1,,,,,アイン,0
875,4010003044576,新規,0,2024-08-14,2024-08-14,合同会社Ｃ＆Ｈ,,合同会社,東京都,中央区,銀座１丁目１２－４Ｎ＆Ｅ．ＢＬＤ．７階,,13,102,1040061,,,,,,,2024-08-14,1,,,,,シーアンドエッチ,0
876,4010003044592,新規,0,2024-08-14,2024-08-14,合同会社ＭＥＮＳ,,合同会社,東京都,中央区,日本橋蛎殻町１丁目３７番１２－７１５号,,13,102,1030014,,,,,,,2024-08-14,1,,,,,メンス,0
882,4010101016279,新規,0,2024-08-14,2024-08-14,株式会社ＵＳＮＥＯ,,株式会社,東京都,八王子市,下柚木１６２４番地６７,,13,201,1920372,,,,,,,2024-08-14,1,,,,,アスネオ,0
892,4010401184420,新規,0,2024-08-14,2024-08-14,株式会社Ｍｅｉｌｌｅｕｒ,,株式会社,東京都,港区,南青山３丁目１番３６号青山丸竹ビル６Ｆ,,13,103,1070062,,,,,,,2024-08-14,1,,,,,メイユール,0
893,4010401184486,新規,0,2024-08-14,2024-08-14,株式会社Ｊａｐａｎ　Ｓｈｅｅｐ　Ｔｒａｄｅ,,株式会社,東京都,港区,麻布十番２丁目１９番１１号パークサイド麻布４０１,,13,103,1060045,,,,,,,2024-08-14,1,,,,,ジャパンシープトレード,0
894,4010401184528,新規,0,2024-08-14,2024-08-14,ｔａｌｅｎｔｇａｔｅ株式会社,,株式会社,東京都,港区,白金５丁目１２－２３ｔｒｉａｓ２２３,,13,103,1080072,,,,,,,2024-08-14,1,,,,,タレントゲート,0
897,4010405023459,新規,0,2024-08-14,2024-08-14,一般社団法人ＰＲＩＮＣＥＳＳ,,その他の設立登記法人,東京都,港区,六本木２丁目４番９号,,13,103,1060032,,,,,,,2024-08-14,1,,,,,プリンセス,0
899,4010501052766,新規,0,2024-08-14,2024-08-14,株式会社バイオセミジャパン,,株式会社,東京都,台東区,柳橋１丁目３０番５号ドヌール柳橋弐番館３０２,,13,106,1110052,,,,,,,2024-08-14,1,,,,,バイオセミジャパン,0
901,4010503007529,新規,0,2024-08-14,2024-08-14,ＡｌｔＭｅｄ　Ｊａｐａｎ合同会社,,合同会社,東京都,台東区,鳥越２丁目８－６、１階,,13,106,1110054,,,,,,,2024-08-14,1,,,,,オルトメッドジャパン,0
902,4010503007545,新規,0,2024-08-14,2024-08-14,合同会社Ｆ‐Ｐａｒｔｎｅｒ,,合同会社,東京都,台東区,蔵前３丁目２０番３―７０２号,,13,106,1110051,,,,,,,2024-08-14,1,,,,,エフパートナー,0
911,4010901055781,新規,0,2024-08-14,2024-08-14,株式会社ＷＮＯＸ,,株式会社,東京都,世田谷区,南烏山６丁目５番７号明光ビル新館１０３,,13,112,1570062,,,,,,,2024-08-14,1,,,,,ダブルノックス,0
914,4010903009281,新規,0,2024-08-14,2024-08-14,合同会社ＭＩエンタープライズ,,合同会社,東京都,世田谷区,桜新町１丁目２７番７号,,13,112,1540015,,,,,,,2024-08-14,1,,,,,エムアイエンタープライズ,0
924,4011001164028,新規,0,2024-08-14,2024-08-14,株式会社ＵＮＩＭＩＴＡ,,株式会社,東京都,渋谷区,元代々木町１０番７号代々木五月ビル２０３,,13,113,1510062,,,,,,,2024-08-14,1,,,,,アニミテ,0
925,4011001164069,新規,0,2024-08-14,2024-08-14,ＥＳＣＡＰＥ株式会社,,株式会社,東京都,渋谷区,恵比寿４丁目２０番３号恵比寿ガーデンプレイスタワー１４階,,13,113,1500013,,,,,,,2024-08-14,1,,,,,エスケープ,0
926,4011003019816,新規,0,2024-08-14,2024-08-14,合同会社高宮アセット,,合同会社,東京都,渋谷区,神宮前６丁目２３番４号桑野ビル２階,,13,113,1500001,,,,,,,2024-08-14,1,,,,,タカミヤアセット,0
927,4011003019824,新規,0,2024-08-14,2024-08-14,雅ソリューションズ合同会社,,合同会社,東京都,目黒区,上目黒５丁目１７番２０号上目黒ハイムアネックス１０３,,13,110,1530051,,,,,,,2024-08-14,1,,,,,マサソリューションズ,0
932,4011101108231,新規,0,2024-08-14,2024-08-14,Ｒｅｆｒｅｅ株式会社,,株式会社,東京都,新宿区,新宿１丁目９番４号中公ビル御苑グリーンハイツ６０１,,13,104,1600022,,,,,,,2024-08-14,1,,,,,リフリー,0
933,4011101108454,新規,0,2024-08-14,2024-08-14,まつおマネジメント株式会社,,株式会社,東京都,新宿区,西新宿１丁目２６番２号新宿野村ビル３２階,,13,104,1600023,,,,,,,2024-08-14,1,,,,,マツオマネジメント,0
934,4011103014790,新規,0,2024-08-14,2024-08-14,合同会社２ｎｄＢａｂｙ,,合同会社,東京都,新宿区,歌舞伎町２丁目１１番７号メトロビル２Ｆ,,13,104,1600021,,,,,,,2024-08-14,1,,,,,セカンドベイビー,0
935,4011201025723,新規,0,2024-08-14,2024-08-14,株式会社メディカル・ナレッジ・マネジメント,,株式会社,東京都,中野区,東中野３丁目２４番１１－８０３号,,13,114,1640003,,,,,,,2024-08-14,1,,,,,メディカルナレッジマネジメント,0
936,4011301029921,新規,0,2024-08-14,2024-08-14,株式会社不二美,,株式会社,東京都,杉並区,高円寺南４丁目７番３サンシャイン高円寺８０３号,,13,115,1660003,,,,,,,2024-08-14,1,,,,,フジミ,0
938,4011503006181,新規,0,2024-08-14,2024-08-14,ＲＥＰ　Ｊａｐａｎ合同会社,,合同会社,東京都,北区,滝野川３丁目９番２号西巣鴨ＫＴＢビル３０１号室,,13,117,1140023,,,,,,,2024-08-14,1,,,,,レップジャパン,0
942,4011801044684,新規,0,2024-08-14,2024-08-14,株式会社ますやま電気,,株式会社,東京都,葛飾区,鎌倉２丁目２０番９号,,13,122,1250053,,,,,,,2024-08-14,1,,,,,マスヤマデンキ,0
943,4011801044701,新規,0,2024-08-14,2024-08-14,株式会社アーガイル,,株式会社,東京都,葛飾区,新小岩２丁目７番１４号,,13,122,1240024,,,,,,,2024-08-14,1,,,,,アーガイル,0
944,4011803006393,新規,0,2024-08-14,2024-08-14,合同会社ＨＳＨ・ジャパン,,合同会社,東京都,葛飾区,高砂３丁目１５番１０号,,13,122,1250054,,,,,,,2024-08-14,1,,,,,エイチエスエイチジャパン,0
945,4012303002032,新規,0,2024-08-14,2024-08-14,合同会社未来製作所,,合同会社,東京都,町田市,中町１丁目４番２号,,13,209,1940021,,,,,,,2024-08-14,1,,,,,ミライセイサクジョ,0
946,4012401042178,新規,0,2024-08-14,2024-08-14,株式会社ＣＯＭＯＤＯ　ＨＯＵＳＥ,,株式会社,東京都,狛江市,和泉本町１丁目２７番１号,,13,219,2010003,,,,,,,2024-08-14,1,,,,,コモドハウス,0
947,4012801023397,新規,0,2024-08-14,2024-08-14,株式会社渋谷工業,,株式会社,東京都,立川市,砂川町７丁目５１番地の２６,,13,202,1900031,,,,,,,2024-08-14,1,,,,,シブヤコウギョウ,0
949,4013301052977,新規,0,2024-08-14,2024-08-14,株式会社８８,,株式会社,東京都,豊島区,東池袋１丁目２５番６号ＰＭＯ池袋１２階,,13,116,1700013,,,,,,,2024-08-14,1,,,,,パチパチ,0
955,4020001158468,新規,0,2024-08-14,2024-08-14,株式会社ＥＳＴ,,株式会社,神奈川県,横浜市金沢区,富岡西４丁目１１番１６号,,14,108,2360052,,,,,,,2024-08-14,1,,,,,イーエスティー,0
956,4020001158501,新規,0,2024-08-14,2024-08-14,株式会社ナノインパクト,,株式会社,神奈川県,横浜市中区,吉浜町１番地９,,14,104,2310024,,,,,,,2024-08-14,1,,,,,ナノインパクト,0
960,4020003026631,新規,0,2024-08-14,2024-08-14,合同会社綺心,,合同会社,神奈川県,横浜市港南区,港南台７丁目２２番４号,,14,111,2340054,,,,,,,2024-08-14,1,,,,,キコ,0
964,4021001082971,新規,0,2024-08-14,2024-08-14,株式会社フラワー,,株式会社,神奈川県,秦野市,戸川５１５番地の２３,,14,211,2591306,,,,,,,2024-08-14,1,,,,,フラワー,0
965,4021001082996,新規,0,2024-08-14,2024-08-14,株式会社ＷＡＶＥ,,株式会社,神奈川県,藤沢市,花の木１４番４号,,14,205,2510874,,,,,,,2024-08-14,1,,,,,ウェーブ,0
978,4030001161883,新規,0,2024-08-14,2024-08-14,株式会社ＴＩＦ,,株式会社,埼玉県,所沢市,若松町１０５５番地の１１,,11,208,3590032,,,,,,,2024-08-14,1,,,,,ティーアイエフ,0
979,4030001161900,新規,0,2024-08-14,2024-08-14,玉成株式会社,,株式会社,埼玉県,蕨市,中央１丁目１６番４０号コスモ蕨７１０,,11,223,3350004,,,,,,,2024-08-14,1,,,,,タマナリ,0
980,4030001161909,新規,0,2024-08-14,2024-08-14,株式会社８８,,株式会社,埼玉県,川口市,江戸袋１丁目１５番５号,,11,203,3340075,,,,,,,2024-08-14,1,,,,,ハチハチ,0
981,4030001161917,新規,0,2024-08-14,2024-08-14,Ｆ＆Ｆ株式会社,,株式会社,埼玉県,熊谷市,中奈良１４４９番地１,,11,202,3600801,,,,,,,2024-08-14,1,,,,,エフアンドエフ,0
982,4030001161925,新規,0,2024-08-14,2024-08-14,株式会社恵成不動産,,株式会社,埼玉県,入間市,大字仏子８７９番地２０（３階）,,11,225,3580053,,,,,,,2024-08-14,1,,,,,ケイセイフドウサン,0
983,4030001161933,新規,0,2024-08-14,2024-08-14,マルマン設備工事株式会社,,株式会社,埼玉県,さいたま市岩槻区,本丸１丁目１８番１号,,11,110,3390058,,,,,,,2024-08-14,1,,,,,マルマンセツビコウジ,0
984,4030001161958,新規,0,2024-08-14,2024-08-14,株式会社ＫＯＫＥＮ,,株式会社,埼玉県,越谷市,大字小曽川４１０番地３,,11,222,3430802,,,,,,,2024-08-14,1,,,,,コーケン,0
985,4030001161966,新規,0,2024-08-14,2024-08-14,エスアンドエム株式会社,,株式会社,埼玉県,川口市,戸塚東４丁目２４番１－３０６号,,11,203,3330802,,,,,,,2024-08-14,1,,,,,エスアンドエム,0
986,4030001161982,新規,0,2024-08-14,2024-08-14,株式会社Ｋ・Ｙ,,株式会社,埼玉県,三郷市,番匠免１丁目２０９番地３,,11,237,3410056,,,,,,,2024-08-14,1,,,,,ケイワイ,0
990,4030003024865,新規,0,2024-08-14,2024-08-14,ＴＲＡＤＩＴＩＯＮＯＷ合同会社,,合同会社,埼玉県,越谷市,越ヶ谷３丁目３番１６号２階,,11,222,3430813,,,,,,,2024-08-14,1,,,,,トラディショナウ,0
991,4030003024898,新規,0,2024-08-14,2024-08-14,ＨＬ合同会社,,合同会社,埼玉県,坂戸市,南町３４番７号ＫＩＶオフィス南町Ｂ号室,,11,239,3500233,,,,,,,2024-08-14,1,,,,,エイチエル,0
992,4030003024915,新規,0,2024-08-14,2024-08-14,合同会社Ｒｉｓｅ,,合同会社,埼玉県,越谷市,神明町２丁目３９０番,,11,222,3430805,,,,,,,2024-08-14,1,,,,,ライズ,0
993,4030003024923,新規,0,2024-08-14,2024-08-14,ｂａｍｂｏｏ合同会社,,合同会社,埼玉県,狭山市,大字堀兼７４６番地の１,,11,215,3501312,,,,,,,2024-08-14,1,,,,,バンブー,0
994,4030003024931,新規,0,2024-08-14,2024-08-14,合同会社カントリーベア,,合同会社,埼玉県,川口市,大字神戸７９５番地の８,,11,203,3330832,,,,,,,2024-08-14,1,,,,,カントリーベア,0
1003,4060001037379,新規,0,2024-08-14,2024-08-14,パーチェ株式会社,,株式会社,栃木県,宇都宮市,戸祭１丁目１番２８号,,09,201,3200056,,,,,,,2024-08-14,1,,,,,パーチェ,0
1008,4080001026438,新規,0,2024-08-14,2024-08-14,株式会社タイズ・エステート,,株式会社,静岡県,藤枝市,駅前１丁目２０番３号,,22,214,4260034,,,,,,,2024-08-14,1,,,,,タイズエステート,0
1009,4080001026446,新規,0,2024-08-14,2024-08-14,株式会社ＭＹＴＲＤ,,株式会社,静岡県,静岡市駿河区,池田１３８２番地の１１４,,22,102,4228005,,,,,,,2024-08-14,1,,,,,マイティーアールディ,0
1010,4080101024952,新規,0,2024-08-14,2024-08-14,ＳＧＹＭ株式会社,,株式会社,静岡県,富士宮市,舞々木町４４５番地の３,,22,207,4180015,,,,,,,2024-08-14,1,,,,,エスジーワイエム,0
1011,4080103003120,新規,0,2024-08-14,2024-08-14,合同会社ｉｒｉｓ,,合同会社,静岡県,裾野市,伊豆島田３４９番地の２,,22,220,4101123,,,,,,,2024-08-14,1,,,,,アイリス,0
1021,4100001037705,新規,0,2024-08-14,2024-08-14,株式会社オフィス保健室,,株式会社,長野県,北佐久郡軽井沢町,軽井沢東１４番地１５グリーンコーピアス軽井沢１０３,,20,321,3890104,,,,,,,2024-08-14,1,,,,,オフィスホケンシツ,0
1024,4100003007714,新規,0,2024-08-14,2024-08-14,合同会社とびら,,合同会社,長野県,北佐久郡御代田町,大字馬瀬口１５９７番地４８５,,20,323,3890207,,,,,,,2024-08-14,1,,,,,トビラ,0
1039,4120001267663,新規,0,2024-08-14,2024-08-14,Ｃｅｌｌ　Ｌｅａｄ　Ｉｎｔｅｒｎａｔｉｏｎａｌ株式会社,,株式会社,大阪府,大阪市中央区,島町２丁目１番１５号,,27,128,5400034,,,,,,,2024-08-14,1,,,,,セルリードインターナショナル,0
1040,4120001267688,新規,0,2024-08-14,2024-08-14,株式会社ルイコーポレーション,,株式会社,大阪府,大阪市北区,梅田１丁目２番２号大阪駅前第２ビル１２－１２,,27,127,5300001,,,,,,,2024-08-14,1,,,,,ルイコーポレーション,0
1041,4120001267705,新規,0,2024-08-14,2024-08-14,株式会社ＳＭＴＭ,,株式会社,大阪府,大阪市淀川区,新高３丁目１１番３－２１０５号,,27,123,5320033,,,,,,,2024-08-14,1,,,,,エスエムティーエム,0
1042,4120001267721,新規,0,2024-08-14,2024-08-14,株式会社Ｅ．Ｎ．Ｉ,,株式会社,大阪府,大阪市北区,梅田１丁目２番２号大阪駅前第２ビル１２－１２,,27,127,5300001,,,,,,,2024-08-14,1,,,,,イーエヌアイ,0
1043,4120001267738,新規,0,2024-08-14,2024-08-14,海天株式会社,,株式会社,大阪府,大阪市東成区,深江北３丁目４番２１号エクラ深江橋７０３Ａ,,27,115,5370001,,,,,,,2024-08-14,1,,,,,カイテン,0
1044,4120001267746,新規,0,2024-08-14,2024-08-14,アイエクスプローラー株式会社,,株式会社,大阪府,大阪市港区,池島３丁目５番３号,,27,107,5520015,,,,,,,2024-08-14,1,,,,,アイエクスプローラー,0
1045,4120001267770,新規,0,2024-08-14,2024-08-14,展達株式会社,,株式会社,大阪府,大阪市生野区,桃谷３丁目２０番２５号桃谷ハイツ２０１号室,,27,116,5440034,,,,,,,2024-08-14,1,,,,,テンタツ,0
1054,4120901049608,新規,0,2024-08-14,2024-08-14,株式会社ＯＫＡ,,株式会社,大阪府,豊中市,少路１丁目１５番２５－５０５号,,27,203,5600004,,,,,,,2024-08-14,1,,,,,オーケイエー,0
1055,4120901049616,新規,0,2024-08-14,2024-08-14,株式会社ＩｎｔｅｒＣｏｎｔｉｎｅｎｔａｌ　Ｅｄｕｃａｔｉｏｎ,,株式会社,大阪府,箕面市,船場東３丁目２－１１,,27,220,5620035,,,,,,,2024-08-14,1,,,,,インターコンチネンタルエデュケーション,0
1066,4140001135471,新規,0,2024-08-14,2024-08-14,株式会社ヴェントス,,株式会社,兵庫県,尼崎市,南武庫之荘２丁目６番５号小川ビル３階,,28,202,6610033,,,,,,,2024-08-14,1,,,,,ヴェントス,0
1067,4140001135488,新規,0,2024-08-14,2024-08-14,株式会社アンファン,,株式会社,兵庫県,伊丹市,中央１丁目５番５号ボントンビル４Ｆ,,28,207,6640851,,,,,,,2024-08-14,1,,,,,アンファン,0
1068,4140001135496,新規,0,2024-08-14,2024-08-14,株式会社コアテック,,株式会社,兵庫県,西宮市,越水町３番２５号,,28,204,6620864,,,,,,,2024-08-14,1,,,,,コアテック,0
1069,4140001135505,新規,0,2024-08-14,2024-08-14,株式会社ＢＥＳＳＨＯ　ＢＬＯＯＤ　ＢＲＯＴＨＥＲＳ,,株式会社,兵庫県,神戸市灘区,桜口町５丁目１番１１６号,,28,102,6570036,,,,,,,2024-08-14,1,,,,,ベッショブラッドブラザーズ,0
1074,4160001026157,新規,0,2024-08-14,2024-08-14,ＮＥＵＲＯ　ＣＡＲＥ　ＴＥＣＨ株式会社,,株式会社,滋賀県,長浜市,大辰巳町３６番地第１７森野ビル１階,,25,203,5260834,,,,,,,2024-08-14,1,,,,,ニューロケアテック,0
1084,4180001162826,新規,0,2024-08-14,2024-08-14,株式会社Ｖｏｙａｇｅ,,株式会社,愛知県,名古屋市名東区,豊が丘２９０６番地,,23,115,4650035,,,,,,,2024-08-14,1,,,,,ボヤージュ,0
1085,4180001162850,新規,0,2024-08-14,2024-08-14,株式会社Ｒｉｎｇ,,株式会社,愛知県,名古屋市中川区,烏森町字四反畑１２１番地丸八ビル３０３,,23,110,4540819,,,,,,,2024-08-14,1,,,,,リング,0
1086,4180001162859,新規,0,2024-08-14,2024-08-14,ジャパンスター株式会社,,株式会社,愛知県,名古屋市昭和区,汐見町１１７番地の２,,23,107,4660837,,,,,,,2024-08-14,1,,,,,ジャパンスター,0
1087,4180003027218,新規,0,2024-08-14,2024-08-14,あらい企画合同会社,,合同会社,愛知県,名古屋市名東区,高針２丁目２４０５番地三旺マンション第２星ケ丘東１００２号,,23,115,4650061,,,,,,,2024-08-14,1,,,,,アライキカク,0
1094,4200001042827,新規,0,2024-08-14,2024-08-14,株式会社ライフスタイルインプルーブメント,,株式会社,岐阜県,多治見市,音羽町４丁目４番地の１,,21,204,5070037,,,,,,,2024-08-14,1,,,,,ライフスタイルインプルーブメント,0
1098,4230001020490,新規,0,2024-08-14,2024-08-14,株式会社ハナブサドットマー,,株式会社,富山県,黒部市,新牧野３５３番地ユアーズビル黒部Ｂ棟,,16,207,9380037,,,,,,,2024-08-14,1,,,,,ハナブサドットマー,0
1100,4230003002272,新規,0,2024-08-14,2024-08-14,ＵＲＡＮ．ｃｏｍ合同会社,,合同会社,富山県,魚津市,東尾崎５４８５‐６,,16,204,9370012,,,,,,,2024-08-14,1,,,,,ウランドットコム,0
1105,4270001009035,新規,0,2024-08-14,2024-08-14,白根種苗園株式会社,,株式会社,鳥取県,西伯郡伯耆町,畑池１１３４番地,,31,390,6894234,,,,,,,2024-08-14,1,,,,,シラネシュビョウエン,0
1117,4290801030782,新規,0,2024-08-14,2024-08-14,株式会社雅,,株式会社,福岡県,北九州市八幡西区,御開２丁目２番１０号２－５０１号,,40,109,8070806,,,,,,,2024-08-14,1,,,,,ミヤビ,0
1118,4300001013875,新規,0,2024-08-14,2024-08-14,株式会社イカリクルマ工房,,株式会社,佐賀県,鳥栖市,儀徳町３２５５番地１,,41,203,8410066,,,,,,,2024-08-14,1,,,,,イカリクルマコウボウ,0
1119,4320001020663,新規,0,2024-08-14,2024-08-14,スプーキードラゴン株式会社,,株式会社,大分県,大分市,碩田町３丁目１番３５号１０１号室,,44,201,8700048,,,,,,,2024-08-14,1,,,,,スプーキードラゴン,0
1120,4320001020671,新規,0,2024-08-14,2024-08-14,株式会社重村組,,株式会社,大分県,臼杵市,大字市浜７３４番地の１２,,44,206,8750052,,,,,,,2024-08-14,1,,,,,シゲムラグミ,0
1123,4340001026725,新規,0,2024-08-14,2024-08-14,株式会社神徳フーズ,,株式会社,鹿児島県,いちき串木野市,湊町１５６５番地１,,46,219,8992101,,,,,,,2024-08-14,1,,,,,ジントクフーズ,0
1124,4340001026733,新規,0,2024-08-14,2024-08-14,株式会社ＥＳＴ,,株式会社,鹿児島県,鹿児島市,上之園町６番１０号宮秀ビル１Ｆ,,46,201,8900052,,,,,,,2024-08-14,1,,,,,エスト,0
1128,4360003014222,新規,0,2024-08-14,2024-08-14,合同会社エルポイント,,合同会社,沖縄県,糸満市,字真栄里９０５番地の５,,47,210,9010362,,,,,,,2024-08-14,1,,,,,エルポイント,0
1130,4370001051638,新規,0,2024-08-14,2024-08-14,株式会社パーツセンター宮城,,株式会社,宮城県,登米市,南方町峯１３１番地２,,04,212,9870403,,,,,,,2024-08-14,1,,,,,パーツセンターミヤギ,0
1138,4430001092452,新規,0,2024-08-14,2024-08-14,株式会社わたなべ商会,,株式会社,北海道,札幌市西区,発寒十条５丁目２番２１号,,01,107,0630830,,,,,,,2024-08-14,1,,,,,ワタナベショウカイ,0
1139,4430001092469,新規,0,2024-08-14,2024-08-14,東明逸品株式会社,,株式会社,北海道,石狩市,新港西２丁目７８２番地１,,01,235,0613241,,,,,,,2024-08-14,1,,,,,トウメイイッピン,0
1145,4430005015038,新規,0,2024-08-14,2024-08-14,一般社団法人Ａｎｃｉａｉｌｅ,,その他の設立登記法人,北海道,札幌市中央区,南十七条西１６丁目３番１－１０５号,,01,101,0640917,,,,,,,2024-08-14,1,,,,,アンシエール,0
1147,4460301005243,新規,0,2024-08-14,2024-08-14,株式会社舟山コンサルタント,,株式会社,北海道,北見市,桜町３丁目６３番地１,,01,208,0900804,,,,,,,2024-08-14,1,,,,,フナヤマコンサルタント,0
1148,4470001020351,新規,0,2024-08-14,2024-08-14,株式会社ＲＩＮＴＡＲＯ,,株式会社,香川県,高松市,円座町１１３４番地１７,,37,201,7618044,,,,,,,2024-08-14,1,,,,,リンタロウ,0
1149,4490001010846,新規,0,2024-08-14,2024-08-14,谷脇工務店株式会社,,株式会社,高知県,南国市,大＿甲３５６番地１１,00135938,39,204,7830004,,,,,,,2024-08-14,1,,,,,タニワキコウムテン,0
1150,4490001010854,新規,0,2024-08-14,2024-08-14,ＳＫＹ　ＧＲＯＵＰ株式会社,,株式会社,高知県,高知市,大原町１５０番地,,39,201,7808031,,,,,,,2024-08-14,1,,,,,スカイグループ,0
1152,4500001025818,新規,0,2024-08-14,2024-08-14,株式会社ホープファクトリー,,株式会社,愛媛県,松山市,高浜町１丁目乙６０番地１４７,,38,201,7918081,,,,,,,2024-08-14,1,,,,,ホープファクトリー,0
1153,4500001025826,新規,0,2024-08-14,2024-08-14,山土工業株式会社,,株式会社,愛媛県,松山市,津吉町９６９番地,,38,201,7911122,,,,,,,2024-08-14,1,,,,,ヤマトコウギョウ,0
1158,5010001247221,新規,0,2024-08-14,2024-08-14,株式会社リンカーズＯＩ研究所,,株式会社,東京都,文京区,後楽２丁目３番２１号,,13,105,1120004,,,,,,,2024-08-14,1,,,,,リンカーズオーアイケンキュウジョ,0
1159,5010001247394,新規,0,2024-08-14,2024-08-14,株式会社ＢＳＤ,,株式会社,東京都,中央区,銀座１丁目１２番４号Ｎ＆ＥＢＬＤ．６Ｆ,,13,102,1040061,,,,,,,2024-08-14,1,,,,,ビーエスディー,0
1160,5010001247428,新規,0,2024-08-14,2024-08-14,株式会社アップフォース,,株式会社,東京都,中央区,日本橋３丁目２番１４号新槇町ビル別館第一２階,,13,102,1030027,,,,,,,2024-08-14,1,,,,,アップフォース,0
1161,5010001247485,新規,0,2024-08-14,2024-08-14,株式会社Ｔｒｕｓｔ,,株式会社,東京都,文京区,春日２丁目１９番１２号小石川ウォールズ４０３号室,,13,105,1120003,,,,,,,2024-08-14,1,,,,,トラスト,0
1166,5010003044484,新規,0,2024-08-14,2024-08-14,合同会社マーズ,,合同会社,東京都,千代田区,二番町３番地麹町スクエア株式会社シリウス・アドバイザリー内,,13,101,1020084,,,,,,,2024-08-14,1,,,,,マーズ,0
1167,5010003044526,新規,0,2024-08-14,2024-08-14,合同会社サポート,,合同会社,東京都,中央区,銀座６丁目６番１号銀座風月堂ビル５Ｆ,,13,102,1040061,,,,,,,2024-08-14,1,,,,,サポート,0
1168,5010003044567,新規,0,2024-08-14,2024-08-14,トリンフォワークス合同会社,,合同会社,東京都,中央区,銀座１丁目１２番４号Ｎ＆ＥＢＬＤ．７階,,13,102,1040061,,,,,,,2024-08-14,1,,,,,トリンフォワークス,0
1169,5010003044600,新規,0,2024-08-14,2024-08-14,合同会社ケイティ,,合同会社,東京都,中央区,八丁堀２丁目１１番４－２０１号,,13,102,1040032,,,,,,,2024-08-14,1,,,,,ケイティ,0
1174,5010401184394,新規,0,2024-08-14,2024-08-14,ファムウイズ株式会社,,株式会社,東京都,港区,浜松町２丁目２番１５号浜松町ダイヤビル２Ｆ,,13,103,1050013,,,,,,,2024-08-14,1,,,,,ファムウイズ,0
1175,5010401184444,新規,0,2024-08-14,2024-08-14,Ａｚ株式会社,,株式会社,東京都,港区,虎ノ門５丁目３－２０仙石山アネックス４０５号,,13,103,1050001,,,,,,,2024-08-14,1,,,,,エーゼット,0
1176,5010401184460,新規,0,2024-08-14,2024-08-14,株式会社ウィステリアジャパン,,株式会社,東京都,港区,虎ノ門１丁目１番２０号,,13,103,1050001,,,,,,,2024-08-14,1,,,,,ウィステリアジャパン,0
1177,5010501052749,新規,0,2024-08-14,2024-08-14,株式会社オネストライト,,株式会社,東京都,台東区,三筋１丁目１番１７号,,13,106,1110055,,,,,,,2024-08-14,1,,,,,オネストライト,0
1185,5010901055789,新規,0,2024-08-14,2024-08-14,Ｅｓｔｈｅｒ株式会社,,株式会社,東京都,世田谷区,玉川田園調布１丁目６番５号,,13,112,1580085,,,,,,,2024-08-14,1,,,,,エステル,0
1186,5010903009280,新規,0,2024-08-14,2024-08-14,いと合同会社,,合同会社,東京都,世田谷区,粕谷２丁目２４番１－５３４号,,13,112,1570063,,,,,,,2024-08-14,1,,,,,イト,0
1190,5011001164035,新規,0,2024-08-14,2024-08-14,株式会社ＩＮＮＡＴ　ＤＥＳＩＧＮ,,株式会社,東京都,渋谷区,上原１丁目３番９号,,13,113,1510064,,,,,,,2024-08-14,1,,,,,インアットデザイン,0
1191,5011001164068,新規,0,2024-08-14,2024-08-14,株式会社モビリティエディション,,株式会社,東京都,渋谷区,上原１丁目３２番５号ロイヤルテラス４０２,,13,113,1510064,,,,,,,2024-08-14,1,,,,,モビリティエディション,0
1194,5011003019815,新規,0,2024-08-14,2024-08-14,合同会社ｉｍｍｏｒｖｉａ,,合同会社,東京都,渋谷区,神宮前６丁目２３番４号桑野ビル２階,,13,113,1500001,,,,,,,2024-08-14,1,,,,,イモーヴィア,0
1201,5011101108387,新規,0,2024-08-14,2024-08-14,株式会社ＲＯＹＡＬ,,株式会社,東京都,新宿区,新宿６丁目２７番４８－４０１号,,13,104,1600022,,,,,,,2024-08-14,1,,,,,ロイヤル,0
1202,5011103014708,新規,0,2024-08-14,2024-08-14,ＲＡＩＯＮ　ＣＡＰＩＴＡＬ　ＪＡＰＡＮ３合同会社,,合同会社,東京都,新宿区,大久保１丁目４番２０号グロウハイム大久保３０２号室,,13,104,1690072,,,,,,,2024-08-14,1,,,,,ライオンキャピタルジャパンスリー,0
1213,5011801044675,新規,0,2024-08-14,2024-08-14,Ｔａｎｅｍａｋｕ株式会社,,株式会社,東京都,足立区,千住仲町４４番１３号,,13,121,1200036,,,,,,,2024-08-14,1,,,,,タネマク,0
1214,5011801044683,新規,0,2024-08-14,2024-08-14,亦龍國際株式会社,,株式会社,東京都,葛飾区,堀切７丁目２７番７号名橋ビル４０８号室,,13,122,1240006,,,,,,,2024-08-14,1,,,,,セキリュウコクサイ,0
1215,5011803006401,新規,0,2024-08-14,2024-08-14,Ｌｕｍｉｎｏｕｓ合同会社,,合同会社,東京都,足立区,平野２丁目４番７号,,13,121,1210076,,,,,,,2024-08-14,1,,,,,ルミナス,0
1220,5012403006709,新規,0,2024-08-14,2024-08-14,合同会社インセプション,,合同会社,東京都,武蔵野市,吉祥寺本町１丁目１７番７号,,13,203,1800004,,,,,,,2024-08-14,1,,,,,インセプション,0
1221,5012405005031,新規,0,2024-08-14,2024-08-14,一般社団法人健幸会,,その他の設立登記法人,東京都,武蔵野市,吉祥寺南町４丁目５番１５号,,13,203,1800003,,,,,,,2024-08-14,1,,,,,ケンコウカイ,0
1222,5013301052976,新規,0,2024-08-14,2024-08-14,株式会社ＲＥＤ　ＬＩＯＮ　ＩＮＦＩＮＩＴＹ,,株式会社,東京都,豊島区,池袋本町２丁目６番２号,,13,116,1700011,,,,,,,2024-08-14,1,,,,,レッドライオンインフィニティ,0
1223,5013305003629,新規,0,2024-08-14,2024-08-14,一般社団法人Ｂａｒ　Ｉｎｄｕｓｔｒｙ　Ａｃａｄｅｍｙ,,その他の設立登記法人,東京都,豊島区,南池袋１丁目２１番４号繁昌社南池袋ビル１Ｆ,,13,116,1710022,,,,,,,2024-08-14,1,,,,,バーインダストリーアカデミー,0
1229,5020001158500,新規,0,2024-08-14,2024-08-14,株式会社エスケーホールディングス,,株式会社,神奈川県,横浜市栄区,笠間２丁目２２番２９号,,14,115,2470006,,,,,,,2024-08-14,1,,,,,エスケーホールディングス,0
1230,5020001158541,新規,0,2024-08-14,2024-08-14,株式会社ＫＳＪ設備,,株式会社,神奈川県,横浜市戸塚区,下倉田町１５２３番地２８,,14,110,2440815,,,,,,,2024-08-14,1,,,,,ケイエスジェーセツビ,0
1232,5020005016497,新規,0,2024-08-14,2024-08-14,ＮＰＯ法人さくらグローカルサポート,,その他の設立登記法人,神奈川県,横浜市緑区,霧が丘１丁目２６番地１,,14,113,2260016,,,,,,,2024-08-14,1,,,,,サクラグローカルサポート,0
1235,5021001083003,新規,0,2024-08-14,2024-08-14,三愛工業株式会社,,株式会社,神奈川県,平塚市,西真土３丁目１０番２８号,,14,203,2540019,,,,,,,2024-08-14,1,,,,,サンアイコウギョウ,0
1236,5021001083011,新規,0,2024-08-14,2024-08-14,株式会社ワンタイム,,株式会社,神奈川県,小田原市,曽我原５７８番地８,,14,206,2500206,,,,,,,2024-08-14,1,,,,,ワンタイム,0
1237,5021003014864,新規,0,2024-08-14,2024-08-14,Ｉｎｔｅｌｌｉｇｅｎｃｅ　Ｉｎ　Ｓｏｃｉｅｔｙ合同会社,,合同会社,神奈川県,鎌倉市,津西２丁目２１番１２,,14,204,2480034,,,,,,,2024-08-14,1,,,,,インテリジェンスインソサエティ,0
1238,5021003014889,新規,0,2024-08-14,2024-08-14,合同会社ＭＯＫ　ｍａｒｋｅｔｉｎｇ　ａｇｅｎｃｙ,,合同会社,神奈川県,鎌倉市,稲村ガ崎５丁目３４番８号,,14,204,2480024,,,,,,,2024-08-14,1,,,,,モックマーケティングエージェンシー,0
1244,5030001161908,新規,0,2024-08-14,2024-08-14,株式会社Ｓｈｏｗ,,株式会社,埼玉県,鶴ヶ島市,新町３丁目１６番地５,,11,241,3502227,,,,,,,2024-08-14,1,,,,,ショー,0
1245,5030001161924,新規,0,2024-08-14,2024-08-14,株式会社ＴＲＣ,,株式会社,埼玉県,川越市,大字的場４８８番地１－２０２号室,,11,201,3501101,,,,,,,2024-08-14,1,,,,,ティーアールシー,0
1246,5030001161932,新規,0,2024-08-14,2024-08-14,つきあかり株式会社,,株式会社,埼玉県,志木市,本町１丁目７番５－２号,,11,228,3530004,,,,,,,2024-08-14,1,,,,,ツキアカリ,0
1247,5030001161957,新規,0,2024-08-14,2024-08-14,株式会社フォーワン,,株式会社,埼玉県,さいたま市見沼区,大字大谷１４９番地４,,11,104,3370014,,,,,,,2024-08-14,1,,,,,フォーワン,0
1248,5030001161973,新規,0,2024-08-14,2024-08-14,金子商店株式会社,,株式会社,埼玉県,川越市,大字伊佐沼１４番地,,11,201,3500855,,,,,,,2024-08-14,1,,,,,カネコショウテン,0
1249,5030001161981,新規,0,2024-08-14,2024-08-14,ＤＩＲＥＣＴ　ＪＡＰＡＮ貿易株式会社,,株式会社,埼玉県,白岡市,彦兵衛９１－１５,,11,246,3490224,,,,,,,2024-08-14,1,,,,,ダイレクトジャパンボウエキ,0
1255,5030003024914,新規,0,2024-08-14,2024-08-14,合同会社匠和,,合同会社,埼玉県,吉川市,新栄２丁目１４番地１１,,11,243,3420059,,,,,,,2024-08-14,1,,,,,ショウワ,0
1256,5030003024930,新規,0,2024-08-14,2024-08-14,合同会社ＡＢＥＳ,,合同会社,埼玉県,所沢市,三ケ島４丁目２４０４番地の６メゾンド昴３０２,,11,208,3591164,,,,,,,2024-08-14,1,,,,,アベス,0
1259,5040001134929,新規,0,2024-08-14,2024-08-14,ＨＩＧＧＯＯＤ株式会社,,株式会社,千葉県,市原市,姉崎５７２－３ＩＮＣＯｆｆｉｃｅ姉崎２０７号室,,12,219,2990111,,,,,,,2024-08-14,1,,,,,ハイグッド,0
1262,5050001055249,新規,0,2024-08-14,2024-08-14,ミカサン株式会社,,株式会社,茨城県,稲敷市,浮島字前浦６９７７－５９－２号室,,08,229,3000641,,,,,,,2024-08-14,1,,,,,ミカサン,0
1263,5060001037403,新規,0,2024-08-14,2024-08-14,株式会社ムラタテクノ,,株式会社,栃木県,足利市,田中町９１５番地１サンハナビル３０７号,,09,202,3260822,,,,,,,2024-08-14,1,,,,,ムラタテクノ,0
1265,5060003005184,新規,0,2024-08-14,2024-08-14,ＤｒｅａｍＷｏｒｋｓ合同会社,,合同会社,栃木県,足利市,羽刈町５９５番地９,,09,202,3260327,,,,,,,2024-08-14,1,,,,,ドリームワークス,0
1271,5080101024951,新規,0,2024-08-14,2024-08-14,株式会社阿部,,株式会社,静岡県,富士宮市,田中町３５５番地,,22,207,4180075,,,,,,,2024-08-14,1,,,,,アベ,0
1272,5090003002617,新規,0,2024-08-14,2024-08-14,合同会社ＫＩＭＩＫＡ,,合同会社,山梨県,南都留郡道志村,６４４５番地９,,19,422,4020200,,,,,,,2024-08-14,1,,,,,,0
1276,5110005017123,新規,0,2024-08-14,2024-08-14,一般社団法人新潟県ミャンマー人支援協会,,その他の設立登記法人,新潟県,燕市,吉田西太田３７６番地１,,15,213,9590221,,,,,,,2024-08-14,1,,,,,ニイガタケンミャンマージンシエンキョウカイ,0
1285,5120001267654,新規,0,2024-08-14,2024-08-14,ＷＩＮＤＳＯＦＴ株式会社,,株式会社,大阪府,大阪市生野区,新今里３丁目８番１６号３０４号室,,27,116,5440001,,,,,,,2024-08-14,1,,,,,ウィンドソフト,0
1286,5120001267662,新規,0,2024-08-14,2024-08-14,株式会社Ｔ．Ｈ．Ｔ　ｗｏｒｌｄ　ｔｅｃ,,株式会社,大阪府,門真市,東江端町６番１５号,,27,223,5710008,,,,,,,2024-08-14,1,,,,,ティーエイチティーワールドテック,0
1287,5120001267695,新規,0,2024-08-14,2024-08-14,株式会社ＨＯＯＰ,,株式会社,大阪府,大阪市東住吉区,今川５丁目９－５,,27,121,5460003,,,,,,,2024-08-14,1,,,,,ホープ,0
1288,5120001267737,新規,0,2024-08-14,2024-08-14,株式会社Ｈｉｒａｎｏ　Ｂｕｉｌｄｓ,,株式会社,大阪府,大阪市此花区,島屋６丁目２－１００－１７１２,,27,104,5540024,,,,,,,2024-08-14,1,,,,,ヒラノビルズ,0
1289,5120001267745,新規,0,2024-08-14,2024-08-14,株式会社良献,,株式会社,大阪府,大阪市中央区,瓦町４丁目５番３号ＮＩＰＰＯ西本町ビル３階８号,,27,128,5410048,,,,,,,2024-08-14,1,,,,,リョウケン,0
1290,5120001267753,新規,0,2024-08-14,2024-08-14,株式会社天福,,株式会社,大阪府,大阪市西区,南堀江３丁目６番１号,,27,106,5500015,,,,,,,2024-08-14,1,,,,,テンフク,0
1295,5120003027288,新規,0,2024-08-14,2024-08-14,合同会社ＳＩＢ,,合同会社,大阪府,大阪市中央区,南本町４丁目５番７号東亜ビル５階,,27,128,5410054,,,,,,,2024-08-14,1,,,,,エスアイビー,0
1296,5120005024498,新規,0,2024-08-14,2024-08-14,一般社団法人えがお,,その他の設立登記法人,大阪府,大阪市中央区,農人橋３丁目１番１号Ｖｉｎｏプレジオ本町１５０４,,27,128,5400011,,,,,,,2024-08-14,1,,,,,エガオ,0
1299,5120901049581,新規,0,2024-08-14,2024-08-14,株式会社エス・クラフト,,株式会社,大阪府,摂津市,鳥飼和道１丁目８番２４号,,27,224,5660073,,,,,,,2024-08-14,1,,,,,エスクラフト,0
1300,5120901049623,新規,0,2024-08-14,2024-08-14,株式会社ワンダー,,株式会社,大阪府,摂津市,鶴野２丁目７番４－６０３号,,27,224,5660035,,,,,,,2024-08-14,1,,,,,ワンダー,0
1305,5130001077697,新規,0,2024-08-14,2024-08-14,そしじ弥栄保輝株式会社,,株式会社,京都府,舞鶴市,字泉源寺１１７９番地,,26,202,6250026,,,,,,,2024-08-14,1,,,,,ソシジイヤサカホキ,0
1306,5130001077722,新規,0,2024-08-14,2024-08-14,株式会社プロスペリティ,,株式会社,京都府,京都市下京区,四条通室町東入函谷鉾町１０１アーバンネット四条烏丸ビル６階,,26,106,6008009,,,,,,,2024-08-14,1,,,,,プロスペリティ,0
1307,5130001077730,新規,0,2024-08-14,2024-08-14,株式会社ＨＥＲＯ　ｇｒｏｕｐ,,株式会社,京都府,京都市上京区,頭町４８８－３階Ｃ号室,,26,102,6020952,,,,,,,2024-08-14,1,,,,,ヒーローグループ,0
1311,5130005017162,新規,0,2024-08-14,2024-08-14,一般社団法人青少年自立援助協会,,その他の設立登記法人,京都府,京都市中京区,河原町通御池下る下丸屋町４０３番地,,26,104,6048006,,,,,,,2024-08-14,1,,,,,セイショウネンジリツエンジョキョウカイ,0
1316,5140001135479,新規,0,2024-08-14,2024-08-14,株式会社トライボスター,,株式会社,兵庫県,宝塚市,末成町３９番２３号,,28,214,6650044,,,,,,,2024-08-14,1,,,,,トライボスター,0
1317,5140001135520,新規,0,2024-08-14,2024-08-14,株式会社イレブン,,株式会社,兵庫県,神戸市兵庫区,湊町２丁目４番９－８０１号,,28,105,6520812,,,,,,,2024-08-14,1,,,,,イレブン,0
1318,5140001135529,新規,0,2024-08-14,2024-08-14,株式会社エム,,株式会社,兵庫県,明石市,本町２丁目７番１８号サンライズ明石２０３,,28,203,6730892,,,,,,,2024-08-14,1,,,,,エム,0
1319,5140001135537,新規,0,2024-08-14,2024-08-14,株式会社Ｔｓｕｂａｍｅ,,株式会社,兵庫県,明石市,硯町２丁目６－２０－３０６,,28,203,6730028,,,,,,,2024-08-14,1,,,,,ツバメ,0
1323,5150001027502,新規,0,2024-08-14,2024-08-14,株式会社シモサン,,株式会社,奈良県,生駒市,西旭ケ丘１２番１８号,,29,209,6300261,,,,,,,2024-08-14,1,,,,,シモサン,0
1325,5160003003269,新規,0,2024-08-14,2024-08-14,合同会社Ｉ・Ｙコーポレーション,,合同会社,滋賀県,守山市,吉見三丁目１４番３５号よしやビル２－Ｂ,,25,207,5240000,,,,,,,2024-08-14,1,,,,,アイワイコーポレーション,0
1330,5180001162800,新規,0,2024-08-14,2024-08-14,株式会社Ｍｓ．Ｒａｄｉａｎｃｅ,,株式会社,愛知県,名古屋市中村区,名駅３丁目４－１０アルティメイト名駅１ｓｔ２階,,23,105,4500002,,,,,,,2024-08-14,1,,,,,ミスラディアンス,0
1331,5180001162809,新規,0,2024-08-14,2024-08-14,Ｃｉｎｎａｍｏｎ　Ｇｒｏｖｅ株式会社,,株式会社,愛知県,一宮市,木曽川町里小牧字道路寺５２番地４－Ａ,,23,203,4930005,,,,,,,2024-08-14,1,,,,,シナモングローブ,0
1332,5180001162924,新規,0,2024-08-14,2024-08-14,株式会社ＬＩＢ,,株式会社,愛知県,名古屋市中区,大須１丁目３４－３３セレス大須１０２,,23,106,4600011,,,,,,,2024-08-14,1,,,,,エルアイビー,0
1339,5180003027167,新規,0,2024-08-14,2024-08-14,合同会社ＢＵＮＭＥＥ,,合同会社,愛知県,瀬戸市,共栄通５丁目４８番地の３,,23,204,4890809,,,,,,,2024-08-14,1,,,,,バンミー,0
1340,5180003027217,新規,0,2024-08-14,2024-08-14,合同会社ＹＳ,,合同会社,愛知県,名古屋市西区,大野木４丁目１９番地の３‐２Ｆ,,23,104,4520803,,,,,,,2024-08-14,1,,,,,ワイエス,0
1341,5180301038956,新規,0,2024-08-14,2024-08-14,株式会社ベルエキップ,,株式会社,愛知県,岡崎市,羽根町字小豆坂４４番地１,,23,202,4440814,,,,,,,2024-08-14,1,,,,,ベルエキップ,0
1350,5230003002271,新規,0,2024-08-14,2024-08-14,グラティス合同会社,,合同会社,富山県,富山市,神通本町１丁目１０番３‐１０６号,,16,201,9300008,,,,,,,2024-08-14,1,,,,,グラティス,0
1351,5240001063686,新規,0,2024-08-14,2024-08-14,株式会社ＳＵＮＲＩＮ　Ｊａｐａｎ,,株式会社,広島県,東広島市,吉川工業団地５－２３,,34,212,7390153,,,,,,,2024-08-14,1,,,,,サンリンジャパン,0
1352,5240001063703,新規,0,2024-08-14,2024-08-14,株式会社養生材研究所,,株式会社,広島県,安芸郡府中町,大通２丁目８番７号,,34,302,7350022,,,,,,,2024-08-14,1,,,,,ヨウジョウザイケンキュウショ,0
1354,5240003006800,新規,0,2024-08-14,2024-08-14,合同会社横川ＢＡＳＥ,,合同会社,広島県,広島市西区,横川町３丁目１－９,,34,104,7330011,,,,,,,2024-08-14,1,,,,,ヨコガワベース,0
1356,5240005015808,新規,0,2024-08-14,2024-08-14,ＮＰＯ法人白市町家保存会,,その他の設立登記法人,広島県,東広島市,高屋町白市１０８０番地,,34,212,7392114,,,,,,,2024-08-14,1,,,,,シライチマチヤホゾンカイ,0
1360,5260001039379,新規,0,2024-08-14,2024-08-14,Ｇｒａｎｋｓ’Ｉ株式会社,,株式会社,岡山県,岡山市北区,牟佐２９４５番地６,,33,101,7012141,,,,,,,2024-08-14,1,,,,,グランクスアイ,0
1361,5270001009034,新規,0,2024-08-14,2024-08-14,株式会社あおみどり,,株式会社,鳥取県,境港市,元町２９番地２,,31,204,6840032,,,,,,,2024-08-14,1,,,,,アオミドリ,0
1362,5270005005608,新規,0,2024-08-14,2024-08-14,一般社団法人高専デザコンコンソーシアム,,その他の設立登記法人,鳥取県,米子市,彦名町４４４８,,31,202,6830854,,,,,,,2024-08-14,1,,,,,コウセンデザコンコンソーシアム,0
1372,5300001013874,新規,0,2024-08-14,2024-08-14,株式会社香月農産,,株式会社,佐賀県,杵島郡白石町,大字遠江４５２９番地,,41,425,8491105,,,,,,,2024-08-14,1,,,,,カツキノウサン,0
1379,5340001026732,新規,0,2024-08-14,2024-08-14,株式会社ＫｕＫｕＲｕ,,株式会社,鹿児島県,鹿児島市,城山２丁目３７番８－１号,,46,201,8920813,,,,,,,2024-08-14,1,,,,,ククル,0
1381,5360001034056,新規,0,2024-08-14,2024-08-14,株式会社前川総業,,株式会社,沖縄県,名護市,字振慶名１２２番地３,,47,209,9051151,,,,,,,2024-08-14,1,,,,,マエカワソウギョウ,0
1382,5360001034064,新規,0,2024-08-14,2024-08-14,株式会社ＭＡＭＭＡＭＩＹＡ,,株式会社,沖縄県,糸満市,字阿波根１４０６番地の７９,,47,210,9010301,,,,,,,2024-08-14,1,,,,,マンマミヤ,0
1385,5370001051645,新規,0,2024-08-14,2024-08-14,３ｃｏｒｅ株式会社,,株式会社,宮城県,仙台市若林区,六丁の目中町４番１７号,,04,103,9840012,,,,,,,2024-08-14,1,,,,,スリーコア,0
1386,5370001051653,新規,0,2024-08-14,2024-08-14,株式会社ヴェルテ,,株式会社,宮城県,仙台市泉区,泉中央１丁目３５番３号,,04,105,9813133,,,,,,,2024-08-14,1,,,,,ヴェルテ,0
1390,5390001017710,新規,0,2024-08-14,2024-08-14,株式会社ヒガシノハウスデザイン,,株式会社,山形県,酒田市,亀ケ崎２丁目２５番２９号,,06,204,9980842,,,,,,,2024-08-14,1,,,,,ヒガシノハウスデザイン,0
1393,5430001092476,新規,0,2024-08-14,2024-08-14,株式会社ＡＮＣＨＯＲ　Ｎｅｗ‐Ｅｄｕｃａｔｉｏｎ,,株式会社,北海道,小樽市,緑２丁目２番８号,,01,203,0470034,,,,,,,2024-08-14,1,,,,,アンカーニューエデュケーション,0
1394,5430001092484,新規,0,2024-08-14,2024-08-14,株式会社北から南,,株式会社,北海道,札幌市豊平区,平岸三条２丁目４番４号テトラコートＣ,,01,105,0620933,,,,,,,2024-08-14,1,,,,,キタカラミナミ,0
1395,5430001092492,新規,0,2024-08-14,2024-08-14,株式会社ワイスリー工業,,株式会社,北海道,札幌市豊平区,豊平三条８丁目１番２３－１号,,01,105,0620903,,,,,,,2024-08-14,1,,,,,ワイスリーコウギョウ,0
1398,5430003016648,新規,0,2024-08-14,2024-08-14,合同会社アフタープレジャー,,合同会社,北海道,江別市,あけぼの町２５番地の１６,,01,217,0670025,,,,,,,2024-08-14,1,,,,,アフタープレジャー,0
1411,5500001025809,新規,0,2024-08-14,2024-08-14,株式会社愛を込めて,,株式会社,愛媛県,松山市,鉄砲町６番地２２,,38,201,7900827,,,,,,,2024-08-14,1,,,,,アイヲコメテ,0
1412,5500001025825,新規,0,2024-08-14,2024-08-14,花岡造園株式会社,,株式会社,愛媛県,宇和島市,吉田町北小路甲１１４番地,,38,203,7993701,,,,,,,2024-08-14,1,,,,,ハナオカゾウエン,0
1422,6010001246593,新規,0,2024-08-14,2024-08-14,愛博恩医療株式会社,,株式会社,東京都,千代田区,神田佐久間町１丁目８－４アルテール秋葉原８Ｆ,,13,101,1010025,,,,,,,2024-08-14,1,,,,,アイハクオンイリョウ,0
1423,6010001247311,新規,0,2024-08-14,2024-08-14,ＴＯＭＡＲＩＧＩ株式会社,,株式会社,東京都,中央区,銀座１丁目２２番１１号銀座大竹ビジデンス２Ｆ,,13,102,1040061,,,,,,,2024-08-14,1,,,,,トマリギ,0
1424,6010001247328,新規,0,2024-08-14,2024-08-14,Ｈｅｌ　Ｃ株式会社,,株式会社,東京都,文京区,小石川３丁目３９－８小石川アインス７０２号室,,13,105,1120002,,,,,,,2024-08-14,1,,,,,ヘルシー,0
1425,6010001247369,新規,0,2024-08-14,2024-08-14,華友電池材料テクノロジー日本株式会社,,株式会社,東京都,文京区,本郷３丁目３２番７号東京ビル５階,,13,105,1130033,,,,,,,2024-08-14,1,,,,,カユウデンチザイリョウテクノロジーニホン,0
1426,6010001247393,新規,0,2024-08-14,2024-08-14,株式会社ｌｏｎｇ　ｍｏｕｎｔａｉｎ,,株式会社,東京都,中央区,新川１丁目２０番４－２０１号,,13,102,1040033,,,,,,,2024-08-14,1,,,,,ロングマウンテン,0
1427,6010001247402,新規,0,2024-08-14,2024-08-14,神田商店株式会社,,株式会社,東京都,千代田区,大手町１丁目５番１号大手町ファーストスクエアイーストタワー４階,,13,101,1000004,,,,,,,2024-08-14,1,,,,,カンダショウテン,0
1428,6010001247410,新規,0,2024-08-14,2024-08-14,株式会社イチザワ,,株式会社,東京都,中央区,月島３丁目１６番５号ＤＥＡＲ月島ＩＩ３階,00135941,13,102,1040052,,,,,,,2024-08-14,1,,,,,イチザワ,0
1429,6010001247419,新規,0,2024-08-14,2024-08-14,プロトンテクノロジー株式会社,,株式会社,東京都,千代田区,神田須田町１丁目７番８号,,13,101,1010041,,,,,,,2024-08-14,1,,,,,プロトンテクノロジー,0
1430,6010001247484,新規,0,2024-08-14,2024-08-14,株式会社ファルシア,,株式会社,東京都,中央区,銀座１丁目１２番４号Ｎ＆ＥＢＬＤ．６Ｆ,,13,102,1040061,,,,,,,2024-08-14,1,,,,,ファルシア,0
1434,6010003044483,新規,0,2024-08-14,2024-08-14,合同会社マーキュリー,,合同会社,東京都,千代田区,二番町３番地麹町スクエア株式会社シリウス・アドバイザリー内,,13,101,1020084,,,,,,,2024-08-14,1,,,,,マーキュリー,0
1435,6010003044582,新規,0,2024-08-14,2024-08-14,神戸ファシリティ合同会社,,合同会社,東京都,中央区,日本橋１丁目４番１号日本橋一丁目ビルディング,,13,102,1030027,,,,,,,2024-08-14,1,,,,,コウベファシリティ,0
1436,6010003044599,新規,0,2024-08-14,2024-08-14,合同会社ジュピター,,合同会社,東京都,千代田区,外神田５丁目６番１４号,,13,101,1010021,,,,,,,2024-08-14,1,,,,,ジュピター,0
1441,6010401184451,新規,0,2024-08-14,2024-08-14,株式会社ウリュウケン,,株式会社,東京都,港区,六本木４丁目２番５０－８０２号,,13,103,1060032,,,,,,,2024-08-14,1,,,,,ウリュウケン,0
1442,6010401184501,新規,0,2024-08-14,2024-08-14,セラレス・ジャパン株式会社,,株式会社,東京都,港区,六本木１丁目９番１０号アークヒルズ仙石山森タワー２８階べーカー＆マッケンジー法律事務所（外国法共同事業）内,,13,103,1060032,,,,,,,2024-08-14,1,,,,,セラレスジャパン,0
1443,6010403033227,新規,0,2024-08-14,2024-08-14,合同会社ＳＹＫ,,合同会社,東京都,港区,南青山２丁目２番１５号ＷＩＮ青山５３１,,13,103,1070062,,,,,,,2024-08-14,1,,,,,エスワイケー,0
1444,6010403033251,新規,0,2024-08-14,2024-08-14,合同会社来光,,合同会社,東京都,港区,虎ノ門３丁目１８番１２－５０２号株式会社虎ノ門会計神谷町分室内,,13,103,1050001,,,,,,,2024-08-14,1,,,,,ライコウ,0
1445,6010405023424,新規,0,2024-08-14,2024-08-14,一般社団法人Ｗａｂｕｎｋａ　Ｐｒｏｊｅｃｔ,,その他の設立登記法人,東京都,港区,赤坂４丁目６番１３－２０１号,,13,103,1070052,,,,,,,2024-08-14,1,,,,,ワブンカプロジェクト,0
1454,6010901055788,新規,0,2024-08-14,2024-08-14,株式会社ラフテル,,株式会社,東京都,世田谷区,玉川３丁目２０番２号マノア玉川５０１号室,,13,112,1580094,,,,,,,2024-08-14,1,,,,,ラフテル,0
1458,6011001163812,新規,0,2024-08-14,2024-08-14,株式会社ファンネクストグループ,,株式会社,東京都,渋谷区,東１丁目２７番７号,,13,113,1500011,,,,,,,2024-08-14,1,,,,,ファンネクストグループ,0
1459,6011001164018,新規,0,2024-08-14,2024-08-14,４Ｕ音楽事務所株式会社,,株式会社,東京都,渋谷区,宇田川町３６番２号ノア渋谷１１０１,,13,113,1500042,,,,,,,2024-08-14,1,,,,,フォーユーオンガクジムショ,0
1460,6011001164042,新規,0,2024-08-14,2024-08-14,株式会社ｏｔｏｎｏｅ,,株式会社,東京都,渋谷区,恵比寿西２丁目８番４号ＥＸ恵比寿西ビル５階,,13,113,1500021,,,,,,,2024-08-14,1,,,,,オトノエ,0
1461,6011001164067,新規,0,2024-08-14,2024-08-14,株式会社ｂｅｎｔｏ　ｃｙｃｌｅ,,株式会社,東京都,渋谷区,円山町５番５号Ｎａｖｉ渋谷Ｖ３階,,13,113,1500044,,,,,,,2024-08-14,1,,,,,ベントウサイクル,0
1463,6011003019748,新規,0,2024-08-14,2024-08-14,合同会社ＲＨＭｏｒｇａｎ,,合同会社,東京都,渋谷区,上原１丁目３番９号,,13,113,1510064,,,,,,,2024-08-14,1,,,,,,0
1464,6011003019822,新規,0,2024-08-14,2024-08-14,合同会社アドアイリンク,,合同会社,東京都,渋谷区,渋谷２丁目１９番１号,,13,113,1500002,,,,,,,2024-08-14,1,,,,,アドアイリンク,0
1465,6011003019830,新規,0,2024-08-14,2024-08-14,合同会社ｅｃｏＳＨＩＰ,,合同会社,東京都,目黒区,目黒４丁目４番７号,,13,110,1530063,,,,,,,2024-08-14,1,,,,,エコシップ,0
1471,6011101108361,新規,0,2024-08-14,2024-08-14,株式会社エデュスパーク,,株式会社,東京都,新宿区,百人町１丁目３番２４－３０２号,,13,104,1690073,,,,,,,2024-08-14,1,,,,,エデュスパーク,0
1472,6011101108403,新規,0,2024-08-14,2024-08-14,株式会社Ｓｃｅｎｔｉｅｒ,,株式会社,東京都,新宿区,新小川町９－１０－５１７,,13,104,1620814,,,,,,,2024-08-14,1,,,,,センティア,0
1473,6011101108428,新規,0,2024-08-14,2024-08-14,株式会社ＺＥＮ,,株式会社,東京都,新宿区,早稲田鶴巻町５６８番地ソワイユ早稲田３０１,,13,104,1620041,,,,,,,2024-08-14,1,,,,,ゼン,0
1474,6011103014780,新規,0,2024-08-14,2024-08-14,サイドバレイ技研合同会社,,合同会社,東京都,新宿区,西新宿３丁目３番１３号西新宿水間ビル６階,,13,104,1600023,,,,,,,2024-08-14,1,,,,,サイドバレイギケン,0
1475,6011103014789,新規,0,2024-08-14,2024-08-14,合同会社ｍｅｄｉｇｅｎｃｅ,,合同会社,東京都,新宿区,西新宿３丁目３－１３西新宿水間ビル６階,,13,104,1600023,,,,,,,2024-08-14,1,,,,,メディジェンス,0
1476,6011103014797,新規,0,2024-08-14,2024-08-14,合同会社ビジョンチェンジ,,合同会社,東京都,新宿区,西新宿２丁目１番１号,,13,104,1600023,,,,,,,2024-08-14,1,,,,,ビジョンチェンジ,0
1480,6011303005258,新規,0,2024-08-14,2024-08-14,合同会社ＰＴＩｎｎｏｖａｔｉｏｎ,,合同会社,東京都,杉並区,松ノ木２丁目５－４,,13,115,1660014,,,,,,,2024-08-14,1,,,,,,0
1481,6011305002996,新規,0,2024-08-14,2024-08-14,一般社団法人杉並アヤックス,,その他の設立登記法人,東京都,杉並区,上井草１丁目２－１７．１０１,,13,115,1670023,,,,,,,2024-08-14,1,,,,,スギナミアヤックス,0
1483,6011401026362,新規,0,2024-08-14,2024-08-14,株式会社Ｌｉｎｋ　Ａｉｄ,,株式会社,東京都,板橋区,大山金井町３５－５,,13,119,1730024,,,,,,,2024-08-14,1,,,,,リンクエイド,0
1487,6011801044682,新規,0,2024-08-14,2024-08-14,安誠株式会社,,株式会社,東京都,足立区,足立２丁目４５－３,,13,121,1200015,,,,,,,2024-08-14,1,,,,,アンセイ,0
1492,6012401042184,新規,0,2024-08-14,2024-08-14,株式会社Ｒｏｕｎｄ　Ｔａｂｌｅ,,株式会社,東京都,府中市,府中町３丁目６―１９,,13,206,1830055,,,,,,,2024-08-14,1,,,,,ラウンドテーブル,0
1510,6020001158499,新規,0,2024-08-14,2024-08-14,株式会社ハピネス関山,,株式会社,神奈川県,川崎市多摩区,宿河原６丁目４０番５号,,14,135,2140021,,,,,,,2024-08-14,1,,,,,ハピネスセキヤマ,0
1512,6020003026654,新規,0,2024-08-14,2024-08-14,合同会社ｃｈ０１,,合同会社,神奈川県,横浜市西区,浅間町１丁目４番３号ウィザードビル４０２,,14,103,2200072,,,,,,,2024-08-14,1,,,,,シーエイチゼロイチ,0
1517,6021001082961,新規,0,2024-08-14,2024-08-14,株式会社Ｈａｚｕｍｕ,,株式会社,神奈川県,高座郡寒川町,小谷１丁目１１－２６－３,,14,321,2530103,,,,,,,2024-08-14,1,,,,,ハズム,0
1518,6021001082978,新規,0,2024-08-14,2024-08-14,株式会社クリエイティブマーケット,,株式会社,神奈川県,鎌倉市,玉縄５丁目２９番地６,,14,204,2470071,,,,,,,2024-08-14,1,,,,,クリエイティブマーケット,0
1519,6021001083002,新規,0,2024-08-14,2024-08-14,株式会社ｎａｍｅ,,株式会社,神奈川県,茅ヶ崎市,東海岸南２丁目１２番３－３号,,14,207,2530054,,,,,,,2024-08-14,1,,,,,ネーム,0
1530,6030001161907,新規,0,2024-08-14,2024-08-14,ＳＰＨ株式会社,,株式会社,埼玉県,川口市,芝東町４番２号３０１,,11,203,3330867,,,,,,,2024-08-14,1,,,,,エスピーエイチ,0
1531,6030001161915,新規,0,2024-08-14,2024-08-14,株式会社ｇｒａｎｔ,,株式会社,埼玉県,加須市,諏訪２丁目１１番８号,,11,210,3470061,,,,,,,2024-08-14,1,,,,,グラント,0
1532,6030001161972,新規,0,2024-08-14,2024-08-14,東瀛賽斯特株式会社,,株式会社,埼玉県,川口市,三ツ和１丁目３－１階,,11,203,3340011,,,,,,,2024-08-14,1,,,,,トウエイシスター,0
1533,6030001161980,新規,0,2024-08-14,2024-08-14,株式会社助っ人さん,,株式会社,埼玉県,和光市,白子１丁目２６番８０－６０４号ライオンズマンション和光,,11,229,3510101,,,,,,,2024-08-14,1,,,,,スケットサン,0
1534,6030001161989,新規,0,2024-08-14,2024-08-14,ｙｐ‐ｓｙｓｔｅｍ株式会社,,株式会社,埼玉県,川越市,脇田本町１３番地５,,11,201,3501123,,,,,,,2024-08-14,1,,,,,ワイピーシステム,0
1539,6030003024896,新規,0,2024-08-14,2024-08-14,合同会社ｕｎ．ｌｕｘｅ,,合同会社,埼玉県,和光市,本町１５番３３号ｔｗｅｅｄｉａ１Ｆ,,11,229,3510114,,,,,,,2024-08-14,1,,,,,アンリュクス,0
1540,6030003024921,新規,0,2024-08-14,2024-08-14,合同会社ガーデンクリエイト葵,,合同会社,埼玉県,児玉郡美里町,大字駒衣８９５番地,,11,381,3670119,,,,,,,2024-08-14,1,,,,,ガーデンクリエイトアオイ,0
1544,6040001134928,新規,0,2024-08-14,2024-08-14,ＥａｒＦｕｎ株式会社,,株式会社,千葉県,市原市,姉崎５７２－３ＩＮＣＯｆｆｉｃｅ姉崎２０６号室,,12,219,2990111,,,,,,,2024-08-14,1,,,,,イヤーファン,0
1546,6050001055248,新規,0,2024-08-14,2024-08-14,辰澤株式会社,,株式会社,茨城県,取手市,戸頭７３５番地５,,08,217,3020034,,,,,,,2024-08-14,1,,,,,シンザワ,0
1547,6050003008609,新規,0,2024-08-14,2024-08-14,合同会社エコロジカル,,合同会社,茨城県,つくば市,上ノ室５７１番地１,,08,220,3050023,,,,,,,2024-08-14,1,,,,,エコロジカル,0
1549,6060001037393,新規,0,2024-08-14,2024-08-14,株式会社左創,,株式会社,栃木県,栃木市,都賀町家中５６３９番地２,,09,203,3280111,,,,,,,2024-08-14,1,,,,,サソウ,0
1561,6120001267661,新規,0,2024-08-14,2024-08-14,株式会社Ｆ．Ｄｒｅａｍ,,株式会社,大阪府,大阪市北区,大淀中５丁目９番１１号,,27,127,5310076,,,,,,,2024-08-14,1,,,,,エフドリーム,0
1562,6120001267703,新規,0,2024-08-14,2024-08-14,株式会社坂本建装,,株式会社,大阪府,大阪市西淀川区,野里１丁目７番３－３０１号,,27,113,5550024,,,,,,,2024-08-14,1,,,,,サカモトケンソウ,0
1563,6120001267711,新規,0,2024-08-14,2024-08-14,山阪精工株式会社,,株式会社,大阪府,大阪市中央区,南本町２丁目１番１号本町サザンビルＴＤフロア１Ｆ,,27,128,5410054,,,,,,,2024-08-14,1,,,,,ヤマサカセイコウ,0
1564,6120001267736,新規,0,2024-08-14,2024-08-14,ＤＯＭＥ株式会社,,株式会社,大阪府,守口市,大久保町３丁目３２番１９号４番,,27,209,5700012,,,,,,,2024-08-14,1,,,,,ドーム,0
1565,6120001267744,新規,0,2024-08-14,2024-08-14,株式会社リワーディング,,株式会社,大阪府,大阪市中央区,本町２丁目３番４号アソルティ本町４階,,27,128,5410053,,,,,,,2024-08-14,1,,,,,リワーディング,0
1566,6120001267760,新規,0,2024-08-14,2024-08-14,株式会社ＩＴＭ,,株式会社,大阪府,大阪市中央区,北久宝寺町２丁目６番１－６０２号,,27,128,5410057,,,,,,,2024-08-14,1,,,,,インザマネー,0
1567,6120001267785,新規,0,2024-08-14,2024-08-14,株式会社ＭＹＪ,,株式会社,大阪府,大阪市北区,芝田２丁目８－１１共栄ビル３Ｆ,,27,127,5300012,,,,,,,2024-08-14,1,,,,,エムワイジェイ,0
1568,6120001267802,新規,0,2024-08-14,2024-08-14,佳峰株式会社,,株式会社,大阪府,大阪市中央区,本町３丁目３－９－９Ｆ,,27,128,5410053,,,,,,,2024-08-14,1,,,,,カホウ,0
1569,6120001267819,新規,0,2024-08-14,2024-08-14,株式会社ＮｅｘｔＳｔａｒｔ,,株式会社,大阪府,大阪市淀川区,西宮原２丁目６番１６号,,27,123,5320004,,,,,,,2024-08-14,1,,,,,ネクスタート,0
1571,6120003027270,新規,0,2024-08-14,2024-08-14,家具レンタルフォース合同会社,,合同会社,大阪府,大阪市中央区,北浜３丁目５番２２号オリックス淀屋橋ビル７階,,27,128,5410041,,,,,,,2024-08-14,1,,,,,カグレンタルフォース,0
1572,6120003027287,新規,0,2024-08-14,2024-08-14,合同会社７ｋａｍａｄｏ,,合同会社,大阪府,大阪市西区,立売堀４丁目４番２３号大岩ビル２階,,27,106,5500012,,,,,,,2024-08-14,1,,,,,ナナカマド,0
1580,6120901049606,新規,0,2024-08-14,2024-08-14,あすなるサポート株式会社,,株式会社,大阪府,吹田市,江坂町１丁目２番１６号,,27,205,5640063,,,,,,,2024-08-14,1,,,,,アスナルサポート,0
1584,6130001077688,新規,0,2024-08-14,2024-08-14,株式会社Ｄｅｌｉｇｈｔ,,株式会社,京都府,京都市東山区,三条通大橋東二町目８２番地,,26,105,6050001,,,,,,,2024-08-14,1,,,,,ディライト,0
1585,6130001077721,新規,0,2024-08-14,2024-08-14,株式会社ＭＩＮＡＧＡ,,株式会社,京都府,京都市下京区,七条通油小路東入大黒町２２７番地第２キョートビル４０２,,26,106,6008223,,,,,,,2024-08-14,1,,,,,ミナガ,0
1594,6140001135478,新規,0,2024-08-14,2024-08-14,Ａ＆Ｂ商事株式会社,,株式会社,兵庫県,芦屋市,東芦屋町１８番４８号,00135949,28,206,6590095,,,,,,,2024-08-14,1,,,,,エーアンドビーショウジ,0
1595,6140001135511,新規,0,2024-08-14,2024-08-14,株式会社ＶＩＣＢＥ,,株式会社,兵庫県,神戸市灘区,城内通４丁目７番２０号シンプルライフ王子公園３０８号室,,28,102,6570836,,,,,,,2024-08-14,1,,,,,ヴィクビー,0
1596,6140001135528,新規,0,2024-08-14,2024-08-14,株式会社大康建設,,株式会社,兵庫県,加古川市,尾上町長田４４８番地の２,,28,210,6750024,,,,,,,2024-08-14,1,,,,,タイコウケンセツ,0
1599,6140003020959,新規,0,2024-08-14,2024-08-14,合同会社スレイ,,合同会社,兵庫県,西宮市,松籟荘１１番２３号アヴァンセ甲東２Ｆ,,28,204,6620822,,,,,,,2024-08-14,1,,,,,スレイ,0
1601,6150001027501,新規,0,2024-08-14,2024-08-14,株式会社Ｚプランニングホーム,,株式会社,奈良県,奈良市,西登美ヶ丘２丁目１１番１４号,,29,201,6310006,,,,,,,2024-08-14,1,,,,,ゼットプランニングホーム,0
1604,6160001026155,新規,0,2024-08-14,2024-08-14,株式会社ＨＡＹＡＳＨＩ,,株式会社,滋賀県,守山市,下之郷３丁目１４番１５号,,25,207,5240013,,,,,,,2024-08-14,1,,,,,ハヤシ,0
1606,6160003003268,新規,0,2024-08-14,2024-08-14,ＩＳＹ合同会社,,合同会社,滋賀県,甲賀市,水口町京町５番５号,,25,209,5280017,,,,,,,2024-08-14,1,,,,,アイエスワイ,0
1614,6180001162832,新規,0,2024-08-14,2024-08-14,株式会社やまもと,,株式会社,愛知県,豊明市,新田町吉池２番地１,,23,229,4701116,,,,,,,2024-08-14,1,,,,,ヤマモト,0
1618,6180301038955,新規,0,2024-08-14,2024-08-14,株式会社Ｓライフ,,株式会社,愛知県,安城市,和泉町北本郷１５８番地３,,23,212,4441221,,,,,,,2024-08-14,1,,,,,エスライフ,0
1619,6190001031565,新規,0,2024-08-14,2024-08-14,ハイ・ワイド株式会社,,株式会社,三重県,名張市,東田原３５４番地１５,,24,208,5180602,,,,,,,2024-08-14,1,,,,,ハイワイド,0
1622,6200001042817,新規,0,2024-08-14,2024-08-14,株式会社アド企画,,株式会社,岐阜県,加茂郡坂祝町,黒岩６０８番地１,,21,501,5050071,,,,,,,2024-08-14,1,,,,,アドキカク,0
1623,6200001042825,新規,0,2024-08-14,2024-08-14,株式会社ｉｇｒｅｋ　Ｍ,,株式会社,岐阜県,高山市,八軒町２丁目６２番地,,21,203,5060012,,,,,,,2024-08-14,1,,,,,イグレックエム,0
1628,6230001020489,新規,0,2024-08-14,2024-08-14,株式会社ａｉｒｕ,,株式会社,富山県,下新川郡朝日町,宮崎３２３９番地１,,16,343,9390703,,,,,,,2024-08-14,1,,,,,アイル,0
1640,6290801030797,新規,0,2024-08-14,2024-08-14,ＨＡＴＣＨＥＴ株式会社,,株式会社,福岡県,北九州市小倉北区,神岳１丁目３番２７号,,40,106,8020045,,,,,,,2024-08-14,1,,,,,ハチェット,0
1644,6320003004448,新規,0,2024-08-14,2024-08-14,合同会社野村建築設計事務所,,合同会社,大分県,大分市,大字城原２４７２番地の３,,44,201,8700267,,,,,,,2024-08-14,1,,,,,ノムラケンチクセッケイジムショ,0
1658,6370001051545,新規,0,2024-08-14,2024-08-14,株式会社ＺＥＮロック,,株式会社,宮城県,石巻市,成田字大久保３１番地１,,04,202,9860102,,,,,,,2024-08-14,1,,,,,ゼンロック,0
1659,6370001051644,新規,0,2024-08-14,2024-08-14,株式会社Ｍｉｄｔｏｗｎ,,株式会社,宮城県,仙台市青葉区,一番町１丁目１５番３８号,,04,101,9800811,,,,,,,2024-08-14,1,,,,,ミッドタウン,0
1667,6390003002271,新規,0,2024-08-14,2024-08-14,合同会社ラテンフロンテラ,,合同会社,山形県,山形市,嶋北２丁目１９番４号,,06,201,9900885,,,,,,,2024-08-14,1,,,,,ラテンフロンテラ,0
1668,6420001018836,新規,0,2024-08-14,2024-08-14,株式会社クレノボ,,株式会社,青森県,八戸市,岬台３丁目２０番２６号,,02,203,0310842,,,,,,,2024-08-14,1,,,,,クレノボ,0
1670,6430001092459,新規,0,2024-08-14,2024-08-14,株式会社ＳＡＳコーポレーション,,株式会社,北海道,札幌市厚別区,厚別東五条７丁目７番１２号,,01,108,0040005,,,,,,,2024-08-14,1,,,,,エスエーエスコーポレーション,0
1671,6430001092467,新規,0,2024-08-14,2024-08-14,株式会社ＫＮＧ,,株式会社,北海道,札幌市北区,太平十条４丁目１０番１号,,01,102,0028010,,,,,,,2024-08-14,1,,,,,ケーエヌジー,0
1681,6460303000835,新規,0,2024-08-14,2024-08-14,エスプランニング合同会社,,合同会社,北海道,北見市,端野町一区１番地,,01,208,0992101,,,,,,,2024-08-14,1,,,,,エスプランニング,0
1707,7010001247368,新規,0,2024-08-14,2024-08-14,株式会社ａｎｉｔｏｍ,,株式会社,東京都,中央区,銀座１丁目１２番４号６Ｆ,,13,102,1040061,,,,,,,2024-08-14,1,,,,,アニトム,0
1708,7010001247392,新規,0,2024-08-14,2024-08-14,ホールデン・ヘルスケア・ジャパン株式会社,,株式会社,東京都,中央区,日本橋小舟町４番６号,,13,102,1030024,,,,,,,2024-08-14,1,,,,,ホールデンヘルスケアジャパン,0
1709,7010001247426,新規,0,2024-08-14,2024-08-14,株式会社Ｋ’ＢＬＯＯＭＩＮ,,株式会社,東京都,中央区,銀座８丁目４番２号,,13,102,1040061,,,,,,,2024-08-14,1,,,,,ケーブルーミング,0
1710,7010001247450,新規,0,2024-08-14,2024-08-14,フォーチュン商事株式会社,,株式会社,東京都,中央区,銀座１丁目２２番１１号銀座大竹ビジデンス２Ｆ,,13,102,1040061,,,,,,,2024-08-14,1,,,,,フォーチュンショウジ,0
1711,7010001247459,新規,0,2024-08-14,2024-08-14,ＳＩＡ株式会社,,株式会社,東京都,千代田区,神田神保町２丁目３４－１鳴海ビル２０８号,,13,101,1010051,,,,,,,2024-08-14,1,,,,,エスアイエイ,0
1712,7010001247517,新規,0,2024-08-14,2024-08-14,ＭＥＣ事業株式会社,,株式会社,東京都,千代田区,内神田３丁目１６番９号,,13,101,1010047,,,,,,,2024-08-14,1,,,,,エムイーシージギョウ,0
1717,7010003044549,新規,0,2024-08-14,2024-08-14,ＬＵＸ合同会社,,合同会社,東京都,中央区,日本橋室町１丁目１１番１２号日本橋水野ビル７階,,13,102,1030022,,,,,,,2024-08-14,1,,,,,ラックス,0
1718,7010003044573,新規,0,2024-08-14,2024-08-14,Ｍｉｎｔ　Ｔｏｕｒｓ　Ｊａｐａｎ合同会社,,合同会社,東京都,千代田区,霞が関３丁目２番６号東京倶楽部ビルディング１１階,,13,101,1000013,,,,,,,2024-08-14,1,,,,,ミントツアーズジャパン,0
1720,7010103002407,新規,0,2024-08-14,2024-08-14,合同会社ＨＩＭＩＭＡ,,合同会社,東京都,八王子市,南大沢５丁目１３番地１－９０１,,13,201,1920364,,,,,,,2024-08-14,1,,,,,ヒミマ,0
1723,7010401184442,新規,0,2024-08-14,2024-08-14,福澤バルブ株式会社,,株式会社,東京都,港区,三田１丁目２番１８号ＴＴＤビル,,13,103,1080073,,,,,,,2024-08-14,1,,,,,フクザワバルブ,0
1724,7010401184450,新規,0,2024-08-14,2024-08-14,セリーンヘルス＆ビューティー株式会社,,株式会社,東京都,港区,赤坂７丁目５番１６号オープンレジデンス赤坂テラス１１３号室,,13,103,1070052,,,,,,,2024-08-14,1,,,,,セリーンヘルスアンドビューティー,0
1725,7010401184459,新規,0,2024-08-14,2024-08-14,Ｖａｌｕｅｕｐ　Ｐａｒｔｎｅｒｓ株式会社,,株式会社,東京都,港区,芝浦４丁目２０番２－４７０７号,,13,103,1080023,,,,,,,2024-08-14,1,,,,,バリューアップパートナーズ,0
1726,7010401184525,新規,0,2024-08-14,2024-08-14,株式会社フレーモ,,株式会社,東京都,港区,港南４丁目２番７－３６１４号,,13,103,1080075,,,,,,,2024-08-14,1,,,,,フレーモ,0
1736,7010903009279,新規,0,2024-08-14,2024-08-14,ＩＭＭＫ企画合同会社,,合同会社,東京都,世田谷区,瀬田４丁目１３番５号,,13,112,1580095,,,,,,,2024-08-14,1,,,,,アイエムエムケーキカク,0
1739,7011001164017,新規,0,2024-08-14,2024-08-14,株式会社Ｓｋｅｔｃｈ,,株式会社,東京都,渋谷区,代官山町９番１０号,,13,113,1500034,,,,,,,2024-08-14,1,,,,,スケッチ,0
1740,7011001164025,新規,0,2024-08-14,2024-08-14,エックスホールディングス株式会社,,株式会社,東京都,渋谷区,恵比寿西２丁目８番４号ＥＸ恵比寿西ビル５階,,13,113,1500021,,,,,,,2024-08-14,1,,,,,エックスホールディングス,0
1741,7011001164033,新規,0,2024-08-14,2024-08-14,株式会社ｕｙｅｎ,,株式会社,東京都,渋谷区,神宮前３丁目１１番４号,,13,113,1500001,,,,,,,2024-08-14,1,,,,,ユエン,0
1742,7011001164116,新規,0,2024-08-14,2024-08-14,ｎｅｍｏｓ株式会社,,株式会社,東京都,渋谷区,道玄坂１丁目１０番８号渋谷道玄坂東急ビル２Ｆ‐Ｃ,,13,113,1500043,,,,,,,2024-08-14,1,,,,,ネモス,0
1744,7011003019747,新規,0,2024-08-14,2024-08-14,合同会社エルシーエス,,合同会社,東京都,渋谷区,道玄坂１丁目１０番８号渋谷道玄坂東急ビル２Ｆ－Ｃ,,13,113,1500043,,,,,,,2024-08-14,1,,,,,エルシーエス,0
1746,7011101108385,新規,0,2024-08-14,2024-08-14,ジョショウ株式会社,,株式会社,東京都,新宿区,水道町１番２１号ピアース神楽坂センティア５０２,,13,104,1620811,,,,,,,2024-08-14,1,,,,,ジョショウ,0
1747,7011101108393,新規,0,2024-08-14,2024-08-14,晴レ株式会社,,株式会社,東京都,新宿区,南榎町６６－３,,13,104,1620852,,,,,,,2024-08-14,1,,,,,ハレ,0
1748,7011101108419,新規,0,2024-08-14,2024-08-14,株式会社趣,,株式会社,東京都,新宿区,西新宿６丁目５番１号新宿アイランドタワー２階,,13,104,1600023,,,,,,,2024-08-14,1,,,,,オモムキ,0
1749,7011101108435,新規,0,2024-08-14,2024-08-14,株式会社七竈,,株式会社,東京都,新宿区,若葉１丁目６番地,,13,104,1600011,,,,,,,2024-08-14,1,,,,,ナナカマド,0
1750,7011103014788,新規,0,2024-08-14,2024-08-14,合同会社ＪＯＶＡ,,合同会社,東京都,新宿区,西新宿３丁目３番１３号西新宿水間ビル６階,,13,104,1600023,,,,,,,2024-08-14,1,,,,,ジョバ,0
1753,7011201025704,新規,0,2024-08-14,2024-08-14,株式会社ＬａｖｅＮｅｘｔ,,株式会社,東京都,中野区,中央２丁目４４番９号,,13,114,1640011,,,,,,,2024-08-14,1,,,,,レビネクスト,0
1754,7011301029902,新規,0,2024-08-14,2024-08-14,株式会社ツタワル木,,株式会社,東京都,杉並区,善福寺２丁目１９番２号１０１,,13,115,1670041,,,,,,,2024-08-14,1,,,,,ツタワルキ,0
1755,7011301029910,新規,0,2024-08-14,2024-08-14,株式会社虎子,,株式会社,東京都,杉並区,和泉２丁目３４番９号,,13,115,1680063,,,,,,,2024-08-14,1,,,,,,0
1758,7011303005249,新規,0,2024-08-14,2024-08-14,合同会社Ｂ２ＢＷ,,合同会社,東京都,杉並区,浜田山１丁目２３番７号,,13,115,1680065,,,,,,,2024-08-14,1,,,,,ビートゥービーワイルド,0
1759,7011303005257,新規,0,2024-08-14,2024-08-14,八コーポレーション合同会社,,合同会社,東京都,杉並区,高井戸東２丁目１６番３号,,13,115,1680072,,,,,,,2024-08-14,1,,,,,ハチコーポレーション,0
1763,7011601027985,新規,0,2024-08-14,2024-08-14,吉田興業株式会社,,株式会社,東京都,練馬区,田柄３丁目１９番２０－１０１号,,13,120,1790073,,,,,,,2024-08-14,1,,,,,ヨシダコウギョウ,0
1764,7011801044698,新規,0,2024-08-14,2024-08-14,株式会社ＭＡＫＡＬＩＲＡ,,株式会社,東京都,足立区,古千谷本町１丁目９番８号,,13,121,1210832,,,,,,,2024-08-14,1,,,,,マカリラ,0
1765,7012301014043,新規,0,2024-08-14,2024-08-14,株式会社スタンダードダイニング,,株式会社,東京都,町田市,中町１丁目１０番２３号１Ｆ,,13,209,1940021,,,,,,,2024-08-14,1,,,,,スタンダードダイニング,0
1774,7012801023394,新規,0,2024-08-14,2024-08-14,株式会社ＭＡＮＯＲ,,株式会社,東京都,昭島市,宮沢町２丁目５－１４,,13,207,1960024,,,,,,,2024-08-14,1,,,,,マナー,0
1775,7012801023403,新規,0,2024-08-14,2024-08-14,株式会社ＴＪトラスト,,株式会社,東京都,日野市,大坂上３丁目１６番地の５,,13,212,1910061,,,,,,,2024-08-14,1,,,,,ティージェートラスト,0
1777,7013301052974,新規,0,2024-08-14,2024-08-14,ＴＫ３株式会社,,株式会社,東京都,豊島区,池袋２丁目３７番１０号ＧＲＡＮＳＩＴＥＩＫＥＢＵＫＵＲＯ８０２,,13,116,1710014,,,,,,,2024-08-14,1,,,,,ティーケースリー,0
1778,7013303007258,新規,0,2024-08-14,2024-08-14,合同会社ＨＩＳＴＯＲＹ．,,合同会社,東京都,豊島区,池袋１丁目１番２号サンハイツときわＢ１０３,,13,116,1700014,,,,,,,2024-08-14,1,,,,,ヒストリー,0
1789,7020003026637,新規,0,2024-08-14,2024-08-14,合同会社むち子,,合同会社,神奈川県,川崎市宮前区,鷺沼３丁目１１番地１８５,,14,136,2160004,,,,,,,2024-08-14,1,,,,,ムチコ,0
1796,7021001082969,新規,0,2024-08-14,2024-08-14,株式会社佐藤,,株式会社,神奈川県,海老名市,望地１丁目７番１号,,14,215,2430403,,,,,,,2024-08-14,1,,,,,サトウ,0
1797,7021001082993,新規,0,2024-08-14,2024-08-14,株式会社東海林工業,,株式会社,神奈川県,足柄上郡開成町,中之名３０番地１,,14,366,2580024,,,,,,,2024-08-14,1,,,,,ショウジコウギョウ,0
1798,7021001083001,新規,0,2024-08-14,2024-08-14,Ｆｌｅｘ　Ｆｌｅｅｔ株式会社,,株式会社,神奈川県,藤沢市,鵠沼松が岡２丁目１３番１０号,00135950,14,205,2510038,,,,,,,2024-08-14,1,,,,,フレックスフリート,0
1799,7021003014895,新規,0,2024-08-14,2024-08-14,合同会社誠真輸送,,合同会社,神奈川県,大和市,深見台１丁目１１番３２号ココビレッジ２０４号,,14,213,2420013,,,,,,,2024-08-14,1,,,,,セイシンユソウ,0
1807,7030001161880,新規,0,2024-08-14,2024-08-14,株式会社ＴＬ,,株式会社,埼玉県,坂戸市,関間４丁目４－５２－１１,,11,239,3500215,,,,,,,2024-08-14,1,,,,,ティーエル,0
1808,7030001161914,新規,0,2024-08-14,2024-08-14,ＤＢＤコミュニケアデザイン株式会社,,株式会社,埼玉県,新座市,野火止７丁目９番６号,,11,230,3520011,,,,,,,2024-08-14,1,,,,,ディービーディーコミュニケアデザイン,0
1809,7030001161922,新規,0,2024-08-14,2024-08-14,株式会社ＳＹ電子,,株式会社,埼玉県,吉川市,中曽根１丁目１３番地２１,,11,243,3420033,,,,,,,2024-08-14,1,,,,,エスワイデンシ,0
1810,7030001161930,新規,0,2024-08-14,2024-08-14,株式会社オギノエンジニア,,株式会社,埼玉県,所沢市,大字中新井５５１番地,,11,208,3590041,,,,,,,2024-08-14,1,,,,,オギノエンジニア,0
1811,7030001161955,新規,0,2024-08-14,2024-08-14,双澤工業株式会社,,株式会社,埼玉県,草加市,柳島町５１３番地７－２０１号室,,11,221,3400033,,,,,,,2024-08-14,1,,,,,フタサワコウギョウ,0
1812,7030001161971,新規,0,2024-08-14,2024-08-14,株式会社カネコ,,株式会社,埼玉県,本庄市,沼和田８８２番地,,11,211,3670072,,,,,,,2024-08-14,1,,,,,カネコ,0
1815,7030003024912,新規,0,2024-08-14,2024-08-14,合同会社メインテイン,,合同会社,埼玉県,川口市,並木１丁目２６番４５号,,11,203,3320034,,,,,,,2024-08-14,1,,,,,メインテイン,0
1816,7030003024929,新規,0,2024-08-14,2024-08-14,ＴＡＯ合同会社,,合同会社,埼玉県,秩父市,荒川白久２１７４番地１２,,11,207,3691912,,,,,,,2024-08-14,1,,,,,タオ,0
1819,7040001134778,新規,0,2024-08-14,2024-08-14,ミラクルトレジャー株式会社,,株式会社,千葉県,千葉市若葉区,富田町１２４４番地２,,12,104,2650041,,,,,,,2024-08-14,1,,,,,ミラクルトレジャー,0
1820,7040001134910,新規,0,2024-08-14,2024-08-14,株式会社オーティーエスホールディングス,,株式会社,千葉県,千葉市中央区,都町６丁目１番１号,,12,101,2600001,,,,,,,2024-08-14,1,,,,,オーティーエスホールディングス,0
1821,7040001134927,新規,0,2024-08-14,2024-08-14,株式会社紫＿,00135940,株式会社,千葉県,匝瑳市,八日市場イ１４５４番地４,,12,235,2892144,,,,,,,2024-08-14,1,,,,,シオン,0
1824,7040003025604,新規,0,2024-08-14,2024-08-14,合同会社大和,,合同会社,千葉県,船橋市,高野台３丁目６番２６号,,12,204,2740801,,,,,,,2024-08-14,1,,,,,ヤマト,0
1825,7050001055247,新規,0,2024-08-14,2024-08-14,トコシエ醸造株式会社,,株式会社,茨城県,龍ケ崎市,佐貫１丁目２－１５,,08,208,3010032,,,,,,,2024-08-14,1,,,,,トコシエジョウゾウ,0
1829,7070001042078,新規,0,2024-08-14,2024-08-14,株式会社ＥａｓｔＧｒｏｕｐ,,株式会社,群馬県,太田市,本町４４番５－ゼファー２０６号,,10,205,3730057,,,,,,,2024-08-14,1,,,,,イーストグループ,0
1830,7080001026443,新規,0,2024-08-14,2024-08-14,株式会社アクアメンティ,,株式会社,静岡県,静岡市駿河区,馬渕３丁目５番６－１０３号,,22,102,4228063,,,,,,,2024-08-14,1,,,,,アクアメンティ,0
1836,7110005017121,新規,0,2024-08-14,2024-08-14,一般社団法人長岡スケートボード委員会,,その他の設立登記法人,新潟県,長岡市,南町１丁目９番６号コーポ信濃１０７号室,,15,202,9400081,,,,,,,2024-08-14,1,,,,,ナガオカスケートボードイインカイ,0
1846,7120001267685,新規,0,2024-08-14,2024-08-14,株式会社平野建装,,株式会社,大阪府,大阪市都島区,都島南通２丁目１０番２３号,,27,102,5340023,,,,,,,2024-08-14,1,,,,,ヒラノケンソウ,0
1847,7120001267702,新規,0,2024-08-14,2024-08-14,株式会社ザ・ゴールドレーベル,,株式会社,大阪府,大阪市西区,南堀江１丁目１０番１１号西谷ビル３号館,,27,106,5500015,,,,,,,2024-08-14,1,,,,,ザゴールドレーベル,0
1848,7120001267735,新規,0,2024-08-14,2024-08-14,株式会社Ｈ＆Ｋコンサルティング,,株式会社,大阪府,大阪市西淀川区,姫島１丁目１２番１６号,,27,113,5550033,,,,,,,2024-08-14,1,,,,,エイチアンドケイコンサルティング,0
1849,7120001267743,新規,0,2024-08-14,2024-08-14,株式会社ＷａｓｈＬａｂ．,,株式会社,大阪府,大阪市中央区,北久宝寺町２丁目６番１号ＲＥ－０１７．４０１号室,,27,128,5410057,,,,,,,2024-08-14,1,,,,,ウォッシュラボ,0
1851,7120003027303,新規,0,2024-08-14,2024-08-14,合同会社シェリ,,合同会社,大阪府,大阪市東住吉区,南田辺１丁目７番７号,,27,121,5460033,,,,,,,2024-08-14,1,,,,,シェリ,0
1852,7120101070139,新規,0,2024-08-14,2024-08-14,株式会社ＩＤＯ,,株式会社,大阪府,阪南市,鳥取中１９６番地の２ＩＤＥＡビル５０３号室,,27,232,5990211,,,,,,,2024-08-14,1,,,,,アイディーオー,0
1855,7120901049605,新規,0,2024-08-14,2024-08-14,豊中学校空調サービス株式会社,,株式会社,大阪府,豊中市,北条町３丁目１４番４号,,27,203,5610812,,,,,,,2024-08-14,1,,,,,トヨナカガッコウクウチョウサービス,0
1856,7120903005300,新規,0,2024-08-14,2024-08-14,合同会社トマトこども倶楽部,,合同会社,大阪府,高槻市,如是町２４－１２－３０５,,27,207,5690827,,,,,,,2024-08-14,1,,,,,トマトコドモクラブ,0
1859,7130003009779,新規,0,2024-08-14,2024-08-14,茶房白庭合同会社,,合同会社,京都府,京都市西京区,大枝西新林町２丁目１番地１１棟７０１号,,26,111,6101141,,,,,,,2024-08-14,1,,,,,サボウバイティン,0
1863,7140001135469,新規,0,2024-08-14,2024-08-14,株式会社マツモト,,株式会社,兵庫県,西宮市,大島町３番７号,,28,204,6638017,,,,,,,2024-08-14,1,,,,,マツモト,0
1864,7140001135510,新規,0,2024-08-14,2024-08-14,エルアップシステム株式会社,,株式会社,兵庫県,神戸市中央区,磯上通４丁目１－１４三宮スカイビル７階,,28,110,6510086,,,,,,,2024-08-14,1,,,,,エルアップシステム,0
1865,7140001135519,新規,0,2024-08-14,2024-08-14,株式会社ＰＯＮＴ,,株式会社,兵庫県,宍粟市,山崎町山田１７３番地２,,28,227,6712575,,,,,,,2024-08-14,1,,,,,ポント,0
1866,7140001135527,新規,0,2024-08-14,2024-08-14,株式会社スロープ・ライフ,,株式会社,兵庫県,明石市,小久保２丁目７－９－４０７,,28,203,6730005,,,,,,,2024-08-14,1,,,,,スロープライフ,0
1873,7140003020958,新規,0,2024-08-14,2024-08-14,ＥＵＰＨＯ合同会社,,合同会社,兵庫県,神戸市中央区,磯辺通１丁目１番１８号カサベラ国際プラザビル７０７号室,,28,110,6510084,,,,,,,2024-08-14,1,,,,,ユーフォ,0
1874,7140005027183,新規,0,2024-08-14,2024-08-14,一般社団法人温故創新,,その他の設立登記法人,兵庫県,姫路市,網干区興浜６７番地,,28,201,6711241,,,,,,,2024-08-14,1,,,,,オンコソウシン,0
1880,7160001026154,新規,0,2024-08-14,2024-08-14,株式会社ライズ,,株式会社,滋賀県,大津市,横木２丁目２３－３,,25,201,5200063,,,,,,,2024-08-14,1,,,,,ライズ,0
1881,7160003003267,新規,0,2024-08-14,2024-08-14,合同会社ＪＩＬＬ,,合同会社,滋賀県,大津市,南郷５丁目７番２２号,,25,201,5200865,,,,,,,2024-08-14,1,,,,,ジル,0
1889,7180001162815,新規,0,2024-08-14,2024-08-14,株式会社エム・ティー・エイ,,株式会社,愛知県,日進市,藤塚３丁目３６９番地,,23,230,4700117,,,,,,,2024-08-14,1,,,,,エムティーエイ,0
1890,7180001162848,新規,0,2024-08-14,2024-08-14,株式会社ＰＯＬＡＲ　ＢＥＡＲ,,株式会社,愛知県,名古屋市千種区,覚王山通８丁目７０番地の１,,23,101,4640841,,,,,,,2024-08-14,1,,,,,ポーラーベアー,0
1891,7180001162856,新規,0,2024-08-14,2024-08-14,ＮＡＰ株式会社,,株式会社,愛知県,知多郡武豊町,字北新田９２番地１ＣＲＥＳＣＡＳＡ１０３号,,23,447,4702547,,,,,,,2024-08-14,1,,,,,エヌエーピー,0
1892,7180001162880,新規,0,2024-08-14,2024-08-14,株式会社ＮＹエステート,,株式会社,愛知県,愛知郡東郷町,白鳥３丁目９番地３,,23,302,4700155,,,,,,,2024-08-14,1,,,,,エヌワイエステート,0
1896,7180301038962,新規,0,2024-08-14,2024-08-14,ジャッキーコーポレーション株式会社,,株式会社,愛知県,豊川市,御油町堺畑２２番地の１,,23,207,4410211,,,,,,,2024-08-14,1,,,,,ジャッキーコーポレーション,0
1898,7180303006224,新規,0,2024-08-14,2024-08-14,合同会社大山屋,,合同会社,愛知県,豊橋市,天伯町字東天伯５４番地８,,23,201,4418122,,,,,,,2024-08-14,1,,,,,オオヤマヤ,0
1900,7200001042816,新規,0,2024-08-14,2024-08-14,株式会社ケアレンタカー,,株式会社,岐阜県,各務原市,蘇原緑町１丁目８番地,,21,213,5040902,,,,,,,2024-08-14,1,,,,,ケアレンタカー,0
1909,7230003002237,新規,0,2024-08-14,2024-08-14,合同会社ＴＥＮＴＥＫＩＬＡＢＯ富山,,合同会社,富山県,富山市,高木南１０２‐１４,,16,201,9300106,,,,,,,2024-08-14,1,,,,,テンテキラボトヤマ,0
1912,7240001063701,新規,0,2024-08-14,2024-08-14,株式会社タニカ建築,,株式会社,広島県,福山市,沖野上町２丁目２番２８－１０５号,,34,207,7200825,,,,,,,2024-08-14,1,,,,,タニカケンチク,0
1924,7330001032341,新規,0,2024-08-14,2024-08-14,株式会社Ｒａｄ　ｄａｄｄｙ,,株式会社,熊本県,熊本市西区,二本木３丁目４番２２号１００１,,43,103,8600051,,,,,,,2024-08-14,1,,,,,ラッドダディー,0
1929,7360001034054,新規,0,2024-08-14,2024-08-14,株式会社ビーチボー,,株式会社,沖縄県,中頭郡北谷町,字浜川２３０番地,,47,326,9040112,,,,,,,2024-08-14,1,,,,,ビーチボー,0
1930,7360005007089,新規,0,2024-08-14,2024-08-14,一般社団法人マナティ,,その他の設立登記法人,沖縄県,浦添市,安波茶１丁目２７－９すえひろビル３Ｆ,,47,208,9012114,,,,,,,2024-08-14,1,,,,,マナティ,0
1935,7390003002270,新規,0,2024-08-14,2024-08-14,合同会社Ｂｌｕｅ　Ｂｅｅ,,合同会社,山形県,米沢市,大字笹野６５３７番地,,06,202,9921443,,,,,,,2024-08-14,1,,,,,ブルービー,0
1936,7400001016758,新規,0,2024-08-14,2024-08-14,株式会社エイテック,,株式会社,岩手県,盛岡市,城西町１４番１７号,,03,201,0200044,,,,,,,2024-08-14,1,,,,,エイテック,0
1938,7420003002977,新規,0,2024-08-14,2024-08-14,合同会社フィレール,,合同会社,青森県,八戸市,新井田西１丁目１０番２７号,,02,203,0310816,,,,,,,2024-08-14,1,,,,,フィレール,0
1942,7430001092458,新規,0,2024-08-14,2024-08-14,渡辺電気株式会社,,株式会社,北海道,札幌市北区,新琴似二条１０丁目１番２２号,,01,102,0010902,,,,,,,2024-08-14,1,,,,,ワタナベデンキ,0
1943,7430001092490,新規,0,2024-08-14,2024-08-14,株式会社なかよしメイト,,株式会社,北海道,札幌市北区,北三十七条西５丁目１番１６号,,01,102,0010037,,,,,,,2024-08-14,1,,,,,ナカヨシメイト,0
1946,7430003016679,新規,0,2024-08-14,2024-08-14,合同会社トマト,,合同会社,北海道,苫小牧市,三光町２丁目１番２４号,,01,213,0530042,,,,,,,2024-08-14,1,,,,,トマト,0
1953,7490001010851,新規,0,2024-08-14,2024-08-14,株式会社Ｔｏｍｉ,,株式会社,高知県,高知市,六泉寺町１５６－５,,39,201,7808023,,,,,,,2024-08-14,1,,,,,ツゥミー,0
1955,7500001025823,新規,0,2024-08-14,2024-08-14,株式会社みらい創健,,株式会社,愛媛県,今治市,郷六ヶ内町１丁目５番２５号,,38,202,7940825,,,,,,,2024-08-14,1,,,,,ミライソウケン,0
1966,8010001247334,新規,0,2024-08-14,2024-08-14,株式会社ＹＵＫＩＣＨＩ,,株式会社,東京都,中央区,勝どき４丁目６番２号パークタワー勝どきミッド,,13,102,1040054,,,,,,,2024-08-14,1,,,,,ユキチ,0
1967,8010001247375,新規,0,2024-08-14,2024-08-14,ＪＰＧ第５号株式会社,,株式会社,東京都,千代田区,霞が関３丁目２番１号,,13,101,1000013,,,,,,,2024-08-14,1,,,,,ジェイピージーダイゴゴウ,0
1968,8010001247383,新規,0,2024-08-14,2024-08-14,株式会社ＧｒｏｗＮｅｘｕｓ,,株式会社,東京都,中央区,日本橋兜町１７－２兜町第６葉山ビル４Ｆ,,13,102,1030026,,,,,,,2024-08-14,1,,,,,グローネクサス,0
1969,8010001247409,新規,0,2024-08-14,2024-08-14,株式会社Ｓｔａｒ　Ｂｌｏｏｍ,,株式会社,東京都,中央区,銀座１丁目２２番１１号銀座大竹ビジデンス２階,,13,102,1040061,,,,,,,2024-08-14,1,,,,,スターブルーム,0
1970,8010001247458,新規,0,2024-08-14,2024-08-14,株式会社ＡＦＲＡＴＯ　Ｐａｒｔｎｅｒ,,株式会社,東京都,中央区,築地７丁目８番地３号－３０８号,,13,102,1040045,,,,,,,2024-08-14,1,,,,,アフラートパートナー,0
1971,8010001247466,新規,0,2024-08-14,2024-08-14,株式会社三つ星,,株式会社,東京都,文京区,千駄木２丁目４８番７号,,13,105,1130022,,,,,,,2024-08-14,1,,,,,ミツボシ,0
1973,8010003044176,新規,0,2024-08-14,2024-08-14,合同会社ｉＲａｋｕｓａ,,合同会社,東京都,中央区,銀座１丁目２２番１１号銀座大竹ビジデンス２Ｆ,,13,102,1040061,,,,,,,2024-08-14,1,,,,,イラクサ,0
1974,8010003044548,新規,0,2024-08-14,2024-08-14,合同会社Ｗｅｓｔ,,合同会社,東京都,千代田区,岩本町２丁目１番９－１００１,,13,101,1010032,,,,,,,2024-08-14,1,,,,,ウエスト,0
1982,8010401184417,新規,0,2024-08-14,2024-08-14,株式会社ＵＮＭＡＳＫ,,株式会社,東京都,港区,南青山３丁目１番３６号南青山丸竹ビル６Ｆ,,13,103,1070062,,,,,,,2024-08-14,1,,,,,アンマスク,0
1983,8010401184466,新規,0,2024-08-14,2024-08-14,株式会社ｎｅａｒｌｙ,,株式会社,東京都,港区,赤坂６丁目１３番１３－９０１号エスト・グランディールＣＡＲＯ赤坂,,13,103,1070052,,,,,,,2024-08-14,1,,,,,ニアリー,0
1987,8010403033225,新規,0,2024-08-14,2024-08-14,合同会社ワーレン,,合同会社,東京都,港区,南青山３丁目１番３６号青山丸竹ビル６階,,13,103,1070062,,,,,,,2024-08-14,1,,,,,ワーレン,0
1988,8010405023496,新規,0,2024-08-14,2024-08-14,一般社団法人暁,,その他の設立登記法人,東京都,港区,虎ノ門３丁目１８番１２－５０２号株式会社虎ノ門会計神谷町分室内,,13,103,1050001,,,,,,,2024-08-14,1,,,,,アカツキ,0
1994,8010801035319,新規,0,2024-08-14,2024-08-14,株式会社ＥＭ,,株式会社,東京都,大田区,田園調布本町２６番１２号メゾンドゥシラカバ２０２,,13,111,1450072,,,,,,,2024-08-14,1,,,,,イーエム,0
2000,8010901055778,新規,0,2024-08-14,2024-08-14,株式会社プライムコンディションズ,,株式会社,東京都,世田谷区,弦巻３丁目１９番１４号,,13,112,1540016,,,,,,,2024-08-14,1,,,,,プライムコンディションズ,0
2001,8010901055786,新規,0,2024-08-14,2024-08-14,株式会社ＭＩＰ,,株式会社,東京都,世田谷区,宮坂１丁目３４－２８フォルム世田谷経堂３０７,,13,112,1560051,,,,,,,2024-08-14,1,,,,,エムアイピー,0
2002,8010903009278,新規,0,2024-08-14,2024-08-14,合同会社Ｐｌｅａｓａｎｔ　Ｐａｒｋ,,合同会社,東京都,世田谷区,赤堤３丁目１３番２号,,13,112,1560044,,,,,,,2024-08-14,1,,,,,プレザントパーク,0
2012,8011001163926,新規,0,2024-08-14,2024-08-14,ＤＡＩＭＡＲＵ　Ｅｎｔｅｒｐｒｉｓｅ株式会社,,株式会社,東京都,渋谷区,代官山町１６番２号,,13,113,1500034,,,,,,,2024-08-14,1,,,,,ダイマルエンタープライズ,0
2014,8011101108319,新規,0,2024-08-14,2024-08-14,株式会社ヤマギシ,,株式会社,東京都,新宿区,西落合２丁目１５番２号,,13,104,1610031,,,,,,,2024-08-14,1,,,,,ヤマギシ,0
2015,8011101108384,新規,0,2024-08-14,2024-08-14,日本碧化学株式会社,,株式会社,東京都,新宿区,西落合４丁目１２－１２メゾン舞３０２号室,,13,104,1610031,,,,,,,2024-08-14,1,,,,,ニホンミドリカガク,0
2016,8011101108392,新規,0,2024-08-14,2024-08-14,株式会社ＡＮＤＡＲＤ,,株式会社,東京都,新宿区,新小川町４－９ＰＲＥＭＩＵＭＣＵＢＥ飯田橋＃ｍｏ４１１,,13,104,1620814,,,,,,,2024-08-14,1,,,,,アンダード,0
2017,8011101108442,新規,0,2024-08-14,2024-08-14,株式会社ＨＡＲＩ　ａｎｄ,,株式会社,東京都,新宿区,西新宿３丁目７番１号新宿パークタワーＮ棟３０階,,13,104,1600023,,,,,,,2024-08-14,1,,,,,ハリアンド,0
2019,8011105011122,新規,0,2024-08-14,2024-08-14,一般社団法人家づくりまるわかり支援機構,,その他の設立登記法人,東京都,新宿区,新宿３丁目４－８京王フレンテ新宿三丁目４階４０２,,13,104,1600022,,,,,,,2024-08-14,1,,,,,イエヅクリマルワカリシエンキコウ,0
2022,8011301029918,新規,0,2024-08-14,2024-08-14,株式会社Ｋ＆Ｉアドバイザー,,株式会社,東京都,杉並区,阿佐谷北６丁目４７番１５号,,13,115,1660001,,,,,,,2024-08-14,1,,,,,ケーアンドアイアドバイザー,0
2023,8011301029926,新規,0,2024-08-14,2024-08-14,株式会社Ｆｕｔｕｒｅ　Ｓｔａｙ,,株式会社,東京都,杉並区,高円寺南２丁目３７番１４－６０１号,,13,115,1660003,,,,,,,2024-08-14,1,,,,,フューチャーステー,0
2024,8011303005256,新規,0,2024-08-14,2024-08-14,合同会社安藤エステート,,合同会社,東京都,杉並区,成田西１丁目１５番９号,,13,115,1660016,,,,,,,2024-08-14,1,,,,,,0
2030,8011801044680,新規,0,2024-08-14,2024-08-14,株式会社即入居,,株式会社,東京都,足立区,一ツ家１丁目２２－２０,,13,121,1210075,,,,,,,2024-08-14,1,,,,,ソクニュウキョ,0
2031,8011801044697,新規,0,2024-08-14,2024-08-14,株式会社高木商事,,株式会社,東京都,足立区,鹿浜１丁目９－１１第３さくらコーポ１０１号,,13,121,1230864,,,,,,,2024-08-14,1,,,,,タカギショウジ,0
2033,8012301014042,新規,0,2024-08-14,2024-08-14,株式会社Ｔ＆Ｓ企画,,株式会社,東京都,町田市,玉川学園７丁目３２番２３号,,13,209,1940041,,,,,,,2024-08-14,1,,,,,ティーアンドエスキカク,0
2035,8012403006714,新規,0,2024-08-14,2024-08-14,ａｎｄ　Ｕ合同会社,,合同会社,東京都,狛江市,和泉本町４丁目４番２４－７号,,13,219,2010003,,,,,,,2024-08-14,1,,,,,アンドユー,0
2038,8012803003492,新規,0,2024-08-14,2024-08-14,合同会社Ｓｅｃｒｅｔ　ｂａｓｅ,,合同会社,東京都,立川市,若葉町１丁目１３番地の２けやき台団地５棟４０７号,,13,202,1900001,,,,,,,2024-08-14,1,,,,,シークレットベース,0
2045,8020001158407,新規,0,2024-08-14,2024-08-14,株式会社鄭工業,,株式会社,神奈川県,横浜市鶴見区,豊岡町２０番９号サンコーポ豊岡６０３,,14,101,2300062,,,,,,,2024-08-14,1,,,,,テイコウギョウ,0
2046,8020001158563,新規,0,2024-08-14,2024-08-14,株式会社光,,株式会社,神奈川県,川崎市麻生区,はるひ野５丁目４番３号トゥトゥヴェリィはるひ野Ｂ棟００３号,,14,137,2150036,,,,,,,2024-08-14,1,,,,,ヒカリ,0
2047,8020001158679,新規,0,2024-08-14,2024-08-14,株式会社ゼノファクトリー,,株式会社,神奈川県,横浜市青葉区,あざみ野４丁目１５－６プラムスクエア１０６,,14,117,2250011,,,,,,,2024-08-14,1,,,,,ゼノファクトリー,0
2049,8020003026594,新規,0,2024-08-14,2024-08-14,合同会社コイソＦＡＭサービス,,合同会社,神奈川県,川崎市中原区,下小田中６丁目３１番７－３０１号,,14,133,2110041,,,,,,,2024-08-14,1,,,,,コイソエフエーエムサービス,0
2050,8020003026628,新規,0,2024-08-14,2024-08-14,ＡＬＬＵＳ合同会社,,合同会社,神奈川県,横浜市神奈川区,金港町５－１４クアドリフォリオ８階,,14,102,2210056,,,,,,,2024-08-14,1,,,,,オーラス,0
2051,8021001082984,新規,0,2024-08-14,2024-08-14,株式会社オトギプロプラス,,株式会社,神奈川県,鎌倉市,御成町１５番８号,,14,204,2480012,,,,,,,2024-08-14,1,,,,,オトギプロプラス,0
2052,8021001083009,新規,0,2024-08-14,2024-08-14,株式会社ＢＡＮＩＧＡＬＡ　ＴＲＡＤＩＮＧ,,株式会社,神奈川県,小田原市,中里４１番地の１－２０４,,14,206,2500872,,,,,,,2024-08-14,1,,,,,バニガラトレーディング,0
2053,8021001083017,新規,0,2024-08-14,2024-08-14,井上商事株式会社,,株式会社,神奈川県,相模原市中央区,上溝９００番地１,,14,152,2520243,,,,,,,2024-08-14,1,,,,,イノウエショウジ,0
2058,8030001161905,新規,0,2024-08-14,2024-08-14,株式会社弘進,,株式会社,埼玉県,川口市,西青木３丁目１５番３２号,,11,203,3320035,,,,,,,2024-08-14,1,,,,,コウシン,0
2059,8030001161913,新規,0,2024-08-14,2024-08-14,株式会社ＦＩＬＩＡ,,株式会社,埼玉県,さいたま市大宮区,桜木町２丁目３番地大宮マルイ７階,,11,103,3300854,,,,,,,2024-08-14,1,,,,,フィリア,0
2060,8030001161921,新規,0,2024-08-14,2024-08-14,株式会社ａｌｌ　ｅｉｇｈｔ,,株式会社,埼玉県,八潮市,緑町２丁目６番地１７,,11,234,3400808,,,,,,,2024-08-14,1,,,,,,0
2061,8030001161946,新規,0,2024-08-14,2024-08-14,株式会社キッズクエスト,,株式会社,埼玉県,比企郡滑川町,大字羽尾６４０－３,,11,341,3550811,,,,,,,2024-08-14,1,,,,,キッズクエスト,0
2062,8030001161970,新規,0,2024-08-14,2024-08-14,株式会社チャレンジャー,,株式会社,埼玉県,鴻巣市,松原４丁目１５番１２号,,11,217,3650042,,,,,,,2024-08-14,1,,,,,チャレンジャー,0
2063,8030001161979,新規,0,2024-08-14,2024-08-14,株式会社ｃａｔｅｎａｃｃｉｏ,,株式会社,埼玉県,川口市,仲町１２－１２,,11,203,3320022,,,,,,,2024-08-14,1,,,,,カテナチオ,0
2069,8030003024911,新規,0,2024-08-14,2024-08-14,Ｋ＆Ｋ合同会社,,合同会社,埼玉県,川口市,南町１丁目１３－２,,11,203,3320026,,,,,,,2024-08-14,1,,,,,ケーアンドケー,0
2071,8040001134934,新規,0,2024-08-14,2024-08-14,株式会社ツナガル,,株式会社,千葉県,流山市,おおたかの森南１丁目２５番地の２－８３１,,12,220,2700139,,,,,,,2024-08-14,1,,,,,ツナガル,0
2075,8050001055238,新規,0,2024-08-14,2024-08-14,株式会社Ｃｏｎｎｅｃｔｒｉｎｇ,,株式会社,茨城県,つくば市,山中４８０番地１１２,,08,220,3050836,,,,,,,2024-08-14,1,,,,,コネクトリング,0
2076,8050001055246,新規,0,2024-08-14,2024-08-14,株式会社マドワークス,,株式会社,茨城県,笠間市,石井５２２番地７,,08,216,3091613,,,,,,,2024-08-14,1,,,,,マドワークス,0
2077,8060001037400,新規,0,2024-08-14,2024-08-14,株式会社日成エクステリア,,株式会社,栃木県,那須塩原市,上厚崎５９４番地１０,,09,213,3250026,,,,,,,2024-08-14,1,,,,,ニッセイエクステリア,0
2078,8060001037409,新規,0,2024-08-14,2024-08-14,Ｓプラン株式会社,,株式会社,栃木県,足利市,鹿島町１５６番地２３,,09,202,3260844,,,,,,,2024-08-14,1,,,,,エスプラン,0
2079,8060003005198,新規,0,2024-08-14,2024-08-14,ＲｕＣｕＲｉ合同会社,,合同会社,栃木県,宇都宮市,上横田町７５５番地１６,,09,201,3210106,,,,,,,2024-08-14,1,,,,,ルクリ,0
2089,8080101024949,新規,0,2024-08-14,2024-08-14,株式会社ＲｅｖｏＴｅｃ,,株式会社,静岡県,沼津市,御幸町８番１２号１階,,22,203,4100832,,,,,,,2024-08-14,1,,,,,レボテック,0
2104,8120001267676,新規,0,2024-08-14,2024-08-14,株式会社松本管理事務所,,株式会社,大阪府,大阪市鶴見区,放出東１丁目３１－１８,,27,124,5380044,,,,,,,2024-08-14,1,,,,,マツモトカンリジムショ,0
2105,8120001267701,新規,0,2024-08-14,2024-08-14,株式会社Ｔｏｗａホールディングス,,株式会社,大阪府,大阪市此花区,常吉２丁目３番４６号,,27,104,5540052,,,,,,,2024-08-14,1,,,,,トーワホールディングス,0
2106,8120001267734,新規,0,2024-08-14,2024-08-14,株式会社ＤＨ,,株式会社,大阪府,大阪市中央区,南船場３丁目１１番１０号心斎橋大陽ビルＢ１Ｆ,,27,128,5420081,,,,,,,2024-08-14,1,,,,,ディーエイチ,0
2107,8120001267742,新規,0,2024-08-14,2024-08-14,株式会社ハートフルコミュニティ,,株式会社,大阪府,大阪市旭区,清水３丁目３３番１０号３Ｆ,,27,117,5350021,,,,,,,2024-08-14,1,,,,,ハートフルコミュニティ,0
2108,8120001267759,新規,0,2024-08-14,2024-08-14,ＧＳコーポレーション株式会社,,株式会社,大阪府,大阪市旭区,清水１丁目１７番８号,,27,117,5350021,,,,,,,2024-08-14,1,,,,,ジーエスコーポレーション,0
2113,8120003027277,新規,0,2024-08-14,2024-08-14,合同会社はれのひ,,合同会社,大阪府,大阪市天王寺区,上本町６丁目９－９－５０３,,27,109,5430001,,,,,,,2024-08-14,1,,,,,ハレノヒ,0
2114,8120003027285,新規,0,2024-08-14,2024-08-14,合同会社浦悦,,合同会社,大阪府,大阪市西成区,長橋３丁目６番１９号長橋ハイツ３０２号室,,27,122,5570025,,,,,,,2024-08-14,1,,,,,ホエツ,0
2115,8120003027302,新規,0,2024-08-14,2024-08-14,合同会社ＡＩ　ＳＴＥＰ,,合同会社,大阪府,大阪市都島区,善源寺町２丁目２番４－１３１５号,,27,102,5340015,,,,,,,2024-08-14,1,,,,,アイステップ,0
2119,8120101070121,新規,0,2024-08-14,2024-08-14,株式会社杭星,,株式会社,大阪府,堺市中区,陶器北４５１－２,,27,142,5998242,,,,,,,2024-08-14,1,,,,,コウセイ,0
2120,8120105009900,新規,0,2024-08-14,2024-08-14,一般社団法人チャペルいずみ,,その他の設立登記法人,大阪府,和泉市,青葉台１丁目１０番９号,,27,219,5941153,,,,,,,2024-08-14,1,,,,,チャペルイズミ,0
2123,8120901049612,新規,0,2024-08-14,2024-08-14,株式会社さわ,,株式会社,大阪府,吹田市,岸部南３丁目３０番１－７０１号,,27,205,5640011,,,,,,,2024-08-14,1,,,,,サワ,0
2132,8130001077645,新規,0,2024-08-14,2024-08-14,かもがわサイエンス株式会社,,株式会社,京都府,京都市北区,小山西花池町３０番地１シルクシティ花・紫明５０３号,,26,101,6038148,,,,,,,2024-08-14,1,,,,,カモガワサイエンス,0
2133,8130001077736,新規,0,2024-08-14,2024-08-14,株式会社ＳＡＹＡＫＡ,,株式会社,京都府,長岡京市,長岡１丁目１番１０号長岡プラザ２０１,,26,209,6170823,,,,,,,2024-08-14,1,,,,,サヤカ,0
2137,8140001135484,新規,0,2024-08-14,2024-08-14,株式会社Ｐｌｏｗ　Ｅｓｔａｔｅ,,株式会社,兵庫県,川西市,寺畑２丁目４番１０－２０６号,,28,217,6660034,,,,,,,2024-08-14,1,,,,,プラウエステート,0
2138,8140001135526,新規,0,2024-08-14,2024-08-14,株式会社アースリッチ川村,,株式会社,兵庫県,姫路市,船津町２５７６－１,,28,201,6792101,,,,,,,2024-08-14,1,,,,,アースリッチカワムラ,0
2143,8160001026153,新規,0,2024-08-14,2024-08-14,株式会社ＳＧ‐Ａｕｔｏ,,株式会社,滋賀県,栗東市,六地蔵１０７８番地,,25,208,5203017,,,,,,,2024-08-14,1,,,,,エスジーオート,0
2144,8170001018240,新規,0,2024-08-14,2024-08-14,株式会社角野,,株式会社,和歌山県,和歌山市,一筋目１番地,,30,201,6408067,,,,,,,2024-08-14,1,,,,,カドノ,0
2146,8170005007099,新規,0,2024-08-14,2024-08-14,ＮＰＯ法人まごころ医療のある暮らし創り,,その他の設立登記法人,和歌山県,海草郡紀美野町,下佐々５３５番地,,30,304,6401121,,,,,,,2024-08-14,1,,,,,マゴコロイリョウノアルクラシヅクリ,0
2153,8180001162913,新規,0,2024-08-14,2024-08-14,株式会社長男,,株式会社,愛知県,名古屋市中村区,名駅５丁目３８－１,,23,105,4500002,,,,,,,2024-08-14,1,,,,,チョウナン,0
2157,8200001042815,新規,0,2024-08-14,2024-08-14,株式会社ケアサポートサービス,,株式会社,岐阜県,関市,下有知３２３８番地１,,21,205,5013217,,,,,,,2024-08-14,1,,,,,ケアサポートサービス,0
2158,8200001042831,新規,0,2024-08-14,2024-08-14,縄山茶屋株式会社,,株式会社,岐阜県,大垣市,外渕２丁目１６５番地１,,21,202,5030934,,,,,,,2024-08-14,1,,,,,ジョウザンチャヤ,0
2166,8230001020487,新規,0,2024-08-14,2024-08-14,株式会社百姓一家,,株式会社,富山県,射水市,朴木１８０番１,,16,211,9340053,,,,,,,2024-08-14,1,,,,,ヒャクショウイッカ,0
2168,8240001063700,新規,0,2024-08-14,2024-08-14,株式会社縁,,株式会社,広島県,福山市,引野町２丁目４０番１４号,,34,207,7210942,,,,,,,2024-08-14,1,,,,,エニシ,0
2170,8240003006806,新規,0,2024-08-14,2024-08-14,アスリード合同会社,,合同会社,広島県,山県郡北広島町,田原５６３番地１,,34,369,7312105,,,,,,,2024-08-14,1,,,,,アスリード,0
2173,8260001039368,新規,0,2024-08-14,2024-08-14,株式会社ＴＲＹ,,株式会社,岡山県,倉敷市,真備町川辺６２６番地,,33,202,7101313,,,,,,,2024-08-14,1,,,,,トライ,0
2181,8290005019462,新規,0,2024-08-14,2024-08-14,一般社団法人ちょこモ,,その他の設立登記法人,福岡県,福岡市博多区,古門戸町７番８号,,40,132,8120029,,,,,,,2024-08-14,1,,,,,チョコモ,0
2185,8310001019174,新規,0,2024-08-14,2024-08-14,未来企画株式会社,,株式会社,長崎県,大村市,協和町７２８－２,,42,205,8560820,,,,,,,2024-08-14,1,,,,,ミライキカク,0
2191,8330001032357,新規,0,2024-08-14,2024-08-14,株式会社浦上内装,,株式会社,熊本県,上天草市,大矢野町中７８９１番地３,,43,212,8693603,,,,,,,2024-08-14,1,,,,,ウラカミナイソウ,0
2192,8330001032373,新規,0,2024-08-14,2024-08-14,株式会社Ｏｎｅｄａｙｓ　Ｊａｐａｎ,,株式会社,熊本県,熊本市中央区,本山３丁目５番１０号エルグランド本山９０１,,43,101,8600821,,,,,,,2024-08-14,1,,,,,ワンデイズジャパン,0
2194,8340003004568,新規,0,2024-08-14,2024-08-14,合同会社加藤,,合同会社,鹿児島県,鹿児島市,武岡３丁目５番１号,,46,201,8900031,,,,,,,2024-08-14,1,,,,,カトウ,0
2198,8360001034078,新規,0,2024-08-14,2024-08-14,株式会社啓設備,,株式会社,沖縄県,豊見城市,字宜保３５番地金城アパート１Ｆ,,47,212,9010244,,,,,,,2024-08-14,1,,,,,ケイセツビ,0
2201,8360003014219,新規,0,2024-08-14,2024-08-14,合同会社Ａｑｕａ‐Ｌｉｆｅ,,合同会社,沖縄県,沖縄市,比屋根６丁目８番３４号,,47,211,9042173,,,,,,,2024-08-14,1,,,,,アクアライフ,0
2202,8360003014227,新規,0,2024-08-14,2024-08-14,合同会社８ｇｌａｓｓ,,合同会社,沖縄県,沖縄市,山里２丁目４番１２号コンフォート山里ライカムタワー７０３,,47,211,9040033,,,,,,,2024-08-14,1,,,,,エイトグラス,0
2213,8400001016757,新規,0,2024-08-14,2024-08-14,株式会社Ｔ＆Ｓコーポレーション,,株式会社,岩手県,盛岡市,中ノ橋通１丁目５番２０号カガヤ中ノ橋通ビル,,03,201,0200871,,,,,,,2024-08-14,1,,,,,,0
2214,8410003003967,新規,0,2024-08-14,2024-08-14,合同会社リクラフト,,合同会社,秋田県,由利本荘市,岩城二古字横砂子１番地１０７,,05,210,0181305,,,,,,,2024-08-14,1,,,,,リクラフト,0
2215,8420003002976,新規,0,2024-08-14,2024-08-14,ＴＨＸ合同会社,,合同会社,青森県,弘前市,大字桔梗野３丁目６番地６,,02,202,0368227,,,,,,,2024-08-14,1,,,,,サンクス,0
2219,8430001092465,新規,0,2024-08-14,2024-08-14,株式会社結,,株式会社,北海道,千歳市,春日町４丁目３番１０－２０７号ライフライン３４,,01,224,0660065,,,,,,,2024-08-14,1,,,,,ユイ,0
2221,8450001014384,新規,0,2024-08-14,2024-08-14,株式会社ころころ,,株式会社,北海道,旭川市,流通団地二条５丁目２２番地の２,,01,204,0798442,,,,,,,2024-08-14,1,,,,,コロコロ,0
2223,8462501001010,新規,0,2024-08-14,2024-08-14,株式会社オーレンス・ホールディングス,,株式会社,北海道,野付郡別海町,別海旭町４８番地１,,01,691,0860202,,,,,,,2024-08-14,1,,,,,オーレンスホールディングス,0
2224,8470001020348,新規,0,2024-08-14,2024-08-14,株式会社平成塗装,,株式会社,香川県,高松市,香川町川東上１９０２番地１,,37,201,7611706,,,,,,,2024-08-14,1,,,,,ヘイセイトソウ,0
2225,8470003002690,新規,0,2024-08-14,2024-08-14,アイランドＤＸ合同会社,,合同会社,香川県,小豆郡土庄町,甲４５１番地,,37,322,7614101,,,,,,,2024-08-14,1,,,,,アイランドディーエックス,0
2226,8490003001922,新規,0,2024-08-14,2024-08-14,合同会社ほっと,,合同会社,高知県,高岡郡津野町,白石丙１８１番地,,39,411,7850213,,,,,,,2024-08-14,1,,,,,ホット,0
2228,8500001025830,新規,0,2024-08-14,2024-08-14,株式会社森松機工,,株式会社,愛媛県,今治市,大正町７丁目１番３１号,,38,202,7940025,,,,,,,2024-08-14,1,,,,,モリマツキコウ,0
2240,9010001247341,新規,0,2024-08-14,2024-08-14,株式会社渦,,株式会社,東京都,中央区,日本橋兜町１７番２号兜町第６葉山ビル４Ｆ,,13,102,1030026,,,,,,,2024-08-14,1,,,,,ウズ,0
2241,9010001247374,新規,0,2024-08-14,2024-08-14,ＪＰＧ第４号株式会社,,株式会社,東京都,千代田区,霞が関３丁目２番１号,,13,101,1000013,,,,,,,2024-08-14,1,,,,,ジェイピージーダイヨンゴウ,0
2242,9010001247390,新規,0,2024-08-14,2024-08-14,株式会社ＦＵＳＥＫＩ,,株式会社,東京都,千代田区,神田和泉町１番地６－１６ヤマトビル４０５,,13,101,1010024,,,,,,,2024-08-14,1,,,,,フセキ,0
2243,9010001247465,新規,0,2024-08-14,2024-08-14,株式会社Ｃａｔｃｈ　ｔｈｅ　ｄｒｅａｍ,,株式会社,東京都,中央区,銀座４丁目１４番３号銀座斉藤ビル４階,,13,102,1040061,,,,,,,2024-08-14,1,,,,,キャッチザドリーム,0
2252,9010401184416,新規,0,2024-08-14,2024-08-14,先鋒海運株式会社,,株式会社,東京都,港区,海岸３丁目３３番地１７号東京ベイサイドビル３Ｆ,,13,103,1080022,,,,,,,2024-08-14,1,,,,,センポウカイウン,0
2253,9010401184424,新規,0,2024-08-14,2024-08-14,衣ＬＡＢＯ．株式会社,,株式会社,東京都,港区,北青山１丁目３番１号アールキューブ青山３階,,13,103,1070061,,,,,,,2024-08-14,1,,,,,コロモラボドット,0
2254,9010401184432,新規,0,2024-08-14,2024-08-14,マーキュリー株式会社,,株式会社,東京都,港区,南麻布１丁目１５－４グランレーブ南麻布５０６,,13,103,1060047,,,,,,,2024-08-14,1,,,,,マーキュリー,0
2255,9010401184449,新規,0,2024-08-14,2024-08-14,株式会社ＩＭＭＯ　ＰＬＵＳ,,株式会社,東京都,港区,南青山３丁目１２番３号４０５,,13,103,1070062,,,,,,,2024-08-14,1,,,,,イーモプラス,0
2256,9010401184457,新規,0,2024-08-14,2024-08-14,株式会社ＸＣＯＲＥ　Ｇａｍｅｓ,,株式会社,東京都,港区,芝５丁目１番１３号ＭＡビル三田ＩＩ２Ｆ,00135934,13,103,1080014,,,,,,,2024-08-14,1,,,,,エックスコアゲームズ,0
2258,9010403033224,新規,0,2024-08-14,2024-08-14,合同会社Ｈｏｒｓｅ,,合同会社,東京都,港区,浜松町２丁目２番１５号浜松町ダイヤビル２Ｆ,,13,103,1050013,,,,,,,2024-08-14,1,,,,,,0
2262,9010505003546,新規,0,2024-08-14,2024-08-14,藤和上野コープ管理組合法人,,その他の設立登記法人,東京都,台東区,東上野４丁目１７番７号,,13,106,1100015,,,,,,,2024-08-14,1,,,,,トウワウエノコープ,0
2267,9010601065746,新規,0,2024-08-14,2024-08-14,株式会社わんぱく３,,株式会社,東京都,墨田区,東駒形４丁目９－１０ＳＫビル２階,,13,107,1300005,,,,,,,2024-08-14,1,,,,,ワンパクスリー,0
2268,9010603011021,新規,0,2024-08-14,2024-08-14,大岡産業合同会社,,合同会社,東京都,墨田区,石原２丁目６番９号,,13,107,1300011,,,,,,,2024-08-14,1,,,,,オオオカサンギョウ,0
2270,9010801035318,新規,0,2024-08-14,2024-08-14,株式会社ＭＡＣＲ,,株式会社,東京都,大田区,大森東５丁目１３番１４号,,13,111,1430012,,,,,,,2024-08-14,1,,,,,マクル,0
2271,9010901055785,新規,0,2024-08-14,2024-08-14,Ｙ＆Ｍエステート株式会社,,株式会社,東京都,世田谷区,代田１丁目３９番１０号,,13,112,1550033,,,,,,,2024-08-14,1,,,,,ワイアンドエムエステート,0
2279,9011001163512,新規,0,2024-08-14,2024-08-14,株式会社ドラマティックフロンティア,,株式会社,東京都,目黒区,上目黒１丁目７－３－２０３,,13,110,1530051,,,,,,,2024-08-14,1,,,,,ドラマティックフロンティア,0
2280,9011001164023,新規,0,2024-08-14,2024-08-14,株式会社Ｂｒｕｇｅｓ,,株式会社,東京都,目黒区,自由が丘１丁目１４番２－６０３号,,13,110,1520035,,,,,,,2024-08-14,1,,,,,ブルージュ,0
2281,9011001164031,新規,0,2024-08-14,2024-08-14,株式会社トライセラトップス,,株式会社,東京都,渋谷区,恵比寿南１丁目１番１号ヒューマックス恵比寿ビル８Ｆ,,13,113,1500022,,,,,,,2024-08-14,1,,,,,トライセラトップス,0
2282,9011001164064,新規,0,2024-08-14,2024-08-14,株式会社ＬＩＢＥＲ,,株式会社,東京都,渋谷区,渋谷２丁目１９－２０宮益坂村瀬ビル１０Ｆ,,13,113,1500002,,,,,,,2024-08-14,1,,,,,リベル,0
2283,9011001164072,新規,0,2024-08-14,2024-08-14,株式会社カルビ,,株式会社,東京都,目黒区,青葉台１丁目１４番４号ＣＯＮＴＲＡＬｎａｋａｍｅｇｕｒｏＷＬ－０９,,13,110,1530042,,,,,,,2024-08-14,1,,,,,カルビ,0
2284,9011001164080,新規,0,2024-08-14,2024-08-14,株式会社グランラスター,,株式会社,東京都,渋谷区,神宮前５丁目３番２１号ＺＵＫＫＩビル２Ｆ,,13,113,1500001,,,,,,,2024-08-14,1,,,,,グランラスター,0
2287,9011003019811,新規,0,2024-08-14,2024-08-14,合同会社ＧＯＬＤＥＮ　ＤＲＡＧＯＮ,,合同会社,東京都,渋谷区,神山町２４番８－１００２号スカイコート渋谷神山町,,13,113,1500047,,,,,,,2024-08-14,1,,,,,ゴールデンドラゴン,0
2292,9011101108391,新規,0,2024-08-14,2024-08-14,株式会社Ｃａｔ　Ｔａｉｌ,,株式会社,東京都,新宿区,西新宿３丁目７番２６号ハイネスロワイヤル６０５,,13,104,1600023,,,,,,,2024-08-14,1,,,,,キャットテール,0
2294,9011103014761,新規,0,2024-08-14,2024-08-14,合同会社Ｓｉｇｍａ,,合同会社,東京都,新宿区,新宿１丁目３６－２新宿第七葉山ビル３Ｆ,,13,104,1600022,,,,,,,2024-08-14,1,,,,,シグマ,0
2296,9011203004464,新規,0,2024-08-14,2024-08-14,優健合同会社,,合同会社,東京都,中野区,東中野１丁目５９番９号２階,,13,114,1640003,,,,,,,2024-08-14,1,,,,,ユウケン,0
2299,9011301029917,新規,0,2024-08-14,2024-08-14,株式会社ＯＫ‐ＮＥＥＤ,,株式会社,東京都,杉並区,善福寺３丁目８番８号,,13,115,1670041,,,,,,,2024-08-14,1,,,,,オーケーニード,0
2304,9011501031012,新規,0,2024-08-14,2024-08-14,雅麗営珠貿易株式会社,,株式会社,東京都,荒川区,町屋３丁目１８番１２号ＮＤビル２１４,,13,118,1160001,,,,,,,2024-08-14,1,,,,,ガレイエイシュボウエキ,0
2315,9011801044671,新規,0,2024-08-14,2024-08-14,Ｇａｂｒｉｅｌ株式会社,,株式会社,東京都,葛飾区,柴又３丁目２０－１５パークサイド柴又３０２室,,13,122,1250052,,,,,,,2024-08-14,1,,,,,ガブリエル,0
2316,9011801044705,新規,0,2024-08-14,2024-08-14,株式会社ネクストソリューションズ,,株式会社,東京都,足立区,新田３丁目３６－２１－２０２,,13,121,1230865,,,,,,,2024-08-14,1,,,,,ネクストソリューションズ,0
2329,9012803003491,新規,0,2024-08-14,2024-08-14,合同会社ＳＣｐｒｏｄｕｃｅ,,合同会社,東京都,立川市,若葉町１丁目１３番地の２けやき台団地５棟４０７号,,13,202,1900001,,,,,,,2024-08-14,1,,,,,エスシープロデュース,0
2335,9013301052972,新規,0,2024-08-14,2024-08-14,芳志株式会社,,株式会社,東京都,豊島区,西池袋５丁目８－９藤和池袋コープ２０５,,13,116,1710021,,,,,,,2024-08-14,1,,,,,ホウシ,0
2336,9013303007256,新規,0,2024-08-14,2024-08-14,合同会社Ｍｅｄｉａ　Ｊｏｃｋｅｙ,,合同会社,東京都,豊島区,南大塚３丁目３６番７号６０４,,13,116,1700005,,,,,,,2024-08-14,1,,,,,メディアジョッキー,0
2342,9020001158447,新規,0,2024-08-14,2024-08-14,和醸オーガニック株式会社,,株式会社,神奈川県,横浜市都筑区,牛久保１丁目１番２４－４０５号,,14,118,2240012,,,,,,,2024-08-14,1,,,,,ワジョウオーガニック,0
2343,9020001158678,新規,0,2024-08-14,2024-08-14,株式会社旅行屋旅吉,,株式会社,神奈川県,横浜市中区,蓬莱町２丁目４番７号,,14,104,2310048,,,,,,,2024-08-14,1,,,,,リョコウヤタビキチ,0
2348,9020005016502,新規,0,2024-08-14,2024-08-14,一般社団法人信者の人権を守る二世の会,,その他の設立登記法人,神奈川県,横浜市西区,浅間町１丁目４番３号ウィザードビル４０２,,14,103,2200072,,,,,,,2024-08-14,1,,,,,シンジャノジンケンヲマモルニセイノカイ,0
2351,9021001082967,新規,0,2024-08-14,2024-08-14,株式会社エスプライド,,株式会社,神奈川県,三浦市,南下浦町上宮田１１６０番地６,,14,210,2380101,,,,,,,2024-08-14,1,,,,,エスプライド,0
2352,9021001082991,新規,0,2024-08-14,2024-08-14,株式会社ＣＡＴＴＬＥＹＡ,,株式会社,神奈川県,相模原市中央区,富士見２丁目７番７－６０５号,,14,152,2520236,,,,,,,2024-08-14,1,,,,,カトレア,0
2358,9021003014860,新規,0,2024-08-14,2024-08-14,合同会社Ｓｔｏｒｍｙ,,合同会社,神奈川県,藤沢市,片瀬４丁目１１―２,,14,205,2510032,,,,,,,2024-08-14,1,,,,,ストーミー,0
2359,9021003014893,新規,0,2024-08-14,2024-08-14,グランフィットグループ合同会社,,合同会社,神奈川県,鎌倉市,由比ガ浜４丁目３番２４号チサンマンション鎌倉３０４号,,14,204,2480014,,,,,,,2024-08-14,1,,,,,グランフィットグループ,0
2361,9030001161945,新規,0,2024-08-14,2024-08-14,株式会社長谷部総合設備,,株式会社,埼玉県,川越市,大字池辺２８０番地,,11,201,3501171,,,,,,,2024-08-14,1,,,,,ハセベソウゴウセツビ,0
2362,9030001161953,新規,0,2024-08-14,2024-08-14,株式会社ＳＴカンパニー,,株式会社,埼玉県,所沢市,上新井５丁目５４番地の２３ハウスネモトＡ,,11,208,3591142,,,,,,,2024-08-14,1,,,,,エスティーカンパニー,0
2363,9030001161986,新規,0,2024-08-14,2024-08-14,Ｗ＆Ｌ株式会社,,株式会社,埼玉県,川口市,元郷５丁目１４番１３－１０２号,,11,203,3320011,,,,,,,2024-08-14,1,,,,,ダブリューアンドエル,0
2372,9030003024935,新規,0,2024-08-14,2024-08-14,合同会社ＵＰ８,,合同会社,埼玉県,さいたま市南区,白幡５丁目３番地２６号ドラゴンマンション武蔵浦和伍番館３０４号室,,11,108,3360022,,,,,,,2024-08-14,1,,,,,アップエイト,0
2374,9030005021807,新規,0,2024-08-14,2024-08-14,一般社団法人日本オーラルケア推進協会,,その他の設立登記法人,埼玉県,白岡市,新白岡８丁目７番地３,,11,246,3490212,,,,,,,2024-08-14,1,,,,,ニホンオーラルケアスイシンキョウカイ,0
2377,9040001134917,新規,0,2024-08-14,2024-08-14,株式会社エーアイ・グリーンエンジニアリング,,株式会社,千葉県,松戸市,西馬橋蔵元町１２５番地ムトービル２階,,12,207,2710046,,,,,,,2024-08-14,1,,,,,エーアイグリーンエンジニアリング,0
2380,9050001055229,新規,0,2024-08-14,2024-08-14,株式会社Ｃｉｃｏｎｉａ,,株式会社,茨城県,筑西市,藤ケ谷２２４２－４,,08,227,3080112,,,,,,,2024-08-14,1,,,,,キコニア,0
2389,9080101024956,新規,0,2024-08-14,2024-08-14,株式会社さくらハウスレンタル,,株式会社,静岡県,沼津市,大岡１２３９番地,,22,203,4100022,,,,,,,2024-08-14,1,,,,,サクラハウスレンタル,0
2391,9100003007701,新規,0,2024-08-14,2024-08-14,ＧＡＴＥ合同会社,,合同会社,長野県,東筑摩郡生坂村,３０４７,,20,448,3997201,,,,,,,2024-08-14,1,,,,,ゲート,0
2407,9120001267576,新規,0,2024-08-14,2024-08-14,立京株式会社,,株式会社,大阪府,大阪市天王寺区,玉造元町２番２２－３０４号,,27,109,5430014,,,,,,,2024-08-14,1,,,,,リツキョウ,0
2408,9120001267683,新規,0,2024-08-14,2024-08-14,株式会社Ｅｍｅｒｇｅｎｃｅ,,株式会社,大阪府,大阪市中央区,難波１丁目４番６号ミフネ難波ビル４０２,,27,128,5420076,,,,,,,2024-08-14,1,,,,,エマージェンス,0
2409,9120001267691,新規,0,2024-08-14,2024-08-14,ほのか株式会社,,株式会社,大阪府,大阪市東住吉区,照ケ丘矢田１丁目８番１３号,,27,121,5460021,,,,,,,2024-08-14,1,,,,,ホノカ,0
2410,9120001267709,新規,0,2024-08-14,2024-08-14,ＭＯＯＮ株式会社,,株式会社,大阪府,大阪市西区,新町１丁目３３番１６号日宝新町ビル４０２号室,,27,106,5500013,,,,,,,2024-08-14,1,,,,,ムーン,0
2411,9120001267741,新規,0,2024-08-14,2024-08-14,株式会社ＦＢイノベーション,,株式会社,大阪府,大阪市中央区,道修町４丁目７番１０号,,27,128,5410045,,,,,,,2024-08-14,1,,,,,エフビーイノベーション,0
2412,9120003027284,新規,0,2024-08-14,2024-08-14,合同会社楽道,,合同会社,大阪府,大阪市西成区,長橋３丁目６番１９号長橋ハイツ１０３号室,,27,122,5570025,,,,,,,2024-08-14,1,,,,,ラクドウ,0
2414,9120901049594,新規,0,2024-08-14,2024-08-14,株式会社Ｋ’ｓ　Ｗｏｒｋｓ,,株式会社,大阪府,吹田市,広芝町４番３４号江坂第一ビル６Ｆ２９号室,,27,205,5640052,,,,,,,2024-08-14,1,,,,,ケイズワークス,0
2415,9120901049603,新規,0,2024-08-14,2024-08-14,株式会社ＮＣアシスト,,株式会社,大阪府,豊中市,少路２丁目３番２５－２０９号,,27,203,5600004,,,,,,,2024-08-14,1,,,,,エヌシーアシスト,0
2419,9130001077702,新規,0,2024-08-14,2024-08-14,株式会社ＩＬＥＯＮＡ,,株式会社,京都府,京都市左京区,下鴨東本町２６番地３－３０２号,,26,103,6060863,,,,,,,2024-08-14,1,,,,,イロナ,0
2425,9140001135475,新規,0,2024-08-14,2024-08-14,株式会社シャイン・ケア,,株式会社,兵庫県,尼崎市,水堂町４丁目２０番２３号,,28,202,6610026,,,,,,,2024-08-14,1,,,,,シャインケア,0
2426,9140001135500,新規,0,2024-08-14,2024-08-14,株式会社古澤産業,,株式会社,兵庫県,姫路市,本町６８番地,,28,201,6700012,,,,,,,2024-08-14,1,,,,,フルサワサンギョウ,0
2428,9140003020972,新規,0,2024-08-14,2024-08-14,ａｐｓ合同会社,,合同会社,兵庫県,尼崎市,武庫元町１丁目３４番１１－２０１号,,28,202,6610043,,,,,,,2024-08-14,1,,,,,エイピーエス,0
2433,9150003003340,新規,0,2024-08-14,2024-08-14,合同会社ＴＴＰ,,合同会社,奈良県,御所市,大字小林１９２番地の９－６７号,,29,208,6392311,,,,,,,2024-08-14,1,,,,,ティティピー,0
2434,9160001026160,新規,0,2024-08-14,2024-08-14,株式会社ＳＵＰＥＲ８,,株式会社,滋賀県,草津市,下笠町６６５番地６,,25,206,5250029,,,,,,,2024-08-14,1,,,,,スーパーエイト,0
2435,9160001026169,新規,0,2024-08-14,2024-08-14,株式会社ｃｏｍｍｉｔ,,株式会社,滋賀県,近江八幡市,中小森町７１８番地１－２０１,,25,204,5230041,,,,,,,2024-08-14,1,,,,,コミット,0
2440,9180001162862,新規,0,2024-08-14,2024-08-14,株式会社サンコウリンク,,株式会社,愛知県,名古屋市西区,上小田井１丁目２６１番地の５,,23,104,4520821,,,,,,,2024-08-14,1,,,,,サンコウリンク,0
2446,9180301038960,新規,0,2024-08-14,2024-08-14,株式会社Ｄ＆Ｇ　Ｃｒｅａｔｅ,,株式会社,愛知県,西尾市,一色町生田西高前２１番地,,23,213,4440412,,,,,,,2024-08-14,1,,,,,ディーアンドジークリエート,0
2451,9200001042822,新規,0,2024-08-14,2024-08-14,株式会社ＭＥＳ,,株式会社,岐阜県,多治見市,松坂町２丁目９番地の１２,,21,204,5070063,,,,,,,2024-08-14,1,,,,,エムイーエス,0
2452,9200001042830,新規,0,2024-08-14,2024-08-14,ＥＭＡＴｅｃｈ株式会社,,株式会社,岐阜県,多治見市,市之倉町３丁目１２７番地,,21,204,5070814,,,,,,,2024-08-14,1,,,,,エマテック,0
2462,9230001020486,新規,0,2024-08-14,2024-08-14,株式会社双邦,,株式会社,富山県,高岡市,姫野４６番地８,,16,202,9340093,,,,,,,2024-08-14,1,,,,,ソウホウ,0
2465,9240001063633,新規,0,2024-08-14,2024-08-14,株式会社栗原,,株式会社,広島県,福山市,大門町５丁目１０番５１号,,34,207,7210926,,,,,,,2024-08-14,1,,,,,クリハラ,0
2466,9240001063716,新規,0,2024-08-14,2024-08-14,ＢｒｉｇｈｔＴｅｃ株式会社,,株式会社,広島県,廿日市市,阿品２丁目１８－２７,,34,213,7380054,,,,,,,2024-08-14,1,,,,,ブライトテック,0
2471,9260005011388,新規,0,2024-08-14,2024-08-14,一般社団法人山林保全協会,,その他の設立登記法人,岡山県,岡山市北区,今５丁目１番１５号,,33,101,7000975,,,,,,,2024-08-14,1,,,,,サンリンホゼンキョウカイ,0
2482,9290801030786,新規,0,2024-08-14,2024-08-14,株式会社ＳＡＩＥＮＺ,,株式会社,福岡県,田川市,大字川宮１６９０番地１,,40,206,8260042,,,,,,,2024-08-14,1,,,,,サイエンス,0
2485,9300001013879,新規,0,2024-08-14,2024-08-14,株式会社オフィスサポート,,株式会社,佐賀県,小城市,三日月町長神田７５８番地３,,41,208,8450021,,,,,,,2024-08-14,1,,,,,オフィスサポート,0
2486,9310003004842,新規,0,2024-08-14,2024-08-14,ココトト合同会社,,合同会社,長崎県,長崎市,魚の町２番１８号,,42,201,8500874,,,,,,,2024-08-14,1,,,,,ココトト,0
2487,9320001020667,新規,0,2024-08-14,2024-08-14,株式会社ＮＥＯ,,株式会社,大分県,由布市,湯布院町川南１５９６－１,,44,213,8795103,,,,,,,2024-08-14,1,,,,,ネオ,0
2489,9340001026729,新規,0,2024-08-14,2024-08-14,ＷＩＬＬファーム株式会社,,株式会社,鹿児島県,奄美市,名瀬小浜町２５番１－９０２号,,46,222,8940006,,,,,,,2024-08-14,1,,,,,ウィルファーム,0
2491,9340003004575,新規,0,2024-08-14,2024-08-14,合同会社福,,合同会社,鹿児島県,鹿児島市,星ヶ峯４丁目１１番１１号,,46,201,8910102,,,,,,,2024-08-14,1,,,,,フク,0
2493,9360001034077,新規,0,2024-08-14,2024-08-14,株式会社スナベマリン,,株式会社,沖縄県,中頭郡北谷町,字宮城２番地２６,,47,326,9040113,,,,,,,2024-08-14,1,,,,,スナベマリン,0
2495,9360003014218,新規,0,2024-08-14,2024-08-14,合同会社天和ハウス,,合同会社,沖縄県,南城市,佐敷字新里６３６番地１,,47,215,9011412,,,,,,,2024-08-14,1,,,,,アマワハウス,0
2498,9370001051641,新規,0,2024-08-14,2024-08-14,株式会社Ｅｎ‐ＤＡＩＫＵ,,株式会社,宮城県,仙台市太白区,金剛沢２丁目７番１８号,,04,104,9820803,,,,,,,2024-08-14,1,,,,,エンダイク,0
2499,9370001051658,新規,0,2024-08-14,2024-08-14,株式会社Ｖｏｉｃｅ,,株式会社,宮城県,仙台市青葉区,北山２丁目５番９号,,04,101,9810931,,,,,,,2024-08-14,1,,,,,ボイス,0
2504,9390001017715,新規,0,2024-08-14,2024-08-14,株式会社飽海商事,,株式会社,山形県,酒田市,光ケ丘３丁目１番４８号,,06,204,9980061,,,,,,,2024-08-14,1,,,,,アクミショウジ,0
2505,9420001018833,新規,0,2024-08-14,2024-08-14,丸真工業株式会社,,株式会社,青森県,青森市,大字新城字平岡１６０番地７９２,,02,201,0380042,,,,,,,2024-08-14,1,,,,,マルシンコウギョウ,0
2510,9430001092456,新規,0,2024-08-14,2024-08-14,株式会社Ｎｏｒｔｈ　Ｗｉｎ　Ｄｉａｍｏｎｄ,,株式会社,北海道,札幌市中央区,南二条西１０丁目１番地,,01,101,0600062,,,,,,,2024-08-14,1,,,,,ノースウィンダイヤモンド,0
2523,9480003002169,新規,0,2024-08-14,2024-08-14,阿南知財事務所合同会社,,合同会社,徳島県,阿南市,宝田町今市西ヤシキ６番地,,36,204,7740045,,,,,,,2024-08-14,1,,,,,アナンチザイジムショ,0
2524,9500001025821,新規,0,2024-08-14,2024-08-14,株式会社おおひら企画,,株式会社,愛媛県,松山市,下伊台町乙７４番地８０,,38,201,7910112,,,,,,,2024-08-14,1,,,,,オオヒラキカク,0
