sequenceNumber,corporateNumber,process,correct,updateDate,changeDate,name,nameImageId,kind,prefectureName,cityName,streetNumber,addressImageId,prefectureCode,cityCode,postCode,addressOutside,addressOutsideImageId,closeDate,closeCause,successorCorporateNumber,changeCause,assignmentDate,latest,enName,enPrefectureName,enCityName,enAddressOutside,furigana,hihyoji
8,1010001219604,新規,0,2021-07-15,2021-07-15,株式会社ＧｏｏｄＪｏｂリクルートメントファーム,,株式会社,東京都,千代田区,丸の内１丁目１１－１パシフィックセンチュリープレイス８Ｆ・１３Ｆ,,13,101,1000005,,,,,,,2021-07-15,1,,,,,グッドジョブリクルートメントファーム,0
9,1010001219678,新規,0,2021-07-15,2021-07-15,株式会社Ｒｏｏｏｍ,,株式会社,東京都,文京区,小石川２丁目１番２－９０５号,,13,105,1120002,,,,,,,2021-07-15,1,,,,,ルーム,0
22,1010401161323,新規,0,2021-07-15,2021-07-15,ｖｉｅｗｔｅｃｈ株式会社,,株式会社,東京都,港区,麻布台２丁目３－８,,13,103,1060041,,,,,,,2021-07-15,1,,,,,ヴューテック,0
23,1010401161513,新規,0,2021-07-15,2021-07-15,女医メディカルクラブ株式会社,,株式会社,東京都,港区,白金台１丁目１番１３－５０４号,,13,103,1080071,,,,,,,2021-07-15,1,,,,,ジョイメディカルクラブ,0
25,1010403025740,新規,0,2021-07-15,2021-07-15,麻布台プロパティ合同会社,,合同会社,東京都,港区,西新橋１丁目２２番５号６階,,13,103,1050003,,,,,,,2021-07-15,1,,,,,アザブダイプロパティ,0
30,1010501047570,新規,0,2021-07-15,2021-07-15,株式会社エムティージェイ,,株式会社,東京都,台東区,谷中５丁目６番１６号,,13,106,1100001,,,,,,,2021-07-15,1,,,,,エムティージェイ,0
31,1010503006327,新規,0,2021-07-15,2021-07-15,アール・アイ・アール合同会社,,合同会社,東京都,台東区,清川１丁目２１番１号,,13,106,1110022,,,,,,,2021-07-15,1,,,,,アールアイアール,0
35,1010601059648,新規,0,2021-07-15,2021-07-15,株式会社Ｋｏｎｆｏｒｔｙ,,株式会社,東京都,江東区,亀戸７丁目４０番５－５０７号,,13,108,1360071,,,,,,,2021-07-15,1,,,,,コンフォーティー,0
42,1010801032140,新規,0,2021-07-15,2021-07-15,ＬＵＣＫＹ　ＴＷＥＬＶＥ株式会社,,株式会社,東京都,大田区,大森西４丁目９－６－３０４号,,13,111,1430015,,,,,,,2021-07-15,1,,,,,ラッキートゥエルヴ,0
48,1010901049092,新規,0,2021-07-15,2021-07-15,株式会社ＳＵＮ　ＨＯＵＳＥ,,株式会社,東京都,世田谷区,新町１丁目２２番１３－１１０１号,,13,112,1540014,,,,,,,2021-07-15,1,,,,,サンハウス,0
55,1011001141599,新規,0,2021-07-15,2021-07-15,株式会社ＰｅＰｅ,,株式会社,東京都,渋谷区,渋谷２丁目１９－１５宮益坂ビルディング６０９,,13,113,1500002,,,,,,,2021-07-15,1,,,,,ペペ,0
62,1011101095704,新規,0,2021-07-15,2021-07-15,株式会社Ｖｉｒｇｏ,,株式会社,東京都,新宿区,西新宿５丁目５番１号,,13,104,1600023,,,,,,,2021-07-15,1,,,,,ヴァルゴ,0
67,1011301027052,新規,0,2021-07-15,2021-07-15,ノウアイデア株式会社,,株式会社,東京都,杉並区,西荻北２丁目１８番１号２Ｆ,,13,115,1670042,,,,,,,2021-07-15,1,,,,,ノウアイデア,0
74,1011703002891,新規,0,2021-07-15,2021-07-15,合同会社１１７３,,合同会社,東京都,江戸川区,篠崎町４丁目４番１１号,,13,123,1330061,,,,,,,2021-07-15,1,,,,,イイナミ,0
75,1011705001685,新規,0,2021-07-15,2021-07-15,特定非営利活動法人Ｑｕａｌｉｔｙ　Ｓｐｏｒｔｓ　Ｌｉｆｅ,,その他の設立登記法人,東京都,江戸川区,本一色３丁目１１番１９号Ｇ・ＭＨＡＲＵ１０２,,13,123,1330044,,,,,,,2021-07-15,1,,,,,クオリティスポーツライフ,0
80,1012401038096,新規,0,2021-07-15,2021-07-15,株式会社ＢＳＹ,,株式会社,東京都,府中市,清水が丘１丁目１－１７駒崎ビル４Ｆ,,13,206,1830015,,,,,,,2021-07-15,1,,,,,ビーエスワイ,0
93,1020001142193,新規,0,2021-07-15,2021-07-15,Ｂｌｕｅ　Ｔｉｇｅｒ株式会社,,株式会社,神奈川県,横浜市緑区,西八朔町３７番地７７サニーハイツ緑２０１,,14,113,2260024,,,,,,,2021-07-15,1,,,,,ブルータイガー,0
94,1020001142210,新規,0,2021-07-15,2021-07-15,Ｎｏｖｅｌｄａ　Ｊａｐａｎ株式会社,,株式会社,神奈川県,横浜市西区,みなとみらい３丁目７番１号オーシャンゲートみなとみらい８階ＷｅＷｏｒｋ内,,14,103,2200012,,,,,,,2021-07-15,1,,,,,ノヴェルダジャパン,0
95,1020001142227,新規,0,2021-07-15,2021-07-15,ＳＡＫＵＲＡＩ株式会社,,株式会社,神奈川県,横浜市金沢区,堀口１４番１７号,,14,108,2360054,,,,,,,2021-07-15,1,,,,,サクライ,0
96,1020001142235,新規,0,2021-07-15,2021-07-15,神奈川ロジスティクス株式会社,,株式会社,神奈川県,横浜市都筑区,大棚１３９－２,,14,118,2240000,,,,,,,2021-07-15,1,,,,,カナガワロジスティクス,0
97,1020003020166,新規,0,2021-07-15,2021-07-15,合同会社Ｗｉｌｌ　ＢＥ,,合同会社,神奈川県,横浜市港南区,港南台６丁目３２番３－４０１号,,14,111,2340054,,,,,,,2021-07-15,1,,,,,ウィルビー,0
105,1021003010685,新規,0,2021-07-15,2021-07-15,カーントレーディング合同会社,,合同会社,神奈川県,相模原市中央区,田名塩田２丁目１７番１号シャンティ１０１,,14,152,2520245,,,,,,,2021-07-15,1,,,,,カーントレーディング,0
106,1021003010693,新規,0,2021-07-15,2021-07-15,Ｎ＆Ｋ合同会社,,合同会社,神奈川県,藤沢市,片瀬海岸２丁目２０番１２号２Ｆ,,14,205,2510035,,,,,,,2021-07-15,1,,,,,エヌアンドケー,0
109,1021005012250,新規,0,2021-07-15,2021-07-15,特定非営利活動法人ふれあいの里,,その他の設立登記法人,神奈川県,厚木市,みはる野１丁目２２番１号,,14,212,2430208,,,,,,,2021-07-15,1,,,,,,0
127,1040001119330,新規,0,2021-07-15,2021-07-15,株式会社馳立オート貿易,,株式会社,千葉県,香取市,八筋川字弐ノ川３１５５番１,,12,236,2870815,,,,,,,2021-07-15,1,,,,,ハタチオートボウエキ,0
128,1040001119339,新規,0,2021-07-15,2021-07-15,ＳＡＵＮＡ＆Ｃｏ株式会社,,株式会社,千葉県,千葉市稲毛区,稲毛東６丁目７番３０号,,12,103,2630031,,,,,,,2021-07-15,1,,,,,サウナアンドコー,0
132,1050001049543,新規,0,2021-07-15,2021-07-15,龍泉商事株式会社,,株式会社,茨城県,守谷市,百合ケ丘２丁目２７３２－１４,,08,224,3020110,,,,,,,2021-07-15,1,,,,,リュウセンショウジ,0
133,1050001049551,新規,0,2021-07-15,2021-07-15,株式会社ナカヨシステージ,,株式会社,茨城県,水戸市,下野町７２６番地,,08,201,3190322,,,,,,,2021-07-15,1,,,,,ナカヨシステージ,0
157,1080401025199,新規,0,2021-07-15,2021-07-15,株式会社ドリーミー,,株式会社,静岡県,御前崎市,門屋１７７５番地の９,,22,223,4371615,,,,,,,2021-07-15,1,,,,,ドリーミー,0
169,1120001239087,新規,0,2021-07-15,2021-07-15,株式会社ＢＬＡＣＫ　ＢＲＯＮＺＥ,,株式会社,大阪府,大阪市中央区,島之内１丁目１５番９号島之内アイテックスビル４０７号室,,27,128,5420082,,,,,,,2021-07-15,1,,,,,ブラックブロンズ,0
179,1120101063973,新規,0,2021-07-15,2021-07-15,株式会社Ａｌｌ　Ｉｎ,,株式会社,大阪府,南河内郡太子町,大字春日１１０,,27,381,5830991,,,,,,,2021-07-15,1,,,,,オールイン,0
183,1130001069748,新規,0,2021-07-15,2021-07-15,株式会社ヤマショー,,株式会社,京都府,綾部市,岡町下山２７番地の８５,,26,203,6230042,,,,,,,2021-07-15,1,,,,,ヤマショー,0
186,1130005016218,新規,0,2021-07-15,2021-07-15,特定非営利活動法人まいづる遊ＢｉｘＳ,,その他の設立登記法人,京都府,舞鶴市,字浜２０２２番地,,26,202,6250036,,,,,,,2021-07-15,1,,,,,マイヅルアソビックス,0
191,1140001122175,新規,0,2021-07-15,2021-07-15,株式会社益田設備,,株式会社,兵庫県,尼崎市,杭瀬北新町３丁目２０－６７,,28,202,6600815,,,,,,,2021-07-15,1,,,,,マスダセツビ,0
193,1140003016516,新規,0,2021-07-15,2021-07-15,合同会社ＫＯＫＯ　ＬＡＢＯ,,合同会社,兵庫県,神戸市東灘区,御影本町２丁目１４－１３－４０４,,28,101,6580046,,,,,,,2021-07-15,1,,,,,ココラボ,0
196,1160001023470,新規,0,2021-07-15,2021-07-15,聡希コーポレーション株式会社,,株式会社,滋賀県,彦根市,正法寺町２９番地７,,25,202,5220024,,,,,,,2021-07-15,1,,,,,ソウキコーポレーション,0
202,1180001147012,新規,0,2021-07-15,2021-07-15,株式会社さと賃,,株式会社,愛知県,名古屋市中区,栄４丁目１５番１４号栄ハイホーム５２０,,23,106,4600008,,,,,,,2021-07-15,1,,,,,サトチン,0
205,1180005019364,新規,0,2021-07-15,2021-07-15,行政書士法人ウィル,,その他の設立登記法人,愛知県,名古屋市守山区,大字下志段味字長戸１６６２番地の２,,23,113,4630003,,,,,,,2021-07-15,1,,,,,ウィル,0
209,1200001038893,新規,0,2021-07-15,2021-07-15,株式会社名古屋ホールディングス,,株式会社,岐阜県,中津川市,茄子川１６８８番地,,21,206,5099132,,,,,,,2021-07-15,1,,,,,ナゴヤホールディングス,0
221,1240005015241,新規,0,2021-07-15,2021-07-15,一般社団法人ブレイブシップス,,その他の設立登記法人,広島県,尾道市,向島町５５４８番地１０,,34,205,7220073,,,,,,,2021-07-15,1,,,,,ブレイブシップス,0
223,1250001019006,新規,0,2021-07-15,2021-07-15,株式会社グロウクリエイト,,株式会社,山口県,山口市,緑町３番２６号２Ｆ,,35,203,7530078,,,,,,,2021-07-15,1,,,,,グロウクリエイト,0
230,1260003003626,新規,0,2021-07-15,2021-07-15,Ｓコンサルティング合同会社,,合同会社,岡山県,笠岡市,大宜６０５番地,,33,205,7140061,,,,,,,2021-07-15,1,,,,,エスコンサルティング,0
255,1360003011263,新規,0,2021-07-15,2021-07-15,合同会社ぐっぴー,,合同会社,沖縄県,国頭郡今帰仁村,字天底５９４番地,,47,306,9050411,,,,,,,2021-07-15,1,,,,,,0
256,1360003011271,新規,0,2021-07-15,2021-07-15,合同会社わーけーまちや,,合同会社,沖縄県,国頭郡大宜味村,字根路銘１３７３大宜味村農村活性化センター内,,47,302,9051307,,,,,,,2021-07-15,1,,,,,ワーケーマチヤ,0
291,1490001009932,新規,0,2021-07-15,2021-07-15,株式会社リージョン・パートナー,,株式会社,高知県,高知市,山ノ端町４９－１８,,39,201,7800927,,,,,,,2021-07-15,1,,,,,リージョンパートナー,0
295,1700150104116,新規,0,2021-07-15,2021-07-15,キーサイト・テクノロジー企業年金基金,,その他,東京都,八王子市,高倉町９番１号,,13,201,1920033,,,,,,,2021-07-15,1,,,,,キーサイトテクノロジーキギヨウネンキンキキン,0
296,1700150104124,新規,0,2021-07-15,2021-07-15,全国タイル業企業年金基金,,その他,愛知県,名古屋市東区,代官町３９番１８号,,23,102,4610002,,,,,,,2021-07-15,1,,,,,ゼンコクタイルギヨウキギヨウネンキンキキン,0
297,1700150104132,新規,0,2021-07-15,2021-07-15,群馬県病院企業年金基金,,その他,群馬県,前橋市,本町２丁目２－１２,,10,201,3710023,,,,,,,2021-07-15,1,,,,,グンマケンビヨウインキギヨウネンキンキキン,0
301,2010001219553,新規,0,2021-07-15,2021-07-15,株式会社公共科学プロモーション,,株式会社,東京都,千代田区,平河町２丁目１２番２号ニュー福井ビル３Ｆ,,13,101,1020093,,,,,,,2021-07-15,1,,,,,,0
302,2010001219727,新規,0,2021-07-15,2021-07-15,サンライフ株式会社,,株式会社,東京都,中央区,日本橋堀留町１丁目９－６堀留ゼネラルビル７Ｆ,,13,102,1030012,,,,,,,2021-07-15,1,,,,,サンライフ,0
307,2010003035321,新規,0,2021-07-15,2021-07-15,エスケイワイ合同会社,,合同会社,東京都,文京区,千駄木２丁目２８番１４号,,13,105,1130022,,,,,,,2021-07-15,1,,,,,エスケイワイ,0
315,2010401161504,新規,0,2021-07-15,2021-07-15,株式会社Ｍｅｌｉｓｓａ,,株式会社,東京都,港区,赤坂６丁目６番１７－４０２号,,13,103,1070052,,,,,,,2021-07-15,1,,,,,メリッサ,0
320,2010403025723,新規,0,2021-07-15,2021-07-15,合同会社ＧＫ０４６,,合同会社,東京都,港区,虎ノ門３丁目２２番１０－２０１号,,13,103,1050001,,,,,,,2021-07-15,1,,,,,ジーケイゼロフォーシックス,0
323,2010405019987,新規,0,2021-07-15,2021-07-15,一般社団法人厚生会,,その他の設立登記法人,東京都,港区,元麻布１丁目３番３号,,13,103,1060046,,,,,,,2021-07-15,1,,,,,コウセイカイ,0
327,2010501047578,新規,0,2021-07-15,2021-07-15,株式会社ＲＥＮＤ,,株式会社,東京都,台東区,台東３丁目１５番４号,,13,106,1100016,,,,,,,2021-07-15,1,,,,,レンド,0
328,2010601059647,新規,0,2021-07-15,2021-07-15,株式会社Ｖｅｒｏｎｉｃａ,,株式会社,東京都,墨田区,錦糸１丁目２番１号アルカセントラル１４Ｆ,,13,107,1300013,,,,,,,2021-07-15,1,,,,,ベロニカ,0
333,2010901049091,新規,0,2021-07-15,2021-07-15,株式会社ｏｒｉｇｉｎａｌ－ａｐｐａｒｅｌ,,株式会社,東京都,世田谷区,代田５丁目１７番５号,,13,112,1550033,,,,,,,2021-07-15,1,,,,,オリジナルアパレル,0
336,2011003013077,新規,0,2021-07-15,2021-07-15,合同会社ヒラク,,合同会社,東京都,渋谷区,代官山町１７番１－２３０４号代官山アドレスザタワー,,13,113,1500034,,,,,,,2021-07-15,1,,,,,ヒラク,0
338,2011101095703,新規,0,2021-07-15,2021-07-15,東友トレーディング株式会社,,株式会社,東京都,新宿区,早稲田町１２番地５ニュー早稲田ビル５Ｆ,,13,104,1620042,,,,,,,2021-07-15,1,,,,,トウユウトレーディング,0
339,2011101095711,新規,0,2021-07-15,2021-07-15,株式会社ラウレアワークス,,株式会社,東京都,新宿区,岩戸町１９番地,,13,104,1620832,,,,,,,2021-07-15,1,,,,,ラウレアワークス,0
340,2011101095736,新規,0,2021-07-15,2021-07-15,株式会社ＨＯＪＵＮＤＯ,,株式会社,東京都,新宿区,高田馬場１丁目３２－１０,,13,104,1690075,,,,,,,2021-07-15,1,,,,,ホウジュンドウ,0
341,2011103010858,新規,0,2021-07-15,2021-07-15,合同会社ｒｅｌａｘ,,合同会社,東京都,新宿区,西新宿７丁目１５番１７号,,13,104,1600023,,,,,,,2021-07-15,1,,,,,リラックス,0
345,2011403003388,新規,0,2021-07-15,2021-07-15,ＬＯＯＫＢＡＣＫ合同会社,,合同会社,東京都,板橋区,徳丸６丁目１２番１８号,,13,119,1750083,,,,,,,2021-07-15,1,,,,,ルックバック,0
352,2011701024549,新規,0,2021-07-15,2021-07-15,スズキ株式会社,,株式会社,東京都,江戸川区,船堀５丁目１５番１号,,13,123,1340091,,,,,,,2021-07-15,1,,,,,スズキ,0
354,2011703002890,新規,0,2021-07-15,2021-07-15,合同会社ガネーシュ,,合同会社,東京都,江戸川区,南小岩７丁目３８番２７号メゾンナカガワ２０１,,13,123,1330056,,,,,,,2021-07-15,1,,,,,ガネーシュ,0
367,2020001142201,新規,0,2021-07-15,2021-07-15,株式会社ＡＡＮＢＨＩ,,株式会社,神奈川県,横浜市西区,平沼１丁目１２７－１３ライオンズマンション平沼第２・３０５号室,,14,103,2200023,,,,,,,2021-07-15,1,,,,,,0
368,2020001142218,新規,0,2021-07-15,2021-07-15,株式会社ＡＲ建設,,株式会社,神奈川県,横浜市南区,永田南１丁目５番１－４０１号,,14,105,2320073,,,,,,,2021-07-15,1,,,,,エーアールケンセツ,0
369,2020001142234,新規,0,2021-07-15,2021-07-15,株式会社Ｓｃｉｍｉｔ,,株式会社,神奈川県,横浜市磯子区,杉田４丁目１８番１６号レクセラ２号棟４０３号,,14,107,2350033,,,,,,,2021-07-15,1,,,,,サイミット,0
370,2020001142259,新規,0,2021-07-15,2021-07-15,株式会社ＣＳ－Ｄｅｓｉｇｎ,,株式会社,神奈川県,横浜市神奈川区,白楽１０５番地３,,14,102,2210065,,,,,,,2021-07-15,1,,,,,シーエスデザイン,0
376,2020003020157,新規,0,2021-07-15,2021-07-15,合同会社Ｎｅｘｃｃｅｓｓ　Ｃａｐｉｔａｌ,,合同会社,神奈川県,横浜市中区,桜木町１丁目１０１番地１,,14,104,2310062,,,,,,,2021-07-15,1,,,,,ネクサスキャピタル,0
384,2021003010692,新規,0,2021-07-15,2021-07-15,合同会社ｍａｒｃｙ,,合同会社,神奈川県,中郡二宮町,山西４６４－１,,14,342,2590124,,,,,,,2021-07-15,1,,,,,マーシー,0
394,2030001143280,新規,0,2021-07-15,2021-07-15,株式会社心和,,株式会社,埼玉県,本庄市,今井３５３番地３号,,11,211,3670036,,,,,,,2021-07-15,1,,,,,コナギ,0
401,2050001049542,新規,0,2021-07-15,2021-07-15,株式会社Ａ,,株式会社,茨城県,筑西市,海老ヶ島１００２番地２,,08,227,3004517,,,,,,,2021-07-15,1,,,,,エー,0
408,2060005009888,新規,0,2021-07-15,2021-07-15,特定非営利活動法人ハートサービス,,その他の設立登記法人,栃木県,宇都宮市,泉が丘５丁目８番１８号,,09,201,3210952,,,,,,,2021-07-15,1,,,,,,0
418,2080401025198,新規,0,2021-07-15,2021-07-15,株式会社一坪茶園,,株式会社,静岡県,掛川市,板沢５２６－２,,22,213,4360016,,,,,,,2021-07-15,1,,,,,ヒトツボチャエン,0
435,2120001238947,新規,0,2021-07-15,2021-07-15,ＯｎｅＬｉｆｅ株式会社,,株式会社,大阪府,大阪市淀川区,西中島４丁目２番８号,,27,123,5320011,,,,,,,2021-07-15,1,,,,,ワンライフ,0
436,2120001239086,新規,0,2021-07-15,2021-07-15,Ｌｅａｄ　Ｐａｒｔｎｅｒ’ｓ株式会社,,株式会社,大阪府,大阪市西区,南堀江３丁目６番１号西大阪ビルディング６０４,,27,106,5500015,,,,,,,2021-07-15,1,,,,,リードパートナーズ,0
437,2120001239094,新規,0,2021-07-15,2021-07-15,株式会社侍,,株式会社,大阪府,大阪市淀川区,宮原１丁目１６番３５号,,27,123,5320003,,,,,,,2021-07-15,1,,,,,サムライ,0
438,2120001239111,新規,0,2021-07-15,2021-07-15,株式会社Ｓｏｃｉａｌ　Ｑｕａｌｉｔｙ,,株式会社,大阪府,大阪市西区,阿波座１丁目１０番７－４０２号,,27,106,5500011,,,,,,,2021-07-15,1,,,,,ソーシャルクオリティー,0
444,2122003002133,新規,0,2021-07-15,2021-07-15,合同会社Ｌｉｌａ,,合同会社,大阪府,八尾市,恩智南町２丁目４９番地の１,,27,212,5810884,,,,,,,2021-07-15,1,,,,,リーラ,0
445,2122005003559,新規,0,2021-07-15,2021-07-15,医療法人明聴会,,その他の設立登記法人,大阪府,八尾市,萱振町１丁目１３番地の６,,27,212,5810834,,,,,,,2021-07-15,1,,,,,メイチョウカイ,0
448,2130001069747,新規,0,2021-07-15,2021-07-15,株式会社ＨＡＮＤＹ,,株式会社,京都府,宇治市,槇島町落合２１０番地サイプレス宇治１０１,,26,204,6110041,,,,,,,2021-07-15,1,,,,,ハンディ,0
449,2130003007366,新規,0,2021-07-15,2021-07-15,合同会社ＪＡＰＡＮ　ＷＯＲＬＤ　ＴＲＡＤＩＮＧ,,合同会社,京都府,八幡市,内里東ノ口２９番地,,26,210,6148226,,,,,,,2021-07-15,1,,,,,ジャパンワールドトレーディング,0
450,2130003007374,新規,0,2021-07-15,2021-07-15,信濃興芸合同会社,,合同会社,京都府,京都市中京区,壬生馬場町３０番地林ビル２０１号,,26,104,6048805,,,,,,,2021-07-15,1,,,,,シナノコウゲイ,0
456,2140001122298,新規,0,2021-07-15,2021-07-15,株式会社西宮物流設計,,株式会社,兵庫県,西宮市,西宮浜４丁目１０番５－３０７号,,28,204,6620934,,,,,,,2021-07-15,1,,,,,ニシノミヤブツリュウセッケイ,0
457,2140001122364,新規,0,2021-07-15,2021-07-15,株式会社エヌズエステート,,株式会社,兵庫県,神戸市長田区,水笠通１丁目２番８号１Ｆ,,28,106,6530842,,,,,,,2021-07-15,1,,,,,エヌズエステート,0
462,2140003016515,新規,0,2021-07-15,2021-07-15,合同会社ＫＡＷＡＢＡＴＡ,,合同会社,兵庫県,尼崎市,南武庫之荘１１丁目９番２８号,,28,202,6610033,,,,,,,2021-07-15,1,,,,,カワバタ,0
466,2160003002331,新規,0,2021-07-15,2021-07-15,合同会社Ｌａｇｏｍ,,合同会社,滋賀県,大津市,月輪３丁目７７番６号,,25,201,5202152,,,,,,,2021-07-15,1,,,,,ラーゴム,0
488,2210001018539,新規,0,2021-07-15,2021-07-15,株式会社みこころ,,株式会社,福井県,福井市,春日町２４２番地２１,,18,201,9188107,,,,,,,2021-07-15,1,,,,,ミココロ,0
502,2230005009152,新規,0,2021-07-15,2021-07-15,医療法人社団重仁会,,その他の設立登記法人,富山県,富山市,大町１番地,,16,201,9398073,,,,,,,2021-07-15,1,,,,,ジュウジンカイ,0
524,2290801027608,新規,0,2021-07-15,2021-07-15,株式会社ＬＩＢＥＲＴＥ,,株式会社,福岡県,北九州市小倉北区,京町３丁目１番１号セントシティ７階,,40,106,8020002,,,,,,,2021-07-15,1,,,,,リベルテ,0
528,2300003001698,新規,0,2021-07-15,2021-07-15,合同会社ＣＫ　ＦＯＯＤ　ＤＥＳＩＧＮ,,合同会社,佐賀県,鳥栖市,京町７２６,,41,203,8410034,,,,,,,2021-07-15,1,,,,,シーケーフードデザイン,0
532,2320003003569,新規,0,2021-07-15,2021-07-15,Ｌｉｔｔｌｅ　Ｆｒｕｉｔｓ　Ｆａｒｍ合同会社,,合同会社,大分県,杵築市,大字岩谷７０６番地１０５,,44,210,8730021,,,,,,,2021-07-15,1,,,,,,0
534,2330001028807,新規,0,2021-07-15,2021-07-15,株式会社福屋ランドリー,,株式会社,熊本県,熊本市南区,流通団地２丁目９番地,,43,104,8620967,,,,,,,2021-07-15,1,,,,,フクヤランドリー,0
563,2450003002104,新規,0,2021-07-15,2021-07-15,Ｒデザインソフト合同会社,,合同会社,北海道,旭川市,南八条通２６丁目５８１番地２３,,01,204,0788338,,,,,,,2021-07-15,1,,,,,アールデザインソフト,0
567,2500001023567,新規,0,2021-07-15,2021-07-15,株式会社スパイスガール,,株式会社,愛媛県,松山市,大手町２丁目９番地２１,,38,201,7900067,,,,,,,2021-07-15,1,,,,,スパイスガール,0
570,2700150012243,新規,0,2021-07-15,2015-10-09,神奈川県市長会,,その他,神奈川県,横浜市中区,山下町７５,,14,104,2310023,,,,,,,2015-10-09,1,,,,,カナガワケンシチヨウカイ,0
571,2700150104115,新規,0,2021-07-15,2021-07-15,民間放送企業年金基金,,その他,東京都,千代田区,紀尾井町３番２３号文藝春秋西館６階,,13,101,1020094,,,,,,,2021-07-15,1,,,,,ミンカンホウソウキギヨウネンキンキキン,0
572,2700150104123,新規,0,2021-07-15,2021-07-15,愛知県プラスチック成形企業年金基金,,その他,愛知県,名古屋市中区,新栄町２丁目１３栄第一生命ビル,,23,106,4600004,,,,,,,2021-07-15,1,,,,,アイチケンプラスチツクセイケイキギヨウネンキンキキン,0
573,2700150104131,新規,0,2021-07-15,2021-07-15,沖縄県建設業企業年金基金,,その他,沖縄県,浦添市,牧港５丁目６番８号,,47,208,9012131,,,,,,,2021-07-15,1,,,,,オキナワケンケンセツギヨウキギヨウネンキンキキン,0
578,3010001219643,新規,0,2021-07-15,2021-07-15,日向建物株式会社,,株式会社,東京都,千代田区,一番町６番地１ロイアル一番町Ａ－６０３号,,13,101,1020082,,,,,,,2021-07-15,1,,,,,ヒュウガタテモノ,0
579,3010001219701,新規,0,2021-07-15,2021-07-15,株式会社Ｃｌｏｕｄ９ｄｙｎａｍｉｃｓ,,株式会社,東京都,千代田区,九段南１丁目５番６号りそな九段ビル５ＦＫＳフロア,,13,101,1020074,,,,,,,2021-07-15,1,,,,,クラウドナインダイナミクス,0
580,3010101014770,新規,0,2021-07-15,2021-07-15,株式会社Ｈｉｎａ　Ｕ　Ｍｅ,,株式会社,東京都,八王子市,弐分方町３８３番地２１,,13,201,1930822,,,,,,,2021-07-15,1,,,,,ヒナユメ,0
581,3010103001734,新規,0,2021-07-15,2021-07-15,合同会社ルークエンタープライズ,,合同会社,東京都,八王子市,上野町１０４番地,,13,201,1920902,,,,,,,2021-07-15,1,,,,,ルークエンタープライズ,0
589,3010401161528,新規,0,2021-07-15,2021-07-15,株式会社うんよう,,株式会社,東京都,港区,浜松町１丁目２７番９号,,13,103,1050013,,,,,,,2021-07-15,1,,,,,ウンヨウ,0
590,3010403025706,新規,0,2021-07-15,2021-07-15,問ｂｕｒｅａｕ合同会社,,合同会社,東京都,港区,赤坂４丁目２番２５号ジュネス赤坂丹後坂２０１号室,,13,103,1070052,,,,,,,2021-07-15,1,,,,,モンビュロー,0
592,3010405020011,新規,0,2021-07-15,2021-07-15,特定目的会社ウエストロジスティクス,,その他の設立登記法人,東京都,港区,六本木６丁目１０番１号六本木ヒルズ森タワー,,13,103,1060032,,,,,,,2021-07-15,1,,,,,ウエストロジスティクス,0
595,3010501047569,新規,0,2021-07-15,2021-07-15,株式会社Ｔｅｓｒｉ,,株式会社,東京都,台東区,駒形２丁目１－８初音ビル２Ｆ,,13,106,1110043,,,,,,,2021-07-15,1,,,,,テスリ,0
596,3010501047577,新規,0,2021-07-15,2021-07-15,随縁株式会社,,株式会社,東京都,台東区,台東２丁目２７番３号,,13,106,1100016,,,,,,,2021-07-15,1,,,,,ズイエン,0
597,3010601059654,新規,0,2021-07-15,2021-07-15,株式会社サマセット,,株式会社,東京都,江東区,森下５丁目１９番９－２０２号,,13,108,1350004,,,,,,,2021-07-15,1,,,,,サマセット,0
604,3010903006651,新規,0,2021-07-15,2021-07-15,合同会社ＯＺＯＺＯＺ,,合同会社,東京都,世田谷区,南烏山３丁目２３番２－４０６号,,13,112,1570062,,,,,,,2021-07-15,1,,,,,オジーオジーオジー,0
608,3011001141770,新規,0,2021-07-15,2021-07-15,ＭｅｉｌｌｅｕｒｅＶｉｅ株式会社,,株式会社,東京都,渋谷区,松濤１丁目２８番２号,,13,113,1500046,,,,,,,2021-07-15,1,,,,,メイヤービー,0
609,3011001141795,新規,0,2021-07-15,2021-07-15,株式会社ベル・ベリーネ,,株式会社,東京都,渋谷区,代官山町２番７号シャトレ代官山１０２,,13,113,1500034,,,,,,,2021-07-15,1,,,,,ベルベリーネ,0
611,3011101095702,新規,0,2021-07-15,2021-07-15,株式会社ｅ－ｎｖｉｓｉｏｎ,,株式会社,東京都,新宿区,新宿１丁目３４番１４号,,13,104,1600022,,,,,,,2021-07-15,1,,,,,インヴィション,0
612,3011101095719,新規,0,2021-07-15,2021-07-15,株式会社Ｌｉｎｏ,,株式会社,東京都,新宿区,歌舞伎町２丁目１１番４号,,13,104,1600021,,,,,,,2021-07-15,1,,,,,リノ,0
613,3011101095735,新規,0,2021-07-15,2021-07-15,循環資源株式会社,,株式会社,東京都,新宿区,西新宿６丁目２０番１２号,,13,104,1600023,,,,,,,2021-07-15,1,,,,,ジュンカンシゲン,0
618,3011203003595,新規,0,2021-07-15,2021-07-15,合同会社ファーイースト,,合同会社,東京都,中野区,本町６丁目２１－１６安藤ビル３０１,,13,114,1640012,,,,,,,2021-07-15,1,,,,,ファーイースト,0
620,3011401023536,新規,0,2021-07-15,2021-07-15,株式会社ＫＥＥペットショップ,,株式会社,東京都,板橋区,赤塚７丁目２３番５号,,13,119,1750092,,,,,,,2021-07-15,1,,,,,ケーイーイーペットショップ,0
622,3011403003387,新規,0,2021-07-15,2021-07-15,ＵＰＡＳＨＡＮＡ合同会社,,合同会社,東京都,板橋区,熊野町１２番１３号,,13,119,1730025,,,,,,,2021-07-15,1,,,,,ウパシャナ,0
624,3011501027131,新規,0,2021-07-15,2021-07-15,株式会社ＡｓｕＮｏｕｓ,,株式会社,東京都,荒川区,東日暮里５丁目４５－１０能美ビル６０２号室,,13,118,1160014,,,,,,,2021-07-15,1,,,,,アスナス,0
625,3011503004839,新規,0,2021-07-15,2021-07-15,合同会社ＶＳＤ,,合同会社,東京都,北区,滝野川７丁目１０番２０号プレール・ドゥーク板橋９０１,,13,117,1140023,,,,,,,2021-07-15,1,,,,,ブイエスディー,0
632,3012301012620,新規,0,2021-07-15,2021-07-15,ｋ’ｓらぼ株式会社,,株式会社,東京都,町田市,小山町３４７２－２,,13,209,1940212,,,,,,,2021-07-15,1,,,,,ケーズラボ,0
647,3020001142175,新規,0,2021-07-15,2021-07-15,Ｐａｎ　ｌａ　ｆｅｍｍｅ株式会社,,株式会社,神奈川県,横浜市戸塚区,平戸町３３５,,14,110,2440803,,,,,,,2021-07-15,1,,,,,パンラファーム,0
648,3020001142233,新規,0,2021-07-15,2021-07-15,株式会社Ｏ．Ｔ．Ｎ,,株式会社,神奈川県,横浜市泉区,弥生台４９番地１５,,14,116,2450008,,,,,,,2021-07-15,1,,,,,オーティーエヌ,0
653,3020003020172,新規,0,2021-07-15,2021-07-15,合同会社ｓｏｗａｃａｎａ,,合同会社,神奈川県,横浜市中区,扇町２丁目５番地１４Ｙ’ｓトレゾワ関内６０２号,,14,104,2310027,,,,,,,2021-07-15,1,,,,,ソワカナ,0
661,3021001073369,新規,0,2021-07-15,2021-07-15,株式会社ｆａｍｉｌｙｆｉｒｓｔ,,株式会社,神奈川県,鎌倉市,腰越３丁目１４番４号,,14,204,2480033,,,,,,,2021-07-15,1,,,,,,0
662,3021001073410,新規,0,2021-07-15,2021-07-15,株式会社大祐商店,,株式会社,神奈川県,大和市,上草柳１７５番地６,,14,213,2420029,,,,,,,2021-07-15,1,,,,,ダイスケショウテン,0
669,3030001143370,新規,0,2021-07-15,2021-07-15,株式会社Ｓｏｌａｎｏｉｒｏ,,株式会社,埼玉県,さいたま市浦和区,常盤９丁目１１番８号,,11,107,3300061,,,,,,,2021-07-15,1,,,,,ソラノイロ,0
672,3030003017630,新規,0,2021-07-15,2021-07-15,合同会社ＴＳ－Ｃｏｍｐａｎｙ,,合同会社,埼玉県,草加市,新栄４丁目８１３番地４４,,11,221,3400056,,,,,,,2021-07-15,1,,,,,ティーエスカンパニー,0
677,3040001119329,新規,0,2021-07-15,2021-07-15,株式会社エヌエイクリエイト,,株式会社,千葉県,流山市,野々下５丁目１０４９番地の１６,,12,220,2700135,,,,,,,2021-07-15,1,,,,,エヌエイクリエイト,0
684,3060001033916,新規,0,2021-07-15,2021-07-15,株式会社玉田米穀肥料,,株式会社,栃木県,下都賀郡壬生町,通町４番１３号,,09,361,3210227,,,,,,,2021-07-15,1,,,,,タマダベイコクヒリョウ,0
690,3080405007373,新規,0,2021-07-15,2021-07-15,司法書士法人くらた事務所,,その他の設立登記法人,静岡県,浜松市中区,高丘北１丁目２０番１０号,,22,131,4338119,,,,,,,2021-07-15,1,,,,,クラタジムショ,0
703,3120001239052,新規,0,2021-07-15,2021-07-15,陽紀商事株式会社,,株式会社,大阪府,大阪市西区,川口３丁目４番２６－１４０９号,,27,106,5500021,,,,,,,2021-07-15,1,,,,,ヨウキショウジ,0
704,3120001239093,新規,0,2021-07-15,2021-07-15,株式会社ワン・ディライト,,株式会社,大阪府,大阪市北区,梅田１丁目１１番４号大阪駅前第４ビル２５Ｆ,,27,127,5300001,,,,,,,2021-07-15,1,,,,,ワンディライト,0
705,3120001239102,新規,0,2021-07-15,2021-07-15,ＭＯＢＳＥＬＬ株式会社,,株式会社,大阪府,大阪市東淀川区,東中島１丁目１７－５,,27,114,5330033,,,,,,,2021-07-15,1,,,,,モブセル,0
706,3120001239110,新規,0,2021-07-15,2021-07-15,ａｐｍ株式会社,,株式会社,大阪府,大阪市城東区,今福西２丁目１番１８号,,27,118,5360004,,,,,,,2021-07-15,1,,,,,エーピーエム,0
707,3120001239127,新規,0,2021-07-15,2021-07-15,株式会社Ｌｉｍ,,株式会社,大阪府,大阪市中央区,高津１丁目１０番１８号栄光ビル５０６号室,,27,128,5420072,,,,,,,2021-07-15,1,,,,,リム,0
711,3120003019857,新規,0,2021-07-15,2021-07-15,Ｔｉｋｏ合同会社,,合同会社,大阪府,大阪市平野区,加美北１丁目２３番２７号２０１号室,,27,126,5470001,,,,,,,2021-07-15,1,,,,,ティコ,0
712,3120003019865,新規,0,2021-07-15,2021-07-15,スリーシェイク合同会社,,合同会社,大阪府,大阪市福島区,鷺洲４丁目４番５－２０３号,,27,103,5530002,,,,,,,2021-07-15,1,,,,,スリーシェイク,0
713,3120005022363,新規,0,2021-07-15,2021-07-15,一般社団法人ｔｅｃｈｆｅｅｌｏ,,その他の設立登記法人,大阪府,大阪市東淀川区,淡路４丁目９－１４エイゼンビル６階,,27,114,5330032,,,,,,,2021-07-15,1,,,,,テックフィーロ,0
714,3120005022388,新規,0,2021-07-15,2021-07-15,医療法人ヒロレディースクリニック,,その他の設立登記法人,大阪府,大阪市東淀川区,東淡路４丁目３０番２号イーズメディテラスⅡ４階,00123658,27,114,5330023,,,,,,,2021-07-15,1,,,,,ヒロレディースクリニック,0
717,3120103004255,新規,0,2021-07-15,2021-07-15,合同会社ＹＭＪ,,合同会社,大阪府,堺市堺区,大浜中町３丁１番１号,,27,141,5900975,,,,,,,2021-07-15,1,,,,,ワイエムジェイ,0
721,3120905006201,新規,0,2021-07-15,2021-07-15,医療法人明粋,,その他の設立登記法人,大阪府,高槻市,真上町２丁目６番１１号まかみクリニックモール１Ｆ,,27,207,5691121,,,,,,,2021-07-15,1,,,,,メイスイ,0
728,3130001069738,新規,0,2021-07-15,2021-07-15,株式会社ツースリー,,株式会社,京都府,京都市左京区,吉田河原町１４番地２マンハイム鴨川４０３号室,,26,103,6068305,,,,,,,2021-07-15,1,,,,,ツースリー,0
729,3130003007357,新規,0,2021-07-15,2021-07-15,合同会社ＲＥＡＬＩＺＥ,,合同会社,京都府,京都市右京区,太秦袴田町９－３０,,26,108,6168155,,,,,,,2021-07-15,1,,,,,リアライズ,0
730,3130003007365,新規,0,2021-07-15,2021-07-15,合同会社翼商事,,合同会社,京都府,木津川市,相楽姫子９番地,,26,214,6190222,,,,,,,2021-07-15,1,,,,,ツバサショウジ,0
737,3140001122297,新規,0,2021-07-15,2021-07-15,八角ホールディングス株式会社,,株式会社,兵庫県,加古川市,加古川町南備後４５番地の１,,28,210,6750033,,,,,,,2021-07-15,1,,,,,ハッカクホールディングス,0
738,3140001122314,新規,0,2021-07-15,2021-07-15,株式会社フジウェーブ・ホールディングス,,株式会社,兵庫県,神戸市東灘区,西岡本２丁目２５番１－２０１号,,28,101,6580073,,,,,,,2021-07-15,1,,,,,フジウェーブホールディングス,0
743,3150001024798,新規,0,2021-07-15,2021-07-15,株式会社ロジックスコーポレーション,,株式会社,奈良県,香芝市,真美ヶ丘５丁目３番４５号２Ｆ,,29,210,6390223,,,,,,,2021-07-15,1,,,,,ロジックスコーポレーション,0
761,3180001147002,新規,0,2021-07-15,2021-07-15,株式会社Ｂプラス,,株式会社,愛知県,名古屋市東区,筒井２丁目１番１１号,,23,102,4610003,,,,,,,2021-07-15,1,,,,,ビープラス,0
772,3180005019362,新規,0,2021-07-15,2021-07-15,一般社団法人配管加工技術研究所,,その他の設立登記法人,愛知県,名古屋市南区,前浜通６丁目１５番地ＭＫマンション１０１,,23,112,4570058,,,,,,,2021-07-15,1,,,,,ハイカンカコウギジュツケンキュウジョ,0
785,3240001058291,新規,0,2021-07-15,2021-07-15,株式会社ＷＩＬＬ．ｏｎｅ,,株式会社,広島県,廿日市市,宮内２２４３－２０１号,,34,213,7380034,,,,,,,2021-07-15,1,,,,,ウィルワン,0
794,3260001035768,新規,0,2021-07-15,2021-07-15,株式会社カーショップホリベ,,株式会社,岡山県,真庭市,山田１６７４番地,,33,214,7161402,,,,,,,2021-07-15,1,,,,,カーショップホリベ,0
797,3290001093722,新規,0,2021-07-15,2021-07-15,ＳＤホールディングス株式会社,,株式会社,福岡県,大牟田市,新港町１番地の２９,,40,202,8360061,,,,,,,2021-07-15,1,,,,,エスディーホールディングス,0
801,3290803003878,新規,0,2021-07-15,2021-07-15,合同会社ＳＹエナジー２,,合同会社,福岡県,宮若市,磯光２１６６番地１,,40,226,8230004,,,,,,,2021-07-15,1,,,,,エスワイエナジーニ,0
803,3290805009452,新規,0,2021-07-15,2021-07-15,社会福祉法人わつなぎ会,,その他の設立登記法人,福岡県,築上郡吉富町,大字幸子３９２番地４,,40,642,8710821,,,,,,,2021-07-15,1,,,,,ワツナギカイ,0
819,3370001047356,新規,0,2021-07-15,2021-07-15,株式会社Ａｓｉａｎ　Ｂｒｅｅｚｅ,,株式会社,宮城県,仙台市太白区,富沢４丁目６－１ＳＫ－２０ビル２０１,,04,104,9820032,,,,,,,2021-07-15,1,,,,,アジアンブリーズ,0
827,3380001032043,新規,0,2021-07-15,2021-07-15,マーズ株式会社,,株式会社,福島県,南相馬市,小高区飯崎字南原６５番地の１,,07,212,9792162,,,,,,,2021-07-15,1,,,,,マーズ,0
832,3400001015516,新規,0,2021-07-15,2021-07-15,株式会社ライラック,,株式会社,岩手県,八幡平市,安比高原６０５番地３１３,,03,214,0287306,,,,,,,2021-07-15,1,,,,,ライラック,0
833,3410001012891,新規,0,2021-07-15,2021-07-15,秋田エレクトロニクス株式会社,,株式会社,秋田県,秋田市,雄和平沢字大面４番地,,05,201,0101221,,,,,,,2021-07-15,1,,,,,アキタエレクトロニクス,0
837,3420001017519,新規,0,2021-07-15,2021-07-15,株式会社ローカルチェンジ,,株式会社,青森県,青森市,古川１丁目２０番９号,,02,201,0300862,,,,,,,2021-07-15,1,,,,,ローカルチェンジ,0
841,3430001084590,新規,0,2021-07-15,2021-07-15,株式会社千都,,株式会社,北海道,札幌市北区,新川二条５丁目７番２１号,,01,102,0010922,,,,,,,2021-07-15,1,,,,,セント,0
846,3500001023566,新規,0,2021-07-15,2021-07-15,株式会社たじま,,株式会社,愛媛県,宇和島市,津島町北灘乙４８４番地,,38,203,7983362,,,,,,,2021-07-15,1,,,,,タジマ,0
850,3700150104114,新規,0,2021-07-15,2021-07-15,建設コンサルタンツ企業年金基金,,その他,東京都,千代田区,麹町４丁目４－３ピネックス麹町４Ｆ,,13,101,1020083,,,,,,,2021-07-15,1,,,,,ケンセツコンサルタンツキギヨウネンキンキキン,0
851,3700150104122,新規,0,2021-07-15,2021-07-15,社会保険支払基金企業年金基金,,その他,神奈川県,横浜市中区,山下町３４番地,,14,104,2310023,,,,,,,2021-07-15,1,,,,,シヤカイホケンシハライキキンキギヨウネンキンキキン,0
852,3700150104130,新規,0,2021-07-15,2021-07-15,広島県東部機械金属企業年金基金,,その他,広島県,福山市,昭和町２－３福山ファインビル６階,,34,207,7200808,,,,,,,2021-07-15,1,,,,,ヒロシマケントウブキカイキンゾクキギヨウネンキンキキン,0
862,4010001219709,新規,0,2021-07-15,2021-07-15,株式会社ＦＬＡＲＥ　ＳＹＳＴＥＭＳ,,株式会社,東京都,千代田区,飯田橋１丁目８番９号ニューシティハイツ飯田橋７０７,,13,101,1020072,,,,,,,2021-07-15,1,,,,,フレアシステムズ,0
863,4010001219725,新規,0,2021-07-15,2021-07-15,株式会社Ｂｌｕｅｚｏｎｅ,,株式会社,東京都,文京区,本郷６丁目２５番１４号,,13,105,1130033,,,,,,,2021-07-15,1,,,,,ブルーゾーン,0
864,4010003035328,新規,0,2021-07-15,2021-07-15,合同会社ＡＫＫ,,合同会社,東京都,中央区,日本橋２丁目７番１号,,13,102,1030027,,,,,,,2021-07-15,1,,,,,エーケーケー,0
874,4010401161519,新規,0,2021-07-15,2021-07-15,株式会社ＲＹＯＭＡ,,株式会社,東京都,港区,虎ノ門４丁目１番２８号虎ノ門タワーズオフィス１９Ｆ,,13,103,1050001,,,,,,,2021-07-15,1,,,,,リョーマ,0
875,4010401161527,新規,0,2021-07-15,2021-07-15,株式会社アステリア,,株式会社,東京都,港区,東麻布２丁目３５番１号ＫＣビル６Ｆ,,13,103,1060044,,,,,,,2021-07-15,1,,,,,アステリア,0
876,4010501047568,新規,0,2021-07-15,2021-07-15,アイセンス株式会社,,株式会社,東京都,台東区,上野６丁目１６番２号林ビル４０２,,13,106,1100005,,,,,,,2021-07-15,1,,,,,アイセンス,0
877,4010501047576,新規,0,2021-07-15,2021-07-15,菲斯特国際株式会社,,株式会社,東京都,台東区,台東２丁目２７番３号,,13,106,1100016,,,,,,,2021-07-15,1,,,,,ヒシトクコクサイ,0
883,4010903006675,新規,0,2021-07-15,2021-07-15,合同会社クレヨ,,合同会社,東京都,世田谷区,野沢２丁目７番１２－４０５号,,13,112,1540003,,,,,,,2021-07-15,1,,,,,クレヨ,0
892,4011001141646,新規,0,2021-07-15,2021-07-15,株式会社渋谷ほけんサービス,,株式会社,東京都,渋谷区,道玄坂１丁目１９番１１号寿道玄坂ビル８Ｆ,,13,113,1500043,,,,,,,2021-07-15,1,,,,,シブヤホケンサービス,0
893,4011003013075,新規,0,2021-07-15,2021-07-15,合同会社エーワラ,,合同会社,東京都,渋谷区,代々木４丁目２３番１６－４０７号,,13,113,1510053,,,,,,,2021-07-15,1,,,,,エーワラ,0
900,4011101095701,新規,0,2021-07-15,2021-07-15,株式会社グッドチョイス,,株式会社,東京都,新宿区,新宿３丁目１２番４号,,13,104,1600022,,,,,,,2021-07-15,1,,,,,グッドチョイス,0
904,4011103010864,新規,0,2021-07-15,2021-07-15,合同会社ゆるふわわ,,合同会社,東京都,新宿区,西新宿７丁目５番９－４１２号,,13,104,1600023,,,,,,,2021-07-15,1,,,,,ユルフワワ,0
905,4011303004096,新規,0,2021-07-15,2021-07-15,パレット合同会社,,合同会社,東京都,杉並区,高円寺北２丁目３８番１９号カメリアコート高円寺２０１,,13,115,1660002,,,,,,,2021-07-15,1,,,,,パレット,0
915,4012701016583,新規,0,2021-07-15,2021-07-15,トモス株式会社,,株式会社,東京都,西東京市,東町２丁目３番１７号,,13,229,2020012,,,,,,,2021-07-15,1,,,,,トモス,0
922,4020001142232,新規,0,2021-07-15,2021-07-15,Ｐｅｒｆｅｔｔａ株式会社,,株式会社,神奈川県,横浜市都筑区,牛久保西２丁目２４番地１９,,14,118,2240015,,,,,,,2021-07-15,1,,,,,ペルフェッタ,0
923,4020003020171,新規,0,2021-07-15,2021-07-15,ｔａｍｕｓａ合同会社,,合同会社,神奈川県,横浜市磯子区,田中１丁目１２番７号,,14,107,2350035,,,,,,,2021-07-15,1,,,,,タムサ,0
925,4021001073392,新規,0,2021-07-15,2021-07-15,ＧｉｖｅＲｅ株式会社,,株式会社,神奈川県,茅ヶ崎市,下寺尾１７７０番地９,,14,207,2530081,,,,,,,2021-07-15,1,,,,,ギブリ,0
929,4021005012248,新規,0,2021-07-15,2021-07-15,行政書士法人アーリーバード研究所,,その他の設立登記法人,神奈川県,横須賀市,光の丘８－３ＹＲＰベンチャー棟３０５,,14,201,2390847,,,,,,,2021-07-15,1,,,,,アーリーバードケンキュウジョ,0
950,4060001033915,新規,0,2021-07-15,2021-07-15,株式会社エイト足場,,株式会社,栃木県,真岡市,勝瓜２２０番地３,,09,209,3214366,,,,,,,2021-07-15,1,,,,,エイトアシバ,0
963,4080001024301,新規,0,2021-07-15,2021-07-15,株式会社一ノ瀬工業所,,株式会社,静岡県,静岡市清水区,三保３７９７番地,,22,103,4240901,,,,,,,2021-07-15,1,,,,,イチノセコウギョウショ,0
984,4120001238945,新規,0,2021-07-15,2021-07-15,株式会社豊秀商事,,株式会社,大阪府,大阪市東淀川区,東中島４丁目１１番６号,,27,114,5330033,,,,,,,2021-07-15,1,,,,,トヨヒデショウジ,0
985,4120001238994,新規,0,2021-07-15,2021-07-15,株式会社デニスホッパー,,株式会社,大阪府,枚方市,伊加賀西町２４番１２号,,27,210,5730066,,,,,,,2021-07-15,1,,,,,デニスホッパー,0
986,4120001239051,新規,0,2021-07-15,2021-07-15,株式会社社長の専門学校,,株式会社,大阪府,大阪市中央区,南久宝寺町３丁目２－７,,27,128,5410058,,,,,,,2021-07-15,1,,,,,シャチョウノセンモンガッコウ,0
987,4120001239068,新規,0,2021-07-15,2021-07-15,えちごや株式会社,,株式会社,大阪府,大阪市中央区,島之内２丁目４番１号ロイヤルメドゥ東心斎橋１００２号,,27,128,5420082,,,,,,,2021-07-15,1,,,,,エチゴヤ,0
988,4120001239118,新規,0,2021-07-15,2021-07-15,クリアス株式会社,,株式会社,大阪府,大阪市中央区,徳井町１丁目１－２,,27,128,5400025,,,,,,,2021-07-15,1,,,,,クリアス,0
990,4120003019831,新規,0,2021-07-15,2021-07-15,合同会社Ｄоｌｌａｒ,,合同会社,大阪府,大阪市城東区,中央１丁目１番３３－７０１号,,27,118,5360005,,,,,,,2021-07-15,1,,,,,ダル,0
991,4120005022379,新規,0,2021-07-15,2021-07-15,医療法人木もれ日会,,その他の設立登記法人,大阪府,大阪市福島区,鷺洲１丁目１１番１４号阪神ハイグレードマンション１２番館１０１号,,27,103,5530002,,,,,,,2021-07-15,1,,,,,コモレビカイ,0
1001,4120901044641,新規,0,2021-07-15,2021-07-15,株式会社Ｖ２,,株式会社,大阪府,吹田市,清和園町２番５－３０１号,,27,205,5640039,,,,,,,2021-07-15,1,,,,,ブイツー,0
1008,4130001069720,新規,0,2021-07-15,2021-07-15,Ｆｏｏｄ　Ｔｅｃｈ　Ｔｒａｄｉｎｇ株式会社,,株式会社,京都府,京都市東山区,祇園町南側５７０－２５０,,26,105,6050074,,,,,,,2021-07-15,1,,,,,フードテックトレーディング,0
1009,4130001069745,新規,0,2021-07-15,2021-07-15,株式会社沼田工務店,,株式会社,京都府,亀岡市,篠町浄法寺土井５１番地２,,26,206,6210835,,,,,,,2021-07-15,1,,,,,ヌマタコウムテン,0
1016,4140001122296,新規,0,2021-07-15,2021-07-15,株式会社八角校,,株式会社,兵庫県,加古川市,加古川町南備後４５番地の１,,28,210,6750033,,,,,,,2021-07-15,1,,,,,ハッカクコウ,0
1017,4140001122313,新規,0,2021-07-15,2021-07-15,日緬総合サービス株式会社,,株式会社,兵庫県,宝塚市,花屋敷荘園３丁目４番１１号,,28,214,6650802,,,,,,,2021-07-15,1,,,,,ニチメンソウゴウサービス,0
1020,4150001024797,新規,0,2021-07-15,2021-07-15,株式会社飯田不動産投資,,株式会社,奈良県,奈良市,北市町６３番地の１,,29,201,6308261,,,,,,,2021-07-15,1,,,,,イイダフドウサントウシ,0
1024,4160001023476,新規,0,2021-07-15,2021-07-15,Ｍｅｓｓｉａｈ　Ｃｏｍｐｌｅｘ株式会社,,株式会社,滋賀県,長浜市,地福寺町１２番３３号,,25,203,5260036,,,,,,,2021-07-15,1,,,,,メサイアコンプレックス,0
1032,4180301035161,新規,0,2021-07-15,2021-07-15,株式会社ＰＡＰＥＲ　ＭＯＯＮ,,株式会社,愛知県,刈谷市,若松町６丁目１４番地,,23,210,4480858,,,,,,,2021-07-15,1,,,,,ペイパームーン,0
1038,4190003003713,新規,0,2021-07-15,2021-07-15,合同会社Ｂｅｎｅｓｓｅｒｅ　Ｍｉｅ,,合同会社,三重県,津市,高茶屋小森町２６８７番地１サンハイツイノウエ１Ｂ,,24,201,5140817,,,,,,,2021-07-15,1,,,,,ベネッセレミエ,0
1047,4220005008574,新規,0,2021-07-15,2021-07-15,行政書士法人ＰＡＣ,,その他の設立登記法人,石川県,金沢市,諸江町中丁１７１番地１梅信ビル６Ｆ,,17,201,9200016,,,,,,,2021-07-15,1,,,,,ピーエーシー,0
1059,4290005018278,新規,0,2021-07-15,2021-07-15,一般社団法人忠隈,,その他の設立登記法人,福岡県,飯塚市,忠隈１２０番地１,,40,205,8200071,,,,,,,2021-07-15,1,,,,,タダクマ,0
1068,4310003004104,新規,0,2021-07-15,2021-07-15,合同会社弘紀総業,,合同会社,長崎県,佐世保市,白南風町３５番１０号,,42,202,8570862,,,,,,,2021-07-15,1,,,,,コウキソウギョウ,0
1070,4320003003575,新規,0,2021-07-15,2021-07-15,合同会社ＭＴＴファーム,,合同会社,大分県,宇佐市,大字猿渡１１２０番地の３０,,44,211,8790314,,,,,,,2021-07-15,1,,,,,,0
1071,4330001028796,新規,0,2021-07-15,2021-07-15,株式会社ＭＫリート,,株式会社,熊本県,上益城郡益城町,大字福原２２５６番地３,,43,443,8612211,,,,,,,2021-07-15,1,,,,,エムケーリート,0
1080,4370001047347,新規,0,2021-07-15,2021-07-15,株式会社渡辺産業,,株式会社,宮城県,仙台市青葉区,中央２丁目２番３８号フォーシーズンビルＢ１Ｆ,,04,101,9800021,,,,,,,2021-07-15,1,,,,,ワタナベサンギョウ,0
1115,4700150104113,新規,0,2021-07-15,2021-07-15,長野県病院企業年金基金,,その他,長野県,松本市,本庄１丁目３－１２,,20,202,3900814,,,,,,,2021-07-15,1,,,,,ナガノケンビヨウインキギヨウネンキンキキン,0
1116,4700150104121,新規,0,2021-07-15,2021-07-15,神奈川県医療福祉企業年金基金,,その他,神奈川県,横浜市中区,尾上町１丁目６,,14,104,2310015,,,,,,,2021-07-15,1,,,,,カナガワケンイリヨウフクシキギヨウネンキンキキン,0
1124,5010001219336,新規,0,2021-07-15,2021-07-15,株式会社地域医療創生機構,,株式会社,東京都,中央区,新富１丁目５番１４号,,13,102,1040041,,,,,,,2021-07-15,1,,,,,チイキイリョウソウセイキコウ,0
1125,5010001219724,新規,0,2021-07-15,2021-07-15,株式会社ソクガイ,,株式会社,東京都,中央区,日本橋３丁目６番２号日本橋フロント１Ｆ,,13,102,1030027,,,,,,,2021-07-15,1,,,,,ソクガイ,0
1126,5010001219740,新規,0,2021-07-15,2021-07-15,株式会社ラボダストリーサポート,,株式会社,東京都,千代田区,神田須田町２丁目２５番地,,13,101,1010041,,,,,,,2021-07-15,1,,,,,ラボダストリーサポート,0
1128,5010003035327,新規,0,2021-07-15,2021-07-15,М－ＳＡＮビジネス・コンシェルジュ,,合同会社,東京都,千代田区,九段南１丁目５番６号りそな九段ビル５Ｆ,,13,101,1020074,,,,,,,2021-07-15,1,,,,,エムーサンビジネスコンシェルジュ,0
1132,5010101014760,新規,0,2021-07-15,2021-07-15,株式会社ジープレ,,株式会社,東京都,八王子市,暁町３丁目１９番１８号,,13,201,1920043,,,,,,,2021-07-15,1,,,,,,0
1133,5010105002118,新規,0,2021-07-15,2021-07-15,一般社団法人にじのはなし,,その他の設立登記法人,東京都,八王子市,上柚木１１０９番地８,,13,201,1920373,,,,,,,2021-07-15,1,,,,,,0
1137,5010403025720,新規,0,2021-07-15,2021-07-15,合同会社オフィスＭ,,合同会社,東京都,港区,高輪１丁目５番３３－７０１号,,13,103,1080074,,,,,,,2021-07-15,1,,,,,オフィスエム,0
1138,5010405019984,新規,0,2021-07-15,2021-07-15,協同組合ＪＩＰ,,その他の設立登記法人,東京都,港区,新橋５丁目１２番１号露月町ビル４Ｆ,,13,103,1050004,,,,,,,2021-07-15,1,,,,,ジェイアイピー,0
1153,5010901049089,新規,0,2021-07-15,2021-07-15,株式会社ネオン,,株式会社,東京都,世田谷区,羽根木２丁目５番９号,,13,112,1560042,,,,,,,2021-07-15,1,,,,,ネオン,0
1157,5011001141728,新規,0,2021-07-15,2021-07-15,株式会社Ｎｅｘｔ　Ｐａｔｈ,,株式会社,東京都,渋谷区,幡ヶ谷２丁目１番１０号レジーナ幡ヶ谷２０３,,13,113,1510072,,,,,,,2021-07-15,1,,,,,ネクストパス,0
1158,5011001141736,新規,0,2021-07-15,2021-07-15,株式会社ｇａｒｄｅｎ－Ｐ,,株式会社,東京都,渋谷区,神宮前１丁目１１番１１号,,13,113,1500001,,,,,,,2021-07-15,1,,,,,ガーデンピー,0
1159,5011001141769,新規,0,2021-07-15,2021-07-15,ＥＮＴＲＡＮＣＥ株式会社,,株式会社,東京都,渋谷区,宇田川町７番１７－３０３号ユニーブル渋谷神南,,13,113,1500042,,,,,,,2021-07-15,1,,,,,エントランス,0
1160,5011001141777,新規,0,2021-07-15,2021-07-15,株式会社Ｍｒ．ＢＢＱ,,株式会社,東京都,渋谷区,渋谷３丁目６番４号,,13,113,1500002,,,,,,,2021-07-15,1,,,,,ミスターバーベキュー,0
1166,5011101095709,新規,0,2021-07-15,2021-07-15,株式会社レーヴ,,株式会社,東京都,新宿区,上落合２丁目１３番１－５０２号,,13,104,1610034,,,,,,,2021-07-15,1,,,,,レーヴ,0
1168,5011103010863,新規,0,2021-07-15,2021-07-15,Ｍ１合同会社,,合同会社,東京都,新宿区,四谷２丁目９番地１５東京ユナイテッド綜合事務所内,,13,104,1600004,,,,,,,2021-07-15,1,,,,,エムワン,0
1169,5011301027049,新規,0,2021-07-15,2021-07-15,株式会社ＭＡＰ,,株式会社,東京都,杉並区,下高井戸４丁目３８番１７号,,13,115,1680073,,,,,,,2021-07-15,1,,,,,マップ,0
1173,5011503004829,新規,0,2021-07-15,2021-07-15,合同会社ｆｔ．Ｐｍ,,合同会社,東京都,荒川区,西尾久２丁目１１－１２－４０３,,13,118,1160011,,,,,,,2021-07-15,1,,,,,エフティードットピーエム,0
1178,5011601025264,新規,0,2021-07-15,2021-07-15,株式会社１００ｐｌｕｓ,,株式会社,東京都,練馬区,春日町４丁目２９番９号プレジオ１０２,,13,120,1790074,,,,,,,2021-07-15,1,,,,,ハンドレットプラス,0
1180,5011801039460,新規,0,2021-07-15,2021-07-15,ＴＫＹコンサルティング株式会社,,株式会社,東京都,足立区,竹の塚１丁目４０番９号,,13,121,1210813,,,,,,,2021-07-15,1,,,,,ティーケーワイコンサルティング,0
1182,5012401038101,新規,0,2021-07-15,2021-07-15,株式会社種屋,,株式会社,東京都,三鷹市,下連雀７丁目８番２５－３０１号,,13,204,1810013,,,,,,,2021-07-15,1,,,,,タネヤ,0
1191,5013301047729,新規,0,2021-07-15,2021-07-15,株式会社山辺構造設計事務所,,株式会社,東京都,豊島区,駒込１丁目３７番１０号,,13,116,1700003,,,,,,,2021-07-15,1,,,,,ヤマベコウゾウセッケイジムショ,0
1192,5013301047737,新規,0,2021-07-15,2021-07-15,株式会社Ｌｕａｎａ,,株式会社,東京都,豊島区,東池袋１丁目１５番１号真下ビル７階,,13,116,1700013,,,,,,,2021-07-15,1,,,,,ルアナ,0
1201,5020003020154,新規,0,2021-07-15,2021-07-15,合同会社ＥＧＬ,,合同会社,神奈川県,川崎市高津区,西野川二丁目２７－５,,14,134,2130000,,,,,,,2021-07-15,1,,,,,イージーエル,0
1202,5020003020170,新規,0,2021-07-15,2021-07-15,山三不動産合同会社,,合同会社,神奈川県,川崎市宮前区,野川本町１丁目２０番２号,,14,136,2160041,,,,,,,2021-07-15,1,,,,,ヤマサンフドウサン,0
1207,5021001073417,新規,0,2021-07-15,2021-07-15,株式会社ナチュラルスタイル,,株式会社,神奈川県,小田原市,成田２９４番地の９,,14,206,2500862,,,,,,,2021-07-15,1,,,,,ナチュラルスタイル,0
1214,5021005012247,新規,0,2021-07-15,2021-07-15,ＮＰＯ法人とことこ,,その他の設立登記法人,神奈川県,藤沢市,鵠沼橘２丁目８番１８号,00123650,14,205,2510024,,,,,,,2021-07-15,1,,,,,トコトコ,0
1222,5030001143220,新規,0,2021-07-15,2021-07-15,ジェイアイジェイ株式会社,,株式会社,埼玉県,さいたま市緑区,大字大門６０４番地,,11,109,3360963,,,,,,,2021-07-15,1,,,,,ジェイアイジェイ,0
1231,5050001049548,新規,0,2021-07-15,2021-07-15,株式会社冨田工業,,株式会社,茨城県,石岡市,東大橋１８０５番地,,08,205,3150031,,,,,,,2021-07-15,1,,,,,トミタコウギョウ,0
1239,5060003003758,新規,0,2021-07-15,2021-07-15,合同会社ＡＢＫ　ＩＮＴＥＲＮＡＴＩＯＮＡＬ,,合同会社,栃木県,佐野市,免鳥町４４９丸正アパート５号,,09,204,3270041,,,,,,,2021-07-15,1,,,,,エイビーケイインターナショナル,0
1258,5120001239109,新規,0,2021-07-15,2021-07-15,株式会社シーアイディビーテック,,株式会社,大阪府,大阪市北区,梅田２丁目２番２号１９階,,27,127,5300001,,,,,,,2021-07-15,1,,,,,シーアイディビーテック,0
1259,5120003019839,新規,0,2021-07-15,2021-07-15,ｑｈｒｏｎ合同会社,,合同会社,大阪府,大阪市淀川区,西中島６丁目３－２４,,27,123,5320011,,,,,,,2021-07-15,1,,,,,クロン,0
1260,5120003019847,新規,0,2021-07-15,2021-07-15,合同会社モンドロッチャ,,合同会社,大阪府,大阪市西区,江戸堀２丁目１番２１号,,27,106,5500002,,,,,,,2021-07-15,1,,,,,モンドロッチャ,0
1262,5120005022386,新規,0,2021-07-15,2021-07-15,行政書士法人みちてらす,,その他の設立登記法人,大阪府,大阪市北区,西天満３丁目１４番６号センチュリー西天満ビル１０階,,27,127,5300047,,,,,,,2021-07-15,1,,,,,ミチテラス,0
1263,5120005022394,新規,0,2021-07-15,2021-07-15,医療法人結愛会,,その他の設立登記法人,大阪府,大阪市平野区,長吉長原西３丁目３番１８号,,27,126,5470015,,,,,,,2021-07-15,1,,,,,ユウアイカイ,0
1269,5120101063978,新規,0,2021-07-15,2021-07-15,ホゼンサイド株式会社,,株式会社,大阪府,岸和田市,下池田町１丁目３番１５号,,27,202,5960811,,,,,,,2021-07-15,1,,,,,ホゼンサイド,0
1270,5120905006199,新規,0,2021-07-15,2021-07-15,医療法人すまクリニック,,その他の設立登記法人,大阪府,吹田市,岸部新町５番４５号ＶＩＥＲＲＡ岸辺健都２Ｆ,,27,205,5640018,,,,,,,2021-07-15,1,,,,,スマクリニック,0
1274,5130001069744,新規,0,2021-07-15,2021-07-15,ＵＭＫＴ株式会社,,株式会社,京都府,舞鶴市,字和田１０７７番地,,26,202,6250085,,,,,,,2021-07-15,1,,,,,ユーエムケーティー,0
1277,5140001122312,新規,0,2021-07-15,2021-07-15,株式会社友翔,,株式会社,兵庫県,尼崎市,武庫之荘７丁目２７番２号,,28,202,6610035,,,,,,,2021-07-15,1,,,,,トモショウ,0
1279,5140003016495,新規,0,2021-07-15,2021-07-15,合同会社ＪＯＹ,,合同会社,兵庫県,神戸市須磨区,妙法寺字荒打３１５,,28,107,6540121,,,,,,,2021-07-15,1,,,,,,0
1294,5180005019344,新規,0,2021-07-15,2021-07-15,一般社団法人協和西組保存会,,その他の設立登記法人,愛知県,半田市,郷中町１丁目６３番地,,23,205,4750842,,,,,,,2021-07-15,1,,,,,キョウワニシグミホゾンカイ,0
1299,5190002024668,新規,0,2021-07-15,2021-07-15,有限会社伊勢砂利松田商店,,有限会社,三重県,伊勢市,川端町８７番地,,24,203,5160052,,,,,,,2021-07-15,1,,,,,イセジャリマツダショウテン,0
1329,5270001008317,新規,0,2021-07-15,2021-07-15,株式会社ＭＯＮＯスタジオ,,株式会社,鳥取県,米子市,淀江町佐陀４００番地２５,,31,202,6893425,,,,,,,2021-07-15,1,,,,,モノスタジオ,0
1335,5290801027563,新規,0,2021-07-15,2021-07-15,大光インテリアデザイン株式会社,,株式会社,福岡県,北九州市戸畑区,牧山新町１番１号,,40,105,8040054,,,,,,,2021-07-15,1,,,,,タイコウインテリアデザイン,0
1344,5320003003574,新規,0,2021-07-15,2021-07-15,合同会社ＳＥＡＲＣＨ大分,,合同会社,大分県,大分市,豊町１丁目５番８号足達ビル３０１,,44,201,8700042,,,,,,,2021-07-15,1,,,,,サーチオオイタ,0
1350,5360001029031,新規,0,2021-07-15,2021-07-15,ヤシマ工業株式会社,,株式会社,沖縄県,那覇市,久米２丁目１６番２５号,,47,201,9000033,,,,,,,2021-07-15,1,,,,,ヤシマコウギョウ,0
1351,5360001029048,新規,0,2021-07-15,2021-07-15,Ｊｏｙｆｕｌｌｙ株式会社,,株式会社,沖縄県,石垣市,字新川１５８５－３５コーラルベイ石垣島迎賓館１０１号室,,47,207,9070024,,,,,,,2021-07-15,1,,,,,,0
1374,5420003002351,新規,0,2021-07-15,2021-07-15,合同会社Ｌｅｆｔｙ,,合同会社,青森県,八戸市,大字三日町２３番地,,02,203,0310032,,,,,,,2021-07-15,1,,,,,レフティ,0
1379,5430001084531,新規,0,2021-07-15,2021-07-15,株式会社グリーンファーム,,株式会社,北海道,苫小牧市,字植苗２９５番地１,,01,213,0591365,,,,,,,2021-07-15,1,,,,,グリーンファーム,0
1391,5700150103758,新規,0,2021-07-15,2021-06-17,中部圏ＳＤＧｓ広域プラットフォーム,,その他,愛知県,日進市,岩崎町阿良池１２愛知学院大学１２号館５階５１０研究室,,23,230,4700131,,,,,,,2021-06-17,1,,,,,チユウブケンエスデイージーズコウイキプラツトフオーム,0
1392,5700150104112,新規,0,2021-07-15,2021-07-15,島根県医療機関企業年金基金,,その他,島根県,松江市,殿町３８番地１,,32,201,6900887,,,,,,,2021-07-15,1,,,,,シマネケンイリヨウキカンキギヨウネンキンキキン,0
1393,5700150104120,新規,0,2021-07-15,2021-07-15,熊本県病院企業年金基金,,その他,熊本県,熊本市中央区,水前寺１丁目２０番２２号,,43,101,8620950,,,,,,,2021-07-15,1,,,,,クマモトケンビヨウインキギヨウネンキンキキン,0
1394,5700150104129,新規,0,2021-07-15,2021-07-15,富山県トラック企業年金基金,,その他,富山県,富山市,婦中町島本郷１－５,,16,201,9392708,,,,,,,2021-07-15,1,,,,,トヤマケントラツクキギヨウネンキンキキン,0
1411,6010001219665,新規,0,2021-07-15,2021-07-15,ＮＡＮＡ　ＨＯＬＤＩＮＧＳ株式会社,,株式会社,東京都,千代田区,九段北１丁目３番１号ＶＯＲＴ九段下８Ｆ,,13,101,1020073,,,,,,,2021-07-15,1,,,,,ナナホールディングス,0
1413,6010005033633,新規,0,2021-07-15,2021-07-15,一般社団法人日本老年療法学会,,その他の設立登記法人,東京都,千代田区,一ツ橋１丁目１番１号パレスサイドビル株式会社毎日学術フォーラム内,,13,101,1000003,,,,,,,2021-07-15,1,,,,,ニホンロウネンリョウホウガッカイ,0
1415,6010101014768,新規,0,2021-07-15,2021-07-15,株式会社エムディプラス,,株式会社,東京都,八王子市,高倉町５番地５,,13,201,1920033,,,,,,,2021-07-15,1,,,,,エムディプラス,0
1421,6010401161517,新規,0,2021-07-15,2021-07-15,株式会社ＡＫ－ｐａｒｔｎｅｒｓ,,株式会社,東京都,港区,六本木６丁目１５番１号,,13,103,1060032,,,,,,,2021-07-15,1,,,,,エーケーパートナーズ,0
1422,6010401161525,新規,0,2021-07-15,2021-07-15,Ｒ－ｉ株式会社,,株式会社,東京都,港区,赤坂９丁目６番２６号フォンテ六本木８０１,,13,103,1070052,,,,,,,2021-07-15,1,,,,,アールアイ,0
1424,6010405019983,新規,0,2021-07-15,2021-07-15,Ｔｈｒｅｅ　Ａｒｒｏｗｓ特定目的会社,,その他の設立登記法人,東京都,港区,西新橋１丁目２２番５号６階,,13,103,1050003,,,,,,,2021-07-15,1,,,,,スリーアローズ,0
1444,6011001141578,新規,0,2021-07-15,2021-07-15,日拓ビルディング株式会社,,株式会社,東京都,渋谷区,南平台町１６番１７号,,13,113,1500036,,,,,,,2021-07-15,1,,,,,ニッタクビルディング,0
1445,6011001141751,新規,0,2021-07-15,2021-07-15,株式会社ＰＲｉＭＡ,,株式会社,東京都,渋谷区,神宮前６丁目２３番４号桑野ビル２階,,13,113,1500001,,,,,,,2021-07-15,1,,,,,プリマ,0
1446,6011001141768,新規,0,2021-07-15,2021-07-15,株式会社ナウム,,株式会社,東京都,渋谷区,神宮前３丁目７番１号マリオンビル４階,,13,113,1500001,,,,,,,2021-07-15,1,,,,,ナウム,0
1452,6011101095699,新規,0,2021-07-15,2021-07-15,株式会社ＨＡＮＥＳＴ　Ｃｏｒｐｏｒａｔｉｏｎ,,株式会社,東京都,新宿区,西新宿７丁目２番１２号,,13,104,1600023,,,,,,,2021-07-15,1,,,,,ハネストコーポレーション,0
1453,6011101095716,新規,0,2021-07-15,2021-07-15,３６０　Ｗｅｌｌｎｅｓｓ株式会社,,株式会社,東京都,新宿区,西早稲田２丁目１８番２３号スカイエスタビル１１０２号,,13,104,1690051,,,,,,,2021-07-15,1,,,,,スリーシクスティウェルネス,0
1456,6011103010862,新規,0,2021-07-15,2021-07-15,Ｍファンディング合同会社,,合同会社,東京都,新宿区,四谷２丁目９番地１５東京ユナイテッド綜合事務所内,,13,104,1600004,,,,,,,2021-07-15,1,,,,,エムファンディング,0
1458,6011501027137,新規,0,2021-07-15,2021-07-15,ＡＲＵＭＡ－ＴＡＭ株式会社,,株式会社,東京都,北区,田端１丁目１番１０号,,13,117,1140014,,,,,,,2021-07-15,1,,,,,アルマタム,0
1465,6013301047736,新規,0,2021-07-15,2021-07-15,株式会社ロードツリー,,株式会社,東京都,豊島区,南大塚３丁目５２番２号,,13,116,1700005,,,,,,,2021-07-15,1,,,,,ロードツリー,0
1470,6020001142206,新規,0,2021-07-15,2021-07-15,株式会社ＬＩＶＥＲＴＡＴＨ,,株式会社,神奈川県,川崎市宮前区,犬蔵２丁目３５番１－５０９号,,14,136,2160011,,,,,,,2021-07-15,1,,,,,リバータス,0
1474,6021001073408,新規,0,2021-07-15,2021-07-15,株式会社座間建材,,株式会社,神奈川県,相模原市南区,下溝２６８９番地４,,14,153,2520335,,,,,,,2021-07-15,1,,,,,ザマケンザイ,0
1483,6030001143293,新規,0,2021-07-15,2021-07-15,株式会社アカラ,,株式会社,埼玉県,さいたま市南区,辻８丁目１９番１６号,00123651,11,108,3360026,,,,,,,2021-07-15,1,,,,,カブシキカイシャアカラ,0
1489,6040001119383,新規,0,2021-07-15,2021-07-15,株式会社Ｋａｒｔａｌ　Ｔ　Ｕｐ,,株式会社,千葉県,船橋市,前原東５丁目１０－３０アルファグランデ津田沼２０６号室,,12,204,2740824,,,,,,,2021-07-15,1,,,,,カルタルティーアップ,0
1493,6050001023337,新規,0,2021-07-15,2021-07-15,株式会社高木工務店,,株式会社,茨城県,日立市,日高町２丁目１２番４号,,08,202,3191414,,,,,,,2021-07-15,1,,,,,,0
1500,6050001049547,新規,0,2021-07-15,2021-07-15,株式会社エス警備保障,,株式会社,茨城県,つくば市,大角豆８４９番地１,,08,220,3050043,,,,,,,2021-07-15,1,,,,,エスケイビホショウ,0
1509,6070001038275,新規,0,2021-07-15,2021-07-15,株式会社ＮＫドリームファーム,,株式会社,群馬県,邑楽郡邑楽町,大字中野５７３１番地１,,10,525,3700603,,,,,,,2021-07-15,1,,,,,エヌケードリームファーム,0
1510,6080001024316,新規,0,2021-07-15,2021-07-15,株式会社シンメイ厨設,,株式会社,静岡県,静岡市清水区,袖師町２４３番地の６,,22,103,4240037,,,,,,,2021-07-15,1,,,,,シンメイチュウセツ,0
1518,6090003001907,新規,0,2021-07-15,2021-07-15,合同会社此乃花屋,,合同会社,山梨県,北都留郡丹波山村,５４２７番地,,19,443,4090300,,,,,,,2021-07-15,1,,,,,コノハナヤ,0
1521,6100003006169,新規,0,2021-07-15,2021-07-15,ビジョナリープロモーション合同会社,,合同会社,長野県,岡谷市,長地御所２丁目１－２２,,20,204,3940082,,,,,,,2021-07-15,1,,,,,ビジョナリープロモーション,0
1529,6120001238992,新規,0,2021-07-15,2021-07-15,株式会社アルタイル,,株式会社,大阪府,大阪市住吉区,住吉１丁目８番６２号,,27,120,5580045,,,,,,,2021-07-15,1,,,,,アルタイル,0
1530,6120001239108,新規,0,2021-07-15,2021-07-15,株式会社ステディ・ゴー,,株式会社,大阪府,大阪市住吉区,我孫子東２丁目１－１グリーンドゥ・ダイワ５０３,,27,120,5580013,,,,,,,2021-07-15,1,,,,,ステディゴー,0
1531,6120001239116,新規,0,2021-07-15,2021-07-15,株式会社Ｗｅｌｉｇｈｔ　Ｊａｐａｎ,,株式会社,大阪府,大阪市住吉区,我孫子１丁目１番１２号あびこレトロ２０６,,27,120,5580014,,,,,,,2021-07-15,1,,,,,ウィライトジャパン,0
1533,6120003019838,新規,0,2021-07-15,2021-07-15,合同会社港屋,,合同会社,大阪府,大阪市西区,新町１丁目２１番８－５０４号,,27,106,5500013,,,,,,,2021-07-15,1,,,,,ミナトヤ,0
1534,6120005022385,新規,0,2021-07-15,2021-07-15,医療法人祐心会,,その他の設立登記法人,大阪府,大阪市淀川区,木川西２丁目６番３号,,27,123,5320013,,,,,,,2021-07-15,1,,,,,ユウシンカイ,0
1540,6120905006198,新規,0,2021-07-15,2021-07-15,医療法人ＳＭＣ,,その他の設立登記法人,大阪府,豊中市,曽根東町１丁目８番８号植村ビル１階,,27,203,5610802,,,,,,,2021-07-15,1,,,,,エスエムシー,0
1546,6122005003563,新規,0,2021-07-15,2021-07-15,医療法人湧仁会,,その他の設立登記法人,大阪府,東大阪市,喜里川町３番１３号阪田屋ビル１階,,27,227,5798041,,,,,,,2021-07-15,1,,,,,ユウジンカイ,0
1551,6130003007362,新規,0,2021-07-15,2021-07-15,イーリスハラスメントコンサルティング合同会社,,合同会社,京都府,京都市中京区,三条通河原町東入中島町９０番地フェリチタ三条木屋町ＢＩＺｃｏｍｆｏｒｔ三条木屋町,,26,104,6048004,,,,,,,2021-07-15,1,,,,,イーリスハラスメントコンサルティング,0
1554,6140001122328,新規,0,2021-07-15,2021-07-15,株式会社芦屋建設コンサルタント,00123657,株式会社,兵庫県,芦屋市,岩園町１０番１６－２０８号,,28,206,6590013,,,,,,,2021-07-15,1,,,,,アシヤケンセツコンサルタント,0
1562,6180001146819,新規,0,2021-07-15,2021-07-15,南知多開発株式会社,,株式会社,愛知県,半田市,雁宿町１丁目５３番地の３,,23,205,4750918,,,,,,,2021-07-15,1,,,,,ミナミチタカイハツ,0
1563,6180001146991,新規,0,2021-07-15,2021-07-15,株式会社ｒｅｄｂｅｅ,,株式会社,愛知県,春日井市,上田楽町２７８０番地３０,,23,206,4860801,,,,,,,2021-07-15,1,,,,,レッドビー,0
1565,6180003022720,新規,0,2021-07-15,2021-07-15,合同会社Ａｒｔ　Ｗｏｒｋ　Ｓｔｕｄｉｏ　ｗｒｄｗ,,合同会社,愛知県,名古屋市中区,金山５丁目１３－１９,,23,106,4600022,,,,,,,2021-07-15,1,,,,,アートワークスタジオワルドワ,0
1573,6200001038889,新規,0,2021-07-15,2021-07-15,双王金属株式会社,,株式会社,岐阜県,羽島郡笠松町,米野字野畑２６０,,21,303,5016031,,,,,,,2021-07-15,1,,,,,ソウオウキンゾク,0
1584,6220005008572,新規,0,2021-07-15,2021-07-15,一般社団法人日本うんこ文化学会,,その他の設立登記法人,石川県,小松市,末広町８８番地,,17,203,9230945,,,,,,,2021-07-15,1,,,,,ウンコブンカガッカイ,0
1595,6250003002871,新規,0,2021-07-15,2021-07-15,合同会社ＣＨＡＲＩＳ,,合同会社,山口県,山陽小野田市,大字東高泊４１２番地１,,35,216,7560088,,,,,,,2021-07-15,1,,,,,カリス,0
1604,6290001093769,新規,0,2021-07-15,2021-07-15,ｂｅｒｒｙ’ｓ　ｆａｒｍ　ＳＡＫＵＲＡ株式会社,,株式会社,福岡県,久留米市,三潴町生岩２９３番地３,,40,203,8300113,,,,,,,2021-07-15,1,,,,,ベリーズファームサクラ,0
1609,6320003003565,新規,0,2021-07-15,2021-07-15,ＣＳ　ＳＴＹＬＥ合同会社,,合同会社,大分県,宇佐市,大字岩崎４５８番地の１－２０１号,,44,211,8791132,,,,,,,2021-07-15,1,,,,,シーエススタイル,0
1612,6330001028803,新規,0,2021-07-15,2021-07-15,株式会社ドリームプランニング,,株式会社,熊本県,菊池郡大津町,大字室１５番地,,43,403,8691235,,,,,,,2021-07-15,1,,,,,ドリームプランニング,0
1618,6350003003892,新規,0,2021-07-15,2021-07-15,合同会社オオツカファーム,,合同会社,宮崎県,北諸県郡三股町,大字宮村３９２番地３,,45,341,8891912,,,,,,,2021-07-15,1,,,,,オオツカファーム,0
1623,6370005010316,新規,0,2021-07-15,2021-07-15,一般社団法人ＴｏｐＲｉＳＥ,,その他の設立登記法人,宮城県,仙台市若林区,六丁の目西町１番４３号,,04,103,9840011,,,,,,,2021-07-15,1,,,,,トップライズ,0
1626,6380001032040,新規,0,2021-07-15,2021-07-15,羽入工業株式会社,,株式会社,福島県,いわき市,佐糠町１丁目６番地の３・小磯戸建Ｂ号,,07,204,9748223,,,,,,,2021-07-15,1,,,,,ハニュウコウギョウ,0
1640,6450001013413,新規,0,2021-07-15,2021-07-15,エーケー商事株式会社,,株式会社,北海道,紋別市,渚滑町２丁目２３番地の３,,01,219,0995171,,,,,,,2021-07-15,1,,,,,エーケーショウジ,0
1645,6700150104111,新規,0,2021-07-15,2021-07-15,大阪府病院企業年金基金,,その他,大阪府,大阪市天王寺区,六万体町４－１１,,27,109,5430074,,,,,,,2021-07-15,1,,,,,オオサカフビヨウインキギヨウネンキンキキン,0
1646,6700150104128,新規,0,2021-07-15,2021-07-15,四国薬業企業年金基金,,その他,香川県,高松市,兵庫町８番地１,,37,201,7600024,,,,,,,2021-07-15,1,,,,,シコクヤクギヨウキギヨウネンキンキキン,0
1655,7010001219714,新規,0,2021-07-15,2021-07-15,株式会社Ｂｅｎｃｈ,,株式会社,東京都,中央区,銀座７丁目５－４毛利ビル５階Ｓ,,13,102,1040061,,,,,,,2021-07-15,1,,,,,ベンチ,0
1656,7010001219722,新規,0,2021-07-15,2021-07-15,エコ・リファイン株式会社,,株式会社,東京都,千代田区,平河町１丁目６番１５号ＵＳビル８Ｆ,,13,101,1020093,,,,,,,2021-07-15,1,,,,,エコリファイン,0
1658,7010003035283,新規,0,2021-07-15,2021-07-15,合同会社ＲＩＯＴ,,合同会社,東京都,千代田区,九段南１丁目５番６号りそな九段ビル５ＦＫＳフロア,,13,101,1020074,,,,,,,2021-07-15,1,,,,,ライオット,0
1659,7010003035325,新規,0,2021-07-15,2021-07-15,ＦｌｙＭｅ合同会社,,合同会社,東京都,中央区,銀座１丁目２２番１１号銀座大竹ビジデンス２階,,13,102,1040061,,,,,,,2021-07-15,1,,,,,フライミー,0
1661,7010101014767,新規,0,2021-07-15,2021-07-15,株式会社ＡＰＰＬＩＯＴ,,株式会社,東京都,八王子市,元八王子町３丁目２７５０－３７８,,13,201,1930826,,,,,,,2021-07-15,1,,,,,アプリオ,0
1669,7010401161524,新規,0,2021-07-15,2021-07-15,ｍｉｒａｓｕｋｕ株式会社,,株式会社,東京都,港区,海岸３丁目６－３２レグノオンザベイ８０５,,13,103,1080022,,,,,,,2021-07-15,1,,,,,ミラスク,0
1670,7010501047573,新規,0,2021-07-15,2021-07-15,株式会社ユウキン,,株式会社,東京都,台東区,東上野６丁目２３番５－７０１号,,13,106,1100015,,,,,,,2021-07-15,1,,,,,ユウキン,0
1681,7011001141775,新規,0,2021-07-15,2021-07-15,株式会社ＮＯＲＮ,,株式会社,東京都,渋谷区,神宮前６丁目２３番４号桑野ビル２階,,13,113,1500001,,,,,,,2021-07-15,1,,,,,ノルン,0
1687,7011101095624,新規,0,2021-07-15,2021-07-15,Ｃｈａｔｗｏｒｋストレージテクノロジーズ株式会社,,株式会社,東京都,新宿区,西新宿２丁目３番１号,,13,104,1600023,,,,,,,2021-07-15,1,,,,,チャットワークストレージテクノロジーズ,0
1692,7011105009885,新規,0,2021-07-15,2021-07-15,Ｍファンディング一般社団法人,,その他の設立登記法人,東京都,新宿区,四谷２丁目９番地１５東京ユナイテッド綜合事務所内,,13,104,1600004,,,,,,,2021-07-15,1,,,,,エムファンディング,0
1697,7011603003349,新規,0,2021-07-15,2021-07-15,合同会社Ｌａｆｆｒｅｅ,,合同会社,東京都,練馬区,桜台３丁目６－８,,13,120,1760002,,,,,,,2021-07-15,1,,,,,ラフリー,0
1699,7011701024552,新規,0,2021-07-15,2021-07-15,ＭＲＳＨ　Ｉｎｔｅｒｎａｔｉｏｎａｌ株式会社,,株式会社,東京都,江戸川区,瑞江２丁目５番３号グレイス瑞江２Ｆ,,13,123,1320011,,,,,,,2021-07-15,1,,,,,エムアールエスエイチインターナショナル,0
1702,7012301012617,新規,0,2021-07-15,2021-07-15,株式会社遠迅,,株式会社,東京都,町田市,原町田６丁目１８番１７号東亜町田ビルⅢ地下１階,00123656,13,209,1940013,,,,,,,2021-07-15,1,,,,,エンジン,0
1707,7012405004618,新規,0,2021-07-15,2021-07-15,一般財団法人ＡｓｓｅｔＣｉｒｃｕｌａｔｉｏｎ,,その他の設立登記法人,東京都,三鷹市,下連雀３丁目１５番７号,,13,204,1810013,,,,,,,2021-07-15,1,,,,,アセットサーキュレーション,0
1716,7020001142171,新規,0,2021-07-15,2021-07-15,株式会社サン自動車工業,,株式会社,神奈川県,川崎市川崎区,東田町６番地２,,14,131,2100005,,,,,,,2021-07-15,1,,,,,サンジドウシャコウギョウ,0
1717,7020001142205,新規,0,2021-07-15,2021-07-15,株式会社ＮＣＧ,,株式会社,神奈川県,横浜市西区,浅間町２丁目１０１番地３,,14,103,2200072,,,,,,,2021-07-15,1,,,,,エヌシージー,0
1718,7020001142213,新規,0,2021-07-15,2021-07-15,株式会社Ｏｊｉｇｉ,,株式会社,神奈川県,横浜市旭区,南本宿町３８－１１６,,14,112,2410833,,,,,,,2021-07-15,1,,,,,オジギ,0
1724,7020003020169,新規,0,2021-07-15,2021-07-15,合同会社ニノン,,合同会社,神奈川県,横浜市鶴見区,東寺尾１丁目２－１４－２,,14,101,2300077,,,,,,,2021-07-15,1,,,,,ニノン,0
1727,7021001073407,新規,0,2021-07-15,2021-07-15,株式会社ｗｅａｒｅ,,株式会社,神奈川県,鎌倉市,大町１丁目１番１４号,,14,204,2480007,,,,,,,2021-07-15,1,,,,,ウィアー,0
1728,7021001073423,新規,0,2021-07-15,2021-07-15,株式会社ＩＣＢ,,株式会社,神奈川県,横須賀市,馬堀町２丁目７番２号,,14,201,2390802,,,,,,,2021-07-15,1,,,,,アイシービー,0
1747,7040003018161,新規,0,2021-07-15,2021-07-15,合同会社Ｔｅｔｔｅ＆Ｔｏｔｔｏ,,合同会社,千葉県,船橋市,七林町４３８番地１３７ツーウッドＤ－２０１号,,12,204,2740821,,,,,,,2021-07-15,1,,,,,テッテアンドトット,0
1754,7050001049554,新規,0,2021-07-15,2021-07-15,株式会社翔也,,株式会社,茨城県,石岡市,府中１丁目１０番１１号,,08,205,3150013,,,,,,,2021-07-15,1,,,,,ショウヤ,0
1756,7050003005984,新規,0,2021-07-15,2021-07-15,合同会社サテライト,,合同会社,茨城県,取手市,新取手５丁目２０番地５号,,08,217,3020031,,,,,,,2021-07-15,1,,,,,サテライト,0
1770,7080101022656,新規,0,2021-07-15,2021-07-15,たすけ株式会社,,株式会社,静岡県,沼津市,江浦５２７番地の７,,22,203,4100103,,,,,,,2021-07-15,1,,,,,タスケ,0
1774,7080403004328,新規,0,2021-07-15,2021-07-15,ロクセル合同会社,,合同会社,静岡県,浜松市中区,西浅田２丁目４番２０号,,22,131,4328045,,,,,,,2021-07-15,1,,,,,ロクセル,0
1778,7100005012742,新規,0,2021-07-15,2021-07-15,一般社団法人こどものみらい舎,,その他の設立登記法人,長野県,上伊那郡箕輪町,大字中箕輪１２４８３番地３,,20,383,3994601,,,,,,,2021-07-15,1,,,,,コドモノミライシャ,0
1793,7120001239024,新規,0,2021-07-15,2021-07-15,株式会社オオタケ,,株式会社,大阪府,大阪市中央区,南船場１丁目１２番２２－１９０６号,,27,128,5420081,,,,,,,2021-07-15,1,,,,,オオタケ,0
1794,7120001239032,新規,0,2021-07-15,2021-07-15,株式会社おおきにフロンティア,,株式会社,大阪府,大阪市東淀川区,西淡路１丁目３番３２号,,27,114,5330031,,,,,,,2021-07-15,1,,,,,オオキニフロンティア,0
1795,7120001239040,新規,0,2021-07-15,2021-07-15,コサックシープ株式会社,,株式会社,大阪府,大阪市旭区,今市２丁目６番２０号,,27,117,5350011,,,,,,,2021-07-15,1,,,,,コサックシープ,0
1796,7120001239065,新規,0,2021-07-15,2021-07-15,株式会社ＴＥＮスター,,株式会社,大阪府,大阪市中央区,東平１丁目２番１５－１３０３号,,27,128,5420063,,,,,,,2021-07-15,1,,,,,テンスター,0
1797,7120001239073,新規,0,2021-07-15,2021-07-15,株式会社扇,,株式会社,大阪府,大阪市中央区,高津２丁目４－２１－７０６,,27,128,5420072,,,,,,,2021-07-15,1,,,,,オウギ,0
1798,7120001239107,新規,0,2021-07-15,2021-07-15,株式会社ラパン,,株式会社,大阪府,大阪市北区,西天満４丁目１０番４－４０２号,,27,127,5300047,,,,,,,2021-07-15,1,,,,,ラパン,0
1799,7120001239123,新規,0,2021-07-15,2021-07-15,株式会社ＳＫ,,株式会社,大阪府,枚方市,出屋敷元町１丁目３６番１４号,,27,210,5730002,,,,,,,2021-07-15,1,,,,,エスケイ,0
1804,7120003019861,新規,0,2021-07-15,2021-07-15,ハコニー合同会社,,合同会社,大阪府,大阪市北区,梅田１丁目２番２－２００号大阪駅前第２ビル２階３の１の２,,27,127,5300001,,,,,,,2021-07-15,1,,,,,ハコニー,0
1807,7120005022384,新規,0,2021-07-15,2021-07-15,一般社団法人日本ロストボール協会,,その他の設立登記法人,大阪府,大阪市中央区,南船場２丁目１１番１３号福田ビルディング３０２号室,,27,128,5420081,,,,,,,2021-07-15,1,,,,,ニホンロストボールキョウカイ,0
1812,7122005003562,新規,0,2021-07-15,2021-07-15,医療法人芳幸会,,その他の設立登記法人,大阪府,東大阪市,旭町２番２号,,27,227,5798048,,,,,,,2021-07-15,1,,,,,ホウコウカイ,0
1813,7130001069718,新規,0,2021-07-15,2021-07-15,株式会社ボックス,,株式会社,京都府,京都市伏見区,竹田東小屋ノ内町１１１,,26,109,6128448,,,,,,,2021-07-15,1,,,,,ボックス,0
1814,7130001069734,新規,0,2021-07-15,2021-07-15,株式会社グラデジ,,株式会社,京都府,京都市左京区,一乗寺大原田町７プレサンス京都一乗寺１０６,,26,103,6068187,,,,,,,2021-07-15,1,,,,,グラデジ,0
1815,7130001069742,新規,0,2021-07-15,2021-07-15,株式会社ＭＡＳＴＥＲ－１,,株式会社,京都府,亀岡市,篠町森東垣内１番地７６,,26,206,6210831,,,,,,,2021-07-15,1,,,,,マスターワン,0
1816,7130001069750,新規,0,2021-07-15,2021-07-15,香韵株式会社,,株式会社,京都府,京都市下京区,中堂寺北町３３番地４７,,26,106,6008812,,,,,,,2021-07-15,1,,,,,シャンウィン,0
1831,7150001024794,新規,0,2021-07-15,2021-07-15,株式会社加納自動車,,株式会社,奈良県,大和高田市,大字曽大根３５５番地５,,29,202,6350054,,,,,,,2021-07-15,1,,,,,カノウジドウシャ,0
1838,7160001023473,新規,0,2021-07-15,2021-07-15,Ｓ－ｗｏｒｋｓ株式会社,,株式会社,滋賀県,近江八幡市,浅小井町６４０番地,,25,204,5230817,,,,,,,2021-07-15,1,,,,,エスワークス,0
1853,7180303005044,新規,0,2021-07-15,2021-07-15,東和商事合名会社,,合名会社,愛知県,豊橋市,湊町６番地,,23,201,4400073,,,,,,,2021-07-15,1,,,,,,0
1855,7190005011595,新規,0,2021-07-15,2021-07-15,一般社団法人ＴＡＮＡＢＡＴＡ,,その他の設立登記法人,三重県,桑名市,大字蓮花寺３５３番地８,,24,205,5110854,,,,,,,2021-07-15,1,,,,,タナバタ,0
1868,7230003001701,新規,0,2021-07-15,2021-07-15,合同会社ｏｆｆｉｃｅ太田,,合同会社,富山県,高岡市,向野町４丁目１番地３－３４１３号,,16,202,9330902,,,,,,,2021-07-15,1,,,,,オフィスオオタ,0
1874,7250003002870,新規,0,2021-07-15,2021-07-15,ＡＷ’ｓ合同会社,,合同会社,山口県,岩国市,美和町西畑１０００９番地,,35,208,7401232,,,,,,,2021-07-15,1,,,,,エーダブリューズ,0
1886,7310001017385,新規,0,2021-07-15,2021-07-15,ＫＩポートサービス株式会社,,株式会社,長崎県,佐世保市,木風町６番３号,,42,202,8571166,,,,,,,2021-07-15,1,,,,,ケイアイポートサービス,0
1887,7320001018498,新規,0,2021-07-15,2021-07-15,株式会社桜ハウス,,株式会社,大分県,杵築市,大字杵築６９４番地２,,44,210,8730001,,,,,,,2021-07-15,1,,,,,サクラハウス,0
1903,7360001029087,新規,0,2021-07-15,2021-07-15,株式会社ＧＰｓｔｙｌｅ,,株式会社,沖縄県,うるま市,字喜屋武２０８,,47,213,9042225,,,,,,,2021-07-15,1,,,,,ジーピースタイル,0
1909,7380003004978,新規,0,2021-07-15,2021-07-15,合同会社天風,,合同会社,福島県,双葉郡楢葉町,大字井出字八石４２番地の１６,,07,542,9790603,,,,,,,2021-07-15,1,,,,,テンプウ,0
1935,7440001008925,新規,0,2021-07-15,2021-07-15,株式会社トルチェヴァリ,,株式会社,北海道,函館市,東雲町１８番９号,,01,202,0400036,,,,,,,2021-07-15,1,,,,,トルチェヴァリ,0
1941,7700150032393,新規,0,2021-07-15,2015-10-09,北海道通運協会,,その他,北海道,札幌市北区,北七条西４丁目５－１伊藤１１０ビル,,01,102,0600807,,,,,,,2015-10-09,1,,,,,ホツカイドウツウウンキヨウカイ,0
1943,7700150104119,新規,0,2021-07-15,2021-07-15,福島県病院企業年金基金,,その他,福島県,福島市,中町７番１７号,,07,201,9608043,,,,,,,2021-07-15,1,,,,,フクシマケンビヨウインキギヨウネンキンキキン,0
1944,7700150104127,新規,0,2021-07-15,2021-07-15,名古屋薬業企業年金基金,,その他,愛知県,名古屋市中区,丸の内３丁目１番３５号,,23,106,4600002,,,,,,,2021-07-15,1,,,,,ナゴヤヤクギヨウキギヨウネンキンキキン,0
1945,7700150104135,新規,0,2021-07-15,2021-07-15,鹿児島県病院企業年金基金,,その他,鹿児島県,鹿児島市,東千石町１番３８号鹿児島商工会議所ビル８階,,46,201,8920842,,,,,,,2021-07-15,1,,,,,カゴシマケンビヨウインキギヨウネンキンキキン,0
1965,8010003035324,新規,0,2021-07-15,2021-07-15,合同会社Ａｎｉｍａｌ　Ｃｏｎｎｅｃｔ,,合同会社,東京都,中央区,銀座１丁目２２番１１号銀座大竹ビジデンス２階,,13,102,1040061,,,,,,,2021-07-15,1,,,,,アニマルコネクト,0
1966,8010003035332,新規,0,2021-07-15,2021-07-15,シーズオブチェンジ合同会社,,合同会社,東京都,中央区,銀座１丁目２２番１１号銀座大竹ビジデンス２階,,13,102,1040061,,,,,,,2021-07-15,1,,,,,シーズオブチェンジ,0
1970,8010101014766,新規,0,2021-07-15,2021-07-15,株式会社ＮＥＸＵＳ　ＨＤ,,株式会社,東京都,八王子市,横山町１７－１４－４０２,,13,201,1920081,,,,,,,2021-07-15,1,,,,,,0
1971,8010101014774,新規,0,2021-07-15,2021-07-15,株式会社ＮＩＮＥ　ＩＮＤＵＳＴＲＩＥＳ,,株式会社,東京都,八王子市,川口町１４６９,,13,201,1930801,,,,,,,2021-07-15,1,,,,,ナインインダストリーズ,0
1975,8010401161465,新規,0,2021-07-15,2021-07-15,東京ＩＴコンサルティング株式会社,,株式会社,東京都,港区,赤坂８丁目５番５－２０９号,,13,103,1070052,,,,,,,2021-07-15,1,,,,,トウキョウアイティーコンサルティング,0
1980,8010403025726,新規,0,2021-07-15,2021-07-15,ＡＩ合同会社,,合同会社,東京都,港区,赤坂２丁目１６番６号２Ｆ,,13,103,1070052,,,,,,,2021-07-15,1,,,,,エーアイ,0
1983,8010603008968,新規,0,2021-07-15,2021-07-15,ＬＵＣＫＹ　ＳＴＡＲ合同会社,,合同会社,東京都,墨田区,石原１丁目１９番５－３０１号,,13,107,1300011,,,,,,,2021-07-15,1,,,,,ラッキースター,0
1988,8010903006671,新規,0,2021-07-15,2021-07-15,合同会社ゲシュタルト商会,,合同会社,東京都,世田谷区,経堂１丁目１９番７号セントラル経堂２０７,,13,112,1560052,,,,,,,2021-07-15,1,,,,,ゲシュタルトショウカイ,0
1995,8011003013071,新規,0,2021-07-15,2021-07-15,合同会社ナチュラルフレンドジャパン,,合同会社,東京都,渋谷区,神泉町１０番９－４０４号,,13,113,1500045,,,,,,,2021-07-15,1,,,,,ナチュラルフレンドジャパン,0
1996,8011101095739,新規,0,2021-07-15,2021-07-15,メディカルリクルート株式会社,,株式会社,東京都,新宿区,山吹町３４２番地６,,13,104,1620801,,,,,,,2021-07-15,1,,,,,メディカルリクルート,0
1997,8011103010860,新規,0,2021-07-15,2021-07-15,合同会社アイウィズプロモーション,,合同会社,東京都,新宿区,新宿１丁目３６番２号新宿第七葉山ビル３Ｆ,,13,104,1600022,,,,,,,2021-07-15,1,,,,,アイウィズプロモーション,0
2001,8011205002442,新規,0,2021-07-15,2021-07-15,一般社団法人ロジカルセールスデベロップメント０１,,その他の設立登記法人,東京都,中野区,江古田４丁目２２番１５号,,13,114,1650022,,,,,,,2021-07-15,1,,,,,ロジカルセールスデベロップメントゼロワン,0
2006,8011701024551,新規,0,2021-07-15,2021-07-15,株式会社Ｃｈｉｌｌ,,株式会社,東京都,江戸川区,中葛西５丁目４１番８号,,13,123,1340083,,,,,,,2021-07-15,1,,,,,,0
2008,8011703002893,新規,0,2021-07-15,2021-07-15,合同会社インターコンチネンタル,,合同会社,東京都,江戸川区,東小松川３丁目３５番１３－６０５号ニックハイム船堀,,13,123,1320033,,,,,,,2021-07-15,1,,,,,インターコンチネンタル,0
2028,8020001142204,新規,0,2021-07-15,2021-07-15,サバイ株式会社,,株式会社,神奈川県,川崎市川崎区,駅前本町１１番地２川崎フロンティアビル４階,,14,131,2100007,,,,,,,2021-07-15,1,,,,,サバイ,0
2029,8020001142229,新規,0,2021-07-15,2021-07-15,株式会社ジェイド,,株式会社,神奈川県,川崎市中原区,木月４丁目５０番７号,,14,133,2110025,,,,,,,2021-07-15,1,,,,,ジェイド,0
2031,8020005015125,新規,0,2021-07-15,2021-07-15,一般社団法人ケアサポート,,その他の設立登記法人,神奈川県,川崎市高津区,溝口２丁目１４番２号ビッグヴィレッジ溝の口ビル５階,,14,134,2130001,,,,,,,2021-07-15,1,,,,,ケアサポート,0
2040,8021001073380,新規,0,2021-07-15,2021-07-15,株式会社Ｂｌｕｅ,,株式会社,神奈川県,藤沢市,鵠沼花沢町一丁目１番地藤沢駅前ハイム５０２号室,,14,205,2510023,,,,,,,2021-07-15,1,,,,,ブルー,0
2051,8030001143135,新規,0,2021-07-15,2021-07-15,株式会社ＬＯＲＲＡＩＮ,,株式会社,埼玉県,越谷市,レイクタウン７丁目４番地６,,11,222,3430828,,,,,,,2021-07-15,1,,,,,ロラン,0
2052,8030001143267,新規,0,2021-07-15,2021-07-15,株式会社ハウスクリニックくら,,株式会社,埼玉県,草加市,松江５丁目５番２６号,,11,221,3400013,,,,,,,2021-07-15,1,,,,,ハウスクリニッククラ,0
2106,8120001238875,新規,0,2021-07-15,2021-07-15,Ｇ．Ｏ．Ｂ．Ｊａｐａｎ株式会社,,株式会社,大阪府,大阪市西成区,千本南１丁目１７番２１号１０２－Ｇ室,,27,122,5570055,,,,,,,2021-07-15,1,,,,,ジーオービージャパン,0
2107,8120001239130,新規,0,2021-07-15,2021-07-15,英一商事株式会社,,株式会社,大阪府,大阪市中央区,東心斎橋２丁目２番１２号ＥＸＥ東心斎橋１００６号,,27,128,5420083,,,,,,,2021-07-15,1,,,,,ヒデカズショウジ,0
2108,8120003019852,新規,0,2021-07-15,2021-07-15,合同会社Ｏ－ＫＥＹ　ＤＯＯＫＩＥ,,合同会社,大阪府,大阪市中央区,高麗橋１丁目７番７－９０４号,,27,128,5410043,,,,,,,2021-07-15,1,,,,,オーキードゥーキー,0
2109,8120003019860,新規,0,2021-07-15,2021-07-15,リフォームＴＲＯＮ　ＧＯＩ合同会社,,合同会社,大阪府,大阪市旭区,清水５丁目５番１８号,,27,117,5350021,,,,,,,2021-07-15,1,,,,,リフォームチョンゴイ,0
2118,8120101063975,新規,0,2021-07-15,2021-07-15,月虹株式会社,,株式会社,大阪府,富田林市,若松町東２丁目３番３３号１０３号,,27,214,5840023,,,,,,,2021-07-15,1,,,,,ゲッコウ,0
2123,8122001034998,新規,0,2021-07-15,2021-07-15,株式会社からだ研究所,,株式会社,大阪府,柏原市,清州１丁目１番２４号,,27,221,5820006,,,,,,,2021-07-15,1,,,,,カラダケンキュウショ,0
2125,8122005003561,新規,0,2021-07-15,2021-07-15,医療法人吉心会,,その他の設立登記法人,大阪府,柏原市,清州２丁目３番３４号,,27,221,5820006,,,,,,,2021-07-15,1,,,,,キッシンカイ,0
2129,8130001069717,新規,0,2021-07-15,2021-07-15,株式会社サンド,,株式会社,京都府,京都市伏見区,竹田東小屋ノ内町１１１,,26,109,6128448,,,,,,,2021-07-15,1,,,,,サンド,0
2137,8140001122318,新規,0,2021-07-15,2021-07-15,株式会社上原,,株式会社,兵庫県,芦屋市,茶屋之町１０番８号,,28,206,6590067,,,,,,,2021-07-15,1,,,,,ウエハラ,0
2139,8150003002426,新規,0,2021-07-15,2021-07-15,Ａｌｅｆ合同会社,,合同会社,奈良県,奈良市,学園朝日元町２丁目５５９番地の４５,,29,201,6310015,,,,,,,2021-07-15,1,,,,,アレフ,0
2141,8160001023472,新規,0,2021-07-15,2021-07-15,株式会社コウエイ,,株式会社,滋賀県,東近江市,昭和町２番２１号,,25,213,5270017,,,,,,,2021-07-15,1,,,,,コウエイ,0
2142,8160003002334,新規,0,2021-07-15,2021-07-15,合同会社それやろ,,合同会社,滋賀県,大津市,仰木の里東１丁目１７番２８号,,25,201,5200248,,,,,,,2021-07-15,1,,,,,ソレヤロ,0
2143,8160005010954,新規,0,2021-07-15,2021-07-15,一般社団法人滋賀インドネシア友好協会,,その他の設立登記法人,滋賀県,東近江市,能登川町２１１番地２,,25,213,5211231,,,,,,,2021-07-15,1,,,,,シガインドネシアユウコウキョウカイ,0
2174,8260001035771,新規,0,2021-07-15,2021-07-15,株式会社ＤＥＰＯＲＴＡＲ,,株式会社,岡山県,岡山市北区,岡町１９番１号山田ビル３階,,33,101,7000867,,,,,,,2021-07-15,1,,,,,デポルターレ,0
2176,8260003003628,新規,0,2021-07-15,2021-07-15,合同会社ミラコスタ,,合同会社,岡山県,岡山市北区,内山下２丁目６番８号４階,,33,101,7000824,,,,,,,2021-07-15,1,,,,,ミラコスタ,0
2179,8270003001317,新規,0,2021-07-15,2021-07-15,Ａｌｂｕｍ合同会社,,合同会社,鳥取県,鳥取市,国府町新通り３丁目３３１番地,,31,201,6808066,,,,,,,2021-07-15,1,,,,,アルバム,0
2184,8290801027569,新規,0,2021-07-15,2021-07-15,株式会社Ｒｅ．ＬＩＦＥ,,株式会社,福岡県,北九州市小倉北区,馬借１丁目３－１５－７０１号,,40,106,8020077,,,,,,,2021-07-15,1,,,,,リライフ,0
2186,8310001017384,新規,0,2021-07-15,2021-07-15,ケイアイ警備保障株式会社,,株式会社,長崎県,佐世保市,木風町６番３号,,42,202,8571166,,,,,,,2021-07-15,1,,,,,ケイアイケイビホショウ,0
2188,8320003003571,新規,0,2021-07-15,2021-07-15,アイビー合同会社,,合同会社,大分県,宇佐市,大字四日市３０４８－２ハピネス宇佐Ｂ,,44,211,8790471,,,,,,,2021-07-15,1,,,,,アイビー,0
2195,8350001017199,新規,0,2021-07-15,2021-07-15,株式会社キャビア王国,,株式会社,宮崎県,児湯郡都農町,大字川北３６２６番地６,,45,406,8891201,,,,,,,2021-07-15,1,,,,,キャビアオウコク,0
2206,8380001032039,新規,0,2021-07-15,2021-07-15,株式会社ハルゼ,,株式会社,福島県,郡山市,安積荒井本町３０４番地,,07,203,9630116,,,,,,,2021-07-15,1,,,,,ハルゼ,0
2220,8420003002349,新規,0,2021-07-15,2021-07-15,合同会社中西建材,,合同会社,青森県,黒石市,青山５２番地２２,,02,204,0360325,,,,,,,2021-07-15,1,,,,,ナカニシケンザイ,0
2228,8430003012941,新規,0,2021-07-15,2021-07-15,合同会社メンテコ,,合同会社,北海道,札幌市東区,本町二条９丁目２－２０サンライズ札幌４０９,,01,103,0650042,,,,,,,2021-07-15,1,,,,,メンテコ,0
2237,8700150103904,新規,0,2021-07-15,2021-06-30,弘前・白神アップルマラソン組織委員会,,その他,青森県,弘前市,大字豊田２丁目３－１克雪トレーニングセンター内,,02,202,0368101,,,,,,,2021-06-30,1,,,,,ヒロサキシラカミアツプルマラソンソシキイインカイ,0
2238,8700150104118,新規,0,2021-07-15,2021-07-15,アジレント・テクノロジー企業年金基金,,その他,東京都,八王子市,高倉町９番１号,,13,201,1920033,,,,,,,2021-07-15,1,,,,,アジレントテクノロジーキギヨウネンキンキキン,0
2239,8700150104126,新規,0,2021-07-15,2021-07-15,日本機械土工企業年金基金,,その他,東京都,台東区,東上野５丁目１－８,,13,106,1100015,,,,,,,2021-07-15,1,,,,,ニホンキカイドコウキギヨウネンキンキキン,0
2240,8700150104134,新規,0,2021-07-15,2021-07-15,和歌山県病院企業年金基金,,その他,和歌山県,和歌山市,本町２丁目１番地フォルテワジマ６階,,30,201,6408033,,,,,,,2021-07-15,1,,,,,ワカヤマケンビヨウインキギヨウネンキンキキン,0
2244,9010001219729,新規,0,2021-07-15,2021-07-15,Ｃ．ＦＯＲＹＯＵ株式会社,,株式会社,東京都,千代田区,九段南１丁目５番６号りそな九段ビル５階,,13,101,1020074,,,,,,,2021-07-15,1,,,,,シーフォーユー,0
2246,9010003035323,新規,0,2021-07-15,2021-07-15,合同会社アレニスタ,,合同会社,東京都,文京区,千石４丁目３９番１３号Ｂｒａｎｃｈｅ文京千石１０１,,13,105,1120011,,,,,,,2021-07-15,1,,,,,アレニスタ,0
2263,9010503006328,新規,0,2021-07-15,2021-07-15,ＭＷＯＲＫＳ合同会社,,合同会社,東京都,台東区,浅草４丁目６番１－３０４号ファミール本橋,,13,106,1110032,,,,,,,2021-07-15,1,,,,,エムワークス,0
2278,9011001141781,新規,0,2021-07-15,2021-07-15,株式会社ｅｔｏｉｌｅ,,株式会社,東京都,渋谷区,神宮前６丁目２３番４号,,13,113,1500001,,,,,,,2021-07-15,1,,,,,エトワール,0
2280,9011005009133,新規,0,2021-07-15,2021-07-15,城南監査法人,,その他の設立登記法人,東京都,渋谷区,恵比寿南２丁目１番９号朝井ビル３階,,13,113,1500022,,,,,,,2021-07-15,1,,,,,ジョウナンカンサホウジン,0
2284,9011101095432,新規,0,2021-07-15,2021-07-15,株式会社ＶＡＳＤＡ　Ｃａｒｄ,,株式会社,東京都,新宿区,西新宿６丁目１５番１号,,13,104,1600023,,,,,,,2021-07-15,1,,,,,ヴァスダカード,0
2285,9011101095713,新規,0,2021-07-15,2021-07-15,ｗｉｔｈｙｏｕ株式会社,,株式会社,東京都,新宿区,大久保３丁目２番６－３０２号,,13,104,1690072,,,,,,,2021-07-15,1,,,,,ウィズユー,0
2286,9011101095738,新規,0,2021-07-15,2021-07-15,ＣＩＴＹ　ＣＥＮＴＥＲ株式会社,,株式会社,東京都,新宿区,百人町２丁目２０番２３号２階,,13,104,1690073,,,,,,,2021-07-15,1,,,,,シティセンター,0
2302,9013301047717,新規,0,2021-07-15,2021-07-15,株式会社ディメンショントロワ,,株式会社,東京都,豊島区,東池袋１丁目３９番２号アドワンビルＢ１Ｆ,,13,116,1700013,,,,,,,2021-07-15,1,,,,,ディメンショントロワ,0
2303,9013301047733,新規,0,2021-07-15,2021-07-15,株式会社ＰＲＯＮ,,株式会社,東京都,豊島区,目白３丁目１番３６号ハクジュウハイツ３０５号,,13,116,1710031,,,,,,,2021-07-15,1,,,,,プロン,0
2304,9013301047741,新規,0,2021-07-15,2021-07-15,ＴＥＫ　ＧＬＯＢＥ株式会社,,株式会社,東京都,豊島区,池袋４丁目２９番１１号,,13,116,1710014,,,,,,,2021-07-15,1,,,,,テックグローブ,0
2305,9013303005747,新規,0,2021-07-15,2021-07-15,合同会社ルミリンナ,,合同会社,東京都,豊島区,南大塚２丁目１１－１０ミモザビル３階,,13,116,1700005,,,,,,,2021-07-15,1,,,,,ルミリンナ,0
2310,9020001142203,新規,0,2021-07-15,2021-07-15,株式会社ＴｒｉｐｌｅＡ,,株式会社,神奈川県,川崎市多摩区,登戸１３１２番地１,,14,135,2140014,,,,,,,2021-07-15,1,,,,,トリプルエー,0
2311,9020003020175,新規,0,2021-07-15,2021-07-15,合同会社アトム,,合同会社,神奈川県,横浜市青葉区,奈良町２５３３－３７ビラ玉川学園台２１０,,14,117,2270036,,,,,,,2021-07-15,1,,,,,アトム,0
2318,9021003010694,新規,0,2021-07-15,2021-07-15,合同会社ふじまる,,合同会社,神奈川県,伊勢原市,下落合６２１番地の１５コーポ岸田Ⅱ２０１号,00123659,14,214,2591121,,,,,,,2021-07-15,1,,,,,フジマル,0
2328,9030001143316,新規,0,2021-07-15,2021-07-15,株式会社くみまちフィンテック,,株式会社,埼玉県,本庄市,早稲田の杜１丁目２番１号,,11,211,3670030,,,,,,,2021-07-15,1,,,,,クミマチフィンテック,0
2329,9030001143340,新規,0,2021-07-15,2021-07-15,株式会社佐々木建機,,株式会社,埼玉県,吉川市,高久１丁目２９番地３９,,11,243,3420035,,,,,,,2021-07-15,1,,,,,ササキケンキ,0
2330,9030001143349,新規,0,2021-07-15,2021-07-15,株式会社グリーンズラボ,,株式会社,埼玉県,朝霞市,根岸台７丁目３番１２号,,11,227,3510005,,,,,,,2021-07-15,1,,,,,グリーンズラボ,0
2331,9030001143365,新規,0,2021-07-15,2021-07-15,成昊株式会社,,株式会社,埼玉県,川口市,川口４丁目３番２２－４１１号,,11,203,3320015,,,,,,,2021-07-15,1,,,,,セイゴウ,0
2355,9050001049552,新規,0,2021-07-15,2021-07-15,株式会社Ｔ．Ｓ　ＳＴＡＢＬＥ,,株式会社,茨城県,牛久市,奥原町下山３７０７－１,,08,219,3001283,,,,,,,2021-07-15,1,,,,,ティーエスステーブル,0
2359,9070001038272,新規,0,2021-07-15,2021-07-15,株式会社スカイプロトコル,,株式会社,群馬県,前橋市,徳丸町１６９番地９,,10,201,3792135,,,,,,,2021-07-15,1,,,,,スカイプロトコル,0
2366,9080401025200,新規,0,2021-07-15,2021-07-15,株式会社ＣＯＣＯ,,株式会社,静岡県,浜松市南区,米津町１８２３番地の６,,22,134,4328056,,,,,,,2021-07-15,1,,,,,ココ,0
2382,9120001239088,新規,0,2021-07-15,2021-07-15,Ｂｒｉｇｈｔ　ｓｔａｒ株式会社,,株式会社,大阪府,大阪市中央区,北久宝寺町１丁目５番６号堺筋本町アーバンライフ５１４号,,27,128,5410057,,,,,,,2021-07-15,1,,,,,ブライトスター,0
2383,9120001239113,新規,0,2021-07-15,2021-07-15,博運実業株式会社,,株式会社,大阪府,大阪市西成区,花園南１丁目１１番１８号,,27,122,5570015,,,,,,,2021-07-15,1,,,,,ハクウンジツギョウ,0
2392,9120901044521,新規,0,2021-07-15,2021-07-15,株式会社Ｆｌｕｆｆｙ,,株式会社,大阪府,豊中市,上新田２丁目１６番１０－５０３号,,27,203,5600085,,,,,,,2021-07-15,1,,,,,フラフィー,0
2393,9122001034980,新規,0,2021-07-15,2021-07-15,株式会社ＵＰＳＴＡＲＴ,,株式会社,大阪府,東大阪市,桜町４－４－２０２,,27,227,5798047,,,,,,,2021-07-15,1,,,,,アップスタート,0
2396,9130001069740,新規,0,2021-07-15,2021-07-15,セリーナコンサルティング株式会社,,株式会社,京都府,京都市中京区,御池通東洞院東入笹屋町４３６永和御池ビル６０６号,,26,104,6048187,,,,,,,2021-07-15,1,,,,,セリーナコンサルティング,0
2397,9130001069749,新規,0,2021-07-15,2021-07-15,株式会社おむすび,,株式会社,京都府,京都市伏見区,久我西出町１１番地１９４,,26,109,6128496,,,,,,,2021-07-15,1,,,,,オムスビ,0
2400,9140001122300,新規,0,2021-07-15,2021-07-15,株式会社上田電気,,株式会社,兵庫県,赤穂市,砂子２２９番地３,,28,212,6780174,,,,,,,2021-07-15,1,,,,,ウエダデンキ,0
2413,9180001146989,新規,0,2021-07-15,2021-07-15,株式会社ＣＯＣＯＲＯ,,株式会社,愛知県,丹羽郡扶桑町,大字高雄字北海道１１２番地９,,23,362,4800102,,,,,,,2021-07-15,1,,,,,ココロ,0
2414,9180001147013,新規,0,2021-07-15,2021-07-15,株式会社ルナワールド,,株式会社,愛知県,名古屋市北区,如来町５５番地の２,,23,103,4620008,,,,,,,2021-07-15,1,,,,,ルナワールド,0
2433,9240001058229,新規,0,2021-07-15,2021-07-15,井辻ホールディングス株式会社,,株式会社,広島県,広島市安佐南区,長束５丁目６番８号,,34,105,7310135,,,,,,,2021-07-15,1,,,,,イツジホールディングス,0
2434,9240001058286,新規,0,2021-07-15,2021-07-15,株式会社グランツ,,株式会社,広島県,広島市中区,榎町４番３３－１００３号,,34,101,7300851,,,,,,,2021-07-15,1,,,,,グランツ,0
2441,9250003002869,新規,0,2021-07-15,2021-07-15,サスガワークス合同会社,,合同会社,山口県,岩国市,周東町差川１０３７７－３,,35,208,7420424,,,,,,,2021-07-15,1,,,,,サスガワークス,0
2444,9260003003627,新規,0,2021-07-15,2021-07-15,合同会社スマイル,,合同会社,岡山県,岡山市北区,内山下２丁目６番８号４階,,33,101,7000824,,,,,,,2021-07-15,1,,,,,スマイル,0
2458,9300001012559,新規,0,2021-07-15,2021-07-15,株式会社Ｂｌｕｅ　ｃｏｎｓｕｌｔｉｎｇ,,株式会社,佐賀県,唐津市,西浜町１番６２ゴールデンハイツⅤ１０１号,00123652,41,202,8470855,,,,,,,2021-07-15,1,,,,,ブルーコンサルティング,0
2461,9320001018496,新規,0,2021-07-15,2021-07-15,株式会社フクール,,株式会社,大分県,臼杵市,大字江無田１６６６番地の１７,,44,206,8750023,,,,,,,2021-07-15,1,,,,,フクール,0
2465,9330005010366,新規,0,2021-07-15,2021-07-15,行政書士法人登録サービス熊本,,その他の設立登記法人,熊本県,熊本市東区,健軍本町３０番３号,,43,102,8620910,,,,,,,2021-07-15,1,,,,,トウロクサービスクマモト,0
2469,9340005009317,新規,0,2021-07-15,2021-07-15,特定非営利活動法人りんの樹,,その他の設立登記法人,鹿児島県,鹿屋市,高須町２４９４番地３,,46,203,8930054,,,,,,,2021-07-15,1,,,,,リンノキ,0
2472,9360003011280,新規,0,2021-07-15,2021-07-15,ＰＸ合同会社,,合同会社,沖縄県,沖縄市,照屋１丁目２３番４号,,47,211,9040011,,,,,,,2021-07-15,1,,,,,,0
2477,9370005010313,新規,0,2021-07-15,2021-07-15,一般社団法人喜清会,,その他の設立登記法人,宮城県,仙台市若林区,六丁の目中町１３番３５号,,04,103,9840012,,,,,,,2021-07-15,1,,,,,キセイカイ,0
2509,9700150104117,新規,0,2021-07-15,2021-07-15,ＭＩＬ－ＡＩ企業年金基金,,その他,東京都,千代田区,九段北１丁目１４番１９号乳業会館,,13,101,1020073,,,,,,,2021-07-15,1,,,,,ミルアイキギヨウネンキンキキン,0
2510,9700150104125,新規,0,2021-07-15,2021-07-15,東京都私的病院企業年金基金,,その他,東京都,文京区,湯島３丁目１３－８,,13,105,1130034,,,,,,,2021-07-15,1,,,,,トウキヨウトシテキビヨウインキギヨウネンキンキキン,0
2511,9700150104133,新規,0,2021-07-15,2021-07-15,群馬製造業関連企業年金基金,,その他,群馬県,前橋市,表町２丁目２－６,,10,201,3710024,,,,,,,2021-07-15,1,,,,,グンマセイゾウギヨウカンレンキギヨウネンキンキキン,0
