sequenceNumber,corporateNumber,process,correct,updateDate,changeDate,name,nameImageId,kind,prefectureName,cityName,streetNumber,addressImageId,prefectureCode,cityCode,postCode,addressOutside,addressOutsideImageId,closeDate,closeCause,successorCorporateNumber,changeCause,assignmentDate,latest,enName,enPrefectureName,enCityName,enAddressOutside,furigana,hihyoji
8,1010001225478,新規,0,2022-03-29,2022-03-29,ミットパワーインディア株式会社,,株式会社,東京都,千代田区,大手町１丁目２番１号,,13,101,1000004,,,,,,,2022-03-29,1,,,,,ミットパワーインディア,0
12,1010103001884,新規,0,2022-03-29,2022-03-29,ラフトプロジェクト合同会社,,合同会社,東京都,八王子市,元八王子町２丁目１４１９,,13,201,1930826,,,,,,,2022-03-29,1,,,,,ラフトプロジェクト,0
19,1010401166421,新規,0,2022-03-29,2022-03-29,株式会社日本記録,,株式会社,東京都,港区,浜松町２丁目２－１５浜松町ダイヤビル２Ｆ,,13,103,1050013,,,,,,,2022-03-29,1,,,,,ニホンキロク,0
20,1010401166446,新規,0,2022-03-29,2022-03-29,株式会社Ｅｖａｓｔ,,株式会社,東京都,港区,南青山２丁目２－１５ウィン青山９４２,,13,103,1070062,,,,,,,2022-03-29,1,,,,,エヴァスト,0
23,1010403027324,新規,0,2022-03-29,2022-03-29,ジャパンインフラ２０号合同会社,,合同会社,東京都,港区,元赤坂１丁目１番７号,,13,103,1070051,,,,,,,2022-03-29,1,,,,,ジャパンインフラニジュウゴウ,0
24,1010403027357,新規,0,2022-03-29,2022-03-29,クライオピーディーピー合同会社,,合同会社,東京都,港区,元麻布３丁目１番６号,,13,103,1060046,,,,,,,2022-03-29,1,,,,,クライオピーディーピー,0
25,1010405020847,新規,0,2022-03-29,2022-03-29,一般社団法人カーボンニュートラル総合研究所,,その他の設立登記法人,東京都,港区,浜松町２丁目２番１５号浜松町ダイヤビル２Ｆ,,13,103,1050013,,,,,,,2022-03-29,1,,,,,カーボンニュートラルソウゴウケンキュウジョ,0
26,1010501048627,新規,0,2022-03-29,2022-03-29,株式会社ＣＡＴ,,株式会社,東京都,台東区,千束３丁目１３番１５号,,13,106,1110031,,,,,,,2022-03-29,1,,,,,シーエーティー,0
28,1010701042421,新規,0,2022-03-29,2022-03-29,ＭＰＬＵＳＰＬＵＳ　ＳＴＡＧＥ株式会社,,株式会社,東京都,品川区,荏原２丁目３番９号ＲＫ戸越銀座ビル１階,,13,109,1420063,,,,,,,2022-03-29,1,,,,,エムプラスプラスステージ,0
30,1010705003337,新規,0,2022-03-29,2022-03-29,一般社団法人めぐもり,,その他の設立登記法人,東京都,品川区,上大崎４丁目６番１６－６３１号,,13,109,1410021,,,,,,,2022-03-29,1,,,,,メグモリ,0
33,1010803004105,新規,0,2022-03-29,2022-03-29,合同会社杉元,,合同会社,東京都,大田区,中央３丁目３２番８号ＮＳビル１０１,,13,111,1430024,,,,,,,2022-03-29,1,,,,,スギモト,0
39,1011001146557,新規,0,2022-03-29,2022-03-29,株式会社ＬｅａｒｎＷｉｚ,,株式会社,東京都,渋谷区,渋谷２丁目１９－１５宮益坂ビルディング６０９,,13,113,1500002,,,,,,,2022-03-29,1,,,,,ラーンウィズ,0
40,1011001146581,新規,0,2022-03-29,2022-03-29,株式会社ラプレ,,株式会社,東京都,渋谷区,神宮前６丁目２３番４号桑野ビル２階,,13,113,1500001,,,,,,,2022-03-29,1,,,,,ラプレ,0
46,1011101098293,新規,0,2022-03-29,2022-03-29,エーデルベルク株式会社,,株式会社,東京都,新宿区,百人町２丁目１番１６号,,13,104,1690073,,,,,,,2022-03-29,1,,,,,エーデルベルク,0
47,1011101098310,新規,0,2022-03-29,2022-03-29,ａｃｒｏ　ｓｔｏｒｅ株式会社,,株式会社,東京都,新宿区,市谷船河原町５番地,,13,104,1620826,,,,,,,2022-03-29,1,,,,,アクロストア,0
51,1011401024123,新規,0,2022-03-29,2022-03-29,株式会社アイデックプラス,,株式会社,東京都,板橋区,若木１丁目２０番５号,,13,119,1740065,,,,,,,2022-03-29,1,,,,,アイデックプラス,0
56,1011605002437,新規,0,2022-03-29,2022-03-29,一般社団法人プレイキッズシアター,,その他の設立登記法人,東京都,練馬区,中村南１丁目３３番１３－１０９号,,13,120,1760025,,,,,,,2022-03-29,1,,,,,プレイキッズシアター,0
60,1011801040505,新規,0,2022-03-29,2022-03-29,株式会社佐藤商店,,株式会社,東京都,足立区,千住橋戸町１番地２０－１０１９号,,13,121,1200038,,,,,,,2022-03-29,1,,,,,サトウショウテン,0
61,1011803005027,新規,0,2022-03-29,2022-03-29,サエグサ合同会社,,合同会社,東京都,葛飾区,東四つ木４丁目８番７号,,13,122,1240014,,,,,,,2022-03-29,1,,,,,サエグサ,0
71,1020001145816,新規,0,2022-03-29,2022-03-29,株式会社Ｂｅｓｔｌｅｃｔ,,株式会社,神奈川県,横浜市中区,桜木町１丁目１０１－１クロスゲート７階,,14,104,2310062,,,,,,,2022-03-29,1,,,,,ベストレクト,0
72,1020001145840,新規,0,2022-03-29,2022-03-29,株式会社スリー・アール,,株式会社,神奈川県,横浜市保土ケ谷区,仏向西８番５号,,14,106,2400046,,,,,,,2022-03-29,1,,,,,スリーアール,0
76,1020003021503,新規,0,2022-03-29,2022-03-29,合同会社バンスプロ,,合同会社,神奈川県,川崎市麻生区,下麻生３丁目４８番７－１０３号,,14,137,2150022,,,,,,,2022-03-29,1,,,,,バンスプロ,0
77,1020003021511,新規,0,2022-03-29,2022-03-29,合同会社ＰＲＥＸ,,合同会社,神奈川県,横浜市南区,平楽１４０－６１,,14,105,2320035,,,,,,,2022-03-29,1,,,,,プレクス,0
86,1021001075516,新規,0,2022-03-29,2022-03-29,株式会社ｄｅｅｐ,,株式会社,神奈川県,海老名市,上今泉２丁目９番３７－３号,,14,215,2430431,,,,,,,2022-03-29,1,,,,,ディープ,0
87,1021001075524,新規,0,2022-03-29,2022-03-29,ＴＲＡｉＮｉＡＬ株式会社,,株式会社,神奈川県,藤沢市,湘南台１丁目６番２号,,14,205,2520804,,,,,,,2022-03-29,1,,,,,トライニアル,0
88,1021001075532,新規,0,2022-03-29,2022-03-29,株式会社山崎達璽事務所,00126088,株式会社,神奈川県,鎌倉市,大船１丁目１２番１０号湘南第５ビル４Ｆ＃１８,,14,204,2470056,,,,,,,2022-03-29,1,,,,,ヤマザキタツジジムショ,0
96,1030001147431,新規,0,2022-03-29,2022-03-29,株式会社ｋｕｓｋｕｓ,,株式会社,埼玉県,さいたま市大宮区,大成町３丁目３６６番地１,,11,103,3300852,,,,,,,2022-03-29,1,,,,,クスクス,0
101,1040001122739,新規,0,2022-03-29,2022-03-29,株式会社ｄｒｅａｍｉｎ,,株式会社,千葉県,船橋市,本郷町５９８番地１‐４０１号,,12,204,2730033,,,,,,,2022-03-29,1,,,,,ドリーミン,0
102,1040001122747,新規,0,2022-03-29,2022-03-29,株式会社ｃｈｅｅｒｆｕｌｌ,,株式会社,千葉県,市原市,八幡１０５８番地２福田ビル４０１号,,12,219,2900062,,,,,,,2022-03-29,1,,,,,チアフル,0
103,1040001122755,新規,0,2022-03-29,2022-03-29,ｂｏｕｑｕｅｔ株式会社,,株式会社,千葉県,千葉市美浜区,中瀬１丁目３番地幕張テクノガーデンＣＢ棟３階ＭＢＰ,,12,106,2610023,,,,,,,2022-03-29,1,,,,,ブーケ,0
109,1060001034692,新規,0,2022-03-29,2022-03-29,株式会社ＡＰＫ　Ａｌｌ　Ｐａｉｎｔ　Ｋｉｋｕｃｈｉ,,株式会社,栃木県,足利市,山川町９３８番地２,,09,202,3260021,,,,,,,2022-03-29,1,,,,,エーピーケーオールペイントキクチ,0
112,1080003002761,新規,0,2022-03-29,2022-03-29,ＫＭ企画合同会社,,合同会社,静岡県,藤枝市,下当間２７６番地１,,22,214,4260003,,,,,,,2022-03-29,1,,,,,ケイエムキカク,0
126,1120001244723,新規,0,2022-03-29,2022-03-29,株式会社イーグルカンパニー,,株式会社,大阪府,大阪市天王寺区,上本町５丁目７番２号ファンターナ上本町５０８号室,,27,109,5430001,,,,,,,2022-03-29,1,,,,,イーグルカンパニー,0
127,1120001244731,新規,0,2022-03-29,2022-03-29,ＹＵＭＯ　ＨＯＬＤＩＮＧＳ株式会社,,株式会社,大阪府,大阪市東成区,東今里２丁目８番１２号,,27,115,5370011,,,,,,,2022-03-29,1,,,,,ユーモホールディングス,0
128,1120001244748,新規,0,2022-03-29,2022-03-29,飛雪国際株式会社,,株式会社,大阪府,枚方市,西禁野２丁目１８番２２号,,27,210,5731192,,,,,,,2022-03-29,1,,,,,ヒセツコクサイ,0
132,1120901045774,新規,0,2022-03-29,2022-03-29,クリエイティーボまいど株式会社,,株式会社,大阪府,摂津市,東正雀９番９－２Ａ号,,27,224,5660025,,,,,,,2022-03-29,1,,,,,クリエイティーボマイド,0
139,1130003007821,新規,0,2022-03-29,2022-03-29,合同会社ダンダンワークス,,合同会社,京都府,長岡京市,奥海印寺太鼓山２１番地３フラッツ藤井２０６,,26,209,6170853,,,,,,,2022-03-29,1,,,,,ダンダンワークス,0
140,1130003007838,新規,0,2022-03-29,2022-03-29,ｍｏｇａｍｏｓ合同会社,,合同会社,京都府,京都市中京区,西ノ京中御門東町５２番地２田辺方,,26,104,6048471,,,,,,,2022-03-29,1,,,,,モガモス,0
143,1140001125384,新規,0,2022-03-29,2022-03-29,株式会社Ｌａｂｏ　ＨＩＰＰＯ,,株式会社,兵庫県,高砂市,米田町米田１１４３番地の４,,28,216,6760805,,,,,,,2022-03-29,1,,,,,ラボヒッポ,0
147,1140005026100,新規,0,2022-03-29,2022-03-29,プレステージ明石相生町管理組合法人,,その他の設立登記法人,兵庫県,明石市,相生町２丁目１０番１７号,,28,203,6730882,,,,,,,2022-03-29,1,,,,,,0
148,1150003002655,新規,0,2022-03-29,2022-03-29,合同会社漫才師,,合同会社,奈良県,高市郡高取町,大字清水谷１３００－５３,,29,401,6350103,,,,,,,2022-03-29,1,,,,,マンザイシ,0
156,1180001150552,新規,0,2022-03-29,2022-03-29,株式会社Ｋ‐Ｐａｒｋ,,株式会社,愛知県,津島市,唐臼町東田面１７番地３,,23,208,4960026,,,,,,,2022-03-29,1,,,,,ケーパーク,0
157,1180001150569,新規,0,2022-03-29,2022-03-29,ＬＯＵＢＲＡ株式会社,,株式会社,愛知県,名古屋市中区,丸の内３丁目１６番３４号,,23,106,4600002,,,,,,,2022-03-29,1,,,,,ルブラ,0
161,1180003023649,新規,0,2022-03-29,2022-03-29,Ｔｅｃｈｉ合同会社,,合同会社,愛知県,名古屋市北区,楠味鋺４丁目７１０番地１メゾンダルカンシールＩＩ２０１,00126091,23,103,4620014,,,,,,,2022-03-29,1,,,,,テチ,0
168,1190005011683,新規,0,2022-03-29,2022-03-29,特定非営利活動法人くわなのひまわり,,その他の設立登記法人,三重県,桑名市,新屋敷１２６番地,,24,205,5110043,,,,,,,2022-03-29,1,,,,,クワナノヒマワリ,0
172,1200001039891,新規,0,2022-03-29,2022-03-29,岐阜環境機材株式会社,,株式会社,岐阜県,岐阜市,石切町３７番地,,21,201,5008437,,,,,,,2022-03-29,1,,,,,ギフカンキョウキザイ,0
174,1200003005495,新規,0,2022-03-29,2022-03-29,ＸＰＲＯ　ＦＩＴＮＥＳＳ合同会社,,合同会社,岐阜県,加茂郡坂祝町,酒倉深田３丁目７５－１,,21,501,5050000,,,,,,,2022-03-29,1,,,,,エックスプロフィットネス,0
186,1260003003857,新規,0,2022-03-29,2022-03-29,ミモタ合同会社,,合同会社,岡山県,岡山市南区,福田５２４－７ラウレア福田Ａ棟１０５,,33,104,7028021,,,,,,,2022-03-29,1,,,,,ミモタ,0
195,1290001096958,新規,0,2022-03-29,2022-03-29,株式会社ＩＳＴ,,株式会社,福岡県,古賀市,筵内１０１０番地の２,,40,223,8113121,,,,,,,2022-03-29,1,,,,,イスト,0
197,1290003012327,新規,0,2022-03-29,2022-03-29,ＮＵＴＳＡＢＯＵＴ合同会社,,合同会社,福岡県,福岡市博多区,博多駅前２丁目１番１号福岡朝日ビル１階ｆａｂｂｉｔＧＧ博多駅前,,40,132,8120011,,,,,,,2022-03-29,1,,,,,ナッツアバウト,0
198,1290005018603,新規,0,2022-03-29,2022-03-29,一般社団法人飯塚岳友会,,その他の設立登記法人,福岡県,飯塚市,枝国２５６番地２,,40,205,8200081,,,,,,,2022-03-29,1,,,,,イイヅカガクユウカイ,0
199,1290803004093,新規,0,2022-03-29,2022-03-29,合同会社ブリスボール,,合同会社,福岡県,北九州市門司区,鳴竹２丁目１５番１５号,,40,101,8010881,,,,,,,2022-03-29,1,,,,,ブリスボール,0
202,1320001018982,新規,0,2022-03-29,2022-03-29,Ｗｏｎｄｅｒｗａｌｌ株式会社,,株式会社,大分県,佐伯市,大字鶴望６５８番地,,44,205,8760012,,,,,,,2022-03-29,1,,,,,ワンダーウォール,0
208,1370003005628,新規,0,2022-03-29,2022-03-29,合同会社リザルトフォース,,合同会社,宮城県,仙台市青葉区,北目町２番３９号東北中心ビル８Ｆ,,04,101,9800023,,,,,,,2022-03-29,1,,,,,リザルトフォース,0
219,1430001086291,新規,0,2022-03-29,2022-03-29,株式会社ＩＫＥＫＩ,,株式会社,北海道,石狩郡当別町,白樺町５９－１２,,01,303,0610233,,,,,,,2022-03-29,1,,,,,イケキ,0
230,2010001225469,新規,0,2022-03-29,2022-03-29,株式会社ｓａｉテクニカ,,株式会社,東京都,千代田区,岩本町３丁目３番５号秋葉原ＳＨビル２階,,13,101,1010032,,,,,,,2022-03-29,1,,,,,エスエーアイテクニカ,0
231,2010001225477,新規,0,2022-03-29,2022-03-29,株式会社ＭＡＧＩＫＡ,,株式会社,東京都,中央区,築地２丁目１番１１号ガリシア銀座イースト７０８号室,,13,102,1040045,,,,,,,2022-03-29,1,,,,,マギカ,0
232,2010001225493,新規,0,2022-03-29,2022-03-29,株式会社ＢＣＪ‐６０,,株式会社,東京都,千代田区,丸の内１丁目１番１号パレスビル５階,,13,101,1000005,,,,,,,2022-03-29,1,,,,,ビーシージェイシックスティー,0
237,2010003037350,新規,0,2022-03-29,2022-03-29,和田倉地所合同会社,,合同会社,東京都,千代田区,平河町１丁目６番１５号シルスフィア会計事務所内,,13,101,1020093,,,,,,,2022-03-29,1,,,,,ワダクラジショ,0
241,2010401166404,新規,0,2022-03-29,2022-03-29,株式会社アバド,,株式会社,東京都,港区,南青山２丁目２２番４－４０５号,,13,103,1070062,,,,,,,2022-03-29,1,,,,,アバド,0
242,2010401166445,新規,0,2022-03-29,2022-03-29,Ｇａｉｎｓｉｇｈｔ株式会社,,株式会社,東京都,港区,赤坂９丁目７番１号ミッドタウンタワー１８階,,13,103,1070052,,,,,,,2022-03-29,1,,,,,ゲインサイト,0
245,2010403027364,新規,0,2022-03-29,2022-03-29,合同会社アシスト,,合同会社,東京都,港区,南青山２丁目２番１５号,,13,103,1070062,,,,,,,2022-03-29,1,,,,,アシスト,0
248,2010501048634,新規,0,2022-03-29,2022-03-29,株式会社ＴｈｉｎｋＸ,,株式会社,東京都,台東区,日本堤２丁目３０番５号,,13,106,1110021,,,,,,,2022-03-29,1,,,,,シンクエクス,0
252,2010801032833,新規,0,2022-03-29,2022-03-29,株式会社Ｊｅｄｄｙ．Ｋ,,株式会社,東京都,大田区,大森南５丁目３－８,,13,111,1430013,,,,,,,2022-03-29,1,,,,,ジェディケー,0
253,2010803004104,新規,0,2022-03-29,2022-03-29,合同会社ムラサキトミドリ,,合同会社,東京都,大田区,西糀谷３丁目４１番４号６０１号室,,13,111,1440034,,,,,,,2022-03-29,1,,,,,,0
255,2010805002931,新規,0,2022-03-29,2022-03-29,一般社団法人ミッション・ワーク中央,,その他の設立登記法人,東京都,大田区,西蒲田７丁目６３番４号,,13,111,1440051,,,,,,,2022-03-29,1,,,,,ミッションワークチュウオウ,0
258,2010901050586,新規,0,2022-03-29,2022-03-29,Ｉｈｒ　ＨＥＲｚ株式会社,,株式会社,東京都,世田谷区,羽根木１丁目８番１号,,13,112,1560042,,,,,,,2022-03-29,1,,,,,イーアヘルツ,0
260,2011001145780,新規,0,2022-03-29,2022-03-29,Ｓａｇａｎ株式会社,,株式会社,東京都,渋谷区,猿楽町９－８ＵＲＢＡＮＰＡＲＫ代官山ＩＩ５０７,00126093,13,113,1500033,,,,,,,2022-03-29,1,,,,,サガン,0
262,2011001146515,新規,0,2022-03-29,2022-03-29,株式会社Ｎｏｔｉｃｅ,,株式会社,東京都,渋谷区,千駄ヶ谷３丁目２番４号ミッテウメハラビル２Ｆ,,13,113,1510051,,,,,,,2022-03-29,1,,,,,ノーティス,0
263,2011001146548,新規,0,2022-03-29,2022-03-29,株式会社Ｍｅｔｒｉｃｏ,,株式会社,東京都,目黒区,中目黒４丁目１２番７－１００４号,,13,110,1530061,,,,,,,2022-03-29,1,,,,,メトリコ,0
264,2011001146556,新規,0,2022-03-29,2022-03-29,株式会社グローバルリーダーシップ教育研究所,,株式会社,東京都,渋谷区,神宮前６丁目２３番４号桑野ビル２階,,13,113,1500001,,,,,,,2022-03-29,1,,,,,グローバルリーダーシップキョウイクケンキュウジョ,0
265,2011001146580,新規,0,2022-03-29,2022-03-29,ｍｕｓｃａｄｅｙ株式会社,,株式会社,東京都,目黒区,柿の木坂２丁目７番２２号,,13,110,1520022,,,,,,,2022-03-29,1,,,,,ミュスカディ,0
266,2011003014422,新規,0,2022-03-29,2022-03-29,合同会社ｐｕｕ,,合同会社,東京都,渋谷区,渋谷２丁目１９番１５号宮益坂ビルディング６０９,,13,113,1500002,,,,,,,2022-03-29,1,,,,,プー,0
267,2011005009503,新規,0,2022-03-29,2022-03-29,特定非営利活動法人Ｗａｆｆｌｅ,,その他の設立登記法人,東京都,渋谷区,道玄坂１丁目１５－１０道玄坂１ハイツ４０２株式会社９課内,,13,113,1500043,,,,,,,2022-03-29,1,,,,,ワッフル,0
269,2011101098301,新規,0,2022-03-29,2022-03-29,至誠株式会社,,株式会社,東京都,新宿区,新宿１丁目１９番２号平ビル１Ｆ,,13,104,1600022,,,,,,,2022-03-29,1,,,,,シセイ,0
272,2011301027654,新規,0,2022-03-29,2022-03-29,株式会社防火エンジ,,株式会社,東京都,杉並区,浜田山３丁目１３番１２号,,13,115,1680065,,,,,,,2022-03-29,1,,,,,ボウカエンジ,0
273,2011303004362,新規,0,2022-03-29,2022-03-29,ＢＯＡＳＯＲＴＥ合同会社,,合同会社,東京都,杉並区,清水３丁目７番８号コスモス荻窪１０７,,13,115,1670033,,,,,,,2022-03-29,1,,,,,ボアソルテ,0
278,2011801040504,新規,0,2022-03-29,2022-03-29,株式会社ドキンズロジスティクス,,株式会社,東京都,足立区,西新井６丁目４３番３号,,13,121,1230841,,,,,,,2022-03-29,1,,,,,ドキンズロジスティクス,0
279,2011803005026,新規,0,2022-03-29,2022-03-29,合同会社Ｔ２パートナーズ,,合同会社,東京都,葛飾区,柴又３丁目３６番１号,,13,122,1250052,,,,,,,2022-03-29,1,,,,,ティーツーパートナーズ,0
300,2020003021502,新規,0,2022-03-29,2022-03-29,合同会社ＰＥＴＲＩＣＨＯＲ,,合同会社,神奈川県,川崎市中原区,下小田中１丁目６番１７号,,14,133,2110041,,,,,,,2022-03-29,1,,,,,ペトリコール,0
308,2021001075498,新規,0,2022-03-29,2022-03-29,株式会社ＬＩＬＡ,,株式会社,神奈川県,藤沢市,鵠沼橘１丁目１７番４号小塚ビル４０３号室,,14,205,2510024,,,,,,,2022-03-29,1,,,,,リラ,0
309,2021001075531,新規,0,2022-03-29,2022-03-29,株式会社ぷくぷく,,株式会社,神奈川県,横須賀市,坂本町５丁目２２,,14,201,2380043,,,,,,,2022-03-29,1,,,,,プクプク,0
311,2021003011526,新規,0,2022-03-29,2022-03-29,合同会社メディカルワイズインターナショナル,,合同会社,神奈川県,秦野市,曲松２丁目１番３４号,,14,211,2591321,,,,,,,2022-03-29,1,,,,,メディカルワイズインターナショナル,0
321,2030003019090,新規,0,2022-03-29,2022-03-29,合同会社雲鶴堂,,合同会社,埼玉県,川越市,今成１丁目１９番地２７,,11,201,3501105,,,,,,,2022-03-29,1,,,,,,0
322,2030005020773,新規,0,2022-03-29,2022-03-29,ＮＰＯ法人里山クラブ見沼,,その他の設立登記法人,埼玉県,さいたま市南区,大字大谷口１１９０－７,,11,108,3360042,,,,,,,2022-03-29,1,,,,,サトヤマクラブミヌマ,0
325,2040001122770,新規,0,2022-03-29,2022-03-29,株式会社ＵＣＡＮＲＥＬＹ,,株式会社,千葉県,柏市,手賀の杜４丁目２２番地５,,12,217,2701447,,,,,,,2022-03-29,1,,,,,ユーキャンリライ,0
326,2040001122779,新規,0,2022-03-29,2022-03-29,株式会社Ｆｌａｔ　Ｗｈｉｔｅ,,株式会社,千葉県,千葉市稲毛区,天台５丁目２１番２５号,,12,103,2630016,,,,,,,2022-03-29,1,,,,,フラットホワイト,0
329,2050001050855,新規,0,2022-03-29,2022-03-29,株式会社マツフジ,,株式会社,茨城県,守谷市,久保ケ丘４丁目２９番地３６,,08,224,3020104,,,,,,,2022-03-29,1,,,,,マツフジ,0
332,2050003006450,新規,0,2022-03-29,2022-03-29,ＳＩＬＶＡ　ＭＯＴＯＲ　ＨＯＵＳＥ合同会社,,合同会社,茨城県,龍ケ崎市,佐貫３丁目１０番８号コーポ西１０２,,08,208,3010032,,,,,,,2022-03-29,1,,,,,シルワモーターハウス,0
335,2070001039079,新規,0,2022-03-29,2022-03-29,株式会社Ｙ＆Ｍ,,株式会社,群馬県,北群馬郡吉岡町,大字上野田１３２９番地１２０,,10,345,3703606,,,,,,,2022-03-29,1,,,,,ワイアンドエム,0
349,2110005016771,新規,0,2022-03-29,2022-03-29,サスティナブルアグリ協同組合,,その他の設立登記法人,新潟県,新潟市東区,卸新町１丁目９２４番地８,,15,102,9500863,,,,,,,2022-03-29,1,,,,,サスティナブルアグリ,0
354,2120001244689,新規,0,2022-03-29,2022-03-29,馨億株式会社,,株式会社,大阪府,大阪市天王寺区,空清町４－１１杉野ビル本館２０１号室,,27,109,5430018,,,,,,,2022-03-29,1,,,,,キョウオク,0
355,2120001244722,新規,0,2022-03-29,2022-03-29,ｂｒｉｌｌｉａｎｔ　ｇａｒｄｅｎ株式会社,,株式会社,大阪府,大阪市北区,梅田１丁目２番２号大阪駅前第２ビル２階５－６号室,,27,127,5300001,,,,,,,2022-03-29,1,,,,,ブリリアントガーデン,0
356,2120001244730,新規,0,2022-03-29,2022-03-29,株式会社慎和建設,,株式会社,大阪府,大阪市平野区,長吉長原１丁目１番２号５０３,,27,126,5470016,,,,,,,2022-03-29,1,,,,,シンワケンセツ,0
357,2120001244747,新規,0,2022-03-29,2022-03-29,株式会社ＹＡＭＡＫＯＭＡ　ＡＳＳＥＴ　ＢＡＮＫ,,株式会社,大阪府,大阪市西区,九条南３丁目１番１８号,,27,106,5500025,,,,,,,2022-03-29,1,,,,,ヤマコマアセットバンク,0
359,2120003021335,新規,0,2022-03-29,2022-03-29,合同会社ＣＳＣラボ,,合同会社,大阪府,大阪市西区,北堀江１丁目１５番１９号サイユニオンビル２Ｆ,,27,106,5500014,,,,,,,2022-03-29,1,,,,,シーエスシーラボ,0
363,2120901045765,新規,0,2022-03-29,2022-03-29,レーヴ株式会社,,株式会社,大阪府,吹田市,山田西１丁目７番Ｂ－１００８号,,27,205,5650824,,,,,,,2022-03-29,1,,,,,レーヴ,0
368,2130003007837,新規,0,2022-03-29,2022-03-29,合同会社オフィスルピナス,,合同会社,京都府,京都市上京区,一条通御前通西入三丁目西町３６番地,,26,102,6020000,,,,,,,2022-03-29,1,,,,,オフィスルピナス,0
377,2140001125391,新規,0,2022-03-29,2022-03-29,株式会社Ｄエステート,,株式会社,兵庫県,西宮市,上甲東園２丁目８番５号,,28,204,6620813,,,,,,,2022-03-29,1,,,,,ディーエステート,0
380,2140005026099,新規,0,2022-03-29,2022-03-29,医療法人社団はな歯科,,その他の設立登記法人,兵庫県,姫路市,広畑区吾妻町３丁目２４番,,28,201,6711154,,,,,,,2022-03-29,1,,,,,ハナシカ,0
387,2180003023631,新規,0,2022-03-29,2022-03-29,ＮｅｅＹｏｏ合同会社,,合同会社,愛知県,尾張旭市,旭ケ丘町森１２７番地,,23,226,4880082,,,,,,,2022-03-29,1,,,,,ネーヨー,0
388,2180003023648,新規,0,2022-03-29,2022-03-29,スーチン合同会社,,合同会社,愛知県,名古屋市西区,五才美町２８３番地第６フォーラムビル２Ｆ,,23,104,4520806,,,,,,,2022-03-29,1,,,,,スーチン,0
395,2190003003938,新規,0,2022-03-29,2022-03-29,合同会社山家工業,,合同会社,三重県,四日市市,垂坂町３７９番地１,,24,202,5108037,,,,,,,2022-03-29,1,,,,,ヤマカコウギョウ,0
399,2210001018860,新規,0,2022-03-29,2022-03-29,株式会社ＴＯＭＯ商会,,株式会社,福井県,福井市,上森田１丁目８０７番地,,18,201,9100142,,,,,,,2022-03-29,1,,,,,トモショウカイ,0
404,2230001019287,新規,0,2022-03-29,2022-03-29,ＧＯＯＤＯＮＥ’１４株式会社,,株式会社,富山県,砺波市,中村６９９番地４,,16,208,9391381,,,,,,,2022-03-29,1,,,,,グッドワンフォーティーン,0
417,2290003012326,新規,0,2022-03-29,2022-03-29,ＮＥＸＴＡＩＲ合同会社,,合同会社,福岡県,福岡市博多区,博多駅前２丁目１－１,,40,132,8120011,,,,,,,2022-03-29,1,,,,,ネクステア,0
418,2290005018602,新規,0,2022-03-29,2022-03-29,一般社団法人音別振興３９会,,その他の設立登記法人,福岡県,福岡市城南区,友丘２丁目１０番３号,,40,136,8140112,,,,,,,2022-03-29,1,,,,,オンベツシンコウサンキュウカイ,0
425,2320003003759,新規,0,2022-03-29,2022-03-29,合同会社サクラネクスト,,合同会社,大分県,大分市,大道町５丁目８‐１１‐４０３,,44,201,8700822,,,,,,,2022-03-29,1,,,,,サクラネクスト,0
451,2470001019016,新規,0,2022-03-29,2022-03-29,株式会社ｖａｒｉｏｕｓ　ｐｒｏｊｅｃｔｓ,,株式会社,香川県,高松市,香川町大野１３６０番地３,,37,201,7611701,,,,,,,2022-03-29,1,,,,,ヴァリオスプロジェクト,0
461,3010001225419,新規,0,2022-03-29,2022-03-29,株式会社セントラル設備,,株式会社,東京都,中央区,銀座１丁目１６番７号銀座大栄ビル５階,,13,102,1040061,,,,,,,2022-03-29,1,,,,,セントラルセツビ,0
462,3010001225476,新規,0,2022-03-29,2022-03-29,プリムス株式会社,,株式会社,東京都,中央区,湊２丁目１１番１号,,13,102,1040043,,,,,,,2022-03-29,1,,,,,プリムス,0
463,3010001225484,新規,0,2022-03-29,2022-03-29,株式会社メンタルヘルスケア,,株式会社,東京都,千代田区,九段南１丁目５番６号りそな九段ビル５Ｆ,,13,101,1020074,,,,,,,2022-03-29,1,,,,,メンタルヘルスケア,0
467,3010005034782,新規,0,2022-03-29,2022-03-29,一般社団法人鈴鹿ＥＲＩ１号,,その他の設立登記法人,東京都,千代田区,丸の内３丁目１番１号東京共同会計事務所内,,13,101,1000005,,,,,,,2022-03-29,1,,,,,スズカイーアールアイイチゴウ,0
479,3010401166428,新規,0,2022-03-29,2022-03-29,株式会社Ｆａｎｂａｓｅｉｎｎｏｖａｔｉｏｎ,,株式会社,東京都,港区,赤坂２丁目１３番２０号ツムギビル３Ｆ,,13,103,1070052,,,,,,,2022-03-29,1,,,,,ファンベースイノベーション,0
480,3010401166444,新規,0,2022-03-29,2022-03-29,ＰａｇｅｒＤｕｔｙ株式会社,,株式会社,東京都,港区,赤坂９丁目７番１号ミッドタウンタワー１８階,,13,103,1070052,,,,,,,2022-03-29,1,,,,,ペイジャーデューティ,0
485,3010501048617,新規,0,2022-03-29,2022-03-29,佳美株式会社,,株式会社,東京都,台東区,上野３丁目１１番５号,,13,106,1100005,,,,,,,2022-03-29,1,,,,,ヨシミ,0
486,3010501048633,新規,0,2022-03-29,2022-03-29,株式会社トラディショナルアクセサリーズ,,株式会社,東京都,台東区,浅草橋１丁目９－１２浅草橋駅前ビル３Ｆ,,13,106,1110053,,,,,,,2022-03-29,1,,,,,トラディショナルアクセサリーズ,0
490,3010801032832,新規,0,2022-03-29,2022-03-29,株式会社ＵＲＬ,,株式会社,東京都,大田区,南雪谷１丁目２番５－３１３号,,13,111,1450066,,,,,,,2022-03-29,1,,,,,ユーアールエル,0
491,3010805002930,新規,0,2022-03-29,2022-03-29,社会保険労務士法人おおた労務管理事務所,,その他の設立登記法人,東京都,大田区,中馬込１丁目１番１７号１階,,13,111,1430027,,,,,,,2022-03-29,1,,,,,オオタロウムカンリジムショ,0
494,3010901050577,新規,0,2022-03-29,2022-03-29,株式会社Ｇｌａｎｚ,,株式会社,東京都,世田谷区,池尻３丁目３０番１号ＳＧタワー５０１,,13,112,1540001,,,,,,,2022-03-29,1,,,,,グランツ,0
501,3011001146489,新規,0,2022-03-29,2022-03-29,Ｍｙｉｍｅ株式会社,,株式会社,東京都,渋谷区,渋谷２丁目１９－１５宮益坂ビルディング６０９,,13,113,1500002,,,,,,,2022-03-29,1,,,,,マイアイミー,0
502,3011001146571,新規,0,2022-03-29,2022-03-29,株式会社ＥＦＦＯＲＴ　ＧＲＯＵＰ,,株式会社,東京都,渋谷区,西原１丁目２３－１－１０１,,13,113,1510066,,,,,,,2022-03-29,1,,,,,エフォートグループ,0
507,3011101098291,新規,0,2022-03-29,2022-03-29,Ｊａｐａｎ　ＩＳＳ　Ｃｏｒｐｏｒａｔｉｏｎ株式会社,,株式会社,東京都,新宿区,西新宿１丁目２０番３号西新宿高木ビル７階,,13,104,1600023,,,,,,,2022-03-29,1,,,,,ジャパンアイエスエスコーポレーション,0
508,3011101098309,新規,0,2022-03-29,2022-03-29,虹拓テック株式会社,,株式会社,東京都,新宿区,高田馬場３丁目１４番２号,,13,104,1690075,,,,,,,2022-03-29,1,,,,,コウタクテック,0
512,3011405002189,新規,0,2022-03-29,2022-03-29,一般社団法人ＧＡ,,その他の設立登記法人,東京都,板橋区,成増５丁目８番６号,,13,119,1750094,,,,,,,2022-03-29,1,,,,,ジーエー,0
513,3011501027874,新規,0,2022-03-29,2022-03-29,ＭＡＧＩ　ＴＥＣＨ株式会社,,株式会社,東京都,北区,浮間１丁目７－２３兆豊浮間ビル５０２号室,,13,117,1150051,,,,,,,2022-03-29,1,,,,,マギテック,0
514,3011701025158,新規,0,2022-03-29,2022-03-29,明川株式会社,,株式会社,東京都,江戸川区,中央１丁目１８番２０号リョウデンパークビル５００Ｂ号室,,13,123,1320021,,,,,,,2022-03-29,1,,,,,アキガワ,0
516,3011803005025,新規,0,2022-03-29,2022-03-29,ワンエイト合同会社,,合同会社,東京都,葛飾区,東金町３丁目１９－２,,13,122,1250041,,,,,,,2022-03-29,1,,,,,ワンエイト,0
518,3012301012934,新規,0,2022-03-29,2022-03-29,株式会社ＬＩＦＩＸ,,株式会社,東京都,町田市,中町１丁目２－５ＳＨＥＬＬＭＩＹＡＫＯＶ３Ｆ,,13,209,1940021,,,,,,,2022-03-29,1,,,,,リフィックス,0
520,3012401039010,新規,0,2022-03-29,2022-03-29,株式会社フライミープロパートナーズ,,株式会社,東京都,武蔵野市,中町１丁目１９番１８号,,13,203,1800006,,,,,,,2022-03-29,1,,,,,フライミープロパートナーズ,0
521,3012403005299,新規,0,2022-03-29,2022-03-29,サニタイズ＆スクラブ合同会社,,合同会社,東京都,多摩市,連光寺５丁目１２番地の１５フラット連光寺Ｃ２１２,,13,224,2060021,,,,,,,2022-03-29,1,,,,,サニタイズアンドスクラブ,0
522,3012801021476,新規,0,2022-03-29,2022-03-29,株式会社ＦＵＪＩＴＡ,,株式会社,東京都,日野市,新井２丁目２７番地の１９,,13,212,1910022,,,,,,,2022-03-29,1,,,,,フジタ,0
523,3012805003099,新規,0,2022-03-29,2022-03-29,医療法人社団くまさんこどもクリニック,,その他の設立登記法人,東京都,国分寺市,南町３丁目２２番２７号第２浜仲ビル１階,,13,214,1850021,,,,,,,2022-03-29,1,,,,,クマサンコドモクリニック,0
530,3020001145814,新規,0,2022-03-29,2022-03-29,株式会社Ｒａｎｋｉ,,株式会社,神奈川県,横浜市緑区,鴨居３丁目４１番４号Ｋ’ｓヒルＢ棟１０２,,14,113,2260003,,,,,,,2022-03-29,1,,,,,ランキ,0
531,3020001145839,新規,0,2022-03-29,2022-03-29,株式会社ブルジュコンサルティング,,株式会社,神奈川県,横浜市中区,曙町１丁目６番地一階,,14,104,2310057,,,,,,,2022-03-29,1,,,,,ブルジュコンサルティング,0
534,3021001075522,新規,0,2022-03-29,2022-03-29,株式会社ＮＡＣ,,株式会社,神奈川県,綾瀬市,大上７丁目２番３９号,,14,218,2521104,,,,,,,2022-03-29,1,,,,,エヌエーシー,0
535,3021001075530,新規,0,2022-03-29,2022-03-29,株式会社ＹＡＭＯＣＨＩ,,株式会社,神奈川県,相模原市南区,相武台３丁目９番１２号２０２,,14,153,2520324,,,,,,,2022-03-29,1,,,,,ヤモチ,0
539,3021005012463,新規,0,2022-03-29,2022-03-29,医療法人きりん,,その他の設立登記法人,神奈川県,相模原市中央区,田名１９０９番地１,,14,152,2520244,,,,,,,2022-03-29,1,,,,,キリン,0
542,3030001147405,新規,0,2022-03-29,2022-03-29,株式会社さんはろん,,株式会社,埼玉県,入間市,宮寺２９６７番地４５,,11,225,3580014,,,,,,,2022-03-29,1,,,,,サンハロン,0
543,3030001147421,新規,0,2022-03-29,2022-03-29,株式会社ｆｕｎｔｔｏ,,株式会社,埼玉県,越谷市,大沢１７０３番地１,,11,222,3430025,,,,,,,2022-03-29,1,,,,,ファント,0
551,3030005020772,新規,0,2022-03-29,2022-03-29,一般社団法人川口健道クラブ,,その他の設立登記法人,埼玉県,川口市,川口２丁目１０番１７号,,11,203,3320015,,,,,,,2022-03-29,1,,,,,カワグチケンドウクラブ,0
552,3040001122729,新規,0,2022-03-29,2022-03-29,ゲンスバイオテク株式会社,,株式会社,千葉県,千葉市稲毛区,小中台町１５１２番地６稲毛スカイマンションＤ棟１０４号,,12,103,2630044,,,,,,,2022-03-29,1,,,,,ゲンスバイオテク,0
553,3040001122737,新規,0,2022-03-29,2022-03-29,株式会社イフサン,,株式会社,千葉県,千葉市緑区,大椎町１２２９番地１８６,,12,105,2670065,,,,,,,2022-03-29,1,,,,,イフサン,0
554,3040001122745,新規,0,2022-03-29,2022-03-29,株式会社青い星,,株式会社,千葉県,袖ケ浦市,蔵波台４丁目２０番地１１,,12,229,2990245,,,,,,,2022-03-29,1,,,,,アオイホシ,0
555,3040001122761,新規,0,2022-03-29,2022-03-29,株式会社Ｃａｒ　Ｆａｃｔｏｒｙ　Ｎ‐ＳＴＹＬＥ,,株式会社,千葉県,流山市,大字桐ケ谷４９,,12,220,2700172,,,,,,,2022-03-29,1,,,,,カーファクトリーエヌスタイル,0
557,3040003019725,新規,0,2022-03-29,2022-03-29,合資会社祥太,,合資会社,千葉県,船橋市,宮本４丁目３番１６－３０１号,,12,204,2730003,,,,,,,2022-03-29,1,,,,,ショウタ,0
558,3040003019758,新規,0,2022-03-29,2022-03-29,合同会社大誠,,合同会社,千葉県,市川市,福栄２丁目２１番１１号,,12,203,2720137,,,,,,,2022-03-29,1,,,,,ダイセイ,0
562,3050001050854,新規,0,2022-03-29,2022-03-29,株式会社高橋仮設,00126096,株式会社,茨城県,つくば市,高崎１９０４番地３,,08,220,3001245,,,,,,,2022-03-29,1,,,,,タカハシカセツ,0
567,3060001034690,新規,0,2022-03-29,2022-03-29,株式会社那須リゾートクラブ,,株式会社,栃木県,那須郡那須町,大字高久乙３３７５番地１０６６,,09,407,3250303,,,,,,,2022-03-29,1,,,,,ナスリゾートクラブ,0
585,3110001036525,新規,0,2022-03-29,2022-03-29,株式会社安全科学総合研究所,,株式会社,新潟県,長岡市,神田町１丁目２番地９,,15,202,9400052,,,,,,,2022-03-29,1,,,,,アンゼンカガクソウゴウケンキュウショ,0
594,3120001244746,新規,0,2022-03-29,2022-03-29,株式会社シュガーパイン,,株式会社,大阪府,大阪市平野区,瓜破西１丁目８番７７－５０３号,,27,126,5470025,,,,,,,2022-03-29,1,,,,,シュガーパイン,0
595,3120001244762,新規,0,2022-03-29,2022-03-29,株式会社コンテニュー,,株式会社,大阪府,大阪市中央区,安堂寺町２丁目７番２号朝日プラザ長堀東パサージュ２Ｆ,,27,128,5420061,,,,,,,2022-03-29,1,,,,,コンテニュー,0
598,3120005022859,新規,0,2022-03-29,2022-03-29,一般社団法人明日へのチカラ,,その他の設立登記法人,大阪府,大阪市中央区,上汐２丁目６番１３号喜多ビル２０５号室,,27,128,5420064,,,,,,,2022-03-29,1,,,,,アスヘノチカラ,0
600,3120101065290,新規,0,2022-03-29,2022-03-29,株式会社Ｒ‐ｕｐ,,株式会社,大阪府,岸和田市,吉井町１丁目９番１９号,,27,202,5960002,,,,,,,2022-03-29,1,,,,,アールアップ,0
601,3120103004627,新規,0,2022-03-29,2022-03-29,合同会社オイスター,,合同会社,大阪府,堺市南区,片蔵１６９番地７,,27,145,5900121,,,,,,,2022-03-29,1,,,,,オイスター,0
604,3120903004082,新規,0,2022-03-29,2022-03-29,合同会社ＫＧ運送,,合同会社,大阪府,豊中市,豊南町西４丁目２６－１１,,27,203,5610816,,,,,,,2022-03-29,1,,,,,ケージーウンソウ,0
616,3140001125390,新規,0,2022-03-29,2022-03-29,株式会社シーエスアール,,株式会社,兵庫県,宝塚市,宮の町１５－５荒神川ビル３０２,,28,214,6650843,,,,,,,2022-03-29,1,,,,,シーエスアール,0
618,3140003017504,新規,0,2022-03-29,2022-03-29,合同会社ＬＵＥＵＲ,,合同会社,兵庫県,姫路市,飾磨区今在家１４１１番地５,,28,201,6728079,,,,,,,2022-03-29,1,,,,,リュール,0
620,3140005026098,新規,0,2022-03-29,2022-03-29,医療法人社団真和会,,その他の設立登記法人,兵庫県,西宮市,小松北町２丁目１番１号第３１ヒグチビル１０１号,,28,204,6638126,,,,,,,2022-03-29,1,,,,,シンワカイ,0
630,3180001150518,新規,0,2022-03-29,2022-03-29,フジメンテサービス株式会社,,株式会社,愛知県,名古屋市中村区,森末町４丁目３０番地の１,,23,105,4530052,,,,,,,2022-03-29,1,,,,,フジメンテサービス,0
639,3190005011681,新規,0,2022-03-29,2022-03-29,三重県外材輸出入協同組合,,その他の設立登記法人,三重県,津市,栗真中山町１３７番地,,24,201,5140103,,,,,,,2022-03-29,1,,,,,ミエケンガイザイユシュツニュウ,0
647,3240001059513,新規,0,2022-03-29,2022-03-29,株式会社和組,,株式会社,広島県,広島市安佐北区,落合南４丁目１５番３１号,,34,106,7391732,,,,,,,2022-03-29,1,,,,,カズグミ,0
655,3290003012325,新規,0,2022-03-29,2022-03-29,合同会社巴,,合同会社,福岡県,福岡市南区,若久６丁目７番４‐４０１号ジュネス清永,,40,134,8150042,,,,,,,2022-03-29,1,,,,,トモエ,0
656,3290005018601,新規,0,2022-03-29,2022-03-29,一般社団法人福岡アニマルセラピー協会,,その他の設立登記法人,福岡県,福岡市早良区,野芥７丁目２９番１号,,40,137,8140171,,,,,,,2022-03-29,1,,,,,フクオカアニマルセラピーキョウカイ,0
657,3290803004091,新規,0,2022-03-29,2022-03-29,タートル合同会社,,合同会社,福岡県,直方市,大字上新入１８８１番地３,,40,204,8220033,,,,,,,2022-03-29,1,,,,,タートル,0
666,3360001030172,新規,0,2022-03-29,2022-03-29,株式会社彩琉味,,株式会社,沖縄県,石垣市,字真栄里４２５番地３,,47,207,9070002,,,,,,,2022-03-29,1,,,,,イルミ,0
673,3380005012553,新規,0,2022-03-29,2022-03-29,一般社団法人ライトスタッフ,,その他の設立登記法人,福島県,田村郡小野町,大字吉野辺字伊達内２９番地,,07,522,9633525,,,,,,,2022-03-29,1,,,,,ライトスタッフ,0
683,3470001019015,新規,0,2022-03-29,2022-03-29,株式会社オオハル板金工,,株式会社,香川県,高松市,由良町３７２番地２０,,37,201,7610441,,,,,,,2022-03-29,1,,,,,オオハルバンキンコウ,0
694,4010001225467,新規,0,2022-03-29,2022-03-29,株式会社Ｍ．Ｄ．Ｃ,,株式会社,東京都,千代田区,有楽町１丁目２番２号東宝日比谷ビル９階,,13,101,1000006,,,,,,,2022-03-29,1,,,,,エムディーシー,0
695,4010001225525,新規,0,2022-03-29,2022-03-29,株式会社アルベン,,株式会社,東京都,文京区,湯島３丁目４１番１２号ウエノイレブンビル５階,,13,105,1130034,,,,,,,2022-03-29,1,,,,,アルベン,0
696,4010003037324,新規,0,2022-03-29,2022-03-29,合同会社リトドル,,合同会社,東京都,千代田区,内神田２丁目８番２号ＫＤＸレジデンス神田１１０２号,,13,101,1010047,,,,,,,2022-03-29,1,,,,,リトドル,0
713,4010401166410,新規,0,2022-03-29,2022-03-29,株式会社Ｒｅ．Ｓ,,株式会社,東京都,港区,三田３丁目４番５号慶応マンション１０１Ｇ,,13,103,1080073,,,,,,,2022-03-29,1,,,,,アールイーエス,0
714,4010401166443,新規,0,2022-03-29,2022-03-29,株式会社シモベデザイン,,株式会社,東京都,港区,南青山１丁目３番１－３３０２号,,13,103,1070062,,,,,,,2022-03-29,1,,,,,シモベデザイン,0
720,4010701042419,新規,0,2022-03-29,2022-03-29,株式会社ＢＯＯＭＩＴ,,株式会社,東京都,品川区,南大井１丁目２０－１６クレストフォルム南大井１１０１,,13,109,1400013,,,,,,,2022-03-29,1,,,,,ブームイット,0
723,4010801032831,新規,0,2022-03-29,2022-03-29,株式会社カラフル,,株式会社,東京都,大田区,山王２丁目５番６号ＳＡＮＮＯＢＲＩＤＧＥ,,13,111,1430023,,,,,,,2022-03-29,1,,,,,カラフル,0
728,4011001146364,新規,0,2022-03-29,2022-03-29,株式会社Ｖａｃａｔｉｏｎｓ,,株式会社,東京都,渋谷区,恵比寿４丁目２０－３恵比寿ガーデンプレイスタワー４Ｆ,,13,113,1500013,,,,,,,2022-03-29,1,,,,,バケーションズ,0
729,4011001146538,新規,0,2022-03-29,2022-03-29,アニチャイナ株式会社,,株式会社,東京都,渋谷区,円山町５番５号Ｎａｖｉ渋谷Ｖ３階,,13,113,1500044,,,,,,,2022-03-29,1,,,,,アニチャイナ,0
730,4011001146579,新規,0,2022-03-29,2022-03-29,株式会社ＲＡＴＳ,,株式会社,東京都,目黒区,中央町２丁目１６番４号アロマ学芸大学２０１,,13,110,1520001,,,,,,,2022-03-29,1,,,,,ラッツ,0
731,4011003014420,新規,0,2022-03-29,2022-03-29,合同会社ＡＰＩＡＰＩ,,合同会社,東京都,渋谷区,神宮前６丁目２３番４号桑野ビル２階,,13,113,1500001,,,,,,,2022-03-29,1,,,,,アピアピ,0
735,4011301027669,新規,0,2022-03-29,2022-03-29,株式会社ＣＳコンサルティング,,株式会社,東京都,杉並区,下高井戸１丁目３４番１０号,,13,115,1680073,,,,,,,2022-03-29,1,,,,,シーエスコンサルティング,0
736,4011303004360,新規,0,2022-03-29,2022-03-29,コミュレクト合同会社,,合同会社,東京都,杉並区,高円寺南１丁目４－１７Ｔｈｅ東高円寺テラス１０２,,13,115,1660003,,,,,,,2022-03-29,1,,,,,コミュレクト,0
737,4011801040493,新規,0,2022-03-29,2022-03-29,株式会社Ｈａｐｐｙ　Ｌｉｆｅ,,株式会社,東京都,葛飾区,西亀有３丁目３０番１号,,13,122,1250002,,,,,,,2022-03-29,1,,,,,ハッピーライフ,0
750,4020001145805,新規,0,2022-03-29,2022-03-29,ＮｅｗＳ　Ｌｏｇｉｓｔｉｃｓ株式会社,,株式会社,神奈川県,横浜市中区,本牧十二天３番地１０ＳＫＧビル,,14,104,2310803,,,,,,,2022-03-29,1,,,,,ニュースロジスティクス,0
751,4020001145813,新規,0,2022-03-29,2022-03-29,株式会社トラス,,株式会社,神奈川県,横浜市保土ケ谷区,仏向町１５１５番地３１,,14,106,2400044,,,,,,,2022-03-29,1,,,,,トラス,0
752,4020001145838,新規,0,2022-03-29,2022-03-29,株式会社ＤｅｅｐＢｌｕｅ,,株式会社,神奈川県,横浜市神奈川区,羽沢町１２００－１６５,,14,102,2210863,,,,,,,2022-03-29,1,,,,,ディープブルー,0
754,4020003021475,新規,0,2022-03-29,2022-03-29,Ａｍｉｒａ　Ｊａｐａｎ合同会社,,合同会社,神奈川県,川崎市多摩区,栗谷３丁目１１番５号,,14,135,2140039,,,,,,,2022-03-29,1,,,,,アミーラジャパン,0
756,4021001075513,新規,0,2022-03-29,2022-03-29,株式会社藤原南ｃｏｒｐｏｒａｔｉｏｎ,,株式会社,神奈川県,大和市,中央林間西２丁目１４番２８号,,14,213,2420008,,,,,,,2022-03-29,1,,,,,フジワラミナミコーポレーション,0
759,4021003011524,新規,0,2022-03-29,2022-03-29,合同会社面商,,合同会社,神奈川県,綾瀬市,寺尾西３丁目１１番９号,,14,218,2521136,,,,,,,2022-03-29,1,,,,,メンショウ,0
760,4021005012462,新規,0,2022-03-29,2022-03-29,一般社団法人誠夢会,,その他の設立登記法人,神奈川県,藤沢市,辻堂太平台２丁目１番３５～６１号,,14,205,2510044,,,,,,,2022-03-29,1,,,,,セイムカイ,0
766,4030001147445,新規,0,2022-03-29,2022-03-29,株式会社雅,,株式会社,埼玉県,所沢市,西所沢１丁目５番１９号,,11,208,3591144,,,,,,,2022-03-29,1,,,,,ミヤビ,0
767,4030001147453,新規,0,2022-03-29,2022-03-29,株式会社前波工業,,株式会社,埼玉県,所沢市,大字山口２８２４番地の１１,,11,208,3591145,,,,,,,2022-03-29,1,,,,,マエナミコウギョウ,0
771,4040001122736,新規,0,2022-03-29,2022-03-29,株式会社ロンリ計画,,株式会社,千葉県,松戸市,中金杉４丁目２２０番地３ホワイトハウス１０５号室,,12,207,2700007,,,,,,,2022-03-29,1,,,,,ロンリケイカク,0
773,4040003019757,新規,0,2022-03-29,2022-03-29,ＰＯＰ合同会社,,合同会社,千葉県,松戸市,下矢切１２９番地３,,12,207,2710096,,,,,,,2022-03-29,1,,,,,ピーオーピー,0
775,4050001050853,新規,0,2022-03-29,2022-03-29,株式会社ＨＩＳＡＤＡ,,株式会社,茨城県,水戸市,酒門町１９２５番地,,08,201,3100841,,,,,,,2022-03-29,1,,,,,ヒサダ,0
778,4060003003998,新規,0,2022-03-29,2022-03-29,合同会社ｐｏｐ　ｅｎｔｅｒｐｒｉｓｅ,,合同会社,栃木県,矢板市,扇町１丁目１０番８号,,09,211,3292161,,,,,,,2022-03-29,1,,,,,ポップエンタープライズ,0
780,4070001039077,新規,0,2022-03-29,2022-03-29,株式会社Ｃｏ‐Ｈｉｒｏ,,株式会社,群馬県,太田市,東矢島町１３４６番地３,,10,205,3730816,,,,,,,2022-03-29,1,,,,,コヒロ,0
783,4080003002767,新規,0,2022-03-29,2022-03-29,メンタルシード合同会社,,合同会社,静岡県,静岡市葵区,人宿町１丁目１番地１０ＳＯＺＯＳＹＡＭビル３Ｆ,,22,101,4200037,,,,,,,2022-03-29,1,,,,,メンタルシード,0
784,4080101023178,新規,0,2022-03-29,2022-03-29,株式会社ＤＳＦ,,株式会社,静岡県,御殿場市,東田中５３１番地９,,22,215,4120026,,,,,,,2022-03-29,1,,,,,ディーエスエフ,0
788,4110001036524,新規,0,2022-03-29,2022-03-29,株式会社田中興業,,株式会社,新潟県,刈羽郡刈羽村,大字滝谷６１８番地１,,15,504,9450303,,,,,,,2022-03-29,1,,,,,タナカコウギョウ,0
800,4120001244695,新規,0,2022-03-29,2022-03-29,株式会社ＪＰＩ,,株式会社,大阪府,大阪市中央区,高麗橋３丁目２番７号,,27,128,5410043,,,,,,,2022-03-29,1,,,,,ジェーピーアイ,0
801,4120001244761,新規,0,2022-03-29,2022-03-29,株式会社ＯＮＥ　ＬＯＶＥ　ＪＡＰＡＮ,,株式会社,大阪府,大阪市中央区,南本町２丁目３番１１号玉屋ビル１階,,27,128,5410054,,,,,,,2022-03-29,1,,,,,ワンラブジャパン,0
804,4120005022858,新規,0,2022-03-29,2022-03-29,特定非営利活動法人たなごころの会,,その他の設立登記法人,大阪府,大阪市淀川区,新北野３丁目１０番１３－７０４号,,27,123,5320025,,,,,,,2022-03-29,1,,,,,タナゴコロノカイ,0
805,4120103004626,新規,0,2022-03-29,2022-03-29,合同会社ぺんぎん,,合同会社,大阪府,堺市西区,鳳南町４丁４１９番地マスターズエル鳳南５８１－１０２号室,,27,144,5938325,,,,,,,2022-03-29,1,,,,,ペンギン,0
830,4180001150558,新規,0,2022-03-29,2022-03-29,佐久間土地株式会社,,株式会社,愛知県,名古屋市北区,萩野通１丁目４５番地の８,,23,103,4620026,,,,,,,2022-03-29,1,,,,,サクマトチ,0
831,4180001150566,新規,0,2022-03-29,2022-03-29,株式会社企画センター正方成,,株式会社,愛知県,名古屋市守山区,花咲台２丁目１０４番,,23,113,4630808,,,,,,,2022-03-29,1,,,,,キカクセンターセイホウセイ,0
832,4180001150574,新規,0,2022-03-29,2022-03-29,株式会社Ｄｒｅａｍ　Ａｍｂａｓｓａｄｏｒ,,株式会社,愛知県,名古屋市中村区,名駅５丁目３１－１０リンクス名駅ビル６階,,23,105,4500002,,,,,,,2022-03-29,1,,,,,ドリームアンバサダー,0
833,4180001150590,新規,0,2022-03-29,2022-03-29,株式会社英敏,,株式会社,愛知県,丹羽郡大口町,堀尾跡１丁目７５番地,,23,361,4800136,,,,,,,2022-03-29,1,,,,,ヒデトシ,0
837,4180003023654,新規,0,2022-03-29,2022-03-29,合同会社ＡＮＫエンタープライズ,,合同会社,愛知県,名古屋市中川区,西日置１丁目３番１０号,,23,110,4540004,,,,,,,2022-03-29,1,,,,,アンクエンタープライズ,0
850,4240001059512,新規,0,2022-03-29,2022-03-29,株式会社シナジー,,株式会社,広島県,広島市安佐北区,亀崎１丁目１番６号,,34,106,7391742,,,,,,,2022-03-29,1,,,,,シナジー,0
852,4240003005563,新規,0,2022-03-29,2022-03-29,ＴＩＥＮ　ＭＡＮＨ合同会社,,合同会社,広島県,安芸郡府中町,みくまり１丁目５番９号,,34,302,7350003,,,,,,,2022-03-29,1,,,,,ティエンマン,0
860,4270003001394,新規,0,2022-03-29,2022-03-29,合同会社グリーン工房,,合同会社,鳥取県,東伯郡湯梨浜町,大字橋津７１８番地９,,31,370,6820702,,,,,,,2022-03-29,1,,,,,グリーンコウボウ,0
875,4360003011888,新規,0,2022-03-29,2022-03-29,ＣＥＳ秋田太陽光発電所合同会社,,合同会社,沖縄県,那覇市,松尾１丁目１０番２４号ホークシティ那覇ビル１階,,47,201,9000014,,,,,,,2022-03-29,1,,,,,シーイーエスアキタタイヨウコウハツデンショ,0
887,4490005006832,新規,0,2022-03-29,2022-03-29,国際人材協同組合高知,,その他の設立登記法人,高知県,高知市,春野町仁ノ３５８７番地３７,,39,201,7810323,,,,,,,2022-03-29,1,,,,,コクサイジンザイコウチ,0
900,5010001225482,新規,0,2022-03-29,2022-03-29,株式会社アーク,,株式会社,東京都,中央区,八丁堀３丁目２番３号,,13,102,1040032,,,,,,,2022-03-29,1,,,,,アーク,0
901,5010001225490,新規,0,2022-03-29,2022-03-29,株式会社ｕｒａｅｕｓ,,株式会社,東京都,千代田区,二番町５－２麹町プラザ９Ｆ,,13,101,1020084,,,,,,,2022-03-29,1,,,,,ウラエス,0
907,5010401166442,新規,0,2022-03-29,2022-03-29,株式会社Ｉｎｎｏｖａｔｉｏｎ　Ｆｉｒｓｔ,,株式会社,東京都,港区,赤坂２丁目１２番２０号,,13,103,1070052,,,,,,,2022-03-29,1,,,,,イノベーションファースト,0
908,5010403027361,新規,0,2022-03-29,2022-03-29,合同会社修コーポレーション,,合同会社,東京都,港区,三田４丁目９番７号ＢＰＲレジデンス三田伊皿小坂３０２,,13,103,1080073,,,,,,,2022-03-29,1,,,,,シュウコーポレーション,0
918,5011001146553,新規,0,2022-03-29,2022-03-29,株式会社ＡｉｒＰａｎｇａｅａ,,株式会社,東京都,渋谷区,神宮前６丁目２３番４号桑野ビル２階,,13,113,1500001,,,,,,,2022-03-29,1,,,,,エアパンゲア,0
926,5011101098298,新規,0,2022-03-29,2022-03-29,株式会社ＪＯＹ,,株式会社,東京都,新宿区,新宿２丁目１２番１３号新宿アントレサロンビル,,13,104,1600022,,,,,,,2022-03-29,1,,,,,ジョイ,0
927,5011103011614,新規,0,2022-03-29,2022-03-29,ＫＩプロパティーズ合同会社,,合同会社,東京都,新宿区,四谷２丁目９番地１５東京ユナイテッド綜合事務所内,,13,104,1600004,,,,,,,2022-03-29,1,,,,,ケイアイプロパティーズ,0
931,5011403003609,新規,0,2022-03-29,2022-03-29,合同会社ネコパンチ,,合同会社,東京都,板橋区,南常盤台１丁目１１－６レフア南常盤台１０１号室,,13,119,1740072,,,,,,,2022-03-29,1,,,,,ネコパンチ,0
933,5011501027880,新規,0,2022-03-29,2022-03-29,株式会社ＰｒｏｇｒｅｓｓＫ,,株式会社,東京都,北区,西ケ原１丁目２８番１２号,,13,117,1140024,,,,,,,2022-03-29,1,,,,,プログレスケイ,0
935,5011601025818,新規,0,2022-03-29,2022-03-29,株式会社Ｃｒｅｓｃｅｎｔ,,株式会社,東京都,練馬区,高野台５丁目２９番３号ローレルコート石神井公園１０４,,13,120,1770033,,,,,,,2022-03-29,1,,,,,クレセント,0
942,5011801040484,新規,0,2022-03-29,2022-03-29,吉星商事株式会社,,株式会社,東京都,足立区,足立３丁目９番６号,,13,121,1200015,,,,,,,2022-03-29,1,,,,,キッセイショウジ,0
943,5011801040501,新規,0,2022-03-29,2022-03-29,株式会社ＦｕｔｕｒｅＤｒｅａｍ,,株式会社,東京都,葛飾区,白鳥２丁目３番２０号,,13,122,1250063,,,,,,,2022-03-29,1,,,,,フューチャードリーム,0
946,5012401039009,新規,0,2022-03-29,2022-03-29,株式会社フライミーイノベーションズ,,株式会社,東京都,武蔵野市,中町１丁目１９番１８号,,13,203,1800006,,,,,,,2022-03-29,1,,,,,フライミーイノベーションズ,0
947,5012401039017,新規,0,2022-03-29,2022-03-29,株式会社ワンビット,,株式会社,東京都,調布市,布田１丁目４９番２２号光ビル３０２,,13,208,1820024,,,,,,,2022-03-29,1,,,,,ワンビット,0
964,5020001145812,新規,0,2022-03-29,2022-03-29,ＹＴ　ＯＮＥ株式会社,,株式会社,神奈川県,横浜市西区,北幸２丁目１１番４７－１２１０号,,14,103,2200004,,,,,,,2022-03-29,1,,,,,ワイティーワン,0
965,5020001145837,新規,0,2022-03-29,2022-03-29,株式会社レディアンツ,,株式会社,神奈川県,横浜市磯子区,森６丁目２４番１９号,,14,107,2350023,,,,,,,2022-03-29,1,,,,,レディアンツ,0
966,5020005015433,新規,0,2022-03-29,2022-03-29,一般社団法人日本フォレックス教育推進機構,,その他の設立登記法人,神奈川県,川崎市中原区,木月４丁目３番３２号,,14,133,2110025,,,,,,,2022-03-29,1,,,,,ニホンフォレックスキョウイクスイシンキコウ,0
971,5021001075529,新規,0,2022-03-29,2022-03-29,株式会社ヨガノモリ,,株式会社,神奈川県,厚木市,元町１２番１０号,,14,212,2430002,,,,,,,2022-03-29,1,,,,,ヨガノモリ,0
973,5021003011515,新規,0,2022-03-29,2022-03-29,合同会社太栄ハウジング,,合同会社,神奈川県,厚木市,戸室４丁目１番地３０号ウィンドプラザ３０９,,14,212,2430031,,,,,,,2022-03-29,1,,,,,タイエイハウジング,0
977,5030001147444,新規,0,2022-03-29,2022-03-29,株式会社ＢＵＳ　ＳＴＯＰ,,株式会社,埼玉県,三郷市,彦成４丁目１番２０－７３３号,,11,237,3410003,,,,,,,2022-03-29,1,,,,,バスストップ,0
979,5030003019113,新規,0,2022-03-29,2022-03-29,合同会社コジマ・コンサルテーション,,合同会社,埼玉県,本庄市,児玉町高関９１番地１,,11,211,3670201,,,,,,,2022-03-29,1,,,,,コジマコンサルテーション,0
983,5040001122751,新規,0,2022-03-29,2022-03-29,株式会社ひろ,,株式会社,千葉県,野田市,清水４５１番地の３０,,12,208,2780043,,,,,,,2022-03-29,1,,,,,ヒロ,0
984,5040001122768,新規,0,2022-03-29,2022-03-29,株式会社Ｓｗｅｌｌ　Ｓｏｕｎｄ　Ｓｔｕｄｉｏ,,株式会社,千葉県,長生郡一宮町,東浪見７３０９番地７,,12,421,2994303,,,,,,,2022-03-29,1,,,,,スウェルサウンドスタジオ,0
986,5040003019764,新規,0,2022-03-29,2022-03-29,ＡＵＳＭＯＲＥ　ＧＬＯＢＡＬ合同会社,,合同会社,千葉県,八街市,沖字東沖３３８番５,,12,230,2891126,,,,,,,2022-03-29,1,,,,,オースモアグローバル,0
988,5050003006456,新規,0,2022-03-29,2022-03-29,合同会社ＰＧスタイル,,合同会社,茨城県,つくば市,研究学園４丁目２番地１４エビスタウンＡ１０４,,08,220,3050817,,,,,,,2022-03-29,1,,,,,ピージースタイル,0
989,5060001034697,新規,0,2022-03-29,2022-03-29,株式会社トゥルーディライト,,株式会社,栃木県,宇都宮市,戸祭３丁目４番１５号宇都宮プラザＩ５２５,,09,201,3200056,,,,,,,2022-03-29,1,,,,,トゥルーディライト,0
999,5110001036523,新規,0,2022-03-29,2022-03-29,Ｈｅａｖｅｎ’ｓ株式会社,,株式会社,新潟県,南魚沼市,浦佐１１８８番地２グローバルＩＴパーク,,15,226,9497302,,,,,,,2022-03-29,1,,,,,ヘブンズ,0
1008,5120001244604,新規,0,2022-03-29,2022-03-29,株式会社ＳＥＩコーポレーション,,株式会社,大阪府,大阪市中央区,島之内１丁目８番８号長堀橋ＫＯＵＲＩＮビル４階,,27,128,5420082,,,,,,,2022-03-29,1,,,,,エスイーアイコーポレーション,0
1009,5120001244728,新規,0,2022-03-29,2022-03-29,株式会社グループシナジー,,株式会社,大阪府,大阪市中央区,南船場１丁目３番９号プレミアム長堀ビル２階,,27,128,5420081,,,,,,,2022-03-29,1,,,,,グループシナジー,0
1010,5120001244752,新規,0,2022-03-29,2022-03-29,株式会社スパイラル,,株式会社,大阪府,大阪市中央区,日本橋１丁目１７番１７－６０４号,,27,128,5420073,,,,,,,2022-03-29,1,,,,,スパイラル,0
1012,5120003021332,新規,0,2022-03-29,2022-03-29,きなこ合同会社,,合同会社,大阪府,大阪市北区,天神橋３丁目８番１９号,,27,127,5300041,,,,,,,2022-03-29,1,,,,,キナコ,0
1014,5120101065289,新規,0,2022-03-29,2022-03-29,辻元設備工業株式会社,00126092,株式会社,大阪府,富田林市,錦織東２丁目１６番８号,,27,214,5840069,,,,,,,2022-03-29,1,,,,,ツジモトセツビコウギョウ,0
1016,5120901045770,新規,0,2022-03-29,2022-03-29,ＲｏｌｅＣｌｕｂ株式会社,,株式会社,大阪府,豊中市,新千里北町１丁目１番Ｃ６－３０６号,,27,203,5600081,,,,,,,2022-03-29,1,,,,,ロールクラブ,0
1020,5130001071428,新規,0,2022-03-29,2022-03-29,株式会社ｍｉｓｈｉｇｏ,,株式会社,京都府,南丹市,美山町安掛寺ノ下８－３,,26,213,6010722,,,,,,,2022-03-29,1,,,,,ミシゴ,0
1027,5140003017493,新規,0,2022-03-29,2022-03-29,盛新国際合同会社,,合同会社,兵庫県,神戸市中央区,雲井通３丁目２番３号,,28,110,6510096,,,,,,,2022-03-29,1,,,,,ジョウシンコクサイ,0
1029,5140005026096,新規,0,2022-03-29,2022-03-29,医療法人社団杉デンタルクリニック,,その他の設立登記法人,兵庫県,神戸市灘区,八幡町２丁目１０番９号,,28,102,6570051,,,,,,,2022-03-29,1,,,,,スギデンタルクリニック,0
1042,5180001150557,新規,0,2022-03-29,2022-03-29,株式会社ＵＢｅｉｎｇ,,株式会社,愛知県,名古屋市中区,金山２丁目４番１８号ゴールドハイツ渡辺８０３号,,23,106,4600022,,,,,,,2022-03-29,1,,,,,ユービーイング,0
1043,5180001150565,新規,0,2022-03-29,2022-03-29,株式会社ユーマーク,,株式会社,愛知県,名古屋市北区,大杉３丁目１４番２号－１,,23,103,4620837,,,,,,,2022-03-29,1,,,,,ユーマーク,0
1044,5180001150573,新規,0,2022-03-29,2022-03-29,株式会社Ｋ．Ｉ．Ｓ,,株式会社,愛知県,名古屋市中村区,藤江町３丁目８４ピエールプラージュ１０１号,,23,105,4530045,,,,,,,2022-03-29,1,,,,,ケイアイエス,0
1052,5190001029255,新規,0,2022-03-29,2022-03-29,エコミネ株式会社,,株式会社,三重県,津市,河芸町千里ヶ丘６０番地１２,,24,201,5100302,,,,,,,2022-03-29,1,,,,,エコミネ,0
1056,5200001039888,新規,0,2022-03-29,2022-03-29,株式会社トモトレ,,株式会社,岐阜県,大垣市,加賀野３丁目５３３番地,,21,202,5030006,,,,,,,2022-03-29,1,,,,,トモトレ,0
1058,5200003005509,新規,0,2022-03-29,2022-03-29,マルビンインダストリアル合同会社,,合同会社,岐阜県,瑞穂市,別府１４５６番地ドリーマー１０１,,21,216,5010222,,,,,,,2022-03-29,1,,,,,マルビンインダストリアル,0
1066,5250003003029,新規,0,2022-03-29,2022-03-29,合同会社まちふく,,合同会社,山口県,防府市,大字鈴屋８１２番地,,35,206,7470105,,,,,,,2022-03-29,1,,,,,マチフク,0
1076,5290001096921,新規,0,2022-03-29,2022-03-29,ｉｍｐｉａＮ株式会社,,株式会社,福岡県,福岡市城南区,神松寺３丁目４番１９－４１６号,,40,136,8140121,,,,,,,2022-03-29,1,,,,,インピアン,0
1077,5290801028371,新規,0,2022-03-29,2022-03-29,株式会社進,,株式会社,福岡県,田川郡福智町,伊方４１０８番地１,,40,610,8221211,,,,,,,2022-03-29,1,,,,,シン,0
1078,5300001012851,新規,0,2022-03-29,2022-03-29,玄海バイオガス発電株式会社,,株式会社,佐賀県,東松浦郡玄海町,大字石田惣兵衛坂３８１番地１,,41,387,8471423,,,,,,,2022-03-29,1,,,,,ゲンカイバイオガスハツデン,0
1092,5400001015828,新規,0,2022-03-29,2022-03-29,株式会社ａ‐ｌｉｖｅ　ｄｅｓｉｇｎ,,株式会社,岩手県,盛岡市,飯岡新田６地割１０番地ヴェルジェＡ－２０２号,,03,201,0200852,,,,,,,2022-03-29,1,,,,,アライブデザイン,0
1093,5410001013129,新規,0,2022-03-29,2022-03-29,秋田ＭＫアセットサービス株式会社,,株式会社,秋田県,秋田市,土崎港中央３丁目２番１８号,,05,201,0110946,,,,,,,2022-03-29,1,,,,,アキタエムケーアセットサービス,0
1104,5470001019013,新規,0,2022-03-29,2022-03-29,ファームタイキ株式会社,,株式会社,香川県,善通寺市,櫛梨町５００番地１,00126089,37,204,7650051,,,,,,,2022-03-29,1,,,,,ファームタイキ,0
1110,5700150107313,新規,0,2022-03-29,2022-03-09,ワンウェイフィルム,,その他,京都府,京都市下京区,寺町通松原下る植松町７２５－３片岡ビル５１０,,26,106,6008028,,,,,,,2022-03-09,1,,,,,ワンウエイフイルム,0
1111,5700150107544,新規,0,2022-03-29,2022-03-29,ＫＡＩ　ＭＡＲＫＥＴＩＮＧ　ＨＵＢ　ＬＬＣ,,外国会社等,東京都,品川区,北品川５丁目５番１５号大崎ブライトコア４階,,13,109,1410001,アメリカ合衆国バーモント州シェルバーン、パインヘヴン沿岸通り１４５番地１０００、Ｚ号室,,,,,,2022-03-29,1,,,,,カイマーケテイングハブエルエルシー,0
1119,6010001225416,新規,0,2022-03-29,2022-03-29,株式会社Ｍ＆Ｊ,,株式会社,東京都,文京区,本郷６丁目２－１０－１００２,,13,105,1130033,,,,,,,2022-03-29,1,,,,,エムアンドジェイ,0
1123,6010003037330,新規,0,2022-03-29,2022-03-29,合同会社ＢＩストラテジスト,,合同会社,東京都,千代田区,九段南１丁目５番６号りそな九段ビル５階ＫＳフロア,,13,101,1020074,,,,,,,2022-03-29,1,,,,,ビーアイストラテジスト,0
1124,6010003037355,新規,0,2022-03-29,2022-03-29,ナビプロ合同会社,,合同会社,東京都,中央区,銀座１丁目１２－４Ｎ＆ＥＢＬＤ．７階,,13,102,1040061,,,,,,,2022-03-29,1,,,,,ナビプロ,0
1132,6010405020867,新規,0,2022-03-29,2022-03-29,紅葉ヶ丘宿舎事業特定目的会社,,その他の設立登記法人,東京都,港区,虎ノ門５丁目１番４号,,13,103,1050001,,,,,,,2022-03-29,1,,,,,モミジガオカシュクシャジギョウ,0
1134,6010501048639,新規,0,2022-03-29,2022-03-29,リアルソリューション株式会社,,株式会社,東京都,台東区,上野１丁目２０－１,,13,106,1100005,,,,,,,2022-03-29,1,,,,,リアルソリューション,0
1138,6010701042425,新規,0,2022-03-29,2022-03-29,株式会社ネステル,,株式会社,東京都,品川区,西五反田２丁目９番７号ドルミ五反田アンメゾン８０２,,13,109,1410031,,,,,,,2022-03-29,1,,,,,ネステル,0
1150,6011001146577,新規,0,2022-03-29,2022-03-29,株式会社ＳｔａｒＣｌｉｅｎｔ,,株式会社,東京都,渋谷区,本町３丁目４３番３号パレステュディオ渋谷本町１００８,,13,113,1510071,,,,,,,2022-03-29,1,,,,,スタークライアント,0
1151,6011005009508,新規,0,2022-03-29,2022-03-29,医療法人社団Ｕ＆Ｉ,,その他の設立登記法人,東京都,渋谷区,西原３丁目７番８号フィールド代々木上原３階,,13,113,1510066,,,,,,,2022-03-29,1,,,,,ユーアンドアイ,0
1152,6011101098314,新規,0,2022-03-29,2022-03-29,株式会社ＶＡＮＱＵＩＳＨ,,株式会社,東京都,新宿区,西新宿３丁目３番１３号西新宿水間ビル６Ｆ,,13,104,1600023,,,,,,,2022-03-29,1,,,,,ヴァンキッシュ,0
1168,6012401039008,新規,0,2022-03-29,2022-03-29,株式会社プレジャーマップ,,株式会社,東京都,調布市,仙川町１丁目１４番５４号第５９東京ビル,,13,208,1820002,,,,,,,2022-03-29,1,,,,,プレジャーマップ,0
1184,6021003011522,新規,0,2022-03-29,2022-03-29,合同会社フィールドイノベーション,,合同会社,神奈川県,海老名市,中河内１２４０番地の１０,,14,215,2430416,,,,,,,2022-03-29,1,,,,,フィールドイノベーション,0
1186,6021005012411,新規,0,2022-03-29,2022-03-29,一般社団法人ＭＡＹ　ｗｉｔｈ,,その他の設立登記法人,神奈川県,茅ヶ崎市,菱沼海岸４－３０,,14,207,2530037,,,,,,,2022-03-29,1,,,,,メイウィズ,0
1188,6030001147311,新規,0,2022-03-29,2022-03-29,リッチ・ウッド株式会社,,株式会社,埼玉県,加須市,花崎２丁目３４番地１８,,11,210,3470032,,,,,,,2022-03-29,1,,,,,リッチウッド,0
1189,6030001147410,新規,0,2022-03-29,2022-03-29,株式会社ＭＯＨＩ,,株式会社,埼玉県,さいたま市浦和区,本太３丁目４番５号,,11,107,3300052,,,,,,,2022-03-29,1,,,,,モヒ,0
1190,6030002038963,新規,0,2022-03-29,2022-03-29,有限会社田中陸郎商店,,有限会社,埼玉県,南埼玉郡菖蒲町,大字菖蒲３７０番地,,11,446,3460106,,,,,,,2022-03-29,1,,,,,タナカリクロウショウテン,0
1192,6030003019104,新規,0,2022-03-29,2022-03-29,合同会社ｂｒｉｇｈｔ　ｆｕｔｕｒｅ,,合同会社,埼玉県,春日部市,新宿新田３２７番地２３１,,11,214,3440113,,,,,,,2022-03-29,1,,,,,ブライトフューチャー,0
1199,6040003019763,新規,0,2022-03-29,2022-03-29,Ｖｅｌｉｚｙ合同会社,,合同会社,千葉県,富津市,富津２３４８－２１,,12,226,2930021,,,,,,,2022-03-29,1,,,,,ベリジ,0
1204,6050005013037,新規,0,2022-03-29,2022-03-29,特定非営利活動法人Ｒｅｊｏ　Ｌｉｆｅ,,その他の設立登記法人,茨城県,つくば市,みどりの南６１番地１１,,08,220,3050884,,,,,,,2022-03-29,1,,,,,リジョライフ,0
1205,6060001034688,新規,0,2022-03-29,2022-03-29,株式会社ＮＥＯＦＡＣＴＯＲＹ,,株式会社,栃木県,宇都宮市,曲師町４番５号,,09,201,3200803,,,,,,,2022-03-29,1,,,,,ネオファクトリー,0
1206,6060001034696,新規,0,2022-03-29,2022-03-29,英煌株式会社,,株式会社,栃木県,小山市,西城南２丁目２９番地１２,,09,208,3230820,,,,,,,2022-03-29,1,,,,,エイコウ,0
1225,6120001244693,新規,0,2022-03-29,2022-03-29,ＮＩＩＣＨＩ　ＴＥＣＨＮＯＬＯＧＹ株式会社,,株式会社,大阪府,大阪市北区,西天満４丁目４番１８号,,27,127,5300047,,,,,,,2022-03-29,1,,,,,ニイチテクノロジー,0
1226,6120001244702,新規,0,2022-03-29,2022-03-29,株式会社ＬＡＩ,,株式会社,大阪府,大阪市中央区,上本町西２丁目１番３号,,27,128,5420062,,,,,,,2022-03-29,1,,,,,エルエーアイ,0
1227,6120001244735,新規,0,2022-03-29,2022-03-29,クリエイトジャパン株式会社,,株式会社,大阪府,大阪市淀川区,木川東３丁目４番１８－５０１号,,27,123,5320012,,,,,,,2022-03-29,1,,,,,クリエイトジャパン,0
1230,6120003021356,新規,0,2022-03-29,2022-03-29,合同会社素光社,,合同会社,大阪府,枚方市,岡本町７番１号,,27,210,5730031,,,,,,,2022-03-29,1,,,,,ソコウシャ,0
1231,6120003021372,新規,0,2022-03-29,2022-03-29,合同会社ビラ,,合同会社,大阪府,枚方市,楠葉並木２丁目２９番８号,,27,210,5731118,,,,,,,2022-03-29,1,,,,,ビラ,0
1232,6120101065296,新規,0,2022-03-29,2022-03-29,株式会社ネグリル,,株式会社,大阪府,堺市堺区,向陵中町６丁１番２０－４０１号,,27,141,5900024,,,,,,,2022-03-29,1,,,,,ネグリル,0
1235,6120103004624,新規,0,2022-03-29,2022-03-29,合同会社クリエーション・バロー,,合同会社,大阪府,泉南郡岬町,望海坂１丁目２２番１号,,27,366,5990304,,,,,,,2022-03-29,1,,,,,クリエーションバロー,0
1245,6130001071419,新規,0,2022-03-29,2022-03-29,株式会社ＲＳＰ　ＫＹＯＴＯ,,株式会社,京都府,京都市北区,紫竹西高縄町９８番地１ハルシティ１階,,26,101,6038205,,,,,,,2022-03-29,1,,,,,アールエスピーキョウト,0
1246,6130001071427,新規,0,2022-03-29,2022-03-29,株式会社ＩＭＰＬＡＹ,,株式会社,京都府,京都市南区,吉祥院三ノ宮西町１番地メロディーハイム西大路デュオノワール１０３,,26,107,6018318,,,,,,,2022-03-29,1,,,,,インプレイ,0
1252,6140001125363,新規,0,2022-03-29,2022-03-29,株式会社Ｓｔｒｉｎｇ,,株式会社,兵庫県,宝塚市,中山寺１丁目１－１９,,28,214,6650861,,,,,,,2022-03-29,1,,,,,ストリング,0
1255,6140003017501,新規,0,2022-03-29,2022-03-29,合同会社フォースミング,,合同会社,兵庫県,川西市,向陽台３丁目８番地の２６,,28,217,6660115,,,,,,,2022-03-29,1,,,,,フォースミング,0
1259,6160001024068,新規,0,2022-03-29,2022-03-29,株式会社柚月商事,,株式会社,滋賀県,長浜市,末広町５番４５の６号,,25,203,5260063,,,,,,,2022-03-29,1,,,,,ユヅキショウジ,0
1265,6180001150556,新規,0,2022-03-29,2022-03-29,株式会社ワイワイオート,,株式会社,愛知県,愛西市,鰯江町郷東７１番地,,23,232,4960923,,,,,,,2022-03-29,1,,,,,ワイワイオート,0
1266,6180001150564,新規,0,2022-03-29,2022-03-29,株式会社Ｙｕｕ,,株式会社,愛知県,名古屋市昭和区,明月町３丁目１３番地,,23,107,4660034,,,,,,,2022-03-29,1,,,,,ユウ,0
1272,6180301036050,新規,0,2022-03-29,2022-03-29,株式会社泰伸,,株式会社,愛知県,豊橋市,下地町字神田１６番地の１,,23,201,4400084,,,,,,,2022-03-29,1,,,,,タイシン,0
1273,6180303005292,新規,0,2022-03-29,2022-03-29,合同会社クリエーション,,合同会社,愛知県,岡崎市,柱町字南屋敷２８番地１,,23,202,4440834,,,,,,,2022-03-29,1,,,,,クリエーション,0
1275,6190001029254,新規,0,2022-03-29,2022-03-29,株式会社長吉商事,,株式会社,三重県,鈴鹿市,白子４丁目１２番１６号Ｂ棟１０２号,,24,207,5100243,,,,,,,2022-03-29,1,,,,,ナガヨシショウジ,0
1302,6360003011894,新規,0,2022-03-29,2022-03-29,合同会社Ｋ‐ダッシュ,,合同会社,沖縄県,那覇市,具志２丁目２番４３号,,47,201,9010146,,,,,,,2022-03-29,1,,,,,,0
1315,6410001013128,新規,0,2022-03-29,2022-03-29,秋田かねもと株式会社,,株式会社,秋田県,秋田市,中通４丁目１番４５号,,05,201,0100001,,,,,,,2022-03-29,1,,,,,アキタカネモト,0
1320,6430005014426,新規,0,2022-03-29,2022-03-29,あすか社会保険労務士法人,,その他の設立登記法人,北海道,千歳市,千代田町２丁目１５番ＭＡＲＵ　Ａ　ＢＬＤＧ　２Ｆ,,01,224,0660062,,,,,,,2022-03-29,1,,,,,アスカ,0
1326,6700150107485,新規,0,2022-03-29,2022-03-24,島根県立大田高等学校創立百周年記念事業実行委員会,,その他,島根県,大田市,大田町大田イ５６８,,32,205,6940064,,,,,,,2022-03-24,1,,,,,シマネケンリツオオダコウトウガツコウソウリツヒヤクシユウネンキネンジギヨウジツコウイインカイ,0
1335,7010001225464,新規,0,2022-03-29,2022-03-29,株式会社ＢＣＪ‐５９,,株式会社,東京都,千代田区,丸の内１丁目１番１号パレスビル５階,,13,101,1000005,,,,,,,2022-03-29,1,,,,,ビーシージェイフィフティーナイン,0
1336,7010001225480,新規,0,2022-03-29,2022-03-29,株式会社Ｕｎｔｒａｃｅ,,株式会社,東京都,千代田区,神田猿楽町２丁目８番１１号ＶＯＲＴ水道橋ＩＩＩ９階,00126090,13,101,1010064,,,,,,,2022-03-29,1,,,,,アントレース,0
1337,7010003037288,新規,0,2022-03-29,2022-03-29,最軽量合同会社,,合同会社,東京都,文京区,小石川４丁目１６番１３号小石川パークタワー１２０６号,,13,105,1120002,,,,,,,2022-03-29,1,,,,,サイケイリョウ,0
1350,7010401166416,新規,0,2022-03-29,2022-03-29,Ｃｙａｎｏｔｙｐｅ　ｆａｓ株式会社,,株式会社,東京都,港区,六本木５丁目１６番５０号六本木デュープレックスＭｓ２１２,,13,103,1060032,,,,,,,2022-03-29,1,,,,,サイアノタイプファズ,0
1351,7010401166424,新規,0,2022-03-29,2022-03-29,株式会社Ｎ‐ステージ,,株式会社,東京都,港区,芝２丁目１０番２－１２０１号,,13,103,1050014,,,,,,,2022-03-29,1,,,,,エヌステージ,0
1352,7010401166432,新規,0,2022-03-29,2022-03-29,株式会社ＮＯ．３２,,株式会社,東京都,港区,赤坂２丁目８番２号,,13,103,1070052,,,,,,,2022-03-29,1,,,,,ナンバーサンジュウニ,0
1369,7010801032837,新規,0,2022-03-29,2022-03-29,株式会社ＡＢＢＩＥ,,株式会社,東京都,大田区,東蒲田２丁目１６番１８号,,13,111,1440031,,,,,,,2022-03-29,1,,,,,アビー,0
1376,7011001146527,新規,0,2022-03-29,2022-03-29,平石メディカルサービス株式会社,,株式会社,東京都,渋谷区,広尾１丁目１１－５,,13,113,1500012,,,,,,,2022-03-29,1,,,,,ヒライシメディカルサービス,0
1378,7011003014418,新規,0,2022-03-29,2022-03-29,合同会社八海,,合同会社,東京都,目黒区,碑文谷１丁目１０番１９号ランドステージ碑文谷ＥＡＳＴ－３０２,,13,110,1520003,,,,,,,2022-03-29,1,,,,,ハツミ,0
1383,7011101098296,新規,0,2022-03-29,2022-03-29,株式会社ｔｏｒａｎｅｋｏ,,株式会社,東京都,新宿区,四谷４丁目２５－９マンション新宿御苑５０７,,13,104,1600004,,,,,,,2022-03-29,1,,,,,トラネコ,0
1396,7011801040508,新規,0,2022-03-29,2022-03-29,株式会社ＢＲＥＡＫ興業,,株式会社,東京都,葛飾区,立石５丁目１８番２号リグランド立石１２０３,,13,122,1240012,,,,,,,2022-03-29,1,,,,,ブレイクコウギョウ,0
1399,7012403005295,新規,0,2022-03-29,2022-03-29,合同会社スマイルコネクト,,合同会社,東京都,稲城市,百村２１３８番地の１２,,13,225,2060804,,,,,,,2022-03-29,1,,,,,スマイルコネクト,0
1401,7012703002430,新規,0,2022-03-29,2022-03-29,ＭＣＳ合同会社,,合同会社,東京都,東久留米市,南沢２丁目１７番１８号,,13,222,2030023,,,,,,,2022-03-29,1,,,,,,0
1409,7020003021506,新規,0,2022-03-29,2022-03-29,合同会社イエイル,,合同会社,神奈川県,横浜市神奈川区,三ツ沢下町１３番１５号,,14,102,2210852,,,,,,,2022-03-29,1,,,,,イエイル,0
1412,7021001075527,新規,0,2022-03-29,2022-03-29,株式会社久世技建,,株式会社,神奈川県,座間市,さがみ野２丁目７番７号大光マンション１－Ｂ号,,14,216,2520005,,,,,,,2022-03-29,1,,,,,クゼギケン,0
1413,7021001075535,新規,0,2022-03-29,2022-03-29,株式会社医療デザインＬａｂ,,株式会社,神奈川県,鎌倉市,雪ノ下１丁目３番２７号,,14,204,2480005,,,,,,,2022-03-29,1,,,,,イリョウデザインラボ,0
1432,7030003019111,新規,0,2022-03-29,2022-03-29,パーソル合同会社,,合同会社,埼玉県,川越市,大字上戸２７３番地１２（ベル・ボヌールＢ－１０１号室）,,11,201,3500816,,,,,,,2022-03-29,1,,,,,パーソル,0
1442,7050001050859,新規,0,2022-03-29,2022-03-29,株式会社ノーバル・エンジニアリング,,株式会社,茨城県,つくば市,島名４３７２番地（諏訪Ｃ２２街区７画地）,,08,220,3002655,,,,,,,2022-03-29,1,,,,,ノーバルエンジニアリング,0
1444,7060001034695,新規,0,2022-03-29,2022-03-29,株式会社上野組,,株式会社,栃木県,河内郡上三川町,大字上三川３７７９番地５９,,09,301,3290611,,,,,,,2022-03-29,1,,,,,ウエノグミ,0
1448,7080001024827,新規,0,2022-03-29,2022-03-29,株式会社ＰＲＯＯＦ,,株式会社,静岡県,静岡市葵区,瀬名川２丁目１９－３１,,22,101,4200913,,,,,,,2022-03-29,1,,,,,プルーフ,0
1458,7120001244701,新規,0,2022-03-29,2022-03-29,株式会社ＵＫＩ　ＳＭＩＬＥ,,株式会社,大阪府,大阪市中央区,南船場１丁目８番１９号,,27,128,5420081,,,,,,,2022-03-29,1,,,,,ウキスマイル,0
1459,7120001244718,新規,0,2022-03-29,2022-03-29,株式会社よかろうもん,,株式会社,大阪府,大阪市中央区,西心斎橋２丁目８番３号８Ａ,,27,128,5420086,,,,,,,2022-03-29,1,,,,,ヨカロウモン,0
1462,7120003021355,新規,0,2022-03-29,2022-03-29,合同会社Ｍａｒｕ,,合同会社,大阪府,大阪市港区,磯路２丁目１２番１号ＵＲ磯路公園団地１号棟１０４号室,,27,107,5520003,,,,,,,2022-03-29,1,,,,,マール,0
1463,7120003021371,新規,0,2022-03-29,2022-03-29,ＶＩＳＵＮＥＥ合同会社,,合同会社,大阪府,大阪市北区,梅田１丁目２番２－２００号大阪駅前第２ビル２階３の１の２,,27,127,5300001,,,,,,,2022-03-29,1,,,,,ビジュニー,0
1464,7120901045752,新規,0,2022-03-29,2022-03-29,株式会社Ｅｉｇｈｔ　Ｂ,,株式会社,大阪府,高槻市,野田２丁目１７番７号,,27,207,5690013,,,,,,,2022-03-29,1,,,,,エイトビー,0
1465,7120901045769,新規,0,2022-03-29,2022-03-29,株式会社千太郎,,株式会社,大阪府,豊中市,桜の町５丁目３番５２号,,27,203,5600054,,,,,,,2022-03-29,1,,,,,センタロウ,0
1466,7120903004070,新規,0,2022-03-29,2022-03-29,合同会社３ｒｄ　Ｐｌａｃｅ,,合同会社,大阪府,吹田市,藤白台３丁目５－１１－１０９,,27,205,5650873,,,,,,,2022-03-29,1,,,,,サードプレイス,0
1467,7130001071418,新規,0,2022-03-29,2022-03-29,株式会社Ｓｏｃｉａｌ　Ｅｄｇｅ,,株式会社,京都府,城陽市,寺田今橋２番地の２７,,26,207,6100121,,,,,,,2022-03-29,1,,,,,ソーシャルエッジ,0
1468,7130003007816,新規,0,2022-03-29,2022-03-29,合同会社ＯＮＥ　ＷＥＬＬ,,合同会社,京都府,京都市右京区,京北下弓削町狭間谷４－４３,,26,108,6010534,,,,,,,2022-03-29,1,,,,,ワンウェル,0
1474,7140003017491,新規,0,2022-03-29,2022-03-29,合同会社Ｅｘｖｉｓｉｏｎ,,合同会社,兵庫県,神戸市西区,小山３丁目３－５パレスマイセン４０３号室,,28,111,6512144,,,,,,,2022-03-29,1,,,,,エクスビジョン,0
1483,7180001150539,新規,0,2022-03-29,2022-03-29,ミレー会株式会社,,株式会社,愛知県,名古屋市西区,天神山町７番１０号,,23,104,4510065,,,,,,,2022-03-29,1,,,,,ミレーカイ,0
1485,7180003023651,新規,0,2022-03-29,2022-03-29,合同会社ＮＩＺＹＵ,,合同会社,愛知県,名古屋市西区,名駅２丁目３４番１７号セントラル名古屋１１０１号,,23,104,4510045,,,,,,,2022-03-29,1,,,,,ニジュー,0
1486,7180005019697,新規,0,2022-03-29,2022-03-29,一般社団法人とこ楽,,その他の設立登記法人,愛知県,常滑市,白山町３丁目１０１番地,,23,216,4790824,,,,,,,2022-03-29,1,,,,,トコラク,0
1488,7180303005291,新規,0,2022-03-29,2022-03-29,ＢＦ合同会社,,合同会社,愛知県,豊橋市,東光町１２番地,,23,201,4400036,,,,,,,2022-03-29,1,,,,,ビーエフ,0
1500,7230005009214,新規,0,2022-03-29,2022-03-29,医療法人社団香泉会,,その他の設立登記法人,富山県,富山市,太郎丸本町１丁目６番１５号,,16,201,9398272,,,,,,,2022-03-29,1,,,,,コウセンカイ,0
1516,7290003012313,新規,0,2022-03-29,2022-03-29,合同会社蒼天,,合同会社,福岡県,福岡市中央区,鳥飼３丁目６番１８－６０３号ラフィーネ鳥飼,,40,133,8100053,,,,,,,2022-03-29,1,,,,,ソウテン,0
1517,7290003012321,新規,0,2022-03-29,2022-03-29,ＤＨ合同会社,,合同会社,福岡県,久留米市,東町５１４－１－５０３号,,40,203,8300032,,,,,,,2022-03-29,1,,,,,ディーエイチ,0
1523,7350001017654,新規,0,2022-03-29,2022-03-29,株式会社アグリパーク宮崎,,株式会社,宮崎県,東諸県郡綾町,大字南俣５３２４番地１２６,,45,383,8801303,,,,,,,2022-03-29,1,,,,,アグリパークミヤザキ,0
1534,7410001013127,新規,0,2022-03-29,2022-03-29,株式会社リンクス,,株式会社,秋田県,横手市,十文字町字上佐吉開４９番地５,,05,203,0190531,,,,,,,2022-03-29,1,,,,,リンクス,0
1540,7460001005672,新規,0,2022-03-29,2022-03-29,株式会社日尚物産,,株式会社,北海道,釧路市,白金町５番６号,,01,206,0850034,,,,,,,2022-03-29,1,,,,,ニッショウブッサン,0
1547,8010001225513,新規,0,2022-03-29,2022-03-29,株式会社ＢａｒｌｅｙＰａｒｔｎｅｒｓ,,株式会社,東京都,中央区,八丁堀２丁目２－９コバキンビル４Ｆ,,13,102,1040032,,,,,,,2022-03-29,1,,,,,バーリーパートナーズ,0
1558,8010401166423,新規,0,2022-03-29,2022-03-29,株式会社ＴＲＵＳＴ,,株式会社,東京都,港区,芝公園１丁目２番９号,,13,103,1050011,,,,,,,2022-03-29,1,,,,,トラスト,0
1559,8010401166431,新規,0,2022-03-29,2022-03-29,株式会社ＦＵＪＩＭＡ商事,,株式会社,東京都,港区,新橋２丁目１６番１号ニュー新橋ビルＢ１－１７,,13,103,1050004,,,,,,,2022-03-29,1,,,,,フジマショウジ,0
1560,8010401166448,新規,0,2022-03-29,2022-03-29,株式会社グローサーファンド,,株式会社,東京都,港区,港南２丁目５番３号,,13,103,1080075,,,,,,,2022-03-29,1,,,,,グローサーファンド,0
1562,8010403027334,新規,0,2022-03-29,2022-03-29,合同会社ＡＢＯＳ,,合同会社,東京都,港区,白金５丁目２―６イルミナート白金４０２,,13,103,1080072,,,,,,,2022-03-29,1,,,,,アボス,0
1571,8010801032836,新規,0,2022-03-29,2022-03-29,株式会社田中建具店,,株式会社,東京都,大田区,中馬込３丁目２８番４号,,13,111,1430027,,,,,,,2022-03-29,1,,,,,タナカタテグテン,0
1573,8010803004107,新規,0,2022-03-29,2022-03-29,豊瑞合同会社,,合同会社,東京都,大田区,蒲田４丁目２７番１３号カマタハイム２０１,,13,111,1440052,,,,,,,2022-03-29,1,,,,,トヨズイ,0
1579,8011001146550,新規,0,2022-03-29,2022-03-29,株式会社ＣｏｉｌＳｉｔｅ,,株式会社,東京都,渋谷区,恵比寿西１丁目３３番６号ＪＰｎｏｉｅ恵比寿西１Ｆ,,13,113,1500021,,,,,,,2022-03-29,1,,,,,コイルサイト,0
1580,8011003014425,新規,0,2022-03-29,2022-03-29,Ａｍａｚｏｎ　Ｋｕｉｐｅｒ　Ｊａｐａｎ合同会社,,合同会社,東京都,目黒区,下目黒１丁目８番１号,,13,110,1530064,,,,,,,2022-03-29,1,,,,,アマゾンカイパージャパン,0
1584,8011101098304,新規,0,2022-03-29,2022-03-29,株式会社ティガーシブリング,,株式会社,東京都,新宿区,新宿１丁目３６番２号新宿第七葉山ビル３階,,13,104,1600022,,,,,,,2022-03-29,1,,,,,ティガーシブリング,0
1586,8011303004365,新規,0,2022-03-29,2022-03-29,富セイ合同会社,,合同会社,東京都,杉並区,高井戸東３丁目３３番８号,,13,115,1680072,,,,,,,2022-03-29,1,,,,,トミセイ,0
1589,8011501027878,新規,0,2022-03-29,2022-03-29,株式会社ＳＭＡＲＴ,,株式会社,東京都,荒川区,西日暮里１丁目２番４－１１０３号,,13,118,1160013,,,,,,,2022-03-29,1,,,,,スマート,0
1599,8013103001121,新規,0,2022-03-29,2022-03-29,合同会社ゆるふわ,,合同会社,東京都,青梅市,師岡町１丁目１１３番地の３７,,13,205,1980031,,,,,,,2022-03-29,1,,,,,ユルフワ,0
1602,8013301048864,新規,0,2022-03-29,2022-03-29,株式会社ＫＹＯ商事,,株式会社,東京都,豊島区,西池袋１丁目１１－１－１４階ＷｅＷｏｒｋメトロポリタンプラザビル,,13,116,1710021,,,,,,,2022-03-29,1,,,,,キョショウジ,0
1612,8021001075526,新規,0,2022-03-29,2022-03-29,ＧＲＥＥＮ　ＢＬＵＥ　ＳＴＵＤＩＯ株式会社,,株式会社,神奈川県,藤沢市,片瀬海岸１丁目８番２０－５Ｂ号,,14,205,2510035,,,,,,,2022-03-29,1,,,,,グリーンブルースタジオ,0
1613,8021001075542,新規,0,2022-03-29,2022-03-29,株式会社みどり建築,,株式会社,神奈川県,相模原市南区,相模大野９丁目１５番２２号緑が丘ハイツ１０２,,14,153,2520303,,,,,,,2022-03-29,1,,,,,ミドリケンチク,0
1614,8021001075550,新規,0,2022-03-29,2022-03-29,Ｅａｓｔ　Ａｄｖｅｎｔｕｒｅ株式会社,,株式会社,神奈川県,相模原市南区,東林間６丁目１５番１３号,,14,153,2520311,,,,,,,2022-03-29,1,,,,,イーストアドベンチャー,0
1618,8030001147433,新規,0,2022-03-29,2022-03-29,株式会社住成,,株式会社,埼玉県,和光市,下新倉４丁目１５番６６号,,11,229,3510111,,,,,,,2022-03-29,1,,,,,ジュウセイ,0
1619,8030001147441,新規,0,2022-03-29,2022-03-29,株式会社イデアホールディングス,,株式会社,埼玉県,八潮市,大字南後谷４８０番地１,,11,234,3400831,,,,,,,2022-03-29,1,,,,,イデアホールディングス,0
1621,8030003019110,新規,0,2022-03-29,2022-03-29,合同会社ＨＯＭＩＥ,,合同会社,埼玉県,川口市,戸塚４丁目１８番１－１０６号,,11,203,3330811,,,,,,,2022-03-29,1,,,,,ホーミー,0
1623,8040001122732,新規,0,2022-03-29,2022-03-29,株式会社炯‐ｋｅｉ‐トレーディング,,株式会社,千葉県,野田市,花井２６６番地の２Ｋ－ｆｏｒｕｍＢｌｄｇ．１－３,,12,208,2780026,,,,,,,2022-03-29,1,,,,,ケイトレーディング,0
1624,8040001122749,新規,0,2022-03-29,2022-03-29,株式会社ＪＢ　ＳＴＹＬＥ,,株式会社,千葉県,鎌ケ谷市,道野辺中央１丁目２－６大野ビル２０２号,,12,224,2730113,,,,,,,2022-03-29,1,,,,,ジェイビースタイル,0
1625,8040003019737,新規,0,2022-03-29,2022-03-29,ジーク運輸ＬＬＣ合同会社,,合同会社,千葉県,富里市,日吉倉２４番地,,12,233,2860202,,,,,,,2022-03-29,1,,,,,ジークウンユエルエルシー,0
1631,8060001034694,新規,0,2022-03-29,2022-03-29,株式会社ＧＲＯＷＴＨ,,株式会社,栃木県,宇都宮市,御幸町２８６番地８,,09,201,3210984,,,,,,,2022-03-29,1,,,,,グロース,0
1635,8080001024826,新規,0,2022-03-29,2022-03-29,株式会社ＳＵＷＡＤＡ設計,,株式会社,静岡県,静岡市駿河区,向手越１丁目１番２８－４０３号,,22,102,4210107,,,,,,,2022-03-29,1,,,,,スワダセッケイ,0
1638,8080003002763,新規,0,2022-03-29,2022-03-29,合同会社Ｃ＆Ｉ,,合同会社,静岡県,静岡市駿河区,丸子芹が谷町６－１０－２,,22,102,4210104,,,,,,,2022-03-29,1,,,,,シーアンドアイ,0
1640,8080401025705,新規,0,2022-03-29,2022-03-29,株式会社竹下塗工店,,株式会社,静岡県,掛川市,連雀１番地の８,,22,213,4360093,,,,,,,2022-03-29,1,,,,,タケシタトコウテン,0
1645,8100001035176,新規,0,2022-03-29,2022-03-29,株式会社ＷｉｓｔｅｒｉａＦｏｒｅｓｔ,,株式会社,長野県,北佐久郡軽井沢町,大字長倉１２５９番２２３軽井沢グリーンプラザ３－Ａ,,20,321,3890111,,,,,,,2022-03-29,1,,,,,ウィステリアフォレスト,0
1646,8100005012840,新規,0,2022-03-29,2022-03-29,一般社団法人Ｇｌｏｂａｌ　Ｓｔｅｐ,,その他の設立登記法人,長野県,松本市,大手４丁目９番１６号,,20,202,3900874,,,,,,,2022-03-29,1,,,,,グローバルステップ,0
1648,8110001036529,新規,0,2022-03-29,2022-03-29,株式会社リライアブルエージェンシー,,株式会社,新潟県,新潟市中央区,蒲原町３番２８号明石ショッピングセンター９号室,,15,103,9500083,,,,,,,2022-03-29,1,,,,,リライアブルエージェンシー,0
1660,8120001244700,新規,0,2022-03-29,2022-03-29,株式会社ＭＥＲＵＲＵ,,株式会社,大阪府,門真市,大橋町２６番３１号,,27,223,5710077,,,,,,,2022-03-29,1,,,,,メルル,0
1661,8120001244717,新規,0,2022-03-29,2022-03-29,株式会社ＢＬＵＥ　ＵＮＩＶＥＲＳＥ,,株式会社,大阪府,大阪市中央区,道頓堀２丁目２番２０号カーサポンテ５０４号室,,27,128,5420071,,,,,,,2022-03-29,1,,,,,ブルーユニバース,0
1662,8120001244725,新規,0,2022-03-29,2022-03-29,株式会社アンカー,,株式会社,大阪府,大阪市此花区,梅香３丁目３２番１号,,27,104,5540013,,,,,,,2022-03-29,1,,,,,アンカー,0
1665,8120005022862,新規,0,2022-03-29,2022-03-29,一般社団法人治安防災研究機構,,その他の設立登記法人,大阪府,大阪市北区,堂島２丁目２番２号近鉄堂島ビル１５階堂島パートナーズ内,,27,127,5300003,,,,,,,2022-03-29,1,,,,,チアンボウサイケンキュウキコウ,0
1667,8120101065294,新規,0,2022-03-29,2022-03-29,クラフト株式会社,,株式会社,大阪府,堺市西区,菱木３丁２４８３番地１０,,27,144,5938315,,,,,,,2022-03-29,1,,,,,クラフト,0
1692,8180001150570,新規,0,2022-03-29,2022-03-29,ＡＥＴ　ＧＲＯＵＰ株式会社,,株式会社,愛知県,名古屋市中川区,柳森町２４０３番地ペルファボーレ１階Ａ号室,,23,110,4540871,,,,,,,2022-03-29,1,,,,,エーイーティーグループ,0
1709,8220003003251,新規,0,2022-03-29,2022-03-29,合同会社Ｖａｒｓ,,合同会社,石川県,野々市市,下林４丁目１３８番地,,17,212,9218831,,,,,,,2022-03-29,1,,,,,バース,0
1720,8290001096935,新規,0,2022-03-29,2022-03-29,株式会社マツヤマ機材,,株式会社,福岡県,大川市,大字榎津３５９番地１,,40,212,8310004,,,,,,,2022-03-29,1,,,,,マツヤマキザイ,0
1725,8310003004315,新規,0,2022-03-29,2022-03-29,ワークライフ・コンシェルジュ合同会社,,合同会社,長崎県,長崎市,新戸町１丁目３５番３０－６０４号,,42,201,8500954,,,,,,,2022-03-29,1,,,,,ワークライフコンシェルジュ,0
1743,8420001017778,新規,0,2022-03-29,2022-03-29,株式会社麻生,,株式会社,青森県,青森市,沖館５丁目２１－８,,02,201,0380002,,,,,,,2022-03-29,1,,,,,アソウ,0
1744,8420003002489,新規,0,2022-03-29,2022-03-29,合同会社ＹＭＴＧ,,合同会社,青森県,弘前市,大字清原２丁目６番地４,,02,202,0368163,,,,,,,2022-03-29,1,,,,,ワイエムティージー,0
1750,8430005014424,新規,0,2022-03-29,2022-03-29,医療法人中の島はやし皮フ科,,その他の設立登記法人,北海道,札幌市豊平区,中の島二条２丁目１番１号中の島ステーションビル４階,,01,105,0620922,,,,,,,2022-03-29,1,,,,,ナカノシマハヤシヒフカ,0
1761,8700150031659,新規,0,2022-03-29,2015-10-09,ミシガン州立大学連合日本センター,,その他,滋賀県,彦根市,松原町網代口１４３５－８６,,25,202,5220002,４２７　Ｎ．Ｓｈａｗ　Ｌａｎｅ，ＲＯＯＭ　１１０，Ｅａｓｔ　Ｌａｎｓｉｎｇ，ＭＩ，４８８２４,,,,,,2015-10-09,1,,,,,ミシガンシユウリツダイガクレンゴウニホンセンター,0
1771,9010001225405,新規,0,2022-03-29,2022-03-29,株式会社すごい人工芝,,株式会社,東京都,中央区,銀座２丁目１１番９号,,13,102,1040061,,,,,,,2022-03-29,1,,,,,スゴイジンコウシバ,0
1772,9010001225495,新規,0,2022-03-29,2022-03-29,ＲＡＩＮＢＯＷ　ＡＧＲＯＳＣＩＥＮＣＥＳ株式会社,,株式会社,東京都,中央区,東日本橋２丁目２８番５号５０８,,13,102,1030004,,,,,,,2022-03-29,1,,,,,レインボーアグロサイエンス,0
1773,9010003037336,新規,0,2022-03-29,2022-03-29,ＦＡＬ　Ｅｕｒｏｐｅ　ＧＫ合同会社,,合同会社,東京都,千代田区,丸の内２丁目３番２号郵船ビルアルタードムス・ジャパン株式会社内,,13,101,1000005,,,,,,,2022-03-29,1,,,,,エフエーエルヨーロッパジーケー,0
1778,9010401166372,新規,0,2022-03-29,2022-03-29,ワヲジャパントラベル株式会社,,株式会社,東京都,港区,南青山３丁目１番３号スプライン青山東急ビル４Ｆ,,13,103,1070062,,,,,,,2022-03-29,1,,,,,ワヲジャパントラベル,0
1779,9010401166414,新規,0,2022-03-29,2022-03-29,株式会社白石地所,,株式会社,東京都,港区,芝３丁目６番９号芝公園プラザビル９Ｆ,,13,103,1050014,,,,,,,2022-03-29,1,,,,,シライシジショ,0
1783,9010403027309,新規,0,2022-03-29,2022-03-29,合同会社ｍｏｕｎａ,,合同会社,東京都,港区,南青山４丁目１３－１１,,13,103,1070062,,,,,,,2022-03-29,1,,,,,モーナ,0
1785,9010501048636,新規,0,2022-03-29,2022-03-29,株式会社日本デザインビルド,,株式会社,東京都,台東区,谷中２丁目７番６号,,13,106,1100001,,,,,,,2022-03-29,1,,,,,ニホンデザインビルド,0
1787,9010701042422,新規,0,2022-03-29,2022-03-29,株式会社Ｃｔｙｕｐ,,株式会社,東京都,品川区,西品川１丁目１番１号住友不動産大崎ガーデンタワー９階,,13,109,1410033,,,,,,,2022-03-29,1,,,,,シータイプ,0
1788,9010705003338,新規,0,2022-03-29,2022-03-29,一般社団法人ＬＰＧＶＬＧＣ一号,,その他の設立登記法人,東京都,品川区,大井７丁目６番２３号,,13,109,1400014,,,,,,,2022-03-29,1,,,,,エルピージーブイエルジーシーイチゴウ,0
1794,9011001146582,新規,0,2022-03-29,2022-03-29,ケビンコンサルティング株式会社,,株式会社,東京都,渋谷区,道玄坂１丁目１０番８号渋谷道玄坂東急ビル２Ｆ－Ｃ,,13,113,1500043,,,,,,,2022-03-29,1,,,,,ケビンコンサルティング,0
1802,9011101098294,新規,0,2022-03-29,2022-03-29,Ｂ＆Ｉパートナーズ株式会社,,株式会社,東京都,新宿区,新宿１丁目９番４号,,13,104,1600022,,,,,,,2022-03-29,1,,,,,ビーアンドアイパートナーズ,0
1803,9011101098311,新規,0,2022-03-29,2022-03-29,株式会社Ｍｉｃｅｌｌｅ,,株式会社,東京都,新宿区,西新宿３丁目３番１３号西新宿水間ビル６階,,13,104,1600023,,,,,,,2022-03-29,1,,,,,ミセル,0
1804,9011301027672,新規,0,2022-03-29,2022-03-29,株式会社ＳＫリホーム,,株式会社,東京都,杉並区,高円寺北３丁目２２番１９号利研ビル４０１号室,,13,115,1660002,,,,,,,2022-03-29,1,,,,,エスケーリホーム,0
1810,9011805003161,新規,0,2022-03-29,2022-03-29,医療法人社団ＳＤ会,,その他の設立登記法人,東京都,足立区,一ツ家３丁目２２番６号ヴェステンフェルト１階,,13,121,1210075,,,,,,,2022-03-29,1,,,,,エスディーカイ,0
1812,9012401038997,新規,0,2022-03-29,2022-03-29,株式会社東京研精会インターナショナル,,株式会社,東京都,調布市,東つつじケ丘２丁目２７番地１,,13,208,1820005,,,,,,,2022-03-29,1,,,,,トウキョウケンセイカイインターナショナル,0
1815,9012703002429,新規,0,2022-03-29,2022-03-29,合同会社Ｏｃｅａｎ　Ｇａｔｅ,,合同会社,東京都,清瀬市,中清戸４丁目９７５番地７,,13,221,2040012,,,,,,,2022-03-29,1,,,,,オーシャンゲート,0
1823,9020001145817,新規,0,2022-03-29,2022-03-29,株式会社ＴａＦ,,株式会社,神奈川県,横浜市緑区,中山１丁目７番８号,,14,113,2260019,,,,,,,2022-03-29,1,,,,,タフ,0
1824,9020001145841,新規,0,2022-03-29,2022-03-29,株式会社希望,,株式会社,神奈川県,横浜市旭区,中希望が丘１０８,,14,112,2410825,,,,,,,2022-03-29,1,,,,,キボウ,0
1841,9030001147440,新規,0,2022-03-29,2022-03-29,株式会社ロンソロ,,株式会社,埼玉県,越谷市,赤山本町３番地２４ライオンズグローベル越谷ステーションプラザ１２０１号,,11,222,3430808,,,,,,,2022-03-29,1,,,,,ロンソロ,0
1845,9030003019084,新規,0,2022-03-29,2022-03-29,合同会社ＰＡＧＥ　ｃｒｅａｔｉｏｎ,,合同会社,埼玉県,狭山市,広瀬東１丁目２－８,,11,215,3501320,,,,,,,2022-03-29,1,,,,,ページクリエイション,0
1848,9040001122764,新規,0,2022-03-29,2022-03-29,翔栄建設株式会社,,株式会社,千葉県,千葉市中央区,新宿２丁目１６番２３号,,12,101,2600021,,,,,,,2022-03-29,1,,,,,ショウセイケンセツ,0
1853,9060001034693,新規,0,2022-03-29,2022-03-29,株式会社慈沙心,,株式会社,栃木県,那須塩原市,島方６６１番地,,09,213,3293152,,,,,,,2022-03-29,1,,,,,ジサシン,0
1856,9080003002762,新規,0,2022-03-29,2022-03-29,合同会社ＩＶＹ　ＧＲＥＥＮ,,合同会社,静岡県,藤枝市,下当間２７６番地１,,22,214,4260003,,,,,,,2022-03-29,1,,,,,アイビーグリーン,0
1865,9110005016773,新規,0,2022-03-29,2022-03-29,ワールド架け橋事業協同組合,,その他の設立登記法人,新潟県,中魚沼郡津南町,大字下船渡己６１１６番地,,15,482,9498201,,,,,,,2022-03-29,1,,,,,ワールドカケハシ,0
1871,9120001244699,新規,0,2022-03-29,2022-03-29,株式会社ＡＬＬ　ＩＮ,,株式会社,大阪府,大阪市平野区,加美鞍作１丁目４番２２号,,27,126,5470004,,,,,,,2022-03-29,1,,,,,オールイン,0
1872,9120001244732,新規,0,2022-03-29,2022-03-29,栄華国際株式会社,,株式会社,大阪府,大阪市阿倍野区,阪南町３丁目４０番９号,,27,119,5450021,,,,,,,2022-03-29,1,,,,,エイカコクサイ,0
1873,9120001244740,新規,0,2022-03-29,2022-03-29,ＮＦＴ　Ｃｒｅａｔｅ　ＪＡＰＡＮ株式会社,,株式会社,大阪府,大阪市北区,豊崎３丁目１６－１６－４３０５号,,27,127,5310072,,,,,,,2022-03-29,1,,,,,エヌエフティークリエイトジャパン,0
1876,9120003021361,新規,0,2022-03-29,2022-03-29,クリーンエナジーパートナー合同会社,,合同会社,大阪府,大阪市住之江区,緑木１丁目１番６－１１０４号,,27,125,5590022,,,,,,,2022-03-29,1,,,,,クリーンエナジーパートナー,0
1878,9120005022861,新規,0,2022-03-29,2022-03-29,災害・復興支援特定非営利活動法人キャンライズ,,その他の設立登記法人,大阪府,大阪市中央区,瓦屋町２丁目４番１８号セントロミラグレ大向ビル３階,,27,128,5420066,,,,,,,2022-03-29,1,,,,,サイガイフッコウシエンキャンライズ,0
1880,9120101065293,新規,0,2022-03-29,2022-03-29,株式会社武商,,株式会社,大阪府,堺市南区,美木多上２６２６番地１,,27,145,5900136,,,,,,,2022-03-29,1,,,,,タケショウ,0
1881,9122001035707,新規,0,2022-03-29,2022-03-29,株式会社アーバンコネクト,,株式会社,大阪府,八尾市,明美町２丁目５番１４号,,27,212,5810087,,,,,,,2022-03-29,1,,,,,アーバンコネクト,0
1891,9140003017498,新規,0,2022-03-29,2022-03-29,合同会社ＣＵＯＲＥ,,合同会社,兵庫県,明石市,田町１丁目９番３９,,28,203,6730025,,,,,,,2022-03-29,1,,,,,クオーレ,0
1905,9180301036056,新規,0,2022-03-29,2022-03-29,株式会社ＨＤ,,株式会社,愛知県,岡崎市,大樹寺２丁目６番地１,,23,202,4442134,,,,,,,2022-03-29,1,,,,,エイチディー,0
1913,9200001039892,新規,0,2022-03-29,2022-03-29,株式会社菓子ＳＡＣＨＩ,,株式会社,岐阜県,岐阜市,柳津町東塚４丁目１０番地,,21,201,5016102,,,,,,,2022-03-29,1,,,,,カシサチ,0
1917,9210005010015,新規,0,2022-03-29,2022-03-29,一般社団法人ＮＩＥＮ,,その他の設立登記法人,福井県,福井市,大手１丁目１７番１４号,,18,201,9100005,,,,,,,2022-03-29,1,,,,,ニエン,0
1920,9240001059508,新規,0,2022-03-29,2022-03-29,ＳＥＭ綜合警備株式会社,,株式会社,広島県,広島市中区,堺町１丁目３番１４号,,34,101,7300853,,,,,,,2022-03-29,1,,,,,エスイーエムソウゴウケイビ,0
1940,9290003012328,新規,0,2022-03-29,2022-03-29,合同会社Ｉｍｐａｒｆａｉｔ,,合同会社,福岡県,福岡市中央区,大濠１丁目７－３２,,40,133,8100052,,,,,,,2022-03-29,1,,,,,アンパフェ,0
1942,9290005018604,新規,0,2022-03-29,2022-03-29,一般社団法人シニアライフサポート協会福岡,,その他の設立登記法人,福岡県,福岡市西区,泉１丁目３１番１１号,,40,135,8190381,,,,,,,2022-03-29,1,,,,,シニアライフサポートキョウカイフクオカ,0
1945,9320005009979,新規,0,2022-03-29,2022-03-29,特定非営利活動法人岐部ふるさと興す会,,その他の設立登記法人,大分県,国東市,国見町岐部５３６番地,,44,214,8721614,,,,,,,2022-03-29,1,,,,,キベフルサトオコスカイ,0
1949,9370003005629,新規,0,2022-03-29,2022-03-29,合同会社ハシメ,,合同会社,宮城県,仙台市若林区,若林３丁目３番３５号,,04,103,9840826,,,,,,,2022-03-29,1,,,,,ハシメ,0
1950,9370005010461,新規,0,2022-03-29,2022-03-29,社会福祉法人遊創の森,,その他の設立登記法人,宮城県,遠田郡涌谷町,涌谷字中江南２２２番地,,04,501,9870121,,,,,,,2022-03-29,1,,,,,ユウソウノモリ,0
