sequenceNumber,corporateNumber,process,correct,updateDate,changeDate,name,nameImageId,kind,prefectureName,cityName,streetNumber,addressImageId,prefectureCode,cityCode,postCode,addressOutside,addressOutsideImageId,closeDate,closeCause,successorCorporateNumber,changeCause,assignmentDate,latest,enName,enPrefectureName,enCityName,enAddressOutside,furigana,hihyoji
18,1010402030964,登記記録の閉鎖等,0,2022-01-11,2021-12-27,サロットデッリリス有限会社,,有限会社,東京都,港区,麻布台１丁目１番２０号麻布台ユニハウス４０４号,,13,103,1060041,,,2021-12-27,清算の結了等,,,2015-10-05,1,,,,,サロットデッリリス,0
19,1010403014859,登記記録の閉鎖等,0,2022-01-11,2021-12-27,合同会社出水野田,,合同会社,東京都,港区,虎ノ門１丁目２番８号リニューアブル・ジャパン株式会社内,,13,103,1050001,,,2021-12-27,清算の結了等,,,2016-05-30,1,,,,,イズミノダ,0
31,1011001129792,登記記録の閉鎖等,0,2022-01-11,2021-12-22,株式会社コペルニクス,,株式会社,東京都,渋谷区,神宮前２丁目２番３９－２００６号,,13,113,1500001,,,2021-12-22,合併による解散等,7010402033846,令和３年１２月２２日東京都渋谷区神宮前五丁目４２番１３号株式会社Ｌｅｉ　Ｈａｕ’ｏｌｉ（7010402033846）に合併し解散,2019-09-09,1,,,,,コペルニクス,0
48,1011601022439,登記記録の閉鎖等,0,2022-01-11,2022-01-06,株式会社ランクリード,,株式会社,東京都,練馬区,練馬１丁目８番４号,,13,120,1760001,,,2022-01-06,清算の結了等,,,2018-03-15,1,,,,,ランクリード,0
49,1011602009385,登記記録の閉鎖等,0,2022-01-11,2022-01-11,有限会社味彩,,有限会社,東京都,練馬区,東大泉５丁目３６番１２号森川ビル１Ｆ,,13,120,1780063,,,2022-01-11,登記官による閉鎖,,,2015-10-05,1,,,,,,0
96,1030002029835,登記記録の閉鎖等,0,2022-01-11,2022-01-06,有限会社スタジオビン,,有限会社,埼玉県,所沢市,北有楽町１７番１４号,,11,208,3591114,,,2022-01-06,清算の結了等,,,2015-10-05,1,,,,,スタジオビン,0
97,1030002031238,登記記録の閉鎖等,0,2022-01-11,2022-01-05,有限会社町普請計画研究所,,有限会社,埼玉県,所沢市,寿町９番１６号,,11,208,3591122,,,2022-01-05,清算の結了等,,,2015-10-05,1,,,,,マチブシンケイカクケンキュウジョ,0
103,1040001006702,登記記録の閉鎖等,0,2022-01-11,2022-01-04,株式会社フロンヴィルホーム千葉,,株式会社,千葉県,千葉市美浜区,中瀬２丁目６番地１ワールドビジネスガーデンマリブイースト１７階,,12,106,2610023,,,2022-01-04,清算の結了等,,,2015-10-05,1,,,,,,0
114,1040002008672,登記記録の閉鎖等,0,2022-01-11,2022-01-04,有限会社中久,,有限会社,千葉県,千葉市緑区,大木戸町１１８５番地,,12,105,2670057,,,2022-01-04,清算の結了等,,,2015-10-05,1,,,,,ナカヒサ,0
124,1080001022563,登記記録の閉鎖等,0,2022-01-11,2022-01-04,エネリア静岡中央株式会社,,株式会社,静岡県,静岡市駿河区,池田２８番地,,22,102,4228005,,,2022-01-04,合併による解散等,9080001022564,令和４年１月１日静岡市駿河区池田２８番地エネリア静岡株式会社（9080001022564）に合併し解散,2018-11-29,1,,,,,エネリアシズオカチュウオウ,0
125,1080002007431,登記記録の閉鎖等,0,2022-01-11,2022-01-06,有限会社マテリアルカーム,,有限会社,静岡県,静岡市駿河区,聖一色７９番地の８,,22,102,4228007,,,2022-01-06,清算の結了等,,,2015-10-05,1,,,,,マテリアルカーム,0
141,1120001214866,登記記録の閉鎖等,0,2022-01-11,2022-01-05,株式会社ｌｍｃ,,株式会社,大阪府,大阪市淀川区,西中島３丁目１７番５号,,27,123,5320011,,,2022-01-05,清算の結了等,,,2018-07-26,1,,,,,エルエムシー,0
160,1120901031898,登記記録の閉鎖等,0,2022-01-11,2022-01-06,ムーフテクノロジー株式会社,,株式会社,大阪府,吹田市,五月が丘西１番Ａ－３０２号,,27,205,5650833,,,2022-01-06,清算の結了等,,,2015-10-05,1,,,,,ムーフテクノロジー,0
173,1140001086866,登記記録の閉鎖等,0,2022-01-11,2022-01-04,ナンワ株式会社,,株式会社,兵庫県,神戸市兵庫区,浜中町２丁目１８番１２号,,28,105,6520875,,,2022-01-04,合併による解散等,9140001013747,令和３年１２月３１日神戸市兵庫区浜中町二丁目１８番１２号ナンコー商事株式会社（9140001013747）に合併し解散,2015-10-05,1,,,,,ナンワ,0
182,1150002001047,登記記録の閉鎖等,0,2022-01-11,2022-01-05,有限会社大和リース,,有限会社,奈良県,奈良市,神殿町６８５番地の１,,29,201,6308441,,,2022-01-05,清算の結了等,,,2015-10-05,1,,,,,ダイワリース,0
192,1180001089980,登記記録の閉鎖等,0,2022-01-11,2022-01-06,株式会社ユニゾン,,株式会社,愛知県,一宮市,あずら３丁目３番６号,,23,203,4910835,,,2022-01-06,清算の結了等,,,2015-10-05,1,,,,,,0
207,1200002012204,登記記録の閉鎖等,0,2022-01-11,2022-01-07,有限会社アオキ,,有限会社,岐阜県,大垣市,南頬町２丁目７８番地,00081010,21,202,5030864,,,2022-01-07,清算の結了等,,,2015-10-05,1,,,,,アオキ,0
213,1210002011626,登記記録の閉鎖等,0,2022-01-11,2021-12-28,光栄スカート有限会社,,有限会社,福井県,越前市,高瀬２丁目２番３４号,,18,209,9150832,,,2021-12-28,清算の結了等,,,2015-10-05,1,,,,,コウエイスカート,0
244,1300001010660,登記記録の閉鎖等,0,2022-01-11,2022-01-04,ｏｆｆｉｃｅ　Ｕ株式会社,,株式会社,佐賀県,佐賀市,鍋島２丁目９番３号,,41,201,8490937,,,2022-01-04,清算の結了等,,,2017-02-03,1,,,,,オフィスユー,0
267,1380001017748,登記記録の閉鎖等,0,2022-01-11,2022-01-04,磐梯観光船株式会社,,株式会社,福島県,耶麻郡猪苗代町,大字堅田字宮西１０６０番２,,07,408,9693132,,,2022-01-04,清算の結了等,,,2015-10-05,1,,,,,バンダイカンコウセン,0
287,1500001000022,登記記録の閉鎖等,0,2022-01-11,2021-12-28,ＮＩＳグループ株式会社,,株式会社,愛媛県,松山市,千舟町５丁目７番地６,,38,201,7900011,,,2021-12-28,清算の結了等,,,2015-10-05,1,,,,,エヌアイエスグループ,0
304,2010005025824,登記記録の閉鎖等,0,2022-01-11,2022-01-06,一般社団法人唐津市湊風力発電,,その他の設立登記法人,東京都,千代田区,丸の内３丁目１番１号東京共同会計事務所内,,13,101,1000005,,,2022-01-06,清算の結了等,,,2016-09-20,1,,,,,カラツシミナトフウリョクハツデン,0
309,2010401140053,登記記録の閉鎖等,0,2022-01-11,2022-01-04,株式会社ユニーク,,株式会社,東京都,渋谷区,神宮前２丁目３４番１７号,,13,113,1500001,,,2022-01-04,合併による解散等,4010001147364,令和３年１２月１日札幌市中央区大通西二十五丁目３番１号株式会社ＮＤＨ（4010001147364）に合併し解散,2018-08-07,1,,,,,ユニーク,0
329,2010903005019,登記記録の閉鎖等,0,2022-01-11,2022-01-04,合同会社エゴイスト,,合同会社,東京都,世田谷区,若林２丁目２８番２７号,,13,112,1540023,,,2022-01-04,清算の結了等,,,2019-06-14,1,,,,,エゴイスト,0
347,2011601004832,登記記録の閉鎖等,0,2022-01-11,2022-01-11,株式会社トキワ機械,,株式会社,東京都,練馬区,大泉学園町１丁目１６番２４号,,13,120,1780061,,,2022-01-11,登記官による閉鎖,,,2015-10-05,1,,,,,,0
348,2011601004840,登記記録の閉鎖等,0,2022-01-11,2022-01-11,株式会社徳龍建設,,株式会社,東京都,練馬区,西大泉３丁目２３番２２号,,13,120,1780065,,,2022-01-11,登記官による閉鎖,,,2015-10-05,1,,,,,,0
349,2011601006408,登記記録の閉鎖等,0,2022-01-11,2022-01-11,株式会社マルタ商事,,株式会社,東京都,練馬区,早宮４丁目１番１６号,,13,120,1790085,,,2022-01-11,登記官による閉鎖,,,2015-10-05,1,,,,,,0
350,2011601007711,登記記録の閉鎖等,0,2022-01-11,2022-01-11,株式会社アスト,,株式会社,東京都,練馬区,上石神井１丁目３４番２４号,,13,120,1770044,,,2022-01-11,登記官による閉鎖,,,2015-10-05,1,,,,,,0
351,2011601012331,登記記録の閉鎖等,0,2022-01-11,2022-01-11,株式会社Ｌｕｎｅ　Ｌａｐｉｎ,,株式会社,東京都,練馬区,北町８丁目２６番１８号相原荘１０２,,13,120,1790081,,,2022-01-11,登記官による閉鎖,,,2015-10-05,1,,,,,,0
352,2011601012414,登記記録の閉鎖等,0,2022-01-11,2022-01-11,株式会社シー・ティー・エム,,株式会社,東京都,練馬区,石神井町８丁目１８番２９号,,13,120,1770041,,,2022-01-11,登記官による閉鎖,,,2015-10-05,1,,,,,,0
353,2011601014798,登記記録の閉鎖等,0,2022-01-11,2022-01-11,株式会社グローバルアイ,,株式会社,東京都,練馬区,南田中３丁目３１番８号,,13,120,1770035,,,2022-01-11,登記官による閉鎖,,,2015-10-05,1,,,,,,0
354,2011601015961,登記記録の閉鎖等,0,2022-01-11,2022-01-11,株式会社ＡＩクリエイト,,株式会社,東京都,練馬区,豊玉中２丁目１２番６号,,13,120,1760013,,,2022-01-11,登記官による閉鎖,,,2015-10-05,1,,,,,,0
355,2011602011547,登記記録の閉鎖等,0,2022-01-11,2022-01-11,有限会社ジョウサイ,,有限会社,東京都,練馬区,大泉町２丁目１５番２号,,13,120,1780062,,,2022-01-11,登記官による閉鎖,,,2015-10-05,1,,,,,,0
356,2011602024012,登記記録の閉鎖等,0,2022-01-11,2022-01-11,有限会社かぜ商事,,有限会社,東京都,練馬区,早宮２丁目１８番２３号,,13,120,1790085,,,2022-01-11,登記官による閉鎖,,,2015-10-05,1,,,,,,0
373,2020001016074,登記記録の閉鎖等,0,2022-01-11,2021-12-28,みなとみらい新聞販売株式会社,,株式会社,神奈川県,横浜市西区,戸部町４丁目１３１番地,,14,103,2200042,,,2021-12-28,清算の結了等,,,2015-10-05,1,,,,,ミナトミライシンブンハンバイ,0
378,2020002098756,登記記録の閉鎖等,0,2022-01-11,2022-01-05,有限会社平柳商会,,有限会社,神奈川県,川崎市川崎区,大島３丁目１７番３号,,14,131,2100834,,,2022-01-05,清算の結了等,,,2015-10-05,1,,,,,ヒラヤナギショウカイ,0
420,2060001032704,登記記録の閉鎖等,0,2022-01-11,2021-12-28,ライフガーデン土地建物株式会社,,株式会社,栃木県,那須塩原市,大原間４０４番地１８,,09,213,3293153,,,2021-12-28,清算の結了等,,,2020-06-17,1,,,,,ライフガーデントチタテモノ,0
422,2060003003496,登記記録の閉鎖等,0,2022-01-11,2021-12-24,合同会社Ｃｏｌｏｒ　ｏｆ　Ｌｏｖｅ,,合同会社,栃木県,足利市,上渋垂町４７０－１２,,09,202,3260335,,,2021-12-24,清算の結了等,,,2020-11-02,1,,,,,カラーオブラブ,0
427,2080102004518,登記記録の閉鎖等,0,2022-01-11,2022-01-06,有限会社豆久,,有限会社,静岡県,裾野市,伊豆島田１９２番地の３,,22,220,4101123,,,2022-01-06,清算の結了等,,,2015-10-05,1,,,,,,0
441,2120001068535,登記記録の閉鎖等,0,2022-01-11,2022-01-04,株式会社日住,,株式会社,大阪府,大阪市北区,梅田１丁目１１番４－３００号,,27,127,5300001,,,2022-01-04,合併による解散等,3120001068534,令和４年１月１日大阪市北区梅田一丁目１１番４－３００号株式会社日住サービス（3120001068534）に合併し解散,2015-10-05,1,,,,,ニチジュウ,0
456,2120002037489,登記記録の閉鎖等,0,2022-01-11,2022-01-05,有限会社長田商店,,有限会社,大阪府,大阪市中央区,久太郎町２丁目５番５号,,27,128,5410056,,,2022-01-05,清算の結了等,,,2015-10-05,1,,,,,オサダショウテン,0
457,2120002053206,登記記録の閉鎖等,0,2022-01-11,2022-01-05,有限会社アクティブ・イシイ,,有限会社,大阪府,大阪市西区,西本町１丁目１３番３８号,,27,106,5500005,,,2022-01-05,清算の結了等,,,2015-10-05,1,,,,,アクティブイシイ,0
463,2120102015452,登記記録の閉鎖等,0,2022-01-11,2022-01-04,有限会社ツインサービス,,有限会社,大阪府,松原市,三宅中３丁目１５番２４号,,27,217,5800046,,,2022-01-04,清算の結了等,,,2015-10-05,1,,,,,ツインサービス,0
467,2122001024922,登記記録の閉鎖等,0,2022-01-11,2022-01-05,株式会社トドクック,,株式会社,大阪府,八尾市,上尾町４丁目１１番１７号,,27,212,5810851,,,2022-01-05,清算の結了等,,,2015-10-05,1,,,,,トドクック,0
488,2170001016126,登記記録の閉鎖等,0,2022-01-11,2021-12-28,株式会社ウィーテック,,株式会社,和歌山県,和歌山市,今福５丁目３番３号,,30,201,6410044,,,2021-12-28,合併による解散等,4170001000846,令和３年１２月２８日和歌山市今福五丁目３番３号キタヤマトーヨー住器株式会社（4170001000846）に合併し解散,2020-06-09,1,,,,,ウィーテック,0
491,2180001119729,登記記録の閉鎖等,0,2022-01-11,2022-01-06,株式会社エフセット,,株式会社,愛知県,瀬戸市,東長根町１７１番地の３,,23,204,4890871,,,2022-01-06,清算の結了等,,,2015-10-05,1,,,,,エフセット,0
505,2190001004632,登記記録の閉鎖等,0,2022-01-11,2022-01-07,株式会社吉祥,,株式会社,三重県,北牟婁郡紀北町,東長島３４５０番地１,,24,543,5193204,,,2022-01-07,清算の結了等,,,2015-10-05,1,,,,,キッショウ,0
509,2200001024876,登記記録の閉鎖等,0,2022-01-11,2022-01-05,株式会社ジュニアー高山工場,,株式会社,岐阜県,高山市,千島町７５２番地１７,,21,203,5060032,,,2022-01-05,清算の結了等,,,2015-10-05,1,,,,,ジュニアータカヤマコウジョウ,0
517,2240001039879,登記記録の閉鎖等,0,2022-01-11,2021-12-28,株式会社山口風呂工業,,株式会社,広島県,三原市,糸崎１丁目３番６号,,34,204,7290324,,,2021-12-28,清算の結了等,,,2015-10-05,1,,,,,ヤマグチフロコウギョウ,0
529,2300002008959,登記記録の閉鎖等,0,2022-01-11,2022-01-04,有限会社サカイ,,有限会社,佐賀県,鳥栖市,原町１２５１番地,,41,203,8410024,,,2022-01-04,清算の結了等,,,2015-10-05,1,,,,,サカイ,0
545,2370001041467,登記記録の閉鎖等,0,2022-01-11,2022-01-07,テトラ東日本株式会社,,株式会社,宮城県,仙台市若林区,古城３丁目１５番２号,,04,103,9840825,,,2022-01-07,清算の結了等,,,2017-05-16,1,,,,,テトラヒガシニホン,0
550,2380005005938,登記記録の閉鎖等,0,2022-01-11,2022-01-04,農事組合法人広畑施設園芸組合,,その他の設立登記法人,福島県,いわき市,小川町上小川字伊吾内１０番地,,07,204,9793124,,,2022-01-04,清算の結了等,,,2015-10-05,1,,,,,ヒロハタシセツエンゲイクミアイ,0
557,2430002007601,登記記録の閉鎖等,0,2022-01-11,2022-01-04,有限会社光和,,有限会社,北海道,札幌市中央区,南七条西６丁目３番地,,01,101,0640807,,,2022-01-04,清算の結了等,,,2015-10-05,1,,,,,コウワ,0
579,3010005025823,登記記録の閉鎖等,0,2022-01-11,2022-01-06,一般社団法人唐津市相賀風力発電,,その他の設立登記法人,東京都,千代田区,丸の内３丁目１番１号東京共同会計事務所内,,13,101,1000005,,,2022-01-06,清算の結了等,,,2016-09-20,1,,,,,カラツシオウカフウリョクハツデン,0
586,3010402024551,登記記録の閉鎖等,0,2022-01-11,2021-12-27,オーハイバレー有限会社,,有限会社,東京都,港区,元赤坂１丁目１番８号株式会社赤坂国際会計内,,13,103,1070051,,,2021-12-27,清算の結了等,,,2015-10-05,1,,,,,オーハイバレー,0
591,3010505000722,登記記録の閉鎖等,0,2022-01-11,2021-12-28,在日本朝鮮人上野商睦協同組合,,その他の設立登記法人,東京都,台東区,東上野１丁目１５番３号,,13,106,1100015,,,2021-12-28,清算の結了等,,,2015-10-05,1,,,,,ザイニホンチョウセンジンウエノショウボク,0
617,3011301024510,登記記録の閉鎖等,0,2022-01-11,2022-01-04,株式会社川村プロパティ,,株式会社,東京都,杉並区,永福４丁目２５番２７号,,13,115,1680064,,,2022-01-04,清算の結了等,,,2018-10-05,1,,,,,カワムラプロパティ,0
625,3011601004807,登記記録の閉鎖等,0,2022-01-11,2022-01-11,東和機械産業株式会社,,株式会社,東京都,練馬区,大泉学園町８丁目２５番３号,,13,120,1780061,,,2022-01-11,登記官による閉鎖,,,2015-10-05,1,,,,,,0
626,3011601007140,登記記録の閉鎖等,0,2022-01-11,2022-01-11,株式会社ユーロプレス,,株式会社,東京都,練馬区,西大泉３丁目２７番１３号,,13,120,1780065,,,2022-01-11,登記官による閉鎖,,,2015-10-05,1,,,,,,0
627,3011601012132,登記記録の閉鎖等,0,2022-01-11,2022-01-11,株式会社ダイワロテック,,株式会社,東京都,練馬区,富士見台２丁目１３番２号,,13,120,1770034,,,2022-01-11,登記官による閉鎖,,,2015-10-05,1,,,,,,0
628,3011601015622,登記記録の閉鎖等,0,2022-01-11,2022-01-11,株式会社モビリア化粧品,,株式会社,東京都,練馬区,桜台１丁目１番１０－４０１号,,13,120,1760002,,,2022-01-11,登記官による閉鎖,,,2015-10-05,1,,,,,,0
629,3011602004418,登記記録の閉鎖等,0,2022-01-11,2022-01-11,有限会社三七堂,,有限会社,東京都,練馬区,中村北３丁目２２番７号,,13,120,1760023,,,2022-01-11,登記官による閉鎖,,,2015-10-05,1,,,,,,0
666,3021002023331,登記記録の閉鎖等,0,2022-01-11,2022-01-04,有限会社橋本調剤薬局,,有限会社,神奈川県,相模原市緑区,橋本６丁目３１番２号,,14,151,2520143,,,2022-01-04,合併による解散等,3021002024701,令和４年１月１日神奈川県相模原市緑区橋本六丁目４１番１３号株式会社宮之前薬局（3021002024701）に合併し解散,2015-10-05,1,,,,,ハシモトチョウザイヤッキョク,0
670,3030001024901,登記記録の閉鎖等,0,2022-01-11,2022-01-05,株式会社ひょうたん,,株式会社,埼玉県,所沢市,中新井５丁目１９番１２号,,11,208,3590041,,,2022-01-05,清算の結了等,,,2015-10-05,1,,,,,ヒョウタン,0
671,3030001062736,登記記録の閉鎖等,0,2022-01-11,2022-01-06,株式会社フルワーク企画,,株式会社,埼玉県,鴻巣市,南１丁目２０番１８号,,11,217,3690122,,,2022-01-06,清算の結了等,,,2015-10-05,1,,,,,フルワークキカク,0
675,3030001131111,登記記録の閉鎖等,0,2022-01-11,2022-01-04,株式会社ピグマリオン,,株式会社,埼玉県,越谷市,蒲生寿町５番８号,,11,222,3430836,,,2022-01-04,合併による解散等,5030001068129,令和４年１月１日埼玉県越谷市蒲生寿町５番８号ステラコスメティックス株式会社（5030001068129）に合併し解散,2019-06-03,1,,,,,ピグマリオン,0
680,3030002031509,登記記録の閉鎖等,0,2022-01-11,2022-01-06,有限会社館,,有限会社,埼玉県,所沢市,東狭山ケ丘３丁目６７７番地の２,,11,208,3591106,,,2022-01-06,清算の結了等,,,2015-10-05,1,,,,,ヤカタ,0
692,3040002023125,登記記録の閉鎖等,0,2022-01-11,2021-12-28,有限会社ＣＳワークス,,有限会社,東京都,葛飾区,亀有３丁目３１番３号,,13,122,1250061,,,2021-12-28,合併による解散等,4011802027498,令和３年１２月２８日東京都葛飾区亀有三丁目３１番３号株式会社シーエス・インベストメント（4011802027498）に合併し解散,2015-10-05,1,,,,,シーエスワークス,0
696,3040002036944,登記記録の閉鎖等,0,2022-01-11,2022-01-05,有限会社室谷トーヨー住器,,有限会社,千葉県,市川市,本北方１丁目３４番３号,,12,203,2720816,,,2022-01-05,合併による解散等,3011801027376,令和４年１月１日東京都足立区鹿浜三丁目３番３号株式会社アベルコ（3011801027376）に合併し解散,2015-10-05,1,,,,,ムロヤトーヨージュウキ,0
703,3050002042768,登記記録の閉鎖等,0,2022-01-11,2021-12-28,有限会社中川カーヴィング,,有限会社,茨城県,桜川市,真壁町田１９２番地の１,,08,231,3004411,,,2021-12-28,清算の結了等,,,2015-10-05,1,,,,,ナカガワカーヴィング,0
704,3060001015583,登記記録の閉鎖等,0,2022-01-11,2021-12-28,株式会社さかた,,株式会社,栃木県,小山市,東城南３丁目２１番地６,,09,208,3230829,,,2021-12-28,清算の結了等,,,2015-10-05,1,,,,,サカタ,0
710,3060002017439,登記記録の閉鎖等,0,2022-01-11,2021-12-27,有限会社鶴見酒店,,有限会社,栃木県,真岡市,長田２丁目２６番地５,,09,209,3214364,,,2021-12-27,清算の結了等,,,2015-10-05,1,,,,,ツルミサケテン,0
713,3070001037098,登記記録の閉鎖等,0,2022-01-11,2022-01-05,株式会社Ｍｙ　Ｊａｐａｎ,,株式会社,群馬県,伊勢崎市,中央町２５番地２２,,10,204,3720042,,,2022-01-05,清算の結了等,,,2020-08-07,1,,,,,ミージャパン,0
723,3080402004927,登記記録の閉鎖等,0,2022-01-11,2022-01-04,有限会社タノモギカーサービス,,有限会社,静岡県,浜松市東区,中郡町５９９番地,,22,132,4313111,,,2022-01-04,清算の結了等,,,2015-10-05,1,,,,,タノモギカーサービス,0
728,3090003001232,登記記録の閉鎖等,0,2022-01-11,2021-12-28,アシスト合同会社,,合同会社,山梨県,笛吹市,御坂町上黒駒４８８番地,,19,211,4060813,,,2021-12-28,清算の結了等,,,2016-11-09,1,,,,,アシスト,0
730,3100002005843,登記記録の閉鎖等,0,2022-01-11,2022-01-05,有限会社原酒店,,有限会社,長野県,上水内郡飯綱町,大字普光寺９４１番地,,20,590,3891206,,,2022-01-05,清算の結了等,,,2015-10-05,1,,,,,ハラサケテン,0
733,3110001011271,登記記録の閉鎖等,0,2022-01-11,2022-01-05,株式会社上川温泉,,株式会社,新潟県,東蒲原郡阿賀町,広谷乙２０８８番地,,15,385,9594537,,,2022-01-05,清算の結了等,,,2015-10-05,1,,,,,カミカワオンセン,0
752,3120901023885,登記記録の閉鎖等,0,2022-01-11,2022-01-05,メディキャスト株式会社,,株式会社,大阪府,豊中市,寺内２丁目１３番３号,,27,203,5610872,,,2022-01-05,合併による解散等,9120901025281,令和４年１月１日大阪府豊中市寺内二丁目１３番３号株式会社日本経営（9120901025281）に合併し解散,2015-10-05,1,,,,,メディキャスト,0
770,3140001077260,登記記録の閉鎖等,0,2022-01-11,2022-01-04,シマブンエンジニアリングマシナリー株式会社,,株式会社,兵庫県,加古郡播磨町,新島４１番地,,28,382,6750155,,,2022-01-04,合併による解散等,4140001044367,令和４年１月１日兵庫県加古郡播磨町新島４１番地シマブンエンジニアリング株式会社（4140001044367）に合併し解散,2015-10-05,1,,,,,シマブンエンジニアリングマシナリー,0
773,3140001120177,登記記録の閉鎖等,0,2022-01-11,2022-01-04,株式会社マーク食品,,株式会社,兵庫県,南あわじ市,北阿万稲田南８１７番地６,,28,224,6560532,,,2022-01-04,清算の結了等,,,2021-01-19,1,,,,,マークショクヒン,0
792,3180003016808,登記記録の閉鎖等,0,2022-01-11,2022-01-05,合同会社ｔｒｅａｓｕｒｉｓｅ,,合同会社,愛知県,日進市,米野木台１丁目８３１番地,,23,230,4700118,,,2022-01-05,清算の結了等,,,2016-01-06,1,,,,,トレジャライズ,0
795,3180301001172,登記記録の閉鎖等,0,2022-01-11,2022-01-04,株式会社スリーエム中部,,株式会社,愛知県,岡崎市,針崎町字フロ１６番地１,,23,202,4440827,,,2022-01-04,合併による解散等,1180301002866,令和４年１月１日愛知県岡崎市針崎町字フロ１６番地１ＵＴスリーエム株式会社（1180301002866）に合併し解散,2015-10-05,1,,,,,スリーエムチュウブ,0
796,3180301005982,登記記録の閉鎖等,0,2022-01-11,2022-01-04,株式会社スリーエム,,株式会社,愛知県,豊橋市,柱七番町１７番地,,23,201,4418057,,,2022-01-04,合併による解散等,1180301002866,令和４年１月１日愛知県岡崎市針崎町字フロ１６番地１ＵＴスリーエム株式会社（1180301002866）に合併し解散,2015-10-05,1,,,,,スリーエム,0
814,3240002041742,登記記録の閉鎖等,0,2022-01-11,2021-12-24,有限会社ツーエイトプロセス,,有限会社,広島県,福山市,東手城町２丁目１１番６号,,34,207,7210962,,,2021-12-24,清算の結了等,,,2015-10-05,1,,,,,ツーエイトプロセス,0
843,3340002004763,登記記録の閉鎖等,0,2022-01-11,2022-01-05,有限会社システムスタッフ,,有限会社,鹿児島県,鹿児島市,薬師１丁目６番８号,,46,201,8900042,,,2022-01-05,清算の結了等,,,2015-10-05,1,,,,,システムスタッフ,0
854,3370002011633,登記記録の閉鎖等,0,2022-01-11,2022-01-07,有限会社柴山測量設計,,有限会社,宮城県,仙台市青葉区,吉成台２丁目１５番２３号,,04,101,9893206,,,2022-01-07,清算の結了等,,,2015-10-05,1,,,,,シバヤマソクリョウセッケイ,0
859,3380002006590,登記記録の閉鎖等,0,2022-01-11,2021-12-28,有限会社タジュウ,,有限会社,福島県,伊達市,梁川町舟生字清水３１番地の１,,07,213,9600704,,,2021-12-28,清算の結了等,,,2015-10-05,1,,,,,タジュウ,0
862,3390003001557,登記記録の閉鎖等,0,2022-01-11,2022-01-04,海華合同会社,,合同会社,山形県,上山市,二日町８番１２号,,06,207,9993143,,,2022-01-04,清算の結了等,,,2018-11-20,1,,,,,カイカ,0
864,3400001009609,登記記録の閉鎖等,0,2022-01-11,2022-01-07,すまいるサービス株式会社,,株式会社,岩手県,滝沢市,大崎２０９番地２３,,03,216,0200621,,,2022-01-07,清算の結了等,,,2015-10-05,1,,,,,スマイルサービス,0
868,3410003001835,登記記録の閉鎖等,0,2022-01-11,2021-12-27,畠慶木材合資会社,,合資会社,秋田県,山本郡三種町,鹿渡字中沢新田４５番地の２,,05,348,0182104,,,2021-12-27,清算の結了等,,,2015-10-05,1,,,,,ハタケイモクザイ,0
874,3470001000619,登記記録の閉鎖等,0,2022-01-11,2022-01-06,株式会社上田漆器工業所,,株式会社,香川県,高松市,多賀町１丁目１０番８号,,37,201,7600063,,,2022-01-06,清算の結了等,,,2015-10-05,1,,,,,ウエタシッキコウギョウショ,0
885,4010001117103,登記記録の閉鎖等,0,2022-01-11,2021-12-27,株式会社総合評価支援センター,,株式会社,東京都,港区,高輪１丁目２７番３７－１４０１号,,13,103,1080074,,,2021-12-27,清算の結了等,,,2015-10-05,1,,,,,ソウゴウヒョウカシエンセンター,0
890,4010005030780,登記記録の閉鎖等,0,2022-01-11,2022-01-06,一般社団法人Ｋ２インベストメント,,その他の設立登記法人,東京都,千代田区,丸の内３丁目１番１号東京共同会計事務所内,,13,101,1000005,,,2022-01-06,清算の結了等,,,2019-09-18,1,,,,,ケーツーインベストメント,0
896,4010401146692,登記記録の閉鎖等,0,2022-01-11,2022-01-04,株式会社ＤＥＣＩＤＥ,,株式会社,東京都,渋谷区,神宮前２丁目３４番１７号,,13,113,1500001,,,2022-01-04,合併による解散等,4010001147364,令和３年１２月１日札幌市中央区大通西二十五丁目３番１号株式会社ＮＤＨ（4010001147364）に合併し解散,2019-07-09,1,,,,,ディサイド,0
901,4010403013651,登記記録の閉鎖等,0,2022-01-11,2021-12-27,エネルギー・ゲートウェイ１号合同会社,,合同会社,東京都,港区,元赤坂１丁目２番７号赤坂Ｋタワー,,13,103,1070051,,,2021-12-27,清算の結了等,,,2015-10-05,1,,,,,エネルギーゲートウェイイチゴウ,0
924,4011601004954,登記記録の閉鎖等,0,2022-01-11,2022-01-11,トライテック株式会社,,株式会社,東京都,練馬区,春日町４丁目５番１９号,,13,120,1790074,,,2022-01-11,登記官による閉鎖,,,2015-10-05,1,,,,,,0
927,4011602001199,登記記録の閉鎖等,0,2022-01-11,2022-01-11,有限会社うえすとうっどっ,,有限会社,東京都,練馬区,豊玉北５丁目１７番２号,,13,120,1760012,,,2022-01-11,登記官による閉鎖,,,2015-10-05,1,,,,,,0
928,4011602001629,登記記録の閉鎖等,0,2022-01-11,2022-01-11,有限会社江田塗装工業,,有限会社,東京都,練馬区,田柄４丁目１０番２２号,,13,120,1790073,,,2022-01-11,登記官による閉鎖,,,2015-10-05,1,,,,,,0
929,4011602003385,登記記録の閉鎖等,0,2022-01-11,2022-01-11,有限会社ケイエス建材,,有限会社,東京都,練馬区,田柄２丁目１１番２２号,,13,120,1790073,,,2022-01-11,登記官による閉鎖,,,2015-10-05,1,,,,,,0
930,4011605001287,登記記録の閉鎖等,0,2022-01-11,2022-01-11,特定非営利活動法人ＡＳＩＡＮ　ＳＣＨＯＬＡＲＳＨＩＰ　ＦＯＵＮＤＡＴＩＯＮ,,その他の設立登記法人,東京都,練馬区,中村南３丁目１９番１５号アーバン中村５－２０５号,,13,120,1760025,,,2022-01-11,登記官による閉鎖,,,2015-10-05,1,,,,,,0
935,4012801019635,登記記録の閉鎖等,0,2022-01-11,2022-01-04,グリーンコマース株式会社,,株式会社,東京都,国分寺市,西恋ヶ窪３丁目２６番１１号カーサシンエイ１Ｆ,,13,214,1850013,,,2022-01-04,清算の結了等,,,2019-09-10,1,,,,,グリーンコマース,0
937,4012803002457,登記記録の閉鎖等,0,2022-01-11,2021-12-28,合同会社Ｖｉｅ・Ｗｏｒｌｄ,,合同会社,東京都,武蔵村山市,伊奈平６丁目４９番地２,,13,223,2080023,,,2021-12-28,合併による解散等,6012803001267,令和３年１２月２８日東京都武蔵村山市伊奈平六丁目４９番地の２合同会社Ｖｉｅ　Ｎｏｕｖｅｌｌｅ（6012803001267）に合併し解散,2021-02-26,1,,,,,ビワールド,0
947,4020002035419,登記記録の閉鎖等,0,2022-01-11,2022-01-05,有限会社瞳製作所,,有限会社,神奈川県,横浜市港北区,新羽町２８４３番地,,14,109,2230057,,,2022-01-05,清算の結了等,,,2015-10-05,1,,,,,ヒトミセイサクジョ,0
982,4070001019038,登記記録の閉鎖等,0,2022-01-11,2021-12-27,株式会社川上製作所,,株式会社,群馬県,邑楽郡千代田町,大字赤岩７４番地の１,,10,523,3700503,,,2021-12-27,清算の結了等,,,2015-10-05,1,,,,,カワカミセイサクジョ,0
986,4080105002640,登記記録の閉鎖等,0,2022-01-11,2022-01-07,富士産業廃棄物処理事業協同組合,,その他の設立登記法人,静岡県,富士市,大渕４５７５番地の１,,22,210,4170000,,,2022-01-07,清算の結了等,,,2015-10-05,1,,,,,フジサンギョウハイキブツショリ,0
990,4100001024141,登記記録の閉鎖等,0,2022-01-11,2022-01-05,サンネックスパワー駒ヶ根株式会社,,株式会社,長野県,駒ヶ根市,赤穂１４番地１５,,20,210,3994117,,,2022-01-05,合併による解散等,4100001014423,令和４年１月１日長野県東筑摩郡山形村字下本郷４０８２番地３サンリン株式会社（4100001014423）に合併し解散,2015-10-05,1,,,,,サンネックスパワーコマガネ,0
1018,4120003014048,登記記録の閉鎖等,0,2022-01-11,2022-01-04,合同会社アンツ,,合同会社,大阪府,大阪市中央区,南船場４丁目１０番５号南船場ＳＯＨＯビル７０２,,27,128,5420081,,,2022-01-04,清算の結了等,,,2018-03-12,1,,,,,アンツ,0
1027,4120901034931,登記記録の閉鎖等,0,2022-01-11,2022-01-04,株式会社セレクト,,株式会社,大阪府,大阪市中央区,大手通１丁目３番５号Ｎビル,,27,128,5400021,,,2022-01-04,合併による解散等,4120001169133,令和４年１月１日大阪市中央区大手通一丁目３番５号Ｎビル株式会社ＮＳＡ（4120001169133）に合併し解散,2015-10-05,1,,,,,セレクト,0
1031,4120902005873,登記記録の閉鎖等,0,2022-01-11,2022-01-06,有限会社キャン・ウェルカム,,有限会社,大阪府,吹田市,千里丘下１４番３号,,27,205,5650813,,,2022-01-06,清算の結了等,,,2015-10-05,1,,,,,キャンウエルカム,0
1034,4122002015638,登記記録の閉鎖等,0,2022-01-11,2022-01-05,有限会社永和設計,,有限会社,大阪府,八尾市,南本町２丁目１番２号,,27,212,5810081,,,2022-01-05,清算の結了等,,,2015-10-05,1,,,,,エイワセッケイ,0
1081,4180003013639,登記記録の閉鎖等,0,2022-01-11,2022-01-04,吉川興業合名会社,00119509,合名会社,愛知県,弥富市,亀ケ地２丁目９０番地,,23,235,4901424,,,2022-01-04,清算の結了等,,,2015-10-05,1,,,,,ヨシカワコウギョウ,0
1085,4180005002144,登記記録の閉鎖等,0,2022-01-11,2022-01-06,学校法人いずみ学園,,その他の設立登記法人,愛知県,名古屋市南区,天白町１丁目２０番地の３,,23,112,4570803,,,2022-01-06,清算の結了等,,,2015-10-05,1,,,,,イズミガクエン,0
1087,4180301004950,登記記録の閉鎖等,0,2022-01-11,2022-01-04,アヅマエンタープライズ株式会社,,株式会社,愛知県,豊橋市,松葉町３丁目７７番地,,23,201,4400897,,,2022-01-04,合併による解散等,5180301009230,令和４年１月４日愛知県豊橋市松葉町三丁目７７番地株式会社吾妻家（5180301009230）に合併し解散,2015-10-05,1,,,,,アヅマエンタープライズ,0
1090,4180302019064,登記記録の閉鎖等,0,2022-01-11,2022-01-05,山森製陶有限会社,,有限会社,愛知県,刈谷市,中山町１丁目２６番地,,23,210,4480026,,,2022-01-05,清算の結了等,,,2015-10-05,1,,,,,ヤマモリセイトウ,0
1097,4200002004917,登記記録の閉鎖等,0,2022-01-11,2022-01-06,有限会社谷藤組,,有限会社,岐阜県,岐阜市,木田１５０４番地,,21,201,5011135,,,2022-01-06,清算の結了等,,,2015-10-05,1,,,,,ヤトウグミ,0
1107,4240002012239,登記記録の閉鎖等,0,2022-01-11,2022-01-05,有限会社西山システム,,有限会社,広島県,広島市安佐北区,真亀４丁目５番１－８０６号,,34,106,7391741,,,2022-01-05,清算の結了等,,,2015-10-05,1,,,,,ニシヤマシステム,0
1117,4280005004444,登記記録の閉鎖等,0,2022-01-11,2022-01-07,協同組合ヴァーテックス,,その他の設立登記法人,島根県,浜田市,金城町下来原１５６１番地７,,32,202,6970121,,,2022-01-07,清算の結了等,,,2015-10-05,1,,,,,,0
1147,4370605000123,登記記録の閉鎖等,0,2022-01-11,2021-12-28,協同組合多賀城・七ヶ浜スタンプ会,,その他の設立登記法人,宮城県,多賀城市,伝上山３丁目１番１２号,,04,209,9850872,,,2021-12-28,清算の結了等,,,2015-10-05,1,,,,,タガジョウシチガハマスタンプカイ,0
1159,4470001011788,登記記録の閉鎖等,0,2022-01-11,2022-01-07,株式会社藤井タイヤ工業所,,株式会社,香川県,高松市,観光通２丁目８番３３号,,37,201,7600055,,,2022-01-07,清算の結了等,,,2015-10-05,1,,,,,フジイタイヤコウギョウショ,0
1187,5010403022890,登記記録の閉鎖等,0,2022-01-11,2021-12-27,リアルブルーソーラー５合同会社,,合同会社,東京都,港区,虎ノ門３丁目２２番１０－２０１号,,13,103,1050001,,,2021-12-27,清算の結了等,,,2020-04-24,1,,,,,リアルブルーソーラーファイブ,0
1190,5010405012353,登記記録の閉鎖等,0,2022-01-11,2022-01-05,一般社団法人日本データサイエンス研究所,,その他の設立登記法人,東京都,文京区,本郷２丁目２５－５角地ビル３Ｆ,,13,105,1130033,,,2022-01-05,清算の結了等,,,2015-10-05,1,,,,,ニホンデータサイエンスケンキュウジョ,0
1201,5010803002550,登記記録の閉鎖等,0,2022-01-11,2021-12-28,株式会社サミーズ,,株式会社,東京都,武蔵野市,吉祥寺本町１丁目３４番８号ザ・ロアハウス吉祥寺１０６,,13,203,1800004,,,2021-12-28,清算の結了等,,,2018-01-05,1,,,,,サミーズ,0
1213,5011001064251,登記記録の閉鎖等,0,2022-01-11,2022-01-06,クオリア株式会社,,株式会社,東京都,渋谷区,本町４丁目１１番１１号,,13,113,1510071,,,2022-01-06,清算の結了等,,,2015-10-05,1,,,,,クオリア,0
1229,5011601001190,登記記録の閉鎖等,0,2022-01-11,2022-01-11,太田工業株式会社,,株式会社,東京都,練馬区,旭町１丁目１４番１号,,13,120,1790071,,,2022-01-11,登記官による閉鎖,,,2015-10-05,1,,,,,,0
1231,5011601016338,登記記録の閉鎖等,0,2022-01-11,2022-01-11,株式会社亜十夢,,株式会社,東京都,練馬区,豊玉中２丁目１２番６号,,13,120,1760013,,,2022-01-11,登記官による閉鎖,,,2015-10-05,1,,,,,,0
1232,5011602001297,登記記録の閉鎖等,0,2022-01-11,2022-01-11,有限会社ウチダ計画室,,有限会社,東京都,練馬区,桜台６丁目３２番４号,,13,120,1760002,,,2022-01-11,登記官による閉鎖,,,2015-10-05,1,,,,,,0
1233,5011602010983,登記記録の閉鎖等,0,2022-01-11,2022-01-11,有限会社レサンク,,有限会社,東京都,練馬区,大泉学園町５丁目２６番１２号,,13,120,1780061,,,2022-01-11,登記官による閉鎖,,,2015-10-05,1,,,,,,0
1234,5011602011602,登記記録の閉鎖等,0,2022-01-11,2022-01-11,有限会社大衆割烹笹仙,,有限会社,東京都,練馬区,東大泉１丁目３４番１号,,13,120,1780063,,,2022-01-11,登記官による閉鎖,,,2015-10-05,1,,,,,,0
1235,5011602022673,登記記録の閉鎖等,0,2022-01-11,2022-01-11,有限会社フィル,,有限会社,東京都,練馬区,練馬４丁目１２番８号,,13,120,1760001,,,2022-01-11,登記官による閉鎖,,,2015-10-05,1,,,,,,0
1236,5011602023878,登記記録の閉鎖等,0,2022-01-11,2022-01-11,有限会社ピーリンク,,有限会社,東京都,練馬区,南大泉６丁目１４番１０号,,13,120,1780064,,,2022-01-11,登記官による閉鎖,,,2015-10-05,1,,,,,,0
1238,5011605000387,登記記録の閉鎖等,0,2022-01-11,2022-01-11,医療法人社団清成会,,その他の設立登記法人,東京都,練馬区,大泉学園町１丁目２番２号,,13,120,1780061,,,2022-01-11,登記官による閉鎖,,,2015-10-05,1,,,,,,0
1282,5030001063071,登記記録の閉鎖等,0,2022-01-11,2021-12-23,株式会社エムエスアドバンス,,株式会社,埼玉県,朝霞市,泉水２丁目１０番３０号,,11,227,3510024,,,2021-12-23,清算の結了等,,,2015-10-05,1,,,,,エムエスアドバンス,0
1286,5030001110930,登記記録の閉鎖等,0,2022-01-11,2022-01-05,株式会社Ｋ－ｂｏｎｈｅｕｒ,,株式会社,埼玉県,川口市,西川口１丁目２９番３号ライオンズマンション西川口第１１－１０１２,,11,203,3320021,,,2022-01-05,清算の結了等,,,2015-10-19,1,,,,,ケーボナー,0
1293,5040001047453,登記記録の閉鎖等,0,2022-01-11,2022-01-04,四街道カントリー株式会社,,株式会社,東京都,品川区,東品川４丁目１２番４号,,13,109,1400002,,,2022-01-04,合併による解散等,7011001100582,令和４年１月１日東京都品川区東品川四丁目１２番４号株式会社アコーディアＡＨ０２（7011001100582）に合併し解散,2015-10-05,1,,,,,ヨツカイドウカントリー,0
1295,5040001112736,登記記録の閉鎖等,0,2022-01-11,2021-12-28,じゃんな株式会社,,株式会社,千葉県,香取郡多古町,多古５７１番地１,,12,347,2892241,,,2021-12-28,清算の結了等,,,2020-03-04,1,,,,,ジャンナ,0
1302,5040002018453,登記記録の閉鎖等,0,2022-01-11,2021-12-28,有限会社上丸運輸,,有限会社,千葉県,習志野市,津田沼７丁目１番１１号,,12,216,2750016,,,2021-12-28,清算の結了等,,,2015-10-05,1,,,,,ジョウマルウンユ,0
1303,5040003001978,登記記録の閉鎖等,0,2022-01-11,2022-01-05,合同会社西リアルエステート,,合同会社,東京都,渋谷区,恵比寿南２丁目５番９号,,13,113,1500022,,,2022-01-05,清算の結了等,,,2015-10-05,1,,,,,,0
1309,5050001041083,登記記録の閉鎖等,0,2022-01-11,2021-12-27,北総産業株式会社,,株式会社,栃木県,下都賀郡壬生町,大字福和田６０６番地１３,,09,361,3210219,,,2021-12-27,清算の結了等,,,2016-06-07,1,,,,,ホクソウサンギョウ,0
1316,5070002029365,登記記録の閉鎖等,0,2022-01-11,2022-01-06,有限会社佐々木金物店,,有限会社,群馬県,邑楽郡大泉町,富士１丁目８番２６号,,10,524,3700522,,,2022-01-06,清算の結了等,,,2015-10-05,1,,,,,ササキカナモノテン,0
1318,5080401002046,登記記録の閉鎖等,0,2022-01-11,2022-01-04,株式会社サンワード,,株式会社,静岡県,磐田市,新貝２５００番地,,22,211,4380025,,,2022-01-04,合併による解散等,8080401016068,令和４年１月１日静岡県磐田市西貝塚３３７７番地ヤマハ発動機ビズパートナー株式会社（8080401016068）に合併し解散,2015-10-05,1,,,,,サンワード,0
1321,5100001002815,登記記録の閉鎖等,0,2022-01-11,2022-01-05,株式会社白田組,,株式会社,長野県,長野市,大字安茂里西河原３６１８－３,,20,201,3800955,,,2022-01-05,清算の結了等,,,2015-10-05,1,,,,,ハクタグミ,0
1341,5120001193041,登記記録の閉鎖等,0,2022-01-11,2022-01-04,株式会社エスクロー,,株式会社,大阪府,大阪市北区,梅田１丁目１１番４－３００号,,27,127,5300001,,,2022-01-04,合併による解散等,3120001068534,令和４年１月１日大阪市北区梅田一丁目１１番４－３００号株式会社日住サービス（3120001068534）に合併し解散,2015-10-05,1,,,,,エスクロー,0
1355,5120901032216,登記記録の閉鎖等,0,2022-01-11,2021-12-28,勝原技研株式会社,,株式会社,大阪府,高槻市,塚原５丁目３－３９,,27,207,5691046,,,2021-12-28,清算の結了等,,,2015-10-05,1,,,,,カツハラギケン,0
1362,5130001050480,登記記録の閉鎖等,0,2022-01-11,2022-01-04,株式会社タイガー興産,,株式会社,京都府,京都市右京区,西院寿町４０番地３,,26,108,6150033,,,2022-01-04,合併による解散等,3130001054491,令和４年１月１日京都市右京区西院寿町４０番地３株式会社キーファーズ（3130001054491）に合併し解散,2015-10-05,1,,,,,タイガーコウサン,0
1366,5140001088371,登記記録の閉鎖等,0,2022-01-11,2022-01-04,株式会社シーエルビルマネジメント,,株式会社,兵庫県,神戸市灘区,琵琶町３丁目６番１６号,,28,102,6570041,,,2022-01-04,清算の結了等,,,2015-10-05,1,,,,,シーエルビルマネジメント,0
1367,5140001117840,登記記録の閉鎖等,0,2022-01-11,2022-01-04,株式会社龍智工業,,株式会社,兵庫県,尼崎市,塚口本町２丁目２１番９号,,28,202,6610001,,,2022-01-04,清算の結了等,,,2020-06-26,1,,,,,リュウチコウギョウ,0
1426,5310001006316,登記記録の閉鎖等,0,2022-01-11,2022-01-06,株式会社エコ研究所,,株式会社,長崎県,佐世保市,ハウステンボス町４番地５２,,42,202,8593243,,,2022-01-06,清算の結了等,,,2015-10-05,1,,,,,エコケンキュウショ,0
1441,5360001015741,登記記録の閉鎖等,0,2022-01-11,2022-01-04,株式会社ＡｔｏＺ,,株式会社,沖縄県,名護市,字名護４５５８番地２３,,47,209,9050012,,,2022-01-04,合併による解散等,5360001012111,令和４年１月１日沖縄県名護市大北四丁目２４番４１号株式会社桃仁開発（5360001012111）に合併し解散,2015-10-05,1,,,,,エートゥゼット,0
1442,5370001024824,登記記録の閉鎖等,0,2022-01-11,2021-12-28,株式会社オザワエナックス,,株式会社,宮城県,富谷市,東向陽台２丁目１７番２３号,,04,216,9813331,,,2021-12-28,清算の結了等,,,2015-10-05,1,,,,,オザワエナックス,0
1453,5440001006922,登記記録の閉鎖等,0,2022-01-11,2022-01-07,アイトラベル株式会社,,株式会社,北海道,函館市,美原２丁目２２番１３号,,01,202,0410806,,,2022-01-07,清算の結了等,,,2015-10-05,1,,,,,アイトラベル,0
1469,6010002020758,登記記録の閉鎖等,0,2022-01-11,2021-12-27,有限会社新富蛇の目寿司,,有限会社,東京都,中央区,新富１丁目７番９号,,13,102,1040041,,,2021-12-27,清算の結了等,,,2015-10-05,1,,,,,シントミジャノメズシ,0
1477,6010402001060,登記記録の閉鎖等,0,2022-01-11,2021-12-27,有限会社青山花廣,,有限会社,東京都,港区,南青山２丁目１４番１８号,,13,103,1070062,,,2021-12-27,清算の結了等,,,2015-10-05,1,,,,,アオヤマハナヒロ,0
1506,6011601013648,登記記録の閉鎖等,0,2022-01-11,2022-01-11,株式会社Ｍｏｂｉｌｅ－Ｍｅｄｉａ,,株式会社,東京都,練馬区,桜台１丁目３７番８号グレースチェリー１０３号,,13,120,1760002,,,2022-01-11,登記官による閉鎖,,,2015-10-05,1,,,,,,0
1507,6011602000827,登記記録の閉鎖等,0,2022-01-11,2022-01-11,有限会社池上環境工事,,有限会社,東京都,練馬区,南大泉２丁目２９番３０－２１０号,,13,120,1780064,,,2022-01-11,登記官による閉鎖,,,2015-10-05,1,,,,,,0
1508,6011602003854,登記記録の閉鎖等,0,2022-01-11,2022-01-11,有限会社小島ソフトサービス,,有限会社,東京都,練馬区,春日町３丁目１番８号,,13,120,1790074,,,2022-01-11,登記官による閉鎖,,,2015-10-05,1,,,,,,0
1509,6011602005347,登記記録の閉鎖等,0,2022-01-11,2022-01-11,有限会社鈴木運送,,有限会社,東京都,練馬区,関町南１丁目１２番５号,,13,120,1770053,,,2022-01-11,登記官による閉鎖,,,2015-10-05,1,,,,,,0
1510,6011602005512,登記記録の閉鎖等,0,2022-01-11,2022-01-11,有限会社須田帆布商会,,有限会社,東京都,練馬区,西大泉５丁目２４番６号,,13,120,1780065,,,2022-01-11,登記官による閉鎖,,,2015-10-05,1,,,,,,0
1511,6011602005792,登記記録の閉鎖等,0,2022-01-11,2022-01-11,有限会社セルダア光機,,有限会社,東京都,練馬区,土支田３丁目２９番２６号,,13,120,1790076,,,2022-01-11,登記官による閉鎖,,,2015-10-05,1,,,,,,0
1512,6011602008291,登記記録の閉鎖等,0,2022-01-11,2022-01-11,有限会社ビソーシライシ,,有限会社,東京都,練馬区,石神井台２丁目８番７号,,13,120,1770045,,,2022-01-11,登記官による閉鎖,,,2015-10-05,1,,,,,,0
1513,6011602021559,登記記録の閉鎖等,0,2022-01-11,2022-01-11,有限会社ミトモ産業,,有限会社,東京都,練馬区,中村北３丁目１１番１４号クリオ中村橋壱番館４０５号,,13,120,1760023,,,2022-01-11,登記官による閉鎖,,,2015-10-05,1,,,,,,0
1514,6011602022549,登記記録の閉鎖等,0,2022-01-11,2022-01-11,有限会社ＭＩＴＳＵＧＩ設計,,有限会社,東京都,練馬区,土支田３丁目５番４号,,13,120,1790076,,,2022-01-11,登記官による閉鎖,,,2015-10-05,1,,,,,,0
1515,6011603003184,登記記録の閉鎖等,0,2022-01-11,2022-01-04,ｙｅｌｌ　ｉｎｖｅｓｔｍｅｎｔ合同会社,,合同会社,東京都,練馬区,練馬１丁目２０番８号日建練馬ビル２Ｆ,,13,120,1760001,,,2022-01-04,清算の結了等,,,2021-01-12,1,,,,,エールインベストメント,0
1524,6011801035260,登記記録の閉鎖等,0,2022-01-11,2022-01-07,株式会社東部サービス,,株式会社,東京都,足立区,西新井本町５丁目１番１２号,,13,121,1230845,,,2022-01-07,清算の結了等,,,2018-10-03,1,,,,,トウブサービス,0
1536,6020001050730,登記記録の閉鎖等,0,2022-01-11,2022-01-05,株式会社ｂｒｉｌｌｉａｎｔ,,株式会社,神奈川県,横浜市港北区,新羽町９３５番地シャロール港北２０２号,,14,109,2230057,,,2022-01-05,清算の結了等,,,2015-10-05,1,,,,,ブリリアント,0
1545,6021005004326,登記記録の閉鎖等,0,2022-01-11,2022-01-04,医療法人社団安部小児科医院,,その他の設立登記法人,神奈川県,秦野市,曲松２丁目２番１２号,,14,211,2591321,,,2022-01-04,清算の結了等,,,2015-10-05,1,,,,,アベショウニカイイン,0
1549,6030001095477,登記記録の閉鎖等,0,2022-01-11,2022-01-04,株式会社レサイト,,株式会社,埼玉県,加須市,鴻茎３２０５－１,,11,210,3470111,,,2022-01-04,合併による解散等,3011801025116,令和４年１月１日埼玉県加須市鴻茎３２０５番地１株式会社レサイト（3011801025116）に合併し解散,2015-10-05,1,,,,,レサイト,0
1550,6030001130928,登記記録の閉鎖等,0,2022-01-11,2022-01-06,株式会社大恵,,株式会社,埼玉県,さいたま市中央区,上落合６丁目６番１９号,,11,105,3380001,,,2022-01-06,清算の結了等,,,2019-05-17,1,,,,,ダイケイ,0
1556,6030003010302,登記記録の閉鎖等,0,2022-01-11,2022-01-05,ＵｎｉＳｅｒｖ合同会社,,合同会社,埼玉県,川越市,大字上戸３０４番地７,,11,201,3500816,,,2022-01-05,清算の結了等,,,2017-05-18,1,,,,,ユニサーブ,0
1560,6040001062435,登記記録の閉鎖等,0,2022-01-11,2022-01-04,株式会社ホンダエスアール,,株式会社,千葉県,銚子市,三崎町２丁目２５６６番地の３,,12,202,2880815,,,2022-01-04,清算の結了等,,,2015-10-05,1,,,,,ホンダエスアール,0
1576,6050002010053,登記記録の閉鎖等,0,2022-01-11,2021-12-28,有限会社甲斐硝子店,,有限会社,茨城県,笠間市,笠間１８６９番地の７,,08,216,3091611,,,2021-12-28,清算の結了等,,,2015-10-05,1,,,,,カイガラステン,0
1612,6130001011580,登記記録の閉鎖等,0,2022-01-11,2022-01-07,富士工業株式会社,,株式会社,京都府,京都市南区,久世殿城町５０番地,,26,107,6018205,,,2022-01-07,清算の結了等,,,2015-10-05,1,,,,,フジコウギョウ,0
1619,6130001066113,登記記録の閉鎖等,0,2022-01-11,2022-01-04,株式会社ＫＡＳＥＮ,,株式会社,京都府,京都市右京区,西院寿町４０番地３,,26,108,6150033,,,2022-01-04,合併による解散等,3130001054491,令和４年１月１日京都市右京区西院寿町４０番地３株式会社キーファーズ（3130001054491）に合併し解散,2020-01-14,1,,,,,カセン,0
1657,6180301005360,登記記録の閉鎖等,0,2022-01-11,2022-01-06,株式会社カスカ,,株式会社,愛知県,豊橋市,大岩町字北元屋敷７２番地の１,,23,201,4413145,,,2022-01-06,合併による解散等,4190002018514,令和４年１月１日三重県桑名郡木曽岬町大字白鷺字白鷺川６１７番地１株式会社セイワ工業（4190002018514）に合併し解散,2015-10-05,1,,,,,カスカ,0
1658,6180301005724,登記記録の閉鎖等,0,2022-01-11,2022-01-04,株式会社スリーエム東海,,株式会社,愛知県,豊橋市,柱七番町１７番地,,23,201,4418057,,,2022-01-04,合併による解散等,1180301002866,令和４年１月１日愛知県岡崎市針崎町字フロ１６番地１ＵＴスリーエム株式会社（1180301002866）に合併し解散,2015-10-05,1,,,,,スリーエムトウカイ,0
1670,6220002015563,登記記録の閉鎖等,0,2022-01-11,2022-01-04,有限会社福庵,,有限会社,石川県,輪島市,三井町市ノ坂リの１番地,,17,204,9292373,,,2022-01-04,清算の結了等,,,2015-10-05,1,,,,,フクアン,0
1679,6250002018497,登記記録の閉鎖等,0,2022-01-11,2022-01-04,有限会社ふじ万,,有限会社,山口県,岩国市,麻里布町６丁目８番２５号,,35,208,7400018,,,2022-01-04,清算の結了等,,,2015-10-05,1,,,,,フジマン,0
1696,6340002010296,登記記録の閉鎖等,0,2022-01-11,2022-01-06,有限会社ヨネクラ,,有限会社,鹿児島県,鹿児島市,薬師１丁目１４番１４号,,46,201,8900042,,,2022-01-06,清算の結了等,,,2015-10-05,1,,,,,,0
1703,6350001008431,登記記録の閉鎖等,0,2022-01-11,2022-01-05,株式会社吉岡バナナ都城,,株式会社,宮崎県,都城市,高木町４８００番地,,45,202,8850003,,,2022-01-05,清算の結了等,,,2015-10-05,1,,,,,ヨシオカバナナミヤコノジョウ,0
1705,6350003003711,登記記録の閉鎖等,0,2022-01-11,2022-01-05,ＡｋｉｙａｍａＴｏｍｏａｋｉＳａｋｕ合同会社,,合同会社,鹿児島県,志布志市,志布志町志布志２丁目１７－２１チャオ天志館４１０号室,,46,221,8997103,,,2022-01-05,清算の結了等,,,2020-12-15,1,,,,,アキヤマトモアキサク,0
1707,6360002013000,登記記録の閉鎖等,0,2022-01-11,2022-01-04,有限会社伊禮自動車工業,00101624,有限会社,沖縄県,うるま市,勝連南風原４１３１番地,,47,213,9042311,,,2022-01-04,合併による解散等,5360001008654,令和４年１月１日沖縄県浦添市勢理客四丁目４番１号株式会社沖食商事（5360001008654）に合併し解散,2015-10-05,1,,,,,イレイジドウシャコウギョウ,0
1710,6370001043294,登記記録の閉鎖等,0,2022-01-11,2022-01-05,株式会社岩崎ペイント,,株式会社,宮城県,宮城郡利府町,菅谷字西天神５番地１,,04,406,9810122,,,2022-01-05,清算の結了等,,,2018-07-05,1,,,,,イワサキペイント,0
1717,6380002013535,登記記録の閉鎖等,0,2022-01-11,2022-01-04,有限会社オールウェイズ,,有限会社,福島県,郡山市,富久山町八山田字菱池９番地２０号,,07,203,9638051,,,2022-01-04,清算の結了等,,,2015-10-05,1,,,,,オールウェイズ,0
1725,6410001012872,登記記録の閉鎖等,0,2022-01-11,2021-12-28,ＭＳ　ＷＩＮＤ株式会社,,株式会社,秋田県,にかほ市,平沢字井戸尻４５番地,,05,214,0180402,,,2021-12-28,清算の結了等,,,2021-06-23,1,,,,,エムエスウインド,0
1741,6470002005622,登記記録の閉鎖等,0,2022-01-11,2022-01-06,有限会社ビス計画,,有限会社,香川県,高松市,浜ノ町６６番２－２１４号,,37,201,7600011,,,2022-01-06,清算の結了等,,,2015-10-05,1,,,,,ビスケイカク,0
1757,7010401094146,登記記録の閉鎖等,0,2022-01-11,2021-12-21,株式会社エスアンドピー,,株式会社,東京都,渋谷区,神宮前１丁目１５番１５号,,13,113,1500001,,,2021-12-21,清算の結了等,,,2015-10-05,1,,,,,エスアンドピー,0
1758,7010401099566,登記記録の閉鎖等,0,2022-01-11,2022-01-04,ＰＣＸインターナショナル株式会社,,株式会社,東京都,中央区,日本橋堀留町１丁目１０番１１号井門堀留ビル７階,,13,102,1030012,,,2022-01-04,合併による解散等,6010001192862,令和４年１月１日東京都中央区東日本橋三丁目４番１３号ＶＰＯ東日本橋８階マーケン・ジャパン株式会社（6010001192862）に合併し解散,2015-10-05,1,,,,,ピーシーエックスインターナショナル,0
1793,7011601002377,登記記録の閉鎖等,0,2022-01-11,2022-01-11,株式会社古谷野材木店,,株式会社,東京都,練馬区,春日町２丁目８番２３号,,13,120,1790074,,,2022-01-11,登記官による閉鎖,,,2015-10-05,1,,,,,,0
1794,7011601014133,登記記録の閉鎖等,0,2022-01-11,2022-01-11,株式会社シンプルライフ,,株式会社,東京都,練馬区,三原台１丁目３番８号２０１,,13,120,1770031,,,2022-01-11,登記官による閉鎖,,,2015-10-05,1,,,,,,0
1796,7011602002129,登記記録の閉鎖等,0,2022-01-11,2022-01-11,大山縫製有限会社,,有限会社,東京都,練馬区,春日町６丁目１８番８号,,13,120,1790074,,,2022-01-11,登記官による閉鎖,,,2015-10-05,1,,,,,,0
1798,7011602010148,登記記録の閉鎖等,0,2022-01-11,2022-01-11,有限会社やなせや,,有限会社,東京都,練馬区,旭丘１丁目７５番１０号,,13,120,1760005,,,2022-01-11,登記官による閉鎖,,,2015-10-05,1,,,,,,0
1800,7011605000212,登記記録の閉鎖等,0,2022-01-11,2022-01-11,特定非営利活動法人ウィーキャン,,その他の設立登記法人,東京都,練馬区,旭町１丁目３３番２２－１０６号,,13,120,1790071,,,2022-01-11,登記官による閉鎖,,,2015-10-05,1,,,,,,0
1802,7011701021995,登記記録の閉鎖等,0,2022-01-11,2021-12-28,株式会社ＬｉＧｏｏ　ＥＫ,,株式会社,東京都,江戸川区,西小岩３丁目２番３号,,13,123,1330057,,,2021-12-28,清算の結了等,,,2018-08-10,1,,,,,リグーイーケー,0
1807,7012401008795,登記記録の閉鎖等,0,2022-01-11,2022-01-04,株式会社ライフ,,株式会社,東京都,調布市,佐須町４丁目２２番地２,,13,208,1820016,,,2022-01-04,清算の結了等,,,2015-10-05,1,,,,,ライフ,0
1812,7012402023562,登記記録の閉鎖等,0,2022-01-11,2022-01-04,有限会社オオバ・エステート,,有限会社,神奈川県,横浜市神奈川区,菅田町２３６番地,,14,102,2210864,,,2022-01-04,合併による解散等,5010801000267,令和４年１月１日横浜市中区伊勢佐木町一丁目２番地３株式会社アエル（5010801000267）に合併し解散,2015-10-05,1,,,,,オオバエステート,0
1863,7050001022528,登記記録の閉鎖等,0,2022-01-11,2021-12-28,株式会社メイプル,,株式会社,茨城県,神栖市,土合本町５丁目９８０９番地４１７,,08,232,3140343,,,2021-12-28,清算の結了等,,,2015-10-05,1,,,,,メイプル,0
1865,7060001020167,登記記録の閉鎖等,0,2022-01-11,2021-12-27,株式会社武田マシンサービス,,株式会社,栃木県,足利市,大橋町１丁目２０３８番地,,09,202,3260051,,,2021-12-27,清算の結了等,,,2015-10-05,1,,,,,タケダマシンサービス,0
1876,7100001022530,登記記録の閉鎖等,0,2022-01-11,2022-01-06,株式会社鈴茂商事,,株式会社,長野県,飯田市,鼎西鼎６１３番地３,,20,205,3950026,,,2022-01-06,清算の結了等,,,2015-10-05,1,,,,,,0
1926,7140001003304,登記記録の閉鎖等,0,2022-01-11,2022-01-04,株式会社ケイビーシルク印刷,,株式会社,兵庫県,神戸市長田区,菅原通１丁目１,,28,106,6530015,,,2022-01-04,清算の結了等,,,2015-10-05,1,,,,,ケイビーシルクインサツ,0
1927,7140001030546,登記記録の閉鎖等,0,2022-01-11,2022-01-04,株式会社エフエイチシー,,株式会社,兵庫県,神戸市長田区,五番町８丁目１番地１１ヴィヴラサンク６０５,,28,106,6530003,,,2022-01-04,合併による解散等,4140001024286,令和４年１月１日神戸市中央区下山手通三丁目１番１３号日新ビル７Ｆ株式会社ヴァンテーヌ（4140001024286）に合併し解散,2015-10-05,1,,,,,エフエイチシー,0
1928,7140001055799,登記記録の閉鎖等,0,2022-01-11,2022-01-04,株式会社ジュノー,,株式会社,兵庫県,豊岡市,山本１６８番地の２,,28,209,6680807,,,2022-01-04,清算の結了等,,,2015-10-05,1,,,,,ジュノー,0
1937,7170001008663,登記記録の閉鎖等,0,2022-01-11,2022-01-06,株式会社コムカイ食品,,株式会社,和歌山県,田辺市,上芳養３１１５番地,,30,206,6460101,,,2022-01-06,清算の結了等,,,2015-10-05,1,,,,,コムカイショクヒン,0
1942,7180001105105,登記記録の閉鎖等,0,2022-01-11,2022-01-04,株式会社ＰＡＳＳ,,株式会社,愛知県,名古屋市中区,丸の内１丁目５番１５号,,23,106,4600002,,,2022-01-04,合併による解散等,5200001001856,令和４年１月１日岐阜市薮田南一丁目７番２２号株式会社敬愛（5200001001856）に合併し解散,2015-10-05,1,,,,,パス,0
1978,7290001071534,登記記録の閉鎖等,0,2022-01-11,2022-01-04,株式会社レントハウス不動産,,株式会社,福岡県,福岡市東区,和白２丁目５番２８号,,40,131,8110202,,,2022-01-04,合併による解散等,6290001023081,令和４年１月１日福岡市東区和白二丁目５番２８号株式会社レントハウス（6290001023081）に合併し解散,2015-10-05,1,,,,,レントハウスフドウサン,0
2010,7460302004051,登記記録の閉鎖等,0,2022-01-11,2022-01-06,佐藤建設有限会社,,有限会社,北海道,北見市,常呂町字常呂５５１番地の２,,01,208,0930210,,,2022-01-06,清算の結了等,,,2015-10-05,1,,,,,サトウケンセツ,0
2011,7470001002421,登記記録の閉鎖等,0,2022-01-11,2022-01-06,株式会社高松生花共同仲卸,,株式会社,香川県,高松市,西町１２番１号,,37,201,7600003,,,2022-01-06,清算の結了等,,,2015-10-05,1,,,,,タカマツセイカキョウドウナカオロシ,0
2019,8010001126050,登記記録の閉鎖等,0,2022-01-11,2022-01-04,株式会社ビースタッフ・エフェクト,,株式会社,東京都,中央区,銀座８丁目１６番１－１００１号,,13,102,1040061,,,2022-01-04,清算の結了等,,,2015-10-05,1,,,,,ビースタッフエフェクト,0
2039,8010005028953,登記記録の閉鎖等,0,2022-01-11,2022-01-06,一般社団法人ＣＩＳ１,,その他の設立登記法人,東京都,千代田区,丸の内３丁目１番１号東京共同会計事務所内,,13,101,1000005,,,2022-01-06,清算の結了等,,,2018-08-15,1,,,,,シーアイエスワン,0
2052,8010602025444,登記記録の閉鎖等,0,2022-01-11,2021-12-27,有限会社アルファーテック,,有限会社,東京都,墨田区,立川４丁目１１番５号,,13,107,1300023,,,2021-12-27,清算の結了等,,,2015-10-05,1,,,,,アルファーテック,0
2071,8011101058150,登記記録の閉鎖等,0,2022-01-11,2022-01-06,株式会社バタフライ,,株式会社,東京都,品川区,西品川１丁目１番１号,,13,109,1410033,,,2022-01-06,清算の結了等,,,2015-10-05,1,,,,,バタフライ,0
2081,8011601000140,登記記録の閉鎖等,0,2022-01-11,2022-01-11,合伸自動車株式会社,,株式会社,東京都,練馬区,平和台３丁目１９番１０号,,13,120,1790083,,,2022-01-11,登記官による閉鎖,,,2015-10-05,1,,,,,,0
2082,8011601000215,登記記録の閉鎖等,0,2022-01-11,2022-01-11,株式会社アウローラ,,株式会社,東京都,練馬区,光が丘１丁目３番３２３号,,13,120,1790072,,,2022-01-11,登記官による閉鎖,,,2015-10-05,1,,,,,,0
2083,8011601001007,登記記録の閉鎖等,0,2022-01-11,2022-01-11,株式会社遠藤商会,,株式会社,東京都,練馬区,桜台６丁目１８番１７号,,13,120,1760002,,,2022-01-11,登記官による閉鎖,,,2015-10-05,1,,,,,,0
2084,8011601003060,登記記録の閉鎖等,0,2022-01-11,2022-01-11,株式会社シティマルヤマ,,株式会社,東京都,練馬区,早宮３丁目１４番２号,,13,120,1790085,,,2022-01-11,登記官による閉鎖,,,2015-10-05,1,,,,,,0
2086,8011601006914,登記記録の閉鎖等,0,2022-01-11,2022-01-11,株式会社モトノ,,株式会社,東京都,練馬区,春日町４丁目３５番２９号,,13,120,1790074,,,2022-01-11,登記官による閉鎖,,,2015-10-05,1,,,,,,0
2087,8011601015452,登記記録の閉鎖等,0,2022-01-11,2022-01-11,株式会社東建サービスグループエコバンク,,株式会社,東京都,練馬区,豊玉上２丁目１７番８－３０５号,,13,120,1760011,,,2022-01-11,登記官による閉鎖,,,2015-10-05,1,,,,,,0
2088,8011602000049,登記記録の閉鎖等,0,2022-01-11,2022-01-11,有限会社三五化成,,有限会社,東京都,練馬区,高松４丁目１４番７号,,13,120,1790075,,,2022-01-11,登記官による閉鎖,,,2015-10-05,1,,,,,,0
2089,8011602020344,登記記録の閉鎖等,0,2022-01-11,2022-01-11,有限会社上総電機,,有限会社,東京都,練馬区,春日町２丁目１４番３０号,,13,120,1790074,,,2022-01-11,登記官による閉鎖,,,2015-10-05,1,,,,,,0
2090,8011605001226,登記記録の閉鎖等,0,2022-01-11,2022-01-11,特定非営利活動法人アイビス生活トラブルサポートセンター,,その他の設立登記法人,東京都,練馬区,豊玉北６丁目１３番２４－３０１号,,13,120,1760012,,,2022-01-11,登記官による閉鎖,,,2015-10-05,1,,,,,,0
2126,8030003006876,登記記録の閉鎖等,0,2022-01-11,2022-01-05,合同会社ボンズミュージック,,合同会社,埼玉県,越谷市,大字大林４４８番地１０,,11,222,3430021,,,2022-01-05,清算の結了等,,,2015-10-05,1,,,,,,0
2139,8060001032731,登記記録の閉鎖等,0,2022-01-11,2021-12-28,株式会社両毛新聞社,,株式会社,栃木県,足利市,大町５番地４,,09,202,3260056,,,2021-12-28,清算の結了等,,,2020-06-24,1,,,,,,0
2141,8070001016139,登記記録の閉鎖等,0,2022-01-11,2022-01-05,壌桐建設株式会社,,株式会社,群馬県,桐生市,仲町１丁目１０番２６号,,10,203,3760035,,,2022-01-05,清算の結了等,,,2015-10-05,1,,,,,ジョウトウケンセツ,0
2143,8080001004893,登記記録の閉鎖等,0,2022-01-11,2022-01-07,株式会社マネージメント・クリエイター,,株式会社,静岡県,静岡市駿河区,池田３８７５番地の９２,,22,102,4228005,,,2022-01-07,清算の結了等,,,2015-10-05,1,,,,,マネージメントクリエイター,0
2144,8080002007367,登記記録の閉鎖等,0,2022-01-11,2022-01-07,有限会社エスピーオー,,有限会社,静岡県,静岡市葵区,北安東４丁目２６番１３号,,22,101,4200881,,,2022-01-07,清算の結了等,,,2015-10-05,1,,,,,エスピーオー,0
2154,8110001032180,登記記録の閉鎖等,0,2022-01-11,2021-12-27,株式会社スタッフアイ,,株式会社,新潟県,見附市,耳取町７７７番地,,15,211,9540043,,,2021-12-27,清算の結了等,,,2017-03-01,1,,,,,スタッフアイ,0
2166,8120005022540,登記記録の閉鎖等,0,2022-01-11,2022-01-04,ＳＢＣパートナーズ行政書士法人,,その他の設立登記法人,大阪府,大阪市北区,太融寺町３番２４号日本生命梅田第２ビル２階,,27,127,5300051,,,2022-01-04,清算の結了等,,,2021-10-11,1,,,,,エスビーシーパートナーズ,0
2168,8120101030430,登記記録の閉鎖等,0,2022-01-11,2022-01-04,株式会社ネクステージ,,株式会社,大阪府,堺市堺区,七道西町１２番地８サニーハイツ堺５－３０８号,,27,141,5900911,,,2022-01-04,清算の結了等,,,2015-10-05,1,,,,,ネクステージ,0
2181,8130002019893,登記記録の閉鎖等,0,2022-01-11,2021-12-28,有限会社エムビー,,有限会社,京都府,京都市南区,上鳥羽南中ノ坪町１,,26,107,6018188,,,2021-12-28,清算の結了等,,,2015-10-05,1,,,,,,0
2192,8140001064691,登記記録の閉鎖等,0,2022-01-11,2022-01-04,株式会社Ｇ　ＴＥＣ,,株式会社,兵庫県,姫路市,網干区余子浜７９番地１１,,28,201,6711254,,,2022-01-04,清算の結了等,,,2015-10-05,1,,,,,ジーテック,0
2251,8260001020187,登記記録の閉鎖等,0,2022-01-11,2022-01-07,富士精機工業株式会社,,株式会社,岡山県,津山市,一方３３５番地の１,,33,203,7080883,,,2022-01-07,清算の結了等,,,2015-10-05,1,,,,,フジセイキコウギョウ,0
2260,8290001077340,登記記録の閉鎖等,0,2022-01-11,2022-01-04,株式会社三和住建,,株式会社,福岡県,福岡市東区,和白丘１丁目１番１０号,,40,131,8110213,,,2022-01-04,合併による解散等,6290001023081,令和４年１月１日福岡市東区和白二丁目５番２８号株式会社レントハウス（6290001023081）に合併し解散,2017-04-05,1,,,,,サンワジュウケン,0
2271,8300002004135,登記記録の閉鎖等,0,2022-01-11,2022-01-04,有限会社肉の明治屋,,有限会社,佐賀県,神埼市,神埼町本堀３２０６番地１,,41,210,8420003,,,2022-01-04,清算の結了等,,,2015-10-05,1,,,,,ニクノメイジヤ,0
2272,8300002005694,登記記録の閉鎖等,0,2022-01-11,2022-01-04,有限会社末次農産,,有限会社,佐賀県,佐賀市,兵庫町大字瓦町９３１番地,,41,201,8490912,,,2022-01-04,清算の結了等,,,2015-10-05,1,,,,,スエツグノウサン,0
2274,8310002012376,登記記録の閉鎖等,0,2022-01-11,2022-01-05,有限会社孔明窯,,有限会社,長崎県,東彼杵郡波佐見町,中尾郷６６５番地,,42,323,8593712,,,2022-01-05,清算の結了等,,,2015-10-05,1,,,,,コウメイガマ,0
2284,8370001001382,登記記録の閉鎖等,0,2022-01-11,2022-01-05,株式会社東北サンノー,,株式会社,宮城県,仙台市泉区,根白石字経檀河原５番１,,04,105,9813221,,,2022-01-05,合併による解散等,1370001010316,令和３年１２月３１日仙台市泉区根白石字経檀河原５番５株式会社ホロニック（1370001010316）に合併し解散,2015-10-05,1,,,,,トウホクサンノー,0
2285,8370002005325,登記記録の閉鎖等,0,2022-01-11,2022-01-06,有限会社杉崎ピーシーエル,,有限会社,宮城県,仙台市青葉区,愛子東４丁目１番３４号,,04,101,9893127,,,2022-01-06,清算の結了等,,,2015-10-05,1,,,,,スギザキピーシーエル,0
2286,8370002016537,登記記録の閉鎖等,0,2022-01-11,2022-01-07,有限会社未空,,有限会社,宮城県,仙台市太白区,郡山４丁目９番１０－２号,,04,104,9820003,,,2022-01-07,清算の結了等,,,2015-10-05,1,,,,,ミソラ,0
2288,8380001005829,登記記録の閉鎖等,0,2022-01-11,2022-01-04,坪井建材株式会社,,株式会社,福島県,郡山市,富田町字諏訪西５０番地,,07,203,9638041,,,2022-01-04,合併による解散等,1380001005827,令和４年１月１日福島県郡山市富田町字諏訪西５０番地株式会社ツボイ（1380001005827）に合併し解散,2015-10-05,1,,,,,ツボイケンザイ,0
2289,8380001014771,登記記録の閉鎖等,0,2022-01-11,2022-01-04,株式会社鹿島設計事務所,,株式会社,福島県,いわき市,平字作町一丁目９番地の３,,07,204,9708026,,,2022-01-04,清算の結了等,,,2015-10-05,1,,,,,カシマセッケイジムショ,0
2296,8430001001847,登記記録の閉鎖等,0,2022-01-11,2022-01-04,株式会社ウィング,,株式会社,北海道,札幌市北区,北三十二条西３丁目３番２５号,,01,102,0010032,,,2022-01-04,清算の結了等,,,2015-10-05,1,,,,,ウィング,0
2321,9010001049878,登記記録の閉鎖等,0,2022-01-11,2022-01-04,エム・ユー・ビジネス・エンジニアリング株式会社,,株式会社,東京都,中央区,八丁堀２丁目２５番１０号,,13,102,1040032,,,2022-01-04,合併による解散等,1010001126197,令和４年１月１日東京都中央区晴海二丁目１番４０号三菱ＵＦＪインフォメーションテクノロジー株式会社（1010001126197）に合併し解散,2015-10-05,1,,,,,エムユービジネスエンジニアリング,0
2327,9010401078741,登記記録の閉鎖等,0,2022-01-11,2021-12-27,インペックス南東マハカム沖石油株式会社,,株式会社,東京都,港区,赤坂５丁目３番１号,,13,103,1070052,,,2021-12-27,清算の結了等,,,2015-10-05,1,,,,,インペックスナントウマハカムオキセキユ,0
2333,9010402035295,登記記録の閉鎖等,0,2022-01-11,2021-12-28,ビジネステクノロジーコンサルティング有限会社,,有限会社,東京都,港区,白金台５丁目２番２０号コムステア白金台１０１,,13,103,1080071,,,2021-12-28,清算の結了等,,,2015-10-05,1,,,,,ビジネステクノロジーコンサルティング,0
2359,9011502010816,登記記録の閉鎖等,0,2022-01-11,2022-01-06,有限会社福一宿泊所,,有限会社,東京都,荒川区,南千住３丁目１２番１７号,,13,118,1160003,,,2022-01-06,合併による解散等,3010502009634,令和４年１月１日東京都台東区清川一丁目３５番１号株式会社福田屋（3010502009634）に合併し解散,2015-10-05,1,,,,,フクイチシュクハクジョ,0
2360,9011601002706,登記記録の閉鎖等,0,2022-01-11,2022-01-11,株式会社サトウ鉄筋,,株式会社,東京都,練馬区,北町８丁目２５番３号,,13,120,1790081,,,2022-01-11,登記官による閉鎖,,,2015-10-05,1,,,,,,0
2361,9011601005709,登記記録の閉鎖等,0,2022-01-11,2022-01-11,株式会社ビィー楽器店,,株式会社,東京都,練馬区,豊玉中３丁目１３番８号,,13,120,1760013,,,2022-01-11,登記官による閉鎖,,,2015-10-05,1,,,,,,0
2362,9011601013505,登記記録の閉鎖等,0,2022-01-11,2022-01-11,株式会社ハドル,,株式会社,東京都,練馬区,栄町２５番１５号,,13,120,1760006,,,2022-01-11,登記官による閉鎖,,,2015-10-05,1,,,,,,0
2364,9011602001541,登記記録の閉鎖等,0,2022-01-11,2022-01-11,有限会社エス・エッチ・エム,,有限会社,東京都,練馬区,上石神井３丁目１９番１号２０６室,,13,120,1770044,,,2022-01-11,登記官による閉鎖,,,2015-10-05,1,,,,,,0
2365,9011602004692,登記記録の閉鎖等,0,2022-01-11,2022-01-11,有限会社シィーブ,,有限会社,東京都,練馬区,中村１丁目８番１０号,,13,120,1760024,,,2022-01-11,登記官による閉鎖,,,2015-10-05,1,,,,,,0
2367,9011603000930,登記記録の閉鎖等,0,2022-01-11,2022-01-11,合同会社相続財務コンサルティング,,合同会社,東京都,練馬区,豊玉上２丁目１９番１５号,,13,120,1760011,,,2022-01-11,登記官による閉鎖,,,2015-10-05,1,,,,,,0
2368,9011605001217,登記記録の閉鎖等,0,2022-01-11,2022-01-11,特定非営利活動法人日本身体障害者介助犬福祉協会,,その他の設立登記法人,東京都,練馬区,石神井町２丁目８番２１号,,13,120,1770041,,,2022-01-11,登記官による閉鎖,,,2015-10-05,1,,,,,,0
2392,9021001059098,登記記録の閉鎖等,0,2022-01-11,2022-01-04,株式会社東海ホテルメンテナス,,株式会社,神奈川県,小田原市,本町１丁目１３番６号,,14,206,2500012,,,2022-01-04,合併による解散等,2021001032953,令和４年１月１日神奈川県小田原市本町一丁目１３番６号株式会社東海ビルメンテナス（2021001032953）に合併し解散,2016-04-21,1,,,,,トウカイホテルメンテナンス,0
2410,9030001136253,登記記録の閉鎖等,0,2022-01-11,2022-01-06,はい喜んで株式会社,,株式会社,埼玉県,比企郡嵐山町,大字鎌形２１７４番地,,11,342,3550225,,,2022-01-06,清算の結了等,,,2020-04-27,1,,,,,ハイヨロコンデ,0
2434,9040003013516,登記記録の閉鎖等,0,2022-01-11,2022-01-04,Ｇｏｏｄ　Ｍｅｍｏｒｉｅｓ合同会社,,合同会社,千葉県,柏市,酒井根２丁目６番１５号,,12,217,2770053,,,2022-01-04,清算の結了等,,,2019-06-11,1,,,,,グッドメモリーズ,0
2438,9050002002238,登記記録の閉鎖等,0,2022-01-11,2021-12-28,有限会社照山食料品店,,有限会社,茨城県,水戸市,三の丸３丁目７番１１号,,08,201,3100011,,,2021-12-28,清算の結了等,,,2015-10-05,1,,,,,テルヤマショクリョウヒンテン,0
2446,9070001033380,登記記録の閉鎖等,0,2022-01-11,2022-01-05,株式会社ケーアンドエフ,,株式会社,群馬県,伊勢崎市,赤堀鹿島町５１７番地１５,,10,204,3792202,,,2022-01-05,合併による解散等,9070002025583,令和４年１月１日群馬県伊勢崎市赤堀鹿島町５１７番地１５株式会社ケーファクトリー（9070002025583）に合併し解散,2017-04-11,1,,,,,ケーアンドエフ,0
2456,9080401024383,登記記録の閉鎖等,0,2022-01-11,2022-01-04,Ｋ．Ｋ．アグリ株式会社,,株式会社,静岡県,磐田市,鮫島３２１番地２,,22,211,4380055,,,2022-01-04,清算の結了等,,,2020-07-06,1,,,,,ケイケイアグリ,0
2472,9110001014310,登記記録の閉鎖等,0,2022-01-11,2022-01-04,鈴幸石油株式会社,,株式会社,新潟県,三条市,北新保１丁目１４番１７号,,15,204,9550861,,,2022-01-04,合併による解散等,7110001014304,令和４年１月１日新潟県三条市北新保一丁目１４番１７号鈴木化学工業株式会社（7110001014304）に合併し解散,2015-10-05,1,,,,,スズコウセキユ,0
2478,9120001019762,登記記録の閉鎖等,0,2022-01-11,2022-01-05,大西グラビヤ印刷株式会社,00027730,株式会社,大阪府,大阪市平野区,加美正覚寺４丁目７番１２号,,27,126,5470006,,,2022-01-05,清算の結了等,,,2015-10-05,1,,,,,オオニシグラビヤインサツ,0
2506,9140001031856,登記記録の閉鎖等,0,2022-01-11,2022-01-04,新光警備保障株式会社,,株式会社,兵庫県,神戸市東灘区,御影石町１丁目１番４３号,,28,101,6580045,,,2022-01-04,合併による解散等,3140001011104,令和４年１月１日神戸市東灘区御影石町一丁目１番４３号株式会社三木美研舎（3140001011104）に合併し解散,2015-10-05,1,,,,,シンコウケイビホショウ,0
2516,9170001008694,登記記録の閉鎖等,0,2022-01-11,2022-01-06,新和海運産業株式会社,,株式会社,和歌山県,田辺市,目良１７番５１号,,30,206,6460058,,,2022-01-06,清算の結了等,,,2015-10-05,1,,,,,シンワカイウンサンギョウ,0
2518,9170001008760,登記記録の閉鎖等,0,2022-01-11,2022-01-06,株式会社田辺堂,,株式会社,和歌山県,田辺市,磯間７番２５号,,30,206,6460037,,,2022-01-06,清算の結了等,,,2015-10-05,1,,,,,タナベドウ,0
2527,9180002002456,登記記録の閉鎖等,0,2022-01-11,2022-01-06,有限会社セラヴィ,,有限会社,愛知県,瀬戸市,川西町１丁目６５番地の１,,23,204,4890926,,,2022-01-06,清算の結了等,,,2015-10-05,1,,,,,セラヴィ,0
2528,9180002071261,登記記録の閉鎖等,0,2022-01-11,2022-01-06,有限会社タカオ建材,,有限会社,愛知県,小牧市,中央５丁目２６６番地,,23,219,4850029,,,2022-01-06,清算の結了等,,,2015-10-05,1,,,,,,0
2541,9210001001505,登記記録の閉鎖等,0,2022-01-11,2021-12-28,株式会社視覚センター武内,,株式会社,福井県,福井市,中央１丁目９番２８号,,18,201,9100006,,,2021-12-28,合併による解散等,4210001003381,令和３年１２月２８日福井市開発五丁目１００１番地株式会社宝石時計の武内（4210001003381）に合併し解散,2015-10-05,1,,,,,シカクセンタータケウチ,0
2561,9290001058257,登記記録の閉鎖等,0,2022-01-11,2022-01-04,株式会社ウタリ・コーポレーション,,株式会社,福岡県,福岡市東区,和白東２丁目１６番１５号,,40,131,8110214,,,2022-01-04,合併による解散等,8290001026982,令和４年１月１日福岡市東区和白東二丁目１６番１５号株式会社やすこうち（8290001026982）に合併し解散,2015-10-05,1,,,,,ウタリコーポレーション,0
2573,9310005001276,登記記録の閉鎖等,0,2022-01-11,2022-01-07,医療法人遠山小児科医院,,その他の設立登記法人,長崎県,長崎市,葉山１丁目５番１号,,42,201,8528053,,,2022-01-07,清算の結了等,,,2015-10-05,1,,,,,トオヤマショウニカイイン,0
2605,9390001004333,登記記録の閉鎖等,0,2022-01-11,2022-01-04,株式会社ガイア,,株式会社,山形県,天童市,大字乱川１６３番地の２,,06,210,9940002,,,2022-01-04,清算の結了等,,,2015-10-05,1,,,,,ガイア,0
2618,9470002014760,登記記録の閉鎖等,0,2022-01-11,2022-01-06,有限会社鎌田天狗堂,,有限会社,香川県,坂出市,本町３丁目１番３４号,,37,203,7620044,,,2022-01-06,清算の結了等,,,2015-10-05,1,,,,,カマダテングドウ,0
2625,9500002018411,登記記録の閉鎖等,0,2022-01-11,2022-01-06,有限会社白石組,,有限会社,愛媛県,今治市,波方町樋口甲２０５５番地,00008137,38,202,7992102,,,2022-01-06,清算の結了等,,,2015-10-05,1,,,,,シライシグミ,0
