sequenceNumber,corporateNumber,process,correct,updateDate,changeDate,name,nameImageId,kind,prefectureName,cityName,streetNumber,addressImageId,prefectureCode,cityCode,postCode,addressOutside,addressOutsideImageId,closeDate,closeCause,successorCorporateNumber,changeCause,assignmentDate,latest,enName,enPrefectureName,enCityName,enAddressOutside,furigana,hihyoji
27,1010401088244,登記記録の閉鎖等,0,2021-10-12,2021-09-30,株式会社林,,株式会社,東京都,港区,芝浦２丁目２番１６－６０１号,,13,103,1080023,,,2021-09-30,清算の結了等,,,2015-10-05,1,,,,,ハヤシ,0
73,1011401017515,登記記録の閉鎖等,0,2021-10-12,2021-09-29,株式会社サイブレスト,,株式会社,東京都,江東区,有明３丁目７番２６号有明フロンティアビルＢ棟９階,,13,108,1350063,,,2021-09-29,清算の結了等,,,2015-10-05,1,,,,,サイブレスト,0
87,1012401008917,登記記録の閉鎖等,0,2021-10-12,2021-10-07,株式会社イグチ,,株式会社,神奈川県,横須賀市,山科台４５番１３号,,14,201,2380312,,,2021-10-07,清算の結了等,,,2015-10-05,1,,,,,イグチ,0
104,1020001119489,登記記録の閉鎖等,0,2021-10-12,2021-10-05,株式会社パーク・ダイニング,,株式会社,神奈川県,川崎市宮前区,犬蔵１丁目２３番１３号,,14,136,2160011,,,2021-10-05,合併による解散等,5020001140788,令和３年１０月１日神奈川県川崎市宮前区犬蔵一丁目２３番１３号株式会社良知経営（5020001140788）に合併し解散,2017-01-20,1,,,,,パークダイニング,0
119,1021002043208,登記記録の閉鎖等,0,2021-10-12,2021-10-06,有限会社ＡＳＡ相武台,,有限会社,神奈川県,座間市,広野台１丁目２８番３号,,14,216,2520012,,,2021-10-06,合併による解散等,6021001026514,令和３年１０月１日神奈川県座間市さがみ野二丁目２番１７号株式会社野村新聞店（6021001026514）に合併し解散,2015-10-05,1,,,,,エーエスエーソウブダイ,0
123,1030001092025,登記記録の閉鎖等,0,2021-10-12,2021-09-30,株式会社りゅう,,株式会社,埼玉県,蓮田市,馬込６丁目２８番地－２０８,,11,238,3490114,,,2021-09-30,清算の結了等,,,2015-10-05,1,,,,,リュウ,0
133,1050001020751,登記記録の閉鎖等,0,2021-10-12,2021-10-01,株式会社浜野サービス,,株式会社,茨城県,神栖市,知手中央６丁目２１番６号,,08,232,3140112,,,2021-10-01,清算の結了等,,,2015-10-05,1,,,,,ハマノサービス,0
153,1100001006035,登記記録の閉鎖等,0,2021-10-12,2021-10-08,株式会社みよし野ファーム,,株式会社,長野県,長野市,柳町８１番地,,20,201,3800805,,,2021-10-08,清算の結了等,,,2015-10-05,1,,,,,ミヨシノファーム,0
156,1100002017898,登記記録の閉鎖等,0,2021-10-12,2021-10-04,株式会社ＪＰＳＳ,,株式会社,茨城県,常陸太田市,町屋町１３０３番地の１,,08,212,3110311,,,2021-10-04,清算の結了等,,,2015-10-05,1,,,,,ジェイピーエスエス,0
159,1110001027625,登記記録の閉鎖等,0,2021-10-12,2021-10-06,ダイサン佐渡コンテナー株式会社,,株式会社,新潟県,佐渡市,新穂潟上８８２番地,,15,224,9520103,,,2021-10-06,清算の結了等,,,2015-10-05,1,,,,,ダイサンサドコンテナー,0
171,1120001221482,登記記録の閉鎖等,0,2021-10-12,2021-10-01,株式会社Ｌａｒｉｍａｒ,,株式会社,大阪府,大阪市北区,梅田１丁目１１番４－１０００号,,27,127,5300001,,,2021-10-01,清算の結了等,,,2019-06-07,1,,,,,ラリマー,0
198,1140005016217,登記記録の閉鎖等,0,2021-10-12,2021-10-08,医療法人社団小山医院,,その他の設立登記法人,兵庫県,西宮市,甲子園口５丁目２番４号,,28,204,6638113,,,2021-10-08,清算の結了等,,,2015-10-05,1,,,,,シャダンコヤマイイン,0
214,1180001076797,登記記録の閉鎖等,0,2021-10-12,2021-10-05,今川運送株式会社,,株式会社,愛知県,春日井市,下原町２２５０番地の１,,23,206,4860819,,,2021-10-05,合併による解散等,8122001000661,令和３年１０月１日大阪府東大阪市今米一丁目１４番４６号今川運送株式会社（8122001000661）に合併し解散,2015-10-05,1,,,,,イマガワウンソウ,0
222,1180002052070,登記記録の閉鎖等,0,2021-10-12,2021-10-04,有限会社ベスト,,有限会社,愛知県,北名古屋市,片場八瀬の木２５番地,,23,234,4810002,,,2021-10-04,清算の結了等,,,2015-10-05,1,,,,,ベスト,0
232,1180302026344,登記記録の閉鎖等,0,2021-10-12,2021-10-08,有限会社柴エンジニアリング,,有限会社,愛知県,西尾市,住崎２丁目９９番地,,23,213,4450879,,,2021-10-08,清算の結了等,,,2015-10-05,1,,,,,シバエンジニアリング,0
239,1220001007541,登記記録の閉鎖等,0,2021-10-12,2021-10-06,株式会社レミックス,,株式会社,石川県,金沢市,上荒屋６丁目４２４番地,,17,201,9218065,,,2021-10-06,清算の結了等,,,2015-10-05,1,,,,,レミックス,0
242,1230002013868,登記記録の閉鎖等,0,2021-10-12,2021-10-05,有限会社鷲塚屋,,有限会社,富山県,射水市,作道３６７番地１,,16,211,9340042,,,2021-10-05,清算の結了等,,,2015-10-05,1,,,,,ワシヅカヤ,0
249,1240002015987,登記記録の閉鎖等,0,2021-10-12,2021-10-08,有限会社ミウラコーポレーション,,有限会社,広島県,広島市安佐南区,長束西３丁目７番９－１号,,34,105,7310136,,,2021-10-08,清算の結了等,,,2015-10-05,1,,,,,ミウラコーポレーション,0
260,1290001025454,登記記録の閉鎖等,0,2021-10-12,2021-10-04,株式会社ＴＶＱサービス,,株式会社,福岡県,福岡市博多区,住吉２丁目３番１号,,40,132,8120018,,,2021-10-04,合併による解散等,2290001014720,令和３年１０月１日福岡市博多区住吉二丁目３番１号株式会社ＴＶＱテック＆サービス（2290001014720）に合併し解散,2015-10-05,1,,,,,ティーヴィーキューサービス,0
286,1370005008901,登記記録の閉鎖等,0,2021-10-12,2021-09-30,一般社団法人需要工学研究所,,その他の設立登記法人,宮城県,仙台市若林区,河原町２丁目１０番２２号,,04,103,9840816,,,2021-09-30,清算の結了等,,,2016-01-05,1,,,,,ジュヨウコウガクケンキュウジョ,0
299,1390001016526,登記記録の閉鎖等,0,2021-10-12,2021-10-05,小関織物株式会社,,株式会社,山形県,米沢市,花沢町１丁目９番１０号,,06,202,9920022,,,2021-10-05,清算の結了等,,,2021-07-12,1,,,,,コセキオリモノ,0
304,1430001020168,登記記録の閉鎖等,0,2021-10-12,2021-10-01,株式会社札幌デンタル大通ラボ,,株式会社,北海道,札幌市北区,北二十四条西２丁目４番１３号,,01,102,0010024,,,2021-10-01,合併による解散等,4430001061044,令和３年１０月１日札幌市北区北二十四条西二丁目３番２６号株式会社札幌デンタル・ラボラトリー（4430001061044）に合併し解散,2015-10-05,1,,,,,サッポロデンタルオオドオリラボ,0
313,1430005013176,登記記録の閉鎖等,0,2021-10-12,2021-10-06,一般社団法人北海道ブランド発信プロジェクト,,その他の設立登記法人,北海道,札幌市中央区,北二条西２丁目４番地,,01,101,0600002,,,2021-10-06,清算の結了等,,,2017-07-12,1,,,,,ホッカイドウブランドハッシンプロジェクト,0
315,1450002003327,登記記録の閉鎖等,0,2021-10-12,2021-10-11,有限会社ひいらぎコーポレーション,,有限会社,北海道,旭川市,五条通６丁目４番５７の２７第二５条ビルマンション５０３号室,,01,204,0700035,,,2021-10-11,清算の結了等,,,2015-10-05,1,,,,,ヒイラギコーポレーション,0
323,2010001049091,登記記録の閉鎖等,0,2021-10-12,2021-10-07,大東化学株式会社,,株式会社,神奈川県,平塚市,須賀２７００番地,,14,203,2540022,,,2021-10-07,合併による解散等,4020001142083,令和３年１０月１日川崎市幸区大宮町１３１０番エア・ウォーター・パフォーマンスケミカル株式会社（4020001142083）に合併し解散,2015-10-05,1,,,,,ダイトウカガク,0
341,2010403014230,登記記録の閉鎖等,0,2021-10-12,2021-09-30,合同会社ＬＣＲＦ１３,,合同会社,東京都,港区,虎ノ門５丁目３番２０号株式会社アカウンティング・マネジメント・サービス内,,13,103,1050001,,,2021-09-30,清算の結了等,,,2015-12-28,1,,,,,エルシーアールエフサーティーン,0
348,2010503005609,登記記録の閉鎖等,0,2021-10-12,2021-10-05,合同会社ＣＭＪＷ,,合同会社,東京都,台東区,鳥越２丁目９番１０－３０４号,,13,106,1110054,,,2021-10-05,清算の結了等,,,2019-06-11,1,,,,,シーエムジェイダブリュー,0
351,2010602031480,登記記録の閉鎖等,0,2021-10-12,2021-09-28,有限会社タイムリープラザ,,有限会社,東京都,江東区,大島７丁目４３番１６号,,13,108,1360072,,,2021-09-28,清算の結了等,,,2015-10-05,1,,,,,タイムリープラザ,0
355,2010705002107,登記記録の閉鎖等,0,2021-10-12,2021-09-09,一般社団法人ＴＯＴＡＬ　ＨＵＭＡＮ　ＣＯＬＬＥＧＥ,,その他の設立登記法人,東京都,渋谷区,恵比寿１丁目１５番９号シルク恵比寿４０３,,13,113,1500013,,,2021-09-09,清算の結了等,,,2015-10-05,1,,,,,トータルヒューマンカレッジ,0
359,2010902004418,登記記録の閉鎖等,0,2021-10-12,2021-09-21,有限会社川勇商店,,有限会社,東京都,渋谷区,渋谷２丁目４番３号,,13,113,1500002,,,2021-09-21,合併による解散等,3011001093558,令和３年９月１５日東京都渋谷区渋谷二丁目４番３号株式会社Ｃｌｅａｒ（3011001093558）に合併し解散,2015-10-05,1,,,,,カワユウショウテン,0
385,2011101062117,登記記録の閉鎖等,0,2021-10-12,2021-10-01,株式会社ＰＩＡ,,株式会社,東京都,新宿区,西新宿４丁目３番１３号,,13,104,1600023,,,2021-10-01,合併による解散等,2011101062983,令和３年１０月１日東京都新宿区西新宿四丁目３番１３号株式会社ハート・トーク（2011101062983）に合併し解散,2015-10-05,1,,,,,ピーアイエイ,0
395,2012401012777,登記記録の閉鎖等,0,2021-10-12,2021-10-06,電子工業株式会社,,株式会社,東京都,三鷹市,下連雀６丁目１５番２９号,,13,204,1810013,,,2021-10-06,清算の結了等,,,2015-10-05,1,,,,,デンシコウギョウ,0
431,2030001107384,登記記録の閉鎖等,0,2021-10-12,2021-09-30,株式会社日本都市コンサル,,株式会社,埼玉県,鴻巣市,東３丁目９番２０号,,11,217,3650039,,,2021-09-30,清算の結了等,,,2015-10-05,1,,,,,ニホントシコンサル,0
432,2030002034495,登記記録の閉鎖等,0,2021-10-12,2021-10-01,有限会社村田緑化,,有限会社,埼玉県,狭山市,大字上赤坂２５４番地の２,,11,215,3501313,,,2021-10-01,清算の結了等,,,2015-10-05,1,,,,,ムラタリョッカ,0
469,2060001030344,登記記録の閉鎖等,0,2021-10-12,2021-10-06,栃木医療資源株式会社,,株式会社,栃木県,那須塩原市,上赤田２３８番地４４１,,09,213,3292748,,,2021-10-06,清算の結了等,,,2018-03-19,1,,,,,トチギイリョウシゲン,0
470,2060002020559,登記記録の閉鎖等,0,2021-10-12,2021-10-01,東邦機工株式会社,,株式会社,栃木県,鹿沼市,茂呂７８８番地５,,09,205,3220026,,,2021-10-01,合併による解散等,6060001014780,令和３年１０月１日栃木県小山市大字粟宮１１２９番地２中央空機株式会社（6060001014780）に合併し解散,2015-10-05,1,,,,,,0
493,2120001051326,登記記録の閉鎖等,0,2021-10-12,2021-10-05,株式会社エルシー,,株式会社,大阪府,大阪市東淀川区,東淡路１丁目５番３－９１４号,,27,114,5330023,,,2021-10-05,清算の結了等,,,2015-10-05,1,,,,,エルシー,0
519,2120105007075,登記記録の閉鎖等,0,2021-10-12,2021-10-05,特定非営利活動法人燦燦ライフ,,その他の設立登記法人,大阪府,和泉市,唐国町４丁目１０番３４号,,27,219,5941151,,,2021-10-05,清算の結了等,,,2015-10-05,1,,,,,サンサンライフ,0
521,2122001006672,登記記録の閉鎖等,0,2021-10-12,2021-10-08,丸山建設工業株式会社,,株式会社,大阪府,東大阪市,永和２丁目５番２２号,,27,227,5770809,,,2021-10-08,清算の結了等,,,2015-10-05,1,,,,,マルヤマケンセツコウギョウ,0
561,2190002021081,登記記録の閉鎖等,0,2021-10-12,2021-10-07,有限会社つばめサービス,,有限会社,三重県,四日市市,新町３番１１号,,24,202,5100092,,,2021-10-07,清算の結了等,,,2015-10-05,1,,,,,,0
569,2210002009165,登記記録の閉鎖等,0,2021-10-12,2021-10-01,有限会社森本,,有限会社,福井県,福井市,下荒井町第１５号１１６番地,,18,201,9188017,,,2021-10-01,清算の結了等,,,2015-10-05,1,,,,,モリモト,0
573,2230001000949,登記記録の閉鎖等,0,2021-10-12,2021-10-05,株式会社小林建築企画室,,株式会社,富山県,富山市,上冨居１丁目８番６号,,16,201,9300835,,,2021-10-05,清算の結了等,,,2015-10-05,1,,,,,コバヤシケンチクキカクシツ,0
580,2240002027734,登記記録の閉鎖等,0,2021-10-12,2021-10-08,有限会社重光組,,有限会社,広島県,東広島市,黒瀬町市飯田１０６６番地の１,,34,212,7392626,,,2021-10-08,清算の結了等,,,2015-10-05,1,,,,,シゲミツグミ,0
597,2290002030865,登記記録の閉鎖等,0,2021-10-12,2021-09-22,有限会社博多こどものとも社,,有限会社,福岡県,福岡市南区,柳瀬２丁目１７番４号,,40,134,8111321,,,2021-09-22,清算の結了等,,,2015-10-05,1,,,,,ハカタコドモノトモシャ,0
598,2290003005387,登記記録の閉鎖等,0,2021-10-12,2021-09-27,合同会社フレディ,,合同会社,福岡県,八女郡広川町,大字広川１２５５番地６サンコーポラス下広川２棟２０３号,,40,544,8340121,,,2021-09-27,清算の結了等,,,2015-10-05,1,,,,,フレディ,0
617,2370001011560,登記記録の閉鎖等,0,2021-10-12,2021-10-07,株式会社ＮＴＴファシリティーズ東北,,株式会社,宮城県,仙台市若林区,五橋３丁目２番１号,,04,103,9840022,,,2021-10-07,合併による解散等,3010401005008,令和３年１０月１日東京都港区芝浦三丁目４番１号株式会社ＮＴＴファシリティーズ（3010401005008）に合併し解散,2015-10-05,1,,,,,エヌティーティーファシリティーズトウホク,0
622,2380001013564,登記記録の閉鎖等,0,2021-10-12,2021-10-07,日化トレーディング株式会社,,株式会社,福島県,いわき市,小名浜字隼人５０番地の４,,07,204,9718101,,,2021-10-07,合併による解散等,1010501016674,令和３年１０月１日東京都千代田区丸の内一丁目１番１号ＭＣＣトレーディング株式会社（1010501016674）に合併し解散,2015-10-05,1,,,,,ニッカトレーディング,0
626,2390002014684,登記記録の閉鎖等,0,2021-10-12,2021-10-05,有限会社肉の斎藤,,有限会社,山形県,東置賜郡川西町,大字上小松１７９２番地,,06,382,9990121,,,2021-10-05,清算の結了等,,,2015-10-05,1,,,,,ニクノサイトウ,0
628,2400001000700,登記記録の閉鎖等,0,2021-10-12,2021-10-08,株式会社サンビル,,株式会社,岩手県,盛岡市,大通１丁目２番１号,,03,201,0200022,,,2021-10-08,清算の結了等,,,2015-10-05,1,,,,,サンビル,0
634,2430001073900,登記記録の閉鎖等,0,2021-10-12,2021-10-04,株式会社ｈｉｂｉｊｕ,,株式会社,北海道,札幌市北区,北二十三条西４丁目２番３号,,01,102,0010023,,,2021-10-04,清算の結了等,,,2017-04-28,1,,,,,ヒビジュ,0
636,2430002062778,登記記録の閉鎖等,0,2021-10-12,2021-10-05,有限会社瀬戸牧場,,有限会社,北海道,沙流郡日高町,字賀張８６番地の５７,,01,601,0592244,,,2021-10-05,清算の結了等,,,2015-10-05,1,,,,,セトボクジョウ,0
642,2470001006732,登記記録の閉鎖等,0,2021-10-12,2021-10-08,株式会社アイ,,株式会社,香川県,木田郡三木町,大字池戸甲１７４５番地２０,,37,341,7610701,,,2021-10-08,合併による解散等,1120001103433,令和３年１０月１日大阪市北区豊崎三丁目３番１３号株式会社ニチホス（1120001103433）に合併し解散,2015-10-05,1,,,,,アイ,0
686,3010403017190,登記記録の閉鎖等,0,2021-10-12,2021-09-30,ＧＳＦ合同会社,,合同会社,東京都,港区,虎ノ門４丁目３－１城山トラストタワー３３階,,13,103,1050001,,,2021-09-30,合併による解散等,3010401120772,令和３年９月３０日東京都港区虎ノ門四丁目３番１号城山トラストタワー２７階グローバルスカイ・コーポレーション株式会社（3010401120772）に合併し解散,2017-09-07,1,,,,,ジーエスエフ,0
696,3010802018764,登記記録の閉鎖等,0,2021-10-12,2021-10-05,有限会社高木総合保険,00052539,有限会社,東京都,大田区,田園調布本町３番２１号,,13,111,1450072,,,2021-10-05,清算の結了等,,,2015-10-05,1,,,,,タカギソウゴウホケン,0
732,3011802016196,登記記録の閉鎖等,0,2021-10-12,2021-10-11,有限会社東栄商会,,有限会社,東京都,足立区,中央本町３丁目６番３号,,13,121,1210011,,,2021-10-11,清算の結了等,,,2015-10-05,1,,,,,トウエイショウカイ,0
759,3020005005130,登記記録の閉鎖等,0,2021-10-12,2021-10-05,特定非営利活動法人ヨコハマ総合不動産コンサルティング協会,,その他の設立登記法人,神奈川県,横浜市中区,不老町１丁目２番地７号シャトレーイン横浜９０３号室,,14,104,2310032,,,2021-10-05,清算の結了等,,,2015-10-05,1,,,,,ヨコハマソウゴウフドウサンコンサルティングキョウカイ,0
762,3021001028315,登記記録の閉鎖等,0,2021-10-12,2021-10-06,株式会社パッション,,株式会社,神奈川県,座間市,広野台１丁目２８番３号,,14,216,2520012,,,2021-10-06,合併による解散等,6021001026514,令和３年１０月１日神奈川県座間市さがみ野二丁目２番１７号株式会社野村新聞店（6021001026514）に合併し解散,2015-10-05,1,,,,,パッション,0
768,3021005010541,登記記録の閉鎖等,0,2021-10-12,2021-10-05,ＮＰＯ法人真鶴半島自然保護協会,,その他の設立登記法人,神奈川県,足柄下郡湯河原町,吉浜２５５番地の５,,14,384,2590312,,,2021-10-05,清算の結了等,,,2016-02-29,1,,,,,マナヅルハントウシゼンホゴキョウカイ,0
781,3030005000832,登記記録の閉鎖等,0,2021-10-12,2021-09-30,ドン専門店街協同組合,,その他の設立登記法人,埼玉県,さいたま市大宮区,桜木町２丁目３番地,,11,103,3300854,,,2021-09-30,清算の結了等,,,2015-10-05,1,,,,,ドンセンモンテンガイ,0
783,3040001074895,登記記録の閉鎖等,0,2021-10-12,2021-10-04,株式会社大惣,,株式会社,千葉県,いすみ市,大原７７６５番地,,12,238,2980004,,,2021-10-04,清算の結了等,,,2015-10-05,1,,,,,ダイソウ,0
800,3050002000957,登記記録の閉鎖等,0,2021-10-12,2021-10-04,有限会社菊月,,有限会社,茨城県,水戸市,城東１丁目５番２３号,,08,201,3100012,,,2021-10-04,清算の結了等,,,2015-10-05,1,,,,,キクツキ,0
815,3080002006596,登記記録の閉鎖等,0,2021-10-12,2021-10-08,有限会社エスケイ・オフィス,,有限会社,静岡県,静岡市葵区,両替町２丁目１番５号２０１号室,,22,101,4200032,,,2021-10-08,清算の結了等,,,2015-10-05,1,,,,,,0
817,3080102001885,登記記録の閉鎖等,0,2021-10-12,2021-10-04,有限会社すずもく産業,,有限会社,静岡県,沼津市,根古屋１４３番地の４,,22,203,4100309,,,2021-10-04,清算の結了等,,,2015-10-05,1,,,,,スズモクサンギョウ,0
842,3120001226819,登記記録の閉鎖等,0,2021-10-12,2021-09-28,株式会社ＣｈｉｎｅＮｏｉｒｅ,,株式会社,大阪府,大阪市西区,南堀江１丁目１１番８号ルーブルコート南堀江５０２－Ｃ室,,27,106,5500015,,,2021-09-28,清算の結了等,,,2020-02-03,1,,,,,チャインノワール,0
888,3140002020863,登記記録の閉鎖等,0,2021-10-12,2021-10-04,有限会社やの,,有限会社,兵庫県,神戸市東灘区,甲南町１丁目４番１８－２０３号,,28,101,6580084,,,2021-10-04,清算の結了等,,,2015-10-05,1,,,,,ヤノ,0
891,3150001019765,登記記録の閉鎖等,0,2021-10-12,2021-10-06,株式会社サテラ,,株式会社,奈良県,香芝市,磯壁６丁目２９２番地４,,29,210,6390236,,,2021-10-06,清算の結了等,,,2015-10-05,1,,,,,サテラ,0
901,3180002092197,登記記録の閉鎖等,0,2021-10-12,2021-10-04,有限会社山中商工,,有限会社,愛知県,海部郡大治町,大字西條字狐海道１８３番地の３,,23,424,4901144,,,2021-10-04,清算の結了等,,,2015-10-05,1,,,,,ヤマナカショウコウ,0
906,3180301013135,登記記録の閉鎖等,0,2021-10-12,2021-10-11,株式会社東海携帯電話,,株式会社,愛知県,安城市,桜井町阿原２８番２,,23,212,4441154,,,2021-10-11,清算の結了等,,,2015-10-05,1,,,,,トウカイケイタイデンワ,0
911,3180302028413,登記記録の閉鎖等,0,2021-10-12,2021-10-07,有限会社十一屋,,有限会社,愛知県,豊橋市,大橋通３丁目３２番地,,23,201,4400076,,,2021-10-07,清算の結了等,,,2018-08-07,1,,,,,ジュウイチヤ,0
912,3180303002482,登記記録の閉鎖等,0,2021-10-12,2021-10-07,合資会社深谷畜産,,合資会社,愛知県,豊田市,高丘新町松本７１番地,,23,211,4730921,,,2021-10-07,清算の結了等,,,2015-10-05,1,,,,,フカヤチクサン,0
916,3200001007649,登記記録の閉鎖等,0,2021-10-12,2021-10-08,明和商事株式会社,,株式会社,岐阜県,各務原市,鵜沼各務原町５丁目２９０番地,,21,213,5090141,,,2021-10-08,清算の結了等,,,2015-10-05,1,,,,,メイワショウジ,0
917,3200001016352,登記記録の閉鎖等,0,2021-10-12,2021-10-08,株式会社拉麺倶楽部,,株式会社,岐阜県,大垣市,東外側町１丁目１２番地,,21,202,5030903,,,2021-10-08,清算の結了等,,,2015-10-05,1,,,,,,0
928,3230002010756,登記記録の閉鎖等,0,2021-10-12,2021-10-05,有限会社エムツー・企画,,有限会社,富山県,高岡市,熊野町６番８号,,16,202,9330903,,,2021-10-05,清算の結了等,,,2015-10-05,1,,,,,エムツーキカク,0
936,3250005001131,登記記録の閉鎖等,0,2021-10-12,2021-10-08,特定非営利活動法人ヒューマンスペースきらきら銀魚,,その他の設立登記法人,山口県,山口市,朝田６７１番地４,,35,203,7530871,,,2021-10-08,清算の結了等,,,2015-10-05,1,,,,,ヒューマンスペースキラキラギンギョ,0
940,3290001011849,登記記録の閉鎖等,0,2021-10-12,2021-09-27,株式会社エスケイビルト,,株式会社,福岡県,福岡市博多区,三筑２丁目１８番１号,,40,132,8120887,,,2021-09-27,清算の結了等,,,2015-10-05,1,,,,,エスケイビルト,0
941,3290001018745,登記記録の閉鎖等,0,2021-10-12,2021-10-07,株式会社ＮＴＴファシリティーズ九州,,株式会社,福岡県,福岡市博多区,博多駅前１丁目１７番２１号,,40,132,8120011,,,2021-10-07,合併による解散等,3010401005008,令和３年１０月１日東京都港区芝浦三丁目４番１号株式会社ＮＴＴファシリティーズ（3010401005008）に合併し解散,2015-10-05,1,,,,,エヌティティファシリティーズキュウシュウ,0
948,3290002013588,登記記録の閉鎖等,0,2021-10-12,2021-09-30,陽光有限会社,,有限会社,福岡県,福岡市中央区,渡辺通４丁目９番１８号,,40,133,8100004,,,2021-09-30,合併による解散等,5290001009998,令和３年９月３０日福岡市中央区渡辺通四丁目９番１８号福岡建物株式会社（5290001009998）に合併し解散,2015-10-05,1,,,,,ヨウコウ,0
958,3310001012398,登記記録の閉鎖等,0,2021-10-12,2021-10-08,株式会社ＭＫＫ,,株式会社,長崎県,長崎市,深堀町３丁目１３６番地２,,42,201,8510301,,,2021-10-08,清算の結了等,,,2015-10-05,1,,,,,エムケイケイ,0
966,3330002001043,登記記録の閉鎖等,0,2021-10-12,2021-10-08,有限会社魚新,,有限会社,熊本県,熊本市西区,小島９丁目９番２号,,43,103,8615287,,,2021-10-08,清算の結了等,,,2015-10-05,1,,,,,ウオシン,0
969,3340001002594,登記記録の閉鎖等,0,2021-10-12,2021-10-01,株式会社太陽殖産,,株式会社,鹿児島県,鹿児島市,新栄町２２番２６号,,46,201,8900072,,,2021-10-01,合併による解散等,3340001011455,令和３年９月３０日鹿児島市東谷山六丁目３７番１７号株式会社ユナイテッド・トラッド（3340001011455）に合併し解散,2015-10-05,1,,,,,タイヨウショクサン,0
980,3380001017110,登記記録の閉鎖等,0,2021-10-12,2021-10-08,会津碍子株式会社,,株式会社,福島県,会津若松市,北会津町上米塚８８９番地,,07,202,9696183,,,2021-10-08,合併による解散等,5011101015468,令和３年１０月１日東京都新宿区新宿二丁目１番１２号那須電機鉄工株式会社（5011101015468）に合併し解散,2015-10-05,1,,,,,アイヅガイシ,0
989,3410001004815,登記記録の閉鎖等,0,2021-10-12,2021-10-06,株式会社ファミリー竹光,,株式会社,秋田県,由利本荘市,雪車町字元岡田１５０番地１,,05,210,0150081,,,2021-10-06,清算の結了等,,,2015-10-05,1,,,,,ファミリータケミツ,0
996,3430002059154,登記記録の閉鎖等,0,2021-10-12,2021-10-04,有限会社タイブレイク,,有限会社,北海道,苫小牧市,日の出町１丁目２番１－１０８号,,01,213,0530043,,,2021-10-04,清算の結了等,,,2015-10-05,1,,,,,タイブレイク,0
1000,3460002005337,登記記録の閉鎖等,0,2021-10-12,2021-10-11,有限会社佐良,,有限会社,北海道,釧路市,愛国東３丁目１０番２８号,,01,206,0850058,,,2021-10-11,清算の結了等,,,2015-10-05,1,,,,,サラ,0
1006,3480005002255,登記記録の閉鎖等,0,2021-10-12,2021-10-08,税理士法人優弘会計事務所,,その他の設立登記法人,大阪府,吹田市,朝日町１８番１５－２Ｆ号,,27,205,5640027,,,2021-10-08,清算の結了等,,,2015-10-05,1,,,,,ユウコウカイケイジムショ,0
1018,4010001093641,登記記録の閉鎖等,0,2021-10-12,2021-10-04,株式会社アイトス,,株式会社,千葉県,松戸市,八ケ崎６丁目５７番地の８,,12,207,2700023,,,2021-10-04,清算の結了等,,,2015-10-05,1,,,,,アイトス,0
1026,4010005029088,登記記録の閉鎖等,0,2021-10-12,2021-10-06,一般社団法人商業開発研究会,,その他の設立登記法人,東京都,千代田区,有楽町２丁目１０番１号株式会社アセットソリューション内,,13,101,1000006,,,2021-10-06,清算の結了等,,,2018-09-14,1,,,,,ショウギョウカイハツケンキュウカイ,0
1043,4010602003189,登記記録の閉鎖等,0,2021-10-12,2021-09-29,有限会社ゼイ・エル・ビー・バック製作所,,有限会社,東京都,江東区,白河４丁目３番７号,,13,108,1350021,,,2021-09-29,清算の結了等,,,2015-10-05,1,,,,,,0
1050,4011001054690,登記記録の閉鎖等,0,2021-10-12,2021-10-04,株式会社ＣＡＦＵ,,株式会社,東京都,世田谷区,砧６丁目１２番５－２０２号,,13,112,1570073,,,2021-10-04,清算の結了等,,,2015-10-05,1,,,,,カフ,0
1062,4011101053584,登記記録の閉鎖等,0,2021-10-12,2021-10-01,株式会社オリーブ,,株式会社,東京都,新宿区,西新宿６丁目２６番８号小西ビル６０１号室,,13,104,1600023,,,2021-10-01,合併による解散等,7011102030076,令和３年１０月１日東京都新宿区西新宿六丁目２６番１１号成子坂ハイツ８０２号室株式会社たくしょう（7011102030076）に合併し解散,2015-10-05,1,,,,,オリーブ,0
1071,4011401020805,登記記録の閉鎖等,0,2021-10-12,2021-10-07,ＰＱプロパティ株式会社,,株式会社,東京都,大田区,中馬込２丁目６番３号ファーストステージ４０１,,13,111,1430027,,,2021-10-07,合併による解散等,1120901035453,令和３年１０月１日大阪府高槻市白梅町５番２０－１８０９号ユミショウプロパティ株式会社（1120901035453）に合併し解散,2018-02-06,1,,,,,ピーキュープロパティ,0
1081,4011702002790,登記記録の閉鎖等,0,2021-10-12,2021-10-05,和セキグチ有限会社,,有限会社,東京都,江戸川区,江戸川４丁目１９番地９,,13,123,1340013,,,2021-10-05,清算の結了等,,,2015-10-05,1,,,,,,0
1100,4020002006238,登記記録の閉鎖等,0,2021-10-12,2021-10-05,有限会社松南化成,,有限会社,神奈川県,横浜市都筑区,東山田町１３５０番地,,14,118,2240024,,,2021-10-05,清算の結了等,,,2015-10-05,1,,,,,,0
1110,4021002002706,登記記録の閉鎖等,0,2021-10-12,2021-10-07,有限会社重量興業運輸,,有限会社,神奈川県,藤沢市,遠藤５８９２番地,,14,205,2520816,,,2021-10-07,清算の結了等,,,2015-10-05,1,,,,,ジュウリョウコウギョウウンユ,0
1113,4021002064663,登記記録の閉鎖等,0,2021-10-12,2021-10-07,新光産業有限会社,,有限会社,神奈川県,横須賀市,富士見町３丁目１７番地,,14,201,2380021,,,2021-10-07,清算の結了等,,,2015-10-05,1,,,,,シンコウサンギョウ,0
1121,4030002107068,登記記録の閉鎖等,0,2021-10-12,2021-09-30,有限会社増田商店,,有限会社,埼玉県,川口市,上青木２丁目１７番１９号,,11,203,3330844,,,2021-09-30,清算の結了等,,,2015-10-05,1,,,,,マスダショウテン,0
1126,4040001061769,登記記録の閉鎖等,0,2021-10-12,2021-09-29,日本都市ビル株式会社,,株式会社,東京都,江東区,東陽３丁目２７番１７号,,13,108,1350016,,,2021-09-29,清算の結了等,,,2015-10-05,1,,,,,,0
1154,4080401015544,登記記録の閉鎖等,0,2021-10-12,2021-10-07,青空製パン株式会社,,株式会社,静岡県,牧之原市,坂部２３２６番地１,,22,226,4210412,,,2021-10-07,合併による解散等,5080401015139,令和３年１０月１日静岡県御前崎市白羽６７２９番地の１御前崎削節株式会社（5080401015139）に合併し解散,2015-10-05,1,,,,,アオゾラセイパン,0
1162,4120001023463,登記記録の閉鎖等,0,2021-10-12,2021-10-07,株式会社三幸厨房,,株式会社,大阪府,大阪市天王寺区,勝山２丁目２１番２５号,,27,109,5430043,,,2021-10-07,清算の結了等,,,2015-10-05,1,,,,,,0
1164,4120001030179,登記記録の閉鎖等,0,2021-10-12,2021-10-06,株式会社あいらんず,,株式会社,大阪府,大阪市住之江区,安立１丁目１４番６号,,27,125,5590003,,,2021-10-06,清算の結了等,,,2015-10-05,1,,,,,アイランズ,0
1170,4120001075736,登記記録の閉鎖等,0,2021-10-12,2021-10-07,株式会社ＮＴＴファシリティーズ関西,,株式会社,大阪府,大阪市西区,土佐堀１丁目４番１４号,,27,106,5500001,,,2021-10-07,合併による解散等,3010401005008,令和３年１０月１日東京都港区芝浦三丁目４番１号株式会社ＮＴＴファシリティーズ（3010401005008）に合併し解散,2015-10-05,1,,,,,,0
1182,4120001207462,登記記録の閉鎖等,0,2021-10-12,2021-10-06,株式会社ＮＩＫＹ,,株式会社,大阪府,大阪市西区,靱本町１丁目９番２３号,,27,106,5500004,,,2021-10-06,清算の結了等,,,2017-08-18,1,,,,,ニッキイ,0
1197,4120901000090,登記記録の閉鎖等,0,2021-10-12,2021-10-07,株式会社アドバンフーズ,,株式会社,大阪府,茨木市,横江１丁目２０番４４号,,27,211,5670865,,,2021-10-07,清算の結了等,,,2015-10-05,1,,,,,アドバンフーズ,0
1233,4180001084153,登記記録の閉鎖等,0,2021-10-12,2021-10-04,岩田不動産株式会社,,株式会社,愛知県,一宮市,小信中島字郷浦１０１番地,,23,203,4940007,,,2021-10-04,清算の結了等,,,2015-10-05,1,,,,,イワタフドウサン,0
1235,4180001125122,登記記録の閉鎖等,0,2021-10-12,2021-10-01,株式会社ＣＲＥＡ　ＦＯＲＴＥ,,株式会社,愛知県,名古屋市中村区,松原町５丁目１番地,,23,105,4530021,,,2021-10-01,合併による解散等,1180002062994,令和３年１０月１日名古屋市名東区照が丘１１６番地の２株式会社ＣＲＥＡ　ＦＯＲＴＥ（1180002062994）に合併し解散,2016-10-12,1,,,,,クレアフォルテ,0
1239,4180002032367,登記記録の閉鎖等,0,2021-10-12,2021-10-01,有限会社ハート調剤薬局,,有限会社,東京都,千代田区,丸の内１丁目９番１号,,13,101,1000005,,,2021-10-01,合併による解散等,9010001064753,令和３年１０月１日東京都千代田区丸の内一丁目９番１号日本調剤株式会社（9010001064753）に合併し解散,2015-10-05,1,,,,,ハートチョウザイヤッキョク,0
1240,4180002047035,登記記録の閉鎖等,0,2021-10-12,2021-10-06,有限会社メディカルヒューマンサービス,,有限会社,愛知県,名古屋市緑区,若田３丁目２０１番地,,23,114,4580034,,,2021-10-06,清算の結了等,,,2015-10-05,1,,,,,メディカルヒューマンサービス,0
1243,4180002063750,登記記録の閉鎖等,0,2021-10-12,2021-10-04,有限会社タニザキ,,有限会社,愛知県,長久手市,片平１丁目１１０５番地フォーム断熱本社ビル２階,,23,238,4801146,,,2021-10-04,合併による解散等,4190001001735,令和３年１０月１日愛知県長久手市片平一丁目１１０５番地フォーム断熱株式会社（4190001001735）に合併し解散,2015-10-05,1,,,,,タニザキ,0
1258,4200001009677,登記記録の閉鎖等,0,2021-10-12,2021-10-08,株式会社あそびの森,,株式会社,岐阜県,岐阜市,加納菱野町２５番地,,21,201,5008479,,,2021-10-08,清算の結了等,,,2015-10-05,1,,,,,,0
1267,4230002009888,登記記録の閉鎖等,0,2021-10-12,2021-10-05,有限会社中道養豚,,有限会社,富山県,南砺市,林道２５３番地,,16,210,9391822,,,2021-10-05,清算の結了等,,,2015-10-05,1,,,,,ナカミチヨウトン,0
1268,4240001015234,登記記録の閉鎖等,0,2021-10-12,2021-10-08,株式会社トライ,,株式会社,広島県,広島市西区,己斐本町１丁目１４番３号,,34,104,7330812,,,2021-10-08,合併による解散等,7430001069398,令和３年１０月１日札幌市白石区東札幌五条二丁目４番３０号株式会社アインファーマシーズ（7430001069398）に合併し解散,2015-10-05,1,,,,,,0
1273,4240002034381,登記記録の閉鎖等,0,2021-10-12,2021-10-08,山本商事有限会社,,有限会社,広島県,呉市,東中央４丁目２番１３号,,34,202,7370052,,,2021-10-08,清算の結了等,,,2015-10-05,1,,,,,ヤマモトショウジ,0
1296,4320205000115,登記記録の閉鎖等,0,2021-10-12,2021-10-11,津久見車体整備協同組合,,その他の設立登記法人,大分県,津久見市,大字千怒字島地７６番地の１,,44,207,8792401,,,2021-10-11,清算の結了等,,,2015-10-05,1,,,,,ツクミシャタイセイビ,0
1303,4330003006461,登記記録の閉鎖等,0,2021-10-12,2021-10-05,ＴＥＣ泗水合同会社,,合同会社,東京都,千代田区,丸の内３丁目１番１号東京共同会計事務所内,,13,101,1000005,,,2021-10-05,清算の結了等,,,2015-10-05,1,,,,,ティーイーシーシスイ,0
1307,4360001021600,登記記録の閉鎖等,0,2021-10-12,2021-10-04,株式会社ブールミッシュ沖縄,,株式会社,沖縄県,糸満市,西崎町４丁目１５番３,,47,210,9010306,,,2021-10-04,清算の結了等,,,2016-12-01,1,,,,,ブールミッシュオキナワ,0
1316,4370301003132,登記記録の閉鎖等,0,2021-10-12,2021-10-01,株式会社Ｈ・Ｉ・Ｔ,,株式会社,宮城県,石巻市,新成１丁目２１番地１５,,04,202,9862105,,,2021-10-01,清算の結了等,,,2015-10-05,1,,,,,,0
1318,4380001021284,登記記録の閉鎖等,0,2021-10-12,2021-10-08,株式会社ワールドネクスト,,株式会社,福島県,郡山市,安積３丁目３６１番地,,07,203,9630107,,,2021-10-08,合併による解散等,7290001078190,令和３年１０月１日福岡市博多区博多駅前二丁目１番１号株式会社ワールドスタッフィング（7290001078190）に合併し解散,2015-10-05,1,,,,,ワールドネクスト,0
1324,4400003002197,登記記録の閉鎖等,0,2021-10-12,2021-10-08,ＹｏｒｉｋｏＭｉｙａｚａｋｉ合同会社,,合同会社,岩手県,奥州市,水沢西上野町２番１８号,,03,215,0230856,,,2021-10-08,清算の結了等,,,2017-05-15,1,,,,,ヨリコミヤザキ,0
1328,4430001026278,登記記録の閉鎖等,0,2021-10-12,2021-10-07,株式会社ＮＴＴファシリティーズ北海道,,株式会社,北海道,札幌市中央区,北一条西１０丁目１番地２１,,01,101,0600001,,,2021-10-07,合併による解散等,3010401005008,令和３年１０月１日東京都港区芝浦三丁目４番１号株式会社ＮＴＴファシリティーズ（3010401005008）に合併し解散,2015-10-05,1,,,,,エヌティティファシリティーズホッカイドウ,0
1338,4470002001210,登記記録の閉鎖等,0,2021-10-12,2021-10-08,有限会社植村工務店,,有限会社,香川県,高松市,寺井町７１５番地,,37,201,7618085,,,2021-10-08,清算の結了等,,,2015-10-05,1,,,,,ウエムラコウムテン,0
1361,5010001181536,登記記録の閉鎖等,0,2021-10-12,2021-09-27,株式会社龍信,,株式会社,東京都,江東区,東雲１丁目９－４１－２８１２号,,13,108,1350062,,,2021-09-27,清算の結了等,,,2017-02-17,1,,,,,リュウシン,0
1373,5010401116488,登記記録の閉鎖等,0,2021-10-12,2021-09-30,株式会社ＢＳＨ,,株式会社,東京都,港区,港南２丁目１５番３号,,13,103,1080075,,,2021-09-30,清算の結了等,,,2015-10-05,1,,,,,ビーエスエイチ,0
1375,5010401125951,登記記録の閉鎖等,0,2021-10-12,2021-09-22,株式会社アクト,,株式会社,東京都,港区,浜松町２丁目２番１５号,,13,103,1050013,,,2021-09-22,清算の結了等,,,2016-07-22,1,,,,,アクト,0
1424,5011102004387,登記記録の閉鎖等,0,2021-10-12,2021-10-04,有限会社高頴商事,00053915,有限会社,東京都,新宿区,北新宿３丁目３５番６号,,13,104,1690074,,,2021-10-04,清算の結了等,,,2015-10-05,1,,,,,,0
1428,5011303003725,登記記録の閉鎖等,0,2021-10-12,2021-10-05,合同会社スタジオエム,,合同会社,東京都,杉並区,高円寺南４丁目８番７号,,13,115,1660003,,,2021-10-05,清算の結了等,,,2020-08-07,1,,,,,スタジオエム,0
1476,5030002008397,登記記録の閉鎖等,0,2021-10-12,2021-10-01,有限会社タートル,,有限会社,埼玉県,さいたま市中央区,八王子５丁目１２番２０－３０１号,,11,105,3380006,,,2021-10-01,清算の結了等,,,2015-10-05,1,,,,,タートル,0
1483,5040001049276,登記記録の閉鎖等,0,2021-10-12,2021-10-04,株式会社プロヴァンス,,株式会社,千葉県,佐倉市,染井野３丁目４番地４,,12,212,2850831,,,2021-10-04,清算の結了等,,,2015-10-05,1,,,,,プロヴァンス,0
1504,5050002019962,登記記録の閉鎖等,0,2021-10-12,2021-10-01,有限会社染谷加工所,,有限会社,茨城県,坂東市,弓田２５９９番地,,08,228,3060607,,,2021-10-01,清算の結了等,,,2015-10-05,1,,,,,ソメヤカコウジョ,0
1509,5060002011547,登記記録の閉鎖等,0,2021-10-12,2021-10-05,有限会社ケアマネジメント廣瀬,,有限会社,栃木県,宇都宮市,兵庫塚１丁目８番１５号,,09,201,3210138,,,2021-10-05,清算の結了等,,,2015-10-05,1,,,,,ケアマネジメントヒロセ,0
1534,5120001199071,登記記録の閉鎖等,0,2021-10-12,2021-10-06,株式会社グランポート,,株式会社,大阪府,大阪市港区,田中２丁目４番２０号,,27,107,5520005,,,2021-10-06,清算の結了等,,,2016-06-23,1,,,,,グランポート,0
1556,5140002035273,登記記録の閉鎖等,0,2021-10-12,2021-10-04,有限会社アムス,,有限会社,兵庫県,加古川市,平岡町新在家１丁目２５１番地の１１,,28,210,6750101,,,2021-10-04,清算の結了等,,,2015-10-05,1,,,,,アムス,0
1557,5140002041395,登記記録の閉鎖等,0,2021-10-12,2021-10-04,有限会社Ｅ・Ｌ・Ｇ,,有限会社,兵庫県,尼崎市,下坂部４丁目１２番１８号,,28,202,6610975,,,2021-10-04,清算の結了等,,,2015-10-05,1,,,,,,0
1560,5160005006402,登記記録の閉鎖等,0,2021-10-12,2021-10-08,八日市商業開発協同組合,,その他の設立登記法人,滋賀県,東近江市,八日市浜野町３番１号,,25,213,5270011,,,2021-10-08,清算の結了等,,,2015-10-05,1,,,,,ヨウカイチショウギョウカイハツ,0
1565,5180001041236,登記記録の閉鎖等,0,2021-10-12,2021-10-05,美和医療電機株式会社,,株式会社,愛知県,名古屋市中区,千代田５丁目５番１５号,,23,106,4600012,,,2021-10-05,合併による解散等,7140001004624,令和３年１０月１日神戸市西区高塚台三丁目２番地１６エア・ウォーター防災株式会社（7140001004624）に合併し解散,2015-10-05,1,,,,,ミワイリョウデンキ,0
1570,5180001118158,登記記録の閉鎖等,0,2021-10-12,2021-10-05,株式会社アスマン,,株式会社,愛知県,名古屋市熱田区,新尾頭２丁目２番６１号,,23,109,4560018,,,2021-10-05,清算の結了等,,,2015-10-05,1,,,,,アスマン,0
1573,5180001132935,登記記録の閉鎖等,0,2021-10-12,2021-10-06,株式会社ＳＶＰ,,株式会社,愛知県,名古屋市中区,葵１丁目２０番１９号芝電ビル２階中号室,,23,106,4600006,,,2021-10-06,清算の結了等,,,2018-07-06,1,,,,,エスブイピー,0
1642,5360001020378,登記記録の閉鎖等,0,2021-10-12,2021-10-06,株式会社ａｄｇｒｉｔ,,株式会社,沖縄県,那覇市,字安里１７６番地４マリッサヒルズ４０３号,,47,201,9020067,,,2021-10-06,清算の結了等,,,2016-01-19,1,,,,,アドグリット,0
1652,5380002025176,登記記録の閉鎖等,0,2021-10-12,2021-10-07,有限会社永瀬ボーリング,,有限会社,福島県,いわき市,内郷宮町宮沢６３番地の４,,07,204,9738407,,,2021-10-07,清算の結了等,,,2015-10-05,1,,,,,ナガセボーリング,0
1654,5390001002274,登記記録の閉鎖等,0,2021-10-12,2021-10-06,株式会社不二家東北,,株式会社,山形県,山形市,小立１丁目１番３２号,,06,201,9902402,,,2021-10-06,合併による解散等,3010001034910,令和３年１０月１日東京都文京区大塚二丁目１５番６号株式会社不二家（3010001034910）に合併し解散,2015-10-05,1,,,,,,0
1655,5390001010582,登記記録の閉鎖等,0,2021-10-12,2021-10-05,株式会社家具の丸進,,株式会社,山形県,南陽市,宮内３５４７番地,,06,213,9920472,,,2021-10-05,清算の結了等,,,2015-10-05,1,,,,,,0
1666,5430003002771,登記記録の閉鎖等,0,2021-10-12,2021-10-06,合資会社安達商会,,合資会社,北海道,小樽市,信香町２番１２号,,01,203,0470016,,,2021-10-06,清算の結了等,,,2015-10-05,1,,,,,アダチショウカイ,0
1676,5440002001212,登記記録の閉鎖等,0,2021-10-12,2021-10-06,有限会社きこりたち吉田建設,,有限会社,北海道,函館市,亀田中野町３２０番地の４,,01,202,0410803,,,2021-10-06,清算の結了等,,,2015-10-05,1,,,,,キコリタチヨシダケンセツ,0
1677,5440002009172,登記記録の閉鎖等,0,2021-10-12,2021-10-06,有限会社カネキ武石水産,,有限会社,北海道,茅部郡森町,字富士見町１５４番地の２,,01,345,0492322,,,2021-10-06,清算の結了等,,,2015-10-05,1,,,,,カネキタケイシスイサン,0
1686,5500002018828,登記記録の閉鎖等,0,2021-10-12,2021-10-08,有限会社中村屋蒲鉾店,,有限会社,愛媛県,今治市,常盤町１丁目４番地３,,38,202,7940015,,,2021-10-08,清算の結了等,,,2015-10-05,1,,,,,ナカムラヤカマボコテン,0
1692,6010001132637,登記記録の閉鎖等,0,2021-10-12,2021-10-01,ダイワロイヤル株式会社,,株式会社,東京都,千代田区,飯田橋２丁目１８番２号,,13,101,1020072,,,2021-10-01,合併による解散等,9010501013251,令和３年１０月１日東京都千代田区飯田橋二丁目１８番２号大和情報サービス株式会社（9010501013251）に合併し解散,2015-10-05,1,,,,,ダイワロイヤル,0
1702,6010002018100,登記記録の閉鎖等,0,2021-10-12,2021-10-04,有限会社岡副エステート,,有限会社,東京都,中央区,銀座７丁目１８番１７号,,13,102,1040061,,,2021-10-04,合併による解散等,5010003000784,令和３年１０月１日東京都中央区銀座七丁目１８番１７号岡副合名会社（5010003000784）に合併し解散,2015-10-05,1,,,,,オカゾエエステート,0
1713,6010403014078,登記記録の閉鎖等,0,2021-10-12,2021-09-30,合同会社ＬＣＲＦ１２,,合同会社,東京都,港区,虎ノ門５丁目３番２０号株式会社アカウンティング・マネジメント・サービス内,,13,103,1050001,,,2021-09-30,清算の結了等,,,2015-11-20,1,,,,,エルシアールエフトゥエルブ,0
1721,6010601016215,登記記録の閉鎖等,0,2021-10-12,2021-09-30,株式会社松島製作所,,株式会社,東京都,墨田区,押上３丁目３６番７号,,13,107,1310045,,,2021-09-30,清算の結了等,,,2015-10-05,1,,,,,マツシマセイサクショ,0
1725,6010802011601,登記記録の閉鎖等,0,2021-10-12,2021-10-05,有限会社花咲屋,,有限会社,東京都,大田区,池上１丁目３５番１４号,,13,111,1460082,,,2021-10-05,清算の結了等,,,2015-10-05,1,,,,,ハナサキヤ,0
1754,6011501003848,登記記録の閉鎖等,0,2021-10-12,2021-10-05,株式会社林電気商会,,株式会社,東京都,北区,堀船１丁目１８番７号,,13,117,1140004,,,2021-10-05,清算の結了等,,,2015-10-05,1,,,,,ハヤシデンキショウカイ,0
1767,6012401032978,登記記録の閉鎖等,0,2021-10-12,2021-10-05,株式会社ＲＥＶＯＬ,,株式会社,東京都,三鷹市,下連雀３丁目３０番８号,,13,204,1810013,,,2021-10-05,清算の結了等,,,2017-07-18,1,,,,,レヴォル,0
1837,6060002013336,登記記録の閉鎖等,0,2021-10-12,2021-10-04,有限会社ミツヨシプランニング,,有限会社,栃木県,塩谷郡高根沢町,大字平田３０９番地３,,09,386,3291206,,,2021-10-04,清算の結了等,,,2015-10-05,1,,,,,ミツヨシプランニング,0
1839,6060002026643,登記記録の閉鎖等,0,2021-10-12,2021-10-04,有限会社アイ・ホーム企画,,有限会社,栃木県,大田原市,八塩２２５番地２,,09,210,3240232,,,2021-10-04,清算の結了等,,,2015-10-05,1,,,,,アイホームキカク,0
1847,6110002001517,登記記録の閉鎖等,0,2021-10-12,2021-10-07,有限会社小柳商店,,有限会社,新潟県,新潟市中央区,沼垂東５丁目２番２３号,,15,103,9500075,,,2021-10-07,清算の結了等,,,2015-10-05,1,,,,,オヤナギショウテン,0
1881,6120102019730,登記記録の閉鎖等,0,2021-10-12,2021-10-06,有限会社上田鍼灸院,,有限会社,大阪府,河内長野市,木戸１丁目７番２３号,,27,216,5860001,,,2021-10-06,清算の結了等,,,2015-10-05,1,,,,,ウエダシンキュウイン,0
1883,6120901008306,登記記録の閉鎖等,0,2021-10-12,2021-10-08,株式会社ヘルシー薬局,,株式会社,大阪府,吹田市,江の木町１６番２３号,,27,205,5640053,,,2021-10-08,合併による解散等,1120001103433,令和３年１０月１日大阪市北区豊崎三丁目３番１３号株式会社ニチホス（1120001103433）に合併し解散,2015-10-05,1,,,,,ヘルシーヤッキョク,0
1885,6122001003385,登記記録の閉鎖等,0,2021-10-12,2021-10-08,株式会社新日本建設,,株式会社,大阪府,東大阪市,島之内２丁目９番５１号,,27,227,5780981,,,2021-10-08,清算の結了等,,,2015-10-05,1,,,,,シンニホンケンセツ,0
1899,6140003007304,登記記録の閉鎖等,0,2021-10-12,2021-10-05,合資会社ティーケーケイ・ホリカワ,,合資会社,兵庫県,姫路市,大津区吉美４０３番地,,28,201,6711133,,,2021-10-05,清算の結了等,,,2015-10-05,1,,,,,ティーケーケイホリカワ,0
1901,6150002005646,登記記録の閉鎖等,0,2021-10-12,2021-10-06,有限会社オフイス池田,,有限会社,奈良県,天理市,富堂町３００番地６,,29,204,6320072,,,2021-10-06,清算の結了等,,,2015-10-05,1,,,,,,0
1905,6160001005183,登記記録の閉鎖等,0,2021-10-12,2021-10-08,株式会社林豆冨店,,株式会社,滋賀県,甲賀市,水口町八坂３番４８号,,25,209,5280032,,,2021-10-08,清算の結了等,,,2015-10-05,1,,,,,ハヤシトウフフテン,0
1941,6240001023747,登記記録の閉鎖等,0,2021-10-12,2021-10-08,レジコン工事株式会社,,株式会社,広島県,東広島市,志和町七条椛坂２１２１番地,,34,212,7390264,,,2021-10-08,清算の結了等,,,2015-10-05,1,,,,,レジコンコウジ,0
1953,6260002033017,登記記録の閉鎖等,0,2021-10-12,2021-10-08,有限会社玉野硝子店,,有限会社,岡山県,玉野市,宇野４丁目２４番９号,,33,204,7060011,,,2021-10-08,清算の結了等,,,2015-10-05,1,,,,,タマノガラステン,0
1954,6270002004702,登記記録の閉鎖等,0,2021-10-12,2021-10-08,有限会社にしお,,有限会社,鳥取県,八頭郡智頭町,大字智頭１５０７番地５,,31,328,6891402,,,2021-10-08,清算の結了等,,,2015-10-05,1,,,,,ニシオ,0
1955,6290001006136,登記記録の閉鎖等,0,2021-10-12,2021-09-27,株式会社アビ企画,,株式会社,福岡県,福岡市城南区,田島３丁目１７番３６号,,40,136,8140113,,,2021-09-27,清算の結了等,,,2015-10-05,1,,,,,アビキカク,0
1969,6290002033906,登記記録の閉鎖等,0,2021-10-12,2021-09-27,有限会社福岡林業,,有限会社,福岡県,古賀市,今の庄３丁目２番７号,,40,223,8113117,,,2021-09-27,清算の結了等,,,2015-10-05,1,,,,,フクオカリンギョウ,0
1975,6290802022397,登記記録の閉鎖等,0,2021-10-12,2021-10-01,有限会社津上鶏園,,有限会社,福岡県,行橋市,大字入覚２２７８番地,,40,213,8240077,,,2021-10-01,清算の結了等,,,2015-10-05,1,,,,,ツガミケイエン,0
1976,6310001001357,登記記録の閉鎖等,0,2021-10-12,2021-10-07,長崎産業株式会社,,株式会社,長崎県,長崎市,銅座町４番１８号,,42,201,8500841,,,2021-10-07,合併による解散等,4290001016095,令和３年１０月１日福岡市中央区大名二丁目２番２６号福岡商事株式会社（4290001016095）に合併し解散,2015-10-05,1,,,,,ナガサキサンギョウ,0
2018,6460005000514,登記記録の閉鎖等,0,2021-10-12,2021-10-11,釧路ポイントカード事業協同組合,,その他の設立登記法人,北海道,釧路市,春採１丁目１５番１２号ハイツコルネ３号室,,01,206,0850813,,,2021-10-11,清算の結了等,,,2015-10-05,1,,,,,クシロポイントカード,0
2020,6470002003163,登記記録の閉鎖等,0,2021-10-12,2021-10-11,有限会社三電設備,,有限会社,香川県,高松市,西山崎町１８９番地８,,37,201,7618045,,,2021-10-11,清算の結了等,,,2015-10-05,1,,,,,サンデンセツビ,0
2048,7010503001710,登記記録の閉鎖等,0,2021-10-12,2021-10-06,合資会社田村屋旅館,,合資会社,東京都,台東区,清川２丁目１６番５号,,13,106,1110022,,,2021-10-06,清算の結了等,,,2015-10-05,1,,,,,タムラヤリョカン,0
2049,7010601015257,登記記録の閉鎖等,0,2021-10-12,2021-10-05,株式会社ウエスト,,株式会社,東京都,中央区,日本橋茅場町２丁目３番６号宗和ビル７階,,13,102,1030025,,,2021-10-05,清算の結了等,,,2015-10-05,1,,,,,ウエスト,0
2051,7010602022327,登記記録の閉鎖等,0,2021-10-12,2021-09-28,有限会社アニバーサリー,,有限会社,東京都,江東区,亀戸６丁目５８番１３号古谷ビル１階,,13,108,1360071,,,2021-09-28,清算の結了等,,,2015-10-05,1,,,,,アニバーサリー,0
2061,7011001052634,登記記録の閉鎖等,0,2021-10-12,2021-10-06,ＦＡＶＯＲＩＸ株式会社,,株式会社,東京都,新宿区,西新宿６丁目１２番１号,,13,104,1600023,,,2021-10-06,合併による解散等,6290001062996,令和３年１０月１日福岡市中央区今泉一丁目２０番２号ＦＡＶＯＲＩＸ　ＢＥＡＵＴＹ株式会社（6290001062996）に合併し解散,2015-10-05,1,,,,,フェイバリックス,0
2077,7011101085658,登記記録の閉鎖等,0,2021-10-12,2021-10-01,株式会社ＴＫＰＳＰＶ－７号,,株式会社,東京都,新宿区,市谷八幡町８番地,,13,104,1620844,,,2021-10-01,合併による解散等,9011101089343,令和３年１０月１日東京都新宿区市谷八幡町８番地株式会社ＴＫＰＳＰＶ－８号（9011101089343）に合併し解散,2018-10-15,1,,,,,ティーケーピーエスピーブイナナゴウ,0
2099,7013102000769,登記記録の閉鎖等,0,2021-10-12,2021-10-07,有限会社ムラノ,,有限会社,東京都,福生市,志茂２０番地,,13,218,1970023,,,2021-10-07,清算の結了等,,,2015-10-05,1,,,,,ムラノ,0
2101,7013301005098,登記記録の閉鎖等,0,2021-10-12,2021-10-01,株式会社神栄,,株式会社,東京都,豊島区,東池袋２丁目１番３号,,13,116,1700013,,,2021-10-01,合併による解散等,9013301004882,令和３年１０月１日東京都豊島区東池袋二丁目６番１０号株式会社カミエイ（9013301004882）に合併し解散,2015-10-05,1,,,,,カミエイ,0
2108,7020002069125,登記記録の閉鎖等,0,2021-10-12,2021-10-07,有限会社和樂,,有限会社,神奈川県,横浜市中区,山下町１５５番地,,14,104,2310023,,,2021-10-07,清算の結了等,,,2015-10-05,1,,,,,ワラク,0
2129,7030002065759,登記記録の閉鎖等,0,2021-10-12,2021-10-01,有限会社ジーエフ商事,,有限会社,埼玉県,富士見市,水谷２丁目１５番地２０,,11,235,3540014,,,2021-10-01,清算の結了等,,,2015-10-05,1,,,,,,0
2133,7030005016247,登記記録の閉鎖等,0,2021-10-12,2021-10-01,特定非営利活動法人Ｇｒｅｅｎ　Ｌｅａｆわかば,,その他の設立登記法人,埼玉県,本庄市,東台２丁目７番４号,,11,211,3670021,,,2021-10-01,清算の結了等,,,2015-10-05,1,,,,,グリーンリーフワカバ,0
2178,7120001062814,登記記録の閉鎖等,0,2021-10-12,2021-10-01,株式会社キャップ,,株式会社,東京都,千代田区,六番町６番地２８,,13,101,1020085,,,2021-10-01,合併による解散等,5010001023779,令和３年１０月１日東京都千代田区六番町６番地２８住友大阪セメント株式会社（5010001023779）に合併し解散,2015-10-05,1,,,,,キャップ,0
2210,7140002016180,登記記録の閉鎖等,0,2021-10-12,2021-10-08,有限会社村上電通社,,有限会社,兵庫県,神戸市灘区,新在家南町３丁目１０番１１－５０３号,,28,102,6570864,,,2021-10-08,清算の結了等,,,2015-10-05,1,,,,,ムラカミデンツウシャ,0
2211,7140002041600,登記記録の閉鎖等,0,2021-10-12,2021-10-05,有限会社タドコロ,,有限会社,兵庫県,尼崎市,南武庫之荘３丁目１６番２０号,,28,202,6610033,,,2021-10-05,清算の結了等,,,2015-10-05,1,,,,,タドコロ,0
2233,7180301030052,登記記録の閉鎖等,0,2021-10-12,2021-10-07,ニッコー・メカニクス株式会社,,株式会社,愛知県,知立市,新林町小深田３番地１,,23,225,4720017,,,2021-10-07,合併による解散等,5120001068714,令和３年１０月１日横浜市神奈川区金港町３番地１ニッコー・マテリアルズ株式会社（5120001068714）に合併し解散,2017-02-15,1,,,,,ニッコーメカニクス,0
2244,7200001004717,登記記録の閉鎖等,0,2021-10-12,2021-10-08,本庄工業株式会社,,株式会社,岐阜県,岐阜市,中鶉３丁目６５番地２,,21,201,5008288,,,2021-10-08,清算の結了等,,,2015-10-05,1,,,,,,0
2246,7200001022900,登記記録の閉鎖等,0,2021-10-12,2021-10-08,株式会社サンライズ,,株式会社,愛知県,豊橋市,大橋通３丁目１１４番地ダイアパレス大橋通２０１,,23,201,4400076,,,2021-10-08,清算の結了等,,,2015-10-05,1,,,,,サンライズ,0
2282,7290002035983,登記記録の閉鎖等,0,2021-10-12,2021-09-28,有限会社石原機工,,有限会社,福岡県,糟屋郡志免町,南里３丁目７番３２－３０１号,,40,343,8112207,,,2021-09-28,清算の結了等,,,2015-10-05,1,,,,,イシハラキコウ,0
2285,7290801012027,登記記録の閉鎖等,0,2021-10-12,2021-10-08,ＭＭ　Ｃｏａｌ　Ｔｅｃｈ株式会社,,株式会社,東京都,品川区,東品川４丁目１２番６号,,13,109,1400002,,,2021-10-08,清算の結了等,,,2015-10-05,1,,,,,エムエムコールテック,0
2304,7330001018654,登記記録の閉鎖等,0,2021-10-12,2021-10-06,株式会社スイーツ・スイーツ,,株式会社,熊本県,菊池市,七城町蘇崎１４７１番地８,,43,210,8611344,,,2021-10-06,合併による解散等,9290001036659,令和３年１０月１日福岡県糟屋郡新宮町緑ケ浜三丁目１番１号株式会社フランソア（9290001036659）に合併し解散,2015-10-05,1,,,,,スイーツスイーツ,0
2316,7370001039548,登記記録の閉鎖等,0,2021-10-12,2021-10-01,株式会社Ｐｌｕｓ　Ｉｎｔｅｒｅｓｔ,,株式会社,宮城県,石巻市,蛇田字新東前沼３８０番地３,,04,202,9860861,,,2021-10-01,清算の結了等,,,2016-05-23,1,,,,,,0
2318,7370301003096,登記記録の閉鎖等,0,2021-10-12,2021-10-11,株式会社うんめえもん市,,株式会社,宮城県,石巻市,渡波字梨木畑７９番地３,,04,202,9862135,,,2021-10-11,合併による解散等,8020001002853,令和３年９月３０日横浜市磯子区東町９番９号株式会社Ｋ２インターナショナルジャパン（8020001002853）に合併し解散,2015-10-05,1,,,,,,0
2339,7470001000128,登記記録の閉鎖等,0,2021-10-12,2021-10-08,株式会社タダキカイ,,株式会社,香川県,高松市,牟礼町大町９７７番地２,,37,201,7610122,,,2021-10-08,清算の結了等,,,2015-10-05,1,,,,,タダキカイ,0
2362,8010101012729,登記記録の閉鎖等,0,2021-10-12,2021-09-30,株式会社ともえ不動産,,株式会社,東京都,八王子市,千人町２丁目２０番５号,,13,201,1930835,,,2021-09-30,清算の結了等,,,2017-03-09,1,,,,,トモエフドウサン,0
2365,8010401022816,登記記録の閉鎖等,0,2021-10-12,2021-09-30,株式会社日本信用情報センター,,株式会社,東京都,港区,海岸１丁目２番３号汐留芝離宮ビルディング２１階,,13,103,1050022,,,2021-09-30,清算の結了等,,,2015-10-05,1,,,,,ニホンシンヨウジョウホウセンター,0
2366,8010401038960,登記記録の閉鎖等,0,2021-10-12,2021-09-30,株式会社ＣＲＢ　Ｃｏｎｓｕｌｔｉｎｇ,,株式会社,東京都,港区,赤坂１丁目１２番３２号,,13,103,1070052,,,2021-09-30,清算の結了等,,,2015-10-05,1,,,,,シーアールビーコンサルティング,0
2376,8010601024050,登記記録の閉鎖等,0,2021-10-12,2021-10-07,神鋼リサーチ株式会社,,株式会社,東京都,品川区,北品川５丁目９番１２号,,13,109,1410001,,,2021-10-07,合併による解散等,1140001003466,令和３年１０月１日神戸市中央区脇浜海岸通二丁目２番４号コベルコビジネスパートナーズ株式会社（1140001003466）に合併し解散,2015-10-05,1,,,,,シンコウリサーチ,0
2385,8010601047340,登記記録の閉鎖等,0,2021-10-12,2021-10-01,株式会社アポロ茨城,,株式会社,東京都,豊島区,東池袋４丁目５番２号,,13,116,1700013,,,2021-10-01,合併による解散等,4013301018771,令和３年１０月１日東京都豊島区東池袋四丁目５番２号アポクリート株式会社（4013301018771）に合併し解散,2015-10-05,1,,,,,アポロイバラギ,0
2470,8021002023426,登記記録の閉鎖等,0,2021-10-12,2021-10-07,有限会社林屋商店,,有限会社,神奈川県,相模原市南区,相南１丁目１７番２９号,,14,153,2520312,,,2021-10-07,清算の結了等,,,2015-10-05,1,,,,,ハヤシヤショウテン,0
2478,8030001093082,登記記録の閉鎖等,0,2021-10-12,2021-10-01,株式会社ファレル,,株式会社,埼玉県,上尾市,大字小敷谷８６２番地５,,11,219,3620064,,,2021-10-01,清算の結了等,,,2015-10-05,1,,,,,,0
2499,8040005002906,登記記録の閉鎖等,0,2021-10-12,2021-10-04,医療法人社団星医会,,その他の設立登記法人,千葉県,船橋市,新高根４丁目７番８号,,12,204,2740814,,,2021-10-04,清算の結了等,,,2015-10-05,1,,,,,セイイカイ,0
2505,8050001033607,登記記録の閉鎖等,0,2021-10-12,2021-10-04,株式会社アスタス,,株式会社,茨城県,龍ケ崎市,小柴４丁目６番地１,,08,208,3010044,,,2021-10-04,清算の結了等,,,2015-10-05,1,,,,,アスタス,0
2509,8050002038992,登記記録の閉鎖等,0,2021-10-12,2021-10-01,有限会社関東総合保険,,有限会社,茨城県,牛久市,田宮町２９４番地１,,08,219,3001236,,,2021-10-01,合併による解散等,2050002023587,令和３年１０月１日茨城県つくば市古来１４５１番地株式会社ハース（2050002023587）に合併し解散,2015-10-05,1,,,,,カントウソウゴウホケン,0
2511,8060001013574,登記記録の閉鎖等,0,2021-10-12,2021-10-01,株式会社安田,,株式会社,栃木県,大田原市,加治屋９４番地７４２,,09,210,3240046,,,2021-10-01,合併による解散等,1060001000439,令和３年１０月１日栃木県宇都宮市大通り五丁目３番９号アルファクラブ株式会社（1060001000439）に合併し解散,2015-10-05,1,,,,,ヤスダ,0
2518,8080001002682,登記記録の閉鎖等,0,2021-10-12,2021-10-08,静岡県共済福祉株式会社,,株式会社,静岡県,静岡市駿河区,曲金３丁目８番１号,,22,102,4228006,,,2021-10-08,清算の結了等,,,2021-07-14,1,,,,,シズオカケンキョウサイフクシ,0
2529,8120001149296,登記記録の閉鎖等,0,2021-10-12,2021-10-07,株式会社河村ドレス,,株式会社,大阪府,枚方市,宮之阪４丁目１１番２号,,27,210,5730022,,,2021-10-07,清算の結了等,,,2015-10-05,1,,,,,,0
2541,8120001208003,登記記録の閉鎖等,0,2021-10-12,2021-09-30,株式会社ＯＧＧ,,株式会社,大阪府,大阪市浪速区,大国２丁目２番地９号,,27,111,5560014,,,2021-09-30,清算の結了等,,,2017-09-14,1,,,,,オージージー,0
2556,8120005004142,登記記録の閉鎖等,0,2021-10-12,2021-10-06,友朋監査法人,,その他の設立登記法人,大阪府,大阪市中央区,安土町３丁目２番１４号,,27,128,5410052,,,2021-10-06,清算の結了等,,,2015-10-05,1,,,,,ユウホウ,0
2576,8140001061516,登記記録の閉鎖等,0,2021-10-12,2021-10-04,株式会社宝耒,00122257,株式会社,兵庫県,姫路市,福中町４５番地,,28,201,6700017,,,2021-10-04,清算の結了等,,,2015-10-05,1,,,,,ホウライクル,0
2607,8180001133071,登記記録の閉鎖等,0,2021-10-12,2021-10-06,株式会社ＢＬＡＮＣＡ,,株式会社,愛知県,名古屋市緑区,鳴丘３丁目６０１番２０号,,23,114,4580005,,,2021-10-06,清算の結了等,,,2018-07-17,1,,,,,ブランカ,0
2611,8180002044581,登記記録の閉鎖等,0,2021-10-12,2021-10-05,有限会社大創トラスト,,有限会社,愛知県,名古屋市東区,赤塚町３番９号,,23,102,4610026,,,2021-10-05,清算の結了等,,,2015-10-05,1,,,,,ダイソウトラスト,0
2626,8200005012392,登記記録の閉鎖等,0,2021-10-12,2021-10-08,特定非営利活動法人しつもん力普及協会スマイル,,その他の設立登記法人,岐阜県,揖斐郡池田町,粕ケ原１２２７番地,,21,404,5032402,,,2021-10-08,清算の結了等,,,2015-11-12,1,,,,,シツモンリョクフキュウキョウカイスマイル,0
2638,8250001011179,登記記録の閉鎖等,0,2021-10-12,2021-10-06,岩国センチュリー企業株式会社,,株式会社,山口県,岩国市,通津１００２４番地の７０,,35,208,7400044,,,2021-10-06,合併による解散等,1130001038397,令和３年１０月１日京都府城陽市中芦原６８番地三陽興業株式会社（1130001038397）に合併し解散,2015-10-05,1,,,,,イワクニセンチュリーキギョウ,0
2663,8300002008499,登記記録の閉鎖等,0,2021-10-12,2021-10-07,有限会社六角堂,,有限会社,佐賀県,西松浦郡有田町,中樽３丁目３番１２号,00095384,41,401,8440002,,,2021-10-07,清算の結了等,,,2015-10-05,1,,,,,ロッカクドウ,0
2668,8320001009439,登記記録の閉鎖等,0,2021-10-12,2021-10-11,株式会社あすなろ,,株式会社,大分県,佐伯市,８９１１番地,,44,205,8760000,,,2021-10-11,清算の結了等,,,2015-10-05,1,,,,,アスナロ,0
2669,8320002011286,登記記録の閉鎖等,0,2021-10-12,2021-10-08,有限会社工藤染工,,有限会社,大分県,別府市,秋葉町６番１３号,,44,202,8740937,,,2021-10-08,清算の結了等,,,2015-10-05,1,,,,,クドウセンコウ,0
2676,8330002027918,登記記録の閉鎖等,0,2021-10-12,2021-10-06,有限会社松田惣菜,,有限会社,熊本県,水俣市,白浜町８番４６号,,43,205,8670006,,,2021-10-06,清算の結了等,,,2015-10-05,1,,,,,マツダソウザイ,0
2678,8340002001896,登記記録の閉鎖等,0,2021-10-12,2021-10-04,有限会社エヌ・コレクション,,有限会社,鹿児島県,鹿児島市,錦江台２丁目１６番５号,,46,201,8910145,,,2021-10-04,清算の結了等,,,2015-10-05,1,,,,,エヌコレクション,0
2694,8390002003161,登記記録の閉鎖等,0,2021-10-12,2021-10-05,有限会社青木金物店,,有限会社,山形県,東村山郡山辺町,大字山辺６５３番地,,06,301,9900301,,,2021-10-05,清算の結了等,,,2015-10-05,1,,,,,アオキカナモノテン,0
2696,8400502000846,登記記録の閉鎖等,0,2021-10-12,2021-10-07,コージー・バンク有限会社,,有限会社,岩手県,一関市,花泉町涌津字二ツ檀１７番地４０,,03,209,0293205,,,2021-10-07,清算の結了等,,,2015-10-05,1,,,,,コージーバンク,0
2700,8420005005985,登記記録の閉鎖等,0,2021-10-12,2021-10-06,七戸川内水面漁業協同組合,,その他の設立登記法人,青森県,上北郡七戸町,字野崎狐久保１０６番地２２６,,02,402,0392804,,,2021-10-06,清算の結了等,,,2015-10-05,1,,,,,シチノヘガワナイスイメン,0
2703,8430001059308,登記記録の閉鎖等,0,2021-10-12,2021-10-04,株式会社庄司創建,,株式会社,北海道,小樽市,花園２丁目１番７号,,01,203,0470024,,,2021-10-04,清算の結了等,,,2015-10-05,1,,,,,ショウジソウケン,0
2708,8460002002957,登記記録の閉鎖等,0,2021-10-12,2021-10-11,丸仙商事有限会社,,有限会社,北海道,釧路市,共栄大通８丁目１番１号,,01,206,0850035,,,2021-10-11,清算の結了等,,,2015-10-05,1,,,,,マルセンショウジ,0
2720,9010001155057,登記記録の閉鎖等,0,2021-10-12,2021-10-01,創英ＩＰデータ株式会社,,株式会社,東京都,千代田区,丸の内２丁目１番１号,,13,101,1000005,,,2021-10-01,合併による解散等,3010001004277,令和３年１０月１日東京都千代田区丸の内二丁目１番１号創英株式会社（3010001004277）に合併し解散,2015-10-05,1,,,,,ソウエイアイピーデータ,0
2722,9010001160057,登記記録の閉鎖等,0,2021-10-12,2021-10-08,株式会社ユナイテクト,,株式会社,大分県,宇佐市,大字立石１１１０番地,,44,211,8791123,,,2021-10-08,清算の結了等,,,2015-10-05,1,,,,,ユナイテクト,0
2723,9010001187455,登記記録の閉鎖等,0,2021-10-12,2021-10-01,株式会社デジシンク,,株式会社,東京都,千代田区,岩本町３丁目９番３号,,13,101,1010032,,,2021-10-01,清算の結了等,,,2017-11-13,1,,,,,デジシンク,0
2739,9010402030817,登記記録の閉鎖等,0,2021-10-12,2021-09-30,有限会社サムリンジャパン,,有限会社,東京都,港区,赤坂３丁目２番７号サムリンビル７階,,13,103,1070052,,,2021-09-30,清算の結了等,,,2015-10-05,1,,,,,サムリンジャパン,0
2746,9010502017458,登記記録の閉鎖等,0,2021-10-12,2021-10-06,有限会社ヒラヤマ,,有限会社,東京都,台東区,今戸２丁目１９番４号,,13,106,1110024,,,2021-10-06,清算の結了等,,,2015-10-05,1,,,,,ヒラヤマ,0
2798,9012701009649,登記記録の閉鎖等,0,2021-10-12,2021-10-07,株式会社堂々,,株式会社,東京都,東村山市,栄町２丁目２８番地１２,,13,213,1890013,,,2021-10-07,清算の結了等,,,2015-10-05,1,,,,,ドウドウ,0
2803,9013205001704,登記記録の閉鎖等,0,2021-10-12,2021-10-08,特定非営利活動法人ｎｅｋｏｎｏｋｏ,,その他の設立登記法人,東京都,練馬区,豊玉南３丁目６番４号,,13,120,1760014,,,2021-10-08,清算の結了等,,,2015-10-05,1,,,,,ネコノコ,0
2823,9020002026405,登記記録の閉鎖等,0,2021-10-12,2021-10-06,有限会社小林屋豆腐店,,有限会社,神奈川県,横浜市神奈川区,六角橋２丁目１７番１１号,,14,102,2210802,,,2021-10-06,清算の結了等,,,2015-10-05,1,,,,,コバヤシヤトウフテン,0
2832,9021005002582,登記記録の閉鎖等,0,2021-10-12,2021-10-07,相模原輸送センター協同組合,,その他の設立登記法人,神奈川県,相模原市中央区,田名７０６１番地１,,14,152,2520244,,,2021-10-07,清算の結了等,,,2015-10-05,1,,,,,サガミハラユソウセンター,0
2841,9030001131584,登記記録の閉鎖等,0,2021-10-12,2021-09-30,株式会社Ｓｔｕｄｉｏ北,,株式会社,埼玉県,さいたま市北区,盆栽町２３番地３１,,11,102,3310805,,,2021-09-30,清算の結了等,,,2019-06-20,1,,,,,スタジオキタ,0
2874,9080101003976,登記記録の閉鎖等,0,2021-10-12,2021-10-05,株式会社エフ・テイ・イー,,株式会社,静岡県,御殿場市,川島田１０６５番地の２,,22,215,4120045,,,2021-10-05,清算の結了等,,,2015-10-05,1,,,,,エフテイイー,0
2880,9100002018393,登記記録の閉鎖等,0,2021-10-12,2021-10-07,有限会社ライフ,,有限会社,長野県,中野市,中央３丁目３番地３１号,,20,211,3830022,,,2021-10-07,清算の結了等,,,2015-10-05,1,,,,,ライフ,0
2881,9100005011379,登記記録の閉鎖等,0,2021-10-12,2021-10-08,ＳＤＷ協同組合,,その他の設立登記法人,長野県,東筑摩郡山形村,８１８７番地,,20,450,3901301,,,2021-10-08,清算の結了等,,,2015-10-05,1,,,,,エスディーダブリュー,0
2887,9120001007858,登記記録の閉鎖等,0,2021-10-12,2021-10-06,株式会社双立建築設計事務所,,株式会社,大阪府,大阪市都島区,高倉町１丁目１２番１号,,27,102,5340011,,,2021-10-06,清算の結了等,,,2015-10-05,1,,,,,ソウリツケンチクセッケイジムショ,0
2889,9120001039637,登記記録の閉鎖等,0,2021-10-12,2021-10-07,阪和電気通信株式会社,,株式会社,大阪府,大阪市東淀川区,東中島１丁目１８番２２号新大阪丸ビル別館６階,,27,114,5330033,,,2021-10-07,清算の結了等,,,2015-10-05,1,,,,,ハンワデンキツウシン,0
2893,9120001109167,登記記録の閉鎖等,0,2021-10-12,2021-10-07,ロジスティック・プランニング・スタッフ株式会社,,株式会社,大阪府,大阪市北区,西天満６丁目７番２号,,27,127,5300047,,,2021-10-07,合併による解散等,6010001114940,令和３年１０月１日東京都千代田区神田鍛冶町三丁目３番９号ロジスティック・プランニング・スタッフサービス株式会社（6010001114940）に合併し解散,2015-10-05,1,,,,,,0
2902,9120001230360,登記記録の閉鎖等,0,2021-10-12,2021-10-01,株式会社ＴＡＫＵＴＯ　ＩＮＶＥＳＴＭＥＮＴ,,株式会社,大阪府,大阪市中央区,高麗橋３丁目２番７号,,27,128,5410043,,,2021-10-01,合併による解散等,6120001167655,令和３年１０月１日大阪市中央区高麗橋三丁目２番７号株式会社ＴＡＫＵＴＯ　ＩＮＶＥＳＴＭＥＮＴ（6120001167655）に合併し解散,2020-07-13,1,,,,,タクトインベストメント,0
2905,9120002004210,登記記録の閉鎖等,0,2021-10-12,2021-10-07,有限会社鹿児島,,有限会社,大阪府,大阪市都島区,毛馬町５丁目９番１４－１０２号,,27,102,5340001,,,2021-10-07,清算の結了等,,,2015-10-05,1,,,,,,0
2931,9140002035220,登記記録の閉鎖等,0,2021-10-12,2021-10-04,有限会社アート・イン,,有限会社,兵庫県,加古川市,平岡町新在家１丁目２５１番地の１１,,28,210,6750101,,,2021-10-04,清算の結了等,,,2015-10-05,1,,,,,アートイン,0
2933,9140002061506,登記記録の閉鎖等,0,2021-10-12,2021-10-04,有限会社日東木管,,有限会社,兵庫県,西脇市,和田町８０６番地,,28,213,6770052,,,2021-10-04,清算の結了等,,,2015-10-05,1,,,,,,0
2958,9180302015224,登記記録の閉鎖等,0,2021-10-12,2021-10-08,有限会社尾崎設計事務所,00075044,有限会社,愛知県,蒲郡市,形原町北浜２１番地の４,,23,214,4430103,,,2021-10-08,清算の結了等,,,2015-10-05,1,,,,,オザキセッケイジムショ,0
2964,9200001018327,登記記録の閉鎖等,0,2021-10-12,2021-10-06,ＰＦＩ可児市学校給食センター株式会社,,株式会社,岐阜県,可児市,大森２５番地,,21,214,5090238,,,2021-10-06,清算の結了等,,,2015-10-05,1,,,,,ピーエフアイカニシガッコウキュウショクセンター,0
2972,9220001008243,登記記録の閉鎖等,0,2021-10-12,2021-10-07,石川コープロジスティクス株式会社,,株式会社,石川県,白山市,行町西１番地,,17,210,9202148,,,2021-10-07,清算の結了等,,,2015-10-05,1,,,,,イシカワコープロジスティクス,0
2975,9230001013795,登記記録の閉鎖等,0,2021-10-12,2021-10-05,株式会社大久保商会,,株式会社,富山県,富山市,下大久保１９９４番地１２,,16,201,9392251,,,2021-10-05,清算の結了等,,,2015-10-05,1,,,,,オオクボショウカイ,0
2978,9240001014198,登記記録の閉鎖等,0,2021-10-12,2021-10-07,株式会社ＮＴＴファシリティーズ中国,,株式会社,広島県,広島市中区,東白島町１４番１５号,,34,101,7300004,,,2021-10-07,合併による解散等,3010401005008,令和３年１０月１日東京都港区芝浦三丁目４番１号株式会社ＮＴＴファシリティーズ（3010401005008）に合併し解散,2015-10-05,1,,,,,エヌティティファシリティーズ,0
2984,9240002023693,登記記録の閉鎖等,0,2021-10-12,2021-10-08,有限会社高田,,有限会社,広島県,広島市佐伯区,五日市中央１丁目１７番８－３１１号,,34,108,7315128,,,2021-10-08,清算の結了等,,,2015-10-05,1,,,,,タカタ,0
3003,9290802024985,登記記録の閉鎖等,0,2021-10-12,2021-10-01,有限会社都市計画,,有限会社,福岡県,田川郡福智町,上野１５１６番地,,40,610,8221102,,,2021-10-01,清算の結了等,,,2015-10-05,1,,,,,トシケイカク,0
3012,9330002029434,登記記録の閉鎖等,0,2021-10-12,2021-10-06,有限会社大門鉄工所,,有限会社,熊本県,天草市,楠浦町１０４４６番地,,43,215,8630044,,,2021-10-06,清算の結了等,,,2015-10-05,1,,,,,オオモンテッコウショ,0
3013,9350001009996,登記記録の閉鎖等,0,2021-10-12,2021-10-08,西建設工業株式会社,,株式会社,宮崎県,小林市,細野２８４５番地７,,45,205,8860004,,,2021-10-08,清算の結了等,,,2015-10-05,1,,,,,ニシケンセツコウギョウ,0
3030,9430001020169,登記記録の閉鎖等,0,2021-10-12,2021-10-01,株式会社札幌デンタル・ラボラトリー,,株式会社,北海道,札幌市北区,北二十四条西２丁目３番２６号,,01,102,0010024,,,2021-10-01,合併による解散等,4430001061044,令和３年１０月１日札幌市北区北二十四条西二丁目３番２６号株式会社札幌デンタル・ラボラトリー（4430001061044）に合併し解散,2015-10-05,1,,,,,サッポロデンタルラボラトリー,0
3034,9430001028154,登記記録の閉鎖等,0,2021-10-12,2021-10-05,株式会社まきばの郷,,株式会社,北海道,札幌市西区,琴似二条４丁目１番２４号ヤマチビル２Ｆ札幌オフィスプレイス内,,01,107,0630812,,,2021-10-05,清算の結了等,,,2015-10-05,1,,,,,マキバノサト,0
3042,9440001007842,登記記録の閉鎖等,0,2021-10-12,2021-10-06,トータル住設株式会社,,株式会社,北海道,函館市,昭和４丁目３９番２号,,01,202,0410812,,,2021-10-06,清算の結了等,,,2016-02-26,1,,,,,トータルジュウセツ,0
