sequenceNumber,corporateNumber,process,correct,updateDate,changeDate,name,nameImageId,kind,prefectureName,cityName,streetNumber,addressImageId,prefectureCode,cityCode,postCode,addressOutside,addressOutsideImageId,closeDate,closeCause,successorCorporateNumber,changeCause,assignmentDate,latest,enName,enPrefectureName,enCityName,enAddressOutside,furigana,hihyoji
6,1010005032441,登記記録の閉鎖等,0,2024-12-26,2024-12-25,一般社団法人ＳＡＢＩ－ＨＡＣＨＩ,,その他の設立登記法人,東京都,中央区,銀座１丁目６番１１号土志田ビルディング３Ｆ,,13,102,1040061,,,2024-12-25,清算の結了等,,,2020-10-26,1,,,,,サビハチ,0
7,1010101012248,登記記録の閉鎖等,0,2024-12-26,2024-12-20,京澄株式会社,,株式会社,東京都,千代田区,丸の内３丁目２番２号,,13,101,1000005,,,2024-12-20,合併による解散等,1010401139947,令和６年１１月３０日東京都港区六本木七丁目７番７号Ｗｏｒｌｄｇｏ株式会社（1010401139947）に合併し解散,2016-03-16,1,,,,,キョウスミ,0
17,1010601001097,登記記録の閉鎖等,0,2024-12-26,2024-12-24,株式会社越前谷硝子製造所,,株式会社,東京都,江東区,亀戸９丁目６番１１号,,13,108,1360071,,,2024-12-24,清算の結了等,,,2015-10-05,1,,,,,エチゼンヤガラスセイゾウショ,0
19,1010601057040,登記記録の閉鎖等,0,2024-12-26,2024-12-23,宇津株式会社,,株式会社,東京都,墨田区,向島３丁目２８番３－３０３号,,13,107,1310033,,,2024-12-23,清算の結了等,,,2020-03-13,1,,,,,ウツ,0
20,1010602022596,登記記録の閉鎖等,0,2024-12-26,2024-12-23,有限会社桃園,,有限会社,東京都,墨田区,千歳３丁目３番１４号,,13,107,1300025,,,2024-12-23,清算の結了等,,,2015-10-05,1,,,,,トウエン,0
23,1010802002282,登記記録の閉鎖等,0,2024-12-26,2024-12-20,有限会社エヌ,,有限会社,東京都,大田区,東矢口３丁目１０番６号,,13,111,1460094,,,2024-12-20,清算の結了等,,,2015-10-05,1,,,,,エヌ,0
24,1010803003222,登記記録の閉鎖等,0,2024-12-26,2024-12-16,合同会社拓務社,,合同会社,東京都,大田区,南雪谷３丁目２－１６,,13,111,1450066,,,2024-12-16,清算の結了等,,,2020-01-06,1,,,,,タクムシャ,0
31,1011101107657,登記記録の閉鎖等,0,2024-12-26,2024-12-17,株式会社紅,,株式会社,東京都,新宿区,新宿１丁目２４番７－１１０１号,,13,104,1600022,,,2024-12-17,清算の結了等,,,2024-06-11,1,,,,,クレナイ,0
36,1011201015719,登記記録の閉鎖等,0,2024-12-26,2024-12-23,株式会社アリカ,,株式会社,埼玉県,三郷市,戸ケ崎３丁目６０３－１,,11,237,3410044,,,2024-12-23,清算の結了等,,,2015-10-05,1,,,,,アリカ,0
55,1012701017312,登記記録の閉鎖等,0,2024-12-26,2024-12-13,株式会社スイーツマーグー,,株式会社,東京都,東村山市,恩多町３丁目１７番地１セレーノ１０４,,13,213,1890011,,,2024-12-13,清算の結了等,,,2022-10-20,1,,,,,スイーツマーグー,0
56,1012702008938,登記記録の閉鎖等,0,2024-12-26,2024-12-13,有限会社メディカルライフ,,有限会社,埼玉県,所沢市,小手指町４丁目１９番地の６ホワイトハイム１０７,,11,208,3591141,,,2024-12-13,清算の結了等,,,2015-10-05,1,,,,,メディカルライフ,0
59,1013302009847,登記記録の閉鎖等,0,2024-12-26,2024-12-17,有限会社むさし園,,有限会社,東京都,豊島区,西巣鴨２丁目３８番６号,,13,116,1700001,,,2024-12-17,清算の結了等,,,2015-10-05,1,,,,,ムサシエン,0
67,1021001017914,登記記録の閉鎖等,0,2024-12-26,2024-12-24,株式会社アクアサービス,,株式会社,神奈川県,相模原市南区,麻溝台７丁目３番１０号,,14,153,2520328,,,2024-12-24,清算の結了等,,,2015-10-05,1,,,,,アクアサービス,0
70,1021002033002,登記記録の閉鎖等,0,2024-12-26,2024-12-23,有限会社双和倉庫,,有限会社,神奈川県,厚木市,酒井２５１３番地,,14,212,2430022,,,2024-12-23,清算の結了等,,,2015-10-05,1,,,,,ソウワソウコ,0
72,1030001034794,登記記録の閉鎖等,0,2024-12-26,2024-12-20,開発化学工業株式会社,,株式会社,埼玉県,草加市,稲荷２丁目２４番１４号,,11,221,3400003,,,2024-12-20,清算の結了等,,,2015-10-05,1,,,,,カイハツカガクコウギョウ,0
79,1030002047548,登記記録の閉鎖等,0,2024-12-26,2024-12-24,有限会社トラストメールサービス,,有限会社,埼玉県,八潮市,緑町５丁目１１番地５,,11,234,3400808,,,2024-12-24,清算の結了等,,,2015-10-05,1,,,,,トラストメールサービス,0
80,1030002122490,登記記録の閉鎖等,0,2024-12-26,2024-12-24,有限会社町久,,有限会社,埼玉県,秩父市,荒川白久１４７６番地,,11,207,3691912,,,2024-12-24,清算の結了等,,,2015-10-05,1,,,,,マチキュウ,0
92,1040002088954,登記記録の閉鎖等,0,2024-12-26,2024-12-20,有限会社上田計装,,有限会社,千葉県,柏市,新柏３丁目８番地の３,,12,217,2770084,,,2024-12-20,清算の結了等,,,2015-10-05,1,,,,,ウエダケイソウ,0
94,1040002093392,登記記録の閉鎖等,0,2024-12-26,2024-12-23,有限会社木村建築事務所,,有限会社,千葉県,柏市,高柳新田２番地の７４,,12,217,2770943,,,2024-12-23,清算の結了等,,,2015-10-05,1,,,,,キムラケンチクジムショ,0
95,1040003013416,登記記録の閉鎖等,0,2024-12-26,2024-12-23,合同会社ワンアークス,,合同会社,千葉県,船橋市,前原東２丁目２３番２－２０３号,,12,204,2740824,,,2024-12-23,清算の結了等,,,2019-05-22,1,,,,,ワンアークス,0
96,1050001024249,登記記録の閉鎖等,0,2024-12-26,2024-12-20,双葉モバイルディスプレイ株式会社,,株式会社,茨城県,北茨城市,中郷町日棚１４７１番２１,,08,215,3191556,,,2024-12-20,清算の結了等,,,2015-10-05,1,,,,,フタバ,0
100,1050002021419,登記記録の閉鎖等,0,2024-12-26,2024-12-20,有限会社シーシーティーヴイ,,有限会社,茨城県,つくば市,西岡１０８番地４,,08,220,3050832,,,2024-12-20,清算の結了等,,,2015-10-05,1,,,,,シーシーティヴィ,0
104,1070002013505,登記記録の閉鎖等,0,2024-12-26,2024-12-25,有限会社フリーズ,,有限会社,群馬県,高崎市,飯塚町４５７番地１,,10,202,3700069,,,2024-12-25,清算の結了等,,,2015-10-05,1,,,,,フリーズ,0
126,1100003005687,登記記録の閉鎖等,0,2024-12-26,2024-12-19,合同会社ゆたは,,合同会社,長野県,安曇野市,豊科高家１１３７番地９２,,20,220,3998204,,,2024-12-19,清算の結了等,,,2020-05-20,1,,,,,ユタハ,0
130,1120001202838,登記記録の閉鎖等,0,2024-12-26,2024-12-23,株式会社シード,,株式会社,大阪府,大阪市西成区,岸里１丁目３番３４号,,27,122,5570041,,,2024-12-23,清算の結了等,,,2017-01-06,1,,,,,,0
134,1120001221565,登記記録の閉鎖等,0,2024-12-26,2024-12-23,株式会社Ｄｉａｍｏｎｄ,,株式会社,大阪府,大阪市中央区,南船場４丁目１０番５号南船場ＳＯＨＯビル７０２,,27,128,5420081,,,2024-12-23,清算の結了等,,,2019-06-07,1,,,,,ダイアモンド,0
136,1120001224601,登記記録の閉鎖等,0,2024-12-26,2024-12-23,株式会社満屋商事,,株式会社,大阪府,大阪市北区,梅田２丁目５－１３桜橋第一ビル３０４号,,27,127,5300001,,,2024-12-23,清算の結了等,,,2019-10-23,1,,,,,ミツヤショウジ,0
144,1120002039081,登記記録の閉鎖等,0,2024-12-26,2024-12-25,有限会社やぐら海乃山,,有限会社,大阪府,大阪市中央区,大手前１丁目７番３１号,,27,128,5400008,,,2024-12-25,清算の結了等,,,2015-10-05,1,,,,,ヤグラカイノヤマ,0
145,1120002053207,登記記録の閉鎖等,0,2024-12-26,2024-12-24,有限会社アティ,,有限会社,大阪府,大阪市東成区,中道３丁目１３番２３号,,27,115,5370025,,,2024-12-24,清算の結了等,,,2015-10-05,1,,,,,アティ,0
164,1140001072957,登記記録の閉鎖等,0,2024-12-26,2024-12-20,株式会社ゼロプランニング,,株式会社,兵庫県,西宮市,日野町１８番５３号,,28,204,6638022,,,2024-12-20,清算の結了等,,,2015-10-05,1,,,,,ゼロプランニング,0
183,1180003025430,登記記録の閉鎖等,0,2024-12-26,2024-12-17,Ｙ＆Ｓプロモーション合同会社,,合同会社,愛知県,名古屋市中区,栄１丁目２０番１０号,,23,106,4600008,,,2024-12-17,清算の結了等,,,2023-07-04,1,,,,,ワイアンドエスプロモーション,0
184,1180301016973,登記記録の閉鎖等,0,2024-12-26,2024-12-23,ケースペック・マネジメント株式会社,,株式会社,愛知県,碧南市,立山町４丁目３２番地２,,23,209,4470075,,,2024-12-23,清算の結了等,,,2015-10-05,1,,,,,ケースペックマネジメント,0
194,1200002004060,登記記録の閉鎖等,0,2024-12-26,2024-12-24,有限会社ブランカ,,有限会社,岐阜県,岐阜市,六条北２丁目３番１５号,,21,201,5008359,,,2024-12-24,清算の結了等,,,2015-10-05,1,,,,,ブランカ,0
199,1240001019849,登記記録の閉鎖等,0,2024-12-26,2024-12-17,株式会社ライフアート・ホールディングス,,株式会社,広島県,安芸郡海田町,窪町２番１４号,,34,304,7360046,,,2024-12-17,合併による解散等,6240001055303,令和６年１２月１６日広島県安芸郡海田町窪町２番１４号株式会社ライフアート（6240001055303）に合併し解散,2015-10-05,1,,,,,ライフアートホールディングス,0
221,1290801019746,登記記録の閉鎖等,0,2024-12-26,2024-12-23,アクアリリー株式会社,,株式会社,福岡県,北九州市小倉北区,竪町１丁目１番２号,,40,106,8030818,,,2024-12-23,清算の結了等,,,2015-10-05,1,,,,,アクアリリー,0
231,1340001013932,登記記録の閉鎖等,0,2024-12-26,2024-12-25,株式会社坂元電気工事,,株式会社,鹿児島県,鹿屋市,川西町３４８７番地１６,,46,203,8930032,,,2024-12-25,清算の結了等,,,2015-10-05,1,,,,,サカモトデンキコウジ,0
245,1370601002786,登記記録の閉鎖等,0,2024-12-26,2024-12-19,株式会社エルオーエス,,株式会社,宮城県,多賀城市,八幡字六貫田５５番地の１,,04,209,9850874,,,2024-12-19,清算の結了等,,,2015-10-05,1,,,,,エルオーエス,0
247,1380002021220,登記記録の閉鎖等,0,2024-12-26,2024-12-16,有限会社コスモ,,有限会社,福島県,石川郡浅川町,大字大草字浜井場９番地,,07,504,9636214,,,2024-12-16,清算の結了等,,,2015-10-05,1,,,,,コスモ,0
248,1420002013948,登記記録の閉鎖等,0,2024-12-26,2024-12-24,有限会社ハクブン,,有限会社,青森県,弘前市,大字中野２丁目２番地２,,02,202,0368155,,,2024-12-24,清算の結了等,,,2015-10-05,1,,,,,ハクブン,0
257,1470002010742,登記記録の閉鎖等,0,2024-12-26,2024-12-24,有限会社マルサン・カーシステム,,有限会社,香川県,木田郡三木町,大字池戸３０９７番地５,,37,341,7610701,,,2024-12-24,清算の結了等,,,2015-10-05,1,,,,,マルサンカーシステム,0
259,1490001010543,登記記録の閉鎖等,0,2024-12-26,2024-12-20,株式会社ｂｏ・ｎｉ・ｔｏ,,株式会社,高知県,土佐市,宇佐町宇佐１７２９番地,,39,205,7811161,,,2024-12-20,合併による解散等,2010901037856,令和６年１２月１６日東京都世田谷区弦巻二丁目１３番６号株式会社プリュスエス（2010901037856）に合併し解散,2023-07-31,1,,,,,ボニート,0
267,2010001163958,登記記録の閉鎖等,0,2024-12-26,2024-12-23,ＳＵＮＧＪＯＯ　Ｄ＆Ｄ　ＪＡＰＡＮ株式会社,,株式会社,東京都,中央区,銀座４丁目２番１号銀座教会堂ビル８階,,13,102,1040061,,,2024-12-23,清算の結了等,,,2015-10-05,1,,,,,ソンジュディーアンドディージャパン,0
278,2010005028694,登記記録の閉鎖等,0,2024-12-26,2024-12-24,一般社団法人日本中小企業経営支援機構,,その他の設立登記法人,東京都,中央区,銀座１丁目１５番７号マック銀座ビル４０２,,13,102,1040061,,,2024-12-24,清算の結了等,,,2018-06-22,1,,,,,ニホンチュウショウキギョウケイエイシエンキコウ,0
279,2010005032440,登記記録の閉鎖等,0,2024-12-26,2024-12-25,一般社団法人ＷＡＢＩ－ＨＡＣＨＩ,,その他の設立登記法人,東京都,中央区,銀座１丁目６番１１号土志田ビルディング３Ｆ,,13,102,1040061,,,2024-12-25,清算の結了等,,,2020-10-26,1,,,,,ワビハチ,0
292,2010402023521,登記記録の閉鎖等,0,2024-12-26,2024-12-09,有限会社クオン・ハーバーズカンパニー,,有限会社,東京都,港区,海岸３丁目２６番１号バーク芝浦ビル,,13,103,1080022,,,2024-12-09,清算の結了等,,,2015-10-05,1,,,,,,0
297,2010601038023,登記記録の閉鎖等,0,2024-12-26,2024-12-23,大島音建株式会社,,株式会社,東京都,墨田区,業平３丁目１０番１３号,,13,107,1300002,,,2024-12-23,清算の結了等,,,2015-10-05,1,,,,,オオシマオンケン,0
301,2010702005450,登記記録の閉鎖等,0,2024-12-26,2024-12-18,有限会社テクニカルエイド,,有限会社,東京都,品川区,大井３丁目６番２２号,,13,109,1400014,,,2024-12-18,清算の結了等,,,2015-10-05,1,,,,,テクニカルエイド,0
302,2010801032908,登記記録の閉鎖等,0,2024-12-26,2024-12-20,株式会社ハクロプ,,株式会社,東京都,大田区,北千束２丁目４５番７号ラフュージュ北千束２０３,,13,111,1450062,,,2024-12-20,清算の結了等,,,2022-04-26,1,,,,,ハクロプ,0
347,2030001061516,登記記録の閉鎖等,0,2024-12-26,2024-12-24,株式会社野口農園,,株式会社,埼玉県,本庄市,見福１丁目１番２５号,,11,211,3670044,,,2024-12-24,清算の結了等,,,2015-10-05,1,,,,,ノグチノウエン,0
348,2030001084756,登記記録の閉鎖等,0,2024-12-26,2024-12-23,コーキ産業株式会社,,株式会社,埼玉県,熊谷市,見晴町１６７番地,,11,202,3600824,,,2024-12-23,清算の結了等,,,2015-10-05,1,,,,,コーキサンギョウ,0
349,2030001095456,登記記録の閉鎖等,0,2024-12-26,2024-12-23,株式会社Ｃ＆Ｃ　ｃｏｒｐｏｒａｔｉｏｎ,,株式会社,埼玉県,三郷市,中央４丁目２番地６,,11,237,3410038,,,2024-12-23,清算の結了等,,,2015-10-05,1,,,,,シーアンドシーコーポレーション,0
352,2030001122862,登記記録の閉鎖等,0,2024-12-26,2024-12-23,インプレッションズ株式会社,,株式会社,埼玉県,川口市,末広１丁目１１番２号,,11,203,3320006,,,2024-12-23,合併による解散等,9030001078074,令和６年１２月２１日埼玉県川口市末広一丁目１１番２号セブンフィールズ株式会社（9030001078074）に合併し解散,2017-11-01,1,,,,,インプレッションズ,0
363,2040002040542,登記記録の閉鎖等,0,2024-12-26,2024-12-19,有限会社オアシス,,有限会社,千葉県,浦安市,入船１丁目１番１号,,12,227,2790012,,,2024-12-19,清算の結了等,,,2015-10-05,1,,,,,オアシス,0
367,2050005002869,登記記録の閉鎖等,0,2024-12-26,2024-12-18,土浦駅前商業協同組合,,その他の設立登記法人,茨城県,土浦市,大和町５番１号,,08,203,3000036,,,2024-12-18,清算の結了等,,,2015-10-05,1,,,,,ツチウラエキマエショウギョウ,0
380,2090001007380,登記記録の閉鎖等,0,2024-12-26,2024-12-19,株式会社ＭＪＳ,,株式会社,山梨県,甲斐市,西八幡２３０１番地２,,19,210,4000117,,,2024-12-19,清算の結了等,,,2015-10-05,1,,,,,エムジェイエス,0
402,2130001013052,登記記録の閉鎖等,0,2024-12-26,2024-12-25,株式会社燈影舎,,株式会社,京都府,京都市山科区,四ノ宮川原町２１番地,,26,110,6078027,,,2024-12-25,清算の結了等,,,2015-10-05,1,,,,,トウエイシャ,0
412,2140002037792,登記記録の閉鎖等,0,2024-12-26,2024-12-20,有限会社パッスル試験研究会,,有限会社,兵庫県,加古郡稲美町,岡３１７番地,,28,381,6751113,,,2024-12-20,清算の結了等,,,2015-10-05,1,,,,,パッスルシケンケンキュウカイ,0
433,2190002003030,登記記録の閉鎖等,0,2024-12-26,2024-12-24,有限会社光洋設計事務所,,有限会社,三重県,津市,白山町川口１１番地,,24,201,5152603,,,2024-12-24,清算の結了等,,,2015-10-05,1,,,,,コウヨウセッケイジムショ,0
442,2220002004314,登記記録の閉鎖等,0,2024-12-26,2024-12-23,有限会社中本工業,,有限会社,石川県,金沢市,長田２丁目１５番２８号,,17,201,9200043,,,2024-12-23,清算の結了等,,,2015-10-05,1,,,,,ナカモトコウギョウ,0
443,2230001016136,登記記録の閉鎖等,0,2024-12-26,2024-12-24,株式会社雫,,株式会社,富山県,高岡市,御旅屋町６７‐３高岡駅前ライオンビル４Ｆ,,16,202,9330029,,,2024-12-24,清算の結了等,,,2015-10-05,1,,,,,シズク,0
447,2240002052476,登記記録の閉鎖等,0,2024-12-26,2024-12-24,有限会社脇本鉄工所,,有限会社,広島県,尾道市,瀬戸田町中野２５番地の５,,34,205,7222415,,,2024-12-24,清算の結了等,,,2015-10-05,1,,,,,ワキモトテッコウショ,0
448,2240005002750,登記記録の閉鎖等,0,2024-12-26,2024-12-25,特定非営利活動法人青少年異文化交流推進協会,,その他の設立登記法人,広島県,広島市中区,千田町２丁目１番２号,,34,101,7300052,,,2024-12-25,清算の結了等,,,2015-10-05,1,,,,,セイショウネンイブンカコウリュウスイシンキョウカイ,0
459,2290001029066,登記記録の閉鎖等,0,2024-12-26,2024-12-02,株式会社ＧＯ　ＷＥＬＬ,,株式会社,福岡県,福岡市中央区,舞鶴１丁目３番４７－９０８号,,40,133,8100073,,,2024-12-02,清算の結了等,,,2015-10-05,1,,,,,ゴーウェル,0
462,2290001079094,登記記録の閉鎖等,0,2024-12-26,2024-12-06,株式会社Ｓｅｖｅｎ　Ｓｅｎｓｅ　Ｉｎｎｏｖａｔｉｏｎ,,株式会社,福岡県,福岡市中央区,大名１丁目９番８号東邦シェソワ大名２Ｆ,,40,133,8100041,,,2024-12-06,清算の結了等,,,2017-09-15,1,,,,,セブンセンスイノベーション,0
465,2290003003184,登記記録の閉鎖等,0,2024-12-26,2024-12-09,合同会社武田事務所,,合同会社,福岡県,柳川市,椿原町３３番地１,,40,207,8320031,,,2024-12-09,清算の結了等,,,2015-10-05,1,,,,,タケダジムショ,0
481,2380003004438,登記記録の閉鎖等,0,2024-12-26,2024-12-16,合同会社御宿,,合同会社,福島県,福島市,飯坂町湯野字西畑１番地の１０,,07,201,9600211,,,2024-12-16,清算の結了等,,,2019-04-04,1,,,,,オヤド,0
497,2470001016896,登記記録の閉鎖等,0,2024-12-26,2024-12-20,株式会社オリスト,,株式会社,香川県,小豆郡土庄町,馬越甲３３０番地３,,37,322,7614141,,,2024-12-20,清算の結了等,,,2018-05-28,1,,,,,オリスト,0
509,3010001234080,登記記録の閉鎖等,0,2024-12-26,2024-12-12,おもてアグリ株式会社,,株式会社,東京都,千代田区,神田神保町２丁目１７番地,,13,101,1010051,,,2024-12-12,清算の結了等,,,2023-04-04,1,,,,,オモテアグリ,0
514,3010401028693,登記記録の閉鎖等,0,2024-12-26,2024-12-09,株式会社三田セントラルフアーマシー,,株式会社,東京都,港区,芝５丁目１６番１号,,13,103,1080014,,,2024-12-09,清算の結了等,,,2015-10-05,1,,,,,ミタセントラルフアーマシー,0
516,3010401120616,登記記録の閉鎖等,0,2024-12-26,2024-12-09,株式会社Ａｒｄｏｒｅ,,株式会社,東京都,港区,赤坂２丁目２１番２号,,13,103,1070052,,,2024-12-09,清算の結了等,,,2015-10-05,1,,,,,,0
531,3010901047284,登記記録の閉鎖等,0,2024-12-26,2024-12-02,株式会社０ｒｉｇｉｎａ１,,株式会社,東京都,渋谷区,渋谷２丁目２１番１号,,13,113,1500002,,,2024-12-02,合併による解散等,9011601021409,令和６年１２月１日東京都渋谷区渋谷二丁目２１番１号ボンド株式会社（9011601021409）に合併し解散,2020-10-22,1,,,,,オリジナル,0
539,3011001143635,登記記録の閉鎖等,0,2024-12-26,2024-12-02,株式会社Ｈｕｎｇｒｙ　Ｄｏｇ,,株式会社,東京都,渋谷区,恵比寿２丁目３７番８号グランデュオ広尾６０２,,13,113,1500013,,,2024-12-02,清算の結了等,,,2021-10-26,1,,,,,ハングリードッグ,0
548,3011103008240,登記記録の閉鎖等,0,2024-12-26,2024-12-16,合同会社ＳＴタック,,合同会社,東京都,新宿区,東五軒町１番９号片岡ビル２Ｆ,,13,104,1620813,,,2024-12-16,清算の結了等,,,2018-09-19,1,,,,,エスティータック,0
591,3021002030162,登記記録の閉鎖等,0,2024-12-26,2024-12-24,有限会社隆八左官店,,有限会社,神奈川県,相模原市南区,磯部１７２０番地の１,,14,153,2520327,,,2024-12-24,清算の結了等,,,2015-10-05,1,,,,,リュウハチサカンテン,0
592,3030001022525,登記記録の閉鎖等,0,2024-12-26,2024-12-20,れい・らいん株式会社,,株式会社,埼玉県,戸田市,大字新曽１０１４番地,,11,224,3350021,,,2024-12-20,清算の結了等,,,2015-10-05,1,,,,,レイライン,0
597,3030003018232,登記記録の閉鎖等,0,2024-12-26,2024-12-23,ドライテック東京合同会社,,合同会社,埼玉県,新座市,片山１丁目１３番１０号,,11,230,3520025,,,2024-12-23,清算の結了等,,,2021-11-01,1,,,,,ドライテックトウキョウ,0
599,3040001057545,登記記録の閉鎖等,0,2024-12-26,2024-12-23,株式会社篠崎,00019267,株式会社,千葉県,大網白里市,大網３２２番地,,12,239,2993251,,,2024-12-23,清算の結了等,,,2015-10-05,1,,,,,,0
608,3040002041688,登記記録の閉鎖等,0,2024-12-26,2024-12-23,有限会社本間圧送,,有限会社,千葉県,浦安市,東野３丁目７番２３号,,12,227,2790042,,,2024-12-23,清算の結了等,,,2015-10-05,1,,,,,,0
609,3040002089389,登記記録の閉鎖等,0,2024-12-26,2024-12-23,有限会社ガラージュ,,有限会社,千葉県,柏市,新柏３丁目１６番地の１１,,12,217,2770084,,,2024-12-23,清算の結了等,,,2015-10-05,1,,,,,ガラージュ,0
617,3070005002081,登記記録の閉鎖等,0,2024-12-26,2024-12-24,神道大教榛名宝蔵坊講社,,その他の設立登記法人,群馬県,高崎市,榛名山町８４番地,,10,202,3703341,,,2024-12-24,清算の結了等,,,2015-10-05,1,,,,,シントウダイキョウハルナホウゾウボウコウシャ,0
619,3080005006049,登記記録の閉鎖等,0,2024-12-26,2024-12-23,医療法人社団青島北クリニック,,その他の設立登記法人,静岡県,藤枝市,瀬古２丁目６番１５号,,22,214,4260082,,,2024-12-23,清算の結了等,,,2015-10-05,1,,,,,アオシマキタクリニック,0
629,3100002001462,登記記録の閉鎖等,0,2024-12-26,2024-12-24,有限会社クリーニング中島,,有限会社,長野県,長野市,若穂綿内６２８４番地３,,20,201,3810101,,,2024-12-24,清算の結了等,,,2015-10-05,1,,,,,クリーニングナカジマ,0
633,3120001021385,登記記録の閉鎖等,0,2024-12-26,2024-12-25,株式会社美章園製本所,,株式会社,大阪府,大阪市平野区,長吉出戸８丁目８番８号,,27,126,5470011,,,2024-12-25,清算の結了等,,,2015-10-05,1,,,,,ビショウエンセイホンジョ,0
654,3120902009173,登記記録の閉鎖等,0,2024-12-26,2024-12-20,有限会社マルニ工業,,有限会社,大阪府,摂津市,鳥飼本町５丁目１２番５１号,,27,224,5660052,,,2024-12-20,清算の結了等,,,2015-10-05,1,,,,,マルニコウギョウ,0
657,3140001003134,登記記録の閉鎖等,0,2024-12-26,2024-12-20,株式会社オオハタ,,株式会社,兵庫県,神戸市灘区,水道筋３丁目９番地,,28,102,6570831,,,2024-12-20,清算の結了等,,,2015-10-05,1,,,,,オオハタ,0
667,3180001094293,登記記録の閉鎖等,0,2024-12-26,2024-12-20,株式会社小島重徳商店,,株式会社,愛知県,東海市,名和町日向根１５４,,23,222,4760002,,,2024-12-20,清算の結了等,,,2015-10-05,1,,,,,コジマシゲノリショウテン,0
673,3180003024364,登記記録の閉鎖等,0,2024-12-26,2024-12-19,合同会社Ｐｕａｌａ,,合同会社,愛知県,名古屋市中区,新栄３丁目２２－２５コートアクシス新栄４０２,,23,106,4600007,,,2024-12-19,清算の結了等,,,2022-10-17,1,,,,,プアラ,0
677,3190001017179,登記記録の閉鎖等,0,2024-12-26,2024-12-19,株式会社いとめん本店,,株式会社,三重県,四日市市,伊倉２丁目９番７号,,24,202,5100832,,,2024-12-19,合併による解散等,4190001031410,令和６年１２月１９日三重県四日市市伊倉二丁目９番７号株式会社ＴＭ（4190001031410）に合併し解散,2015-10-05,1,,,,,イトメンホンテン,0
693,3290001047802,登記記録の閉鎖等,0,2024-12-26,2024-12-24,株式会社プランニングオフィス・アオヤギ,,株式会社,福岡県,八女市,本町１番地２７４,,40,210,8340031,,,2024-12-24,清算の結了等,,,2015-10-05,1,,,,,プランニングオフィスアオヤギ,0
699,3290002023876,登記記録の閉鎖等,0,2024-12-26,2024-12-06,有限会社グッドウィル,,有限会社,福岡県,福岡市城南区,茶山４丁目２５番８号,,40,136,8140111,,,2024-12-06,清算の結了等,,,2015-10-05,1,,,,,グッドウィル,0
703,3290801013929,登記記録の閉鎖等,0,2024-12-26,2024-12-23,株式会社カツミ,,株式会社,福岡県,遠賀郡水巻町,二東１丁目４番１６号,,40,382,8070054,,,2024-12-23,清算の結了等,,,2015-10-05,1,,,,,カツミ,0
704,3290801015090,登記記録の閉鎖等,0,2024-12-26,2024-12-23,株式会社サンナー,,株式会社,福岡県,豊前市,大字赤熊１４１９番地の８,,40,214,8280027,,,2024-12-23,清算の結了等,,,2015-10-05,1,,,,,サンナー,0
705,3290802021641,登記記録の閉鎖等,0,2024-12-26,2024-12-23,有限会社石田商事,,有限会社,福岡県,鞍手郡鞍手町,大字室木７１４番地,,40,402,8071307,,,2024-12-23,清算の結了等,,,2015-10-05,1,,,,,イシダショウジ,0
711,3340002002081,登記記録の閉鎖等,0,2024-12-26,2024-12-24,有限会社大迫ビル,,有限会社,鹿児島県,鹿児島市,荒田１丁目６番１０号,,46,201,8900054,,,2024-12-24,清算の結了等,,,2015-10-05,1,,,,,オオサコビル,0
717,3370001019306,登記記録の閉鎖等,0,2024-12-26,2024-12-20,アフィニティ・グループ株式会社,,株式会社,宮城県,仙台市泉区,泉ケ丘１丁目２１番２３号,,04,105,9813201,,,2024-12-20,清算の結了等,,,2015-10-05,1,,,,,アフィニティグループ,0
720,3410002003758,登記記録の閉鎖等,0,2024-12-26,2024-12-23,有限会社矢野薬品,,有限会社,秋田県,秋田市,泉中央５丁目１８番１２号,,05,201,0100917,,,2024-12-23,清算の結了等,,,2015-10-05,1,,,,,ヤノヤクヒン,0
724,3420002018490,登記記録の閉鎖等,0,2024-12-26,2024-12-24,有限会社上北農興,,有限会社,青森県,上北郡七戸町,字松ケ沢２０８番地７,,02,402,0392835,,,2024-12-24,清算の結了等,,,2015-10-05,1,,,,,カミキタノウコウ,0
749,4010405010804,登記記録の閉鎖等,0,2024-12-26,2024-12-25,Ｈａｎａ一般社団法人,,その他の設立登記法人,東京都,千代田区,霞が関３丁目２番５号霞ヶ関国際会計事務所内,,13,101,1000013,,,2024-12-25,清算の結了等,,,2015-10-05,1,,,,,ハナ,0
753,4010501028114,登記記録の閉鎖等,0,2024-12-26,2024-12-18,用友ソフトジャパン株式会社,,株式会社,東京都,台東区,駒形２丁目４番１１号,,13,106,1110043,,,2024-12-18,清算の結了等,,,2015-10-05,1,,,,,,0
757,4010701019094,登記記録の閉鎖等,0,2024-12-26,2024-12-12,株式会社チュウツウ,,株式会社,東京都,中央区,日本橋本町１丁目９番１号Ｓ－ＧＡＴＥ日本橋本町１０階,,13,102,1030023,,,2024-12-12,合併による解散等,7010401141253,令和６年１２月２日東京都中央区日本橋本町一丁目９番１号Ｓ－ＧＡＴＥ日本橋本町１０階株式会社ロジネットジャパン東日本（7010401141253）に合併し解散,2015-10-05,1,,,,,チュウツウ,0
762,4010902012666,登記記録の閉鎖等,0,2024-12-26,2024-12-24,有限会社ヒロセキャド,,有限会社,東京都,世田谷区,宮坂３丁目３０番１１号,,13,112,1560051,,,2024-12-24,清算の結了等,,,2015-10-05,1,,,,,ヒロセキャド,0
765,4010903004274,登記記録の閉鎖等,0,2024-12-26,2024-12-23,合同会社Ｈａｔｉ,,合同会社,東京都,世田谷区,千歳台６丁目１６番４号,,13,112,1570071,,,2024-12-23,清算の結了等,,,2018-05-02,1,,,,,ハチ,0
766,4011001129633,登記記録の閉鎖等,0,2024-12-26,2024-12-02,株式会社ＲＥＤ　ＧＥＥＫ　ＰＩＣＴＵＲＥＳ,,株式会社,東京都,渋谷区,神宮前２丁目３１番７号ビラ・グロリア７０１号室,,13,113,1500001,,,2024-12-02,清算の結了等,,,2019-08-27,1,,,,,レッドギークピクチュアズ,0
768,4011002015642,登記記録の閉鎖等,0,2024-12-26,2024-12-02,有限会社ワイエム・オフィス,,有限会社,東京都,渋谷区,本町１丁目２０番２号,,13,113,1510071,,,2024-12-02,清算の結了等,,,2015-10-05,1,,,,,ワイエムオフィス,0
801,4021001037579,登記記録の閉鎖等,0,2024-12-26,2024-12-24,株式会社アラベスク,,株式会社,神奈川県,中郡大磯町,大磯３７１番地,,14,341,2550003,,,2024-12-24,清算の結了等,,,2015-10-05,1,,,,,アラベスク,0
807,4021002049111,登記記録の閉鎖等,0,2024-12-26,2024-12-24,有限会社ボールダー,,有限会社,神奈川県,大和市,西鶴間３丁目２番１３号,,14,213,2420005,,,2024-12-24,清算の結了等,,,2015-10-05,1,,,,,ボールダー,0
809,4030001062594,登記記録の閉鎖等,0,2024-12-26,2024-12-20,株式会社ヒューマンスケープ,,株式会社,埼玉県,北本市,本町２丁目９アサヤマンション１０７,,11,233,3640033,,,2024-12-20,清算の結了等,,,2015-10-05,1,,,,,ヒューマンスケープ,0
816,4030002101946,登記記録の閉鎖等,0,2024-12-26,2024-12-23,協和プラスチック有限会社,,有限会社,埼玉県,川口市,本町２丁目９番１５号,,11,203,3320012,,,2024-12-23,清算の結了等,,,2015-10-05,1,,,,,キョウワプラスチック,0
822,4040002040730,登記記録の閉鎖等,0,2024-12-26,2024-12-23,有限会社久仁寿司,,有限会社,千葉県,浦安市,当代島１丁目４番７号,,12,227,2790001,,,2024-12-23,清算の結了等,,,2015-10-05,1,,,,,,0
824,4040003013339,登記記録の閉鎖等,0,2024-12-26,2024-12-17,ミキマシンサービス合名会社,,合名会社,千葉県,印旛郡栄町,安食台２丁目２番１号,,12,329,2701515,,,2024-12-17,清算の結了等,,,2019-05-14,1,,,,,ミキマシンサービス,0
826,4050001008620,登記記録の閉鎖等,0,2024-12-26,2024-12-19,ホームエネルギーエコプランナー茨城株式会社,00021970,株式会社,茨城県,水戸市,元吉田町１５２７番地,,08,201,3100836,,,2024-12-19,清算の結了等,,,2015-10-05,1,,,,,ホームエネルギーエコプランナーイバラキ,0
830,4050002028221,登記記録の閉鎖等,0,2024-12-26,2024-12-19,有限会社エビス薬局,,有限会社,茨城県,神栖市,息栖３９２４番地,,08,232,3140133,,,2024-12-19,清算の結了等,,,2015-10-05,1,,,,,エビスヤッキョク,0
833,4070002029861,登記記録の閉鎖等,0,2024-12-26,2024-12-23,有限会社タイヨー工業,,有限会社,群馬県,太田市,龍舞町５１４２番地,,10,205,3730806,,,2024-12-23,清算の結了等,,,2015-10-05,1,,,,,タイヨーコウギョウ,0
835,4080001008246,登記記録の閉鎖等,0,2024-12-26,2024-12-23,株式会社エイ・ティ・ティ,,株式会社,静岡県,静岡市清水区,七ツ新屋１丁目８番２０号,,22,103,4240066,,,2024-12-23,清算の結了等,,,2015-10-05,1,,,,,エイティティ,0
848,4100001029900,登記記録の閉鎖等,0,2024-12-26,2024-12-24,株式会社大内商会,,株式会社,長野県,長野市,大字大豆島４３９番地１,,20,201,3810022,,,2024-12-24,清算の結了等,,,2017-01-10,1,,,,,オオウチショウカイ,0
849,4110002026367,登記記録の閉鎖等,0,2024-12-26,2024-12-23,有限会社楽々荘,,有限会社,新潟県,糸魚川市,横町３丁目５番１号,,15,216,9410067,,,2024-12-23,清算の結了等,,,2015-10-05,1,,,,,ラクラクソウ,0
851,4120001117364,登記記録の閉鎖等,0,2024-12-26,2024-12-23,オキテックス株式会社,,株式会社,大阪府,大阪市中央区,瓦町４丁目３番９号,,27,128,5410048,,,2024-12-23,清算の結了等,,,2015-10-05,1,,,,,オキテックス,0
870,4140001057633,登記記録の閉鎖等,0,2024-12-26,2024-12-19,網干興産株式会社,00039774,株式会社,兵庫県,姫路市,網干区新在家２０７５番地の３８,,28,201,6711234,,,2024-12-19,清算の結了等,,,2015-10-05,1,,,,,アボシコウサン,0
871,4140001082615,登記記録の閉鎖等,0,2024-12-26,2024-12-25,株式会社ヤノ技研,,株式会社,兵庫県,宝塚市,売布１丁目２５番１３号,,28,214,6650852,,,2024-12-25,清算の結了等,,,2015-10-05,1,,,,,ヤノギケン,0
886,4180001000036,登記記録の閉鎖等,0,2024-12-26,2024-12-20,アーバンライフ株式会社,,株式会社,愛知県,日進市,五色園２丁目１５０８番地,,23,230,4700105,,,2024-12-20,清算の結了等,,,2015-10-05,1,,,,,アーバンライフ,0
887,4180001006487,登記記録の閉鎖等,0,2024-12-26,2024-12-18,佐々木工業株式会社,,株式会社,愛知県,名古屋市中川区,東起町２丁目３８番地の１,,23,110,4540935,,,2024-12-18,清算の結了等,,,2015-10-05,1,,,,,ササキコウギョウ,0
893,4180002005868,登記記録の閉鎖等,0,2024-12-26,2024-12-20,有限会社貝初,,有限会社,愛知県,名古屋市港区,多加良浦町５丁目７番地,,23,111,4550825,,,2024-12-20,清算の結了等,,,2015-10-05,1,,,,,カイハツ,0
905,4200002019717,登記記録の閉鎖等,0,2024-12-26,2024-12-24,有限会社岐阜こどものとも社,,有限会社,岐阜県,関市,馬場出７８番地,,21,205,5013969,,,2024-12-24,清算の結了等,,,2015-10-05,1,,,,,ギフコドモノトモシャ,0
916,4250002020059,登記記録の閉鎖等,0,2024-12-26,2024-12-20,有限会社道岡材木店,,有限会社,山口県,熊毛郡平生町,大字曽根１９２６番地の２７,,35,344,7421107,,,2024-12-20,清算の結了等,,,2015-10-05,1,,,,,ミチオカザイモクテン,0
917,4260001032681,登記記録の閉鎖等,0,2024-12-26,2024-12-19,株式会社ソフトデザイン,,株式会社,岡山県,倉敷市,連島中央３丁目１４番１６号,,33,202,7128014,,,2024-12-19,清算の結了等,,,2018-12-11,1,,,,,ソフトデザイン,0
952,4380001013075,登記記録の閉鎖等,0,2024-12-26,2024-12-16,株式会社情報処理研究所,,株式会社,福島県,いわき市,小名浜大原小滝町７番地の８,,07,204,9718111,,,2024-12-16,清算の結了等,,,2015-10-05,1,,,,,ジョウホウショリケンキュウショ,0
970,4480002005458,登記記録の閉鎖等,0,2024-12-26,2024-12-24,有限会社幸土建,,有限会社,徳島県,名西郡石井町,高原字池北２５７番地の１,,36,341,7793206,,,2024-12-24,清算の結了等,,,2015-10-05,1,,,,,ユウウゲンガイシャサイワイドケン,0
979,5010101012938,登記記録の閉鎖等,0,2024-12-26,2024-12-20,株式会社ＪＣテックコム,,株式会社,千葉県,習志野市,奏の杜２丁目２－１－８０８号,,12,216,2750028,,,2024-12-20,清算の結了等,,,2017-07-12,1,,,,,ジェーシーテックコム,0
1019,5011402008039,登記記録の閉鎖等,0,2024-12-26,2024-12-16,星友運送有限会社,,有限会社,東京都,板橋区,稲荷台２１番１号,,13,119,1730002,,,2024-12-16,清算の結了等,,,2015-10-05,1,,,,,ホシトモウンソウ,0
1035,5020002048337,登記記録の閉鎖等,0,2024-12-26,2024-12-19,有限会社ショーナンクリーンサービス,,有限会社,神奈川県,横浜市港南区,日野９丁目４１番１号,,14,111,2340051,,,2024-12-19,清算の結了等,,,2015-10-05,1,,,,,ショーナンクリーンサービス,0
1043,5030001058063,登記記録の閉鎖等,0,2024-12-26,2024-12-23,株式会社ティースタッフ,,株式会社,埼玉県,川越市,松江町２丁目１１番地,,11,201,3500056,,,2024-12-23,清算の結了等,,,2015-10-05,1,,,,,ティースタッフ,0
1050,5030001119939,登記記録の閉鎖等,0,2024-12-26,2024-12-20,株式会社Ｍａｘ　Ｐｏｗｅｒ,,株式会社,埼玉県,川越市,大字今福５４５番地３,,11,201,3501151,,,2024-12-20,清算の結了等,,,2017-04-26,1,,,,,マックスパワー,0
1055,5040001114740,登記記録の閉鎖等,0,2024-12-26,2024-12-23,株式会社クロスエッジ・ラボ,,株式会社,千葉県,印西市,西の原１丁目２番フローラルシティ西の原１棟８０１号室,,12,231,2701334,,,2024-12-23,清算の結了等,,,2020-08-18,1,,,,,クロスエッジラボ,0
1060,5040002068820,登記記録の閉鎖等,0,2024-12-26,2024-12-17,有限会社森鐵互所,,有限会社,千葉県,袖ケ浦市,坂戸市場１３５８番地,,12,229,2990262,,,2024-12-17,清算の結了等,,,2015-10-05,1,,,,,モリテツゴショ,0
1065,5070002026783,登記記録の閉鎖等,0,2024-12-26,2024-12-18,福与電子有限会社,,有限会社,群馬県,渋川市,横堀９８２番地の１,,10,208,3770206,,,2024-12-18,清算の結了等,,,2015-10-05,1,,,,,フクヨデンシ,0
1067,5080101009804,登記記録の閉鎖等,0,2024-12-26,2024-12-24,株式会社南富士工業所,,株式会社,静岡県,富士市,厚原八反田１９８番地,,22,210,4190201,,,2024-12-24,清算の結了等,,,2015-10-05,1,,,,,ミナミフジコウギョウショ,0
1079,5100005012694,登記記録の閉鎖等,0,2024-12-26,2024-12-24,特定非営利活動法人ＳＵＷＡ次世代の学び推進フォーラム,,その他の設立登記法人,長野県,諏訪市,清水２丁目３番３０号カマクラビルＩＩＩ－３０２,00122913,20,206,3920007,,,2024-12-24,清算の結了等,,,2021-04-12,1,,,,,スワジセダイノマナビスイシンフォーラム,0
1084,5120001120706,登記記録の閉鎖等,0,2024-12-26,2024-12-20,アドバンス・プロ株式会社,,株式会社,大阪府,大阪市旭区,高殿４丁目２０番３７号,,27,117,5350031,,,2024-12-20,清算の結了等,,,2015-10-05,1,,,,,アドバンスプロ,0
1096,5120002022190,登記記録の閉鎖等,0,2024-12-26,2024-12-24,有限会社スタジオイマージュ,,有限会社,大阪府,大阪市西区,江戸堀１丁目２４番１５号,,27,106,5500002,,,2024-12-24,清算の結了等,,,2015-10-05,1,,,,,スタジオイマージュ,0
1097,5120002081575,登記記録の閉鎖等,0,2024-12-26,2024-12-24,有限会社影山精機,,有限会社,大阪府,門真市,三ツ島５丁目１０番２７号,,27,223,5710015,,,2024-12-24,清算の結了等,,,2015-10-05,1,,,,,カゲヤマセイキ,0
1108,5120901022316,登記記録の閉鎖等,0,2024-12-26,2024-12-20,松栄興業株式会社,,株式会社,大阪府,箕面市,瀬川１丁目８番６号,,27,220,5620045,,,2024-12-20,清算の結了等,,,2015-10-05,1,,,,,ショウエイコウギョウ,0
1117,5140001022826,登記記録の閉鎖等,0,2024-12-26,2024-12-19,長江開発株式会社,,株式会社,兵庫県,神戸市中央区,八幡通３丁目２番５号,,28,110,6510085,,,2024-12-19,清算の結了等,,,2015-10-05,1,,,,,チョウコウカイハツ,0
1118,5140001041710,登記記録の閉鎖等,0,2024-12-26,2024-12-23,神山建設株式会社,,株式会社,兵庫県,丹波篠山市,今田町本荘６番地２,,28,221,6692163,,,2024-12-23,清算の結了等,,,2015-10-05,1,,,,,コウヤマケンセツ,0
1139,5190002005172,登記記録の閉鎖等,0,2024-12-26,2024-12-20,有限会社ウミガメフーズ,,有限会社,三重県,南牟婁郡紀宝町,鵜殿１３８８番地,,24,562,5195701,,,2024-12-20,清算の結了等,,,2015-10-05,1,,,,,ウミガメフーズ,0
1140,5190003003679,登記記録の閉鎖等,0,2024-12-26,2024-12-23,合同会社カイコウ,,合同会社,三重県,伊勢市,小木町２５８番地１スペラレーヴＢ棟１０１号室,,24,203,5160007,,,2024-12-23,清算の結了等,,,2021-05-20,1,,,,,カイコウ,0
1144,5210001012472,登記記録の閉鎖等,0,2024-12-26,2024-12-23,株式会社ＳＴＵＤＩＯ　ＴＡＫＥ－ＷＨＯ,,株式会社,福井県,越前市,幸町４番７号,,18,209,9150075,,,2024-12-23,清算の結了等,,,2015-10-05,1,,,,,スタジオテイクフー,0
1147,5230001002686,登記記録の閉鎖等,0,2024-12-26,2024-12-24,富士機器販売株式会社,,株式会社,富山県,富山市,布目２３６６番地,,16,201,9302233,,,2024-12-24,清算の結了等,,,2015-10-05,1,,,,,フジキキハンバイ,0
1158,5260003001287,登記記録の閉鎖等,0,2024-12-26,2024-12-23,合同会社たかはし山金,,合同会社,岡山県,高梁市,横町１５４０番地,,33,209,7160046,,,2024-12-23,清算の結了等,,,2015-10-05,1,,,,,タカハシヤマキン,0
1159,5260005003216,登記記録の閉鎖等,0,2024-12-26,2024-12-23,医療法人くすのき会,,その他の設立登記法人,岡山県,岡山市中区,平井５丁目６番１９号,,33,102,7038282,,,2024-12-23,清算の結了等,,,2015-10-05,1,,,,,クスノキカイ,0
1165,5290001095691,登記記録の閉鎖等,0,2024-12-26,2024-12-09,株式会社宗電,,株式会社,福岡県,宗像市,自由ヶ丘７丁目１５番２号,,40,220,8114163,,,2024-12-09,清算の結了等,,,2021-12-13,1,,,,,ソウデン,0
1179,5340001001339,登記記録の閉鎖等,0,2024-12-26,2024-12-24,共生コンサルタント株式会社,,株式会社,鹿児島県,鹿児島市,新栄町２６番２９号,,46,201,8900072,,,2024-12-24,清算の結了等,,,2015-10-05,1,,,,,キョウセイコンサルタント,0
1180,5340001025783,登記記録の閉鎖等,0,2024-12-26,2024-12-25,株式会社グローバルＳＫ,,株式会社,鹿児島県,鹿児島市,鴨池２丁目２４番１５号エクセレント鴨池３０３号,,46,201,8900063,,,2024-12-25,清算の結了等,,,2023-08-09,1,,,,,グローバルエスケー,0
1185,5380002027148,登記記録の閉鎖等,0,2024-12-26,2024-12-16,有限会社タケツルコーポレィション,,有限会社,福島県,いわき市,内郷綴町七反田２８番地の１,,07,204,9738403,,,2024-12-16,清算の結了等,,,2015-10-05,1,,,,,タケツルコーポレィション,0
1186,5390001010913,登記記録の閉鎖等,0,2024-12-26,2024-12-23,株式会社ロードライナー,,株式会社,山形県,南陽市,椚塚１０７５番地の２,,06,213,9992221,,,2024-12-23,清算の結了等,,,2015-10-05,1,,,,,ロードライナー,0
1203,6010003020261,登記記録の閉鎖等,0,2024-12-26,2024-12-16,合同会社ステイゴールド,,合同会社,東京都,新宿区,西落合２丁目２－６アーバンヒル哲学堂１０１,,13,104,1610031,,,2024-12-16,清算の結了等,,,2015-10-05,1,,,,,ステイゴールド,0
1204,6010005029202,登記記録の閉鎖等,0,2024-12-26,2024-12-20,一般社団法人ＫＲＦ７６,,その他の設立登記法人,東京都,千代田区,内幸町２丁目１番６号,,13,101,1000011,,,2024-12-20,清算の結了等,,,2018-10-11,1,,,,,ケイアールエフセブンティシックス,0
1225,6010703004662,登記記録の閉鎖等,0,2024-12-26,2024-12-11,合同会社イソアクシオン,,合同会社,東京都,品川区,荏原２丁目１２番１５号,,13,109,1420063,,,2024-12-11,清算の結了等,,,2019-02-07,1,,,,,イソアクシオン,0
1236,6011001061495,登記記録の閉鎖等,0,2024-12-26,2024-12-20,ハーミックス株式会社,,株式会社,愛知県,名古屋市西区,則武新町３丁目１番８６－１３２０号,,23,104,4510051,,,2024-12-20,清算の結了等,,,2015-10-05,1,,,,,ハーミックス,0
1247,6011103011605,登記記録の閉鎖等,0,2024-12-26,2024-12-02,ＩＴＯｎｅＳ合同会社,,合同会社,東京都,新宿区,西新宿３丁目３番１３号西新宿水間ビル６階,,13,104,1600023,,,2024-12-02,清算の結了等,,,2022-04-07,1,,,,,アイティワンエス,0
1255,6011402008260,登記記録の閉鎖等,0,2024-12-26,2024-12-20,有限会社ますたみ,,有限会社,東京都,板橋区,大谷口２丁目２９番３号,,13,119,1730035,,,2024-12-20,清算の結了等,,,2015-10-05,1,,,,,マスタミ,0
1260,6011701003193,登記記録の閉鎖等,0,2024-12-26,2024-12-23,税所技建株式会社,,株式会社,東京都,江戸川区,本一色１丁目２４番２号,,13,123,1330044,,,2024-12-23,清算の結了等,,,2015-10-05,1,,,,,サイショギケン,0
1262,6011702006492,登記記録の閉鎖等,0,2024-12-26,2024-12-23,有限会社セキモト,,有限会社,東京都,江戸川区,北篠崎１丁目２番２号,,13,123,1330053,,,2024-12-23,清算の結了等,,,2015-10-05,1,,,,,セキモト,0
1273,6020002070117,登記記録の閉鎖等,0,2024-12-26,2024-12-13,有限会社オフィス宮野,,有限会社,神奈川県,横浜市南区,別所中里台２３番２２号,,14,105,2320065,,,2024-12-13,清算の結了等,,,2015-10-05,1,,,,,オフィスミヤノ,0
1276,6021001035622,登記記録の閉鎖等,0,2024-12-26,2024-12-19,株式会社地域戦略パートナーズ,,株式会社,神奈川県,藤沢市,本鵠沼３丁目８番１６号,00012544,14,205,2510028,,,2024-12-19,清算の結了等,,,2015-10-05,1,,,,,チイキセンリャクパートナーズ,0
1277,6021001044185,登記記録の閉鎖等,0,2024-12-26,2024-12-24,株式会社ＣＨＡＲＧＥ,,株式会社,神奈川県,逗子市,桜山８丁目３番１３－２０６号,,14,208,2490005,,,2024-12-24,清算の結了等,,,2015-10-05,1,,,,,チャージ,0
1283,6030001045688,登記記録の閉鎖等,0,2024-12-26,2024-12-23,株式会社コスモ,,株式会社,埼玉県,新座市,片山１丁目１５番４号,,11,230,3520025,,,2024-12-23,清算の結了等,,,2015-10-05,1,,,,,コスモ,0
1287,6030002064811,登記記録の閉鎖等,0,2024-12-26,2024-12-23,有限会社トップサービス,,有限会社,埼玉県,新座市,新座１丁目１７番２９号,,11,230,3520006,,,2024-12-23,清算の結了等,,,2015-10-05,1,,,,,トップサービス,0
1288,6030002073820,登記記録の閉鎖等,0,2024-12-26,2024-12-23,有限会社菅崎工業,,有限会社,埼玉県,川越市,大字渋井１７５４番地１０,,11,201,3500013,,,2024-12-23,清算の結了等,,,2015-10-05,1,,,,,カンザキコウギョウ,0
1297,6050001023469,登記記録の閉鎖等,0,2024-12-26,2024-12-20,株式会社ナカノ化成,,株式会社,茨城県,日立市,千石町３丁目１７番１２号,,08,202,3160013,,,2024-12-20,清算の結了等,,,2015-10-05,1,,,,,ナカノカセイ,0
1299,6050002009104,登記記録の閉鎖等,0,2024-12-26,2024-12-18,有限会社読売新聞那珂湊専売所,00135629,有限会社,茨城県,ひたちなか市,湊泉町１番３０号,,08,221,3111216,,,2024-12-18,清算の結了等,,,2024-07-23,1,,,,,ヨミウリシンブンナカミナトセンバイショ,0
1301,6060001037162,登記記録の閉鎖等,0,2024-12-26,2024-12-10,ＵｎｉｔＸ株式会社,,株式会社,栃木県,宇都宮市,戸祭町２６３８－１２,,09,201,3200053,,,2024-12-10,清算の結了等,,,2024-06-03,1,,,,,ユニットエックス,0
1316,6100001027431,登記記録の閉鎖等,0,2024-12-26,2024-12-18,株式会社オフィス加納,,株式会社,長野県,上田市,上野１９３６番地５,,20,203,3860003,,,2024-12-18,清算の結了等,,,2015-10-05,1,,,,,オフィスカノウ,0
1335,6120002050050,登記記録の閉鎖等,0,2024-12-26,2024-12-25,有限会社心優工業,,有限会社,大阪府,大阪市西区,西本町２丁目１番２２号,,27,106,5500005,,,2024-12-25,清算の結了等,,,2015-10-05,1,,,,,シンユウコウギョウ,0
1336,6120003022180,登記記録の閉鎖等,0,2024-12-26,2024-12-17,合同会社Ｏａ　ｏａ,,合同会社,大阪府,大阪市北区,梅田１丁目１－３大阪駅前第３ビル２９階１－１－１,,27,127,5300001,,,2024-12-17,清算の結了等,,,2022-08-01,1,,,,,オアオア,0
1343,6120901030227,登記記録の閉鎖等,0,2024-12-26,2024-12-16,株式会社ワイエス企画,,株式会社,大阪府,豊中市,服部南町５丁目１番８号,,27,203,5610853,,,2024-12-16,清算の結了等,,,2015-10-05,1,,,,,ワイエスキカク,0
1363,6180001075035,登記記録の閉鎖等,0,2024-12-26,2024-12-20,株式会社ミズナミ,,株式会社,愛知県,春日井市,知多町１丁目４７番地,,23,206,4860947,,,2024-12-20,清算の結了等,,,2015-10-05,1,,,,,ミズナミ,0
1365,6180001134179,登記記録の閉鎖等,0,2024-12-26,2024-12-20,株式会社ロックフィールド,,株式会社,愛知県,岩倉市,旭町１丁目２５番地,,23,228,4820024,,,2024-12-20,清算の結了等,,,2018-10-23,1,,,,,ロックフィールド,0
1368,6180003010485,登記記録の閉鎖等,0,2024-12-26,2024-12-20,合資会社伊錠製陶所,,合資会社,愛知県,瀬戸市,山手町１８４番地,,23,204,4890989,,,2024-12-20,清算の結了等,,,2015-10-05,1,,,,,イジョウセイトウショ,0
1372,6190002001014,登記記録の閉鎖等,0,2024-12-26,2024-12-25,有限会社津ふじたや,,有限会社,三重県,津市,久居野村町３７２番地１７,,24,201,5141113,,,2024-12-25,清算の結了等,,,2015-10-05,1,,,,,ツフジタヤ,0
1405,6310001009284,登記記録の閉鎖等,0,2024-12-26,2024-12-25,株式会社ＴＥＣ．Ｓ,,株式会社,長崎県,諫早市,多良見町木床１７３３番地１－２０２,,42,204,8590406,,,2024-12-25,清算の結了等,,,2015-10-05,1,,,,,テックス,0
1409,6340005004460,登記記録の閉鎖等,0,2024-12-26,2024-12-24,特定非営利活動法人かごしまライブカメラネットワーク,,その他の設立登記法人,鹿児島県,鹿児島市,清水町３１番８号,,46,201,8920802,,,2024-12-24,清算の結了等,,,2015-10-05,1,,,,,カゴシマライブカメラネットワーク,0
1423,6420002009396,登記記録の閉鎖等,0,2024-12-26,2024-12-23,有限会社大邦製作所,,有限会社,青森県,三戸郡南部町,大字杉沢字荒谷森６番地,,02,445,0390813,,,2024-12-23,清算の結了等,,,2015-10-05,1,,,,,オオクニセイサクショ,0
1424,6420002018059,登記記録の閉鎖等,0,2024-12-26,2024-12-19,有限会社竹内建業,,有限会社,青森県,上北郡おいらせ町,二川目３丁目７３番地８５,,02,412,0392201,,,2024-12-19,清算の結了等,,,2015-10-05,1,,,,,タケウチケンギョウ,0
1437,6480002015538,登記記録の閉鎖等,0,2024-12-26,2024-12-25,有限会社栄,,有限会社,徳島県,三好市,池田町マチ２１８６番地３,,36,208,7780002,,,2024-12-25,清算の結了等,,,2015-10-05,1,,,,,サカエ,0
1444,7010002038898,登記記録の閉鎖等,0,2024-12-26,2024-12-13,有限会社新開金物店,,有限会社,東京都,千代田区,神田司町２丁目１７番地１５シンカイビル,,13,101,1010048,,,2024-12-13,清算の結了等,,,2015-10-05,1,,,,,シンカイカナモノテン,0
1446,7010005023600,登記記録の閉鎖等,0,2024-12-26,2024-12-23,一般社団法人日本環境技術振興協会,,その他の設立登記法人,東京都,中央区,日本橋小伝馬町１４番５号,,13,102,1030001,,,2024-12-23,清算の結了等,,,2015-10-05,1,,,,,ニホンカンキョウギジュツシンコウキョウカイ,0
1447,7010005034449,登記記録の閉鎖等,0,2024-12-26,2024-12-20,一般社団法人居心地研究所,,その他の設立登記法人,東京都,町田市,玉川学園７丁目１７番２４号,,13,209,1940041,,,2024-12-20,清算の結了等,,,2022-01-20,1,,,,,イゴコチケンキュウジョ,0
1465,7010901006492,登記記録の閉鎖等,0,2024-12-26,2024-12-20,株式会社セプト,,株式会社,東京都,世田谷区,下馬５丁目６番１号,,13,112,1540002,,,2024-12-20,清算の結了等,,,2015-10-05,1,,,,,セプト,0
1471,7011001107347,登記記録の閉鎖等,0,2024-12-26,2024-12-02,桑和海運株式会社,,株式会社,東京都,目黒区,原町２丁目２番９号,,13,110,1520011,,,2024-12-02,清算の結了等,,,2015-10-05,1,,,,,ソウワカイウン,0
1472,7011001108312,登記記録の閉鎖等,0,2024-12-26,2024-12-02,株式会社Ｂ－ダイニング,,株式会社,東京都,渋谷区,代官山町２０番９号,,13,113,1500034,,,2024-12-02,合併による解散等,1011001046633,令和６年１２月１日東京都渋谷区代官山町２０番９号株式会社ブロードエッジ・アドバイザーズ（1011001046633）に合併し解散,2015-11-24,1,,,,,ビーダイニング,0
1478,7011101076715,登記記録の閉鎖等,0,2024-12-26,2024-12-16,株式会社わたしは,,株式会社,東京都,新宿区,西新宿３丁目１５－５ライオンズマンション西新宿４２２号,,13,104,1600023,,,2024-12-16,清算の結了等,,,2016-04-19,1,,,,,ワタシハ,0
1481,7011602023190,登記記録の閉鎖等,0,2024-12-26,2024-12-17,有限会社クレーン,,有限会社,東京都,練馬区,練馬４丁目１８番１３号,,13,120,1760001,,,2024-12-17,清算の結了等,,,2015-10-05,1,,,,,クレーン,0
1485,7011801028965,登記記録の閉鎖等,0,2024-12-26,2024-12-19,株式会社クレアシスト,,株式会社,東京都,足立区,一ツ家１丁目２２番１０号,,13,121,1210075,,,2024-12-19,清算の結了等,,,2015-10-05,1,,,,,クレアシスト,0
1493,7020001014214,登記記録の閉鎖等,0,2024-12-26,2024-12-20,株式会社夢善,,株式会社,神奈川県,横浜市西区,北幸１丁目１１番１号水信ビル７階,,14,103,2200004,,,2024-12-20,合併による解散等,8021001002091,令和６年１２月１８日神奈川県藤沢市白旗二丁目１５番２号株式会社正夢（8021001002091）に合併し解散,2015-10-05,1,,,,,ユメゼン,0
1498,7020003004394,登記記録の閉鎖等,0,2024-12-26,2024-12-20,合資会社オブリガート,,合資会社,岡山県,岡山市北区,御津吉尾１４６番地,,33,101,7092122,,,2024-12-20,清算の結了等,,,2015-10-05,1,,,,,オブリガート,0
1508,7030001088793,登記記録の閉鎖等,0,2024-12-26,2024-12-24,Ｎａｎｏｍｅｔａｌ株式会社,,株式会社,埼玉県,大里郡寄居町,大字鉢形１７８番地１０,,11,408,3691224,,,2024-12-24,清算の結了等,,,2015-10-05,1,,,,,ナノメタル,0
1509,7030001090667,登記記録の閉鎖等,0,2024-12-26,2024-12-24,株式会社ウチダ,,株式会社,埼玉県,秩父市,東町１２番１５号,,11,207,3680042,,,2024-12-24,清算の結了等,,,2015-10-05,1,,,,,ウチダ,0
1510,7030001147335,登記記録の閉鎖等,0,2024-12-26,2024-12-23,株式会社Ｓ・Ｋ・アール,,株式会社,埼玉県,さいたま市大宮区,桜木町４丁目７２７－１０１,,11,103,3300854,,,2024-12-23,清算の結了等,,,2022-03-18,1,,,,,エスケーアール,0
1517,7040001024863,登記記録の閉鎖等,0,2024-12-26,2024-12-23,株式会社アカリネ,,株式会社,千葉県,千葉市中央区,弁天３丁目８番１９号,,12,101,2600045,,,2024-12-23,清算の結了等,,,2015-10-05,1,,,,,アカリネ,0
1520,7040001075205,登記記録の閉鎖等,0,2024-12-26,2024-12-23,株式会社ディーライントランスポート,,株式会社,千葉県,いすみ市,島１２０３番地２,,12,238,2980121,,,2024-12-23,清算の結了等,,,2015-10-05,1,,,,,ディーライントランスポート,0
1522,7040001084593,登記記録の閉鎖等,0,2024-12-26,2024-12-20,株式会社勇工業,,株式会社,埼玉県,蕨市,中央１丁目７番１号,,11,223,3350004,,,2024-12-20,清算の結了等,,,2015-10-05,1,,,,,ユウコウギョウ,0
1531,7040002041429,登記記録の閉鎖等,0,2024-12-26,2024-12-20,有限会社白翁堂,,有限会社,千葉県,浦安市,富岡３丁目３番Ｄ－１０１０号,,12,227,2790021,,,2024-12-20,清算の結了等,,,2015-10-05,1,,,,,ハクオウドウ,0
1537,7060002014218,登記記録の閉鎖等,0,2024-12-26,2024-12-23,有限会社ホージョー電子,,有限会社,栃木県,那須郡那珂川町,小川３４１５番地１４８,,09,411,3240501,,,2024-12-23,清算の結了等,,,2015-10-05,1,,,,,ホージョーデンシ,0
1550,7080402008164,登記記録の閉鎖等,0,2024-12-26,2024-12-24,有限会社ムラキ企画,,有限会社,静岡県,浜松市中央区,積志町５３１番地,,22,138,4313114,,,2024-12-24,清算の結了等,,,2015-10-05,1,,,,,ムラキキカク,0
1553,7100001034889,登記記録の閉鎖等,0,2024-12-26,2024-12-16,株式会社ＭＧホールディングス,,株式会社,長野県,安曇野市,穂高６０１番地１,,20,220,3998303,,,2024-12-16,合併による解散等,9100002023699,令和６年１２月１日長野県安曇野市穂高６０１番地１株式会社高橋芳策商店（9100002023699）に合併し解散,2021-12-16,1,,,,,エムジーホールディングス,0
1566,7120002066533,登記記録の閉鎖等,0,2024-12-26,2024-12-20,有限会社ＴＭＨ,,有限会社,大阪府,大阪市城東区,古市１丁目２３番４号ＴＭビル,,27,118,5360001,,,2024-12-20,清算の結了等,,,2015-10-05,1,,,,,ティーエムエイチ,0
1586,7180001052396,登記記録の閉鎖等,0,2024-12-26,2024-12-20,株式会社まるな食品,,株式会社,愛知県,西春日井郡豊山町,大字豊場字若宮２８番地,,23,342,4800202,,,2024-12-20,清算の結了等,,,2015-10-05,1,,,,,マルナショクヒン,0
1589,7180002020047,登記記録の閉鎖等,0,2024-12-26,2024-12-20,有限会社魚新商店,,有限会社,愛知県,名古屋市熱田区,川並町２番２２号,,23,109,4560072,,,2024-12-20,清算の結了等,,,2015-10-05,1,,,,,ウオシンショウテン,0
1594,7180005016273,登記記録の閉鎖等,0,2024-12-26,2024-12-16,特定非営利活動法人ウイメンズ・ボイス,,その他の設立登記法人,愛知県,名古屋市千種区,今池４丁目５番６号（パークホームズ今池ステーションプレミア２０１号）,,23,101,4640850,,,2024-12-16,清算の結了等,,,2015-10-05,1,,,,,ウイメンズボイス,0
1601,7200002015804,登記記録の閉鎖等,0,2024-12-26,2024-12-24,有限会社若山工務店,,有限会社,岐阜県,揖斐郡揖斐川町,谷汲名礼５６４番地の１,00076989,21,401,5011314,,,2024-12-24,清算の結了等,,,2015-10-05,1,,,,,ワカヤマコウムテン,0
1619,7280001006805,登記記録の閉鎖等,0,2024-12-26,2024-12-24,株式会社ＥＸＣＥＥＤ,,株式会社,島根県,出雲市,白枝町１１８２番地１,,32,203,6930006,,,2024-12-24,清算の結了等,,,2015-10-05,1,,,,,エクシード,0
1632,7310001005431,登記記録の閉鎖等,0,2024-12-26,2024-12-23,株式会社藤永,,株式会社,長崎県,佐世保市,日宇町２８３５番地,,42,202,8571151,,,2024-12-23,清算の結了等,,,2015-10-05,1,,,,,フジナガ,0
1635,7310005003670,登記記録の閉鎖等,0,2024-12-26,2024-12-13,農事組合法人五陽開拓牛生産組合,,その他の設立登記法人,長崎県,西海市,大瀬戸町雪浦幸物郷１番地４,,42,212,8572321,,,2024-12-13,清算の結了等,,,2015-10-05,1,,,,,ゴヨウカイタクウシセイサンクミアイ,0
1636,7320005009923,登記記録の閉鎖等,0,2024-12-26,2024-12-24,一般社団法人全幸会,,その他の設立登記法人,大分県,由布市,挾間町挾間６５７番地,,44,213,8795506,,,2024-12-24,清算の結了等,,,2021-10-01,1,,,,,ゼンコウカイ,0
1638,7350001013208,登記記録の閉鎖等,0,2024-12-26,2024-12-23,株式会社ハザウェイエフカンパニー,,株式会社,宮崎県,宮崎市,橘通東４丁目２番３１号,,45,201,8800805,,,2024-12-23,清算の結了等,,,2015-10-05,1,,,,,ハザウェイエフカンパニー,0
1641,7360003007025,登記記録の閉鎖等,0,2024-12-26,2024-12-24,合同会社山南,,合同会社,沖縄県,那覇市,辻２丁目２０番２６号,00101908,47,201,9000037,,,2024-12-24,清算の結了等,,,2015-10-05,1,,,,,サンナン,0
1647,7380001021471,登記記録の閉鎖等,0,2024-12-26,2024-12-16,スズキバッテリー株式会社,,株式会社,福島県,田村市,大越町上大越字曲田原８９番地,,07,211,9634111,,,2024-12-16,清算の結了等,,,2015-10-05,1,,,,,スズキバッテリー,0
1657,7430003003818,登記記録の閉鎖等,0,2024-12-26,2024-12-23,合同会社ハウスデイサービス,,合同会社,北海道,札幌市清田区,真栄一条２丁目１番２８号,,01,110,0040831,,,2024-12-23,清算の結了等,,,2015-10-05,1,,,,,ハウスデイサービス,0
1677,8010401027988,登記記録の閉鎖等,0,2024-12-26,2024-12-09,株式会社マスダビザ,,株式会社,東京都,港区,赤坂２丁目２０番１２号,,13,103,1070052,,,2024-12-09,清算の結了等,,,2015-10-05,1,,,,,マスダビザ,0
1692,8010602031566,登記記録の閉鎖等,0,2024-12-26,2024-12-23,有限会社Ｋ－ＬＩＮＥ,,有限会社,東京都,江東区,牡丹１丁目８番４号ピオニーキクチ６０１号室,,13,108,1350046,,,2024-12-23,清算の結了等,,,2015-10-05,1,,,,,ケイライン,0
1727,8020001023486,登記記録の閉鎖等,0,2024-12-26,2024-11-25,株式会社アスカリアルティ,,株式会社,神奈川県,横浜市青葉区,桂台１丁目１８番地１０,,14,117,2270034,,,2024-11-25,清算の結了等,,,2015-10-05,1,,,,,アスカリアルティ,0
1739,8030002044547,登記記録の閉鎖等,0,2024-12-26,2024-12-20,有限会社スギナミ,,有限会社,埼玉県,草加市,氷川町５１番地９,,11,221,3400034,,,2024-12-20,清算の結了等,,,2015-10-05,1,,,,,スギナミ,0
1743,8030003004194,登記記録の閉鎖等,0,2024-12-26,2024-12-23,合同会社Ｇ３Ｃｏｒｐｏｒａｔｉｏｎ,,合同会社,埼玉県,川口市,大字赤井１０６１番地ドミールＢ１０２号,,11,203,3340073,,,2024-12-23,清算の結了等,,,2015-10-05,1,,,,,ジーサンコーポレーション,0
1745,8030005002857,登記記録の閉鎖等,0,2024-12-26,2024-12-23,一般社団法人蓮田青年会議所,,その他の設立登記法人,埼玉県,蓮田市,東６丁目１番８号,,11,238,3490111,,,2024-12-23,清算の結了等,,,2015-10-05,1,,,,,ハスダセイネンカイギショ,0
1746,8030005021469,登記記録の閉鎖等,0,2024-12-26,2024-12-26,一般社団法人かおる,,その他の設立登記法人,埼玉県,狭山市,柏原２０２番地の１シャーメゾンあい２０１,,11,215,3501335,,,2024-12-26,清算の結了等,,,2023-11-13,1,,,,,カオル,0
1751,8040002022808,登記記録の閉鎖等,0,2024-12-26,2024-12-20,有限会社常増商事,,有限会社,千葉県,船橋市,習志野１丁目７番８号,,12,204,2740071,,,2024-12-20,清算の結了等,,,2015-10-05,1,,,,,ツネマスショウジ,0
1752,8040002041048,登記記録の閉鎖等,0,2024-12-26,2024-12-20,有限会社鈴木エステート,,有限会社,千葉県,浦安市,美浜３丁目２４番１０号,,12,227,2790011,,,2024-12-20,清算の結了等,,,2015-10-05,1,,,,,スズキエステート,0
1758,8060002007088,登記記録の閉鎖等,0,2024-12-26,2024-12-23,有限会社日本地研測量事務所,,有限会社,栃木県,宇都宮市,戸祭元町１０番１４号,,09,201,3200031,,,2024-12-23,清算の結了等,,,2015-10-05,1,,,,,ニホンチケンソクリョウジムショ,0
1759,8060002036054,登記記録の閉鎖等,0,2024-12-26,2024-12-20,有限会社小池経編染工所,,有限会社,栃木県,足利市,西宮町２８３３番地,,09,202,3260817,,,2024-12-20,清算の結了等,,,2015-10-05,1,,,,,コイケケイヘンセイコウショ,0
1761,8070001029751,登記記録の閉鎖等,0,2024-12-26,2024-12-25,株式会社山畜,,株式会社,群馬県,高崎市,上並榎町４７番地３,,10,202,3700801,,,2024-12-25,清算の結了等,,,2015-10-05,1,,,,,ヤマチク,0
1792,8120001027592,登記記録の閉鎖等,0,2024-12-26,2024-12-23,新泉株式会社,,株式会社,大阪府,大阪市大正区,三軒家東５丁目５番１６号,,27,108,5510002,,,2024-12-23,清算の結了等,,,2015-10-05,1,,,,,シンセン,0
1794,8120001068109,登記記録の閉鎖等,0,2024-12-26,2024-12-25,株式会社ドリル,,株式会社,大阪府,大阪市城東区,放出西３丁目１１－１大東マンション１階,,27,118,5360011,,,2024-12-25,清算の結了等,,,2015-10-05,1,,,,,ドリル,0
1804,8120101049330,登記記録の閉鎖等,0,2024-12-26,2024-12-25,株式会社泉南家具,,株式会社,大阪府,泉南市,男里１丁目９６番地,,27,228,5900526,,,2024-12-25,清算の結了等,,,2015-10-05,1,,,,,,0
1830,8180001112447,登記記録の閉鎖等,0,2024-12-26,2024-12-20,株式会社ＡＮＴＳ,,株式会社,愛知県,名古屋市港区,宝神５丁目７０１番地,,23,111,4550832,,,2024-12-20,清算の結了等,,,2015-10-05,1,,,,,アンツ,0
1836,8180002053095,登記記録の閉鎖等,0,2024-12-26,2024-12-13,有限会社海流,,有限会社,愛知県,名古屋市千種区,猫洞通２丁目６番地,,23,101,4640032,,,2024-12-13,清算の結了等,,,2015-10-05,1,,,,,カイリュウ,0
1837,8180002071015,登記記録の閉鎖等,0,2024-12-26,2024-12-20,有限会社ＴＩＩ,,有限会社,愛知県,小牧市,中央３丁目２１１番地,,23,219,4850029,,,2024-12-20,清算の結了等,,,2015-10-05,1,,,,,ティーアイアイ,0
1839,8180003000526,登記記録の閉鎖等,0,2024-12-26,2024-12-18,ヤス工業合資会社,,合資会社,愛知県,名古屋市千種区,萱場１丁目１０番４号,,23,101,4640086,,,2024-12-18,清算の結了等,,,2015-10-05,1,,,,,ヤスコウギョウ,0
1843,8220001012691,登記記録の閉鎖等,0,2024-12-26,2024-12-20,株式会社マンシング,,株式会社,石川県,能美市,粟生町ク５０番地,,17,211,9231101,,,2024-12-20,清算の結了等,,,2015-10-05,1,,,,,,0
1845,8240001029049,登記記録の閉鎖等,0,2024-12-26,2024-12-25,株式会社香龍,,株式会社,広島県,廿日市市,宮島口東１丁目１０番５３号,,34,213,7390414,,,2024-12-25,清算の結了等,,,2015-10-05,1,,,,,コウリュウ,0
1864,8310001004969,登記記録の閉鎖等,0,2024-12-26,2024-12-20,株式会社ＯＫＡＭＯＴＯ,,株式会社,長崎県,西彼杵郡長与町,吉無田郷２０３３－１０,,42,307,8512126,,,2024-12-20,清算の結了等,,,2015-10-05,1,,,,,オカモト,0
1868,8310002017012,登記記録の閉鎖等,0,2024-12-26,2024-12-20,有限会社内田建設,,有限会社,長崎県,大村市,富の原１丁目１３４５番地２,,42,205,8560806,,,2024-12-20,清算の結了等,,,2015-10-05,1,,,,,ウチダケンセツ,0
1870,8350005000341,登記記録の閉鎖等,0,2024-12-26,2024-12-23,宮崎県コンクリート構造物維持保全協同組合,,その他の設立登記法人,宮崎県,宮崎市,新栄町９７番地２,,45,201,8800831,,,2024-12-23,清算の結了等,,,2015-10-05,1,,,,,ミヤザキケンコンクリートコウゾウブツイジホゼン,0
1876,8370001022296,登記記録の閉鎖等,0,2024-12-26,2024-12-20,株式会社シルバーサポートまごころ,,株式会社,宮城県,名取市,美田園３丁目１番１,,04,207,9811217,,,2024-12-20,清算の結了等,,,2015-10-05,1,,,,,シルバーサポートマゴコロ,0
1885,8380001017923,登記記録の閉鎖等,0,2024-12-26,2024-12-16,株式会社山口商店,,株式会社,福島県,会津若松市,大町１丁目２番５３号,,07,202,9650042,,,2024-12-16,清算の結了等,,,2015-10-05,1,,,,,ヤマグチショウテン,0
1887,8380002014259,登記記録の閉鎖等,0,2024-12-26,2024-12-16,有限会社ユニオン観光,,有限会社,福島県,郡山市,大槻町字針生８番地の３七海貸家２－５号,,07,203,9630201,,,2024-12-16,清算の結了等,,,2015-10-05,1,,,,,,0
1896,8430002025432,登記記録の閉鎖等,0,2024-12-26,2024-12-25,有限会社丸信ツボタ,,有限会社,北海道,札幌市中央区,南十七条西１５丁目２番２５－３０２号,,01,101,0640917,,,2024-12-25,清算の結了等,,,2015-10-05,1,,,,,マルシンツボタ,0
1900,8470002015264,登記記録の閉鎖等,0,2024-12-26,2024-12-24,有限会社原下鈑金塗装,,有限会社,香川県,坂出市,府中町６０８６番地１７,,37,203,7620024,,,2024-12-24,清算の結了等,,,2015-10-05,1,,,,,ハラシタバンキントソウ,0
1908,9010001208376,登記記録の閉鎖等,0,2024-12-26,2024-12-24,株式会社キャンドルライト,,株式会社,鳥取県,倉吉市,上井２１３番地４あっぷる３０１,,31,203,6820021,,,2024-12-24,清算の結了等,,,2020-03-18,1,,,,,キャンドルライト,0
1922,9010402036649,登記記録の閉鎖等,0,2024-12-26,2024-12-20,有限会社広告農場,,有限会社,千葉県,船橋市,宮本９丁目１１番１－１１０４号,,12,204,2730003,,,2024-12-20,清算の結了等,,,2015-10-05,1,,,,,コウコクノウジョウ,0
1937,9010903006745,登記記録の閉鎖等,0,2024-12-26,2024-12-24,合同会社ダブルボランチ,,合同会社,東京都,世田谷区,弦巻５丁目３６－７－４０８,,13,112,1540016,,,2024-12-24,清算の結了等,,,2021-08-23,1,,,,,ダブルボランチ,0
1949,9011103012212,登記記録の閉鎖等,0,2024-12-26,2024-12-17,みずのえとら合同会社,,合同会社,東京都,新宿区,北山伏町１番２０号市ヶ谷北山伏町シティハウス１０２,,13,104,1620853,,,2024-12-17,清算の結了等,,,2022-10-03,1,,,,,ミズノエトラ,0
1953,9011501004744,登記記録の閉鎖等,0,2024-12-26,2024-12-20,八ツ田工業株式会社,,株式会社,東京都,北区,豊島８丁目１８番６号,,13,117,1140003,,,2024-12-20,清算の結了等,,,2015-10-05,1,,,,,ヤツダコウギョウ,0
1960,9011802019540,登記記録の閉鎖等,0,2024-12-26,2024-12-19,有限会社モデシューレ・ガルボ,,有限会社,東京都,足立区,島根３丁目３番３－６０７号,,13,121,1210815,,,2024-12-19,清算の結了等,,,2015-10-05,1,,,,,モデシューレガルボ,0
1961,9012301006377,登記記録の閉鎖等,0,2024-12-26,2024-12-23,株式会社高山工務店,,株式会社,東京都,町田市,野津田町１５９４番地３,,13,209,1950063,,,2024-12-23,清算の結了等,,,2015-10-05,1,,,,,タカヤマコウムテン,0
1974,9021002041708,登記記録の閉鎖等,0,2024-12-26,2024-12-25,有限会社ティアラ,,有限会社,神奈川県,大和市,つきみ野２丁目６番地の１７,,14,213,2420002,,,2024-12-25,清算の結了等,,,2015-10-05,1,,,,,ティアラ,0
1975,9021003001223,登記記録の閉鎖等,0,2024-12-26,2024-12-24,合資会社多摩川美粧院,,合資会社,神奈川県,相模原市中央区,淵野辺４丁目１番１２号,,14,152,2520206,,,2024-12-24,清算の結了等,,,2015-10-05,1,,,,,タマガワビショウイン,0
1979,9030001094229,登記記録の閉鎖等,0,2024-12-26,2024-12-24,株式会社サイトウエンジニアリング,,株式会社,埼玉県,鴻巣市,大間４丁目１番７号,,11,217,3650054,,,2024-12-24,清算の結了等,,,2015-10-05,1,,,,,サイトウエンジニアリング,0
1983,9030002061351,登記記録の閉鎖等,0,2024-12-26,2024-12-24,有限会社西條通信工業,,有限会社,埼玉県,新座市,池田４丁目２番１２号,,11,230,3520015,,,2024-12-24,清算の結了等,,,2015-10-05,1,,,,,サイジョウツウシンコウギョウ,0
1993,9040002044883,登記記録の閉鎖等,0,2024-12-26,2024-12-20,有限会社岡野ゴム,,有限会社,千葉県,松戸市,旭町１丁目１３７番地の４,,12,207,2710043,,,2024-12-20,清算の結了等,,,2015-10-05,1,,,,,オカノゴム,0
2002,9070001006345,登記記録の閉鎖等,0,2024-12-26,2024-12-25,株式会社えいぶる,,株式会社,群馬県,高崎市,正観寺町６８１番地７,,10,202,3700008,,,2024-12-25,清算の結了等,,,2015-10-05,1,,,,,エイブル,0
2016,9100001000492,登記記録の閉鎖等,0,2024-12-26,2024-12-24,株式会社大石,,株式会社,長野県,長野市,三輪５丁目１番２９号,,20,201,3800803,,,2024-12-24,清算の結了等,,,2015-10-05,1,,,,,オオイシ,0
2068,9160002000791,登記記録の閉鎖等,0,2024-12-26,2024-12-20,有限会社サンシヤイン,,有限会社,滋賀県,大津市,平津２丁目９番１２号,,25,201,5200862,,,2024-12-20,清算の結了等,,,2015-10-05,1,,,,,サンシヤイン,0
2077,9180001140604,登記記録の閉鎖等,0,2024-12-26,2024-12-18,株式会社ちゅうぶせつび,,株式会社,愛知県,一宮市,木曽川町玉ノ井字野方浦１９３番地,,23,203,4930004,,,2024-12-18,清算の結了等,,,2020-03-31,1,,,,,チュウブセツビ,0
2097,9190002011373,登記記録の閉鎖等,0,2024-12-26,2024-12-24,有限会社寿屋,,有限会社,三重県,志摩市,磯部町渡鹿野５１４番地１,,24,215,5170205,,,2024-12-24,清算の結了等,,,2015-10-05,1,,,,,コトブキヤ,0
2103,9230001010512,登記記録の閉鎖等,0,2024-12-26,2024-12-25,株式会社寺田白樺洞,,株式会社,富山県,高岡市,野村２３０番地５号,,16,202,9330014,,,2024-12-25,清算の結了等,,,2015-10-05,1,,,,,テラダシラカバドウ,0
2104,9240001008662,登記記録の閉鎖等,0,2024-12-26,2024-12-23,ニュー・ダイレクション株式会社,,株式会社,広島県,広島市西区,己斐本町１丁目１０番１号,,34,104,7330812,,,2024-12-23,清算の結了等,,,2015-10-05,1,,,,,,0
2106,9240002010122,登記記録の閉鎖等,0,2024-12-26,2024-12-23,有限会社田原商店,,有限会社,広島県,広島市中区,薬研堀８番１５号,,34,101,7300027,,,2024-12-23,清算の結了等,,,2015-10-05,1,,,,,タハラショウテン,0
2108,9240002032604,登記記録の閉鎖等,0,2024-12-26,2024-12-25,有限会社北川事務所,,有限会社,広島県,呉市,東辰川町１０番２７号,,34,202,7370801,,,2024-12-25,清算の結了等,,,2015-10-05,1,,,,,キタガワジムショ,0
2109,9240002034534,登記記録の閉鎖等,0,2024-12-26,2024-12-24,有限会社ワナカ,,有限会社,広島県,呉市,西中央３丁目６番９－８０３号,,34,202,7370811,,,2024-12-24,清算の結了等,,,2015-10-05,1,,,,,ワナカ,0
2122,9310002014636,登記記録の閉鎖等,0,2024-12-26,2024-12-23,有限会社秀英,,有限会社,長崎県,佐世保市,鹿町町深江潟１６０番地,,42,202,8596143,,,2024-12-23,清算の結了等,,,2015-10-05,1,,,,,シュウエイ,0
2126,9350001009897,登記記録の閉鎖等,0,2024-12-26,2024-12-23,三島飼料畜産株式会社,,株式会社,宮崎県,小林市,真方４３番地７,,45,205,8860007,,,2024-12-23,清算の結了等,,,2015-10-05,1,,,,,ミシマシリョウチクサン,0
2133,9390002002154,登記記録の閉鎖等,0,2024-12-26,2024-12-23,有限会社畑谷石權,,有限会社,山形県,山形市,西田５丁目２６番６６号,,06,201,9900831,,,2024-12-23,清算の結了等,,,2015-10-05,1,,,,,ハタヤイシゴン,0
2135,9420002011168,登記記録の閉鎖等,0,2024-12-26,2024-12-20,有限会社西北石油商会,,有限会社,青森県,五所川原市,大字太刀打字早蕨５２番地３,,02,205,0370091,,,2024-12-20,清算の結了等,,,2015-10-05,1,,,,,セイホクセキユショウカイ,0
2137,9430002011308,登記記録の閉鎖等,0,2024-12-26,2024-12-23,有限会社桑雄,,有限会社,北海道,千歳市,春日町３丁目２番１,,01,224,0660065,,,2024-12-23,清算の結了等,,,2015-10-05,1,,,,,ソウユウ,0
2138,9430002053093,登記記録の閉鎖等,0,2024-12-26,2024-12-24,有限会社丸高ソラチ薬品,,有限会社,北海道,赤平市,茂尻元町北３丁目４１番地,,01,218,0791268,,,2024-12-24,清算の結了等,,,2015-10-05,1,,,,,マルタカソラチヤクヒン,0
2141,9490002000445,登記記録の閉鎖等,0,2024-12-26,2024-12-19,有限会社石元米穀店,,有限会社,高知県,高知市,愛宕町１丁目９番１２号,,39,201,7800051,,,2024-12-19,清算の結了等,,,2015-10-05,1,,,,,イシモトベイコクテン,0
