sequenceNumber,corporateNumber,process,correct,updateDate,changeDate,name,nameImageId,kind,prefectureName,cityName,streetNumber,addressImageId,prefectureCode,cityCode,postCode,addressOutside,addressOutsideImageId,closeDate,closeCause,successorCorporateNumber,changeCause,assignmentDate,latest,enName,enPrefectureName,enCityName,enAddressOutside,furigana,hihyoji
15,1010001238356,新規,0,2023-09-11,2023-09-11,株式会社ＲＩＳＥ　ＮＯＶＡ,,株式会社,東京都,中央区,日本橋室町１丁目１１－１２日本橋水野ビル７階,,13,102,1030022,,,,,,,2023-09-11,1,,,,,ライズノヴァ,0
16,1010001238389,新規,0,2023-09-11,2023-09-11,メトロライツ株式会社,,株式会社,東京都,文京区,湯島４丁目６－１１湯島ハイタウンＡ３０９,,13,105,1130034,,,,,,,2023-09-11,1,,,,,メトロライツ,0
17,1010001238397,新規,0,2023-09-11,2023-09-11,株式会社ＫＡＴＯコンサルティング,,株式会社,東京都,中央区,日本橋馬喰町１丁目３番１－２０１号,,13,102,1030002,,,,,,,2023-09-11,1,,,,,カトウコンサルティング,0
18,1010001238414,新規,0,2023-09-11,2023-09-11,株式会社ＰＪ商事,,株式会社,東京都,中央区,日本橋３丁目３番４号八重洲Ｎビル３階３号,,13,102,1030027,,,,,,,2023-09-11,1,,,,,ピージェーショウジ,0
21,1010003041642,新規,0,2023-09-11,2023-09-11,鈴の茶合同会社,,合同会社,東京都,文京区,白山１丁目１１－３,,13,105,1130001,,,,,,,2023-09-11,1,,,,,スズノチャ,0
22,1010005037242,新規,0,2023-09-11,2023-09-11,一般社団法人日本ベトナムＩＣＴ連携協会,,その他の設立登記法人,東京都,中央区,銀座１丁目１２番４号Ｎ＆ＥＢＬＤ．６Ｆ,,13,102,1040061,,,,,,,2023-09-11,1,,,,,ニホンベトナムアイシーティレンケイキョウカイ,0
32,1010401177022,新規,0,2023-09-11,2023-09-11,株式会社Ｍｉｉｔｏ,,株式会社,東京都,港区,麻布十番２丁目３番５号新麻布十番ビル５階,,13,103,1060045,,,,,,,2023-09-11,1,,,,,ミート,0
33,1010401177047,新規,0,2023-09-11,2023-09-11,ＢｒｉｇｈｔＫｉｄｓ株式会社,,株式会社,東京都,港区,北青山１丁目３番１号アールキューブ青山３階,,13,103,1070061,,,,,,,2023-09-11,1,,,,,ブライトキッズ,0
34,1010401177071,新規,0,2023-09-11,2023-09-11,ＴｈｉｎｋＡＩ　Ｃｏｎｓｏｒｔｉｕｍ株式会社,,株式会社,東京都,港区,赤坂９丁目７番１号ミッドタウンタワー７Ｆ,,13,103,1070052,,,,,,,2023-09-11,1,,,,,シンクエーアイコンソーシアム,0
35,1010401177096,新規,0,2023-09-11,2023-09-11,Ａｕｒｏｒａ　Ｅｎｅｒｇｙ　Ｒｅｓｅａｒｃｈ株式会社,,株式会社,東京都,港区,虎ノ門１丁目１０番５号,,13,103,1050001,,,,,,,2023-09-11,1,,,,,オーロラエナジーリサーチ,0
37,1010403030848,新規,0,2023-09-11,2023-09-11,Ｏｆｆｉｃｅほりごめ合同会社,,合同会社,東京都,港区,高輪２丁目１２－１３レジデンス高輪２０１号室,,13,103,1080074,,,,,,,2023-09-11,1,,,,,オフィスホリゴメ,0
38,1010403030922,新規,0,2023-09-11,2023-09-11,合同会社ヒカリノオフィス,,合同会社,東京都,港区,北青山１丁目３番１号アールキューブ青山３階,,13,103,1070061,,,,,,,2023-09-11,1,,,,,ヒカリノオフィス,0
43,1010701044806,新規,0,2023-09-11,2023-09-11,キャセイモアジャパン株式会社,,株式会社,東京都,品川区,西五反田２丁目１１番１５－６０３室,,13,109,1410031,,,,,,,2023-09-11,1,,,,,キャセイモアジャパン,0
45,1010801034319,新規,0,2023-09-11,2023-09-11,株式会社エイトオーダー・テクノロジー,,株式会社,東京都,大田区,南馬込６丁目４－２リエラ南馬込１０３号室,,13,111,1430025,,,,,,,2023-09-11,1,,,,,エイトオーダーテクノロジー,0
46,1010903008443,新規,0,2023-09-11,2023-09-11,合同会社カーマプランニング,,合同会社,東京都,世田谷区,尾山台３丁目３４番５号フォレシティ尾山台２０１,,13,112,1580086,,,,,,,2023-09-11,1,,,,,カーマプランニング,0
51,1011001156944,新規,0,2023-09-11,2023-09-11,ＡＴＲＡＹ株式会社,,株式会社,東京都,渋谷区,宇田川町１９番５号山手マンション４０６,,13,113,1500042,,,,,,,2023-09-11,1,,,,,アトレイ,0
57,1011101104290,新規,0,2023-09-11,2023-09-11,株式会社ＫＡＧＵＷＡ,,株式会社,東京都,新宿区,西新宿３丁目３番１３号西新宿水間ビル２Ｆ,,13,104,1600023,,,,,,,2023-09-11,1,,,,,カグワ,0
58,1011101104308,新規,0,2023-09-11,2023-09-11,ＬＯＧＯＳＹ株式会社,,株式会社,東京都,新宿区,新宿６丁目１９番１９号,,13,104,1600022,,,,,,,2023-09-11,1,,,,,ロゴシィ,0
59,1011101104332,新規,0,2023-09-11,2023-09-11,宝帝株式会社,,株式会社,東京都,新宿区,西新宿７丁目５番９号ファーストリアルタワー新宿２８０６号,,13,104,1600023,,,,,,,2023-09-11,1,,,,,ホウテイ,0
60,1011103013457,新規,0,2023-09-11,2023-09-11,合同会社享,,合同会社,東京都,新宿区,舟町８番２号,,13,104,1600006,,,,,,,2023-09-11,1,,,,,タカ,0
62,1011301028991,新規,0,2023-09-11,2023-09-11,ウェルシード株式会社,,株式会社,東京都,杉並区,清水３丁目１９番６－１号,,13,115,1670033,,,,,,,2023-09-11,1,,,,,ウェルシード,0
63,1011303004900,新規,0,2023-09-11,2023-09-11,ｈａｔｃｈ　ｄｅｓｉｇｎ合同会社,,合同会社,東京都,杉並区,浜田山３丁目８番１５号プラウド浜田山三丁目１０２,,13,115,1680065,,,,,,,2023-09-11,1,,,,,ハッチデザイン,0
65,1011405002257,新規,0,2023-09-11,2023-09-11,一般社団法人Ｆｏｕｎｄｅｒｓ　Ａｌｌｉａｎｃｅ,,その他の設立登記法人,東京都,板橋区,成増５丁目９－３,,13,119,1750094,,,,,,,2023-09-11,1,,,,,ファウンダーズアライアンス,0
67,1011503005756,新規,0,2023-09-11,2023-09-11,オーラム・カストラム合同会社,,合同会社,東京都,荒川区,南千住１丁目８番１２号,,13,118,1160003,,,,,,,2023-09-11,1,,,,,オーラムカストラム,0
70,1011601027116,新規,0,2023-09-11,2023-09-11,株式会社ＡＳＴＹ,,株式会社,東京都,練馬区,豊玉中１丁目２９番８号,,13,120,1760013,,,,,,,2023-09-11,1,,,,,アスティ,0
71,1011801043020,新規,0,2023-09-11,2023-09-11,株式会社ＡＴＴＡ,,株式会社,東京都,足立区,西新井７丁目６番２－３０２号,,13,121,1230841,,,,,,,2023-09-11,1,,,,,アッタ,0
75,1013301051321,新規,0,2023-09-11,2023-09-11,株式会社星野国際,,株式会社,東京都,豊島区,東池袋２丁目６３－１東池袋パレス５０６号室,,13,116,1700013,,,,,,,2023-09-11,1,,,,,ホシノコクサイ,0
86,1020001153356,新規,0,2023-09-11,2023-09-11,ジェイ・アイ企画株式会社,,株式会社,神奈川県,横浜市青葉区,荏田町８０５番地,,14,117,2250013,,,,,,,2023-09-11,1,,,,,ジェイアイキカク,0
87,1020001153463,新規,0,2023-09-11,2023-09-11,株式会社鈴木ＬＧＳ,,株式会社,神奈川県,横浜市泉区,西が岡１丁目３番地１ロイヤルステージ山手台４０５号,,14,116,2450006,,,,,,,2023-09-11,1,,,,,スズキエルジーエス,0
88,1020001153496,新規,0,2023-09-11,2023-09-11,Ｖｉｔａ株式会社,,株式会社,神奈川県,横浜市中区,本牧間門２０番５号,,14,104,2310825,,,,,,,2023-09-11,1,,,,,ヴィータ,0
94,1020003024563,新規,0,2023-09-11,2023-09-11,合同会社ジユーモア,,合同会社,神奈川県,川崎市麻生区,片平４丁目３番４号テラス・フォーシーズン１０２,,14,137,2150023,,,,,,,2023-09-11,1,,,,,ジユーモア,0
98,1021001080128,新規,0,2023-09-11,2023-09-11,株式会社Ｍｉｎｄ’ｓＬｉｆｅ,,株式会社,神奈川県,横須賀市,長井１丁目１８番３７号,,14,201,2380316,,,,,,,2023-09-11,1,,,,,マインズライフ,0
99,1021001080144,新規,0,2023-09-11,2023-09-11,株式会社Ｅｎｇｌｉｓｈ　Ｓａｇｅ　Ｓｏｌｕｔｉｏｎｓ,,株式会社,神奈川県,相模原市南区,東林間７丁目１１－１５－２,,14,153,2520311,,,,,,,2023-09-11,1,,,,,イングリッシュセージソリューションズ,0
100,1021003013556,新規,0,2023-09-11,2023-09-11,合同会社ＮＯＭＡＤＩＣ　ＷＡＹ,,合同会社,神奈川県,平塚市,豊田本郷１１８３－１,,14,203,2540087,,,,,,,2023-09-11,1,,,,,ノマディックウェイ,0
108,1030001155847,新規,0,2023-09-11,2023-09-11,株式会社オルフェンズ,,株式会社,埼玉県,秩父市,日野田町２丁目１４番４号,,11,207,3680034,,,,,,,2023-09-11,1,,,,,オルフェンズ,0
109,1030001156093,新規,0,2023-09-11,2023-09-11,株式会社アークリ,,株式会社,埼玉県,比企郡川島町,大字中山１３４７番地１,,11,346,3500165,,,,,,,2023-09-11,1,,,,,アークリ,0
111,1030003022491,新規,0,2023-09-11,2023-09-11,博源合同会社,,合同会社,埼玉県,さいたま市桜区,桜田２丁目１６番２１－１０５号,,11,106,3380833,,,,,,,2023-09-11,1,,,,,ヒロモト,0
112,1030003022541,新規,0,2023-09-11,2023-09-11,合同会社シンカイ,,合同会社,埼玉県,所沢市,若松町７９９番地の５５,,11,208,3590032,,,,,,,2023-09-11,1,,,,,シンカイ,0
119,1040001129899,新規,0,2023-09-11,2023-09-11,株式会社サフィール,,株式会社,千葉県,千葉市稲毛区,稲毛町５丁目２７１番地１,,12,103,2630035,,,,,,,2023-09-11,1,,,,,サフィール,0
162,1120001257865,新規,0,2023-09-11,2023-09-11,株式会社Ａｌｌ　Ｍｉｇｈｔｙ　Ｌａｂ,,株式会社,大阪府,大阪市西成区,天下茶屋２丁目１７番１３号,,27,122,5570014,,,,,,,2023-09-11,1,,,,,オールマイティーラボ,0
163,1120001257898,新規,0,2023-09-11,2023-09-11,株式会社シロク,,株式会社,大阪府,大阪市東住吉区,北田辺４丁目３番１号,,27,121,5460044,,,,,,,2023-09-11,1,,,,,シロク,0
164,1120001257980,新規,0,2023-09-11,2023-09-11,翠海株式会社,,株式会社,大阪府,大阪市淀川区,西中島２丁目１２番８号ライオンズマンション新大阪第３－４０８号室,,27,123,5320011,,,,,,,2023-09-11,1,,,,,スイカイ,0
170,1120103005429,新規,0,2023-09-11,2023-09-11,合同会社河内緑産,,合同会社,大阪府,河内長野市,美加の台６丁目５番８号,,27,216,5860044,,,,,,,2023-09-11,1,,,,,カワチリョクサン,0
173,1120901048050,新規,0,2023-09-11,2023-09-11,株式会社ｂｅ　ｍｏｒｅ　ｐｌｕｓ,,株式会社,大阪府,吹田市,豊津町１番１８号エクラート江坂ビル３Ｆ,,27,205,5640051,,,,,,,2023-09-11,1,,,,,ビーモアプラス,0
177,1122001037355,新規,0,2023-09-11,2023-09-11,株式会社ライフ・ステイ,,株式会社,大阪府,八尾市,南木の本４丁目４８－１,,27,212,5810042,,,,,,,2023-09-11,1,,,,,ライフステイ,0
179,1122003002662,新規,0,2023-09-11,2023-09-11,合同会社Ｗｉｚａｒｄ,,合同会社,大阪府,東大阪市,今米１丁目１４番３０号,,27,227,5780903,,,,,,,2023-09-11,1,,,,,ウィザード,0
186,1130003008943,新規,0,2023-09-11,2023-09-11,京都ｃｕｉｓｉｎｅ合同会社,,合同会社,京都府,京都市左京区,下鴨東岸本町４番地,,26,103,6060854,,,,,,,2023-09-11,1,,,,,キョウトキュジーヌ,0
187,1130003008951,新規,0,2023-09-11,2023-09-11,合同会社Ｗｈｉｔｅ　Ｎｉｋｋａ,,合同会社,京都府,京都市中京区,海老屋町３１７,,26,104,6048076,,,,,,,2023-09-11,1,,,,,ホワイトニッカ,0
192,1140001131424,新規,0,2023-09-11,2023-09-11,酒井土地株式会社,,株式会社,兵庫県,洲本市,大野８５２番地,,28,205,6560055,,,,,,,2023-09-11,1,,,,,,0
193,1140001131564,新規,0,2023-09-11,2023-09-11,アップシェル株式会社,,株式会社,兵庫県,神戸市西区,伊川谷町潤和１５５８番地の１,,28,111,6512124,,,,,,,2023-09-11,1,,,,,,0
194,1140001131597,新規,0,2023-09-11,2023-09-11,ＩＬＹ株式会社,,株式会社,兵庫県,伊丹市,南野北４丁目１番２３－２号,,28,207,6640887,,,,,,,2023-09-11,1,,,,,アイリー,0
197,1140003019519,新規,0,2023-09-11,2023-09-11,合同会社山道,,合同会社,兵庫県,神戸市須磨区,天神町２丁目２番３９号,,28,107,6540053,,,,,,,2023-09-11,1,,,,,ヤマミチ,0
198,1140003019527,新規,0,2023-09-11,2023-09-11,合同会社ミナトスタジオ,,合同会社,兵庫県,神戸市中央区,浪花町５６起業プラザひょうご内,,28,110,6500035,,,,,,,2023-09-11,1,,,,,ミナトスタジオ,0
205,1160003002984,新規,0,2023-09-11,2023-09-11,合同会社スカイブルー,,合同会社,滋賀県,大津市,北小松４８５番地,,25,201,5200501,,,,,,,2023-09-11,1,,,,,スカイブルー,0
217,1180001158001,新規,0,2023-09-11,2023-09-11,株式会社ＫＭサービス,,株式会社,愛知県,一宮市,木曽川町外割田字天王西１１３番地,,23,203,4930007,,,,,,,2023-09-11,1,,,,,ケイエムサービス,0
223,1180003025728,新規,0,2023-09-11,2023-09-11,ＭＡＣ合同会社,,合同会社,愛知県,名古屋市中村区,名駅３丁目４番１０号アルティメイト名駅１ｓｔ２階,,23,105,4500002,,,,,,,2023-09-11,1,,,,,エムエーシー,0
231,1210001019439,新規,0,2023-09-11,2023-09-11,株式会社Ｗｉｔｈ,,株式会社,福井県,福井市,松本４丁目１７番２３号エスコート松本２０６,,18,201,9100003,,,,,,,2023-09-11,1,,,,,ウィズ,0
243,1240001062106,新規,0,2023-09-11,2023-09-11,株式会社スピカ,,株式会社,広島県,広島市安佐北区,落合２丁目２４番２４号,,34,106,7391731,,,,,,,2023-09-11,1,,,,,スピカ,0
247,1260001038302,新規,0,2023-09-11,2023-09-11,株式会社ＭＥＧＵＭＩ　Ｂｌｉｓｓ,,株式会社,岡山県,岡山市北区,表町３丁目１４番１号－１２０１,,33,101,7000822,,,,,,,2023-09-11,1,,,,,メグミブリス,0
249,1280001009037,新規,0,2023-09-11,2023-09-11,株式会社岡建築,,株式会社,島根県,出雲市,斐川町神庭１０７９番地５,,32,203,6990503,,,,,,,2023-09-11,1,,,,,オカケンチク,0
259,1290003014348,新規,0,2023-09-11,2023-09-11,合同会社Ａ．ＨＵＡＮＧ　Ｃｏｍｐａｎｙ,,合同会社,福岡県,福岡市中央区,天神３丁目１０番６号,,40,133,8100001,,,,,,,2023-09-11,1,,,,,エファンカンパニー,0
269,1340001025894,新規,0,2023-09-11,2023-09-11,株式会社Ｓｃａｒｌｅｔ,,株式会社,鹿児島県,鹿児島市,小原町３０番２０号,,46,201,8910111,,,,,,,2023-09-11,1,,,,,スカーレット,0
275,1360001032534,新規,0,2023-09-11,2023-09-11,株式会社てるや工業,,株式会社,沖縄県,うるま市,与那城饒辺７５番地,,47,213,9042307,,,,,,,2023-09-11,1,,,,,テルヤコウギョウ,0
277,1370001050386,新規,0,2023-09-11,2023-09-11,ケーエーエム株式会社,,株式会社,宮城県,岩沼市,恵み野３丁目１８－１０－２０２号,,04,211,9892429,,,,,,,2023-09-11,1,,,,,ケーエーエム,0
278,1370003006270,新規,0,2023-09-11,2023-09-11,合同会社ＷＯＯＤ　ＶＩＬＬＡＧＥ,,合同会社,宮城県,石巻市,三和町３番１５号,,04,202,9862111,,,,,,,2023-09-11,1,,,,,ウッドヴィレッジ,0
285,1380005012745,新規,0,2023-09-11,2023-09-11,一般社団法人コンコルディア,,その他の設立登記法人,福島県,田村郡小野町,大字塩庭字向永志田７７－２,,07,522,9633314,,,,,,,2023-09-11,1,,,,,コンコルディア,0
287,1390005009030,新規,0,2023-09-11,2023-09-11,一般社団法人こどもミライ保育社,,その他の設立登記法人,山形県,長井市,河井２７番地,,06,209,9930032,,,,,,,2023-09-11,1,,,,,コドモミライホイクシャ,0
288,1410003003841,新規,0,2023-09-11,2023-09-11,合同会社ＡＥマネジメント,,合同会社,秋田県,秋田市,旭川南町３番１８号,,05,201,0100834,,,,,,,2023-09-11,1,,,,,エーイーマネジメント,0
290,1420001018403,新規,0,2023-09-11,2023-09-11,サイキチ農園株式会社,,株式会社,青森県,西津軽郡鰺ヶ沢町,大字建石町字餅ノ沢１２番地４,00131859,02,321,0382702,,,,,,,2023-09-11,1,,,,,サイキチノウエン,0
296,1430003015397,新規,0,2023-09-11,2023-09-11,合同会社にゃんコロスキー,,合同会社,北海道,札幌市南区,川沿十三条１丁目３番１号,,01,106,0050813,,,,,,,2023-09-11,1,,,,,ニャンコロスキー,0
297,1460001005827,新規,0,2023-09-11,2023-09-11,ティープラスター株式会社,,株式会社,北海道,釧路市,鳥取北５丁目１６番１号,,01,206,0840907,,,,,,,2023-09-11,1,,,,,ティープラスター,0
303,1500001025184,新規,0,2023-09-11,2023-09-11,株式会社山久,,株式会社,愛媛県,四国中央市,川之江町１８９４番地１,,38,213,7990101,,,,,,,2023-09-11,1,,,,,ヤマヒサ,0
308,1700150116722,新規,0,2023-09-11,2023-09-11,ＯＮＥＸ　ＩＮＴＥＲＮＡＴＩＯＮＡＬ　ＬＩＭＩＴＥＤ,,外国会社等,,,,,,,,ＦＬＡＴ／ＲＭ　１２０５　１２／Ｆ　ＴＡＩ　ＳＡＮＧ　ＢＡＮＫ　ＢＵＩＬＤＩＮＧ　ＣＥＮＴＲＡＬ　１３０－１３２　ＤＥＳ　ＶＯＥＵＸ　ＲＯＡＤ,,,,,,2023-09-11,1,,,,,オネックスインターナショナルリミテッド,0
309,1700150120063,新規,0,2023-09-11,2023-09-11,ｓｈｅｎｚｈｅｎｓｈｉ　ｋｅｒｕｉｍｅｉ　ｇｕａｎｇｄｉａｎ　ｋｅｊｉ　ｙｏｕｘｉａｎ　ｇｏｎｇｓｉ,,外国会社等,,,,,,,,３／Ｆ，Ｂｕｉｌｄｉｎｇ　Ｇ，Ｗａｎｄａ　Ｉｎｄｕｓｔｒｉａｌ　Ｚｏｎｅ，Ｚｈｏｕｓｈｉ　Ｒｏａｄ，Ｓｈｉｙａｎ　Ｔｏｗｎ，Ｌａｎｇｘｉｎ　Ｃｏｍｍｕｎｉｔｙ，Ｂａｏａｎ　Ｄｉｓｔｒｉｃｔ，Ｓｈｅｎｚｈｅｎ,,,,,,2023-09-11,1,,,,,シェンジェンシーコールイメイグワンディエンコージーヨウシエンゴンスー,0
310,1700150120071,新規,0,2023-09-11,2023-09-11,Ｍｏｙｉ　Ｔｅｃｈｎｏｌｏｇｙ　Ｃｏ．，Ｌｔｄ．,,外国会社等,,,,,,,,Ｃｈｕａｎｇｙｅ　Ｓｔ．，Ｄｏｎｇｘｉｎ　Ｒｄ．，Ｄｏｎｇｈｕ　Ｎｅｗ　ＥＤＺ．２３６３，Ｒｍ．０１，１／Ｆ，Ｕｎｉｔ　１，Ｂｌｄｇ．１０，Ｇｕａｎｇｇｕ　Ｗｕｈａｎ　Ｈｕｂｅｉ　４３００００　ＣＮ,,,,,,2023-09-11,1,,,,,ウーハンモーイーコージーヨウシエンゴンスー,0
311,1700150120088,新規,0,2023-09-11,2023-09-11,Ｇｕａｎｇｚｈｏｕ　Ｚｈａｏ　Ｑｉａｎ　Ｓｕｎ　Ｌｉ　Ｉｎｔｅｌ－ｔｅｃｈ　ＣＯ．，Ｌｔｄ．,,外国会社等,,,,,,,,３００１　Ｒｏｏｍ　Ａ０３　Ｎｏ．２３５　Ｔｉａｎｈｅ　Ｎｏｒｔｈ　Ｒｏａｄ，Ｔｉａｎｈｅ　Ｄｉｓｔｒｉｃｔ　Ｇｕａｎｇｚｈｏｕ　Ｇｕａｎｇｄｏｎｇ　Ｃｈｉｎａ,,,,,,2023-09-11,1,,,,,コウシュウザオチェンソンリインタルテクカンパニーリミテッド,0
312,1700150120096,新規,0,2023-09-11,2023-09-11,Ｓｈｅｎ　Ｚｈｅｎ　Ｓｈｉ　Ｙａ　Ｃｈｅｎ　Ｄｉａｎ　Ｔｏｎｇ　Ｋｅ　Ｊｉ　Ｙｏｕ　Ｘｉａｎ　Ｇｏｎｇ　Ｓｉ,,外国会社等,,,,,,,,Ｂａｏ’ａｎ　ｑｕ，ｘｉｎ’ａｎ　ｊｉｅ　ｄａｏ，ｗｅｎ　ｈｕｉ　ｓｈｅ　ｑｕ　ｊｉａｎ’ａｎ　ｙｉ　ｌｕ，５１４　ｈａｏ，ｆｅｎｇ　ｓｈａｎｇ　ｓｈｉ　ｄａｉ，Ｄ６１６Ａ　ｓｈｅｎｚｈｅｎ　ｇｕａｎｇｄｏｎｇ　Ｃｈｉｎａ,,,,,,2023-09-11,1,,,,,シンセンシヤチェンデントンカギユウゲンコウシ,0
320,2010001238280,新規,0,2023-09-11,2023-09-11,株式会社ＬＵＣＩＡ,,株式会社,東京都,中央区,銀座８丁目６番８号銀座片桐ビルＩＶＢ１,00131858,13,102,1040061,,,,,,,2023-09-11,1,,,,,ルチア,0
321,2010001238355,新規,0,2023-09-11,2023-09-11,エヌビービーヘタフェリース株式会社,,株式会社,東京都,中央区,日本橋浜町３丁目３番２号,,13,102,1030007,,,,,,,2023-09-11,1,,,,,エヌビービーヘタフェリース,0
322,2010001238388,新規,0,2023-09-11,2023-09-11,株式会社イーグル会計事務所,,株式会社,東京都,千代田区,神田錦町２丁目７番地,,13,101,1010054,,,,,,,2023-09-11,1,,,,,イーグルカイケイジムショ,0
338,2010401176972,新規,0,2023-09-11,2023-09-11,株式会社グレース,,株式会社,東京都,港区,赤坂９丁目１－７・５階５９４号室,,13,103,1070052,,,,,,,2023-09-11,1,,,,,グレース,0
339,2010401177046,新規,0,2023-09-11,2023-09-11,株式会社アイランドコスメティックス,,株式会社,東京都,港区,北青山２丁目１０番２８号リヘイビル３Ｆ,,13,103,1070061,,,,,,,2023-09-11,1,,,,,アイランドコスメティックス,0
341,2010403030888,新規,0,2023-09-11,2023-09-11,合同会社ＴＡＩＫＯＭＯＣＨＩ,,合同会社,東京都,港区,白金台５丁目２番２５号白金ビル５０３,,13,103,1080071,,,,,,,2023-09-11,1,,,,,タイコモチ,0
343,2010405022504,新規,0,2023-09-11,2023-09-11,一般社団法人あかぼし,,その他の設立登記法人,東京都,港区,元赤坂１丁目１番７号,,13,103,1070051,,,,,,,2023-09-11,1,,,,,アカボシ,0
344,2010501051019,新規,0,2023-09-11,2023-09-11,株式会社Ｖｉｎｃｕｌｕｍ,,株式会社,東京都,台東区,下谷３丁目３－８－１４０２,,13,106,1100004,,,,,,,2023-09-11,1,,,,,ウィンクルム,0
348,2010703006860,新規,0,2023-09-11,2023-09-11,広尾食品合同会社,,合同会社,東京都,品川区,東五反田１丁目１８番６号第二ベネティクビルＢ１,,13,109,1410022,,,,,,,2023-09-11,1,,,,,ヒロオショクヒン,0
355,2010901053770,新規,0,2023-09-11,2023-09-11,株式会社ＰＬＡＮＥＴｃｏ．,,株式会社,東京都,世田谷区,用賀２丁目２８番１１－４０３号,,13,112,1580097,,,,,,,2023-09-11,1,,,,,プラネットコ,0
357,2010903008434,新規,0,2023-09-11,2023-09-11,合同会社パンダ,,合同会社,東京都,世田谷区,弦巻５丁目１番８－６１３号,,13,112,1540016,,,,,,,2023-09-11,1,,,,,パンダ,0
358,2010905004530,新規,0,2023-09-11,2023-09-11,医療法人社団古賀矯正歯科クリニック,,その他の設立登記法人,東京都,世田谷区,喜多見８丁目１５番２４号１階,,13,112,1570067,,,,,,,2023-09-11,1,,,,,コガキョウセイシカクリニック,0
360,2011001156902,新規,0,2023-09-11,2023-09-11,株式会社パーフェクトワン,,株式会社,東京都,渋谷区,幡ヶ谷２丁目７番１号,,13,113,1510072,,,,,,,2023-09-11,1,,,,,パーフェクトワン,0
369,2011103013448,新規,0,2023-09-11,2023-09-11,合同会社ＫＯＮＳ,,合同会社,東京都,新宿区,北新宿１丁目８番２４号－６０５号,,13,104,1690074,,,,,,,2023-09-11,1,,,,,コンズ,0
370,2011103013464,新規,0,2023-09-11,2023-09-11,Ｗｉｎｇｓ　ｏｆ　Ｗｏｍｅｎ合同会社,,合同会社,東京都,新宿区,西新宿３丁目３番１３号西新宿水間ビル２Ｆ,,13,104,1600023,,,,,,,2023-09-11,1,,,,,ウィングスオブウィメン,0
372,2011305002934,新規,0,2023-09-11,2023-09-11,医療法人社団徳明会,00131872,その他の設立登記法人,東京都,杉並区,阿佐谷南３丁目３５番８号パークハウス阿佐ヶ谷レジデンス１階３号室,,13,115,1660004,,,,,,,2023-09-11,1,,,,,トクメイカイ,0
377,2011401025418,新規,0,2023-09-11,2023-09-11,株式会社三賢国際,,株式会社,東京都,板橋区,板橋２丁目６４番１０号板橋新生ビル２０６号室,,13,119,1730004,,,,,,,2023-09-11,1,,,,,サンケンコクサイ,0
382,2011501029748,新規,0,2023-09-11,2023-09-11,健栄株式会社,,株式会社,東京都,北区,王子本町１丁目２２番１号ＫＳＧビル３０５,,13,117,1140022,,,,,,,2023-09-11,1,,,,,ケンエイ,0
383,2011501029756,新規,0,2023-09-11,2023-09-11,株式会社ファウンダーズキャピタル,,株式会社,東京都,荒川区,南千住４丁目７番３号,,13,118,1160003,,,,,,,2023-09-11,1,,,,,ファウンダーズキャピタル,0
385,2011601027115,新規,0,2023-09-11,2023-09-11,株式会社ケ・アンド・ケ,,株式会社,東京都,練馬区,立野町３５番１０号,,13,120,1770054,,,,,,,2023-09-11,1,,,,,ケアンドケ,0
388,2011603004054,新規,0,2023-09-11,2023-09-11,合同会社ａｎｏｔｈｅｒ,,合同会社,東京都,練馬区,石神井町４丁目２４番１９号,,13,120,1770041,,,,,,,2023-09-11,1,,,,,アナザー,0
397,2012403006166,新規,0,2023-09-11,2023-09-11,合同会社シオカワ,,合同会社,東京都,三鷹市,井の頭３丁目２４番１６号オルコット１１３,,13,204,1810001,,,,,,,2023-09-11,1,,,,,シオカワ,0
398,2013101009246,新規,0,2023-09-11,2023-09-11,株式会社八手,,株式会社,東京都,西多摩郡瑞穂町,むさし野２丁目６１－４－３０５,,13,303,1901214,,,,,,,2023-09-11,1,,,,,,0
403,2020001153438,新規,0,2023-09-11,2023-09-11,株式会社ＡＤＤＸ,,株式会社,神奈川県,川崎市麻生区,東百合丘１丁目２８番６号ＢｕｅｎａＶｉｓｔａ１０２,,14,137,2150012,,,,,,,2023-09-11,1,,,,,アドクロス,0
408,2020003024546,新規,0,2023-09-11,2023-09-11,合同会社セカンド・ステージ・ワーカーズ,,合同会社,神奈川県,川崎市多摩区,中野島４丁目１ー１ー４１１,,14,135,2140012,,,,,,,2023-09-11,1,,,,,セカンドステージワーカーズ,0
409,2020003024562,新規,0,2023-09-11,2023-09-11,ＥＧＳ合同会社,,合同会社,神奈川県,川崎市川崎区,大島５丁目１６番７－２０３号,,14,131,2100834,,,,,,,2023-09-11,1,,,,,イージーエス,0
410,2020005016112,新規,0,2023-09-11,2023-09-11,一般社団法人こどものインターンシップ,,その他の設立登記法人,神奈川県,横浜市都筑区,仲町台３丁目４－１,,14,118,2240041,,,,,,,2023-09-11,1,,,,,コドモノインターンシップ,0
412,2021001080127,新規,0,2023-09-11,2023-09-11,株式会社東洋,,株式会社,神奈川県,茅ヶ崎市,萩園２９２６番地４,,14,207,2530071,,,,,,,2023-09-11,1,,,,,トウヨウ,0
413,2021001080135,新規,0,2023-09-11,2023-09-11,株式会社ＡＩＳＩＳ,,株式会社,神奈川県,愛甲郡愛川町,春日台３丁目６番地の３０,,14,401,2430302,,,,,,,2023-09-11,1,,,,,アイシス,0
414,2021001080143,新規,0,2023-09-11,2023-09-11,株式会社近畿神奈川,,株式会社,神奈川県,鎌倉市,長谷１丁目１３番１５号,,14,204,2480016,,,,,,,2023-09-11,1,,,,,キンキカナガワ,0
416,2021003013547,新規,0,2023-09-11,2023-09-11,合同会社ＨＹＫコンサルティング,,合同会社,神奈川県,横須賀市,山科台２８－１,,14,201,2380312,,,,,,,2023-09-11,1,,,,,エイチワイケイコンサルティング,0
417,2021003013555,新規,0,2023-09-11,2023-09-11,合同会社ネプサス,,合同会社,神奈川県,相模原市中央区,南橋本１丁目１８番１５号,,14,152,2520253,,,,,,,2023-09-11,1,,,,,ネプサス,0
418,2021005012893,新規,0,2023-09-11,2023-09-11,一般社団法人ウエル・ビイング,,その他の設立登記法人,神奈川県,座間市,入谷東４丁目１５番１４号,,14,216,2520028,,,,,,,2023-09-11,1,,,,,ウエルビイング,0
425,2030001155788,新規,0,2023-09-11,2023-09-11,埼玉美協株式会社,,株式会社,埼玉県,上尾市,上町１丁目４番１号関東商工会館ビル３階,,11,219,3620037,,,,,,,2023-09-11,1,,,,,サイタマビキョウ,0
426,2030001155846,新規,0,2023-09-11,2023-09-11,ＧＩＮＴＥＴＳＵ不動産株式会社,,株式会社,埼玉県,戸田市,大字新曽１１８０番地（エレガンス松原２０２号室）,,11,224,3350021,,,,,,,2023-09-11,1,,,,,ギンテツフドウサン,0
439,2040001129980,新規,0,2023-09-11,2023-09-11,８ｐｏｄＳ株式会社,,株式会社,千葉県,船橋市,丸山５丁目３２,,12,204,2730048,,,,,,,2023-09-11,1,,,,,エイトポッズ,0
444,2050003007787,新規,0,2023-09-11,2023-09-11,合同会社シルバーライニング,,合同会社,茨城県,水戸市,元吉田町２７５－１９,,08,201,3100836,,,,,,,2023-09-11,1,,,,,シルバーライニング,0
445,2060001036325,新規,0,2023-09-11,2023-09-11,株式会社ＳｏｕｎｄＴｅｃ,,株式会社,栃木県,小山市,駅南町３丁目１４－２２,,09,208,3230822,,,,,,,2023-09-11,1,,,,,サウンドテック,0
460,2110003005157,新規,0,2023-09-11,2023-09-11,広目天合同会社,,合同会社,新潟県,新潟市中央区,紫竹１丁目２番７号,,15,103,9500864,,,,,,,2023-09-11,1,,,,,コウモクテン,0
470,2120001257823,新規,0,2023-09-11,2023-09-11,株式会社Ｃｏｒｅ,,株式会社,大阪府,大阪市北区,角田町１番１７号６Ｆ,,27,127,5300017,,,,,,,2023-09-11,1,,,,,コア,0
473,2120003024866,新規,0,2023-09-11,2023-09-11,エイムハイ・キャピタル合同会社,,合同会社,大阪府,大阪市城東区,永田４丁目５番１４－４０２号,,27,118,5360022,,,,,,,2023-09-11,1,,,,,エイムハイキャピタル,0
474,2120003024890,新規,0,2023-09-11,2023-09-11,合同会社アミュゼ,,合同会社,大阪府,枚方市,小倉町１３‐５,,27,210,5731173,,,,,,,2023-09-11,1,,,,,アミュゼ,0
475,2120003024899,新規,0,2023-09-11,2023-09-11,神田屋合名会社,,合名会社,大阪府,大阪市中央区,（大阪市東区安土町四丁目５５番地）,,27,128,5390000,,,,,,,2023-09-11,1,,,,,,0
476,2120005023874,新規,0,2023-09-11,2023-09-11,一般社団法人Ｒ・ＡＳＫ１２,,その他の設立登記法人,大阪府,大阪市中央区,南船場１丁目１３番２０号,,27,128,5420081,,,,,,,2023-09-11,1,,,,,アールエーエスケートゥエルブ,0
477,2120101068170,新規,0,2023-09-11,2023-09-11,髭電工株式会社,,株式会社,大阪府,和泉市,小田町２丁目４番３２号,,27,219,5940074,,,,,,,2023-09-11,1,,,,,ヒゲデンコウ,0
486,2122001037346,新規,0,2023-09-11,2023-09-11,株式会社ｓｔａｔｉｃｅ,,株式会社,大阪府,四條畷市,北出町１６番１０号,,27,229,5750043,,,,,,,2023-09-11,1,,,,,スターチス,0
487,2122001037354,新規,0,2023-09-11,2023-09-11,株式会社セブンバック,,株式会社,大阪府,東大阪市,俊徳町２丁目５番２１号,,27,227,5770831,,,,,,,2023-09-11,1,,,,,セブンバック,0
501,2140003019501,新規,0,2023-09-11,2023-09-11,ＨＩＧ　ＦＡＲＭ合同会社,,合同会社,兵庫県,姫路市,御国野町国分寺２６４番地１マハロ国分寺Ｇ号,,28,201,6710234,,,,,,,2023-09-11,1,,,,,ヒグファーム,0
502,2140003019526,新規,0,2023-09-11,2023-09-11,合同会社さらん,,合同会社,兵庫県,西宮市,北六甲台５丁目７番１号,,28,204,6511413,,,,,,,2023-09-11,1,,,,,サラン,0
507,2160003002983,新規,0,2023-09-11,2023-09-11,合同会社童夢,,合同会社,滋賀県,大津市,堅田１丁目８番２１－２０１号,,25,201,5200243,,,,,,,2023-09-11,1,,,,,ドウム,0
514,2180001157976,新規,0,2023-09-11,2023-09-11,株式会社ダオン,,株式会社,愛知県,名古屋市千種区,今池南２９番２４号,,23,101,4640851,,,,,,,2023-09-11,1,,,,,ダオン,0
522,2180003025727,新規,0,2023-09-11,2023-09-11,ＡＴＭ合同会社,,合同会社,愛知県,名古屋市中村区,名駅３丁目４番１０号アルティメイト名駅１ｓｔ２階,,23,105,4500002,,,,,,,2023-09-11,1,,,,,エーティーエム,0
524,2200001041707,新規,0,2023-09-11,2023-09-11,株式会社Ｓ,,株式会社,岐阜県,岐阜市,長良８９１番地２,,21,201,5020071,,,,,,,2023-09-11,1,,,,,エス,0
529,2250001020276,新規,0,2023-09-11,2023-09-11,株式会社エアー西日本,,株式会社,山口県,宇部市,大字川上４５番地７４,,35,202,7550084,,,,,,,2023-09-11,1,,,,,エアーニシニホン,0
532,2260001038301,新規,0,2023-09-11,2023-09-11,サンテル株式会社,,株式会社,岡山県,岡山市南区,藤田１８１１番地７,,33,104,7010221,,,,,,,2023-09-11,1,,,,,サンテル,0
535,2260003004425,新規,0,2023-09-11,2023-09-11,合同会社亀の楽園,,合同会社,岡山県,岡山市南区,山田１９７２,,33,104,7010202,,,,,,,2023-09-11,1,,,,,カメノラクエン,0
536,2280001009036,新規,0,2023-09-11,2023-09-11,株式会社光栄刺シュウ,,株式会社,島根県,雲南市,三刀屋町粟谷５８番地１,,32,209,6902513,,,,,,,2023-09-11,1,,,,,コウエイシシュウ,0
537,2280003001767,新規,0,2023-09-11,2023-09-11,Ｖｉｋａｓ合同会社,,合同会社,島根県,出雲市,西園町３７５０―３,,32,203,6930041,,,,,,,2023-09-11,1,,,,,ヴィカス,0
545,2290001102995,新規,0,2023-09-11,2023-09-11,株式会社ＪＩＮ不動産,,株式会社,福岡県,福岡市城南区,東油山１丁目１４番１１号,,40,136,8140155,,,,,,,2023-09-11,1,,,,,ジンフドウサン,0
551,2290801029868,新規,0,2023-09-11,2023-09-11,株式会社テラス,,株式会社,福岡県,京都郡苅田町,新津２丁目１３番２１号アークガーデンＢ号,,40,621,8000344,,,,,,,2023-09-11,1,,,,,テラス,0
557,2310005008708,新規,0,2023-09-11,2023-09-11,一般社団法人学術の森長崎,,その他の設立登記法人,長崎県,大村市,東本町４７２番地いろはビル２階,,42,205,8560831,,,,,,,2023-09-11,1,,,,,ガクジュツノモリナガサキ,0
558,2320001019996,新規,0,2023-09-11,2023-09-11,株式会社進栄,,株式会社,大分県,大分市,須賀２丁目７番２２号,,44,201,8700244,,,,,,,2023-09-11,1,,,,,シンエイ,0
559,2320003004170,新規,0,2023-09-11,2023-09-11,合同会社ＭＯＮＯＱＬＯ,,合同会社,大分県,別府市,大字北石垣１３１－９,,44,202,8740000,,,,,,,2023-09-11,1,,,,,モノクロ,0
560,2330001031232,新規,0,2023-09-11,2023-09-11,株式会社タカノ総合ａｌｕｍｉ,,株式会社,熊本県,八代市,宮地町１６４９番地１,,43,202,8660805,,,,,,,2023-09-11,1,,,,,タカノソウゴウアルミ,0
563,2340003004251,新規,0,2023-09-11,2023-09-11,合同会社ＳＴＥＰ,,合同会社,鹿児島県,薩摩川内市,中郷町４６２０－１バーディ２０１,,46,215,8950072,,,,,,,2023-09-11,1,,,,,ステップ,0
566,2360001032525,新規,0,2023-09-11,2023-09-11,オーシロ電気株式会社,,株式会社,沖縄県,糸満市,字照屋５９１番地,,47,210,9010315,,,,,,,2023-09-11,1,,,,,オーシロデンキ,0
567,2360001032533,新規,0,2023-09-11,2023-09-11,株式会社ライフサポートティーダオキナワ,,株式会社,沖縄県,うるま市,みどり町６丁目１６番１１号１Ｆ,,47,213,9042215,,,,,,,2023-09-11,1,,,,,ライフサポートティーダオキナワ,0
568,2360005006905,新規,0,2023-09-11,2023-09-11,一般社団法人琉球武術学院,,その他の設立登記法人,沖縄県,那覇市,泊１丁目２７番地１５,,47,201,9000012,,,,,,,2023-09-11,1,,,,,リュウキュウブジュツガクイン,0
570,2370001050385,新規,0,2023-09-11,2023-09-11,株式会社岸田工業,,株式会社,宮城県,塩竈市,杉の入２丁目２０番７号,,04,203,9850005,,,,,,,2023-09-11,1,,,,,キシダコウギョウ,0
571,2370001050393,新規,0,2023-09-11,2023-09-11,株式会社Ａｄｍａ建設,,株式会社,宮城県,仙台市太白区,長町１丁目１番１３号第三旭コーポラス４０１号,,04,104,9820011,,,,,,,2023-09-11,1,,,,,アドマケンセツ,0
579,2410001013593,新規,0,2023-09-11,2023-09-11,株式会社福助ファーマシー,,株式会社,秋田県,秋田市,川元開和町１番１号長谷部ビル１Ｆ,,05,201,0100932,,,,,,,2023-09-11,1,,,,,フクスケファーマシー,0
581,2430001089905,新規,0,2023-09-11,2023-09-11,ソウテック株式会社,,株式会社,北海道,室蘭市,宮の森町１丁目２番９号,,01,205,0500073,,,,,,,2023-09-11,1,,,,,ソウテック,0
583,2430003015396,新規,0,2023-09-11,2023-09-11,合同会社ＳＡＫＯ,,合同会社,北海道,札幌市中央区,南一条西１丁目３番地板谷ビル３Ｆ,,01,101,0600061,,,,,,,2023-09-11,1,,,,,サコウ,0
586,2440003001544,新規,0,2023-09-11,2023-09-11,合同会社エンジェルハート,,合同会社,北海道,函館市,西桔梗町７１６番地２５,,01,202,0410824,,,,,,,2023-09-11,1,,,,,,0
588,2460301005170,新規,0,2023-09-11,2023-09-11,株式会社トキワワーク,,株式会社,北海道,北見市,南仲町２丁目４番１６号,,01,208,0900812,,,,,,,2023-09-11,1,,,,,トキワワーク,0
589,2462501000967,新規,0,2023-09-11,2023-09-11,株式会社翔健,,株式会社,北海道,標津郡中標津町,東十二条南８丁目６番地,,01,692,0861012,,,,,,,2023-09-11,1,,,,,ショウケン,0
594,2480005006983,新規,0,2023-09-11,2023-09-11,一般社団法人みらいへつなげるプロジェクト,,その他の設立登記法人,徳島県,徳島市,雑賀町西開１番地の４,,36,201,7708021,,,,,,,2023-09-11,1,,,,,ミライヘツナゲルプロジェクト,0
595,2500001025183,新規,0,2023-09-11,2023-09-11,株式会社ベレストワークス,,株式会社,愛媛県,新居浜市,高津町９番１５号,,38,205,7920867,,,,,,,2023-09-11,1,,,,,ベレストワークス,0
597,2700150119204,新規,0,2023-09-11,2023-09-11,Ｚｈａｎｇｚｈｏｕ　ＳＥＥＴＥＣ　Ｏｐｔｏｅｌｅｃｔｒｏｎｉｃｓ　Ｔｅｃｈｎｏｌｏｇｙ　Ｃｏ，Ｌｔｄ,,外国会社等,,,,,,,,Ｘｉａｎｇｃｈｅｎｇ　ｒｅｇｉｏｎ，Ｚｈａｎｇｚｈｏｕ　ｃｉｔｙ，Ｆｕｊｉａｎ　Ｐｒｏｖｉｎｃｅ　ＮＯ．９Ａ　Ｊｉｎｆｅｎｇ　ｅｃｏｎｏｍｉｃ　ｄｅｖｅｌｏｐｍｅｎｔ　ａｒｅａ　Ｘｉａｎｇｃｈｅｎｇ　ｒｅｇｉｏｎ，Ｚｈａｎｇｚｈｏｕ　ｃｉｔｙ　Ｚｈａｎｇｚｈｏｕ　ｃｉｔｙ，Ｆｕｊｉａｎ　Ｐｒｏｖｉｎｃｅ　３６３０００　ＣＮ,,,,,,2023-09-11,1,,,,,ジャンジョンシシーテックオプトエレクトロニクステクノロジーカンパニーリミテッド,0
598,2700150120070,新規,0,2023-09-11,2023-09-11,ｓｈｅｎｚｈｅｎｓｈｉ　ｙｉｓｈｕｉｍｉａｎ　ｊｉａｊｕｙｏｕｘｉａｎｇｏｎｇｓｉ,,外国会社等,,,,,,,,Ｄ１３１０，Ｖａｎｋｅ　Ｔｉａｎｙｕ　Ｐｌａｚａ，Ｎｏ．７１８８　Ｌｏｎｇｘｉａｎｇ　Ａｖｅｎｕｅ　Ｊｉｘｉａｎｇ　Ｃｏｍｍｕｎｉｔｙ，Ｌｏｎｇｃｈｅｎｇ　Ｓｔｒｅｅｔ，Ｌｏｎｇｇａｎｇ　Ｄｉｓｔｒｉｃｔ　Ｓｈｅｎｚｈｅｎ　Ｇｕａｎｇｄｏｎｇ　５１８１７２　ＣＮ,,,,,,2023-09-11,1,,,,,シェンジェンシーイーシュイミエンジャージーヨウシエンゴンスー,0
599,2700150120079,新規,0,2023-09-11,2023-09-11,Ｗｅｉｆａｎｇ　Ｘｉｎｇｋａｉ　Ｓｈａｎｇｍａｏ　Ｙｏｕｘｉａｎ　Ｇｏｎｇｓｉ,,外国会社等,,,,,,,,１－１０１，Ｎｏ．２１　Ｂｕｉｌｄｉｎｇ，Ｎｏ．１９８　Ｍｉｎｓｈｅｎｇ　Ｅａｓｔ　Ｓｔｒｅｅｔ，Ｓｈｅｎｇｓｈｉ（ＰｈａｓｅＩＩＩ），Ｄｉ　Ｊｉｎｇｙｕａｎ,00131778,,,,,2023-09-11,1,,,,,ウェイファンシンカイシャンマオヨウシエンゴンスー,0
600,2700150120087,新規,0,2023-09-11,2023-09-11,ＳｈｅｎＺｈｅｎ　ｓｈｉ　ＯｕＢｅｉＹｉ　ＭａｏＹｉ　ＹｏｕＸｉａｎ　Ｇｏｎｇｓｉ,,外国会社等,,,,,,,,ｌｏｎｇｈｕａｑｕｌｏｎｇｈｕａｊｉｅｄａｏｓａｎｌｉａｎｓｈｅｑｕｆｕｑｕａｎｘｉｎｃｕｎｂｅｉｑｕ４２ｈａｏ８０２　ｓｈｅｎｚｈｅｎｓｈｉ　ｇｕａｎｇｄｏｎｇ,,,,,,2023-09-11,1,,,,,シンセンシオウバイイボウエキユウゲンコウシ,0
601,2700150120095,新規,0,2023-09-11,2023-09-11,Ｓｈｅｎｚｈｅｎ　Ｘｉｎｈｕｏ　Ｈｅｎｇｙｅ　Ｔｅｃｈｎｏｌｏｇｙ　Ｃｏ．，Ｌｔｄ．,,外国会社等,,,,,,,,Ｎｏ．１０　Ｚｈｏｎｇｘｉｎｇ　Ｒｏａｄ，Ｎｏ．１　Ｆａｃｔｏｒｙ　Ｂ　４０１－３，Ｓｈｅｎｚｈｅｎ，Ｌｏｎｇｇａｎｇ　Ｄｉｓｔｒｉｃｔ，Ｇｕａｎｇｄｏｎｇ,,,,,,2023-09-11,1,,,,,シンセンシシンカコウギョウカギユウゲンコウシ,0
607,3010001238354,新規,0,2023-09-11,2023-09-11,エヌビービーアルメリアリース株式会社,,株式会社,東京都,中央区,日本橋浜町３丁目３番２号,,13,102,1030007,,,,,,,2023-09-11,1,,,,,エヌビービーアルメリアリース,0
608,3010001238387,新規,0,2023-09-11,2023-09-11,ゼロイチサポート株式会社,,株式会社,東京都,中央区,銀座１丁目１２－４,,13,102,1040061,,,,,,,2023-09-11,1,,,,,ゼロイチサポート,0
609,3010001238412,新規,0,2023-09-11,2023-09-11,ＴＡＳＫ　ＨＩＧＨ株式会社,,株式会社,東京都,千代田区,九段南２丁目６番６号,,13,101,1020074,,,,,,,2023-09-11,1,,,,,タスクハイ,0
614,3010005037257,新規,0,2023-09-11,2023-09-11,一般社団法人全国高齢者ケア研究会,,その他の設立登記法人,東京都,千代田区,九段北１丁目９番５号朝日九段マンション７０９,,13,101,1020073,,,,,,,2023-09-11,1,,,,,ゼンコクコウレイシャケアケンキュウカイ,0
618,3010401176872,新規,0,2023-09-11,2023-09-11,株式会社相生,,株式会社,東京都,港区,白金台５丁目２２番１１号ソフトタウン白金６０３号,,13,103,1080071,,,,,,,2023-09-11,1,,,,,ソウショウ,0
619,3010401176988,新規,0,2023-09-11,2023-09-11,株式会社ＦＩＴ　Ｓｔｙｌｅ,,株式会社,東京都,港区,南青山２丁目２番１５号ウィン青山９４２,,13,103,1070062,,,,,,,2023-09-11,1,,,,,フィットスタイル,0
620,3010401177004,新規,0,2023-09-11,2023-09-11,株式会社トウシナビ,,株式会社,東京都,港区,南青山２丁目２番１５号,,13,103,1070062,,,,,,,2023-09-11,1,,,,,トウシナビ,0
621,3010401177012,新規,0,2023-09-11,2023-09-11,株式会社南ぬ花,,株式会社,東京都,港区,芝３丁目３４番１号芝パークタワー１８０１,,13,103,1050014,,,,,,,2023-09-11,1,,,,,ミナミヌハナ,0
622,3010401177078,新規,0,2023-09-11,2023-09-11,株式会社アトウッド,,株式会社,東京都,港区,南青山３丁目１番３６号青山丸竹ビル６Ｆ,,13,103,1070062,,,,,,,2023-09-11,1,,,,,アトウッド,0
628,3010403030929,新規,0,2023-09-11,2023-09-11,合同会社サンライズ,,合同会社,東京都,港区,西新橋１丁目９－５酔心興栄ビル５０２号室,,13,103,1050003,,,,,,,2023-09-11,1,,,,,サンライズ,0
629,3010405022511,新規,0,2023-09-11,2023-09-11,一般財団法人総合統括未来支援機構財団,,その他の設立登記法人,東京都,港区,西麻布３丁目１－１８ＲＤ西麻布３Ｆ,,13,103,1060031,,,,,,,2023-09-11,1,,,,,ソウゴウトウカツミライシエンキコウザイダン,0
636,3010803004656,新規,0,2023-09-11,2023-09-11,合同会社Ｍｉｎｅ,,合同会社,東京都,大田区,仲六郷１丁目１５番１－１１６号,,13,111,1440055,,,,,,,2023-09-11,1,,,,,マイン,0
637,3010901053786,新規,0,2023-09-11,2023-09-11,株式会社Ｌｉｎｋ,,株式会社,東京都,世田谷区,喜多見４丁目１３番４号サンライズＡ２,,13,112,1570067,,,,,,,2023-09-11,1,,,,,リンク,0
638,3010901053794,新規,0,2023-09-11,2023-09-11,株式会社ＦＦＢ,,株式会社,東京都,世田谷区,上馬５丁目２６番１２号メイゾンアサヒ４０３,,13,112,1540011,,,,,,,2023-09-11,1,,,,,エフエフビー,0
643,3011001156892,新規,0,2023-09-11,2023-09-11,株式会社Ａｒｃａ,,株式会社,東京都,渋谷区,道玄坂１丁目１０番８号渋谷道玄坂東急ビル２Ｆ－Ｃ,,13,113,1500043,,,,,,,2023-09-11,1,,,,,アルカ,0
644,3011001156926,新規,0,2023-09-11,2023-09-11,ＩＯＲＩ株式会社,,株式会社,東京都,渋谷区,道玄坂１丁目１０番８号渋谷道玄坂東急ビル２Ｆ－Ｃ,,13,113,1500043,,,,,,,2023-09-11,1,,,,,イオリ,0
645,3011005010204,新規,0,2023-09-11,2023-09-11,一般社団法人東急グループ未来政策機構,,その他の設立登記法人,東京都,渋谷区,南平台町５番６号,,13,113,1500036,,,,,,,2023-09-11,1,,,,,トウキュウグループミライセイサクキコウ,0
650,3011101104289,新規,0,2023-09-11,2023-09-11,慶輝株式会社,,株式会社,東京都,新宿区,若葉１丁目１番地,,13,104,1600011,,,,,,,2023-09-11,1,,,,,ケイキ,0
654,3011103013447,新規,0,2023-09-11,2023-09-11,Ｍ’ｓＣｏｒｐｏｒａｔｉｏｎ合同会社,,合同会社,東京都,新宿区,歌舞伎町１丁目１番５号メリス歌舞伎町７０４,,13,104,1600021,,,,,,,2023-09-11,1,,,,,エムズコーポレーション,0
658,3011401025433,新規,0,2023-09-11,2023-09-11,株式会社ダイコー,,株式会社,東京都,板橋区,東山町１３－１２,,13,119,1740073,,,,,,,2023-09-11,1,,,,,ダイコー,0
659,3011401025441,新規,0,2023-09-11,2023-09-11,株式会社イタバシテクノ,,株式会社,東京都,板橋区,板橋１丁目４１番１１－１０１号サンライト小林,,13,119,1730004,,,,,,,2023-09-11,1,,,,,イタバシテクノ,0
663,3011601027122,新規,0,2023-09-11,2023-09-11,株式会社杉浦総合鑑定,,株式会社,東京都,練馬区,早宮１丁目８番１３号,,13,120,1790085,,,,,,,2023-09-11,1,,,,,スギウラソウゴウカンテイ,0
664,3011701026585,新規,0,2023-09-11,2023-09-11,ネクストイノベーション株式会社,,株式会社,東京都,江戸川区,東小松川２丁目３５番５パナシェドール７０５号,,13,123,1320033,,,,,,,2023-09-11,1,,,,,ネクストイノベーション,0
677,3020001153437,新規,0,2023-09-11,2023-09-11,フェニックスジャパン株式会社,,株式会社,神奈川県,横浜市中区,根岸町２丁目８５番地５ハートビートベース横濱根岸１０７号室,,14,104,2310836,,,,,,,2023-09-11,1,,,,,フェニックスジャパン,0
680,3021001080084,新規,0,2023-09-11,2023-09-11,Ｉｎｎｏｖａｔｉｖｅ　ｓｔｒａｔｅｇｉｅｓ株式会社,,株式会社,神奈川県,相模原市南区,南台３丁目１０－８,,14,153,2520314,,,,,,,2023-09-11,1,,,,,イノベイティブストラテジーズ,0
681,3021001080126,新規,0,2023-09-11,2023-09-11,株式会社よーこさんの手,,株式会社,神奈川県,横須賀市,荻野１１番２３‐３０６号,,14,201,2400102,,,,,,,2023-09-11,1,,,,,ヨーコサンノテ,0
682,3021001080142,新規,0,2023-09-11,2023-09-11,株式会社おなじみ,,株式会社,神奈川県,大和市,南林間１丁目８－１１パストラル小林５０６号室,,14,213,2420006,,,,,,,2023-09-11,1,,,,,オナジミ,0
684,3021003013546,新規,0,2023-09-11,2023-09-11,アリスジャパン合同会社,,合同会社,神奈川県,相模原市緑区,橋本６丁目２番２－１７０３号,,14,151,2520143,,,,,,,2023-09-11,1,,,,,アリスジャパン,0
693,3030001155671,新規,0,2023-09-11,2023-09-11,株式会社ＬＥＯＮ　ＤＤ,,株式会社,埼玉県,さいたま市岩槻区,本町４丁目９番９－２号,,11,110,3390057,,,,,,,2023-09-11,1,,,,,レオンディディ,0
694,3030001155804,新規,0,2023-09-11,2023-09-11,日昇株式会社,,株式会社,埼玉県,越谷市,大字下間久里１０８８番地,,11,222,3430045,,,,,,,2023-09-11,1,,,,,ニッショウ,0
695,3030003022449,新規,0,2023-09-11,2023-09-11,Ｆ＆Ｇ合同会社,,合同会社,埼玉県,川口市,大字道合４９０番地の６,,11,203,3330835,,,,,,,2023-09-11,1,,,,,エフアンドジー,0
709,3070001040853,新規,0,2023-09-11,2023-09-11,Ｔｏｙａｍａ　ＥＮＧ　Ｓｅｒｖｉｃｅ株式会社,,株式会社,群馬県,太田市,東矢島町１３０５番地４６,,10,205,3730816,,,,,,,2023-09-11,1,,,,,トヤマイーエヌジーサービス,0
732,3120001257847,新規,0,2023-09-11,2023-09-11,株式会社マルトク設備,,株式会社,大阪府,大阪市東成区,神路２丁目８番３３－９０６号,,27,115,5370003,,,,,,,2023-09-11,1,,,,,マルトクセツビ,0
733,3120001257970,新規,0,2023-09-11,2023-09-11,株式会社Ａｉｌｅ,,株式会社,大阪府,大阪市北区,天神橋６丁目５番２４号,,27,127,5300041,,,,,,,2023-09-11,1,,,,,エイル,0
734,3120001257979,新規,0,2023-09-11,2023-09-11,優住商事株式会社,,株式会社,大阪府,大阪市港区,市岡３丁目１３番９号藤原文化住宅１０１号室,,27,107,5520012,,,,,,,2023-09-11,1,,,,,ユウジュウショウジ,0
742,3120003024840,新規,0,2023-09-11,2023-09-11,合同会社書道篆刻研究昇峰文會,,合同会社,大阪府,大阪市大正区,千島２丁目４番１－６１１号,,27,108,5510003,,,,,,,2023-09-11,1,,,,,ショドウテンコクケンキュウショウホウブンカイ,0
744,3120005023873,新規,0,2023-09-11,2023-09-11,一般社団法人Ｒ・ＡＳＫ１１,,その他の設立登記法人,大阪府,大阪市中央区,南船場１丁目１３番２０号,,27,128,5420081,,,,,,,2023-09-11,1,,,,,アールエーエスケーイレブン,0
746,3120103005427,新規,0,2023-09-11,2023-09-11,合同会社ピーチ,,合同会社,大阪府,泉大津市,春日町９番１号ネオメゾン春日町２０３号,,27,206,5950061,,,,,,,2023-09-11,1,,,,,ピーチ,0
747,3120901048040,新規,0,2023-09-11,2023-09-11,株式会社ＡＧテック,,株式会社,大阪府,摂津市,鳥飼銘木町１７番５号,,27,224,5660063,,,,,,,2023-09-11,1,,,,,エージーテック,0
763,3130001075091,新規,0,2023-09-11,2023-09-11,株式会社ＭＩＹＡＫＯ,,株式会社,京都府,京都市南区,東九条西山町２３番地９,,26,107,6018046,,,,,,,2023-09-11,1,,,,,ミヤコ,0
764,3130001075117,新規,0,2023-09-11,2023-09-11,株式会社尾崎工務店,,株式会社,京都府,京都市南区,吉祥院東砂ノ町３９－１－２１３,,26,107,6018334,,,,,,,2023-09-11,1,,,,,オザキコウムテン,0
765,3130001075125,新規,0,2023-09-11,2023-09-11,株式会社Ｒａｉａｎ,,株式会社,京都府,長岡京市,馬場１丁目１３番ハイコーポ長岡京Ｃ棟４０８号,,26,209,6170828,,,,,,,2023-09-11,1,,,,,ライアン,0
774,3140001131546,新規,0,2023-09-11,2023-09-11,株式会社Ｌｅｉ　Ｂｏｕｑｕｅｔ,,株式会社,兵庫県,神戸市中央区,磯上通８丁目１番２９号カサベラビルＣ＆Ｍ４０３号室,,28,110,6510086,,,,,,,2023-09-11,1,,,,,レイブーケ,0
775,3140001131562,新規,0,2023-09-11,2023-09-11,株式会社ティーケイ,,株式会社,兵庫県,川西市,東畦野山手２丁目３番３０号,,28,217,6660114,,,,,,,2023-09-11,1,,,,,ティーケイ,0
785,3160003002982,新規,0,2023-09-11,2023-09-11,合同会社ジャンプ,,合同会社,滋賀県,大津市,本堅田５丁目５番７－１０３号,,25,201,5200242,,,,,,,2023-09-11,1,,,,,ジャンプ,0
793,3180001157991,新規,0,2023-09-11,2023-09-11,株式会社ハピネス,,株式会社,愛知県,一宮市,木曽川町門間字福塚前７４番地２,,23,203,4930002,,,,,,,2023-09-11,1,,,,,ハピネス,0
795,3180003025726,新規,0,2023-09-11,2023-09-11,合同会社藤宮,,合同会社,愛知県,名古屋市中村区,名駅３丁目４番１０号アルティメイト名駅１ｓｔ２階,,23,105,4500002,,,,,,,2023-09-11,1,,,,,フジミヤ,0
807,3220001025599,新規,0,2023-09-11,2023-09-11,株式会社ＳＡＫＵ,,株式会社,石川県,金沢市,芳斉２丁目１６‐２０プラザ信開芳斉２０１号室,,17,201,9200862,,,,,,,2023-09-11,1,,,,,サク,0
812,3240003006298,新規,0,2023-09-11,2023-09-11,家族資産ＣＭＣ合同会社,,合同会社,広島県,尾道市,向島町１５２４０番地１２８,,34,205,7220073,,,,,,,2023-09-11,1,,,,,カゾクシンサンシーエムシー,0
821,3280002010470,新規,0,2023-09-11,2023-09-11,有限会社石州館,,有限会社,島根県,鹿足郡津和野町,町田イ２２８番地,,32,501,6995611,,,,,,,2023-09-11,1,,,,,セキシュウカン,0
830,3290005019145,新規,0,2023-09-11,2023-09-11,一般社団法人農業・環境連携機構,,その他の設立登記法人,福岡県,糟屋郡須惠町,須恵４８１番地２,,40,344,8112100,,,,,,,2023-09-11,1,,,,,ノウギョウカンキョウレンケイキコウ,0
835,3310005008707,新規,0,2023-09-11,2023-09-11,一般社団法人家族の信託ながさき連絡協議会,,その他の設立登記法人,長崎県,長崎市,千歳町６－１１高島第３ビル３０１,,42,201,8528135,,,,,,,2023-09-11,1,,,,,カゾクノシンタクナガサキレンラクキョウギカイ,0
837,3330001031231,新規,0,2023-09-11,2023-09-11,株式会社Ｌｅｂｅｎ　Ｌａｂ,,株式会社,熊本県,熊本市西区,田崎１丁目７番２５－１号,,43,103,8600053,,,,,,,2023-09-11,1,,,,,レーベンラボ,0
849,3360001032532,新規,0,2023-09-11,2023-09-11,株式会社シンカ不動産,,株式会社,沖縄県,那覇市,寄宮３丁目１５番１０号,,47,201,9020064,,,,,,,2023-09-11,1,,,,,シンカフドウサン,0
850,3360003013282,新規,0,2023-09-11,2023-09-11,合同会社ＭＵ,,合同会社,沖縄県,うるま市,字赤道２５３ー５,,47,213,9042245,,,,,,,2023-09-11,1,,,,,ム,0
853,3370001050368,新規,0,2023-09-11,2023-09-11,株式会社カインドループ,,株式会社,宮城県,仙台市若林区,六丁の目中町７－７３エクセレント庄清１０２,,04,103,9840012,,,,,,,2023-09-11,1,,,,,カインドループ,0
854,3370005010681,新規,0,2023-09-11,2023-09-11,税理士法人ファーストグループ,,その他の設立登記法人,宮城県,仙台市青葉区,二日町６番２１号,,04,101,9800802,,,,,,,2023-09-11,1,,,,,ファーストグループ,0
864,3430003015412,新規,0,2023-09-11,2023-09-11,合同会社フードプランニング,,合同会社,北海道,札幌市清田区,北野六条１丁目１５－２４－１０１,,01,110,0040866,,,,,,,2023-09-11,1,,,,,フードプランニング,0
866,3440003001543,新規,0,2023-09-11,2023-09-11,合同会社ＲＩＺＥＷＯＲＫＳ８,,合同会社,北海道,亀田郡七飯町,字仁山２８１－１,,01,337,0411101,,,,,,,2023-09-11,1,,,,,ライズワークスエイト,0
867,3462501000966,新規,0,2023-09-11,2023-09-11,ｋｎｏｔ　ｃｏｌｌｅｃｔｉｏｎ株式会社,,株式会社,北海道,目梨郡羅臼町,栄町６３番地２１,,01,694,0861823,,,,,,,2023-09-11,1,,,,,ノットコレクション,0
873,3700150120078,新規,0,2023-09-11,2023-09-11,ｓｈｅｎｚｈｅｎｗｅｉｓｈｉｄｉａｎｘｕｎｙｏｕｘｉａｎｇｏｎｇｓｉ,,外国会社等,,,,,,,,ｎａｎｓｈａｎｑｕｙｕｅｈａｉｊｉｅｄａｏｓｈａｈｅｘｉｌｕｓｈｅｎｚｈｅｎｗａｎｋｅｊｉｓｈｅｎｇｔａｉｙｕａｎ９Ａｄｏｎｇ２３ｃｅｎｇ０６ｈａｏｆａｎｇｓｈｅｎｚｈｅｎｓｈｉ　ｇｕａｎｇｄｏｎｇｓｈｅｎｇ　５１８０００　ＣＮ,,,,,,2023-09-11,1,,,,,シェンジェンウェイシーディエンシンヨウシエンゴンスー,0
874,3700150120086,新規,0,2023-09-11,2023-09-11,ＹＩＷＵ　ＷＡＮＱＩ　Ｅ－Ｃｏｍｍｅｒｃｅ　Ｃｏ．，Ｌｔｄ,,外国会社等,,,,,,,,ｆｕｔｉａｎｊｉｅｄａｏｙｉｗｕｇｕｏｊｉｓｈａｎｇｍａｏｃｈｅｎｇｗｕｑｕｓｈｉｃｈａｎｇ　５Ｆ７０６５９ｓｈａｎｇｗｅｉ，Ｙｉｗｕ，Ｚｈｅｊｉａｎｇ，Ｃｈｉｎａ,,,,,,2023-09-11,1,,,,,イーウワンチイーコマースカンパニーリミテッド,0
875,3700150120094,新規,0,2023-09-11,2023-09-11,ｃｈａｎｇｓｈａｓｈｉｍｉｎｓｈｅｎｇｗａｎｇｄｉａｎｚｉｓｈａｎｇｗｕ　ｙｏｕｘｉａｎｇｏｎｇｓｉ,,外国会社等,,,,,,,,ｃｈａｎｇｓｈａｇａｏｘｉｎｋａｉｆａｑｕｌｕｆｅｎｇｌｕ６１ｈａｏｘｉａｎｇｌｕｇｕｏｊｉｈｕａｙｕａｎ　ｅｒｑｉ　ｊｉｕｄｉａｎ，ｇｏｎｇｙｕ３１２０ｆａｎｇ　Ｃｈｉｎａ,,,,,,2023-09-11,1,,,,,チョウサシミンセンワンデンシショウムユウゲンコウシ,0
876,3700150120103,新規,0,2023-09-11,2023-09-11,ＳｈｅｎＺｈｅｎＳｈｉＹｕｎＺｈｉＬａｎＤｉａｎＺｉＳｈａｎｇＷｕ　ＹｏｕＸｉａｎＧｏｎｇＳｉ,,外国会社等,,,,,,,,Ｍｅｉ　Ｌｉｎ　Ｊｉｅ　Ｄａｏ　Ｍｅｉ　Ｈｕａ　Ｌｕ　１０５ｈａｏ　Ｄｕｏ　Ｌｉ　Ｇｏｎｇ　Ｙｅ　Ｙｕａｎ　１ｄｏｎｇ　６ｌｏｕ　６２６ｓｈｉ　Ｓｈｅｎ　Ｚｈｅｎ　Ｓｈｉ　Ｆｕ　Ｔｉａｎ　Ｑｕ　Ｃｈｉｎａ,,,,,,2023-09-11,1,,,,,シンセンシユンジランデンシショウムユウゲンコウシ,0
886,4010001238353,新規,0,2023-09-11,2023-09-11,エヌビービーストックポートリース株式会社,,株式会社,東京都,中央区,日本橋浜町３丁目３番２号,,13,102,1030007,,,,,,,2023-09-11,1,,,,,エヌビービーストックポートリース,0
887,4010001238386,新規,0,2023-09-11,2023-09-11,株式会社Ａｂａａａ,,株式会社,東京都,中央区,銀座１丁目２２番１１号銀座大竹ビジデンス２,,13,102,1040061,,,,,,,2023-09-11,1,,,,,アバー,0
888,4010001238394,新規,0,2023-09-11,2023-09-11,株式会社アンカーマンアセットコンサルティング,,株式会社,東京都,千代田区,丸の内１丁目８番３号,,13,101,1000005,,,,,,,2023-09-11,1,,,,,アンカーマンアセットコンサルティング,0
889,4010001238403,新規,0,2023-09-11,2023-09-11,株式会社ＶＩＳＴＡ,,株式会社,東京都,文京区,春日２丁目１２番５号佐藤ビル１０１,,13,105,1120003,,,,,,,2023-09-11,1,,,,,ビスタ,0
890,4010001238436,新規,0,2023-09-11,2023-09-11,株式会社経理マネージャー・バンク,,株式会社,東京都,文京区,関口１丁目５－１０,,13,105,1120014,,,,,,,2023-09-11,1,,,,,ケイリマネージャーバンク,0
894,4010003041623,新規,0,2023-09-11,2023-09-11,合同会社Ｍａｒｉｎｃｏ,,合同会社,東京都,千代田区,二番町９番３号ＴＨＥＢＡＳＥ麹町,,13,101,1020084,,,,,,,2023-09-11,1,,,,,マリンコ,0
895,4010003041648,新規,0,2023-09-11,2023-09-11,合同会社住まいづくり相談所,,合同会社,東京都,中央区,日本橋室町１丁目１１番１２号日本橋水野ビル７階,,13,102,1030022,,,,,,,2023-09-11,1,,,,,スマイヅクリソウダンショ,0
896,4010005037256,新規,0,2023-09-11,2023-09-11,ＮＰＯ法人Ｃｏｃｏｒｏ‐Ｎｅ,,その他の設立登記法人,東京都,中央区,日本橋茅場町２丁目８番１号ＢＲＩＣＫＧＡＴＥ茅場町Ｂ１Ｆ,,13,102,1030025,,,,,,,2023-09-11,1,,,,,ココロネ,0
899,4010101015818,新規,0,2023-09-11,2023-09-11,株式会社ＮｏｖａＰｒｏｍｏｔｉｏｎ,,株式会社,東京都,八王子市,散田町４丁目４－１ブルーラック２０１,,13,201,1930832,,,,,,,2023-09-11,1,,,,,ノヴァプロモーション,0
904,4010401177077,新規,0,2023-09-11,2023-09-11,株式会社アッティーボＪＡＰＡＮ,,株式会社,東京都,港区,三田４丁目１９番２３号,,13,103,1080073,,,,,,,2023-09-11,1,,,,,アッティーボジャパン,0
905,4010401177119,新規,0,2023-09-11,2023-09-11,ＫＣＡＰＢＯ４株式会社,,株式会社,東京都,港区,南青山３丁目１０番４３号,,13,103,1070062,,,,,,,2023-09-11,1,,,,,ケーシーエーピービーオーフォー,0
906,4010403030886,新規,0,2023-09-11,2023-09-11,ビスポーク合同会社,,合同会社,東京都,港区,虎ノ門３丁目１４番１－２１０４号,,13,103,1050001,,,,,,,2023-09-11,1,,,,,ビスポーク,0
908,4010405022493,新規,0,2023-09-11,2023-09-11,一般社団法人Ｏｒｏｓｏ,,その他の設立登記法人,東京都,港区,虎ノ門５丁目１番４号,,13,103,1050001,,,,,,,2023-09-11,1,,,,,オロソ,0
920,4010703006859,新規,0,2023-09-11,2023-09-11,ＢＵＬＬＴＥＱ合同会社,,合同会社,東京都,品川区,東五反田５丁目２２－３３ＴＫ池田山ビル２Ｆ,,13,109,1410022,,,,,,,2023-09-11,1,,,,,ブルテック,0
928,4010901053711,新規,0,2023-09-11,2023-09-11,株式会社ｅａｒ　ｃａｒｅ,,株式会社,東京都,世田谷区,深沢２丁目１６番７号,,13,112,1580081,,,,,,,2023-09-11,1,,,,,イヤーケア,0
929,4010905004529,新規,0,2023-09-11,2023-09-11,一般社団法人デイリーストックアクション,,その他の設立登記法人,東京都,世田谷区,用賀３丁目１５番１１－２Ｆ,,13,112,1580097,,,,,,,2023-09-11,1,,,,,デイリーストックアクション,0
942,4011001156917,新規,0,2023-09-11,2023-09-11,株式会社花ｊｕｎ,,株式会社,東京都,渋谷区,道玄坂１丁目１０番８号渋谷道玄坂東急ビル２Ｆ－Ｃ,,13,113,1500043,,,,,,,2023-09-11,1,,,,,カジュン,0
943,4011001156941,新規,0,2023-09-11,2023-09-11,株式会社Ｂｏｗａｍｉ　ｎｏｉｘ,,株式会社,東京都,目黒区,碑文谷２丁目１６番１９号,,13,110,1520003,,,,,,,2023-09-11,1,,,,,ボナミノア,0
945,4011003017489,新規,0,2023-09-11,2023-09-11,合同会社ｔｅｒａｓｕ,,合同会社,東京都,渋谷区,渋谷２丁目１９－１５宮益坂ビルディング６０９,,13,113,1500002,,,,,,,2023-09-11,1,,,,,テラス,0
946,4011005010211,新規,0,2023-09-11,2023-09-11,医療法人社団賢叡会,,その他の設立登記法人,東京都,渋谷区,神宮前２丁目１８番１５号２階,,13,113,1500001,,,,,,,2023-09-11,1,,,,,ケンエイカイ,0
949,4011101104288,新規,0,2023-09-11,2023-09-11,株式会社シーアンドジェイプラス,,株式会社,東京都,新宿区,西新宿３丁目３番１３号西新宿水間ビル２Ｆ,,13,104,1600023,,,,,,,2023-09-11,1,,,,,シーアンドジェイプラス,0
950,4011101104305,新規,0,2023-09-11,2023-09-11,Ｑｕｉｃｋ　Ｓｔａｒｔ株式会社,,株式会社,東京都,新宿区,西新宿３丁目３番１３号西新宿水間ビル６階,,13,104,1600023,,,,,,,2023-09-11,1,,,,,クイックスタート,0
953,4011201024907,新規,0,2023-09-11,2023-09-11,株式会社中野リーガルホーム,,株式会社,東京都,中野区,本町２丁目４５番１３号山手ビル５階,,13,114,1640012,,,,,,,2023-09-11,1,,,,,ナカノリーガルホーム,0
956,4011501029746,新規,0,2023-09-11,2023-09-11,株式会社ＰＱＤプロパティ,,株式会社,東京都,北区,赤羽西１丁目３７番１号ホワイトシェル４Ｆ,,13,117,1150055,,,,,,,2023-09-11,1,,,,,ピーキューディープロパティ,0
959,4011601027121,新規,0,2023-09-11,2023-09-11,株式会社祥,,株式会社,東京都,練馬区,谷原６丁目２２－４,,13,120,1770032,,,,,,,2023-09-11,1,,,,,ショウ,0
961,4011701026584,新規,0,2023-09-11,2023-09-11,クロコス株式会社,,株式会社,東京都,江戸川区,北小岩６丁目４８番７号,,13,123,1330051,,,,,,,2023-09-11,1,,,,,クロコス,0
965,4011801043026,新規,0,2023-09-11,2023-09-11,株式会社ＲＡＺ　Ｃｏｍｐａｎｙ,,株式会社,東京都,足立区,千住３丁目６ツオード千住壱番館１００１号室,,13,121,1200034,,,,,,,2023-09-11,1,,,,,ラズカンパニー,0
967,4012401040982,新規,0,2023-09-11,2023-09-11,株式会社武蔵野ホールディングス,,株式会社,東京都,調布市,布田１丁目３２番地５マートルコート調布,,13,208,1820024,,,,,,,2023-09-11,1,,,,,ムサシノホールディングス,0
969,4012403006172,新規,0,2023-09-11,2023-09-11,合同会社ＭＡＲＫＥＬＯＯＰ,,合同会社,東京都,武蔵野市,中町３丁目１１‐２４‐２０６,,13,203,1800006,,,,,,,2023-09-11,1,,,,,マーケループ,0
973,4013301051302,新規,0,2023-09-11,2023-09-11,株式会社一順,,株式会社,東京都,豊島区,東池袋１丁目３３－４－１１０２,,13,116,1700013,,,,,,,2023-09-11,1,,,,,イチジュン,0
974,4020001153304,新規,0,2023-09-11,2023-09-11,株式会社ジョイント・ワークエンジニアリング,,株式会社,神奈川県,横浜市中区,桜木町１丁目１番７号ヒューリックみなとみらい１０階,,14,104,2310062,,,,,,,2023-09-11,1,,,,,ジョイントワークエンジニアリング,0
975,4020001153469,新規,0,2023-09-11,2023-09-11,株式会社齊藤工業,,株式会社,神奈川県,横浜市中区,千歳町１番地２横浜ＴＨビル６１３,,14,104,2310035,,,,,,,2023-09-11,1,,,,,サイトウコウギョウ,0
977,4020005016119,新規,0,2023-09-11,2023-09-11,ＮＰＯ法人敬愛慈威,,その他の設立登記法人,神奈川県,川崎市川崎区,南町７番地２１第２クリスタルビル２０３,,14,131,2100015,,,,,,,2023-09-11,1,,,,,ケイアイジイ,0
979,4021001080125,新規,0,2023-09-11,2023-09-11,株式会社スターコール,,株式会社,神奈川県,茅ヶ崎市,中海岸４丁目１番１８－３０２号,,14,207,2530055,,,,,,,2023-09-11,1,,,,,スターコール,0
980,4021001080133,新規,0,2023-09-11,2023-09-11,成光技装株式会社,,株式会社,神奈川県,高座郡寒川町,宮山３５０２番地４,,14,321,2530106,,,,,,,2023-09-11,1,,,,,セイコウギソウ,0
981,4021001080141,新規,0,2023-09-11,2023-09-11,株式会社ＨＡＲＵＳＡ,,株式会社,神奈川県,海老名市,下今泉１丁目２４－１５,,14,215,2430435,,,,,,,2023-09-11,1,,,,,ハルサ,0
983,4021003013545,新規,0,2023-09-11,2023-09-11,合同会社ＬＥＸＩＡ,,合同会社,神奈川県,藤沢市,藤が岡３丁目２４番７号,,14,205,2510004,,,,,,,2023-09-11,1,,,,,レクシア,0
984,4030001155729,新規,0,2023-09-11,2023-09-11,株式会社イノベスタ,,株式会社,埼玉県,さいたま市大宮区,桜木町１丁目３７８番地ＢＩＺｃｏｍｆｏｒｔ大宮西口６Ｆ－３３,,11,103,3300854,,,,,,,2023-09-11,1,,,,,イノベスタ,0
985,4030001155852,新規,0,2023-09-11,2023-09-11,株式会社ヤサイト,,株式会社,埼玉県,深谷市,櫛挽８４番地１,,11,218,3690212,,,,,,,2023-09-11,1,,,,,ヤサイト,0
987,4030003022456,新規,0,2023-09-11,2023-09-11,合同会社実舞桜,,合同会社,埼玉県,久喜市,上内１２７５番地２,,11,232,3400211,,,,,,,2023-09-11,1,,,,,ミマオウ,0
988,4030003022539,新規,0,2023-09-11,2023-09-11,ＭＳＫ東京合同会社,,合同会社,埼玉県,入間郡三芳町,大字藤久保７８７番地１－２２０号,,11,324,3540041,,,,,,,2023-09-11,1,,,,,エムエスケートウキョウ,0
996,4040001129995,新規,0,2023-09-11,2023-09-11,株式会社柏総合研究所,,株式会社,千葉県,柏市,若柴１７８番地４柏の葉キャンパス１４８街区２ショップ＆オフィス棟６Ｆ,,12,217,2770871,,,,,,,2023-09-11,1,,,,,カシワソウゴウケンキュウショ,0
998,4050001053427,新規,0,2023-09-11,2023-09-11,株式会社東弘自動車土浦,,株式会社,茨城県,土浦市,大畑１９５番地３４,,08,203,3004111,,,,,,,2023-09-11,1,,,,,トウコウジドウシャツチウラ,0
1002,4060001036323,新規,0,2023-09-11,2023-09-11,株式会社フラットマウンテン,,株式会社,栃木県,那須塩原市,西三島３丁目１８３番地２７６,,09,213,3292756,,,,,,,2023-09-11,1,,,,,フラットマウンテン,0
1022,4120001257846,新規,0,2023-09-11,2023-09-11,株式会社ヤマモトサービス,,株式会社,大阪府,守口市,京阪本通１丁目１－１１－３０１,,27,209,5700083,,,,,,,2023-09-11,1,,,,,ヤマモトサービス,0
1025,4120003024864,新規,0,2023-09-11,2023-09-11,合同会社Ｃｒａｗｌ　ｕｐ,,合同会社,大阪府,大阪市北区,梅田１丁目２番２号大阪駅前第２ビル１２－１２,,27,127,5300001,,,,,,,2023-09-11,1,,,,,クロールアップ,0
1029,4120103005426,新規,0,2023-09-11,2023-09-11,合同会社ネーブル,,合同会社,大阪府,泉大津市,春日町９番１号ネオメゾン春日町２０３号,,27,206,5950061,,,,,,,2023-09-11,1,,,,,ネーブル,0
1034,4120901048056,新規,0,2023-09-11,2023-09-11,株式会社ツジショー,,株式会社,大阪府,茨木市,舟木町７－１０ローレルコート茨木東館４０２,,27,211,5670828,,,,,,,2023-09-11,1,,,,,ツジショー,0
1036,4122001037352,新規,0,2023-09-11,2023-09-11,株式会社Ｆ・Ｋワーク,,株式会社,大阪府,四條畷市,大字清瀧５番地の１,,27,229,5750063,,,,,,,2023-09-11,1,,,,,エフケイワーク,0
1037,4122001037369,新規,0,2023-09-11,2023-09-11,株式会社中嶋,,株式会社,大阪府,八尾市,楽音寺４丁目９９番地ラ・メゾン・ペンギン２０１号室,,27,212,5810853,,,,,,,2023-09-11,1,,,,,ナカジマ,0
1045,4130003008957,新規,0,2023-09-11,2023-09-11,合同会社レソラン,,合同会社,京都府,京都市北区,紫竹西栗栖町２４番地３,,26,101,6038436,,,,,,,2023-09-11,1,,,,,レソラン,0
1062,4140001131462,新規,0,2023-09-11,2023-09-11,株式会社三木プランニング,,株式会社,兵庫県,姫路市,城北新町１丁目９番１２号,,28,201,6700883,,,,,,,2023-09-11,1,,,,,ミキプランニング,0
1065,4150001026703,新規,0,2023-09-11,2023-09-11,株式会社リバイブ,,株式会社,奈良県,天理市,柳本町２０２２番地,,29,204,6320052,,,,,,,2023-09-11,1,,,,,リバイブ,0
1066,4160001025332,新規,0,2023-09-11,2023-09-11,株式会社エンジョイント,,株式会社,滋賀県,守山市,守山４丁目１３番７号南喜ビル１０２号,,25,207,5240022,,,,,,,2023-09-11,1,,,,,エンジョイント,0
1081,4190001030734,新規,0,2023-09-11,2023-09-11,株式会社エムズ,,株式会社,三重県,四日市市,生桑町２２６番地１,,24,202,5120911,,,,,,,2023-09-11,1,,,,,エムズ,0
1085,4200003006078,新規,0,2023-09-11,2023-09-11,合同会社ＣＵＢＥ,,合同会社,岐阜県,海津市,南濃町志津新田４５５番地４,,21,221,5030402,,,,,,,2023-09-11,1,,,,,キューブ,0
1087,4210001019460,新規,0,2023-09-11,2023-09-11,Ｇ＆Ｔ株式会社,,株式会社,福井県,坂井市,丸岡町高柳第２０号１９番地５,,18,210,9100373,,,,,,,2023-09-11,1,,,,,ジーアンドティ,0
1092,4240005015643,新規,0,2023-09-11,2023-09-11,一般財団法人原田弘二育英記念財団,,その他の設立登記法人,広島県,廿日市市,福面２丁目８番１３号,,34,213,7390401,,,,,,,2023-09-11,1,,,,,ハラダコウジイクエイキネンザイダン,0
1100,4260001038308,新規,0,2023-09-11,2023-09-11,株式会社ＣＢＲ,,株式会社,岡山県,岡山市北区,南方３丁目７番２６号南方パークマンション５０４号,,33,101,7000807,,,,,,,2023-09-11,1,,,,,シービーアール,0
1103,4260003004423,新規,0,2023-09-11,2023-09-11,合同会社まね猫,,合同会社,岡山県,岡山市北区,問屋町９番地１０１タイルビル３階ｆａｂｂｉｔ岡山問屋町,,33,101,7000977,,,,,,,2023-09-11,1,,,,,マネネコ,0
1110,4290001102985,新規,0,2023-09-11,2023-09-11,株式会社ＷＩＳＥ‐ＯＮ,,株式会社,福岡県,福岡市中央区,天神４丁目６番２８号天神ファーストビル７階,,40,133,8100001,,,,,,,2023-09-11,1,,,,,ワイズオン,0
1113,4290003014345,新規,0,2023-09-11,2023-09-11,合同会社ＳＹＡ,,合同会社,福岡県,福岡市中央区,舞鶴３丁目６番１－３０５号,,40,133,8100073,,,,,,,2023-09-11,1,,,,,エスワイエー,0
1118,4290801029866,新規,0,2023-09-11,2023-09-11,株式会社ＥＭＳ　ＦＩＴ,,株式会社,福岡県,北九州市八幡西区,光貞台１丁目３番２８－１２０１号,,40,109,8070805,,,,,,,2023-09-11,1,,,,,イーエムエスフィット,0
1121,4320003004169,新規,0,2023-09-11,2023-09-11,合同会社システムトアール,,合同会社,大分県,大分市,三川上４丁目２番２２号,,44,201,8700143,,,,,,,2023-09-11,1,,,,,システムトアール,0
1130,4340005009651,新規,0,2023-09-11,2023-09-11,手々農事組合法人,,その他の設立登記法人,鹿児島県,大島郡徳之島町,手々１４９４番地,,46,530,8917421,,,,,,,2023-09-11,1,,,,,テテ,0
1134,4360001032531,新規,0,2023-09-11,2023-09-11,株式会社沖神,,株式会社,沖縄県,沖縄市,字登川２６９５番地１階５号室,,47,211,9042142,,,,,,,2023-09-11,1,,,,,オキシン,0
1135,4360003013265,新規,0,2023-09-11,2023-09-11,合同会社ＬＤＭ,,合同会社,沖縄県,中頭郡北谷町,北谷２丁目１９－４上健ビル１Ｆ,,47,326,9040116,,,,,,,2023-09-11,1,,,,,エルディーエム,0
1144,4380001033973,新規,0,2023-09-11,2023-09-11,株式会社Ｔ＆Ｍ,,株式会社,福島県,田村郡三春町,大字上舞木字明部作４番地１,,07,521,9637732,,,,,,,2023-09-11,1,,,,,ティーアンドエム,0
1145,4380001033981,新規,0,2023-09-11,2023-09-11,株式会社ラウカ,,株式会社,福島県,いわき市,小名浜君ケ塚町１番地１９,,07,204,9718168,,,,,,,2023-09-11,1,,,,,ラウカ,0
1156,4470001019807,新規,0,2023-09-11,2023-09-11,株式会社ＦＵＪＩ企画,,株式会社,香川県,綾歌郡宇多津町,大字東分１６３１番地１,,37,386,7690213,,,,,,,2023-09-11,1,,,,,フジキカク,0
1157,4480001012199,新規,0,2023-09-11,2023-09-11,株式会社Ｐａｒｉｓ,,株式会社,徳島県,徳島市,末広５丁目２番５３－１号,,36,201,7700866,,,,,,,2023-09-11,1,,,,,パリス,0
1163,4700150120069,新規,0,2023-09-11,2023-09-11,Ｓｈｅｎｚｈｅｎｓｈｉ　ｚｈｅｎａｉｙｉｓｈｅｎｇ　ｓｈｅｎｇｗｕｋｅｊｉｙｏｕｘｉａｎｇｏｎｇｓｉ,,外国会社等,,,,,,,,ｌｏｎｇｈｕａｑｕ　ｌｏｎｇｈｕａｊｉｅｄａｏ　ｓｏｎｇｈｅｓｈｅｑｕ　ｇｏｎｇｈｅｈｕａｙｕａｎ，Ｎｏ．１３０，ｕｎｉｔ　３，Ｒｏｏｍ　６０２　ｓｈｅｎｚｈｅｎｓｈｉ　ｇｕａｎｇｄｏｎｇ　５１８１０９　ＣＮ,,,,,,2023-09-11,1,,,,,シェンジェンシージェンアイイーションションウーコージーヨウシエンゴンスー,0
1164,4700150120077,新規,0,2023-09-11,2023-09-11,Ｊｉｕｊｉａｎｇｃｏｎｇｆａｄａｍａｏｙｉｙｏｕｘｉａｎｇｏｎｇｓｉ,,外国会社等,,,,,,,,ｊｉａｎｇｘｉｓｈｅｎｇ　ｊｉｕｊｉａｎｇｓｈｉ　ｌｉａｎｘｉｑｕ　ｗｕｌｉｊｉｅｄａｏｓｏｎｇｊｉａｐａｉｓｈｅｑｕｓｏｎｇｊｉａｐａｉｌｏｕｘｉａｏｑｕｅｒｑｉ１４ｄｏｎｇ７ｌｏｕ７０６,,,,,,2023-09-11,1,,,,,ジュージャンツォンファーダーマオイーヨウシエンゴンスー,0
1165,4700150120085,新規,0,2023-09-11,2023-09-11,ｘｉｎｎｉｎｇｘｉａｎｙｕｐｉｎｇｍａｏｙｉｙｏｕｘｉａｎｇｏｎｇｓｉ,,外国会社等,,,,,,,,ｈｕｎａｎｓｈｅｎｇｓｈａｏｙａｎｇｓｈｉｘｉｎｎｉｎｇｘｉａｎｊｉｎｓｈｉｚｈｅｎｇｕａｎｂａｏｃｕｎ２ｚｕ１６８ｈａｏ,,,,,,2023-09-11,1,,,,,シンネイケンギョクヘイボウエキユウゲンコウシ,0
1166,4700150120093,新規,0,2023-09-11,2023-09-11,Ｙｉｄｉｎｇｈａｏ（Ｓｈｅｎｚｈｅｎ）Ｔｅｃｈｎｏｌｏｇｙ　Ｃｏ．，Ｌｔｄ,,外国会社等,,,,,,,,Ｈｅｃｈｅｎｇ　Ｃｅｎｔｕｒｙ　３Ｂ　１４０４，Ｎｏ．１１８，Ｗｕｈｅ　Ａｖｅｎｕｅ，Ｗｕｈｅ　Ｃｏｍｍｕｎｉｔｙ，Ｂａｎｔｉａｎ　Ｓｔｒｅｅｔ，Ｌｏｎｇｇａｎ，Ｓｈｅｎｚｈｅｎ，Ｇｕａｎｇｄｏｎｇ,,,,,,2023-09-11,1,,,,,イチョウコウシンセンカギユウゲンコウシ,0
1167,4700150120102,新規,0,2023-09-11,2023-09-11,ｆｏｓｈａｎｓｈｉｆｕｑｉａｎｌｉｓｈａｎｇｍａｏｙｏｕｘｉａｎｚｅｒｅｎｇｏｎｇｓｉ,,外国会社等,,,,,,,,ｆｏｓｈａｎｓｈｉ　ｎａｎｈａｉｑｕ　ｇｕｉｃｈｅｎｇｊｉｅｄａｏ　ｇｕｉｌａｎｎａｎｌｕ１８ｈａｏ　ｗａｎｋｅｓｈａｎｇｈｕｉｄａｓｈａ１ｚｕｏ２５１４ｓｈｉｚｈｉｙｉ,,,,,,2023-09-11,1,,,,,ブツサンシフクセンリショウボウユウゲンセキニンコウシ,0
1178,5010001238352,新規,0,2023-09-11,2023-09-11,エヌビービーワトフォードリース株式会社,,株式会社,東京都,中央区,日本橋浜町３丁目３番２号,,13,102,1030007,,,,,,,2023-09-11,1,,,,,エヌビービーワトフォードリース,0
1180,5010003041630,新規,0,2023-09-11,2023-09-11,Ｔｅｅ　ＯＦＦ合同会社,,合同会社,東京都,中央区,銀座８丁目１２番８号ＰＭＯ銀座八丁目２Ｆ,,13,102,1040061,,,,,,,2023-09-11,1,,,,,ティーオフ,0
1181,5010003041639,新規,0,2023-09-11,2023-09-11,合同会社ＮｅｘｕｓＬｉｎｋ,,合同会社,東京都,中央区,銀座７丁目１３番６号サガミビル２階,,13,102,1040061,,,,,,,2023-09-11,1,,,,,ネクサスリンク,0
1183,5010005037239,新規,0,2023-09-11,2023-09-11,第一生命総合リート投資法人,,その他の設立登記法人,東京都,千代田区,有楽町１丁目１３番１号,,13,101,1000006,,,,,,,2023-09-11,1,,,,,ダイイチセイメイソウゴウリート,0
1184,5010005037255,新規,0,2023-09-11,2023-09-11,司法書士法人すずきた事務所,,その他の設立登記法人,東京都,千代田区,富士見１丁目４番１１号九段富士見ビル４階,,13,101,1020071,,,,,,,2023-09-11,1,,,,,スズキタジムショ,0
1194,5010401177027,新規,0,2023-09-11,2023-09-11,ＸＣＨＡＮＧＥロジスティクスジャパン株式会社,,株式会社,東京都,港区,港南２丁目１６番１号,,13,103,1080075,,,,,,,2023-09-11,1,,,,,エクスチェンジロジスティクスジャパン,0
1196,5010403030893,新規,0,2023-09-11,2023-09-11,合同会社Ｏｒｏｓｏ,,合同会社,東京都,港区,虎ノ門５丁目１番４号,,13,103,1050001,,,,,,,2023-09-11,1,,,,,オロソ,0
1197,5010403030910,新規,0,2023-09-11,2023-09-11,ＹＡＴ３合同会社,,合同会社,東京都,港区,元赤坂１丁目１番７－１００６号,,13,103,1070051,,,,,,,2023-09-11,1,,,,,ワイエーティースリー,0
1198,5010405022492,新規,0,2023-09-11,2023-09-11,一般社団法人Ｂａｌｌｙｍｏｓｓ,,その他の設立登記法人,東京都,港区,虎ノ門５丁目１番４号,,13,103,1050001,,,,,,,2023-09-11,1,,,,,バリーモス,0
1200,5010501051024,新規,0,2023-09-11,2023-09-11,文博貿易株式会社,,株式会社,東京都,台東区,浅草橋４丁目７－２－６０１号,,13,106,1110053,,,,,,,2023-09-11,1,,,,,ブンハクボウエキ,0
1202,5010503007156,新規,0,2023-09-11,2023-09-11,合同会社ＤＩＹ　ＬＡＢ,,合同会社,東京都,台東区,西浅草２丁目２４－１０コーポなつめ４０３号,,13,106,1110035,,,,,,,2023-09-11,1,,,,,ディアイワイラボ,0
1204,5010605004241,新規,0,2023-09-11,2023-09-11,医療法人社団相秀会,,その他の設立登記法人,東京都,江東区,大島３丁目１４番１７号江口ビル２階,,13,108,1360072,,,,,,,2023-09-11,1,,,,,アイシュウカイ,0
1209,5010901053784,新規,0,2023-09-11,2023-09-11,株式会社Ｅｓｐｏｉｒ,,株式会社,東京都,世田谷区,野沢４丁目２３番１２－６０４号,,13,112,1540003,,,,,,,2023-09-11,1,,,,,エスポワール,0
1216,5011001156809,新規,0,2023-09-11,2023-09-11,Ｋｕｈｌｅｎ株式会社,,株式会社,東京都,渋谷区,道玄坂１丁目１０番８号渋谷道玄坂東急ビル２Ｆ－Ｃ,,13,113,1500043,,,,,,,2023-09-11,1,,,,,クーレン,0
1217,5011001156825,新規,0,2023-09-11,2023-09-11,株式会社エコスター,,株式会社,東京都,渋谷区,富ヶ谷１丁目１４番１４号４階,,13,113,1510063,,,,,,,2023-09-11,1,,,,,エコスター,0
1218,5011003017488,新規,0,2023-09-11,2023-09-11,合同会社Ｉｋａｒｕｇａ,,合同会社,東京都,渋谷区,道玄坂１丁目１０番８号渋谷道玄坂東急ビル２Ｆ－Ｃ,,13,113,1500043,,,,,,,2023-09-11,1,,,,,イカルガ,0
1219,5011003017513,新規,0,2023-09-11,2023-09-11,バイライトハウス合同会社,,合同会社,東京都,渋谷区,神山町１６番６号,,13,113,1500047,,,,,,,2023-09-11,1,,,,,バイライトハウス,0
1228,5011101104279,新規,0,2023-09-11,2023-09-11,株式会社ｍｏｇａｎａ,,株式会社,東京都,新宿区,西新宿３丁目３番１３号西新宿水間ビル２Ｆ,,13,104,1600023,,,,,,,2023-09-11,1,,,,,モガナ,0
1230,5011305002931,新規,0,2023-09-11,2023-09-11,医療法人社団英康会,,その他の設立登記法人,東京都,杉並区,井草４丁目５番２号１階,,13,115,1670021,,,,,,,2023-09-11,1,,,,,エイコウカイ,0
1231,5011403004111,新規,0,2023-09-11,2023-09-11,合同会社遊輝,,合同会社,東京都,板橋区,熊野町７番４－８０４号,,13,119,1730025,,,,,,,2023-09-11,1,,,,,ユウキ,0
1232,5011501029753,新規,0,2023-09-11,2023-09-11,ベステート株式会社,,株式会社,東京都,北区,志茂５丁目２９番５号,,13,117,1150042,,,,,,,2023-09-11,1,,,,,ベステイト,0
1234,5011503005752,新規,0,2023-09-11,2023-09-11,合同会社味香美,,合同会社,東京都,北区,豊島４丁目１５番２８－６０３号,,13,117,1140003,,,,,,,2023-09-11,1,,,,,ミカミ,0
1235,5011503005760,新規,0,2023-09-11,2023-09-11,エクスボーダー合同会社,,合同会社,東京都,北区,滝野川６丁目５０番１１号,,13,117,1140023,,,,,,,2023-09-11,1,,,,,エクスボーダー,0
1236,5011505002574,新規,0,2023-09-11,2023-09-11,Ｎｏｒｄ福祉行政書士法人,,その他の設立登記法人,東京都,北区,赤羽１丁目１１－４アポー赤羽ビル４Ｆ０１７,,13,117,1150045,,,,,,,2023-09-11,1,,,,,ノールフクシ,0
1240,5011601027120,新規,0,2023-09-11,2023-09-11,株式会社ＭＷＯＬ,,株式会社,東京都,練馬区,関町南３丁目８番１７号フォレストメゾン関町伍２０５,,13,120,1770053,,,,,,,2023-09-11,1,,,,,メウォル,0
1241,5011701026583,新規,0,2023-09-11,2023-09-11,Ｓ・Ｕ・Ｈ株式会社,,株式会社,東京都,江戸川区,西瑞江４丁目２１番７号,,13,123,1340015,,,,,,,2023-09-11,1,,,,,エスユーエイチ,0
1244,5011801043017,新規,0,2023-09-11,2023-09-11,ＹＳ　ＴＯＫＹＯ株式会社,,株式会社,東京都,足立区,江北２丁目３４番１０号,,13,121,1230872,,,,,,,2023-09-11,1,,,,,ワイエストーキョー,0
1245,5011801043025,新規,0,2023-09-11,2023-09-11,株式会社合田建設,,株式会社,東京都,葛飾区,西亀有３丁目３５番４号,,13,122,1250002,,,,,,,2023-09-11,1,,,,,ゴウダケンセツ,0
1249,5012401040981,新規,0,2023-09-11,2023-09-11,株式会社ｍａｒ,,株式会社,東京都,府中市,浅間町４丁目９番地の１０,,13,206,1830001,,,,,,,2023-09-11,1,,,,,エムエーアール,0
1252,5013301051301,新規,0,2023-09-11,2023-09-11,悦寧株式会社,,株式会社,東京都,豊島区,東池袋３丁目１５－２－３１０,,13,116,1700013,,,,,,,2023-09-11,1,,,,,エツネイ,0
1259,5020001153443,新規,0,2023-09-11,2023-09-11,株式会社ストレート・ツリー,,株式会社,神奈川県,横浜市神奈川区,大口通７７番地４,,14,102,2210002,,,,,,,2023-09-11,1,,,,,ストレートツリー,0
1260,5020001153468,新規,0,2023-09-11,2023-09-11,トレシン株式会社,,株式会社,神奈川県,横浜市中区,尾上町３丁目３５番地横浜第一有楽ビル３Ｆ,,14,104,2310015,,,,,,,2023-09-11,1,,,,,トレシン,0
1262,5021001080116,新規,0,2023-09-11,2023-09-11,株式会社未来ベース,,株式会社,神奈川県,茅ヶ崎市,西久保１３１２番地１,,14,207,2530083,,,,,,,2023-09-11,1,,,,,ミライベース,0
1263,5021001080124,新規,0,2023-09-11,2023-09-11,株式会社ａｄｄ　ｍａｎｙ,,株式会社,神奈川県,海老名市,泉２丁目１４－１,,14,215,2430437,,,,,,,2023-09-11,1,,,,,アドメニー,0
1264,5021001080132,新規,0,2023-09-11,2023-09-11,ＨＡＹＡＳＨＩ　ＨＯＵＳＥ株式会社,,株式会社,神奈川県,茅ヶ崎市,柳島１丁目２番５７－１号,,14,207,2530064,,,,,,,2023-09-11,1,,,,,ハヤシハウス,0
1265,5021001080140,新規,0,2023-09-11,2023-09-11,株式会社エクティス,,株式会社,神奈川県,伊勢原市,上粕屋６９６番地の６,,14,214,2591141,,,,,,,2023-09-11,1,,,,,エクティス,0
1266,5021003013544,新規,0,2023-09-11,2023-09-11,Ｋ　ｐｒｏｊｅｃｔ合同会社,,合同会社,神奈川県,小田原市,飯泉１２３８番地,,14,206,2500863,,,,,,,2023-09-11,1,,,,,ケープロジェクト,0
1270,5030001155827,新規,0,2023-09-11,2023-09-11,株式会社イワオ,,株式会社,埼玉県,草加市,西町５４３番地４,,11,221,3400035,,,,,,,2023-09-11,1,,,,,イワオ,0
1273,5030003022422,新規,0,2023-09-11,2023-09-11,合同会社みずき,,合同会社,埼玉県,さいたま市緑区,東浦和２丁目１１番地７グリーンハイツ５・３０４号室,,11,109,3360926,,,,,,,2023-09-11,1,,,,,ミズキ,0
1274,5030003022439,新規,0,2023-09-11,2023-09-11,合同会社きくや,,合同会社,埼玉県,さいたま市浦和区,高砂３丁目７－３－２０３,,11,107,3300063,,,,,,,2023-09-11,1,,,,,キクヤ,0
1275,5030003022554,新規,0,2023-09-11,2023-09-11,Ｓｉｎ鑑定彩合同会社,,合同会社,埼玉県,上尾市,仲町２丁目１３番１５号２０９,,11,219,3620035,,,,,,,2023-09-11,1,,,,,シンカンテイサイ,0
1282,5040001129937,新規,0,2023-09-11,2023-09-11,ＮＧＣ株式会社,,株式会社,千葉県,八千代市,村上２６６５番地２,,12,221,2760028,,,,,,,2023-09-11,1,,,,,エヌジーシー,0
1290,5040003023254,新規,0,2023-09-11,2023-09-11,合同会社ｗｅａｌｔｈ,,合同会社,千葉県,松戸市,旭町２丁目５４４番地ネオリリー２０１号,,12,207,2710043,,,,,,,2023-09-11,1,,,,,ウェルス,0
1291,5040003023287,新規,0,2023-09-11,2023-09-11,合同会社トップ,,合同会社,千葉県,八街市,榎戸６８４番地５０ニッセキアパートメントＩＩＩ１０１,00131871,12,230,2891106,,,,,,,2023-09-11,1,,,,,トップ,0
1292,5040003023320,新規,0,2023-09-11,2023-09-11,ｄｒｉｐｂｉｒｄ合同会社,,合同会社,千葉県,印西市,草深２３１２番地１１,,12,231,2701337,,,,,,,2023-09-11,1,,,,,ドリップバード,0
1293,5040005022114,新規,0,2023-09-11,2023-09-11,特定非営利活動法人市川市にＪリーグクラブをつくる会,,その他の設立登記法人,千葉県,市川市,本行徳１８番１０－３０８号（コスモ市川妙典）,,12,203,2720103,,,,,,,2023-09-11,1,,,,,,0
1296,5050001053384,新規,0,2023-09-11,2023-09-11,株式会社仁栄建設,,株式会社,茨城県,小美玉市,上玉里２１－９７,,08,236,3113436,,,,,,,2023-09-11,1,,,,,,0
1297,5050001053392,新規,0,2023-09-11,2023-09-11,住マイル株式会社,,株式会社,茨城県,古河市,山田２５４番地,,08,204,3060114,,,,,,,2023-09-11,1,,,,,スマイル,0
1298,5050001053426,新規,0,2023-09-11,2023-09-11,株式会社志葉建装,,株式会社,茨城県,筑西市,藤ケ谷１０７６番地１９,,08,227,3080112,,,,,,,2023-09-11,1,,,,,シバケンソウ,0
1299,5050001053450,新規,0,2023-09-11,2023-09-11,株式会社ＲＫ,,株式会社,茨城県,龍ケ崎市,字光順田２９９７番５,,08,208,3010000,,,,,,,2023-09-11,1,,,,,アールケー,0
1302,5050003007784,新規,0,2023-09-11,2023-09-11,ユウキトレーディング合同会社,,合同会社,茨城県,結城市,大字田間１０１３番地１,,08,207,3070044,,,,,,,2023-09-11,1,,,,,ユウキトレーディング,0
1306,5080003003054,新規,0,2023-09-11,2023-09-11,合同会社ｒｔｅ,,合同会社,静岡県,静岡市葵区,両替町２丁目２番地の８,,22,101,4200032,,,,,,,2023-09-11,1,,,,,ルテ,0
1308,5080401016269,新規,0,2023-09-11,2023-09-11,株式会社東脇商店,,株式会社,静岡県,磐田市,福田２６７３番地,,22,211,4371203,,,,,,,2023-09-11,1,,,,,トウワキショウテン,0
1324,5120001257300,新規,0,2023-09-11,2023-09-11,峰鶯株式会社,,株式会社,大阪府,大阪市西成区,鶴見橋２丁目１－３２,,27,122,5570031,,,,,,,2023-09-11,1,,,,,ホウヨウ,0
1325,5120001257977,新規,0,2023-09-11,2023-09-11,株式会社かがやくあおぞら,,株式会社,大阪府,大阪市平野区,長吉出戸４丁目５番５０号,,27,126,5470011,,,,,,,2023-09-11,1,,,,,カガヤクアオゾラ,0
1326,5120001257985,新規,0,2023-09-11,2023-09-11,株式会社コンパーニョ,,株式会社,大阪府,大阪市北区,天神橋４丁目１－２３エクセレント天神橋１００２号室,,27,127,5300041,,,,,,,2023-09-11,1,,,,,コンパーニョ,0
1327,5120001257993,新規,0,2023-09-11,2023-09-11,あゆみ株式会社,,株式会社,大阪府,大阪市西成区,岸里１丁目２番１５号,,27,122,5570041,,,,,,,2023-09-11,1,,,,,アユミ,0
1328,5120003024888,新規,0,2023-09-11,2023-09-11,合同会社ホープオブアース,,合同会社,大阪府,大阪市都島区,内代町２丁目１４番２５号,,27,102,5340013,,,,,,,2023-09-11,1,,,,,ホープオブアース,0
1332,5120901048039,新規,0,2023-09-11,2023-09-11,株式会社エヌプラス,,株式会社,大阪府,吹田市,藤白台１丁目１番６－２０５号,,27,205,5650873,,,,,,,2023-09-11,1,,,,,エヌプラス,0
1333,5120901048047,新規,0,2023-09-11,2023-09-11,有予家株式会社,,株式会社,大阪府,三島郡島本町,水無瀬１丁目１７番１２号島本センター内８－２号,,27,301,6180014,,,,,,,2023-09-11,1,,,,,アルヨヤ,0
1335,5122001037343,新規,0,2023-09-11,2023-09-11,株式会社ブロストロ,,株式会社,大阪府,八尾市,南太子堂５丁目２番２８号,,27,212,5810056,,,,,,,2023-09-11,1,,,,,ブロストロ,0
1336,5122001037351,新規,0,2023-09-11,2023-09-11,柏原商会株式会社,,株式会社,大阪府,柏原市,法善寺３丁目８番１２号,,27,221,5820005,,,,,,,2023-09-11,1,,,,,カシワラショウカイ,0
1340,5130003008956,新規,0,2023-09-11,2023-09-11,デジタル縄文合同会社,,合同会社,京都府,京都市中京区,中之町５３７,,26,104,6040032,,,,,,,2023-09-11,1,,,,,デジタルジョウモン,0
1349,5140001131552,新規,0,2023-09-11,2023-09-11,株式会社天昇工業,,株式会社,兵庫県,姫路市,上手野３８０番地錦アトリオ１０４,,28,201,6700065,,,,,,,2023-09-11,1,,,,,テンショウコウギョウ,0
1351,5140003019523,新規,0,2023-09-11,2023-09-11,ライフードＱＡサポート合同会社,,合同会社,兵庫県,明石市,大久保町谷八木１１９１番地の４４,,28,203,6740062,,,,,,,2023-09-11,1,,,,,ライフードキューエーサポート,0
1352,5140003019531,新規,0,2023-09-11,2023-09-11,合同会社ＡＮＣＨＯＲ,,合同会社,兵庫県,神戸市長田区,萩乃町１丁目１番１０号,,28,106,6530873,,,,,,,2023-09-11,1,,,,,アンカー,0
1353,5140005026732,新規,0,2023-09-11,2023-09-11,一般社団法人白秋共同研究所,,その他の設立登記法人,兵庫県,神戸市灘区,水道筋６丁目１番３号,,28,102,6570831,,,,,,,2023-09-11,1,,,,,ハクシュウキョウドウケンキュウショ,0
1355,5170001017773,新規,0,2023-09-11,2023-09-11,株式会社なすさん家,,株式会社,和歌山県,田辺市,下三栖１４４５番地の２５,,30,206,6460216,,,,,,,2023-09-11,1,,,,,ナスサンチ,0
1357,5180001157973,新規,0,2023-09-11,2023-09-11,株式会社ＹＳＰ,,株式会社,愛知県,名古屋市緑区,大高町字本銭瓶１３番地の１０,,23,114,4598001,,,,,,,2023-09-11,1,,,,,ワイエスピー,0
1358,5180001157981,新規,0,2023-09-11,2023-09-11,株式会社ファンタシー,,株式会社,愛知県,名古屋市昭和区,折戸町１丁目７番地の３,,23,107,4660858,,,,,,,2023-09-11,1,,,,,ファンタシー,0
1365,5190001030725,新規,0,2023-09-11,2023-09-11,株式会社管プラス,,株式会社,三重県,津市,垂水１８９８番地２１,,24,201,5140821,,,,,,,2023-09-11,1,,,,,カンプラス,0
1366,5190001030733,新規,0,2023-09-11,2023-09-11,株式会社アクティブ誘導,,株式会社,三重県,伊賀市,服部町１１１７番地の１１,,24,216,5180007,,,,,,,2023-09-11,1,,,,,アクティブユウドウ,0
1368,5200001041712,新規,0,2023-09-11,2023-09-11,株式会社ＢＡＲＵＫＯＹＡ,,株式会社,岐阜県,岐阜市,茜部中島２丁目２１番地２,,21,201,5008269,,,,,,,2023-09-11,1,,,,,バルコヤ,0
1374,5230001020011,新規,0,2023-09-11,2023-09-11,株式会社ＪＤＭ,,株式会社,富山県,富山市,城川原１丁目１０番２９－２０５号,,16,201,9318325,,,,,,,2023-09-11,1,,,,,ジェイディーエム,0
1379,5250003003342,新規,0,2023-09-11,2023-09-11,合同会社福祉サポートあさがお,,合同会社,山口県,山口市,宮野下１８４番地３,,35,203,7530011,,,,,,,2023-09-11,1,,,,,フクシサポートアサガオ,0
1383,5260001038307,新規,0,2023-09-11,2023-09-11,株式会社一柳建設,,株式会社,岡山県,岡山市北区,門前１８９番地１,,33,101,7011351,,,,,,,2023-09-11,1,,,,,イチリュウケンセツ,0
1393,5290001102984,新規,0,2023-09-11,2023-09-11,株式会社ＦＯＯＤＬＩＮＫＳ,,株式会社,福岡県,福岡市中央区,六本松４丁目９番３５－１０１号,,40,133,8100044,,,,,,,2023-09-11,1,,,,,フードリンクス,0
1398,5290801029865,新規,0,2023-09-11,2023-09-11,株式会社松井グループ,,株式会社,福岡県,北九州市小倉北区,片野１丁目１１番１－８２１号,,40,106,8020064,,,,,,,2023-09-11,1,,,,,マツイグループ,0
1400,5310001018600,新規,0,2023-09-11,2023-09-11,株式会社ＬＩＢＥＲＴＥ,,株式会社,長崎県,長崎市,葉山１丁目２８番３１－２０６号,,42,201,8528053,,,,,,,2023-09-11,1,,,,,リベルテ,0
1409,5360001032530,新規,0,2023-09-11,2023-09-11,株式会社ミートラボ沖縄,,株式会社,沖縄県,那覇市,三原１丁目１４番１４号グランツヴィラ５０６号室,,47,201,9020063,,,,,,,2023-09-11,1,,,,,ミートラボオキナワ,0
1415,5370001050399,新規,0,2023-09-11,2023-09-11,株式会社Ｙ・Ｋ,,株式会社,宮城県,仙台市青葉区,国見ケ丘２丁目１５－８,,04,101,9893201,,,,,,,2023-09-11,1,,,,,ワイケー,0
1416,5370001050408,新規,0,2023-09-11,2023-09-11,株式会社ケーアイ・システム,,株式会社,宮城県,大崎市,三本木新町２丁目１７番２号,,04,215,9896306,,,,,,,2023-09-11,1,,,,,ケーアイシステム,0
1420,5380001033980,新規,0,2023-09-11,2023-09-11,株式会社リバー,,株式会社,福島県,郡山市,桑野２丁目１７番１２号Ｊ＆Ｃビル１Ｆ,,07,203,9638025,,,,,,,2023-09-11,1,,,,,リバー,0
1441,5700150120068,新規,0,2023-09-11,2023-09-11,ａｉｗｅｎｑｉ（ｓｈｅｎｚｈｅｎ）ｍａｏｙｉｙｏｕｘｉａｎｇｏｎｇｓｉ,,外国会社等,,,,,,,,Ｓｈｅｎｚｈｅｎ　Ｓｈｉ　Ｆｕｔｉａｎ　Ｑｕ　Ｙｕａｎｌｉｎｇ　Ｊｉｅｄａｏ　Ｈｕａｌｉｎ　Ｓｈｅｑｕ　Ｂａｇｕａ　Ｓａｎｌｕ　１５０　Ｈａｏ　Ｂａｇｕａ　Ｌｉｎｇ　Ｇｏｎｇｙｅ　Ｑｕ　４２４　Ｄｏｎｇ　２２１,,,,,,2023-09-11,1,,,,,アイウェンチーシェンジェンマオイーヨウシエンゴンスー,0
1442,5700150120076,新規,0,2023-09-11,2023-09-11,Ｊｉｕｊｉａｎｇｄｅｎｇｊｉａｊｉａｍａｏｙｉｙｏｕｘｉａｎｇｏｎｇｓｉ,,外国会社等,,,,,,,,ｊｉａｎｇｘｉ　ｊｉｕｊｉａｎｇ　ｌｉａｎｘｉｑｕ　ｗｕｌｉｊｉｅｄａｏｈｅｔａｎｇｘｉｎｃｕｎｓｈｅｑｕｈｅｈｕａｌｏｎｇａｎｚｈｉｘｉａｏｑｕｙｉｑｉ２ｈａｏｌｏｕ３ｌｏｕ３０２,,,,,,2023-09-11,1,,,,,ジュージャンドンジャージャーマオイーヨウシエンゴンスー,0
1443,5700150120084,新規,0,2023-09-11,2023-09-11,ｓｈｅｎｚｈｅｎｓｈｉｌｉｎｇｈａｎｇｊｉｙｅｋｅｊｉ　ｙｏｕｘｉａｎｇｏｎｇｓｉ,,外国会社等,,,,,,,,ｌｏｎｇｈｕａｑｕｌｏｎｇｈｕａｊｉｅｄａｏｂｕｌｏｎｇｌｕｘｉｔｏｕｘｉｎｃｕｎ１ｑｕ８ｄｏｎｇ４０３ｓｈｉ　ｓｈｅｎｚｈｅｎｓｈｉ　ｇｕａｎｇｄｏｎｇｓｈｅｎｇ　Ｃｈｉｎａ,,,,,,2023-09-11,1,,,,,シンセンシリンシャンジイエカギユウゲンコウシ,0
1444,5700150120092,新規,0,2023-09-11,2023-09-11,ｒｏｎｇｙｕｓｈｉｙｅｔｏｕｚｉ（ｓｈｅｎｚｈｅｎ）ｙｏｕｘｉａｎｇｏｎｇｓｉ,,外国会社等,,,,,,,,ｂａｏａｎｑｕｓｈａｊｉｎｇｊｉｅｄａｏｙａｂｉａｎｓｈｅｑｕ　ｙａｂｉａｎｘｕｅｚｉｗｅｉｊｕｊｉｇｏｎｇｙｅｙｕａｎＤｄｏｎｇＢ７２９　ｓｈｅｎｚｈｅｎ　ｇｕａｎｇｄｏｎｇ　Ｃｈｉｎａ,,,,,,2023-09-11,1,,,,,ヨンユシイエトオシシンセンユウゲンコウシ,0
1445,5700150120101,新規,0,2023-09-11,2023-09-11,Ｓｈｅｎｚｈｅｎ　Ｓｈｉ　Ｓｉｃｈｕａｎｇ　Ｌｉｗｅｉ　Ｋｅｊｉ　Ｃｏ．，ＬＴＤ,,外国会社等,,,,,,,,Ｂａｏａｎ　Ｑｕ　Ｘｉｘｉａｎｇ　Ｊｉｅｄａｏ　Ｈａｏｙｅ　Ｓｈｅｑｕ　Ｂａｏａｎ　Ｈｕｌｉａｎｗａｎｇ　Ｃｈａｎｙｅｊｉｄｉ　Ａ　Ｑｕ　５　Ｄｏｎｇ　６０１　Ｓｈｅｎｚｈｅｎ　Ｃｈｉｎａ,,,,,,2023-09-11,1,,,,,シンセンシスチワンリウェイカギカンパニーリミテッド,0
1455,6010001238293,新規,0,2023-09-11,2023-09-11,株式会社卓越ジャパン,,株式会社,東京都,中央区,日本橋浜町２丁目１７番６号,,13,102,1030007,,,,,,,2023-09-11,1,,,,,タクエツジャパン,0
1456,6010001238335,新規,0,2023-09-11,2023-09-11,株式会社ｓｊｈ,,株式会社,東京都,中央区,銀座１丁目２７－１２銀座渡辺ビル３Ｆ,,13,102,1040061,,,,,,,2023-09-11,1,,,,,エスジェイエイチ,0
1457,6010001238401,新規,0,2023-09-11,2023-09-11,ひのまる株式会社,,株式会社,東京都,千代田区,内神田２丁目３番１号メインステージ大手町４０１,,13,101,1010047,,,,,,,2023-09-11,1,,,,,ヒノマル,0
1460,6010003041638,新規,0,2023-09-11,2023-09-11,リアルエステイト・プロパティーズ合同会社,,合同会社,東京都,中央区,佃１丁目１１番８号,,13,102,1040051,,,,,,,2023-09-11,1,,,,,リアルエステイトプロパティーズ,0
1467,6010401177001,新規,0,2023-09-11,2023-09-11,株式会社スペクトラム,,株式会社,東京都,港区,南青山３丁目１番３６号青山丸竹ビル６Ｆ,,13,103,1070062,,,,,,,2023-09-11,1,,,,,スペクトラム,0
1468,6010401177050,新規,0,2023-09-11,2023-09-11,ＷＥＡ　ＪＡＰＡＮ株式会社,,株式会社,東京都,港区,六本木７丁目７番７号,,13,103,1060032,,,,,,,2023-09-11,1,,,,,ウィアジャパン,0
1470,6010403030884,新規,0,2023-09-11,2023-09-11,カドレ合同会社,,合同会社,東京都,港区,元麻布３丁目１番６号,,13,103,1060046,,,,,,,2023-09-11,1,,,,,カドレ,0
1471,6010403030892,新規,0,2023-09-11,2023-09-11,合同会社Ｂａｌｌｙｍｏｓｓ,,合同会社,東京都,港区,虎ノ門５丁目１番４号,,13,103,1050001,,,,,,,2023-09-11,1,,,,,バリーモス,0
1472,6010403030901,新規,0,2023-09-11,2023-09-11,合同会社Ｏｆｆｉｃｅ　ＯＲＥＯ,,合同会社,東京都,港区,南青山７丁目３番２－６０５号,,13,103,1070062,,,,,,,2023-09-11,1,,,,,オフィスオレオ,0
1473,6010405022500,新規,0,2023-09-11,2023-09-11,ＹＡＴ３一般社団法人,,その他の設立登記法人,東京都,港区,元赤坂１丁目１番７－１００６号,,13,103,1070051,,,,,,,2023-09-11,1,,,,,ワイエーティースリー,0
1478,6010601063760,新規,0,2023-09-11,2023-09-11,イーシーサポート株式会社,,株式会社,東京都,墨田区,両国２丁目２０番１２号,,13,107,1300026,,,,,,,2023-09-11,1,,,,,イーシーサポート,0
1483,6010801034314,新規,0,2023-09-11,2023-09-11,長久株式会社,,株式会社,東京都,大田区,中央８丁目２１番１４号,,13,111,1430024,,,,,,,2023-09-11,1,,,,,チョウキュウ,0
1485,6010901053775,新規,0,2023-09-11,2023-09-11,株式会社ｓｉｋｉ,,株式会社,東京都,世田谷区,上用賀１丁目７－１２,,13,112,1580098,,,,,,,2023-09-11,1,,,,,シキ,0
1486,6010901053791,新規,0,2023-09-11,2023-09-11,株式会社古沢良太事務所,,株式会社,東京都,世田谷区,玉川台２丁目８番８号,,13,112,1580096,,,,,,,2023-09-11,1,,,,,コサワリョウタジムショ,0
1487,6010903008439,新規,0,2023-09-11,2023-09-11,合同会社ＯＡＳＩＳ,,合同会社,東京都,世田谷区,太子堂２丁目１４番４号ＴＯＰ三軒茶屋第３－２０８,,13,112,1540004,,,,,,,2023-09-11,1,,,,,オアシス,0
1490,6011001156898,新規,0,2023-09-11,2023-09-11,株式会社ミリオンセラー,,株式会社,東京都,渋谷区,本町６丁目３７番７号,,13,113,1510071,,,,,,,2023-09-11,1,,,,,ミリオンセラー,0
1497,6011101104278,新規,0,2023-09-11,2023-09-11,ＡＶＩＮＡＢ株式会社,,株式会社,東京都,新宿区,大久保１丁目１５番２５号フラット大久保Ｇ,,13,104,1690072,,,,,,,2023-09-11,1,,,,,アヴィナブ,0
1498,6011101104303,新規,0,2023-09-11,2023-09-11,株式会社ＴＩＥ,,株式会社,東京都,新宿区,西新宿３丁目３番１３号西新宿水間ビル２Ｆ,,13,104,1600023,,,,,,,2023-09-11,1,,,,,ティーアイイー,0
1499,6011103013469,新規,0,2023-09-11,2023-09-11,合同会社Ｂｅｙｏｎｄ１００,,合同会社,東京都,新宿区,早稲田鶴巻町５７６,,13,104,1620041,,,,,,,2023-09-11,1,,,,,ビヨンドワンハンドレッド,0
1500,6011303004895,新規,0,2023-09-11,2023-09-11,合同会社スペース・クラーケンズ,,合同会社,東京都,杉並区,上荻４丁目４‐５‐２０７,,13,115,1670043,,,,,,,2023-09-11,1,,,,,スペースクラーケンズ,0
1501,6011303004904,新規,0,2023-09-11,2023-09-11,合同会社Ｋ　ＩＮＶＥＳＴＭＥＮＴＳ,,合同会社,東京都,杉並区,善福寺１丁目２９番２４号,,13,115,1670041,,,,,,,2023-09-11,1,,,,,ケーインベストメンツ,0
1502,6011403004110,新規,0,2023-09-11,2023-09-11,合同会社ＭＩＣＩ,,合同会社,東京都,板橋区,南常盤台１丁目１１番６号,,13,119,1740072,,,,,,,2023-09-11,1,,,,,ミチ,0
1504,6011501029752,新規,0,2023-09-11,2023-09-11,ＨＣＰ　Ｐａｃｋａｇｉｎｇ　Ｊａｐａｎ株式会社,,株式会社,東京都,北区,赤羽２丁目６９番２号,,13,117,1150045,,,,,,,2023-09-11,1,,,,,エイチシーピーパッキングジャパン,0
1506,6011503005751,新規,0,2023-09-11,2023-09-11,合同会社ＵＮＭＥＩ　ＳＴＵＤＩＯ,,合同会社,東京都,荒川区,南千住５丁目４番６号,,13,118,1160003,,,,,,,2023-09-11,1,,,,,ウンメイスタディオ,0
1511,6011801043024,新規,0,2023-09-11,2023-09-11,株式会社ユニシード,,株式会社,東京都,葛飾区,お花茶屋３丁目７－６－３０１,,13,122,1240003,,,,,,,2023-09-11,1,,,,,ユニシード,0
1513,6012401040956,新規,0,2023-09-11,2023-09-11,株式会社しめのうち,,株式会社,東京都,府中市,宮町２丁目３番地の８,,13,206,1830023,,,,,,,2023-09-11,1,,,,,シメノウチ,0
1523,6013303006789,新規,0,2023-09-11,2023-09-11,智沐産業合同会社,,合同会社,東京都,豊島区,南池袋１丁目９番１８号２４６号,,13,116,1710022,,,,,,,2023-09-11,1,,,,,チモクサンギョウ,0
1529,6020001153418,新規,0,2023-09-11,2023-09-11,レゴリス株式会社,,株式会社,神奈川県,横浜市中区,不老町１丁目６番１０号苗場ビル３Ｆ－Ａ,,14,104,2310032,,,,,,,2023-09-11,1,,,,,レゴリス,0
1530,6020001153467,新規,0,2023-09-11,2023-09-11,株式会社ＺＥＲＯ　ｐｒｏｊｅｃｔ,,株式会社,神奈川県,横浜市鶴見区,寺谷２丁目５番５号,,14,101,2300015,,,,,,,2023-09-11,1,,,,,ゼロプロジェクト,0
1535,6021001080131,新規,0,2023-09-11,2023-09-11,株式会社エニクロス,,株式会社,神奈川県,相模原市南区,麻溝台３丁目１６番２０号,,14,153,2520328,,,,,,,2023-09-11,1,,,,,エニクロス,0
1536,6021003013543,新規,0,2023-09-11,2023-09-11,ＩＤＥＡＬ‐Ｂｅｉｎｇ合同会社,,合同会社,神奈川県,鎌倉市,腰越１６７３番地１３,,14,204,2480033,,,,,,,2023-09-11,1,,,,,アイディアルビーイング,0
1537,6021003013551,新規,0,2023-09-11,2023-09-11,合同会社ＳＮｃｏｍｐａｎｙ,,合同会社,神奈川県,藤沢市,辻堂西海岸２丁目１３番９－２号,,14,205,2510046,,,,,,,2023-09-11,1,,,,,エスエヌカンパニー,0
1543,6030001155636,新規,0,2023-09-11,2023-09-11,株式会社テクテクフォト,,株式会社,埼玉県,行田市,谷郷２丁目８番３５号,,11,206,3610062,,,,,,,2023-09-11,1,,,,,テクテクフォト,0
1544,6030001155776,新規,0,2023-09-11,2023-09-11,株式会社よつ葉,,株式会社,埼玉県,八潮市,大字新町１６２番地２,,11,234,3400807,,,,,,,2023-09-11,1,,,,,ヨツバ,0
1545,6030001155784,新規,0,2023-09-11,2023-09-11,株式会社小野田金属,,株式会社,埼玉県,川口市,大字辻６７８番地,00131857,11,203,3340004,,,,,,,2023-09-11,1,,,,,オノダキンゾク,0
1546,6030001155826,新規,0,2023-09-11,2023-09-11,株式会社オーティスＲＥＮＯ’ｓ,,株式会社,埼玉県,北葛飾郡松伏町,大字松伏３４２５番地,,11,465,3430111,,,,,,,2023-09-11,1,,,,,オーティスリノス,0
1547,6030001155859,新規,0,2023-09-11,2023-09-11,ＹＪＮ株式会社,,株式会社,埼玉県,さいたま市岩槻区,大字古ヶ場字花ノ木７１７番地５・Ｂ２０２,,11,110,3390072,,,,,,,2023-09-11,1,,,,,ワイジェイエヌ,0
1552,6030005021363,新規,0,2023-09-11,2023-09-11,一般社団法人彩の国思春期研究会,,その他の設立登記法人,埼玉県,熊谷市,筑波３丁目２０２ティアラ２１女性クリニック内,,11,202,3600037,,,,,,,2023-09-11,1,,,,,サイノクニシシュンキケンキュウカイ,0
1557,6040001130027,新規,0,2023-09-11,2023-09-11,ＢＥｃＫ株式会社,,株式会社,千葉県,習志野市,東習志野８丁目４番１３号フリーダムシティー１０３,,12,216,2750001,,,,,,,2023-09-11,1,,,,,ベック,0
1561,6040003023286,新規,0,2023-09-11,2023-09-11,合同会社リンク,,合同会社,千葉県,八街市,榎戸６８４番地５０ニッセキアパートメントＩＩＩ１０１,00131870,12,230,2891106,,,,,,,2023-09-11,1,,,,,リンク,0
1563,6040005022113,新規,0,2023-09-11,2023-09-11,一般社団法人ＳＧＣ,,その他の設立登記法人,千葉県,松戸市,新松戸東５－６,,12,207,2700033,,,,,,,2023-09-11,1,,,,,エスジーシー,0
1565,6050001053425,新規,0,2023-09-11,2023-09-11,株式会社Ｏｔａｂｅ,,株式会社,茨城県,高萩市,大字安良川９２０番地の５,,08,214,3180021,,,,,,,2023-09-11,1,,,,,オタベ,0
1568,6060001036313,新規,0,2023-09-11,2023-09-11,株式会社ＺＥＡＬＬ,,株式会社,栃木県,塩谷郡高根沢町,大字宝積寺２２９０番地８,,09,386,3291233,,,,,,,2023-09-11,1,,,,,ジール,0
1569,6060001036321,新規,0,2023-09-11,2023-09-11,ロコラボリー株式会社,,株式会社,栃木県,那須塩原市,塩原６番地,,09,213,3292921,,,,,,,2023-09-11,1,,,,,ロコラボリー,0
1570,6070001040850,新規,0,2023-09-11,2023-09-11,株式会社ＧａｒｄｅｎＣｏｍｐａｎｙ,,株式会社,群馬県,高崎市,剣崎町１０５７番地４,,10,202,3700883,,,,,,,2023-09-11,1,,,,,ガーデンカンパニー,0
1571,6080003003053,新規,0,2023-09-11,2023-09-11,松本自動車合同会社,,合同会社,静岡県,焼津市,治長請所５０番地２,,22,212,4250067,,,,,,,2023-09-11,1,,,,,マツモトジドウシャ,0
1573,6080403004865,新規,0,2023-09-11,2023-09-11,アセット合同会社,,合同会社,静岡県,磐田市,弥藤太島４４２番地９,,22,211,4380833,,,,,,,2023-09-11,1,,,,,アセット,0
1579,6100001036746,新規,0,2023-09-11,2023-09-11,株式会社アイマックス,,株式会社,長野県,下伊那郡高森町,出原１８８番地１,,20,403,3993107,,,,,,,2023-09-11,1,,,,,アイマックス,0
1590,6110003005161,新規,0,2023-09-11,2023-09-11,合同会社かぐや,,合同会社,新潟県,南魚沼市,野田２１３番地１,,15,226,9497144,,,,,,,2023-09-11,1,,,,,カグヤ,0
1599,6120001257869,新規,0,2023-09-11,2023-09-11,株式会社ＴＴＢ,,株式会社,大阪府,枚方市,岡本町７番１号,,27,210,5730031,,,,,,,2023-09-11,1,,,,,ティーティービー,0
1601,6120901048046,新規,0,2023-09-11,2023-09-11,ｉｄｅａｂａｎｋ株式会社,,株式会社,大阪府,茨木市,双葉町１０－１茨木東阪急ビル４Ｆ,,27,211,5670829,,,,,,,2023-09-11,1,,,,,アイデアバンク,0
1615,6140001131452,新規,0,2023-09-11,2023-09-11,株式会社アップサービス,,株式会社,兵庫県,宍粟市,千種町千草７９０番地４,,28,227,6713201,,,,,,,2023-09-11,1,,,,,アップサービス,0
1616,6140001131493,新規,0,2023-09-11,2023-09-11,シンワ電器株式会社,,株式会社,兵庫県,伊丹市,南野２丁目１番２号,,28,207,6640865,,,,,,,2023-09-11,1,,,,,シンワデンキ,0
1617,6140001131535,新規,0,2023-09-11,2023-09-11,株式会社ＴＲＹＡＳＵ,,株式会社,兵庫県,神戸市須磨区,飛松町３丁目６－１４－４０２,,28,107,6540012,,,,,,,2023-09-11,1,,,,,トライアス,0
1634,6180001158005,新規,0,2023-09-11,2023-09-11,環歩開発株式会社,,株式会社,愛知県,名古屋市西区,宝地町１０３番地の１,,23,104,4520808,,,,,,,2023-09-11,1,,,,,カンポカイハツ,0
1638,6180301037800,新規,0,2023-09-11,2023-09-11,株式会社Ｔ＆Ｃ,,株式会社,愛知県,岡崎市,緑丘１丁目２５番地６,,23,202,4440806,,,,,,,2023-09-11,1,,,,,ティーアンドシー,0
1640,6190001030732,新規,0,2023-09-11,2023-09-11,株式会社御劔社,,株式会社,三重県,名張市,平尾３２２０番地,,24,208,5180713,,,,,,,2023-09-11,1,,,,,ミツルギシャ,0
1652,6230001020010,新規,0,2023-09-11,2023-09-11,ＮＡＭＩホールディングス株式会社,,株式会社,富山県,富山市,問屋町１丁目２番６４号,,16,201,9300834,,,,,,,2023-09-11,1,,,,,ナミホールディングス,0
1654,6230003002080,新規,0,2023-09-11,2023-09-11,合同会社恵,,合同会社,富山県,富山市,手屋３丁目５番１８－２０３号ウインクルム,,16,201,9300901,,,,,,,2023-09-11,1,,,,,メグミ,0
1661,6250001020280,新規,0,2023-09-11,2023-09-11,ＡＺ商事株式会社,,株式会社,山口県,防府市,勝間１丁目６番１６号ワンビル２０１,,35,206,7470822,,,,,,,2023-09-11,1,,,,,エーゼットショウジ,0
1669,6290001102975,新規,0,2023-09-11,2023-09-11,株式会社日助,,株式会社,福岡県,福岡市博多区,博多駅東３丁目１番４号タカ福岡ビル２階,,40,132,8120013,,,,,,,2023-09-11,1,,,,,ヒスケ,0
1670,6290001102983,新規,0,2023-09-11,2023-09-11,ＫＭＧ株式会社,,株式会社,福岡県,福岡市博多区,中洲中島町３番１５－１４０７号,,40,132,8100802,,,,,,,2023-09-11,1,,,,,ケイエムジー,0
1675,6290805009672,新規,0,2023-09-11,2023-09-11,社会福祉法人抱樸,,その他の設立登記法人,福岡県,北九州市八幡東区,荒生田２丁目１番３２号,,40,108,8050015,,,,,,,2023-09-11,1,,,,,ホウボク,0
1677,6310001018599,新規,0,2023-09-11,2023-09-11,株式会社潮屋,,株式会社,長崎県,雲仙市,愛野町甲２７７番地,,42,213,8540301,,,,,,,2023-09-11,1,,,,,シオヤ,0
1683,6340003004248,新規,0,2023-09-11,2023-09-11,合同会社古尊新創,,合同会社,鹿児島県,鹿児島市,吉野町９６７９番地２－４０１,,46,201,8920871,,,,,,,2023-09-11,1,,,,,コソンシンソウ,0
1684,6350003004437,新規,0,2023-09-11,2023-09-11,合同会社ＮＥＣＯＮＴＥ,,合同会社,宮崎県,宮崎市,大字郡司分甲２２番地１４,,45,201,8800924,,,,,,,2023-09-11,1,,,,,ネコンテ,0
1685,6360001032397,新規,0,2023-09-11,2023-09-11,株式会社新和,,株式会社,沖縄県,沖縄市,比屋根７丁目２１番１４号アクアポイントＩＩ３０１号室,00131861,47,211,9042173,,,,,,,2023-09-11,1,,,,,シンワ,0
1690,6370001050398,新規,0,2023-09-11,2023-09-11,Ｓａｓｓｈｉｎ株式会社,,株式会社,宮城県,東松島市,野蒜字亀岡８０番地,,04,214,9810411,,,,,,,2023-09-11,1,,,,,サッシン,0
1691,6380001033971,新規,0,2023-09-11,2023-09-11,株式会社宝精丸,,株式会社,福島県,相馬市,尾浜字原１４番地の１,,07,209,9760022,,,,,,,2023-09-11,1,,,,,ホウセイマル,0
1692,6390001017370,新規,0,2023-09-11,2023-09-11,ＦＯＯＤＳ　ＦＥＡＴＳ　ＪＡＰＡＮ株式会社,,株式会社,山形県,最上郡金山町,大字下野明１６９６番地１,,06,361,9995404,,,,,,,2023-09-11,1,,,,,フーズフィーツジャパン,0
1698,6430001017688,新規,0,2023-09-11,2023-09-11,株式会社雄北プランニング,,株式会社,北海道,札幌市西区,発寒四条２丁目１番２号,,01,107,0630824,,,,,,,2023-09-11,1,,,,,,0
1708,6470001019805,新規,0,2023-09-11,2023-09-11,株式会社Ａｍｏｕｒ,,株式会社,香川県,高松市,寺井町１１０６番地３,,37,201,7618085,,,,,,,2023-09-11,1,,,,,アムール,0
1711,6490005006905,新規,0,2023-09-11,2023-09-11,一般社団法人エンディングサポート高知,,その他の設立登記法人,高知県,高岡郡佐川町,乙１７４８番地２,,39,402,7891202,,,,,,,2023-09-11,1,,,,,エンディングサポートコウチ,0
1714,6700150120067,新規,0,2023-09-11,2023-09-11,Ｚｈｕｊｉｓｈｉ　Ｇｕａｎｇｇｕｗａｎｇｌｕｏｋｅｊｉ　Ｙｏｕｘｉａｎｇｏｎｇｓｉ,,外国会社等,,,,,,,,ｈｕａｎｄｏｎｇ　ｊｉｅｄａｏ，ｓｈｕａｎｇｑｉａｏｃｕｎ　ｌａｎｇｓｈａｎ　６１１　ｈａｏ　ｚｈｕｊｉ　ｚｈｅｊｉａｎｇ　３１１８００　ＣＮ,,,,,,2023-09-11,1,,,,,ジュージーシーグワングーワンルオコージーヨウシエンゴンスー,0
1715,6700150120075,新規,0,2023-09-11,2023-09-11,Ｊｉａｘｉｎｇ　Ｊｉｎｘｉｕ　Ｐｒｉｎｔｉｎｇ　Ｃｏ．，Ｌｔｄ．,,外国会社等,,,,,,,,（Ｗｅｓｔ）３０２，３ｒｄ　Ｆｌｏｏｒ，Ｂｕｉｌｄｉｎｇ　４，Ｗａｎｇｄｉａｎ　Ｉｎｔｅｇｒａｔｅｄ　Ｄｅｃｏｒａｔｉｏｎ　Ｂｕｓｉｎｅｓｓ　Ｉｎｎｏｖａｔｉｏｎ　Ｐａｒｋ，５６７　Ｙｏｎｇｌｅ　Ｒｏａｄ，Ｗａｎｇｄｉａｎ　Ｔｏｗｎ，Ｘｉｕｚｈｏｕ　ｄｉｓｔｒｉｃｔ，　Ｊｉａｘｉｎｇ　Ｃｉｔｙ，　Ｚｈｅｊｉａｎｇ　Ｐｒｏｖｉｎｃｅ,,,,,,2023-09-11,1,,,,,ジャーシンシージンシューインシュワーヨウシエンゴンスー,0
1716,6700150120083,新規,0,2023-09-11,2023-09-11,Ｇｕａｎｇｚｈｏｕｎａｎｈｏｕｍａｏｙｉｙｏｕｘｉａｎｇｏｎｇｓｉ,,外国会社等,,,,,,,,Ｇｕａｎｇｄｏｎｇｓｈｅｎｇｇｕａｎｇｚｈｏｕｓｈｉｚｅｎｇｃｈｅｎｇｑｕｘｉｎｔａｎｇｚｈｅｎｘｉｎｓｈａｄａｔａｏｂｅｉ３０ｈａｏｊｉｎｘｉｕｔｉａｎｌｕｎｈｕａｙｕａｎｓａｎｊｉｅ１５ｈａｏ１８０６,,,,,,2023-09-11,1,,,,,グワンジョウシーナンホウマオイーヨウシエンゴンスー,0
1717,6700150120091,新規,0,2023-09-11,2023-09-11,ＤＡＷＮ（ＸＩＡＭＥＮ）ＩＮＴＥＲＮＡＴＩＯＮＡＬ　ＬＯＧＩＳＴＩＣＳ　ＣＯ．，ＬＴＤ．,,外国会社等,,,,,,,,Ａｒｅａ　２，Ｒｏｏｍ　３０１　Ｊｉａｈｅ　Ｒｏａｄ，Ｎｏ．５５７ＸｉａｍｅｎＦＵＪＩＡＮ,,,,,,2023-09-11,1,,,,,ズイダツオンシャモンコクサイブツリュウユウゲンコウシ,0
1718,6700150120100,新規,0,2023-09-11,2023-09-11,Ｓｈｅｎｚｈｅｎ　Ｈｏｎｇｒｕｉ　Ｃｈｕａｎｇｋｅ　Ｔｅｃｈｎｏｌｏｇｙ　Ｃｏ．，Ｌｔｄ,,外国会社等,,,,,,,,Ｄｉｎｇ　Ｔａｉ　Ｆｅｎｇｈｕａ　Ｈ　Ｂｕｉｌｄｉｎｇ　２　Ｕｎｉｔ　１０６，１０８５Ｑｉａｎｈａｉ　Ｒｏａｄ，Ｆｅｎｇｈｕａ　Ｃｏｍｍｕｎｉｔｙ，Ｎａｎｓｈａｎ　Ｓｔｒｅｅｔ，Ｎａｎｓｈａｎ　Ｄｉｓｔｒｉｃｔ，Ｓｈｅｎｚｈｅｎ　Ｃｉｔｙ，Ｃｈｉｎａ,,,,,,2023-09-11,1,,,,,シンセンホンルイツァンケテクノロジーカンパニーリミテッド,0
1726,7010001238318,新規,0,2023-09-11,2023-09-11,株式会社システムダイアリー,,株式会社,東京都,中央区,湊３丁目１３番１１号,,13,102,1040043,,,,,,,2023-09-11,1,,,,,システムダイアリー,0
1727,7010001238342,新規,0,2023-09-11,2023-09-11,株式会社ＳｐｏｔＲｉｇｈｔ,,株式会社,東京都,千代田区,東神田３丁目４番１２号５Ｆ,,13,101,1010031,,,,,,,2023-09-11,1,,,,,スポットライト,0
1728,7010001238359,新規,0,2023-09-11,2023-09-11,株式会社ＤＤＳ,,株式会社,東京都,中央区,築地３丁目１番１号築地ＦＡビル６階,,13,102,1040045,,,,,,,2023-09-11,1,,,,,ディディエス,0
1729,7010001238367,新規,0,2023-09-11,2023-09-11,ＡＮＩＭＡＴＯ株式会社,,株式会社,東京都,千代田区,丸の内２丁目２番１号岸本ビル７Ｆ,,13,101,1000005,,,,,,,2023-09-11,1,,,,,アニマト,0
1730,7010001238375,新規,0,2023-09-11,2023-09-11,日本興産株式会社,,株式会社,東京都,千代田区,三番町２番地１ザ・パークハウスグラン千鳥ヶ淵２０４号,,13,101,1020075,,,,,,,2023-09-11,1,,,,,ニホンコウサン,0
1731,7010001238391,新規,0,2023-09-11,2023-09-11,株式会社ＳＫコーポレーション,,株式会社,東京都,中央区,銀座１丁目１２番４号Ｎ＆ＥＢＬＤ．６Ｆ,,13,102,1040061,,,,,,,2023-09-11,1,,,,,エスケーコーポレーション,0
1732,7010001238400,新規,0,2023-09-11,2023-09-11,株式会社ＳＩＧＮＡＲＹ,,株式会社,東京都,千代田区,岩本町１丁目４番５号,,13,101,1010032,,,,,,,2023-09-11,1,,,,,シグナリー,0
1733,7010001238417,新規,0,2023-09-11,2023-09-11,株式会社キーブライト,,株式会社,東京都,中央区,新富１丁目６番５号フジタ新富マンション３０７号室,,13,102,1040041,,,,,,,2023-09-11,1,,,,,キーブライト,0
1736,7010003041629,新規,0,2023-09-11,2023-09-11,合同会社ＨＡＤＯＵＧＡＫＵ,,合同会社,東京都,中央区,銀座１丁目１２番４号Ｎ＆ＥＢＬＤ．６Ｆ,,13,102,1040061,,,,,,,2023-09-11,1,,,,,ハドウガク,0
1747,7010401176984,新規,0,2023-09-11,2023-09-11,スターブルワリーズ株式会社,,株式会社,東京都,港区,南麻布５丁目５番９－３０１号,,13,103,1060047,,,,,,,2023-09-11,1,,,,,スターブルワリーズ,0
1748,7010401177066,新規,0,2023-09-11,2023-09-11,株式会社Ｊａｐａｎ　Ｇａｔｅｗａｙ,,株式会社,東京都,港区,芝公園３丁目５番８号,,13,103,1050011,,,,,,,2023-09-11,1,,,,,ジャパンゲートウェイ,0
1750,7010403030867,新規,0,2023-09-11,2023-09-11,合同会社ＡＯＳ,,合同会社,東京都,港区,南青山４丁目１８番１６号,,13,103,1070062,,,,,,,2023-09-11,1,,,,,エーオーエス,0
1751,7010403030909,新規,0,2023-09-11,2023-09-11,合同会社ローズ,,合同会社,東京都,港区,赤坂９丁目１番７号,,13,103,1070052,,,,,,,2023-09-11,1,,,,,ローズ,0
1755,7010505003449,新規,0,2023-09-11,2023-09-11,一般社団法人日本ラボラトリーグロウンダイヤモンド協会,,その他の設立登記法人,東京都,台東区,台東４丁目１１番４号三井住友銀行御徒町ビル６階,,13,106,1100016,,,,,,,2023-09-11,1,,,,,ニホンラボラトリーグロウンダイヤモンドキョウカイ,0
1765,7010903008438,新規,0,2023-09-11,2023-09-11,合同会社Ｃｉｅｌ,,合同会社,東京都,世田谷区,北烏山４丁目３３－１２,,13,112,1570061,,,,,,,2023-09-11,1,,,,,シエル,0
1770,7011001156889,新規,0,2023-09-11,2023-09-11,株式会社ＨａｓｈｉｋｏＭｉｅｌ,,株式会社,東京都,目黒区,鷹番１丁目１４番２５号,,13,110,1520004,,,,,,,2023-09-11,1,,,,,ハシコミエル,0
1777,7011101104285,新規,0,2023-09-11,2023-09-11,株式会社Ｉｔｕｍｏ,,株式会社,東京都,新宿区,西新宿３丁目３番１３号西新宿水間ビル２Ｆ,,13,104,1600023,,,,,,,2023-09-11,1,,,,,イツモ,0
1778,7011101104293,新規,0,2023-09-11,2023-09-11,株式会社日中人文教育交流センター,,株式会社,東京都,新宿区,馬場下町５－１早稲田駅前ビル７Ｆ,,13,104,1620045,,,,,,,2023-09-11,1,,,,,ニッチュウジンブンキョウイクコウリュウセンター,0
1779,7011101104327,新規,0,2023-09-11,2023-09-11,禄鈴株式会社,,株式会社,東京都,新宿区,新宿１丁目２４－１－１０４,,13,104,1600022,,,,,,,2023-09-11,1,,,,,ロクレイ,0
1780,7011201024904,新規,0,2023-09-11,2023-09-11,株式会社Ｂｅ　ｃｌｅｖｅｒ,,株式会社,東京都,中野区,中野２丁目１９－２リードシー中野ビル３Ｆ,,13,114,1640001,,,,,,,2023-09-11,1,,,,,ビークレバー,0
1781,7011303004903,新規,0,2023-09-11,2023-09-11,合同会社ＣＯＮＮＥＣＴ,,合同会社,東京都,杉並区,宮前１丁目１７番５号,,13,115,1680081,,,,,,,2023-09-11,1,,,,,コネクト,0
1782,7011501029751,新規,0,2023-09-11,2023-09-11,株式会社エムズワークス,,株式会社,東京都,北区,十条仲原４丁目１０番２８号,,13,117,1140031,,,,,,,2023-09-11,1,,,,,エムズワークス,0
1786,7011703003587,新規,0,2023-09-11,2023-09-11,金鴻商事合同会社,,合同会社,東京都,江戸川区,西小岩３丁目１０番１７号,,13,123,1330057,,,,,,,2023-09-11,1,,,,,キンコウショウジ,0
1801,7020001153466,新規,0,2023-09-11,2023-09-11,株式会社デルフィネクト,,株式会社,神奈川県,横浜市神奈川区,鶴屋町３丁目３２番地１３,,14,102,2210835,,,,,,,2023-09-11,1,,,,,デルフィネクト,0
1802,7020001153482,新規,0,2023-09-11,2023-09-11,株式会社ＫＴＹ企画,,株式会社,神奈川県,横浜市港南区,上永谷１丁目２０番１６号,,14,111,2330012,,,,,,,2023-09-11,1,,,,,ケーティーワイキカク,0
1807,7020003024566,新規,0,2023-09-11,2023-09-11,キグニス合同会社,,合同会社,神奈川県,横浜市西区,久保町３３番２０号,,14,103,2200061,,,,,,,2023-09-11,1,,,,,キグニス,0
1809,7021001080080,新規,0,2023-09-11,2023-09-11,株式会社ＮｅＡｇｅ,,株式会社,神奈川県,相模原市南区,上鶴間本町２丁目３８－２６－エムロード町田１０３,,14,153,2520318,,,,,,,2023-09-11,1,,,,,ネイジ,0
1810,7021001080122,新規,0,2023-09-11,2023-09-11,ＴＹテック株式会社,,株式会社,神奈川県,大和市,深見５８６番地４－Ａ１０２,,14,213,2420011,,,,,,,2023-09-11,1,,,,,ティーワイテック,0
1811,7021001080147,新規,0,2023-09-11,2023-09-11,株式会社エスエスイー,,株式会社,神奈川県,相模原市緑区,小原４１９番地９８,,14,151,2520173,,,,,,,2023-09-11,1,,,,,エスエスイー,0
1812,7021003013542,新規,0,2023-09-11,2023-09-11,合同会社ＨｅａｌｔｈＰｒｉｍｅ,,合同会社,神奈川県,足柄上郡開成町,吉田島２４６８番１号,,14,366,2580021,,,,,,,2023-09-11,1,,,,,ヘルスプライム,0
1816,7030001155783,新規,0,2023-09-11,2023-09-11,根岸プランニング株式会社,,株式会社,埼玉県,春日部市,豊町２丁目１５番地４春日部パーク・ホームズ５０４号,,11,214,3440066,,,,,,,2023-09-11,1,,,,,ネギシプランニング,0
1823,7030003022494,新規,0,2023-09-11,2023-09-11,合同会社民,,合同会社,埼玉県,所沢市,並木３丁目１番地６－５０３,,11,208,3590042,,,,,,,2023-09-11,1,,,,,タミ,0
1829,7040003023285,新規,0,2023-09-11,2023-09-11,合同会社イクタ,,合同会社,千葉県,八街市,榎戸６８４番地５０ニッセキアパートメントＩＩＩ１０１,00131868,12,230,2891106,,,,,,,2023-09-11,1,,,,,イクタ,0
1832,7040005022120,新規,0,2023-09-11,2023-09-11,社会保険労務士法人ＴＳＲ,,その他の設立登記法人,千葉県,千葉市中央区,新千葉３丁目２－１新千葉プラザマンション１０６号室,,12,101,2600031,,,,,,,2023-09-11,1,,,,,ティーエスアール,0
1833,7050001053416,新規,0,2023-09-11,2023-09-11,株式会社ＲＯＹＯＯＫＡ　ＥＸＰＯＲＴ,,株式会社,茨城県,土浦市,小岩田西１丁目６番３０号,,08,203,3000833,,,,,,,2023-09-11,1,,,,,ロヨーカエクスポート,0
1838,7080005007563,新規,0,2023-09-11,2023-09-11,行政書士法人ＫＩＺＵＮＡ,,その他の設立登記法人,静岡県,静岡市葵区,七間町６番地の２七間町銀河ビル２Ｆ－Ａ,,22,101,4200035,,,,,,,2023-09-11,1,,,,,キズナ,0
1840,7080403004864,新規,0,2023-09-11,2023-09-11,合同会社マンパワー,,合同会社,静岡県,掛川市,紺屋町６番地の７,,22,213,4360055,,,,,,,2023-09-11,1,,,,,マンパワー,0
1857,7120001257884,新規,0,2023-09-11,2023-09-11,株式会社Ｐｉｎｋ　Ｖｅｒｂｅｎａ,,株式会社,大阪府,大阪市都島区,善源寺町２丁目２番８－３７０２号,,27,102,5340015,,,,,,,2023-09-11,1,,,,,ピンクバーベナ,0
1858,7120001257975,新規,0,2023-09-11,2023-09-11,株式会社ＤＱ,,株式会社,大阪府,守口市,南寺方東通５丁目１９番３０号,,27,209,5700043,,,,,,,2023-09-11,1,,,,,ディーキュー,0
1859,7120001257983,新規,0,2023-09-11,2023-09-11,株式会社ユカット,,株式会社,大阪府,大阪市北区,梅田１丁目１－３大阪駅前第３ビル２９階１－１－１号室,,27,127,5300001,,,,,,,2023-09-11,1,,,,,ユカット,0
1860,7120001257991,新規,0,2023-09-11,2023-09-11,株式会社ＫＯＫＯ‐Ａｒｃｈｉｔｅｃｔ,,株式会社,大阪府,大阪市西区,新町３丁目１番地１７－３１９号,,27,106,5500013,,,,,,,2023-09-11,1,,,,,ココアーキテクト,0
1861,7120001258115,新規,0,2023-09-11,2023-09-11,株式会社アールツー,,株式会社,大阪府,大阪市東住吉区,湯里６丁目２番２９－８０３号,,27,121,5460013,,,,,,,2023-09-11,1,,,,,アールツー,0
1863,7120003024829,新規,0,2023-09-11,2023-09-11,合同会社エコーズ,,合同会社,大阪府,枚方市,養父丘２丁目３番３２号,,27,210,5731134,,,,,,,2023-09-11,1,,,,,エコーズ,0
1864,7120003024845,新規,0,2023-09-11,2023-09-11,ＪＳ合同会社,,合同会社,大阪府,大阪市浪速区,難波中３丁目１６番１１号ニュー難波ビル新館,,27,111,5560011,,,,,,,2023-09-11,1,,,,,ジェイエス,0
1865,7120003024861,新規,0,2023-09-11,2023-09-11,合同会社マリシテン,,合同会社,大阪府,大阪市中央区,谷町４丁目８番１２－３０３号,,27,128,5400012,,,,,,,2023-09-11,1,,,,,マリシテン,0
1870,7120105009760,新規,0,2023-09-11,2023-09-11,社会福祉法人やすらぎ会,,その他の設立登記法人,大阪府,河内長野市,木戸１丁目３１番２５号,,27,216,5860001,,,,,,,2023-09-11,1,,,,,ヤスラギカイ,0
1881,7130005016880,新規,0,2023-09-11,2023-09-11,一般財団法人能登の国水上不動会,,その他の設立登記法人,京都府,京都市右京区,嵯峨広沢御所ノ内町４３番地の９,,26,108,6168305,,,,,,,2023-09-11,1,,,,,,0
1890,7140001131402,新規,0,2023-09-11,2023-09-11,ユーアイフィールド株式会社,,株式会社,兵庫県,姫路市,夢前町高長３８９番地,,28,201,6712117,,,,,,,2023-09-11,1,,,,,ユーアイフィールド,0
1891,7140001131526,新規,0,2023-09-11,2023-09-11,株式会社石田建設,,株式会社,兵庫県,神戸市垂水区,霞ヶ丘２丁目８番７号,,28,108,6550039,,,,,,,2023-09-11,1,,,,,イシダケンセツ,0
1892,7140001131550,新規,0,2023-09-11,2023-09-11,カーレッジ・エステート株式会社,,株式会社,兵庫県,伊丹市,森本４丁目１５２番地,,28,207,6640842,,,,,,,2023-09-11,1,,,,,カーレッジエステート,0
1897,7140003019521,新規,0,2023-09-11,2023-09-11,合同会社クラウドトップ,,合同会社,兵庫県,宝塚市,雲雀丘３丁目７番２７号,,28,214,6650805,,,,,,,2023-09-11,1,,,,,クラウドトップ,0
1899,7150001026709,新規,0,2023-09-11,2023-09-11,株式会社Ｂ‐ＭＡＳＨ,,株式会社,奈良県,橿原市,新口町２３６番地の８,,29,205,6340802,,,,,,,2023-09-11,1,,,,,ビーマッシュ,0
1900,7150003003061,新規,0,2023-09-11,2023-09-11,合同会社エンドワン,,合同会社,奈良県,奈良市,宝来３丁目６番５号,,29,201,6310845,,,,,,,2023-09-11,1,,,,,エンドワン,0
1910,7180001157922,新規,0,2023-09-11,2023-09-11,カトウホールディングス株式会社,,株式会社,愛知県,あま市,七宝町沖之島上折３９番地,,23,237,4970001,,,,,,,2023-09-11,1,,,,,カトウホールデイングス,0
1918,7190003004428,新規,0,2023-09-11,2023-09-11,合同会社ＳＯＫＥＮ,,合同会社,三重県,桑名市,千代田町４６番地,,24,205,5110058,,,,,,,2023-09-11,1,,,,,ソーケン,0
1919,7190003004436,新規,0,2023-09-11,2023-09-11,合同会社Ｍ．Ｓ．Ｔ,,合同会社,三重県,四日市市,羽津中１丁目５番１５－４号,,24,202,5100002,,,,,,,2023-09-11,1,,,,,エムエスティー,0
1922,7200001041702,新規,0,2023-09-11,2023-09-11,株式会社ｅ‐プランニング,,株式会社,岐阜県,岐阜市,茜部野瀬１丁目４３番地,,21,201,5008283,,,,,,,2023-09-11,1,,,,,イープランニング,0
1932,7260001038305,新規,0,2023-09-11,2023-09-11,山陽サプライ株式会社,,株式会社,岡山県,岡山市東区,可知５丁目１３０番１６号,,33,103,7048173,,,,,,,2023-09-11,1,,,,,サンヨウサプライ,0
1943,7290001102826,新規,0,2023-09-11,2023-09-11,株式会社おもてなしラボ,,株式会社,福岡県,福岡市中央区,小笹３丁目９番２７－１４０１号,,40,133,8100033,,,,,,,2023-09-11,1,,,,,オモテナシラボ,0
1944,7290001102982,新規,0,2023-09-11,2023-09-11,株式会社ＫＧＳ,,株式会社,福岡県,筑後市,大字前津１６４９番地１,,40,211,8330002,,,,,,,2023-09-11,1,,,,,ケージーエス,0
1948,7290003014350,新規,0,2023-09-11,2023-09-11,合同会社ＨＡＣ,,合同会社,福岡県,福岡市博多区,博多駅前４丁目１１番１０号ダイアパレス博多４０３号,,40,132,8120011,,,,,,,2023-09-11,1,,,,,エイチエイシー,0
1949,7290801029863,新規,0,2023-09-11,2023-09-11,株式会社Ａｌｗａｙｓ,,株式会社,福岡県,北九州市八幡西区,木屋瀬４丁目１６番３６号,,40,109,8071261,,,,,,,2023-09-11,1,,,,,オールウェイズ,0
1964,7350005006174,新規,0,2023-09-11,2023-09-11,サンライズワールド協同組合,,その他の設立登記法人,宮崎県,宮崎市,大字熊野４８８番地１,,45,201,8892151,,,,,,,2023-09-11,1,,,,,サンライズワールド,0
1966,7360001032529,新規,0,2023-09-11,2023-09-11,株式会社真光,,株式会社,沖縄県,中頭郡中城村,字南上原５２５番地２,,47,328,9012424,,,,,,,2023-09-11,1,,,,,シンコウ,0
1967,7360001032537,新規,0,2023-09-11,2023-09-11,株式会社ｍｉｎｏ,,株式会社,沖縄県,宜野湾市,大謝名５丁目１１番１５号,,47,205,9012225,,,,,,,2023-09-11,1,,,,,ミノ,0
1972,7370001050406,新規,0,2023-09-11,2023-09-11,株式会社Ｋ’ｓ　Ｐｌａｎｎｉｎｇ,,株式会社,宮城県,塩竈市,後楽町１０－１,,04,203,9850067,,,,,,,2023-09-11,1,,,,,ケーズプランニング,0
1993,7500001025179,新規,0,2023-09-11,2023-09-11,株式会社ＮＭ,,株式会社,愛媛県,喜多郡内子町,内子１０９４番地,,38,422,7913301,,,,,,,2023-09-11,1,,,,,エヌエム,0
1994,7500001025187,新規,0,2023-09-11,2023-09-11,株式会社永田,,株式会社,愛媛県,松山市,小坂５丁目１０番２４号,,38,201,7900963,,,,,,,2023-09-11,1,,,,,ナガタ,0
1995,7700150120066,新規,0,2023-09-11,2023-09-11,ｚｈｅｎｇｚｈｏｕｋｅｚａｎｘｉｎｘｉｋｅｊｉｙｏｕｘｉａｎｇｏｎｇｓｉ,,外国会社等,,,,,,,,ｊｉｎｓｈｕｉｑｕｈｏｎｇｘｉａｎｇｌｕ２９ｈａｏ　１２ｈａｏｌｏｕ２ｄａｎｙｕａｎ５ｃｅｎｇ９１ｈａｏ　ｚｈｅｎｇｚｈｏｕ　ｈｅｎａｎ　４５００００,,,,,,2023-09-11,1,,,,,ジョンジョウコーザンシンシーコージーヨウシエンゴンスー,0
1996,7700150120074,新規,0,2023-09-11,2023-09-11,ＰＩＮＧＹＡＮＧＸＩＡＮＬＩＡＮＥＲＤＩＡＮＺＩＳＨＡＮＧＷＵＹＯＵＸＩＡＮＧＯＮＧＳＩ,,外国会社等,,,,,,,,ＰｉｎｇＹａｎｇＧａｏＳｕＣｈｕＫｏｕＳｈｏｕＦｅｉＺｈａｎＤｏｎｇＣｅ１００Ｍｉ（ＴｕｏＧｕａｎ３３Ｈａｏ）ＷｅｎＺｈｏｕＳｈｉ　ＺｈｅＪｉａｎｇＳｈｅｎｇ　３２５４００　ＣＮ,,,,,,2023-09-11,1,,,,,ピンヤンシエンリエンアーディエンズーシャンウーヨウシエンゴンスー,0
1997,7700150120082,新規,0,2023-09-11,2023-09-11,Ｈａｎｇｚｈｏｕ　Ｒｕｎｚｅｓｉ　Ｔｒａｄｅ　Ｃｏ．，Ｌｔｄ,,外国会社等,,,,,,,,２ｎｄ　Ｆｌｏｏｒ，Ｂｕｉｌｄｉｎｇ　２，Ｎｏ．１２８　Ｘｉａｘｉａｎｆａｎ，Ｌｉｎｇｘｉ　Ｖｉｌｌａｇｅ，Ｂａｎｑｉａｏ　Ｔｏｗｎ，Ｌｉｎａｎ，Ｈａｎｇｚｈｏｕ，Ｚｈｅｊｉａｎｇ　Ｐｒｏｖｉｎｃｅ,,,,,,2023-09-11,1,,,,,ハンジョウルンゾースーマオイーヨウシエンゴンスー,0
1998,7700150120090,新規,0,2023-09-11,2023-09-11,ｊｉａｎｇｓｕｅｒｌａｎｇｓｈｅｎｓｕｙｅ　ｙｏｕｘｉａｎｇｏｎｇｓｉ,,外国会社等,,,,,,,,ｊｉａｎｇｄｕｑｕｄａｑｉａｏｚｈｅｎｚｈｏｎｇｘｉａｏｑｉｙｅｙｕａｎ，ｙａｎｇｚｈｏｕ　ｊｉａｎｇｓｕ　Ｃｈｉｎａ,,,,,,2023-09-11,1,,,,,ジャンスジロウシンスイエユウゲンコウシ,0
1999,7700150120099,新規,0,2023-09-11,2023-09-11,Ｇｕｏｇｅ（Ｂｅｉｊｉｎｇ）Ｔｅｃｈｎｏｌｏｇｙ　Ｃｏ．，Ｌｔｄ,,外国会社等,,,,,,,,０－１９０６，１６ｔｈ　Ｆｌｏｏｒ，Ｏｆｆｉｃｅ　Ｂｕｉｌｄｉｎｇ，Ｙｉ　Ｎｏ．１２，Ｃｈａｏｗａｉ　Ｓｔｒｅｅｔ，Ｃｈａｏｙａｎｇ　Ｄｉｓｔｒｉｃｔ　Ｂｅｉｊｉｎｇ，ＣＨＩＮＡ,,,,,,2023-09-11,1,,,,,ゴオゲペキンテクノロジーカンパニーリミテッド,0
2005,8010001238226,新規,0,2023-09-11,2023-09-11,Ａｎｄ　Ｂｙ　Ｃｏｍｐａｎｙ株式会社,,株式会社,東京都,中央区,日本橋小伝馬町１６－５Ｓ－ＴＯＫＹＯ３Ｆ,,13,102,1030001,,,,,,,2023-09-11,1,,,,,アンドバイカンパニー,0
2006,8010001238325,新規,0,2023-09-11,2023-09-11,ＮＷＪ株式会社,,株式会社,東京都,中央区,日本橋堀留町１丁目６番３－４０５号,,13,102,1030012,,,,,,,2023-09-11,1,,,,,エヌダブルジェイ,0
2007,8010001238374,新規,0,2023-09-11,2023-09-11,株式会社Ｏｒｔｏｐｅｄｉａ,,株式会社,東京都,中央区,銀座７丁目１３番６号サガミビル２階,,13,102,1040061,,,,,,,2023-09-11,1,,,,,オルトペディア,0
2008,8010001238390,新規,0,2023-09-11,2023-09-11,株式会社ＴＭＴｅｃｈｎｏｌｏｇｙ,,株式会社,東京都,千代田区,神田和泉町１番地６－１６ヤマトビル４０５,,13,101,1010024,,,,,,,2023-09-11,1,,,,,ティーエムテクノロジー,0
2009,8010003041628,新規,0,2023-09-11,2023-09-11,ＮＥＸＴ合同会社,,合同会社,東京都,中央区,銀座１丁目１２番４号Ｎ＆ＥＢＬＤ．６Ｆ,,13,102,1040061,,,,,,,2023-09-11,1,,,,,ネキスト,0
2019,8010401176950,新規,0,2023-09-11,2023-09-11,株式会社ＡＲＫ　ＮＥＷ,,株式会社,東京都,港区,港南３丁目５番１２号,,13,103,1080075,,,,,,,2023-09-11,1,,,,,アークニュー,0
2020,8010401177049,新規,0,2023-09-11,2023-09-11,ドキドキトラベル株式会社,,株式会社,東京都,港区,東麻布１丁目２３番５号ＰＭＣビル２Ｆ,,13,103,1060044,,,,,,,2023-09-11,1,,,,,ドキドキトラベル,0
2021,8010401177057,新規,0,2023-09-11,2023-09-11,株式会社マーベリック,,株式会社,東京都,港区,六本木６丁目１２番２－１７０８号,,13,103,1060032,,,,,,,2023-09-11,1,,,,,マーベリック,0
2022,8010403030890,新規,0,2023-09-11,2023-09-11,Ｓｏｌｕｔｉｏｎ‐Ｘ合同会社,,合同会社,東京都,港区,南青山２丁目２－１５,,13,103,1070062,,,,,,,2023-09-11,1,,,,,ソリューションエックス,0
2024,8010405022449,新規,0,2023-09-11,2023-09-11,行政書士法人六本木の杜,,その他の設立登記法人,東京都,港区,六本木６丁目１番２０号４階,,13,103,1060032,,,,,,,2023-09-11,1,,,,,ロッポンギノモリ,0
2028,8010801034295,新規,0,2023-09-11,2023-09-11,株式会社カマタ,,株式会社,東京都,大田区,西蒲田７丁目１２番２号,,13,111,1440051,,,,,,,2023-09-11,1,,,,,カマタ,0
2029,8010803004668,新規,0,2023-09-11,2023-09-11,合同会社ＣＯＬＯＲ　ＮＡＴＵＲＥ,,合同会社,東京都,大田区,池上７丁目３０番６号ヴィラフォレス３０１,,13,111,1460082,,,,,,,2023-09-11,1,,,,,カラーネイチャー,0
2032,8010903008437,新規,0,2023-09-11,2023-09-11,ｔｈｅ　ｃｏｕｒａｇｅ合同会社,,合同会社,東京都,世田谷区,若林５丁目３３番２５パレ・ホームズ三軒茶屋西１０１号,,13,112,1540023,,,,,,,2023-09-11,1,,,,,,0
2033,8011001156830,新規,0,2023-09-11,2023-09-11,株式会社ＲＡＤＩＱ,,株式会社,東京都,目黒区,青葉台２丁目１０－１３ＣＯＣＯＯＮ,,13,110,1530042,,,,,,,2023-09-11,1,,,,,ラディック,0
2034,8011001156896,新規,0,2023-09-11,2023-09-11,株式会社ＳＩＲＯＩＲＯ,,株式会社,東京都,渋谷区,道玄坂１丁目２１番１号ＳＨＩＢＵＹＡＳＯＬＡＳＴＡ３Ｆ,,13,113,1500043,,,,,,,2023-09-11,1,,,,,シロイロ,0
2035,8011001156913,新規,0,2023-09-11,2023-09-11,株式会社Ｋ　ｃｒｅｗ,,株式会社,東京都,渋谷区,道玄坂１丁目１０番８号渋谷道玄坂東急ビル２Ｆ－Ｃ,,13,113,1500043,,,,,,,2023-09-11,1,,,,,ケークルー,0
2038,8011101104284,新規,0,2023-09-11,2023-09-11,和諾家株式会社,,株式会社,東京都,新宿区,西新宿７丁目２１－９－２０６号室,,13,104,1600023,,,,,,,2023-09-11,1,,,,,ワノタク,0
2039,8011105010776,新規,0,2023-09-11,2023-09-11,一般財団法人小佐野財団,,その他の設立登記法人,東京都,新宿区,新宿１丁目３１番１２号,,13,104,1600022,,,,,,,2023-09-11,1,,,,,オサノザイダン,0
2046,8011801043022,新規,0,2023-09-11,2023-09-11,株式会社Ｋ‐ＡＲＭＳ,,株式会社,東京都,足立区,一ツ家１丁目１８番９－５０３号,,13,121,1210075,,,,,,,2023-09-11,1,,,,,ケーアームズ,0
2047,8011805003294,新規,0,2023-09-11,2023-09-11,一般社団法人Ｈｅａｒｔ　ｆｏｒ,,その他の設立登記法人,東京都,葛飾区,青戸４丁目２番４－９０４号ＬａＤｏｕｃｅｕｒお花茶屋Ｉ,00131860,13,122,1250062,,,,,,,2023-09-11,1,,,,,ハートフォー,0
2048,8012403006169,新規,0,2023-09-11,2023-09-11,合同会社スタジオスワン,,合同会社,東京都,調布市,多摩川１丁目２２番地１グロリオスプラザ調布４１１号室,,13,208,1820025,,,,,,,2023-09-11,1,,,,,スタジオスワン,0
2064,8020001153440,新規,0,2023-09-11,2023-09-11,株式会社ＳＫテクノ,,株式会社,神奈川県,川崎市宮前区,宮崎１５３番地５ラシーネ宮崎台Ａ１０２,,14,136,2160033,,,,,,,2023-09-11,1,,,,,エスケイテクノ,0
2065,8020001153449,新規,0,2023-09-11,2023-09-11,株式会社ＤＥＷ,,株式会社,神奈川県,横浜市青葉区,たちばな台１丁目１７番地１６,,14,117,2270046,,,,,,,2023-09-11,1,,,,,デュー,0
2070,8020003024565,新規,0,2023-09-11,2023-09-11,グランブライトコンサルティング合同会社,,合同会社,神奈川県,横浜市中区,桜木町１丁目１０１番地１クロスゲート７階,,14,104,2310062,,,,,,,2023-09-11,1,,,,,グランブライトコンサルティング,0
2071,8020003024581,新規,0,2023-09-11,2023-09-11,合同会社ｅｉ,,合同会社,神奈川県,横浜市西区,北幸２丁目１０番地４８むつみビル３Ｆ,,14,103,2200004,,,,,,,2023-09-11,1,,,,,エイ,0
2077,8021001080096,新規,0,2023-09-11,2023-09-11,株式会社Ｎｏｍｕ　Ｌｉｆｅ,,株式会社,神奈川県,茅ヶ崎市,共恵１丁目１番５号ＢＬＤＮａｇａｓｈｉｍａ３階,,14,207,2530056,,,,,,,2023-09-11,1,,,,,ノムライフ,0
2078,8021001080121,新規,0,2023-09-11,2023-09-11,株式会社ＳＴポート,,株式会社,神奈川県,相模原市緑区,川尻４８３８番地,,14,151,2520111,,,,,,,2023-09-11,1,,,,,エスティーポート,0
2079,8021001080138,新規,0,2023-09-11,2023-09-11,株式会社ＫＤＳ,,株式会社,神奈川県,足柄上郡開成町,みなみ５丁目５番地２７,,14,366,2580029,,,,,,,2023-09-11,1,,,,,ケーディーエス,0
2080,8021001080146,新規,0,2023-09-11,2023-09-11,株式会社Ｌｅｏ,,株式会社,神奈川県,大和市,上和田１７６５番地７－１０１,,14,213,2420014,,,,,,,2023-09-11,1,,,,,レオ,0
2093,8030003022428,新規,0,2023-09-11,2023-09-11,合同会社雅エナジー,,合同会社,埼玉県,入間郡三芳町,大字藤久保２５１－１ナイスアーバン鶴瀬２１４,,11,324,3540041,,,,,,,2023-09-11,1,,,,,ミヤビエナジー,0
2094,8030005021386,新規,0,2023-09-11,2023-09-11,一般社団法人小江戸の花火,,その他の設立登記法人,埼玉県,川越市,大字大中居９５番地３,,11,201,3500021,,,,,,,2023-09-11,1,,,,,コエドノハナビ,0
2113,8040003023284,新規,0,2023-09-11,2023-09-11,合同会社リズム,,合同会社,千葉県,八街市,榎戸６８４番地５０ニッセキアパートメントＩＩＩ１０１,00131869,12,230,2891106,,,,,,,2023-09-11,1,,,,,リズム,0
2116,8050003007781,新規,0,2023-09-11,2023-09-11,合同会社Ｓａｃｈｉ　Ａｃｃｏｕｎｔｉｎｇ,,合同会社,茨城県,古河市,上辺見３８８番地２１,,08,204,3060234,,,,,,,2023-09-11,1,,,,,サチアカウンティング,0
2121,8070003005073,新規,0,2023-09-11,2023-09-11,ＶＡＮ　ＡＮＨ合同会社,,合同会社,群馬県,伊勢崎市,本町１８－６,,10,204,3720047,,,,,,,2023-09-11,1,,,,,ヴァンアイン,0
2124,8080101024206,新規,0,2023-09-11,2023-09-11,株式会社トータルメンテナンス,,株式会社,静岡県,沼津市,大諏訪６４５番地,,22,203,4100873,,,,,,,2023-09-11,1,,,,,トータルメンテナンス,0
2128,8100001036752,新規,0,2023-09-11,2023-09-11,ＴＯＩＳ株式会社,,株式会社,長野県,長野市,若穂川田１７９２番地２,,20,201,3810103,,,,,,,2023-09-11,1,,,,,トイズ,0
2138,8120001257867,新規,0,2023-09-11,2023-09-11,佐藤精密工業株式会社,,株式会社,大阪府,枚方市,高田１丁目３番３１－１０１号,,27,210,5730073,,,,,,,2023-09-11,1,,,,,サトウセイミツコウギョウ,0
2139,8120003024836,新規,0,2023-09-11,2023-09-11,シバ合同会社,,合同会社,大阪府,大阪市港区,池島１丁目１番２２－４０３号,,27,107,5520015,,,,,,,2023-09-11,1,,,,,シバ,0
2146,8120903004821,新規,0,2023-09-11,2023-09-11,合同会社有紀,,合同会社,大阪府,豊中市,庄内栄町２丁目２番６号,,27,203,5610834,,,,,,,2023-09-11,1,,,,,ユウキ,0
2147,8122001037349,新規,0,2023-09-11,2023-09-11,株式会社春夏秋冬,,株式会社,大阪府,八尾市,高美町３丁目１番４８号,,27,212,5810017,,,,,,,2023-09-11,1,,,,,ヒトトセ,0
2149,8122003002664,新規,0,2023-09-11,2023-09-11,合同会社叶和,,合同会社,大阪府,東大阪市,大蓮北３丁目７番２４号,00131863,27,227,5770826,,,,,,,2023-09-11,1,,,,,キョウワ,0
2165,8140001131500,新規,0,2023-09-11,2023-09-11,株式会社ｕｌｕ　ａｎｅｌａ,,株式会社,兵庫県,姫路市,青山北２丁目１４番２０号,,28,201,6712221,,,,,,,2023-09-11,1,,,,,ウルアネラ,0
2166,8140001131525,新規,0,2023-09-11,2023-09-11,株式会社エスオースタイル,,株式会社,兵庫県,芦屋市,大東町８番５－３０９号,,28,206,6590023,,,,,,,2023-09-11,1,,,,,エスオースタイル,0
2173,8140003019529,新規,0,2023-09-11,2023-09-11,合同会社ライト,,合同会社,兵庫県,加西市,坂本町６７９―１,,28,220,6752222,,,,,,,2023-09-11,1,,,,,ライト,0
2177,8160001025337,新規,0,2023-09-11,2023-09-11,ＳＭ　ＮＥＴ　ＷＯＲＫ株式会社,,株式会社,滋賀県,近江八幡市,馬淵町１６６４番地１１,,25,204,5230022,,,,,,,2023-09-11,1,,,,,エスエムネットワーク,0
2178,8160003002986,新規,0,2023-09-11,2023-09-11,合同会社エンジェル,,合同会社,滋賀県,大津市,衣川１丁目２１番８－１０１号,,25,201,5200244,,,,,,,2023-09-11,1,,,,,エンジェル,0
2187,8180001157979,新規,0,2023-09-11,2023-09-11,株式会社ＮＡＲＵＴＯ,,株式会社,愛知県,名古屋市中区,錦２丁目９番６号,,23,106,4600003,,,,,,,2023-09-11,1,,,,,ナルト,0
2188,8180001157995,新規,0,2023-09-11,2023-09-11,株式会社正鵠社,,株式会社,愛知県,名古屋市中区,新栄２丁目１３番３号,,23,106,4600007,,,,,,,2023-09-11,1,,,,,セイコウシャ,0
2189,8180001158003,新規,0,2023-09-11,2023-09-11,株式会社ＥＩＨＡＮ,,株式会社,愛知県,名古屋市東区,大幸４丁目１６番１号,,23,102,4610043,,,,,,,2023-09-11,1,,,,,エイハン,0
2198,8200001041701,新規,0,2023-09-11,2023-09-11,株式会社Ｄ‐ＳＴＡＧＥ,,株式会社,岐阜県,多治見市,西坂町２丁目２８０番地,,21,204,5070051,,,,,,,2023-09-11,1,,,,,ディーステージ,0
2207,8230001020009,新規,0,2023-09-11,2023-09-11,イワキ商事株式会社,,株式会社,富山県,富山市,西公文名町４番１３号,,16,201,9398003,,,,,,,2023-09-11,1,,,,,イワキショウジ,0
2220,8260001038304,新規,0,2023-09-11,2023-09-11,株式会社ＮＡＬＵ,,株式会社,岡山県,岡山市北区,清心町１７番３２号リベール清心町３０２号室,,33,101,7000027,,,,,,,2023-09-11,1,,,,,ナル,0
2221,8260001038312,新規,0,2023-09-11,2023-09-11,フードコミュニケーションズＡＯＹＡＭＡ株式会社,,株式会社,岡山県,岡山市北区,南中央町１１番２４号,,33,101,7000837,,,,,,,2023-09-11,1,,,,,フードコミュニケーションズアオヤマ,0
2236,8310005008702,新規,0,2023-09-11,2023-09-11,一般社団法人かわたな夢キッズ,,その他の設立登記法人,長崎県,東彼杵郡川棚町,白石郷３番地２７町営新町団地ＡＣ棟７号,,42,322,8593616,,,,,,,2023-09-11,1,,,,,カワタナユメキッズ,0
2238,8320001019999,新規,0,2023-09-11,2023-09-11,株式会社Ｇｌｏｂａｌ　Ｗｅｂ　Ｄｅｓｉｇｎ,,株式会社,大分県,国東市,国東町田深１６５６番地,,44,214,8730502,,,,,,,2023-09-11,1,,,,,グローバルウェブデザイン,0
2239,8340001005543,新規,0,2023-09-11,2023-09-11,株式会社有園,,株式会社,鹿児島県,日置市,吹上町湯之浦１１９４番地４,,46,216,8993303,,,,,,,2023-09-11,1,,,,,ユウエン,0
2241,8340001025888,新規,0,2023-09-11,2023-09-11,株式会社マキゾノクレーン,,株式会社,鹿児島県,霧島市,国分清水１丁目４番５２－４号,,46,218,8994304,,,,,,,2023-09-11,1,,,,,マキゾノクレーン,0
2251,8390003002138,新規,0,2023-09-11,2023-09-11,合同会社坪田興業,,合同会社,山形県,米沢市,成島町１丁目６番７１－８号さくらんぼハイツ１０１号室,,06,202,9920057,,,,,,,2023-09-11,1,,,,,ツボタコウギョウ,0
2259,8430001089940,新規,0,2023-09-11,2023-09-11,株式会社カムイプロジェクト,,株式会社,北海道,札幌市手稲区,新発寒三条４丁目１番７号,,01,109,0060803,,,,,,,2023-09-11,1,,,,,カムイプロジェクト,0
2263,8470001019794,新規,0,2023-09-11,2023-09-11,株式会社斉田地所,,株式会社,香川県,高松市,高松町２５５２番地２,,37,201,7610104,,,,,,,2023-09-11,1,,,,,サイタヂショ,0
2269,8500001025178,新規,0,2023-09-11,2023-09-11,山壱林業株式会社,,株式会社,愛媛県,北宇和郡鬼北町,大字奈良２８７６番地,,38,488,7981351,,,,,,,2023-09-11,1,,,,,ヤマイチリンギョウ,0
2272,8500003003099,新規,0,2023-09-11,2023-09-11,合同会社ケンテック,,合同会社,愛媛県,大洲市,五郎甲１４番地２,,38,207,7950051,,,,,,,2023-09-11,1,,,,,ケンテック,0
2273,8700150120065,新規,0,2023-09-11,2023-09-11,ｂｅｉｊｉｎｇｆｅｉｍｉｋｅｊｉｙｏｕｘｉａｎｇｏｎｇｓｉ,,外国会社等,,,,,,,,ｂｅｉｊｉｎｇｓｈｉｈａｉｄｉａｎｑｕｑｉｎｇｈｅｙｏｎｇｔａｉｙｕａｎｊｉａ１ｈａｏｚｏｎｇｈｅｌｏｕ２ｃｅｎｇ２１８,,,,,,2023-09-11,1,,,,,ベイジンフェイミーコージーヨウシエンゴンスー,0
2274,8700150120073,新規,0,2023-09-11,2023-09-11,ｇｕａｎｇｚｈｏｕｚｈｕａｎｇｓｉｍａｏｙｉｙｏｕｘｉａｎｇｏｎｇｓｉ,,外国会社等,,,,,,,,Ｇｕａｎｇｚｈｏｕｓｈｉ　ｙｕｅｘｉｕｑｕｎｏｎｇｌｉｎｘｉａｌｕ８１ｈａｏｚｈｉｙｉ１９Ｂ、１９Ｃ、１９Ｄ、１９Ｅ、１９Ｆ１－Ａ５,,,,,,2023-09-11,1,,,,,グワンジョウジュワンスーマオイーヨウシエンゴンスー,0
2275,8700150120081,新規,0,2023-09-11,2023-09-11,ＦｕｚｈｏｕｘｉｎｇｙｏｕｘｉｎｗａｎｇｌｕｏｋｅＪｉｙｏｕｘｉａｎｇｏｎｇｓｉ,,外国会社等,,,,,,,,Ｔａｉｊｉａｎｇｑｕｈｏｕｚｈｏｕｊｉｅｄａｏｓａｎｔｏｎｇｌｕ１３ｈａｏｚｈｏｎｇｔｉｎｇｊｉｅ　Ｇａｉｚｈａｏｊｉａｈｅｙｕａｎｌｉａｎｔｉｂｕｆｅｎ１ｃｅｎｇ２５ｄｉａｎｍｉａｎ　Ｆｕｚｈｏｕ　Ｆｕｊｉａｎ　３５０００１　ＣＮ,,,,,,2023-09-11,1,,,,,フージョウシンヨウシンワンルオコージーヨウシエンゴンスー,0
2276,8700150120098,新規,0,2023-09-11,2023-09-11,ＳＨＥＮＺＨＥＮＳＨＩ　ＡＩＷＥＩＳＩＪＵＮ　ＤＩＡＮＺＩＳＨＡＮＧＷＵ　ＹＯＵＸＩＡＮＧＯＮＧＳＩ,,外国会社等,,,,,,,,ＳｈｅｎＺｈｅｎＳｈｉＬｏｎｇＧａｎｇＱｕＬｏｎｇＧａｎｇＪｉｅＤａｏＪｉｎＤｉＬｏｎｇＣｈｅｎｇＺｈｏｎｇＹａｎｇ９Ｄｏｎｇ４１６　Ｃｈｉｎａ,,,,,,2023-09-11,1,,,,,シンセンシアイウェイスジュンデンシショウムユウゲンコウシ,0
2286,9010001238282,新規,0,2023-09-11,2023-09-11,Ｔｈｅｏｒｉａ　ｔｅｃｈｎｏｌｏｇｉｅｓ株式会社,,株式会社,東京都,文京区,小石川４丁目６番１０号,,13,105,1120002,,,,,,,2023-09-11,1,,,,,テオリアテクノロジーズ,0
2288,9010003041619,新規,0,2023-09-11,2023-09-11,ＳａｍｕｒａｉＡｇｅｎｃｙ合同会社,,合同会社,東京都,中央区,日本橋室町１丁目１１番１２号日本橋水野ビル７Ｆ,,13,102,1030022,,,,,,,2023-09-11,1,,,,,サムライエージェンシー,0
2290,9010101015813,新規,0,2023-09-11,2023-09-11,ヨクスルワークス株式会社,,株式会社,東京都,八王子市,楢原町６４０－４,,13,201,1930803,,,,,,,2023-09-11,1,,,,,ヨクスルワークス,0
2293,9010103002207,新規,0,2023-09-11,2023-09-11,永盛合同会社,,合同会社,東京都,八王子市,明神町１丁目２２－１３メゾン・ドノア明神町５０７号室,,13,201,1920046,,,,,,,2023-09-11,1,,,,,ナガモリ,0
2297,9010401177007,新規,0,2023-09-11,2023-09-11,株式会社Ｖｅｒｇｉｌ,,株式会社,東京都,港区,赤坂２丁目２３番１号,,13,103,1070052,,,,,,,2023-09-11,1,,,,,ヴァージル,0
2298,9010401177015,新規,0,2023-09-11,2023-09-11,株式会社プレミアヒルズ,,株式会社,東京都,港区,六本木７丁目１５番１３号六本木ダイヤハイツ５１３号室,,13,103,1060032,,,,,,,2023-09-11,1,,,,,プレミアヒルズ,0
2299,9010401177048,新規,0,2023-09-11,2023-09-11,Ｘ‐ｃｌｏｕｄ株式会社,,株式会社,東京都,港区,南青山３丁目１番３６号青山丸竹ビル６Ｆ,,13,103,1070062,,,,,,,2023-09-11,1,,,,,エックスクラウド,0
2300,9010401177056,新規,0,2023-09-11,2023-09-11,株式会社カカムーチョ,,株式会社,東京都,港区,六本木６丁目１２番２－１７０８号,,13,103,1060032,,,,,,,2023-09-11,1,,,,,カカムーチョ,0
2301,9010401177064,新規,0,2023-09-11,2023-09-11,ラクシェ株式会社,,株式会社,東京都,港区,浜松町１丁目２０番５号,,13,103,1050013,,,,,,,2023-09-11,1,,,,,ラクシェ,0
2302,9010401177080,新規,0,2023-09-11,2023-09-11,ＰＲＩＭＡＬ株式会社,,株式会社,東京都,港区,赤坂１丁目１２番３２号,,13,103,1070052,,,,,,,2023-09-11,1,,,,,プライマル,0
2303,9010401177122,新規,0,2023-09-11,2023-09-11,株式会社ブライトナビ,,株式会社,東京都,港区,芝３丁目１６番５号,,13,103,1050014,,,,,,,2023-09-11,1,,,,,ブライトナビ,0
2304,9010403030865,新規,0,2023-09-11,2023-09-11,合同会社ＭＩＲＡＩＴＯ,,合同会社,東京都,港区,虎ノ門１丁目１１番５号森谷ビル３階,,13,103,1050001,,,,,,,2023-09-11,1,,,,,ミライトウ,0
2306,9010501051012,新規,0,2023-09-11,2023-09-11,株式会社オーバーザレインボウ,,株式会社,東京都,台東区,千束３丁目１６番１号,,13,106,1110031,,,,,,,2023-09-11,1,,,,,オーバーザレインボウ,0
2308,9010603010353,新規,0,2023-09-11,2023-09-11,合同会社ＭＬＩＮＫＳ,,合同会社,東京都,墨田区,江東橋２丁目６番９号ＨＢ錦糸町ビル４階,,13,107,1300022,,,,,,,2023-09-11,1,,,,,エムリンクス,0
2309,9010701044831,新規,0,2023-09-11,2023-09-11,リトック・エレクトリック・デバイセズ株式会社,,株式会社,東京都,品川区,西五反田１丁目２６番２号五反田サンハイツ９１１,,13,109,1410031,,,,,,,2023-09-11,1,,,,,リトックエレクトリックデバイセズ,0
2315,9010901053780,新規,0,2023-09-11,2023-09-11,セタガヤパーク株式会社,,株式会社,東京都,世田谷区,玉川台１丁目５番８号,,13,112,1580096,,,,,,,2023-09-11,1,,,,,セタガヤパーク,0
2316,9010903008436,新規,0,2023-09-11,2023-09-11,合同会社カラフる,,合同会社,東京都,世田谷区,深沢１丁目２８番４号,,13,112,1580081,,,,,,,2023-09-11,1,,,,,,0
2322,9011001156821,新規,0,2023-09-11,2023-09-11,トップランナー株式会社,,株式会社,東京都,目黒区,青葉台３丁目５番６号オパス青葉台２０１,,13,110,1530042,,,,,,,2023-09-11,1,,,,,トップランナー,0
2324,9011003017492,新規,0,2023-09-11,2023-09-11,合同会社ｈｉｋａｂｏ,,合同会社,東京都,渋谷区,道玄坂１丁目１６－６二葉ビル８ｂ,,13,113,1500043,,,,,,,2023-09-11,1,,,,,ヒカボ,0
2325,9011003017526,新規,0,2023-09-11,2023-09-11,合同会社井の頭,,合同会社,東京都,渋谷区,道玄坂１丁目１０番８号渋谷道玄坂東急ビル２Ｆ－Ｃ,,13,113,1500043,,,,,,,2023-09-11,1,,,,,イノカシラ,0
2331,9011101104267,新規,0,2023-09-11,2023-09-11,株式会社Ｒｅａｌｉｚｅ　Ｕｎｉｔｅｄ,,株式会社,東京都,新宿区,西新宿３丁目３－１３－６Ｆ,,13,104,1600023,,,,,,,2023-09-11,1,,,,,リアライズユナイテッド,0
2332,9011101104300,新規,0,2023-09-11,2023-09-11,ＯＭＧ株式会社,,株式会社,東京都,新宿区,西新宿３丁目３番１３号西新宿水間ビル２階,,13,104,1600023,,,,,,,2023-09-11,1,,,,,オエムジ,0
2333,9011101104309,新規,0,2023-09-11,2023-09-11,株式会社ＴＩＮＭＡＮ,,株式会社,東京都,新宿区,新宿１丁目７番１０－９０２号,,13,104,1600022,,,,,,,2023-09-11,1,,,,,ティンマン,0
2336,9011103013458,新規,0,2023-09-11,2023-09-11,Ｃａｌｌｉｓｔｏ合同会社,,合同会社,東京都,新宿区,袋町２５ＴＳ袋町,,13,104,1620828,,,,,,,2023-09-11,1,,,,,カリスト,0
2337,9011103013474,新規,0,2023-09-11,2023-09-11,ブルーブラザーズ合同会社,,合同会社,東京都,新宿区,若葉２丁目１１－３－５０２,,13,104,1600011,,,,,,,2023-09-11,1,,,,,ブルーブラザーズ,0
2342,9011403004108,新規,0,2023-09-11,2023-09-11,合同会社Ｍ＆Ｏ,,合同会社,東京都,板橋区,大原町８番４号ロンサールＡ棟Ａ４,,13,119,1740061,,,,,,,2023-09-11,1,,,,,エムアンドオー,0
2343,9011405002258,新規,0,2023-09-11,2023-09-11,医療法人社団花青会,,その他の設立登記法人,東京都,板橋区,大山東町３２番１６－２０１号エスティメゾン板橋Ｃ６,,13,119,1730014,,,,,,,2023-09-11,1,,,,,カセイカイ,0
2347,9011501029758,新規,0,2023-09-11,2023-09-11,私の株式会社,,株式会社,東京都,北区,志茂２丁目６４番１４号,,13,117,1150042,,,,,,,2023-09-11,1,,,,,ワタシノ,0
2357,9011701026563,新規,0,2023-09-11,2023-09-11,株式会社ＥＴＪＰ　Ｌｏｇｉｓｔｉｃｓ,,株式会社,東京都,江戸川区,南小岩２丁目１７番１４号,,13,123,1330056,,,,,,,2023-09-11,1,,,,,イーテージェイピーロジスティクス,0
2360,9011801043021,新規,0,2023-09-11,2023-09-11,株式会社ＭＪ,,株式会社,東京都,足立区,花畑２丁目１７番７号マスターピース２０２号室,,13,121,1210061,,,,,,,2023-09-11,1,,,,,エムジェー,0
2364,9020001153431,新規,0,2023-09-11,2023-09-11,株式会社ＧＳＥネクスト,,株式会社,神奈川県,横浜市保土ケ谷区,桜ケ丘２丁目５２番１８号ＪＬＢグランエクリュ桜ヶ丘１０２号室,,14,106,2400011,,,,,,,2023-09-11,1,,,,,ジーエスイーネクスト,0
2369,9020003024564,新規,0,2023-09-11,2023-09-11,ＶＴＴＣ合同会社,,合同会社,神奈川県,川崎市川崎区,渡田向町７番４－４０５号マルトミ渡田向町,,14,131,2100841,,,,,,,2023-09-11,1,,,,,ヴィティーティーシー,0
2370,9020003024580,新規,0,2023-09-11,2023-09-11,ｗｉｄｅｎ合同会社,,合同会社,神奈川県,横浜市西区,浅間町１丁目４番３号ウィザードビル４０２,,14,103,2200072,,,,,,,2023-09-11,1,,,,,ワイデン,0
2371,9021001080120,新規,0,2023-09-11,2023-09-11,ＲｅＶＯＬＴ株式会社,,株式会社,神奈川県,海老名市,東柏ケ谷６丁目１５番６－２号,,14,215,2430401,,,,,,,2023-09-11,1,,,,,リボルト,0
2372,9021001080129,新規,0,2023-09-11,2023-09-11,Ｓｈａｍｒｏｃｋ株式会社,,株式会社,神奈川県,茅ヶ崎市,浜須賀８番３５－１２号,,14,207,2530035,,,,,,,2023-09-11,1,,,,,シャムロック,0
2373,9021001080137,新規,0,2023-09-11,2023-09-11,株式会社まつばら,,株式会社,神奈川県,三浦市,南下浦町上宮田３２５３,,14,210,2380101,,,,,,,2023-09-11,1,,,,,マツバラ,0
2374,9021003013549,新規,0,2023-09-11,2023-09-11,合同会社ワンコ薬膳,,合同会社,神奈川県,鎌倉市,笛田５丁目３６番２３号,,14,204,2480027,,,,,,,2023-09-11,1,,,,,ワンコヤクゼン,0
2384,9030001155848,新規,0,2023-09-11,2023-09-11,株式会社アイセージ,,株式会社,埼玉県,さいたま市見沼区,東大宮７丁目５０番地７,,11,104,3370051,,,,,,,2023-09-11,1,,,,,アイセージ,0
2388,9030003022492,新規,0,2023-09-11,2023-09-11,合同会社ＡＨｏｕｓｅ,,合同会社,埼玉県,さいたま市岩槻区,諏訪５丁目４番地１１,,11,110,3390007,,,,,,,2023-09-11,1,,,,,エーハウス,0
2407,9040003023283,新規,0,2023-09-11,2023-09-11,合同会社セカンド,,合同会社,千葉県,八街市,榎戸６８４番地５０ニッセキアパートメントＩＩＩ１０１,00131862,12,230,2891106,,,,,,,2023-09-11,1,,,,,セカンド,0
2413,9050001053430,新規,0,2023-09-11,2023-09-11,株式会社職人舎伊織,,株式会社,茨城県,神栖市,矢田部７７９３番地４５,,08,232,3140341,,,,,,,2023-09-11,1,,,,,ショクニンシャイオリ,0
2414,9050001053447,新規,0,2023-09-11,2023-09-11,株式会社インターブリッジサポート,,株式会社,茨城県,ひたちなか市,大字武田８３５番地２１,,08,221,3120025,,,,,,,2023-09-11,1,,,,,インターブリッジサポート,0
2415,9060001036310,新規,0,2023-09-11,2023-09-11,株式会社ＫＤＬ,,株式会社,栃木県,宇都宮市,元今泉４丁目１８番１９号ワタナベハイツ６０２,,09,201,3210954,,,,,,,2023-09-11,1,,,,,ケイディーエル,0
2421,9070001040831,新規,0,2023-09-11,2023-09-11,株式会社福田工業,,株式会社,群馬県,高崎市,箕郷町上芝１１３７番地,,10,202,3703104,,,,,,,2023-09-11,1,,,,,フクダコウギョウ,0
2423,9080003003050,新規,0,2023-09-11,2023-09-11,Ｌｉｌｄａｉｓｙ合同会社,,合同会社,静岡県,静岡市葵区,安西５丁目１３号プチリヴェール３０２,,22,101,4200011,,,,,,,2023-09-11,1,,,,,リルデイジー,0
2424,9080101024205,新規,0,2023-09-11,2023-09-11,株式会社Ｇｏｌｄｅｎ　Ａｓｓｅｔ　Ｃｏｍｐａｎｙ,,株式会社,静岡県,富士市,八幡町２番１０－２号,,22,210,4160911,,,,,,,2023-09-11,1,,,,,ゴールデンアセットカンパニー,0
2436,9120001033796,新規,0,2023-09-11,2023-09-11,丸中ハウジング株式会社,,株式会社,大阪府,大阪市住吉区,苅田９丁目１４番３０号,,27,120,5580011,,,,,,,2023-09-11,1,,,,,マルナカハウジング,0
2443,9120001257841,新規,0,2023-09-11,2023-09-11,株式会社世和,,株式会社,大阪府,大阪市中央区,南久宝寺町１丁目９－１,,27,128,5410058,,,,,,,2023-09-11,1,,,,,セイワ,0
2444,9120001257874,新規,0,2023-09-11,2023-09-11,株式会社エルクラシア,,株式会社,大阪府,大阪市東淀川区,南江口１丁目２番地１０３,,27,114,5330003,,,,,,,2023-09-11,1,,,,,エルクラシア,0
2445,9120001257940,新規,0,2023-09-11,2023-09-11,株式会社ルミエール,,株式会社,大阪府,大阪市西成区,鶴見橋３丁目１０番１４－２０１号,,27,122,5570031,,,,,,,2023-09-11,1,,,,,ルミエール,0
2449,9120901048035,新規,0,2023-09-11,2023-09-11,株式会社ｃｌｏｖｅ,,株式会社,大阪府,豊中市,服部南町５丁目７番１４号,,27,203,5610853,,,,,,,2023-09-11,1,,,,,クローヴ,0
2450,9120903004829,新規,0,2023-09-11,2023-09-11,アイディアイ合同会社,,合同会社,大阪府,豊中市,上津島３丁目８－２,,27,203,5610843,,,,,,,2023-09-11,1,,,,,アイディアイ,0
2454,9130001075128,新規,0,2023-09-11,2023-09-11,株式会社ＳｐｉｃｅｓＰｉｅｃｅｓ,,株式会社,京都府,京都市南区,八条源町５番地２０アドバンス京都エーデル６０３号,,26,107,6018477,,,,,,,2023-09-11,1,,,,,スパイスピース,0
2455,9130003008944,新規,0,2023-09-11,2023-09-11,合同会社加茂温泉,,合同会社,京都府,京都市北区,小山西元町４５,,26,101,6038113,,,,,,,2023-09-11,1,,,,,カモオンセン,0
2456,9130005016870,新規,0,2023-09-11,2023-09-11,一般社団法人ドクターハイフ安全推進協会,,その他の設立登記法人,京都府,京都市下京区,寺町通五条上る西橋詰町７８４番地デ・リード河原町１３０１,,26,106,6008029,,,,,,,2023-09-11,1,,,,,ドクターハイフアンゼンスイシンキョウカイ,0
2470,9140001131482,新規,0,2023-09-11,2023-09-11,株式会社天地青果園,,株式会社,兵庫県,西宮市,西宮浜２丁目６番５号,,28,204,6620934,,,,,,,2023-09-11,1,,,,,アメツチセイカエン,0
2471,9140001131524,新規,0,2023-09-11,2023-09-11,株式会社まるせんＡＯＫＩ,,株式会社,兵庫県,神戸市西区,伊川谷町潤和６６８番地の２,,28,111,6512124,,,,,,,2023-09-11,1,,,,,マルセンアオキ,0
2472,9140001131549,新規,0,2023-09-11,2023-09-11,株式会社山高,00131856,株式会社,兵庫県,姫路市,西今宿５丁目４番２８号,,28,201,6700061,,,,,,,2023-09-11,1,,,,,ヤマタカ,0
2477,9140003019528,新規,0,2023-09-11,2023-09-11,合同会社アイシス,,合同会社,兵庫県,伊丹市,野間北３丁目１２番４１－３０２号,,28,207,6640875,,,,,,,2023-09-11,1,,,,,アイシス,0
2481,9160001025303,新規,0,2023-09-11,2023-09-11,株式会社すし慶げんさん,,株式会社,滋賀県,長浜市,木之本町木之本９８８番地,,25,203,5290425,,,,,,,2023-09-11,1,,,,,スシケイゲンサン,0
2483,9160003002985,新規,0,2023-09-11,2023-09-11,合同会社サンデー,,合同会社,滋賀県,大津市,日吉台２丁目３２番４号,,25,201,5200112,,,,,,,2023-09-11,1,,,,,サンデー,0
2496,9180001158010,新規,0,2023-09-11,2023-09-11,株式会社Ｉ．Ｓ．Ｍ,,株式会社,愛知県,名古屋市天白区,平針１丁目１２０９番地,,23,116,4680011,,,,,,,2023-09-11,1,,,,,アイエスエム,0
2499,9180003025737,新規,0,2023-09-11,2023-09-11,合同会社ｓｔｒｏｌｌ,,合同会社,愛知県,名古屋市中村区,名駅４丁目２４番５号第２森ビル４０１,,23,105,4500002,,,,,,,2023-09-11,1,,,,,ストロール,0
2501,9180303005819,新規,0,2023-09-11,2023-09-11,ＫＳ恒産合同会社,,合同会社,愛知県,岡崎市,若松町字西三田ケ入２９―２,,23,202,4440826,,,,,,,2023-09-11,1,,,,,ケイエスコウサン,0
2510,9250005008856,新規,0,2023-09-11,2023-09-11,一般社団法人小野環境推進協議会,,その他の設立登記法人,山口県,宇部市,大字小野８２６５番地１１,,35,202,7541311,,,,,,,2023-09-11,1,,,,,オノカンキョウスイシンキョウギカイ,0
2511,9260001038303,新規,0,2023-09-11,2023-09-11,株式会社ひまり,,株式会社,岡山県,岡山市南区,築港ひかり町１３番２４号,,33,104,7028054,,,,,,,2023-09-11,1,,,,,ヒマリ,0
2512,9260001038311,新規,0,2023-09-11,2023-09-11,株式会社ラ・シェリ,,株式会社,岡山県,岡山市北区,本町２番２３号,,33,101,7000901,,,,,,,2023-09-11,1,,,,,ラシェリ,0
2524,9290003014316,新規,0,2023-09-11,2023-09-11,合同会社ＰＡＧＥ　Ｌｉｎｋ,,合同会社,福岡県,福岡市東区,香椎照葉４丁目２番１－１４０９号セントラルパーク香椎照葉壱番館,,40,131,8130017,,,,,,,2023-09-11,1,,,,,ページリンク,0
2526,9320001019998,新規,0,2023-09-11,2023-09-11,株式会社ＣＳ　Ｃｒｅａｔｉｖｅ　Ｃｏｍｐａｎｙ,,株式会社,大分県,大分市,中央町４丁目１－２８ＫＫＷＪビル２Ｆ,,44,201,8700035,,,,,,,2023-09-11,1,,,,,シーエスクリエイティブカンパニー,0
2538,9360003013277,新規,0,2023-09-11,2023-09-11,合同会社かりゆしワークス,,合同会社,沖縄県,宜野湾市,宇地泊１丁目７番２０号レキオススクエア宇地泊２階Ｄ,,47,205,9012227,,,,,,,2023-09-11,1,,,,,カリユシワークス,0
2539,9360005006898,新規,0,2023-09-11,2023-09-11,一般社団法人沖縄ドラッグレース協会,,その他の設立登記法人,沖縄県,うるま市,安慶名２丁目１９番２３号,,47,213,9042214,,,,,,,2023-09-11,1,,,,,オキナワドラッグレースキョウカイ,0
2540,9370001050395,新規,0,2023-09-11,2023-09-11,株式会社宮城野産業保健事務所,,株式会社,宮城県,仙台市太白区,八木山弥生町１８－１０,,04,104,9820833,,,,,,,2023-09-11,1,,,,,ミヤギノサンギョウホケンジムショ,0
2541,9370001050404,新規,0,2023-09-11,2023-09-11,株式会社クリエイトパートナーズ,,株式会社,宮城県,仙台市青葉区,本町１丁目５番２８号カーニープレイス仙台駅前通り６０３号室,,04,101,9800014,,,,,,,2023-09-11,1,,,,,クリエイトパートナーズ,0
2553,9390003002137,新規,0,2023-09-11,2023-09-11,合同会社エイムズ,,合同会社,山形県,米沢市,大町４丁目４番１号かねこビル２階,,06,202,9920031,,,,,,,2023-09-11,1,,,,,エイムズ,0
2561,9480001012203,新規,0,2023-09-11,2023-09-11,株式会社アルビオラ,,株式会社,徳島県,徳島市,徳島町２丁目３２番地,,36,201,7700852,,,,,,,2023-09-11,1,,,,,アルビオラ,0
2563,9500003003098,新規,0,2023-09-11,2023-09-11,ＳＯＬＡ合同会社,,合同会社,愛媛県,宇和島市,伊吹町甲２５番地１,,38,203,7980022,,,,,,,2023-09-11,1,,,,,ソラ,0
2564,9700150120064,新規,0,2023-09-11,2023-09-11,ｇｕａｎｇｚｈｏｕｊｉｎｇｃｈｕｎｚｅｈｕｌｉａｎｗａｎｇｙｏｕｘｉａｎｇｏｎｇｓｉ,,外国会社等,,,,,,,,Ｒｏｏｍ　５０１，Ｎｏ．９，Ｈｅｍｕｌｉｎｇ　Ｌａｎｅ，Ｊｉａｎｇｘｉａ　Ｈｅｍｕｌｉｎｇ，Ｂａｉｙｕｎ　Ｄｉｓｔｒｉｃｔ，Ｇｕａｎｇｚｈｏｕ　Ｃｉｔｙ，Ｇｕａｎｇｄｏｎｇ　Ｐｒｏｖｉｎｃｅ,,,,,,2023-09-11,1,,,,,グワンジョウジンチュンゾーフーリエンワンヨウシエンゴンスー,0
2565,9700150120072,新規,0,2023-09-11,2023-09-11,Ｇｕａｎｇｚｈｏｕ　ｌｕｏｍａｎｘｉａｎｇｂａｏ　ｙｏｕｘｉａｎｇｏｎｇｓｉ,,外国会社等,,,,,,,,Ｂａｉｙｕｎｑｕ　Ｙｕｎｃｈｅｎｇｘｉｌｕ　８８８　ｈａｏ　４０１０　ｓｈｉ　Ｇｕａｎｇｚｈｏｕｓｈｉ　Ｇｕａｎｇｄｏｎｇｓｈｅｎｇ　５１００００　ＣＮ,,,,,,2023-09-11,1,,,,,グワンジョウルオマンシャンバオヨウシエンゴンスー,0
2566,9700150120080,新規,0,2023-09-11,2023-09-11,Ｗｅｉｈａｉ　Ｗｅｉｄｏｕ　Ｗａｎｗｕ　Ｉｎｔｅｒｎａｔｉｏｎａｌ　Ｃｏ．，Ｌｔｄ．,,外国会社等,,,,,,,,Ｎｏ．２６－３０５　Ｈｅｑｉｎｇ　Ｎｅｗ　Ｖｉｌｌａｇｅ，Ｈｕａｎｃｕｉ　Ｄｉｓｔｒｉｃｔ，Ｗｅｉｈａｉ　Ｃｉｔｙ，Ｓｈａｎｄｏｎｇ　Ｐｒｏｖｉｎｃｅ,,,,,,2023-09-11,1,,,,,ウェイハイウェイドウワンウーグオジーマオイーヨウシエンゴンスー,0
2567,9700150120089,新規,0,2023-09-11,2023-09-11,ＨＫ　Ｒｏｙｐｏｗ　Ｔｅｃｈｎｏｌｏｇｙ　Ｃｏ．，Ｌｉｍｉｔｅｄ,,外国会社等,,,,,,,,ＲＭ５０２Ｃ　５／Ｆ，ＨＯ　ＫＩＮＧ　ＣＯＭＭ　ＣＴＲ　２－１６　ＦＡＹＵＥＮ　ＳＴ　ＭＯＮＧＫＯＫ　ＫＬ,,,,,,2023-09-11,1,,,,,ホンコンラクオクツウカギユウゲンコウシ,0
2568,9700150120097,新規,0,2023-09-11,2023-09-11,Ｓｈｅｎｚｈｅｎｓｈｉ　Ｎａｃｈｅｎｇ　Ｔｅｃｈｎｏｌｏｇｙ　Ｃｏ．，Ｌｔｄ,,外国会社等,,,,,,,,ｓｈｅｎｚｈｅｎｓｈｉ　ｂａｏａｎｑｕ　ｘｉｎｑｉａｏｊｉｅｄａｏ　ｘｉｎｅｒｓｈｅｑｕ　ｘｉｎｅｒｚｈｕａｎｇｃｕｎｌｕ　１４９ｈａｏ　ｃｈａｎｇｆａｎｇｙｉ２０４　Ｃｈｉｎａ,,,,,,2023-09-11,1,,,,,シンセンシナチェンテクノロジーカンパニーリミテッド,0
