sequenceNumber,corporateNumber,process,correct,updateDate,changeDate,name,nameImageId,kind,prefectureName,cityName,streetNumber,addressImageId,prefectureCode,cityCode,postCode,addressOutside,addressOutsideImageId,closeDate,closeCause,successorCorporateNumber,changeCause,assignmentDate,latest,enName,enPrefectureName,enCityName,enAddressOutside,furigana,hihyoji
4,1010001230271,新規,0,2022-10-24,2022-10-24,株式会社エクスパワー,,株式会社,東京都,千代田区,丸の内３丁目２番２号,,13,101,1000005,,,,,,,2022-10-24,1,,,,,エクスパワー,0
5,1010001230296,新規,0,2022-10-24,2022-10-24,株式会社中村ビル,,株式会社,東京都,千代田区,神田神保町２丁目１０番地３１,,13,101,1010051,,,,,,,2022-10-24,1,,,,,ナカムラビル,0
8,1010005035700,新規,0,2022-10-24,2022-10-24,一般社団法人草葉町インベストメント,,その他の設立登記法人,東京都,中央区,日本橋１丁目４番１号日本橋一丁目ビルディング,,13,102,1030027,,,,,,,2022-10-24,1,,,,,クサバチョウインベストメント,0
13,1010401170407,新規,0,2022-10-24,2022-10-24,アイエロジャパン株式会社,,株式会社,東京都,港区,三田１丁目２番１８号ＴＴＤビル,,13,103,1080073,,,,,,,2022-10-24,1,,,,,アイエロジャパン,0
14,1010401170431,新規,0,2022-10-24,2022-10-24,株式会社ＲＱ,,株式会社,東京都,港区,南青山１丁目２番６号,,13,103,1070062,,,,,,,2022-10-24,1,,,,,アールキュー,0
16,1010403028751,新規,0,2022-10-24,2022-10-24,Ｎｉｐｐｏｎ’ｓ　Ｃｈａｍｐｉｏｎ合同会社,,合同会社,東京都,港区,浜松町２丁目２－１５浜松町ダイヤビル２階,,13,103,1050013,,,,,,,2022-10-24,1,,,,,ニッポンズチャンピオン,0
20,1010601062040,新規,0,2022-10-24,2022-10-24,株式会社どんぐりす,,株式会社,東京都,江東区,越中島２丁目１番３２－３０７号,,13,108,1350044,,,,,,,2022-10-24,1,,,,,ドングリス,0
31,1010905004382,新規,0,2022-10-24,2022-10-24,一般社団法人ポラリス会,,その他の設立登記法人,東京都,世田谷区,瀬田２丁目１番２号,,13,112,1580095,,,,,,,2022-10-24,1,,,,,ポラリスカイ,0
34,1011001150410,新規,0,2022-10-24,2022-10-24,株式会社ＭＡＫＵ,,株式会社,東京都,渋谷区,道玄坂１丁目１０番８号渋谷道玄坂東急ビル２Ｆ－Ｃ,,13,113,1500043,,,,,,,2022-10-24,1,,,,,マク,0
39,1011105010436,新規,0,2022-10-24,2022-10-24,一般社団法人ｓｔｅＡｍ　ＢＡＮＤ,,その他の設立登記法人,東京都,新宿区,西新宿７丁目５番２５号西新宿プライムスクエア１６階,,13,104,1600023,,,,,,,2022-10-24,1,,,,,スチームバンド,0
44,1011301028208,新規,0,2022-10-24,2022-10-24,株式会社ＲＩＭＩＫ,,株式会社,東京都,杉並区,西荻北４丁目８番２号ベルハイム１０２,,13,115,1670042,,,,,,,2022-10-24,1,,,,,ライミック,0
45,1011501028577,新規,0,2022-10-24,2022-10-24,ビーシーパック株式会社,,株式会社,東京都,荒川区,町屋２丁目１６イイダマンション４０１,,13,118,1160001,,,,,,,2022-10-24,1,,,,,ビーシーパック,0
50,1012301013174,新規,0,2022-10-24,2022-10-24,株式会社我逢人,,株式会社,東京都,町田市,矢部町２７６６番地１,,13,209,1940214,,,,,,,2022-10-24,1,,,,,ガホウジン,0
52,1012801021908,新規,0,2022-10-24,2022-10-24,ＡＷＥＳＯＭＥ　ＣＯＭＰＬＥＸ株式会社,,株式会社,東京都,国分寺市,本多１丁目１３番１３号,,13,214,1850011,,,,,,,2022-10-24,1,,,,,オーサムコンプレックス,0
63,1020001148661,新規,0,2022-10-24,2022-10-24,株式会社ＦＵＮＳＥＥ,,株式会社,神奈川県,川崎市中原区,市ノ坪字広町３６１番地７,,14,133,2110016,,,,,,,2022-10-24,1,,,,,ファンシー,0
72,1030001150716,新規,0,2022-10-24,2022-10-24,株式会社つかさ塗装,,株式会社,埼玉県,川口市,戸塚東４丁目３３番２０号,,11,203,3330802,,,,,,,2022-10-24,1,,,,,ツカサトソウ,0
82,1030005021038,新規,0,2022-10-24,2022-10-24,医療法人社団ＥＢＩＳＵＩ,,その他の設立登記法人,埼玉県,鴻巣市,吹上本町１丁目４番２３号,,11,217,3690115,,,,,,,2022-10-24,1,,,,,エビスイ,0
93,1060001035377,新規,0,2022-10-24,2022-10-24,株式会社アクセス商事,,株式会社,栃木県,日光市,瀬尾４０６番地１７,,09,206,3211264,,,,,,,2022-10-24,1,,,,,アクセスショウジ,0
100,1080001025260,新規,0,2022-10-24,2022-10-24,株式会社ツカブロ,,株式会社,静岡県,藤枝市,横内１０７２番地の１,,22,214,4260002,,,,,,,2022-10-24,1,,,,,ツカブロ,0
102,1080003002893,新規,0,2022-10-24,2022-10-24,合資会社どんぐりの智恵,,合資会社,静岡県,静岡市清水区,三保７２－３コーポウェルＡ－１０１,,22,103,4240901,,,,,,,2022-10-24,1,,,,,ドングリノチエ,0
104,1080401026115,新規,0,2022-10-24,2022-10-24,株式会社Ｔｈｅ　Ｎｅｘｔ　Ｄａｙ,,株式会社,静岡県,浜松市中区,砂山町３２５番地の２０水谷ビル５Ｆ,,22,131,4300926,,,,,,,2022-10-24,1,,,,,ザネクストデイ,0
105,1090001017819,新規,0,2022-10-24,2022-10-24,株式会社ＵＭＢＲＥＬＬＡ,,株式会社,山梨県,南アルプス市,芦安芦倉１６７２番地,,19,208,4000241,,,,,,,2022-10-24,1,,,,,アンブレラ,0
109,1110001037054,新規,0,2022-10-24,2022-10-24,株式会社Ｗａｒｍ　Ｂｅｌｌ,,株式会社,新潟県,新潟市西蒲区,越前浜５３１７番地１５,,15,108,9530012,,,,,,,2022-10-24,1,,,,,ウォームベル,0
110,1110003004894,新規,0,2022-10-24,2022-10-24,合同会社ないす,,合同会社,新潟県,新潟市中央区,寄居町３４０番地１１富士マンション９０４号,,15,103,9518113,,,,,,,2022-10-24,1,,,,,ナイス,0
120,1120001249664,新規,0,2022-10-24,2022-10-24,浅茉株式会社,,株式会社,大阪府,大阪市生野区,新今里３丁目１９－７相愛マンション２階２２号室,,27,116,5440001,,,,,,,2022-10-24,1,,,,,アサマ,0
121,1120001249739,新規,0,2022-10-24,2022-10-24,株式会社平和バスターズ,,株式会社,大阪府,大阪市平野区,加美鞍作３丁目８番２２号マンション太平１号館４０６号室,,27,126,5470004,,,,,,,2022-10-24,1,,,,,ヘイワバスターズ,0
123,1120003022714,新規,0,2022-10-24,2022-10-24,弘遠合同会社,,合同会社,大阪府,大阪市中央区,日本橋１丁目２３番２２号日本橋１丁目ビル４階,,27,128,5420073,,,,,,,2022-10-24,1,,,,,コウエン,0
136,1122001036340,新規,0,2022-10-24,2022-10-24,株式会社リーンビルドホールディングス,,株式会社,大阪府,八尾市,空港１丁目１３３番地,,27,212,5810043,,,,,,,2022-10-24,1,,,,,リーンビルドホールディングス,0
141,1130001072867,新規,0,2022-10-24,2022-10-24,テックホールディングス株式会社,,株式会社,京都府,京都市山科区,音羽山等地２０番地,,26,110,6078065,,,,,,,2022-10-24,1,,,,,テックホールディングス,0
142,1130001072883,新規,0,2022-10-24,2022-10-24,株式会社Ｐｅａｃｅ　Ｌｉｎｋ,,株式会社,京都府,木津川市,城山台１０丁目２０番地８,,26,214,6190218,,,,,,,2022-10-24,1,,,,,ピースリンク,0
147,1140003018272,新規,0,2022-10-24,2022-10-24,合同会社ＦＰデザイン,,合同会社,兵庫県,神戸市灘区,篠原本町４丁目２番１５－１号,,28,102,6570067,,,,,,,2022-10-24,1,,,,,エフピーデザイン,0
150,1160001024584,新規,0,2022-10-24,2022-10-24,株式会社ＲＡＣＲＥＳＴ,,株式会社,滋賀県,甲賀市,甲南町希望ケ丘３丁目２３番１号,,25,209,5203333,,,,,,,2022-10-24,1,,,,,ラクレスト,0
151,1160003002712,新規,0,2022-10-24,2022-10-24,合同会社Ｓｋｙエステート,,合同会社,滋賀県,甲賀市,水口町新町２丁目２番３７号,,25,209,5280038,,,,,,,2022-10-24,1,,,,,スカイエステート,0
159,1180001153472,新規,0,2022-10-24,2022-10-24,株式会社ＳＢＹ・インターナショナル,,株式会社,愛知県,名古屋市中村区,名駅南１丁目１２－１７－１００４,,23,105,4500003,,,,,,,2022-10-24,1,,,,,エスビーワイインターナショナル,0
160,1180001153530,新規,0,2022-10-24,2022-10-24,株式会社ＩＭＳホールディング,,株式会社,愛知県,名古屋市中村区,名駅５丁目３１番１０号,,23,105,4500002,,,,,,,2022-10-24,1,,,,,アイエムエスホールディング,0
193,1290001099309,新規,0,2022-10-24,2022-10-24,株式会社オプションリンク,,株式会社,福岡県,福岡市東区,三苫５丁目３番１－２号グローヴ三苫駅ビル１０２号,,40,131,8110201,,,,,,,2022-10-24,1,,,,,オプションリンク,0
205,1300001013093,新規,0,2022-10-24,2022-10-24,株式会社ＳＨＩＮＥ　ＧＲＯＷＴＨ,,株式会社,佐賀県,鳥栖市,蔵上１丁目１９１番地,,41,203,8410056,,,,,,,2022-10-24,1,,,,,シャイングロース,0
210,1330005010571,新規,0,2022-10-24,2022-10-24,一般社団法人和水町ドローンスクール,,その他の設立登記法人,熊本県,玉名郡和水町,津田２０９１番地,,43,369,8610921,,,,,,,2022-10-24,1,,,,,ナゴミマチドローンスクール,0
214,1360001031065,新規,0,2022-10-24,2022-10-24,Ｔｓｕ‐Ｆｕ株式会社,,株式会社,沖縄県,浦添市,勢理客１丁目３－１,,47,208,9012122,,,,,,,2022-10-24,1,,,,,ツウフウ,0
215,1360001031098,新規,0,2022-10-24,2022-10-24,株式会社ゼネラビング,,株式会社,沖縄県,沖縄市,照屋１丁目２５番１０号プレイスインザサン４０２,,47,211,9040011,,,,,,,2022-10-24,1,,,,,ゼネラビング,0
217,1360003012377,新規,0,2022-10-24,2022-10-24,合同会社エトスアップ,,合同会社,沖縄県,宮古島市,上野字宮国１８１０番地６,,47,214,9060203,,,,,,,2022-10-24,1,,,,,エトスアップ,0
221,1360005006732,新規,0,2022-10-24,2022-10-24,医療法人Ｏｒｉｇｉｎ,,その他の設立登記法人,沖縄県,豊見城市,字翁長８６４番地８Ｎ′ｓビル２Ｆ,,47,212,9010223,,,,,,,2022-10-24,1,,,,,オリジン,0
237,1490001010312,新規,0,2022-10-24,2022-10-24,株式会社町民バス仁淀,,株式会社,高知県,吾川郡仁淀川町,相能トヲメン６－１,,39,387,7811532,,,,,,,2022-10-24,1,,,,,チョウミンバスニヨド,0
247,1700150112234,新規,0,2022-10-24,2022-10-24,ＫＯＮＧＳＢＥＲＧ　ＰＲＥＣＩＳＩＯＮ　ＣＵＴＴＩＮＧ　ＳＹＳＴＥＭＳ　ＳＩＮＧＡＰＯＲＥ　ＰＴＥ．ＬＴＤ．,,外国会社等,東京都,中央区,日本橋兜町５番１号兜町第１平和ビル３階１３３号室,,13,102,1030026,シンガポール共和国トラスストリート１００、１００ＡＭ、♯１６－０１,,,,,,2022-10-24,1,,,,,コングスバーグプレシジヨンカツテイングシステムズシンガポールピーテイーイーリミテツド,0
258,2010001230254,新規,0,2022-10-24,2022-10-24,株式会社Ｎｅｗ　Ｓｎｏｗ　Ｓｔｕｄｉｏ,,株式会社,東京都,中央区,銀座７丁目１３番２０号,,13,102,1040061,,,,,,,2022-10-24,1,,,,,ニュースノースタジオ,0
259,2010001230304,新規,0,2022-10-24,2022-10-24,株式会社Ｄｓ’Ｇｒｏｕｐ,,株式会社,東京都,中央区,湊３丁目１０番９－２０４号,,13,102,1040043,,,,,,,2022-10-24,1,,,,,ディーエスダッシュグループ,0
262,2010003038902,新規,0,2022-10-24,2022-10-24,合同会社フィーノ,,合同会社,東京都,中央区,日本橋本町３丁目３－６,,13,102,1030023,,,,,,,2022-10-24,1,,,,,フィーノ,0
266,2010403028684,新規,0,2022-10-24,2022-10-24,合同会社ｅｖｅｒｇｒｅｅｎ,,合同会社,東京都,港区,南青山２丁目２―１５ＵＣＦ９階,,13,103,1070062,,,,,,,2022-10-24,1,,,,,エバーグリーン,0
270,2010503006763,新規,0,2022-10-24,2022-10-24,ＡＬＣＭＹＳ合同会社,,合同会社,東京都,台東区,上野３丁目５－６Ｂ１,,13,106,1100005,,,,,,,2022-10-24,1,,,,,アルケミス,0
273,2010603009781,新規,0,2022-10-24,2022-10-24,イルコンフォート合同会社,,合同会社,東京都,江東区,東雲１丁目９－５０プラウドタワー東雲１６０５,,13,108,1350062,,,,,,,2022-10-24,1,,,,,イルコンフォート,0
284,2010901051832,新規,0,2022-10-24,2022-10-24,株式会社ライフワーク,,株式会社,東京都,世田谷区,砧８丁目１０番１号プラッツ砧１階,,13,112,1570073,,,,,,,2022-10-24,1,,,,,ライフワーク,0
290,2011001150467,新規,0,2022-10-24,2022-10-24,株式会社ニコトラスト,,株式会社,東京都,目黒区,中根２丁目１０番２２号ソレーユ都立大１０５号,,13,110,1520031,,,,,,,2022-10-24,1,,,,,ニコトラスト,0
291,2011001150475,新規,0,2022-10-24,2022-10-24,株式会社ペガサス,,株式会社,東京都,渋谷区,道玄坂１丁目１７番９号５０３号室,,13,113,1500043,,,,,,,2022-10-24,1,,,,,ペガサス,0
292,2011001150500,新規,0,2022-10-24,2022-10-24,フリー株式会社,,株式会社,東京都,渋谷区,広尾５丁目１９番１７号広尾ＧＴビル６Ｆ,,13,113,1500012,,,,,,,2022-10-24,1,,,,,フリー,0
294,2011003015569,新規,0,2022-10-24,2022-10-24,Ｕｐｄｒａｆｔ　Ｃａｐｉｔａｌ　Ｐａｒｔｎｅｒｓ合同会社,,合同会社,東京都,渋谷区,道玄坂１丁目１０番８号渋谷道玄坂東急ビル２Ｆ－Ｃ,,13,113,1500043,,,,,,,2022-10-24,1,,,,,,0
298,2011301028207,新規,0,2022-10-24,2022-10-24,株式会社Ｌｅａｒｎｉｎｇ　Ｃｏｍｐａｓｓ,,株式会社,東京都,杉並区,善福寺４丁目７番９号,,13,115,1670041,,,,,,,2022-10-24,1,,,,,ラーニングコンパス,0
303,2011501028584,新規,0,2022-10-24,2022-10-24,栄次郎株式会社,,株式会社,東京都,北区,赤羽２丁目７０番２－５０１号ヴィラトーゴー,,13,117,1150045,,,,,,,2022-10-24,1,,,,,エイジロウ,0
306,2011503005326,新規,0,2022-10-24,2022-10-24,ＫＨＩＴ　ＭＹＡＮ　ＳＥＲＶＩＣＥＳ合同会社,,合同会社,東京都,荒川区,町屋５丁目７番２号,,13,118,1160001,,,,,,,2022-10-24,1,,,,,キットミャンサービス,0
307,2011601026323,新規,0,2022-10-24,2022-10-24,株式会社ｓｉｒｏ,,株式会社,東京都,練馬区,東大泉６丁目４７番９号グレースタウン１Ｆ,,13,120,1780063,,,,,,,2022-10-24,1,,,,,シロ,0
313,2012401039779,新規,0,2022-10-24,2022-10-24,株式会社ｓｔｕｄｉｏ‐ＦＡＶＯＲ,,株式会社,東京都,武蔵野市,中町１丁目２４番９－４０６号ヴィラアイレックス,,13,203,1800006,,,,,,,2022-10-24,1,,,,,スタジオフェイバー,0
315,2020001148652,新規,0,2022-10-24,2022-10-24,株式会社ハンタースタジオ,,株式会社,神奈川県,川崎市高津区,末長２丁目７番２３号,,14,134,2130013,,,,,,,2022-10-24,1,,,,,ハンタースタジオ,0
316,2020001148669,新規,0,2022-10-24,2022-10-24,ＳＫＳ株式会社,,株式会社,神奈川県,川崎市中原区,上小田中１丁目１３番１７－２号,,14,133,2110053,,,,,,,2022-10-24,1,,,,,エスケーエス,0
320,2020003022608,新規,0,2022-10-24,2022-10-24,合同会社ＣＫＩ,,合同会社,神奈川県,川崎市川崎区,砂子１丁目２－１２－３０２,,14,131,2100006,,,,,,,2022-10-24,1,,,,,シーケーアイ,0
321,2020003022616,新規,0,2022-10-24,2022-10-24,合同会社ＧＯＺＡ　ＬＡＢＯ,,合同会社,神奈川県,川崎市幸区,南幸町３丁目５１－１－２０２,,14,132,2120016,,,,,,,2022-10-24,1,,,,,ゴザラボ,0
329,2021001077263,新規,0,2022-10-24,2022-10-24,株式会社キャリー,,株式会社,神奈川県,厚木市,森の里４丁目１８番４号,,14,212,2430122,,,,,,,2022-10-24,1,,,,,キャリー,0
340,2030003020437,新規,0,2022-10-24,2022-10-24,Ｐａｔｉｏ合同会社,,合同会社,埼玉県,ふじみ野市,南台２丁目５番１９号,,11,245,3560036,,,,,,,2022-10-24,1,,,,,パティオ,0
341,2030003020445,新規,0,2022-10-24,2022-10-24,合同会社ＴＨＡＮＨ　ＰＨＡＴ,,合同会社,埼玉県,坂戸市,花影町７番２５号ＫＩＶオフィス花影Ｃ号室,,11,239,3500236,,,,,,,2022-10-24,1,,,,,タインファット,0
342,2030005021037,新規,0,2022-10-24,2022-10-24,医療法人社団ＴＫＷ,,その他の設立登記法人,埼玉県,草加市,氷川町２１４９番地２藤城ビル２階,,11,221,3400034,,,,,,,2022-10-24,1,,,,,ティーケイダブリュー,0
352,2040001125567,新規,0,2022-10-24,2022-10-24,株式会社ＺＡＫＳ,,株式会社,千葉県,流山市,松ケ丘１丁目４８１番地の１５,,12,220,2700141,,,,,,,2022-10-24,1,,,,,ザックス,0
355,2040003021120,新規,0,2022-10-24,2022-10-24,合同会社Ｓｉｌｅｎｔ　ｃｒｙ,,合同会社,千葉県,柏市,吉野沢８－３０,,12,217,2770853,,,,,,,2022-10-24,1,,,,,サイレントクライ,0
363,2070003004642,新規,0,2022-10-24,2022-10-24,合同会社Ｍｏｈａｌａ,,合同会社,群馬県,沼田市,下川田町５３３,,10,206,3780024,,,,,,,2022-10-24,1,,,,,モハラ,0
370,2090001017818,新規,0,2022-10-24,2022-10-24,株式会社東洋警備,,株式会社,山梨県,南都留郡山中湖村,平野２１９７番地５１６,,19,425,4010502,,,,,,,2022-10-24,1,,,,,トウヨウケイビ,0
373,2100003006734,新規,0,2022-10-24,2022-10-24,尚広エンジ合同会社,,合同会社,長野県,松本市,大字寿小赤２６８５番地３,,20,202,3990024,,,,,,,2022-10-24,1,,,,,タカヒロエンジ,0
374,2110001037053,新規,0,2022-10-24,2022-10-24,株式会社小山内装,,株式会社,新潟県,上越市,板倉区緑ヶ丘３１６番地３６,,15,222,9440151,,,,,,,2022-10-24,1,,,,,コヤマナイソウ,0
389,2120001249705,新規,0,2022-10-24,2022-10-24,株式会社ＳＵＮＯＲＯ,,株式会社,大阪府,大阪市中央区,大手通２丁目２番１４号４階,,27,128,5400021,,,,,,,2022-10-24,1,,,,,サンレー,0
391,2120003022713,新規,0,2022-10-24,2022-10-24,ＨＡＹＡＳＨＩＮＫＡ合同会社,,合同会社,大阪府,大阪市東住吉区,杭全７丁目４－３６,,27,121,5460002,,,,,,,2022-10-24,1,,,,,ハヤシンカ,0
392,2120901046631,新規,0,2022-10-24,2022-10-24,株式会社レーヴ,,株式会社,大阪府,豊中市,服部本町４丁目１－２４ライオンズマンション３０１号室,,27,203,5610852,,,,,,,2022-10-24,1,,,,,レーヴ,0
396,2130001072882,新規,0,2022-10-24,2022-10-24,ツクツクハンドメイドソープ株式会社,,株式会社,京都府,相楽郡精華町,大字山田小字下川原１－３－１０３,,26,366,6190231,,,,,,,2022-10-24,1,,,,,ツクツクハンドメイドソープ,0
397,2130003008265,新規,0,2022-10-24,2022-10-24,合同会社Ｗｉｚ　Ｃｏｎｓｕｌｔｉｎｇ,,合同会社,京都府,京都市山科区,東野舞台町３６番地３号,,26,110,6078146,,,,,,,2022-10-24,1,,,,,ウィズコンサルティング,0
403,2140001127792,新規,0,2022-10-24,2022-10-24,河野電気工事株式会社,,株式会社,兵庫県,尼崎市,武庫之荘５丁目３６番３６－２０５号,,28,202,6610035,,,,,,,2022-10-24,1,,,,,コウノデンキコウジ,0
406,2140003018271,新規,0,2022-10-24,2022-10-24,合同会社ＬＩＳＴ,,合同会社,兵庫県,姫路市,飾磨区英賀宮町２丁目７５号Ａ号室,,28,201,6728080,,,,,,,2022-10-24,1,,,,,リスト,0
409,2160001024583,新規,0,2022-10-24,2022-10-24,株式会社重松工業,,株式会社,滋賀県,近江八幡市,川原町１丁目３番地１４,,25,204,5230047,,,,,,,2022-10-24,1,,,,,シゲマツコウギョウ,0
414,2180001153422,新規,0,2022-10-24,2022-10-24,株式会社ｆｅａｔ,,株式会社,愛知県,名古屋市中区,新栄３丁目２２－２５－２０２,,23,106,4600007,,,,,,,2022-10-24,1,,,,,フィート,0
440,2290001099299,新規,0,2022-10-24,2022-10-24,株式会社朝日パートナー住設,,株式会社,福岡県,福岡市博多区,東比恵２丁目１７番２３－８１１号,,40,132,8120007,,,,,,,2022-10-24,1,,,,,アサヒパートナージュウセツ,0
441,2290001099308,新規,0,2022-10-24,2022-10-24,株式会社ワークスカンパニー,,株式会社,福岡県,福岡市東区,青葉１丁目９番４３号,,40,131,8130025,,,,,,,2022-10-24,1,,,,,ワークスカンパニー,0
442,2290001099316,新規,0,2022-10-24,2022-10-24,株式会社エレイア,,株式会社,福岡県,糟屋郡新宮町,新宮東４丁目６番１６－７０７号,,40,345,8110124,,,,,,,2022-10-24,1,,,,,エレイア,0
444,2290803004233,新規,0,2022-10-24,2022-10-24,合同会社エクシード,,合同会社,福岡県,築上郡築上町,大字高塚３６２番地１ロマネ・コンティＩ　１０２号,00128216,40,647,8290331,,,,,,,2022-10-24,1,,,,,エクシード,0
445,2310001018090,新規,0,2022-10-24,2022-10-24,株式会社インタープロセス,,株式会社,長崎県,対馬市,厳原町久田道１６１５番地,,42,209,8170031,,,,,,,2022-10-24,1,,,,,インタープロセス,0
447,2320001019385,新規,0,2022-10-24,2022-10-24,大分第一ホーバードライブ株式会社,,株式会社,大分県,大分市,金池南１丁目５番１号,,44,201,8700839,,,,,,,2022-10-24,1,,,,,オオイタダイイチホーバードライブ,0
457,2330003009557,新規,0,2022-10-24,2022-10-24,合同会社５２１ｃｏ．,,合同会社,熊本県,熊本市中央区,紺屋町３丁目２８番地４０５,,43,101,8600025,,,,,,,2022-10-24,1,,,,,ゴーニーイチカンパニー,0
463,2360003012401,新規,0,2022-10-24,2022-10-24,合同会社スペースブラザーズ,,合同会社,沖縄県,中頭郡中城村,字北浜３０５番地１,,47,328,9012414,,,,,,,2022-10-24,1,,,,,スペースブラザーズ,0
475,2450001013821,新規,0,2022-10-24,2022-10-24,株式会社上田損害保険事務所,,株式会社,北海道,紋別市,大山町１丁目２７番５７号,,01,219,0940021,,,,,,,2022-10-24,1,,,,,ウエダソンガイホケンジムショ,0
488,2700150112092,新規,0,2022-10-24,2022-10-07,浄土真宗本願寺派　海門寺,,その他,神奈川県,大和市,柳橋１丁目２０－７,,14,213,2420022,,,,,,,2022-10-07,1,,,,,ジヨウドシンシユウホンガンジハカイモンジ,0
491,3010001230253,新規,0,2022-10-24,2022-10-24,ＭＲＣ株式会社,,株式会社,東京都,千代田区,神田神保町２丁目１０番地１４,,13,101,1010051,,,,,,,2022-10-24,1,,,,,エムアールシー,0
502,3010401170371,新規,0,2022-10-24,2022-10-24,ｒｕｂｉ　ｌａｂｓ株式会社,,株式会社,東京都,港区,高輪４丁目２３－６ハイホーム高輪７０８,,13,103,1080074,,,,,,,2022-10-24,1,,,,,ルビラボ,0
503,3010403028758,新規,0,2022-10-24,2022-10-24,合同会社ｔｅＧｏ,,合同会社,東京都,港区,青山二丁目２番１５号,,13,103,1050000,,,,,,,2022-10-24,1,,,,,テゴ,0
506,3010501049524,新規,0,2022-10-24,2022-10-24,Ｌ’ＯＣＥＡＮ株式会社,,株式会社,東京都,台東区,浅草４丁目１９番６－８０１号,,13,106,1110032,,,,,,,2022-10-24,1,,,,,ロセアン,0
508,3010601062022,新規,0,2022-10-24,2022-10-24,株式会社ＳＯＲＡ２Ｕ,,株式会社,東京都,墨田区,立花４丁目３３番１号,,13,107,1310043,,,,,,,2022-10-24,1,,,,,ソラトゥーユー,0
513,3010703006430,新規,0,2022-10-24,2022-10-24,合同会社ＡＢＣ,,合同会社,東京都,品川区,東五反田５丁目２７－２メインステージ五反田駅前１００５,,13,109,1410022,,,,,,,2022-10-24,1,,,,,エービーシー,0
516,3010801033376,新規,0,2022-10-24,2022-10-24,株式会社おもしろテクノロジー,,株式会社,東京都,大田区,西蒲田７丁目４番４号小山第２ビル６Ｆ,,13,111,1440051,,,,,,,2022-10-24,1,,,,,オモシロテクノロジー,0
528,3011001150400,新規,0,2022-10-24,2022-10-24,株式会社ＣＡＬＬ,,株式会社,東京都,渋谷区,宇田川町４１番２４号ＯＬＩＯ渋谷１０３号室,,13,113,1500042,,,,,,,2022-10-24,1,,,,,コール,0
529,3011001150417,新規,0,2022-10-24,2022-10-24,株式会社ＬＩＦＥ,,株式会社,東京都,渋谷区,代々木５丁目３６番８－１０４号ＥＸＡＭ代々木八幡,,13,113,1510053,,,,,,,2022-10-24,1,,,,,ライフ,0
530,3011001150490,新規,0,2022-10-24,2022-10-24,ｙａｄｏ株式会社,,株式会社,東京都,渋谷区,鉢山町１番７号,,13,113,1500035,,,,,,,2022-10-24,1,,,,,ヤド,0
532,3011003015576,新規,0,2022-10-24,2022-10-24,Ｄｅｐｏｒｔｅｃｈ合同会社,,合同会社,東京都,渋谷区,道玄坂２丁目２０番２６号藤和エクシール９０４,,13,113,1500043,,,,,,,2022-10-24,1,,,,,デポルテック,0
533,3011005009774,新規,0,2022-10-24,2022-10-24,一般社団法人三香会,,その他の設立登記法人,東京都,渋谷区,渋谷１丁目２３番１６号ｃｏｃｏｔｉ５階,,13,113,1500002,,,,,,,2022-10-24,1,,,,,サンコウカイ,0
537,3011301028206,新規,0,2022-10-24,2022-10-24,株式会社Ｎバンｐｌｕｓ,,株式会社,東京都,杉並区,高井戸東２丁目３番２５号,,13,115,1680072,,,,,,,2022-10-24,1,,,,,エヌバンプラス,0
542,3011403003800,新規,0,2022-10-24,2022-10-24,ＨａｒＢｅｅ合同会社,,合同会社,東京都,板橋区,成増３丁目１５－１６ルーエ成増５０３,,13,119,1750094,,,,,,,2022-10-24,1,,,,,ハービー,0
544,3011501028575,新規,0,2022-10-24,2022-10-24,ＤＩＬ株式会社,,株式会社,東京都,荒川区,南千住７丁目５番１号－２０２,,13,118,1160003,,,,,,,2022-10-24,1,,,,,ディーアイエル,0
546,3011503005333,新規,0,2022-10-24,2022-10-24,鈴屋合同会社,,合同会社,東京都,北区,中十条３丁目６番３,,13,117,1140032,,,,,,,2022-10-24,1,,,,,スズヤ,0
559,3020001148635,新規,0,2022-10-24,2022-10-24,株式会社Ｒｅｓｉｌｉｅｎｃｅ,,株式会社,神奈川県,川崎市川崎区,東田町４番地１０,,14,131,2100005,,,,,,,2022-10-24,1,,,,,レジリエンス,0
562,3020003022607,新規,0,2022-10-24,2022-10-24,Ｇｌｏｂａｌ　Ｒｅｗａｒｄ　Ｓｏｌｕｔｉｏｎｓ　Ｊａｐａｎ合同会社,,合同会社,神奈川県,横浜市神奈川区,金港町７番地３金港ビル７Ｆ,,14,102,2210056,,,,,,,2022-10-24,1,,,,,グローバルリワードソリューションズジャパン,0
564,3020005015682,新規,0,2022-10-24,2022-10-24,一般社団法人東欧支援協会,,その他の設立登記法人,神奈川県,川崎市高津区,子母口２５８番地１,,14,134,2130023,,,,,,,2022-10-24,1,,,,,トウオウシエンキョウカイ,0
584,3021005012645,新規,0,2022-10-24,2022-10-24,一般社団法人１００年夢ライフサポート協会,,その他の設立登記法人,神奈川県,相模原市中央区,矢部４丁目１９番１２号サンモールクレスト１０１,,14,152,2520232,,,,,,,2022-10-24,1,,,,,ヒャクネンユメライフサポートキョウカイ,0
593,3030001150689,新規,0,2022-10-24,2022-10-24,株式会社エレガンス,,株式会社,埼玉県,川口市,大字道合２２番地の１－５０５号,,11,203,3330835,,,,,,,2022-10-24,1,,,,,エレガンス,0
594,3030001150697,新規,0,2022-10-24,2022-10-24,株式会社スマイルジャパン,,株式会社,埼玉県,川口市,青木２丁目６番４１号青木ハイム２０１号,,11,203,3320031,,,,,,,2022-10-24,1,,,,,スマイルジャパン,0
595,3030001150706,新規,0,2022-10-24,2022-10-24,株式会社Ｏｕｋａ,,株式会社,埼玉県,さいたま市大宮区,桜木町２丁目３番地大宮マルイ７階,,11,103,3300854,,,,,,,2022-10-24,1,,,,,オウカ,0
596,3030001150714,新規,0,2022-10-24,2022-10-24,パラシオン企画パートナーズ株式会社,,株式会社,埼玉県,越谷市,宮本町５丁目３９番１号パラシオン越谷１１０,,11,222,3430806,,,,,,,2022-10-24,1,,,,,パラシオンキカクパートナーズ,0
603,3030005021036,新規,0,2022-10-24,2022-10-24,医療法人社団恒慶会,,その他の設立登記法人,埼玉県,久喜市,青葉１丁目１番２－１０４号,,11,232,3460013,,,,,,,2022-10-24,1,,,,,コウケイカイ,0
607,3040001125533,新規,0,2022-10-24,2022-10-24,シトラスライン株式会社,,株式会社,千葉県,野田市,みずき３丁目５番地の１２,,12,208,2780027,,,,,,,2022-10-24,1,,,,,シトラスライン,0
608,3040001125574,新規,0,2022-10-24,2022-10-24,アイランドビレッジ株式会社,,株式会社,千葉県,松戸市,松戸新田２２－１７,,12,207,2702241,,,,,,,2022-10-24,1,,,,,アイランドビレッジ,0
613,3050003006937,新規,0,2022-10-24,2022-10-24,ＷＥＬＩＴＨＯＴＡ　ＩＮＴＥＲＮＡＴＩＯＮＡＬ合同会社,,合同会社,茨城県,筑西市,倉持１１２０番２１,,08,227,3004515,,,,,,,2022-10-24,1,,,,,ウェリソタインターナショナル,0
614,3050003006945,新規,0,2022-10-24,2022-10-24,合同会社Ｗｉｃｈｉｔ　Ｇｏｌｄ　Ｓｕｐｐｌｙ,,合同会社,茨城県,結城市,大字武井１１６２番地２,,08,207,3070043,,,,,,,2022-10-24,1,,,,,ウィチットゴールドサプライ,0
616,3050005013163,新規,0,2022-10-24,2022-10-24,一般社団法人Ｃｕｏｒｅ,,その他の設立登記法人,茨城県,潮来市,牛堀７０７番地３,,08,223,3112436,,,,,,,2022-10-24,1,,,,,クオーレ,0
626,3070001039755,新規,0,2022-10-24,2022-10-24,株式会社エイダイ,,株式会社,群馬県,館林市,西高根町３７番地の１４,,10,207,3740075,,,,,,,2022-10-24,1,,,,,エイダイ,0
631,3080401026113,新規,0,2022-10-24,2022-10-24,株式会社本間獣医科医院,,株式会社,静岡県,磐田市,鮫島３２１番地２,,22,211,4380055,,,,,,,2022-10-24,1,,,,,ホンマジュウイカイイン,0
635,3090001017817,新規,0,2022-10-24,2022-10-24,株式会社ＦｉＲＳＴ　ＰＥＮＧＵｉＮ．,,株式会社,山梨県,甲斐市,篠原８８４番地１,,19,210,4000115,,,,,,,2022-10-24,1,,,,,ファーストペンギン,0
640,3100001035809,新規,0,2022-10-24,2022-10-24,サーモグループ株式会社,,株式会社,長野県,長野市,大字栗田２１２５番地,,20,201,3800921,,,,,,,2022-10-24,1,,,,,サーモグループ,0
654,3120001249712,新規,0,2022-10-24,2022-10-24,大阪卓美実業株式会社,,株式会社,大阪府,大阪市中央区,日本橋２丁目２１番１７号,,27,128,5420073,,,,,,,2022-10-24,1,,,,,オオサカタクミジツギョウ,0
655,3120001249729,新規,0,2022-10-24,2022-10-24,株式会社金文,,株式会社,大阪府,大阪市中央区,日本橋１丁目１８番１号日本一会舘４０１号,,27,128,5420073,,,,,,,2022-10-24,1,,,,,カナフミ,0
656,3120001249737,新規,0,2022-10-24,2022-10-24,スビソフト開発投資株式会社,,株式会社,大阪府,大阪市東淀川区,小松１丁目１０番１１号エリータ上新庄３０６号,,27,114,5330004,,,,,,,2022-10-24,1,,,,,スビソフトカイハツトウシ,0
664,3120101066413,新規,0,2022-10-24,2022-10-24,株式会社Ｕ’ｓ　Ｓｔｒｅａｍ,,株式会社,大阪府,高石市,加茂１丁目８番２１号,,27,225,5920011,,,,,,,2022-10-24,1,,,,,ユーズストリーム,0
670,3130001072881,新規,0,2022-10-24,2022-10-24,株式会社有本フードサービス,,株式会社,京都府,京都市北区,衣笠西開キ町８番地２,,26,101,6038454,,,,,,,2022-10-24,1,,,,,アリモトフードサービス,0
672,3130003008264,新規,0,2022-10-24,2022-10-24,ＮＡＲＩ合同会社,,合同会社,京都府,八幡市,上津屋石ノ塔３９,,26,210,6148175,,,,,,,2022-10-24,1,,,,,ナリ,0
680,3140001127791,新規,0,2022-10-24,2022-10-24,株式会社ｕｌｕ,,株式会社,兵庫県,神戸市北区,若葉台１丁目５番１１号,,28,109,6511143,,,,,,,2022-10-24,1,,,,,ウル,0
688,3180001153479,新規,0,2022-10-24,2022-10-24,株式会社ひなた,,株式会社,愛知県,名古屋市中村区,太閤１丁目２０番１０号名古屋プレミアム医療モール太閤４Ｆ,,23,105,4530801,,,,,,,2022-10-24,1,,,,,ヒナタ,0
691,3180301036747,新規,0,2022-10-24,2022-10-24,株式会社テクレボ,,株式会社,愛知県,豊川市,南大通２丁目１７番地２Ｆ,,23,207,4420889,,,,,,,2022-10-24,1,,,,,テクレボ,0
695,3200001040575,新規,0,2022-10-24,2022-10-24,株式会社郡上左官,,株式会社,岐阜県,郡上市,白鳥町向小駄良５２６番地４,,21,219,5015126,,,,,,,2022-10-24,1,,,,,グジョウサカン,0
716,3290803004232,新規,0,2022-10-24,2022-10-24,ＳＹＤ合同会社,,合同会社,福岡県,直方市,大字感田２０００－１,,40,204,8220001,,,,,,,2022-10-24,1,,,,,エスワイディー,0
728,3350005006104,新規,0,2022-10-24,2022-10-24,一般社団法人Ｂｒａｎｃｈ,,その他の設立登記法人,宮崎県,児湯郡高鍋町,大字蚊口浦５１６６番地,,45,401,8840004,,,,,,,2022-10-24,1,,,,,ブランチ,0
731,3360003012400,新規,0,2022-10-24,2022-10-24,農業生産法人合同会社アグリサポートくりま,,合同会社,沖縄県,宮古島市,下地字来間４４番地,,47,214,9060306,,,,,,,2022-10-24,1,,,,,ノウギョウセイサンホウジンアグリサポートクリマ,0
775,4010001230260,新規,0,2022-10-24,2022-10-24,株式会社ＣＯＯ,,株式会社,東京都,文京区,白山２丁目８番１５号福田屋ビル３Ｆ,,13,105,1120001,,,,,,,2022-10-24,1,,,,,クー,0
776,4010001230310,新規,0,2022-10-24,2022-10-24,アムール商事株式会社,,株式会社,東京都,中央区,銀座７丁目３番１３号ニューギンザビル１号館９階,,13,102,1040061,,,,,,,2022-10-24,1,,,,,アムールショウジ,0
777,4010003038891,新規,0,2022-10-24,2022-10-24,リアルシード合同会社,,合同会社,東京都,千代田区,神田練塀町５５－１３０１,,13,101,1010022,,,,,,,2022-10-24,1,,,,,リアルシード,0
778,4010003038900,新規,0,2022-10-24,2022-10-24,ＤＲＥＡＭ合同会社,,合同会社,東京都,中央区,日本橋室町４丁目３番５号,,13,102,1030022,,,,,,,2022-10-24,1,,,,,ドリーム,0
779,4010003038917,新規,0,2022-10-24,2022-10-24,エンライコンサルティング合同会社,,合同会社,東京都,中央区,銀座１丁目２２番１１号銀座大竹ビジデンス２階,,13,102,1040061,,,,,,,2022-10-24,1,,,,,エンライコンサルティング,0
787,4010405021454,新規,0,2022-10-24,2022-10-24,一般財団法人大学生奨学財団,,その他の設立登記法人,東京都,港区,南青山３丁目１番３１号ＫＤ南青山ビル５Ｆ株式会社エアークローゼット内,,13,103,1070062,,,,,,,2022-10-24,1,,,,,ダイガクセイショウガクザイダン,0
791,4010705003441,新規,0,2022-10-24,2022-10-24,ＮＡＣＳ事業協同組合,,その他の設立登記法人,東京都,品川区,西五反田２丁目３０番１０号,,13,109,1410031,,,,,,,2022-10-24,1,,,,,ナックス,0
802,4011001150358,新規,0,2022-10-24,2022-10-24,株式会社ＢＬＩＮＫ,,株式会社,東京都,渋谷区,渋谷３丁目１番９号ＹＡＺＡＷＡビル３階,,13,113,1500002,,,,,,,2022-10-24,1,,,,,ブリンク,0
803,4011001150390,新規,0,2022-10-24,2022-10-24,ＺＩＬＬＥ株式会社,,株式会社,東京都,渋谷区,代々木１丁目４３番７号,,13,113,1510053,,,,,,,2022-10-24,1,,,,,ジレ,0
804,4011001150416,新規,0,2022-10-24,2022-10-24,株式会社ＲｅＣｒｅａｔｉｏｎ,,株式会社,東京都,目黒区,上目黒３丁目１１番６号井関ハウス３０５号,,13,110,1530051,,,,,,,2022-10-24,1,,,,,レクリエーション,0
805,4011001150432,新規,0,2022-10-24,2022-10-24,エフケイディ株式会社,,株式会社,東京都,渋谷区,道玄坂１丁目１０番８号渋谷道玄坂東急ビル２Ｆ－Ｃ,,13,113,1500043,,,,,,,2022-10-24,1,,,,,エフケイディ,0
806,4011001150457,新規,0,2022-10-24,2022-10-24,株式会社ＹＮＳコーポレーション,,株式会社,東京都,渋谷区,代々木１丁目３８番８号,,13,113,1510053,,,,,,,2022-10-24,1,,,,,ワイエヌエスコーポレーション,0
820,4011403003799,新規,0,2022-10-24,2022-10-24,ケー・ティー合同会社,,合同会社,東京都,板橋区,東山町２２－７,,13,119,1740073,,,,,,,2022-10-24,1,,,,,ケーティー,0
821,4011501028582,新規,0,2022-10-24,2022-10-24,株式会社スタイリング・デコ,,株式会社,東京都,北区,浮間４丁目９番１７号,,13,117,1150051,,,,,,,2022-10-24,1,,,,,スタイリングデコ,0
822,4011501028590,新規,0,2022-10-24,2022-10-24,Ｓｅｅ　ｔｈｅ　Ｆｕｔｕｒｅ株式会社,,株式会社,東京都,北区,上中里２丁目１番９号,,13,117,1140016,,,,,,,2022-10-24,1,,,,,シーザフューチャー,0
827,4012803002903,新規,0,2022-10-24,2022-10-24,Ｊ＆Ｃ合同会社,,合同会社,東京都,立川市,高松町２丁目２５番１号ニューパリアマンション５０３号,,13,202,1900011,,,,,,,2022-10-24,1,,,,,ジェイアンドシー,0
837,4020001148634,新規,0,2022-10-24,2022-10-24,株式会社アースサイエンス,,株式会社,神奈川県,横浜市旭区,都岡町６５番地の２５,,14,112,2410805,,,,,,,2022-10-24,1,,,,,アースサイエンス,0
839,4020003022622,新規,0,2022-10-24,2022-10-24,合同会社丸星,,合同会社,神奈川県,横浜市鶴見区,本町通３丁目１６６－１３,,14,101,2300048,,,,,,,2022-10-24,1,,,,,マルボシ,0
842,4021001077261,新規,0,2022-10-24,2022-10-24,株式会社Ｓｐｅｃｉｆｉｃ　Ｍａｒｋｅｔｉｎｇ,,株式会社,神奈川県,藤沢市,鵠沼東１－２－７０１,00128212,14,205,2510026,,,,,,,2022-10-24,1,,,,,スペシフィックマーケチング,0
856,4030001150688,新規,0,2022-10-24,2022-10-24,株式会社ＩＣＨＩＮＡ,,株式会社,埼玉県,三郷市,鷹野４丁目４４１番地,,11,237,3410035,,,,,,,2022-10-24,1,,,,,イチナ,0
857,4030001150705,新規,0,2022-10-24,2022-10-24,株式会社３‐Ｗｉｎ,,株式会社,埼玉県,所沢市,大字久米２１９７番地の１２,,11,208,3591131,,,,,,,2022-10-24,1,,,,,スリーウィン,0
872,4040003021119,新規,0,2022-10-24,2022-10-24,Ｋプロジェクト合同会社,,合同会社,千葉県,千葉市花見川区,幕張町４丁目６３９－９０,,12,102,2620032,,,,,,,2022-10-24,1,,,,,ケイプロジェクト,0
873,4050001051851,新規,0,2022-10-24,2022-10-24,株式会社ライフホーム赤坂,,株式会社,茨城県,笠間市,平町１７０２番地２３,,08,216,3091722,,,,,,,2022-10-24,1,,,,,ライフホームアカサカ,0
901,4120001249686,新規,0,2022-10-24,2022-10-24,株式会社大東,,株式会社,大阪府,大阪市淀川区,西宮原２丁目６－１６－９１４,,27,123,5320004,,,,,,,2022-10-24,1,,,,,ダイトウ,0
902,4120001249711,新規,0,2022-10-24,2022-10-24,株式会社プラチナ,,株式会社,大阪府,大阪市北区,天満橋１丁目４－１４天満橋ビル３０３号室,,27,127,5300042,,,,,,,2022-10-24,1,,,,,プラチナ,0
903,4120001249736,新規,0,2022-10-24,2022-10-24,基泰産業株式会社,,株式会社,大阪府,大阪市北区,天満２丁目９番１７号天満双葉ビル５０３号室,,27,127,5300043,,,,,,,2022-10-24,1,,,,,キタイサンギョウ,0
905,4120003022711,新規,0,2022-10-24,2022-10-24,合同会社ＢＡＮＫ,,合同会社,大阪府,大阪市生野区,巽南５丁目１４番２７－５１０号,00128226,27,116,5440015,,,,,,,2022-10-24,1,,,,,バンク,0
944,4180001153395,新規,0,2022-10-24,2022-10-24,株式会社ＳＫＤ,,株式会社,愛知県,名古屋市中区,栄５丁目３番３９号,,23,106,4600008,,,,,,,2022-10-24,1,,,,,エスケーディー,0
945,4180001153478,新規,0,2022-10-24,2022-10-24,ＢＲ株式会社,,株式会社,愛知県,名古屋市西区,新道１丁目３番３１号,,23,104,4510043,,,,,,,2022-10-24,1,,,,,ビーアール,0
946,4180001153511,新規,0,2022-10-24,2022-10-24,株式会社斉藤興業,,株式会社,愛知県,名古屋市北区,中味鋺３丁目１０１２番地リザイアＷ１０１号,,23,103,4620015,,,,,,,2022-10-24,1,,,,,サイトウコウギョウ,0
954,4220001025103,新規,0,2022-10-24,2022-10-24,株式会社ＮＡＬ,,株式会社,石川県,金沢市,西大桑町１４番３号,,17,201,9218102,,,,,,,2022-10-24,1,,,,,エヌエーエル,0
962,4270001008648,新規,0,2022-10-24,2022-10-24,株式会社バンシル,,株式会社,鳥取県,米子市,皆生温泉４丁目２番６ヴィラ皆生一番館１Ｆ,,31,202,6830001,,,,,,,2022-10-24,1,,,,,バンシル,0
970,4290001099314,新規,0,2022-10-24,2022-10-24,株式会社食ＬＡＢＯ,,株式会社,福岡県,春日市,天神山７丁目１８,,40,218,8160855,,,,,,,2022-10-24,1,,,,,ショクラボ,0
971,4290001099322,新規,0,2022-10-24,2022-10-24,アスキムホールディングス株式会社,,株式会社,福岡県,筑紫野市,大字筑紫６０９番地２,,40,217,8180025,,,,,,,2022-10-24,1,,,,,アスキムホールディングス,0
978,4290805009600,新規,0,2022-10-24,2022-10-24,ＮＰＯ法人ＰｏｏＰ,,その他の設立登記法人,福岡県,北九州市門司区,鳴竹２丁目１５番１５号,,40,101,8010881,,,,,,,2022-10-24,1,,,,,プープ,0
983,4330001030208,新規,0,2022-10-24,2022-10-24,太合株式会社,,株式会社,熊本県,熊本市中央区,新大江３丁目１４番２５号第２石南２０５号,,43,101,8620972,,,,,,,2022-10-24,1,,,,,タイゴウ,0
1026,5010001230268,新規,0,2022-10-24,2022-10-24,勝于勢株式会社,,株式会社,東京都,中央区,入船１丁目９番８号,,13,102,1040042,,,,,,,2022-10-24,1,,,,,カチウセイ,0
1027,5010001230334,新規,0,2022-10-24,2022-10-24,株式会社八王子ドローンスクール,,株式会社,東京都,千代田区,九段南１丁目５－６りそな九段ビル５Ｆ,,13,101,1020074,,,,,,,2022-10-24,1,,,,,ハチオウジドローンスクール,0
1038,5010501049489,新規,0,2022-10-24,2022-10-24,タスクデザイン株式会社,,株式会社,東京都,台東区,駒形２丁目１番５号ＭＯＯＮＰＬＡＣＥ４Ｆ,,13,106,1110043,,,,,,,2022-10-24,1,,,,,タスクデザイン,0
1046,5010703006429,新規,0,2022-10-24,2022-10-24,ＡＭＢＬＥ合同会社,,合同会社,東京都,品川区,上大崎１丁目２０番８号,,13,109,1410021,,,,,,,2022-10-24,1,,,,,アンブル,0
1058,5011001150398,新規,0,2022-10-24,2022-10-24,株式会社Ｕｎｙｔｅ,,株式会社,東京都,渋谷区,道玄坂１丁目１０番８号渋谷道玄坂東急ビル２Ｆ－Ｃ,,13,113,1500043,,,,,,,2022-10-24,1,,,,,ユナイト,0
1059,5011001150456,新規,0,2022-10-24,2022-10-24,株式会社ＢＵＳＨＩＴＳＵ,,株式会社,東京都,渋谷区,代々木１丁目４２番４号,,13,113,1510053,,,,,,,2022-10-24,1,,,,,ブシツ,0
1060,5011001150472,新規,0,2022-10-24,2022-10-24,株式会社ＳＡＲＶＷＥＬＬ,,株式会社,東京都,渋谷区,恵比寿１丁目１９番１５号ウノサワ東急ビル６Ｆ,,13,113,1500013,,,,,,,2022-10-24,1,,,,,サーブィル,0
1063,5011003015566,新規,0,2022-10-24,2022-10-24,合同会社アクト,,合同会社,東京都,渋谷区,代々木１丁目４３－１１－４,,13,113,1510053,,,,,,,2022-10-24,1,,,,,アクト,0
1066,5011101100575,新規,0,2022-10-24,2022-10-24,聖伯利株式会社,,株式会社,東京都,新宿区,西新宿３丁目３番－１３号西新宿水間ビル６階,,13,104,1600023,,,,,,,2022-10-24,1,,,,,セイハクリ,0
1067,5011101100617,新規,0,2022-10-24,2022-10-24,ｗｉｔｈＤａｔａ株式会社,,株式会社,東京都,新宿区,西新宿３丁目３番１３号西新宿水間ビル６階,,13,104,1600023,,,,,,,2022-10-24,1,,,,,ウィズデータ,0
1075,5011401024623,新規,0,2022-10-24,2022-10-24,株式会社ＧＥＮＥＳＩＳ,,株式会社,東京都,板橋区,徳丸１丁目２２番１１号,,13,119,1750083,,,,,,,2022-10-24,1,,,,,ジェネシス,0
1077,5011503005331,新規,0,2022-10-24,2022-10-24,合同会社栗原,,合同会社,東京都,荒川区,西尾久８丁目３０番１－１０９号,,13,118,1160011,,,,,,,2022-10-24,1,,,,,クリハラ,0
1079,5011701025726,新規,0,2022-10-24,2022-10-24,株式会社ミスタームーンライト,,株式会社,東京都,江戸川区,本一色２丁目５番５号,,13,123,1330044,,,,,,,2022-10-24,1,,,,,ミスタームーンライト,0
1082,5012403005636,新規,0,2022-10-24,2022-10-24,シリウス合同会社,,合同会社,東京都,府中市,宮町１丁目１１番地の４イプセ府中１５０２,,13,206,1830023,,,,,,,2022-10-24,1,,,,,シリウス,0
1084,5013101009037,新規,0,2022-10-24,2022-10-24,株式会社ＧＲ’ｄｉｎｇｓ,,株式会社,東京都,羽村市,栄町２丁目９番地３ＧａｒｄｅｎＨｉｌｌｓ１０３,,13,227,2050002,,,,,,,2022-10-24,1,,,,,ジーアールディングス,0
1089,5020001148666,新規,0,2022-10-24,2022-10-24,にばんしぼり株式会社,,株式会社,神奈川県,川崎市幸区,堀川町７２番地２１－Ｌ１６０４,,14,132,2120013,,,,,,,2022-10-24,1,,,,,ニバンシボリ,0
1090,5020001148682,新規,0,2022-10-24,2022-10-24,株式会社ＹＵＡＬＰＨＡ,,株式会社,神奈川県,横浜市保土ケ谷区,天王町１丁目１５番地２,,14,106,2400003,,,,,,,2022-10-24,1,,,,,ユーアルファ,0
1094,5020003022605,新規,0,2022-10-24,2022-10-24,合同会社ＴＲＵＳＴ,,合同会社,神奈川県,横浜市金沢区,釜利谷東３丁目４２番４４号,,14,108,2360042,,,,,,,2022-10-24,1,,,,,トラスト,0
1098,5021001077260,新規,0,2022-10-24,2022-10-24,株式会社ｉｎｃｌｕ,,株式会社,神奈川県,逗子市,小坪１丁目２６番１０号,,14,208,2490008,,,,,,,2022-10-24,1,,,,,インクル,0
1102,5021003012281,新規,0,2022-10-24,2022-10-24,アイセイジャパン合同会社,,合同会社,神奈川県,藤沢市,大鋸１２２６,,14,205,2510002,,,,,,,2022-10-24,1,,,,,アイセイジャパン,0
1113,5030001150670,新規,0,2022-10-24,2022-10-24,ブルーウォーカー株式会社,,株式会社,埼玉県,川口市,並木元町１番６６－１１０号,,11,203,3320033,,,,,,,2022-10-24,1,,,,,ブルーウォーカー,0
1114,5030001150687,新規,0,2022-10-24,2022-10-24,株式会社羽生商会,,株式会社,埼玉県,羽生市,大沼１丁目１３番,,11,216,3480016,,,,,,,2022-10-24,1,,,,,ハニュウショウカイ,0
1115,5030001150695,新規,0,2022-10-24,2022-10-24,インサイト株式会社,,株式会社,埼玉県,所沢市,北有楽町２２番１２号,,11,208,3591114,,,,,,,2022-10-24,1,,,,,インサイト,0
1116,5030001150704,新規,0,2022-10-24,2022-10-24,ワントラスト株式会社,,株式会社,埼玉県,春日部市,樋堀３５６番地３,,11,214,3440005,,,,,,,2022-10-24,1,,,,,ワントラスト,0
1125,5030003020450,新規,0,2022-10-24,2022-10-24,合同会社エイテクス新エネルギー発電,,合同会社,埼玉県,川口市,芝新町４番６号ＹＳタワー３０１Ｗ,,11,203,3330851,,,,,,,2022-10-24,1,,,,,エイテクスシンエネルギーハツデン,0
1132,5040003021118,新規,0,2022-10-24,2022-10-24,合同会社金丸工務店,,合同会社,千葉県,柏市,塚崎１３４２番地５６,,12,217,2770923,,,,,,,2022-10-24,1,,,,,カネマルコウムテン,0
1134,5040005021792,新規,0,2022-10-24,2022-10-24,医療法人社団すくすく,,その他の設立登記法人,千葉県,柏市,しいの木台５丁目２５番地７,,12,217,2770945,,,,,,,2022-10-24,1,,,,,スクスク,0
1137,5050001051850,新規,0,2022-10-24,2022-10-24,春満園株式会社,,株式会社,茨城県,常陸大宮市,上小瀬２０８４－２０６号室,,08,225,3192401,,,,,,,2022-10-24,1,,,,,シュンマンエン,0
1138,5050003006943,新規,0,2022-10-24,2022-10-24,合同会社Ｍａｉ,,合同会社,茨城県,取手市,中央町１番１号取手駅構内２Ｆ,,08,217,3020014,,,,,,,2022-10-24,1,,,,,マイ,0
1143,5100001035807,新規,0,2022-10-24,2022-10-24,株式会社Ａｍａｍｉ　Ｐａｒｔｎｅｒｓ,,株式会社,長野県,北佐久郡軽井沢町,大字追分３９８番地３,,20,321,3890115,,,,,,,2022-10-24,1,,,,,アマミパートナーズ,0
1144,5100003006731,新規,0,2022-10-24,2022-10-24,Ｔｈｒｅｅ　Ｗｏｏｄｓ合同会社,,合同会社,長野県,下高井郡野沢温泉村,大字豊郷９４３９番地１,,20,563,3892502,,,,,,,2022-10-24,1,,,,,スリーウッズ,0
1150,5120001249710,新規,0,2022-10-24,2022-10-24,株式会社エース,,株式会社,大阪府,大阪市北区,天満橋１丁目４－１４天満橋ビル３０１号室,,27,127,5300042,,,,,,,2022-10-24,1,,,,,エース,0
1151,5120001249719,新規,0,2022-10-24,2022-10-24,株式会社ＴＴ‐ＬＡＮＤ,,株式会社,大阪府,大阪市中央区,東心斎橋２丁目８番９号Ｂ１,,27,128,5420083,,,,,,,2022-10-24,1,,,,,ティティランド,0
1152,5120001249735,新規,0,2022-10-24,2022-10-24,真鶴株式会社,,株式会社,大阪府,大阪市中央区,糸屋町１丁目１－６－８１４号室,,27,128,5400022,,,,,,,2022-10-24,1,,,,,マヅル,0
1153,5120001249743,新規,0,2022-10-24,2022-10-24,Ａｉｒ　Ｐａｒｔｎｅｒｓ株式会社,,株式会社,大阪府,大阪市平野区,瓜破７丁目２番１８号,,27,126,5470024,,,,,,,2022-10-24,1,,,,,エアーパートナーズ,0
1155,5120003022710,新規,0,2022-10-24,2022-10-24,ＳＯＲＡ合同会社,,合同会社,大阪府,門真市,舟田町３５－８,,27,223,5710021,,,,,,,2022-10-24,1,,,,,ソラ,0
1156,5120005023260,新規,0,2022-10-24,2022-10-24,一般社団法人ＬＡ会,,その他の設立登記法人,大阪府,大阪市福島区,福島３丁目１番１７－８０４号,,27,103,5530003,,,,,,,2022-10-24,1,,,,,エルエーカイ,0
1160,5120101066403,新規,0,2022-10-24,2022-10-24,ファイナンシャルコンサルティング株式会社,,株式会社,大阪府,堺市堺区,百舌鳥夕雲町２丁２６１番地５,,27,141,5900802,,,,,,,2022-10-24,1,,,,,ファイナンシャルコンサルティング,0
1170,5140001127798,新規,0,2022-10-24,2022-10-24,株式会社ＪＳ　Ｇｒｏｕｐ,,株式会社,兵庫県,神戸市中央区,元町通１丁目２番３号,,28,110,6500022,,,,,,,2022-10-24,1,,,,,ジェイエスグループ,0
1180,5180001153469,新規,0,2022-10-24,2022-10-24,株式会社センスビューティー,,株式会社,愛知県,名古屋市名東区,植園町３丁目１７番地の１,,23,115,4650077,,,,,,,2022-10-24,1,,,,,センスビューティー,0
1201,5290001099255,新規,0,2022-10-24,2022-10-24,株式会社ＣｒｅｗＲａｖｅ,,株式会社,福岡県,福岡市中央区,天神１丁目４番１号西日本新聞会館１６階,,40,133,8100001,,,,,,,2022-10-24,1,,,,,クルーレイブ,0
1202,5290001099305,新規,0,2022-10-24,2022-10-24,株式会社吉村,,株式会社,福岡県,福岡市中央区,渡辺通１丁目１番１号,,40,133,8100004,,,,,,,2022-10-24,1,,,,,ヨシムラ,0
1205,5290805009599,新規,0,2022-10-24,2022-10-24,一般社団法人豊前生涯活躍地域づくり協議会,,その他の設立登記法人,福岡県,豊前市,大字吉木９５５番地,,40,214,8280051,,,,,,,2022-10-24,1,,,,,ブゼンショウガイカツヤクチイキヅクリキョウギカイ,0
1206,5310001018088,新規,0,2022-10-24,2022-10-24,ながはまホールディングス株式会社,,株式会社,長崎県,佐世保市,卸本町１番地１８６,,42,202,8571162,,,,,,,2022-10-24,1,,,,,ナガハマホールディングス,0
1214,5360001031086,新規,0,2022-10-24,2022-10-24,株式会社ＬＣ,,株式会社,沖縄県,那覇市,寄宮２丁目１９番１号２－Ａ,,47,201,9020064,,,,,,,2022-10-24,1,,,,,エルシー,0
1228,5430001087716,新規,0,2022-10-24,2022-10-24,株式会社ティーアール・ネクストステージ,,株式会社,北海道,札幌市手稲区,前田九条１１丁目３番１号,,01,109,0060819,,,,,,,2022-10-24,1,,,,,ティーアールネクストステージ,0
1239,5480001011893,新規,0,2022-10-24,2022-10-24,株式会社ＲＩＯＮ,,株式会社,徳島県,板野郡北島町,中村字竹ノ下２５番地１８,,36,402,7710203,,,,,,,2022-10-24,1,,,,,リオン,0
1260,6010001230259,新規,0,2022-10-24,2022-10-24,株式会社Ｙ’ｓ　ｕｎｉｖｅｒｓｅ,,株式会社,東京都,千代田区,丸の内１丁目１１番１号パシフィックセンチュリープレイス１３階,,13,101,1000005,,,,,,,2022-10-24,1,,,,,ワイズユニバース,0
1261,6010001230275,新規,0,2022-10-24,2022-10-24,エヌツーツー株式会社,,株式会社,東京都,千代田区,神田神保町２丁目３０番地神保町ハウスＲ０８,,13,101,1010051,,,,,,,2022-10-24,1,,,,,エヌツーツー,0
1273,6010401170344,新規,0,2022-10-24,2022-10-24,株式会社Ｓｔａｒｔ　Ｐａｃｋｓ,,株式会社,東京都,港区,南青山２丁目２－１５,,13,103,1070062,,,,,,,2022-10-24,1,,,,,スタートパックス,0
1278,6010601062028,新規,0,2022-10-24,2022-10-24,株式会社ＪＡＭ,,株式会社,東京都,江東区,大島８丁目３８番４号,,13,108,1360072,,,,,,,2022-10-24,1,,,,,ジャム,0
1284,6010703006428,新規,0,2022-10-24,2022-10-24,グリーンコネクト合同会社,,合同会社,東京都,品川区,上大崎３丁目１番１号目黒セントラルスクエア１５階,,13,109,1410021,,,,,,,2022-10-24,1,,,,,グリーンコネクト,0
1288,6010901051804,新規,0,2022-10-24,2022-10-24,株式会社ＡＧＥＮＣＩＡ,,株式会社,東京都,世田谷区,北烏山４丁目２３番２号,,13,112,1570061,,,,,,,2022-10-24,1,,,,,アジェンシア,0
1289,6010903007738,新規,0,2022-10-24,2022-10-24,合同会社ボーターズ,,合同会社,東京都,世田谷区,尾山台３丁目１９番１３号カーサビアンカＢ,,13,112,1580086,,,,,,,2022-10-24,1,,,,,ボーターズ,0
1296,6011001150372,新規,0,2022-10-24,2022-10-24,株式会社Ｓ．Ｉ．Ｇ,,株式会社,東京都,渋谷区,神宮前６丁目２９番４号,,13,113,1500001,,,,,,,2022-10-24,1,,,,,エスアイジー,0
1297,6011001150397,新規,0,2022-10-24,2022-10-24,株式会社Ｄ‐ＰＲＯＪＥＣＴ,,株式会社,東京都,渋谷区,恵比寿１丁目１８番４号ヴィレッジイースト３Ｆ,,13,113,1500013,,,,,,,2022-10-24,1,,,,,ディープロジェクト,0
1298,6011001150430,新規,0,2022-10-24,2022-10-24,株式会社ＫＡＫＵＫＡＴＡ,,株式会社,東京都,渋谷区,本町４丁目４１－１２,,13,113,1510071,,,,,,,2022-10-24,1,,,,,カクカタ,0
1299,6011001150455,新規,0,2022-10-24,2022-10-24,ブラックバック株式会社,,株式会社,東京都,渋谷区,恵比寿３丁目６番１９号１０２号室,,13,113,1500013,,,,,,,2022-10-24,1,,,,,ブラックバック,0
1300,6011003015565,新規,0,2022-10-24,2022-10-24,合同会社ＭＩＮＴ,,合同会社,東京都,渋谷区,恵比寿西１丁目２９番９号,,13,113,1500021,,,,,,,2022-10-24,1,,,,,ミント,0
1308,6011101100608,新規,0,2022-10-24,2022-10-24,株式会社ＨＦ,,株式会社,東京都,新宿区,北新宿４丁目４－２大内ビル７０２,,13,104,1690074,,,,,,,2022-10-24,1,,,,,エイチエフ,0
1314,6011701025725,新規,0,2022-10-24,2022-10-24,株式会社アイルビーバック,,株式会社,東京都,江戸川区,本一色３丁目１２番２号,,13,123,1330044,,,,,,,2022-10-24,1,,,,,アイルビーバック,0
1315,6012301013178,新規,0,2022-10-24,2022-10-24,株式会社ヤクシン町田,,株式会社,東京都,町田市,原町田６丁目２６番６号１Ｆ,,13,209,1940013,,,,,,,2022-10-24,1,,,,,ヤクシンマチダ,0
1316,6012303001734,新規,0,2022-10-24,2022-10-24,合同会社ＡＴＳＵ,,合同会社,東京都,町田市,木曽東１丁目４８番４４号,,13,209,1940036,,,,,,,2022-10-24,1,,,,,アツ,0
1326,6020001148649,新規,0,2022-10-24,2022-10-24,株式会社ＬＳ　ＪＡＰＡＮ,,株式会社,神奈川県,横浜市中区,尾上町５丁目６８番地馬車道ＲＡビル８階,,14,104,2310015,,,,,,,2022-10-24,1,,,,,エルエスジャパン,0
1327,6020001148657,新規,0,2022-10-24,2022-10-24,株式会社Ｎ４,,株式会社,神奈川県,横浜市鶴見区,駒岡３丁目１番１－４０１号,,14,101,2300071,,,,,,,2022-10-24,1,,,,,エヌフォー,0
1328,6020001148665,新規,0,2022-10-24,2022-10-24,株式会社ＹＡＭＡＮＡ　Ｗｉｎｅｓ＆Ｓｐｉｒｉｔｓ,,株式会社,神奈川県,横浜市鶴見区,生麦１丁目５番２０号１０１号室・１０２号室,,14,101,2300052,,,,,,,2022-10-24,1,,,,,ヤマナワインスアンドスピリッツ,0
1333,6020003022604,新規,0,2022-10-24,2022-10-24,合同会社Ｄａｉｓｙ’ｓ,,合同会社,神奈川県,横浜市磯子区,氷取沢町１５０－４パークハイツ８－４０５,,14,107,2350043,,,,,,,2022-10-24,1,,,,,デイジーズ,0
1350,6030001150703,新規,0,2022-10-24,2022-10-24,株式会社アラキ,,株式会社,埼玉県,越谷市,大字袋山６１番地７,,11,222,3430032,,,,,,,2022-10-24,1,,,,,アラキ,0
1351,6030001150711,新規,0,2022-10-24,2022-10-24,株式会社ＳＴＣソリューションズ,,株式会社,埼玉県,草加市,遊馬町１１１３番地５,,11,221,3400032,,,,,,,2022-10-24,1,,,,,エスティーシーソリューションズ,0
1362,6040001125571,新規,0,2022-10-24,2022-10-24,株式会社Ｓ．Ｙ．Ｍ,,株式会社,千葉県,千葉市中央区,新千葉１丁目７番２号,,12,101,2600031,,,,,,,2022-10-24,1,,,,,エスワイエム,0
1365,6040003021075,新規,0,2022-10-24,2022-10-24,合同会社ＭＯＮＡＳＨＩ　ＴＲＡＤＩＮＧ,,合同会社,千葉県,四街道市,大日１６７１番地７,,12,228,2840001,,,,,,,2022-10-24,1,,,,,モナシトレーディング,0
1366,6040005021791,新規,0,2022-10-24,2022-10-24,医療法人社団ＭＹＣ,,その他の設立登記法人,千葉県,千葉市稲毛区,小仲台６丁目１４番５号,,12,103,2630043,,,,,,,2022-10-24,1,,,,,エムワイシー,0
1378,6070005010049,新規,0,2022-10-24,2022-10-24,特定非営利活動法人館林ジョイスポーツクラブ,,その他の設立登記法人,群馬県,館林市,新宿２丁目６番１０号,,10,207,3740026,,,,,,,2022-10-24,1,,,,,タテバヤシジョイスポーツクラブ,0
1382,6090005007522,新規,0,2022-10-24,2022-10-24,特定非営利活動法人ＷＩＴＨ　ＹＯＵ,,その他の設立登記法人,山梨県,甲斐市,中下条６８６番地３,,19,210,4000124,,,,,,,2022-10-24,1,,,,,ウィズユウ,0
1383,6100001035806,新規,0,2022-10-24,2022-10-24,株式会社こじま自動車,,株式会社,長野県,飯田市,大瀬木１１０７番地３２,,20,205,3950157,,,,,,,2022-10-24,1,,,,,コジマジドウシャ,0
1390,6120001249726,新規,0,2022-10-24,2022-10-24,株式会社凱泰商貿,,株式会社,大阪府,大阪市西成区,岸里２丁目５番２１号,,27,122,5570041,,,,,,,2022-10-24,1,,,,,カイタイショウボウ,0
1391,6120001249734,新規,0,2022-10-24,2022-10-24,株式会社Ｋ．イールド,,株式会社,大阪府,大阪市淀川区,西中島１丁目９番２８－４０５号,,27,123,5320011,,,,,,,2022-10-24,1,,,,,ケーイールド,0
1396,6120003022701,新規,0,2022-10-24,2022-10-24,合同会社一蓮,,合同会社,大阪府,大阪市中央区,内本町２丁目４番１０－１３１０号,,27,128,5400026,,,,,,,2022-10-24,1,,,,,イチレン,0
1404,6130001072879,新規,0,2022-10-24,2022-10-24,株式会社新和,,株式会社,京都府,城陽市,寺田深谷６４番地の１７７,,26,207,6100121,,,,,,,2022-10-24,1,,,,,シンワ,0
1405,6130001072887,新規,0,2022-10-24,2022-10-24,株式会社ＮｅｘｔＬｉｆｅ,,株式会社,京都府,京都市北区,衣笠大祓町５番地,00128213,26,101,6038351,,,,,,,2022-10-24,1,,,,,ネクストライフ,0
1422,6140001127789,新規,0,2022-10-24,2022-10-24,株式会社キーネクスト,,株式会社,兵庫県,明石市,大蔵本町２０番２６号,,28,203,6730874,,,,,,,2022-10-24,1,,,,,キーネクスト,0
1425,6140005026351,新規,0,2022-10-24,2022-10-24,ＮＰＯ法人タビスキ,,その他の設立登記法人,兵庫県,明石市,旭が丘１３番２号,,28,203,6730002,,,,,,,2022-10-24,1,,,,,タビスキ,0
1434,6180001153476,新規,0,2022-10-24,2022-10-24,ＲＢ株式会社,,株式会社,愛知県,名古屋市天白区,境根町７８番地,,23,116,4680035,,,,,,,2022-10-24,1,,,,,アールビー,0
1435,6180001153484,新規,0,2022-10-24,2022-10-24,増輝貿易株式会社,,株式会社,愛知県,名古屋市中村区,則武１丁目１９番３号（加藤ビル４０２号室）,,23,105,4530014,,,,,,,2022-10-24,1,,,,,ゾウキボウエキ,0
1436,6180001153492,新規,0,2022-10-24,2022-10-24,株式会社ＬＩＢＥＮＤＬＥ,,株式会社,愛知県,名古屋市昭和区,鶴舞２丁目９番３号エスフォート鶴舞リアーレ１００４,,23,107,4660064,,,,,,,2022-10-24,1,,,,,リベンドル,0
1444,6210001019129,新規,0,2022-10-24,2022-10-24,株式会社Ａｃｔｉｂａｓｅふくい,,株式会社,福井県,坂井市,三国町北本町４丁目４番１８号,,18,210,9130046,,,,,,,2022-10-24,1,,,,,アクティベースフクイ,0
1456,6240001060534,新規,0,2022-10-24,2022-10-24,株式会社ＭＫ,,株式会社,広島県,尾道市,向島町６０９１番地１１,,34,205,7220073,,,,,,,2022-10-24,1,,,,,エムケー,0
1457,6250001019819,新規,0,2022-10-24,2022-10-24,株式会社まるむ,,株式会社,山口県,山口市,大内矢田南７丁目４番３６号,,35,203,7530222,,,,,,,2022-10-24,1,,,,,マルム,0
1458,6270003001450,新規,0,2022-10-24,2022-10-24,合同会社サンロード,,合同会社,鳥取県,鳥取市,栄町６５６番地,,31,201,6800831,,,,,,,2022-10-24,1,,,,,サンロード,0
1461,6290001099320,新規,0,2022-10-24,2022-10-24,株式会社クラウダー,,株式会社,福岡県,福岡市中央区,天神２丁目３番１０号天神パインクレスト７１９号,,40,133,8100001,,,,,,,2022-10-24,1,,,,,クラウダー,0
1466,6300001013106,新規,0,2022-10-24,2022-10-24,株式会社ジェネア,,株式会社,佐賀県,神埼市,千代田町姉１８１５番地１,,41,210,8420052,,,,,,,2022-10-24,1,,,,,ジェネア,0
1472,6350001018001,新規,0,2022-10-24,2022-10-24,株式会社ＦＵＪＩＨＩＲＯ運輸,,株式会社,宮崎県,宮崎市,阿波岐原町前浜４２７６番地４３,,45,201,8800835,,,,,,,2022-10-24,1,,,,,フジヒロウンユ,0
1475,6360001031052,新規,0,2022-10-24,2022-10-24,株式会社琉球エンターテイメント,,株式会社,沖縄県,中頭郡読谷村,字楚辺１３８８－１カサブランカヒル４０２,,47,324,9040304,,,,,,,2022-10-24,1,,,,,リュウキュウエンターテイメント,0
1476,6360001031077,新規,0,2022-10-24,2022-10-24,株式会社カフーホーム,,株式会社,沖縄県,うるま市,与那城屋慶名４６７番地１０５－Ｂ,,47,213,9042304,,,,,,,2022-10-24,1,,,,,カフーホーム,0
1477,6360005006736,新規,0,2022-10-24,2022-10-24,医療法人アイビー,,その他の設立登記法人,沖縄県,浦添市,西原６丁目３０番１０号アイビーテラス浦西ＢＯ３,,47,208,9012101,,,,,,,2022-10-24,1,,,,,アイビー,0
1485,6390003002008,新規,0,2022-10-24,2022-10-24,合同会社ハヤン・ルピナス,,合同会社,山形県,山形市,幸町５番１２号２階,,06,201,9900038,,,,,,,2022-10-24,1,,,,,ハヤンルピナス,0
1495,6430003014394,新規,0,2022-10-24,2022-10-24,合同会社坂野興業,,合同会社,北海道,札幌市南区,真駒内柏丘１０丁目４番５号,,01,106,0050022,,,,,,,2022-10-24,1,,,,,サカノコウギョウ,0
1499,6470001019301,新規,0,2022-10-24,2022-10-24,株式会社Ａｐｐｐ,,株式会社,香川県,高松市,サンポート２番１号高松シンボルタワータワー棟５階,,37,201,7600019,,,,,,,2022-10-24,1,,,,,アップ,0
1515,6700150112238,新規,0,2022-10-24,2022-10-24,Ｇｉｇａｂｉｔ　Ｈｏｓｔｉｎｇ　Ｓｄｎ．Ｂｈｄ．,,外国会社等,東京都,港区,赤坂２丁目１４番５号Ｄａｉｗａ赤坂ビル４階,,13,103,1070052,マレーシア、クアラルンプール連邦直轄領クアラルンプール５８１００、プサット・ダガンガン・サード・マイル・スクウェア、クラン・ラマ通り５－２、３番１５１,,,,,,2022-10-24,1,,,,,ギガビツトホステイングスンデイリアンブルハド,0
1521,7010001230266,新規,0,2022-10-24,2022-10-24,ＬＩＮＲＡＮ　ＳＴＵＤＩＯ株式会社,,株式会社,東京都,中央区,日本橋小伝馬町１７番１５号ＬＳＴビル,,13,102,1030001,,,,,,,2022-10-24,1,,,,,リンランスタジオ,0
1524,7010005035694,新規,0,2022-10-24,2022-10-24,一般社団法人中小企業保険振興協会,,その他の設立登記法人,東京都,中央区,銀座３丁目４番１号大倉別館５階,,13,102,1040061,,,,,,,2022-10-24,1,,,,,チュウショウキギョウホケンシンコウキョウカイ,0
1534,7010601062027,新規,0,2022-10-24,2022-10-24,株式会社同人テック,,株式会社,東京都,江東区,亀戸９丁目３４番１－８２４号,,13,108,1360071,,,,,,,2022-10-24,1,,,,,ドウジンテック,0
1538,7010803004322,新規,0,2022-10-24,2022-10-24,合同会社ＫＪ,,合同会社,東京都,大田区,田園調布１丁目５２番１５号,,13,111,1450071,,,,,,,2022-10-24,1,,,,,ケージェー,0
1539,7010901051844,新規,0,2022-10-24,2022-10-24,株式会社ＰＶ社,,株式会社,東京都,世田谷区,用賀４丁目１８－９,,13,112,1580097,,,,,,,2022-10-24,1,,,,,ピーブイシャ,0
1549,7011001150388,新規,0,2022-10-24,2022-10-24,株式会社ＫＳＤ,,株式会社,東京都,目黒区,碑文谷６丁目３－１４ＦｌａｔＯｌｉｖｅ２０４,,13,110,1520003,,,,,,,2022-10-24,1,,,,,ケーエスディー,0
1550,7011001150421,新規,0,2022-10-24,2022-10-24,株式会社ｄａｋａｒａｙｏ,,株式会社,東京都,目黒区,自由が丘２丁目１６－１２ＲＪ３,,13,110,1520035,,,,,,,2022-10-24,1,,,,,ダカラヨ,0
1551,7011001150454,新規,0,2022-10-24,2022-10-24,株式会社ｋｏｔｔａｍａ,,株式会社,東京都,目黒区,上目黒１丁目８番１０－３０３号,,13,110,1530051,,,,,,,2022-10-24,1,,,,,コッタマ,0
1552,7011001150470,新規,0,2022-10-24,2022-10-24,Ｍｏｍｅｎｔｕｍ　Ｓｅａｒｃｈ　Ｐａｒｔｎｅｒｓ株式会社,,株式会社,東京都,目黒区,中目黒５丁目１番１８号ゼファー１０１,,13,110,1530061,,,,,,,2022-10-24,1,,,,,モメンタムリサーチパートナーズ,0
1553,7011001150487,新規,0,2022-10-24,2022-10-24,株式会社ＰＩＰＩＮ,,株式会社,東京都,目黒区,鷹番３丁目６番７号,,13,110,1520004,,,,,,,2022-10-24,1,,,,,ピピン,0
1555,7011003015580,新規,0,2022-10-24,2022-10-24,合同会社福田商事,,合同会社,東京都,渋谷区,神宮前６丁目２３－４桑野ビル２Ｆ,,13,113,1500001,,,,,,,2022-10-24,1,,,,,フクタショウジ,0
1564,7011101100607,新規,0,2022-10-24,2022-10-24,株式会社コネクタス,,株式会社,東京都,新宿区,新宿３丁目４番８号京王フレンテ新宿３丁目４０９,,13,104,1600022,,,,,,,2022-10-24,1,,,,,コネクタス,0
1566,7011303004556,新規,0,2022-10-24,2022-10-24,合同会社Ｒ,,合同会社,東京都,杉並区,松庵３丁目１７番７号,,13,115,1670054,,,,,,,2022-10-24,1,,,,,アール,0
1576,7011701025724,新規,0,2022-10-24,2022-10-24,株式会社イエスタディ,,株式会社,東京都,江戸川区,本一色２丁目５番５号,,13,123,1330044,,,,,,,2022-10-24,1,,,,,イエスタディ,0
1578,7012701017315,新規,0,2022-10-24,2022-10-24,株式会社Ｍｅｓｓｉａｈ,,株式会社,東京都,西東京市,ひばりが丘北３丁目６番１０－２０２号,,13,229,2020002,,,,,,,2022-10-24,1,,,,,メシア,0
1588,7020001148656,新規,0,2022-10-24,2022-10-24,平和商事株式会社,,株式会社,神奈川県,横浜市中区,長者町９丁目１７２番地平和ビル,,14,104,2310033,,,,,,,2022-10-24,1,,,,,,0
1589,7020001148664,新規,0,2022-10-24,2022-10-24,株式会社ＳＦクリエイト,,株式会社,神奈川県,横浜市神奈川区,三枚町１７３番地１９,,14,102,2210862,,,,,,,2022-10-24,1,,,,,エスエフクリエイト,0
1590,7020001148672,新規,0,2022-10-24,2022-10-24,ワイエムウォーカー株式会社,,株式会社,神奈川県,横浜市港北区,篠原西町２４番１３号,,14,109,2220025,,,,,,,2022-10-24,1,,,,,ワイエムウォーカー,0
1594,7020003022603,新規,0,2022-10-24,2022-10-24,合同会社ＥＲＡ,,合同会社,神奈川県,横浜市鶴見区,矢向５丁目５番７号,,14,101,2300001,,,,,,,2022-10-24,1,,,,,エラ,0
1608,7030001150710,新規,0,2022-10-24,2022-10-24,株式会社ＴＭＴ,,株式会社,埼玉県,春日部市,粕壁２丁目７番４１号ＢＥＣＫＥＡＳＴ６０２,,11,214,3440061,,,,,,,2022-10-24,1,,,,,ティーエムティー,0
1614,7030003020449,新規,0,2022-10-24,2022-10-24,ＤＭＤＡ合同会社,,合同会社,埼玉県,加須市,本町７番１１号,,11,210,3470066,,,,,,,2022-10-24,1,,,,,ディーエムディーエー,0
1616,7030005021040,新規,0,2022-10-24,2022-10-24,医療法人緑薫会,,その他の設立登記法人,埼玉県,所沢市,有楽町６番２号ヤオコー所沢有楽町店１階,,11,208,3591117,,,,,,,2022-10-24,1,,,,,リョククンカイ,0
1624,7040001125546,新規,0,2022-10-24,2022-10-24,すぱいらる８株式会社,,株式会社,千葉県,南房総市,山下２２４番地,,12,234,2940816,,,,,,,2022-10-24,1,,,,,スパイラルエイト,0
1631,7050001051840,新規,0,2022-10-24,2022-10-24,アリアンツテック株式会社,,株式会社,茨城県,つくば市,千現２丁目１－６つくば研究支援センターＡ－１９－ＩＩＩ,00128214,08,220,3050047,,,,,,,2022-10-24,1,,,,,アリアンツテック,0
1632,7050001051849,新規,0,2022-10-24,2022-10-24,株式会社いくとせ,,株式会社,茨城県,つくばみらい市,陽光台３丁目２２番地１,,08,235,3002358,,,,,,,2022-10-24,1,,,,,イクトセ,0
1634,7050003006941,新規,0,2022-10-24,2022-10-24,合同会社清水工業,,合同会社,茨城県,守谷市,立沢７４５番地の１,,08,224,3020118,,,,,,,2022-10-24,1,,,,,シミズコウギョウ,0
1638,7080001025263,新規,0,2022-10-24,2022-10-24,株式会社ｔｒｓ,,株式会社,静岡県,静岡市清水区,天王西４－１２,,22,103,4240016,,,,,,,2022-10-24,1,,,,,ティーアールエス,0
1643,7100001035805,新規,0,2022-10-24,2022-10-24,株式会社グリーン世界,,株式会社,長野県,伊那市,日影２８７番地４田畑ビル２Ｆ東,,20,209,3960009,,,,,,,2022-10-24,1,,,,,グリーンセカイ,0
1645,7110001037057,新規,0,2022-10-24,2022-10-24,株式会社新潟都心開発,,株式会社,新潟県,新潟市中央区,米山２丁目７番地３,,15,103,9500916,,,,,,,2022-10-24,1,,,,,ニイガタトシンカイハツ,0
1653,7120001249576,新規,0,2022-10-24,2022-10-24,株式会社ニュージャパンホールディングス,,株式会社,大阪府,大阪市北区,堂山町９番５号,,27,127,5300027,,,,,,,2022-10-24,1,,,,,ニュージャパンホールディングス,0
1654,7120001249725,新規,0,2022-10-24,2022-10-24,ＨＡＬＥ株式会社,,株式会社,大阪府,大阪市北区,茶屋町１番２７号,,27,127,5300013,,,,,,,2022-10-24,1,,,,,ハレ,0
1656,7120003022709,新規,0,2022-10-24,2022-10-24,グリモア合同会社,,合同会社,大阪府,大阪市西区,北堀江１丁目２２－２５プレジール北堀江１１Ｆ３番,,27,106,5500014,,,,,,,2022-10-24,1,,,,,グリモア,0
1665,7122005003645,新規,0,2022-10-24,2022-10-24,特定非営利活動法人大東ゆめファーム,,その他の設立登記法人,大阪府,大東市,南楠の里町１４番２８号,,27,218,5740004,,,,,,,2022-10-24,1,,,,,ダイトウユメファーム,0
1671,7130005016617,新規,0,2022-10-24,2022-10-24,一般社団法人はぐくみ共同体ｎａｌｂａ,,その他の設立登記法人,京都府,京都市左京区,下鴨膳部町６番地２５,,26,103,6060815,,,,,,,2022-10-24,1,,,,,ハグクミキョウドウタイナルバ,0
1678,7140001127796,新規,0,2022-10-24,2022-10-24,株式会社ＫＩＮＧ　ＣＬＥＡＮＥＲＳ,,株式会社,兵庫県,宝塚市,高司１丁目４番１１－２号,,28,214,6650051,,,,,,,2022-10-24,1,,,,,キングクリナーズ,0
1680,7140003018267,新規,0,2022-10-24,2022-10-24,合同会社タンブルウィード,,合同会社,兵庫県,川西市,花屋敷１丁目３０番４号,,28,217,6660035,,,,,,,2022-10-24,1,,,,,タンブルウィード,0
1682,7160003002707,新規,0,2022-10-24,2022-10-24,合同会社ｃｏｃｏｏｎ,,合同会社,滋賀県,栗東市,綣８丁目２１－２,,25,208,5203031,,,,,,,2022-10-24,1,,,,,コクーン,0
1684,7160005011136,新規,0,2022-10-24,2022-10-24,一般社団法人Ｄｅｓｉｇｎ　Ｄｉｍｅｎｓｉｏｎ,,その他の設立登記法人,滋賀県,大津市,萱野浦２５番４７号,,25,201,5202143,,,,,,,2022-10-24,1,,,,,デザインディメンション,0
1695,7180001153483,新規,0,2022-10-24,2022-10-24,元莱益健康株式会社,00128211,株式会社,愛知県,名古屋市中区,栄１丁目１６番１６号－９１４号室,,23,106,4600008,,,,,,,2022-10-24,1,,,,,ガンライエキケンコウ,0
1696,7180001153509,新規,0,2022-10-24,2022-10-24,株式会社Ｉｎｏｕｃｈｉ設備,,株式会社,愛知県,名古屋市北区,苗田町１０６番地アネックスビル２０１号,,23,103,4620009,,,,,,,2022-10-24,1,,,,,イノウチセツビ,0
1705,7190001029856,新規,0,2022-10-24,2022-10-24,株式会社ＳＯＵ,,株式会社,三重県,四日市市,釆女町８８３番地１リバーサイド花ノ木１０５,,24,202,5100954,,,,,,,2022-10-24,1,,,,,ソウ,0
1710,7200001040571,新規,0,2022-10-24,2022-10-24,株式会社ＡＲＭＳ,,株式会社,岐阜県,多治見市,生田町４丁目８１番地,,21,204,5070807,,,,,,,2022-10-24,1,,,,,アームズ,0
1727,7290001099303,新規,0,2022-10-24,2022-10-24,三角アセットマネジメント株式会社,,株式会社,福岡県,福岡市博多区,博多駅前２丁目１９番２７号,,40,132,8120011,,,,,,,2022-10-24,1,,,,,ミスミアセットマネジメント,0
1728,7290001099311,新規,0,2022-10-24,2022-10-24,株式会社Ｃｏｌｌｅｌｉｓ,,株式会社,福岡県,福岡市中央区,天神４丁目６－２８天神ファーストビル７階,,40,133,8100001,,,,,,,2022-10-24,1,,,,,コレリス,0
1733,7290005018837,新規,0,2022-10-24,2022-10-24,特定非営利活動法人スペシャルニーズドリームステーション,,その他の設立登記法人,福岡県,糟屋郡久山町,大字久原１１６６番地３２,,40,348,8112501,,,,,,,2022-10-24,1,,,,,スペシャルニーズドリームステーション,0
1737,7320001019389,新規,0,2022-10-24,2022-10-24,九重の飯田株式会社,,株式会社,大分県,玖珠郡九重町,大字田野２５５３番地の１２,,44,461,8794911,,,,,,,2022-10-24,1,,,,,クジュウノイイダ,0
1766,7430003014377,新規,0,2022-10-24,2022-10-24,ＰＡ　Ｄｅｖｅｌｏｐｍｅｎｔｓ合同会社,,合同会社,北海道,虻田郡留寿都村,字留寿都３３番地,,01,397,0481731,,,,,,,2022-10-24,1,,,,,ピーエーディベロップメンツ,0
1772,7490003001709,新規,0,2022-10-24,2022-10-24,合同会社セバス,,合同会社,高知県,須崎市,西町１丁目１２－１９,,39,206,7850009,,,,,,,2022-10-24,1,,,,,セバス,0
1789,7700150112030,新規,0,2022-10-24,2022-10-05,在日本大韓民国民団長崎県対馬支部,,その他,長崎県,対馬市,厳原町国分１３７１－１,,42,209,8170022,,,,,,,2022-10-05,1,,,,,ザイニホンダイカンミンコクミンダンナガサキケンツシマシブ,0
1800,8010001230265,新規,0,2022-10-24,2022-10-24,株式会社Ｔｈａｎｋｓ　Ｃａｒｇｏ,,株式会社,東京都,中央区,銀座７丁目１３番６号サガミビル,,13,102,1040061,,,,,,,2022-10-24,1,,,,,サンクスカーゴ,0
1801,8010001230348,新規,0,2022-10-24,2022-10-24,株式会社深沢・村岡アーバンマネジメント,,株式会社,東京都,千代田区,丸の内２丁目３番１号,,13,101,1000005,,,,,,,2022-10-24,1,,,,,フカサワムラオカアーバンマネジメント,0
1803,8010003038905,新規,0,2022-10-24,2022-10-24,ＧＵＲ２合同会社,,合同会社,東京都,千代田区,大手町１丁目５番１号,,13,101,1000004,,,,,,,2022-10-24,1,,,,,ジーユーアールツー,0
1819,8010701043371,新規,0,2022-10-24,2022-10-24,株式会社宍倉建設,,株式会社,東京都,品川区,小山３丁目１５番２号パークシティ武蔵小山ザタワー２５１１,,13,109,1420062,,,,,,,2022-10-24,1,,,,,シシクラケンセツ,0
1821,8010803004321,新規,0,2022-10-24,2022-10-24,合同会社ハチジョウ,,合同会社,東京都,大田区,北馬込２丁目１５番１０号,,13,111,1430021,,,,,,,2022-10-24,1,,,,,ハチジョウ,0
1827,8010901051827,新規,0,2022-10-24,2022-10-24,エノク株式会社,,株式会社,東京都,世田谷区,世田谷１丁目４１番２号,,13,112,1540017,,,,,,,2022-10-24,1,,,,,エノク,0
1838,8011001150230,新規,0,2022-10-24,2022-10-24,株式会社ＳＥＲＥＡＳ,,株式会社,東京都,渋谷区,神宮前６丁目２３－４桑野ビル２Ｆ,,13,113,1500001,,,,,,,2022-10-24,1,,,,,セレアス,0
1839,8011001150387,新規,0,2022-10-24,2022-10-24,株式会社ＦＹＳ,,株式会社,東京都,渋谷区,千駄ヶ谷４丁目３０－８－２０２,,13,113,1510051,,,,,,,2022-10-24,1,,,,,エフワイエス,0
1840,8011001150395,新規,0,2022-10-24,2022-10-24,株式会社ネクタス,,株式会社,東京都,渋谷区,円山町５番５号,,13,113,1500044,,,,,,,2022-10-24,1,,,,,ネクタス,0
1841,8011003015563,新規,0,2022-10-24,2022-10-24,アビュータス合同会社,,合同会社,東京都,渋谷区,東３丁目６番２４号ルーブル恵比寿８０１,,13,113,1500011,,,,,,,2022-10-24,1,,,,,,0
1846,8011101100622,新規,0,2022-10-24,2022-10-24,株式会社テクアート,,株式会社,東京都,新宿区,大久保２丁目７番１号,,13,104,1690072,,,,,,,2022-10-24,1,,,,,テクアート,0
1849,8011303004555,新規,0,2022-10-24,2022-10-24,合同会社ＳＯＭＥＲＵ,,合同会社,東京都,杉並区,阿佐谷南２丁目１７番７号ランドエイトビル５階,,13,115,1660004,,,,,,,2022-10-24,1,,,,,ソメル,0
1853,8011501028587,新規,0,2022-10-24,2022-10-24,株式会社ニチケン,,株式会社,東京都,北区,上十条４丁目１３番５号,,13,117,1140034,,,,,,,2022-10-24,1,,,,,,0
1855,8011701025723,新規,0,2022-10-24,2022-10-24,株式会社ジュリア,,株式会社,東京都,江戸川区,本一色３丁目１２番２号,,13,123,1330044,,,,,,,2022-10-24,1,,,,,ジュリア,0
1859,8012301013176,新規,0,2022-10-24,2022-10-24,株式会社ヒロ工房,,株式会社,東京都,町田市,成瀬が丘２丁目２４番３菅沼ビル壱階Ｂ号室,,13,209,1940011,,,,,,,2022-10-24,1,,,,,ヒロコウボウ,0
1862,8012401039773,新規,0,2022-10-24,2022-10-24,株式会社ＬＶ,,株式会社,東京都,狛江市,猪方３丁目２７番６号メゾン・サンティールＡ１０２,,13,219,2010015,,,,,,,2022-10-24,1,,,,,ラスベガス,0
1863,8012401039781,新規,0,2022-10-24,2022-10-24,なにゆえ株式会社,,株式会社,東京都,多摩市,落合１丁目４６－１ココリア多摩センター７Ｆ,,13,224,2060033,,,,,,,2022-10-24,1,,,,,ナニユエ,0
1864,8012403005633,新規,0,2022-10-24,2022-10-24,合同会社ご褒美,,合同会社,東京都,調布市,多摩川４丁目３２番地９,,13,208,1820025,,,,,,,2022-10-24,1,,,,,ゴホウビ,0
1865,8012703002561,新規,0,2022-10-24,2022-10-24,合同会社ｎｉｃｏｎｉｃｏ,,合同会社,東京都,小平市,花小金井４丁目２０番２２－１号,,13,211,1870002,,,,,,,2022-10-24,1,,,,,ニコニコ,0
1869,8020001148614,新規,0,2022-10-24,2022-10-24,ＷＡＫＯ　ＧＲＯＵＰ　ＨＯＬＤＩＮＧＳ株式会社,,株式会社,神奈川県,川崎市幸区,堀川町５８０番地,,14,132,2120013,,,,,,,2022-10-24,1,,,,,ワコウグループホールディングス,0
1874,8020003022610,新規,0,2022-10-24,2022-10-24,合同会社ＣＥＬＬ,,合同会社,神奈川県,横浜市中区,羽衣町２丁目８番地１ザ・パークハビオ横浜関内１２０２,,14,104,2310047,,,,,,,2022-10-24,1,,,,,セル,0
1888,8030001150692,新規,0,2022-10-24,2022-10-24,株式会社Ｓｈｉｎｅ　Ｄａｙｓ,,株式会社,埼玉県,蕨市,中央２丁目１６番２１号アーバンディラわらび５０２号,,11,223,3350004,,,,,,,2022-10-24,1,,,,,シャインデイズ,0
1894,8030003020448,新規,0,2022-10-24,2022-10-24,ＡＤ　ＩＮＴＥＲＮＡＴＩＯＮＡＬ合同会社,,合同会社,埼玉県,東松山市,元宿２丁目２６－２,,11,212,3550063,,,,,,,2022-10-24,1,,,,,エーディーインターナショナル,0
1901,8040001125520,新規,0,2022-10-24,2022-10-24,株式会社フレンチワン,,株式会社,千葉県,八千代市,緑が丘１丁目２番地１パークタワー八千代緑が丘８０３,,12,221,2760049,,,,,,,2022-10-24,1,,,,,フレンチワン,0
1903,8040003021123,新規,0,2022-10-24,2022-10-24,合同会社栩栩,,合同会社,千葉県,千葉市若葉区,若松町９０２番地２ツインエルシティ千葉１番館３１９号,,12,104,2640021,,,,,,,2022-10-24,1,,,,,クク,0
1907,8070001039759,新規,0,2022-10-24,2022-10-24,株式会社ファイブテン,,株式会社,群馬県,伊勢崎市,波志江町４１３８番地１７,,10,204,3720001,,,,,,,2022-10-24,1,,,,,ファイブテン,0
1912,8080001025262,新規,0,2022-10-24,2022-10-24,株式会社ＨＡＲＶＥＳＴ　ＭＯＯＮ,,株式会社,静岡県,静岡市葵区,吉野町４番７号,,22,101,4200046,,,,,,,2022-10-24,1,,,,,ハーベストムーン,0
1915,8080005007488,新規,0,2022-10-24,2022-10-24,行政書士法人ＹＫＳ事務所,,その他の設立登記法人,静岡県,静岡市清水区,有東坂１８番２３号,,22,103,4240873,,,,,,,2022-10-24,1,,,,,ワイケーエスジムショ,0
1928,8110001037056,新規,0,2022-10-24,2022-10-24,株式会社ケンシン,,株式会社,新潟県,妙高市,大字北条５９８番地１,,15,217,9440021,,,,,,,2022-10-24,1,,,,,ケンシン,0
1935,8120001249699,新規,0,2022-10-24,2022-10-24,株式会社Ｍａｔｉｌｄａ,,株式会社,大阪府,大阪市中央区,船場中央３丁目３番９－２０９号,,27,128,5410055,,,,,,,2022-10-24,1,,,,,マチルダ,0
1936,8120001249732,新規,0,2022-10-24,2022-10-24,株式会社錦,,株式会社,大阪府,大阪市浪速区,日本橋東１丁目２番１７－６０１号,,27,111,5560006,,,,,,,2022-10-24,1,,,,,ニシキ,0
1937,8120001249765,新規,0,2022-10-24,2022-10-24,株式会社チューリップ,,株式会社,大阪府,大阪市西区,南堀江４丁目１３番１９－１３０３号,,27,106,5500015,,,,,,,2022-10-24,1,,,,,チューリップ,0
1944,8120005023258,新規,0,2022-10-24,2022-10-24,一般社団法人ＵＰＡＬＡ,,その他の設立登記法人,大阪府,大阪市北区,梅田１丁目２番２号大阪駅前第２ビル１２－１２,,27,127,5300001,,,,,,,2022-10-24,1,,,,,ウパラ,0
1947,8120101066409,新規,0,2022-10-24,2022-10-24,株式会社マリア,,株式会社,大阪府,岸和田市,土生町６丁目７番１３号,,27,202,5960825,,,,,,,2022-10-24,1,,,,,マリア,0
1948,8120103004894,新規,0,2022-10-24,2022-10-24,合同会社ハルカ,,合同会社,大阪府,堺市堺区,南旅篭町西３丁１番２号,,27,141,5900968,,,,,,,2022-10-24,1,,,,,ハルカ,0
1950,8120901046634,新規,0,2022-10-24,2022-10-24,株式会社寺野,,株式会社,大阪府,豊中市,宮山町４丁目２４番１０号,,27,203,5600056,,,,,,,2022-10-24,1,,,,,テラノ,0
1951,8120901046642,新規,0,2022-10-24,2022-10-24,裕’ＹＯＵ株式会社,,株式会社,大阪府,豊中市,新千里東町１丁目３番せんちゅうパル４階,,27,203,5600082,,,,,,,2022-10-24,1,,,,,ユウユウ,0
1952,8120903004342,新規,0,2022-10-24,2022-10-24,合同会社ドロンバ,,合同会社,大阪府,吹田市,元町１９番１２号第一プラザビル,,27,205,5640031,,,,,,,2022-10-24,1,,,,,ドロンバ,0
1959,8130001072869,新規,0,2022-10-24,2022-10-24,株式会社高福,00128227,株式会社,京都府,南丹市,園部町小山東町島所４１番地２－２０３,,26,213,6220041,,,,,,,2022-10-24,1,,,,,タカフク,0
1960,8130001072877,新規,0,2022-10-24,2022-10-24,株式会社ＩＮＴ,,株式会社,京都府,京都市伏見区,深草勧進橋町５０番地３１,,26,109,6128405,,,,,,,2022-10-24,1,,,,,アイエヌティー,0
1972,8140001127787,新規,0,2022-10-24,2022-10-24,株式会社ＴＨＲＥＥ　ＷＡＹ　ＧＯＯＤ,,株式会社,兵庫県,明石市,東野町１９６０番地の６,,28,203,6730844,,,,,,,2022-10-24,1,,,,,スリーウェイグッド,0
1973,8140001127795,新規,0,2022-10-24,2022-10-24,株式会社ファーメディカル,,株式会社,兵庫県,姫路市,青山西４丁目５番２３号,,28,201,6712224,,,,,,,2022-10-24,1,,,,,ファーメディカル,0
1978,8140003018274,新規,0,2022-10-24,2022-10-24,合同会社まゆげ,,合同会社,兵庫県,神戸市兵庫区,神田町４番６－１号,,28,105,6520006,,,,,,,2022-10-24,1,,,,,マユゲ,0
2004,8200001040554,新規,0,2022-10-24,2022-10-24,株式会社明芽,,株式会社,岐阜県,各務原市,蘇原柿沢町１丁目５番地１カプリスＫ１,,21,213,5040825,,,,,,,2022-10-24,1,,,,,アメ,0
2008,8220003003383,新規,0,2022-10-24,2022-10-24,合同会社ＲＩＶＡＣＥＮＴ,,合同会社,石川県,金沢市,西金沢４丁目１９０番地,,17,201,9218054,,,,,,,2022-10-24,1,,,,,リヴァセント,0
2010,8230001019562,新規,0,2022-10-24,2022-10-24,株式会社マキシ,,株式会社,富山県,富山市,布目３４８８番地１,,16,201,9302233,,,,,,,2022-10-24,1,,,,,マキシ,0
2025,8290001099319,新規,0,2022-10-24,2022-10-24,株式会社ＮＯＶＯＬＴ,,株式会社,福岡県,糟屋郡須惠町,大字植木２４６番地１７,,40,344,8112112,,,,,,,2022-10-24,1,,,,,ノボルト,0
2030,8290003013095,新規,0,2022-10-24,2022-10-24,合同会社ＡＦＴＥＲ　ＷＯＲＫ,,合同会社,福岡県,宗像市,栄町２－１赤間駅第二自転車駐車場２階,,40,220,8114173,,,,,,,2022-10-24,1,,,,,アフターワーク,0
2041,8360001031100,新規,0,2022-10-24,2022-10-24,株式会社Ｋ’Ｓカンパニー,,株式会社,沖縄県,那覇市,識名１丁目１２番３号,,47,201,9020078,,,,,,,2022-10-24,1,,,,,ケイズカンパニー,0
2055,8400001016039,新規,0,2022-10-24,2022-10-24,株式会社大翔興業,,株式会社,岩手県,花巻市,桜町１丁目７４２番地１２,,03,205,0250084,,,,,,,2022-10-24,1,,,,,ダイショウコウギョウ,0
2060,8500003002910,新規,0,2022-10-24,2022-10-24,合同会社ナリーズ,,合同会社,愛媛県,松山市,松ノ木２丁目６８５番地５,,38,201,7918071,,,,,,,2022-10-24,1,,,,,ナリーズ,0
2079,9010005035701,新規,0,2022-10-24,2022-10-24,一般社団法人ＳＲＥウェルビーイングファンド,,その他の設立登記法人,東京都,中央区,日本橋１丁目４番１号,,13,102,1030027,,,,,,,2022-10-24,1,,,,,エスアールイーウェルビーイングファンド,0
2085,9010403028760,新規,0,2022-10-24,2022-10-24,合同会社ＭｏＤ,,合同会社,東京都,港区,浜松町２丁目２番１５号浜松町ダイヤビル２Ｆ,,13,103,1050013,,,,,,,2022-10-24,1,,,,,モッド,0
2088,9010601061935,新規,0,2022-10-24,2022-10-24,株式会社朝暘,,株式会社,東京都,江東区,有明２丁目１－２－２６１８,,13,108,1350063,,,,,,,2022-10-24,1,,,,,チョウヨウ,0
2089,9010605004147,新規,0,2022-10-24,2022-10-24,一般社団法人日本不動産管財,,その他の設立登記法人,東京都,江東区,豊洲３丁目６－５－３４１７,,13,108,1350061,,,,,,,2022-10-24,1,,,,,ニホンフドウサンカンザイ,0
2095,9010901051826,新規,0,2022-10-24,2022-10-24,株式会社ＫＤ,,株式会社,東京都,世田谷区,北烏山４丁目４０番１７号,,13,112,1570061,,,,,,,2022-10-24,1,,,,,ケーディー,0
2096,9010901051842,新規,0,2022-10-24,2022-10-24,株式会社ｌａｕｒｉｅｒ,,株式会社,東京都,世田谷区,上馬１丁目１９番地１号,,13,112,1540011,,,,,,,2022-10-24,1,,,,,ローリエ,0
2097,9010905004383,新規,0,2022-10-24,2022-10-24,一般社団法人ＳＴＥ,,その他の設立登記法人,東京都,世田谷区,用賀４丁目１０番３号世田谷ビジネススクエアヒルズＩＩ４Ｆ,00128218,13,112,1580097,,,,,,,2022-10-24,1,,,,,エステーイー,0
2102,9011001150329,新規,0,2022-10-24,2022-10-24,株式会社ＮＥＲＯＮ,,株式会社,東京都,渋谷区,神宮前６丁目２３番４号桑野ビル２階,,13,113,1500001,,,,,,,2022-10-24,1,,,,,ネロン,0
2103,9011001150386,新規,0,2022-10-24,2022-10-24,Ａ．Ｗ．Ｃａｐｉｔａｌ株式会社,,株式会社,東京都,渋谷区,神宮前６丁目１２番１８号,,13,113,1500001,,,,,,,2022-10-24,1,,,,,エイダブリューカピタル,0
2104,9011001150477,新規,0,2022-10-24,2022-10-24,ＴＦＤジャパン株式会社,,株式会社,東京都,渋谷区,千駄ヶ谷３丁目１６番３号,,13,113,1510051,,,,,,,2022-10-24,1,,,,,ティーエフディージャパン,0
2106,9011003015570,新規,0,2022-10-24,2022-10-24,合同会社タムプラ,,合同会社,東京都,渋谷区,宇田川町３２番６号長崎ビル５Ｆ,,13,113,1500042,,,,,,,2022-10-24,1,,,,,タムプラ,0
2107,9011003015579,新規,0,2022-10-24,2022-10-24,合同会社ＧＮＫ,,合同会社,東京都,渋谷区,道玄坂１丁目１０番８号渋谷道玄坂東急ビル２Ｆ－Ｃ,,13,113,1500043,,,,,,,2022-10-24,1,,,,,ジーエヌケー,0
2108,9011003015587,新規,0,2022-10-24,2022-10-24,合同会社ＬＯＢＢＹ,,合同会社,東京都,渋谷区,富ヶ谷１丁目２１番７号,,13,113,1510063,,,,,,,2022-10-24,1,,,,,ロビー,0
2114,9012301013175,新規,0,2022-10-24,2022-10-24,株式会社ＴＲＩＦＩＥＬＤＳ,,株式会社,東京都,町田市,金井８丁目２番２２号朝日ハウス１０１,,13,209,1950072,,,,,,,2022-10-24,1,,,,,トライフィールズ,0
2115,9012401039772,新規,0,2022-10-24,2022-10-24,株式会社多摩美装,,株式会社,東京都,多摩市,鶴牧１丁目１０番地３－５０２,,13,224,2060034,,,,,,,2022-10-24,1,,,,,タマビソウ,0
2118,9013301049829,新規,0,2022-10-24,2022-10-24,株式会社ＷＡＲＰ　ＣＲＥＡＴＩＶＥ,,株式会社,東京都,豊島区,東池袋１丁目３４番５号いちご東池袋ビル６階池袋アントレサロン,,13,116,1700013,,,,,,,2022-10-24,1,,,,,ワープクリエイティブ,0
2123,9020001148638,新規,0,2022-10-24,2022-10-24,富友商事株式会社,,株式会社,神奈川県,川崎市川崎区,出来野３番１－３１４号ワンズレジデンス,,14,131,2100825,,,,,,,2022-10-24,1,,,,,トミトモショウジ,0
2124,9020001148654,新規,0,2022-10-24,2022-10-24,Ｒｅｖ３株式会社,,株式会社,神奈川県,横浜市西区,花咲町４丁目１０５－１Ｏｈａｎａみなとみらい９０１,,14,103,2200022,,,,,,,2022-10-24,1,,,,,レブスリー,0
2140,9030003020439,新規,0,2022-10-24,2022-10-24,アポ合同会社,,合同会社,埼玉県,川口市,芝高木１丁目１９番１０号永島コーポ２０１号,,11,203,3330868,,,,,,,2022-10-24,1,,,,,アポ,0
2151,9040003021122,新規,0,2022-10-24,2022-10-24,ＣＨＡ　ＥＮＴＥＲＰＲＩＳＥＳ合同会社,,合同会社,千葉県,千葉市若葉区,上泉町６０８番地２,,12,104,2650045,,,,,,,2022-10-24,1,,,,,シーエイチエーエンタープライゼス,0
2156,9050001051847,新規,0,2022-10-24,2022-10-24,株式会社沼尾ボーリング,,株式会社,茨城県,北相馬郡利根町,大字羽根野８００番地１７１,,08,564,3001636,,,,,,,2022-10-24,1,,,,,ヌマオボーリング,0
2165,9080001025261,新規,0,2022-10-24,2022-10-24,快晴自動車株式会社,,株式会社,静岡県,静岡市清水区,月見町４番２８－２号,,22,103,4240853,,,,,,,2022-10-24,1,,,,,カイセイジドウシャ,0
2170,9100003006736,新規,0,2022-10-24,2022-10-24,合同会社立花農場,,合同会社,長野県,伊那市,福島１５４６番地２,,20,209,3960001,,,,,,,2022-10-24,1,,,,,タチバナノウジョウ,0
2172,9110001037055,新規,0,2022-10-24,2022-10-24,株式会社マサコー山口木工,,株式会社,新潟県,三条市,下保内２６４,,15,204,9550021,,,,,,,2022-10-24,1,,,,,マサコーヤマグチモッコウ,0
2183,9120001249723,新規,0,2022-10-24,2022-10-24,ゲーミングメモリー株式会社,,株式会社,大阪府,大阪市北区,大深町４番２０号グランフロント大阪タワーＡ,,27,127,5300011,,,,,,,2022-10-24,1,,,,,ゲーミングメモリー,0
2190,9120003022698,新規,0,2022-10-24,2022-10-24,合同会社レステロ,,合同会社,大阪府,門真市,三ツ島３丁目６－６－９０４,,27,223,5710015,,,,,,,2022-10-24,1,,,,,レステロ,0
2191,9120003022715,新規,0,2022-10-24,2022-10-24,合同会社６８,,合同会社,大阪府,大阪市生野区,巽東２丁目１８番３号,00128217,27,116,5440014,,,,,,,2022-10-24,1,,,,,ロクハチ,0
2193,9120103004893,新規,0,2022-10-24,2022-10-24,合同会社ＧＥＮＩＣ,,合同会社,大阪府,岸和田市,紙屋町３番２２号,,27,202,5960064,,,,,,,2022-10-24,1,,,,,ジェニック,0
2196,9120903004341,新規,0,2022-10-24,2022-10-24,合同会社ＭＡＴ,,合同会社,大阪府,茨木市,真砂１丁目１７番８号の３,,27,211,5670851,,,,,,,2022-10-24,1,,,,,マット,0
2203,9122003002440,新規,0,2022-10-24,2022-10-24,合同会社ＲＥＣＨ,,合同会社,大阪府,東大阪市,菱屋西３丁目２番１４号,,27,227,5770807,,,,,,,2022-10-24,1,,,,,レッシュ,0
2205,9130001072827,新規,0,2022-10-24,2022-10-24,株式会社ミライトオーヤマ,,株式会社,京都府,亀岡市,篠町篠向谷４３番地３３,,26,206,6210826,,,,,,,2022-10-24,1,,,,,ミライトオーヤマ,0
2206,9130001072892,新規,0,2022-10-24,2022-10-24,アステル株式会社,,株式会社,京都府,京都市中京区,壬生淵田町１２番地レジデンスオークラＣ－２１０,,26,104,6048855,,,,,,,2022-10-24,1,,,,,アステル,0
2208,9130005016615,新規,0,2022-10-24,2022-10-24,一般社団法人ＫＹＯＴＯＰＨＯＮＩＥ,,その他の設立登記法人,京都府,京都市上京区,相国寺門前町６７０番地１０,,26,102,6020898,,,,,,,2022-10-24,1,,,,,キョウトフォニー,0
2219,9140003018273,新規,0,2022-10-24,2022-10-24,合同会社森本事務所,,合同会社,兵庫県,神戸市中央区,楠町５丁目１番２２－５０３号,,28,110,6500017,,,,,,,2022-10-24,1,,,,,モリモトジムショ,0
2220,9140005026349,新規,0,2022-10-24,2022-10-24,一般社団法人みんなのあま咲き放送局,,その他の設立登記法人,兵庫県,尼崎市,金楽寺町１丁目５番１－１１０３号,,28,202,6600806,,,,,,,2022-10-24,1,,,,,ミンナノアマサキホウソウキョク,0
2241,9240003005864,新規,0,2022-10-24,2022-10-24,合同会社井上建設,,合同会社,広島県,広島市佐伯区,五日市町下河内１８０－３２,,34,108,7315100,,,,,,,2022-10-24,1,,,,,イノウエケンセツ,0
2245,9260001037338,新規,0,2022-10-24,2022-10-24,Ｋ‐ＮＯＢＬＥ株式会社,,株式会社,岡山県,岡山市南区,西市１１２番地１５プランドール西市２０３号室,,33,104,7000953,,,,,,,2022-10-24,1,,,,,ケーノーブル,0
2254,9290001099301,新規,0,2022-10-24,2022-10-24,株式会社ＡＺＳ,,株式会社,福岡県,福岡市博多区,美野島２丁目３０番１６号,,40,132,8120017,,,,,,,2022-10-24,1,,,,,エーゼットエス,0
2262,9330003009559,新規,0,2022-10-24,2022-10-24,合同会社ＫＭ,,合同会社,熊本県,熊本市中央区,南坪井町６番３号ビアーレ並木坂５０３号,,43,101,8600848,,,,,,,2022-10-24,1,,,,,ケーエム,0
2264,9360001031082,新規,0,2022-10-24,2022-10-24,株式会社ムーブオン沖縄,,株式会社,沖縄県,中頭郡読谷村,字長浜１８１９番地３,,47,324,9040324,,,,,,,2022-10-24,1,,,,,ムーブオンオキナワ,0
2265,9360003012394,新規,0,2022-10-24,2022-10-24,合同会社ＴＧＭ,,合同会社,沖縄県,那覇市,字仲井真３７２－１－１Ｂ,,47,201,9020074,,,,,,,2022-10-24,1,,,,,ティジーエム,0
2266,9370001049165,新規,0,2022-10-24,2022-10-24,株式会社ＫＵＭＵ,,株式会社,宮城県,仙台市若林区,大和町５丁目１７番７号,,04,103,9840042,,,,,,,2022-10-24,1,,,,,クム,0
2286,9430001087695,新規,0,2022-10-24,2022-10-24,株式会社Ｚ,,株式会社,北海道,千歳市,長都駅前１丁目３番１号,,01,224,0660031,,,,,,,2022-10-24,1,,,,,ゼット,0
