sequenceNumber,corporateNumber,process,correct,updateDate,changeDate,name,nameImageId,kind,prefectureName,cityName,streetNumber,addressImageId,prefectureCode,cityCode,postCode,addressOutside,addressOutsideImageId,closeDate,closeCause,successorCorporateNumber,changeCause,assignmentDate,latest,enName,enPrefectureName,enCityName,enAddressOutside,furigana,hihyoji
4,1010002027907,登記記録の閉鎖等,0,2024-04-16,2024-04-04,有限会社千代田ソフト,,有限会社,東京都,中央区,日本橋小舟町８番１号ヒューリック小舟町ビル１０階,,13,102,1030024,,,2024-04-04,清算の結了等,,,2015-10-05,1,,,,,チヨダソフト,0
5,1010002034291,登記記録の閉鎖等,0,2024-04-16,2024-04-04,有限会社エーワイエーコーポレーション,,有限会社,東京都,荒川区,西日暮里４丁目２３番３号,,13,118,1160013,,,2024-04-04,清算の結了等,,,2015-10-05,1,,,,,,0
11,1010101000756,登記記録の閉鎖等,0,2024-04-16,2024-04-08,小津開発株式会社,,株式会社,東京都,八王子市,下恩方町９８５番地,,13,201,1920154,,,2024-04-08,清算の結了等,,,2015-10-05,1,,,,,オヅカイハツ,0
21,1010501043660,登記記録の閉鎖等,0,2024-04-16,2024-04-08,トモズ株式会社,,株式会社,熊本県,荒尾市,大平町２丁目２８番地３,,43,204,8640005,,,2024-04-08,清算の結了等,,,2019-02-05,1,,,,,トモズ,0
46,1011101074047,登記記録の閉鎖等,0,2024-04-16,2024-04-03,センスシングスジャパン株式会社,,株式会社,大阪府,大阪市西区,西本町３丁目１番４３号,,27,106,5500005,,,2024-04-03,清算の結了等,,,2015-10-05,1,,,,,センスシングスジャパン,0
51,1011301014819,登記記録の閉鎖等,0,2024-04-16,2024-04-08,ＴＯＹＯ－ＮＥＴ．ＪＡＰＡＮ株式会社,,株式会社,東京都,杉並区,阿佐谷南３丁目３７番１３号,,13,115,1660004,,,2024-04-08,清算の結了等,,,2015-10-05,1,,,,,トウヨウネットジャパン,0
63,1011601022983,登記記録の閉鎖等,0,2024-04-16,2024-04-04,株式会社正六,,株式会社,東京都,練馬区,平和台２丁目４８番２号,,13,120,1790083,,,2024-04-04,清算の結了等,,,2018-12-04,1,,,,,ショウロク,0
89,1030001119843,登記記録の閉鎖等,0,2024-04-16,2024-04-09,株式会社財建,,株式会社,埼玉県,久喜市,栗原４丁目１番地１０アネックスミヤザキ１０５,,11,232,3460012,,,2024-04-09,清算の結了等,,,2017-04-20,1,,,,,ザイケン,0
96,1030002046509,登記記録の閉鎖等,0,2024-04-16,2024-04-10,有限会社市川工機,,有限会社,埼玉県,八潮市,大字大曽根１２１５番地１,,11,234,3400834,,,2024-04-10,清算の結了等,,,2015-10-05,1,,,,,イチカワコウキ,0
97,1030002047432,登記記録の閉鎖等,0,2024-04-16,2024-04-09,有限会社千葉ギンビ,,有限会社,埼玉県,八潮市,大字八條２５３８番地３,,11,234,3400801,,,2024-04-09,清算の結了等,,,2015-10-05,1,,,,,ギンビ,0
113,1050002000991,登記記録の閉鎖等,0,2024-04-16,2024-04-12,有限会社倉川自動車整備工場,,有限会社,茨城県,水戸市,城東１丁目３番１５号,,08,201,3100012,,,2024-04-12,清算の結了等,,,2015-10-05,1,,,,,クラカワジドウシャセイビコウジョウ,0
134,1100002022196,登記記録の閉鎖等,0,2024-04-16,2024-04-03,有限会社レジン松本,,有限会社,長野県,松本市,大字和田字南西原３９６７番地２５,,20,202,3901242,,,2024-04-03,清算の結了等,,,2015-10-05,1,,,,,レジンマツモト,0
137,1110002012221,登記記録の閉鎖等,0,2024-04-16,2024-04-11,株式会社ファルコ,,株式会社,新潟県,新潟市中央区,白山浦２丁目６４６番地１０７,,15,103,9518131,,,2024-04-11,合併による解散等,9010401095530,令和６年４月１日東京都中央区八重洲二丁目２番１号株式会社ストレチア（9010401095530）に合併し解散,2015-10-05,1,,,,,ファルコ,0
138,1110002020711,登記記録の閉鎖等,0,2024-04-16,2024-04-10,有限会社匠巧芸,,有限会社,新潟県,柏崎市,駅前２丁目３番３４号,,15,205,9450055,,,2024-04-10,清算の結了等,,,2015-10-05,1,,,,,タクミコウゲイ,0
139,1110002027343,登記記録の閉鎖等,0,2024-04-16,2024-04-11,有限会社キュア,,有限会社,新潟県,長岡市,神田町３丁目２番地４,,15,202,9400052,,,2024-04-11,合併による解散等,9010401095530,令和６年４月１日東京都中央区八重洲二丁目２番１号株式会社ストレチア（9010401095530）に合併し解散,2015-10-05,1,,,,,,0
149,1120001232232,登記記録の閉鎖等,0,2024-04-16,2024-04-04,Ｅｃｏ　Ｃｏｓｐａｃｋ　Ｊａｐａｎ株式会社,,株式会社,大阪府,大阪市中央区,南本町２丁目６番５号ファースト船場ビル１０階,,27,128,5410054,,,2024-04-04,清算の結了等,,,2020-10-07,1,,,,,エココスパックジャパン,0
176,1140001072742,登記記録の閉鎖等,0,2024-04-16,2024-04-08,株式会社Ｋ．Ｔビルド,,株式会社,兵庫県,尼崎市,三反田町２丁目１８－８－１０２号,,28,202,6610024,,,2024-04-08,清算の結了等,,,2015-10-05,1,,,,,,0
194,1180001012562,登記記録の閉鎖等,0,2024-04-16,2024-04-03,大幸薬品株式会社,,株式会社,愛知県,名古屋市北区,如来町１０２番地,,23,103,4620008,,,2024-04-03,清算の結了等,,,2015-10-05,1,,,,,ダイコウヤクヒン,0
199,1180001097505,登記記録の閉鎖等,0,2024-04-16,2024-04-02,株式会社玄技術研究所,,株式会社,愛知県,津島市,神守町字中ノ折７３番地,,23,208,4960005,,,2024-04-02,清算の結了等,,,2015-10-05,1,,,,,ゲンギジュツケンキュウジョ,0
214,1190002024705,登記記録の閉鎖等,0,2024-04-16,2024-04-09,有限会社千福フライ工業,,有限会社,三重県,伊賀市,千歳８番地の１,,24,216,5180002,,,2024-04-09,清算の結了等,,,2024-01-11,1,,,,,チフクフライコウギョウ,0
217,1200001021692,登記記録の閉鎖等,0,2024-04-16,2024-04-09,イツミ陶器株式会社,,株式会社,岐阜県,土岐市,下石町３７７番地,,21,212,5095202,,,2024-04-09,清算の結了等,,,2015-10-05,1,,,,,イツミトウキ,0
220,1200002025552,登記記録の閉鎖等,0,2024-04-16,2024-04-11,有限会社蝶コーポレーション,,有限会社,岐阜県,高山市,上岡本町３丁目４１１番地,,21,203,5060055,,,2024-04-11,清算の結了等,,,2015-10-05,1,,,,,チョウコーポレーション,0
230,1220001011312,登記記録の閉鎖等,0,2024-04-16,2024-04-08,シュウ・インプレス株式会社,,株式会社,石川県,金沢市,有松４丁目３番２６号,,17,201,9218161,,,2024-04-08,清算の結了等,,,2015-10-05,1,,,,,,0
236,1240002031720,登記記録の閉鎖等,0,2024-04-16,2024-04-11,有限会社東城トラベル,,有限会社,広島県,庄原市,東城町川西３８６番地,,34,210,7295125,,,2024-04-11,清算の結了等,,,2015-10-05,1,,,,,トウジョウトラベル,0
238,1250001017100,登記記録の閉鎖等,0,2024-04-16,2024-04-04,株式会社心美庵,,株式会社,山口県,山口市,赤妻町一丁目６５番９号,,35,203,7530067,,,2024-04-04,清算の結了等,,,2018-04-20,1,,,,,シンビアン,0
243,1280002004383,登記記録の閉鎖等,0,2024-04-16,2024-04-15,有限会社朝日サービス,,有限会社,島根県,松江市,上乃木８丁目１番２０号,,32,201,6900015,,,2024-04-15,清算の結了等,,,2015-10-05,1,,,,,アサヒサービス,0
244,1280002009218,登記記録の閉鎖等,0,2024-04-16,2024-04-08,有限会社高根商会,,有限会社,島根県,江津市,江津町８５１番地３,,32,207,6950011,,,2024-04-08,清算の結了等,,,2015-10-05,1,,,,,タカネショウカイ,0
254,1330001018115,登記記録の閉鎖等,0,2024-04-16,2024-04-11,トッパン・フォームズ西日本株式会社,,株式会社,熊本県,玉名市,大倉４３６,,43,206,8650023,,,2024-04-11,合併による解散等,4010501029335,令和６年４月１日東京都台東区台東一丁目５番１号株式会社トッパンコミュニケーションプロダクツ（4010501029335）に合併し解散,2015-10-05,1,,,,,トッパンフォームズニシニホン,0
258,1360001026197,登記記録の閉鎖等,0,2024-04-16,2024-04-04,沖縄スポーツアカデミー株式会社,,株式会社,沖縄県,沖縄市,久保田３丁目１１番１号プラザハウスフェアモール２階,,47,211,9040023,,,2024-04-04,合併による解散等,7360001005807,令和６年４月１日沖縄県沖縄市久保田三丁目１１番１号プラザハウスフェアモール２階沖縄バスケットボール株式会社（7360001005807）に合併し解散,2019-09-05,1,,,,,オキナワスポーツアカデミー,0
266,1370201002914,登記記録の閉鎖等,0,2024-04-16,2024-04-04,株式会社今秀薬局,,株式会社,宮城県,栗原市,築館薬師４丁目７番６号,,04,213,9872252,,,2024-04-04,清算の結了等,,,2015-10-05,1,,,,,コンシュウヤッキョク,0
267,1380001002519,登記記録の閉鎖等,0,2024-04-16,2024-04-10,ゴスペル・トーシン株式会社,,株式会社,福島県,伊達市,細谷２６番地９,,07,213,9600478,,,2024-04-10,合併による解散等,8010001034988,令和６年４月１日東京都中央区日本橋茅場町二丁目１２番１０号日本重化学工業株式会社（8010001034988）に合併し解散,2015-10-05,1,,,,,ゴスペルトーシン,0
284,1440001004756,登記記録の閉鎖等,0,2024-04-16,2024-04-12,ＨＫＢ株式会社,,株式会社,北海道,函館市,高松町１３０番地１０７,,01,202,0420952,,,2024-04-12,合併による解散等,5460301003048,令和６年４月１日北海道網走市南二条西一丁目１５番地網走バス株式会社（5460301003048）に合併し解散,2015-10-05,1,,,,,,0
287,1460101003805,登記記録の閉鎖等,0,2024-04-16,2024-04-08,陸別町コントラクター株式会社,,株式会社,北海道,足寄郡陸別町,字陸別東二条１丁目１番地５,,01,648,0894300,,,2024-04-08,清算の結了等,,,2015-10-05,1,,,,,リクベツチョウコントラクター,0
301,2010001149783,登記記録の閉鎖等,0,2024-04-16,2024-04-04,株式会社ＪＣＰ,,株式会社,東京都,中央区,日本橋本町１丁目１番３号立石本町ビル３Ｆ,,13,102,1030023,,,2024-04-04,合併による解散等,9010401015232,令和６年４月１日東京都千代田区内幸町一丁目２番１号株式会社スミコエアー（9010401015232）に合併し解散,2015-10-05,1,,,,,ジェイシーピー,0
312,2010401151298,登記記録の閉鎖等,0,2024-04-16,2024-04-03,ＩＴｂｏｏｋテクノロジー株式会社,,株式会社,東京都,港区,虎ノ門２丁目３番１７号,,13,103,1050001,,,2024-04-03,合併による解散等,3010001145468,令和６年４月１日東京都港区虎ノ門二丁目３番１７号ＮＥＸＴ株式会社（3010001145468）に合併し解散,2020-02-28,1,,,,,アイティーブックテクノロジー,0
325,2010601014263,登記記録の閉鎖等,0,2024-04-16,2024-04-08,光莫大小工業株式会社,,株式会社,東京都,墨田区,石原３丁目２８番４号,,13,107,1300011,,,2024-04-08,清算の結了等,,,2015-10-05,1,,,,,ヒカリメリヤスコウギョウ,0
329,2010901023625,登記記録の閉鎖等,0,2024-04-16,2024-04-10,株式会社情報デザイン研究所,,株式会社,東京都,世田谷区,奥沢４丁目２９番１３号田園マンションＡ－２号室,,13,112,1580083,,,2024-04-10,清算の結了等,,,2015-10-05,1,,,,,,0
331,2010901034449,登記記録の閉鎖等,0,2024-04-16,2024-04-10,株式会社サンアイ建設,,株式会社,東京都,世田谷区,桜新町２丁目７番１号,,13,112,1540015,,,2024-04-10,清算の結了等,,,2015-10-05,1,,,,,,0
360,2011502007744,登記記録の閉鎖等,0,2024-04-16,2024-04-05,有限会社加藤商会,,有限会社,東京都,荒川区,町屋７丁目１９番５号,,13,118,1160001,,,2024-04-05,清算の結了等,,,2015-10-05,1,,,,,カトウショウカイ,0
362,2011602008436,登記記録の閉鎖等,0,2024-04-16,2024-04-05,有限会社ひろみ商会,,有限会社,東京都,練馬区,富士見台２丁目１８番６号,,13,120,1770034,,,2024-04-05,清算の結了等,,,2015-10-05,1,,,,,ヒロミショウカイ,0
375,2013201004741,登記記録の閉鎖等,0,2024-04-16,2024-04-03,株式会社ハマヤフーズ,,株式会社,東京都,目黒区,目黒１丁目２番２３号,,13,110,1530063,,,2024-04-03,清算の結了等,,,2015-10-05,1,,,,,ハマヤフーズ,0
393,2030001143801,登記記録の閉鎖等,0,2024-04-16,2024-04-08,株式会社ＲＥＶＩＣＬＥ,,株式会社,埼玉県,新座市,石神２丁目９番１７号,,11,230,3520033,,,2024-04-08,清算の結了等,,,2021-08-13,1,,,,,リバイクル,0
405,2030005019568,登記記録の閉鎖等,0,2024-04-16,2024-04-05,ＣＨＦ日本中小企業協同組合,,その他の設立登記法人,埼玉県,入間郡毛呂山町,大字西戸９２３番地１,,11,326,3500438,,,2024-04-05,清算の結了等,,,2019-08-23,1,,,,,シーエイチエフニホンチュウショウキギョウキョウドウクミアイ,0
420,2070001022935,登記記録の閉鎖等,0,2024-04-16,2024-04-11,シオン新聞販売株式会社,,株式会社,群馬県,沼田市,材木町１１７６番地３,,10,206,3780045,,,2024-04-11,清算の結了等,,,2015-10-05,1,,,,,シオンシンブンハンバイ,0
445,2120001239722,登記記録の閉鎖等,0,2024-04-16,2024-04-09,紅杉株式会社,,株式会社,大阪府,箕面市,箕面２丁目９番３号,,27,220,5620001,,,2024-04-09,清算の結了等,,,2021-08-23,1,,,,,ベニスギ,0
458,2120005012662,登記記録の閉鎖等,0,2024-04-16,2024-04-12,医療法人柳原医院,,その他の設立登記法人,大阪府,寝屋川市,錦町１番１号,,27,215,5720043,,,2024-04-12,清算の結了等,,,2015-10-05,1,,,,,ヤナギハライイン,0
489,2140005005747,登記記録の閉鎖等,0,2024-04-16,2024-04-11,人丸教会,,その他の設立登記法人,兵庫県,明石市,天文町２丁目２番１１号,,28,203,6730881,,,2024-04-11,清算の結了等,,,2015-10-05,1,,,,,ヒトマルキョウカイ,0
491,2160001015252,登記記録の閉鎖等,0,2024-04-16,2024-04-09,株式会社関西トレイデイング,,株式会社,滋賀県,守山市,今浜町２６７番地１,,25,207,5240101,,,2024-04-09,清算の結了等,,,2015-10-05,1,,,,,カンサイトレイデイング,0
492,2160001020120,登記記録の閉鎖等,0,2024-04-16,2024-04-10,パナソニックＡＰ冷機コンプレッサージャパン株式会社,,株式会社,滋賀県,草津市,野路東２丁目３番１－２号,,25,206,5250058,,,2024-04-10,合併による解散等,3120001236504,令和６年４月１日大阪府門真市大字門真１００６番地パナソニック株式会社（3120001236504）に合併し解散,2017-04-10,1,,,,,パナソニックエーピーレイキコンプレッサージャパン,0
494,2160002004931,登記記録の閉鎖等,0,2024-04-16,2024-04-01,株式会社エフピーオアシス,,株式会社,長野県,松本市,大字島立３０３番地１松本ヤマトビル６Ｆ,,20,202,3900852,,,2024-04-01,合併による解散等,2100001016578,令和６年３月３１日長野県松本市大字島立３０３番地１松本ヤマトビル６Ｆエフ・ピー・アイ・ジェイ株式会社（2100001016578）に合併し解散,2015-10-05,1,,,,,エフピーオアシス,0
497,2180001008460,登記記録の閉鎖等,0,2024-04-16,2024-04-11,株式会社システムルート,,株式会社,愛知県,名古屋市千種区,内山３丁目１１番１７号,,23,101,4640075,,,2024-04-11,合併による解散等,1040001009432,令和６年４月１日千葉市中央区新町２４番地９株式会社エイシル（1040001009432）に合併し解散,2015-10-05,1,,,,,システムルート,0
498,2180001070519,登記記録の閉鎖等,0,2024-04-16,2024-04-10,ＳＭＢＣファイナンスサービス株式会社,,株式会社,愛知県,名古屋市中区,丸の内３丁目２３番２０号,,23,106,4600002,,,2024-04-10,合併による解散等,3120001082353,令和６年４月１日大阪市中央区今橋四丁目５番１５号三井住友カード株式会社（3120001082353）に合併し解散,2015-10-05,1,,,,,エスエムビーシーファイナンスサービス,0
499,2180001072655,登記記録の閉鎖等,0,2024-04-16,2024-04-03,株式会社ブルー・スター,,株式会社,愛知県,日進市,浅田町下小深田１０番地１３,,23,230,4700124,,,2024-04-03,清算の結了等,,,2015-10-05,1,,,,,ブルースター,0
506,2180002064206,登記記録の閉鎖等,0,2024-04-16,2024-04-02,ニシキ産業有限会社,,有限会社,愛知県,豊明市,三崎町ゆたか台２７番地の１２,,23,229,4701127,,,2024-04-02,清算の結了等,,,2015-10-05,1,,,,,ニシキサンギョウ,0
511,2180302003474,登記記録の閉鎖等,0,2024-04-16,2024-04-03,信成工業有限会社,,有限会社,愛知県,額田郡幸田町,大字野場字扇沢１７番地１,,23,501,4440128,,,2024-04-03,清算の結了等,,,2015-10-05,1,,,,,シンセイコウギョウ,0
515,2190005008761,登記記録の閉鎖等,0,2024-04-16,2024-04-09,北勢水産加工協同組合,,その他の設立登記法人,三重県,四日市市,富田一色町９番３号,,24,202,5108004,,,2024-04-09,清算の結了等,,,2015-10-05,1,,,,,ホクセイスイサンカコウ,0
516,2200001026864,登記記録の閉鎖等,0,2024-04-16,2024-04-11,株式会社ビートラック,,株式会社,岐阜県,岐阜市,雲井町２丁目１１番地１,,21,201,5008145,,,2024-04-11,清算の結了等,,,2015-10-05,1,,,,,ビートラック,0
526,2240001004619,登記記録の閉鎖等,0,2024-04-16,2024-04-12,新成和商事株式会社,,株式会社,広島県,広島市中区,鉄砲町１０番１８号,,34,101,7300017,,,2024-04-12,清算の結了等,,,2015-10-05,1,,,,,シンセイワショウジ,0
527,2240001057138,登記記録の閉鎖等,0,2024-04-16,2024-04-15,Ｒ＆Ｒ株式会社,,株式会社,広島県,東広島市,西条町西条東９７５－２２,,34,212,7390042,,,2024-04-15,清算の結了等,,,2020-12-23,1,,,,,アールアンドアール,0
536,2260002001092,登記記録の閉鎖等,0,2024-04-16,2024-04-03,有限会社魚料理磯,,有限会社,岡山県,岡山市北区,柳町１丁目１３番２８号,,33,101,7000904,,,2024-04-03,清算の結了等,,,2015-10-05,1,,,,,サカナリョウリイソ,0
538,2260005009439,登記記録の閉鎖等,0,2024-04-16,2024-04-08,特定非営利活動法人由加の自然を育てる会,,その他の設立登記法人,岡山県,倉敷市,林１９３４番地,,33,202,7100142,,,2024-04-08,清算の結了等,,,2015-10-05,1,,,,,ユガノシゼンヲソダテルカイ,0
539,2280002010991,登記記録の閉鎖等,0,2024-04-16,2024-04-15,有限会社ピア中央薬局,,有限会社,島根県,隠岐郡隠岐の島町,港町天神原８０番地２,,32,528,6850015,,,2024-04-15,清算の結了等,,,2015-10-05,1,,,,,ピアチュウオウヤッキョク,0
541,2290001093624,登記記録の閉鎖等,0,2024-04-16,2024-04-10,菜楽道株式会社,,株式会社,福岡県,うきは市,浮羽町浮羽７５６,,40,225,8391402,,,2024-04-10,清算の結了等,,,2021-06-24,1,,,,,サイラクドウ,0
542,2290801001232,登記記録の閉鎖等,0,2024-04-16,2024-04-11,クリタ九州株式会社,,株式会社,福岡県,北九州市小倉北区,浅野３丁目８番１号,,40,106,8020001,,,2024-04-11,合併による解散等,2140001031573,令和６年４月１日神戸市兵庫区水木通四丁目１番６号クリタ西日本株式会社（2140001031573）に合併し解散,2015-10-05,1,,,,,クリタキュウシュウ,0
560,2360003007632,登記記録の閉鎖等,0,2024-04-16,2024-04-05,日本地図システム合同会社,,合同会社,沖縄県,沖縄市,山里１丁目１番１号１００４,,47,211,9040033,,,2024-04-05,清算の結了等,,,2016-06-06,1,,,,,ニホンチズシステム,0
572,2410001007216,登記記録の閉鎖等,0,2024-04-16,2024-04-03,畠金銘木株式会社,,株式会社,秋田県,能代市,浅内字船沢７３番地の５０,,05,202,0160179,,,2024-04-03,清算の結了等,,,2015-10-05,1,,,,,,0
577,2430001064305,登記記録の閉鎖等,0,2024-04-16,2024-04-10,ベルモントコミュニケーションズ北海道株式会社,,株式会社,北海道,札幌市白石区,流通センター１丁目８番２５号,,01,104,0030030,,,2024-04-10,合併による解散等,5120001095221,令和６年４月１日大阪市中央区東心斎橋二丁目１番１号ベルモントコミュニケーションズ株式会社（5120001095221）に合併し解散,2015-10-05,1,,,,,ベルモントコミュニケーションズホッカイドウ,0
579,2430002003740,登記記録の閉鎖等,0,2024-04-16,2024-04-05,有限会社王子物産,,有限会社,北海道,札幌市西区,西野五条７丁目２番１１号,,01,107,0630035,,,2024-04-05,清算の結了等,,,2015-10-05,1,,,,,オウジブッサン,0
580,2430002009168,登記記録の閉鎖等,0,2024-04-16,2024-04-08,有限会社ジエルム,,有限会社,北海道,札幌市清田区,平岡十条１丁目２５番１０号,,01,110,0040880,,,2024-04-08,清算の結了等,,,2015-10-05,1,,,,,ジエルム,0
614,3010403028758,登記記録の閉鎖等,0,2024-04-16,2024-04-04,合同会社ｔｅＧｏ,,合同会社,東京都,港区,南青山２丁目２番１５号,,13,103,1070062,,,2024-04-04,清算の結了等,,,2022-10-24,1,,,,,テゴ,0
631,3010902002338,登記記録の閉鎖等,0,2024-04-16,2024-04-10,有限会社エーユー,,有限会社,東京都,世田谷区,喜多見２丁目６番３８号,,13,112,1570067,,,2024-04-10,清算の結了等,,,2015-10-05,1,,,,,エーユー,0
632,3011001013904,登記記録の閉鎖等,0,2024-04-16,2024-04-05,多摩商事株式会社,,株式会社,東京都,大田区,田園調布２丁目４９番１５号,,13,111,1450071,,,2024-04-05,清算の結了等,,,2015-10-05,1,,,,,タマショウジ,0
644,3011005008727,登記記録の閉鎖等,0,2024-04-16,2024-04-03,一般社団法人リモートワーカー協会,,その他の設立登記法人,東京都,渋谷区,渋谷２丁目１４番６号西田ビル５Ｆ,,13,113,1500002,,,2024-04-03,清算の結了等,,,2020-09-10,1,,,,,リモートワーカーキョウカイ,0
646,3011101072957,登記記録の閉鎖等,0,2024-04-16,2024-04-08,株式会社ＯＵＮＳ,,株式会社,東京都,新宿区,新宿２丁目１６番６号,,13,104,1600022,,,2024-04-08,清算の結了等,,,2015-10-05,1,,,,,オーユーエヌエス,0
647,3011101072965,登記記録の閉鎖等,0,2024-04-16,2024-04-08,株式会社ＯＵＮＭ,,株式会社,東京都,新宿区,新宿２丁目１６番６号,,13,104,1600022,,,2024-04-08,清算の結了等,,,2015-10-05,1,,,,,オーユーエヌエム,0
648,3011101090182,登記記録の閉鎖等,0,2024-04-16,2024-04-08,吉貝克日本株式会社,,株式会社,東京都,新宿区,新宿２丁目５番１０号,,13,104,1600022,,,2024-04-08,清算の結了等,,,2020-01-22,1,,,,,ジベックニホン,0
652,3011102001493,登記記録の閉鎖等,0,2024-04-16,2024-04-08,有限会社ウールド,,有限会社,東京都,新宿区,市谷仲之町３番２２号,,13,104,1620064,,,2024-04-08,清算の結了等,,,2015-10-05,1,,,,,ウールド,0
653,3011102025451,登記記録の閉鎖等,0,2024-04-16,2024-04-08,有限会社三和黒川,,有限会社,東京都,新宿区,神楽坂１丁目９番地,,13,104,1620825,,,2024-04-08,清算の結了等,,,2015-10-05,1,,,,,サンワクロカワ,0
681,3013301013971,登記記録の閉鎖等,0,2024-04-16,2024-04-05,株式会社ＤＮＰメトロシステムズ,,株式会社,東京都,新宿区,市谷加賀町１丁目１番１号,,13,104,1620062,,,2024-04-05,合併による解散等,1011101027070,令和６年４月１日東京都新宿区市谷加賀町一丁目１番１号株式会社ＤＮＰ情報システム（1011101027070）に合併し解散,2015-10-05,1,,,,,ディーエヌピーメトロシステムズ,0
691,3021001064905,登記記録の閉鎖等,0,2024-04-16,2024-04-10,株式会社光青貿易,,株式会社,神奈川県,綾瀬市,深谷中３丁目１０番８号,,14,218,2521107,,,2024-04-10,清算の結了等,,,2018-06-04,1,,,,,コウセイボウエキ,0
698,3021002013316,登記記録の閉鎖等,0,2024-04-16,2024-04-11,有限会社ケイテック,,有限会社,神奈川県,高座郡寒川町,一之宮４丁目１９番７－１号,,14,321,2530111,,,2024-04-11,清算の結了等,,,2015-10-05,1,,,,,ケイテック,0
704,3030001015157,登記記録の閉鎖等,0,2024-04-16,2024-04-08,株式会社フェニックス・インターナショナル,,株式会社,埼玉県,さいたま市北区,盆栽町５２７番地の９,,11,102,3310805,,,2024-04-08,清算の結了等,,,2015-10-05,1,,,,,フェニックスインターナショナル,0
716,3030002026871,登記記録の閉鎖等,0,2024-04-16,2024-04-04,株式会社リビングウェル,,株式会社,埼玉県,川口市,上青木５丁目９番２２号,,11,203,3330844,,,2024-04-04,清算の結了等,,,2015-10-05,1,,,,,リビングウェル,0
753,3070001022934,登記記録の閉鎖等,0,2024-04-16,2024-04-11,株式会社シオン情報サービス,,株式会社,群馬県,沼田市,材木町１１７６番地３,,10,206,3780045,,,2024-04-11,清算の結了等,,,2015-10-05,1,,,,,シオンジョウホウサービス,0
766,3110001017368,登記記録の閉鎖等,0,2024-04-16,2024-03-30,鈴木工機株式会社,,株式会社,新潟県,三島郡出雲崎町,大字船橋５１０番地１,,15,405,9494336,,,2024-03-30,清算の結了等,,,2015-10-05,1,,,,,スズキコウキ,0
769,3110002005215,登記記録の閉鎖等,0,2024-04-16,2024-04-11,株式会社パールファーマシー,,株式会社,新潟県,新潟市中央区,白山浦２丁目６４６番地１０７,,15,103,9518131,,,2024-04-11,合併による解散等,9010401095530,令和６年４月１日東京都中央区八重洲二丁目２番１号株式会社ストレチア（9010401095530）に合併し解散,2015-10-05,1,,,,,パールファーマシー,0
770,3110003005263,登記記録の閉鎖等,0,2024-04-16,2024-04-09,合同会社Ｌｉｅｎ　Ｆｏｒｔ,,合同会社,新潟県,新潟市東区,秋葉１丁目３番４号２,,15,102,9500054,,,2024-04-09,清算の結了等,,,2024-01-16,1,,,,,リアンフォール,0
771,3120001021996,登記記録の閉鎖等,0,2024-04-16,2024-04-04,株式会社ユナイト,,株式会社,大阪府,大阪市浪速区,元町３丁目１０番５号,,27,111,5560016,,,2024-04-04,清算の結了等,,,2015-10-05,1,,,,,ユナイト,0
802,3140001050143,登記記録の閉鎖等,0,2024-04-16,2024-04-08,東海警備安全保障株式会社,,株式会社,兵庫県,尼崎市,竹谷町１丁目２１番地大谷商会ビル２階,,28,202,6600876,,,2024-04-08,清算の結了等,,,2015-10-05,1,,,,,トウカイケイビアンゼンホショウ,0
811,3150001007118,登記記録の閉鎖等,0,2024-04-16,2024-04-12,日東紙器工業株式会社,,株式会社,奈良県,生駒郡斑鳩町,幸前２丁目９番１３号,,29,344,6360103,,,2024-04-12,合併による解散等,4120901002236,令和６年４月１日大阪府茨木市西河原北町１番５号大和紙器株式会社（4120901002236）に合併し解散,2015-10-05,1,,,,,ニットウシキコウギョウ,0
815,3160001024285,登記記録の閉鎖等,0,2024-04-16,2024-04-08,株式会社きずな．,,株式会社,滋賀県,甲賀市,水口町本町３丁目２４２９番地２,,25,209,5280031,,,2024-04-08,清算の結了等,,,2022-06-14,1,,,,,,0
823,3180301022656,登記記録の閉鎖等,0,2024-04-16,2024-04-03,中部不燃板工業株式会社,,株式会社,愛知県,西尾市,今川町西新田３３番地,,23,213,4450063,,,2024-04-03,清算の結了等,,,2015-10-05,1,,,,,チュウブフネンバンコウギョウ,0
832,3200002008225,登記記録の閉鎖等,0,2024-04-16,2024-04-10,有限会社堀野製作所,,有限会社,岐阜県,各務原市,那加北洞町１丁目３９８番地,,21,213,5040011,,,2024-04-10,清算の結了等,,,2015-10-05,1,,,,,ホリノセイサクショ,0
842,3230002003446,登記記録の閉鎖等,0,2024-04-16,2024-04-11,有限会社まるとコーポレーション,,有限会社,富山県,富山市,永久町１８番７号,,16,201,9318456,,,2024-04-11,清算の結了等,,,2015-10-05,1,,,,,マルトコーポレーション,0
852,3260001028185,登記記録の閉鎖等,0,2024-04-16,2024-04-02,株式会社倉式珈琲,,株式会社,岡山県,岡山市北区,平田１７３番地１０４,,33,101,7000952,,,2024-04-02,合併による解散等,4260001004499,令和６年４月１日岡山市北区平田１７３番地１０４株式会社サンマルクホールディングス（4260001004499）に合併し解散,2015-10-05,1,,,,,クラシキコーヒー,0
869,3310002003198,登記記録の閉鎖等,0,2024-04-16,2024-04-09,有限会社太郎,,有限会社,長崎県,長崎市,西山２丁目１２番１２号,,42,201,8500001,,,2024-04-09,清算の結了等,,,2015-10-05,1,,,,,タロウ,0
881,3360001018762,登記記録の閉鎖等,0,2024-04-16,2024-04-08,株式会社ラル,,株式会社,沖縄県,那覇市,曙２丁目３番１２号サンフラワービル１階,,47,201,9000002,,,2024-04-08,清算の結了等,,,2015-10-05,1,,,,,,0
893,3400601000652,登記記録の閉鎖等,0,2024-04-16,2024-04-04,日建ハウス株式会社,,株式会社,岩手県,奥州市,水沢字斉の神１２１番地,,03,215,0230805,,,2024-04-04,清算の結了等,,,2024-03-14,1,,,,,ニッケンハウス,0
898,3430002053041,登記記録の閉鎖等,0,2024-04-16,2024-04-04,有限会社北昇木工,,有限会社,北海道,砂川市,空知太東一条７丁目３番９号,,01,226,0730101,,,2024-04-04,清算の結了等,,,2015-10-05,1,,,,,ホクショウモッコウ,0
905,3430003011782,登記記録の閉鎖等,0,2024-04-16,2024-04-03,合同会社プリエメゾン,,合同会社,北海道,札幌市豊平区,平岸三条１３丁目５番３号メイプルメゾン南平岸１０２,,01,105,0620933,,,2024-04-03,合併による解散等,6430003008818,令和６年４月１日札幌市豊平区平岸三条十三丁目６７番２合同会社メイプルメゾン（6430003008818）に合併し解散,2020-08-05,1,,,,,プリエメゾン,0
912,3500002016908,登記記録の閉鎖等,0,2024-04-16,2024-04-08,中萩寺町電器有限会社,,有限会社,愛媛県,新居浜市,大生院４９６番地の４,,38,205,7920060,,,2024-04-08,清算の結了等,,,2015-10-05,1,,,,,ナカハギテラマチデンキ,0
923,4010003030469,登記記録の閉鎖等,0,2024-04-16,2024-04-03,合同会社ちちぶ地域振興ファンド,,合同会社,東京都,中央区,日本橋１丁目４番１号,,13,102,1030027,,,2024-04-03,清算の結了等,,,2019-08-27,1,,,,,チチブチイキシンコウファンド,0
924,4010003034057,登記記録の閉鎖等,0,2024-04-16,2024-03-27,マックス合同会社,,合同会社,東京都,中央区,銀座１丁目２２番１１号２階,,13,102,1040061,,,2024-03-27,清算の結了等,,,2021-01-29,1,,,,,マックス,0
931,4010401070455,登記記録の閉鎖等,0,2024-04-16,2024-04-03,千代田管財株式会社,,株式会社,東京都,港区,赤坂２丁目３番６号,,13,103,1070052,,,2024-04-03,清算の結了等,,,2015-10-05,1,,,,,チヨダカンザイ,0
932,4010401099858,登記記録の閉鎖等,0,2024-04-16,2024-04-11,日本サイトラインシステムズ株式会社,,株式会社,東京都,港区,芝浦３丁目５番３９号田町イーストウィング４階,,13,103,1080023,,,2024-04-11,合併による解散等,8120001038400,令和６年４月１日大阪市西区江戸堀１－９－１肥後橋センタービル１２階株式会社ジェイテック（8120001038400）に合併し解散,2015-10-05,1,,,,,ニホンサイトラインシステムズ,0
934,4010401172565,登記記録の閉鎖等,0,2024-04-16,2024-04-04,株式会社Ａ,,株式会社,東京都,港区,海岸２丁目１番１８号２階,,13,103,1050022,,,2024-04-04,清算の結了等,,,2023-02-20,1,,,,,エー,0
951,4010801019770,登記記録の閉鎖等,0,2024-04-16,2024-04-05,株式会社拓管理,,株式会社,東京都,大田区,大森北４丁目１２番２１号,,13,111,1430016,,,2024-04-05,清算の結了等,,,2015-10-05,1,,,,,タクカンリ,0
963,4011003014817,登記記録の閉鎖等,0,2024-04-16,2024-04-05,南合同会社,,合同会社,東京都,渋谷区,神南１丁目３番２号不二ビル１Ｆ,,13,113,1500041,,,2024-04-05,清算の結了等,,,2022-06-06,1,,,,,ミナミ,0
972,4011601019779,登記記録の閉鎖等,0,2024-04-16,2024-04-08,株式会社神田構造設計,,株式会社,東京都,練馬区,関町北１丁目５番３号,,13,120,1770051,,,2024-04-08,清算の結了等,,,2015-10-05,1,,,,,カンダコウゾウセッケイ,0
975,4011801041401,登記記録の閉鎖等,0,2024-04-16,2024-04-11,ＣＣコンサルティング株式会社,,株式会社,東京都,足立区,竹の塚５丁目３６－１９ヴィラーチェ２０１,,13,121,1210813,,,2024-04-11,清算の結了等,,,2022-10-14,1,,,,,シーシーコンサルティング,0
984,4020001010579,登記記録の閉鎖等,0,2024-04-16,2024-04-12,株式会社ホンダカーズ横浜,,株式会社,神奈川県,横浜市保土ケ谷区,岡沢町８２番地,,14,106,2400062,,,2024-04-12,合併による解散等,5030001007680,令和６年４月１日埼玉県さいたま市中央区上落合五丁目３番６号株式会社ホンダモビリティ南関東（5030001007680）に合併し解散,2015-10-05,1,,,,,ホンダカーズヨコハマ,0
986,4020001055806,登記記録の閉鎖等,0,2024-04-16,2024-04-11,東日本エア・ウォーター物流株式会社,,株式会社,神奈川県,横浜市港北区,新横浜２丁目１１番地５川浅ビル,,14,109,2220033,,,2024-04-11,合併による解散等,6430001009470,令和６年４月１日札幌市中央区北三条西一丁目２番地エア・ウォーター物流株式会社（6430001009470）に合併し解散,2015-10-05,1,,,,,ヒガシニホンエアウオーターブツリュウ,0
987,4020001073436,登記記録の閉鎖等,0,2024-04-16,2024-04-01,ソフトウエアクリエイション株式会社,,株式会社,東京都,品川区,大崎１丁目１１番２号,,13,109,1410032,,,2024-04-01,合併による解散等,3010701015193,令和６年４月１日東京都品川区大崎一丁目１１番２号コムチュア株式会社（3010701015193）に合併し解散,2015-10-05,1,,,,,ソフトウエアクリエイション,0
1004,4030002034956,登記記録の閉鎖等,0,2024-04-16,2024-04-08,有限会社大東,,有限会社,埼玉県,入間市,下藤沢３丁目２番地１,,11,225,3580011,,,2024-04-08,清算の結了等,,,2015-10-05,1,,,,,オオヒガシ,0
1013,4040001025815,登記記録の閉鎖等,0,2024-04-16,2024-04-05,大井建設株式会社,,株式会社,千葉県,市川市,曽谷６丁目３０番４号,,12,203,2720832,,,2024-04-05,清算の結了等,,,2015-10-05,1,,,,,オオイケンセツ,0
1021,4040002025269,登記記録の閉鎖等,0,2024-04-16,2024-04-08,有限会社ホワイトハウジング,,有限会社,千葉県,船橋市,本中山７丁目１６番２号,,12,204,2730035,,,2024-04-08,清算の結了等,,,2015-10-05,1,,,,,ホワイトハウジング,0
1028,4050002001574,登記記録の閉鎖等,0,2024-04-16,2024-04-11,有限会社ジーエス,,有限会社,茨城県,水戸市,河和田２丁目９番地の５,,08,201,3114152,,,2024-04-11,清算の結了等,,,2015-10-05,1,,,,,ジーエス,0
1030,4070001015144,登記記録の閉鎖等,0,2024-04-16,2024-04-04,株式会社エム,,株式会社,群馬県,伊勢崎市,稲荷町２３７番地１,,10,204,3720804,,,2024-04-04,清算の結了等,,,2015-10-05,1,,,,,エム,0
1042,4110001032382,登記記録の閉鎖等,0,2024-04-16,2024-04-09,ドライブイン越後湯沢株式会社,,株式会社,新潟県,南魚沼郡湯沢町,大字湯沢１０２５番地１,,15,461,9496101,,,2024-04-09,清算の結了等,,,2017-05-12,1,,,,,ドライブインエチゴユザワ,0
1047,4120001070191,登記記録の閉鎖等,0,2024-04-16,2024-04-11,ベンエンジニアリング株式会社,,株式会社,大阪府,大阪市北区,末広町３番２１号,,27,127,5300053,,,2024-04-11,清算の結了等,,,2015-10-05,1,,,,,ベンエンジニアリング,0
1064,4120102026506,登記記録の閉鎖等,0,2024-04-16,2024-04-10,有限会社アイト,,有限会社,大阪府,和泉市,和田町１５６番地の５,,27,219,5941102,,,2024-04-10,清算の結了等,,,2015-10-05,1,,,,,アイト,0
1072,4130005004186,登記記録の閉鎖等,0,2024-04-16,2024-04-09,医療法人社団吉村整形外科医院,,その他の設立登記法人,京都府,京都市西京区,大原野西境谷町４丁目３番地の１,,26,111,6101146,,,2024-04-09,清算の結了等,,,2015-10-05,1,,,,,ヨシムラセイケイゲカイイン,0
1078,4140001107719,登記記録の閉鎖等,0,2024-04-16,2024-04-01,ケイコーポレーション株式会社,,株式会社,兵庫県,芦屋市,山手町２番５－１０４号,,28,206,6590096,,,2024-04-01,合併による解散等,9140001026187,令和６年４月１日兵庫県芦屋市山手町２番５－１０４号株式会社エフケイプランニング（9140001026187）に合併し解散,2017-10-04,1,,,,,ケイコーポレーション,0
1091,4170001017857,登記記録の閉鎖等,0,2024-04-16,2024-04-11,株式会社愛縁産業,,株式会社,和歌山県,橋本市,神野々３１１－１,,30,203,6480086,,,2024-04-11,清算の結了等,,,2023-10-26,1,,,,,アイエンサンギョウ,0
1094,4180001084129,登記記録の閉鎖等,0,2024-04-16,2024-04-01,株式会社油金商店,,株式会社,愛知県,一宮市,起字西茜屋４２番地,,23,203,4940006,,,2024-04-01,清算の結了等,,,2015-10-05,1,,,,,アブキンショウテン,0
1111,4190005006466,登記記録の閉鎖等,0,2024-04-16,2024-04-10,特定非営利活動法人なばりＮＰＯセンター,,その他の設立登記法人,三重県,名張市,上三谷５６１番地７,,24,208,5180762,,,2024-04-10,清算の結了等,,,2015-10-05,1,,,,,ナバリエヌピーオーセンター,0
1114,4200002022209,登記記録の閉鎖等,0,2024-04-16,2024-04-12,有限会社山加加藤商店,,有限会社,岐阜県,瑞浪市,陶町水上６５０番地の２,,21,208,5096362,,,2024-04-12,清算の結了等,,,2015-10-05,1,,,,,ヤマカカトウショウテン,0
1119,4230001008503,登記記録の閉鎖等,0,2024-04-16,2024-04-10,第一プロデュース株式会社,,株式会社,富山県,南砺市,三清西１８番地,,16,210,9391525,,,2024-04-10,清算の結了等,,,2015-10-05,1,,,,,ダイイチプロデュース,0
1122,4240001001201,登記記録の閉鎖等,0,2024-04-16,2024-04-10,株式会社Ａコープ西日本,,株式会社,広島県,広島市西区,草津港２丁目６番５０号,,34,104,7330832,,,2024-04-10,合併による解散等,5140001023997,令和６年４月１日横浜市泉区中田南三丁目２番３８号ＪＡ全農Ａコープ株式会社（5140001023997）に合併し解散,2015-10-05,1,,,,,エーコープニシニホン,0
1127,4240002009136,登記記録の閉鎖等,0,2024-04-16,2024-04-08,有限会社第一製袋,,有限会社,広島県,広島市安佐北区,安佐町大字鈴張字中塚１４２３番地の５,,34,106,7311141,,,2024-04-08,清算の結了等,,,2015-10-05,1,,,,,ダイイチセイタイ,0
1134,4250001017659,登記記録の閉鎖等,0,2024-04-16,2024-04-10,株式会社坂本工業,,株式会社,山口県,萩市,大字土原１５８番地３,,35,204,7580025,,,2024-04-10,清算の結了等,,,2019-04-10,1,,,,,サカモトコウギョウ,0
1151,4330001005531,登記記録の閉鎖等,0,2024-04-16,2024-04-10,万代ホーム株式会社,,株式会社,熊本県,熊本市南区,上ノ郷２丁目１３番８号,,43,104,8614132,,,2024-04-10,合併による解散等,4350001008301,令和６年４月１日鹿児島市西別府町２９４１番地２６万代ホーム株式会社（4350001008301）に合併し解散,2015-10-05,1,,,,,マンダイホーム,0
1177,4420001009713,登記記録の閉鎖等,0,2024-04-16,2024-04-02,株式会社弘前花き,,株式会社,青森県,弘前市,大字末広１丁目２番地１,,02,202,0368085,,,2024-04-02,合併による解散等,1420001009352,令和６年４月１日青森県弘前市大字末広一丁目２番地１弘果弘前中央青果株式会社（1420001009352）に合併し解散,2015-10-05,1,,,,,ヒロサキカキ,0
1179,4420003002393,登記記録の閉鎖等,0,2024-04-16,2024-04-08,合同会社つがる住研,,合同会社,青森県,弘前市,大字撫牛子３丁目２０番地１０２,,02,202,0368075,,,2024-04-08,清算の結了等,,,2021-10-06,1,,,,,ツガルジュウケン,0
1181,4430001007567,登記記録の閉鎖等,0,2024-04-16,2024-04-09,篠田食品工業株式会社,,株式会社,北海道,札幌市手稲区,曙二条４丁目３番１０号,00088217,01,109,0060832,,,2024-04-09,合併による解散等,1450001002123,令和６年４月１日北海道旭川市流通団地二条三丁目４２番地道水産業株式会社（1450001002123）に合併し解散,2015-10-05,1,,,,,シノダショクヒンコウギョウ,0
1192,4450002003522,登記記録の閉鎖等,0,2024-04-16,2024-04-10,有限会社多田機械サービス,,有限会社,北海道,旭川市,東旭川町日ノ出２６８番地,,01,204,0788203,,,2024-04-10,清算の結了等,,,2015-10-05,1,,,,,タダキカイサービス,0
1202,5010001115171,登記記録の閉鎖等,0,2024-04-16,2024-04-09,株式会社企画ビルディング,,株式会社,東京都,千代田区,霞が関３丁目８番１号,,13,101,1000013,,,2024-04-09,合併による解散等,4010001115172,令和６年４月１日東京都千代田区霞が関三丁目８番１号株式会社オフィス企画（4010001115172）に合併し解散,2015-10-05,1,,,,,キカクビルディング,0
1215,5010002027812,登記記録の閉鎖等,0,2024-04-16,2024-04-04,有限会社東京ソフトウエア,,有限会社,東京都,中央区,日本橋小舟町８番１号ヒューリック小舟町ビル１０階,,13,102,1030024,,,2024-04-04,清算の結了等,,,2015-10-05,1,,,,,トウキョウソフトウエア,0
1217,5010003036432,登記記録の閉鎖等,0,2024-04-16,2024-04-03,大手町ソーラー合同会社,,合同会社,東京都,中央区,八丁堀４丁目２番１０号ＡＯＪ税理士法人内,,13,102,1040032,,,2024-04-03,清算の結了等,,,2021-12-03,1,,,,,オオテマチソーラー,0
1226,5010401175055,登記記録の閉鎖等,0,2024-04-16,2024-04-04,サービスＧＪ株式会社,,株式会社,東京都,港区,海岸３丁目１６－９－７０１,,13,103,1080022,,,2024-04-04,清算の結了等,,,2023-06-15,1,,,,,サービスジージェイ,0
1237,5010801025867,登記記録の閉鎖等,0,2024-04-16,2024-04-05,株式会社セラフィーク,,株式会社,東京都,大田区,久が原３丁目１７番１１号,,13,111,1460085,,,2024-04-05,清算の結了等,,,2015-10-05,1,,,,,セラフィーク,0
1244,5011001119889,登記記録の閉鎖等,0,2024-04-16,2024-04-02,株式会社アルファゲームス,,株式会社,東京都,渋谷区,恵比寿４丁目２０番３号恵比寿ガーデンプレイスタワー８Ｆ,,13,113,1500013,,,2024-04-02,清算の結了等,,,2018-01-04,1,,,,,アルファゲームス,0
1264,5011605001880,登記記録の閉鎖等,0,2024-04-16,2024-04-09,医療法人社団平塚医院,00056381,その他の設立登記法人,東京都,練馬区,栄町３番９号,,13,120,1760006,,,2024-04-09,清算の結了等,,,2015-10-05,1,,,,,,0
1276,5012801018330,登記記録の閉鎖等,0,2024-04-16,2024-04-05,株式会社カミシバヰ,,株式会社,東京都,国分寺市,南町３丁目４番１６号,,13,214,1850021,,,2024-04-05,清算の結了等,,,2017-10-30,1,,,,,カミシバイ,0
1294,5021002034120,登記記録の閉鎖等,0,2024-04-16,2024-04-12,有限会社鈴木技研,,有限会社,神奈川県,愛甲郡愛川町,春日台２丁目１５番地の１１,,14,401,2430302,,,2024-04-12,清算の結了等,,,2015-10-05,1,,,,,,0
1297,5021003006770,登記記録の閉鎖等,0,2024-04-16,2024-04-12,匠合同会社,,合同会社,神奈川県,相模原市中央区,中央６丁目１２番１榎本第１ビル１０２号室,,14,152,2520239,,,2024-04-12,清算の結了等,,,2017-07-03,1,,,,,,0
1311,5030001117645,登記記録の閉鎖等,0,2024-04-16,2024-04-08,ブルーアローズ株式会社,,株式会社,埼玉県,さいたま市桜区,栄和３丁目２４番１１－４０６号,,11,106,3380823,,,2024-04-08,清算の結了等,,,2016-12-13,1,,,,,ブルーアローズ,0
1321,5030003010170,登記記録の閉鎖等,0,2024-04-16,2024-04-09,合同会社ピース,,合同会社,埼玉県,富士見市,鶴瀬東２丁目２０番１０号,,11,235,3540024,,,2024-04-09,清算の結了等,,,2017-04-18,1,,,,,ピース,0
1329,5040002099898,登記記録の閉鎖等,0,2024-04-16,2024-04-08,有限会社山木農機店,,有限会社,千葉県,館山市,亀ケ原８３５番地,,12,205,2940052,,,2024-04-08,清算の結了等,,,2015-10-05,1,,,,,ヤマキノウキテン,0
1336,5060001034400,登記記録の閉鎖等,0,2024-04-16,2024-04-11,ＮＹＴ株式会社,,株式会社,栃木県,那須塩原市,三区町５３５番地８,,09,213,3292745,,,2024-04-11,合併による解散等,7010501030034,令和６年４月１日東京都台東区東上野一丁目１１番４号大和樹脂株式会社（7010501030034）に合併し解散,2021-12-22,1,,,,,エヌワイティ,0
1348,5100001012723,登記記録の閉鎖等,0,2024-04-16,2024-04-03,株式会社池上,,株式会社,長野県,松本市,大字里山辺２８６６番地６,,20,202,3900221,,,2024-04-03,清算の結了等,,,2015-10-05,1,,,,,イケガミ,0
1354,5120001037826,登記記録の閉鎖等,0,2024-04-16,2024-04-04,株式会社キチデン,,株式会社,大阪府,大阪市浪速区,元町３丁目１０番５号,,27,111,5560016,,,2024-04-04,清算の結了等,,,2015-10-05,1,,,,,キチデン,0
1363,5120001211249,登記記録の閉鎖等,0,2024-04-16,2024-04-11,株式会社ＳＫＴ,,株式会社,大阪府,大阪市此花区,朝日２丁目１８番８号此花産業会館３Ｆ－４０７,,27,104,5540011,,,2024-04-11,清算の結了等,,,2018-02-08,1,,,,,エスケーティ,0
1380,5120901007572,登記記録の閉鎖等,0,2024-04-16,2024-04-11,トッパン・フォームズ関西株式会社,,株式会社,大阪府,三島郡島本町,桜井３丁目１４番１号,,27,301,6180022,,,2024-04-11,合併による解散等,4010501029335,令和６年４月１日東京都台東区台東一丁目５番１号株式会社トッパンコミュニケーションプロダクツ（4010501029335）に合併し解散,2015-10-05,1,,,,,トッパンフォームズカンサイ,0
1387,5130001009840,登記記録の閉鎖等,0,2024-04-16,2024-04-11,日本包装工業株式会社,,株式会社,京都府,京都市東山区,本町１０丁目１９７番地１,,26,105,6050981,,,2024-04-11,合併による解散等,4370001005032,令和６年４月１日仙台市宮城野区扇町七丁目４番２０号株式会社高速（4370001005032）に合併し解散,2015-10-05,1,,,,,ニホンホウソウコウギョウ,0
1391,5140001079370,登記記録の閉鎖等,0,2024-04-16,2024-04-09,株式会社しお川,,株式会社,兵庫県,川西市,平野１丁目１９番３１号,,28,217,6660121,,,2024-04-09,清算の結了等,,,2015-10-05,1,,,,,シオカワ,0
1408,5180001008284,登記記録の閉鎖等,0,2024-04-16,2024-04-02,コンチネンタル貿易株式会社,,株式会社,愛知県,名古屋市昭和区,丸屋町４丁目１８番地,,23,107,4660045,,,2024-04-02,清算の結了等,,,2015-10-05,1,,,,,コンチネンタルボウエキ,0
1422,5190002011022,登記記録の閉鎖等,0,2024-04-16,2024-04-09,有限会社山善エンジニアリング,,有限会社,三重県,伊勢市,勢田町７４１番地３４,,24,203,5160035,,,2024-04-09,清算の結了等,,,2015-10-05,1,,,,,ヤマゼンエンジニアリング,0
1435,5250001019695,登記記録の閉鎖等,0,2024-04-16,2024-04-10,＿＿貿易株式会社,00127419,株式会社,山口県,宇部市,大字東須恵１４４８番地４,,35,202,7590206,,,2024-04-10,清算の結了等,,,2022-08-04,1,,,,,シンシンボウエキ,0
1470,5390002008551,登記記録の閉鎖等,0,2024-04-16,2024-04-03,有限会社皆川建設,,有限会社,山形県,東田川郡庄内町,廻館字館舎１０１番地,,06,428,9997715,,,2024-04-03,清算の結了等,,,2015-10-05,1,,,,,ミナガワケンセツ,0
1479,5430001023308,登記記録の閉鎖等,0,2024-04-16,2024-04-10,クリタ北海道株式会社,,株式会社,北海道,札幌市白石区,菊水元町五条１丁目２番１２号,,01,104,0030825,,,2024-04-10,合併による解散等,3021001024454,令和６年４月１日神奈川県相模原市中央区共和三丁目１５番７号クリタ東日本株式会社（3021001024454）に合併し解散,2015-10-05,1,,,,,クリタホッカイドウ,0
1480,5430001087633,登記記録の閉鎖等,0,2024-04-16,2024-04-08,プラスインパクト株式会社,,株式会社,北海道,札幌市東区,北三十三条東１４丁目４番８号,,01,103,0650033,,,2024-04-08,清算の結了等,,,2022-10-11,1,,,,,プラスインパクト,0
1489,5440002000379,登記記録の閉鎖等,0,2024-04-16,2024-04-09,有限会社井上印刷,,有限会社,北海道,函館市,昭和３丁目２０番１８号,,01,202,0410812,,,2024-04-09,清算の結了等,,,2015-10-05,1,,,,,イノウエインサツ,0
1496,5490002002148,登記記録の閉鎖等,0,2024-04-16,2024-04-11,有限会社高知新聞薊野販売所,,有限会社,高知県,高知市,一宮南町１丁目１１番１８号,,39,201,7818135,,,2024-04-11,清算の結了等,,,2015-10-05,1,,,,,コウチシンブアゾウノハンバイショ,0
1506,6010001084738,登記記録の閉鎖等,0,2024-04-16,2024-04-08,株式会社ウィルファインド,,株式会社,新潟県,新潟市中央区,西堀通３番町７９０番地,,15,103,9518061,,,2024-04-08,合併による解散等,5110001000165,令和６年４月１日新潟市中央区米山二丁目７番地４株式会社アイ・シー・オー（5110001000165）に合併し解散,2015-10-05,1,,,,,ウィルファインド,0
1508,6010001166973,登記記録の閉鎖等,0,2024-04-16,2024-03-29,株式会社リリューム,,株式会社,東京都,中央区,日本橋３丁目２番１４号新槇町シンマキチョウビル別館第一１階,,13,102,1030027,,,2024-03-29,清算の結了等,,,2015-10-05,1,,,,,リリューム,0
1509,6010001177046,登記記録の閉鎖等,0,2024-04-16,2024-04-01,ＧＥＮｉｅ株式会社,,株式会社,東京都,中央区,日本橋人形町１丁目１１番２号,,13,102,1030013,,,2024-04-01,合併による解散等,8010001239835,令和６年４月１日東京都中央区日本橋人形町一丁目１１番２号ココネット株式会社（8010001239835）に合併し解散,2016-07-22,1,,,,,ジーニー,0
1520,6010401030969,登記記録の閉鎖等,0,2024-04-16,2024-04-01,株式会社ＴＦＤ不動産販売,,株式会社,東京都,港区,赤坂４丁目２番６号,,13,103,1070052,,,2024-04-01,合併による解散等,4010401019139,令和６年４月１日東京都港区赤坂四丁目２番６号株式会社ＴＦＤコミュニティ（4010401019139）に合併し解散,2015-10-05,1,,,,,ティーエフディーフドウサンハンバイ,0
1521,6010401069693,登記記録の閉鎖等,0,2024-04-16,2024-04-01,株式会社プロントサービス,,株式会社,東京都,港区,港南１丁目８番２７号,,13,103,1080075,,,2024-04-01,合併による解散等,8010401026511,令和６年４月１日東京都港区港南一丁目８番２７号株式会社プロントコーポレーション（8010401026511）に合併し解散,2015-10-05,1,,,,,プロントサービス,0
1541,6011001129251,登記記録の閉鎖等,0,2024-04-16,2024-04-05,株式会社Ａ＆ＣＯ,,株式会社,東京都,渋谷区,神宮前２丁目３５－９原宿リビン３１３,,13,113,1500001,,,2024-04-05,清算の結了等,,,2019-07-30,1,,,,,エーアンドシーオー,0
1547,6011002025796,登記記録の閉鎖等,0,2024-04-16,2024-04-03,有限会社コクア,,有限会社,東京都,渋谷区,神宮前４丁目１８番６号,,13,113,1500001,,,2024-04-03,清算の結了等,,,2015-10-05,1,,,,,コクア,0
1572,6011502015198,登記記録の閉鎖等,0,2024-04-16,2024-04-08,有限会社東洋インキュベーションシステム,,有限会社,東京都,杉並区,阿佐谷南３丁目３７番１３号,,13,115,1660004,,,2024-04-08,清算の結了等,,,2015-10-05,1,,,,,,0
1579,6011801003143,登記記録の閉鎖等,0,2024-04-16,2024-04-12,株式会社東京セレモニー,,株式会社,東京都,葛飾区,立石１丁目２０番１２号大昌ビル１階,,13,122,1240012,,,2024-04-12,合併による解散等,6120001108824,令和６年４月１日大阪市中央区北浜二丁目６番１１号株式会社公益社（6120001108824）に合併し解散,2015-10-05,1,,,,,トウキョウセレモニー,0
1585,6012801009312,登記記録の閉鎖等,0,2024-04-16,2024-04-08,株式会社バリューディベロップメント,,株式会社,東京都,立川市,曙町１丁目２８番４号,00058924,13,202,1900012,,,2024-04-08,清算の結了等,,,2015-10-05,1,,,,,バリューディベロップメント,0
1590,6013301047439,登記記録の閉鎖等,0,2024-04-16,2024-04-08,株式会社ＭＩＺＺＩ,,株式会社,東京都,新宿区,新宿４丁目３番１５号レイフラット新宿Ｂ棟,,13,104,1600022,,,2024-04-08,清算の結了等,,,2021-05-14,1,,,,,ミッジ,0
1620,6030001140893,登記記録の閉鎖等,0,2024-04-16,2024-04-08,株式会社グッドリスタ,,株式会社,埼玉県,久喜市,栗原３２７番地７,,11,232,3460012,,,2024-04-08,清算の結了等,,,2021-02-25,1,,,,,グッドリスタ,0
1627,6030002050951,登記記録の閉鎖等,0,2024-04-16,2024-04-09,有限会社中川,,有限会社,埼玉県,草加市,谷塚仲町２８８番地６,,11,221,3400025,,,2024-04-09,清算の結了等,,,2015-10-05,1,,,,,ナカガワ,0
1650,6070001001679,登記記録の閉鎖等,0,2024-04-16,2024-04-11,上武工業株式会社,,株式会社,群馬県,前橋市,上泉町１８６４番地２,,10,201,3710007,,,2024-04-11,清算の結了等,,,2015-10-05,1,,,,,ジョウブコウギョウ,0
1653,6070001041386,登記記録の閉鎖等,0,2024-04-16,2024-04-05,株式会社フアツシヨン企画アトリエスミ,,株式会社,群馬県,桐生市,堤町３丁目２番６号,,10,203,3760042,,,2024-04-05,清算の結了等,,,2024-02-19,1,,,,,,0
1668,6100001008869,登記記録の閉鎖等,0,2024-04-16,2024-04-03,株式会社千葉工務所,,株式会社,長野県,北佐久郡軽井沢町,大字長倉２１４６番地,,20,321,3890111,,,2024-04-03,清算の結了等,,,2015-10-05,1,,,,,チバコウムショ,0
1671,6100001021822,登記記録の閉鎖等,0,2024-04-16,2024-04-01,ルビコンホールディングス株式会社,,株式会社,長野県,伊那市,西箕輪１９３８番地１,,20,209,3994501,,,2024-04-01,合併による解散等,6100001020948,令和６年４月１日長野県伊那市西箕輪１９３８番地１ルビコン株式会社（6100001020948）に合併し解散,2015-10-05,1,,,,,ルビコンホールディングス,0
1672,6100001034691,登記記録の閉鎖等,0,2024-04-16,2024-04-02,株式会社中町氷菓店,,株式会社,長野県,安曇野市,穂高有明２９２４番地２,,20,220,3998301,,,2024-04-02,清算の結了等,,,2021-10-06,1,,,,,ナカマチヒョウカテン,0
1678,6120001060950,登記記録の閉鎖等,0,2024-04-16,2024-04-09,株式会社ウイズシステム,,株式会社,大阪府,大阪市北区,中之島２丁目２番７号,,27,127,5300005,,,2024-04-09,合併による解散等,7011001106943,令和６年４月１日東京都新宿区西新宿六丁目５番１号情報技術開発株式会社（7011001106943）に合併し解散,2015-10-05,1,,,,,ウイズシステム,0
1680,6120001153052,登記記録の閉鎖等,0,2024-04-16,2024-04-04,株式会社Ｍ＆Ｔ,,株式会社,大阪府,枚方市,東中振１丁目６４番５号,,27,210,5730093,,,2024-04-04,清算の結了等,,,2015-10-05,1,,,,,エムアンドティ,0
1681,6120001164157,登記記録の閉鎖等,0,2024-04-16,2024-04-08,株式会社エブリデイ・ドット・コム,,株式会社,大阪府,大阪市北区,角田町８番７号,,27,127,5300017,,,2024-04-08,合併による解散等,3120001165100,令和６年４月１日大阪市北区角田町８番７号株式会社エイチ・ツー・オーシステム（3120001165100）に合併し解散,2015-10-05,1,,,,,エブリデイドットコム,0
1682,6120001203369,登記記録の閉鎖等,0,2024-04-16,2024-04-03,株式会社Ｒｅａｎｇｅ,,株式会社,大阪府,大阪市西区,北堀江２丁目３番１０号,,27,106,5500014,,,2024-04-03,清算の結了等,,,2017-02-01,1,,,,,リアンジュ,0
1698,6120901026448,登記記録の閉鎖等,0,2024-04-16,2024-04-09,アイピー・プレシジョン株式会社,,株式会社,大阪府,高槻市,緑が丘２丁目３番１２号,,27,207,5691026,,,2024-04-09,清算の結了等,,,2015-10-05,1,,,,,アイピープレシジョン,0
1707,6130005016510,登記記録の閉鎖等,0,2024-04-16,2024-04-11,一般社団法人家族支援ネットらるご,,その他の設立登記法人,京都府,京都市山科区,竹鼻立原町３番地５０,,26,110,6078084,,,2024-04-11,清算の結了等,,,2022-06-24,1,,,,,カゾクシエンネットラルゴ,0
1721,6180002029155,登記記録の閉鎖等,0,2024-04-16,2024-04-03,有限会社ミキ商会,,有限会社,愛知県,名古屋市中村区,長筬町５丁目６番地１,,23,105,4530839,,,2024-04-03,清算の結了等,,,2015-10-05,1,,,,,ミキショウカイ,0
1739,6210002007306,登記記録の閉鎖等,0,2024-04-16,2024-04-08,有限会社三和経営サービス,,有限会社,福井県,坂井市,春江町為国第２２号６番地２９,,18,210,9190431,,,2024-04-08,清算の結了等,,,2015-10-05,1,,,,,サンワケイエイサービス,0
1742,6240001006933,登記記録の閉鎖等,0,2024-04-16,2024-04-11,中外印刷株式会社,,株式会社,広島県,広島市西区,東観音町３番８号,,34,104,7330032,,,2024-04-11,清算の結了等,,,2015-10-05,1,,,,,チュウガイインサツ,0
1751,6250002015890,登記記録の閉鎖等,0,2024-04-16,2024-04-10,有限会社藤井材木店,,有限会社,山口県,下松市,大字山田２４１番地,,35,207,7440041,,,2024-04-10,清算の結了等,,,2015-10-05,1,,,,,フジイザイモクテン,0
1752,6250002019215,登記記録の閉鎖等,0,2024-04-16,2024-04-09,有限会社山本技研,,有限会社,山口県,岩国市,玖珂町１２４０番地,,35,208,7420344,,,2024-04-09,清算の結了等,,,2015-10-05,1,,,,,ヤマモトギケン,0
1754,6260005006688,登記記録の閉鎖等,0,2024-04-16,2024-04-01,医療法人辻医院,00004151,その他の設立登記法人,岡山県,津山市,小原２７番地の１,,33,203,7080001,,,2024-04-01,清算の結了等,,,2015-10-05,1,,,,,ツジイイン,0
1756,6280001002879,登記記録の閉鎖等,0,2024-04-16,2024-04-09,株式会社クローバーズ,,株式会社,島根県,松江市,東朝日町２１６番地５,,32,201,6900001,,,2024-04-09,合併による解散等,2070001029807,令和６年４月１日東京都千代田区丸の内一丁目１番１号さくら薬局株式会社（2070001029807）に合併し解散,2015-10-05,1,,,,,クローバーズ,0
1764,6310002006421,登記記録の閉鎖等,0,2024-04-16,2024-04-15,有限会社篝屋,00118267,有限会社,長崎県,長崎市,万屋町２番２３号,,42,201,8500852,,,2024-04-15,清算の結了等,,,2015-10-05,1,,,,,カガリヤ,0
1782,6390005000380,登記記録の閉鎖等,0,2024-04-16,2024-04-04,公益財団法人山形県産業技術振興機構,,その他の設立登記法人,山形県,山形市,松栄２丁目２番１号,,06,201,9902473,,,2024-04-04,合併による解散等,5390005000373,令和６年４月１日山形市城南町一丁目１番１号公益財団法人やまがた産業支援機構（5390005000373）に合併し解散,2015-10-05,1,,,,,ヤマガタケンサンギョウギジュツシンコウキコウ,0
1786,6420002000165,登記記録の閉鎖等,0,2024-04-16,2024-04-08,有限会社青森農機,,有限会社,青森県,青森市,大字高田字川瀬４４７番地６２,,02,201,0300151,,,2024-04-08,清算の結了等,,,2015-10-05,1,,,,,アオモリノウキ,0
1793,6430002024799,登記記録の閉鎖等,0,2024-04-16,2024-04-08,有限会社丸岡電気設備設計事務所,,有限会社,北海道,札幌市東区,伏古六条２丁目３番７号,,01,103,0070866,,,2024-04-08,清算の結了等,,,2015-10-05,1,,,,,,0
1799,6450002005574,登記記録の閉鎖等,0,2024-04-16,2024-04-10,有限会社ミドリ企画,,有限会社,北海道,旭川市,緑が丘三条３丁目１番地の１３グリーンプラザビル内,,01,204,0788303,,,2024-04-10,清算の結了等,,,2015-10-05,1,,,,,ミドリキカク,0
1807,6500001000736,登記記録の閉鎖等,0,2024-04-16,2024-04-08,愛媛くろがね株式会社,00007263,株式会社,愛媛県,松山市,一番町１丁目１４番地６,,38,201,7900001,,,2024-04-08,合併による解散等,3500001000458,令和６年４月１日愛媛県松山市中央二丁目７２番地伊豫スズキ販売株式会社（3500001000458）に合併し解散,2015-10-05,1,,,,,エヒメクロガネ,0
1853,7010701013045,登記記録の閉鎖等,0,2024-04-16,2024-04-01,ＮＳＫネットアンドシステム株式会社,,株式会社,東京都,品川区,大崎１丁目６番３号,,13,109,1410032,,,2024-04-01,合併による解散等,8010701007715,令和６年４月１日東京都品川区大崎一丁目６番３号日本精工株式会社（8010701007715）に合併し解散,2015-10-05,1,,,,,エヌエスケーネットアンドシステム,0
1854,7010701013689,登記記録の閉鎖等,0,2024-04-16,2024-04-01,ＮＳＫ人事サービス株式会社,,株式会社,東京都,品川区,大崎１丁目６番３号,,13,109,1410032,,,2024-04-01,合併による解散等,8010701007715,令和６年４月１日東京都品川区大崎一丁目６番３号日本精工株式会社（8010701007715）に合併し解散,2015-10-05,1,,,,,エヌエスケージンジサービス,0
1855,7010701017847,登記記録の閉鎖等,0,2024-04-16,2024-04-01,クライアント・サポー卜株式会社,,株式会社,東京都,品川区,平塚２丁目４番１６号,,13,109,1420051,,,2024-04-01,清算の結了等,,,2015-10-05,1,,,,,クライアントサポート,0
1879,7011201004303,登記記録の閉鎖等,0,2024-04-16,2024-04-12,ニューハウスジャパン株式会社,,株式会社,東京都,中野区,東中野３丁目７番１０号,,13,114,1640003,,,2024-04-12,清算の結了等,,,2024-03-27,1,,,,,ニューハウスジャパン,0
1891,7012401034057,登記記録の閉鎖等,0,2024-04-16,2024-04-12,株式会社モバイルトラスト,,株式会社,東京都,日野市,高幡１００８番地の６,,13,212,1910031,,,2024-04-12,合併による解散等,5011001061661,令和６年４月１日東京都渋谷区恵比寿四丁目１番１８号株式会社ティーガイア（5011001061661）に合併し解散,2018-06-15,1,,,,,モバイルトラスト,0
1905,7021001068563,登記記録の閉鎖等,0,2024-04-16,2024-04-12,株式会社エーアイクリエイション,,株式会社,神奈川県,鎌倉市,七里ガ浜２丁目３番７号,,14,204,2480026,,,2024-04-12,清算の結了等,,,2019-11-08,1,,,,,エーアイクリエイション,0
1919,7030002014625,登記記録の閉鎖等,0,2024-04-16,2024-04-08,有限会社綿貫商店,,有限会社,埼玉県,さいたま市浦和区,常盤２丁目９番１３号,,11,107,3300061,,,2024-04-08,清算の結了等,,,2015-10-05,1,,,,,ワタヌキショウテン,0
1921,7030002026083,登記記録の閉鎖等,0,2024-04-16,2024-04-08,有限会社高橋工房,00016389,有限会社,埼玉県,蕨市,中央５丁目１７番５号,,11,223,3350004,,,2024-04-08,清算の結了等,,,2015-10-05,1,,,,,タカハシコウボウ,0
1955,7110005013509,登記記録の閉鎖等,0,2024-04-16,2024-04-08,特定非営利活動法人うおぬま地域交流育英会,,その他の設立登記法人,新潟県,南魚沼市,石打１９２５番地７,,15,226,9496372,,,2024-04-08,清算の結了等,,,2015-10-05,1,,,,,ウオヌマチイキコウリュウイクエイカイ,0
1958,7120001188097,登記記録の閉鎖等,0,2024-04-16,2024-04-11,ジャパンパウダー塗料製造株式会社,,株式会社,愛知県,小牧市,大字三ツ渕字西之門８７８番地,,23,219,4850075,,,2024-04-11,合併による解散等,1120001026551,令和６年４月１日大阪市中央区南船場一丁目１８番１１号大日本塗料株式会社（1120001026551）に合併し解散,2015-10-05,1,,,,,ジャパンパウダートリョウセイゾウ,0
1996,7180001033330,登記記録の閉鎖等,0,2024-04-16,2024-04-12,株式会社ヨンゴー,,株式会社,愛知県,名古屋市中村区,名駅南１丁目２０番１２号,,23,105,4500003,,,2024-04-12,合併による解散等,8010001068350,令和６年４月１日東京都千代田区神田司町二丁目６番地ＡＤＥＫＡ食品販売株式会社（8010001068350）に合併し解散,2015-10-05,1,,,,,ヨンゴー,0
2002,7180002059399,登記記録の閉鎖等,0,2024-04-16,2024-04-03,有限会社岡田新聞店,,有限会社,愛知県,名古屋市港区,当知町字堤外６０１番地の５,,23,111,4550805,,,2024-04-03,清算の結了等,,,2015-10-05,1,,,,,オカダシンブンテン,0
2003,7180002075818,登記記録の閉鎖等,0,2024-04-16,2024-04-03,有限会社牛田新聞舗,,有限会社,愛知県,一宮市,大和町戸塚字寺田２７番地の３８,,23,203,4910927,,,2024-04-03,清算の結了等,,,2015-10-05,1,,,,,ウシダシンブンホ,0
2014,7190002006838,登記記録の閉鎖等,0,2024-04-16,2024-04-10,有限会社ナカノ,,有限会社,三重県,鈴鹿市,大池２丁目２９番１０号,,24,207,5130827,,,2024-04-10,清算の結了等,,,2015-10-05,1,,,,,ナカノ,0
2020,7200002009384,登記記録の閉鎖等,0,2024-04-16,2024-04-11,有限会社川瀬商店,00076898,有限会社,岐阜県,本巣郡北方町,北方１５２３番地,,21,421,5010431,,,2024-04-11,清算の結了等,,,2015-10-05,1,,,,,カワセショウテン,0
2028,7230002011189,登記記録の閉鎖等,0,2024-04-16,2024-04-11,有限会社サンライズ,,有限会社,富山県,高岡市,長江４１８番地の５,,16,202,9330959,,,2024-04-11,清算の結了等,,,2015-10-05,1,,,,,サンライズ,0
2048,7290802015202,登記記録の閉鎖等,0,2024-04-16,2024-04-05,有限会社福岡建設,,有限会社,福岡県,北九州市八幡西区,楠橋南１丁目７番２０号,,40,109,8071143,,,2024-04-05,清算の結了等,,,2015-10-05,1,,,,,フクオカケンセツ,0
2050,7310001013541,登記記録の閉鎖等,0,2024-04-16,2024-04-15,株式会社いち花長崎,,株式会社,長崎県,長崎市,川口町１３番１号,,42,201,8528108,,,2024-04-15,清算の結了等,,,2015-10-05,1,,,,,イチハナナガサキ,0
2076,7380001009797,登記記録の閉鎖等,0,2024-04-16,2024-04-12,株式会社ファーストフーズ福島,,株式会社,福島県,本宮市,荒井字恵向６０番地１１,,07,214,9691104,,,2024-04-12,合併による解散等,7010101004330,令和６年４月１日東京都八王子市明神町二丁目４番１３号株式会社ファーストフーズ（7010101004330）に合併し解散,2015-10-05,1,,,,,ファーストフーズフクシマ,0
2112,8010001093621,登記記録の閉鎖等,0,2024-04-16,2024-04-04,ガク＆トライアングル株式会社,,株式会社,東京都,港区,芝浦４丁目１９番１号ケープタワー４３０４号室,,13,103,1080023,,,2024-04-04,清算の結了等,,,2015-10-05,1,,,,,,0
2138,8010602015676,登記記録の閉鎖等,0,2024-04-16,2024-04-08,有限会社町田酸素工業所,,有限会社,東京都,墨田区,立花５丁目３４番１号,,13,107,1310043,,,2024-04-08,清算の結了等,,,2015-10-05,1,,,,,マチダサンソコウギョウショ,0
2143,8010901019948,登記記録の閉鎖等,0,2024-04-16,2024-04-12,株式会社ホンダカーズ東京中央,,株式会社,東京都,世田谷区,新町２丁目１９番２号,,13,112,1540014,,,2024-04-12,合併による解散等,5030001007680,令和６年４月１日埼玉県さいたま市中央区上落合五丁目３番６号株式会社ホンダモビリティ南関東（5030001007680）に合併し解散,2015-10-05,1,,,,,ホンダカーズトウキョウチュウオウ,0
2148,8011001104814,登記記録の閉鎖等,0,2024-04-16,2024-04-05,株式会社Ｄ．Ｎ．Ａ．,,株式会社,東京都,渋谷区,神宮前４丁目１８番１７－４０２号,,13,113,1500001,,,2024-04-05,清算の結了等,,,2015-10-05,1,,,,,ディーエヌエー,0
2174,8011802010855,登記記録の閉鎖等,0,2024-04-16,2024-04-11,有限会社大野タイル,,有限会社,東京都,足立区,千住龍田町１２番１１号,,13,121,1200042,,,2024-04-11,清算の結了等,,,2015-10-05,1,,,,,,0
2183,8020001135562,登記記録の閉鎖等,0,2024-04-16,2024-04-02,Ｗｉｌｌａｂｌｅ株式会社,,株式会社,神奈川県,横浜市港北区,新羽町４７２番地,,14,109,2230057,,,2024-04-02,合併による解散等,3120101005362,令和６年４月１日神奈川県横浜市港北区新横浜二丁目４番地１７シリウスビジョン株式会社（3120101005362）に合併し解散,2020-04-08,1,,,,,ウィラブル,0
2204,8030001114202,登記記録の閉鎖等,0,2024-04-16,2024-04-10,日本トレード基準株式会社,,株式会社,埼玉県,上尾市,愛宕３丁目２７番２号バンテヴェールＩＩ１０１,00106623,11,219,3620034,,,2024-04-10,合併による解散等,5140001031728,令和６年１月１日兵庫県芦屋市船戸町５番１８－２０２号株式会社Ｂ　ＴＲＥＥ（5140001031728）に合併し解散,2016-05-06,1,,,,,,0
2214,8040001107097,登記記録の閉鎖等,0,2024-04-16,2024-04-09,柳沼技研株式会社,,株式会社,福島県,二本松市,油井字下中ノ内２０番地,,07,210,9691404,,,2024-04-09,清算の結了等,,,2018-12-04,1,,,,,ヤギヌマギケン,0
2229,8070003001964,登記記録の閉鎖等,0,2024-04-16,2024-04-10,松島エンタープライズ合同会社,,合同会社,群馬県,太田市,新田上中町４６１番地４,,10,205,3700353,,,2024-04-10,清算の結了等,,,2015-10-05,1,,,,,マツシマエンタープライズ,0
2235,8080102006442,登記記録の閉鎖等,0,2024-04-16,2024-04-10,有限会社アテックス,,有限会社,静岡県,駿東郡長泉町,竹原３７４番地の１シャルマンコーポ竹原４０４号,,22,342,4110944,,,2024-04-10,清算の結了等,,,2015-10-05,1,,,,,アテックス,0
2247,8120001096588,登記記録の閉鎖等,0,2024-04-16,2024-04-11,株式会社ジーシーシー,,株式会社,大阪府,大阪市中央区,本町３丁目５番７号御堂筋本町ビル１階,,27,128,5410053,,,2024-04-11,合併による解散等,1011101031601,令和６年４月１日東京都渋谷区代々木三丁目２２番７号兼松コミュニケーションズ株式会社（1011101031601）に合併し解散,2015-10-05,1,,,,,ジーシーシー,0
2254,8120001258931,登記記録の閉鎖等,0,2024-04-16,2024-04-02,株式会社パシフィックツーリスト,,株式会社,大阪府,大阪市北区,堂島１丁目地下街１０号,,27,127,5300003,,,2024-04-02,清算の結了等,,,2023-10-13,1,,,,,パシフィックツーリスト,0
2273,8122001022953,登記記録の閉鎖等,0,2024-04-16,2024-04-08,株式会社チャージ,,株式会社,大阪府,八尾市,旭ケ丘１丁目３番地の８,,27,212,5810833,,,2024-04-08,清算の結了等,,,2015-10-05,1,,,,,チャージ,0
2276,8130001030810,登記記録の閉鎖等,0,2024-04-16,2024-04-10,ツクシ工業株式会社,,株式会社,京都府,向日市,森本町野田１番地１,,26,208,6170003,,,2024-04-10,合併による解散等,5030001057049,令和６年４月１日埼玉県ふじみ野市亀久保１１５０番地株式会社内外テクノス（5030001057049）に合併し解散,2015-10-05,1,,,,,ツクシコウギョウ,0
2280,8130001061186,登記記録の閉鎖等,0,2024-04-16,2024-04-04,株式会社エノン,,株式会社,大阪府,大阪市福島区,福島８丁目１６－１５ロイヤルプラザ福島３０４号,,27,103,5530003,,,2024-04-04,清算の結了等,,,2017-12-21,1,,,,,エノン,0
2281,8140001044256,登記記録の閉鎖等,0,2024-04-16,2024-04-10,マツバガス株式会社,,株式会社,兵庫県,高砂市,高砂町向島町１４７４番地の３４,,28,216,6760031,,,2024-04-10,清算の結了等,,,2015-10-05,1,,,,,マツバガス,0
2293,8140005017332,登記記録の閉鎖等,0,2024-04-16,2024-04-11,窪田生産森林組合,,その他の設立登記法人,兵庫県,加西市,窪田町４３５番地４,,28,220,6752364,,,2024-04-11,清算の結了等,,,2015-10-05,1,,,,,クボタ,0
2296,8150001011461,登記記録の閉鎖等,0,2024-04-16,2024-04-12,株式会社ササイナカムラ,,株式会社,奈良県,大和郡山市,下三橋町１８番地１,,29,203,6391101,,,2024-04-12,合併による解散等,5470001003017,令和６年４月１日香川県高松市円座町５７１番地コベルコ建機トータルサポート株式会社（5470001003017）に合併し解散,2015-10-05,1,,,,,ササイナカムラ,0
2301,8170001017671,登記記録の閉鎖等,0,2024-04-16,2024-04-11,株式会社エネアーク和歌山,,株式会社,和歌山県,和歌山市,小倉４１１番地１０,,30,201,6496261,,,2024-04-11,合併による解散等,5120001118733,令和６年４月１日大阪市中央区備後町三丁目６番１４号株式会社エネアーク関西（5120001118733）に合併し解散,2023-07-10,1,,,,,エネアークワカヤマ,0
2309,8180001156312,登記記録の閉鎖等,0,2024-04-16,2024-04-03,株式会社Ｓｅｒｖｅ,,株式会社,愛知県,名古屋市北区,金城１丁目２番２－２５１号（たなばた住宅）,,23,103,4620847,,,2024-04-03,清算の結了等,,,2023-05-16,1,,,,,サーブ,0
2327,8230001013813,登記記録の閉鎖等,0,2024-04-16,2024-04-08,ＯＳ・マーケティング株式会社,,株式会社,富山県,富山市,上冨居１丁目８番３０号,,16,201,9300835,,,2024-04-08,合併による解散等,8230001001090,令和６年４月１日富山市上冨居一丁目８番３０号サンヨウ株式会社（8230001001090）に合併し解散,2015-10-05,1,,,,,オーエスマーケティング,0
2333,8230002006056,登記記録の閉鎖等,0,2024-04-16,2024-04-10,有限会社荒田製作所,,有限会社,富山県,富山市,婦中町広田５１７８番地,,16,201,9392745,,,2024-04-10,清算の結了等,,,2015-10-05,1,,,,,アラタセイサクショ,0
2339,8240001059434,登記記録の閉鎖等,0,2024-04-16,2024-04-11,株式会社前田技研,,株式会社,広島県,広島市南区,向洋大原町２３番２５号,,34,103,7340063,,,2024-04-11,清算の結了等,,,2022-03-07,1,,,,,マエダギケン,0
2347,8260003001879,登記記録の閉鎖等,0,2024-04-16,2024-04-03,合同会社エコカレッジ井笠,,合同会社,岡山県,井原市,芳井町下鴫２９９５番地３,,33,207,7142231,,,2024-04-03,清算の結了等,,,2015-11-18,1,,,,,エコカレッジイカサ,0
2354,8290802016034,登記記録の閉鎖等,0,2024-04-16,2024-04-09,有限会社八幡西調剤薬局,,有限会社,福岡県,北九州市八幡西区,八枝３丁目１２番１号,,40,109,8070856,,,2024-04-09,合併による解散等,2070001029807,令和６年４月１日東京都千代田区丸の内一丁目１番１号さくら薬局株式会社（2070001029807）に合併し解散,2015-10-05,1,,,,,ヤハタニシチョウザイヤッキョク,0
2359,8310001012179,登記記録の閉鎖等,0,2024-04-16,2024-04-15,株式会社サンテクノ,,株式会社,長崎県,北松浦郡佐々町,本田原免４８番地１,,42,391,8570311,,,2024-04-15,清算の結了等,,,2015-10-05,1,,,,,サンテクノ,0
2360,8320001016311,登記記録の閉鎖等,0,2024-04-16,2024-04-11,株式会社ブーミング・ブラザーズ,,株式会社,沖縄県,浦添市,勢理客１丁目３番１号,,47,208,9012122,,,2024-04-11,合併による解散等,2320001012679,令和６年４月１日大分市碩田町二丁目２番３０号ビープラス・ホールディングス株式会社（2320001012679）に合併し解散,2018-04-16,1,,,,,ブーミングブラザーズ,0
2362,8330001017250,登記記録の閉鎖等,0,2024-04-16,2024-04-10,株式会社リペアサポート,,株式会社,熊本県,熊本市中央区,南熊本３丁目９番３０号,,43,101,8600812,,,2024-04-10,合併による解散等,4350001008301,令和６年４月１日鹿児島市西別府町２９４１番地２６万代ホーム株式会社（4350001008301）に合併し解散,2015-10-05,1,,,,,リペアサポート,0
2364,8330002025079,登記記録の閉鎖等,0,2024-04-16,2024-04-05,有限会社エステック,,有限会社,熊本県,熊本市南区,城南町今吉野３９１番地２,,43,104,8614211,,,2024-04-05,清算の結了等,,,2015-10-05,1,,,,,エステック,0
2372,8360005000324,登記記録の閉鎖等,0,2024-04-16,2024-04-08,社会福祉法人野菊福祉会,,その他の設立登記法人,沖縄県,那覇市,具志３丁目２０番１２号,,47,201,9010146,,,2024-04-08,合併による解散等,8140005003514,令和６年４月１日大阪府吹田市岸部南一丁目４番２４号社会福祉法人恩徳福祉会（8140005003514）に合併し解散,2015-10-05,1,,,,,ノギクフクシカイ,0
2377,8380001000540,登記記録の閉鎖等,0,2024-04-16,2024-04-09,株式会社サンク,,株式会社,福島県,福島市,北矢野目字竹ノ花３５番地の１,,07,201,9600113,,,2024-04-09,合併による解散等,1380001027342,令和６年４月９日福島県福島市飯坂町平野字大前田１番地の８株式会社Ｔｅｘ　Ｔｅｃｈ（1380001027342）に合併し解散,2015-10-05,1,,,,,サンク,0
2387,8402701000610,登記記録の閉鎖等,0,2024-04-16,2024-04-12,リマテックＲ＆Ｄ株式会社,,株式会社,大阪府,堺市西区,築港新町４丁２番４,,27,144,5928331,,,2024-04-12,合併による解散等,8120101036576,令和６年４月１日大阪府岸和田市地蔵浜町１１番地の１株式会社レックスＲＦ（8120101036576）に合併し解散,2015-10-05,1,,,,,リマテックアールアンドディ,0
2408,8450002009607,登記記録の閉鎖等,0,2024-04-16,2024-04-04,有限会社列車ハウス,,有限会社,北海道,富良野市,北の峰町２４番３号,,01,229,0760034,,,2024-04-04,清算の結了等,,,2015-10-05,1,,,,,レッシャハウス,0
2412,8500002012324,登記記録の閉鎖等,0,2024-04-16,2024-04-08,小清水被服工業有限会社,,有限会社,愛媛県,西予市,宇和町東多田９６番地１,,38,214,7970041,,,2024-04-08,清算の結了等,,,2015-10-05,1,,,,,,0
2453,9010901007811,登記記録の閉鎖等,0,2024-04-16,2024-04-10,株式会社テック東栄,,株式会社,三重県,鈴鹿市,木田町８０番地,,24,207,5130015,,,2024-04-10,合併による解散等,5030001072717,令和６年４月１日埼玉県加須市志多見８３番地３テイ・エスパーツアンドサービス株式会社（5030001072717）に合併し解散,2015-10-05,1,,,,,テックトウエイ,0
2458,9011001000129,登記記録の閉鎖等,0,2024-04-16,2024-04-03,京芝株式会社,,株式会社,東京都,渋谷区,恵比寿１丁目１３番１０号,,13,113,1500013,,,2024-04-03,清算の結了等,,,2015-11-09,1,,,,,キョウシバ,0
2459,9011001061872,登記記録の閉鎖等,0,2024-04-16,2024-04-01,Ｓｕｐｅｒｓｈｉｐ株式会社,,株式会社,東京都,港区,虎ノ門１丁目１７番１号,,13,103,1050001,,,2024-04-01,合併による解散等,8011001102173,令和６年４月１日東京都港区虎ノ門一丁目１７番１号Ｓｕｐｅｒｓｈｉｐホールディングス株式会社（8011001102173）に合併し解散,2015-10-05,1,,,,,スーパーシップ,0
2460,9011001099772,登記記録の閉鎖等,0,2024-04-16,2024-04-05,株式会社Ｔｒｙｅｌｌ,,株式会社,東京都,新宿区,北新宿２丁目２１番１号,,13,104,1690074,,,2024-04-05,合併による解散等,5011101083341,令和６年４月１日東京都新宿区北新宿二丁目２１番１号ニフティライフスタイル株式会社（5011101083341）に合併し解散,2015-10-05,1,,,,,トライエル,0
2470,9011101099482,登記記録の閉鎖等,0,2024-04-16,2024-04-09,株式会社Ｅカンパニー,,株式会社,東京都,練馬区,桜台２丁目３９番１３－２０４号,,13,120,1760002,,,2024-04-09,清算の結了等,,,2022-07-12,1,,,,,イーカンパニー,0
2472,9011201003360,登記記録の閉鎖等,0,2024-04-16,2024-04-15,株式会社つかさ産業,,株式会社,東京都,中野区,江原町２丁目３１番７号,,13,114,1650023,,,2024-04-15,清算の結了等,,,2015-10-05,1,,,,,ツカササンギョウ,0
2480,9011801024153,登記記録の閉鎖等,0,2024-04-16,2024-04-12,株式会社大東物産,,株式会社,東京都,葛飾区,奥戸６丁目１４番７号,,13,122,1240022,,,2024-04-12,清算の結了等,,,2015-10-05,1,,,,,ダイトウブッサン,0
2514,9030001080476,登記記録の閉鎖等,0,2024-04-16,2024-04-08,株式会社春海,,株式会社,埼玉県,川口市,南町１丁目１番４１号,,11,203,3320026,,,2024-04-08,清算の結了等,,,2015-10-05,1,,,,,ハルミ,0
2515,9030001081482,登記記録の閉鎖等,0,2024-04-16,2024-04-05,ヨコハマ技研インターナショナル株式会社,,株式会社,埼玉県,川口市,川口６丁目８番９号,,11,203,3320015,,,2024-04-05,合併による解散等,2030001083444,令和６年４月１日埼玉県川口市川口六丁目８番９号ヨコハマ技研株式会社（2030001083444）に合併し解散,2015-10-05,1,,,,,ヨコハマギケンインターナショナル,0
2526,9030002050981,登記記録の閉鎖等,0,2024-04-16,2024-04-10,有限会社トウホウマシナリー,,有限会社,埼玉県,草加市,青柳５丁目３９番２３号,,11,221,3400002,,,2024-04-10,清算の結了等,,,2015-10-05,1,,,,,トウホウマシナリー,0
2543,9050001010282,登記記録の閉鎖等,0,2024-04-16,2024-04-10,関東スチール株式会社,,株式会社,茨城県,土浦市,大畑５８０番地,,08,203,3004111,,,2024-04-10,合併による解散等,5120001062898,令和６年３月３１日大阪市北区堂島浜一丁目４番１６号共英製鋼株式会社（5120001062898）に合併し解散,2015-10-05,1,,,,,カントウスチール,0
2549,9060001014992,登記記録の閉鎖等,0,2024-04-16,2024-04-08,永井工業株式会社,,株式会社,栃木県,下野市,薬師寺３１２３番地,,09,216,3290431,,,2024-04-08,清算の結了等,,,2015-10-05,1,,,,,ナガイコウギョウ,0
2564,9100001028039,登記記録の閉鎖等,0,2024-04-16,2024-04-01,株式会社ＩＭＡＧＩＮＥ,,株式会社,長野県,松本市,深志２丁目５番１３号３０５,,20,202,3900815,,,2024-04-01,合併による解散等,6100001013274,令和６年４月１日長野県松本市本庄一丁目３番１２号株式会社ジン・コーポレーション（6100001013274）に合併し解散,2015-10-05,1,,,,,イマジン,0
2565,9100002038516,登記記録の閉鎖等,0,2024-04-16,2024-04-03,有限会社お酒と本屋,,有限会社,長野県,下伊那郡阿南町,北條２０２２番地,,20,404,3991501,,,2024-04-03,清算の結了等,,,2015-10-05,1,,,,,オサケトホンヤ,0
2587,9120901030372,登記記録の閉鎖等,0,2024-04-16,2024-04-11,株式会社ヤマハミュージックリテイリング,,株式会社,東京都,港区,高輪２丁目１７番１１号,,13,103,1080074,,,2024-04-11,合併による解散等,9010001059563,令和６年４月１日東京都港区高輪二丁目１７番１１号株式会社ヤマハミュージックジャパン（9010001059563）に合併し解散,2015-10-05,1,,,,,ヤマハミュージックリテイリング,0
2607,9160001020584,登記記録の閉鎖等,0,2024-04-16,2024-04-09,株式会社ｄａｔｕｍ,,株式会社,滋賀県,大津市,京町４丁目５－１３,,25,201,5200044,,,2024-04-09,清算の結了等,,,2017-11-22,1,,,,,デイタム,0
2618,9180001138276,登記記録の閉鎖等,0,2024-04-16,2024-04-03,株式会社ＤＭＪ　ＮＥＸＴ,,株式会社,愛知県,一宮市,大毛字西新開５５番地,,23,203,4910132,,,2024-04-03,清算の結了等,,,2019-10-02,1,,,,,ディエムジェイネクスト,0
2622,9180002035811,登記記録の閉鎖等,0,2024-04-16,2024-04-03,有限会社大崎産業,,有限会社,愛知県,名古屋市東区,筒井２丁目１０番３５号,,23,102,4610003,,,2024-04-03,清算の結了等,,,2015-10-05,1,,,,,オオサキサンギョウ,0
2623,9180002058044,登記記録の閉鎖等,0,2024-04-16,2024-03-29,有限会社西春塗装工業所,,有限会社,愛知県,北名古屋市,鍜治ケ一色西一丁目１０１番地,,23,234,4810037,,,2024-03-29,清算の結了等,,,2015-10-05,1,,,,,ニシハルトソウコウギョウショ,0
2630,9200001036667,登記記録の閉鎖等,0,2024-04-16,2024-04-12,托米愛株式会社,,株式会社,岐阜県,羽島市,福寿町浅平１６１番地３,,21,209,5016255,,,2024-04-12,清算の結了等,,,2019-09-25,1,,,,,タクメアイ,0
2649,9280001000384,登記記録の閉鎖等,0,2024-04-16,2024-04-15,株式会社住宅ケンコウ社島根,,株式会社,島根県,松江市,古志原５丁目１５番７号,,32,201,6900012,,,2024-04-15,清算の結了等,,,2015-10-05,1,,,,,ジュウタクケンコウシャシマネ,0
2651,9280001007784,登記記録の閉鎖等,0,2024-04-16,2024-04-15,株式会社蒼馬,,株式会社,島根県,出雲市,斐川町求院１３４４番地,,32,203,6990614,,,2024-04-15,清算の結了等,,,2018-08-10,1,,,,,ソウマ,0
2672,9330001022084,登記記録の閉鎖等,0,2024-04-16,2024-04-01,天草シーフーズ株式会社,,株式会社,熊本県,天草市,牛深町８３６番地４,,43,215,8631901,,,2024-04-01,合併による解散等,9330002029450,令和６年４月１日熊本県天草市牛深町８３６番地４株式会社天草フードテック（9330002029450）に合併し解散,2015-10-05,1,,,,,アマクサシーフーズ,0
