sequenceNumber,corporateNumber,process,correct,updateDate,changeDate,name,nameImageId,kind,prefectureName,cityName,streetNumber,addressImageId,prefectureCode,cityCode,postCode,addressOutside,addressOutsideImageId,closeDate,closeCause,successorCorporateNumber,changeCause,assignmentDate,latest,enName,enPrefectureName,enCityName,enAddressOutside,furigana,hihyoji
5,1010001255822,新規,0,2025-06-16,2025-06-16,千代田株式会社,,株式会社,東京都,千代田区,一番町２０番地５Ｂｒｉｌｌｉａ一番町７０４号,,13,101,1020082,,,,,,,2025-06-16,1,,,,,チヨダ,0
6,1010001256011,新規,0,2025-06-16,2025-06-16,株式会社ＥＯＲジャパン,,株式会社,東京都,千代田区,九段南１丁目５番６号りそな九段ビル５Ｆ,,13,101,1020074,,,,,,,2025-06-16,1,,,,,イーオーアールジャパン,0
20,1010401191031,新規,0,2025-06-16,2025-06-16,エスエフホールディングス株式会社,,株式会社,東京都,港区,南麻布５丁目１１番１１号,,13,103,1060047,,,,,,,2025-06-16,1,,,,,エスエフホールディングス,0
21,1010401191056,新規,0,2025-06-16,2025-06-16,株式会社サイフル,,株式会社,東京都,港区,北青山１丁目３‐３三橋ビル３階,,13,103,1070061,,,,,,,2025-06-16,1,,,,,サイフル,0
22,1010401191097,新規,0,2025-06-16,2025-06-16,Ｍ＆Ｂ株式会社,,株式会社,東京都,港区,高輪３丁目２５番２０号ジョイシティ品川１２０１,,13,103,1080074,,,,,,,2025-06-16,1,,,,,エムアンドビ,0
29,1010701047817,新規,0,2025-06-16,2025-06-16,株式会社７８,,株式会社,東京都,品川区,北品川３丁目５番２０号,,13,109,1400001,,,,,,,2025-06-16,1,,,,,セブンティエイト,0
30,1010701047825,新規,0,2025-06-16,2025-06-16,株式会社ＹＯｌＯ,,株式会社,東京都,品川区,東品川３丁目１８番１７－９０４号,,13,109,1400002,,,,,,,2025-06-16,1,,,,,ヨロ,0
31,1010701047841,新規,0,2025-06-16,2025-06-16,株式会社至誠,,株式会社,東京都,品川区,東五反田５丁目２２－３７オフィスサークルＮ五反田１１０２,,13,109,1410022,,,,,,,2025-06-16,1,,,,,シセイ,0
33,1010703007760,新規,0,2025-06-16,2025-06-16,合同会社インヴェルノ,,合同会社,東京都,品川区,北品川１丁目１３番２号レジディア品川８０４,,13,109,1400001,,,,,,,2025-06-16,1,,,,,インヴェルノ,0
40,1011001169979,新規,0,2025-06-16,2025-06-16,株式会社Ｂｏｔａｎｉｃａｌｉｓｍ,,株式会社,東京都,渋谷区,渋谷２丁目１９－１５宮益坂ビルディング６０９,,13,113,1500002,,,,,,,2025-06-16,1,,,,,ボタニカリズム,0
41,1011101112087,新規,0,2025-06-16,2025-06-16,株式会社ドンピシャマーケティング,,株式会社,東京都,新宿区,西新宿３丁目３番１３号西新宿水間ビル２Ｆ,,13,104,1600023,,,,,,,2025-06-16,1,,,,,ドンピシャマーケティング,0
44,1011103016030,新規,0,2025-06-16,2025-06-16,ヘリテージマネジメント合同会社,,合同会社,東京都,新宿区,東五軒町４番８－９０９号,,13,104,1620813,,,,,,,2025-06-16,1,,,,,ヘリテージマネジメント,0
48,1011301030650,新規,0,2025-06-16,2025-06-16,株式会社アンディプランニング,,株式会社,東京都,杉並区,浜田山４丁目１４―２９,,13,115,1680065,,,,,,,2025-06-16,1,,,,,アンディプランニング,0
49,1011303005592,新規,0,2025-06-16,2025-06-16,合同会社ダーマメディカル,,合同会社,東京都,杉並区,下高井戸５丁目１９番１３号,,13,115,1680073,,,,,,,2025-06-16,1,,,,,ダーマメディカル,0
52,1011501032199,新規,0,2025-06-16,2025-06-16,株式会社Ｄｉｐｈｙｌｌｅｉａ,,株式会社,東京都,北区,西ケ原２丁目１０番７－２０１号パルハウス,,13,117,1140024,,,,,,,2025-06-16,1,,,,,ディフェリア,0
53,1011503006580,新規,0,2025-06-16,2025-06-16,合同会社ハクノカスタジオ,,合同会社,東京都,荒川区,東尾久５丁目３２番２号,,13,118,1160012,,,,,,,2025-06-16,1,,,,,ハクノカスタジオ,0
54,1011803006909,新規,0,2025-06-16,2025-06-16,合同会社ＳＡＫＡＫＩ,,合同会社,東京都,葛飾区,金町６丁目１０－１４,,13,122,1250042,,,,,,,2025-06-16,1,,,,,サカキ,0
55,1011803006917,新規,0,2025-06-16,2025-06-16,合同会社昭和社,,合同会社,東京都,葛飾区,青戸７丁目３７番５－４０１号亀有リバーサイドダイヤモンドパレス,,13,122,1250062,,,,,,,2025-06-16,1,,,,,ショウワシャ,0
56,1012301014429,新規,0,2025-06-16,2025-06-16,レディスセキュリティ株式会社,,株式会社,東京都,町田市,原町田２丁目２番１３号キョーワ町田ビル２Ｆ,,13,209,1940013,,,,,,,2025-06-16,1,,,,,レディスセキュリティ,0
57,1012803003771,新規,0,2025-06-16,2025-06-16,合同会社オーリック,,合同会社,東京都,国分寺市,西町４丁目１番地けやき台団地３３棟２０７館,,13,214,1850035,,,,,,,2025-06-16,1,,,,,オーリック,0
64,1020001163355,新規,0,2025-06-16,2025-06-16,株式会社マルキハウス,,株式会社,神奈川県,横浜市旭区,西川島町２番地９,,14,112,2410012,,,,,,,2025-06-16,1,,,,,マルキハウス,0
66,1020003028713,新規,0,2025-06-16,2025-06-16,合同会社スケダチ,,合同会社,神奈川県,川崎市川崎区,港町５番３－１２３８号,,14,131,2100807,,,,,,,2025-06-16,1,,,,,スケダチ,0
77,1030001166976,新規,0,2025-06-16,2025-06-16,晨光株式会社,,株式会社,埼玉県,さいたま市桜区,新開１丁目１番１２－１号,,11,106,3380834,,,,,,,2025-06-16,1,,,,,シンコウ,0
78,1030001167082,新規,0,2025-06-16,2025-06-16,利晶国際株式会社,,株式会社,埼玉県,蕨市,塚越７丁目１２番地１３号,,11,223,3350002,,,,,,,2025-06-16,1,,,,,リショウコクサイ,0
79,1030001167116,新規,0,2025-06-16,2025-06-16,株式会社Ｋ‐ｍｉｎｄ,,株式会社,埼玉県,熊谷市,上根１２７番地４,,11,202,3600217,,,,,,,2025-06-16,1,,,,,ケーマインド,0
80,1030001167132,新規,0,2025-06-16,2025-06-16,株式会社ＫＢＳ　ＧＲＯＵＰ,,株式会社,埼玉県,久喜市,久喜東１丁目１７番８号増田ビル第一１０２号室,,11,232,3460016,,,,,,,2025-06-16,1,,,,,ケビエスグループ,0
87,1040001139238,新規,0,2025-06-16,2025-06-16,元輝重機株式会社,,株式会社,千葉県,木更津市,井尻９７７番地１,,12,206,2920026,,,,,,,2025-06-16,1,,,,,ゲンキジュウキ,0
88,1040001139246,新規,0,2025-06-16,2025-06-16,旭和園株式会社,,株式会社,千葉県,千葉市緑区,平山町４７６－１,,12,105,2660002,,,,,,,2025-06-16,1,,,,,アサヒワエン,0
89,1040001139254,新規,0,2025-06-16,2025-06-16,藤太一株式会社,,株式会社,千葉県,木更津市,潮見５丁目３番２号,,12,206,2920834,,,,,,,2025-06-16,1,,,,,フジタイチ,0
91,1040003027762,新規,0,2025-06-16,2025-06-16,合同会社プラスワン,,合同会社,千葉県,船橋市,飯山満町３丁目１１１番地５２,,12,204,2740822,,,,,,,2025-06-16,1,,,,,プラスワン,0
92,1040003027829,新規,0,2025-06-16,2025-06-16,ＮＦＢＳ合同会社,,合同会社,千葉県,柏市,根戸４１５番地９コーポニューライズ１０１号,,12,217,2770831,,,,,,,2025-06-16,1,,,,,エヌエフビーエス,0
95,1050001056795,新規,0,2025-06-16,2025-06-16,株式会社ワークフロント,,株式会社,茨城県,坂東市,大口２８４４番地１１７号,,08,228,3060615,,,,,,,2025-06-16,1,,,,,ワークフロント,0
133,1120001276865,新規,0,2025-06-16,2025-06-16,株式会社オカチュウ,,株式会社,大阪府,大阪市中央区,釣鐘町２丁目１番４号ビルハイタウン１０３,,27,128,5400035,,,,,,,2025-06-16,1,,,,,オカチュウ,0
135,1120003029734,新規,0,2025-06-16,2025-06-16,合同会社ＳＨＩＲＯＩＫＯＢＡＴＯ,,合同会社,大阪府,大阪市西成区,鶴見橋１丁目１６番３６号,,27,122,5570031,,,,,,,2025-06-16,1,,,,,シロイコバト,0
144,1120901051062,新規,0,2025-06-16,2025-06-16,株式会社Ｔｒｉａｎｇｌｅ,,株式会社,大阪府,豊中市,緑丘２丁目７－１８,,27,203,5600002,,,,,,,2025-06-16,1,,,,,トライアングル,0
145,1130001079912,新規,0,2025-06-16,2025-06-16,銘祥達株式会社,,株式会社,京都府,京都市下京区,本柳水町７７７番地大橋マンション４０１室,,26,106,6008462,,,,,,,2025-06-16,1,,,,,メイショウタツ,0
151,1140001138931,新規,0,2025-06-16,2025-06-16,株式会社三原建装,,株式会社,兵庫県,西宮市,花園町３番２５号,,28,204,6638187,,,,,,,2025-06-16,1,,,,,ミハラケンソウ,0
163,1180001167290,新規,0,2025-06-16,2025-06-16,株式会社オフィス柏木,,株式会社,愛知県,名古屋市東区,橦木町１丁目２１番地（バンベール橦木町１３０２号）,,23,102,4610014,,,,,,,2025-06-16,1,,,,,オフィスカシワギ,0
164,1180001167324,新規,0,2025-06-16,2025-06-16,株式会社サングルズ,,株式会社,愛知県,名古屋市西区,栄生２丁目１１－１５,,23,104,4510052,,,,,,,2025-06-16,1,,,,,サングルズ,0
165,1180003028631,新規,0,2025-06-16,2025-06-16,Ｔ＆ＭＩＮＥＲＡ合同会社,,合同会社,愛知県,名古屋市守山区,下志段味５丁目１００３番地,,23,113,4630003,,,,,,,2025-06-16,1,,,,,ティアンドミネラ,0
170,1180303006618,新規,0,2025-06-16,2025-06-16,合同会社アソビビ,,合同会社,愛知県,高浜市,小池町４丁目９番地１０,,23,227,4441303,,,,,,,2025-06-16,1,,,,,アソビビ,0
172,1190001032304,新規,0,2025-06-16,2025-06-16,レノハウス株式会社,,株式会社,三重県,四日市市,白須賀１丁目９番１－１号,,24,202,5100018,,,,,,,2025-06-16,1,,,,,レノハウス,0
173,1190001032312,新規,0,2025-06-16,2025-06-16,株式会社佳々,,株式会社,三重県,津市,榊原町１５０８０番地,,24,201,5141251,,,,,,,2025-06-16,1,,,,,カカ,0
185,1230003002449,新規,0,2025-06-16,2025-06-16,合同会社ＪＡＡ,,合同会社,富山県,射水市,堀岡古明神３３番地７,,16,211,9330224,,,,,,,2025-06-16,1,,,,,ジェイエーエー,0
192,1240001065075,新規,0,2025-06-16,2025-06-16,シンセイコーポレーション株式会社,,株式会社,広島県,東広島市,西条町寺家４２４７番地２,,34,212,7390041,,,,,,,2025-06-16,1,,,,,シンセイコーポレーション,0
194,1250001021192,新規,0,2025-06-16,2025-06-16,株式会社下松,,株式会社,山口県,下松市,桜町１丁目９番６号,,35,207,7440019,,,,,,,2025-06-16,1,,,,,クダマツ,0
196,1260001040258,新規,0,2025-06-16,2025-06-16,エヌエスホールディングス株式会社,,株式会社,岡山県,岡山市北区,大供１丁目６－１－５０２,,33,101,7000913,,,,,,,2025-06-16,1,,,,,エヌエスホールディングス,0
197,1260001040274,新規,0,2025-06-16,2025-06-16,株式会社新栄電工,,株式会社,岡山県,倉敷市,茶屋町早沖３９２番地１３,,33,202,7101102,,,,,,,2025-06-16,1,,,,,シンエイデンコウ,0
198,1260003005218,新規,0,2025-06-16,2025-06-16,合同会社Ｂｅｎｊａｍｉｎ,,合同会社,岡山県,岡山市北区,中仙道２丁目１６－１８エクセレントヴィラ２０５,,33,101,7000964,,,,,,,2025-06-16,1,,,,,ベンジャミン,0
201,1290001110388,新規,0,2025-06-16,2025-06-16,ディーアールエフ株式会社,,株式会社,福岡県,福岡市博多区,博多駅前１丁目２３番１号ＰａｒｋＦｒｏｎｔ博多駅前１丁目５Ｆ－Ｂ,,40,132,8120011,,,,,,,2025-06-16,1,,,,,ディーアールエフ,0
202,1290001110396,新規,0,2025-06-16,2025-06-16,株式会社光樹,,株式会社,福岡県,福岡市西区,姪の浜３丁目１１－２９ベルコーポ姪の浜１０１号室,,40,135,8190002,,,,,,,2025-06-16,1,,,,,ミツキ,0
203,1300001014224,新規,0,2025-06-16,2025-06-16,株式会社Ｐｌｕｓ．Ｃ,,株式会社,佐賀県,鳥栖市,曽根埼町１６６８－１３,,41,203,8410000,,,,,,,2025-06-16,1,,,,,プラスシー,0
212,1360001035347,新規,0,2025-06-16,2025-06-16,Ｎｏｍａｄ　Ｃｏｌｉｖｉｎｇ　Ｊａｐａｎ株式会社,,株式会社,沖縄県,沖縄市,中央１丁目７番８号,,47,211,9040004,,,,,,,2025-06-16,1,,,,,ノマドコリビングジャパン,0
213,1360001035355,新規,0,2025-06-16,2025-06-16,株式会社牛志フーズ,,株式会社,沖縄県,うるま市,喜仲３丁目１５－１７,,47,213,9042236,,,,,,,2025-06-16,1,,,,,ウシマルフーズ,0
214,1360001035363,新規,0,2025-06-16,2025-06-16,農業生産法人株式会社与那覇農園,,株式会社,沖縄県,石垣市,字新川１６９５番地７５,,47,207,9070024,,,,,,,2025-06-16,1,,,,,ノウギョウセイサンホウジンヨナハノウエン,0
220,1380001035378,新規,0,2025-06-16,2025-06-16,株式会社エンリンク,,株式会社,福島県,福島市,大森字経塚６番地の４７,,07,201,9601101,,,,,,,2025-06-16,1,,,,,エンリンク,0
227,1430001094666,新規,0,2025-06-16,2025-06-16,株式会社ＮＬＩＮＥ,,株式会社,北海道,札幌市東区,東苗穂十条３丁目１０番１８号,,01,103,0070810,,,,,,,2025-06-16,1,,,,,エヌライン,0
250,2010001255796,新規,0,2025-06-16,2025-06-16,株式会社山進,,株式会社,東京都,中央区,豊海町３番１３号１Ｆ,,13,102,1040055,,,,,,,2025-06-16,1,,,,,ヤマシン,0
251,2010001255821,新規,0,2025-06-16,2025-06-16,株式会社創域プランニング,,株式会社,東京都,中央区,佃２丁目２番７号リバーシティ２１・６０２号室,,13,102,1040051,,,,,,,2025-06-16,1,,,,,ソウイキプランニング,0
252,2010001256002,新規,0,2025-06-16,2025-06-16,ＳｔａｃｋＡｄａｐｔ　Ｊａｐａｎ株式会社,,株式会社,東京都,中央区,日本橋３丁目９番１号日本橋三丁目スクエア１１階,,13,102,1030027,,,,,,,2025-06-16,1,,,,,スタックアダプトジャパン,0
253,2010001256010,新規,0,2025-06-16,2025-06-16,Ｃｙｂｅｒｂｏｔ　Ｊａｐａｎ株式会社,,株式会社,東京都,千代田区,平河町１丁目３－１４ＫＯＫＡビル６Ｆ,,13,101,1020093,,,,,,,2025-06-16,1,,,,,サイバーボットジャパン,0
254,2010001256019,新規,0,2025-06-16,2025-06-16,トキワファクタリングサービス株式会社,,株式会社,東京都,千代田区,紀尾井町３－８第２紀尾井町ビル９０３,,13,101,1020094,,,,,,,2025-06-16,1,,,,,トキワファクタリングサービス,0
265,2010401190965,新規,0,2025-06-16,2025-06-16,Ｃａｂｏｃｉａ株式会社,,株式会社,東京都,港区,芝浦１丁目９－７,,13,103,1050023,,,,,,,2025-06-16,1,,,,,カボシア,0
269,2010603011630,新規,0,2025-06-16,2025-06-16,ＮＥＷＭＯ合同会社,,合同会社,東京都,江東区,大島８丁目１９番１６号ＴＯＫＹＯβ大島４２０１,,13,108,1360072,,,,,,,2025-06-16,1,,,,,ニューモ,0
270,2010701047849,新規,0,2025-06-16,2025-06-16,Ｆｏｒｔｙ‐Ｎｉｎｅｒｓ株式会社,,株式会社,東京都,品川区,上大崎１丁目１－１７－５０１,,13,109,1410021,,,,,,,2025-06-16,1,,,,,フォーティーナイナーズ,0
271,2010701047873,新規,0,2025-06-16,2025-06-16,栄雲株式会社,,株式会社,東京都,品川区,西五反田２丁目２５番１号,,13,109,1410031,,,,,,,2025-06-16,1,,,,,エイウン,0
275,2010801036272,新規,0,2025-06-16,2025-06-16,株式会社Ｙｏｎａｇｉ,,株式会社,東京都,大田区,大森中２丁目１５－５－２０４号室,,13,111,1430014,,,,,,,2025-06-16,1,,,,,ヨナギ,0
277,2010901057565,新規,0,2025-06-16,2025-06-16,株式会社いーの,,株式会社,東京都,世田谷区,玉川２丁目１５番６号,,13,112,1580094,,,,,,,2025-06-16,1,,,,,イーノ,0
278,2010901057573,新規,0,2025-06-16,2025-06-16,株式会社ＢＵＣＫ,,株式会社,東京都,世田谷区,上用賀２丁目５番２－５１２号,,13,112,1580098,,,,,,,2025-06-16,1,,,,,バック,0
279,2010903010010,新規,0,2025-06-16,2025-06-16,合同会社ＢＩＬＤ　ＵＰ,,合同会社,東京都,世田谷区,東玉川１丁目２４番２号,,13,112,1580084,,,,,,,2025-06-16,1,,,,,ビルドアップ,0
285,2011003021658,新規,0,2025-06-16,2025-06-16,合同会社和弓,,合同会社,東京都,目黒区,目黒本町６丁目１５－２,,13,110,1520002,,,,,,,2025-06-16,1,,,,,ワキュウ,0
286,2011003021815,新規,0,2025-06-16,2025-06-16,合同会社ＢｉｊｏｕＦｉ,,合同会社,東京都,渋谷区,神南１丁目１２番１４号渋谷宮田ビル８Ｆ,,13,113,1500041,,,,,,,2025-06-16,1,,,,,ビジュウフィ,0
288,2011101112061,新規,0,2025-06-16,2025-06-16,ＣＯＳＭＥＬ株式会社,,株式会社,東京都,新宿区,新宿１丁目３４番１３－１００２号,,13,104,1600022,,,,,,,2025-06-16,1,,,,,コスメル,0
289,2011101112094,新規,0,2025-06-16,2025-06-16,株式会社トラスト,,株式会社,東京都,新宿区,新宿２丁目１２番地１３・２階,,13,104,1600022,,,,,,,2025-06-16,1,,,,,トラスト,0
291,2011303005600,新規,0,2025-06-16,2025-06-16,合同会社光,,合同会社,東京都,杉並区,本天沼３丁目３２－２,,13,115,1670031,,,,,,,2025-06-16,1,,,,,ヒカリ,0
296,2012301014428,新規,0,2025-06-16,2025-06-16,株式会社カズ工業,,株式会社,東京都,町田市,三輪緑山１丁目３２番地１２,,13,209,1950055,,,,,,,2025-06-16,1,,,,,カズコウギョウ,0
298,2012403007189,新規,0,2025-06-16,2025-06-16,Ｌｕｍｉｎａ合同会社,,合同会社,東京都,調布市,入間町２丁目２７番地３,,13,208,1820004,,,,,,,2025-06-16,1,,,,,ルミナ,0
300,2012803003770,新規,0,2025-06-16,2025-06-16,ネスト合同会社,,合同会社,東京都,昭島市,大神町２丁目８番１６号,,13,207,1960013,,,,,,,2025-06-16,1,,,,,ネスト,0
301,2013101009725,新規,0,2025-06-16,2025-06-16,株式会社ＥＣＣ　ＳＹＳＴＥＭ,,株式会社,東京都,青梅市,河辺町５丁目２９番地の１６,,13,205,1980036,,,,,,,2025-06-16,1,,,,,イーシーシーシステム,0
302,2013103001457,新規,0,2025-06-16,2025-06-16,合同会社Ｂｉｒｍａｎ,,合同会社,東京都,福生市,大字福生６９３－１エアーシリウス１０３,,13,218,1970011,,,,,,,2025-06-16,1,,,,,バーマン,0
306,2020001163362,新規,0,2025-06-16,2025-06-16,株式会社ＡＣＴ３,,株式会社,神奈川県,横浜市西区,浅間町１丁目４番３号ウィザードビル４０２,,14,103,2200072,,,,,,,2025-06-16,1,,,,,アクトスリー,0
307,2020001163395,新規,0,2025-06-16,2025-06-16,株式会社Ｄｏ　Ｄｏｌｌａｒ,,株式会社,神奈川県,横浜市中区,本牧原１９番１－５１６号,,14,104,2310821,,,,,,,2025-06-16,1,,,,,ドゥダラー,0
311,2021001085539,新規,0,2025-06-16,2025-06-16,カーベイ株式会社,,株式会社,神奈川県,厚木市,旭町１丁目２１番地１２号三紫ビル３Ａ,,14,212,2430014,,,,,,,2025-06-16,1,,,,,カーベイ,0
312,2021001085547,新規,0,2025-06-16,2025-06-16,ＤＬ‐ＮＥＸＴ株式会社,,株式会社,神奈川県,相模原市中央区,東淵野辺４丁目２－４－３０２,,14,152,2520203,,,,,,,2025-06-16,1,,,,,ディーエルネクスト,0
313,2021003016137,新規,0,2025-06-16,2025-06-16,ＧＬＯＢＡＬ　ＧＡＴＥ合同会社,,合同会社,神奈川県,横須賀市,安浦町１丁目８番地,,14,201,2380012,,,,,,,2025-06-16,1,,,,,,0
314,2021003016153,新規,0,2025-06-16,2025-06-16,ＱＵＩＩＴＯ合同会社,,合同会社,神奈川県,逗子市,新宿３丁目１２番１号,,14,208,2490007,,,,,,,2025-06-16,1,,,,,キイト,0
319,2030001167107,新規,0,2025-06-16,2025-06-16,株式会社東京会計コンサルティング,,株式会社,埼玉県,川越市,砂新田６丁目２番地５,,11,201,3501137,,,,,,,2025-06-16,1,,,,,トウキョウカイケイコンサルティング,0
320,2030001167115,新規,0,2025-06-16,2025-06-16,株式会社ＹＵＳＨＩＮホールディングス,,株式会社,埼玉県,久喜市,菖蒲町台９５７番地,,11,232,3460103,,,,,,,2025-06-16,1,,,,,ユーシンホールディングス,0
321,2030001167123,新規,0,2025-06-16,2025-06-16,株式会社Ｂｌｕｅ,,株式会社,埼玉県,さいたま市西区,大字土屋５９４番地３,,11,101,3310062,,,,,,,2025-06-16,1,,,,,ブルー,0
324,2030003027003,新規,0,2025-06-16,2025-06-16,ＮＯＶＥＬ　ＴＲＡＤＩＮＧ合同会社,,合同会社,埼玉県,春日部市,米島７４６番地６,,11,214,3440115,,,,,,,2025-06-16,1,,,,,ノベルトレーディング,0
329,2040001139237,新規,0,2025-06-16,2025-06-16,株式会社ＮＥＸＴＳＴＡＧＥ,,株式会社,千葉県,袖ケ浦市,蔵波台４丁目１２番地５,,12,229,2990245,,,,,,,2025-06-16,1,,,,,ネクストステージ,0
330,2040001139245,新規,0,2025-06-16,2025-06-16,株式会社モノノフ,,株式会社,千葉県,柏市,若柴２２７番地６柏の葉キャンパス１４７街区Ｆ－３１７号,,12,217,2770871,,,,,,,2025-06-16,1,,,,,モノノフ,0
331,2040001139253,新規,0,2025-06-16,2025-06-16,株式会社ＴＡＫＡ,,株式会社,千葉県,八千代市,萱田町９９１番地,,12,221,2760044,,,,,,,2025-06-16,1,,,,,タカ,0
333,2040003027828,新規,0,2025-06-16,2025-06-16,合同会社Ａ．ＢＲＡＮＣＨ,,合同会社,千葉県,千葉市若葉区,貝塚２丁目１３番７号,,12,104,2640020,,,,,,,2025-06-16,1,,,,,エーブランチ,0
334,2050001056803,新規,0,2025-06-16,2025-06-16,株式会社スタート,,株式会社,茨城県,筑西市,岡芹１７００番地,,08,227,3080051,,,,,,,2025-06-16,1,,,,,スタート,0
338,2050003009346,新規,0,2025-06-16,2025-06-16,合同会社ＡＳＮ,,合同会社,茨城県,水戸市,堀町９０５番地の２グランデ堀２０２号,,08,201,3100903,,,,,,,2025-06-16,1,,,,,エーエスエヌ,0
344,2080103003353,新規,0,2025-06-16,2025-06-16,合同会社Ｄａｄｄａ,,合同会社,静岡県,駿東郡長泉町,中土狩６３７番地の６,,22,342,4110942,,,,,,,2025-06-16,1,,,,,ダッダ,0
347,2090001019327,新規,0,2025-06-16,2025-06-16,ホームサービスグループ株式会社,,株式会社,山梨県,南都留郡鳴沢村,１０４４３番地７０２,,19,429,4010320,,,,,,,2025-06-16,1,,,,,ホームサービスグループ,0
353,2110005017241,新規,0,2025-06-16,2025-06-16,一般社団法人ザフール,,その他の設立登記法人,新潟県,新潟市東区,寺山３丁目５番８号,,15,102,9500892,,,,,,,2025-06-16,1,,,,,ザフール,0
364,2120001276823,新規,0,2025-06-16,2025-06-16,Ａｕｒｉｏｎｅ株式会社,,株式会社,大阪府,大阪市北区,梅田１丁目１番３号大阪駅前第３ビル２９階１－１－１号室,,27,127,5300001,,,,,,,2025-06-16,1,,,,,オーリオン,0
365,2120001276872,新規,0,2025-06-16,2025-06-16,Ｓ＆Ｅホールディングス株式会社,,株式会社,大阪府,大阪市中央区,南船場２丁目１２番１０号,,27,128,5420081,,,,,,,2025-06-16,1,,,,,エスアンドイーホールディングス,0
366,2120001276880,新規,0,2025-06-16,2025-06-16,株式会社Ｙｏｕ’ｓ,,株式会社,大阪府,大阪市北区,豊崎３丁目１４番６号Ｍ－ｓｔｙｌｅ３０１,,27,127,5310072,,,,,,,2025-06-16,1,,,,,ユーズ,0
368,2120003029741,新規,0,2025-06-16,2025-06-16,かけるラボ合同会社,,合同会社,大阪府,大阪市都島区,中野町５丁目１４番３－１１１２号,,27,102,5340027,,,,,,,2025-06-16,1,,,,,カケルラボ,0
369,2120003029758,新規,0,2025-06-16,2025-06-16,合同会社ａｎｄ　ｇｒａｎ,,合同会社,大阪府,大阪市北区,梅田１丁目２番２号大阪駅前第２ビル１２－１２,,27,127,5300001,,,,,,,2025-06-16,1,,,,,アンドグラン,0
381,2122001039292,新規,0,2025-06-16,2025-06-16,株式会社川日物流,,株式会社,大阪府,東大阪市,菱江１丁目１７－３４,,27,227,5780984,,,,,,,2025-06-16,1,,,,,カワニチブツリュウ,0
396,2140003022199,新規,0,2025-06-16,2025-06-16,翔菜ワークス合同会社,,合同会社,兵庫県,尼崎市,長洲西通１丁目１番９号,,28,202,6600807,,,,,,,2025-06-16,1,,,,,ショウナワークス,0
397,2140003022208,新規,0,2025-06-16,2025-06-16,合同会社メターリア,,合同会社,兵庫県,神戸市中央区,下山手通６丁目１番４号,,28,110,6500011,,,,,,,2025-06-16,1,,,,,メターリア,0
399,2160001026828,新規,0,2025-06-16,2025-06-16,株式会社Ｇｅｎｄａｒｍｅ,,株式会社,滋賀県,大津市,南郷２丁目２１番２４号,,25,201,5200865,,,,,,,2025-06-16,1,,,,,ジャンダルム,0
408,2180001167216,新規,0,2025-06-16,2025-06-16,株式会社ＨＹ,,株式会社,愛知県,一宮市,あずら１丁目１番３３号,,23,203,4910835,,,,,,,2025-06-16,1,,,,,エイチワイ,0
409,2180001167281,新規,0,2025-06-16,2025-06-16,英家商事株式会社,,株式会社,愛知県,名古屋市中区,丸の内２丁目１５番１６号,,23,106,4600002,,,,,,,2025-06-16,1,,,,,エイケショウジ,0
412,2180003028597,新規,0,2025-06-16,2025-06-16,合同会社Ａｒｃｈｔｙｐｅｓ,,合同会社,愛知県,小牧市,大字久保一色３２６０番地１２,,23,219,4850003,,,,,,,2025-06-16,1,,,,,アーキタイプス,0
417,2190001032311,新規,0,2025-06-16,2025-06-16,株式会社Ｒｅ,,株式会社,三重県,松阪市,石津町２０９番地１８,,24,204,5150006,,,,,,,2025-06-16,1,,,,,アールイー,0
420,2200001043901,新規,0,2025-06-16,2025-06-16,ＴＢＮ貿易株式会社,,株式会社,岐阜県,羽島郡笠松町,円城寺６７１番地,,21,303,5016035,,,,,,,2025-06-16,1,,,,,ティービーエヌボウエキ,0
435,2290001110305,新規,0,2025-06-16,2025-06-16,株式会社ＩＣＤ,,株式会社,福岡県,福岡市中央区,清川２丁目１８番１０－６０６号オープンレジデンシア渡辺通南,,40,133,8100005,,,,,,,2025-06-16,1,,,,,アイシーディー,0
436,2290001110395,新規,0,2025-06-16,2025-06-16,Ｋｅｌｉｎｇｔｏｎ　Ｅｎｇｉｎｅｅｒｉｎｇ　Ｊａｐａｎ株式会社,,株式会社,福岡県,福岡市博多区,博多駅前２丁目１７番１号博多プレステージ本館１階,,40,132,8120011,,,,,,,2025-06-16,1,,,,,ケリングトンエンジニアリングジャパン,0
437,2290001110404,新規,0,2025-06-16,2025-06-16,株式会社デュオ企画,,株式会社,福岡県,福岡市早良区,南庄１丁目９番２１－５０２号,,40,137,8140031,,,,,,,2025-06-16,1,,,,,デュオキカク,0
438,2290001110420,新規,0,2025-06-16,2025-06-16,みらいアセット株式会社,,株式会社,福岡県,福岡市中央区,笹丘３丁目２０番８ロイヤルヒルズ笹丘５０４号,,40,133,8100034,,,,,,,2025-06-16,1,,,,,ミライアセット,0
440,2290003016987,新規,0,2025-06-16,2025-06-16,クリア＆カラー合同会社,,合同会社,福岡県,宗像市,野坂２６５５番地１,,40,220,8113423,,,,,,,2025-06-16,1,,,,,クリアアンドカラー,0
441,2290003016995,新規,0,2025-06-16,2025-06-16,合同会社日高川町江川バッテリープレイス,,合同会社,福岡県,福岡市南区,大楠１丁目４番２２号,,40,134,8150082,,,,,,,2025-06-16,1,,,,,ヒダカガワチョウエカワバッテリープレイス,0
448,2330003011059,新規,0,2025-06-16,2025-06-16,Ｌｉｎｏ　ｂｅ　ｆｕｌｌ合同会社,,合同会社,熊本県,宇城市,不知火町長崎１３２番地５,,43,213,8690562,,,,,,,2025-06-16,1,,,,,リノビーフル,0
456,2360001035338,新規,0,2025-06-16,2025-06-16,株式会社カフーブリッジ,,株式会社,沖縄県,中頭郡読谷村,字古堅６６番地３,,47,324,9040314,,,,,,,2025-06-16,1,,,,,カフーブリッジ,0
460,2370001052712,新規,0,2025-06-16,2025-06-16,株式会社蔵藍,,株式会社,宮城県,仙台市青葉区,一番町２丁目６―１７内ケ崎ビル５階,,04,101,9800811,,,,,,,2025-06-16,1,,,,,クラン,0
472,2430001094673,新規,0,2025-06-16,2025-06-16,株式会社ホクトプラス,,株式会社,北海道,札幌市北区,北十八条西６丁目３番３－３０３号,,01,102,0010018,,,,,,,2025-06-16,1,,,,,ホクトプラス,0
477,2480001012861,新規,0,2025-06-16,2025-06-16,株式会社Ｔｈｅ　Ｍｅｒｒｙ　Ｃｏｍｐａｎｙ,,株式会社,徳島県,鳴門市,大津町大幸字若宮ノ本２０番地２,,36,202,7720044,,,,,,,2025-06-16,1,,,,,ザメリーカンパニー,0
484,2700150131043,新規,0,2025-06-16,2025-06-16,ＤｏｎｇＧｕａｎＳｈｉＸｉｎＬｅＹｕａｎＷａｎｇＬｕｏＫｅＪｉＹｏｕＸｉａｎＧｏｎｇＳｉ,,外国会社等,,,,,,,,Ｈｕｍｅｎｚｈｅｎ　Ｃｈｅｎｃｕｎｄｏｎｇｑｕ　ｅｒｘｉａｎｇ９ｈａｏ２０１ｆａｎｇ　Ｄｏｎｇｇｕａｎｓｈｉ　Ｇｕａｎｇｄｏｎｇｓｈｅｎｇ，Ｃｈｉｎａ,,,,,,2025-06-16,1,,,,,ドングゥアンシシンレユェンワンロウカギユウゲンコウシ,0
489,3010001255944,新規,0,2025-06-16,2025-06-16,トリリオン株式会社,,株式会社,東京都,千代田区,神田和泉町１番地６－１６ヤマトビル４０５,,13,101,1010024,,,,,,,2025-06-16,1,,,,,トリリオン,0
490,3010001255985,新規,0,2025-06-16,2025-06-16,株式会社Ｇａｓｔｒｏ　Ｓｔｕｄｉｏ,,株式会社,東京都,中央区,銀座８丁目５番１８号Ｂ２,,13,102,1040061,,,,,,,2025-06-16,1,,,,,ガストロスタジオ,0
493,3010003047638,新規,0,2025-06-16,2025-06-16,合同会社ＳＴＡＹ６　Ｄｕｅｘ,,合同会社,東京都,中央区,京橋２丁目１２番６号ＡＯＪ税理士法人内,,13,102,1040031,,,,,,,2025-06-16,1,,,,,ステイシックスドュー,0
494,3010005040194,新規,0,2025-06-16,2025-06-16,ＮＡＭＢＡ１一般社団法人,,その他の設立登記法人,東京都,千代田区,霞が関３丁目２番５号,,13,101,1000013,,,,,,,2025-06-16,1,,,,,ナンバワン,0
507,3010703007767,新規,0,2025-06-16,2025-06-16,ＭＹ　ＬＡＮＤＬＡＷ合同会社,,合同会社,東京都,品川区,豊町１丁目７番５－９０３号,,13,109,1420042,,,,,,,2025-06-16,1,,,,,マイランドロー,0
511,3010801036271,新規,0,2025-06-16,2025-06-16,株式会社Ｄｉａｍｏｎｄ　Ｎｉｎｅ,,株式会社,東京都,大田区,北糀谷１丁目１２－９－８０１,,13,111,1440032,,,,,,,2025-06-16,1,,,,,ダイヤモンドナイン,0
513,3010901057564,新規,0,2025-06-16,2025-06-16,ＨａｖｅｎＪａｐａｎ株式会社,,株式会社,東京都,世田谷区,上馬５丁目９番１５号,,13,112,1540011,,,,,,,2025-06-16,1,,,,,ハヴェヌジャパン,0
520,3011001170274,新規,0,2025-06-16,2025-06-16,株式会社りばん,,株式会社,東京都,渋谷区,道玄坂１丁目１０番８号渋谷道玄坂東急ビル２Ｆ－Ｃ,,13,113,1500043,,,,,,,2025-06-16,1,,,,,リバン,0
521,3011001170489,新規,0,2025-06-16,2025-06-16,株式会社ＮＥＯＤＹ,,株式会社,東京都,渋谷区,西原３丁目４９番１９号パークフロント大山２０１,,13,113,1510066,,,,,,,2025-06-16,1,,,,,ネオディ,0
522,3011001170497,新規,0,2025-06-16,2025-06-16,株式会社Ｓｔｒａｔｅｇｉｃ　Ｋ,,株式会社,東京都,渋谷区,円山町５番３号ＭＩＥＵＸ渋谷ビル８階,,13,113,1500044,,,,,,,2025-06-16,1,,,,,ストラテジックケイ,0
523,3011001170522,新規,0,2025-06-16,2025-06-16,Ｊｉｎｏｍｉ株式会社,,株式会社,東京都,渋谷区,道玄坂１丁目１０番８号渋谷道玄坂東急ビル２Ｆ－Ｃ,,13,113,1500043,,,,,,,2025-06-16,1,,,,,ジノミ,0
524,3011001170605,新規,0,2025-06-16,2025-06-16,株式会社Ａｍｏｎ　Ｔｅｃｈｎｏｌｏｇｉｅｓ,,株式会社,東京都,渋谷区,道玄坂１丁目１０番８号渋谷道玄坂東急ビル２Ｆ－Ｃ,,13,113,1500043,,,,,,,2025-06-16,1,,,,,アモンテクノロジーズ,0
525,3011001170621,新規,0,2025-06-16,2025-06-16,株式会社ハトロクス,,株式会社,東京都,渋谷区,神南１丁目１１番地４ＦＰＧリンクス５階,,13,113,1500041,,,,,,,2025-06-16,1,,,,,ハトロクス,0
526,3011003021723,新規,0,2025-06-16,2025-06-16,三明治商行ジャパン合同会社,,合同会社,東京都,目黒区,中町１丁目２３番４号,,13,110,1530065,,,,,,,2025-06-16,1,,,,,サンメイジショウコウジャパン,0
528,3011101111938,新規,0,2025-06-16,2025-06-16,株式会社Ｐｅｄａｌｔｉｃ,,株式会社,東京都,新宿区,高田馬場４丁目４番２３号ＳＨＯ－ＥＳＴＡＴＥ．ＢＬＤ４０３,,13,104,1690075,,,,,,,2025-06-16,1,,,,,ペダルティック,0
529,3011101112093,新規,0,2025-06-16,2025-06-16,株式会社ガジュマル,,株式会社,東京都,新宿区,百人町１丁目２３番１１号土田ビル別館１０２号室,,13,104,1690073,,,,,,,2025-06-16,1,,,,,ガジュマル,0
537,3011501032189,新規,0,2025-06-16,2025-06-16,協成安達株式会社,,株式会社,東京都,北区,王子３丁目２２番２３号協成ビル３Ｆ,,13,117,1140002,,,,,,,2025-06-16,1,,,,,キョウセイアンダツ,0
538,3011503006579,新規,0,2025-06-16,2025-06-16,合同会社Ａ．,,合同会社,東京都,荒川区,町屋４丁目１３番８号アビルハイツ３０３,,13,118,1160001,,,,,,,2025-06-16,1,,,,,エードット,0
544,3012801024025,新規,0,2025-06-16,2025-06-16,株式会社シネナ,,株式会社,東京都,昭島市,上川原町１丁目１０番１２号２０２号室,,13,207,1960011,,,,,,,2025-06-16,1,,,,,シネナ,0
545,3013103001456,新規,0,2025-06-16,2025-06-16,合同会社コネクト,,合同会社,東京都,羽村市,栄町２丁目７－５８,,13,227,2050002,,,,,,,2025-06-16,1,,,,,,0
550,3020001163378,新規,0,2025-06-16,2025-06-16,ミズノ横浜株式会社,,株式会社,神奈川県,横浜市中区,太田町５丁目６９番地ＳＳＫＮＯＴ１００２号室,,14,104,2310011,,,,,,,2025-06-16,1,,,,,ミズノヨコハマ,0
560,3020003028736,新規,0,2025-06-16,2025-06-16,合同会社グラフ,,合同会社,神奈川県,川崎市中原区,今井南町２１番３０号ＡＬＩＣＩＡ１Ｆ,,14,133,2110064,,,,,,,2025-06-16,1,,,,,グラフ,0
564,3021003016160,新規,0,2025-06-16,2025-06-16,ＥＤＧＥ　ＡＵＴＯ合同会社,,合同会社,神奈川県,愛甲郡愛川町,中津２２８７番地の１－２０３号室,,14,401,2430303,,,,,,,2025-06-16,1,,,,,エッジオート,0
567,3030001167097,新規,0,2025-06-16,2025-06-16,株式会社ＵＫ　ＪＡＰＡＮ,,株式会社,埼玉県,春日部市,金崎５１１番地３,,11,214,3440117,,,,,,,2025-06-16,1,,,,,ユウケイジャパン,0
568,3030001167139,新規,0,2025-06-16,2025-06-16,ＳｏｃｉａｌＳＮＳ株式会社,,株式会社,埼玉県,朝霞市,本町２丁目１９－１７パティオス２０１,,11,227,3510011,,,,,,,2025-06-16,1,,,,,ソーシャルエスエヌエス,0
569,3030001167147,新規,0,2025-06-16,2025-06-16,株式会社企業ゴルフコンサルティングファーム,,株式会社,埼玉県,所沢市,北野南１丁目１４番地の７,,11,208,3591156,,,,,,,2025-06-16,1,,,,,キギョウゴルフコンサルティングファーム,0
574,3040001139203,新規,0,2025-06-16,2025-06-16,ＤＹＮＡＭＩＣ　ＦＲＩＥＮＤＳ株式会社,,株式会社,千葉県,市川市,新田３丁目１１番３０号ロボタウン市川,,12,203,2720035,,,,,,,2025-06-16,1,,,,,ダイナミックフレンズ,0
577,3040003027843,新規,0,2025-06-16,2025-06-16,極み宣伝合同会社,,合同会社,千葉県,船橋市,旭町５丁目７番５号,,12,204,2730041,,,,,,,2025-06-16,1,,,,,キワミセンデン,0
580,3050001056819,新規,0,2025-06-16,2025-06-16,株式会社フジエンタープライズ,,株式会社,茨城県,小美玉市,羽鳥２７３８番地４２８,,08,236,3190123,,,,,,,2025-06-16,1,,,,,フジエンタープライズ,0
584,3050003009345,新規,0,2025-06-16,2025-06-16,アールプラスワン合同会社,,合同会社,茨城県,つくば市,みどりの１丁目５１－１２,,08,220,3050881,,,,,,,2025-06-16,1,,,,,アールプラスワン,0
592,3080003003477,新規,0,2025-06-16,2025-06-16,合同会社エスワイエヌ,,合同会社,静岡県,静岡市葵区,両替町２丁目７番地の４Ｉｒｉｓ両替町第３ビル,,22,101,4200032,,,,,,,2025-06-16,1,,,,,エスワイエヌ,0
601,3100003008234,新規,0,2025-06-16,2025-06-16,サクシーズ合同会社,,合同会社,長野県,長野市,新諏訪１丁目６番４０号,,20,201,3800873,,,,,,,2025-06-16,1,,,,,サクシーズ,0
616,3120001276731,新規,0,2025-06-16,2025-06-16,株式会社ＪＮＥＸＴ,,株式会社,大阪府,大阪市阿倍野区,天王寺町北１丁目２－５ハラタテコーポ天北４０１号,,27,119,5450001,,,,,,,2025-06-16,1,,,,,ジェーネクスト,0
617,3120001276789,新規,0,2025-06-16,2025-06-16,株式会社Ｒｅｖｉｖｅ,,株式会社,大阪府,大阪市大正区,平尾２丁目１０番１号,,27,108,5510012,,,,,,,2025-06-16,1,,,,,リバイブ,0
618,3120001276863,新規,0,2025-06-16,2025-06-16,株式会社Ｆｏｏｄｓ‐Ｆｉｒｓｔ,,株式会社,大阪府,大阪市天王寺区,上本町６丁目６番２－１０２号,,27,109,5430001,,,,,,,2025-06-16,1,,,,,フーズファースト,0
622,3120005024987,新規,0,2025-06-16,2025-06-16,一般社団法人日本ビジネス文化教育協会,,その他の設立登記法人,大阪府,大阪市中央区,南船場４丁目１１番２８号,,27,128,5420081,,,,,,,2025-06-16,1,,,,,ニホンビジネスブンカキョウイクキョウカイ,0
630,3130001079935,新規,0,2025-06-16,2025-06-16,株式会社こま意匠,,株式会社,京都府,京都市右京区,嵯峨大覚寺門前堂ノ前町２３番地４,,26,108,6168413,,,,,,,2025-06-16,1,,,,,コマイショウ,0
631,3140001138665,新規,0,2025-06-16,2025-06-16,株式会社タカマツ,,株式会社,兵庫県,姫路市,北平野南の町４番４１号,,28,201,6700887,,,,,,,2025-06-16,1,,,,,タカマツ,0
632,3140001138938,新規,0,2025-06-16,2025-06-16,株式会社ユーケンホールディングス,,株式会社,兵庫県,神戸市長田区,大谷町２丁目１０番６号,,28,106,6530838,,,,,,,2025-06-16,1,,,,,ユーケンホールディングス,0
636,3140003022198,新規,0,2025-06-16,2025-06-16,ズムん家合同会社,,合同会社,兵庫県,川西市,花屋敷１丁目７番１７,,28,217,6660035,,,,,,,2025-06-16,1,,,,,ズムンチ,0
637,3140003022207,新規,0,2025-06-16,2025-06-16,たかはし福祉サービス合同会社,,合同会社,兵庫県,神戸市東灘区,向洋町中１丁目４番地１２４号棟７０１号室,,28,101,6580032,,,,,,,2025-06-16,1,,,,,タカハシフクシサービス,0
654,3180001167280,新規,0,2025-06-16,2025-06-16,株式会社Ｌａｎｇｌｅｙ,,株式会社,愛知県,名古屋市中区,栄４丁目２０番１０号,,23,106,4600008,,,,,,,2025-06-16,1,,,,,ラングレー,0
655,3180001167322,新規,0,2025-06-16,2025-06-16,株式会社逸品堂,,株式会社,愛知県,愛西市,須依町大正７番地２３,,23,232,4960902,,,,,,,2025-06-16,1,,,,,イッピンドウ,0
659,3180303006616,新規,0,2025-06-16,2025-06-16,ラピペイント合同会社,,合同会社,愛知県,豊田市,京町１丁目１０４番地３エクセルハイムＡ－２０１号,,23,211,4710063,,,,,,,2025-06-16,1,,,,,ラピペイント,0
666,3220001026738,新規,0,2025-06-16,2025-06-16,株式会社ミライ,,株式会社,石川県,小松市,あけぼの町１２７番地１,,17,203,9230035,,,,,,,2025-06-16,1,,,,,ミライ,0
684,3290001110394,新規,0,2025-06-16,2025-06-16,株式会社ＭＡＲＩＣＨＩ,,株式会社,福岡県,福岡市中央区,高砂２丁目４番１２－１０３号,,40,133,8100011,,,,,,,2025-06-16,1,,,,,マリーチ,0
685,3290001110403,新規,0,2025-06-16,2025-06-16,クリーチャー株式会社,,株式会社,福岡県,筑紫野市,紫２丁目２番２号ＯＳＫビル３Ｆ,,40,217,8180061,,,,,,,2025-06-16,1,,,,,クリーチャー,0
687,3290801031625,新規,0,2025-06-16,2025-06-16,株式会社マドナビ工房,,株式会社,福岡県,北九州市小倉北区,浅野３丁目８番１号６Ｆ,,40,106,8020001,,,,,,,2025-06-16,1,,,,,マドナビコウボウ,0
688,3300003002299,新規,0,2025-06-16,2025-06-16,合同会社ムサシ,,合同会社,佐賀県,鹿島市,大字常広２２１１番地１,,41,207,8491301,,,,,,,2025-06-16,1,,,,,ムサシ,0
699,3360001035361,新規,0,2025-06-16,2025-06-16,カタバル産業株式会社,,株式会社,沖縄県,国頭郡宜野座村,字松田２８６４番地の２,,47,313,9041301,,,,,,,2025-06-16,1,,,,,カタバルサンギョウ,0
701,3360003015007,新規,0,2025-06-16,2025-06-16,Ｔａｒｋ合同会社,,合同会社,沖縄県,中頭郡中城村,字南上原３６１－３,,47,328,9012424,,,,,,,2025-06-16,1,,,,,タルク,0
704,3380001035392,新規,0,2025-06-16,2025-06-16,株式会社二新,,株式会社,福島県,郡山市,大槻町字町裏１１番１,,07,203,9630201,,,,,,,2025-06-16,1,,,,,ニシン,0
707,3390001018017,新規,0,2025-06-16,2025-06-16,株式会社ガムシャラ,,株式会社,山形県,長井市,歌丸７０,,06,209,9930034,,,,,,,2025-06-16,1,,,,,,0
717,3430001094664,新規,0,2025-06-16,2025-06-16,株式会社ソロモン,,株式会社,北海道,札幌市中央区,伏見２丁目４番８－２０１号,,01,101,0640942,,,,,,,2025-06-16,1,,,,,ソロモン,0
721,3430003017706,新規,0,2025-06-16,2025-06-16,合同会社Ｉｔ’ｓ　ｕｐ　ｔｏ　ｙｏｕ,,合同会社,北海道,札幌市北区,東茨戸三条１丁目２１番４号,,01,102,0028044,,,,,,,2025-06-16,1,,,,,イッツアップトゥーユー,0
726,3700150131042,新規,0,2025-06-16,2025-06-16,Ｚｈｕ　ｈａｉ　ｈｏｎｇ　ｙｉｎ　ｋｅ　ｊｉ　ｙｏｕ　ｘｉａｎ　ｇｏｎｇ　ｓｉ,,外国会社等,,,,,,,,Ｚｈｕ　Ｈａｉ　Ｓｈｉ　Ｘｉａｎｇ　Ｚｈｏｕ　Ｑｕ　Ｎａｎ　Ｐｉｎｇ　Ｋｅ　Ｊｉ　Ｇｏｎｇ　Ｙｅ　Ｙｕａｎ　Ｐｉｎｇ　Ｂｅｉ　Ｅｒ　Ｌｕ　８　Ｈａｏ　Ｅｒ　Ｑｉ　Ｃｈａｎｇ　Ｆａｎｇ　Ｙｉ　Ｌｏｕ　９　Ｈａｏ，Ｃｈｉｎａ,,,,,,2025-06-16,1,,,,,ズハイホンインカギユウゲンコウシ,0
732,4010001255927,新規,0,2025-06-16,2025-06-16,株式会社ＡＣ‐６,,株式会社,東京都,千代田区,麹町３丁目５番地２,,13,101,1020083,,,,,,,2025-06-16,1,,,,,エーシーシックスス,0
733,4010001255968,新規,0,2025-06-16,2025-06-16,Ｍ＆Ｐインベストメント・コンプライアンス株式会社,,株式会社,東京都,千代田区,有楽町１丁目７番１号有楽町電気ビルヂング北館９階,,13,101,1000006,,,,,,,2025-06-16,1,,,,,エムアンドピーインベストメントコンプライアンス,0
734,4010001256000,新規,0,2025-06-16,2025-06-16,株式会社Ｔ＆Ｉ,,株式会社,東京都,中央区,晴海５丁目４番２－３０１号,,13,102,1040053,,,,,,,2025-06-16,1,,,,,ティーアンドアイ,0
752,4010603011629,新規,0,2025-06-16,2025-06-16,三立国際合同会社,,合同会社,東京都,墨田区,業平２丁目１２－３プティアムススカイツリー前３０３室,,13,107,1300002,,,,,,,2025-06-16,1,,,,,サンリツコクサイ,0
755,4010803005447,新規,0,2025-06-16,2025-06-16,合同会社Ｒ,,合同会社,東京都,大田区,東矢口１丁目１１番１９－２０７号,,13,111,1460094,,,,,,,2025-06-16,1,,,,,アール,0
760,4010905004784,新規,0,2025-06-16,2025-06-16,一般社団法人結ｔｏｋｙｏ,,その他の設立登記法人,東京都,世田谷区,上用賀５丁目１０番１６号コート上用賀３０２,,13,112,1580098,,,,,,,2025-06-16,1,,,,,ユイトウキョウ,0
768,4011001169811,新規,0,2025-06-16,2025-06-16,株式会社ＥＶＥＲＹＷＨＥＲＥ　ＡＲＴＳ,,株式会社,東京都,渋谷区,円山町５番３号ＭＩＥＵＸ渋谷ビル８階,,13,113,1500044,,,,,,,2025-06-16,1,,,,,エブリィウェアアーツ,0
769,4011001170216,新規,0,2025-06-16,2025-06-16,株式会社翠界,,株式会社,東京都,渋谷区,神宮前２丁目２８番４号岡部コーポ４０１,,13,113,1500001,,,,,,,2025-06-16,1,,,,,スイカイ,0
774,4011101112035,新規,0,2025-06-16,2025-06-16,株式会社ＦＲＡＧＭＥＮＴ,,株式会社,東京都,新宿区,南元町７番地３号,,13,104,1600012,,,,,,,2025-06-16,1,,,,,フラグメント,0
776,4011201026432,新規,0,2025-06-16,2025-06-16,株式会社テリノ,,株式会社,東京都,中野区,大和町４丁目３９番３号,,13,114,1650034,,,,,,,2025-06-16,1,,,,,テリノ,0
777,4011301030648,新規,0,2025-06-16,2025-06-16,株式会社ＳＳＳ,,株式会社,東京都,杉並区,荻窪５丁目３０番１２号グローリア荻窪７１３,,13,115,1670051,,,,,,,2025-06-16,1,,,,,スリーエス,0
780,4011501032205,新規,0,2025-06-16,2025-06-16,株式会社ＳＡＮＡＤＡ　ＷＯＲＫＳ,,株式会社,東京都,北区,田端４丁目１番４号矢野ビル１０２,,13,117,1140014,,,,,,,2025-06-16,1,,,,,サナダワークス,0
782,4011503006578,新規,0,2025-06-16,2025-06-16,精粋智能科技合同会社,,合同会社,東京都,北区,浮間１丁目７－２３兆豊浮間ビル５０２号室,,13,117,1150051,,,,,,,2025-06-16,1,,,,,セイイキチノウカギ,0
788,4011701028440,新規,0,2025-06-16,2025-06-16,株式会社グッドウィングス,,株式会社,東京都,江戸川区,西葛西７丁目２１番地８―５０３号,,13,123,1340088,,,,,,,2025-06-16,1,,,,,グッドウィングス,0
790,4011803006914,新規,0,2025-06-16,2025-06-16,合同会社ＳＭＧ,,合同会社,東京都,葛飾区,新小岩１丁目２０番４－２０６号レクノスＩ,00139571,13,122,1240024,,,,,,,2025-06-16,1,,,,,エスエムジー,0
796,4012803003769,新規,0,2025-06-16,2025-06-16,合同会社勝又左官,,合同会社,東京都,東大和市,向原２丁目２番地の２,,13,220,2070013,,,,,,,2025-06-16,1,,,,,カツマタサカン,0
807,4021001085545,新規,0,2025-06-16,2025-06-16,株式会社小林電設,,株式会社,神奈川県,愛甲郡愛川町,中津３５７１番地１２,,14,401,2430303,,,,,,,2025-06-16,1,,,,,コバヤシデンセツ,0
811,4030001167121,新規,0,2025-06-16,2025-06-16,Ｋ‐Ｎｉｇｈｔｓ株式会社,,株式会社,埼玉県,さいたま市中央区,大戸５丁目１番１９－５０５号,,11,105,3380012,,,,,,,2025-06-16,1,,,,,ケーナイツ,0
812,4030001167138,新規,0,2025-06-16,2025-06-16,株式会社想,,株式会社,埼玉県,飯能市,大字矢颪９０番地２,,11,209,3570042,,,,,,,2025-06-16,1,,,,,ソウ,0
819,4040001139210,新規,0,2025-06-16,2025-06-16,株式会社石渡商事,,株式会社,千葉県,八街市,八街い２３３番地２０２,,12,230,2891143,,,,,,,2025-06-16,1,,,,,イシワタショウジ,0
820,4040001139243,新規,0,2025-06-16,2025-06-16,株式会社雄愛Ｒｅ,,株式会社,千葉県,千葉市花見川区,千種町２２５番地４ＴルームＢ棟２０３号,,12,102,2620012,,,,,,,2025-06-16,1,,,,,ユウアイアールイー,0
821,4040001139251,新規,0,2025-06-16,2025-06-16,ＡＨＦ　ＪＡＰＡＮ株式会社,,株式会社,千葉県,千葉市若葉区,加曽利町１７３０番地１６,,12,104,2640017,,,,,,,2025-06-16,1,,,,,エーエイチエフジャパン,0
823,4040003027818,新規,0,2025-06-16,2025-06-16,合同会社サーキュリンク,,合同会社,千葉県,松戸市,岩瀬３８番地の２,,12,207,2710076,,,,,,,2025-06-16,1,,,,,サーキュリンク,0
836,4050003009352,新規,0,2025-06-16,2025-06-16,合同会社かみすスポーツマネジメント,,合同会社,茨城県,神栖市,若松中央４丁目７２中央荘１２号室,,08,232,3140256,,,,,,,2025-06-16,1,,,,,カミススポーツマネジメント,0
837,4060001038303,新規,0,2025-06-16,2025-06-16,株式会社ハーモニーワークス,,株式会社,栃木県,栃木市,城内町２丁目３３－４４－１,,09,203,3280033,,,,,,,2025-06-16,1,,,,,ハーモニーワークス,0
863,4120001276879,新規,0,2025-06-16,2025-06-16,株式会社ＳＡＭＵＲＡＩ,,株式会社,大阪府,大阪市北区,中津１丁目２－２１,,27,127,5310071,,,,,,,2025-06-16,1,,,,,サムライ,0
866,4120003029764,新規,0,2025-06-16,2025-06-16,福真合同会社,,合同会社,大阪府,大阪市福島区,野田６丁目４番７号,,27,103,5530005,,,,,,,2025-06-16,1,,,,,フクシン,0
878,4120905006745,新規,0,2025-06-16,2025-06-16,一般社団法人大阪大学循環器内科同窓会,,その他の設立登記法人,大阪府,吹田市,山田丘２番２号,,27,205,5650871,,,,,,,2025-06-16,1,,,,,オオサカダイガクジュンカンキナイカドウソウカイ,0
881,4122003003229,新規,0,2025-06-16,2025-06-16,合同会社りる,,合同会社,大阪府,大東市,北条１丁目１０番２３号,,27,218,5740011,,,,,,,2025-06-16,1,,,,,リル,0
882,4130001079926,新規,0,2025-06-16,2025-06-16,エスエス資産管理株式会社,,株式会社,京都府,久世郡久御山町,市田和気２５番地,,26,322,6130022,,,,,,,2025-06-16,1,,,,,エスエスシサンカンリ,0
886,4140001138929,新規,0,2025-06-16,2025-06-16,ＳＹＳ株式会社,,株式会社,兵庫県,神戸市中央区,中山手通３丁目４－１３興誠ビル３０１,,28,110,6500004,,,,,,,2025-06-16,1,,,,,エスワイエス,0
898,4180001167305,新規,0,2025-06-16,2025-06-16,ＬＮＣ株式会社,,株式会社,愛知県,一宮市,森本２丁目９番１９号フローリッシュ１０１号,,23,203,4910831,,,,,,,2025-06-16,1,,,,,エルエヌシー,0
916,4260003005215,新規,0,2025-06-16,2025-06-16,合同会社構想デザイン,,合同会社,岡山県,岡山市北区,中山下１丁目１１番地１５号新田第１ビル４０２,,33,101,7000821,,,,,,,2025-06-16,1,,,,,コウソウデザイン,0
923,4290001110410,新規,0,2025-06-16,2025-06-16,株式会社福岡ワークス,,株式会社,福岡県,糸島市,志摩松隈２４８－１,,40,230,8191306,,,,,,,2025-06-16,1,,,,,フクオカワークス,0
927,4320001021166,新規,0,2025-06-16,2025-06-16,Ｒｅｉ株式会社,,株式会社,大分県,臼杵市,野津町大字落谷１４３６番地,,44,206,8750342,,,,,,,2025-06-16,1,,,,,レイ,0
932,4340001027434,新規,0,2025-06-16,2025-06-16,Ｎｅｘｔｏｒｙ株式会社,,株式会社,鹿児島県,霧島市,国分広瀬２丁目２４番１８号,,46,218,8994321,,,,,,,2025-06-16,1,,,,,ネクストリー,0
937,4360001035352,新規,0,2025-06-16,2025-06-16,春風株式会社,,株式会社,沖縄県,那覇市,首里汀良町１丁目２４番地５,,47,201,9030806,,,,,,,2025-06-16,1,,,,,ハルカゼ,0
939,4360003015014,新規,0,2025-06-16,2025-06-16,Ｍａｅｚｕｋａ合同会社,,合同会社,沖縄県,沖縄市,字登川２５７０番地３Ｓ＆ＲＨＯＵＳＥ,,47,211,9042142,,,,,,,2025-06-16,1,,,,,マエヅカ,0
944,4370001052719,新規,0,2025-06-16,2025-06-16,株式会社シードエンジン,,株式会社,宮城県,仙台市泉区,南光台南３丁目２５番２３号,,04,105,9818002,,,,,,,2025-06-16,1,,,,,シードエンジン,0
959,4430001094671,新規,0,2025-06-16,2025-06-16,スライムワークデザイン株式会社,,株式会社,北海道,札幌市中央区,南五条西１５丁目２－３－５０３,,01,101,0640805,,,,,,,2025-06-16,1,,,,,スライムワークデザイン,0
970,4700150131041,新規,0,2025-06-16,2025-06-16,ｌｉｎｇｈｕｉｘｉｎ　ｄｉａｎｚｉ（ｓｈｅｎｚｈｅｎ）ｙｏｕｘｉａｎｇｏｎｇｓｉ,,外国会社等,,,,,,,,ｘｉｎａｎｊｉｅｄａｏ　ｘｉｎｇｄｏｎｇｓｈｅｑｕ　７１ｑｕ　ｚｈｉｘｉａｎｇｄａｓｈａｇｏｎｇｙｅｑｕ　６２１　ｂａｏａｎｑｕ　ｓｈｅｎｚｈｅｎ，Ｃｈｉｎａ,,,,,,2025-06-16,1,,,,,リンホゥイシンデンシシンセンユウゲンコウシ,0
978,5010001255983,新規,0,2025-06-16,2025-06-16,ＤｏｕＤｏｕＢｅａｒ株式会社,,株式会社,東京都,中央区,日本橋浜町３丁目２３－８浜町パークハイツ２０１,,13,102,1030007,,,,,,,2025-06-16,1,,,,,ドウドウベア,0
979,5010001256024,新規,0,2025-06-16,2025-06-16,フードテクノロジー株式会社,,株式会社,東京都,中央区,銀座８丁目４番３号銀座山田ビル,,13,102,1040061,,,,,,,2025-06-16,1,,,,,フードテクノロジー,0
1001,5010701047846,新規,0,2025-06-16,2025-06-16,株式会社あやは,,株式会社,東京都,品川区,大崎２丁目９番１－５１２号,,13,109,1410032,,,,,,,2025-06-16,1,,,,,アヤハ,0
1006,5010901057562,新規,0,2025-06-16,2025-06-16,株式会社ウェルベース,,株式会社,東京都,世田谷区,太子堂４丁目１８番１５号マガザン三軒茶屋２－３Ｆ－３,,13,112,1540004,,,,,,,2025-06-16,1,,,,,ウェルベース,0
1011,5011001169983,新規,0,2025-06-16,2025-06-16,株式会社ゆめ,,株式会社,東京都,渋谷区,渋谷３丁目１番９号ＹＡＺＡＷＡビル３階,,13,113,1500002,,,,,,,2025-06-16,1,,,,,ユメ,0
1013,5011003021721,新規,0,2025-06-16,2025-06-16,Ｆａｃｉｌｉｔｅ合同会社,,合同会社,東京都,目黒区,緑が丘２丁目３－１５－１０１,,13,110,1520034,,,,,,,2025-06-16,1,,,,,ファシリテ,0
1019,5011101112083,新規,0,2025-06-16,2025-06-16,筑日グループ株式会社,,株式会社,東京都,新宿区,百人町１丁目１８番８号,,13,104,1690073,,,,,,,2025-06-16,1,,,,,チクヒグループ,0
1020,5011101112109,新規,0,2025-06-16,2025-06-16,株式会社Ｒｅｓｔａｒｔ,,株式会社,東京都,新宿区,四谷３丁目１３番２４号Ｕｓｑｕａｒｅ四谷三丁目４階,,13,104,1600004,,,,,,,2025-06-16,1,,,,,リスタート,0
1023,5011301030647,新規,0,2025-06-16,2025-06-16,株式会社オフサケア,,株式会社,東京都,杉並区,荻窪５丁目２６番９号シェモア荻窪参番館Ｂ１Ｆ,,13,115,1670051,,,,,,,2025-06-16,1,,,,,オフサケア,0
1027,5011801046317,新規,0,2025-06-16,2025-06-16,レフリア株式会社,,株式会社,東京都,足立区,竹の塚３丁目２０番９号２Ｆ,,13,121,1210813,,,,,,,2025-06-16,1,,,,,レフリア,0
1040,5013101009730,新規,0,2025-06-16,2025-06-16,株式会社ｇｌｕｃｋ,,株式会社,東京都,西多摩郡瑞穂町,大字箱根ケ崎１９６３番地１,,13,303,1901221,,,,,,,2025-06-16,1,,,,,グルック,0
1049,5020001163376,新規,0,2025-06-16,2025-06-16,株式会社ＹＴ　Ｂｕｉｌｄ,,株式会社,神奈川県,横浜市鶴見区,豊岡町１１番２６号,,14,101,2300062,,,,,,,2025-06-16,1,,,,,ワイティービルド,0
1050,5020001163384,新規,0,2025-06-16,2025-06-16,株式会社Ａｔｅｒｒａｃｅ,,株式会社,神奈川県,横浜市金沢区,六浦東１丁目３４番２－Ｂ２１４号,,14,108,2360037,,,,,,,2025-06-16,1,,,,,アテラス,0
1051,5020001163418,新規,0,2025-06-16,2025-06-16,株式会社Ｍｉｎｔｉｅｒ,,株式会社,神奈川県,横浜市中区,新山下２丁目１１番１７－１０２,,14,104,2310801,,,,,,,2025-06-16,1,,,,,ミンティア,0
1053,5020003028651,新規,0,2025-06-16,2025-06-16,合同会社Ｈｉｂｉ　ａｎｄ,,合同会社,神奈川県,横浜市中区,元町１丁目３１番地ラ・スピーガ元町地下１階００２号,,14,104,2310861,,,,,,,2025-06-16,1,,,,,ヒビアンド,0
1054,5020003028701,新規,0,2025-06-16,2025-06-16,合同会社中村屋,,合同会社,神奈川県,川崎市高津区,諏訪２丁目３―２４ブルージュ諏訪２０２,,14,134,2130004,,,,,,,2025-06-16,1,,,,,ナカムラヤ,0
1058,5030001167120,新規,0,2025-06-16,2025-06-16,株式会社マルサンサポート,,株式会社,埼玉県,越谷市,花田３丁目７番地１,,11,222,3430015,,,,,,,2025-06-16,1,,,,,マルサンサポート,0
1059,5030001167137,新規,0,2025-06-16,2025-06-16,株式会社桃松,,株式会社,埼玉県,草加市,瀬崎５丁目４６番２４号グリーンパーク瀬崎町１０５,,11,221,3400022,,,,,,,2025-06-16,1,,,,,トウショウ,0
1062,5040003027783,新規,0,2025-06-16,2025-06-16,合同会社ＲＹＭ,,合同会社,千葉県,柏市,柏９４１－２５,,12,217,2770005,,,,,,,2025-06-16,1,,,,,レイム,0
1063,5040003027817,新規,0,2025-06-16,2025-06-16,合同会社ウィング,,合同会社,千葉県,八千代市,八千代台東６丁目６番４号ライフプラザ八千代台Ｃ－１０１号,,12,221,2760032,,,,,,,2025-06-16,1,,,,,ウィング,0
1070,5050003009351,新規,0,2025-06-16,2025-06-16,双創合同会社,,合同会社,茨城県,笠間市,飯田１９９６番地５,,08,216,3091605,,,,,,,2025-06-16,1,,,,,ソウソウ,0
1073,5060001038302,新規,0,2025-06-16,2025-06-16,株式会社Ｃｒｏｓｓ　Ｏｖｅｒ,,株式会社,栃木県,足利市,五十部町１０９５番地５,,09,202,3260843,,,,,,,2025-06-16,1,,,,,クロスオーバー,0
1085,5120001276746,新規,0,2025-06-16,2025-06-16,八喜株式会社,,株式会社,大阪府,大阪市住之江区,粉浜３丁目１５番２３号,,27,125,5590001,,,,,,,2025-06-16,1,,,,,ハツキ,0
1092,5120003029755,新規,0,2025-06-16,2025-06-16,合同会社ホライズン総合研究所,,合同会社,大阪府,大阪市北区,梅田１丁目１２番１２号,,27,127,5300001,,,,,,,2025-06-16,1,,,,,ホライズンソウゴウケンキュウショ,0
1097,5120101071898,新規,0,2025-06-16,2025-06-16,京雲テックグループ株式会社,,株式会社,大阪府,堺市北区,南花田町４１７番３－２２０号,,27,146,5918011,,,,,,,2025-06-16,1,,,,,ケイウンテックグループ,0
1103,5140001138944,新規,0,2025-06-16,2025-06-16,株式会社ｃｉｍｅ,,株式会社,兵庫県,姫路市,網干区新在家５０１番地,,28,201,6711234,,,,,,,2025-06-16,1,,,,,シーム,0
1107,5180001167320,新規,0,2025-06-16,2025-06-16,ＥＡＴＯＬＯＧＹ株式会社,,株式会社,愛知県,名古屋市中区,丸の内２丁目１５番１２号－２ザ・テラス丸の内７０３号,,23,106,4600002,,,,,,,2025-06-16,1,,,,,イートロジー,0
1114,5180003028628,新規,0,2025-06-16,2025-06-16,合同会社函館,,合同会社,愛知県,知多郡南知多町,大字内海字一色７０メイツ内海東浜９０３,,23,445,4703321,,,,,,,2025-06-16,1,,,,,ハコダテ,0
1135,5240003007253,新規,0,2025-06-16,2025-06-16,２ｃｈｉｉｋｉ合同会社,,合同会社,広島県,広島市安佐南区,長束６丁目４番１８号,,34,105,7310135,,,,,,,2025-06-16,1,,,,,ニチイキ,0
1136,5250001021197,新規,0,2025-06-16,2025-06-16,株式会社Ｍｉｎｅ,,株式会社,山口県,美祢市,大嶺町東分２８３３番地,,35,213,7592212,,,,,,,2025-06-16,1,,,,,マイン,0
1143,5290001110392,新規,0,2025-06-16,2025-06-16,株式会社Ｔｗｉｎｓ,,株式会社,福岡県,糟屋郡宇美町,大字井野２１８番地１,,40,341,8112104,,,,,,,2025-06-16,1,,,,,ツインズ,0
1144,5290003016984,新規,0,2025-06-16,2025-06-16,ＴＫ合同会社,,合同会社,福岡県,久留米市,中央町１０番地３６,,40,203,8300023,,,,,,,2025-06-16,1,,,,,ティーケー,0
1146,5300001014220,新規,0,2025-06-16,2025-06-16,株式会社中野スタジオ,,株式会社,佐賀県,伊万里市,伊万里町甲１１９番地４,,41,205,8480047,,,,,,,2025-06-16,1,,,,,ナカノスタジオ,0
1151,5330003011056,新規,0,2025-06-16,2025-06-16,合同会社Ｓ＆Ｍ総合企業,,合同会社,熊本県,熊本市南区,内田町６３９番地,,43,104,8614127,,,,,,,2025-06-16,1,,,,,エスアンドエムソウゴウキギョウ,0
1153,5340001027409,新規,0,2025-06-16,2025-06-16,株式会社Ｈｉｍｉｎ　ｌｊｏｓ,,株式会社,鹿児島県,鹿児島市,武２丁目１７番１１号,,46,201,8900045,,,,,,,2025-06-16,1,,,,,ヒミンリョース,0
1161,5360001035343,新規,0,2025-06-16,2025-06-16,株式会社陽だまり,,株式会社,沖縄県,名護市,字仲尾次１１９番地,,47,209,9051144,,,,,,,2025-06-16,1,,,,,ヒダマリ,0
1162,5360001035351,新規,0,2025-06-16,2025-06-16,株式会社ＮＡ’ｏ,,株式会社,沖縄県,宮古島市,平良字西里４５６番地,,47,214,9060012,,,,,,,2025-06-16,1,,,,,エヌエーオー,0
1163,5360003015021,新規,0,2025-06-16,2025-06-16,合同会社エクレシア,,合同会社,沖縄県,宜野湾市,大山３丁目４番３３－４０５号,,47,205,9012223,,,,,,,2025-06-16,1,,,,,エクレシア,0
1167,5380001035390,新規,0,2025-06-16,2025-06-16,株式会社カクタ漁業,,株式会社,福島県,いわき市,平沼ノ内字諏訪原一丁目２０番地の５,,07,204,9700222,,,,,,,2025-06-16,1,,,,,カクタギョギョウ,0
1173,5420001019182,新規,0,2025-06-16,2025-06-16,株式会社オールｏｎｅ,,株式会社,青森県,青森市,佃１丁目１５番８号,,02,201,0300962,,,,,,,2025-06-16,1,,,,,オールワン,0
1174,5420003003127,新規,0,2025-06-16,2025-06-16,合同会社ＤＥＥＮ　Ｇｒｏｕｐ,,合同会社,青森県,八戸市,桜ケ丘１丁目１番３号,,02,203,0310834,,,,,,,2025-06-16,1,,,,,カブシキガイシャディーングループ,0
1177,5430001094670,新規,0,2025-06-16,2025-06-16,Ｉ＆Ｐ株式会社,,株式会社,北海道,札幌市厚別区,上野幌二条６丁目１０番６号,,01,108,0040032,,,,,,,2025-06-16,1,,,,,アイアンドピー,0
1183,5470001020763,新規,0,2025-06-16,2025-06-16,万和株式会社,,株式会社,香川県,仲多度郡多度津町,本通３丁目６番６２号,,37,404,7640014,,,,,,,2025-06-16,1,,,,,バンナ,0
1193,5700150131040,新規,0,2025-06-16,2025-06-16,ＴＷＹ　Ｉｎｖｅｓｔｍｅｎｔ　Ｃｏ．，ＬＴＤ,,外国会社等,,,,,,,,１７Ｆ．，Ｎｏ．１５９，Ｓｅｃ．１．Ｋｅｅｌｕｎｇ　Ｒｄ．，Ｘｉｎｙｉ　Ｄｉｓｔ，Ｔａｉｐｅｉ，Ｔａｉｗａｎ,,,,,,2025-06-16,1,,,,,ユヨウトウシテイーダブリユーワイインベストメントカンパニーリミテツド,0
1201,6010001255941,新規,0,2025-06-16,2025-06-16,モーブ株式会社,,株式会社,東京都,中央区,晴海３丁目１３番１号ＤｅｕｘＴｏｕｒｓＥａｓｔＴｏｗｅｒ４７１７号室,,13,102,1040053,,,,,,,2025-06-16,1,,,,,モーブ,0
1203,6010003047692,新規,0,2025-06-16,2025-06-16,合同会社くにぎわ,,合同会社,東京都,千代田区,丸の内１丁目４番１号東京共同会計事務所内,,13,101,1000005,,,,,,,2025-06-16,1,,,,,クニギワ,0
1205,6010005040191,新規,0,2025-06-16,2025-06-16,ナインスター一般社団法人,,その他の設立登記法人,東京都,中央区,京橋２丁目１２番６号ＡＯＪ税理士法人内,,13,102,1040031,,,,,,,2025-06-16,1,,,,,ナインスター,0
1220,6010701047878,新規,0,2025-06-16,2025-06-16,ＮＥＥＤｅｓｉｇｎＭａｒｋｅｔ株式会社,,株式会社,東京都,品川区,西五反田８丁目１番１３号ＧＢＳ－Ｃ－１２号,,13,109,1410031,,,,,,,2025-06-16,1,,,,,ニーデザインマーケット,0
1225,6010801036260,新規,0,2025-06-16,2025-06-16,株式会社ＫＯＭＡＫＩ　Ｈｏｌｄｉｎｇｓ,,株式会社,東京都,大田区,大森西５丁目３番１０号,,13,111,1430015,,,,,,,2025-06-16,1,,,,,コマキホールディングス,0
1238,6011001169982,新規,0,2025-06-16,2025-06-16,株式会社ＧＲ,,株式会社,東京都,目黒区,下目黒１丁目１番１４号コノトラビル７Ｆ,,13,110,1530064,,,,,,,2025-06-16,1,,,,,ジーアール,0
1239,6011001170305,新規,0,2025-06-16,2025-06-16,簡氏資本株式会社,,株式会社,東京都,渋谷区,恵比寿西２丁目８番４号ＥＸ恵比寿西ビル５階,,13,113,1500021,,,,,,,2025-06-16,1,,,,,カンシシホン,0
1240,6011001170494,新規,0,2025-06-16,2025-06-16,多摩川機構エンジニアリング株式会社,,株式会社,東京都,目黒区,下目黒１丁目１番１４号コノトラビル７Ｆ,,13,110,1530064,,,,,,,2025-06-16,1,,,,,タマガワキコウエンジニアリング,0
1242,6011003021737,新規,0,2025-06-16,2025-06-16,あかし合同会社,,合同会社,東京都,目黒区,柿の木坂１丁目２７－１８,,13,110,1520022,,,,,,,2025-06-16,1,,,,,アカシ,0
1245,6011101111919,新規,0,2025-06-16,2025-06-16,株式会社Ｇｅｘｉｓ,,株式会社,東京都,新宿区,西新宿３丁目３番１３号西新宿水間ビル６階,,13,104,1600023,,,,,,,2025-06-16,1,,,,,ジェクシス,0
1251,6011603004736,新規,0,2025-06-16,2025-06-16,合同会社ＫＳＪホールディングス,,合同会社,東京都,練馬区,光が丘３丁目８番２－１２０４号,,13,120,1790072,,,,,,,2025-06-16,1,,,,,ケイエスジェーホールディングス,0
1253,6012401043232,新規,0,2025-06-16,2025-06-16,株式会社ＡＴＲ,,株式会社,東京都,稲城市,矢野口３１１８番地,,13,225,2060812,,,,,,,2025-06-16,1,,,,,エーティーアール,0
1259,6020001163326,新規,0,2025-06-16,2025-06-16,株式会社ユニコーンベース,,株式会社,神奈川県,川崎市中原区,上小田中６丁目２４－１５－４０５,,14,133,2110053,,,,,,,2025-06-16,1,,,,,ユニコーンベース,0
1260,6020001163367,新規,0,2025-06-16,2025-06-16,Ｌｉｎｄｉｃａｔｏｒ株式会社,,株式会社,神奈川県,横浜市泉区,和泉中央南５丁目１９番２号１階,,14,116,2450023,,,,,,,2025-06-16,1,,,,,リンディケーター,0
1261,6020001163400,新規,0,2025-06-16,2025-06-16,株式会社Ｃｉｒｃｌｉｎｋ,,株式会社,神奈川県,横浜市港北区,下田町１丁目３番２８－２号,,14,109,2230064,,,,,,,2025-06-16,1,,,,,サークリンク,0
1262,6020001163409,新規,0,2025-06-16,2025-06-16,株式会社ｈａｒｖｅｓｔ,,株式会社,神奈川県,川崎市幸区,南幸町２丁目６０番地３,,14,132,2120016,,,,,,,2025-06-16,1,,,,,ハーベスト,0
1267,6021001085519,新規,0,2025-06-16,2025-06-16,株式会社ＥＮＡＭＯＲＡＤＯ,,株式会社,神奈川県,綾瀬市,早川城山２丁目６番１１号,,14,218,2521127,,,,,,,2025-06-16,1,,,,,エナモラード,0
1275,6030001166988,新規,0,2025-06-16,2025-06-16,株式会社シエル,,株式会社,埼玉県,朝霞市,本町１丁目１２番５－４０１号,,11,227,3510011,,,,,,,2025-06-16,1,,,,,シエル,0
1276,6030001167128,新規,0,2025-06-16,2025-06-16,株式会社エアーブラスト,,株式会社,埼玉県,志木市,中宗岡３丁目３番２８号,,11,228,3530002,,,,,,,2025-06-16,1,,,,,エアーブラスト,0
1281,6040001139225,新規,0,2025-06-16,2025-06-16,株式会社アイフラット,,株式会社,千葉県,船橋市,市場４丁目３番８号トリアノンパレス１０３号,,12,204,2730001,,,,,,,2025-06-16,1,,,,,アイフラット,0
1282,6040001139308,新規,0,2025-06-16,2025-06-16,ＡｕｒｅＶｉａ株式会社,,株式会社,千葉県,流山市,おおたかの森東３丁目２２番地の１２,,12,220,2700138,,,,,,,2025-06-16,1,,,,,オーレビア,0
1285,6050001056816,新規,0,2025-06-16,2025-06-16,Ｓ．Ｎ．　ＩＮＴＥＲＮＡＴＩＯＮＡＬ株式会社,,株式会社,茨城県,坂東市,逆井４１１２番地,,08,228,3060501,,,,,,,2025-06-16,1,,,,,エスエヌインターナショナル,0
1290,6050003009359,新規,0,2025-06-16,2025-06-16,合同会社守屋ハウジング,,合同会社,茨城県,つくば市,松代４丁目５番地６ネクサス・ステージ弐番館１０１号,,08,220,3050035,,,,,,,2025-06-16,1,,,,,モリヤハウジング,0
1293,6070001043003,新規,0,2025-06-16,2025-06-16,ＡｒｏｕｎｄＥｎｔｅｒｐｒｉｓｅ株式会社,,株式会社,群馬県,高崎市,飯塚町９７－１高義ビル７０４,,10,202,3700069,,,,,,,2025-06-16,1,,,,,,0
1299,6090001019331,新規,0,2025-06-16,2025-06-16,株式会社グランデ・キャスト,,株式会社,山梨県,大月市,猿橋町猿橋６４８番地,,19,206,4090614,,,,,,,2025-06-16,1,,,,,グランデキャスト,0
1317,6120003029762,新規,0,2025-06-16,2025-06-16,燦欣東日合同会社,,合同会社,大阪府,大阪市西成区,聖天下１丁目４番２９－２０３号,,27,122,5570012,,,,,,,2025-06-16,1,,,,,サンキントウジツ,0
1325,6120101071897,新規,0,2025-06-16,2025-06-16,日本＿盈貿易株式会社,00139575,株式会社,大阪府,堺市北区,南花田町４１７番３－２２７号,,27,146,5918011,,,,,,,2025-06-16,1,,,,,ニホンシュンエイボウエキ,0
1328,6120901051058,新規,0,2025-06-16,2025-06-16,株式会社つむぐ実践デザイン,,株式会社,大阪府,吹田市,朝日町３番さんくす３番館１階１１２号,,27,205,5640027,,,,,,,2025-06-16,1,,,,,ツムグジッセンデザイン,0
1330,6120905006743,新規,0,2025-06-16,2025-06-16,シャイン協同組合,,その他の設立登記法人,大阪府,高槻市,下田部町２丁目５３番１号,,27,207,5690062,,,,,,,2025-06-16,1,,,,,シャイン,0
1335,6140001138869,新規,0,2025-06-16,2025-06-16,株式会社アンカーシックス,,株式会社,兵庫県,芦屋市,岩園町２４番２３号,,28,206,6590013,,,,,,,2025-06-16,1,,,,,アンカーシックス,0
1350,6180001167113,新規,0,2025-06-16,2025-06-16,株式会社グリーンフォレスト,,株式会社,愛知県,名古屋市中区,錦１丁目１番２号,,23,106,4600003,,,,,,,2025-06-16,1,,,,,グリーンフォレスト,0
1351,6180001167286,新規,0,2025-06-16,2025-06-16,株式会社Ｌａｒｉｍａｒ,,株式会社,愛知県,名古屋市守山区,白山２丁目４０１番地,,23,113,4630032,,,,,,,2025-06-16,1,,,,,ラリマー,0
1373,6290003016901,新規,0,2025-06-16,2025-06-16,合同会社Ｒｉｓｅ　Ｊａｐａｎ,,合同会社,福岡県,筑紫野市,美しが丘南１丁目４－８,,40,217,8180034,,,,,,,2025-06-16,1,,,,,ライズジャパン,0
1379,6340003004875,新規,0,2025-06-16,2025-06-16,合同会社八咲,,合同会社,鹿児島県,出水市,下知識町４０３番地４,,46,208,8990132,,,,,,,2025-06-16,1,,,,,ハッサク,0
1384,6360001035350,新規,0,2025-06-16,2025-06-16,株式会社ハル,,株式会社,沖縄県,那覇市,松尾２丁目１０番１号,,47,201,9000014,,,,,,,2025-06-16,1,,,,,ハル,0
1385,6360001035359,新規,0,2025-06-16,2025-06-16,株式会社リュクスメイク,,株式会社,沖縄県,那覇市,泊３丁目１５番３号サンライト泊５０５号,,47,201,9000012,,,,,,,2025-06-16,1,,,,,リュクスメイク,0
1405,6430003017769,新規,0,2025-06-16,2025-06-16,合同会社ポピーハウス,,合同会社,北海道,札幌市豊平区,平岸二条１４丁目２番１０号,,01,105,0620932,,,,,,,2025-06-16,1,,,,,ポピーハウス,0
1407,6440001009627,新規,0,2025-06-16,2025-06-16,株式会社ヌック・ベース,,株式会社,北海道,北斗市,追分２丁目１９番１４号,,01,236,0490101,,,,,,,2025-06-16,1,,,,,ヌックベース,0
1411,6470001020762,新規,0,2025-06-16,2025-06-16,株式会社キューブクライアントソリューション,,株式会社,香川県,丸亀市,飯山町東坂元４３３番地,,37,202,7620081,,,,,,,2025-06-16,1,,,,,,0
1416,6500005008800,新規,0,2025-06-16,2025-06-16,特定非営利活動法人海ｔａｓｕ,,その他の設立登記法人,愛媛県,新居浜市,垣生６丁目７番２６号愛媛県漁業協同組合垣生支所,,38,205,7920872,,,,,,,2025-06-16,1,,,,,ウミタス,0
1419,6700150130512,新規,0,2025-06-16,2025-05-16,愛知分娩監視研究会,,その他,愛知県,名古屋市中村区,道下町３丁目３５　日本赤十字社　愛知医療センター名古屋第一病院内,,23,105,4530046,,,,,,,2025-05-16,1,,,,,アイチブンベンカンシケンキユウカイ,0
1420,6700150131015,新規,0,2025-06-16,2025-06-11,ねんりんピック彩の国さいたま２０２６さいたま市実行委員会,,その他,埼玉県,さいたま市浦和区,常盤６丁目４番４号,,11,107,3300061,,,,,,,2025-06-11,1,,,,,ネンリンピツクサイノクニサイタマニセンニジユウロクサイタマシジツコウイインカイ,0
1432,7010001255882,新規,0,2025-06-16,2025-06-16,晶科儲能日本株式会社,,株式会社,東京都,中央区,八重洲２丁目一番１号ＹＡＮＭＡＲＴＯＫＹＯ１２階,,13,102,1040028,,,,,,,2025-06-16,1,,,,,ジンコチョノウニホン,0
1433,7010001255890,新規,0,2025-06-16,2025-06-16,Ｅｘｃｅｌ　Ｆｌｏｒａ　Ｊａｐａｎ株式会社,,株式会社,東京都,中央区,日本橋茅場町１丁目１３番２１号阪神ビル６階,,13,102,1030025,,,,,,,2025-06-16,1,,,,,エクセルフローラジャパン,0
1434,7010001255932,新規,0,2025-06-16,2025-06-16,Ｕ　ＰＬＵＳ株式会社,,株式会社,東京都,中央区,八丁堀１丁目３番９号坂根八重洲ビル３階,,13,102,1040032,,,,,,,2025-06-16,1,,,,,ユープラス,0
1437,7010003047527,新規,0,2025-06-16,2025-06-16,合同会社力,,合同会社,東京都,千代田区,東神田１丁目８号２－１０３号,,13,101,1010031,,,,,,,2025-06-16,1,,,,,チカラ,0
1438,7010003047592,新規,0,2025-06-16,2025-06-16,ワロスゲームス合同会社,,合同会社,東京都,千代田区,神田錦町２丁目２番地１,,13,101,1010054,,,,,,,2025-06-16,1,,,,,ワロスゲームス,0
1439,7010003047659,新規,0,2025-06-16,2025-06-16,ＡｌｖａＪａｐａｎ合同会社,,合同会社,東京都,中央区,銀座１丁目２３－４－６０６,,13,102,1040061,,,,,,,2025-06-16,1,,,,,アルバジャパン,0
1440,7010003047675,新規,0,2025-06-16,2025-06-16,ｉｎｓｐ．合同会社,,合同会社,東京都,中央区,銀座１丁目１２番４号Ｎ＆ＥＢＬＤ．６Ｆ,,13,102,1040061,,,,,,,2025-06-16,1,,,,,インスピドット,0
1452,7010401190969,新規,0,2025-06-16,2025-06-16,株式会社Ｐ‐Ｍｅｄ,,株式会社,東京都,港区,北青山１丁目３－３三橋ビル３階,,13,103,1070061,,,,,,,2025-06-16,1,,,,,ピーメド,0
1455,7010405024438,新規,0,2025-06-16,2025-06-16,一般社団法人ＪＧＴＥＡ,,その他の設立登記法人,東京都,港区,元麻布３丁目１－６,,13,103,1060046,,,,,,,2025-06-16,1,,,,,ジェイティー,0
1461,7010703007763,新規,0,2025-06-16,2025-06-16,合同会社Ｓｈｏｗ　ｏｆｆ,,合同会社,東京都,品川区,戸越５丁目１８番９号マナスルビル４０１,,13,109,1420041,,,,,,,2025-06-16,1,,,,,ショウオフ,0
1463,7010901057577,新規,0,2025-06-16,2025-06-16,株式会社ＤＲＯＸ,,株式会社,東京都,世田谷区,代沢２丁目７－５,,13,112,1550032,,,,,,,2025-06-16,1,,,,,ドロックス,0
1468,7011001170171,新規,0,2025-06-16,2025-06-16,Ｏ　Ｌａｂｏ株式会社,,株式会社,東京都,渋谷区,上原１丁目３番９号,,13,113,1510064,,,,,,,2025-06-16,1,,,,,オラボ,0
1469,7011001170205,新規,0,2025-06-16,2025-06-16,株式会社ＴＡＫＳ,,株式会社,東京都,渋谷区,渋谷１丁目８番６号ＶＯＲＴ渋谷宮益坂４階,,13,113,1500002,,,,,,,2025-06-16,1,,,,,タクス,0
1470,7011001170551,新規,0,2025-06-16,2025-06-16,株式会社ＭＩＯ　ＴＯＫＹＯ,,株式会社,東京都,渋谷区,南平台町４番８号,,13,113,1500036,,,,,,,2025-06-16,1,,,,,ミオトウキョウ,0
1472,7011003021942,新規,0,2025-06-16,2025-06-16,ＴＵＷ合同会社,,合同会社,東京都,渋谷区,道玄坂１丁目１０番８号渋谷道玄坂東急ビル２Ｆ－Ｃ,,13,113,1500043,,,,,,,2025-06-16,1,,,,,ティーユーダブリュー,0
1481,7011503006575,新規,0,2025-06-16,2025-06-16,合同会社Ｌｖ．５０,,合同会社,東京都,荒川区,東日暮里５丁目５０－５アートホテル日暮里ラングウッド３Ｆ,,13,118,1160014,,,,,,,2025-06-16,1,,,,,レベルゴジュウ,0
1483,7011803006911,新規,0,2025-06-16,2025-06-16,樹宮合同会社,,合同会社,東京都,足立区,梅田４丁目３２番１２号,,13,121,1230851,,,,,,,2025-06-16,1,,,,,キミヤ,0
1495,7020003028699,新規,0,2025-06-16,2025-06-16,コレカラ合同会社,,合同会社,神奈川県,横浜市南区,三春台７５番１２,,14,105,2320002,,,,,,,2025-06-16,1,,,,,コレカラ,0
1496,7020003028716,新規,0,2025-06-16,2025-06-16,アカテロン合同会社,,合同会社,神奈川県,川崎市高津区,末長３丁目１４番１３号ロジェル末長２０５号室,,14,134,2130013,,,,,,,2025-06-16,1,,,,,アカテロン,0
1500,7021003016165,新規,0,2025-06-16,2025-06-16,合同会社フィールド・ゲート,,合同会社,神奈川県,大和市,柳橋１丁目９番地２アドリーム大和４０５,,14,213,2420022,,,,,,,2025-06-16,1,,,,,フィールドゲート,0
1501,7030001166987,新規,0,2025-06-16,2025-06-16,株式会社Ｐｏｎｇｅｅ,,株式会社,埼玉県,所沢市,東住吉１１番１－１７０４号,,11,208,3591124,,,,,,,2025-06-16,1,,,,,ポンジェ,0
1502,7030001167119,新規,0,2025-06-16,2025-06-16,株式会社ショウブ工業一級建築士事務所,,株式会社,埼玉県,越谷市,大字船渡２０１０番地,,11,222,3430003,,,,,,,2025-06-16,1,,,,,ショウブコウギョウイッキュウケンチクシジムショ,0
1505,7030003026933,新規,0,2025-06-16,2025-06-16,合同会社サイコレ,,合同会社,埼玉県,さいたま市北区,盆栽町９１番地２,,11,102,3310805,,,,,,,2025-06-16,1,,,,,サイコレ,0
1510,7040001139216,新規,0,2025-06-16,2025-06-16,株式会社シロ,,株式会社,千葉県,松戸市,新松戸北２丁目１番地新松戸ファミールハイツ２－９０３,,12,207,2700032,,,,,,,2025-06-16,1,,,,,シロ,0
1511,7040001139240,新規,0,2025-06-16,2025-06-16,株式会社ｙａｏｎ,,株式会社,千葉県,浦安市,入船４丁目２２番４号,,12,227,2790012,,,,,,,2025-06-16,1,,,,,ヤオン,0
1512,7040001139273,新規,0,2025-06-16,2025-06-16,株式会社ＬＩＮＱ　ＣＨＩＢＡ,,株式会社,千葉県,千葉市花見川区,さつきが丘１丁目８番地１ヴェルツさつきが丘２０２号,,12,102,2620014,,,,,,,2025-06-16,1,,,,,リンクチバ,0
1513,7040001139281,新規,0,2025-06-16,2025-06-16,株式会社ｏｎｅｆｉｓｈ,,株式会社,千葉県,松戸市,岩瀬２６７番地の５,,12,207,2710076,,,,,,,2025-06-16,1,,,,,ワンフィッシュ,0
1524,7080003003481,新規,0,2025-06-16,2025-06-16,合同会社寺田＆パートナーズ,,合同会社,静岡県,静岡市駿河区,馬渕２丁目１０番２７号イルモディフィカ２０３号,,22,102,4228063,,,,,,,2025-06-16,1,,,,,テラダアンドパートナーズ,0
1526,7090001019330,新規,0,2025-06-16,2025-06-16,株式会社ＢＲＩＤＧＥ,,株式会社,山梨県,甲斐市,篠原９１５番地シュロスカナフ１０２,,19,210,4000115,,,,,,,2025-06-16,1,,,,,ブリッジ,0
1537,7120001276785,新規,0,2025-06-16,2025-06-16,Ｔｉａ株式会社,,株式会社,大阪府,大阪市天王寺区,伶人町２－３１ＳｔａｒＯｆｆｉｃｅ大阪天王寺北２０７号室,,27,109,5430061,,,,,,,2025-06-16,1,,,,,ティア,0
1538,7120001276843,新規,0,2025-06-16,2025-06-16,馬上到株式会社,,株式会社,大阪府,大阪市中央区,南久宝寺町４丁目４番７号Ｍ．ＢＡＬＡＮＣＥ．ＭＩＤＯＳＵＪＩ．ＨＯＭＭＡＣＨＩ１０階,,27,128,5410058,,,,,,,2025-06-16,1,,,,,ウマウエトウ,0
1547,7120101071896,新規,0,2025-06-16,2025-06-16,凱悦株式会社,,株式会社,大阪府,堺市北区,南花田町４１７番３－２２６号,,27,146,5918011,,,,,,,2025-06-16,1,,,,,カイエツ,0
1548,7122001039346,新規,0,2025-06-16,2025-06-16,株式会社齋藤さん,,株式会社,大阪府,東大阪市,河内町１１番１７号,,27,227,5798044,,,,,,,2025-06-16,1,,,,,サイトウサン,0
1551,7130003010555,新規,0,2025-06-16,2025-06-16,合同会社キズナ,,合同会社,京都府,京都市西京区,川島六ノ坪町９２番地３,,26,111,6158103,,,,,,,2025-06-16,1,,,,,キズナ,0
1556,7140001138942,新規,0,2025-06-16,2025-06-16,ＬＣＨ株式会社,,株式会社,兵庫県,西宮市,馬場町２番３２号シンヨコビル３階,,28,204,6620915,,,,,,,2025-06-16,1,,,,,エルシーエイチ,0
1557,7140001138950,新規,0,2025-06-16,2025-06-16,株式会社ＨＩＡ,,株式会社,兵庫県,姫路市,本町２４１番地美樹ビル１Ｆ,,28,201,6700012,,,,,,,2025-06-16,1,,,,,エイチアイエー,0
1563,7140003022194,新規,0,2025-06-16,2025-06-16,合同会社ＣＨヒーローズ,,合同会社,兵庫県,小野市,葉多町８２６－６,,28,218,6751377,,,,,,,2025-06-16,1,,,,,シーエイチヒーローズ,0
1572,7180001167327,新規,0,2025-06-16,2025-06-16,株式会社ｎｉｋｏｎｏｗａ,,株式会社,愛知県,名古屋市中区,松原３丁目７番３号フローラ松原ハウス１０１号,,23,106,4600017,,,,,,,2025-06-16,1,,,,,ニコノワ,0
1573,7180003028618,新規,0,2025-06-16,2025-06-16,合同会社ＦＡＲＤＡＮ　ＴＲＡＤＩＮＧ,,合同会社,愛知県,岩倉市,栄町１丁目７０番地中圓ビルＤ－３,,23,228,4820022,,,,,,,2025-06-16,1,,,,,ファルダントレーディング,0
1574,7180003028634,新規,0,2025-06-16,2025-06-16,Ｔｉｇｈｔ‐Ｋｎｉｔ合同会社,,合同会社,愛知県,名古屋市緑区,大高台３丁目１３１６番地Ｆｅｌｉｃｉｔｙ大高１０３,,23,114,4598003,,,,,,,2025-06-16,1,,,,,タイトニット,0
1577,7180303006612,新規,0,2025-06-16,2025-06-16,合同会社ミモザ,,合同会社,愛知県,安城市,二本木町６１－１－３０３,,23,212,4460054,,,,,,,2025-06-16,1,,,,,ミモザ,0
1580,7190003005079,新規,0,2025-06-16,2025-06-16,ＧＬＯＢＡＬ　ＡＵＴＯ　ＰＩＹＵＫＩ合同会社,,合同会社,三重県,桑名市,大字小泉７０１番地１,,24,205,5110837,,,,,,,2025-06-16,1,,,,,グローバルオートピユキ,0
1582,7200001043896,新規,0,2025-06-16,2025-06-16,株式会社スカイきっず,,株式会社,岐阜県,可児市,松伏１丁目４５番地４,,21,214,5090218,,,,,,,2025-06-16,1,,,,,スカイキッズ,0
1588,7220003004060,新規,0,2025-06-16,2025-06-16,合同会社平和の絆,,合同会社,石川県,金沢市,本町２丁目１番５号,,17,201,9200853,,,,,,,2025-06-16,1,,,,,ヘイワノキズナ,0
1594,7250001021195,新規,0,2025-06-16,2025-06-16,株式会社シンセイ,,株式会社,山口県,熊毛郡平生町,大字平生村１５３番地の１３－１Ｆ,,35,344,7421102,,,,,,,2025-06-16,1,,,,,シンセイ,0
1605,7290001110416,新規,0,2025-06-16,2025-06-16,株式会社ディーエス環境,,株式会社,福岡県,柳川市,大和町明野１１５５番地１,,40,207,8390251,,,,,,,2025-06-16,1,,,,,ディーエスカンキョウ,0
1609,7330003011062,新規,0,2025-06-16,2025-06-16,合同会社ＹＯＫＡＯＮＬＡＢ,,合同会社,熊本県,熊本市東区,画図町大字重富９６３番地１,,43,102,8620947,,,,,,,2025-06-16,1,,,,,ヨカオンラボ,0
1614,7340003004874,新規,0,2025-06-16,2025-06-16,合同会社ＥＴ不動産,,合同会社,鹿児島県,鹿児島市,谷山中央３丁目３８３番地２０,,46,201,8910141,,,,,,,2025-06-16,1,,,,,イーティーフドウサン,0
1615,7350005006315,新規,0,2025-06-16,2025-06-16,協同組合シーズ,,その他の設立登記法人,宮崎県,宮崎市,江平東町１０番地６,,45,201,8800817,,,,,,,2025-06-16,1,,,,,シーズ,0
1617,7360001035358,新規,0,2025-06-16,2025-06-16,株式会社ＨＩＧＨＬＩＮＥ,,株式会社,沖縄県,宮古島市,平良字下里１５７６番地２－１１階,,47,214,9060013,,,,,,,2025-06-16,1,,,,,ハイライン,0
1619,7360003014979,新規,0,2025-06-16,2025-06-16,合同会社トレバリー,,合同会社,沖縄県,石垣市,字新川３７２－１２,,47,207,9070024,,,,,,,2025-06-16,1,,,,,トレバリー,0
1624,7380001035389,新規,0,2025-06-16,2025-06-16,株式会社あさかの不動産販売,,株式会社,福島県,郡山市,桑野３丁目１４番１８号クローネ郡山ｉｆ１－Ａ,,07,203,9638025,,,,,,,2025-06-16,1,,,,,アサカノフドウサンハンバイ,0
1633,7420003003133,新規,0,2025-06-16,2025-06-16,合同会社カマタク,,合同会社,青森県,弘前市,大字松森町１９番地１パストラルハイム弘前３０１号,,02,202,0368184,,,,,,,2025-06-16,1,,,,,カマタク,0
1636,7430001094677,新規,0,2025-06-16,2025-06-16,株式会社Ｌｉｂｅｒｚａ,,株式会社,北海道,札幌市白石区,菊水九条３丁目５番１９号,,01,104,0030809,,,,,,,2025-06-16,1,,,,,リベルザ,0
1640,7430003017776,新規,0,2025-06-16,2025-06-16,合同会社小泉企画,,合同会社,北海道,札幌市西区,発寒四条５丁目７‐３９,,01,107,0630824,,,,,,,2025-06-16,1,,,,,コイズミキカク,0
1641,7440001009626,新規,0,2025-06-16,2025-06-16,株式会社ＮＩＰＰＥＩ　ＣＡＰＩＴＡＬ,,株式会社,北海道,函館市,日吉町１丁目１８番１２号,,01,202,0410841,,,,,,,2025-06-16,1,,,,,ニッペイキャピタル,0
1646,7500001026342,新規,0,2025-06-16,2025-06-16,株式会社ＡＲＣＳ　ＤＥＳＩＧＮ,,株式会社,愛媛県,松山市,昭和町４２番地７グラツィオーソ２０１号,,38,201,7900872,,,,,,,2025-06-16,1,,,,,アークスデザイン,0
1650,7700150054545,新規,0,2025-06-16,2015-10-09,吉田どんぐりクラブ,,その他,岡山県,笠岡市,吉田２３８３－１,,33,205,7140011,,,,,,,2015-10-09,1,,,,,ヨシダドングリクラブ,0
1654,7700150130214,新規,0,2025-06-16,2025-04-25,調布市花火実行委員会,,その他,東京都,調布市,小島町２丁目３５－１調布市役所８Ｆ調布市生活文化スポーツ部産業振興課内,,13,208,1820026,,,,,,,2025-04-25,1,,,,,チヨウフシハナビジツコウイインカイ,0
1655,7700150131039,新規,0,2025-06-16,2025-06-16,合作金庫商業銀行　東京駐在員事務所,,外国会社等,東京都,千代田区,大手町２丁目６－４　１１０８区,,13,101,1000004,台湾台北市松山區長安東路二段２２５號,,,,,,2025-06-16,1,,,,,ガツサクキンコシヨウギヨウギンコウトウキヨウチユウザイインジムシヨ,0
1666,8010001255997,新規,0,2025-06-16,2025-06-16,株式会社Ｓｐｏｔ　Ｓｕｐｐｏｒｔ,,株式会社,東京都,千代田区,神田須田町１丁目７番８号ＶＯＲＴ秋葉原ＩＶ２Ｆ,00139574,13,101,1010041,,,,,,,2025-06-16,1,,,,,スポットサポート,0
1667,8010001256013,新規,0,2025-06-16,2025-06-16,株式会社Ｐｏｔａｇｅ,,株式会社,東京都,千代田区,丸の内３丁目３番１号,,13,101,1000005,,,,,,,2025-06-16,1,,,,,ポタージュ,0
1675,8010401190968,新規,0,2025-06-16,2025-06-16,成大国際株式会社,,株式会社,東京都,港区,北青山２丁目１２番１５号８階,,13,103,1070061,,,,,,,2025-06-16,1,,,,,セイダイコクサイ,0
1676,8010401191066,新規,0,2025-06-16,2025-06-16,株式会社ＡＰ８６,,株式会社,東京都,港区,虎ノ門４丁目１番２８号虎ノ門タワーズオフィス１７階,,13,103,1050001,,,,,,,2025-06-16,1,,,,,エーピーハチジュウロク,0
1679,8010403035386,新規,0,2025-06-16,2025-06-16,ＰＡＮ　Ｐａｒｔｎｅｒｓ　Ｊａｐａｎ合同会社,,合同会社,東京都,港区,南麻布３丁目２１番１４－５１５号,,13,103,1060047,,,,,,,2025-06-16,1,,,,,パンパートナーズジャパン,0
1686,8010703007746,新規,0,2025-06-16,2025-06-16,Ｆｌｅｕｒ　Ｏｎｅ１１合同会社,,合同会社,東京都,品川区,東大井４丁目１５－７,,13,109,1400011,,,,,,,2025-06-16,1,,,,,フルールワンイレブン,0
1691,8010801036259,新規,0,2025-06-16,2025-06-16,株式会社トモニ不動産,,株式会社,東京都,大田区,西六郷１丁目３２番１７号高橋ビル３０３号室,,13,111,1440056,,,,,,,2025-06-16,1,,,,,トモニフドウサン,0
1694,8010901057568,新規,0,2025-06-16,2025-06-16,株式会社ＴＭＣ,,株式会社,東京都,世田谷区,奥沢６丁目５番１１号,,13,112,1580083,,,,,,,2025-06-16,1,,,,,ティーエムシー,0
1707,8011001169997,新規,0,2025-06-16,2025-06-16,株式会社Ｉｎｓｐｉｒｅ　Ｅｓｔａｔｅ,,株式会社,東京都,渋谷区,千駄ヶ谷５丁目２５番６号,,13,113,1510051,,,,,,,2025-06-16,1,,,,,インスパイアエステート,0
1708,8011001170212,新規,0,2025-06-16,2025-06-16,株式会社ＫａｗａｓｅｍｉＲｅｃｏｒｄｓ,,株式会社,東京都,渋谷区,恵比寿西２丁目４番８号ウィンド恵比寿ビル８Ｆ,,13,113,1500021,,,,,,,2025-06-16,1,,,,,カワセミレコーズ,0
1709,8011001170336,新規,0,2025-06-16,2025-06-16,株式会社Ｔｅｒｒａ,,株式会社,東京都,渋谷区,渋谷２丁目１番１号,,13,113,1500002,,,,,,,2025-06-16,1,,,,,テラ,0
1714,8011003021702,新規,0,2025-06-16,2025-06-16,合同会社ＹＳＲ,,合同会社,東京都,渋谷区,道玄坂１丁目１０番８号渋谷道玄坂東急ビル２Ｆ－Ｃ,,13,113,1500043,,,,,,,2025-06-16,1,,,,,ワイエスアール,0
1715,8011003021941,新規,0,2025-06-16,2025-06-16,合同会社ＴＡファンド,,合同会社,東京都,渋谷区,広尾３丁目１２－３７カーサヴェルデ１０１,,13,113,1500012,,,,,,,2025-06-16,1,,,,,ティーエーファンド,0
1720,8011101112089,新規,0,2025-06-16,2025-06-16,株式会社ＴＥＲＲＥ　ＭＡＩＳＯＮ,,株式会社,東京都,新宿区,新宿２丁目１－９＠ＷＯＲＫ・ＳＨＩＮＪＵＫＵＧＹＯＥＮ４Ｆ,,13,104,1600022,,,,,,,2025-06-16,1,,,,,テイルメゾン,0
1723,8011103015983,新規,0,2025-06-16,2025-06-16,コネクトブリッジパートナーズ合同会社,,合同会社,東京都,新宿区,西新宿３丁目３番１３号西新宿水間ビル６階,,13,104,1600023,,,,,,,2025-06-16,1,,,,,コネクトブリッジパートナーズ,0
1732,8011803006919,新規,0,2025-06-16,2025-06-16,盛吉合同会社,,合同会社,東京都,足立区,西新井栄町２丁目１４番７号ナイストーンコーポ２０１,,13,121,1230843,,,,,,,2025-06-16,1,,,,,モリヨシ,0
1736,8012401043230,新規,0,2025-06-16,2025-06-16,株式会社ＭＡＤＩＫＡ,,株式会社,東京都,武蔵野市,吉祥寺本町１丁目２０番１号吉祥寺永谷シティプラザ１００２,,13,203,1800004,,,,,,,2025-06-16,1,,,,,マヂカ,0
1743,8020001163349,新規,0,2025-06-16,2025-06-16,清水工業株式会社,,株式会社,神奈川県,横浜市南区,平楽１３７番地１８,,14,105,2320035,,,,,,,2025-06-16,1,,,,,シミズコウギョウ,0
1744,8020001163398,新規,0,2025-06-16,2025-06-16,株式会社Ｏｎｅ朝日,,株式会社,神奈川県,川崎市宮前区,宮崎５丁目１４番地４,,14,136,2160033,,,,,,,2025-06-16,1,,,,,ワンアサヒ,0
1746,8020003028698,新規,0,2025-06-16,2025-06-16,合同会社Ｈｏｙｊｅｒ,,合同会社,神奈川県,横浜市港北区,菊名６丁目１３－５３,,14,109,2220011,,,,,,,2025-06-16,1,,,,,ホイジャー,0
1747,8020005016899,新規,0,2025-06-16,2025-06-16,ＮＰＯ法人Ｈａｒｍｏｎｙ＆Ｖｉｓｉｏｎ,,その他の設立登記法人,神奈川県,横浜市西区,宮崎町４８番地７オクト・メゾン・桜木町３０２号,,14,103,2200031,,,,,,,2025-06-16,1,,,,,ハーモニーアンドビジョン,0
1753,8030001167118,新規,0,2025-06-16,2025-06-16,株式会社アサクラ,,株式会社,埼玉県,深谷市,萱場７番１２号中野アパート２号,,11,218,3660818,,,,,,,2025-06-16,1,,,,,アサクラ,0
1754,8030001167134,新規,0,2025-06-16,2025-06-16,龍成貿易株式会社,,株式会社,埼玉県,戸田市,下前１丁目６番５号,,11,224,3350016,,,,,,,2025-06-16,1,,,,,リュウセイボウエキ,0
1757,8030003026998,新規,0,2025-06-16,2025-06-16,合同会社ＧＬＡＭＡＺＡＮ,,合同会社,埼玉県,新座市,栗原６丁目１番３８号サンネスト栗原３０６号室,,11,230,3520035,,,,,,,2025-06-16,1,,,,,グラマザン,0
1760,8040001139248,新規,0,2025-06-16,2025-06-16,株式会社ゆるひら,,株式会社,千葉県,市原市,ちはら台西２丁目９番地３デュオヒルズちはら台駅前６０３,,12,219,2900143,,,,,,,2025-06-16,1,,,,,ユルヒラ,0
1761,8040001139264,新規,0,2025-06-16,2025-06-16,株式会社Ｂｕｚｚ　Ｓｔｕｄｉｏ,,株式会社,千葉県,船橋市,海神３丁目２３番６１－６号,,12,204,2730021,,,,,,,2025-06-16,1,,,,,バズスタジオ,0
1762,8040001139272,新規,0,2025-06-16,2025-06-16,株式会社ＫＥＯＮ,,株式会社,千葉県,佐倉市,岩富２２９番地,,12,212,2850071,,,,,,,2025-06-16,1,,,,,ケーオーエヌ,0
1763,8040003027839,新規,0,2025-06-16,2025-06-16,合同会社城工業,,合同会社,千葉県,千葉市若葉区,殿台町５６４番地６,,12,104,2640036,,,,,,,2025-06-16,1,,,,,ジョウコウギョウ,0
1764,8050001056814,新規,0,2025-06-16,2025-06-16,株式会社水郷田崎保険,,株式会社,茨城県,潮来市,潮来９２番地１０,,08,223,3112424,,,,,,,2025-06-16,1,,,,,スイゴウタサキホケン,0
1771,8070001043042,新規,0,2025-06-16,2025-06-16,株式会社つばさ,,株式会社,群馬県,太田市,内ケ島町２０５１,,10,205,3730813,,,,,,,2025-06-16,1,,,,,ツバサ,0
1786,8120001276875,新規,0,2025-06-16,2025-06-16,協和日本再生医療株式会社,,株式会社,大阪府,大阪市浪速区,大国２丁目５番１９号２Ｆ,,27,111,5560014,,,,,,,2025-06-16,1,,,,,キョウワニホンサイセイイリョウ,0
1787,8120001276900,新規,0,2025-06-16,2025-06-16,慕荷国際貿易株式会社,,株式会社,大阪府,大阪市西成区,松１丁目６－３－１０２,,27,122,5570034,,,,,,,2025-06-16,1,,,,,ボカコクサイボウエキ,0
1788,8120003029752,新規,0,2025-06-16,2025-06-16,合同会社シェルパアドバイザリーパートナー,,合同会社,大阪府,大阪市阿倍野区,昭和町５丁目５番６号,,27,119,5450011,,,,,,,2025-06-16,1,,,,,シェルパアドバイザリーパートナー,0
1789,8120003029760,新規,0,2025-06-16,2025-06-16,合同会社Ｐｌｕｍ　Ｄｒｏｐ,,合同会社,大阪府,大阪市住之江区,浜口西３丁目７番６－５０３号,,27,125,5590006,,,,,,,2025-06-16,1,,,,,プラムドロップ,0
1790,8120003029769,新規,0,2025-06-16,2025-06-16,合同会社Ｌｄｄ,,合同会社,大阪府,大阪市港区,築港１丁目９番１－３１０号,,27,107,5520021,,,,,,,2025-06-16,1,,,,,エルディディ,0
1795,8120103006511,新規,0,2025-06-16,2025-06-16,ＦｏｒＹｏｕ福佑合同会社,,合同会社,大阪府,泉南郡岬町,淡輪３７６４番地の１３３,,27,366,5990301,,,,,,,2025-06-16,1,,,,,フォーユーフクユウ,0
1798,8120903005720,新規,0,2025-06-16,2025-06-16,合同会社ベスティ,,合同会社,大阪府,吹田市,長野東２６番１－６１８号,,27,205,5650816,,,,,,,2025-06-16,1,,,,,ベスティ,0
1799,8122003003225,新規,0,2025-06-16,2025-06-16,ＪＵＴＴ　ＴＲＡＤＩＮＧ合同会社,,合同会社,大阪府,柏原市,大字雁多尾畑５５８０番地の１,,27,221,5820012,,,,,,,2025-06-16,1,,,,,ジェイユーティティトレーディング,0
1802,8140001138958,新規,0,2025-06-16,2025-06-16,株式会社ｃｏｃｏｔｏｂｉ,,株式会社,兵庫県,明石市,大久保町大窪１２６４番地の５,,28,203,6740051,,,,,,,2025-06-16,1,,,,,ココトビ,0
1805,8140003022185,新規,0,2025-06-16,2025-06-16,エステート六甲合同会社,,合同会社,兵庫県,神戸市灘区,鶴甲２丁目１４番２９号,,28,102,6570011,,,,,,,2025-06-16,1,,,,,エステートロッコウ,0
1806,8140003022202,新規,0,2025-06-16,2025-06-16,合同会社メーテルブルー,,合同会社,兵庫県,神戸市北区,筑紫が丘８丁目１２番地の２７,,28,109,6511212,,,,,,,2025-06-16,1,,,,,メーテルブルー,0
1820,8180001167284,新規,0,2025-06-16,2025-06-16,株式会社Ｎｔｏｃ,,株式会社,愛知県,大府市,北崎町遠山２１１番地,,23,223,4740001,,,,,,,2025-06-16,1,,,,,エヌトク,0
1823,8180003028617,新規,0,2025-06-16,2025-06-16,エージェンシーサービス合同会社,,合同会社,愛知県,名古屋市中村区,名楽町４丁目５番地,,23,105,4530024,,,,,,,2025-06-16,1,,,,,エージェンシーサービス,0
1829,8220005008975,新規,0,2025-06-16,2025-06-16,一般社団法人石川県農業ドローン協会,,その他の設立登記法人,石川県,金沢市,堅田町ヘ５５番地,,17,201,9200164,,,,,,,2025-06-16,1,,,,,イシカワケンノウギョウドローンキョウカイ,0
1834,8240003007259,新規,0,2025-06-16,2025-06-16,合同会社ラックスワン,,合同会社,広島県,福山市,沼隈町上山南５０４番地１４,,34,207,7210000,,,,,,,2025-06-16,1,,,,,ラックスワン,0
1850,8360003015019,新規,0,2025-06-16,2025-06-16,合同会社ＮＫＭ１０１,,合同会社,沖縄県,浦添市,伊祖１丁目１２番６号,,47,208,9012132,,,,,,,2025-06-16,1,,,,,エヌケイエムイチマルイチ,0
1867,8450001014649,新規,0,2025-06-16,2025-06-16,株式会社大季設備,,株式会社,北海道,旭川市,豊岡十四条６丁目４番４号,,01,204,0788244,,,,,,,2025-06-16,1,,,,,タイキセツビ,0
1871,8700150062266,新規,0,2025-06-16,2015-10-09,熊本県国際協会,,その他,熊本県,熊本市中央区,水前寺６丁目１８－１,,43,101,8620950,,,,,,,2015-10-09,1,,,,,クマモトケンコクサイキヨウカイ,0
1876,9010001255963,新規,0,2025-06-16,2025-06-16,株式会社ＫＩＯＫＵ　Ｐｉｃｔｕｒｅｓ,,株式会社,東京都,千代田区,丸の内１丁目８番３号丸の内トラストタワー本館２０階,,13,101,1000005,,,,,,,2025-06-16,1,,,,,キオクピクチャーズ,0
1877,9010001256004,新規,0,2025-06-16,2025-06-16,株式会社三力,,株式会社,東京都,中央区,勝どき３丁目１３番２－８０５号,,13,102,1040054,,,,,,,2025-06-16,1,,,,,サンリキ,0
1882,9010101016729,新規,0,2025-06-16,2025-06-16,株式会社オリペルト,,株式会社,東京都,八王子市,七国５丁目３０番３号,,13,201,1920919,,,,,,,2025-06-16,1,,,,,オリペルト,0
1889,9010401191049,新規,0,2025-06-16,2025-06-16,株式会社神泉,,株式会社,東京都,港区,赤坂７丁目６－１５赤坂ロイヤルビル２０１,,13,103,1070052,,,,,,,2025-06-16,1,,,,,シンセン,0
1904,9010701047850,新規,0,2025-06-16,2025-06-16,株式会社ゼットライン,,株式会社,東京都,品川区,西五反田１丁目２１番１０号,,13,109,1410031,,,,,,,2025-06-16,1,,,,,ゼットライン,0
1907,9010703007753,新規,0,2025-06-16,2025-06-16,あっプ合同会社,,合同会社,東京都,品川区,東大井５丁目１２－５,,13,109,1400011,,,,,,,2025-06-16,1,,,,,アップ,0
1908,9010703007761,新規,0,2025-06-16,2025-06-16,合同会社ＫＩＹＯ,,合同会社,東京都,品川区,東品川３丁目１０番１－１９０６号,,13,109,1400002,,,,,,,2025-06-16,1,,,,,キヨ,0
1911,9010801036266,新規,0,2025-06-16,2025-06-16,株式会社グッドチョイス蒲田,,株式会社,東京都,大田区,西蒲田７丁目６１番８号,,13,111,1440051,,,,,,,2025-06-16,1,,,,,グッドチョイスカマタ,0
1912,9010803005442,新規,0,2025-06-16,2025-06-16,合同会社ＴＳＵＢＡＭＥ,,合同会社,東京都,大田区,南千束３丁目２７番３－１０５号,,13,111,1450063,,,,,,,2025-06-16,1,,,,,ツバメ,0
1915,9010901057559,新規,0,2025-06-16,2025-06-16,ＰＧＳ．ｓｐｏｒｔｓ　ｇｏｏｄｓ株式会社,,株式会社,東京都,世田谷区,桜丘２丁目２７－７第２坂川ビル４０３号,,13,112,1560054,,,,,,,2025-06-16,1,,,,,ピージーエススポーツグッズ,0
1916,9010901057567,新規,0,2025-06-16,2025-06-16,株式会社三笠事務所,,株式会社,東京都,世田谷区,野沢２丁目２９番１１号,,13,112,1540003,,,,,,,2025-06-16,1,,,,,ミカサジムショ,0
1917,9010903010012,新規,0,2025-06-16,2025-06-16,合同会社フルールアップ,,合同会社,東京都,世田谷区,太子堂４丁目１８番１５号マガザン三軒茶屋２－３Ｆ－３,,13,112,1540004,,,,,,,2025-06-16,1,,,,,フルールアップ,0
1921,9011001170079,新規,0,2025-06-16,2025-06-16,株式会社ｒａｗｓ,,株式会社,東京都,渋谷区,本町６丁目３２番１１号ラニカイ２０３,,13,113,1510071,,,,,,,2025-06-16,1,,,,,ロウズ,0
1922,9011001170203,新規,0,2025-06-16,2025-06-16,株式会社ＮＯＶＡＩ,,株式会社,東京都,渋谷区,幡ヶ谷２丁目３番４号リーフコートプラス１０３,,13,113,1510072,,,,,,,2025-06-16,1,,,,,ノヴァイ,0
1924,9011003021866,新規,0,2025-06-16,2025-06-16,合同会社ラーマ,,合同会社,東京都,渋谷区,神南１丁目１１番４号ＦＰＧリンクス神南５階,,13,113,1500041,,,,,,,2025-06-16,1,,,,,ラーマ,0
1925,9011003021932,新規,0,2025-06-16,2025-06-16,合同会社原様,,合同会社,東京都,目黒区,下目黒１丁目１番１４号コノトラビル７Ｆ,,13,110,1530064,,,,,,,2025-06-16,1,,,,,ゲンヨウ,0
1934,9011101112039,新規,0,2025-06-16,2025-06-16,ＳＨＯＷＥＳＴ株式会社,,株式会社,東京都,新宿区,払方町２０番地１クリオラベルヴィ市ヶ谷６０１,,13,104,1620841,,,,,,,2025-06-16,1,,,,,ショーエスト,0
1942,9011501032200,新規,0,2025-06-16,2025-06-16,株式会社小平屋,,株式会社,東京都,北区,赤羽南２丁目１０番１５－８０８号ニュー赤羽ハイツ,,13,117,1150044,,,,,,,2025-06-16,1,,,,,コダイラヤ,0
1943,9011503006565,新規,0,2025-06-16,2025-06-16,合同会社データファースト,,合同会社,東京都,荒川区,南千住６丁目３７－３アクロシティＣ４０２,,13,118,1160003,,,,,,,2025-06-16,1,,,,,,0
1949,9011801046305,新規,0,2025-06-16,2025-06-16,智縁ＤＸテックソリューションズ株式会社,,株式会社,東京都,葛飾区,新宿６丁目２番１８－１５３０号シティテラス金町,,13,122,1250051,,,,,,,2025-06-16,1,,,,,チエンディーエックステックソリューションズ,0
1950,9011803006918,新規,0,2025-06-16,2025-06-16,合同会社Ｓｕｍｉｒｅ,,合同会社,東京都,葛飾区,青戸３丁目１１番２－４１２号,,13,122,1250062,,,,,,,2025-06-16,1,,,,,スミレ,0
1964,9020001163315,新規,0,2025-06-16,2025-06-16,株式会社晃平,,株式会社,神奈川県,横浜市中区,山下町７４番地６ロクマルビルＢ１０１,,14,104,2310023,,,,,,,2025-06-16,1,,,,,コウヘイ,0
1965,9020001163406,新規,0,2025-06-16,2025-06-16,株式会社Ｍｅｉｌｉｅ,,株式会社,神奈川県,横浜市西区,浅間町１丁目４番地３,,14,103,2200072,,,,,,,2025-06-16,1,,,,,メイリエ,0
1969,9021001085499,新規,0,2025-06-16,2025-06-16,株式会社タシ‐ダワ‐アソシエイツ,,株式会社,神奈川県,横須賀市,汐入町４丁目４４,,14,201,2380042,,,,,,,2025-06-16,1,,,,,タシーダワーアソシエイツ,0
1970,9021001085524,新規,0,2025-06-16,2025-06-16,株式会社ナイス,,株式会社,神奈川県,相模原市中央区,並木３丁目１０番６号,,14,152,2520228,,,,,,,2025-06-16,1,,,,,ナイス,0
1971,9021001085532,新規,0,2025-06-16,2025-06-16,株式会社Ｃｏｃｏｏｎ,,株式会社,神奈川県,三浦郡葉山町,一色９３０,,14,301,2400111,,,,,,,2025-06-16,1,,,,,コクーン,0
1974,9021003016080,新規,0,2025-06-16,2025-06-16,アイルビー湘南ワークス合同会社,,合同会社,神奈川県,茅ヶ崎市,新栄町７－５ＣｈｉｇａｓａｋｉＢｉｚ－ｎａｚ３Ｆ－３８,,14,207,2530044,,,,,,,2025-06-16,1,,,,,アイルビーショウナンワークス,0
1975,9021003016089,新規,0,2025-06-16,2025-06-16,Ｎ’ｓ．合同会社,,合同会社,神奈川県,秦野市,渋沢上２丁目５番４５号,,14,211,2591326,,,,,,,2025-06-16,1,,,,,エヌズ,0
1976,9021003016147,新規,0,2025-06-16,2025-06-16,合同会社ＰＬＡＭ　Ｑ,,合同会社,神奈川県,逗子市,桜山８丁目３番１３－３０１号,,14,208,2490005,,,,,,,2025-06-16,1,,,,,プランキュー,0
1977,9021003016163,新規,0,2025-06-16,2025-06-16,一善合同会社,,合同会社,神奈川県,相模原市南区,大野台３丁目３６番２号２０９,,14,153,2520331,,,,,,,2025-06-16,1,,,,,イッゼン,0
1981,9030001167026,新規,0,2025-06-16,2025-06-16,株式会社鈴木不動産管理,,株式会社,埼玉県,ふじみ野市,大井武蔵野３９６番地３,,11,245,3560054,,,,,,,2025-06-16,1,,,,,スズキフドウサンカンリ,0
1982,9030001167133,新規,0,2025-06-16,2025-06-16,三木工業株式会社,,株式会社,埼玉県,戸田市,川岸２丁目１２番地１号,,11,224,3350015,,,,,,,2025-06-16,1,,,,,ミキコウギョウ,0
1983,9030001167141,新規,0,2025-06-16,2025-06-16,株式会社ハウスインベストメント,,株式会社,埼玉県,越谷市,東町２丁目２６６－１６６－２０２,,11,222,3430826,,,,,,,2025-06-16,1,,,,,ハウスインベストメント,0
1991,9030003026997,新規,0,2025-06-16,2025-06-16,合同会社のんふぃくしょん,,合同会社,埼玉県,行田市,佐間２丁目１２番２８号,,11,206,3610032,,,,,,,2025-06-16,1,,,,,ノンフィクション,0
1999,9040001139239,新規,0,2025-06-16,2025-06-16,株式会社ｍｏｍｏｔａ,,株式会社,千葉県,千葉市花見川区,作新台２丁目１番５３号,,12,102,2620045,,,,,,,2025-06-16,1,,,,,モモタ,0
2004,9050001056821,新規,0,2025-06-16,2025-06-16,株式会社永井農芸センター,,株式会社,茨城県,ひたちなか市,大字長砂１２２０番地３,,08,221,3120004,,,,,,,2025-06-16,1,,,,,ナガイノウゲイセンター,0
2026,9120001276817,新規,0,2025-06-16,2025-06-16,禾木株式会社,,株式会社,大阪府,大阪市生野区,田島６丁目２番２８－４０４号,,27,116,5440011,,,,,,,2025-06-16,1,,,,,カボク,0
2028,9120003029751,新規,0,2025-06-16,2025-06-16,合同会社Ｒｉ．ＥＮ,,合同会社,大阪府,大阪市北区,梅田１丁目２番２号大阪駅前第２ビル１２‐１２,,27,127,5300001,,,,,,,2025-06-16,1,,,,,リエン,0
2048,9140001138940,新規,0,2025-06-16,2025-06-16,株式会社ＭＡＲＳＡ,,株式会社,兵庫県,尼崎市,田能３丁目１８番２１－２号,,28,202,6610951,,,,,,,2025-06-16,1,,,,,マーサ,0
2049,9140001138949,新規,0,2025-06-16,2025-06-16,安裕株式会社,,株式会社,兵庫県,神戸市東灘区,向洋町中３丁目１番地の８、４番館３０３号,,28,101,6580032,,,,,,,2025-06-16,1,,,,,アンユ,0
2080,9180001167300,新規,0,2025-06-16,2025-06-16,株式会社Ｔｅｎｇｅｎ,,株式会社,愛知県,稲沢市,稲沢町割田４番地３,,23,220,4928217,,,,,,,2025-06-16,1,,,,,テンゲン,0
2081,9180001167325,新規,0,2025-06-16,2025-06-16,株式会社ＦＯＣＵＳ,,株式会社,愛知県,名古屋市中区,葵２丁目１４番２０号,,23,106,4600006,,,,,,,2025-06-16,1,,,,,フォーカス,0
2086,9180003028616,新規,0,2025-06-16,2025-06-16,ＩｎｔｅｒＫａｒ　Ｊａｐａｎ合同会社,,合同会社,愛知県,名古屋市港区,宝神５丁目１０３１番地の１シャトーパルシェ３Ｃ号,,23,111,4550832,,,,,,,2025-06-16,1,,,,,インターカージャパン,0
2088,9190001032305,新規,0,2025-06-16,2025-06-16,株式会社ライズ,,株式会社,三重県,志摩市,志摩町布施田１６８０番地１,,24,215,5170702,,,,,,,2025-06-16,1,,,,,ライズ,0
2102,9240001065076,新規,0,2025-06-16,2025-06-16,株式会社アルバライズ,,株式会社,広島県,広島市安佐南区,大町東１丁目１９,,34,105,7310124,,,,,,,2025-06-16,1,,,,,アルバライズ,0
2104,9250001021193,新規,0,2025-06-16,2025-06-16,南海マテリアル株式会社,,株式会社,山口県,周南市,新清光台１丁目３番１０号,,35,215,7450643,,,,,,,2025-06-16,1,,,,,ナンカイマテリアル,0
2105,9250003003751,新規,0,2025-06-16,2025-06-16,スギハチ合同会社,,合同会社,山口県,萩市,大字椿東６３９７,,35,204,7580011,,,,,,,2025-06-16,1,,,,,スギハチ,0
2114,9290001110397,新規,0,2025-06-16,2025-06-16,株式会社Ｓｕｎ　Ｌｅａｐ,,株式会社,福岡県,大川市,大字三丸１４３５番地１,,40,212,8310026,,,,,,,2025-06-16,1,,,,,サンリープ,0
2117,9290003016997,新規,0,2025-06-16,2025-06-16,合同会社Ｓｕｒｐｌｕｓ,,合同会社,福岡県,みやま市,瀬高町長田１０２１番地２,,40,229,8350007,,,,,,,2025-06-16,1,,,,,サープラス,0
2142,9360003015018,新規,0,2025-06-16,2025-06-16,合同会社祭,,合同会社,沖縄県,国頭郡本部町,字大浜８５４番地６,,47,308,9050212,,,,,,,2025-06-16,1,,,,,マツリ,0
2160,9430001094659,新規,0,2025-06-16,2025-06-16,株式会社ウェルストン,,株式会社,北海道,札幌市北区,新琴似九条４丁目３番１８号１０３,,01,102,0010909,,,,,,,2025-06-16,1,,,,,ウェルストン,0
2161,9430001094675,新規,0,2025-06-16,2025-06-16,Ｋ．Ｋ工業株式会社,,株式会社,北海道,札幌市南区,真駒内６００番地３,,01,106,0050861,,,,,,,2025-06-16,1,,,,,ケーケーコウギョウ,0
2163,9450001014648,新規,0,2025-06-16,2025-06-16,株式会社笑劇,,株式会社,北海道,旭川市,大町一条３丁目１４番地の５,,01,204,0700841,,,,,,,2025-06-16,1,,,,,ショウゲキ,0
2174,9500001026349,新規,0,2025-06-16,2025-06-16,ＦＲＯＮＴ　ＦＩＥＬＤ株式会社,,株式会社,愛媛県,西条市,飯岡３１３５番地,,38,206,7930010,,,,,,,2025-06-16,1,,,,,フロントフィールド,0
2177,9700150020504,新規,0,2025-06-16,2015-10-09,利根沼田公衆衛生協会,,その他,群馬県,沼田市,薄根町４４１２利根沼田保健福祉事務所内,,10,206,3780031,,,,,,,2015-10-09,1,,,,,トネヌマタコウシユウエイセイキヨウカイ,0
2178,9700150047191,新規,0,2025-06-16,2015-10-09,第四地区住民協議会,,その他,三重県,松阪市,鎌田町６５６番地,,24,204,5150005,,,,,,,2015-10-09,1,,,,,ダイヨンチクジユウミンキヨウギカイ,0
2180,9700150061597,新規,0,2025-06-16,2015-10-09,長崎県冷凍協会,,その他,長崎県,長崎市,京泊３丁目３番１号関連棟Ｂ－１,,42,201,8512211,,,,,,,2015-10-09,1,,,,,ナガサキケンレイトウキヨウカイ,0
