sequenceNumber,corporateNumber,process,correct,updateDate,changeDate,name,nameImageId,kind,prefectureName,cityName,streetNumber,addressImageId,prefectureCode,cityCode,postCode,addressOutside,addressOutsideImageId,closeDate,closeCause,successorCorporateNumber,changeCause,assignmentDate,latest,enName,enPrefectureName,enCityName,enAddressOutside,furigana,hihyoji
12,1010001225924,登記記録の閉鎖等,0,2025-08-05,2025-07-04,シートメタルコンサルティング株式会社,,株式会社,東京都,中央区,日本橋本町４丁目１番１３号,,13,102,1030023,,,2025-07-04,清算の結了等,,,2022-04-19,1,,,,,シートメタルコンサルティング,0
37,1010701022101,登記記録の閉鎖等,0,2025-08-05,2025-07-18,株式会社プレジャーフィールド,,株式会社,神奈川県,横浜市中区,野毛町３丁目１１７番地１－７０１号,,14,104,2310064,,,2025-07-18,清算の結了等,,,2015-10-05,1,,,,,プレジャーフィールド,0
44,1011001061995,登記記録の閉鎖等,0,2025-08-05,2025-07-04,株式会社東横ＩＮＮ　Ｊｒ．,,株式会社,東京都,渋谷区,恵比寿４丁目５番２１号,,13,113,1500013,,,2025-07-04,清算の結了等,,,2015-10-05,1,,,,,トウヨコインジュニア,0
45,1011001108342,登記記録の閉鎖等,0,2025-08-05,2025-07-04,株式会社アイザック・エデュケーション,,株式会社,東京都,渋谷区,神南１丁目１０番７号第２工業ビル５階,,13,113,1500041,,,2025-07-04,清算の結了等,,,2015-11-26,1,,,,,アイザックエデュケーション,0
59,1011402018611,登記記録の閉鎖等,0,2025-08-05,2025-08-01,有限会社ブルックエイト,,有限会社,東京都,板橋区,板橋３丁目６５番７号,,13,119,1730004,,,2025-08-01,清算の結了等,,,2015-10-05,1,,,,,ブルックエイト,0
60,1011501011269,登記記録の閉鎖等,0,2025-08-05,2025-07-30,株式会社Ｈ＆Ｄジャパン,,株式会社,東京都,北区,岩淵町３２番１９号,,13,117,1150041,,,2025-07-30,清算の結了等,,,2015-10-05,1,,,,,エイチアンドディージャパン,0
79,1013305001009,登記記録の閉鎖等,0,2025-08-05,2025-07-15,特定非営利活動法人シニア居住文化研究所,,その他の設立登記法人,東京都,中央区,日本橋蛎殻町１丁目１２番６号寿ビル４Ｆ株式会社青山設計,,13,102,1030014,,,2025-07-15,清算の結了等,,,2015-10-05,1,,,,,シニアキョジュウブンカケンキュウジョ,0
85,1020001147531,登記記録の閉鎖等,0,2025-08-05,2025-07-28,株式会社ソアスト,,株式会社,東京都,品川区,大崎４丁目２番１２号石川ビル３０３号室,,13,109,1410032,,,2025-07-28,清算の結了等,,,2022-08-02,1,,,,,ソアスト,0
90,1020002005192,登記記録の閉鎖等,0,2025-08-05,2025-07-22,有限会社和内,,有限会社,神奈川県,横浜市緑区,西八朔町２０１番地,,14,113,2260024,,,2025-07-22,清算の結了等,,,2015-10-05,1,,,,,ワナイ,0
103,1030005021293,登記記録の閉鎖等,0,2025-08-05,2025-07-29,一般社団法人明好会,,その他の設立登記法人,埼玉県,さいたま市大宮区,上小町１０２０番地,,11,103,3300855,,,2025-07-29,清算の結了等,,,2023-06-12,1,,,,,ミョウコウカイ,0
106,1040002041640,登記記録の閉鎖等,0,2025-08-05,2025-07-09,有限会社ベイローリー,,有限会社,千葉県,浦安市,舞浜３丁目２１番２号,,12,227,2790031,,,2025-07-09,清算の結了等,,,2015-10-05,1,,,,,ベイローリー,0
112,1060001030840,登記記録の閉鎖等,0,2025-08-05,2025-07-22,株式会社ＪＳＳホールディングス,,株式会社,栃木県,佐野市,田島町２４４番地１,,09,204,3270031,,,2025-07-22,清算の結了等,,,2018-08-24,1,,,,,ジェイエスエスホールディングス,0
126,1080405007219,登記記録の閉鎖等,0,2025-08-05,2025-07-30,一般社団法人スマイルタウン池新田,,その他の設立登記法人,静岡県,御前崎市,池新田１８７５番地の４,,22,223,4371612,,,2025-07-30,清算の結了等,,,2020-01-21,1,,,,,スマイルタウンイケシンデン,0
127,1100001006290,登記記録の閉鎖等,0,2025-08-05,2025-08-04,株式会社クリエート,,株式会社,長野県,千曲市,大字千本柳３９１番地５,,20,218,3890803,,,2025-08-04,清算の結了等,,,2015-10-05,1,,,,,クリエート,0
129,1100002014400,登記記録の閉鎖等,0,2025-08-05,2025-07-31,有限会社富岡商店,,有限会社,長野県,上田市,御所５２９番地,,20,203,3860033,,,2025-07-31,清算の結了等,,,2015-10-05,1,,,,,トミオカショウテン,0
131,1110003003459,登記記録の閉鎖等,0,2025-08-05,2025-07-18,合同会社ｋｉｓｕｋｅ,,合同会社,新潟県,新潟市西区,青山４丁目７番２６号ベレーザ青山Ａ１０６,,15,107,9502002,,,2025-07-18,清算の結了等,,,2017-03-22,1,,,,,キスケ,0
158,1122002013504,登記記録の閉鎖等,0,2025-08-05,2025-07-28,有限会社神原,,有限会社,大阪府,八尾市,山本町南１丁目３番１０号,,27,212,5810013,,,2025-07-28,清算の結了等,,,2015-10-05,1,,,,,カンバラ,0
163,1140001058428,登記記録の閉鎖等,0,2025-08-05,2025-07-30,近畿ガス株式会社,,株式会社,兵庫県,姫路市,四郷町山脇１０６番３,,28,201,6710248,,,2025-07-30,合併による解散等,9010601005660,令和７年７月１日東京都江東区亀戸六丁目６番１０号ＫＧＫサービス株式会社（9010601005660）に合併し解散,2015-10-05,1,,,,,キンキガス,0
168,1140002026714,登記記録の閉鎖等,0,2025-08-05,2025-07-29,有限会社Ｂｉｇ　Ｊｏｙ,,有限会社,兵庫県,神戸市東灘区,御影石町２丁目１－５,,28,101,6580045,,,2025-07-29,清算の結了等,,,2015-10-05,1,,,,,ビッグジョイ,0
169,1140003000809,登記記録の閉鎖等,0,2025-08-05,2025-07-29,合名会社金月商店,,合名会社,兵庫県,神戸市須磨区,高倉台６丁目１３番１７号,,28,107,6540081,,,2025-07-29,清算の結了等,,,2015-10-05,1,,,,,キンゲツショウテン,0
179,1180001110713,登記記録の閉鎖等,0,2025-08-05,2025-07-11,株式会社青空,,株式会社,愛知県,名古屋市中川区,上高畑１丁目２１７番地,,23,110,4540873,,,2025-07-11,清算の結了等,,,2015-10-05,1,,,,,アオゾラ,0
189,1190001025373,登記記録の閉鎖等,0,2025-08-05,2025-07-28,北京餃子城株式会社,,株式会社,三重県,津市,南中央５番１２号,,24,201,5140832,,,2025-07-28,清算の結了等,,,2018-03-07,1,,,,,ペキンギョウザジョウ,0
208,1260005009877,登記記録の閉鎖等,0,2025-08-05,2025-07-10,一般社団法人人づくり＆地域活性化プロジェクト,,その他の設立登記法人,岡山県,岡山市北区,弓之町１０－２５,,33,101,7000817,,,2025-07-10,清算の結了等,,,2015-10-05,1,,,,,ヒトヅクリアンドチイキカッセイカプロジェクト,0
221,1290003014538,登記記録の閉鎖等,0,2025-08-05,2025-07-09,合同会社Ｊｅｗｅｌｓ,,合同会社,福岡県,福岡市西区,横浜１丁目４８番５号,,40,135,8190166,,,2025-07-09,清算の結了等,,,2023-10-30,1,,,,,ジュエルズ,0
239,1430005004638,登記記録の閉鎖等,0,2025-08-05,2025-07-15,協同組合札幌テクネット,,その他の設立登記法人,北海道,石狩市,新港西３丁目７６８番地４,,01,235,0613241,,,2025-07-15,清算の結了等,,,2015-10-05,1,,,,,サッポロテクネット,0
252,1490005000714,登記記録の閉鎖等,0,2025-08-05,2025-07-01,医療法人悠仁会,,その他の設立登記法人,高知県,高知市,愛宕町３丁目９番２０号,,39,201,7800051,,,2025-07-01,合併による解散等,5490005000660,令和７年７月１日高知市城見町４番１３号医療法人高田会（5490005000660）に合併し解散,2015-10-05,1,,,,,ユウジンカイ,0
257,1500002003370,登記記録の閉鎖等,0,2025-08-05,2025-07-31,新日本興業有限会社,,有限会社,愛媛県,松山市,空港通３丁目８番２４号,,38,201,7910054,,,2025-07-31,清算の結了等,,,2015-10-05,1,,,,,シンニホンコウギョウ,0
262,2010001207789,登記記録の閉鎖等,0,2025-08-05,2025-07-10,ＨＫホールディング株式会社,,株式会社,愛知県,名古屋市緑区,鳴海町字中汐田１３０番地,,23,114,4580801,,,2025-07-10,合併による解散等,6180001028760,令和７年７月１日名古屋市緑区鳴海町字中汐田１３０番地株式会社ＤＮＰ光金属（6180001028760）に合併し解散,2020-02-27,1,,,,,エイチケーホールディング,0
271,2010401159374,登記記録の閉鎖等,0,2025-08-05,2025-07-07,株式会社シグマクシス・インベストメント,,株式会社,東京都,港区,虎ノ門４丁目１番２８号,,13,103,1050001,,,2025-07-07,合併による解散等,6010401075873,令和７年７月１日東京都港区虎ノ門四丁目１番２８号株式会社シグマクシス・ホールディングス（6010401075873）に合併し解散,2021-04-07,1,,,,,シグマクシスインベストメント,0
280,2010501033215,登記記録の閉鎖等,0,2025-08-05,2025-07-16,株式会社エーケーアイジョイ,,株式会社,東京都,台東区,上野６丁目１番６号御徒町グリーンハイツ１００５号,,13,106,1100005,,,2025-07-16,清算の結了等,,,2015-10-05,1,,,,,エーケーアイジョイ,0
298,2010902013063,登記記録の閉鎖等,0,2025-08-05,2025-08-01,有限会社福本家,,有限会社,東京都,世田谷区,宮坂３丁目２０番３号,,13,112,1560051,,,2025-08-01,清算の結了等,,,2015-10-05,1,,,,,フクモトヤ,0
304,2011001143776,登記記録の閉鎖等,0,2025-08-05,2025-07-03,３ＨＯＬＤＩＮＧＳ株式会社,,株式会社,東京都,目黒区,青葉台２丁目６番８号,,13,110,1530042,,,2025-07-03,清算の結了等,,,2021-11-04,1,,,,,スリーホールディングス,0
305,2011001146787,登記記録の閉鎖等,0,2025-08-05,2025-07-04,株式会社代官山アイクリニック,,株式会社,東京都,渋谷区,恵比寿西１丁目３０番１３号,,13,113,1500021,,,2025-07-04,清算の結了等,,,2022-04-11,1,,,,,ダイカンヤマアイクリニック,0
308,2011002018432,登記記録の閉鎖等,0,2025-08-05,2025-08-04,有限会社ワイトゥー・デザイン・アソシエイツ,,有限会社,東京都,世田谷区,代田５丁目１２－９－２０１,,13,112,1550033,,,2025-08-04,清算の結了等,,,2015-10-05,1,,,,,ワイトゥーデザインアソシエイツ,0
317,2011402001260,登記記録の閉鎖等,0,2025-08-05,2025-07-31,有限会社ウチダ企画,,有限会社,東京都,板橋区,西台２丁目４１番９－１０１号,,13,119,1750045,,,2025-07-31,清算の結了等,,,2015-10-05,1,,,,,ウチダキカク,0
320,2011501013181,登記記録の閉鎖等,0,2025-08-05,2025-08-01,株式会社シリウス,,株式会社,東京都,北区,赤羽西１丁目２６番２号シリウスビル,,13,117,1150055,,,2025-08-01,合併による解散等,8120001136047,令和７年７月１日大阪市北区堂島二丁目１番３１号株式会社ＪＦＤエンジニアリング（8120001136047）に合併し解散,2015-10-05,1,,,,,シリウス,0
323,2011802005555,登記記録の閉鎖等,0,2025-08-05,2025-08-01,有限会社常磐産業,,有限会社,東京都,葛飾区,東水元６丁目２番４号,,13,122,1250033,,,2025-08-01,清算の結了等,,,2015-10-05,1,,,,,ジョウバンサンギョウ,0
336,2020001095069,登記記録の閉鎖等,0,2025-08-05,2025-07-22,株式会社ダイアローグ,,株式会社,神奈川県,横浜市戸塚区,上矢部町７４８番地５２,,14,110,2450053,,,2025-07-22,清算の結了等,,,2015-10-05,1,,,,,ダイアローグ,0
340,2020001152670,登記記録の閉鎖等,0,2025-08-05,2025-07-31,株式会社クリエイト,,株式会社,神奈川県,横浜市西区,北幸２丁目１０番地２８むつみビル３Ｆ,,14,103,2200004,,,2025-07-31,合併による解散等,6010401173553,令和７年７月１日東京都渋谷区恵比寿四丁目２２番１０号８階株式会社Ｅｓｓｅｎｃｅ　Ｇｒｏｕｐ（6010401173553）に合併し解散,2023-07-31,1,,,,,クリエイト,0
374,2060001001551,登記記録の閉鎖等,0,2025-08-05,2025-07-24,株式会社ケイデイエス,,株式会社,栃木県,宇都宮市,今宮４丁目５番３６号,,09,201,3210166,,,2025-07-24,清算の結了等,,,2015-10-05,1,,,,,ケイデイエス,0
380,2080001014279,登記記録の閉鎖等,0,2025-08-05,2025-07-28,株式会社アトラス建設,,株式会社,静岡県,島田市,島６６２番地の２,,22,209,4280007,,,2025-07-28,清算の結了等,,,2015-10-05,1,,,,,アトラスケンセツ,0
392,2110001003245,登記記録の閉鎖等,0,2025-08-05,2025-07-14,玉木商事株式会社,,株式会社,新潟県,新潟市中央区,東大畑通２番町４８８番地,,15,103,9518106,,,2025-07-14,清算の結了等,,,2015-10-05,1,,,,,タマキショウジ,0
393,2110001023929,登記記録の閉鎖等,0,2025-08-05,2025-07-31,株式会社ソフトリー,,株式会社,新潟県,長岡市,曲新町６８７－４,,15,202,9401103,,,2025-07-31,合併による解散等,1130001050294,令和７年７月１日東京都千代田区大手町１－１－２大手門タワーなぎさアセットマネジメント株式会社（1130001050294）に合併し解散,2015-10-05,1,,,,,ソフトリー,0
399,2120001171000,登記記録の閉鎖等,0,2025-08-05,2025-07-14,アクロスワールド株式会社,,株式会社,大阪府,大阪市西区,西本町１丁目４番１号,,27,106,5500005,,,2025-07-14,清算の結了等,,,2015-10-05,1,,,,,アクロスワールド,0
449,2190005006451,登記記録の閉鎖等,0,2025-08-05,2025-07-18,特定非営利活動法人お花畑,,その他の設立登記法人,三重県,伊賀市,朝屋７８０番地,,24,216,5180032,,,2025-07-18,清算の結了等,,,2015-10-05,1,,,,,オハナバタケ,0
483,2330001002357,登記記録の閉鎖等,0,2025-08-05,2025-07-15,株式会社昭成工業,,株式会社,熊本県,熊本市南区,内田町１３９７番地３,,43,104,8614127,,,2025-07-15,清算の結了等,,,2015-10-05,1,,,,,ショウセイコウギョウ,0
486,2330005001339,登記記録の閉鎖等,0,2025-08-05,2025-07-14,医療法人英会,,その他の設立登記法人,熊本県,熊本市南区,田迎４丁目７番２３号,,43,104,8620962,,,2025-07-14,清算の結了等,,,2015-10-05,1,,,,,ハナブサカイ,0
488,2340001018105,登記記録の閉鎖等,0,2025-08-05,2025-07-01,ＬＩＮＫＳ株式会社,,株式会社,鹿児島県,鹿屋市,下祓川町１８５６番地３,,46,203,8930024,,,2025-07-01,合併による解散等,9340001024690,令和７年７月１日鹿児島県鹿屋市下高隈町４６４８番地２５株式会社ＡＫＡＨＩＤＡ（9340001024690）に合併し解散,2015-10-05,1,,,,,リンクス,0
489,2340002025323,登記記録の閉鎖等,0,2025-08-05,2025-07-16,有限会社キク,,有限会社,鹿児島県,肝属郡肝付町,新富１５番地,,46,492,8931207,,,2025-07-16,清算の結了等,,,2015-10-05,1,,,,,キク,0
498,2360005001666,登記記録の閉鎖等,0,2025-08-05,2025-07-15,特定非営利活動法人ワーカーズコープ沖縄,,その他の設立登記法人,沖縄県,那覇市,首里石嶺町２丁目１４３番地５号,,47,201,9030804,,,2025-07-15,清算の結了等,,,2015-10-05,1,,,,,ワーカーズコープオキナワ,0
502,2370005002779,登記記録の閉鎖等,0,2025-08-05,2025-06-10,天理教名東北分教会,,その他の設立登記法人,宮城県,黒川郡大和町,吉岡字石神沢３５番地の２,,04,421,9813621,,,2025-06-10,合併による解散等,5370205001545,令和７年６月１０日宮城県栗原市高清水佐野丁２４番地の１天理教高清水分教会（5370205001545）に合併し解散,2015-10-05,1,,,,,テンリキョウメイトウホクブンキョウカイ,0
507,2380002031788,登記記録の閉鎖等,0,2025-08-05,2025-07-22,有限会社小柴漆器店,,有限会社,福島県,会津若松市,馬場町５番４３号,,07,202,9650035,,,2025-07-22,清算の結了等,,,2015-10-05,1,,,,,コシバシッキテン,0
508,2390003000428,登記記録の閉鎖等,0,2025-08-05,2025-07-23,合同会社酒木製凾所,,合同会社,山形県,飽海郡遊佐町,杉沢字嶽ノ腰３６６番地の２,,06,461,9998313,,,2025-07-23,清算の結了等,,,2015-10-05,1,,,,,サカモクセイカンジョ,0
520,2480001007770,登記記録の閉鎖等,0,2025-08-05,2025-07-31,株式会社村上興業,,株式会社,徳島県,美馬市,穴吹町三島字舞中島１４１１番地４,,36,207,7770002,,,2025-07-31,清算の結了等,,,2015-10-05,1,,,,,ムラカミコウギョウ,0
524,2490005005431,登記記録の閉鎖等,0,2025-08-05,2025-08-01,医療法人濱宇津会,,その他の設立登記法人,高知県,安芸郡田野町,２１４５番地１,,39,303,7816410,,,2025-08-01,清算の結了等,,,2015-10-05,1,,,,,ハマウヅカイ,0
533,2500005008408,登記記録の閉鎖等,0,2025-08-05,2025-07-24,一般社団法人世界絶対平和萬歳の鐘,,その他の設立登記法人,愛媛県,宇和島市,元結掛２丁目５番６号,,38,203,7980072,,,2025-07-24,清算の結了等,,,2021-08-18,1,,,,,セカイゼッタイヘイワバンザイノカネ,0
534,2700150029551,登記記録の閉鎖等,0,2025-08-05,2025-03-31,兵庫県薬剤師会　但馬支部,,その他,兵庫県,豊岡市,千代田町１１－３３共栄ビル３Ｆ,,28,209,6680032,,,2025-03-31,その他の清算の結了等,,,2015-10-09,1,,,,,ヒヨウゴケンヤクザイシカイタジマシブ,0
560,3010601032280,登記記録の閉鎖等,0,2025-08-05,2025-07-24,ＰＲＩエンジニアリング株式会社,,株式会社,東京都,江東区,佐賀１丁目９番７号,,13,108,1350031,,,2025-07-24,清算の結了等,,,2015-10-05,1,,,,,ピーアールアイエンジニアリング,0
593,3011802007237,登記記録の閉鎖等,0,2025-08-05,2025-07-31,有限会社松実屋商店,,有限会社,東京都,葛飾区,立石１丁目１２番７号,,13,122,1240012,,,2025-07-31,清算の結了等,,,2015-10-05,1,,,,,マツミヤショウテン,0
594,3012301008486,登記記録の閉鎖等,0,2025-08-05,2025-07-15,五葉電機株式会社,,株式会社,神奈川県,横浜市中区,初音町１丁目２３番地１アドリーム横浜初音４０８,,14,104,2310053,,,2025-07-15,清算の結了等,,,2015-10-05,1,,,,,ゴヨウデンキ,0
610,3020001124017,登記記録の閉鎖等,0,2025-08-05,2025-07-17,株式会社Ｄ’ｓ　Ｔｒａｄｉｎｇ　ｃｏｍｐａｎｙ,,株式会社,神奈川県,横浜市南区,南吉田町１丁目１４番５号,,14,105,2320012,,,2025-07-17,清算の結了等,,,2017-11-28,1,,,,,ディーズトレーディングカンパニー,0
613,3020002009431,登記記録の閉鎖等,0,2025-08-05,2025-07-22,有限会社岡本商店,,有限会社,神奈川県,横浜市磯子区,杉田２丁目１番１号,,14,107,2350033,,,2025-07-22,清算の結了等,,,2015-10-05,1,,,,,オカモトショウテン,0
614,3020002036335,登記記録の閉鎖等,0,2025-08-05,2025-07-18,有限会社山正,,有限会社,神奈川県,横浜市港北区,小机町３６９番地１小机パークスクエアＭ棟３０４号,,14,109,2220036,,,2025-07-18,清算の結了等,,,2015-10-05,1,,,,,ヤマショウ,0
615,3020002092295,登記記録の閉鎖等,0,2025-08-05,2025-07-22,有限会社幸商事,,有限会社,神奈川県,川崎市多摩区,西生田３丁目９番２４号,,14,135,2140037,,,2025-07-22,清算の結了等,,,2015-10-05,1,,,,,ミユキショウジ,0
635,3030002088648,登記記録の閉鎖等,0,2025-08-05,2025-07-29,有限会社ロック,,有限会社,埼玉県,越谷市,大字上間久里１５６番地５,,11,222,3430043,,,2025-07-29,清算の結了等,,,2015-10-05,1,,,,,ロック,0
636,3030005021291,登記記録の閉鎖等,0,2025-08-05,2025-07-29,一般社団法人未来システム研究所,,その他の設立登記法人,埼玉県,草加市,松原５丁目３番８－８０１号,,11,221,3400041,,,2025-07-29,清算の結了等,,,2023-06-13,1,,,,,ミライシステムケンキュウジョ,0
643,3040002015312,登記記録の閉鎖等,0,2025-08-05,2025-07-14,有限会社スカイライフ,,有限会社,千葉県,千葉市中央区,松波２丁目１番８号安田ビル２０１号,,12,101,2600044,,,2025-07-14,清算の結了等,,,2015-10-05,1,,,,,スカイライフ,0
647,3040005021778,登記記録の閉鎖等,0,2025-08-05,2025-07-08,西船橋住宅管理組合法人,,その他の設立登記法人,千葉県,船橋市,山野町１０３番地１,,12,204,2730026,,,2025-07-08,清算の結了等,,,2022-10-18,1,,,,,ニシフナバシジュウタク,0
650,3060001008001,登記記録の閉鎖等,0,2025-08-05,2025-07-22,株式会社高伸,,株式会社,栃木県,宇都宮市,下砥上町７７番地１,,09,201,3200852,,,2025-07-22,清算の結了等,,,2015-10-05,1,,,,,コウシン,0
661,3080002016892,登記記録の閉鎖等,0,2025-08-05,2025-07-24,有限会社晃芸印刷,,有限会社,静岡県,焼津市,小柳津３８５番地の５,,22,212,4250073,,,2025-07-24,清算の結了等,,,2015-10-05,1,,,,,コウゲイインサツ,0
670,3100005012944,登記記録の閉鎖等,0,2025-08-05,2025-07-30,特定非営利活動法人湯の原交流会,,その他の設立登記法人,長野県,松本市,大字里山辺２０４番地３,,20,202,3900221,,,2025-07-30,清算の結了等,,,2022-11-24,1,,,,,ユノハラコウリュウカイ,0
691,3120002034378,登記記録の閉鎖等,0,2025-08-05,2025-07-23,有限会社ウサミアートスタジオ,,有限会社,大阪府,大阪市中央区,十二軒町６番２８サニーハウス谷町５０１,,27,128,5400015,,,2025-07-23,清算の結了等,,,2015-10-05,1,,,,,,0
692,3120002067915,登記記録の閉鎖等,0,2025-08-05,2025-07-31,有限会社ＰＢＭ,,有限会社,東京都,北区,王子３丁目２１番３号,,13,117,1140002,,,2025-07-31,清算の結了等,,,2015-10-05,1,,,,,ピービーエム,0
698,3120901044023,登記記録の閉鎖等,0,2025-08-05,2025-08-01,京阪事務機器株式会社,,株式会社,大阪府,高槻市,南平台５丁目４番１８号,,27,207,5691042,,,2025-08-01,合併による解散等,6140001114837,令和７年６月１７日京都府京都市中京区壬生坊城町１番地の１グリッド株式会社（6140001114837）に合併し解散,2021-03-11,1,,,,,ケイハンジムキキ,0
699,3122001001904,登記記録の閉鎖等,0,2025-08-05,2025-07-31,株式会社ギルド,,株式会社,大阪府,東大阪市,楠根１丁目３番３５号,,27,227,5770006,,,2025-07-31,清算の結了等,,,2015-10-05,1,,,,,ギルド,0
726,3170002010291,登記記録の閉鎖等,0,2025-08-05,2025-07-31,有限会社辻井,00045637,有限会社,和歌山県,日高郡印南町,大字島田２１７１番地の２,,30,390,6491527,,,2025-07-31,清算の結了等,,,2015-10-05,1,,,,,ツジイ,0
729,3180001134529,登記記録の閉鎖等,0,2025-08-05,2025-07-10,株式会社ライフリズム,,株式会社,愛知県,名古屋市天白区,平針台１丁目１０５番地の１,,23,116,4680030,,,2025-07-10,清算の結了等,,,2018-11-22,1,,,,,ライフリズム,0
740,3200002008134,登記記録の閉鎖等,0,2025-08-05,2025-07-29,有限会社プランニング,,有限会社,岐阜県,各務原市,鵜沼南町４丁目１９８番地,,21,213,5090125,,,2025-07-29,清算の結了等,,,2015-10-05,1,,,,,プランニング,0
743,3210003001657,登記記録の閉鎖等,0,2025-08-05,2025-07-29,合同会社ＧＮＰＯＲＴ,,合同会社,福井県,福井市,新田塚２丁目１４２番２０号,,18,201,9100067,,,2025-07-29,清算の結了等,,,2023-06-06,1,,,,,ジーエヌポート,0
747,3240001022421,登記記録の閉鎖等,0,2025-08-05,2025-07-30,株式会社エイチアールイー,,株式会社,広島県,東広島市,豊栄町清武２９２４番地の１,,34,212,7392313,,,2025-07-30,清算の結了等,,,2015-10-05,1,,,,,エイチアールイー,0
755,3270003001536,登記記録の閉鎖等,0,2025-08-05,2025-07-31,合同会社Ｓ・サポート,,合同会社,鳥取県,米子市,新開７丁目１３番４５号,,31,202,6830801,,,2025-07-31,清算の結了等,,,2023-07-06,1,,,,,エスサポート,0
767,3290805004197,登記記録の閉鎖等,0,2025-08-05,2025-08-01,医療法人そらだ小児歯科医院,,その他の設立登記法人,福岡県,北九州市八幡西区,大浦１丁目５番１５号,,40,109,8070874,,,2025-08-01,清算の結了等,,,2015-10-05,1,,,,,ソラダショウニシカイイン,0
785,3360001022632,登記記録の閉鎖等,0,2025-08-05,2025-07-17,株式会社アクア釣具,,株式会社,沖縄県,那覇市,曙３丁目１１番１号マンションセンチュリーシティー１Ｆ,,47,201,9000002,,,2025-07-17,清算の結了等,,,2017-07-13,1,,,,,アクアツリグ,0
794,3430001088906,登記記録の閉鎖等,0,2025-08-05,2025-08-01,株式会社ルイシスさっぽろ,,株式会社,北海道,札幌市中央区,南十五条西１５丁目２番８－４０３号,,01,101,0640915,,,2025-08-01,清算の結了等,,,2023-04-13,1,,,,,ルイシスサッポロ,0
803,3500001017568,登記記録の閉鎖等,0,2025-08-05,2025-07-31,未来設計株式会社,,株式会社,愛媛県,松山市,来住町１６０番地５,,38,201,7911102,,,2025-07-31,清算の結了等,,,2015-10-05,1,,,,,,0
807,3700150053220,登記記録の閉鎖等,0,2025-08-05,2025-03-31,豊田前地域ふれあいセンター運営協議会,,その他,山口県,美祢市,豊田前町麻生下テクノ１０－６,,35,213,7500602,,,2025-03-31,その他の清算の結了等,,,2015-10-09,1,,,,,トヨタマエチイキフレアイセンターウンエイキヨウギカイ,0
831,4010102002006,登記記録の閉鎖等,0,2025-08-05,2025-07-31,有限会社かわ邑,,有限会社,東京都,八王子市,三崎町５番２２号シフォス・イーケー７階,,13,201,1920084,,,2025-07-31,清算の結了等,,,2015-10-05,1,,,,,カワムラ,0
857,4010903002526,登記記録の閉鎖等,0,2025-08-05,2025-08-01,合同会社ブレインズ,,合同会社,東京都,世田谷区,北沢２丁目２６番９号,,13,112,1550031,,,2025-08-01,清算の結了等,,,2015-10-05,1,,,,,,0
883,4012401003989,登記記録の閉鎖等,0,2025-08-05,2025-07-15,株式会社藤田電氣商会,,株式会社,東京都,国立市,北３丁目４０番の３,,13,215,1860001,,,2025-07-15,清算の結了等,,,2015-10-05,1,,,,,フジタデンキショウカイ,0
889,4020001022566,登記記録の閉鎖等,0,2025-08-05,2025-07-22,株式会社おりづる,,株式会社,神奈川県,横浜市神奈川区,栄町１１番地の２６,,14,102,2210052,,,2025-07-22,清算の結了等,,,2015-10-05,1,,,,,オリヅル,0
911,4030001135160,登記記録の閉鎖等,0,2025-08-05,2025-07-30,株式会社サザンリーブス,,株式会社,埼玉県,川口市,西青木１丁目２１番２号,,11,203,3320035,,,2025-07-30,清算の結了等,,,2020-02-14,1,,,,,サザンリーブス,0
916,4030005018089,登記記録の閉鎖等,0,2025-08-05,2025-07-29,スカイテラス１街区団地管理組合法人,,その他の設立登記法人,埼玉県,狭山市,入間川１丁目３番２号商業施設棟管理事務所,,11,215,3501305,,,2025-07-29,清算の結了等,,,2016-08-15,1,,,,,スカイテラスイチガイク,0
928,4050002013413,登記記録の閉鎖等,0,2025-08-05,2025-07-23,有限会社ＧＰＧＬ,,有限会社,茨城県,かすみがうら市,大和田６２６番地の８,,08,230,3000124,,,2025-07-23,清算の結了等,,,2015-10-05,1,,,,,ジーピージーエル,0
948,4100001010851,登記記録の閉鎖等,0,2025-08-05,2025-07-31,株式会社トーテック,,株式会社,長野県,東御市,加沢４５７番地２,,20,219,3890514,,,2025-07-31,清算の結了等,,,2015-10-05,1,,,,,トーテック,0
951,4110001026797,登記記録の閉鎖等,0,2025-08-05,2025-07-31,株式会社大湯ホテル,,株式会社,新潟県,魚沼市,大湯温泉２９９番地,,15,225,9460088,,,2025-07-31,合併による解散等,8011101032485,令和７年７月１日東京都新宿区若松町９番１２号株式会社ショウ・コーポレーション（8011101032485）に合併し解散,2015-10-05,1,,,,,オオユホテル,0
952,4110002002780,登記記録の閉鎖等,0,2025-08-05,2025-07-31,有限会社さくら調剤薬局,,有限会社,新潟県,新潟市東区,粟山３丁目１番８号,,15,102,9500843,,,2025-07-31,合併による解散等,1130001050294,令和７年７月１日東京都千代田区大手町１－１－２大手門タワーなぎさアセットマネジメント株式会社（1130001050294）に合併し解散,2015-10-05,1,,,,,サクラチョウザイヤッキョク,0
953,4110002008919,登記記録の閉鎖等,0,2025-08-05,2025-07-18,有限会社かわさき,,有限会社,新潟県,新潟市北区,島見町字下往来１８５番地１,,15,101,9503102,,,2025-07-18,清算の結了等,,,2015-10-05,1,,,,,,0
954,4120001126729,登記記録の閉鎖等,0,2025-08-05,2025-07-28,株式会社よしもとアドミニストレーション,,株式会社,大阪府,大阪市中央区,難波千日前１１番６号,,27,128,5420075,,,2025-07-28,合併による解散等,5120001126728,令和７年７月１日大阪市中央区難波千日前１１番６号株式会社よしもとアドミニストレーション（5120001126728）に合併し解散,2015-10-05,1,,,,,ヨシモトアドミニストレーション,0
955,4120001153946,登記記録の閉鎖等,0,2025-08-05,2025-07-11,株式会社笑顔,,株式会社,大阪府,枚方市,中宮西之町５番１０－１０１号,,27,210,5730021,,,2025-07-11,清算の結了等,,,2015-10-05,1,,,,,エガオ,0
986,4130001072492,登記記録の閉鎖等,0,2025-08-05,2025-07-15,エーケーワーク株式会社,,株式会社,京都府,京丹後市,大宮町口大野１９６７番地の５,,26,212,6292501,,,2025-07-15,清算の結了等,,,2022-08-24,1,,,,,エーケーワーク,0
1015,4180001162264,登記記録の閉鎖等,0,2025-08-05,2025-07-10,エイシンテック株式会社,,株式会社,愛知県,津島市,立込町３丁目２６番地２,,23,208,4960044,,,2025-07-10,清算の結了等,,,2024-07-12,1,,,,,エイシンテック,0
1025,4210001004479,登記記録の閉鎖等,0,2025-08-05,2025-07-30,渡辺縫工株式会社,,株式会社,福井県,福井市,宝永１丁目１１番１０号,,18,201,9100004,,,2025-07-30,清算の結了等,,,2015-10-05,1,,,,,ワタナベホウコウ,0
1044,4260001016461,登記記録の閉鎖等,0,2025-08-05,2025-07-08,株式会社ジョイマートたかた,,株式会社,岡山県,倉敷市,真備町尾崎１９５０番地１,,33,202,7101304,,,2025-07-08,清算の結了等,,,2015-10-05,1,,,,,ジョイマートタカタ,0
1046,4280001009447,登記記録の閉鎖等,0,2025-08-05,2025-08-01,株式会社宗家竹風軒,,株式会社,島根県,鹿足郡津和野町,後田ロ６０番地２１,,32,501,6995605,,,2025-08-01,清算の結了等,,,2025-07-03,1,,,,,ソウケチクフウケン,0
1047,4280002010321,登記記録の閉鎖等,0,2025-08-05,2025-08-01,有限会社又賀商店,,有限会社,島根県,益田市,西平原町５４９番地１,,32,204,6993506,,,2025-08-01,清算の結了等,,,2015-10-05,1,,,,,マタカショウテン,0
1060,4320002021388,登記記録の閉鎖等,0,2025-08-05,2025-07-23,有限会社ケイ建築デザイン,,有限会社,大分県,中津市,大字定留８１２番地,,44,203,8790122,,,2025-07-23,清算の結了等,,,2015-10-05,1,,,,,,0
1073,4360003014131,登記記録の閉鎖等,0,2025-08-05,2025-07-16,ＮＯＶＡＣ合同会社,,合同会社,沖縄県,那覇市,牧志２丁目１７番２７号４０１,,47,201,9000013,,,2025-07-16,清算の結了等,,,2024-07-05,1,,,,,ノバック,0
1076,4380001033552,登記記録の閉鎖等,0,2025-08-05,2025-07-01,株式会社野辺商店,,株式会社,福島県,喜多方市,塩川町字東栄町二丁目１番地４,,07,208,9693512,,,2025-07-01,合併による解散等,8380001018509,令和７年７月１日福島県河沼郡会津坂下町字北逆水甲１０３８番地株式会社小林商店（8380001018509）に合併し解散,2023-03-15,1,,,,,ノベショウテン,0
1080,4430003001584,登記記録の閉鎖等,0,2025-08-05,2025-07-14,合同会社ドミノトラスト,,合同会社,北海道,札幌市東区,北三十三条東１５丁目２番６号,,01,103,0650033,,,2025-07-14,清算の結了等,,,2015-10-05,1,,,,,ドミノトラスト,0
1082,4450001002302,登記記録の閉鎖等,0,2025-08-05,2025-07-31,株式会社西村建築設備設計事務所,,株式会社,北海道,旭川市,春光七条５丁目４番２１号,,01,204,0700877,,,2025-07-31,清算の結了等,,,2015-10-05,1,,,,,ニシムラケンチクセッケイジムショ,0
1090,4700150013347,登記記録の閉鎖等,0,2025-08-05,2025-03-31,鶴見交通安全協会,,その他,神奈川県,横浜市鶴見区,鶴見中央４丁目３３－９鶴見警察署内,,14,101,2300051,,,2025-03-31,その他の清算の結了等,,,2015-10-09,1,,,,,ツルミコウツウアンゼンキヨウカイ,0
1128,5011001162922,登記記録の閉鎖等,0,2025-08-05,2025-07-01,株式会社ｔｒｅｖｅｒ,,株式会社,東京都,渋谷区,恵比寿西２丁目４番８号ウィンド恵比寿ビル８階,,13,113,1500021,,,2025-07-01,合併による解散等,8011001148068,令和７年７月１日東京都渋谷区神南一丁目６番３号パシフィックマークス渋谷公園通４階株式会社ＪＩＮＮ（8011001148068）に合併し解散,2024-06-25,1,,,,,トレバー,0
1131,5011101010460,登記記録の閉鎖等,0,2025-08-05,2025-07-07,株式会社菅原経営開発研究所,,株式会社,東京都,新宿区,新宿１丁目１７番２号,,13,104,1600022,,,2025-07-07,清算の結了等,,,2015-10-05,1,,,,,スガワラケイエイカイハツケンキュウジョ,0
1152,5013201019101,登記記録の閉鎖等,0,2025-08-05,2025-07-22,Ｃａｌ　ｄｅｓｉｇｎ株式会社,,株式会社,神奈川県,川崎市麻生区,栗木台４丁目１０番１４号,,14,137,2150032,,,2025-07-22,清算の結了等,,,2015-10-05,1,,,,,キャルデザイン,0
1160,5013302007153,登記記録の閉鎖等,0,2025-08-05,2025-07-17,有限会社都市企画,,有限会社,東京都,豊島区,南池袋１丁目２３番２号,,13,116,1710022,,,2025-07-17,清算の結了等,,,2015-10-05,1,,,,,トシキカク,0
1173,5020002087450,登記記録の閉鎖等,0,2025-08-05,2025-07-22,有限会社船山工務店,,有限会社,神奈川県,川崎市宮前区,菅生ケ丘３４番１－３０４号,,14,136,2160014,,,2025-07-22,清算の結了等,,,2015-10-05,1,,,,,フナヤマコウムテン,0
1184,5030002047040,登記記録の閉鎖等,0,2025-08-05,2025-07-29,有限会社桜庭商店,,有限会社,埼玉県,八潮市,大字南後谷３８番地４,,11,234,3400831,,,2025-07-29,清算の結了等,,,2015-10-05,1,,,,,サクラバショウテン,0
1186,5030005018088,登記記録の閉鎖等,0,2025-08-05,2025-07-29,スカイテラス商業施設棟管理組合法人,,その他の設立登記法人,埼玉県,狭山市,入間川１丁目３番２号商業施設棟管理事務所,,11,215,3501305,,,2025-07-29,清算の結了等,,,2016-08-15,1,,,,,スカイテラスショウギョウシセツトウ,0
1198,5040005003964,登記記録の閉鎖等,0,2025-08-05,2025-07-10,医療法人社団宏成医院,,その他の設立登記法人,千葉県,市川市,新田４丁目２番６号,,12,203,2720035,,,2025-07-10,清算の結了等,,,2015-10-05,1,,,,,コウセイイイン,0
1207,5070002028581,登記記録の閉鎖等,0,2025-08-05,2025-07-29,有限会社小俣製作所,,有限会社,群馬県,邑楽郡邑楽町,大字中野２６２９番地の２,,10,525,3700603,,,2025-07-29,清算の結了等,,,2015-10-05,1,,,,,オマタセイサクショ,0
1209,5080001005184,登記記録の閉鎖等,0,2025-08-05,2025-07-24,株式会社武藤,,株式会社,静岡県,静岡市駿河区,池田１７８８番地の１０,,22,102,4228005,,,2025-07-24,清算の結了等,,,2015-10-05,1,,,,,ムトウ,0
1210,5080001012049,登記記録の閉鎖等,0,2025-08-05,2025-07-28,株式会社芹が谷堂,,株式会社,静岡県,静岡市駿河区,丸子芹が谷町３番１２号,,22,102,4210104,,,2025-07-28,清算の結了等,,,2015-10-05,1,,,,,セリガヤドウ,0
1222,5120001079488,登記記録の閉鎖等,0,2025-08-05,2025-08-01,株式会社寿建築積算事務所,,株式会社,大阪府,大阪市中央区,東心斎橋１丁目１６番２９号,,27,128,5420083,,,2025-08-01,清算の結了等,,,2015-10-05,1,,,,,コトブキケンチクセキサンジムショ,0
1255,5130001057451,登記記録の閉鎖等,0,2025-08-05,2025-07-22,株式会社八百重,,株式会社,京都府,京都市南区,東九条南河辺町５９－５０１号,,26,107,6018034,,,2025-07-22,清算の結了等,,,2016-05-17,1,,,,,ヤオジュウ,0
1256,5130001069018,登記記録の閉鎖等,0,2025-08-05,2025-07-28,株式会社浅田工業,,株式会社,京都府,京都市西京区,樫原下池田町１５番地１２,,26,111,6158173,,,2025-07-28,合併による解散等,3130001015469,令和７年７月２６日京都市南区吉祥院嶋出在家町１２番地株式会社日野（3130001015469）に合併し解散,2021-04-07,1,,,,,アサダコウギョウ,0
1266,5140001123062,登記記録の閉鎖等,0,2025-08-05,2025-07-30,株式会社ＳＨＧ．セレクトン神戸三田,,株式会社,兵庫県,三田市,けやき台１丁目１１番地,,28,219,6691321,,,2025-07-30,合併による解散等,9010001136131,令和７年７月１日東京都千代田区九段北一丁目１３番５号ヒューリック九段ビル１２Ｆ株式会社エフ・イー・ティーシステム（9010001136131）に合併し解散,2021-09-16,1,,,,,エスエイチジーセレクトンコウベサンダ,0
1273,5140003020282,登記記録の閉鎖等,0,2025-08-05,2025-06-24,Ｗ．Ｂ合同会社,,合同会社,兵庫県,神戸市兵庫区,新開地３丁目３－１１－４０７,,28,105,6520811,,,2025-06-24,清算の結了等,,,2024-03-18,1,,,,,ダブルビー,0
1277,5160001019250,登記記録の閉鎖等,0,2025-08-05,2025-07-28,株式会社オウル・イノベーション,,株式会社,滋賀県,草津市,笠山３丁目２番３１号,,25,206,5250072,,,2025-07-28,清算の結了等,,,2016-01-20,1,,,,,,0
1290,5200005001456,登記記録の閉鎖等,0,2025-08-05,2025-06-30,医療法人藤聖会,00077271,その他の設立登記法人,岐阜県,岐阜市,芥見長山３丁目９４番地２,,21,201,5013132,,,2025-06-30,合併による解散等,9180005006900,令和７年６月２０日名古屋市西区新道一丁目２１番５号４階医療法人光煌会（9180005006900）に合併し解散,2015-10-05,1,,,,,トウセイカイ,0
1293,5220001018725,登記記録の閉鎖等,0,2025-08-05,2025-08-01,株式会社陽光,,株式会社,石川県,金沢市,西念４丁目２４番２６号,,17,201,9200024,,,2025-08-01,合併による解散等,5220001010608,令和７年８月１日石川県金沢市高岡町１０番１号常磐株式会社（5220001010608）に合併し解散,2015-10-05,1,,,,,ヨウコウ,0
1300,5230001015481,登記記録の閉鎖等,0,2025-08-05,2025-07-31,株式会社ＲＥＳＣＵＥ３１０,,株式会社,富山県,富山市,境野新６２番地５,,16,201,9300153,,,2025-07-31,清算の結了等,,,2015-10-05,1,,,,,レスキューサンイチマル,0
1363,5700150084016,登記記録の閉鎖等,0,2025-08-05,2025-02-27,気仙土地改良区,,その他,岩手県,陸前高田市,横田町字狩集２－３,,03,210,0292202,,,2025-02-27,その他の清算の結了等,,,2017-06-16,1,,,,,ケセントチカイリヨウク,0
1364,5700150101654,登記記録の閉鎖等,0,2025-08-05,2025-03-31,夢農場野菜クラブ,,その他,福岡県,福津市,久末１９４番地,,40,224,8113206,,,2025-03-31,その他の清算の結了等,,,2021-01-14,1,,,,,ユメノウジヨウヤサイクラブ,0
1365,5700150104814,登記記録の閉鎖等,0,2025-08-05,2025-02-28,グッチーズ・フリースクール,,その他,埼玉県,川越市,岸町１丁目２５－５３増田第２ハイツ３０１,,11,201,3501131,,,2025-02-28,その他の清算の結了等,,,2021-09-21,1,,,,,グツチーズフリースクール,0
1374,6010001251858,登記記録の閉鎖等,0,2025-08-05,2025-07-04,株式会社Ｅｎｇｏｏｎ,,株式会社,東京都,千代田区,五番町６番地２,,13,101,1020076,,,2025-07-04,清算の結了等,,,2025-01-29,1,,,,,エングーン,0
1411,6011001041588,登記記録の閉鎖等,0,2025-08-05,2025-07-04,株式会社山本総合コンサルティングオフィス,,株式会社,東京都,渋谷区,代々木２丁目２３番１号ニュー・ステイト・メナー２３７,,13,113,1510053,,,2025-07-04,清算の結了等,,,2015-10-05,1,,,,,ヤマモトソウゴウコンサルティングオフィス,0
1438,6011802018173,登記記録の閉鎖等,0,2025-08-05,2025-07-31,有限会社プリテック,,有限会社,東京都,足立区,神明南２丁目１３番２０号,,13,121,1210057,,,2025-07-31,清算の結了等,,,2015-10-05,1,,,,,プリテック,0
1442,6012402013861,登記記録の閉鎖等,0,2025-08-05,2025-07-24,有限会社遊輪房,,有限会社,東京都,狛江市,岩戸南１丁目２番４号,,13,219,2010005,,,2025-07-24,清算の結了等,,,2015-10-05,1,,,,,ユウリンボウ,0
1444,6012705002289,登記記録の閉鎖等,0,2025-08-05,2025-07-28,一般社団法人喜風采栄養管理健康サポート協会,,その他の設立登記法人,東京都,東村山市,秋津町５丁目３０番地１－８０４号,,13,213,1890001,,,2025-07-28,清算の結了等,,,2022-02-01,1,,,,,キフネエイヨウカンリケンコウサポートキョウカイ,0
1445,6013101006198,登記記録の閉鎖等,0,2025-08-05,2025-08-01,株式会社ＢＩＴＳ,,株式会社,東京都,西多摩郡檜原村,３０８９番地,,13,307,1900200,,,2025-08-01,清算の結了等,,,2015-10-05,1,,,,,,0
1458,6020001153500,登記記録の閉鎖等,0,2025-08-05,2025-07-22,株式会社楠,,株式会社,神奈川県,横浜市西区,北幸１丁目１１番１号水信ビル７階,,14,103,2200004,,,2025-07-22,清算の結了等,,,2023-09-13,1,,,,,クスノキ,0
1469,6021001082433,登記記録の閉鎖等,0,2025-08-05,2025-07-30,株式会社ＨＡＲＵエネジー,,株式会社,神奈川県,横須賀市,上町２丁目１７番地メゾン藤屋５０２,,14,201,2380017,,,2025-07-30,合併による解散等,3010001219189,令和７年７月１日東京都千代田区九段南一丁目５番６号りそな九段ビル５階ＫＳフロアＳｋｙ　Ｅｌｅｃｔｒｉｃ　Ｊａｐａｎ株式会社（3010001219189）に合併し解散,2024-06-07,1,,,,,ハルエネジー,0
1472,6030001065760,登記記録の閉鎖等,0,2025-08-05,2025-07-29,ミナト化学工業所株式会社,,株式会社,埼玉県,吉川市,大字中井字小松川１４番地１,,11,243,3420015,,,2025-07-29,清算の結了等,,,2015-10-05,1,,,,,ミナトカガクコウギョウショ,0
1479,6040003023856,登記記録の閉鎖等,0,2025-08-05,2025-06-02,合同会社ＴＯＫＩＷＡ,,合同会社,千葉県,松戸市,常盤平６丁目３番地８,,12,207,2702261,,,2025-06-02,合併による解散等,7040001092571,令和７年６月１日千葉県松戸市六高台二丁目２４番地株式会社エイト（7040001092571）に合併し解散,2023-12-06,1,,,,,トキワ,0
1490,6080102021154,登記記録の閉鎖等,0,2025-08-05,2025-07-29,有限会社増田興業,,有限会社,静岡県,下田市,柿崎１０番２０号,,22,219,4150013,,,2025-07-29,清算の結了等,,,2015-10-05,1,,,,,マスダコウギョウ,0
1498,6100001022713,登記記録の閉鎖等,0,2025-08-05,2025-07-31,風越印刷株式会社,,株式会社,長野県,飯田市,鼎下茶屋２０２７番地,,20,205,3950802,,,2025-07-31,清算の結了等,,,2015-10-05,1,,,,,フウエツインサツ,0
1502,6100003005988,登記記録の閉鎖等,0,2025-08-05,2025-07-31,合同会社Ｓｎｏｗ　Ｐａｌａｃｅ　Ｎｏｚａｗａ,,合同会社,長野県,下高井郡野沢温泉村,大字豊郷４４２４－２,,20,563,3892502,,,2025-07-31,清算の結了等,,,2021-02-26,1,,,,,スノーパレスノザワ,0
1503,6110001012911,登記記録の閉鎖等,0,2025-08-05,2025-07-14,株式会社本間建材,,株式会社,新潟県,新発田市,島潟１１３２番地１,,15,206,9570011,,,2025-07-14,清算の結了等,,,2015-10-05,1,,,,,ホンマケンザイ,0
1540,6130005015504,登記記録の閉鎖等,0,2025-08-05,2025-07-18,一般社団法人日本信託承継ネットワーク,,その他の設立登記法人,京都府,京都市下京区,烏丸通四条下る水銀屋町６２０番地ＣＯＣＯＮ烏丸５階アイネックス税理士法人内,,26,106,6008411,,,2025-07-18,清算の結了等,,,2019-02-07,1,,,,,ニホンシンタクショウケイネットワーク,0
1541,6140001039811,登記記録の閉鎖等,0,2025-08-05,2025-07-30,三幸合同サンソ株式会社,,株式会社,兵庫県,相生市,垣内町１２番２号,,28,208,6780022,,,2025-07-30,合併による解散等,9010601005660,令和７年７月１日東京都江東区亀戸六丁目６番１０号ＫＧＫサービス株式会社（9010601005660）に合併し解散,2015-10-05,1,,,,,サンコウゴウドウサンソ,0
1549,6150001011273,登記記録の閉鎖等,0,2025-08-05,2025-08-04,株式会社ニシオ,,株式会社,奈良県,磯城郡田原本町,３４番地の１１,,29,363,6360300,,,2025-08-04,清算の結了等,,,2015-10-05,1,,,,,ニシオ,0
1566,6180003001955,登記記録の閉鎖等,0,2025-08-05,2025-07-10,合資会社竹内製作所,,合資会社,愛知県,名古屋市南区,菊住２丁目５番２５号,,23,112,4570012,,,2025-07-10,清算の結了等,,,2015-10-05,1,,,,,タケウチセイサクショ,0
1570,6190002017142,登記記録の閉鎖等,0,2025-08-05,2025-07-28,有限会社丸半運送,,有限会社,三重県,桑名市,大字和泉７１番地,,24,205,5110838,,,2025-07-28,清算の結了等,,,2015-10-05,1,,,,,マルハンウンソウ,0
1577,6220002004657,登記記録の閉鎖等,0,2025-08-05,2025-07-31,有限会社橋本板金工業,,有限会社,石川県,金沢市,小坂町中２８番地１,,17,201,9200811,,,2025-07-31,清算の結了等,,,2015-10-05,1,,,,,ハシモトバンキンコウギョウ,0
1597,6280005002165,登記記録の閉鎖等,0,2025-08-05,2025-08-04,農事組合法人のぞみの里古志ファーム,,その他の設立登記法人,島根県,松江市,古志町６４９番地２,,32,201,6900121,,,2025-08-04,清算の結了等,,,2015-10-05,1,,,,,,0
1604,6290801009890,登記記録の閉鎖等,0,2025-08-05,2025-07-29,共和炭業株式会社,,株式会社,福岡県,北九州市八幡西区,陣原３丁目１番１号,,40,109,8070821,,,2025-07-29,合併による解散等,6290801010493,令和７年７月２９日北九州市八幡西区陣原三丁目１番１号株式会社藤倉商行（6290801010493）に合併し解散,2015-10-05,1,,,,,キョウワタンギョウ,0
1608,6300001012438,登記記録の閉鎖等,0,2025-08-05,2025-07-31,株式会社Ｒｅ　ｈｏｍｅ,,株式会社,佐賀県,神埼市,神埼町本堀３１８３番地５,,41,210,8420003,,,2025-07-31,清算の結了等,,,2021-04-07,1,,,,,リホーム,0
1616,6340002015114,登記記録の閉鎖等,0,2025-08-05,2025-07-17,有限会社牧水荘,,有限会社,鹿児島県,霧島市,牧園町高千穂３９３０番地,,46,218,8996603,,,2025-07-17,清算の結了等,,,2015-10-05,1,,,,,ボクスイソウ,0
1621,6370002009451,登記記録の閉鎖等,0,2025-08-05,2025-07-14,有限会社東建築設計事務所,,有限会社,宮城県,仙台市泉区,北中山１丁目７番１号,,04,105,9813215,,,2025-07-14,清算の結了等,,,2015-10-05,1,,,,,アズマケンチクセッケイジムショ,0
1629,6390005008696,登記記録の閉鎖等,0,2025-08-05,2025-07-23,一般社団法人大好きな加茂,,その他の設立登記法人,山形県,鶴岡市,加茂字岩倉２１６番地５,,06,203,9971204,,,2025-07-23,清算の結了等,,,2018-02-05,1,,,,,ダイスキナカモ,0
1637,6420002012508,登記記録の閉鎖等,0,2025-08-05,2025-07-22,有限会社匠工業,,有限会社,青森県,西津軽郡深浦町,大字追良瀬字塩見山平９３番地３,,02,323,0382413,,,2025-07-22,清算の結了等,,,2015-10-05,1,,,,,タクミコウギョウ,0
1639,6430001018430,登記記録の閉鎖等,0,2025-08-05,2025-07-15,株式会社リカーショップ江戸,,株式会社,北海道,札幌市東区,北二十六条東８丁目２番５号,,01,103,0650026,,,2025-07-15,清算の結了等,,,2015-10-05,1,,,,,リカーショップエド,0
1642,6430002051538,登記記録の閉鎖等,0,2025-08-05,2025-07-14,有限会社示沢設備工業,,有限会社,北海道,空知郡南幌町,西町２丁目４番６号,,01,423,0690236,,,2025-07-14,清算の結了等,,,2015-10-05,1,,,,,シメザワセツビコウギョウ,0
1653,6500005006143,登記記録の閉鎖等,0,2025-08-05,2025-07-31,医療法人中山内科,,その他の設立登記法人,愛媛県,宇和島市,堀端町２番１６号,,38,203,7980050,,,2025-07-31,清算の結了等,,,2015-10-05,1,,,,,ナカヤマナイカ,0
1660,7010001208824,登記記録の閉鎖等,0,2025-08-05,2025-07-01,株式会社Ｂａｒｒｉｚ,,株式会社,東京都,港区,虎ノ門２丁目６番１号虎ノ門ヒルズステーションタワー３６階,,13,103,1050001,,,2025-07-01,合併による解散等,6011001068854,令和７年７月１日東京都港区虎ノ門二丁目６番１号虎ノ門ヒルズステーションタワー３６階株式会社ＣＡＲＴＡ　ＺＥＲＯ（6011001068854）に合併し解散,2020-04-07,1,,,,,バリーズ,0
1672,7010401079824,登記記録の閉鎖等,0,2025-08-05,2025-07-31,株式会社ラボトミー,,株式会社,東京都,港区,浜松町２丁目２番１５号浜松町ダイヤビル２Ｆ,,13,103,1050013,,,2025-07-31,合併による解散等,8010401082570,令和７年７月１日東京都渋谷区道玄坂一丁目１２番１号渋谷マークシティＷ２２階株式会社ロージー（8010401082570）に合併し解散,2015-10-05,1,,,,,ラボトミー,0
1682,7010403019258,登記記録の閉鎖等,0,2025-08-05,2025-07-08,ＥＲＬＡ　Ｃｏｎｓｕｌｔ合同会社,,合同会社,東京都,港区,六本木４丁目２番８－２０８号,,13,103,1060032,,,2025-07-08,清算の結了等,,,2018-09-12,1,,,,,エラコンサルタント,0
1691,7010701044791,登記記録の閉鎖等,0,2025-08-05,2025-07-04,株式会社ミスター,,株式会社,東京都,目黒区,下目黒３丁目４番５号明芳ビル３０１,,13,110,1530064,,,2025-07-04,清算の結了等,,,2023-09-05,1,,,,,ミスター,0
1699,7010802009850,登記記録の閉鎖等,0,2025-08-05,2025-07-23,有限会社東京アーム印刷,,有限会社,東京都,大田区,大森東５丁目３４番１０号,,13,111,1430012,,,2025-07-23,清算の結了等,,,2015-10-05,1,,,,,トウキョウアームインサツ,0
1700,7010901000248,登記記録の閉鎖等,0,2025-08-05,2025-08-04,株式会社アーバンスペイシズ,,株式会社,東京都,世田谷区,三軒茶屋２丁目２４番８－８０１号,,13,112,1540024,,,2025-08-04,清算の結了等,,,2015-10-05,1,,,,,アーバンスペイシズ,0
1725,7011701010643,登記記録の閉鎖等,0,2025-08-05,2025-07-30,ライズ株式会社,,株式会社,東京都,江戸川区,船堀７丁目２０番１６号ナイスステージ船堀親水公園１０２号,,13,123,1340091,,,2025-07-30,清算の結了等,,,2015-10-05,1,,,,,ライズ,0
1729,7012701011210,登記記録の閉鎖等,0,2025-08-05,2025-07-22,株式会社ＣＡＲＢＯＮ　ＯＮＥ,,株式会社,東京都,西東京市,東町４丁目５番５号,,13,229,2020012,,,2025-07-22,清算の結了等,,,2015-10-05,1,,,,,カーボンワン,0
1733,7013301045862,登記記録の閉鎖等,0,2025-08-05,2025-07-04,ＥＮｉＸｉＡ株式会社,,株式会社,東京都,台東区,小島２丁目８番２号西出ビル２階,,13,106,1110056,,,2025-07-04,清算の結了等,,,2020-07-08,1,,,,,エニクシア,0
1762,7030001059035,登記記録の閉鎖等,0,2025-08-05,2025-07-30,株式会社ブッチャーランド,,株式会社,埼玉県,川越市,大字鯨井新田字新田後２２番地１０（ＳＴＣビル）,,11,201,3500809,,,2025-07-30,清算の結了等,,,2015-10-05,1,,,,,ブッチャーランド,0
1816,7110002007083,登記記録の閉鎖等,0,2025-08-05,2025-07-31,有限会社ライフプランニング,,有限会社,新潟県,新潟市中央区,関屋田町１丁目１１７番地１,,15,103,9518136,,,2025-07-31,合併による解散等,1130001050294,令和７年７月１日東京都千代田区大手町１－１－２大手門タワーなぎさアセットマネジメント株式会社（1130001050294）に合併し解散,2015-10-05,1,,,,,ライフプランニング,0
1848,7150005008364,登記記録の閉鎖等,0,2025-08-05,2025-07-31,特定非営利活動法人美容サロン価値向上デザイン協会モンローポート,,その他の設立登記法人,奈良県,北葛城郡上牧町,片岡台１丁目８番地４,,29,424,6390201,,,2025-07-31,清算の結了等,,,2015-10-05,1,,,,,ビヨウサロンカチコウジョウデザインキョウカイモンローポート,0
1851,7160001021551,登記記録の閉鎖等,0,2025-08-05,2025-07-30,株式会社直道,,株式会社,滋賀県,栗東市,出庭４７６－１Ｂ－２０２,,25,208,5203041,,,2025-07-30,清算の結了等,,,2019-03-25,1,,,,,,0
1856,7180001094546,登記記録の閉鎖等,0,2025-08-05,2025-07-10,株式会社ファミリーオート,,株式会社,愛知県,東海市,加木屋町大堀１１７番地の１,,23,222,4770032,,,2025-07-10,清算の結了等,,,2015-10-05,1,,,,,ファミリーオート,0
1868,7190001008307,登記記録の閉鎖等,0,2025-08-05,2025-07-25,株式会社大信建装,,株式会社,三重県,伊勢市,東大淀町３７２９番地３,,24,203,5150509,,,2025-07-25,清算の結了等,,,2015-10-05,1,,,,,,0
1869,7190001028800,登記記録の閉鎖等,0,2025-08-05,2025-07-28,株式会社テクノ東海,,株式会社,三重県,桑名市,大字江場７３１番地１,,24,205,5110836,,,2025-07-28,清算の結了等,,,2021-10-27,1,,,,,テクノトウカイ,0
1871,7190002008017,登記記録の閉鎖等,0,2025-08-05,2025-07-29,有限会社田中エッグ,,有限会社,三重県,鈴鹿市,石薬師町３１５１番地１４,,24,207,5130012,,,2025-07-29,清算の結了等,,,2015-10-05,1,,,,,タナカエッグ,0
1872,7200001029986,登記記録の閉鎖等,0,2025-08-05,2025-07-01,株式会社サイレボ,,株式会社,岐阜県,岐阜市,江添１丁目６番８号,,21,201,5008383,,,2025-07-01,合併による解散等,4200001010445,令和７年７月１日岐阜市江添一丁目６番８号株式会社勘吉（4200001010445）に合併し解散,2015-10-05,1,,,,,サイレボ,0
1882,7240001053933,登記記録の閉鎖等,0,2025-08-05,2025-07-30,株式会社ＫＭコーポレーション,,株式会社,広島県,東広島市,豊栄町清武２９２３番地２,,34,212,7392313,,,2025-07-30,清算の結了等,,,2019-02-14,1,,,,,ケイエムコーポレーション,0
1892,7250002010668,登記記録の閉鎖等,0,2025-08-05,2025-07-31,有限会社ファミリーマートますだ,,有限会社,山口県,下関市,彦島塩浜町１丁目６番１１号,,35,201,7500086,,,2025-07-31,清算の結了等,,,2015-10-05,1,,,,,ファミリーマートマスダ,0
1893,7250003002391,登記記録の閉鎖等,0,2025-08-05,2025-07-31,合同会社みかさ,,合同会社,山口県,岩国市,三笠町１丁目７番６号,,35,208,7400016,,,2025-07-31,清算の結了等,,,2019-02-07,1,,,,,ミカサ,0
1895,7260001030179,登記記録の閉鎖等,0,2025-08-05,2025-07-09,株式会社地人,,株式会社,岡山県,岡山市北区,弓之町１０－２５,,33,101,7000817,,,2025-07-09,清算の結了等,,,2016-11-24,1,,,,,チジン,0
1925,7360001017752,登記記録の閉鎖等,0,2025-08-05,2025-07-07,ミヤシン株式会社,,株式会社,沖縄県,那覇市,壺屋１丁目２７番６号,,47,201,9020065,,,2025-07-07,合併による解散等,6120001094635,令和７年７月１日大阪市中央区伏見町四丁目２番１４号イゲタサンライズパイプ株式会社（6120001094635）に合併し解散,2015-10-05,1,,,,,ミヤシン,0
1933,7370001015524,登記記録の閉鎖等,0,2025-08-05,2025-07-15,株式会社杜の家,,株式会社,宮城県,仙台市青葉区,赤坂３丁目６番地の１２,,04,101,9893211,,,2025-07-15,清算の結了等,,,2015-10-05,1,,,,,モリノイエ,0
1935,7390002012849,登記記録の閉鎖等,0,2025-08-05,2025-07-23,有限会社近田重機サービス,,有限会社,山形県,米沢市,広幡町成島２０５６番地３,,06,202,9920083,,,2025-07-23,清算の結了等,,,2015-10-05,1,,,,,コンタジュウキサービス,0
1943,7440001006458,登記記録の閉鎖等,0,2025-08-05,2025-07-31,株式会社高田経営会計事務所,,株式会社,北海道,檜山郡江差町,字茂尻町１４１番地,,01,361,0430052,,,2025-07-31,清算の結了等,,,2015-10-05,1,,,,,タカダケイエイカイケイジムショ,0
1944,7450001000443,登記記録の閉鎖等,0,2025-08-05,2025-07-31,株式会社石山,,株式会社,北海道,旭川市,永山三条２１丁目１番５号,,01,204,0798413,,,2025-07-31,清算の結了等,,,2015-10-05,1,,,,,イシヤマ,0
1956,7700150056005,登記記録の閉鎖等,0,2025-08-05,2025-03-31,波佐小国温泉館運営組合,,その他,島根県,浜田市,金城町波佐イ２６７－２,,32,202,6970211,,,2025-03-31,その他の清算の結了等,,,2015-10-09,1,,,,,ハザオグニオンセンカンウンエイクミアイ,0
1957,7700150108441,登記記録の閉鎖等,0,2025-08-05,2025-02-28,オフィスとらいあんぐる,,その他,東京都,墨田区,業平２丁目１５－９コモンドエフ３０２,,13,107,1300002,,,2025-02-28,その他の清算の結了等,,,2022-04-28,1,,,,,オフイストライアングル,0
1958,7700150110595,登記記録の閉鎖等,0,2025-08-05,2025-03-31,ＩＣＢＡ　ＪＡＰＡＮ　ＰＲＯＪＥＣＴ,,その他,福岡県,福岡市早良区,原８丁目３６－３１,,40,137,8140022,,,2025-03-31,その他の清算の結了等,,,2022-06-30,1,,,,,アイシービーエージヤパンプロジエクト,0
1979,8010401063182,登記記録の閉鎖等,0,2025-08-05,2025-07-04,株式会社和光社,,株式会社,東京都,港区,南青山１丁目１番１号,,13,103,1070062,,,2025-07-04,合併による解散等,6010401001771,令和７年７月１日東京都港区南青山一丁目１番１号株式会社アイプラネット（6010401001771）に合併し解散,2015-10-05,1,,,,,ワコウシャ,0
2028,8011801025706,登記記録の閉鎖等,0,2025-08-05,2025-07-22,株式会社はばびと,,株式会社,東京都,足立区,千住河原町２２番９号,,13,121,1200037,,,2025-07-22,清算の結了等,,,2015-10-05,1,,,,,ハバビト,0
2030,8012801019540,登記記録の閉鎖等,0,2025-08-05,2025-07-10,株式会社新川,,株式会社,東京都,武蔵村山市,伊奈平２丁目５１番地の１,,13,223,2080023,,,2025-07-10,合併による解散等,3012801002889,令和７年７月１日東京都武蔵村山市伊奈平二丁目５１番地の１ヤマハロボティクス株式会社（3012801002889）に合併し解散,2019-07-19,1,,,,,シンカワ,0
2033,8013201013860,登記記録の閉鎖等,0,2025-08-05,2025-07-07,株式会社ＡＡＴ,,株式会社,東京都,目黒区,八雲４丁目８番１４号,,13,110,1520023,,,2025-07-07,清算の結了等,,,2015-10-05,1,,,,,エーエーティー,0
2040,8020001123352,登記記録の閉鎖等,0,2025-08-05,2025-07-22,株式会社リトルシンコム,,株式会社,神奈川県,横浜市港北区,篠原東３丁目１０番３号,,14,109,2220022,,,2025-07-22,清算の結了等,,,2017-10-13,1,,,,,リトルシンコム,0
2051,8021001001052,登記記録の閉鎖等,0,2025-08-05,2025-07-22,株式会社システムズ湘南,,株式会社,神奈川県,藤沢市,辻堂１丁目４番１４号,,14,205,2510047,,,2025-07-22,清算の結了等,,,2015-10-05,1,,,,,システムズショウナン,0
2065,8050002000424,登記記録の閉鎖等,0,2025-08-05,2025-07-24,有限会社岩坂設備設計事務所,,有限会社,茨城県,水戸市,姫子１丁目７８１番１２,,08,201,3114151,,,2025-07-24,清算の結了等,,,2015-10-05,1,,,,,イワサカセツビセッケイジムショ,0
2067,8060001023235,登記記録の閉鎖等,0,2025-08-05,2025-07-28,株式会社佐藤工業,,株式会社,群馬県,館林市,足次町２８７５番地,,10,207,3740073,,,2025-07-28,清算の結了等,,,2015-10-05,1,,,,,サトウコウギョウ,0
2086,8080405004127,登記記録の閉鎖等,0,2025-08-05,2025-07-08,税理士法人浜松合同会計,,その他の設立登記法人,静岡県,浜松市中央区,御給町１２５番地,,22,138,4300831,,,2025-07-08,合併による解散等,5180005020582,令和７年７月１日名古屋市中区丸の内二丁目２０番２５号メットライフ名古屋丸の内ビル５Ｆ税理士法人オールシエンシア（5180005020582）に合併し解散,2015-10-05,1,,,,,ハママツゴウドウカイケイ,0
2089,8110001003702,登記記録の閉鎖等,0,2025-08-05,2025-07-31,新潟医薬株式会社,,株式会社,新潟県,新潟市中央区,関屋田町１丁目１１７番地１,,15,103,9518136,,,2025-07-31,合併による解散等,1130001050294,令和７年７月１日東京都千代田区大手町１－１－２大手門タワーなぎさアセットマネジメント株式会社（1130001050294）に合併し解散,2015-10-05,1,,,,,ニイガタイヤク,0
2090,8110001008528,登記記録の閉鎖等,0,2025-08-05,2025-06-17,株式会社コスモエンジニアリング,,株式会社,新潟県,新潟市中央区,東大通２丁目５番８号,,15,103,9500087,,,2025-06-17,合併による解散等,8110001010525,令和７年４月１日新潟市中央区万代３－１－１新潟日報メディアシップ１１階東京アプリケーションシステム株式会社（8110001010525）に合併し解散,2015-10-05,1,,,,,コスモエンジニアリング,0
2092,8110002026231,登記記録の閉鎖等,0,2025-08-05,2025-07-17,有限会社小林自動車,,有限会社,新潟県,糸魚川市,大字中宿５６７番地１,,15,216,9410003,,,2025-07-17,清算の結了等,,,2015-10-05,1,,,,,コバヤシジドウシャ,0
2119,8120902021727,登記記録の閉鎖等,0,2025-08-05,2025-07-15,有限会社セイコー工芸,,有限会社,大阪府,豊中市,勝部３丁目４番３０号,,27,203,5610894,,,2025-07-15,清算の結了等,,,2015-10-05,1,,,,,,0
2131,8140001132936,登記記録の閉鎖等,0,2025-08-05,2025-07-30,株式会社ＭＯＴＯＮＯＲＩ,,株式会社,兵庫県,神戸市北区,惣山町５丁目３番地の７,,28,109,6511145,,,2025-07-30,清算の結了等,,,2024-01-10,1,,,,,,0
2136,8140005019519,登記記録の閉鎖等,0,2025-08-05,2025-06-20,天理教陽穗分教会,,その他の設立登記法人,兵庫県,淡路市,生穂眞砂１３７７番地,,28,226,6562223,,,2025-06-20,合併による解散等,6140005001362,令和７年６月２０日神戸市中央区割塚通二丁目２番４号天理教本陽分教会（6140005001362）に合併し解散,2015-10-05,1,,,,,テンリキョウヨウホブンキョウカイ,0
2138,8160001004662,登記記録の閉鎖等,0,2025-08-05,2025-07-28,株式会社アプロ,,株式会社,滋賀県,大津市,唐崎１丁目３１番３２号大川プラザ４号館,,25,201,5200106,,,2025-07-28,清算の結了等,,,2015-10-05,1,,,,,アプロ,0
2141,8170002009783,登記記録の閉鎖等,0,2025-08-05,2025-08-01,有限会社朝来新聞舗,,有限会社,和歌山県,西牟婁郡上富田町,朝来２７６７番地の３大和マンション五番館３０３号,,30,404,6492105,,,2025-08-01,清算の結了等,,,2015-10-05,1,,,,,アッソシンブンホ,0
2154,8180302025117,登記記録の閉鎖等,0,2025-08-05,2025-07-24,有限会社やまと,,有限会社,愛知県,豊田市,猿投町畑中４３番地,,23,211,4700361,,,2025-07-24,清算の結了等,,,2015-10-05,1,,,,,ヤマト,0
2162,8220001017303,登記記録の閉鎖等,0,2025-08-05,2025-07-30,株式会社豊彰,,株式会社,石川県,河北郡内灘町,字大根布１丁目４７番地,,17,365,9200266,,,2025-07-30,清算の結了等,,,2015-10-05,1,,,,,ホウショウ,0
2198,8340001016177,登記記録の閉鎖等,0,2025-08-05,2025-07-01,株式会社ＬＩＮＫＳ,,株式会社,鹿児島県,鹿屋市,笠之原町２９３９番地１,,46,203,8930023,,,2025-07-01,合併による解散等,9340001024690,令和７年７月１日鹿児島県鹿屋市下高隈町４６４８番地２５株式会社ＡＫＡＨＩＤＡ（9340001024690）に合併し解散,2015-10-05,1,,,,,リンクス,0
2212,8400002011591,登記記録の閉鎖等,0,2025-08-05,2025-07-10,有限会社五葉工業,,有限会社,岩手県,釜石市,大字平田第１地割７５番地６,,03,211,0260001,,,2025-07-10,清算の結了等,,,2015-10-05,1,,,,,ゴヨウコウギョウ,0
2215,8420002009733,登記記録の閉鎖等,0,2025-08-05,2025-07-17,有限会社山内ファーム,,有限会社,青森県,八戸市,南郷区大字泉清水字長根２６番地,,02,203,0310000,,,2025-07-17,清算の結了等,,,2015-10-05,1,,,,,サンナイファーム,1
2228,8490005002118,登記記録の閉鎖等,0,2025-08-05,2025-07-01,医療法人寿会,,その他の設立登記法人,高知県,幡多郡黒潮町,出口２０７０番地,,39,428,7891934,,,2025-07-01,合併による解散等,1490005002132,令和７年７月１日高知県土佐清水市越前町６番１号医療法人聖真会（1490005002132）に合併し解散,2015-10-05,1,,,,,コトブキカイ,0
2231,8700150046178,登記記録の閉鎖等,0,2025-08-05,2025-03-31,遠州鉄道健康保険組合,,その他,静岡県,浜松市中央区,旭町１２番地の１,,22,138,4300927,,,2025-03-31,その他の清算の結了等,,,2015-10-09,1,,,,,エンシユウテツドウケンコウホケンクミアイ,0
2232,8700150081893,登記記録の閉鎖等,0,2025-08-05,2025-02-07,リバイバルセンターチャーチ,,その他,東京都,八王子市,越野１－７,,13,201,1920361,,,2025-02-07,その他の清算の結了等,,,2017-03-15,1,,,,,リバイバルセンターチヤーチ,0
2235,9010001034302,登記記録の閉鎖等,0,2025-08-05,2025-07-07,株式会社東京抵抗社,,株式会社,東京都,千代田区,神田平河町１番地,,13,101,1010027,,,2025-07-07,清算の結了等,,,2015-10-05,1,,,,,トウキョウテイコウシャ,0
2237,9010001054176,登記記録の閉鎖等,0,2025-08-05,2025-07-07,萬邦通商株式会社,,株式会社,東京都,中央区,日本橋堀留町２丁目３番３号グランドメゾン日本橋堀留,,13,102,1030012,,,2025-07-07,清算の結了等,,,2015-10-05,1,,,,,バンポウツウショウ,0
2251,9010102008048,登記記録の閉鎖等,0,2025-08-05,2025-07-31,有限会社野菜家族,,有限会社,東京都,八王子市,めじろ台１丁目２７番地の６,,13,201,1930833,,,2025-07-31,清算の結了等,,,2015-10-05,1,,,,,ヤサイカゾク,0
2257,9010501047761,登記記録の閉鎖等,0,2025-08-05,2025-07-23,東洋プリンター株式会社,,株式会社,東京都,板橋区,板橋４丁目３７番５号日東住宅２号館１階,,13,119,1730004,,,2025-07-23,清算の結了等,,,2021-08-31,1,,,,,トウヨウプリンター,0
2262,9010702012333,登記記録の閉鎖等,0,2025-08-05,2025-07-28,有限会社エスエスキッズ,,有限会社,東京都,品川区,東品川４丁目６番７号シャルマン東品川６１０,,13,109,1400002,,,2025-07-28,清算の結了等,,,2015-10-05,1,,,,,エスエスキッズ,0
2263,9010801002854,登記記録の閉鎖等,0,2025-08-05,2025-07-23,株式会社川森屋,,株式会社,東京都,大田区,大森本町２丁目２５番１３号,,13,111,1430011,,,2025-07-23,清算の結了等,,,2015-10-05,1,,,,,カワモリヤ,0
2281,9011101059040,登記記録の閉鎖等,0,2025-08-05,2025-07-03,株式会社ファストランド,,株式会社,東京都,渋谷区,本町１丁目２０－２パルムハウス初台８０８号,00136456,13,113,1510071,,,2025-07-03,清算の結了等,,,2015-10-05,1,,,,,ファストランド,0
2295,9013202001517,登記記録の閉鎖等,0,2025-08-05,2025-07-24,有限会社荻島工業所,,有限会社,東京都,目黒区,五本木１丁目３３番２０号,,13,110,1530053,,,2025-07-24,清算の結了等,,,2015-10-05,1,,,,,オギシマコウギョウショ,0
2303,9020002103823,登記記録の閉鎖等,0,2025-08-05,2025-07-18,有限会社二幸商事,,有限会社,神奈川県,川崎市幸区,幸町３丁目６番地,,14,132,2120011,,,2025-07-18,清算の結了等,,,2015-10-05,1,,,,,ニコウショウジ,0
2316,9040001122839,登記記録の閉鎖等,0,2025-08-05,2025-07-08,株式会社ＬＡＮＩＬＩＦＥ,,株式会社,千葉県,船橋市,東船橋５丁目２３－２１セブンストーンビル３０１号,,12,204,2730002,,,2025-07-08,清算の結了等,,,2022-04-06,1,,,,,ラニライフ,0
2333,9080001008852,登記記録の閉鎖等,0,2025-08-05,2025-07-28,ナルテック株式会社,,株式会社,静岡県,静岡市清水区,下清水町１０番１６号,,22,103,4240939,,,2025-07-28,清算の結了等,,,2015-10-05,1,,,,,ナルテック,0
2339,9110001027080,登記記録の閉鎖等,0,2025-08-05,2025-07-14,株式会社せいかつセンター,,株式会社,新潟県,南魚沼市,上原１１０番地９,,15,226,9497137,,,2025-07-14,清算の結了等,,,2015-10-05,1,,,,,セイカツセンター,0
2345,9120002077198,登記記録の閉鎖等,0,2025-08-05,2025-07-14,有限会社食彩ふうち,,有限会社,大阪府,守口市,西郷通４丁目１３番８－３０３号,,27,209,5700034,,,2025-07-14,清算の結了等,,,2015-10-05,1,,,,,ショクサイフウチ,0
2360,9122002011649,登記記録の閉鎖等,0,2025-08-05,2025-07-30,有限会社メディカルエヌティー,,有限会社,大阪府,大東市,新田東本町１番２７号,,27,218,5740054,,,2025-07-30,清算の結了等,,,2015-10-05,1,,,,,メディカルエヌティー,0
2365,9140001057455,登記記録の閉鎖等,0,2025-08-05,2025-07-30,アイ・ジー・シー株式会社,,株式会社,兵庫県,姫路市,四郷町山脇１０６番３,,28,201,6710248,,,2025-07-30,合併による解散等,9010601005660,令和７年７月１日東京都江東区亀戸六丁目６番１０号ＫＧＫサービス株式会社（9010601005660）に合併し解散,2015-10-05,1,,,,,アイジーシー,0
2371,9150001012269,登記記録の閉鎖等,0,2025-08-05,2025-07-09,株式会社アビラス,,株式会社,奈良県,大和高田市,旭南町６番１６号,,29,202,6350035,,,2025-07-09,合併による解散等,3010401189536,令和７年７月１日東京都港区麻布十番一丁目２‐７株式会社メイアス（3010401189536）に合併し解散,2015-10-05,1,,,,,アビラス,0
2376,9160005011316,登記記録の閉鎖等,0,2025-08-05,2025-07-31,一般社団法人日本ボイススタイリスト協会,,その他の設立登記法人,滋賀県,近江八幡市,西生来町２４５番地,,25,204,5230004,,,2025-07-31,清算の結了等,,,2024-06-21,1,,,,,ニホンボイススタイリストキョウカイ,0
2378,9170002001269,登記記録の閉鎖等,0,2025-08-05,2025-08-01,有限会社日下建築設計事務所,,有限会社,和歌山県,和歌山市,南牛町１６番地,,30,201,6408295,,,2025-08-01,清算の結了等,,,2015-10-05,1,,,,,クサカケンチクセッケイジムショ,0
2386,9180303003888,登記記録の閉鎖等,0,2025-08-05,2025-07-10,絆合同会社,,合同会社,愛知県,名古屋市守山区,高島町２１３番地の１,,23,113,4630095,,,2025-07-10,清算の結了等,,,2017-07-25,1,,,,,キズナ,0
2387,9190003002891,登記記録の閉鎖等,0,2025-08-05,2025-07-29,ＴＭＫアセットインベストメント合同会社,,合同会社,三重県,鈴鹿市,岸岡町３０９６番地の４６,,24,207,5100226,,,2025-07-29,清算の結了等,,,2018-04-20,1,,,,,ティーエムケイアセットインベストメント,0
2406,9260002021126,登記記録の閉鎖等,0,2025-08-05,2025-07-08,有限会社マエダソーイング,,有限会社,岡山県,倉敷市,児島稗田町１９２３番地の１,00003694,33,202,7110937,,,2025-07-08,清算の結了等,,,2015-10-05,1,,,,,マエダソーイング,0
2418,9300001012633,登記記録の閉鎖等,0,2025-08-05,2025-07-30,株式会社ＳＨＧ．ビアントス,,株式会社,佐賀県,鳥栖市,酒井西町７８９番地１,,41,203,8410042,,,2025-07-30,合併による解散等,9010001136131,令和７年７月１日東京都千代田区九段北一丁目１３番５号ヒューリック九段ビル１２Ｆ株式会社エフ・イー・ティーシステム（9010001136131）に合併し解散,2021-09-21,1,,,,,エスエイチジービアントス,0
2419,9310001001882,登記記録の閉鎖等,0,2025-08-05,2025-07-22,株式会社富士歯科産業,,株式会社,長崎県,長崎市,滑石２丁目６番２５号,,42,201,8528061,,,2025-07-22,合併による解散等,5310001002604,令和７年７月２１日長崎市滑石二丁目６番２５号株式会社ＯＮＥトラスト（5310001002604）に合併し解散,2015-10-05,1,,,,,フジシカサンギョウ,0
2439,9450005000537,登記記録の閉鎖等,0,2025-08-05,2025-07-30,医療法人社団博愛内科クリニック,,その他の設立登記法人,北海道,旭川市,永山二条１６丁目５番１１号,,01,204,0798412,,,2025-07-30,清算の結了等,,,2015-10-05,1,,,,,ハクアイナイカクリニック,0
2448,9700150046284,登記記録の閉鎖等,0,2025-08-05,2025-03-31,浜松市中瀬南部土地区画整理組合,,その他,静岡県,浜松市中央区,中央１丁目２番１号,,22,138,4300929,,,2025-03-31,その他の清算の結了等,,,2015-10-09,1,,,,,ハママツシナカセナンブトチクカクセイリクミアイ,0
2449,9700150053512,登記記録の閉鎖等,0,2025-08-05,2025-03-31,地域文化育成事業実行委員会,,その他,山口県,長門市,油谷新別名１０８３３番地,,35,211,7594503,,,2025-03-31,その他の清算の結了等,,,2015-10-09,1,,,,,,0
2450,9700150062959,登記記録の閉鎖等,0,2025-08-05,2025-03-25,ＪＡかあちゃん市場,,その他,熊本県,八代郡氷川町,早尾１８６－１,,43,468,8694606,,,2025-03-25,その他の清算の結了等,,,2015-10-09,1,,,,,ジエイエイカアチヤンイチバ,0
