sequenceNumber,corporateNumber,process,correct,updateDate,changeDate,name,nameImageId,kind,prefectureName,cityName,streetNumber,addressImageId,prefectureCode,cityCode,postCode,addressOutside,addressOutsideImageId,closeDate,closeCause,successorCorporateNumber,changeCause,assignmentDate,latest,enName,enPrefectureName,enCityName,enAddressOutside,furigana,hihyoji
22,1010005036475,登記記録の閉鎖等,0,2023-12-15,2023-12-12,一般社団法人フリーランスベネフィット,,その他の設立登記法人,東京都,中央区,日本橋室町１丁目１１番１２号日本橋水野ビル７階,,13,102,1030022,,,2023-12-12,清算の結了等,,,2023-04-12,1,,,,,フリーランスベネフィット,0
41,1010601000413,登記記録の閉鎖等,0,2023-12-15,2023-12-08,株式会社アカクラ,,株式会社,東京都,江東区,門前仲町２丁目５番１１号,,13,108,1350048,,,2023-12-08,清算の結了等,,,2015-10-05,1,,,,,アカクラ,0
51,1010805002346,登記記録の閉鎖等,0,2023-12-15,2023-12-11,税理士法人Ｉ＆Ｉ,,その他の設立登記法人,東京都,大田区,北馬込１丁目２３番１１号,,13,111,1430021,,,2023-12-11,清算の結了等,,,2016-04-13,1,,,,,アイアンドアイ,0
55,1011101092585,登記記録の閉鎖等,0,2023-12-15,2023-12-12,株式会社Ｔｒａｖｅｌ　ＤＸ,,株式会社,東京都,千代田区,神田神保町３丁目７番１号,,13,101,1010051,,,2023-12-12,合併による解散等,8011101092703,令和５年１２月１日東京都千代田区神田神保町三丁目７番１号株式会社ＭＡＴＲＩＸ（8011101092703）に合併し解散,2020-09-30,1,,,,,トラベルディーエックス,0
85,1020001114267,登記記録の閉鎖等,0,2023-12-15,2023-12-12,ボーゲ・ラバー・アンド・プラスチックス・ジャパン株式会社,,株式会社,東京都,千代田区,丸の内１丁目６番２号新丸の内センタービルディング１８階ゾンデルホフ＆アインゼル税理士法人内,,13,101,1000005,,,2023-12-12,清算の結了等,,,2016-01-07,1,,,,,ボーゲラバーアンドプラスチックスジャパン,0
90,1020002042723,登記記録の閉鎖等,0,2023-12-15,2023-12-11,有限会社サンドリヨン,,有限会社,神奈川県,横浜市中区,蓬莱町３丁目１０４番地３,00026276,14,104,2310048,,,2023-12-11,清算の結了等,,,2015-10-05,1,,,,,サンドリヨン,0
98,1021002009555,登記記録の閉鎖等,0,2023-12-15,2023-12-08,有限会社サンアンドサン,,有限会社,神奈川県,横浜市中区,扇町２丁目４番地２横浜関内京浜ビル１００６号,,14,104,2310027,,,2023-12-08,清算の結了等,,,2015-10-05,1,,,,,サンアンドサン,0
102,1030001032930,登記記録の閉鎖等,0,2023-12-15,2023-12-06,株式会社羽生の里,,株式会社,埼玉県,羽生市,大字三田ケ谷１７２５番地,,11,216,3480011,,,2023-12-06,清算の結了等,,,2015-10-05,1,,,,,ハニュウノサト,0
111,1030002106238,登記記録の閉鎖等,0,2023-12-15,2023-12-08,有限会社ピーアンドティ,,有限会社,埼玉県,川口市,末広２丁目１６番５号,,11,203,3320006,,,2023-12-08,清算の結了等,,,2015-10-05,1,,,,,ピーアンドティ,0
120,1040001013525,登記記録の閉鎖等,0,2023-12-15,2023-12-07,株式会社フクユウ,,株式会社,千葉県,浦安市,日の出５丁目５番１号－Ｆ,,12,227,2790013,,,2023-12-07,清算の結了等,,,2015-10-05,1,,,,,フクユウ,0
121,1040001070046,登記記録の閉鎖等,0,2023-12-15,2023-12-06,東葛不動産支援株式会社,,株式会社,千葉県,柏市,末広町５番１６号エスパス柏４階,,12,217,2770842,,,2023-12-06,清算の結了等,,,2015-10-05,1,,,,,トウカツフドウサンシエン,0
128,1040002032581,登記記録の閉鎖等,0,2023-12-15,2023-12-08,有限会社一宮商事,,有限会社,千葉県,市川市,押切１０番１３号,,12,203,2720107,,,2023-12-08,清算の結了等,,,2015-10-05,1,,,,,イチノミヤショウジ,0
143,1120001037227,登記記録の閉鎖等,0,2023-12-15,2023-12-14,株式会社アール・ピー・エス,,株式会社,大阪府,大阪市西区,南堀江１丁目１８番４号,,27,106,5500015,,,2023-12-14,清算の結了等,,,2015-10-05,1,,,,,アールピーエス,0
149,1120001253971,登記記録の閉鎖等,0,2023-12-15,2023-12-13,瑞斯汀株式会社,,株式会社,大阪府,大阪市大正区,三軒家西３丁目４番１６号中山ビル２１３Ａ,,27,108,5510001,,,2023-12-13,清算の結了等,,,2023-04-17,1,,,,,ズイシテイ,0
181,1150005008485,登記記録の閉鎖等,0,2023-12-15,2023-12-14,協同組合奈良友好会,,その他の設立登記法人,奈良県,橿原市,新堂町３１３番地の１株式会社ウエムラ内,,29,205,6340836,,,2023-12-14,清算の結了等,,,2015-10-05,1,,,,,ナラユウコウカイ,0
215,1250003003156,登記記録の閉鎖等,0,2023-12-15,2023-12-06,合同会社ふぁんたじーすいーつ,,合同会社,山口県,下松市,大字東豊井１４４７－１,,35,207,7440002,,,2023-12-06,清算の結了等,,,2022-10-06,1,,,,,ファンタジースイーツ,0
232,1320002009403,登記記録の閉鎖等,0,2023-12-15,2023-12-13,三立テクノ有限会社,,有限会社,大分県,大分市,今津留２丁目１番２７号,,44,201,8700938,,,2023-12-13,清算の結了等,,,2015-10-05,1,,,,,サンリツテクノ,0
242,1330002018080,登記記録の閉鎖等,0,2023-12-15,2023-12-11,有限会社荒木食鳥,,有限会社,熊本県,菊池市,泗水町永７６９番地,,43,210,8611204,,,2023-12-11,清算の結了等,,,2015-10-05,1,,,,,アラキショクチョウ,0
246,1340002007628,登記記録の閉鎖等,0,2023-12-15,2023-12-11,有限会社萩原ビル,,有限会社,鹿児島県,鹿児島市,東千石町１９番６号,,46,201,8920842,,,2023-12-11,清算の結了等,,,2015-10-05,1,,,,,ハギハラビル,0
260,1380001000349,登記記録の閉鎖等,0,2023-12-15,2023-12-12,菅野食品株式会社,,株式会社,福島県,福島市,御山字中屋敷１１５番地の１,,07,201,9608252,,,2023-12-12,清算の結了等,,,2015-10-05,1,,,,,カンノショクヒン,0
267,1430001022511,登記記録の閉鎖等,0,2023-12-15,2023-12-08,株式会社北海道ミオ設計,,株式会社,北海道,札幌市中央区,大通西１９丁目２番地１,,01,101,0600042,,,2023-12-08,清算の結了等,,,2015-10-05,1,,,,,,0
276,1470001008523,登記記録の閉鎖等,0,2023-12-15,2023-12-13,株式会社岩井工務店,,株式会社,香川県,丸亀市,飯山町東坂元２４７０番地１パレス来夢来人Ｂ１０３号,,37,202,7620081,,,2023-12-13,清算の結了等,,,2015-10-05,1,,,,,イワイコウムテン,0
283,2010001160377,登記記録の閉鎖等,0,2023-12-15,2023-12-12,株式会社なごみ,,株式会社,東京都,文京区,春日１丁目３番１－５０８号,,13,105,1120003,,,2023-12-12,清算の結了等,,,2015-10-05,1,,,,,ナゴミ,0
286,2010003031907,登記記録の閉鎖等,0,2023-12-15,2023-12-11,合同会社Ｎｏｗ,,合同会社,東京都,千代田区,二番町９番地３,,13,101,1020084,,,2023-12-11,清算の結了等,,,2020-04-03,1,,,,,ナウ,0
301,2010402014594,登記記録の閉鎖等,0,2023-12-15,2023-12-11,有限会社吉川鑑定事務所,00050966,有限会社,東京都,港区,南麻布１丁目１４番２号,,13,103,1060047,,,2023-12-11,清算の結了等,,,2015-10-05,1,,,,,ヨシカワカンテイジムショ,0
308,2010405018980,登記記録の閉鎖等,0,2023-12-15,2023-12-08,一般財団法人ママエンジェルス,,その他の設立登記法人,福岡県,福岡市中央区,荒戸３丁目５番４６,,40,133,8100062,,,2023-12-08,清算の結了等,,,2020-08-14,1,,,,,ママエンジェルス,0
310,2010601026300,登記記録の閉鎖等,0,2023-12-15,2023-12-07,株式会社林光,,株式会社,東京都,墨田区,向島４丁目２２番３号,,13,107,1310033,,,2023-12-07,清算の結了等,,,2015-10-05,1,,,,,リンコウ,0
311,2010601057089,登記記録の閉鎖等,0,2023-12-15,2023-12-06,株式会社海ＸＳＩＡ　ＫＡＭＥＭＯＴＯ,,株式会社,東京都,江東区,福住１丁目１６番１号,,13,108,1350032,,,2023-12-06,合併による解散等,8010601063742,令和５年１２月１日東京都江東区豊洲六丁目５番１号株式会社海ＸＳＩＡ青田（8010601063742）に合併し解散,2020-03-23,1,,,,,ウミシアカメモト,0
322,2010901005053,登記記録の閉鎖等,0,2023-12-15,2023-12-08,株式会社臣,,株式会社,東京都,世田谷区,等々力６丁目３７番１５号ＶＩＰ等々力２０１,,13,112,1580082,,,2023-12-08,清算の結了等,,,2015-10-05,1,,,,,オミ,0
326,2011001117680,登記記録の閉鎖等,0,2023-12-15,2023-12-08,株式会社Ａｐａｓｓｉｏｎａｔｅ,,株式会社,東京都,中央区,日本橋富沢町７番７号,,13,102,1030006,,,2023-12-08,清算の結了等,,,2017-08-08,1,,,,,アパッショネイト,0
327,2011001135360,登記記録の閉鎖等,0,2023-12-15,2023-12-12,株式会社ＡＩＭＳ,,株式会社,愛媛県,松山市,桑原４丁目７番１号,,38,201,7900911,,,2023-12-12,清算の結了等,,,2020-08-19,1,,,,,エイムス,0
338,2011201012236,登記記録の閉鎖等,0,2023-12-15,2023-12-08,株式会社甲倫,,株式会社,神奈川県,藤沢市,片瀬山４丁目１０番９号,,14,205,2510033,,,2023-12-08,清算の結了等,,,2015-10-05,1,,,,,コウリン,0
358,2013301048903,登記記録の閉鎖等,0,2023-12-15,2023-12-05,ＫＡＨＯ株式会社,,株式会社,東京都,豊島区,東池袋１丁目３３番４号,,13,116,1700013,,,2023-12-05,清算の結了等,,,2022-04-06,1,,,,,カホ,0
365,2020002026188,登記記録の閉鎖等,0,2023-12-15,2023-12-11,有限会社クーサン,,有限会社,神奈川県,横浜市神奈川区,白幡南町３４番Ｂ－６１３号,,14,102,2210073,,,2023-12-11,清算の結了等,,,2015-10-05,1,,,,,クーサン,0
384,2030002103713,登記記録の閉鎖等,0,2023-12-15,2023-12-08,有限会社島村建設,,有限会社,埼玉県,川口市,大字安行領家１０４９－１２,,11,203,3340058,,,2023-12-08,清算の結了等,,,2015-10-05,1,,,,,シマムラケンセツ,0
390,2040002024289,登記記録の閉鎖等,0,2023-12-15,2023-12-08,有限会社成島工務店,,有限会社,千葉県,船橋市,西船４丁目１５番２７号,,12,204,2730031,,,2023-12-08,清算の結了等,,,2015-10-05,1,,,,,ナルシマコウムテン,0
395,2050001051597,登記記録の閉鎖等,0,2023-12-15,2023-12-13,フラスコＰＲ株式会社,,株式会社,茨城県,水戸市,元吉田町３３７－３,,08,201,3100836,,,2023-12-13,清算の結了等,,,2022-08-26,1,,,,,フラスコピーアール,0
399,2060002018537,登記記録の閉鎖等,0,2023-12-15,2023-12-11,有限会社上野商店,,有限会社,栃木県,芳賀郡芳賀町,大字祖母井１６５８番地５０,,09,345,3213304,,,2023-12-11,清算の結了等,,,2015-10-05,1,,,,,ウエノショウテン,0
405,2070002012951,登記記録の閉鎖等,0,2023-12-15,2023-12-12,有限会社ライラック,,有限会社,群馬県,高崎市,下之城町１１番地,,10,202,3700854,,,2023-12-12,清算の結了等,,,2015-10-05,1,,,,,ライラック,0
457,2140001057718,登記記録の閉鎖等,0,2023-12-15,2023-12-01,池下産業株式会社,,株式会社,兵庫県,姫路市,綿町１４６番地,,28,201,6700921,,,2023-12-01,合併による解散等,4140001129374,令和５年１２月１日兵庫県姫路市綿町１４６ｃｏｎｔｉｎｅｎｔ株式会社（4140001129374）に合併し解散,2015-10-05,1,,,,,イケシタサンギョウ,0
465,2160001012324,登記記録の閉鎖等,0,2023-12-15,2023-12-14,株式会社ウッドフィールド,,株式会社,滋賀県,高島市,今津町北仰３５１番地,,25,212,5201603,,,2023-12-14,清算の結了等,,,2015-10-05,1,,,,,,0
474,2180002085004,登記記録の閉鎖等,0,2023-12-15,2023-12-12,有限会社中込製作所,,有限会社,愛知県,大府市,森岡町４丁目３５３番地,,23,223,4740038,,,2023-12-12,清算の結了等,,,2015-10-05,1,,,,,ナカゴメセイサクショ,0
491,2260002003700,登記記録の閉鎖等,0,2023-12-15,2023-12-13,有限会社広報企画センター,,有限会社,岡山県,岡山市中区,江並６３番地の９,,33,102,7028004,,,2023-12-13,清算の結了等,,,2015-10-05,1,,,,,コウホウキカクセンター,0
502,2290002038883,登記記録の閉鎖等,0,2023-12-15,2023-12-06,有限会社春日モータース,,有限会社,福岡県,太宰府市,青山４丁目８番２４号,,40,221,8180121,,,2023-12-06,清算の結了等,,,2015-10-05,1,,,,,カスガモータース,0
508,2320002006003,登記記録の閉鎖等,0,2023-12-15,2023-12-14,有限会社ブレーン,,有限会社,大分県,大分市,中津留１丁目７番９号,,44,201,8700939,,,2023-12-14,清算の結了等,,,2015-10-05,1,,,,,ブレーン,0
514,2330002010219,登記記録の閉鎖等,0,2023-12-15,2023-12-08,有限会社水戸不動産,,有限会社,熊本県,熊本市東区,西原２丁目６番２０号,,43,102,8618029,,,2023-12-08,清算の結了等,,,2015-10-05,1,,,,,ミトフドウサン,0
523,2370001000753,登記記録の閉鎖等,0,2023-12-15,2023-12-11,株式会社ジャパンリース,,株式会社,宮城県,仙台市泉区,松森字中道４３番地の２,,04,105,9813111,,,2023-12-11,清算の結了等,,,2015-10-05,1,,,,,ジャパンリース,0
525,2370102001989,登記記録の閉鎖等,0,2023-12-15,2023-12-12,有限会社浜須タイヤ商会,,有限会社,宮城県,角田市,角田字錦町３７番地の６,,04,208,9811505,,,2023-12-12,清算の結了等,,,2015-10-05,1,,,,,ハマスタイヤショウカイ,0
531,2430001030760,登記記録の閉鎖等,0,2023-12-15,2023-12-08,株式会社ウォンツアンドニーズエイジェント,,株式会社,北海道,札幌市手稲区,金山一条３丁目１番３０　２号室,,01,109,0060041,,,2023-12-08,清算の結了等,,,2015-10-05,1,,,,,ウォンツアンドニーズエイジェント,0
536,2470001012953,登記記録の閉鎖等,0,2023-12-15,2023-12-13,ファンスタイルキッチン株式会社,,株式会社,香川県,高松市,伏石町２１３０番地４,,37,201,7618071,,,2023-12-13,清算の結了等,,,2015-10-05,1,,,,,,0
543,2500001004749,登記記録の閉鎖等,0,2023-12-15,2023-12-14,高石電機株式会社,,株式会社,愛媛県,伊予市,灘町１４３番地,00007355,38,210,7993114,,,2023-12-14,清算の結了等,,,2015-10-05,1,,,,,タカイシデンキ,0
568,3010401157749,登記記録の閉鎖等,0,2023-12-15,2023-12-08,株式会社ＳｈｅＴｅｃｈ,,株式会社,東京都,港区,六本木３丁目１６番８－２０３号,,13,103,1060032,,,2023-12-08,清算の結了等,,,2021-01-21,1,,,,,シーテック,0
573,3010405009649,登記記録の閉鎖等,0,2023-12-15,2023-12-06,特定非営利活動法人ＧＡＤＡＧＯ,,その他の設立登記法人,東京都,港区,西麻布２丁目２１番２２号２Ｆ,,13,103,1060031,,,2023-12-06,清算の結了等,,,2015-10-05,1,,,,,ガダゴ,0
610,3011601013295,登記記録の閉鎖等,0,2023-12-15,2023-12-05,株式会社清水電算,,株式会社,東京都,練馬区,早宮３丁目７番１１号,,13,120,1790085,,,2023-12-05,清算の結了等,,,2015-10-05,1,,,,,シミズデンサン,0
611,3011801008814,登記記録の閉鎖等,0,2023-12-15,2023-12-11,株式会社進和装芸,,株式会社,東京都,足立区,一ツ家３丁目２６番１５号,,13,121,1210075,,,2023-12-11,清算の結了等,,,2015-10-05,1,,,,,,0
617,3013101004428,登記記録の閉鎖等,0,2023-12-15,2023-12-11,株式会社橋本設備,,株式会社,東京都,西多摩郡日の出町,大字平井２５７９番２号地,,13,305,1900182,,,2023-12-11,清算の結了等,,,2015-10-05,1,,,,,ハシモトセツビ,0
688,3090001013956,登記記録の閉鎖等,0,2023-12-15,2023-12-13,株式会社あいの手,,株式会社,山梨県,甲斐市,玉川７０４番地７,,19,210,4000116,,,2023-12-13,清算の結了等,,,2015-10-05,1,,,,,アイノテ,0
691,3100001011900,登記記録の閉鎖等,0,2023-12-15,2023-12-11,株式会社丸栄産業,,株式会社,長野県,飯山市,大字飯山２８０１番地２,,20,213,3892253,,,2023-12-11,清算の結了等,,,2015-10-05,1,,,,,マルエイサンギョウ,0
728,3120902014628,登記記録の閉鎖等,0,2023-12-15,2023-12-11,有限会社滝川興産,,有限会社,大阪府,池田市,畑１丁目５番２７－１０１号,,27,204,5630021,,,2023-12-11,清算の結了等,,,2015-10-05,1,,,,,タキガワコウサン,0
729,3120905006052,登記記録の閉鎖等,0,2023-12-15,2023-12-11,一般社団法人日本イグジットマネジメント協会,,その他の設立登記法人,大阪府,三島郡島本町,江川２丁目１５－４５－１４２０,,27,301,6180013,,,2023-12-11,清算の結了等,,,2020-07-29,1,,,,,ニホンイグジットマネジメントキョウカイ,0
735,3140001048303,登記記録の閉鎖等,0,2023-12-15,2023-12-11,株式会社和技研,,株式会社,兵庫県,尼崎市,浜３丁目１９番９号,,28,202,6610967,,,2023-12-11,清算の結了等,,,2015-10-05,1,,,,,カノウギケン,0
741,3140003016794,登記記録の閉鎖等,0,2023-12-15,2023-12-06,アインズグロウ合同会社,,合同会社,兵庫県,神戸市兵庫区,新開地１丁目１－８,,28,105,6520811,,,2023-12-06,清算の結了等,,,2021-10-01,1,,,,,アインズグロウ,0
744,3160001002497,登記記録の閉鎖等,0,2023-12-15,2023-12-08,株式会社リコーハウジング,,株式会社,滋賀県,大津市,大江３丁目５番２５号,,25,201,5202141,,,2023-12-08,清算の結了等,,,2015-10-05,1,,,,,リコーハウジング,0
761,3200001017631,登記記録の閉鎖等,0,2023-12-15,2023-12-11,株式会社インターネット可児,,株式会社,岐阜県,可児市,皐ケ丘１丁目３番地,,21,214,5090236,,,2023-12-11,清算の結了等,,,2015-10-05,1,,,,,インターネットカニ,0
763,3230001002523,登記記録の閉鎖等,0,2023-12-15,2023-12-14,八丸青果株式会社,,株式会社,富山県,富山市,掛尾町５００番地,,16,201,9398212,,,2023-12-14,清算の結了等,,,2015-10-05,1,,,,,ハチマルセイカ,0
764,3230001008710,登記記録の閉鎖等,0,2023-12-15,2023-12-12,株式会社かぶらや,,株式会社,富山県,南砺市,遊部川原１５番地の２,,16,210,9391622,,,2023-12-12,清算の結了等,,,2015-10-05,1,,,,,カブラヤ,0
768,3240002000772,登記記録の閉鎖等,0,2023-12-15,2023-12-14,有限会社タカキ,,有限会社,広島県,広島市中区,袋町３番２８号,,34,101,7300036,,,2023-12-14,清算の結了等,,,2015-10-05,1,,,,,タカキ,0
774,3270002000885,登記記録の閉鎖等,0,2023-12-15,2023-12-14,有限会社大正通信,,有限会社,鳥取県,鳥取市,秋里１１５１番地４,,31,201,6800902,,,2023-12-14,清算の結了等,,,2015-10-05,1,,,,,タイショウツウシン,0
775,3280001007823,登記記録の閉鎖等,0,2023-12-15,2023-12-13,株式会社三島工業所,,株式会社,島根県,大田市,久手町波根西１７７７番地１２,,32,205,6940051,,,2023-12-13,清算の結了等,,,2018-10-04,1,,,,,ミシマコウギョウショ,0
787,3290801006932,登記記録の閉鎖等,0,2023-12-15,2023-12-11,スカイグローバル株式会社,,株式会社,大阪府,八尾市,空港２丁目１２番地,,27,212,5810043,,,2023-12-11,清算の結了等,,,2015-10-05,1,,,,,スカイグローバル,0
801,3350001004433,登記記録の閉鎖等,0,2023-12-15,2023-12-08,日宝商事株式会社,,株式会社,宮崎県,宮崎市,高岡町小山田９１６番地１,,45,201,8802214,,,2023-12-08,清算の結了等,,,2023-08-31,1,,,,,ニッポウショウジ,0
813,3380002027018,登記記録の閉鎖等,0,2023-12-15,2023-12-12,有限会社エムズ産業,,有限会社,福島県,いわき市,平絹谷字扇作９番地,,07,204,9700113,,,2023-12-12,清算の結了等,,,2015-10-05,1,,,,,エムズサンギョウ,0
814,3390002000915,登記記録の閉鎖等,0,2023-12-15,2023-12-13,有限会社建装キムラ,,有限会社,山形県,山形市,上町５丁目９番２９号,,06,201,9902483,,,2023-12-13,清算の結了等,,,2015-10-05,1,,,,,ケンソウキムラ,0
815,3400003000466,登記記録の閉鎖等,0,2023-12-15,2023-12-01,合資会社マイティー,,合資会社,岩手県,岩手郡岩手町,大字子抱第６地割７１番地４,,03,303,0284304,,,2023-12-01,合併による解散等,9400002006797,令和５年１１月２０日岩手県盛岡市北夕顔瀬町７番６号株式会社水星（9400002006797）に合併し解散,2015-10-05,1,,,,,マイティー,0
821,3430002003574,登記記録の閉鎖等,0,2023-12-15,2023-12-08,有限会社えりも食品,,有限会社,北海道,札幌市西区,二十四軒一条６丁目１１番地１７,,01,107,0630801,,,2023-12-08,清算の結了等,,,2015-10-05,1,,,,,エリモショクヒン,0
830,3490001000220,登記記録の閉鎖等,0,2023-12-15,2023-12-13,株式会社植田自動車,,株式会社,高知県,高知市,朝倉丙１５８３番地３,,39,201,7808063,,,2023-12-13,清算の結了等,,,2015-10-05,1,,,,,ウエタジドウシャ,0
840,4010003031789,登記記録の閉鎖等,0,2023-12-15,2023-12-11,合同会社伊勢プロジェクト,,合同会社,東京都,千代田区,丸の内３丁目１番１号東京共同会計事務所内,,13,101,1000005,,,2023-12-11,清算の結了等,,,2020-03-05,1,,,,,イセプロジェクト,0
850,4010101007609,登記記録の閉鎖等,0,2023-12-15,2023-12-11,株式会社イーテキスト研究所,,株式会社,東京都,八王子市,大塚１７０４番地４,,13,201,1920352,,,2023-12-11,清算の結了等,,,2015-10-05,1,,,,,イーテキストケンキュウショ,0
851,4010102003136,登記記録の閉鎖等,0,2023-12-15,2023-12-06,有限会社ジーエー・デザインテック,,有限会社,東京都,八王子市,めじろ台２丁目４０番地の７,,13,201,1930833,,,2023-12-06,清算の結了等,,,2015-10-05,1,,,,,ジーエーデザインテック,0
884,4010802004524,登記記録の閉鎖等,0,2023-12-15,2023-12-11,有限会社群馬食堂,,有限会社,東京都,大田区,矢口２丁目１１番３０号,,13,111,1460093,,,2023-12-11,清算の結了等,,,2015-10-05,1,,,,,グンマショクドウ,0
890,4011002023587,登記記録の閉鎖等,0,2023-12-15,2023-12-13,有限会社プラスタイムズ,,有限会社,東京都,渋谷区,神宮前２丁目１８番７号,,13,113,1500001,,,2023-12-13,合併による解散等,6011002017348,令和５年１２月８日東京都港区六本木三丁目３番２３－４０３号株式会社コーニッシュ（6011002017348）に合併し解散,2015-10-05,1,,,,,プラスタイムズ,0
906,4011502002818,登記記録の閉鎖等,0,2023-12-15,2023-12-08,信光食品有限会社,,有限会社,東京都,北区,田端新町２丁目３０番１１号,,13,117,1140012,,,2023-12-08,清算の結了等,,,2015-10-05,1,,,,,シンコウショクヒン,0
909,4011703002113,登記記録の閉鎖等,0,2023-12-15,2023-12-06,合同会社オリエンタルテクノ,,合同会社,東京都,江戸川区,松島２丁目３３番１９号,,13,123,1320031,,,2023-12-06,清算の結了等,,,2018-10-05,1,,,,,オリエンタルテクノ,0
920,4013301010563,登記記録の閉鎖等,0,2023-12-15,2023-12-12,フジカ濾水機株式会社,,株式会社,東京都,豊島区,東池袋５丁目３９番１５号佐竹ビル３階,,13,116,1700013,,,2023-12-12,合併による解散等,5010001137307,令和５年１２月１日東京都稲城市大丸２２３１番地株式会社アクアプロダクト（5010001137307）に合併し解散,2015-10-05,1,,,,,フジカロスイキ,0
925,4020001114578,登記記録の閉鎖等,0,2023-12-15,2023-12-11,株式会社デジタルアンドダイレクトコミュニケーションズ,,株式会社,東京都,港区,港南２丁目１６番７号,,13,103,1080075,,,2023-12-11,清算の結了等,,,2016-01-26,1,,,,,デジタルアンドダイレクトコミュニケーションズ,0
934,4021001041787,登記記録の閉鎖等,0,2023-12-15,2023-12-13,株式会社ルパン,,株式会社,神奈川県,三浦郡葉山町,一色１２３４番地,,14,301,2400111,,,2023-12-13,清算の結了等,,,2015-10-05,1,,,,,ルパン,0
944,4030002108603,登記記録の閉鎖等,0,2023-12-15,2023-12-08,有限会社オプティミスト,,有限会社,埼玉県,川口市,芝樋ノ爪１丁目１６番１０号,,11,203,3330852,,,2023-12-08,清算の結了等,,,2015-10-05,1,,,,,オプティミスト,0
945,4030003000684,登記記録の閉鎖等,0,2023-12-15,2023-12-11,ＳＵＮ　ＤＩＡ合同会社,,合同会社,埼玉県,さいたま市南区,辻７丁目６番１７号１０６,00018179,11,108,3360026,,,2023-12-11,清算の結了等,,,2015-10-05,1,,,,,サンディア,0
947,4030003010221,登記記録の閉鎖等,0,2023-12-15,2023-12-11,合同会社ＴＫＹ,,合同会社,埼玉県,東松山市,大字野田１２５７番地３４,,11,212,3550007,,,2023-12-11,清算の結了等,,,2017-04-27,1,,,,,ティーケーワイ,0
953,4040002044104,登記記録の閉鎖等,0,2023-12-15,2023-12-08,有限会社吾嬬,,有限会社,千葉県,松戸市,六実３丁目２４番地２７,,12,207,2702204,,,2023-12-08,清算の結了等,,,2015-10-05,1,,,,,アヅマ,0
970,4080001004113,登記記録の閉鎖等,0,2023-12-15,2023-12-12,日本ホークサービス株式会社,,株式会社,静岡県,静岡市駿河区,小鹿１０５０番地,,22,102,4228021,,,2023-12-12,清算の結了等,,,2015-10-05,1,,,,,ニホンホークサービス,0
980,4100002011584,登記記録の閉鎖等,0,2023-12-15,2023-12-08,有限会社新生堂,,有限会社,長野県,佐久市,野沢６４番地３,,20,217,3850053,,,2023-12-08,清算の結了等,,,2015-10-05,1,,,,,シンセイドウ,0
981,4100002012203,登記記録の閉鎖等,0,2023-12-15,2023-12-07,有限会社立科企画,,有限会社,長野県,北佐久郡立科町,大字宇山１４６９番地１,,20,324,3842306,,,2023-12-07,清算の結了等,,,2015-10-05,1,,,,,タテシナキカク,0
982,4100002020569,登記記録の閉鎖等,0,2023-12-15,2023-12-08,有限会社大輪農場,,有限会社,長野県,塩尻市,大字片丘９２１５番地１２８１,,20,215,3990711,,,2023-12-08,清算の結了等,,,2015-10-05,1,,,,,オオワノウジョウ,0
1012,4140001102356,登記記録の閉鎖等,0,2023-12-15,2023-12-11,株式会社Ｃｈｅｅｒ　ｕｐ,,株式会社,兵庫県,三木市,志染町青山６丁目１３番地の７,,28,215,6730521,,,2023-12-11,清算の結了等,,,2016-06-10,1,,,,,チアアップ,0
1015,4140002000187,登記記録の閉鎖等,0,2023-12-15,2023-12-11,有限会社エ・ピー・エム,,有限会社,兵庫県,神戸市東灘区,本庄町１丁目２番２１号,,28,101,6580012,,,2023-12-11,清算の結了等,,,2015-10-05,1,,,,,エピーエム,0
1016,4140002060891,登記記録の閉鎖等,0,2023-12-15,2023-12-08,有限会社黄帝壽,00041389,有限会社,兵庫県,西宮市,寿町５番１９号,,28,204,6620047,,,2023-12-08,清算の結了等,,,2015-10-05,1,,,,,コウテイジュ,0
1031,4190001022302,登記記録の閉鎖等,0,2023-12-15,2023-12-13,ＡＧＬ株式会社,,株式会社,三重県,四日市市,釆女が丘４丁目３３番地,,24,202,5100953,,,2023-12-13,清算の結了等,,,2015-10-05,1,,,,,エージーエル,0
1034,4210002000320,登記記録の閉鎖等,0,2023-12-15,2023-12-12,有限会社石田補聴器,,有限会社,福井県,福井市,上中町第１０号１８番地の１,,18,201,9100826,,,2023-12-12,清算の結了等,,,2015-10-05,1,,,,,イシダホチョウキ,0
1035,4210002004981,登記記録の閉鎖等,0,2023-12-15,2023-12-12,有限会社ピ・ワイズ,,有限会社,福井県,福井市,御幸４丁目２２番３０号,,18,201,9100854,,,2023-12-12,清算の結了等,,,2015-10-05,1,,,,,ピワイズ,0
1037,4250001008749,登記記録の閉鎖等,0,2023-12-15,2023-12-13,株式会社片山,,株式会社,山口県,周南市,沖見町１丁目２４番地,,35,215,7450051,,,2023-12-13,清算の結了等,,,2015-10-05,1,,,,,カタヤマ,0
1047,4290001042174,登記記録の閉鎖等,0,2023-12-15,2023-12-12,株式会社サン・エネルギー社,,株式会社,福岡県,筑紫野市,武蔵３丁目１番８号,,40,217,8180052,,,2023-12-12,合併による解散等,9130001062373,令和５年１２月１日大阪府吹田市広芝町５番１２号ＭＥＤ　Ｃｏｍｍｕｎｉｃａｔｉｏｎｓ西日本株式会社（9130001062373）に合併し解散,2015-10-05,1,,,,,サンエネルギーシャ,0
1068,4370001041960,登記記録の閉鎖等,0,2023-12-15,2023-12-04,株式会社Ｍ＆Ｍホールディングス,,株式会社,宮城県,亘理郡亘理町,逢隈鹿島字西鹿島６２番地,00111145,04,361,9892371,,,2023-12-04,合併による解散等,1370801000581,令和５年１２月１日宮城県亘理郡亘理町逢隈鹿島字西鹿島６２番地株式会社馬上かまぼこ店（1370801000581）に合併し解散,2017-08-22,1,,,,,エムアンドエムホールディングス,0
1074,4430001001207,登記記録の閉鎖等,0,2023-12-15,2023-12-08,株式会社イーメンズ開発研究所,,株式会社,北海道,札幌市白石区,本郷通１３丁目南５－１９,,01,104,0030024,,,2023-12-08,清算の結了等,,,2015-10-05,1,,,,,イーメンズカイハツケンキュウジョ,0
1075,4430001057892,登記記録の閉鎖等,0,2023-12-15,2023-12-11,株式会社ｃｏｅｕｒ,,株式会社,北海道,登別市,桜木町３丁目１３番地１,,01,230,0590023,,,2023-12-11,清算の結了等,,,2015-10-05,1,,,,,,0
1082,4470001005195,登記記録の閉鎖等,0,2023-12-15,2023-12-11,株式会社桜屋,,株式会社,香川県,高松市,栗林町２丁目３番１－２０４号,,37,201,7600073,,,2023-12-11,清算の結了等,,,2015-10-05,1,,,,,サクラヤ,0
1083,4470001015013,登記記録の閉鎖等,0,2023-12-15,2023-12-13,ファンアールコンセプト株式会社,,株式会社,香川県,高松市,伏石町２１３０番地４,,37,201,7618071,,,2023-12-13,清算の結了等,,,2015-10-05,1,,,,,,0
1089,4500001009358,登記記録の閉鎖等,0,2023-12-15,2023-12-12,内海被服株式会社,,株式会社,愛媛県,西条市,丹原町今井１０９番地,,38,206,7910503,,,2023-12-12,清算の結了等,,,2015-10-05,1,,,,,ナイカイヒフク,0
1105,5010003030039,登記記録の閉鎖等,0,2023-12-15,2023-12-11,合同会社高松プロジェクト,,合同会社,東京都,千代田区,丸の内３丁目１番１号東京共同会計事務所内,,13,101,1000005,,,2023-12-11,清算の結了等,,,2019-06-18,1,,,,,タカマツプロジェクト,0
1119,5010402009831,登記記録の閉鎖等,0,2023-12-15,2023-12-11,有限会社日完工芸,,有限会社,東京都,港区,三田１丁目１０番１４号,,13,103,1080073,,,2023-12-11,清算の結了等,,,2015-10-05,1,,,,,ニッカンコウゲイ,0
1130,5010701040132,登記記録の閉鎖等,0,2023-12-15,2023-12-11,株式会社ＧＮＦ,,株式会社,東京都,品川区,東五反田４丁目１０番９－６０３号,,13,109,1410022,,,2023-12-11,清算の結了等,,,2020-11-20,1,,,,,ジーエヌエフ,0
1133,5010702010183,登記記録の閉鎖等,0,2023-12-15,2023-12-11,有限会社城南防水工業,,有限会社,東京都,品川区,小山２丁目１６番３号,,13,109,1420062,,,2023-12-11,清算の結了等,,,2015-10-05,1,,,,,ジョウナンボウスイ,0
1137,5010901007567,登記記録の閉鎖等,0,2023-12-15,2023-12-07,ツバサ不動産株式会社,,株式会社,東京都,世田谷区,北沢２丁目１番１号,,13,112,1550031,,,2023-12-07,清算の結了等,,,2015-10-05,1,,,,,ツバサフドウサン,0
1166,5012402000472,登記記録の閉鎖等,0,2023-12-15,2023-12-12,有限会社エターナル,,有限会社,東京都,府中市,分梅町５丁目７番地の２６,,13,206,1830033,,,2023-12-12,清算の結了等,,,2015-10-05,1,,,,,エターナル,0
1192,5021005009350,登記記録の閉鎖等,0,2023-12-15,2023-12-13,特定非営利活動法人アシスト,,その他の設立登記法人,神奈川県,相模原市緑区,名倉３１１４番地,,14,151,2520187,,,2023-12-13,清算の結了等,,,2015-10-05,1,,,,,アシスト,0
1203,5030002000131,登記記録の閉鎖等,0,2023-12-15,2023-12-08,有限会社アーバン・プロヂェクト,,有限会社,埼玉県,さいたま市南区,根岸１丁目１５番６号,,11,108,3360024,,,2023-12-08,清算の結了等,,,2015-10-05,1,,,,,アーバンプロヂェクト,0
1206,5030002089099,登記記録の閉鎖等,0,2023-12-15,2023-12-05,ゼネラル有限会社,,有限会社,埼玉県,越谷市,大成町７丁目１６４４番地１,,11,222,3430825,,,2023-12-05,清算の結了等,,,2015-10-05,1,,,,,ゼネラル,0
1220,5070001026405,登記記録の閉鎖等,0,2023-12-15,2023-12-13,株式会社プログレスファクトリー,,株式会社,群馬県,前橋市,天川大島町１３９２番地,,10,201,3792154,,,2023-12-13,清算の結了等,,,2015-10-05,1,,,,,プログレスファクトリー,0
1224,5070002023517,登記記録の閉鎖等,0,2023-12-15,2023-12-11,有限会社酒井梱包,,有限会社,群馬県,桐生市,相生町５丁目３０７番地３,,10,203,3760011,,,2023-12-11,清算の結了等,,,2015-10-05,1,,,,,,0
1247,5120001012795,登記記録の閉鎖等,0,2023-12-15,2023-12-14,太成シーリング株式会社,,株式会社,大阪府,大阪市東成区,深江北３丁目１７番１５号,,27,115,5370001,,,2023-12-14,清算の結了等,,,2015-10-05,1,,,,,タイセイシーリング,0
1260,5120002065784,登記記録の閉鎖等,0,2023-12-15,2023-12-13,有限会社ハイ・メタル,,有限会社,岡山県,備前市,友延５０５番地,,33,211,7050034,,,2023-12-13,清算の結了等,,,2015-10-05,1,,,,,ハイメタル,0
1284,5180001038240,登記記録の閉鎖等,0,2023-12-15,2023-12-08,株式会社ワールドウッドゴルフクラブ,,株式会社,愛知県,名古屋市名東区,小井堀町４０５番地１,,23,115,4650044,,,2023-12-08,清算の結了等,,,2015-10-05,1,,,,,ワールドウッドゴルフクラブ,0
1287,5180001039362,登記記録の閉鎖等,0,2023-12-15,2023-12-08,株式会社日本事務計算センター,,株式会社,愛知県,名古屋市中村区,名駅３丁目２６番１９号,,23,105,4500002,,,2023-12-08,清算の結了等,,,2015-10-05,1,,,,,ニホンジムケイサン,0
1295,5180002089836,登記記録の閉鎖等,0,2023-12-15,2023-12-11,有限会社ニットー設備,,有限会社,愛知県,海部郡蟹江町,錦３丁目２４番地,,23,425,4970054,,,2023-12-11,清算の結了等,,,2015-10-05,1,,,,,ニットーセツビ,0
1298,5180302022950,登記記録の閉鎖等,0,2023-12-15,2023-12-08,有限会社中川設備,,有限会社,愛知県,豊田市,宝町十三塚１３番地３,,23,211,4730908,,,2023-12-08,清算の結了等,,,2015-10-05,1,,,,,ナカガワセツビ,0
1309,5230002009706,登記記録の閉鎖等,0,2023-12-15,2023-12-11,有限会社岩崎溶接工業,,有限会社,富山県,南砺市,吉江中１２８５番地,,16,210,9391702,,,2023-12-11,清算の結了等,,,2015-10-05,1,,,,,イワサキヨウセツコウギョウ,0
1314,5280001000330,登記記録の閉鎖等,0,2023-12-15,2023-12-14,株式会社島根県合同折込,,株式会社,島根県,松江市,竹矢町１７６５番地,,32,201,6900023,,,2023-12-14,清算の結了等,,,2015-10-05,1,,,,,シマネケンゴウドウオリコミ,0
1316,5290001078903,登記記録の閉鎖等,0,2023-12-15,2023-12-08,株式会社エムテック・エンジニアリング,,株式会社,東京都,港区,港南２丁目１６番４号８階,,13,103,1080075,,,2023-12-08,清算の結了等,,,2017-08-25,1,,,,,エムテックエンジニアリング,0
1317,5290001084224,登記記録の閉鎖等,0,2023-12-15,2023-12-13,株式会社カモメ化粧品,,株式会社,長崎県,平戸市,津吉町７８３番地３,,42,207,8595512,,,2023-12-13,清算の結了等,,,2019-02-13,1,,,,,カモメケショウヒン,0
1331,5320002006248,登記記録の閉鎖等,0,2023-12-15,2023-12-13,有限会社ホクリク商事,,有限会社,大分県,別府市,山の手町８番２３号,,44,202,8740828,,,2023-12-13,清算の結了等,,,2015-10-05,1,,,,,ホクリクショウジ,0
1335,5350002016450,登記記録の閉鎖等,0,2023-12-15,2023-12-08,有限会社伊豆本商店,,有限会社,宮崎県,日南市,大字酒谷乙４５６５番地,,45,204,8892511,,,2023-12-08,清算の結了等,,,2015-10-05,1,,,,,イズモトショウテン,0
1345,5370001042074,登記記録の閉鎖等,0,2023-12-15,2023-12-04,株式会社馬上資産管理,,株式会社,宮城県,亘理郡亘理町,逢隈鹿島字西鹿島６２番地,00111391,04,361,9892371,,,2023-12-04,合併による解散等,1370801000581,令和５年１２月１日宮城県亘理郡亘理町逢隈鹿島字西鹿島６２番地株式会社馬上かまぼこ店（1370801000581）に合併し解散,2017-09-22,1,,,,,バジョウシサンカンリ,0
1368,6010001007509,登記記録の閉鎖等,0,2023-12-15,2023-12-12,丸進運輸株式会社,,株式会社,東京都,文京区,白山２丁目１３番５号,,13,105,1120001,,,2023-12-12,清算の結了等,,,2015-10-05,1,,,,,マルシンウンユ,0
1370,6010001085752,登記記録の閉鎖等,0,2023-12-15,2023-12-07,株式会社ピージーエム,,株式会社,千葉県,我孫子市,天王台４丁目２１番１１号,,12,222,2701143,,,2023-12-07,清算の結了等,,,2015-10-05,1,,,,,ピージーエム,0
1371,6010001088722,登記記録の閉鎖等,0,2023-12-15,2023-12-12,シーアンドディー株式会社,,株式会社,東京都,中央区,銀座３丁目５番３号,,13,102,1040061,,,2023-12-12,清算の結了等,,,2015-10-05,1,,,,,シーアンドディー,0
1372,6010001174745,登記記録の閉鎖等,0,2023-12-15,2023-12-12,グリーンシージー株式会社,,株式会社,東京都,中央区,京橋１丁目１７番１号,,13,102,1040031,,,2023-12-12,清算の結了等,,,2016-04-06,1,,,,,グリーンシージー,0
1411,6011001112331,登記記録の閉鎖等,0,2023-12-15,2023-12-11,株式会社ネットアヴェニュー,,株式会社,東京都,渋谷区,広尾１丁目３番１８号,,13,113,1500012,,,2023-12-11,清算の結了等,,,2016-08-15,1,,,,,,0
1447,6013102006610,登記記録の閉鎖等,0,2023-12-15,2023-12-08,有限会社パシフィック,,有限会社,東京都,青梅市,長淵２丁目５４６番地の２,,13,205,1980052,,,2023-12-08,清算の結了等,,,2015-10-05,1,,,,,,0
1448,6013103000810,登記記録の閉鎖等,0,2023-12-15,2023-12-13,合同会社円美商事,,合同会社,東京都,福生市,牛浜４５番地１１レクセルマンション牛浜第２、２０５号室,,13,218,1970024,,,2023-12-13,清算の結了等,,,2018-04-05,1,,,,,マルミショウジ,0
1466,6020002068400,登記記録の閉鎖等,0,2023-12-15,2023-12-08,有限会社前田コンサルティング,,有限会社,神奈川県,横浜市港北区,大曽根２丁目２５番３－１０３号,,14,109,2220003,,,2023-12-08,清算の結了等,,,2015-10-05,1,,,,,マエダコンサルティング,0
1487,6030003011127,登記記録の閉鎖等,0,2023-12-15,2023-12-08,フォーマルハウト合同会社,,合同会社,埼玉県,さいたま市緑区,大字中尾３０８５－２０６,,11,109,3360932,,,2023-12-08,清算の結了等,,,2017-12-11,1,,,,,フォーマルハウト,0
1488,6030003012257,登記記録の閉鎖等,0,2023-12-15,2023-12-07,合同会社Ｏｎｅ　Ｈｅａｒｔ,,合同会社,埼玉県,春日部市,大枝３８９番地９,,11,214,3440023,,,2023-12-07,清算の結了等,,,2018-08-01,1,,,,,ワンハート,0
1489,6030005000747,登記記録の閉鎖等,0,2023-12-15,2023-12-11,大宮薬業協同組合,,その他の設立登記法人,埼玉県,さいたま市北区,日進町２丁目１１２５番地４８,,11,102,3310823,,,2023-12-11,清算の結了等,,,2015-10-05,1,,,,,オオミヤヤクギョウ,0
1491,6040002000071,登記記録の閉鎖等,0,2023-12-15,2023-12-08,有限会社青木寝装店,,有限会社,千葉県,千葉市中央区,南町３丁目１８番１２号,,12,101,2600842,,,2023-12-08,清算の結了等,,,2015-10-05,1,,,,,アオキシンソウテン,0
1505,6080401006509,登記記録の閉鎖等,0,2023-12-15,2023-12-14,株式会社エレネット,,株式会社,静岡県,浜松市北区,豊岡町３８５番地の２,,22,135,4338103,,,2023-12-14,清算の結了等,,,2015-10-05,1,,,,,,0
1516,6120001215447,登記記録の閉鎖等,0,2023-12-15,2023-12-07,株式会社アクト,,株式会社,兵庫県,神戸市中央区,三宮町２丁目１０番７号,,28,110,6500021,,,2023-12-07,清算の結了等,,,2018-08-22,1,,,,,アクト,0
1523,6120002018717,登記記録の閉鎖等,0,2023-12-15,2023-12-12,有限会社三精舎,,有限会社,大阪府,大阪市福島区,野田２丁目２２番６号,,27,103,5530005,,,2023-12-12,清算の結了等,,,2015-10-05,1,,,,,サンセイシャ,0
1527,6120002080816,登記記録の閉鎖等,0,2023-12-15,2023-12-14,有限会社オフィス・ビーアール,,有限会社,大阪府,守口市,佐太中町４丁目１９番１３－８１７号,,27,209,5700002,,,2023-12-14,清算の結了等,,,2015-10-05,1,,,,,オフィスビーアール,0
1528,6120003013824,登記記録の閉鎖等,0,2023-12-15,2023-12-04,合同会社ＳＵＺＵＫＩ　ＷＯＲＫＳ,,合同会社,愛知県,一宮市,富士２丁目１４番４号,,23,203,4910024,,,2023-12-04,清算の結了等,,,2018-01-19,1,,,,,スズキワークス,0
1532,6120902014922,登記記録の閉鎖等,0,2023-12-15,2023-12-13,有限会社ワクモト,,有限会社,大阪府,大阪市西淀川区,大和田３丁目５番５号,,27,113,5550032,,,2023-12-13,清算の結了等,,,2015-10-05,1,,,,,ワクモト,0
1568,6200002021274,登記記録の閉鎖等,0,2023-12-15,2023-12-13,有限会社俊峰陶苑,,有限会社,岐阜県,土岐市,肥田町肥田１３３１番地の３,,21,212,5095115,,,2023-12-13,清算の結了等,,,2015-10-05,1,,,,,シュンホウトウエン,0
1580,6250001000290,登記記録の閉鎖等,0,2023-12-15,2023-12-13,新英産業株式会社,,株式会社,山口県,山口市,朝田字流通センター６０１番地１３,,35,203,7530871,,,2023-12-13,清算の結了等,,,2015-10-05,1,,,,,,0
1585,6270003000527,登記記録の閉鎖等,0,2023-12-15,2023-12-13,合同会社いこいの広場らんちゅう,,合同会社,鳥取県,日野郡江府町,大字武庫１１９８番地１,,31,403,6894411,,,2023-12-13,清算の結了等,,,2015-10-05,1,,,,,,0
1599,6290002043062,登記記録の閉鎖等,0,2023-12-15,2023-12-06,有限会社ジェイ企画プランニング,,有限会社,福岡県,筑紫野市,大字原田２１３８番地,,40,217,8180024,,,2023-12-06,清算の結了等,,,2015-10-05,1,,,,,ジェイキカクプランニング,0
1605,6300003001059,登記記録の閉鎖等,0,2023-12-15,2023-12-13,合同会社絹,,合同会社,佐賀県,杵島郡白石町,大字廿治２９７０番地,,41,425,8491106,,,2023-12-13,清算の結了等,,,2015-10-05,1,,,,,シルク,0
1623,6430001049194,登記記録の閉鎖等,0,2023-12-15,2023-12-11,株式会社プレシャ,,株式会社,北海道,札幌市西区,福井５丁目１２番１４号,,01,107,0630012,,,2023-12-11,清算の結了等,,,2015-10-05,1,,,,,プレシャ,0
1631,6460002003222,登記記録の閉鎖等,0,2023-12-15,2023-12-13,有限会社モアおのでら,,有限会社,北海道,釧路市,昭和北１丁目１３番４号,,01,206,0840901,,,2023-12-13,清算の結了等,,,2015-10-05,1,,,,,モアオノデラ,0
1632,6460302003475,登記記録の閉鎖等,0,2023-12-15,2023-12-14,有限会社エフシス,,有限会社,北海道,網走郡美幌町,字仲町１丁目１４１番地の２８,,01,543,0920004,,,2023-12-14,清算の結了等,,,2015-10-05,1,,,,,,0
1634,6470002017898,登記記録の閉鎖等,0,2023-12-15,2023-12-11,有限会社杉鉄工,,有限会社,香川県,さぬき市,志度３８５２番地２,,37,206,7692101,,,2023-12-11,清算の結了等,,,2015-10-05,1,,,,,スギテッコウ,0
1635,6470002018491,登記記録の閉鎖等,0,2023-12-15,2023-12-14,有限会社中村精工,,有限会社,香川県,東かがわ市,西村１３９４番地,,37,207,7692604,,,2023-12-14,清算の結了等,,,2015-10-05,1,,,,,ナカムラセイコウ,0
1667,7010102007547,登記記録の閉鎖等,0,2023-12-15,2023-12-13,有限会社リブ・プランニング,,有限会社,東京都,八王子市,散田町５丁目１３番８号２０３,,13,201,1930832,,,2023-12-13,清算の結了等,,,2015-10-05,1,,,,,リブプランニング,0
1688,7011001115688,登記記録の閉鎖等,0,2023-12-15,2023-12-11,株式会社ＡＮＤＣＨＡＩＮ,,株式会社,熊本県,熊本市東区,長嶺南１丁目６番５号複合店舗２０２,,43,102,8618039,,,2023-12-11,合併による解散等,9011001113863,令和５年１１月１５日東京都渋谷区恵比寿四丁目２０番４号恵比寿ガーデンプレイスグラススクエア内ＰＯＲＴＡＬＰＯＩＮＴ．Ｈ６株式会社ＢＨＫ（9011001113863）に合併し解散,2017-04-06,1,,,,,アンドチェイン,0
1697,7011201013915,登記記録の閉鎖等,0,2023-12-15,2023-12-12,然株式会社,,株式会社,東京都,目黒区,東山３丁目１－１５－４Ｆ,,13,110,1530043,,,2023-12-12,清算の結了等,,,2015-10-05,1,,,,,ゼン,0
1728,7021001059125,登記記録の閉鎖等,0,2023-12-15,2023-12-13,株式会社ｓｉｅｌ,,株式会社,神奈川県,横須賀市,根岸町４丁目２５番２４号房総ビルＩＩＩ１０３号,00106532,14,201,2390807,,,2023-12-13,清算の結了等,,,2016-04-22,1,,,,,,0
1735,7030001036604,登記記録の閉鎖等,0,2023-12-15,2023-12-07,株式会社かめや,,株式会社,埼玉県,三郷市,早稲田２丁目１８番地１２,,11,237,3410018,,,2023-12-07,清算の結了等,,,2015-10-05,1,,,,,カメヤ,0
1741,7030002067937,登記記録の閉鎖等,0,2023-12-15,2023-12-11,有限会社エスプラン,,有限会社,埼玉県,入間市,東町１丁目４番５号,,11,225,3580002,,,2023-12-11,清算の結了等,,,2015-10-05,1,,,,,エスプラン,0
1746,7040001035695,登記記録の閉鎖等,0,2023-12-15,2023-12-08,株式会社新日本パック,,株式会社,千葉県,松戸市,中根長津町１８番地,,12,207,2710054,,,2023-12-08,清算の結了等,,,2015-10-05,1,,,,,シンニホンパック,0
1753,7040002071392,登記記録の閉鎖等,0,2023-12-15,2023-12-07,有限会社富津商工,,有限会社,千葉県,富津市,千種新田１１５４番地,,12,226,2930036,,,2023-12-07,清算の結了等,,,2015-10-05,1,,,,,フッツショウコウ,0
1760,7050001011423,登記記録の閉鎖等,0,2023-12-15,2023-12-08,株式会社河合呉服店,,株式会社,茨城県,石岡市,柿岡１９８４番地,,08,205,3150116,,,2023-12-08,清算の結了等,,,2015-10-05,1,,,,,カワイゴフクテン,0
1768,7050002031627,登記記録の閉鎖等,0,2023-12-15,2023-12-12,有限会社ワイ・ケー機工,,有限会社,茨城県,那珂郡東海村,舟石川駅東４丁目７番３１号の２０１,,08,341,3191118,,,2023-12-12,清算の結了等,,,2015-10-05,1,,,,,ワイケーキコウ,0
1771,7070001000184,登記記録の閉鎖等,0,2023-12-15,2023-12-11,株式会社阿部鉄工所,,株式会社,群馬県,前橋市,東片貝町６７８番地,,10,201,3710012,,,2023-12-11,清算の結了等,,,2015-10-05,1,,,,,アベテッコウショ,0
1775,7070001016321,登記記録の閉鎖等,0,2023-12-15,2023-12-11,株式会社ＴＴＲツアー,,株式会社,群馬県,桐生市,錦町２丁目１０番２６号,,10,203,3760023,,,2023-12-11,清算の結了等,,,2015-10-05,1,,,,,ティーティーアールツアー,0
1780,7070002016345,登記記録の閉鎖等,0,2023-12-15,2023-12-08,有限会社鈴木化成工業,,有限会社,群馬県,富岡市,南後箇３７５番地１,,10,210,3702324,,,2023-12-08,清算の結了等,,,2015-10-05,1,,,,,スズキカセイコウギョウ,0
1795,7110002017859,登記記録の閉鎖等,0,2023-12-15,2023-12-11,有限会社中越鋼管,,有限会社,新潟県,三条市,荻堀字藤平１３９７番地５５,,15,204,9550151,,,2023-12-11,清算の結了等,,,2015-10-05,1,,,,,チュウエツコウカン,0
1796,7110002020177,登記記録の閉鎖等,0,2023-12-15,2023-12-11,有限会社アサヒ電化,,有限会社,新潟県,柏崎市,半田２丁目１番１２号,,15,205,9450812,,,2023-12-11,清算の結了等,,,2015-10-05,1,,,,,アサヒデンカ,0
1815,7120101021934,登記記録の閉鎖等,0,2023-12-15,2023-12-14,キンジヨ株式会社,,株式会社,大阪府,堺市美原区,今井５０番地１,,27,147,5870061,,,2023-12-14,清算の結了等,,,2015-10-05,1,,,,,キンジヨ,0
1825,7140001087446,登記記録の閉鎖等,0,2023-12-15,2023-12-11,エストライン株式会社,,株式会社,兵庫県,姫路市,博労町８６番地,,28,201,6700906,,,2023-12-11,清算の結了等,,,2015-10-05,1,,,,,エストライン,0
1835,7160002012351,登記記録の閉鎖等,0,2023-12-15,2023-12-11,有限会社ビッグラン滋賀,,有限会社,滋賀県,草津市,草津町１９６６番地の１,,25,206,5250036,,,2023-12-11,清算の結了等,,,2015-10-05,1,,,,,ビッグランシガ,0
1846,7180301015391,登記記録の閉鎖等,0,2023-12-15,2023-12-12,株式会社東名企画,,株式会社,愛知県,碧南市,沢渡町２４２番地,,23,209,4470879,,,2023-12-12,清算の結了等,,,2015-10-05,1,,,,,トウメイキカク,0
1850,7190001012242,登記記録の閉鎖等,0,2023-12-15,2023-12-13,三英工業株式会社,,株式会社,三重県,三重郡菰野町,大字菰野１２２５番地１０,,24,341,5101233,,,2023-12-13,清算の結了等,,,2015-10-05,1,,,,,サンエイコウギョウ,0
1855,7200001017388,登記記録の閉鎖等,0,2023-12-15,2023-12-13,株式会社丸英,,株式会社,岐阜県,加茂郡白川町,赤河２１９番地の２,,21,506,5091112,,,2023-12-13,清算の結了等,,,2015-10-05,1,,,,,マルエイ,0
1861,7210005009331,登記記録の閉鎖等,0,2023-12-15,2023-12-13,農事組合法人畑農産,,その他の設立登記法人,福井県,福井市,大土呂町第２１号１３番地,,18,201,9190327,,,2023-12-13,清算の結了等,,,2015-10-05,1,,,,,ハタノウサン,0
1871,7240001025247,登記記録の閉鎖等,0,2023-12-15,2023-12-11,株式会社ささべ不動産,,株式会社,広島県,三次市,南畑敷町３３５番地６,,34,209,7280017,,,2023-12-11,清算の結了等,,,2015-10-05,1,,,,,ササベフドウサン,0
1874,7260002007457,登記記録の閉鎖等,0,2023-12-15,2023-12-13,有限会社西日本エンドレス,,有限会社,岡山県,岡山市南区,郡１０１番地の３５,,33,104,7028011,,,2023-12-13,清算の結了等,,,2015-10-05,1,,,,,ニシニホンエンドレス,0
1875,7270002008454,登記記録の閉鎖等,0,2023-12-15,2023-12-13,有限会社湊谷商事,,有限会社,鳥取県,西伯郡大山町,御来屋６５番地３,,31,386,6893211,,,2023-12-13,清算の結了等,,,2015-10-05,1,,,,,ミナトダニショウジ,0
1905,7380001030340,登記記録の閉鎖等,0,2023-12-15,2023-12-12,株式会社ミラージュ,,株式会社,福島県,福島市,小倉寺字鍜冶屋１６番地１５ベルヴィエ小倉寺１０２,,07,201,9608142,,,2023-12-12,清算の結了等,,,2019-09-30,1,,,,,ミラージュ,0
1975,8011403002979,登記記録の閉鎖等,0,2023-12-15,2023-12-11,駿河台アセット合同会社,,合同会社,東京都,港区,元赤坂１丁目１番８号株式会社赤坂国際会計内,,13,103,1070051,,,2023-12-11,清算の結了等,,,2020-04-16,1,,,,,スルガダイアセット,0
1980,8012402013579,登記記録の閉鎖等,0,2023-12-15,2023-12-12,有限会社トモエ企画,,有限会社,東京都,狛江市,中和泉１丁目４番１６号,,13,219,2010012,,,2023-12-12,清算の結了等,,,2015-10-05,1,,,,,,0
1995,8020002040852,登記記録の閉鎖等,0,2023-12-15,2023-12-08,有限会社脇坂海運,,有限会社,神奈川県,横浜市鶴見区,生麦３丁目１０番１０号,,14,101,2300052,,,2023-12-08,清算の結了等,,,2015-10-05,1,,,,,ワキサカカイウン,0
2001,8021002053340,登記記録の閉鎖等,0,2023-12-15,2023-12-13,有限会社小野ビル,,有限会社,神奈川県,小田原市,栄町２丁目２番３号,,14,206,2500011,,,2023-12-13,清算の結了等,,,2015-10-05,1,,,,,オノビル,0
2016,8030002095532,登記記録の閉鎖等,0,2023-12-15,2023-12-08,有限会社アドバンス,,有限会社,埼玉県,東松山市,大字上野本１９５５番地６,,11,212,3550073,,,2023-12-08,清算の結了等,,,2015-10-05,1,,,,,アドバンス,0
2043,8120001012248,登記記録の閉鎖等,0,2023-12-15,2023-12-08,幸田鋼材株式会社,,株式会社,大阪府,大阪市東成区,神路４丁目７番１３号,,27,115,5370003,,,2023-12-08,清算の結了等,,,2015-10-05,1,,,,,コウダコウザイ,0
2044,8120001111792,登記記録の閉鎖等,0,2023-12-15,2023-12-11,株式会社シードウェル,,株式会社,大阪府,大阪市淀川区,宮原４丁目１番１４号住友生命新大阪北ビル９階,,27,123,5320003,,,2023-12-11,合併による解散等,3120001057537,令和５年１２月１１日大阪市淀川区宮原四丁目１番１４号日硝実業株式会社（3120001057537）に合併し解散,2015-10-05,1,,,,,シードウェル,0
2046,8120001224223,登記記録の閉鎖等,0,2023-12-15,2023-12-14,チェファナ株式会社,,株式会社,大阪府,大阪市中央区,和泉町２丁目１番７号,,27,128,5400019,,,2023-12-14,清算の結了等,,,2019-10-03,1,,,,,チェファナ,0
2048,8120001250533,登記記録の閉鎖等,0,2023-12-15,2023-12-06,明皓貿易株式会社,,株式会社,大阪府,大阪市生野区,巽北１丁目１番１号２Ｆ－Ｈ,,27,116,5440004,,,2023-12-06,清算の結了等,,,2022-11-29,1,,,,,メイコウ,0
2069,8140001000762,登記記録の閉鎖等,0,2023-12-15,2023-12-11,株式会社マツミヤ,,株式会社,兵庫県,芦屋市,上宮川町６番１－１０１号,,28,206,6590061,,,2023-12-11,清算の結了等,,,2015-10-05,1,,,,,マツミヤ,0
2094,8180002044771,登記記録の閉鎖等,0,2023-12-15,2023-12-08,有限会社デザインクラフトミニ,,有限会社,愛知県,名古屋市守山区,城南町９番２号,,23,113,4630014,,,2023-12-08,清算の結了等,,,2015-10-05,1,,,,,デザインクラフトミニ,0
2095,8190001000436,登記記録の閉鎖等,0,2023-12-15,2023-12-13,ジェイ・ビィ・エム株式会社,,株式会社,三重県,津市,一身田栄町３８０番地,,24,201,5140000,,,2023-12-13,清算の結了等,,,2015-10-05,1,,,,,,0
2096,8190001012241,登記記録の閉鎖等,0,2023-12-15,2023-12-12,株式会社サンウエスト,,株式会社,三重県,桑名市,大字大福３７３番地１,,24,205,5110834,,,2023-12-12,清算の結了等,,,2015-10-05,1,,,,,サンウエスト,0
2117,8270002004799,登記記録の閉鎖等,0,2023-12-15,2023-12-13,有限会社ミルキーウェイ,,有限会社,鳥取県,鳥取市,佐治町高山４７５番地２,,31,201,6891312,,,2023-12-13,清算の結了等,,,2015-10-05,1,,,,,ミルキーウェイ,0
2137,8310003000173,登記記録の閉鎖等,0,2023-12-15,2023-12-13,合資会社林田恒呉服店,,合資会社,長崎県,長崎市,平和町１０番１３号,,42,201,8528116,,,2023-12-13,清算の結了等,,,2015-10-05,1,,,,,ハヤシダセンゴフクテン,0
2145,8340003002233,登記記録の閉鎖等,0,2023-12-15,2023-12-13,悠久合同会社,,合同会社,鹿児島県,鹿児島市,郡元１丁目１１番３号ロフティ郡元駅前９０２号,,46,201,8900065,,,2023-12-13,清算の結了等,,,2016-12-09,1,,,,,ユウキュウ,0
2150,8360001012389,登記記録の閉鎖等,0,2023-12-15,2023-12-07,オリオン嵐山株式会社,,株式会社,沖縄県,国頭郡今帰仁村,字呉我山６５４番地３２,,47,306,9050413,,,2023-12-07,合併による解散等,7360001008504,令和５年１２月１日沖縄県豊見城市字豊崎１番地４１１オリオンビール株式会社（7360001008504）に合併し解散,2015-10-05,1,,,,,オリオンアラシヤマ,0
2156,8370001049661,登記記録の閉鎖等,0,2023-12-15,2023-12-12,株式会社紅葉,,株式会社,宮城県,多賀城市,新田字初向８１番地の８,,04,209,9850854,,,2023-12-12,清算の結了等,,,2023-03-02,1,,,,,モミジ,0
2164,8390002009588,登記記録の閉鎖等,0,2023-12-15,2023-12-08,有限会社ティップス,,有限会社,山形県,鶴岡市,新海町１７番６８号,,06,203,9970044,,,2023-12-08,清算の結了等,,,2015-10-05,1,,,,,ティップス,0
2166,8420002019022,登記記録の閉鎖等,0,2023-12-15,2023-12-12,有限会社山本製材所,,有限会社,青森県,三沢市,大字三沢字山ノ下８４番地２号,,02,207,0330022,,,2023-12-12,清算の結了等,,,2015-10-05,1,,,,,ヤマモトセイザイショ,0
2173,8450001008584,登記記録の閉鎖等,0,2023-12-15,2023-12-12,株式会社新保産業,,株式会社,北海道,稚内市,大字声問村字下豊別２１１６番地,,01,214,0986573,,,2023-12-12,清算の結了等,,,2015-10-05,1,,,,,シンポサンギョウ,0
2208,9010403026979,登記記録の閉鎖等,0,2023-12-15,2023-12-08,合同会社プラスワン,,合同会社,東京都,港区,芝３丁目１３番４号８０３号室,,13,103,1050014,,,2023-12-08,清算の結了等,,,2022-01-26,1,,,,,プラスワン,0
2215,9010705000368,登記記録の閉鎖等,0,2023-12-15,2023-12-12,医療法人社団幸亮会,,その他の設立登記法人,東京都,品川区,大井１丁目２５番４号シティハイツ大井町１階,,13,109,1400014,,,2023-12-12,清算の結了等,,,2015-10-05,1,,,,,コウリョウカイ,0
2242,9012401007663,登記記録の閉鎖等,0,2023-12-15,2023-12-12,株式会社神戸屋レストラン,,株式会社,東京都,調布市,入間町１丁目３４番地１６,,13,208,1820004,,,2023-12-12,合併による解散等,2120001051672,令和５年１２月１日大阪府豊中市新千里西町一丁目２番２号株式会社神戸屋（2120001051672）に合併し解散,2015-10-05,1,,,,,コウベヤレストラン,0
2260,9021001026602,登記記録の閉鎖等,0,2023-12-15,2023-12-14,株式会社ユニキャット,,株式会社,神奈川県,座間市,入谷東４丁目６４番１号,,14,216,2520028,,,2023-12-14,清算の結了等,,,2015-10-05,1,,,,,ユニキャット,0
2267,9021002058710,登記記録の閉鎖等,0,2023-12-15,2023-12-12,有限会社田中製作所,,有限会社,神奈川県,平塚市,大神３３４１番１４,,14,203,2540012,,,2023-12-12,清算の結了等,,,2015-10-05,1,,,,,タナカセイサクショ,0
2270,9030001074288,登記記録の閉鎖等,0,2023-12-15,2023-12-08,株式会社加賀工業所,,株式会社,埼玉県,川口市,青木４丁目２６番３６号,,11,203,3320031,,,2023-12-08,清算の結了等,,,2015-10-05,1,,,,,カガコウギョウショ,0
2271,9030001104391,登記記録の閉鎖等,0,2023-12-15,2023-12-11,株式会社オフィスエール,,株式会社,埼玉県,上尾市,中妻１丁目１５番１２号ノガジャパン第２ビル３階,,11,219,3620072,,,2023-12-11,清算の結了等,,,2015-10-05,1,,,,,オフィスエール,0
2279,9030002115487,登記記録の閉鎖等,0,2023-12-15,2023-12-11,有限会社アートサプライ,,有限会社,埼玉県,熊谷市,曙町３丁目６７番１,,11,202,3600033,,,2023-12-11,清算の結了等,,,2015-10-05,1,,,,,アートサプライ,0
2292,9050002041632,登記記録の閉鎖等,0,2023-12-15,2023-12-12,有限会社鈴啓,,有限会社,茨城県,取手市,戸頭７丁目２番１０号,,08,217,3020034,,,2023-12-12,合併による解散等,4040001068343,令和５年１２月１日千葉県我孫子市寿一丁目２０番２号トリオマネジメント株式会社（4040001068343）に合併し解散,2015-10-05,1,,,,,スズヒロ,0
2297,9060001007765,登記記録の閉鎖等,0,2023-12-15,2023-12-11,株式会社ユザワデンキ,,株式会社,栃木県,さくら市,富野岡１０番地１０,,09,214,3291327,,,2023-12-11,清算の結了等,,,2015-10-05,1,,,,,ユザワデンキ,0
2304,9070002028371,登記記録の閉鎖等,0,2023-12-15,2023-12-08,有限会社太田マロニヱ,,有限会社,群馬県,太田市,飯田町７７１番地,,10,205,3730851,,,2023-12-08,合併による解散等,2070002001921,令和５年１２月８日群馬県前橋市六供町三丁目１２番地１株式会社くわの実（2070002001921）に合併し解散,2015-10-05,1,,,,,オオタマロニエ,0
2309,9080102021341,登記記録の閉鎖等,0,2023-12-15,2023-12-12,有限会社暖流荘,,有限会社,静岡県,賀茂郡東伊豆町,奈良本６７７番地,,22,301,4130302,,,2023-12-12,清算の結了等,,,2015-10-05,1,,,,,ダンリュウソウ,0
2317,9110001009203,登記記録の閉鎖等,0,2023-12-15,2023-12-08,株式会社フリッパーズ,,株式会社,新潟県,新潟市西区,小針５丁目１９番９号,,15,107,9502022,,,2023-12-08,清算の結了等,,,2015-10-05,1,,,,,フリッパーズ,0
2321,9120001185415,登記記録の閉鎖等,0,2023-12-15,2023-12-08,マスターズコミュニティ株式会社,,株式会社,大阪府,大阪市中央区,伏見町４丁目２番１４号,,27,128,5410044,,,2023-12-08,清算の結了等,,,2015-10-05,1,,,,,マスターズコミュニティ,0
2331,9120005022614,登記記録の閉鎖等,0,2023-12-15,2023-12-12,一般社団法人キャンライフ,,その他の設立登記法人,大阪府,大阪市中央区,瓦屋町２丁目４番１８号セントロミラグレ大向ビル３階,,27,128,5420066,,,2023-12-12,清算の結了等,,,2021-11-16,1,,,,,キャンライフ,0
2337,9120905004653,登記記録の閉鎖等,0,2023-12-15,2023-12-11,特定非営利活動法人心臓血管治療の将来を考える会,,その他の設立登記法人,大阪府,吹田市,山田丘２番２号大阪大学大学院医学系研究科外科学講座心臓血管外科学内,,27,205,5650871,,,2023-12-11,清算の結了等,,,2015-10-05,1,,,,,シンゾウケッカンチリョウノショウライヲカンガエルカイ,0
2349,9140001075465,登記記録の閉鎖等,0,2023-12-15,2023-12-08,株式会社キャリア・パーソナルサービス,,株式会社,兵庫県,宝塚市,中山桜台２丁目１３番１号,,28,214,6650877,,,2023-12-08,清算の結了等,,,2015-10-05,1,,,,,キャリアパーソナルサービス,0
2361,9140002011535,登記記録の閉鎖等,0,2023-12-15,2023-12-11,有限会社ストリームファニチャー,,有限会社,兵庫県,神戸市兵庫区,湊町１丁目２－１５－１０１,,28,105,6520812,,,2023-12-11,清算の結了等,,,2015-10-05,1,,,,,ストリームファニチャー,0
2383,9230002003192,登記記録の閉鎖等,0,2023-12-15,2023-12-13,有限会社細川製畳所,,有限会社,富山県,富山市,大町１３４番地,,16,201,9398073,,,2023-12-13,清算の結了等,,,2015-10-05,1,,,,,ホソカワセイジョウショ,0
2409,9330001005493,登記記録の閉鎖等,0,2023-12-15,2023-12-12,株式会社ユーブレイン,,株式会社,熊本県,熊本市中央区,坪井２丁目７番１３号,,43,101,8600863,,,2023-12-12,清算の結了等,,,2015-10-05,1,,,,,ユーブレイン,0
2417,9340002023139,登記記録の閉鎖等,0,2023-12-15,2023-12-13,有限会社肉のまるかつ,,有限会社,鹿児島県,出水市,上知識町５４０番地,,46,208,8990212,,,2023-12-13,清算の結了等,,,2015-10-05,1,,,,,ニクノマルカツ,0
2433,9420002001937,登記記録の閉鎖等,0,2023-12-15,2023-12-05,有限会社ティアンドティメディカル,,有限会社,青森県,青森市,大字大野字前田７２番地１７,,02,201,0300852,,,2023-12-05,清算の結了等,,,2015-10-05,1,,,,,ティアンドティメディカル,0
2434,9420002010013,登記記録の閉鎖等,0,2023-12-15,2023-12-11,有限会社中坪百貨店,,有限会社,青森県,三戸郡南部町,大字平字虚空蔵４番２号地,,02,445,0390503,,,2023-12-11,清算の結了等,,,2015-10-05,1,,,,,ナカツボヒャッカテン,0
2436,9430001071344,登記記録の閉鎖等,0,2023-12-15,2023-12-08,株式会社エージェントサービス,,株式会社,北海道,札幌市中央区,北一条西２丁目２番地１,,01,101,0600001,,,2023-12-08,清算の結了等,,,2016-04-14,1,,,,,エージェントサービス,0
2441,9430002016273,登記記録の閉鎖等,0,2023-12-15,2023-12-07,有限会社ひがし車整社,,有限会社,北海道,札幌市豊平区,月寒東二条１２丁目８番１４号,,01,105,0620052,,,2023-12-07,清算の結了等,,,2015-10-05,1,,,,,ヒガシシャセイシャ,0
