sequenceNumber,corporateNumber,process,correct,updateDate,changeDate,name,nameImageId,kind,prefectureName,cityName,streetNumber,addressImageId,prefectureCode,cityCode,postCode,addressOutside,addressOutsideImageId,closeDate,closeCause,successorCorporateNumber,changeCause,assignmentDate,latest,enName,enPrefectureName,enCityName,enAddressOutside,furigana,hihyoji
12,1010001230560,新規,0,2022-11-07,2022-11-07,株式会社食と人,,株式会社,東京都,中央区,日本橋２丁目２番３号,,13,102,1030027,,,,,,,2022-11-07,1,,,,,ショクトヒト,0
13,1010001230610,新規,0,2022-11-07,2022-11-07,株式会社ＫＯＨＯ,,株式会社,東京都,中央区,銀座１丁目１２番４号Ｎ＆Ｅ・ＢＬＤ．６階,,13,102,1040061,,,,,,,2022-11-07,1,,,,,コウホウ,0
14,1010001230627,新規,0,2022-11-07,2022-11-07,株式会社一陽,,株式会社,東京都,中央区,新富町一丁目７番６号,,13,102,1030000,,,,,,,2022-11-07,1,,,,,イチヨウ,0
15,1010001230635,新規,0,2022-11-07,2022-11-07,株式会社スタジオ・サスケ,,株式会社,東京都,中央区,日本橋富沢町６番４号６階,,13,102,1030006,,,,,,,2022-11-07,1,,,,,スタジオサスケ,0
16,1010003038993,新規,0,2022-11-07,2022-11-07,合同会社スタジオワンフィルム,,合同会社,東京都,中央区,銀座１丁目１２番４号Ｎ＆ＥＢＬＤ．７階,,13,102,1040061,,,,,,,2022-11-07,1,,,,,スタジオワンフィルム,0
17,1010005035733,新規,0,2022-11-07,2022-11-07,一般社団法人日本青果物輸出促進協議会,,その他の設立登記法人,東京都,千代田区,内幸町１丁目２番１号,,13,101,1000011,,,,,,,2022-11-07,1,,,,,ニホンセイカブツユシュツソクシンキョウギカイ,0
22,1010401170596,新規,0,2022-11-07,2022-11-07,株式会社エルマーケ,,株式会社,東京都,港区,浜松町２丁目２番１５号,,13,103,1050013,,,,,,,2022-11-07,1,,,,,エルマーケ,0
23,1010401170638,新規,0,2022-11-07,2022-11-07,Ｓｉｃｕｒｏ株式会社,,株式会社,東京都,港区,赤坂４丁目８番１９号赤坂フロントタウン３階,,13,103,1070052,,,,,,,2022-11-07,1,,,,,シクロ,0
24,1010401170646,新規,0,2022-11-07,2022-11-07,株式会社ウィレッジ,,株式会社,東京都,港区,新橋５丁目９番１号新橋五丁目ビル,,13,103,1050004,,,,,,,2022-11-07,1,,,,,ウィレッジ,0
25,1010401170670,新規,0,2022-11-07,2022-11-07,東京紳士株式会社,,株式会社,東京都,港区,芝浦４丁目２２番１－２５０７号,,13,103,1080023,,,,,,,2022-11-07,1,,,,,トウキョウシンシ,0
26,1010403028792,新規,0,2022-11-07,2022-11-07,ＶＥＲＯ合同会社,,合同会社,東京都,港区,南青山２丁目２番１５号ウィン青山１２１４号,,13,103,1070062,,,,,,,2022-11-07,1,,,,,ヴェーロ,0
27,1010403028818,新規,0,2022-11-07,2022-11-07,ＫｉＮＧＣＨｉＬＬ．ＣＢＤ合同会社,,合同会社,東京都,港区,南青山３丁目１番３６号青山丸竹ビル６,,13,103,1070062,,,,,,,2022-11-07,1,,,,,キングチルシービーディー,0
28,1010403028834,新規,0,2022-11-07,2022-11-07,合同会社ファンタジー,,合同会社,東京都,港区,芝１丁目１２番３－１２０４号,,13,103,1050014,,,,,,,2022-11-07,1,,,,,ファンタジー,0
36,1010601062107,新規,0,2022-11-07,2022-11-07,ＨＣＬ株式会社,,株式会社,東京都,江東区,東砂５丁目５番６－３０５号,,13,108,1360074,,,,,,,2022-11-07,1,,,,,エイチシーエル,0
37,1010603009824,新規,0,2022-11-07,2022-11-07,Ｄ＆Ｊ合同会社,,合同会社,東京都,墨田区,東向島５丁目３３番４号２０５号室,,13,107,1310032,,,,,,,2022-11-07,1,,,,,ディーアンドジェイ,0
40,1010701043411,新規,0,2022-11-07,2022-11-07,株式会社つくしケアコーポレーション,,株式会社,東京都,品川区,八潮５丁目８番４４－５０７号シティーコープ八潮台,,13,109,1400003,,,,,,,2022-11-07,1,,,,,ツクシケアコーポレーション,0
45,1010801033411,新規,0,2022-11-07,2022-11-07,ビジネスハーモニー株式会社,,株式会社,東京都,大田区,大森北６丁目６－１５,,13,111,1430016,,,,,,,2022-11-07,1,,,,,,0
47,1010903007759,新規,0,2022-11-07,2022-11-07,合同会社Ｃｏｌ,,合同会社,東京都,世田谷区,砧６丁目２８番５号たけやビル１０４,,13,112,1570073,,,,,,,2022-11-07,1,,,,,コル,0
50,1011001150682,新規,0,2022-11-07,2022-11-07,株式会社ミュージックブースト,,株式会社,東京都,渋谷区,渋谷２丁目１１番６号,,13,113,1500002,,,,,,,2022-11-07,1,,,,,ミュージックブースト,0
51,1011001150708,新規,0,2022-11-07,2022-11-07,株式会社ナスター,,株式会社,東京都,渋谷区,宇田川町３－７ヒューリック渋谷公園通りビル５Ｆ－３９,,13,113,1500042,,,,,,,2022-11-07,1,,,,,ナスター,0
52,1011001150732,新規,0,2022-11-07,2022-11-07,株式会社ｂｒａｎｃａ,,株式会社,東京都,渋谷区,神山町５番２号,,13,113,1500047,,,,,,,2022-11-07,1,,,,,ブランカ,0
53,1011001150749,新規,0,2022-11-07,2022-11-07,株式会社ＮＯＶ,,株式会社,東京都,渋谷区,上原３丁目９番９号,,13,113,1510064,,,,,,,2022-11-07,1,,,,,ノブ,0
54,1011001150757,新規,0,2022-11-07,2022-11-07,株式会社マイティーピース,,株式会社,東京都,目黒区,中目黒１丁目９－６スカイレジデンス中目黒１０５,,13,110,1530061,,,,,,,2022-11-07,1,,,,,マイティーピース,0
55,1011001150765,新規,0,2022-11-07,2022-11-07,株式会社つくいリゾート,,株式会社,東京都,渋谷区,代々木１丁目４５番１０号,,13,113,1510053,,,,,,,2022-11-07,1,,,,,ツクイリゾート,0
56,1011001150773,新規,0,2022-11-07,2022-11-07,ジャニドリ株式会社,,株式会社,東京都,渋谷区,渋谷２丁目１９番１５号宮益坂ビルディング６０９,,13,113,1500002,,,,,,,2022-11-07,1,,,,,ジャニドリ,0
57,1011001150781,新規,0,2022-11-07,2022-11-07,株式会社ペアとく,,株式会社,東京都,渋谷区,渋谷２丁目１９番１５号宮益坂ビルディング６０９,,13,113,1500002,,,,,,,2022-11-07,1,,,,,ペアトク,0
59,1011003015644,新規,0,2022-11-07,2022-11-07,合同会社Ｓｕｎｄａｙｐｅｏｐｌｅ,,合同会社,東京都,目黒区,中根２丁目１番１５－２１２号,,13,110,1520031,,,,,,,2022-11-07,1,,,,,サンデーピープル,0
60,1011003015652,新規,0,2022-11-07,2022-11-07,ＲＯＣＫＬＩＴ　ＰＡＲＴＮＥＲＳ合同会社,,合同会社,東京都,渋谷区,代官山町１７番１－１３１４号代官山アドレスザ・タワー,,13,113,1500034,,,,,,,2022-11-07,1,,,,,ロックリットパートナーズ,0
69,1011103012285,新規,0,2022-11-07,2022-11-07,ＤＩＲＥＣＴ　ＧＲＯＷＴＨ合同会社,,合同会社,東京都,新宿区,西新宿３丁目３－１３,,13,104,1600023,,,,,,,2022-11-07,1,,,,,ダイレクトグロース,0
72,1011401024651,新規,0,2022-11-07,2022-11-07,株式会社ＫＴＭ,,株式会社,東京都,板橋区,大原町３６番１０号,,13,119,1740061,,,,,,,2022-11-07,1,,,,,ケーティーエム,0
74,1011501028643,新規,0,2022-11-07,2022-11-07,株式会社イウ商事,,株式会社,東京都,荒川区,西日暮里６丁目６４番３号１Ｆ,,13,118,1160013,,,,,,,2022-11-07,1,,,,,イウショウジ,0
75,1011503005351,新規,0,2022-11-07,2022-11-07,合同会社シナジーフィールド,,合同会社,東京都,荒川区,西日暮里２丁目３４番１１ー１０１号,,13,118,1160013,,,,,,,2022-11-07,1,,,,,シナジーフィールド,0
76,1011505002512,新規,0,2022-11-07,2022-11-07,特定非営利活動法人こども支援・国際協力ｎｅｘｕｓ　ｓｐａ．ｃｅ,,その他の設立登記法人,東京都,北区,赤羽１丁目７番９号赤羽第一葉山ビル４階,,13,117,1150045,,,,,,,2022-11-07,1,,,,,コドモシエンコクサイキョウリョクネクサススペース,0
77,1011601026349,新規,0,2022-11-07,2022-11-07,株式会社ＯＨＡＮＡ,,株式会社,東京都,練馬区,下石神井４丁目１９番１５号,,13,120,1770042,,,,,,,2022-11-07,1,,,,,オハナ,0
80,1011603003742,新規,0,2022-11-07,2022-11-07,ＮＯＲＡＫＵＲＡ合同会社,,合同会社,東京都,練馬区,旭町１丁目３５番９号,,13,120,1790071,,,,,,,2022-11-07,1,,,,,ノラクラ,0
82,1011703003295,新規,0,2022-11-07,2022-11-07,ＰｉｃｔｕｒｅＡｇａｔｅ合同会社,,合同会社,東京都,江戸川区,東小岩４丁目２３－５,,13,123,1330052,,,,,,,2022-11-07,1,,,,,ピクチャーアゲート,0
84,1011803005349,新規,0,2022-11-07,2022-11-07,合同会社マルタ内装,,合同会社,東京都,足立区,六木１丁目３番１３号,,13,121,1210052,,,,,,,2022-11-07,1,,,,,マルタナイソウ,0
85,1011803005357,新規,0,2022-11-07,2022-11-07,合同会社ＳＰＡＣＥ,,合同会社,東京都,足立区,梅島３丁目３３番６号ＥＭＢＬＥＭ西新井,,13,121,1210816,,,,,,,2022-11-07,1,,,,,スペース,0
90,1012701017329,新規,0,2022-11-07,2022-11-07,ＳＭＫ株式会社,,株式会社,東京都,清瀬市,中里３丁目８９３番地１５,,13,221,2040003,,,,,,,2022-11-07,1,,,,,エスエムケー,0
98,1013301049885,新規,0,2022-11-07,2022-11-07,株式会社アルム,,株式会社,東京都,豊島区,北大塚１丁目１９番１２号コルティス大塚６Ｆ・１４号室,,13,116,1700004,,,,,,,2022-11-07,1,,,,,アルム,0
99,1013301049893,新規,0,2022-11-07,2022-11-07,株式会社昌承,,株式会社,東京都,豊島区,高田３丁目５番２号山洋ビル１０２号,,13,116,1710033,,,,,,,2022-11-07,1,,,,,マサヨシ,0
112,1020001148793,新規,0,2022-11-07,2022-11-07,株式会社ファン,,株式会社,神奈川県,横浜市都筑区,荏田東４丁目８番３バースシティ港北センター南１０２号室,,14,118,2240006,,,,,,,2022-11-07,1,,,,,ファン,0
113,1020001148802,新規,0,2022-11-07,2022-11-07,株式会社わかさ,,株式会社,神奈川県,横浜市旭区,下川井町１５４１－１,,14,112,2410806,,,,,,,2022-11-07,1,,,,,ワカサ,0
114,1020001148819,新規,0,2022-11-07,2022-11-07,株式会社ＭｉＹａＢｉナチュラルセラピー横浜,,株式会社,神奈川県,横浜市鶴見区,鶴見中央４丁目２番９号横山ビルＢ１,,14,101,2300051,,,,,,,2022-11-07,1,,,,,ミヤビナリュラルセラピーヨコハマ,0
115,1020001148835,新規,0,2022-11-07,2022-11-07,株式会社ＲＡＹ,,株式会社,神奈川県,横浜市西区,平沼１丁目１９番１２－１０６号室,,14,103,2200023,,,,,,,2022-11-07,1,,,,,レイ,0
116,1020001148843,新規,0,2022-11-07,2022-11-07,株式会社岡崎,,株式会社,神奈川県,横浜市磯子区,上中里町３０５番地３５,,14,107,2350042,,,,,,,2022-11-07,1,,,,,オカザキ,0
117,1020001148868,新規,0,2022-11-07,2022-11-07,株式会社ダイトープランニング,,株式会社,神奈川県,横浜市戸塚区,上矢部町１８００番地８,,14,110,2450053,,,,,,,2022-11-07,1,,,,,ダイトープランニング,0
118,1020001148876,新規,0,2022-11-07,2022-11-07,株式会社Ａ‐ｒｅｔａｉｌ,,株式会社,神奈川県,横浜市都筑区,池辺町４９１１番地１,,14,118,2240053,,,,,,,2022-11-07,1,,,,,エーリテール,0
121,1020003022674,新規,0,2022-11-07,2022-11-07,合同会社ライフサポートセンター,,合同会社,神奈川県,横浜市中区,山下町９８番地ＧＳハイム山下町７０９号室,,14,104,2310023,,,,,,,2022-11-07,1,,,,,ライフサポートセンター,0
122,1020003022690,新規,0,2022-11-07,2022-11-07,合同会社クレール,,合同会社,神奈川県,横浜市都筑区,中川中央１丁目２４番地２１リーブラセンター北２０２,,14,118,2240003,,,,,,,2022-11-07,1,,,,,クレール,0
128,1021001077339,新規,0,2022-11-07,2022-11-07,湘和工業株式会社,,株式会社,神奈川県,鎌倉市,津１０４０番地４０,,14,204,2480032,,,,,,,2022-11-07,1,,,,,ショウワコウギョウ,0
129,1021001077371,新規,0,2022-11-07,2022-11-07,株式会社Ｒ’Ａｉｚ,,株式会社,神奈川県,横須賀市,金谷２丁目１３番１号,,14,201,2380034,,,,,,,2022-11-07,1,,,,,ライズ,0
130,1021001077396,新規,0,2022-11-07,2022-11-07,株式会社トランスアダプト,,株式会社,神奈川県,鎌倉市,腰越１６４３番地１５,,14,204,2480033,,,,,,,2022-11-07,1,,,,,トランスアダプト,0
144,1030001150848,新規,0,2022-11-07,2022-11-07,ベンチャーグレイン株式会社,,株式会社,埼玉県,秩父市,みどりが丘４９番地,,11,207,3680067,,,,,,,2022-11-07,1,,,,,ベンチャーグレイン,0
145,1030001150856,新規,0,2022-11-07,2022-11-07,株式会社わくわく商品開発研究所,,株式会社,埼玉県,北葛飾郡杉戸町,高野台西１丁目１０番地１ルネサンス・プレミアム・サイト９０３,,11,464,3450045,,,,,,,2022-11-07,1,,,,,ワクワクショウヒンカイハツケンキュウジョ,0
146,1030001150872,新規,0,2022-11-07,2022-11-07,株式会社トータルライフパートナー,,株式会社,埼玉県,春日部市,西金野井２６番地７,,11,214,3440112,,,,,,,2022-11-07,1,,,,,トータルライフパートナー,0
147,1030001150889,新規,0,2022-11-07,2022-11-07,株式会社百笑,,株式会社,埼玉県,春日部市,塚崎３９６番地１,,11,214,3440107,,,,,,,2022-11-07,1,,,,,ヒャクショウ,0
148,1030001150906,新規,0,2022-11-07,2022-11-07,株式会社ヒッツイースト,,株式会社,埼玉県,さいたま市大宮区,下町２丁目１６番地１,,11,103,3300844,,,,,,,2022-11-07,1,,,,,ヒッツイースト,0
149,1030001150930,新規,0,2022-11-07,2022-11-07,株式会社ビークル・マニア,,株式会社,埼玉県,越谷市,七左町８丁目４６番地１,,11,222,3430851,,,,,,,2022-11-07,1,,,,,ビークルマニア,0
150,1030001150939,新規,0,2022-11-07,2022-11-07,株式会社良友産業,,株式会社,埼玉県,深谷市,見晴町２１番地３４,,11,218,3660819,,,,,,,2022-11-07,1,,,,,ヨシトモサンギョウ,0
158,1030003020504,新規,0,2022-11-07,2022-11-07,津川栄教育ラボ合同会社,,合同会社,埼玉県,上尾市,愛宕１丁目２８番２２号荒井第２ビル６０３,,11,219,3620034,,,,,,,2022-11-07,1,,,,,ツガワサカエキョウイクラボ,0
159,1030003020520,新規,0,2022-11-07,2022-11-07,合同会社リメイク,,合同会社,埼玉県,坂戸市,大字中小坂３２０番地,,11,239,3500206,,,,,,,2022-11-07,1,,,,,リメイク,0
163,1040001125659,新規,0,2022-11-07,2022-11-07,株式会社ビミスタイル,,株式会社,千葉県,千葉市美浜区,中瀬１丁目３番地幕張テクノガーデンＣＢ棟３階ＭＢＰ,,12,106,2610023,,,,,,,2022-11-07,1,,,,,ビミスタイル,0
164,1040001125675,新規,0,2022-11-07,2022-11-07,株式会社立体造形,,株式会社,千葉県,流山市,西初石２丁目９２６番地の３プライムガーデン初石６０３,,12,220,2700121,,,,,,,2022-11-07,1,,,,,リッタイゾウケイ,0
165,1040001125683,新規,0,2022-11-07,2022-11-07,株式会社フェリス,,株式会社,千葉県,夷隅郡御宿町,御宿台４０１番地５,,12,443,2995112,,,,,,,2022-11-07,1,,,,,フェリス,0
166,1040001125691,新規,0,2022-11-07,2022-11-07,株式会社ＨＹ企画,,株式会社,千葉県,習志野市,藤崎５丁目４番５１‐１０８号,,12,216,2750017,,,,,,,2022-11-07,1,,,,,エイチワイキカク,0
167,1040001125725,新規,0,2022-11-07,2022-11-07,株式会社ＵＰＧＡＬＬＥＲＹ,,株式会社,千葉県,市原市,五井中央西３丁目１０番地４,,12,219,2900081,,,,,,,2022-11-07,1,,,,,アップギャラリー,0
168,1040001125733,新規,0,2022-11-07,2022-11-07,株式会社ＯＥＩＭ,,株式会社,千葉県,千葉市中央区,中央２丁目５番１号千葉中央ツインビル２号館７階,,12,101,2600013,,,,,,,2022-11-07,1,,,,,オーエイム,0
169,1040003021195,新規,0,2022-11-07,2022-11-07,いちご合同会社,,合同会社,千葉県,松戸市,松戸新田６１７番地の６９,,12,207,2702241,,,,,,,2022-11-07,1,,,,,イチゴ,0
171,1050001051895,新規,0,2022-11-07,2022-11-07,株式会社築地ファーム,,株式会社,茨城県,筑西市,築地２５７番地１,,08,227,3004531,,,,,,,2022-11-07,1,,,,,ツイジファーム,0
172,1050001051904,新規,0,2022-11-07,2022-11-07,株式会社ラサンテＰｌｕｓ,,株式会社,茨城県,日立市,東滑川町１丁目２０－３－１０２,,08,202,3170052,,,,,,,2022-11-07,1,,,,,ラサンテプラス,0
173,1050001051912,新規,0,2022-11-07,2022-11-07,株式会社常信工業,,株式会社,茨城県,ひたちなか市,東大島１丁目１９番３号１０６号室,,08,221,3120042,,,,,,,2022-11-07,1,,,,,ジョウシンコウギョウ,0
175,1050003006988,新規,0,2022-11-07,2022-11-07,合同会社Ｓｔａｒ　Ｗｏｒｋｓ,,合同会社,茨城県,日立市,石名坂町１丁目１０番２５号,,08,202,3191225,,,,,,,2022-11-07,1,,,,,スターワークス,0
189,1080101023610,新規,0,2022-11-07,2022-11-07,株式会社ＧＣＢ,,株式会社,静岡県,駿東郡清水町,徳倉１１３９番地の１,,22,341,4110917,,,,,,,2022-11-07,1,,,,,ジーシービー,0
194,1080405007499,新規,0,2022-11-07,2022-11-07,一般社団法人善用,,その他の設立登記法人,静岡県,浜松市浜北区,中瀬４５８４－２番地,,22,136,4340012,,,,,,,2022-11-07,1,,,,,ゼンヨウ,0
200,1100001035835,新規,0,2022-11-07,2022-11-07,株式会社長久,,株式会社,長野県,北佐久郡軽井沢町,中軽井沢１８番地１１,,20,321,3890112,,,,,,,2022-11-07,1,,,,,ナガヒサ,0
203,1110001037087,新規,0,2022-11-07,2022-11-07,ＮＳＴ株式会社,,株式会社,新潟県,新潟市江南区,亀田緑町３丁目１番５１号,,15,104,9500152,,,,,,,2022-11-07,1,,,,,エヌエスティ,0
204,1110003004903,新規,0,2022-11-07,2022-11-07,合同会社シード,,合同会社,新潟県,南魚沼市,浦佐１６３３番地,,15,226,9497302,,,,,,,2022-11-07,1,,,,,シード,0
216,1120001249994,新規,0,2022-11-07,2022-11-07,ヒューマンワークス株式会社,,株式会社,大阪府,大阪市中央区,谷町１丁目６番４号,,27,128,5400012,,,,,,,2022-11-07,1,,,,,ヒューマンワークス,0
217,1120001250028,新規,0,2022-11-07,2022-11-07,江戸堀不動産株式会社,,株式会社,大阪府,大阪市西区,江戸堀２丁目８番２５号,,27,106,5500002,,,,,,,2022-11-07,1,,,,,エドボリフドウサン,0
218,1120001250036,新規,0,2022-11-07,2022-11-07,株式会社ＭＴＢ,,株式会社,大阪府,大阪市北区,大淀中２丁目６番１７－１５０５号,,27,127,5310076,,,,,,,2022-11-07,1,,,,,エムティービー,0
219,1120001250044,新規,0,2022-11-07,2022-11-07,株式会社Ｍ　Ｂｅａｕｔｙ,,株式会社,大阪府,大阪市中央区,南船場４丁目１４番１号南船場ＢＲＩＣＫ８０３号,,27,128,5420081,,,,,,,2022-11-07,1,,,,,エムビューティー,0
220,1120001250069,新規,0,2022-11-07,2022-11-07,アスリートワン株式会社,,株式会社,大阪府,交野市,倉治７丁目１４番１０号,,27,230,5760051,,,,,,,2022-11-07,1,,,,,アスリートワン,0
221,1120001250085,新規,0,2022-11-07,2022-11-07,株式会社アドバンストランスポートサービス,,株式会社,大阪府,大阪市中央区,南船場１丁目７番８号,,27,128,5420081,,,,,,,2022-11-07,1,,,,,アドバンストランスポートサービス,0
222,1120001250102,新規,0,2022-11-07,2022-11-07,株式会社ＯＷＮＷＩＬＬ,,株式会社,大阪府,大阪市北区,堂島２丁目３番９号ＳＵＲＥ堂島ビル９階,,27,127,5300003,,,,,,,2022-11-07,1,,,,,オウンウィル,0
223,1120001250119,新規,0,2022-11-07,2022-11-07,株式会社レクストコマース,,株式会社,大阪府,大阪市中央区,平野町２丁目３番７号,,27,128,5410046,,,,,,,2022-11-07,1,,,,,レクストコマース,0
230,1120003022771,新規,0,2022-11-07,2022-11-07,合同会社山新工業,,合同会社,大阪府,大阪市平野区,長吉出戸４丁目４番３４号,,27,126,5470011,,,,,,,2022-11-07,1,,,,,ヤマシンコウギョウ,0
231,1120005023280,新規,0,2022-11-07,2022-11-07,一般財団法人辻岡實・敏子・博子記念財団,00128380,その他の設立登記法人,大阪府,大阪市平野区,長吉川辺２丁目４番２９号,,27,126,5470014,,,,,,,2022-11-07,1,,,,,ツジオカミノルトシコヒロコキネンザイダン,0
237,1120101066456,新規,0,2022-11-07,2022-11-07,株式会社ｍａｓｔｅｒｐｉｅｃＥ,,株式会社,大阪府,阪南市,さつき台１丁目８番１９号,,27,232,5990215,,,,,,,2022-11-07,1,,,,,マスターピース,0
238,1120101066464,新規,0,2022-11-07,2022-11-07,ＴＨＴ株式会社,,株式会社,大阪府,松原市,天美東７丁目１２番５－３１９号,,27,217,5800032,,,,,,,2022-11-07,1,,,,,ティーエイチティー,0
239,1120101066489,新規,0,2022-11-07,2022-11-07,株式会社モアプラス,,株式会社,大阪府,岸和田市,宮前町６番１号,,27,202,5960043,,,,,,,2022-11-07,1,,,,,モアプラス,0
241,1120901046673,新規,0,2022-11-07,2022-11-07,Ｂ＆Ｅ株式会社,,株式会社,大阪府,豊中市,新千里西町２丁目２１番２１－６０５号,,27,203,5600083,,,,,,,2022-11-07,1,,,,,ビーアンドイー,0
242,1120901046681,新規,0,2022-11-07,2022-11-07,株式会社一文字,,株式会社,大阪府,吹田市,千里山東１丁目２１番１５号,,27,205,5650842,,,,,,,2022-11-07,1,,,,,イチモンジ,0
243,1120901046698,新規,0,2022-11-07,2022-11-07,株式会社ＰＲＯＮＯ,,株式会社,大阪府,吹田市,千里山西４丁目３７番５号,,27,205,5650851,,,,,,,2022-11-07,1,,,,,プロノ,0
244,1120903004349,新規,0,2022-11-07,2022-11-07,合同会社ほまり,,合同会社,大阪府,池田市,栄本町２－３－３０３,,27,204,5630058,,,,,,,2022-11-07,1,,,,,ホマリ,0
245,1122001036365,新規,0,2022-11-07,2022-11-07,上六社中株式会社,,株式会社,大阪府,東大阪市,東石切町２丁目５番４３号,,27,227,5798011,,,,,,,2022-11-07,1,,,,,ウエロクシャチュウ,0
246,1122003002448,新規,0,2022-11-07,2022-11-07,合同会社ＳＥＴＨＵ,,合同会社,大阪府,東大阪市,横沼町３丁目１番３号ソレイユ俊徳道２０３,,27,227,5770808,,,,,,,2022-11-07,1,,,,,セツ,0
248,1130001073015,新規,0,2022-11-07,2022-11-07,株式会社雅工業,,株式会社,京都府,亀岡市,東つつじケ丘曙台２丁目６番３－１号,,26,206,6210833,,,,,,,2022-11-07,1,,,,,ミヤビコウギョウ,0
257,1140001041193,新規,0,2022-11-07,2022-11-07,株式会社鐵建,,株式会社,兵庫県,丹波市,氷上町横田６４０番地の１,,28,223,6693465,,,,,,,2022-11-07,1,,,,,,0
267,1140001127918,新規,0,2022-11-07,2022-11-07,スポルトリハケアサポート株式会社,,株式会社,兵庫県,神戸市北区,甲栄台５丁目１０番１９号,,28,109,6511142,,,,,,,2022-11-07,1,,,,,スポルトリハケアサポート,0
268,1140001127942,新規,0,2022-11-07,2022-11-07,株式会社Ｒｅｅｆ　ｄｅｓｉｇｎ,,株式会社,兵庫県,神戸市長田区,五番町３丁目３番地の１,,28,106,6530003,,,,,,,2022-11-07,1,,,,,リーフデザイン,0
269,1140001127967,新規,0,2022-11-07,2022-11-07,株式会社石井不動産,,株式会社,兵庫県,加古郡稲美町,六分一１２０９番地の２１,,28,381,6751112,,,,,,,2022-11-07,1,,,,,イシイフドウサン,0
270,1140001127991,新規,0,2022-11-07,2022-11-07,株式会社サイン,,株式会社,兵庫県,西宮市,西宮浜３丁目２９番,,28,204,6620934,,,,,,,2022-11-07,1,,,,,サイン,0
275,1140003018297,新規,0,2022-11-07,2022-11-07,合同会社Ｈｏｗ　ｔｏ　ＰｈＤ留学事務所,,合同会社,兵庫県,神戸市北区,甲栄台４丁目１６番２０号,,28,109,6511142,,,,,,,2022-11-07,1,,,,,ハウトゥーピーエッチディーリュウガクジムショ,0
276,1140003018306,新規,0,2022-11-07,2022-11-07,ＧＡＲ合同会社,,合同会社,兵庫県,姫路市,飾磨区今在家６丁目２２４番地４,,28,201,6728079,,,,,,,2022-11-07,1,,,,,ジーエーアール,0
277,1140003018322,新規,0,2022-11-07,2022-11-07,合同会社Ｍｒ．ｈｓ,,合同会社,兵庫県,宝塚市,小林４丁目７番地７ヴィエント２０６号,,28,214,6650034,,,,,,,2022-11-07,1,,,,,エムアールエイチエス,0
279,1170001017356,新規,0,2022-11-07,2022-11-07,株式会社ＰＬＵＭＥ＆Ｃｏ．,,株式会社,和歌山県,橋本市,古佐田１丁目３番１３号,,30,203,6480065,,,,,,,2022-11-07,1,,,,,プリュムアンドシーオー,0
286,1180001153563,新規,0,2022-11-07,2022-11-07,株式会社エスアール・プラニング,,株式会社,愛知県,名古屋市千種区,山添町１丁目１０番地の１,,23,101,4640832,,,,,,,2022-11-07,1,,,,,エスアールプラニング,0
287,1180001153605,新規,0,2022-11-07,2022-11-07,株式会社新歩,,株式会社,愛知県,名古屋市東区,東桜２丁目３番７号トウカンキャステール４５２,,23,102,4610005,,,,,,,2022-11-07,1,,,,,シンポ,0
288,1180001153638,新規,0,2022-11-07,2022-11-07,イシダガーデン株式会社,,株式会社,愛知県,稲沢市,堀之内町７６８番地,,23,220,4928405,,,,,,,2022-11-07,1,,,,,イシダガーデン,0
289,1180001153646,新規,0,2022-11-07,2022-11-07,株式会社ＧＨＦ,,株式会社,愛知県,尾張旭市,旭ケ丘町長洞５９１１番地１,,23,226,4880086,,,,,,,2022-11-07,1,,,,,ジーエイチエフ,0
290,1180001153662,新規,0,2022-11-07,2022-11-07,株式会社Ａｎｇｅｌ　Ｌａｄｄｅｒ,,株式会社,愛知県,名古屋市東区,泉１丁目２３番３７号,,23,102,4610001,,,,,,,2022-11-07,1,,,,,エンジェルラダー,0
291,1180001153670,新規,0,2022-11-07,2022-11-07,株式会社ｆｒｅｅ,,株式会社,愛知県,名古屋市中川区,中島新町３丁目２４１１番地,,23,110,4540932,,,,,,,2022-11-07,1,,,,,フリー,0
292,1180001153679,新規,0,2022-11-07,2022-11-07,株式会社山田設備,,株式会社,愛知県,あま市,森山八反地９番地１,,23,237,4901223,,,,,,,2022-11-07,1,,,,,ヤマダセツビ,0
293,1180001153687,新規,0,2022-11-07,2022-11-07,株式会社シーズンホールディングス,,株式会社,愛知県,名古屋市緑区,徳重３丁目１０４番地,,23,114,4580815,,,,,,,2022-11-07,1,,,,,シーズンホールディングス,0
294,1180001153695,新規,0,2022-11-07,2022-11-07,株式会社Ｐｈａｓｅ　Ｏｎｅ,,株式会社,愛知県,名古屋市西区,大野木３丁目９３番地,,23,104,4520803,,,,,,,2022-11-07,1,,,,,フェーズワン,0
295,1180001153704,新規,0,2022-11-07,2022-11-07,株式会社ｓｕｍＡＮＥＬ,,株式会社,愛知県,名古屋市昭和区,元宮町６丁目５６番地３,,23,107,4660851,,,,,,,2022-11-07,1,,,,,サムアネル,0
296,1180001153729,新規,0,2022-11-07,2022-11-07,クレーンシステム株式会社,,株式会社,愛知県,名古屋市千種区,内山３丁目３番１６号ｆメゾン千種１０１号室,,23,101,4640075,,,,,,,2022-11-07,1,,,,,クレーンシステム,0
297,1180001153737,新規,0,2022-11-07,2022-11-07,株式会社あいずステーション東海,,株式会社,愛知県,名古屋市緑区,桃山４丁目１２３番地,,23,114,4580002,,,,,,,2022-11-07,1,,,,,アイズステーショントウカイ,0
298,1180001153745,新規,0,2022-11-07,2022-11-07,株式会社ＭＩＫＯＵ,,株式会社,愛知県,名古屋市瑞穂区,妙音通３丁目４７－８０２号,,23,108,4670842,,,,,,,2022-11-07,1,,,,,ミコウ,0
303,1180003024432,新規,0,2022-11-07,2022-11-07,合同会社健やかクリエイト,,合同会社,愛知県,小牧市,小松寺５丁目４１番地,,23,219,4850828,,,,,,,2022-11-07,1,,,,,スコヤカクリエイト,0
304,1180003024440,新規,0,2022-11-07,2022-11-07,合同会社ラ・ジュリエンヌ,,合同会社,愛知県,一宮市,東五城字若宮前２１番地１,,23,203,4940008,,,,,,,2022-11-07,1,,,,,ラジュリエンヌ,0
307,1180301036773,新規,0,2022-11-07,2022-11-07,株式会社Ｒｅ．Ｐｏｉｎｔ,,株式会社,愛知県,豊田市,若林東町竹陽４９番地１,,23,211,4730914,,,,,,,2022-11-07,1,,,,,リポイント,0
308,1190001029878,新規,0,2022-11-07,2022-11-07,株式会社ステップアップ,,株式会社,三重県,四日市市,天カ須賀５丁目２番１０－７号,,24,202,5108001,,,,,,,2022-11-07,1,,,,,ステップアップ,0
309,1190001029894,新規,0,2022-11-07,2022-11-07,株式会社ＰＥＡＣＥ,,株式会社,三重県,南牟婁郡紀宝町,井田２２９７番地１,,24,562,5195711,,,,,,,2022-11-07,1,,,,,ピース,0
310,1190001029903,新規,0,2022-11-07,2022-11-07,株式会社ヒロホーム,,株式会社,三重県,度会郡玉城町,田丸２１３番地１,,24,461,5190415,,,,,,,2022-11-07,1,,,,,ヒロホーム,0
311,1190003004128,新規,0,2022-11-07,2022-11-07,＿南方合同会社,00128375,合同会社,三重県,四日市市,諏訪栄町２番１０号,,24,202,5100086,,,,,,,2022-11-07,1,,,,,キンナンホウ,0
318,1200001040610,新規,0,2022-11-07,2022-11-07,ＭＣトラベル株式会社,,株式会社,岐阜県,高山市,昭和町１丁目３１４番地,,21,203,5060053,,,,,,,2022-11-07,1,,,,,エムシートラベル,0
322,1210003001576,新規,0,2022-11-07,2022-11-07,合同会社ＴＩＮ,,合同会社,福井県,福井市,灯明寺３丁目１６０５番地,,18,201,9100063,,,,,,,2022-11-07,1,,,,,ティーアイエヌ,0
328,1240005015480,新規,0,2022-11-07,2022-11-07,一般社団法人つなぐテラスひろしま,,その他の設立登記法人,広島県,福山市,西深津町５丁目２番２１号ＭＫウイングパートナーズＢＬＤ２－Ａ,,34,207,7210975,,,,,,,2022-11-07,1,,,,,ツナグテラスヒロシマ,0
329,1250001019831,新規,0,2022-11-07,2022-11-07,株式会社オウカ,,株式会社,山口県,下松市,大字山田１１８５番地２２,,35,207,7440041,,,,,,,2022-11-07,1,,,,,オウカ,0
338,1290001099408,新規,0,2022-11-07,2022-11-07,株式会社サムライフ,,株式会社,福岡県,飯塚市,長尾９４６番地１０,,40,205,8200701,,,,,,,2022-11-07,1,,,,,サムライフ,0
339,1290001099416,新規,0,2022-11-07,2022-11-07,テクサー環境株式会社,,株式会社,福岡県,春日市,千歳町２丁目１５８番地９３,,40,218,8160805,,,,,,,2022-11-07,1,,,,,テクサーカンキョウ,0
340,1290001099473,新規,0,2022-11-07,2022-11-07,ＭｉｌｉｅｕＬｕｍｉｎａ株式会社,,株式会社,福岡県,福岡市南区,柏原２丁目６番１４号,,40,134,8111353,,,,,,,2022-11-07,1,,,,,ミリュールミナ,0
341,1290001099498,新規,0,2022-11-07,2022-11-07,株式会社吉塚リトルアジア人材センター,,株式会社,福岡県,福岡市博多区,吉塚１丁目１４番６号,,40,132,8120041,,,,,,,2022-11-07,1,,,,,ヨシヅカリトルアジアジンザイセンター,0
345,1290003013135,新規,0,2022-11-07,2022-11-07,合同会社カラダにいいもの,,合同会社,福岡県,福岡市中央区,天神１丁目４番１号西日本新聞会館１６階,,40,133,8100001,,,,,,,2022-11-07,1,,,,,カラダニイイモノ,0
346,1290003013151,新規,0,2022-11-07,2022-11-07,ＴＥＴＵＹＵＫＩ　ＮＡＫＡＧＡＷＡ合同会社,,合同会社,福岡県,福岡市博多区,博多駅前１丁目１５番２０号ＮＭＦ博多駅前ビル２階,,40,132,8120011,,,,,,,2022-11-07,1,,,,,テツユキナカガワ,0
349,1290801029019,新規,0,2022-11-07,2022-11-07,株式会社花の花将,,株式会社,福岡県,北九州市八幡西区,若葉２丁目１０番２９号,,40,109,8060066,,,,,,,2022-11-07,1,,,,,ハナノハナショウ,0
352,1310001018100,新規,0,2022-11-07,2022-11-07,株式会社ＩＣＨ　ＲＩＮ,,株式会社,長崎県,佐世保市,中里町１３７,,42,202,8580904,,,,,,,2022-11-07,1,,,,,イチリン,0
356,1330001030243,新規,0,2022-11-07,2022-11-07,株式会社ＰＬＵＳ,,株式会社,熊本県,熊本市東区,健軍２丁目２２番８－４０２号,,43,102,8620911,,,,,,,2022-11-07,1,,,,,プラス,0
359,1340003003956,新規,0,2022-11-07,2022-11-07,合同会社カワムラ,,合同会社,鹿児島県,鹿児島市,田上台３丁目４０番６－２０１号,,46,201,8900036,,,,,,,2022-11-07,1,,,,,カワムラ,0
360,1340005009522,新規,0,2022-11-07,2022-11-07,一般社団法人ひらかわ屋,,その他の設立登記法人,鹿児島県,薩摩郡さつま町,平川７４１２番地１,,46,392,8951807,,,,,,,2022-11-07,1,,,,,ヒラカワヤ,0
361,1350001018014,新規,0,2022-11-07,2022-11-07,株式会社ａ　ｍａ　ｆａｃｏｎ,,株式会社,宮崎県,宮崎市,和知川原３丁目８６番地,,45,201,8800023,,,,,,,2022-11-07,1,,,,,アマファソン,0
362,1350001018022,新規,0,2022-11-07,2022-11-07,株式会社モイスティーヌｆｉｏｒｅ,,株式会社,宮崎県,北諸県郡三股町,大字宮村２９０１番地７,,45,341,8891912,,,,,,,2022-11-07,1,,,,,モイスティーヌフィオーレ,0
363,1360001031156,新規,0,2022-11-07,2022-11-07,株式会社ＰＡＤＡ,,株式会社,沖縄県,宮古島市,平良字荷川取９９番地１,,47,214,9060008,,,,,,,2022-11-07,1,,,,,パダ,0
365,1360005006740,新規,0,2022-11-07,2022-11-07,一般社団法人かりゆしゃ,,その他の設立登記法人,沖縄県,宮古島市,伊良部字前里添３番地６,,47,214,9060501,,,,,,,2022-11-07,1,,,,,カリユシャ,0
367,1370001049222,新規,0,2022-11-07,2022-11-07,株式会社ｔｅｒｒａｃｅ,,株式会社,宮城県,東松島市,牛網字駅前一丁目３番地３,,04,214,9810301,,,,,,,2022-11-07,1,,,,,テラス,0
369,1380001033233,新規,0,2022-11-07,2022-11-07,東北ライフネットワーク株式会社,,株式会社,福島県,南相馬市,鹿島区鹿島字御前ノ内３６番地,,07,212,9792335,,,,,,,2022-11-07,1,,,,,トウホクライフネットワーク,0
371,1390001017061,新規,0,2022-11-07,2022-11-07,株式会社吉田でんき,,株式会社,山形県,東置賜郡高畠町,大字福沢５９０番地の３,,06,381,9992174,,,,,,,2022-11-07,1,,,,,,0
372,1400003002992,新規,0,2022-11-07,2022-11-07,合同会社Ｈｓ　ｆａｒｍ,,合同会社,岩手県,陸前高田市,小友町字上の坊４６番地,,03,210,0292207,,,,,,,2022-11-07,1,,,,,エイチエスファーム,0
378,1430001087760,新規,0,2022-11-07,2022-11-07,株式会社Ｕ．Ｐ．Ｓ,,株式会社,北海道,札幌市中央区,北一条西３丁目３番地２４,,01,101,0600001,,,,,,,2022-11-07,1,,,,,アップス,0
379,1430001087802,新規,0,2022-11-07,2022-11-07,株式会社エナジーバンクウェルネス,,株式会社,北海道,札幌市中央区,北五条西６丁目１番２３号第二北海道通信ビル,,01,101,0600005,,,,,,,2022-11-07,1,,,,,エナジーバンクウェルネス,0
380,1430001087827,新規,0,2022-11-07,2022-11-07,株式会社イクヲル,,株式会社,北海道,札幌市北区,篠路九条６丁目１番１０－２０１号,,01,102,0028029,,,,,,,2022-11-07,1,,,,,イクヲル,0
384,1440001009185,新規,0,2022-11-07,2022-11-07,株式会社ガレージパパ,,株式会社,北海道,函館市,昭和４丁目２９番１４号,,01,202,0410812,,,,,,,2022-11-07,1,,,,,ガレージパパ,0
399,2010001230519,新規,0,2022-11-07,2022-11-07,株式会社オフィスジニアス,,株式会社,東京都,中央区,銀座７丁目７番４号,,13,102,1040061,,,,,,,2022-11-07,1,,,,,オフィスジニアス,0
400,2010001230535,新規,0,2022-11-07,2022-11-07,ＴＴＮ株式会社,,株式会社,東京都,千代田区,内神田１丁目１１番１０号,,13,101,1010047,,,,,,,2022-11-07,1,,,,,ティーティーエヌ,0
401,2010001230618,新規,0,2022-11-07,2022-11-07,ｓｅａｗｉｓｅ株式会社,,株式会社,東京都,文京区,小石川１丁目４番１号住友不動産後楽園ビル１６階,,13,105,1120002,,,,,,,2022-11-07,1,,,,,シーワイズ,0
402,2010001230634,新規,0,2022-11-07,2022-11-07,株式会社Ｓｃｉｌｙ,,株式会社,東京都,中央区,銀座１丁目１２－４Ｎ＆Ｅ．ＢＬＤ７階,,13,102,1040061,,,,,,,2022-11-07,1,,,,,サイリー,0
413,2010401170554,新規,0,2022-11-07,2022-11-07,株式会社ＭＲＮ,,株式会社,東京都,港区,赤坂６丁目８番２－１２０３号,,13,103,1070052,,,,,,,2022-11-07,1,,,,,マリン,0
414,2010401170587,新規,0,2022-11-07,2022-11-07,株式会社朝凪,,株式会社,東京都,港区,赤坂４丁目８番１９号赤坂フロントタウン３階,,13,103,1070052,,,,,,,2022-11-07,1,,,,,アサナギ,0
415,2010401170604,新規,0,2022-11-07,2022-11-07,株式会社ｅＧｅｎ,,株式会社,東京都,港区,港南１丁目９番３６号アレア品川１３階エキスパートオフィス品川８０１号室,,13,103,1080075,,,,,,,2022-11-07,1,,,,,エゲン,0
416,2010401170612,新規,0,2022-11-07,2022-11-07,株式会社ピスタチオ,,株式会社,東京都,港区,南青山２丁目２番１５号ＷＩＮ青山５３１,,13,103,1070062,,,,,,,2022-11-07,1,,,,,ピスタチオ,0
417,2010401170637,新規,0,2022-11-07,2022-11-07,従業員満足度研究所株式会社,,株式会社,東京都,港区,浜松町２丁目２番１５号ダイヤビル２Ｆ,,13,103,1050013,,,,,,,2022-11-07,1,,,,,ジュウギョウインマンゾクドケンキュウジョ,0
418,2010401170645,新規,0,2022-11-07,2022-11-07,株式会社ソトリエ千葉,,株式会社,東京都,港区,港南１丁目６番３３－１４０９号,,13,103,1080075,,,,,,,2022-11-07,1,,,,,ソトリエチバ,0
419,2010401170653,新規,0,2022-11-07,2022-11-07,株式会社ロードリンクス,,株式会社,東京都,港区,南青山２丁目２番１５号ウィン青山９４２,,13,103,1070062,,,,,,,2022-11-07,1,,,,,ロードリンクス,0
420,2010401170661,新規,0,2022-11-07,2022-11-07,株式会社アポロン,,株式会社,東京都,港区,南青山１丁目１５番３９号Ｙ’ｓハウス２０１,,13,103,1070062,,,,,,,2022-11-07,1,,,,,アポロン,0
421,2010401170678,新規,0,2022-11-07,2022-11-07,スプリンクル株式会社,,株式会社,東京都,港区,麻布十番２丁目１番１－６０１号,,13,103,1060045,,,,,,,2022-11-07,1,,,,,スプリンクル,0
424,2010403028825,新規,0,2022-11-07,2022-11-07,合同会社ｕ．ｕ,,合同会社,東京都,港区,南青山３丁目１３番１号,,13,103,1070062,,,,,,,2022-11-07,1,,,,,ユーユー,0
425,2010403028833,新規,0,2022-11-07,2022-11-07,ＲＢソーラーテミス合同会社,,合同会社,東京都,港区,虎ノ門３丁目２２番１０－２０１号,,13,103,1050001,,,,,,,2022-11-07,1,,,,,アールビーソーラーテミス,0
427,2010501049590,新規,0,2022-11-07,2022-11-07,三矢建設株式会社,,株式会社,東京都,台東区,東浅草２丁目７番５号第２ナカジマビル４０１,,13,106,1110025,,,,,,,2022-11-07,1,,,,,ミツヤケンセツ,0
428,2010505003354,新規,0,2022-11-07,2022-11-07,一般社団法人日本Ｋｏｔｌｉｎユーザーグループ,,その他の設立登記法人,東京都,台東区,北上野２丁目８－４コンフォート上野５０１号,,13,106,1100014,,,,,,,2022-11-07,1,,,,,ニホンコトリンユーザーグループ,0
430,2010601062097,新規,0,2022-11-07,2022-11-07,株式会社ＡＴＩＰＩＸ,,株式会社,東京都,江東区,亀戸３丁目１４番４号,,13,108,1360071,,,,,,,2022-11-07,1,,,,,アティピックス,0
431,2010601062106,新規,0,2022-11-07,2022-11-07,株式会社かめや,,株式会社,東京都,江東区,亀戸４丁目１７番１９号,,13,108,1360071,,,,,,,2022-11-07,1,,,,,カメヤ,0
432,2010603009823,新規,0,2022-11-07,2022-11-07,合同会社スタジオマイケル,,合同会社,東京都,江東区,亀戸７丁目６２番１６－１０３号,,13,108,1360071,,,,,,,2022-11-07,1,,,,,スタジオマイケル,0
434,2010801033402,新規,0,2022-11-07,2022-11-07,株式会社エラノーム,,株式会社,東京都,大田区,山王１丁目９番１６号,,13,111,1430023,,,,,,,2022-11-07,1,,,,,エラノーム,0
438,2010903007758,新規,0,2022-11-07,2022-11-07,合同会社Ｔａｋｅ３,,合同会社,東京都,世田谷区,北烏山９丁目１番２０号－３,,13,112,1570061,,,,,,,2022-11-07,1,,,,,テイクスリー,0
442,2011001150673,新規,0,2022-11-07,2022-11-07,株式会社サンアルゴ,,株式会社,東京都,渋谷区,円山町５番５号３階,,13,113,1500044,,,,,,,2022-11-07,1,,,,,サンアルゴ,0
443,2011001150698,新規,0,2022-11-07,2022-11-07,株式会社ピュアビューティー,,株式会社,東京都,渋谷区,神宮前６丁目２３番４号桑野ビル２階,,13,113,1500001,,,,,,,2022-11-07,1,,,,,ピュアビューティー,0
444,2011001150723,新規,0,2022-11-07,2022-11-07,株式会社ＳＣＥＮＥ,,株式会社,東京都,渋谷区,道玄坂１丁目１０番８号渋谷道玄坂東急ビル２Ｆ－Ｃ,,13,113,1500043,,,,,,,2022-11-07,1,,,,,シーン,0
445,2011001150764,新規,0,2022-11-07,2022-11-07,エアーズ株式会社,,株式会社,東京都,渋谷区,道玄坂１丁目１０番８号渋谷道玄坂東急ビル２Ｆ－Ｃ,,13,113,1500043,,,,,,,2022-11-07,1,,,,,エアーズ,0
446,2011003015651,新規,0,2022-11-07,2022-11-07,合同会社Ｋ．Ｒ．Ｃ．,,合同会社,東京都,目黒区,目黒４丁目１４番２５号,,13,110,1530063,,,,,,,2022-11-07,1,,,,,ケイアールシー,0
447,2011101100719,新規,0,2022-11-07,2022-11-07,株式会社アドブシ,,株式会社,東京都,新宿区,西新宿８丁目１１番１０号星野ビル３階３０１号室,,13,104,1600023,,,,,,,2022-11-07,1,,,,,アドブシ,0
448,2011101100735,新規,0,2022-11-07,2022-11-07,株式会社エス・ビー,,株式会社,東京都,新宿区,西新宿８丁目１１番１０号星野ビル３Ｆ,,13,104,1600023,,,,,,,2022-11-07,1,,,,,エスビー,0
452,2011401024642,新規,0,2022-11-07,2022-11-07,亦諾株式会社,,株式会社,東京都,板橋区,大和町６－１２－５０１,,13,119,1730012,,,,,,,2022-11-07,1,,,,,エキダク,0
454,2011501028634,新規,0,2022-11-07,2022-11-07,ＧＲＯＯＶＥ　ＡＳＳＩＳＴ株式会社,,株式会社,東京都,荒川区,町屋７丁目１４番２号,,13,118,1160001,,,,,,,2022-11-07,1,,,,,グルーヴアシスト,0
460,2011803005356,新規,0,2022-11-07,2022-11-07,合同会社宝＿,00128369,合同会社,東京都,葛飾区,宝町１丁目２６番１号,,13,122,1240005,,,,,,,2022-11-07,1,,,,,ホウシン,0
474,2020001148792,新規,0,2022-11-07,2022-11-07,株式会社たかみ,,株式会社,神奈川県,横浜市栄区,本郷台１丁目１２番６号,,14,115,2470008,,,,,,,2022-11-07,1,,,,,タカミ,0
475,2020001148801,新規,0,2022-11-07,2022-11-07,株式会社生産技術部,,株式会社,神奈川県,横浜市旭区,中希望が丘１１６番地１０,,14,112,2410825,,,,,,,2022-11-07,1,,,,,セイサンギジュツブ,0
476,2020001148818,新規,0,2022-11-07,2022-11-07,株式会社ＡＣＥラボ,,株式会社,神奈川県,川崎市幸区,中幸町４丁目４６,,14,132,2120012,,,,,,,2022-11-07,1,,,,,エースラボ,0
477,2020001148875,新規,0,2022-11-07,2022-11-07,株式会社ヴェルディグリ,,株式会社,神奈川県,川崎市高津区,下作延３丁目３番１０－４０５号スルバリエ梶ヶ谷,,14,134,2130033,,,,,,,2022-11-07,1,,,,,ヴェルディグリ,0
481,2020003022665,新規,0,2022-11-07,2022-11-07,ｎａｎａｉｒｏ　ｊａｐａｎ合同会社,,合同会社,神奈川県,横浜市保土ケ谷区,西谷３丁目２２－６,,14,106,2400054,,,,,,,2022-11-07,1,,,,,,0
482,2020003022673,新規,0,2022-11-07,2022-11-07,ＺＵＭＩ合同会社,,合同会社,神奈川県,横浜市青葉区,荏田北３丁目１６番３６号,,14,117,2250015,,,,,,,2022-11-07,1,,,,,ズミ,0
483,2020003022681,新規,0,2022-11-07,2022-11-07,合同会社ＳＡＦＦＡＩＲＥ　ＳＫＹ　ＥＮＥＲＧＹ,,合同会社,神奈川県,横浜市西区,みなとみらい２丁目３番１号,,14,103,2200012,,,,,,,2022-11-07,1,,,,,サファイアスカイエナジー,0
484,2021001077346,新規,0,2022-11-07,2022-11-07,株式会社ＯＮＥ,,株式会社,神奈川県,平塚市,東中原１丁目３番６４号,,14,203,2540077,,,,,,,2022-11-07,1,,,,,ワン,0
485,2021001077354,新規,0,2022-11-07,2022-11-07,株式会社ＥＣＯＪ,,株式会社,神奈川県,小田原市,栄町２丁目１２番３号サングレイス小田原３階,,14,206,2500011,,,,,,,2022-11-07,1,,,,,エコジェイ,0
486,2021001077370,新規,0,2022-11-07,2022-11-07,株式会社ＨＩＦＡ,,株式会社,神奈川県,藤沢市,辻堂太平台１丁目１３番６号,,14,205,2510044,,,,,,,2022-11-07,1,,,,,ハイファ,0
488,2021003012334,新規,0,2022-11-07,2022-11-07,合同会社石田村,,合同会社,神奈川県,藤沢市,遠藤６２９番地の１１,,14,205,2520816,,,,,,,2022-11-07,1,,,,,イシダムラ,0
492,2030001150731,新規,0,2022-11-07,2022-11-07,株式会社一建設,,株式会社,埼玉県,草加市,稲荷４丁目２２番３１－１号,,11,221,3400003,,,,,,,2022-11-07,1,,,,,イチケンセツ,0
493,2030001150855,新規,0,2022-11-07,2022-11-07,株式会社ＫＯＵコーポレート,,株式会社,埼玉県,川口市,本町４丁目５番２６号,,11,203,3320012,,,,,,,2022-11-07,1,,,,,コウコーポレート,0
494,2030001150905,新規,0,2022-11-07,2022-11-07,株式会社パワフル,,株式会社,埼玉県,川口市,大字安行北谷５９５番地の１,,11,203,3340054,,,,,,,2022-11-07,1,,,,,パワフル,0
504,2040001125658,新規,0,2022-11-07,2022-11-07,株式会社マイセルフネクスト,,株式会社,千葉県,習志野市,津田沼５丁目１２番１２号サンロード津田沼１Ｆ－１,,12,216,2750016,,,,,,,2022-11-07,1,,,,,マイセルフネクスト,0
505,2040001125674,新規,0,2022-11-07,2022-11-07,株式会社ピース,,株式会社,千葉県,匝瑳市,栢田４９３８番地,,12,235,2893184,,,,,,,2022-11-07,1,,,,,ピース,0
506,2040001125682,新規,0,2022-11-07,2022-11-07,ＡＵＸＩ株式会社,,株式会社,千葉県,松戸市,南花島１丁目２番４号,,12,207,2710065,,,,,,,2022-11-07,1,,,,,アクシー,0
507,2040001125690,新規,0,2022-11-07,2022-11-07,篤栄サービス株式会社,,株式会社,千葉県,八千代市,ゆりのき台１丁目２４番地１サングレース八千代４０６号室,,12,221,2760042,,,,,,,2022-11-07,1,,,,,トクエイサービス,0
508,2040001125749,新規,0,2022-11-07,2022-11-07,株式会社トモテック・ジャパン,,株式会社,千葉県,印西市,平賀３８３０番地３ヒルズ７８Ａ棟１０２,,12,231,2701605,,,,,,,2022-11-07,1,,,,,トモテックジャパン,0
509,2040003021194,新規,0,2022-11-07,2022-11-07,合同会社あみ,,合同会社,千葉県,印西市,草深２２２１番地５,,12,231,2701337,,,,,,,2022-11-07,1,,,,,アミ,0
512,2050001051894,新規,0,2022-11-07,2022-11-07,Ｋ’Ｚボデー株式会社,,株式会社,茨城県,筑西市,犬塚５２８番地２,00128372,08,227,3080117,,,,,,,2022-11-07,1,,,,,ケーゼットボデー,0
513,2050001051903,新規,0,2022-11-07,2022-11-07,８４ＣＣ株式会社,,株式会社,茨城県,桜川市,岩瀬１４９２番地,,08,231,3091211,,,,,,,2022-11-07,1,,,,,ハチヨンシーシー,0
532,2080403004646,新規,0,2022-11-07,2022-11-07,合同会社８ｅｉｇｈｔ,,合同会社,静岡県,湖西市,白須賀４８５７番地の３,,22,221,4310451,,,,,,,2022-11-07,1,,,,,エイト,0
534,2100003006759,新規,0,2022-11-07,2022-11-07,合同会社ＭＹＭ,,合同会社,長野県,飯山市,大字瑞穂５７６７番地２,,20,213,3892322,,,,,,,2022-11-07,1,,,,,エムワイエム,0
538,2110001037078,新規,0,2022-11-07,2022-11-07,株式会社Ｇｏｌｄｍａｎ　Ｓｕｃｃｅｓｓ,,株式会社,新潟県,三条市,興野３丁目３番２７－４号,,15,204,9550046,,,,,,,2022-11-07,1,,,,,ゴールドマンサクセス,0
539,2110001037086,新規,0,2022-11-07,2022-11-07,株式会社ＨＩＳＡＫＩ,,株式会社,新潟県,上越市,本町２丁目２番２７号,,15,222,9430832,,,,,,,2022-11-07,1,,,,,ヒサキ,0
542,2110005016870,新規,0,2022-11-07,2022-11-07,一般社団法人海と日本プロジェクトｉｎ新潟実行委員会,,その他の設立登記法人,新潟県,新潟市中央区,川岸町３丁目１８番地,,15,103,9518133,,,,,,,2022-11-07,1,,,,,ウミトニッポンプロジェクトインニイガタジッコウイインカイ,0
553,2120001249960,新規,0,2022-11-07,2022-11-07,株式会社峻然,,株式会社,大阪府,大阪市浪速区,幸町２丁目２番３号－６０２号,,27,111,5560021,,,,,,,2022-11-07,1,,,,,シュンゼン,0
554,2120001249985,新規,0,2022-11-07,2022-11-07,五洋グローバル株式会社,,株式会社,大阪府,大阪市淀川区,塚本１丁目１０番１６号,,27,123,5320026,,,,,,,2022-11-07,1,,,,,ウーヤングローバル,0
555,2120001250010,新規,0,2022-11-07,2022-11-07,株式会社ＣＬＡＳＳＩＣＯ,,株式会社,大阪府,交野市,星田５丁目１７番２５号,,27,230,5760016,,,,,,,2022-11-07,1,,,,,クラシコ,0
556,2120001250019,新規,0,2022-11-07,2022-11-07,株式会社ネクストワン,,株式会社,大阪府,大阪市中央区,平野町２丁目２番７号,,27,128,5410046,,,,,,,2022-11-07,1,,,,,ネクストワン,0
557,2120001250027,新規,0,2022-11-07,2022-11-07,株式会社デザインオフィスティーツー,,株式会社,大阪府,大阪市西区,江戸堀１丁目２６番１８号ユニハイム江戸堀１１０３号,,27,106,5500002,,,,,,,2022-11-07,1,,,,,デザインオフィスティーツー,0
558,2120001250068,新規,0,2022-11-07,2022-11-07,株式会社ｕｎａ,,株式会社,大阪府,大阪市浪速区,難波中３丁目６番３号,,27,111,5560011,,,,,,,2022-11-07,1,,,,,ウナ,0
559,2120001250076,新規,0,2022-11-07,2022-11-07,株式会社さんまる,,株式会社,大阪府,大阪市平野区,加美北９丁目５番２４号,,27,126,5470001,,,,,,,2022-11-07,1,,,,,サンマル,0
565,2120003022795,新規,0,2022-11-07,2022-11-07,合同会社ユナイテッド・エクスクル,,合同会社,大阪府,大阪市北区,梅田１丁目１１番４号大阪駅前第４ビル９階９２３１６４６号,,27,127,5300001,,,,,,,2022-11-07,1,,,,,,0
569,2120101066471,新規,0,2022-11-07,2022-11-07,株式会社ユキコーポレーション,,株式会社,大阪府,堺市堺区,中之町東４丁１番１９号,,27,141,5900956,,,,,,,2022-11-07,1,,,,,ユキコーポレーション,0
570,2120901046680,新規,0,2022-11-07,2022-11-07,株式会社ａｎｄ　ｙｏｕ,,株式会社,大阪府,茨木市,目垣２丁目２７番９号,,27,211,5670836,,,,,,,2022-11-07,1,,,,,アンドユー,0
582,2130001072965,新規,0,2022-11-07,2022-11-07,株式会社ＡＸＩＡ,,株式会社,京都府,宇治市,大久保町北ノ山１３番地の３,,26,204,6110033,,,,,,,2022-11-07,1,,,,,アクシア,0
583,2130001072973,新規,0,2022-11-07,2022-11-07,株式会社いちご不動産商会,,株式会社,京都府,京都市伏見区,中島中道町２７番地,,26,109,6128456,,,,,,,2022-11-07,1,,,,,イチゴフドウサンショウカイ,0
592,2140001127933,新規,0,2022-11-07,2022-11-07,株式会社Ｍａｂ,,株式会社,兵庫県,神戸市東灘区,渦森台４丁目１５番１号,,28,101,6580066,,,,,,,2022-11-07,1,,,,,マブ,0
593,2140001127990,新規,0,2022-11-07,2022-11-07,株式会社Ｄｉｏｎ,,株式会社,兵庫県,姫路市,二階町７３番地３Ｆ,,28,201,6700922,,,,,,,2022-11-07,1,,,,,ディオン,0
594,2140003018305,新規,0,2022-11-07,2022-11-07,アルブル合同会社,,合同会社,兵庫県,神戸市東灘区,御影３丁目１８－１２－２,,28,101,6580047,,,,,,,2022-11-07,1,,,,,アルブル,0
603,2180001153546,新規,0,2022-11-07,2022-11-07,株式会社永井,,株式会社,愛知県,一宮市,大和町馬引２２９２,,23,203,4910931,,,,,,,2022-11-07,1,,,,,ナガイ,0
604,2180001153604,新規,0,2022-11-07,2022-11-07,株式会社ねいろ,,株式会社,愛知県,知多郡武豊町,字桜ケ丘１丁目１番地４,,23,447,4702359,,,,,,,2022-11-07,1,,,,,ネイロ,0
605,2180001153612,新規,0,2022-11-07,2022-11-07,株式会社Ｊトランスポート,,株式会社,愛知県,名古屋市天白区,野並１丁目４０番地,,23,116,4680045,,,,,,,2022-11-07,1,,,,,ジェイトランスポート,0
606,2180001153637,新規,0,2022-11-07,2022-11-07,株式会社モリヤ,,株式会社,愛知県,名古屋市守山区,小幡南１丁目１８番２１号,,23,113,4630048,,,,,,,2022-11-07,1,,,,,モリヤ,0
607,2180001153645,新規,0,2022-11-07,2022-11-07,株式会社ミース建築設計事務所,,株式会社,愛知県,一宮市,宮西通７丁目３１番地１,,23,203,4910064,,,,,,,2022-11-07,1,,,,,ミースケンチクセッケイジムショ,0
608,2180001153661,新規,0,2022-11-07,2022-11-07,ＧＥＡＲ株式会社,,株式会社,愛知県,名古屋市中区,金山１丁目１５番３号,,23,106,4600022,,,,,,,2022-11-07,1,,,,,ギア,0
609,2180001153686,新規,0,2022-11-07,2022-11-07,株式会社ＣＨＡＮＳＨＩＮ,,株式会社,愛知県,名古屋市中区,葵１丁目２４番１０号,,23,106,4600006,,,,,,,2022-11-07,1,,,,,チャンシン,0
610,2180001153703,新規,0,2022-11-07,2022-11-07,株式会社Ｗｉｎｄｈｉｌｌ,,株式会社,愛知県,名古屋市中川区,戸田西２丁目１８０２番地,,23,110,4540967,,,,,,,2022-11-07,1,,,,,ウインドヒル,0
611,2180001153711,新規,0,2022-11-07,2022-11-07,株式会社鈴木板金,,株式会社,愛知県,海部郡飛島村,竹之郷４丁目２６番地,,23,427,4901436,,,,,,,2022-11-07,1,,,,,スズキバンキン,0
612,2180001153728,新規,0,2022-11-07,2022-11-07,株式会社アスタロイド,,株式会社,愛知県,名古屋市中区,栄５丁目２３番３６号ＧＳ栄ビル５Ｆ,,23,106,4600008,,,,,,,2022-11-07,1,,,,,アスタロイド,0
613,2180001153752,新規,0,2022-11-07,2022-11-07,株式会社アルファアンドオメガ,,株式会社,愛知県,名古屋市西区,城北町３丁目７番地,,23,104,4510023,,,,,,,2022-11-07,1,,,,,アルファアンドオメガ,0
617,2180003024423,新規,0,2022-11-07,2022-11-07,合同会社森牧場,,合同会社,愛知県,半田市,岩滑西町８丁目９番地,,23,205,4750966,,,,,,,2022-11-07,1,,,,,モリボクジョウ,0
618,2180003024448,新規,0,2022-11-07,2022-11-07,合同会社ろくでん,,合同会社,愛知県,名古屋市緑区,桶狭間巻山１３０３,,23,114,4580920,,,,,,,2022-11-07,1,,,,,ロクデン,0
623,2180301036772,新規,0,2022-11-07,2022-11-07,株式会社シバタニ商事,,株式会社,愛知県,蒲郡市,大塚町星越１４番地１,,23,214,4430013,,,,,,,2022-11-07,1,,,,,シバタニショウジ,0
626,2190001029902,新規,0,2022-11-07,2022-11-07,株式会社ｔｅａｍ　ｓｕｎｓ,,株式会社,三重県,四日市市,久保田２丁目１５番７号,,24,202,5100821,,,,,,,2022-11-07,1,,,,,チームサンズ,0
627,2190005011757,新規,0,2022-11-07,2022-11-07,医療法人Ｆ＆Ｆ,,その他の設立登記法人,三重県,津市,久居中町１３４番３７,,24,201,5141107,,,,,,,2022-11-07,1,,,,,エフアンドエフ,0
630,2200001040519,新規,0,2022-11-07,2022-11-07,躍進企画株式会社,,株式会社,岐阜県,郡上市,高鷲町ひるがの４６７０番地の２８５１,,21,219,5015301,,,,,,,2022-11-07,1,,,,,ヤクシンキカク,0
631,2200001040650,新規,0,2022-11-07,2022-11-07,株式会社ＳＴＲ,,株式会社,岐阜県,岐阜市,加納花ノ木町２０番地,,21,201,5008275,,,,,,,2022-11-07,1,,,,,エスティーアール,0
640,2240001060612,新規,0,2022-11-07,2022-11-07,株式会社智慧ランド,,株式会社,広島県,広島市西区,井口台２丁目２４番３号,,34,104,7330844,,,,,,,2022-11-07,1,,,,,チエランド,0
643,2250001019830,新規,0,2022-11-07,2022-11-07,リゾリート株式会社,,株式会社,山口県,山陽小野田市,大字千崎１２８番地,,35,216,7560039,,,,,,,2022-11-07,1,,,,,リゾリート,0
646,2260001037360,新規,0,2022-11-07,2022-11-07,株式会社皆喜エンタープライズ,,株式会社,岡山県,岡山市北区,白石４２７番地１ピュアステージイタノ２０５号,,33,101,7010143,,,,,,,2022-11-07,1,,,,,ミナキエンタープライズ,0
649,2270003001462,新規,0,2022-11-07,2022-11-07,末広経済研究所合同会社,,合同会社,鳥取県,鳥取市,鹿野町末用４６０番地,,31,201,6890403,,,,,,,2022-11-07,1,,,,,スエヒロケイザイケンキュウジョ,0
652,2290001099398,新規,0,2022-11-07,2022-11-07,株式会社ヤマグチ,,株式会社,福岡県,福岡市博多区,浦田２丁目１９番１６号,,40,132,8120861,,,,,,,2022-11-07,1,,,,,ヤマグチ,0
653,2290001099415,新規,0,2022-11-07,2022-11-07,株式会社ｏｆｆｉｃｅ岸川,,株式会社,福岡県,筑紫野市,二日市西１丁目１４番６号,,40,217,8180071,,,,,,,2022-11-07,1,,,,,オフィスキシカワ,0
654,2290001099431,新規,0,2022-11-07,2022-11-07,株式会社彩巴,,株式会社,福岡県,福岡市中央区,渡辺通５丁目６番１８号,,40,133,8100004,,,,,,,2022-11-07,1,,,,,イロハ,0
655,2290001099448,新規,0,2022-11-07,2022-11-07,株式会社ＤＲＩＴＴＯ,,株式会社,福岡県,福岡市南区,三宅２丁目１番２８号,,40,134,8111344,,,,,,,2022-11-07,1,,,,,ディリット,0
656,2290001099464,新規,0,2022-11-07,2022-11-07,株式会社ＦＩＦ,,株式会社,福岡県,福岡市中央区,春吉２丁目６番６号,,40,133,8100003,,,,,,,2022-11-07,1,,,,,エフアイエフ,0
663,2300001013126,新規,0,2022-11-07,2022-11-07,株式会社古賀自動車,,株式会社,佐賀県,三養基郡みやき町,大字西島２３４２番地１,,41,346,8401101,,,,,,,2022-11-07,1,,,,,コガジドウシャ,0
667,2320001019410,新規,0,2022-11-07,2022-11-07,コーポレートフォワード株式会社,,株式会社,大分県,国東市,安岐町下原字中尾７１０番地２０,,44,214,8730231,,,,,,,2022-11-07,1,,,,,コーポレートフォワード,0
670,2330001030259,新規,0,2022-11-07,2022-11-07,株式会社国産の生活,,株式会社,熊本県,菊池郡大津町,大字矢護川立石３３５８,,43,403,8691211,,,,,,,2022-11-07,1,,,,,コクサンノセイカツ,0
671,2330001030267,新規,0,2022-11-07,2022-11-07,株式会社Ｋｓｔｙｌｅ,,株式会社,熊本県,阿蘇市,三久保１３６番地５,,43,214,8692302,,,,,,,2022-11-07,1,,,,,ケイスタイル,0
679,2350001018013,新規,0,2022-11-07,2022-11-07,スチームブランド株式会社,,株式会社,宮崎県,日向市,北町１丁目９番地,,45,206,8830041,,,,,,,2022-11-07,1,,,,,スチームブランド,0
680,2360001031155,新規,0,2022-11-07,2022-11-07,株式会社プロラボ琉球,,株式会社,沖縄県,浦添市,勢理客４丁目１５番１５号,,47,208,9012122,,,,,,,2022-11-07,1,,,,,プロラボリュウキュウ,0
687,2390001017069,新規,0,2022-11-07,2022-11-07,株式会社ヒラムキ,,株式会社,山形県,酒田市,東両羽町５番地の３,,06,204,9980831,,,,,,,2022-11-07,1,,,,,ヒラムキ,0
694,2430001087792,新規,0,2022-11-07,2022-11-07,株式会社やくらぼ,,株式会社,北海道,札幌市北区,あいの里一条３丁目４番８号,,01,102,0028071,,,,,,,2022-11-07,1,,,,,ヤクラボ,0
695,2430001087826,新規,0,2022-11-07,2022-11-07,岡村株式会社,,株式会社,北海道,札幌市中央区,南七条西７丁目２番地１ローヤルハイツ南７条１０６６号,,01,101,0640807,,,,,,,2022-11-07,1,,,,,オカムラ,0
699,2430003014431,新規,0,2022-11-07,2022-11-07,合同会社フォレストガンプ,,合同会社,北海道,札幌市東区,伏古十三条４丁目１番３号,,01,103,0070873,,,,,,,2022-11-07,1,,,,,フォレストガンプ,0
707,2490003001713,新規,0,2022-11-07,2022-11-07,合同会社フォレスト,,合同会社,高知県,須崎市,池ノ内１０２９番地２,,39,206,7850021,,,,,,,2022-11-07,1,,,,,フォレスト,0
710,2500003002916,新規,0,2022-11-07,2022-11-07,合同会社トラスト,,合同会社,愛媛県,四国中央市,上柏町４０７番地１,,38,213,7990412,,,,,,,2022-11-07,1,,,,,トラスト,0
720,3010001230609,新規,0,2022-11-07,2022-11-07,株式会社韓国文化経済総合研究所,,株式会社,東京都,千代田区,大手町１丁目５番１号,,13,101,1000004,,,,,,,2022-11-07,1,,,,,カンコクブンカケイザイソウゴウケンキュウショ,0
721,3010001230625,新規,0,2022-11-07,2022-11-07,株式会社ＡＣＪ,,株式会社,東京都,中央区,銀座８丁目１０－５ＤＥＮＳＡＮビルＧ－６９８２１,,13,102,1040061,,,,,,,2022-11-07,1,,,,,エーシージェイ,0
722,3010003038967,新規,0,2022-11-07,2022-11-07,合同会社ＯＨＡＣＯ,,合同会社,東京都,中央区,銀座１丁目１２番４号Ｎ＆Ｅ，ＢＬＤ．６Ｆ,,13,102,1040061,,,,,,,2022-11-07,1,,,,,オハコ,0
723,3010003038975,新規,0,2022-11-07,2022-11-07,楽生合同会社,,合同会社,東京都,中央区,銀座１丁目１２番４号Ｎ＆ＥＢＬＤ．６Ｆ,,13,102,1040061,,,,,,,2022-11-07,1,,,,,ラクセイ,0
726,3010101015397,新規,0,2022-11-07,2022-11-07,株式会社エス・フロー,,株式会社,東京都,八王子市,中野山王１丁目２番８号,,13,201,1920042,,,,,,,2022-11-07,1,,,,,エスフロー,0
736,3010401170586,新規,0,2022-11-07,2022-11-07,ＷｉｔｈＦｕｎフード株式会社,,株式会社,東京都,港区,六本木３丁目１５番１１号ホーマットウエスト４４０,,13,103,1060032,,,,,,,2022-11-07,1,,,,,ウィズファンフード,0
737,3010401170594,新規,0,2022-11-07,2022-11-07,株式会社ｂｒｉｌｌｉａｎｔ　ｂｒａｉｎ,,株式会社,東京都,港区,白金３丁目１番１３号日恵ビル２階,,13,103,1080072,,,,,,,2022-11-07,1,,,,,ブリリアントブレイン,0
738,3010401170603,新規,0,2022-11-07,2022-11-07,フェニックス・コンサルティング株式会社,,株式会社,東京都,港区,南青山２丁目２番１５号,,13,103,1070062,,,,,,,2022-11-07,1,,,,,フェニックスコンサルティング,0
739,3010401170669,新規,0,2022-11-07,2022-11-07,株式会社ゴールデンオックス,,株式会社,東京都,港区,新橋４丁目２４番１０号,,13,103,1050004,,,,,,,2022-11-07,1,,,,,ゴールデンオックス,0
740,3010401170677,新規,0,2022-11-07,2022-11-07,株式会社ベクターフォース,,株式会社,東京都,港区,赤坂１丁目３－３－Ｔフロントビル２階,,13,103,1070052,,,,,,,2022-11-07,1,,,,,ベクターフォース,0
743,3010403028824,新規,0,2022-11-07,2022-11-07,合同会社レディーバードミュージックラボ,,合同会社,東京都,港区,芝５丁目２９番１７号ＭＡビル札の辻８階,,13,103,1080014,,,,,,,2022-11-07,1,,,,,レディーバードミュージックラボ,0
744,3010403028832,新規,0,2022-11-07,2022-11-07,ＲＢソーラーガイア合同会社,,合同会社,東京都,港区,虎ノ門３丁目２２番１０－２０１号,,13,103,1050001,,,,,,,2022-11-07,1,,,,,アールビーソーラーガイア,0
745,3010403028840,新規,0,2022-11-07,2022-11-07,合同会社葵コンサルティング,,合同会社,東京都,港区,南青山３丁目一番３６号青山丸竹ビル６Ｆ,,13,103,1070062,,,,,,,2022-11-07,1,,,,,アオイコンサルティング,0
746,3010403028849,新規,0,2022-11-07,2022-11-07,合同会社ワンエッジクリエーション,,合同会社,東京都,港区,西新橋２丁目１２番１－１２０３号,,13,103,1050003,,,,,,,2022-11-07,1,,,,,ワンエッジクリエーション,0
747,3010405021554,新規,0,2022-11-07,2022-11-07,ＲＢソーラーテミスホールディングス一般社団法人,,その他の設立登記法人,東京都,港区,虎ノ門３丁目２２番１０－２０１号,,13,103,1050001,,,,,,,2022-11-07,1,,,,,アールビーソーラーテミスホールディングス,0
750,3010601062096,新規,0,2022-11-07,2022-11-07,鷹羽運輸株式会社,,株式会社,東京都,江東区,北砂３丁目１６番１６号,,13,108,1360073,,,,,,,2022-11-07,1,,,,,タカバウンユ,0
751,3010603009822,新規,0,2022-11-07,2022-11-07,合同会社アッパーフロア,,合同会社,東京都,墨田区,立花５丁目５０番２８－１０７号,,13,107,1310043,,,,,,,2022-11-07,1,,,,,アッパーフロア,0
754,3010701043418,新規,0,2022-11-07,2022-11-07,株式会社ＴＳＧ,,株式会社,東京都,品川区,東品川４丁目１１番３６－１３３０号,,13,109,1400002,,,,,,,2022-11-07,1,,,,,ティーエスジー,0
756,3010801033401,新規,0,2022-11-07,2022-11-07,株式会社Ｓｏｌｏ　ｕｎｏ,,株式会社,東京都,大田区,大森東１丁目１５番１２号第二奥島ビル１Ｆ,,13,111,1430012,,,,,,,2022-11-07,1,,,,,ソロウノ,0
761,3010901051906,新規,0,2022-11-07,2022-11-07,株式会社ＤＵＯＬＩＮＥ,,株式会社,東京都,世田谷区,岡本２丁目３番２９号グレースランド１０５,,13,112,1570076,,,,,,,2022-11-07,1,,,,,,0
762,3010901051914,新規,0,2022-11-07,2022-11-07,ｓｔｕｄｉｏ　ｓｔｅｌｌａ株式会社,,株式会社,東京都,世田谷区,中町２丁目１番１５号,,13,112,1580091,,,,,,,2022-11-07,1,,,,,スタジオステラ,0
767,3011001150689,新規,0,2022-11-07,2022-11-07,株式会社ライクユー,,株式会社,東京都,渋谷区,渋谷２丁目１９‐１５宮益坂ビルディング６０９,,13,113,1500002,,,,,,,2022-11-07,1,,,,,ライクユー,0
768,3011001150697,新規,0,2022-11-07,2022-11-07,ＡｇｏｒａＷｉｎｅ株式会社,,株式会社,東京都,目黒区,平町２丁目６番１４号,,13,110,1520032,,,,,,,2022-11-07,1,,,,,アゴラワイン,0
769,3011001150714,新規,0,2022-11-07,2022-11-07,ＴＲＹＶＡＬ株式会社,,株式会社,東京都,渋谷区,道玄坂１丁目１０番８号渋谷道玄坂東急ビル２階,,13,113,1500043,,,,,,,2022-11-07,1,,,,,トライバル,0
770,3011001150722,新規,0,2022-11-07,2022-11-07,ＦＲＣＴＬ株式会社,,株式会社,東京都,渋谷区,渋谷２丁目１９－１５宮益坂ビルディング６０９,,13,113,1500002,,,,,,,2022-11-07,1,,,,,フラクタル,0
771,3011001150730,新規,0,2022-11-07,2022-11-07,株式会社マーキーズ,,株式会社,東京都,渋谷区,千駄ヶ谷５丁目２９番１１号,,13,113,1510051,,,,,,,2022-11-07,1,,,,,マーキーズ,0
772,3011001150747,新規,0,2022-11-07,2022-11-07,株式会社ＮＥＷＳＴＡ,,株式会社,東京都,渋谷区,道玄坂１丁目１０番８号,,13,113,1500043,,,,,,,2022-11-07,1,,,,,ニュウスタ,0
774,3011003015650,新規,0,2022-11-07,2022-11-07,アウテンティクール合同会社,,合同会社,東京都,目黒区,中根２丁目８番１５号グランデュオ都立大学２０３,,13,110,1520031,,,,,,,2022-11-07,1,,,,,アウテンティクール,0
775,3011003015659,新規,0,2022-11-07,2022-11-07,Ｏ＆Ｋ合同会社,,合同会社,東京都,渋谷区,神南１丁目１２番１７号,,13,113,1500041,,,,,,,2022-11-07,1,,,,,オーアンドケー,0
778,3011101100726,新規,0,2022-11-07,2022-11-07,株式会社ルミライズ,,株式会社,東京都,新宿区,新宿５丁目１８番２０号８０３,,13,104,1600022,,,,,,,2022-11-07,1,,,,,ルミライズ,0
781,3011401024658,新規,0,2022-11-07,2022-11-07,株式会社開世洋吉,,株式会社,東京都,板橋区,高島平３丁目１１番１－１１１４号,,13,119,1750082,,,,,,,2022-11-07,1,,,,,カイセイヨウキチ,0
784,3011505002510,新規,0,2022-11-07,2022-11-07,特定非営利活動法人ＤＶ被害者を法的に救う会,,その他の設立登記法人,東京都,荒川区,荒川５丁目１１番１５号２０５号室,,13,118,1160002,,,,,,,2022-11-07,1,,,,,ディブイヒガイシャヲホウテキニスクウカイ,0
785,3011703003293,新規,0,2022-11-07,2022-11-07,合同会社ピュア,,合同会社,東京都,江戸川区,篠崎町４丁目１２－１１パインハイツ２０５号,,13,123,1330061,,,,,,,2022-11-07,1,,,,,ピュア,0
788,3011803005355,新規,0,2022-11-07,2022-11-07,合同会社誠磨,,合同会社,東京都,足立区,竹の塚１丁目１７番１７号,,13,121,1210813,,,,,,,2022-11-07,1,,,,,セイマ,0
790,3012401039828,新規,0,2022-11-07,2022-11-07,株式会社駆除マーブル,,株式会社,東京都,三鷹市,新川６丁目１６番６号,,13,204,1810004,,,,,,,2022-11-07,1,,,,,クジョマーブル,0
793,3012403005654,新規,0,2022-11-07,2022-11-07,合同会社いろは,,合同会社,東京都,三鷹市,北野１丁目７番４号ＢＬＡＴＴＨＵＳ１０１,,13,204,1810003,,,,,,,2022-11-07,1,,,,,イロハ,0
795,3012701017327,新規,0,2022-11-07,2022-11-07,株式会社ハレルヤデザイン,,株式会社,東京都,小平市,上水南町２丁目１番４－１号,,13,211,1870021,,,,,,,2022-11-07,1,,,,,ハレルヤデザイン,0
800,3013301049891,新規,0,2022-11-07,2022-11-07,株式会社フラップ,,株式会社,東京都,豊島区,千早４丁目２７番１１号,,13,116,1710044,,,,,,,2022-11-07,1,,,,,フラップ,0
811,3020001148791,新規,0,2022-11-07,2022-11-07,株式会社ソフィアアカデミー,,株式会社,神奈川県,横浜市保土ケ谷区,峰岡町１丁目３番８号ｂ’ＣＡＳＡ横浜星川１Ｆ,,14,106,2400064,,,,,,,2022-11-07,1,,,,,ソフィアアカデミー,0
812,3020001148800,新規,0,2022-11-07,2022-11-07,株式会社ＳＨＡＭＲＯＣＫ　ＳＥＥＤ,,株式会社,神奈川県,横浜市西区,みなとみらい４丁目９番１－Ｂ３００３号,,14,103,2200012,,,,,,,2022-11-07,1,,,,,シャムロックシード,0
813,3020001148809,新規,0,2022-11-07,2022-11-07,株式会社Ｋワークス,,株式会社,神奈川県,川崎市中原区,下小田中１丁目２５番２５号プリーマハイツ１０５,,14,133,2110041,,,,,,,2022-11-07,1,,,,,ケイワークス,0
814,3020001148833,新規,0,2022-11-07,2022-11-07,株式会社ＴＭＫ,,株式会社,神奈川県,川崎市川崎区,四谷上町１２－３,,14,131,2100828,,,,,,,2022-11-07,1,,,,,ティーエムケイ,0
815,3020001148841,新規,0,2022-11-07,2022-11-07,株式会社ＲｅＳｏｌ,,株式会社,神奈川県,横浜市港北区,大曽根３丁目２２番２号,,14,109,2220003,,,,,,,2022-11-07,1,,,,,リソル,0
816,3020001148866,新規,0,2022-11-07,2022-11-07,株式会社アセンダル,,株式会社,神奈川県,川崎市幸区,二丁目５９３番,,14,132,2120000,,,,,,,2022-11-07,1,,,,,アセンダル,0
819,3020003022672,新規,0,2022-11-07,2022-11-07,ミレニアム合同会社,,合同会社,神奈川県,横浜市中区,新山下１丁目１４番１－７０７号,,14,104,2310801,,,,,,,2022-11-07,1,,,,,ミレニアム,0
820,3020003022680,新規,0,2022-11-07,2022-11-07,ＮＡＫＡＮＯ‐ＪＩＭ合同会社,,合同会社,神奈川県,横浜市港南区,最戸２丁目１２番２０－７１３号,,14,111,2330008,,,,,,,2022-11-07,1,,,,,ナカノジム,0
821,3020003022689,新規,0,2022-11-07,2022-11-07,合同会社多科,,合同会社,神奈川県,横浜市鶴見区,尻手１丁目１番１６－１２２６号,,14,101,2300003,,,,,,,2022-11-07,1,,,,,タシナ,0
822,3020003022697,新規,0,2022-11-07,2022-11-07,アサヒ・ユニバース合同会社,,合同会社,神奈川県,横浜市西区,北幸２丁目１０番２８号むつみビル３Ｆ,,14,103,2200004,,,,,,,2022-11-07,1,,,,,アサヒユニバース,0
824,3021001077353,新規,0,2022-11-07,2022-11-07,株式会社いい部屋デポ,,株式会社,神奈川県,横須賀市,長沢１丁目２７番３５号,,14,201,2390842,,,,,,,2022-11-07,1,,,,,イイヘヤデポ,0
825,3021001077386,新規,0,2022-11-07,2022-11-07,株式会社Ｄｒｅａｍ　ｍａｋｅｒ,,株式会社,神奈川県,平塚市,入野２４番地の６,,14,203,2591216,,,,,,,2022-11-07,1,,,,,ドリームメーカー,0
828,3021003012325,新規,0,2022-11-07,2022-11-07,合同会社ｉｎｓｉｅｍｅ,,合同会社,神奈川県,大和市,大和東３丁目１４番１２号,,14,213,2420017,,,,,,,2022-11-07,1,,,,,インシエメ,0
842,3030001150846,新規,0,2022-11-07,2022-11-07,株式会社Ｓａｆｅｔｙ　Ｏｗｌ,,株式会社,埼玉県,久喜市,栗橋１４８０番地,,11,232,3491104,,,,,,,2022-11-07,1,,,,,セイフティオウル,0
843,3030001150854,新規,0,2022-11-07,2022-11-07,株式会社ＳＴＥＰ　ＢＹ　ＳＴＥＰ,,株式会社,埼玉県,さいたま市見沼区,東大宮５丁目３３番地１５,,11,104,3370051,,,,,,,2022-11-07,1,,,,,ステップバイステップ,0
844,3030001150870,新規,0,2022-11-07,2022-11-07,株式会社ＡＩＳ,,株式会社,埼玉県,川越市,中台２丁目５番地５２,,11,201,3501159,,,,,,,2022-11-07,1,,,,,エイアイエス,0
845,3030001150879,新規,0,2022-11-07,2022-11-07,株式会社ＺＥＮコーポレート,,株式会社,埼玉県,川口市,本町４丁目５番２６号,,11,203,3320012,,,,,,,2022-11-07,1,,,,,ゼンコーポレート,0
846,3030001150895,新規,0,2022-11-07,2022-11-07,株式会社アールアンドジースタジオ,,株式会社,埼玉県,さいたま市大宮区,桜木町２丁目３番地大宮マルイ７階,,11,103,3300854,,,,,,,2022-11-07,1,,,,,アールアンドジースタジオ,0
847,3030001150904,新規,0,2022-11-07,2022-11-07,株式会社ＳＳＢ,,株式会社,埼玉県,さいたま市見沼区,大字南中丸９００番地５,,11,104,3370041,,,,,,,2022-11-07,1,,,,,エスエスビー,0
848,3030001150912,新規,0,2022-11-07,2022-11-07,株式会社Ｙ．Ｔ．Ａソリューションズ,,株式会社,埼玉県,さいたま市西区,プラザ３番５号,,11,101,3310063,,,,,,,2022-11-07,1,,,,,ワイティエイソリューションズ,0
849,3030001150929,新規,0,2022-11-07,2022-11-07,株式会社パシフィックレオ,,株式会社,埼玉県,さいたま市緑区,美園５丁目７番地１６,,11,109,3360967,,,,,,,2022-11-07,1,,,,,パシフィックレオ,0
854,3030003020477,新規,0,2022-11-07,2022-11-07,朝日合同会社,,合同会社,埼玉県,蕨市,北町１丁目１８番１５号Ｆ棟,,11,223,3350001,,,,,,,2022-11-07,1,,,,,アサヒ,0
855,3030003020519,新規,0,2022-11-07,2022-11-07,合同会社ＯＦ　ＬＩＦＥ,,合同会社,埼玉県,川口市,元郷２丁目１５番２号エルザタワー３２,,11,203,3320011,,,,,,,2022-11-07,1,,,,,オブライフ,0
858,3040001125673,新規,0,2022-11-07,2022-11-07,株式会社ＺＥＲＯ,,株式会社,千葉県,東金市,堀上２１番地１パシフィックコーストＩ－２０１,,12,213,2830063,,,,,,,2022-11-07,1,,,,,ゼロ,0
859,3040001125681,新規,0,2022-11-07,2022-11-07,Ｄｅｓｉｇｎ　Ｇｒｉｄ株式会社,,株式会社,千葉県,習志野市,谷津６丁目７番１－３０７号,,12,216,2750026,,,,,,,2022-11-07,1,,,,,デザイングリッド,0
863,3050001051910,新規,0,2022-11-07,2022-11-07,株式会社オブテイン,,株式会社,茨城県,鹿嶋市,大字浜津賀７９８番地６,,08,222,3112203,,,,,,,2022-11-07,1,,,,,オブテイン,0
864,3050003006986,新規,0,2022-11-07,2022-11-07,合同会社Ｒｉｂｌｅ,,合同会社,茨城県,石岡市,石岡１３４４６番地２,,08,205,3150001,,,,,,,2022-11-07,1,,,,,リブレ,0
871,3080001025283,新規,0,2022-11-07,2022-11-07,Ａｏｉ　Ｇｉｎ　Ｃｒａｆｔ　Ｔｅｃｈｎｏｌｏｇｙ株式会社,,株式会社,静岡県,静岡市駿河区,大谷８３６静岡大学農学部農学総合棟４０４プロジェクト実験室,,22,102,4228017,,,,,,,2022-11-07,1,,,,,アオイジンクラフトテクノロジー,0
873,3080101023617,新規,0,2022-11-07,2022-11-07,株式会社Ｂｏｕｎｃｙ,,株式会社,静岡県,熱海市,桃山町２３－２５,,22,205,4130006,,,,,,,2022-11-07,1,,,,,バウンシー,0
874,3090001017841,新規,0,2022-11-07,2022-11-07,株式会社吉字屋ライスフーズ,,株式会社,山梨県,甲府市,南口町３番８号,,19,201,4000863,,,,,,,2022-11-07,1,,,,,キチジヤライスフーズ,0
877,3100001035825,新規,0,2022-11-07,2022-11-07,株式会社ＪＡＺＺＹ　ＤＯＧ,,株式会社,長野県,小県郡長和町,和田字和田山５１０１番地７０,,20,350,3860701,,,,,,,2022-11-07,1,,,,,ジャジードッグ,0
878,3100001035841,新規,0,2022-11-07,2022-11-07,株式会社エスピカ,,株式会社,長野県,上田市,五加１０５７番地５,,20,203,3861324,,,,,,,2022-11-07,1,,,,,エスピカ,0
879,3100001035858,新規,0,2022-11-07,2022-11-07,Ｃａｎｏｐａｓｓ株式会社,,株式会社,長野県,伊那市,荒井８０３０番地１,,20,209,3960025,,,,,,,2022-11-07,1,,,,,カノーパス,0
881,3100003006758,新規,0,2022-11-07,2022-11-07,Ｍｉｓｏｒａｎｏ　Ｍａｎａｇｅｍｅｎｔ合同会社,,合同会社,長野県,北安曇郡白馬村,大字北城４６７９－１,,20,485,3999301,,,,,,,2022-11-07,1,,,,,ミソラノマネジメント,0
883,3110001037077,新規,0,2022-11-07,2022-11-07,株式会社樋山化学,,株式会社,新潟県,燕市,東太田１３９１番地,,15,213,9591289,,,,,,,2022-11-07,1,,,,,ヒヤマカガク,0
884,3110001037102,新規,0,2022-11-07,2022-11-07,株式会社駿,,株式会社,新潟県,阿賀野市,岡山町１３番２８号,,15,223,9592025,,,,,,,2022-11-07,1,,,,,シュン,0
900,3120001249992,新規,0,2022-11-07,2022-11-07,株式会社Ｇ．Ｉ,,株式会社,大阪府,枚方市,高田２丁目２８番７号,,27,210,5730073,,,,,,,2022-11-07,1,,,,,ジーアイ,0
901,3120001250034,新規,0,2022-11-07,2022-11-07,株式会社藤田防水工業,,株式会社,大阪府,大阪市鶴見区,横堤３丁目２番１７号,,27,124,5380052,,,,,,,2022-11-07,1,,,,,フジタボウスイコウギョウ,0
902,3120001250067,新規,0,2022-11-07,2022-11-07,山中酒の店株式会社,,株式会社,大阪府,大阪市浪速区,敷津西１丁目６番１６号,,27,111,5560015,,,,,,,2022-11-07,1,,,,,ヤマナカサケノミセ,0
903,3120001250075,新規,0,2022-11-07,2022-11-07,株式会社フィーリアル,,株式会社,大阪府,大阪市淀川区,西中島６丁目９番２０号新大阪ＧＨビル,,27,123,5320011,,,,,,,2022-11-07,1,,,,,フィーリアル,0
904,3120001250109,新規,0,2022-11-07,2022-11-07,株式会社Ｄ‐ｆｌｉｐ,,株式会社,大阪府,大阪市西区,南堀江２丁目３番２４号,,27,106,5500015,,,,,,,2022-11-07,1,,,,,,0
913,3120005023270,新規,0,2022-11-07,2022-11-07,一般社団法人関西労務経営管理協会,,その他の設立登記法人,大阪府,大阪市此花区,西九条２丁目５番１８号山本ビル,,27,104,5540012,,,,,,,2022-11-07,1,,,,,カンサイロウムケイエイカンリキョウカイ,0
914,3120005023279,新規,0,2022-11-07,2022-11-07,一般社団法人資源循環型農業推進協会,,その他の設立登記法人,大阪府,大阪市生野区,田島６丁目１４番１９号,,27,116,5440011,,,,,,,2022-11-07,1,,,,,シゲンジュンカンガタノウギョウスイシンキョウカイ,0
917,3120101066462,新規,0,2022-11-07,2022-11-07,株式会社Ｆｌｏｒｅｏ,,株式会社,大阪府,阪南市,箱の浦１番地の６７,,27,232,5990235,,,,,,,2022-11-07,1,,,,,フロレオ,0
919,3120901046688,新規,0,2022-11-07,2022-11-07,アートゴンドラテクノ株式会社,,株式会社,大阪府,豊中市,原田南１丁目１２番１２号,,27,203,5610805,,,,,,,2022-11-07,1,,,,,アートゴンドラテクノ,0
920,3120901046696,新規,0,2022-11-07,2022-11-07,株式会社トイボ,,株式会社,大阪府,茨木市,若園町８番４号,,27,211,5670894,,,,,,,2022-11-07,1,,,,,トイボ,0
926,3130001072980,新規,0,2022-11-07,2022-11-07,株式会社Ｃｒｏｓｓ　Ｌｉｎｋ,,株式会社,京都府,京都市上京区,一条通御前通西入三丁目西町１－３,,26,102,6020000,,,,,,,2022-11-07,1,,,,,クロスリンク,0
938,3140001127899,新規,0,2022-11-07,2022-11-07,株式会社ＳＳＪ,,株式会社,兵庫県,姫路市,安田４丁目５３番地２１湯浅ビル３０２,,28,201,6700955,,,,,,,2022-11-07,1,,,,,エスエスジェー,0
939,3140001127908,新規,0,2022-11-07,2022-11-07,株式会社リンクスタイル,,株式会社,兵庫県,尼崎市,立花町１丁目２番１号３０２号室,,28,202,6610025,,,,,,,2022-11-07,1,,,,,リンクスタイル,0
940,3140001127916,新規,0,2022-11-07,2022-11-07,株式会社オートハウスサトウ,,株式会社,兵庫県,尼崎市,東塚口町２丁目４番５５号,,28,202,6610011,,,,,,,2022-11-07,1,,,,,オートハウスサトウ,0
941,3140001127924,新規,0,2022-11-07,2022-11-07,大工後藤株式会社,,株式会社,兵庫県,姫路市,八代７７９番地１８,,28,201,6700872,,,,,,,2022-11-07,1,,,,,ダイクゴトウ,0
942,3140001127965,新規,0,2022-11-07,2022-11-07,株式会社ＨＯＺＵＭＩ,,株式会社,兵庫県,川西市,大和東２丁目３番地の１２,,28,217,6660111,,,,,,,2022-11-07,1,,,,,ホズミ,0
946,3160001024599,新規,0,2022-11-07,2022-11-07,喜電気株式会社,,株式会社,滋賀県,高島市,安曇川町下小川２２３２番地７５,,25,212,5201223,,,,,,,2022-11-07,1,,,,,ヨロコビデンキ,0
947,3160001024608,新規,0,2022-11-07,2022-11-07,入江農産株式会社,,株式会社,滋賀県,米原市,磯２０１７番地,,25,214,5210004,,,,,,,2022-11-07,1,,,,,イリエノウサン,0
948,3160003002719,新規,0,2022-11-07,2022-11-07,波兎物産合同会社,,合同会社,滋賀県,長浜市,十里町１９８番地５,,25,203,5260016,,,,,,,2022-11-07,1,,,,,ナミウブッサン,0
953,3180001153636,新規,0,2022-11-07,2022-11-07,株式会社オービーエー,,株式会社,愛知県,名古屋市昭和区,山手通１丁目８番地,,23,107,4660815,,,,,,,2022-11-07,1,,,,,オービーエー,0
954,3180001153644,新規,0,2022-11-07,2022-11-07,株式会社ＪＵＳＨＯ,,株式会社,愛知県,名古屋市緑区,鳴海町字細根８７番地,,23,114,4580827,,,,,,,2022-11-07,1,,,,,ジュショー,0
955,3180001153660,新規,0,2022-11-07,2022-11-07,株式会社ＬｉｖＥＱｕａｌｉｔｙ大家さん,,株式会社,愛知県,名古屋市熱田区,千年１丁目１１番３号,,23,109,4560054,,,,,,,2022-11-07,1,,,,,リブクオリティオオヤサン,0
956,3180001153669,新規,0,2022-11-07,2022-11-07,株式会社Ｃｏｔｔｏｎ　Ｔｒｅｅ,,株式会社,愛知県,瀬戸市,菱野台１丁目３番３０５号,,23,204,4890887,,,,,,,2022-11-07,1,,,,,コットンツリー,0
957,3180001153677,新規,0,2022-11-07,2022-11-07,株式会社ＴＨＥ　ＢＲＩＯ　ＦＩＬＭ,,株式会社,愛知県,名古屋市中川区,露橋１丁目２７番９号－２,,23,110,4540022,,,,,,,2022-11-07,1,,,,,ザブリオフィルム,0
958,3180001153685,新規,0,2022-11-07,2022-11-07,株式会社ＤＯＳＡＮ産業,,株式会社,愛知県,愛西市,立石町上１１５番地ＤＵＰＬＥＸ国王１７Ａ１０６,,23,232,4968047,,,,,,,2022-11-07,1,,,,,ドウサンサンギョウ,0
959,3180001153693,新規,0,2022-11-07,2022-11-07,株式会社サンクス,,株式会社,愛知県,名古屋市中区,大須４丁目１４番２６号,,23,106,4600011,,,,,,,2022-11-07,1,,,,,サンクス,0
960,3180001153702,新規,0,2022-11-07,2022-11-07,株式会社Ｎ　ｆｉｅｌｄ,,株式会社,愛知県,東海市,荒尾町寿鎌７０番地,,23,222,4760003,,,,,,,2022-11-07,1,,,,,エヌフィールド,0
961,3180001153710,新規,0,2022-11-07,2022-11-07,株式会社フェリス,,株式会社,愛知県,小牧市,弥生町５５,,23,219,4850071,,,,,,,2022-11-07,1,,,,,フェリス,0
962,3180001153719,新規,0,2022-11-07,2022-11-07,株式会社ＹＭＤ,,株式会社,愛知県,津島市,南本町７丁目２０番地１,,23,208,4960834,,,,,,,2022-11-07,1,,,,,ワイエムディー,0
963,3180001153727,新規,0,2022-11-07,2022-11-07,株式会社フリード,,株式会社,愛知県,岩倉市,八剱町郷東１９番地１,,23,228,4820031,,,,,,,2022-11-07,1,,,,,フリード,0
964,3180001153751,新規,0,2022-11-07,2022-11-07,株式会社塗り屋．ｃｏｍ,,株式会社,愛知県,一宮市,大和町氏永字北海道８１３番地７,,23,203,4910923,,,,,,,2022-11-07,1,,,,,ヌリヤドットコム,0
968,3180003024430,新規,0,2022-11-07,2022-11-07,合同会社カコサポートオフィス,,合同会社,愛知県,豊明市,西川町笹原１９番地１７,,23,229,4701123,,,,,,,2022-11-07,1,,,,,カコサポートオフィス,0
969,3180003024439,新規,0,2022-11-07,2022-11-07,合同会社ウィズプロモーション,,合同会社,愛知県,名古屋市中区,大須２丁目２７番３４号,,23,106,4600011,,,,,,,2022-11-07,1,,,,,ウィズプロモーション,0
978,3180301036771,新規,0,2022-11-07,2022-11-07,株式会社カワイユウイチ写真事務所,,株式会社,愛知県,豊田市,山之手２丁目１１番地１,,23,211,4710833,,,,,,,2022-11-07,1,,,,,カワイユウイチシャシンジムショ,0
979,3180301036796,新規,0,2022-11-07,2022-11-07,ルナシャルメ株式会社,,株式会社,愛知県,岡崎市,岩津町字檀ノ上８３番地,,23,202,4442144,,,,,,,2022-11-07,1,,,,,ルナシャルメ,0
981,3180303005502,新規,0,2022-11-07,2022-11-07,加藤建設合同会社,,合同会社,愛知県,新城市,富岡字洗出シ２５番地６,,23,221,4411335,,,,,,,2022-11-07,1,,,,,カトウケンセツ,0
982,3190001029876,新規,0,2022-11-07,2022-11-07,株式会社西建設,,株式会社,三重県,熊野市,有馬町５１２３番地,,24,212,5194325,,,,,,,2022-11-07,1,,,,,ニシケンセツ,0
983,3190001029892,新規,0,2022-11-07,2022-11-07,株式会社森下電設,,株式会社,三重県,四日市市,下さざらい町１３番１０号,,24,202,5108033,,,,,,,2022-11-07,1,,,,,モリシタデンセツ,0
984,3190001029901,新規,0,2022-11-07,2022-11-07,イナフ株式会社,,株式会社,三重県,鈴鹿市,東旭が丘７丁目１番地の２８,,24,207,5100211,,,,,,,2022-11-07,1,,,,,イナフ,0
985,3190005011756,新規,0,2022-11-07,2022-11-07,医療法人智仁会,,その他の設立登記法人,三重県,津市,新町３丁目６－２２,,24,201,5140042,,,,,,,2022-11-07,1,,,,,チジンカイ,0
989,3200001040633,新規,0,2022-11-07,2022-11-07,株式会社ＹＡＭＡＴＯ,,株式会社,岐阜県,多治見市,弁天町２丁目２９－１,,21,204,5070028,,,,,,,2022-11-07,1,,,,,ヤマト,0
997,3240003005878,新規,0,2022-11-07,2022-11-07,合同会社ふくちゃん弁当,,合同会社,広島県,三原市,大和町福田８４５番地,,34,204,7291404,,,,,,,2022-11-07,1,,,,,フクチャンベントウ,0
998,3240003005886,新規,0,2022-11-07,2022-11-07,合同会社ＮＦ‐ＴＨＲＥＥ,,合同会社,広島県,広島市佐伯区,観音台２丁目８番１７号,,34,108,7315157,,,,,,,2022-11-07,1,,,,,エヌエフスリー,0
999,3250001019838,新規,0,2022-11-07,2022-11-07,株式会社ＬＩＦＩＸ,,株式会社,山口県,山口市,小郡給領町１番７号Ａ２０５,,35,203,7540028,,,,,,,2022-11-07,1,,,,,リフィックス,0
1002,3270001008657,新規,0,2022-11-07,2022-11-07,株式会社Ｎｅｘｔ　Ｉｎｎｏｖａｔｉｏｎ,,株式会社,鳥取県,米子市,上福原７丁目５番４１号１０６号,,31,202,6830004,,,,,,,2022-11-07,1,,,,,ネクストイノベーション,0
1004,3290001099406,新規,0,2022-11-07,2022-11-07,ＧＭホールディングス株式会社,,株式会社,福岡県,福岡市東区,舞松原２丁目１０番７号,,40,131,8130042,,,,,,,2022-11-07,1,,,,,ジーエムホールディングス,0
1005,3290001099430,新規,0,2022-11-07,2022-11-07,株式会社ｍａｒｕ‐ｓｕｒｕ,,株式会社,福岡県,福岡市中央区,天神４丁目６番２８号天神ファーストビル７階,,40,133,8100001,,,,,,,2022-11-07,1,,,,,マルスル,0
1006,3290001099439,新規,0,2022-11-07,2022-11-07,株式会社ゴールドＧ,,株式会社,福岡県,大野城市,下大利２丁目３番６号,,40,219,8160952,,,,,,,2022-11-07,1,,,,,ゴールドジー,0
1007,3290001099447,新規,0,2022-11-07,2022-11-07,シンシンユウ株式会社,,株式会社,福岡県,福岡市中央区,桜坂１丁目２番５－２０１号,,40,133,8100024,,,,,,,2022-11-07,1,,,,,シンシンユウ,0
1008,3290001099496,新規,0,2022-11-07,2022-11-07,株式会社ＴＡＣ,,株式会社,福岡県,糟屋郡志免町,志免中央４丁目１１番１７号,,40,343,8112244,,,,,,,2022-11-07,1,,,,,ティーエーシー,0
1009,3290001099505,新規,0,2022-11-07,2022-11-07,株式会社ＴＲＡＤ＆ＲＩＤＥ,,株式会社,福岡県,福岡市博多区,住吉５丁目１０－７,,40,132,8120018,,,,,,,2022-11-07,1,,,,,トラッドアンドライド,0
1015,3290801029033,新規,0,2022-11-07,2022-11-07,上野石油株式会社,,株式会社,福岡県,中間市,長津２丁目１８番１０号,,40,215,8090036,,,,,,,2022-11-07,1,,,,,ウエノセキユ,0
1016,3300001013117,新規,0,2022-11-07,2022-11-07,株式会社ＯＨＴＯＲＩ,,株式会社,佐賀県,佐賀市,金立町大字金立２２４２番地２,,41,201,8490906,,,,,,,2022-11-07,1,,,,,オオトリ,0
1024,3330003009572,新規,0,2022-11-07,2022-11-07,合同会社リエゾン嘉島,,合同会社,熊本県,熊本市中央区,水前寺２丁目１６番２０号,,43,101,8620950,,,,,,,2022-11-07,1,,,,,リエゾンカシマ,0
1025,3340001025141,新規,0,2022-11-07,2022-11-07,クリー株式会社,,株式会社,鹿児島県,薩摩郡さつま町,宮之城屋地４４４番地１,,46,392,8951803,,,,,,,2022-11-07,1,,,,,クリー,0
1027,3350001018020,新規,0,2022-11-07,2022-11-07,株式会社壱栄,,株式会社,宮崎県,延岡市,春日町２丁目４番地１０,,45,203,8820844,,,,,,,2022-11-07,1,,,,,イチエイ,0
1028,3350001018029,新規,0,2022-11-07,2022-11-07,株式会社マルイチ商事,,株式会社,宮崎県,都城市,都島町１３６９番地８,,45,202,8850083,,,,,,,2022-11-07,1,,,,,マルイチショウジ,0
1029,3350003004217,新規,0,2022-11-07,2022-11-07,合同会社Ｓｔｅｌｌａｒ,,合同会社,宮崎県,宮崎市,神宮東３丁目６番１６号,,45,201,8800056,,,,,,,2022-11-07,1,,,,,ステラ,0
1033,3360003012417,新規,0,2022-11-07,2022-11-07,合同会社サンサン,,合同会社,沖縄県,那覇市,真嘉比１丁目２３番１８号２階,,47,201,9020068,,,,,,,2022-11-07,1,,,,,サンサン,0
1035,3370003005881,新規,0,2022-11-07,2022-11-07,合同会社ｔｗｏ　ｂｅａｒｓ,,合同会社,宮城県,仙台市青葉区,一番町１丁目１１番１６－７０２号,,04,101,9800811,,,,,,,2022-11-07,1,,,,,トゥーベアーズ,0
1046,3420001018062,新規,0,2022-11-07,2022-11-07,株式会社オーエルシー,,株式会社,青森県,青森市,安方２丁目１２番１１号,,02,201,0300803,,,,,,,2022-11-07,1,,,,,オーエルシー,0
1056,3440001009183,新規,0,2022-11-07,2022-11-07,スマイルズ株式会社,,株式会社,北海道,函館市,若松町２０番１－１３０５号,,01,202,0400063,,,,,,,2022-11-07,1,,,,,スマイルズ,0
1068,3490001010327,新規,0,2022-11-07,2022-11-07,株式会社池田電工,,株式会社,高知県,香南市,野市町東佐古１４９９番地２,,39,211,7815224,,,,,,,2022-11-07,1,,,,,イケダデンコウ,0
1070,3500001024580,新規,0,2022-11-07,2022-11-07,株式会社井関南吉田製作所,,株式会社,愛媛県,松山市,南吉田町２１１２番地,,38,201,7918042,,,,,,,2022-11-07,1,,,,,イセキミナミヨシダセイサクショ,0
1071,3500005008530,新規,0,2022-11-07,2022-11-07,一般社団法人ＷＯＮＤＥＲ　ＥＤＵＣＡＴＩＯＮ,,その他の設立登記法人,愛媛県,松山市,山越１丁目１５番３３号,,38,201,7918013,,,,,,,2022-11-07,1,,,,,ワンダーエデュケーション,0
1072,3700150112604,新規,0,2022-11-07,2022-11-07,ＪＪＪ　ＧＬＯＢＡＬ　ＩＮＶＥＳＴＭＥＮＴ　ＣＯＲＰ．,,外国会社等,北海道,虻田郡倶知安町,字山田１８１－５５－１３１　．１３２,,01,400,0440081,ＣＣＳ　Ｔｒｕｓｔｅｅｓ　Ｌｉｍｉｔｅｄ，Ｍａｎｄａｒ　Ｈｏｕｓｅ，３ｒｄ　Ｆｌｏｏｒ，Ｊｏｈｎｓｏｎ’ｓ　Ｇｈｕｔ，Ｔｏｒｔｏｌａ，Ｂｒｉｔｉｓｈ　Ｖｉｒｇｉｎ　Ｉｓｌａｎｄｓ,,,,,,2022-11-07,1,,,,,ジエイジエイジエイグローバルインベストメントコーポレーシヨンリミテツド,0
1078,4010003038990,新規,0,2022-11-07,2022-11-07,シーエヌシーアセット合同会社,,合同会社,東京都,中央区,銀座２丁目７番７号,,13,102,1040061,,,,,,,2022-11-07,1,,,,,シーエヌシーアセット,0
1079,4010101015396,新規,0,2022-11-07,2022-11-07,株式会社セリウス,,株式会社,東京都,八王子市,四谷町６１７番地１２,,13,201,1930813,,,,,,,2022-11-07,1,,,,,セリウス,0
1080,4010103002021,新規,0,2022-11-07,2022-11-07,Ｄｏｐｅ合同会社,,合同会社,東京都,八王子市,台町４丁目４１－６エフフォレスト１０３,,13,201,1930931,,,,,,,2022-11-07,1,,,,,ドープ,0
1089,4010401170585,新規,0,2022-11-07,2022-11-07,株式会社フィールドプランニング,,株式会社,東京都,港区,白金台３丁目７番２９号,,13,103,1080071,,,,,,,2022-11-07,1,,,,,フィールドプランニング,0
1090,4010401170619,新規,0,2022-11-07,2022-11-07,グリップス株式会社,,株式会社,東京都,港区,虎ノ門５丁目１１番１号オランダヒルズ森タワーＲｏＰ,,13,103,1050001,,,,,,,2022-11-07,1,,,,,グリップス,0
1091,4010401170668,新規,0,2022-11-07,2022-11-07,株式会社ＢＬＯＯＭＡＴＥ,,株式会社,東京都,港区,南青山３丁目１番３６号青山丸竹ビル６Ｆ,,13,103,1070062,,,,,,,2022-11-07,1,,,,,ブルーメイト,0
1092,4010401170676,新規,0,2022-11-07,2022-11-07,株式会社Ｅｄｉｔｅｃｈ,,株式会社,東京都,港区,芝１丁目９番２－４０２号,,13,103,1050014,,,,,,,2022-11-07,1,,,,,エディテック,0
1093,4010401170701,新規,0,2022-11-07,2022-11-07,株式会社Ｃ‐Ｃｒｅａｔｉｏｎ,,株式会社,東京都,港区,高輪２丁目１６－３９,,13,103,1080074,,,,,,,2022-11-07,1,,,,,シークリエイション,0
1095,4010403028823,新規,0,2022-11-07,2022-11-07,グルメ企画合同会社,,合同会社,東京都,港区,虎ノ門１丁目１５番１０号,,13,103,1050001,,,,,,,2022-11-07,1,,,,,グルメキカク,0
1096,4010403028831,新規,0,2022-11-07,2022-11-07,ＲＢソーラーアテネ合同会社,,合同会社,東京都,港区,虎ノ門３丁目２２番１０－２０１号,,13,103,1050001,,,,,,,2022-11-07,1,,,,,アールビーソーラーアテネ,0
1097,4010403028848,新規,0,2022-11-07,2022-11-07,合同会社カカクキカク,,合同会社,東京都,港区,浜松町２丁目２番１５号浜松町ダイヤビル２Ｆ,,13,103,1050013,,,,,,,2022-11-07,1,,,,,カカクキカク,0
1099,4010405021553,新規,0,2022-11-07,2022-11-07,ＲＢソーラーガイアホールディングス一般社団法人,,その他の設立登記法人,東京都,港区,虎ノ門３丁目２２番１０－２０１号,,13,103,1050001,,,,,,,2022-11-07,1,,,,,アールビーソーラーガイアホールディングス,0
1105,4010601062095,新規,0,2022-11-07,2022-11-07,株式会社Ｐｅｎｔｅ,,株式会社,東京都,江東区,平野２丁目１６番２０号,,13,108,1350023,,,,,,,2022-11-07,1,,,,,ペンテ,0
1106,4010601062104,新規,0,2022-11-07,2022-11-07,株式会社ｍａｍａｍａｉｓｏｎ＆Ｃｏ．,,株式会社,東京都,江東区,豊洲３丁目５番３号豊洲レジデンスＤ３４０,,13,108,1350061,,,,,,,2022-11-07,1,,,,,ママメゾンアンドカンパニー,0
1108,4010603009821,新規,0,2022-11-07,2022-11-07,大地合同会社,,合同会社,東京都,墨田区,向島２丁目１４番９号６０１室,,13,107,1310033,,,,,,,2022-11-07,1,,,,,ダイチ,0
1118,4011001150688,新規,0,2022-11-07,2022-11-07,株式会社アイオライトパートナーズ,,株式会社,東京都,渋谷区,恵比寿西２丁目７番３号,,13,113,1500021,,,,,,,2022-11-07,1,,,,,アイオライトパートナーズ,0
1119,4011001150696,新規,0,2022-11-07,2022-11-07,株式会社坂正,,株式会社,東京都,目黒区,祐天寺２丁目８番３号山口ビル２０２,,13,110,1530052,,,,,,,2022-11-07,1,,,,,サカショウ,0
1120,4011001150721,新規,0,2022-11-07,2022-11-07,ｏｓｓ株式会社,,株式会社,東京都,渋谷区,恵比寿１丁目１０番６号,,13,113,1500013,,,,,,,2022-11-07,1,,,,,オーエスエス,0
1121,4011001150738,新規,0,2022-11-07,2022-11-07,株式会社善菜,,株式会社,東京都,渋谷区,恵比寿１丁目２３番１６号,,13,113,1500013,,,,,,,2022-11-07,1,,,,,ゼンナ,0
1122,4011001150762,新規,0,2022-11-07,2022-11-07,株式会社ＨＭＭＪ,,株式会社,東京都,渋谷区,恵比寿３丁目１１番７号,,13,113,1500013,,,,,,,2022-11-07,1,,,,,エイチエムエムジェイ,0
1123,4011001150770,新規,0,2022-11-07,2022-11-07,株式会社Ｔ２,,株式会社,東京都,目黒区,中目黒３丁目６番２号中目黒Ｆ・Ｓビル５Ｆ,,13,110,1530061,,,,,,,2022-11-07,1,,,,,ティーツー,0
1124,4011005009798,新規,0,2022-11-07,2022-11-07,一般社団法人図書館関係記録保存機構,,その他の設立登記法人,東京都,渋谷区,代々木２丁目２３番１－８６５号,,13,113,1510053,,,,,,,2022-11-07,1,,,,,トショカンキロクホゾンキコウ,0
1132,4011103012357,新規,0,2022-11-07,2022-11-07,ＮＥＸＴ‐ＧＡＴＥ合同会社,,合同会社,東京都,新宿区,歌舞伎町２丁目２５－８,,13,104,1600021,,,,,,,2022-11-07,1,,,,,ネクストゲート,0
1134,4011201024213,新規,0,2022-11-07,2022-11-07,株式会社スリーワン,,株式会社,東京都,中野区,東中野２丁目２４番１３－８０１号,,13,114,1640003,,,,,,,2022-11-07,1,,,,,スリーワン,0
1135,4011401024649,新規,0,2022-11-07,2022-11-07,株式会社ＭＡクリエイツ,,株式会社,東京都,板橋区,赤塚５丁目９番１号,,13,119,1750092,,,,,,,2022-11-07,1,,,,,エムエークリエイツ,0
1136,4011503005349,新規,0,2022-11-07,2022-11-07,合同会社ナカノ,,合同会社,東京都,北区,西ケ原４丁目６１番１２－２０１号,,13,117,1140024,,,,,,,2022-11-07,1,,,,,ナカノ,0
1141,4011801041500,新規,0,2022-11-07,2022-11-07,株式会社ＣＯＬＯＲＬＥＳＳ,,株式会社,東京都,足立区,大谷田５丁目２８番６号,,13,121,1200001,,,,,,,2022-11-07,1,,,,,カラーレス,0
1145,4011803005354,新規,0,2022-11-07,2022-11-07,合同会社ＣＡＬＭＥＳ,,合同会社,東京都,足立区,西保木間３丁目２２－２２－１００５,,13,121,1210812,,,,,,,2022-11-07,1,,,,,カルメス,0
1148,4012703002565,新規,0,2022-11-07,2022-11-07,合同会社ＫＢＣ,,合同会社,東京都,東村山市,秋津町２丁目２４番地３２,,13,213,1890001,,,,,,,2022-11-07,1,,,,,,0
1164,4020001148790,新規,0,2022-11-07,2022-11-07,株式会社青柳建設,,株式会社,神奈川県,横浜市中区,野毛町１丁目２９番地,,14,104,2310064,,,,,,,2022-11-07,1,,,,,アオヤギケンセツ,0
1165,4020001148799,新規,0,2022-11-07,2022-11-07,株式会社阿部工務所,,株式会社,神奈川県,横浜市金沢区,大道１丁目８６番７号,,14,108,2360035,,,,,,,2022-11-07,1,,,,,アベコウムショ,0
1166,4020001148816,新規,0,2022-11-07,2022-11-07,水株式会社,,株式会社,神奈川県,横浜市港北区,新羽町１８１３番地１０５,,14,109,2230057,,,,,,,2022-11-07,1,,,,,ミズ,0
1167,4020001148832,新規,0,2022-11-07,2022-11-07,株式会社ＯＭトータルシステム,,株式会社,神奈川県,横浜市港北区,樽町３丁目７番１５－６４４号,,14,109,2220001,,,,,,,2022-11-07,1,,,,,オーエムトータルシステム,0
1168,4020001148840,新規,0,2022-11-07,2022-11-07,株式会社香山・やまよ,,株式会社,神奈川県,川崎市多摩区,生田３丁目４番１４号,,14,135,2140038,,,,,,,2022-11-07,1,,,,,カヤマヤマヨ,0
1169,4020001148865,新規,0,2022-11-07,2022-11-07,株式会社ＧＭ,,株式会社,神奈川県,横浜市西区,北幸１丁目１番８号エキニア横浜５階ＨａｍａＰｏｒｔ内,,14,103,2200004,,,,,,,2022-11-07,1,,,,,ジーエム,0
1173,4020003022671,新規,0,2022-11-07,2022-11-07,エクサフォース合同会社,,合同会社,神奈川県,横浜市西区,北幸１丁目１番８号エキニア横浜５階ＨａｍａＰｏｒｔ内,,14,103,2200004,,,,,,,2022-11-07,1,,,,,エクサフォース,0
1180,4021001077336,新規,0,2022-11-07,2022-11-07,株式会社川企,,株式会社,神奈川県,藤沢市,鵠沼桜が岡２丁目１１番２５号,,14,205,2510027,,,,,,,2022-11-07,1,,,,,カワキ,0
1181,4021001077344,新規,0,2022-11-07,2022-11-07,株式会社サムコネクト,,株式会社,神奈川県,相模原市中央区,千代田２丁目１２番６号,,14,152,2520237,,,,,,,2022-11-07,1,,,,,サムコネクト,0
1182,4021001077369,新規,0,2022-11-07,2022-11-07,エフパートナーズ株式会社,,株式会社,神奈川県,厚木市,旭町１丁目２５番１－２２０２号,,14,212,2430014,,,,,,,2022-11-07,1,,,,,エフパートナーズ,0
1183,4021001077393,新規,0,2022-11-07,2022-11-07,株式会社ＤｉｇｉＣａｒｒｙ,,株式会社,神奈川県,海老名市,扇町１４番２－１９０１号,,14,215,2430436,,,,,,,2022-11-07,1,,,,,デジキャリー,0
1190,4030001150845,新規,0,2022-11-07,2022-11-07,株式会社プラスト,,株式会社,埼玉県,川口市,中青木２丁目２３番５号,,11,203,3320032,,,,,,,2022-11-07,1,,,,,プラスト,0
1191,4030001150861,新規,0,2022-11-07,2022-11-07,株式会社ＢＰＡＤＤＯＣＫ,,株式会社,埼玉県,ふじみ野市,鶴ケ岡２丁目１３番８号,,11,245,3560045,,,,,,,2022-11-07,1,,,,,ビーパドック,0
1192,4030001150894,新規,0,2022-11-07,2022-11-07,華昇産業株式会社,,株式会社,埼玉県,蕨市,塚越５丁目１８番１１－４０２号,,11,223,3350002,,,,,,,2022-11-07,1,,,,,カショウサンギョウ,0
1193,4030001150903,新規,0,2022-11-07,2022-11-07,株式会社ハッピーオードブル,,株式会社,埼玉県,入間郡毛呂山町,中央４丁目２３番６号鎌北ビル３０６,,11,326,3500461,,,,,,,2022-11-07,1,,,,,ハッピーオードブル,0
1194,4030001150911,新規,0,2022-11-07,2022-11-07,株式会社ラジュール,,株式会社,埼玉県,新座市,野寺４丁目８番２０－２号,,11,230,3520034,,,,,,,2022-11-07,1,,,,,ラジュール,0
1198,4030003020526,新規,0,2022-11-07,2022-11-07,Ｄｉｇｉｔａｌ　Ｄｙｎａｍｉｃｓ合同会社,,合同会社,埼玉県,川口市,大字木曽呂１３８番地の４,,11,203,3330831,,,,,,,2022-11-07,1,,,,,デジタルダイナミクス,0
1201,4040001125672,新規,0,2022-11-07,2022-11-07,株式会社友陽工業,,株式会社,千葉県,茂原市,小林２９２０番地（コモディダＣ２０２）,,12,210,2970074,,,,,,,2022-11-07,1,,,,,ユウヒコウギョウ,0
1202,4040001125680,新規,0,2022-11-07,2022-11-07,株式会社Ｔｅａｍ‐ｚｅｒ０,,株式会社,千葉県,船橋市,坪井東５丁目１０番５号,,12,204,2740060,,,,,,,2022-11-07,1,,,,,チームゼロ,0
1203,4040001125689,新規,0,2022-11-07,2022-11-07,株式会社ＷＯＮＤＥＲ　ＬＵＮＡ,,株式会社,千葉県,流山市,おおたかの森南３丁目２番７号Ｒｕｓｃｅｌｌｏ２号室,,12,220,2700139,,,,,,,2022-11-07,1,,,,,ワンダールーナ,0
1204,4040001125730,新規,0,2022-11-07,2022-11-07,林自動車株式会社,,株式会社,千葉県,千葉市若葉区,大宮町２５１３番地１,,12,104,2640016,,,,,,,2022-11-07,1,,,,,ハヤシジドウシャ,0
1205,4040003021184,新規,0,2022-11-07,2022-11-07,合同会社ＨＫＰＳｔｕｄｉｏｓ,,合同会社,千葉県,松戸市,小山３－３ジュネパレス松戸第９７－４０２号室,,12,207,2710093,,,,,,,2022-11-07,1,,,,,エイチケイピースタジオス,0
1206,4040003021201,新規,0,2022-11-07,2022-11-07,合同会社デイサービスシャルール,,合同会社,千葉県,茂原市,小林２８７２番地６,,12,210,2970074,,,,,,,2022-11-07,1,,,,,デイサービスシャルール,0
1208,4050001051901,新規,0,2022-11-07,2022-11-07,株式会社ＲＯＭＩＩ,,株式会社,茨城県,東茨城郡大洗町,和銅１８番地７,,08,309,3111304,,,,,,,2022-11-07,1,,,,,ロミー,0
1223,4090001017840,新規,0,2022-11-07,2022-11-07,株式会社ＣＡＲＲＹ　ＲＥＸ,,株式会社,山梨県,南アルプス市,六科４６４番地１,,19,208,4000206,,,,,,,2022-11-07,1,,,,,キャリーレックス,0
1225,4100001035824,新規,0,2022-11-07,2022-11-07,株式会社ＡＵＷＡ,,株式会社,長野県,松本市,浅間温泉３丁目１１番１９号,,20,202,3900303,,,,,,,2022-11-07,1,,,,,アウワ,0
1226,4100001035849,新規,0,2022-11-07,2022-11-07,株式会社アクアプロテクション,,株式会社,長野県,長野市,大字北長池１５５７番地４,,20,201,3810025,,,,,,,2022-11-07,1,,,,,アクアプロテクション,0
1227,4100001035857,新規,0,2022-11-07,2022-11-07,株式会社Ｈ＆Ｍ,,株式会社,長野県,諏訪市,大字湖南４０８６番地１,,20,206,3920131,,,,,,,2022-11-07,1,,,,,エイチアンドエム,0
1231,4100003006757,新規,0,2022-11-07,2022-11-07,Ｒぷらすｃｌｅａｎ合同会社,,合同会社,長野県,松本市,神田２丁目５,,20,202,3900822,,,,,,,2022-11-07,1,,,,,アールプラスクリーン,0
1244,4120001249967,新規,0,2022-11-07,2022-11-07,坤元株式会社,,株式会社,大阪府,大阪市淀川区,十三元今里２丁目１２番２５号２０１室,,27,123,5320028,,,,,,,2022-11-07,1,,,,,コンゲン,0
1245,4120001250017,新規,0,2022-11-07,2022-11-07,オリーブドラブ株式会社,,株式会社,大阪府,枚方市,茄子作４丁目１４番１０号,,27,210,5730071,,,,,,,2022-11-07,1,,,,,オリーブドラブ,0
1246,4120001250025,新規,0,2022-11-07,2022-11-07,優亞株式会社,,株式会社,大阪府,大阪市中央区,高津１丁目３番１７号ファミールＫＯＵＺＴＯＷＥＲ１９０１号,,27,128,5420072,,,,,,,2022-11-07,1,,,,,ユヤ,0
1247,4120001250033,新規,0,2022-11-07,2022-11-07,株式会社Ｖｙｂｚ,,株式会社,大阪府,大阪市浪速区,敷津東２丁目１番２４－１７０１号,,27,111,5560012,,,,,,,2022-11-07,1,,,,,ヴァイブス,0
1248,4120001250041,新規,0,2022-11-07,2022-11-07,株式会社ＯＧＡＷＡ,,株式会社,大阪府,門真市,舟田町１１番２１号,,27,223,5710021,,,,,,,2022-11-07,1,,,,,オガワ,0
1249,4120001250090,新規,0,2022-11-07,2022-11-07,株式会社大京,,株式会社,大阪府,大阪市平野区,平野南１丁目１番２号２０１号,,27,126,5470031,,,,,,,2022-11-07,1,,,,,ダイキョウ,0
1251,4120003022793,新規,0,2022-11-07,2022-11-07,合同会社ナカムラ,,合同会社,大阪府,大阪市中央区,瓦町１丁目３番１４－１１０２号,,27,128,5410048,,,,,,,2022-11-07,1,,,,,ナカムラ,0
1252,4120101066486,新規,0,2022-11-07,2022-11-07,株式会社ＣＨホールディングス,,株式会社,大阪府,堺市西区,築港浜寺西町２番地７,,27,144,5928352,,,,,,,2022-11-07,1,,,,,シーエイチホールディングス,0
1257,4122001036362,新規,0,2022-11-07,2022-11-07,関西グローバル株式会社,,株式会社,大阪府,東大阪市,長瀬町１丁目９番１１号長瀬レジデンス１Ｆ,,27,227,5770832,,,,,,,2022-11-07,1,,,,,カンサイグローバル,0
1265,4130001073004,新規,0,2022-11-07,2022-11-07,株式会社チャイルドハウス,,株式会社,京都府,京都市下京区,西七条東石ケ坪町３１番地,,26,106,6008895,,,,,,,2022-11-07,1,,,,,チャイルドハウス,0
1266,4130001073020,新規,0,2022-11-07,2022-11-07,株式会社ＰＣＯ‐ＯＰ,,株式会社,京都府,京都市上京区,千本通五辻上る牡丹鉾町５７１番地,,26,102,6028475,,,,,,,2022-11-07,1,,,,,ピーコープ,0
1278,4140001127915,新規,0,2022-11-07,2022-11-07,株式会社Ｔ＆Ｍ,,株式会社,兵庫県,姫路市,砥堀８０１番地８,,28,201,6700802,,,,,,,2022-11-07,1,,,,,ティーアンドエム,0
1279,4140001127923,新規,0,2022-11-07,2022-11-07,株式会社ｃａｄｅａｕ,,株式会社,兵庫県,神戸市東灘区,御影１丁目１４番９号,,28,101,6580047,,,,,,,2022-11-07,1,,,,,カドー,0
1281,4140003018311,新規,0,2022-11-07,2022-11-07,合同会社ＳＨＩＮＫＡ,,合同会社,兵庫県,神戸市中央区,中山手通１丁目３番１０号ローズプラザビル１階,,28,110,6500004,,,,,,,2022-11-07,1,,,,,シンカ,0
1285,4160001024623,新規,0,2022-11-07,2022-11-07,株式会社クリーンフィールディングス,,株式会社,滋賀県,大津市,坂本６丁目２３番１９号,,25,201,5200113,,,,,,,2022-11-07,1,,,,,クリーンフィールディングス,0
1286,4160005011139,新規,0,2022-11-07,2022-11-07,一般社団法人海と日本プロジェクトｉｎ滋賀県,,その他の設立登記法人,滋賀県,大津市,鶴の里１６番１号,,25,201,5200826,,,,,,,2022-11-07,1,,,,,ウミトニッポンプロジェクトインシガケン,0
1287,4170001017353,新規,0,2022-11-07,2022-11-07,株式会社きざし農園,,株式会社,和歌山県,日高郡みなべ町,西本庄１０６７番地８,,30,391,6450027,,,,,,,2022-11-07,1,,,,,キザシノウエン,0
1294,4180001153619,新規,0,2022-11-07,2022-11-07,ＹＥＣ．ホールディングス株式会社,,株式会社,愛知県,名古屋市西区,宝地町１４４番地,,23,104,4520808,,,,,,,2022-11-07,1,,,,,ワイイーシーホールディングス,0
1295,4180001153627,新規,0,2022-11-07,2022-11-07,ＧＯＬＤ麺ＳＡＣＨＳ株式会社,,株式会社,愛知県,長久手市,喜婦嶽３１０番地ＳｈａＭａｉｓｏｎ喜婦嶽１０２,,23,238,4801117,,,,,,,2022-11-07,1,,,,,ゴールドメンサックス,0
1296,4180001153635,新規,0,2022-11-07,2022-11-07,アラカワ株式会社,,株式会社,愛知県,清須市,廻間１丁目８番地２０,,23,233,4520946,,,,,,,2022-11-07,1,,,,,アラカワ,0
1297,4180001153676,新規,0,2022-11-07,2022-11-07,株式会社愛豊庵,,株式会社,愛知県,犬山市,松本町４丁目９６番地,,23,215,4840086,,,,,,,2022-11-07,1,,,,,アイホウアン,0
1298,4180001153726,新規,0,2022-11-07,2022-11-07,ＳＳアセット株式会社,,株式会社,愛知県,名古屋市名東区,高社２丁目１８１番地,,23,115,4650095,,,,,,,2022-11-07,1,,,,,エスエスアセット,0
1299,4180001153734,新規,0,2022-11-07,2022-11-07,株式会社クールクラブス名古屋,,株式会社,愛知県,名古屋市中区,千代田５丁目７番５号,,23,106,4600012,,,,,,,2022-11-07,1,,,,,クールクラブスナゴヤ,0
1300,4180001153742,新規,0,2022-11-07,2022-11-07,株式会社Ｗｉｔｈ　Ｔｈｅ　Ｂｒａｖｅ,,株式会社,愛知県,半田市,住吉町３丁目１８３番地,,23,205,4750862,,,,,,,2022-11-07,1,,,,,ウィズザブレイブ,0
1306,4180003024438,新規,0,2022-11-07,2022-11-07,Ｒｅｌｉｅｆ　Ｓｕｐｐｌｉｅｓ合同会社,,合同会社,愛知県,名古屋市中村区,名駅４丁目２４番５号第２森ビル４０１,,23,105,4500002,,,,,,,2022-11-07,1,,,,,リリーフサプライズ,0
1307,4180301036779,新規,0,2022-11-07,2022-11-07,Ｌｉｎｋ‐ｕｐ株式会社,,株式会社,愛知県,豊橋市,弥生町字東豊和２０番地２６,,23,201,4418106,,,,,,,2022-11-07,1,,,,,リンクアップ,0
1308,4190001029883,新規,0,2022-11-07,2022-11-07,株式会社ＳＨＳ　ＭＡＣＨＩＮＥＲＹ,,株式会社,三重県,桑名市,大字安永１８１７番地,,24,205,5110839,,,,,,,2022-11-07,1,,,,,エスエイチエスマシナリー,0
1310,4200001040624,新規,0,2022-11-07,2022-11-07,株式会社椙村福富グランド印刷,,株式会社,岐阜県,下呂市,金山町下原町８６番地３,,21,220,5091616,,,,,,,2022-11-07,1,,,,,スギムラフクトミグランドインサツ,0
1311,4200001040632,新規,0,2022-11-07,2022-11-07,株式会社ＤＡＩＫＯ　ＴＲＡＮＳ,,株式会社,岐阜県,安八郡輪之内町,中郷新田２６２１番地の１,,21,382,5030212,,,,,,,2022-11-07,1,,,,,ダイコウトランス,0
1312,4200001040640,新規,0,2022-11-07,2022-11-07,株式会社ハートフリー,,株式会社,岐阜県,加茂郡富加町,大山６１７番地２８,,21,502,5013306,,,,,,,2022-11-07,1,,,,,ハートフリー,0
1313,4200001040649,新規,0,2022-11-07,2022-11-07,株式会社せこ家いつ世,,株式会社,岐阜県,各務原市,蘇原野口町３丁目４６番地１８,,21,213,5040854,,,,,,,2022-11-07,1,,,,,セコヤイツヨ,0
1321,4230001019582,新規,0,2022-11-07,2022-11-07,株式会社影屋,,株式会社,富山県,富山市,呉羽町２０７０番地３２,,16,201,9300138,,,,,,,2022-11-07,1,,,,,カゲヤ,0
1323,4240001060602,新規,0,2022-11-07,2022-11-07,株式会社管家,,株式会社,広島県,福山市,瀬戸町大字地頭分３７６番地１１,,34,207,7200837,,,,,,,2022-11-07,1,,,,,カンヤ,0
1324,4240003005885,新規,0,2022-11-07,2022-11-07,合同会社Ｒ,,合同会社,広島県,尾道市,平原２丁目２１番２３号,,34,205,7220018,,,,,,,2022-11-07,1,,,,,アール,0
1325,4250001019829,新規,0,2022-11-07,2022-11-07,株式会社もりの灯台,,株式会社,山口県,下関市,王司神田２丁目１２番２号,,35,201,7520911,,,,,,,2022-11-07,1,,,,,モリノトウダイ,0
1332,4260001037359,新規,0,2022-11-07,2022-11-07,株式会社ＯＰＥＮ　ＵＰ　ＨＤ,,株式会社,岡山県,岡山市北区,問屋町９番地１０１,,33,101,7000977,,,,,,,2022-11-07,1,,,,,オープンアップホールディングス,0
1333,4260001037383,新規,0,2022-11-07,2022-11-07,株式会社一工業,,株式会社,岡山県,浅口市,金光町下竹３７６番地,,33,216,7190102,,,,,,,2022-11-07,1,,,,,ハジメコウギョウ,0
1336,4270001008656,新規,0,2022-11-07,2022-11-07,株式会社ＹＯＵプラス,,株式会社,鳥取県,鳥取市,滝山４４２番地３４,,31,201,6800072,,,,,,,2022-11-07,1,,,,,ユープラス,0
1346,4290001099396,新規,0,2022-11-07,2022-11-07,株式会社ａｂｅｌｅｎｓ,,株式会社,福岡県,柳川市,間５６２番地２,,40,207,8320088,,,,,,,2022-11-07,1,,,,,エベレンス,0
1347,4290001099479,新規,0,2022-11-07,2022-11-07,株式会社ＳＧＣ,,株式会社,福岡県,久留米市,津福今町４１９番地３,,40,203,8300061,,,,,,,2022-11-07,1,,,,,エスジーシー,0
1348,4290001099504,新規,0,2022-11-07,2022-11-07,株式会社テクニカルニシノ,,株式会社,福岡県,福岡市西区,石丸２丁目１６番１号,,40,135,8190025,,,,,,,2022-11-07,1,,,,,テクニカルニシノ,0
1349,4290003013132,新規,0,2022-11-07,2022-11-07,合同会社リニエ,,合同会社,福岡県,福岡市早良区,藤崎２丁目２番３９－７０１号,,40,137,8140013,,,,,,,2022-11-07,1,,,,,リニエ,0
1350,4290003013149,新規,0,2022-11-07,2022-11-07,合同会社ふくみどり,,合同会社,福岡県,福岡市南区,大橋１丁目３番１８号,,40,134,8150033,,,,,,,2022-11-07,1,,,,,フクミドリ,0
1351,4290003013157,新規,0,2022-11-07,2022-11-07,マリートス合同会社,,合同会社,福岡県,福岡市博多区,山王１丁目１０番１１－６１０号フェイズイン山王公園前,,40,132,8120015,,,,,,,2022-11-07,1,,,,,マリートス,0
1353,4290801029032,新規,0,2022-11-07,2022-11-07,株式会社ＢＮＲ,,株式会社,福岡県,北九州市小倉北区,明和町１番２８号コンダクト小倉ＮＯ．１ビル１階,,40,106,8020017,,,,,,,2022-11-07,1,,,,,ビーエヌアール,0
1356,4330001030249,新規,0,2022-11-07,2022-11-07,株式会社ｓｅｅｄｓ’Ｎ,,株式会社,熊本県,人吉市,瓦屋町１１５１番地ロイヤルハウスＢ号室,,43,203,8680025,,,,,,,2022-11-07,1,,,,,シーズン,0
1364,4340003003953,新規,0,2022-11-07,2022-11-07,合同会社ＧＲＩＴ,,合同会社,鹿児島県,薩摩川内市,永利町４１３４番地１６２,,46,215,8950005,,,,,,,2022-11-07,1,,,,,グリット,0
1366,4350003004216,新規,0,2022-11-07,2022-11-07,サポートエナジー合同会社,,合同会社,宮崎県,宮崎市,田代町５９番地５,,45,201,8800855,,,,,,,2022-11-07,1,,,,,サポートエナジー,0
1369,4360001031153,新規,0,2022-11-07,2022-11-07,株式会社Ｏ．Ｂ．Ｏ,,株式会社,沖縄県,那覇市,金城２丁目５番地７ヒルズマンション第二１階,,47,201,9010155,,,,,,,2022-11-07,1,,,,,オービーオー,0
1370,4360001031161,新規,0,2022-11-07,2022-11-07,Ｋ＆Ｃ株式会社,,株式会社,沖縄県,豊見城市,字上田５７番地６、１Ｆ,,47,212,9010243,,,,,,,2022-11-07,1,,,,,ケイアンドシー,0
1383,4430005014592,新規,0,2022-11-07,2022-11-07,社会保険労務士法人高木事務所,,その他の設立登記法人,北海道,江別市,野幌屯田町１９番地の７,,01,217,0690803,,,,,,,2022-11-07,1,,,,,タカギジムショ,0
1384,4440001009182,新規,0,2022-11-07,2022-11-07,株式会社寿美役送,,株式会社,北海道,二海郡八雲町,豊河町２８番地４,,01,346,0493103,,,,,,,2022-11-07,1,,,,,カズミヤクソウ,0
1390,4470001019328,新規,0,2022-11-07,2022-11-07,株式会社木村興業,,株式会社,香川県,高松市,円座町１０７９番地１８,,37,201,7618044,,,,,,,2022-11-07,1,,,,,キムラコウギョウ,0
1393,4490001010326,新規,0,2022-11-07,2022-11-07,株式会社ワイズ,,株式会社,高知県,高知市,南竹島町３９番地９,,39,201,7808017,,,,,,,2022-11-07,1,,,,,ワイズ,0
1396,4490005006873,新規,0,2022-11-07,2022-11-07,一般社団法人日本語文化教育支援機構,,その他の設立登記法人,高知県,高知市,桜井町１丁目８番３６号１１０１,,39,201,7800821,,,,,,,2022-11-07,1,,,,,ニホンゴブンカキョウイクシエンキコウ,0
1400,4700150112198,新規,0,2022-11-07,2022-10-24,木管四重奏　もっかる,,その他,東京都,渋谷区,本町４丁目４１番１２号ｆマンション１１０号室　新岡様方,,13,113,1510071,,,,,,,2022-10-24,1,,,,,モツカンシジユウソウモツカル,0
1401,4700150112603,新規,0,2022-11-07,2022-11-07,Ｋａｉｒｏｓ　Ｈｏｌｄｉｎｇｓ　Ｌｉｍｉｔｅｄ,,外国会社等,北海道,虻田郡倶知安町,字山田１８１－５５－７５０,,01,400,0440081,Ｕｎｉｔｓ　Ａ－Ｃ，２５／Ｆ．，Ｓｅａｂｒｉｇｈｔ　Ｐｌａｚａ．Ｎｏ．９－２３　Ｓｈｅｌｌ　Ｓｔｒｅｅｔ，Ｎｏｒｔｈ　Ｐｏｉｎｔ，ＨＫ,,,,,,2022-11-07,1,,,,,カイロスホールデイングスリミテツド,0
1408,5010001230565,新規,0,2022-11-07,2022-11-07,株式会社ジャパンＭＲ,,株式会社,東京都,中央区,銀座７丁目１５－７,,13,102,1040061,,,,,,,2022-11-07,1,,,,,ジャパンエムアール,0
1409,5010001230598,新規,0,2022-11-07,2022-11-07,株式会社ＰＡＣ,,株式会社,東京都,千代田区,神田小川町２丁目２番２号,,13,101,1010052,,,,,,,2022-11-07,1,,,,,ピーエーシー,0
1410,5010001230631,新規,0,2022-11-07,2022-11-07,株式会社Ｔ．Ｔ．Ｔｅｃｈ,,株式会社,東京都,中央区,銀座１丁目２２番１１号銀座大竹ビジデンス２Ｆ,,13,102,1040061,,,,,,,2022-11-07,1,,,,,ティーティーテック,0
1416,5010003038998,新規,0,2022-11-07,2022-11-07,合同会社ＭＫＬＤインターナショナル,,合同会社,東京都,文京区,目白台３丁目１６番１１号１階,,13,105,1120015,,,,,,,2022-11-07,1,,,,,エムケーエルディーインターナショナル,0
1418,5010103002020,新規,0,2022-11-07,2022-11-07,合同会社ＨＯＮＥＹｓＰＯＴ,,合同会社,東京都,八王子市,宇津木町７１８番地,,13,201,1920024,,,,,,,2022-11-07,1,,,,,ハニーズポット,0
1427,5010401170601,新規,0,2022-11-07,2022-11-07,株式会社ハルテラス,,株式会社,東京都,港区,港南４丁目６番７号,,13,103,1080075,,,,,,,2022-11-07,1,,,,,ハルテラス,0
1428,5010401170618,新規,0,2022-11-07,2022-11-07,株式会社ＴＹＣｏｎｎｅｃｔ,,株式会社,東京都,港区,南青山３丁目１５－９ＭＩＮＯＷＡ表参道３Ｆ,,13,103,1070062,,,,,,,2022-11-07,1,,,,,ティーワイコネクト,0
1429,5010401170634,新規,0,2022-11-07,2022-11-07,株式会社ＡＬＯ,,株式会社,東京都,港区,高輪４丁目２１番１２号,,13,103,1080074,,,,,,,2022-11-07,1,,,,,アロ,0
1430,5010401170642,新規,0,2022-11-07,2022-11-07,株式会社陽光商事,,株式会社,東京都,港区,浜松町２丁目２番１５号浜松町ダイヤビル２階,,13,103,1050013,,,,,,,2022-11-07,1,,,,,ヨウコウショウジ,0
1434,5010403028822,新規,0,2022-11-07,2022-11-07,合同会社若松開発,,合同会社,東京都,港区,赤坂２丁目１０番５号税理士法人赤坂国際会計事務所内,,13,103,1070052,,,,,,,2022-11-07,1,,,,,ワカマツカイハツ,0
1435,5010403028830,新規,0,2022-11-07,2022-11-07,ＲＢソーラーアレス合同会社,,合同会社,東京都,港区,虎ノ門３丁目２２番１０－２０１号,,13,103,1050001,,,,,,,2022-11-07,1,,,,,アールビーソーラーアレス,0
1438,5010405021552,新規,0,2022-11-07,2022-11-07,ＲＢソーラーアテネホールディングス一般社団法人,,その他の設立登記法人,東京都,港区,虎ノ門３丁目２２番１０－２０１号,,13,103,1050001,,,,,,,2022-11-07,1,,,,,アールビーソーラーアテネホールディングス,0
1439,5010601062094,新規,0,2022-11-07,2022-11-07,株式会社建物士,,株式会社,東京都,墨田区,墨田５丁目３６番１７号,,13,107,1310031,,,,,,,2022-11-07,1,,,,,タテモノシ,0
1440,5010601062103,新規,0,2022-11-07,2022-11-07,ハウスクラス株式会社,,株式会社,東京都,江東区,住吉１丁目１３番１２号,,13,108,1350002,,,,,,,2022-11-07,1,,,,,ハウスクラス,0
1442,5010603009820,新規,0,2022-11-07,2022-11-07,合同会社プロダクツｍｉｘ,,合同会社,東京都,墨田区,立川４丁目１３番１０－４０２号,,13,107,1300023,,,,,,,2022-11-07,1,,,,,プロダクツミックス,0
1449,5010801033416,新規,0,2022-11-07,2022-11-07,株式会社Ｊ’ｓ,,株式会社,東京都,大田区,矢口３丁目２８番３５号,,13,111,1460093,,,,,,,2022-11-07,1,,,,,ジェイズ,0
1451,5010901051912,新規,0,2022-11-07,2022-11-07,株式会社ベルツリー,,株式会社,東京都,世田谷区,用賀３丁目２１番１号,,13,112,1580097,,,,,,,2022-11-07,1,,,,,ベルツリー,0
1452,5010901051920,新規,0,2022-11-07,2022-11-07,株式会社はしぐち亭,,株式会社,東京都,世田谷区,経堂１丁目１１番１３号ウエダビル１階,,13,112,1560052,,,,,,,2022-11-07,1,,,,,ハシグチテイ,0
1456,5011001150695,新規,0,2022-11-07,2022-11-07,株式会社リトペ,,株式会社,東京都,渋谷区,道玄坂１丁目１０番８号渋谷道玄坂東急ビル２Ｆ－Ｃ,,13,113,1500043,,,,,,,2022-11-07,1,,,,,リトペ,0
1457,5011001150712,新規,0,2022-11-07,2022-11-07,株式会社ＴＨＡＮＫＰＯＯＬ,,株式会社,東京都,渋谷区,渋谷１丁目１４番１４号植村会館ビル８階,,13,113,1500002,,,,,,,2022-11-07,1,,,,,サンクプール,0
1458,5011001150720,新規,0,2022-11-07,2022-11-07,ＥＬＰＬＡＮＴ株式会社,,株式会社,東京都,渋谷区,神泉町１０番１５号,,13,113,1500045,,,,,,,2022-11-07,1,,,,,エルプラント,0
1459,5011001150729,新規,0,2022-11-07,2022-11-07,ユイッタート株式会社,,株式会社,東京都,渋谷区,上原１丁目３２番５号ロイヤルテラス５０３,,13,113,1510064,,,,,,,2022-11-07,1,,,,,ユイッタート,0
1460,5011001150737,新規,0,2022-11-07,2022-11-07,株式会社ＡＲＣＨＩＶＥＳＴＯＣＫ,,株式会社,東京都,目黒区,自由が丘３丁目１４－１０Ｊ－ＰＲＩＤＥＮＯＲＴＨ０１０,,13,110,1520035,,,,,,,2022-11-07,1,,,,,アーカイブストック,0
1461,5011001150761,新規,0,2022-11-07,2022-11-07,株式会社ヴィスヴォ,,株式会社,東京都,渋谷区,神宮前６丁目２３番４号桑野ビル２Ｆ,,13,113,1500001,,,,,,,2022-11-07,1,,,,,ヴィスヴォ,0
1464,5011003015657,新規,0,2022-11-07,2022-11-07,とびらアドバイザリー合同会社,,合同会社,東京都,渋谷区,代々木５丁目６４番６号ファランドールビル３階,,13,113,1510053,,,,,,,2022-11-07,1,,,,,トビラアドバイザリー,0
1465,5011003015665,新規,0,2022-11-07,2022-11-07,合同会社ダキズ,,合同会社,東京都,渋谷区,道玄坂１丁目１０番８号渋谷道玄坂東急ビル２Ｆ－Ｃ,,13,113,1500043,,,,,,,2022-11-07,1,,,,,ダキズ,0
1470,5011101100740,新規,0,2022-11-07,2022-11-07,株式会社Ｔ‐ＳＫ,,株式会社,東京都,新宿区,歌舞伎町１丁目２番７号星座館ビル６０４,,13,104,1600021,,,,,,,2022-11-07,1,,,,,ティーエスケイ,0
1471,5011101100749,新規,0,2022-11-07,2022-11-07,株式会社ＡＲＲＯＷ,,株式会社,東京都,新宿区,喜久井町３４－５２,,13,104,1620044,,,,,,,2022-11-07,1,,,,,アロー,0
1472,5011103012331,新規,0,2022-11-07,2022-11-07,合同会社Ｓ．Ｂ．Ｓ．,,合同会社,東京都,新宿区,新宿３丁目３５番１１号あぜみビル３階,,13,104,1600022,,,,,,,2022-11-07,1,,,,,エスビーエス,0
1477,5011401024648,新規,0,2022-11-07,2022-11-07,株式会社Ｒ．ｉｎｇ,,株式会社,東京都,板橋区,大和町１番１－４０３号日神パレステージ板橋本町第５,,13,119,1730012,,,,,,,2022-11-07,1,,,,,リング,0
1481,5011503005348,新規,0,2022-11-07,2022-11-07,合同会社ＲＩＳＩＮＧ　ＦＯＲＣＥ,,合同会社,東京都,北区,志茂３丁目３８番１５号,,13,117,1150042,,,,,,,2022-11-07,1,,,,,ライジングフォース,0
1488,5011801041508,新規,0,2022-11-07,2022-11-07,株式会社ＢＬＵＥ　ＣＡｐＴｉｏｎ,,株式会社,東京都,足立区,入谷１丁目２番６－１３０２号,,13,121,1210836,,,,,,,2022-11-07,1,,,,,ブルーキャプション,0
1489,5012401039842,新規,0,2022-11-07,2022-11-07,株式会社未来建設,,株式会社,東京都,府中市,清水が丘１丁目１－１４ＫＡＳＵＹＡＢＬＤＧ４０１,,13,206,1830015,,,,,,,2022-11-07,1,,,,,ミライケンセツ,0
1491,5012705002331,新規,0,2022-11-07,2022-11-07,一般社団法人ゲーム寄贈協会,,その他の設立登記法人,東京都,東久留米市,浅間町３丁目２５番３号,,13,222,2030012,,,,,,,2022-11-07,1,,,,,ゲームキゾウキョウカイ,0
1493,5013103001181,新規,0,2022-11-07,2022-11-07,合同会社ＡＩＳＥＡ,,合同会社,東京都,青梅市,千ヶ瀬町３丁目４５９番地の２,,13,205,1980043,,,,,,,2022-11-07,1,,,,,,0
1502,5020001148798,新規,0,2022-11-07,2022-11-07,株式会社エコ・２４,,株式会社,神奈川県,横浜市中区,本牧原２番１－７０５号,,14,104,2310821,,,,,,,2022-11-07,1,,,,,エコニジュウヨン,0
1503,5020001148807,新規,0,2022-11-07,2022-11-07,株式会社カネデン,,株式会社,神奈川県,横浜市旭区,今宿東町６９３番地１－Ｄ１,,14,112,2410032,,,,,,,2022-11-07,1,,,,,カネデン,0
1504,5020001148815,新規,0,2022-11-07,2022-11-07,株式会社藤田,,株式会社,神奈川県,川崎市中原区,市ノ坪２７４番地２０１,,14,133,2110016,,,,,,,2022-11-07,1,,,,,フジタ,0
1505,5020001148823,新規,0,2022-11-07,2022-11-07,株式会社アドブライト,,株式会社,神奈川県,横浜市旭区,南希望が丘１２７番地１４,,14,112,2410824,,,,,,,2022-11-07,1,,,,,アドブライト,0
1506,5020001148831,新規,0,2022-11-07,2022-11-07,株式会社潤,,株式会社,神奈川県,川崎市川崎区,浜町３丁目２番１４－１３０３号,,14,131,2100851,,,,,,,2022-11-07,1,,,,,ジュン,0
1507,5020001148856,新規,0,2022-11-07,2022-11-07,美源商事株式会社,,株式会社,神奈川県,横浜市中区,曙町１丁目３－８１１号,,14,104,2310057,,,,,,,2022-11-07,1,,,,,ビゲンショウジ,0
1508,5020001148872,新規,0,2022-11-07,2022-11-07,株式会社あままき,,株式会社,神奈川県,横浜市港北区,新吉田東５丁目２０番１４号,,14,109,2230058,,,,,,,2022-11-07,1,,,,,アママキ,0
1509,5020001148880,新規,0,2022-11-07,2022-11-07,扶力不動産株式会社,,株式会社,神奈川県,横浜市旭区,二俣川１丁目１２番地３９,,14,112,2410821,,,,,,,2022-11-07,1,,,,,フリョクフドウサン,0
1512,5020003022670,新規,0,2022-11-07,2022-11-07,合同会社空,,合同会社,神奈川県,横浜市鶴見区,馬場２丁目１８番１０号,,14,101,2300076,,,,,,,2022-11-07,1,,,,,ソラ,0
1513,5020003022679,新規,0,2022-11-07,2022-11-07,ＴＹＢ合同会社,,合同会社,神奈川県,川崎市宮前区,宮崎１丁目６－１マグナ宮崎台３０５,,14,136,2160033,,,,,,,2022-11-07,1,,,,,ティーワイビー,0
1514,5020003022687,新規,0,2022-11-07,2022-11-07,合同会社ピノサク,,合同会社,神奈川県,川崎市中原区,上平間１８８５番地４,,14,133,2110013,,,,,,,2022-11-07,1,,,,,ピノサク,0
1515,5020003022695,新規,0,2022-11-07,2022-11-07,合同会社Ｔｏｒｑｕｅ,,合同会社,神奈川県,横浜市青葉区,柿の木台２８－１１ブル－ローズ１０２号室,,14,117,2270048,,,,,,,2022-11-07,1,,,,,トルク,0
1517,5021001077335,新規,0,2022-11-07,2022-11-07,ＤＩＳＣＯＶＥＲＹ株式会社,,株式会社,神奈川県,相模原市南区,相模大野３丁目１番２－４０８号,,14,153,2520303,,,,,,,2022-11-07,1,,,,,ディスカバリー,0
1518,5021001077351,新規,0,2022-11-07,2022-11-07,株式会社ＳＫ,,株式会社,神奈川県,厚木市,宮の里４丁目１番１－５０６号,,14,212,2430216,,,,,,,2022-11-07,1,,,,,エスケイ,0
1519,5021001077368,新規,0,2022-11-07,2022-11-07,レッドフォース株式会社,,株式会社,神奈川県,藤沢市,天神町３丁目２６番地の１,,14,205,2520814,,,,,,,2022-11-07,1,,,,,レッドフォース,0
1520,5021001077392,新規,0,2022-11-07,2022-11-07,ＭＥＴＡＣＬＡＳＳＲＯＯＭ株式会社,,株式会社,神奈川県,海老名市,扇町１４番２－１９０１号,,14,215,2430436,,,,,,,2022-11-07,1,,,,,メタクラスルーム,0
1523,5030001150869,新規,0,2022-11-07,2022-11-07,株式会社Ｌｏｔ,,株式会社,埼玉県,さいたま市浦和区,常盤７丁目８番２０－１号,,11,107,3300061,,,,,,,2022-11-07,1,,,,,ロット,0
1524,5030001150885,新規,0,2022-11-07,2022-11-07,株式会社将建,,株式会社,埼玉県,川越市,旭町２丁目２０番地５４,,11,201,3501126,,,,,,,2022-11-07,1,,,,,ショウケン,0
1525,5030001150893,新規,0,2022-11-07,2022-11-07,株式会社ビレイズ,,株式会社,埼玉県,坂戸市,南町１５番地１０号－３０２,,11,239,3500233,,,,,,,2022-11-07,1,,,,,ビレイズ,0
1526,5030001150910,新規,0,2022-11-07,2022-11-07,株式会社フルークフォレスト,,株式会社,埼玉県,上尾市,本町５丁目１８番１３号ＳＯＨＯマンション１０５号,,11,219,3620014,,,,,,,2022-11-07,1,,,,,フルークフォレスト,0
1527,5030001150927,新規,0,2022-11-07,2022-11-07,株式会社エイチツー・Ｍ,,株式会社,埼玉県,川口市,栄町２丁目１２番９号,,11,203,3320017,,,,,,,2022-11-07,1,,,,,エイチツーエム,0
1531,5030003020500,新規,0,2022-11-07,2022-11-07,合同会社飯村商事,,合同会社,埼玉県,朝霞市,膝折町２丁目１番４６号,,11,227,3510014,,,,,,,2022-11-07,1,,,,,イイムラショウジ,0
1532,5030003020525,新規,0,2022-11-07,2022-11-07,合同会社熊谷ソリューションサービス,,合同会社,埼玉県,熊谷市,籠原南１丁目１７７番地６,,11,202,3600847,,,,,,,2022-11-07,1,,,,,クマガヤソリューションサービス,0
1536,5040001125671,新規,0,2022-11-07,2022-11-07,株式会社ＨＤＴ関東,,株式会社,千葉県,柏市,みどり台５丁目５番７号,,12,217,2770884,,,,,,,2022-11-07,1,,,,,エイチディティカントウ,0
1537,5040001125705,新規,0,2022-11-07,2022-11-07,株式会社ＴＳ．ＤＡＹ,,株式会社,千葉県,千葉市中央区,仁戸名町３５８番地２サント・ヴィアソーレ１０２,,12,101,2600801,,,,,,,2022-11-07,1,,,,,ティーエスデイ,0
1538,5040001125738,新規,0,2022-11-07,2022-11-07,株式会社君津総建,,株式会社,千葉県,君津市,中野３丁目１３番１８号,,12,225,2991151,,,,,,,2022-11-07,1,,,,,キミツソウケン,0
1540,5040003021191,新規,0,2022-11-07,2022-11-07,合同会社プラリエ,,合同会社,千葉県,市川市,妙典５丁目４番２６－５０１号,,12,203,2720111,,,,,,,2022-11-07,1,,,,,プラリエ,0
1541,5040003021217,新規,0,2022-11-07,2022-11-07,合同会社ＤＨアシスト,,合同会社,千葉県,市原市,ちはら台東７丁目１８－７,,12,219,2900141,,,,,,,2022-11-07,1,,,,,ディーエイチアシスト,0
1544,5050001051900,新規,0,2022-11-07,2022-11-07,株式会社ＳＨＩＧＥＴＯＵテック,,株式会社,茨城県,日立市,幸町１丁目７番１５号幸ビル１０１,,08,202,3170073,,,,,,,2022-11-07,1,,,,,シゲトウテック,0
1545,5050001051909,新規,0,2022-11-07,2022-11-07,株式会社ラーメン,,株式会社,茨城県,水戸市,泉町２丁目２番３３号水戸泉町ビル７Ｆ,,08,201,3100026,,,,,,,2022-11-07,1,,,,,ラーメン,0
1546,5050003006992,新規,0,2022-11-07,2022-11-07,ケンユウサービス合同会社,,合同会社,茨城県,水戸市,加倉井町１２０４番地,,08,201,3114163,,,,,,,2022-11-07,1,,,,,ケンユウサービス,0
1558,5080001025281,新規,0,2022-11-07,2022-11-07,株式会社ラニエステート,,株式会社,静岡県,静岡市清水区,三保１５００番地の８３,,22,103,4240901,,,,,,,2022-11-07,1,,,,,ラニエステート,0
1560,5080101023598,新規,0,2022-11-07,2022-11-07,株式会社ゼロエイト,,株式会社,静岡県,伊東市,鎌田９６８番地の７,,22,208,4140054,,,,,,,2022-11-07,1,,,,,ゼロエイト,0
1561,5080103002682,新規,0,2022-11-07,2022-11-07,天賜合同会社,,合同会社,静岡県,裾野市,佐野１４４０番地の２,,22,220,4101118,,,,,,,2022-11-07,1,,,,,テンシ,0
1568,5100001035848,新規,0,2022-11-07,2022-11-07,株式会社オールファン,,株式会社,長野県,北佐久郡軽井沢町,大字長倉２６１７番地１４,,20,321,3890111,,,,,,,2022-11-07,1,,,,,オールファン,0
1569,5100001035856,新規,0,2022-11-07,2022-11-07,株式会社アニマル・ガーデン,,株式会社,長野県,松本市,井川城３丁目１０番３４－１号,,20,202,3900831,,,,,,,2022-11-07,1,,,,,アニマルガーデン,0
1573,5100003006756,新規,0,2022-11-07,2022-11-07,Ｔｈａｎｋ　Ｙｏｕ　Ｌｏｒｄ合同会社,,合同会社,長野県,北佐久郡御代田町,大字塩野３０９８番地３,,20,323,3890201,,,,,,,2022-11-07,1,,,,,サンキューロード,0
1574,5100003006764,新規,0,2022-11-07,2022-11-07,合同会社ハイレイド,,合同会社,長野県,諏訪市,南町６－１２,,20,206,3920014,,,,,,,2022-11-07,1,,,,,ハイレイド,0
1581,5110001037075,新規,0,2022-11-07,2022-11-07,エスケイ株式会社,,株式会社,新潟県,長岡市,石動南町３番地１５,,15,202,9402117,,,,,,,2022-11-07,1,,,,,エスケイ,0
1582,5110003004908,新規,0,2022-11-07,2022-11-07,合同会社結慈,,合同会社,新潟県,上越市,川原町１０番８号,,15,222,9420065,,,,,,,2022-11-07,1,,,,,ユウジ,0
1590,5120001249941,新規,0,2022-11-07,2022-11-07,永盛株式会社,,株式会社,大阪府,大阪市西区,京町堀２丁目６番２０号,,27,106,5500003,,,,,,,2022-11-07,1,,,,,エイセイ,0
1591,5120001249966,新規,0,2022-11-07,2022-11-07,株式会社ＩＴＯ,,株式会社,大阪府,守口市,北斗町８番７号２０１号室,,27,209,5700091,,,,,,,2022-11-07,1,,,,,イトー,0
1592,5120001250016,新規,0,2022-11-07,2022-11-07,株式会社ｔｋｇ,,株式会社,大阪府,枚方市,上島町１２番２０号,,27,210,5731127,,,,,,,2022-11-07,1,,,,,ティーケイジー,0
1593,5120001250032,新規,0,2022-11-07,2022-11-07,タカマツハウス株式会社,,株式会社,大阪府,大阪市淀川区,新北野１丁目１４番１１号,,27,123,5320025,,,,,,,2022-11-07,1,,,,,タカマツハウス,0
1594,5120001250073,新規,0,2022-11-07,2022-11-07,株式会社Ｄｅｓｉｇｎ　Ｈａｃｋ,,株式会社,大阪府,大阪市北区,梅田１丁目１番３号大阪駅前第３ビル２９階１－１－１号室,,27,127,5300001,,,,,,,2022-11-07,1,,,,,デザインハック,0
1595,5120001250107,新規,0,2022-11-07,2022-11-07,株式会社ＤｉＳＣ,,株式会社,大阪府,大阪市中央区,内本町１丁目２番２有恒ビル４０３,,27,128,5400026,,,,,,,2022-11-07,1,,,,,ディスク,0
1597,5120003022784,新規,0,2022-11-07,2022-11-07,合同会社棚橋,,合同会社,大阪府,大阪市鶴見区,放出東３丁目２番４０－２０３号,,27,124,5380044,,,,,,,2022-11-07,1,,,,,タナハシ,0
1598,5120101066452,新規,0,2022-11-07,2022-11-07,株式会社Ｋ’ｓ不動産,,株式会社,大阪府,河内長野市,南花台１丁目１７番１号,,27,216,5860077,,,,,,,2022-11-07,1,,,,,ケーズフドウサン,0
1599,5120101066460,新規,0,2022-11-07,2022-11-07,株式会社Ｃ３,,株式会社,大阪府,泉佐野市,佐野台２０番地の８７,,27,213,5980075,,,,,,,2022-11-07,1,,,,,シースリー,0
1600,5120101066477,新規,0,2022-11-07,2022-11-07,ＯＲ　ＪＡＰＡＮ株式会社,,株式会社,大阪府,堺市南区,片蔵８２９番地,,27,145,5900121,,,,,,,2022-11-07,1,,,,,オーアールジャパン,0
1601,5120101066493,新規,0,2022-11-07,2022-11-07,株式会社ＧＬＡＤ,,株式会社,大阪府,泉佐野市,鶴原３丁目１０番１号,,27,213,5980071,,,,,,,2022-11-07,1,,,,,グラッド,0
1603,5120103004906,新規,0,2022-11-07,2022-11-07,合同会社ｄｅｎｔａｌ　ｆｕｔｕｒｅ,,合同会社,大阪府,堺市堺区,田出井町２番４３－１０４号,,27,141,5900014,,,,,,,2022-11-07,1,,,,,デンタルフューチャー,0
1610,5130001072987,新規,0,2022-11-07,2022-11-07,株式会社ＳＲコーポレーション,,株式会社,京都府,木津川市,山城町綺田出垣外２８番地５,,26,214,6190201,,,,,,,2022-11-07,1,,,,,エスアールコーポレーション,0
1611,5130001072995,新規,0,2022-11-07,2022-11-07,Ｈｖａｌａ株式会社,,株式会社,京都府,相楽郡和束町,大字門前小字稲川６５ー１,,26,365,6191204,,,,,,,2022-11-07,1,,,,,ファラー,0
1612,5130001073003,新規,0,2022-11-07,2022-11-07,株式会社コバヤシ総建,,株式会社,京都府,城陽市,寺田水度坂１５番地の１１１,,26,207,6100121,,,,,,,2022-11-07,1,,,,,コバヤシソウケン,0
1615,5130003008279,新規,0,2022-11-07,2022-11-07,合同会社ＴＯＤＯＳ,,合同会社,京都府,京都市右京区,西院東淳和院町１３－９ミスターキーズ西院２０３,,26,108,6160000,,,,,,,2022-11-07,1,,,,,トードス,0
1616,5130005016627,新規,0,2022-11-07,2022-11-07,一般社団法人アジア・オセアニア神経放射線学会,,その他の設立登記法人,京都府,京都市上京区,河原町通広小路上る梶井町４６５番地京都府立医科大学放射線医学教室内,,26,102,6020841,,,,,,,2022-11-07,1,,,,,アジアオセアニアシンケイホウシャセンガッカイ,0
1624,5140001127889,新規,0,2022-11-07,2022-11-07,株式会社ＴＨＲＥＥ　ＮＩＮＥ,,株式会社,兵庫県,芦屋市,平田町５番２５－２０６号,,28,206,6590074,,,,,,,2022-11-07,1,,,,,スリーナイン,0
1625,5140001127897,新規,0,2022-11-07,2022-11-07,株式会社森建設,,株式会社,兵庫県,高砂市,金ケ田町３番１４号,,28,216,6760816,,,,,,,2022-11-07,1,,,,,モリケンセツ,0
1626,5140001127906,新規,0,2022-11-07,2022-11-07,株式会社富松建装,,株式会社,兵庫県,三田市,富士が丘５丁目８番地５,,28,219,6691547,,,,,,,2022-11-07,1,,,,,トミマツケンソウ,0
1627,5140001127914,新規,0,2022-11-07,2022-11-07,株式会社宮本実業,,株式会社,兵庫県,豊岡市,日高町岩中１１６番地の５,,28,209,6695302,,,,,,,2022-11-07,1,,,,,ミヤモトジツギョウ,0
1628,5140001127922,新規,0,2022-11-07,2022-11-07,株式会社ｃｏｌｏｒｓ,,株式会社,兵庫県,姫路市,飾東町佐良和１０７番地５,,28,201,6710217,,,,,,,2022-11-07,1,,,,,カラーズ,0
1629,5140001127996,新規,0,2022-11-07,2022-11-07,オーエー・ペーパーサービス株式会社,,株式会社,兵庫県,神戸市中央区,琴ノ緒町５丁目３番５－２１６号,,28,110,6510094,,,,,,,2022-11-07,1,,,,,オーエーペーパーサービス,0
1630,5140001128004,新規,0,2022-11-07,2022-11-07,株式会社ＩＳＹ,,株式会社,兵庫県,芦屋市,南宮町１６－１－３０３,,28,206,6590024,,,,,,,2022-11-07,1,,,,,アイエスワイ,0
1634,5140003018310,新規,0,2022-11-07,2022-11-07,山一金属工業合同会社,,合同会社,兵庫県,神戸市兵庫区,大井通２丁目１番３号,,28,105,6520044,,,,,,,2022-11-07,1,,,,,ヤマイチキンゾクコウギョウ,0
1636,5160001024606,新規,0,2022-11-07,2022-11-07,株式会社ＷＩＣＡＭＵ,,株式会社,滋賀県,近江八幡市,鷹飼町５６４番地,,25,204,5230891,,,,,,,2022-11-07,1,,,,,ウィカム,0
1637,5160001024622,新規,0,2022-11-07,2022-11-07,株式会社榊,00128371,株式会社,滋賀県,大津市,山百合の丘２０番２号,,25,201,5200357,,,,,,,2022-11-07,1,,,,,サカキ,0
1643,5170001017352,新規,0,2022-11-07,2022-11-07,株式会社ビーワイズ,,株式会社,和歌山県,日高郡みなべ町,晩稲３８８番地１,,30,391,6450022,,,,,,,2022-11-07,1,,,,,ビーワイズ,0
1650,5180001153592,新規,0,2022-11-07,2022-11-07,株式会社ＭＵＧ,,株式会社,愛知県,名古屋市緑区,鳴子町３丁目９７番地３４号,,23,114,4580041,,,,,,,2022-11-07,1,,,,,マグ,0
1651,5180001153618,新規,0,2022-11-07,2022-11-07,芸庫株式会社,,株式会社,愛知県,一宮市,北方町中島字東郷１番地１－２階,,23,203,4938003,,,,,,,2022-11-07,1,,,,,ゲイコ,0
1652,5180001153626,新規,0,2022-11-07,2022-11-07,株式会社シャーロット,,株式会社,愛知県,名古屋市中川区,八熊通６丁目３６番地の１,,23,110,4540035,,,,,,,2022-11-07,1,,,,,シャーロット,0
1653,5180001153691,新規,0,2022-11-07,2022-11-07,株式会社ＥＩＴＯ,,株式会社,愛知県,稲沢市,平和町法立西瀬古下３６６番地１１,,23,220,4901304,,,,,,,2022-11-07,1,,,,,エイト,0
1654,5180001153700,新規,0,2022-11-07,2022-11-07,株式会社ライセ,,株式会社,愛知県,名古屋市中区,栄４丁目１７番２９号,,23,106,4600008,,,,,,,2022-11-07,1,,,,,ライセ,0
1655,5180001153717,新規,0,2022-11-07,2022-11-07,株式会社ＢＦＣ商事,,株式会社,愛知県,名古屋市中区,栄２丁目４番５号チサンマンション栄２番館広小路Ｂ棟２０９,,23,106,4600008,,,,,,,2022-11-07,1,,,,,ビーエフシーショウジ,0
1656,5180001153733,新規,0,2022-11-07,2022-11-07,株式会社暁産業,,株式会社,愛知県,一宮市,三ツ井２丁目２８番１６号,,23,203,4910827,,,,,,,2022-11-07,1,,,,,アカツキサンギョウ,0
1657,5180001153741,新規,0,2022-11-07,2022-11-07,Ｆａｂｉｏ　Ｌａｍｂｏｒｇｈｉｎｉ　Ｊａｐａｎ株式会社,,株式会社,愛知県,一宮市,開明字神明郭３０番地の１,,23,203,4940001,,,,,,,2022-11-07,1,,,,,ファビオランボルギーニジャパン,0
1658,5180001153758,新規,0,2022-11-07,2022-11-07,株式会社Ｍｙ　Ｂｏｏ,,株式会社,愛知県,半田市,青山７丁目３番５号ルミエールＫＡＮＹＵ、Ａ棟１０１号室,,23,205,4750836,,,,,,,2022-11-07,1,,,,,マイブー,0
1664,5180003024420,新規,0,2022-11-07,2022-11-07,ラッキーＧＹ合同会社,,合同会社,愛知県,名古屋市昭和区,滝子通１丁目２番地の２,,23,107,4660055,,,,,,,2022-11-07,1,,,,,ラッキージーワイ,0
1665,5180003024429,新規,0,2022-11-07,2022-11-07,合同会社クラシー,,合同会社,愛知県,北名古屋市,熊之庄石原８３番地２,,23,234,4810006,,,,,,,2022-11-07,1,,,,,クラシー,0
1666,5180003024437,新規,0,2022-11-07,2022-11-07,合同会社インデコ・ワイ,,合同会社,愛知県,名古屋市北区,中杉町２丁目２３番地の２,,23,103,4620838,,,,,,,2022-11-07,1,,,,,インデコワイ,0
1667,5180003024445,新規,0,2022-11-07,2022-11-07,ＪＰＬ日本合同会社,,合同会社,愛知県,名古屋市中区,丸の内３丁目７番９号,,23,106,4600002,,,,,,,2022-11-07,1,,,,,ジェイピーエルニッポン,0
1668,5180003024453,新規,0,2022-11-07,2022-11-07,合同会社ＨＡＬＥＹＳ,,合同会社,愛知県,春日井市,篠田町６３９番地８,,23,206,4860922,,,,,,,2022-11-07,1,,,,,ハレイズ,0
1670,5180301036794,新規,0,2022-11-07,2022-11-07,株式会社ミライリアイチ,,株式会社,愛知県,豊田市,上挙母１丁目９７番地,,23,211,4710866,,,,,,,2022-11-07,1,,,,,ミライリアイチ,0
1673,5190001029882,新規,0,2022-11-07,2022-11-07,株式会社ＭＡＮ・ＦＡＲＭ,,株式会社,三重県,松阪市,目田町１２５番地１,,24,204,5150216,,,,,,,2022-11-07,1,,,,,マンファーム,0
1674,5190001029890,新規,0,2022-11-07,2022-11-07,株式会社賃貸川村,,株式会社,三重県,三重郡川越町,大字豊田８９３番地,,24,344,5108122,,,,,,,2022-11-07,1,,,,,チンタイカワムラ,0
1675,5190003004132,新規,0,2022-11-07,2022-11-07,合同会社ＦａｂＤｅｌｉ,,合同会社,三重県,津市,安濃町田端上野８７４番地１１１,,24,201,5142325,,,,,,,2022-11-07,1,,,,,ファブデリ,0
1684,5230001019581,新規,0,2022-11-07,2022-11-07,株式会社ＣＡＭ,,株式会社,富山県,富山市,丸の内１丁目８番１７号新丸の内ビル４階,,16,201,9300085,,,,,,,2022-11-07,1,,,,,カム,0
1686,5240001060601,新規,0,2022-11-07,2022-11-07,株式会社ウィン・コレクト,,株式会社,広島県,府中市,鵜飼町字孟々３２６番地１,,34,208,7260002,,,,,,,2022-11-07,1,,,,,ウィンコレクト,0
1688,5240003005876,新規,0,2022-11-07,2022-11-07,合同会社明後日,,合同会社,広島県,世羅郡世羅町,大字寺町６８９番地,,34,462,7221111,,,,,,,2022-11-07,1,,,,,アサッテ,0
1689,5240003005884,新規,0,2022-11-07,2022-11-07,ＲＥ　Ｌｉｇｈｔ　Ｓｈａｒｅ合同会社,,合同会社,広島県,広島市中区,本通７番２９号アイビービル７Ｆ,,34,101,7300035,,,,,,,2022-11-07,1,,,,,リライトシェア,0
1691,5250001019836,新規,0,2022-11-07,2022-11-07,山口小水力発電株式会社,,株式会社,山口県,下関市,綾羅木新町３丁目７番１号,,35,201,7510865,,,,,,,2022-11-07,1,,,,,ヤマグチショウスイリョクハツデン,0
1692,5260003004100,新規,0,2022-11-07,2022-11-07,合同会社リライテクト,,合同会社,岡山県,岡山市南区,福富西１丁目３番２８号,,33,104,7028031,,,,,,,2022-11-07,1,,,,,リライテクト,0
1693,5270001008655,新規,0,2022-11-07,2022-11-07,株式会社ステライル,,株式会社,鳥取県,米子市,末広町１４４番地,,31,202,6830043,,,,,,,2022-11-07,1,,,,,ステライル,0
1700,5280005007512,新規,0,2022-11-07,2022-11-07,一般社団法人地域おこしスポーツ協力隊ネットワーク,,その他の設立登記法人,島根県,松江市,西川津町３３７０－７コリーヌベルテ西川津２０４号室,,32,201,6900823,,,,,,,2022-11-07,1,,,,,チイキオコシスポーツキョウリョクタイネットワーク,0
1702,5290001099503,新規,0,2022-11-07,2022-11-07,レイワトレーディング株式会社,,株式会社,福岡県,福岡市東区,香椎駅東３丁目１５番３６号,,40,131,8130012,,,,,,,2022-11-07,1,,,,,レイワトレーディング,0
1703,5290003013107,新規,0,2022-11-07,2022-11-07,合同会社Ｉ‐ｌｉｎｋ,,合同会社,福岡県,福岡市中央区,天神２丁目３番１０号天神パインクレスト７１９号,,40,133,8100001,,,,,,,2022-11-07,1,,,,,アイリンク,0
1704,5290003013131,新規,0,2022-11-07,2022-11-07,合同会社馬田工業,,合同会社,福岡県,久留米市,大橋町合楽８９６番地５８,,40,203,8390832,,,,,,,2022-11-07,1,,,,,マダコウギョウ,0
1707,5300001013123,新規,0,2022-11-07,2022-11-07,株式会社原農園,,株式会社,佐賀県,武雄市,武雄町大字昭和４０番地１７,,41,206,8430023,,,,,,,2022-11-07,1,,,,,ハラノウエン,0
1710,5310001018105,新規,0,2022-11-07,2022-11-07,株式会社Ｏｋａｍｏｔｏ,,株式会社,長崎県,長崎市,戸町３丁目２０番２２－３０４号,,42,201,8500952,,,,,,,2022-11-07,1,,,,,オカモト,0
1711,5310003004474,新規,0,2022-11-07,2022-11-07,ＬＩＦＩＸ合同会社,,合同会社,長崎県,長崎市,かき道１丁目２０番２号,,42,201,8510115,,,,,,,2022-11-07,1,,,,,リフィックス,0
1713,5330001030264,新規,0,2022-11-07,2022-11-07,株式会社リフアクト,,株式会社,熊本県,上益城郡嘉島町,大字鯰２７０５番地１アバンティ１―１０１,,43,442,8613101,,,,,,,2022-11-07,1,,,,,,0
1717,5350001018019,新規,0,2022-11-07,2022-11-07,株式会社濱嶋林業,,株式会社,宮崎県,小林市,野尻町紙屋３２４９番地８,,45,205,8860211,,,,,,,2022-11-07,1,,,,,ハマシマリンギョウ,0
1718,5350001018027,新規,0,2022-11-07,2022-11-07,株式会社心羽環境,,株式会社,宮崎県,日南市,南郷町中村甲２１５７番地１６,,45,204,8893202,,,,,,,2022-11-07,1,,,,,ココハカンキョウ,0
1719,5350005006110,新規,0,2022-11-07,2022-11-07,特定非営利活動法人とまりぎ荘,,その他の設立登記法人,宮崎県,延岡市,川島町３８０６番地,,45,203,8820017,,,,,,,2022-11-07,1,,,,,トマリギソウ,0
1721,5360001031136,新規,0,2022-11-07,2022-11-07,富盈亜洲株式会社,,株式会社,沖縄県,那覇市,前島３丁目１６番１３号シティーサイド城３０１,,47,201,9000016,,,,,,,2022-11-07,1,,,,,トミエアジア,0
1722,5360001031160,新規,0,2022-11-07,2022-11-07,株式会社オフィスＮ,,株式会社,沖縄県,那覇市,宮城１丁目１７番６－８０１号Ｆステージ小禄宮城弐番館,,47,201,9010147,,,,,,,2022-11-07,1,,,,,オフィスエヌ,0
1724,5370001049227,新規,0,2022-11-07,2022-11-07,株式会社佐藤商店,,株式会社,宮城県,仙台市青葉区,愛子中央２丁目１番１５号,,04,101,9893128,,,,,,,2022-11-07,1,,,,,サトウショウテン,0
1735,5410003003714,新規,0,2022-11-07,2022-11-07,合同会社悠樹,,合同会社,秋田県,大館市,清水１丁目３番３２号,,05,204,0170046,,,,,,,2022-11-07,1,,,,,ユウキ,0
1741,5430001087781,新規,0,2022-11-07,2022-11-07,株式会社ユウワ,,株式会社,北海道,札幌市北区,北二十四条西１９丁目１番２５号,,01,102,0010024,,,,,,,2022-11-07,1,,,,,ユウワ,0
1742,5430001087798,新規,0,2022-11-07,2022-11-07,馥莱株式会社,,株式会社,北海道,札幌市白石区,菊水六条４丁目１番４－１０１号,,01,104,0030806,,,,,,,2022-11-07,1,,,,,フクライ,0
1753,5500001024579,新規,0,2022-11-07,2022-11-07,株式会社清水商事,,株式会社,愛媛県,大洲市,五郎甲１５０４番地１５,,38,207,7950051,,,,,,,2022-11-07,1,,,,,シミズショウジ,0
1755,5700150112602,新規,0,2022-11-07,2022-11-07,Ｉｎｔｅｒｌｏｃａｌ　Ｅｘｉｍ　ＰＴＥ　ＬＴＤ,,外国会社等,北海道,虻田郡倶知安町,字山田１８１－５５－７１８,,01,400,0440081,２　Ｋｉｍ　Ｃｈｕａｎ　Ｌａｎｅ　Ｋｏｎｇ　Ｓｉａｎｇ　Ｇｒｏｕｐ　Ｂｕｉｌｄｉｎｇ　Ｓｉｎｇａｐｏｒｅ　５３７０７２,,,,,,2022-11-07,1,,,,,インターローカルエクシムピーテイーイーエルテイーデイー,0
1763,6010001230408,新規,0,2022-11-07,2022-11-07,きさらぎ株式会社,,株式会社,東京都,中央区,日本橋人形町２丁目３２番７号,,13,102,1030013,,,,,,,2022-11-07,1,,,,,キサラギ,0
1764,6010001230507,新規,0,2022-11-07,2022-11-07,Ｐ＆Ｖホールディングス株式会社,,株式会社,東京都,千代田区,麹町３丁目２番地垣見麹町ビル別館４階,,13,101,1020083,,,,,,,2022-11-07,1,,,,,ピーアンドブイホールディングス,0
1765,6010001230564,新規,0,2022-11-07,2022-11-07,株式会社デザインオフィスジーニー,,株式会社,東京都,中央区,日本橋３丁目２番１４号新槇町ビル別館第一２階,,13,102,1030027,,,,,,,2022-11-07,1,,,,,デザインオフィスジーニー,0
1766,6010001230597,新規,0,2022-11-07,2022-11-07,リュッケ株式会社,,株式会社,東京都,千代田区,九段南１丁目５番６号りそな九段ビル５階ＫＳフロア,,13,101,1020074,,,,,,,2022-11-07,1,,,,,リュッケ,0
1767,6010001230622,新規,0,2022-11-07,2022-11-07,株式会社Ｐｒｏｐ‐ＵＰ,,株式会社,東京都,中央区,銀座６丁目１３番１６号銀座ＷａｌｌビルＵＣＦ５階,,13,102,1040061,,,,,,,2022-11-07,1,,,,,プロパップ,0
1771,6010003038980,新規,0,2022-11-07,2022-11-07,合同会社Ｇｅｎｔｌｅ　Ｇｉａｎｔｓ,,合同会社,東京都,千代田区,神田須田町１丁目７番１号,,13,101,1010041,,,,,,,2022-11-07,1,,,,,ジェントルジャイアンツ,0
1772,6010003038997,新規,0,2022-11-07,2022-11-07,合同会社やまと,,合同会社,東京都,中央区,築地３丁目７－２,,13,102,1040045,,,,,,,2022-11-07,1,,,,,ヤマト,0
1778,6010401170591,新規,0,2022-11-07,2022-11-07,株式会社日本アルカディア,,株式会社,東京都,港区,麻布十番１丁目５番１３－４０１号,,13,103,1060045,,,,,,,2022-11-07,1,,,,,ニホンアルカディア,0
1779,6010401170600,新規,0,2022-11-07,2022-11-07,株式会社Ｆｏｒｔｕｎａ,,株式会社,東京都,港区,六本木３丁目７番１号,,13,103,1060032,,,,,,,2022-11-07,1,,,,,フォルトゥーナ,0
1780,6010401170609,新規,0,2022-11-07,2022-11-07,サントリーコンシェルジュサービス株式会社,,株式会社,東京都,港区,芝公園２丁目４番１号,,13,103,1050011,,,,,,,2022-11-07,1,,,,,サントリーコンシェルジュサービス,0
1781,6010401170625,新規,0,2022-11-07,2022-11-07,株式会社アールスクエア,,株式会社,東京都,港区,六本木３丁目１１番６号２１泰明ビル５階,,13,103,1060032,,,,,,,2022-11-07,1,,,,,,0
1782,6010401170633,新規,0,2022-11-07,2022-11-07,株式会社Ｗｈｉｔｅ　Ｂｅａｒ,,株式会社,東京都,港区,浜松町２丁目２番１５号浜松町ダイヤビル２階,,13,103,1050013,,,,,,,2022-11-07,1,,,,,ホワイトベア,0
1783,6010401170641,新規,0,2022-11-07,2022-11-07,株式会社山佳,,株式会社,東京都,港区,南青山３丁目１５番７号,,13,103,1070062,,,,,,,2022-11-07,1,,,,,サンカ,0
1784,6010401170666,新規,0,2022-11-07,2022-11-07,ＦｕｎＰｌａｎｎｉｎｇ株式会社,,株式会社,東京都,港区,東麻布２丁目３５番１号ＫＣビル６Ｆ,,13,103,1060044,,,,,,,2022-11-07,1,,,,,ファンプランニング,0
1789,6010405021551,新規,0,2022-11-07,2022-11-07,ＲＢソーラーアレスホールディングス一般社団法人,,その他の設立登記法人,東京都,港区,虎ノ門３丁目２２番１０－２０１号,,13,103,1050001,,,,,,,2022-11-07,1,,,,,アールビーソーラーアレスホールディングス,0
1790,6010601062093,新規,0,2022-11-07,2022-11-07,株式会社ＮＴＴデータ国内事業準備会社,,株式会社,東京都,江東区,豊洲３丁目３番３号,,13,108,1350061,,,,,,,2022-11-07,1,,,,,エヌティティデータコクナイジギョウジュンビガイシャ,0
1791,6010601062102,新規,0,2022-11-07,2022-11-07,株式会社ＡＢ工房,,株式会社,東京都,墨田区,太平１丁目２２番５－８０１号,,13,107,1300012,,,,,,,2022-11-07,1,,,,,エービーコウボウ,0
1792,6010603009828,新規,0,2022-11-07,2022-11-07,合同会社マスリー,,合同会社,東京都,江東区,豊洲６丁目２番３１号,,13,108,1350061,,,,,,,2022-11-07,1,,,,,マスリー,0
1794,6010701043423,新規,0,2022-11-07,2022-11-07,株式会社リベリア,,株式会社,東京都,品川区,西五反田３丁目１２番１－１００４号,,13,109,1410031,,,,,,,2022-11-07,1,,,,,リベリア,0
1795,6010701043431,新規,0,2022-11-07,2022-11-07,株式会社竹尾ゼネラルカンパニー,,株式会社,東京都,品川区,東品川３丁目８番８－２２０９号,,13,109,1400002,,,,,,,2022-11-07,1,,,,,タケオゼネラルカンパニー,0
1801,6011001150694,新規,0,2022-11-07,2022-11-07,株式会社Ｒｅｓｕｌｔ　Ｐａｒｔｎｅｒｓ,,株式会社,東京都,渋谷区,渋谷２丁目１９番１５号,,13,113,1500002,,,,,,,2022-11-07,1,,,,,リザルトパートナーズ,0
1802,6011001150703,新規,0,2022-11-07,2022-11-07,ＡＩＲ　ＴＯＫＹＯ株式会社,,株式会社,東京都,渋谷区,南平台町４番８号南平台アジアマンション６０２号室,,13,113,1500036,,,,,,,2022-11-07,1,,,,,エアートウキョウ,0
1803,6011001150711,新規,0,2022-11-07,2022-11-07,Ｓｏｍｎｉａ株式会社,,株式会社,東京都,渋谷区,代々木５丁目２９番８号,,13,113,1510053,,,,,,,2022-11-07,1,,,,,ソムニア,0
1804,6011001150728,新規,0,2022-11-07,2022-11-07,株式会社ＬＩＮＡ,,株式会社,東京都,渋谷区,神泉町２２番３号ピアース渋谷ＷＥＳＴ５０１,,13,113,1500045,,,,,,,2022-11-07,1,,,,,ライナ,0
1805,6011001150736,新規,0,2022-11-07,2022-11-07,株式会社ＥＬエンターテインメント,,株式会社,東京都,渋谷区,幡ヶ谷３丁目１１番７号,,13,113,1510072,,,,,,,2022-11-07,1,,,,,イーエルエンターテインメント,0
1806,6011003015648,新規,0,2022-11-07,2022-11-07,合同会社フクロウ,,合同会社,東京都,渋谷区,千駄ヶ谷５丁目３２番５号ＧＳハイム新宿南口４０２,,13,113,1510051,,,,,,,2022-11-07,1,,,,,フクロウ,0
1807,6011003015656,新規,0,2022-11-07,2022-11-07,合同会社１,,合同会社,東京都,渋谷区,松濤１丁目２９番２１号サンビューハイツ松濤３０２,,13,113,1500046,,,,,,,2022-11-07,1,,,,,イチ,0
1808,6011005009813,新規,0,2022-11-07,2022-11-07,社会保険労務士法人ＡＬＬＲＯＵＮＤ渋谷,,その他の設立登記法人,東京都,渋谷区,南平台町１６番２８号６Ｆ,,13,113,1500036,,,,,,,2022-11-07,1,,,,,オールラウンドシブヤ,0
1821,6011301028228,新規,0,2022-11-07,2022-11-07,Ｆｒｏｍ．Ｈ株式会社,,株式会社,東京都,杉並区,浜田山４丁目１６番２０号,,13,115,1680065,,,,,,,2022-11-07,1,,,,,フロムエイチ,0
1822,6011401024647,新規,0,2022-11-07,2022-11-07,株式会社ＣＨＲＯＮＯ　ＰＡＮＤＡ,,株式会社,東京都,板橋区,舟渡１丁目１２番１号亀山ビル２０２,,13,119,1740041,,,,,,,2022-11-07,1,,,,,クロノパンダ,0
1823,6011401024655,新規,0,2022-11-07,2022-11-07,株式会社リビングＳ,,株式会社,東京都,板橋区,上板橋３丁目１８番８号,,13,119,1740076,,,,,,,2022-11-07,1,,,,,リビングエス,0
1827,6011601026352,新規,0,2022-11-07,2022-11-07,株式会社マネジメイト,,株式会社,東京都,練馬区,春日町２丁目２６番１４号,,13,120,1790074,,,,,,,2022-11-07,1,,,,,マネジメイト,0
1831,6011801041498,新規,0,2022-11-07,2022-11-07,株式会社ＭＯＤＥＬＩＳＭ,,株式会社,東京都,葛飾区,四つ木５丁目２５番２２号,,13,122,1240011,,,,,,,2022-11-07,1,,,,,モデリズム,0
1835,6012403005619,新規,0,2022-11-07,2022-11-07,合同会社ＹＫＮ,,合同会社,東京都,府中市,宮西町３丁目１番地６号ナイスアーバン府中３０１号室,,13,206,1830022,,,,,,,2022-11-07,1,,,,,ワイケーエヌ,0
1836,6012701017332,新規,0,2022-11-07,2022-11-07,株式会社ジン電工,,株式会社,東京都,東村山市,秋津町４丁目３３番地４７,,13,213,1890001,,,,,,,2022-11-07,1,,,,,ジンデンコウ,0
1838,6013105001815,新規,0,2022-11-07,2022-11-07,一般社団法人東京キッチンガーデンマーケット,,その他の設立登記法人,東京都,青梅市,藤橋２丁目１１６番地,,13,205,1980022,,,,,,,2022-11-07,1,,,,,トウキョウキッチンガーデンマーケット,0
1845,6020001148780,新規,0,2022-11-07,2022-11-07,株式会社フレックス,,株式会社,神奈川県,横浜市神奈川区,神大寺３丁目１８番２４号ＮＰＰ神大寺３０５号,,14,102,2210801,,,,,,,2022-11-07,1,,,,,フレックス,0
1846,6020001148797,新規,0,2022-11-07,2022-11-07,緑彩庭苑株式会社,,株式会社,神奈川県,川崎市多摩区,栗谷１丁目１番７号,,14,135,2140039,,,,,,,2022-11-07,1,,,,,リョクサイテイエン,0
1847,6020001148814,新規,0,2022-11-07,2022-11-07,株式会社リベラルクリーン,,株式会社,神奈川県,横浜市西区,みなとみらい４丁目４－２横浜ブルーアベニュー１２階,,14,103,2200012,,,,,,,2022-11-07,1,,,,,リベラルクリーン,0
1848,6020001148822,新規,0,2022-11-07,2022-11-07,株式会社ＰＬＡＩＮ,,株式会社,神奈川県,川崎市川崎区,砂子２丁目１－５・２Ｆ,,14,131,2100006,,,,,,,2022-11-07,1,,,,,プレイン,0
1849,6020001148839,新規,0,2022-11-07,2022-11-07,株式会社ＢｌｏｏｍＵＳ,,株式会社,神奈川県,横浜市中区,桜木町１丁目１－７ヒューリックみなとみらい１０階,,14,104,2310062,,,,,,,2022-11-07,1,,,,,ブルームス,0
1850,6020001148855,新規,0,2022-11-07,2022-11-07,株式会社ザ・フラッグマネジメント,,株式会社,神奈川県,横浜市中区,本牧荒井１２０番地,,14,104,2310826,,,,,,,2022-11-07,1,,,,,ザフラッグマネジメント,0
1851,6020001148863,新規,0,2022-11-07,2022-11-07,あいの塾株式会社,,株式会社,神奈川県,川崎市川崎区,駅前本町１１番地２川崎フロンティアビル４階,,14,131,2100007,,,,,,,2022-11-07,1,,,,,,0
1852,6020001148871,新規,0,2022-11-07,2022-11-07,株式会社セルフ,,株式会社,神奈川県,横浜市神奈川区,片倉１丁目９番１９号,,14,102,2210865,,,,,,,2022-11-07,1,,,,,セルフ,0
1854,6020003022653,新規,0,2022-11-07,2022-11-07,ＴＡＲＡ合同会社,,合同会社,神奈川県,横浜市西区,戸部町７丁目２１８羽石アパート２階,,14,103,2200042,,,,,,,2022-11-07,1,,,,,タラ,0
1855,6020003022678,新規,0,2022-11-07,2022-11-07,ＢＡＮＴ合同会社,,合同会社,神奈川県,横浜市港南区,上永谷６丁目１番１号サルビアビル１階,,14,111,2330012,,,,,,,2022-11-07,1,,,,,バント,0
1856,6020003022686,新規,0,2022-11-07,2022-11-07,合同会社ＰＩＲＩＣＡ,,合同会社,神奈川県,横浜市緑区,長津田６丁目１５番３号ｆｗａｌｔｙｍ１０１,,14,113,2260027,,,,,,,2022-11-07,1,,,,,ピリカ,0
1861,6021001077375,新規,0,2022-11-07,2022-11-07,エナコムホールディングス株式会社,,株式会社,神奈川県,相模原市中央区,上溝２３７０番地１１,,14,152,2520243,,,,,,,2022-11-07,1,,,,,エナコムホールディングス,0
1862,6021001077391,新規,0,2022-11-07,2022-11-07,株式会社エヌエープラス,,株式会社,神奈川県,大和市,中央林間１丁目１１番１号,,14,213,2420007,,,,,,,2022-11-07,1,,,,,エヌエープラス,0
1867,6030001150851,新規,0,2022-11-07,2022-11-07,株式会社侍,,株式会社,埼玉県,熊谷市,原島１２１９番地６,,11,202,3600811,,,,,,,2022-11-07,1,,,,,サムライ,0
1868,6030001150868,新規,0,2022-11-07,2022-11-07,株式会社ライフクリエイション,,株式会社,埼玉県,桶川市,若宮１丁目８番２２－５０１号,,11,231,3630022,,,,,,,2022-11-07,1,,,,,ライフクリエイション,0
1869,6030001150901,新規,0,2022-11-07,2022-11-07,ＣＫオート株式会社,,株式会社,埼玉県,川口市,本町３丁目１番５－７０６号,,11,203,3320012,,,,,,,2022-11-07,1,,,,,シーケーオート,0
1870,6030001150918,新規,0,2022-11-07,2022-11-07,株式会社ワンシーム,,株式会社,埼玉県,川口市,青木１丁目１５番３１号,,11,203,3320031,,,,,,,2022-11-07,1,,,,,ワンシーム,0
1871,6030001150934,新規,0,2022-11-07,2022-11-07,株式会社リアン,,株式会社,埼玉県,川越市,大字下広谷９３０－１５,,11,201,3500804,,,,,,,2022-11-07,1,,,,,リアン,0
1878,6030003020499,新規,0,2022-11-07,2022-11-07,合同会社アスモア,,合同会社,埼玉県,幸手市,大字下川崎２９１－５,,11,240,3400162,,,,,,,2022-11-07,1,,,,,アスモア,0
1879,6040001125654,新規,0,2022-11-07,2022-11-07,株式会社大西工業,,株式会社,千葉県,八街市,八街ろ１１１番地４８３,,12,230,2891144,,,,,,,2022-11-07,1,,,,,オオニシコウギョウ,0
1880,6040001125670,新規,0,2022-11-07,2022-11-07,株式会社Ｅ‐Ｖ,,株式会社,千葉県,市川市,国分６丁目１２番２０号,,12,203,2720834,,,,,,,2022-11-07,1,,,,,イーブイ,0
1881,6040001125679,新規,0,2022-11-07,2022-11-07,株式会社Ｊｕｓｔｉｃｅ,,株式会社,千葉県,成田市,はなのき台１丁目６番地１０（プリムローズＹ）,,12,211,2860007,,,,,,,2022-11-07,1,,,,,ジャスティス,0
1882,6040001125687,新規,0,2022-11-07,2022-11-07,株式会社Ｄｉｓｆｅｅ,,株式会社,千葉県,印西市,戸神台１丁目１番地Ｂ棟２０８号,,12,231,2701349,,,,,,,2022-11-07,1,,,,,ディスフィー,0
1883,6040001125753,新規,0,2022-11-07,2022-11-07,株式会社ニニギ,,株式会社,千葉県,長生郡長南町,水沼６２６番地,,12,427,2970152,,,,,,,2022-11-07,1,,,,,ニニギ,0
1884,6040003021224,新規,0,2022-11-07,2022-11-07,合同会社ＫＢＭｅｎｔａｌ,,合同会社,千葉県,印西市,草深１１００番地３８,,12,231,2701337,,,,,,,2022-11-07,1,,,,,ケービーメンタル,0
1887,6050001051899,新規,0,2022-11-07,2022-11-07,株式会社ひまわり,,株式会社,茨城県,那珂市,菅谷３８７２番地,,08,226,3110105,,,,,,,2022-11-07,1,,,,,ヒマワリ,0
1890,6050003006983,新規,0,2022-11-07,2022-11-07,合同会社Ｓｉｇｎａｌ,,合同会社,茨城県,古河市,中田１１１―２７,,08,204,3060053,,,,,,,2022-11-07,1,,,,,シグナル,0
1901,6070001039802,新規,0,2022-11-07,2022-11-07,株式会社ＥＳ企画,,株式会社,群馬県,前橋市,公田町５７９番地２,,10,201,3792146,,,,,,,2022-11-07,1,,,,,イーエスキカク,0
1907,6090001017839,新規,0,2022-11-07,2022-11-07,株式会社ＳＩＴ１１,,株式会社,山梨県,甲斐市,島上条１４６７番地２,,19,210,4000123,,,,,,,2022-11-07,1,,,,,エスアイティーイレブン,0
1912,6100001035847,新規,0,2022-11-07,2022-11-07,株式会社イナペースト,,株式会社,長野県,伊那市,荒井３４５８番地,,20,209,3960025,,,,,,,2022-11-07,1,,,,,イナペースト,0
1913,6100001035855,新規,0,2022-11-07,2022-11-07,株式会社蒼空,,株式会社,長野県,松本市,寿南１丁目２９番４号,,20,202,3990027,,,,,,,2022-11-07,1,,,,,アオゾラ,0
1916,6100003006755,新規,0,2022-11-07,2022-11-07,合同会社ｋｎｏｔ,,合同会社,長野県,長野市,大字川合新田４８６番地４,,20,201,3800913,,,,,,,2022-11-07,1,,,,,ノット,0
1917,6100003006763,新規,0,2022-11-07,2022-11-07,Ｓｕｗａ　Ｅｍｉｓｓｉｏｎ　Ｐｌａｔｆｏｒｍ合同会社,,合同会社,長野県,諏訪市,大字豊田５４８１番地２５,,20,206,3920016,,,,,,,2022-11-07,1,,,,,スワエミッションプラットフォーム,0
1918,6110001037074,新規,0,2022-11-07,2022-11-07,ＢＬＡＳＴＭＡＮ株式会社,,株式会社,新潟県,三条市,石上１丁目１０番２６号,,15,204,9550084,,,,,,,2022-11-07,1,,,,,ブラストマン,0
1938,6120001249998,新規,0,2022-11-07,2022-11-07,株式会社Ｙ‐Ｆｏｕｒ,,株式会社,大阪府,大阪市浪速区,桜川２丁目９番１３号桜川パークマンション１階,,27,111,5560022,,,,,,,2022-11-07,1,,,,,ワイフォー,0
1939,6120001250007,新規,0,2022-11-07,2022-11-07,株式会社Ｍａｃｙｓ,,株式会社,大阪府,大阪市中央区,博労町１丁目７番１１号,,27,128,5410059,,,,,,,2022-11-07,1,,,,,メーシーズ,0
1940,6120001250056,新規,0,2022-11-07,2022-11-07,株式会社ＬＯＯＶＥ,,株式会社,大阪府,大阪市淀川区,十三東２丁目１２番３６号ＨＫＲＥＳＩＤＥＮＣＥ２０３号,,27,123,5320023,,,,,,,2022-11-07,1,,,,,ルーヴ,0
1941,6120001250106,新規,0,2022-11-07,2022-11-07,株式会社エヌメタル,,株式会社,大阪府,大阪市平野区,加美北９丁目１４番２９号,,27,126,5470001,,,,,,,2022-11-07,1,,,,,エヌメタル,0
1946,6120003022783,新規,0,2022-11-07,2022-11-07,合同会社３３３,,合同会社,大阪府,大阪市平野区,加美東１丁目８番１２号,,27,126,5470002,,,,,,,2022-11-07,1,,,,,サンサンサン,0
1948,6120101066476,新規,0,2022-11-07,2022-11-07,株式会社かけはし,,株式会社,大阪府,堺市堺区,緑ヶ丘北町４丁４番２４号,,27,141,5900806,,,,,,,2022-11-07,1,,,,,カケハシ,0
1949,6120103004905,新規,0,2022-11-07,2022-11-07,合同会社松井堂,,合同会社,大阪府,岸和田市,下松町１１４６番地の３,,27,202,5960823,,,,,,,2022-11-07,1,,,,,マツイドウ,0
1950,6120105009638,新規,0,2022-11-07,2022-11-07,社会保険労務士法人堺労務事務所,,その他の設立登記法人,大阪府,堺市堺区,戎島町４丁４５番地１ポルタス・センタービル１０階,,27,141,5900985,,,,,,,2022-11-07,1,,,,,サカイロウムジムショ,0
1952,6120901046685,新規,0,2022-11-07,2022-11-07,株式会社Ｇ‐ＳＴＯＮＥ,,株式会社,大阪府,豊中市,庄内栄町３丁目２３番１７号,,27,203,5610834,,,,,,,2022-11-07,1,,,,,ジーストーン,0
1961,6130001072978,新規,0,2022-11-07,2022-11-07,大有テック株式会社,,株式会社,京都府,京都市下京区,中堂寺南町１３４番地京都リサーチパークＡＳＴＥＭ棟８階８Ｄ１４,,26,106,6008813,,,,,,,2022-11-07,1,,,,,ダイユウテック,0
1962,6130003008229,新規,0,2022-11-07,2022-11-07,合同会社ａｎａｕｂｅ,,合同会社,京都府,相楽郡精華町,桜が丘２丁目５－４,,26,366,6190232,,,,,,,2022-11-07,1,,,,,アンオーブ,0
1968,6140001127905,新規,0,2022-11-07,2022-11-07,株式会社Ｌａ　ｌｕｃｈｅ,,株式会社,兵庫県,神戸市中央区,伊藤町１０９番地ルネ神戸旧居留地１０９番館４０４号,,28,110,6500032,,,,,,,2022-11-07,1,,,,,ラルーシュ,0
1969,6140001127913,新規,0,2022-11-07,2022-11-07,株式会社神和エスリート,,株式会社,兵庫県,神戸市中央区,浜辺通６丁目１番１－１６１１号,,28,110,6510083,,,,,,,2022-11-07,1,,,,,シンワエスリート,0
1970,6140001127921,新規,0,2022-11-07,2022-11-07,株式会社Ａｃｔｉｖｅ,,株式会社,兵庫県,三田市,南が丘２丁目４番２１号２Ｆ,,28,219,6691535,,,,,,,2022-11-07,1,,,,,アクティブ,0
1989,6180001153600,新規,0,2022-11-07,2022-11-07,株式会社アルファプラン,,株式会社,愛知県,知多市,八幡新町１丁目１０番地９一光ロジェ朝倉２０４,,23,224,4780052,,,,,,,2022-11-07,1,,,,,アルファプラン,0
1990,6180001153617,新規,0,2022-11-07,2022-11-07,ワイズプラン株式会社,,株式会社,愛知県,名古屋市千種区,星が丘山手４０１番地,,23,101,4640808,,,,,,,2022-11-07,1,,,,,ワイズプラン,0
1991,6180001153625,新規,0,2022-11-07,2022-11-07,ライフタイム株式会社,,株式会社,愛知県,名古屋市中区,丸の内３丁目１６番１１号,,23,106,4600002,,,,,,,2022-11-07,1,,,,,ライフタイム,0
1992,6180001153633,新規,0,2022-11-07,2022-11-07,Ｌａｂｏｒコンサルティング株式会社,,株式会社,愛知県,名古屋市東区,東桜１丁目１番１号,,23,102,4610005,,,,,,,2022-11-07,1,,,,,レイバーコンサルティング,0
1993,6180001153658,新規,0,2022-11-07,2022-11-07,ふくらあん株式会社,,株式会社,愛知県,一宮市,西島町１丁目２番地,,23,203,4910062,,,,,,,2022-11-07,1,,,,,フクラアン,0
1994,6180001153666,新規,0,2022-11-07,2022-11-07,マルセイ株式会社,,株式会社,愛知県,北名古屋市,山之腰五条１２３番地,,23,234,4810036,,,,,,,2022-11-07,1,,,,,マルセイ,0
1995,6180001153682,新規,0,2022-11-07,2022-11-07,株式会社ブラッシュ,,株式会社,愛知県,名古屋市港区,川西通５丁目９番地,,23,111,4550073,,,,,,,2022-11-07,1,,,,,ブラッシュ,0
1996,6180001153690,新規,0,2022-11-07,2022-11-07,協和フェンス株式会社,,株式会社,愛知県,名古屋市中村区,北畑町３丁目４３番地,,23,105,4530815,,,,,,,2022-11-07,1,,,,,キョウワフェンス,0
1997,6180001153699,新規,0,2022-11-07,2022-11-07,株式会社クリエイト,,株式会社,愛知県,名古屋市守山区,太田井１０番３０号,,23,113,4630044,,,,,,,2022-11-07,1,,,,,クリエイト,0
1998,6180001153716,新規,0,2022-11-07,2022-11-07,株式会社ベル８,,株式会社,愛知県,春日井市,森山田町８３番地１,,23,206,4860935,,,,,,,2022-11-07,1,,,,,ベルエイト,0
1999,6180001153740,新規,0,2022-11-07,2022-11-07,株式会社鈴舎,,株式会社,愛知県,あま市,石作北浦１２６番地１グラシアＭ１０２号,,23,237,4901102,,,,,,,2022-11-07,1,,,,,スズヤ,0
2003,6180003024436,新規,0,2022-11-07,2022-11-07,合同会社生る,,合同会社,愛知県,名古屋市千種区,豊年町３番１８号,,23,101,4640076,,,,,,,2022-11-07,1,,,,,ナル,0
2004,6180003024444,新規,0,2022-11-07,2022-11-07,わくわくゼミナール合同会社,,合同会社,愛知県,名古屋市西区,中小田井２丁目３４番地,,23,104,4520822,,,,,,,2022-11-07,1,,,,,ワクワクゼミナール,0
2008,6190001029873,新規,0,2022-11-07,2022-11-07,株式会社エッジ・デザイン,,株式会社,三重県,鈴鹿市,江島町１４３１番地の１,,24,207,5100237,,,,,,,2022-11-07,1,,,,,エッジデザイン,0
2009,6190001029881,新規,0,2022-11-07,2022-11-07,株式会社ＬｉＢ,,株式会社,三重県,南牟婁郡紀宝町,鵜殿６０７番地１,,24,562,5195701,,,,,,,2022-11-07,1,,,,,リブ,0
2010,6190001029898,新規,0,2022-11-07,2022-11-07,ヤマムラ工業株式会社,,株式会社,三重県,松阪市,星合町２３７６番地,,24,204,5152101,,,,,,,2022-11-07,1,,,,,ヤマムラコウギョウ,0
2011,6190001029907,新規,0,2022-11-07,2022-11-07,株式会社ＩＳＥらぼ,,株式会社,三重県,伊勢市,神久２丁目１番３７号,,24,203,5160017,,,,,,,2022-11-07,1,,,,,イセラボ,0
2023,6240001060625,新規,0,2022-11-07,2022-11-07,株式会社ＴＲ企画,,株式会社,広島県,福山市,港町１丁目１３番４号,,34,207,7210964,,,,,,,2022-11-07,1,,,,,ティアールキカク,0
2029,6250001019827,新規,0,2022-11-07,2022-11-07,株式会社厚狭新聞販売店,,株式会社,山口県,下関市,東観音町１５番１６号,,35,201,7520906,,,,,,,2022-11-07,1,,,,,アサシンブンハンバイテン,0
2030,6250001019835,新規,0,2022-11-07,2022-11-07,株式会社Ｙ２,,株式会社,山口県,山口市,湯田温泉１丁目６番３０号,,35,203,7530056,,,,,,,2022-11-07,1,,,,,ワイツー,0
2034,6260003004099,新規,0,2022-11-07,2022-11-07,ＣＡＲＹＯＰＳＥ合同会社,,合同会社,岡山県,岡山市中区,賞田４３０番地１,,33,102,7038206,,,,,,,2022-11-07,1,,,,,カリオプス,0
2037,6290001099411,新規,0,2022-11-07,2022-11-07,株式会社リッチブライト,,株式会社,福岡県,春日市,春日原北町４丁目７番地,,40,218,8160802,,,,,,,2022-11-07,1,,,,,リッチブライト,0
2038,6290001099469,新規,0,2022-11-07,2022-11-07,株式会社雄将工務店,,株式会社,福岡県,福岡市早良区,次郎丸５丁目１０番１６号,,40,137,8140165,,,,,,,2022-11-07,1,,,,,ユウショウコウムテン,0
2039,6290001099477,新規,0,2022-11-07,2022-11-07,株式会社Ａ・Ｋ,,株式会社,福岡県,福岡市早良区,百道浜４丁目３１番１号ネクサス百道レジデンシャルタワー７０１号室,,40,137,8140001,,,,,,,2022-11-07,1,,,,,エーケー,0
2041,6290005018846,新規,0,2022-11-07,2022-11-07,如水社会保険労務士法人,,その他の設立登記法人,福岡県,福岡市中央区,赤坂１丁目１２番１５号,,40,133,8100042,,,,,,,2022-11-07,1,,,,,ジョスイ,0
2051,6320003003937,新規,0,2022-11-07,2022-11-07,合同会社ＳＩＤＡＤＩＹＥ　ＫＡＤＥ,,合同会社,大分県,別府市,北浜２丁目６番６号信用ビル４０１,,44,202,8740920,,,,,,,2022-11-07,1,,,,,シダディエカデ,0
2052,6330001030271,新規,0,2022-11-07,2022-11-07,株式会社ＴＡＩＴＯ,,株式会社,熊本県,熊本市中央区,河原町２,,43,101,8600023,,,,,,,2022-11-07,1,,,,,タイト,0
2055,6340001025122,新規,0,2022-11-07,2022-11-07,株式会社ＬＰＡ,,株式会社,鹿児島県,奄美市,名瀬金久町１４番１５号,,46,222,8940031,,,,,,,2022-11-07,1,,,,,エルパ,0
2056,6340001025130,新規,0,2022-11-07,2022-11-07,ＡＭＳモータース株式会社,,株式会社,鹿児島県,霧島市,福山町福山６２０４番地１,,46,218,8994501,,,,,,,2022-11-07,1,,,,,エーエムエスモータース,0
2057,6340001025139,新規,0,2022-11-07,2022-11-07,株式会社名電工,,株式会社,鹿児島県,薩摩郡さつま町,船木８３７番地９,,46,392,8951804,,,,,,,2022-11-07,1,,,,,メイデンコウ,0
2060,6340003003951,新規,0,2022-11-07,2022-11-07,合同会社マコトダクト,,合同会社,鹿児島県,薩摩川内市,永利町１４９４番地１,,46,215,8950005,,,,,,,2022-11-07,1,,,,,マコトダクト,0
2062,6350003004214,新規,0,2022-11-07,2022-11-07,合同会社糸,,合同会社,宮崎県,都城市,下川東４丁目１８号８番地,,45,202,8850011,,,,,,,2022-11-07,1,,,,,イト,0
2069,6370003005879,新規,0,2022-11-07,2022-11-07,合同会社ｔｅｎ,,合同会社,宮城県,仙台市太白区,四郎丸字前７２番地アーベインヒルズ２０５,,04,104,9811101,,,,,,,2022-11-07,1,,,,,テン,0
2077,6410003003713,新規,0,2022-11-07,2022-11-07,合同会社ＯＮＵＫＩコーポレーションＪＡＰＡＮ,,合同会社,秋田県,横手市,平鹿町浅舞字野々助１５１番地３,,05,203,0130105,,,,,,,2022-11-07,1,,,,,オヌキコーポレーションジャパン,0
2081,6430001087789,新規,0,2022-11-07,2022-11-07,株式会社Ｋアールエム,,株式会社,北海道,石狩市,花川南十条３丁目１５９番地１ほとり九番館１０１号,,01,235,0613210,,,,,,,2022-11-07,1,,,,,ケイアールエム,0
2082,6430003014444,新規,0,2022-11-07,2022-11-07,合同会社カムラッド,,合同会社,北海道,苫小牧市,有珠の沢町４丁目１４番１７号,,01,213,0530842,,,,,,,2022-11-07,1,,,,,カムラッド,0
2083,6440001009180,新規,0,2022-11-07,2022-11-07,株式会社Ｂｌｉｓｓ’ｎ’Ｆｌａｉｒ,,株式会社,北海道,函館市,船見町８番１８号,,01,202,0400055,,,,,,,2022-11-07,1,,,,,ブリスンフレア,0
2085,6460101007272,新規,0,2022-11-07,2022-11-07,株式会社山元,,株式会社,北海道,帯広市,西十条南１１丁目１番地２,,01,207,0800020,,,,,,,2022-11-07,1,,,,,ヤマモト,0
2094,6500001024578,新規,0,2022-11-07,2022-11-07,脇田水産株式会社,,株式会社,愛媛県,宇和島市,日振島３０８６番地,,38,203,7980099,,,,,,,2022-11-07,1,,,,,ワキタスイサン,0
2097,6700150112601,新規,0,2022-11-07,2022-11-07,ＦｏｘｗｏｏｄＰｒｏｐｅｒｔｙＣｏｍｐａｎｙＬｉｍｉｔｅｄ,,外国会社等,北海道,虻田郡ニセコ町,字東山４６番２７,,01,395,0481521,２０／Ｆ　ＣＨＥＵＮＧ　ＬＥＥ　ＩＮＤ　ＢＬＤＧ　９　ＣＨＥＵＮＧ　ＬＥＥ　ＳＴ　ＣＨＡＩ　ＷＡＮ　ＨＫ,,,,,,2022-11-07,1,,,,,フオツクスウツドプロパテイーカンパニーリミテツド,0
2106,7010001230547,新規,0,2022-11-07,2022-11-07,インフィニティア株式会社,,株式会社,東京都,中央区,八丁堀３丁目１６番４号－１１,,13,102,1040032,,,,,,,2022-11-07,1,,,,,インフィニティア,0
2107,7010001230571,新規,0,2022-11-07,2022-11-07,株式会社ナガタホールディングス,,株式会社,東京都,中央区,京橋１丁目１１－１関電不動産八重洲ビル３階,,13,102,1040031,,,,,,,2022-11-07,1,,,,,ナガタホールディングス,0
2108,7010001230605,新規,0,2022-11-07,2022-11-07,株式会社Ａｌｆａｎｓ,,株式会社,東京都,中央区,日本橋２丁目２番３号ＲＩＳＨＥビルＵＣＦ４階,,13,102,1030027,,,,,,,2022-11-07,1,,,,,オルファンズ,0
2109,7010001230621,新規,0,2022-11-07,2022-11-07,株式会社ＯＮＯＤＡＩ,,株式会社,東京都,中央区,銀座４丁目１０番３号セントラルビル７Ｆ,,13,102,1040061,,,,,,,2022-11-07,1,,,,,オノダイ,0
2117,7010401170599,新規,0,2022-11-07,2022-11-07,株式会社ＢＥＮＺＡＩＴＥＮ,,株式会社,東京都,港区,北青山３丁目６番７号青山パラシオタワー１１階,,13,103,1070061,,,,,,,2022-11-07,1,,,,,ベンザイテン,0
2118,7010401170640,新規,0,2022-11-07,2022-11-07,株式会社エドエンシスジャパン,,株式会社,東京都,港区,南青山６丁目９番１０－２０２号,,13,103,1070062,,,,,,,2022-11-07,1,,,,,エドエンシスジャパン,0
2119,7010401170649,新規,0,2022-11-07,2022-11-07,株式会社Ｅｕｓｋａｄｉ,,株式会社,東京都,港区,六本木７丁目６番２－７０２号,,13,103,1060032,,,,,,,2022-11-07,1,,,,,エオウスカディ,0
2120,7010401170657,新規,0,2022-11-07,2022-11-07,ＥＮＩＸＩＡＳ株式会社,,株式会社,東京都,港区,浜松町１丁目３０番５－１９０１号,,13,103,1050013,,,,,,,2022-11-07,1,,,,,エニシアス,0
2121,7010401170673,新規,0,2022-11-07,2022-11-07,天幸製薬株式会社,,株式会社,東京都,港区,虎ノ門４丁目３－１城山トラストタワー２７階,,13,103,1050001,,,,,,,2022-11-07,1,,,,,テンコウセイヤク,0
2127,7010403028837,新規,0,2022-11-07,2022-11-07,合同会社Ｍａｇｅｉａ,,合同会社,東京都,港区,南青山２丁目２番１５号,,13,103,1070062,,,,,,,2022-11-07,1,,,,,マギア,0
2132,7010601062101,新規,0,2022-11-07,2022-11-07,株式会社ＫＡＩ,,株式会社,東京都,江東区,東雲１丁目９番４２－３５０４号,,13,108,1350062,,,,,,,2022-11-07,1,,,,,カイ,0
2135,7010701043414,新規,0,2022-11-07,2022-11-07,株式会社オッティモ,,株式会社,東京都,品川区,東五反田３丁目１６番５３号,,13,109,1410022,,,,,,,2022-11-07,1,,,,,オッティモ,0
2136,7010801033406,新規,0,2022-11-07,2022-11-07,株式会社リプロプラス,,株式会社,東京都,大田区,西蒲田７丁目３２番２号,,13,111,1440051,,,,,,,2022-11-07,1,,,,,リプロプラス,0
2142,7010901051919,新規,0,2022-11-07,2022-11-07,株式会社ＳＡＣ,,株式会社,東京都,世田谷区,千歳台３丁目３０番１７号ベルヴェデールヒロ２０１号,,13,112,1570071,,,,,,,2022-11-07,1,,,,,エスエーシー,0
2143,7010905004393,新規,0,2022-11-07,2022-11-07,一般社団法人アスリートの羅針盤,,その他の設立登記法人,東京都,世田谷区,松原２丁目４２番７－８０４号,,13,112,1560043,,,,,,,2022-11-07,1,,,,,アスリートノラシンバン,0
2152,7011001150685,新規,0,2022-11-07,2022-11-07,株式会社ＴＲＵＸ,,株式会社,東京都,渋谷区,渋谷２丁目１５番１号,,13,113,1500002,,,,,,,2022-11-07,1,,,,,トラックス,0
2153,7011001150710,新規,0,2022-11-07,2022-11-07,ＫＯＳＵＭＵ株式会社,,株式会社,東京都,目黒区,三田２丁目７番１０－３０８号セントラル目黒,,13,110,1530062,,,,,,,2022-11-07,1,,,,,コスム,0
2154,7011001150719,新規,0,2022-11-07,2022-11-07,株式会社ＳＯＭＯＳ　ＦＡＭＩＬＩＡ,,株式会社,東京都,渋谷区,代々木４丁目１６番４号１０１,,13,113,1510053,,,,,,,2022-11-07,1,,,,,ソモスファミリア,0
2155,7011001150727,新規,0,2022-11-07,2022-11-07,Ｌｉｔ’ｓ株式会社,,株式会社,東京都,渋谷区,神宮前６丁目２５番８号９１０,,13,113,1500001,,,,,,,2022-11-07,1,,,,,リッツ,0
2156,7011001150735,新規,0,2022-11-07,2022-11-07,株式会社ＭＹＣアソシエイツ,,株式会社,東京都,渋谷区,恵比寿１丁目３０番１４－１８０２号,,13,113,1500013,,,,,,,2022-11-07,1,,,,,エムワイシーアソシエイツ,0
2157,7011001150743,新規,0,2022-11-07,2022-11-07,株式会社ＴＳＵＢＡＫＩ,,株式会社,東京都,渋谷区,恵比寿１丁目１５番９号日宝恵比寿ビル内,,13,113,1500013,,,,,,,2022-11-07,1,,,,,ツバキ,0
2158,7011001150768,新規,0,2022-11-07,2022-11-07,株式会社Ｆｏｏｌｉｓｈ,,株式会社,東京都,渋谷区,道玄坂１丁目１０番８号渋谷道玄坂東急ビル２Ｆ－Ｃ,,13,113,1500043,,,,,,,2022-11-07,1,,,,,フーリッシュ,0
2164,7011101100739,新規,0,2022-11-07,2022-11-07,日隆株式会社,,株式会社,東京都,新宿区,西新宿４丁目１６番３号,,13,104,1600023,,,,,,,2022-11-07,1,,,,,ヒリュウ,0
2165,7011103012338,新規,0,2022-11-07,2022-11-07,Ａｌｌｉｅｓ　Ｃｏｎｎｅｃｔ合同会社,,合同会社,東京都,新宿区,河田町３番５１－２１１０号,,13,104,1620054,,,,,,,2022-11-07,1,,,,,アライズコネクト,0
2166,7011103012346,新規,0,2022-11-07,2022-11-07,合同会社ダーヤマ,,合同会社,東京都,新宿区,西新宿３丁目３番１３号西新宿水間ビル２Ｆ,,13,104,1600023,,,,,,,2022-11-07,1,,,,,ダーヤマ,0
2167,7011303004564,新規,0,2022-11-07,2022-11-07,クラウドペイメントサービス合同会社,,合同会社,東京都,杉並区,桃井１丁目２７番１３号コートハウス桃井１０１,,13,115,1670034,,,,,,,2022-11-07,1,,,,,クラウドペイメントサービス,0
2169,7011401024654,新規,0,2022-11-07,2022-11-07,株式会社Ｌｉｄａｍ,,株式会社,東京都,板橋区,大谷口上町４番１６号,,13,119,1730032,,,,,,,2022-11-07,1,,,,,リダム,0
2173,7011501028638,新規,0,2022-11-07,2022-11-07,株式会社Ｐ＆Ａコーポレーション,,株式会社,東京都,荒川区,西日暮里２丁目１６番３－１０２号,,13,118,1160013,,,,,,,2022-11-07,1,,,,,ピーアンドエーコーポレーション,0
2181,7011803005351,新規,0,2022-11-07,2022-11-07,連合創エネルギー合同会社,,合同会社,東京都,足立区,江北１丁目１４番１０－６０５号,,13,121,1230872,,,,,,,2022-11-07,1,,,,,レンゴウソウエネルギー,0
2189,7012701017331,新規,0,2022-11-07,2022-11-07,株式会社フォワーズ,,株式会社,東京都,東村山市,秋津町３丁目１１番地３１,,13,213,1890001,,,,,,,2022-11-07,1,,,,,フォワーズ,0
2198,7020001148796,新規,0,2022-11-07,2022-11-07,株式会社Ｌｏｈ,,株式会社,神奈川県,横浜市神奈川区,栄町２０番地４ビッグヴァンポートサイド横浜５０２号,,14,102,2210052,,,,,,,2022-11-07,1,,,,,エルオーエイチ,0
2199,7020001148805,新規,0,2022-11-07,2022-11-07,株式会社アシスティア,,株式会社,神奈川県,横浜市南区,三春台４０番地,,14,105,2320002,,,,,,,2022-11-07,1,,,,,アシスティア,0
2200,7020001148813,新規,0,2022-11-07,2022-11-07,Ｍプラント株式会社,,株式会社,神奈川県,川崎市川崎区,中島３丁目１７番１号,,14,131,2100806,,,,,,,2022-11-07,1,,,,,エムプラント,0
2201,7020001148821,新規,0,2022-11-07,2022-11-07,株式会社ＰＴＧ,,株式会社,神奈川県,横浜市青葉区,美しが丘西３丁目６３番地８ルネたまプラーザＥ－４３８,,14,117,2250001,,,,,,,2022-11-07,1,,,,,ピーティージー,0
2202,7020001148846,新規,0,2022-11-07,2022-11-07,株式会社ジェイエス,,株式会社,神奈川県,横浜市戸塚区,上矢部町４４０番地１グランガーデン東戸塚６２５号,,14,110,2450053,,,,,,,2022-11-07,1,,,,,ジェイエス,0
2203,7020001148854,新規,0,2022-11-07,2022-11-07,株式会社ＳＨＤ,,株式会社,神奈川県,横浜市保土ケ谷区,天王町１丁目２番５号杉本ビル１Ｆ,,14,106,2400003,,,,,,,2022-11-07,1,,,,,エスエイチディー,0
2204,7020001148862,新規,0,2022-11-07,2022-11-07,株式会社ＩＰ,,株式会社,神奈川県,横浜市神奈川区,浦島町４番地５ＳｏｌａｎａＹＯＫＯＨＡＭＡ４０２号,,14,102,2210042,,,,,,,2022-11-07,1,,,,,アイピー,0
2205,7020001148870,新規,0,2022-11-07,2022-11-07,株式会社ＰＶＳ　Ｆｏｏｄｓ,,株式会社,神奈川県,川崎市多摩区,南生田４丁目２０番１８号,,14,135,2140036,,,,,,,2022-11-07,1,,,,,ピーブイエスフーズ,0
2211,7021001077333,新規,0,2022-11-07,2022-11-07,株式会社ダイレクト２１,,株式会社,神奈川県,相模原市南区,上鶴間本町７丁目１番１号,,14,153,2520318,,,,,,,2022-11-07,1,,,,,ダイレクトニジュウイチ,0
2212,7021001077341,新規,0,2022-11-07,2022-11-07,株式会社Ｌｏｏｋｕｐ,,株式会社,神奈川県,相模原市南区,古淵２丁目１６番９号,,14,153,2520344,,,,,,,2022-11-07,1,,,,,ルックアップ,0
2213,7021001077366,新規,0,2022-11-07,2022-11-07,株式会社いしだるま,,株式会社,神奈川県,鎌倉市,材木座３丁目１番６号,,14,204,2480013,,,,,,,2022-11-07,1,,,,,イシダルマ,0
2214,7021001077390,新規,0,2022-11-07,2022-11-07,株式会社Ｋ‐ｓｔｙｌｅ,,株式会社,神奈川県,相模原市中央区,上溝８５９番地６,,14,152,2520243,,,,,,,2022-11-07,1,,,,,ケースタイル,0
2215,7021001077399,新規,0,2022-11-07,2022-11-07,株式会社Ｍｏｒｅ　ｗａｎｔ,,株式会社,神奈川県,小田原市,曽比１８８１－１,,14,206,2500851,,,,,,,2022-11-07,1,,,,,モアウォント,0
2223,7030001150834,新規,0,2022-11-07,2022-11-07,株式会社チャンプ,,株式会社,埼玉県,和光市,南１丁目１番２４号,,11,229,3510104,,,,,,,2022-11-07,1,,,,,チャンプ,0
2224,7030001150850,新規,0,2022-11-07,2022-11-07,株式会社ＳＴＡＮＤ　ＯＵＴ,,株式会社,埼玉県,上尾市,上町２丁目５番１０号サンフラワー１０３,,11,219,3620037,,,,,,,2022-11-07,1,,,,,スタンドアウト,0
2225,7030001150883,新規,0,2022-11-07,2022-11-07,株式会社ケーイーエム,,株式会社,埼玉県,所沢市,大字下富１３６番地,,11,208,3590001,,,,,,,2022-11-07,1,,,,,ケーイーエム,0
2226,7030001150891,新規,0,2022-11-07,2022-11-07,株式会社前上空調,,株式会社,埼玉県,川口市,前上町２２番１３号,,11,203,3330843,,,,,,,2022-11-07,1,,,,,マエカミクウチョウ,0
2227,7030001150900,新規,0,2022-11-07,2022-11-07,さいたマンゴー株式会社,,株式会社,埼玉県,入間郡毛呂山町,大字川角３５９番地１,,11,326,3500436,,,,,,,2022-11-07,1,,,,,サイタマンゴー,0
2228,7030001150917,新規,0,2022-11-07,2022-11-07,むさしクリーンテック株式会社,,株式会社,埼玉県,川口市,本町４丁目５番３２－１００５号フジタ川口マンション,,11,203,3320012,,,,,,,2022-11-07,1,,,,,ムサシクリーンテック,0
2229,7030001150933,新規,0,2022-11-07,2022-11-07,株式会社ＪＯＹＣＡＳＴ,,株式会社,埼玉県,東松山市,大字大谷１３０８番地４,,11,212,3550008,,,,,,,2022-11-07,1,,,,,ジョイキャスト,0
2230,7030001150941,新規,0,2022-11-07,2022-11-07,株式会社ｓｗｅｅｐ,,株式会社,埼玉県,さいたま市見沼区,春岡２丁目４６番地１０,,11,104,3370008,,,,,,,2022-11-07,1,,,,,スイープ,0
2234,7030003020481,新規,0,2022-11-07,2022-11-07,ＴＤ合同会社,,合同会社,埼玉県,志木市,本町５丁目７番５号,,11,228,3530004,,,,,,,2022-11-07,1,,,,,ティーディー,0
2235,7030003020507,新規,0,2022-11-07,2022-11-07,ＭａｋｅＯｎｅ合同会社,,合同会社,埼玉県,川越市,大字久下戸２７７０番地５,,11,201,3500011,,,,,,,2022-11-07,1,,,,,メイクワン,0
2243,7040001125678,新規,0,2022-11-07,2022-11-07,株式会社ロジボンドプラス,,株式会社,千葉県,流山市,東初石３丁目１１１番地の１ウッドパーク初石Ａ－５０３,,12,220,2700114,,,,,,,2022-11-07,1,,,,,ロジボンドプラス,0
2244,7040001125694,新規,0,2022-11-07,2022-11-07,株式会社エステートあいおい,,株式会社,千葉県,千葉市若葉区,愛生町１１８番地３,,12,104,2640031,,,,,,,2022-11-07,1,,,,,エステートアイオイ,0
2245,7040001125728,新規,0,2022-11-07,2022-11-07,株式会社Ｒ＆Ｔ・ＰＢＷＥ,,株式会社,千葉県,千葉市若葉区,西都賀３丁目１４番５号,,12,104,2640026,,,,,,,2022-11-07,1,,,,,アールアンドティーピーヴェ,0
2246,7040001125744,新規,0,2022-11-07,2022-11-07,株式会社治,,株式会社,千葉県,千葉市緑区,誉田町２丁目２７番地５８,,12,105,2660005,,,,,,,2022-11-07,1,,,,,ハル,0
2248,7040003021033,新規,0,2022-11-07,2022-11-07,合同会社スマートコンサルティング,,合同会社,千葉県,千葉市花見川区,西小中台６－５４,,12,102,2620016,,,,,,,2022-11-07,1,,,,,スマートコンサルティング,0
2249,7040003021215,新規,0,2022-11-07,2022-11-07,ウィズザイムコンサルティング合同会社,,合同会社,千葉県,千葉市花見川区,幕張本郷１丁目３０番３１－５０８号,,12,102,2620033,,,,,,,2022-11-07,1,,,,,ウィズザイムコンサルティング,0
2252,7050001051907,新規,0,2022-11-07,2022-11-07,株式会社Ｓｔａｎｄ　ｏｕｔ　Ｆｉｔ　ｉｎ,,株式会社,茨城県,小美玉市,中野谷４４４番地４,,08,236,3190111,,,,,,,2022-11-07,1,,,,,スタンドアウトフィットイン,0
2253,7050001051923,新規,0,2022-11-07,2022-11-07,株式会社ティエムオートジャパン,,株式会社,茨城県,東茨城郡茨城町,大字城之内７００番地１,,08,302,3113138,,,,,,,2022-11-07,1,,,,,ティエムオートジャパン,0
2255,7050003006982,新規,0,2022-11-07,2022-11-07,向後商事合同会社,,合同会社,茨城県,神栖市,知手３５５８番地２,,08,232,3140115,,,,,,,2022-11-07,1,,,,,コウゴショウジ,0
2269,7090001017838,新規,0,2022-11-07,2022-11-07,バンソウ株式会社,,株式会社,山梨県,甲斐市,万才５８１番地の４,,19,210,4000114,,,,,,,2022-11-07,1,,,,,バンソウ,0
2271,7100001035846,新規,0,2022-11-07,2022-11-07,株式会社エレファントチーム,,株式会社,長野県,下伊那郡高森町,吉田２３４９番地１２,,20,403,3993102,,,,,,,2022-11-07,1,,,,,エレファントチーム,0
2274,7100003006754,新規,0,2022-11-07,2022-11-07,合同会社丸山農園,,合同会社,長野県,長野市,安茂里小市３丁目８番１０号,,20,201,3800961,,,,,,,2022-11-07,1,,,,,マルヤマノウエン,0
2275,7100003006762,新規,0,2022-11-07,2022-11-07,削り屋くどう合同会社,,合同会社,長野県,須坂市,大字塩野町塩野工業団地１１１９番地２,,20,207,3820000,,,,,,,2022-11-07,1,,,,,ケズリヤクドウ,0
2277,7110001037073,新規,0,2022-11-07,2022-11-07,株式会社ジャパン・フード・クリエイト,,株式会社,新潟県,村上市,坂町２７６５番地１,,15,212,9593132,,,,,,,2022-11-07,1,,,,,ジャパンフードクリエイト,0
2290,7120001249931,新規,0,2022-11-07,2022-11-07,西場商事株式会社,,株式会社,大阪府,大阪市西区,京町堀１丁目９番１０号,,27,106,5500003,,,,,,,2022-11-07,1,,,,,ニシバショウジ,0
2291,7120001249972,新規,0,2022-11-07,2022-11-07,青桜株式会社,,株式会社,大阪府,大阪市淀川区,十三元今里２丁目１２番２５号１０３室,,27,123,5320028,,,,,,,2022-11-07,1,,,,,セイオウ,0
2292,7120001249997,新規,0,2022-11-07,2022-11-07,株式会社ＢＴＢ,,株式会社,大阪府,大阪市北区,大淀北１丁目６番２１－１２１６号,,27,127,5310077,,,,,,,2022-11-07,1,,,,,ビーティービー,0
2293,7120001250022,新規,0,2022-11-07,2022-11-07,株式会社Ｇ‐ＷＡＶＥ,,株式会社,大阪府,大阪市北区,芝田２丁目８番１１号,,27,127,5300012,,,,,,,2022-11-07,1,,,,,ジーウェイブ,0
2294,7120001250030,新規,0,2022-11-07,2022-11-07,株式会社Ａ‐ｒｉｓｅ,,株式会社,大阪府,大阪市東住吉区,今川６丁目４番１４号,,27,121,5460003,,,,,,,2022-11-07,1,,,,,エーライズ,0
2295,7120001250047,新規,0,2022-11-07,2022-11-07,株式会社タブチ企画製作所,,株式会社,大阪府,大阪市中央区,千日前１丁目６番１号２０３号室,,27,128,5420074,,,,,,,2022-11-07,1,,,,,タブチキカクセイサクショ,0
2296,7120001250063,新規,0,2022-11-07,2022-11-07,ＭＹ　ＳｅｃｒｅｔＢａｓｅ株式会社,,株式会社,大阪府,大阪市西成区,潮路１丁目１０番４号,,27,122,5570052,,,,,,,2022-11-07,1,,,,,マイシークレットベース,0
2302,7120003022766,新規,0,2022-11-07,2022-11-07,合同会社ＳＡＢ,,合同会社,大阪府,大阪市住之江区,北加賀屋１丁目８番９号グランビルド北加賀屋５Ａ,,27,125,5590011,,,,,,,2022-11-07,1,,,,,エスエービー,0
2303,7120003022790,新規,0,2022-11-07,2022-11-07,合同会社ｂｅａｅｎｚ,,合同会社,大阪府,大阪市東住吉区,桑津３丁目８番８号,,27,121,5460041,,,,,,,2022-11-07,1,,,,,ヴェンズ,0
2307,7120005023275,新規,0,2022-11-07,2022-11-07,弁護士法人田中綜合法律事務所,,その他の設立登記法人,大阪府,大阪市北区,西天満３丁目７番３０号西天満・田中ビル,,27,127,5300047,,,,,,,2022-11-07,1,,,,,タナカソウゴウホウリツジムショ,0
2308,7120101066450,新規,0,2022-11-07,2022-11-07,株式会社ＣＩＰ,,株式会社,大阪府,堺市北区,南花田町８３番地１太平パシフィック南花田２０１号,,27,146,5918011,,,,,,,2022-11-07,1,,,,,シーアイピー,0
2311,7120103004912,新規,0,2022-11-07,2022-11-07,絆ＩＣＴオフィス合同会社,,合同会社,大阪府,堺市美原区,さつき野西１丁目９番地８,,27,147,5870031,,,,,,,2022-11-07,1,,,,,キズナアイシーティーオフィス,0
2313,7120901046676,新規,0,2022-11-07,2022-11-07,株式会社ＯＭＳ,,株式会社,大阪府,吹田市,原町２丁目２１番２０号,,27,205,5640004,,,,,,,2022-11-07,1,,,,,オーエムエス,0
2314,7120901046684,新規,0,2022-11-07,2022-11-07,株式会社ＡＣＩＬ,,株式会社,大阪府,吹田市,豊津町１５番３０－１１０１号,,27,205,5640051,,,,,,,2022-11-07,1,,,,,エイシル,0
2315,7120901046701,新規,0,2022-11-07,2022-11-07,株式会社Ｆｒｅｅ　Ｃｌｏｕｄ,,株式会社,大阪府,豊中市,庄内幸町４丁目１０番２３号,,27,203,5610833,,,,,,,2022-11-07,1,,,,,フリークラウド,0
2317,7122001036351,新規,0,2022-11-07,2022-11-07,株式会社トラスティ,,株式会社,大阪府,八尾市,上之島町南５丁目２８番地の６,,27,212,5810846,,,,,,,2022-11-07,1,,,,,トラスティ,0
2323,7130001072960,新規,0,2022-11-07,2022-11-07,株式会社ＬｉＡ,,株式会社,京都府,京都市伏見区,深草大亀谷万帖敷町１６８番地９,,26,109,6120846,,,,,,,2022-11-07,1,,,,,リア,0
2324,7130001072993,新規,0,2022-11-07,2022-11-07,株式会社叶機械設備工業,,株式会社,京都府,八幡市,戸津正ノ竹２３番地,,26,210,6148206,,,,,,,2022-11-07,1,,,,,カノウキカイセツビコウギョウ,0
2325,7130003008285,新規,0,2022-11-07,2022-11-07,合同会社ＴＡＭＵＲＡ,,合同会社,京都府,京都市中京区,新町通御池上る中之町５１番地イーグルコートラ・ヴァン御池８０２号,,26,104,6040032,,,,,,,2022-11-07,1,,,,,タムラ,0
2331,7140001127887,新規,0,2022-11-07,2022-11-07,株式会社ナカコー,,株式会社,兵庫県,神戸市東灘区,本山南町６丁目１番６号,,28,101,6580015,,,,,,,2022-11-07,1,,,,,ナカコー,0
2332,7140001127937,新規,0,2022-11-07,2022-11-07,株式会社リーガルオン,,株式会社,兵庫県,小野市,育ケ丘町１４７５番地の２５９,,28,218,6751324,,,,,,,2022-11-07,1,,,,,リーガルオン,0
2333,7140001127994,新規,0,2022-11-07,2022-11-07,株式会社リッジフィールド,,株式会社,兵庫県,西宮市,松園町１３－５－３,,28,204,6620053,,,,,,,2022-11-07,1,,,,,リッジフィールド,0
2341,7150001025925,新規,0,2022-11-07,2022-11-07,株式会社森田コーポレーション,,株式会社,奈良県,北葛城郡広陵町,大字三吉１１０番地,,29,426,6350823,,,,,,,2022-11-07,1,,,,,モリタコーポレーション,0
2344,7160001024604,新規,0,2022-11-07,2022-11-07,株式会社エスコーポレーション,,株式会社,滋賀県,草津市,川原４丁目７－９,,25,206,5250021,,,,,,,2022-11-07,1,,,,,エスコーポレーション,0
2345,7170001017350,新規,0,2022-11-07,2022-11-07,株式会社Ｗａｎ　Ｌｉｘ,,株式会社,和歌山県,岩出市,曽屋５７番地の１０,,30,209,6496236,,,,,,,2022-11-07,1,,,,,ワンリックス,0
2355,7180001153624,新規,0,2022-11-07,2022-11-07,内藤釀造株式会社,,株式会社,愛知県,稲沢市,祖父江町甲新田高須賀５２番地の１,,23,220,4950022,,,,,,,2022-11-07,1,,,,,ナイトウジョウゾウ,0
2356,7180001153632,新規,0,2022-11-07,2022-11-07,ＳＫＩＴ株式会社,,株式会社,愛知県,名古屋市緑区,鳴海町字山下３５番地の１,,23,114,4580801,,,,,,,2022-11-07,1,,,,,スキット,0
2357,7180001153649,新規,0,2022-11-07,2022-11-07,株式会社ａｎｄ　ｏｎｅ,,株式会社,愛知県,海部郡大治町,大字砂子字二又６番地の６,,23,424,4901143,,,,,,,2022-11-07,1,,,,,アンドワン,0
2358,7180001153665,新規,0,2022-11-07,2022-11-07,いつき住建株式会社,,株式会社,愛知県,名古屋市守山区,菱池町６番３１号,,23,113,4630045,,,,,,,2022-11-07,1,,,,,イツキジュウケン,0
2359,7180001153673,新規,0,2022-11-07,2022-11-07,株式会社ＣＮＳ,,株式会社,愛知県,名古屋市中村区,宿跡町１丁目６１番地‐ＩＩ２０２号,00128379,23,105,4530067,,,,,,,2022-11-07,1,,,,,シーエヌエス,0
2360,7180001153698,新規,0,2022-11-07,2022-11-07,株式会社カレラ,,株式会社,愛知県,名古屋市昭和区,紅梅町３丁目５番地の２,,23,107,4660031,,,,,,,2022-11-07,1,,,,,カレラ,0
2361,7180001153707,新規,0,2022-11-07,2022-11-07,株式会社釣友,,株式会社,愛知県,名古屋市東区,東桜１丁目３番７号,,23,102,4610005,,,,,,,2022-11-07,1,,,,,チョウユウ,0
2362,7180001153715,新規,0,2022-11-07,2022-11-07,ムーブペッツ株式会社,,株式会社,愛知県,名古屋市守山区,新守山２１０４番地,,23,113,4630070,,,,,,,2022-11-07,1,,,,,ムーブペッツ,0
2363,7180001153731,新規,0,2022-11-07,2022-11-07,株式会社ＨｅＬＬｏ,,株式会社,愛知県,名古屋市西区,枇杷島５丁目２０番２２号,,23,104,4510053,,,,,,,2022-11-07,1,,,,,ハロー,0
2364,7180001153748,新規,0,2022-11-07,2022-11-07,株式会社Ｓｎｕｇｇｌｅ　Ｊａｐａｎ,,株式会社,愛知県,名古屋市中区,錦１丁目４番１９号（プラウドタワー名古屋丸の内１１０７号）,,23,106,4600003,,,,,,,2022-11-07,1,,,,,スナグルジャパン,0
2370,7180003024435,新規,0,2022-11-07,2022-11-07,合同会社中部洗浄,,合同会社,愛知県,名古屋市瑞穂区,彌富通３丁目２番地の１,,23,108,4670064,,,,,,,2022-11-07,1,,,,,チュウブセンジョウ,0
2373,7180301036776,新規,0,2022-11-07,2022-11-07,株式会社ホリケンホーム,,株式会社,愛知県,豊川市,小田渕町野畔４０番地３,,23,207,4420844,,,,,,,2022-11-07,1,,,,,ホリケンホーム,0
2376,7190001029880,新規,0,2022-11-07,2022-11-07,株式会社Ｔ‐Ｗｅｌｌｄ,,株式会社,三重県,四日市市,日永西２丁目７番３号,,24,202,5100891,,,,,,,2022-11-07,1,,,,,ティーウェルド,0
2377,7190003004130,新規,0,2022-11-07,2022-11-07,合同会社真虎三,,合同会社,三重県,四日市市,高浜新町３番１２－１号,,24,202,5100027,,,,,,,2022-11-07,1,,,,,マコサン,0
2379,7200001040613,新規,0,2022-11-07,2022-11-07,株式会社フジタ塗装,,株式会社,岐阜県,岐阜市,日置江１丁目４４番地１,,21,201,5016133,,,,,,,2022-11-07,1,,,,,フジタトソウ,0
2380,7200001040646,新規,0,2022-11-07,2022-11-07,株式会社中日産業,,株式会社,岐阜県,羽島市,足近町４丁目２７５番地１,,21,209,5016207,,,,,,,2022-11-07,1,,,,,チュウニチサンギョウ,0
2381,7200001040654,新規,0,2022-11-07,2022-11-07,株式会社ケンタ製作所,,株式会社,岐阜県,各務原市,大野町１丁目１４７番地,,21,213,5040934,,,,,,,2022-11-07,1,,,,,ケンタセイサクショ,0
2388,7210005010066,新規,0,2022-11-07,2022-11-07,一般社団法人福井県任意売却支援協会,,その他の設立登記法人,福井県,福井市,中央３丁目５番１５号,,18,201,9100006,,,,,,,2022-11-07,1,,,,,フクイケンニンイバイキャクシエンキョウカイ,0
2396,7240001060608,新規,0,2022-11-07,2022-11-07,片岡建設株式会社,,株式会社,広島県,福山市,加茂町字中野２２０番地５,,34,207,7202418,,,,,,,2022-11-07,1,,,,,カタオカケンセツ,0
2398,7240003005874,新規,0,2022-11-07,2022-11-07,合同会社ライフパッション,,合同会社,広島県,広島市佐伯区,楽々園１丁目３番２０－２０７号,,34,108,7315136,,,,,,,2022-11-07,1,,,,,ライフパッション,0
2399,7240005015475,新規,0,2022-11-07,2022-11-07,一般社団法人Ｈｉｒｏｓｈｉｍａピース家族,,その他の設立登記法人,広島県,廿日市市,宮園上４丁目６番地１９,,34,213,7380037,,,,,,,2022-11-07,1,,,,,ヒロシマピースカゾク,0
2401,7250001019826,新規,0,2022-11-07,2022-11-07,株式会社Ｍライズ,,株式会社,山口県,山口市,吉敷中東１丁目８番２号,,35,203,7530813,,,,,,,2022-11-07,1,,,,,エムライズ,0
2404,7250003003175,新規,0,2022-11-07,2022-11-07,Ｋｉｉｔｏｓ合同会社,,合同会社,山口県,防府市,駅南町１４番２６号,,35,206,7470801,,,,,,,2022-11-07,1,,,,,キートス,0
2405,7260003004098,新規,0,2022-11-07,2022-11-07,合同会社ただいま大家,,合同会社,岡山県,岡山市北区,上中野２丁目９番２５号,,33,101,7000972,,,,,,,2022-11-07,1,,,,,タダイマオオヤ,0
2413,7290001099402,新規,0,2022-11-07,2022-11-07,株式会社明豊サービス,,株式会社,福岡県,久留米市,山川町１６５６番地１－１１０号室,,40,203,8390817,,,,,,,2022-11-07,1,,,,,メイホウサービス,0
2414,7290001099451,新規,0,2022-11-07,2022-11-07,株式会社オープンエイトパートナー,,株式会社,福岡県,福岡市博多区,博多駅前３丁目２７番２５号,,40,132,8120011,,,,,,,2022-11-07,1,,,,,オープンエイトパートナー,0
2415,7290001099492,新規,0,2022-11-07,2022-11-07,株式会社山下,,株式会社,福岡県,久留米市,梅満町１１６３番地３－２０３,,40,203,8300048,,,,,,,2022-11-07,1,,,,,ヤマシタ,0
2416,7290003013138,新規,0,2022-11-07,2022-11-07,合同会社Ｌａ　ｆａｒｆａｌｌａ,,合同会社,福岡県,福岡市中央区,桜坂３丁目５番５４－１７１１号,,40,133,8100024,,,,,,,2022-11-07,1,,,,,ラファルファッラ,0
2417,7290003013154,新規,0,2022-11-07,2022-11-07,合同会社枯淡,,合同会社,福岡県,福岡市中央区,桜坂１丁目５‐１５,,40,133,8100024,,,,,,,2022-11-07,1,,,,,コタン,0
2422,7310001018111,新規,0,2022-11-07,2022-11-07,株式会社ハマデン,,株式会社,長崎県,佐世保市,針尾東町２７８３番地１,,42,202,8593451,,,,,,,2022-11-07,1,,,,,ハマデン,0
2423,7320003003944,新規,0,2022-11-07,2022-11-07,大分昭和合同会社,,合同会社,大分県,国東市,国東町田深字百楽７２５番２,,44,214,8730502,,,,,,,2022-11-07,1,,,,,オオイタショウワ,0
2426,7340001025146,新規,0,2022-11-07,2022-11-07,株式会社Ｂｅｌｌｅｚｅｌｌ,,株式会社,鹿児島県,肝属郡東串良町,川西８４７番地１,,46,482,8931613,,,,,,,2022-11-07,1,,,,,ベルゼル,0
2430,7360001031134,新規,0,2022-11-07,2022-11-07,株式会社ＡＭ,,株式会社,沖縄県,島尻郡与那原町,字上与那原３９番地１,,47,348,9011302,,,,,,,2022-11-07,1,,,,,エーエム,0
2431,7360001031150,新規,0,2022-11-07,2022-11-07,株式会社ＹＳコミュニケーション,,株式会社,沖縄県,中頭郡北中城村,字喜舎場２７７番地安里アパート１０２,,47,327,9012311,,,,,,,2022-11-07,1,,,,,ワイエスコミュニケーション,0
2437,7380001033236,新規,0,2022-11-07,2022-11-07,株式会社ＵｒｂａｎＰｏｌｅＳｈｉｆｔ,,株式会社,福島県,いわき市,平字田町１２０番地ＬＡＴＯＶ６階いわき産業創造館シェアオフィス内,,07,204,9708026,,,,,,,2022-11-07,1,,,,,アーバンポールシフト,0
2446,7430001087796,新規,0,2022-11-07,2022-11-07,株式会社タケノ塗装,,株式会社,北海道,札幌市豊平区,西岡五条１２丁目１３番２号,,01,105,0620035,,,,,,,2022-11-07,1,,,,,タケノトソウ,0
2452,7430003014443,新規,0,2022-11-07,2022-11-07,合同会社ＰＥＧ　ＳＴＹＬＥ,,合同会社,北海道,札幌市白石区,東札幌一条１丁目８番１４－４０２号,,01,104,0030001,,,,,,,2022-11-07,1,,,,,ペグスタイル,0
2457,7490005006870,新規,0,2022-11-07,2022-11-07,一般社団法人海と日本プロジェクトｉｎ高知,,その他の設立登記法人,高知県,高知市,北本町３丁目４番２７号,,39,201,7800056,,,,,,,2022-11-07,1,,,,,ウミトニッポンプロジェクトインコウチ,0
2458,7500001024560,新規,0,2022-11-07,2022-11-07,株式会社ＢＳＳ観音寺,,株式会社,愛媛県,四国中央市,金生町山田井１６７６番地,,38,213,7990112,,,,,,,2022-11-07,1,,,,,ビーエスエスカンオンジ,0
2469,8010001230538,新規,0,2022-11-07,2022-11-07,株式会社ゴールドランホールディングス,,株式会社,東京都,中央区,築地１丁目２番３号,,13,102,1040045,,,,,,,2022-11-07,1,,,,,ゴールドランホールディングス,0
2470,8010001230570,新規,0,2022-11-07,2022-11-07,株式会社プルータス,,株式会社,東京都,中央区,勝どき４丁目８番５－３０５号,,13,102,1040054,,,,,,,2022-11-07,1,,,,,プルータス,0
2471,8010001230579,新規,0,2022-11-07,2022-11-07,株式会社臼井商事,,株式会社,東京都,中央区,新川２丁目２２番４号,,13,102,1040033,,,,,,,2022-11-07,1,,,,,ウスイショウジ,0
2472,8010001230587,新規,0,2022-11-07,2022-11-07,株式会社４４プロジェクト,,株式会社,東京都,千代田区,岩本町２丁目１４番３号,,13,101,1010032,,,,,,,2022-11-07,1,,,,,フォーティーフォープロジェクト,0
2475,8010003038962,新規,0,2022-11-07,2022-11-07,合同会社Ｖ紀尾井町,,合同会社,東京都,千代田区,丸の内３丁目１番１号東京共同会計事務所内,,13,101,1000005,,,,,,,2022-11-07,1,,,,,ブイキオイチョウ,0
2476,8010003038970,新規,0,2022-11-07,2022-11-07,ろくなな合同会社,,合同会社,東京都,千代田区,飯田橋２丁目１６－４九段下コート２Ｆ－２０６号室,,13,101,1020072,,,,,,,2022-11-07,1,,,,,ロクナナ,0
2477,8010005035751,新規,0,2022-11-07,2022-11-07,一般財団法人ＶＲ研究倫理学会,,その他の設立登記法人,東京都,千代田区,二番町９番地３,,13,101,1020084,,,,,,,2022-11-07,1,,,,,ブイアールケンキュウリンリガッカイ,0
2479,8010103002018,新規,0,2022-11-07,2022-11-07,合同会社ＹＵＵＺ,,合同会社,東京都,八王子市,下恩方町３０３３番地４,,13,201,1920154,,,,,,,2022-11-07,1,,,,,ユウーズ,0
2485,8010401170631,新規,0,2022-11-07,2022-11-07,株式会社リサイクルループ,,株式会社,東京都,港区,浜松町２丁目２番１５号浜松町ダイヤビル２Ｆ,,13,103,1050013,,,,,,,2022-11-07,1,,,,,リサイクルループ,0
2486,8010401170648,新規,0,2022-11-07,2022-11-07,株式会社イチベエアパートメント,,株式会社,東京都,港区,六本木３丁目６番９号,,13,103,1060032,,,,,,,2022-11-07,1,,,,,イチベエアパートメント,0
2487,8010401170656,新規,0,2022-11-07,2022-11-07,株式会社スムーンスタイル,,株式会社,東京都,港区,南青山２丁目２番１５号,,13,103,1070062,,,,,,,2022-11-07,1,,,,,スムーンスタイル,0
2488,8010401170672,新規,0,2022-11-07,2022-11-07,ＭＥＤＩＣＡＬ　ＢＯＤＹ　ＣＯＳＭＥＴＩＣ株式会社,,株式会社,東京都,港区,赤坂９丁目４番１号パークコート赤坂檜町ザ・タワー１９０２号室,,13,103,1070052,,,,,,,2022-11-07,1,,,,,メディカルボディコスメティーク,0
2489,8010401170680,新規,0,2022-11-07,2022-11-07,株式会社ジーオーエヌ,,株式会社,東京都,港区,芝５丁目２４番６号,,13,103,1080014,,,,,,,2022-11-07,1,,,,,ジーオーエヌ,0
2490,8010401170697,新規,0,2022-11-07,2022-11-07,ＣＢＤ　ＪＡＰＡＮ株式会社,,株式会社,東京都,港区,六本木６丁目１０－１六本木ヒルズ森タワー１６階,,13,103,1060032,,,,,,,2022-11-07,1,,,,,シービーディージャパン,0
2493,8010403028828,新規,0,2022-11-07,2022-11-07,平野企画合同会社,,合同会社,東京都,港区,六本木１丁目７－２８－７階,,13,103,1060032,,,,,,,2022-11-07,1,,,,,ヒラノキカク,0
2494,8010403028836,新規,0,2022-11-07,2022-11-07,合同会社ハイアベレージ,,合同会社,東京都,港区,芝２丁目１－２１－６０４,,13,103,1050014,,,,,,,2022-11-07,1,,,,,ハイアベレージ,0
2495,8010405021517,新規,0,2022-11-07,2022-11-07,一般社団法人東京プレイセラピーセンター,,その他の設立登記法人,東京都,港区,浜松町２丁目２番１５号浜松町ダイヤビル２Ｆ,,13,103,1050013,,,,,,,2022-11-07,1,,,,,トウキョウプレイセラピーセンター,0
2499,8010601062091,新規,0,2022-11-07,2022-11-07,ＦＩＬＬ株式会社,,株式会社,東京都,墨田区,緑３丁目８番１２号,,13,107,1300021,,,,,,,2022-11-07,1,,,,,フィル,0
2500,8010603009826,新規,0,2022-11-07,2022-11-07,合同会社Ｈｙａｋｒｙｐｓ,,合同会社,東京都,江東区,有明２丁目１番１－２５０８号,,13,108,1350063,,,,,,,2022-11-07,1,,,,,ヒャクリプス,0
2503,8010701043405,新規,0,2022-11-07,2022-11-07,大東運輸分割準備株式会社,,株式会社,東京都,品川区,大崎５丁目８番５号,,13,109,1410032,,,,,,,2022-11-07,1,,,,,ダイトウウンユブンカツジュンビ,0
2504,8010701043413,新規,0,2022-11-07,2022-11-07,株式会社Ｓｅａｒｃｈ,,株式会社,東京都,品川区,戸越１丁目１９番１８号,,13,109,1420041,,,,,,,2022-11-07,1,,,,,サーチ,0
2505,8010701043421,新規,0,2022-11-07,2022-11-07,株式会社バイデント,,株式会社,東京都,品川区,荏原３丁目５番１９－１０１号,,13,109,1420063,,,,,,,2022-11-07,1,,,,,バイデント,0
2509,8010801033405,新規,0,2022-11-07,2022-11-07,株式会社ＨＩＴＥＣＨ,,株式会社,東京都,大田区,大森東３丁目１６番２２号１階,,13,111,1430012,,,,,,,2022-11-07,1,,,,,ハイテック,0
2512,8010803004338,新規,0,2022-11-07,2022-11-07,合同会社ＢＩＲＤＩＥ,,合同会社,東京都,大田区,西蒲田８丁目３番８‐１０７号,,13,111,1440051,,,,,,,2022-11-07,1,,,,,バーディ,0
2514,8010901051918,新規,0,2022-11-07,2022-11-07,ＬＰＪ株式会社,,株式会社,東京都,世田谷区,玉川４丁目９番１８－３０４号,,13,112,1580094,,,,,,,2022-11-07,1,,,,,エルピージェイ,0
2519,8011001150684,新規,0,2022-11-07,2022-11-07,株式会社誠真会,,株式会社,東京都,渋谷区,代々木４丁目２６番１号,,13,113,1510053,,,,,,,2022-11-07,1,,,,,セイシンカイ,0
2520,8011001150692,新規,0,2022-11-07,2022-11-07,謙雅産業株式会社,,株式会社,東京都,渋谷区,代々木４丁目４１番７号参宮橋マンション３１６,,13,113,1510053,,,,,,,2022-11-07,1,,,,,ケンガサンギョウ,0
2521,8011001150718,新規,0,2022-11-07,2022-11-07,株式会社カモク,,株式会社,東京都,目黒区,目黒本町４丁目３番６号,,13,110,1520002,,,,,,,2022-11-07,1,,,,,カモク,0
2522,8011001150726,新規,0,2022-11-07,2022-11-07,ＥＮ株式会社,,株式会社,東京都,渋谷区,道玄坂２丁目６番６号和光ビル１階,,13,113,1500043,,,,,,,2022-11-07,1,,,,,エン,0
2523,8011001150742,新規,0,2022-11-07,2022-11-07,ＢＯＮＤＵＳ株式会社,,株式会社,東京都,渋谷区,恵比寿西２丁目２０番８号,,13,113,1500021,,,,,,,2022-11-07,1,,,,,バンダス,0
2524,8011001150750,新規,0,2022-11-07,2022-11-07,株式会社ＴＨＲＥＥＰＩＮＥ,,株式会社,東京都,渋谷区,渋谷２丁目２２番６号,,13,113,1500002,,,,,,,2022-11-07,1,,,,,スリーパイン,0
2525,8011001150759,新規,0,2022-11-07,2022-11-07,株式会社Ｍｏｋａｒａｌｙ,,株式会社,東京都,目黒区,鷹番３丁目６番７号,,13,110,1520004,,,,,,,2022-11-07,1,,,,,モカラリー,0
2531,8011101100721,新規,0,2022-11-07,2022-11-07,株式会社ＯＮ　ｃｏｍｐａｎｙ,,株式会社,東京都,新宿区,百人町２丁目１０番５－４０１号,,13,104,1690073,,,,,,,2022-11-07,1,,,,,オンカンパニー,0
2532,8011101100738,新規,0,2022-11-07,2022-11-07,株式会社ｆａｖ,,株式会社,東京都,新宿区,高田馬場１丁目２９－１ユースクエア高田馬場地下１階１３号室,,13,104,1690075,,,,,,,2022-11-07,1,,,,,ファボ,0
2534,8011103012345,新規,0,2022-11-07,2022-11-07,ＨＭプロパティー合同会社,,合同会社,東京都,新宿区,北新宿１丁目１６番４号,,13,104,1690074,,,,,,,2022-11-07,1,,,,,エイチエムプロパティー,0
2535,8011105010462,新規,0,2022-11-07,2022-11-07,税理士法人峯岸秀幸会計事務所,,その他の設立登記法人,東京都,新宿区,新宿２丁目５番１２号ＦＯＲＥＣＡＳＴ新宿ＡＶＥＮＵＥ,,13,104,1600022,,,,,,,2022-11-07,1,,,,,ミネギシヒデユキカイケイジムショ,0
2539,8011401024645,新規,0,2022-11-07,2022-11-07,株式会社ＨＯＴＤＯＧ　ＴＯＫＹＯ,,株式会社,東京都,板橋区,西台１丁目４６番５号,,13,119,1740045,,,,,,,2022-11-07,1,,,,,ホットドッグトウキョウ,0
2540,8011401024653,新規,0,2022-11-07,2022-11-07,株式会社ＨＥＬＰ　ＹＯＵ,,株式会社,東京都,板橋区,高島平９丁目２８番１６号Ｔ．Ｎ．ＧＡＲＡＧＥＨＯＵＳＥ・Ｂ－１０２,,13,119,1750082,,,,,,,2022-11-07,1,,,,,ヘルプユー,0
2546,8011603003744,新規,0,2022-11-07,2022-11-07,合同会社ＤＩ‐ｆａｃｔｏｒｙ,,合同会社,東京都,練馬区,東大泉１丁目２８番１号グランエミオ大泉学園１階エミフィス大泉学園,,13,120,1780063,,,,,,,2022-11-07,1,,,,,ディアイファクトリー,0
2548,8011705001761,新規,0,2022-11-07,2022-11-07,一般社団法人ＥＧＡＯｐｌｕｓ協会,,その他の設立登記法人,東京都,江戸川区,本一色１丁目３２番１４号,,13,123,1330044,,,,,,,2022-11-07,1,,,,,エガオプラスキョウカイ,0
2551,8011801041496,新規,0,2022-11-07,2022-11-07,株式会社高橋総合企画,,株式会社,東京都,足立区,青井２丁目３２番５号みつまたやマンション２０３,,13,121,1200012,,,,,,,2022-11-07,1,,,,,タカハシソウゴウキカク,0
2555,8012801021942,新規,0,2022-11-07,2022-11-07,株式会社ＢＵＴＴＥＲＦＬＹ　ＷＩＮＧＳ,,株式会社,東京都,国分寺市,本町２丁目２番１号,,13,214,1850012,,,,,,,2022-11-07,1,,,,,バタフライウイングス,0
2565,8020001148779,新規,0,2022-11-07,2022-11-07,ノベックスソリューション株式会社,,株式会社,神奈川県,横浜市鶴見区,鶴見中央３丁目２２番２３－８０３号,,14,101,2300051,,,,,,,2022-11-07,1,,,,,ノベックスソリューション,0
2566,8020001148787,新規,0,2022-11-07,2022-11-07,株式会社ｔａｒｔａｒｕｇａ,,株式会社,神奈川県,川崎市中原区,上丸子天神町３１３番地１,,14,133,2110007,,,,,,,2022-11-07,1,,,,,タルタルーガ,0
2567,8020001148795,新規,0,2022-11-07,2022-11-07,秋元工業株式会社,,株式会社,神奈川県,川崎市高津区,子母口２０８番地１,,14,134,2130023,,,,,,,2022-11-07,1,,,,,アキモトコウギョウ,0
2568,8020001148804,新規,0,2022-11-07,2022-11-07,株式会社叶,,株式会社,神奈川県,川崎市多摩区,東生田３丁目３番１１‐４号,,14,135,2140031,,,,,,,2022-11-07,1,,,,,カナエ,0
2569,8020001148820,新規,0,2022-11-07,2022-11-07,株式会社ＳＰＲＯＵＴ,,株式会社,神奈川県,横浜市鶴見区,下末吉５丁目８番５号,,14,101,2300012,,,,,,,2022-11-07,1,,,,,スプラウト,0
2570,8020001148837,新規,0,2022-11-07,2022-11-07,株式会社イケノホールディングス,,株式会社,神奈川県,横浜市中区,不老町１丁目２番地１,,14,104,2310032,,,,,,,2022-11-07,1,,,,,イケノホールディングス,0
2571,8020001148845,新規,0,2022-11-07,2022-11-07,株式会社ＷＨ,,株式会社,神奈川県,横浜市神奈川区,栄町６番地１ヨコハマポートサイドロア弐番館１Ｆ,,14,102,2210052,,,,,,,2022-11-07,1,,,,,ダブルエイチ,0
2572,8020001148861,新規,0,2022-11-07,2022-11-07,工藤住建株式会社,,株式会社,神奈川県,横浜市戸塚区,深谷町１２１０番地８３,,14,110,2450067,,,,,,,2022-11-07,1,,,,,クドウジュウケン,0
2573,8020001148878,新規,0,2022-11-07,2022-11-07,スノードロップ株式会社,,株式会社,神奈川県,横浜市南区,井土ケ谷中町２２番地１９,,14,105,2320052,,,,,,,2022-11-07,1,,,,,スノードロップ,0
2574,8020001148886,新規,0,2022-11-07,2022-11-07,株式会社Ｌａ　ｖｉｅ,,株式会社,神奈川県,川崎市多摩区,生田８丁目２２－１６,,14,135,2140038,,,,,,,2022-11-07,1,,,,,ラヴィー,0
2577,8020003022643,新規,0,2022-11-07,2022-11-07,合同会社ワタリマシナリー,,合同会社,神奈川県,横浜市神奈川区,子安通２丁目２３４番,,14,102,2210021,,,,,,,2022-11-07,1,,,,,ワタリマシナリー,0
2578,8020003022701,新規,0,2022-11-07,2022-11-07,合同会社ＫＩＳＭＥＴ,,合同会社,神奈川県,横浜市南区,弘明寺町字前田１２０番地１３,,14,105,2320067,,,,,,,2022-11-07,1,,,,,キスメット,0
2581,8021001077332,新規,0,2022-11-07,2022-11-07,株式会社石川美装,,株式会社,神奈川県,海老名市,大谷北４丁目２１番１４号,,14,215,2430419,,,,,,,2022-11-07,1,,,,,イシカワビソウ,0
2582,8021001077340,新規,0,2022-11-07,2022-11-07,株式会社歩建設,,株式会社,神奈川県,海老名市,上今泉５丁目１４番２３号,,14,215,2430431,,,,,,,2022-11-07,1,,,,,アユムケンセツ,0
2583,8021001077349,新規,0,2022-11-07,2022-11-07,株式会社共有地,,株式会社,神奈川県,藤沢市,鵠沼松が岡５丁目１３番１７号,,14,205,2510038,,,,,,,2022-11-07,1,,,,,キョウユウチ,0
2584,8021001077373,新規,0,2022-11-07,2022-11-07,美材屋ＥＳＴ株式会社,,株式会社,神奈川県,足柄上郡大井町,上大井５５６番地,,14,362,2580016,,,,,,,2022-11-07,1,,,,,ビザイヤイーエスティー,0
2585,8021003012329,新規,0,2022-11-07,2022-11-07,合同会社楽,,合同会社,神奈川県,小田原市,久野１９２番地１１セピアコート興津２０５,,14,206,2500055,,,,,,,2022-11-07,1,,,,,ラク,0
2586,8021003012337,新規,0,2022-11-07,2022-11-07,テトラ合同会社,,合同会社,神奈川県,藤沢市,鵠沼石上１丁目７－８ビックライズビル５Ｆ,00128374,14,205,2510025,,,,,,,2022-11-07,1,,,,,テトラ,0
2599,8030001150833,新規,0,2022-11-07,2022-11-07,ＷＹＹ株式会社,,株式会社,埼玉県,三郷市,中央４丁目２０番地６,,11,237,3410038,,,,,,,2022-11-07,1,,,,,ダブルワイワイ,0
2600,8030001150858,新規,0,2022-11-07,2022-11-07,株式会社ＳｕｎＤｅａｒ,,株式会社,埼玉県,深谷市,常盤町５５番地６８,,11,218,3660034,,,,,,,2022-11-07,1,,,,,サンディア,0
2601,8030001150866,新規,0,2022-11-07,2022-11-07,株式会社エル・コミュニティ,,株式会社,埼玉県,所沢市,東住吉７番３号,,11,208,3591124,,,,,,,2022-11-07,1,,,,,エルコミュニティ,0
2602,8030001150899,新規,0,2022-11-07,2022-11-07,野澤建設株式会社,,株式会社,埼玉県,深谷市,普済寺１６０９番地６,,11,218,3690203,,,,,,,2022-11-07,1,,,,,ノザワケンセツ,0
2603,8030001150908,新規,0,2022-11-07,2022-11-07,ＰＬＡＴＯＮＡ　ＢＵＬＬ株式会社,,株式会社,埼玉県,深谷市,上柴町東４丁目１６番地１０,,11,218,3660051,,,,,,,2022-11-07,1,,,,,プラトナブル,0
2604,8030001150916,新規,0,2022-11-07,2022-11-07,株式会社山翔,,株式会社,埼玉県,さいたま市南区,文蔵５丁目２２番８－２１５号,,11,108,3360025,,,,,,,2022-11-07,1,,,,,ヤマショウ,0
2610,8030003020506,新規,0,2022-11-07,2022-11-07,合同会社リズム,,合同会社,埼玉県,川越市,大字山田１６２１番地１モンドビル２Ｆ,,11,201,3500822,,,,,,,2022-11-07,1,,,,,リズム,0
2611,8030003020514,新規,0,2022-11-07,2022-11-07,合同会社ｕ‐ＶＥＮＵＳ,,合同会社,埼玉県,越谷市,大間野町２丁目１３番地１２,,11,222,3430844,,,,,,,2022-11-07,1,,,,,ユーヴィーナス,0
2617,8040001125677,新規,0,2022-11-07,2022-11-07,株式会社ＲＥＤ　ＭＡＸ,,株式会社,千葉県,松戸市,新松戸３丁目４３番地大塚ビル２階,,12,207,2700034,,,,,,,2022-11-07,1,,,,,レッドマックス,0
2618,8040001125685,新規,0,2022-11-07,2022-11-07,株式会社ＦＡＭＯＯＤＵＯ,,株式会社,千葉県,千葉市中央区,中央１丁目７番８号シグマビル９Ａ,,12,101,2600013,,,,,,,2022-11-07,1,,,,,ファームーデュオ,0
2619,8040001125751,新規,0,2022-11-07,2022-11-07,株式会社アンドビヨンド,,株式会社,千葉県,千葉市中央区,富士見２丁目７番９号富士見ビル６０９号,,12,101,2600015,,,,,,,2022-11-07,1,,,,,アンドビヨンド,0
2622,8040003021197,新規,0,2022-11-07,2022-11-07,合同会社Ｔ＆Ｃ,,合同会社,千葉県,印西市,大森２５１２番地２５,,12,231,2701327,,,,,,,2022-11-07,1,,,,,ティーアンドシー,0
2623,8040003021214,新規,0,2022-11-07,2022-11-07,合同会社Ｙ．Ｍ．Ｐ,,合同会社,千葉県,千葉市花見川区,幕張町４丁目１８１４番地１ルネ幕張２０３号,,12,102,2620032,,,,,,,2022-11-07,1,,,,,ワイエムピー,0
2624,8040003021222,新規,0,2022-11-07,2022-11-07,合同会社ミチルクリエイト,,合同会社,千葉県,銚子市,三軒町７番１９号,,12,202,2880045,,,,,,,2022-11-07,1,,,,,ミチルクリエイト,0
2626,8050001051897,新規,0,2022-11-07,2022-11-07,株式会社エフティ,,株式会社,茨城県,潮来市,小泉南１４３２番地,,08,223,3112444,,,,,,,2022-11-07,1,,,,,エフティ,0
2627,8050001051906,新規,0,2022-11-07,2022-11-07,株式会社テクニカル,,株式会社,茨城県,結城市,新福寺４丁目５番地２２,,08,207,3070053,,,,,,,2022-11-07,1,,,,,テクニカル,0
2629,8050003006981,新規,0,2022-11-07,2022-11-07,天元合同会社,,合同会社,茨城県,つくば市,森の里２１番地２０,,08,220,3001256,,,,,,,2022-11-07,1,,,,,テンゲン,0
2633,8070001039783,新規,0,2022-11-07,2022-11-07,＿宝商会株式会社,00128370,株式会社,群馬県,前橋市,山王町２丁目４０番地２,,10,201,3792123,,,,,,,2022-11-07,1,,,,,キンホウショウカイ,0
2639,8090001017829,新規,0,2022-11-07,2022-11-07,株式会社ＥＮＧＡＷＡ,,株式会社,山梨県,南都留郡富士河口湖町,小立１４４１番地,,19,430,4010302,,,,,,,2022-11-07,1,,,,,エンガワ,0
2643,8100001035837,新規,0,2022-11-07,2022-11-07,株式会社ＫＥＮ．１２９,,株式会社,長野県,長野市,松代温泉１２９番地,,20,201,3811226,,,,,,,2022-11-07,1,,,,,ケンドットイチニーキュー,0
2645,8100003006753,新規,0,2022-11-07,2022-11-07,ＡＱＵＡ信州合同会社,,合同会社,長野県,諏訪郡富士見町,落合２３９７番地１,,20,362,3990214,,,,,,,2022-11-07,1,,,,,アクアシンシュウ,0
2647,8110003004905,新規,0,2022-11-07,2022-11-07,ケスレジャパン合同会社,,合同会社,新潟県,南魚沼郡湯沢町,湯沢３丁目３番地６,,15,461,9496101,,,,,,,2022-11-07,1,,,,,ケスレジャパン,0
2652,8120001249939,新規,0,2022-11-07,2022-11-07,大森の治株式会社,,株式会社,大阪府,大阪市西成区,北津守２丁目２番１３号,,27,122,5570061,,,,,,,2022-11-07,1,,,,,オオモリノハル,0
2653,8120001250005,新規,0,2022-11-07,2022-11-07,株式会社Ｒ・Ｉ・Ｖ・Ｅ,,株式会社,大阪府,大阪市阿倍野区,阪南町５丁目１０番６号１階,,27,119,5450021,,,,,,,2022-11-07,1,,,,,リヴ,0
2654,8120001250013,新規,0,2022-11-07,2022-11-07,株式会社エフエヌカンパニー,,株式会社,大阪府,大阪市東淀川区,下新庄４丁目２１番２９号,,27,114,5330021,,,,,,,2022-11-07,1,,,,,エフエヌカンパニー,0
2655,8120001250021,新規,0,2022-11-07,2022-11-07,株式会社ＵＡｎｇｌｅ,,株式会社,大阪府,大阪市浪速区,日本橋東３丁目２番２３号メゾンコハラ２階,,27,111,5560006,,,,,,,2022-11-07,1,,,,,ユーアングル,0
2656,8120001250038,新規,0,2022-11-07,2022-11-07,ＮＯＺＵＫホールディングス株式会社,,株式会社,大阪府,大阪市淀川区,野中北１丁目１番７４号,,27,123,5320034,,,,,,,2022-11-07,1,,,,,ノヅックホールディングス,0
2657,8120001250104,新規,0,2022-11-07,2022-11-07,ＳＵＬ株式会社,,株式会社,大阪府,大阪市中央区,南船場４丁目７番１５号ＴＡＧ南船場ビル６階,,27,128,5420081,,,,,,,2022-11-07,1,,,,,エスユーエル,0
2658,8120001250112,新規,0,2022-11-07,2022-11-07,株式会社Ａｎ，ｍｅ,,株式会社,大阪府,大阪市中央区,博労町４丁目２番８号４Ｆ,,27,128,5410059,,,,,,,2022-11-07,1,,,,,アンミー,0
2659,8120003022724,新規,0,2022-11-07,2022-11-07,中郵万通合同会社,,合同会社,大阪府,大阪市生野区,新今里６丁目１４－１０,,27,116,5440001,,,,,,,2022-11-07,1,,,,,チュウユウマンツウ,0
2660,8120003022773,新規,0,2022-11-07,2022-11-07,合同会社りのひ,,合同会社,大阪府,門真市,東田町１８番２１号,,27,223,5710034,,,,,,,2022-11-07,1,,,,,リノヒ,0
2662,8120005023274,新規,0,2022-11-07,2022-11-07,近畿労働者協同組合,,その他の設立登記法人,大阪府,大阪市東淀川区,淡路３丁目６番３１号,,27,114,5330032,,,,,,,2022-11-07,1,,,,,キンキロウドウシャ,0
2663,8120101066458,新規,0,2022-11-07,2022-11-07,株式会社富寅,,株式会社,大阪府,富田林市,本町５番１９号,,27,214,5840093,,,,,,,2022-11-07,1,,,,,トミトラ,0
2665,8120901046691,新規,0,2022-11-07,2022-11-07,株式会社Ｍ＆Ａ,,株式会社,大阪府,高槻市,唐崎中４丁目９番１５号,,27,207,5690832,,,,,,,2022-11-07,1,,,,,エムアンドエー,0
2666,8120901046700,新規,0,2022-11-07,2022-11-07,ＡＹ株式会社,,株式会社,大阪府,豊中市,服部寿町５丁目１１８番地,,27,203,5610857,,,,,,,2022-11-07,1,,,,,エーワイ,0
2670,8130001072968,新規,0,2022-11-07,2022-11-07,株式会社宝来,,株式会社,京都府,京都市東山区,林下町４３８,,26,105,6050062,,,,,,,2022-11-07,1,,,,,ホウライ,0
2671,8130001072976,新規,0,2022-11-07,2022-11-07,京都中部自動車株式会社,,株式会社,京都府,南丹市,八木町木原河原１８番地,,26,213,6290165,,,,,,,2022-11-07,1,,,,,キョウトチュウブジドウシャ,0
2675,8130003008268,新規,0,2022-11-07,2022-11-07,合同会社ＴＷＩＮＳ,,合同会社,京都府,京都市中京区,御池通東洞院東入笹屋町４３６永和御池ビル６０６号,,26,104,6048187,,,,,,,2022-11-07,1,,,,,ツインズ,0
2683,8140001127928,新規,0,2022-11-07,2022-11-07,ＢＥ　ＫＩＮＤ　ＨＯＬＤＩＮＧＳ株式会社,,株式会社,兵庫県,加古川市,尾上町養田１４９７の３,,28,210,6750025,,,,,,,2022-11-07,1,,,,,ビーカインドホールディングス,0
2684,8140001127936,新規,0,2022-11-07,2022-11-07,株式会社ｍｉｊｕｔｓｕ,,株式会社,兵庫県,芦屋市,西山町３番１１号,,28,206,6590083,,,,,,,2022-11-07,1,,,,,ミジュツ,0
2685,8140001127993,新規,0,2022-11-07,2022-11-07,ａｍｉｃｉｓ株式会社,,株式会社,兵庫県,神戸市須磨区,桜の杜２丁目３番２２号,,28,107,6540114,,,,,,,2022-11-07,1,,,,,アミチス,0
2689,8160001024603,新規,0,2022-11-07,2022-11-07,株式会社ＰＡＤＯＩＮＡＭＩ,,株式会社,滋賀県,高島市,今津町松陽台１丁目７番地６,,25,212,5201633,,,,,,,2022-11-07,1,,,,,パドインアミ,0
2698,8180001153615,新規,0,2022-11-07,2022-11-07,株式会社だるまさん,,株式会社,愛知県,小牧市,藤島町梵天９４番地２,,23,219,4850069,,,,,,,2022-11-07,1,,,,,ダルマサン,0
2699,8180001153631,新規,0,2022-11-07,2022-11-07,一佐株式会社,,株式会社,愛知県,名古屋市中村区,名駅３丁目２４番１０号,,23,105,4500002,,,,,,,2022-11-07,1,,,,,イッサ,0
2700,8180001153672,新規,0,2022-11-07,2022-11-07,リシャルリソン・ホールディングス株式会社,,株式会社,愛知県,一宮市,栄３丁目６番７号,,23,203,4910858,,,,,,,2022-11-07,1,,,,,リシャルリソンホールディングス,0
2701,8180001153689,新規,0,2022-11-07,2022-11-07,ＮＰＳ株式会社,,株式会社,愛知県,名古屋市天白区,植田山５丁目２６１４番地の６,,23,116,4680001,,,,,,,2022-11-07,1,,,,,エヌピーエス,0
2702,8180001153697,新規,0,2022-11-07,2022-11-07,株式会社グローバルファクト,,株式会社,愛知県,名古屋市中村区,名駅５丁目３１番１３号,,23,105,4500002,,,,,,,2022-11-07,1,,,,,グローバルファクト,0
2703,8180001153714,新規,0,2022-11-07,2022-11-07,株式会社ＭＩＺＵＮＯ　ＧＬＡＳＳ,,株式会社,愛知県,名古屋市中川区,高畑５丁目２５９番地,,23,110,4540911,,,,,,,2022-11-07,1,,,,,ミズノグラス,0
2710,8180003024426,新規,0,2022-11-07,2022-11-07,ＯＭＥＧＡ　ＨＯＭＥ合同会社,,合同会社,愛知県,名古屋市中区,栄２丁目２番地１広小路伏見中駒ビル２Ｆ－９,,23,106,4600008,,,,,,,2022-11-07,1,,,,,オメガホーム,0
2711,8180003024442,新規,0,2022-11-07,2022-11-07,合同会社ＮａｔｕｒａｌＣｈｅｍ,,合同会社,愛知県,名古屋市千種区,不老町１番名古屋大学インキュベーション施設,,23,101,4640814,,,,,,,2022-11-07,1,,,,,ナチュラルケム,0
2718,8180301036775,新規,0,2022-11-07,2022-11-07,株式会社ボンテ,,株式会社,愛知県,豊橋市,神野新田町字会所前１３１番地の２,,23,201,4418077,,,,,,,2022-11-07,1,,,,,ボンテ,0
2721,8180303005497,新規,0,2022-11-07,2022-11-07,ＧＭ　Ｐｒｏｊｅｃｔ合同会社,,合同会社,愛知県,碧南市,半崎町４丁目５１番地,,23,209,4470015,,,,,,,2022-11-07,1,,,,,ジエムプロジェクト,0
2722,8190001029888,新規,0,2022-11-07,2022-11-07,株式会社石民,,株式会社,三重県,四日市市,六名町１０７９番地,,24,202,5121116,,,,,,,2022-11-07,1,,,,,イシタミ,0
2724,8200001040604,新規,0,2022-11-07,2022-11-07,株式会社安江工業,,株式会社,岐阜県,中津川市,付知町１８２３番地４,,21,206,5080351,,,,,,,2022-11-07,1,,,,,ヤスエコウギョウ,0
2725,8200003005729,新規,0,2022-11-07,2022-11-07,合同会社レグテック,,合同会社,岐阜県,岐阜市,六条東１丁目１３番３号,,21,201,5008353,,,,,,,2022-11-07,1,,,,,レグテック,0
2738,8240003005873,新規,0,2022-11-07,2022-11-07,合同会社ルシアス,,合同会社,広島県,福山市,神村町１１５０３番地３６,,34,207,7290112,,,,,,,2022-11-07,1,,,,,ルシアス,0
2739,8240005015482,新規,0,2022-11-07,2022-11-07,葦陽税理士法人,,その他の設立登記法人,広島県,福山市,久松台３丁目８番１５号,,34,207,7200083,,,,,,,2022-11-07,1,,,,,イヨウ,0
2741,8250001019825,新規,0,2022-11-07,2022-11-07,株式会社アンドルサイム,,株式会社,山口県,周南市,梅園町２丁目２２番地,,35,215,7450076,,,,,,,2022-11-07,1,,,,,アンドルサイム,0
2743,8250003003174,新規,0,2022-11-07,2022-11-07,合同会社松波,,合同会社,山口県,山口市,朝田４８７番地４リバティ大歳１０２号室,,35,203,7530871,,,,,,,2022-11-07,1,,,,,マツナミ,0
2746,8270003001457,新規,0,2022-11-07,2022-11-07,野口商店合同会社,,合同会社,鳥取県,境港市,小篠津町３７１番地２,,31,204,6840053,,,,,,,2022-11-07,1,,,,,ノグチショウテン,0
2751,8290001099351,新規,0,2022-11-07,2022-11-07,株式会社高尾牧場,,株式会社,福岡県,うきは市,浮羽町山北７８３番地１３２,,40,225,8391408,,,,,,,2022-11-07,1,,,,,タカオボクジョウ,0
2752,8290001099418,新規,0,2022-11-07,2022-11-07,株式会社ＮＫ,,株式会社,福岡県,福岡市南区,警弥郷３丁目６番４－１０４号,,40,134,8111324,,,,,,,2022-11-07,1,,,,,エヌケー,0
2753,8290001099450,新規,0,2022-11-07,2022-11-07,株式会社ネクスト,,株式会社,福岡県,福岡市中央区,港１丁目２番１８－２２０６号ＫＤＸレジデンス大濠ハーバービュータワー,,40,133,8100075,,,,,,,2022-11-07,1,,,,,ネクスト,0
2754,8290001099475,新規,0,2022-11-07,2022-11-07,株式会社スカイジェイ,,株式会社,福岡県,久留米市,中央町３５番地１８,,40,203,8300023,,,,,,,2022-11-07,1,,,,,スカイジェイ,0
2755,8290001099491,新規,0,2022-11-07,2022-11-07,香椎ビジネス株式会社,,株式会社,福岡県,福岡市東区,香椎浜２丁目４番２９号,,40,131,8130016,,,,,,,2022-11-07,1,,,,,カシイビジネス,0
2756,8290003013145,新規,0,2022-11-07,2022-11-07,合同会社くろぎ,,合同会社,福岡県,八女市,黒木町本分６４５番地１,,40,210,8341213,,,,,,,2022-11-07,1,,,,,クロギ,0
2759,8290801029029,新規,0,2022-11-07,2022-11-07,株式会社みこの森ファクトリー,,株式会社,福岡県,田川市,大字奈良２５７番地９,,40,206,8260043,,,,,,,2022-11-07,1,,,,,ミコノモリファクトリー,0
2760,8300001013120,新規,0,2022-11-07,2022-11-07,ＢＯＲＤＥＲＬＥＳＳ株式会社,,株式会社,佐賀県,唐津市,京町１７８３番地ＫＡＲＡＥ２階,,41,202,8470045,,,,,,,2022-11-07,1,,,,,ボーダレス,0
2764,8310005008644,新規,0,2022-11-07,2022-11-07,医療法人ふじやま歯科クリニック,,その他の設立登記法人,長崎県,西彼杵郡長与町,嬉里郷１０９６番地ＡＳＫビル２階店舗Ａ,,42,307,8512128,,,,,,,2022-11-07,1,,,,,フジヤマシカクリニック,0
2774,8340003003958,新規,0,2022-11-07,2022-11-07,合同会社ダークホース,,合同会社,鹿児島県,鹿児島市,東俣町３９２４番地１８,,46,201,8911102,,,,,,,2022-11-07,1,,,,,ダークホース,0
2780,8360003012420,新規,0,2022-11-07,2022-11-07,合同会社ニューナイト,,合同会社,沖縄県,那覇市,松山２丁目１６番地８ＣＬＯＵＤ，Ｉ，ＢＬＤＧ地下１階,,47,201,9000032,,,,,,,2022-11-07,1,,,,,ニューナイト,0
2781,8370001049216,新規,0,2022-11-07,2022-11-07,株式会社ＲＥＯ　ＩＮＴＥＲＮＡＴＩＯＮＡＬ,,株式会社,宮城県,仙台市青葉区,土樋１丁目１０番６－３０４号,,04,101,9800065,,,,,,,2022-11-07,1,,,,,レオインターナショナル,0
2791,8410001013316,新規,0,2022-11-07,2022-11-07,鈴木鐵建興業株式会社,,株式会社,秋田県,大仙市,寺館字四ツ谷３１番地,,05,212,0192123,,,,,,,2022-11-07,1,,,,,スズキテッケンコウギョウ,0
2798,8450001013832,新規,0,2022-11-07,2022-11-07,株式会社川島商事,,株式会社,北海道,名寄市,字徳田２４９番地２,,01,221,0960071,,,,,,,2022-11-07,1,,,,,カワシマショウジ,0
2803,8700150111139,新規,0,2022-11-07,2022-08-12,Ｈｉｒｏｃｋｅｔ　Ｃｏｍｍｕｎｉｃａｔｉｏｎ,,その他,神奈川県,相模原市中央区,水郷田名３丁目３－７,,14,152,2520246,,,,,,,2022-08-12,1,,,,,ヒロケツトコミユニケーシヨン,0
2804,8700150112599,新規,0,2022-11-07,2022-11-07,大字田切区,,その他,新潟県,妙高市,大字田切４５９－１田切コミュニティセンター内,,15,217,9492102,,,,,,,2022-11-07,1,,,,,オオアザタギリク,0
2817,9010001230594,新規,0,2022-11-07,2022-11-07,株式会社ミニミニムーヴィング,,株式会社,東京都,千代田区,丸の内１丁目８番３号,,13,101,1000005,,,,,,,2022-11-07,1,,,,,ミニミニムーヴィング,0
2818,9010001230628,新規,0,2022-11-07,2022-11-07,ちえのわ株式会社,,株式会社,東京都,千代田区,九段北１丁目２番２号,,13,101,1020073,,,,,,,2022-11-07,1,,,,,チエノワ,0
2820,9010003038805,新規,0,2022-11-07,2022-11-07,合同会社Ｌｉｎｏａ　Ｃａｐｉｔａｌ３３,,合同会社,東京都,中央区,銀座１丁目１２－４Ｎ＆ＥＢＬＤ．７階,,13,102,1040061,,,,,,,2022-11-07,1,,,,,,0
2828,9010401170597,新規,0,2022-11-07,2022-11-07,株式会社Ｔｅｔｏｒａ,,株式会社,東京都,港区,南青山２丁目２番１５号ウィン青山９４２,,13,103,1070062,,,,,,,2022-11-07,1,,,,,テトラ,0
2829,9010401170630,新規,0,2022-11-07,2022-11-07,Ｃｏｓｈｉｎｅ株式会社,,株式会社,東京都,港区,南麻布３丁目２０番１号Ｄａｉｗａ麻布テラス５Ｆ,,13,103,1060047,,,,,,,2022-11-07,1,,,,,コシャイン,0
2830,9010401170639,新規,0,2022-11-07,2022-11-07,株式会社Ｋｅｅｐ　Ｈｅａｌｔｈ,,株式会社,東京都,港区,浜松町２丁目２番１５号浜松町ダイヤビル２Ｆ,,13,103,1050013,,,,,,,2022-11-07,1,,,,,キープヘルス,0
2831,9010401170655,新規,0,2022-11-07,2022-11-07,カキカジャパン株式会社,,株式会社,東京都,港区,虎ノ門１丁目１６番９号,,13,103,1050001,,,,,,,2022-11-07,1,,,,,カキカジャパン,0
2833,9010403028819,新規,0,2022-11-07,2022-11-07,えん合同会社,,合同会社,東京都,港区,南青山２丁目２番１５号,,13,103,1070062,,,,,,,2022-11-07,1,,,,,エン,0
2834,9010403028835,新規,0,2022-11-07,2022-11-07,ＵＰＩ　Ｊａｐａｎ合同会社,,合同会社,東京都,港区,虎ノ門５丁目１番４号東都ビル２階,,13,103,1050001,,,,,,,2022-11-07,1,,,,,ユーピーアイジャパン,0
2835,9010403028851,新規,0,2022-11-07,2022-11-07,合同会社Ａ１３Ｃｏｎｓｕｌｔｉｎｇ,,合同会社,東京都,港区,港南１丁目８―２３,,13,103,1080075,,,,,,,2022-11-07,1,,,,,エージューサンコンサルティング,0
2836,9010405021557,新規,0,2022-11-07,2022-11-07,一般社団法人のぞみ,,その他の設立登記法人,東京都,港区,西新橋１丁目２番９号メンターキャピタル税理士法人内,,13,103,1050003,,,,,,,2022-11-07,1,,,,,ノゾミ,0
2837,9010501049584,新規,0,2022-11-07,2022-11-07,Ｓ’ｓ　ｋｉｔｃｈｅｎ株式会社,,株式会社,東京都,台東区,上野４丁目９番２号,,13,106,1100005,,,,,,,2022-11-07,1,,,,,エスズキッチン,0
2842,9010603009825,新規,0,2022-11-07,2022-11-07,遠洋合同会社,,合同会社,東京都,江東区,大島２丁目２９番１２号,,13,108,1360072,,,,,,,2022-11-07,1,,,,,エンヨウ,0
2846,9010801033404,新規,0,2022-11-07,2022-11-07,株式会社竜電舍,,株式会社,東京都,大田区,池上３丁目９番５号,,13,111,1460082,,,,,,,2022-11-07,1,,,,,リュウデンシャ,0
2848,9010803004337,新規,0,2022-11-07,2022-11-07,合同会社ＳＫＹ　ＢＲＩＤＧＥ,,合同会社,東京都,大田区,久が原１丁目３番６－４０１号,,13,111,1460085,,,,,,,2022-11-07,1,,,,,スカイブリッジ,0
2852,9010901051900,新規,0,2022-11-07,2022-11-07,株式会社ＡＬＬＺ,,株式会社,東京都,世田谷区,三宿２丁目１１番２２号ゼニーヴ三宿３０２,,13,112,1540005,,,,,,,2022-11-07,1,,,,,オルズ,0
2859,9011001150709,新規,0,2022-11-07,2022-11-07,株式会社ツクル,,株式会社,東京都,渋谷区,富ヶ谷２丁目１６番１３号ミテッツァ代々木公園５０２,,13,113,1510063,,,,,,,2022-11-07,1,,,,,ツクル,0
2860,9011001150725,新規,0,2022-11-07,2022-11-07,株式会社Ｒｅｏ＆ＥＺ,,株式会社,東京都,渋谷区,道玄坂１丁目１０番８号渋谷道玄坂東急ビル２Ｆ－Ｃ,,13,113,1500043,,,,,,,2022-11-07,1,,,,,リオアンドイージー,0
2861,9011001150733,新規,0,2022-11-07,2022-11-07,クロスエアスクエア株式会社,,株式会社,東京都,目黒区,大橋１丁目５番１号クロスエアタワー３９１３,,13,110,1530044,,,,,,,2022-11-07,1,,,,,クロスエアスクエア,0
2862,9011001150758,新規,0,2022-11-07,2022-11-07,株式会社シールズ,,株式会社,東京都,渋谷区,恵比寿４丁目２０番３号恵比寿ガーデンプレイスタワー１８階,,13,113,1500013,,,,,,,2022-11-07,1,,,,,シールズ,0
2863,9011001150774,新規,0,2022-11-07,2022-11-07,株式会社スクます,,株式会社,東京都,渋谷区,神宮前６丁目２３番４号桑野ビル２階,,13,113,1500001,,,,,,,2022-11-07,1,,,,,スクマス,0
2875,9011101100704,新規,0,2022-11-07,2022-11-07,株式会社Ｇ‐ＣＲＯＳＳ,,株式会社,東京都,新宿区,新宿２丁目１７－１０黒岩ビル３ＦＡ,,13,104,1600022,,,,,,,2022-11-07,1,,,,,ジークロス,0
2876,9011101100720,新規,0,2022-11-07,2022-11-07,株式会社ＶＩＮＴＯ,,株式会社,東京都,新宿区,新宿５丁目１番１３号,,13,104,1600022,,,,,,,2022-11-07,1,,,,,ヴィント,0
2877,9011101100729,新規,0,2022-11-07,2022-11-07,株式会社バーニング・アイズ,,株式会社,東京都,新宿区,荒木町１０番地１７サンライズビル３０３号室,,13,104,1600007,,,,,,,2022-11-07,1,,,,,バーニングアイズ,0
2879,9011103012344,新規,0,2022-11-07,2022-11-07,合同会社ザ・バーク,,合同会社,東京都,新宿区,北新宿４丁目１８番１６号,,13,104,1690074,,,,,,,2022-11-07,1,,,,,ザバーク,0
2880,9011103012352,新規,0,2022-11-07,2022-11-07,合同会社ナララボ,,合同会社,東京都,新宿区,西新宿３丁目３－１３西新宿水間ビル６Ｆ,,13,104,1600023,,,,,,,2022-11-07,1,,,,,ナララボ,0
2883,9011201024183,新規,0,2022-11-07,2022-11-07,株式会社ＴＯＳ,,株式会社,東京都,中野区,本町５丁目４５番１３号レガリス新中野アンベリール４０４,,13,114,1640012,,,,,,,2022-11-07,1,,,,,ティーオーエス,0
2884,9011301028225,新規,0,2022-11-07,2022-11-07,株式会社Ｗ　Ｇｌｏｒｙ,,株式会社,東京都,杉並区,堀ノ内１丁目５－４世継ビル６０１,,13,115,1660013,,,,,,,2022-11-07,1,,,,,ダブルグローリー,0
2886,9011503005352,新規,0,2022-11-07,2022-11-07,合同会社ハイフィールド,,合同会社,東京都,北区,赤羽南１丁目２４番３号,,13,117,1150044,,,,,,,2022-11-07,1,,,,,ハイフィールド,0
2888,9011603003743,新規,0,2022-11-07,2022-11-07,合同会社Ａｒｔｅ,,合同会社,東京都,練馬区,春日町３丁目１５番５号第３ＭビルＢ１,,13,120,1790074,,,,,,,2022-11-07,1,,,,,アルテ,0
2889,9011701025763,新規,0,2022-11-07,2022-11-07,株式会社ＡＳＯ,,株式会社,東京都,江戸川区,東瑞江３丁目５－８,,13,123,1320014,,,,,,,2022-11-07,1,,,,,エーエスオー,0
2890,9011705001760,新規,0,2022-11-07,2022-11-07,医療法人社団さんさん会,,その他の設立登記法人,東京都,江戸川区,南小岩７丁目２４番２０号ＦＩＲＳＴＡＩ５Ｆ,00128373,13,123,1330056,,,,,,,2022-11-07,1,,,,,サンサンカイ,0
2892,9011801041495,新規,0,2022-11-07,2022-11-07,株式会社コードデザイン,,株式会社,東京都,葛飾区,青戸４丁目２７－３－８０５,,13,122,1250062,,,,,,,2022-11-07,1,,,,,コードデザイン,0
2893,9011801041504,新規,0,2022-11-07,2022-11-07,朝日製型株式会社,,株式会社,東京都,葛飾区,東立石４丁目１４番１号,,13,122,1240013,,,,,,,2022-11-07,1,,,,,アサヒセイケイ,0
2894,9011801041512,新規,0,2022-11-07,2022-11-07,株式会社小島組,,株式会社,東京都,足立区,谷在家２丁目２０番１２号３０１,,13,121,1230863,,,,,,,2022-11-07,1,,,,,オジマグミ,0
2896,9011803005358,新規,0,2022-11-07,2022-11-07,合同会社アスプロス,,合同会社,東京都,足立区,弘道２丁目１２番２７号アルバティアラ１０２,,13,121,1200013,,,,,,,2022-11-07,1,,,,,アスプロス,0
2898,9012403005657,新規,0,2022-11-07,2022-11-07,合同会社Ｋ・メディカル＆デンタル・コンサルティング,,合同会社,東京都,三鷹市,中原４丁目１６番７号,,13,204,1810005,,,,,,,2022-11-07,1,,,,,ケーメディカルアンドデンタルコンサルティング,0
2900,9012701017338,新規,0,2022-11-07,2022-11-07,株式会社つむぐ動物病院,,株式会社,東京都,小平市,小川西町３丁目２番８号第二白井ハイツ１Ｆ,,13,211,1870035,,,,,,,2022-11-07,1,,,,,ツムグドウブツビョウイン,0
2901,9013301049886,新規,0,2022-11-07,2022-11-07,株式会社Ｌｉｎｔｅｒｎａ,,株式会社,東京都,豊島区,巣鴨４丁目２３－８奥山ビル５０１,,13,116,1700002,,,,,,,2022-11-07,1,,,,,リーンテルナ,0
2909,9020001148794,新規,0,2022-11-07,2022-11-07,株式会社遊,,株式会社,神奈川県,横浜市栄区,桂町７４５番地５,,14,115,2470005,,,,,,,2022-11-07,1,,,,,ユウ,0
2910,9020001148803,新規,0,2022-11-07,2022-11-07,大成株式会社,,株式会社,神奈川県,横浜市南区,真金町２丁目１４番地１７セルアージュ横濱阪東橋アヴニール６０２号室,,14,105,2320021,,,,,,,2022-11-07,1,,,,,タイセイ,0
2911,9020001148811,新規,0,2022-11-07,2022-11-07,株式会社ワイビーエル,,株式会社,神奈川県,横浜市中区,太田町５丁目６９番地ＳＳＫＮＯＴ４０３号室,,14,104,2310011,,,,,,,2022-11-07,1,,,,,ワイビーエル,0
2912,9020001148852,新規,0,2022-11-07,2022-11-07,株式会社ＮＣＥ,,株式会社,神奈川県,横浜市鶴見区,東寺尾３丁目１番６号,,14,101,2300077,,,,,,,2022-11-07,1,,,,,エヌシーイー,0
2913,9020001148869,新規,0,2022-11-07,2022-11-07,ＲＫライフ株式会社,,株式会社,神奈川県,横浜市中区,北仲通５丁目５７番地２ザ・タワー横浜北仲１７０９号室,,14,104,2310003,,,,,,,2022-11-07,1,,,,,アールケーライフ,0
2914,9020001148893,新規,0,2022-11-07,2022-11-07,株式会社ＨＤＳ,,株式会社,神奈川県,横浜市瀬谷区,三ツ境８番地６杉本ビル４Ｆ,,14,114,2460022,,,,,,,2022-11-07,1,,,,,エイチディーエス,0
2915,9020003022675,新規,0,2022-11-07,2022-11-07,ミライクル合同会社,,合同会社,神奈川県,横浜市神奈川区,東神奈川１丁目８番地２０－８０２号,,14,102,2210044,,,,,,,2022-11-07,1,,,,,ミライクル,0
2916,9020003022683,新規,0,2022-11-07,2022-11-07,合同会社リトラ,,合同会社,神奈川県,横浜市緑区,長津田５丁目３番１９号ジュネスＢ１０１,,14,113,2260027,,,,,,,2022-11-07,1,,,,,リトラ,0
2920,9021001077331,新規,0,2022-11-07,2022-11-07,株式会社ＥＦＮＡＬ,,株式会社,神奈川県,茅ヶ崎市,平和町６番３６－１号,,14,207,2530024,,,,,,,2022-11-07,1,,,,,イフナル,0
2921,9021001077372,新規,0,2022-11-07,2022-11-07,ＹＳＵ株式会社,,株式会社,神奈川県,横須賀市,平作１丁目１－３－１０２,,14,201,2380032,,,,,,,2022-11-07,1,,,,,ワイエスユー,0
2922,9021001077397,新規,0,2022-11-07,2022-11-07,株式会社優建,,株式会社,神奈川県,茅ヶ崎市,芹沢１５３７番地８,,14,207,2530008,,,,,,,2022-11-07,1,,,,,ユウケン,0
2925,9021003012336,新規,0,2022-11-07,2022-11-07,東日本総合設備合同会社,,合同会社,神奈川県,座間市,緑ケ丘１丁目１６番６号ブライト１０２号,,14,216,2520021,,,,,,,2022-11-07,1,,,,,ヒガシニホンソウゴウセツビ,0
2928,9030001150849,新規,0,2022-11-07,2022-11-07,株式会社アベニュー,,株式会社,埼玉県,草加市,両新田東町６８番地５,,11,221,3400026,,,,,,,2022-11-07,1,,,,,アベニュー,0
2929,9030001150857,新規,0,2022-11-07,2022-11-07,株式会社バロン,,株式会社,埼玉県,蕨市,中央３丁目３１番４号クレールＩＩ３０１号,00128367,11,223,3350004,,,,,,,2022-11-07,1,,,,,バロン,0
2930,9030001150898,新規,0,2022-11-07,2022-11-07,株式会社ウィッシュ,,株式会社,埼玉県,蕨市,中央５丁目１９番６号,,11,223,3350004,,,,,,,2022-11-07,1,,,,,ウィッシュ,0
2931,9030001150915,新規,0,2022-11-07,2022-11-07,博希商事株式会社,,株式会社,埼玉県,上尾市,大字小敷谷３６１－５８,,11,219,3620064,,,,,,,2022-11-07,1,,,,,ヒロキショウジ,0
2939,9030003020513,新規,0,2022-11-07,2022-11-07,ＨＡＩ　ＡＵ合同会社,,合同会社,埼玉県,坂戸市,芦山町４番地４第一新清ハイツ１０１号室,,11,239,3500273,,,,,,,2022-11-07,1,,,,,ハイアウ,0
2940,9030005021055,新規,0,2022-11-07,2022-11-07,一般社団法人クローバーフォーリーフ,,その他の設立登記法人,埼玉県,和光市,本町１９番３－１０１号,,11,229,3510114,,,,,,,2022-11-07,1,,,,,クローバーフォーリーフ,0
2941,9040001125668,新規,0,2022-11-07,2022-11-07,株式会社雄栄,,株式会社,千葉県,松戸市,五香７丁目４０番地の６,,12,207,2702213,,,,,,,2022-11-07,1,,,,,ユウエイ,0
2942,9040001125676,新規,0,2022-11-07,2022-11-07,秀明化成工業株式会社,,株式会社,千葉県,我孫子市,天王台１丁目１番２７号長堀ビル３階,,12,222,2701143,,,,,,,2022-11-07,1,,,,,シュウメイカセイコウギョウ,0
2943,9040001125684,新規,0,2022-11-07,2022-11-07,株式会社Ａｇｅ　Ｌｉｎｋ,,株式会社,千葉県,松戸市,六高台３丁目３４番地の２山崎ハイツ２０１号,,12,207,2702203,,,,,,,2022-11-07,1,,,,,エイジリンク,0
2944,9040001125742,新規,0,2022-11-07,2022-11-07,株式会社鶴巻ファーム,,株式会社,千葉県,旭市,蛇園５０４７番地,,12,215,2892612,,,,,,,2022-11-07,1,,,,,ツルマキファーム,0
2945,9040003021196,新規,0,2022-11-07,2022-11-07,合同会社みのり設備,,合同会社,千葉県,松戸市,牧の原１丁目９５番地７０２号,,12,207,2702267,,,,,,,2022-11-07,1,,,,,ミノリセツビ,0
2948,9050001051896,新規,0,2022-11-07,2022-11-07,株式会社ＫＩＭＣ,,株式会社,茨城県,鹿嶋市,大字下津２７３番地１１５,,08,222,3140004,,,,,,,2022-11-07,1,,,,,ケイアイエムシー,0
2949,9050001051921,新規,0,2022-11-07,2022-11-07,株式会社五十嵐総建,,株式会社,茨城県,神栖市,深芝２０２番地１,,08,232,3140148,,,,,,,2022-11-07,1,,,,,イガラシソウケン,0
2957,9080005007495,新規,0,2022-11-07,2022-11-07,特定非営利活動法人実こころ,,その他の設立登記法人,静岡県,静岡市駿河区,小黒１丁目２番３－２号,,22,102,4228072,,,,,,,2022-11-07,1,,,,,ミココロ,0
2962,9080403004648,新規,0,2022-11-07,2022-11-07,合同会社Ｋアセット,,合同会社,静岡県,磐田市,池田５８７番地１,,22,211,4380805,,,,,,,2022-11-07,1,,,,,ケーアセット,0
2963,9090001017828,新規,0,2022-11-07,2022-11-07,株式会社ダン,,株式会社,山梨県,南巨摩郡富士川町,小林１１９８番地,,19,368,4000504,,,,,,,2022-11-07,1,,,,,ダン,0
2964,9090001017836,新規,0,2022-11-07,2022-11-07,Ｌ＆Ｔ　Ｄｅｓｉｇｎ株式会社,,株式会社,山梨県,甲府市,徳行３丁目１５番３６号,,19,201,4000047,,,,,,,2022-11-07,1,,,,,エルアンドティーデザイン,0
2965,9100001035828,新規,0,2022-11-07,2022-11-07,株式会社チャレンジ,,株式会社,長野県,塩尻市,大字広丘高出１９４７番地１０,,20,215,3990703,,,,,,,2022-11-07,1,,,,,チャレンジ,0
2966,9100001035844,新規,0,2022-11-07,2022-11-07,近代塗装株式会社,,株式会社,長野県,飯田市,鼎上山１６３９番地１,,20,205,3950806,,,,,,,2022-11-07,1,,,,,キンダイトソウ,0
2967,9100001035852,新規,0,2022-11-07,2022-11-07,スプレッド・エナジー株式会社,,株式会社,長野県,北佐久郡軽井沢町,大字長倉２５１９番地１,,20,321,3890111,,,,,,,2022-11-07,1,,,,,スプレッドエナジー,0
2968,9100001035860,新規,0,2022-11-07,2022-11-07,株式会社ＲＣ　ＣＯ．ＬＴＤ,,株式会社,長野県,松本市,庄内１丁目７番２号,,20,202,3900828,,,,,,,2022-11-07,1,,,,,アールシーシーオーエルティディー,0
2969,9100003006760,新規,0,2022-11-07,2022-11-07,合同会社山貴,,合同会社,長野県,長野市,大字中御所８６番地７,,20,201,3800935,,,,,,,2022-11-07,1,,,,,ヤマキ,0
2973,9110005016872,新規,0,2022-11-07,2022-11-07,一般社団法人キャリアステージいといがわ,,その他の設立登記法人,新潟県,糸魚川市,本町９番３号第二黒姫ビル２階,,15,216,9410068,,,,,,,2022-11-07,1,,,,,キャリアステージイトイガワ,0
2983,9120001249987,新規,0,2022-11-07,2022-11-07,吉生商事株式会社,,株式会社,大阪府,大阪市中央区,島之内２丁目１６番１０号ライオンタワー７階,,27,128,5420082,,,,,,,2022-11-07,1,,,,,ヨシオショウジ,0
2984,9120001249995,新規,0,2022-11-07,2022-11-07,株式会社Ｄホールディングス,,株式会社,大阪府,大阪市中央区,心斎橋筋１丁目５番３０号,,27,128,5420085,,,,,,,2022-11-07,1,,,,,ディーホームディングス,0
2988,9120003022764,新規,0,2022-11-07,2022-11-07,合同会社ＴＯＫＵＨＡＬ．神原鍼灸整骨院池田町院,,合同会社,大阪府,大阪市北区,池田町１番２－１４０６号,,27,127,5300033,,,,,,,2022-11-07,1,,,,,トクハルカンバラシンキュウセイコツインイケダチョウイン,0
2990,9120101066449,新規,0,2022-11-07,2022-11-07,株式会社Ｕ‐ｃｏｎｎｅｃｔ,,株式会社,大阪府,堺市北区,中百舌鳥町２丁２９９番地１０,,27,146,5918023,,,,,,,2022-11-07,1,,,,,ユーコネクト,0
2993,9120901046674,新規,0,2022-11-07,2022-11-07,株式会社アズリード,,株式会社,大阪府,吹田市,南金田２丁目１４‐８ルミエール江坂３０１号室,,27,205,5640044,,,,,,,2022-11-07,1,,,,,アズリード,0
2994,9120901046682,新規,0,2022-11-07,2022-11-07,株式会社ｒｅｌｏａｄ,,株式会社,大阪府,吹田市,内本町３丁目９番１３号,,27,205,5640032,,,,,,,2022-11-07,1,,,,,リロード,0
2995,9120901046699,新規,0,2022-11-07,2022-11-07,株式会社ラララ,,株式会社,大阪府,茨木市,彩都やまぶき３丁目４番３号,,27,211,5670086,,,,,,,2022-11-07,1,,,,,ラララ,0
3000,9130001072967,新規,0,2022-11-07,2022-11-07,株式会社川半,,株式会社,京都府,京都市右京区,西京極前田町１番地,,26,108,6150823,,,,,,,2022-11-07,1,,,,,カワハン,0
3001,9130001072983,新規,0,2022-11-07,2022-11-07,総和株式会社,,株式会社,京都府,京都市山科区,竹鼻扇町７番地,,26,110,6078082,,,,,,,2022-11-07,1,,,,,ソウワ,0
3004,9130003008283,新規,0,2022-11-07,2022-11-07,シュクレＫ・コンサルティング合同会社,,合同会社,京都府,京都市中京区,室町通四条上る菊水鉾町５８５,,26,104,6048154,,,,,,,2022-11-07,1,,,,,シュクレケイコンサルティング,0
3018,9140001127919,新規,0,2022-11-07,2022-11-07,株式会社ライジング,,株式会社,兵庫県,明石市,西新町２丁目１４－３,,28,203,6730023,,,,,,,2022-11-07,1,,,,,ライジング,0
3019,9140001127927,新規,0,2022-11-07,2022-11-07,株式会社エーアイエスカンパニー,,株式会社,兵庫県,尼崎市,大物町１丁目１０番２号,,28,202,6600823,,,,,,,2022-11-07,1,,,,,エーアイエスカンパニー,0
3020,9140001127935,新規,0,2022-11-07,2022-11-07,株式会社Ｌｉｆｅ　ｕｐ,,株式会社,兵庫県,加古川市,加古川町溝之口２６０番地の５,,28,210,6750064,,,,,,,2022-11-07,1,,,,,ライフアップ,0
3021,9140001127943,新規,0,2022-11-07,2022-11-07,株式会社Ｒｅｂｌｏｏｍ,,株式会社,兵庫県,西宮市,宮西町４番５号ＳＴＥＰ夙川３０２号,,28,204,6620976,,,,,,,2022-11-07,1,,,,,リブルーム,0
3022,9140001127968,新規,0,2022-11-07,2022-11-07,株式会社みずたま不動産ＥＡＳＴ,,株式会社,兵庫県,宝塚市,売布自由ガ丘６番１号,,28,214,6650856,,,,,,,2022-11-07,1,,,,,ミズタマフドウサンイースト,0
3025,9140003018315,新規,0,2022-11-07,2022-11-07,合同会社香樹屋,,合同会社,兵庫県,神崎郡福崎町,馬田１３８番地１,,28,443,6792213,,,,,,,2022-11-07,1,,,,,カキヤ,0
3028,9150001025931,新規,0,2022-11-07,2022-11-07,株式会社中嶋瓦工業,,株式会社,奈良県,橿原市,小綱町６番２７号,,29,205,6340811,,,,,,,2022-11-07,1,,,,,ナカジマカワラコウギョウ,0
3037,9170001017357,新規,0,2022-11-07,2022-11-07,株式会社松川農園,,株式会社,和歌山県,日高郡みなべ町,東岩代１６９７番地,,30,391,6450013,,,,,,,2022-11-07,1,,,,,マツカワノウエン,0
3043,9180001153622,新規,0,2022-11-07,2022-11-07,株式会社サーティー,,株式会社,愛知県,名古屋市千種区,小松町５丁目２番５号－１３０１,,23,101,4640853,,,,,,,2022-11-07,1,,,,,サーティー,0
3044,9180001153630,新規,0,2022-11-07,2022-11-07,株式会社隼商会,,株式会社,愛知県,春日井市,東山町３丁目１２番２４号,,23,206,4860811,,,,,,,2022-11-07,1,,,,,ハヤブサショウカイ,0
3045,9180001153639,新規,0,2022-11-07,2022-11-07,株式会社長谷基礎,,株式会社,愛知県,尾張旭市,北原山町陀摩屋敷１３７８番地２,,23,226,4880063,,,,,,,2022-11-07,1,,,,,ハセキソ,0
3046,9180001153655,新規,0,2022-11-07,2022-11-07,Ｆａｉｒｂａｎｋｓ株式会社,,株式会社,愛知県,知多郡阿久比町,大字白沢字二反ノ田５４番地１,,23,441,4702201,,,,,,,2022-11-07,1,,,,,フェアバンクス,0
3047,9180001153688,新規,0,2022-11-07,2022-11-07,株式会社モリ板金,,株式会社,愛知県,犬山市,大字羽黒字小豆田８番地２０,,23,215,4840894,,,,,,,2022-11-07,1,,,,,モリバンキン,0
3048,9180001153696,新規,0,2022-11-07,2022-11-07,株式会社リアン,,株式会社,愛知県,小牧市,大字久保一色１３３５番地３,,23,219,4850003,,,,,,,2022-11-07,1,,,,,リアン,0
3049,9180001153721,新規,0,2022-11-07,2022-11-07,株式会社Ｅ．Ｂ．Ｓ,,株式会社,愛知県,名古屋市北区,如意２丁目９０番地の２,,23,103,4620007,,,,,,,2022-11-07,1,,,,,イービーエス,0
3050,9180001153746,新規,0,2022-11-07,2022-11-07,株式会社塊,,株式会社,愛知県,名古屋市天白区,植田西２丁目２１７番地スタジオＡ１１０１,,23,116,4680058,,,,,,,2022-11-07,1,,,,,カタマリ,0
3052,9180003024433,新規,0,2022-11-07,2022-11-07,合同会社アイ・ユー,,合同会社,愛知県,名古屋市守山区,元郷２丁目９０７番地第６サンハイツ大森２０６号,,23,113,4630025,,,,,,,2022-11-07,1,,,,,アイユー,0
3053,9180003024441,新規,0,2022-11-07,2022-11-07,合同会社Ｒ＆Ｒ,,合同会社,愛知県,春日井市,勝川町７丁目３番地７ネクシティパレッタＲｏｏｍ８,,23,206,4860945,,,,,,,2022-11-07,1,,,,,アールアンドアール,0
3054,9180003024458,新規,0,2022-11-07,2022-11-07,合同会社ステイゴールド,,合同会社,愛知県,あま市,七宝町桂河原１９番地,,23,237,4970004,,,,,,,2022-11-07,1,,,,,ステイゴールド,0
3056,9180301036774,新規,0,2022-11-07,2022-11-07,株式会社Ｕｌｉｙ,,株式会社,愛知県,岡崎市,蓑川新町２丁目１５番地１,,23,202,4443526,,,,,,,2022-11-07,1,,,,,ウリー,0
3057,9180301036782,新規,0,2022-11-07,2022-11-07,近藤電気株式会社,,株式会社,愛知県,刈谷市,築地町４丁目３番地１２,,23,210,4480011,,,,,,,2022-11-07,1,,,,,コンドウデンキ,0
3058,9180301036799,新規,0,2022-11-07,2022-11-07,株式会社クルガテック,,株式会社,愛知県,豊橋市,小松町１４６番地３,,23,201,4418109,,,,,,,2022-11-07,1,,,,,クルガテック,0
3062,9190001029870,新規,0,2022-11-07,2022-11-07,株式会社モンティーヌ,,株式会社,三重県,鈴鹿市,南玉垣町７１６０番地の３,,24,207,5130816,,,,,,,2022-11-07,1,,,,,モンティーヌ,0
3063,9190001029879,新規,0,2022-11-07,2022-11-07,株式会社ファイアワークス,,株式会社,三重県,いなべ市,大安町平塚９２７番地２０,,24,214,5110273,,,,,,,2022-11-07,1,,,,,ファイアワークス,0
3071,9230001019578,新規,0,2022-11-07,2022-11-07,株式会社ａｍｅｔｒｉｎｅ,,株式会社,富山県,高岡市,中川上町１３番１５号,,16,202,9330043,,,,,,,2022-11-07,1,,,,,アメトリン,0
3075,9240001060589,新規,0,2022-11-07,2022-11-07,株式会社ＲｅＤＩＳＥ,,株式会社,広島県,広島市中区,八丁堀１２番１０－５０１号,,34,101,7300013,,,,,,,2022-11-07,1,,,,,リダイス,0
3078,9250001019832,新規,0,2022-11-07,2022-11-07,松栄マリン株式会社,,株式会社,山口県,周南市,栄町２丁目３６,,35,215,7450037,,,,,,,2022-11-07,1,,,,,ショウエイマリン,0
3081,9260001037379,新規,0,2022-11-07,2022-11-07,ファーストリノベーション株式会社,,株式会社,岡山県,倉敷市,笹沖３１１番地７Ｂ－１０３,,33,202,7100834,,,,,,,2022-11-07,1,,,,,ファーストリノベーション,0
3082,9260001037387,新規,0,2022-11-07,2022-11-07,株式会社織兆,,株式会社,岡山県,岡山市北区,田中６２６番地３,,33,101,7000951,,,,,,,2022-11-07,1,,,,,オリチョウ,0
3085,9260003004096,新規,0,2022-11-07,2022-11-07,Ｖｉｖｉｄ　Ｌｉｑｕｉｄ合同会社,,合同会社,岡山県,浅口郡里庄町,大字新庄グリーンクレスト９－２０,,33,445,7190304,,,,,,,2022-11-07,1,,,,,ビビッドリキッド,0
3089,9290001099417,新規,0,2022-11-07,2022-11-07,株式会社翔伸,,株式会社,福岡県,春日市,岡本１丁目１１８番地,,40,218,8160861,,,,,,,2022-11-07,1,,,,,ショウシン,0
3090,9290001099499,新規,0,2022-11-07,2022-11-07,ヤマセイ株式会社,,株式会社,福岡県,福岡市博多区,下呉服町４番３１号,,40,132,8120034,,,,,,,2022-11-07,1,,,,,ヤマセイ,0
3093,9290003013152,新規,0,2022-11-07,2022-11-07,合同会社なあさん家,,合同会社,福岡県,福岡市博多区,青木１丁目１９番１－９２３号エバーライフ東平尾公園,,40,132,8120851,,,,,,,2022-11-07,1,,,,,ナアサンチ,0
3096,9290801029028,新規,0,2022-11-07,2022-11-07,株式会社大塚,,株式会社,福岡県,行橋市,行事７丁目５番１号,,40,213,8240001,,,,,,,2022-11-07,1,,,,,オオツカ,0
3098,9310003004470,新規,0,2022-11-07,2022-11-07,合同会社なつやすみ,,合同会社,長崎県,対馬市,上対馬町比田勝８６２,,42,209,8171701,,,,,,,2022-11-07,1,,,,,ナツヤスミ,0
3102,9330001030269,新規,0,2022-11-07,2022-11-07,株式会社あい不動産,,株式会社,熊本県,熊本市東区,健軍１丁目２７番１号,,43,102,8620911,,,,,,,2022-11-07,1,,,,,アイフドウサン,0
3107,9350001018023,新規,0,2022-11-07,2022-11-07,株式会社Ｈｏｏｄｏｔ　Ｊａｐａｎ,,株式会社,宮崎県,宮崎市,月見ケ丘５丁目１番１－２号,,45,201,8800926,,,,,,,2022-11-07,1,,,,,フードットジャパン,0
3108,9350003004203,新規,0,2022-11-07,2022-11-07,Ｏｎ　Ｔｈｅ　Ｒｏａｄ　Ｓｅｒｖｉｃｅ合同会社,,合同会社,宮崎県,日向市,浜町３丁目１５番地３,,45,206,8830004,,,,,,,2022-11-07,1,,,,,オンザロードサービス,0
3109,9350003004211,新規,0,2022-11-07,2022-11-07,合同会社プレミアムケアおりーぶ,,合同会社,宮崎県,延岡市,大貫町４丁目２９８２番地２,,45,203,8820803,,,,,,,2022-11-07,1,,,,,プレミアムケアオリーブ,0
3112,9360003012436,新規,0,2022-11-07,2022-11-07,合同会社玖日城,,合同会社,沖縄県,那覇市,おもろまち１丁目１番１号ＲＹＵ：Ｘ　ＴＯＷＥＲ　Ｔｈｅ　ＥＡＳＴ－７３０,,47,201,9000006,,,,,,,2022-11-07,1,,,,,クビグスク,0
3115,9380001033234,新規,0,2022-11-07,2022-11-07,黒沢電設工業株式会社,,株式会社,福島県,伊達郡川俣町,大字鶴沢字清水入１－１,,07,308,9601406,,,,,,,2022-11-07,1,,,,,クロサワデンセツコウギョウ,0
3116,9390003002013,新規,0,2022-11-07,2022-11-07,合同会社那須架設工業,,合同会社,山形県,酒田市,福山字上山本３３番地,,06,204,9998241,,,,,,,2022-11-07,1,,,,,ナスカセツコウギョウ,0
3128,9450001013831,新規,0,2022-11-07,2022-11-07,吉兆水産株式会社,,株式会社,北海道,苫前郡苫前町,字苫前６８番地２９,,01,483,0783701,,,,,,,2022-11-07,1,,,,,キッチョウスイサン,0
3130,9460003000926,新規,0,2022-11-07,2022-11-07,合同会社イオハル,,合同会社,北海道,釧路市,南大通８丁目１番１９号,,01,206,0850841,,,,,,,2022-11-07,1,,,,,イオハル,0
3133,9480003001889,新規,0,2022-11-07,2022-11-07,合同会社原磯製作所,,合同会社,徳島県,徳島市,八万町中津浦２４番地の７４,,36,201,7708072,,,,,,,2022-11-07,1,,,,,ハライソセイサクショ,0
3134,9500001024583,新規,0,2022-11-07,2022-11-07,ジッタプラン株式会社,,株式会社,愛媛県,松山市,東垣生町５６５番地１８,,38,201,7918043,,,,,,,2022-11-07,1,,,,,ジッタプラン,0
3138,9700150112598,新規,0,2022-11-07,2022-11-07,新日本運転代行政治連盟,,その他,福島県,郡山市,咲田１丁目２番１号咲田ハイツ１号館１０５号,,07,203,9638012,,,,,,,2022-11-07,1,,,,,シンニッポンウンテンダイコウセイジレンメイ,0
