sequenceNumber,corporateNumber,process,correct,updateDate,changeDate,name,nameImageId,kind,prefectureName,cityName,streetNumber,addressImageId,prefectureCode,cityCode,postCode,addressOutside,addressOutsideImageId,closeDate,closeCause,successorCorporateNumber,changeCause,assignmentDate,latest,enName,enPrefectureName,enCityName,enAddressOutside,furigana,hihyoji
8,1010001192652,登記記録の閉鎖等,0,2023-07-19,2023-07-13,株式会社ロクヨン,,株式会社,東京都,千代田区,丸の内１丁目５番１号,,13,101,1000005,,,2023-07-13,合併による解散等,8120001093305,令和５年７月１日大阪市北区小松原町２番４号大阪富国生命ビル日本駐車場開発株式会社（8120001093305）に合併し解散,2018-06-15,1,,,,,ロクヨン,0
11,1010002014450,登記記録の閉鎖等,0,2023-07-19,2023-07-05,有限会社宝仙,,有限会社,東京都,千代田区,神田佐久間町２丁目２５番地,,13,101,1010025,,,2023-07-05,清算の結了等,,,2015-10-05,1,,,,,ホウセン,0
14,1010102006950,登記記録の閉鎖等,0,2023-07-19,2023-07-13,有限会社山崎,00050443,有限会社,東京都,八王子市,中町４番１０号ニュー紅洋ビル６階,,13,201,1920085,,,2023-07-13,清算の結了等,,,2015-10-05,1,,,,,ヤマザキ,0
16,1010401151027,登記記録の閉鎖等,0,2023-07-19,2023-07-13,株式会社アスパラントグループＳＰＣ６号,,株式会社,東京都,港区,赤坂２丁目２３番１号,,13,103,1070052,,,2023-07-13,合併による解散等,3010801006885,令和５年６月３０日東京都大田区矢口三丁目１４番１５号株式会社タンケンシールセーコウ（3010801006885）に合併し解散,2020-02-12,1,,,,,アスパラントグループエスピーシーロクゴウ,0
36,1011001068272,登記記録の閉鎖等,0,2023-07-19,2023-07-13,エンポリア株式会社,,株式会社,東京都,三鷹市,下連雀２丁目１３番３５号,,13,204,1810013,,,2023-07-13,合併による解散等,5010701019886,令和５年７月１日東京都中央区日本橋二丁目１番１０号クワトロ株式会社（5010701019886）に合併し解散,2015-10-05,1,,,,,エンポリア,0
45,1011101039132,登記記録の閉鎖等,0,2023-07-19,2023-06-29,株式会社アトム,,株式会社,東京都,港区,芝３丁目１３番１号ＭＫビル７０１,,13,103,1050014,,,2023-06-29,清算の結了等,,,2015-10-05,1,,,,,アトム,0
69,1020001067498,登記記録の閉鎖等,0,2023-07-19,2023-07-05,株式会社エスコム,,株式会社,神奈川県,川崎市宮前区,菅生２丁目２３番７号,,14,136,2160015,,,2023-07-05,清算の結了等,,,2015-10-05,1,,,,,エスコム,0
71,1020001127855,登記記録の閉鎖等,0,2023-07-19,2023-07-13,株式会社ＭＣＣエナジー,,株式会社,神奈川県,横浜市港北区,新横浜３丁目１７番６号,,14,109,2220033,,,2023-07-13,合併による解散等,6010001216002,令和５年７月１日東京都千代田区神田駿河台四丁目３番地株式会社ＭＣＣマネジメント（6010001216002）に合併し解散,2018-09-10,1,,,,,エムシーシーエナジー,0
96,1050001032235,登記記録の閉鎖等,0,2023-07-19,2023-07-07,株式会社岩瀬双葉,,株式会社,茨城県,桜川市,中泉３３２番１,,08,231,3091224,,,2023-07-07,清算の結了等,,,2015-10-05,1,,,,,イワセフタバ,0
107,1070002007960,登記記録の閉鎖等,0,2023-07-19,2023-07-14,有限会社キャッツ,,有限会社,群馬県,前橋市,幸塚町８番地４,,10,201,3710053,,,2023-07-14,清算の結了等,,,2015-10-05,1,,,,,キャッツ,0
108,1070002010898,登記記録の閉鎖等,0,2023-07-19,2023-07-10,有限会社高橋自動車整備工場,,有限会社,群馬県,高崎市,吉井町池１４８６番地１４,,10,202,3702107,,,2023-07-10,清算の結了等,,,2015-10-05,1,,,,,タカハシジドウシャセイビコウジョウ,0
114,1080102022520,登記記録の閉鎖等,0,2023-07-19,2023-07-14,高田商事有限会社,00130972,有限会社,静岡県,駿東郡小山町,須走２４２番地,,22,344,4101431,,,2023-07-14,清算の結了等,,,2023-06-29,1,,,,,タカダショウジ,0
117,1090002000204,登記記録の閉鎖等,0,2023-07-19,2023-07-14,有限会社荒川栄次郎商店,,有限会社,山梨県,甲府市,国母６丁目６番２号,,19,201,4000043,,,2023-07-14,清算の結了等,,,2015-10-05,1,,,,,アラカワエイジロウショウテン,0
127,1120001045205,登記記録の閉鎖等,0,2023-07-19,2023-07-12,株式会社高田神具店,00028174,株式会社,大阪府,大阪市西区,千代崎１丁目１８番５号,,27,106,5500023,,,2023-07-12,清算の結了等,,,2015-10-05,1,,,,,タカダシングテン,0
129,1120001150079,登記記録の閉鎖等,0,2023-07-19,2023-07-14,株式会社太平洋建設,,株式会社,大阪府,枚方市,山之上西町６番２０号,,27,210,5730048,,,2023-07-14,清算の結了等,,,2015-10-05,1,,,,,タイヘイヨウケンセツ,0
145,1120102027688,登記記録の閉鎖等,0,2023-07-19,2023-07-14,有限会社ナカムラテクノ,,有限会社,大阪府,泉南市,信達市場８９３番地の３,,27,228,5900504,,,2023-07-14,清算の結了等,,,2015-10-05,1,,,,,ナカムラテクノ,0
157,1140001030155,登記記録の閉鎖等,0,2023-07-19,2023-07-12,株式会社アイエス,,株式会社,兵庫県,神戸市中央区,御幸通８丁目１－６，２２階,,28,110,6510087,,,2023-07-12,清算の結了等,,,2015-10-05,1,,,,,アイエス,0
158,1140001042027,登記記録の閉鎖等,0,2023-07-19,2023-07-12,株式会社アパリス,,株式会社,兵庫県,丹波篠山市,園田分段林坪５５４番地１,,28,221,6692805,,,2023-07-12,清算の結了等,,,2015-10-05,1,,,,,アパリス,0
163,1140003016607,登記記録の閉鎖等,0,2023-07-19,2023-07-12,合同会社Ｅａｒｔｈ,,合同会社,大阪府,大阪市北区,梅田１丁目２番２号大阪駅前第２ビル２階５－６号室,,27,127,5300001,,,2023-07-12,清算の結了等,,,2021-08-05,1,,,,,アース,0
172,1180001057244,登記記録の閉鎖等,0,2023-07-19,2023-07-12,株式会社サクシード,,株式会社,愛知県,名古屋市瑞穂区,新開町１０番１１号,,23,108,4670856,,,2023-07-12,清算の結了等,,,2015-10-05,1,,,,,サクシード,0
185,1180002017726,登記記録の閉鎖等,0,2023-07-19,2023-07-10,有限会社川田商事,,有限会社,愛知県,名古屋市中川区,牛立町４丁目７０番地の３,,23,110,4540043,,,2023-07-10,清算の結了等,,,2015-10-05,1,,,,,カワダショウジ,0
192,1210001002378,登記記録の閉鎖等,0,2023-07-19,2023-07-06,株式会社田中石油店,,株式会社,福井県,福井市,毛矢２丁目９番１号,,18,201,9188003,,,2023-07-06,清算の結了等,,,2015-10-05,1,,,,,タナカセキユテン,0
193,1210001009497,登記記録の閉鎖等,0,2023-07-19,2023-07-03,みんなのおかし市場株式会社,,株式会社,福井県,福井市,高柳１丁目２１０２番地,,18,201,9100837,,,2023-07-03,合併による解散等,2210001001379,令和５年７月１日福井市高柳一丁目２１０２番地株式会社佐々木商店（2210001001379）に合併し解散,2015-10-05,1,,,,,ミンナノオカシイチバ,0
198,1230001012854,登記記録の閉鎖等,0,2023-07-19,2023-07-13,丸正建設株式会社,,株式会社,富山県,射水市,中太閤山５丁目２５番地,,16,211,9390363,,,2023-07-13,清算の結了等,,,2015-10-05,1,,,,,マルショウケンセツ,0
206,1260001012125,登記記録の閉鎖等,0,2023-07-19,2023-07-07,株式会社メイユー,,株式会社,岡山県,岡山市中区,円山１０３６番地１２,,33,102,7038271,,,2023-07-07,清算の結了等,,,2015-10-05,1,,,,,メイユー,0
207,1260001017272,登記記録の閉鎖等,0,2023-07-19,2023-07-13,日昭運輸倉庫株式会社,,株式会社,大阪府,摂津市,鳥飼本町３丁目３番３号,,27,224,5660052,,,2023-07-13,合併による解散等,6260001024223,令和５年７月１日岡山市北区大内田８２２番地１株式会社日之出運輸（6260001024223）に合併し解散,2015-10-05,1,,,,,ニッショウウンユソウコ,0
228,1340002013254,登記記録の閉鎖等,0,2023-07-19,2023-07-11,有限会社Ｅ・アトラス,,有限会社,鹿児島県,鹿児島市,明和１丁目１４番１０号,,46,201,8900024,,,2023-07-11,清算の結了等,,,2015-10-05,1,,,,,イーアトラス,0
249,1480002015666,登記記録の閉鎖等,0,2023-07-19,2023-07-13,有限会社図子商店,,有限会社,徳島県,三好市,池田町マチ２５８４番地の２,,36,208,7780002,,,2023-07-13,清算の結了等,,,2015-10-05,1,,,,,ズシショウテン,0
253,1500002021265,登記記録の閉鎖等,0,2023-07-19,2023-07-18,有限会社ハルキヤ薬局,,有限会社,愛媛県,四国中央市,三島中央２丁目１２番４号,,38,213,7990405,,,2023-07-18,清算の結了等,,,2015-10-05,1,,,,,ハルキヤヤッキョク,0
280,2010402005874,登記記録の閉鎖等,0,2023-07-19,2023-06-29,有限会社三光商会,,有限会社,東京都,港区,白金１丁目２番１２号,,13,103,1080072,,,2023-06-29,清算の結了等,,,2023-06-29,1,,,,,,0
287,2010405020739,登記記録の閉鎖等,0,2023-07-19,2023-06-30,一般社団法人ＳＨ０５６,,その他の設立登記法人,東京都,港区,虎ノ門３丁目２２番１０－２０１号,,13,103,1050001,,,2023-06-30,清算の結了等,,,2022-02-25,1,,,,,エスエイチゼロファイブシックス,0
304,2011001022278,登記記録の閉鎖等,0,2023-07-19,2023-07-18,株式会社マロード,,株式会社,東京都,渋谷区,千駄ヶ谷１丁目２７番１０号,,13,113,1510051,,,2023-07-18,清算の結了等,,,2015-10-05,1,,,,,マロード,0
315,2011102029453,登記記録の閉鎖等,0,2023-07-19,2023-07-12,有限会社メガロマニア,,有限会社,東京都,新宿区,天神町７７番地,,13,104,1620808,,,2023-07-12,清算の結了等,,,2015-10-05,1,,,,,メガロマニア,0
316,2011102030312,登記記録の閉鎖等,0,2023-07-19,2023-07-07,有限会社シューティングスターコーポレーション,,有限会社,東京都,豊島区,目白３丁目８番２０号,,13,116,1710031,,,2023-07-07,清算の結了等,,,2015-10-05,1,,,,,シューティングスターコーポレーション,0
327,2011801032311,登記記録の閉鎖等,0,2023-07-19,2023-07-13,株式会社イシダ商事,,株式会社,東京都,足立区,東和４丁目１３番４号,,13,121,1200003,,,2023-07-13,清算の結了等,,,2016-09-15,1,,,,,イシダショウジ,0
344,2020001059081,登記記録の閉鎖等,0,2023-07-19,2023-07-05,株式会社テクノロジー・アライアンス,,株式会社,神奈川県,横浜市青葉区,美しが丘西３丁目６３番地８,,14,117,2250001,,,2023-07-05,清算の結了等,,,2015-10-05,1,,,,,テクノロジーアライアンス,0
354,2021005010179,登記記録の閉鎖等,0,2023-07-19,2023-07-10,一般社団法人Ａｔｒａｃｔｉｖｏ　Ａｃｔｉｖｉｔｙ　Ｃｌｕｂ,,その他の設立登記法人,神奈川県,茅ヶ崎市,茅ヶ崎１１４７番地１,,14,207,2530041,,,2023-07-10,清算の結了等,,,2015-10-05,1,,,,,アトラクティーボアクティビティクラブ,0
356,2030001072604,登記記録の閉鎖等,0,2023-07-19,2023-06-29,株式会社ライフエンジニアリング,,株式会社,埼玉県,さいたま市岩槻区,大字平林寺２３０番地１,,11,110,3390076,,,2023-06-29,清算の結了等,,,2015-10-05,1,,,,,ライフエンジニアリング,0
371,2050001044717,登記記録の閉鎖等,0,2023-07-19,2023-07-12,国際介護研修センター株式会社,,株式会社,茨城県,取手市,米ノ井１７８－１,,08,217,3020033,,,2023-07-12,合併による解散等,8011801023024,令和５年６月３０日東京都足立区千住二丁目３５番地株式会社ハーベスター・プロパティーズ（8011801023024）に合併し解散,2018-07-20,1,,,,,,0
378,2050005002209,登記記録の閉鎖等,0,2023-07-19,2023-07-11,茨城県椎茸農業協同組合,,その他の設立登記法人,茨城県,ひたちなか市,大字田彦１２２０番地８,,08,221,3120063,,,2023-07-11,清算の結了等,,,2015-10-05,1,,,,,イバラキケンシイタケノウギョウクミアイ,0
387,2070002033031,登記記録の閉鎖等,0,2023-07-19,2023-07-14,石島運送有限会社,,有限会社,群馬県,館林市,松原１丁目４番１号,,10,207,3740016,,,2023-07-14,清算の結了等,,,2015-10-05,1,,,,,,0
389,2070005008014,登記記録の閉鎖等,0,2023-07-19,2023-07-13,特定非営利活動法人めいぷる,,その他の設立登記法人,群馬県,桐生市,新宿３丁目３番１９号,,10,203,3760006,,,2023-07-13,清算の結了等,,,2015-10-05,1,,,,,メイプル,0
391,2080001022091,登記記録の閉鎖等,0,2023-07-19,2023-07-12,中部海陸運輸株式会社,,株式会社,静岡県,焼津市,石津１０４８番地,,22,212,4250041,,,2023-07-12,清算の結了等,,,2018-03-02,1,,,,,チュウブカイリクウンユ,0
393,2080005003055,登記記録の閉鎖等,0,2023-07-19,2023-07-14,清水保険薬局協同組合,,その他の設立登記法人,静岡県,静岡市清水区,渋川２丁目１２番１号,,22,103,4240053,,,2023-07-14,清算の結了等,,,2015-10-05,1,,,,,シミズホケンヤッキョク,0
396,2080401002255,登記記録の閉鎖等,0,2023-07-19,2023-07-13,新富産業株式会社,,株式会社,静岡県,浜松市東区,恒武町４８０番地,,22,132,4313108,,,2023-07-13,清算の結了等,,,2015-10-05,1,,,,,シントミサンギョウ,0
406,2120001156439,登記記録の閉鎖等,0,2023-07-19,2023-07-13,日建ハウス工業株式会社,,株式会社,大阪府,守口市,大久保町３丁目２３番２号,,27,209,5700012,,,2023-07-13,清算の結了等,,,2015-10-05,1,,,,,ニッケンハウスコウギョウ,0
442,2170001014014,登記記録の閉鎖等,0,2023-07-19,2023-07-14,株式会社今建工業,,株式会社,和歌山県,和歌山市,中島２４１番地５,,30,201,6410006,,,2023-07-14,清算の結了等,,,2015-10-28,1,,,,,,0
446,2180003007881,登記記録の閉鎖等,0,2023-07-19,2023-07-07,合資会社徳田設計,,合資会社,愛知県,名古屋市守山区,茶臼前５番７号,,23,113,4630012,,,2023-07-07,清算の結了等,,,2015-10-05,1,,,,,トクダセッケイ,0
460,2220002011252,登記記録の閉鎖等,0,2023-07-19,2023-07-13,有限会社箕精工,,有限会社,石川県,小松市,千代町平１２番地,,17,203,9230041,,,2023-07-13,清算の結了等,,,2015-10-05,1,,,,,ミノセイコウ,0
482,2330003003758,登記記録の閉鎖等,0,2023-07-19,2023-07-03,株式会社エフ・ティー・プランニング,,株式会社,熊本県,熊本市東区,健軍４丁目３番２６号パルティ神水１００２,,43,102,8620911,,,2023-07-03,合併による解散等,5330001021998,令和５年７月１日熊本市東区健軍四丁目３番２６号パルティ神水２０１株式会社フォレストトップ（5330001021998）に合併し解散,2015-10-05,1,,,,,エフティープランニング,0
506,3010001163305,登記記録の閉鎖等,0,2023-07-19,2023-07-05,ＴＣＬＣ　ＪＡＰＡＮ株式会社,,株式会社,東京都,中央区,勝どき６丁目５番２３号,,13,102,1040054,,,2023-07-05,清算の結了等,,,2015-10-05,1,,,,,ティーシーエルシージャパン,0
517,3010401059458,登記記録の閉鎖等,0,2023-07-19,2023-06-30,株式会社アタリ・パフォーマンス,,株式会社,東京都,港区,東麻布１丁目９番１５号東麻布一丁目ビル８階,,13,103,1060044,,,2023-06-30,清算の結了等,,,2015-10-05,1,,,,,アタリパフォーマンス,0
535,3010701024459,登記記録の閉鎖等,0,2023-07-19,2023-07-06,株式会社誠蓮,,株式会社,東京都,品川区,小山４丁目８番４号,,13,109,1420062,,,2023-07-06,清算の結了等,,,2015-10-05,1,,,,,セイレン,0
538,3010805002030,登記記録の閉鎖等,0,2023-07-19,2023-07-11,一般社団法人経営支援共済会,,その他の設立登記法人,大阪府,大阪市鶴見区,放出東３丁目３４番１２－７０１号,,27,124,5380044,,,2023-07-11,清算の結了等,,,2015-10-05,1,,,,,ケイエイシエンキョウサイカイ,0
543,3011001032037,登記記録の閉鎖等,0,2023-07-19,2023-07-14,株式会社サウンズ建築設計事務所,,株式会社,東京都,渋谷区,神宮前５丁目５０番６号,,13,113,1500001,,,2023-07-14,清算の結了等,,,2015-10-05,1,,,,,サウンズケンチクセッケイジムショ,0
544,3011001122515,登記記録の閉鎖等,0,2023-07-19,2023-07-14,株式会社ひとへや,,株式会社,東京都,渋谷区,千駄ヶ谷５丁目２３番１３号南新宿ＪＥＢＬ４Ｆ,,13,113,1510051,,,2023-07-14,合併による解散等,5120901016664,令和５年７月１日大阪府吹田市広芝町１０番２８号オーク江坂ビル９Ｆ株式会社エル・ディー・ケイ（5120901016664）に合併し解散,2018-06-04,1,,,,,ヒトヘヤ,0
628,3080101007859,登記記録の閉鎖等,0,2023-07-19,2023-07-13,株式会社オクセム,,株式会社,静岡県,駿東郡清水町,湯川１５８番地の９,,22,341,4110918,,,2023-07-13,清算の結了等,,,2015-10-05,1,,,,,オクセム,0
632,3080405006747,登記記録の閉鎖等,0,2023-07-19,2023-07-12,ＮＰＯ法人りゅう,,その他の設立登記法人,静岡県,湖西市,古見９９６番地の１,,22,221,4310442,,,2023-07-12,清算の結了等,,,2015-10-05,1,,,,,リュウ,0
636,3100001034843,登記記録の閉鎖等,0,2023-07-19,2023-07-07,株式会社ＳＨＡＫＥ,,株式会社,長野県,塩尻市,大門一番町６番地４号,,20,215,3990736,,,2023-07-07,清算の結了等,,,2021-11-26,1,,,,,シェイク,0
638,3110001018993,登記記録の閉鎖等,0,2023-07-19,2023-07-05,株式会社コーエイ,,株式会社,新潟県,上越市,春日山町３丁目１３番２１号,,15,222,9430807,,,2023-07-05,清算の結了等,,,2015-10-05,1,,,,,コーエイ,0
648,3120002021839,登記記録の閉鎖等,0,2023-07-19,2023-07-12,有限会社小林食品,,有限会社,大阪府,大阪市西区,南堀江４丁目１６番１３号,,27,106,5500015,,,2023-07-12,清算の結了等,,,2015-10-05,1,,,,,コバヤシショクヒン,0
653,3120901019272,登記記録の閉鎖等,0,2023-07-19,2023-07-13,株式会社日之出運輸,,株式会社,大阪府,摂津市,鳥飼上３丁目１９番４４号,,27,224,5660062,,,2023-07-13,合併による解散等,6260001024223,令和５年７月１日岡山市北区大内田８２２番地１株式会社日之出運輸（6260001024223）に合併し解散,2015-10-05,1,,,,,ヒノデウンユ,0
663,3150001016011,登記記録の閉鎖等,0,2023-07-19,2023-07-13,株式会社森建設,,株式会社,奈良県,吉野郡天川村,大字和田３２４番地,,29,446,6380543,,,2023-07-13,清算の結了等,,,2015-10-05,1,,,,,モリケンセツ,0
669,3180001091877,登記記録の閉鎖等,0,2023-07-19,2023-07-14,東海逓信印刷株式会社,,株式会社,愛知県,半田市,亀崎常盤町４丁目１０２番地,,23,205,4750029,,,2023-07-14,清算の結了等,,,2015-10-05,1,,,,,トウカイテイシンインサツ,0
680,3180301001668,登記記録の閉鎖等,0,2023-07-19,2023-07-11,株式会社ナガヤ鉄工,,株式会社,愛知県,岡崎市,康生通西３丁目１５番地７岡崎タワーレジデンス２４０６,,23,202,4440059,,,2023-07-11,清算の結了等,,,2015-10-05,1,,,,,ナガヤテッコウ,0
694,3240002043499,登記記録の閉鎖等,0,2023-07-19,2023-07-05,ヤスダ瓦工業有限会社,,有限会社,広島県,福山市,駅家町大字上山守１３２４番地,,34,207,7201142,,,2023-07-05,清算の結了等,,,2015-10-05,1,,,,,ヤスダカワラコウギョウ,0
696,3240005014134,登記記録の閉鎖等,0,2023-07-19,2023-07-03,一般社団法人福山シティクラブ,,その他の設立登記法人,広島県,福山市,曙町６丁目１１番８号,,34,207,7210952,,,2023-07-03,合併による解散等,8240005015474,令和５年７月１日広島県福山市城見町二丁目１番２２号一般社団法人福山シティクラブ（8240005015474）に合併し解散,2016-04-12,1,,,,,フクヤマシティクラブ,0
701,3260001012767,登記記録の閉鎖等,0,2023-07-19,2023-07-10,株式会社小野ビル,,株式会社,岡山県,倉敷市,日畑２８７番地,,33,202,7010101,,,2023-07-10,清算の結了等,,,2015-10-05,1,,,,,オノビル,0
702,3260002001067,登記記録の閉鎖等,0,2023-07-19,2023-07-11,有限会社魚正,,有限会社,岡山県,岡山市北区,中央町７番５号,,33,101,7000836,,,2023-07-11,清算の結了等,,,2015-10-05,1,,,,,ウオマサ,0
703,3290001021971,登記記録の閉鎖等,0,2023-07-19,2023-07-03,キュートーグループ株式会社,,株式会社,福岡県,福岡市博多区,博多駅南３丁目１番７号ＡＧＡＩＮビル,,40,132,8120016,,,2023-07-03,合併による解散等,7290001002480,令和５年７月１日福岡市博多区博多駅南三丁目１番７号ＡＧＡＩＮビルアゲインホールディング株式会社（7290001002480）に合併し解散,2015-10-05,1,,,,,キュートーグループ,0
719,3390001004875,登記記録の閉鎖等,0,2023-07-19,2023-07-10,株式会社山形イケダコーポレーション,,株式会社,山形県,上山市,下生居字新山吹３９０番地,,06,207,9993202,,,2023-07-10,清算の結了等,,,2015-10-05,1,,,,,,0
723,3420001013344,登記記録の閉鎖等,0,2023-07-19,2023-07-03,みらい電設株式会社,,株式会社,青森県,南津軽郡藤崎町,大字葛野字前田６７番地２,,02,361,0383804,,,2023-07-03,清算の結了等,,,2015-10-05,1,,,,,ミライデンセツ,0
725,3430001051954,登記記録の閉鎖等,0,2023-07-19,2023-06-29,株式会社アクティヴ,,株式会社,北海道,古宇郡泊村,大字泊村４８番１５,,01,403,0450203,,,2023-06-29,清算の結了等,,,2015-10-05,1,,,,,アクティヴ,0
760,4010401163515,登記記録の閉鎖等,0,2023-07-19,2023-06-30,スターリング船舶ファンド１Ｂ号株式会社,,株式会社,東京都,港区,赤坂８丁目１０番２４号スターリング証券内,,13,103,1070052,,,2023-06-30,清算の結了等,,,2021-10-29,1,,,,,スターリングセンパクファンドイチビーゴウ,0
781,4011005009096,登記記録の閉鎖等,0,2023-07-19,2023-07-11,一般社団法人日本ライブ配信協会,,その他の設立登記法人,東京都,渋谷区,神山町５－２０ＺＩＮＥＹＯＹＯＧＩ－ＫＯＥＮ４Ａ,,13,113,1500047,,,2023-07-11,清算の結了等,,,2021-06-17,1,,,,,ニホンライブハイシンキョウカイ,0
831,4030001017326,登記記録の閉鎖等,0,2023-07-19,2023-07-12,ＭＣＳハートフル株式会社,,株式会社,埼玉県,さいたま市北区,吉野町２丁目１８９番地１４,,11,102,3310811,,,2023-07-12,合併による解散等,1010701026671,令和５年７月１日東京都品川区西五反田二丁目１１番８号株式会社学研スマイルハートフル（1010701026671）に合併し解散,2015-10-05,1,,,,,エムシーエスハートフル,0
840,4040001013943,登記記録の閉鎖等,0,2023-07-19,2023-06-28,株式会社ベルデ,,株式会社,千葉県,千葉市美浜区,打瀬３丁目９番地パティオス２２番街２３６号,,12,106,2610013,,,2023-06-28,清算の結了等,,,2015-10-05,1,,,,,ベルデ,0
848,4050001004512,登記記録の閉鎖等,0,2023-07-19,2023-07-07,ジャパンガードホールディング株式会社,,株式会社,茨城県,水戸市,河和田２丁目２２３２番地の５３,,08,201,3114152,,,2023-07-07,清算の結了等,,,2015-10-05,1,,,,,ジャパンガードホールディング,0
849,4050001037974,登記記録の閉鎖等,0,2023-07-19,2023-07-07,株式会社雅会,,株式会社,茨城県,常総市,本石下１１８番地,,08,211,3002707,,,2023-07-07,清算の結了等,,,2015-10-05,1,,,,,,0
856,4070002023063,登記記録の閉鎖等,0,2023-07-19,2023-07-13,有限会社金井園,,有限会社,群馬県,桐生市,錦町２丁目４番３号,,10,203,3760023,,,2023-07-13,清算の結了等,,,2015-10-05,1,,,,,カナイエン,0
907,4180001092230,登記記録の閉鎖等,0,2023-07-19,2023-07-10,知多物産株式会社,,株式会社,愛知県,知多郡武豊町,字堀割６６番地４,,23,447,4702501,,,2023-07-10,清算の結了等,,,2015-10-05,1,,,,,チタブッサン,0
908,4180001119157,登記記録の閉鎖等,0,2023-07-19,2023-07-14,株式会社楽創,,株式会社,愛知県,海部郡飛島村,大字新政成１１丁目３６番地の１,,23,427,4901443,,,2023-07-14,合併による解散等,2180001097743,令和５年７月１４日愛知県津島市白浜町字下池３６番地１株式会社風岡（2180001097743）に合併し解散,2015-10-05,1,,,,,ラクソウ,0
911,4180003016971,登記記録の閉鎖等,0,2023-07-19,2023-07-14,ティーエクス航空コンサルティング・サービス合同会社,,合同会社,愛知県,名古屋市南区,粕畠町３丁目２０番地の１（ＢＥＬＩＳＴＡ笠寺４０２号）,,23,112,4570052,,,2023-07-14,清算の結了等,,,2016-03-22,1,,,,,ティーエクスコウクウコンサルティングサービス,0
925,4200002013983,登記記録の閉鎖等,0,2023-07-19,2023-07-10,有限会社長澤建設,,有限会社,岐阜県,養老郡養老町,祖父江２１２６番地の１,,21,341,5031305,,,2023-07-10,清算の結了等,,,2015-10-05,1,,,,,ナガサワケンセツ,0
926,4200003003876,登記記録の閉鎖等,0,2023-07-19,2023-07-10,合同会社瑞穂シール,,合同会社,岐阜県,瑞穂市,本田８０６番地１エスポワールＡ１０５号,,21,216,5010236,,,2023-07-10,清算の結了等,,,2016-11-24,1,,,,,ミズホシール,0
942,4250001005696,登記記録の閉鎖等,0,2023-07-19,2023-07-03,下関特殊施設株式会社,,株式会社,山口県,下関市,竹崎町４丁目６番８号,,35,201,7500025,,,2023-07-03,清算の結了等,,,2015-10-05,1,,,,,シモノセキトクシュシセツ,0
946,4260001006727,登記記録の閉鎖等,0,2023-07-19,2023-07-10,株式会社ヤベ白衣,,株式会社,岡山県,岡山市北区,弓之町１４番４０号,,33,101,7000817,,,2023-07-10,清算の結了等,,,2015-10-05,1,,,,,ヤベハクイ,0
949,4260001015959,登記記録の閉鎖等,0,2023-07-19,2023-07-07,太陽化成株式会社,,株式会社,岡山県,総社市,西阿曽１９４番地６,,33,208,7191103,,,2023-07-07,清算の結了等,,,2015-10-05,1,,,,,タイヨウカセイ,0
952,4260003003846,登記記録の閉鎖等,0,2023-07-19,2023-07-11,合同会社Ｐｏｗｅｒ‐Ａ,,合同会社,岡山県,岡山市南区,西市２９７－１２ポテトチップＩＩ１０２号,00125981,33,104,7000953,,,2023-07-11,清算の結了等,,,2022-03-15,1,,,,,パワーエー,0
956,4290002048922,登記記録の閉鎖等,0,2023-07-19,2023-07-04,有限会社ケイワイ不動産サービス,,有限会社,福岡県,久留米市,東町３７７番地の８,,40,203,8300032,,,2023-07-04,清算の結了等,,,2015-10-05,1,,,,,ケイワイフドウサンサービス,0
981,4430001053958,登記記録の閉鎖等,0,2023-07-19,2023-06-29,株式会社森川鉄工所,,株式会社,北海道,苫小牧市,明野新町４丁目４番１８号,,01,213,0530054,,,2023-06-29,清算の結了等,,,2015-10-05,1,,,,,モリカワテッコウショ,0
983,4430005003959,登記記録の閉鎖等,0,2023-07-19,2023-07-03,特定非営利活動法人アトリエリヒト,,その他の設立登記法人,北海道,札幌市西区,琴似一条７丁目１－６,,01,107,0630811,,,2023-07-03,清算の結了等,,,2015-10-05,1,,,,,アトリエリヒト,0
986,4460303000721,登記記録の閉鎖等,0,2023-07-19,2023-07-18,クリプトマイナリー合同会社,,合同会社,北海道,網走郡美幌町,字新町１丁目２８－２,,01,543,0920015,,,2023-07-18,清算の結了等,,,2021-04-05,1,,,,,クリプトマイナリー,0
1003,5010003036127,登記記録の閉鎖等,0,2023-07-19,2023-07-05,ＰＦＳＳ合同会社,,合同会社,東京都,千代田区,大手町２丁目３番２号,,13,101,1000004,,,2023-07-05,合併による解散等,8010001220621,令和５年７月１日東京都千代田区大手町二丁目３番２号Ｐｏｗｅｒ　Ｆｒｏｎｔｉｅｒ　Ｈｏｌｄｉｎｇｓ株式会社（8010001220621）に合併し解散,2021-10-28,1,,,,,ピーエフエスエス,0
1009,5010102006690,登記記録の閉鎖等,0,2023-07-19,2023-07-06,有限会社峯岸精密,,有限会社,東京都,八王子市,上川町１９００番地,,13,201,1920151,,,2023-07-06,清算の結了等,,,2015-10-05,1,,,,,ミネギシセイミツ,0
1015,5010401163514,登記記録の閉鎖等,0,2023-07-19,2023-06-30,スターリング船舶ファンド１Ａ号株式会社,,株式会社,東京都,港区,赤坂８丁目１０番２４号スターリング証券内,,13,103,1070052,,,2023-06-30,清算の結了等,,,2021-10-29,1,,,,,スターリングセンパクファンドイチエーゴウ,0
1025,5010503006637,登記記録の閉鎖等,0,2023-07-19,2023-06-27,合同会社ＨＩＦＰ,,合同会社,千葉県,柏市,南柏１丁目１４番９号,,12,217,2770855,,,2023-06-27,清算の結了等,,,2022-06-30,1,,,,,エイチアイエフピー,0
1033,5010801012576,登記記録の閉鎖等,0,2023-07-19,2023-07-14,株式会社リーベハウス,,株式会社,東京都,大田区,西蒲田７丁目１８番４号,,13,111,1440051,,,2023-07-14,合併による解散等,8011001017223,令和５年７月１日東京都渋谷区代々木一丁目４５番１号株式会社日商ベックス（8011001017223）に合併し解散,2015-10-05,1,,,,,リーベハウス,0
1037,5010802020669,登記記録の閉鎖等,0,2023-07-19,2023-07-12,有限会社方円,,有限会社,東京都,大田区,池上３丁目１４番１４号,,13,111,1460082,,,2023-07-12,清算の結了等,,,2015-10-05,1,,,,,ホウエン,0
1072,5013202005513,登記記録の閉鎖等,0,2023-07-19,2023-07-14,有限会社扶桑エレクトロン,,有限会社,東京都,目黒区,中目黒４丁目１５番２０号,,13,110,1530061,,,2023-07-14,清算の結了等,,,2015-10-05,1,,,,,フソウエレクトロン,0
1082,5020002078581,登記記録の閉鎖等,0,2023-07-19,2023-07-06,有限会社恵光,,有限会社,神奈川県,横浜市戸塚区,鳥が丘２４番地５,,14,110,2440001,,,2023-07-06,清算の結了等,,,2015-10-05,1,,,,,エイコウ,0
1084,5021001039186,登記記録の閉鎖等,0,2023-07-19,2023-07-10,ホーム建創株式会社,,株式会社,神奈川県,平塚市,四之宮５丁目１０番４号,,14,203,2540014,,,2023-07-10,合併による解散等,8021002069106,令和５年７月１０日神奈川県横須賀市小川町２６番地９株式会社建新（8021002069106）に合併し解散,2015-10-05,1,,,,,ホームケンソウ,0
1093,5030002107570,登記記録の閉鎖等,0,2023-07-19,2023-06-26,有限会社宮本塗装工業所,,有限会社,埼玉県,川口市,大字新堀字前３１２番地,,11,203,3340061,,,2023-06-26,清算の結了等,,,2015-10-05,1,,,,,ミヤモトトソウコウギョウショ,0
1123,5090002013342,登記記録の閉鎖等,0,2023-07-19,2023-07-13,有限会社ケアマネ事務所のざわ,,有限会社,山梨県,富士吉田市,新町３丁目４番１６号,,19,202,4030019,,,2023-07-13,清算の結了等,,,2015-10-05,1,,,,,ケアマネジムショノザワ,0
1127,5100002035376,登記記録の閉鎖等,0,2023-07-19,2023-07-07,丸八食品有限会社,,有限会社,長野県,上伊那郡辰野町,大字伊那富２８２９番地,,20,382,3990428,,,2023-07-07,清算の結了等,,,2015-10-05,1,,,,,マルハチショクヒン,0
1130,5120001085602,登記記録の閉鎖等,0,2023-07-19,2023-07-12,土佐紙業株式会社,,株式会社,大阪府,大阪市中央区,農人橋２丁目１番１１号,,27,128,5400011,,,2023-07-12,合併による解散等,1010001045983,令和５年７月１日東京都千代田区神田駿河台四丁目６番地日本紙通商株式会社（1010001045983）に合併し解散,2015-10-05,1,,,,,トサシギョウ,0
1144,5120901000775,登記記録の閉鎖等,0,2023-07-19,2023-07-07,株式会社幸新,,株式会社,大阪府,茨木市,宮島１丁目１番１号,,27,211,5670853,,,2023-07-07,清算の結了等,,,2015-10-05,1,,,,,コウシン,0
1170,5180001100818,登記記録の閉鎖等,0,2023-07-19,2023-07-05,広小路建設株式会社,,株式会社,愛知県,名古屋市中区,栄１丁目２６番１号,,23,106,4600008,,,2023-07-05,清算の結了等,,,2015-10-05,1,,,,,ヒロコウジケンセツ,0
1182,5180003024008,登記記録の閉鎖等,0,2023-07-19,2023-07-10,合同会社横井誠慈,,合同会社,愛知県,海部郡蟹江町,源氏３丁目８番地,,23,425,4970055,,,2023-07-10,清算の結了等,,,2022-07-08,1,,,,,ヨコイセイジ,0
1196,5220001020020,登記記録の閉鎖等,0,2023-07-19,2023-07-11,株式会社たむら,,株式会社,石川県,鹿島郡中能登町,金丸１０７０番地,,17,407,9291521,,,2023-07-11,清算の結了等,,,2015-10-05,1,,,,,タムラ,0
1205,5250001011990,登記記録の閉鎖等,0,2023-07-19,2023-07-03,株式会社ファンハウス,,株式会社,山口県,岩国市,玖珂町１９８２番１,,35,208,7420344,,,2023-07-03,清算の結了等,,,2015-10-05,1,,,,,ファンハウス,0
1224,5310002019705,登記記録の閉鎖等,0,2023-07-19,2023-07-05,有限会社グローバル商事,,有限会社,長崎県,松浦市,御厨町米ノ山免４９番地１,,42,208,8594765,,,2023-07-05,清算の結了等,,,2015-10-05,1,,,,,グローバルショウジ,0
1236,5390003001258,登記記録の閉鎖等,0,2023-07-19,2023-07-07,合同会社タスクル,,合同会社,山形県,鶴岡市,道田町６番２号,,06,203,9970837,,,2023-07-07,清算の結了等,,,2015-10-05,1,,,,,タスクル,0
1242,5430001078863,登記記録の閉鎖等,0,2023-07-19,2023-06-29,株式会社日印会札幌,,株式会社,北海道,札幌市西区,琴似二条６丁目１－２０ライオンズＭＳ琴似第２－７０４号,,01,107,0630812,,,2023-06-29,清算の結了等,,,2019-05-09,1,,,,,ニチインカイサッポロ,0
1244,5430002042018,登記記録の閉鎖等,0,2023-07-19,2023-07-13,有限会社寿光,,有限会社,北海道,上川郡美瑛町,北町２丁目２番２０号,,01,459,0710206,,,2023-07-13,清算の結了等,,,2015-10-05,1,,,,,ジュコウ,0
1250,5470001009939,登記記録の閉鎖等,0,2023-07-19,2023-07-07,株式会社エスエイチ,,株式会社,香川県,観音寺市,観音寺町甲２７４４番地の１,,37,205,7680060,,,2023-07-07,清算の結了等,,,2015-10-05,1,,,,,エスエイチ,0
1261,6010001161041,登記記録の閉鎖等,0,2023-07-19,2023-07-12,ＳｏｆｔＬａｙｅｒ　Ｔｅｃｈｎｏｌｏｇｉｅｓ　Ｊａｐａｎ株式会社,,株式会社,東京都,江東区,豊洲６丁目２番１２号,,13,108,1350061,,,2023-07-12,合併による解散等,1010001128061,令和５年７月１日東京都中央区日本橋箱崎町１９番２１号日本アイ・ビー・エム株式会社（1010001128061）に合併し解散,2015-10-05,1,,,,,ソフトレイヤーテクノロジーズジャパン,0
1265,6010002005189,登記記録の閉鎖等,0,2023-07-19,2023-07-05,有限会社フクビ,,有限会社,東京都,文京区,千石２丁目３７番３号,,13,105,1120011,,,2023-07-05,清算の結了等,,,2015-10-05,1,,,,,フクビ,0
1268,6010005024376,登記記録の閉鎖等,0,2023-07-19,2023-07-11,ＨＫＲＪ　Ｓｏｕｅｉ一般社団法人,,その他の設立登記法人,東京都,千代田区,平河町１丁目６番１５号シルスフィア会計事務所内,,13,101,1020093,,,2023-07-11,清算の結了等,,,2015-10-05,1,,,,,エイチケーアールジェイソウエイ,0
1287,6010601045866,登記記録の閉鎖等,0,2023-07-19,2023-07-07,株式会社白石企画,,株式会社,東京都,江東区,永代１丁目２番７－１００３号,,13,108,1350034,,,2023-07-07,清算の結了等,,,2015-10-05,1,,,,,,0
1291,6010702006172,登記記録の閉鎖等,0,2023-07-19,2023-07-07,有限会社西川設備,,有限会社,東京都,品川区,小山台１丁目３１番１－９０２号,,13,109,1420061,,,2023-07-07,清算の結了等,,,2015-10-05,1,,,,,ニシカワセツビ,0
1307,6011001145034,登記記録の閉鎖等,0,2023-07-19,2023-07-14,株式会社ステラーフォース,,株式会社,東京都,渋谷区,千駄ヶ谷５丁目２３番１３号,,13,113,1510051,,,2023-07-14,合併による解散等,5120901016664,令和５年７月１日大阪府吹田市広芝町１０番２８号オーク江坂ビル９Ｆ株式会社エル・ディー・ケイ（5120901016664）に合併し解散,2022-01-19,1,,,,,ステラーフォース,0
1332,6020002067047,登記記録の閉鎖等,0,2023-07-19,2023-07-13,有限会社グランシステム,,有限会社,石川県,金沢市,長坂３丁目１０番１号,,17,201,9218112,,,2023-07-13,清算の結了等,,,2015-10-05,1,,,,,グランシステム,0
1351,6030003010145,登記記録の閉鎖等,0,2023-07-19,2023-06-27,合同会社光クリエイツ,,合同会社,埼玉県,さいたま市中央区,下落合５丁目１０番５号,,11,105,3380002,,,2023-06-27,清算の結了等,,,2017-04-12,1,,,,,ヒカリクリエイツ,0
1352,6030003013296,登記記録の閉鎖等,0,2023-07-19,2023-07-03,合同会社ユーアパートメント,,合同会社,埼玉県,さいたま市大宮区,宮町５丁目１３２番４号,,11,103,3300802,,,2023-07-03,合併による解散等,1011203002145,令和５年７月１日埼玉県さいたま市大宮区宮町五丁目１３２番４号合同会社上村エステート（1011203002145）に合併し解散,2019-03-20,1,,,,,ユーアパートメント,0
1363,6070001024960,登記記録の閉鎖等,0,2023-07-19,2023-07-14,株式会社グリーンハート,,株式会社,群馬県,伊勢崎市,宮子町３５８７番地１,,10,204,3720801,,,2023-07-14,清算の結了等,,,2015-10-05,1,,,,,グリーンハート,0
1365,6080002015272,登記記録の閉鎖等,0,2023-07-19,2023-07-12,有限会社マル美改植建設,,有限会社,静岡県,牧之原市,布引原１９３番地の３,,22,226,4210407,,,2023-07-12,清算の結了等,,,2015-10-05,1,,,,,マルミカイショクケンセツ,0
1395,6120101048037,登記記録の閉鎖等,0,2023-07-19,2023-07-14,株式会社アスカ,,株式会社,大阪府,羽曳野市,古市６丁目２２番３号,,27,222,5830852,,,2023-07-14,清算の結了等,,,2015-10-05,1,,,,,アスカ,0
1396,6120101048656,登記記録の閉鎖等,0,2023-07-19,2023-07-14,長栄創建株式会社,,株式会社,大阪府,岸和田市,港緑町８番６号,,27,202,5960014,,,2023-07-14,清算の結了等,,,2015-10-05,1,,,,,チョウエイソウケン,0
1407,6130005005678,登記記録の閉鎖等,0,2023-07-19,2023-07-03,特定非営利活動法人日本ＨＩＳ研究センター,,その他の設立登記法人,京都府,京都市山科区,竹鼻竹ノ街道町９２番地ラクト山科メゾンイースト５０８号,,26,110,6078080,,,2023-07-03,清算の結了等,,,2015-10-05,1,,,,,ニホンエイチアイエスケンキュウセンター,0
1408,6130005011486,登記記録の閉鎖等,0,2023-07-19,2023-06-30,一般社団法人舞鶴湾環境保全協会,,その他の設立登記法人,京都府,舞鶴市,大字松陰小字嶋崎１８番地の７,,26,202,6250000,,,2023-06-30,清算の結了等,,,2015-10-05,1,,,,,マイヅルワンカンキョウホゼンキョウカイ,0
1446,6240001055889,登記記録の閉鎖等,0,2023-07-19,2023-07-03,ＦＰホールディングス株式会社,,株式会社,広島県,府中市,府中町１２２番地１,,34,208,7260005,,,2023-07-03,合併による解散等,5240001049132,令和５年７月１日広島県府中市府中町１２２番地１ブラフマン株式会社（5240001049132）に合併し解散,2020-04-08,1,,,,,エフピーホールディングス,0
1454,6250005005030,登記記録の閉鎖等,0,2023-07-19,2023-07-03,周南地区鉄工協同組合,,その他の設立登記法人,山口県,周南市,河東町４番１５号,,35,215,7450845,,,2023-07-03,清算の結了等,,,2015-10-05,1,,,,,シュウナンチクテッコウ,0
1465,6290801026309,登記記録の閉鎖等,0,2023-07-19,2023-07-05,リプロクリエイト株式会社,,株式会社,三重県,桑名市,多度町猪飼１６６７番地４５,,24,205,5110124,,,2023-07-05,清算の結了等,,,2020-03-05,1,,,,,リプロクリエイト,0
1473,6350002014032,登記記録の閉鎖等,0,2023-07-19,2023-07-10,有限会社共進電気工事,,有限会社,宮崎県,都城市,金田町２５５７番地２,,45,202,8850001,,,2023-07-10,清算の結了等,,,2015-10-05,1,,,,,キョウシンデンキコウジ,0
1474,6350005005474,登記記録の閉鎖等,0,2023-07-19,2023-07-04,特定非営利活動法人なでしこ,,その他の設立登記法人,宮崎県,宮崎市,大字島之内９４１８番地３,,45,201,8800121,,,2023-07-04,清算の結了等,,,2015-10-05,1,,,,,ナデシコ,0
1500,7010001112118,登記記録の閉鎖等,0,2023-07-19,2023-07-07,株式会社日本ファイン,,株式会社,神奈川県,藤沢市,片瀬２丁目１１番５号,,14,205,2510032,,,2023-07-07,清算の結了等,,,2015-10-05,1,,,,,ニホンファイン,0
1506,7010102000337,登記記録の閉鎖等,0,2023-07-19,2023-06-30,あさみ商事有限会社,,有限会社,東京都,八王子市,めじろ台２丁目１０番地１８,,13,201,1930833,,,2023-06-30,清算の結了等,,,2015-10-05,1,,,,,アサミショウジ,0
1509,7010401151871,登記記録の閉鎖等,0,2023-07-19,2023-06-30,株式会社グローバルサロン,,株式会社,東京都,港区,北青山３丁目１０番７号三光ビル２階,,13,103,1070061,,,2023-06-30,清算の結了等,,,2020-03-25,1,,,,,グローバルサロン,0
1521,7010801008300,登記記録の閉鎖等,0,2023-07-19,2023-07-14,株式会社トキオランディックス,,株式会社,東京都,大田区,西蒲田７丁目１８番４号,,13,111,1440051,,,2023-07-14,合併による解散等,8011001017223,令和５年７月１日東京都渋谷区代々木一丁目４５番１号株式会社日商ベックス（8011001017223）に合併し解散,2015-10-05,1,,,,,トキオランディックス,0
1564,7020001102836,登記記録の閉鎖等,0,2023-07-19,2023-07-05,株式会社翔栄,,株式会社,神奈川県,川崎市幸区,南加瀬２丁目３番２９号,,14,132,2120055,,,2023-07-05,清算の結了等,,,2015-10-05,1,,,,,ショウエイ,0
1587,7030002079841,登記記録の閉鎖等,0,2023-07-19,2023-06-28,有限会社光技研,,有限会社,埼玉県,川越市,大字吉田１８４番地６,,11,201,3500807,,,2023-06-28,清算の結了等,,,2015-10-05,1,,,,,ヒカリギケン,0
1590,7030005019118,登記記録の閉鎖等,0,2023-07-19,2023-06-29,一般社団法人Ｓ－ｎｅｔサポーターズ,,その他の設立登記法人,埼玉県,春日部市,中央６丁目８番地１５,,11,214,3440067,,,2023-06-29,清算の結了等,,,2018-08-14,1,,,,,エスネットサポーターズ,0
1603,7060002002148,登記記録の閉鎖等,0,2023-07-19,2023-07-05,岡村通信有限会社,,有限会社,栃木県,宇都宮市,宝木本町１１４０番地１３３,,09,201,3200075,,,2023-07-05,清算の結了等,,,2015-10-05,1,,,,,オカムラツウシン,0
1621,7100002026704,登記記録の閉鎖等,0,2023-07-19,2023-07-10,有限会社白馬シェル石油,,有限会社,長野県,北安曇郡白馬村,大字北城２６５番地２５,,20,485,3999301,,,2023-07-10,清算の結了等,,,2015-10-05,1,,,,,ハクバシェルセキユ,0
1635,7120001135009,登記記録の閉鎖等,0,2023-07-19,2023-07-12,株式会社言成,,株式会社,大阪府,大阪市北区,天神橋２丁目５番地１５号,,27,127,5300041,,,2023-07-12,清算の結了等,,,2015-10-05,1,,,,,ゲンセイ,0
1654,7122001004861,登記記録の閉鎖等,0,2023-07-19,2023-07-14,株式会社田向鉄工所,,株式会社,大阪府,東大阪市,衣摺３丁目１９番１２号,00034260,27,227,5770827,,,2023-07-14,清算の結了等,,,2015-10-05,1,,,,,タムカイテッコウショ,0
1666,7140001099251,登記記録の閉鎖等,0,2023-07-19,2023-07-11,株式会社ビーシーパイン,,株式会社,兵庫県,加古川市,平岡町土山８６番地の１－２０２号,,28,210,6750104,,,2023-07-11,清算の結了等,,,2015-10-05,1,,,,,ビーシーパイン,0
1678,7160001002279,登記記録の閉鎖等,0,2023-07-19,2023-07-14,株式会社ファーストコーポレーション,,株式会社,滋賀県,大津市,大平１丁目１７番８号,,25,201,5200867,,,2023-07-14,清算の結了等,,,2015-10-05,1,,,,,ファーストコーポレーション,0
1688,7180001112670,登記記録の閉鎖等,0,2023-07-19,2023-07-10,八木文株式会社,,株式会社,愛知県,名古屋市中区,錦２丁目１０番２４号,,23,106,4600003,,,2023-07-10,清算の結了等,,,2015-10-05,1,,,,,ヤギブン,0
1691,7180002010691,登記記録の閉鎖等,0,2023-07-19,2023-07-12,有限会社アダチ,,有限会社,愛知県,名古屋市北区,大杉２丁目６番３号,,23,103,4620837,,,2023-07-12,清算の結了等,,,2015-10-05,1,,,,,アダチ,0
1692,7180002023999,登記記録の閉鎖等,0,2023-07-19,2023-07-12,天神山木材有限会社,,有限会社,愛知県,名古屋市西区,押切２丁目８番１７号,,23,104,4510063,,,2023-07-12,清算の結了等,,,2015-10-05,1,,,,,テンジンヤマモクザイ,0
1706,7180302023823,登記記録の閉鎖等,0,2023-07-19,2023-07-11,有限会社ユー・アンド・ミー,,有限会社,愛知県,豊田市,大林町１２丁目１２番地１,,23,211,4730902,,,2023-07-11,清算の結了等,,,2015-10-05,1,,,,,ユーアンドミー,0
1709,7200001015433,登記記録の閉鎖等,0,2023-07-19,2023-07-07,森木取産業株式会社,,株式会社,岐阜県,海津市,海津町五町３１番地,,21,221,5030645,,,2023-07-07,清算の結了等,,,2015-10-05,1,,,,,モリキトリサンギョウ,0
1718,7240001010942,登記記録の閉鎖等,0,2023-07-19,2023-07-06,株式会社マスダ工務店,,株式会社,広島県,広島市佐伯区,五日市町大字石内１０５９番地の３,,34,108,7315102,,,2023-07-06,清算の結了等,,,2015-10-05,1,,,,,マスダコウムテン,0
1721,7240002023200,登記記録の閉鎖等,0,2023-07-19,2023-07-06,有限会社ブリッランテ,,有限会社,広島県,広島市南区,宇品神田３丁目７番１３号,,34,103,7340004,,,2023-07-06,清算の結了等,,,2015-10-05,1,,,,,ブリッランテ,0
1722,7240005015418,登記記録の閉鎖等,0,2023-07-19,2023-07-03,税理士法人藍,,その他の設立登記法人,広島県,福山市,大門町１丁目４４番２７－Ａ２０２号,,34,207,7210926,,,2023-07-03,清算の結了等,,,2022-07-12,1,,,,,アイ,0
1724,7260001011360,登記記録の閉鎖等,0,2023-07-19,2023-07-10,雄成畳店株式会社,,株式会社,岡山県,岡山市南区,新保１６０５番地２４,,33,104,7000945,,,2023-07-10,清算の結了等,,,2015-10-05,1,,,,,ユウセイタタミテン,0
1731,7290002052715,登記記録の閉鎖等,0,2023-07-19,2023-07-04,有限会社ティーエムテック,,有限会社,福岡県,久留米市,山本町耳納１１１１番地１,,40,203,8390826,,,2023-07-04,清算の結了等,,,2015-10-05,1,,,,,,0
1734,7290005012393,登記記録の閉鎖等,0,2023-07-19,2023-06-27,協同組合三川ショッピングセンター,,その他の設立登記法人,福岡県,大牟田市,千代町６番地の８,,40,202,8360035,,,2023-06-27,清算の結了等,,,2015-10-05,1,,,,,ミカワショッピングセンター,0
1751,7330003008133,登記記録の閉鎖等,0,2023-07-19,2023-07-03,合同会社ヤマダビル,,合同会社,熊本県,熊本市中央区,新屋敷３丁目１６番７－１４０１号,,43,101,8620975,,,2023-07-03,合併による解散等,6330003008134,令和５年７月１日熊本市中央区新屋敷三丁目１６番７－１４０１号合同会社Ｔ・ゾーン（6330003008134）に合併し解散,2019-11-05,1,,,,,ヤマダビル,0
1752,7350002016523,登記記録の閉鎖等,0,2023-07-19,2023-07-06,有限会社グローバルジャパン,,有限会社,宮崎県,日南市,戸高２丁目３番１５号,,45,204,8870031,,,2023-07-06,清算の結了等,,,2015-10-05,1,,,,,グローバルジャパン,0
1784,8010001122322,登記記録の閉鎖等,0,2023-07-19,2023-07-05,トリガーサーバント株式会社,,株式会社,東京都,千代田区,永田町２丁目１１番１号山王パークタワー３階,,13,101,1000014,,,2023-07-05,清算の結了等,,,2015-10-05,1,,,,,トリガーサーバント,0
1792,8010003018816,登記記録の閉鎖等,0,2023-07-19,2023-07-13,合同会社アベスト・ハザマ,,合同会社,東京都,練馬区,北町３丁目１７－１－３０９,,13,120,1790081,,,2023-07-13,清算の結了等,,,2015-10-05,1,,,,,アベストハザマ,0
1799,8010401172859,登記記録の閉鎖等,0,2023-07-19,2023-06-30,ＮＫＫデルタ株式会社,,株式会社,東京都,港区,南青山３丁目１番３号スプライン青山東急ビル３階,,13,103,1070062,,,2023-06-30,合併による解散等,9010401172858,令和５年６月３０日東京都港区南青山三丁目１番３号スプライン青山東急ビル３階ＮＫＫホールディングス株式会社（9010401172858）に合併し解散,2023-03-03,1,,,,,エヌケーケーデルタ,0
1805,8010403027144,登記記録の閉鎖等,0,2023-07-19,2023-06-30,合同会社ＧＫ０５６,,合同会社,東京都,港区,虎ノ門３丁目２２番１０－２０１号,,13,103,1050001,,,2023-06-30,清算の結了等,,,2022-02-25,1,,,,,ジーケイゼロファイブシックス,0
1807,8010601026666,登記記録の閉鎖等,0,2023-07-19,2023-07-13,スタンプ株式会社,,株式会社,東京都,新宿区,西新宿８丁目１１番１０号,,13,104,1600023,,,2023-07-13,清算の結了等,,,2015-10-05,1,,,,,スタンプ,0
1810,8010602029065,登記記録の閉鎖等,0,2023-07-19,2023-07-10,有限会社湘栄,,有限会社,東京都,墨田区,東向島３丁目１６番１０号,,13,107,1310032,,,2023-07-10,清算の結了等,,,2015-10-05,1,,,,,ショウエイ,0
1842,8013301013067,登記記録の閉鎖等,0,2023-07-19,2023-07-06,株式会社有邦企画,,株式会社,東京都,豊島区,南長崎６丁目３５番１号,,13,116,1710052,,,2023-07-06,清算の結了等,,,2015-10-05,1,,,,,ユウホウキカク,0
1846,8013401004511,登記記録の閉鎖等,0,2023-07-19,2023-07-10,ミヅキ株式会社,,株式会社,東京都,日野市,東平山２丁目１９番地４,,13,212,1910054,,,2023-07-10,清算の結了等,,,2015-10-05,1,,,,,,0
1882,8070002020627,登記記録の閉鎖等,0,2023-07-19,2023-07-12,有限会社インテリア．カワバタ,,有限会社,群馬県,佐波郡玉村町,大字上新田１５９７番地,,10,464,3701133,,,2023-07-12,清算の結了等,,,2015-10-05,1,,,,,インテリアカワバタ,0
1883,8070002028001,登記記録の閉鎖等,0,2023-07-19,2023-07-13,有限会社五十嵐塗装店,,有限会社,群馬県,太田市,末広町５５６番地の１４,,10,205,3730862,,,2023-07-13,清算の結了等,,,2015-10-05,1,,,,,イガラシトソウテン,0
1884,8080001003747,登記記録の閉鎖等,0,2023-07-19,2023-07-13,株式会社戸栗工務店,,株式会社,静岡県,静岡市駿河区,小鹿３丁目１７番２２号,,22,102,4228021,,,2023-07-13,清算の結了等,,,2015-10-05,1,,,,,トグリコウムテン,0
1890,8100002027651,登記記録の閉鎖等,0,2023-07-19,2023-07-10,有限会社ヤマベ商事,,有限会社,長野県,木曽郡木祖村,藪原２０１番地の３１,,20,425,3996200,,,2023-07-10,清算の結了等,,,2015-10-05,1,,,,,ヤマベショウジ,0
1891,8120001015052,登記記録の閉鎖等,0,2023-07-19,2023-07-12,株式会社自然環境技研,,株式会社,大阪府,大阪市城東区,蒲生３丁目８番１４号,,27,118,5360016,,,2023-07-12,清算の結了等,,,2015-10-05,1,,,,,シゼンカンキョウギケン,0
1893,8120001110753,登記記録の閉鎖等,0,2023-07-19,2023-07-11,株式会社第一グランドレジデンス,,株式会社,兵庫県,神戸市中央区,加納町３丁目１番２６号,,28,110,6500001,,,2023-07-11,清算の結了等,,,2015-10-05,1,,,,,ダイイチグランドレジデンス,0
1896,8120001180219,登記記録の閉鎖等,0,2023-07-19,2023-07-18,株式会社ミドルデータ,,株式会社,大阪府,大阪市城東区,永田３丁目２番２５号,,27,118,5360022,,,2023-07-18,清算の結了等,,,2015-10-05,1,,,,,ミドルデータ,0
1909,8120005013390,登記記録の閉鎖等,0,2023-07-19,2023-07-11,特定非営利活動法人住まいと環境の支援センター,,その他の設立登記法人,大阪府,寝屋川市,香里南之町３０番２５号ディアコート秋２Ｆ,,27,215,5720084,,,2023-07-11,清算の結了等,,,2015-10-05,1,,,,,スマイトカンキョウノシエンセンター,0
1917,8120902001662,登記記録の閉鎖等,0,2023-07-19,2023-07-11,有限会社ヤマヨシ,,有限会社,大阪府,茨木市,畑田町１６番２３号,,27,211,5670028,,,2023-07-11,清算の結了等,,,2015-10-05,1,,,,,ヤマヨシ,0
1918,8120902018970,登記記録の閉鎖等,0,2023-07-19,2023-07-06,有限会社多田建具店,,有限会社,大阪府,豊中市,庄内幸町２丁目３１番１２号,,27,203,5610833,,,2023-07-06,清算の結了等,,,2015-10-05,1,,,,,タダタテグテン,0
1933,8140005023958,登記記録の閉鎖等,0,2023-07-19,2023-07-06,一般社団法人日本総合運命学推進会,,その他の設立登記法人,兵庫県,姫路市,駅前町２５０番地好田ビル３階東側,,28,201,6700927,,,2023-07-06,清算の結了等,,,2018-02-09,1,,,,,ニホンソウゴウウンメイガクスイシンカイ,0
1941,8170002000222,登記記録の閉鎖等,0,2023-07-19,2023-07-14,有限会社アトリエサロン藤澤,,有限会社,和歌山県,和歌山市,友田町５丁目５０番地,,30,201,6408342,,,2023-07-14,清算の結了等,,,2015-10-05,1,,,,,,0
1948,8180301012693,登記記録の閉鎖等,0,2023-07-19,2023-07-11,株式会社梅本,,株式会社,愛知県,安城市,御幸本町７番１０号,,23,212,4460032,,,2023-07-11,清算の結了等,,,2015-10-05,1,,,,,ウメモト,0
1958,8210001000929,登記記録の閉鎖等,0,2023-07-19,2023-07-06,木内産業株式会社,,株式会社,福井県,福井市,八重巻東町１７の１０番地,,18,201,9100157,,,2023-07-06,清算の結了等,,,2015-10-05,1,,,,,キウチサンギョウ,0
1964,8240001030048,登記記録の閉鎖等,0,2023-07-19,2023-07-06,大家興行株式会社,,株式会社,広島県,福山市,昭和町８番１１号,,34,207,7200808,,,2023-07-06,清算の結了等,,,2015-10-05,1,,,,,オオヤコウギョウ,0
1969,8250002015831,登記記録の閉鎖等,0,2023-07-19,2023-07-03,有限会社藤和地所,,有限会社,山口県,下松市,望町４丁目１番１０号,,35,207,7440072,,,2023-07-03,清算の結了等,,,2015-10-05,1,,,,,トウワジショ,0
1975,8260002000295,登記記録の閉鎖等,0,2023-07-19,2023-07-11,秋山急配有限会社,,有限会社,岡山県,岡山市南区,妹尾２５１６番地,,33,104,7010205,,,2023-07-11,清算の結了等,,,2015-10-05,1,,,,,アキヤマキュウハイ,0
1987,8320001011667,登記記録の閉鎖等,0,2023-07-19,2023-07-10,株式会社ｔｈｅ　ｇｒｏｕｎｄ　ｎｏｉｓｅ,,株式会社,大分県,大分市,中央町３丁目３番１９号,,44,201,8700035,,,2023-07-10,清算の結了等,,,2015-10-05,1,,,,,,0
1988,8330001022952,登記記録の閉鎖等,0,2023-07-19,2023-07-03,株式会社オダケンホーム,,株式会社,熊本県,熊本市中央区,八王寺町３７－５オガタビル１０３,,43,101,8600831,,,2023-07-03,清算の結了等,,,2016-07-12,1,,,,,オダケンホーム,0
1991,8330003008074,登記記録の閉鎖等,0,2023-07-19,2023-07-03,合同会社碧,,合同会社,熊本県,熊本市中央区,横手２丁目１番６０号,,43,101,8600046,,,2023-07-03,合併による解散等,6330003008365,令和５年７月１日熊本市中央区横手二丁目１番６０号合同会社碧生（6330003008365）に合併し解散,2019-09-17,1,,,,,アオイ,0
1999,8380001003015,登記記録の閉鎖等,0,2023-07-19,2023-07-12,ユニライト工業株式会社,,株式会社,東京都,練馬区,旭町２丁目１５番１６号,,13,120,1790071,,,2023-07-12,清算の結了等,,,2015-10-05,1,,,,,ユニライトコウギョウ,0
2023,8700150102765,削除,,2023-07-19,,,,,,,,,,,,,,,,,,,,,,,,,
2031,9010005025925,登記記録の閉鎖等,0,2023-07-19,2023-07-11,ＨＫＲＪ　Ｖｅｎｅｏ一般社団法人,,その他の設立登記法人,東京都,千代田区,平河町１丁目６番１５号シルスフィア会計事務所内,,13,101,1020093,,,2023-07-11,清算の結了等,,,2016-10-20,1,,,,,エイチケーアールジェイヴェネオ,0
2035,9010401079649,登記記録の閉鎖等,0,2023-07-19,2023-07-03,エヌ・ティ・ティレゾナント株式会社,,株式会社,東京都,千代田区,大手町１丁目５番１号,,13,101,1000004,,,2023-07-03,合併による解散等,1010001067912,令和５年７月１日東京都千代田区永田町二丁目１１番１号株式会社ＮＴＴドコモ（1010001067912）に合併し解散,2015-10-05,1,,,,,エヌティティレゾナント,0
2047,9010602030947,登記記録の閉鎖等,0,2023-07-19,2023-06-28,有限会社ｍｏｔｉｖａｔｅｄ,,有限会社,千葉県,松戸市,栄町６丁目４１７番地の１６,,12,207,2710062,,,2023-06-28,清算の結了等,,,2015-10-05,1,,,,,モティベイティッド,0
2049,9010605002720,登記記録の閉鎖等,0,2023-07-19,2023-07-11,特定非営利活動法人南三陸ミシン工房,,その他の設立登記法人,東京都,江東区,三好２丁目２番１３号,,13,108,1350022,,,2023-07-11,清算の結了等,,,2015-10-05,1,,,,,ミナミサンリクミシンコウボウ,0
2058,9010801031845,登記記録の閉鎖等,0,2023-07-19,2023-07-14,ＪＷＢトレーディング株式会社,,株式会社,東京都,大田区,平和島５丁目５番２１号,,13,111,1430006,,,2023-07-14,合併による解散等,3430001075813,令和５年７月１日札幌市中央区南二十一条西十丁目１番２７号ＪＷＢ株式会社（3430001075813）に合併し解散,2021-04-08,1,,,,,,0
2066,9011001147944,登記記録の閉鎖等,0,2023-07-19,2023-07-14,株式会社スペース・エナジー,,株式会社,東京都,渋谷区,富ヶ谷１丁目１４番１４号スタンフォードアネックスビル３Ｆ,,13,113,1510063,,,2023-07-14,清算の結了等,,,2022-06-10,1,,,,,スペースエナジー,0
2070,9011003012221,登記記録の閉鎖等,0,2023-07-19,2023-07-14,合同会社慧・アンド・カンパニー,,合同会社,東京都,渋谷区,幡ヶ谷３丁目３９番１２号渋谷ウェストビル１階,,13,113,1510072,,,2023-07-14,清算の結了等,,,2021-02-03,1,,,,,ケイアンドカンパニー,0
2080,9011402002319,登記記録の閉鎖等,0,2023-07-19,2023-07-14,有限会社角屋酒店,,有限会社,東京都,板橋区,小豆沢２丁目２２番１６号,,13,119,1740051,,,2023-07-14,清算の結了等,,,2015-10-05,1,,,,,カドヤサケテン,0
2089,9011801001961,登記記録の閉鎖等,0,2023-07-19,2023-07-13,株式会社昭和建材工事,,株式会社,東京都,葛飾区,東四つ木４丁目３３番４号,,13,122,1240014,,,2023-07-13,清算の結了等,,,2015-10-05,1,,,,,ショウワケンザイコウジ,0
2091,9012401031820,登記記録の閉鎖等,0,2023-07-19,2023-07-10,株式会社ＣＡＭＩ,,株式会社,東京都,墨田区,東駒形３丁目１９番８号,,13,107,1300005,,,2023-07-10,清算の結了等,,,2016-09-08,1,,,,,カミ,0
2147,9080002004719,登記記録の閉鎖等,0,2023-07-19,2023-07-12,有限会社ハヤシインターナショナル,,有限会社,静岡県,静岡市駿河区,寺田７３番地の９,,22,102,4210137,,,2023-07-12,清算の結了等,,,2015-10-05,1,,,,,ハヤシインターナショナル,0
2149,9100005010439,登記記録の閉鎖等,0,2023-07-19,2023-07-04,特定非営利活動法人佐久地方に流れる用水の会,,その他の設立登記法人,長野県,北佐久郡軽井沢町,大字追分９０１番地２,,20,321,3890115,,,2023-07-04,清算の結了等,,,2015-10-05,1,,,,,サクチホウニナガレルヨウスイノカイ,0
2165,9120902017856,登記記録の閉鎖等,0,2023-07-19,2023-07-07,有限会社おおかわ,,有限会社,大阪府,豊中市,庄内幸町３丁目３１番２６号,,27,203,5610833,,,2023-07-07,清算の結了等,,,2015-10-05,1,,,,,オオカワ,0
2175,9140001106880,登記記録の閉鎖等,0,2023-07-19,2023-07-11,株式会社スリースター,,株式会社,大阪府,大阪市中央区,南本町１丁目３番１７号,,27,128,5410054,,,2023-07-11,清算の結了等,,,2017-07-13,1,,,,,スリースター,0
2183,9160002008050,登記記録の閉鎖等,0,2023-07-19,2023-07-11,有限会社北川米穀店,,有限会社,滋賀県,愛知郡愛荘町,市６６１番地の５,,25,425,5291313,,,2023-07-11,清算の結了等,,,2015-10-05,1,,,,,キタガワベイコクテン,0
2199,9200002026403,登記記録の閉鎖等,0,2023-07-19,2023-07-11,ヒダシコー有限会社,,有限会社,岐阜県,高山市,松之木町１０４０番地６,,21,203,5060802,,,2023-07-11,清算の結了等,,,2015-10-05,1,,,,,ヒダシコー,0
2200,9210001018342,登記記録の閉鎖等,0,2023-07-19,2023-07-05,株式会社ナチュラルエイジ,,株式会社,福井県,福井市,開発２丁目２０８番,,18,201,9100842,,,2023-07-05,清算の結了等,,,2021-03-05,1,,,,,ナチュラルエイジ,0
2201,9230002000181,登記記録の閉鎖等,0,2023-07-19,2023-07-14,有限会社アンドー商事,,有限会社,富山県,富山市,豊田本町４丁目２９番１９号,,16,201,9318312,,,2023-07-14,清算の結了等,,,2015-10-05,1,,,,,アンドーショウジ,0
2215,9280003001265,登記記録の閉鎖等,0,2023-07-19,2023-07-05,合同会社訪問看護ステーション幸,,合同会社,島根県,松江市,上本庄町５５５番地１,,32,201,6901102,,,2023-07-05,清算の結了等,,,2019-02-05,1,,,,,ホウモンカンゴステーションサチ,0
2218,9290005012037,登記記録の閉鎖等,0,2023-07-19,2023-07-04,医療法人井口こどもクリニック,,その他の設立登記法人,福岡県,柳川市,三橋町今古賀４９番地の３,,40,207,8320823,,,2023-07-04,清算の結了等,,,2015-10-05,1,,,,,イグチコドモクリニック,0
