sequenceNumber,corporateNumber,process,correct,updateDate,changeDate,name,nameImageId,kind,prefectureName,cityName,streetNumber,addressImageId,prefectureCode,cityCode,postCode,addressOutside,addressOutsideImageId,closeDate,closeCause,successorCorporateNumber,changeCause,assignmentDate,latest,enName,enPrefectureName,enCityName,enAddressOutside,furigana,hihyoji
7,1010001180459,登記記録の閉鎖等,0,2021-08-16,2021-08-02,株式会社ＡＦＳマーケティング,,株式会社,東京都,中央区,日本橋小網町９－３キャナルタワー１Ｆ,,13,102,1030016,,,2021-08-02,清算の結了等,,,2016-12-28,1,,,,,エイエフエスマーケティング,0
32,1010405015525,登記記録の閉鎖等,0,2021-08-16,2021-08-02,一般社団法人西岡ＨＣ１号,,その他の設立登記法人,東京都,港区,元赤坂１丁目１番８号赤坂コミュニティビル４階,,13,103,1070051,,,2021-08-02,清算の結了等,,,2017-02-21,1,,,,,ニシオカエイチシーイチゴウ,0
40,1010702001062,登記記録の閉鎖等,0,2021-08-16,2021-08-12,有限会社上高商店,,有限会社,東京都,品川区,二葉２丁目２２番１０号,,13,109,1420043,,,2021-08-12,清算の結了等,,,2015-10-05,1,,,,,ウエタカショウテン,0
43,1010901020441,登記記録の閉鎖等,0,2021-08-16,2021-08-11,株式会社ハヤシ,,株式会社,東京都,世田谷区,千歳台４丁目２６番２－６１０号,,13,112,1570071,,,2021-08-11,清算の結了等,,,2015-10-05,1,,,,,ハヤシ,0
50,1011001066598,登記記録の閉鎖等,0,2021-08-16,2021-08-12,株式会社ブレイベスト,,株式会社,東京都,新宿区,西新宿２丁目６番１号新宿住友ビル３２階,,13,104,1600023,,,2021-08-12,清算の結了等,,,2015-10-05,1,,,,,ブレイベスト,0
53,1011002036674,登記記録の閉鎖等,0,2021-08-16,2021-08-02,有限会社クード・ラボ,,有限会社,東京都,渋谷区,千駄ヶ谷３丁目５５番６号,,13,113,1510051,,,2021-08-02,清算の結了等,,,2015-10-05,1,,,,,クードラボ,0
56,1011101055187,登記記録の閉鎖等,0,2021-08-16,2021-08-02,エム・ケイ・ワン株式会社,,株式会社,東京都,中央区,銀座１丁目１５番２号銀座スイムビル７階,,13,102,1040061,,,2021-08-02,清算の結了等,,,2015-10-05,1,,,,,,0
63,1011205001665,登記記録の閉鎖等,0,2021-08-16,2021-08-03,医療法人社団フロジャク会,,その他の設立登記法人,東京都,中野区,中野４丁目４番１１号第１２南日本ビル８階,,13,114,1640001,,,2021-08-03,清算の結了等,,,2015-10-05,1,,,,,シャダンフロジャクカイ,0
74,1012701013055,登記記録の閉鎖等,0,2021-08-16,2021-08-13,株式会社サハラ,,株式会社,東京都,小平市,小川町１丁目９６２番地の７,,13,211,1870032,,,2021-08-13,清算の結了等,,,2015-10-05,1,,,,,,0
77,1013101006153,登記記録の閉鎖等,0,2021-08-16,2021-08-10,ムサシノミート株式会社,,株式会社,東京都,西多摩郡瑞穂町,箱根ケ崎東松原１０番地１,,13,303,1901222,,,2021-08-10,合併による解散等,6130001014872,令和３年８月１日京都市伏見区竹田藁屋町８０番地総合食品エスイー株式会社（6130001014872）に合併し解散,2015-10-05,1,,,,,ムサシノミート,0
83,1013401001432,登記記録の閉鎖等,0,2021-08-16,2021-08-10,長沢商事株式会社,,株式会社,東京都,多摩市,豊ヶ丘４丁目１０番地８号,,13,224,2060031,,,2021-08-10,合併による解散等,6010801028407,令和３年８月１日東京都大田区上池台一丁目１１番７号株式会社ファルマステップ（6010801028407）に合併し解散,2015-10-05,1,,,,,ナガサワショウジ,0
84,1020001007149,登記記録の閉鎖等,0,2021-08-16,2021-08-05,株式会社エル・シーアプライアンス,,株式会社,神奈川県,横浜市戸塚区,原宿４丁目５２番７号,,14,110,2450063,,,2021-08-05,清算の結了等,,,2015-10-05,1,,,,,エルシーアプライアンス,0
91,1020002036072,登記記録の閉鎖等,0,2021-08-16,2021-08-04,有限会社ミヤタデンキ,,有限会社,神奈川県,横浜市港北区,新吉田東７丁目９番３号,,14,109,2230058,,,2021-08-04,清算の結了等,,,2015-10-05,1,,,,,ミヤタデンキ,0
108,1030002091050,登記記録の閉鎖等,0,2021-08-16,2021-08-03,有限会社こもれび,,有限会社,埼玉県,越谷市,登戸町３８番３９号,,11,222,3430846,,,2021-08-03,清算の結了等,,,2015-10-05,1,,,,,コモレビ,0
109,1030003013020,登記記録の閉鎖等,0,2021-08-16,2021-08-05,合同会社プラスクリエイト,,合同会社,東京都,千代田区,神田多町２丁目１１番地７フォレシティ神田多町８０１号,,13,101,1010046,,,2021-08-05,清算の結了等,,,2019-01-30,1,,,,,プラスクリエイト,0
114,1040002034082,登記記録の閉鎖等,0,2021-08-16,2021-08-02,有限会社三恵研究所,,有限会社,千葉県,市川市,南八幡５丁目１１番１１号,,12,203,2720023,,,2021-08-02,清算の結了等,,,2015-10-05,1,,,,,サンケイケンキュウジョ,0
126,1110001005903,登記記録の閉鎖等,0,2021-08-16,2021-08-10,株式会社リョウユウ,,株式会社,新潟県,新潟市江南区,三百地２３３５番地１,,15,104,9500107,,,2021-08-10,清算の結了等,,,2015-10-05,1,,,,,リョウユウ,0
152,1120901012023,登記記録の閉鎖等,0,2021-08-16,2021-08-11,松下金属工業株式会社,,株式会社,大阪府,高槻市,高槻町２番１１号,,27,207,5690803,,,2021-08-11,合併による解散等,6120901012027,令和３年８月１日大阪府高槻市日吉台一番町２３番２５号松昌興産株式会社（6120901012027）に合併し解散,2015-10-05,1,,,,,マツシタキンゾクコウギョウ,0
172,1180001145957,登記記録の閉鎖等,0,2021-08-16,2021-08-06,三笠精機株式会社,,株式会社,愛知県,丹羽郡扶桑町,大字斎藤字宮添１６６番地,,23,362,4800104,,,2021-08-06,合併による解散等,6010401159643,令和３年８月１日東京都港区港南二丁目１３番３１号品川ＮＳＳビル８階三笠精機株式会社（6010401159643）に合併し解散,2021-05-13,1,,,,,ミカサセイキ,0
186,1190002005341,登記記録の閉鎖等,0,2021-08-16,2021-08-12,信和通信有限会社,,有限会社,三重県,南牟婁郡紀宝町,鵜殿２１５１番地１,,24,562,5195701,,,2021-08-12,清算の結了等,,,2015-10-05,1,,,,,シンワツウシン,0
193,1230001015015,登記記録の閉鎖等,0,2021-08-16,2021-08-04,株式会社クロト,,株式会社,富山県,小矢部市,和沢１８０番地２,,16,209,9320822,,,2021-08-04,清算の結了等,,,2015-10-05,1,,,,,クロト,0
198,1240002008339,登記記録の閉鎖等,0,2021-08-16,2021-08-02,水力工業有限会社,,有限会社,広島県,広島市中区,江波西２丁目１番３号,,34,101,7300831,,,2021-08-02,清算の結了等,,,2015-10-05,1,,,,,スイリョクコウギョウ,0
202,1250005002230,登記記録の閉鎖等,0,2021-08-16,2021-07-05,宗教法人エホバの証人の宇部市西会衆,,その他の設立登記法人,山口県,宇部市,大字妻崎開作１１２４番地２,,35,202,7590204,,,2021-07-05,合併による解散等,5250005002359,令和３年７月５日山口県山陽小野田市大字小野田字一ノ蓮田３４１８番宗教法人エホバの証人の小野田会衆（5250005002359）に合併し解散,2015-10-05,1,,,,,エホバノショウニンノウベシニシカイシュウ,0
222,1330002002019,登記記録の閉鎖等,0,2021-08-16,2021-08-10,有限会社オルテク,,有限会社,熊本県,熊本市中央区,水前寺１丁目１５番４号,,43,101,8620950,,,2021-08-10,清算の結了等,,,2015-10-05,1,,,,,オルテク,0
244,1420005003566,登記記録の閉鎖等,0,2021-08-16,2021-08-05,西北五生コンクリート協同組合,,その他の設立登記法人,青森県,五所川原市,大字姥萢字桜木２６６番地２,,02,205,0370015,,,2021-08-05,清算の結了等,,,2015-10-05,1,,,,,セイホクゴナマコンクリート,0
260,1500002021942,登記記録の閉鎖等,0,2021-08-16,2021-07-01,有限会社ヤングドライ川之江,,有限会社,愛媛県,四国中央市,妻鳥町字加地家７６９番地２,,38,213,7990113,,,2021-07-01,合併による解散等,7500002017233,令和３年７月１日愛媛県新居浜市泉宮町３番３号株式会社ヤングドライ新居浜（7500002017233）に合併し解散,2015-10-05,1,,,,,ヤングドライカワノエ,0
291,2010403022051,登記記録の閉鎖等,0,2021-08-16,2021-08-02,ＰＫ　ＡＩＲ１ＪＰＮ　ＳＥＴＴＬＥＭＥＮＴ　ＳＰＶ合同会社,,合同会社,東京都,港区,虎ノ門２丁目１０番４号オークラプレステージタワー,,13,103,1050001,,,2021-08-02,合併による解散等,2010401059418,令和３年８月１日東京都港区虎ノ門二丁目１０番４号オークラプレステージタワーＰＫ　ＡｉｒＦｉｎａｎｃｅ　Ｊａｐａｎ合同会社（2010401059418）に合併し解散,2019-12-24,1,,,,,ピーケーエアーワンジャパンセトルメントエスピーヴィ,0
299,2010702000229,登記記録の閉鎖等,0,2021-08-16,2021-08-12,有限会社アンサー,,有限会社,東京都,品川区,西五反田５丁目１番１３－３０１号,,13,109,1410031,,,2021-08-12,清算の結了等,,,2015-10-05,1,,,,,アンサー,0
304,2010805000563,登記記録の閉鎖等,0,2021-08-16,2021-08-02,東調布薬業協同組合,,その他の設立登記法人,東京都,大田区,東雪谷３丁目１９番１７号,,13,111,1450065,,,2021-08-02,清算の結了等,,,2015-10-05,1,,,,,ヒガシチョウフヤクギョウ,0
305,2010901011984,登記記録の閉鎖等,0,2021-08-16,2021-08-11,名豊興業株式会社,,株式会社,東京都,世田谷区,鎌田４丁目１８番１５号,,13,112,1570077,,,2021-08-11,清算の結了等,,,2015-10-05,1,,,,,メイホウコウギョウ,0
308,2010901024805,登記記録の閉鎖等,0,2021-08-16,2021-08-06,株式会社エルテ,,株式会社,東京都,渋谷区,恵比寿１丁目２４番１１号,,13,113,1500013,,,2021-08-06,清算の結了等,,,2015-10-05,1,,,,,エルテ,0
318,2011101020603,登記記録の閉鎖等,0,2021-08-16,2021-07-29,株式会社三森,,株式会社,東京都,新宿区,西落合４丁目３番３号,,13,104,1610031,,,2021-07-29,清算の結了等,,,2015-10-05,1,,,,,ミツモリ,0
354,2013301026363,登記記録の閉鎖等,0,2021-08-16,2021-08-02,株式会社セブンフルーツ,,株式会社,東京都,港区,北青山２丁目７番１３－３階,,13,103,1070061,,,2021-08-02,清算の結了等,,,2015-10-05,1,,,,,セブンフルーツ,0
380,2021005003868,登記記録の閉鎖等,0,2021-08-16,2021-06-30,大山阿夫利神社本庁大谷賢治教会,,その他の設立登記法人,神奈川県,伊勢原市,大山３６４番地,,14,214,2591107,,,2021-06-30,合併による解散等,2021005003851,令和３年６月３０日神奈川県伊勢原市大山３５５番地大山阿夫利神社本庁（2021005003851）に合併し解散,2015-10-05,1,,,,,,0
414,2080001010204,登記記録の閉鎖等,0,2021-08-16,2021-08-12,久保田食品株式会社,,株式会社,静岡県,静岡市清水区,蒲原３丁目１１番１４号,,22,103,4213203,,,2021-08-12,清算の結了等,,,2015-10-05,1,,,,,クボタショクヒン,0
417,2080101000360,登記記録の閉鎖等,0,2021-08-16,2021-08-11,株式会社オフィス・ワン,,株式会社,静岡県,沼津市,三枚橋町１７番１０号,,22,203,4100037,,,2021-08-11,清算の結了等,,,2015-10-05,1,,,,,オフイスワン,0
422,2110002008573,登記記録の閉鎖等,0,2021-08-16,2021-08-11,有限会社丸田電気工事,,有限会社,新潟県,新潟市中央区,本馬越２丁目７番１５号,,15,103,9500865,,,2021-08-11,清算の結了等,,,2015-10-05,1,,,,,マルタデンキコウジ,0
424,2110005011351,登記記録の閉鎖等,0,2021-08-16,2021-08-10,長岡地域仏壇協同組合,,その他の設立登記法人,新潟県,長岡市,関原町５丁目５番地,,15,202,9402035,,,2021-08-10,清算の結了等,,,2015-10-05,1,,,,,ナガオカチイキブツダン,0
433,2120001187681,登記記録の閉鎖等,0,2021-08-16,2021-08-04,株式会社ＯＮＥ,,株式会社,大阪府,大阪市西区,阿波座１丁目１５番１８号,,27,106,5500011,,,2021-08-04,清算の結了等,,,2015-10-05,1,,,,,ワン,0
440,2120101003516,登記記録の閉鎖等,0,2021-08-16,2021-08-12,株式会社ジテック,,株式会社,大阪府,堺市西区,草部１１９９番地,,27,144,5938312,,,2021-08-12,清算の結了等,,,2015-10-05,1,,,,,ジテック,0
471,2150005004649,登記記録の閉鎖等,0,2021-08-16,2021-08-10,奈良県豆腐商工協同組合,,その他の設立登記法人,奈良県,橿原市,内膳町４丁目５番６号,,29,205,6340804,,,2021-08-10,清算の結了等,,,2015-10-05,1,,,,,ナラケントウフショウコウ,0
472,2150005008831,登記記録の閉鎖等,0,2021-08-16,2021-08-06,公益財団法人平松食と農の文化振興財団,,その他の設立登記法人,奈良県,橿原市,新賀町４７１番地グランデージ大和八木５０５号室,,29,205,6340006,,,2021-08-06,清算の結了等,,,2017-04-18,1,,,,,ヒラマツショクトノウノブンカシンコウザイダン,0
486,2180003016800,登記記録の閉鎖等,0,2021-08-16,2021-08-06,合同会社ムラザキ通商,,合同会社,愛知県,名古屋市名東区,よもぎ台３丁目１３０５番地,,23,115,4650091,,,2021-08-06,清算の結了等,,,2015-12-28,1,,,,,ムラザキツウショウ,0
488,2190002004937,登記記録の閉鎖等,0,2021-08-16,2021-08-12,有限会社雄雅,,有限会社,三重県,亀山市,加太中在家８１２５番地,,24,210,5191127,,,2021-08-12,清算の結了等,,,2015-10-05,1,,,,,ユウガ,0
489,2190002016271,登記記録の閉鎖等,0,2021-08-16,2021-08-13,有限会社イー・イー・シー,,有限会社,三重県,桑名市,松並町１丁目１３番地の１,,24,205,5110814,,,2021-08-13,清算の結了等,,,2015-10-05,1,,,,,イーイーシー,0
492,2200002022961,登記記録の閉鎖等,0,2021-08-16,2021-08-11,有限会社チカザキ企画,,有限会社,岐阜県,土岐市,泉町大富２６９番地の３,,21,212,5095132,,,2021-08-11,清算の結了等,,,2015-10-05,1,,,,,チカザキキカク,0
496,2220001006773,登記記録の閉鎖等,0,2021-08-16,2021-08-05,株式会社マルハチガラス,,株式会社,石川県,金沢市,藤江北３丁目１６０番地,,17,201,9200345,,,2021-08-05,清算の結了等,,,2015-10-05,1,,,,,マルハチガラス,0
497,2220002011764,登記記録の閉鎖等,0,2021-08-16,2021-07-28,有限会社東海保険プロ,,有限会社,石川県,小松市,本折町１４１番地,,17,203,9230957,,,2021-07-28,清算の結了等,,,2015-10-05,1,,,,,トウカイホケンプロ,0
521,2290801010324,登記記録の閉鎖等,0,2021-08-16,2021-08-02,東筑商事株式会社,,株式会社,福岡県,北九州市八幡西区,堀川町４番１号,,40,109,8070861,,,2021-08-02,合併による解散等,8290801010327,令和３年８月１日北九州市八幡西区堀川町４番１号株式会社東筑軒（8290801010327）に合併し解散,2015-10-05,1,,,,,トウチクショウジ,0
537,2340002015654,登記記録の閉鎖等,0,2021-08-16,2021-08-03,有限会社加治木通信,,有限会社,鹿児島県,姶良市,加治木町木田３８６６番地１１,,46,225,8995241,,,2021-08-03,清算の結了等,,,2015-10-05,1,,,,,カジキツウシン,0
552,2370002008795,登記記録の閉鎖等,0,2021-08-16,2021-08-03,有限会社三益不動産,,有限会社,宮城県,仙台市青葉区,五橋１丁目４番２０－４０１号,,04,101,9800022,,,2021-08-03,清算の結了等,,,2015-10-05,1,,,,,ミマスフドウサン,0
567,2400005004012,登記記録の閉鎖等,0,2021-08-16,2021-07-06,天理教田老分教会,,その他の設立登記法人,岩手県,宮古市,田老字田の沢１３２番地５,,03,202,0270303,,,2021-07-06,合併による解散等,6400005004009,令和３年７月６日岩手県宮古市愛宕一丁目１番１４号天理教宮古分教会（6400005004009）に合併し解散,2015-10-05,1,,,,,テンリキョウタロウブンキョウカイ,0
569,2430001036048,登記記録の閉鎖等,0,2021-08-16,2021-08-02,環境マネジメント株式会社,,株式会社,北海道,札幌市東区,北十九条東１丁目１番１号,,01,103,0650019,,,2021-08-02,合併による解散等,8430001003612,令和３年８月１日札幌市東区北十九条東一丁目１番１号環境エンジニアリング株式会社（8430001003612）に合併し解散,2015-10-05,1,,,,,カンキョウマネジメント,0
572,2430001068652,登記記録の閉鎖等,0,2021-08-16,2021-07-30,株式会社Ａ＆Ｅ,,株式会社,北海道,札幌市中央区,南五条西３丁目８番地,,01,101,0640805,,,2021-07-30,清算の結了等,,,2015-10-05,1,,,,,エーアンドイー,0
575,2430003008565,登記記録の閉鎖等,0,2021-08-16,2021-08-03,合同会社アジュール建設,,合同会社,北海道,千歳市,長都駅前５丁目６番３号,,01,224,0660031,,,2021-08-03,清算の結了等,,,2017-07-28,1,,,,,,0
578,2460001001049,登記記録の閉鎖等,0,2021-08-16,2021-08-13,太釧運輸株式会社,,株式会社,北海道,釧路郡釧路町,桂木４丁目１４番地,,01,661,0880621,,,2021-08-13,清算の結了等,,,2015-10-05,1,,,,,,0
583,2480001006590,登記記録の閉鎖等,0,2021-08-16,2021-08-12,株式会社アテック,,株式会社,徳島県,阿南市,福井町吉谷１２２番地１,,36,204,7791620,,,2021-08-12,清算の結了等,,,2015-10-05,1,,,,,アテック,0
601,3010002052432,登記記録の閉鎖等,0,2021-08-16,2021-08-05,有限会社小林興業,,有限会社,東京都,大島町,泉津,,13,361,1000103,,,2021-08-05,清算の結了等,,,2015-10-05,1,,,,,コバヤシコウギョウ,0
602,3010002053067,登記記録の閉鎖等,0,2021-08-16,2021-08-05,有限会社カントリーガイド,,有限会社,東京都,中央区,日本橋中洲６番４,,13,102,1030008,,,2021-08-05,清算の結了等,,,2015-10-05,1,,,,,カントリーガイド,0
603,3010003016691,登記記録の閉鎖等,0,2021-08-16,2021-08-02,リンクス・プロパティー合同会社,,合同会社,東京都,中央区,日本橋１丁目４番１号,,13,102,1030027,,,2021-08-02,清算の結了等,,,2015-10-05,1,,,,,リンクスプロパティー,0
631,3010701020986,登記記録の閉鎖等,0,2021-08-16,2021-08-13,株式会社マルエス内装工芸,,株式会社,東京都,品川区,東大井３丁目２０番１７号,,13,109,1400011,,,2021-08-13,清算の結了等,,,2015-10-05,1,,,,,,0
640,3010902019563,登記記録の閉鎖等,0,2021-08-16,2021-08-10,有限会社エィ・ティ・ワイ,,有限会社,東京都,世田谷区,玉川台２丁目２２番１１号,,13,112,1580096,,,2021-08-10,清算の結了等,,,2015-10-05,1,,,,,エィティワイ,0
646,3011001134312,登記記録の閉鎖等,0,2021-08-16,2021-07-27,株式会社みらいの実,,株式会社,東京都,渋谷区,代々木２丁目１１番５号アクティブ新宿４０４号室,,13,113,1510053,,,2021-07-27,清算の結了等,,,2020-06-16,1,,,,,ミライノミ,0
697,3021005003891,登記記録の閉鎖等,0,2021-08-16,2021-06-30,大山阿夫利神社本庁須藤教会,,その他の設立登記法人,神奈川県,伊勢原市,大山３１３番地,,14,214,2591107,,,2021-06-30,合併による解散等,2021005003851,令和３年６月３０日神奈川県伊勢原市大山３５５番地大山阿夫利神社本庁（2021005003851）に合併し解散,2015-10-05,1,,,,,,0
705,3040001036945,登記記録の閉鎖等,0,2021-08-16,2021-08-03,株式会社松丸自動車,,株式会社,千葉県,松戸市,上本郷３９２９番地,,12,207,2710064,,,2021-08-03,清算の結了等,,,2015-10-05,1,,,,,,0
706,3040001086742,登記記録の閉鎖等,0,2021-08-16,2021-08-04,サーシャ・エンタープライズ株式会社,,株式会社,千葉県,船橋市,古和釜町７８８番地８２,,12,204,2740061,,,2021-08-04,清算の結了等,,,2015-10-05,1,,,,,サーシャエンタープライズ,0
714,3050002025351,登記記録の閉鎖等,0,2021-08-16,2021-08-06,有限会社コンサルティングブレーン,,有限会社,茨城県,古河市,松並１丁目１番１４号,,08,204,3060021,,,2021-08-06,清算の結了等,,,2015-10-05,1,,,,,コンサルティングブレーン,0
723,3080005003228,登記記録の閉鎖等,0,2021-08-16,2021-08-12,医療法人社団和陽会,,その他の設立登記法人,静岡県,静岡市清水区,石川新町８番３１号,,22,103,4240007,,,2021-08-12,清算の結了等,,,2015-10-05,1,,,,,ワヨウカイ,0
734,3120001107432,登記記録の閉鎖等,0,2021-08-16,2021-08-04,株式会社シー・エス・ケイ・ケイ,,株式会社,大阪府,大阪市中央区,高麗橋２丁目３番１５号三星高麗橋ビル４階,,27,128,5410043,,,2021-08-04,清算の結了等,,,2015-10-05,1,,,,,シーエスケイケイ,0
735,3120001125574,登記記録の閉鎖等,0,2021-08-16,2021-08-04,株式会社みずき,,株式会社,大阪府,大阪市大正区,三軒家東５丁目５番２０号,,27,108,5510002,,,2021-08-04,清算の結了等,,,2015-10-05,1,,,,,ミズキ,0
738,3120001190107,登記記録の閉鎖等,0,2021-08-16,2021-08-04,株式会社ＰＲＩＤＥ,,株式会社,大阪府,守口市,梶町１丁目３６番６号パークガーデン２０３号室,,27,209,5700015,,,2021-08-04,清算の結了等,,,2015-10-05,1,,,,,プライド,0
750,3120102019601,登記記録の閉鎖等,0,2021-08-16,2021-08-12,有限会社アプローチ,,有限会社,大阪府,河内長野市,清見台５丁目４番３号,,27,216,5860043,,,2021-08-12,清算の結了等,,,2015-10-05,1,,,,,アプローチ,0
763,3130005013907,登記記録の閉鎖等,0,2021-08-16,2021-08-10,農事組合法人いわまファーム,,その他の設立登記法人,京都府,福知山市,字岩間小字若宮９７３番地,,26,201,6200847,,,2021-08-10,清算の結了等,,,2015-10-05,1,,,,,イワマファーム,0
765,3140001040202,登記記録の閉鎖等,0,2021-08-16,2021-08-10,株式会社しばはら,,株式会社,兵庫県,赤穂郡上郡町,宿１８９番地の１,,28,481,6781217,,,2021-08-10,清算の結了等,,,2015-10-05,1,,,,,シバハラ,0
783,3180002048728,登記記録の閉鎖等,0,2021-08-16,2021-08-04,有限会社ポルト,,有限会社,愛知県,名古屋市中川区,高畑４丁目１６２番地－２,,23,110,4540911,,,2021-08-04,清算の結了等,,,2015-10-05,1,,,,,ポルト,0
784,3180003015487,登記記録の閉鎖等,0,2021-08-16,2021-07-05,ＰＨＤ茨城合同会社,00073982,合同会社,愛知県,名古屋市中区,栄５丁目２６番３９号,,23,106,4600008,,,2021-07-05,合併による解散等,6180003015939,令和３年７月５日名古屋市中区栄五丁目２６番３９号アンビー・ファシリティ合同会社（6180003015939）に合併し解散,2015-10-05,1,,,,,ピーエイチディーイバラキ,0
807,3280001007963,登記記録の閉鎖等,0,2021-08-16,2021-08-11,ＣｏＭＲｅＤ株式会社,,株式会社,島根県,江津市,松川町八神２０番地,,32,207,6950006,,,2021-08-11,合併による解散等,2010401135813,令和３年７月１３日東京都港区新橋三丁目１６番１２号株式会社ＳＰＡＣＥ　ＷＡＬＫＥＲ（2010401135813）に合併し解散,2019-05-10,1,,,,,コムリード,0
808,3280002001585,登記記録の閉鎖等,0,2021-08-16,2021-08-12,有限会社鳥せん,,有限会社,島根県,松江市,雑賀町５９５番地７,,32,201,6900056,,,2021-08-12,清算の結了等,,,2015-10-05,1,,,,,トリセン,0
809,3290001010339,登記記録の閉鎖等,0,2021-08-16,2021-08-06,株式会社ベストクレジットサービス,,株式会社,福岡県,福岡市中央区,那の津２丁目１番７号,,40,133,8100071,,,2021-08-06,合併による解散等,2070001032166,令和３年７月１日群馬県高崎市栄町１番１号株式会社ヤマダファイナンスサービス（2070001032166）に合併し解散,2015-10-05,1,,,,,ベストクレジットサービス,0
834,3340003000877,登記記録の閉鎖等,0,2021-08-16,2021-08-04,丸五木材商事合名会社,,合名会社,鹿児島県,大島郡天城町,大字平土野４４番地２,,46,531,8917612,,,2021-08-04,清算の結了等,,,2015-10-05,1,,,,,マルゴモクザイショウジ,0
840,3360003008167,登記記録の閉鎖等,0,2021-08-16,2021-08-03,合同会社シュクセブリヤン,,合同会社,沖縄県,沖縄市,宮里４丁目４番１号エテルノＨＭＳ１０４,,47,211,9042165,,,2021-08-03,清算の結了等,,,2017-04-25,1,,,,,シュクセブリヤン,0
847,3370302002753,登記記録の閉鎖等,0,2021-08-16,2021-08-02,有限会社スズシン,,有限会社,宮城県,仙台市泉区,桂１丁目７番地の２,,04,105,9813134,,,2021-08-02,清算の結了等,,,2015-10-05,1,,,,,スズシン,0
870,3470002005220,登記記録の閉鎖等,0,2021-08-16,2021-08-11,有限会社にしい,,有限会社,香川県,高松市,番町５丁目６番３０号,,37,201,7600017,,,2021-08-11,清算の結了等,,,2015-10-05,1,,,,,ニシイ,0
881,4010001162751,登記記録の閉鎖等,0,2021-08-16,2021-08-02,株式会社ワンナップ,,株式会社,東京都,千代田区,内神田２丁目１５番４号,,13,101,1010047,,,2021-08-02,清算の結了等,,,2015-10-05,1,,,,,ワンナップ,0
897,4010403021704,登記記録の閉鎖等,0,2021-08-16,2021-08-02,Ａｐｏｌｌｏ　ＰＫ　Ｊａｐａｎ合同会社,,合同会社,東京都,港区,虎ノ門２丁目１０番４号オークラプレステージタワー,,13,103,1050001,,,2021-08-02,合併による解散等,2010401059418,令和３年８月１日東京都港区虎ノ門二丁目１０番４号オークラプレステージタワーＰＫ　ＡｉｒＦｉｎａｎｃｅ　Ｊａｐａｎ合同会社（2010401059418）に合併し解散,2019-11-06,1,,,,,アポロピーケージャパン,0
898,4010405005382,登記記録の閉鎖等,0,2021-08-16,2021-08-02,一般社団法人麹町管財,,その他の設立登記法人,東京都,港区,港南２丁目１５番３号,,13,103,1080075,,,2021-08-02,清算の結了等,,,2015-10-05,1,,,,,コウジマチカンザイ,0
917,4011101037091,登記記録の閉鎖等,0,2021-08-16,2021-08-03,株式会社新生産業,,株式会社,東京都,千代田区,麹町５丁目７番地２,,13,101,1020083,,,2021-08-03,清算の結了等,,,2015-10-05,1,,,,,シンセイサンギョウ,0
941,4012702012821,登記記録の閉鎖等,0,2021-08-16,2021-08-12,有限会社高島保温板金,00058536,有限会社,東京都,東久留米市,東本町７番１１－６０２号,,13,222,2030014,,,2021-08-12,清算の結了等,,,2015-10-05,1,,,,,タカシマホオンバンキン,0
942,4012803001649,登記記録の閉鎖等,0,2021-08-16,2021-07-30,合同会社中央マネジメント,,合同会社,東京都,日野市,大字上田３３９番地の５,,13,212,1910014,,,2021-07-30,清算の結了等,,,2017-07-19,1,,,,,チュウオウマネジメント,0
955,4020001129378,登記記録の閉鎖等,0,2021-08-16,2021-08-06,株式会社オーティーエム,,株式会社,神奈川県,横浜市中区,末吉町１丁目１２番地３エシュレⅡ横浜４０３号,00116024,14,104,2310055,,,2021-08-06,清算の結了等,,,2019-01-09,1,,,,,オーティーエム,0
963,4020005011160,登記記録の閉鎖等,0,2021-08-16,2021-08-05,特定非営利活動法人ヘルスケアデザイン研究所,,その他の設立登記法人,神奈川県,横浜市神奈川区,入江２丁目１４番地９号新井マンション入江１０３号室,,14,102,2210014,,,2021-08-05,清算の結了等,,,2015-10-05,1,,,,,ヘルスケアデザインケンキュウショ,0
966,4021002011005,登記記録の閉鎖等,0,2021-08-16,2021-08-06,有限会社ケイワンコーポレーション,,有限会社,神奈川県,茅ヶ崎市,矢畑５９７番地５,,14,207,2530085,,,2021-08-06,清算の結了等,,,2015-10-05,1,,,,,ケイワンコーポレーション,0
967,4021002070348,登記記録の閉鎖等,0,2021-08-16,2021-08-03,有限会社ティ、エス、イー,,有限会社,神奈川県,横須賀市,ハイランド５丁目２１番１０号,,14,201,2390833,,,2021-08-03,清算の結了等,,,2015-10-05,1,,,,,ティエスイー,0
970,4021005009070,登記記録の閉鎖等,0,2021-08-16,2021-08-06,ＮＰＯ法人ヒューマンＩＣＴ推進委員会,,その他の設立登記法人,神奈川県,大和市,つきみ野６丁目２番地３,,14,213,2420002,,,2021-08-06,清算の結了等,,,2015-10-05,1,,,,,ヒューマンアイシーティースイシンイインカイ,0
971,4030001034296,登記記録の閉鎖等,0,2021-08-16,2021-08-02,株式会社プラネット,,株式会社,埼玉県,蕨市,塚越１丁目４番２号,,11,223,3350002,,,2021-08-02,合併による解散等,9030001034291,令和３年８月１日埼玉県蕨市塚越一丁目４番２号オー・ケー・ホールディングス株式会社（9030001034291）に合併し解散,2015-10-05,1,,,,,プラネット,0
972,4030001081371,登記記録の閉鎖等,0,2021-08-16,2021-08-02,双天株式会社,,株式会社,埼玉県,川口市,青木１丁目１１番２１号,,11,203,3320031,,,2021-08-02,清算の結了等,,,2015-10-05,1,,,,,ソウテン,0
973,4030001102714,登記記録の閉鎖等,0,2021-08-16,2021-08-06,株式会社Ｊ－ＡＣＥ,,株式会社,東京都,千代田区,大手町１丁目３番１号,,13,101,1000004,,,2021-08-06,清算の結了等,,,2015-10-05,1,,,,,ジェイエース,0
986,4040005009789,登記記録の閉鎖等,0,2021-08-16,2021-08-04,トーマス税理士法人,,その他の設立登記法人,千葉県,市原市,惣社４丁目１番地３５,,12,219,2900023,,,2021-08-04,清算の結了等,,,2015-10-05,1,,,,,トーマス,0
990,4060002038954,登記記録の閉鎖等,0,2021-08-16,2021-08-04,有限会社小沼自動車整備工場,,有限会社,栃木県,佐野市,高萩町３５６番地の２,,09,204,3270821,,,2021-08-04,清算の結了等,,,2015-10-05,1,,,,,,0
997,4080102005043,登記記録の閉鎖等,0,2021-08-16,2021-08-12,有限会社総合商社せりざわ,,有限会社,静岡県,沼津市,下香貫牛臥３００２番地の１１,,22,203,4100822,,,2021-08-12,清算の結了等,,,2015-10-05,1,,,,,,0
1005,4120001149044,登記記録の閉鎖等,0,2021-08-16,2021-08-06,株式会社一力,,株式会社,大阪府,枚方市,楠葉朝日１丁目６番２０号,,27,210,5731111,,,2021-08-06,清算の結了等,,,2015-10-05,1,,,,,,0
1033,4180001105198,登記記録の閉鎖等,0,2021-08-16,2021-07-06,株式会社エネック,,株式会社,愛知県,名古屋市熱田区,桜田町２０番２７号,,23,109,4560004,,,2021-07-06,合併による解散等,4080101001209,令和３年７月１日静岡県沼津市花園町７番地の１東海フッコール販売株式会社（4080101001209）に合併し解散,2015-10-05,1,,,,,エネック,0
1041,4180002078105,登記記録の閉鎖等,0,2021-08-16,2021-08-10,有限会社いなほ,,有限会社,愛知県,名古屋市天白区,植田西２丁目１２０３番地（ロイヤル八事１０１号）,,23,116,4680058,,,2021-08-10,清算の結了等,,,2015-10-05,1,,,,,イナホ,0
1042,4180002090811,登記記録の閉鎖等,0,2021-08-16,2021-08-10,有限会社シールド,,有限会社,愛知県,津島市,越津町字中之郷２４番地の２,,23,208,4960022,,,2021-08-10,清算の結了等,,,2015-10-05,1,,,,,シールド,0
1048,4200002009585,登記記録の閉鎖等,0,2021-08-16,2021-08-11,有限会社三共慶進,,有限会社,岐阜県,瑞穂市,穂積１１９６番地の１,,21,216,5010223,,,2021-08-11,清算の結了等,,,2015-10-05,1,,,,,サンキョウケイシン,0
1052,4220001015260,登記記録の閉鎖等,0,2021-08-16,2021-07-29,株式会社イソライトライフ,,株式会社,石川県,七尾市,光陽台４５番地,,17,202,9260177,,,2021-07-29,清算の結了等,,,2015-10-05,1,,,,,イソライトライフ,0
1059,4250001017122,登記記録の閉鎖等,0,2021-08-16,2021-08-12,株式会社ＶＡＲＮＡ,,株式会社,山口県,岩国市,牛野谷町１丁目１４番２７号,,35,208,7410071,,,2021-08-12,清算の結了等,,,2018-05-10,1,,,,,ヴァーナ,0
1076,4290002025558,登記記録の閉鎖等,0,2021-08-16,2021-07-20,有限会社エイエムシーシー,,有限会社,福岡県,福岡市東区,香椎台２丁目１４番７号,,40,131,8130014,,,2021-07-20,清算の結了等,,,2015-10-05,1,,,,,エイエムシーシー,0
1084,4340001008302,登記記録の閉鎖等,0,2021-08-16,2021-08-04,株式会社リバーウェル,,株式会社,鹿児島県,霧島市,国分中央５丁目６１０パティオ内,,46,218,8994332,,,2021-08-04,清算の結了等,,,2015-10-05,1,,,,,リバーウェル,0
1089,4350003003119,登記記録の閉鎖等,0,2021-08-16,2021-08-11,合同会社小平食販,,合同会社,宮崎県,宮崎市,神宮西１丁目１１７番地１,,45,201,8800033,,,2021-08-11,清算の結了等,,,2018-06-04,1,,,,,コヒラショクハン,0
1101,4380001015121,登記記録の閉鎖等,0,2021-08-16,2021-08-06,株式会社リュウプランニング,,株式会社,福島県,いわき市,平字愛谷町三丁目８番地の３,,07,204,9708026,,,2021-08-06,清算の結了等,,,2015-10-05,1,,,,,リュウプランニング,0
1104,4400501000768,登記記録の閉鎖等,0,2021-08-16,2021-08-11,一関総合保険株式会社,,株式会社,岩手県,一関市,宮坂町８番１０号,,03,209,0210872,,,2021-08-11,清算の結了等,,,2015-10-05,1,,,,,イチノセキソウゴウホケン,0
1107,4430001041665,登記記録の閉鎖等,0,2021-08-16,2021-08-02,株式会社吉川水産,,株式会社,北海道,札幌市白石区,栄通１９丁目１３番４号,,01,104,0030021,,,2021-08-02,清算の結了等,,,2015-10-05,1,,,,,ヨシカワスイサン,0
1113,4430003012508,登記記録の閉鎖等,0,2021-08-16,2021-08-02,合同会社ハートエイド,,合同会社,北海道,苫小牧市,若草町１丁目３番５号,,01,213,0530021,,,2021-08-02,清算の結了等,,,2021-03-09,1,,,,,ハートエイド,0
1128,5010001008565,登記記録の閉鎖等,0,2021-08-16,2021-07-12,株式会社生田商会,,株式会社,東京都,板橋区,板橋１丁目４２番１３号大佳板橋ビル３階Ａ,,13,119,1730004,,,2021-07-12,合併による解散等,1030001137647,令和３年７月１日埼玉県さいたま市中央区上峰一丁目３番１２号日本パンチカード工業株式会社（1030001137647）に合併し解散,2015-10-05,1,,,,,,0
1137,5010001181387,登記記録の閉鎖等,0,2021-08-16,2021-08-04,株式会社プロフーモ,,株式会社,東京都,中央区,銀座１丁目１５番１３号ＶＯＲＴ銀座ｒｅｓｉｄｅｎｃｅ３０６号室,,13,102,1040061,,,2021-08-04,清算の結了等,,,2017-02-13,1,,,,,プロフーモ,0
1140,5010003023059,登記記録の閉鎖等,0,2021-08-16,2021-08-04,合同会社ＱＩ　Ｉｎｖｅｓｔｏｒ,,合同会社,東京都,中央区,日本橋茅場町２丁目１７番３－６０７号,,13,102,1030025,,,2021-08-04,清算の結了等,,,2016-02-15,1,,,,,キューアイインベスター,0
1164,5010403017040,登記記録の閉鎖等,0,2021-08-16,2021-08-02,合同会社営農１号,,合同会社,東京都,港区,虎ノ門１丁目１番１２号,,13,103,1050001,,,2021-08-02,合併による解散等,9010401061029,令和３年８月１日東京都港区虎ノ門一丁目１番１２号株式会社ミナトマネジメント（9010401061029）に合併し解散,2017-08-17,1,,,,,エイノウイチゴウ,0
1181,5010801016585,登記記録の閉鎖等,0,2021-08-16,2021-08-04,コアタイム株式会社,,株式会社,東京都,千代田区,富士見２丁目１４番３８号,,13,101,1020071,,,2021-08-04,清算の結了等,,,2015-10-05,1,,,,,コアタイム,0
1199,5011105008393,登記記録の閉鎖等,0,2021-08-16,2021-07-21,一般社団法人Ｐｉｎｅ　Ｔｒｅｅ,,その他の設立登記法人,東京都,新宿区,北新宿２丁目４番３－２０４号,,13,104,1690074,,,2021-07-21,清算の結了等,,,2018-06-20,1,,,,,パインツリー,0
1224,5021001033379,登記記録の閉鎖等,0,2021-08-16,2021-08-06,株式会社東部サービスセンター,,株式会社,神奈川県,小田原市,本町１丁目１３番７号,,14,206,2500012,,,2021-08-06,清算の結了等,,,2015-10-05,1,,,,,トウブサービスセンター,0
1226,5021001038493,登記記録の閉鎖等,0,2021-08-16,2021-08-06,株式会社ネイバーズテクノロジー,,株式会社,神奈川県,平塚市,平塚５丁目１９番１７号ルミエール湘南Ｂー２０２,,14,203,2540052,,,2021-08-06,清算の結了等,,,2015-10-05,1,,,,,ネイバーズテクノロジー,0
1233,5030001070992,登記記録の閉鎖等,0,2021-08-16,2021-07-29,東松山測量設計株式会社,,株式会社,埼玉県,東松山市,六反町２番地２,,11,212,3550023,,,2021-07-29,清算の結了等,,,2015-10-05,1,,,,,,0
1245,5030003016085,登記記録の閉鎖等,0,2021-08-16,2021-07-30,合同会社ｆｏｒｅａｃｈ,,合同会社,埼玉県,川越市,大字吉田６８７番地９７,,11,201,3500807,,,2021-07-30,清算の結了等,,,2020-10-27,1,,,,,フォーイーチ,0
1268,5060002036643,登記記録の閉鎖等,0,2021-08-16,2021-08-04,有限会社高野製作所,,有限会社,栃木県,足利市,小俣町８０９番地の２,,09,202,3260141,,,2021-08-04,清算の結了等,,,2015-10-05,1,,,,,タカノセイサクショ,0
1269,5080101006751,登記記録の閉鎖等,0,2021-08-16,2021-08-11,バリュー・トーカイ株式会社,,株式会社,静岡県,三島市,本町１２番２２号,,22,206,4110855,,,2021-08-11,合併による解散等,7020001012903,令和３年８月１日横浜市南区宮元町一丁目２１番地１５株式会社バリュー・エージェント（7020001012903）に合併し解散,2015-10-05,1,,,,,バリュートーカイ,0
1277,5110002021994,登記記録の閉鎖等,0,2021-08-16,2021-08-10,有限会社山田塗装,,有限会社,新潟県,岩船郡関川村,大字湯沢４９９番地,,15,581,9593261,,,2021-08-10,清算の結了等,,,2015-10-05,1,,,,,ヤマダトソウ,0
1294,5130001045910,登記記録の閉鎖等,0,2021-08-16,2021-08-10,株式会社ツーエフ,,株式会社,京都府,京都市右京区,鳴滝音戸山町４番地３８,,26,108,6168255,,,2021-08-10,清算の結了等,,,2015-10-05,1,,,,,ツーエフ,0
1304,5140001093727,登記記録の閉鎖等,0,2021-08-16,2021-08-11,ＺＵＮＤ　ＵＳＡ株式会社,,株式会社,兵庫県,姫路市,飾磨区下野田１丁目１７９番地,,28,201,6728044,,,2021-08-11,合併による解散等,2140001102647,令和３年８月１日大阪市福島区福島七丁目１５－１－２５０３号株式会社Ｆｏｒ　Ｙｏｕ（2140001102647）に合併し解散,2015-10-05,1,,,,,,0
1322,5180005018040,登記記録の閉鎖等,0,2021-08-16,2021-08-12,一般社団法人賢美会,,その他の設立登記法人,愛知県,名古屋市中村区,名駅３丁目２３－７,,23,105,4500002,,,2021-08-12,清算の結了等,,,2018-11-14,1,,,,,ケンビカイ,0
1332,5210001014865,登記記録の閉鎖等,0,2021-08-16,2021-08-10,株式会社アール,,株式会社,福井県,福井市,米松２丁目１３番１号,,18,201,9100851,,,2021-08-10,清算の結了等,,,2015-10-05,1,,,,,,0
1333,5210005005547,登記記録の閉鎖等,0,2021-08-16,2021-08-10,大門生産森林組合,,その他の設立登記法人,福井県,大野市,牛ケ原第３号８８番地,,18,205,9120091,,,2021-08-10,清算の結了等,,,2015-10-05,1,,,,,ダイモン,0
1340,5290001016912,登記記録の閉鎖等,0,2021-08-16,2021-07-20,株式会社ミネシゲ,,株式会社,福岡県,福岡市南区,塩原４丁目７番９－３０１号,,40,134,8150032,,,2021-07-20,清算の結了等,,,2015-10-05,1,,,,,ミネシゲ,0
1350,5340001015603,登記記録の閉鎖等,0,2021-08-16,2021-08-04,株式会社ＰＲＯＪＥＣＴ　Ｓ,,株式会社,鹿児島県,出水市,昭和町３５番５号,,46,208,8990202,,,2021-08-04,清算の結了等,,,2015-10-05,1,,,,,プロジェクトエス,0
1352,5340002021550,登記記録の閉鎖等,0,2021-08-16,2021-08-03,有限会社リーチ建設,,有限会社,鹿児島県,大島郡宇検村,大字湯湾９８８番地の１３,,46,524,8943301,,,2021-08-03,清算の結了等,,,2015-10-05,1,,,,,リーチケンセツ,0
1354,5360003009725,登記記録の閉鎖等,0,2021-08-16,2021-08-05,合同会社ＥＮＣＡ,,合同会社,沖縄県,うるま市,みどり町１丁目１－９スペース２２・２０１号室,,47,213,9042215,,,2021-08-05,清算の結了等,,,2019-09-03,1,,,,,イーエヌシーエー,0
1367,5370301000780,登記記録の閉鎖等,0,2021-08-16,2021-07-30,株式会社大明組,,株式会社,宮城県,石巻市,三ツ股２丁目７番３９号,,04,202,9860858,,,2021-07-30,清算の結了等,,,2015-10-05,1,,,,,ダイメイグミ,0
1381,5460302005324,登記記録の閉鎖等,0,2021-08-16,2021-08-13,有限会社アーミス,,有限会社,北海道,斜里郡清里町,字向陽１９３番地,,01,546,0994403,,,2021-08-13,清算の結了等,,,2015-10-05,1,,,,,,0
1402,6010005010475,登記記録の閉鎖等,0,2021-08-16,2021-08-02,特定非営利活動法人ポジティブプラネットジャパン,,その他の設立登記法人,東京都,港区,虎ノ門３丁目１８－１２ステュディオ虎ノ門７０５,,13,103,1050001,,,2021-08-02,清算の結了等,,,2015-10-05,1,,,,,ポジティブプラネットジャパン,0
1403,6010005026760,登記記録の閉鎖等,0,2021-08-16,2021-08-03,一般社団法人海鳳社,,その他の設立登記法人,東京都,中央区,明石町１１番１５号,,13,102,1040044,,,2021-08-03,清算の結了等,,,2017-04-24,1,,,,,カイホウシャ,0
1452,6012301005968,登記記録の閉鎖等,0,2021-08-16,2021-08-05,株式会社ドリームライフ,,株式会社,神奈川県,相模原市緑区,町屋４丁目２２番５０号,,14,151,2520101,,,2021-08-05,清算の結了等,,,2015-10-05,1,,,,,ドリームライフ,0
1459,6013101006396,登記記録の閉鎖等,0,2021-08-16,2021-08-10,株式会社ＡＣＴ,,株式会社,東京都,福生市,加美平４丁目１番地加美平住宅２２－３０９,,13,218,1970012,,,2021-08-10,清算の結了等,,,2015-10-05,1,,,,,,0
1480,6021003000046,登記記録の閉鎖等,0,2021-08-16,2021-08-06,合資会社魚秀,,合資会社,神奈川県,藤沢市,辻堂１丁目１番１４号,,14,205,2510047,,,2021-08-06,清算の結了等,,,2015-10-05,1,,,,,ウオヒデ,0
1492,6040002046610,登記記録の閉鎖等,0,2021-08-16,2021-08-03,有限会社鈴木商店,,有限会社,千葉県,松戸市,紙敷１２３４番地,,12,207,2702221,,,2021-08-03,清算の結了等,,,2019-12-03,1,,,,,スズキショウテン,0
1507,6080002011651,登記記録の閉鎖等,0,2021-08-16,2021-08-12,和栄住設有限会社,,有限会社,静岡県,静岡市清水区,上２丁目７番３号,,22,103,4240827,,,2021-08-12,清算の結了等,,,2015-10-05,1,,,,,ワエイジュウセツ,0
1509,6080102010207,登記記録の閉鎖等,0,2021-08-16,2021-08-12,有限会社小林製作所,,有限会社,静岡県,三島市,川原ケ谷２２７番地,,22,206,4110022,,,2021-08-12,清算の結了等,,,2015-10-05,1,,,,,コバヤシセイサクショ,0
1510,6100005002323,登記記録の閉鎖等,0,2021-08-16,2021-08-06,特定非営利活動法人長野県介護支援専門員協会,,その他の設立登記法人,長野県,長野市,大字中御所字岡田９８－１長野保健福祉事務所庁舎,,20,201,3800935,,,2021-08-06,清算の結了等,,,2015-10-05,1,,,,,ナガノケンカイゴシエンセンモンインキョウカイ,0
1511,6110001018891,登記記録の閉鎖等,0,2021-08-16,2021-08-10,太田建設産業株式会社,,株式会社,新潟県,上越市,南城町４丁目３番２１号,,15,222,9430837,,,2021-08-10,清算の結了等,,,2015-10-05,1,,,,,オオタケンセツサンギョウ,0
1518,6120001019889,登記記録の閉鎖等,0,2021-08-16,2021-08-04,加美産業機器株式会社,,株式会社,大阪府,大阪市平野区,加美西１丁目１０番１２－５０１号,,27,126,5470005,,,2021-08-04,清算の結了等,,,2015-10-05,1,,,,,カミサンギョウキキ,0
1519,6120001080949,登記記録の閉鎖等,0,2021-08-16,2021-08-04,株式会社志機,,株式会社,大阪府,大阪市中央区,玉造１丁目２０番３号,,27,128,5400004,,,2021-08-04,清算の結了等,,,2015-10-05,1,,,,,シキ,0
1521,6120001118113,登記記録の閉鎖等,0,2021-08-16,2021-07-19,株式会社相続手続センター,,株式会社,福岡県,福岡市博多区,博多駅前２丁目２番１号福岡センタービル,,40,132,8120011,,,2021-07-19,清算の結了等,,,2015-10-05,1,,,,,ソウゾクテツヅキセンター,0
1532,6120101028154,登記記録の閉鎖等,0,2021-08-16,2021-08-11,株式会社ベストビズシステム,,株式会社,大阪府,堺市南区,庭代台１丁１４番４号,,27,145,5900133,,,2021-08-11,清算の結了等,,,2015-10-05,1,,,,,ベストビズシステム,0
1540,6120902009187,登記記録の閉鎖等,0,2021-08-16,2021-08-11,有限会社前田酒店,,有限会社,大阪府,摂津市,正雀本町１丁目３４番３号,,27,224,5660024,,,2021-08-11,清算の結了等,,,2015-10-05,1,,,,,マエダサケテン,0
1553,6140001076326,登記記録の閉鎖等,0,2021-08-16,2021-08-11,竹内電気株式会社,,株式会社,兵庫県,加西市,上道山町３４番地の３、３５番地の３,,28,220,6752453,,,2021-08-11,清算の結了等,,,2015-10-05,1,,,,,タケウチデンキ,0
1562,6180001125021,登記記録の閉鎖等,0,2021-08-16,2021-08-04,株式会社アバンセホールディングス,,株式会社,愛知県,一宮市,中町１丁目８番２６号,,23,203,4910913,,,2021-08-04,合併による解散等,2180001082002,令和３年８月１日愛知県一宮市中町一丁目８番２６号株式会社アバンセコーポレーション（2180001082002）に合併し解散,2016-10-26,1,,,,,アバンセホールディングス,0
1570,6180301020839,登記記録の閉鎖等,0,2021-08-16,2021-08-12,株式会社ハセガワキカイ,,株式会社,愛知県,豊田市,鴛鴨町中高根１４９番地５,,23,211,4701207,,,2021-08-12,清算の結了等,,,2015-10-05,1,,,,,ハセガワキカイ,0
1574,6180305000952,登記記録の閉鎖等,0,2021-08-16,2021-08-11,農事組合法人菱池施設園芸組合,,その他の設立登記法人,愛知県,額田郡幸田町,大字須美字元屋敷６４番地,,23,501,4440127,,,2021-08-11,清算の結了等,,,2015-10-05,1,,,,,ヒシイケシセツエンゲイクミアイ,0
1580,6200002016943,登記記録の閉鎖等,0,2021-08-16,2021-08-12,有限会社河合工作所,,有限会社,岐阜県,可児市,下恵土５７９８番地の８,,21,214,5090203,,,2021-08-12,清算の結了等,,,2015-10-05,1,,,,,カワイコウサクショ,0
1583,6210001014807,登記記録の閉鎖等,0,2021-08-16,2021-08-11,株式会社ビプロス,,株式会社,福井県,坂井市,丸岡町新間第７号１５番地１,,18,210,9100352,,,2021-08-11,清算の結了等,,,2015-10-05,1,,,,,ビプロス,0
1597,6280002009246,登記記録の閉鎖等,0,2021-08-16,2021-08-12,電研商事有限会社,,有限会社,島根県,江津市,江津町９２０番地１,,32,207,6950011,,,2021-08-12,清算の結了等,,,2015-10-05,1,,,,,デンケンショウジ,0
1612,6320001010349,登記記録の閉鎖等,0,2021-08-16,2021-08-12,地方卸売市場株式会社玖珠青果,00096714,株式会社,大分県,玖珠郡玖珠町,大字帆足３７１番地,,44,462,8794403,,,2021-08-12,清算の結了等,,,2015-10-05,1,,,,,チホウオロシウリイチバクスセイカ,0
1703,7010702009934,登記記録の閉鎖等,0,2021-08-16,2021-08-11,有限会社サンビジネス,,有限会社,東京都,品川区,上大崎４丁目３番７号,,13,109,1410021,,,2021-08-11,清算の結了等,,,2015-10-05,1,,,,,サンビジネス,0
1713,7010901037521,登記記録の閉鎖等,0,2021-08-16,2021-08-02,ＢＬ建設株式会社,,株式会社,大阪府,大阪市北区,堂島２丁目４番２７号,,27,127,5300003,,,2021-08-02,合併による解散等,3010901027922,令和３年８月１日大阪市北区堂島二丁目４番２７号ＢＬ株式会社（3010901027922）に合併し解散,2016-02-03,1,,,,,ビーエルケンセツ,0
1715,7011001110714,登記記録の閉鎖等,0,2021-08-16,2021-08-11,株式会社トリオビービーサービス,,株式会社,東京都,品川区,豊町５丁目７番８号,,13,109,1420042,,,2021-08-11,清算の結了等,,,2016-05-09,1,,,,,トリオビービーサービス,0
1724,7011101079783,登記記録の閉鎖等,0,2021-08-16,2021-08-04,プラットフォーム株式会社,,株式会社,東京都,中野区,中野４丁目１－１中野サンプラザ９Ｆ,,13,114,1640001,,,2021-08-04,清算の結了等,,,2017-03-06,1,,,,,プラットフォーム,0
1741,7011802030268,登記記録の閉鎖等,0,2021-08-16,2021-08-02,有限会社ベルエンジニアリング,,有限会社,埼玉県,川口市,西川口４丁目１５番６号,,11,203,3320021,,,2021-08-02,清算の結了等,,,2015-10-05,1,,,,,ベルエンジニアリング,0
1743,7013102000546,登記記録の閉鎖等,0,2021-08-16,2021-08-06,有限会社辻製作所,00059721,有限会社,東京都,あきる野市,平沢東１丁目８番２７号,,13,228,1970813,,,2021-08-06,清算の結了等,,,2015-10-05,1,,,,,,0
1749,7020001060852,登記記録の閉鎖等,0,2021-08-16,2021-08-06,株式会社ワイズ,,株式会社,神奈川県,横浜市磯子区,岡村５丁目１６－６クレフォート磯子Ｄ１０１号,,14,107,2350021,,,2021-08-06,清算の結了等,,,2015-10-05,1,,,,,ワイズ,0
1758,7020002035267,登記記録の閉鎖等,0,2021-08-16,2021-08-04,有限会社ハート技研,,有限会社,神奈川県,横浜市港北区,新吉田町１１５番地,,14,109,2230056,,,2021-08-04,清算の結了等,,,2015-10-05,1,,,,,ハートギケン,0
1789,7060003002659,登記記録の閉鎖等,0,2021-08-16,2021-08-04,ＬＶ．ＴＡＮ合同会社,,合同会社,栃木県,宇都宮市,簗瀬町２２７０番地,,09,201,3210933,,,2021-08-04,清算の結了等,,,2017-09-08,1,,,,,エルヴィタン,0
1797,7110001009080,登記記録の閉鎖等,0,2021-08-16,2021-08-11,株式会社テクサ,,株式会社,新潟県,新潟市西蒲区,越前浜字浜手６９８５番地２,,15,108,9530012,,,2021-08-11,合併による解散等,8110001008288,令和３年７月３１日新潟県新潟市西蒲区越前浜字浜手６９８５番地２株式会社テクノクラフト（8110001008288）に合併し解散,2015-10-05,1,,,,,テクサ,0
1798,7110001018701,登記記録の閉鎖等,0,2021-08-16,2021-08-06,株式会社ナカヤマメタル,,株式会社,新潟県,燕市,杣木１９６１番地１０,,15,213,9591284,,,2021-08-06,清算の結了等,,,2015-10-05,1,,,,,ナカヤマメタル,0
1800,7110001034442,登記記録の閉鎖等,0,2021-08-16,2021-08-10,株式会社セカンドコーポレーション,,株式会社,新潟県,新潟市北区,新崎５０４６番地１,,15,101,9503134,,,2021-08-10,清算の結了等,,,2019-11-19,1,,,,,セカンドコーポレーション,0
1810,7120001216931,登記記録の閉鎖等,0,2021-08-16,2021-08-02,ＢＬ株式会社,,株式会社,大阪府,大阪市北区,堂島２丁目４番２７号,,27,127,5300003,,,2021-08-02,合併による解散等,3010901027922,令和３年８月１日大阪市北区堂島二丁目４番２７号ＢＬ株式会社（3010901027922）に合併し解散,2018-11-06,1,,,,,ビーエル,0
1833,7140001100885,登記記録の閉鎖等,0,2021-08-16,2021-08-02,株式会社ＢＬ設計事務所,,株式会社,大阪府,大阪市北区,堂島２丁目４番２７号,,27,127,5300003,,,2021-08-02,合併による解散等,3010901027922,令和３年８月１日大阪市北区堂島二丁目４番２７号ＢＬ株式会社（3010901027922）に合併し解散,2016-02-03,1,,,,,ビーエルセッケイジムショ,0
1841,7170003001567,登記記録の閉鎖等,0,2021-08-16,2021-08-12,合同会社グランド,,合同会社,和歌山県,海草郡紀美野町,下佐々４６３番地１,,30,304,6401121,,,2021-08-12,清算の結了等,,,2021-04-13,1,,,,,グランド,0
1853,7190001008934,登記記録の閉鎖等,0,2021-08-16,2021-08-13,コーエード石油株式会社,,株式会社,三重県,伊賀市,野村４４番地の３,,24,216,5191405,,,2021-08-13,清算の結了等,,,2015-10-05,1,,,,,コーエードセキユ,0
1863,7240001006610,登記記録の閉鎖等,0,2021-08-16,2021-08-06,中国共和メンテナンス株式会社,,株式会社,広島県,広島市中区,東千田町２丁目９番５７号広電タワービル２階,,34,101,7300053,,,2021-08-06,合併による解散等,2010701002696,令和３年８月１日東京都品川区西五反田七丁目２５番１９号共和メンテナンス株式会社（2010701002696）に合併し解散,2015-10-05,1,,,,,チュウゴクキョウワメンテナンス,0
1865,7250001008069,登記記録の閉鎖等,0,2021-08-16,2021-08-10,株式会社萩浜崎卸売市場,,株式会社,山口県,萩市,大字東浜崎町１３７番地,,35,204,7580024,,,2021-08-10,清算の結了等,,,2015-10-05,1,,,,,ハギハマサキオロシウリイチバ,0
1885,7340002014643,登記記録の閉鎖等,0,2021-08-16,2021-08-03,有限会社共立土木,,有限会社,鹿児島県,伊佐市,大口堂崎５６２番地１６,,46,224,8952524,,,2021-08-03,清算の結了等,,,2015-10-05,1,,,,,キョウリツドボク,0
1886,7340002027950,登記記録の閉鎖等,0,2021-08-16,2021-08-04,有限会社原機工,,有限会社,鹿児島県,志布志市,志布志町志布志３丁目４番１４号,,46,221,8997103,,,2021-08-04,清算の結了等,,,2015-10-05,1,,,,,,0
1890,7350002007976,登記記録の閉鎖等,0,2021-08-16,2021-08-10,有限会社プラドフーズ,,有限会社,宮崎県,宮崎市,恒久４丁目２番地９,,45,201,8800913,,,2021-08-10,清算の結了等,,,2015-10-05,1,,,,,プラドフーズ,0
1893,7360001018998,登記記録の閉鎖等,0,2021-08-16,2021-08-05,株式会社クロスランゲージ沖縄,,株式会社,沖縄県,那覇市,字安謝６６４－５,,47,201,9000003,,,2021-08-05,合併による解散等,6010001128759,令和３年８月１日東京都千代田区紀尾井町３番６号株式会社クロスランゲージ（6010001128759）に合併し解散,2015-10-05,1,,,,,クロスランゲージオキナワ,0
1898,7370801000080,登記記録の閉鎖等,0,2021-08-16,2021-08-02,株式会社クリハラ,,株式会社,宮城県,名取市,飯野坂２丁目６番１５号,,04,207,9811225,,,2021-08-02,清算の結了等,,,2015-10-05,1,,,,,クリハラ,0
1905,7420001016731,登記記録の閉鎖等,0,2021-08-16,2021-08-04,株式会社山正,,株式会社,青森県,三沢市,平畑２丁目１番８２号,,02,207,0330012,,,2021-08-04,清算の結了等,,,2019-09-25,1,,,,,ヤマショウ,0
1921,7460302005347,登記記録の閉鎖等,0,2021-08-16,2021-08-13,有限会社モリモト,,有限会社,北海道,斜里郡清里町,字向陽１９３番地,,01,546,0994403,,,2021-08-13,清算の結了等,,,2015-10-05,1,,,,,,0
1922,7470001006075,登記記録の閉鎖等,0,2021-08-16,2021-08-11,株式会社緑建,,株式会社,香川県,高松市,伏石町２１０３番地３,,37,201,7618071,,,2021-08-11,清算の結了等,,,2015-10-05,1,,,,,リョクケン,0
1925,7490002006262,登記記録の閉鎖等,0,2021-08-16,2021-08-13,有限会社田嶋工業,,有限会社,高知県,高知市,朝倉己１１６３－２８,,39,201,7808066,,,2021-08-13,清算の結了等,,,2015-10-05,1,,,,,タシマコウギョウ,0
1928,7500002022118,登記記録の閉鎖等,0,2021-08-16,2021-08-10,有限会社ペンギン実業,,有限会社,愛媛県,四国中央市,中之庄町４６４番地１,,38,213,7990422,,,2021-08-10,合併による解散等,3500001014318,令和３年８月１日愛媛県四国中央市中之庄町４６４番地１四国観光株式会社（3500001014318）に合併し解散,2015-10-05,1,,,,,ペンギンジツギョウ,0
1973,8010703002672,登記記録の閉鎖等,0,2021-08-16,2021-07-20,合同会社エフティーケー,,合同会社,東京都,品川区,西五反田５丁目６－３６,,13,109,1410031,,,2021-07-20,清算の結了等,,,2015-10-05,1,,,,,エフティーケー,0
1992,8011105008580,登記記録の閉鎖等,0,2021-08-16,2021-07-28,一般社団法人日本国際ハラール協会,,その他の設立登記法人,東京都,新宿区,四谷１丁目１０番２号,,13,104,1600004,,,2021-07-28,清算の結了等,,,2018-11-14,1,,,,,ニホンコクサイハラールキョウカイ,0
2011,8012402012531,登記記録の閉鎖等,0,2021-08-16,2021-08-10,有限会社マクロス・トレーディング,,有限会社,東京都,府中市,是政３丁目１５番地５,,13,206,1830014,,,2021-08-10,清算の結了等,,,2015-10-05,1,,,,,マクロストレーディング,0
2022,8020001008479,登記記録の閉鎖等,0,2021-08-16,2021-08-05,株式会社キャン・アソシエイツ,,株式会社,神奈川県,横浜市都筑区,茅ケ崎南４丁目１番７号,,14,118,2240037,,,2021-08-05,清算の結了等,,,2015-10-05,1,,,,,キャンアソシエイツ,0
2028,8020002056601,登記記録の閉鎖等,0,2021-08-16,2021-08-10,有限会社おひさま薬局,,有限会社,神奈川県,横浜市都筑区,中川１丁目１５番８号,,14,118,2240001,,,2021-08-10,合併による解散等,6010801028407,令和３年８月１日東京都大田区上池台一丁目１１番７号株式会社ファルマステップ（6010801028407）に合併し解散,2015-10-05,1,,,,,オヒサマヤッキョク,0
2032,8020005010712,登記記録の閉鎖等,0,2021-08-16,2021-07-12,税理士法人ＫＯＴＡＫＡ,,その他の設立登記法人,神奈川県,川崎市川崎区,砂子１丁目２番地４川崎砂子ビルディング６階,,14,131,2100006,,,2021-07-12,合併による解散等,3010005022928,令和３年７月１日東京都港区南青山一丁目１番１号新青山ビル西館１０階税理士法人ＴＯＭＯ（3010005022928）に合併し解散,2015-10-05,1,,,,,,0
2045,8030002026735,登記記録の閉鎖等,0,2021-08-16,2021-08-03,有限会社エース工芸,,有限会社,埼玉県,戸田市,美女木６丁目１３番地７,,11,224,3350031,,,2021-08-03,清算の結了等,,,2015-10-05,1,,,,,エースコウゲイ,0
2055,8040002086984,登記記録の閉鎖等,0,2021-08-16,2021-07-30,太陽興産有限会社,,有限会社,千葉県,香取市,佐原ロ２１２２番地９０,,12,236,2870001,,,2021-07-30,清算の結了等,,,2015-10-05,1,,,,,タイヨウコウサン,0
2059,8050001038663,登記記録の閉鎖等,0,2021-08-16,2021-08-06,株式会社ケイズファクトリー,,株式会社,茨城県,石岡市,東石岡１丁目９番１５号,,08,205,3150037,,,2021-08-06,清算の結了等,,,2015-10-05,1,,,,,ケイズファクトリー,0
2072,8080402010672,登記記録の閉鎖等,0,2021-08-16,2021-08-16,有限会社たつみ技建,,有限会社,静岡県,浜松市東区,有玉台２丁目３５番１７号,,22,132,4313126,,,2021-08-16,清算の結了等,,,2015-10-05,1,,,,,,0
2075,8110001009996,登記記録の閉鎖等,0,2021-08-16,2021-08-11,株式会社クラウドデザイン,,株式会社,新潟県,新潟市中央区,明石１丁目６番６号木山１７明石ビル５階,,15,103,9500084,,,2021-08-11,合併による解散等,8110001008288,令和３年７月３１日新潟県新潟市西蒲区越前浜字浜手６９８５番地２株式会社テクノクラフト（8110001008288）に合併し解散,2015-10-05,1,,,,,クラウドデザイン,0
2079,8120001075939,登記記録の閉鎖等,0,2021-08-16,2021-08-04,株式会社エムネット,,株式会社,大阪府,寝屋川市,幸町１３番１２号,,27,215,5720017,,,2021-08-04,清算の結了等,,,2015-10-05,1,,,,,エムネット,0
2084,8120001205867,登記記録の閉鎖等,0,2021-08-16,2021-08-06,総本家とらや株式会社,,株式会社,大阪府,大阪市西区,九条南４丁目２－１２,,27,106,5500025,,,2021-08-06,清算の結了等,,,2017-05-24,1,,,,,ソウホンケトラヤ,0
2087,8120002024878,登記記録の閉鎖等,0,2021-08-16,2021-08-11,有限会社協同工業,,有限会社,大阪府,摂津市,西一津屋３番１８号,,27,224,5660044,,,2021-08-11,清算の結了等,,,2015-10-05,1,,,,,キョウドウコウギョウ,0
2112,8140003010710,登記記録の閉鎖等,0,2021-08-16,2021-08-10,合同会社ＧＭＳ,,合同会社,兵庫県,神戸市須磨区,東白川台３丁目２番地の１４,,28,107,6540102,,,2021-08-10,清算の結了等,,,2015-10-05,1,,,,,ジーエムエス,0
2114,8150001024265,登記記録の閉鎖等,0,2021-08-16,2021-08-11,中利産業株式会社,,株式会社,奈良県,桜井市,大字狛２３６番地,,29,206,6330012,,,2021-08-11,清算の結了等,,,2020-12-21,1,,,,,ナカリサンギョウ,0
2133,8240002040640,登記記録の閉鎖等,0,2021-08-16,2021-08-02,有限会社小畠インコーポレーション,,有限会社,広島県,福山市,松浜町４丁目５番３９号,,34,207,7200802,,,2021-08-02,清算の結了等,,,2015-10-05,1,,,,,コバタケインコーポレーション,0
2154,8290801018295,登記記録の閉鎖等,0,2021-08-16,2021-08-02,株式会社フレッシュウェイ,,株式会社,福岡県,北九州市八幡西区,紅梅３丁目２番２６－６０８号,,40,109,8060011,,,2021-08-02,清算の結了等,,,2015-10-05,1,,,,,フレシュウエイ,0
2179,8420002007191,登記記録の閉鎖等,0,2021-08-16,2021-08-05,有限会社斎藤工業,,有限会社,青森県,八戸市,大字田面木字神明沢１３番地１１,,02,203,0391104,,,2021-08-05,清算の結了等,,,2015-10-05,1,,,,,サイトウコウギョウ,0
2188,8430002065585,登記記録の閉鎖等,0,2021-08-16,2021-08-02,有限会社藤村工業,,有限会社,北海道,登別市,美園町２丁目４番４号,,01,230,0590036,,,2021-08-02,清算の結了等,,,2015-10-05,1,,,,,フジムラコウギョウ,0
2194,8470001001661,登記記録の閉鎖等,0,2021-08-16,2021-08-11,ティ・エス株式会社,,株式会社,香川県,高松市,南新町１１番地１,,37,201,7600051,,,2021-08-11,清算の結了等,,,2015-10-05,1,,,,,ティエス,0
2198,9010001012266,登記記録の閉鎖等,0,2021-08-16,2021-08-03,株式会社メディア＆リサーチ,,株式会社,東京都,中央区,日本橋浜町１丁目１２番９号,,13,102,1030007,,,2021-08-03,清算の結了等,,,2015-10-05,1,,,,,メディアアンドリサーチ,0
2204,9010003030472,登記記録の閉鎖等,0,2021-08-16,2021-08-05,合同会社東京キングダム,,合同会社,東京都,中央区,新川１丁目１７番１８号,,13,102,1040033,,,2021-08-05,清算の結了等,,,2019-08-23,1,,,,,トウキョウキングダム,0
2231,9010901043872,登記記録の閉鎖等,0,2021-08-16,2021-08-10,株式会社ＫＫＪ,,株式会社,東京都,世田谷区,上北沢１丁目５番１６号,,13,112,1560057,,,2021-08-10,清算の結了等,,,2019-03-26,1,,,,,ケーケージェイ,0
2250,9011302016542,登記記録の閉鎖等,0,2021-08-16,2021-08-13,有限会社東京ワンダフル,,有限会社,東京都,小平市,花小金井４丁目３０番２号,,13,211,1870002,,,2021-08-13,清算の結了等,,,2015-10-05,1,,,,,トウキョウワンダフル,0
2257,9011803002454,登記記録の閉鎖等,0,2021-08-16,2021-08-13,クラップアンドクラック合同会社,,合同会社,東京都,足立区,中央本町５丁目２番１３－７０１号,,13,121,1210011,,,2021-08-13,清算の結了等,,,2016-05-11,1,,,,,,0
2266,9020001074388,登記記録の閉鎖等,0,2021-08-16,2021-08-05,フジクスマスターズ株式会社,,株式会社,神奈川県,川崎市川崎区,貝塚１丁目８番２号,,14,131,2100014,,,2021-08-05,清算の結了等,,,2015-10-05,1,,,,,フジクスマスターズ,0
2283,9021001036675,登記記録の閉鎖等,0,2021-08-16,2021-08-02,湘南東京ホールセール株式会社,,株式会社,神奈川県,平塚市,東八幡４丁目１４番８号,,14,203,2540016,,,2021-08-02,清算の結了等,,,2015-10-05,1,,,,,ショウナントウキョウホールセール,0
2288,9021002021148,登記記録の閉鎖等,0,2021-08-16,2021-08-05,有限会社下原不動産,,有限会社,神奈川県,相模原市中央区,相模原１丁目７番４号,,14,152,2520231,,,2021-08-05,清算の結了等,,,2015-10-05,1,,,,,シモハラフドウサン,0
2298,9030001113302,登記記録の閉鎖等,0,2021-08-16,2021-08-02,恒宝株式会社,,株式会社,埼玉県,さいたま市南区,辻１丁目６番１１号,00119068,11,108,3360026,,,2021-08-02,清算の結了等,,,2016-03-17,1,,,,,コウホウ,0
2306,9050002002881,登記記録の閉鎖等,0,2021-08-16,2021-08-10,有限会社ヘアースタジオ・グラーヴ,,有限会社,茨城県,水戸市,見川２丁目３０６５番地５,,08,201,3100912,,,2021-08-10,清算の結了等,,,2015-10-05,1,,,,,,0
2316,9080102003331,登記記録の閉鎖等,0,2021-08-16,2021-08-11,有限会社不動産仲介センター,,有限会社,静岡県,沼津市,大手町３丁目２番２２号,,22,203,4100801,,,2021-08-11,清算の結了等,,,2015-10-05,1,,,,,フドウサンチュウカイセンター,0
2363,9150005008131,登記記録の閉鎖等,0,2021-08-16,2021-08-11,特定非営利活動法人ならゆうし,,その他の設立登記法人,奈良県,奈良市,西木辻町１０８－１,00044127,29,201,6308325,,,2021-08-11,清算の結了等,,,2015-10-05,1,,,,,ナラユウシ,0
2368,9180001112958,登記記録の閉鎖等,0,2021-08-16,2021-08-11,ＫＹＯＵＥＩプランニング株式会社,,株式会社,愛知県,大府市,追分町４丁目４９番地の５２,,23,223,4740027,,,2021-08-11,清算の結了等,,,2015-10-05,1,,,,,キョウエイプランニング,0
2404,9290002007659,登記記録の閉鎖等,0,2021-08-16,2021-07-19,有限会社ウエスト商事,,有限会社,福岡県,福岡市早良区,原３丁目１８番１５号,,40,137,8140022,,,2021-07-19,清算の結了等,,,2015-10-05,1,,,,,ウエストショウジ,0
2408,9320005001812,登記記録の閉鎖等,0,2021-08-16,2021-08-11,特定非営利活動法人緑の工房ななぐらす,,その他の設立登記法人,大分県,大分市,御幸町１６組の１,,44,201,8700100,,,2021-08-11,清算の結了等,,,2015-10-05,1,,,,,ミドリノコウボウナナグラス,0
2410,9330002015153,登記記録の閉鎖等,0,2021-08-16,2021-08-11,有限会社イワサキコーポレーション,,有限会社,熊本県,熊本市北区,清水新地３丁目５番９０号,,43,105,8618075,,,2021-08-11,清算の結了等,,,2015-10-05,1,,,,,イワサキコーポレーション,0
2425,9370001005886,登記記録の閉鎖等,0,2021-08-16,2021-08-03,林不動産株式会社,,株式会社,宮城県,仙台市青葉区,五橋１丁目４番２０－４０１号,,04,101,9800022,,,2021-08-03,清算の結了等,,,2015-10-05,1,,,,,ハヤシフドウサン,0
2427,9370002006710,登記記録の閉鎖等,0,2021-08-16,2021-08-02,有限会社泉商運,,有限会社,宮城県,仙台市宮城野区,原町１丁目２番１号,,04,102,9830841,,,2021-08-02,清算の結了等,,,2015-10-05,1,,,,,,0
2431,9380002001454,登記記録の閉鎖等,0,2021-08-16,2021-08-10,有限会社桜井誠商会,,有限会社,福島県,福島市,豊田町３番３号,,07,201,9608104,,,2021-08-10,清算の結了等,,,2015-10-05,1,,,,,サクライマコトショウカイ,0
2441,9420002013214,登記記録の閉鎖等,0,2021-08-16,2021-08-05,株式会社興栄,,株式会社,青森県,八戸市,根城５丁目１４番２４号,,02,203,0391166,,,2021-08-05,清算の結了等,,,2015-10-05,1,,,,,コウエイ,0
