sequenceNumber,corporateNumber,process,correct,updateDate,changeDate,name,nameImageId,kind,prefectureName,cityName,streetNumber,addressImageId,prefectureCode,cityCode,postCode,addressOutside,addressOutsideImageId,closeDate,closeCause,successorCorporateNumber,changeCause,assignmentDate,latest,enName,enPrefectureName,enCityName,enAddressOutside,furigana,hihyoji
6,1010001225684,新規,0,2022-04-18,2022-04-18,株式会社ＫＰＳプロダクツ,,株式会社,東京都,文京区,目白台３丁目２９番１８号,,13,105,1120015,,,,,,,2022-04-18,1,,,,,ケーピーエスプロダクツ,0
7,1010001225791,新規,0,2022-04-18,2022-04-18,株式会社アールイーウィズ,,株式会社,東京都,千代田区,内幸町１丁目３番１号,,13,101,1000011,,,,,,,2022-04-18,1,,,,,アールイーウィズ,0
8,1010001225825,新規,0,2022-04-18,2022-04-18,株式会社Ａｋａｈｉｇｅ,,株式会社,東京都,千代田区,丸の内３丁目１－１国際ビル,,13,101,1000005,,,,,,,2022-04-18,1,,,,,アカヒゲ,0
10,1010003037509,新規,0,2022-04-18,2022-04-18,合同会社ＪＲＰＦ亀有,,合同会社,東京都,千代田区,丸の内３丁目１番１号東京共同会計事務所内,,13,101,1000005,,,,,,,2022-04-18,1,,,,,ジェイアールピーエフカメアリ,0
16,1010005034909,新規,0,2022-04-18,2022-04-18,一般社団法人東銀座エリアマネジメント,,その他の設立登記法人,東京都,中央区,築地４丁目１番１号,,13,102,1040045,,,,,,,2022-04-18,1,,,,,ヒガシギンザエリアマネジメント,0
25,1010401166801,新規,0,2022-04-18,2022-04-18,株式会社プレマフーズ,,株式会社,東京都,港区,麻布十番１丁目４番８号マドモアゼルビル６０１号室,,13,103,1060045,,,,,,,2022-04-18,1,,,,,プレマフーズ,0
26,1010401166850,新規,0,2022-04-18,2022-04-18,株式会社速筆サイン,,株式会社,東京都,港区,東麻布１丁目２８－６ベルファース東麻布テラス１００１,,13,103,1060044,,,,,,,2022-04-18,1,,,,,ソクヒツサイン,0
36,1010601061001,新規,0,2022-04-18,2022-04-18,ＮＵＳＫＡ株式会社,,株式会社,東京都,墨田区,緑１丁目２２番８号,,13,107,1300021,,,,,,,2022-04-18,1,,,,,ヌスカ,0
57,1011001146870,新規,0,2022-04-18,2022-04-18,株式会社Ｊ・フィールド,,株式会社,東京都,目黒区,下目黒６丁目１６番１３号,,13,110,1530064,,,,,,,2022-04-18,1,,,,,ジェイフィールド,0
58,1011001146920,新規,0,2022-04-18,2022-04-18,株式会社Ｒｅｎｅｗ,,株式会社,東京都,渋谷区,道玄坂１丁目１０番８号渋谷道玄坂東急ビル２Ｆ－Ｃ,,13,113,1500043,,,,,,,2022-04-18,1,,,,,リニュー,0
59,1011001147019,新規,0,2022-04-18,2022-04-18,株式会社エムアンドエム市場研究所,,株式会社,東京都,目黒区,鷹番１丁目８番１７号シーダーズフォレスト３０５,,13,110,1520004,,,,,,,2022-04-18,1,,,,,エムアンドエムシジョウケンキュウジョ,0
60,1011003014530,新規,0,2022-04-18,2022-04-18,つないで合同会社,,合同会社,東京都,渋谷区,代官山町８番７号,,13,113,1500034,,,,,,,2022-04-18,1,,,,,ツナイデ,0
69,1011603003577,新規,0,2022-04-18,2022-04-18,日建リフォーム合同会社,,合同会社,東京都,練馬区,谷原５丁目３－５－１０１,,13,120,1770032,,,,,,,2022-04-18,1,,,,,ニッケンリフォーム,0
70,1011805003169,新規,0,2022-04-18,2022-04-18,一般社団法人育縁,,その他の設立登記法人,東京都,葛飾区,亀有５丁目２７番１２－１００１号イニシア亀有,,13,122,1250061,,,,,,,2022-04-18,1,,,,,イクエン,0
104,1030001147745,新規,0,2022-04-18,2022-04-18,株式会社ＬＯＡＳ,,株式会社,埼玉県,川口市,大字木曽呂７９４番の４ハイムエーケン１０１,,11,203,3330831,,,,,,,2022-04-18,1,,,,,ロアス,0
108,1030003019216,新規,0,2022-04-18,2022-04-18,ＴＣコンサルティング合同会社,,合同会社,埼玉県,上尾市,上町２丁目５－３０レーベン上尾ＧＲＡＮＤＭＡＪＥＳＴＡ２０４,,11,219,3620037,,,,,,,2022-04-18,1,,,,,,0
109,1030003019240,新規,0,2022-04-18,2022-04-18,合同会社エヌエス,,合同会社,埼玉県,蕨市,中央３丁目１９番２０号ライオンズプラザ蕨シティー１３０１号,,11,223,3350004,,,,,,,2022-04-18,1,,,,,エヌエス,0
110,1030003019249,新規,0,2022-04-18,2022-04-18,合同会社マスビーコーポレーション,,合同会社,埼玉県,さいたま市見沼区,大字南中野４２４－１－１０５,,11,104,3370042,,,,,,,2022-04-18,1,,,,,マスビーコーポレーション,0
112,1030005020808,新規,0,2022-04-18,2022-04-18,一般社団法人あさひスポーツ・文化クラブ,,その他の設立登記法人,埼玉県,北本市,朝日２丁目２３８ワコーレＲＧ北本アネックス棟１０９,,11,233,3640011,,,,,,,2022-04-18,1,,,,,,0
113,1030005020824,新規,0,2022-04-18,2022-04-18,特定非営利活動法人ワンワンニャンニャンのびのびランド,,その他の設立登記法人,埼玉県,飯能市,大字川寺２５２番地１アクトヒルズ飯能４０５号,,11,209,3570044,,,,,,,2022-04-18,1,,,,,ワンワンニャンニャンノビノビランド,0
114,1030005020832,新規,0,2022-04-18,2022-04-18,医療法人翠鳳会,,その他の設立登記法人,埼玉県,さいたま市大宮区,桜木町１丁目３２５番地１アヴェニュー・ドゥ１０１号室,,11,103,3300854,,,,,,,2022-04-18,1,,,,,スイオウカイ,0
124,1040001123068,新規,0,2022-04-18,2022-04-18,関東通運株式会社,,株式会社,千葉県,木更津市,伊豆島１１２８－１,,12,206,2920034,,,,,,,2022-04-18,1,,,,,カントウツウウン,0
134,1040003019801,新規,0,2022-04-18,2022-04-18,合同会社Ｈａｌｅｏ．,,合同会社,千葉県,千葉市若葉区,都賀の台２丁目２１番２号,,12,104,2640033,,,,,,,2022-04-18,1,,,,,ハレオ,0
135,1040003019875,新規,0,2022-04-18,2022-04-18,ＡＴＣ合同会社,,合同会社,千葉県,柏市,塚崎１３１１番地３１,,12,217,2770923,,,,,,,2022-04-18,1,,,,,エーティーシー,0
147,1060003004041,新規,0,2022-04-18,2022-04-18,合同会社スタジオ,,合同会社,栃木県,小山市,大字飯塚２２３６,,09,208,3230017,,,,,,,2022-04-18,1,,,,,スタジオ,0
148,1060005009971,新規,0,2022-04-18,2022-04-18,栃木県不動産鑑定士協同組合,,その他の設立登記法人,栃木県,宇都宮市,峰１丁目１番２２号,,09,201,3210942,,,,,,,2022-04-18,1,,,,,トチギケンフドウサンカンテイシ,0
150,1070001039146,新規,0,2022-04-18,2022-04-18,株式会社ｃ．ｃｕｂｅｄ,,株式会社,群馬県,太田市,浜町５２番８号クリークビル２Ｗ,,10,205,3730853,,,,,,,2022-04-18,1,,,,,シーキューブ,0
158,1080105006248,新規,0,2022-04-18,2022-04-18,医療法人社団カナサ,,その他の設立登記法人,静岡県,三島市,文教町１丁目２番１４号いちょうＨＯＵＳＥ１号室,,22,206,4110033,,,,,,,2022-04-18,1,,,,,カナサ,0
169,1110005016797,新規,0,2022-04-18,2022-04-18,社会保険労務士法人コアブレイン,,その他の設立登記法人,新潟県,新潟市中央区,一丁目３７番７号,,15,103,9500000,,,,,,,2022-04-18,1,,,,,コアブレイン,0
176,1120001245234,新規,0,2022-04-18,2022-04-18,Ｉｎｓｗｏｏｄ株式会社,,株式会社,大阪府,大阪市西成区,潮路１丁目１番３号ＴＨＥＰＥＡＫＴＥＮＧＡＣＨＡＹＡ８０１,,27,122,5570052,,,,,,,2022-04-18,1,,,,,インスウッド,0
177,1120001245309,新規,0,2022-04-18,2022-04-18,株式会社オーク,,株式会社,大阪府,大阪市東淀川区,東中島１丁目１７番１５号ステュディオ新大阪９４３号,,27,114,5330033,,,,,,,2022-04-18,1,,,,,オーワ,0
178,1120001245358,新規,0,2022-04-18,2022-04-18,株式会社発越,,株式会社,大阪府,大阪市生野区,桃谷３丁目９番２３号,,27,116,5440034,,,,,,,2022-04-18,1,,,,,ハツエツ,0
184,1120101065409,新規,0,2022-04-18,2022-04-18,株式会社ＢＯＷＥＮ,,株式会社,大阪府,堺市中区,大野芝町３２５番地１,,27,142,5998233,,,,,,,2022-04-18,1,,,,,ボウエン,0
187,1120901045857,新規,0,2022-04-18,2022-04-18,株式会社Ｖａｍｏｓ,,株式会社,大阪府,高槻市,南平台４丁目３１－１１,,27,207,5691042,,,,,,,2022-04-18,1,,,,,バモス,0
195,1130003007879,新規,0,2022-04-18,2022-04-18,智慧合同会社,,合同会社,京都府,京都市上京区,多門町４４０－９,,26,102,6028261,,,,,,,2022-04-18,1,,,,,チエ,0
200,1140001125442,新規,0,2022-04-18,2022-04-18,株式会社華和利Ｍｏｎｏ,,株式会社,兵庫県,尼崎市,杭瀬本町１丁目２７番３号,,28,202,6600814,,,,,,,2022-04-18,1,,,,,カワリモノ,0
201,1140001125657,新規,0,2022-04-18,2022-04-18,ｗｉｌｄ　ｐｌｕｓ株式会社,,株式会社,兵庫県,明石市,茶園場町３番２－１０２号,,28,203,6730849,,,,,,,2022-04-18,1,,,,,ワイルドプラス,0
202,1140001125665,新規,0,2022-04-18,2022-04-18,株式会社竜胆,,株式会社,兵庫県,神戸市西区,井吹台東町１丁目３エリオ２号棟１８０２号,,28,111,6512242,,,,,,,2022-04-18,1,,,,,リンドウ,0
208,1140003017596,新規,0,2022-04-18,2022-04-18,アクレットフィールド合同会社,,合同会社,兵庫県,神戸市中央区,江戸町１０４江戸町１０４ビル,,28,110,6500033,,,,,,,2022-04-18,1,,,,,アクレットフィールド,0
211,1150001025468,新規,0,2022-04-18,2022-04-18,株式会社奈良明清,,株式会社,奈良県,奈良市,田原春日野町５２番地,,29,201,6302167,,,,,,,2022-04-18,1,,,,,ナラメイセイ,0
217,1170001017059,新規,0,2022-04-18,2022-04-18,株式会社紀泉,,株式会社,和歌山県,橋本市,隅田町山内１６８７番地の１,,30,203,6480003,,,,,,,2022-04-18,1,,,,,キセン,0
223,1180001150817,新規,0,2022-04-18,2022-04-18,株式会社ちゃんと,,株式会社,愛知県,春日井市,六軒屋町６丁目９２番地,,23,206,4860842,,,,,,,2022-04-18,1,,,,,チャント,0
224,1180001150841,新規,0,2022-04-18,2022-04-18,株式会社ＣＭＳ,,株式会社,愛知県,名古屋市西区,新木町３４番地,,23,104,4520836,,,,,,,2022-04-18,1,,,,,シーエムエス,0
225,1180001150899,新規,0,2022-04-18,2022-04-18,株式会社ラ・ポール,,株式会社,愛知県,名古屋市中区,松原２丁目２番３３号,,23,106,4600017,,,,,,,2022-04-18,1,,,,,ラポール,0
226,1180001150940,新規,0,2022-04-18,2022-04-18,株式会社不動産のいろは屋,,株式会社,愛知県,春日井市,上条町２丁目１６２番地,,23,206,4860833,,,,,,,2022-04-18,1,,,,,フドウサンノイロハヤ,0
232,1180003023731,新規,0,2022-04-18,2022-04-18,アイワークス合同会社,,合同会社,愛知県,名古屋市中区,千代田５丁目２２番１８号グランドメゾン鶴舞公園６０２号,,23,106,4600012,,,,,,,2022-04-18,1,,,,,アイワークス,0
233,1180005019744,新規,0,2022-04-18,2022-04-18,医療法人けやき通り歯科クリニック,,その他の設立登記法人,愛知県,稲沢市,国府宮町手枕１００番地１１７,,23,220,4928138,,,,,,,2022-04-18,1,,,,,ケヤキドオリシカクリニック,0
241,1200001039982,新規,0,2022-04-18,2022-04-18,株式会社ＳＯＬＡＴＥＲＡ　ｓｙｓｔｅｍ,,株式会社,岐阜県,各務原市,蘇原寺島町１丁目４１番地,,21,213,5040842,,,,,,,2022-04-18,1,,,,,ソラテラシステム,0
242,1200003005537,新規,0,2022-04-18,2022-04-18,Ａｉｉ‐ＧＡＭＥｓ合同会社,,合同会社,岐阜県,岐阜市,野一色２丁目５番１５号,,21,201,5008226,,,,,,,2022-04-18,1,,,,,アイーゲームズ,0
246,1210005010022,新規,0,2022-04-18,2022-04-18,医療法人すすき歯科クリニック,,その他の設立登記法人,福井県,福井市,西谷２丁目２１１０番地,,18,201,9188023,,,,,,,2022-04-18,1,,,,,ススキシカクリニック,0
255,1240001059630,新規,0,2022-04-18,2022-04-18,株式会社ＳＡＵＤＡＤＥ,,株式会社,広島県,広島市佐伯区,五日市４丁目４番３１号,,34,108,7315127,,,,,,,2022-04-18,1,,,,,サウダージ,0
256,1240001059639,新規,0,2022-04-18,2022-04-18,株式会社総住地所,,株式会社,広島県,広島市安佐北区,口田５丁目１３番５号,,34,106,7391734,,,,,,,2022-04-18,1,,,,,ソウジュウジショ,0
257,1240003005590,新規,0,2022-04-18,2022-04-18,合同会社寺田高田,,合同会社,広島県,広島市南区,丹那新町１番１３号,,34,103,7340033,,,,,,,2022-04-18,1,,,,,テラダタカダ,0
261,1260001036751,新規,0,2022-04-18,2022-04-18,株式会社ＢＵＺＺ,,株式会社,岡山県,岡山市南区,浦安南町５８６－１２,,33,104,7028024,,,,,,,2022-04-18,1,,,,,バズ,0
274,1290001097163,新規,0,2022-04-18,2022-04-18,株式会社Ａ＆Ａ,,株式会社,福岡県,福岡市中央区,舞鶴１丁目９番３－２０３号朝日プラザ天神,,40,133,8100073,,,,,,,2022-04-18,1,,,,,エイアンドエイ,0
275,1290001097213,新規,0,2022-04-18,2022-04-18,株式会社ｄｏｕｂｌｅＡｃｅ,,株式会社,福岡県,太宰府市,高雄４丁目１２番２号,,40,221,8180122,,,,,,,2022-04-18,1,,,,,ダブルエース,0
286,1360001030257,新規,0,2022-04-18,2022-04-18,株式会社チャンプリー,,株式会社,沖縄県,沖縄市,中央１丁目７番６号ＨＯＰＥビル２階,,47,211,9040004,,,,,,,2022-04-18,1,,,,,チャンプリー,0
287,1360001030265,新規,0,2022-04-18,2022-04-18,ＩＴ　ＷＯＲＫＳ株式会社,,株式会社,沖縄県,那覇市,銘苅２丁目３番６号那覇市ＩＴ創造館４０３号室,,47,201,9000004,,,,,,,2022-04-18,1,,,,,,0
301,1380005012571,新規,0,2022-04-18,2022-04-18,特定非営利活動法人原発災害情報センター,,その他の設立登記法人,福島県,白河市,影鬼越１番地３２,,07,205,9610886,,,,,,,2022-04-18,1,,,,,,0
305,1430001086432,新規,0,2022-04-18,2022-04-18,株式会社モアナラウレア,,株式会社,北海道,小樽市,塩谷２丁目４４番１８,,01,203,0482672,,,,,,,2022-04-18,1,,,,,モアナラウレア,0
306,1430001086440,新規,0,2022-04-18,2022-04-18,株式会社エムイーエル,,株式会社,北海道,札幌市南区,真駒内２５６番地５７,,01,106,0050861,,,,,,,2022-04-18,1,,,,,エムイーエル,0
307,1430001086449,新規,0,2022-04-18,2022-04-18,株式会社ツチヤ宅建,,株式会社,北海道,札幌市豊平区,豊平七条８丁目１番２３号,,01,105,0620907,,,,,,,2022-04-18,1,,,,,ツチヤタッケン,0
310,1430003013814,新規,0,2022-04-18,2022-04-18,白猫モモ合同会社,,合同会社,北海道,石狩市,本町５番地３,,01,235,0613375,,,,,,,2022-04-18,1,,,,,シロネコモモ,0
314,1460401001244,新規,0,2022-04-18,2022-04-18,高見牧場株式会社,00126300,株式会社,北海道,根室市,牧の内１７７番地１,,01,223,0870002,,,,,,,2022-04-18,1,,,,,タカミボクジョウ,0
316,1480001011708,新規,0,2022-04-18,2022-04-18,株式会社ネイチャーヒーリング,,株式会社,徳島県,名西郡神山町,神領字大埜地３５５番地１,,36,342,7713310,,,,,,,2022-04-18,1,,,,,ネイチャーヒーリング,0
319,1480003001822,新規,0,2022-04-18,2022-04-18,ＡＣＥ合同会社,,合同会社,徳島県,徳島市,川内町宮島錦野７０番地の１８,,36,201,7710116,,,,,,,2022-04-18,1,,,,,エース,0
323,1500001024153,新規,0,2022-04-18,2022-04-18,株式会社ｉｒｏｄｏｒｉ,,株式会社,愛媛県,松山市,鉄砲町７番地２７Ｍａｙｆａｉｒ鉄砲町Ｐｒｅｍｉｕｍテナント１階,,38,201,7900827,,,,,,,2022-04-18,1,,,,,イロドリ,0
324,1700150108100,新規,0,2022-04-18,2022-04-18,Ｒｏｓｅｂｕｄ　Ｅｄｕｃａｔｉｏｎａｌ　Ｆｏｕｎｄａｔｉｏｎ　Ｐｖｔ．Ｌｔｄ．,,外国会社等,東京都,八王子市,長沼町１３４番地３３４,,13,201,1920907,ネパール連邦民主共和国カトマンズ、バグバザールの２８区,,,,,,2022-04-18,1,,,,,ローズバツドエデユケーシヨナルフアウンデーシヨンプライベートリミテツド,0
339,2010001225683,新規,0,2022-04-18,2022-04-18,株式会社ＫＰＳフルフィルメント,,株式会社,東京都,文京区,音羽１丁目１７番１４号,,13,105,1120013,,,,,,,2022-04-18,1,,,,,ケーピーエスフルフィルメント,0
340,2010001225766,新規,0,2022-04-18,2022-04-18,株式会社トラスト,,株式会社,東京都,中央区,銀座１丁目２２－１１銀座大竹ビジデンス２階,,13,102,1040061,,,,,,,2022-04-18,1,,,,,トラスト,0
341,2010001225849,新規,0,2022-04-18,2022-04-18,ａｕエネルギーホールディングス株式会社,,株式会社,東京都,千代田区,飯田橋３丁目１０番１０号,,13,101,1020072,,,,,,,2022-04-18,1,,,,,エーユーエネルギーホールディングス,0
346,2010003037482,新規,0,2022-04-18,2022-04-18,スカイプロジェクト合同会社,,合同会社,東京都,中央区,銀座６丁目１３番９号ｂｉｚｃｕｂｅ,,13,102,1040061,,,,,,,2022-04-18,1,,,,,スカイプロジェクト,0
358,2010403027406,新規,0,2022-04-18,2022-04-18,ライフライス合同会社,,合同会社,東京都,港区,赤坂８丁目４番１４号青山タワープレイス８Ｆ,,13,103,1070052,,,,,,,2022-04-18,1,,,,,ライフライス,0
371,2010901050719,新規,0,2022-04-18,2022-04-18,株式会社シーマ,,株式会社,東京都,世田谷区,下馬４丁目８番９号,,13,112,1540002,,,,,,,2022-04-18,1,,,,,シーマ,0
381,2011001146911,新規,0,2022-04-18,2022-04-18,株式会社山下浩史事務所,,株式会社,東京都,渋谷区,広尾３丁目１番２２－４０１号,,13,113,1500012,,,,,,,2022-04-18,1,,,,,ヤマシタヒロフミジムショ,0
382,2011001146952,新規,0,2022-04-18,2022-04-18,株式会社Ｎａｍｏ,,株式会社,東京都,渋谷区,渋谷２丁目１９番１５号宮益坂ビルディング６０９,,13,113,1500002,,,,,,,2022-04-18,1,,,,,ナモ,0
384,2011003014570,新規,0,2022-04-18,2022-04-18,ＲＳキャピタル合同会社,,合同会社,東京都,渋谷区,道玄坂１丁目１０番８号渋谷道玄坂東急ビル,,13,113,1500043,,,,,,,2022-04-18,1,,,,,アールエスキャピタル,0
390,2011201023745,新規,0,2022-04-18,2022-04-18,株式会社Ｙｓｍａｒｔ,,株式会社,東京都,中野区,本町１丁目２番４号中野坂上ライブコープＢ２０２,,13,114,1640012,,,,,,,2022-04-18,1,,,,,ワイズマート,0
402,2012701017030,新規,0,2022-04-18,2022-04-18,株式会社やりどく．ｃｏｍ,,株式会社,東京都,清瀬市,元町１丁目１－１３－３０１,,13,221,2040021,,,,,,,2022-04-18,1,,,,,ヤリドクドットコム,0
411,2013301048960,新規,0,2022-04-18,2022-04-18,株式会社裕森,,株式会社,東京都,豊島区,東池袋２丁目６３番５－８０１号,,13,116,1700013,,,,,,,2022-04-18,1,,,,,ユウモリ,0
445,2030001147728,新規,0,2022-04-18,2022-04-18,株式会社みや玄,,株式会社,埼玉県,川口市,大字安行領家９４３番地３,,11,203,3340058,,,,,,,2022-04-18,1,,,,,ミヤゲン,0
446,2030001147752,新規,0,2022-04-18,2022-04-18,ジャパン住まいる株式会社,,株式会社,埼玉県,川口市,東川口３丁目７番３３－７号,,11,203,3330801,,,,,,,2022-04-18,1,,,,,ジャパンスマイル,0
447,2030001147760,新規,0,2022-04-18,2022-04-18,株式会社ＨＲＫ,,株式会社,埼玉県,所沢市,緑町４丁目３－１２ウェンズ２０３,,11,208,3591111,,,,,,,2022-04-18,1,,,,,エイチアールケー,0
448,2030001147769,新規,0,2022-04-18,2022-04-18,株式会社ＡＹＢ,,株式会社,埼玉県,川口市,大字芝５３７４番地の１６芝マンション１０３号,,11,203,3330866,,,,,,,2022-04-18,1,,,,,,0
449,2030001147777,新規,0,2022-04-18,2022-04-18,株式会社Ｅｘ‐ｓｉｄＥ,,株式会社,埼玉県,三郷市,さつき平２丁目３－２－５１４,,11,237,3410021,,,,,,,2022-04-18,1,,,,,エクサイド,0
450,2030001147810,新規,0,2022-04-18,2022-04-18,りんごとはちみつ株式会社,,株式会社,埼玉県,南埼玉郡宮代町,川端４丁目３番８号,,11,442,3450804,,,,,,,2022-04-18,1,,,,,リンゴトハチミツ,0
455,2030003019173,新規,0,2022-04-18,2022-04-18,合同会社バスリペア,,合同会社,埼玉県,川越市,大字笠幡１１８－８０,,11,201,3501175,,,,,,,2022-04-18,1,,,,,バスリペア,0
456,2030003019231,新規,0,2022-04-18,2022-04-18,合同会社ＷＩＬＥＳ,,合同会社,埼玉県,さいたま市浦和区,東岸町９－２０新山ビル７０９,,11,107,3300054,,,,,,,2022-04-18,1,,,,,ワイルズ,0
457,2030005020823,新規,0,2022-04-18,2022-04-18,医療法人康泉会,,その他の設立登記法人,埼玉県,さいたま市南区,南浦和１丁目３３番１５号グレースビル１階,,11,108,3360017,,,,,,,2022-04-18,1,,,,,コウセンカイ,0
478,2040003019858,新規,0,2022-04-18,2022-04-18,合同会社テラノアイズ,,合同会社,千葉県,流山市,大字木５０５番地（木Ｂ６７街区１）１２２４,,12,220,2700162,,,,,,,2022-04-18,1,,,,,テラノアイズ,0
479,2040003019890,新規,0,2022-04-18,2022-04-18,合同会社ティー・ファクトリー,,合同会社,千葉県,柏市,南逆井７丁目２０番４号,,12,217,2770043,,,,,,,2022-04-18,1,,,,,ティーファクトリー,0
491,2070005009986,新規,0,2022-04-18,2022-04-18,一般社団法人日本介護福祉魅力研究協会,,その他の設立登記法人,群馬県,前橋市,三俣町３丁目３３番地３１,,10,201,3710018,,,,,,,2022-04-18,1,,,,,,0
506,2110001036600,新規,0,2022-04-18,2022-04-18,株式会社クロスロード,,株式会社,新潟県,新潟市中央区,笹口２丁目９番地８,,15,103,9500911,,,,,,,2022-04-18,1,,,,,クロスロード,0
520,2120001245274,新規,0,2022-04-18,2022-04-18,ＯＬＩＮ株式会社,,株式会社,大阪府,大阪市浪速区,元町１丁目１１番１６号ヴォンジョルノ難波８０３号室,,27,111,5560016,,,,,,,2022-04-18,1,,,,,オリン,0
534,2130001071562,新規,0,2022-04-18,2022-04-18,株式会社ｓｐｕｔｎｉｋ,,株式会社,京都府,京都市下京区,柳馬場通高辻下る吉文字町４４０番地１,00126307,26,106,6008069,,,,,,,2022-04-18,1,,,,,スプートニク,0
547,2140001125648,新規,0,2022-04-18,2022-04-18,株式会社おりーぶ,,株式会社,兵庫県,尼崎市,大庄中通１丁目７１－１－３０２,,28,202,6600075,,,,,,,2022-04-18,1,,,,,オリーブ,0
548,2140001125664,新規,0,2022-04-18,2022-04-18,株式会社３Ｓ研究所,,株式会社,兵庫県,神戸市中央区,海岸通３番地シップ神戸海岸ビル９階,,28,110,6500024,,,,,,,2022-04-18,1,,,,,スリーエスケンキュウショ,0
549,2140001125672,新規,0,2022-04-18,2022-04-18,プライムキャピタル株式会社,,株式会社,兵庫県,尼崎市,御園町２４番地尼崎第一ビル４０２号,,28,202,6600861,,,,,,,2022-04-18,1,,,,,プライムキャピタル,0
552,2140003017587,新規,0,2022-04-18,2022-04-18,合同会社Ｒｅａｃｔｙ,,合同会社,兵庫県,西宮市,枝川町１番１４９－３０１号,,28,204,6638143,,,,,,,2022-04-18,1,,,,,リアクティー,0
553,2140003017595,新規,0,2022-04-18,2022-04-18,合同会社ＹＣＣ販売,,合同会社,兵庫県,赤穂郡上郡町,八保乙１５８－２,,28,481,6781256,,,,,,,2022-04-18,1,,,,,ワイシィシィハンバイ,0
557,2150003002670,新規,0,2022-04-18,2022-04-18,就労支援機構合同会社,,合同会社,奈良県,橿原市,曲川町７丁目８番１８号,,29,205,6340837,,,,,,,2022-04-18,1,,,,,シュウロウシエンキコウ,0
572,2180001150857,新規,0,2022-04-18,2022-04-18,株式会社Ｘ　Ｒｕｌｅ,,株式会社,愛知県,名古屋市中村区,名駅４丁目２６－１０名駅ファーストビル４Ｆ,,23,105,4500002,,,,,,,2022-04-18,1,,,,,エックスルール,0
573,2180001150898,新規,0,2022-04-18,2022-04-18,株式会社ユニークス,,株式会社,愛知県,名古屋市東区,葵１丁目２番２０号シティタワー葵１８１０号,,23,102,4610004,,,,,,,2022-04-18,1,,,,,ユニークス,0
574,2180001150948,新規,0,2022-04-18,2022-04-18,株式会社Ｓａｔｏ　Ｋｒａｆｔ,,株式会社,愛知県,一宮市,丹陽町外崎字江西５５８番地７,,23,203,4910825,,,,,,,2022-04-18,1,,,,,サトウクラフト,0
581,2180303005305,新規,0,2022-04-18,2022-04-18,合同会社ＣＡＳＴ,,合同会社,愛知県,田原市,浦町川向１５２番地３,,23,231,4413403,,,,,,,2022-04-18,1,,,,,キャスト,0
585,2190003003954,新規,0,2022-04-18,2022-04-18,合同会社Ｍｉｅｌ,,合同会社,三重県,鈴鹿市,矢橋３丁目３番２７号,,24,207,5130036,,,,,,,2022-04-18,1,,,,,ミエル,0
590,2230001019320,新規,0,2022-04-18,2022-04-18,ＢａｓｅＣグループ株式会社,,株式会社,富山県,射水市,庄川本町２７番１号,,16,211,9340003,,,,,,,2022-04-18,1,,,,,ベースシーグループ,0
596,2240001059638,新規,0,2022-04-18,2022-04-18,株式会社ＳＡＧＡ,,株式会社,広島県,広島市西区,己斐大迫１丁目１２番６号,,34,104,7330816,,,,,,,2022-04-18,1,,,,,サガ,0
602,2260001036767,新規,0,2022-04-18,2022-04-18,株式会社ＩＡＮ,,株式会社,岡山県,岡山市北区,東島田町１丁目３－２３,,33,101,7000983,,,,,,,2022-04-18,1,,,,,イアン,0
611,2290001097154,新規,0,2022-04-18,2022-04-18,三猫株式会社,00126316,株式会社,福岡県,福岡市早良区,室見４丁目１番２２号（３１４号）,,40,137,8140015,,,,,,,2022-04-18,1,,,,,サンマオ,0
633,2370001048446,新規,0,2022-04-18,2022-04-18,幸田Ｊａｐａｎ株式会社,,株式会社,宮城県,登米市,米山町字桜岡大又５番地１桜岡貸倉庫,,04,212,9870311,,,,,,,2022-04-18,1,,,,,コダジャパン,0
647,2410001013164,新規,0,2022-04-18,2022-04-18,株式会社メルカート,,株式会社,秋田県,能代市,落合字下大野１－２４スズランＩ,00126301,05,202,0160014,,,,,,,2022-04-18,1,,,,,,0
655,2470001019040,新規,0,2022-04-18,2022-04-18,株式会社ＦＡＳＴ,,株式会社,香川県,高松市,茜町２７番２９号,,37,201,7600002,,,,,,,2022-04-18,1,,,,,ファースト,0
660,2500001024152,新規,0,2022-04-18,2022-04-18,株式会社キラテック,,株式会社,愛媛県,松山市,空港通１丁目５番３９号,,38,201,7900054,,,,,,,2022-04-18,1,,,,,キラテック,0
672,3010001225682,新規,0,2022-04-18,2022-04-18,株式会社ＫＰＳソリューションズ,,株式会社,東京都,文京区,目白台３丁目２９番１８号,,13,105,1120015,,,,,,,2022-04-18,1,,,,,ケーピーエスソリューションズ,0
673,3010001225724,新規,0,2022-04-18,2022-04-18,株式会社アルゴノオツ,,株式会社,東京都,文京区,大塚６丁目２番５－３０７号,00126305,13,105,1120012,,,,,,,2022-04-18,1,,,,,アルゴノオツ,0
675,3010003037432,新規,0,2022-04-18,2022-04-18,合同会社ＸＦＦファンド,,合同会社,東京都,千代田区,麹町１丁目３番地６ダイアン麹町ビル４０４号,,13,101,1020083,,,,,,,2022-04-18,1,,,,,エックスエフエフファンド,0
676,3010003037507,新規,0,2022-04-18,2022-04-18,合同会社ＭＨＹ企画,,合同会社,東京都,文京区,本郷６丁目２０番３号本郷館３０３,,13,105,1130033,,,,,,,2022-04-18,1,,,,,エムエイチワイキカク,0
689,3010701042510,新規,0,2022-04-18,2022-04-18,株式会社Ｐｒｏｄｕｃｅ,,株式会社,東京都,品川区,西五反田２丁目１０番８－５０３号,,13,109,1410031,,,,,,,2022-04-18,1,,,,,プロデュース,0
694,3010901050718,新規,0,2022-04-18,2022-04-18,株式会社れい,,株式会社,東京都,世田谷区,奥沢１丁目９番２号ジョイフル田園調布１１１Ｊ号室,,13,112,1580083,,,,,,,2022-04-18,1,,,,,レイ,0
701,3011001146919,新規,0,2022-04-18,2022-04-18,株式会社エイチラボ,,株式会社,東京都,渋谷区,円山町５番５号Ｎａｖｉ渋谷Ｖ３階,,13,113,1500044,,,,,,,2022-04-18,1,,,,,エイチラボ,0
702,3011001146943,新規,0,2022-04-18,2022-04-18,株式会社３１２ＳＴＵＤＩＯ,,株式会社,東京都,渋谷区,神宮前６丁目２３番４号桑野ビル２階,,13,113,1500001,,,,,,,2022-04-18,1,,,,,サンイチニスタジオ,0
724,3011801040602,新規,0,2022-04-18,2022-04-18,Ｋ．Ｓ．ロジスティクス株式会社,,株式会社,東京都,足立区,南花畑４丁目２８－１８,,13,121,1210062,,,,,,,2022-04-18,1,,,,,ケイエスロジスティクス,0
727,3012403005316,新規,0,2022-04-18,2022-04-18,ＲｏｇｅｒＦｉｌｍ合同会社,,合同会社,東京都,調布市,布田３丁目３０－９コンフォルト２０２,,13,208,1820024,,,,,,,2022-04-18,1,,,,,ロジェフィルム,0
731,3013103001126,新規,0,2022-04-18,2022-04-18,合同会社よしまさｓｔｙｌｅ,,合同会社,東京都,西多摩郡瑞穂町,大字石畑２３２番地１５,,13,303,1901211,,,,,,,2022-04-18,1,,,,,,0
736,3013305003333,新規,0,2022-04-18,2022-04-18,一般社団法人日越文化教育交流協会,,その他の設立登記法人,東京都,豊島区,東池袋２丁目１番１２号,,13,116,1700013,,,,,,,2022-04-18,1,,,,,ニチエツブンカキョウイクコウリュウキョウカイ,0
739,3020001146102,新規,0,2022-04-18,2022-04-18,株式会社水柿Ａｕｔｏ　Ｗｏｒｋｓ,,株式会社,神奈川県,川崎市幸区,南加瀬１丁目１６番１１号,,14,132,2120055,,,,,,,2022-04-18,1,,,,,ミズガキオートワークス,0
740,3020003021625,新規,0,2022-04-18,2022-04-18,合同会社ｅｓ　ｌａｂ．,,合同会社,神奈川県,川崎市宮前区,鷺沼３丁目２番地８グリシーヌ鷺沼２０２,,14,136,2160004,,,,,,,2022-04-18,1,,,,,エスラボ,0
747,3021003011616,新規,0,2022-04-18,2022-04-18,合同会社Ｍ．Ｓｔｙｌｅ,,合同会社,神奈川県,秦野市,桜町１丁目１番２０号,,14,211,2570045,,,,,,,2022-04-18,1,,,,,エムスタイル,0
754,3030001147768,新規,0,2022-04-18,2022-04-18,株式会社ＵＮＩＸ,,株式会社,埼玉県,川口市,朝日３丁目８番地２１号,,11,203,3320001,,,,,,,2022-04-18,1,,,,,,0
762,3030003019214,新規,0,2022-04-18,2022-04-18,合同会社マルサポ,,合同会社,埼玉県,川口市,大字新堀６２０番地の１メゾン新郷２０４,,11,203,3340061,,,,,,,2022-04-18,1,,,,,マルサポ,0
763,3030003019230,新規,0,2022-04-18,2022-04-18,合同会社エイチ,,合同会社,埼玉県,蓮田市,東４丁目２－１３,,11,238,3490111,,,,,,,2022-04-18,1,,,,,エイチ,0
773,3040001123066,新規,0,2022-04-18,2022-04-18,芝加株式会社,,株式会社,千葉県,佐倉市,表町２丁目８－７－２０１室,,12,212,2850811,,,,,,,2022-04-18,1,,,,,シバカ,0
792,3070005009985,新規,0,2022-04-18,2022-04-18,医療法人ｃｏｌｏｒｓ,,その他の設立登記法人,群馬県,高崎市,下小塙町１３５１番地３,,10,202,3700076,,,,,,,2022-04-18,1,,,,,カラーズ,0
799,3080401025759,新規,0,2022-04-18,2022-04-18,株式会社健洋貿易,,株式会社,静岡県,浜松市中区,中島２丁目７番５５号,,22,131,4300856,,,,,,,2022-04-18,1,,,,,ケンヨウボウエキ,0
801,3090001017528,新規,0,2022-04-18,2022-04-18,株式会社エイチエムハーティー,,株式会社,山梨県,富士吉田市,下吉田東４丁目９番３２号,,19,202,4030008,,,,,,,2022-04-18,1,,,,,エイチエムハーティー,0
817,3120001245273,新規,0,2022-04-18,2022-04-18,株式会社Ｈｕａ　ｈｕａ,,株式会社,大阪府,大阪市中央区,玉造２丁目１５番５号,,27,128,5400004,,,,,,,2022-04-18,1,,,,,,0
818,3120001245307,新規,0,2022-04-18,2022-04-18,株式会社まとりっく,,株式会社,大阪府,大阪市東住吉区,杭全２丁目６番４号,,27,121,5460002,,,,,,,2022-04-18,1,,,,,マトリック,0
820,3120003021516,新規,0,2022-04-18,2022-04-18,合同会社ＡＩＮＣＩ,,合同会社,大阪府,大阪市城東区,蒲生１丁目８番３２号,,27,118,5360016,,,,,,,2022-04-18,1,,,,,アインシ,0
838,3130001071561,新規,0,2022-04-18,2022-04-18,株式会社ブルー・シード,,株式会社,京都府,京都市下京区,烏丸通七条下る東塩小路町７３５番地１,,26,106,6008216,,,,,,,2022-04-18,1,,,,,ブルーシード,0
840,3130003007885,新規,0,2022-04-18,2022-04-18,合同会社ハクレンゲ,,合同会社,京都府,京都市中京区,突抜町１３２番地３０１号,,26,104,6048202,,,,,,,2022-04-18,1,,,,,ハクレンゲ,0
848,3140001125647,新規,0,2022-04-18,2022-04-18,株式会社その日ぐらし,,株式会社,兵庫県,芦屋市,楠町２番１２－６０１号,,28,206,6590015,,,,,,,2022-04-18,1,,,,,ソノヒグラシ,0
849,3140001125655,新規,0,2022-04-18,2022-04-18,Ｍｆｇ株式会社,,株式会社,兵庫県,宝塚市,高松町１１－２８,,28,214,6650043,,,,,,,2022-04-18,1,,,,,エムエフジー,0
850,3140001125663,新規,0,2022-04-18,2022-04-18,株式会社シアー・プロフェッショナル,,株式会社,兵庫県,神戸市中央区,下山手通５丁目５番５号,,28,110,6500011,,,,,,,2022-04-18,1,,,,,シアープロフェッショナル,0
851,3140001125671,新規,0,2022-04-18,2022-04-18,プライムインベストメント株式会社,,株式会社,兵庫県,尼崎市,御園町２４番地尼崎第一ビル４０２号,,28,202,6600861,,,,,,,2022-04-18,1,,,,,プライムインベストメント,0
860,3140003017553,新規,0,2022-04-18,2022-04-18,ＨＳＳＲ合同会社,,合同会社,兵庫県,西宮市,高塚町７番１２６号,,28,204,6620066,,,,,,,2022-04-18,1,,,,,エイチエスエスアール,0
861,3140003017594,新規,0,2022-04-18,2022-04-18,合同会社トラストサービス,,合同会社,兵庫県,神戸市須磨区,行幸町１丁目４番２０－２０１号,,28,107,6540052,,,,,,,2022-04-18,1,,,,,トラストサービス,0
877,3180001150831,新規,0,2022-04-18,2022-04-18,エボリューション２株式会社,,株式会社,愛知県,名古屋市昭和区,山里町７４番地八事パークマンション１１０５号,,23,107,4660824,,,,,,,2022-04-18,1,,,,,エボリューションツー,0
878,3180001150880,新規,0,2022-04-18,2022-04-18,株式会社モバイルワン,,株式会社,愛知県,名古屋市北区,六が池町５２５－１,,23,103,4620002,,,,,,,2022-04-18,1,,,,,モバイルワン,0
879,3180001150889,新規,0,2022-04-18,2022-04-18,株式会社ＫＥＹＷＯＲＤ,,株式会社,愛知県,小牧市,大字小牧原新田１８２５番地１,,23,219,4850012,,,,,,,2022-04-18,1,,,,,キーワード,0
881,3180005019742,新規,0,2022-04-18,2022-04-18,税理士法人川崎会計事務所,00126315,その他の設立登記法人,愛知県,名古屋市中区,丸の内３丁目７番２６号,,23,106,4600002,,,,,,,2022-04-18,1,,,,,カワサキカイケイジムショ,0
895,3220001024808,新規,0,2022-04-18,2022-04-18,株式会社エルプラス,,株式会社,石川県,野々市市,三納２丁目１３４番地１,,17,212,9218825,,,,,,,2022-04-18,1,,,,,エルプラス,0
902,3240001059629,新規,0,2022-04-18,2022-04-18,株式会社＿源,00126304,株式会社,広島県,東広島市,西条町田口２０８１番地１ジョイセブン１０９号室,,34,212,7390036,,,,,,,2022-04-18,1,,,,,シンゲン,0
904,3240003005589,新規,0,2022-04-18,2022-04-18,合同会社フクハラ設備,,合同会社,広島県,広島市西区,観音本町２丁目１２番３０－４０１号,,34,104,7330033,,,,,,,2022-04-18,1,,,,,フクハラセツビ,0
906,3250001019508,新規,0,2022-04-18,2022-04-18,株式会社ＳＵＺＵＫＩＳＯＵＫＥＮ,,株式会社,山口県,山口市,小郡新町６丁目１番２５号,,35,203,7540031,,,,,,,2022-04-18,1,,,,,スズキソウケン,0
911,3260001036758,新規,0,2022-04-18,2022-04-18,株式会社ＲＴ,,株式会社,岡山県,倉敷市,老松町２丁目１１番３０－１１０６号,,33,202,7100826,,,,,,,2022-04-18,1,,,,,アールティー,0
912,3260001036766,新規,0,2022-04-18,2022-04-18,株式会社ＭＯＭＯ,,株式会社,岡山県,玉野市,田井４丁目１１番４０号,,33,204,7060001,,,,,,,2022-04-18,1,,,,,モモ,0
915,3270005005510,新規,0,2022-04-18,2022-04-18,一般社団法人アグリＹＯＤＯＥ,,その他の設立登記法人,鳥取県,米子市,淀江町淀江５０７番地,,31,202,6893402,,,,,,,2022-04-18,1,,,,,アグリヨドエ,0
929,3290005018650,新規,0,2022-04-18,2022-04-18,医療法人愛宕南なかじま歯科,,その他の設立登記法人,福岡県,福岡市西区,愛宕南２丁目１３番３号,,40,135,8190007,,,,,,,2022-04-18,1,,,,,アタゴミナミナカジマシカ,0
943,3330003009333,新規,0,2022-04-18,2022-04-18,合同会社あとりえＴＡＲＲＹ,,合同会社,熊本県,葦北郡芦北町,大字小田浦１４２９番地,,43,482,8695303,,,,,,,2022-04-18,1,,,,,アトリエタリー,0
951,3360003011947,新規,0,2022-04-18,2022-04-18,合同会社千寿,,合同会社,沖縄県,糸満市,字真栄里３３９－５,,47,210,9010362,,,,,,,2022-04-18,1,,,,,センジュ,0
955,3370003005642,新規,0,2022-04-18,2022-04-18,合同会社Ｗｉｎｄ　ｏｆ　Ｅｎｔｅｒｔａｉｎｍｅｎｔ,,合同会社,宮城県,仙台市若林区,新寺３丁目１番１０号,,04,103,9840051,,,,,,,2022-04-18,1,,,,,ウィンドオブエンターテインメント,0
963,3400001015862,新規,0,2022-04-18,2022-04-18,株式会社にゃんこの手,,株式会社,岩手県,奥州市,水沢字寺小路３０番地１４,,03,215,0230811,,,,,,,2022-04-18,1,,,,,ニャンコノテ,0
965,3420003002502,新規,0,2022-04-18,2022-04-18,まるごとゆうき合同会社,,合同会社,青森県,青森市,浜館６丁目１番地８ドラゴンカフェ２階,,02,201,0300947,,,,,,,2022-04-18,1,,,,,マルゴトユウキ,0
971,3430001086455,新規,0,2022-04-18,2022-04-18,株式会社Ｔ．Ｒ,,株式会社,北海道,札幌市中央区,南二条西８丁目１番地３ベルネージュ札幌３０２,,01,101,0600062,,,,,,,2022-04-18,1,,,,,ティーアール,0
972,3430003013820,新規,0,2022-04-18,2022-04-18,大野技術士事務所合同会社,,合同会社,北海道,札幌市北区,あいの里一条３丁目８番２０号,,01,102,0028071,,,,,,,2022-04-18,1,,,,,オオノギジュツシジムショ,0
974,3450005004337,新規,0,2022-04-18,2022-04-18,一般社団法人Ａｎｏｔｈｅｒ　Ｒｏｏｆ,,その他の設立登記法人,北海道,紋別市,本町５丁目２番２３号太田ビル２階,,01,219,0940004,,,,,,,2022-04-18,1,,,,,アナザールーフ,0
978,3490001010153,新規,0,2022-04-18,2022-04-18,聖栄工業株式会社,,株式会社,高知県,香美市,土佐山田町宝町３丁目１番２５号,,39,212,7820034,,,,,,,2022-04-18,1,,,,,ショウエイコウギョウ,0
983,4010001225681,新規,0,2022-04-18,2022-04-18,株式会社ＫＰＳシステムズ,,株式会社,東京都,文京区,音羽１丁目１７番１４号,,13,105,1120013,,,,,,,2022-04-18,1,,,,,ケーピーエスシステムズ,0
995,4010405020893,新規,0,2022-04-18,2022-04-18,一般財団法人Ｗｅｂ　Ｃｏｎｓｏｒｔｉｕｍ　Ａｓｉａ　Ｐａｃｉｆｉｃ,,その他の設立登記法人,東京都,港区,三田２丁目１４番５号,,13,103,1080073,,,,,,,2022-04-18,1,,,,,ウェブコンソーシアムアジアパシフィック,0
996,4010405020927,新規,0,2022-04-18,2022-04-18,一般社団法人先端医療技術開発機構,,その他の設立登記法人,東京都,港区,浜松町２丁目２番１５号,,13,103,1050013,,,,,,,2022-04-18,1,,,,,センタンイリョウギジュツカイハツキコウ,0
1005,4010901050717,新規,0,2022-04-18,2022-04-18,株式会社ティーエイト,,株式会社,東京都,世田谷区,等々力８丁目１９番２－１０６号,,13,112,1580082,,,,,,,2022-04-18,1,,,,,ティーエイト,0
1006,4010901050725,新規,0,2022-04-18,2022-04-18,チームグラマシー株式会社,,株式会社,東京都,世田谷区,経堂５丁目２８番１０号,,13,112,1560052,,,,,,,2022-04-18,1,,,,,チームグラマシー,0
1024,4011001146884,新規,0,2022-04-18,2022-04-18,ＳｈａｒｅＢｅ株式会社,,株式会社,東京都,渋谷区,神宮前６丁目２３番４号桑野ビル２階,,13,113,1500001,,,,,,,2022-04-18,1,,,,,シェアビー,0
1025,4011001147008,新規,0,2022-04-18,2022-04-18,株式会社ハニュミー,,株式会社,東京都,渋谷区,円山町５番５号,,13,113,1500044,,,,,,,2022-04-18,1,,,,,ハニュミー,0
1036,4011501027948,新規,0,2022-04-18,2022-04-18,株式会社ＫＯＪＩＭＡ,,株式会社,東京都,北区,志茂４丁目５番１－４０３号ＧＲＡＮＤＥＵＲ・ＳＨＩＭＯ,,13,117,1150042,,,,,,,2022-04-18,1,,,,,コジマ,0
1043,4011801040601,新規,0,2022-04-18,2022-04-18,株式会社フラワーエステート,,株式会社,東京都,足立区,西新井栄町１丁目１８番１－８２４号,,13,121,1230843,,,,,,,2022-04-18,1,,,,,フラワーエステート,0
1045,4012701017029,新規,0,2022-04-18,2022-04-18,クレインフィールド株式会社,,株式会社,東京都,西東京市,向台町１丁目１５番９号,,13,229,1880013,,,,,,,2022-04-18,1,,,,,クレインフィールド,0
1059,4020001146118,新規,0,2022-04-18,2022-04-18,株式会社ｃｏｃｏｔｔｏ,,株式会社,神奈川県,川崎市多摩区,菅北浦３丁目１２番４号,,14,135,2140008,,,,,,,2022-04-18,1,,,,,ココット,0
1061,4020003021640,新規,0,2022-04-18,2022-04-18,合同会社タグサポート,,合同会社,神奈川県,横浜市青葉区,美しが丘１丁目１３番地１０吉村ビル１０７号,,14,117,2250002,,,,,,,2022-04-18,1,,,,,タグサポート,0
1073,4021003011598,新規,0,2022-04-18,2022-04-18,ＨｅａｌｔｈＣｏｎｎｅｃｔ合同会社,,合同会社,神奈川県,相模原市南区,相南４丁目２３番２４号コーポカトレア２０２,,14,153,2520312,,,,,,,2022-04-18,1,,,,,ヘルスコネクト,0
1074,4021005012495,新規,0,2022-04-18,2022-04-18,特定非営利活動法人ジャパン・ハートデリバリー,,その他の設立登記法人,神奈川県,小田原市,延清２０４番地の３,,14,206,2500218,,,,,,,2022-04-18,1,,,,,ジャパンハートデリバリー,0
1085,4030001147809,新規,0,2022-04-18,2022-04-18,株式会社アップエイト,,株式会社,埼玉県,さいたま市北区,日進町１丁目４５０番地１グランドールラシン５０１,,11,102,3310823,,,,,,,2022-04-18,1,,,,,アップエイト,0
1087,4030003019238,新規,0,2022-04-18,2022-04-18,ＴＨＡＰＡ　ＴＲＡＤＩＮＧ合同会社,,合同会社,埼玉県,川越市,的場北１丁目５番１２号フラワーハイツ１０５、１Ｆ,,11,201,3501102,,,,,,,2022-04-18,1,,,,,タパトレイディング,0
1094,4040001122991,新規,0,2022-04-18,2022-04-18,トレクチャー株式会社,,株式会社,千葉県,千葉市中央区,生実町１９０－３,,12,101,2600813,,,,,,,2022-04-18,1,,,,,トレクチャー,0
1095,4040001123057,新規,0,2022-04-18,2022-04-18,株式会社治兵衛,,株式会社,千葉県,習志野市,藤崎３丁目１番２３号,,12,216,2750017,,,,,,,2022-04-18,1,,,,,ジヘエ,0
1101,4040003019856,新規,0,2022-04-18,2022-04-18,合同会社Ｌｕｐｉｎｕｓ,,合同会社,千葉県,柏市,若柴１７８－４柏の葉キャンパス１４８街区１ザ・ゲートタワーウェスト３Ｆ,,12,217,2770871,,,,,,,2022-04-18,1,,,,,ルピナス,0
1112,4050003006507,新規,0,2022-04-18,2022-04-18,Ｆ＆Ｇ合同会社,,合同会社,茨城県,水戸市,南町３丁目３番３５号,,08,201,3100021,,,,,,,2022-04-18,1,,,,,エフアンドジー,0
1119,4080001024887,新規,0,2022-04-18,2022-04-18,株式会社農家目線,,株式会社,静岡県,榛原郡吉田町,大幡１８００番地の１,,22,424,4210305,,,,,,,2022-04-18,1,,,,,ノウカメセン,0
1120,4080005007450,新規,0,2022-04-18,2022-04-18,ＭＫ協同組合,,その他の設立登記法人,静岡県,静岡市葵区,南沼上３丁目９番３２号,,22,101,4200905,,,,,,,2022-04-18,1,,,,,エムケイ,0
1122,4080101023228,新規,0,2022-04-18,2022-04-18,たきびメディカル株式会社,,株式会社,静岡県,裾野市,御宿３３０番地の５,,22,220,4101107,,,,,,,2022-04-18,1,,,,,タキビメディカル,0
1128,4080401025758,新規,0,2022-04-18,2022-04-18,株式会社イトウレント,,株式会社,静岡県,浜松市南区,中田島町１００９番地の１,,22,134,4300845,,,,,,,2022-04-18,1,,,,,イトウレント,0
1131,4090003002080,新規,0,2022-04-18,2022-04-18,合同会社ＳＨＣ,,合同会社,山梨県,甲斐市,竜王２９３５番地１０２,,19,210,4000118,,,,,,,2022-04-18,1,,,,,エスエイチシー,0
1134,4110005016794,新規,0,2022-04-18,2022-04-18,特定非営利活動法人Ｂ‐ＦＡＮ’Ｓ,,その他の設立登記法人,新潟県,新潟市西区,小新１０５１番地３,,15,107,9502023,,,,,,,2022-04-18,1,,,,,ビーファンズ,0
1144,4120001245280,新規,0,2022-04-18,2022-04-18,株式会社ホライズン,,株式会社,大阪府,大阪市都島区,片町１丁目５番１３号大手前センチュリービル４階,,27,102,5340025,,,,,,,2022-04-18,1,,,,,ホライズン,0
1147,4120003021523,新規,0,2022-04-18,2022-04-18,あかつき合同会社,,合同会社,大阪府,大阪市福島区,海老江７丁目２３番１７号,,27,103,5530001,,,,,,,2022-04-18,1,,,,,アカツキ,0
1156,4130005016446,新規,0,2022-04-18,2022-04-18,特定非営利活動法人ＵＧベース,,その他の設立登記法人,京都府,宇治市,槇島町薗場１２８番地,,26,204,6110041,,,,,,,2022-04-18,1,,,,,ユージーベース,0
1162,4140001125662,新規,0,2022-04-18,2022-04-18,株式会社ＬＣ,,株式会社,兵庫県,三田市,つつじが丘北１丁目１９番地１２,,28,219,6691348,,,,,,,2022-04-18,1,,,,,エルシー,0
1163,4140001125670,新規,0,2022-04-18,2022-04-18,プライムアセット株式会社,,株式会社,兵庫県,尼崎市,御園町２４番地尼崎第一ビル４０２号,,28,202,6600861,,,,,,,2022-04-18,1,,,,,プライムアセット,0
1164,4140001125679,新規,0,2022-04-18,2022-04-18,株式会社ワールド商会,,株式会社,兵庫県,尼崎市,東塚口町１丁目５番２４号,,28,202,6610011,,,,,,,2022-04-18,1,,,,,ワールドショウカイ,0
1171,4140003017585,新規,0,2022-04-18,2022-04-18,ＯＵＴＬＡＮＤ　ＰＲＯＤＵＣＴＩＯＮ合同会社,,合同会社,兵庫県,南あわじ市,福良乙１８５－１,,28,224,6560502,,,,,,,2022-04-18,1,,,,,アウトランドプロダクション,0
1179,4170003001710,新規,0,2022-04-18,2022-04-18,ＯｐｅｎＭｉｎｄ合同会社,,合同会社,和歌山県,和歌山市,杭ノ瀬４１２番地１０,,30,201,6410001,,,,,,,2022-04-18,1,,,,,オープンマインド,0
1193,4180001150871,新規,0,2022-04-18,2022-04-18,水野商店株式会社,,株式会社,愛知県,名古屋市西区,名駅２丁目３４番１７号セントラル名古屋１１０１号,,23,104,4510045,,,,,,,2022-04-18,1,,,,,ミズノショウテン,0
1202,4180301036127,新規,0,2022-04-18,2022-04-18,株式会社ＭＡＺ,,株式会社,愛知県,刈谷市,松栄町１丁目１５番地９,,23,210,4480806,,,,,,,2022-04-18,1,,,,,エムエーゼット,0
1208,4190001029339,新規,0,2022-04-18,2022-04-18,株式会社リフォア,,株式会社,三重県,いなべ市,北勢町阿下喜７２９番地２０,,24,214,5110428,,,,,,,2022-04-18,1,,,,,リフォア,0
1220,4220003003263,新規,0,2022-04-18,2022-04-18,合同会社白山麓ナーセリー,,合同会社,石川県,白山市,河内町ふじが丘６６番地,,17,210,9202302,,,,,,,2022-04-18,1,,,,,ハクサンロクナーセリー,0
1225,4240003005588,新規,0,2022-04-18,2022-04-18,合同会社サザン,,合同会社,広島県,尾道市,福地町７－４０ベルメゾン福地Ｄ１０４号室,,34,205,7220005,,,,,,,2022-04-18,1,,,,,サザン,0
1234,4260001036765,新規,0,2022-04-18,2022-04-18,Ａｍｂｉｔｉｏｕｓ　Ｄｅｓｉｇｎｉｎｇ　Ｃｏｎｓｕｌｔａｎｔ株式会社,,株式会社,岡山県,岡山市北区,横井上１６０８番地５,,33,101,7011145,,,,,,,2022-04-18,1,,,,,アンビシャスデザイニングコンサルタント,0
1243,4290001097202,新規,0,2022-04-18,2022-04-18,株式会社ＦＯＲＶ,,株式会社,福岡県,福岡市中央区,天神２丁目３－１０－７１９,,40,133,8100001,,,,,,,2022-04-18,1,,,,,フォーヴ,0
1249,4300001012885,新規,0,2022-04-18,2022-04-18,株式会社モータークラフト田中,,株式会社,佐賀県,伊万里市,新天町２８６番地５,,41,205,8480041,,,,,,,2022-04-18,1,,,,,モータークラフトタナカ,0
1259,4340001024654,新規,0,2022-04-18,2022-04-18,株式会社翔仁,,株式会社,鹿児島県,薩摩川内市,宮内町１７２１番地,,46,215,8950065,,,,,,,2022-04-18,1,,,,,ショウジン,0
1265,4360003011938,新規,0,2022-04-18,2022-04-18,國吉工業合同会社,,合同会社,沖縄県,うるま市,みどり町１丁目２番１８号１Ｆ,,47,213,9042215,,,,,,,2022-04-18,1,,,,,,0
1288,4430001086438,新規,0,2022-04-18,2022-04-18,株式会社隆建,,株式会社,北海道,札幌市豊平区,平岸二条４丁目４番８－１３０１号,,01,105,0620932,,,,,,,2022-04-18,1,,,,,リュウケン,0
1289,4430001086446,新規,0,2022-04-18,2022-04-18,株式会社クマムシステム,,株式会社,北海道,江別市,文京台南町５２番地の２,,01,217,0690835,,,,,,,2022-04-18,1,,,,,クマムシステム,0
1290,4430001086504,新規,0,2022-04-18,2022-04-18,株式会社松村登記測量事務所,,株式会社,北海道,札幌市北区,屯田七条８丁目３番１号,,01,102,0020857,,,,,,,2022-04-18,1,,,,,マツムラトウキソクリョウジムショ,0
1297,4430003013811,新規,0,2022-04-18,2022-04-18,合同会社匠,,合同会社,北海道,石狩郡当別町,栄町４４番地１０６,,01,303,0610216,,,,,,,2022-04-18,1,,,,,タクミ,0
1316,5010005034888,新規,0,2022-04-18,2022-04-18,ＦＡＬ　Ｎｏ．１ＴＭＫ特定目的会社,,その他の設立登記法人,東京都,千代田区,丸の内２丁目３番２号郵船ビルアルタードムス・ジャパン株式会社内,,13,101,1000005,,,,,,,2022-04-18,1,,,,,エフエーエルナンバーワンティーエムケー,0
1330,5010501048722,新規,0,2022-04-18,2022-04-18,株式会社フォーチューン,,株式会社,東京都,台東区,千束４丁目２０番３号,,13,106,1110031,,,,,,,2022-04-18,1,,,,,フォーチューン,0
1333,5010503006570,新規,0,2022-04-18,2022-04-18,合同会社たまぐ,,合同会社,東京都,台東区,鳥越２丁目５番３－２０２号,,13,106,1110054,,,,,,,2022-04-18,1,,,,,タマグ,0
1338,5010605004068,新規,0,2022-04-18,2022-04-18,医療法人社団そうよう会,,その他の設立登記法人,東京都,墨田区,京島３丁目３４番７号シティハイム京島１階,,13,107,1310046,,,,,,,2022-04-18,1,,,,,ソウヨウカイ,0
1343,5010703006189,新規,0,2022-04-18,2022-04-18,合同会社Ａｉｋｏ　Ｓｈｉｒａｔｓｕｋａ　Ｏｆｆｉｃｅ,,合同会社,東京都,品川区,旗の台６丁目３２番５号,,13,109,1420064,,,,,,,2022-04-18,1,,,,,アイコシラツカオフィス,0
1347,5010801032888,新規,0,2022-04-18,2022-04-18,ＫＮＫ株式会社,,株式会社,東京都,大田区,西六郷１丁目３０番１６号,,13,111,1440056,,,,,,,2022-04-18,1,,,,,ケーエヌケー,0
1356,5011001146933,新規,0,2022-04-18,2022-04-18,株式会社ＡＣＥ,,株式会社,東京都,渋谷区,恵比寿４丁目２４番４号５０１,,13,113,1500013,,,,,,,2022-04-18,1,,,,,エース,0
1371,5011703003119,新規,0,2022-04-18,2022-04-18,小岩興商合同会社,,合同会社,東京都,江戸川区,東小岩３丁目１４番３号,,13,123,1330052,,,,,,,2022-04-18,1,,,,,コイワコウショウ,0
1373,5011801040591,新規,0,2022-04-18,2022-04-18,飛躍株式会社,,株式会社,東京都,葛飾区,四つ木３丁目２０番２０号,,13,122,1240011,,,,,,,2022-04-18,1,,,,,ヒヤク,0
1374,5011803005048,新規,0,2022-04-18,2022-04-18,合同会社ボンサイエンス,,合同会社,東京都,足立区,千住１丁目２４－５千住プラザビル３階,,13,121,1200034,,,,,,,2022-04-18,1,,,,,ボンサイエンス,0
1376,5012801021508,新規,0,2022-04-18,2022-04-18,株式会社デッチーズ不動産,,株式会社,東京都,立川市,柏町３丁目２番地１５号－２０２号室,,13,202,1900004,,,,,,,2022-04-18,1,,,,,デッチーズフドウサン,0
1382,5013301048941,新規,0,2022-04-18,2022-04-18,ＴＣ食品株式会社,,株式会社,東京都,豊島区,西池袋１丁目３５番１号２階,,13,116,1710021,,,,,,,2022-04-18,1,,,,,ティーシーショクヒン,0
1383,5013301048982,新規,0,2022-04-18,2022-04-18,株式会社スカイトップコマース,,株式会社,東京都,豊島区,巣鴨３丁目３３－２佐藤第一ビル４Ｆ,,13,116,1700002,,,,,,,2022-04-18,1,,,,,スカイトップコマース,0
1388,5020001146141,新規,0,2022-04-18,2022-04-18,リゾラス株式会社,,株式会社,神奈川県,川崎市麻生区,上麻生２丁目２７－３井上マンション３０３,,14,137,2150021,,,,,,,2022-04-18,1,,,,,リゾラス,0
1389,5020001146158,新規,0,2022-04-18,2022-04-18,株式会社ＳＡＫＯ,,株式会社,神奈川県,川崎市多摩区,菅４丁目１０番２７号,,14,135,2140001,,,,,,,2022-04-18,1,,,,,サコ,0
1403,5021005012494,新規,0,2022-04-18,2022-04-18,ＮＰＯ法人障がい者福祉の虹の会,,その他の設立登記法人,神奈川県,座間市,入谷東２丁目８番３－９１２号東建座間ハイツ,,14,216,2520028,,,,,,,2022-04-18,1,,,,,ショウガイシャフクシノニジノカイ,0
1411,5030001147808,新規,0,2022-04-18,2022-04-18,グリーンテクノロジー株式会社,,株式会社,埼玉県,朝霞市,本町２丁目９－１０グランドオペラ３０８,,11,227,3510011,,,,,,,2022-04-18,1,,,,,グリーンテクノロジー,0
1421,5030003019237,新規,0,2022-04-18,2022-04-18,＿源合同会社,00126313,合同会社,埼玉県,熊谷市,弥藤吾１６０－６三合ビル２０４号室,,11,202,3600203,,,,,,,2022-04-18,1,,,,,シンゲン,0
1422,5030003019245,新規,0,2022-04-18,2022-04-18,合同会社Ｍａｋａｈｏｕ,,合同会社,埼玉県,さいたま市見沼区,東大宮４丁目７３－３－１０４,,11,104,3370051,,,,,,,2022-04-18,1,,,,,マカホウ,0
1423,5030005020829,新規,0,2022-04-18,2022-04-18,医療法人ゼウス,,その他の設立登記法人,埼玉県,熊谷市,玉井１７４４番地１,,11,202,3600853,,,,,,,2022-04-18,1,,,,,ゼウス,0
1433,5040001123048,新規,0,2022-04-18,2022-04-18,株式会社サスビオ,,株式会社,千葉県,流山市,前平井１０８番地（運Ｂ１４１街区１）８０５,,12,220,2700152,,,,,,,2022-04-18,1,,,,,サスビオ,0
1450,5060003004038,新規,0,2022-04-18,2022-04-18,合同会社益多修当,,合同会社,栃木県,足利市,葉鹿町１丁目５－７腸寿家整体院,,09,202,3260143,,,,,,,2022-04-18,1,,,,,マスダシュウトウ,0
1453,5070001039142,新規,0,2022-04-18,2022-04-18,株式会社Ｄｅｃｋ．５,,株式会社,群馬県,伊勢崎市,宮子町３６３０番地４,,10,204,3720801,,,,,,,2022-04-18,1,,,,,デックファイブ,0
1454,5070001039150,新規,0,2022-04-18,2022-04-18,株式会社祥,,株式会社,群馬県,太田市,西長岡町２５１番地８,,10,205,3730001,,,,,,,2022-04-18,1,,,,,メグミ,0
1456,5080001024886,新規,0,2022-04-18,2022-04-18,株式会社ｋｉｎｄ,,株式会社,静岡県,静岡市葵区,羽鳥本町９番４７号,,22,101,4211217,,,,,,,2022-04-18,1,,,,,カインド,0
1457,5080101023235,新規,0,2022-04-18,2022-04-18,株式会社マルマツ商会,,株式会社,静岡県,裾野市,麦塚５９番地の１,,22,220,4101122,,,,,,,2022-04-18,1,,,,,マルマツショウカイ,0
1465,5110001036597,新規,0,2022-04-18,2022-04-18,株式会社大志麻ダイニング,,株式会社,新潟県,柏崎市,日吉町３番２７号,,15,205,9450043,,,,,,,2022-04-18,1,,,,,オオシマダイニング,0
1481,5120001245296,新規,0,2022-04-18,2022-04-18,株式会社リジョイ不動産ナビ,,株式会社,大阪府,大阪市中央区,南船場３丁目６番２４号,,27,128,5420081,,,,,,,2022-04-18,1,,,,,リジョイフドウサンナビ,0
1491,5122001035768,新規,0,2022-04-18,2022-04-18,ＫＥＮ　ＣＯＯＫ株式会社,,株式会社,大阪府,八尾市,南本町８丁目３番４１号,,27,212,5810081,,,,,,,2022-04-18,1,,,,,ケンクック,0
1498,5130001071519,新規,0,2022-04-18,2022-04-18,株式会社創・リレーション,,株式会社,京都府,京都市伏見区,深草綿森町２１番地パデシオン深草６０６号,,26,109,6120022,,,,,,,2022-04-18,1,,,,,ソウリレーション,0
1500,5130003007883,新規,0,2022-04-18,2022-04-18,合同会社ＺＥＲＯ　ＴＯ　ＴＥＮ,,合同会社,京都府,京都市上京区,竹屋町通千本東入主税町８２５番地１シャーメゾン朱雀二条１０１,,26,102,6028155,,,,,,,2022-04-18,1,,,,,ゼロトゥテン,0
1508,5140001125653,新規,0,2022-04-18,2022-04-18,３Ｇｏｏｄ株式会社,,株式会社,兵庫県,西宮市,清瀬台２１番１号,,28,204,6691131,,,,,,,2022-04-18,1,,,,,スリーグッド,0
1509,5140001125686,新規,0,2022-04-18,2022-04-18,リューケン興業株式会社,,株式会社,兵庫県,尼崎市,元浜町４２番地の２,,28,202,6600000,,,,,,,2022-04-18,1,,,,,リューケンコウギョウ,0
1514,5150003002668,新規,0,2022-04-18,2022-04-18,合同会社森のび,,合同会社,奈良県,吉野郡下北山村,大字池峰７００番地２,,29,450,6393804,,,,,,,2022-04-18,1,,,,,モリノビ,0
1515,5160003002551,新規,0,2022-04-18,2022-04-18,合同会社ＮｉｗａＳｏｆｔ,,合同会社,滋賀県,草津市,追分６丁目６番１号,,25,206,5250047,,,,,,,2022-04-18,1,,,,,ニワソフト,0
1532,5180001150945,新規,0,2022-04-18,2022-04-18,株式会社ケイズコンサル,,株式会社,愛知県,知多市,南粕谷１丁目２０番地の２０７,,23,224,4780024,,,,,,,2022-04-18,1,,,,,ケイズコンサル,0
1533,5180001150961,新規,0,2022-04-18,2022-04-18,株式会社ＣＣＴ,,株式会社,愛知県,名古屋市東区,泉１丁目１８番３０号,,23,102,4610001,,,,,,,2022-04-18,1,,,,,シーシーティー,0
1552,5240001059635,新規,0,2022-04-18,2022-04-18,株式会社ライフエージェント,,株式会社,広島県,広島市南区,京橋町１－７アスティ広島京橋ビルディング,,34,103,7320828,,,,,,,2022-04-18,1,,,,,ライフエージェント,0
1556,5250005008736,新規,0,2022-04-18,2022-04-18,一般社団法人山口県ライフセービング協会,,その他の設立登記法人,山口県,下関市,豊北町大字神田３５８７番地２,,35,201,7595331,,,,,,,2022-04-18,1,,,,,ヤマグチケンライフセービングキョウカイ,0
1561,5260003003886,新規,0,2022-04-18,2022-04-18,合同会社長瀬会計,,合同会社,岡山県,岡山市南区,福富西３丁目８番４８号メープルビュー３０１号室,,33,104,7028031,,,,,,,2022-04-18,1,,,,,ナガセカイケイ,0
1573,5290001097201,新規,0,2022-04-18,2022-04-18,メディリンクス株式会社,,株式会社,福岡県,福岡市南区,大橋１丁目３番１８号,,40,134,8150033,,,,,,,2022-04-18,1,,,,,メディリンクス,0
1578,5290003012397,新規,0,2022-04-18,2022-04-18,合同会社啓運,,合同会社,福岡県,福岡市中央区,唐人町３丁目１０番４１号,,40,133,8100063,,,,,,,2022-04-18,1,,,,,ケイウン,0
1595,5340001024653,新規,0,2022-04-18,2022-04-18,株式会社ｋ‐ｍａｃ．ＤＲＥＡＭＳ,,株式会社,鹿児島県,熊毛郡屋久島町,安房８２５番地２３,,46,505,8914311,,,,,,,2022-04-18,1,,,,,ケーマックドリームズ,0
1633,5430001086445,新規,0,2022-04-18,2022-04-18,株式会社二瓶不動産,,株式会社,北海道,札幌市中央区,北四条西１６丁目１番地第一ビル６階,,01,101,0600004,,,,,,,2022-04-18,1,,,,,ニヘイフドウサン,0
1637,5460103001448,新規,0,2022-04-18,2022-04-18,Ｋ２エンジニアリング合同会社,,合同会社,北海道,河東郡音更町,木野西通９丁目２番地３４,,01,631,0800302,,,,,,,2022-04-18,1,,,,,ケーツーエンジニアリング,0
1639,5470005006437,新規,0,2022-04-18,2022-04-18,特定非営利活動法人Ｈａｎｄ　ｉｎ　Ｈａｎｄ,,その他の設立登記法人,香川県,丸亀市,飯山町東小川１０７２番地１,,37,202,7620085,,,,,,,2022-04-18,1,,,,,ハンドインハンド,0
1653,6010003037454,新規,0,2022-04-18,2022-04-18,合同会社ＫＰＦＦ,,合同会社,東京都,千代田区,二番町５番地２麹町駅プラザ９０１,,13,101,1020084,,,,,,,2022-04-18,1,,,,,ケーピーエフエフ,0
1654,6010003037504,新規,0,2022-04-18,2022-04-18,合同会社ＬＯＧＩ　ＦＬＡＧ６号,,合同会社,東京都,中央区,日本橋１丁目４番１号,,13,102,1030027,,,,,,,2022-04-18,1,,,,,ロジフラッグロクゴウ,0
1657,6010005034870,新規,0,2022-04-18,2022-04-18,一般社団法人Ｒｕｍ　Ｃｌｕｂ　Ｊａｐａｎ,,その他の設立登記法人,東京都,中央区,銀座１丁目２２－１１銀座大竹ビジデンス２Ｆ,,13,102,1040061,,,,,,,2022-04-18,1,,,,,ラムクラブジャパン,0
1658,6010005034887,新規,0,2022-04-18,2022-04-18,ジェイコアレジ６ホールディング特定目的会社,,その他の設立登記法人,東京都,千代田区,丸の内３丁目１番１号東京共同会計事務所内,,13,101,1000005,,,,,,,2022-04-18,1,,,,,ジェイコアレジシックスホールディング,0
1663,6010405020891,新規,0,2022-04-18,2022-04-18,一般社団法人国際青少年教育協会,,その他の設立登記法人,東京都,港区,赤坂６丁目１４番３号,,13,103,1070052,,,,,,,2022-04-18,1,,,,,コクサイセイショウネンキョウイクキョウカイ,0
1664,6010405020900,新規,0,2022-04-18,2022-04-18,一般社団法人ゴム支承協会,,その他の設立登記法人,東京都,港区,元赤坂１丁目５番２６号東部ビル,,13,103,1070051,,,,,,,2022-04-18,1,,,,,ゴムシショウキョウカイ,0
1680,6010901050707,新規,0,2022-04-18,2022-04-18,リドア株式会社,,株式会社,東京都,世田谷区,給田４丁目３番３号,,13,112,1570064,,,,,,,2022-04-18,1,,,,,リドア,0
1681,6010901050715,新規,0,2022-04-18,2022-04-18,株式会社モンセラ,,株式会社,東京都,世田谷区,等々力７丁目２０番１４－４０６号,,13,112,1580082,,,,,,,2022-04-18,1,,,,,モンセラ,0
1689,6011001146932,新規,0,2022-04-18,2022-04-18,株式会社Ｏｓｈｉｔｏ,,株式会社,東京都,渋谷区,千駄ヶ谷５丁目２６‐５代々木シティホームズ７０９,,13,113,1510051,,,,,,,2022-04-18,1,,,,,,0
1690,6011001146949,新規,0,2022-04-18,2022-04-18,株式会社ｒｅｓｅｌｌｅｒ,,株式会社,東京都,渋谷区,恵比寿２丁目３８番１７号,,13,113,1500013,,,,,,,2022-04-18,1,,,,,リセラー,0
1691,6011001146965,新規,0,2022-04-18,2022-04-18,クリプターズ株式会社,,株式会社,東京都,渋谷区,東３丁目１５番地１１号渋谷東ビル２階,,13,113,1500011,,,,,,,2022-04-18,1,,,,,クリプターズ,0
1703,6011301027725,新規,0,2022-04-18,2022-04-18,株式会社ＤＡＮＫ,,株式会社,東京都,杉並区,堀ノ内３丁目３９番２号,,13,115,1660013,,,,,,,2022-04-18,1,,,,,ダンク,0
1712,6011503005140,新規,0,2022-04-18,2022-04-18,イエテック合同会社,,合同会社,東京都,北区,赤羽西１丁目３２番６－９０２号,,13,117,1150055,,,,,,,2022-04-18,1,,,,,イエテック,0
1718,6011801040599,新規,0,2022-04-18,2022-04-18,株式会社Ｅ‐ＮＥＸＳ,,株式会社,東京都,足立区,千住関屋町１番２－２０３号,,13,121,1200024,,,,,,,2022-04-18,1,,,,,イーネックス,0
1722,6012401039107,新規,0,2022-04-18,2022-04-18,株式会社Ｋコミュアーツ,,株式会社,東京都,狛江市,元和泉１丁目１０番８号,,13,219,2010013,,,,,,,2022-04-18,1,,,,,ケーコミュアーツ,0
1734,6013301048973,新規,0,2022-04-18,2022-04-18,株式会社ヒモプロ,,株式会社,東京都,豊島区,南池袋１丁目９番１８号,,13,116,1710022,,,,,,,2022-04-18,1,,,,,ヒモプロ,0
1743,6020001146124,新規,0,2022-04-18,2022-04-18,株式会社ＴＴｓｔｙｌｅ,,株式会社,神奈川県,横浜市青葉区,荏子田３丁目２５番地３号,,14,117,2250005,,,,,,,2022-04-18,1,,,,,,0
1744,6020001146132,新規,0,2022-04-18,2022-04-18,優友株式会社,,株式会社,神奈川県,横浜市中区,本牧間門６番２号,,14,104,2310825,,,,,,,2022-04-18,1,,,,,ユウユウ,0
1745,6020003021556,新規,0,2022-04-18,2022-04-18,Ａｎｃｏ合同会社,,合同会社,神奈川県,横浜市旭区,二俣川１丁目２番地１ライオンズステーションプラザ二俣川１０１１号,,14,112,2410821,,,,,,,2022-04-18,1,,,,,アンコ,0
1749,6021001075734,新規,0,2022-04-18,2022-04-18,信和株式会社,,株式会社,神奈川県,平塚市,徳延５３４番地の４,,14,203,2540902,,,,,,,2022-04-18,1,,,,,シンワ,0
1757,6021003011613,新規,0,2022-04-18,2022-04-18,Ｗｏｒｄｓ，Ｓｏｕｎｄｓ，Ｃｏｌｏｒｓ　ａｎｄ　Ｓｈａｐｅ合同会社,,合同会社,神奈川県,逗子市,山の根１丁目４－１５－４０５,,14,208,2490002,,,,,,,2022-04-18,1,,,,,,0
1766,6030001147674,新規,0,2022-04-18,2022-04-18,株式会社ゆりのき工務店,,株式会社,埼玉県,志木市,柏町６丁目２７番３９号,,11,228,3530007,,,,,,,2022-04-18,1,,,,,ユリノキコウムテン,0
1767,6030001147773,新規,0,2022-04-18,2022-04-18,株式会社ヒーローコール,,株式会社,埼玉県,草加市,氷川町２１０２ー７コリンズ上岡ビル５０１号,,11,221,3400034,,,,,,,2022-04-18,1,,,,,ヒーローコール,0
1772,6030003019161,新規,0,2022-04-18,2022-04-18,博衆合同会社,,合同会社,埼玉県,越谷市,平方南町６－８,,11,222,3430001,,,,,,,2022-04-18,1,,,,,ハクシュウ,0
1775,6030005020828,新規,0,2022-04-18,2022-04-18,行政書士法人タッチ,,その他の設立登記法人,埼玉県,さいたま市大宮区,宮町１丁目８６番地１大宮イーストビル５階,,11,103,3300802,,,,,,,2022-04-18,1,,,,,タッチ,0
1800,6050001050959,新規,0,2022-04-18,2022-04-18,株式会社インフィールド,,株式会社,茨城県,古河市,東牛谷４５３－１,,08,204,3060232,,,,,,,2022-04-18,1,,,,,インフィールド,0
1802,6050003006505,新規,0,2022-04-18,2022-04-18,合同会社ＮＩ　ＥＮＴＥＲＰＲＩＳＥＳ,,合同会社,茨城県,坂東市,矢作３１８３番地６,,08,228,3060624,,,,,,,2022-04-18,1,,,,,エヌアイエンタープライゼス,0
1806,6050005013053,新規,0,2022-04-18,2022-04-18,社会福祉法人みらいのこ,,その他の設立登記法人,茨城県,つくばみらい市,小絹１８５番地３,,08,235,3002445,,,,,,,2022-04-18,1,,,,,ミライノコ,0
1812,6070005009982,新規,0,2022-04-18,2022-04-18,特定非営利活動法人めだかの会,,その他の設立登記法人,群馬県,吾妻郡長野原町,大字長野原３３４番地９,,10,424,3771304,,,,,,,2022-04-18,1,,,,,メダカノカイ,0
1821,6100001035260,新規,0,2022-04-18,2022-04-18,ミラミ株式会社,,株式会社,長野県,上田市,中央３丁目６－２９,,20,203,3860012,,,,,,,2022-04-18,1,,,,,ミラミ,0
1839,6120001245262,新規,0,2022-04-18,2022-04-18,２ＬＤＫ株式会社,,株式会社,大阪府,大阪市中央区,南新町２丁目２番１３－２０３号,,27,128,5400024,,,,,,,2022-04-18,1,,,,,ニーエルディケー,0
1849,6120101065429,新規,0,2022-04-18,2022-04-18,ヒックス株式会社,,株式会社,大阪府,堺市中区,東山３５２－１,,27,142,5998247,,,,,,,2022-04-18,1,,,,,ヒックス,0
1850,6120103004657,新規,0,2022-04-18,2022-04-18,合同会社優心,,合同会社,大阪府,堺市中区,東山３７３番地１６,,27,142,5998247,,,,,,,2022-04-18,1,,,,,ユウシン,0
1851,6120105009547,新規,0,2022-04-18,2022-04-18,一般社団法人ＰＲＯＶＩＤＥＮＣＥ,,その他の設立登記法人,大阪府,富田林市,宮町３丁目２００８番地１３,,27,214,5840011,,,,,,,2022-04-18,1,,,,,プロヴィデンス,0
1854,6122001035775,新規,0,2022-04-18,2022-04-18,株式会社Ｙ’ｓ　ＧＡＲＡＧＥ,,株式会社,大阪府,八尾市,佐堂町２丁目３番１５号ＤＧビル２Ｆ,,27,212,5810816,,,,,,,2022-04-18,1,,,,,ワイズガレージ,0
1867,6140001125669,新規,0,2022-04-18,2022-04-18,プライムセンター株式会社,,株式会社,兵庫県,尼崎市,御園町２４番地尼崎第一ビル４０２号,,28,202,6600861,,,,,,,2022-04-18,1,,,,,プライムセンター,0
1888,6180001150812,新規,0,2022-04-18,2022-04-18,株式会社Ｅ＆Ｓ,,株式会社,愛知県,春日井市,桃山町３丁目２９５番地４,,23,206,4860802,,,,,,,2022-04-18,1,,,,,イアンドエス,0
1889,6180001150837,新規,0,2022-04-18,2022-04-18,アイコー株式会社,,株式会社,愛知県,瀬戸市,美濃池町１１３番地,,23,204,4890932,,,,,,,2022-04-18,1,,,,,アイコー,0
1890,6180001150845,新規,0,2022-04-18,2022-04-18,株式会社ユーズコーポレーション,,株式会社,愛知県,一宮市,三ツ井２丁目２７番地の１号,,23,203,4910827,,,,,,,2022-04-18,1,,,,,ユーズコーポレーション,0
1903,6200005013335,新規,0,2022-04-18,2022-04-18,医療法人誠優会,,その他の設立登記法人,岐阜県,岐阜市,芥見嵯峨２丁目１４５番地,,21,201,5013146,,,,,,,2022-04-18,1,,,,,セイユウカイ,0
1911,6220005008655,新規,0,2022-04-18,2022-04-18,一般社団法人北陸配合飼料価格安定基金協会,,その他の設立登記法人,石川県,金沢市,古府１丁目１９７番地,,17,201,9200362,,,,,,福井市花堂中二丁目１７番３号一般社団法人福井県配合飼料価格安定基金協会（3210005000038）、石川県金沢市古府一丁目１９７番地一般社団法人石川県配合飼料価格安定基金協会（2220005000095）、富山市手屋三丁目１０番１５号一般社団法人富山県配合飼料価格安定基金協会（2230005000053）の合併により設立,2022-04-18,1,,,,,ホクリクハイゴウシリョウカカクアンテイキキンキョウカイ,0
1912,6240001059642,新規,0,2022-04-18,2022-04-18,株式会社ＫＬＳ,,株式会社,広島県,広島市安芸区,矢野東１丁目１番４２号,,34,107,7360083,,,,,,,2022-04-18,1,,,,,ケイエルエス,0
1915,6260001036747,新規,0,2022-04-18,2022-04-18,株式会社砂村工務店,,株式会社,岡山県,真庭市,蒜山西茅部４４４番地８,,33,214,7170604,,,,,,,2022-04-18,1,,,,,スナムラコウムテン,0
1916,6260001036763,新規,0,2022-04-18,2022-04-18,株式会社ｉ‐Ｔｒｕｓｔ,,株式会社,岡山県,岡山市南区,新保６８６番地４Ｂ２０１,,33,104,7000945,,,,,,,2022-04-18,1,,,,,アイトラスト,0
1929,6290001097225,新規,0,2022-04-18,2022-04-18,株式会社ＣＲＯＷ,,株式会社,福岡県,福岡市博多区,諸岡４丁目３３番５－１０１号,,40,132,8120894,,,,,,,2022-04-18,1,,,,,クロウ,0
1930,6290001097233,新規,0,2022-04-18,2022-04-18,株式会社みどり,,株式会社,福岡県,福岡市博多区,博多駅南１丁目１５番２５－７０１号,,40,132,8120016,,,,,,,2022-04-18,1,,,,,ミドリ,0
1932,6290005018648,新規,0,2022-04-18,2022-04-18,和奏監査法人,,その他の設立登記法人,福岡県,福岡市中央区,渡辺通５丁目１６番６号ルネッサンスＵＲ南天神２０７,,40,133,8100004,,,,,,,2022-04-18,1,,,,,ワカナ,0
1933,6290801028404,新規,0,2022-04-18,2022-04-18,株式会社Ｂ‐ＭＡＣ,,株式会社,福岡県,築上郡築上町,大字松丸７６６番地,,40,647,8290121,,,,,,,2022-04-18,1,,,,,ビーマック,0
1934,6310001017824,新規,0,2022-04-18,2022-04-18,株式会社要幸電設,,株式会社,長崎県,諫早市,栄田町１１３９番地１,,42,204,8540081,,,,,,,2022-04-18,1,,,,,ヨウコウデンセツ,0
1937,6310003004333,新規,0,2022-04-18,2022-04-18,合同会社セレクト,,合同会社,長崎県,佐世保市,皆瀬町２０３番地５,,42,202,8570144,,,,,,,2022-04-18,1,,,,,セレクト,0
1947,6340001024660,新規,0,2022-04-18,2022-04-18,株式会社ファーム虹,,株式会社,鹿児島県,南さつま市,加世田高橋２０５４番地５,,46,220,8971123,,,,,,,2022-04-18,1,,,,,ファームニジ,0
1949,6340003003761,新規,0,2022-04-18,2022-04-18,合同会社てぃあら,,合同会社,鹿児島県,鹿児島市,宇宿４丁目２７番７号,,46,201,8900073,,,,,,,2022-04-18,1,,,,,ティアラ,0
1950,6350001017705,新規,0,2022-04-18,2022-04-18,株式会社オフィスＬｉｎｋ,,株式会社,宮崎県,宮崎市,花ケ島町南赤江町２１３２番地５,,45,201,8800036,,,,,,,2022-04-18,1,,,,,オフィスリンク,0
1952,6360001030252,新規,0,2022-04-18,2022-04-18,株式会社久高商事,,株式会社,沖縄県,那覇市,三原２丁目２７番２７号ライオンズマンション５０６,,47,201,9020063,,,,,,,2022-04-18,1,,,,,クダカショウウジ,0
1954,6360005006637,新規,0,2022-04-18,2022-04-18,一般社団法人むい自然農園学校,,その他の設立登記法人,沖縄県,国頭郡今帰仁村,字仲尾次５５２番地,,47,306,9050424,,,,,,,2022-04-18,1,,,,,ムイシゼンノウエンガッコウ,0
1956,6370001048483,新規,0,2022-04-18,2022-04-18,株式会社ＳＭＳ,,株式会社,宮城県,仙台市宮城野区,岩切字洞ノ口１９１－２コーポカルチャー１０１号室,,04,102,9830821,,,,,,,2022-04-18,1,,,,,エスエムエス,0
1960,6380003005135,新規,0,2022-04-18,2022-04-18,ＬｉＬｓｅｅｄ合同会社,,合同会社,福島県,福島市,山口字町東６１番地,,07,201,9608202,,,,,,,2022-04-18,1,,,,,リルシード,0
1963,6390001016868,新規,0,2022-04-18,2022-04-18,あかつきコンサルティング株式会社,,株式会社,山形県,天童市,泉町１丁目２番５号,,06,210,9940015,,,,,,,2022-04-18,1,,,,,アカツキコンサルティング,0
1967,6400005008240,新規,0,2022-04-18,2022-04-18,農事組合法人ファームささや,,その他の設立登記法人,岩手県,一関市,赤荻字笹谷７７番地１,,03,209,0210041,,,,,,,2022-04-18,1,,,,,ファームササヤ,0
1976,6430001086452,新規,0,2022-04-18,2022-04-18,株式会社住まい研究所,,株式会社,北海道,小樽市,奥沢１丁目１０番１９号,,01,203,0470013,,,,,,,2022-04-18,1,,,,,スマイケンキュウジョ,0
1977,6430003013818,新規,0,2022-04-18,2022-04-18,合同会社ＰｉｃｋＰｒｉｍｅ,,合同会社,北海道,岩見沢市,四条西２丁目８番地５,,01,210,0680024,,,,,,,2022-04-18,1,,,,,ピックプライム,0
1978,6430005014442,新規,0,2022-04-18,2022-04-18,北海道農業共済組合,,その他の設立登記法人,北海道,札幌市中央区,北四条西１丁目１番地,,01,101,0600004,,,,,,札幌市中央区北四条西一丁目１番地みなみ北海道農業共済組合（8430005013054）と北海道深川市一条５番５号北海道中央農業共済組合（7450005004093）と北海道帯広市川西町基線５９番地２８十勝農業共済組合（5460105000349）と北海道標津郡中標津町西六条南十一丁目６番地１北海道ひがし農業共済組合（1460005001450）と北海道北見市美園４９７番地１オホーツク農業共済組合（6460305001311）の合併により設立,2022-04-18,1,,,,,ホッカイドウ,0
1982,6470003002172,新規,0,2022-04-18,2022-04-18,合同会社コンティノアール,,合同会社,香川県,高松市,屋島西町８６６番地１,,37,201,7610113,,,,,,,2022-04-18,1,,,,,コンティノアール,0
1983,6480001011711,新規,0,2022-04-18,2022-04-18,株式会社和幸ガーデン,,株式会社,徳島県,板野郡北島町,中村字上地２５番地４,,36,402,7710203,,,,,,,2022-04-18,1,,,,,ワコウガーデン,0
1990,6700150108054,新規,0,2022-04-18,2022-04-18,ＪＰＮ　ＥＮＴＥＲＰＲＩＳＥＳ,,外国会社等,神奈川県,大和市,福田１３８０－５Ａ－４,,14,213,2420024,スリランカ民主社会主義共和国、イラッカマム－０３、アンパラロード、１００／１,,,,,,2022-04-18,1,,,,,ジエピエンエンタープライセス,0
2009,7010005034886,新規,0,2022-04-18,2022-04-18,一般社団法人メタトロン国際イノベーションテクノロジー協会,,その他の設立登記法人,東京都,中央区,日本橋富沢町１０番１６号,,13,102,1030006,,,,,,,2022-04-18,1,,,,,メタトロンコクサイイノベーションテクノロジーキョウカイ,0
2016,7010401166572,新規,0,2022-04-18,2022-04-18,株式会社ＥＸビジネス・コンサルティング,,株式会社,東京都,港区,白金３丁目１番１３号日恵ビル２階,,13,103,1080072,,,,,,,2022-04-18,1,,,,,イーエックスビジネスコンサルティング,0
2036,7010703006187,新規,0,2022-04-18,2022-04-18,合同会社ＩＫＵＤＯ,,合同会社,東京都,品川区,西五反田１丁目２６番２号２Ｆ,,13,109,1410031,,,,,,,2022-04-18,1,,,,,イクド,0
2043,7010901050722,新規,0,2022-04-18,2022-04-18,＿森科技株式会社,00126314,株式会社,東京都,世田谷区,成城１丁目２６番９－１０５号,,13,112,1570066,,,,,,,2022-04-18,1,,,,,タイシンカギ,0
2052,7011001146980,新規,0,2022-04-18,2022-04-18,四葉株式会社,,株式会社,東京都,渋谷区,富ヶ谷１丁目１４番１４号４階,,13,113,1510063,,,,,,,2022-04-18,1,,,,,ヨツバ,0
2053,7011001147005,新規,0,2022-04-18,2022-04-18,株式会社ｆｌａｋｅｓ,,株式会社,東京都,渋谷区,渋谷３丁目６－２エクラート渋谷５Ｆ,,13,113,1500002,,,,,,,2022-04-18,1,,,,,フレイクス,0
2054,7011001147021,新規,0,2022-04-18,2022-04-18,アナリスタ株式会社,,株式会社,東京都,渋谷区,宇田川町６－２０パークアクシス渋谷神南５０３,,13,113,1500042,,,,,,,2022-04-18,1,,,,,アナリスタ,0
2060,7011003014566,新規,0,2022-04-18,2022-04-18,ＹＫ　Ｃｏｎｓｕｌｔｉｎｇ合同会社,,合同会社,東京都,渋谷区,道玄坂１丁目１０番８号渋谷道玄坂東急ビル２ＦーＣ,,13,113,1500043,,,,,,,2022-04-18,1,,,,,ワイケイコンサルティング,0
2073,7011501027937,新規,0,2022-04-18,2022-04-18,株式会社楓樹,,株式会社,東京都,北区,浮間４丁目１９番２４号,,13,117,1150051,,,,,,,2022-04-18,1,,,,,フウジュ,0
2082,7012401039114,新規,0,2022-04-18,2022-04-18,株式会社テラウム,,株式会社,東京都,小金井市,関野町２丁目７番８号,,13,210,1840001,,,,,,,2022-04-18,1,,,,,テラウム,0
2092,7013301048931,新規,0,2022-04-18,2022-04-18,株式会社クレスト,,株式会社,東京都,豊島区,池袋４丁目３４番５号,,13,116,1710014,,,,,,,2022-04-18,1,,,,,クレスト,0
2101,7020001146098,新規,0,2022-04-18,2022-04-18,つくばインフラエネルギーサービス株式会社,,株式会社,神奈川県,川崎市幸区,堀川町７２番地３４,,14,132,2120013,,,,,,,2022-04-18,1,,,,,ツクバインフラエネルギーサービス,0
2102,7020001146156,新規,0,2022-04-18,2022-04-18,株式会社ｓｈｏｋｕｕｕ,,株式会社,神奈川県,横浜市青葉区,荏田町２９７番地３－１２０,,14,117,2250013,,,,,,,2022-04-18,1,,,,,ショクー,0
2106,7020003021638,新規,0,2022-04-18,2022-04-18,アオイランドスケープデザイン合同会社,,合同会社,神奈川県,横浜市港北区,菊名５丁目１３番１２号アパートメント５・１０６号室,,14,109,2220011,,,,,,,2022-04-18,1,,,,,アオイランドスケープデザイン,0
2107,7020005015497,新規,0,2022-04-18,2022-04-18,医療法人社団飛翔会,,その他の設立登記法人,神奈川県,川崎市川崎区,東門前１丁目１７番１号クリエイトビル川崎大師１階,,14,131,2100812,,,,,,,2022-04-18,1,,,,,ヒショウカイ,0
2110,7021001075700,新規,0,2022-04-18,2022-04-18,株式会社佐久間商店,,株式会社,神奈川県,藤沢市,辻堂新町２丁目１５番２５号,,14,205,2510042,,,,,,,2022-04-18,1,,,,,サクマショウテン,0
2112,7021003011612,新規,0,2022-04-18,2022-04-18,合同会社Ｍ＆ＭＴｒａｄｅｒｓ,,合同会社,神奈川県,相模原市中央区,相模原４丁目５－２ウインベルソロ９０３,,14,152,2520231,,,,,,,2022-04-18,1,,,,,,0
2122,7030001147772,新規,0,2022-04-18,2022-04-18,株式会社Ａ‐ｍｅｙ,,株式会社,埼玉県,鶴ヶ島市,富士見５丁目２０番１０－５０２号ライオンズマンション若葉台,,11,241,3502201,,,,,,,2022-04-18,1,,,,,エースミー,0
2123,7030001147789,新規,0,2022-04-18,2022-04-18,株式会社シンプリー,,株式会社,埼玉県,戸田市,笹目６丁目１６番地の５カーサ・ルミナス１０１号室,,11,224,3350034,,,,,,,2022-04-18,1,,,,,シンプリー,0
2153,7050001050958,新規,0,2022-04-18,2022-04-18,ライブリーネット株式会社,,株式会社,茨城県,土浦市,荒川沖西２丁目１番地１号さらさ荒川沖７０４,,08,203,3000874,,,,,,,2022-04-18,1,,,,,ライブリーネット,0
2159,7060001034778,新規,0,2022-04-18,2022-04-18,株式会社ＰｌｕｍｅＰｉｅｒｒｅ１３,,株式会社,栃木県,真岡市,大谷台町２番地１サンクレイドル真岡８０５号,,09,209,3214338,,,,,,,2022-04-18,1,,,,,プルームピエールジュウサン,0
2163,7080001024884,新規,0,2022-04-18,2022-04-18,株式会社ＤＩＳ,,株式会社,静岡県,静岡市清水区,蜂ヶ谷南町１番４４号,,22,103,4240004,,,,,,,2022-04-18,1,,,,,ディーアイエス,0
2168,7080401025755,新規,0,2022-04-18,2022-04-18,株式会社プロムステージ,,株式会社,静岡県,浜松市浜北区,内野２１９０番地の２,,22,136,4340044,,,,,,,2022-04-18,1,,,,,プロムステージ,0
2186,7120001245278,新規,0,2022-04-18,2022-04-18,株式会社エスシービルド,,株式会社,大阪府,寝屋川市,点野５丁目１１番１３号Ｂ１ビル点野,,27,215,5720077,,,,,,,2022-04-18,1,,,,,エスシービルド,0
2187,7120001245303,新規,0,2022-04-18,2022-04-18,株式会社Ｍａｒｔｉｎ,,株式会社,大阪府,大阪市中央区,西心斎橋１丁目６番１７号,,27,128,5420086,,,,,,,2022-04-18,1,,,,,マーティン,0
2192,7120003021512,新規,0,2022-04-18,2022-04-18,合同会社ｎｏｒｎ,,合同会社,大阪府,大阪市西成区,鶴見橋３丁目１番１８号,,27,122,5570031,,,,,,,2022-04-18,1,,,,,ノルン,0
2195,7120101065411,新規,0,2022-04-18,2022-04-18,株式会社濱工業,00126312,株式会社,大阪府,羽曳野市,郡戸４１６番地の２,,27,222,5830874,,,,,,,2022-04-18,1,,,,,ハマコウギョウ,0
2204,7122001035774,新規,0,2022-04-18,2022-04-18,株式会社エムエムスリーエステート,,株式会社,大阪府,柏原市,旭ケ丘３丁目１－７８サンハイツ旭ヶ丘２０１,,27,221,5820026,,,,,,,2022-04-18,1,,,,,エムエムスリーエステート,0
2214,7140001125668,新規,0,2022-04-18,2022-04-18,プライムパートナーズ株式会社,,株式会社,兵庫県,尼崎市,御園町２４番地尼崎第一ビル４０２号,,28,202,6600861,,,,,,,2022-04-18,1,,,,,プライムパートナーズ,0
2217,7140003017590,新規,0,2022-04-18,2022-04-18,Ｋｏｒｅａｎ　Ｃｏｓｍｅ　Ｌａｂ．合同会社,,合同会社,兵庫県,尼崎市,浜田町２丁目８４番地堀吉ビル,,28,202,6600062,,,,,,,2022-04-18,1,,,,,コリアンコスメラボ,0
2218,7150005009387,新規,0,2022-04-18,2022-04-18,間美風日台交流一般社団法人,,その他の設立登記法人,奈良県,橿原市,高殿町５２０番地の８,,29,205,6340027,,,,,,,2022-04-18,1,,,,,マミフウニッタイコウリュウ,0
2229,7180001150910,新規,0,2022-04-18,2022-04-18,株式会社無限,,株式会社,愛知県,名古屋市名東区,西里町５丁目１０番地,,23,115,4650084,,,,,,,2022-04-18,1,,,,,ムゲン,0
2230,7180001150943,新規,0,2022-04-18,2022-04-18,ｕｌｕ株式会社,,株式会社,愛知県,名古屋市中川区,戸田４丁目１５０４番地の５（カーサトダＥ号）,,23,110,4540962,,,,,,,2022-04-18,1,,,,,ウル,0
2231,7180001150951,新規,0,2022-04-18,2022-04-18,ＳＧＥ株式会社,,株式会社,愛知県,名古屋市中区,大須１丁目７番１４号２Ｆ,,23,106,4600011,,,,,,,2022-04-18,1,,,,,エスジーイー,0
2233,7180003023718,新規,0,2022-04-18,2022-04-18,合同会社いろどり,,合同会社,愛知県,名古屋市緑区,ほら貝２丁目８２番地の３グローリアスほら貝５１１号,,23,114,4580013,,,,,,,2022-04-18,1,,,,,イロドリ,0
2237,7180005019714,新規,0,2022-04-18,2022-04-18,ＮＰＯ法人みらいテラス,,その他の設立登記法人,愛知県,大府市,長草町田面８４番地１０,,23,223,4740052,,,,,,,2022-04-18,1,,,,,ミライテラス,0
2241,7180305009332,新規,0,2022-04-18,2022-04-18,行政書士法人ｆｅｌｉｃｉａ,,その他の設立登記法人,愛知県,碧南市,源氏神明町２８７番地,,23,209,4470872,,,,,,,2022-04-18,1,,,,,フェリシア,0
2244,7190003003958,新規,0,2022-04-18,2022-04-18,合同会社ＰｏＤ’ｓ,,合同会社,三重県,津市,一身田豊野１４０６番地５７９,,24,201,5140115,,,,,,,2022-04-18,1,,,,,ピーオーディーズ,0
2254,7240001059641,新規,0,2022-04-18,2022-04-18,Ｈ．Ｄ．Ｋ株式会社,,株式会社,広島県,広島市中区,江波東１丁目２番５号,,34,101,7300832,,,,,,,2022-04-18,1,,,,,エイチディーケー,0
2271,7290005018647,新規,0,2022-04-18,2022-04-18,医療法人優尚会,,その他の設立登記法人,福岡県,大牟田市,明治町１丁目２－１,,40,202,8360012,,,,,,,2022-04-18,1,,,,,ユウショウカイ,0
2278,7310003004332,新規,0,2022-04-18,2022-04-18,合同会社三岳,,合同会社,長崎県,西彼杵郡長与町,高田郷８５８番地３３,00126308,42,307,8512127,,,,,,,2022-04-18,1,,,,,ミタケ,0
2291,7370001048458,新規,0,2022-04-18,2022-04-18,株式会社吉光工業,,株式会社,宮城県,塩竈市,東玉川町１－６,,04,203,9850036,,,,,,,2022-04-18,1,,,,,ヨシミツコウギョウ,0
2305,7430003013817,新規,0,2022-04-18,2022-04-18,合同会社ＭＲＳ,,合同会社,北海道,札幌市中央区,伏見４丁目５－５クリオ伏見ホームズ１０１,,01,101,0640942,,,,,,,2022-04-18,1,,,,,エムアールエス,0
2311,7480001011710,新規,0,2022-04-18,2022-04-18,株式会社上久保設備設計,,株式会社,徳島県,徳島市,川内町平石若松６２番地の１０,,36,201,7710135,,,,,,,2022-04-18,1,,,,,ウワクボセツビセッケイ,0
2316,7500001024148,新規,0,2022-04-18,2022-04-18,株式会社ジョージベスト,,株式会社,愛媛県,松山市,三番町３丁目７番地１クレアホームズ松山ランドマークタワー１７０１,,38,201,7900003,,,,,,,2022-04-18,1,,,,,ジョージベスト,0
2319,7700150108053,新規,0,2022-04-18,2022-04-18,ＴＥＣＨ　ＺＯＮＥ　ＥＮＴＥＲＰＲＩＳＥＳ,,外国会社等,神奈川県,海老名市,東柏ケ谷２丁目１９－３７ハヤシハイツ１０２,,14,215,2430401,スリランカ民主社会主義共和国、キャンディー、アクラナ、ドゥヌウィラロード、１５０,,,,,,2022-04-18,1,,,,,テクゾンエンタープライズ,0
2329,8010005034893,新規,0,2022-04-18,2022-04-18,一般社団法人ハウス４８,,その他の設立登記法人,東京都,千代田区,丸の内３丁目１番１号東京共同会計事務所内,,13,101,1000005,,,,,,,2022-04-18,1,,,,,ハウスヨンジュウハチ,0
2348,8010903007307,新規,0,2022-04-18,2022-04-18,ＴＭ区画合同会社,,合同会社,東京都,世田谷区,大蔵１丁目８番１８号エスト大蔵４０２,,13,112,1570074,,,,,,,2022-04-18,1,,,,,ティーエムクカク,0
2356,8011001146988,新規,0,2022-04-18,2022-04-18,株式会社Ｂ’ＨＯＵＳＥ,,株式会社,東京都,渋谷区,神南１丁目２０番１３号,,13,113,1500041,,,,,,,2022-04-18,1,,,,,ビーハウス,0
2357,8011001147020,新規,0,2022-04-18,2022-04-18,株式会社Ｐｏｋｓｈａ,,株式会社,東京都,渋谷区,渋谷２丁目１９－１５宮益坂ビルディング６０９,,13,113,1500002,,,,,,,2022-04-18,1,,,,,ポークシャ,0
2358,8011001147029,新規,0,2022-04-18,2022-04-18,ポールスター・パートナー株式会社,,株式会社,東京都,目黒区,柿の木坂２丁目６番３号,,13,110,1520022,,,,,,,2022-04-18,1,,,,,ポールスターパートナー,0
2360,8011003014508,新規,0,2022-04-18,2022-04-18,ハイフ合同会社,,合同会社,東京都,目黒区,八雲２丁目２４番２号コンフォート２０１,,13,110,1520023,,,,,,,2022-04-18,1,,,,,ハイフ,0
2361,8011003014557,新規,0,2022-04-18,2022-04-18,合同会社ホリゾント,,合同会社,東京都,目黒区,青葉台２丁目５番１８号コートアビ１０１,,13,110,1530042,,,,,,,2022-04-18,1,,,,,ホリゾント,0
2362,8011003014565,新規,0,2022-04-18,2022-04-18,合同会社私の家,,合同会社,東京都,目黒区,柿の木坂１丁目３４番２号,,13,110,1520022,,,,,,,2022-04-18,1,,,,,ワタシノイエ,0
2367,8011201023756,新規,0,2022-04-18,2022-04-18,スパークネクト株式会社,,株式会社,東京都,中野区,本町６丁目２１番１５号アクセス新中野ＩＩ１階,00126302,13,114,1640012,,,,,,,2022-04-18,1,,,,,スパークネクト,0
2373,8011603003579,新規,0,2022-04-18,2022-04-18,和正合同会社,,合同会社,東京都,練馬区,東大泉６丁目２３番３号,,13,120,1780063,,,,,,,2022-04-18,1,,,,,カズマサ,0
2376,8012303001658,新規,0,2022-04-18,2022-04-18,合同会社為我井工業,,合同会社,東京都,町田市,大蔵町４１９番地１,,13,209,1950062,,,,,,,2022-04-18,1,,,,,タメガイコウギョウ,0
2378,8012701017033,新規,0,2022-04-18,2022-04-18,株式会社ＮａＬｕ,,株式会社,東京都,小平市,花小金井南町１丁目３番１１－Ａ３０８号,,13,211,1870003,,,,,,,2022-04-18,1,,,,,ナル,0
2385,8013301048971,新規,0,2022-04-18,2022-04-18,株式会社ＴＡＹ,,株式会社,東京都,豊島区,東池袋３丁目１１番９号三島ビル３階,,13,116,1700013,,,,,,,2022-04-18,1,,,,,ティーエーワイ,0
2389,8020001146155,新規,0,2022-04-18,2022-04-18,ランドマルシエ株式会社,,株式会社,神奈川県,川崎市川崎区,渡田向町１５番２号,,14,131,2100841,,,,,,,2022-04-18,1,,,,,ランドマルシエ,0
2397,8020005015496,新規,0,2022-04-18,2022-04-18,一般社団法人エンベット,,その他の設立登記法人,神奈川県,横浜市金沢区,富岡東６丁目２２番２８号,,14,108,2360051,,,,,,,2022-04-18,1,,,,,エンベット,0
2417,8030001147739,新規,0,2022-04-18,2022-04-18,株式会社ＭＯＳＴ,,株式会社,埼玉県,ふじみ野市,鶴ケ岡５丁目１４番１号,,11,245,3560045,,,,,,,2022-04-18,1,,,,,モスト,0
2418,8030001147755,新規,0,2022-04-18,2022-04-18,株式会社Ｎｅｉｇｂｏｒ,,株式会社,埼玉県,川越市,新宿町６丁目２番地１０,,11,201,3501124,,,,,,,2022-04-18,1,,,,,ネイバー,0
2419,8030001147763,新規,0,2022-04-18,2022-04-18,株式会社三禄,,株式会社,埼玉県,川口市,朝日６丁目１９番７号,,11,203,3320001,,,,,,,2022-04-18,1,,,,,ミロク,0
2430,8030003019242,新規,0,2022-04-18,2022-04-18,合同会社トリプルエー,,合同会社,埼玉県,さいたま市浦和区,大東３丁目４０番２号,,11,107,3300043,,,,,,,2022-04-18,1,,,,,トリプルエー,0
2432,8030005020826,新規,0,2022-04-18,2022-04-18,医療法人桜健会,,その他の設立登記法人,埼玉県,川口市,大字長蔵新田７６４番地８戸塚安行医療モール１０１・２０１,,11,203,3330808,,,,,,,2022-04-18,1,,,,,オウケンカイ,0
2446,8040005021567,新規,0,2022-04-18,2022-04-18,地方独立行政法人香取おみがわ医療センター,,その他の設立登記法人,千葉県,香取市,南原地新田４３８番地１,,12,236,2890332,,,,,,,2022-04-18,1,,,,,カトリオミガワイリョウセンター,0
2476,8100003006506,新規,0,2022-04-18,2022-04-18,信州いけだファーム合同会社,,合同会社,長野県,長野市,篠ノ井東福寺１９５７,,20,201,3888002,,,,,,,2022-04-18,1,,,,,シンシュウイケダファーム,0
2481,8110005016790,新規,0,2022-04-18,2022-04-18,医療法人社団やまと日高見会,,その他の設立登記法人,新潟県,新潟市中央区,紫竹山６丁目２番２６号,,15,103,9500914,,,,,,,2022-04-18,1,,,,,ヤマトヒダカミカイ,0
2491,8120001245013,新規,0,2022-04-18,2022-04-18,株式会社ジャスティス不動産販売,,株式会社,大阪府,門真市,上野口町２２番１６号,,27,223,5710070,,,,,,,2022-04-18,1,,,,,ジャスティスフドウサンハンバイ,0
2492,8120001245285,新規,0,2022-04-18,2022-04-18,鶴見不動産流通株式会社,,株式会社,大阪府,大阪市鶴見区,今津南１丁目９番２号,,27,124,5380043,,,,,,,2022-04-18,1,,,,,ツルミフドウサンリュウツウ,0
2496,8120003021528,新規,0,2022-04-18,2022-04-18,合同会社Ａｖｉｏｒ,,合同会社,大阪府,大阪市北区,豊崎７丁目６番４－１３０３号,,27,127,5310072,,,,,,,2022-04-18,1,,,,,アヴィオール,0
2498,8120101065402,新規,0,2022-04-18,2022-04-18,株式会社彩,,株式会社,大阪府,和泉市,富秋町２丁目２６－１３,,27,219,5940082,,,,,,,2022-04-18,1,,,,,サイ,0
2499,8120101065410,新規,0,2022-04-18,2022-04-18,株式会社いい暮らし,,株式会社,大阪府,松原市,小川５丁目１番１１号,,27,217,5800002,,,,,,,2022-04-18,1,,,,,イイクラシ,0
2501,8120901045859,新規,0,2022-04-18,2022-04-18,アッシュ株式会社,,株式会社,大阪府,豊中市,新千里北町３丁目１番２号,,27,203,5600081,,,,,,,2022-04-18,1,,,,,アッシュ,0
2507,8122003002318,新規,0,2022-04-18,2022-04-18,ゴーキーグループ合同会社,,合同会社,大阪府,東大阪市,衣摺３丁目１６番１５号,,27,227,5770827,,,,,,,2022-04-18,1,,,,,ゴーキーグループ,0
2511,8130005016450,新規,0,2022-04-18,2022-04-18,医療法人西大路五条もとよしクリニック,,その他の設立登記法人,京都府,京都市右京区,西院東中水町１４番地,,26,108,6160000,,,,,,,2022-04-18,1,,,,,ニシオオジモトヨシクリニック,0
2518,8140001125650,新規,0,2022-04-18,2022-04-18,株式会社ハイフィールド,,株式会社,兵庫県,西宮市,苦楽園二番町１２番２０－１０４号,,28,204,6620082,,,,,,,2022-04-18,1,,,,,ハイフィールド,0
2536,8180001150851,新規,0,2022-04-18,2022-04-18,株式会社エンパワメント,,株式会社,愛知県,名古屋市中区,錦１丁目８番４９号カスタリア伏見１３０３,,23,106,4600003,,,,,,,2022-04-18,1,,,,,エンパワメント,0
2537,8180001150868,新規,0,2022-04-18,2022-04-18,株式会社響,,株式会社,愛知県,名古屋市中区,新栄１丁目２０番２７号,,23,106,4600007,,,,,,,2022-04-18,1,,,,,ヒビキ,0
2538,8180001150942,新規,0,2022-04-18,2022-04-18,株式会社松原調査,,株式会社,愛知県,名古屋市中川区,柳島町５丁目４７番地,,23,110,4540024,,,,,,,2022-04-18,1,,,,,マツバラチョウサ,0
2539,8180001150959,新規,0,2022-04-18,2022-04-18,大桐板金株式会社,,株式会社,愛知県,知多郡武豊町,字鹿ノ子田１丁目３７番地４,,23,447,4702302,,,,,,,2022-04-18,1,,,,,ダイトウバンキン,0
2541,8180003023709,新規,0,2022-04-18,2022-04-18,合同会社イーアイエステート,,合同会社,愛知県,名古屋市瑞穂区,彌富町字月見ケ岡４５番地,,23,108,4670035,,,,,,,2022-04-18,1,,,,,イーアイエステート,0
2542,8180003023717,新規,0,2022-04-18,2022-04-18,アンドエム合同会社,,合同会社,愛知県,名古屋市天白区,表山１丁目３０１番地,,23,116,4680069,,,,,,,2022-04-18,1,,,,,アンドエム,0
2546,8180301036123,新規,0,2022-04-18,2022-04-18,ＺｅｎＷａ株式会社,,株式会社,愛知県,安城市,今池町１丁目１９－１３ＦＸビル１０５,,23,212,4460071,,,,,,,2022-04-18,1,,,,,ゼンワ,0
2553,8200005013333,新規,0,2022-04-18,2022-04-18,農事組合法人池尻営農,,その他の設立登記法人,岐阜県,関市,池尻１２９７番地,,21,205,5013264,,,,,,,2022-04-18,1,,,,,イケジリエイノウ,0
2565,8240001059640,新規,0,2022-04-18,2022-04-18,廣島総研株式会社,,株式会社,広島県,広島市東区,牛田新町４丁目１３番１－７０５号,,34,102,7320068,,,,,,,2022-04-18,1,,,,,ヒロシマソウケン,0
2577,8260005011075,新規,0,2022-04-18,2022-04-18,一般社団法人ＥＭＯ．ＪＰ,,その他の設立登記法人,岡山県,岡山市中区,＿東町１丁目１番１号,00126318,33,102,7038247,,,,,,,2022-04-18,1,,,,,イーエムオードットジェイピー,0
2584,8290001097108,新規,0,2022-04-18,2022-04-18,九州フジ化工株式会社,,株式会社,福岡県,飯塚市,椋本５９４番地５６,,40,205,8200077,,,,,,,2022-04-18,1,,,,,キュウシュウフジカコウ,0
2590,8290803004104,新規,0,2022-04-18,2022-04-18,合同会社Ｍｉｃ　Ｓｔｙｌｅ,,合同会社,福岡県,北九州市小倉北区,金鶏町１２－３,,40,106,8030843,,,,,,,2022-04-18,1,,,,,ミックスタイル,0
2595,8310001017822,新規,0,2022-04-18,2022-04-18,株式会社ＳＨＩＮＫＯＨ,,株式会社,長崎県,長崎市,鶴見台１丁目１０番５号,,42,201,8500984,,,,,,,2022-04-18,1,,,,,シンコー,0
2602,8340001024659,新規,0,2022-04-18,2022-04-18,株式会社Ｓｙｎｅｒｇｙ　Ｃｒｅａｔｉｏｎ,,株式会社,鹿児島県,薩摩川内市,東郷町斧渕３１５番地,,46,215,8951106,,,,,,,2022-04-18,1,,,,,シナジークリエーション,0
2603,8340001024667,新規,0,2022-04-18,2022-04-18,グリーンズロッジ株式会社,,株式会社,鹿児島県,志布志市,有明町伊崎田５０６２番地,,46,221,8997401,,,,,,,2022-04-18,1,,,,,グリーンズロッジ,0
2607,8360001030267,新規,0,2022-04-18,2022-04-18,株式会社インサイトクルー,,株式会社,沖縄県,那覇市,久茂地２丁目２番２号,,47,201,9000015,,,,,,,2022-04-18,1,,,,,,0
2608,8360003011975,新規,0,2022-04-18,2022-04-18,Ｇａｚｏｎ　ｖｅｒｔ合同会社,,合同会社,沖縄県,那覇市,宇栄原２丁目１５番１６号,,47,201,9010153,,,,,,,2022-04-18,1,,,,,ガゾンヴェール,0
2617,8380003005158,新規,0,2022-04-18,2022-04-18,合同会社ＡＳ　ｃｏ．ｌｔｄ,,合同会社,福島県,福島市,宮代字中川原２７番地の１,,07,201,9600116,,,,,,,2022-04-18,1,,,,,,0
2625,8430001086442,新規,0,2022-04-18,2022-04-18,株式会社Ｈｉｇｈ　Ｉｍｐａｃｔ,,株式会社,北海道,千歳市,豊里５丁目９番５号,,01,224,0660022,,,,,,,2022-04-18,1,,,,,ハイインパクト,0
2627,8430005014449,新規,0,2022-04-18,2022-04-18,弁護士法人アンビシャス総合法律事務所,,その他の設立登記法人,北海道,札幌市中央区,大通西１１丁目４‐２２第２大通藤井ビル８階,,01,101,0600042,,,,,,,2022-04-18,1,,,,,アンビシャスソウゴウホウリツジムショ,0
2629,8460003000893,新規,0,2022-04-18,2022-04-18,合同会社沙久楽,,合同会社,北海道,釧路市,新川町１７番４３１１号新川公住Ｓ２－３１１号室,,01,206,0850047,,,,,,,2022-04-18,1,,,,,サクラ,0
2630,8460301005058,新規,0,2022-04-18,2022-04-18,株式会社メイドインオホーツク,,株式会社,北海道,常呂郡訓子府町,東町２８９番地,,01,549,0991431,,,,,,,2022-04-18,1,,,,,メイドインオホーツク,0
2640,9010001225826,新規,0,2022-04-18,2022-04-18,株式会社Ｐｕｒｅ．ｉ,,株式会社,東京都,中央区,銀座１丁目２２番１１号銀座大竹ビジデンス２階,,13,102,1040061,,,,,,,2022-04-18,1,,,,,ピュアアイ,0
2641,9010001225850,新規,0,2022-04-18,2022-04-18,ａｕエネルギー＆ライフ株式会社,,株式会社,東京都,千代田区,飯田橋３丁目１０番１０号,,13,101,1020072,,,,,,,2022-04-18,1,,,,,エーユーエネルギーアンドライフ,0
2644,9010003037501,新規,0,2022-04-18,2022-04-18,合同会社ＥＡＧＬＥ,,合同会社,東京都,中央区,銀座１丁目２２－１１－２Ｆ,,13,102,1040061,,,,,,,2022-04-18,1,,,,,イーグル,0
2648,9010005034827,新規,0,2022-04-18,2022-04-18,一般社団法人全国過疎地域連盟,,その他の設立登記法人,東京都,千代田区,内神田１丁目５番４号,,13,101,1010047,,,,,,,2022-04-18,1,,,,,ゼンコクカソチイキレンメイ,0
2657,9010405020889,新規,0,2022-04-18,2022-04-18,医療法人社団ＫＡＵＮＩＳ,,その他の設立登記法人,東京都,港区,南青山５丁目２番１２号Ｇビル南青山０３Ａ－ＩＩＩ区画２階,00126303,13,103,1070062,,,,,,,2022-04-18,1,,,,,カウニス,0
2665,9010603009494,新規,0,2022-04-18,2022-04-18,吾郷合同会社,,合同会社,東京都,江東区,豊洲５丁目１番１３－１５２６号,,13,108,1350061,,,,,,,2022-04-18,1,,,,,アゴウ,0
2674,9010903007306,新規,0,2022-04-18,2022-04-18,ＱＭＣ合同会社,,合同会社,東京都,世田谷区,若林３丁目６番２６号,,13,112,1540023,,,,,,,2022-04-18,1,,,,,キューエムシー,0
2676,9011001146938,新規,0,2022-04-18,2022-04-18,株式会社ロクマル,,株式会社,東京都,目黒区,中目黒１丁目１－５０ＴＭフラッツ２０１,,13,110,1530061,,,,,,,2022-04-18,1,,,,,ロクマル,0
2689,9011503005138,新規,0,2022-04-18,2022-04-18,合同会社新原貿易,,合同会社,東京都,北区,浮間３丁目１番４１号２Ｆ田口ビル,,13,117,1150051,,,,,,,2022-04-18,1,,,,,ニイハラボウエキ,0
2691,9011603003578,新規,0,2022-04-18,2022-04-18,ケルソン合同会社,,合同会社,東京都,練馬区,光が丘３丁目９番１－４０７号,,13,120,1790072,,,,,,,2022-04-18,1,,,,,ケルソン,0
2695,9011801040605,新規,0,2022-04-18,2022-04-18,株式会社ブルド,,株式会社,東京都,足立区,綾瀬２丁目１１番１２号,,13,121,1200005,,,,,,,2022-04-18,1,,,,,ブルド,0
2699,9012805003110,新規,0,2022-04-18,2022-04-18,一般社団法人メタドリーム,,その他の設立登記法人,東京都,国分寺市,本町２丁目１６番２号エクレールコート国分寺７０３,,13,214,1850012,,,,,,,2022-04-18,1,,,,,メタドリーム,0
2708,9020001146170,新規,0,2022-04-18,2022-04-18,株式会社ＢＩＳＫＥＹ,,株式会社,神奈川県,横浜市都筑区,荏田東１丁目１番４６－２０１号,,14,118,2240006,,,,,,,2022-04-18,1,,,,,ビスキー,0
2709,9020001146195,新規,0,2022-04-18,2022-04-18,Ｖｉｓｉｏｎ　ｓｕｐｐｏｒｔ株式会社,,株式会社,神奈川県,横浜市中区,本町３丁目２４番,,14,104,2310005,,,,,,,2022-04-18,1,,,,,ヴィジョンサポート,0
2715,9020003021636,新規,0,2022-04-18,2022-04-18,合同会社Ｏｒｄｅｒ,,合同会社,神奈川県,横浜市神奈川区,西寺尾３丁目２－２４,,14,102,2210001,,,,,,,2022-04-18,1,,,,,オーダー,0
2716,9020003021644,新規,0,2022-04-18,2022-04-18,ＤＡＴＴＡＲＵＪＩＮ合同会社,,合同会社,神奈川県,横浜市西区,みなとみらい３丁目７番１号オーシャンゲートみなとみらい８階,,14,103,2200012,,,,,,,2022-04-18,1,,,,,ダッタルジン,0
2717,9020005015495,新規,0,2022-04-18,2022-04-18,一般社団法人Ｒ福祉活動の会,,その他の設立登記法人,神奈川県,横浜市中区,山下町７４－１大和地所ビル９Ｆ,,14,104,2310023,,,,,,,2022-04-18,1,,,,,アールフクシカツドウノカイ,0
2732,9030001147738,新規,0,2022-04-18,2022-04-18,ＫＢＬ株式会社,,株式会社,埼玉県,上尾市,春日１丁目３番４号,,11,219,3620074,,,,,,,2022-04-18,1,,,,,ケービーエル,0
2733,9030001147762,新規,0,2022-04-18,2022-04-18,株式会社ＲＭＣ,,株式会社,埼玉県,草加市,小山２丁目１２番２号,,11,221,3400045,,,,,,,2022-04-18,1,,,,,アールエムシー,0
2734,9030001147770,新規,0,2022-04-18,2022-04-18,株式会社Ｌｉｅｎ　ｃｏｌｌａｇｅ,,株式会社,埼玉県,朝霞市,幸町３丁目３番３７号,,11,227,3510015,,,,,,,2022-04-18,1,,,,,リアンコラージュ,0
2735,9030001147779,新規,0,2022-04-18,2022-04-18,株式会社大澤プロジェクト,,株式会社,埼玉県,蕨市,南町３丁目４－５－２０６号,,11,223,3350003,,,,,,,2022-04-18,1,,,,,オオサワプロジェクト,0
2741,9030003019175,新規,0,2022-04-18,2022-04-18,グッドシャインアセット合同会社,,合同会社,埼玉県,川越市,旭町１丁目６番地３３,,11,201,3501126,,,,,,,2022-04-18,1,,,,,グッドシャインアセット,0
2742,9030003019241,新規,0,2022-04-18,2022-04-18,合同会社Ｆｉｒｓｔ　Ｓｔｅｐ,,合同会社,埼玉県,さいたま市緑区,原山３丁目３番１３号,,11,109,3360931,,,,,,,2022-04-18,1,,,,,ファーストステップ,0
2746,9030005020775,新規,0,2022-04-18,2022-04-18,医療法人社団聡慶会,,その他の設立登記法人,埼玉県,上尾市,大字小敷谷８８０番地上尾東光ビル１階,,11,219,3620064,,,,,,,2022-04-18,1,,,,,ソウケイカイ,0
2747,9030005020817,新規,0,2022-04-18,2022-04-18,医療法人社団三衆会,,その他の設立登記法人,埼玉県,熊谷市,万吉９８４番地１,,11,202,3600161,,,,,,,2022-04-18,1,,,,,サンシュウカイ,0
2748,9030005020825,新規,0,2022-04-18,2022-04-18,星野国際事業協同組合,,その他の設立登記法人,埼玉県,越谷市,七左町６丁目６－２号,,11,222,3430851,,,,,,,2022-04-18,1,,,,,ホシノコクサイ,0
2756,9040001123052,新規,0,2022-04-18,2022-04-18,株式会社ＡＲＩＫＩ,,株式会社,千葉県,我孫子市,都１番地の１６,,12,222,2701102,,,,,,,2022-04-18,1,,,,,アリキ,0
2764,9040003019892,新規,0,2022-04-18,2022-04-18,合同会社ＰＡＴＨＩＮＡＹＡＫＥ　ＣＯＮＳＴＲＵＣＴＩＯＮＳ,,合同会社,千葉県,山武市,湯坂３５番地２２,,12,237,2891328,,,,,,,2022-04-18,1,,,,,パティナヤケコンストラクションズ,0
2770,9060001034768,新規,0,2022-04-18,2022-04-18,Ｒｅｌａ株式会社,,株式会社,栃木県,宇都宮市,清原台２丁目７番６号,,09,201,3213223,,,,,,,2022-04-18,1,,,,,リーレ,0
2771,9060001034776,新規,0,2022-04-18,2022-04-18,アスエムワークス株式会社,,株式会社,栃木県,宇都宮市,上横田７４４番地１２,,09,201,3210000,,,,,,,2022-04-18,1,,,,,アイエムワークス,0
2779,9080101023223,新規,0,2022-04-18,2022-04-18,株式会社マナビオン,,株式会社,静岡県,御殿場市,永塚２２９番地の５７,,22,215,4120007,,,,,,,2022-04-18,1,,,,,マナビオン,0
2780,9080405007450,新規,0,2022-04-18,2022-04-18,医療法人社団ウェルパートナー,,その他の設立登記法人,静岡県,磐田市,赤池１７０番地２,,22,211,4380824,,,,,,,2022-04-18,1,,,,,ウェルパートナー,0
2781,9090001017530,新規,0,2022-04-18,2022-04-18,株式会社ブッダプログラム,,株式会社,山梨県,甲府市,高畑２丁目１８番１１号ポレスターブロードシティ高畑６０６,,19,201,4000042,,,,,,,2022-04-18,1,,,,,ブッダプログラム,0
2800,9120001245284,新規,0,2022-04-18,2022-04-18,株式会社Ｋ．Ｔリサイクル,,株式会社,大阪府,大阪市東淀川区,東中島２丁目８番６号,,27,114,5330033,,,,,,,2022-04-18,1,,,,,ケイティリサイクル,0
2801,9120001245292,新規,0,2022-04-18,2022-04-18,株式会社夏山組,,株式会社,大阪府,大阪市西淀川区,福町１丁目１１番１２号,,27,113,5550034,,,,,,,2022-04-18,1,,,,,ナツヤマグミ,0
2805,9120003021477,新規,0,2022-04-18,2022-04-18,合同会社ヨシオカ,,合同会社,大阪府,大阪市淀川区,新高２丁目１９番２,,27,123,5320033,,,,,,,2022-04-18,1,,,,,ヨシオカ,0
2818,9120903004119,新規,0,2022-04-18,2022-04-18,合同会社くすの木,,合同会社,大阪府,三島郡島本町,水無瀬２丁目３番３－６０５号,,27,301,6180014,,,,,,,2022-04-18,1,,,,,クスノキ,0
2825,9130001071556,新規,0,2022-04-18,2022-04-18,株式会社Ａｇｉｌｅ　Ｍａｎａｇｅｍｅｎｔ,,株式会社,京都府,宇治市,広野町新成田１００番地の１７,,26,204,6110031,,,,,,,2022-04-18,1,,,,,アジャイルマネジメント,0
2837,9140001125666,新規,0,2022-04-18,2022-04-18,株式会社フリーエンタープライズ,,株式会社,兵庫県,神戸市中央区,御幸通４丁目１番１５号,,28,110,6510087,,,,,,,2022-04-18,1,,,,,フリーエンタープライズ,0
2838,9140001125708,新規,0,2022-04-18,2022-04-18,株式会社トライピークス,,株式会社,兵庫県,神戸市垂水区,舞多聞西１丁目４番１号,,28,108,6550051,,,,,,,2022-04-18,1,,,,,トライピークス,0
2857,9180001150941,新規,0,2022-04-18,2022-04-18,株式会社アオハル’ＣＯ．,,株式会社,愛知県,名古屋市中村区,則武２丁目１９番８号名駅アイリス弐番館３０２号,,23,105,4530014,,,,,,,2022-04-18,1,,,,,アオハルシーオー,0
2858,9180001150958,新規,0,2022-04-18,2022-04-18,株式会社トウケン,,株式会社,愛知県,名古屋市名東区,貴船２丁目１２１４番地,,23,115,4650058,,,,,,,2022-04-18,1,,,,,トウケン,0
2863,9180003023708,新規,0,2022-04-18,2022-04-18,アスパワー労務合同会社,,合同会社,愛知県,名古屋市中区,錦１丁目３番２８号プラセシオン名古屋伏見２０５号,,23,106,4600003,,,,,,,2022-04-18,1,,,,,アスパワーロウム,0
2869,9180303005307,新規,0,2022-04-18,2022-04-18,合同会社ＫｅｙＲｏｏｍ,,合同会社,愛知県,豊橋市,牟呂水神町１５番地３ＦｌｅｅｔＡ棟１０３号室,,23,201,4418091,,,,,,,2022-04-18,1,,,,,,0
2874,9200001039983,新規,0,2022-04-18,2022-04-18,株式会社ザスリー,,株式会社,岐阜県,岐阜市,長良福光１６４５番地１０,,21,201,5020817,,,,,,,2022-04-18,1,,,,,ザスリー,0
2881,9210005010023,新規,0,2022-04-18,2022-04-18,医療法人白聖会,,その他の設立登記法人,福井県,福井市,高木中央２丁目７０１番地,,18,201,9100804,,,,,,,2022-04-18,1,,,,,ハクセイカイ,0
2889,9250005008740,新規,0,2022-04-18,2022-04-18,農事組合法人伊佐中央ふれ愛ファーム,,その他の設立登記法人,山口県,美祢市,伊佐町伊佐３２８０番地,,35,213,7592222,,,,,,,2022-04-18,1,,,,,イサチュウオウフレアイファーム,0
2890,9260001036760,新規,0,2022-04-18,2022-04-18,株式会社大洋開発,,株式会社,岡山県,笠岡市,入江８２番地７,,33,205,7140041,,,,,,,2022-04-18,1,,,,,タイヨウカイハツ,0
2901,9290001097222,新規,0,2022-04-18,2022-04-18,株式会社Ｏ企画,,株式会社,福岡県,福岡市博多区,吉塚４丁目５番１２号,,40,132,8120041,,,,,,,2022-04-18,1,,,,,オーキカク,0
2903,9290005018645,新規,0,2022-04-18,2022-04-18,一般財団法人双恩育英財団,,その他の設立登記法人,福岡県,福岡市博多区,博多駅南２丁目８－３５,,40,132,8120016,,,,,,,2022-04-18,1,,,,,ソウオンイクエイザイダン,0
2907,9320003003769,新規,0,2022-04-18,2022-04-18,太一商会合同会社,,合同会社,大分県,大分市,大在北１丁目９－３３－１,,44,201,8700245,,,,,,,2022-04-18,1,,,,,タイチショウカイ,0
2910,9340001024666,新規,0,2022-04-18,2022-04-18,株式会社ＬＡＢＯＸ,,株式会社,鹿児島県,鹿児島市,田上台１丁目１８番１４号,,46,201,8900036,,,,,,,2022-04-18,1,,,,,ラボックス,0
2912,9360003011933,新規,0,2022-04-18,2022-04-18,合同会社ＮＩＣＨＥＲＳ,,合同会社,沖縄県,石垣市,字大川２７８番地ＴＡＭＡビルＩＩ２Ｆ２０１号,00126309,47,207,9070022,,,,,,,2022-04-18,1,,,,,ニッチャーズ,0
2915,9370001048464,新規,0,2022-04-18,2022-04-18,株式会社ウォンツ,,株式会社,宮城県,富谷市,杜乃橋１丁目２番地５,,04,216,9813363,,,,,,,2022-04-18,1,,,,,ウォンツ,0
2931,9390003001948,新規,0,2022-04-18,2022-04-18,合同会社エスキャット,,合同会社,山形県,酒田市,亀ケ崎７丁目１５番３０号,,06,204,9980842,,,,,,,2022-04-18,1,,,,,エスキャット,0
2935,9430003013823,新規,0,2022-04-18,2022-04-18,ソウガク合同会社,,合同会社,北海道,札幌市北区,北七条西４丁目１－１トーカン札幌第一キャステール６０７,,01,102,0600807,,,,,,,2022-04-18,1,,,,,ソウガク,0
2937,9480001011709,新規,0,2022-04-18,2022-04-18,偉業商事株式会社,,株式会社,徳島県,板野郡板野町,中久保字杉ノ本９番地６,,36,404,7790117,,,,,,,2022-04-18,1,,,,,イギョウショウジ,0
2939,9700150108051,新規,0,2022-04-18,2022-04-18,ＭＡＮＮＡＮ　ＡＵＴＯ　ＥＮＴＥＲＰＲＩＳＥＳ,,外国会社等,神奈川県,大和市,福田１３８０－５Ａ－２,,14,213,2420024,スリランカ民主社会主義共和国、マラダンカダワレ、セルキウレロード、１８６,,,,,,2022-04-18,1,,,,,マンナンオートエンタープライセス,0
