sequenceNumber,corporateNumber,process,correct,updateDate,changeDate,name,nameImageId,kind,prefectureName,cityName,streetNumber,addressImageId,prefectureCode,cityCode,postCode,addressOutside,addressOutsideImageId,closeDate,closeCause,successorCorporateNumber,changeCause,assignmentDate,latest,enName,enPrefectureName,enCityName,enAddressOutside,furigana,hihyoji
3,1010001126255,登記記録の閉鎖等,0,2022-02-01,2022-01-24,ＳＭＯＯＴＨＩＥＳ　ＡＳＩＡ株式会社,,株式会社,東京都,千代田区,神田佐久間町１丁目１４番地,,13,101,1010025,,,2022-01-24,清算の結了等,,,2015-10-05,1,,,,,スムージーズアジア,0
29,1011001012255,登記記録の閉鎖等,0,2022-02-01,2022-01-18,株式会社ゼイルオオサワ,,株式会社,東京都,渋谷区,代々木１丁目１９番５号,,13,113,1510053,,,2022-01-18,清算の結了等,,,2015-10-05,1,,,,,ゼイルオオサワ,0
42,1011101003121,登記記録の閉鎖等,0,2022-02-01,2022-01-26,株式会社エジプトツァーズ,,株式会社,東京都,新宿区,新宿１丁目２４番７号ルネ御苑プラザ４１２号,,13,104,1600022,,,2022-01-26,清算の結了等,,,2015-10-05,1,,,,,エジプトツァーズ,0
70,1011501003002,登記記録の閉鎖等,0,2022-02-01,2022-01-28,テクノブリッジ株式会社,,株式会社,東京都,北区,赤羽１丁目１９番７号葵ビル７０５号室,,13,117,1150045,,,2022-01-28,清算の結了等,,,2015-10-05,1,,,,,テクノブリッジ,0
93,1021002017616,登記記録の閉鎖等,0,2022-02-01,2022-01-28,有限会社アトリエ麗紡,,有限会社,神奈川県,相模原市中央区,鹿沼台２丁目１１番１－２０４号,,14,152,2520233,,,2022-01-28,清算の結了等,,,2015-10-05,1,,,,,アトリエレイボウ,0
120,1070001011930,登記記録の閉鎖等,0,2022-02-01,2022-01-31,丸沢金物株式会社,,株式会社,群馬県,富岡市,富岡１１４１番地,,10,210,3702316,,,2022-01-31,清算の結了等,,,2015-10-05,1,,,,,マルサワカナモノ,0
131,1120001105339,登記記録の閉鎖等,0,2022-02-01,2022-01-28,株式会社ＫＯＤＥＮ　ＩＮＴＥＲＮＡＴＩＯＮＡＬ,,株式会社,大阪府,大阪市中央区,南船場１丁目１０番１９号,,27,128,5420081,,,2022-01-28,清算の結了等,,,2015-10-05,1,,,,,,0
164,1180002029374,登記記録の閉鎖等,0,2022-02-01,2022-01-27,有限会社ヤマカワ,,有限会社,愛知県,名古屋市中村区,日ノ宮町３丁目１１７番地,,23,105,4530823,,,2022-01-27,清算の結了等,,,2015-10-05,1,,,,,ヤマカワ,0
165,1180002038474,登記記録の閉鎖等,0,2022-02-01,2022-01-26,有限会社伊吹,,有限会社,愛知県,名古屋市緑区,相川３丁目２１番地の１,,23,114,4580011,,,2022-01-26,清算の結了等,,,2015-10-05,1,,,,,イブキ,0
173,1180303003078,登記記録の閉鎖等,0,2022-02-01,2022-01-28,合同会社レクサスワールド,,合同会社,愛知県,豊田市,花沢町ヲチ合１０番地１５,,23,211,4443231,,,2022-01-28,清算の結了等,,,2015-10-05,1,,,,,レクサスワールド,0
183,1230001012334,登記記録の閉鎖等,0,2022-02-01,2022-01-11,株式会社オプテス,,株式会社,富山県,高岡市,二上新４２２番地１,,16,202,9330981,,,2022-01-11,合併による解散等,9010001008834,令和４年１月１日東京都千代田区丸の内一丁目６番２号日本ゼオン株式会社（9010001008834）に合併し解散,2015-10-05,1,,,,,オプテス,0
184,1230002013406,登記記録の閉鎖等,0,2022-02-01,2022-01-28,有限会社マルミヤフーズ,,有限会社,富山県,高岡市,泉が丘３３００番地２１３,,16,202,9330827,,,2022-01-28,清算の結了等,,,2015-10-05,1,,,,,マルミヤフーズ,0
185,1240001046281,登記記録の閉鎖等,0,2022-02-01,2022-01-13,株式会社アイエスエフネットライフ呉,,株式会社,広島県,広島市中区,銀山町３－１,,34,101,7300022,,,2022-01-13,合併による解散等,6010401052047,令和３年１２月２９日東京都港区赤坂七丁目１番１６号株式会社アイエスエフネット（6010401052047）に合併し解散,2015-10-05,1,,,,,アイエスエフネットライフクレ,0
199,1290801025802,登記記録の閉鎖等,0,2022-02-01,2022-01-26,株式会社ボルクバレット北九州,,株式会社,福岡県,北九州市小倉南区,徳吉東１丁目１２番１４－Ｃ２０３号,,40,107,8030277,,,2022-01-26,清算の結了等,,,2019-08-28,1,,,,,ボルクバレットキタキュウシュウ,0
203,1320002015203,登記記録の閉鎖等,0,2022-02-01,2022-01-31,農業法人有限会社山王農園,,有限会社,大分県,杵築市,大字熊野２１３１番地,,44,210,8730008,,,2022-01-31,清算の結了等,,,2015-10-05,1,,,,,,0
208,1370001005621,登記記録の閉鎖等,0,2022-02-01,2022-01-24,株式会社都市開発工学研究所,,株式会社,宮城県,仙台市宮城野区,銀杏町８番３０号,,04,102,9830047,,,2022-01-24,登記官による閉鎖,,,2015-10-05,1,,,,,,0
209,1370001013426,登記記録の閉鎖等,0,2022-02-01,2022-01-24,株式会社和田商会,,株式会社,宮城県,仙台市太白区,長町５丁目３番１号,,04,104,9820011,,,2022-01-24,登記官による閉鎖,,,2015-10-05,1,,,,,,0
210,1370001013938,登記記録の閉鎖等,0,2022-02-01,2022-01-24,カセツ産業株式会社,,株式会社,宮城県,仙台市泉区,実沢宇中山南３１番地の５,,04,105,9813217,,,2022-01-24,登記官による閉鎖,,,2015-10-05,1,,,,,,0
211,1370001014317,登記記録の閉鎖等,0,2022-02-01,2022-01-24,株式会社トレーディングカンパニーウィン・ワンズ,,株式会社,宮城県,仙台市泉区,館２丁目１８番地の７,,04,105,9813214,,,2022-01-24,登記官による閉鎖,,,2015-10-05,1,,,,,,0
212,1370001015488,登記記録の閉鎖等,0,2022-02-01,2022-01-24,株式会社エーシークリエイティヴ,,株式会社,宮城県,仙台市青葉区,中央４丁目１０番３号住友生命仙台ビル,,04,101,9800021,,,2022-01-24,登記官による閉鎖,,,2015-10-05,1,,,,,,0
216,1370002015611,登記記録の閉鎖等,0,2022-02-01,2022-01-24,有限会社みちのく・アイ・ティ工房,,有限会社,宮城県,仙台市青葉区,みやぎ台５丁目２０番６号,,04,101,9893214,,,2022-01-24,登記官による閉鎖,,,2015-10-05,1,,,,,,0
217,1370005002862,登記記録の閉鎖等,0,2022-02-01,2022-01-24,宮床村高山開拓農業協同組合,00107557,その他の設立登記法人,宮城県,黒川郡大和町,宮床字高山１番地,00107558,04,421,9813624,,,2022-01-24,登記官による閉鎖,,,2016-08-16,1,,,,,,0
218,1370102002179,登記記録の閉鎖等,0,2022-02-01,2022-01-24,有限会社樋口保温工業,,有限会社,宮城県,刈田郡蔵王町,大字平沢字大橋２４番地の１,,04,301,9890831,,,2022-01-24,登記官による閉鎖,,,2015-10-05,1,,,,,,0
219,1370202004199,登記記録の閉鎖等,0,2022-02-01,2022-01-24,有限会社Ｓ・Ｓ企画,,有限会社,宮城県,加美郡加美町,菜切谷字山道６５番地９,,04,445,9814203,,,2022-01-24,登記官による閉鎖,,,2015-10-05,1,,,,,,0
220,1370302001682,登記記録の閉鎖等,0,2022-02-01,2022-01-24,有限会社東北授業研究所,,有限会社,宮城県,石巻市,新橋３番１１号,,04,202,9860878,,,2022-01-24,登記官による閉鎖,,,2015-10-05,1,,,,,,0
221,1370302001773,登記記録の閉鎖等,0,2022-02-01,2022-01-24,有限会社ナカイチ,,有限会社,宮城県,石巻市,南中里１丁目６番１８号,,04,202,9860814,,,2022-01-24,登記官による閉鎖,,,2015-10-05,1,,,,,,0
223,1370302002482,登記記録の閉鎖等,0,2022-02-01,2022-01-24,有限会社ヤモト薬局,,有限会社,宮城県,東松島市,矢本字寿町３番地,,04,214,9810503,,,2022-01-24,登記官による閉鎖,,,2015-10-05,1,,,,,,0
224,1370501000428,登記記録の閉鎖等,0,2022-02-01,2022-01-24,株式会社松江組,,株式会社,宮城県,気仙沼市,内の脇１丁目５７番地,,04,205,9880025,,,2022-01-24,登記官による閉鎖,,,2015-10-05,1,,,,,,0
225,1370502000716,登記記録の閉鎖等,0,2022-02-01,2022-01-24,有限会社ナミイタ包装,,有限会社,宮城県,気仙沼市,浪板２５１番地の２,,04,205,9880813,,,2022-01-24,登記官による閉鎖,,,2015-10-05,1,,,,,,0
226,1370602002232,登記記録の閉鎖等,0,2022-02-01,2022-01-24,有限会社梅川鉄筋,,有限会社,宮城県,宮城郡利府町,菅谷台２丁目２１番地１,,04,406,9810135,,,2022-01-24,登記官による閉鎖,,,2015-10-05,1,,,,,,0
239,1430005005289,登記記録の閉鎖等,0,2022-02-01,2022-01-28,医療法人社団さっぽろ内科クリニック,,その他の設立登記法人,北海道,札幌市北区,北七条西５丁目７－１札幌北スカイビル４Ｆ,,01,102,0600807,,,2022-01-28,清算の結了等,,,2015-10-05,1,,,,,サッポロナイカクリニック,0
242,1460405000011,登記記録の閉鎖等,0,2022-02-01,2022-01-28,根室団地冷蔵協同組合,,その他の設立登記法人,北海道,根室市,花咲港３７４番地,,01,223,0870032,,,2022-01-28,清算の結了等,,,2015-10-05,1,,,,,ネムロダンチレイゾウ,0
265,2010405018007,登記記録の閉鎖等,0,2022-02-01,2022-01-24,Ｂｕｓｉｎｅｓｓ　Ｃｏｎｃｅｐｔ　Ｇｌｏｂａｌ一般社団法人,,その他の設立登記法人,東京都,港区,元赤坂１丁目１番７号,,13,103,1070051,,,2022-01-24,清算の結了等,,,2019-08-22,1,,,,,ビジネスコンセプトグローバル,0
266,2010501037546,登記記録の閉鎖等,0,2022-02-01,2022-01-27,建華株式会社,,株式会社,東京都,台東区,浅草橋２丁目２番６号,,13,106,1110053,,,2022-01-27,清算の結了等,,,2015-10-05,1,,,,,,0
268,2010601030814,登記記録の閉鎖等,0,2022-02-01,2022-01-25,株式会社マナ・シェア,,株式会社,東京都,江東区,有明１丁目４番１１号,,13,108,1350063,,,2022-01-25,清算の結了等,,,2015-10-05,1,,,,,マナシェア,0
280,2011001120247,登記記録の閉鎖等,0,2022-02-01,2022-01-27,株式会社ＩＤグローバルジャパン,,株式会社,東京都,中央区,銀座６丁目１３番１６号銀座ＷａｌｌビルＵＦＣ５階,,13,102,1040061,,,2022-01-27,清算の結了等,,,2018-01-22,1,,,,,アイディーグローバルジャパン,0
293,2011103006030,登記記録の閉鎖等,0,2022-02-01,2022-01-27,ＧｌｏｂａｌＣｏｒｅ合同会社,,合同会社,東京都,新宿区,新宿５丁目１８番地２０号ルックハイツ新宿８０３室,,13,104,1600022,,,2022-01-27,清算の結了等,,,2016-01-05,1,,,,,グローバルコア,0
298,2011202003234,登記記録の閉鎖等,0,2022-02-01,2022-01-27,有限会社スタジオクレッセント中野,,有限会社,東京都,中野区,中野５丁目３２番２２号,,13,114,1640001,,,2022-01-27,清算の結了等,,,2015-10-05,1,,,,,スタジオクレッセントナカノ,0
305,2011601024822,登記記録の閉鎖等,0,2022-02-01,2022-01-27,株式会社シンカパートナーズ,,株式会社,東京都,練馬区,石神井町７丁目１番１４号石神井スカイビル４０１,,13,120,1770041,,,2022-01-27,清算の結了等,,,2021-02-05,1,,,,,シンカパートナーズ,0
314,2012802001214,登記記録の閉鎖等,0,2022-02-01,2022-01-28,有限会社スタジオハロー,,有限会社,東京都,立川市,柴崎町５丁目１５番１６号,,13,202,1900023,,,2022-01-28,清算の結了等,,,2015-10-05,1,,,,,スタジオハロー,0
331,2030001077181,登記記録の閉鎖等,0,2022-02-01,2022-01-26,株式会社ボニート,,株式会社,埼玉県,川口市,芝樋ノ爪１丁目９番１５号,,11,203,3330852,,,2022-01-26,清算の結了等,,,2015-10-05,1,,,,,ボニート,0
337,2030002108729,登記記録の閉鎖等,0,2022-02-01,2022-01-27,有限会社熊谷製作所,,有限会社,埼玉県,川口市,榛松２丁目３０番２０号,,11,203,3340062,,,2022-01-27,清算の結了等,,,2015-10-05,1,,,,,クマガイセイサクショ,0
351,2050001043487,登記記録の閉鎖等,0,2022-02-01,2022-01-27,株式会社チェンジ,,株式会社,茨城県,取手市,光風台１丁目１番１４号,,08,217,3001536,,,2022-01-27,清算の結了等,,,2017-10-11,1,,,,,チェンジ,0
366,2080103001084,登記記録の閉鎖等,0,2022-02-01,2022-01-28,合同会社クニタカ,,合同会社,静岡県,裾野市,茶畑１５５５番地,,22,220,4101121,,,2022-01-28,清算の結了等,,,2015-10-05,1,,,,,クニタカ,0
367,2080401014184,登記記録の閉鎖等,0,2022-02-01,2022-01-28,株式会社アキ自動車,,株式会社,静岡県,掛川市,富部６５０番地の５,,22,213,4360224,,,2022-01-28,清算の結了等,,,2015-10-05,1,,,,,アキジドウシャ,0
371,2100005006303,登記記録の閉鎖等,0,2022-02-01,2022-01-24,特定非営利活動法人ゆう共生会,,その他の設立登記法人,長野県,松本市,渚２丁目８番１８－２１５号,,20,202,3900841,,,2022-01-24,清算の結了等,,,2015-10-05,1,,,,,ユウキョウセイカイ,0
372,2110002010059,登記記録の閉鎖等,0,2022-02-01,2022-01-28,有限会社大野フード,,有限会社,新潟県,新潟市南区,新飯田８８０番地,,15,106,9501455,,,2022-01-28,清算の結了等,,,2015-10-05,1,,,,,オオノフード,0
391,2130005000872,登記記録の閉鎖等,0,2022-02-01,2022-01-13,天理教陽喜楽分教会,,その他の設立登記法人,京都府,京都市北区,大将軍東鷹司町１２番地,,26,101,6038333,,,2022-01-13,合併による解散等,1130005000873,令和４年１月１３日京都市下京区中堂寺前田町６番地の４天理教洛陽分教会（1130005000873）に合併し解散,2015-10-05,1,,,,,テンリキョウヨウキラクブンキョウカイ,0
392,2140001018752,登記記録の閉鎖等,0,2022-02-01,2022-01-28,株式会社フクテツ,,株式会社,兵庫県,神戸市垂水区,下畑町字雲星４９８番地,,28,108,6550861,,,2022-01-28,清算の結了等,,,2015-10-05,1,,,,,フクテツ,0
398,2140005016505,登記記録の閉鎖等,0,2022-02-01,2022-01-21,特定非営利活動法人住宅改修支援センター,,その他の設立登記法人,兵庫県,西宮市,甲子園町７番６号,,28,204,6638152,,,2022-01-21,清算の結了等,,,2015-10-05,1,,,,,ジュウタクカイシュウシエンセンター,0
431,2220001010437,登記記録の閉鎖等,0,2022-02-01,2022-01-25,コーシンパートナー株式会社,,株式会社,石川県,野々市市,押野２丁目２１６番地,,17,212,9218802,,,2022-01-25,合併による解散等,3220001000115,令和４年１月１日石川県野々市市押野二丁目２１６番地コーシンテクノアンドパートナー株式会社（3220001000115）に合併し解散,2015-10-05,1,,,,,コーシンパートナー,0
439,2240002041116,登記記録の閉鎖等,0,2022-02-01,2022-01-26,有限会社シャルレエル,,有限会社,広島県,福山市,山手町１８４１番地,,34,207,7200092,,,2022-01-26,清算の結了等,,,2015-10-05,1,,,,,シャルレエル,0
441,2240005011578,登記記録の閉鎖等,0,2022-02-01,2022-01-26,特定非営利活動法人瀬戸プロフェショナル・シニア,,その他の設立登記法人,広島県,尾道市,久保３丁目１４番１８号,,34,205,7220045,,,2022-01-26,清算の結了等,,,2015-10-05,1,,,,,セトプロフェショナルシニア,0
446,2270002001983,登記記録の閉鎖等,0,2022-02-01,2022-01-26,有限会社山崎会計事務所,,有限会社,鳥取県,鳥取市,南町３２７番地,,31,201,6800814,,,2022-01-26,清算の結了等,,,2015-10-05,1,,,,,ヤマサキカイケイジムショ,0
447,2280002004903,登記記録の閉鎖等,0,2022-02-01,2022-01-28,有限会社松浦商事,,有限会社,島根県,安来市,東赤江町８７５番地の２,,32,206,6920016,,,2022-01-28,清算の結了等,,,2015-10-05,1,,,,,マツウラショウジ,0
458,2290802024819,登記記録の閉鎖等,0,2022-02-01,2022-01-26,長野酒類販売有限会社,,有限会社,福岡県,田川郡福智町,金田９１７番地の１・９１７番地の２・９１７番地の３・９１８番地の１,,40,610,8221201,,,2022-01-26,清算の結了等,,,2015-10-05,1,,,,,ナガノシュルイハンバイ,0
469,2370001008128,登記記録の閉鎖等,0,2022-02-01,2022-01-24,株式会社蔵王建築設計事務所,,株式会社,宮城県,仙台市青葉区,本町２丁目２０番２号,,04,101,9800014,,,2022-01-24,登記官による閉鎖,,,2015-10-05,1,,,,,,0
470,2370001014266,登記記録の閉鎖等,0,2022-02-01,2022-01-24,株式会社れじゅ,,株式会社,宮城県,仙台市青葉区,花京院２丁目２番２９号花京院シティハウス４０５号,,04,101,9800013,,,2022-01-24,登記官による閉鎖,,,2015-10-05,1,,,,,,0
471,2370001015727,登記記録の閉鎖等,0,2022-02-01,2022-01-24,株式会社ＯＰＥＮ　ＰＡＲＴＮＥＲ,,株式会社,宮城県,仙台市宮城野区,新田４丁目１０番２９号,,04,102,9830038,,,2022-01-24,登記官による閉鎖,,,2015-10-05,1,,,,,,0
472,2370001020149,登記記録の閉鎖等,0,2022-02-01,2022-01-24,株式会社ＴＮＫ　ＭＯＲＡ,,株式会社,宮城県,仙台市青葉区,上杉１丁目６番１号,,04,101,9800011,,,2022-01-24,登記官による閉鎖,,,2015-10-05,1,,,,,,0
473,2370002001635,登記記録の閉鎖等,0,2022-02-01,2022-01-24,有限会社フリックスパディオ,,有限会社,宮城県,仙台市泉区,松森字前田５２番地の２,,04,105,9813111,,,2022-01-24,登記官による閉鎖,,,2015-10-05,1,,,,,,0
474,2370002001759,登記記録の閉鎖等,0,2022-02-01,2022-01-24,有限会社丸大菅原商店,,有限会社,宮城県,仙台市青葉区,中央４丁目３番１号,,04,101,9800021,,,2022-01-24,登記官による閉鎖,,,2015-10-05,1,,,,,,0
475,2370002005702,登記記録の閉鎖等,0,2022-02-01,2022-01-24,有限会社トラモンタイヤサービス,,有限会社,宮城県,仙台市若林区,荒浜字一本杉北２１,,04,103,9840033,,,2022-01-24,登記官による閉鎖,,,2015-10-05,1,,,,,,0
476,2370002006592,登記記録の閉鎖等,0,2022-02-01,2022-01-24,有限会社浅水商事,,有限会社,宮城県,仙台市泉区,松陵４丁目２番地の３,,04,105,9813108,,,2022-01-24,登記官による閉鎖,,,2015-10-05,1,,,,,,0
478,2370002008829,登記記録の閉鎖等,0,2022-02-01,2022-01-24,有限会社メイファニチャー,,有限会社,宮城県,仙台市宮城野区,日の出町３丁目２番４１号,,04,102,9830035,,,2022-01-24,登記官による閉鎖,,,2015-10-05,1,,,,,,0
479,2370002012987,登記記録の閉鎖等,0,2022-02-01,2022-01-24,有限会社ひじり商事,,有限会社,宮城県,仙台市青葉区,八幡６丁目８番２０号,,04,101,9800871,,,2022-01-24,登記官による閉鎖,,,2015-10-05,1,,,,,,0
481,2370101000331,登記記録の閉鎖等,0,2022-02-01,2022-01-24,まるや天賞株式会社,,株式会社,宮城県,柴田郡川崎町,大字今宿字小銀沢山１番地１１５,,04,324,9891502,,,2022-01-24,登記官による閉鎖,,,2015-10-05,1,,,,,,0
482,2370201002203,登記記録の閉鎖等,0,2022-02-01,2022-01-24,株式会社吉住油店,,株式会社,宮城県,遠田郡涌谷町,吉住字梅田２３番地,,04,501,9870283,,,2022-01-24,登記官による閉鎖,,,2015-10-05,1,,,,,,0
483,2370202004891,登記記録の閉鎖等,0,2022-02-01,2022-01-24,有限会社カタヤマ内装,,有限会社,宮城県,栗原市,志波姫北郷杉屋敷前４２番地,,04,213,9895605,,,2022-01-24,登記官による閉鎖,,,2015-10-05,1,,,,,,0
484,2370302001698,登記記録の閉鎖等,0,2022-02-01,2022-01-24,有限会社藤和重量,,有限会社,宮城県,石巻市,門脇字浦屋敷７５番地の１４,,04,202,9860853,,,2022-01-24,登記官による閉鎖,,,2015-10-05,1,,,,,,0
485,2370305000417,登記記録の閉鎖等,0,2022-02-01,2022-01-24,医療法人育正会,,その他の設立登記法人,宮城県,石巻市,広渕字長山１００番地,,04,202,9871222,,,2022-01-24,登記官による閉鎖,,,2015-10-05,1,,,,,,0
493,2420005004547,登記記録の閉鎖等,0,2022-02-01,2022-01-04,天理教岩萩分教会,,その他の設立登記法人,青森県,弘前市,大字新岡字萩流１５９番地,,02,202,0361304,,,2022-01-04,合併による解散等,1420005004548,令和４年１月４日青森県弘前市大字鼻和字岩井９４番地１天理教鼻和分教会（1420005004548）に合併し解散,2015-10-05,1,,,,,テンリキョウイワハギブンキョウカイ,0
507,2490002000261,登記記録の閉鎖等,0,2022-02-01,2022-01-31,有限会社原田商事,,有限会社,高知県,高知市,大川筋２丁目３番２６号,,39,201,7800052,,,2022-01-31,清算の結了等,,,2015-10-05,1,,,,,ハラダショウジ,0
515,3010001189812,登記記録の閉鎖等,0,2022-02-01,2022-01-25,Ｖｌｏｃｉｔｙ　Ｊａｐａｎ株式会社,,株式会社,東京都,中央区,日本橋室町４丁目３番９号,,13,102,1030022,,,2022-01-25,清算の結了等,,,2018-02-21,1,,,,,ブロシティジャパン,0
527,3010405018682,登記記録の閉鎖等,0,2022-02-01,2022-01-19,一般社団法人ＨＡＰＰＹ　ＦＡＣＴＯＲＹ,,その他の設立登記法人,東京都,港区,南青山２丁目２番１５号ウィン青山９４２,,13,103,1070062,,,2022-01-19,清算の結了等,,,2020-04-23,1,,,,,ハッピーファクトリー,0
535,3010601037379,登記記録の閉鎖等,0,2022-02-01,2022-01-24,株式会社ＧＴ,,株式会社,東京都,中央区,晴海１丁目６番１－４０１０号,,13,102,1040053,,,2022-01-24,清算の結了等,,,2015-10-05,1,,,,,ジーティー,0
587,3020002095208,登記記録の閉鎖等,0,2022-02-01,2022-01-28,有限会社吉澤商店,,有限会社,神奈川県,川崎市麻生区,百合丘１丁目１番地１７,,14,137,2150011,,,2022-01-28,清算の結了等,,,2015-10-05,1,,,,,ヨシザワショウテン,0
601,3030001073089,登記記録の閉鎖等,0,2022-02-01,2022-01-26,株式会社エムティファブリック,,株式会社,埼玉県,川口市,大字辻９１５番地の１,00015239,11,203,3340004,,,2022-01-26,清算の結了等,,,2015-10-05,1,,,,,エムティファブリック,0
627,3040005000872,登記記録の閉鎖等,0,2022-02-01,2022-01-07,天理教船張分教会,,その他の設立登記法人,千葉県,千葉市花見川区,幕張町２丁目１０１８番地,,12,102,2620032,,,2022-01-07,合併による解散等,3040005002811,令和４年１月７日千葉県船橋市宮本六丁目２５番７号天理教船橋分教会（3040005002811）に合併し解散,2015-10-05,1,,,,,テンリキョウフナハリブンキョウカイ,0
630,3050001000413,登記記録の閉鎖等,0,2022-02-01,2022-01-31,井伝化成株式会社,,株式会社,茨城県,水戸市,酒門町２９７３番地,,08,201,3100841,,,2022-01-31,清算の結了等,,,2015-10-05,1,,,,,イデンカセイ,0
644,3070002024467,登記記録の閉鎖等,0,2022-02-01,2022-01-31,有限会社ハヤツシステムズ,,有限会社,群馬県,桐生市,相生町３丁目１２０番地の２,,10,203,3760011,,,2022-01-31,清算の結了等,,,2015-10-05,1,,,,,,0
652,3090002002784,登記記録の閉鎖等,0,2022-02-01,2022-01-27,有限会社ベルコーポレイション,,有限会社,山梨県,甲府市,大里町２０８１番地,,19,201,4000053,,,2022-01-27,清算の結了等,,,2015-10-05,1,,,,,,0
667,3120003014734,登記記録の閉鎖等,0,2022-02-01,2022-01-28,合同会社Ｎｅｘｔ　Ｌｉｆｅ,,合同会社,大阪府,寝屋川市,田井町２６番４号,,27,215,5720021,,,2022-01-28,清算の結了等,,,2018-09-19,1,,,,,,0
704,3180301008655,登記記録の閉鎖等,0,2022-02-01,2022-01-28,ペットガーデン株式会社,,株式会社,愛知県,豊橋市,大岩町字北山４７０番地の２,,23,201,4413141,,,2022-01-28,清算の結了等,,,2015-10-05,1,,,,,ペットガーデン,0
708,3180302027241,登記記録の閉鎖等,0,2022-02-01,2022-01-28,有限会社アーク設計室,,有限会社,愛知県,西尾市,鳥羽町十三新田１番地１０２,,23,213,4440704,,,2022-01-28,清算の結了等,,,2015-10-05,1,,,,,アークセッケイシツ,0
712,3200002006518,登記記録の閉鎖等,0,2022-02-01,2022-01-31,有限会社永田建設,,有限会社,岐阜県,山県市,富永７２０番地の３,,21,215,5012257,,,2022-01-31,清算の結了等,,,2015-10-05,1,,,,,ナガタケンセツ,0
718,3220002013561,登記記録の閉鎖等,0,2022-02-01,2022-01-27,有限会社ワールド・エステート,,有限会社,石川県,小松市,八里台３３番地９,,17,203,9230056,,,2022-01-27,清算の結了等,,,2015-10-05,1,,,,,ワールドエステート,0
736,3290001082246,登記記録の閉鎖等,0,2022-02-01,2022-01-28,博多物流株式会社,,株式会社,福岡県,古賀市,青柳４７４番地７,,40,223,8113134,,,2022-01-28,清算の結了等,,,2018-07-30,1,,,,,ハカタブツリュウ,0
743,3290005000410,登記記録の閉鎖等,0,2022-02-01,2022-01-19,天理教東博分教会,,その他の設立登記法人,福岡県,福岡市博多区,金の隈１丁目３３番５６号,,40,132,8120863,,,2022-01-19,合併による解散等,9290005000421,令和４年１月１９日福岡市中央区西中洲２番１９号天理教博洋分教会（9290005000421）に合併し解散,2015-10-05,1,,,,,テンリキョウヒガシハクブンキョウカイ,0
755,3370001006287,登記記録の閉鎖等,0,2022-02-01,2022-01-24,株式会社ユーノス仙台,,株式会社,宮城県,仙台市宮城野区,小田原１丁目３番２３号,,04,102,9830803,,,2022-01-24,登記官による閉鎖,,,2015-10-05,1,,,,,,0
756,3370001015593,登記記録の閉鎖等,0,2022-02-01,2022-01-24,株式会社ジョブジョイ,,株式会社,宮城県,仙台市太白区,松が丘４番１号,,04,104,9820821,,,2022-01-24,登記官による閉鎖,,,2015-10-05,1,,,,,,0
757,3370001018019,登記記録の閉鎖等,0,2022-02-01,2022-01-24,株式会社バーチャル,,株式会社,宮城県,仙台市宮城野区,岩切２丁目１１番３７号セジュールタカノ２０５,,04,102,9830821,,,2022-01-24,登記官による閉鎖,,,2015-10-05,1,,,,,,0
761,3370002007227,登記記録の閉鎖等,0,2022-02-01,2022-01-24,有限会社工藤興業,,有限会社,宮城県,仙台市宮城野区,岩切字昭和東１３６番地の２,,04,102,9830821,,,2022-01-24,登記官による閉鎖,,,2015-10-05,1,,,,,,0
762,3370002010453,登記記録の閉鎖等,0,2022-02-01,2022-01-24,有限会社菅野設計事務所,,有限会社,宮城県,仙台市青葉区,上杉２丁目３番２８号,,04,101,9800011,,,2022-01-24,登記官による閉鎖,,,2015-10-05,1,,,,,,0
763,3370002012920,登記記録の閉鎖等,0,2022-02-01,2022-01-24,有限会社バルセ,,有限会社,宮城県,仙台市青葉区,中山台４丁目１６番地の７,,04,101,9893202,,,2022-01-24,登記官による閉鎖,,,2015-10-05,1,,,,,,0
764,3370002015221,登記記録の閉鎖等,0,2022-02-01,2022-01-24,有限会社ヨアヒムズ,,有限会社,宮城県,仙台市青葉区,一番町１丁目１７番２０号,,04,101,9800811,,,2022-01-24,登記官による閉鎖,,,2015-10-05,1,,,,,,0
765,3370002016112,登記記録の閉鎖等,0,2022-02-01,2022-01-24,有限会社北陵教育研究会,,有限会社,宮城県,仙台市青葉区,貝ケ森２丁目６番１５号,,04,101,9810942,,,2022-01-24,登記官による閉鎖,,,2015-10-05,1,,,,,,0
766,3370002017341,登記記録の閉鎖等,0,2022-02-01,2022-01-24,有限会社Ｐ．Ｃ．仙台,,有限会社,宮城県,仙台市若林区,沖野３丁目１４番９５号,,04,103,9840831,,,2022-01-24,登記官による閉鎖,,,2015-10-05,1,,,,,,0
767,3370002018364,登記記録の閉鎖等,0,2022-02-01,2022-01-24,有限会社ランマル,,有限会社,宮城県,仙台市宮城野区,蒲生２丁目７番地の５,,04,102,9830002,,,2022-01-24,登記官による閉鎖,,,2015-10-05,1,,,,,,0
768,3370002018463,登記記録の閉鎖等,0,2022-02-01,2022-01-24,有限会社約束の丘,,有限会社,宮城県,仙台市泉区,歩坂町５７番１９号,,04,105,9813106,,,2022-01-24,登記官による閉鎖,,,2015-10-05,1,,,,,,0
769,3370002020584,登記記録の閉鎖等,0,2022-02-01,2022-01-24,三栄有限会社,,有限会社,宮城県,黒川郡大和町,落合桧和田字八幡堂７２番地,,04,421,9813403,,,2022-01-24,登記官による閉鎖,,,2015-10-05,1,,,,,,0
770,3370003001253,登記記録の閉鎖等,0,2022-02-01,2022-01-24,合同会社ＥＴＳ,,合同会社,宮城県,仙台市青葉区,菊田町３番１３号,,04,101,9810941,,,2022-01-24,登記官による閉鎖,,,2015-10-05,1,,,,,,0
771,3370202001459,登記記録の閉鎖等,0,2022-02-01,2022-01-24,有限会社西和油化産業,,有限会社,宮城県,大崎市,古川大崎字天望２３番地１,,04,215,9896227,,,2022-01-24,登記官による閉鎖,,,2015-10-05,1,,,,,,0
772,3370202004189,登記記録の閉鎖等,0,2022-02-01,2022-01-24,有限会社秋田タヒボ,,有限会社,宮城県,大崎市,古川駅東４丁目４番３号,,04,215,9896115,,,2022-01-24,登記官による閉鎖,,,2015-10-05,1,,,,,,0
773,3370301002309,登記記録の閉鎖等,0,2022-02-01,2022-01-24,株式会社エコ．システムズ・洋,,株式会社,宮城県,石巻市,三ツ股３丁目６番４３号,,04,202,9860858,,,2022-01-24,登記官による閉鎖,,,2015-10-05,1,,,,,,0
774,3370302001986,登記記録の閉鎖等,0,2022-02-01,2022-01-24,有限会社フジスイ,,有限会社,宮城県,石巻市,魚町３丁目１番地の１１,,04,202,9860022,,,2022-01-24,登記官による閉鎖,,,2015-10-05,1,,,,,,0
775,3370502001068,登記記録の閉鎖等,0,2022-02-01,2022-01-24,有限会社海商流通センター店,,有限会社,宮城県,気仙沼市,弁天町２丁目６番２０号,,04,205,9880036,,,2022-01-24,登記官による閉鎖,,,2015-10-05,1,,,,,,0
776,3370502001142,登記記録の閉鎖等,0,2022-02-01,2022-01-24,有限会社酒の松屋本舗,,有限会社,宮城県,気仙沼市,仲町２丁目５番１３号,,04,205,9880024,,,2022-01-24,登記官による閉鎖,,,2015-10-05,1,,,,,,0
777,3370802001692,登記記録の閉鎖等,0,2022-02-01,2022-01-24,有限会社ソリッド,,有限会社,宮城県,名取市,名取が丘１丁目２番１１号,,04,207,9811235,,,2022-01-24,登記官による閉鎖,,,2015-10-05,1,,,,,,0
779,3400005003252,登記記録の閉鎖等,0,2022-02-01,2022-01-13,天理教東晴山分教会,,その他の設立登記法人,岩手県,花巻市,東和町東晴山１１区１８５番地,,03,205,0280113,,,2022-01-13,合併による解散等,4430005007035,令和４年１月６日北海道夕張市富野１４番地天理教北張分教会（4430005007035）に合併し解散,2015-10-05,1,,,,,,0
799,3490001003677,登記記録の閉鎖等,0,2022-02-01,2022-01-31,株式会社ＴＥＲＲＹＳ,,株式会社,高知県,高知市,横浜西町８番２号,,39,201,7810242,,,2022-01-31,清算の結了等,,,2015-10-05,1,,,,,テリーズ,0
822,4010403022727,登記記録の閉鎖等,0,2022-02-01,2022-01-24,合同会社ＯＭ,,合同会社,東京都,港区,赤坂３丁目２番１２号赤坂ノアビル７Ｆ,,13,103,1070052,,,2022-01-24,清算の結了等,,,2020-03-25,1,,,,,オーエム,0
831,4010701008361,登記記録の閉鎖等,0,2022-02-01,2022-01-28,ヒロセ興産株式会社,,株式会社,神奈川県,横浜市都筑区,中川中央２丁目６番３号,,14,118,2240003,,,2022-01-28,清算の結了等,,,2015-10-05,1,,,,,ヒロセコウサン,0
863,4011105006885,登記記録の閉鎖等,0,2022-02-01,2022-01-17,一般社団法人ほっとの会,,その他の設立登記法人,東京都,新宿区,新宿６丁目２７番４８号１階,,13,104,1600022,,,2022-01-17,清算の結了等,,,2015-10-05,1,,,,,ホットノカイ,0
882,4020001091685,登記記録の閉鎖等,0,2022-02-01,2022-01-27,株式会社アキツ建設,,株式会社,山梨県,南都留郡山中湖村,平野５０６番地の１４,,19,425,4010502,,,2022-01-27,清算の結了等,,,2015-10-05,1,,,,,,0
890,4020002038256,登記記録の閉鎖等,0,2022-02-01,2022-01-28,有限会社佐賀打抜工業,,有限会社,神奈川県,横浜市鶴見区,駒岡２丁目３番２６号,,14,101,2300071,,,2022-01-28,清算の結了等,,,2015-10-05,1,,,,,,0
896,4021005005474,登記記録の閉鎖等,0,2022-02-01,2022-01-18,天理教昭扇要分教会,,その他の設立登記法人,神奈川県,相模原市中央区,氷川町１７番５号,,14,152,2520215,,,2022-01-18,合併による解散等,3040005004262,令和４年１月６日千葉県市川市北方三丁目１８番２号天理教一昭分教会（3040005004262）に合併し解散,2015-10-05,1,,,,,,0
899,4030001030873,登記記録の閉鎖等,0,2022-02-01,2022-01-27,株式会社服部設計,,株式会社,埼玉県,久喜市,本町２丁目８番２６号,,11,232,3460005,,,2022-01-27,清算の結了等,,,2015-10-05,1,,,,,ハットリセッケイ,0
927,4060002018741,登記記録の閉鎖等,0,2022-02-01,2022-01-28,有限会社いしかわ,,有限会社,栃木県,芳賀郡市貝町,大字上根５４４番地,,09,344,3213424,,,2022-01-28,清算の結了等,,,2015-10-05,1,,,,,,0
929,4070002012768,登記記録の閉鎖等,0,2022-02-01,2022-01-31,有限会社和風泉,,有限会社,群馬県,高崎市,剣崎町１１５１番地５,,10,202,3700883,,,2022-01-31,清算の結了等,,,2015-10-05,1,,,,,,0
930,4070002022404,登記記録の閉鎖等,0,2022-02-01,2022-01-31,有限会社アイアンクリエイティブ,,有限会社,群馬県,桐生市,相生町２丁目３３８番地４,,10,203,3760011,,,2022-01-31,清算の結了等,,,2015-10-05,1,,,,,アイアンクリエイティブ,0
935,4080101012024,登記記録の閉鎖等,0,2022-02-01,2022-01-27,株式会社ビー・シー,,株式会社,静岡県,富士宮市,淀師５７１番地の３,,22,207,4180051,,,2022-01-27,清算の結了等,,,2015-10-05,1,,,,,ビーシー,0
938,4080401020404,登記記録の閉鎖等,0,2022-02-01,2022-01-11,株式会社ハート・サプライプロジェクト,,株式会社,静岡県,浜松市中区,鍛冶町１５番地セントラルタワー１５０３号,,22,131,4300933,,,2022-01-11,合併による解散等,3080401020405,令和４年１月１１日静岡県浜松市中区鍛冶町１５番地セントラルタワー１５０３号株式会社ＨＳＰ（3080401020405）に合併し解散,2015-10-05,1,,,,,ハートサプライプロジェクト,0
944,4100001013086,登記記録の閉鎖等,0,2022-02-01,2022-01-28,五光カープラザ株式会社,,株式会社,長野県,松本市,村井町北１丁目９番７２号,,20,202,3990035,,,2022-01-28,清算の結了等,,,2015-10-05,1,,,,,ゴコウカープラザ,0
946,4100002018027,登記記録の閉鎖等,0,2022-02-01,2022-01-27,有限会社田尻建設,,有限会社,長野県,中野市,大字金井９８５番地,,20,211,3830008,,,2022-01-27,清算の結了等,,,2015-10-05,1,,,,,タジリケンセツ,0
950,4110002022465,登記記録の閉鎖等,0,2022-02-01,2022-01-28,有限会社オフィス・アイ,,有限会社,新潟県,上越市,春日山町３丁目１３番３２号,,15,222,9430807,,,2022-01-28,清算の結了等,,,2015-10-05,1,,,,,オフィスアイ,0
955,4120001106953,登記記録の閉鎖等,0,2022-02-01,2022-01-06,株式会社リクサスパッケージ,,株式会社,大阪府,大阪市中央区,島之内１丁目２番１６号,,27,128,5420082,,,2022-01-06,合併による解散等,6120001084454,令和４年１月１日大阪市中央区島之内一丁目２番１６号株式会社リクサスグループホールディングス（6120001084454）に合併し解散,2015-10-05,1,,,,,リクサスパッケージ,0
961,4120002068227,登記記録の閉鎖等,0,2022-02-01,2022-01-28,秦野興産有限会社,,有限会社,大阪府,大阪市淀川区,西宮原１丁目７番８号ディアコート新大阪８０１号,,27,123,5320004,,,2022-01-28,清算の結了等,,,2015-10-05,1,,,,,ハタノコウサン,0
971,4130002028618,登記記録の閉鎖等,0,2022-02-01,2022-01-27,有限会社竹島電機,,有限会社,京都府,南丹市,美山町静原森ケ下３６番地,,26,213,6010755,,,2022-01-27,清算の結了等,,,2015-10-05,1,,,,,タケシマデンキ,0
972,4130003005681,登記記録の閉鎖等,0,2022-02-01,2022-01-20,合同会社靭皮研究,,合同会社,京都府,綾部市,戸奈瀬町寺ノ下２０番地,,26,203,6291255,,,2022-01-20,清算の結了等,,,2018-10-09,1,,,,,ジンピケンキュウ,0
999,4180302017646,登記記録の閉鎖等,0,2022-02-01,2022-01-27,有限会社河野新聞店,,有限会社,愛知県,安城市,二本木町東切替６３番地１,,23,212,4460054,,,2022-01-27,清算の結了等,,,2015-10-05,1,,,,,コウノシンブンテン,0
1012,4250001010168,登記記録の閉鎖等,0,2022-02-01,2022-01-28,株式会社岡田工業所,,株式会社,山口県,光市,浅江６丁目１８番８号,,35,210,7430021,,,2022-01-28,清算の結了等,,,2015-10-05,1,,,,,オカダコウギョウショ,0
1018,4270005005303,登記記録の閉鎖等,0,2022-02-01,2022-01-26,一般社団法人山陰みらい士業グループ,,その他の設立登記法人,鳥取県,米子市,大篠津町１９５２番地３,,31,202,6830101,,,2022-01-26,清算の結了等,,,2017-11-14,1,,,,,サンインミライシギョウグループ,0
1021,4280002003358,登記記録の閉鎖等,0,2022-02-01,2022-01-31,有限会社ラ・クレームデ・クレーム,,有限会社,島根県,松江市,学園２丁目２４番１号,,32,201,6900825,,,2022-01-31,清算の結了等,,,2015-10-05,1,,,,,,0
1027,4290802019362,登記記録の閉鎖等,0,2022-02-01,2022-01-27,光興業有限会社,,有限会社,福岡県,北九州市若松区,青葉台東２丁目１番２４号,,40,103,8080141,,,2022-01-27,清算の結了等,,,2015-10-05,1,,,,,ヒカリコウギョウ,0
1029,4300001008917,登記記録の閉鎖等,0,2022-02-01,2022-01-13,株式会社アイエスエフネットライフ佐賀,,株式会社,佐賀県,佐賀市,駅南本町３番１５号,,41,201,8400816,,,2022-01-13,合併による解散等,6010401052047,令和３年１２月２９日東京都港区赤坂七丁目１番１６号株式会社アイエスエフネット（6010401052047）に合併し解散,2015-10-05,1,,,,,アイエスエフネットライフサガ,0
1030,4300002009550,登記記録の閉鎖等,0,2022-02-01,2022-01-28,有限会社ワイプロジェ,,有限会社,佐賀県,鳥栖市,萱方町２２７番地５,,41,203,8410081,,,2022-01-28,清算の結了等,,,2015-10-05,1,,,,,,0
1033,4310001008098,登記記録の閉鎖等,0,2022-02-01,2022-01-31,株式会社長崎海老沢,,株式会社,長崎県,諫早市,栗面町７５６番地の３,,42,204,8540055,,,2022-01-31,清算の結了等,,,2015-10-05,1,,,,,ナガサキエビサワ,0
1047,4360005005500,登記記録の閉鎖等,0,2022-02-01,2022-01-27,一般社団法人生命素粒子自己療法普及協会,,その他の設立登記法人,沖縄県,那覇市,泊２丁目１番地２１尚平ビル３階,,47,201,9000012,,,2022-01-27,清算の結了等,,,2017-01-24,1,,,,,セイメイソリュウシジコリョウホウフキュウキョウカイ,0
1048,4370001000693,登記記録の閉鎖等,0,2022-02-01,2022-01-24,株式会社サン・ライジング,,株式会社,宮城県,仙台市泉区,歩坂町３３番４３号,,04,105,9813106,,,2022-01-24,登記官による閉鎖,,,2015-10-05,1,,,,,,0
1049,4370001001642,登記記録の閉鎖等,0,2022-02-01,2022-01-24,株式会社クサカ,,株式会社,宮城県,仙台市太白区,長町３丁目７番１２号,,04,104,9820011,,,2022-01-24,登記官による閉鎖,,,2015-10-05,1,,,,,,0
1050,4370001009900,登記記録の閉鎖等,0,2022-02-01,2022-01-24,日吉エンタープライズ株式会社,,株式会社,宮城県,仙台市青葉区,花壇４番３７号,,04,101,9800815,,,2022-01-24,登記官による閉鎖,,,2015-10-05,1,,,,,,0
1051,4370001013852,登記記録の閉鎖等,0,2022-02-01,2022-01-24,株式会社フォーマック,,株式会社,宮城県,仙台市若林区,卸町東３丁目３番１７号ムスイビル－２階,,04,103,9840002,,,2022-01-24,登記官による閉鎖,,,2015-10-05,1,,,,,,0
1052,4370001018018,登記記録の閉鎖等,0,2022-02-01,2022-01-24,株式会社リアル,,株式会社,宮城県,仙台市青葉区,宮町３丁目５番３０号３Ｆ－西,,04,101,9800004,,,2022-01-24,登記官による閉鎖,,,2015-10-05,1,,,,,,0
1054,4370002005618,登記記録の閉鎖等,0,2022-02-01,2022-01-24,有限会社天城,,有限会社,宮城県,仙台市若林区,大和町５丁目１４番３号,,04,103,9840042,,,2022-01-24,登記官による閉鎖,,,2015-10-05,1,,,,,,0
1055,4370002006500,登記記録の閉鎖等,0,2022-02-01,2022-01-24,有限会社アイコー社,,有限会社,宮城県,仙台市宮城野区,新田１丁目１０番１２号,,04,102,9830038,,,2022-01-24,登記官による閉鎖,,,2015-10-05,1,,,,,,0
1056,4370002014164,登記記録の閉鎖等,0,2022-02-01,2022-01-24,有限会社亮,,有限会社,宮城県,仙台市青葉区,国見ケ丘３丁目９番４号,,04,101,9893201,,,2022-01-24,登記官による閉鎖,,,2015-10-05,1,,,,,,0
1057,4370002017761,登記記録の閉鎖等,0,2022-02-01,2022-01-24,有限会社ライフサポート仙台,,有限会社,宮城県,仙台市宮城野区,東仙台７丁目９番１２号,,04,102,9830833,,,2022-01-24,登記官による閉鎖,,,2015-10-05,1,,,,,,0
1058,4370202000526,登記記録の閉鎖等,0,2022-02-01,2022-01-24,有限会社食堂まるよし,,有限会社,宮城県,大崎市,古川三日町１丁目３番２２号,,04,215,9896154,,,2022-01-24,登記官による閉鎖,,,2015-10-05,1,,,,,,0
1059,4370301001400,登記記録の閉鎖等,0,2022-02-01,2022-01-24,株式会社友花園,,株式会社,宮城県,石巻市,中央２丁目４番１４号,,04,202,9860822,,,2022-01-24,登記官による閉鎖,,,2015-10-05,1,,,,,,0
1060,4370302001746,登記記録の閉鎖等,0,2022-02-01,2022-01-24,有限会社トミハマ,,有限会社,宮城県,石巻市,北上町十三浜字白浜２７１番地,,04,202,9860201,,,2022-01-24,登記官による閉鎖,,,2015-10-05,1,,,,,,0
1061,4370302001853,登記記録の閉鎖等,0,2022-02-01,2022-01-24,有限会社バイオメート,,有限会社,宮城県,石巻市,中央１丁目１２番２６号,,04,202,9860822,,,2022-01-24,登記官による閉鎖,,,2015-10-05,1,,,,,,0
1062,4370501000177,登記記録の閉鎖等,0,2022-02-01,2022-01-24,株式会社気仙沼ホテル,,株式会社,宮城県,気仙沼市,魚市場前３番１５号,,04,205,9880037,,,2022-01-24,登記官による閉鎖,,,2015-10-05,1,,,,,,0
1063,4400001004328,登記記録の閉鎖等,0,2022-02-01,2022-01-31,株式会社ホーメスト,,株式会社,岩手県,盛岡市,上田２丁目２０番７号,,03,201,0200066,,,2022-01-31,清算の結了等,,,2015-10-05,1,,,,,ホーメスト,0
1069,4420005004537,登記記録の閉鎖等,0,2022-02-01,2022-01-04,天理教奉理栄分教会,,その他の設立登記法人,青森県,弘前市,大字葛原字大柳１８４番地,,02,202,0361303,,,2022-01-04,合併による解散等,1420005004548,令和４年１月４日青森県弘前市大字鼻和字岩井９４番地１天理教鼻和分教会（1420005004548）に合併し解散,2015-10-05,1,,,,,テンリキョウホウリサカエブンキョウカイ,0
1097,5010401063623,登記記録の閉鎖等,0,2022-02-01,2022-01-24,株式会社日本インフォメーションシステム,,株式会社,東京都,港区,浜松町２丁目１番１６号スバックスＩＩ浜松町ビル,00050722,13,103,1050013,,,2022-01-24,清算の結了等,,,2015-10-05,1,,,,,ニホンインフォメーションシステム,0
1108,5010501025812,登記記録の閉鎖等,0,2022-02-01,2022-01-28,株式会社アイテクノ,,株式会社,東京都,台東区,東上野１丁目６番１０号ＡＲＴビル２階,,13,106,1100015,,,2022-01-28,清算の結了等,,,2015-10-05,1,,,,,アイテクノ,0
1126,5011001130854,登記記録の閉鎖等,0,2022-02-01,2022-01-18,株式会社Ｄｅａｌｗｉｔｈ,,株式会社,東京都,渋谷区,円山町５番５号Ｎａｖｉ渋谷Ｖ３階,,13,113,1500044,,,2022-01-18,清算の結了等,,,2019-11-12,1,,,,,ディールウィズ,0
1133,5011101016160,登記記録の閉鎖等,0,2022-02-01,2022-01-26,株式会社日本演出,,株式会社,東京都,新宿区,四谷４丁目１３四谷金子ビル３Ｆ,,13,104,1600004,,,2022-01-26,清算の結了等,,,2015-10-05,1,,,,,ニホンエンシュツ,0
1160,5012805002743,登記記録の閉鎖等,0,2022-02-01,2022-01-31,一般社団法人ＰＩＭバランス整復協会,,その他の設立登記法人,東京都,立川市,錦町３丁目１番２号３階,,13,202,1900022,,,2022-01-31,清算の結了等,,,2018-03-06,1,,,,,ピーエムアイバランスセイフクキョウカイ,0
1173,5020003016755,登記記録の閉鎖等,0,2022-02-01,2022-01-31,フリーダム合同会社,,合同会社,神奈川県,横浜市中区,池袋１０番地１コスモ山手１０９号室,,14,104,2310834,,,2022-01-31,清算の結了等,,,2019-10-09,1,,,,,フリーダム,0
1200,5050002039630,登記記録の閉鎖等,0,2022-02-01,2022-01-27,有限会社岡野建装,,有限会社,茨城県,常総市,坂手町２７５９番地,,08,211,3030042,,,2022-01-27,清算の結了等,,,2015-10-05,1,,,,,,0
1205,5070001003346,登記記録の閉鎖等,0,2022-02-01,2022-01-28,株式会社ヤマニ,,株式会社,東京都,練馬区,南大泉１丁目３０番７号,,13,120,1780064,,,2022-01-28,清算の結了等,,,2015-10-05,1,,,,,ヤマニ,0
1216,5080102000563,登記記録の閉鎖等,0,2022-02-01,2022-01-31,有限会社エスパート八福,,有限会社,静岡県,沼津市,大手町５丁目１０番１１号,,22,203,4100801,,,2022-01-31,清算の結了等,,,2015-10-05,1,,,,,エスパートハチフク,0
1253,5140002057961,登記記録の閉鎖等,0,2022-02-01,2022-01-28,有限会社三浦電工,,有限会社,兵庫県,西宮市,熊野町１２番１５号,,28,204,6638103,,,2022-01-28,清算の結了等,,,2015-10-05,1,,,,,ミウラデンコウ,0
1264,5170002002015,登記記録の閉鎖等,0,2022-02-01,2022-01-31,有限会社シンワ,,有限会社,和歌山県,和歌山市,小倉４１１番地１８,,30,201,6496261,,,2022-01-31,清算の結了等,,,2015-10-05,1,,,,,シンワ,0
1269,5180001072801,登記記録の閉鎖等,0,2022-02-01,2022-01-28,ｅＣｏｓｗａｙ　Ｊａｐａｎ株式会社,,株式会社,愛知県,名古屋市東区,白壁１丁目５８番地２階,,23,102,4610011,,,2022-01-28,清算の結了等,,,2015-10-05,1,,,,,イーコズウェイジャパン,0
1285,5180002063493,登記記録の閉鎖等,0,2022-02-01,2022-01-26,有限会社山輝空調サービス,,有限会社,愛知県,長久手市,岩作高山１２番地５９,,23,238,4801103,,,2022-01-26,清算の結了等,,,2015-10-05,1,,,,,サンキクウチョウサービス,0
1290,5210002001318,登記記録の閉鎖等,0,2022-02-01,2022-01-31,有限会社駒崎工業,00077807,有限会社,福井県,福井市,春日３丁目４１７番地,,18,201,9188108,,,2022-01-31,清算の結了等,,,2015-10-05,1,,,,,コマザキコウギョウ,0
1298,5240002039842,登記記録の閉鎖等,0,2022-02-01,2022-01-28,有限会社岡本熔接所,,有限会社,広島県,福山市,草戸町２丁目１番２７号,,34,207,7200831,,,2022-01-28,清算の結了等,,,2015-10-05,1,,,,,オカモトヨウセツショ,0
1299,5240002042268,登記記録の閉鎖等,0,2022-02-01,2022-01-28,延広商事有限会社,,有限会社,広島県,福山市,沖野上町６丁目１９番１０号,,34,207,7200825,,,2022-01-28,清算の結了等,,,2015-10-05,1,,,,,ノブヒロショウジ,0
1329,5370001002103,登記記録の閉鎖等,0,2022-02-01,2022-01-27,株式会社ハイデイ,,株式会社,宮城県,仙台市太白区,向山４丁目２０番１６号,,04,104,9820841,,,2022-01-27,清算の結了等,,,2015-10-05,1,,,,,ハイデイ,0
1330,5370001008265,登記記録の閉鎖等,0,2022-02-01,2022-01-24,株式会社サトーホーム,,株式会社,宮城県,仙台市宮城野区,小田原１丁目９番２５－５０５号,,04,102,9830803,,,2022-01-24,登記官による閉鎖,,,2015-10-05,1,,,,,,0
1331,5370001014973,登記記録の閉鎖等,0,2022-02-01,2022-01-24,株式会社北日本ＦＭＣ本部,,株式会社,宮城県,仙台市若林区,卸町東３丁目３番１７号ムスイビル２Ｆ,,04,103,9840002,,,2022-01-24,登記官による閉鎖,,,2015-10-05,1,,,,,,0
1332,5370001019683,登記記録の閉鎖等,0,2022-02-01,2022-01-24,株式会社ＥＮ,,株式会社,宮城県,仙台市青葉区,本町２丁目９番８号日宝本町ビル７０２,,04,101,9800014,,,2022-01-24,登記官による閉鎖,,,2015-10-05,1,,,,,,0
1333,5370002006994,登記記録の閉鎖等,0,2022-02-01,2022-01-24,有限会社小野寺企画,,有限会社,宮城県,仙台市宮城野区,榴岡１丁目７番１５号－２０１,,04,102,9830852,,,2022-01-24,登記官による閉鎖,,,2015-10-05,1,,,,,,0
1334,5370003001425,登記記録の閉鎖等,0,2022-02-01,2022-01-24,合同会社夢創会,,合同会社,宮城県,仙台市青葉区,高野原４丁目５番地の７,,04,101,9893216,,,2022-01-24,登記官による閉鎖,,,2015-10-05,1,,,,,,0
1335,5370005001745,登記記録の閉鎖等,0,2022-02-01,2022-01-24,特定非営利活動法人職人集団住改善,,その他の設立登記法人,宮城県,仙台市宮城野区,榴ケ岡５番地みやぎＮＰＯプラザ内,,04,102,9830851,,,2022-01-24,登記官による閉鎖,,,2015-10-05,1,,,,,,0
1336,5370005002710,登記記録の閉鎖等,0,2022-02-01,2022-01-24,特定非営利活動法人みやぎジュニアテニスクラブ,,その他の設立登記法人,宮城県,富谷市,成田４丁目２８－４－４０６,,04,216,9813341,,,2022-01-24,登記官による閉鎖,,,2015-10-05,1,,,,,,0
1337,5370202000500,登記記録の閉鎖等,0,2022-02-01,2022-01-24,有限会社ささき,,有限会社,宮城県,遠田郡美里町,平針字中川前三番１３０番地の４,,04,505,9870021,,,2022-01-24,登記官による閉鎖,,,2015-10-05,1,,,,,,0
1338,5370302001365,登記記録の閉鎖等,0,2022-02-01,2022-01-24,有限会社すぎやま,,有限会社,宮城県,石巻市,雄勝町上雄勝３丁目５４番地,,04,202,9861336,,,2022-01-24,登記官による閉鎖,,,2015-10-05,1,,,,,,0
1341,5370502000968,登記記録の閉鎖等,0,2022-02-01,2022-01-24,有限会社吉金商店,,有限会社,宮城県,気仙沼市,潮見町２丁目１１６番地の２,,04,205,9880031,,,2022-01-24,登記官による閉鎖,,,2015-10-05,1,,,,,,0
1342,5370601002683,登記記録の閉鎖等,0,2022-02-01,2022-01-24,株式会社ケイワン,,株式会社,宮城県,宮城郡利府町,葉山１丁目１１番地３,,04,406,9810105,,,2022-01-24,登記官による閉鎖,,,2015-10-05,1,,,,,,0
1360,5470005003599,登記記録の閉鎖等,0,2022-02-01,2022-01-04,天理教双濱分教会,,その他の設立登記法人,香川県,坂出市,築港町１丁目２番３０号,,37,203,7620055,,,2022-01-04,合併による解散等,1470005003603,令和４年１月４日香川県坂出市西大浜南三丁目７番９号天理教御武所分教会（1470005003603）に合併し解散,2015-10-05,1,,,,,,0
1371,6010001214435,登記記録の閉鎖等,0,2022-02-01,2022-01-21,中央不動産株式会社,,株式会社,東京都,中央区,日本橋小伝馬町１４－５,,13,102,1030001,,,2022-01-21,清算の結了等,,,2020-12-15,1,,,,,チュウオウフドウサン,0
1405,6010601057432,登記記録の閉鎖等,0,2022-02-01,2022-01-14,株式会社ホットパレット,,株式会社,東京都,墨田区,江東橋３丁目８番７号,,13,107,1300022,,,2022-01-14,合併による解散等,3010001210643,令和４年１月１日東京都千代田区丸の内三丁目４番１号新国際ビル６階ＰＬＨＤ株式会社（3010001210643）に合併し解散,2020-06-04,1,,,,,ホットパレット,0
1410,6010901029156,登記記録の閉鎖等,0,2022-02-01,2022-01-28,株式会社アジア生命保険研究所,,株式会社,東京都,世田谷区,池尻４丁目２７番３２－９０６号,,13,112,1540001,,,2022-01-28,清算の結了等,,,2015-10-05,1,,,,,アジアセイメイホケンケンキュウショ,0
1459,6020001113594,登記記録の閉鎖等,0,2022-02-01,2022-01-31,ユウティー・ワークス株式会社,,株式会社,神奈川県,川崎市中原区,新丸子町６９５番地２－４０４号室,,14,133,2110005,,,2022-01-31,清算の結了等,,,2015-11-17,1,,,,,ユウティーワークス,0
1466,6021002067086,登記記録の閉鎖等,0,2022-02-01,2022-01-27,有限会社三杉商店,,有限会社,神奈川県,横須賀市,船越町５丁目２番地,,14,201,2370076,,,2022-01-27,清算の結了等,,,2015-10-05,1,,,,,ミスギショウテン,0
1470,6030001039343,登記記録の閉鎖等,0,2022-02-01,2022-01-27,株式会社組織デザイン,,株式会社,埼玉県,八潮市,大字大瀬１８４７番地１６,,11,234,3400822,,,2022-01-27,清算の結了等,,,2015-10-05,1,,,,,ソシキデザイン,0
1489,6040002057418,登記記録の閉鎖等,0,2022-02-01,2022-01-27,有限会社シノダ,,有限会社,千葉県,印西市,鹿黒６７４番地,,12,231,2701363,,,2022-01-27,清算の結了等,,,2015-10-05,1,,,,,シノダ,0
1496,6050001031257,登記記録の閉鎖等,0,2022-02-01,2022-01-27,ホシカ株式会社,,株式会社,茨城県,つくばみらい市,筒戸３３６３番地４,,08,235,3002435,,,2022-01-27,清算の結了等,,,2015-10-05,1,,,,,ホシカ,0
1498,6050002016587,登記記録の閉鎖等,0,2022-02-01,2022-01-28,有限会社光洋工芸,,有限会社,茨城県,小美玉市,中野谷４８番地１,,08,236,3190111,,,2022-01-28,清算の結了等,,,2015-10-05,1,,,,,,0
1499,6050005002873,登記記録の閉鎖等,0,2022-02-01,2022-01-27,土浦市青果物商業協同組合,,その他の設立登記法人,茨城県,土浦市,卸町１丁目１０番１号,,08,203,3000847,,,2022-01-27,清算の結了等,,,2015-10-05,1,,,,,ツチウラシセイカブツ,0
1504,6070002015034,登記記録の閉鎖等,0,2022-02-01,2022-01-31,有限会社半田屋,,有限会社,群馬県,安中市,原市１丁目１４番２２号,,10,211,3790133,,,2022-01-31,清算の結了等,,,2015-10-05,1,,,,,ハンダヤ,0
1506,6080101017401,登記記録の閉鎖等,0,2022-02-01,2022-01-31,株式会社ドリームサポート,,株式会社,静岡県,富士市,厚原３２８番地の１,,22,210,4190201,,,2022-01-31,清算の結了等,,,2015-10-05,1,,,,,,0
1507,6080401020377,登記記録の閉鎖等,0,2022-02-01,2022-01-11,株式会社Ｌａｈａｉｎａ,,株式会社,静岡県,浜松市中区,鍛冶町１５番地セントラルタワー１５０３号,,22,131,4300933,,,2022-01-11,合併による解散等,3080401020405,令和４年１月１１日静岡県浜松市中区鍛冶町１５番地セントラルタワー１５０３号株式会社ＨＳＰ（3080401020405）に合併し解散,2015-10-05,1,,,,,ラハイナ,0
1546,6140002036205,登記記録の閉鎖等,0,2022-02-01,2022-01-27,有限会社ティエム,,有限会社,兵庫県,高砂市,阿弥陀町阿弥陀１１８７番地２,,28,216,6760827,,,2022-01-27,清算の結了等,,,2015-10-05,1,,,,,ティエム,0
1573,6290001047873,登記記録の閉鎖等,0,2022-02-01,2022-01-27,株式会社上徳,,株式会社,福岡県,八女市,本村１０６番地６,,40,210,8340063,,,2022-01-27,清算の結了等,,,2015-10-05,1,,,,,ジョウトク,0
1584,6300001004435,登記記録の閉鎖等,0,2022-02-01,2022-01-27,株式会社ハマグチゴルフ,,株式会社,佐賀県,佐賀市,鍋島６丁目１６番６号,,41,201,8490937,,,2022-01-27,清算の結了等,,,2015-10-05,1,,,,,ハマグチゴルフ,0
1599,6370001001913,登記記録の閉鎖等,0,2022-02-01,2022-01-24,高野石油株式会社,00081381,株式会社,宮城県,仙台市太白区,長町南４丁目１６番１号,,04,104,9820012,,,2022-01-24,登記官による閉鎖,,,2015-10-05,1,,,,,,0
1600,6370001003455,登記記録の閉鎖等,0,2022-02-01,2022-01-24,株式会社大慶商店,,株式会社,宮城県,仙台市若林区,卸町４丁目３番地の１,,04,103,9840015,,,2022-01-24,登記官による閉鎖,,,2015-10-05,1,,,,,,0
1601,6370001003678,登記記録の閉鎖等,0,2022-02-01,2022-01-24,東方生コンクリート株式会社,,株式会社,宮城県,仙台市青葉区,錦町２丁目１番１１号,,04,101,9800012,,,2022-01-24,登記官による閉鎖,,,2015-10-05,1,,,,,,0
1602,6370001012679,登記記録の閉鎖等,0,2022-02-01,2022-01-24,株式会社ユーノス宮城,,株式会社,宮城県,仙台市宮城野区,日の出町２丁目１番１１号,,04,102,9830035,,,2022-01-24,登記官による閉鎖,,,2015-10-05,1,,,,,,0
1603,6370001014411,登記記録の閉鎖等,0,2022-02-01,2022-01-24,株式会社グッドライフ,,株式会社,宮城県,仙台市若林区,かすみ町３４番３号,,04,103,9840822,,,2022-01-24,登記官による閉鎖,,,2015-10-05,1,,,,,,0
1604,6370001018643,登記記録の閉鎖等,0,2022-02-01,2022-01-24,株式会社西日本ＦＭＣ本部,,株式会社,宮城県,仙台市若林区,卸町東３丁目３番１７号ムスイビル,,04,103,9840002,,,2022-01-24,登記官による閉鎖,,,2015-10-05,1,,,,,,0
1605,6370001018874,登記記録の閉鎖等,0,2022-02-01,2022-01-24,株式会社グランヴェール,,株式会社,宮城県,仙台市青葉区,本町２丁目１番７号本町奥田ビル６階,,04,101,9800014,,,2022-01-24,登記官による閉鎖,,,2015-10-05,1,,,,,,0
1606,6370001019476,登記記録の閉鎖等,0,2022-02-01,2022-01-24,株式会社アートクオリティ,,株式会社,宮城県,仙台市宮城野区,田子１丁目５－７、１０１号,,04,102,9830021,,,2022-01-24,登記官による閉鎖,,,2015-10-05,1,,,,,,0
1610,6370002003660,登記記録の閉鎖等,0,2022-02-01,2022-01-24,有限会社針生電気,,有限会社,宮城県,仙台市太白区,西多賀４丁目１３番１７号,,04,104,9820034,,,2022-01-24,登記官による閉鎖,,,2015-10-05,1,,,,,,0
1611,6370002019806,登記記録の閉鎖等,0,2022-02-01,2022-01-24,有限会社ＶＩＶＯ,,有限会社,宮城県,仙台市太白区,長町南４丁目６番２４－４０２号,,04,104,9820012,,,2022-01-24,登記官による閉鎖,,,2015-10-05,1,,,,,,0
1612,6370003001275,登記記録の閉鎖等,0,2022-02-01,2022-01-24,合同会社ＦＭＴ企画,,合同会社,宮城県,仙台市青葉区,上杉１丁目７番１号山谷物産ビル６０４,,04,101,9800011,,,2022-01-24,登記官による閉鎖,,,2015-10-05,1,,,,,,0
1613,6370102000285,登記記録の閉鎖等,0,2022-02-01,2022-01-24,柴田小型運送有限会社,,有限会社,宮城県,柴田郡柴田町,槻木新町１丁目４番３号,,04,323,9891751,,,2022-01-24,登記官による閉鎖,,,2015-10-05,1,,,,,,0
1614,6370102002447,登記記録の閉鎖等,0,2022-02-01,2022-01-24,有限会社成栄興業,,有限会社,宮城県,白石市,福岡深谷字南沖９番地１,,04,206,9890731,,,2022-01-24,登記官による閉鎖,,,2015-10-05,1,,,,,,0
1615,6370202004979,登記記録の閉鎖等,0,2022-02-01,2022-01-24,有限会社やよい,,有限会社,宮城県,栗原市,高清水佐野丁３７番地の２,,04,213,9872128,,,2022-01-24,登記官による閉鎖,,,2015-10-05,1,,,,,,0
1616,6370302002123,登記記録の閉鎖等,0,2022-02-01,2022-01-24,有限会社マツヤマ建装,,有限会社,宮城県,石巻市,湊字大門崎７８番地,,04,202,9860011,,,2022-01-24,登記官による閉鎖,,,2015-10-05,1,,,,,,0
1619,6400001009572,登記記録の閉鎖等,0,2022-02-01,2022-01-31,株式会社アラルア,,株式会社,岩手県,盛岡市,大通２丁目７－１９－２Ｆ,,03,201,0200022,,,2022-01-31,清算の結了等,,,2015-10-05,1,,,,,アラルア,0
1624,6430001016260,登記記録の閉鎖等,0,2022-02-01,2022-01-28,株式会社松山額縁店,00088319,株式会社,北海道,札幌市中央区,南三条西５丁目３３番地,,01,101,0600063,,,2022-01-28,清算の結了等,,,2015-10-05,1,,,,,マツヤマガクブチテン,0
1699,7011202003700,登記記録の閉鎖等,0,2022-02-01,2022-01-25,有限会社竹食品,,有限会社,東京都,中野区,弥生町２丁目５２番８号,,13,114,1640013,,,2022-01-25,清算の結了等,,,2015-10-05,1,,,,,タケショクヒン,0
1703,7011501002618,登記記録の閉鎖等,0,2022-02-01,2022-01-31,太伸産業株式会社,,株式会社,東京都,北区,堀船３丁目１３番１号,,13,117,1140004,,,2022-01-31,清算の結了等,,,2015-10-05,1,,,,,,0
1748,7050002027897,登記記録の閉鎖等,0,2022-02-01,2022-01-28,有限会社山内工業,,有限会社,茨城県,神栖市,砂山８番地,,08,232,3140255,,,2022-01-28,清算の結了等,,,2015-10-05,1,,,,,ヤマウチコウギョウ,0
1750,7050005003870,登記記録の閉鎖等,0,2022-02-01,2022-01-11,天理教東白川分教会,,その他の設立登記法人,茨城県,小美玉市,飯前字内新田５９７番地４,,08,236,3113404,,,2022-01-11,合併による解散等,5050005007758,令和４年１月１１日茨城県龍ケ崎市川原代町２８５４番地天理教相馬分教会（5050005007758）に合併し解散,2015-10-05,1,,,,,,0
1754,7070001028127,登記記録の閉鎖等,0,2022-02-01,2022-01-31,株式会社たから屋,,株式会社,群馬県,藤岡市,藤岡字西ノ原２０９８番地１,,10,209,3750024,,,2022-01-31,清算の結了等,,,2015-10-05,1,,,,,タカラヤ,0
1758,7080401020376,登記記録の閉鎖等,0,2022-02-01,2022-01-11,株式会社進浜松,,株式会社,静岡県,浜松市中区,鍛冶町１５番地セントラルタワー１５０３号,,22,131,4300933,,,2022-01-11,合併による解散等,3080401020405,令和４年１月１１日静岡県浜松市中区鍛冶町１５番地セントラルタワー１５０３号株式会社ＨＳＰ（3080401020405）に合併し解散,2015-10-05,1,,,,,ススムハママツ,0
1759,7080405006677,登記記録の閉鎖等,0,2022-02-01,2022-01-28,特定非営利活動法人かわなの里ほぐせんぼ,,その他の設立登記法人,静岡県,浜松市北区,引佐町川名４７０番地の１,,22,135,4312202,,,2022-01-28,清算の結了等,,,2015-10-05,1,,,,,カワナノサトホグセンボ,0
1774,7120002050231,登記記録の閉鎖等,0,2022-02-01,2022-01-27,有限会社サカイテック,,有限会社,大阪府,大阪市生野区,中川２丁目５番２－２０３号,,27,116,5440005,,,2022-01-27,清算の結了等,,,2015-10-05,1,,,,,サカイテック,0
1785,7120905001306,登記記録の閉鎖等,0,2022-02-01,2022-01-12,天理教島和分教会,,その他の設立登記法人,大阪府,吹田市,山田東１丁目１８番４号,,27,205,5650821,,,2022-01-12,合併による解散等,7120905000175,令和４年１月１２日大阪府茨木市宮元町５番２９号天理教島上分教会（7120905000175）に合併し解散,2015-10-05,1,,,,,テンリキョウトウワブンキョウカイ,0
1789,7130001050719,登記記録の閉鎖等,0,2022-02-01,2022-01-27,錦イタリア食堂株式会社,,株式会社,京都府,京都市中京区,柳馬場東入東魚屋町１８０番地ＳＡＫＩＺＯ錦小路西ビル２階,,26,104,6040000,,,2022-01-27,清算の結了等,,,2015-10-05,1,,,,,,0
1804,7180002036687,登記記録の閉鎖等,0,2022-02-01,2022-01-28,有限会社ひので,,有限会社,愛知県,名古屋市中区,金山１丁目１３番７号,,23,106,4600022,,,2022-01-28,清算の結了等,,,2015-10-05,1,,,,,ヒノデ,0
1817,7220002013970,登記記録の閉鎖等,0,2022-02-01,2022-01-27,有限会社七尾クリーンサービス,,有限会社,石川県,七尾市,古府町ね部２番地の２,,17,202,9260031,,,2022-01-27,清算の結了等,,,2015-10-05,1,,,,,ナナオクリーンサービス,0
1821,7240001007138,登記記録の閉鎖等,0,2022-02-01,2022-01-31,株式会社テイケイスタイル,,株式会社,広島県,広島市中区,東白島町１９番７７号,,34,101,7300004,,,2022-01-31,清算の結了等,,,2015-10-05,1,,,,,テイケイスタイル,0
1855,7370001010822,登記記録の閉鎖等,0,2022-02-01,2022-01-24,株式会社緑泉,,株式会社,宮城県,仙台市青葉区,二日町１０番１５号,,04,101,9800802,,,2022-01-24,登記官による閉鎖,,,2015-10-05,1,,,,,,0
1856,7370001011325,登記記録の閉鎖等,0,2022-02-01,2022-01-24,東北鈑金塗装工業株式会社,,株式会社,宮城県,仙台市青葉区,北根２丁目８番１１号,,04,101,9810902,,,2022-01-24,登記官による閉鎖,,,2015-10-05,1,,,,,,0
1857,7370001017990,登記記録の閉鎖等,0,2022-02-01,2022-01-24,株式会社ポジテック,,株式会社,宮城県,仙台市太白区,長町５丁目３番１－１８０９号,,04,104,9820011,,,2022-01-24,登記官による閉鎖,,,2015-10-05,1,,,,,,0
1858,7370001019021,登記記録の閉鎖等,0,2022-02-01,2022-01-24,株式会社そらシステム,,株式会社,宮城県,仙台市青葉区,花京院１丁目１番５２号朝日プラザ花京院７０３号,,04,101,9800013,,,2022-01-24,登記官による閉鎖,,,2015-10-05,1,,,,,,0
1863,7370002005714,登記記録の閉鎖等,0,2022-02-01,2022-01-24,有限会社なかせん,,有限会社,宮城県,仙台市若林区,荒町６６番地の３,,04,103,9840073,,,2022-01-24,登記官による閉鎖,,,2015-10-05,1,,,,,,0
1864,7370002020457,登記記録の閉鎖等,0,2022-02-01,2022-01-24,有限会社本田塗装,,有限会社,宮城県,富谷市,鷹乃杜２丁目１１番６号,,04,216,9813351,,,2022-01-24,登記官による閉鎖,,,2015-10-05,1,,,,,,0
1865,7370301000952,登記記録の閉鎖等,0,2022-02-01,2022-01-24,東北土地開発株式会社,,株式会社,宮城県,石巻市,中里２丁目１２番３号,,04,202,9860815,,,2022-01-24,登記官による閉鎖,,,2015-10-05,1,,,,,,0
1866,7370302000547,登記記録の閉鎖等,0,2022-02-01,2022-01-24,有限会社奥松島乘馬クラブ,,有限会社,宮城県,東松島市,大塚字松崎１７４番地,,04,214,9810414,,,2022-01-24,登記官による閉鎖,,,2015-10-05,1,,,,,,0
1867,7370501000117,登記記録の閉鎖等,0,2022-02-01,2022-01-24,株式会社からくわ,,株式会社,宮城県,気仙沼市,唐桑町明戸２０２番地の１,,04,205,9880533,,,2022-01-24,登記官による閉鎖,,,2015-10-05,1,,,,,,0
1868,7370501000125,登記記録の閉鎖等,0,2022-02-01,2022-01-24,株式会社観光センターしま,,株式会社,宮城県,気仙沼市,田尻２０９番地５,,04,205,9880611,,,2022-01-24,登記官による閉鎖,,,2015-10-05,1,,,,,,0
1869,7370601002797,登記記録の閉鎖等,0,2022-02-01,2022-01-24,株式会社山正,,株式会社,宮城県,多賀城市,八幡２丁目１６番２４号,,04,209,9850874,,,2022-01-24,登記官による閉鎖,,,2015-10-05,1,,,,,,0
1870,7370602003191,登記記録の閉鎖等,0,2022-02-01,2022-01-24,有限会社フラワーアイランド,,有限会社,宮城県,塩竈市,浦戸野々島字吹越１番地,,04,203,9850193,,,2022-01-24,登記官による閉鎖,,,2015-10-05,1,,,,,,0
1886,7470005003580,登記記録の閉鎖等,0,2022-02-01,2022-01-04,天理教内濱分教会,,その他の設立登記法人,香川県,坂出市,八幡町２丁目５番１９号,,37,203,7620041,,,2022-01-04,合併による解散等,1470005003603,令和４年１月４日香川県坂出市西大浜南三丁目７番９号天理教御武所分教会（1470005003603）に合併し解散,2015-10-05,1,,,,,,0
1900,8010003017743,登記記録の閉鎖等,0,2022-02-01,2022-01-24,合同会社Ｓｔｏｒｉａ,,合同会社,東京都,中央区,銀座８丁目６番２２号銀座ピアースビル２Ｆ,,13,102,1040061,,,2022-01-24,清算の結了等,,,2015-10-05,1,,,,,ストーリア,0
1906,8010401099103,登記記録の閉鎖等,0,2022-02-01,2022-01-25,株式会社弘中建築設計事務所,,株式会社,東京都,豊島区,駒込１丁目３０番１３号,,13,116,1700003,,,2022-01-25,清算の結了等,,,2015-10-05,1,,,,,ヒロナカケンチクセッケイジムショ,0
1910,8010401144115,登記記録の閉鎖等,0,2022-02-01,2022-01-25,株式会社ＣＡＬＡＮ,,株式会社,東京都,港区,西麻布２丁目２５番２３号,,13,103,1060031,,,2022-01-25,清算の結了等,,,2019-03-01,1,,,,,カラン,0
1918,8010403014860,登記記録の閉鎖等,0,2022-02-01,2022-01-25,合同会社南九州頴娃,,合同会社,東京都,港区,虎ノ門１丁目２番８号リニューアブル・ジャパン株式会社内,,13,103,1050001,,,2022-01-25,清算の結了等,,,2016-05-30,1,,,,,ミナミキュウシュウエイ,0
1929,8010605003224,登記記録の閉鎖等,0,2022-02-01,2022-01-25,特定非営利活動法人Ｃｈｉｌｄ　Ｆｉｒｓｔ　Ｌａｂ．,,その他の設立登記法人,東京都,江東区,三好４丁目７番２８－２１０号,,13,108,1350022,,,2022-01-25,清算の結了等,,,2016-04-06,1,,,,,チャイルドファーストラボ,0
1930,8010701023035,登記記録の閉鎖等,0,2022-02-01,2022-01-26,株式会社トライテック,,株式会社,東京都,品川区,小山台１丁目８番５号,,13,109,1420061,,,2022-01-26,合併による解散等,4011001013770,令和３年１２月２８日東京都渋谷区恵比寿三丁目４３番１－６０５号タックシステム株式会社（4011001013770）に合併し解散,2015-10-05,1,,,,,トライテック,0
1937,8011001132179,登記記録の閉鎖等,0,2022-02-01,2022-01-14,株式会社Ｏｌｔｏ,,株式会社,東京都,渋谷区,広尾３丁目４番１号シャレール広尾２－３１０号室,,13,113,1500012,,,2022-01-14,合併による解散等,6010401155502,令和３年１２月２２日東京都港区麻布十番一丁目１０番３号家のＡＩ株式会社（6010401155502）に合併し解散,2020-02-05,1,,,,,オルト,0
1961,8013301027298,登記記録の閉鎖等,0,2022-02-01,2022-01-25,アドサファリ株式会社,,株式会社,東京都,豊島区,要町１丁目２番３号,,13,116,1710043,,,2022-01-25,清算の結了等,,,2015-10-05,1,,,,,アドサファリ,0
1992,8040001036271,登記記録の閉鎖等,0,2022-02-01,2022-01-27,トーケンホーム株式会社,,株式会社,千葉県,松戸市,小金原４丁目４０番地１８,,12,207,2700021,,,2022-01-27,清算の結了等,,,2015-10-05,1,,,,,トーケンホーム,0
2002,8050003002881,登記記録の閉鎖等,0,2022-02-01,2022-01-24,合同会社Ｋｏｉｎｕｐ,,合同会社,茨城県,つくば市,栗原３５４１－１０,,08,220,3050001,,,2022-01-24,清算の結了等,,,2015-10-05,1,,,,,コインアップ,0
2005,8060001025652,登記記録の閉鎖等,0,2022-02-01,2022-01-27,京王産業株式会社,,株式会社,栃木県,那須塩原市,本郷町６番地４,,09,213,3250053,,,2022-01-27,清算の結了等,,,2015-10-05,1,,,,,ケイオウサンギョウ,0
2007,8070001027953,登記記録の閉鎖等,0,2022-02-01,2022-01-28,株式会社アクアシップ,,株式会社,群馬県,邑楽郡邑楽町,大字中野２６６３番地２,,10,525,3700603,,,2022-01-28,清算の結了等,,,2015-10-05,1,,,,,,0
2008,8070001033902,登記記録の閉鎖等,0,2022-02-01,2022-01-28,株式会社ＩＭＲ,,株式会社,群馬県,太田市,龍舞町１９２６番地２,,10,205,3730806,,,2022-01-28,清算の結了等,,,2017-09-06,1,,,,,アイエムアール,0
2012,8080401020375,登記記録の閉鎖等,0,2022-02-01,2022-01-11,株式会社成夢,,株式会社,静岡県,浜松市中区,鍛冶町１５番地セントラルタワー１５０３号,,22,131,4300933,,,2022-01-11,合併による解散等,3080401020405,令和４年１月１１日静岡県浜松市中区鍛冶町１５番地セントラルタワー１５０３号株式会社ＨＳＰ（3080401020405）に合併し解散,2015-10-05,1,,,,,セイム,0
2017,8100001031571,登記記録の閉鎖等,0,2022-02-01,2022-01-27,アサヒ繊維機械製作所株式会社,,株式会社,長野県,諏訪郡原村,１１９５６番地,,20,363,3910100,,,2022-01-27,清算の結了等,,,2018-09-06,1,,,,,アサヒセンイキカイセイサクジョ,0
2018,8100002016150,登記記録の閉鎖等,0,2022-02-01,2022-01-27,有限会社掛川モータース,,有限会社,長野県,上田市,中丸子１３９１番地,,20,203,3860405,,,2022-01-27,清算の結了等,,,2015-10-05,1,,,,,カケガワモータース,0
2019,8110002008626,登記記録の閉鎖等,0,2022-02-01,2022-01-27,有限会社イノマタ薬局,,有限会社,新潟県,新潟市東区,江南６丁目１番地２９,,15,102,9500855,,,2022-01-27,清算の結了等,,,2015-10-05,1,,,,,イノマタヤッキョク,0
2024,8120001138852,登記記録の閉鎖等,0,2022-02-01,2022-01-28,治興業株式会社,,株式会社,大阪府,大阪市東成区,東今里２丁目６番１２号,,27,115,5370011,,,2022-01-28,清算の結了等,,,2015-10-05,1,,,,,ハルコウギョウ,0
2044,8120905000182,登記記録の閉鎖等,0,2022-02-01,2022-01-14,天理教陽華分教会,,その他の設立登記法人,大阪府,茨木市,南春日丘６丁目３番１４号,,27,211,5670046,,,2022-01-14,合併による解散等,4170005004406,令和３年１２月２８日和歌山県御坊市湯川町小松原２３３番地天理教湯川分教会（4170005004406）に合併し解散,2015-10-05,1,,,,,テンリキョウヨウカブンキョウカイ,0
2058,8140005011104,登記記録の閉鎖等,0,2022-02-01,2022-01-19,天理教島谷分教会,,その他の設立登記法人,兵庫県,尼崎市,杭瀬寺島１丁目３番２２号,,28,202,6600813,,,2022-01-19,合併による解散等,7120905000175,令和４年１月１２日大阪府茨木市宮元町５番２９号天理教島上分教会（7120905000175）に合併し解散,2015-10-05,1,,,,,,0
2062,8170002006327,登記記録の閉鎖等,0,2022-02-01,2022-01-31,有限会社シンワアクティブ,,有限会社,和歌山県,海南市,重根３３５番地１,,30,202,6420023,,,2022-01-31,清算の結了等,,,2015-10-05,1,,,,,シンワアクティブ,0
2075,8200001014780,登記記録の閉鎖等,0,2022-02-01,2022-01-28,近藤自動車販売株式会社,,株式会社,岐阜県,不破郡垂井町,表佐１９０１番地の１,,21,361,5032122,,,2022-01-28,清算の結了等,,,2015-10-05,1,,,,,コンドウジドウシャハンバイ,0
2090,8230005004172,登記記録の閉鎖等,0,2022-02-01,2022-01-11,エホバの証人の魚津市本江会衆,,その他の設立登記法人,富山県,魚津市,本江３１１８番地２,,16,204,9370805,,,2022-01-11,合併による解散等,4230005004011,令和４年１月１１日富山県下新川郡入善町新屋１１番地１宗教法人エホバの証人の入善会衆（4230005004011）に合併し解散,2015-10-05,1,,,,,,0
2097,8250001000495,登記記録の閉鎖等,0,2022-02-01,2022-01-20,二水開発株式会社,,株式会社,山口県,山口市,湯田温泉１丁目１１番３３号,,35,203,7530056,,,2022-01-20,合併による解散等,4250002000738,令和４年１月２０日山口市湯田温泉一丁目１１番３３号株式会社新興商会（4250002000738）に合併し解散,2015-10-05,1,,,,,ニスイカイハツ,0
2101,8280005006585,登記記録の閉鎖等,0,2022-02-01,2022-01-31,一般社団法人島根県開業獣医師会,,その他の設立登記法人,島根県,松江市,黒田町３５８番地２,,32,201,6900876,,,2022-01-31,清算の結了等,,,2015-10-05,1,,,,,シマネケンカイギョウジュウイシカイ,0
2108,8300001006306,登記記録の閉鎖等,0,2022-02-01,2022-01-26,毎日西部輸送株式会社,,株式会社,福岡県,京都郡苅田町,大字苅田３７８７番地７３,,40,621,8000365,,,2022-01-26,清算の結了等,,,2015-10-05,1,,,,,マイニチセイブユソウ,0
2111,8360001027404,登記記録の閉鎖等,0,2022-02-01,2022-01-17,株式会社ティエラプロテクト,,株式会社,沖縄県,那覇市,字松川７４２番地,,47,201,9020062,,,2022-01-17,合併による解散等,5180001132968,令和３年１２月３１日名古屋市中区栄一丁目２６番８号株式会社ソーラーストレージ（5180001132968）に合併し解散,2020-07-07,1,,,,,ティエラプロテクト,0
2114,8370001000797,登記記録の閉鎖等,0,2022-02-01,2022-01-24,株式会社菅井鉄工所,,株式会社,宮城県,仙台市泉区,野村字丸山７番地の３６,,04,105,9813124,,,2022-01-24,登記官による閉鎖,,,2016-07-11,1,,,,,,0
2115,8370001003908,登記記録の閉鎖等,0,2022-02-01,2022-01-24,株式会社フォード仙台,,株式会社,宮城県,仙台市若林区,卸町東３丁目１番１２号,,04,103,9840002,,,2022-01-24,登記官による閉鎖,,,2015-10-05,1,,,,,,0
2116,8370001012719,登記記録の閉鎖等,0,2022-02-01,2022-01-24,株式会社ベアーコン,,株式会社,宮城県,仙台市泉区,高森４丁目２番地の１７１,,04,105,9813203,,,2022-01-24,登記官による閉鎖,,,2015-10-05,1,,,,,,0
2117,8370001020465,登記記録の閉鎖等,0,2022-02-01,2022-01-24,株式会社北東メタル,,株式会社,宮城県,仙台市泉区,桂２丁目２０番地の６,,04,105,9813134,,,2022-01-24,登記官による閉鎖,,,2015-10-05,1,,,,,,0
2120,8370002006570,登記記録の閉鎖等,0,2022-02-01,2022-01-24,有限会社アスカ・システム,,有限会社,宮城県,仙台市宮城野区,鶴ケ谷３丁目１８番地の２,,04,102,9830824,,,2022-01-24,登記官による閉鎖,,,2015-10-05,1,,,,,,0
2121,8370002008121,登記記録の閉鎖等,0,2022-02-01,2022-01-24,ティーアールワイ有限会社,,有限会社,宮城県,仙台市宮城野区,鶴ケ谷３丁目２１番地の２,,04,102,9830824,,,2022-01-24,登記官による閉鎖,,,2015-10-05,1,,,,,,0
2122,8370002013542,登記記録の閉鎖等,0,2022-02-01,2022-01-24,有限会社松下重機,,有限会社,宮城県,仙台市青葉区,錦ケ丘６丁目２番地の７,,04,101,9893123,,,2022-01-24,登記官による閉鎖,,,2016-06-13,1,,,,,,0
2123,8370002018491,登記記録の閉鎖等,0,2022-02-01,2022-01-24,有限会社ティー・エム・ガレージ,,有限会社,宮城県,仙台市太白区,八木山本町１丁目１番地の１０,,04,104,9820801,,,2022-01-24,登記官による閉鎖,,,2015-10-05,1,,,,,,0
2124,8370202000828,登記記録の閉鎖等,0,2022-02-01,2022-01-24,有限会社仲村製茶,,有限会社,宮城県,大崎市,古川大柿字法橋河原１３８番地,,04,215,9896100,,,2022-01-24,登記官による閉鎖,,,2015-10-05,1,,,,,,0
2127,8370302003268,登記記録の閉鎖等,0,2022-02-01,2022-01-28,有限会社オーシャンネット,,有限会社,宮城県,石巻市,丸井戸１丁目４番１１号サンテラスＡ号,,04,202,9860865,,,2022-01-28,清算の結了等,,,2015-10-05,1,,,,,オーシャンネット,0
2128,8370302003400,登記記録の閉鎖等,0,2022-02-01,2022-01-24,有限会社エムケー・プラン,,有限会社,宮城県,石巻市,千石町５番１２号,,04,202,9860827,,,2022-01-24,登記官による閉鎖,,,2015-10-05,1,,,,,,0
2129,8370305000758,登記記録の閉鎖等,0,2022-02-01,2022-01-24,特定非営利活動法人なるせ・泉,,その他の設立登記法人,宮城県,東松島市,小野字町裏１２０番地３,,04,214,9810303,,,2022-01-24,登記官による閉鎖,,,2015-10-05,1,,,,,,0
2131,8370602001954,登記記録の閉鎖等,0,2022-02-01,2022-01-24,有限会社ヤマショウ流通,,有限会社,宮城県,多賀城市,八幡２丁目１６番２４号,,04,209,9850874,,,2022-01-24,登記官による閉鎖,,,2015-10-05,1,,,,,,0
2135,8430001028080,登記記録の閉鎖等,0,2022-02-01,2022-01-28,エーワイ・アサヒユハラ株式会社,,株式会社,北海道,札幌市東区,苗穂町１３丁目１番３５号,,01,103,0650043,,,2022-01-28,清算の結了等,,,2015-10-05,1,,,,,エーワイアサヒユハラ,0
2152,8500002001715,登記記録の閉鎖等,0,2022-02-01,2022-01-28,有限会社大西板金工業所,,有限会社,愛媛県,松山市,南久米町９番地５,,38,201,7900924,,,2022-01-28,清算の結了等,,,2015-10-05,1,,,,,オオニシバンキンコウギョウショ,0
2163,9010003017619,登記記録の閉鎖等,0,2022-02-01,2022-01-28,合同会社Ｓｔｒａｔｅｇｉｃ　Ｆｉｎａｎｃｉａｌ　Ｃａｐｉｔａｌ,,合同会社,神奈川県,横浜市神奈川区,三枚町５７３－１４－３０２号,,14,102,2210862,,,2022-01-28,清算の結了等,,,2015-10-05,1,,,,,ストラテジックフィナンシャルキャピタル,0
2218,9012403004972,登記記録の閉鎖等,0,2022-02-01,2022-01-26,Ｎｅｗ　Ｃｕｂｅ合同会社,,合同会社,東京都,調布市,菊野台２丁目４０番地２４,,13,208,1820007,,,2022-01-26,清算の結了等,,,2021-08-10,1,,,,,ニューキューブ,0
2231,9020002000822,登記記録の閉鎖等,0,2022-02-01,2022-01-27,有限会社矢口企画,,有限会社,神奈川県,平塚市,浅間町４番１号,,14,203,2540041,,,2022-01-27,清算の結了等,,,2015-10-05,1,,,,,ヤグチキカク,0
2235,9020002098114,登記記録の閉鎖等,0,2022-02-01,2022-01-31,有限会社鉄工社,,有限会社,神奈川県,川崎市川崎区,大島町四丁目１１番９号,,14,131,2100000,,,2022-01-31,清算の結了等,,,2015-10-05,1,,,,,,0
2254,9030003010480,登記記録の閉鎖等,0,2022-02-01,2022-01-26,合同会社ＭＩＮＥＸ,,合同会社,埼玉県,さいたま市大宮区,三橋２丁目７９番地ＬＲ大宮セレンフォート９０１,,11,103,3300856,,,2022-01-26,清算の結了等,,,2017-07-04,1,,,,,マイネックス,0
2280,9080401000186,登記記録の閉鎖等,0,2022-02-01,2022-01-28,アステート株式会社,,株式会社,静岡県,浜松市中区,紺屋町３０６番地の３１,,22,131,4300938,,,2022-01-28,清算の結了等,,,2015-10-05,1,,,,,アステート,0
2297,9120001196453,登記記録の閉鎖等,0,2022-02-01,2022-01-28,株式会社ファクトリー寝屋川,,株式会社,大阪府,寝屋川市,中木田町３５番１号,,27,215,5720820,,,2022-01-28,清算の結了等,,,2016-02-24,1,,,,,ファクトリーネヤガワ,0
2306,9120001211757,登記記録の閉鎖等,0,2022-02-01,2022-01-31,株式会社ＳＨＯＷ　Ａｒｔ,,株式会社,大阪府,大阪市中央区,本町４丁目４番２７号,,27,128,5410053,,,2022-01-31,清算の結了等,,,2018-03-07,1,,,,,,0
2307,9120001222812,登記記録の閉鎖等,0,2022-02-01,2022-01-28,友慕株式会社,,株式会社,大阪府,大阪市北区,天満２丁目１－１２天満橋ＳＥビル４Ｆ,,27,127,5300043,,,2022-01-28,清算の結了等,,,2019-08-05,1,,,,,トモシタ,0
2315,9120102013929,登記記録の閉鎖等,0,2022-02-01,2022-01-26,有限会社以和貴,,有限会社,大阪府,松原市,三宅中５丁目７番１９号,,27,217,5800046,,,2022-01-26,清算の結了等,,,2015-10-05,1,,,,,イワキ,0
2345,9220002011394,登記記録の閉鎖等,0,2022-02-01,2022-01-27,有限会社吉岡造園,,有限会社,石川県,小松市,蛭川町甲１６３番地,,17,203,9230011,,,2022-01-27,清算の結了等,,,2015-10-05,1,,,,,ヨシオカゾウエン,0
2358,9250005004046,登記記録の閉鎖等,0,2022-02-01,2022-01-17,天理教安美分教会,,その他の設立登記法人,山口県,下関市,豊田町大字殿敷２９７８番地の２,,35,201,7500421,,,2022-01-17,合併による解散等,8250005004047,令和４年１月１７日山口県下関市豊田町大字矢田字寺内４２３番地の３天理教安一美分教会（8250005004047）に合併し解散,2015-10-05,1,,,,,,0
2383,9350001012703,登記記録の閉鎖等,0,2022-02-01,2022-01-31,株式会社ＳＵＺＵＧＥＮ,,株式会社,宮崎県,宮崎市,大字赤江字飛江田１０１０番地２,,45,201,8800912,,,2022-01-31,清算の結了等,,,2015-10-05,1,,,,,スズゲン,0
2386,9370001002289,登記記録の閉鎖等,0,2022-02-01,2022-01-24,守源商事株式会社,,株式会社,宮城県,仙台市太白区,中田７丁目３０番１０号,,04,104,9811104,,,2022-01-24,登記官による閉鎖,,,2015-10-05,1,,,,,,0
2389,9370002016676,登記記録の閉鎖等,0,2022-02-01,2022-01-24,有限会社中野水産,,有限会社,宮城県,仙台市若林区,卸町４丁目８番１号,,04,103,9840015,,,2022-01-24,登記官による閉鎖,,,2015-10-05,1,,,,,,0
2390,9370003000943,登記記録の閉鎖等,0,2022-02-01,2022-01-24,合名会社ベスト・イン,,合名会社,宮城県,仙台市青葉区,立町１６番２２－７０４号,,04,101,9800822,,,2022-01-24,登記官による閉鎖,,,2015-10-05,1,,,,,,0
2391,9370005000215,登記記録の閉鎖等,0,2022-02-01,2022-01-24,財団法人仙台市乗馬協会,,その他の設立登記法人,宮城県,仙台市若林区,井土字砂崩１番地,,04,103,9840842,,,2022-01-24,登記官による閉鎖,,,2015-10-05,1,,,,,,0
2392,9370005002541,登記記録の閉鎖等,0,2022-02-01,2022-01-24,特定非営利活動法人クローバー,,その他の設立登記法人,宮城県,仙台市宮城野区,鶴ケ谷１丁目２２番１号,,04,102,9830824,,,2022-01-24,登記官による閉鎖,,,2015-10-05,1,,,,,,0
2394,9370201000233,登記記録の閉鎖等,0,2022-02-01,2022-01-24,仙北圧送株式会社,,株式会社,宮城県,大崎市,古川稲葉字鴻ノ巣１６５番地の９,,04,215,9896135,,,2022-01-24,登記官による閉鎖,,,2015-10-05,1,,,,,,0
2395,9370201000456,登記記録の閉鎖等,0,2022-02-01,2022-01-24,株式会社マイ・ツーリスト,,株式会社,宮城県,大崎市,古川西館３丁目１番３０号,,04,215,9896156,,,2022-01-24,登記官による閉鎖,,,2015-10-05,1,,,,,,0
2396,9370202004101,登記記録の閉鎖等,0,2022-02-01,2022-01-24,有限会社カルチャー,,有限会社,宮城県,大崎市,鹿島台木間塚字小谷地１６２番地１,,04,215,9894102,,,2022-01-24,登記官による閉鎖,,,2015-10-05,1,,,,,,0
2397,9370203000322,登記記録の閉鎖等,0,2022-02-01,2022-01-24,古川トップボウル合同会社,,合同会社,宮城県,大崎市,古川江合寿町３丁目６番２号,,04,215,9896103,,,2022-01-24,登記官による閉鎖,,,2015-10-05,1,,,,,,0
2398,9370301000298,登記記録の閉鎖等,0,2022-02-01,2022-01-24,株式会社大川電子,,株式会社,宮城県,石巻市,針岡字昭和４９５番地,,04,202,9860114,,,2022-01-24,登記官による閉鎖,,,2015-10-05,1,,,,,,0
2399,9370305000492,登記記録の閉鎖等,0,2022-02-01,2022-01-24,農事組合法人大福地組合,,その他の設立登記法人,宮城県,石巻市,福地字中原２３番地,,04,202,9860115,,,2022-01-24,登記官による閉鎖,,,2015-10-05,1,,,,,,0
2404,9390002001957,登記記録の閉鎖等,0,2022-02-01,2022-01-28,有限会社富藤,,有限会社,山形県,山形市,富の中３丁目１１番２８号ＹＯＳＨＩビル１０２号,,06,201,9902463,,,2022-01-28,合併による解散等,8390002002535,令和３年１２月２４日山形市富の中三丁目１１番２８号ＹＯＳＨＩビル１０２号株式会社マートふじき（8390002002535）に合併し解散,2015-10-05,1,,,,,トミフジ,0
2405,9400005005788,登記記録の閉鎖等,0,2022-02-01,2022-01-31,特定非営利活動法人こどもの国虹色,,その他の設立登記法人,岩手県,北上市,鬼柳町堰合１１８番地１,,03,206,0240056,,,2022-01-31,清算の結了等,,,2015-10-05,1,,,,,コドモノクニニジイロ,0
2411,9420005000837,登記記録の閉鎖等,0,2022-02-01,2022-01-04,天理教国浦分教会,,その他の設立登記法人,青森県,青森市,中央１丁目８番４号,,02,201,0300822,,,2022-01-04,合併による解散等,2420005000835,令和４年１月４日青森市大字横内字鏡山１７番地１天理教国北分教会（2420005000835）に合併し解散,2015-10-05,1,,,,,テンリキョウクニウラブンキョウカイ,0
2413,9430001078595,登記記録の閉鎖等,0,2022-02-01,2022-01-31,一交株式会社,,株式会社,北海道,札幌市東区,東苗穂七条３丁目５番２５号,,01,103,0070807,,,2022-01-31,清算の結了等,,,2019-03-27,1,,,,,イチコウ,0
2429,9490005006431,登記記録の閉鎖等,0,2022-02-01,2022-01-28,一般社団法人ゆめプロジェクト６５さん,,その他の設立登記法人,高知県,高知市,鳥越１番地１,,39,201,7800949,,,2022-01-28,清算の結了等,,,2015-10-05,1,,,,,ユメプロジェクトロクゴウサン,0
