sequenceNumber,corporateNumber,process,correct,updateDate,changeDate,name,nameImageId,kind,prefectureName,cityName,streetNumber,addressImageId,prefectureCode,cityCode,postCode,addressOutside,addressOutsideImageId,closeDate,closeCause,successorCorporateNumber,changeCause,assignmentDate,latest,enName,enPrefectureName,enCityName,enAddressOutside,furigana,hihyoji
23,1010403016442,登記記録の閉鎖等,0,2023-01-23,2023-01-05,合同会社Ｇ・Ｒ,,合同会社,東京都,港区,高輪２丁目１番１３号高輪タウンハウス６１０,,13,103,1080074,,,2023-01-05,清算の結了等,,,2017-04-25,1,,,,,ジーアール,0
25,1010502013919,登記記録の閉鎖等,0,2023-01-23,2023-01-16,有限会社ディオモンド,,有限会社,東京都,台東区,東上野１丁目１７番３号,,13,106,1100015,,,2023-01-16,合併による解散等,5010501007488,令和５年１月１５日東京都台東区東上野一丁目１７番３号株式会社武山（5010501007488）に合併し解散,2015-10-05,1,,,,,,0
32,1010701009841,登記記録の閉鎖等,0,2023-01-23,2023-01-20,株式会社山手ファミリー,,株式会社,東京都,品川区,小山４丁目２番２号,,13,109,1420062,,,2023-01-20,登記官による閉鎖,,,2015-10-05,1,,,,,,0
33,1010701009981,登記記録の閉鎖等,0,2023-01-23,2023-01-20,株式会社ユー・コンセプト,,株式会社,東京都,品川区,荏原６丁目４番７号,,13,109,1420063,,,2023-01-20,登記官による閉鎖,,,2015-10-05,1,,,,,,0
34,1010701012812,登記記録の閉鎖等,0,2023-01-23,2023-01-20,株式会社システムユニティ,,株式会社,東京都,品川区,大崎２丁目１２番２号,,13,109,1410032,,,2023-01-20,登記官による閉鎖,,,2015-10-05,1,,,,,,0
35,1010701017175,登記記録の閉鎖等,0,2023-01-23,2023-01-20,株式会社和順,,株式会社,東京都,品川区,小山３丁目１５番７号,,13,109,1420062,,,2023-01-20,登記官による閉鎖,,,2015-10-05,1,,,,,,0
36,1010701017489,登記記録の閉鎖等,0,2023-01-23,2023-01-20,株式会社セラヴィ,,株式会社,東京都,品川区,上大崎２丁目３番５号,,13,109,1410021,,,2023-01-20,登記官による閉鎖,,,2015-10-05,1,,,,,,0
37,1010701022241,登記記録の閉鎖等,0,2023-01-23,2023-01-20,株式会社トゥー・ビー・ワン国際サービス,,株式会社,東京都,品川区,上大崎３丁目３番９号秀和目黒駅前レジデンス２２１号室,,13,109,1410021,,,2023-01-20,登記官による閉鎖,,,2015-10-05,1,,,,,,0
38,1010701024923,登記記録の閉鎖等,0,2023-01-23,2023-01-20,株式会社Ｃｌｅａｒ,,株式会社,東京都,品川区,小山６丁目５番１０号,,13,109,1420062,,,2023-01-20,登記官による閉鎖,,,2015-10-05,1,,,,,,0
39,1010702004189,登記記録の閉鎖等,0,2023-01-23,2023-01-20,有限会社ジョイ企画,,有限会社,東京都,品川区,西大井１丁目１６番４号,,13,109,1400015,,,2023-01-20,登記官による閉鎖,,,2015-10-05,1,,,,,,0
40,1010702005336,登記記録の閉鎖等,0,2023-01-23,2023-01-20,有限会社ティーエム工業,,有限会社,東京都,品川区,南品川５丁目１５番１７－２０５号,,13,109,1400004,,,2023-01-20,登記官による閉鎖,,,2015-10-05,1,,,,,,0
41,1010702005501,登記記録の閉鎖等,0,2023-01-23,2023-01-20,有限会社出羽屋商店,,有限会社,東京都,品川区,北品川２丁目９番２２号,,13,109,1400001,,,2023-01-20,登記官による閉鎖,,,2015-10-05,1,,,,,,0
42,1010702012935,登記記録の閉鎖等,0,2023-01-23,2023-01-20,有限会社ブラムス,,有限会社,東京都,品川区,西五反田４丁目３１番２－１１０４号,,13,109,1410031,,,2023-01-20,登記官による閉鎖,,,2015-10-05,1,,,,,,0
43,1010801000444,登記記録の閉鎖等,0,2023-01-23,2023-01-20,株式会社アスノテック,,株式会社,東京都,大田区,南馬込３丁目２４番１５号,,13,111,1430025,,,2023-01-20,登記官による閉鎖,,,2015-10-05,1,,,,,,0
44,1010801003694,登記記録の閉鎖等,0,2023-01-23,2023-01-20,幸栄精機株式会社,,株式会社,東京都,大田区,大森東２丁目２１番７号,,13,111,1430012,,,2023-01-20,登記官による閉鎖,,,2015-10-05,1,,,,,,0
45,1010801005765,登記記録の閉鎖等,0,2023-01-23,2023-01-20,株式会社新和,,株式会社,東京都,大田区,北千束１丁目５６番１１号,,13,111,1450062,,,2023-01-20,登記官による閉鎖,,,2015-10-05,1,,,,,,0
46,1010801009584,登記記録の閉鎖等,0,2023-01-23,2023-01-20,株式会社ハウジング・ビューロー・アーバンライフ,,株式会社,東京都,大田区,羽田４丁目４番２５号,,13,111,1440043,,,2023-01-20,登記官による閉鎖,,,2015-10-05,1,,,,,,0
47,1010801013388,登記記録の閉鎖等,0,2023-01-23,2023-01-20,エムケーオーディオ株式会社,,株式会社,東京都,大田区,大森西２丁目６番３号,,13,111,1430015,,,2023-01-20,登記官による閉鎖,,,2015-10-05,1,,,,,,0
48,1010801015640,登記記録の閉鎖等,0,2023-01-23,2023-01-20,株式会社インフォパブリッシング,,株式会社,東京都,大田区,東矢口１丁目１７番９号,,13,111,1460094,,,2023-01-20,登記官による閉鎖,,,2015-10-05,1,,,,,,0
50,1010801018214,登記記録の閉鎖等,0,2023-01-23,2023-01-20,株式会社ジャパンクリエイション,,株式会社,東京都,大田区,蒲田５丁目１９番１５号蒲田東口中央ビル４階,,13,111,1440052,,,2023-01-20,登記官による閉鎖,,,2015-10-05,1,,,,,,0
51,1010801022645,登記記録の閉鎖等,0,2023-01-23,2023-01-20,株式会社葵コーポレーション,,株式会社,東京都,大田区,北嶺町３１番１４号ＦＬＥＸ２Ｆ,,13,111,1450073,,,2023-01-20,登記官による閉鎖,,,2015-10-05,1,,,,,,0
52,1010801027784,登記記録の閉鎖等,0,2023-01-23,2023-01-20,株式会社八洲総業,,株式会社,東京都,大田区,大森南２丁目２５番４号,,13,111,1430013,,,2023-01-20,登記官による閉鎖,,,2017-05-22,1,,,,,,0
53,1010801028361,登記記録の閉鎖等,0,2023-01-23,2023-01-20,飯田製綿株式会社,,株式会社,東京都,大田区,羽田３丁目２２番２号,,13,111,1440043,,,2023-01-20,登記官による閉鎖,,,2017-12-06,1,,,,,,0
54,1010802007587,登記記録の閉鎖等,0,2023-01-23,2023-01-20,有限会社勝呂建設工業,,有限会社,東京都,大田区,田園調布南２０番１３号,,13,111,1450076,,,2023-01-20,登記官による閉鎖,,,2015-10-05,1,,,,,,0
55,1010802008057,登記記録の閉鎖等,0,2023-01-23,2023-01-20,有限会社泉秀工業,,有限会社,東京都,大田区,大森東４丁目３４番２０号,,13,111,1430012,,,2023-01-20,登記官による閉鎖,,,2015-10-05,1,,,,,,0
56,1010802018469,登記記録の閉鎖等,0,2023-01-23,2023-01-20,山王工業有限会社,,有限会社,東京都,大田区,南馬込３丁目３３番１７－３０５号,,13,111,1430025,,,2023-01-20,登記官による閉鎖,,,2015-10-05,1,,,,,,0
57,1010802020499,登記記録の閉鎖等,0,2023-01-23,2023-01-20,有限会社フジ精密工業,,有限会社,東京都,大田区,大森西３丁目１２番３号,,13,111,1430015,,,2023-01-20,登記官による閉鎖,,,2015-10-05,1,,,,,,0
65,1011001035446,登記記録の閉鎖等,0,2023-01-23,2023-01-18,株式会社エヌ・オー・エス,,株式会社,東京都,渋谷区,代々木１丁目１５番７号,,13,113,1510053,,,2023-01-18,清算の結了等,,,2015-10-05,1,,,,,,0
76,1011301000901,登記記録の閉鎖等,0,2023-01-23,2023-01-20,ウラカワホーム株式会社,,株式会社,東京都,杉並区,高井戸東１丁目１７番１２号,,13,115,1680072,,,2023-01-20,登記官による閉鎖,,,2015-10-05,1,,,,,,0
77,1011301005792,登記記録の閉鎖等,0,2023-01-23,2023-01-20,株式会社ハヤカワ,,株式会社,東京都,杉並区,西荻北３丁目１６番１号,,13,115,1670042,,,2023-01-20,登記官による閉鎖,,,2015-10-05,1,,,,,,0
79,1011302005263,登記記録の閉鎖等,0,2023-01-23,2023-01-20,有限会社関口花園,,有限会社,東京都,杉並区,久我山２丁目１６番２７号,,13,115,1680082,,,2023-01-20,登記官による閉鎖,,,2015-10-05,1,,,,,,0
80,1011302009388,登記記録の閉鎖等,0,2023-01-23,2023-01-20,有限会社弥栄,,有限会社,東京都,杉並区,今川１丁目１６番４号,,13,115,1670035,,,2023-01-20,登記官による閉鎖,,,2015-10-05,1,,,,,,0
81,1011302009982,登記記録の閉鎖等,0,2023-01-23,2023-01-20,渡辺ブロック工業有限会社,,有限会社,東京都,杉並区,上荻２丁目８番１１号,,13,115,1670043,,,2023-01-20,登記官による閉鎖,,,2015-10-05,1,,,,,,0
82,1011302010825,登記記録の閉鎖等,0,2023-01-23,2023-01-20,有限会社フェイク,,有限会社,東京都,杉並区,阿佐谷南３丁目２番３１－１０５号,,13,115,1660004,,,2023-01-20,登記官による閉鎖,,,2015-10-05,1,,,,,,0
85,1011501010188,登記記録の閉鎖等,0,2023-01-23,2023-01-20,株式会社エコ資源開発システム,,株式会社,東京都,北区,豊島８丁目５番１０号,,13,117,1140003,,,2023-01-20,登記官による閉鎖,,,2015-10-05,1,,,,,,0
86,1011501015435,登記記録の閉鎖等,0,2023-01-23,2023-01-20,株式会社コンビ,,株式会社,東京都,北区,東十条１丁目１８番２－３０４号,,13,117,1140001,,,2023-01-20,登記官による閉鎖,,,2015-10-05,1,,,,,,0
88,1011502009642,登記記録の閉鎖等,0,2023-01-23,2023-01-20,有限会社竹満,,有限会社,東京都,荒川区,南千住２丁目２８番２号,,13,118,1160003,,,2023-01-20,登記官による閉鎖,,,2015-10-05,1,,,,,,0
89,1011502016234,登記記録の閉鎖等,0,2023-01-23,2023-01-20,有限会社亜細亜,,有限会社,東京都,荒川区,荒川３丁目６７番５号,,13,118,1160002,,,2023-01-20,登記官による閉鎖,,,2015-10-05,1,,,,,,0
90,1011503002159,登記記録の閉鎖等,0,2023-01-23,2023-01-20,合同会社ＭＩＳＴ,,合同会社,東京都,北区,赤羽南１丁目５番７号クレアシオビル７０２号,,13,117,1150044,,,2023-01-20,登記官による閉鎖,,,2015-10-05,1,,,,,,0
91,1011505000425,登記記録の閉鎖等,0,2023-01-23,2023-01-20,財団法人西奨学会,,その他の設立登記法人,東京都,荒川区,東日暮里５丁目４１番１２号,,13,118,1160014,,,2023-01-20,登記官による閉鎖,,,2015-10-05,1,,,,,,0
93,1011701010946,登記記録の閉鎖等,0,2023-01-23,2023-01-18,株式会社片山商会,,株式会社,東京都,江戸川区,南篠崎町４丁目２６番１９号,,13,123,1330065,,,2023-01-18,清算の結了等,,,2015-10-05,1,,,,,カタヤマショウカイ,0
95,1011801007776,登記記録の閉鎖等,0,2023-01-23,2023-01-23,小林管財工業株式会社,,株式会社,東京都,足立区,大谷田５丁目１６番９号,,13,121,1200001,,,2023-01-23,登記官による閉鎖,,,2015-10-05,1,,,,,,0
96,1011801015952,登記記録の閉鎖等,0,2023-01-23,2023-01-23,株式会社日翔設備,,株式会社,東京都,足立区,竹の塚２丁目１３番３号,,13,121,1210813,,,2023-01-23,登記官による閉鎖,,,2015-10-05,1,,,,,,0
97,1011801020705,登記記録の閉鎖等,0,2023-01-23,2023-01-23,株式会社Ｄｉｎｏ’ｓ　Ｐｒｉｃｅ,,株式会社,東京都,足立区,竹の塚１丁目２８番１４号石坂ビル１Ｆ,,13,121,1210813,,,2023-01-23,登記官による閉鎖,,,2015-10-05,1,,,,,,0
98,1011801022313,登記記録の閉鎖等,0,2023-01-23,2023-01-23,株式会社ことばの学校,,株式会社,東京都,足立区,柳原２丁目１８番４号,,13,121,1200022,,,2023-01-23,登記官による閉鎖,,,2015-10-05,1,,,,,,0
99,1011801033277,登記記録の閉鎖等,0,2023-01-23,2023-01-23,株式会社高崎硝子製造所,00110071,株式会社,東京都,葛飾区,白鳥４丁目１１番５号白鳥マンション５０３号,,13,122,1250063,,,2023-01-23,登記官による閉鎖,,,2017-05-08,1,,,,,,0
105,1011802010820,登記記録の閉鎖等,0,2023-01-23,2023-01-23,有限会社大田乳業,,有限会社,東京都,足立区,伊興本町１丁目３番２０号,,13,121,1210807,,,2023-01-23,登記官による閉鎖,,,2015-10-05,1,,,,,,0
106,1011802015357,登記記録の閉鎖等,0,2023-01-23,2023-01-23,有限会社竹之塚わーぷろ学院,00057440,有限会社,東京都,足立区,西竹の塚１丁目１７番２２号昼間ビル２Ｆ,,13,121,1210822,,,2023-01-23,登記官による閉鎖,,,2015-10-05,1,,,,,,0
107,1011802017691,登記記録の閉鎖等,0,2023-01-23,2023-01-23,有限会社平田印刷,,有限会社,東京都,足立区,竹の塚５丁目１番１５号,,13,121,1210813,,,2023-01-23,登記官による閉鎖,,,2015-10-05,1,,,,,,0
109,1011802026321,登記記録の閉鎖等,0,2023-01-23,2023-01-23,有限会社松尾工研,,有限会社,東京都,葛飾区,堀切２丁目３８番１３号,,13,122,1240006,,,2023-01-23,登記官による閉鎖,,,2015-10-05,1,,,,,,0
110,1011802027897,登記記録の閉鎖等,0,2023-01-23,2023-01-23,有限会社アニモ,,有限会社,東京都,葛飾区,西新小岩１丁目１番５号１０１５,,13,122,1240025,,,2023-01-23,登記官による閉鎖,,,2015-10-05,1,,,,,,0
111,1011802030190,登記記録の閉鎖等,0,2023-01-23,2023-01-23,有限会社オカダ,,有限会社,東京都,足立区,西綾瀬３丁目２番１－３０３号,,13,121,1200014,,,2023-01-23,登記官による閉鎖,,,2015-10-05,1,,,,,,0
112,1011805001321,登記記録の閉鎖等,0,2023-01-23,2023-01-23,特定非営利活動法人東京社会福祉推進協議会,,その他の設立登記法人,東京都,足立区,江北７丁目２３番１０号,,13,121,1230872,,,2023-01-23,登記官による閉鎖,,,2015-10-05,1,,,,,,0
113,1011805001783,登記記録の閉鎖等,0,2023-01-23,2023-01-23,中央緑化協同組合,,その他の設立登記法人,東京都,足立区,綾瀬６丁目３１番１４号,,13,121,1200005,,,2023-01-23,登記官による閉鎖,,,2015-10-05,1,,,,,,0
114,1012301010865,登記記録の閉鎖等,0,2023-01-23,2023-01-18,株式会社ｌｉｄｅｍａ　Ｂｒｉｄａｌ,,株式会社,神奈川県,小田原市,風祭４２５,,14,206,2500032,,,2023-01-18,清算の結了等,,,2017-02-16,1,,,,,リデマブライダル,0
119,1013201006937,登記記録の閉鎖等,0,2023-01-23,2023-01-12,株式会社トーザイ・ワーク,,株式会社,東京都,目黒区,下目黒４丁目２３番４号,,13,110,1530064,,,2023-01-12,清算の結了等,,,2015-10-05,1,,,,,トーザイワーク,0
123,1013402002529,登記記録の閉鎖等,0,2023-01-23,2023-01-19,有限会社高橋工務店,00058229,有限会社,東京都,多摩市,連光寺３丁目１１番地の１８,,13,224,2060021,,,2023-01-19,清算の結了等,,,2015-10-05,1,,,,,タカハシコウムテン,0
145,1021002062232,登記記録の閉鎖等,0,2023-01-23,2023-01-16,有限会社ケーライズ,,有限会社,神奈川県,平塚市,田村６丁目２４番地２２号斎木アパート２０２号,,14,203,2540013,,,2023-01-16,清算の結了等,,,2015-10-05,1,,,,,ケーライズ,0
152,1030002048793,登記記録の閉鎖等,0,2023-01-23,2023-01-11,有限会社小渕鉄工,,有限会社,埼玉県,三郷市,新和４丁目４４４番地,,11,237,3410034,,,2023-01-11,清算の結了等,,,2015-10-05,1,,,,,,0
167,1050001007006,登記記録の閉鎖等,0,2023-01-23,2023-01-10,株式会社八長味噌正油工場,00021937,株式会社,茨城県,ひたちなか市,湊本町２番１０号,,08,221,3111221,,,2023-01-10,登記官による閉鎖,,,2015-10-05,1,,,,,,0
168,1050001010587,登記記録の閉鎖等,0,2023-01-23,2023-01-10,株式会社フォードカスミ,,株式会社,茨城県,土浦市,東中貫町１番地の３,,08,203,3000006,,,2023-01-10,登記官による閉鎖,,,2016-12-19,1,,,,,,0
169,1050001015545,登記記録の閉鎖等,0,2023-01-23,2023-01-10,株式会社キョーエイ物産,,株式会社,茨城県,つくば市,柴崎１００５番地２,,08,220,3050004,,,2023-01-10,登記官による閉鎖,,,2015-10-05,1,,,,,,0
170,1050001020479,登記記録の閉鎖等,0,2023-01-23,2023-01-10,太田興業株式会社,,株式会社,茨城県,神栖市,神栖１丁目９番１号,,08,232,3140143,,,2023-01-10,登記官による閉鎖,,,2015-10-05,1,,,,,,0
171,1050001031542,登記記録の閉鎖等,0,2023-01-23,2023-01-10,株式会社筑波開発産業,,株式会社,茨城県,筑西市,下岡崎２丁目２３番１４号,,08,227,3080826,,,2023-01-10,登記官による閉鎖,,,2015-10-05,1,,,,,,0
172,1050001032714,登記記録の閉鎖等,0,2023-01-23,2023-01-10,結城建設株式会社,,株式会社,茨城県,結城市,大字結城８０１番地の７,,08,207,3070001,,,2023-01-10,登記官による閉鎖,,,2015-10-05,1,,,,,,0
174,1050002006444,登記記録の閉鎖等,0,2023-01-23,2023-01-10,有限会社メガモール計画,,有限会社,茨城県,水戸市,白梅４丁目１番２５号,,08,201,3100804,,,2023-01-10,登記官による閉鎖,,,2015-10-05,1,,,,,,0
175,1050002007252,登記記録の閉鎖等,0,2023-01-23,2023-01-10,有限会社江幡工務店,,有限会社,茨城県,那珂市,古徳３５８番地の３,,08,226,3192105,,,2023-01-10,登記官による閉鎖,,,2015-10-05,1,,,,,,0
176,1050002010512,登記記録の閉鎖等,0,2023-01-23,2023-01-10,有限会社足立メリヤス,,有限会社,茨城県,笠間市,吉岡字新切２８番１号,,08,216,3190203,,,2023-01-10,登記官による閉鎖,,,2015-10-05,1,,,,,,0
177,1050002019933,登記記録の閉鎖等,0,2023-01-23,2023-01-10,有限会社シュンコウ,,有限会社,茨城県,坂東市,弓田６１３番地の１,,08,228,3060607,,,2023-01-10,登記官による閉鎖,,,2015-10-05,1,,,,,,0
178,1050002020791,登記記録の閉鎖等,0,2023-01-23,2023-01-10,有限会社飯岡工務店,,有限会社,茨城県,つくば市,田中１４２６番地,,08,220,3004244,,,2023-01-10,登記官による閉鎖,,,2015-10-05,1,,,,,,0
179,1050002025428,登記記録の閉鎖等,0,2023-01-23,2023-01-10,有限会社ピーターアンドネネ,,有限会社,茨城県,古河市,尾崎３９２０番地,,08,204,3060101,,,2023-01-10,登記官による閉鎖,,,2015-10-05,1,,,,,,0
180,1050002030353,登記記録の閉鎖等,0,2023-01-23,2023-01-10,鹿島運送有限会社,,有限会社,茨城県,日立市,田尻町３丁目１番１号,,08,202,3191416,,,2023-01-10,登記官による閉鎖,,,2015-10-05,1,,,,,,0
181,1050002030626,登記記録の閉鎖等,0,2023-01-23,2023-01-10,有限会社サトー企画,,有限会社,茨城県,日立市,久慈町１丁目５番１４号,,08,202,3191222,,,2023-01-10,登記官による閉鎖,,,2015-10-05,1,,,,,,0
182,1050002030898,登記記録の閉鎖等,0,2023-01-23,2023-01-10,有限会社大一不動産,,有限会社,茨城県,日立市,大みか町１丁目１１番１３号,,08,202,3191221,,,2023-01-10,登記官による閉鎖,,,2015-10-05,1,,,,,,0
183,1050002038231,登記記録の閉鎖等,0,2023-01-23,2023-01-10,有限会社渡辺工業,,有限会社,茨城県,つくばみらい市,下島７５番地,,08,235,3002324,,,2023-01-10,登記官による閉鎖,,,2015-10-05,1,,,,,,0
185,1050003001262,登記記録の閉鎖等,0,2023-01-23,2023-01-10,合資会社山田鋳物工場,,合資会社,茨城県,古河市,丘里１１番６号,,08,204,3060206,,,2023-01-10,登記官による閉鎖,,,2015-10-05,1,,,,,,0
186,1050003001287,登記記録の閉鎖等,0,2023-01-23,2023-01-10,合同会社インテリム・シーエフオー・インターナショナル,,合同会社,茨城県,つくば市,松代５丁目５番地３５,,08,220,3050035,,,2023-01-10,登記官による閉鎖,,,2015-10-05,1,,,,,,0
187,1050003002145,登記記録の閉鎖等,0,2023-01-23,2023-01-10,合同会社常陽プランニング,,合同会社,茨城県,土浦市,並木２丁目１８番４６号,,08,203,3000061,,,2023-01-10,登記官による閉鎖,,,2015-10-05,1,,,,,,0
191,1060005006110,登記記録の閉鎖等,0,2023-01-23,2023-01-19,特定非営利活動法人弱者救済サポートセンター,,その他の設立登記法人,栃木県,栃木市,樋ノ口町１１番地４８,,09,203,3280024,,,2023-01-19,清算の結了等,,,2015-10-05,1,,,,,ジャクシャキュウサイサポートセンター,0
198,1080101022488,登記記録の閉鎖等,0,2023-01-23,2023-01-18,テクソン・コヤマ株式会社,,株式会社,静岡県,沼津市,上香貫西島町１１１９番地の３,,22,203,,,,2023-01-18,登記官による閉鎖,,,2021-05-26,1,,,,,テクソンコヤマ,0
207,1100002014350,登記記録の閉鎖等,0,2023-01-23,2023-01-19,有限会社立野解体,,有限会社,長野県,上田市,常田３丁目１５番６７号,,20,203,3860018,,,2023-01-19,清算の結了等,,,2015-10-05,1,,,,,タテノカイタイ,0
210,1110001034282,登記記録の閉鎖等,0,2023-01-23,2023-01-19,株式会社ニャースｂｉｖｉ,,株式会社,新潟県,長岡市,笹崎１丁目１番地１,,15,202,9400833,,,2023-01-19,清算の結了等,,,2019-09-10,1,,,,,ニャースビィヴィ,0
212,1120001078493,登記記録の閉鎖等,0,2023-01-23,2023-01-20,株式会社グランヌーベル,,株式会社,大阪府,大阪市中央区,東心斎橋１丁目１０番７号,,27,128,5420083,,,2023-01-20,清算の結了等,,,2015-10-05,1,,,,,グランヌーベル,0
213,1120001093501,登記記録の閉鎖等,0,2023-01-23,2023-01-19,ウインコンサルティング株式会社,,株式会社,大阪府,大阪市淀川区,西三国４丁目１０番８－１０１１号,,27,123,5320006,,,2023-01-19,清算の結了等,,,2015-10-05,1,,,,,ウインコンサルティング,0
220,1120001243873,登記記録の閉鎖等,0,2023-01-23,2023-01-18,ユーウィルビー株式会社,,株式会社,大阪府,大阪市北区,西天満３丁目６番２２号日宝北大阪屋ビル,,27,127,5300047,,,2023-01-18,清算の結了等,,,2022-02-17,1,,,,,ユーウィルビー,0
259,1180001077663,登記記録の閉鎖等,0,2023-01-23,2023-01-17,株式会社スモールリバー,,株式会社,愛知県,小牧市,西島町１３０番地,,23,219,4850078,,,2023-01-17,清算の結了等,,,2015-10-05,1,,,,,スモールリバー,0
262,1180002017692,登記記録の閉鎖等,0,2023-01-23,2023-01-16,有限会社尾関商店,,有限会社,愛知県,名古屋市中川区,服部４丁目１００１番地,,23,110,4540976,,,2023-01-16,清算の結了等,,,2015-10-05,1,,,,,オゼキショウテン,0
279,1220001016492,登記記録の閉鎖等,0,2023-01-23,2023-01-19,株式会社沖崎石油,,株式会社,石川県,輪島市,鳳至町下町１６４番地２,,17,204,9280075,,,2023-01-19,清算の結了等,,,2015-10-05,1,,,,,オキザキセキユ,0
281,1240001001063,登記記録の閉鎖等,0,2023-01-23,2023-01-20,株式会社上田土木,,株式会社,広島県,広島市安佐北区,口田南１丁目７番２２－４号,,34,106,7391733,,,2023-01-20,清算の結了等,,,2015-10-05,1,,,,,ウエダドボク,0
297,1360003012030,登記記録の閉鎖等,0,2023-01-23,2023-01-04,合同会社ＣＲＯＳＳ,,合同会社,沖縄県,南城市,佐敷字津波古２３３６しあわせそう３０２号室,,47,215,9011414,,,2023-01-04,清算の結了等,,,2022-06-07,1,,,,,クロス,0
298,1370001003047,登記記録の閉鎖等,0,2023-01-23,2023-01-19,株式会社サンガ,,株式会社,宮城県,仙台市宮城野区,二十人町３０７番地１０－６０１号,,04,102,9830862,,,2023-01-19,清算の結了等,,,2015-10-05,1,,,,,サンガ,0
300,1370001016552,登記記録の閉鎖等,0,2023-01-23,2023-01-17,株式会社石井機工,,株式会社,宮城県,仙台市青葉区,子平町１１番３号,,04,101,9810944,,,2023-01-17,清算の結了等,,,2015-10-05,1,,,,,イシイキコウ,0
309,1410002003941,登記記録の閉鎖等,0,2023-01-23,2023-01-18,有限会社渡部電化センター,,有限会社,秋田県,秋田市,牛島東１丁目８番４号,,05,201,0100062,,,2023-01-18,清算の結了等,,,2015-10-05,1,,,,,ワタナベデンカセンター,0
313,1430003010084,登記記録の閉鎖等,0,2023-01-23,2023-01-12,合同会社エムツー企画,,合同会社,北海道,札幌市中央区,南十条西１０丁目１番２０号さくらビル５Ｆ,,01,101,0640810,,,2023-01-12,清算の結了等,,,2019-01-22,1,,,,,エムツーキカク,0
317,1500001008437,登記記録の閉鎖等,0,2023-01-23,2023-01-19,丸共運送株式会社,,株式会社,愛媛県,大洲市,柚木８０７番地１,,38,207,7950011,,,2023-01-19,清算の結了等,,,2015-10-05,1,,,,,マルキョウウンソウ,0
347,2010501031326,登記記録の閉鎖等,0,2023-01-23,2023-01-16,アジル株式会社,,株式会社,東京都,墨田区,両国３丁目９番７号古屋ビル１Ｆ,,13,107,1300026,,,2023-01-16,清算の結了等,,,2015-10-05,1,,,,,,0
349,2010601000008,登記記録の閉鎖等,0,2023-01-23,2023-01-17,株式会社冨沢商工,,株式会社,千葉県,八千代市,大学町２丁目３番３号,,12,221,2760003,,,2023-01-17,清算の結了等,,,2015-10-05,1,,,,,トミザワショウコウ,0
352,2010701000907,登記記録の閉鎖等,0,2023-01-23,2023-01-20,石崎構造設計株式会社,,株式会社,東京都,品川区,東五反田１丁目９番７号東建東五反田マンシヨン３０８号,,13,109,1410022,,,2023-01-20,登記官による閉鎖,,,2015-10-05,1,,,,,,0
354,2010702013825,登記記録の閉鎖等,0,2023-01-23,2023-01-20,Ｔ．Ｓ．ＥＭ有限会社,,有限会社,東京都,品川区,大崎５丁目８番５号グリーンプラザ五反田ＩＩ１１０９,00052057,13,109,1410032,,,2023-01-20,登記官による閉鎖,,,2015-10-05,1,,,,,,0
356,2010705000738,登記記録の閉鎖等,0,2023-01-23,2023-01-20,ヒューマンウェア協同組合,,その他の設立登記法人,東京都,品川区,東五反田５丁目６番３６号,,13,109,1410022,,,2023-01-20,登記官による閉鎖,,,2015-10-05,1,,,,,,0
357,2010801003479,登記記録の閉鎖等,0,2023-01-23,2023-01-20,京浜電機株式会社,,株式会社,東京都,大田区,西蒲田１丁目２番７号,,13,111,1440051,,,2023-01-20,登記官による閉鎖,,,2015-10-05,1,,,,,,0
358,2010801010888,登記記録の閉鎖等,0,2023-01-23,2023-01-20,北陽機器工業株式会社,,株式会社,東京都,大田区,南六郷２丁目２１番５号,,13,111,1440045,,,2023-01-20,登記官による閉鎖,,,2015-10-05,1,,,,,,0
359,2010801017355,登記記録の閉鎖等,0,2023-01-23,2023-01-20,株式会社アーツプランニング,,株式会社,東京都,大田区,新蒲田３丁目９番１３号,,13,111,1440054,,,2023-01-20,登記官による閉鎖,,,2015-10-05,1,,,,,,0
362,2010802000244,登記記録の閉鎖等,0,2023-01-23,2023-01-20,有限会社愛豊,,有限会社,東京都,大田区,羽田１丁目１８番１２号,,13,111,1440043,,,2023-01-20,登記官による閉鎖,,,2015-10-05,1,,,,,,0
363,2010802013956,登記記録の閉鎖等,0,2023-01-23,2023-01-20,有限会社三木屋商事,,有限会社,東京都,大田区,大森南２丁目２番１４号,,13,111,1430013,,,2023-01-20,登記官による閉鎖,,,2015-10-05,1,,,,,,0
364,2010802021100,登記記録の閉鎖等,0,2023-01-23,2023-01-20,有限会社魚善商店,,有限会社,東京都,大田区,北千束１丁目４４番３号,,13,111,1450062,,,2023-01-20,登記官による閉鎖,,,2017-09-04,1,,,,,,0
365,2010803000367,登記記録の閉鎖等,0,2023-01-23,2023-01-20,合資会社東日塗装工業所,,合資会社,東京都,大田区,蒲田５丁目３３番６号,,13,111,1440052,,,2023-01-20,登記官による閉鎖,,,2015-10-05,1,,,,,,0
366,2010803001282,登記記録の閉鎖等,0,2023-01-23,2023-01-20,合同会社アルバ,,合同会社,東京都,大田区,大森北６丁目２番１２号,,13,111,1430016,,,2023-01-20,登記官による閉鎖,,,2015-10-05,1,,,,,,0
367,2010805001099,登記記録の閉鎖等,0,2023-01-23,2023-01-20,特定非営利活動法人エスオーエス・チャイルドホーム・イン・オガサワラ,,その他の設立登記法人,東京都,大田区,久が原３丁目１４番４号瀬尾方,,13,111,1460085,,,2023-01-20,登記官による閉鎖,,,2015-10-05,1,,,,,,0
368,2010805001371,登記記録の閉鎖等,0,2023-01-23,2023-01-20,特定非営利活動法人海の国勢調査,,その他の設立登記法人,東京都,大田区,中央６丁目４番５号,,13,111,1430024,,,2023-01-20,登記官による閉鎖,,,2015-10-05,1,,,,,,0
383,2011101082503,登記記録の閉鎖等,0,2023-01-23,2023-01-19,株式会社新和設計,,株式会社,東京都,新宿区,西早稲田２丁目２１番１２号,,13,104,1690051,,,2023-01-19,清算の結了等,,,2017-12-05,1,,,,,シンワセッケイ,0
387,2011301002863,登記記録の閉鎖等,0,2023-01-23,2023-01-20,三成ホーム株式会社,,株式会社,東京都,杉並区,梅里１丁目７番１４号,,13,115,1660011,,,2023-01-20,登記官による閉鎖,,,2015-10-05,1,,,,,,0
388,2011301004406,登記記録の閉鎖等,0,2023-01-23,2023-01-20,株式会社中央工芸建築,,株式会社,東京都,杉並区,久我山５丁目２１番１号,,13,115,1680082,,,2023-01-20,登記官による閉鎖,,,2015-10-05,1,,,,,,0
389,2011301014297,登記記録の閉鎖等,0,2023-01-23,2023-01-20,株式会社アップクリーク,,株式会社,東京都,杉並区,和泉１丁目４１番３０号,,13,115,1680063,,,2023-01-20,登記官による閉鎖,,,2015-10-05,1,,,,,,0
390,2011302007779,登記記録の閉鎖等,0,2023-01-23,2023-01-20,有限会社比留間商店,,有限会社,東京都,杉並区,清水３丁目１１番１２号,,13,115,1670033,,,2023-01-20,登記官による閉鎖,,,2015-10-05,1,,,,,,0
391,2011302016417,登記記録の閉鎖等,0,2023-01-23,2023-01-20,有限会社ＮＲＡ,,有限会社,東京都,杉並区,堀ノ内１丁目８番３－２０４号,,13,115,1660013,,,2023-01-20,登記官による閉鎖,,,2015-10-05,1,,,,,,0
392,2011303001533,登記記録の閉鎖等,0,2023-01-23,2023-01-20,合同会社アッサンブレ,,合同会社,東京都,杉並区,久我山５丁目１６番１６号,,13,115,1680082,,,2023-01-20,登記官による閉鎖,,,2015-10-05,1,,,,,,0
395,2011501000196,登記記録の閉鎖等,0,2023-01-23,2023-01-20,飛鳥不動産株式会社,,株式会社,東京都,北区,神谷２丁目２７番７号,,13,117,1150043,,,2023-01-20,登記官による閉鎖,,,2015-10-05,1,,,,,,0
396,2011501005170,登記記録の閉鎖等,0,2023-01-23,2023-01-20,アイティー産業株式会社,,株式会社,東京都,荒川区,西日暮里６丁目５９番６号,,13,118,1160013,,,2023-01-20,登記官による閉鎖,,,2015-10-05,1,,,,,,0
397,2011501008306,登記記録の閉鎖等,0,2023-01-23,2023-01-20,株式会社八宮塗装,,株式会社,東京都,荒川区,東尾久６丁目１７番１－３１４号,,13,118,1160012,,,2023-01-20,登記官による閉鎖,,,2015-10-05,1,,,,,,0
398,2011502003727,登記記録の閉鎖等,0,2023-01-23,2023-01-20,有限会社田代商店,,有限会社,東京都,北区,滝野川２丁目１６番１６－１０１号,,13,117,1140023,,,2023-01-20,登記官による閉鎖,,,2015-10-05,1,,,,,,0
399,2011502010541,登記記録の閉鎖等,0,2023-01-23,2023-01-20,有限会社林タイル工業所,,有限会社,東京都,荒川区,東尾久２丁目２９番１号,,13,118,1160012,,,2023-01-20,登記官による閉鎖,,,2015-10-05,1,,,,,,0
400,2011502011102,登記記録の閉鎖等,0,2023-01-23,2023-01-20,有限会社増永商店,,有限会社,東京都,荒川区,東尾久２丁目４２番１４号,,13,118,1160012,,,2023-01-20,登記官による閉鎖,,,2015-10-05,1,,,,,,0
401,2011502011440,登記記録の閉鎖等,0,2023-01-23,2023-01-20,有限会社六車食堂,,有限会社,東京都,荒川区,南千住７丁目１８番１号,,13,118,1160003,,,2023-01-20,登記官による閉鎖,,,2015-10-05,1,,,,,,0
403,2011502016134,登記記録の閉鎖等,0,2023-01-23,2023-01-20,有限会社エムオージー,,有限会社,東京都,荒川区,南千住７丁目３１番３－４２４号,,13,118,1160003,,,2023-01-20,登記官による閉鎖,,,2015-10-05,1,,,,,,0
404,2011505001166,登記記録の閉鎖等,0,2023-01-23,2023-01-20,特定非営利活動法人高齢社会フォ一ラム,,その他の設立登記法人,東京都,荒川区,西日暮里５丁目１５番１０号,,13,118,1160013,,,2023-01-20,登記官による閉鎖,,,2015-10-05,1,,,,,,0
405,2011505001397,登記記録の閉鎖等,0,2023-01-23,2023-01-20,税理士法人廣瀬会計,,その他の設立登記法人,東京都,北区,赤羽１丁目４１番８号２階,,13,117,1150045,,,2023-01-20,登記官による閉鎖,,,2015-10-05,1,,,,,,0
406,2011701013122,登記記録の閉鎖等,0,2023-01-23,2023-01-23,うさぎ食品株式会社,,株式会社,東京都,葛飾区,高砂５丁目３０番１２号,,13,122,1250054,,,2023-01-23,登記官による閉鎖,,,2015-10-05,1,,,,,,0
408,2011703002610,登記記録の閉鎖等,0,2023-01-23,2023-01-19,アイル合同会社,,合同会社,東京都,江戸川区,西葛西５丁目１番１号,,13,123,1340088,,,2023-01-19,清算の結了等,,,2020-08-05,1,,,,,アイル,0
409,2011801002702,登記記録の閉鎖等,0,2023-01-23,2023-01-23,太陽エンジニア株式会社,,株式会社,東京都,葛飾区,小菅１丁目１９番２号,,13,122,1240001,,,2023-01-23,登記官による閉鎖,,,2015-10-05,1,,,,,,0
410,2011801019886,登記記録の閉鎖等,0,2023-01-23,2023-01-23,株式会社ＡＲＵＢＡＥＬＥ,,株式会社,東京都,葛飾区,柴又７丁目１４番１６号,,13,122,1250052,,,2023-01-23,登記官による閉鎖,,,2015-10-05,1,,,,,,0
416,2011802000077,登記記録の閉鎖等,0,2023-01-23,2023-01-23,有限会社青木鉄筋興業,,有限会社,東京都,葛飾区,細田４丁目８番１３号,,13,122,1240021,,,2023-01-23,登記官による閉鎖,,,2015-10-05,1,,,,,,0
417,2011802007659,登記記録の閉鎖等,0,2023-01-23,2023-01-23,有限会社ミヤタ,,有限会社,東京都,葛飾区,東立石４丁目１０番４号,,13,122,1240013,,,2023-01-23,登記官による閉鎖,,,2015-10-05,1,,,,,,0
418,2011802008509,登記記録の閉鎖等,0,2023-01-23,2023-01-23,有限会社若林薬局,,有限会社,東京都,葛飾区,東新小岩１丁目２番１号,,13,122,1240023,,,2023-01-23,登記官による閉鎖,,,2015-10-05,1,,,,,,0
419,2011802009977,登記記録の閉鎖等,0,2023-01-23,2023-01-23,有限会社イワナミ,,有限会社,東京都,足立区,梅島３丁目３１番１５号,,13,121,1210816,,,2023-01-23,登記官による閉鎖,,,2015-10-05,1,,,,,,0
420,2011802013681,登記記録の閉鎖等,0,2023-01-23,2023-01-23,有限会社伸幸工業所,,有限会社,東京都,足立区,梅田２丁目５番１３号,,13,121,1230851,,,2023-01-23,登記官による閉鎖,,,2015-10-05,1,,,,,,0
421,2011802017831,登記記録の閉鎖等,0,2023-01-23,2023-01-23,有限会社藤波青果,,有限会社,東京都,足立区,六月１丁目３７番１３号,,13,121,1210814,,,2023-01-23,登記官による閉鎖,,,2015-10-05,1,,,,,,0
422,2011802018061,登記記録の閉鎖等,0,2023-01-23,2023-01-23,有限会社鮒金本店,,有限会社,東京都,足立区,千住橋戸町４５番地,,13,121,1200038,,,2023-01-23,登記官による閉鎖,,,2015-10-05,1,,,,,,0
423,2011802024357,登記記録の閉鎖等,0,2023-01-23,2023-01-23,有限会社イーテックシステム,,有限会社,東京都,葛飾区,西新小岩３丁目１３番１９号,,13,122,1240025,,,2023-01-23,登記官による閉鎖,,,2015-10-05,1,,,,,,0
425,2011802029331,登記記録の閉鎖等,0,2023-01-23,2023-01-23,英凛知財有限会社,,有限会社,東京都,足立区,中央本町３丁目１２番１－８１５号,,13,121,1210011,,,2023-01-23,登記官による閉鎖,,,2015-10-05,1,,,,,,0
426,2011802029554,登記記録の閉鎖等,0,2023-01-23,2023-01-23,有限会社ｒｉｎｇｓ　Ｗａｋｏ,,有限会社,東京都,足立区,西新井栄町２丁目１９番２号,,13,121,1230843,,,2023-01-23,登記官による閉鎖,,,2015-10-05,1,,,,,,0
427,2011803000778,登記記録の閉鎖等,0,2023-01-23,2023-01-23,合資会社南洋商会,,合資会社,東京都,足立区,西新井２丁目２５番６－７０４号,,13,121,1230841,,,2023-01-23,登記官による閉鎖,,,2015-10-05,1,,,,,,0
428,2011803001066,登記記録の閉鎖等,0,2023-01-23,2023-01-23,合資会社Ｚａｉｎａｂ　Ｔｒａｄｉｎｇ,,合資会社,東京都,葛飾区,青戸３丁目１９番１０－１０６号,,13,122,1250062,,,2023-01-23,登記官による閉鎖,,,2015-10-05,1,,,,,,0
436,2013201019129,登記記録の閉鎖等,0,2023-01-23,2023-01-18,株式会社ＳＵＮＦＩＳＨ,,株式会社,東京都,目黒区,目黒１丁目４番８号,,13,110,1530063,,,2023-01-18,清算の結了等,,,2015-10-05,1,,,,,,0
448,2020001138100,登記記録の閉鎖等,0,2023-01-23,2023-01-18,株式会社石岡会計,,株式会社,神奈川県,横浜市中区,住吉町２丁目２４番地住吉２４ビル８Ｆ,,14,104,2310013,,,2023-01-18,清算の結了等,,,2020-10-13,1,,,,,イシオカカイケイ,0
463,2030001133257,登記記録の閉鎖等,0,2023-01-23,2023-01-04,エナジーワン株式会社,,株式会社,東京都,港区,芝３丁目１７番１４号三田浜ビル３階,,13,103,1050014,,,2023-01-04,合併による解散等,7011101025878,令和４年１２月３１日東京都港区芝三丁目１７番１４号三田浜ビル３階三和通商株式会社（7011101025878）に合併し解散,2019-10-10,1,,,,,エナジーワン,0
484,2050001001750,登記記録の閉鎖等,0,2023-01-23,2023-01-10,株式会社桃苑,,株式会社,茨城県,水戸市,見川４丁目４６０番地の１６,,08,201,3100912,,,2023-01-10,登記官による閉鎖,,,2015-10-05,1,,,,,,0
485,2050001005041,登記記録の閉鎖等,0,2023-01-23,2023-01-10,県央リサイクル株式会社,,株式会社,茨城県,水戸市,東野町１６７番地の５,,08,201,3100846,,,2023-01-10,登記官による閉鎖,,,2015-10-05,1,,,,,,0
486,2050001009174,登記記録の閉鎖等,0,2023-01-23,2023-01-10,常陽自動車興業株式会社,,株式会社,茨城県,土浦市,桜町３丁目１３番８号,,08,203,3000037,,,2023-01-10,登記官による閉鎖,,,2015-10-05,1,,,,,,0
487,2050001014645,登記記録の閉鎖等,0,2023-01-23,2023-01-10,関東ベステック株式会社,,株式会社,茨城県,坂東市,長谷字原宿２５３０番地,,08,228,3060642,,,2023-01-10,登記官による閉鎖,,,2015-10-05,1,,,,,,0
488,2050001015924,登記記録の閉鎖等,0,2023-01-23,2023-01-10,株式会社坪井商事,,株式会社,茨城県,つくば市,松代１丁目６番２号,,08,220,3050035,,,2023-01-10,登記官による閉鎖,,,2015-10-05,1,,,,,,0
489,2050001019842,登記記録の閉鎖等,0,2023-01-23,2023-01-10,株式会社ホーマック,,株式会社,茨城県,つくば市,みどりのＡ７９街区－８エクセレントシティ１０４号,,08,220,3050000,,,2023-01-10,登記官による閉鎖,,,2015-10-05,1,,,,,,0
490,2050001024108,登記記録の閉鎖等,0,2023-01-23,2023-01-10,株式会社磯原シーサイドホテル,,株式会社,茨城県,北茨城市,磯原町磯原二ッ島２５５０番地,,08,215,3191541,,,2023-01-10,登記官による閉鎖,,,2015-10-05,1,,,,,,0
491,2050001034073,登記記録の閉鎖等,0,2023-01-23,2023-01-10,株式会社ＡＨＣ,,株式会社,茨城県,つくば市,天久保１丁目７番地６,,08,220,3050005,,,2023-01-10,登記官による閉鎖,,,2015-10-05,1,,,,,,0
492,2050002011261,登記記録の閉鎖等,0,2023-01-23,2023-01-10,有限会社カワラバ,,有限会社,茨城県,土浦市,神立中央２丁目１９番５号,,08,203,3000011,,,2023-01-10,登記官による閉鎖,,,2015-10-05,1,,,,,,0
493,2050002027613,登記記録の閉鎖等,0,2023-01-23,2023-01-10,有限会社アートプラン,,有限会社,茨城県,神栖市,砂山２７２６番地４４,,08,232,3140255,,,2023-01-10,登記官による閉鎖,,,2015-10-05,1,,,,,,0
494,2050002033371,登記記録の閉鎖等,0,2023-01-23,2023-01-10,有限会社中沢興業,,有限会社,茨城県,龍ケ崎市,八代町３２５２番地２,,08,208,3010842,,,2023-01-10,登記官による閉鎖,,,2015-10-05,1,,,,,,0
495,2050002034072,登記記録の閉鎖等,0,2023-01-23,2023-01-10,有限会社石嶋商事,,有限会社,茨城県,稲敷市,上根本１５１９番地の１,,08,229,3010902,,,2023-01-10,登記官による閉鎖,,,2015-10-05,1,,,,,,0
511,2110001031080,登記記録の閉鎖等,0,2023-01-23,2023-01-18,株式会社加藤建築工業,,株式会社,新潟県,新潟市中央区,下所島２丁目１４番１号,,15,103,9500991,,,2023-01-18,清算の結了等,,,2015-11-12,1,,,,,カトウケンチクコウギョウ,0
536,2130001035146,登記記録の閉鎖等,0,2023-01-23,2023-01-16,日吉ふるさと株式会社,,株式会社,京都府,南丹市,日吉町保野田市野３番地１,,26,213,6290301,,,2023-01-16,清算の結了等,,,2015-10-05,1,,,,,ヒヨシフルサト,0
555,2160001001938,登記記録の閉鎖等,0,2023-01-23,2023-01-19,明拓住建株式会社,,株式会社,滋賀県,大津市,中央２丁目６番１３号,,25,201,5200043,,,2023-01-19,清算の結了等,,,2015-10-05,1,,,,,メイタクジュウケン,0
559,2180001007149,登記記録の閉鎖等,0,2023-01-23,2023-01-18,日伸株式会社,,株式会社,愛知県,名古屋市緑区,滝ノ水４丁目１４１２番地,,23,114,4580021,,,2023-01-18,清算の結了等,,,2015-10-05,1,,,,,ニッシン,0
561,2180001056526,登記記録の閉鎖等,0,2023-01-23,2023-01-10,株式会社ジェイキャスト,,株式会社,愛知県,名古屋市東区,葵３丁目１５番３１号,,23,102,4610004,,,2023-01-10,合併による解散等,5180001108836,令和５年１月１日名古屋市東区葵三丁目１５番３１号株式会社日本保育総合研究所（5180001108836）に合併し解散,2015-10-05,1,,,,,ジェイキャスト,0
570,2210005001334,登記記録の閉鎖等,0,2023-01-23,2023-01-19,松雲院,,その他の設立登記法人,福井県,福井市,城戸ノ内町２２号８番地,,18,201,9102153,,,2023-01-19,清算の結了等,,,2015-10-05,1,,,,,ショウウンイン,0
574,2230001014544,登記記録の閉鎖等,0,2023-01-23,2023-01-18,ジオエナジー株式会社,,株式会社,富山県,黒部市,宇奈月温泉６３３番地１,,16,207,9380282,,,2023-01-18,清算の結了等,,,2015-10-05,1,,,,,ジオエナジー,0
581,2240002051965,登記記録の閉鎖等,0,2023-01-23,2023-01-19,有限会社しまなみ装工,,有限会社,広島県,尾道市,福地町７番２８号,,34,205,7220005,,,2023-01-19,清算の結了等,,,2015-10-05,1,,,,,シマナミソウコウ,0
587,2260002022733,登記記録の閉鎖等,0,2023-01-23,2023-01-18,有限会社ネイチャーリンク,,有限会社,岡山県,倉敷市,児島稗田町２１８２番地１１,00003729,33,202,7110937,,,2023-01-18,清算の結了等,,,2015-10-05,1,,,,,ネイチャーリンク,0
600,2310001010923,登記記録の閉鎖等,0,2023-01-23,2023-01-13,株式会社みつしま水産,,株式会社,長崎県,対馬市,美津島町尾崎７８３番地２,,42,209,8170431,,,2023-01-13,合併による解散等,3010601030301,令和５年１月１日東京都江東区永代二丁目３７番２８号東洋冷蔵株式会社（3010601030301）に合併し解散,2015-10-05,1,,,,,,0
601,2320001014568,登記記録の閉鎖等,0,2023-01-23,2023-01-19,株式会社秀吉ファーム,,株式会社,大分県,豊後大野市,三重町赤嶺２７２４番地２,,44,212,8797111,,,2023-01-19,清算の結了等,,,2015-11-17,1,,,,,,0
605,2330002024920,登記記録の閉鎖等,0,2023-01-23,2023-01-20,有限会社ナチュラル設計事務所,,有限会社,熊本県,宇土市,松山町２５８９番地,,43,211,8690416,,,2023-01-20,清算の結了等,,,2015-10-05,1,,,,,ナチュラルセッケイジムショ,0
616,2360003011436,登記記録の閉鎖等,0,2023-01-23,2023-01-12,合同会社コモンズやんばる,,合同会社,沖縄県,国頭郡東村,字高江８５番地９５,,47,303,9051201,,,2023-01-12,清算の結了等,,,2021-10-01,1,,,,,コモンズヤンバル,0
617,2370001017062,登記記録の閉鎖等,0,2023-01-23,2023-01-05,株式会社リライブ販売,,株式会社,宮城県,仙台市泉区,長命ケ丘３丁目２７番３号,,04,105,9813212,,,2023-01-05,合併による解散等,6370001042247,令和５年１月１日仙台市泉区長命ケ丘三丁目２７番地の３株式会社りらいぶ（6370001042247）に合併し解散,2015-10-05,1,,,,,リライブハンバイ,0
627,2400001013207,登記記録の閉鎖等,0,2023-01-23,2023-01-18,株式会社ピースワークス,,株式会社,岩手県,盛岡市,みたけ２丁目１０番１２号,,03,201,0200122,,,2023-01-18,清算の結了等,,,2016-05-30,1,,,,,,0
636,2470003002044,登記記録の閉鎖等,0,2023-01-23,2023-01-20,合同会社ＭＭ企画,,合同会社,香川県,高松市,松島町２丁目１３番３１号,,37,201,7600068,,,2023-01-20,清算の結了等,,,2021-10-01,1,,,,,エムエムキカク,0
645,3010001144833,登記記録の閉鎖等,0,2023-01-23,2023-01-04,株式会社未来,,株式会社,東京都,港区,三田２丁目１４番４号,,13,103,1080073,,,2023-01-04,合併による解散等,2040001053363,令和５年１月１日東京都港区三田二丁目１４番４号株式会社日本医療福祉コンサルティング（2040001053363）に合併し解散,2015-10-05,1,,,,,ミライ,0
647,3010001183600,登記記録の閉鎖等,0,2023-01-23,2023-01-19,株式会社ビーラボ,,株式会社,東京都,千代田区,平河町１丁目４番１２号,,13,101,1020093,,,2023-01-19,合併による解散等,1010901016860,令和５年１月１日東京都世田谷区成城二丁目１９番１０号株式会社日本ビジネス開発（1010901016860）に合併し解散,2017-05-19,1,,,,,ビーラボ,0
655,3010401156809,登記記録の閉鎖等,0,2023-01-23,2023-01-18,株式会社ＬＲ,,株式会社,神奈川県,川崎市宮前区,鷺沼１丁目１１－１８,,14,136,2160004,,,2023-01-18,清算の結了等,,,2020-12-02,1,,,,,エルアール,0
672,3010702002158,登記記録の閉鎖等,0,2023-01-23,2023-01-20,蒲田食品有限会社,,有限会社,東京都,品川区,東品川１丁目１２番５号,,13,109,1400002,,,2023-01-20,登記官による閉鎖,,,2015-10-05,1,,,,,,0
673,3010702004724,登記記録の閉鎖等,0,2023-01-23,2023-01-20,有限会社アイデザイン,,有限会社,東京都,品川区,小山１丁目１番３号,,13,109,1420062,,,2023-01-20,登記官による閉鎖,,,2015-10-05,1,,,,,,0
674,3010702004922,登記記録の閉鎖等,0,2023-01-23,2023-01-20,有限会社高橋製作所,,有限会社,東京都,品川区,東中延１丁目３番２１号,,13,109,1420052,,,2023-01-20,登記官による閉鎖,,,2015-10-05,1,,,,,,0
675,3010702005615,登記記録の閉鎖等,0,2023-01-23,2023-01-20,有限会社東邦工業所,,有限会社,東京都,品川区,荏原１丁目４番５号,,13,109,1420063,,,2023-01-20,登記官による閉鎖,,,2015-10-05,1,,,,,,0
676,3010703001844,登記記録の閉鎖等,0,2023-01-23,2023-01-20,合同会社ＦＸゲーマーズ,,合同会社,東京都,品川区,大井６丁目４－４あけぼの荘１０３号室,,13,109,1400014,,,2023-01-20,登記官による閉鎖,,,2015-10-05,1,,,,,,0
677,3010703001951,登記記録の閉鎖等,0,2023-01-23,2023-01-20,合同会社キートリアングル,,合同会社,東京都,品川区,東五反田３丁目１３番６－１０１号,,13,109,1410022,,,2023-01-20,登記官による閉鎖,,,2015-10-05,1,,,,,,0
678,3010705001421,登記記録の閉鎖等,0,2023-01-23,2023-01-20,一般社団法人日中経済リンク協会,,その他の設立登記法人,東京都,品川区,北品川１丁目１０番２号,,13,109,1400001,,,2023-01-20,登記官による閉鎖,,,2015-10-05,1,,,,,,0
680,3010801002942,登記記録の閉鎖等,0,2023-01-23,2023-01-20,機工商事株式会社,,株式会社,東京都,大田区,山王２丁目１番６号キャビックビル９０１,,13,111,1430023,,,2023-01-20,登記官による閉鎖,,,2015-10-05,1,,,,,,0
681,3010801007355,登記記録の閉鎖等,0,2023-01-23,2023-01-20,筑波産業株式会社,,株式会社,東京都,大田区,中馬込１丁目１５番８号,,13,111,1430027,,,2023-01-20,登記官による閉鎖,,,2015-10-05,1,,,,,,0
682,3010801010631,登記記録の閉鎖等,0,2023-01-23,2023-01-20,ブレンダ株式会社,,株式会社,東京都,大田区,池上２丁目６番４号,,13,111,1460082,,,2023-01-20,登記官による閉鎖,,,2015-10-05,1,,,,,,0
683,3010801013320,登記記録の閉鎖等,0,2023-01-23,2023-01-20,株式会社サーマルエース,,株式会社,東京都,大田区,矢口１丁目３番１９号,,13,111,1460093,,,2023-01-20,登記官による閉鎖,,,2015-10-05,1,,,,,,0
684,3010801016331,登記記録の閉鎖等,0,2023-01-23,2023-01-20,株式会社松下商事,,株式会社,東京都,大田区,西蒲田８丁目２２番３－６０１号,,13,111,1440051,,,2023-01-20,登記官による閉鎖,,,2015-10-05,1,,,,,,0
685,3010802005317,登記記録の閉鎖等,0,2023-01-23,2023-01-20,有限会社金剛商会,,有限会社,東京都,大田区,蒲田５丁目１１番１３号,,13,111,1440052,,,2023-01-20,登記官による閉鎖,,,2015-10-05,1,,,,,,0
686,3010802006117,登記記録の閉鎖等,0,2023-01-23,2023-01-20,有限会社三誠電機,,有限会社,東京都,大田区,蒲田３丁目１７番２４号,,13,111,1440052,,,2023-01-20,登記官による閉鎖,,,2015-10-05,1,,,,,,0
687,3010802008063,登記記録の閉鎖等,0,2023-01-23,2023-01-20,有限会社瀬戸口製作所,,有限会社,東京都,大田区,大森東１丁目９番１２号,,13,111,1430012,,,2023-01-20,登記官による閉鎖,,,2015-10-05,1,,,,,,0
688,3010802008162,登記記録の閉鎖等,0,2023-01-23,2023-01-20,有限会社蒼司工業,,有限会社,東京都,大田区,本羽田１丁目３１番９号,,13,111,1440044,,,2023-01-20,登記官による閉鎖,,,2015-10-05,1,,,,,,0
689,3010802015992,登記記録の閉鎖等,0,2023-01-23,2023-01-20,有限会社綿屋産業,,有限会社,東京都,大田区,西六郷１丁目４０番１８号,,13,111,1440056,,,2023-01-20,登記官による閉鎖,,,2015-10-05,1,,,,,,0
690,3010802018723,登記記録の閉鎖等,0,2023-01-23,2023-01-20,有限会社シェイク,,有限会社,東京都,大田区,大森南１丁目２０番１号ザ・ヴィスタ大森１３０２号室,,13,111,1430013,,,2023-01-20,登記官による閉鎖,,,2015-10-05,1,,,,,,0
691,3010802019515,登記記録の閉鎖等,0,2023-01-23,2023-01-20,有限会社木戸製作所,,有限会社,東京都,大田区,萩中３丁目２９番７号,,13,111,1440047,,,2023-01-20,登記官による閉鎖,,,2015-10-05,1,,,,,,0
700,3011001053330,登記記録の閉鎖等,0,2023-01-23,2023-01-18,東京ネイルサロンズ株式会社,,株式会社,東京都,渋谷区,上原１丁目２１番１１号,,13,113,1510064,,,2023-01-18,清算の結了等,,,2015-10-05,1,,,,,,0
718,3011301001773,登記記録の閉鎖等,0,2023-01-23,2023-01-20,株式会社菊水,,株式会社,東京都,杉並区,阿佐谷南１丁目８番３号,,13,115,1660004,,,2023-01-20,登記官による閉鎖,,,2015-10-05,1,,,,,,0
719,3011301002375,登記記録の閉鎖等,0,2023-01-23,2023-01-20,コーネル．ジヤパン株式会社,,株式会社,東京都,杉並区,松庵３丁目３９番１３号,,13,115,1670054,,,2023-01-20,登記官による閉鎖,,,2015-10-05,1,,,,,,0
720,3011301007300,登記記録の閉鎖等,0,2023-01-23,2023-01-20,株式会社ユウ企画,,株式会社,東京都,杉並区,阿佐谷北６丁目７番２号,,13,115,1660001,,,2023-01-20,登記官による閉鎖,,,2015-10-05,1,,,,,,0
721,3011301008991,登記記録の閉鎖等,0,2023-01-23,2023-01-20,株式会社ヴァイタルサポート,,株式会社,東京都,杉並区,本天沼３丁目１８番１４号,,13,115,1670031,,,2023-01-20,登記官による閉鎖,,,2015-10-05,1,,,,,,0
722,3011301016771,登記記録の閉鎖等,0,2023-01-23,2023-01-20,株式会社寿家不動産販売,,株式会社,東京都,杉並区,阿佐谷北２丁目１３番１６号、１階,,13,115,1660001,,,2023-01-20,登記官による閉鎖,,,2015-10-05,1,,,,,,0
723,3011301018405,登記記録の閉鎖等,0,2023-01-23,2023-01-20,株式会社ＦＬＯＷＥＲ,,株式会社,東京都,杉並区,方南１丁目３４番７号,,13,115,1680062,,,2023-01-20,登記官による閉鎖,,,2015-10-05,1,,,,,,0
724,3011501002638,登記記録の閉鎖等,0,2023-01-23,2023-01-20,大同建設株式会社,,株式会社,東京都,北区,赤羽１丁目４０番２－１０１号,,13,117,1150045,,,2023-01-20,登記官による閉鎖,,,2017-08-25,1,,,,,,0
725,3011502006984,登記記録の閉鎖等,0,2023-01-23,2023-01-20,有限会社石井工務店,,有限会社,東京都,荒川区,町屋５丁目１４番３号,,13,118,1160001,,,2023-01-20,登記官による閉鎖,,,2015-10-05,1,,,,,,0
726,3011502007074,登記記録の閉鎖等,0,2023-01-23,2023-01-20,有限会社一電設,,有限会社,東京都,荒川区,西尾久３丁目２３番５号,,13,118,1160011,,,2023-01-20,登記官による閉鎖,,,2015-10-05,1,,,,,,0
727,3011502010243,登記記録の閉鎖等,0,2023-01-23,2023-01-20,有限会社七種商会,,有限会社,東京都,荒川区,東尾久４丁目２番１０号,,13,118,1160012,,,2023-01-20,登記官による閉鎖,,,2015-10-05,1,,,,,,0
728,3011505000092,登記記録の閉鎖等,0,2023-01-23,2023-01-20,大和高分子工業協同組合,00056028,その他の設立登記法人,東京都,荒川区,西日暮里２丁目１１番６号,,13,118,1160013,,,2023-01-20,登記官による閉鎖,,,2015-10-05,1,,,,,,0
730,3011801002750,登記記録の閉鎖等,0,2023-01-23,2023-01-23,株式会社武田地質調査,,株式会社,東京都,葛飾区,東堀切３丁目２８番３号,,13,122,1240004,,,2023-01-23,登記官による閉鎖,,,2015-10-05,1,,,,,,0
732,3011801013327,登記記録の閉鎖等,0,2023-01-23,2023-01-23,株式会社磯部クリーンシステム,,株式会社,東京都,足立区,皿沼３丁目２７番１０号,,13,121,1230862,,,2023-01-23,登記官による閉鎖,,,2015-10-05,1,,,,,,0
733,3011801020273,登記記録の閉鎖等,0,2023-01-23,2023-01-23,株式会社プリントアップ,,株式会社,東京都,足立区,花畑１丁目３３番１号,,13,121,1210061,,,2023-01-23,登記官による閉鎖,,,2015-10-05,1,,,,,,0
736,3011802008292,登記記録の閉鎖等,0,2023-01-23,2023-01-23,有限会社横越,,有限会社,東京都,葛飾区,堀切２丁目４番５号,,13,122,1240006,,,2023-01-23,登記官による閉鎖,,,2015-10-05,1,,,,,,0
737,3011802010661,登記記録の閉鎖等,0,2023-01-23,2023-01-23,有限会社扇機工,,有限会社,東京都,足立区,西新井本町３丁目１０番２０号,,13,121,1230845,,,2023-01-23,登記官による閉鎖,,,2015-10-05,1,,,,,,0
738,3011802012336,登記記録の閉鎖等,0,2023-01-23,2023-01-23,有限会社小池印刷工芸,,有限会社,東京都,足立区,栗原２丁目２４番１３号,,13,121,1230842,,,2023-01-23,登記官による閉鎖,,,2015-10-05,1,,,,,,0
739,3011802016114,登記記録の閉鎖等,0,2023-01-23,2023-01-23,有限会社東京住建,,有限会社,東京都,足立区,千住３丁目７６番地,,13,121,1200034,,,2023-01-23,登記官による閉鎖,,,2015-10-05,1,,,,,,0
740,3011802022343,登記記録の閉鎖等,0,2023-01-23,2023-01-23,有限会社グレースプランニング,,有限会社,東京都,葛飾区,新小岩１丁目４９番３号,,13,122,1240024,,,2023-01-23,登記官による閉鎖,,,2015-10-05,1,,,,,,0
743,3011805001402,登記記録の閉鎖等,0,2023-01-23,2023-01-23,台東ランドラーズ協同組合,,その他の設立登記法人,東京都,葛飾区,南水元１丁目２８番１４号,,13,122,1250035,,,2023-01-23,登記官による閉鎖,,,2018-01-23,1,,,,,,0
745,3012302007891,登記記録の閉鎖等,0,2023-01-23,2023-01-16,有限会社オクトテック,,有限会社,東京都,町田市,常盤町３０４６番地１０,,13,209,1940213,,,2023-01-16,清算の結了等,,,2015-10-05,1,,,,,オクトテック,0
753,3013201011456,登記記録の閉鎖等,0,2023-01-23,2023-01-19,株式会社グラムス,,株式会社,大阪府,大阪市中央区,瓦町４丁目７番８号本町東栄ビル５階,,27,128,5410048,,,2023-01-19,清算の結了等,,,2015-10-05,1,,,,,,0
754,3013301002454,登記記録の閉鎖等,0,2023-01-23,2023-01-19,株式会社オリエンテック,,株式会社,東京都,豊島区,東池袋３丁目２３番１４号,,13,116,1700013,,,2023-01-19,合併による解散等,9050001013780,令和５年１月１日茨城県下妻市高道祖４２１０番地１５株式会社Ａ＆Ｄマニュファクチャリング（9050001013780）に合併し解散,2015-10-05,1,,,,,オリエンテック,0
755,3013301017477,登記記録の閉鎖等,0,2023-01-23,2023-01-16,株式会社カタナゴルフ,,株式会社,東京都,豊島区,巣鴨４丁目２８番２号,,13,116,1700002,,,2023-01-16,合併による解散等,7013301032324,令和５年１月１５日東京都豊島区巣鴨四丁目２８番２号株式会社梅田（7013301032324）に合併し解散,2015-10-05,1,,,,,カタナゴルフ,0
775,3020002083773,登記記録の閉鎖等,0,2023-01-23,2023-01-16,有限会社神和建材,,有限会社,神奈川県,川崎市中原区,上平間１２９１番地１０,,14,133,2110013,,,2023-01-16,清算の結了等,,,2015-10-05,1,,,,,シンワケンザイ,0
780,3021001071050,登記記録の閉鎖等,0,2023-01-23,2023-01-16,ＲＥＩＤＥＡ株式会社,,株式会社,神奈川県,秦野市,鶴巻南１丁目２３番２０号ハウスＫ湘南２０２号室,,14,211,2570002,,,2023-01-16,清算の結了等,,,2020-10-09,1,,,,,レイディア,0
803,3050001019981,登記記録の閉鎖等,0,2023-01-23,2023-01-10,株式会社白金本舗,,株式会社,茨城県,土浦市,富士崎１丁目８番２１号,,08,203,3000813,,,2023-01-10,登記官による閉鎖,,,2015-10-05,1,,,,,,0
806,3050002018421,登記記録の閉鎖等,0,2023-01-23,2023-01-10,有限会社光栄堂スタジオ,,有限会社,茨城県,猿島郡境町,２１８４番地の３３,,08,546,3060433,,,2023-01-10,登記官による閉鎖,,,2015-10-05,1,,,,,,0
807,3050002024353,登記記録の閉鎖等,0,2023-01-23,2023-01-10,有限会社ラックピニオン,,有限会社,茨城県,古河市,中央町１丁目２番３７号,,08,204,3060033,,,2023-01-10,登記官による閉鎖,,,2015-10-05,1,,,,,,0
808,3050002033998,登記記録の閉鎖等,0,2023-01-23,2023-01-10,有限会社中村農機,,有限会社,茨城県,稲敷市,江戸崎甲２７６０番地の３,,08,229,3000504,,,2023-01-10,登記官による閉鎖,,,2015-10-05,1,,,,,,0
809,3050002044153,登記記録の閉鎖等,0,2023-01-23,2023-01-10,有限会社ハナブサ,,有限会社,茨城県,桜川市,岩瀬２２７番地,,08,231,3091211,,,2023-01-10,登記官による閉鎖,,,2015-10-05,1,,,,,,0
810,3050002045548,登記記録の閉鎖等,0,2023-01-23,2023-01-10,有限会社西陣,,有限会社,茨城県,日立市,鮎川町５丁目７番１号,,08,202,3160036,,,2023-01-10,登記官による閉鎖,,,2016-05-30,1,,,,,,0
811,3050003001211,登記記録の閉鎖等,0,2023-01-23,2023-01-10,合資会社若林豆腐店,,合資会社,茨城県,古河市,本町２丁目９番１１号,,08,204,3060023,,,2023-01-10,登記官による閉鎖,,,2015-10-05,1,,,,,,0
812,3050005002075,登記記録の閉鎖等,0,2023-01-23,2023-01-10,特定非営利活動法人創業支援相談協会,,その他の設立登記法人,茨城県,水戸市,千波町７４８番地,,08,201,3100851,,,2023-01-10,登記官による閉鎖,,,2015-10-05,1,,,,,,0
813,3050005005243,登記記録の閉鎖等,0,2023-01-23,2023-01-10,特定非営利活動法人環境市民クラブ,,その他の設立登記法人,茨城県,つくば市,春日３丁目２２番地６,,08,220,3050821,,,2023-01-10,登記官による閉鎖,,,2015-10-05,1,,,,,,0
823,3080401000992,登記記録の閉鎖等,0,2023-01-23,2023-01-19,株式会社太田,,株式会社,静岡県,浜松市中区,中沢町５９番１９号,,22,131,4300904,,,2023-01-19,清算の結了等,,,2015-10-05,1,,,,,オオタ,0
830,3120001019223,登記記録の閉鎖等,0,2023-01-23,2023-01-18,株式会社ヨシダコーポレーション,,株式会社,大阪府,大阪市生野区,鶴橋１丁目６番２９号,,27,116,5440031,,,2023-01-18,清算の結了等,,,2015-10-05,1,,,,,,0
843,3120001244127,登記記録の閉鎖等,0,2023-01-23,2023-01-18,株式会社イレブン,,株式会社,大阪府,大阪市北区,梅田１丁目１番３号大阪駅前第三ビル２３０７,,27,127,5300001,,,2023-01-18,清算の結了等,,,2022-03-02,1,,,,,イレブン,0
860,3120901030386,登記記録の閉鎖等,0,2023-01-23,2023-01-20,ライフサポート株式会社,,株式会社,大阪府,富田林市,金剛伏山台９番８号,,27,214,5840065,,,2023-01-20,清算の結了等,,,2015-10-05,1,,,,,ライフサポート,0
867,3140001031886,登記記録の閉鎖等,0,2023-01-23,2023-01-19,株式会社みすぎ,,株式会社,兵庫県,神戸市垂水区,塩屋北町１丁目１６番２号,,28,108,6550863,,,2023-01-19,清算の結了等,,,2015-10-05,1,,,,,ミスギ,0
874,3140002015277,登記記録の閉鎖等,0,2023-01-23,2023-01-18,有限会社ニッコーサービス,,有限会社,兵庫県,神戸市中央区,波止場町５番４号中突堤中央ビル,,28,110,6500042,,,2023-01-18,清算の結了等,,,2015-10-05,1,,,,,ニッコーサービス,0
879,3150001011796,登記記録の閉鎖等,0,2023-01-23,2023-01-19,株式会社ナカモク,,株式会社,奈良県,橿原市,内膳町４丁目３番１７号,,29,205,6340804,,,2023-01-19,清算の結了等,,,2015-10-05,1,,,,,ナカモク,0
881,3180001097429,登記記録の閉鎖等,0,2023-01-23,2023-01-17,株式会社ネプロ,,株式会社,愛知県,海部郡飛島村,木場１丁目８８番地,,23,427,4901444,,,2023-01-17,清算の結了等,,,2015-10-05,1,,,,,ネプロ,0
897,3200002017218,登記記録の閉鎖等,0,2023-01-23,2023-01-19,有限会社野尻経営技術研究所,,有限会社,岐阜県,可児市,中恵土９５番地の３,,21,214,5090202,,,2023-01-19,清算の結了等,,,2015-10-05,1,,,,,ノジリケイエイギジュツケンキュウジョ,0
905,3250001003569,登記記録の閉鎖等,0,2023-01-23,2023-01-19,藤村ポンプ株式会社,,株式会社,山口県,宇部市,大字妻崎開作７６２番地,,35,202,7590204,,,2023-01-19,清算の結了等,,,2015-10-05,1,,,,,,0
906,3250001004641,登記記録の閉鎖等,0,2023-01-23,2023-01-19,株式会社四つ葉,,株式会社,山口県,山陽小野田市,大字西高泊１１８４番地１,,35,216,7560057,,,2023-01-19,清算の結了等,,,2015-10-05,1,,,,,,0
921,3340001004632,登記記録の閉鎖等,0,2023-01-23,2023-01-20,株式会社ローレルバレー,,株式会社,大阪府,大阪市北区,西天満５丁目２番１８号,,27,127,5300047,,,2023-01-20,清算の結了等,,,2015-10-05,1,,,,,ローレルバレー,0
950,3460001004216,登記記録の閉鎖等,0,2023-01-23,2023-01-20,株式会社海栄,,株式会社,北海道,釧路郡釧路町,北都２丁目１０番地３０,,01,661,0880617,,,2023-01-20,清算の結了等,,,2015-10-05,1,,,,,カイエイ,0
958,4010001204520,登記記録の閉鎖等,0,2023-01-23,2023-01-19,サンブレアジャパン株式会社,,株式会社,東京都,中央区,日本橋室町４丁目３番９号,,13,102,1030022,,,2023-01-19,合併による解散等,7013201006832,令和５年１月１日東京都品川区上大崎三丁目１番１号日本ルーブリゾール株式会社（7013201006832）に合併し解散,2019-10-09,1,,,,,サンブレアジャパン,0
971,4010401011938,登記記録の閉鎖等,0,2023-01-23,2023-01-04,三和アプレイザル株式会社,,株式会社,東京都,港区,赤坂７丁目６番７－１０１号,,13,103,1070052,,,2023-01-04,合併による解散等,1010401011981,令和５年１月１日東京都港区赤坂七丁目６番７－１０１号株式会社トリコエステート（1010401011981）に合併し解散,2015-10-05,1,,,,,サンワアプレイザル,0
977,4010401104122,登記記録の閉鎖等,0,2023-01-23,2023-01-04,インペックスモザンビーク石油株式会社,,株式会社,東京都,港区,赤坂５丁目３番１号,,13,103,1070052,,,2023-01-04,清算の結了等,,,2015-10-05,1,,,,,インペックスモザンビークセキユ,0
985,4010501006094,登記記録の閉鎖等,0,2023-01-23,2023-01-16,サビー株式会社,,株式会社,東京都,台東区,東上野１丁目１７番３号,,13,106,1100015,,,2023-01-16,合併による解散等,5010501007488,令和５年１月１５日東京都台東区東上野一丁目１７番３号株式会社武山（5010501007488）に合併し解散,2015-10-05,1,,,,,サビー,0
992,4010701017560,登記記録の閉鎖等,0,2023-01-23,2023-01-20,株式会社スタッフワン,,株式会社,東京都,品川区,平塚３丁目１番１４号,,13,109,1420051,,,2023-01-20,登記官による閉鎖,,,2015-10-05,1,,,,,,0
993,4010702008559,登記記録の閉鎖等,0,2023-01-23,2023-01-20,有限会社ヤビツ設計,,有限会社,東京都,品川区,豊町１丁目７番２４号,,13,109,1420042,,,2023-01-20,登記官による閉鎖,,,2015-10-05,1,,,,,,0
998,4010801003972,登記記録の閉鎖等,0,2023-01-23,2023-01-20,株式会社小島製作所,,株式会社,東京都,大田区,大森中１丁目１７番１０号,,13,111,1430014,,,2023-01-20,登記官による閉鎖,,,2015-10-05,1,,,,,,0
999,4010801007668,登記記録の閉鎖等,0,2023-01-23,2023-01-20,株式会社テリフィック,,株式会社,東京都,大田区,南六郷２丁目３５番２－２２４号,,13,111,1440045,,,2023-01-20,登記官による閉鎖,,,2015-10-05,1,,,,,,0
1000,4010801020951,登記記録の閉鎖等,0,2023-01-23,2023-01-20,株式会社ベルファミーユ,,株式会社,東京都,大田区,蒲田５丁目１５番３号第９６東京ビル,,13,111,1440052,,,2023-01-20,登記官による閉鎖,,,2015-10-05,1,,,,,,0
1004,4010802018607,登記記録の閉鎖等,0,2023-01-23,2023-01-20,有限会社佃煮邦彦,,有限会社,東京都,大田区,西糀谷３丁目２８番７号,,13,111,1440034,,,2023-01-20,登記官による閉鎖,,,2015-10-05,1,,,,,,0
1005,4010802020208,登記記録の閉鎖等,0,2023-01-23,2023-01-20,有限会社ニチユウ,,有限会社,東京都,大田区,上池台１丁目３８番６号,,13,111,1450064,,,2023-01-20,登記官による閉鎖,,,2015-10-05,1,,,,,,0
1006,4010802021098,登記記録の閉鎖等,0,2023-01-23,2023-01-20,有限会社三奈,,有限会社,東京都,大田区,東六郷２丁目１１番１２号,,13,111,1440046,,,2023-01-20,登記官による閉鎖,,,2017-08-14,1,,,,,,0
1026,4011301014270,登記記録の閉鎖等,0,2023-01-23,2023-01-20,株式会社羽生工務店,,株式会社,東京都,杉並区,阿佐谷南１丁目４６番１２号,,13,115,1660004,,,2023-01-20,登記官による閉鎖,,,2015-10-05,1,,,,,,0
1027,4011302003041,登記記録の閉鎖等,0,2023-01-23,2023-01-20,有限会社クレオール商事,,有限会社,東京都,杉並区,高井戸東３丁目２８番２４－７０１号,,13,115,1680072,,,2023-01-20,登記官による閉鎖,,,2015-10-05,1,,,,,,0
1028,4011302015573,登記記録の閉鎖等,0,2023-01-23,2023-01-20,ケアマイスター有限会社,,有限会社,東京都,杉並区,久我山４丁目２４番１３号,,13,115,1680082,,,2023-01-20,登記官による閉鎖,,,2015-10-05,1,,,,,,0
1029,4011501004170,登記記録の閉鎖等,0,2023-01-23,2023-01-20,株式会社フロンティア七四企画,,株式会社,東京都,北区,赤羽１丁目２９番１０号,,13,117,1150045,,,2023-01-20,登記官による閉鎖,,,2015-10-05,1,,,,,,0
1030,4011501004815,登記記録の閉鎖等,0,2023-01-23,2023-01-20,株式会社山本工務店,,株式会社,東京都,北区,赤羽北２丁目１８番７号山本ビル１Ｆ,,13,117,1150052,,,2023-01-20,登記官による閉鎖,,,2015-10-05,1,,,,,,0
1032,4011501016505,登記記録の閉鎖等,0,2023-01-23,2023-01-20,株式会社アザース,,株式会社,東京都,荒川区,東尾久５丁目２９番１１号,,13,118,1160012,,,2023-01-20,登記官による閉鎖,,,2015-10-05,1,,,,,,0
1033,4011502003510,登記記録の閉鎖等,0,2023-01-23,2023-01-20,大勝電気有限会社,,有限会社,東京都,北区,上十条１丁目１７番１４号,,13,117,1140034,,,2023-01-20,登記官による閉鎖,,,2016-04-26,1,,,,,,0
1035,4011502004806,登記記録の閉鎖等,0,2023-01-23,2023-01-20,有限会社榛澤興業所,,有限会社,東京都,北区,豊島７丁目２６番１５号,,13,117,1140003,,,2023-01-20,登記官による閉鎖,,,2015-10-05,1,,,,,,0
1036,4011502010102,登記記録の閉鎖等,0,2023-01-23,2023-01-20,有限会社都丸,,有限会社,東京都,荒川区,東尾久４丁目２９番１９号,,13,118,1160012,,,2023-01-20,登記官による閉鎖,,,2015-10-05,1,,,,,,0
1037,4011502015712,登記記録の閉鎖等,0,2023-01-23,2023-01-20,有限会社セイイチ管工,,有限会社,東京都,北区,赤羽北２丁目１３番１５号,,13,117,1150052,,,2023-01-20,登記官による閉鎖,,,2015-10-05,1,,,,,,0
1038,4011601019630,登記記録の閉鎖等,0,2023-01-23,2023-01-20,株式会社２ｎｄ,,株式会社,東京都,新宿区,西新宿７丁目１９番５号,,13,104,1600023,,,2023-01-20,清算の結了等,,,2015-10-05,1,,,,,セカンド,0
1039,4011603001347,登記記録の閉鎖等,0,2023-01-23,2023-01-17,Ａ’Ｓｍｉｌｅｙ　Ｓｏｆｉａ合同会社,,合同会社,東京都,練馬区,北町２丁目１９番１９号,,13,120,1790081,,,2023-01-17,清算の結了等,,,2015-10-05,1,,,,,エースマイリーソフィア,0
1040,4011701004094,登記記録の閉鎖等,0,2023-01-23,2023-01-19,株式会社ジャパンマーケティングオペレーションズ,,株式会社,東京都,中央区,新川１丁目２５番９号,,13,102,1040033,,,2023-01-19,合併による解散等,9120001072951,令和５年１月１日大阪市北区東天満一丁目１２番１２号イプソス株式会社（9120001072951）に合併し解散,2015-10-05,1,,,,,ジャパンマーケティングオペレーションズ,0
1046,4011801018606,登記記録の閉鎖等,0,2023-01-23,2023-01-23,株式会社グリーンエイジ,,株式会社,東京都,足立区,綾瀬１丁目２８番２４－２０２号,,13,121,1200005,,,2023-01-23,登記官による閉鎖,,,2015-10-05,1,,,,,,0
1047,4011801019463,登記記録の閉鎖等,0,2023-01-23,2023-01-23,株式会社神田組,,株式会社,東京都,葛飾区,堀切７丁目２７番９号,,13,122,1240006,,,2023-01-23,登記官による閉鎖,,,2015-10-05,1,,,,,,0
1048,4011801021238,登記記録の閉鎖等,0,2023-01-23,2023-01-23,ＰＲＯＧＲＥＳＳＯ株式会社,,株式会社,東京都,足立区,綾瀬１丁目３３番７号コーポ渡辺２０２,,13,121,1200005,,,2023-01-23,登記官による閉鎖,,,2015-10-05,1,,,,,,0
1049,4011801022806,登記記録の閉鎖等,0,2023-01-23,2023-01-23,株式会社ハナブサトレーディングジャパン,,株式会社,東京都,足立区,竹の塚７丁目７番３－２０５号,,13,121,1210813,,,2023-01-23,登記官による閉鎖,,,2015-10-05,1,,,,,,0
1050,4011801025338,登記記録の閉鎖等,0,2023-01-23,2023-01-23,株式会社エムティ,,株式会社,東京都,足立区,皿沼２丁目２０番６号,,13,121,1230862,,,2023-01-23,登記官による閉鎖,,,2015-10-05,1,,,,,,0
1053,4011802003796,登記記録の閉鎖等,0,2023-01-23,2023-01-23,有限会社清水製作所,,有限会社,東京都,葛飾区,新小岩３丁目２８番１６号,,13,122,1240024,,,2023-01-23,登記官による閉鎖,,,2015-10-05,1,,,,,,0
1054,4011802011106,登記記録の閉鎖等,0,2023-01-23,2023-01-23,有限会社おのや,,有限会社,東京都,足立区,西新井６丁目１６番１６号,,13,121,1230841,,,2023-01-23,登記官による閉鎖,,,2015-10-05,1,,,,,,0
1055,4011802011502,登記記録の閉鎖等,0,2023-01-23,2023-01-23,有限会社カマツカ商店,,有限会社,東京都,足立区,鹿浜６丁目２番１１号,,13,121,1230864,,,2023-01-23,登記官による閉鎖,,,2015-10-05,1,,,,,,0
1056,4011802019479,登記記録の閉鎖等,0,2023-01-23,2023-01-23,有限会社メグミシューズ,,有限会社,東京都,足立区,青井４丁目１番１２号,,13,121,1210012,,,2023-01-23,登記官による閉鎖,,,2017-04-24,1,,,,,,0
1057,4011802030246,登記記録の閉鎖等,0,2023-01-23,2023-01-23,有限会社ライズ,,有限会社,東京都,足立区,扇３丁目８番１８－４０６号,,13,121,1230873,,,2023-01-23,登記官による閉鎖,,,2015-10-05,1,,,,,,0
1080,4021002047734,登記記録の閉鎖等,0,2023-01-23,2023-01-16,有限会社アドバンス,,有限会社,神奈川県,座間市,座間２丁目１２５９番地の２,,14,216,2520027,,,2023-01-16,清算の結了等,,,2015-10-05,1,,,,,アドバンス,0
1084,4030001089869,登記記録の閉鎖等,0,2023-01-23,2023-01-19,リトラ株式会社,,株式会社,埼玉県,日高市,大字原宿７番地５,,11,242,3501205,,,2023-01-19,合併による解散等,9050001013780,令和５年１月１日茨城県下妻市高道祖４２１０番地１５株式会社Ａ＆Ｄマニュファクチャリング（9050001013780）に合併し解散,2015-10-05,1,,,,,リトラ,0
1104,4050001020740,登記記録の閉鎖等,0,2023-01-23,2023-01-10,額賀測量株式会社,,株式会社,茨城県,神栖市,下幡木４２２８番地５,,08,232,3140131,,,2023-01-10,登記官による閉鎖,,,2015-10-05,1,,,,,,0
1105,4050001026622,登記記録の閉鎖等,0,2023-01-23,2023-01-10,株式会社大高鉄工所,00022304,株式会社,茨城県,常陸太田市,中染町２４４０番地,,08,212,3130212,,,2023-01-10,登記官による閉鎖,,,2015-10-05,1,,,,,,0
1106,4050001031382,登記記録の閉鎖等,0,2023-01-23,2023-01-10,株式会社神原組,,株式会社,茨城県,筑西市,稲野辺２５１番地,,08,227,3080805,,,2023-01-10,登記官による閉鎖,,,2015-10-05,1,,,,,,0
1107,4050001031886,登記記録の閉鎖等,0,2023-01-23,2023-01-10,株式会社永島,,株式会社,茨城県,桜川市,高久１６２８番地,,08,231,3091243,,,2023-01-10,登記官による閉鎖,,,2015-10-05,1,,,,,,0
1108,4050002001756,登記記録の閉鎖等,0,2023-01-23,2023-01-16,有限会社伸和,,有限会社,茨城県,水戸市,酒門町１０４９番地の３,,08,201,3100841,,,2023-01-16,清算の結了等,,,2015-10-05,1,,,,,シンワ,0
1109,4050002001822,登記記録の閉鎖等,0,2023-01-23,2023-01-10,有限会社すどう商亊,,有限会社,茨城県,水戸市,青柳町４３７７番地の２,,08,201,3100004,,,2023-01-10,登記官による閉鎖,,,2015-10-05,1,,,,,,0
1110,4050002006185,登記記録の閉鎖等,0,2023-01-23,2023-01-10,ライフサポートＴＭ有限会社,,有限会社,茨城県,水戸市,東赤塚２１１１番地の２,,08,201,3114142,,,2023-01-10,登記官による閉鎖,,,2015-10-05,1,,,,,,0
1111,4050002006912,登記記録の閉鎖等,0,2023-01-23,2023-01-10,有限会社ニッケン,,有限会社,茨城県,那珂市,菅谷２８２１番地の１４,,08,226,3110105,,,2023-01-10,登記官による閉鎖,,,2015-10-05,1,,,,,,0
1112,4050002009824,登記記録の閉鎖等,0,2023-01-23,2023-01-10,有限会社ストローハット,,有限会社,茨城県,ひたちなか市,平磯町１８番地,,08,221,3111203,,,2023-01-10,登記官による閉鎖,,,2015-10-05,1,,,,,,0
1113,4050002022414,登記記録の閉鎖等,0,2023-01-23,2023-01-10,有限会社富建,,有限会社,茨城県,つくば市,大曽根３８６７番地１６６,,08,220,3003253,,,2023-01-10,登記官による閉鎖,,,2015-10-05,1,,,,,,0
1114,4050002024897,登記記録の閉鎖等,0,2023-01-23,2023-01-10,有限会社ティアンドアイ,,有限会社,茨城県,古河市,東牛谷８２５－３,,08,204,3060232,,,2023-01-10,登記官による閉鎖,,,2015-10-05,1,,,,,,0
1115,4050002026274,登記記録の閉鎖等,0,2023-01-23,2023-01-10,有限会社ウチダメディア,,有限会社,茨城県,鹿嶋市,城山４丁目１番７号,,08,222,3140038,,,2023-01-10,登記官による閉鎖,,,2015-10-05,1,,,,,,0
1116,4050002028080,登記記録の閉鎖等,0,2023-01-23,2023-01-10,有限会社勇,,有限会社,茨城県,鹿嶋市,宮中４丁目５番１１,,08,222,3140031,,,2023-01-10,登記官による閉鎖,,,2015-10-05,1,,,,,,0
1117,4050002029640,登記記録の閉鎖等,0,2023-01-23,2023-01-10,有限会社鉾冷フーズ,,有限会社,茨城県,鉾田市,下冨田９４７番地,,08,234,3111533,,,2023-01-10,登記官による閉鎖,,,2015-10-05,1,,,,,,0
1118,4050002031332,登記記録の閉鎖等,0,2023-01-23,2023-01-10,有限会社福多商事,,有限会社,茨城県,日立市,河原子町２丁目２番５号,,08,202,3160005,,,2023-01-10,登記官による閉鎖,,,2015-10-05,1,,,,,,0
1119,4050002033733,登記記録の閉鎖等,0,2023-01-23,2023-01-10,有限会社守興業,,有限会社,茨城県,北相馬郡利根町,大字布川３２９１番地,,08,564,3001622,,,2023-01-10,登記官による閉鎖,,,2015-10-05,1,,,,,,0
1120,4050002034657,登記記録の閉鎖等,0,2023-01-23,2023-01-16,有限会社三男坊,,有限会社,茨城県,稲敷市,蒲ケ山６４番地９,,08,229,3000522,,,2023-01-16,清算の結了等,,,2015-10-05,1,,,,,,0
1121,4050002040250,登記記録の閉鎖等,0,2023-01-23,2023-01-10,有限会社菊田建工,,有限会社,茨城県,常総市,坂手町３６６９番地,,08,211,3030042,,,2023-01-10,登記官による閉鎖,,,2015-10-05,1,,,,,,0
1122,4050002044301,登記記録の閉鎖等,0,2023-01-23,2023-01-10,有限会社阿久津商会,,有限会社,茨城県,結城市,川木谷１丁目９番地６,,08,207,3070005,,,2023-01-10,登記官による閉鎖,,,2015-10-05,1,,,,,,0
1124,4050005005399,登記記録の閉鎖等,0,2023-01-23,2023-01-10,特定非営利活動法人エンゼルプラン,,その他の設立登記法人,茨城県,つくば市,水堀字若名窪４７１番地１,,08,220,3002654,,,2023-01-10,登記官による閉鎖,,,2015-10-05,1,,,,,,0
1125,4050005006059,登記記録の閉鎖等,0,2023-01-23,2023-01-10,鹿島中央商店街協同組合,,その他の設立登記法人,茨城県,鹿嶋市,宮中１丁目５番１４号,,08,222,3140031,,,2023-01-10,登記官による閉鎖,,,2015-10-05,1,,,,,,0
1126,4050005008468,登記記録の閉鎖等,0,2023-01-23,2023-01-10,特定非営利活動法人田舎暮らし応援団,,その他の設立登記法人,茨城県,久慈郡大子町,大字池田２５８９番地,,08,364,3193551,,,2023-01-10,登記官による閉鎖,,,2015-10-05,1,,,,,,0
1142,4120001215845,登記記録の閉鎖等,0,2023-01-23,2023-01-04,株式会社ＳＥＢＣホールディングス,,株式会社,東京都,港区,六本木５丁目２番１－３０２号,,13,103,1060032,,,2023-01-04,清算の結了等,,,2018-09-13,1,,,,,エスイービーシーホールディングス,0
1150,4120003021531,登記記録の閉鎖等,0,2023-01-23,2023-01-20,合同会社Ｃｉｐｈｅｒ,,合同会社,大阪府,大阪市阿倍野区,阪南町２丁目２３番２８－５０２号,,27,119,5450021,,,2023-01-20,清算の結了等,,,2022-04-22,1,,,,,サイファー,0
1152,4120005015011,登記記録の閉鎖等,0,2023-01-23,2023-01-19,ＮＰＯ法人いなほ,,その他の設立登記法人,大阪府,大阪市城東区,新喜多東１丁目９番１４号,,27,118,5360017,,,2023-01-19,清算の結了等,,,2015-10-05,1,,,,,イナホ,0
1157,4122001005697,登記記録の閉鎖等,0,2023-01-23,2023-01-18,日東工具販売株式会社,,株式会社,大阪府,東大阪市,本庄西１丁目６番４号,,27,227,5780965,,,2023-01-18,合併による解散等,6130001041818,令和５年１月１日京都府綾部市城山町１番地日東公進株式会社（6130001041818）に合併し解散,2015-10-05,1,,,,,ニットウコウグハンバイ,0
1170,4140001095996,登記記録の閉鎖等,0,2023-01-23,2023-01-18,株式会社エイハブカンパニー,,株式会社,兵庫県,芦屋市,上宮川町１番－６０５号,,28,206,6590061,,,2023-01-18,清算の結了等,,,2015-10-05,1,,,,,エイハブカンパニー,0
1175,4140005024349,登記記録の閉鎖等,0,2023-01-23,2023-01-20,特定非営利活動法人日本ヴィーガンコミュニティ,,その他の設立登記法人,兵庫県,神戸市中央区,磯上通４丁目１－１４三ノ宮スカイビル７Ｆ,,28,110,6510086,,,2023-01-20,清算の結了等,,,2018-12-11,1,,,,,ニホンヴィーガンコミュニティ,0
1176,4150001009393,登記記録の閉鎖等,0,2023-01-23,2023-01-19,株式会社たにぐち,,株式会社,奈良県,桜井市,大字桜井７５０番地の１,,29,206,6330091,,,2023-01-19,清算の結了等,,,2015-10-05,1,,,,,タニグチ,0
1184,4180302002821,登記記録の閉鎖等,0,2023-01-23,2023-01-20,有限会社丸セ天野,,有限会社,愛知県,安城市,住吉町３丁目１番１２号,,23,212,4460072,,,2023-01-20,清算の結了等,,,2015-10-05,1,,,,,マルセアマノ,0
1192,4230002012099,登記記録の閉鎖等,0,2023-01-23,2023-01-19,有限会社マルタカ,,有限会社,富山県,高岡市,下牧野３０７番地の４,,16,202,9340091,,,2023-01-19,清算の結了等,,,2015-10-05,1,,,,,マルタカ,0
1193,4240001001358,登記記録の閉鎖等,0,2023-01-23,2023-01-20,エス・エヌコンストラクション株式会社,,株式会社,広島県,広島市中区,舟入南４丁目１０－２２－１０１,,34,101,7300847,,,2023-01-20,清算の結了等,,,2015-10-05,1,,,,,エスエヌコンストラクション,0
1196,4240001040819,登記記録の閉鎖等,0,2023-01-23,2023-01-20,瀬戸給食株式会社,,株式会社,広島県,福山市,手城町３丁目２６番１８号,,34,207,7210966,,,2023-01-20,清算の結了等,,,2015-10-05,1,,,,,セトキュウショク,0
1208,4250005001428,登記記録の閉鎖等,0,2023-01-23,2023-01-17,医療法人社団杉田整形外科,,その他の設立登記法人,山口県,山口市,中央４丁目４番４号,,35,203,7530074,,,2023-01-17,清算の結了等,,,2015-10-05,1,,,,,スギタセイケイゲカ,0
1210,4260001034447,登記記録の閉鎖等,0,2023-01-23,2023-01-20,株式会社リール,,株式会社,岡山県,総社市,門田２８６番地３,,33,208,7191156,,,2023-01-20,清算の結了等,,,2020-06-24,1,,,,,リール,0
1212,4290001043478,登記記録の閉鎖等,0,2023-01-23,2023-01-18,株式会社チャレンジ,,株式会社,福岡県,筑紫野市,光が丘３丁目１５番地１０,,40,217,8180036,,,2023-01-18,清算の結了等,,,2015-10-05,1,,,,,チャレンジ,0
1221,4290005004625,登記記録の閉鎖等,0,2023-01-23,2023-01-19,特定非営利活動法人市民後見センターふくおか,,その他の設立登記法人,福岡県,福岡市東区,千早５丁目１７番１８号ＴＫビル２号館２０５号,,40,131,8130044,,,2023-01-19,清算の結了等,,,2015-10-05,1,,,,,シミンコウケンセンターフクオカ,0
1223,4290801021872,登記記録の閉鎖等,0,2023-01-23,2023-01-19,北九州輸送センター株式会社,,株式会社,福岡県,鞍手郡鞍手町,大字新延２３８９番地１,,40,402,8071305,,,2023-01-19,清算の結了等,,,2015-10-05,1,,,,,キタキュウシュウユソウセンター,0
1246,4370002012135,登記記録の閉鎖等,0,2023-01-23,2023-01-18,有限会社たなきや,,有限会社,宮城県,仙台市青葉区,柏木１丁目２番３１号ブルネン柏木１０２,,04,101,9810933,,,2023-01-18,清算の結了等,,,2015-10-05,1,,,,,タナキヤ,0
1247,4390002009609,登記記録の閉鎖等,0,2023-01-23,2023-01-18,有限会社ともえ旅館,,有限会社,山形県,鶴岡市,末広町１２番６号,,06,203,9970015,,,2023-01-18,清算の結了等,,,2015-10-05,1,,,,,トモエリョカン,0
1256,4490002006018,登記記録の閉鎖等,0,2023-01-23,2023-01-20,有限会社ミツアイ,,有限会社,高知県,高知市,高須３丁目１番５９号,,39,201,7818104,,,2023-01-20,清算の結了等,,,2015-10-05,1,,,,,ミツアイ,0
1261,5010001146745,登記記録の閉鎖等,0,2023-01-23,2023-01-05,Ｔ＆Ｒ　Ｉｎｔｅｒｎａｔｉｏｎａｌ株式会社,,株式会社,東京都,港区,南麻布２丁目１１番１０号,,13,103,1060047,,,2023-01-05,清算の結了等,,,2015-10-05,1,,,,,,0
1276,5010401131660,登記記録の閉鎖等,0,2023-01-23,2023-01-04,ロハスリゾート株式会社,,株式会社,東京都,港区,六本木３丁目１６番３５号,,13,103,1060032,,,2023-01-04,合併による解散等,9010701023158,令和４年１２月３１日東京都港区六本木三丁目１６番３５号ＬＯＨＡＳ株式会社（9010701023158）に合併し解散,2017-05-25,1,,,,,ロハスリゾート,0
1288,5010601037006,登記記録の閉鎖等,0,2023-01-23,2023-01-16,株式会社Ｔ．Ｎ．プランニング,,株式会社,東京都,墨田区,両国２丁目１２番１号,,13,107,1300026,,,2023-01-16,清算の結了等,,,2015-10-05,1,,,,,,0
1294,5010701003320,登記記録の閉鎖等,0,2023-01-23,2023-01-20,金剛ライト工業株式会社,,株式会社,東京都,品川区,西大井３丁目１番２０号,,13,109,1400015,,,2023-01-20,登記官による閉鎖,,,2015-10-05,1,,,,,,0
1295,5010701004830,登記記録の閉鎖等,0,2023-01-23,2023-01-20,株式会社ジューダ建装,,株式会社,東京都,品川区,西中延２丁目１５番２３号,,13,109,1420054,,,2023-01-20,登記官による閉鎖,,,2015-10-05,1,,,,,,0
1298,5010701022477,登記記録の閉鎖等,0,2023-01-23,2023-01-20,クリウス株式会社,,株式会社,東京都,品川区,東五反田５丁目２２番３７号ツバセスパート１２、９１３号室,,13,109,1410022,,,2023-01-20,登記官による閉鎖,,,2015-10-05,1,,,,,,0
1299,5010701022956,登記記録の閉鎖等,0,2023-01-23,2023-01-20,株式会社プロム,,株式会社,東京都,品川区,八潮５丁目６番３２－５１１号,,13,109,1400003,,,2023-01-20,登記官による閉鎖,,,2015-10-05,1,,,,,,0
1301,5010702007519,登記記録の閉鎖等,0,2023-01-23,2023-01-20,有限会社星野屋本店,,有限会社,東京都,品川区,北品川１丁目３０番２１号,,13,109,1400001,,,2023-01-20,登記官による閉鎖,,,2015-10-05,1,,,,,,0
1302,5010702007733,登記記録の閉鎖等,0,2023-01-23,2023-01-20,有限会社万弥精米店,,有限会社,東京都,品川区,平塚１丁目６番２３号,,13,109,1420051,,,2023-01-20,登記官による閉鎖,,,2015-10-05,1,,,,,,0
1303,5010702011958,登記記録の閉鎖等,0,2023-01-23,2023-01-20,ＢＴ総合研究所有限会社,,有限会社,東京都,品川区,小山７丁目１７番１０号,,13,109,1420062,,,2023-01-20,登記官による閉鎖,,,2015-10-05,1,,,,,,0
1305,5010705000859,登記記録の閉鎖等,0,2023-01-23,2023-01-20,医療法人社団秀夢会,,その他の設立登記法人,東京都,品川区,戸越２丁目６番３号鵜飼ビル１階,,13,109,1420041,,,2023-01-20,登記官による閉鎖,,,2015-10-05,1,,,,,,0
1306,5010705000982,登記記録の閉鎖等,0,2023-01-23,2023-01-20,医療法人社団光明会,,その他の設立登記法人,東京都,品川区,大崎１丁目６番１号ＴＯＣ大崎ビルディング１号棟１階Ａ号室,,13,109,1410032,,,2023-01-20,登記官による閉鎖,,,2015-10-05,1,,,,,,0
1307,5010705001691,登記記録の閉鎖等,0,2023-01-23,2023-01-20,一般社団法人インターナショナル・エシカル・ハッカー・エンジニア・コンソーシアム,,その他の設立登記法人,東京都,品川区,北品川４丁目７番３５号,,13,109,1400001,,,2023-01-20,登記官による閉鎖,,,2015-10-05,1,,,,,,0
1308,5010801009688,登記記録の閉鎖等,0,2023-01-23,2023-01-20,パシフイツクマシナリ株式会社,,株式会社,東京都,大田区,山王２丁目１番８号,,13,111,1430023,,,2023-01-20,登記官による閉鎖,,,2015-10-05,1,,,,,,0
1309,5010801012857,登記記録の閉鎖等,0,2023-01-23,2023-01-20,株式会社和田,,株式会社,東京都,大田区,蒲田１丁目１４番１８号,,13,111,1440052,,,2023-01-20,登記官による閉鎖,,,2015-10-05,1,,,,,,0
1310,5010801016858,登記記録の閉鎖等,0,2023-01-23,2023-01-20,株式会社Ｍｙ　ＬｉｆｅＳｔｙｌｅ,,株式会社,東京都,大田区,北馬込２丁目４番１号,,13,111,1430021,,,2023-01-20,登記官による閉鎖,,,2015-10-05,1,,,,,,0
1311,5010801019407,登記記録の閉鎖等,0,2023-01-23,2023-01-20,株式会社イチダイ,,株式会社,東京都,大田区,大森北６丁目２番１２号,,13,111,1430016,,,2023-01-20,登記官による閉鎖,,,2015-10-05,1,,,,,,0
1312,5010801020042,登記記録の閉鎖等,0,2023-01-23,2023-01-20,チークハウス株式会社,,株式会社,東京都,大田区,東嶺町３５番１３号,,13,111,1450074,,,2023-01-20,登記官による閉鎖,,,2015-10-05,1,,,,,,0
1313,5010801022377,登記記録の閉鎖等,0,2023-01-23,2023-01-20,株式会社リバーフィールド,,株式会社,東京都,大田区,池上１丁目３２番８号,,13,111,1460082,,,2023-01-20,登記官による閉鎖,,,2015-10-05,1,,,,,,0
1314,5010801026931,登記記録の閉鎖等,0,2023-01-23,2023-01-20,寺田電気株式会社,,株式会社,東京都,大田区,久が原４丁目１４番１１号,,13,111,1460085,,,2023-01-20,登記官による閉鎖,,,2016-08-09,1,,,,,,0
1318,5010802001082,登記記録の閉鎖等,0,2023-01-23,2023-01-20,有限会社池田屋樋口商店,00052281,有限会社,東京都,大田区,池上６丁目６番１３号,,13,111,1460082,,,2023-01-20,登記官による閉鎖,,,2015-10-05,1,,,,,,0
1319,5010802003590,登記記録の閉鎖等,0,2023-01-23,2023-01-20,有限会社勝田工業,,有限会社,東京都,大田区,久が原４丁目３２番５号,,13,111,1460085,,,2023-01-20,登記官による閉鎖,,,2015-10-05,1,,,,,,0
1320,5010802004498,登記記録の閉鎖等,0,2023-01-23,2023-01-20,有限会社国安製作所,,有限会社,東京都,大田区,大森西３丁目１０番３－２０４,,13,111,1430015,,,2023-01-20,登記官による閉鎖,,,2015-10-05,1,,,,,,0
1321,5010802005397,登記記録の閉鎖等,0,2023-01-23,2023-01-20,有限会社コスモクライム,,有限会社,東京都,大田区,大森北４丁目１４番７－３０１号,,13,111,1430016,,,2023-01-20,登記官による閉鎖,,,2015-10-05,1,,,,,,0
1322,5010802005554,登記記録の閉鎖等,0,2023-01-23,2023-01-20,有限会社小林電気製作所,,有限会社,東京都,大田区,西馬込２丁目９番６号,,13,111,1430026,,,2023-01-20,登記官による閉鎖,,,2015-10-05,1,,,,,,0
1323,5010802007154,登記記録の閉鎖等,0,2023-01-23,2023-01-20,有限会社松栄企画,,有限会社,東京都,大田区,上池台１丁目１４番１６号,,13,111,1450064,,,2023-01-20,登記官による閉鎖,,,2015-10-05,1,,,,,,0
1324,5010802008680,登記記録の閉鎖等,0,2023-01-23,2023-01-20,有限会社高桑電気商会,,有限会社,東京都,大田区,鵜の木１丁目２１番５号,,13,111,1460091,,,2023-01-20,登記官による閉鎖,,,2015-10-05,1,,,,,,0
1325,5010802014225,登記記録の閉鎖等,0,2023-01-23,2023-01-20,有限会社三平組,,有限会社,東京都,大田区,東蒲田２丁目２３番５号,,13,111,1440031,,,2023-01-20,登記官による閉鎖,,,2015-10-05,1,,,,,,0
1326,5010802015479,登記記録の閉鎖等,0,2023-01-23,2023-01-20,有限会社ライフタイム,,有限会社,東京都,大田区,北糀谷１丁目１１番６号板垣税務会計事務所内,,13,111,1440032,,,2023-01-20,登記官による閉鎖,,,2015-10-05,1,,,,,,0
1327,5010803000918,登記記録の閉鎖等,0,2023-01-23,2023-01-20,合同会社レガード,,合同会社,東京都,大田区,大森北６丁目２番１２号,,13,111,1430016,,,2023-01-20,登記官による閉鎖,,,2015-10-05,1,,,,,,0
1328,5010805001419,登記記録の閉鎖等,0,2023-01-23,2023-01-20,特定非営利活動法人ケイヒン高齢者支援奉仕会,,その他の設立登記法人,東京都,大田区,仲池上２丁目２６番２０号,,13,111,1460081,,,2023-01-20,登記官による閉鎖,,,2015-10-05,1,,,,,,0
1331,5011001049038,登記記録の閉鎖等,0,2023-01-23,2023-01-18,株式会社シティ・アート,,株式会社,東京都,渋谷区,代々木１丁目２番１２号グリーンヴィラ代々木,,13,113,1510053,,,2023-01-18,清算の結了等,,,2015-10-05,1,,,,,シティアート,0
1333,5011001140291,登記記録の閉鎖等,0,2023-01-23,2023-01-12,株式会社アダストリア・サステナブル・クリエーション,,株式会社,東京都,渋谷区,渋谷２丁目２１番１号渋谷ヒカリエ２９階,,13,113,1500002,,,2023-01-12,合併による解散等,7011001136767,令和５年１月１日東京都渋谷区渋谷二丁目２１番１号渋谷ヒカリエ２７階株式会社ＡＤＯＯＲＬＩＮＫ（7011001136767）に合併し解散,2021-05-07,1,,,,,アダストリアサステナブルクリエーション,0
1347,5011301007901,登記記録の閉鎖等,0,2023-01-23,2023-01-20,株式会社サトケンニジュウイチ,,株式会社,東京都,杉並区,阿佐谷北２丁目９番１６号,,13,115,1660001,,,2023-01-20,登記官による閉鎖,,,2015-10-05,1,,,,,,0
1348,5011301011829,登記記録の閉鎖等,0,2023-01-23,2023-01-20,光建設株式会社,,株式会社,東京都,杉並区,永福３丁目５７番１９号,,13,115,1680064,,,2023-01-20,登記官による閉鎖,,,2015-10-05,1,,,,,,0
1349,5011301013230,登記記録の閉鎖等,0,2023-01-23,2023-01-20,株式会社桑原伸之事務所,,株式会社,東京都,杉並区,荻窪１丁目４９番１９号,,13,115,1670051,,,2023-01-20,登記官による閉鎖,,,2015-10-05,1,,,,,,0
1351,5011301016150,登記記録の閉鎖等,0,2023-01-23,2023-01-20,日本ハウジング株式会社,,株式会社,東京都,杉並区,和田２丁目４６番１０号,,13,115,1660012,,,2023-01-20,登記官による閉鎖,,,2015-10-05,1,,,,,,0
1353,5011302004294,登記記録の閉鎖等,0,2023-01-23,2023-01-20,有限会社三和の漢方薬,,有限会社,東京都,杉並区,高円寺南１丁目６番２２号,,13,115,1660003,,,2023-01-20,登記官による閉鎖,,,2015-10-05,1,,,,,,0
1354,5011302010103,登記記録の閉鎖等,0,2023-01-23,2023-01-20,有限会社リベルテ,,有限会社,東京都,杉並区,下高井戸１丁目３６番１６号,,13,115,1680073,,,2023-01-20,登記官による閉鎖,,,2015-10-05,1,,,,,,0
1355,5011303001472,登記記録の閉鎖等,0,2023-01-23,2023-01-20,冠進合同会社,,合同会社,東京都,杉並区,堀ノ内３丁目１０番２２－４０１号プレール・ドゥーク,,13,115,1660013,,,2023-01-20,登記官による閉鎖,,,2015-10-05,1,,,,,,0
1356,5011303001605,登記記録の閉鎖等,0,2023-01-23,2023-01-20,合同会社ＳＴＡＮＤ－ＵＰ．,,合同会社,東京都,杉並区,井草１丁目２６番９－２０５号ラビリンス,,13,115,1670021,,,2023-01-20,登記官による閉鎖,,,2015-10-05,1,,,,,,0
1357,5011501000904,登記記録の閉鎖等,0,2023-01-23,2023-01-20,株式会社小野松工業所,,株式会社,東京都,北区,東十条６丁目１６番１４号,,13,117,1140001,,,2023-01-20,登記官による閉鎖,,,2015-10-05,1,,,,,,0
1358,5011501003089,登記記録の閉鎖等,0,2023-01-23,2023-01-20,株式会社東京三機,,株式会社,東京都,荒川区,荒川４丁目３１番１８－１０１０号,,13,118,1160002,,,2023-01-20,登記官による閉鎖,,,2015-10-05,1,,,,,,0
1359,5011501009846,登記記録の閉鎖等,0,2023-01-23,2023-01-20,株式会社谷宝飾,,株式会社,東京都,荒川区,東日暮里６丁目４９番１０号,,13,118,1160014,,,2023-01-20,登記官による閉鎖,,,2015-10-05,1,,,,,,0
1360,5011501011637,登記記録の閉鎖等,0,2023-01-23,2023-01-20,株式会社決行あたる,,株式会社,東京都,荒川区,荒川４丁目７番１７号石翠荘１０３号,,13,118,1160002,,,2023-01-20,登記官による閉鎖,,,2015-10-05,1,,,,,,0
1363,5011502000275,登記記録の閉鎖等,0,2023-01-23,2023-01-20,有限会社アズバカンス,,有限会社,東京都,北区,赤羽２丁目２４番１号,,13,117,1150045,,,2023-01-20,登記官による閉鎖,,,2015-10-05,1,,,,,,0
1364,5011502003575,登記記録の閉鎖等,0,2023-01-23,2023-01-20,有限会社たかぎ,,有限会社,東京都,北区,滝野川７丁目４７番１号,,13,117,1140023,,,2023-01-20,登記官による閉鎖,,,2015-10-05,1,,,,,,0
1365,5011502004499,登記記録の閉鎖等,0,2023-01-23,2023-01-20,有限会社西村商店,,有限会社,東京都,北区,田端１丁目１２番１５号,,13,117,1140014,,,2023-01-20,登記官による閉鎖,,,2015-10-05,1,,,,,,0
1366,5011502005349,登記記録の閉鎖等,0,2023-01-23,2023-01-20,有限会社ホーコ,,有限会社,東京都,北区,上十条４丁目１０番５号,,13,117,1140034,,,2023-01-20,登記官による閉鎖,,,2015-10-05,1,,,,,,0
1367,5011502015208,登記記録の閉鎖等,0,2023-01-23,2023-01-20,有限会社マルタカ紙工,,有限会社,東京都,北区,浮間４丁目１９番３０号沼野ビル１階１０２号,,13,117,1150051,,,2023-01-20,登記官による閉鎖,,,2015-10-05,1,,,,,,0
1371,5011801000067,登記記録の閉鎖等,0,2023-01-23,2023-01-23,株式会社アイザックス,,株式会社,東京都,葛飾区,金町５丁目２４番１６号,,13,122,1250042,,,2023-01-23,登記官による閉鎖,,,2015-10-05,1,,,,,,0
1372,5011801010116,登記記録の閉鎖等,0,2023-01-23,2023-01-23,東京寺島工芸株式会社,,株式会社,東京都,足立区,綾瀬７丁目１６番６号,,13,121,1200005,,,2023-01-23,登記官による閉鎖,,,2015-10-05,1,,,,,,0
1374,5011801016906,登記記録の閉鎖等,0,2023-01-23,2023-01-23,株式会社鈴和,,株式会社,東京都,足立区,南花畑２丁目１１番１７号,,13,121,1210062,,,2023-01-23,登記官による閉鎖,,,2015-10-05,1,,,,,,0
1375,5011801022045,登記記録の閉鎖等,0,2023-01-23,2023-01-23,株式会社ツイン・アーチ,,株式会社,東京都,足立区,保木間１丁目３５番１３号フェアリーヒルズ保木間２０４,,13,121,1210064,,,2023-01-23,登記官による閉鎖,,,2015-10-05,1,,,,,,0
1376,5011801024041,登記記録の閉鎖等,0,2023-01-23,2023-01-23,株式会社三吉,,株式会社,東京都,足立区,東和５丁目１１番１３－３０３号,,13,121,1200003,,,2023-01-23,登記官による閉鎖,,,2015-10-05,1,,,,,,0
1377,5011802000594,登記記録の閉鎖等,0,2023-01-23,2023-01-23,有限会社石川,,有限会社,東京都,葛飾区,水元１丁目２２番１５号,,13,122,1250032,,,2023-01-23,登記官による閉鎖,,,2015-10-05,1,,,,,,0
1378,5011802002450,登記記録の閉鎖等,0,2023-01-23,2023-01-23,有限会社倉美ゴム工業,,有限会社,東京都,葛飾区,西水元４丁目１６番１３号,,13,122,1250031,,,2023-01-23,登記官による閉鎖,,,2015-10-05,1,,,,,,0
1379,5011802004216,登記記録の閉鎖等,0,2023-01-23,2023-01-23,有限会社須田建工,,有限会社,東京都,葛飾区,堀切２丁目５０番８号,,13,122,1240006,,,2023-01-23,登記官による閉鎖,,,2015-10-05,1,,,,,,0
1380,5011802008092,登記記録の閉鎖等,0,2023-01-23,2023-01-23,有限会社山下工業,,有限会社,東京都,葛飾区,水元４丁目３番１１号,,13,122,1250032,,,2023-01-23,登記官による閉鎖,,,2015-10-05,1,,,,,,0
1381,5011802018463,登記記録の閉鎖等,0,2023-01-23,2023-01-23,有限会社ホンマ工業,,有限会社,東京都,足立区,谷中１丁目１７番２号,,13,121,1200006,,,2023-01-23,登記官による閉鎖,,,2015-10-05,1,,,,,,0
1382,5011802018637,登記記録の閉鎖等,0,2023-01-23,2023-01-23,松井工芸有限会社,,有限会社,東京都,足立区,神明３丁目２６番１９号,,13,121,1210051,,,2023-01-23,登記官による閉鎖,,,2015-10-05,1,,,,,,0
1383,5011802027431,登記記録の閉鎖等,0,2023-01-23,2023-01-23,有限会社関屋会館,,有限会社,東京都,足立区,千住関屋町２０番１７号,,13,121,1200024,,,2023-01-23,登記官による閉鎖,,,2015-10-05,1,,,,,,0
1384,5011802028719,登記記録の閉鎖等,0,2023-01-23,2023-01-23,有限会社サンヨー建設,,有限会社,東京都,葛飾区,西亀有４丁目７番４号,,13,122,1250002,,,2023-01-23,登記官による閉鎖,,,2015-10-05,1,,,,,,0
1385,5011803001146,登記記録の閉鎖等,0,2023-01-23,2023-01-23,呉屋トレーディング合同会社,,合同会社,東京都,足立区,六木４丁目６番３４号,,13,121,1210052,,,2023-01-23,登記官による閉鎖,,,2015-10-05,1,,,,,,0
1386,5011803001534,登記記録の閉鎖等,0,2023-01-23,2023-01-23,アスグローブネット合同会社,,合同会社,東京都,足立区,西綾瀬２丁目２１番１３号,,13,121,1200014,,,2023-01-23,登記官による閉鎖,,,2015-10-05,1,,,,,,0
1392,5013301043133,登記記録の閉鎖等,0,2023-01-23,2023-01-18,株式会社坂本不動産商事,,株式会社,東京都,豊島区,北大塚２丁目２７－１吉松ビル５０３,,13,116,1700004,,,2023-01-18,清算の結了等,,,2018-11-21,1,,,,,サカモトフドウサンショウジ,0
1396,5020001051440,登記記録の閉鎖等,0,2023-01-23,2023-01-18,株式会社フラワーズ・リンク,,株式会社,神奈川県,横浜市鶴見区,東寺尾中台１９番１７号,,14,101,2300017,,,2023-01-18,清算の結了等,,,2015-10-05,1,,,,,フラワーズリンク,0
1402,5020001143948,登記記録の閉鎖等,0,2023-01-23,2023-01-17,株式会社サウガンナー,,株式会社,神奈川県,横浜市戸塚区,南舞岡４丁目２４番１９号,,14,110,2440814,,,2023-01-17,清算の結了等,,,2021-11-17,1,,,,,サウガンナー,0
1420,5030001062825,登記記録の閉鎖等,0,2023-01-23,2023-01-16,株式会社桶川ピアノパレット,,株式会社,埼玉県,北本市,本町６丁目２８６番地１０,,11,233,3640033,,,2023-01-16,清算の結了等,,,2015-10-05,1,,,,,オケガワピアノパレット,0
1430,5030001131159,登記記録の閉鎖等,0,2023-01-23,2023-01-18,エスイートラスト株式会社,,株式会社,埼玉県,さいたま市北区,土呂町２丁目４４番２０号,,11,102,3310804,,,2023-01-18,清算の結了等,,,2019-05-31,1,,,,,エスイートラスト,0
1439,5040001054920,登記記録の閉鎖等,0,2023-01-23,2023-01-18,株式会社オンライン,,株式会社,千葉県,市原市,五井４８０４番地６,,12,219,2900056,,,2023-01-18,清算の結了等,,,2015-10-05,1,,,,,オンライン,0
1449,5040005014094,登記記録の閉鎖等,0,2023-01-23,2023-01-17,特定非営利活動法人住まいるへるぷ,,その他の設立登記法人,千葉県,柏市,つくしが丘４丁目１５番２号,,12,217,2770072,,,2023-01-17,清算の結了等,,,2015-10-05,1,,,,,スマイルヘルプ,0
1450,5050001000147,登記記録の閉鎖等,0,2023-01-23,2023-01-10,朝日製菓株式会社,,株式会社,茨城県,水戸市,堀町９５１番地,,08,201,3100903,,,2023-01-10,登記官による閉鎖,,,2015-10-05,1,,,,,,0
1451,5050001004882,登記記録の閉鎖等,0,2023-01-23,2023-01-10,株式会社東海青果市場,,株式会社,茨城県,那珂郡東海村,大字舟石川富士山前６１２の５番地,,08,341,3191111,,,2023-01-10,登記官による閉鎖,,,2015-10-05,1,,,,,,0
1453,5050001009683,登記記録の閉鎖等,0,2023-01-23,2023-01-10,東日本興業株式会社,,株式会社,茨城県,土浦市,中央１丁目３番２１号,,08,203,3000043,,,2023-01-10,登記官による閉鎖,,,2015-10-05,1,,,,,,0
1454,5050001022249,登記記録の閉鎖等,0,2023-01-23,2023-01-10,株式会社久米測量設計事務所,,株式会社,茨城県,鉾田市,鉾田１３１２番地３,,08,234,3111517,,,2023-01-10,登記官による閉鎖,,,2015-10-05,1,,,,,,0
1455,5050001024939,登記記録の閉鎖等,0,2023-01-23,2023-01-10,猿田工業株式会社,,株式会社,茨城県,北茨城市,関南町神岡上４７４番地の５,,08,215,3191714,,,2023-01-10,登記官による閉鎖,,,2015-10-05,1,,,,,,0
1456,5050001033948,登記記録の閉鎖等,0,2023-01-23,2023-01-10,早川瓦工業株式会社,,株式会社,茨城県,那珂市,菅谷４７５４番地２,,08,226,3110105,,,2023-01-10,登記官による閉鎖,,,2015-10-05,1,,,,,,0
1457,5050002006168,登記記録の閉鎖等,0,2023-01-23,2023-01-10,有限会社ユーワサービス,,有限会社,茨城県,水戸市,三湯町５２番地の７,,08,201,3190316,,,2023-01-10,登記官による閉鎖,,,2015-10-05,1,,,,,,0
1458,5050002009542,登記記録の閉鎖等,0,2023-01-23,2023-01-10,有限会社タイムリー,,有限会社,茨城県,ひたちなか市,平磯町１８番地,,08,221,3111203,,,2023-01-10,登記官による閉鎖,,,2015-10-05,1,,,,,,0
1459,5050002010401,登記記録の閉鎖等,0,2023-01-23,2023-01-10,有限会社プロデュース,,有限会社,茨城県,笠間市,八雲２丁目７番１号,,08,216,3091736,,,2023-01-10,登記官による閉鎖,,,2015-10-05,1,,,,,,0
1460,5050002012281,登記記録の閉鎖等,0,2023-01-23,2023-01-10,有限会社松葉工業所,,有限会社,茨城県,土浦市,摩利山新田２４９番地の３,,08,203,3000838,,,2023-01-10,登記官による閉鎖,,,2015-10-05,1,,,,,,0
1461,5050002014435,登記記録の閉鎖等,0,2023-01-23,2023-01-10,有限会社レパートリー,,有限会社,茨城県,土浦市,桜町２丁目４番８号,,08,203,3000037,,,2023-01-10,登記官による閉鎖,,,2015-10-05,1,,,,,,0
1462,5050002016423,登記記録の閉鎖等,0,2023-01-23,2023-01-16,有限会社アドバンス,,有限会社,茨城県,石岡市,旭台３丁目２１番１３号,,08,205,3150038,,,2023-01-16,清算の結了等,,,2015-10-05,1,,,,,,0
1463,5050002019847,登記記録の閉鎖等,0,2023-01-23,2023-01-10,有限会社小林工務店,,有限会社,茨城県,坂東市,馬立４８０番地,,08,228,3060605,,,2023-01-10,登記官による閉鎖,,,2015-10-05,1,,,,,,0
1464,5050002024104,登記記録の閉鎖等,0,2023-01-23,2023-01-10,有限会社坪井木工所,,有限会社,茨城県,古河市,本町１丁目３番３８号,,08,204,3060023,,,2023-01-10,登記官による閉鎖,,,2015-10-05,1,,,,,,0
1465,5050002026190,登記記録の閉鎖等,0,2023-01-23,2023-01-10,有限会社正栄,,有限会社,茨城県,鹿嶋市,平井南３７番地,,08,222,3140000,,,2023-01-10,登記官による閉鎖,,,2015-10-05,1,,,,,,0
1466,5050002028765,登記記録の閉鎖等,0,2023-01-23,2023-01-10,有限会社常南運輸,,有限会社,茨城県,行方市,富田７２番地の１,,08,233,3113833,,,2023-01-10,登記官による閉鎖,,,2015-10-05,1,,,,,,0
1467,5050002032783,登記記録の閉鎖等,0,2023-01-23,2023-01-10,有限会社ミライ電設,,有限会社,茨城県,北茨城市,中郷町小野矢指１６４８番地,,08,215,3191555,,,2023-01-10,登記官による閉鎖,,,2015-10-05,1,,,,,,0
1468,5050002038946,登記記録の閉鎖等,0,2023-01-23,2023-01-10,有限会社安寿征興業,,有限会社,茨城県,つくばみらい市,谷井田１４１６番地の２,,08,235,3002337,,,2023-01-10,登記官による閉鎖,,,2017-02-10,1,,,,,,0
1469,5050002039325,登記記録の閉鎖等,0,2023-01-23,2023-01-10,有限会社きうち,,有限会社,茨城県,つくばみらい市,絹の台５丁目１６番地１２,,08,235,3002436,,,2023-01-10,登記官による閉鎖,,,2015-10-05,1,,,,,,0
1470,5050002039614,登記記録の閉鎖等,0,2023-01-23,2023-01-10,大滝ゴム工業有限会社,,有限会社,茨城県,常総市,菅生町３４２７番地,,08,211,3030044,,,2023-01-10,登記官による閉鎖,,,2015-10-05,1,,,,,,0
1472,5050002044003,登記記録の閉鎖等,0,2023-01-23,2023-01-10,有限会社金子建設,,有限会社,茨城県,桜川市,富士見台４丁目５番地の１,,08,231,3091212,,,2023-01-10,登記官による閉鎖,,,2015-10-05,1,,,,,,0
1473,5050005009127,登記記録の閉鎖等,0,2023-01-23,2023-01-10,特定非営利活動法人ミネラル還元研究会,,その他の設立登記法人,茨城県,守谷市,けやき台５丁目１０番地ー１４,,08,224,3020128,,,2023-01-10,登記官による閉鎖,,,2015-10-05,1,,,,,,0
1474,5050005012080,登記記録の閉鎖等,0,2023-01-23,2023-01-10,無限責任三村信用購買販売利用組合,,その他の設立登記法人,茨城県,石岡市,三村１８５２番地,,08,205,3150048,,,2023-01-10,登記官による閉鎖,,,2017-05-08,1,,,,,,0
1499,5120003009848,登記記録の閉鎖等,0,2023-01-23,2023-01-19,ブリッセトレーディング合同会社,,合同会社,大阪府,大阪市中央区,南船場４丁目１０番５号,,27,128,5420081,,,2023-01-19,清算の結了等,,,2015-10-05,1,,,,,ブリッセトレーディング,0
1501,5120003019087,登記記録の閉鎖等,0,2023-01-23,2023-01-18,クレフ合同会社,,合同会社,大阪府,大阪市淀川区,宮原２丁目７番１２号,,27,123,5320003,,,2023-01-18,清算の結了等,,,2021-03-19,1,,,,,,0
1507,5120902016531,登記記録の閉鎖等,0,2023-01-23,2023-01-18,有限会社明治牛乳関西宅配センター,,有限会社,大阪府,池田市,豊島南１丁目１４番２号,,27,204,5630035,,,2023-01-18,清算の結了等,,,2015-10-05,1,,,,,メイジギュウニュウカンサイタクハイセンター,0
1517,5140001020128,登記記録の閉鎖等,0,2023-01-23,2023-01-19,細川エクステリア株式会社,,株式会社,兵庫県,神戸市中央区,熊内町４丁目７番５号,,28,110,6510056,,,2023-01-19,清算の結了等,,,2015-10-05,1,,,,,ホソカワエクステリア,0
1525,5140002035018,登記記録の閉鎖等,0,2023-01-23,2023-01-16,兵庫フェザー有限会社,,有限会社,兵庫県,丹波篠山市,糯ケ坪甲１６７番地５,,28,221,6692437,,,2023-01-16,清算の結了等,,,2015-10-05,1,,,,,ヒョウゴヘザー,0
1533,5180001054774,登記記録の閉鎖等,0,2023-01-23,2023-01-10,株式会社ジェイ・プランニング販売,,株式会社,愛知県,名古屋市東区,葵３丁目１５番３１号,,23,102,4610004,,,2023-01-10,合併による解散等,5180001108836,令和５年１月１日名古屋市東区葵三丁目１５番３１号株式会社日本保育総合研究所（5180001108836）に合併し解散,2015-10-05,1,,,,,ジェイプランニングハンバイ,0
1550,5210002002828,登記記録の閉鎖等,0,2023-01-23,2023-01-18,有限会社働きがい研究所,,有限会社,福井県,福井市,池尻町第２６号６６番地,,18,201,9103106,,,2023-01-18,清算の結了等,,,2015-10-05,1,,,,,ハタラキガイケンキュウショ,0
1556,5240002001975,登記記録の閉鎖等,0,2023-01-23,2023-01-19,エーイーディー設計事務所有限会社,,有限会社,広島県,広島市中区,羽衣町６番１０号,,34,101,7300814,,,2023-01-19,清算の結了等,,,2015-10-05,1,,,,,エーイーディーセッケイジムショ,0
1571,5330001022749,登記記録の閉鎖等,0,2023-01-23,2023-01-16,株式会社花しょう,,株式会社,熊本県,天草市,本渡町本渡８８５番地３,,43,215,8630003,,,2023-01-16,合併による解散等,4330002029463,令和５年１月１日熊本県天草市新和町小宮地６５８７番地株式会社光正社（4330002029463）に合併し解散,2016-05-11,1,,,,,,0
1586,5380001024096,登記記録の閉鎖等,0,2023-01-23,2023-01-18,株式会社コンタクト,,株式会社,福島県,福島市,万世町３番１５号ハイツカトレア２０２,,07,201,9608033,,,2023-01-18,清算の結了等,,,2015-10-05,1,,,,,,0
1592,5420002012590,登記記録の閉鎖等,0,2023-01-23,2023-01-18,有限会社城東観光,,有限会社,青森県,西津軽郡鰺ヶ沢町,大字湯舟町字若山１５２番地８,,02,321,0382704,,,2023-01-18,清算の結了等,,,2015-10-05,1,,,,,,0
1593,5430001034916,登記記録の閉鎖等,0,2023-01-23,2023-01-16,株式会社エムジー・アソシエイツ,,株式会社,北海道,札幌市豊平区,平岸五条１４丁目２番２５号,,01,105,0620935,,,2023-01-16,清算の結了等,,,2015-10-05,1,,,,,エムジーアソシエイツ,0
1600,5430002051761,登記記録の閉鎖等,0,2023-01-23,2023-01-13,有限会社飯島家具店,,有限会社,北海道,赤平市,茂尻中央町南３丁目３０番地,,01,218,0791261,,,2023-01-13,清算の結了等,,,2015-10-05,1,,,,,イイジマカグテン,0
1602,5460001004759,登記記録の閉鎖等,0,2023-01-23,2023-01-20,株式会社総合エンジニア,,株式会社,北海道,釧路市,住吉１丁目８番８号,,01,206,0850831,,,2023-01-20,清算の結了等,,,2015-10-05,1,,,,,ソウゴウエンジニア,0
1624,6010401119696,登記記録の閉鎖等,0,2023-01-23,2023-01-04,ＲＩＶＥＲＫＥＹ株式会社,,株式会社,東京都,港区,六本木３丁目１６番２６号,,13,103,1060032,,,2023-01-04,合併による解散等,9010701023158,令和４年１２月３１日東京都港区六本木三丁目１６番３５号ＬＯＨＡＳ株式会社（9010701023158）に合併し解散,2015-10-05,1,,,,,リバーキー,0
1632,6010701014416,登記記録の閉鎖等,0,2023-01-23,2023-01-20,コーポランド建設株式会社,,株式会社,東京都,大田区,上池台２丁目３６番１３－６０３号,,13,111,1450064,,,2023-01-20,登記官による閉鎖,,,2015-10-05,1,,,,,,0
1633,6010702007212,登記記録の閉鎖等,0,2023-01-23,2023-01-20,有限会社二葉大橋屋,,有限会社,東京都,品川区,二葉４丁目７番９号,,13,109,1420043,,,2023-01-20,登記官による閉鎖,,,2015-10-05,1,,,,,,0
1634,6010702008788,登記記録の閉鎖等,0,2023-01-23,2023-01-20,有限会社好乃鮨,,有限会社,東京都,品川区,二葉１丁目８番１８号,,13,109,1420043,,,2023-01-20,登記官による閉鎖,,,2015-10-05,1,,,,,,0
1637,6010801012947,登記記録の閉鎖等,0,2023-01-23,2023-01-20,株式会社ムーバース,,株式会社,東京都,大田区,大森南５丁目３番５号パルミナード森ケ崎公園５０４号,,13,111,1430013,,,2023-01-20,登記官による閉鎖,,,2015-10-05,1,,,,,,0
1638,6010802000323,登記記録の閉鎖等,0,2023-01-23,2023-01-20,有限会社アイリス越前屋,,有限会社,東京都,大田区,大森本町２丁目２６番１５号,,13,111,1430011,,,2023-01-20,登記官による閉鎖,,,2015-10-05,1,,,,,,0
1639,6010802015288,登記記録の閉鎖等,0,2023-01-23,2023-01-20,有限会社横田鈑金,,有限会社,東京都,大田区,羽田５丁目２６番１８号,,13,111,1440043,,,2023-01-20,登記官による閉鎖,,,2015-10-05,1,,,,,,0
1640,6010802020107,登記記録の閉鎖等,0,2023-01-23,2023-01-20,有限会社道裕,,有限会社,東京都,大田区,多摩川２丁目１２番１６号,,13,111,1460095,,,2023-01-20,登記官による閉鎖,,,2015-10-05,1,,,,,,0
1641,6010802020701,登記記録の閉鎖等,0,2023-01-23,2023-01-20,有限会社ヨコケイネットワーク,,有限会社,東京都,大田区,東嶺町９番６号,,13,111,1450074,,,2023-01-20,登記官による閉鎖,,,2015-10-05,1,,,,,,0
1642,6010803000859,登記記録の閉鎖等,0,2023-01-23,2023-01-20,合資会社束沙,,合資会社,東京都,大田区,本羽田１丁目２６番６号東陽管理ビルヂング３０２号,,13,111,1440044,,,2023-01-20,登記官による閉鎖,,,2015-10-05,1,,,,,,0
1643,6010805001384,登記記録の閉鎖等,0,2023-01-23,2023-01-20,特定非営利活動法人ＳＰＯＲＴＳ　ＨＯＵＳＥ,,その他の設立登記法人,東京都,大田区,大森西２丁目１６番２号こらぼ大森内,,13,111,1430015,,,2023-01-20,登記官による閉鎖,,,2015-10-05,1,,,,,,0
1644,6010805001418,登記記録の閉鎖等,0,2023-01-23,2023-01-20,大田ベイエリア建設協同組合,,その他の設立登記法人,東京都,大田区,西糀谷３丁目４１番３号,,13,111,1440034,,,2023-01-20,登記官による閉鎖,,,2015-10-05,1,,,,,,0
1651,6011001051835,登記記録の閉鎖等,0,2023-01-23,2023-01-10,株式会社ケルシャンス,,株式会社,東京都,渋谷区,神宮前２丁目３０番１８号,,13,113,1500001,,,2023-01-10,清算の結了等,,,2015-10-05,1,,,,,ケルシャンス,0
1660,6011105003278,登記記録の閉鎖等,0,2023-01-23,2023-01-19,特定非営利活動法人環境まちづくりネット,,その他の設立登記法人,東京都,新宿区,新宿２丁目２番１号ビューシティ新宿御苑１００２号室株式会社オギノ内,,13,104,1600022,,,2023-01-19,清算の結了等,,,2015-10-05,1,,,,,カンキョウマチヅクリネット,0
1661,6011301008155,登記記録の閉鎖等,0,2023-01-23,2023-01-20,株式会社東京ワンダー社,,株式会社,東京都,杉並区,下井草３丁目３９番２号,,13,115,1670022,,,2023-01-20,登記官による閉鎖,,,2015-10-05,1,,,,,,0
1662,6011301016942,登記記録の閉鎖等,0,2023-01-23,2023-01-20,株式会社アイアールシー,,株式会社,東京都,杉並区,高円寺北３丁目４３番１３号,,13,115,1660002,,,2023-01-20,登記官による閉鎖,,,2015-10-05,1,,,,,,0
1663,6011301017635,登記記録の閉鎖等,0,2023-01-23,2023-01-04,株式会社協和開発工業,,株式会社,東京都,港区,虎ノ門１丁目２３番１号虎ノ門ヒルズ森タワー２２階,,13,103,1050001,,,2023-01-04,合併による解散等,8011301017633,令和５年１月１日東京都港区虎ノ門一丁目２３番１号虎ノ門ヒルズ森タワー２２階日東工業株式会社（8011301017633）に合併し解散,2015-10-05,1,,,,,キョウワカイハツコウギョウ,0
1666,6011302003519,登記記録の閉鎖等,0,2023-01-23,2023-01-20,有限会社ピッコロ,,有限会社,東京都,杉並区,阿佐谷北１丁目３番１８号,,13,115,1660001,,,2023-01-20,登記官による閉鎖,,,2015-10-05,1,,,,,,0
1667,6011305001370,登記記録の閉鎖等,0,2023-01-23,2023-01-20,特定非営利活動法人日本キャリアビジョン研究所,,その他の設立登記法人,東京都,杉並区,梅里１丁目２２番１６号ＡＲＫ　ＵＭＥＳＡＴＯ　１０１,,13,115,1660011,,,2023-01-20,登記官による閉鎖,,,2015-10-05,1,,,,,,0
1669,6011501002107,登記記録の閉鎖等,0,2023-01-23,2023-01-20,陣内工業株式会社,,株式会社,東京都,北区,東十条１丁目３番６号,,13,117,1140001,,,2023-01-20,登記官による閉鎖,,,2015-10-05,1,,,,,,0
1670,6011501015265,登記記録の閉鎖等,0,2023-01-23,2023-01-20,株式会社エスケイサービス,,株式会社,東京都,荒川区,東日暮里６丁目５１番１０号,,13,118,1160014,,,2023-01-20,登記官による閉鎖,,,2015-10-05,1,,,,,,0
1671,6011501015281,登記記録の閉鎖等,0,2023-01-23,2023-01-20,東京メディカルサービス株式会社,,株式会社,東京都,北区,東十条１丁目１８番２－３０４号,,13,117,1140001,,,2023-01-20,登記官による閉鎖,,,2015-10-05,1,,,,,,0
1672,6011502009175,登記記録の閉鎖等,0,2023-01-23,2023-01-20,有限会社菅沢商店,,有限会社,東京都,荒川区,南千住５丁目３６番３号,,13,118,1160003,,,2023-01-20,登記官による閉鎖,,,2015-10-05,1,,,,,,0
1673,6011502011081,登記記録の閉鎖等,0,2023-01-23,2023-01-20,有限会社マキモリ服装,,有限会社,東京都,荒川区,町屋３丁目２８番７号,,13,118,1160001,,,2023-01-20,登記官による閉鎖,,,2015-10-05,1,,,,,,0
1679,6011801002814,登記記録の閉鎖等,0,2023-01-23,2023-01-23,株式会社竹八銘木店,,株式会社,東京都,葛飾区,奥戸２丁目１５番６号,,13,122,1240022,,,2023-01-23,登記官による閉鎖,,,2015-10-05,1,,,,,,0
1680,6011801003580,登記記録の閉鎖等,0,2023-01-23,2023-01-23,株式会社中野運送店,,株式会社,東京都,葛飾区,金町４丁目２５番１０号,,13,122,1250042,,,2023-01-23,登記官による閉鎖,,,2015-10-05,1,,,,,,0
1681,6011801004703,登記記録の閉鎖等,0,2023-01-23,2023-01-23,水元商事株式会社,,株式会社,東京都,葛飾区,東金町８丁目１９番１５号,,13,122,1250041,,,2023-01-23,登記官による閉鎖,,,2015-10-05,1,,,,,,0
1682,6011801006006,登記記録の閉鎖等,0,2023-01-23,2023-01-23,一興工業株式会社,,株式会社,東京都,足立区,青井３丁目１０番３２号,,13,121,1200012,,,2023-01-23,登記官による閉鎖,,,2015-10-05,1,,,,,,0
1684,6011801012722,登記記録の閉鎖等,0,2023-01-23,2023-01-23,株式会社山口商事,,株式会社,東京都,足立区,関原３丁目３番２３号,,13,121,1230852,,,2023-01-23,登記官による閉鎖,,,2015-10-05,1,,,,,,0
1685,6011801015139,登記記録の閉鎖等,0,2023-01-23,2023-01-23,三恵工業株式会社,,株式会社,東京都,葛飾区,小菅４丁目１１番９号,,13,122,1240001,,,2023-01-23,登記官による閉鎖,,,2015-10-05,1,,,,,サンケイコウギョウ,0
1686,6011801016285,登記記録の閉鎖等,0,2023-01-23,2023-01-23,株式会社優大産業,,株式会社,東京都,足立区,皿沼３丁目２７番１０号,,13,121,1230862,,,2023-01-23,登記官による閉鎖,,,2015-10-05,1,,,,,,0
1687,6011801018166,登記記録の閉鎖等,0,2023-01-23,2023-01-23,株式会社トータルエアシステム,,株式会社,東京都,足立区,伊興４丁目１０番１３号,,13,121,1210823,,,2023-01-23,登記官による閉鎖,,,2015-10-05,1,,,,,,0
1688,6011801023587,登記記録の閉鎖等,0,2023-01-23,2023-01-23,株式会社ジャスト,,株式会社,東京都,足立区,保木間１丁目３３番１７号,,13,121,1210064,,,2023-01-23,登記官による閉鎖,,,2015-10-05,1,,,,,,0
1693,6011802003357,登記記録の閉鎖等,0,2023-01-23,2023-01-23,有限会社佐藤製作所,,有限会社,東京都,葛飾区,柴又６丁目７番８号,,13,122,1250052,,,2023-01-23,登記官による閉鎖,,,2015-10-05,1,,,,,,0
1694,6011802004941,登記記録の閉鎖等,0,2023-01-23,2023-01-23,有限会社楯住建,,有限会社,東京都,葛飾区,水元１丁目１８番１号,,13,122,1250032,,,2023-01-23,登記官による閉鎖,,,2015-10-05,1,,,,,,0
1695,6011802005147,登記記録の閉鎖等,0,2023-01-23,2023-01-23,有限会社塚原造園,,有限会社,東京都,葛飾区,亀有４丁目１６番２号,,13,122,1250061,,,2023-01-23,登記官による閉鎖,,,2015-10-05,1,,,,,,0
1696,6011802012762,登記記録の閉鎖等,0,2023-01-23,2023-01-23,有限会社小林商店,,有限会社,東京都,足立区,東伊興１丁目５番８号,,13,121,1210801,,,2023-01-23,登記官による閉鎖,,,2015-10-05,1,,,,,,0
1698,6011802024849,登記記録の閉鎖等,0,2023-01-23,2023-01-23,有限会社台新,,有限会社,東京都,葛飾区,立石１丁目１８番９号,,13,122,1240012,,,2023-01-23,登記官による閉鎖,,,2015-10-05,1,,,,,,0
1699,6011802029906,登記記録の閉鎖等,0,2023-01-23,2023-01-23,有限会社新日本機械,,有限会社,東京都,足立区,新田３丁目３６番１－２１０号,,13,121,1230865,,,2023-01-23,登記官による閉鎖,,,2015-10-05,1,,,,,,0
1702,6013101007824,登記記録の閉鎖等,0,2023-01-23,2023-01-10,株式会社ブレーンスペース,,株式会社,東京都,福生市,加美平３丁目１３番地８エトワールエイト２０１号室,,13,218,1970012,,,2023-01-10,清算の結了等,,,2018-04-23,1,,,,,ブレーンスペース,0
1704,6013301022425,登記記録の閉鎖等,0,2023-01-23,2023-01-18,株式会社アベックソレイユ,,株式会社,東京都,豊島区,西池袋１丁目５番３号エルグビル１Ｆ,,13,116,1710021,,,2023-01-18,清算の結了等,,,2015-10-05,1,,,,,アベックソレイユ,0
1719,6021001064241,登記記録の閉鎖等,0,2023-01-23,2023-01-13,株式会社Ａｃｔｉｖｅ,,株式会社,東京都,大田区,東雪谷２丁目３３番５号ローゼンハイム雪谷１０２号室,,13,111,1450065,,,2023-01-13,清算の結了等,,,2018-03-01,1,,,,,アクティブ,0
1734,6030002062410,登記記録の閉鎖等,0,2023-01-23,2023-01-16,有限会社宮本商店,,有限会社,埼玉県,新座市,北野３丁目１番１９号,,11,230,3520003,,,2023-01-16,清算の結了等,,,2015-10-05,1,,,,,ミヤモトショウテン,0
1741,6040002024087,登記記録の閉鎖等,0,2023-01-23,2023-01-17,有限会社トミヒロ工業,,有限会社,千葉県,船橋市,宮本２丁目９番１号,,12,204,2730003,,,2023-01-17,清算の結了等,,,2015-10-05,1,,,,,トミヒロコウギョウ,0
1742,6040002062442,登記記録の閉鎖等,0,2023-01-23,2023-01-18,有限会社東京和装学院,,有限会社,千葉県,四街道市,鹿渡７２８番地１４,,12,228,2840003,,,2023-01-18,清算の結了等,,,2015-10-05,1,,,,,トウキョウワソウガクイン,0
1744,6050001007546,登記記録の閉鎖等,0,2023-01-23,2023-01-10,株式会社ＯＡＫＳ,,株式会社,茨城県,ひたちなか市,大平２丁目３番３０号,,08,221,3120023,,,2023-01-10,登記官による閉鎖,,,2015-10-05,1,,,,,,0
1745,6050001008313,登記記録の閉鎖等,0,2023-01-23,2023-01-10,登紀和商事株式会社,,株式会社,茨城県,笠間市,下郷４４３９番地１４５,,08,216,3190202,,,2023-01-10,登記官による閉鎖,,,2015-10-05,1,,,,,,0
1747,6050001011218,登記記録の閉鎖等,0,2023-01-23,2023-01-10,株式会社Ｊ．Ｃｏｒｐｏｒａｔｉｏｎ,,株式会社,茨城県,土浦市,桜町１丁目５番４号来田ビル１階,,08,203,3000037,,,2023-01-10,登記官による閉鎖,,,2015-10-05,1,,,,,,0
1748,6050001017363,登記記録の閉鎖等,0,2023-01-23,2023-01-10,株式会社ｒｅａｄｙ－ｍａｄｅ,,株式会社,茨城県,つくば市,吾妻３丁目１０番地３,,08,220,3050031,,,2023-01-10,登記官による閉鎖,,,2015-10-05,1,,,,,,0
1749,6050001021407,登記記録の閉鎖等,0,2023-01-23,2023-01-10,鹿島タイル販売株式会社,,株式会社,茨城県,潮来市,上戸２１番地５,,08,223,3112435,,,2023-01-10,登記官による閉鎖,,,2015-10-05,1,,,,,,0
1750,6050001024938,登記記録の閉鎖等,0,2023-01-23,2023-01-10,株式会社総合情報ビジネス,,株式会社,茨城県,日立市,東多賀町３丁目１３番２２号,,08,202,3160004,,,2023-01-10,登記官による閉鎖,,,2015-10-05,1,,,,,,0
1753,6050001043442,登記記録の閉鎖等,0,2023-01-23,2023-01-10,株式会社アサダ,,株式会社,茨城県,神栖市,土合西２丁目３番１７号,,08,232,3140346,,,2023-01-10,登記官による閉鎖,,,2017-10-06,1,,,,,,0
1756,6050002003420,登記記録の閉鎖等,0,2023-01-23,2023-01-10,有限会社夢秋桜,,有限会社,茨城県,水戸市,千波町１２８５番地の３,,08,201,3100851,,,2023-01-10,登記官による閉鎖,,,2015-10-05,1,,,,,,0
1757,6050002006497,登記記録の閉鎖等,0,2023-01-23,2023-01-10,有限会社三英建設,,有限会社,茨城県,那珂市,福田２４７番地の１,,08,226,3110118,,,2023-01-10,登記官による閉鎖,,,2015-10-05,1,,,,,,0
1758,6050002008790,登記記録の閉鎖等,0,2023-01-23,2023-01-10,Ｋｉ－ＳＥＫＩ有限会社,,有限会社,茨城県,ひたちなか市,平磯町１８番地,,08,221,3111203,,,2023-01-10,登記官による閉鎖,,,2015-10-05,1,,,,,,0
1759,6050002014087,登記記録の閉鎖等,0,2023-01-23,2023-01-10,有限会社アイデント,,有限会社,茨城県,土浦市,大岩田１７１５番地の３,,08,203,3000835,,,2023-01-10,登記官による閉鎖,,,2015-10-05,1,,,,,,0
1760,6050002019879,登記記録の閉鎖等,0,2023-01-23,2023-01-10,有限会社三友加工,,有限会社,茨城県,坂東市,寺久１０８４番地の１５,,08,228,3060656,,,2023-01-10,登記官による閉鎖,,,2015-10-05,1,,,,,,0
1761,6050002025860,登記記録の閉鎖等,0,2023-01-23,2023-01-10,有限会社ビッグ,,有限会社,茨城県,古河市,尾崎７８０番地,,08,204,3060101,,,2023-01-10,登記官による閉鎖,,,2015-10-05,1,,,,,,0
1762,6050002026330,登記記録の閉鎖等,0,2023-01-23,2023-01-10,有限会社香丘,,有限会社,茨城県,鹿嶋市,宮中６丁目２番１号,,08,222,3140031,,,2023-01-10,登記官による閉鎖,,,2015-10-05,1,,,,,,0
1763,6050002032808,登記記録の閉鎖等,0,2023-01-23,2023-01-10,ＨＩＴＡＣＨＩ　ＰＲＯＣＥＳＳＩＮＧ　ＣＯＭＰＡＮＹ有限会社,,有限会社,茨城県,日立市,旭町３丁目４番２号、トキワビル４階,,08,202,3170074,,,2023-01-10,登記官による閉鎖,,,2015-10-05,1,,,,,,0
1764,6050002034985,登記記録の閉鎖等,0,2023-01-23,2023-01-10,有限会社建築工房つくば,,有限会社,茨城県,龍ケ崎市,藤ケ丘１丁目１３番地２,,08,208,3010855,,,2023-01-10,登記官による閉鎖,,,2015-10-05,1,,,,,,0
1765,6050005001603,登記記録の閉鎖等,0,2023-01-23,2023-01-10,特定非営利活動法人ファクトリービー,,その他の設立登記法人,茨城県,水戸市,河和田１丁目１５４６番地の１県営高天原アパート第７棟２Ｆ－４号,,08,201,3114152,,,2023-01-10,登記官による閉鎖,,,2015-10-05,1,,,,,,0
1766,6050005002196,登記記録の閉鎖等,0,2023-01-23,2023-01-10,阿字ヶ浦観光海の家協同組合,,その他の設立登記法人,茨城県,ひたちなか市,磯崎町４６４７番地の１,,08,221,3111202,,,2023-01-10,登記官による閉鎖,,,2015-10-05,1,,,,,,0
1767,6050005011222,登記記録の閉鎖等,0,2023-01-23,2023-01-10,保証責任田余村信用販賣購買利用組合,,その他の設立登記法人,茨城県,小美玉市,栗又四ケ９４２番地,,08,236,3113434,,,2023-01-10,登記官による閉鎖,,,2015-10-05,1,,,,,,0
1768,6050005011882,登記記録の閉鎖等,0,2023-01-23,2023-01-10,有限責任田彦信用販売購買組合,,その他の設立登記法人,茨城県,ひたちなか市,大字田彦２７番地,,08,221,3120063,,,2023-01-10,登記官による閉鎖,,,2016-05-18,1,,,,,,0
1772,6070001019630,登記記録の閉鎖等,0,2023-01-23,2023-01-17,株式会社大竜自動車,,株式会社,群馬県,太田市,龍舞町２０１０番地１,,10,205,3730806,,,2023-01-17,清算の結了等,,,2015-10-05,1,,,,,ダイリュウジドウシャ,0
1775,6080001008178,登記記録の閉鎖等,0,2023-01-23,2023-01-20,株式会社清水中央青果,,株式会社,静岡県,静岡市清水区,庵原町字西尾田１６６番地の２,,22,103,4240114,,,2023-01-20,清算の結了等,,,2015-10-05,1,,,,,シミズチュウオウセイカ,0
1776,6080101003979,登記記録の閉鎖等,0,2023-01-23,2023-01-19,エム・ジー・ワイコーポレイション株式会社,,株式会社,静岡県,御殿場市,新橋７４８番地,,22,215,4120043,,,2023-01-19,清算の結了等,,,2015-10-05,1,,,,,エムジーワイコーポレイション,0
1785,6120001018362,登記記録の閉鎖等,0,2023-01-23,2023-01-18,株式会社中西武道具,,株式会社,大阪府,大阪市生野区,勝山南１丁目２番３号,,27,116,5440021,,,2023-01-18,清算の結了等,,,2015-10-05,1,,,,,,0
1787,6120001106761,登記記録の閉鎖等,0,2023-01-23,2023-01-19,株式会社コパン,,株式会社,大阪府,大阪市住吉区,庭井１丁目１２番１３号,,27,120,5580012,,,2023-01-19,清算の結了等,,,2015-10-05,1,,,,,,0
1825,6140001025588,登記記録の閉鎖等,0,2023-01-23,2023-01-19,ブルーローズ株式会社,,株式会社,兵庫県,神戸市西区,池上１丁目４番地の５,,28,111,6512111,,,2023-01-19,清算の結了等,,,2015-10-05,1,,,,,ブルーローズ,0
1831,6140001119654,登記記録の閉鎖等,0,2023-01-23,2023-01-06,株式会社ジェイアイティ,,株式会社,兵庫県,尼崎市,東難波町４丁目２番２９号,,28,202,6600892,,,2023-01-06,合併による解散等,2140001101112,令和４年１２月２７日兵庫県尼崎市東難波町四丁目２番２９号ＷＢＰグループ株式会社（2140001101112）に合併し解散,2020-12-08,1,,,,,ジェイアイティ,0
1832,6140001123714,登記記録の閉鎖等,0,2023-01-23,2023-01-17,株式会社神姫不動産神戸北,,株式会社,兵庫県,神戸市北区,藤原台北町７丁目８番１２－２０３号,,28,109,6511301,,,2023-01-17,清算の結了等,,,2021-11-05,1,,,,,シンキフドウサンコウベキタ,0
1864,6240001037623,登記記録の閉鎖等,0,2023-01-23,2023-01-19,株式会社ＧＤ,,株式会社,広島県,広島市中区,西平塚町７番２３－１０１,,34,101,7300024,,,2023-01-19,清算の結了等,,,2015-10-05,1,,,,,ジーディー,0
1866,6250002012327,登記記録の閉鎖等,0,2023-01-23,2023-01-17,有限会社青い空,,有限会社,山口県,下関市,菊川町大字下岡枝１１１３番地,,35,201,7500317,,,2023-01-17,清算の結了等,,,2015-10-05,1,,,,,アオイソラ,0
1867,6250003002863,登記記録の閉鎖等,0,2023-01-23,2023-01-17,合同会社ＹＲＰ,,合同会社,山口県,山口市,今井町３番４２号,,35,203,7530055,,,2023-01-17,清算の結了等,,,2021-07-06,1,,,,,ワイアールピー,0
1902,6490002010620,登記記録の閉鎖等,0,2023-01-23,2023-01-20,有限会社松浦建材,,有限会社,高知県,須崎市,多ノ郷甲５３３１番地,,39,206,7850030,,,2023-01-20,清算の結了等,,,2015-10-05,1,,,,,マツウラケンザイ,0
1903,6500005003677,登記記録の閉鎖等,0,2023-01-23,2022-12-27,特定非営利活動法人佐田岬ツーリズム協会,,その他の設立登記法人,愛媛県,西宇和郡伊方町,三崎１７００番地１１,,38,442,7960801,,,2022-12-27,清算の結了等,,,2015-10-05,1,,,,,サダミサキツーリズムキョウカイ,0
1907,7010001052396,登記記録の閉鎖等,0,2023-01-23,2023-01-13,株式会社トーリン,,株式会社,東京都,中央区,日本橋大伝馬町１３番４号,,13,102,1030011,,,2023-01-13,合併による解散等,3010401092995,令和５年１月１日東京都中央区新川一丁目１７番２５号株式会社モード・エ・ジャコモ（3010401092995）に合併し解散,2015-10-05,1,,,,,トーリン,0
1911,7010002015617,登記記録の閉鎖等,0,2023-01-23,2023-01-20,有限会社林泉舎,,有限会社,東京都,杉並区,高井戸東１丁目３１番６Ｐａｒｋ　Ｃｉｔｙ浜田山Ｅ２１３号,,13,115,1680072,,,2023-01-20,登記官による閉鎖,,,2015-10-05,1,,,,,,0
1933,7010701016923,登記記録の閉鎖等,0,2023-01-23,2023-01-20,株式会社エンタイトル,,株式会社,東京都,品川区,中延５丁目９番１２号,,13,109,1420053,,,2023-01-20,登記官による閉鎖,,,2015-10-05,1,,,,,,0
1934,7010701019868,登記記録の閉鎖等,0,2023-01-23,2023-01-16,株式会社ディーキュア,,株式会社,東京都,品川区,東五反田１丁目１１－５－２０１,,13,109,1410022,,,2023-01-16,清算の結了等,,,2015-10-05,1,,,,,ディーキュア,0
1935,7010702003037,登記記録の閉鎖等,0,2023-01-23,2023-01-20,有限会社小林インテリア,,有限会社,東京都,品川区,小山１丁目５番２０号,,13,109,1420062,,,2023-01-20,登記官による閉鎖,,,2015-10-05,1,,,,,,0
1936,7010702010719,登記記録の閉鎖等,0,2023-01-23,2023-01-20,有限会社白文字,,有限会社,東京都,品川区,豊町４丁目１８番２０号,,13,109,1420042,,,2023-01-20,登記官による閉鎖,,,2015-10-05,1,,,,,,0
1937,7010702013449,登記記録の閉鎖等,0,2023-01-23,2023-01-20,大洋通商有限会社,,有限会社,東京都,品川区,八潮５丁目１０番５４－５１４号,,13,109,1400003,,,2023-01-20,登記官による閉鎖,,,2015-10-05,1,,,,,,0
1939,7010801002831,登記記録の閉鎖等,0,2023-01-23,2023-01-20,カルチャークラブ東京株式会社,,株式会社,東京都,大田区,久が原５丁目１４番１４－７０４号,,13,111,1460085,,,2023-01-20,登記官による閉鎖,,,2015-10-05,1,,,,,,0
1940,7010801006139,登記記録の閉鎖等,0,2023-01-23,2023-01-20,株式会社セイリュウコーポレーション,,株式会社,東京都,大田区,上池台３丁目３９番４号,,13,111,1450064,,,2023-01-20,登記官による閉鎖,,,2015-10-05,1,,,,,,0
1941,7010801007475,登記記録の閉鎖等,0,2023-01-23,2023-01-20,ｉｌ　Ｌｕｏｇｏ株式会社,,株式会社,東京都,大田区,北千束３丁目５番９号,,13,111,1450062,,,2023-01-20,登記官による閉鎖,,,2015-10-05,1,,,,,,0
1942,7010801015313,登記記録の閉鎖等,0,2023-01-23,2023-01-20,株式会社プラスエム,,株式会社,東京都,大田区,北千束１丁目１３番１４号Ｂ１０１,,13,111,1450062,,,2023-01-20,登記官による閉鎖,,,2015-10-05,1,,,,,,0
1943,7010801018398,登記記録の閉鎖等,0,2023-01-23,2023-01-20,クイックレンタカーシステム株式会社,,株式会社,東京都,大田区,大森北３丁目２２番２０号,,13,111,1430016,,,2023-01-20,登記官による閉鎖,,,2015-10-05,1,,,,,,0
1944,7010801020486,登記記録の閉鎖等,0,2023-01-23,2023-01-20,株式会社ナノファイン,,株式会社,東京都,大田区,多摩川２丁目２４番２５－９０５号,,13,111,1460095,,,2023-01-20,登記官による閉鎖,,,2015-10-05,1,,,,,,0
1945,7010801021113,登記記録の閉鎖等,0,2023-01-23,2023-01-20,マリテック株式会社,,株式会社,東京都,大田区,萩中１丁目１番１３号,,13,111,1440047,,,2023-01-20,登記官による閉鎖,,,2015-10-05,1,,,,,,0
1947,7010802005841,登記記録の閉鎖等,0,2023-01-23,2023-01-20,有限会社サンケン,,有限会社,東京都,大田区,萩中２丁目１６番１５号,,13,111,1440047,,,2023-01-20,登記官による閉鎖,,,2015-10-05,1,,,,,,0
1948,7010802008563,登記記録の閉鎖等,0,2023-01-23,2023-01-20,有限会社泰明,,有限会社,東京都,大田区,仲六郷４丁目３６番７号,,13,111,1440055,,,2023-01-20,登記官による閉鎖,,,2015-10-05,1,,,,,,0
1949,7010802013902,登記記録の閉鎖等,0,2023-01-23,2023-01-20,有限会社ミートアンドデリカ大島,,有限会社,東京都,大田区,東蒲田２丁目２４番２号,,13,111,1440031,,,2023-01-20,登記官による閉鎖,,,2015-10-05,1,,,,,,0
1950,7010802015527,登記記録の閉鎖等,0,2023-01-23,2023-01-20,有限会社ラブレリー,,有限会社,東京都,大田区,蒲田１丁目６番１８－１３０１号,,13,111,1440052,,,2023-01-20,登記官による閉鎖,,,2015-10-05,1,,,,,,0
1951,7010802019957,登記記録の閉鎖等,0,2023-01-23,2023-01-20,有限会社リアルワークス,,有限会社,東京都,大田区,西蒲田７丁目４１番８号,,13,111,1440051,,,2023-01-20,登記官による閉鎖,,,2015-10-05,1,,,,,,0
1970,7011202000879,登記記録の閉鎖等,0,2023-01-23,2023-01-18,有限会社永仁堂,,有限会社,東京都,中野区,上高田３丁目４０番１０号,,13,114,1640002,,,2023-01-18,合併による解散等,7011102010334,令和５年１月１日東京都新宿区西新宿一丁目１５番１３号株式会社胖ビル（7011102010334）に合併し解散,2015-10-05,1,,,,,,0
1974,7011301017659,登記記録の閉鎖等,0,2023-01-23,2023-01-20,株式会社セントラル,,株式会社,東京都,杉並区,下高井戸１丁目２番１５号下高井戸ビル３階,,13,115,1680073,,,2023-01-20,登記官による閉鎖,,,2015-10-05,1,,,,,,0
1975,7011302001298,登記記録の閉鎖等,0,2023-01-23,2023-01-20,有限会社ウッドアップ,,有限会社,東京都,杉並区,上高井戸１丁目１８番８号,,13,115,1680074,,,2023-01-20,登記官による閉鎖,,,2015-10-05,1,,,,,,0
1976,7011302002255,登記記録の閉鎖等,0,2023-01-23,2023-01-20,有限会社大野通信機,,有限会社,東京都,杉並区,下井草５丁目１０番２８号,,13,115,1670022,,,2023-01-20,登記官による閉鎖,,,2015-10-05,1,,,,,,0
1977,7011302016486,登記記録の閉鎖等,0,2023-01-23,2023-01-20,有限会社秀明舎,,有限会社,東京都,杉並区,方南１丁目４４番３号,,13,115,1680062,,,2023-01-20,登記官による閉鎖,,,2015-10-05,1,,,,,,0
1978,7011303001652,登記記録の閉鎖等,0,2023-01-23,2023-01-20,合同会社ＩＫＤ,,合同会社,東京都,杉並区,高円寺南３丁目６２番１０号,,13,115,1660003,,,2023-01-20,登記官による閉鎖,,,2015-10-05,1,,,,,,0
1980,7011305000644,登記記録の閉鎖等,0,2023-01-23,2023-01-20,特定非営利活動法人東京シルバーケア研究会,,その他の設立登記法人,東京都,杉並区,上荻１丁目１８番１２号上荻大林ビル３階,,13,115,1670043,,,2023-01-20,登記官による閉鎖,,,2015-10-05,1,,,,,,0
1981,7011305000702,登記記録の閉鎖等,0,2023-01-23,2023-01-20,特定非営利活動法人日本マリ国際経済交流協会,,その他の設立登記法人,東京都,杉並区,永福３丁目２番１２号,,13,115,1680064,,,2023-01-20,登記官による閉鎖,,,2015-10-05,1,,,,,,0
1983,7011501000679,登記記録の閉鎖等,0,2023-01-23,2023-01-20,株式会社榎本エンジニアリング,,株式会社,東京都,北区,十条仲原１丁目２３番１号,,13,117,1140031,,,2023-01-20,登記官による閉鎖,,,2015-10-05,1,,,,,,0
1984,7011501002915,登記記録の閉鎖等,0,2023-01-23,2023-01-20,株式会社千代田製作所,,株式会社,東京都,北区,東田端２丁目４番８号,,13,117,1140013,,,2023-01-20,登記官による閉鎖,,,2015-10-05,1,,,,,,0
1985,7011501017608,登記記録の閉鎖等,0,2023-01-23,2023-01-20,株式会社日富,,株式会社,東京都,荒川区,町屋３丁目２番１号,,13,118,1160001,,,2023-01-20,登記官による閉鎖,,,2015-10-05,1,,,,,,0
1989,7011502000406,登記記録の閉鎖等,0,2023-01-23,2023-01-20,有限会社アルト設備設計,,有限会社,東京都,北区,赤羽西１丁目６番１－７０２号,,13,117,1150055,,,2023-01-20,登記官による閉鎖,,,2015-10-05,1,,,,,,0
1991,7011502001908,登記記録の閉鎖等,0,2023-01-23,2023-01-20,有限会社グラビア企画,,有限会社,東京都,北区,浮間４丁目１２番１６号,,13,117,1150051,,,2023-01-20,登記官による閉鎖,,,2015-10-05,1,,,,,,0
1992,7011502005405,登記記録の閉鎖等,0,2023-01-23,2023-01-20,有限会社北斗理容,,有限会社,東京都,北区,堀船３丁目２３番１５号,,13,117,1140004,,,2023-01-20,登記官による閉鎖,,,2015-10-05,1,,,,,,0
1993,7011502009785,登記記録の閉鎖等,0,2023-01-23,2023-01-20,有限会社ツーリストナカムラ,,有限会社,東京都,荒川区,東尾久２丁目３８番５号,,13,118,1160012,,,2023-01-20,登記官による閉鎖,,,2015-10-05,1,,,,,,0
1994,7011503001568,登記記録の閉鎖等,0,2023-01-23,2023-01-20,合資会社流郷製作所,,合資会社,東京都,荒川区,町屋１丁目１３番１２号,,13,118,1160001,,,2023-01-20,登記官による閉鎖,,,2017-02-06,1,,,,,,0
1995,7011505000122,登記記録の閉鎖等,0,2023-01-23,2023-01-20,東十条第二食糧販売企業組合,,その他の設立登記法人,東京都,北区,東十条４丁目１１番３号,,13,117,1140001,,,2023-01-20,登記官による閉鎖,,,2015-10-05,1,,,,,,0
1998,7011801011616,登記記録の閉鎖等,0,2023-01-23,2023-01-17,株式会社福永工務店,,株式会社,東京都,足立区,梅島２丁目１６番９号,,13,121,1210816,,,2023-01-17,清算の結了等,,,2015-10-05,1,,,,,フクナガコウムテン,0
1999,7011801015971,登記記録の閉鎖等,0,2023-01-23,2023-01-23,共進貿易株式会社,,株式会社,東京都,足立区,西新井栄町２丁目３番１４号,,13,121,1230843,,,2023-01-23,登記官による閉鎖,,,2015-10-05,1,,,,,,0
2000,7011801021235,登記記録の閉鎖等,0,2023-01-23,2023-01-23,株式会社柳商会,,株式会社,東京都,足立区,中央本町１丁目１８番１２－４０２号,,13,121,1200011,,,2023-01-23,登記官による閉鎖,,,2015-10-05,1,,,,,,0
2002,7011802004825,登記記録の閉鎖等,0,2023-01-23,2023-01-23,有限会社高橋紙器,,有限会社,東京都,葛飾区,高砂２丁目５番１３号,,13,122,1250054,,,2023-01-23,登記官による閉鎖,,,2015-10-05,1,,,,,,0
2004,7011805001737,登記記録の閉鎖等,0,2023-01-23,2023-01-23,特定非営利活動法人児童自立支援協会,,その他の設立登記法人,東京都,葛飾区,青戸８丁目１５番１０－４０３号ヴェルアージュ亀有,,13,122,1250062,,,2023-01-23,登記官による閉鎖,,,2015-10-05,1,,,,,,0
2031,7021001026158,登記記録の閉鎖等,0,2023-01-23,2023-01-16,株式会社アート住設,,株式会社,神奈川県,座間市,座間１丁目４１６５番地の６,,14,216,2520027,,,2023-01-16,清算の結了等,,,2015-10-05,1,,,,,,0
2038,7021002061336,登記記録の閉鎖等,0,2023-01-23,2023-01-16,有限会社ココアール,,有限会社,神奈川県,平塚市,片岡８０３番地,,14,203,2591213,,,2023-01-16,清算の結了等,,,2015-10-05,1,,,,,ココアール,0
2059,7050001001382,登記記録の閉鎖等,0,2023-01-23,2023-01-10,株式会社杉浦精工,,株式会社,茨城県,水戸市,住吉町３０番地の８,,08,201,3100844,,,2023-01-10,登記官による閉鎖,,,2015-10-05,1,,,,,,0
2060,7050001010739,登記記録の閉鎖等,0,2023-01-23,2023-01-10,コノヱ皮革縫製株式会社,,株式会社,茨城県,稲敷郡美浦村,大字大山２０３４番地,,08,442,3000402,,,2023-01-10,登記官による閉鎖,,,2017-01-05,1,,,,,,0
2061,7050001011943,登記記録の閉鎖等,0,2023-01-23,2023-01-10,株式会社美野里テーケィアール,,株式会社,茨城県,小美玉市,堅倉１３３９番地,,08,236,3190106,,,2023-01-10,登記官による閉鎖,,,2017-04-04,1,,,,,,0
2062,7050001031272,登記記録の閉鎖等,0,2023-01-23,2023-01-10,株式会社プライド,,株式会社,茨城県,つくばみらい市,谷井田１４１８番地９号,,08,235,3002337,,,2023-01-10,登記官による閉鎖,,,2015-10-05,1,,,,,,0
2063,7050001033269,登記記録の閉鎖等,0,2023-01-23,2023-01-10,株式会社げんき農園つくば,,株式会社,茨城県,筑西市,中根５００番地１,,08,227,3004513,,,2023-01-10,登記官による閉鎖,,,2015-10-05,1,,,,,,0
2064,7050001043573,登記記録の閉鎖等,0,2023-01-23,2023-01-10,株式会社サンユウ,,株式会社,茨城県,水戸市,笠原町９７４番地の２７,,08,201,3100852,,,2023-01-10,登記官による閉鎖,,,2017-11-01,1,,,,,,0
2065,7050002000838,登記記録の閉鎖等,0,2023-01-23,2023-01-10,有限会社上水戸建材,,有限会社,茨城県,水戸市,見川２丁目４４番地の７,,08,201,3100912,,,2023-01-10,登記官による閉鎖,,,2015-10-05,1,,,,,,0
2066,7050002012288,登記記録の閉鎖等,0,2023-01-23,2023-01-10,有限会社マミー・こいけ,,有限会社,茨城県,土浦市,西並木町３７８１番地の６６,,08,203,3000068,,,2023-01-10,登記官による閉鎖,,,2015-10-05,1,,,,,,0
2067,7050002013344,登記記録の閉鎖等,0,2023-01-23,2023-01-10,有限会社ミネテック,,有限会社,茨城県,稲敷郡阿見町,中央３丁目２番５号,,08,443,3000332,,,2023-01-10,登記官による閉鎖,,,2015-10-05,1,,,,,,0
2068,7050002017270,登記記録の閉鎖等,0,2023-01-23,2023-01-10,猪瀬電気有限会社,00022856,有限会社,茨城県,結城郡八千代町,大字今里２３５番地,,08,521,3003531,,,2023-01-10,登記官による閉鎖,,,2015-10-05,1,,,,,,0
2069,7050002019721,登記記録の閉鎖等,0,2023-01-23,2023-01-10,有限会社内出成鋼,,有限会社,茨城県,坂東市,鵠戸９８３番地の３,,08,228,3060641,,,2023-01-10,登記官による閉鎖,,,2015-10-05,1,,,,,,0
2070,7050002026313,登記記録の閉鎖等,0,2023-01-23,2023-01-10,有限会社大橋建材,,有限会社,茨城県,鹿嶋市,大字荒野１５５９番地の２３,,08,222,3112221,,,2023-01-10,登記官による閉鎖,,,2015-10-05,1,,,,,,0
2071,7050002030554,登記記録の閉鎖等,0,2023-01-23,2023-01-10,有限会社小林電工社,,有限会社,茨城県,日立市,神峰町３丁目３番１５号,,08,202,3170064,,,2023-01-10,登記官による閉鎖,,,2015-10-05,1,,,,,,0
2072,7050002032807,登記記録の閉鎖等,0,2023-01-23,2023-01-10,ＡＲＴ楽がき有限会社,,有限会社,茨城県,日立市,旭町３丁目４番２号、トキワビル４階,,08,202,3170074,,,2023-01-10,登記官による閉鎖,,,2015-10-05,1,,,,,,0
2073,7050002037013,登記記録の閉鎖等,0,2023-01-23,2023-01-10,スタジオ・カムス有限会社,,有限会社,茨城県,取手市,戸頭３丁目１３番地１５号,,08,217,3020034,,,2023-01-10,登記官による閉鎖,,,2015-10-05,1,,,,,,0
2075,7050005006667,登記記録の閉鎖等,0,2023-01-23,2023-01-10,農事組合法人鉾田葉たばこ生産農家組合,,その他の設立登記法人,茨城県,鉾田市,塔ケ崎３４番地,,08,234,3111522,,,2023-01-10,登記官による閉鎖,,,2015-10-05,1,,,,,,0
2076,7060001007172,登記記録の閉鎖等,0,2023-01-23,2023-01-10,株式会社インサイド,,株式会社,茨城県,土浦市,桜町１丁目６番１４号,,08,203,3000037,,,2023-01-10,登記官による閉鎖,,,2015-10-05,1,,,,,,0
2086,7110001004271,登記記録の閉鎖等,0,2023-01-23,2023-01-18,日本重車輌株式会社,,株式会社,新潟県,新潟市中央区,美咲町２丁目３番１１号,,15,103,9500954,,,2023-01-18,清算の結了等,,,2015-10-05,1,,,,,,0
2104,7120002069354,登記記録の閉鎖等,0,2023-01-23,2023-01-20,有限会社Ｓ．Ｋ．Ｍ,,有限会社,大阪府,大阪市中央区,南船場１丁目３番１６号グランドメゾン長堀橋８０１号,,27,128,5420081,,,2023-01-20,清算の結了等,,,2015-10-05,1,,,,,,0
2126,7140001088155,登記記録の閉鎖等,0,2023-01-23,2023-01-16,株式会社光伸,,株式会社,兵庫県,三田市,広野６８４番地,,28,219,6691331,,,2023-01-16,清算の結了等,,,2015-10-05,1,,,,,コウシン,0
2127,7140001090251,登記記録の閉鎖等,0,2023-01-23,2023-01-16,株式会社リトルトロ,,株式会社,兵庫県,三田市,東本庄２９６番地２,,28,219,6691357,,,2023-01-16,清算の結了等,,,2015-10-05,1,,,,,リトルトロ,0
2140,7160005005633,登記記録の閉鎖等,0,2023-01-23,2023-01-23,財団法人崇徳会,,その他の設立登記法人,滋賀県,犬上郡豊郷町,大字三ツ池６８番地,,25,441,5291177,,,2023-01-23,登記官による閉鎖,,,2015-10-05,1,,,,,,0
2166,7290002047789,登記記録の閉鎖等,0,2023-01-23,2023-01-16,有限会社ミゾタ土建,,有限会社,福岡県,八女市,黒木町本分１４０９番地,,40,210,8341213,,,2023-01-16,清算の結了等,,,2015-10-05,1,,,,,ミゾタドケン,0
2169,7320001001215,登記記録の閉鎖等,0,2023-01-23,2023-01-20,株式会社サングリーン,,株式会社,大分県,大分市,高城西町３１番８号,,44,201,8700154,,,2023-01-20,清算の結了等,,,2015-10-05,1,,,,,サングリーン,0
2171,7320005001962,登記記録の閉鎖等,0,2023-01-23,2023-01-18,特定非営利活動法人ムラの工房緑と風と共生,,その他の設立登記法人,大分県,大分市,庄の原２－３－１－５０１,,44,201,,,,2023-01-18,登記官による閉鎖,,,2015-10-05,1,,,,,,1
2176,7370002005029,登記記録の閉鎖等,0,2023-01-23,2023-01-17,有限会社今野商会,00081856,有限会社,宮城県,仙台市若林区,木ノ下２丁目１２番３号,,04,103,9840047,,,2023-01-17,清算の結了等,,,2015-10-05,1,,,,,コンノショウカイ,0
2187,7430001050102,登記記録の閉鎖等,0,2023-01-23,2023-01-19,株式会社スポーツ用品店うめや,,株式会社,北海道,札幌市西区,西町南５丁目１番２０号,,01,107,0630062,,,2023-01-19,清算の結了等,,,2015-10-05,1,,,,,スポーツヨウヒンテンウメヤ,0
2197,8010001046380,登記記録の閉鎖等,0,2023-01-23,2023-01-04,株式会社ジエブ,,株式会社,東京都,港区,浜松町１丁目１８番１６号,,13,103,1050013,,,2023-01-04,合併による解散等,4010001097122,令和５年１月１日東京都港区東新橋一丁目８番１号株式会社ＳＰＯＲＴＳ　Ｅｄｇｅ（4010001097122）に合併し解散,2015-10-05,1,,,,,ジエブ,0
2211,8010401043878,登記記録の閉鎖等,0,2023-01-23,2023-01-18,大明貿易株式会社,,株式会社,千葉県,佐倉市,表町３丁目１３番地３０大明ビル２Ｆ,,12,212,2850811,,,2023-01-18,清算の結了等,,,2015-10-05,1,,,,,タイメイボウエキ,0
2225,8010502022186,登記記録の閉鎖等,0,2023-01-23,2023-01-18,有限会社Ｍｓ．１９１,,有限会社,東京都,渋谷区,渋谷２丁目１番１号,,13,113,1500002,,,2023-01-18,清算の結了等,,,2015-10-05,1,,,,,ミスターイチキューイチ,0
2231,8010701001825,登記記録の閉鎖等,0,2023-01-23,2023-01-20,株式会社オー・イー・ティ,,株式会社,東京都,品川区,南品川５丁目５番２－８０３号,,13,109,1400004,,,2023-01-20,登記官による閉鎖,,,2015-10-05,1,,,,,,0
2232,8010701018729,登記記録の閉鎖等,0,2023-01-23,2023-01-20,株式会社博栄通信,,株式会社,東京都,品川区,旗の台３丁目１５番１号３Ｆ,,13,109,1420064,,,2023-01-20,登記官による閉鎖,,,2015-10-05,1,,,,,,0
2233,8010701021294,登記記録の閉鎖等,0,2023-01-23,2023-01-20,株式会社河留部家,,株式会社,東京都,品川区,二葉町一丁目８番２０号,,13,109,1400000,,,2023-01-20,登記官による閉鎖,,,2015-10-05,1,,,,,,1
2234,8010701025840,登記記録の閉鎖等,0,2023-01-23,2023-01-20,株式会社グッドネイバー,,株式会社,東京都,品川区,中延５丁目１２番１０号,,13,109,1420053,,,2023-01-20,登記官による閉鎖,,,2015-10-05,1,,,,,,0
2238,8010702005098,登記記録の閉鎖等,0,2023-01-23,2023-01-20,有限会社田中挽物製作所,00051986,有限会社,東京都,品川区,大崎５丁目８番５号,,13,109,1410032,,,2023-01-20,登記官による閉鎖,,,2015-10-05,1,,,,,,0
2239,8010702006939,登記記録の閉鎖等,0,2023-01-23,2023-01-20,有限会社フォトショップワタナベ,,有限会社,東京都,品川区,荏原２丁目１７番１９号,,13,109,1420063,,,2023-01-20,登記官による閉鎖,,,2015-10-05,1,,,,,,0
2240,8010702008167,登記記録の閉鎖等,0,2023-01-23,2023-01-20,有限会社ミヤカワ,,有限会社,東京都,品川区,中延５丁目１１番１０号,,13,109,1420053,,,2023-01-20,登記官による閉鎖,,,2015-10-05,1,,,,,,0
2241,8010702008530,登記記録の閉鎖等,0,2023-01-23,2023-01-20,有限会社山口硝子店,,有限会社,東京都,品川区,大井１丁目３４番６号,,13,109,1400014,,,2023-01-20,登記官による閉鎖,,,2015-10-05,1,,,,,,0
2242,8010702009743,登記記録の閉鎖等,0,2023-01-23,2023-01-20,有限会社ハート・セラミックス,,有限会社,東京都,品川区,戸越６丁目１５番４号,,13,109,1420041,,,2023-01-20,登記官による閉鎖,,,2015-10-05,1,,,,,,0
2243,8010705001144,登記記録の閉鎖等,0,2023-01-23,2023-01-20,医療法人社団東雪会,,その他の設立登記法人,東京都,品川区,平塚１丁目７番４号戸越エントリー２階,,13,109,1420051,,,2023-01-20,登記官による閉鎖,,,2015-10-05,1,,,,,,0
2244,8010801006311,登記記録の閉鎖等,0,2023-01-23,2023-01-20,添田精機工業株式会社,,株式会社,東京都,大田区,多摩川１丁目３５番２１号,,13,111,1460095,,,2023-01-20,登記官による閉鎖,,,2015-10-05,1,,,,,,0
2245,8010801013563,登記記録の閉鎖等,0,2023-01-23,2023-01-20,株式会社ホンダモーター大森,,株式会社,東京都,大田区,大森北５丁目１０番１３号,,13,111,1430016,,,2023-01-20,登記官による閉鎖,,,2016-09-29,1,,,,,,0
2246,8010801019214,登記記録の閉鎖等,0,2023-01-23,2023-01-20,タイズインターナショナル株式会社,,株式会社,東京都,大田区,蒲田５丁目１５番２号,,13,111,1440052,,,2023-01-20,登記官による閉鎖,,,2015-10-05,1,,,,,,0
2248,8010801019750,登記記録の閉鎖等,0,2023-01-23,2023-01-20,株式会社エンゼルハート,,株式会社,東京都,大田区,池上４丁目３１番４号,,13,111,1460082,,,2023-01-20,登記官による閉鎖,,,2015-10-05,1,,,,,,0
2250,8010802008356,登記記録の閉鎖等,0,2023-01-23,2023-01-20,有限会社大興精機製作所,,有限会社,東京都,大田区,南蒲田３丁目１０番１８号,,13,111,1440035,,,2023-01-20,登記官による閉鎖,,,2015-10-05,1,,,,,,0
2251,8010802008505,登記記録の閉鎖等,0,2023-01-23,2023-01-20,大東ハウジング有限会社,,有限会社,東京都,大田区,田園調布南２１番１２号,,13,111,1450076,,,2023-01-20,登記官による閉鎖,,,2015-10-05,1,,,,,,0
2252,8010802015105,登記記録の閉鎖等,0,2023-01-23,2023-01-20,有限会社有宏,,有限会社,東京都,大田区,大森西４丁目７番１１号,,13,111,1430015,,,2023-01-20,登記官による閉鎖,,,2015-10-05,1,,,,,,0
2253,8010802015716,登記記録の閉鎖等,0,2023-01-23,2023-01-20,有限会社レナ,,有限会社,東京都,大田区,大森西３丁目２１番７号,,13,111,1430015,,,2023-01-20,登記官による閉鎖,,,2015-10-05,1,,,,,,0
2255,8010802017027,登記記録の閉鎖等,0,2023-01-23,2023-01-20,有限会社リヴァーコーポレーション,,有限会社,東京都,大田区,大森北１丁目１１番５号共和七番館２Ｃ,,13,111,1430016,,,2023-01-20,登記官による閉鎖,,,2015-10-05,1,,,,,,0
2256,8010803002845,登記記録の閉鎖等,0,2023-01-23,2023-01-20,合資会社田原屋,,合資会社,東京都,大田区,北嶺町３７番１３号,,13,111,1450073,,,2023-01-20,登記官による閉鎖,,,2018-11-07,1,,,,,タハラヤ,0
2258,8010805000459,登記記録の閉鎖等,0,2023-01-23,2023-01-20,国際通信技術協同組合,,その他の設立登記法人,東京都,大田区,西蒲田６丁目３６番１１号,,13,111,1440051,,,2023-01-20,登記官による閉鎖,,,2015-10-05,1,,,,,,0
2259,8010902014444,登記記録の閉鎖等,0,2023-01-23,2023-01-13,有限会社マルエス商事,,有限会社,東京都,世田谷区,千歳台２丁目３１番１９号,,13,112,1570071,,,2023-01-13,清算の結了等,,,2015-10-05,1,,,,,マルエスショウジ,0
2260,8011001003371,登記記録の閉鎖等,0,2023-01-23,2023-01-20,株式会社エース・ビルド,,株式会社,東京都,大田区,大森西３丁目１番２５－５０１号,,13,111,1430015,,,2023-01-20,登記官による閉鎖,,,2015-10-05,1,,,,,,0
2268,8011101017354,登記記録の閉鎖等,0,2023-01-23,2023-01-18,株式会社ＢＣＭ,,株式会社,東京都,新宿区,下落合３丁目１番１６号,,13,104,1610033,,,2023-01-18,清算の結了等,,,2015-10-05,1,,,,,ビーシーエム,0
2269,8011101051279,登記記録の閉鎖等,0,2023-01-23,2023-01-18,ボクノ株式会社,,株式会社,東京都,新宿区,新小川町６番１５－３３０,,13,104,1620814,,,2023-01-18,清算の結了等,,,2015-10-05,1,,,,,ボクノ,0
2272,8011103005621,登記記録の閉鎖等,0,2023-01-23,2023-01-18,合同会社アクセルビジネスソリューションズ,,合同会社,千葉県,夷隅郡御宿町,須賀５１５－２７,,12,443,2995106,,,2023-01-18,清算の結了等,,,2015-10-05,1,,,,,アクセルビジネスソリューションズ,0
2274,8011301000787,登記記録の閉鎖等,0,2023-01-23,2023-01-20,株式会社トラストビルド,,株式会社,東京都,杉並区,阿佐谷北１丁目４５番８号,,13,115,1660001,,,2023-01-20,登記官による閉鎖,,,2015-10-05,1,,,,,,0
2275,8011301013517,登記記録の閉鎖等,0,2023-01-23,2023-01-20,株式会社富士,,株式会社,東京都,杉並区,上荻１丁目９番１号,,13,115,1670043,,,2023-01-20,登記官による閉鎖,,,2015-10-05,1,,,,,,0
2280,8011302001207,登記記録の閉鎖等,0,2023-01-23,2023-01-20,有限会社ウエストレーン,,有限会社,東京都,杉並区,高円寺南３丁目４６番５号,,13,115,1660003,,,2023-01-20,登記官による閉鎖,,,2015-10-05,1,,,,,,0
2281,8011302006602,登記記録の閉鎖等,0,2023-01-23,2023-01-20,有限会社東京六幸商事,,有限会社,東京都,杉並区,久我山３丁目２４番２２号,,13,115,1680082,,,2023-01-20,登記官による閉鎖,,,2015-10-05,1,,,,,,0
2282,8011302006924,登記記録の閉鎖等,0,2023-01-23,2023-01-20,有限会社西企画,,有限会社,東京都,杉並区,和泉４丁目４９番５号,,13,115,1680063,,,2023-01-20,登記官による閉鎖,,,2015-10-05,1,,,,,,0
2283,8011303001404,登記記録の閉鎖等,0,2023-01-23,2023-01-20,合同会社Ｃａｔｈｅｄｒａｌｅ,,合同会社,東京都,杉並区,久我山５丁目３８番１４号エクセル久我山２０３,,13,115,1680082,,,2023-01-20,登記官による閉鎖,,,2015-10-05,1,,,,,,0
2284,8011305001360,登記記録の閉鎖等,0,2023-01-23,2023-01-20,特定非営利活動法人ケアネットともに生きる,,その他の設立登記法人,東京都,杉並区,上荻３丁目２８番９－２０３号,,13,115,1670043,,,2023-01-20,登記官による閉鎖,,,2015-10-05,1,,,,,,0
2289,8011501016328,登記記録の閉鎖等,0,2023-01-23,2023-01-20,株式会社プライム,,株式会社,東京都,荒川区,西日暮里４丁目１番２０号,,13,118,1160013,,,2023-01-20,登記官による閉鎖,,,2015-10-05,1,,,,,,0
2293,8011502003671,登記記録の閉鎖等,0,2023-01-23,2023-01-20,有限会社高橋ビルサービス,,有限会社,東京都,北区,赤羽北１丁目１４番３－５０２号モア・ステージ赤羽,,13,117,1150052,,,2023-01-20,登記官による閉鎖,,,2015-10-05,1,,,,,,0
2294,8011502007870,登記記録の閉鎖等,0,2023-01-23,2023-01-20,有限会社河合ステンレス工業,,有限会社,東京都,荒川区,東尾久８丁目３番４号,,13,118,1160012,,,2023-01-20,登記官による閉鎖,,,2015-10-05,1,,,,,,0
2296,8011801012365,登記記録の閉鎖等,0,2023-01-23,2023-01-23,株式会社三田屋酒店,,株式会社,東京都,足立区,東和４丁目１番１８号,,13,121,1200003,,,2023-01-23,登記官による閉鎖,,,2015-10-05,1,,,,,,0
2297,8011801018882,登記記録の閉鎖等,0,2023-01-23,2023-01-23,株式会社加藤植毛所,,株式会社,東京都,葛飾区,立石７丁目７番５号,,13,122,1240012,,,2023-01-23,登記官による閉鎖,,,2015-10-05,1,,,,,,0
2298,8011801023874,登記記録の閉鎖等,0,2023-01-23,2023-01-23,株式会社Ｈａｒｕ,,株式会社,東京都,足立区,西竹の塚２丁目６番３１－５０５号,,13,121,1210822,,,2023-01-23,登記官による閉鎖,,,2015-10-05,1,,,,,,0
2299,8011802001887,登記記録の閉鎖等,0,2023-01-23,2023-01-23,有限会社かどや金物店,,有限会社,東京都,葛飾区,柴又１丁目４６番９号,,13,122,1250052,,,2023-01-23,登記官による閉鎖,,,2015-10-05,1,,,,,,0
2300,8011802003413,登記記録の閉鎖等,0,2023-01-23,2023-01-23,有限会社佐野製作所,,有限会社,東京都,葛飾区,東四つ木４丁目２２番４号,,13,122,1240014,,,2023-01-23,登記官による閉鎖,,,2017-11-20,1,,,,,,0
2301,8011802009154,登記記録の閉鎖等,0,2023-01-23,2023-01-23,有限会社浅野産業,,有限会社,東京都,足立区,南花畑２丁目１４番１１号,,13,121,1210062,,,2023-01-23,登記官による閉鎖,,,2015-10-05,1,,,,,,0
2302,8011802010161,登記記録の閉鎖等,0,2023-01-23,2023-01-23,梅田モータース有限会社,00057357,有限会社,東京都,足立区,千住旭町２２番９号,,13,121,1200026,,,2023-01-23,登記官による閉鎖,,,2015-10-05,1,,,,,,0
2303,8011802015243,登記記録の閉鎖等,0,2023-01-23,2023-01-23,有限会社高木商店,00057428,有限会社,東京都,足立区,千住曙町６番６－１１１号,,13,121,1200023,,,2023-01-23,登記官による閉鎖,,,2015-10-05,1,,,,,,0
2305,8011802019335,登記記録の閉鎖等,0,2023-01-23,2023-01-23,有限会社美来,,有限会社,東京都,足立区,中川４丁目２番１６－３０２号,,13,121,1200002,,,2023-01-23,登記官による閉鎖,,,2015-10-05,1,,,,,,0
2306,8011802024764,登記記録の閉鎖等,0,2023-01-23,2023-01-23,有限会社マカベ玩具製作所,,有限会社,東京都,足立区,江北４丁目５番１１号,,13,121,1230872,,,2023-01-23,登記官による閉鎖,,,2017-05-01,1,,,,,,0
2307,8011802027189,登記記録の閉鎖等,0,2023-01-23,2023-01-23,有限会社愛恵アクセサリー,,有限会社,東京都,足立区,西新井本町２丁目２４番３号,,13,121,1230845,,,2023-01-23,登記官による閉鎖,,,2015-10-05,1,,,,,,0
2308,8011805001199,登記記録の閉鎖等,0,2023-01-23,2023-01-23,関東専門工事業協同組合,,その他の設立登記法人,東京都,葛飾区,奥戸２丁目３２番６号,,13,122,1240022,,,2023-01-23,登記官による閉鎖,,,2015-10-05,1,,,,,,0
2309,8011805001422,登記記録の閉鎖等,0,2023-01-23,2023-01-23,無限責任中間法人日本法輪功協会,,その他の設立登記法人,東京都,足立区,谷在家１丁目１８番１号,,13,121,1230863,,,2023-01-23,登記官による閉鎖,,,2015-10-05,1,,,,,,0
2311,8012702009509,登記記録の閉鎖等,0,2023-01-23,2023-01-20,有限会社アッシュ,,有限会社,東京都,東村山市,本町３丁目３２番地２３,,13,213,1890014,,,2023-01-20,清算の結了等,,,2015-10-05,1,,,,,アッシュ,0
2316,8013305002371,登記記録の閉鎖等,0,2023-01-23,2023-01-23,一般社団法人国際予防医學推進協会,,その他の設立登記法人,長野県,佐久市,岩村田２０５４番地８,,20,217,3850022,,,2023-01-23,清算の結了等,,,2015-10-05,1,,,,,コクサイヨボウイガクスイシンキョウカイ,0
2323,8021001007867,登記記録の閉鎖等,0,2023-01-23,2023-01-12,湘南エステート株式会社,,株式会社,神奈川県,茅ヶ崎市,円蔵２４２７番地,,14,207,2530084,,,2023-01-12,清算の結了等,,,2016-01-21,1,,,,,,0
2329,8030001058845,登記記録の閉鎖等,0,2023-01-23,2023-01-17,株式会社ケーアイサービス,,株式会社,埼玉県,川越市,岸町２丁目３１番地６,,11,201,3501131,,,2023-01-17,清算の結了等,,,2015-10-05,1,,,,,ケーアイサービス,0
2336,8030005003681,登記記録の閉鎖等,0,2023-01-23,2023-01-17,医療法人社団長実会,,その他の設立登記法人,埼玉県,所沢市,大字上安松１２４６番地４,,11,208,3590025,,,2023-01-17,清算の結了等,,,2015-10-05,1,,,,,ハセミカイ,0
2341,8040002020919,登記記録の閉鎖等,0,2023-01-23,2023-01-19,有限会社江戸前鮨文,,有限会社,千葉県,船橋市,二宮１丁目５番１号,,12,204,2740823,,,2023-01-19,清算の結了等,,,2015-10-05,1,,,,,,0
2344,8050001011645,登記記録の閉鎖等,0,2023-01-23,2023-01-10,株式会社高亀商店,00022058,株式会社,茨城県,石岡市,府中３丁目２番１０号,,08,205,3150013,,,2023-01-10,登記官による閉鎖,,,2015-10-05,1,,,,,,0
2345,8050001023252,登記記録の閉鎖等,0,2023-01-23,2023-01-10,株式会社シティーサービス,,株式会社,茨城県,日立市,若葉町１丁目１７番５号,,08,202,3170063,,,2023-01-10,登記官による閉鎖,,,2015-10-05,1,,,,,,0
2346,8050001026536,登記記録の閉鎖等,0,2023-01-23,2023-01-10,株式会社全建企画,,株式会社,茨城県,常陸太田市,金井町３６５３番地の１,,08,212,3130016,,,2023-01-10,登記官による閉鎖,,,2015-10-05,1,,,,,,0
2348,8050002008921,登記記録の閉鎖等,0,2023-01-23,2023-01-10,有限会社ホームデザイン,,有限会社,茨城県,ひたちなか市,東大島３丁目１３番１号,,08,221,3120042,,,2023-01-10,登記官による閉鎖,,,2015-10-05,1,,,,,,0
2349,8050002009473,登記記録の閉鎖等,0,2023-01-23,2023-01-10,有限会社山内興業,,有限会社,茨城県,ひたちなか市,大字田彦５２４番地４０,,08,221,3120063,,,2023-01-10,登記官による閉鎖,,,2015-10-05,1,,,,,,0
2350,8050002012857,登記記録の閉鎖等,0,2023-01-23,2023-01-10,有限会社向山商事,,有限会社,茨城県,稲敷郡阿見町,大字荒川本郷１３３４番地,,08,443,3001152,,,2023-01-10,登記官による閉鎖,,,2015-10-05,1,,,,,,0
2352,8050002024274,登記記録の閉鎖等,0,2023-01-23,2023-01-10,丸一運輸有限会社,,有限会社,茨城県,古河市,中田２２３１番地の６,,08,204,3060053,,,2023-01-10,登記官による閉鎖,,,2015-10-05,1,,,,,,0
2353,8050002028663,登記記録の閉鎖等,0,2023-01-23,2023-01-10,有限会社大和精測,,有限会社,茨城県,潮来市,小泉２３３１番地,,08,223,3112442,,,2023-01-10,登記官による閉鎖,,,2015-10-05,1,,,,,,0
2354,8050002032186,登記記録の閉鎖等,0,2023-01-23,2023-01-10,有限会社根本商事,,有限会社,茨城県,高萩市,大字下手綱７７７番地,,08,214,3180003,,,2023-01-10,登記官による閉鎖,,,2015-10-05,1,,,,,,0
2355,8050002032830,登記記録の閉鎖等,0,2023-01-23,2023-01-10,有限会社アイディシー,,有限会社,茨城県,高萩市,大字安良川１３９８番地６,,08,214,3180021,,,2023-01-10,登記官による閉鎖,,,2015-10-05,1,,,,,,0
2356,8050002033606,登記記録の閉鎖等,0,2023-01-23,2023-01-10,有限会社若柴テクノ,,有限会社,茨城県,龍ケ崎市,若柴町８５７番地,,08,208,3010041,,,2023-01-10,登記官による閉鎖,,,2015-10-05,1,,,,,,0
2357,8050002033993,登記記録の閉鎖等,0,2023-01-23,2023-01-10,有限会社徳永水道ポンプ工業,00023135,有限会社,茨城県,稲敷市,江戸崎甲１４９９番地の１,,08,229,3000504,,,2023-01-10,登記官による閉鎖,,,2015-10-05,1,,,,,,0
2358,8050002042573,登記記録の閉鎖等,0,2023-01-23,2023-01-10,有限会社ランプランニング,,有限会社,茨城県,筑西市,野殿１３２６番地,,08,227,3080843,,,2023-01-10,登記官による閉鎖,,,2015-10-05,1,,,,,,0
2359,8050003000670,登記記録の閉鎖等,0,2023-01-23,2023-01-10,ＯＫコーポレーション合同会社,,合同会社,茨城県,ひたちなか市,大字田彦７３４,,08,221,3120063,,,2023-01-10,登記官による閉鎖,,,2015-10-05,1,,,,,,0
2361,8050005002104,登記記録の閉鎖等,0,2023-01-23,2023-01-10,特定非営利活動法人アイティーサポートセンターいばらき,,その他の設立登記法人,茨城県,那珂市,菅谷２３６４番１号ＴＮＢ第一ビル３０３号,,08,226,3110105,,,2023-01-10,登記官による閉鎖,,,2015-10-05,1,,,,,,0
2362,8050005006047,登記記録の閉鎖等,0,2023-01-23,2023-01-10,特定非営利活動法人ナースリィソルト,,その他の設立登記法人,茨城県,鹿嶋市,大字平井１番地１００,,08,222,3140012,,,2023-01-10,登記官による閉鎖,,,2015-10-05,1,,,,,,0
2383,8120001121387,登記記録の閉鎖等,0,2023-01-23,2023-01-18,株式会社テン・プランニング,,株式会社,大阪府,大阪市住吉区,殿辻２丁目７番２３号,00028977,27,120,5580042,,,2023-01-18,清算の結了等,,,2015-10-05,1,,,,,,0
2411,8140001016180,登記記録の閉鎖等,0,2023-01-23,2023-01-17,晋越工業株式会社,,株式会社,兵庫県,神戸市長田区,鶯町３丁目２番１７号,,28,106,6530871,,,2023-01-17,清算の結了等,,,2015-10-05,1,,,,,シンエツコウギョウ,0
2425,8170001002558,登記記録の閉鎖等,0,2023-01-23,2023-01-20,日前不動産株式会社,,株式会社,和歌山県,和歌山市,有家３２０番地の１,,30,201,6408316,,,2023-01-20,清算の結了等,,,2015-10-05,1,,,,,ヒノクマフドウサン,0
2444,8240002043874,登記記録の閉鎖等,0,2023-01-23,2023-01-19,有限会社渡辺コーポレーション,,有限会社,広島県,福山市,駅家町大字倉光４８２番地,,34,207,7201132,,,2023-01-19,清算の結了等,,,2015-10-05,1,,,,,ワタナベコーポレーション,0
2448,8250002000932,登記記録の閉鎖等,0,2023-01-23,2023-01-16,有限会社大地テクノ,,有限会社,山口県,山口市,八幡馬場３１番地の３,,35,203,7530092,,,2023-01-16,清算の結了等,,,2015-10-05,1,,,,,ダイチテクノ,0
2449,8250002008232,登記記録の閉鎖等,0,2023-01-23,2023-01-16,有限会社内田信義商店,,有限会社,山口県,下関市,安岡駅前２丁目５番１７号,,35,201,7596612,,,2023-01-16,清算の結了等,,,2015-10-05,1,,,,,ウチダノブヨシショウテン,0
2452,8260001030681,登記記録の閉鎖等,0,2023-01-23,2023-01-19,株式会社ＯＷＬ,,株式会社,岡山県,岡山市北区,納所９２番地,,33,101,7010162,,,2023-01-19,清算の結了等,,,2017-04-05,1,,,,,オウル,0
2468,8310001008813,登記記録の閉鎖等,0,2023-01-23,2023-01-19,大選工業株式会社,,株式会社,長崎県,大村市,皆同町１２２番地３,,42,205,8560802,,,2023-01-19,清算の結了等,,,2015-10-05,1,,,,,ダイセンコウギョウ,0
2469,8310001013573,登記記録の閉鎖等,0,2023-01-23,2023-01-20,株式会社山下工業,,株式会社,長崎県,西彼杵郡時津町,左底郷１２８９番地,,42,308,8512106,,,2023-01-20,清算の結了等,,,2015-10-05,1,,,,,ヤマシタコウギョウ,0
2472,8320002008274,登記記録の閉鎖等,0,2023-01-23,2023-01-18,有限会社スペースステーション,,有限会社,大分県,大分市,大字豊饒４８０番地の１,,44,201,8700855,,,2023-01-18,登記官による閉鎖,,,2015-10-05,1,,,,,,0
2474,8330002024444,登記記録の閉鎖等,0,2023-01-23,2023-01-20,有限会社サンガーデンホーム,,有限会社,熊本県,宇土市,松山町２５８９番地,,43,211,8690416,,,2023-01-20,清算の結了等,,,2015-10-05,1,,,,,サンガーデンホーム,0
2484,8370802000351,登記記録の閉鎖等,0,2023-01-23,2023-01-16,有限会社鈴木商店建材,,有限会社,宮城県,名取市,堀内字北竹４４番地,,04,207,9892412,,,2023-01-16,清算の結了等,,,2015-10-05,1,,,,,スズキショウテンケンザイ,0
2503,8490002013415,登記記録の閉鎖等,0,2023-01-23,2023-01-18,永森木材有限会社,,有限会社,高知県,長岡郡大豊町,西峰４０６番地,,39,344,7890300,,,2023-01-18,清算の結了等,,,2022-08-24,1,,,,,ナガモリモクザイ,0
2511,9010001128343,登記記録の閉鎖等,0,2023-01-23,2023-01-23,株式会社バーディー商事,,株式会社,東京都,足立区,西竹の塚１丁目１２番６－１０２号,,13,121,1210822,,,2023-01-23,登記官による閉鎖,,,2015-10-05,1,,,,,,0
2516,9010002025382,登記記録の閉鎖等,0,2023-01-23,2023-01-12,有限会社鮪の山口,,有限会社,東京都,江東区,豊洲６丁目５番１号,,13,108,1350061,,,2023-01-12,清算の結了等,,,2015-10-05,1,,,,,マグロノヤマグチ,0
2535,9010601051102,登記記録の閉鎖等,0,2023-01-23,2023-01-16,アジアリソースインテグラ株式会社,,株式会社,東京都,江東区,枝川１丁目１５番９－４１７号,,13,108,1350051,,,2023-01-16,清算の結了等,,,2017-02-10,1,,,,,アジアリソースインテグラ,0
2536,9010602027563,登記記録の閉鎖等,0,2023-01-23,2023-01-16,有限会社フルート,,有限会社,東京都,墨田区,業平４丁目４番１７号長谷川ビル３Ｆ,,13,107,1300002,,,2023-01-16,清算の結了等,,,2015-10-05,1,,,,,,0
2537,9010701023918,登記記録の閉鎖等,0,2023-01-23,2023-01-20,株式会社Ｔ－ＳＰＡＣＥ,,株式会社,東京都,品川区,西五反田８丁目７番８－８０５号,,13,109,1410031,,,2023-01-20,登記官による閉鎖,,,2015-10-05,1,,,,,,0
2539,9010702004124,登記記録の閉鎖等,0,2023-01-23,2023-01-20,秀和産業有限会社,,有限会社,東京都,品川区,二葉４丁目２３番６号,,13,109,1420043,,,2023-01-20,登記官による閉鎖,,,2015-10-05,1,,,,,,0
2540,9010702005023,登記記録の閉鎖等,0,2023-01-23,2023-01-20,有限会社倬一鎮工業,,有限会社,東京都,品川区,東五反田３丁目６番５号,,13,109,1410022,,,2023-01-20,登記官による閉鎖,,,2015-10-05,1,,,,,,0
2541,9010702008752,登記記録の閉鎖等,0,2023-01-23,2023-01-20,有限会社ヨーコー,,有限会社,東京都,品川区,東五反田２丁目５番４－１１０７号,,13,109,1410022,,,2023-01-20,登記官による閉鎖,,,2015-10-05,1,,,,,,0
2542,9010702014008,登記記録の閉鎖等,0,2023-01-23,2023-01-20,有限会社ローズダイジェスト社,,有限会社,東京都,品川区,東五反田１丁目１７番８号佐久間ビル６階,,13,109,1410022,,,2023-01-20,登記官による閉鎖,,,2015-10-05,1,,,,,,0
2543,9010705001044,登記記録の閉鎖等,0,2023-01-23,2023-01-20,特定非営利活動法人カントリーピアドリーム,,その他の設立登記法人,東京都,品川区,大井５丁目１番２２号,,13,109,1400014,,,2023-01-20,登記官による閉鎖,,,2015-10-05,1,,,,,,0
2544,9010801001476,登記記録の閉鎖等,0,2023-01-23,2023-01-20,株式会社エイミス,,株式会社,東京都,大田区,田園調布３丁目１２番１号,,13,111,1450071,,,2023-01-20,登記官による閉鎖,,,2015-10-05,1,,,,,,0
2545,9010801003002,登記記録の閉鎖等,0,2023-01-23,2023-01-20,株式会社北川,,株式会社,東京都,大田区,東雪谷４丁目７番９号,,13,111,1450065,,,2023-01-20,登記官による閉鎖,,,2015-10-05,1,,,,,,0
2546,9010801004413,登記記録の閉鎖等,0,2023-01-23,2023-01-20,酒井塗装工業株式会社,,株式会社,東京都,大田区,仲池上１丁目１６番３号,,13,111,1460081,,,2023-01-20,登記官による閉鎖,,,2015-10-05,1,,,,,,0
2547,9010801015930,登記記録の閉鎖等,0,2023-01-23,2023-01-20,シーエ一ティー株式会社,,株式会社,東京都,大田区,南蒲田２丁目２５番４号,,13,111,1440035,,,2023-01-20,登記官による閉鎖,,,2015-10-05,1,,,,,,0
2548,9010801021879,登記記録の閉鎖等,0,2023-01-23,2023-01-20,株式会社城南商会,,株式会社,東京都,大田区,大森北１丁目２５番６号,,13,111,1430016,,,2023-01-20,登記官による閉鎖,,,2015-10-05,1,,,,,,0
2551,9010802000840,登記記録の閉鎖等,0,2023-01-23,2023-01-20,有限会社荒井タイル店,,有限会社,東京都,大田区,中馬込３丁目１２番４号,,13,111,1430027,,,2023-01-20,登記官による閉鎖,,,2015-10-05,1,,,,,,0
2552,9010802001764,登記記録の閉鎖等,0,2023-01-23,2023-01-20,有限会社植松,,有限会社,東京都,大田区,西蒲田６丁目３３番１－４０３号,,13,111,1440051,,,2023-01-20,登記官による閉鎖,,,2015-10-05,1,,,,,,0
2554,9010802007407,登記記録の閉鎖等,0,2023-01-23,2023-01-20,有限会社エム・ツー,,有限会社,東京都,大田区,田園調布３丁目２９番１９号,,13,111,1450071,,,2023-01-20,登記官による閉鎖,,,2015-10-05,1,,,,,,0
2555,9010802007704,登記記録の閉鎖等,0,2023-01-23,2023-01-20,有限会社鈴玉商店,,有限会社,東京都,大田区,蒲田３丁目１９番４－１７１１号,,13,111,1440052,,,2023-01-20,登記官による閉鎖,,,2015-10-05,1,,,,,,0
2556,9010803000328,登記記録の閉鎖等,0,2023-01-23,2023-01-20,合資会社田部井木型製作所,,合資会社,東京都,大田区,仲六郷１丁目４５番６号,,13,111,1440055,,,2023-01-20,登記官による閉鎖,,,2015-10-05,1,,,,,,0
2574,9011301000761,登記記録の閉鎖等,0,2023-01-23,2023-01-20,株式会社イマイ,,株式会社,東京都,杉並区,阿佐谷南３丁目２１番１５号,,13,115,1660004,,,2023-01-20,登記官による閉鎖,,,2015-10-05,1,,,,,,0
2575,9011301006528,登記記録の閉鎖等,0,2023-01-23,2023-01-20,堀田商事株式会社,,株式会社,東京都,杉並区,高円寺南４丁目７番１０－３０３号,,13,115,1660003,,,2023-01-20,登記官による閉鎖,,,2015-10-05,1,,,,,,0
2576,9011301008549,登記記録の閉鎖等,0,2023-01-23,2023-01-20,株式会社チームワーク,,株式会社,東京都,杉並区,松庵３丁目３９番１３－１０４号,,13,115,1670054,,,2023-01-20,登記官による閉鎖,,,2015-10-05,1,,,,,,0
2577,9011301018151,登記記録の閉鎖等,0,2023-01-23,2023-01-20,トロッコ株式会社,,株式会社,東京都,杉並区,和泉３丁目２１番１６号,,13,115,1680063,,,2023-01-20,登記官による閉鎖,,,2015-10-05,1,,,,,,0
2579,9011302004596,登記記録の閉鎖等,0,2023-01-23,2023-01-20,有限会社新保工務店,,有限会社,東京都,杉並区,上井草４丁目２４番６号,,13,115,1670023,,,2023-01-20,登記官による閉鎖,,,2015-10-05,1,,,,,,0
2580,9011302007764,登記記録の閉鎖等,0,2023-01-23,2023-01-20,有限会社平田商店,,有限会社,東京都,杉並区,和泉３丁目４２番５号,,13,115,1680063,,,2023-01-20,登記官による閉鎖,,,2015-10-05,1,,,,,,0
2581,9011305000031,登記記録の閉鎖等,0,2023-01-23,2023-01-20,財団法人国際育英会,,その他の設立登記法人,東京都,杉並区,堀ノ内１丁目３０３番地,,13,115,1660013,,,2023-01-20,登記官による閉鎖,,,2015-10-05,1,,,,,,0
2582,9011501013150,登記記録の閉鎖等,0,2023-01-23,2023-01-20,株式会社エクステリア美工,,株式会社,東京都,北区,赤羽１丁目５１番５号,,13,117,1150045,,,2023-01-20,登記官による閉鎖,,,2015-10-05,1,,,,,,0
2583,9011501016789,登記記録の閉鎖等,0,2023-01-23,2023-01-20,株式会社ボラ,,株式会社,東京都,荒川区,西日暮里４丁目２６番１１号,,13,118,1160013,,,2023-01-20,登記官による閉鎖,,,2015-10-05,1,,,,,,0
2587,9011502003175,登記記録の閉鎖等,0,2023-01-23,2023-01-20,有限会社鮨清,,有限会社,東京都,北区,赤羽南１丁目２１番４号,,13,117,1150044,,,2023-01-20,登記官による閉鎖,,,2015-10-05,1,,,,,,0
2588,9011502003316,登記記録の閉鎖等,0,2023-01-23,2023-01-20,有限会社関川製作所,,有限会社,東京都,北区,赤羽北２丁目１７番４１号,,13,117,1150052,,,2023-01-20,登記官による閉鎖,,,2015-10-05,1,,,,,,0
2589,9011505001399,登記記録の閉鎖等,0,2023-01-23,2023-01-20,特定非営利活動法人フューチャークリエイト,,その他の設立登記法人,東京都,北区,神谷１丁目２番６－７０４号ラ・メゾン・ボヌール,,13,117,1150043,,,2023-01-20,登記官による閉鎖,,,2015-10-05,1,,,,,,0
2591,9011602003447,登記記録の閉鎖等,0,2023-01-23,2023-01-16,有限会社溪艸舎,,有限会社,東京都,練馬区,石神井台４丁目１番４－８０４号,,13,120,1770045,,,2023-01-16,清算の結了等,,,2015-10-05,1,,,,,ケイソウシャ,0
2598,9011801003850,登記記録の閉鎖等,0,2023-01-23,2023-01-23,株式会社ノーブル総合システム研究所,,株式会社,東京都,葛飾区,東水元１丁目１０番１２号,,13,122,1250033,,,2023-01-23,登記官による閉鎖,,,2015-10-05,1,,,,,,0
2599,9011801008973,登記記録の閉鎖等,0,2023-01-23,2023-01-23,株式会社炭吉,,株式会社,東京都,足立区,西新井４丁目２７番１９号,,13,121,1230841,,,2023-01-23,登記官による閉鎖,,,2015-10-05,1,,,,,,0
2600,9011801018709,登記記録の閉鎖等,0,2023-01-23,2023-01-23,第一八千代興業株式会社,,株式会社,東京都,葛飾区,東立石２丁目５番６号,,13,122,1240013,,,2023-01-23,登記官による閉鎖,,,2015-10-05,1,,,,,,0
2601,9011801020813,登記記録の閉鎖等,0,2023-01-23,2023-01-23,株式会社ティアラプロジェクト,,株式会社,東京都,葛飾区,お花茶屋３丁目２４番２５号,,13,122,1240003,,,2023-01-23,登記官による閉鎖,,,2015-10-05,1,,,,,,0
2602,9011801025820,登記記録の閉鎖等,0,2023-01-23,2023-01-23,株式会社オーバル,,株式会社,東京都,足立区,南花畑３丁目２５番２５号,,13,121,1210062,,,2023-01-23,登記官による閉鎖,,,2015-10-05,1,,,,,,0
2603,9011802002059,登記記録の閉鎖等,0,2023-01-23,2023-01-23,有限会社川上畜産,,有限会社,東京都,葛飾区,新小岩１丁目５４番９号,,13,122,1240024,,,2023-01-23,登記官による閉鎖,,,2015-10-05,1,,,,,,0
2604,9011802002678,登記記録の閉鎖等,0,2023-01-23,2023-01-23,有限会社構設企画研究所,,有限会社,東京都,葛飾区,青戸１丁目１９番５号ハイツ井上１０１号室,,13,122,1250062,,,2023-01-23,登記官による閉鎖,,,2015-10-05,1,,,,,,0
2605,9011802007652,登記記録の閉鎖等,0,2023-01-23,2023-01-23,有限会社宮島製作所,,有限会社,東京都,葛飾区,四つ木３丁目１７番１２号,,13,122,1240011,,,2023-01-23,登記官による閉鎖,,,2015-10-05,1,,,,,,0
2607,9011802013097,登記記録の閉鎖等,0,2023-01-23,2023-01-23,有限会社佐賀製作所,,有限会社,東京都,足立区,扇３丁目１８番３１号,,13,121,1230873,,,2023-01-23,登記官による閉鎖,,,2015-10-05,1,,,,,,0
2608,9011802014310,登記記録の閉鎖等,0,2023-01-23,2023-01-23,有限会社末広商会,,有限会社,東京都,足立区,舎人３丁目４番１０号,,13,121,1210831,,,2023-01-23,登記官による閉鎖,,,2015-10-05,1,,,,,,0
2609,9011802015333,登記記録の閉鎖等,0,2023-01-23,2023-01-23,有限会社タカノ,,有限会社,東京都,足立区,千住中居町１１番９号,,13,121,1200035,,,2023-01-23,登記官による閉鎖,,,2015-10-05,1,,,,,,0
2610,9011802015663,登記記録の閉鎖等,0,2023-01-23,2023-01-23,有限会社田村塗装工業,,有限会社,東京都,足立区,鹿浜６丁目２５番１７号ロイヤルハイツ小宮２０３,,13,121,1230864,,,2023-01-23,登記官による閉鎖,,,2015-10-05,1,,,,,,0
2611,9011802016091,登記記録の閉鎖等,0,2023-01-23,2023-01-23,有限会社東京会計センター,,有限会社,東京都,足立区,綾瀬６丁目３５番８号,,13,121,1200005,,,2023-01-23,登記官による閉鎖,,,2016-02-03,1,,,,,,0
2612,9011802016372,登記記録の閉鎖等,0,2023-01-23,2023-01-23,有限会社東和技建,,有限会社,東京都,足立区,梅田４丁目２番１９号,,13,121,1230851,,,2023-01-23,登記官による閉鎖,,,2015-10-05,1,,,,,,0
2613,9011802020597,登記記録の閉鎖等,0,2023-01-23,2023-01-23,有限会社レッグニットカネコ,,有限会社,東京都,足立区,東和３丁目１４番１１号,,13,121,1200003,,,2023-01-23,登記官による閉鎖,,,2015-10-05,1,,,,,,0
2615,9011802028913,登記記録の閉鎖等,0,2023-01-23,2023-01-23,有限会社河内印刷所,,有限会社,東京都,葛飾区,堀切５丁目８番９号,,13,122,1240006,,,2023-01-23,登記官による閉鎖,,,2015-10-05,1,,,,,,0
2616,9011803000185,登記記録の閉鎖等,0,2023-01-23,2023-01-23,合資会社大熊製綿工場,,合資会社,東京都,葛飾区,東四つ木１丁目１１番４号１０１,,13,122,1240014,,,2023-01-23,登記官による閉鎖,,,2015-10-05,1,,,,,,0
2617,9011803001514,登記記録の閉鎖等,0,2023-01-23,2023-01-23,合同会社Ｍｕｓｉｃｃｏ　Ｒｅｃｏｒｄ,,合同会社,東京都,足立区,西新井栄町２丁目１６番５号,,13,121,1230843,,,2023-01-23,登記官による閉鎖,,,2015-10-05,1,,,,,,0
2625,9013301039929,登記記録の閉鎖等,0,2023-01-23,2023-01-23,株式会社愛風堂,,株式会社,長野県,佐久市,岩村田２０５４番地８,,20,217,3850022,,,2023-01-23,清算の結了等,,,2017-01-16,1,,,,,アイフウドウ,0
2637,9021001019886,登記記録の閉鎖等,0,2023-01-23,2023-01-18,新日建基株式会社,,株式会社,神奈川県,厚木市,上荻野９００番地の１,,14,212,2430201,,,2023-01-18,清算の結了等,,,2015-10-05,1,,,,,シンニチケンキ,0
2647,9030002003048,登記記録の閉鎖等,0,2023-01-23,2023-01-18,有限会社大竹設計測量,,有限会社,埼玉県,さいたま市見沼区,大和田町１丁目１８４７番地の２,,11,104,3370053,,,2023-01-18,清算の結了等,,,2015-10-05,1,,,,,オオタケセッケイソクリョウ,0
2661,9050001002916,登記記録の閉鎖等,0,2023-01-23,2023-01-10,株式会社ユニーク,,株式会社,茨城県,東茨城郡茨城町,大字奥谷２３番地,,08,302,3113156,,,2023-01-10,登記官による閉鎖,,,2017-07-24,1,,,,,,0
2662,9050001012287,登記記録の閉鎖等,0,2023-01-23,2023-01-10,東海不動産株式会社,,株式会社,茨城県,石岡市,若松２丁目１３番２４号,,08,205,3150018,,,2023-01-10,登記官による閉鎖,,,2015-10-05,1,,,,,,0
2663,9050001014647,登記記録の閉鎖等,0,2023-01-23,2023-01-10,ばんどう不動産株式会社,,株式会社,茨城県,坂東市,岩井５１０８番地４,,08,228,3060631,,,2023-01-10,登記官による閉鎖,,,2015-10-05,1,,,,,,0
2664,9050001030388,登記記録の閉鎖等,0,2023-01-23,2023-01-10,株式会社スカイサービス,,株式会社,茨城県,守谷市,松前台１丁目１５番１５号,,08,224,3020102,,,2023-01-10,登記官による閉鎖,,,2015-10-05,1,,,,,,0
2665,9050002006833,登記記録の閉鎖等,0,2023-01-23,2023-01-10,有限会社関宗長商店,,有限会社,茨城県,那珂市,額田東郷１番地,,08,226,3110109,,,2023-01-10,登記官による閉鎖,,,2015-10-05,1,,,,,,0
2666,9050002007831,登記記録の閉鎖等,0,2023-01-23,2023-01-10,有限会社シーケーエス,,有限会社,茨城県,水戸市,柵町２丁目３番１５号大部ビル３Ｆ,,08,201,3100802,,,2023-01-10,登記官による閉鎖,,,2015-10-05,1,,,,,,0
2667,9050002025305,登記記録の閉鎖等,0,2023-01-23,2023-01-10,有限会社北越ガーデン,,有限会社,茨城県,猿島郡五霞町,大字元栗橋５０８７番地１４,,08,542,3060313,,,2023-01-10,登記官による閉鎖,,,2015-10-05,1,,,,,,0
2668,9050002028241,登記記録の閉鎖等,0,2023-01-23,2023-01-10,有限会社エスタート,,有限会社,茨城県,神栖市,神栖２丁目４番７２号,,08,232,3140143,,,2023-01-10,登記官による閉鎖,,,2015-10-05,1,,,,,,0
2669,9050002028745,登記記録の閉鎖等,0,2023-01-23,2023-01-10,有限会社ケイ・アイ・フード,,有限会社,茨城県,行方市,麻生１０９番地,,08,233,3113832,,,2023-01-10,登記官による閉鎖,,,2015-10-05,1,,,,,,0
2670,9050002029231,登記記録の閉鎖等,0,2023-01-23,2023-01-10,有限会社泰平,,有限会社,茨城県,鹿嶋市,宮中７丁目２番６号,,08,222,3140031,,,2023-01-10,登記官による閉鎖,,,2015-10-05,1,,,,,,0
2671,9050002029677,登記記録の閉鎖等,0,2023-01-23,2023-01-10,有限会社メディアステーション,,有限会社,茨城県,鉾田市,新鉾田１丁目５番８号,,08,234,3111516,,,2023-01-10,登記官による閉鎖,,,2015-10-05,1,,,,,,0
2672,9050002043117,登記記録の閉鎖等,0,2023-01-23,2023-01-10,藤田字彫工業有限会社,,有限会社,茨城県,桜川市,高久２０９６番地の２,,08,231,3091243,,,2023-01-10,登記官による閉鎖,,,2015-10-05,1,,,,,,0
2673,9050002045591,登記記録の閉鎖等,0,2023-01-23,2023-01-10,有限会社菊池薬品,,有限会社,茨城県,水戸市,水府町１４９８番地５,,08,201,3100005,,,2023-01-10,登記官による閉鎖,,,2017-04-12,1,,,,,,0
2674,9050005000981,登記記録の閉鎖等,0,2023-01-23,2023-01-10,特定非営利活動法人在宅医療支援エヌ・ピー・オー・ホームメディカル茨城,00023541,その他の設立登記法人,茨城県,水戸市,城東４丁目３番２８号,,08,201,3100012,,,2023-01-10,登記官による閉鎖,,,2015-10-05,1,,,,,,0
2675,9050005009239,登記記録の閉鎖等,0,2023-01-23,2023-01-10,谷和原木造住宅協同組合,,その他の設立登記法人,茨城県,つくばみらい市,古川１４８３番地,,08,235,3002422,,,2023-01-10,登記官による閉鎖,,,2015-10-05,1,,,,,,0
2676,9050005010980,登記記録の閉鎖等,0,2023-01-23,2023-01-10,無限責任豆飼負債整理組合,,その他の設立登記法人,茨城県,常陸太田市,,,08,212,3130000,,,2023-01-10,登記官による閉鎖,,,2015-10-05,1,,,,,,1
2701,9110002027278,登記記録の閉鎖等,0,2023-01-23,2023-01-19,有限会社金内技建,,有限会社,新潟県,長岡市,東片貝町３番地５,,15,202,9400816,,,2023-01-19,清算の結了等,,,2015-10-05,1,,,,,カネウチギケン,0
2706,9120001172958,登記記録の閉鎖等,0,2023-01-23,2023-01-12,株式会社ＦＩＡ　ｃｏｎｓｕｌｔｉｎｇ　ｆｉｒｍ,,株式会社,東京都,渋谷区,東３丁目２１番４－２０４号,,13,113,1500011,,,2023-01-12,清算の結了等,,,2015-10-05,1,,,,,エフアイエーコンサルティングファーム,0
2709,9120001184466,登記記録の閉鎖等,0,2023-01-23,2023-01-18,株式会社スタジオトレス,,株式会社,大阪府,大阪市東成区,中本２丁目１番１３号,,27,115,5370022,,,2023-01-18,清算の結了等,,,2015-10-05,1,,,,,,0
2716,9120002044330,登記記録の閉鎖等,0,2023-01-23,2023-01-06,有限会社ヘルシープロップス,,有限会社,大阪府,大阪市西区,江戸堀３丁目６番２号,,27,106,5500002,,,2023-01-06,清算の結了等,,,2015-10-05,1,,,,,ヘルシープロップス,0
2721,9120003015553,登記記録の閉鎖等,0,2023-01-23,2023-01-20,オールワンジャパン合同会社,,合同会社,大阪府,東大阪市,下六万寺町１丁目１０番１６号,,27,227,5798066,,,2023-01-20,清算の結了等,,,2019-04-08,1,,,,,オールワンジャパン,0
2738,9140001029925,登記記録の閉鎖等,0,2023-01-23,2023-01-13,株式会社平山薬事研究所,,株式会社,兵庫県,神戸市中央区,港島１丁目１番地の９イトーピア神戸ポートアイランド１１１３号,,28,110,6500045,,,2023-01-13,清算の結了等,,,2015-10-05,1,,,,,ヒラヤマヤクジケンキュウショ,0
2739,9140001035262,登記記録の閉鎖等,0,2023-01-23,2023-01-19,成平産業株式会社,,株式会社,兵庫県,明石市,藤江２０２９番地の１明石市公設地方卸売市場内,,28,203,6730044,,,2023-01-19,清算の結了等,,,2015-10-05,1,,,,,,0
2744,9140001089688,登記記録の閉鎖等,0,2023-01-23,2023-01-18,淡路第一開栄株式会社,,株式会社,兵庫県,南あわじ市,阿万塩屋町２６４４番地,,28,224,6560543,,,2023-01-18,合併による解散等,6480002010365,令和５年１月１日徳島県鳴門市北灘町大浦字東浦４８番地８開栄水産株式会社（6480002010365）に合併し解散,2015-10-05,1,,,,,アワジダイイチカイエイ,0
2760,9180001084982,登記記録の閉鎖等,0,2023-01-23,2023-01-16,株式会社アムス,,株式会社,愛知県,一宮市,浅野字大島１４番地,,23,203,4910871,,,2023-01-16,清算の結了等,,,2015-10-05,1,,,,,アムス,0
2771,9180003024383,登記記録の閉鎖等,0,2023-01-23,2023-01-18,合同会社ＩＭＡＩ,,合同会社,愛知県,名古屋市北区,辻本通１丁目５３番地,00128193,23,103,4620861,,,2023-01-18,清算の結了等,,,2022-10-20,1,,,,,イマイ,0
2785,9250002009568,登記記録の閉鎖等,0,2023-01-23,2023-01-17,有限会社鮨正,,有限会社,山口県,下関市,宝町３７番１号,,35,201,7510822,,,2023-01-17,清算の結了等,,,2015-10-05,1,,,,,スシマサ,0
2790,9290001000400,登記記録の閉鎖等,0,2023-01-23,2023-01-18,株式会社冨永工務店,,株式会社,福岡県,福岡市西区,大字田尻５３５番地の２,,40,135,8190383,,,2023-01-18,登記官による閉鎖,,,2015-10-05,1,,,,,,0
2800,9320002015328,登記記録の閉鎖等,0,2023-01-23,2023-01-20,田中石油販売有限会社,,有限会社,大分県,国東市,国東町鶴川１８７１番地の１,,44,214,8730503,,,2023-01-20,清算の結了等,,,2015-10-05,1,,,,,,0
2802,9340001003546,登記記録の閉鎖等,0,2023-01-23,2023-01-20,株式会社林田林産,,株式会社,大阪府,大阪市北区,西天満５丁目２番１８号,,27,127,5300047,,,2023-01-20,清算の結了等,,,2015-10-05,1,,,,,ハヤシダリンサン,0
2808,9350001013057,登記記録の閉鎖等,0,2023-01-23,2023-01-18,株式会社ＫＦＤ,,株式会社,宮崎県,日向市,新生町１丁目７９番地,,45,206,8830013,,,2023-01-18,清算の結了等,,,2015-10-05,1,,,,,ケーエフディー,0
2820,9380001029637,登記記録の閉鎖等,0,2023-01-23,2023-01-17,株式会社旭,,株式会社,福島県,南相馬市,原町区下太田字小原８番地の１,,07,212,9750041,,,2023-01-17,清算の結了等,,,2018-12-12,1,,,,,アサヒ,0
2824,9410002006334,登記記録の閉鎖等,0,2023-01-23,2023-01-18,有限会社秋田レデイニツト,,有限会社,秋田県,男鹿市,払戸字小堤下千間２１番地,,05,206,0100431,,,2023-01-18,清算の結了等,,,2015-10-05,1,,,,,,0
