sequenceNumber,corporateNumber,process,correct,updateDate,changeDate,name,nameImageId,kind,prefectureName,cityName,streetNumber,addressImageId,prefectureCode,cityCode,postCode,addressOutside,addressOutsideImageId,closeDate,closeCause,successorCorporateNumber,changeCause,assignmentDate,latest,enName,enPrefectureName,enCityName,enAddressOutside,furigana,hihyoji
6,1010001204317,登記記録の閉鎖等,0,2023-01-13,2023-01-04,株式会社ＮＲＳケミカルセンター,,株式会社,東京都,千代田区,神田錦町３丁目７番地１,,13,101,1010054,,,2023-01-04,合併による解散等,8010001033932,令和５年１月１日東京都千代田区神田錦町三丁目７番地１ＮＲＳ株式会社（8010001033932）に合併し解散,2019-10-03,1,,,,,エヌアールエスケミカルセンター,0
10,1010003017799,登記記録の閉鎖等,0,2023-01-13,2023-01-04,合同会社エイチエフワン,,合同会社,東京都,千代田区,霞が関３丁目５番１号霞が関ＩＨＦビル３階,,13,101,1000013,,,2023-01-04,清算の結了等,,,2015-10-05,1,,,,,,0
21,1010401131160,登記記録の閉鎖等,0,2023-01-13,2023-01-04,Ｂａｎａｎａ株式会社,,株式会社,東京都,千代田区,丸の内１丁目８番３号丸の内トラストタワー本館２０階,,13,101,1000005,,,2023-01-04,清算の結了等,,,2017-05-02,1,,,,,,0
29,1010403021517,登記記録の閉鎖等,0,2023-01-13,2022-12-23,プリスクジャパン合同会社,,合同会社,東京都,港区,東新橋１丁目１０番２－２７０８号,,13,103,1050021,,,2022-12-23,清算の結了等,,,2019-09-30,1,,,,,プリスクジャパン,0
38,1010501043487,登記記録の閉鎖等,0,2023-01-13,2022-12-16,株式会社ポコペン,,株式会社,千葉県,茂原市,道表１４－１３,,12,210,2970028,,,2022-12-16,清算の結了等,,,2018-12-19,1,,,,,ポコペン,0
39,1010502006261,登記記録の閉鎖等,0,2023-01-13,2023-01-11,有限会社染谷商店,,有限会社,東京都,台東区,橋場２丁目１１番３号,,13,106,1110023,,,2023-01-11,清算の結了等,,,2015-10-05,1,,,,,ソメヤショウテン,0
40,1010601008217,登記記録の閉鎖等,0,2023-01-13,2023-01-04,毎日興業株式会社,,株式会社,東京都,江東区,冬木１２番１０号,,13,108,1350041,,,2023-01-04,合併による解散等,9010601008218,令和５年１月１日東京都江東区冬木１２番９号毎日タクシー株式会社（9010601008218）に合併し解散,2015-10-05,1,,,,,マイニチコウギョウ,0
66,1011003004341,登記記録の閉鎖等,0,2023-01-13,2023-01-04,ヴィンツ合同会社,,合同会社,東京都,渋谷区,代官山町２０番９号,,13,113,1500034,,,2023-01-04,清算の結了等,,,2015-10-05,1,,,,,ヴィンツ,0
78,1011102009992,登記記録の閉鎖等,0,2023-01-13,2023-01-10,有限会社野茂印刷,,有限会社,東京都,新宿区,大京町８番地,,13,104,1600015,,,2023-01-10,清算の結了等,,,2015-10-05,1,,,,,ノモインサツ,0
89,1011501027736,登記記録の閉鎖等,0,2023-01-13,2022-12-28,株式会社俊美,,株式会社,東京都,荒川区,南千住７丁目７番２号,,13,118,1160003,,,2022-12-28,清算の結了等,,,2022-02-08,1,,,,,シュンビ,0
93,1011701002605,登記記録の閉鎖等,0,2023-01-13,2023-01-12,株式会社黒沢電気商会,,株式会社,東京都,江戸川区,平井６丁目２９番７号,,13,123,1320035,,,2023-01-12,清算の結了等,,,2015-10-05,1,,,,,クロサワデンキショウカイ,0
103,1013101004405,登記記録の閉鎖等,0,2023-01-13,2023-01-12,株式会社田中建設,,株式会社,東京都,西多摩郡日の出町,大字平井１２０１番地,,13,305,1900182,,,2023-01-12,登記官による閉鎖,,,2015-10-05,1,,,,,,0
104,1013102000089,登記記録の閉鎖等,0,2023-01-13,2023-01-12,イチエーサービス有限会社,,有限会社,東京都,福生市,大字熊川９３番地１,,13,218,1970003,,,2023-01-12,登記官による閉鎖,,,2015-10-05,1,,,,,,0
106,1013105000805,登記記録の閉鎖等,0,2023-01-13,2023-01-12,特定非営利活動法人法曹大学,,その他の設立登記法人,東京都,あきる野市,山田７２６番地,,13,228,1900144,,,2023-01-12,登記官による閉鎖,,,2015-10-05,1,,,,,,0
112,1020001045925,登記記録の閉鎖等,0,2023-01-13,2023-01-06,株式会社ワースクリエイション,,株式会社,神奈川県,横浜市港北区,新横浜１丁目１番地８,,14,109,2220033,,,2023-01-06,清算の結了等,,,2015-10-05,1,,,,,ワースクリエイション,0
113,1020001050041,登記記録の閉鎖等,0,2023-01-13,2022-12-28,株式会社ｕｎｊｏｕｒ,,株式会社,神奈川県,横浜市港南区,芹が谷３丁目２１番１６号,,14,111,2330006,,,2022-12-28,清算の結了等,,,2015-10-05,1,,,,,アンジュール,0
145,1030003006866,登記記録の閉鎖等,0,2023-01-13,2023-01-10,合同会社アンダンテ,,合同会社,埼玉県,さいたま市南区,南浦和２丁目２９番２号,,11,108,3360017,,,2023-01-10,清算の結了等,,,2015-10-05,1,,,,,アンダンテ,0
149,1030005004471,登記記録の閉鎖等,0,2023-01-13,2022-12-26,八王子社,,その他の設立登記法人,埼玉県,久喜市,吉羽１５１３番地,,11,232,3460014,,,2022-12-26,合併による解散等,6030005004442,令和４年１２月２６日埼玉県久喜市吉羽一丁目３１番地２６千勝神社（6030005004442）に合併し解散,2015-10-05,1,,,,,ハチオウジシャ,0
150,1030005019206,登記記録の閉鎖等,0,2023-01-13,2023-01-05,医療法人デントハピネス,,その他の設立登記法人,埼玉県,狭山市,広瀬東２丁目４３番８号,,11,215,3501320,,,2023-01-05,清算の結了等,,,2018-10-16,1,,,,,デントハピネス,0
152,1040001035619,登記記録の閉鎖等,0,2023-01-13,2023-01-10,三立技研工業株式会社,,株式会社,千葉県,松戸市,稔台５丁目９番地の１,,12,207,2702231,,,2023-01-10,清算の結了等,,,2015-10-05,1,,,,,,0
154,1040001056763,登記記録の閉鎖等,0,2023-01-13,2023-01-05,株式会社ＵＲマネジメント,,株式会社,千葉県,浦安市,富岡３丁目３番,,12,227,2790021,,,2023-01-05,清算の結了等,,,2015-10-05,1,,,,,ユーアールマネジメント,0
156,1040001095200,登記記録の閉鎖等,0,2023-01-13,2023-01-05,リアス株式会社,,株式会社,千葉県,市川市,新井２丁目１６番１７号,,12,203,2720144,,,2023-01-05,清算の結了等,,,2016-05-11,1,,,,,リアス,0
179,1080101016341,登記記録の閉鎖等,0,2023-01-13,2023-01-10,株式会社アドバンス・ミシマ,,株式会社,静岡県,三島市,多呂２１４番地の２,,22,206,4110804,,,2023-01-10,合併による解散等,3030001045195,令和４年１２月３１日埼玉県新座市大和田二丁目１番３９号株式会社アドバンス（3030001045195）に合併し解散,2015-10-05,1,,,,,アドバンスミシマ,0
192,1120001140476,登記記録の閉鎖等,0,2023-01-13,2023-01-12,大阪マルチメディア放送株式会社,,株式会社,大阪府,大阪市浪速区,湊町１丁目３番１号,,27,111,5560017,,,2023-01-12,清算の結了等,,,2015-10-05,1,,,,,,0
220,1120102020759,登記記録の閉鎖等,0,2023-01-13,2023-01-10,有限会社池宮経営センター,,有限会社,大阪府,岸和田市,神須屋町５１０番地の１２７,,27,202,5960833,,,2023-01-10,清算の結了等,,,2015-10-05,1,,,,,イケミヤケイエイセンター,0
221,1120102024470,登記記録の閉鎖等,0,2023-01-13,2023-01-11,有限会社択善商事,,有限会社,大阪府,泉佐野市,中町１丁目７番１６－１０５号,,27,213,5980013,,,2023-01-11,清算の結了等,,,2015-10-05,1,,,,,,0
261,1180005018036,登記記録の閉鎖等,0,2023-01-13,2023-01-11,特定非営利活動法人サステナブル・グローブ,,その他の設立登記法人,愛知県,名古屋市東区,芳野３丁目５番１３号,,23,102,4610027,,,2023-01-11,清算の結了等,,,2018-11-12,1,,,,,サステナブルグローブ,0
273,1200001000564,登記記録の閉鎖等,0,2023-01-13,2023-01-13,株式会社エイチ・エー・シー,,株式会社,岐阜県,岐阜市,長良校前町１丁目５番地,,21,201,5020045,,,2023-01-13,登記官による閉鎖,,,2015-10-05,1,,,,,,0
274,1200003001981,登記記録の閉鎖等,0,2023-01-13,2023-01-13,Ｗ・Ｉ・Ｓ合同会社,,合同会社,岐阜県,揖斐郡大野町,大字西方８０５番地４,,21,403,5010514,,,2023-01-13,登記官による閉鎖,,,2015-10-05,1,,,,,,0
275,1200005001848,登記記録の閉鎖等,0,2023-01-13,2023-01-13,グローバルラクト協同組合,,その他の設立登記法人,岐阜県,岐阜市,則武中２丁目２２番１３号,,21,201,5020932,,,2023-01-13,登記官による閉鎖,,,2015-10-05,1,,,,,,0
276,1220001003945,登記記録の閉鎖等,0,2023-01-13,2023-01-10,太陽土木株式会社,,株式会社,石川県,金沢市,太陽が丘２丁目２００番地,,17,201,9201154,,,2023-01-10,清算の結了等,,,2015-10-05,1,,,,,タイヨウドボク,0
289,1290001037722,登記記録の閉鎖等,0,2023-01-13,2023-01-06,株式会社コマネット,,株式会社,福岡県,糟屋郡新宮町,新宮東２丁目１２番２０号,,40,345,8110124,,,2023-01-06,清算の結了等,,,2015-10-05,1,,,,,コマネット,0
324,1370002014695,登記記録の閉鎖等,0,2023-01-13,2023-01-05,株式会社ウエルネスプラザ,,株式会社,宮城県,仙台市宮城野区,鶴ケ谷２丁目８番地の１鶴ケ谷プラザビル３４号,,04,102,9830824,,,2023-01-05,清算の結了等,,,2015-10-05,1,,,,,ウェルネスプラザ,0
325,1380001003327,登記記録の閉鎖等,0,2023-01-13,2023-01-06,株式会社ＡＢＣ興産,,株式会社,福島県,伊達市,霊山町下小国字畑尻５３番地,,07,213,9600808,,,2023-01-06,清算の結了等,,,2015-10-05,1,,,,,エービーシーコウサン,0
329,1380005002003,登記記録の閉鎖等,0,2023-01-13,2023-01-11,医療法人せきね医院,,その他の設立登記法人,福島県,伊達市,月舘町月舘字町３６番地の１,,07,213,9600902,,,2023-01-11,清算の結了等,,,2015-10-05,1,,,,,セキネイイン,0
355,2010001014847,登記記録の閉鎖等,0,2023-01-13,2023-01-04,株式会社キャッチボール・トゥエンティワン,,株式会社,東京都,千代田区,平河町２丁目１６番１号,,13,101,1020093,,,2023-01-04,合併による解散等,5010001023416,令和５年１月１日東京都千代田区平河町二丁目１６番１号株式会社ディスカヴァー・トゥエンティワン（5010001023416）に合併し解散,2015-10-05,1,,,,,キャッチボールトゥエンティワン,0
356,2010001023162,登記記録の閉鎖等,0,2023-01-13,2023-01-04,株式会社天下一ソロバン,,株式会社,東京都,千代田区,神田神保町１丁目１１番地,,13,101,1010051,,,2023-01-04,清算の結了等,,,2015-10-05,1,,,,,テンカイチソロバン,0
365,2010003028696,登記記録の閉鎖等,0,2023-01-13,2023-01-04,合同会社ティーキャスト,,合同会社,東京都,中央区,銀座７丁目１３番６号サガミビル２階,,13,102,1040061,,,2023-01-04,清算の結了等,,,2018-11-15,1,,,,,ティーキャスト,0
369,2010401137628,登記記録の閉鎖等,0,2023-01-13,2022-12-23,マーキュリーパートナーズ株式会社,,株式会社,東京都,港区,新橋４丁目３０番６号京急中はらビル５階,,13,103,1050004,,,2022-12-23,清算の結了等,,,2018-04-06,1,,,,,マーキュリーパートナーズ,0
391,2011001128174,登記記録の閉鎖等,0,2023-01-13,2023-01-04,株式会社ＢＥＡＵＴＹ　ＳＰＡ,,株式会社,東京都,目黒区,東山１丁目２番２号,,13,110,1530043,,,2023-01-04,合併による解散等,6013201010538,令和４年１２月３１日東京都目黒区東山一丁目２番２号株式会社ＬＤＨ　ＪＡＰＡＮ（6013201010538）に合併し解散,2019-05-24,1,,,,,ビューティースパ,0
397,2011101045559,登記記録の閉鎖等,0,2023-01-13,2023-01-04,株式会社人材革命,,株式会社,東京都,千代田区,二番町５番地５,,13,101,1020084,,,2023-01-04,合併による解散等,3010001073116,令和５年１月１日東京都千代田区二番町５番地５株式会社ハローネット（3010001073116）に合併し解散,2015-10-05,1,,,,,ジンザイカクメイ,0
419,2011702017270,登記記録の閉鎖等,0,2023-01-13,2023-01-11,有限会社ぽじてむケアサービス,,有限会社,東京都,江戸川区,中央２丁目１０番２号,,13,123,1320021,,,2023-01-11,清算の結了等,,,2015-10-05,1,,,,,ポジテムケアサービス,0
429,2013102003082,登記記録の閉鎖等,0,2023-01-13,2023-01-12,フィロソフィア有限会社,,有限会社,東京都,西多摩郡瑞穂町,箱根ケ崎西松原１０番地３,,13,303,1901223,,,2023-01-12,登記官による閉鎖,,,2015-10-05,1,,,,,,0
430,2013102007389,登記記録の閉鎖等,0,2023-01-13,2023-01-12,有限会社かすみ内装,,有限会社,東京都,青梅市,野上町１丁目４６番地の８,,13,205,1980032,,,2023-01-12,登記官による閉鎖,,,2015-10-05,1,,,,,,0
431,2013102007950,登記記録の閉鎖等,0,2023-01-13,2023-01-12,フィールズ有限会社,,有限会社,東京都,あきる野市,雨間１９３７番地８１,,13,228,1970825,,,2023-01-12,登記官による閉鎖,,,2015-10-05,1,,,,,,0
432,2013102008024,登記記録の閉鎖等,0,2023-01-13,2023-01-12,有限会社東洋品店,,有限会社,東京都,西多摩郡日の出町,大字平井４０３２番地,,13,305,1900182,,,2023-01-12,登記官による閉鎖,,,2015-10-05,1,,,,,,0
433,2013201014773,登記記録の閉鎖等,0,2023-01-13,2023-01-04,株式会社ＬＤＨｍａｇａｚｉｎｅ,,株式会社,東京都,目黒区,東山１丁目２番２号,,13,110,1530043,,,2023-01-04,合併による解散等,4011001094258,令和４年１２月３１日東京都目黒区東山一丁目２番２号株式会社ｅｘｐｇ（4011001094258）に合併し解散,2015-10-05,1,,,,,エルディーエイチマガジン,0
438,2020001059817,登記記録の閉鎖等,0,2023-01-13,2023-01-06,株式会社ウェルビーイング,,株式会社,神奈川県,横浜市港北区,新横浜１丁目１番８号,,14,109,2220033,,,2023-01-06,清算の結了等,,,2015-10-05,1,,,,,ウェルビーイング,0
452,2020002007618,登記記録の閉鎖等,0,2023-01-13,2023-01-05,有限会社エフエムエス,,有限会社,神奈川県,横浜市金沢区,釜利谷東３丁目４３番２５号,,14,108,2360042,,,2023-01-05,清算の結了等,,,2015-10-05,1,,,,,エフエムエス,0
453,2020002011058,登記記録の閉鎖等,0,2023-01-13,2023-01-04,有限会社朝日山陶芸,,有限会社,東京都,中央区,勝どき３丁目２番１０－６０７号,,13,102,1040054,,,2023-01-04,清算の結了等,,,2015-10-05,1,,,,,アサヒヤマトウゲイ,0
469,2021003004315,登記記録の閉鎖等,0,2023-01-13,2023-01-05,ＭＹ興業合同会社,,合同会社,神奈川県,横須賀市,馬堀海岸１丁目２６番１号,,14,201,2390801,,,2023-01-05,清算の結了等,,,2015-10-05,1,,,,,マイコウギョウ,0
486,2040001005595,登記記録の閉鎖等,0,2023-01-13,2023-01-06,株式会社ナカサ,,株式会社,千葉県,千葉市稲毛区,長沼原町９６番６,,12,103,2630001,,,2023-01-06,清算の結了等,,,2015-10-05,1,,,,,ナカサ,0
511,2100001007825,登記記録の閉鎖等,0,2023-01-13,2023-01-06,株式会社千久水,,株式会社,長野県,佐久市,根々井１５番地７,,20,217,3850012,,,2023-01-06,合併による解散等,5100001007426,令和５年１月１日長野県佐久市中込３１４６番地中川商事株式会社（5100001007426）に合併し解散,2015-10-05,1,,,,,チクスイ,0
516,2100002019992,登記記録の閉鎖等,0,2023-01-13,2023-01-10,有限会社小林ホンダ,,有限会社,長野県,松本市,清水２丁目７番１号,,20,202,3900805,,,2023-01-10,清算の結了等,,,2015-10-05,1,,,,,コバヤシホンダ,0
519,2110001002239,登記記録の閉鎖等,0,2023-01-13,2023-01-04,佐渡汽船観光株式会社,,株式会社,新潟県,新潟市中央区,万代島９番１号,,15,103,9500078,,,2023-01-04,合併による解散等,2110001027748,令和５年１月１日新潟県佐渡市両津湊３５３番地佐渡汽船株式会社（2110001027748）に合併し解散,2015-10-05,1,,,,,サドキセンカンコウ,0
557,2120102012169,登記記録の閉鎖等,0,2023-01-13,2023-01-12,有限会社エスケイテック,,有限会社,大阪府,堺市北区,南花田町５８５番地の１,,27,146,5918011,,,2023-01-12,清算の結了等,,,2015-10-05,1,,,,,エスケイテック,0
559,2120102012334,登記記録の閉鎖等,0,2023-01-13,2023-01-05,沢正興産有限会社,,有限会社,大阪府,堺市美原区,北余部４７２番地,,27,147,5870051,,,2023-01-05,合併による解散等,5120102012257,令和５年１月１日大阪府堺市美原区北余部４７２番地株式会社小沢倉庫（5120102012257）に合併し解散,2015-10-05,1,,,,,サワショウコウサン,0
564,2120901044775,登記記録の閉鎖等,0,2023-01-13,2023-01-11,株式会社クレアホールディングス,,株式会社,大阪府,吹田市,広芝町２０－１６－５０３,,27,205,5640052,,,2023-01-11,清算の結了等,,,2021-08-16,1,,,,,クレアホールディングス,0
602,2180003001950,登記記録の閉鎖等,0,2023-01-13,2023-01-10,合資会社大黒屋,00073748,合資会社,愛知県,名古屋市南区,豊田１丁目１４番７号,,23,112,4570841,,,2023-01-10,清算の結了等,,,2015-10-05,1,,,,,ダイコクヤ,0
609,2200001002527,登記記録の閉鎖等,0,2023-01-13,2023-01-13,株式会社シンプルマインズ,,株式会社,岐阜県,岐阜市,則武中４丁目２０番１３号,,21,201,5020932,,,2023-01-13,登記官による閉鎖,,,2015-10-05,1,,,,,,0
610,2200001002551,登記記録の閉鎖等,0,2023-01-13,2023-01-13,昇栄株式会社,,株式会社,岐阜県,岐阜市,須賀１丁目３番６号,,21,201,5008289,,,2023-01-13,登記官による閉鎖,,,2017-03-21,1,,,,,,0
611,2200001018250,登記記録の閉鎖等,0,2023-01-13,2023-01-13,日産チェリー加茂販売株式会社,,株式会社,岐阜県,加茂郡八百津町,野上３６２番地,,21,505,5050307,,,2023-01-13,登記官による閉鎖,,,2017-08-07,1,,,,,,0
613,2200002000777,登記記録の閉鎖等,0,2023-01-13,2023-01-13,有限会社王朝不動産,,有限会社,岐阜県,岐阜市,早田栄町４丁目２０番地,,21,201,5020847,,,2023-01-13,登記官による閉鎖,,,2015-10-05,1,,,,,,0
617,2200005000972,登記記録の閉鎖等,0,2023-01-13,2023-01-13,ホープセンイ協業組合,,その他の設立登記法人,岐阜県,岐阜市,忠節町１丁目１８番地,,21,201,5008801,,,2023-01-13,登記官による閉鎖,,,2015-10-05,1,,,,,,0
618,2200005007316,登記記録の閉鎖等,0,2023-01-13,2023-01-13,特定非営利活動法人つばさの会,,その他の設立登記法人,岐阜県,可児市,今２３８１番地,,21,214,5090246,,,2023-01-13,登記官による閉鎖,,,2015-10-05,1,,,,,,0
622,2230003001581,登記記録の閉鎖等,0,2023-01-13,2023-01-06,ランドリーｙｏｕ合同会社,,合同会社,富山県,富山市,向新庄町１丁目７番４８号,,16,201,9300916,,,2023-01-06,清算の結了等,,,2020-12-23,1,,,,,ランドリーユー,0
626,2240001032982,登記記録の閉鎖等,0,2023-01-13,2023-01-10,三洋工業株式会社,,株式会社,広島県,福山市,鞆町後地２６番地の１５１,00000505,34,207,7200202,,,2023-01-10,清算の結了等,,,2015-10-05,1,,,,,サンヨウコウギョウ,0
649,2290005017208,登記記録の閉鎖等,0,2023-01-13,2023-01-06,一般社団法人知創研,,その他の設立登記法人,福岡県,大野城市,東大利２丁目６番３７－１２０３号レ・アルトピアーノ,,40,219,8160941,,,2023-01-06,清算の結了等,,,2019-02-28,1,,,,,チソウケン,0
666,2380001026896,登記記録の閉鎖等,0,2023-01-13,2023-01-06,株式会社南会津太陽光発電所,,株式会社,福島県,南会津郡南会津町,熨斗戸５５番地,,07,368,9670312,,,2023-01-06,清算の結了等,,,2016-05-19,1,,,,,ミナミアイヅタイヨウコウハツデンショ,0
675,2420001012058,登記記録の閉鎖等,0,2023-01-13,2023-01-04,株式会社十和田北日産,,株式会社,青森県,十和田市,大字洞内字井戸頭１４４番１１８号,,02,206,0340107,,,2023-01-04,合併による解散等,7420001000231,令和５年１月１日青森市大字三内字稲元８６番地青森日産自動車株式会社（7420001000231）に合併し解散,2015-10-05,1,,,,,トワダキタニッサン,0
687,3010001032179,登記記録の閉鎖等,0,2023-01-13,2023-01-04,株式会社マテリアルファイナンス,,株式会社,東京都,千代田区,丸の内３丁目２番３号,,13,101,1000005,,,2023-01-04,合併による解散等,6010001023786,令和５年１月１日東京都千代田区丸の内三丁目２番３号三菱マテリアル株式会社（6010001023786）に合併し解散,2015-10-05,1,,,,,マテリアルファイナンス,0
692,3010001116634,登記記録の閉鎖等,0,2023-01-13,2023-01-04,株式会社滝沢滋,,株式会社,東京都,中央区,銀座６丁目７－１６－２Ｆ,,13,102,1040061,,,2023-01-04,清算の結了等,,,2015-10-05,1,,,,,,0
710,3010003026889,登記記録の閉鎖等,0,2023-01-13,2023-01-04,ナインアワーズプロパティファンド２号合同会社,,合同会社,東京都,千代田区,丸の内２丁目１番１号,,13,101,1000005,,,2023-01-04,清算の結了等,,,2018-02-02,1,,,,,ナインアワーズプロパティファンドニゴウ,0
722,3010401109824,登記記録の閉鎖等,0,2023-01-13,2022-12-26,株式会社ドリームキャブ,,株式会社,東京都,港区,南青山６丁目１０番１２号,,13,103,1070062,,,2022-12-26,清算の結了等,,,2015-10-05,1,,,,,ドリームキャブ,0
748,3010602033930,登記記録の閉鎖等,0,2023-01-13,2022-12-28,有限会社メディカルインパクト,,有限会社,東京都,江東区,南砂２丁目２番１１号,,13,108,1360076,,,2022-12-28,合併による解散等,1010401085745,令和４年１２月１日東京都港区海岸一丁目２番３号－１０４株式会社カスケード東京（1010401085745）に合併し解散,2015-10-05,1,,,,,メディカルインパクト,0
765,3011003006179,登記記録の閉鎖等,0,2023-01-13,2023-01-04,ディペンズ合同会社,,合同会社,東京都,渋谷区,代官山町２０番９号,,13,113,1500034,,,2023-01-04,清算の結了等,,,2015-10-05,1,,,,,ディペンズ,0
782,3011201014660,登記記録の閉鎖等,0,2023-01-13,2023-01-10,株式会社ネクストスタイル,,株式会社,東京都,中野区,丸山２丁目１５番７号,,13,114,1650021,,,2023-01-10,清算の結了等,,,2015-10-05,1,,,,,ネクストスタイル,0
786,3011301019618,登記記録の閉鎖等,0,2023-01-13,2023-01-06,ＭＨＦ株式会社,,株式会社,東京都,杉並区,高円寺北２丁目２２番１１号,,13,115,1660002,,,2023-01-06,清算の結了等,,,2015-10-05,1,,,,,エムエイチエフ,0
800,3013101000831,登記記録の閉鎖等,0,2023-01-13,2023-01-12,旭通信工業株式会社,,株式会社,東京都,あきる野市,秋川６丁目３番地１,,13,228,1970804,,,2023-01-12,登記官による閉鎖,,,2015-10-05,1,,,,,,0
802,3013102003049,登記記録の閉鎖等,0,2023-01-13,2023-01-12,有限会社橋本鉄工,,有限会社,東京都,西多摩郡瑞穂町,大字殿ケ谷５３９番地６,,13,303,1901212,,,2023-01-12,登記官による閉鎖,,,2015-10-05,1,,,,,,0
803,3013102005887,登記記録の閉鎖等,0,2023-01-13,2023-01-12,有限会社カネウメ,,有限会社,東京都,青梅市,日向和田１丁目７１番地の１３,,13,205,1980046,,,2023-01-12,登記官による閉鎖,,,2015-10-05,1,,,,,,0
804,3013102006927,登記記録の閉鎖等,0,2023-01-13,2023-01-12,有限会社ヤマクニ工務店,,有限会社,東京都,青梅市,天ヶ瀬町１１５７番地,,13,205,1980087,,,2023-01-12,登記官による閉鎖,,,2015-10-05,1,,,,,,0
805,3013205000232,登記記録の閉鎖等,0,2023-01-13,2023-01-12,医療法人社団はんぷ会,,その他の設立登記法人,東京都,目黒区,中町２丁目４４番１２号２０１号室,,13,110,1530065,,,2023-01-12,清算の結了等,,,2015-10-05,1,,,,,ハンプカイ,0
834,3030001051318,登記記録の閉鎖等,0,2023-01-13,2022-12-27,株式会社中田建築設計事務所,,株式会社,埼玉県,春日部市,中央４丁目７番地４,,11,214,3440067,,,2022-12-27,清算の結了等,,,2015-10-05,1,,,,,ナカタケンチクセッケイジムショ,0
848,3040001032507,登記記録の閉鎖等,0,2023-01-13,2023-01-10,株式会社岡島ポーターサービス,,株式会社,千葉県,市川市,下貝塚２丁目１０番２５号,,12,203,2720821,,,2023-01-10,清算の結了等,,,2015-10-05,1,,,,,,0
887,3110001010315,登記記録の閉鎖等,0,2023-01-13,2023-01-04,佐渡汽船シップメンテナンス株式会社,,株式会社,新潟県,新潟市中央区,万代島９番１号,,15,103,9500078,,,2023-01-04,合併による解散等,2110001027748,令和５年１月１日新潟県佐渡市両津湊３５３番地佐渡汽船株式会社（2110001027748）に合併し解散,2015-10-05,1,,,,,サドキセンシップメンテナンス,0
889,3120001177260,登記記録の閉鎖等,0,2023-01-13,2023-01-11,Ｊコンサルティング株式会社,,株式会社,大阪府,大阪市北区,大深町３番４０号,,27,127,5300011,,,2023-01-11,合併による解散等,3120001065110,令和５年１月１日大阪府東大阪市稲葉二丁目２番５２号ジヤパンコーデイネート株式会社（3120001065110）に合併し解散,2015-10-05,1,,,,,ジェイコンサルティング,0
916,3120101047462,登記記録の閉鎖等,0,2023-01-13,2023-01-10,株式会社ランドマーク,,株式会社,大阪府,泉佐野市,東佐野台１２－２１,,27,213,5980074,,,2023-01-10,清算の結了等,,,2015-10-05,1,,,,,,0
918,3120101064334,登記記録の閉鎖等,0,2023-01-13,2023-01-10,株式会社ｙｅｌｌｏｗ　ｃｏｍｐａｎｙ,,株式会社,大阪府,堺市堺区,海山町２丁１２９番地１２,,27,141,5900982,,,2023-01-10,清算の結了等,,,2021-09-22,1,,,,,イエローカンパニー,0
920,3120102019527,登記記録の閉鎖等,0,2023-01-13,2023-01-06,有限会社直興業,,有限会社,大阪府,河内長野市,天野町２３３番１,,27,216,5860086,,,2023-01-06,清算の結了等,,,2015-10-05,1,,,,,,0
923,3120105009112,登記記録の閉鎖等,0,2023-01-13,2023-01-11,特定非営利活動法人夢と未来,,その他の設立登記法人,大阪府,泉南郡熊取町,大宮１丁目６番１２号,,27,361,5900450,,,2023-01-11,清算の結了等,,,2019-10-15,1,,,,,ユメトミライ,0
925,3120901036045,登記記録の閉鎖等,0,2023-01-13,2023-01-10,株式会社プラシカ,,株式会社,大阪府,高槻市,山手町２丁目３番８号,,27,207,5691103,,,2023-01-10,清算の結了等,,,2015-10-21,1,,,,,プラシカ,0
953,3170001002232,登記記録の閉鎖等,0,2023-01-13,2023-01-12,豊田織ネーム株式会社,,株式会社,和歌山県,和歌山市,金龍寺丁５番地,,30,201,6408274,,,2023-01-12,清算の結了等,,,2015-10-05,1,,,,,トヨダオリネーム,0
964,3180001139370,登記記録の閉鎖等,0,2023-01-13,2023-01-10,小澤ＪＡＰＡＮ株式会社,,株式会社,大分県,中津市,大字相原３７７６番地１,,44,203,8710022,,,2023-01-10,清算の結了等,,,2019-12-25,1,,,,,オザワジャパン,0
977,3180301014034,登記記録の閉鎖等,0,2023-01-13,2022-12-28,株式会社三陽コーポレーション,,株式会社,愛知県,刈谷市,相生町２丁目４１番地,,23,210,4480027,,,2022-12-28,清算の結了等,,,2015-10-05,1,,,,,サンヨウコーポレーション,0
978,3180301017631,登記記録の閉鎖等,0,2023-01-13,2022-12-28,株式会社Ｍ・Ｋ・コンサルティング,,株式会社,愛知県,碧南市,中町３丁目７５番地,,23,209,4470846,,,2022-12-28,清算の結了等,,,2015-10-05,1,,,,,エムケーコンサルティング,0
980,3180302008282,登記記録の閉鎖等,0,2023-01-13,2022-12-28,有限会社ダイリン,,有限会社,愛知県,豊橋市,寺沢町字睦美６２９番地,,23,201,4413124,,,2022-12-28,清算の結了等,,,2015-10-05,1,,,,,ダイリン,0
981,3190001005472,登記記録の閉鎖等,0,2023-01-13,2023-01-10,株式会社ヤマシタオート,,株式会社,三重県,鈴鹿市,西条８丁目１１番地,,24,207,5130809,,,2023-01-10,清算の結了等,,,2015-10-05,1,,,,,ヤマシタオート,0
984,3200001001172,登記記録の閉鎖等,0,2023-01-13,2023-01-13,Ｂ．Ｂクリエイト株式会社,,株式会社,岐阜県,岐阜市,鏡島南４丁目３番１８号,,21,201,5010115,,,2023-01-13,登記官による閉鎖,,,2015-10-05,1,,,,,,0
985,3200001005644,登記記録の閉鎖等,0,2023-01-13,2023-01-13,山仲仲家木材株式会社,,株式会社,岐阜県,岐阜市,竜田町８丁目２番地,,21,201,5008402,,,2023-01-13,登記官による閉鎖,,,2015-10-05,1,,,,,,0
986,3200001018480,登記記録の閉鎖等,0,2023-01-13,2023-01-13,株式会社奥村ガラス,,株式会社,岐阜県,加茂郡川辺町,下川辺５９４番地３,,21,503,5090306,,,2023-01-13,登記官による閉鎖,,,2015-10-05,1,,,,,,0
987,3200001021798,登記記録の閉鎖等,0,2023-01-13,2023-01-13,株式会社陶石油,,株式会社,岐阜県,瑞浪市,陶町水上１５７番地の１の１,,21,208,5096362,,,2023-01-13,登記官による閉鎖,,,2015-10-05,1,,,,,,0
988,3200001026426,登記記録の閉鎖等,0,2023-01-13,2023-01-13,株式会社セガミ鋼業,,株式会社,岐阜県,郡上市,白鳥町向小駄良１０６７番地,,21,219,5015126,,,2023-01-13,登記官による閉鎖,,,2015-10-05,1,,,,,,0
989,3200001026574,登記記録の閉鎖等,0,2023-01-13,2023-01-13,母袋総合開発株式会社,,株式会社,岐阜県,郡上市,大和町栗巣字細野１７２８番地,,21,219,5014603,,,2023-01-13,登記官による閉鎖,,,2015-10-05,1,,,,,,0
992,3200002001122,登記記録の閉鎖等,0,2023-01-13,2023-01-13,有限会社河正,,有限会社,岐阜県,岐阜市,柳ケ瀬通１丁目１２番地,,21,201,5008875,,,2023-01-13,登記官による閉鎖,,,2015-10-05,1,,,,,,0
993,3200002004109,登記記録の閉鎖等,0,2023-01-13,2023-01-13,有限会社フレンドリー,,有限会社,岐阜県,岐阜市,織田塚町１丁目１１番地の６,,21,201,5008135,,,2023-01-13,登記官による閉鎖,,,2015-10-05,1,,,,,,0
994,3200002012557,登記記録の閉鎖等,0,2023-01-13,2023-01-13,有限会社コージーハウス,,有限会社,岐阜県,大垣市,神明２丁目３８番地２,,21,202,5032205,,,2023-01-13,登記官による閉鎖,,,2015-10-05,1,,,,,,0
995,3200002013200,登記記録の閉鎖等,0,2023-01-13,2023-01-13,有限会社マルサン塗装,,有限会社,岐阜県,大垣市,外渕１丁目４６番地の１,,21,202,5030934,,,2023-01-13,登記官による閉鎖,,,2015-10-05,1,,,,,,0
996,3200002016582,登記記録の閉鎖等,0,2023-01-13,2023-01-13,有限会社カワベ,,有限会社,岐阜県,加茂郡川辺町,比久見８３５番地の１,,21,503,5090315,,,2023-01-13,登記官による閉鎖,,,2015-10-05,1,,,,,,0
997,3200003000627,登記記録の閉鎖等,0,2023-01-13,2023-01-13,合資会社仲家,,合資会社,岐阜県,岐阜市,五坪２丁目３番４－４０５号,,21,201,5008157,,,2023-01-13,登記官による閉鎖,,,2015-10-05,1,,,,,,0
1000,3220001016045,登記記録の閉鎖等,0,2023-01-13,2023-01-10,株式会社大信実業,,株式会社,石川県,羽咋市,石野町イ５７番地５,,17,207,9250026,,,2023-01-10,清算の結了等,,,2015-10-05,1,,,,,ダイシンジツギョウ,0
1006,3240001054984,登記記録の閉鎖等,0,2023-01-13,2023-01-04,株式会社広予商事,,株式会社,広島県,広島市中区,大手町３丁目１番３号,,34,101,7300051,,,2023-01-04,合併による解散等,9240001049310,令和５年１月１日広島市中区大手町三丁目１番３号ＩＴ大手町ビル６階株式会社佐島商事（9240001049310）に合併し解散,2019-09-27,1,,,,,ヒロヨショウジ,0
1057,3380002011797,登記記録の閉鎖等,0,2023-01-13,2023-01-10,ファムロード有限会社,,有限会社,福島県,郡山市,田村町上行合字北川田２６番地３,,07,203,9630724,,,2023-01-10,清算の結了等,,,2015-10-05,1,,,,,ファムロード,0
1062,3420002006388,登記記録の閉鎖等,0,2023-01-13,2023-01-10,有限会社小原鑢製作所,,有限会社,青森県,八戸市,大字長苗代字下亀子谷地２７番地７,,02,203,0391103,,,2023-01-10,清算の結了等,,,2015-10-05,1,,,,,オバラヤスリセイサクショ,0
1064,3430001029075,登記記録の閉鎖等,0,2023-01-13,2023-01-04,株式会社マルシンカワムラ,,株式会社,北海道,札幌市中央区,南二条西２丁目７番地サッポロビル４階,,01,101,0600062,,,2023-01-04,合併による解散等,9430001087290,令和５年１月１日札幌市中央区南二条西二丁目７番地１株式会社北海道サッポロライオン（9430001087290）に合併し解散,2015-10-05,1,,,,,マルシンカワムラ,0
1065,3430001082363,登記記録の閉鎖等,0,2023-01-13,2022-12-28,ＭＹ株式会社,,株式会社,北海道,札幌市中央区,南十一条西１丁目５番１６号カサウィスタリア４０５,,01,101,0640811,,,2022-12-28,清算の結了等,,,2020-09-16,1,,,,,エムワイ,0
1077,3490001002274,登記記録の閉鎖等,0,2023-01-13,2023-01-05,株式会社レイダン,,株式会社,高知県,高知市,南川添１６番１５号,,39,201,7800082,,,2023-01-05,合併による解散等,4490001000351,令和５年１月１日高知市布師田３９６１番地１０株式会社関西設備（4490001000351）に合併し解散,2015-10-05,1,,,,,レイダン,0
1088,4010003035897,登記記録の閉鎖等,0,2023-01-13,2023-01-04,Ｗａｌｂｒｏ　Ｊａｐａｎ　Ｈｏｌｄｉｎｇｓ合同会社,,合同会社,東京都,千代田区,大手町１丁目６番１号大手町ビルヂング,,13,101,1000004,,,2023-01-04,合併による解散等,1010001147755,令和５年１月１日東京都千代田区大手町一丁目６番１号大手町ビルヂングウォルブロー株式会社（1010001147755）に合併し解散,2021-09-27,1,,,,,ウォルブロージャパンホールディングス,0
1131,4011001021030,登記記録の閉鎖等,0,2023-01-13,2023-01-04,株式会社ブルーベイ,,株式会社,東京都,渋谷区,本町２丁目６番９号,,13,113,1510071,,,2023-01-04,清算の結了等,,,2015-10-05,1,,,,,ブルーベイ,0
1138,4011002011666,登記記録の閉鎖等,0,2023-01-13,2023-01-04,有限会社セントクオーク,,有限会社,東京都,国分寺市,本町２丁目２番１４号,,13,214,1850012,,,2023-01-04,清算の結了等,,,2015-10-05,1,,,,,セントクオーク,0
1161,4011601017626,登記記録の閉鎖等,0,2023-01-13,2023-01-05,株式会社大福産業,,株式会社,東京都,練馬区,上石神井南町５番１６号,,13,120,1770043,,,2023-01-05,清算の結了等,,,2015-10-05,1,,,,,ダイフクサンギョウ,0
1184,4013101001127,登記記録の閉鎖等,0,2023-01-13,2023-01-12,株式会社林田製作所,,株式会社,東京都,あきる野市,小川東１丁目２３番地８,,13,228,1970822,,,2023-01-12,登記官による閉鎖,,,2015-10-05,1,,,,,,0
1185,4013301009696,登記記録の閉鎖等,0,2023-01-13,2023-01-04,株式会社二和設備設計事務所,,株式会社,東京都,杉並区,成田西１丁目２６番１５号,,13,115,1660016,,,2023-01-04,清算の結了等,,,2015-10-05,1,,,,,ニワセツビセッケイ,0
1200,4020002003540,登記記録の閉鎖等,0,2023-01-13,2023-01-06,有限会社モーリー,,有限会社,神奈川県,横浜市泉区,弥生台５０番地の９,,14,116,2450008,,,2023-01-06,清算の結了等,,,2015-10-05,1,,,,,モーリー,0
1223,4030001075134,登記記録の閉鎖等,0,2023-01-13,2023-01-06,三進社工業株式会社,,株式会社,埼玉県,川口市,東領家４丁目９番５号,,11,203,3320003,,,2023-01-06,清算の結了等,,,2015-10-05,1,,,,,サンシンシャコウギョウ,0
1231,4030001143320,登記記録の閉鎖等,0,2023-01-13,2023-01-04,株式会社笛木空調設備,,株式会社,埼玉県,熊谷市,柿沼４２９番地２３,,11,202,3600803,,,2023-01-04,清算の結了等,,,2021-07-13,1,,,,,フエキクウチョウセツビ,0
1240,4030005004667,登記記録の閉鎖等,0,2023-01-13,2023-01-06,医療法人恵生会,,その他の設立登記法人,埼玉県,久喜市,久喜東５丁目６番４０号,,11,232,3460016,,,2023-01-06,清算の結了等,,,2015-10-05,1,,,,,ケイセイカイ,0
1249,4040001101995,登記記録の閉鎖等,0,2023-01-13,2023-01-10,株式会社縁,,株式会社,千葉県,四街道市,千代田３丁目４４番２号,,12,228,2840015,,,2023-01-10,清算の結了等,,,2017-10-03,1,,,,,エニシ,0
1258,4050001049144,登記記録の閉鎖等,0,2023-01-13,2023-01-04,株式会社アムズファーム,,株式会社,茨城県,つくば市,梅園２丁目８番１７号,,08,220,3050045,,,2023-01-04,合併による解散等,6050001047435,令和５年１月１日茨城県つくば市梅園二丁目８番１７号株式会社アムズファーム（6050001047435）に合併し解散,2021-04-27,1,,,,,アムズファーム,0
1266,4070001010013,登記記録の閉鎖等,0,2023-01-13,2023-01-06,東広産業株式会社,,株式会社,群馬県,安中市,岩井１５５７番地の１,,10,211,3790112,,,2023-01-06,清算の結了等,,,2015-10-05,1,,,,,トウコウサンギョウ,0
1271,4070002020936,登記記録の閉鎖等,0,2023-01-13,2023-01-10,有限会社堀川建築,,有限会社,群馬県,佐波郡玉村町,大字下新田１１９０番地の２,,10,464,3701132,,,2023-01-10,清算の結了等,,,2015-10-05,1,,,,,ホリカワケンチク,0
1310,4130003000071,登記記録の閉鎖等,0,2023-01-13,2022-12-28,中村合名会社,,合名会社,京都府,京都市左京区,田中関田町２２番地,,26,103,6068203,,,2022-12-28,清算の結了等,,,2015-10-05,1,,,,,ナカムラ,0
1313,4140001043476,登記記録の閉鎖等,0,2023-01-13,2023-01-04,株式会社廣川電機製作所,00039578,株式会社,兵庫県,加古川市,野口町野口６３４番地,,28,210,6750012,,,2023-01-04,合併による解散等,7140001050940,令和５年１月１日兵庫県尼崎市杭瀬北新町三丁目２番２号廣川電機株式会社（7140001050940）に合併し解散,2015-10-05,1,,,,,ヒロカワデンキセイサクショ,0
1315,4140001125373,登記記録の閉鎖等,0,2023-01-13,2023-01-06,鴻鵠マネジメント株式会社,,株式会社,兵庫県,尼崎市,南塚口町１丁目１９番７号,,28,202,6610012,,,2023-01-06,清算の結了等,,,2022-03-28,1,,,,,コウコクマネジメント,0
1338,4180302000916,登記記録の閉鎖等,0,2023-01-13,2023-01-05,有限会社カワジ,,有限会社,愛知県,岡崎市,森越町字宮前１０４番地１,,23,202,4440901,,,2023-01-05,清算の結了等,,,2015-10-05,1,,,,,カワジ,0
1339,4180302009437,登記記録の閉鎖等,0,2023-01-13,2022-12-28,有限会社福裕製菓,,有限会社,愛知県,豊橋市,前田南町２丁目２４番地の１,,23,201,4400851,,,2022-12-28,清算の結了等,,,2015-10-05,1,,,,,フクユウセイカ,0
1341,4200001009157,登記記録の閉鎖等,0,2023-01-13,2023-01-13,株式会社カワセ,,株式会社,岐阜県,岐阜市,西改田村前１３８番地,,21,201,5011166,,,2023-01-13,登記官による閉鎖,,,2015-10-05,1,,,,,,0
1342,4200001018348,登記記録の閉鎖等,0,2023-01-13,2023-01-13,飯田自動車工業株式会社,,株式会社,岐阜県,美濃加茂市,太田町１５１５番地の１,,21,211,5050041,,,2023-01-13,登記官による閉鎖,,,2015-10-05,1,,,,,,0
1343,4200001018868,登記記録の閉鎖等,0,2023-01-13,2023-01-13,株式会社白川茶園,,株式会社,岐阜県,加茂郡白川町,黒川２７１６番地,,21,506,5091431,,,2023-01-13,登記官による閉鎖,,,2015-10-05,1,,,,,,0
1344,4200002012028,登記記録の閉鎖等,0,2023-01-13,2023-01-13,有限会社ＴＡＳ,,有限会社,岐阜県,羽島市,上中町長間９９７番地,,21,209,5016311,,,2023-01-13,登記官による閉鎖,,,2015-10-05,1,,,,,,0
1345,4200002015121,登記記録の閉鎖等,0,2023-01-13,2023-01-13,有限会社ショーワガードサービス,,有限会社,岐阜県,大垣市,島里２丁目８６番地,,21,202,5030935,,,2023-01-13,登記官による閉鎖,,,2015-10-05,1,,,,,,0
1347,4200002023405,登記記録の閉鎖等,0,2023-01-13,2023-01-13,有限会社中日クレジット,,有限会社,岐阜県,中津川市,太田町１丁目５番７号,,21,206,5080033,,,2023-01-13,登記官による閉鎖,,,2015-10-05,1,,,,,,0
1348,4200005010771,登記記録の閉鎖等,0,2023-01-13,2023-01-13,特定非営利活動法人エコスタイル飛騨高山環境プロジェクト,,その他の設立登記法人,岐阜県,高山市,江名子町３１１８番地５,,21,203,5060818,,,2023-01-13,登記官による閉鎖,,,2015-10-05,1,,,,,,0
1411,4430002053899,登記記録の閉鎖等,0,2023-01-13,2023-01-06,有限会社江崎電機工業所,,有限会社,北海道,小樽市,桜３丁目１番２０号,,01,203,0470156,,,2023-01-06,清算の結了等,,,2015-10-05,1,,,,,エザキデンキコウギョウショ,0
1415,4460301003874,登記記録の閉鎖等,0,2023-01-13,2023-01-10,株式会社ホテル清月,,株式会社,北海道,北見市,清月町１６番地９,,01,208,0900805,,,2023-01-10,清算の結了等,,,2015-10-05,1,,,,,ホテルセイゲツ,0
1418,4480002005128,登記記録の閉鎖等,0,2023-01-13,2023-01-10,有限会社ライブ,,有限会社,徳島県,徳島市,金沢１丁目５番２１号,,36,201,7700871,,,2023-01-10,清算の結了等,,,2015-10-05,1,,,,,ライブ,0
1429,5010001002460,登記記録の閉鎖等,0,2023-01-13,2022-12-23,株式会社アイ・エム・プレス,,株式会社,東京都,港区,南青山４丁目１７番３３号,,13,103,1070062,,,2022-12-23,清算の結了等,,,2015-10-05,1,,,,,,0
1434,5010001126714,登記記録の閉鎖等,0,2023-01-13,2023-01-04,株式会社ＭＡＳＡ,,株式会社,東京都,中央区,日本橋大伝馬町６番８号,,13,102,1030011,,,2023-01-04,合併による解散等,7010001227898,令和５年１月１日東京都千代田区麹町三丁目２番地垣見麹町ビル別館４階ＧＯホールディングス株式会社（7010001227898）に合併し解散,2015-10-05,1,,,,,マサ,0
1453,5010401152582,登記記録の閉鎖等,0,2023-01-13,2022-12-23,積芯株式会社,,株式会社,東京都,港区,白金台３丁目１０番１０号,,13,103,1080071,,,2022-12-23,清算の結了等,,,2020-05-01,1,,,,,セキシン,0
1464,5010501039093,登記記録の閉鎖等,0,2023-01-13,2022-12-28,ネオス・ジャパン株式会社,,株式会社,東京都,千代田区,神田須田町１丁目４番地Ｙ１０１ビル５Ｆ,,13,101,1010041,,,2022-12-28,合併による解散等,6120001168216,令和４年１２月２８日大阪市淀川区新高一丁目１番１５号株式会社デンタリード（6120001168216）に合併し解散,2016-02-03,1,,,,,,0
1467,5010601023229,登記記録の閉鎖等,0,2023-01-13,2022-12-28,株式会社第一工建,,株式会社,東京都,荒川区,東尾久３丁目１５番８号,,13,118,1160012,,,2022-12-28,清算の結了等,,,2015-10-05,1,,,,,ダイイチコウケン,0
1470,5010701024267,登記記録の閉鎖等,0,2023-01-13,2023-01-04,株式会社プロフェッサ,,株式会社,東京都,品川区,上大崎２丁目１５番１９号,,13,109,1410021,,,2023-01-04,合併による解散等,7010701022599,令和５年１月１日東京都品川区上大崎二丁目１５番１９号株式会社プロズサービス（7010701022599）に合併し解散,2015-10-05,1,,,,,プロフェッサ,0
1486,5011001094257,登記記録の閉鎖等,0,2023-01-13,2023-01-04,株式会社ＬＤＨｓｔａｇｅ,,株式会社,東京都,目黒区,東山１丁目２番２号,,13,110,1530043,,,2023-01-04,合併による解散等,4011001094258,令和４年１２月３１日東京都目黒区東山一丁目２番２号株式会社ｅｘｐｇ（4011001094258）に合併し解散,2015-10-05,1,,,,,エルディエイチステージ,0
1507,5011402019440,登記記録の閉鎖等,0,2023-01-13,2023-01-06,有限会社いし乃,,有限会社,東京都,板橋区,南町３６番６号,,13,119,1730027,,,2023-01-06,清算の結了等,,,2015-10-05,1,,,,,,0
1511,5011602024059,登記記録の閉鎖等,0,2023-01-13,2023-01-05,有限会社エメ・コンサルタント,,有限会社,東京都,練馬区,谷原６丁目２５番２４号,,13,120,1770032,,,2023-01-05,清算の結了等,,,2015-10-05,1,,,,,エメコンサルタント,0
1517,5011802008316,登記記録の閉鎖等,0,2023-01-13,2023-01-06,有限会社吉尾商店,,有限会社,東京都,葛飾区,西亀有２丁目７番１９号,,13,122,1240002,,,2023-01-06,清算の結了等,,,2015-10-05,1,,,,,ヨシオショウテン,0
1518,5011802013720,登記記録の閉鎖等,0,2023-01-13,2023-01-10,有限会社鹿忠,,有限会社,東京都,足立区,鹿浜５丁目２１番１４号,,13,121,1230864,,,2023-01-10,清算の結了等,,,2015-10-05,1,,,,,,0
1524,5013105000074,登記記録の閉鎖等,0,2023-01-13,2023-01-12,東京都貸自動車事業協同組合,,その他の設立登記法人,東京都,羽村市,小作台２丁目１６番２７号,,13,227,2050001,,,2023-01-12,登記官による閉鎖,,,2015-10-05,1,,,,,,0
1525,5013105001023,登記記録の閉鎖等,0,2023-01-13,2023-01-12,社団法人奥多摩湖愛護会,,その他の設立登記法人,東京都,西多摩郡奥多摩町,留浦１２００番地,,13,308,1980221,,,2023-01-12,登記官による閉鎖,,,2015-10-05,1,,,,,,0
1528,5013401005660,登記記録の閉鎖等,0,2023-01-13,2022-12-23,株式会社大河内でんき,,株式会社,東京都,多摩市,落合４丁目２番地６－１０４,,13,224,2060033,,,2022-12-23,清算の結了等,,,2015-10-05,1,,,,,オオコウチデンキ,0
1530,5020001050442,登記記録の閉鎖等,0,2023-01-13,2023-01-06,株式会社ひよこ,,株式会社,神奈川県,横須賀市,池上４丁目１３番３６号,,14,201,2380035,,,2023-01-06,清算の結了等,,,2015-10-05,1,,,,,ヒヨコ,0
1547,5020002024511,登記記録の閉鎖等,0,2023-01-13,2023-01-06,有限会社野崎商店,,有限会社,神奈川県,横浜市保土ケ谷区,西谷３丁目８番４１号,,14,106,2400054,,,2023-01-06,清算の結了等,,,2015-10-05,1,,,,,ノザキショウテン,0
1569,5030001142305,登記記録の閉鎖等,0,2023-01-13,2023-01-05,株式会社功健,,株式会社,埼玉県,志木市,本町５丁目２１－５８クレール志木７０５,,11,228,3530004,,,2023-01-05,合併による解散等,2030002073989,令和５年１月１日埼玉県ふじみ野市ふじみ野三丁目１番１０号株式会社功健（2030002073989）に合併し解散,2021-05-20,1,,,,,コウケン,0
1580,5040001006673,登記記録の閉鎖等,0,2023-01-13,2023-01-10,双葉商事株式会社,,株式会社,千葉県,千葉市中央区,弁天３丁目４番３号,,12,101,2600045,,,2023-01-10,清算の結了等,,,2015-10-05,1,,,,,フタバショウジ,0
1582,5040001030995,登記記録の閉鎖等,0,2023-01-13,2022-12-20,株式会社富久よし,,株式会社,千葉県,市川市,東菅野３丁目２番１２号,,12,203,2720823,,,2022-12-20,清算の結了等,,,2015-10-05,1,,,,,フクヨシ,0
1603,5070001001597,登記記録の閉鎖等,0,2023-01-13,2023-01-05,新政建設工業株式会社,,株式会社,群馬県,前橋市,西片貝町３丁目３３番地,,10,201,3710013,,,2023-01-05,清算の結了等,,,2015-10-05,1,,,,,シンセイケンセツコウギョウ,0
1610,5080005003762,登記記録の閉鎖等,0,2023-01-13,2023-01-11,特定非営利活動法人静岡交響楽団,,その他の設立登記法人,静岡県,静岡市駿河区,小黒２丁目９番１０号,,22,102,4228072,,,2023-01-11,清算の結了等,,,2015-10-05,1,,,,,シズオカコウキョウガクダン,0
1611,5080102007006,登記記録の閉鎖等,0,2023-01-13,2023-01-10,樹里庵有限会社,,有限会社,静岡県,御殿場市,川島田１３３５番地の１０,,22,215,4120045,,,2023-01-10,清算の結了等,,,2015-10-05,1,,,,,ジュリアン,0
1614,5090002013722,登記記録の閉鎖等,0,2023-01-13,2023-01-06,有限会社ダイヤ菊,,有限会社,山梨県,韮崎市,本町２丁目１９番８号,,19,207,4070024,,,2023-01-06,清算の結了等,,,2015-10-05,1,,,,,,0
1657,5140001087200,登記記録の閉鎖等,0,2023-01-13,2023-01-05,神栄スキ株式会社,,株式会社,兵庫県,神戸市須磨区,小寺町１丁目１番１７号,,28,107,6540042,,,2023-01-05,清算の結了等,,,2015-10-05,1,,,,,シンエイスキ,0
1666,5140005024744,登記記録の閉鎖等,0,2023-01-13,2023-01-10,一般社団法人社長の相続研究所,,その他の設立登記法人,兵庫県,西宮市,御茶家所町４番１５号中田ビル２階,,28,204,6620961,,,2023-01-10,清算の結了等,,,2019-08-13,1,,,,,シャチョウノソウゾクケンキュウジョ,0
1672,5170001017402,登記記録の閉鎖等,0,2023-01-13,2023-01-11,カンサイファイナンス株式会社,,株式会社,和歌山県,和歌山市,吉田３６０番地,,30,201,6408343,,,2023-01-11,清算の結了等,,,2022-12-15,1,,,,,カンサイファイナンス,0
1674,5180001085803,登記記録の閉鎖等,0,2023-01-13,2022-12-28,株式会社システムメディア,,株式会社,愛知県,稲沢市,平和町須ケ脇５３番地,,23,220,4901323,,,2022-12-28,清算の結了等,,,2015-10-05,1,,,,,システムメディア,0
1690,5180301029360,登記記録の閉鎖等,0,2023-01-13,2022-12-28,ＡＱＵＡ　ＧＯＬＤ株式会社,,株式会社,愛知県,豊橋市,牧野町１８番地６,,23,201,4418112,,,2022-12-28,清算の結了等,,,2016-07-07,1,,,,,アクアゴールド,0
1693,5180303005459,登記記録の閉鎖等,0,2023-01-13,2022-12-27,合同会社早川組,,合同会社,愛知県,安城市,和泉町向２５番地１,,23,212,4441221,,,2022-12-27,合併による解散等,6180302020755,令和４年１２月２０日愛知県安城市和泉町向２５番地２株式会社立希（6180302020755）に合併し解散,2022-10-06,1,,,,,ハヤカワグミ,0
1694,5180305003023,登記記録の閉鎖等,0,2023-01-13,2022-12-23,天理教宮豊分教会,,その他の設立登記法人,愛知県,豊橋市,中郷町１００番地,,23,201,4418031,,,2022-12-23,合併による解散等,3180005012672,令和４年１２月１４日愛知県東海市荒尾町熊ノ山３３番地の３天理教宮名分教会（3180005012672）に合併し解散,2015-10-05,1,,,,,,0
1697,5200001004000,登記記録の閉鎖等,0,2023-01-13,2023-01-13,西浅青果株式会社,,株式会社,岐阜県,岐阜市,茜部新所２丁目５番地岐阜市中央卸売市場内,,21,201,5008263,,,2023-01-13,登記官による閉鎖,,,2015-10-05,1,,,,,,0
1698,5200001006153,登記記録の閉鎖等,0,2023-01-13,2023-01-13,株式会社ユーノスロード岐阜,,株式会社,岐阜県,岐阜市,市橋２丁目６番１６号,,21,201,5008381,,,2023-01-13,登記官による閉鎖,,,2015-10-05,1,,,,,,0
1699,5200001007770,登記記録の閉鎖等,0,2023-01-13,2023-01-13,株式会社グランジャ,,株式会社,岐阜県,各務原市,鵜沼三ツ池町１丁目３２番地,,21,213,5090146,,,2023-01-13,登記官による閉鎖,,,2017-12-28,1,,,,,,0
1700,5200001012449,登記記録の閉鎖等,0,2023-01-13,2023-01-13,新栄ゴム工業株式会社,,株式会社,岐阜県,羽島市,江吉良町字牧野郷中１４４１番地,,21,209,5016236,,,2023-01-13,登記官による閉鎖,,,2015-10-05,1,,,,,,0
1701,5200001014478,登記記録の閉鎖等,0,2023-01-13,2023-01-13,株式会社レチナ,,株式会社,岐阜県,大垣市,郭町１丁目２９番地,,21,202,5030887,,,2023-01-13,登記官による閉鎖,,,2015-10-05,1,,,,,,0
1703,5200002003752,登記記録の閉鎖等,0,2023-01-13,2023-01-13,有限会社春美縫業,,有限会社,岐阜県,岐阜市,岩田坂２丁目１０番１号,,21,201,5013155,,,2023-01-13,登記官による閉鎖,,,2015-10-05,1,,,,,,0
1704,5200002011383,登記記録の閉鎖等,0,2023-01-13,2023-01-13,有限会社リガメントイトウ,,有限会社,岐阜県,羽島郡岐南町,徳田７丁目１３番地,,21,302,5016016,,,2023-01-13,登記官による閉鎖,,,2015-10-05,1,,,,,,0
1705,5200002016795,登記記録の閉鎖等,0,2023-01-13,2023-01-13,有限会社れんたるや,,有限会社,岐阜県,加茂郡七宗町,神渕４４８９番地,,21,504,5090511,,,2023-01-13,登記官による閉鎖,,,2015-10-05,1,,,,,,0
1706,5200002027198,登記記録の閉鎖等,0,2023-01-13,2023-01-13,有限会社おこし農園,,有限会社,岐阜県,下呂市,野尻２７７０番地の６,,21,220,5092313,,,2023-01-13,登記官による閉鎖,,,2015-10-05,1,,,,,,0
1708,5200005003980,登記記録の閉鎖等,0,2023-01-13,2023-01-13,特定非営利活動法人生活支援動物愛護センター,,その他の設立登記法人,岐阜県,岐阜市,鹿島町１丁目４番地２Ｆ,,21,201,5008323,,,2023-01-13,登記官による閉鎖,,,2015-10-05,1,,,,,,0
1711,5200005010291,登記記録の閉鎖等,0,2023-01-13,2023-01-13,農事組合法人高辻和牛組合,00077586,その他の設立登記法人,岐阜県,飛騨市,神岡町下之本３２８番地,,21,217,5061107,,,2023-01-13,登記官による閉鎖,,,2015-10-05,1,,,,,,0
1712,5200005012701,登記記録の閉鎖等,0,2023-01-13,2023-01-13,保証責任千田負債整理組合,,その他の設立登記法人,岐阜県,恵那市,長島町久須見,,21,210,5097206,,,2023-01-13,登記官による閉鎖,,,2017-08-01,1,,,,,,0
1714,5220001014311,登記記録の閉鎖等,0,2023-01-13,2023-01-10,株式会社ＤＥ　ＢＯＵＣＨＥ　Ａ　ＯＲＥＩＬＬＥ,,株式会社,石川県,野々市市,菅原町１４番２２号,,17,212,9218814,,,2023-01-10,清算の結了等,,,2015-10-05,1,,,,,,0
1726,5240001056954,登記記録の閉鎖等,0,2023-01-13,2023-01-06,アグリミライ株式会社,,株式会社,広島県,廿日市市,吉和２７７６番地,,34,213,7380301,,,2023-01-06,合併による解散等,9240003003190,令和５年１月１日広島県廿日市市吉和２７７６番地株式会社アグリード（9240003003190）に合併し解散,2020-11-19,1,,,,,アグリミライ,0
1732,5250001004904,登記記録の閉鎖等,0,2023-01-13,2023-01-06,株式会社フリースタイル,,株式会社,山口県,宇部市,大字際波６６２番地２アドヴァンス際波５０１号,,35,202,7590207,,,2023-01-06,清算の結了等,,,2015-10-05,1,,,,,フリースタイル,0
1733,5260002030460,登記記録の閉鎖等,0,2023-01-13,2023-01-11,有限会社作東石油,,有限会社,岡山県,美作市,土居２６０４番地２,,33,215,7094244,,,2023-01-11,清算の結了等,,,2015-10-05,1,,,,,サクトウセキユ,0
1754,5310005004860,登記記録の閉鎖等,0,2023-01-13,2023-01-11,医療法人おび産婦人科医院,,その他の設立登記法人,長崎県,大村市,本町２２３番地２,,42,205,8560832,,,2023-01-11,清算の結了等,,,2015-10-05,1,,,,,オビサンフジンカイイン,0
1788,5420001007336,登記記録の閉鎖等,0,2023-01-13,2023-01-04,株式会社三戸日産,,株式会社,青森県,三戸郡南部町,大字沖田面字千刈２４番地,,02,445,0390105,,,2023-01-04,合併による解散等,7420001000231,令和５年１月１日青森市大字三内字稲元８６番地青森日産自動車株式会社（7420001000231）に合併し解散,2015-10-05,1,,,,,サンノヘニッサン,0
1789,5420001012633,登記記録の閉鎖等,0,2023-01-13,2023-01-04,株式会社むつ日産,,株式会社,青森県,むつ市,大字田名部字赤川ノ内並木１１０番４,,02,208,0350021,,,2023-01-04,合併による解散等,7420001000231,令和５年１月１日青森市大字三内字稲元８６番地青森日産自動車株式会社（7420001000231）に合併し解散,2015-10-05,1,,,,,ムツニッサン,0
1792,5430001050285,登記記録の閉鎖等,0,2023-01-13,2023-01-04,株式会社ニュー三幸,,株式会社,北海道,小樽市,稲穂１丁目３番６号,,01,203,0470032,,,2023-01-04,合併による解散等,9430001087290,令和５年１月１日札幌市中央区南二条西二丁目７番地１株式会社北海道サッポロライオン（9430001087290）に合併し解散,2015-10-05,1,,,,,ニューサンコウ,0
1793,5430002054780,登記記録の閉鎖等,0,2023-01-13,2023-01-06,有限会社さもんなあれ小樽,00089693,有限会社,北海道,小樽市,桜５丁目２番１２号,,01,203,0470156,,,2023-01-06,清算の結了等,,,2015-10-05,1,,,,,サモンナアレオタル,0
1795,5430003011681,登記記録の閉鎖等,0,2023-01-13,2023-01-04,合同会社なないろ,,合同会社,北海道,伊達市,山下町１６４番地２,,01,233,0520032,,,2023-01-04,清算の結了等,,,2020-06-25,1,,,,,ナナイロ,0
1814,6010001129996,登記記録の閉鎖等,0,2023-01-13,2023-01-04,菱栄サポート株式会社,,株式会社,東京都,千代田区,神田錦町１丁目１３番地宝栄錦町ビル,,13,101,1010054,,,2023-01-04,合併による解散等,1010001032172,令和５年１月１日東京都千代田区神田錦町一丁目１３番地宝栄錦町ビル菱栄株式会社（1010001032172）に合併し解散,2015-10-05,1,,,,,リョウエイサポート,0
1825,6010005025333,登記記録の閉鎖等,0,2023-01-13,2023-01-04,一般社団法人日本医療協会,,その他の設立登記法人,東京都,江東区,門前仲町１丁目６番４号ＳＫビル,,13,108,1350048,,,2023-01-04,清算の結了等,,,2016-05-16,1,,,,,ニホンイリョウキョウカイ,0
1840,6010501029903,登記記録の閉鎖等,0,2023-01-13,2023-01-05,株式会社リトルバード,,株式会社,東京都,渋谷区,代々木２丁目２６番５号バロール代々木２１５号室,,13,113,1510053,,,2023-01-05,清算の結了等,,,2015-10-05,1,,,,,リトルバード,0
1867,6011101035127,登記記録の閉鎖等,0,2023-01-13,2023-01-06,アベ・ホーム株式会社,,株式会社,埼玉県,狭山市,新狭山１丁目１番１１号,,11,215,3501331,,,2023-01-06,合併による解散等,1011101001117,令和５年１月１日東京都新宿区新宿一丁目７番１０号阿部興業株式会社（1011101001117）に合併し解散,2015-10-05,1,,,,,アベホーム,0
1869,6011101079462,登記記録の閉鎖等,0,2023-01-13,2023-01-06,ネイロエージェント株式会社,,株式会社,東京都,新宿区,高田馬場１丁目２９番９号,,13,104,1690075,,,2023-01-06,合併による解散等,4011201014569,令和４年１２月３１日東京都新宿区高田馬場一丁目２９番９号ネイロ株式会社（4011201014569）に合併し解散,2017-02-07,1,,,,,ネイロエージェント,0
1876,6011105009440,登記記録の閉鎖等,0,2023-01-13,2023-01-10,一般社団法人ＤａｙＤｒｅａｍｅｒ,,その他の設立登記法人,東京都,新宿区,新宿２丁目１２番１３号新宿アントレサロンビル２Ｆ,,13,104,1600022,,,2023-01-10,清算の結了等,,,2020-08-07,1,,,,,デイドリーマー,0
1892,6011703001039,登記記録の閉鎖等,0,2023-01-13,2023-01-10,合同会社イーハトーヴォクリエーション,,合同会社,東京都,江戸川区,北小岩４丁目１０番１３号,,13,123,1330051,,,2023-01-10,清算の結了等,,,2015-10-05,1,,,,,イーハトーボクリエーション,0
1898,6013101004771,登記記録の閉鎖等,0,2023-01-13,2023-01-12,株式会社電業社,,株式会社,東京都,羽村市,緑ヶ丘３丁目７番地の１７,,13,227,2050003,,,2023-01-12,登記官による閉鎖,,,2015-10-05,1,,,,,,0
1899,6013102007187,登記記録の閉鎖等,0,2023-01-13,2023-01-12,有限会社オーエムイージャパン,,有限会社,東京都,青梅市,東青梅６丁目３４番地の２,,13,205,1980042,,,2023-01-12,登記官による閉鎖,,,2015-10-05,1,,,,,,0
1900,6013102007476,登記記録の閉鎖等,0,2023-01-13,2023-01-12,有限会社アドバンススタッフサービス,,有限会社,東京都,青梅市,新町４丁目７番地の１０,,13,205,1980024,,,2023-01-12,登記官による閉鎖,,,2015-10-05,1,,,,,,0
1901,6013102007815,登記記録の閉鎖等,0,2023-01-13,2023-01-12,有限会社フラワーチルドレン,,有限会社,東京都,青梅市,師岡町４丁目７番地４０,,13,205,1980031,,,2023-01-12,登記官による閉鎖,,,2015-10-05,1,,,,,,0
1937,6030002065545,登記記録の閉鎖等,0,2023-01-13,2023-01-04,エムケーエンジニアリング有限会社,,有限会社,埼玉県,新座市,畑中２丁目１番２４号,,11,230,3520012,,,2023-01-04,清算の結了等,,,2015-10-05,1,,,,,エムケーエンジニアリング,0
1950,6040005011677,登記記録の閉鎖等,0,2023-01-13,2023-01-04,農事組合法人八日市場植木組合,,その他の設立登記法人,千葉県,匝瑳市,八日市場ハの７９３番地の６,,12,235,2892141,,,2023-01-04,清算の結了等,,,2015-10-05,1,,,,,ヨウカイチバウエキクミアイ,0
1951,6040005020678,登記記録の閉鎖等,0,2023-01-13,2023-01-05,弁護士法人武田総合法律事務所,,その他の設立登記法人,千葉県,千葉市中央区,中央４丁目１３番３１号高嶋ビル４階,,12,101,2600013,,,2023-01-05,清算の結了等,,,2020-01-24,1,,,,,タケダソウゴウホウリツジムショ,0
1959,6050002030002,登記記録の閉鎖等,0,2023-01-13,2022-12-28,有限会社日の出屋,,有限会社,茨城県,鉾田市,滝浜６２１番地７５,,08,234,3111423,,,2022-12-28,清算の結了等,,,2015-10-05,1,,,,,ヒノデヤ,0
1962,6060001031594,登記記録の閉鎖等,0,2023-01-13,2023-01-05,株式会社匠総合技研,,株式会社,栃木県,芳賀郡茂木町,大字山内６０５の２,,09,343,3213701,,,2023-01-05,清算の結了等,,,2019-05-21,1,,,,,タクミソウゴウギケン,0
1966,6070001010291,登記記録の閉鎖等,0,2023-01-13,2022-12-26,株式会社グンチク,,株式会社,群馬県,高崎市,新町２１４９番地１４,,10,202,3701301,,,2022-12-26,清算の結了等,,,2015-10-05,1,,,,,グンチク,0
1982,6110002034599,登記記録の閉鎖等,0,2023-01-13,2023-01-10,有限会社新弘工業,,有限会社,新潟県,佐渡市,原黒７３０番地,,15,224,9520016,,,2023-01-10,清算の結了等,,,2015-10-05,1,,,,,シンコウコウギョウ,0
2041,6180001148022,登記記録の閉鎖等,0,2023-01-13,2023-01-10,株式会社ｊｏｕｒｎｅｙ,,株式会社,愛知県,日進市,赤池２丁目３０６番地２０３,,23,230,4700125,,,2023-01-10,清算の結了等,,,2021-10-04,1,,,,,ジャーニー,0
2057,6200001000031,登記記録の閉鎖等,0,2023-01-13,2023-01-13,株式会社愛岐防音,,株式会社,岐阜県,岐阜市,下奈良３丁目１３番１０号,,21,201,5008385,,,2023-01-13,登記官による閉鎖,,,2015-10-05,1,,,,,,0
2058,6200001000254,登記記録の閉鎖等,0,2023-01-13,2023-01-13,株式会社アピスファーム,,株式会社,岐阜県,岐阜市,長良校前町１丁目５番地,,21,201,5020045,,,2023-01-13,登記官による閉鎖,,,2015-10-05,1,,,,,,0
2059,6200001006128,登記記録の閉鎖等,0,2023-01-13,2023-01-13,株式会社マツダアンフィニ岐阜,,株式会社,岐阜県,岐阜市,市橋２丁目６番１６号,,21,201,5008381,,,2023-01-13,登記官による閉鎖,,,2015-10-05,1,,,,,,0
2060,6200001006152,登記記録の閉鎖等,0,2023-01-13,2023-01-13,株式会社フォード新岐阜,,株式会社,岐阜県,岐阜市,市橋２丁目６番１６号,,21,201,5008381,,,2023-01-13,登記官による閉鎖,,,2016-02-26,1,,,,,,0
2061,6200001011929,登記記録の閉鎖等,0,2023-01-13,2023-01-13,株式会社オートザム岐阜,,株式会社,岐阜県,羽島郡岐南町,上印食７丁目１６１番地,,21,302,5016001,,,2023-01-13,登記官による閉鎖,,,2015-10-05,1,,,,,,0
2062,6200001016903,登記記録の閉鎖等,0,2023-01-13,2023-01-13,株式会社サンコー,,株式会社,岐阜県,安八郡神戸町,大字南方４３７番地の１,,21,381,5032328,,,2023-01-13,登記官による閉鎖,,,2015-10-05,1,,,,,,0
2064,6200002001524,登記記録の閉鎖等,0,2023-01-13,2023-01-13,有限会社熊田たんす店,,有限会社,岐阜県,岐阜市,長旗町２丁目２番地,,21,201,5008177,,,2023-01-13,登記官による閉鎖,,,2015-10-05,1,,,,,,0
2065,6200002004056,登記記録の閉鎖等,0,2023-01-13,2023-01-13,有限会社プライム,,有限会社,岐阜県,岐阜市,鷺山北町１番８号,,21,201,5020872,,,2023-01-13,登記官による閉鎖,,,2015-10-05,1,,,,,,0
2067,6200002015788,登記記録の閉鎖等,0,2023-01-13,2023-01-13,有限会社リオン,,有限会社,岐阜県,揖斐郡大野町,大字西方９３４番地,,21,403,5010514,,,2023-01-13,登記官による閉鎖,,,2015-10-05,1,,,,,,0
2068,6200002017058,登記記録の閉鎖等,0,2023-01-13,2023-01-13,有限会社城嶋庭園,,有限会社,岐阜県,可児市,東帷子１６６３番地,,21,214,5090256,,,2023-01-13,登記官による閉鎖,,,2015-10-05,1,,,,,,0
2070,6200005001331,登記記録の閉鎖等,0,2023-01-13,2023-01-13,岐阜サービス総合企業組合,,その他の設立登記法人,岐阜県,岐阜市,栄新町２丁目３０番地,,21,201,5020849,,,2023-01-13,登記官による閉鎖,,,2015-10-05,1,,,,,,0
2071,6200005004235,登記記録の閉鎖等,0,2023-01-13,2023-01-13,農事組合法人大垣洋蘭協同組合,,その他の設立登記法人,岐阜県,大垣市,古宮町字丸池７９番地,,21,202,5030848,,,2023-01-13,登記官による閉鎖,,,2015-10-05,1,,,,,,0
2073,6200005006941,登記記録の閉鎖等,0,2023-01-13,2022-12-23,天理教美保分教会,,その他の設立登記法人,岐阜県,可児市,土田５２４４番地,,21,214,5090206,,,2022-12-23,合併による解散等,5200005006752,令和４年１２月２３日岐阜県加茂郡川辺町福島３２５番地の３天理教上米田分教会（5200005006752）に合併し解散,2015-10-05,1,,,,,,0
2074,6200005009291,登記記録の閉鎖等,0,2023-01-13,2023-01-13,農事組合法人大杉肉牛生産組合,,その他の設立登記法人,岐阜県,中津川市,加子母６６０番地,,21,206,5080421,,,2023-01-13,登記官による閉鎖,,,2015-10-05,1,,,,,,0
2075,6200005009498,登記記録の閉鎖等,0,2023-01-13,2023-01-13,職業訓練法人木匠塾職業訓練協会,,その他の設立登記法人,岐阜県,中津川市,千旦林１４１７番地２６,,21,206,5099131,,,2023-01-13,登記官による閉鎖,,,2015-10-05,1,,,,,,0
2076,6200005010290,登記記録の閉鎖等,0,2023-01-13,2023-01-13,農事組合法人城山養鶏団地,,その他の設立登記法人,岐阜県,飛騨市,古川町本町２番２２号,,21,217,5094232,,,2023-01-13,登記官による閉鎖,,,2015-10-05,1,,,,,,0
2088,6240002003772,登記記録の閉鎖等,0,2023-01-13,2023-01-11,有限会社梶岡建設,,有限会社,広島県,広島市安芸区,矢野東７丁目２番２１号,,34,107,7360083,,,2023-01-11,清算の結了等,,,2015-10-05,1,,,,,カジオカケンセツ,0
2107,6290005004409,登記記録の閉鎖等,0,2023-01-13,2023-01-11,医療法人竹田内科医院,,その他の設立登記法人,福岡県,福岡市博多区,住吉３丁目１番１８号福岡都心共同住宅１Ｆ,,40,132,8120018,,,2023-01-11,清算の結了等,,,2015-10-05,1,,,,,タケダナイカイイン,0
2123,6360001023289,登記記録の閉鎖等,0,2023-01-13,2022-12-23,株式会社ルネサンスコーポレーション,,株式会社,沖縄県,那覇市,港町２丁目２番９号、２０１号,,47,201,9000001,,,2022-12-23,合併による解散等,8360001020053,令和４年１２月１日沖縄県那覇市港町二丁目２番９号、２０１号株式会社ルネサンス（8360001020053）に合併し解散,2017-12-19,1,,,,,ルネサンスコーポレーション,0
2139,6400001006140,登記記録の閉鎖等,0,2023-01-13,2023-01-04,高昌モーター株式会社,,株式会社,岩手県,北上市,大通り４丁目９番３号,,03,206,0240061,,,2023-01-04,清算の結了等,,,2015-10-05,1,,,,,タカショウモーター,0
2142,6420001011989,登記記録の閉鎖等,0,2023-01-13,2023-01-04,株式会社十和田東日産,,株式会社,青森県,十和田市,東三番町３９番２８号,,02,206,0340031,,,2023-01-04,合併による解散等,7420001000231,令和５年１月１日青森市大字三内字稲元８６番地青森日産自動車株式会社（7420001000231）に合併し解散,2015-10-05,1,,,,,トワダヒガシニッサン,0
2153,6460003000730,登記記録の閉鎖等,0,2023-01-13,2023-01-10,合同会社Ｈ．Ｃ．Ｒ,,合同会社,北海道,厚岸郡浜中町,浜中東２線４２番地２,,01,663,0881485,,,2023-01-10,清算の結了等,,,2018-04-06,1,,,,,エイチシーアール,0
2189,7010401111917,登記記録の閉鎖等,0,2023-01-13,2022-12-14,株式会社Ｔｏｋｙｏｇａｍｉｎｇ,,株式会社,東京都,港区,浜松町２丁目２番１５号浜松町ダイヤビル２Ｆ,,13,103,1050013,,,2022-12-14,清算の結了等,,,2015-10-05,1,,,,,トウキョウゲーミング,0
2191,7010401155963,登記記録の閉鎖等,0,2023-01-13,2022-12-21,エイチ株式会社,,株式会社,東京都,港区,海岸３丁目８番９号ＫＡＭＯＭＥ８０３,,13,103,1080022,,,2022-12-21,清算の結了等,,,2020-10-20,1,,,,,エイチ,0
2219,7010902006921,登記記録の閉鎖等,0,2023-01-13,2023-01-06,有限会社沢塾,,有限会社,東京都,世田谷区,南烏山４丁目１８番１０号,,13,112,1570062,,,2023-01-06,清算の結了等,,,2015-10-05,1,,,,,サワジュク,0
2241,7011302008756,登記記録の閉鎖等,0,2023-01-13,2023-01-10,有限会社松本クリーニング商会,,有限会社,東京都,杉並区,成田西１丁目１５番４号,,13,115,1660016,,,2023-01-10,清算の結了等,,,2015-10-05,1,,,,,マツモトクリーニングショウカイ,0
2243,7011601001429,登記記録の閉鎖等,0,2023-01-13,2022-12-28,春日商事株式会社,,株式会社,東京都,練馬区,豊玉南３丁目２４番１８号,,13,120,1760014,,,2022-12-28,合併による解散等,5011601002271,令和４年１２月２８日東京都練馬区豊玉南三丁目２４番１８号国産自動車交通株式会社（5011601002271）に合併し解散,2015-10-05,1,,,,,カスガショウジ,0
2246,7011703002127,登記記録の閉鎖等,0,2023-01-13,2023-01-10,Ｓｕｃｃｅｓｓ　Ｉｎｔｅｒｎａｔｉｏｎａｌ合同会社,,合同会社,東京都,豊島区,北大塚３丁目２７番１２号アクアビル１Ｆ,,13,116,1700004,,,2023-01-10,清算の結了等,,,2018-11-01,1,,,,,サクセスインターナショナル,0
2258,7012701008768,登記記録の閉鎖等,0,2023-01-13,2023-01-11,ＪＥＮＳ株式会社,,株式会社,東京都,東久留米市,滝山３丁目１番７－１０４号,,13,222,2030033,,,2023-01-11,清算の結了等,,,2015-10-05,1,,,,,ジェンズ,0
2262,7013101006230,登記記録の閉鎖等,0,2023-01-13,2023-01-12,株式会社コダマホーム,,株式会社,東京都,あきる野市,菅生１７９番地,,13,228,1970801,,,2023-01-12,登記官による閉鎖,,,2015-10-05,1,,,,,,0
2264,7013102005792,登記記録の閉鎖等,0,2023-01-13,2023-01-12,有限会社青梅アルミ,,有限会社,東京都,青梅市,新町１丁目４３番地の６,,13,205,1980024,,,2023-01-12,登記官による閉鎖,,,2015-10-05,1,,,,,,0
2265,7013102007161,登記記録の閉鎖等,0,2023-01-13,2023-01-12,有限会社伽羅企画,,有限会社,東京都,福生市,大字福生字奈賀８８０番地,,13,218,1970011,,,2023-01-12,登記官による閉鎖,,,2015-10-05,1,,,,,,0
2268,7013301029642,登記記録の閉鎖等,0,2023-01-13,2023-01-11,株式会社シークベスト,,株式会社,東京都,世田谷区,野毛３丁目８番５号,,13,112,1580092,,,2023-01-11,合併による解散等,7013301030344,令和５年１月１日東京都新宿区西新宿六丁目２４番１号エヌアイシィ株式会社（7013301030344）に合併し解散,2015-10-05,1,,,,,シークベスト,0
2273,7020001013455,登記記録の閉鎖等,0,2023-01-13,2023-01-06,株式会社なかてつ,,株式会社,神奈川県,横浜市磯子区,磯子３丁目９番１３号,,14,107,2350016,,,2023-01-06,清算の結了等,,,2015-10-05,1,,,,,ナカテツ,0
2285,7020003020318,登記記録の閉鎖等,0,2023-01-13,2022-12-14,ＦＯＯＤＰＬＵＳ合同会社,,合同会社,神奈川県,川崎市川崎区,四谷下町８番１３号,,14,131,2100827,,,2022-12-14,清算の結了等,,,2021-08-13,1,,,,,フードプラス,0
2299,7021005011107,登記記録の閉鎖等,0,2023-01-13,2022-12-27,一般社団法人日本ネッシン協会,,その他の設立登記法人,神奈川県,藤沢市,本藤沢３丁目１３番８号,,14,205,2510875,,,2022-12-27,清算の結了等,,,2017-10-04,1,,,,,ニホンネッシンキョウカイ,0
2300,7030001039912,登記記録の閉鎖等,0,2023-01-13,2023-01-10,株式会社ランイング,,株式会社,埼玉県,草加市,青柳２丁目６番９号,,11,221,3400002,,,2023-01-10,清算の結了等,,,2015-10-05,1,,,,,ランイング,0
2301,7030001067525,登記記録の閉鎖等,0,2023-01-13,2023-01-06,株式会社ジオテック,,株式会社,埼玉県,越谷市,大字大里４７１番地５,,11,222,3430031,,,2023-01-06,清算の結了等,,,2015-10-05,1,,,,,ジオテック,0
2308,7030002111348,登記記録の閉鎖等,0,2023-01-13,2023-01-06,有限会社マサキ精工,,有限会社,埼玉県,川口市,大字赤山１４１番地,,11,203,3330825,,,2023-01-06,清算の結了等,,,2015-10-05,1,,,,,マサキセイコウ,0
2316,7040001116529,登記記録の閉鎖等,0,2023-01-13,2023-01-10,株式会社ＮＯＷイノベーション,,株式会社,千葉県,千葉市若葉区,殿台町１１６番地２アラモードパレス３０３,,12,104,2640036,,,2023-01-10,清算の結了等,,,2021-01-04,1,,,,,ナウイノベーション,0
2329,7050002035891,登記記録の閉鎖等,0,2023-01-13,2022-12-26,有限会社大久保観光バス,,有限会社,茨城県,久慈郡大子町,大字大子７４２番地の３,,08,364,3193526,,,2022-12-26,清算の結了等,,,2015-10-05,1,,,,,オオクボカンコウバス,0
2335,7060002037854,登記記録の閉鎖等,0,2023-01-13,2023-01-05,有限会社エステートビジョン,,有限会社,栃木県,足利市,松田町１８８番地１,,09,202,3260101,,,2023-01-05,清算の結了等,,,2015-10-05,1,,,,,エステートビジョン,0
2339,7100002019063,登記記録の閉鎖等,0,2023-01-13,2023-01-10,有限会社浅川電業,,有限会社,長野県,松本市,寿中１丁目８番１号,,20,202,3990026,,,2023-01-10,清算の結了等,,,2015-10-05,1,,,,,アサカワデンギョウ,0
2342,7100005009202,登記記録の閉鎖等,0,2023-01-13,2023-01-06,特定非営利活動法人ふるさとづくり・やらまいか,,その他の設立登記法人,長野県,上伊那郡中川村,大草３９５０番地,,20,386,3993801,,,2023-01-06,清算の結了等,,,2015-10-05,1,,,,,フルサトヅクリヤラマイカ,0
2343,7110001010237,登記記録の閉鎖等,0,2023-01-13,2023-01-04,佐渡汽船商事株式会社,,株式会社,新潟県,新潟市中央区,万代島９番１号,,15,103,9500078,,,2023-01-04,合併による解散等,2110001027748,令和５年１月１日新潟県佐渡市両津湊３５３番地佐渡汽船株式会社（2110001027748）に合併し解散,2015-10-05,1,,,,,サドキセンショウジ,0
2363,7120105008531,登記記録の閉鎖等,0,2023-01-13,2023-01-12,特定非営利活動法人つどい,,その他の設立登記法人,大阪府,富田林市,甲田２丁目２０－７,,27,214,5840036,,,2023-01-12,清算の結了等,,,2016-07-11,1,,,,,ツドイ,0
2399,7180001071685,登記記録の閉鎖等,0,2023-01-13,2023-01-06,株式会社アロハコーポレーション,,株式会社,愛知県,名古屋市東区,泉１丁目１８番３０号,,23,102,4610001,,,2023-01-06,清算の結了等,,,2015-10-05,1,,,,,アロハコーポレーション,0
2400,7180001090990,登記記録の閉鎖等,0,2023-01-13,2022-12-28,ケンドリーム株式会社,,株式会社,愛知県,豊田市,大林町１３丁目１０番地１８,,23,211,4730902,,,2022-12-28,清算の結了等,,,2015-10-05,1,,,,,ケンドリーム,0
2401,7180001099909,登記記録の閉鎖等,0,2023-01-13,2023-01-04,株式会社ＭＭＣ,,株式会社,愛知県,名古屋市千種区,千種３丁目３５番１０号,,23,101,4640858,,,2023-01-04,合併による解散等,3180001104432,令和５年１月１日愛知県小牧市大字河内屋新田上岩倉杁６３０番地株式会社愛知ハム販売（3180001104432）に合併し解散,2015-10-05,1,,,,,エムエムシー,0
2419,7200001007389,登記記録の閉鎖等,0,2023-01-13,2023-01-13,株式会社丹羽建設,,株式会社,岐阜県,各務原市,前渡東町１丁目１４８番地,,21,213,5040922,,,2023-01-13,登記官による閉鎖,,,2015-10-05,1,,,,,,0
2420,7200001011928,登記記録の閉鎖等,0,2023-01-13,2023-01-13,株式会社ユーノス岐阜,,株式会社,岐阜県,羽島郡岐南町,上印食７丁目１６１番地,,21,302,5016001,,,2023-01-13,登記官による閉鎖,,,2015-10-05,1,,,,,,0
2421,7200001015680,登記記録の閉鎖等,0,2023-01-13,2023-01-13,株式会社種譽,,株式会社,岐阜県,大垣市,久瀬川町１丁目８番地,,21,202,5030974,,,2023-01-13,登記官による閉鎖,,,2017-09-29,1,,,,,,0
2423,7200002010020,登記記録の閉鎖等,0,2023-01-13,2023-01-13,有限会社五洋建設,,有限会社,岐阜県,本巣郡北方町,曲路２丁目６１番地の４,,21,421,5010441,,,2023-01-13,登記官による閉鎖,,,2015-10-05,1,,,,,,0
2424,7200002011159,登記記録の閉鎖等,0,2023-01-13,2023-01-13,有限会社ファッションプレス水谷,,有限会社,岐阜県,羽島市,正木町三ツ柳１３４番地,,21,209,5016226,,,2023-01-13,登記官による閉鎖,,,2015-10-05,1,,,,,,0
2425,7200002018955,登記記録の閉鎖等,0,2023-01-13,2023-01-13,有限会社年広,,有限会社,岐阜県,関市,本町２丁目１５番地,,21,205,5013886,,,2023-01-13,登記官による閉鎖,,,2015-10-05,1,,,,,,0
2426,7200002020317,登記記録の閉鎖等,0,2023-01-13,2023-01-13,有限会社スクープ,,有限会社,岐阜県,多治見市,宝町７丁目５４番地,,21,204,5070054,,,2023-01-13,登記官による閉鎖,,,2015-10-05,1,,,,,,0
2427,7200003002413,登記記録の閉鎖等,0,2023-01-13,2023-01-13,合同会社ナインクリエーション,,合同会社,岐阜県,多治見市,旭ケ丘１０丁目６番地の４３,,21,204,5070071,,,2023-01-13,登記官による閉鎖,,,2015-10-05,1,,,,,,0
2428,7200005008862,登記記録の閉鎖等,0,2023-01-13,2023-01-13,特定非営利活動法人ＩＴアシスト桔梗,,その他の設立登記法人,岐阜県,多治見市,滝呂町１１丁目５５番地の９,,21,204,5070813,,,2023-01-13,登記官による閉鎖,,,2015-10-05,1,,,,,,0
2473,7330005009311,登記記録の閉鎖等,0,2023-01-13,2023-01-11,特定非営利活動法人エルヴェ,,その他の設立登記法人,熊本県,熊本市西区,小島８丁目９番１３号城西ハイツ１０３号,,43,103,8615287,,,2023-01-11,清算の結了等,,,2015-10-05,1,,,,,エルヴェ,0
2484,7380001012017,登記記録の閉鎖等,0,2023-01-13,2023-01-10,ＤＩＣインテリア株式会社,,株式会社,埼玉県,桶川市,赤堀２丁目２０番,,11,231,3630002,,,2023-01-10,合併による解散等,4030001042852,令和５年１月１日埼玉県桶川市赤堀二丁目２０番ＤＩＣデコール株式会社（4030001042852）に合併し解散,2015-10-05,1,,,,,ディーアイシーインテリア,0
2485,7380002000879,登記記録の閉鎖等,0,2023-01-13,2023-01-06,叶商事有限会社,,有限会社,福島県,福島市,森合字台８番地の２,,07,201,9608003,,,2023-01-06,清算の結了等,,,2015-10-05,1,,,,,カノウショウジ,0
2486,7380005003078,登記記録の閉鎖等,0,2023-01-13,2023-01-04,天理教三本松分教会,,その他の設立登記法人,福島県,郡山市,富久山町久保田字三ツ御堂１１４番地の４,,07,203,9638071,,,2023-01-04,合併による解散等,9060005005039,令和４年１２月２２日栃木県小山市城山町一丁目６番３号天理教中根大教会（9060005005039）に合併し解散,2015-10-05,1,,,,,テンリキョウサンボンマツブンキョウカイ,0
2495,7430002062195,登記記録の閉鎖等,0,2023-01-13,2023-01-04,有限会社天野工務店,,有限会社,北海道,浦河郡浦河町,大通５丁目８９番地の１,,01,607,0570013,,,2023-01-04,清算の結了等,,,2015-10-05,1,,,,,アマノコウムテン,0
2513,8010001013892,登記記録の閉鎖等,0,2023-01-13,2022-12-28,株式会社春日,,株式会社,東京都,練馬区,豊玉南３丁目２４番１８号,,13,120,1760014,,,2022-12-28,合併による解散等,5011601002271,令和４年１２月２８日東京都練馬区豊玉南三丁目２４番１８号国産自動車交通株式会社（5011601002271）に合併し解散,2015-10-05,1,,,,,カスガ,0
2515,8010001090395,登記記録の閉鎖等,0,2023-01-13,2023-01-04,株式会社スタイルクリエーションズ,,株式会社,東京都,中央区,銀座７丁目８番１７号虎屋銀座ビル３階,,13,102,1040061,,,2023-01-04,清算の結了等,,,2015-10-05,1,,,,,,0
2533,8010005031651,登記記録の閉鎖等,0,2023-01-13,2023-01-10,一般社団法人ＴＴ,,その他の設立登記法人,東京都,千代田区,神田神保町１丁目１１番地さくら綜合事務所内,,13,101,1010051,,,2023-01-10,清算の結了等,,,2020-04-02,1,,,,,ティーティー,0
2536,8010401044967,登記記録の閉鎖等,0,2023-01-13,2022-12-21,大市土地株式会社,,株式会社,東京都,港区,赤坂８丁目６番３１－３０５号,,13,103,1070052,,,2022-12-21,清算の結了等,,,2022-10-20,1,,,,,ダイイチトチ,0
2537,8010401061582,登記記録の閉鎖等,0,2023-01-13,2022-12-23,株式会社アーク,,株式会社,東京都,港区,三田１丁目１１番７号,,13,103,1080073,,,2022-12-23,清算の結了等,,,2015-10-05,1,,,,,アーク,0
2542,8010403008029,登記記録の閉鎖等,0,2023-01-13,2023-01-06,合同会社Ｓ・Ｎ・Ｐ,,合同会社,広島県,豊田郡大崎上島町,大串字西崎３１３７番地５,,34,431,7250303,,,2023-01-06,清算の結了等,,,2015-10-05,1,,,,,エスエヌピー,0
2579,8011201020761,登記記録の閉鎖等,0,2023-01-13,2023-01-10,株式会社リープスイン,,株式会社,東京都,中野区,中野４丁目１０番２号,,13,114,1640001,,,2023-01-10,清算の結了等,,,2018-07-24,1,,,,,リープスイン,0
2583,8011302010471,登記記録の閉鎖等,0,2023-01-13,2022-12-28,有限会社ひまわり,,有限会社,東京都,杉並区,高井戸東３丁目３番１５－２１２号,,13,115,1680072,,,2022-12-28,清算の結了等,,,2015-10-05,1,,,,,ヒマワリ,0
2588,8011401005439,登記記録の閉鎖等,0,2023-01-13,2023-01-11,株式会社アリオス,,株式会社,東京都,板橋区,常盤台３丁目２０番７号,,13,119,1740071,,,2023-01-11,合併による解散等,6010901013861,令和５年１月１日東京都世田谷区船橋六丁目６番１０号株式会社東京ファシリティサービス（6010901013861）に合併し解散,2015-10-05,1,,,,,,0
2595,8012401022052,登記記録の閉鎖等,0,2023-01-13,2023-01-06,株式会社恵設,,株式会社,東京都,調布市,染地２丁目３５,,13,208,1820023,,,2023-01-06,清算の結了等,,,2015-10-05,1,,,,,ケイセツ,0
2599,8013102001477,登記記録の閉鎖等,0,2023-01-13,2023-01-12,有限会社ヘアーサロントキ,,有限会社,東京都,羽村市,緑ヶ丘２丁目１８番地の６,,13,227,2050003,,,2023-01-12,登記官による閉鎖,,,2015-10-05,1,,,,,,0
2600,8013102002351,登記記録の閉鎖等,0,2023-01-13,2023-01-12,有限会社船津薬局,,有限会社,東京都,あきる野市,小川東２丁目１０番地２,,13,228,1970822,,,2023-01-12,登記官による閉鎖,,,2015-10-05,1,,,,,,0
2609,8020001102554,登記記録の閉鎖等,0,2023-01-13,2023-01-05,株式会社福島周デザイン室,,株式会社,神奈川県,川崎市多摩区,菅仙谷３丁目１番２６－４０１号,,14,135,2140006,,,2023-01-05,清算の結了等,,,2015-10-05,1,,,,,フクシマシュウデザインシツ,0
2623,8021001057367,登記記録の閉鎖等,0,2023-01-13,2023-01-06,株式会社井上工房,,株式会社,神奈川県,藤沢市,長後６９３番地の９,,14,205,2520801,,,2023-01-06,清算の結了等,,,2015-10-05,1,,,,,,0
2648,8030002072688,登記記録の閉鎖等,0,2023-01-13,2023-01-05,有限会社リフレ・オザワ,,有限会社,埼玉県,川越市,大字小室５６０番地の１,,11,201,3501106,,,2023-01-05,清算の結了等,,,2015-10-05,1,,,,,リフレオザワ,0
2650,8030003010317,登記記録の閉鎖等,0,2023-01-13,2023-01-06,合同会社シャインパシフィカ,,合同会社,埼玉県,大里郡寄居町,大字金尾４３１番地２,,11,408,3691236,,,2023-01-06,清算の結了等,,,2017-05-23,1,,,,,シャインパシフィカ,0
2653,8040001034085,登記記録の閉鎖等,0,2023-01-13,2022-12-21,株式会社Ｋファニチャーアンドメディカル,,株式会社,千葉県,浦安市,猫実５丁目１７番２３号,,12,227,2790004,,,2022-12-21,清算の結了等,,,2015-10-05,1,,,,,ケーファニチャーアンドメディカル,0
2694,8110001010070,登記記録の閉鎖等,0,2023-01-13,2023-01-04,佐渡汽船シップマネジメント株式会社,,株式会社,新潟県,新潟市中央区,万代島９番１号,,15,103,9500078,,,2023-01-04,合併による解散等,2110001027748,令和５年１月１日新潟県佐渡市両津湊３５３番地佐渡汽船株式会社（2110001027748）に合併し解散,2015-10-05,1,,,,,サドキセンシップマネジメント,0
2698,8120001045603,登記記録の閉鎖等,0,2023-01-13,2023-01-11,株式会社デイシ但馬,,株式会社,大阪府,大阪市西区,新町１丁目２２番２２号,,27,106,5500013,,,2023-01-11,清算の結了等,,,2015-10-05,1,,,,,デイシタジマ,0
2699,8120001094501,登記記録の閉鎖等,0,2023-01-13,2023-01-11,株式会社翔泳社アカデミー,,株式会社,大阪府,大阪市西区,新町１丁目４番２６号,,27,106,5500013,,,2023-01-11,合併による解散等,6011101043229,令和５年１月１日東京都新宿区舟町５株式会社翔泳社（6011101043229）に合併し解散,2015-10-05,1,,,,,ショウエイシャアカデミー,0
2721,8130002006537,登記記録の閉鎖等,0,2023-01-13,2023-01-06,有限会社京都パーキングサービス,,有限会社,京都府,京都市左京区,岩倉大鷺町鴨合木４２２番地,,26,103,6060001,,,2023-01-06,清算の結了等,,,2015-10-05,1,,,,,キョウトパーキングサービス,0
2723,8140001042508,登記記録の閉鎖等,0,2023-01-13,2023-01-10,株式会社岩崎商店,,株式会社,兵庫県,加古川市,加古川町溝之口７２０番地,,28,210,6750064,,,2023-01-10,清算の結了等,,,2015-10-05,1,,,,,イワサキショウテン,0
2743,8180001064110,登記記録の閉鎖等,0,2023-01-13,2023-01-06,株式会社エージー・フラワー,,株式会社,愛知県,名古屋市中区,栄３丁目１３番６号,,23,106,4600008,,,2023-01-06,清算の結了等,,,2015-10-05,1,,,,,エージーフラワー,0
2756,8180301005350,登記記録の閉鎖等,0,2023-01-13,2022-12-28,開発ビル管理株式会社,,株式会社,愛知県,豊橋市,駅前大通２丁目３３番地の１,,23,201,4400888,,,2022-12-28,清算の結了等,,,2015-10-05,1,,,,,カイハツビルカンリ,0
2757,8180301011984,登記記録の閉鎖等,0,2023-01-13,2022-12-28,株式会社まちびと社,,株式会社,愛知県,豊川市,豊川町伊呂通２７番地２,,23,207,4420033,,,2022-12-28,清算の結了等,,,2015-10-05,1,,,,,マチビトシャ,0
2763,8200001000252,登記記録の閉鎖等,0,2023-01-13,2023-01-13,株式会社アピス研究所,,株式会社,岐阜県,岐阜市,長良校前町１丁目５番地,,21,201,5020045,,,2023-01-13,登記官による閉鎖,,,2015-10-05,1,,,,,,0
2764,8200001010722,登記記録の閉鎖等,0,2023-01-13,2023-01-13,株式会社アヒアン,,株式会社,岐阜県,羽島郡笠松町,無動寺３０番地の２,,21,303,5016033,,,2023-01-13,登記官による閉鎖,,,2015-10-05,1,,,,,,0
2765,8200001011927,登記記録の閉鎖等,0,2023-01-13,2023-01-13,岐阜トーヨーリース株式会社,,株式会社,岐阜県,羽島郡岐南町,上印食７丁目１６１番地,,21,302,5016001,,,2023-01-13,登記官による閉鎖,,,2015-10-05,1,,,,,,0
2766,8200002016149,登記記録の閉鎖等,0,2023-01-13,2023-01-13,有限会社東海マシン工業,,有限会社,岐阜県,美濃加茂市,牧野２４２９番地３,,21,211,5050016,,,2023-01-13,登記官による閉鎖,,,2015-10-05,1,,,,,,0
2767,8200002017270,登記記録の閉鎖等,0,2023-01-13,2023-01-13,有限会社平安,,有限会社,岐阜県,可児市,下恵土５５４４番地,,21,214,5090203,,,2023-01-13,登記官による閉鎖,,,2015-10-05,1,,,,,,0
2769,8200003001018,登記記録の閉鎖等,0,2023-01-13,2023-01-13,アール・エス・プリティ合資会社,,合資会社,岐阜県,岐阜市,津島町１丁目１４番地,,21,201,5020846,,,2023-01-13,登記官による閉鎖,,,2015-10-05,1,,,,,,0
2770,8200005001932,登記記録の閉鎖等,0,2023-01-13,2023-01-13,サンワーク協同組合,,その他の設立登記法人,岐阜県,岐阜市,茶屋新田６０６番地１,,21,201,5016135,,,2023-01-13,登記官による閉鎖,,,2015-10-05,1,,,,,,0
2771,8200005010743,登記記録の閉鎖等,0,2023-01-13,2023-01-13,農事組合法人もりたけ,,その他の設立登記法人,岐阜県,高山市,丹生川町新張４５４番地,,21,203,5062124,,,2023-01-13,登記官による閉鎖,,,2015-10-05,1,,,,,,0
2773,8220001002049,登記記録の閉鎖等,0,2023-01-13,2023-01-11,金沢コンクリート工業株式会社,,株式会社,石川県,金沢市,元町２丁目３番１０号,,17,201,9200842,,,2023-01-11,清算の結了等,,,2015-10-05,1,,,,,カナザワコンクリートコウギョウ,0
2788,8320001009538,登記記録の閉鎖等,0,2023-01-13,2023-01-10,国広機工株式会社,,株式会社,大分県,竹田市,大字君ケ園５８９番地１,,44,208,8780023,,,2023-01-10,合併による解散等,1500001007653,令和５年１月１日愛媛県大洲市冨士２７１番地５株式会社大井産業（1500001007653）に合併し解散,2015-10-05,1,,,,,クニヒロキコウ,0
2823,8430005000548,登記記録の閉鎖等,0,2023-01-13,2023-01-04,社会福祉法人光華福祉会,,その他の設立登記法人,北海道,札幌市南区,南三十条西８丁目８番５号,,01,106,0050030,,,2023-01-04,合併による解散等,5430005011770,令和５年１月４日札幌市北区新琴似十二条十丁目３番１７号社会福祉法人幌北学園（5430005011770）に合併し解散,2015-10-05,1,,,,,コウカフクシカイ,0
2868,9010901039383,登記記録の閉鎖等,0,2023-01-13,2023-01-06,株式会社牙オフィス,,株式会社,東京都,世田谷区,世田谷１丁目８番７号,,13,112,1540017,,,2023-01-06,清算の結了等,,,2017-01-18,1,,,,,キバオフィス,0
2879,9011001120513,登記記録の閉鎖等,0,2023-01-13,2023-01-04,株式会社ＬＤＨ　Ｏ,,株式会社,東京都,目黒区,東山１丁目２番２号,,13,110,1530043,,,2023-01-04,合併による解散等,6013201010538,令和４年１２月３１日東京都目黒区東山一丁目２番２号株式会社ＬＤＨ　ＪＡＰＡＮ（6013201010538）に合併し解散,2018-02-08,1,,,,,エルディーエイチオー,0
2908,9011802003833,登記記録の閉鎖等,0,2023-01-13,2023-01-10,有限会社島村造花,,有限会社,東京都,葛飾区,金町３丁目１４番１１号,,13,122,1250042,,,2023-01-10,清算の結了等,,,2015-10-05,1,,,,,シマムラゾウカ,0
2913,9013101000677,登記記録の閉鎖等,0,2023-01-13,2023-01-12,株式会社電業ホールディング,,株式会社,東京都,羽村市,緑ヶ丘３丁目７番地の１７,,13,227,2050003,,,2023-01-12,登記官による閉鎖,,,2015-10-05,1,,,,,,0
2914,9013102002326,登記記録の閉鎖等,0,2023-01-13,2023-01-12,有限会社広生工業,,有限会社,東京都,あきる野市,菅生１７８４番地,,13,228,1970801,,,2023-01-12,登記官による閉鎖,,,2015-10-05,1,,,,,,0
2922,9020001100177,登記記録の閉鎖等,0,2023-01-13,2023-01-06,株式会社ＫＭ,,株式会社,神奈川県,横浜市都筑区,すみれが丘２４番地の６,,14,118,2240013,,,2023-01-06,清算の結了等,,,2015-10-05,1,,,,,ケーエム,0
2956,9030002098344,登記記録の閉鎖等,0,2023-01-13,2023-01-05,有限会社ロータスフォト,,有限会社,埼玉県,東松山市,箭弓町１丁目５番７号,00017512,11,212,3550028,,,2023-01-05,合併による解散等,9030001070907,令和４年１２月３１日埼玉県東松山市箭弓町一丁目５番７号株式会社大正堂写真（9030001070907）に合併し解散,2015-10-05,1,,,,,ロータスフォト,0
2958,9030005020131,登記記録の閉鎖等,0,2023-01-13,2022-12-26,稲荷社,,その他の設立登記法人,埼玉県,久喜市,大字吉羽１５６２番地,,11,232,3460014,,,2022-12-26,合併による解散等,6030005004442,令和４年１２月２６日埼玉県久喜市吉羽一丁目３１番地２６千勝神社（6030005004442）に合併し解散,2020-11-18,1,,,,,イナリシャ,0
2960,9040001071680,登記記録の閉鎖等,0,2023-01-13,2023-01-05,東海工業株式会社,,株式会社,千葉県,野田市,東宝珠花３０９番地,,12,208,2700226,,,2023-01-05,清算の結了等,,,2015-10-05,1,,,,,トウカイコウギョウ,0
2970,9040002057910,登記記録の閉鎖等,0,2023-01-13,2023-01-05,有限会社水戸屋,,有限会社,千葉県,白井市,白井４１０番地,,12,232,2701421,,,2023-01-05,清算の結了等,,,2015-10-05,1,,,,,ミトヤ,0
2981,9050005000057,登記記録の閉鎖等,0,2023-01-13,2023-01-05,医療法人善光会,,その他の設立登記法人,茨城県,水戸市,小吹町２２８４番地７,,08,201,3100914,,,2023-01-05,清算の結了等,,,2015-10-05,1,,,,,ゼンコウカイ,0
2999,9100001014162,登記記録の閉鎖等,0,2023-01-13,2023-01-06,松島電気工事株式会社,,株式会社,長野県,松本市,南原１丁目２番５号,,20,202,3900846,,,2023-01-06,合併による解散等,1100001014129,令和５年１月６日長野県松本市本庄一丁目１番１３号株式会社ウィルトス（1100001014129）に合併し解散,2015-10-05,1,,,,,マツシマデンキコウジ,0
3026,9120005006402,登記記録の閉鎖等,0,2023-01-13,2023-01-12,大阪靴下工業協同組合,,その他の設立登記法人,大阪府,大阪市東成区,中道３丁目１３番２３号,,27,115,5370025,,,2023-01-12,清算の結了等,,,2015-10-05,1,,,,,オオサカクツシタコウギョウ,0
3032,9120101052052,登記記録の閉鎖等,0,2023-01-13,2022-12-28,株式会社ブリッジオン,,株式会社,大阪府,堺市堺区,南三国ヶ丘町６丁５番３３号,,27,141,5900023,,,2022-12-28,合併による解散等,3120101048601,令和４年１２月２８日大阪府堺市堺区南三国ヶ丘町六丁５番３３号株式会社明征（3120101048601）に合併し解散,2015-10-05,1,,,,,ブリッジオン,0
3051,9140001039759,登記記録の閉鎖等,0,2023-01-13,2023-01-06,株式会社船坂ゴルフ場,,株式会社,兵庫県,赤穂郡上郡町,高山１２２８番地,,28,481,6781254,,,2023-01-06,清算の結了等,,,2015-10-05,1,,,,,フナサカゴルフジョウ,0
3052,9140001084730,登記記録の閉鎖等,0,2023-01-13,2023-01-10,株式会社シティオ,,株式会社,兵庫県,洲本市,塩屋１丁目３００番地７０,,28,205,6560021,,,2023-01-10,清算の結了等,,,2015-10-05,1,,,,,シティオ,0
3053,9140001086149,登記記録の閉鎖等,0,2023-01-13,2023-01-10,株式会社ジーエフエフ,,株式会社,兵庫県,洲本市,塩屋１丁目３００番地７０,,28,205,6560021,,,2023-01-10,清算の結了等,,,2015-10-05,1,,,,,ジーエフエフ,0
3057,9140001126103,登記記録の閉鎖等,0,2023-01-13,2023-01-10,古林商事株式会社,,株式会社,兵庫県,たつの市,龍野町上川原７１番地,,28,229,6794172,,,2023-01-10,清算の結了等,,,2022-05-30,1,,,,,コバヤシショウジ,0
3063,9140005001343,登記記録の閉鎖等,0,2023-01-13,2022-12-23,天理教日之寄分教会,,その他の設立登記法人,兵庫県,神戸市垂水区,舞子台１丁目１１番３０号,,28,108,6550046,,,2022-12-23,合併による解散等,2010705000275,令和４年１２月２２日東京都品川区東五反田五丁目２５番１号天理教日本橋大教會（2010705000275）に合併し解散,2015-10-05,1,,,,,テンリキョウヒノヨリブンキョウカイ,0
3069,9160001017977,登記記録の閉鎖等,0,2023-01-13,2023-01-10,株式会社愛,,株式会社,滋賀県,大津市,石山寺３丁目１５番８号アクアビュー石山３０２,,25,201,5200861,,,2023-01-10,清算の結了等,,,2015-10-05,1,,,,,アイ,0
3087,9180005018722,登記記録の閉鎖等,0,2023-01-13,2022-12-21,協同組合セントロジャパン,,その他の設立登記法人,愛知県,名古屋市中区,栄５丁目２６番３９号,,23,106,4600008,,,2022-12-21,清算の結了等,,,2020-03-23,1,,,,,セントロジャパン,0
3089,9180301027872,登記記録の閉鎖等,0,2023-01-13,2023-01-04,デライトホールディングス株式会社,,株式会社,愛知県,豊橋市,東田町１５１番地１,,23,201,4400066,,,2023-01-04,合併による解散等,3010001227340,令和４年１２月２６日東京都千代田区内幸町一丁目３番３号内幸町ダイビルデライトホールディングス株式会社（3010001227340）に合併し解散,2015-10-05,1,,,,,デライトホールディングス,0
3093,9180303004077,登記記録の閉鎖等,0,2023-01-13,2023-01-04,綺咲合同会社,,合同会社,愛知県,蒲郡市,平田町南６０番地,,23,214,4430004,,,2023-01-04,清算の結了等,,,2018-05-23,1,,,,,キサキ,0
3094,9190001019789,登記記録の閉鎖等,0,2023-01-13,2023-01-10,株式会社キョウシン,,株式会社,三重県,鈴鹿市,安塚町１５００番地,,24,207,5130818,,,2023-01-10,清算の結了等,,,2015-10-05,1,,,,,キョウシン,0
3096,9200001006141,登記記録の閉鎖等,0,2023-01-13,2023-01-13,株式会社オートラマ丸栄,,株式会社,岐阜県,岐阜市,木ノ下町２丁目１番地,,21,201,5008154,,,2023-01-13,登記官による閉鎖,,,2017-10-20,1,,,,,,0
3097,9200001007098,登記記録の閉鎖等,0,2023-01-13,2023-01-13,三英株式会社,,株式会社,岐阜県,各務原市,蘇原沢上町４丁目１番地２５,,21,213,5040827,,,2023-01-13,登記官による閉鎖,,,2015-10-05,1,,,,,,0
3098,9200001008476,登記記録の閉鎖等,0,2023-01-13,2023-01-13,株式会社ＧＥＮＵＩＮＥ,,株式会社,岐阜県,岐阜市,岩田西３丁目６６９番地,,21,201,5013156,,,2023-01-13,登記官による閉鎖,,,2015-10-05,1,,,,,,0
3099,9200001009029,登記記録の閉鎖等,0,2023-01-13,2023-01-13,株式会社サンセン工業,,株式会社,岐阜県,各務原市,蘇原東島町３丁目３９番地の１,,21,213,5040816,,,2023-01-13,登記官による閉鎖,,,2015-10-05,1,,,,,,0
3100,9200001009367,登記記録の閉鎖等,0,2023-01-13,2023-01-13,株式会社樹,,株式会社,岐阜県,岐阜市,六条南３丁目１５番２２号,,21,201,5008358,,,2023-01-13,登記官による閉鎖,,,2015-10-05,1,,,,,,0
3101,9200001009680,登記記録の閉鎖等,0,2023-01-13,2023-01-13,エムケー株式会社,,株式会社,岐阜県,岐阜市,粟野西６丁目１７８番地,,21,201,5020006,,,2023-01-13,登記官による閉鎖,,,2015-10-05,1,,,,,,0
3102,9200001011926,登記記録の閉鎖等,0,2023-01-13,2023-01-13,岐阜マツダ株式会社,,株式会社,岐阜県,羽島郡岐南町,上印食７丁目１６１番地,,21,302,5016001,,,2023-01-13,登記官による閉鎖,,,2015-10-05,1,,,,,,0
3103,9200001023120,登記記録の閉鎖等,0,2023-01-13,2023-01-13,株式会社リバーサイドコート,,株式会社,岐阜県,多治見市,市之倉町１３丁目３５番地,,21,204,5070814,,,2023-01-13,登記官による閉鎖,,,2015-10-05,1,,,,,,0
3104,9200001023764,登記記録の閉鎖等,0,2023-01-13,2023-01-13,東濃総業株式会社,,株式会社,岐阜県,恵那市,大井町１９６１番地の１７,,21,210,5097201,,,2023-01-13,登記官による閉鎖,,,2015-10-05,1,,,,,,0
3105,9200001023855,登記記録の閉鎖等,0,2023-01-13,2023-01-13,丸田屋酒造株式会社,,株式会社,岐阜県,中津川市,坂下３２５６番地,,21,206,5099232,,,2023-01-13,登記官による閉鎖,,,2015-10-05,1,,,,,,0
3106,9200002000275,登記記録の閉鎖等,0,2023-01-13,2023-01-13,有限会社あららぎ,,有限会社,岐阜県,岐阜市,美殿町１０番地,,21,201,5008182,,,2023-01-13,登記官による閉鎖,,,2015-10-05,1,,,,,,0
3107,9200002011652,登記記録の閉鎖等,0,2023-01-13,2023-01-13,有限会社サダス,,有限会社,岐阜県,羽島市,上中町長間９９５番地,,21,209,5016311,,,2023-01-13,登記官による閉鎖,,,2015-10-05,1,,,,,,0
3109,9200002019209,登記記録の閉鎖等,0,2023-01-13,2023-01-13,有限会社宮之腰開発,,有限会社,岐阜県,関市,山田１２６番地,,21,205,5013944,,,2023-01-13,登記官による閉鎖,,,2015-10-05,1,,,,,,0
3110,9200002027616,登記記録の閉鎖等,0,2023-01-13,2023-01-13,有限会社下呂不動産,,有限会社,岐阜県,下呂市,金山町下原町１９番地,,21,220,5091616,,,2023-01-13,登記官による閉鎖,,,2015-10-05,1,,,,,,0
3111,9200003001933,登記記録の閉鎖等,0,2023-01-13,2023-01-13,合資会社杉山自動車整備工場,,合資会社,岐阜県,揖斐郡大野町,大字黒野９３７番地の１,,21,403,5010521,,,2023-01-13,登記官による閉鎖,,,2015-10-05,1,,,,,,0
3112,9200005003424,登記記録の閉鎖等,0,2023-01-13,2023-01-13,東海外食産業事業協同組合,,その他の設立登記法人,岐阜県,羽島郡岐南町,伏屋５丁目１７５番地,,21,302,5016006,,,2023-01-13,登記官による閉鎖,,,2015-10-05,1,,,,,,0
3114,9200005010189,登記記録の閉鎖等,0,2023-01-13,2023-01-13,農事組合法人穂高牧場,,その他の設立登記法人,岐阜県,高山市,奥飛騨温泉郷栃尾３３９番地の４７,00081168,21,203,5061423,,,2023-01-13,登記官による閉鎖,,,2015-10-05,1,,,,,,0
3128,9260002015565,登記記録の閉鎖等,0,2023-01-13,2023-01-12,有限会社厨房館,,有限会社,岡山県,岡山市北区,新屋敷町１丁目１０番１３号,,33,101,7000986,,,2023-01-12,清算の結了等,,,2015-10-05,1,,,,,,0
3137,9290001096991,登記記録の閉鎖等,0,2023-01-13,2023-01-11,株式会社ＳＯＮＯＤＡ　ＲＯＯＦ,,株式会社,福岡県,糟屋郡須惠町,大字須恵９７２番地１,,40,344,8112100,,,2023-01-11,合併による解散等,7350002018404,令和４年１２月２８日宮崎県えびの市大字西郷１０５４番地１株式会社園田板金（7350002018404）に合併し解散,2022-03-31,1,,,,,ソノダルーフ,0
3145,9290803001827,登記記録の閉鎖等,0,2023-01-13,2023-01-10,合同会社ホッテントット・ウミネコ,,合同会社,福岡県,北九州市門司区,栄町７－５,,40,101,8010863,,,2023-01-10,清算の結了等,,,2015-10-05,1,,,,,ホッテントットウミネコ,0
3153,9320001001980,登記記録の閉鎖等,0,2023-01-13,2023-01-05,株式会社豊の国健康ランド,,株式会社,大分県,大分市,南春日町１２番５号,,44,201,8700815,,,2023-01-05,合併による解散等,5320001002751,令和４年１２月３１日大分市広瀬町二丁目２番４１号山内興産株式会社（5320001002751）に合併し解散,2015-10-05,1,,,,,トヨノクニケンコウランド,0
3167,9370001025331,登記記録の閉鎖等,0,2023-01-13,2022-12-28,株式会社ＡＤＤＩＸ　Ｃ＆Ｓ,,株式会社,宮城県,仙台市青葉区,中央４丁目７番１７号,,04,101,9800021,,,2022-12-28,合併による解散等,4010401091880,令和４年１２月１日東京都港区南青山三丁目１番３１号ＫＤ南青山ビル７階株式会社ＡＤＤＩＸ（4010401091880）に合併し解散,2015-10-05,1,,,,,,0
