sequenceNumber,corporateNumber,process,correct,updateDate,changeDate,name,nameImageId,kind,prefectureName,cityName,streetNumber,addressImageId,prefectureCode,cityCode,postCode,addressOutside,addressOutsideImageId,closeDate,closeCause,successorCorporateNumber,changeCause,assignmentDate,latest,enName,enPrefectureName,enCityName,enAddressOutside,furigana,hihyoji
3,1010001025705,登記記録の閉鎖等,0,2023-01-06,2022-12-27,株式会社日進工機商会,,株式会社,東京都,千代田区,神田鍛冶町３丁目７番八光ビル２０７,,13,101,1010045,,,2022-12-27,清算の結了等,,,2015-10-05,1,,,,,,0
4,1010001045629,登記記録の閉鎖等,0,2023-01-06,2023-01-04,新システム株式会社,,株式会社,東京都,板橋区,成増５丁目１３番１３－３０５号,,13,119,1750094,,,2023-01-04,清算の結了等,,,2015-10-05,1,,,,,シンシステム,0
6,1010001146658,登記記録の閉鎖等,0,2023-01-06,2022-12-26,株式会社キーアプリ,,株式会社,東京都,千代田区,麹町３丁目５番地,,13,101,1020083,,,2022-12-26,清算の結了等,,,2015-10-05,1,,,,,キーアプリ,0
18,1010003015753,登記記録の閉鎖等,0,2023-01-06,2022-12-23,スミス・ディテクション・ジャパン合同会社,,合同会社,東京都,千代田区,大手町１丁目６番１号,,13,101,1000004,,,2022-12-23,清算の結了等,,,2015-10-05,1,,,,,スミスディテクションジャパン,0
25,1010401064823,登記記録の閉鎖等,0,2023-01-06,2022-12-08,株式会社ネット・コミュニティ,,株式会社,東京都,港区,海岸１丁目１１番１号,,13,103,1050022,,,2022-12-08,合併による解散等,6011001055167,令和４年１２月１日東京都港区海岸一丁目１１番１号株式会社Ｈ＆ＢＣ（6011001055167）に合併し解散,2015-10-05,1,,,,,ネットコミュニティ,0
28,1010401140021,登記記録の閉鎖等,0,2023-01-06,2022-12-20,ＢＧＢＴ株式会社,,株式会社,東京都,港区,東新橋２丁目１８番２－２０１号,,13,103,1050021,,,2022-12-20,合併による解散等,1010401083055,令和４年１２月２０日東京都港区東新橋二丁目１４番１号５Ｆビバリーグレンラボラトリーズ株式会社（1010401083055）に合併し解散,2018-08-03,1,,,,,ビージービーティー,0
30,1010401163906,登記記録の閉鎖等,0,2023-01-06,2022-12-20,株式会社Ｄｉｖｉｎｅ,,株式会社,東京都,港区,浜松町２丁目２番１５号浜松町ダイヤビル２Ｆ,,13,103,1050013,,,2022-12-20,清算の結了等,,,2021-11-17,1,,,,,ディヴァイン,0
42,1010505001177,登記記録の閉鎖等,0,2023-01-06,2023-01-04,医療法人社団小島会,,その他の設立登記法人,東京都,台東区,蔵前３丁目１７番４号蔵前妙見屋ビル５階,,13,106,1110051,,,2023-01-04,清算の結了等,,,2015-10-05,1,,,,,シャダンコジマカイ,0
45,1010603009312,登記記録の閉鎖等,0,2023-01-06,2022-12-27,高野合同会社,,合同会社,東京都,江東区,枝川３丁目９－５、７０４号,,13,108,1350051,,,2022-12-27,清算の結了等,,,2021-12-24,1,,,,,コウノ,0
51,1010703003173,登記記録の閉鎖等,0,2023-01-06,2023-01-04,合同会社リワニーミライジャパン,,合同会社,静岡県,静岡市駿河区,高松２９６３－１－３０６,,22,102,4228034,,,2023-01-04,清算の結了等,,,2016-06-30,1,,,,,リワニーミライジャパン,0
72,1011002021817,登記記録の閉鎖等,0,2023-01-06,2023-01-04,有限会社フォートアッツ,,有限会社,東京都,渋谷区,西原３丁目３８番１２号,,13,113,1510066,,,2023-01-04,清算の結了等,,,2015-10-05,1,,,,,,0
79,1011101060699,登記記録の閉鎖等,0,2023-01-06,2022-12-26,株式会社Ｋ－ｅｎｇｉｎｅ,,株式会社,東京都,江東区,大島２丁目１番１号,,13,108,1360072,,,2022-12-26,清算の結了等,,,2015-10-05,1,,,,,ケーエンジン,0
87,1011502012984,登記記録の閉鎖等,0,2023-01-06,2022-12-23,有限会社ダールエンジニアリング,,有限会社,東京都,荒川区,町屋８丁目１７番１号（２０１室）,,13,118,1160001,,,2022-12-23,清算の結了等,,,2015-10-05,1,,,,,ダールエンジニアリング,0
115,1021001020629,登記記録の閉鎖等,0,2023-01-06,2022-12-27,萬屋ビル株式会社,,株式会社,神奈川県,厚木市,厚木町３番１号,,14,212,2430011,,,2022-12-27,清算の結了等,,,2015-10-05,1,,,,,ヨロズヤビル,0
125,1030001131732,登記記録の閉鎖等,0,2023-01-06,2022-12-28,株式会社曦望,,株式会社,東京都,豊島区,南大塚２丁目１１－１０,,13,116,1700005,,,2022-12-28,清算の結了等,,,2019-07-02,1,,,,,アサヒミ,0
126,1030001140246,登記記録の閉鎖等,0,2023-01-06,2022-12-28,株式会社ＳＫＭ,,株式会社,埼玉県,さいたま市浦和区,本太１丁目１１番１２号ハイツ小川２０２号室,,11,107,3300052,,,2022-12-28,清算の結了等,,,2021-01-14,1,,,,,エスケーエム,0
129,1030002032624,登記記録の閉鎖等,0,2023-01-06,2023-01-05,有限会社メディカ,,有限会社,宮崎県,宮崎市,大橋３丁目１３５番地１,,45,201,8800022,,,2023-01-05,清算の結了等,,,2015-10-05,1,,,,,メディカ,0
162,1080101008363,登記記録の閉鎖等,0,2023-01-06,2022-12-26,金指建設株式会社,,株式会社,静岡県,富士市,本市場１４７番地の１,,22,210,4160906,,,2022-12-26,清算の結了等,,,2022-10-21,1,,,,,カネザシケンセツ,0
170,1120001135443,登記記録の閉鎖等,0,2023-01-06,2023-01-04,株式会社ビルメイク,,株式会社,大阪府,大阪市天王寺区,上本町５丁目４番３号,,27,109,5430001,,,2023-01-04,合併による解散等,1120001022212,令和５年１月１日大阪市天王寺区上本町五丁目４番３号株式会社アマヤ（1120001022212）に合併し解散,2015-10-05,1,,,,,ビルメイク,0
176,1120001148833,登記記録の閉鎖等,0,2023-01-06,2023-01-04,株式会社横井製作所,,株式会社,大阪府,枚方市,招提大谷２丁目１７番１号,,27,210,5731153,,,2023-01-04,合併による解散等,6120001150363,令和５年１月１日大阪府枚方市招提田近三丁目５番地株式会社初田製作所（6120001150363）に合併し解散,2015-10-05,1,,,,,ヨコイセイサクショ,0
190,1120002002361,登記記録の閉鎖等,0,2023-01-06,2023-01-04,有限会社バド企画,,有限会社,大阪府,大阪市西成区,津守３丁目２番３５号,,27,122,5570062,,,2023-01-04,清算の結了等,,,2015-10-05,1,,,,,バドキカク,0
232,1160003001409,登記記録の閉鎖等,0,2023-01-06,2022-12-22,合同会社あろは,,合同会社,滋賀県,東近江市,小田苅町４７番地２,,25,213,5270125,,,2022-12-22,清算の結了等,,,2016-08-03,1,,,,,アロハ,0
235,1180001116719,登記記録の閉鎖等,0,2023-01-06,2022-12-28,株式会社本田興商,,株式会社,愛知県,愛知郡東郷町,大字春木字下正葉廻間４３３７番地１２２,,23,302,4700162,,,2022-12-28,合併による解散等,4180001095019,令和４年１２月２８日愛知県愛知郡東郷町大字春木字太子３０番地センチュリー太子３０１株式会社ショウエイ（4180001095019）に合併し解散,2015-10-05,1,,,,,ホンダコウショウ,0
240,1180002026165,登記記録の閉鎖等,0,2023-01-06,2022-12-27,有限会社特線加工,,有限会社,愛知県,津島市,藤里町３丁目１番地,,23,208,4960048,,,2022-12-27,清算の結了等,,,2015-10-05,1,,,,,トクセンカコウ,0
248,1180301004466,登記記録の閉鎖等,0,2023-01-06,2022-12-23,株式会社中山尚三,,株式会社,愛知県,岡崎市,鴨田町字山畔１番地３７６,,23,202,4442121,,,2022-12-23,清算の結了等,,,2015-10-05,1,,,,,ナカヤマショウゾウ,0
268,1220003002094,登記記録の閉鎖等,0,2023-01-06,2022-12-28,三田重建合同会社,,合同会社,石川県,七尾市,大田町参部１７番地１,,17,202,9260006,,,2022-12-28,清算の結了等,,,2016-01-12,1,,,,,ミタジュウケン,0
334,1370102001544,登記記録の閉鎖等,0,2023-01-06,2022-12-28,有限会社釼持ハウジング,,有限会社,宮城県,柴田郡川崎町,大字川内字七曲山２０３番地の１,,04,324,9891503,,,2022-12-28,清算の結了等,,,2015-10-05,1,,,,,ケンモチハウジング,0
335,1380001019141,登記記録の閉鎖等,0,2023-01-06,2022-12-19,金井建設工業株式会社,,株式会社,福島県,南会津郡下郷町,大字豊成字下川原１６０番地,,07,362,9695311,,,2022-12-19,清算の結了等,,,2022-10-26,1,,,,,カナイケンセツコウギョウ,0
347,1450001012139,登記記録の閉鎖等,0,2023-01-06,2023-01-05,株式会社ＭＩＺＵＮＯ,,株式会社,北海道,旭川市,五条通１８丁目７６５番地,,01,204,0788215,,,2023-01-05,清算の結了等,,,2017-08-03,1,,,,,ミズノ,0
360,1490001006954,登記記録の閉鎖等,0,2023-01-06,2022-12-28,株式会社春野学園,,株式会社,高知県,高知市,春野町東諸木４１１５番地１３,,39,201,7810315,,,2022-12-28,清算の結了等,,,2015-10-05,1,,,,,ハルノガクエン,0
364,1500001009749,登記記録の閉鎖等,0,2023-01-06,2023-01-04,株式会社亀井ふとん店,,株式会社,愛媛県,新居浜市,泉池町１０番２１号,,38,205,7920013,,,2023-01-04,清算の結了等,,,2015-10-05,1,,,,,カメイフトンテン,0
365,1500001012439,登記記録の閉鎖等,0,2023-01-06,2022-12-28,森建設株式会社,,株式会社,愛媛県,今治市,玉川町龍岡上甲３６３番地,,38,202,7940124,,,2022-12-28,清算の結了等,,,2015-10-05,1,,,,,モリケンセツ,0
367,1500003002529,登記記録の閉鎖等,0,2023-01-06,2023-01-04,フレッシュエッグカワモト合同会社,,合同会社,愛媛県,八幡浜市,４３５番地１２,,38,204,7960088,,,2023-01-04,清算の結了等,,,2020-11-06,1,,,,,フレッシュエッグカワモト,0
369,2010001040851,登記記録の閉鎖等,0,2023-01-06,2022-12-26,株式会社北浜商会,,株式会社,東京都,中央区,京橋２丁目１２番１１号,,13,102,1040031,,,2022-12-26,清算の結了等,,,2015-10-05,1,,,,,キタハマショウカイ,0
424,2011101008680,登記記録の閉鎖等,0,2023-01-06,2022-12-28,株式会社シーマック,,株式会社,東京都,新宿区,早稲田鶴巻町１１１番地,,13,104,1620041,,,2022-12-28,清算の結了等,,,2015-10-05,1,,,,,シーマック,0
439,2011705000380,登記記録の閉鎖等,0,2023-01-06,2022-12-19,医療法人社団新地会,,その他の設立登記法人,東京都,港区,芝１丁目１５番１３号オフィスニューガイア浜松町Ｎｏ．１７・２階,,13,103,1050014,,,2022-12-19,清算の結了等,,,2015-10-05,1,,,,,シンチカイ,0
447,2012802005900,登記記録の閉鎖等,0,2023-01-06,2022-12-26,有限会社高橋電設,00059364,有限会社,東京都,東大和市,南街１丁目８番地の８,,13,220,2070014,,,2022-12-26,清算の結了等,,,2015-10-05,1,,,,,タカハシデンセツ,0
463,2030001017971,登記記録の閉鎖等,0,2023-01-06,2023-01-04,新和興産株式会社,,株式会社,埼玉県,さいたま市見沼区,大字宮ヶ谷塔１２６４番地１,,11,104,3370011,,,2023-01-04,清算の結了等,,,2015-10-05,1,,,,,シンワコウサン,0
468,2030001071085,登記記録の閉鎖等,0,2023-01-06,2022-12-23,山下金属工業株式会社,,株式会社,埼玉県,東松山市,大字新郷８８番２９号,,11,212,3550071,,,2022-12-23,清算の結了等,,,2015-10-05,1,,,,,ヤマシタキンゾクコウギョウ,0
482,2050001011436,登記記録の閉鎖等,0,2023-01-06,2022-12-23,株式会社柿岡マイカーセンター,,株式会社,茨城県,石岡市,正上内３０番地の１０,,08,205,3150011,,,2022-12-23,清算の結了等,,,2022-11-18,1,,,,,カキオカマイカーセンター,0
485,2050002015997,登記記録の閉鎖等,0,2023-01-06,2022-12-16,有限会社真麻,,有限会社,茨城県,石岡市,高浜７７２番地,,08,205,3150045,,,2022-12-16,清算の結了等,,,2015-10-05,1,,,,,マアサ,0
489,2060003003257,登記記録の閉鎖等,0,2023-01-06,2022-12-27,合同会社ＳＴＥＥＺ,,合同会社,栃木県,宇都宮市,元今泉３丁目９番８号,,09,201,3210954,,,2022-12-27,清算の結了等,,,2019-12-25,1,,,,,スティーズ,0
497,2080402006305,登記記録の閉鎖等,0,2023-01-06,2023-01-04,有限会社袴田産業,,有限会社,静岡県,浜松市中区,幸４丁目５番３号,,22,131,4338123,,,2023-01-04,清算の結了等,,,2015-10-05,1,,,,,ハカマタサンギョウ,0
506,2120001090729,登記記録の閉鎖等,0,2023-01-06,2023-01-05,株式会社名阪不動産鑑定,,株式会社,三重県,津市,久居射場町１７番地有限会社青木ビル,,24,201,5141108,,,2023-01-05,清算の結了等,,,2015-10-05,1,,,,,メイハンフドウサンカンテイ,0
510,2120001144138,登記記録の閉鎖等,0,2023-01-06,2023-01-04,ネッツトヨタ中央大阪株式会社,,株式会社,大阪府,大阪市西区,立売堀３丁目１番１号,,27,106,5500012,,,2023-01-04,合併による解散等,8120001049050,令和５年１月１日大阪市西区立売堀三丁目１番１号大阪トヨペット株式会社（8120001049050）に合併し解散,2015-10-05,1,,,,,ネッツトヨタチュウオウオオサカ,0
511,2120001148312,登記記録の閉鎖等,0,2023-01-06,2023-01-04,ネッツトヨタ新大阪株式会社,,株式会社,大阪府,寝屋川市,池田北町１５番２０号,,27,215,5720073,,,2023-01-04,合併による解散等,5120001057238,令和５年１月１日大阪市淀川区東三国三丁目１０番２１号トヨタモビリティ新大阪株式会社（5120001057238）に合併し解散,2015-10-05,1,,,,,ネッツトヨタシンオオサカ,0
546,2130005000773,登記記録の閉鎖等,0,2023-01-06,2022-12-16,天理教千金塞分教会,,その他の設立登記法人,京都府,京都市東山区,六原轆轤町１２４番地の２,,26,105,6050000,,,2022-12-16,合併による解散等,5140005014217,令和４年１２月９日兵庫県姫路市御立東二丁目１７番１２号天理教元姫分教会（5140005014217）に合併し解散,2015-10-05,1,,,,,テンリキョウセンキンサイブンキョウカイ,0
548,2130005016167,登記記録の閉鎖等,0,2023-01-06,2022-12-27,一般社団法人保育・子育てアドバイザー協会関西,,その他の設立登記法人,京都府,京都市左京区,吉田中大路町１６－４,,26,103,6068313,,,2022-12-27,清算の結了等,,,2021-04-28,1,,,,,ホイクコソダテアドバイザーキョウカイカンサイ,0
555,2160005006355,登記記録の閉鎖等,0,2023-01-06,2022-12-20,天理教円滋分教会,,その他の設立登記法人,滋賀県,蒲生郡日野町,大字石原１０８２番地,,25,383,5291655,,,2022-12-20,合併による解散等,7120005000357,令和４年１２月１６日大阪市東住吉区鷹合三丁目６番１３号天理教東八圓分教会（7120005000357）に合併し解散,2015-10-05,1,,,,,テンリキョウエンジブンキョウカイ,0
561,2180002023161,登記記録の閉鎖等,0,2023-01-06,2022-12-27,有限会社クニタケ,,有限会社,愛知県,名古屋市西区,枇杷島２丁目１９番１０号,,23,104,4510053,,,2022-12-27,清算の結了等,,,2015-10-05,1,,,,,クニタケ,0
562,2180002059123,登記記録の閉鎖等,0,2023-01-06,2022-12-28,有限会社大はし家,,有限会社,愛知県,名古屋市中区,栄４丁目９番１６号,,23,106,4600008,,,2022-12-28,清算の結了等,,,2015-10-05,1,,,,,オオハシヤ,0
580,2230002003521,登記記録の閉鎖等,0,2023-01-06,2022-12-28,株式会社環研ジオテック,,株式会社,富山県,富山市,黒崎３１５番地４,,16,201,9398214,,,2022-12-28,清算の結了等,,,2015-10-05,1,,,,,カンケンジオテック,0
584,2240002010707,登記記録の閉鎖等,0,2023-01-06,2023-01-04,有限会社電栄家電販売桐陽台店,,有限会社,広島県,広島市安佐北区,三入東１丁目４４番２０号,,34,106,7310212,,,2023-01-04,清算の結了等,,,2015-10-05,1,,,,,デンエイカデンハンバイトウヨウダイテン,0
591,2260002024754,登記記録の閉鎖等,0,2023-01-06,2023-01-05,有限会社カーショップ岡山南,,有限会社,岡山県,倉敷市,林１７６２番地の１,,33,202,7100142,,,2023-01-05,清算の結了等,,,2015-10-05,1,,,,,カーショップオカヤマミナミ,0
595,2280001007650,登記記録の閉鎖等,0,2023-01-06,2023-01-04,株式会社Ｈ３Ｍ,,株式会社,島根県,松江市,東持田町２０５番地５１,,32,201,6900814,,,2023-01-04,清算の結了等,,,2018-01-23,1,,,,,エイチスリーエム,0
629,2380002017036,登記記録の閉鎖等,0,2023-01-06,2022-12-28,有限会社佐藤総業,,有限会社,福島県,本宮市,稲沢字下後山４番地,,07,214,9691201,,,2022-12-28,清算の結了等,,,2015-10-05,1,,,,,サトウソウギョウ,0
653,2480001011649,登記記録の閉鎖等,0,2023-01-06,2022-12-19,国陽製種株式会社,,株式会社,徳島県,徳島市,矢三町高見３５４番地５,,36,201,7700000,,,2022-12-19,清算の結了等,,,2022-02-14,1,,,,,コクヨウセイシュ,0
658,3010001142639,登記記録の閉鎖等,0,2023-01-06,2022-12-27,株式会社ＮＩＮＥ,,株式会社,東京都,中央区,日本橋兜町２０－５,,13,102,1030026,,,2022-12-27,清算の結了等,,,2015-10-05,1,,,,,ナイン,0
660,3010001158370,登記記録の閉鎖等,0,2023-01-06,2022-12-27,スターチューブテック株式会社,,株式会社,東京都,千代田区,九段北１丁目９番５－５０３号,,13,101,1020073,,,2022-12-27,清算の結了等,,,2015-10-05,1,,,,,スターチューブテック,0
670,3010401132454,登記記録の閉鎖等,0,2023-01-06,2022-12-28,株式会社平川商社,,株式会社,東京都,中野区,本町４丁目４２番２号,,13,114,1640012,,,2022-12-28,清算の結了等,,,2017-07-13,1,,,,,ヒラカワショウシャ,0
676,3010403014923,登記記録の閉鎖等,0,2023-01-06,2022-12-20,合同会社バーミリオン,,合同会社,東京都,港区,元赤坂１丁目１番８号株式会社赤坂国際会計内,,13,103,1070051,,,2022-12-20,清算の結了等,,,2016-06-14,1,,,,,バーミリオン,0
695,3011001135005,登記記録の閉鎖等,0,2023-01-06,2022-12-23,株式会社ＣｕｌｔｕｒｅＳｔｕｄｉｏＴｏｋｙｏ,,株式会社,東京都,渋谷区,神宮前１丁目１４番３０－５０１号ウィズ原宿レジデンス,,13,113,1500001,,,2022-12-23,合併による解散等,2011001068791,令和４年１２月１日東京都港区北青山三丁目６番７号株式会社ｔｒｉｐｐｉｅｃｅ（2011001068791）に合併し解散,2020-07-30,1,,,,,カルチュアスタジオトーキョー,0
700,3011002024925,登記記録の閉鎖等,0,2023-01-06,2023-01-04,有限会社ホワイトティガ,,有限会社,東京都,渋谷区,千駄ヶ谷３丁目２７番１１号,,13,113,1510051,,,2023-01-04,清算の結了等,,,2015-10-05,1,,,,,,0
709,3011401000287,登記記録の閉鎖等,0,2023-01-06,2023-01-04,株式会社朝日湯,,株式会社,東京都,板橋区,志村２丁目４番５－７０１号,,13,119,1740056,,,2023-01-04,清算の結了等,,,2015-10-05,1,,,,,アサヒユ,0
717,3011703002106,登記記録の閉鎖等,0,2023-01-06,2022-12-27,木下商事合同会社,,合同会社,東京都,江戸川区,東葛西２丁目６－２－８０２,,13,123,1340084,,,2022-12-27,清算の結了等,,,2018-09-27,1,,,,,キノシタショウジ,0
718,3011801010183,登記記録の閉鎖等,0,2023-01-06,2022-12-26,東京ライター株式会社,,株式会社,東京都,足立区,千住東１丁目２５番６号,,13,121,1200025,,,2022-12-26,清算の結了等,,,2015-10-05,1,,,,,トウキョウライター,0
720,3012401011381,登記記録の閉鎖等,0,2023-01-06,2022-12-14,株式会社ダイナテック,,株式会社,東京都,武蔵野市,境南町１丁目１８番５号,,13,203,1800023,,,2022-12-14,合併による解散等,1012401010699,令和４年１２月１２日東京都府中市西原町一丁目１７番１号土屋製造株式会社（1012401010699）に合併し解散,2015-10-05,1,,,,,ダイナテック,0
754,3030002099835,登記記録の閉鎖等,0,2023-01-06,2022-12-28,有限会社青山製作所,,有限会社,埼玉県,川口市,末広１丁目１６番３２号,,11,203,3320006,,,2022-12-28,清算の結了等,,,2015-10-05,1,,,,,,0
770,3040001117522,登記記録の閉鎖等,0,2023-01-06,2022-12-26,株式会社ＭＡＫＡＢＵＨＡＹ,,株式会社,千葉県,佐倉市,ユーカリが丘４丁目１スカイプラザ・モール３Ｆ,,12,212,2850858,,,2022-12-26,清算の結了等,,,2021-03-16,1,,,,,マカブハイ,0
777,3040002094364,登記記録の閉鎖等,0,2023-01-06,2022-12-28,有限会社サングローリー,,有限会社,千葉県,柏市,宿連寺４４５番地４８,,12,217,2770826,,,2022-12-28,清算の結了等,,,2015-10-05,1,,,,,サングローリー,0
780,3050002006698,登記記録の閉鎖等,0,2023-01-06,2022-12-27,有限会社大津内装,,有限会社,茨城県,那珂市,菅谷２０６８番地の８,,08,226,3110105,,,2022-12-27,清算の結了等,,,2015-10-05,1,,,,,オオツナイソウ,0
783,3060001013447,登記記録の閉鎖等,0,2023-01-06,2022-12-19,株式会社村井フアミリー,,株式会社,栃木県,矢板市,扇町１丁目１０番２７号,,09,211,3292161,,,2022-12-19,清算の結了等,,,2015-10-05,1,,,,,ムライフアミリー,0
791,3080101010672,登記記録の閉鎖等,0,2023-01-06,2023-01-04,エンドウ・ビジネスコンサルティング株式会社,,株式会社,静岡県,富士市,御幸町１３番１２号,,22,210,4170041,,,2023-01-04,清算の結了等,,,2015-10-05,1,,,,,エンドウビジネスコンサルティング,0
794,3080401013706,登記記録の閉鎖等,0,2023-01-06,2022-12-28,株式会社ＭＥＬＴＩＮＧＰＯＴ,,株式会社,静岡県,浜松市南区,石原町１４番地,,22,134,4350033,,,2022-12-28,清算の結了等,,,2015-10-05,1,,,,,メルティングポット,0
802,3110005011417,登記記録の閉鎖等,0,2023-01-06,2022-12-05,赤城神社,,その他の設立登記法人,新潟県,長岡市,曲新町１丁目６５２番地,,15,202,9401103,,,2022-12-05,合併による解散等,7110005011553,令和４年１２月５日新潟県長岡市曲新町２０００番地十二神社（7110005011553）に合併し解散,2015-10-05,1,,,,,アカギジンジャ,0
810,3120001226645,登記記録の閉鎖等,0,2023-01-06,2023-01-04,株式会社アートマインド,,株式会社,大阪府,大阪市西区,新町３丁目８番１７－４０４号,,27,106,5500013,,,2023-01-04,清算の結了等,,,2020-01-23,1,,,,,アートマインド,0
824,3120003015170,登記記録の閉鎖等,0,2023-01-06,2023-01-05,ｉＤＥＡＬ　ＬｉＦＥ合同会社,,合同会社,大阪府,大阪市西区,江戸堀２丁目１番１号江戸堀センタービルＢ１,,27,106,5500002,,,2023-01-05,清算の結了等,,,2019-01-09,1,,,,,アイディールライフ,0
833,3120901018654,登記記録の閉鎖等,0,2023-01-06,2022-12-27,ウイング株式会社,,株式会社,大阪府,摂津市,鶴野４丁目１２番１２号,,27,224,5660035,,,2022-12-27,清算の結了等,,,2015-10-05,1,,,,,ウイング,0
844,3130001012706,登記記録の閉鎖等,0,2023-01-06,2022-12-19,株式会社サイツケアー,,株式会社,京都府,京都市山科区,音羽前出町４１番地の１９,,26,110,6078079,,,2022-12-19,清算の結了等,,,2015-10-05,1,,,,,サイツケアー,0
846,3130001054236,登記記録の閉鎖等,0,2023-01-06,2022-12-27,株式会社快族,,株式会社,京都府,久世郡久御山町,佐山西ノ口１０番地１日本ファミリービル３階Ｂ,,26,322,6130034,,,2022-12-27,清算の結了等,,,2015-10-05,1,,,,,カイゾク,0
857,3130005002364,登記記録の閉鎖等,0,2023-01-06,2022-12-14,長陽院,,その他の設立登記法人,京都府,京都市北区,大宮薬師山東町３番地,,26,101,6038474,,,2022-12-14,合併による解散等,5130005002362,令和４年１２月１４日京都市北区大宮薬師山東町１６番地一様院（5130005002362）に合併し解散,2015-10-05,1,,,,,チョウヨウイン,0
859,3140001056149,登記記録の閉鎖等,0,2023-01-06,2023-01-04,株式会社ユー・エス・メイト,,株式会社,兵庫県,豊岡市,梶原４２０番地１,,28,209,6680871,,,2023-01-04,合併による解散等,6260001002732,令和５年１月１日岡山市北区延友４５４番地山陽薬品株式会社（6260001002732）に合併し解散,2015-10-05,1,,,,,ユーエスメイト,0
869,3170001002042,登記記録の閉鎖等,0,2023-01-06,2023-01-05,大和土地株式会社,,株式会社,和歌山県,和歌山市,吐前９１８番地の２,,30,201,6496275,,,2023-01-05,清算の結了等,,,2015-10-05,1,,,,,ダイワトチ,0
878,3180001138216,登記記録の閉鎖等,0,2023-01-06,2023-01-04,滝沢産業株式会社,,株式会社,愛知県,春日井市,西本町３丁目３７－２,,23,206,4860958,,,2023-01-04,清算の結了等,,,2019-09-26,1,,,,,タキザワサンギョウ,0
886,3180003019430,登記記録の閉鎖等,0,2023-01-06,2022-12-28,エイチテック合同会社,,合同会社,愛知県,名古屋市北区,如意４丁目１００番地,,23,103,4620007,,,2022-12-28,清算の結了等,,,2018-11-09,1,,,,,エイチテック,0
888,3180003020586,登記記録の閉鎖等,0,2023-01-06,2022-12-28,日本ウルトラ・サイクリング協会合同会社,,合同会社,愛知県,名古屋市天白区,島田２丁目７０４番地リバーサイド天白１Ｆ,,23,116,4680056,,,2022-12-28,清算の結了等,,,2019-11-28,1,,,,,ニホンウルトラサイクリングキョウカイ,0
917,3260001034943,登記記録の閉鎖等,0,2023-01-06,2023-01-05,ＳＡＮ貿易株式会社,,株式会社,岡山県,岡山市東区,古都南方２８９３番地７５,,33,103,7038215,,,2023-01-05,清算の結了等,,,2020-12-01,1,,,,,サンボウエキ,0
918,3260003001272,登記記録の閉鎖等,0,2023-01-06,2023-01-05,合同会社クリーピングプラント,,合同会社,岡山県,岡山市北区,津島新野２丁目２番１７号,,33,101,7000083,,,2023-01-05,清算の結了等,,,2015-10-05,1,,,,,クリーピングプラント,0
922,3280001007914,登記記録の閉鎖等,0,2023-01-06,2023-01-04,株式会社うんなん防災工業,,株式会社,島根県,雲南市,大東町大東１００７番地２,,32,209,6991251,,,2023-01-04,合併による解散等,1280003001099,令和５年１月１日島根県松江市矢田町２０９番地８株式会社さんびる防災社（1280003001099）に合併し解散,2019-02-28,1,,,,,ウンナンボウサイコウギョウ,0
928,3290002002368,登記記録の閉鎖等,0,2023-01-06,2022-12-28,有限会社ナベテック,,有限会社,福岡県,福岡市東区,箱崎ふ頭１丁目１３番３号,,40,131,8120051,,,2022-12-28,清算の結了等,,,2015-10-05,1,,,,,ナベテック,0
931,3290801006263,登記記録の閉鎖等,0,2023-01-06,2022-12-21,段谷産業株式会社,,株式会社,福岡県,北九州市小倉北区,東港２丁目５番１２号,,40,106,8030802,,,2022-12-21,清算の結了等,,,2018-06-26,1,,,,,ダンタニサンギョウ,0
934,3300002006904,登記記録の閉鎖等,0,2023-01-06,2023-01-04,有限会社ミネマツ縫製,,有限会社,佐賀県,鹿島市,大字森１６５番地１,,41,207,8491303,,,2023-01-04,清算の結了等,,,2015-10-05,1,,,,,ミネマツホウセイ,0
947,3360001000200,登記記録の閉鎖等,0,2023-01-06,2022-12-28,株式会社エコ,,株式会社,沖縄県,豊見城市,字豊崎３番３７号,,47,212,9010225,,,2022-12-28,清算の結了等,,,2015-10-05,1,,,,,エコ,0
952,3370001007640,登記記録の閉鎖等,0,2023-01-06,2022-12-27,株式会社創旬,,株式会社,宮城県,仙台市若林区,卸町４丁目８番地の１,,04,103,9840015,,,2022-12-27,清算の結了等,,,2015-10-05,1,,,,,ソウシュン,0
965,3420002014424,登記記録の閉鎖等,0,2023-01-06,2023-01-04,有限会社山崎商店,,有限会社,青森県,弘前市,大字代官町６３番地,,02,202,0368001,,,2023-01-04,清算の結了等,,,2015-10-05,1,,,,,ヤマザキショウテン,0
969,3440001000398,登記記録の閉鎖等,0,2023-01-06,2022-12-23,片井製薬株式会社,,株式会社,北海道,函館市,赤川町５７０番地,,01,202,0410804,,,2022-12-23,清算の結了等,,,2015-10-05,1,,,,,カタイセイヤク,0
985,4010001169037,登記記録の閉鎖等,0,2023-01-06,2022-12-26,株式会社ウチダアカリ,,株式会社,東京都,千代田区,神田淡路町２丁目２１番地,,13,101,1010063,,,2022-12-26,清算の結了等,,,2015-10-05,1,,,,,ウチダアカリ,0
988,4010001223925,登記記録の閉鎖等,0,2023-01-06,2022-12-26,株式会社ＫＳＴ１,,株式会社,東京都,千代田区,内幸町２丁目１番６号,,13,101,1000011,,,2022-12-26,清算の結了等,,,2022-01-18,1,,,,,ケイエスティワン,0
999,4010401080090,登記記録の閉鎖等,0,2023-01-06,2022-12-21,株式会社アーキエッジ,,株式会社,東京都,港区,赤坂１丁目９番１３号,,13,103,1070052,,,2022-12-21,清算の結了等,,,2015-10-05,1,,,,,アーキエッジ,0
1006,4010401139894,登記記録の閉鎖等,0,2023-01-06,2022-12-20,トラストアカデミア株式会社,,株式会社,東京都,港区,六本木２丁目２番６号,,13,103,1060032,,,2022-12-20,清算の結了等,,,2018-07-31,1,,,,,トラストアカデミア,0
1040,4011303003791,登記記録の閉鎖等,0,2023-01-06,2022-12-21,合同会社Ｓｔａｍｐ,,合同会社,東京都,杉並区,和田１丁目３２番１８号,,13,115,1660012,,,2022-12-21,清算の結了等,,,2020-11-06,1,,,,,スタンプ,0
1053,4012801009347,登記記録の閉鎖等,0,2023-01-06,2022-12-23,株式会社ユニック,,株式会社,東京都,東大和市,向原４丁目２番地の２４,,13,220,2070013,,,2022-12-23,清算の結了等,,,2015-10-05,1,,,,,ユニック,0
1065,4020001100330,登記記録の閉鎖等,0,2023-01-06,2022-12-28,住宅塗装株式会社,,株式会社,神奈川県,横浜市青葉区,藤が丘１丁目２番地９,,14,117,2270043,,,2022-12-28,清算の結了等,,,2015-10-05,1,,,,,ジュウタクトソウ,0
1079,4021001054252,登記記録の閉鎖等,0,2023-01-06,2022-12-27,株式会社西湘ビバレッジ,,株式会社,神奈川県,足柄上郡松田町,松田惣領５６７番地５,,14,363,2580003,,,2022-12-27,清算の結了等,,,2015-10-05,1,,,,,セイショウビバレッジ,0
1095,4040002023594,登記記録の閉鎖等,0,2023-01-06,2022-12-28,有限会社タチミ,,有限会社,千葉県,船橋市,大穴北１丁目３１番１９号,,12,204,2740068,,,2022-12-28,清算の結了等,,,2015-10-05,1,,,,,タチミ,0
1096,4040002025608,登記記録の閉鎖等,0,2023-01-06,2022-12-27,有限会社水嶋建設工務所,,有限会社,千葉県,船橋市,藤原１丁目６番１１号,,12,204,2730047,,,2022-12-27,清算の結了等,,,2015-10-05,1,,,,,ミズシマケンセツコウムショ,0
1105,4050002027438,登記記録の閉鎖等,0,2023-01-06,2022-12-26,有限会社藤田板金工業,,有限会社,茨城県,神栖市,神栖４丁目８番４号,,08,232,3140143,,,2022-12-26,清算の結了等,,,2015-10-05,1,,,,,フジタバンキンコウギョウ,0
1114,4080101023112,登記記録の閉鎖等,0,2023-01-06,2023-01-05,ステルス株式会社,,株式会社,静岡県,沼津市,双葉町９番１２－２号,,22,203,4100005,,,2023-01-05,合併による解散等,9021001026560,令和４年１２月２５日神奈川県座間市ひばりが丘四丁目１７番１６号株式会社北越精機（9021001026560）に合併し解散,2022-02-22,1,,,,,ステルス,0
1130,4120001183984,登記記録の閉鎖等,0,2023-01-06,2023-01-04,株式会社リゾート・ワールド大阪,,株式会社,大阪府,大阪市中央区,本町４丁目８番１号大栄産業本町ビル７０２号,,27,128,5410053,,,2023-01-04,清算の結了等,,,2015-10-05,1,,,,,リゾートワールドオオサカ,0
1144,4120002047809,登記記録の閉鎖等,0,2023-01-06,2023-01-04,有限会社ユニ・コーポレーション,,有限会社,大阪府,大阪市北区,西天満５丁目１５番１８号,,27,127,5300047,,,2023-01-04,清算の結了等,,,2015-10-05,1,,,,,ユニコーポレーション,0
1155,4120901007268,登記記録の閉鎖等,0,2023-01-06,2022-12-28,ムツミハウス株式会社,,株式会社,大阪府,吹田市,江の木町１番１号,,27,205,5640053,,,2022-12-28,清算の結了等,,,2015-10-05,1,,,,,ムツミハウス,0
1164,4130001063129,登記記録の閉鎖等,0,2023-01-06,2022-12-27,Ｂｅｙｏｎｄ　Ｃ株式会社,,株式会社,京都府,京都市北区,紫竹西高縄町７２－２,,26,101,6038205,,,2022-12-27,清算の結了等,,,2018-10-12,1,,,,,ビヨンドシー,0
1166,4130002031745,登記記録の閉鎖等,0,2023-01-06,2022-12-27,有限会社番,,有限会社,京都府,京田辺市,花住坂１丁目２番地３,,26,211,6100352,,,2022-12-27,清算の結了等,,,2015-10-05,1,,,,,バン,0
1188,4180001109587,登記記録の閉鎖等,0,2023-01-06,2022-12-28,パルプランニング株式会社,,株式会社,愛知県,名古屋市瑞穂区,汐路町４丁目３番地,,23,108,4670003,,,2022-12-28,清算の結了等,,,2015-10-05,1,,,,,パルプランニング,0
1201,4180005007770,登記記録の閉鎖等,0,2023-01-06,2023-01-04,特定非営利活動法人希望・あすなろ,,その他の設立登記法人,愛知県,名古屋市南区,明治２丁目１０番１０号,,23,112,4570861,,,2023-01-04,清算の結了等,,,2015-10-05,1,,,,,キボウアスナロ,0
1225,4260002019273,登記記録の閉鎖等,0,2023-01-06,2023-01-05,有限会社大宗,,有限会社,岡山県,倉敷市,連島１丁目１６番４号,,33,202,7128012,,,2023-01-05,清算の結了等,,,2015-10-05,1,,,,,ダイソウ,0
1226,4260003002930,登記記録の閉鎖等,0,2023-01-06,2023-01-04,合同会社ＡＲＣＯ,,合同会社,岡山県,岡山市北区,奉還町３丁目８－９,,33,101,7000026,,,2023-01-04,合併による解散等,4260003002402,令和５年１月１日岡山市北区奉還町３－７－７合同会社ｏｎｅ’ｓ（4260003002402）に合併し解散,2019-08-05,1,,,,,アルコ,0
1252,4370002008397,登記記録の閉鎖等,0,2023-01-06,2022-12-28,有限会社はな不動産,,有限会社,宮城県,仙台市宮城野区,榴岡２丁目２番３０号,,04,102,9830852,,,2022-12-28,清算の結了等,,,2015-10-05,1,,,,,ハナフドウサン,0
1253,4370802001130,登記記録の閉鎖等,0,2023-01-06,2022-12-27,有限会社山勝土木,,有限会社,宮城県,岩沼市,下野郷字舘外１１０番地,,04,211,9892421,,,2022-12-27,清算の結了等,,,2015-10-05,1,,,,,ヤマカツドボク,0
1269,4490002003254,登記記録の閉鎖等,0,2023-01-06,2023-01-04,有限会社辰見屋酒店,,有限会社,高知県,高知市,知寄町２丁目３番３３号,,39,201,7800806,,,2023-01-04,清算の結了等,,,2015-10-05,1,,,,,タツミヤサケテン,0
1273,5010001124899,登記記録の閉鎖等,0,2023-01-06,2022-12-28,株式会社綜合教育センター,,株式会社,東京都,新宿区,東五軒町６番２４号,,13,104,1620813,,,2022-12-28,清算の結了等,,,2015-10-05,1,,,,,ソウゴウキョウイクセンター,0
1321,5011201019625,登記記録の閉鎖等,0,2023-01-06,2022-12-28,株式会社ｍａｎｍａ,,株式会社,東京都,豊島区,南大塚３丁目３６番７号南大塚Ｔ＆Ｔビル５階,,13,116,1700005,,,2022-12-28,清算の結了等,,,2017-01-18,1,,,,,マンマ,0
1323,5011205000333,登記記録の閉鎖等,0,2023-01-06,2022-12-15,天理教本中宮分教会,,その他の設立登記法人,東京都,中野区,中野１丁目３番１４号,,13,114,1640001,,,2022-12-15,合併による解散等,8011205000355,令和４年１２月１５日東京都中野区上鷺宮三丁目５番１号天理教本中分教会（8011205000355）に合併し解散,2015-10-05,1,,,,,テンリキョウホンナカミヤブンキョウカイ,0
1326,5011301020838,登記記録の閉鎖等,0,2023-01-06,2022-12-27,株式会社ぱぴよん,,株式会社,東京都,杉並区,松庵３丁目２６番１号,,13,115,1670054,,,2022-12-27,清算の結了等,,,2015-10-05,1,,,,,パピヨン,0
1330,5011501025926,登記記録の閉鎖等,0,2023-01-06,2022-12-23,恒順株式会社,,株式会社,東京都,荒川区,南千住１丁目４５番８号,,13,118,1160003,,,2022-12-23,清算の結了等,,,2020-06-19,1,,,,,コウジュン,0
1344,5013201010142,登記記録の閉鎖等,0,2023-01-06,2022-12-28,株式会社サンプランナーズ,,株式会社,東京都,新宿区,新宿５丁目５番３号,,13,104,1600022,,,2022-12-28,清算の結了等,,,2015-10-05,1,,,,,サンプランナーズ,0
1363,5021002055257,登記記録の閉鎖等,0,2023-01-06,2022-12-27,有限会社ファッション企画,,有限会社,神奈川県,足柄上郡松田町,松田惣領５６７番地の５,,14,363,2580003,,,2022-12-27,清算の結了等,,,2015-10-05,1,,,,,ファッションキカク,0
1367,5021005002727,登記記録の閉鎖等,0,2023-01-06,2022-12-20,天理教本上分教会,,その他の設立登記法人,神奈川県,相模原市南区,古淵５丁目１８番１５号,,14,153,2520344,,,2022-12-20,合併による解散等,8011205000355,令和４年１２月１５日東京都中野区上鷺宮三丁目５番１号天理教本中分教会（8011205000355）に合併し解散,2015-10-05,1,,,,,,0
1372,5030001095338,登記記録の閉鎖等,0,2023-01-06,2022-12-26,株式会社Ａｐ　Ｇａｒａｇｅ,,株式会社,埼玉県,越谷市,大字北後谷８１０番地１,,11,222,3430854,,,2022-12-26,清算の結了等,,,2015-10-05,1,,,,,エーピーガレージ,0
1375,5030003016572,登記記録の閉鎖等,0,2023-01-06,2022-12-28,合同会社ダーウィン,,合同会社,埼玉県,さいたま市大宮区,桜木町４丁目１０１０番地２アインズ桜木ビル３階,,11,103,3300854,,,2022-12-28,清算の結了等,,,2021-01-25,1,,,,,ダーウィン,0
1380,5040002069323,登記記録の閉鎖等,0,2023-01-06,2022-12-27,有限会社そよ風訪問介護サービス,,有限会社,千葉県,木更津市,港南台１丁目１９番地１７,,12,206,2920827,,,2022-12-27,清算の結了等,,,2015-10-05,1,,,,,ソヨカゼホウモンカイゴサービス,0
1385,5050005003220,登記記録の閉鎖等,0,2023-01-06,2022-12-16,天理教日志分教会,00023624,その他の設立登記法人,茨城県,かすみがうら市,坂６９０番地の３,,08,230,3000214,,,2022-12-16,合併による解散等,9120105001088,令和４年１２月１５日大阪府堺市堺区向陵中町三丁１番１号天理教堺大教会（9120105001088）に合併し解散,2015-10-05,1,,,,,,0
1391,5080001023005,登記記録の閉鎖等,0,2023-01-06,2023-01-04,株式会社エスタスポーツ,,株式会社,静岡県,静岡市駿河区,曲金１丁目７－１２－１スポーツ堂接骨院２階,,22,102,4228006,,,2023-01-04,清算の結了等,,,2019-07-24,1,,,,,エスタスポーツ,0
1398,5100002013786,登記記録の閉鎖等,0,2023-01-06,2022-12-28,有限会社荻原商店,,有限会社,長野県,上田市,中央５丁目１７番２０号,,20,203,3860012,,,2022-12-28,清算の結了等,,,2015-10-05,1,,,,,オギワラショウテン,0
1405,5110005015300,登記記録の閉鎖等,0,2023-01-06,2022-12-28,特定非営利活動法人亀田ジュニサポ,,その他の設立登記法人,新潟県,新潟市江南区,北山１９４番地１,,15,104,9500116,,,2022-12-28,清算の結了等,,,2015-10-05,1,,,,,カメダジュニサポ,0
1411,5120001029955,登記記録の閉鎖等,0,2023-01-06,2023-01-04,明和機材株式会社,,株式会社,大阪府,大阪市港区,福崎２丁目１番６２号,,27,107,5520013,,,2023-01-04,合併による解散等,5120001028858,令和５年１月１日大阪市港区福崎二丁目１番６２号建機サービス株式会社（5120001028858）に合併し解散,2015-10-05,1,,,,,メイワキザイ,0
1426,5120002034005,登記記録の閉鎖等,0,2023-01-06,2023-01-04,有限会社一刀丸,,有限会社,島根県,隠岐郡隠岐の島町,中村１５４１番地８１,,32,528,6850434,,,2023-01-04,清算の結了等,,,2015-10-05,1,,,,,イットウマル,0
1450,5130001063607,登記記録の閉鎖等,0,2023-01-06,2022-12-26,京都ホスピタリティ株式会社,,株式会社,京都府,京都市下京区,中堂寺壬生川町２２番地,,26,106,6008806,,,2022-12-26,清算の結了等,,,2019-01-04,1,,,,,キョウトホスピタリティ,0
1461,5140001029516,登記記録の閉鎖等,0,2023-01-06,2022-12-28,ＮＡＮＯＭＡＸ株式会社,,株式会社,兵庫県,神戸市東灘区,魚崎中町２丁目５番３号,,28,101,6580083,,,2022-12-28,清算の結了等,,,2015-10-05,1,,,,,ナノマックス,0
1469,5140005008747,登記記録の閉鎖等,0,2023-01-06,2022-12-20,天理教八神分教会,,その他の設立登記法人,兵庫県,丹波篠山市,八上内甲５９５番地,,28,221,6692432,,,2022-12-20,合併による解散等,1140005016786,令和４年１２月２０日兵庫県加東市山国２００４番地の４５天理教社大教会（1140005016786）に合併し解散,2015-10-05,1,,,,,テンリキョウヤカミブンキョウカイ,0
1477,5180001070929,登記記録の閉鎖等,0,2023-01-06,2022-12-21,株式会社ＡＹテック,,株式会社,愛知県,名古屋市天白区,菅田１丁目８０４番地,,23,116,4680043,,,2022-12-21,清算の結了等,,,2015-10-05,1,,,,,エイワイテック,0
1495,5180301027901,登記記録の閉鎖等,0,2023-01-06,2022-12-26,株式会社ＹＧ,,株式会社,愛知県,額田郡幸田町,大字相見字新田内１８番地,,23,501,4440117,,,2022-12-26,合併による解散等,4180301032729,令和４年１２月２６日愛知県額田郡幸田町大字相見字新田内１８番地株式会社ＹＧ岡崎（4180301032729）に合併し解散,2015-10-05,1,,,,,ワイジー,0
1496,5180301031374,登記記録の閉鎖等,0,2023-01-06,2022-12-26,株式会社ＹＧ豊田,,株式会社,愛知県,額田郡幸田町,大字相見字新田内１８番地,,23,501,4440117,,,2022-12-26,合併による解散等,4180301032729,令和４年１２月２６日愛知県額田郡幸田町大字相見字新田内１８番地株式会社ＹＧ岡崎（4180301032729）に合併し解散,2018-04-04,1,,,,,ワイジートヨタ,0
1499,5180302015401,登記記録の閉鎖等,0,2023-01-06,2022-12-26,有限会社コスモ歯研,,有限会社,愛知県,蒲郡市,三谷町東３丁目４０番地,,23,214,4430021,,,2022-12-26,清算の結了等,,,2015-10-05,1,,,,,コスモシケン,0
1513,5220005008409,登記記録の閉鎖等,0,2023-01-06,2023-01-04,一般社団法人ＨＡＫＵＳＡＮ倶楽部,,その他の設立登記法人,石川県,白山市,村井町７１７番地３,,17,210,9240032,,,2023-01-04,清算の結了等,,,2019-10-15,1,,,,,ハクサンクラブ,0
1522,5250001011826,登記記録の閉鎖等,0,2023-01-06,2022-12-28,国濱工業株式会社,00002487,株式会社,山口県,岩国市,由宇町３２４４番地,,35,208,7401488,,,2022-12-28,清算の結了等,,,2015-10-05,1,,,,,クニハマコウギョウ,0
1527,5290001051439,登記記録の閉鎖等,0,2023-01-06,2022-12-26,ピービーハウス株式会社,,株式会社,福岡県,久留米市,東合川町五丁目６番２９号,,40,203,8390807,,,2022-12-26,清算の結了等,,,2020-07-31,1,,,,,ピービーハウス,0
1540,5330001007122,登記記録の閉鎖等,0,2023-01-06,2023-01-04,株式会社ファミリージャパン,,株式会社,熊本県,熊本市西区,城山下代４丁目１０番２１号,,43,103,8600066,,,2023-01-04,清算の結了等,,,2015-10-05,1,,,,,ファミリージャパン,0
1541,5330001027707,登記記録の閉鎖等,0,2023-01-06,2023-01-04,株式会社阿蘇スイーツ,,株式会社,熊本県,熊本市南区,江越２丁目１５番３０号,,43,104,8600834,,,2023-01-04,合併による解散等,7330001007013,令和５年１月１日熊本市南区江越二丁目１５番３０号株式会社デリバリー九州（7330001007013）に合併し解散,2020-08-05,1,,,,,アソスイーツ,0
1563,5380002030597,登記記録の閉鎖等,0,2023-01-06,2022-12-27,有限会社生活建業,,有限会社,福島県,双葉郡浪江町,大字川添字南上ノ原１００番地の６,,07,547,9791531,,,2022-12-27,清算の結了等,,,2015-10-05,1,,,,,セイカツケンギョウ,0
1564,5380003004807,登記記録の閉鎖等,0,2023-01-06,2022-12-28,合同会社倖佳,,合同会社,福島県,福島市,飯坂町字小川１０番地の１,,07,201,9600201,,,2022-12-28,清算の結了等,,,2020-12-14,1,,,,,コウカ,0
1582,5480001005904,登記記録の閉鎖等,0,2023-01-06,2023-01-04,株式会社友愛,,株式会社,徳島県,板野郡松茂町,笹木野字八下３３番３,,36,401,7710219,,,2023-01-04,合併による解散等,7480001005902,令和５年１月１日徳島県板野郡松茂町笹木野字八下３３番２株式会社ライフサービス（7480001005902）に合併し解散,2015-10-05,1,,,,,ユウアイ,0
1589,6010001216167,登記記録の閉鎖等,0,2023-01-06,2022-12-27,由利本荘洋上風力開発ホールディングス株式会社,,株式会社,東京都,千代田区,霞が関３丁目２番５号,,13,101,1000013,,,2022-12-27,清算の結了等,,,2021-03-02,1,,,,,ユリホンジョウヨウジョウフウリョクカイハツホールディングス,0
1607,6010401159271,登記記録の閉鎖等,0,2023-01-06,2022-12-20,エンブレムリビング株式会社,,株式会社,東京都,港区,南麻布２丁目８番５－８０２号,,13,103,1060047,,,2022-12-20,清算の結了等,,,2021-04-06,1,,,,,エンブレムリビング,0
1624,6010903002152,登記記録の閉鎖等,0,2023-01-06,2022-12-28,エイチエムアセット合同会社,,合同会社,東京都,世田谷区,成城７丁目１４番１１号,,13,112,1570066,,,2022-12-28,清算の結了等,,,2015-10-05,1,,,,,エイチエムアセット,0
1632,6011001140002,登記記録の閉鎖等,0,2023-01-06,2023-01-04,株式会社Ｒ．フィールド,,株式会社,東京都,足立区,東綾瀬１丁目２６番１９－４１５号,,13,121,1200004,,,2023-01-04,清算の結了等,,,2021-04-28,1,,,,,アールフィールド,0
1653,6011202011431,登記記録の閉鎖等,0,2023-01-06,2022-12-28,有限会社サンフルール,,有限会社,東京都,中野区,鷺宮３丁目１番１６号,,13,114,1650032,,,2022-12-28,清算の結了等,,,2015-10-05,1,,,,,サンフルール,0
1676,6013201011759,登記記録の閉鎖等,0,2023-01-06,2022-12-27,株式会社キャラバンサライ,,株式会社,東京都,目黒区,大橋２丁目４番１８－４０７号,,13,110,1530044,,,2022-12-27,清算の結了等,,,2015-10-05,1,,,,,キャラバンサライ,0
1695,6030002121851,登記記録の閉鎖等,0,2023-01-06,2022-12-28,有限会社山和建設,,有限会社,埼玉県,秩父市,寺尾３１００番地２,,11,207,3680056,,,2022-12-28,清算の結了等,,,2015-10-05,1,,,,,ヤマワケンセツ,0
1704,6040001033774,登記記録の閉鎖等,0,2023-01-06,2023-01-04,ＷＩＬＬＥＲ損保サービス株式会社,,株式会社,大阪府,大阪市北区,大淀中１丁目１番８８号,,27,127,5310076,,,2023-01-04,合併による解散等,1010401060384,令和５年１月１日大阪市北区大淀中一丁目１番８８号ＷＩＬＬＥＲ株式会社（1010401060384）に合併し解散,2015-10-05,1,,,,,ウィラーソンポサービス,0
1717,6050001008841,登記記録の閉鎖等,0,2023-01-06,2022-12-26,東建設工業株式会社,,株式会社,茨城県,土浦市,中央１丁目１１番６号,,08,203,3000043,,,2022-12-26,清算の結了等,,,2015-10-05,1,,,,,アズマケンセツコウギョウ,0
1774,6140002047169,登記記録の閉鎖等,0,2023-01-06,2022-12-28,有限会社青山建装,,有限会社,兵庫県,姫路市,青山６丁目３８番１２号,,28,201,6712222,,,2022-12-28,清算の結了等,,,2015-10-05,1,,,,,アオヤマケンソウ,0
1781,6160002005018,登記記録の閉鎖等,0,2023-01-06,2023-01-04,有限会社杉原工業,,有限会社,滋賀県,湖南市,石部北１丁目３番２１号,,25,211,5203113,,,2023-01-04,清算の結了等,,,2015-10-05,1,,,,,スギハラコウギョウ,0
1789,6180001128932,登記記録の閉鎖等,0,2023-01-06,2022-12-28,株式会社ル・クラージュ,,株式会社,愛知県,名古屋市中村区,牛田通１丁目２０番地Ｆ－ＣＵＴＥ３Ｅ,,23,105,4530853,,,2022-12-28,清算の結了等,,,2017-08-10,1,,,,,ルクラージュ,0
1793,6180002081651,登記記録の閉鎖等,0,2023-01-06,2023-01-04,有限会社イトセー,,有限会社,愛知県,江南市,村久野町藤里１０２番地,,23,217,4838317,,,2023-01-04,清算の結了等,,,2015-10-05,1,,,,,イトセー,0
1809,6210002012751,登記記録の閉鎖等,0,2023-01-06,2022-12-28,有限会社アーム・イワイ,,有限会社,福井県,鯖江市,別司町第５０号２番地,,18,207,9161225,,,2022-12-28,清算の結了等,,,2015-10-05,1,,,,,アームイワイ,0
1838,6290805000978,登記記録の閉鎖等,0,2023-01-06,2022-12-21,戸畑質屋協同組合,,その他の設立登記法人,福岡県,北九州市戸畑区,旭町６番１５号,,40,105,8040083,,,2022-12-21,清算の結了等,,,2015-10-05,1,,,,,トバタシチヤ,0
1856,6360002017348,登記記録の閉鎖等,0,2023-01-06,2022-12-28,有限会社森,,有限会社,沖縄県,浦添市,字屋富祖一丁目６番３号,,47,208,9012127,,,2022-12-28,清算の結了等,,,2015-10-05,1,,,,,モリ,0
1859,6360003009831,登記記録の閉鎖等,0,2023-01-06,2022-12-28,ＭＶＬ　Ｊａｐａｎ合同会社,,合同会社,沖縄県,中頭郡読谷村,字渡具知１７８番地１,,47,324,9040315,,,2022-12-28,清算の結了等,,,2019-10-16,1,,,,,エムブイエルジャパン,0
1862,6370002012034,登記記録の閉鎖等,0,2023-01-06,2022-12-28,有限会社竹内会計事務所,,有限会社,宮城県,仙台市青葉区,錦町１丁目４番５－２０９号,,04,101,9800012,,,2022-12-28,清算の結了等,,,2015-10-05,1,,,,,タケウチカイケイジムショ,0
1865,6380005010538,登記記録の閉鎖等,0,2023-01-06,2022-12-28,一般社団法人エコデラーニ,,その他の設立登記法人,福島県,大沼郡金山町,大字横田字高根沢７２番地１４,,07,445,9680322,,,2022-12-28,清算の結了等,,,2015-10-05,1,,,,,エコデラーニ,0
1878,6440001006087,登記記録の閉鎖等,0,2023-01-06,2022-12-21,城ヶ端建設株式会社,,株式会社,北海道,久遠郡せたな町,北檜山区北檜山１３５番地１１,,01,371,0494501,,,2022-12-21,清算の結了等,,,2015-10-05,1,,,,,ジョウガハタケンセツ,0
1887,7010001112984,登記記録の閉鎖等,0,2023-01-06,2022-12-27,沖縄マドコン株式会社,,株式会社,沖縄県,那覇市,長田１丁目１番１号アクロス寄宮３０２,,47,201,9020077,,,2022-12-27,清算の結了等,,,2015-10-05,1,,,,,オキナワマドコン,0
1888,7010001124105,登記記録の閉鎖等,0,2023-01-06,2022-12-27,ヤマ美術印刷株式会社,,株式会社,東京都,文京区,関口１丁目４１番３号,,13,105,1120014,,,2022-12-27,清算の結了等,,,2015-10-05,1,,,,,ヤマビジュツインサツ,0
1893,7010001216166,登記記録の閉鎖等,0,2023-01-06,2022-12-27,能代・三種・男鹿洋上風力開発ホールディングス株式会社,,株式会社,東京都,千代田区,霞が関３丁目２番５号,,13,101,1000013,,,2022-12-27,清算の結了等,,,2021-03-02,1,,,,,ノシロミタネオガヨウジョウフウリョクカイハツホールディングス,0
1916,7010802003390,登記記録の閉鎖等,0,2023-01-06,2022-12-26,有限会社カン・コーポレーション,,有限会社,東京都,大田区,北千束１丁目６１番１号,,13,111,1450062,,,2022-12-26,清算の結了等,,,2015-10-05,1,,,,,カンコーポレーション,0
1921,7011001002762,登記記録の閉鎖等,0,2023-01-06,2022-12-28,株式会社岩重建築設計事務所,,株式会社,神奈川県,川崎市麻生区,万福寺４丁目２３番４号,,14,137,2150004,,,2022-12-28,清算の結了等,,,2015-10-05,1,,,,,イワシゲケンチクセッケイジムショ,0
1924,7011001143532,登記記録の閉鎖等,0,2023-01-06,2022-12-28,株式会社ＦｕｔｓｕＦｕｔｓｕ,,株式会社,東京都,渋谷区,宇田川町２番１号渋谷ホームズ８１７,,13,113,1500042,,,2022-12-28,清算の結了等,,,2021-10-20,1,,,,,フツフツ,0
1934,7011101059109,登記記録の閉鎖等,0,2023-01-06,2022-12-27,株式会社エヌベン・エデュケーション,,株式会社,東京都,新宿区,西新宿３丁目１番５号新宿嘉泉ビル８階,,13,104,1600023,,,2022-12-27,清算の結了等,,,2015-10-05,1,,,,,エヌベンエデュケーション,0
1942,7011503003390,登記記録の閉鎖等,0,2023-01-06,2023-01-04,Ｅｎｏｘ合同会社,,合同会社,東京都,板橋区,徳丸３丁目３０番１７号,,13,119,1750083,,,2023-01-04,清算の結了等,,,2017-09-22,1,,,,,イエヌオエックス,0
1948,7011801002144,登記記録の閉鎖等,0,2023-01-06,2022-12-27,株式会社島田,,株式会社,東京都,葛飾区,立石４丁目１番１２号,,13,122,1240012,,,2022-12-27,清算の結了等,,,2015-10-05,1,,,,,シマダ,0
1963,7020002002663,登記記録の閉鎖等,0,2023-01-06,2022-12-28,有限会社岡田巧芸,,有限会社,神奈川県,横浜市泉区,上飯田町２１３８番地１２,,14,116,2450018,,,2022-12-28,清算の結了等,,,2015-10-05,1,,,,,オカダコウゲイ,0
1966,7021002030869,登記記録の閉鎖等,0,2023-01-06,2022-12-27,有限会社上原興業,,有限会社,神奈川県,厚木市,厚木町３番１号,,14,212,2430011,,,2022-12-27,清算の結了等,,,2015-10-05,1,,,,,ウエハラコウギョウ,0
1975,7030002023535,登記記録の閉鎖等,0,2023-01-06,2022-12-27,有限会社アイ・エヌ包装資材,,有限会社,埼玉県,戸田市,上戸田４丁目１１番１７号,,11,224,3350022,,,2022-12-27,清算の結了等,,,2015-10-05,1,,,,,アイエヌホウソウシザイ,0
1979,7040001006630,登記記録の閉鎖等,0,2023-01-06,2022-12-28,株式会社富士ミート,,株式会社,千葉県,千葉市中央区,椿森３丁目４番１２号,,12,101,2600042,,,2022-12-28,清算の結了等,,,2015-10-05,1,,,,,フジミート,0
1984,7040001114912,登記記録の閉鎖等,0,2023-01-06,2022-12-27,株式会社ＴＨＲＥＥＤＥＡ,,株式会社,千葉県,柏市,若柴８５番地柏市場ビル,,12,217,2770871,,,2022-12-27,清算の結了等,,,2020-09-09,1,,,,,スリーディア,0
2015,7110002020210,登記記録の閉鎖等,0,2023-01-06,2022-12-28,有限会社イカラシ加工所,,有限会社,新潟県,柏崎市,松波１丁目１７番１８号,,15,205,9450011,,,2022-12-28,清算の結了等,,,2015-10-05,1,,,,,イカラシカコウジョ,0
2052,7130001028475,登記記録の閉鎖等,0,2023-01-06,2022-12-28,株式会社京きわみ,,株式会社,京都府,京都市東山区,三条通大橋東入三町目２０番４,,26,105,6050005,,,2022-12-28,清算の結了等,,,2015-10-05,1,,,,,キョウキワミ,0
2077,7140001111131,登記記録の閉鎖等,0,2023-01-06,2022-12-28,株式会社コザキ,,株式会社,兵庫県,明石市,大久保町大久保町１１１１番地、１００９号,,28,203,6740067,,,2022-12-28,清算の結了等,,,2018-09-06,1,,,,,コザキ,0
2081,7160001002023,登記記録の閉鎖等,0,2023-01-06,2022-12-28,株式会社ヤマキ,,株式会社,滋賀県,大津市,坂本６丁目８番３９号,,25,201,5200113,,,2022-12-28,清算の結了等,,,2015-10-05,1,,,,,ヤマキ,0
2100,7180301004147,登記記録の閉鎖等,0,2023-01-06,2022-12-23,株式会社オーケーシステム,,株式会社,愛知県,岡崎市,真福寺町字中ノ坂１３４番地,,23,202,4442106,,,2022-12-23,清算の結了等,,,2015-10-05,1,,,,,オーケーシステム,0
2106,7200001032809,登記記録の閉鎖等,0,2023-01-06,2023-01-05,株式会社伊東組,,株式会社,岐阜県,郡上市,大和町徳永４３３番地,,21,219,5014607,,,2023-01-05,清算の結了等,,,2016-05-11,1,,,,,,0
2128,7280001002713,登記記録の閉鎖等,0,2023-01-06,2023-01-04,株式会社やまさき不動産,,株式会社,島根県,安来市,安来町１１０８番地５,,32,206,6920011,,,2023-01-04,清算の結了等,,,2015-10-05,1,,,,,ヤマサキフドウサン,0
2132,7280002005418,登記記録の閉鎖等,0,2023-01-06,2023-01-04,有限会社邦茂ビル,,有限会社,島根県,出雲市,渡橋町８１５番地,,32,203,6930004,,,2023-01-04,合併による解散等,3280001003335,令和５年１月１日島根県出雲市渡橋町８１５番地株式会社森山邦商店（3280001003335）に合併し解散,2015-10-05,1,,,,,クニシゲビル,0
2134,7290001009732,登記記録の閉鎖等,0,2023-01-06,2022-12-28,浜口鉄工株式会社,,株式会社,福岡県,福岡市中央区,港２丁目３番１号,,40,133,8100075,,,2022-12-28,清算の結了等,,,2015-10-05,1,,,,,ハマグチテッコウ,0
2150,7330001009240,登記記録の閉鎖等,0,2023-01-06,2023-01-04,ミツワ測地開発株式会社,,株式会社,熊本県,菊池郡菊陽町,沖野４丁目１２番１号,,43,404,8691115,,,2023-01-04,清算の結了等,,,2015-10-05,1,,,,,ミツワソクチカイハツ,0
2152,7330001014496,登記記録の閉鎖等,0,2023-01-06,2022-12-28,株式会社ＪＭ,,株式会社,熊本県,葦北郡芦北町,大字鶴木山４５番地,,43,482,8695454,,,2022-12-28,合併による解散等,2330001014212,令和４年１２月１日熊本県葦北郡芦北町大字鶴木山４５番地株式会社みやもと海産物（2330001014212）に合併し解散,2015-10-05,1,,,,,ジェイエム,0
2153,7330001021047,登記記録の閉鎖等,0,2023-01-06,2023-01-04,株式会社未来建設,,株式会社,熊本県,人吉市,上林町１２１８番地１,,43,203,8680081,,,2023-01-04,清算の結了等,,,2015-10-05,1,,,,,ミライケンセツ,0
2171,7380005004687,登記記録の閉鎖等,0,2023-01-06,2022-12-27,医療法人さかの整形外科クリニック,,その他の設立登記法人,福島県,白河市,旭町２丁目１２５番地,,07,205,9610912,,,2022-12-27,清算の結了等,,,2015-10-05,1,,,,,サカノセイケイゲカクリニック,0
2173,7380005011295,登記記録の閉鎖等,0,2023-01-06,2022-12-27,特定非営利活動法人ふくしま地球市民発伝所,,その他の設立登記法人,福島県,福島市,上鳥渡字しのぶ台１４－８,,07,201,9601107,,,2022-12-27,清算の結了等,,,2015-10-05,1,,,,,,0
2176,7400001001578,登記記録の閉鎖等,0,2023-01-06,2023-01-04,盛岡ガスサービス株式会社,,株式会社,岩手県,盛岡市,上田４丁目１４番２６号,,03,201,0200066,,,2023-01-04,合併による解散等,9400001001576,令和５年１月１日岩手県盛岡市上田二丁目１９番５６号盛岡ガス株式会社（9400001001576）に合併し解散,2015-10-05,1,,,,,モリオカガスサービス,0
2182,7420001002310,登記記録の閉鎖等,0,2023-01-06,2022-12-28,東洋タクシー株式会社,,株式会社,青森県,東津軽郡平内町,大字沼館字家岸６８番地４,,02,301,0393313,,,2022-12-28,清算の結了等,,,2015-10-05,1,,,,,トウヨウタクシー,0
2196,7500002020146,登記記録の閉鎖等,0,2023-01-06,2022-12-28,友進工業有限会社,,有限会社,愛媛県,今治市,伯方町木浦甲４５１２番地２３,,38,202,7942305,,,2022-12-28,清算の結了等,,,2015-10-05,1,,,,,ユウシンコウギョウ,0
2200,8010001162715,登記記録の閉鎖等,0,2023-01-06,2022-12-22,株式会社ベストパートナー,,株式会社,東京都,渋谷区,幡ヶ谷２丁目１８番１８－１０５号,,13,113,1510072,,,2022-12-22,清算の結了等,,,2015-10-05,1,,,,,ベストパートナー,0
2203,8010001194312,登記記録の閉鎖等,0,2023-01-06,2022-12-27,凱安瑞株式会社,,株式会社,東京都,千代田区,神田小川町３丁目２２タイメイビル３階３－Ａ号室,,13,101,1010052,,,2022-12-27,清算の結了等,,,2018-08-21,1,,,,,ガイアンズイ,0
2212,8010401071846,登記記録の閉鎖等,0,2023-01-06,2022-12-19,株式会社エムシイエス,,株式会社,東京都,港区,赤坂３丁目８番１４号,,13,103,1070052,,,2022-12-19,清算の結了等,,,2015-10-05,1,,,,,エムシイエス,0
2240,8010901022893,登記記録の閉鎖等,0,2023-01-06,2022-12-26,株式会社アリエス,,株式会社,東京都,目黒区,中町２丁目４８番７－２１２号ガーデンハイム祐天寺,,13,110,1530065,,,2022-12-26,清算の結了等,,,2015-10-05,1,,,,,アリエス,0
2248,8011001117799,登記記録の閉鎖等,0,2023-01-06,2023-01-04,Ａｎｄ　ｔｏｄａｙ株式会社,,株式会社,東京都,目黒区,八雲１丁目７番２０－２０２号,,13,110,1520023,,,2023-01-04,清算の結了等,,,2017-08-15,1,,,,,アンドトゥデイ,0
2253,8011101082002,登記記録の閉鎖等,0,2023-01-06,2022-12-27,株式会社ジーニージャパン,,株式会社,東京都,新宿区,西新宿７丁目１９番１５号小田切ビル２０２号,,13,104,1600023,,,2022-12-27,清算の結了等,,,2017-10-18,1,,,,,ジーニージャパン,0
2254,8011101091234,登記記録の閉鎖等,0,2023-01-06,2022-12-28,株式会社ケイティー,,株式会社,東京都,新宿区,西新宿４丁目２番１５－１９０８号,,13,104,1600023,,,2022-12-28,清算の結了等,,,2020-05-14,1,,,,,ケイティー,0
2268,8013202007952,登記記録の閉鎖等,0,2023-01-06,2022-12-28,有限会社カトマンズガングリ,,有限会社,東京都,目黒区,下目黒１丁目２番２２号,,13,110,1530064,,,2022-12-28,清算の結了等,,,2015-10-05,1,,,,,カトマンズガングリ,0
2298,8030002035752,登記記録の閉鎖等,0,2023-01-06,2022-12-27,有限会社羽田商店,,有限会社,埼玉県,入間市,東町７丁目１番６号,,11,225,3580002,,,2022-12-27,清算の結了等,,,2015-10-05,1,,,,,ハダショウテン,0
2321,8060002018317,登記記録の閉鎖等,0,2023-01-06,2022-12-27,有限会社アライアパレル,,有限会社,栃木県,芳賀郡茂木町,大字坂井１４０６番地１,,09,343,3213544,,,2022-12-27,清算の結了等,,,2015-10-05,1,,,,,アライアパレル,0
2333,8080402003668,登記記録の閉鎖等,0,2023-01-06,2023-01-04,有限会社柴田工業,,有限会社,静岡県,浜松市浜北区,染地台１丁目２５番１４号,,22,136,4340046,,,2023-01-04,清算の結了等,,,2015-10-05,1,,,,,シバタコウギョウ,0
2336,8100002037130,登記記録の閉鎖等,0,2023-01-06,2022-12-28,有限会社グローバルワンハート,,有限会社,愛知県,名古屋市守山区,苗代２丁目１６番地１５,,23,113,4630046,,,2022-12-28,清算の結了等,,,2015-10-05,1,,,,,グローバルワンハート,0
2354,8120001214760,登記記録の閉鎖等,0,2023-01-06,2023-01-04,株式会社ゲンティン大阪,,株式会社,大阪府,大阪市中央区,本町４丁目８番１号ＳＤ本町ビル７０２号,,27,128,5410053,,,2023-01-04,清算の結了等,,,2018-07-23,1,,,,,ゲンティンオオサカ,0
2374,8120902019077,登記記録の閉鎖等,0,2023-01-06,2023-01-04,テクノアート有限会社,,有限会社,大阪府,豊中市,東豊中町５丁目２３番９－４０４号,,27,203,5600003,,,2023-01-04,清算の結了等,,,2015-10-05,1,,,,,テクノアート,0
2377,8122002007037,登記記録の閉鎖等,0,2023-01-06,2023-01-04,有限会社セレスティー,,有限会社,大阪府,東大阪市,楠根１丁目７番４４号,,27,227,5770006,,,2023-01-04,清算の結了等,,,2015-10-05,1,,,,,セレスティー,0
2396,8160001006262,登記記録の閉鎖等,0,2023-01-06,2023-01-04,株式会社アップイン,,株式会社,滋賀県,湖南市,平松北１丁目６１番地,,25,211,5203235,,,2023-01-04,合併による解散等,5160001019639,令和４年１２月３１日滋賀県甲賀市水口町虫生野中央２５番地株式会社キューズ（5160001019639）に合併し解散,2015-10-05,1,,,,,アップイン,0
2406,8180003018675,登記記録の閉鎖等,0,2023-01-06,2022-12-28,ＬＣＰ合同会社,,合同会社,愛知県,名古屋市東区,東桜２丁目９番３４号成田ビル１Ｆ,,23,102,4610005,,,2022-12-28,清算の結了等,,,2018-02-08,1,,,,,エルシーピー,0
2415,8220001017369,登記記録の閉鎖等,0,2023-01-06,2023-01-04,海浜自動車株式会社,,株式会社,石川県,かほく市,白尾ラ１１２の１番地,,17,209,9291177,,,2023-01-04,清算の結了等,,,2015-10-05,1,,,,,カイヒンジドウシャ,0
2433,8250005006778,登記記録の閉鎖等,0,2023-01-06,2022-12-20,天理教清州分教会,,その他の設立登記法人,山口県,柳井市,中央３丁目１５番８号,,35,212,7420035,,,2022-12-20,合併による解散等,5140005014217,令和４年１２月１９日兵庫県姫路市御立東二丁目１７番１２号天理教元姫分教会（5140005014217）に合併し解散,2015-10-05,1,,,,,テンリキョウセイシュウブンキョウカイ,0
2457,8310003002500,登記記録の閉鎖等,0,2023-01-06,2023-01-05,チェンジコンサルティング合同会社,,合同会社,長崎県,長崎市,栄町５番１１号,,42,201,8500875,,,2023-01-05,清算の結了等,,,2015-10-05,1,,,,,,0
2459,8320001005149,登記記録の閉鎖等,0,2023-01-06,2023-01-05,株式会社Ｅｔｅｒｎａｌ　ｓｈｉｐ,,株式会社,大分県,大分市,雄城台５番２５号,,44,201,8701165,,,2023-01-05,清算の結了等,,,2015-10-05,1,,,,,エターナルシップ,0
2469,8340005005969,登記記録の閉鎖等,0,2023-01-06,2023-01-05,医療法人同仁会,,その他の設立登記法人,鹿児島県,南九州市,川辺町平山５８６０番地,,46,223,8970215,,,2023-01-05,清算の結了等,,,2015-10-05,1,,,,,ドウジンカイ,0
2479,8380001018368,登記記録の閉鎖等,0,2023-01-06,2022-12-28,株式会社会津ばんげ公共サービス,,株式会社,福島県,河沼郡会津坂下町,大字見明字堤帰２１１５番地,,07,421,9696506,,,2022-12-28,清算の結了等,,,2015-10-05,1,,,,,アイヅバンゲコウキョウサービス,0
2483,8390003001668,登記記録の閉鎖等,0,2023-01-06,2022-12-23,合同会社山形まちづくり公社,,合同会社,山形県,東根市,大字羽入２１１１番地の７,,06,211,9993776,,,2022-12-23,清算の結了等,,,2019-11-11,1,,,,,ヤマガタマチヅクリコウシャ,0
2496,8450002003642,登記記録の閉鎖等,0,2023-01-06,2023-01-04,有限会社ティ・エム,,有限会社,北海道,旭川市,五条通９丁目１４１０番地１スケア５０９　８０２号室,,01,204,0700035,,,2023-01-04,清算の結了等,,,2015-10-05,1,,,,,ティエム,0
2512,9010003027725,登記記録の閉鎖等,0,2023-01-06,2022-12-26,アイアイビー合同会社,,合同会社,東京都,中央区,日本橋兜町１７番１号日本橋ロイヤルプラザ７０６,,13,102,1030026,,,2022-12-26,清算の結了等,,,2018-06-15,1,,,,,アイアイビー,0
2513,9010003036726,登記記録の閉鎖等,0,2023-01-06,2022-12-27,合同会社榊原憲,,合同会社,東京都,中央区,勝どき６丁目３番１－４１１６号,,13,102,1040054,,,2022-12-27,清算の結了等,,,2022-01-13,1,,,,,サカキバラケン,0
2519,9010401113102,登記記録の閉鎖等,0,2023-01-06,2022-12-26,イノベックスサイエンス株式会社,,株式会社,東京都,中央区,日本橋大伝馬町１４番１７号大伝馬町千歳ビル１階,,13,102,1030011,,,2022-12-26,清算の結了等,,,2015-10-05,1,,,,,イノベックスサイエンス,0
2521,9010401143314,登記記録の閉鎖等,0,2023-01-06,2022-12-20,株式会社ＮｅｔＤｅｐ,,株式会社,東京都,港区,三田３丁目４番３号,,13,103,1080073,,,2022-12-20,清算の結了等,,,2019-01-22,1,,,,,ネットデップ,0
2547,9010902026331,登記記録の閉鎖等,0,2023-01-06,2022-12-28,有限会社早房内燃機工業所,,有限会社,東京都,世田谷区,東玉川１丁目４番１７号,,13,112,1580084,,,2022-12-28,清算の結了等,,,2015-10-05,1,,,,,ハヤブサナイネンキコウギョウショ,0
2564,9011201001851,登記記録の閉鎖等,0,2023-01-06,2022-12-26,株式会社小宮工務店,,株式会社,東京都,中野区,鷺宮３丁目３１番６号,,13,114,1650032,,,2022-12-26,清算の結了等,,,2015-10-05,1,,,,,コミヤコウムテン,0
2576,9011602011672,登記記録の閉鎖等,0,2023-01-06,2022-12-23,有限会社松土硝子店,,有限会社,東京都,練馬区,南大泉１丁目４４番２５号,,13,120,1780064,,,2022-12-23,清算の結了等,,,2015-10-05,1,,,,,マツドガラステン,0
2585,9013201001096,登記記録の閉鎖等,0,2023-01-06,2022-12-28,株式会社オーケー製作所,,株式会社,東京都,目黒区,鷹番１丁目１４番２５号,,13,110,1520004,,,2022-12-28,清算の結了等,,,2015-10-05,1,,,,,オーケーセイサクショ,0
2596,9020002000285,登記記録の閉鎖等,0,2023-01-06,2022-12-28,啓南電設有限会社,,有限会社,神奈川県,横浜市栄区,上之町３１番７号,,14,115,2470025,,,2022-12-28,清算の結了等,,,2015-10-05,1,,,,,ケイナンデンセツ,0
2610,9021005000470,登記記録の閉鎖等,0,2023-01-06,2022-12-27,企業組合ＢＶ倶楽部,,その他の設立登記法人,神奈川県,藤沢市,藤が岡３丁目６番３号,,14,205,2510004,,,2022-12-27,清算の結了等,,,2015-10-05,1,,,,,ビーヴィークラブ,0
2614,9030001023963,登記記録の閉鎖等,0,2023-01-06,2022-12-28,株式会社ギャラリー・河野,,株式会社,埼玉県,所沢市,小手指南１丁目６番地の１１,,11,208,3591146,,,2022-12-28,清算の結了等,,,2015-10-05,1,,,,,ギャラリーコウノ,0
2615,9030001040991,登記記録の閉鎖等,0,2023-01-06,2022-12-28,株式会社海老原機械工業,,株式会社,埼玉県,三郷市,中央２丁目１５番地１９,,11,237,3410038,,,2022-12-28,清算の結了等,,,2015-10-05,1,,,,,エビハラキカイコウギョウ,0
2616,9030001071467,登記記録の閉鎖等,0,2023-01-06,2022-12-26,内田レース株式会社,,株式会社,埼玉県,比企郡小川町,大字大塚１２８７番地,,11,343,3550328,,,2022-12-26,清算の結了等,,,2015-10-05,1,,,,,ウチダレース,0
2624,9030002102543,登記記録の閉鎖等,0,2023-01-06,2022-12-28,有限会社郷間プレス型製作所,,有限会社,埼玉県,川口市,青木３丁目２３番２１号,,11,203,3320031,,,2022-12-28,清算の結了等,,,2015-10-05,1,,,,,,0
2633,9040001097833,登記記録の閉鎖等,0,2023-01-06,2022-12-26,株式会社ＲＥＴＳＯ,,株式会社,千葉県,白井市,堀込２丁目５番２－３０７号,,12,232,2701424,,,2022-12-26,清算の結了等,,,2016-11-24,1,,,,,レッソ,0
2637,9040002020372,登記記録の閉鎖等,0,2023-01-06,2022-12-27,有限会社アルファミリー,,有限会社,千葉県,市川市,南八幡３丁目１３番６－１２０１号,,12,203,2720023,,,2022-12-27,清算の結了等,,,2015-10-05,1,,,,,アルファミリー,0
2646,9050003002030,登記記録の閉鎖等,0,2023-01-06,2022-12-22,合資会社下館商會,,合資会社,茨城県,筑西市,丙２０６番地,,08,227,3080031,,,2022-12-22,清算の結了等,,,2015-10-05,1,,,,,シモダテショウカイ,0
2666,9080102000849,登記記録の閉鎖等,0,2023-01-06,2022-12-22,有限会社掴原商店,00107692,有限会社,静岡県,沼津市,魚町１９番地,,22,203,4100892,,,2022-12-22,清算の結了等,,,2016-09-05,1,,,,,,0
2668,9080102014601,登記記録の閉鎖等,0,2023-01-06,2023-01-04,中日本自動車工業有限会社,,有限会社,静岡県,富士市,国久保３丁目５番４５号,,22,210,4170071,,,2023-01-04,清算の結了等,,,2015-10-05,1,,,,,ナカニホンジドウシャコウギョウ,0
2677,9120001111932,登記記録の閉鎖等,0,2023-01-06,2022-12-28,創真株式会社,,株式会社,大阪府,大阪市東成区,深江北１丁目６番４号,,27,115,5370001,,,2022-12-28,清算の結了等,,,2015-10-05,1,,,,,ソウシン,0
2688,9120002080747,登記記録の閉鎖等,0,2023-01-06,2022-12-27,瀬戸内産業有限会社,,有限会社,大阪府,松原市,天美我堂６丁目５６番地の２,,27,217,5800026,,,2022-12-27,合併による解散等,2120102014438,令和４年１２月２７日大阪府松原市天美西一丁目１番５号日本テクノハウジング株式会社（2120102014438）に合併し解散,2015-10-05,1,,,,,セトウチサンギョウ,0
2718,9180001063722,登記記録の閉鎖等,0,2023-01-06,2022-12-26,株式会社藤田,,株式会社,愛知県,名古屋市昭和区,南分町４丁目４番地,,23,107,4660849,,,2022-12-26,清算の結了等,,,2015-10-05,1,,,,,フジタ,0
2732,9180002026356,登記記録の閉鎖等,0,2023-01-06,2022-12-27,有限会社早鍵,,有限会社,愛知県,名古屋市緑区,六田２丁目５番地,,23,114,4580036,,,2022-12-27,清算の結了等,,,2015-10-05,1,,,,,ハヤカギ,0
2741,9180005019043,登記記録の閉鎖等,0,2023-01-06,2023-01-04,一般社団法人リガーレ,,その他の設立登記法人,愛知県,名古屋市中村区,宿跡町１丁目７１番地１第５ラインビル３０３号室,,23,105,4530067,,,2023-01-04,清算の結了等,,,2020-12-01,1,,,,,リガーレ,0
2756,9210001000696,登記記録の閉鎖等,0,2023-01-06,2022-12-26,ＡＬＰＲＯ　ＪＡＰＡＮ株式会社,,株式会社,東京都,中央区,東日本橋２丁目９番１１号大日東日本橋ビル５階,,13,102,1030004,,,2022-12-26,清算の結了等,,,2015-10-05,1,,,,,アルプロジャパン,0
2758,9220001023696,登記記録の閉鎖等,0,2023-01-06,2022-12-27,株式会社Ｄ’ｓ,,株式会社,石川県,小松市,八幡町８６番地,,17,203,9230954,,,2022-12-27,清算の結了等,,,2020-08-26,1,,,,,ディーズ,0
2781,9260002021373,登記記録の閉鎖等,0,2023-01-06,2023-01-04,有限会社水島常照園,,有限会社,岡山県,倉敷市,中畝７丁目１番３５号,,33,202,7128051,,,2023-01-04,清算の結了等,,,2015-10-05,1,,,,,ミズシマジョウショウエン,0
2803,9340002027924,登記記録の閉鎖等,0,2023-01-06,2022-12-27,有限会社にいな建設,,有限会社,鹿児島県,志布志市,志布志町安楽４５６９番地１,,46,221,8997104,,,2022-12-27,清算の結了等,,,2015-10-05,1,,,,,ニイナケンセツ,0
2812,9370003005091,登記記録の閉鎖等,0,2023-01-06,2022-12-28,合同会社アダム,,合同会社,宮城県,仙台市宮城野区,榴岡１丁目６番２２号美徳五番館２階,,04,102,9830852,,,2022-12-28,清算の結了等,,,2021-01-25,1,,,,,アダム,0
2817,9390002012087,登記記録の閉鎖等,0,2023-01-06,2022-12-26,有限会社愛友,,有限会社,山形県,寒河江市,栄町１番１６号,,06,206,9910034,,,2022-12-26,清算の結了等,,,2015-10-05,1,,,,,アイユウ,0
2835,9500002011886,登記記録の閉鎖等,0,2023-01-06,2023-01-04,有限会社松見電機商会,,有限会社,愛媛県,大洲市,大洲８４番地,,38,207,7950012,,,2023-01-04,清算の結了等,,,2015-10-05,1,,,,,マツミデンキショウカイ,0
