sequenceNumber,corporateNumber,process,correct,updateDate,changeDate,name,nameImageId,kind,prefectureName,cityName,streetNumber,addressImageId,prefectureCode,cityCode,postCode,addressOutside,addressOutsideImageId,closeDate,closeCause,successorCorporateNumber,changeCause,assignmentDate,latest,enName,enPrefectureName,enCityName,enAddressOutside,furigana,hihyoji
5,1010001244577,新規,0,2024-05-08,2024-05-08,保夜萬歩株式会社,,株式会社,東京都,千代田区,内神田３丁目１２番１０号,,13,101,1010047,,,,,,,2024-05-08,1,,,,,ホヤマンボ,0
6,1010001244593,新規,0,2024-05-08,2024-05-08,株式会社ケンサク,,株式会社,東京都,中央区,日本橋富沢町９－４,,13,102,1030006,,,,,,,2024-05-08,1,,,,,ケンサク,0
7,1010001244602,新規,0,2024-05-08,2024-05-08,株式会社ＦＢＭホールディングス,,株式会社,東京都,千代田区,神田駿河台２丁目３番地１１,,13,101,1010062,,,,,,,2024-05-08,1,,,,,エフビーエムホールディングス,0
9,1010005038273,新規,0,2024-05-08,2024-05-08,Ｈ‐ＱＵＥＳＴ特定目的会社,,その他の設立登記法人,東京都,中央区,八丁堀４丁目２番１０号ＡＯＪ税理士法人内,,13,102,1040032,,,,,,,2024-05-08,1,,,,,エイチクエスト,0
14,1010401182195,新規,0,2024-05-08,2024-05-08,株式会社ピースブライト,,株式会社,東京都,港区,白金台３丁目４番８－２１０号,,13,103,1080071,,,,,,,2024-05-08,1,,,,,ピースブライト,0
21,1010501052216,新規,0,2024-05-08,2024-05-08,株式会社Ｂｕｄｄｙ,,株式会社,東京都,台東区,北上野２丁目２９番６－６０２号パルナシウス北上野,,13,106,1100014,,,,,,,2024-05-08,1,,,,,バディ,0
26,1010603010815,新規,0,2024-05-08,2024-05-08,スタジオそのやま合同会社,,合同会社,東京都,墨田区,押上１丁目４８番７－３０２号,,13,107,1310045,,,,,,,2024-05-08,1,,,,,スタジオソノヤマ,0
34,1010901055215,新規,0,2024-05-08,2024-05-08,株式会社ＢＯＴＡＮ,,株式会社,東京都,世田谷区,用賀４丁目２８番１８号ディーズコート３０１,,13,112,1580097,,,,,,,2024-05-08,1,,,,,ボタン,0
35,1010903009020,新規,0,2024-05-08,2024-05-08,Ｄｒｅａｍ　Ｃｒｅａｔｉｏｎ　Ｌａｂ合同会社,,合同会社,東京都,世田谷区,奥沢７丁目１２番８号,,13,112,1580083,,,,,,,2024-05-08,1,,,,,ドリームクリエーションラボ,0
47,1011001161606,新規,0,2024-05-08,2024-05-08,株式会社ＹＶＥＳＪＵ　ＣＯＮＳＵＬＴＩＮＧ,,株式会社,東京都,渋谷区,神宮前４丁目９－１神宮前ＡＫビル２Ｆ,,13,113,1500001,,,,,,,2024-05-08,1,,,,,イヴジュコンサルティング,0
48,1011001161770,新規,0,2024-05-08,2024-05-08,株式会社サイト・トーキョー,,株式会社,東京都,渋谷区,神山町３３番１５号,,13,113,1500047,,,,,,,2024-05-08,1,,,,,サイトトーキョー,0
49,1011001161787,新規,0,2024-05-08,2024-05-08,株式会社ＳＡＳ,,株式会社,東京都,渋谷区,桜丘町１４－１０渋谷コープ３０７号室,,13,113,1500031,,,,,,,2024-05-08,1,,,,,エスエーエス,0
50,1011001161853,新規,0,2024-05-08,2024-05-08,株式会社ＡＤＲＥＶＥ,,株式会社,東京都,渋谷区,恵比寿３丁目１番４号,,13,113,1500013,,,,,,,2024-05-08,1,,,,,アドレーヴ,0
55,1011003019050,新規,0,2024-05-08,2024-05-08,合同会社クレドアセットマネジメント,,合同会社,東京都,渋谷区,恵比寿１丁目２４番４号ＡＳＫビル８階,,13,113,1500013,,,,,,,2024-05-08,1,,,,,クレドアセットマネジメント,0
56,1011003019059,新規,0,2024-05-08,2024-05-08,合同会社エムスタ,,合同会社,東京都,渋谷区,恵比寿西２丁目８番４号ＥＸ恵比寿西ビル５階,,13,113,1500021,,,,,,,2024-05-08,1,,,,,エムスタ,0
57,1011003019075,新規,0,2024-05-08,2024-05-08,合同会社みよしまる,,合同会社,東京都,渋谷区,円山町５番５号Ｎａｖｉ渋谷Ｖ３階,,13,113,1500044,,,,,,,2024-05-08,1,,,,,ミヨシマル,0
64,1011101107203,新規,0,2024-05-08,2024-05-08,株式会社ＣＲＥＷ‐ＧＯＬＦ,,株式会社,東京都,新宿区,上落合３丁目８番２５号ＦＬＡＭＰ９０９,,13,104,1610034,,,,,,,2024-05-08,1,,,,,クルーゴルフ,0
66,1011103014389,新規,0,2024-05-08,2024-05-08,カイルーミン・ジャパン合同会社,,合同会社,東京都,新宿区,北新宿２丁目２１番１号,,13,104,1690074,,,,,,,2024-05-08,1,,,,,カイルーミンジャパン,0
68,1011201025453,新規,0,2024-05-08,2024-05-08,株式会社東経商事,,株式会社,東京都,中野区,野方３丁目２－１０,,13,114,1650027,,,,,,,2024-05-08,1,,,,,トウケイショウジ,0
70,1011303005147,新規,0,2024-05-08,2024-05-08,合同会社武学サロン,,合同会社,東京都,杉並区,阿佐谷北２丁目２１番２８号チェリープレイス３Ｆ,,13,115,1660001,,,,,,,2024-05-08,1,,,,,ブガクサロン,0
71,1011401026078,新規,0,2024-05-08,2024-05-08,株式会社ＰＬＡＣＥ,,株式会社,東京都,板橋区,高島平９丁目１３番６号サンハイツ若林１階,,13,119,1750082,,,,,,,2024-05-08,1,,,,,プレイス,0
75,1011601027727,新規,0,2024-05-08,2024-05-08,株式会社ＭＫＭ,,株式会社,東京都,練馬区,豊玉北４丁目２５番１２号ストレチア１０３号室,,13,120,1760012,,,,,,,2024-05-08,1,,,,,エムケーエム,0
76,1011603004336,新規,0,2024-05-08,2024-05-08,合同会社くまぐ,,合同会社,東京都,練馬区,石神井町６丁目１７番３７－３０８号,,13,120,1770041,,,,,,,2024-05-08,1,,,,,クマグ,0
81,1011703003824,新規,0,2024-05-08,2024-05-08,合同会社ＫＡＮＡＴＡ,,合同会社,東京都,江戸川区,松島３丁目１５番９－４０３号,,13,123,1320031,,,,,,,2024-05-08,1,,,,,カナタ,0
82,1012301013901,新規,0,2024-05-08,2024-05-08,ソーシャルマップ株式会社,,株式会社,東京都,町田市,小山町５００３番地６,,13,209,1940212,,,,,,,2024-05-08,1,,,,,ソーシャルマップ,0
84,1012405004978,新規,0,2024-05-08,2024-05-08,一般社団法人全日本ジュニアクライマー育成支援協会,,その他の設立登記法人,東京都,調布市,菊野台１丁目４０番３号－１Ｆ,,13,208,1820007,,,,,,,2024-05-08,1,,,,,ゼンニホンジュニアクライマーイクセイシエンキョウカイ,0
85,1012703002980,新規,0,2024-05-08,2024-05-08,ＶＭｅｄ合同会社,,合同会社,東京都,西東京市,向台町４丁目２１番３－３号,,13,229,1880013,,,,,,,2024-05-08,1,,,,,ブイメド,0
88,1012803003383,新規,0,2024-05-08,2024-05-08,合同会社サンカン,,合同会社,東京都,国分寺市,戸倉２丁目１６番２９号,,13,214,1850003,,,,,,,2024-05-08,1,,,,,サンカン,0
89,1013103001334,新規,0,2024-05-08,2024-05-08,合同会社レイリー,,合同会社,東京都,羽村市,神明台４丁目１番地７４,,13,227,2050023,,,,,,,2024-05-08,1,,,,,,0
99,1020001157019,新規,0,2024-05-08,2024-05-08,株式会社ＡＫＳ,,株式会社,神奈川県,川崎市川崎区,観音２丁目１０番３号,,14,131,2100831,,,,,,,2024-05-08,1,,,,,エーケーエス,0
107,1021001082140,新規,0,2024-05-08,2024-05-08,株式会社ゴーマルイチ,,株式会社,神奈川県,海老名市,中央３丁目３番２６号,,14,215,2430432,,,,,,,2024-05-08,1,,,,,ゴーマルイチ,0
108,1021001082149,新規,0,2024-05-08,2024-05-08,株式会社ヨネケン,,株式会社,神奈川県,座間市,入谷西５丁目２６番１７号,,14,216,2520029,,,,,,,2024-05-08,1,,,,,ヨネケン,0
109,1021001082157,新規,0,2024-05-08,2024-05-08,株式会社Ｏｎｅ　Ｂｌｏｗ,,株式会社,神奈川県,相模原市緑区,大島３２１２番地５,,14,151,2520135,,,,,,,2024-05-08,1,,,,,ワンブロー,0
110,1021001082165,新規,0,2024-05-08,2024-05-08,株式会社屋叩,,株式会社,神奈川県,横須賀市,津久井２丁目２１番地３号ビライイジマ２０３,,14,201,2390843,,,,,,,2024-05-08,1,,,,,ヤコウ,0
111,1021001082181,新規,0,2024-05-08,2024-05-08,Ｗｉｎｋｌｅ　Ｌｏｇｉ株式会社,,株式会社,神奈川県,相模原市中央区,相生１丁目９－３レジデンスピア相生４０３,,14,152,2520235,,,,,,,2024-05-08,1,,,,,ウィンクルロジ,0
114,1021005013100,新規,0,2024-05-08,2024-05-08,一般社団法人イノルト,,その他の設立登記法人,神奈川県,藤沢市,鵠沼橘１丁目１番１号第二外岡ビル４階,,14,205,2510024,,,,,,,2024-05-08,1,,,,,イノルト,0
121,1030001160153,新規,0,2024-05-08,2024-05-08,ＴＭプラント設計株式会社,,株式会社,埼玉県,八潮市,大字二丁目９７７番地１,,11,234,3400811,,,,,,,2024-05-08,1,,,,,ティーエムプラントセッケイ,0
122,1030001160203,新規,0,2024-05-08,2024-05-08,人工知能エンジニア日本株式会社,,株式会社,埼玉県,さいたま市浦和区,上木崎１丁目１０－１－１２０３室,,11,107,3300071,,,,,,,2024-05-08,1,,,,,ジンコウチノウエンジニアニホン,0
123,1030001160211,新規,0,2024-05-08,2024-05-08,株式会社ＭＧダイニング,,株式会社,埼玉県,熊谷市,別府２丁目６９番地,,11,202,3600856,,,,,,,2024-05-08,1,,,,,エムジーダイニング,0
124,1030001160228,新規,0,2024-05-08,2024-05-08,株式会社Ｉ．Ｎ．Ｐ,,株式会社,埼玉県,幸手市,大字惣新田２６番地,,11,240,3400133,,,,,,,2024-05-08,1,,,,,アイエヌピー,0
125,1030001160260,新規,0,2024-05-08,2024-05-08,株式会社リチクラーレ,,株式会社,埼玉県,さいたま市中央区,上落合３丁目１３番２６－１２２号,,11,105,3380001,,,,,,,2024-05-08,1,,,,,リチクラーレ,0
131,1030003024224,新規,0,2024-05-08,2024-05-08,合同会社ＮＳホールディング,,合同会社,埼玉県,川口市,青木１丁目１７－４３,,11,203,3320031,,,,,,,2024-05-08,1,,,,,エヌエスホールディング,0
132,1030003024232,新規,0,2024-05-08,2024-05-08,合同会社スパーク,,合同会社,埼玉県,川口市,南鳩ヶ谷８丁目１０番７－６号,,11,203,3340013,,,,,,,2024-05-08,1,,,,,スパーク,0
133,1030003024240,新規,0,2024-05-08,2024-05-08,合同会社ゴールド,,合同会社,埼玉県,川口市,西川口１丁目１０番２０号青木ｓｉｘビル３階,,11,203,3320021,,,,,,,2024-05-08,1,,,,,ゴールド,0
139,1040001133406,新規,0,2024-05-08,2024-05-08,株式会社Ｋ＆Ｋ,,株式会社,千葉県,八千代市,八千代台東５丁目２３番１５号,,12,221,2760032,,,,,,,2024-05-08,1,,,,,ケイアンドケイ,0
140,1040001133439,新規,0,2024-05-08,2024-05-08,株式会社南房総マンション管理事務所,,株式会社,千葉県,鴨川市,広場１０９７番地,,12,223,2960044,,,,,,,2024-05-08,1,,,,,ミナミボウソウマンションカンリジムショ,0
146,1050001054717,新規,0,2024-05-08,2024-05-08,ＪＭＣ　ＴＲＡＤＩＮＧ株式会社,,株式会社,茨城県,笠間市,押辺２７０９－９３,,08,216,3190205,,,,,,,2024-05-08,1,,,,,ジェイエムシートレーディング,0
151,1060001037043,新規,0,2024-05-08,2024-05-08,株式会社アースグラーデン,,株式会社,栃木県,佐野市,馬門町１６２７番地,,09,204,3270824,,,,,,,2024-05-08,1,,,,,アースグラーデン,0
154,1070001041696,新規,0,2024-05-08,2024-05-08,株式会社ＬＩＶＥ,,株式会社,群馬県,前橋市,表町２丁目２０番６－４０１号ダイアパレスステーションプラザ前橋ＩＩ,00134652,10,201,3710024,,,,,,,2024-05-08,1,,,,,リヴ,0
155,1080001026283,新規,0,2024-05-08,2024-05-08,株式会社シダーレフト,,株式会社,静岡県,藤枝市,藤岡２丁目１０番２０号,,22,214,4260006,,,,,,,2024-05-08,1,,,,,シダーレフト,0
156,1080001026291,新規,0,2024-05-08,2024-05-08,リンク株式会社,,株式会社,静岡県,島田市,稲荷３丁目８番２６号,,22,209,4270038,,,,,,,2024-05-08,1,,,,,リンク,0
163,1090001018692,新規,0,2024-05-08,2024-05-08,株式会社ｗｒｉｎｃｌｅｓ　ｃｏｍｂｉｎａｔｉｏｎ,,株式会社,山梨県,甲府市,丸の内２丁目２番１号ＣＲＯＳＳ５００　１階,,19,201,4000031,,,,,,,2024-05-08,1,,,,,リンクルコンビネーション,0
180,1120001264498,新規,0,2024-05-08,2024-05-08,和順株式会社,,株式会社,大阪府,大阪市東住吉区,湯里４丁目３番１３号,,27,121,5460013,,,,,,,2024-05-08,1,,,,,ワジュン,0
181,1120001264614,新規,0,2024-05-08,2024-05-08,株式会社ナーシングケアワーカーズ,,株式会社,大阪府,大阪市阿倍野区,昭和町５丁目１番３０－２０１号,,27,119,5450011,,,,,,,2024-05-08,1,,,,,ナーシングケアワーカーズ,0
182,1120001264622,新規,0,2024-05-08,2024-05-08,ＨＲＴキャピタル株式会社,,株式会社,大阪府,大阪市西区,阿波座１丁目１番１０号,,27,106,5500011,,,,,,,2024-05-08,1,,,,,エイチアールティーキャピタル,0
183,1120001264639,新規,0,2024-05-08,2024-05-08,日運商事株式会社,,株式会社,大阪府,大阪市生野区,新今里５丁目７番６－３０３号,,27,116,5440001,,,,,,,2024-05-08,1,,,,,ニチウンショウジ,0
185,1120003026467,新規,0,2024-05-08,2024-05-08,合同会社ＵＡコーポレーション,,合同会社,大阪府,大阪市住之江区,東加賀屋３丁目５番１０号,,27,125,5590012,,,,,,,2024-05-08,1,,,,,ユーエーコーポレーション,0
186,1120003026491,新規,0,2024-05-08,2024-05-08,合同会社Ｒｏｕｓｅ,,合同会社,大阪府,大阪市西区,江戸堀２丁目１－１江戸堀センタービル,,27,106,5500002,,,,,,,2024-05-08,1,,,,,ラウズ,0
187,1120003026533,新規,0,2024-05-08,2024-05-08,ティーオーマネジメント合同会社,,合同会社,大阪府,大阪市阿倍野区,北畠１丁目２２番５号メゾン北畠ＹＡＭＡＭＯＴＯ９０２号,,27,119,5450035,,,,,,,2024-05-08,1,,,,,ティーオーマネジメント,0
194,1120901049131,新規,0,2024-05-08,2024-05-08,株式会社ファベル,,株式会社,大阪府,高槻市,津之江町１丁目６９番９号,,27,207,5690822,,,,,,,2024-05-08,1,,,,,ファベル,0
195,1120903005165,新規,0,2024-05-08,2024-05-08,合同会社Ａ＆Ｊプロパティマネジメント,,合同会社,大阪府,茨木市,彩都あさぎ６丁目１０番１０号,,27,211,5670085,,,,,,,2024-05-08,1,,,,,エーアンドジェイプロバティマネジメント,0
197,1122001038072,新規,0,2024-05-08,2024-05-08,株式会社エフ・アドバンス,,株式会社,大阪府,東大阪市,菱江１丁目２３番３－９０１号,,27,227,5780984,,,,,,,2024-05-08,1,,,,,エフアドバンス,0
198,1122003002877,新規,0,2024-05-08,2024-05-08,Ｐ＆Ｈ合同会社,,合同会社,大阪府,東大阪市,吉松２丁目９番２０号ルモンドコーポ小川３０５号,,27,227,5770821,,,,,,,2024-05-08,1,,,,,ピーアンドエイチ,0
201,1130001076967,新規,0,2024-05-08,2024-05-08,株式会社ＳＴＡＮＤ,,株式会社,京都府,京都市下京区,新町通四条下る四条町３６４番地２０２号室,,26,106,6008441,,,,,,,2024-05-08,1,,,,,スタンド,0
202,1130001077008,新規,0,2024-05-08,2024-05-08,株式会社ＡＰＥＸ,,株式会社,京都府,京都市下京区,真苧屋町２１７番地２－１Ｆ,,26,106,6008211,,,,,,,2024-05-08,1,,,,,アペックス,0
204,1130003009545,新規,0,2024-05-08,2024-05-08,合同会社ソーシャルワークス,,合同会社,京都府,相楽郡精華町,大字植田小字上山２,,26,366,6190236,,,,,,,2024-05-08,1,,,,,ソーシャルワークス,0
209,1140001134286,新規,0,2024-05-08,2024-05-08,株式会社ドレスハウスフェアリー,,株式会社,兵庫県,明石市,太寺天王町２８０４番地の４,,28,203,6730841,,,,,,,2024-05-08,1,,,,,ドレスハウスフェアリー,0
210,1140001134303,新規,0,2024-05-08,2024-05-08,サニーウェルネス株式会社,,株式会社,兵庫県,神戸市中央区,加納町４丁目３番５号,,28,110,6500001,,,,,,,2024-05-08,1,,,,,サニーウェルネス,0
211,1140001134311,新規,0,2024-05-08,2024-05-08,株式会社エイチグローバル,,株式会社,兵庫県,西宮市,柏堂町１番１０号,,28,204,6620097,,,,,,,2024-05-08,1,,,,,エイチグローバル,0
212,1140001134336,新規,0,2024-05-08,2024-05-08,株式会社ケーユー,,株式会社,兵庫県,尼崎市,立花町１丁目２０番１８号３階,,28,202,6610025,,,,,,,2024-05-08,1,,,,,ケーユー,0
214,1140003020518,新規,0,2024-05-08,2024-05-08,合同会社クラルテ,,合同会社,兵庫県,芦屋市,平田町４－１３シャーメゾンガーデンズ芦屋平田町３０６,00134646,28,206,6590074,,,,,,,2024-05-08,1,,,,,クラルテ,0
215,1140003020534,新規,0,2024-05-08,2024-05-08,合同会社Ｃｈａｔ,,合同会社,兵庫県,神戸市灘区,日尾町２丁目２－５－４Ｆ,,28,102,6570029,,,,,,,2024-05-08,1,,,,,チャット,0
216,1150001027266,新規,0,2024-05-08,2024-05-08,株式会社ＳＴＵＤＩＯ　Ｃ,,株式会社,奈良県,香芝市,下田東３丁目１２１３番地１,,29,210,6390232,,,,,,,2024-05-08,1,,,,,スタジオシー,0
221,1170001018115,新規,0,2024-05-08,2024-05-08,株式会社河野工務店,,株式会社,和歌山県,西牟婁郡白浜町,日置１０９７番地の２,,30,401,6492511,,,,,,,2024-05-08,1,,,,,カワノコウムテン,0
227,1180001161310,新規,0,2024-05-08,2024-05-08,株式会社タイガーアイ,,株式会社,愛知県,尾張旭市,北山町北山３２９番地４,,23,226,4880056,,,,,,,2024-05-08,1,,,,,タイガーアイ,0
229,1180003026726,新規,0,2024-05-08,2024-05-08,合同会社アレス,,合同会社,愛知県,半田市,板山町９丁目５０番地,,23,205,4750936,,,,,,,2024-05-08,1,,,,,アレス,0
233,1180301038613,新規,0,2024-05-08,2024-05-08,株式会社今渕工業,,株式会社,愛知県,豊田市,九久平町薬師１０番地７,,23,211,4442216,,,,,,,2024-05-08,1,,,,,イマブチコウギョウ,0
236,1180303006114,新規,0,2024-05-08,2024-05-08,合同会社Ｂｅｓｔ４Ｕ,,合同会社,愛知県,刈谷市,相生町１丁目８番地２,,23,210,4480027,,,,,,,2024-05-08,1,,,,,ベストフォーユー,0
239,1200001042466,新規,0,2024-05-08,2024-05-08,株式会社泰明舎,,株式会社,岐阜県,多治見市,明和町２丁目６４番地の４７,,21,204,5070072,,,,,,,2024-05-08,1,,,,,タイメイシャ,0
240,1200001042474,新規,0,2024-05-08,2024-05-08,株式会社ＴＮＫ,,株式会社,岐阜県,大垣市,世安町２丁目９５番地３,,21,202,5030858,,,,,,,2024-05-08,1,,,,,ティエヌケイ,0
241,1210001019752,新規,0,2024-05-08,2024-05-08,ｖａｃａｎｃｅｓ　ａｒｏｕｎｄ株式会社,,株式会社,福井県,三方上中郡若狭町,天徳寺第３１号９番地１,,18,501,9191543,,,,,,,2024-05-08,1,,,,,ヴァカンスアラウンド,0
242,1220003003745,新規,0,2024-05-08,2024-05-08,合同会社おおさき屋,,合同会社,石川県,かほく市,高松丁２３番地２４,,17,209,9291215,,,,,,,2024-05-08,1,,,,,オオサキヤ,0
243,1230001020329,新規,0,2024-05-08,2024-05-08,サンライトＲＫ株式会社,,株式会社,富山県,富山市,下冨居２丁目８番３２号,,16,201,9300814,,,,,,,2024-05-08,1,,,,,サンライトアールケイ,0
244,1240001063178,新規,0,2024-05-08,2024-05-08,浜本工業株式会社,,株式会社,広島県,福山市,春日町７丁目６番４３号Ｂ２０１,,34,207,7210907,,,,,,,2024-05-08,1,,,,,ハマモトコウギョウ,0
245,1240001063186,新規,0,2024-05-08,2024-05-08,株式会社トラスト,,株式会社,広島県,尾道市,高須町２９５番地３７,,34,205,7290141,,,,,,,2024-05-08,1,,,,,トラスト,0
246,1240003006655,新規,0,2024-05-08,2024-05-08,ＭＡＳＴＥＲ　ＱＵＡＬＩＴＹ合同会社,,合同会社,広島県,広島市中区,江波南２丁目９－３７,,34,101,7300835,,,,,,,2024-05-08,1,,,,,マスタークオリティー,0
256,1290001105578,新規,0,2024-05-08,2024-05-08,株式会社Ｅｒｕ,,株式会社,福岡県,福岡市中央区,白金１丁目８番２号５階,,40,133,8100012,,,,,,,2024-05-08,1,,,,,エル,0
257,1290001105743,新規,0,2024-05-08,2024-05-08,株式会社アチーヴ,,株式会社,福岡県,古賀市,新久保１丁目１３番１３号Ａ－２０２,,40,223,8113118,,,,,,,2024-05-08,1,,,,,アチーヴ,0
262,1290003015222,新規,0,2024-05-08,2024-05-08,合同会社ＦａｎＦａｒｅ,,合同会社,福岡県,福岡市中央区,清川３丁目２６番１０号,,40,133,8100005,,,,,,,2024-05-08,1,,,,,ファンファーレ,0
263,1290003015230,新規,0,2024-05-08,2024-05-08,合同会社美ａｒｒａｎｇｅ,,合同会社,福岡県,福岡市博多区,那珂２丁目１０番２５－３０２号,,40,132,8120893,,,,,,,2024-05-08,1,,,,,ビアレンジ,0
269,1290801030554,新規,0,2024-05-08,2024-05-08,株式会社九州Ｃｏｕｌｅｕｒ,,株式会社,福岡県,遠賀郡遠賀町,田園１丁目９番１８号,,40,384,8114343,,,,,,,2024-05-08,1,,,,,キュウシュウクルール,0
271,1290805009743,新規,0,2024-05-08,2024-05-08,一般社団法人北九州市児童養護施設協議会,,その他の設立登記法人,福岡県,北九州市戸畑区,汐井町１番６号,,40,105,8040067,,,,,,,2024-05-08,1,,,,,キタキュウシュウシジドウヨウゴシセツキョウギカイ,0
281,1340003004475,新規,0,2024-05-08,2024-05-08,合同会社エムファイト,,合同会社,鹿児島県,鹿児島市,松原町１番２４号４０２号室,,46,201,8920833,,,,,,,2024-05-08,1,,,,,エムファイト,0
285,1350001018947,新規,0,2024-05-08,2024-05-08,株式会社シモハラ,,株式会社,宮崎県,宮崎市,東宮２丁目２９１番地,,45,201,8800928,,,,,,,2024-05-08,1,,,,,シモハラ,0
289,1360001033623,新規,0,2024-05-08,2024-05-08,春株式会社,,株式会社,沖縄県,宜野湾市,上原２丁目３番２５号,,47,205,9012204,,,,,,,2024-05-08,1,,,,,ハル,0
290,1370001051260,新規,0,2024-05-08,2024-05-08,新ｓｅｌｅｃＴ株式会社,,株式会社,宮城県,柴田郡川崎町,大字支倉字堀ノ内１２番地６,,04,324,9891507,,,,,,,2024-05-08,1,,,,,シンセレクト,0
291,1370003006601,新規,0,2024-05-08,2024-05-08,ジュテーム合同会社,,合同会社,宮城県,仙台市宮城野区,福田町２丁目１０番３８号ＧｒａｃｅＶｉｌｌａ１０３,,04,102,9830023,,,,,,,2024-05-08,1,,,,,ジュテーム,0
295,1380001034504,新規,0,2024-05-08,2024-05-08,株式会社ＴＳ工業,,株式会社,福島県,いわき市,南台２丁目２番地の９,,07,204,9748242,,,,,,,2024-05-08,1,,,,,ティーエスコウギョウ,0
297,1380003005750,新規,0,2024-05-08,2024-05-08,合同会社井森屋,,合同会社,福島県,耶麻郡西会津町,奥川飯里字堂屋敷２１８７,,07,405,9694400,,,,,,,2024-05-08,1,,,,,イモリヤ,0
298,1400001016648,新規,0,2024-05-08,2024-05-08,あき地あき家相談室株式会社,,株式会社,岩手県,盛岡市,菜園２丁目６番２８号３階,,03,201,0200024,,,,,,,2024-05-08,1,,,,,アキチアキヤソウダンシツ,0
301,1400003003264,新規,0,2024-05-08,2024-05-08,合同会社ＬＩＢＥＲＴＹ,,合同会社,岩手県,盛岡市,みたけ４丁目４番１６号,,03,201,0200122,,,,,,,2024-05-08,1,,,,,リバティ,0
302,1410001013826,新規,0,2024-05-08,2024-05-08,株式会社アーボライズ,,株式会社,秋田県,仙北市,西木町小山田字八津２１５番地１,,05,215,0140516,,,,,,,2024-05-08,1,,,,,アーボライズ,0
309,1430001091713,新規,0,2024-05-08,2024-05-08,ＯＫ．Ｕｎｉｖｅｒｓｅ株式会社,,株式会社,北海道,札幌市白石区,本通７丁目南７番２３号,,01,104,0030026,,,,,,,2024-05-08,1,,,,,オーケーユニバース,0
310,1430001091721,新規,0,2024-05-08,2024-05-08,株式会社ミドリ技研,,株式会社,北海道,札幌市清田区,清田七条２丁目１４番３０号,,01,110,0040847,,,,,,,2024-05-08,1,,,,,ミドリギケン,0
313,1460303000823,新規,0,2024-05-08,2024-05-08,合同会社訓子府ライフ,,合同会社,北海道,常呂郡訓子府町,字日出２８‐１２,,01,549,0991401,,,,,,,2024-05-08,1,,,,,クンネップライフ,0
324,2010001244576,新規,0,2024-05-08,2024-05-08,株式会社デジタルキロン,,株式会社,東京都,千代田区,内幸町１丁目３番１号幸ビルディングエキスパートオフィス新橋,,13,101,1000011,,,,,,,2024-05-08,1,,,,,デジタルキロン,0
325,2010001244584,新規,0,2024-05-08,2024-05-08,ＥＥＸジャパン株式会社,,株式会社,東京都,千代田区,丸の内１丁目６番５号２７階,,13,101,1000005,,,,,,,2024-05-08,1,,,,,イーイーエックスジャパン,0
326,2010001244626,新規,0,2024-05-08,2024-05-08,Ｔａｌａｒｉａ株式会社,,株式会社,東京都,中央区,日本橋室町１丁目１１番１２号,,13,102,1030022,,,,,,,2024-05-08,1,,,,,タラリア,0
330,2010003043654,新規,0,2024-05-08,2024-05-08,新横浜合同会社,,合同会社,東京都,千代田区,飯田橋４丁目７番１号結和税理士法人内,,13,101,1020072,,,,,,,2024-05-08,1,,,,,シンヨコハマ,0
331,2010005038272,新規,0,2024-05-08,2024-05-08,一般社団法人Ｖリーグ,,その他の設立登記法人,東京都,中央区,新川２丁目１番９号,,13,102,1040033,,,,,,,2024-05-08,1,,,,,ブイリーグ,0
340,2010501052215,新規,0,2024-05-08,2024-05-08,ＯｎｅＫｅｙ株式会社,,株式会社,東京都,台東区,台東３丁目５番１０号－１０２－２Ｖ,,13,106,1100016,,,,,,,2024-05-08,1,,,,,ワンキー,0
345,2010603010814,新規,0,2024-05-08,2024-05-08,ＤＬエンジニアリング合同会社,,合同会社,東京都,墨田区,向島３丁目３５番１３号向島三丁目ビル１Ｆ,,13,107,1310033,,,,,,,2024-05-08,1,,,,,ディーエルエンジニアリング,0
350,2010705003625,新規,0,2024-05-08,2024-05-08,一般社団法人教育コミュニケーション協会,,その他の設立登記法人,東京都,品川区,東五反田１丁目６番３号いちご東五反田ビル３階,,13,109,1410022,,,,,,,2024-05-08,1,,,,,キョウイクコミュニケーションキョウカイ,0
353,2010801035019,新規,0,2024-05-08,2024-05-08,株式会社南天,,株式会社,東京都,大田区,山王１丁目１９番１５－５０５号,,13,111,1430023,,,,,,,2024-05-08,1,,,,,ナンテン,0
357,2010901055222,新規,0,2024-05-08,2024-05-08,株式会社ＬＩＲＡ,,株式会社,東京都,世田谷区,経堂２丁目４番８号アンテロープ経堂１０２,,13,112,1560052,,,,,,,2024-05-08,1,,,,,リーラ,0
358,2010901055230,新規,0,2024-05-08,2024-05-08,株式会社１０１,,株式会社,東京都,世田谷区,北沢２丁目１５番１６号シャインビル北沢３Ｆ,,13,112,1550031,,,,,,,2024-05-08,1,,,,,ワンオーワン,0
361,2010903009036,新規,0,2024-05-08,2024-05-08,合同会社賢,,合同会社,東京都,世田谷区,上北沢５丁目１２番２号,,13,112,1560057,,,,,,,2024-05-08,1,,,,,ケン,0
376,2011001161786,新規,0,2024-05-08,2024-05-08,株式会社代官山Ｇｕｍｉ,,株式会社,東京都,渋谷区,代官山町７－８ドッケン代官山ハイツ４０４,,13,113,1500034,,,,,,,2024-05-08,1,,,,,ダイカンヤマグミ,0
379,2011003018761,新規,0,2024-05-08,2024-05-08,ＹＢプロパティーズ合同会社,,合同会社,東京都,目黒区,目黒本町５丁目７－１０目黒本町パークホームズ３０１,,13,110,1520002,,,,,,,2024-05-08,1,,,,,ワイビープロパティーズ,0
380,2011003019041,新規,0,2024-05-08,2024-05-08,合同会社Ｐｒｏｇｒｅｓｓ　Ｈｅａｒｔ,,合同会社,東京都,渋谷区,神泉町１０番１５号アネックス神泉３０１,,13,113,1500045,,,,,,,2024-05-08,1,,,,,プログレスハート,0
385,2011101107193,新規,0,2024-05-08,2024-05-08,株式会社ＲＯＯＭ　ＯＨＡＮＡ,,株式会社,東京都,新宿区,市谷仲之町４番５号,,13,104,1620064,,,,,,,2024-05-08,1,,,,,ルームオハナ,0
386,2011101107243,新規,0,2024-05-08,2024-05-08,ＲＩＶＥＲＦＲＯＮＴ　ＣＯＮＳＵＬＴＩＮＧ株式会社,,株式会社,東京都,新宿区,西新宿３丁目３番１３号西新宿水間ビル６階,,13,104,1600023,,,,,,,2024-05-08,1,,,,,リバーフロントコンサルティング,0
389,2011103014396,新規,0,2024-05-08,2024-05-08,合同会社アール・イー・エヌ,,合同会社,東京都,新宿区,西新宿３丁目３番１３号西新宿水間ビル２Ｆ,,13,104,1600023,,,,,,,2024-05-08,1,,,,,アールイーエヌ,0
391,2011201025452,新規,0,2024-05-08,2024-05-08,ロシア国立ペルミバレエ学校日本校株式会社,,株式会社,東京都,中野区,中央１丁目４２番５号,,13,114,1640011,,,,,,,2024-05-08,1,,,,,ロシアコクリツペルミバレエガッコウニホンコウ,0
400,2011601027726,新規,0,2024-05-08,2024-05-08,株式会社Ｌｅｍｏｎ,,株式会社,東京都,練馬区,北町７丁目９番６号アーバンパレス６号館１０１,,13,120,1790081,,,,,,,2024-05-08,1,,,,,レモン,0
401,2011601027734,新規,0,2024-05-08,2024-05-08,株式会社オーフェン,,株式会社,東京都,練馬区,豊玉北４丁目１３番２－３０７号,,13,120,1760012,,,,,,,2024-05-08,1,,,,,オーフェン,0
402,2011603004335,新規,0,2024-05-08,2024-05-08,合同会社レフィナード,,合同会社,東京都,練馬区,小竹町１丁目２５番２号２０１,,13,120,1760004,,,,,,,2024-05-08,1,,,,,レフィナード,0
408,2012401041826,新規,0,2024-05-08,2024-05-08,ＢＩＫ　ＪＡＰＡＮ株式会社,,株式会社,東京都,多摩市,南野２丁目３１番地の１５パティオ南野１０３,,13,224,2060032,,,,,,,2024-05-08,1,,,,,ビーアイケージャパン,0
411,2012701018243,新規,0,2024-05-08,2024-05-08,株式会社１００年企業Ｆａｃｔｏｒｙ,,株式会社,東京都,東村山市,久米川町１丁目２４番地５９,,13,213,1890003,,,,,,,2024-05-08,1,,,,,ヒャクネンキギョウファクトリー,0
412,2012801023151,新規,0,2024-05-08,2024-05-08,株式会社ＡＬＬＷＩＮ,,株式会社,東京都,国分寺市,新町２丁目４番地９７,,13,214,1850004,,,,,,,2024-05-08,1,,,,,オールウィン,0
420,2020001157034,新規,0,2024-05-08,2024-05-08,株式会社ａｎａｍ　ｃａｒａ,,株式会社,神奈川県,横浜市青葉区,青葉台２丁目５番地３Ｆ,,14,117,2270062,,,,,,,2024-05-08,1,,,,,アナムカラ,0
433,2021001082148,新規,0,2024-05-08,2024-05-08,株式会社アステカ,,株式会社,神奈川県,大和市,南林間３丁目４番７号ラセール南林間１０１,,14,213,2420006,,,,,,,2024-05-08,1,,,,,アステカ,0
434,2021001082156,新規,0,2024-05-08,2024-05-08,株式会社津々美左官,,株式会社,神奈川県,相模原市南区,新戸２１４７番地１,,14,153,2520326,,,,,,,2024-05-08,1,,,,,ツツミサカン,0
439,2021003014462,新規,0,2024-05-08,2024-05-08,合同会社岩崎,,合同会社,神奈川県,相模原市中央区,陽光台２丁目１番５号,,14,152,2520226,,,,,,,2024-05-08,1,,,,,イワサキ,0
440,2021003014479,新規,0,2024-05-08,2024-05-08,合同会社ＰＲＦ,,合同会社,神奈川県,相模原市南区,上鶴間６丁目１５－１２,,14,153,2520302,,,,,,,2024-05-08,1,,,,,ピーアールエフ,0
444,2030001160136,新規,0,2024-05-08,2024-05-08,スマートマックス株式会社,,株式会社,埼玉県,春日部市,下蛭田２３０番地２フォンテーヌ１０１,,11,214,3440043,,,,,,,2024-05-08,1,,,,,スマートマックス,0
445,2030001160144,新規,0,2024-05-08,2024-05-08,株式会社ＡａｒｏｎＨｏｕｓｅ,,株式会社,埼玉県,越谷市,登戸町３５番２号,,11,222,3430846,,,,,,,2024-05-08,1,,,,,アーロンハウス,0
446,2030001160160,新規,0,2024-05-08,2024-05-08,株式会社ナノクラフト,,株式会社,埼玉県,入間市,東町１丁目２番９号ジョンソンタウン内３００１Ｍ,,11,225,3580002,,,,,,,2024-05-08,1,,,,,ナノクラフト,0
447,2030001160193,新規,0,2024-05-08,2024-05-08,株式会社清永建設,,株式会社,埼玉県,さいたま市岩槻区,上野１丁目２３番地５,,11,110,3390073,,,,,,,2024-05-08,1,,,,,キヨナガケンセツ,0
448,2030001160202,新規,0,2024-05-08,2024-05-08,株式会社ＴＳＧ,,株式会社,埼玉県,越谷市,北越谷５丁目５－５０グランプレゾン１０３,,11,222,3430026,,,,,,,2024-05-08,1,,,,,ティーエスジー,0
449,2030001160227,新規,0,2024-05-08,2024-05-08,株式会社昇源,,株式会社,埼玉県,川越市,大字鴨田１９００－１,,11,201,3500844,,,,,,,2024-05-08,1,,,,,ショウゲン,0
455,2030003024256,新規,0,2024-05-08,2024-05-08,合同会社ＴｏｐＤｒａｗｅｒ,,合同会社,埼玉県,さいたま市緑区,大字大間木１７１０番地６ヴァンベール東浦和３０５,,11,109,3360923,,,,,,,2024-05-08,1,,,,,トップドロワー,0
460,2040001133446,新規,0,2024-05-08,2024-05-08,株式会社エヌシーオートサービス,,株式会社,千葉県,千葉市緑区,平山町１５９９番地２,,12,105,2660002,,,,,,,2024-05-08,1,,,,,エヌシーオートサービス,0
461,2040003024882,新規,0,2024-05-08,2024-05-08,ハマダ商事合同会社,,合同会社,千葉県,柏市,末広町１０番２５号,,12,217,2770842,,,,,,,2024-05-08,1,,,,,ハマダショウジ,0
462,2040003024916,新規,0,2024-05-08,2024-05-08,グッドニュース合同会社,,合同会社,千葉県,市川市,大和田４丁目１２－２,,12,203,2720025,,,,,,,2024-05-08,1,,,,,グッドニュース,0
463,2040003024973,新規,0,2024-05-08,2024-05-08,合同会社ＣＳｈｕｂ,,合同会社,千葉県,千葉市花見川区,検見川町３丁目３１８－１５,,12,102,2620023,,,,,,,2024-05-08,1,,,,,シーエスハブ,0
465,2050001054716,新規,0,2024-05-08,2024-05-08,ＪＰ　ＣＡＰＴＡＩＮ　ＬＯＧＩＳＴＩＣＳ株式会社,,株式会社,茨城県,坂東市,生子２８９番地１,,08,228,3060504,,,,,,,2024-05-08,1,,,,,ジェイピーキャプテンロジスティクス,0
466,2060001037067,新規,0,2024-05-08,2024-05-08,株式会社ミックス,,株式会社,栃木県,宇都宮市,上籠谷町１３８６番地３３,,09,201,3213233,,,,,,,2024-05-08,1,,,,,ミックス,0
467,2070001041704,新規,0,2024-05-08,2024-05-08,株式会社ＣＡＰ,,株式会社,群馬県,前橋市,駒形町１２０３番地１,,10,201,3792122,,,,,,,2024-05-08,1,,,,,キャプ,0
468,2070001041712,新規,0,2024-05-08,2024-05-08,株式会社クラカミ機工,,株式会社,群馬県,太田市,東新町２０３番地８,,10,205,3730015,,,,,,,2024-05-08,1,,,,,クラカミキコウ,0
469,2070001041720,新規,0,2024-05-08,2024-05-08,株式会社ｒｏｏｍ　ＪＵＮＧＯ,,株式会社,群馬県,館林市,堀工町１６２１番地の２,,10,207,3740033,,,,,,,2024-05-08,1,,,,,ルームジュンゴ,0
471,2080001026282,新規,0,2024-05-08,2024-05-08,株式会社ＭＥＭ,,株式会社,静岡県,藤枝市,仮宿１０８５番地の４,,22,214,4260001,,,,,,,2024-05-08,1,,,,,エムイーエム,0
472,2080001026290,新規,0,2024-05-08,2024-05-08,株式会社ＲｅＭ,,株式会社,静岡県,藤枝市,前島１丁目９番３０号伸幸ビル２階,,22,214,4260067,,,,,,,2024-05-08,1,,,,,アールイーエム,0
473,2080101024723,新規,0,2024-05-08,2024-05-08,株式会社日本鋼材エンジニアリング,,株式会社,静岡県,富士市,厚原１２２２番地の１,,22,210,4190201,,,,,,,2024-05-08,1,,,,,ニホンコウザイエンジニアリング,0
474,2080101024731,新規,0,2024-05-08,2024-05-08,グッドワン株式会社,,株式会社,静岡県,沼津市,松長８１４番地,,22,203,4100874,,,,,,,2024-05-08,1,,,,,グッドワン,0
485,2120001263391,新規,0,2024-05-08,2024-05-08,株式会社ＫａＬｏｎ,,株式会社,大阪府,大阪市西区,千代崎２丁目１３番２号,,27,106,5500023,,,,,,,2024-05-08,1,,,,,カロン,0
486,2120001264638,新規,0,2024-05-08,2024-05-08,株式会社ＫＴＢ,,株式会社,大阪府,大阪市住之江区,粉浜２丁目７番１１号,,27,125,5590001,,,,,,,2024-05-08,1,,,,,ケイティビィ,0
487,2120001264654,新規,0,2024-05-08,2024-05-08,株式会社すずき工務店,,株式会社,大阪府,大阪市生野区,中川西１丁目５番１４号,,27,116,5440032,,,,,,,2024-05-08,1,,,,,スズキコウムテン,0
492,2120003026532,新規,0,2024-05-08,2024-05-08,合同会社アンダーライン,,合同会社,大阪府,大阪市西区,北堀江１丁目１５－１８フランスビル３Ｆ,,27,106,5500014,,,,,,,2024-05-08,1,,,,,アンダーライン,0
497,2120101069508,新規,0,2024-05-08,2024-05-08,株式会社イージーカー,,株式会社,大阪府,泉佐野市,上之郷１８２０－１０１,,27,213,5980024,,,,,,,2024-05-08,1,,,,,イージーカー,0
499,2120901049139,新規,0,2024-05-08,2024-05-08,株式会社アドバンス,,株式会社,大阪府,高槻市,栄町１丁目２番９－５１９号,,27,207,5690825,,,,,,,2024-05-08,1,,,,,アドバンス,0
500,2120903005164,新規,0,2024-05-08,2024-05-08,合同会社天音,,合同会社,大阪府,箕面市,森町中２丁目２８番１４号,,27,220,5630257,,,,,,,2024-05-08,1,,,,,アマネ,0
502,2122001038055,新規,0,2024-05-08,2024-05-08,株式会社エデン,,株式会社,大阪府,東大阪市,足代北２丁目７番２号－２０１,,27,227,5770058,,,,,,,2024-05-08,1,,,,,エデン,0
506,2130001076917,新規,0,2024-05-08,2024-05-08,株式会社ＳＰＥ　ＹＯＵ,,株式会社,京都府,京都市左京区,田中樋ノ口町５番地２０６,,26,103,6068222,,,,,,,2024-05-08,1,,,,,スペユー,0
507,2130001076990,新規,0,2024-05-08,2024-05-08,株式会社シーンズ,,株式会社,京都府,綾部市,位田町馬渕３３番地,,26,203,6230221,,,,,,,2024-05-08,1,,,,,シーンズ,0
511,2140001134293,新規,0,2024-05-08,2024-05-08,Ｙマネージメント株式会社,,株式会社,兵庫県,伊丹市,中野西２丁目２１０番地２,,28,207,6640023,,,,,,,2024-05-08,1,,,,,ワイマネージメント,0
512,2140001134302,新規,0,2024-05-08,2024-05-08,株式会社壮代,,株式会社,兵庫県,神戸市中央区,割塚通三丁目２番７－３０１号,00134654,28,110,6500000,,,,,,,2024-05-08,1,,,,,,0
513,2140001134319,新規,0,2024-05-08,2024-05-08,株式会社黒田設備工業,,株式会社,兵庫県,三田市,上井沢２０５番地１４,,28,219,6691316,,,,,,,2024-05-08,1,,,,,クロダセツビコウギョウ,0
514,2140001134327,新規,0,2024-05-08,2024-05-08,株式会社Ｍ‐ＳＴＵＤＩＯ,,株式会社,兵庫県,西脇市,上野４０８番地,,28,213,6770044,,,,,,,2024-05-08,1,,,,,エムスタジオ,0
515,2140001134343,新規,0,2024-05-08,2024-05-08,株式会社ＹＵＫＡＮ,,株式会社,兵庫県,尼崎市,武庫豊町２丁目２番１１号,,28,202,6610045,,,,,,,2024-05-08,1,,,,,ユウカン,0
520,2140003020509,新規,0,2024-05-08,2024-05-08,ＢＡＪＷＡ　ＴＲＡＤＩＮＧ合同会社,,合同会社,兵庫県,神戸市長田区,雲雀ヶ丘３丁目６－１ヴィラナリー雲雀ケ丘１号棟２０７,,28,106,6530879,,,,,,,2024-05-08,1,,,,,バジュワトレーディング,0
521,2140003020525,新規,0,2024-05-08,2024-05-08,合同会社中田農園,,合同会社,兵庫県,淡路市,新村４６３番地,,28,226,6561502,,,,,,,2024-05-08,1,,,,,ナカタノウエン,0
522,2140003020533,新規,0,2024-05-08,2024-05-08,合同会社ゴテン,,合同会社,兵庫県,神戸市長田区,大谷町３丁目１番３９号,,28,106,6530838,,,,,,,2024-05-08,1,,,,,ゴテン,0
524,2150001027265,新規,0,2024-05-08,2024-05-08,株式会社ＳＹＮＳＥＴＥＣＨ,,株式会社,奈良県,生駒市,光陽台２０,,29,209,6300247,,,,,,,2024-05-08,1,,,,,シンセテック,0
526,2160001025904,新規,0,2024-05-08,2024-05-08,株式会社ＶＭＳ,,株式会社,滋賀県,犬上郡豊郷町,大字大町３８０－２,,25,441,5291176,,,,,,,2024-05-08,1,,,,,ブイエムエス,0
539,2180001161243,新規,0,2024-05-08,2024-05-08,株式会社Ｔｉｍｐａｎｉ,,株式会社,愛知県,名古屋市瑞穂区,柏木町２丁目５番地,,23,108,4670044,,,,,,,2024-05-08,1,,,,,ティンパニー,0
543,2180003026717,新規,0,2024-05-08,2024-05-08,合同会社ＩＬＭ,,合同会社,愛知県,名古屋市西区,名駅２丁目３４番１７号セントラル名古屋１１０１号,,23,104,4510045,,,,,,,2024-05-08,1,,,,,イルム,0
544,2180003026725,新規,0,2024-05-08,2024-05-08,合同会社ＮＥＮＥ,,合同会社,愛知県,大府市,桃山町５丁目２００番地ザ・リレーションビル３０６,,23,223,4740026,,,,,,,2024-05-08,1,,,,,ネネ,0
545,2180003026733,新規,0,2024-05-08,2024-05-08,クレアビジョン合同会社,,合同会社,愛知県,名古屋市緑区,大高町字二番割６番地,,23,114,4598001,,,,,,,2024-05-08,1,,,,,クレアビジョン,0
546,2180301038612,新規,0,2024-05-08,2024-05-08,株式会社アクエスト,,株式会社,愛知県,額田郡幸田町,大字高力字高崎７８番地,,23,501,4440111,,,,,,,2024-05-08,1,,,,,アクエスト,0
550,2200001042465,新規,0,2024-05-08,2024-05-08,株式会社Ｌｉｖｅ,,株式会社,岐阜県,可児市,矢戸１４４５番地１４４,,21,214,5090252,,,,,,,2024-05-08,1,,,,,ライブ,0
551,2200001042473,新規,0,2024-05-08,2024-05-08,株式会社Ｍｔｅｃ,,株式会社,岐阜県,岐阜市,六条片田２丁目１０番２号,,21,201,5008355,,,,,,,2024-05-08,1,,,,,エムテック,0
553,2200003006328,新規,0,2024-05-08,2024-05-08,Ｈａｎｉｆ　＆　Ｓｏｎｓ　Ｔｒａｄｉｎｇ　Ｃｏｍｐａｎｙ合同会社,,合同会社,岐阜県,岐阜市,北一色５丁目３番２１号ハイツルネッサンス３０５号室,,21,201,5008227,,,,,,,2024-05-08,1,,,,,ハニフアンドサンズトレーディングカンパニー,0
554,2210001019751,新規,0,2024-05-08,2024-05-08,株式会社風薫る森,,株式会社,福井県,福井市,志比口１丁目１３番８号,,18,201,9100845,,,,,,,2024-05-08,1,,,,,カゼカオルモリ,0
555,2220003003744,新規,0,2024-05-08,2024-05-08,合同会社なごみ,,合同会社,石川県,金沢市,八田町東１４２２番地,,17,201,9203104,,,,,,,2024-05-08,1,,,,,ナゴミ,0
560,2250003003493,新規,0,2024-05-08,2024-05-08,合同会社コウエイ,,合同会社,山口県,下関市,梶栗町３丁目３番５号シャトレー内山３０２号,,35,201,7596614,,,,,,,2024-05-08,1,,,,,コウエイ,0
562,2260001039027,新規,0,2024-05-08,2024-05-08,株式会社パールプラス岡山,,株式会社,岡山県,岡山市北区,白石西新町９番地１０３,,33,101,7010142,,,,,,,2024-05-08,1,,,,,パールプラスオカヤマ,0
567,2280001009168,新規,0,2024-05-08,2024-05-08,株式会社芽組,,株式会社,島根県,浜田市,旭町重富３４５番地,,32,202,6970423,,,,,,,2024-05-08,1,,,,,メグミ,0
572,2290001105560,新規,0,2024-05-08,2024-05-08,株式会社アミカル商事,,株式会社,福岡県,福岡市博多区,南八幡町１丁目８番６－４０７号,,40,132,8120886,,,,,,,2024-05-08,1,,,,,アミカルショウジ,0
573,2290001105593,新規,0,2024-05-08,2024-05-08,株式会社ボーダレス・ラボ,,株式会社,福岡県,糸島市,志摩師吉５－３５,,40,230,8191314,,,,,,,2024-05-08,1,,,,,ボーダレスラボ,0
574,2290001105627,新規,0,2024-05-08,2024-05-08,株式会社本田管工業,,株式会社,福岡県,朝倉市,三奈木４２５０番地２,,40,228,8380023,,,,,,,2024-05-08,1,,,,,ホンダカンコウギョウ,0
578,2290801030553,新規,0,2024-05-08,2024-05-08,早川不動産サービス株式会社,,株式会社,福岡県,遠賀郡岡垣町,大字高倉１１２３番地１,,40,383,8114234,,,,,,,2024-05-08,1,,,,,ハヤカワフドウサンサービス,0
580,2290803004720,新規,0,2024-05-08,2024-05-08,合同会社Ｂｏｒｄｅｒ　Ｌｉｎｅ,,合同会社,福岡県,北九州市小倉北区,魚町１丁目６－１３本郷ビル２Ｆ,,40,106,8020006,,,,,,,2024-05-08,1,,,,,ボーダーライン,0
590,2330003010358,新規,0,2024-05-08,2024-05-08,合同会社ｍａｈｏｒｏｂａ,,合同会社,熊本県,山鹿市,鹿本町御宇田２０２番地,,43,208,8610304,,,,,,,2024-05-08,1,,,,,マホロバ,0
592,2350001018946,新規,0,2024-05-08,2024-05-08,株式会社東成,,株式会社,宮崎県,都城市,高崎町縄瀬３５４９番地２８,,45,202,8894503,,,,,,,2024-05-08,1,,,,,トウセイ,0
594,2350003004630,新規,0,2024-05-08,2024-05-08,Ａ．Ｋ　ｅｎｅｒｇｙ合同会社,,合同会社,宮崎県,宮崎市,淀川１丁目２番９－１００２号,,45,201,8800907,,,,,,,2024-05-08,1,,,,,エーケーエナジー,0
595,2360001033606,新規,0,2024-05-08,2024-05-08,株式会社そしじ,,株式会社,沖縄県,那覇市,若狭２丁目１番８号カリマタビル３Ｆ,,47,201,9000031,,,,,,,2024-05-08,1,,,,,ソシジ,0
596,2360001033630,新規,0,2024-05-08,2024-05-08,株式会社海侍,,株式会社,沖縄県,那覇市,泊１丁目２１番地２,,47,201,9000012,,,,,,,2024-05-08,1,,,,,ウミザムライ,0
599,2370003006600,新規,0,2024-05-08,2024-05-08,ｒａｑｕｔｙ合同会社,,合同会社,宮城県,仙台市若林区,文化町６番７号,,04,103,9840815,,,,,,,2024-05-08,1,,,,,ラクティー,0
603,2400001016647,新規,0,2024-05-08,2024-05-08,株式会社フロンティア,,株式会社,岩手県,岩手郡雫石町,西安庭第１６地割１９５番地１,,03,301,0200572,,,,,,,2024-05-08,1,,,,,フロンティア,0
613,2430003016270,新規,0,2024-05-08,2024-05-08,合同会社Ｓｗｉｍｙ,,合同会社,北海道,札幌市中央区,北五条西２７丁目３‐１６‐６０２,,01,101,0640825,,,,,,,2024-05-08,1,,,,,スイミー,0
618,2480003002126,新規,0,2024-05-08,2024-05-08,合同会社ＴＴＡ,,合同会社,徳島県,徳島市,寺島本町東２丁目３１番地１階,,36,201,7700832,,,,,,,2024-05-08,1,,,,,ティーティーエイ,0
629,3010001244591,新規,0,2024-05-08,2024-05-08,株式会社リコルディ合人社,,株式会社,東京都,中央区,日本橋室町４丁目１番５号,,13,102,1030022,,,,,,,2024-05-08,1,,,,,リコルディゴウジンシャ,0
630,3010001244600,新規,0,2024-05-08,2024-05-08,ＣＣファーマシー株式会社,,株式会社,東京都,中央区,晴海３丁目１３番１－４０１５号,,13,102,1040053,,,,,,,2024-05-08,1,,,,,シーシーファーマシー,0
631,3010001244625,新規,0,2024-05-08,2024-05-08,株式会社ＡＴＴＲＡＣＴＡ,,株式会社,東京都,中央区,日本橋浜町３丁目２６番１２－５０４号,,13,102,1030007,,,,,,,2024-05-08,1,,,,,アトラクタ,0
634,3010003043653,新規,0,2024-05-08,2024-05-08,Ｗｉｌｌｉａｍ＆Ｓｔｏｎｅｒ合同会社,,合同会社,東京都,中央区,銀座１丁目１２番４号Ｎ＆ＥＢＬＤ．７階,,13,102,1040061,,,,,,,2024-05-08,1,,,,,ウィリアムアンドストーナー,0
643,3010403032470,新規,0,2024-05-08,2024-05-08,合同会社ＹＯＳＨＩ,,合同会社,東京都,港区,南麻布２丁目６番１６－４０５号,,13,103,1060047,,,,,,,2024-05-08,1,,,,,ヨシ,0
644,3010501052197,新規,0,2024-05-08,2024-05-08,株式会社なすぴ,,株式会社,東京都,台東区,西浅草３丁目２２番３－１４１４号,,13,106,1110035,,,,,,,2024-05-08,1,,,,,ナスピ,0
645,3010501052230,新規,0,2024-05-08,2024-05-08,ＳＯＯＴＨ株式会社,,株式会社,東京都,台東区,北上野１丁目９番２号,,13,106,1100014,,,,,,,2024-05-08,1,,,,,スース,0
646,3010603010813,新規,0,2024-05-08,2024-05-08,合同会社フジコーポレーション,,合同会社,東京都,江東区,扇橋１丁目８番１１号渡邊ハイツ３０１,,13,108,1350011,,,,,,,2024-05-08,1,,,,,フジコーポレーション,0
649,3010701045942,新規,0,2024-05-08,2024-05-08,株式会社栄天サービス,,株式会社,東京都,品川区,中延４丁目６番１７号エクセレントＩＩ３０１,00134649,13,109,1420053,,,,,,,2024-05-08,1,,,,,エイテンサービス,0
652,3010803004937,新規,0,2024-05-08,2024-05-08,合同会社ｎｏｉｒ,,合同会社,東京都,大田区,東雪谷２丁目５－１－７０１,,13,111,1450065,,,,,,,2024-05-08,1,,,,,ノア,0
653,3010901055213,新規,0,2024-05-08,2024-05-08,株式会社たゆまの茶荘,,株式会社,東京都,世田谷区,代沢２丁目３７番１５号三益ビル３０２,,13,112,1550032,,,,,,,2024-05-08,1,,,,,タユマノチャソウ,0
654,3010903009043,新規,0,2024-05-08,2024-05-08,クアッドアール合同会社,,合同会社,東京都,世田谷区,赤堤４丁目３番１５号,,13,112,1560044,,,,,,,2024-05-08,1,,,,,クアッドアール,0
665,3011003018934,新規,0,2024-05-08,2024-05-08,合同会社Ｓｙｍｂｉ,,合同会社,東京都,渋谷区,円山町５番５号Ｎａｖｉ渋谷Ｖ３階,,13,113,1500044,,,,,,,2024-05-08,1,,,,,シンビ,0
666,3011003019057,新規,0,2024-05-08,2024-05-08,合同会社ケイショー,,合同会社,東京都,渋谷区,道玄坂１丁目１６－６二葉ビル８ｂ,,13,113,1500043,,,,,,,2024-05-08,1,,,,,ケイショー,0
673,3011101107192,新規,0,2024-05-08,2024-05-08,株式会社Ｓｉｄｅｔｒａｃｋ,,株式会社,東京都,新宿区,中落合１丁目１０番１８号,,13,104,1610032,,,,,,,2024-05-08,1,,,,,サイドトラック,0
674,3011101107234,新規,0,2024-05-08,2024-05-08,株式会社ＢＲＩＳＫ,,株式会社,東京都,新宿区,西新宿５丁目８－２惠徳ビル８Ｆ,,13,104,1600023,,,,,,,2024-05-08,1,,,,,ブリスク,0
677,3011201025451,新規,0,2024-05-08,2024-05-08,株式会社ＪＯＩＮＴＲＡＤＥ,,株式会社,東京都,中野区,中央４丁目１番３－８０３号,,13,114,1640011,,,,,,,2024-05-08,1,,,,,ジョイントレード,0
678,3011203004379,新規,0,2024-05-08,2024-05-08,合同会社Ｌａｓｉｃａｌ,,合同会社,東京都,中野区,中央４丁目６番７号ＧＳハイム中野１０５号室,,13,114,1640011,,,,,,,2024-05-08,1,,,,,ラシカル,0
680,3011401026076,新規,0,2024-05-08,2024-05-08,株式会社Ｂ．Ｈ．Ａ,,株式会社,東京都,板橋区,志村１丁目２５番１８号プラザドゥジェロンド２０２号室,,13,119,1740056,,,,,,,2024-05-08,1,,,,,ビーエイチエー,0
685,3011601027733,新規,0,2024-05-08,2024-05-08,株式会社ＯＺ,,株式会社,東京都,練馬区,東大泉２丁目１６番６号,,13,120,1780063,,,,,,,2024-05-08,1,,,,,オズ,0
686,3011603004342,新規,0,2024-05-08,2024-05-08,Ｕｎｏ合同会社,,合同会社,東京都,練馬区,春日町１丁目７番２０号,,13,120,1790074,,,,,,,2024-05-08,1,,,,,ウノ,0
688,3011701027245,新規,0,2024-05-08,2024-05-08,Ｎ＆Ｓ株式会社,,株式会社,東京都,江戸川区,西葛西７丁目１番３－１０５号,,13,123,1340088,,,,,,,2024-05-08,1,,,,,エヌアンドエス,0
689,3011801044198,新規,0,2024-05-08,2024-05-08,株式会社Ｓｅａｌｓ,,株式会社,東京都,足立区,宮城２丁目９番６号,,13,121,1200047,,,,,,,2024-05-08,1,,,,,シールズ,0
696,3012401041817,新規,0,2024-05-08,2024-05-08,株式会社３０,,株式会社,東京都,武蔵野市,吉祥寺本町１丁目２０番１号吉祥寺永谷シティプラザ１００２,,13,203,1800004,,,,,,,2024-05-08,1,,,,,サンエン,0
697,3012401041825,新規,0,2024-05-08,2024-05-08,株式会社Ｐｅａｃｅｆｉｅｌｄ,,株式会社,東京都,調布市,深大寺東町３丁目２５番地３,,13,208,1820012,,,,,,,2024-05-08,1,,,,,ピースフィールド,0
698,3012701018242,新規,0,2024-05-08,2024-05-08,株式会社リミレスアーム,,株式会社,東京都,清瀬市,野塩５丁目２８６番地１,,13,221,2040004,,,,,,,2024-05-08,1,,,,,リミレスアーム,0
700,3012703002979,新規,0,2024-05-08,2024-05-08,合同会社５３３７,,合同会社,東京都,東村山市,栄町２丁目４－２創夢ビル１Ｆ,,13,213,1890013,,,,,,,2024-05-08,1,,,,,ゴーサンサンナナ,0
701,3012801023150,新規,0,2024-05-08,2024-05-08,株式会社颯栄,,株式会社,東京都,昭島市,宮沢町１丁目１４番４－２０６号,,13,207,1960024,,,,,,,2024-05-08,1,,,,,ソウエイ,0
715,3020003025997,新規,0,2024-05-08,2024-05-08,マディガン合同会社,,合同会社,神奈川県,横浜市中区,桜木町１丁目１番地７ヒューリックみなとみらい１０階,,14,104,2310062,,,,,,,2024-05-08,1,,,,,マディガン,0
719,3021001082139,新規,0,2024-05-08,2024-05-08,株式会社壱輝土建,,株式会社,神奈川県,藤沢市,遠藤２４７３番地の８,,14,205,2520816,,,,,,,2024-05-08,1,,,,,イツキドケン,0
720,3021001082147,新規,0,2024-05-08,2024-05-08,株式会社ＦＦＴ,,株式会社,神奈川県,伊勢原市,上粕屋２６３２番地の５,,14,214,2591141,,,,,,,2024-05-08,1,,,,,エフエフティー,0
721,3021001082155,新規,0,2024-05-08,2024-05-08,株式会社Ｏｎｅｌｉｇｈｔ,,株式会社,神奈川県,相模原市中央区,上溝２０３１番地９,,14,152,2520243,,,,,,,2024-05-08,1,,,,,ワンライト,0
722,3021001082171,新規,0,2024-05-08,2024-05-08,タイプエックス株式会社,,株式会社,神奈川県,鎌倉市,由比ガ浜４丁目４番３７号,,14,204,2480014,,,,,,,2024-05-08,1,,,,,タイプエックス,0
724,3030001160176,新規,0,2024-05-08,2024-05-08,ＯＧＡＷＡ　ＧＲＯＵＰ株式会社,,株式会社,埼玉県,越谷市,レイクタウン５丁目１２番地２シティテラス越谷レイクタウン７４０,,11,222,3430828,,,,,,,2024-05-08,1,,,,,オガワグループ,0
725,3030001160184,新規,0,2024-05-08,2024-05-08,中嶋興業株式会社,,株式会社,埼玉県,比企郡小川町,大字腰越４３１番地２,,11,343,3550327,,,,,,,2024-05-08,1,,,,,ナカジマコウギョウ,0
726,3030001160201,新規,0,2024-05-08,2024-05-08,株式会社太陽商事,,株式会社,埼玉県,さいたま市桜区,大字下大久保７４６－１清水ハイツ１１５,,11,106,3380825,,,,,,,2024-05-08,1,,,,,タイヨウショウジ,0
730,3030003024239,新規,0,2024-05-08,2024-05-08,合同会社７３０,,合同会社,埼玉県,朝霞市,岡１丁目１８番１２号,,11,227,3510007,,,,,,,2024-05-08,1,,,,,ナナサンマル,0
739,3040003024915,新規,0,2024-05-08,2024-05-08,Ｋ＆Ｋ合同会社,,合同会社,千葉県,千葉市稲毛区,小深町２３－１２,,12,103,2630003,,,,,,,2024-05-08,1,,,,,ケーアンドケー,0
744,3050003008347,新規,0,2024-05-08,2024-05-08,合同会社ｉｒｉｓ,,合同会社,茨城県,水戸市,千波町４８３番地の１,,08,201,3100851,,,,,,,2024-05-08,1,,,,,イリス,0
745,3050005013444,新規,0,2024-05-08,2024-05-08,一般財団法人篠田守男アート,,その他の設立登記法人,茨城県,土浦市,宍塚１７５１番地１,,08,203,3000805,,,,,,,2024-05-08,1,,,,,シノダモリオアート,0
748,3060001037066,新規,0,2024-05-08,2024-05-08,輝工業株式会社,,株式会社,栃木県,宇都宮市,宝木町２丁目８５８番地５,,09,201,3200061,,,,,,,2024-05-08,1,,,,,ヒカルコウギョウ,0
751,3070001041703,新規,0,2024-05-08,2024-05-08,株式会社みろく,,株式会社,群馬県,前橋市,駒形町１２４２番地１,,10,201,3792122,,,,,,,2024-05-08,1,,,,,ミロク,0
752,3080001026281,新規,0,2024-05-08,2024-05-08,株式会社スカイネクスト,,株式会社,静岡県,静岡市葵区,沓谷５丁目５１番地４,,22,101,4200816,,,,,,,2024-05-08,1,,,,,スカイネクスト,0
753,3080101024722,新規,0,2024-05-08,2024-05-08,株式会社ＫＴＳ,,株式会社,静岡県,富士市,さんどまき２８０番地,,22,210,4170856,,,,,,,2024-05-08,1,,,,,ケイティーエス,0
754,3080101024730,新規,0,2024-05-08,2024-05-08,株式会社フジトレイルヘッド,,株式会社,静岡県,富士宮市,小泉１６４９番地の２０,,22,207,4180022,,,,,,,2024-05-08,1,,,,,フジトレイルヘッド,0
777,3120001264653,新規,0,2024-05-08,2024-05-08,株式会社フクシマガリレイ分割準備会社,,株式会社,大阪府,大阪市西淀川区,竹島２丁目６番１８号,,27,113,5550011,,,,,,,2024-05-08,1,,,,,フクシマガリレイブンカツジュンビカイシャ,0
778,3120001264661,新規,0,2024-05-08,2024-05-08,株式会社ＮＥＸＴメール,,株式会社,大阪府,大阪市東住吉区,杭全７丁目９番１号,,27,121,5460002,,,,,,,2024-05-08,1,,,,,ネクストメール,0
780,3120003026523,新規,0,2024-05-08,2024-05-08,ＩＮＡＫ合同会社,,合同会社,大阪府,大阪市北区,東天満２丁目５－１７古林タワービル,,27,127,5300044,,,,,,,2024-05-08,1,,,,,イナック,0
793,3130001076973,新規,0,2024-05-08,2024-05-08,株式会社島本不動産鑑定事務所,,株式会社,京都府,城陽市,奈島久保野１５番地,,26,207,6100116,,,,,,,2024-05-08,1,,,,,シマモトフドウサンカンテイジムショ,0
802,3140001134301,新規,0,2024-05-08,2024-05-08,株式会社Ｒａｃｃｏｏｎ,,株式会社,兵庫県,西宮市,上鳴尾１６番１４－２０１号,,28,204,6620000,,,,,,,2024-05-08,1,,,,,ラクーン,0
803,3140001134318,新規,0,2024-05-08,2024-05-08,株式会社ヴェルデ・エレットリカ,,株式会社,兵庫県,神戸市長田区,堀切町１８番６号,,28,106,6530885,,,,,,,2024-05-08,1,,,,,ヴェルデエレットリカ,0
804,3140001134342,新規,0,2024-05-08,2024-05-08,株式会社タイ潜水,,株式会社,兵庫県,神戸市灘区,中原通６丁目２番１２－２号,,28,102,6570825,,,,,,,2024-05-08,1,,,,,タイセンスイ,0
808,3140003020540,新規,0,2024-05-08,2024-05-08,合同会社元神戸製作所,,合同会社,兵庫県,神戸市中央区,磯辺通１丁目１番１８号カサベラ国際プラザビル７０７号室,,28,110,6510084,,,,,,,2024-05-08,1,,,,,モトコウベセイサクショ,0
810,3140005027071,新規,0,2024-05-08,2024-05-08,一般社団法人日高神鍋観光協会,,その他の設立登記法人,兵庫県,豊岡市,日高町栗栖野５９番地の１３,,28,209,6695372,,,,,,,2024-05-08,1,,,,,ヒダカカンナベカンコウキョウカイ,0
811,3150001027272,新規,0,2024-05-08,2024-05-08,株式会社トランキルブリッジ,,株式会社,奈良県,五條市,釜窪町１０４０番地の１,,29,207,6370084,,,,,,,2024-05-08,1,,,,,トランキルブリッジ,0
813,3170001018121,新規,0,2024-05-08,2024-05-08,Ｓａｔｏｋｅｎ株式会社,,株式会社,和歌山県,東牟婁郡那智勝浦町,大字宇久井５４９番地２,,30,421,6495312,,,,,,,2024-05-08,1,,,,,サトケン,0
817,3180001161267,新規,0,2024-05-08,2024-05-08,城見コンサルタント株式会社,,株式会社,愛知県,名古屋市西区,江向町１丁目９３番地アクシスＩ、２Ａ,00134650,23,104,4510013,,,,,,,2024-05-08,1,,,,,シロミコンサルタント,0
827,3180303006112,新規,0,2024-05-08,2024-05-08,ライト合同会社,,合同会社,愛知県,豊川市,東光町２丁目７０番地,,23,207,4420022,,,,,,,2024-05-08,1,,,,,ライト,0
828,3190001031329,新規,0,2024-05-08,2024-05-08,高木電設株式会社,00134641,株式会社,三重県,津市,半田１１５７番地１３,,24,201,5140823,,,,,,,2024-05-08,1,,,,,タカキデンセツ,0
830,3200001042472,新規,0,2024-05-08,2024-05-08,株式会社エイトリアル,,株式会社,岐阜県,加茂郡八百津町,上牧野５９９番地１１,,21,505,5050304,,,,,,,2024-05-08,1,,,,,エイトリアル,0
831,3200001042480,新規,0,2024-05-08,2024-05-08,株式会社ＢＬＵＥ,,株式会社,岐阜県,大垣市,領家町２丁目４８番地１,,21,202,5030014,,,,,,,2024-05-08,1,,,,,ブルー,0
833,3220001025987,新規,0,2024-05-08,2024-05-08,株式会社デーリィカウテック,,株式会社,石川県,かほく市,宇野気ト１１４番地７,,17,209,9291125,,,,,,,2024-05-08,1,,,,,デーリィカウテック,0
834,3220001025995,新規,0,2024-05-08,2024-05-08,株式会社ＫＵＮＣＡ,,株式会社,石川県,金沢市,寺町４丁目４‐４,,17,201,9218033,,,,,,,2024-05-08,1,,,,,クンカ,0
835,3220003003743,新規,0,2024-05-08,2024-05-08,合同会社ＦＲＡＣＴＡＬ,,合同会社,石川県,金沢市,増泉３丁目５番１７号ＮＥＸＵＳ金沢増泉・２０３号,,17,201,9218025,,,,,,,2024-05-08,1,,,,,フラクタル,0
836,3230001020327,新規,0,2024-05-08,2024-05-08,株式会社海洋,,株式会社,富山県,中新川郡上市町,稗田１６番地,,16,322,9300362,,,,,,,2024-05-08,1,,,,,カイヨウ,0
842,3260001039042,新規,0,2024-05-08,2024-05-08,株式会社ＧＲＩＴ,,株式会社,岡山県,倉敷市,東富井１１３６番３,,33,202,7100847,,,,,,,2024-05-08,1,,,,,グリット,0
851,3290001105584,新規,0,2024-05-08,2024-05-08,株式会社ユージンファーマ,,株式会社,福岡県,福岡市南区,井尻１丁目３６－２７,,40,134,8111302,,,,,,,2024-05-08,1,,,,,ユージンファーマ,0
853,3290003015229,新規,0,2024-05-08,2024-05-08,合同会社色織,,合同会社,福岡県,久留米市,西町１１９６番地サンメゾン西鉄久留米９０１号,,40,203,8300038,,,,,,,2024-05-08,1,,,,,イオリ,0
858,3290803004711,新規,0,2024-05-08,2024-05-08,合同会社キタザキ,,合同会社,福岡県,北九州市八幡西区,木屋瀬３丁目１３番９号,,40,109,8071261,,,,,,,2024-05-08,1,,,,,キタザキ,0
859,3300003002118,新規,0,2024-05-08,2024-05-08,谷口工業合同会社,,合同会社,佐賀県,伊万里市,黒川町横野５５３番地,,41,205,8480144,,,,,,,2024-05-08,1,,,,,タニグチコウギョウ,0
860,3310001019006,新規,0,2024-05-08,2024-05-08,株式会社ワコー,,株式会社,長崎県,佐世保市,東浜町６７２番地５,,42,202,8571172,,,,,,,2024-05-08,1,,,,,ワコー,0
863,3330003010357,新規,0,2024-05-08,2024-05-08,愛上合同会社,,合同会社,熊本県,八代市,永碇町９６９番地１田中アパートＡ,,43,202,8660885,,,,,,,2024-05-08,1,,,,,アイウエ,0
866,3340005009727,新規,0,2024-05-08,2024-05-08,一般社団法人ＨＩＴ　ＳＵＰＰＯＲＴ,,その他の設立登記法人,鹿児島県,奄美市,名瀬古田町８－３－１階,,46,222,8940016,,,,,,,2024-05-08,1,,,,,ヒットサポート,0
867,3350001018953,新規,0,2024-05-08,2024-05-08,株式会社未来‐ｍｉＲａｉ‐企画,,株式会社,宮崎県,宮崎市,佐土原町下田島９４２４番地１モーニングパーク横川１０４号,,45,201,8800211,,,,,,,2024-05-08,1,,,,,ミライキカク,0
869,3360001033613,新規,0,2024-05-08,2024-05-08,ＳＩ２１Ｅｎｔｅｒｐｒｉｓｅ株式会社,,株式会社,沖縄県,浦添市,大平２丁目１３番５－８０１号サファイアテラス,,47,208,9012113,,,,,,,2024-05-08,1,,,,,エスアイニジュウイチエンタープライズ,0
871,3370001051259,新規,0,2024-05-08,2024-05-08,株式会社Ｋ‐ＴＥＣ,,株式会社,宮城県,亘理郡山元町,坂元字川内１８番地,,04,362,9892111,,,,,,,2024-05-08,1,,,,,ケーテック,0
872,3370001051267,新規,0,2024-05-08,2024-05-08,橋本建工株式会社,,株式会社,宮城県,仙台市青葉区,桜ケ丘６丁目１０番１９号,,04,101,9810961,,,,,,,2024-05-08,1,,,,,ハシモトケンコウ,0
873,3370003006599,新規,0,2024-05-08,2024-05-08,八重樫企業合同会社,,合同会社,宮城県,仙台市泉区,野村字前河原８－１,,04,105,9813124,,,,,,,2024-05-08,1,,,,,ヤエガシキギョウ,0
874,3370005010780,新規,0,2024-05-08,2024-05-08,一般財団法人鈴彦記念財団,,その他の設立登記法人,宮城県,仙台市青葉区,錦町２丁目４番６０号,,04,101,9800012,,,,,,,2024-05-08,1,,,,,スズヒコキネンザイダン,0
875,3380001034502,新規,0,2024-05-08,2024-05-08,株式会社ＡＮ,,株式会社,福島県,いわき市,平字二町目３６番地,,07,204,9708026,,,,,,,2024-05-08,1,,,,,アン,0
876,3380001034510,新規,0,2024-05-08,2024-05-08,株式会社ＳＴフード,,株式会社,福島県,郡山市,富久山町久保田字桝形４９番地の１,,07,203,9638071,,,,,,,2024-05-08,1,,,,,エスティフード,0
877,3380003005757,新規,0,2024-05-08,2024-05-08,合同会社バリコーポレーション,,合同会社,福島県,いわき市,錦町中迎３丁目６番地の２７,,07,204,9748232,,,,,,,2024-05-08,1,,,,,バリコーポレーション,0
889,3430001091711,新規,0,2024-05-08,2024-05-08,株式会社デリプロ,,株式会社,北海道,札幌市中央区,南六条西７丁目７番地３,,01,101,0640806,,,,,,,2024-05-08,1,,,,,デリプロ,0
890,3430001091728,新規,0,2024-05-08,2024-05-08,株式会社プラスサイン,,株式会社,北海道,札幌市厚別区,もみじ台西３丁目１番６号,,01,108,0040013,,,,,,,2024-05-08,1,,,,,プラスサイン,0
891,3430001091736,新規,0,2024-05-08,2024-05-08,株式会社サネテック,,株式会社,北海道,札幌市西区,西野一条４丁目１番５９号,,01,107,0630031,,,,,,,2024-05-08,1,,,,,サネテック,0
892,3430001091760,新規,0,2024-05-08,2024-05-08,株式会社ＲＳＧ,,株式会社,北海道,札幌市東区,東苗穂十二条３丁目１６番１６号,,01,103,0070812,,,,,,,2024-05-08,1,,,,,アールエスジー,0
898,3430003016294,新規,0,2024-05-08,2024-05-08,赤富士インターナショナル合同会社,,合同会社,北海道,札幌市豊平区,平岸五条１０丁目４‐１８,,01,105,0620935,,,,,,,2024-05-08,1,,,,,アカフジインターナショナル,0
899,3450001014315,新規,0,2024-05-08,2024-05-08,株式会社レーヴル,,株式会社,北海道,紋別市,渚滑町元新４丁目１８４番地１０,,01,219,0995172,,,,,,,2024-05-08,1,,,,,レーヴル,0
900,3470001020187,新規,0,2024-05-08,2024-05-08,株式会社醤醤,,株式会社,香川県,丸亀市,天満町１丁目１０番２８号,,37,202,7630066,,,,,,,2024-05-08,1,,,,,ジャンジャン,0
906,3500003003236,新規,0,2024-05-08,2024-05-08,合同会社ＩＮＮＥＲ　ＢＡＬＡＮＣＥ,,合同会社,愛媛県,伊予市,米湊２６７－２うみとカモメ内,,38,210,7993113,,,,,,,2024-05-08,1,,,,,,0
912,4010001244475,新規,0,2024-05-08,2024-05-08,Ｌａｄｅｒａｃｈ　Ｊａｐａｎ株式会社,,株式会社,東京都,中央区,日本橋茅場町１丁目１３番２１号阪神ビル６階,,13,102,1030025,,,,,,,2024-05-08,1,,,,,レダラッハジャパン,0
913,4010001244582,新規,0,2024-05-08,2024-05-08,株式会社リユース経済新聞社,,株式会社,東京都,中央区,銀座８丁目１２番１５号,,13,102,1040061,,,,,,,2024-05-08,1,,,,,リユースケイザイシンブンシャ,0
914,4010001244632,新規,0,2024-05-08,2024-05-08,株式会社カッパ・メディカル,,株式会社,東京都,中央区,銀座１丁目１２番４号Ｎ＆Ｅ－ＢＬＤ．６Ｆ,,13,102,1040061,,,,,,,2024-05-08,1,,,,,カッパメディカル,0
915,4010001244673,新規,0,2024-05-08,2024-05-08,ケーワイエクスプレス株式会社,,株式会社,東京都,中央区,新川１丁目３番７号,,13,102,1040033,,,,,,,2024-05-08,1,,,,,ケーワイエクスプレス,0
921,4010005038287,新規,0,2024-05-08,2024-05-08,エスティキョウト一般社団法人,,その他の設立登記法人,東京都,千代田区,丸の内３丁目１番１号東京共同会計事務所内,,13,101,1000005,,,,,,,2024-05-08,1,,,,,エスティキョウト,0
929,4010401182184,新規,0,2024-05-08,2024-05-08,日本生根株式会社,,株式会社,東京都,港区,赤坂２丁目２１番４号天翔赤坂ＡＮＮＥＸビル２０６－Ｅ,,13,103,1070052,,,,,,,2024-05-08,1,,,,,ニホンセイコン,0
930,4010401182201,新規,0,2024-05-08,2024-05-08,株式会社Ｓ３Ｅ,,株式会社,東京都,港区,浜松町２丁目２番１５号浜松町ダイヤビル２Ｆ,,13,103,1050013,,,,,,,2024-05-08,1,,,,,エスサンイー,0
931,4010401182226,新規,0,2024-05-08,2024-05-08,株式会社ｅｎ,,株式会社,東京都,港区,北青山１丁目３番１号アールキューブ青山３階,,13,103,1070061,,,,,,,2024-05-08,1,,,,,エン,0
934,4010501052205,新規,0,2024-05-08,2024-05-08,株式会社５００５,,株式会社,東京都,台東区,谷中３丁目２４番１号,,13,106,1100001,,,,,,,2024-05-08,1,,,,,ゴーマルマルゴー,0
935,4010501052213,新規,0,2024-05-08,2024-05-08,株式会社スケッチビジネスマネジメント,,株式会社,東京都,台東区,浅草橋２丁目２５番１０号,,13,106,1110053,,,,,,,2024-05-08,1,,,,,スケッチビジネスマネジメント,0
951,4011001161710,新規,0,2024-05-08,2024-05-08,株式会社ＭＥＤＣＯＡＣＨ,,株式会社,東京都,渋谷区,渋谷２丁目１９－１５宮益坂ビルディング６０９,,13,113,1500002,,,,,,,2024-05-08,1,,,,,メドコーチ,0
952,4011001161735,新規,0,2024-05-08,2024-05-08,株式会社ＥＴＡＮＡ,,株式会社,東京都,渋谷区,渋谷３丁目６番２号エクラート渋谷５階,,13,113,1500002,,,,,,,2024-05-08,1,,,,,エターナ,0
953,4011001161776,新規,0,2024-05-08,2024-05-08,ＤＯＵＢＬＥ　ＥＶＥＶＥＮＳ株式会社,,株式会社,東京都,目黒区,南２丁目１５番３号,,13,110,1520013,,,,,,,2024-05-08,1,,,,,ダブルイブベンス,0
954,4011003019072,新規,0,2024-05-08,2024-05-08,合同会社ミュール,,合同会社,東京都,渋谷区,恵比寿南３丁目７番３号,,13,113,1500022,,,,,,,2024-05-08,1,,,,,ミュール,0
967,4011101107183,新規,0,2024-05-08,2024-05-08,株式会社ビーウェル,,株式会社,東京都,新宿区,西新宿８丁目３番１号,,13,104,1600023,,,,,,,2024-05-08,1,,,,,ビーウェル,0
968,4011101107225,新規,0,2024-05-08,2024-05-08,株式会社アドベンチャー,,株式会社,東京都,新宿区,大久保２丁目６番１８－７０５号,,13,104,1690072,,,,,,,2024-05-08,1,,,,,アドベンチャー,0
970,4011103014378,新規,0,2024-05-08,2024-05-08,コヤンイ合同会社,,合同会社,東京都,新宿区,西新宿７丁目２番６号西新宿Ｋ－１ビル４階,,13,104,1600023,,,,,,,2024-05-08,1,,,,,コヤンイ,0
971,4011201025450,新規,0,2024-05-08,2024-05-08,株式会社ＯｃＴｏｂｅｒ,,株式会社,東京都,中野区,中央５丁目８番５号オオスミビル３０４,,13,114,1640011,,,,,,,2024-05-08,1,,,,,オクトーバー,0
978,4011601027724,新規,0,2024-05-08,2024-05-08,株式会社ＣＯ‐ＲＡＢｉ,,株式会社,東京都,練馬区,栄町４番２号３０２,,13,120,1760006,,,,,,,2024-05-08,1,,,,,コラビ,0
979,4011603004341,新規,0,2024-05-08,2024-05-08,合同会社クツナックス,,合同会社,東京都,練馬区,光が丘６丁目１番２－２０６号,,13,120,1790072,,,,,,,2024-05-08,1,,,,,クツナックス,0
981,4011605002582,新規,0,2024-05-08,2024-05-08,一般社団法人ＹＯＲＩＡＩＬａｂ,,その他の設立登記法人,東京都,練馬区,桜台２丁目４番３号,,13,120,1760002,,,,,,,2024-05-08,1,,,,,ヨリアイラボ,0
987,4012301013898,新規,0,2024-05-08,2024-05-08,株式会社マイタレイヤ,,株式会社,東京都,町田市,広袴４丁目１番地１５,,13,209,1950056,,,,,,,2024-05-08,1,,,,,マイタレイヤ,0
988,4012401041832,新規,0,2024-05-08,2024-05-08,成長株式会社,,株式会社,東京都,三鷹市,下連雀５丁目５番１－４１４号,,13,204,1810013,,,,,,,2024-05-08,1,,,,,セイチョウ,0
989,4012401041840,新規,0,2024-05-08,2024-05-08,株式会社市丸不動産,,株式会社,東京都,狛江市,岩戸南３丁目１３番２７号,,13,219,2010005,,,,,,,2024-05-08,1,,,,,イチマルフドウサン,0
990,4012403006536,新規,0,2024-05-08,2024-05-08,合同会社タオブレーン,,合同会社,東京都,三鷹市,北野２丁目６番４７－２０６号,,13,204,1810003,,,,,,,2024-05-08,1,,,,,タオブレーン,0
1002,4020001156901,新規,0,2024-05-08,2024-05-08,株式会社Ｓ．Ｒ　ｌｉｆｅ,,株式会社,神奈川県,横浜市戸塚区,秋葉町４００番地１エクセルコート土屋１０２号,,14,110,2450052,,,,,,,2024-05-08,1,,,,,エスアールライフ,0
1003,4020001157032,新規,0,2024-05-08,2024-05-08,株式会社アルファメンテック,,株式会社,神奈川県,横浜市旭区,川井本町１１番地１,,14,112,2410803,,,,,,,2024-05-08,1,,,,,アルファメンテック,0
1004,4020001157073,新規,0,2024-05-08,2024-05-08,株式会社アドヴァンテージマーケティング,,株式会社,神奈川県,横浜市港北区,新横浜２丁目５－１９,,14,109,2220033,,,,,,,2024-05-08,1,,,,,アドヴァンテージマーケティング,0
1011,4020005016399,新規,0,2024-05-08,2024-05-08,一般社団法人ゴルフドクター養成学会,,その他の設立登記法人,神奈川県,川崎市高津区,二子４丁目１４番５号,,14,134,2130002,,,,,,,2024-05-08,1,,,,,ゴルフドクターヨウセイガッカイ,0
1014,4021001082146,新規,0,2024-05-08,2024-05-08,株式会社ＦＲＥＥＤＯＭ,,株式会社,神奈川県,相模原市南区,上鶴間本町４丁目４番５号１０１,,14,153,2520318,,,,,,,2024-05-08,1,,,,,フリーダム,0
1015,4021001082154,新規,0,2024-05-08,2024-05-08,株式会社ＨａｉＲ　Ｐｅａｓ,,株式会社,神奈川県,茅ヶ崎市,南湖５丁目１８番２０号ＴＩＩ南湖ビル,00134644,14,207,2530061,,,,,,,2024-05-08,1,,,,,ヘアピーズ,0
1016,4021001082162,新規,0,2024-05-08,2024-05-08,株式会社Ｗａｌｌｓｔｏｎｅ,,株式会社,神奈川県,足柄下郡箱根町,仙石原１２４６－４６９,,14,382,2500631,,,,,,,2024-05-08,1,,,,,ウォールストーン,0
1017,4021001082170,新規,0,2024-05-08,2024-05-08,株式会社Ｔｏｍｍｙ’ｓ,,株式会社,神奈川県,平塚市,西真土３丁目１１－１５,,14,203,2540019,,,,,,,2024-05-08,1,,,,,トミーズ,0
1021,4021003014477,新規,0,2024-05-08,2024-05-08,合同会社Ｗｉｌｌｏｗ　Ｗｏｒｋｓ,,合同会社,神奈川県,座間市,ひばりが丘３丁目１番６号,,14,216,2520003,,,,,,,2024-05-08,1,,,,,ウィローワークス,0
1027,4030001160167,新規,0,2024-05-08,2024-05-08,株式会社Ｋ‐ｏｎｅ　Ｔｒｕｓｔ,,株式会社,埼玉県,越谷市,大字増林３５９０番地５,,11,222,3430011,,,,,,,2024-05-08,1,,,,,ケーワントラスト,0
1028,4030001160175,新規,0,2024-05-08,2024-05-08,株式会社ＬＧＯ,,株式会社,埼玉県,川口市,川口５丁目１７番２５号リスボン１０２号,,11,203,3320015,,,,,,,2024-05-08,1,,,,,エルジーオー,0
1029,4030001160183,新規,0,2024-05-08,2024-05-08,株式会社すカー・レット３,,株式会社,埼玉県,所沢市,北野１丁目１７番地の２７,,11,208,3591152,,,,,,,2024-05-08,1,,,,,スカーレットサン,0
1030,4030001160191,新規,0,2024-05-08,2024-05-08,株式会社アイレス,,株式会社,埼玉県,熊谷市,善ヶ島１２６１番地９,,11,202,3600211,,,,,,,2024-05-08,1,,,,,アイレス,0
1031,4030001160200,新規,0,2024-05-08,2024-05-08,株式会社ｅｌｐｉｓ,,株式会社,埼玉県,さいたま市大宮区,大成町２丁目９７番地１・１１１号室,,11,103,3300852,,,,,,,2024-05-08,1,,,,,エルピス,0
1032,4030001160209,新規,0,2024-05-08,2024-05-08,ＳＥＩＫＯＵ株式会社,,株式会社,埼玉県,川口市,領家２丁目１０番８号,,11,203,3320004,,,,,,,2024-05-08,1,,,,,セイコウ,0
1034,4030003024238,新規,0,2024-05-08,2024-05-08,合同会社ＡＯＴＡＫＩ,,合同会社,埼玉県,飯能市,大字中藤中郷５１６－５,,11,209,3570122,,,,,,,2024-05-08,1,,,,,アオタキ,0
1035,4030003024246,新規,0,2024-05-08,2024-05-08,合同会社グッドライフサポート,,合同会社,埼玉県,さいたま市大宮区,桜木町２丁目３番地,,11,103,3300854,,,,,,,2024-05-08,1,,,,,グッドライフサポート,0
1037,4030005021687,新規,0,2024-05-08,2024-05-08,一般社団法人日本アスリート支援協会,,その他の設立登記法人,埼玉県,さいたま市大宮区,桜木町４丁目２４１番地２・２Ｆ,,11,103,3300854,,,,,,,2024-05-08,1,,,,,ニホンアスリートシエンキョウカイ,0
1039,4040001133436,新規,0,2024-05-08,2024-05-08,愛十夢馬場馬術株式会社,,株式会社,千葉県,富里市,日吉台１丁目１８番地１１,,12,233,2860201,,,,,,,2024-05-08,1,,,,,アトムバババジュツ,0
1043,4040005022370,新規,0,2024-05-08,2024-05-08,一般社団法人日本認知症の人の緩和ケア学会,,その他の設立登記法人,千葉県,柏市,柏の葉６丁目５－１国立がん研究センター東病院,,12,217,2770882,,,,,,,2024-05-08,1,,,,,ニホンニンチショウノヒトノカンワケアガッカイ,0
1046,4050001054722,新規,0,2024-05-08,2024-05-08,株式会社小松崎園芸,00134653,株式会社,茨城県,かすみがうら市,中台４５０番地２４,,08,230,3000133,,,,,,,2024-05-08,1,,,,,コマツザキエンゲイ,0
1047,4050001054730,新規,0,2024-05-08,2024-05-08,株式会社福住石材建設,,株式会社,茨城県,水戸市,小泉町９２１番地の１,,08,201,3111111,,,,,,,2024-05-08,1,,,,,フクズミセキザイケンセツ,0
1048,4050003008338,新規,0,2024-05-08,2024-05-08,合同会社イワセオフィス,,合同会社,茨城県,つくば市,島名３９９０番地（諏訪Ｄ１街区１０）,,08,220,3002655,,,,,,,2024-05-08,1,,,,,イワセオフィス,0
1049,4050005013443,新規,0,2024-05-08,2024-05-08,一般社団法人Ｖｏｔｕｍ,,その他の設立登記法人,茨城県,笠間市,大渕１２０３,,08,216,3091604,,,,,,,2024-05-08,1,,,,,,0
1051,4060001037065,新規,0,2024-05-08,2024-05-08,Ｄｉｎｏ　Ｔｅｃｈ　Ｓｅｒｖｉｃｅ株式会社,,株式会社,栃木県,宇都宮市,宝木町２丁目１１１９番地６９,,09,201,3200061,,,,,,,2024-05-08,1,,,,,ディノテックサービス,0
1055,4070001041702,新規,0,2024-05-08,2024-05-08,株式会社藝術の地球の輪,,株式会社,群馬県,前橋市,富田町６８９番地３,,10,201,3792161,,,,,,,2024-05-08,1,,,,,ゲイジュツノチキュウノワ,0
1056,4070001041710,新規,0,2024-05-08,2024-05-08,株式会社ＰＬＡＴＩＮＵＭ　ＢＬＡＺＥ,,株式会社,群馬県,高崎市,石原町５０２番地１,,10,202,3700864,,,,,,,2024-05-08,1,,,,,プラチナムブレイズ,0
1059,4080001026280,新規,0,2024-05-08,2024-05-08,株式会社アミューボ,,株式会社,静岡県,静岡市葵区,新間８５５番地の３,,22,101,4211201,,,,,,,2024-05-08,1,,,,,アミューボ,0
1060,4080101024721,新規,0,2024-05-08,2024-05-08,株式会社リバティ,,株式会社,静岡県,沼津市,八幡町１２８番地の１,,22,203,4100881,,,,,,,2024-05-08,1,,,,,リバティ,0
1075,4100003007524,新規,0,2024-05-08,2024-05-08,合同会社ＳＯＵＮＤ　ＯＦ　ＳＯＵＲＣＥ,,合同会社,長野県,伊那市,日影５７７７－５,,20,209,3960009,,,,,,,2024-05-08,1,,,,,サウンドオブソース,0
1076,4110001038396,新規,0,2024-05-08,2024-05-08,北辰機販株式会社,,株式会社,新潟県,燕市,殿島２丁目５番２３号,,15,213,9591233,,,,,,,2024-05-08,1,,,,,ホクシンキハン,0
1077,4110003005386,新規,0,2024-05-08,2024-05-08,合同会社とっとシステムサポート,,合同会社,新潟県,長岡市,学校町３丁目１０番１２号,,15,202,9400041,,,,,,,2024-05-08,1,,,,,トットシステムサポート,0
1086,4120001264636,新規,0,2024-05-08,2024-05-08,日昇システム株式会社,,株式会社,大阪府,大阪市城東区,鴫野東２丁目２８番２６号,,27,118,5360013,,,,,,,2024-05-08,1,,,,,ニッショウシステム,0
1087,4120001264644,新規,0,2024-05-08,2024-05-08,三泰株式会社,,株式会社,大阪府,大阪市港区,築港４丁目１０番３０号大寅ビル３０２,,27,107,5520021,,,,,,,2024-05-08,1,,,,,サンタイ,0
1088,4120001264735,新規,0,2024-05-08,2024-05-08,株式会社Ｐｌｕｓ,,株式会社,大阪府,大阪市浪速区,桜川２丁目８番２５－５１３号,,27,111,5560022,,,,,,,2024-05-08,1,,,,,プラス,0
1095,4122001038053,新規,0,2024-05-08,2024-05-08,株式会社ツジエンジニアリング,,株式会社,大阪府,東大阪市,楠根３丁目４番２２号,,27,227,5770006,,,,,,,2024-05-08,1,,,,,ツジエンジニアリング,0
1100,4130001076989,新規,0,2024-05-08,2024-05-08,株式会社ＳＭＩＬＥレン太,,株式会社,京都府,京田辺市,大住池島３６番地２,,26,211,6100343,,,,,,,2024-05-08,1,,,,,スマイルレンタ,0
1101,4130001077013,新規,0,2024-05-08,2024-05-08,株式会社ＴＡＮＩＮＯ　ＰＬＡＮＮＩＮＧ,,株式会社,京都府,八幡市,橋本堂ケ原９２番地の１３,,26,210,6148344,,,,,,,2024-05-08,1,,,,,タニノプランニング,0
1106,4140001134300,新規,0,2024-05-08,2024-05-08,株式会社丹波夢農園,,株式会社,兵庫県,丹波市,山南町美和１２３番地,,28,223,6693159,,,,,,,2024-05-08,1,,,,,タンバユメノウエン,0
1107,4140001134341,新規,0,2024-05-08,2024-05-08,株式会社Ｔ＆Ｍ企画,,株式会社,兵庫県,西宮市,中前田町３－１８－２０１クリエイティブＨセントラル２０１号,,28,204,6620857,,,,,,,2024-05-08,1,,,,,ティーアンドエムキカク,0
1111,4140003020523,新規,0,2024-05-08,2024-05-08,合同会社アクセルワークス,,合同会社,兵庫県,姫路市,飾磨区下野田４丁目３９０番地１１,,28,201,6728044,,,,,,,2024-05-08,1,,,,,アクセルワークス,0
1112,4140003020531,新規,0,2024-05-08,2024-05-08,合同会社ＭＣコンサルティング,,合同会社,兵庫県,神戸市中央区,中山手通３丁目１２番６号神税ビル,,28,110,6500004,,,,,,,2024-05-08,1,,,,,エムシーコンサルティング,0
1115,4150001027271,新規,0,2024-05-08,2024-05-08,株式会社Ｃａｒｅ　Ｄｅｓｉｇｎ　Ｏｆｆｉｃｅ,,株式会社,奈良県,香芝市,磯壁２丁目１０６２番地４－２階,,29,210,6390236,,,,,,,2024-05-08,1,,,,,ケアデザインオフィス,0
1117,4150003003246,新規,0,2024-05-08,2024-05-08,合同会社Ｂａｋｕ,,合同会社,奈良県,天理市,富堂町１２６番地１２,,29,204,6320072,,,,,,,2024-05-08,1,,,,,バク,0
1118,4150005009588,新規,0,2024-05-08,2024-05-08,一般社団法人Ｒｅライブ,,その他の設立登記法人,奈良県,橿原市,十市町８７９番１,,29,205,6340008,,,,,,,2024-05-08,1,,,,,リライブ,0
1129,4180001161233,新規,0,2024-05-08,2024-05-08,株式会社Ｃｉｅｌ,,株式会社,愛知県,名古屋市北区,池花町２３８番地,,23,103,4620005,,,,,,,2024-05-08,1,,,,,シエル,0
1130,4180001161241,新規,0,2024-05-08,2024-05-08,株式会社ＬｉＢ,,株式会社,愛知県,名古屋市昭和区,広路町字北石坂１０２－５４八事グランドビル５Ｆ,,23,107,4660834,,,,,,,2024-05-08,1,,,,,リブ,0
1131,4180001161290,新規,0,2024-05-08,2024-05-08,Ｗ＆Ｍ株式会社,,株式会社,愛知県,岩倉市,曽野町郷前２０番地２,,23,228,4820003,,,,,,,2024-05-08,1,,,,,ダブルアンドエム,0
1136,4180301038619,新規,0,2024-05-08,2024-05-08,株式会社ＪＣＷ,,株式会社,愛知県,西尾市,上矢田町川原５４番地１,,23,213,4440313,,,,,,,2024-05-08,1,,,,,ジェイシーダブリュー,0
1137,4180301038627,新規,0,2024-05-08,2024-05-08,株式会社ティ・エイチ・エイ,,株式会社,愛知県,岡崎市,井田町字中屋敷４２番地２,,23,202,4440076,,,,,,,2024-05-08,1,,,,,ティエイチエイ,0
1138,4180303006111,新規,0,2024-05-08,2024-05-08,ＲＩＹＡＮＡ合同会社,,合同会社,愛知県,豊田市,元城町１丁目６９番地岐阜屋ビル１Ｆ,,23,211,4710024,,,,,,,2024-05-08,1,,,,,リヤナ,0
1140,4190001031328,新規,0,2024-05-08,2024-05-08,株式会社ＹＺＥＲＲ,,株式会社,三重県,四日市市,西新地１０番１９号,,24,202,5100087,,,,,,,2024-05-08,1,,,,,ワイザー,0
1143,4200001042471,新規,0,2024-05-08,2024-05-08,株式会社ＮＯＯＰＹ,,株式会社,岐阜県,岐阜市,柳津町丸野１丁目８６番地,,21,201,5016115,,,,,,,2024-05-08,1,,,,,ヌーピー,0
1146,4200003006334,新規,0,2024-05-08,2024-05-08,合同会社ライフサポートセカンド,,合同会社,岐阜県,高山市,石浦町７丁目６６３番地,,21,203,5060825,,,,,,,2024-05-08,1,,,,,ライフサポートセカンド,0
1149,4220001025986,新規,0,2024-05-08,2024-05-08,株式会社牛たんの檸檬,,株式会社,石川県,金沢市,森山１丁目２番１号２２３,,17,201,9200843,,,,,,,2024-05-08,1,,,,,ギュウタンノレモン,0
1150,4220001025994,新規,0,2024-05-08,2024-05-08,株式会社エンジニアリングＺＥＲＯ,,株式会社,石川県,白山市,小柳町ろ１１２番地１,,17,210,9202103,,,,,,,2024-05-08,1,,,,,エンジニアリングゼロ,0
1151,4220003003742,新規,0,2024-05-08,2024-05-08,合同会社ＶｏｌｔＥｄｇｅ　Ｌｅａｒｎｉｎｇ,,合同会社,石川県,かほく市,宇野気ヌ２４６番地５,,17,209,9291125,,,,,,,2024-05-08,1,,,,,ボルトエッジラーニング,0
1155,4230003002198,新規,0,2024-05-08,2024-05-08,合同会社野村屋,,合同会社,富山県,高岡市,戸出町５丁目３番９２号,,16,202,9391104,,,,,,,2024-05-08,1,,,,,ノムラヤ,0
1158,4240001063167,新規,0,2024-05-08,2024-05-08,株式会社赤澤建創,,株式会社,広島県,広島市佐伯区,屋代３丁目１６番３号,,34,108,7315146,,,,,,,2024-05-08,1,,,,,アカザワケンソウ,0
1164,4240003006652,新規,0,2024-05-08,2024-05-08,合同会社ワンステップ,,合同会社,広島県,安芸郡府中町,浜田２丁目１４－２０,,34,302,7350013,,,,,,,2024-05-08,1,,,,,ワンステップ,0
1168,4250003003483,新規,0,2024-05-08,2024-05-08,合同会社ファーストプロパティーズ,,合同会社,山口県,周南市,大字須々万本郷３６２－６０,,35,215,7450122,,,,,,,2024-05-08,1,,,,,ファーストプロパティーズ,0
1169,4260003004679,新規,0,2024-05-08,2024-05-08,合同会社隠居屋,,合同会社,岡山県,井原市,美星町三山４０５５,,33,207,7141406,,,,,,,2024-05-08,1,,,,,インキョヤ,0
1182,4290001105559,新規,0,2024-05-08,2024-05-08,株式会社Ｆ．Ｎ．Ｃ．Ｃ,,株式会社,福岡県,福岡市博多区,博多駅前２丁目２０番１号大博多ビル７Ｆ,,40,132,8120011,,,,,,,2024-05-08,1,,,,,エフエヌシーシー,0
1190,4290803004710,新規,0,2024-05-08,2024-05-08,合同会社ニューポイント不動産,,合同会社,福岡県,北九州市小倉北区,中島１丁目１１番１４号,,40,106,8020076,,,,,,,2024-05-08,1,,,,,ニューポイントフドウサン,0
1200,4320003004359,新規,0,2024-05-08,2024-05-08,Ｐｌａｎｔｓ　Ｎａｖｉｇａｔｏｒ合同会社,,合同会社,大分県,大分市,大字永興１３０７番地の６,,44,201,8700883,,,,,,,2024-05-08,1,,,,,プランツナビゲーター,0
1202,4330001032022,新規,0,2024-05-08,2024-05-08,株式会社サーストフォーナレッジ,,株式会社,熊本県,熊本市西区,春日３丁目１５番１７－１７０５号ＭＪＲ熊本タワー,,43,103,8600047,,,,,,,2024-05-08,1,,,,,サーストフォーナレッジ,0
1203,4330001032039,新規,0,2024-05-08,2024-05-08,株式会社ｅｃｌａｔ,,株式会社,熊本県,熊本市中央区,九品寺６丁目６番４７－８０６号,,43,101,8620976,,,,,,,2024-05-08,1,,,,,エクラ,0
1205,4330003010356,新規,0,2024-05-08,2024-05-08,合同会社山内ファーム,,合同会社,熊本県,宇城市,三角町郡浦３４４７番地９,,43,213,8693202,,,,,,,2024-05-08,1,,,,,ヤマウチファーム,0
1210,4340003004464,新規,0,2024-05-08,2024-05-08,ＭＭＫ合同会社,,合同会社,鹿児島県,日置市,吹上町中之里３５５０番地３,,46,216,8993302,,,,,,,2024-05-08,1,,,,,エムエムケー,0
1211,4340003004472,新規,0,2024-05-08,2024-05-08,合同会社琉,,合同会社,鹿児島県,鹿児島市,谷山中央７丁目１０番７号,,46,201,8910141,,,,,,,2024-05-08,1,,,,,リュウ,0
1213,4350001018944,新規,0,2024-05-08,2024-05-08,株式会社ＮＬＰ,,株式会社,宮崎県,都城市,高城町桜木６１０番地４,,45,202,8851204,,,,,,,2024-05-08,1,,,,,エヌエルピー,0
1216,4360001033604,新規,0,2024-05-08,2024-05-08,株式会社沖光電設,,株式会社,沖縄県,島尻郡八重瀬町,字東風平２４８番地１６,,47,362,9010401,,,,,,,2024-05-08,1,,,,,オキコウデンセツ,0
1217,4360003013959,新規,0,2024-05-08,2024-05-08,愛美しく輝きへの道合同会社,,合同会社,沖縄県,宜野湾市,大謝名１丁目２番２２号１Ｆ,,47,205,9012225,,,,,,,2024-05-08,1,,,,,アイウツクシクカガヤキヘノミチ,0
1219,4370001051258,新規,0,2024-05-08,2024-05-08,株式会社ＨＡＬリサーチ,,株式会社,宮城県,宮城郡利府町,飯土井字長者前２４－１５,,04,406,9810113,,,,,,,2024-05-08,1,,,,,ハルリサーチ,0
1220,4370001051266,新規,0,2024-05-08,2024-05-08,ＣＲＥＷ株式会社,,株式会社,宮城県,仙台市宮城野区,宮千代２丁目３－１１渡正ビル３０１号室,,04,102,9830044,,,,,,,2024-05-08,1,,,,,クルー,0
1224,4390005009069,新規,0,2024-05-08,2024-05-08,医療法人直心会さくらんぼ歯科クリニック,,その他の設立登記法人,山形県,寒河江市,元町４丁目１１番地２２,,06,206,9910053,,,,,,,2024-05-08,1,,,,,チョクシンカイサクランボシカクリニック,0
1228,4410001013823,新規,0,2024-05-08,2024-05-08,株式会社Ｓｍａｒｔ　Ｏｎｅ,,株式会社,秋田県,秋田市,中通２丁目２番３２号山二ビル７階,,05,201,0100001,,,,,,,2024-05-08,1,,,,,スマートワン,0
1231,4420001018714,新規,0,2024-05-08,2024-05-08,株式会社ソウマホーム,,株式会社,青森県,弘前市,大字松ケ枝４丁目７番地３,,02,202,0368042,,,,,,,2024-05-08,1,,,,,ソウマホーム,0
1239,4430001091702,新規,0,2024-05-08,2024-05-08,株式会社デルソーレニセコ,,株式会社,北海道,虻田郡ニセコ町,字曽我２８番地１９,,01,395,0481522,,,,,,,2024-05-08,1,,,,,デルソーレニセコ,0
1240,4430001091743,新規,0,2024-05-08,2024-05-08,ノースギア株式会社,,株式会社,北海道,札幌市北区,篠路町篠路４０５－１,,01,102,0028053,,,,,,,2024-05-08,1,,,,,ノースギア,0
1241,4430001091768,新規,0,2024-05-08,2024-05-08,ＬＩＦＩＸ株式会社,,株式会社,北海道,札幌市中央区,南十条西１２丁目１番４８号,,01,101,0640810,,,,,,,2024-05-08,1,,,,,リフィックス,0
1243,4430003016285,新規,0,2024-05-08,2024-05-08,合同会社ＲＡＹ,,合同会社,北海道,札幌市東区,北十八条東１９丁目２番２５－３０５号,,01,103,0650018,,,,,,,2024-05-08,1,,,,,レイ,0
1246,4450001014314,新規,0,2024-05-08,2024-05-08,Ｎｅｖｅｒ　Ｌａｎｄ　Ｒｉｓｈｉｒｉ株式会社,,株式会社,北海道,利尻郡利尻町,仙法志字政泊５８番地,,01,518,0970311,,,,,,,2024-05-08,1,,,,,ネバーランドリシリ,0
1248,4470001020178,新規,0,2024-05-08,2024-05-08,株式会社四代目松本商店,,株式会社,香川県,高松市,飯田町９９番地９,,37,201,7618033,,,,,,,2024-05-08,1,,,,,ヨンダイメマツモトショウテン,0
1251,4500001025611,新規,0,2024-05-08,2024-05-08,株式会社東予タカラ住設,,株式会社,愛媛県,西条市,丹原町長野１６９４番地２,,38,206,7910521,,,,,,,2024-05-08,1,,,,,トウヨタカラジュウセツ,0
1252,4500003003235,新規,0,2024-05-08,2024-05-08,合同会社プレシャスホーム,,合同会社,愛媛県,松山市,岩崎町２丁目１１－１２,,38,201,7900854,,,,,,,2024-05-08,1,,,,,プレシャスホーム,0
1253,4700150018370,新規,0,2024-05-08,2015-10-09,ひたちなか食品衛生協会,,その他,茨城県,ひたちなか市,新光町９５,,08,221,3120005,,,,,,,2015-10-09,1,,,,,ヒタチナカシヨクヒンエイセイキヨウカイ,0
1267,5010001244061,新規,0,2024-05-08,2024-05-08,株式会社ＴＲＹ不動産,,株式会社,東京都,千代田区,東神田３丁目２－８カトレア・ＢＬＤ,,13,101,1010031,,,,,,,2024-05-08,1,,,,,トライフドウサン,0
1268,5010001244598,新規,0,2024-05-08,2024-05-08,株式会社Ｍｅｔｈｏｄ３６０,,株式会社,東京都,千代田区,富士見１丁目３番１１号,,13,101,1020071,,,,,,,2024-05-08,1,,,,,メソッドサンロクマル,0
1269,5010001244623,新規,0,2024-05-08,2024-05-08,株式会社Ｋｅ‐ＷＡ　Ｃｏｒｐｏｒａｔｉｏｎ．,,株式会社,東京都,千代田区,丸の内１丁目１１番１号パシフィックセンチュリープレイス丸の内１３階,,13,101,1000005,,,,,,,2024-05-08,1,,,,,ケーワコーポレーション,0
1271,5010003043684,新規,0,2024-05-08,2024-05-08,エスティニジョウ合同会社,,合同会社,東京都,千代田区,丸の内３丁目１番１号東京共同会計事務所内,,13,101,1000005,,,,,,,2024-05-08,1,,,,,エスティニジョウ,0
1273,5010005038286,新規,0,2024-05-08,2024-05-08,一般社団法人茨城塙,,その他の設立登記法人,東京都,千代田区,永田町２丁目１１番１号山王パークタワー２１階,,13,101,1000014,,,,,,,2024-05-08,1,,,,,イバラキハナワ,0
1276,5010401182200,新規,0,2024-05-08,2024-05-08,ＣＬＳＡ　Ｃａｐｉｔａｌ　Ｐａｒｔｎｅｒｓ　Ｉｎｖｅｓｔｍｅｎｔ　Ｊａｐａｎ株式会社,,株式会社,東京都,港区,東新橋１丁目９番２号,,13,103,1050021,,,,,,,2024-05-08,1,,,,,シーエルエスエーキャピタルパートナーズインベストメントジャパン,0
1286,5010603010811,新規,0,2024-05-08,2024-05-08,合同会社モモキャピタル,,合同会社,東京都,江東区,豊洲５丁目２番１号,,13,108,1350061,,,,,,,2024-05-08,1,,,,,モモキャピタル,0
1292,5010803004943,新規,0,2024-05-08,2024-05-08,合同会社Ａｒｃｈ　Ｋ,,合同会社,東京都,大田区,池上６丁目１番６号ロハス八百吉４０２,,13,111,1460082,,,,,,,2024-05-08,1,,,,,アーチケイ,0
1305,5011001161775,新規,0,2024-05-08,2024-05-08,株式会社ｕｍ,,株式会社,東京都,渋谷区,大山町１７－１７パーセル大山町３０３,,13,113,1510065,,,,,,,2024-05-08,1,,,,,ウム,0
1307,5011003019088,新規,0,2024-05-08,2024-05-08,合同会社Ｓ＆Ｆ,,合同会社,東京都,渋谷区,道玄坂１丁目１０番８号渋谷道玄坂東急ビル２Ｆ－Ｃ,,13,113,1500043,,,,,,,2024-05-08,1,,,,,エスアンドエフ,0
1314,5011101107182,新規,0,2024-05-08,2024-05-08,楽川株式会社,,株式会社,東京都,新宿区,市谷薬王寺町１１番２－３２２号,,13,104,1620063,,,,,,,2024-05-08,1,,,,,ラクガワ,0
1315,5011101107199,新規,0,2024-05-08,2024-05-08,Ｙｔａｂｉ　Ｊａｐａｎ株式会社,,株式会社,東京都,新宿区,新宿５丁目１８番２０号ルックハイツ新宿８０３,,13,104,1600022,,,,,,,2024-05-08,1,,,,,ワイタビジャパン,0
1316,5011101107216,新規,0,2024-05-08,2024-05-08,株式会社ロマンワークス,,株式会社,東京都,新宿区,西新宿３丁目３番１３号,,13,104,1600023,,,,,,,2024-05-08,1,,,,,ロマンワークス,0
1319,5011301029623,新規,0,2024-05-08,2024-05-08,株式会社Ｓｅｌｆ,,株式会社,東京都,杉並区,方南１丁目２３番１号ＬａＰｅｒｌａＳａｓａｚｕｋａ３０２,,13,115,1680062,,,,,,,2024-05-08,1,,,,,セルフ,0
1321,5011401026074,新規,0,2024-05-08,2024-05-08,株式会社Ｖａｎｄｅｒｌｕｓｔ,,株式会社,東京都,板橋区,四葉２丁目２１番３１号ガレント新四葉Ｂ－２,,13,119,1750084,,,,,,,2024-05-08,1,,,,,ヴァンダーラスト,0
1322,5011403004375,新規,0,2024-05-08,2024-05-08,ラフタークリエイティブ合同会社,,合同会社,東京都,板橋区,成増３丁目４５番１２－１０１号,,13,119,1750094,,,,,,,2024-05-08,1,,,,,ラフタークリエイティブ,0
1326,5011601027731,新規,0,2024-05-08,2024-05-08,株式会社曄華社,,株式会社,東京都,練馬区,田柄４丁目４５番５号,,13,120,1790073,,,,,,,2024-05-08,1,,,,,ヨウカシャ,0
1328,5011603004340,新規,0,2024-05-08,2024-05-08,ＪＯＣ　Ｇｏｏｄｓ合同会社,,合同会社,東京都,練馬区,練馬１丁目２０番８号日建練馬ビル２Ｆ,,13,120,1760001,,,,,,,2024-05-08,1,,,,,ジェーオーシーグッズ,0
1334,5011701027243,新規,0,2024-05-08,2024-05-08,株式会社ユラナス,,株式会社,東京都,江戸川区,一之江８丁目４番３号,,13,123,1320024,,,,,,,2024-05-08,1,,,,,ユラナス,0
1338,5012301013897,新規,0,2024-05-08,2024-05-08,株式会社ＫＧＧ,,株式会社,東京都,町田市,相原町３１３５－９,,13,209,1940211,,,,,,,2024-05-08,1,,,,,ケージージー,0
1340,5012401041823,新規,0,2024-05-08,2024-05-08,株式会社ｃａｍｅｌｉａ,,株式会社,東京都,稲城市,矢野口８７３番地の１３,,13,225,2060812,,,,,,,2024-05-08,1,,,,,キャメリア,0
1341,5012403006543,新規,0,2024-05-08,2024-05-08,合同会社ａｂｏｃａｄｏ,,合同会社,東京都,三鷹市,中原２丁目１６番７号,,13,204,1810005,,,,,,,2024-05-08,1,,,,,,0
1351,5020001157072,新規,0,2024-05-08,2024-05-08,株式会社Ｓ．Ａ．Ｍ,,株式会社,神奈川県,川崎市幸区,幸町１丁目７４６番地７０２,,14,132,2120011,,,,,,,2024-05-08,1,,,,,エスエーエム,0
1352,5020001157080,新規,0,2024-05-08,2024-05-08,株式会社笑う門には,,株式会社,神奈川県,川崎市川崎区,駅前本町１１番地２川崎フロンティアビル４階,,14,131,2100007,,,,,,,2024-05-08,1,,,,,,0
1362,5021001082153,新規,0,2024-05-08,2024-05-08,バベル株式会社,,株式会社,神奈川県,茅ヶ崎市,浜竹３丁目７－４０,,14,207,2530021,,,,,,,2024-05-08,1,,,,,バベル,0
1363,5021001082161,新規,0,2024-05-08,2024-05-08,株式会社順天商事,,株式会社,神奈川県,厚木市,栄町１丁目１０番地１チサンマンション本厚木５０１,,14,212,2430017,,,,,,,2024-05-08,1,,,,,ジュンテンショウジ,0
1374,5021003014468,新規,0,2024-05-08,2024-05-08,厚木オート商会合同会社,,合同会社,神奈川県,厚木市,林３丁目５－３０川瀬１０３,,14,212,2430816,,,,,,,2024-05-08,1,,,,,アツギオートショウカイ,0
1389,5030001160166,新規,0,2024-05-08,2024-05-08,株式会社Ｎｅｗ　ａｒｅａ,,株式会社,埼玉県,さいたま市西区,プラザ２６番２号,,11,101,3310063,,,,,,,2024-05-08,1,,,,,ニューエリア,0
1390,5030001160182,新規,0,2024-05-08,2024-05-08,株式会社ｌｉｅｎｓｏｌｉｄｅ,,株式会社,埼玉県,所沢市,小手指元町３丁目２２番地の１４,,11,208,3591147,,,,,,,2024-05-08,1,,,,,リアンソリッド,0
1391,5030001160190,新規,0,2024-05-08,2024-05-08,株式会社ＢＬｉｓｓ　Ｙａｒｄ,,株式会社,埼玉県,川口市,大字前野宿２０４番地の４,,11,203,3340065,,,,,,,2024-05-08,1,,,,,ブリスヤード,0
1392,5030001160208,新規,0,2024-05-08,2024-05-08,株式会社トーイ,,株式会社,埼玉県,さいたま市南区,白幡４丁目２１番１０号,,11,108,3360022,,,,,,,2024-05-08,1,,,,,トーイ,0
1393,5030001160224,新規,0,2024-05-08,2024-05-08,株式会社ＡＬＹＢＵＮ　ＥＮＴＥＲＰＲＩＳＥ,,株式会社,埼玉県,草加市,新里町３７－２５,,11,221,3400031,,,,,,,2024-05-08,1,,,,,アリブンエンタープライズ,0
1401,5030003024220,新規,0,2024-05-08,2024-05-08,沖山商店合同会社,,合同会社,埼玉県,北葛飾郡杉戸町,高野台西４丁目２番地５プチメゾン１０４,,11,464,3450045,,,,,,,2024-05-08,1,,,,,オキヤマショウテン,0
1402,5030003024229,新規,0,2024-05-08,2024-05-08,ｌｅｇａｃｙ　ｏｆ　Ｄｒ．ｄａｔ合同会社,,合同会社,埼玉県,さいたま市南区,根岸３丁目２９番９号,,11,108,3360024,,,,,,,2024-05-08,1,,,,,レガシーオブドクターダット,0
1403,5030003024237,新規,0,2024-05-08,2024-05-08,合同会社スカイクルー,,合同会社,埼玉県,さいたま市桜区,田島３丁目２２番１－２０１号,,11,106,3380837,,,,,,,2024-05-08,1,,,,,スカイクルー,0
1404,5030003024245,新規,0,2024-05-08,2024-05-08,合同会社ＹＭＴ,,合同会社,埼玉県,川口市,並木２丁目４０番７－７０７号メインステージ川口ＷＥＳＴ,,11,203,3320034,,,,,,,2024-05-08,1,,,,,,0
1407,5040001133393,新規,0,2024-05-08,2024-05-08,株式会社ギャラップ,,株式会社,千葉県,柏市,新富町１丁目２番５９－１０３号,,12,217,2770856,,,,,,,2024-05-08,1,,,,,ギャラップ,0
1408,5040001133402,新規,0,2024-05-08,2024-05-08,株式会社ＷＡＯ,,株式会社,千葉県,木更津市,金田東４丁目５番地７,,12,206,2920009,,,,,,,2024-05-08,1,,,,,ワオ,0
1409,5040001133427,新規,0,2024-05-08,2024-05-08,ＮＢＣ株式会社,,株式会社,千葉県,浦安市,美浜１丁目９,,12,227,2790011,,,,,,,2024-05-08,1,,,,,エヌビーシー,0
1410,5040001133435,新規,0,2024-05-08,2024-05-08,株式会社ＴＥＣＨＮＯＦＬＥＸ,,株式会社,千葉県,佐倉市,中志津７丁目３７６番地２６,,12,212,2850843,,,,,,,2024-05-08,1,,,,,テクノフレックス,0
1412,5040003024905,新規,0,2024-05-08,2024-05-08,合同会社不二叡匠,,合同会社,千葉県,千葉市美浜区,中瀬１丁目３番地,,12,106,2610023,,,,,,,2024-05-08,1,,,,,フジエイショウ,0
1413,5040003024921,新規,0,2024-05-08,2024-05-08,合同会社アットワークネクスト,,合同会社,千葉県,千葉市若葉区,中野町１６９３番地１,,12,104,2650051,,,,,,,2024-05-08,1,,,,,アットワークネクスト,0
1415,5050001054713,新規,0,2024-05-08,2024-05-08,ＢＵＤＤＹ株式会社,,株式会社,茨城県,古河市,大堤１７番地１,,08,204,3060236,,,,,,,2024-05-08,1,,,,,バディー,0
1416,5050001054721,新規,0,2024-05-08,2024-05-08,株式会社鮎川工具製作所,,株式会社,茨城県,日立市,国分町３丁目１４番１１号,,08,202,3160035,,,,,,,2024-05-08,1,,,,,アユカワコウグセイサクショ,0
1420,5060001037031,新規,0,2024-05-08,2024-05-08,ｎａｎａｉＲｏ保険サービス株式会社,,株式会社,栃木県,足利市,上渋垂町２４２番地１,,09,202,3260335,,,,,,,2024-05-08,1,,,,,ナナイロホケンサービス,0
1423,5070001041701,新規,0,2024-05-08,2024-05-08,株式会社東橋貿易,,株式会社,群馬県,吾妻郡東吾妻町,大字岩井４９３番地５,,10,429,3770804,,,,,,,2024-05-08,1,,,,,アズマバシボウエキ,0
1424,5070001041726,新規,0,2024-05-08,2024-05-08,株式会社ＨａｇｉｗａＬａｎｄ,,株式会社,群馬県,前橋市,富士見町原之郷１５００番地４,,10,201,3710116,,,,,,,2024-05-08,1,,,,,ハギワランド,0
1426,5080101024720,新規,0,2024-05-08,2024-05-08,株式会社エスアンドエス,,株式会社,静岡県,伊東市,川奈１１８５番地の２７７,,22,208,4140044,,,,,,,2024-05-08,1,,,,,エスアンドエス,0
1427,5080103003053,新規,0,2024-05-08,2024-05-08,合同会社Ｖｉｔｔｙ,,合同会社,静岡県,富士市,松岡１８０５番地の３,,22,210,4160909,,,,,,,2024-05-08,1,,,,,ヴィッティー,0
1429,5100001037423,新規,0,2024-05-08,2024-05-08,ＦＤ株式会社,,株式会社,長野県,長野市,吉田４丁目１９番５号,,20,201,3810043,,,,,,,2024-05-08,1,,,,,エフディー,0
1444,5120001264610,新規,0,2024-05-08,2024-05-08,ＦＬＩＢＥＲ株式会社,,株式会社,大阪府,大阪市都島区,都島本通３丁目２４番６－２１１号,,27,102,5340021,,,,,,,2024-05-08,1,,,,,ファイバー,0
1445,5120001264643,新規,0,2024-05-08,2024-05-08,株式会社ＹＡＲＭ,,株式会社,大阪府,大阪市北区,梅田１丁目２番２号大阪駅前第２ビル１２－１２,,27,127,5300001,,,,,,,2024-05-08,1,,,,,ヤーム,0
1453,5120101069513,新規,0,2024-05-08,2024-05-08,株式会社Ｅｖｅｒｙｄａｙ,,株式会社,大阪府,松原市,天美南１丁目９７番地の２１,,27,217,5800033,,,,,,,2024-05-08,1,,,,,エブリデイ,0
1454,5120901049128,新規,0,2024-05-08,2024-05-08,はるか株式会社,,株式会社,大阪府,吹田市,円山町５０番６３号,,27,205,5640061,,,,,,,2024-05-08,1,,,,,ハルカ,0
1455,5120901049136,新規,0,2024-05-08,2024-05-08,株式会社Ａ２Ｚ,,株式会社,大阪府,吹田市,佐竹台１丁目５番１０号,,27,205,5650855,,,,,,,2024-05-08,1,,,,,エートゥーズィー,0
1457,5120903005161,新規,0,2024-05-08,2024-05-08,合同会社フォレスト開発,,合同会社,大阪府,豊中市,新千里東町２丁目５番２０－９１４号,,27,203,5600082,,,,,,,2024-05-08,1,,,,,フォレストカイハツ,0
1461,5122003002881,新規,0,2024-05-08,2024-05-08,合同会社ピクトデザイン,,合同会社,大阪府,四條畷市,蔀屋本町１番３号プレアール蔀屋本町４Ｂ,,27,229,5750042,,,,,,,2024-05-08,1,,,,,ピクトデザイン,0
1463,5130001076996,新規,0,2024-05-08,2024-05-08,株式会社松橋,,株式会社,京都府,京都市中京区,西ノ京中保町８１番地１ブランズ京都円町１０５,,26,104,6048461,,,,,,,2024-05-08,1,,,,,ショウキョウ,0
1464,5130001077004,新規,0,2024-05-08,2024-05-08,株式会社クローバー,,株式会社,京都府,京都市伏見区,深草直違橋北１丁目４７７番１８ファーストコート藤森２１１室,,26,109,6120869,,,,,,,2024-05-08,1,,,,,クローバー,0
1465,5130001077020,新規,0,2024-05-08,2024-05-08,株式会社プラタナスケア,,株式会社,京都府,京都市山科区,大塚檀ノ浦３９番地１アルシャムス檀ノ浦１０２,,26,110,6078124,,,,,,,2024-05-08,1,,,,,プラタナスケア,0
1466,5130003009517,新規,0,2024-05-08,2024-05-08,クローバー合同会社,,合同会社,京都府,京都市下京区,河原町通四条下る順風町３１１番地エスリード四条河原町７０２,,26,106,6008021,,,,,,,2024-05-08,1,,,,,クローバー,0
1467,5130003009533,新規,0,2024-05-08,2024-05-08,合同会社ＩＳオリオン,,合同会社,京都府,京都市左京区,岩倉三宅町１７３番地３,,26,103,6060022,,,,,,,2024-05-08,1,,,,,アイエスオリオン,0
1468,5130003009541,新規,0,2024-05-08,2024-05-08,合同会社ＵｎｄｅｒＷｏｏｄ,,合同会社,京都府,京都市下京区,七条通油小路東入大黒町２２７番地第２キョートビル４０２,,26,106,6008223,,,,,,,2024-05-08,1,,,,,アンダーウッド,0
1472,5140001134258,新規,0,2024-05-08,2024-05-08,しそうエナジー株式会社,,株式会社,兵庫県,宍粟市,一宮町安積字坪尻４３２番地１４,,28,227,6714131,,,,,,,2024-05-08,1,,,,,シソウエナジー,0
1473,5140001134308,新規,0,2024-05-08,2024-05-08,株式会社Ｓ．Ａ　Ｒａｉｓｅ,,株式会社,兵庫県,尼崎市,東園田町１丁目１０３番地エルーシアイーストＡ棟,,28,202,6610953,,,,,,,2024-05-08,1,,,,,エスエイレイズ,0
1476,5140003020530,新規,0,2024-05-08,2024-05-08,合同会社コンパス,,合同会社,兵庫県,たつの市,揖西町小神１２９番地９,,28,229,6794003,,,,,,,2024-05-08,1,,,,,コンパス,0
1477,5150001027254,新規,0,2024-05-08,2024-05-08,株式会社ＫＡＤＯ　ＥＳＴＡＴＥ,,株式会社,奈良県,奈良市,六条２丁目５－８,,29,201,6308043,,,,,,,2024-05-08,1,,,,,カドエステート,0
1478,5150001027270,新規,0,2024-05-08,2024-05-08,株式会社ホームマート,,株式会社,奈良県,北葛城郡広陵町,大字百済１７００番地１,,29,426,6350813,,,,,,,2024-05-08,1,,,,,ホームマート,0
1479,5150003003245,新規,0,2024-05-08,2024-05-08,ＮＡＰＳＹ合同会社,,合同会社,奈良県,大和高田市,三和町２番１８－９０８号,,29,202,6350014,,,,,,,2024-05-08,1,,,,,ナプシィ,0
1487,5180001161240,新規,0,2024-05-08,2024-05-08,株式会社ＹＲ,,株式会社,愛知県,海部郡大治町,大字三本木字屋形４番地７,,23,424,4901142,,,,,,,2024-05-08,1,,,,,ワイアール,0
1491,5180003026730,新規,0,2024-05-08,2024-05-08,Ａｇｕｅｎａ　Ｇｒｏｕｐ合同会社,,合同会社,愛知県,稲沢市,千代町東廻間９番地５８,,23,220,4928402,,,,,,,2024-05-08,1,,,,,アゲナグループ,0
1492,5180301038618,新規,0,2024-05-08,2024-05-08,株式会社ここは,,株式会社,愛知県,豊川市,御油町若宮３番地１１Ｂ棟,,23,207,4410211,,,,,,,2024-05-08,1,,,,,ココハ,0
1494,5180303006110,新規,0,2024-05-08,2024-05-08,合同会社リンク,,合同会社,愛知県,豊橋市,神野新田町字中洲５３番地,,23,201,4418077,,,,,,,2024-05-08,1,,,,,リンク,0
1495,5190001031327,新規,0,2024-05-08,2024-05-08,株式会社Ｌｉｇｈｔ　Ｂｌｕｅ,,株式会社,三重県,いなべ市,大安町高柳９５６,,24,214,5110272,,,,,,,2024-05-08,1,,,,,ライトブルー,0
1496,5190001031335,新規,0,2024-05-08,2024-05-08,株式会社ＨＳＴ,,株式会社,三重県,津市,高茶屋小森町１５５０番地グレースマンション２０１,,24,201,5140817,,,,,,,2024-05-08,1,,,,,エイチエスティー,0
1497,5190005011944,新規,0,2024-05-08,2024-05-08,農事組合法人下尾農家組合,,その他の設立登記法人,三重県,多気郡明和町,大字佐田４２９番地,,24,442,5150331,,,,,,,2024-05-08,1,,,,,シモオノウカグミアイ,0
1499,5200001042462,新規,0,2024-05-08,2024-05-08,株式会社しらやま,,株式会社,岐阜県,岐阜市,祈年町１丁目２２番地５,,21,201,5008156,,,,,,,2024-05-08,1,,,,,シラヤマ,0
1501,5210001019749,新規,0,2024-05-08,2024-05-08,株式会社フォレスタ,,株式会社,福井県,福井市,中央２丁目１－３１林マンション３０３,,18,201,9100006,,,,,,,2024-05-08,1,,,,,フォレスタ,0
1502,5210003001787,新規,0,2024-05-08,2024-05-08,合同会社クリーンスタッフ,,合同会社,福井県,坂井市,春江町大牧第１８号８５番地,,18,210,9190402,,,,,,,2024-05-08,1,,,,,クリーンスタッフ,0
1503,5220001025985,新規,0,2024-05-08,2024-05-08,株式会社包容力,,株式会社,石川県,金沢市,森山１丁目２番１号２２０,,17,201,9200843,,,,,,,2024-05-08,1,,,,,ホウヨウリョク,0
1504,5220003003741,新規,0,2024-05-08,2024-05-08,合同会社Ｎａｐｔｉｍｅ,,合同会社,石川県,金沢市,しじま台２丁目２３番地８,,17,201,9218132,,,,,,,2024-05-08,1,,,,,ナップタイム,0
1506,5240001063158,新規,0,2024-05-08,2024-05-08,株式会社ＴＯＢＵ,,株式会社,広島県,安芸郡熊野町,萩原９丁目５番３号,,34,307,7314213,,,,,,,2024-05-08,1,,,,,トブ,0
1507,5240001063190,新規,0,2024-05-08,2024-05-08,株式会社千年美容,,株式会社,広島県,広島市安佐南区,祇園６丁目１７番１６号,,34,105,7310138,,,,,,,2024-05-08,1,,,,,センネンビヨウ,0
1514,5260003004678,新規,0,2024-05-08,2024-05-08,合同会社ＴＩＳＫ,,合同会社,岡山県,倉敷市,新田２８５３番地７,,33,202,7100038,,,,,,,2024-05-08,1,,,,,ティーアイエスケイ,0
1520,5290001105574,新規,0,2024-05-08,2024-05-08,株式会社三国会,,株式会社,福岡県,福岡市東区,香椎照葉７丁目１３番３１号,,40,131,8130017,,,,,,,2024-05-08,1,,,,,サンコクカイ,0
1525,5290005019390,新規,0,2024-05-08,2024-05-08,一般社団法人神椿の杜,,その他の設立登記法人,福岡県,福岡市東区,箱崎１丁目２４番２２号,,40,131,8120053,,,,,,,2024-05-08,1,,,,,カムツバキノモリ,0
1529,5300001013726,新規,0,2024-05-08,2024-05-08,株式会社黒田電気工事,,株式会社,佐賀県,鳥栖市,桜町１４３０番地４,,41,203,8410014,,,,,,,2024-05-08,1,,,,,クロダデンキコウジ,0
1531,5310001018996,新規,0,2024-05-08,2024-05-08,ＨＡＮＡ工務店株式会社,,株式会社,長崎県,諫早市,多良見町木床１２６３番地５,,42,204,8590406,,,,,,,2024-05-08,1,,,,,ハナコウムテン,0
1532,5310001019004,新規,0,2024-05-08,2024-05-08,東園株式会社,,株式会社,長崎県,雲仙市,小浜町雲仙１８１番地,,42,213,8540621,,,,,,,2024-05-08,1,,,,,アズマエン,0
1533,5330001032046,新規,0,2024-05-08,2024-05-08,株式会社Ｈ＆Ｂ,,株式会社,熊本県,熊本市北区,梶尾町７７９番地６,,43,105,8615512,,,,,,,2024-05-08,1,,,,,エイチアンドビー,0
1534,5330001032054,新規,0,2024-05-08,2024-05-08,ＵＮＩＳＥＥＤ　ＴＥＣＨＮＯＬＯＧＹ株式会社,,株式会社,熊本県,熊本市中央区,花畑町１番１４号Ａ＆Ｍ・ＨＡＮＡＢＡＴＡ３０１号,,43,101,8600806,,,,,,,2024-05-08,1,,,,,ユニシードテクノロジー,0
1536,5330003010355,新規,0,2024-05-08,2024-05-08,合同会社村上電通,,合同会社,熊本県,八代市,本町４丁目１番８号（９０３）,,43,202,8660861,,,,,,,2024-05-08,1,,,,,ムラカミデンツウ,0
1537,5340001026476,新規,0,2024-05-08,2024-05-08,株式会社トモホーム,,株式会社,鹿児島県,大島郡伊仙町,大字崎原１１７６番地,,46,532,8918328,,,,,,,2024-05-08,1,,,,,トモホーム,0
1541,5350001018951,新規,0,2024-05-08,2024-05-08,株式会社Ａｏｉ住建,,株式会社,宮崎県,都城市,上長飯町１９８番地,,45,202,8850042,,,,,,,2024-05-08,1,,,,,アオイジュウケン,0
1544,5350003004636,新規,0,2024-05-08,2024-05-08,合同会社ＸＩＲＯ　ＧＲＯＵＰ,,合同会社,宮崎県,児湯郡川南町,大字川南１３４９４番地２１,,45,405,8891301,,,,,,,2024-05-08,1,,,,,シログループ,0
1548,5360001033520,新規,0,2024-05-08,2024-05-08,株式会社トランフリゾート沖縄,,株式会社,沖縄県,那覇市,金城４丁目１－１レジデンスタカラ２Ｆ,,47,201,9010155,,,,,,,2024-05-08,1,,,,,トランフリゾートオキナワ,0
1549,5360001033611,新規,0,2024-05-08,2024-05-08,アメリカンプロジェクト株式会社,,株式会社,沖縄県,宮古島市,平良字西里１０１６番地１レジデンス石川１０１号室,,47,214,9060012,,,,,,,2024-05-08,1,,,,,アメリカンプロジェクト,0
1550,5360003013958,新規,0,2024-05-08,2024-05-08,合同会社醇,,合同会社,沖縄県,沖縄市,登川２丁目７番３号,,47,211,9042142,,,,,,,2024-05-08,1,,,,,ジュン,0
1553,5370001051257,新規,0,2024-05-08,2024-05-08,株式会社ＡＲＡＹＡ,,株式会社,宮城県,仙台市宮城野区,中野１丁目９番地の６,,04,102,9830013,,,,,,,2024-05-08,1,,,,,アラヤ,0
1554,5370005010779,新規,0,2024-05-08,2024-05-08,土地家屋調査士法人澤田事務所,,その他の設立登記法人,宮城県,仙台市宮城野区,原町１丁目２番４１号,,04,102,9830841,,,,,,,2024-05-08,1,,,,,サワダジムショ,0
1557,5380001034500,新規,0,2024-05-08,2024-05-08,株式会社ピジョン,,株式会社,福島県,いわき市,四倉町上仁井田字東山１３４－２,,07,204,9790202,,,,,,,2024-05-08,1,,,,,ピジョン,0
1558,5380001034509,新規,0,2024-05-08,2024-05-08,株式会社叢暉,,株式会社,福島県,郡山市,安積荒井２丁目１１０番地,,07,203,9630117,,,,,,,2024-05-08,1,,,,,ソウキ,0
1559,5380001034517,新規,0,2024-05-08,2024-05-08,株式会社ＴＫテクノ川崎,,株式会社,福島県,二本松市,小沢字馬場１４５番地,,07,210,9691513,,,,,,,2024-05-08,1,,,,,ティーケイテクノカワサキ,0
1566,5420001018713,新規,0,2024-05-08,2024-05-08,株式会社加藤商事,,株式会社,青森県,黒石市,大字高舘字乙里見３５番地１,00134640,02,204,0360535,,,,,,,2024-05-08,1,,,,,カトウショウジ,0
1572,5430001091718,新規,0,2024-05-08,2024-05-08,ＵＮＩＴＥ株式会社,,株式会社,北海道,札幌市中央区,北三条西２７丁目１番７－９０２号,,01,101,0640823,,,,,,,2024-05-08,1,,,,,ユナイト,0
1576,5430003016301,新規,0,2024-05-08,2024-05-08,ＳＬ　ＳＴＯＲＥ合同会社,,合同会社,北海道,札幌市東区,北六条東６丁目１番地５サーム北６条１１０８号,,01,103,0600906,,,,,,,2024-05-08,1,,,,,エスエルストア,0
1583,5500001025593,新規,0,2024-05-08,2024-05-08,株式会社やまと,,株式会社,愛媛県,四国中央市,金田町半田甲１９７－２,,38,213,7990122,,,,,,,2024-05-08,1,,,,,,0
1584,5500001025610,新規,0,2024-05-08,2024-05-08,株式会社オオノ産業,,株式会社,愛媛県,宇和島市,錦町１番２０号,,38,203,7980034,,,,,,,2024-05-08,1,,,,,オオノサンギョウ,0
1590,6010001244564,新規,0,2024-05-08,2024-05-08,株式会社Ａ．Ｉ．Ｐ．,,株式会社,東京都,中央区,銀座１丁目１３番１２銀友ビル８階,,13,102,1040061,,,,,,,2024-05-08,1,,,,,エードットアイドットピードット,0
1591,6010001244580,新規,0,2024-05-08,2024-05-08,株式会社ＬｉｎＸ,,株式会社,東京都,中央区,勝どき５丁目３－１勝どきザタワー２７２０,,13,102,1040054,,,,,,,2024-05-08,1,,,,,リンクス,0
1592,6010001244589,新規,0,2024-05-08,2024-05-08,株式会社ＣＳＴ,,株式会社,東京都,千代田区,西神田２丁目７番６号,,13,101,1010065,,,,,,,2024-05-08,1,,,,,シーエスティー,0
1596,6010005038277,新規,0,2024-05-08,2024-05-08,一般社団法人幹部創英会,,その他の設立登記法人,東京都,千代田区,丸の内２丁目１番１号,,13,101,1000005,,,,,,,2024-05-08,1,,,,,カンブソウエイカイ,0
1599,6010405023176,新規,0,2024-05-08,2024-05-08,Ｌキャタルトン・ジャパン・ファンド一般社団法人,,その他の設立登記法人,東京都,港区,六本木１丁目９番１０号アークヒルズ仙石山森タワー４０階,,13,103,1060032,,,,,,,2024-05-08,1,,,,,エルキャタルトンジャパンファンド,0
1603,6010501052211,新規,0,2024-05-08,2024-05-08,ＴＥＲＲＡ株式会社,,株式会社,東京都,台東区,千束２丁目１番２号ブランシュ・ツカタニ４０１,,13,106,1110031,,,,,,,2024-05-08,1,,,,,テラ,0
1607,6010603010819,新規,0,2024-05-08,2024-05-08,ＮＥＸＴ合同会社,,合同会社,東京都,墨田区,江東橋３丁目１１番３号日産ビル３階,,13,107,1300022,,,,,,,2024-05-08,1,,,,,ネクスト,0
1610,6010701045923,新規,0,2024-05-08,2024-05-08,株式会社ＴＯＭＯＲＵ,,株式会社,東京都,品川区,東五反田１丁目１８番５－２０１号,,13,109,1410022,,,,,,,2024-05-08,1,,,,,トモル,0
1613,6010803004942,新規,0,2024-05-08,2024-05-08,加倉井企画合同会社,,合同会社,東京都,大田区,鵜の木１丁目１５番２１号,,13,111,1460091,,,,,,,2024-05-08,1,,,,,カクライキカク,0
1615,6010901055193,新規,0,2024-05-08,2024-05-08,川口グループ株式会社,,株式会社,東京都,世田谷区,玉川台１丁目１２－５－２０１,,13,112,1580096,,,,,,,2024-05-08,1,,,,,カワグチグループ,0
1616,6010901055219,新規,0,2024-05-08,2024-05-08,株式会社ヴェルクス・スタジオ,,株式会社,東京都,世田谷区,砧７丁目１８番３５号,,13,112,1570073,,,,,,,2024-05-08,1,,,,,ヴェルクススタジオ,0
1628,6011001161618,新規,0,2024-05-08,2024-05-08,ＳｌｉｄｅＰｌｕｓ株式会社,,株式会社,東京都,渋谷区,渋谷２丁目１９－１５宮益坂ビルディング６０９,,13,113,1500002,,,,,,,2024-05-08,1,,,,,スライドプラス,0
1629,6011001161725,新規,0,2024-05-08,2024-05-08,株式会社ジョセイノミカタ,,株式会社,東京都,渋谷区,神宮前６丁目１０－９原宿董友ビル４階,,13,113,1500001,,,,,,,2024-05-08,1,,,,,ジョセイノミカタ,0
1630,6011001161766,新規,0,2024-05-08,2024-05-08,株式会社ｓｉｂｒｉｄｇｅ,,株式会社,東京都,渋谷区,渋谷２丁目１１番１号ストラテジックタワービル１Ｆ,,13,113,1500002,,,,,,,2024-05-08,1,,,,,シブリッジ,0
1634,6011003019087,新規,0,2024-05-08,2024-05-08,ＫＥＮＮＹ合同会社,,合同会社,東京都,目黒区,上目黒３丁目３６番７－２１０号,,13,110,1530051,,,,,,,2024-05-08,1,,,,,ケニー,0
1639,6011101107181,新規,0,2024-05-08,2024-05-08,えんパワーズ株式会社,,株式会社,東京都,新宿区,下落合２丁目６番１４号,,13,104,1610033,,,,,,,2024-05-08,1,,,,,エンパワーズ,0
1640,6011103014392,新規,0,2024-05-08,2024-05-08,ＧＬＵＣＫ合同会社,,合同会社,東京都,新宿区,余丁町１３－１０－３０３,,13,104,1620055,,,,,,,2024-05-08,1,,,,,グルック,0
1641,6011201025449,新規,0,2024-05-08,2024-05-08,Ａ＆Ｍプロジェクト株式会社,,株式会社,東京都,中野区,東中野３丁目１９番１２－５０２号,,13,114,1640003,,,,,,,2024-05-08,1,,,,,エーアンドエムプロジェクト,0
1644,6011203004351,新規,0,2024-05-08,2024-05-08,合同会社ｒｅｎａｉｔｒｅ,,合同会社,東京都,中野区,本町１丁目１８－１１－２０２栄ハイツ,,13,114,1640012,,,,,,,2024-05-08,1,,,,,ルネット,0
1645,6011203004376,新規,0,2024-05-08,2024-05-08,合同会社Ｔｈｅ　Ｏｔｈｅｒｓ,,合同会社,東京都,中野区,南台４丁目１６番１４号,,13,114,1640014,,,,,,,2024-05-08,1,,,,,ジアザース,0
1646,6011303005142,新規,0,2024-05-08,2024-05-08,Ｇｅｎｔｌｅ　Ｓｅｃｕｒｉｔｙ合同会社,,合同会社,東京都,杉並区,高円寺南１丁目６番２４号角岡荘２０５号室,,13,115,1660003,,,,,,,2024-05-08,1,,,,,ジェントルセキュリティ,0
1651,6011601027730,新規,0,2024-05-08,2024-05-08,豊栄国際貿易株式会社,,株式会社,東京都,練馬区,旭町１丁目８番１号－４１０,,13,120,1790071,,,,,,,2024-05-08,1,,,,,トヨエイコクサイボウエキ,0
1653,6011603004307,新規,0,2024-05-08,2024-05-08,合同会社ｍｏｌｄ,,合同会社,東京都,練馬区,貫井３丁目３６番５号ベル・フルール３０１,,13,120,1760021,,,,,,,2024-05-08,1,,,,,モールド,0
1655,6011701027234,新規,0,2024-05-08,2024-05-08,吉宇興業株式会社,,株式会社,東京都,江戸川区,北小岩５丁目８番７号,,13,123,1330051,,,,,,,2024-05-08,1,,,,,ヨシウコウギョウ,0
1656,6011703003811,新規,0,2024-05-08,2024-05-08,合同会社ガーファ,,合同会社,東京都,江戸川区,松江６丁目２－３－３０７,,13,123,1320025,,,,,,,2024-05-08,1,,,,,ガーファ,0
1657,6012301013896,新規,0,2024-05-08,2024-05-08,スマイルこもんず株式会社,,株式会社,東京都,町田市,つくし野３丁目４－８,,13,209,1940001,,,,,,,2024-05-08,1,,,,,スマイルコモンズ,0
1659,6012401041830,新規,0,2024-05-08,2024-05-08,株式会社ひとのね,,株式会社,東京都,武蔵野市,吉祥寺北町１丁目２６番１８号,,13,203,1800001,,,,,,,2024-05-08,1,,,,,ヒトノネ,0
1660,6012401041839,新規,0,2024-05-08,2024-05-08,株式会社葬儀の花央,,株式会社,東京都,府中市,北山町１丁目３－３,,13,206,1830041,,,,,,,2024-05-08,1,,,,,ソウギノハナヒロ,0
1666,6013305003594,新規,0,2024-05-08,2024-05-08,一般社団法人ＤＦＣ　Ｊａｐａｎ,,その他の設立登記法人,東京都,豊島区,長崎５丁目２８番２号,,13,116,1710051,,,,,,,2024-05-08,1,,,,,ディーエフシージャパン,0
1690,6021001082144,新規,0,2024-05-08,2024-05-08,株式会社湘南ＤＥＬＩ,,株式会社,神奈川県,藤沢市,片瀬山５丁目２９番１７号,,14,205,2510033,,,,,,,2024-05-08,1,,,,,ショウナンデリ,0
1695,6021003014475,新規,0,2024-05-08,2024-05-08,合同会社ｙａｓｕｄａ,,合同会社,神奈川県,鎌倉市,笛田２丁目３番４５号,,14,204,2480027,,,,,,,2024-05-08,1,,,,,ヤスダ,0
1710,6030001160132,新規,0,2024-05-08,2024-05-08,株式会社Ｓｐｒｏｉｒｅ,,株式会社,埼玉県,春日部市,大畑９番地日神パレステージ武里３０７,,11,214,3440022,,,,,,,2024-05-08,1,,,,,スプロイア,0
1711,6030001160165,新規,0,2024-05-08,2024-05-08,株式会社ＵＰＤＡＴＩＮＧ,,株式会社,埼玉県,川越市,松江町１丁目１７番地２,,11,201,3500056,,,,,,,2024-05-08,1,,,,,アップデーティング,0
1712,6030001160181,新規,0,2024-05-08,2024-05-08,株式会社巧建設,,株式会社,埼玉県,上尾市,日の出１丁目１番２２号,,11,219,3620032,,,,,,,2024-05-08,1,,,,,タクミケンセツ,0
1713,6030001160207,新規,0,2024-05-08,2024-05-08,株式会社蓮将,,株式会社,埼玉県,富士見市,大字上南畑１４番地１１,,11,235,3540002,,,,,,,2024-05-08,1,,,,,レンショウ,0
1714,6030001160215,新規,0,2024-05-08,2024-05-08,ＬＡＵＧＨ株式会社,,株式会社,埼玉県,さいたま市浦和区,北浦和３丁目２番４号コズミビル５０２,,11,107,3300074,,,,,,,2024-05-08,1,,,,,ラフ,0
1715,6030001160231,新規,0,2024-05-08,2024-05-08,セキガワロジスティクス株式会社,,株式会社,埼玉県,川口市,元郷３丁目１２番９－１号,,11,203,3320011,,,,,,,2024-05-08,1,,,,,セキガワロジスティクス,0
1719,6030003024228,新規,0,2024-05-08,2024-05-08,シンプルテック合同会社,,合同会社,埼玉県,所沢市,中新井５丁目１０番１０号,,11,208,3590041,,,,,,,2024-05-08,1,,,,,シンプルテック,0
1720,6030003024236,新規,0,2024-05-08,2024-05-08,ＷＡＴＥＲＦＡＬＬ　ＩＳＬＡＮＤ合同会社,,合同会社,埼玉県,蕨市,北町４丁目９番８号ライオンズマンション蕨１０２号,,11,223,3350001,,,,,,,2024-05-08,1,,,,,ウォーターフォールアイランド,0
1724,6040001133442,新規,0,2024-05-08,2024-05-08,株式会社Ｍｓフィールド,,株式会社,千葉県,船橋市,東中山１丁目２４番２号,,12,204,2730036,,,,,,,2024-05-08,1,,,,,エムズフィールド,0
1728,6040005022385,新規,0,2024-05-08,2024-05-08,医療法人社団鳳雲会,,その他の設立登記法人,千葉県,館山市,上真倉３４４番地１,,12,205,2940038,,,,,,,2024-05-08,1,,,,,ホウウンカイ,0
1731,6050003008328,新規,0,2024-05-08,2024-05-08,合同会社Ｈａｌｅｌｅａ,,合同会社,茨城県,神栖市,下幡木７４６番地１８,,08,232,3140131,,,,,,,2024-05-08,1,,,,,ハレレア,0
1732,6050003008352,新規,0,2024-05-08,2024-05-08,合同会社ＧＦＳ,,合同会社,茨城県,水戸市,堀町１１２１番地の３,,08,201,3100903,,,,,,,2024-05-08,1,,,,,ジーエフエス,0
1734,6070001041709,新規,0,2024-05-08,2024-05-08,株式会社ＬｅＡｐ,,株式会社,群馬県,前橋市,富士見町時沢７４７番地１０,,10,201,3710104,,,,,,,2024-05-08,1,,,,,リープ,0
1735,6070005010271,新規,0,2024-05-08,2024-05-08,司法書士法人ＫＴＧ,,その他の設立登記法人,群馬県,高崎市,東町１７２番地１６共済会館ビル３階１号,,10,202,3700045,,,,,,,2024-05-08,1,,,,,ケイテイージー,0
1736,6080001026287,新規,0,2024-05-08,2024-05-08,つきみ株式会社,,株式会社,静岡県,静岡市清水区,有東坂２丁目１５－１グランドヒルズ有東坂１０３,,22,103,4240873,,,,,,,2024-05-08,1,,,,,ツキミ,0
1743,6080103003052,新規,0,2024-05-08,2024-05-08,望月造園合同会社,,合同会社,静岡県,富士市,松岡７７３番地の５,,22,210,4160909,,,,,,,2024-05-08,1,,,,,モチヅキゾウエン,0
1770,6120001264626,新規,0,2024-05-08,2024-05-08,＿盛株式会社,00134643,株式会社,大阪府,大阪市東住吉区,今川８丁目５－３４常磐ビル２０３,,27,121,5460003,,,,,,,2024-05-08,1,,,,,シンショウ,0
1771,6120001264667,新規,0,2024-05-08,2024-05-08,株式会社団野ソフトウェア,,株式会社,大阪府,大阪市北区,梅田１丁目２番２号大阪駅前第２ビル１２－１２,,27,127,5300001,,,,,,,2024-05-08,1,,,,,ダンノソフトウェア,0
1772,6120001264700,新規,0,2024-05-08,2024-05-08,ユニフォ株式会社,,株式会社,大阪府,大阪市淀川区,西宮原２丁目２－２,,27,123,5320004,,,,,,,2024-05-08,1,,,,,ユニフォ,0
1773,6120003026529,新規,0,2024-05-08,2024-05-08,合同会社アーキザウルス,,合同会社,大阪府,大阪市大正区,三軒家西１丁目１３番９号,,27,108,5510001,,,,,,,2024-05-08,1,,,,,アーキザウルス,0
1774,6120103005812,新規,0,2024-05-08,2024-05-08,合同会社ＳＰＬａｎｎｉｎｇ,,合同会社,大阪府,堺市中区,新家町７５９番地５,,27,142,5998232,,,,,,,2024-05-08,1,,,,,エスプランニング,0
1775,6120901049135,新規,0,2024-05-08,2024-05-08,株式会社エインジ,,株式会社,大阪府,豊中市,桜の町４丁目１１番１８号,,27,203,5600054,,,,,,,2024-05-08,1,,,,,エインジ,0
1776,6120903005160,新規,0,2024-05-08,2024-05-08,合同会社ｔａｂ,,合同会社,大阪府,箕面市,森町南１丁目１７番１９号,,27,220,5630258,,,,,,,2024-05-08,1,,,,,タブ,0
1778,6122001038076,新規,0,2024-05-08,2024-05-08,株式会社ＹＪ　ＣＯＭＰＡＮＹ,,株式会社,大阪府,東大阪市,足代１丁目１８番７号,,27,227,5770841,,,,,,,2024-05-08,1,,,,,ワイジェイカンパニー,0
1779,6122003002880,新規,0,2024-05-08,2024-05-08,合同会社ＡＬＬ　ＦＲＩＥＮＤＳ,,合同会社,大阪府,八尾市,植松町６丁目４番１７号,,27,212,5810084,,,,,,,2024-05-08,1,,,,,オールフレンズ,0
1784,6130001076970,新規,0,2024-05-08,2024-05-08,ＢＬＩＮＤＥＲＳ株式会社,,株式会社,京都府,京丹後市,網野町網野８７８番地の２,,26,212,6293101,,,,,,,2024-05-08,1,,,,,ブラインダーズ,0
1786,6130005017087,新規,0,2024-05-08,2024-05-08,一般財団法人人権問題等調査会,,その他の設立登記法人,京都府,長岡京市,今里５丁目１３番１１号,,26,209,6170814,,,,,,,2024-05-08,1,,,,,ジンケンモンダイトウチョウサカイ,0
1792,6140001134281,新規,0,2024-05-08,2024-05-08,株式会社ＳｔａｒＤｏｇｓ,,株式会社,兵庫県,神戸市兵庫区,兵庫町１丁目１番２１号,,28,105,6520813,,,,,,,2024-05-08,1,,,,,スタードッグス,0
1793,6140001134298,新規,0,2024-05-08,2024-05-08,株式会社マリン＆モア,,株式会社,兵庫県,神戸市灘区,桜ヶ丘町１５番５５－１０２１号,,28,102,6570021,,,,,,,2024-05-08,1,,,,,マリンアンドモア,0
1794,6140001134323,新規,0,2024-05-08,2024-05-08,株式会社ＩＳＳ,,株式会社,兵庫県,西宮市,東鳴尾町１丁目１０番２１－２号,,28,204,6638132,,,,,,,2024-05-08,1,,,,,アイエスエス,0
1806,6180001161215,新規,0,2024-05-08,2024-05-08,株式会社Ｌ‐Ｓｈａｒｅ,,株式会社,愛知県,日進市,岩崎町竹ノ山１４９番地３１３,,23,230,4700131,,,,,,,2024-05-08,1,,,,,エルシェア,0
1807,6180001161223,新規,0,2024-05-08,2024-05-08,株式会社チュキプラス,,株式会社,愛知県,名古屋市中村区,岩塚町２丁目２１番地の１,,23,105,4530862,,,,,,,2024-05-08,1,,,,,チュキプラス,0
1808,6180001161248,新規,0,2024-05-08,2024-05-08,株式会社インパクト,,株式会社,愛知県,一宮市,千秋町加茂字海戸１４番地１,,23,203,4910801,,,,,,,2024-05-08,1,,,,,インパクト,0
1809,6180001161264,新規,0,2024-05-08,2024-05-08,Ｇｒａｖｉｔｙ株式会社,,株式会社,愛知県,丹羽郡扶桑町,大字山那字宮東８４番地,,23,362,4800101,,,,,,,2024-05-08,1,,,,,グラビティ,0
1810,6180001161306,新規,0,2024-05-08,2024-05-08,株式会社Ａｐｏｓｔｕｒｅ,,株式会社,愛知県,名古屋市中村区,亀島２丁目３１番２１号エステムプラザ名古屋ＵＸ４０２号,,23,105,4530013,,,,,,,2024-05-08,1,,,,,エイポスチュア,0
1816,6180301038625,新規,0,2024-05-08,2024-05-08,オオバホールディングス株式会社,,株式会社,愛知県,新城市,字沖野２０番地２８,,23,221,4411364,,,,,,,2024-05-08,1,,,,,オオバホールディングス,0
1818,6190001031326,新規,0,2024-05-08,2024-05-08,株式会社かりん,,株式会社,三重県,多気郡大台町,栃原１５２９番地１,,24,443,5192424,,,,,,,2024-05-08,1,,,,,カリン,0
1819,6190003004676,新規,0,2024-05-08,2024-05-08,合同会社ＥＳＰＡＣＥ,,合同会社,三重県,津市,白山町二本木３２７８番地,,24,201,5152602,,,,,,,2024-05-08,1,,,,,エスパス,0
1822,6200001042486,新規,0,2024-05-08,2024-05-08,株式会社東海建床,,株式会社,岐阜県,各務原市,川島松倉町２２３９番地２１,,21,213,5016022,,,,,,,2024-05-08,1,,,,,トウカイケンショウ,0
1824,6210003001786,新規,0,2024-05-08,2024-05-08,エイチスリー合同会社,,合同会社,福井県,福井市,大手２丁目１５番１３号クリアビル,,18,201,9100005,,,,,,,2024-05-08,1,,,,,エイチスリー,0
1828,6220001025984,新規,0,2024-05-08,2024-05-08,株式会社ｔｏｉｒｏ,,株式会社,石川県,白山市,新田町２１４番地８,,17,210,9240015,,,,,,,2024-05-08,1,,,,,トイロ,0
1829,6220001025992,新規,0,2024-05-08,2024-05-08,株式会社オフィスたけやち,,株式会社,石川県,野々市市,新庄４丁目１２３番地,,17,212,9218824,,,,,,,2024-05-08,1,,,,,オフィスタケヤチ,0
1831,6220005008845,新規,0,2024-05-08,2024-05-08,医療法人社団蒼晴会,,その他の設立登記法人,石川県,かほく市,高松ム７７番地１５,,17,209,9291215,,,,,,,2024-05-08,1,,,,,アオハカイ,0
1839,6260001039023,新規,0,2024-05-08,2024-05-08,株式会社コンケンホールディングス,,株式会社,岡山県,岡山市南区,浦安本町１３３番地２,,33,104,7028026,,,,,,,2024-05-08,1,,,,,コンケンホールディングス,0
1840,6260001039031,新規,0,2024-05-08,2024-05-08,株式会社マルクサぶどう販売,,株式会社,岡山県,岡山市東区,草ケ部７７８番地１,,33,103,7090635,,,,,,,2024-05-08,1,,,,,マルクサブドウハンバイ,0
1842,6260003004677,新規,0,2024-05-08,2024-05-08,Ｐ＆Ｐ　Ｌａｂ合同会社,,合同会社,岡山県,岡山市北区,学南町３丁目６－３３サーパス学南町６０２,,33,101,7000011,,,,,,,2024-05-08,1,,,,,ピーアンドピーラボ,0
1850,6300001013717,新規,0,2024-05-08,2024-05-08,株式会社漆陶屋,,株式会社,佐賀県,多久市,多久町６８２番地３,,41,204,8460031,,,,,,,2024-05-08,1,,,,,シットウヤ,0
1853,6310001018995,新規,0,2024-05-08,2024-05-08,株式会社Ｋ＆Ｆ,,株式会社,長崎県,佐世保市,横尾町３９６番地１,,42,202,8570018,,,,,,,2024-05-08,1,,,,,ケイアンドエフ,0
1855,6310003004787,新規,0,2024-05-08,2024-05-08,合同会社栄美,,合同会社,長崎県,西彼杵郡長与町,本川内郷１５７７番地９,,42,307,8512122,,,,,,,2024-05-08,1,,,,,エイビ,0
1857,6320001020447,新規,0,2024-05-08,2024-05-08,株式会社ネットディフェンス大分,,株式会社,大分県,大分市,大字片島４４０番地の２大分電気工事会館３階,,44,201,8700943,,,,,,,2024-05-08,1,,,,,ネットディフェンスオオイタ,0
1858,6320003004357,新規,0,2024-05-08,2024-05-08,合同会社ＦＫ,,合同会社,大分県,大分市,碩田町１丁目１番２７号大串ビル２Ｆ,,44,201,8700048,,,,,,,2024-05-08,1,,,,,エフケー,0
1861,6330001032012,新規,0,2024-05-08,2024-05-08,株式会社ｔａｔｏ,,株式会社,熊本県,熊本市中央区,出水４丁目１４番２３号ミッドタウン出水Ｇ号室,,43,101,8620941,,,,,,,2024-05-08,1,,,,,タト,0
1862,6330001032029,新規,0,2024-05-08,2024-05-08,株式会社コーケン,,株式会社,熊本県,熊本市東区,秋津２丁目５番３号,,43,102,8612104,,,,,,,2024-05-08,1,,,,,コーケン,0
1863,6330001032053,新規,0,2024-05-08,2024-05-08,株式会社民本養蜂園,,株式会社,熊本県,天草市,枦宇土町２２３１番地２,,43,215,8630045,,,,,,,2024-05-08,1,,,,,タミモトヨウホウエン,0
1866,6330003010362,新規,0,2024-05-08,2024-05-08,万国合同会社,,合同会社,熊本県,熊本市中央区,神水１丁目６番１－１０２号室,,43,101,8620954,,,,,,,2024-05-08,1,,,,,バンコク,0
1869,6350001018950,新規,0,2024-05-08,2024-05-08,理系漫画制作室株式会社,,株式会社,宮崎県,西都市,妻町１丁目３８番地,,45,208,8810034,,,,,,,2024-05-08,1,,,,,リケイマンガセイサクシツ,0
1870,6350003004635,新規,0,2024-05-08,2024-05-08,合同会社トライストーンズ,,合同会社,宮崎県,串間市,大字南方４５５９番地の１２,,45,207,8880007,,,,,,,2024-05-08,1,,,,,トライストーンズ,0
1872,6360001033593,新規,0,2024-05-08,2024-05-08,Ｋ３株式会社,,株式会社,沖縄県,石垣市,字登野城５５６番地１カナン登野城２０５,,47,207,9070004,,,,,,,2024-05-08,1,,,,,ケースリー,0
1873,6360003013949,新規,0,2024-05-08,2024-05-08,ネクストアライ合同会社,,合同会社,沖縄県,中頭郡北谷町,伊平１丁目１３番１４号プレミスト北谷伊平Ｓｅａ＆Ｆｏｒｅｓｔ３０４,,47,326,9040102,,,,,,,2024-05-08,1,,,,,ネクストアライ,0
1874,6360003013957,新規,0,2024-05-08,2024-05-08,合同会社ひかり,,合同会社,沖縄県,那覇市,宇栄原２丁目１８番１４号,,47,201,9010153,,,,,,,2024-05-08,1,,,,,ヒカリ,0
1876,6370003006596,新規,0,2024-05-08,2024-05-08,合同会社オフィス武藤,,合同会社,宮城県,仙台市若林区,遠見塚２丁目３３番１２号,,04,103,9840823,,,,,,,2024-05-08,1,,,,,オフィスムトウ,0
1878,6380001034499,新規,0,2024-05-08,2024-05-08,株式会社ポニータ,,株式会社,福島県,いわき市,四倉町上仁井田字東山１３４－２,,07,204,9790202,,,,,,,2024-05-08,1,,,,,ポニータ,0
1879,6380001034508,新規,0,2024-05-08,2024-05-08,株式会社Ａスタイル,,株式会社,福島県,郡山市,逢瀬町多田野字木置場４３番地の３,,07,203,9630213,,,,,,,2024-05-08,1,,,,,エースタイル,0
1880,6380001034524,新規,0,2024-05-08,2024-05-08,株式会社ＥＸ経営管理事務所,,株式会社,福島県,南相馬市,原町区上町３丁目８１番地の２,,07,212,9750013,,,,,,,2024-05-08,1,,,,,イーエックスケイエイカンリジムショ,0
1882,6380003005754,新規,0,2024-05-08,2024-05-08,合同会社エンスフォームアップ,,合同会社,福島県,郡山市,八山田西２丁目１６５番地,,07,203,9638053,,,,,,,2024-05-08,1,,,,,,0
1883,6390001017602,新規,0,2024-05-08,2024-05-08,株式会社Ｘ‐ＢＡＳＥ,,株式会社,山形県,米沢市,本町１丁目５番４７号,,06,202,9920037,,,,,,,2024-05-08,1,,,,,クロスベース,0
1885,6420001018712,新規,0,2024-05-08,2024-05-08,株式会社幸絆,,株式会社,青森県,平川市,李平下安原５０番地１６,,02,210,0360201,,,,,,,2024-05-08,1,,,,,ユキナ,0
1893,6430001091717,新規,0,2024-05-08,2024-05-08,ロバストネットワーク株式会社,,株式会社,北海道,札幌市北区,新川八条１７丁目７６９番地１４,,01,102,0010928,,,,,,,2024-05-08,1,,,,,ロバストネットワーク,0
1894,6430001091725,新規,0,2024-05-08,2024-05-08,株式会社エイシン,,株式会社,北海道,札幌市白石区,北郷八条８丁目３番２４号,,01,104,0030838,,,,,,,2024-05-08,1,,,,,エイシン,0
1895,6430001091733,新規,0,2024-05-08,2024-05-08,Ｉ・ＴＲＥＮＤ株式会社,,株式会社,北海道,室蘭市,中島町１丁目１８番１２－３０１号,,01,205,0500074,,,,,,,2024-05-08,1,,,,,アイトレンド,0
1896,6430001091758,新規,0,2024-05-08,2024-05-08,株式会社Ｎｏｒｔｈ　Ｐｌｅａｓｕｒｅ,,株式会社,北海道,札幌市中央区,南二条西７丁目４番地１２－Ａ,,01,101,0600062,,,,,,,2024-05-08,1,,,,,ノースプレジャー,0
1899,6430003016291,新規,0,2024-05-08,2024-05-08,合同会社ＯＨＤＫ,,合同会社,北海道,札幌市豊平区,平岸四条２丁目１番９号,,01,105,0620934,,,,,,,2024-05-08,1,,,,,オーディーケー,0
1901,6430005014970,新規,0,2024-05-08,2024-05-08,一般社団法人文化資源協会,,その他の設立登記法人,北海道,札幌市東区,北二十二条東１０丁目１番１５号,,01,103,0650022,,,,,,,2024-05-08,1,,,,,ブンカシゲンキョウカイ,0
1903,6450001014312,新規,0,2024-05-08,2024-05-08,ＤＡＩＣＨＩ　ｃｏｎｓｔｒｕｃｔｉｏｎ株式会社,,株式会社,北海道,上川郡東神楽町,字八千代ケ岡３番２２,,01,453,0711577,,,,,,,2024-05-08,1,,,,,ダイチコンストラクション,0
1906,6460001005896,新規,0,2024-05-08,2024-05-08,株式会社ｂｅｌｌ　ｃｏｌｌｅｃｔ,,株式会社,北海道,釧路市,新釧路町１２番１５号ウェルカムサトウ５　Ｃ号室,,01,206,0850002,,,,,,,2024-05-08,1,,,,,ベルコレクト,0
1907,6470003002643,新規,0,2024-05-08,2024-05-08,合同会社Ｈａｎｇｏｕｔ,,合同会社,香川県,高松市,六条町４８０番地８,,37,201,7610303,,,,,,,2024-05-08,1,,,,,ハングアウト,0
1923,7010001244571,新規,0,2024-05-08,2024-05-08,株式会社ＮＥＭ３,,株式会社,東京都,千代田区,神田猿楽町１丁目３－４アルファビル３階,,13,101,1010064,,,,,,,2024-05-08,1,,,,,ネムスリー,0
1924,7010001244588,新規,0,2024-05-08,2024-05-08,株式会社ＩＤＯＭ　Ｄｉｇｉｔａｌ　Ｄｒｉｖｅ,,株式会社,東京都,千代田区,丸の内２丁目７番２号,,13,101,1000005,,,,,,,2024-05-08,1,,,,,イドムデジタルドライブ,0
1925,7010001244596,新規,0,2024-05-08,2024-05-08,日本液化ＣＯ２輸送株式会社,,株式会社,東京都,中央区,銀座４丁目１０番１０号,,13,102,1040061,,,,,,,2024-05-08,1,,,,,ニホンエキカシーオーツーユソウ,0
1926,7010001244605,新規,0,2024-05-08,2024-05-08,株式会社ＨＲエージェンシー,,株式会社,東京都,中央区,銀座１丁目１６番７号,,13,102,1040061,,,,,,,2024-05-08,1,,,,,エイチアールエージェンシー,0
1928,7010003043658,新規,0,2024-05-08,2024-05-08,合同会社ＴＯＫＹＯ　ＳＫＹ,,合同会社,東京都,千代田区,神田須田町１丁目１２－８ＪＬＢ神田４０１号,,13,101,1010041,,,,,,,2024-05-08,1,,,,,トウキョウスカイ,0
1931,7010005038268,新規,0,2024-05-08,2024-05-08,一般社団法人不倫カウンセリング協会,,その他の設立登記法人,東京都,文京区,弥生２丁目４番１０－６０３号,,13,105,1130032,,,,,,,2024-05-08,1,,,,,フリンカウンセリングキョウカイ,0
1932,7010005038276,新規,0,2024-05-08,2024-05-08,一般社団法人未来の創英会,,その他の設立登記法人,東京都,千代田区,丸の内２丁目１番１号,,13,101,1000005,,,,,,,2024-05-08,1,,,,,ミライノソウエイカイ,0
1938,7010401182207,新規,0,2024-05-08,2024-05-08,株式会社ＳＮＪ,,株式会社,東京都,港区,赤坂４丁目８－１９赤坂フロントタウン３階,,13,103,1070052,,,,,,,2024-05-08,1,,,,,エスエヌジェイ,0
1939,7010401182248,新規,0,2024-05-08,2024-05-08,ＷＩＫＩＳＰＥＥＤ　ＪＰ株式会社,,株式会社,東京都,港区,南青山２丁目４番１７号シンアカウンティングサービス株式会社内,,13,103,1070062,,,,,,,2024-05-08,1,,,,,ウィキスピードジェイピー,0
1943,7010403032541,新規,0,2024-05-08,2024-05-08,合同会社花に雨,,合同会社,東京都,港区,南青山２丁目２番１５号ＷｉｎＡｏｙａｍａビルＵＣＦ６３５,,13,103,1070062,,,,,,,2024-05-08,1,,,,,ハナニアメ,0
1944,7010405023175,新規,0,2024-05-08,2024-05-08,一般社団法人日本医療経済研究会,,その他の設立登記法人,東京都,港区,西新橋３丁目２５番３３号,,13,103,1050003,,,,,,,2024-05-08,1,,,,,ニホンイリョウケイザイケンキュウカイ,0
1950,7010501052210,新規,0,2024-05-08,2024-05-08,サムライ・クレーン・パートナーズ株式会社,,株式会社,東京都,台東区,浅草５丁目６番１０－７０２号,,13,106,1110032,,,,,,,2024-05-08,1,,,,,サムライクレーンパートナーズ,0
1953,7010601065120,新規,0,2024-05-08,2024-05-08,株式会社ｔｈｉｒｔｙ‐ｆｏｒｔｙ,,株式会社,東京都,江東区,有明３丁目７番２６号有明フロンティアビルＢ棟９階,,13,108,1350063,,,,,,,2024-05-08,1,,,,,サーティーフォーティー,0
1956,7010603010818,新規,0,2024-05-08,2024-05-08,合同会社ＧＯ,,合同会社,東京都,江東区,森下３丁目７番６－７０４号,,13,108,1350004,,,,,,,2024-05-08,1,,,,,ゴー,0
1959,7010901055242,新規,0,2024-05-08,2024-05-08,株式会社ＣｈｒｏｎｏＡｒｔ,,株式会社,東京都,世田谷区,祖師谷５丁目３２－３０,,13,112,1570072,,,,,,,2024-05-08,1,,,,,クロノアート,0
1961,7010903009031,新規,0,2024-05-08,2024-05-08,合同会社ＹＡＳＲＳ,,合同会社,東京都,世田谷区,喜多見９丁目２３番２１号―３,,13,112,1570067,,,,,,,2024-05-08,1,,,,,ヤサーズ,0
1976,7011001161559,新規,0,2024-05-08,2024-05-08,株式会社ユナイテックス,,株式会社,東京都,渋谷区,恵比寿西２丁目８－４ＥＸ恵比寿西ビル５階,,13,113,1500021,,,,,,,2024-05-08,1,,,,,ユナイテックス,0
1977,7011001161773,新規,0,2024-05-08,2024-05-08,株式会社アジアライズ,,株式会社,東京都,渋谷区,恵比寿４丁目２０番３号,,13,113,1500013,,,,,,,2024-05-08,1,,,,,アジアライズ,0
1980,7011003019078,新規,0,2024-05-08,2024-05-08,合同会社Ｇｅｎｉｅ,,合同会社,東京都,渋谷区,桜丘町２３番１７号シティコート桜丘４０８,,13,113,1500031,,,,,,,2024-05-08,1,,,,,ジーニー,0
1981,7011005010489,新規,0,2024-05-08,2024-05-08,ＮＰＯ法人教室から世界一周,,その他の設立登記法人,東京都,目黒区,下目黒５丁目３２番１９－５０４号パラシオコート,,13,110,1530064,,,,,,,2024-05-08,1,,,,,キョウシツカラセカイイッシュウ,0
1982,7011005010497,新規,0,2024-05-08,2024-05-08,一般社団法人ＴＥＮ,,その他の設立登記法人,東京都,渋谷区,道玄坂１丁目１０番８号渋谷道玄坂東急ビル２Ｆ－Ｃ,,13,113,1500043,,,,,,,2024-05-08,1,,,,,テン,0
1987,7011101107164,新規,0,2024-05-08,2024-05-08,株式会社Ｃｌｏｒｅ,,株式会社,東京都,新宿区,西新宿３丁目３番１３号西新宿水間ビル６階,,13,104,1600023,,,,,,,2024-05-08,1,,,,,クロレ,0
1988,7011101107206,新規,0,2024-05-08,2024-05-08,株式会社アベレージヒッター,,株式会社,東京都,新宿区,西新宿３丁目３番１３号西新宿水間ビル６階,,13,104,1600023,,,,,,,2024-05-08,1,,,,,アベレージヒッター,0
1989,7011101107222,新規,0,2024-05-08,2024-05-08,シュエット株式会社,,株式会社,東京都,新宿区,新宿２丁目８番１号新宿セブンビル５Ｆ,,13,104,1600022,,,,,,,2024-05-08,1,,,,,シュエット,0
1990,7011101107230,新規,0,2024-05-08,2024-05-08,シン・コンサルティング株式会社,,株式会社,東京都,新宿区,西新宿３丁目３－２３－８０２,,13,104,1600023,,,,,,,2024-05-08,1,,,,,シンコンサルティング,0
1993,7011303005141,新規,0,2024-05-08,2024-05-08,合同会社Ｉｒｉｄｅｓｃｅｎｔ,,合同会社,東京都,杉並区,今川１丁目１２番２１号,,13,115,1670035,,,,,,,2024-05-08,1,,,,,イリデセント,0
1995,7011401026072,新規,0,2024-05-08,2024-05-08,株式会社辰寅,,株式会社,東京都,板橋区,東新町１丁目３１番２号,,13,119,1740074,,,,,,,2024-05-08,1,,,,,タツトラ,0
1998,7011601027713,新規,0,2024-05-08,2024-05-08,福澤国際株式会社,,株式会社,東京都,練馬区,桜台１丁目７番７－４１１号室,,13,120,1760002,,,,,,,2024-05-08,1,,,,,フクザワコクサイ,0
1999,7011601027721,新規,0,2024-05-08,2024-05-08,株式会社招月,,株式会社,東京都,練馬区,北町５丁目５－７かぼちゃの馬車平和台Ｖ１０３号室,,13,120,1790081,,,,,,,2024-05-08,1,,,,,ショウゲツ,0
2000,7011701027233,新規,0,2024-05-08,2024-05-08,株式会社ｍｊｌｉｎｋ　Ｊａｐａｎ,,株式会社,東京都,江戸川区,西一之江１丁目３番１３号,,13,123,1320023,,,,,,,2024-05-08,1,,,,,エムジェイリンクジャパン,0
2004,7011801044178,新規,0,2024-05-08,2024-05-08,スマイル株式会社,,株式会社,東京都,足立区,綾瀬２丁目３３番９号Ｕ２０４,,13,121,1200005,,,,,,,2024-05-08,1,,,,,スマイル,0
2006,7011803006218,新規,0,2024-05-08,2024-05-08,ネクストプラン合同会社,,合同会社,東京都,足立区,千住旭町３８番１号,,13,121,1200026,,,,,,,2024-05-08,1,,,,,ネクストプラン,0
2007,7012301013895,新規,0,2024-05-08,2024-05-08,株式会社ＰＲＯＧＲＥＳＳ,,株式会社,東京都,町田市,小野路町４４５２番地１１８,,13,209,1950064,,,,,,,2024-05-08,1,,,,,プログレス,0
2010,7012403006541,新規,0,2024-05-08,2024-05-08,ｆｏｒｗａｒｄ合同会社,,合同会社,東京都,調布市,入間町２丁目２０－５３,,13,208,1820004,,,,,,,2024-05-08,1,,,,,フォワード,0
2011,7012405004980,新規,0,2024-05-08,2024-05-08,一般社団法人Ｊｏｙｆｕｌ・Ｗｉｎｇｓ,,その他の設立登記法人,東京都,三鷹市,下連雀９丁目１１番９号,,13,204,1810013,,,,,,,2024-05-08,1,,,,,ジョイフルウイングス,0
2013,7012703002983,新規,0,2024-05-08,2024-05-08,合同会社ヒンメル,,合同会社,東京都,小平市,回田町７０－１９,,13,211,1870013,,,,,,,2024-05-08,1,,,,,ヒンメル,0
2023,7020001156898,新規,0,2024-05-08,2024-05-08,株式会社ニードワン,,株式会社,神奈川県,川崎市多摩区,東生田３丁目９番２号,,14,135,2140031,,,,,,,2024-05-08,1,,,,,ニードワン,0
2024,7020001156923,新規,0,2024-05-08,2024-05-08,株式会社ファラクロス,,株式会社,神奈川県,川崎市宮前区,馬絹４丁目３６番２号,,14,136,2160035,,,,,,,2024-05-08,1,,,,,ファラクロス,0
2025,7020001157070,新規,0,2024-05-08,2024-05-08,株式会社ＪＡＹＡ　ＷＡＷＡＳＡＮ　ＴＲＡＤＩＮＧ,,株式会社,神奈川県,横浜市西区,平沼１丁目３４番８号パーク・ノヴァ横浜五番館５０１,,14,103,2200023,,,,,,,2024-05-08,1,,,,,ジャヤワワサントレーディング,0
2026,7020001157079,新規,0,2024-05-08,2024-05-08,株式会社オフィスフリー,,株式会社,神奈川県,川崎市川崎区,宮本町４番地１６ヘーベルメゾン宮本町１０３,,14,131,2100004,,,,,,,2024-05-08,1,,,,,オフィスフリー,0
2030,7020003026059,新規,0,2024-05-08,2024-05-08,イーズ企画合同会社,,合同会社,神奈川県,川崎市麻生区,千代ケ丘６丁目３番地７,,14,137,2150005,,,,,,,2024-05-08,1,,,,,イーズキカク,0
2033,7021001082143,新規,0,2024-05-08,2024-05-08,株式会社原組,,株式会社,神奈川県,小田原市,栢山２８６７番地の３,,14,206,2500852,,,,,,,2024-05-08,1,,,,,ハラグミ,0
2034,7021001082151,新規,0,2024-05-08,2024-05-08,株式会社モトライド,,株式会社,神奈川県,愛甲郡愛川町,半原２３３９番地の１４,,14,401,2430307,,,,,,,2024-05-08,1,,,,,モトライド,0
2035,7021001082168,新規,0,2024-05-08,2024-05-08,株式会社ＴＲＩＣＡＳＴ,,株式会社,神奈川県,小田原市,栄町２丁目１番２０号パルシティ３階,,14,206,2500011,,,,,,,2024-05-08,1,,,,,トライキャスト,0
2040,7030001160189,新規,0,2024-05-08,2024-05-08,株式会社エフシステム,,株式会社,埼玉県,川口市,朝日２丁目１番１６号,,11,203,3320001,,,,,,,2024-05-08,1,,,,,エフシステム,0
2041,7030001160206,新規,0,2024-05-08,2024-05-08,株式会社モハマドトレーディング,,株式会社,埼玉県,熊谷市,柴２番地５,,11,202,3600106,,,,,,,2024-05-08,1,,,,,モハマドトレーディング,0
2042,7030001160214,新規,0,2024-05-08,2024-05-08,日本イノベーテック株式会社,,株式会社,埼玉県,新座市,菅沢２丁目１０番１２号,,11,230,3520017,,,,,,,2024-05-08,1,,,,,ニホンイノベーテック,0
2043,7030001160222,新規,0,2024-05-08,2024-05-08,田中商事株式会社,,株式会社,埼玉県,川口市,上青木１丁目２５番２９号,,11,203,3330844,,,,,,,2024-05-08,1,,,,,タナカショウジ,0
2044,7030001160230,新規,0,2024-05-08,2024-05-08,株式会社ＡＰＲＥＳＡ,,株式会社,埼玉県,行田市,大字馬見塚６３９,,11,206,3610082,,,,,,,2024-05-08,1,,,,,アプレーザ,0
2045,7030001160263,新規,0,2024-05-08,2024-05-08,株式会社ＷＡＬＫ,,株式会社,埼玉県,戸田市,大字新曽１５７番地キャッスルマンション戸田２０３号室,,11,224,3350021,,,,,,,2024-05-08,1,,,,,ウォーク,0
2049,7030003024210,新規,0,2024-05-08,2024-05-08,イベントアット東京合同会社,,合同会社,埼玉県,さいたま市南区,大字広ヶ谷戸１５８－１,,11,108,3360041,,,,,,,2024-05-08,1,,,,,イベントアットトウキョウ,0
2050,7030003024219,新規,0,2024-05-08,2024-05-08,合同会社はやぶさ事務所,,合同会社,埼玉県,熊谷市,原島１１４１番地７,,11,202,3600811,,,,,,,2024-05-08,1,,,,,ハヤブサジムショ,0
2051,7030003024227,新規,0,2024-05-08,2024-05-08,合同会社久保資本,,合同会社,埼玉県,本庄市,見福１丁目６番１５号,,11,211,3670044,,,,,,,2024-05-08,1,,,,,クボシホン,0
2052,7030003024235,新規,0,2024-05-08,2024-05-08,合同会社Ｆｅｌｉｃｅ　ｉｎｃｏｎｔｒｏ,,合同会社,埼玉県,さいたま市大宮区,宮町５丁目１００番地１インフィニティ大宮１０２,,11,103,3300802,,,,,,,2024-05-08,1,,,,,フェリーチェインコントロ,0
2061,7040001133433,新規,0,2024-05-08,2024-05-08,株式会社Ｈ＆Ｓパートナーズ,,株式会社,千葉県,浦安市,北栄４丁目４番１１号,,12,227,2790002,,,,,,,2024-05-08,1,,,,,エイチアンドエスパートナーズ,0
2062,7040001133441,新規,0,2024-05-08,2024-05-08,株式会社新時代,,株式会社,千葉県,東金市,砂古瀬５７８番地,,12,213,2830056,,,,,,,2024-05-08,1,,,,,シンジダイ,0
2065,7040005022384,新規,0,2024-05-08,2024-05-08,一般財団法人八幡育英会,,その他の設立登記法人,千葉県,香取郡東庄町,笹川ろ１１０１番地,,12,349,2890602,,,,,,,2024-05-08,1,,,,,ヤワタイクエイカイ,0
2070,7050003008343,新規,0,2024-05-08,2024-05-08,メトレス合同会社,,合同会社,茨城県,ひたちなか市,大字足崎１４５７番地６１１,,08,221,3120003,,,,,,,2024-05-08,1,,,,,メトレス,0
2073,7070001041699,新規,0,2024-05-08,2024-05-08,株式会社たか房,,株式会社,群馬県,前橋市,下細井町６７２番地２０,,10,201,3710054,,,,,,,2024-05-08,1,,,,,タカボウ,0
2074,7070001041708,新規,0,2024-05-08,2024-05-08,株式会社Ｋ’ｓエクステリア,,株式会社,群馬県,高崎市,大橋町７小嶋ホールディングスビル,,10,202,3700803,,,,,,,2024-05-08,1,,,,,ケイズエクステリア,0
2075,7070001041716,新規,0,2024-05-08,2024-05-08,株式会社エグゼ,,株式会社,群馬県,伊勢崎市,連取町３０９９番地４,,10,204,3720812,,,,,,,2024-05-08,1,,,,,,0
2078,7070003005405,新規,0,2024-05-08,2024-05-08,合同会社ｓｙｍｐｌ．,,合同会社,群馬県,前橋市,千代田町２丁目２－１１ＧＳレジデンス２Ｆ,,10,201,3710022,,,,,,,2024-05-08,1,,,,,シンプル,0
2079,7080001026286,新規,0,2024-05-08,2024-05-08,株式会社Ｒａｍｕｋａｎａ,,株式会社,静岡県,静岡市葵区,北安東１丁目１１番２２号,,22,101,4200881,,,,,,,2024-05-08,1,,,,,ラムカナ,0
2080,7080001026294,新規,0,2024-05-08,2024-05-08,株式会社ＲＡＢＩ‐ｓｏｆｔ,,株式会社,静岡県,焼津市,飯淵１１６５－１,,22,212,4210213,,,,,,,2024-05-08,1,,,,,ラビソフト,0
2081,7080003003192,新規,0,2024-05-08,2024-05-08,青トンボ運送合同会社,,合同会社,静岡県,静岡市葵区,栄町２番地５アークビルディング５０２,,22,101,4200859,,,,,,,2024-05-08,1,,,,,アオトンボウンソウ,0
2082,7080101024719,新規,0,2024-05-08,2024-05-08,株式会社はちまるよん,,株式会社,静岡県,富士市,富士見台７丁目９番地の１３,,22,210,4170851,,,,,,,2024-05-08,1,,,,,ハチマルヨン,0
2083,7080101024727,新規,0,2024-05-08,2024-05-08,株式会社Ｒｅｎｆｒｅｗ,,株式会社,静岡県,伊東市,川奈１２１４番地の１３,,22,208,4140044,,,,,,,2024-05-08,1,,,,,レンフルー,0
2084,7080101024735,新規,0,2024-05-08,2024-05-08,株式会社富士山工房,,株式会社,静岡県,沼津市,下河原町２丁目７番地の７,,22,203,4100841,,,,,,,2024-05-08,1,,,,,フジサンコウボウ,0
2089,7090003002557,新規,0,2024-05-08,2024-05-08,合同会社浅間,,合同会社,山梨県,富士吉田市,浅間２丁目６番１号,,19,202,4030031,,,,,,,2024-05-08,1,,,,,アサマ,0
2097,7110003005383,新規,0,2024-05-08,2024-05-08,合同会社オールジャパン新潟,,合同会社,新潟県,南蒲原郡田上町,大字原ケ崎新田２５番地１,,15,361,9591503,,,,,,,2024-05-08,1,,,,,オールジャパンニイガタ,0
2106,7120001264591,新規,0,2024-05-08,2024-05-08,ＨＡＴＣＨＴＥＣ　ＪＡＰＡＮ株式会社,,株式会社,大阪府,大阪市天王寺区,上汐３丁目１番６号イオ上本町ビル３０２号,,27,109,5430002,,,,,,,2024-05-08,1,,,,,ハッチテックジャパン,0
2107,7120001264609,新規,0,2024-05-08,2024-05-08,オアシスブルースター株式会社,,株式会社,大阪府,枚方市,東船橋１丁目８９番地の１,,27,210,5731115,,,,,,,2024-05-08,1,,,,,オアシスブルースター,0
2108,7120001264617,新規,0,2024-05-08,2024-05-08,株式会社Ｃ’ｚ創建,,株式会社,大阪府,寝屋川市,上神田２丁目４番８号,,27,215,5720052,,,,,,,2024-05-08,1,,,,,シーズソウケン,0
2109,7120001264633,新規,0,2024-05-08,2024-05-08,源田株式会社,,株式会社,大阪府,大阪市大正区,三軒家西３丁目４番１６号中山ビル３０９Ｃ,,27,108,5510001,,,,,,,2024-05-08,1,,,,,ゲンダ,0
2110,7120001264641,新規,0,2024-05-08,2024-05-08,株式会社成り屋,,株式会社,大阪府,大阪市中央区,千日前２丁目６－８ゴールデンフタバプラザ６０１,,27,128,5420074,,,,,,,2024-05-08,1,,,,,ナリヤ,0
2111,7120001264699,新規,0,2024-05-08,2024-05-08,Ｄｅｓｉ‐Ｌａｎｄ株式会社,,株式会社,大阪府,大阪市住吉区,長居西３丁目４－１６－４０７,,27,120,5580002,,,,,,,2024-05-08,1,,,,,デザイランド,0
2125,7122001038067,新規,0,2024-05-08,2024-05-08,株式会社ＴＡＮＯＰＰＡ,,株式会社,大阪府,東大阪市,喜里川町５番２０号,,27,227,5798041,,,,,,,2024-05-08,1,,,,,タノッパ,0
2126,7122001038075,新規,0,2024-05-08,2024-05-08,株式会社道越電機,,株式会社,大阪府,八尾市,相生町２丁目４番１１号,,27,212,5810082,,,,,,,2024-05-08,1,,,,,ミチゴエデンキ,0
2129,7130001076986,新規,0,2024-05-08,2024-05-08,株式会社ヤマグチクリエィションズ,,株式会社,京都府,京都市右京区,太秦帷子ケ辻町２６番地３ＨＥＲＳＥＤ’ＯＲ３１０,00134647,26,108,6168151,,,,,,,2024-05-08,1,,,,,ヤマグチクリエィションズ,0
2130,7130001076994,新規,0,2024-05-08,2024-05-08,株式会社ｗｅｌｌｎｅｓｓ　ＭＨ,,株式会社,京都府,京都市中京区,壬生檜町８番地１０エルデヒルズ店舗１階１０２号室,,26,104,6048844,,,,,,,2024-05-08,1,,,,,ウェルネスエムエイチ,0
2131,7130001077019,新規,0,2024-05-08,2024-05-08,株式会社Ｓｅｉｖｓｏｎ　Ｊａｐａｎ,,株式会社,京都府,京都市右京区,西院巽町３７‐１ＴＡＫＥ７・２Ｆ,,26,108,6150014,,,,,,,2024-05-08,1,,,,,セイブソンジャパン,0
2133,7130003009531,新規,0,2024-05-08,2024-05-08,合同会社ＣＩＲＱＵＳ,,合同会社,京都府,京都市北区,大将軍西町ＫＮＯＢビル１Ｆ,,26,101,6038331,,,,,,,2024-05-08,1,,,,,サーカス,0
2141,7140001134256,新規,0,2024-05-08,2024-05-08,株式会社ＫＡＭＵＳＡ,,株式会社,兵庫県,神戸市長田区,松野通１丁目３番２４－４０４号,,28,106,6530841,,,,,,,2024-05-08,1,,,,,カムサ,0
2142,7140001134297,新規,0,2024-05-08,2024-05-08,株式会社ＳＲＨ,,株式会社,兵庫県,神戸市東灘区,田中町３丁目１３番１号,,28,101,6580081,,,,,,,2024-05-08,1,,,,,エスアールエイチ,0
2143,7140001134330,新規,0,2024-05-08,2024-05-08,Ｍｅｄｉａ　Ｍｕｒａ株式会社,,株式会社,兵庫県,神戸市中央区,磯辺通１丁目１番２０号,,28,110,6510084,,,,,,,2024-05-08,1,,,,,メディアムラ,0
2149,7140003020529,新規,0,2024-05-08,2024-05-08,ナリ合同会社,,合同会社,兵庫県,神戸市垂水区,下畑町字内入田７７１番地の３の２シャトー・シモハタ４－２０３号,,28,108,6550861,,,,,,,2024-05-08,1,,,,,ナリ,0
2151,7160003003176,新規,0,2024-05-08,2024-05-08,合同会社ＡＬＭＡ,,合同会社,滋賀県,近江八幡市,安土町西老蘇２３０番地３９,,25,204,5211334,,,,,,,2024-05-08,1,,,,,アルマ,0
2152,7160003003184,新規,0,2024-05-08,2024-05-08,合同会社未来,,合同会社,滋賀県,長浜市,十里町２５５番地２４,,25,203,5260016,,,,,,,2024-05-08,1,,,,,ミライ,0
2157,7180001161222,新規,0,2024-05-08,2024-05-08,株式会社ＦＩＸ,,株式会社,愛知県,名古屋市中区,錦３丁目２２番２４号ＡＴＳ広小路ビル４Ｆ,,23,106,4600003,,,,,,,2024-05-08,1,,,,,フィックス,0
2158,7180001161230,新規,0,2024-05-08,2024-05-08,株式会社ＳＩＭＯＮ,,株式会社,愛知県,名古屋市中村区,岩塚町字郷中７０番地,,23,105,4530862,,,,,,,2024-05-08,1,,,,,シモン,0
2159,7180001161239,新規,0,2024-05-08,2024-05-08,福順商事株式会社,,株式会社,愛知県,丹羽郡大口町,大屋敷２丁目２５番地１,,23,361,4800137,,,,,,,2024-05-08,1,,,,,フクジュンショウジ,0
2160,7180001161271,新規,0,2024-05-08,2024-05-08,株式会社ＴＴＣ,,株式会社,愛知県,海部郡大治町,大字西條字西之川６０番地の７,,23,424,4901144,,,,,,,2024-05-08,1,,,,,ティティシー,0
2163,7180301038599,新規,0,2024-05-08,2024-05-08,株式会社真,,株式会社,愛知県,豊田市,若林東町高根下５１番地８,,23,211,4730914,,,,,,,2024-05-08,1,,,,,シン,0
2164,7180301038616,新規,0,2024-05-08,2024-05-08,株式会社ＷＩＮＤ　ＪＯＹ,,株式会社,愛知県,新城市,富沢２丁目４番地１１,,23,221,4411307,,,,,,,2024-05-08,1,,,,,ウィンドジョイ,0
2170,7200001042469,新規,0,2024-05-08,2024-05-08,かぎや株式会社,,株式会社,岐阜県,岐阜市,福住町２丁目４番地１,,21,201,5008858,,,,,,,2024-05-08,1,,,,,カギヤ,0
2172,7200003006331,新規,0,2024-05-08,2024-05-08,合同会社暖心縁,,合同会社,岐阜県,中津川市,中津川２３６４番地の２６２３,,21,206,5080001,,,,,,,2024-05-08,1,,,,,ナゴミエン,0
2176,7210003001785,新規,0,2024-05-08,2024-05-08,合同会社太田そば,,合同会社,福井県,三方郡美浜町,太田第３１号６番地,,18,442,9191206,,,,,,,2024-05-08,1,,,,,オオタソバ,0
2182,7240001063156,新規,0,2024-05-08,2024-05-08,株式会社ｅｎｃｏｕｒａｇｅ,,株式会社,広島県,広島市中区,本通５番１３号ＷＡＶＥビル３階,,34,101,7300035,,,,,,,2024-05-08,1,,,,,エンカレッジ,0
2183,7240001063164,新規,0,2024-05-08,2024-05-08,株式会社イーブンジャパン,,株式会社,広島県,広島市安佐北区,安佐町大字飯室４１７６番地１,,34,106,7311142,,,,,,,2024-05-08,1,,,,,イーブンジャパン,0
2186,7250001020643,新規,0,2024-05-08,2024-05-08,株式会社星華,,株式会社,山口県,周南市,大字呼坂１１００番地の３３０,,35,215,7450612,,,,,,,2024-05-08,1,,,,,セイカ,0
2188,7250003003497,新規,0,2024-05-08,2024-05-08,合同会社愛守,,合同会社,山口県,萩市,大字堀内２０４番地９,,35,204,7580057,,,,,,,2024-05-08,1,,,,,アイス,0
2200,7290003015200,新規,0,2024-05-08,2024-05-08,合同会社ｂｅ‐ｈｏ,,合同会社,福岡県,福岡市中央区,荒戸２丁目５番３６－５０１号モントーレ西公園アヴァンティ,,40,133,8100062,,,,,,,2024-05-08,1,,,,,ビーホ,0
2202,7290801030540,新規,0,2024-05-08,2024-05-08,株式会社曽根資材福岡,,株式会社,福岡県,北九州市小倉南区,朽網西２丁目９９番７号,,40,107,8000233,,,,,,,2024-05-08,1,,,,,ソネシザイフクオカ,0
2204,7310001018994,新規,0,2024-05-08,2024-05-08,株式会社浦建,,株式会社,長崎県,佐世保市,宮津町５９７番地２３,,42,202,8593235,,,,,,,2024-05-08,1,,,,,ウラケン,0
2206,7320001020446,新規,0,2024-05-08,2024-05-08,株式会社ＩＴＡｒｏｕｎｄ東九州,,株式会社,大分県,中津市,蛭子町２丁目４４番地４０１号,,44,203,8710065,,,,,,,2024-05-08,1,,,,,アイティーアラウンドヒガシキュウシュウ,0
2208,7330001032028,新規,0,2024-05-08,2024-05-08,株式会社笑愛工業ＳＨＯＡＩ,,株式会社,熊本県,菊池市,原３３３０番地５９,,43,210,8611441,,,,,,,2024-05-08,1,,,,,ショウアイコウギョウショウアイ,0
2209,7330001032052,新規,0,2024-05-08,2024-05-08,株式会社テックアライアンス,,株式会社,熊本県,八代市,新港町２丁目３番地１４,,43,202,8660034,,,,,,,2024-05-08,1,,,,,テックアライアンス,0
2210,7330003010361,新規,0,2024-05-08,2024-05-08,合同会社Ａ＆Ｔグループ,,合同会社,熊本県,菊池郡大津町,美咲野１丁目１１番９号,,43,403,8691237,,,,,,,2024-05-08,1,,,,,エーアンドティーグループ,0
2211,7340001026490,新規,0,2024-05-08,2024-05-08,株式会社フッカルエージェント,,株式会社,鹿児島県,鹿児島市,易居町１－２みなと大通り別館６Ｆ１７号室,,46,201,8920815,,,,,,,2024-05-08,1,,,,,フッカルエージェント,0
2213,7350001018941,新規,0,2024-05-08,2024-05-08,テックビヨンド株式会社,,株式会社,宮崎県,西諸県郡高原町,大字広原２０４番地,,45,361,8894411,,,,,,,2024-05-08,1,,,,,テックビヨンド,0
2214,7350003004634,新規,0,2024-05-08,2024-05-08,合同会社ＦＯＧ,,合同会社,宮崎県,西都市,大字調殿１００４番地４　２階,,45,208,8810023,,,,,,,2024-05-08,1,,,,,エフオージー,0
2216,7360001033592,新規,0,2024-05-08,2024-05-08,株式会社許田工業,,株式会社,沖縄県,名護市,大北４丁目２４番５３号２０１号,,47,209,9050019,,,,,,,2024-05-08,1,,,,,キョダコウギョウ,0
2217,7360001033618,新規,0,2024-05-08,2024-05-08,株式会社Ｓａａｈｏ,,株式会社,沖縄県,宮古島市,平良字狩俣１２９,,47,214,9060002,,,,,,,2024-05-08,1,,,,,サーホー,0
2218,7360001033626,新規,0,2024-05-08,2024-05-08,株式会社ＲＥＡＲＥＸ,,株式会社,沖縄県,那覇市,泊２丁目５番地６・１Ｆ,,47,201,9000012,,,,,,,2024-05-08,1,,,,,リアレックス,0
2221,7360003013956,新規,0,2024-05-08,2024-05-08,合同会社フィールドＮ’ｓ,,合同会社,沖縄県,糸満市,字武富３６２番地１フィールドＮ’ｓ４０２,,47,210,9010311,,,,,,,2024-05-08,1,,,,,フィールドネヌズ,0
2222,7370001051255,新規,0,2024-05-08,2024-05-08,横手湯沢フォレストサイクル株式会社,,株式会社,宮城県,仙台市青葉区,本町１丁目７番１号,,04,101,9800014,,,,,,,2024-05-08,1,,,,,ヨコテユザワフォレストサイクル,0
2223,7370003006595,新規,0,2024-05-08,2024-05-08,合同会社ＮＢエステート,,合同会社,宮城県,仙台市青葉区,子平町２番１０－３０６号,,04,101,9810944,,,,,,,2024-05-08,1,,,,,エヌビーエステート,0
2225,7380001034498,新規,0,2024-05-08,2024-05-08,Ｄマネジメント株式会社,,株式会社,福島県,郡山市,堂前町２１番６号,,07,203,9638877,,,,,,,2024-05-08,1,,,,,ディーマネジメント,0
2226,7380001034507,新規,0,2024-05-08,2024-05-08,古川工務店株式会社,,株式会社,福島県,須賀川市,和田字作の内６８番地７,,07,207,9620813,,,,,,,2024-05-08,1,,,,,フルカワコウムテン,0
2227,7380001034523,新規,0,2024-05-08,2024-05-08,日翔ビルドマシナリー株式会社,,株式会社,福島県,須賀川市,東町６３番地１１,,07,207,9620844,,,,,,,2024-05-08,1,,,,,ニッショウビルドマシナリー,0
2230,7390001017601,新規,0,2024-05-08,2024-05-08,株式会社月山入間蒸留所,,株式会社,山形県,寒河江市,緑町２２７番地の１,,06,206,9910062,,,,,,,2024-05-08,1,,,,,ガッサンイリマジョウリュウショ,0
2232,7410001013820,新規,0,2024-05-08,2024-05-08,株式会社北斗ネッツ,,株式会社,秋田県,秋田市,大町１丁目５番３８号,,05,201,0100921,,,,,,,2024-05-08,1,,,,,ホクトネッツ,0
2233,7410001013829,新規,0,2024-05-08,2024-05-08,株式会社Ｌｕｘ,,株式会社,秋田県,湯沢市,字中屋敷１３３番地２,,05,207,0120000,,,,,,,2024-05-08,1,,,,,ルクス,0
2240,7430001091708,新規,0,2024-05-08,2024-05-08,株式会社ＭＡプロジェクト,,株式会社,北海道,札幌市白石区,本郷通５丁目北１‐２２,,01,104,0030025,,,,,,,2024-05-08,1,,,,,エムエープロジェクト,0
2241,7430001091740,新規,0,2024-05-08,2024-05-08,株式会社ＲＫＶ,,株式会社,北海道,札幌市厚別区,厚別北三条３丁目１２番１５号,,01,108,0040073,,,,,,,2024-05-08,1,,,,,アールケーブイ,0
2249,7500001025609,新規,0,2024-05-08,2024-05-08,タカケン株式会社,,株式会社,愛媛県,松山市,福角町甲１２５７番地５,,38,201,7992652,,,,,,,2024-05-08,1,,,,,タカケン,0
2258,8010001244554,新規,0,2024-05-08,2024-05-08,株式会社エコト,,株式会社,東京都,中央区,銀座１丁目１２番４号Ｎ＆ＥＢＬＤ．６Ｆ,,13,102,1040061,,,,,,,2024-05-08,1,,,,,エコト,0
2259,8010001244570,新規,0,2024-05-08,2024-05-08,株式会社ＥＮＩＳＨＩ,,株式会社,東京都,文京区,湯島３丁目７－６タイムハイツ湯島３０２,,13,105,1130034,,,,,,,2024-05-08,1,,,,,エニシ,0
2260,8010001244579,新規,0,2024-05-08,2024-05-08,株式会社ＯＣＴＯＤｅ,,株式会社,東京都,中央区,銀座６丁目６番１号,,13,102,1040061,,,,,,,2024-05-08,1,,,,,オクトディー,0
2261,8010001244595,新規,0,2024-05-08,2024-05-08,株式会社ブリーダー,,株式会社,東京都,中央区,銀座７丁目１７番１８号,,13,102,1040061,,,,,,,2024-05-08,1,,,,,ブリーダー,0
2262,8010001244604,新規,0,2024-05-08,2024-05-08,光芒株式会社,,株式会社,東京都,中央区,銀座１丁目１６－７銀座大栄ビル５階,,13,102,1040061,,,,,,,2024-05-08,1,,,,,コウボウ,0
2263,8010001244620,新規,0,2024-05-08,2024-05-08,株式会社第四の壁,,株式会社,東京都,千代田区,外神田５丁目１番１０号,,13,101,1010021,,,,,,,2024-05-08,1,,,,,ダイヨンノカベ,0
2264,8010001244653,新規,0,2024-05-08,2024-05-08,ヤードムジャパン株式会社,,株式会社,東京都,千代田区,神田美土代町１１－９ピアース千代田淡路町１１０１,,13,101,1010053,,,,,,,2024-05-08,1,,,,,ヤードムジャパン,0
2266,8010003043665,新規,0,2024-05-08,2024-05-08,Ｘコンサルティング合同会社,,合同会社,東京都,千代田区,神田佐久間町１丁目８番４号アルテール秋葉原７０８,,13,101,1010025,,,,,,,2024-05-08,1,,,,,エックスコンサルティング,0
2269,8010005038275,新規,0,2024-05-08,2024-05-08,一般社団法人匠の創英会,,その他の設立登記法人,東京都,千代田区,丸の内２丁目１番１号,,13,101,1000005,,,,,,,2024-05-08,1,,,,,タクミノソウエイカイ,0
2274,8010403032557,新規,0,2024-05-08,2024-05-08,シャクヤク合同会社,,合同会社,東京都,港区,西新橋１丁目１番１号ＥＰコンサルティングサービス内,,13,103,1050003,,,,,,,2024-05-08,1,,,,,シャクヤク,0
2278,8010501052201,新規,0,2024-05-08,2024-05-08,ナガワトータルヘルス株式会社,,株式会社,東京都,台東区,東上野３丁目１４番７号龍田ビル２階,,13,106,1100015,,,,,,,2024-05-08,1,,,,,ナガワトータルヘルス,0
2280,8010601065136,新規,0,2024-05-08,2024-05-08,ＨＧＳトランスポート株式会社,,株式会社,東京都,江東区,枝川２丁目３番４－３０１号,,13,108,1350051,,,,,,,2024-05-08,1,,,,,エイチジーエストランスポート,0
2281,8010601065144,新規,0,2024-05-08,2024-05-08,株式会社ＫＲＳ,,株式会社,東京都,江東区,豊洲４丁目１１番２０,,13,108,1350061,,,,,,,2024-05-08,1,,,,,ケーアールエス,0
2283,8010603010817,新規,0,2024-05-08,2024-05-08,楽景合同会社,,合同会社,東京都,江東区,亀戸２丁目３９番６号フォーレストビル５階,,13,108,1360071,,,,,,,2024-05-08,1,,,,,ラクケイ,0
2303,8011001160865,新規,0,2024-05-08,2024-05-08,株式会社ＰｒｅＦｌｏｐ,,株式会社,東京都,渋谷区,恵比寿４丁目１４番９号ＣｏｌｌｉｎｅＥｂｉｓｕ１０１,,13,113,1500013,,,,,,,2024-05-08,1,,,,,プリフロップ,0
2304,8011001161624,新規,0,2024-05-08,2024-05-08,株式会社スタジオヒゲネクタイ,,株式会社,東京都,渋谷区,道玄坂１丁目１０番８号渋谷道玄坂東急ビル２Ｆ－Ｃ,,13,113,1500043,,,,,,,2024-05-08,1,,,,,スタジオヒゲネクタイ,0
2305,8011001161665,新規,0,2024-05-08,2024-05-08,株式会社Ｎｅｘｔｉｌｅ,,株式会社,東京都,目黒区,東山１丁目２２番２１－１０３号,,13,110,1530043,,,,,,,2024-05-08,1,,,,,ネクスタイル,0
2306,8011001161748,新規,0,2024-05-08,2024-05-08,ＣｙｂｅｒＸ　ＪＰ株式会社,,株式会社,東京都,渋谷区,宇田川町３－７ヒューリック渋谷公園通りビル５Ｆ,,13,113,1500042,,,,,,,2024-05-08,1,,,,,サイバーエックスジェイピー,0
2307,8011001161772,新規,0,2024-05-08,2024-05-08,株式会社ＳＨＩＲＯマーケティング,,株式会社,東京都,渋谷区,神宮前６丁目２３番４号,,13,113,1500001,,,,,,,2024-05-08,1,,,,,シロマーケティング,0
2308,8011001161780,新規,0,2024-05-08,2024-05-08,株式会社ムーチル,,株式会社,東京都,渋谷区,大山町４番１－３０６号,,13,113,1510065,,,,,,,2024-05-08,1,,,,,ムーチル,0
2309,8011001161797,新規,0,2024-05-08,2024-05-08,株式会社かとし,,株式会社,東京都,渋谷区,宇田川町３番１０号いちごフィエスタ渋谷３階,,13,113,1500042,,,,,,,2024-05-08,1,,,,,カトシ,0
2312,8011003019060,新規,0,2024-05-08,2024-05-08,合同会社アネックス,,合同会社,東京都,渋谷区,神泉町１０番１５号アネックス神泉３０１,,13,113,1500045,,,,,,,2024-05-08,1,,,,,アネックス,0
2316,8011103014390,新規,0,2024-05-08,2024-05-08,ＡＧＭ合同会社,,合同会社,東京都,新宿区,新宿２丁目１２－１３新宿アントレサロンビル２階,,13,104,1600022,,,,,,,2024-05-08,1,,,,,エージーエム,0
2318,8011201025447,新規,0,2024-05-08,2024-05-08,株式会社ハンズｐｌｕｓ,,株式会社,東京都,中野区,東中野１丁目５６番５号,,13,114,1640003,,,,,,,2024-05-08,1,,,,,ハンズプラス,0
2320,8011301029629,新規,0,2024-05-08,2024-05-08,株式会社幸,,株式会社,東京都,杉並区,阿佐谷北３丁目２８番６号,,13,115,1660001,,,,,,,2024-05-08,1,,,,,コウ,0
2321,8011303005149,新規,0,2024-05-08,2024-05-08,ＲＥＢＩＫＡ合同会社,,合同会社,東京都,杉並区,阿佐谷北２丁目１６番１１号フラット阿佐谷１０１,,13,115,1660001,,,,,,,2024-05-08,1,,,,,レビカ,0
2322,8011401026071,新規,0,2024-05-08,2024-05-08,アートフロアー株式会社,,株式会社,東京都,板橋区,徳丸３丁目１２番９号,,13,119,1750083,,,,,,,2024-05-08,1,,,,,アートフロアー,0
2323,8011403004372,新規,0,2024-05-08,2024-05-08,合同会社ＳＵＲＹＡ,,合同会社,東京都,板橋区,志村１丁目２５－１８プラザ・ドゥ・ジェロンド２０２号室,,13,119,1740056,,,,,,,2024-05-08,1,,,,,スリヤ,0
2333,8011701027240,新規,0,2024-05-08,2024-05-08,株式会社ＬＡＺ,,株式会社,東京都,江戸川区,東葛西５丁目１２番６号カワマンビル２階,,13,123,1340084,,,,,,,2024-05-08,1,,,,,ラズ,0
2338,8012301013894,新規,0,2024-05-08,2024-05-08,株式会社ＳＯＵＡ,,株式会社,東京都,町田市,金森２丁目３番２４号,,13,209,1940012,,,,,,,2024-05-08,1,,,,,ソウア,0
2343,8012401041812,新規,0,2024-05-08,2024-05-08,株式会社ＩＰＣ,,株式会社,東京都,三鷹市,上連雀３丁目７番１５号シーダーハウス三鷹１０２,,13,204,1810012,,,,,,,2024-05-08,1,,,,,,0
2345,8012703002982,新規,0,2024-05-08,2024-05-08,合同会社サンワエステート,,合同会社,東京都,小平市,学園東町３丁目１５－１４,,13,211,1870043,,,,,,,2024-05-08,1,,,,,サンワエステート,0
2347,8012801023138,新規,0,2024-05-08,2024-05-08,株式会社デジタルマーケティング総合研究所,,株式会社,東京都,国立市,中３丁目６番地の４２パルデメール２０１号室,,13,215,1860004,,,,,,,2024-05-08,1,,,,,デジタルマーケティングソウゴウケンキュウジョ,0
2348,8012803003385,新規,0,2024-05-08,2024-05-08,合同会社ＶＩＬＵＣＥ,,合同会社,東京都,国分寺市,泉町３丁目３７番３３号Ｙｓビルディング２Ｆ,,13,214,1850024,,,,,,,2024-05-08,1,,,,,ヴィルチェ,0
2355,8020001157078,新規,0,2024-05-08,2024-05-08,アッパーカット株式会社,,株式会社,神奈川県,横浜市都筑区,牛久保２丁目１番４９－４０３号,,14,118,2240012,,,,,,,2024-05-08,1,,,,,アッパーカット,0
2356,8020001157086,新規,0,2024-05-08,2024-05-08,株式会社工藤建築,,株式会社,神奈川県,横浜市青葉区,あかね台１丁目９番地１７鈴木テラスハウス西側,,14,117,2270066,,,,,,,2024-05-08,1,,,,,クドウケンチク,0
2362,8021001082142,新規,0,2024-05-08,2024-05-08,株式会社ユアーズ設備,,株式会社,神奈川県,横須賀市,久里浜７丁目１６番１３号,,14,201,2390831,,,,,,,2024-05-08,1,,,,,ユアーズセツビ,0
2363,8021001082159,新規,0,2024-05-08,2024-05-08,三浦ペニンシュラビール株式会社,,株式会社,神奈川県,横須賀市,長井１丁目２２番１５号,,14,201,2380316,,,,,,,2024-05-08,1,,,,,ミウラペニンシュラビール,0
2365,8021003014465,新規,0,2024-05-08,2024-05-08,合同会社季節屋,,合同会社,神奈川県,茅ヶ崎市,中島１０９番地３,,14,207,2530073,,,,,,,2024-05-08,1,,,,,キセツヤ,0
2366,8021003014473,新規,0,2024-05-08,2024-05-08,メビウス８合同会社,,合同会社,神奈川県,相模原市南区,大野台６丁目４―６―１１２,,14,153,2520331,,,,,,,2024-05-08,1,,,,,メビウスエイト,0
2372,8030001160171,新規,0,2024-05-08,2024-05-08,株式会社ＴＲＵＥ　ＧＲＩＴ,,株式会社,埼玉県,東松山市,神明町２丁目２番２１号,,11,212,3550021,,,,,,,2024-05-08,1,,,,,トゥルーグリット,0
2373,8030001160188,新規,0,2024-05-08,2024-05-08,株式会社ＳＩＥＧ,,株式会社,埼玉県,八潮市,緑町１丁目３５番地１３,,11,234,3400808,,,,,,,2024-05-08,1,,,,,ジーク,0
2374,8030001160196,新規,0,2024-05-08,2024-05-08,株式会社ＲＩＺ,,株式会社,埼玉県,東松山市,大字上野本８９８番地１,,11,212,3550073,,,,,,,2024-05-08,1,,,,,リズ,0
2375,8030001160213,新規,0,2024-05-08,2024-05-08,株式会社ＫーＬｉｎｋ,,株式会社,埼玉県,草加市,谷塚２丁目２５番８号,,11,221,3400028,,,,,,,2024-05-08,1,,,,,ケーリンク,0
2376,8030001160221,新規,0,2024-05-08,2024-05-08,株式会社正興２４,,株式会社,埼玉県,久喜市,菖蒲町小林２１３８,,11,232,3460115,,,,,,,2024-05-08,1,,,,,セイコウニジュウヨン,0
2382,8030003024234,新規,0,2024-05-08,2024-05-08,合同会社クレスト,,合同会社,埼玉県,さいたま市見沼区,深作１丁目２９番地３５,,11,104,3370003,,,,,,,2024-05-08,1,,,,,クレスト,0
2383,8030003024242,新規,0,2024-05-08,2024-05-08,合同会社むらさき,,合同会社,埼玉県,川口市,大字差間６８番地の６,,11,203,3330816,,,,,,,2024-05-08,1,,,,,ムラサキ,0
2384,8030003024250,新規,0,2024-05-08,2024-05-08,Ｆａｉｚａｎ　Ｔｒａｄｉｎｇ合同会社,,合同会社,埼玉県,坂戸市,大字赤尾２０３５番地５,,11,239,3500201,,,,,,,2024-05-08,1,,,,,ファイザントレーディング,0
2388,8040001133408,新規,0,2024-05-08,2024-05-08,株式会社フェニックス,,株式会社,千葉県,千葉市若葉区,加曽利町４６６番地ジェネトピア加曽利１０５号,,12,104,2640017,,,,,,,2024-05-08,1,,,,,フェニックス,0
2389,8040001133473,新規,0,2024-05-08,2024-05-08,株式会社山口商事,,株式会社,千葉県,市原市,君塚４丁目１８番地２ロイヤルハイツ池田ＩＩ１０１,00134651,12,219,2900051,,,,,,,2024-05-08,1,,,,,ヤマグチショウジ,0
2391,8040003024877,新規,0,2024-05-08,2024-05-08,合同会社Ｆｏｕｒ　Ｓｅａｓｏｎｓ,,合同会社,千葉県,千葉市中央区,富士見２丁目２１－３富士見ＳＴビル３階,,12,101,2600015,,,,,,,2024-05-08,1,,,,,フォーシーズン,0
2392,8040003024935,新規,0,2024-05-08,2024-05-08,合同会社プロスパー,,合同会社,千葉県,市川市,八幡２丁目３番１５号,,12,203,2720021,,,,,,,2024-05-08,1,,,,,プロスパー,0
2394,8040005022383,新規,0,2024-05-08,2024-05-08,一般社団法人ＴＥＮＯ,,その他の設立登記法人,千葉県,柏市,増尾３丁目１番６号,,12,217,2770033,,,,,,,2024-05-08,1,,,,,テノ,0
2398,8050001054719,新規,0,2024-05-08,2024-05-08,株式会社ＳＵＮＢＡＳＩ,,株式会社,茨城県,古河市,上辺見３４５８番地１,,08,204,3060234,,,,,,,2024-05-08,1,,,,,サンバシ,0
2399,8050001054735,新規,0,2024-05-08,2024-05-08,株式会社匠,,株式会社,茨城県,古河市,諸川５７０番地１１,,08,204,3060126,,,,,,,2024-05-08,1,,,,,タクミ,0
2404,8070001041698,新規,0,2024-05-08,2024-05-08,カープレスジャパン株式会社,,株式会社,群馬県,前橋市,粕川町深津１６５１番１,,10,201,3710215,,,,,,,2024-05-08,1,,,,,カープレスジャパン,0
2405,8070001041707,新規,0,2024-05-08,2024-05-08,株式会社ＨＡＹＡＩＳＥＷＡ,,株式会社,群馬県,伊勢崎市,堀下町１６９１番地,,10,204,3792212,,,,,,,2024-05-08,1,,,,,ハヤイセワ,0
2406,8070001041715,新規,0,2024-05-08,2024-05-08,ＳＴワークスタジオ株式会社,,株式会社,群馬県,前橋市,南町３丁目５０－２プラザアン２階Ｄ－６２,,10,201,3710805,,,,,,,2024-05-08,1,,,,,エスティーワークスタジオ,0
2407,8070003005404,新規,0,2024-05-08,2024-05-08,合同会社カピリナ,,合同会社,群馬県,前橋市,幸塚町６８番地１,,10,201,3710053,,,,,,,2024-05-08,1,,,,,カピリナ,0
2408,8080001026285,新規,0,2024-05-08,2024-05-08,株式会社なかもり,,株式会社,静岡県,静岡市葵区,栄町２番地５アークビルディング５０２,,22,101,4200859,,,,,,,2024-05-08,1,,,,,ナカモリ,0
2415,8090001018686,新規,0,2024-05-08,2024-05-08,捷瑞誠株式会社,,株式会社,山梨県,甲府市,酒折２丁目９－２３ＲＣコード２０２室,,19,201,4000805,,,,,,,2024-05-08,1,,,,,ショウズイセイ,0
2420,8110001038392,新規,0,2024-05-08,2024-05-08,株式会社山口塗装,,株式会社,新潟県,北蒲原郡聖籠町,大字蓮潟２４１２番地３,00134658,15,307,9570106,,,,,,,2024-05-08,1,,,,,ヤマグチトソウ,0
2438,8120001264608,新規,0,2024-05-08,2024-05-08,ウィンコテック株式会社,,株式会社,大阪府,大阪市天王寺区,伶人町２－３１ＳｔａｒＯｆｆｉｃｅ大阪天王寺北８０１号室,,27,109,5430061,,,,,,,2024-05-08,1,,,,,ウィンコテック,0
2439,8120001264649,新規,0,2024-05-08,2024-05-08,株式会社ＵＨＣ　ＪＡＰＡＮ,,株式会社,大阪府,大阪市浪速区,元町３丁目１０番８号,,27,111,5560016,,,,,,,2024-05-08,1,,,,,ユーエイチシージャパン,0
2440,8120001264657,新規,0,2024-05-08,2024-05-08,株式会社トランスマーケ,,株式会社,大阪府,大阪市淀川区,西中島６丁目３番２４号Ｍ４０８号室,,27,123,5320011,,,,,,,2024-05-08,1,,,,,トランスマーケ,0
2441,8120001264673,新規,0,2024-05-08,2024-05-08,株式会社Ｋｏｉ‐Ｆｉｔ,,株式会社,大阪府,大阪市西区,九条１丁目１番１号Ｋ’ｓコート８０１号室,,27,106,5500027,,,,,,,2024-05-08,1,,,,,コイフィット,0
2442,8120001264707,新規,0,2024-05-08,2024-05-08,株式会社ＤＡＩＳＨＯＵ,,株式会社,大阪府,大阪市西成区,萩之茶屋２丁目７番２５号,,27,122,5570004,,,,,,,2024-05-08,1,,,,,ダイショウ,0
2450,8120003026519,新規,0,2024-05-08,2024-05-08,合同会社煌永,,合同会社,大阪府,門真市,舟田町二丁目１番１１号,,27,223,5710021,,,,,,,2024-05-08,1,,,,,コウエイ,0
2452,8120005024264,新規,0,2024-05-08,2024-05-08,一般社団法人日本きくらげ品質管理協会,,その他の設立登記法人,大阪府,大阪市中央区,心斎橋筋２丁目６番１９号,,27,128,5420085,,,,,,,2024-05-08,1,,,,,ニホンキクラゲヒンシツカンリキョウカイ,0
2455,8120901049125,新規,0,2024-05-08,2024-05-08,株式会社リアルプラン,,株式会社,大阪府,茨木市,東太田１丁目１番１１６号,,27,211,5670012,,,,,,,2024-05-08,1,,,,,リアルプラン,0
2456,8120901049133,新規,0,2024-05-08,2024-05-08,株式会社Ｇｌｏｒｓｅｍ,,株式会社,大阪府,豊中市,新千里東町２丁目５番４－１１０２号,,27,203,5600082,,,,,,,2024-05-08,1,,,,,グロセム,0
2457,8120903005167,新規,0,2024-05-08,2024-05-08,合同会社杉菜,,合同会社,大阪府,箕面市,桜ケ丘４丁目１２番１３号,,27,220,5620046,,,,,,,2024-05-08,1,,,,,スギナ,0
2458,8122003002879,新規,0,2024-05-08,2024-05-08,合同会社アルファクラフト,,合同会社,大阪府,八尾市,刑部１丁目１２１番地,,27,212,5810015,,,,,,,2024-05-08,1,,,,,アルファクラフト,0
2463,8130001076977,新規,0,2024-05-08,2024-05-08,株式会社グリーン金属,,株式会社,京都府,京都市伏見区,向島新上林９６番地１,,26,109,6128152,,,,,,,2024-05-08,1,,,,,グリーンキンゾク,0
2464,8130001076993,新規,0,2024-05-08,2024-05-08,株式会社塩,,株式会社,京都府,京都市南区,吉祥院西ノ庄渕ノ西町１４番地２,,26,107,6010000,,,,,,,2024-05-08,1,,,,,シオ,0
2465,8130003009514,新規,0,2024-05-08,2024-05-08,合同会社オウケイジャパン,,合同会社,京都府,京都市下京区,松原通烏丸西入ル玉津島町２９４番地,,26,106,6000000,,,,,,,2024-05-08,1,,,,,オウケイジャパン,0
2466,8130003009522,新規,0,2024-05-08,2024-05-08,合同会社アサイコンサルティング,,合同会社,京都府,京都市東山区,粟田口三条坊町１９番１,,26,105,6050035,,,,,,,2024-05-08,1,,,,,アサイコンサルティング,0
2467,8130003009539,新規,0,2024-05-08,2024-05-08,緑青合同会社,,合同会社,京都府,京都市北区,紫野下門前町５２番地２,,26,101,6038215,,,,,,,2024-05-08,1,,,,,ロクショウ,0
2472,8140001134255,新規,0,2024-05-08,2024-05-08,株式会社グローバルコンサルティング,,株式会社,兵庫県,伊丹市,中野東１丁目３１４番地１,,28,207,6640022,,,,,,,2024-05-08,1,,,,,グローバルコンサルティング,0
2473,8140001134263,新規,0,2024-05-08,2024-05-08,株式会社ａｕｂｅ,,株式会社,兵庫県,南あわじ市,賀集立川瀬２０３番地１３,,28,224,6560512,,,,,,,2024-05-08,1,,,,,オーブ,0
2474,8140001134288,新規,0,2024-05-08,2024-05-08,株式会社ジョインテック,,株式会社,兵庫県,川西市,東多田１丁目１１番１５号,,28,217,6660122,,,,,,,2024-05-08,1,,,,,ジョインテック,0
2475,8140001134296,新規,0,2024-05-08,2024-05-08,株式会社タイセイイチヨシ,,株式会社,兵庫県,淡路市,室津２４２８番地,,28,226,6561606,,,,,,,2024-05-08,1,,,,,タイセイイチヨシ,0
2476,8140001134305,新規,0,2024-05-08,2024-05-08,エペ株式会社,,株式会社,兵庫県,西宮市,羽衣町７番３０号夙川グリーンタウン３階コワクラ内,,28,204,6620051,,,,,,,2024-05-08,1,,,,,エペ,0
2477,8140001134346,新規,0,2024-05-08,2024-05-08,株式会社Ｐｒｉｎｃｅｓｓ　Ｒｏａｄ,,株式会社,兵庫県,神戸市中央区,楠町６丁目１２番１５号,,28,110,6500017,,,,,,,2024-05-08,1,,,,,プリンセスロード,0
2482,8150001027268,新規,0,2024-05-08,2024-05-08,株式会社ＳａｎＴｅｍｐｅｓｔ,,株式会社,奈良県,奈良市,三碓２丁目１番９－１サカイビル１０３５,,29,201,6310061,,,,,,,2024-05-08,1,,,,,サンテンペスト,0
2483,8150005009584,新規,0,2024-05-08,2024-05-08,特定非営利活動法人やまぞーえ,,その他の設立登記法人,奈良県,山辺郡山添村,大字峰寺１１９番地の７,,29,322,6302201,,,,,,,2024-05-08,1,,,,,ヤマゾーエ,0
2485,8160003003183,新規,0,2024-05-08,2024-05-08,ココペン合同会社,,合同会社,滋賀県,大津市,相模町５番２６号,,25,201,5200816,,,,,,,2024-05-08,1,,,,,,0
2486,8170001018125,新規,0,2024-05-08,2024-05-08,株式会社Ｆｏｒｅｓｔ　Ｐｌａｎｎｉｎｇ　Ｈａｓｈｉｍｏｔｏ,,株式会社,和歌山県,田辺市,東陽１４番Ｃ－８０３号,,30,206,6460029,,,,,,,2024-05-08,1,,,,,フォレストプランニングハシモト,0
2492,8180001161246,新規,0,2024-05-08,2024-05-08,株式会社卯月工業,,株式会社,愛知県,名古屋市南区,柴田本通２丁目１番地の２,,23,112,4570814,,,,,,,2024-05-08,1,,,,,ウヅキコウギョウ,0
2493,8180001161287,新規,0,2024-05-08,2024-05-08,株式会社Ｍホールディングス,,株式会社,愛知県,名古屋市守山区,森孝東１丁目６４０番地の５,,23,113,4630033,,,,,,,2024-05-08,1,,,,,エムホールディングス,0
2496,8180002070149,新規,0,2024-05-08,2024-05-08,有限会社山崎建築,00134603,有限会社,愛知県,小牧市,大字下末１４９６番地の２,,23,219,4850825,,,,,,,2024-05-08,1,,,,,ヤマザキケンチク,0
2500,8180005020613,新規,0,2024-05-08,2024-05-08,スズケングループ労働組合連合会,,その他の設立登記法人,愛知県,名古屋市東区,東片端町８番地,,23,102,4610015,,,,,,,2024-05-08,1,,,,,スズケングループ,0
2502,8180301038631,新規,0,2024-05-08,2024-05-08,株式会社Ｒｉｍｓｔｏｎｅ．Ｃｏ．,,株式会社,愛知県,豊川市,伊奈町新屋１９６番地４,,23,207,4410105,,,,,,,2024-05-08,1,,,,,リムストーンカンパニー,0
2504,8190001031332,新規,0,2024-05-08,2024-05-08,株式会社平岡設備,,株式会社,三重県,津市,庄田町２９６４番地,,24,201,5141255,,,,,,,2024-05-08,1,,,,,ヒラオカセツビ,0
2505,8190003004674,新規,0,2024-05-08,2024-05-08,オールイン合同会社,,合同会社,三重県,伊賀市,小田町２３６番地１,,24,216,5180825,,,,,,,2024-05-08,1,,,,,オールイン,0
2508,8200003006330,新規,0,2024-05-08,2024-05-08,合同会社バンブーヒーロー,,合同会社,岐阜県,関市,肥田瀬２７１６番地５,,21,205,5013911,,,,,,,2024-05-08,1,,,,,バンブーヒーロー,0
2510,8220001025982,新規,0,2024-05-08,2024-05-08,株式会社エホンビヨウシツ,,株式会社,石川県,河北郡津幡町,字横浜ほ２７番地５コスモビル１階,,17,361,9290341,,,,,,,2024-05-08,1,,,,,エホンビヨウシツ,0
2511,8220001025990,新規,0,2024-05-08,2024-05-08,株式会社岩瀧塗装,,株式会社,石川県,金沢市,鳴和台７１番地（Ａ・２０３号）,,17,201,9200815,,,,,,,2024-05-08,1,,,,,イワタキトソウ,0
2514,8230001020330,新規,0,2024-05-08,2024-05-08,株式会社アース・Ｋ,,株式会社,富山県,富山市,文珠寺１１９番地２,,16,201,9301325,,,,,,,2024-05-08,1,,,,,アースケイ,0
2516,8240001063163,新規,0,2024-05-08,2024-05-08,株式会社ファミクリーン,,株式会社,広島県,福山市,山手町６丁目１４番３号,,34,207,7200092,,,,,,,2024-05-08,1,,,,,ファミクリーン,0
2517,8240001063171,新規,0,2024-05-08,2024-05-08,株式会社慶,,株式会社,広島県,呉市,広本町２丁目１０番２号,,34,202,7370125,,,,,,,2024-05-08,1,,,,,ケイ,0
2519,8240003006657,新規,0,2024-05-08,2024-05-08,合同会社４Ｕ,,合同会社,広島県,広島市中区,大手町１丁目１番２６号大手町一番ビル３０５,,34,101,7300051,,,,,,,2024-05-08,1,,,,,フォーユー,0
2520,8250001020642,新規,0,2024-05-08,2024-05-08,株式会社名電工,,株式会社,山口県,周南市,長田町１番５号,,35,215,7460054,,,,,,,2024-05-08,1,,,,,メイデンコウ,0
2521,8250003003496,新規,0,2024-05-08,2024-05-08,合同会社愛美,,合同会社,山口県,山口市,小郡下郷元橋２６８１番１,,35,203,7540002,,,,,,,2024-05-08,1,,,,,アイビ,0
2524,8260001039021,新規,0,2024-05-08,2024-05-08,株式会社サニーコンサルタント,,株式会社,岡山県,井原市,高屋町３丁目１８番地３,,33,207,7150024,,,,,,,2024-05-08,1,,,,,サニーコンサルタント,0
2541,8290003015216,新規,0,2024-05-08,2024-05-08,合同会社Ｓｃｏｐｅ,,合同会社,福岡県,福岡市西区,姪の浜２丁目７番１のむら姪浜ヒルズ７０９,,40,135,8190002,,,,,,,2024-05-08,1,,,,,スコープ,0
2542,8290003015224,新規,0,2024-05-08,2024-05-08,合同会社ａｉｅｑｕａｌｉｓ,,合同会社,福岡県,古賀市,青柳町１１６８番地２,,40,223,8113133,,,,,,,2024-05-08,1,,,,,イコリス,0
2543,8290003015232,新規,0,2024-05-08,2024-05-08,合同会社ｐｕｎａ,,合同会社,福岡県,春日市,春日２丁目９１番地,,40,218,8160814,,,,,,,2024-05-08,1,,,,,プナ,0
2557,8320003004355,新規,0,2024-05-08,2024-05-08,合同会社峯生工業,,合同会社,大分県,大分市,新栄町２番３号松田ビル２０２,,44,201,8700919,,,,,,,2024-05-08,1,,,,,,0
2559,8330001032035,新規,0,2024-05-08,2024-05-08,株式会社ＫＳＫ・ｐｌｕｍｂｅｒｓ,,株式会社,熊本県,阿蘇市,一の宮町宮地４１８３番地６,,43,214,8692612,,,,,,,2024-05-08,1,,,,,ケーエスケープラマーズ,0
2560,8330001032051,新規,0,2024-05-08,2024-05-08,株式会社山本空調,,株式会社,熊本県,宇城市,不知火町高良２０５１番地７,,43,213,8690552,,,,,,,2024-05-08,1,,,,,ヤマモトクウチョウ,0
2568,8350001018949,新規,0,2024-05-08,2024-05-08,ソルエステート株式会社,,株式会社,宮崎県,宮崎市,田代町１３９番地１８,,45,201,8800855,,,,,,,2024-05-08,1,,,,,ソルエステート,0
2570,8360001033617,新規,0,2024-05-08,2024-05-08,尚平工業株式会社,,株式会社,沖縄県,那覇市,具志３丁目１７番地７,,47,201,9010146,,,,,,,2024-05-08,1,,,,,ショウヘイコウギョウ,0
2574,8370001051270,新規,0,2024-05-08,2024-05-08,株式会社ばるーむ,,株式会社,宮城県,仙台市青葉区,五橋１丁目１番４５‐８０５号,,04,101,9800022,,,,,,,2024-05-08,1,,,,,バルーム,0
2575,8370003006603,新規,0,2024-05-08,2024-05-08,ＴＧ合同会社,,合同会社,宮城県,仙台市宮城野区,出花２丁目８番１０号オバタハイツＩＩ２０２,00134639,04,102,9830012,,,,,,,2024-05-08,1,,,,,テイジイ,0
2576,8380001034497,新規,0,2024-05-08,2024-05-08,株式会社ＢＲｅｃホールディングス,,株式会社,福島県,郡山市,桑野２丁目３９番２１号,,07,203,9638025,,,,,,,2024-05-08,1,,,,,ブレックホールディングス,0
2577,8380001034514,新規,0,2024-05-08,2024-05-08,株式会社オート・メカ,,株式会社,福島県,伊達市,霊山町山野川字不動下２番地５,,07,213,9600802,,,,,,,2024-05-08,1,,,,,オートメカ,0
2579,8380003005752,新規,0,2024-05-08,2024-05-08,合同会社Ｋ’ｓ企画,,合同会社,福島県,いわき市,植田町中央１丁目１２番地の１２,,07,204,9748261,,,,,,,2024-05-08,1,,,,,ケーズキカク,0
2580,8410001013828,新規,0,2024-05-08,2024-05-08,株式会社仁羽工業,,株式会社,秋田県,仙北郡美郷町,六郷字本道町１０２番地,,05,434,0191404,,,,,,,2024-05-08,1,,,,,ニバコウギョウ,0
2587,8430001091731,新規,0,2024-05-08,2024-05-08,株式会社ラディアンス,,株式会社,北海道,札幌市白石区,東札幌一条２丁目４番１－７０８号,,01,104,0030001,,,,,,,2024-05-08,1,,,,,ラディアンス,0
2589,8430003016298,新規,0,2024-05-08,2024-05-08,合同会社まんまる,,合同会社,北海道,札幌市北区,拓北二条４丁目１番１号,,01,102,0028062,,,,,,,2024-05-08,1,,,,,マンマル,0
2590,8440001009435,新規,0,2024-05-08,2024-05-08,株式会社サイバーデジタルアセット,,株式会社,北海道,函館市,赤川町４９７番地６,,01,202,0410804,,,,,,,2024-05-08,1,,,,,サイバーデジタルアセット,0
2592,8450001014310,新規,0,2024-05-08,2024-05-08,株式会社ＦＵＲＡＮＯ　ＢＡＳＥ,,株式会社,北海道,富良野市,朝日町４番２２号,,01,229,0760026,,,,,,,2024-05-08,1,,,,,フラノベース,0
2593,8460105002292,新規,0,2024-05-08,2024-05-08,農事組合法人ＴＫファーム,,その他の設立登記法人,北海道,帯広市,西十七条南５丁目４－９コーポマイロードＩＩ１０５,00134645,01,207,0800027,,,,,,,2024-05-08,1,,,,,,0
2602,8700150124743,新規,0,2024-05-08,2024-04-08,三笠ビル地区市街地再開発準備組合,,その他,神奈川県,横須賀市,大滝町２丁目２３,,14,201,2380008,,,,,,,2024-04-08,1,,,,,ミカサビルチクシガイチサイカイハツジユンビクミアイ,0
2610,9010001244611,新規,0,2024-05-08,2024-05-08,株式会社チャリティパス,,株式会社,東京都,千代田区,神田和泉町１－７－２０みつば第５ビル２Ｆ,,13,101,1010024,,,,,,,2024-05-08,1,,,,,チャリティパス,0
2612,9010103002355,新規,0,2024-05-08,2024-05-08,合同会社レジェンド・ワーク匠,,合同会社,東京都,八王子市,大和田町１丁目２４番３３号,,13,201,1920045,,,,,,,2024-05-08,1,,,,,レジェンドワークタクミ,0
2616,9010401182205,新規,0,2024-05-08,2024-05-08,株式会社ＫＡＨＯ,,株式会社,東京都,港区,高輪４丁目２４番地２７ＴＨＥＩＭＰＲＥＳＴ高輪５０１,,13,103,1080074,,,,,,,2024-05-08,1,,,,,カホ,0
2624,9010501052209,新規,0,2024-05-08,2024-05-08,株式会社三精ホールディングス,,株式会社,東京都,台東区,上野７丁目１４番２号,,13,106,1100005,,,,,,,2024-05-08,1,,,,,サンセイホールディングス,0
2634,9010801034996,新規,0,2024-05-08,2024-05-08,株式会社Ｒｉｃｈ　Ｌｉｆｅ,,株式会社,東京都,大田区,萩中２丁目４－７プレールドゥーク７０２,,13,111,1440047,,,,,,,2024-05-08,1,,,,,リッチライフ,0
2636,9010901055216,新規,0,2024-05-08,2024-05-08,株式会社ＯｆｆｉｃｅＮｏ．５,,株式会社,東京都,世田谷区,松原５丁目３３番１０号,,13,112,1560043,,,,,,,2024-05-08,1,,,,,オフィスナンバーファイブ,0
2637,9010901055232,新規,0,2024-05-08,2024-05-08,株式会社松輝,,株式会社,東京都,世田谷区,駒沢２丁目３２番９号,,13,112,1540012,,,,,,,2024-05-08,1,,,,,ショウキ,0
2645,9011001161706,新規,0,2024-05-08,2024-05-08,株式会社江戸一,,株式会社,東京都,渋谷区,渋谷２丁目１９－１５宮益坂ビルディング６０９,,13,113,1500002,,,,,,,2024-05-08,1,,,,,エドイチ,0
2646,9011001161796,新規,0,2024-05-08,2024-05-08,株式会社ｕｔｏ,,株式会社,東京都,渋谷区,初台１丁目９－３,,13,113,1510061,,,,,,,2024-05-08,1,,,,,ウト,0
2649,9011003019019,新規,0,2024-05-08,2024-05-08,ＪＲＣ合同会社,,合同会社,東京都,渋谷区,神泉町１０番１５号アネックス神泉３０１,,13,113,1500045,,,,,,,2024-05-08,1,,,,,ジェイアールシー,0
2650,9011003019084,新規,0,2024-05-08,2024-05-08,合同会社ｍｉｍｉｍｉ,,合同会社,東京都,渋谷区,桜丘町２９－１６セルフィスタ渋谷５０４,,13,113,1500031,,,,,,,2024-05-08,1,,,,,ミミミ,0
2655,9011101107179,新規,0,2024-05-08,2024-05-08,株式会社Ｅｘクリエイション,,株式会社,東京都,新宿区,新宿５丁目１８番２０号ルックハイツ新宿８０３号,,13,104,1600022,,,,,,,2024-05-08,1,,,,,イーエックスクリエイション,0
2656,9011103014381,新規,0,2024-05-08,2024-05-08,ＺＥＢ　ＢＵＹＥＲ　ＪＡＰＡＮ合同会社,,合同会社,東京都,新宿区,西新宿１丁目２６番２号新宿野村ビル３２階,,13,104,1600023,,,,,,,2024-05-08,1,,,,,ズィーイービーバイヤージャパン,0
2663,9011601027728,新規,0,2024-05-08,2024-05-08,クラフトホーム株式会社,,株式会社,東京都,練馬区,谷原４丁目７番１５号,,13,120,1770032,,,,,,,2024-05-08,1,,,,,クラフトホーム,0
2665,9011603004337,新規,0,2024-05-08,2024-05-08,合同会社ＷＩＮＧＳ,,合同会社,東京都,練馬区,石神井町７丁目１番２号,,13,120,1770041,,,,,,,2024-05-08,1,,,,,ウィングス,0
2668,9012301013893,新規,0,2024-05-08,2024-05-08,株式会社たて野,,株式会社,東京都,町田市,つくし野３丁目２番地１５,,13,209,1940001,,,,,,,2024-05-08,1,,,,,タテノ,0
2680,9020001157069,新規,0,2024-05-08,2024-05-08,株式会社期運,,株式会社,神奈川県,横浜市緑区,霧が丘５丁目３番地１３,,14,113,2260016,,,,,,,2024-05-08,1,,,,,キウン,0
2690,9020005016403,新規,0,2024-05-08,2024-05-08,一般社団法人ヘルパーステーションほーぷ,,その他の設立登記法人,神奈川県,横浜市南区,弘明寺町字前田１６７番地２０,,14,105,2320067,,,,,,,2024-05-08,1,,,,,ヘルパーステーションホープ,0
2691,9021001082141,新規,0,2024-05-08,2024-05-08,株式会社エムケイ管理,,株式会社,神奈川県,平塚市,南金目１５番地の１,,14,203,2591201,,,,,,,2024-05-08,1,,,,,エムケイカンリ,0
2692,9021001082158,新規,0,2024-05-08,2024-05-08,株式会社和伸企画,,株式会社,神奈川県,座間市,ひばりが丘５丁目５３番３８号,,14,216,2520003,,,,,,,2024-05-08,1,,,,,ワシンキカク,0
2696,9021003014464,新規,0,2024-05-08,2024-05-08,合同会社ＡＧＬＯＥ,,合同会社,神奈川県,座間市,小松原２丁目４４番１―７１３号,,14,216,2520002,,,,,,,2024-05-08,1,,,,,アグロー,0
2704,9030001160154,新規,0,2024-05-08,2024-05-08,株式会社ＳｐｉｄｅｒＷａｖｅ,,株式会社,埼玉県,さいたま市浦和区,上木崎５丁目６番１５号,,11,107,3300071,,,,,,,2024-05-08,1,,,,,スパイダーウェイブ,0
2705,9030001160179,新規,0,2024-05-08,2024-05-08,株式会社ＵＩ企画,,株式会社,埼玉県,ふじみ野市,市沢１丁目１４番３０号,,11,245,3560057,,,,,,,2024-05-08,1,,,,,ユウアイキカク,0
2706,9030001160187,新規,0,2024-05-08,2024-05-08,株式会社エルフィンランド,,株式会社,埼玉県,所沢市,小手指町１丁目１１番地の２３新井マンション２０３号室,,11,208,3591141,,,,,,,2024-05-08,1,,,,,エルフィンランド,0
2707,9030001160195,新規,0,2024-05-08,2024-05-08,ゴーストエキスポッド株式会社,,株式会社,埼玉県,ふじみ野市,上福岡１丁目４番５号細谷ビル２０１,,11,245,3560004,,,,,,,2024-05-08,1,,,,,ゴーストエキスポッド,0
2708,9030001160204,新規,0,2024-05-08,2024-05-08,株式会社ＲｅＧｏ,,株式会社,埼玉県,さいたま市桜区,栄和３丁目２１番２８号,,11,106,3380823,,,,,,,2024-05-08,1,,,,,レゴ,0
2709,9030001160220,新規,0,2024-05-08,2024-05-08,株式会社雄星,,株式会社,埼玉県,八潮市,大字八條２８２０番地１０,,11,234,3400801,,,,,,,2024-05-08,1,,,,,ユウセイ,0
2713,9030003024217,新規,0,2024-05-08,2024-05-08,合同会社シーマＴＥＮ,,合同会社,埼玉県,所沢市,けやき台１丁目２１番地９,,11,208,3591118,,,,,,,2024-05-08,1,,,,,シーマテン,0
2714,9030003024233,新規,0,2024-05-08,2024-05-08,さいたま設備管理合同会社,,合同会社,埼玉県,さいたま市北区,宮原町１丁目２５７番地２,,11,102,3310812,,,,,,,2024-05-08,1,,,,,サイタマセツビカンリ,0
2715,9030003024241,新規,0,2024-05-08,2024-05-08,合同会社ファクター,,合同会社,埼玉県,蓮田市,藤ノ木１丁目３０１番地,,11,238,3490105,,,,,,,2024-05-08,1,,,,,ファクター,0
2720,9040001133423,新規,0,2024-05-08,2024-05-08,株式会社ＭＯＧＵＬ,,株式会社,千葉県,野田市,目吹２０１４番地５５,,12,208,2780001,,,,,,,2024-05-08,1,,,,,モーグル,0
2727,9070001041706,新規,0,2024-05-08,2024-05-08,株式会社月田牧場,,株式会社,群馬県,前橋市,柏倉町１１８４番地１,,10,201,3710246,,,,,,,2024-05-08,1,,,,,ツキダボクジョウ,0
2729,9070003005403,新規,0,2024-05-08,2024-05-08,合同会社Ｍ．Ｏ．Ｔ,,合同会社,群馬県,渋川市,北橘町上箱田４０２番地２,,10,208,3770052,,,,,,,2024-05-08,1,,,,,エムオーティー,0
2730,9080001026284,新規,0,2024-05-08,2024-05-08,株式会社良裕建設,,株式会社,静岡県,榛原郡吉田町,神戸２９３７番地の７,,22,424,4210304,,,,,,,2024-05-08,1,,,,,リョウユウケンセツ,0
2731,9080001026292,新規,0,2024-05-08,2024-05-08,株式会社末廣自動車工業,,株式会社,静岡県,静岡市駿河区,登呂２丁目１９番２５号,,22,102,4228033,,,,,,,2024-05-08,1,,,,,スエヒロジドウシャコウギョウ,0
2732,9080003003190,新規,0,2024-05-08,2024-05-08,合同会社西大路,,合同会社,静岡県,藤枝市,西方１４８２番地の１,,22,214,4260211,,,,,,,2024-05-08,1,,,,,,0
2733,9080101024733,新規,0,2024-05-08,2024-05-08,株式会社ＤＮ　ＨＯＭＥ’Ｓ,,株式会社,静岡県,沼津市,大岡１７５６番地の１大岡小川グリーンタウン２０９号室,,22,203,4100022,,,,,,,2024-05-08,1,,,,,ディーエヌホームズ,0
2756,9120001264466,新規,0,2024-05-08,2024-05-08,銀野株式会社,,株式会社,大阪府,大阪市中央区,南船場１丁目３番９－７０２号,,27,128,5420081,,,,,,,2024-05-08,1,,,,,ギンヤ,0
2757,9120001264607,新規,0,2024-05-08,2024-05-08,星洋株式会社,,株式会社,大阪府,大阪市天王寺区,伶人町２－３１ＳｔａｒＯｆｆｉｃｅ天王寺北８０３号室,,27,109,5430061,,,,,,,2024-05-08,1,,,,,セイヨウ,0
2758,9120001264631,新規,0,2024-05-08,2024-05-08,株式会社ＯＫワークス,,株式会社,大阪府,大阪市北区,梅田１丁目１－３大阪駅前第３ビル２９階１－１－１号室,,27,127,5300001,,,,,,,2024-05-08,1,,,,,オーケーワークス,0
2759,9120001264722,新規,0,2024-05-08,2024-05-08,三友株式会社,,株式会社,大阪府,大阪市浪速区,戎本町１丁目７－１１－２０２室,,27,111,5560013,,,,,,,2024-05-08,1,,,,,ミトモ,0
2765,9120003026518,新規,0,2024-05-08,2024-05-08,合同会社ウォームガイズ,,合同会社,大阪府,大阪市中央区,松屋町住吉６番９－１００２号,,27,128,5400017,,,,,,,2024-05-08,1,,,,,ウォームガイズ,0
2767,9120005024305,新規,0,2024-05-08,2024-05-08,一般社団法人日本事業継承革新機構,,その他の設立登記法人,大阪府,大阪市生野区,中川東１丁目９番１９号,,27,116,5440006,,,,,,,2024-05-08,1,,,,,ニホンジギョウケイショウカクシンキコウ,0
2769,9120101069542,新規,0,2024-05-08,2024-05-08,Ｎ．６株式会社,,株式会社,大阪府,堺市北区,百舌鳥梅町１丁２９０番地７,,27,146,5918032,,,,,,,2024-05-08,1,,,,,エヌロク,0
2772,9120901049124,新規,0,2024-05-08,2024-05-08,株式会社内外整骨院,,株式会社,大阪府,池田市,菅原町２番１１号,,27,204,5630055,,,,,,,2024-05-08,1,,,,,ナイガイセイコツイン,0
2773,9120901049132,新規,0,2024-05-08,2024-05-08,株式会社共栄技研工業,,株式会社,大阪府,高槻市,唐崎南３丁目５番５号,,27,207,5690833,,,,,,,2024-05-08,1,,,,,キョウエイギケンコウギョウ,0
2775,9122001038065,新規,0,2024-05-08,2024-05-08,株式会社ＹＯＲＩＳＨＩＲＯ,,株式会社,大阪府,八尾市,福栄町１丁目１９番地の１,,27,212,5810844,,,,,,,2024-05-08,1,,,,,ヨリシロ,0
2776,9130001076976,新規,0,2024-05-08,2024-05-08,株式会社京滋板金,,株式会社,京都府,八幡市,八幡広門３５番地の１１,,26,210,6148078,,,,,,,2024-05-08,1,,,,,ケイジバンキン,0
2777,9130003009546,新規,0,2024-05-08,2024-05-08,合同会社ＯｎｅＲｉｓｅ,,合同会社,京都府,京都市西京区,川島松ノ木本町３－５,,26,111,6158102,,,,,,,2024-05-08,1,,,,,ワンライズ,0
2783,9140001134262,新規,0,2024-05-08,2024-05-08,株式会社ＰＯＮ,,株式会社,兵庫県,神戸市灘区,赤坂通６丁目４番１７－１号,,28,102,6570821,,,,,,,2024-05-08,1,,,,,ピーオーエヌ,0
2784,9140001134270,新規,0,2024-05-08,2024-05-08,大洋商事株式会社,,株式会社,兵庫県,小野市,新部町字大谷１３１６番地２８,,28,218,6751355,,,,,,,2024-05-08,1,,,,,タイヨウショウジ,0
2785,9140001134287,新規,0,2024-05-08,2024-05-08,株式会社大輝建装,,株式会社,兵庫県,神戸市兵庫区,湊町４丁目１番１－４０１号,,28,105,6520812,,,,,,,2024-05-08,1,,,,,ダイキケンソウ,0
2786,9140001134304,新規,0,2024-05-08,2024-05-08,株式会社ＡＲＡ,,株式会社,兵庫県,宝塚市,南口１丁目８番１９－４号,,28,214,6650011,,,,,,,2024-05-08,1,,,,,エーアールエー,0
2787,9140001134320,新規,0,2024-05-08,2024-05-08,株式会社ＫＳＳ商事,,株式会社,兵庫県,神戸市中央区,二宮町１丁目３番２－２０５号,,28,110,6510093,,,,,,,2024-05-08,1,,,,,ケーエスエスショウジ,0
2788,9140001134337,新規,0,2024-05-08,2024-05-08,株式会社ａｂａｓ,,株式会社,兵庫県,姫路市,白浜町甲２１４０,,28,201,6728023,,,,,,,2024-05-08,1,,,,,アーバス,0
2794,9170001018124,新規,0,2024-05-08,2024-05-08,株式会社イエローハート,,株式会社,和歌山県,和歌山市,古屋８４番地の６,,30,201,6408435,,,,,,,2024-05-08,1,,,,,イエローハート,0
2800,9180003026702,新規,0,2024-05-08,2024-05-08,合同会社わくわく,,合同会社,愛知県,春日井市,藤山台３丁目１－７藤山台３０５号棟４０２号室,,23,206,4870035,,,,,,,2024-05-08,1,,,,,ワクワク,0
2803,9180301038630,新規,0,2024-05-08,2024-05-08,株式会社東三河Ｘ,,株式会社,愛知県,豊橋市,向山町字水車１８番地６,,23,201,4400864,,,,,,,2024-05-08,1,,,,,ヒガシミカワクロス,0
2804,9190001031331,新規,0,2024-05-08,2024-05-08,株式会社オーセンテックワークス,,株式会社,三重県,桑名市,大字東方１１２２番地５,,24,205,5110811,,,,,,,2024-05-08,1,,,,,オーセンテックワークス,0
2806,9190003004673,新規,0,2024-05-08,2024-05-08,合同会社うちのかみや,,合同会社,三重県,伊賀市,上野農人町３８１番地,,24,216,5180831,,,,,,,2024-05-08,1,,,,,ウチノカミヤ,0
2808,9210001019745,新規,0,2024-05-08,2024-05-08,株式会社喜楽家,00134648,株式会社,福井県,丹生郡越前町,織田第３６号２４番地,,18,423,9160215,,,,,,,2024-05-08,1,,,,,キラクヤ,0
2809,9220001025981,新規,0,2024-05-08,2024-05-08,ティーディー・コネクツ株式会社,,株式会社,石川県,金沢市,鞍月３丁目２７番地ＨＲビル２階,,17,201,9208203,,,,,,,2024-05-08,1,,,,,ティーディーコネクツ,0
2812,9240001063195,新規,0,2024-05-08,2024-05-08,ＷＮＢＹＹＹ株式会社,,株式会社,広島県,廿日市市,廿日市２丁目７番２４号２Ｆ,,34,213,7380013,,,,,,,2024-05-08,1,,,,,ワナビー,0
2814,9240003006656,新規,0,2024-05-08,2024-05-08,合同会社徳の風,,合同会社,広島県,広島市中区,大手町５丁目８番２８号,,34,101,7300051,,,,,,,2024-05-08,1,,,,,トクノカゼ,0
2816,9240005015770,新規,0,2024-05-08,2024-05-08,一般社団法人ワールドニシキゴイクラブ,,その他の設立登記法人,広島県,三原市,大和町上徳良１０６７番地,,34,204,7291405,,,,,,,2024-05-08,1,,,,,ワールドニシキゴイクラブ,0
2817,9250003003495,新規,0,2024-05-08,2024-05-08,合同会社理創舎,,合同会社,山口県,山口市,三和町１１番７号,,35,203,7530052,,,,,,,2024-05-08,1,,,,,リソウシャ,0
2820,9260001039020,新規,0,2024-05-08,2024-05-08,国際人材ネットワーク株式会社,,株式会社,岡山県,岡山市中区,湊２９６番地の９,,33,102,7038266,,,,,,,2024-05-08,1,,,,,コクサイジンザイネットワーク,0
2824,9290001105570,新規,0,2024-05-08,2024-05-08,Ｌｏｇｉｆａ株式会社,,株式会社,福岡県,福岡市中央区,地行２丁目３番１４－７０８号,,40,133,8100064,,,,,,,2024-05-08,1,,,,,ロジファ,0
2830,9290801030555,新規,0,2024-05-08,2024-05-08,株式会社ＣＳＡトレーディング,,株式会社,福岡県,北九州市小倉北区,浅野３丁目８番１号ＡＩＭビル６階,,40,106,8020001,,,,,,,2024-05-08,1,,,,,シーエスエイトレーディング,0
2833,9310001019000,新規,0,2024-05-08,2024-05-08,蛇の目株式会社,,株式会社,長崎県,佐世保市,針尾中町１８７５番地,,42,202,8593452,,,,,,,2024-05-08,1,,,,,ジャノメ,0
2834,9310001019009,新規,0,2024-05-08,2024-05-08,株式会社グランドウィン,,株式会社,長崎県,佐世保市,黒髪町６７４３番地１,,42,202,8571152,,,,,,,2024-05-08,1,,,,,グランドウィン,0
2841,9330001032026,新規,0,2024-05-08,2024-05-08,株式会社クルーシャルキー,,株式会社,熊本県,玉名郡南関町,大字下坂下１７２番地１,,43,367,8610821,,,,,,,2024-05-08,1,,,,,クルーシャルキー,0
2845,9340001026480,新規,0,2024-05-08,2024-05-08,株式会社カーセンター脇田,,株式会社,鹿児島県,姶良市,蒲生町白男１７１３番地５,,46,225,8995305,,,,,,,2024-05-08,1,,,,,カーセンターワキタ,0
2846,9350001018948,新規,0,2024-05-08,2024-05-08,株式会社ＮＩＧＯ,,株式会社,宮崎県,宮崎市,下原町３４７番地４,,45,201,8800843,,,,,,,2024-05-08,1,,,,,ニゴー,0
2847,9360001033599,新規,0,2024-05-08,2024-05-08,株式会社いこい不動産,,株式会社,沖縄県,宮古島市,平良字西仲宗根１３１番地,,47,214,9060006,,,,,,,2024-05-08,1,,,,,イコイフドウサン,0
2848,9360001033616,新規,0,2024-05-08,2024-05-08,株式会社きゃんたす,,株式会社,沖縄県,那覇市,牧志２丁目１６番３０号コーポまきしん１０１号室,,47,201,9000013,,,,,,,2024-05-08,1,,,,,キャンタス,0
2850,9360003013954,新規,0,2024-05-08,2024-05-08,合同会社ワイズテクノ,,合同会社,沖縄県,宜野湾市,我如古４丁目１６番３８－３０２号はなみずきＩＩ,00134642,47,205,9012214,,,,,,,2024-05-08,1,,,,,ワイズテクノ,0
2851,9370001051261,新規,0,2024-05-08,2024-05-08,株式会社Ｐａｉｎｔ　ＴＯＭＹ,,株式会社,宮城県,塩竈市,北浜２丁目１１－２０,,04,203,9850003,,,,,,,2024-05-08,1,,,,,ペイントトミィ,0
2852,9370003006602,新規,0,2024-05-08,2024-05-08,ミーム合同会社,,合同会社,宮城県,仙台市宮城野区,福田町２丁目３番３３プチルミエ２０１,,04,102,9830023,,,,,,,2024-05-08,1,,,,,ミーム,0
2853,9380001034513,新規,0,2024-05-08,2024-05-08,渡邉圧送工業株式会社,,株式会社,福島県,郡山市,芳賀２丁目８番１５号ロイヤルコート芳賀１１３,,07,203,9638813,,,,,,,2024-05-08,1,,,,,ワタナベアッソウコウギョウ,0
2858,9410005006579,新規,0,2024-05-08,2024-05-08,サーパス南通管理組合法人,,その他の設立登記法人,秋田県,秋田市,中通６丁目４番３９サーパス南通内,,05,201,0100001,,,,,,,2024-05-08,1,,,,,サーパスミナミドオリ,0
2867,9430003016297,新規,0,2024-05-08,2024-05-08,合同会社一美工業,,合同会社,北海道,札幌市西区,発寒十一条４丁目１０番８号,,01,107,0630831,,,,,,,2024-05-08,1,,,,,ヒトミコウギョウ,0
2870,9470001020173,新規,0,2024-05-08,2024-05-08,ＡＪＭＡＬ　ＴＲＡＤＩＮＧ株式会社,,株式会社,香川県,観音寺市,流岡町１３４７番地１７鹿隈リゾートタウン１２号地２０２号室,,37,205,7680014,,,,,,,2024-05-08,1,,,,,アジュマルトレーディング,0
