sequenceNumber,corporateNumber,process,correct,updateDate,changeDate,name,nameImageId,kind,prefectureName,cityName,streetNumber,addressImageId,prefectureCode,cityCode,postCode,addressOutside,addressOutsideImageId,closeDate,closeCause,successorCorporateNumber,changeCause,assignmentDate,latest,enName,enPrefectureName,enCityName,enAddressOutside,furigana,hihyoji
5,1010001257546,新規,0,2025-08-15,2025-08-15,Ｎｏｖａ　Ｃａｐｉｔａｌ　Ａｄｖｉｓｏｒｙ株式会社,,株式会社,東京都,中央区,銀座１丁目１２番４号Ｎ＆ＥＢＬＤ．６Ｆ,,13,102,1040061,,,,,,,2025-08-15,1,,,,,ノヴァキャピタルアドバイザリー,0
6,1010001257620,新規,0,2025-08-15,2025-08-15,株式会社明正エステート,,株式会社,東京都,中央区,日本橋小舟町４番９号－１０１,,13,102,1030024,,,,,,,2025-08-15,1,,,,,メイショウエステート,0
7,1010001257661,新規,0,2025-08-15,2025-08-15,Ｌａｎｄｍａｒｋ　Ｇｌｏｂａｌ株式会社,,株式会社,東京都,千代田区,霞が関３丁目２番６号東京倶楽部ビルディング１１階,,13,101,1000013,,,,,,,2025-08-15,1,,,,,ランドマークグローバル,0
9,1010003048209,新規,0,2025-08-15,2025-08-15,ＳｉｎｇｌｅＳｔｏｒｅ合同会社,,合同会社,東京都,中央区,日本橋室町１丁目１１番１２号日本橋水野ビル７階,,13,102,1030022,,,,,,,2025-08-15,1,,,,,シングルストア,0
10,1010003048423,新規,0,2025-08-15,2025-08-15,合同会社ホーム３,,合同会社,東京都,千代田区,丸の内１丁目４番１号東京共同会計事務所内,,13,101,1000005,,,,,,,2025-08-15,1,,,,,ホームサン,0
11,1010003048431,新規,0,2025-08-15,2025-08-15,Ｙ＆Ｙ　Ｇｉｎｚａ合同会社,,合同会社,東京都,中央区,銀座６丁目１２番１号,,13,102,1040061,,,,,,,2025-08-15,1,,,,,ワイアンドワイギンザ,0
12,1010003048448,新規,0,2025-08-15,2025-08-15,合同会社黒岳,,合同会社,東京都,千代田区,丸の内１丁目４番１号東京共同会計事務所内,,13,101,1000005,,,,,,,2025-08-15,1,,,,,クロダケ,0
19,1010401192467,新規,0,2025-08-15,2025-08-15,株式会社クリーンホールディングス,,株式会社,東京都,港区,浜松町２丁目２番１５号浜松町ダイヤビル２Ｆ,,13,103,1050013,,,,,,,2025-08-15,1,,,,,クリーンホールディングス,0
33,1010703007868,新規,0,2025-08-15,2025-08-15,合同会社ハシモト珈琲,,合同会社,東京都,品川区,中延４丁目１８番１１号２０２,,13,109,1420053,,,,,,,2025-08-15,1,,,,,ハシモトコーヒー,0
34,1010801036496,新規,0,2025-08-15,2025-08-15,株式会社吉満青果,,株式会社,東京都,大田区,大森中３丁目５番１５号,,13,111,1430014,,,,,,,2025-08-15,1,,,,,ヨシミツセイカ,0
41,1010901057905,新規,0,2025-08-15,2025-08-15,スターク株式会社,,株式会社,東京都,世田谷区,深沢１丁目２０番９号,,13,112,1580081,,,,,,,2025-08-15,1,,,,,スターク,0
46,1011003022137,新規,0,2025-08-15,2025-08-15,合同会社ＮＥＸＵＳ,,合同会社,東京都,目黒区,下目黒１丁目１番１４号コノトラビル７Ｆ,,13,110,1530064,,,,,,,2025-08-15,1,,,,,ネクサス,0
49,1011101112723,新規,0,2025-08-15,2025-08-15,株式会社ＮｏｒｉＥｓｔａｔＥ,,株式会社,東京都,新宿区,新宿２丁目２番７号新宿ＫＧビル７階,,13,104,1600022,,,,,,,2025-08-15,1,,,,,ノリエステート,0
56,1011703004343,新規,0,2025-08-15,2025-08-15,合同会社白映,,合同会社,東京都,江戸川区,西小岩２丁目２０番１６号ライオンズマンション西小岩第３－７０２号室,,13,123,1330057,,,,,,,2025-08-15,1,,,,,ハクエイ,0
57,1011801046601,新規,0,2025-08-15,2025-08-15,株式会社Ｂｒｉｇｈｔ　ａｎｄ　Ｌｉｇｈｔ,,株式会社,東京都,足立区,新田３丁目２９番１－３１２号,,13,121,1230865,,,,,,,2025-08-15,1,,,,,ブライトアンドライト,0
60,1012401043468,新規,0,2025-08-15,2025-08-15,株式会社アージュ,,株式会社,東京都,調布市,仙川町１丁目１３番地９,,13,208,1820002,,,,,,,2025-08-15,1,,,,,アージュ,0
61,1012401043492,新規,0,2025-08-15,2025-08-15,ＥＩＪＩ株式会社,,株式会社,東京都,府中市,白糸台２丁目３１番地の１エンジェルハイツ２２番館２０３,,13,206,1830011,,,,,,,2025-08-15,1,,,,,エイジ,0
70,1021001086026,新規,0,2025-08-15,2025-08-15,株式会社愛ワーク,,株式会社,神奈川県,鎌倉市,山崎１００５番地３８,,14,204,2470066,,,,,,,2025-08-15,1,,,,,アイワーク,0
71,1021001086042,新規,0,2025-08-15,2025-08-15,株式会社フレンティア,,株式会社,神奈川県,鎌倉市,佐助２丁目２番１４号,,14,204,2480017,,,,,,,2025-08-15,1,,,,,フレンティア,0
72,1021001086083,新規,0,2025-08-15,2025-08-15,株式会社花ごよみ長田,,株式会社,神奈川県,厚木市,金田７５３番地１,,14,212,2430807,,,,,,,2025-08-15,1,,,,,ハナゴヨミオサダ,0
74,1021003016419,新規,0,2025-08-15,2025-08-15,合同会社Ｓ．Ｐ．Ｄ,,合同会社,神奈川県,相模原市中央区,矢部新町１番１１号,,14,152,2520207,,,,,,,2025-08-15,1,,,,,エスピーディー,0
85,1040001140006,新規,0,2025-08-15,2025-08-15,株式会社Ｈｉｎａｎｏ,,株式会社,千葉県,市原市,若宮３丁目３番地１３,,12,219,2900006,,,,,,,2025-08-15,1,,,,,ヒナノ,0
86,1040001140014,新規,0,2025-08-15,2025-08-15,株式会社Ｐｉｌｉｎａ,,株式会社,千葉県,船橋市,習志野台７丁目２３番２５号,,12,204,2740063,,,,,,,2025-08-15,1,,,,,ピリナ,0
89,1040003028240,新規,0,2025-08-15,2025-08-15,ＪＵＮＣＴＩＯＮ　ＬＡＢ合同会社,,合同会社,千葉県,市川市,市川南３丁目７番３号,,12,203,2720033,,,,,,,2025-08-15,1,,,,,ジャンクションラボ,0
90,1040003028249,新規,0,2025-08-15,2025-08-15,合同会社聖建,,合同会社,千葉県,野田市,なみき４丁目１８番地８グレースコートナミキ１０５,,12,208,2700229,,,,,,,2025-08-15,1,,,,,ショウケン,0
91,1040003028257,新規,0,2025-08-15,2025-08-15,合同会社祐,,合同会社,千葉県,柏市,柏１３０５番地３,,12,217,2770005,,,,,,,2025-08-15,1,,,,,ユウ,0
94,1050001057100,新規,0,2025-08-15,2025-08-15,株式会社鈴木畜産,,株式会社,茨城県,行方市,玉造甲２３０番地１,,08,233,3113512,,,,,,,2025-08-15,1,,,,,スズキチクサン,0
95,1050001057141,新規,0,2025-08-15,2025-08-15,株式会社Ｆ・Ｎｏｕｉｌｌｅ・Ｖｅｒｔｅｘ,,株式会社,茨城県,つくば市,谷田部１２２４,,08,220,3050861,,,,,,,2025-08-15,1,,,,,エフヌイユヴァーテックス,0
96,1060001038479,新規,0,2025-08-15,2025-08-15,株式会社ｍ．ｃａｒｅ,,株式会社,栃木県,宇都宮市,下戸祭１丁目１５番２２号コープオリンピア宇津宮１０８,,09,201,3200055,,,,,,,2025-08-15,1,,,,,エムケア,0
98,1070001043263,新規,0,2025-08-15,2025-08-15,株式会社Ｋ＆Ｔホームクリエイト,,株式会社,群馬県,伊勢崎市,三光町９番１３号,,10,204,3720046,,,,,,,2025-08-15,1,,,,,ケーアンドティーホームクリエイト,0
99,1070001043271,新規,0,2025-08-15,2025-08-15,ダイマル株式会社,,株式会社,群馬県,伊勢崎市,喜多町４７番地,,10,204,3720056,,,,,,,2025-08-15,1,,,,,,0
100,1070003006045,新規,0,2025-08-15,2025-08-15,ＨＡＺＲＡＴ　ＡＬＩ　ＡＮＤ　ＳＯＮＳ合同会社,,合同会社,群馬県,伊勢崎市,境２０６番地１,,10,204,3700124,,,,,,,2025-08-15,1,,,,,ハズラットアリアンドサンズ,0
101,1070003006053,新規,0,2025-08-15,2025-08-15,Ｌｉｔｔｅｒ　Ｈａｎｏｉ合同会社,,合同会社,群馬県,館林市,成島町１５６３－４５,,10,207,3740055,,,,,,,2025-08-15,1,,,,,,0
107,1080401028111,新規,0,2025-08-15,2025-08-15,株式会社ケイズエンタープライズ,,株式会社,静岡県,浜松市中央区,千歳町９１－１遠鉄モール街ビル１階,,22,138,4300934,,,,,,,2025-08-15,1,,,,,ケイズエンタープライズ,0
114,1110001039513,新規,0,2025-08-15,2025-08-15,株式会社未来農村かりわ総合研究所,,株式会社,新潟県,刈羽郡刈羽村,大字大塚１１５８番地,,15,504,9450313,,,,,,,2025-08-15,1,,,,,ミライノウソンカリワソウゴウケンキュウショ,0
131,1120001278614,新規,0,2025-08-15,2025-08-15,株式会社Ｒｅｆｌｅｃｔ,,株式会社,大阪府,枚方市,春日西町１丁目６０番１号,,27,210,5730136,,,,,,,2025-08-15,1,,,,,リフレクト,0
132,1120001278705,新規,0,2025-08-15,2025-08-15,株式会社スクラップＰＲＯ,,株式会社,大阪府,大阪市生野区,巽西３丁目１７番１７号,00140291,27,116,5440012,,,,,,,2025-08-15,1,,,,,スクラッププロ,0
133,1120001278762,新規,0,2025-08-15,2025-08-15,サンクチュアリ株式会社,,株式会社,大阪府,大阪市中央区,本町４丁目４番１７号ＲＥ－０１２－７０１号,,27,128,5410053,,,,,,,2025-08-15,1,,,,,サンクチュアリ,0
134,1120001278779,新規,0,2025-08-15,2025-08-15,株式会社Ｘ,,株式会社,大阪府,枚方市,町楠葉１丁目１２番６号グラッドボンドＢ１Ｆ,,27,210,5731106,,,,,,,2025-08-15,1,,,,,エックス,0
135,1120001278787,新規,0,2025-08-15,2025-08-15,ＨＧ株式会社,,株式会社,大阪府,大阪市淀川区,西宮原３丁目２番１号新大阪ビジネス第２ニッケンマンション３０３号,,27,123,5320004,,,,,,,2025-08-15,1,,,,,エッチジー,0
136,1120001278878,新規,0,2025-08-15,2025-08-15,株式会社こぼち,,株式会社,大阪府,大阪市北区,豊崎３丁目１０番２号,,27,127,5310072,,,,,,,2025-08-15,1,,,,,コボチ,0
140,1120003030279,新規,0,2025-08-15,2025-08-15,合同会社しまや,,合同会社,大阪府,大阪市北区,梅田１丁目２番２号大阪駅前第２ビル１２－１２,,27,127,5300001,,,,,,,2025-08-15,1,,,,,シマヤ,0
141,1120005025112,新規,0,2025-08-15,2025-08-15,一般社団法人メタストラクチャーメソッド・ラボ,,その他の設立登記法人,大阪府,大阪市中央区,南船場４丁目１３番８－７０３号,,27,128,5420081,,,,,,,2025-08-15,1,,,,,メタストラクチャーメソッドラボ,0
143,1120101072264,新規,0,2025-08-15,2025-08-15,株式会社Ｒ‐Ｔ　Ｓｕｐｐｏｒｔ　Ｐｒｏ,,株式会社,大阪府,堺市美原区,さつき野西２丁目１番地１２,,27,147,5870031,,,,,,,2025-08-15,1,,,,,リーファートラックサポートプロ,0
144,1120101072272,新規,0,2025-08-15,2025-08-15,株式会社ミライストカンパニーＺＥＲＯ　ＯＮＥ,,株式会社,大阪府,羽曳野市,野々上４丁目５番２号,,27,222,5830871,,,,,,,2025-08-15,1,,,,,ミライストカンパニーゼロワン,0
145,1120103006641,新規,0,2025-08-15,2025-08-15,合同会社ミライ,,合同会社,大阪府,松原市,阿保２丁目７２－５,,27,217,5800043,,,,,,,2025-08-15,1,,,,,ミライ,0
147,1120901051310,新規,0,2025-08-15,2025-08-15,株式会社ＭＨ,,株式会社,大阪府,豊中市,庄内栄町５丁目９番２号,,27,203,5610834,,,,,,,2025-08-15,1,,,,,エムエイチ,0
152,1130001080242,新規,0,2025-08-15,2025-08-15,株式会社ＫＳＡ電設,,株式会社,京都府,福知山市,字堀２０８６番地の３,,26,201,6200000,,,,,,,2025-08-15,1,,,,,ケーエスエーデンセツ,0
155,1130005017430,新規,0,2025-08-15,2025-08-15,医療法人ＴＡＯ,,その他の設立登記法人,京都府,京都市下京区,綾小路通烏丸西入童侍者町１６１番地２丸全ビル３階,,26,106,6008421,,,,,,,2025-08-15,1,,,,,タオ,0
158,1140001139681,新規,0,2025-08-15,2025-08-15,株式会社ＫＳＫカンパニー,,株式会社,兵庫県,西宮市,上甲東園１丁目２２番１２号,,28,204,6620813,,,,,,,2025-08-15,1,,,,,ケイエスケイカンパニー,0
161,1140003022448,新規,0,2025-08-15,2025-08-15,ミントファミリー合同会社,,合同会社,兵庫県,神戸市中央区,花隈町２３番２号ハイツグラナダ１Ｆ,,28,110,6500013,,,,,,,2025-08-15,1,,,,,ミントファミリー,0
162,1140005027602,新規,0,2025-08-15,2025-08-15,一般社団法人神戸セルフブランディング協会,,その他の設立登記法人,兵庫県,神戸市中央区,磯辺通１丁目１番１８号カサベラ国際プラザビル７０７号室,,28,110,6510084,,,,,,,2025-08-15,1,,,,,コウベセルフブランディングキョウカイ,0
165,1160001026993,新規,0,2025-08-15,2025-08-15,株式会社ＩＣＨＩＫＡ,,株式会社,滋賀県,大津市,今堅田２丁目１７－１０ナイスタウン青山５号,,25,201,5200241,,,,,,,2025-08-15,1,,,,,イチカ,0
169,1180001167860,新規,0,2025-08-15,2025-08-15,蓮営株式会社,,株式会社,愛知県,尾張旭市,新居町上の田２８８２－５ファミールイレブン１０３,,23,226,4880073,,,,,,,2025-08-15,1,,,,,レンエイ,0
170,1180001168058,新規,0,2025-08-15,2025-08-15,株式会社峰和,,株式会社,愛知県,春日井市,味美西本町１６０６番地,,23,206,4860967,,,,,,,2025-08-15,1,,,,,ホウワ,0
171,1180001168066,新規,0,2025-08-15,2025-08-15,株式会社リクシード,,株式会社,愛知県,名古屋市西区,牛島町６番１号,,23,104,4510046,,,,,,,2025-08-15,1,,,,,リクシード,0
172,1180001168099,新規,0,2025-08-15,2025-08-15,株式会社天根,,株式会社,愛知県,稲沢市,祖父江町森上本郷五８７－３－Ａ１０１,,23,220,4950011,,,,,,,2025-08-15,1,,,,,アマネ,0
173,1180001168116,新規,0,2025-08-15,2025-08-15,株式会社ワイズ,,株式会社,愛知県,日進市,岩崎台３丁目８２７番地５,,23,230,4700135,,,,,,,2025-08-15,1,,,,,ワイズ,0
174,1180001168231,新規,0,2025-08-15,2025-08-15,つきさゆ不動産株式会社,,株式会社,愛知県,岩倉市,野寄町東出２番地,,23,228,4820016,,,,,,,2025-08-15,1,,,,,ツキサユフドウサン,0
177,1180003028854,新規,0,2025-08-15,2025-08-15,合同会社ＳｏｌｉｄＶｉｓｉｏｎ,,合同会社,愛知県,丹羽郡扶桑町,大字柏森字西前２２０番地,,23,362,4800103,,,,,,,2025-08-15,1,,,,,ソリッドビジョン,0
178,1180003028862,新規,0,2025-08-15,2025-08-15,合同会社来来,,合同会社,愛知県,名古屋市天白区,塩釜口２丁目１５０１フェイム塩釜１Ｆ,,23,116,4680073,,,,,,,2025-08-15,1,,,,,ライライ,0
180,1180005021188,新規,0,2025-08-15,2025-08-15,行政書士法人心,,その他の設立登記法人,愛知県,名古屋市中村区,椿町１４番１３号,,23,105,4530015,,,,,,,2025-08-15,1,,,,,ココロ,0
181,1180005021196,新規,0,2025-08-15,2025-08-15,一般社団法人アジアブランド自由貿易促進総会,,その他の設立登記法人,愛知県,名古屋市中川区,五月通１丁目２２番地２ハイムハナイ３０２号室,,23,110,4540812,,,,,,,2025-08-15,1,,,,,アジアブランドジユウボウエキソクシンソウカイ,0
183,1180303006691,新規,0,2025-08-15,2025-08-15,合同会社アグリ,,合同会社,愛知県,豊田市,若林東町東山４０番地８,,23,211,4730914,,,,,,,2025-08-15,1,,,,,アグリ,0
186,1190001032477,新規,0,2025-08-15,2025-08-15,株式会社ＯＭＩＹＡ,,株式会社,三重県,津市,久居射場町１０１番地１,,24,201,5141108,,,,,,,2025-08-15,1,,,,,オミヤ,0
188,1190003005142,新規,0,2025-08-15,2025-08-15,アセンダ合同会社,,合同会社,三重県,熊野市,飛鳥町野口９８番地１,,24,212,5194565,,,,,,,2025-08-15,1,,,,,,0
190,1230001021046,新規,0,2025-08-15,2025-08-15,株式会社ＫＥＳＬＥＲ,,株式会社,富山県,富山市,赤田１４４‐７,,16,201,9398064,,,,,,,2025-08-15,1,,,,,ケスラー,0
202,1260003005309,新規,0,2025-08-15,2025-08-15,合同会社ＩＮＴＥＲＦＡＣＥ,,合同会社,岡山県,岡山市中区,旭東町２丁目９番１５号,,33,102,7038286,,,,,,,2025-08-15,1,,,,,インターフェイス,0
206,1290001111064,新規,0,2025-08-15,2025-08-15,株式会社ワンプレイス,,株式会社,福岡県,福岡市早良区,高取１丁目５番８－３０１号,,40,137,8140011,,,,,,,2025-08-15,1,,,,,ワンプレイス,0
209,1290003017210,新規,0,2025-08-15,2025-08-15,一から十合同会社,,合同会社,福岡県,福岡市博多区,昭南町３丁目４番３０－７０２号グランピア南福岡,,40,132,8120876,,,,,,,2025-08-15,1,,,,,イチカラジュウ,0
214,1320001021284,新規,0,2025-08-15,2025-08-15,株式会社Ｎｏｂｏｄｙ,,株式会社,大分県,大分市,要町３番３９号ＲＪＲプレシア大分駅前３０４号室,,44,201,8700831,,,,,,,2025-08-15,1,,,,,ノーバディ,0
223,1360005007268,新規,0,2025-08-15,2025-08-15,一般社団法人碧会,,その他の設立登記法人,沖縄県,浦添市,牧港５丁目５番５－１０２号,,47,208,9012131,,,,,,,2025-08-15,1,,,,,ミドリカイ,0
226,1370003007252,新規,0,2025-08-15,2025-08-15,ＳＬｅｄｇｅｒ合同会社,,合同会社,宮城県,亘理郡亘理町,逢隈牛袋字境１１６番地１,00140296,04,361,9892302,,,,,,,2025-08-15,1,,,,,エスレジャー,0
230,1380001035527,新規,0,2025-08-15,2025-08-15,株式会社喜一ファーム,,株式会社,福島県,喜多方市,松山町大飯坂字村前７７番地,,07,208,9660903,,,,,,,2025-08-15,1,,,,,キイチファーム,0
236,1420001019236,新規,0,2025-08-15,2025-08-15,株式会社トラストデンタルラボ,,株式会社,青森県,青森市,浪館前田４丁目２番１２号,,02,201,0380024,,,,,,,2025-08-15,1,,,,,トラストデンタルラボ,0
248,2010003048298,新規,0,2025-08-15,2025-08-15,ケアカインド合同会社,,合同会社,東京都,中央区,晴海１丁目７番２－４０２号,,13,102,1040053,,,,,,,2025-08-15,1,,,,,ケアカインド,0
249,2010003048356,新規,0,2025-08-15,2025-08-15,ＥＧ小美玉不動産合同会社,,合同会社,東京都,千代田区,麹町４丁目５番２１号,,13,101,1020083,,,,,,,2025-08-15,1,,,,,イージーオミタマフドウサン,0
250,2010003048389,新規,0,2025-08-15,2025-08-15,Ｂ１４　Ｊａｐａｎ合同会社,,合同会社,東京都,中央区,銀座４丁目１４番１１号七十七銀座ビル８階,,13,102,1040061,,,,,,,2025-08-15,1,,,,,ビーフォーティーンジャパン,0
251,2010003048406,新規,0,2025-08-15,2025-08-15,リバーフロント水天宮Ｌ合同会社,,合同会社,東京都,千代田区,霞が関３丁目２番５号,,13,101,1000013,,,,,,,2025-08-15,1,,,,,リバーフロントスイテングウエル,0
252,2010003048422,新規,0,2025-08-15,2025-08-15,合同会社ホーム２,,合同会社,東京都,千代田区,丸の内１丁目４番１号東京共同会計事務所内,,13,101,1000005,,,,,,,2025-08-15,1,,,,,ホームニ,0
253,2010003048439,新規,0,2025-08-15,2025-08-15,合同会社バッテリーパーク１９,,合同会社,東京都,千代田区,有楽町１丁目１番２号東京ミッドタウン日比谷日比谷三井タワー３３０２号室,,13,101,1000006,,,,,,,2025-08-15,1,,,,,バッテリーパークナインティーン,0
254,2010005040542,新規,0,2025-08-15,2025-08-15,一般社団法人黒岳,,その他の設立登記法人,東京都,千代田区,丸の内１丁目４番１号東京共同会計事務所内,,13,101,1000005,,,,,,,2025-08-15,1,,,,,クロダケ,0
258,2010401192441,新規,0,2025-08-15,2025-08-15,イザークコンサルティング株式会社,,株式会社,東京都,港区,北青山１丁目３番３号三橋ビル３階,,13,103,1070061,,,,,,,2025-08-15,1,,,,,イザークコンサルティング,0
260,2010403035805,新規,0,2025-08-15,2025-08-15,合同会社Ｅ＆Ｊスタジオ,,合同会社,東京都,港区,南青山３丁目１－３６青山丸竹ビル６Ｆ,,13,103,1070062,,,,,,,2025-08-15,1,,,,,イーアンドジェースタジオ,0
268,2010601067807,新規,0,2025-08-15,2025-08-15,株式会社アガスティアライフサポート,,株式会社,東京都,江東区,富岡２丁目１１番１８号リードシー門前仲町６階,,13,108,1350047,,,,,,,2025-08-15,1,,,,,アガスティアライフサポート,0
273,2010701048137,新規,0,2025-08-15,2025-08-15,Ｓｏｌｖｅｒ　Ｈｏｌｄｉｎｇｓ株式会社,,株式会社,東京都,品川区,南大井６丁目２４番１０号カドヤ第１０ビル５Ｆ,,13,109,1400013,,,,,,,2025-08-15,1,,,,,ソルバーホールディングス,0
274,2010701048161,新規,0,2025-08-15,2025-08-15,日本クラウド産業株式会社,,株式会社,東京都,品川区,西五反田７丁目１７番７号五反田第１ｎｏｔｅビル５階,,13,109,1410031,,,,,,,2025-08-15,1,,,,,ニホンクラウドサンギョウ,0
277,2010903010191,新規,0,2025-08-15,2025-08-15,合同会社Ｋ　ｃｏｍｐａｎｙ,,合同会社,東京都,世田谷区,八幡山２丁目１５番６－１０６号,,13,112,1560056,,,,,,,2025-08-15,1,,,,,ケイカンパニー,0
282,2011001171892,新規,0,2025-08-15,2025-08-15,株式会社ＫＥＹ‐Ｍ,,株式会社,東京都,渋谷区,広尾２丁目７番２１号,,13,113,1500012,,,,,,,2025-08-15,1,,,,,キーエム,0
289,2011101112862,新規,0,2025-08-15,2025-08-15,株式会社ＨＡＣＨＩＷＡＣＨＩ,,株式会社,東京都,新宿区,新宿２丁目１２－１３新宿アントレサロンビル２Ｆ,,13,104,1600022,,,,,,,2025-08-15,1,,,,,ハチワチ,0
290,2011103016186,新規,0,2025-08-15,2025-08-15,合同会社Ｒｉｉｎａ,,合同会社,東京都,新宿区,西新宿３丁目３番１３号西新宿水間ビル２Ｆ,,13,104,1600023,,,,,,,2025-08-15,1,,,,,リィイナ,0
294,2011301030807,新規,0,2025-08-15,2025-08-15,株式会社Ｅｕｐｈｏｒｉａ,,株式会社,東京都,杉並区,今川２丁目４番７号,,13,115,1670035,,,,,,,2025-08-15,1,,,,,ユーフォリア,0
295,2011401027331,新規,0,2025-08-15,2025-08-15,株式会社エターナルボンド,,株式会社,東京都,板橋区,板橋１丁目４３番６号宝ビル５階,,13,119,1730004,,,,,,,2025-08-15,1,,,,,エターナルボンド,0
309,2011801046600,新規,0,2025-08-15,2025-08-15,株式会社信和,,株式会社,東京都,足立区,入谷２丁目２２番１４号,,13,121,1210836,,,,,,,2025-08-15,1,,,,,シンワ,0
312,2012401043483,新規,0,2025-08-15,2025-08-15,株式会社ＡＢＣ,,株式会社,東京都,府中市,八幡町１丁目１７番地の１６,,13,206,1830016,,,,,,,2025-08-15,1,,,,,エービーシー,0
313,2012401043491,新規,0,2025-08-15,2025-08-15,株式会社ＣＯＬ．ＧＯＬＦ　ＪＡＰＡＮ,,株式会社,東京都,三鷹市,新川４丁目２５番８‐７０２号,,13,204,1810004,,,,,,,2025-08-15,1,,,,,シーオーエルゴルフジャパン,0
315,2013101009774,新規,0,2025-08-15,2025-08-15,株式会社車楽,,株式会社,東京都,西多摩郡瑞穂町,箱根ケ崎東松原１６番地４,,13,303,1901222,,,,,,,2025-08-15,1,,,,,シャラク,0
323,2021001086025,新規,0,2025-08-15,2025-08-15,株式会社ＴＳＭ,,株式会社,神奈川県,平塚市,小鍋島２５１０番地の２,,14,203,2540004,,,,,,,2025-08-15,1,,,,,ティーエスエム,0
324,2021001086082,新規,0,2025-08-15,2025-08-15,株式会社ｔｅｌｌｅ　ｔｔｅｌｅ,,株式会社,神奈川県,三浦郡葉山町,堀内９９９番地葉山スリーナイン２０３,,14,301,2400112,,,,,,,2025-08-15,1,,,,,テレテレ,0
325,2021001086090,新規,0,2025-08-15,2025-08-15,株式会社リノア,,株式会社,神奈川県,逗子市,逗子１丁目７番２４号－３階,,14,208,2490006,,,,,,,2025-08-15,1,,,,,リノア,0
328,2021003016392,新規,0,2025-08-15,2025-08-15,合同会社Ｍａｇｎｏｌｉｅ,,合同会社,神奈川県,逗子市,久木７丁目９番３５号,,14,208,2490001,,,,,,,2025-08-15,1,,,,,マグノーリエ,0
334,2030005022241,新規,0,2025-08-15,2025-08-15,一般財団法人なかんち三室,,その他の設立登記法人,埼玉県,さいたま市緑区,大字三室２１１９番地,,11,109,3360911,,,,,,,2025-08-15,1,,,,,ナカンチミムロ,0
337,2040001140005,新規,0,2025-08-15,2025-08-15,株式会社バロン,,株式会社,千葉県,香取市,北３丁目７番地１２豊島ビル,,12,236,2870002,,,,,,,2025-08-15,1,,,,,バロン,0
338,2040001140013,新規,0,2025-08-15,2025-08-15,株式会社バズリンク,,株式会社,千葉県,袖ケ浦市,神納２３７４番地２４,,12,229,2990257,,,,,,,2025-08-15,1,,,,,バズリンク,0
339,2040001140021,新規,0,2025-08-15,2025-08-15,株式会社仁遊人,,株式会社,千葉県,いすみ市,岬町和泉９２８番地１,,12,238,2994503,,,,,,,2025-08-15,1,,,,,ジユウジン,0
344,2050001057090,新規,0,2025-08-15,2025-08-15,小谷野造園株式会社,,株式会社,茨城県,つくば市,要３４４番地９,,08,220,3002622,,,,,,,2025-08-15,1,,,,,コヤノゾウエン,0
345,2050001057099,新規,0,2025-08-15,2025-08-15,株式会社彩葉カンパニー,,株式会社,茨城県,つくば市,稲荷原１２７１番地１３,,08,220,3001259,,,,,,,2025-08-15,1,,,,,イロハカンパニー,0
347,2050003009494,新規,0,2025-08-15,2025-08-15,ＵＰＤＲＡＦＴ合同会社,,合同会社,茨城県,石岡市,総社２丁目１０番９号,,08,205,3150016,,,,,,,2025-08-15,1,,,,,アップドラフト,0
349,2060001038511,新規,0,2025-08-15,2025-08-15,株式会社ヤスノコーポレーション,,株式会社,栃木県,小山市,暁１丁目１３番１６号,,09,208,3290211,,,,,,,2025-08-15,1,,,,,ヤスノコーポレーション,0
353,2070001043270,新規,0,2025-08-15,2025-08-15,株式会社メリッタ,,株式会社,群馬県,藤岡市,立石１４７０番地１,,10,209,3750002,,,,,,,2025-08-15,1,,,,,メリッタ,0
362,2100001038878,新規,0,2025-08-15,2025-08-15,株式会社Ａ２Ｃ,,株式会社,長野県,諏訪市,渋崎１７９２－４１３,,20,206,3920010,,,,,,,2025-08-15,1,,,,,エーツーシー,0
368,2110001039512,新規,0,2025-08-15,2025-08-15,株式会社難波工業,,株式会社,新潟県,燕市,花見１０５１番地,,15,213,9591280,,,,,,,2025-08-15,1,,,,,ナンバコウギョウ,0
386,2120001278415,新規,0,2025-08-15,2025-08-15,ＨＯＲＩＺＯＮ株式会社,,株式会社,大阪府,大阪市東住吉区,杭全１丁目１７－１７Ｔｉｎａ天王寺東ビル４０２号室,,27,121,5460002,,,,,,,2025-08-15,1,,,,,ホリゾン,0
387,2120001278712,新規,0,2025-08-15,2025-08-15,株式会社ＴＥＣ　ＴＥＣ　ＢＥＡＲ,,株式会社,大阪府,大阪市西区,新町１丁目１４番２１－１８０７号,,27,106,5500013,,,,,,,2025-08-15,1,,,,,テックテックベアー,0
388,2120001278745,新規,0,2025-08-15,2025-08-15,嘉悦株式会社,,株式会社,大阪府,大阪市此花区,春日出北３丁目１３番３７－４０６号,,27,104,5540021,,,,,,,2025-08-15,1,,,,,カエツ,0
389,2120001278753,新規,0,2025-08-15,2025-08-15,株式会社キャリアハックス,,株式会社,大阪府,大阪市福島区,福島６丁目８番１３－１２０２号,,27,103,5530003,,,,,,,2025-08-15,1,,,,,キャリアハックス,0
390,2120001278761,新規,0,2025-08-15,2025-08-15,株式会社空哉,,株式会社,大阪府,大阪市中央区,本町４丁目４番１７号ＲＥ－０１２－７０１号,,27,128,5410053,,,,,,,2025-08-15,1,,,,,クウヤ,0
391,2120001278910,新規,0,2025-08-15,2025-08-15,新宇株式会社,,株式会社,大阪府,大阪市住吉区,殿辻１丁目２番２６シーズコート住吉１０５号,,27,120,5580042,,,,,,,2025-08-15,1,,,,,シンウ,0
395,2120101072271,新規,0,2025-08-15,2025-08-15,株式会社花野果,,株式会社,大阪府,河内長野市,荘園町１３番１１号,,27,216,5860093,,,,,,,2025-08-15,1,,,,,ハナヤカ,0
397,2120103006640,新規,0,2025-08-15,2025-08-15,合同会社菊日和,,合同会社,大阪府,泉南郡熊取町,南山の手台５－２７,,27,361,5900453,,,,,,,2025-08-15,1,,,,,キクビヨリ,0
398,2120105010054,新規,0,2025-08-15,2025-08-15,ＮＰＯ法人みるふぃーゆ,,その他の設立登記法人,大阪府,堺市東区,菩提町３丁３９番地１４７,,27,143,5998103,,,,,,,2025-08-15,1,,,,,ミルフィーユ,0
401,2120901051284,新規,0,2025-08-15,2025-08-15,メディカルエージェンシー株式会社,,株式会社,大阪府,豊中市,本町３丁目１番１５号,,27,203,5600021,,,,,,,2025-08-15,1,,,,,メディカルエージェンシー,0
411,2140001139656,新規,0,2025-08-15,2025-08-15,株式会社笑楽,,株式会社,兵庫県,川西市,美園町１２－５,,28,217,6660013,,,,,,,2025-08-15,1,,,,,ショウラク,0
412,2140001139664,新規,0,2025-08-15,2025-08-15,株式会社大山土木興業,,株式会社,兵庫県,神戸市中央区,磯辺通１丁目１番１８号カサベラ国際プラザビル７０７号室,,28,110,6510084,,,,,,,2025-08-15,1,,,,,オオヤマドボクコウギョウ,0
414,2140003022447,新規,0,2025-08-15,2025-08-15,ビジョンブレイン合同会社,,合同会社,兵庫県,西宮市,神原１５番５２号,,28,204,6620021,,,,,,,2025-08-15,1,,,,,ビジョンブレイン,0
417,2140005027601,新規,0,2025-08-15,2025-08-15,一般社団法人ＧＯＤ　ＬＵＣＫ,,その他の設立登記法人,兵庫県,加古川市,東神吉町神吉１３３９番地の１,,28,210,6750057,,,,,,,2025-08-15,1,,,,,ゴッドラック,0
420,2160003003569,新規,0,2025-08-15,2025-08-15,Ｓ．Ｈｉｇａ合同会社,,合同会社,滋賀県,湖南市,岩根４００７番地,,25,211,5203252,,,,,,,2025-08-15,1,,,,,エスヒガ,0
421,2170001018758,新規,0,2025-08-15,2025-08-15,株式会社クリエーション耕成,,株式会社,和歌山県,和歌山市,有本４５３番地,,30,201,6408390,,,,,,,2025-08-15,1,,,,,クリエーションコウセイ,0
424,2180001168057,新規,0,2025-08-15,2025-08-15,株式会社ヨコヤマ,,株式会社,愛知県,名古屋市北区,金城３丁目３番２６号,,23,103,4620847,,,,,,,2025-08-15,1,,,,,ヨコヤマ,0
425,2180001168098,新規,0,2025-08-15,2025-08-15,株式会社ＭＲＴ　ｇａｒａｇｅ,,株式会社,愛知県,尾張旭市,狩宿町１丁目１１７番地５,,23,226,4880021,,,,,,,2025-08-15,1,,,,,エムアールティガレージ,0
426,2180001168115,新規,0,2025-08-15,2025-08-15,株式会社ＣＨＥＬＳＥＡ,,株式会社,愛知県,名古屋市中区,錦３丁目１４番２８号パープルヘイズビル３階Ａ,,23,106,4600003,,,,,,,2025-08-15,1,,,,,チェルシー,0
427,2180001168123,新規,0,2025-08-15,2025-08-15,ＨＤＧホールディングス株式会社,,株式会社,愛知県,北名古屋市,九之坪北浦３１番地,,23,234,4810041,,,,,,,2025-08-15,1,,,,,エイチディージーホールディングス,0
428,2180001168214,新規,0,2025-08-15,2025-08-15,株式会社スペシャルサムシング,,株式会社,愛知県,名古屋市中川区,三ツ池町２丁目３５番地,,23,110,4540811,,,,,,,2025-08-15,1,,,,,スペシャルサムシング,0
430,2180003028861,新規,0,2025-08-15,2025-08-15,ＦｉｎａＬｉｎｋ合同会社,,合同会社,愛知県,名古屋市名東区,社台３丁目１２番地の１（ディーラ社台１０２号）,,23,115,4650092,,,,,,,2025-08-15,1,,,,,ファイナリンク,0
431,2180005021187,新規,0,2025-08-15,2025-08-15,行政書士法人名功行政事務センター,,その他の設立登記法人,愛知県,あま市,篠田南長無２２番地,,23,237,4901211,,,,,,,2025-08-15,1,,,,,メイコウギョウセイジムセンター,0
438,2180303006690,新規,0,2025-08-15,2025-08-15,合同会社ＭＡＨＡＬＯ,,合同会社,愛知県,豊田市,東山町２丁目１０５５番地１,,23,211,4710014,,,,,,,2025-08-15,1,,,,,マハロ,0
446,2200001044148,新規,0,2025-08-15,2025-08-15,株式会社中京,,株式会社,岐阜県,関市,豊岡町２丁目３番２３号,,21,205,5013916,,,,,,,2025-08-15,1,,,,,チュウキョウ,0
464,2290001111030,新規,0,2025-08-15,2025-08-15,株式会社ＶＡＵＮＴＥＥ,,株式会社,福岡県,福岡市南区,清水１丁目６番２２－１０３号,,40,134,8150031,,,,,,,2025-08-15,1,,,,,バウンティー,0
466,2290005019807,新規,0,2025-08-15,2025-08-15,一般社団法人未来を生きる子供たち,,その他の設立登記法人,福岡県,福岡市博多区,博多駅東１丁目１９番１６号,,40,132,8120013,,,,,,,2025-08-15,1,,,,,ミライヲイキルコドモタチ,0
468,2290803005132,新規,0,2025-08-15,2025-08-15,合同会社ＬＵＣ不動産メンテナンス,,合同会社,福岡県,北九州市小倉北区,熊谷２丁目２１番１７号,,40,106,8030864,,,,,,,2025-08-15,1,,,,,エルユーシーフドウサンメンテナンス,0
473,2330001033492,新規,0,2025-08-15,2025-08-15,ＴＭＳマネジメント株式会社,,株式会社,熊本県,熊本市中央区,国府本町６番２３号,,43,101,8620948,,,,,,,2025-08-15,1,,,,,ティーエムエスマネジメント,0
478,2330003011174,新規,0,2025-08-15,2025-08-15,合同会社ハーベシア,,合同会社,熊本県,宇城市,松橋町浅川２０６番地３,,43,213,8690544,,,,,,,2025-08-15,1,,,,,ハーベシア,0
480,2340001027584,新規,0,2025-08-15,2025-08-15,株式会社宮園製茶園,,株式会社,鹿児島県,薩摩川内市,入来町浦之名１０３８８番地,,46,215,8951402,,,,,,,2025-08-15,1,,,,,ミヤゾノセイチャエン,0
493,2360003015164,新規,0,2025-08-15,2025-08-15,合同会社Ｗｅｌｉｎａ,,合同会社,沖縄県,那覇市,首里大名町３丁目４番地,,47,201,9030802,,,,,,,2025-08-15,1,,,,,ウェリナ,0
501,2370003007251,新規,0,2025-08-15,2025-08-15,Ｔｅｒｒａ‐ｃａｓｔ合同会社,,合同会社,宮城県,仙台市青葉区,荒巻字青葉４６８－１東北大学マテリアル・イノベーション・センター青葉山ガレージ,,04,101,9800845,,,,,,,2025-08-15,1,,,,,テラキャスト,0
504,2380001035526,新規,0,2025-08-15,2025-08-15,株式会社都路企画,,株式会社,福島県,田村市,都路町古道字新町４５,,07,211,9634701,,,,,,,2025-08-15,1,,,,,ミヤコジキカク,0
508,2420001019235,新規,0,2025-08-15,2025-08-15,株式会社Ｌｕｍｏａ,,株式会社,青森県,八戸市,大字尻内町字メドツ河原１０番地３,,02,203,0391101,,,,,,,2025-08-15,1,,,,,ルモア,0
509,2420003003170,新規,0,2025-08-15,2025-08-15,たゆたう箱合同会社,,合同会社,青森県,八戸市,大字大久保字西ノ平２５番地３７１,,02,203,0310833,,,,,,,2025-08-15,1,,,,,タユタウハコ,0
511,2430001094979,新規,0,2025-08-15,2025-08-15,株式会社幸栄,,株式会社,北海道,室蘭市,宮の森町２丁目１０番１３号,,01,205,0500073,,,,,,,2025-08-15,1,,,,,コウエイ,0
512,2430003017962,新規,0,2025-08-15,2025-08-15,ＲＳ合同会社,,合同会社,北海道,札幌市中央区,南二条東２丁目３番地１創成グランドハイツ９０６,,01,101,0600052,,,,,,,2025-08-15,1,,,,,アールエス,0
513,2430003017970,新規,0,2025-08-15,2025-08-15,合同会社Ｍｉｔｔｅ,,合同会社,北海道,美唄市,字美唄１５６８番地８,,01,215,0720000,,,,,,,2025-08-15,1,,,,,ミッテ,0
514,2440001009671,新規,0,2025-08-15,2025-08-15,株式会社Ｆｏｕｒ　Ｓｑｕｉｒｒｅｌｓ,,株式会社,北海道,函館市,白鳥町１１－１３コーポ白鳥Ａ号室,,01,202,0400082,,,,,,,2025-08-15,1,,,,,フォースクワラルズ,0
516,2700150131794,新規,0,2025-08-15,2025-08-15,ＡＤＨＮＡＮ　ＩＮＴＥＲＮＡＴＩＯＮＡＬ　ＰＲＩＶＡＴＥリミテッド,,外国会社等,長野県,東御市,御牧原９９－３,,20,219,3890403,スリランカ民主社会主義共和国、キャンディ、レークロード、８／１番,,,,,,2025-08-15,1,,,,,アドナンインターナシヨナルプライベートリミテツド,0
522,3010001257536,新規,0,2025-08-15,2025-08-15,Ｙｉｅｌｄｃｒａｆｔ株式会社,,株式会社,東京都,千代田区,神田須田町１丁目２４－６ＡＣＮ神田須田町ビル１１Ｆ,,13,101,1010041,,,,,,,2025-08-15,1,,,,,イールドクラフト,0
523,3010001257627,新規,0,2025-08-15,2025-08-15,株式会社ＰＡＲＩＳ　ＰＲＥＳＳ,,株式会社,東京都,中央区,銀座８丁目９番１号銀座中央通りＭＭビル,,13,102,1040061,,,,,,,2025-08-15,1,,,,,パリプレス,0
524,3010001257668,新規,0,2025-08-15,2025-08-15,株式会社ＮＯＫＯ　ＷＯＲＫＳ,,株式会社,東京都,中央区,銀座１丁目２２－１１銀座大竹ビジデンス２Ｆ,,13,102,1040061,,,,,,,2025-08-15,1,,,,,ノコワークス,0
525,3010003048347,新規,0,2025-08-15,2025-08-15,ブックルー合同会社,,合同会社,東京都,千代田区,平河町１丁目３番６号ＢＩＺＭＡＲＫＳ麹町ＴＨＥＨＵＢ半蔵門２階,,13,101,1020093,,,,,,,2025-08-15,1,,,,,,0
526,3010003048363,新規,0,2025-08-15,2025-08-15,Ｆａｒｍｔ合同会社,,合同会社,東京都,八丈島八丈町,三根３５５番地１,,13,401,1001511,,,,,,,2025-08-15,1,,,,,ファームト,0
527,3010003048388,新規,0,2025-08-15,2025-08-15,Ｂ１５　Ｊａｐａｎ合同会社,,合同会社,東京都,中央区,銀座４丁目１４番１１号七十七銀座ビル８階,,13,102,1040061,,,,,,,2025-08-15,1,,,,,ビーフィフティーンジャパン,0
528,3010003048405,新規,0,2025-08-15,2025-08-15,リバーフロント水天宮Ｃ合同会社,,合同会社,東京都,千代田区,霞が関３丁目２番５号,,13,101,1000013,,,,,,,2025-08-15,1,,,,,リバーフロントスイテングウシー,0
529,3010003048421,新規,0,2025-08-15,2025-08-15,合同会社ホーム１,,合同会社,東京都,千代田区,丸の内１丁目４番１号東京共同会計事務所内,,13,101,1000005,,,,,,,2025-08-15,1,,,,,ホームイチ,0
530,3010003048438,新規,0,2025-08-15,2025-08-15,合同会社バッテリーパーク１８,,合同会社,東京都,千代田区,有楽町１丁目１番２号東京ミッドタウン日比谷日比谷三井タワー３３０２号室,,13,101,1000006,,,,,,,2025-08-15,1,,,,,バッテリーパークエイティーン,0
536,3010405024680,新規,0,2025-08-15,2025-08-15,一般社団法人ピタゴラス,,その他の設立登記法人,東京都,港区,虎ノ門５丁目１番４号,,13,103,1050001,,,,,,,2025-08-15,1,,,,,ピタゴラス,0
538,3010703007858,新規,0,2025-08-15,2025-08-15,合同会社Ｈ・Ｓ・Ｋ,,合同会社,東京都,品川区,南大井６丁目７－２ＳＨＩＮＡＧＡＷＡＯＩＧＡＲＤＥＮ４Ｆ－Ａ,00140304,13,109,1400013,,,,,,,2025-08-15,1,,,,,エイチエスケー,0
541,3010801036494,新規,0,2025-08-15,2025-08-15,株式会社立川フロアー,,株式会社,東京都,大田区,西蒲田１丁目２０番２号,,13,111,1440051,,,,,,,2025-08-15,1,,,,,タチカワフロアー,0
543,3010901057911,新規,0,2025-08-15,2025-08-15,ａｗａｉ株式会社,,株式会社,東京都,世田谷区,北沢１丁目４４番８号,,13,112,1550031,,,,,,,2025-08-15,1,,,,,アワイ,0
545,3010903010199,新規,0,2025-08-15,2025-08-15,ＡＨＫ　ｗｏｒｋｓ合同会社,,合同会社,東京都,世田谷区,上野毛４丁目１番８号,,13,112,1580093,,,,,,,2025-08-15,1,,,,,エーエイチケーワークス,0
549,3011103016276,新規,0,2025-08-15,2025-08-15,ＡＣＴＩＰＬＡＹＯＲＡ合同会社,,合同会社,東京都,新宿区,西新宿３丁目３番１３号西新宿水間ビル２Ｆ,,13,104,1600023,,,,,,,2025-08-15,1,,,,,アクティプレイオラ,0
551,3011201026557,新規,0,2025-08-15,2025-08-15,株式会社スタープラチナ,,株式会社,東京都,中野区,中央５丁目３９番３号－１０３,,13,114,1640011,,,,,,,2025-08-15,1,,,,,スタープラチナ,0
554,3011403004798,新規,0,2025-08-15,2025-08-15,合同会社裕成興業,,合同会社,東京都,板橋区,高島平１丁目３３－５エクセレント３０１号室,,13,119,1750082,,,,,,,2025-08-15,1,,,,,ユウセイコウギョウ,0
559,3011503006645,新規,0,2025-08-15,2025-08-15,合同会社Ｃｒｅｗｌｅｓｓ,,合同会社,東京都,荒川区,西尾久１丁目３２－１７,,13,118,1160011,,,,,,,2025-08-15,1,,,,,クルーレス,0
561,3011601028896,新規,0,2025-08-15,2025-08-15,株式会社ユガテ,,株式会社,東京都,練馬区,高野台４丁目５番３３号,,13,120,1770033,,,,,,,2025-08-15,1,,,,,ユガテ,0
572,3011803007021,新規,0,2025-08-15,2025-08-15,合同会社ＭＨＫ　ＣＯＲＰＯＲＡＴＩＯＮ,,合同会社,東京都,葛飾区,西新小岩４丁目３０－２ユネックスビル２０２,,13,122,1240025,,,,,,,2025-08-15,1,,,,,エムエイチケーコーポレーション,0
573,3012301014492,新規,0,2025-08-15,2025-08-15,ラグーン株式会社,,株式会社,東京都,町田市,小山町２９２番地,,13,209,1940212,,,,,,,2025-08-15,1,,,,,ラグーン,0
576,3012401043482,新規,0,2025-08-15,2025-08-15,ＧＦＦ株式会社,,株式会社,東京都,調布市,小島町２丁目１０番地２０,,13,208,1820026,,,,,,,2025-08-15,1,,,,,ジーエフエフ,0
577,3012403007270,新規,0,2025-08-15,2025-08-15,ＴＭキャタリストコンサルティング合同会社,,合同会社,東京都,調布市,小島町３丁目５７番地５,,13,208,1820026,,,,,,,2025-08-15,1,,,,,ティーエムキャタリストコンサルティング,0
580,3013101009773,新規,0,2025-08-15,2025-08-15,株式会社Ｙ＆Ａ,,株式会社,東京都,青梅市,長淵４丁目１３６５番地４,,13,205,1980052,,,,,,,2025-08-15,1,,,,,ワイアンドエー,0
590,3020003029148,新規,0,2025-08-15,2025-08-15,ビズレボ合同会社,,合同会社,神奈川県,横浜市西区,北幸１丁目１１番１号水信ビル７階,,14,103,2200004,,,,,,,2025-08-15,1,,,,,ビズレボ,0
594,3021001085967,新規,0,2025-08-15,2025-08-15,株式会社ＫＭＲ,,株式会社,神奈川県,大和市,福田７０２０番地１２,,14,213,2420024,,,,,,,2025-08-15,1,,,,,ケーエムアール,0
595,3021001086008,新規,0,2025-08-15,2025-08-15,株式会社喜多村工業,,株式会社,神奈川県,厚木市,三田南２丁目９番５号メゾン１２１７－２０１,,14,212,2430217,,,,,,,2025-08-15,1,,,,,キタムラコウギョウ,0
596,3021001086016,新規,0,2025-08-15,2025-08-15,株式会社ペガサス,,株式会社,神奈川県,茅ヶ崎市,萩園１１６０番地１０,,14,207,2530071,,,,,,,2025-08-15,1,,,,,ペガサス,0
597,3021001086024,新規,0,2025-08-15,2025-08-15,株式会社カーショウ,,株式会社,神奈川県,逗子市,久木８丁目１１番５号,,14,208,2490001,,,,,,,2025-08-15,1,,,,,カーショウ,0
598,3021001086049,新規,0,2025-08-15,2025-08-15,ＣａｒｓＦｒｏｍＪａｐａｎ株式会社,,株式会社,神奈川県,相模原市緑区,上九沢３５０番地１,,14,151,2520136,,,,,,,2025-08-15,1,,,,,カーズフロムジャパン,0
599,3021001086073,新規,0,2025-08-15,2025-08-15,ＥＫＫアセットマネジメント株式会社,,株式会社,神奈川県,藤沢市,湘南台１丁目２４番５号,,14,205,2520804,,,,,,,2025-08-15,1,,,,,イーケーケーアセットマネジメント,0
600,3021001086098,新規,0,2025-08-15,2025-08-15,株式会社ザウルス,,株式会社,神奈川県,相模原市南区,下溝１９９５番地１－１Ｆ,,14,153,2520335,,,,,,,2025-08-15,1,,,,,ザウルス,0
605,3021003016391,新規,0,2025-08-15,2025-08-15,合同会社Ｕ‐ＫＴ,,合同会社,神奈川県,厚木市,中町２丁目９番１７－１１０４号,,14,212,2430018,,,,,,,2025-08-15,1,,,,,ユーキット,0
606,3021003016400,新規,0,2025-08-15,2025-08-15,合同会社ＹＯＫＯ,,合同会社,神奈川県,藤沢市,藤沢８３５番地,,14,205,2510052,,,,,,,2025-08-15,1,,,,,ヨウコ,0
607,3021003016425,新規,0,2025-08-15,2025-08-15,ＨＯＦＵ合同会社,,合同会社,神奈川県,相模原市緑区,町屋３丁目１０番１号ベルメゾンソレイユＡ１０１,,14,151,2520101,,,,,,,2025-08-15,1,,,,,ホフ,0
608,3021003016433,新規,0,2025-08-15,2025-08-15,ＬＡＩＦＡ合同会社,,合同会社,神奈川県,藤沢市,辻堂東海岸１丁目４番２１－１号,,14,205,2510045,,,,,,,2025-08-15,1,,,,,ライファ,0
616,3030003027415,新規,0,2025-08-15,2025-08-15,合同会社カイコツ,,合同会社,埼玉県,三郷市,彦成３丁目１４番１―５０３号,,11,237,3410003,,,,,,,2025-08-15,1,,,,,カイコツ,0
618,3040001140004,新規,0,2025-08-15,2025-08-15,株式会社ビーリンク,,株式会社,千葉県,船橋市,本町２丁目２番７号船橋本町プラザビル７階,,12,204,2730005,,,,,,,2025-08-15,1,,,,,ビーリンク,0
619,3040001140012,新規,0,2025-08-15,2025-08-15,株式会社ＫＳＩ,,株式会社,千葉県,印西市,草深２３１６番地４,,12,231,2701337,,,,,,,2025-08-15,1,,,,,ケーエスアイ,0
620,3040001140029,新規,0,2025-08-15,2025-08-15,株式会社イシイ,,株式会社,千葉県,君津市,中野３丁目１２番１２号,,12,225,2991151,,,,,,,2025-08-15,1,,,,,イシイ,0
621,3040001140037,新規,0,2025-08-15,2025-08-15,株式会社子ども才能研究所,,株式会社,千葉県,流山市,おおたかの森西１丁目３７番地の８－２階,,12,220,2700128,,,,,,,2025-08-15,1,,,,,コドモサイノウケンキュウジョ,0
622,3040001140061,新規,0,2025-08-15,2025-08-15,株式会社レブナンツ・クルー,,株式会社,千葉県,千葉市中央区,亀井町１０番２８－２号,,12,101,2600011,,,,,,,2025-08-15,1,,,,,レブナンツクルー,0
623,3040001140078,新規,0,2025-08-15,2025-08-15,株式会社ＴＭＴ,,株式会社,千葉県,柏市,藤ケ谷４５３番地,,12,217,2770931,,,,,,,2025-08-15,1,,,,,ティーエムティー,0
626,3070001043261,新規,0,2025-08-15,2025-08-15,株式会社ボンジーア,,株式会社,群馬県,藤岡市,下栗須５３０番地,,10,209,3750014,,,,,,,2025-08-15,1,,,,,ボンジーア,0
627,3070003006035,新規,0,2025-08-15,2025-08-15,ワタナベ不動産合同会社,,合同会社,群馬県,吾妻郡嬬恋村,大字芦生田７７０－２２８,,10,425,3771523,,,,,,,2025-08-15,1,,,,,,0
634,3080401028118,新規,0,2025-08-15,2025-08-15,株式会社丸秀,,株式会社,静岡県,浜松市中央区,入野町９６１３番地,,22,138,4328061,,,,,,,2025-08-15,1,,,,,マルヒデ,0
641,3110001039511,新規,0,2025-08-15,2025-08-15,コメ工房株式会社,,株式会社,新潟県,南魚沼市,塩沢６１番地,,15,226,9496408,,,,,,,2025-08-15,1,,,,,コメコウボウ,0
655,3120001278703,新規,0,2025-08-15,2025-08-15,株式会社Ｏｏｐｓｃｉｔｙ,,株式会社,大阪府,枚方市,香里ケ丘６丁目１５－２２,,27,210,5730084,,,,,,,2025-08-15,1,,,,,ウップスシティ,0
656,3120001278728,新規,0,2025-08-15,2025-08-15,株式会社Ｒｉｃｅ,,株式会社,大阪府,大阪市北区,梅田１丁目１番３号大阪駅前第３ビル２９階１－１－１号室,,27,127,5300001,,,,,,,2025-08-15,1,,,,,ライス,0
657,3120001278736,新規,0,2025-08-15,2025-08-15,株式会社ＹＭＴ,,株式会社,大阪府,大阪市西区,江戸堀１丁目２３番２１号ビエラ江戸堀５０１,,27,106,5500002,,,,,,,2025-08-15,1,,,,,ワイエムティー,0
658,3120001278752,新規,0,2025-08-15,2025-08-15,誉徳株式会社,00140294,株式会社,大阪府,大阪市西成区,萩之茶屋２丁目５－２５－２０９号室,,27,122,5570004,,,,,,,2025-08-15,1,,,,,ヨトク,0
659,3120001278760,新規,0,2025-08-15,2025-08-15,株式会社イグレック,,株式会社,大阪府,大阪市西区,南堀江３丁目６番４号,,27,106,5500015,,,,,,,2025-08-15,1,,,,,イグレック,0
660,3120001278769,新規,0,2025-08-15,2025-08-15,新意達株式会社,,株式会社,大阪府,大阪市中央区,内久宝寺町３丁目１番１４号アザリア４０１号室,,27,128,5400013,,,,,,,2025-08-15,1,,,,,シンイタツ,0
661,3120001278827,新規,0,2025-08-15,2025-08-15,株式会社ｚｉ‐ｚａｉ,,株式会社,大阪府,大阪市北区,長柄東２丁目４番１１－５０４号,,27,127,5310063,,,,,,,2025-08-15,1,,,,,ジザイ,0
668,3120003030293,新規,0,2025-08-15,2025-08-15,合同会社ＳＵＧＡＲ　ＳＨＯＣＫ,,合同会社,大阪府,大阪市中央区,東心斎橋１丁目６番３１号リードプラザ心斎橋７階Ａ号室,,27,128,5420083,,,,,,,2025-08-15,1,,,,,シュガーショック,0
669,3120003030310,新規,0,2025-08-15,2025-08-15,ＴｉＤａ合同会社,,合同会社,大阪府,大阪市生野区,田島６丁目１１番２３号,,27,116,5440011,,,,,,,2025-08-15,1,,,,,ティダ,0
670,3120101072262,新規,0,2025-08-15,2025-08-15,ＡＫ　ＴＲＡＤＩＮＧ株式会社,,株式会社,大阪府,堺市堺区,三宝町４丁２６８番地,,27,141,5900906,,,,,,,2025-08-15,1,,,,,エーケートレーディング,0
671,3120101072279,新規,0,2025-08-15,2025-08-15,株式会社キノシタキッチンスタジオ,,株式会社,大阪府,堺市南区,富蔵５９８番地,,27,145,5900127,,,,,,,2025-08-15,1,,,,,キノシタキッチンスタジオ,0
673,3120903005799,新規,0,2025-08-15,2025-08-15,合同会社Ａｒｂｏｕｒ,,合同会社,大阪府,池田市,鉢塚１丁目５番８－２号,,27,204,5630024,,,,,,,2025-08-15,1,,,,,アーバー,0
674,3122003003279,新規,0,2025-08-15,2025-08-15,紫細線商貿合同会社,,合同会社,大阪府,八尾市,東山本新町１丁目９－７,,27,212,5810866,,,,,,,2025-08-15,1,,,,,シサイセンショウボウ,0
680,3130003010674,新規,0,2025-08-15,2025-08-15,合同会社ＥｖｉＢｕｄｄｙ,,合同会社,京都府,京都市下京区,小稲荷町８５－２Ｇｒａｎｄ－Ｋ京都駅前ビル２０１,,26,106,6008208,,,,,,,2025-08-15,1,,,,,エビバディ,0
691,3140001139663,新規,0,2025-08-15,2025-08-15,株式会社フィールド工房,,株式会社,兵庫県,西脇市,水尾町５３１番地,,28,213,6770066,,,,,,,2025-08-15,1,,,,,フィールドコウボウ,0
692,3140001139688,新規,0,2025-08-15,2025-08-15,株式会社ＴＡＮＰＥＮＳ,,株式会社,兵庫県,明石市,西新町３丁目１１番１４号,,28,203,6730023,,,,,,,2025-08-15,1,,,,,タンペンズ,0
694,3150001028320,新規,0,2025-08-15,2025-08-15,株式会社はしもと,,株式会社,奈良県,橿原市,川西町５６０番地の２,,29,205,6340826,,,,,,,2025-08-15,1,,,,,ハシモト,0
695,3150001028337,新規,0,2025-08-15,2025-08-15,株式会社トラスト,,株式会社,奈良県,橿原市,南八木町１丁目３番４号,,29,205,6340077,,,,,,,2025-08-15,1,,,,,トラスト,0
700,3160001026991,新規,0,2025-08-15,2025-08-15,株式会社スカイネット,,株式会社,滋賀県,野洲市,乙窪５８８番地１,,25,210,5202435,,,,,,,2025-08-15,1,,,,,スカイネット,0
702,3170001018757,新規,0,2025-08-15,2025-08-15,株式会社千の響,,株式会社,和歌山県,御坊市,藤田町吉田８７３番地３サンリットＩ１０３号,00140297,30,205,6491342,,,,,,,2025-08-15,1,,,,,センノヒビキ,0
703,3170003002271,新規,0,2025-08-15,2025-08-15,合同会社あす元気,,合同会社,和歌山県,和歌山市,松江北７丁目８番３号,,30,201,6408425,,,,,,,2025-08-15,1,,,,,アスゲンキ,0
711,3180001168064,新規,0,2025-08-15,2025-08-15,株式会社ＯＶＥＲ,,株式会社,愛知県,名古屋市名東区,平和が丘３丁目８８番地の３,,23,115,4650097,,,,,,,2025-08-15,1,,,,,オーバー,0
712,3180001168221,新規,0,2025-08-15,2025-08-15,株式会社Ｊ　ｂｒｏｓ．,,株式会社,愛知県,名古屋市港区,宝神３丁目１３１１番地,,23,111,4550832,,,,,,,2025-08-15,1,,,,,ジェイブロス,0
715,3180003028852,新規,0,2025-08-15,2025-08-15,合同会社Ｔ３ＡＳ,,合同会社,愛知県,名古屋市中村区,亀島２丁目１５－３４ウインナーワルツ名駅１０２,,23,105,4530013,,,,,,,2025-08-15,1,,,,,タス,0
720,3180301040113,新規,0,2025-08-15,2025-08-15,株式会社ＦＬＩＣ,,株式会社,愛知県,豊橋市,下地町字横山１０番地１,,23,201,4400083,,,,,,,2025-08-15,1,,,,,フリック,0
733,3260001040438,新規,0,2025-08-15,2025-08-15,ＫＯＨＡＫＵ株式会社,,株式会社,岡山県,岡山市北区,鹿田町１丁目７番５号鹿田コーポ,,33,101,7000914,,,,,,,2025-08-15,1,,,,,コハク,0
734,3260001040446,新規,0,2025-08-15,2025-08-15,株式会社東翔開発,,株式会社,岡山県,岡山市北区,三門西町１番１０号,,33,101,7000044,,,,,,,2025-08-15,1,,,,,トウショウカイハツ,0
735,3270001009267,新規,0,2025-08-15,2025-08-15,株式会社ＴＡＫＡＨＡＳＨＩ,,株式会社,鳥取県,倉吉市,伊木１９１番地１,,31,203,6820024,,,,,,,2025-08-15,1,,,,,タカハシ,0
742,3290001110898,新規,0,2025-08-15,2025-08-15,株式会社キャリアアップジョブ,,株式会社,福岡県,福岡市南区,塩原４丁目２２－１６－セイワハイツ１棟１０７号室,,40,134,8150032,,,,,,,2025-08-15,1,,,,,キャリアアップジョブ,0
746,3340003004928,新規,0,2025-08-15,2025-08-15,合同会社５２８,,合同会社,鹿児島県,薩摩川内市,東郷町斧渕１４１９番地１,,46,215,8951106,,,,,,,2025-08-15,1,,,,,ゴーニーハチ,0
752,3370001052959,新規,0,2025-08-15,2025-08-15,株式会社ＭＩ‐ＳＡ,,株式会社,宮城県,仙台市若林区,蒲町２９－１５、２階,,04,103,9840037,,,,,,,2025-08-15,1,,,,,ミーサ,0
758,3430001095010,新規,0,2025-08-15,2025-08-15,トクヱ工業株式会社,,株式会社,北海道,石狩市,花川南五条３丁目２４６番地,,01,235,0613205,,,,,,,2025-08-15,1,,,,,トクエコウギョウ,0
762,3460303000879,新規,0,2025-08-15,2025-08-15,合同会社オホーツク金工,,合同会社,北海道,北見市,西三輪７丁目７１１番地１４の２,,01,208,0900838,,,,,,,2025-08-15,1,,,,,オホーツクキンコウ,0
764,3700150131793,新規,0,2025-08-15,2025-08-15,ＣＡＲ　ＬＩＮＫ,,外国会社等,神奈川県,伊勢原市,板戸７９０番地２７コンサートワン１０２,,14,214,2591145,スリランカ民主社会主義共和国、カルムナイ、メインストリート、Ｎｏ．６４４,,,,,,2025-08-15,1,,,,,カーリンク,0
770,4010001257601,新規,0,2025-08-15,2025-08-15,株式会社Ｌａｐｉｓｉｎａ,,株式会社,東京都,中央区,銀座１丁目１２番４号Ｎ＆ＥＢＬＤ．６Ｆ,,13,102,1040061,,,,,,,2025-08-15,1,,,,,ラピシナ,0
774,4010003048387,新規,0,2025-08-15,2025-08-15,Ｂ１６　Ｊａｐａｎ合同会社,,合同会社,東京都,中央区,銀座４丁目１４番１１号七十七銀座ビル８階,,13,102,1040061,,,,,,,2025-08-15,1,,,,,ビーシックスティーンジャパン,0
775,4010003048395,新規,0,2025-08-15,2025-08-15,合同会社ＳＰＣ１１,,合同会社,東京都,千代田区,平河町１丁目６番１５号シルスフィア会計事務所内,,13,101,1020093,,,,,,,2025-08-15,1,,,,,エスピーシーイレブン,0
776,4010003048437,新規,0,2025-08-15,2025-08-15,合同会社バッテリーパーク１７,,合同会社,東京都,千代田区,有楽町１丁目１番２号東京ミッドタウン日比谷日比谷三井タワー３３０２号室,,13,101,1000006,,,,,,,2025-08-15,1,,,,,バッテリーパークセブンティーン,0
777,4010101016816,新規,0,2025-08-15,2025-08-15,株式会社美山工房,,株式会社,東京都,八王子市,美山町２４０５番地１,,13,201,1920152,,,,,,,2025-08-15,1,,,,,ミヤマコウボウ,0
791,4010405024580,新規,0,2025-08-15,2025-08-15,一般社団法人ウェルネス・テックラボ,,その他の設立登記法人,東京都,港区,北青山１丁目３－３三橋ビル３階,,13,103,1070061,,,,,,,2025-08-15,1,,,,,ウェルネステックラボ,0
794,4010603011736,新規,0,2025-08-15,2025-08-15,ｇｒｉｐ合同会社,,合同会社,東京都,江東区,常盤１丁目１８番８号伊東倉庫５Ｆ,,13,108,1350006,,,,,,,2025-08-15,1,,,,,グリップ,0
796,4010701048168,新規,0,2025-08-15,2025-08-15,ＪＦＰ株式会社,,株式会社,東京都,品川区,西五反田４丁目６番２号サンムラカミ１６番館３０１,,13,109,1410031,,,,,,,2025-08-15,1,,,,,ジェーエフピー,0
798,4010803005505,新規,0,2025-08-15,2025-08-15,合同会社ＩＰＨＹ,,合同会社,東京都,大田区,西蒲田５丁目２７番６号,,13,111,1440051,,,,,,,2025-08-15,1,,,,,,0
800,4010901057910,新規,0,2025-08-15,2025-08-15,ｍａ株式会社,,株式会社,東京都,世田谷区,北沢１丁目４４番８号,,13,112,1550031,,,,,,,2025-08-15,1,,,,,マ,0
801,4010901057919,新規,0,2025-08-15,2025-08-15,株式会社ＥＡＲＬＹ　ＢｉＲＤＳ　ＭＯＲＮＩＮＧ　ＣＬＵＢ,,株式会社,東京都,世田谷区,若林１丁目５番１号ＳｔｙｌｅＳａｎｃｈａ１Ｂ,,13,112,1540023,,,,,,,2025-08-15,1,,,,,アーリーバーズモーニングクラブ,0
809,4011101112646,新規,0,2025-08-15,2025-08-15,株式会社事務のしばたさん,,株式会社,東京都,新宿区,西新宿６丁目２０番７－５１６号,,13,104,1600023,,,,,,,2025-08-15,1,,,,,ジムノシバタサン,0
810,4011103016201,新規,0,2025-08-15,2025-08-15,合同会社アポロ,,合同会社,東京都,新宿区,歌舞伎町１丁目３番５号相模観光ビルイーストプラザ３階Ｄ室,,13,104,1600021,,,,,,,2025-08-15,1,,,,,アポロ,0
815,4011403004797,新規,0,2025-08-15,2025-08-15,合同会社Ｋ＆Ｈ,,合同会社,東京都,板橋区,高島平１丁目３３－５エクセレント３０１,,13,119,1750082,,,,,,,2025-08-15,1,,,,,ケーアンドエイチ,0
816,4011501032428,新規,0,2025-08-15,2025-08-15,株式会社Ｍｅｄｅｘｅ　Ａｓｉａ,,株式会社,東京都,荒川区,西日暮里２丁目２２番１－１９０４号,,13,118,1160013,,,,,,,2025-08-15,1,,,,,メデックスアジア,0
820,4011801046598,新規,0,2025-08-15,2025-08-15,晟達国際株式会社,,株式会社,東京都,葛飾区,鎌倉２丁目１４番１８号ハマコート小岩１階１０１号室,,13,122,1250053,,,,,,,2025-08-15,1,,,,,セイタツコクサイ,0
821,4011801046607,新規,0,2025-08-15,2025-08-15,株式会社Ｏｚｏｒａアカウンティング,,株式会社,東京都,足立区,千住曙町４０番１－２１０号,00140309,13,121,1200023,,,,,,,2025-08-15,1,,,,,オウゾラアカウンティング,0
823,4011803007029,新規,0,2025-08-15,2025-08-15,ＫＴＲｉｃｈ合同会社,,合同会社,東京都,葛飾区,青戸４丁目２６番３－１０３号ライオンズ青砥レジデンス,,13,122,1250062,,,,,,,2025-08-15,1,,,,,ケイトリッチ,0
824,4011805003471,新規,0,2025-08-15,2025-08-15,一般社団法人エンディングケア協会,,その他の設立登記法人,東京都,足立区,青井２丁目１６番２号,,13,121,1200012,,,,,,,2025-08-15,1,,,,,エンディングケアキョウカイ,0
825,4012401043440,新規,0,2025-08-15,2025-08-15,株式会社ｉｎＤｅｎｔｉｏＮ　ｉｎｃ．,,株式会社,東京都,調布市,布田３丁目８番地４サンリス調布２０Ａ,,13,208,1820024,,,,,,,2025-08-15,1,,,,,インデンションインク,0
828,4012701019025,新規,0,2025-08-15,2025-08-15,ＫＡＭＡＬＡ株式会社,,株式会社,東京都,小平市,学園東町１丁目１６－３２冨士見荘１０３号室,,13,211,1870043,,,,,,,2025-08-15,1,,,,,カマラ,0
829,4012703003340,新規,0,2025-08-15,2025-08-15,合同会社関東商会,,合同会社,東京都,清瀬市,梅園２丁目２番６号,,13,221,2040024,,,,,,,2025-08-15,1,,,,,カントウショウカイ,0
830,4012705002472,新規,0,2025-08-15,2025-08-15,一般社団法人心支歩,,その他の設立登記法人,東京都,西東京市,南町３丁目２３番１－３０９号,,13,229,1880012,,,,,,,2025-08-15,1,,,,,シンシホ,0
836,4020001164433,新規,0,2025-08-15,2025-08-15,株式会社まるよし,,株式会社,神奈川県,横浜市都筑区,荏田南１丁目２０番４－６０４号,,14,118,2240007,,,,,,,2025-08-15,1,,,,,マルヨシ,0
840,4020005016952,新規,0,2025-08-15,2025-08-15,一般社団法人Ｌｉｇｈｔ　ｏｎ,,その他の設立登記法人,神奈川県,川崎市多摩区,菅仙谷１丁目１２番１９－２号,,14,135,2140006,,,,,,,2025-08-15,1,,,,,,0
843,4021001086007,新規,0,2025-08-15,2025-08-15,株式会社ルームプラン湘南,,株式会社,神奈川県,平塚市,北金目２丁目３０番３４号,,14,203,2591207,,,,,,,2025-08-15,1,,,,,ルームプランショウナン,0
844,4021001086080,新規,0,2025-08-15,2025-08-15,株式会社ＡＸＩＳ　ＥＳＴ湘南,,株式会社,神奈川県,藤沢市,片瀬３丁目４番７号,,14,205,2510032,,,,,,,2025-08-15,1,,,,,アクシスイーエスティーショウナン,0
845,4021001086106,新規,0,2025-08-15,2025-08-15,株式会社友成,,株式会社,神奈川県,厚木市,下依知１丁目１２番３号,,14,212,2430806,,,,,,,2025-08-15,1,,,,,ユウセイ,0
846,4021003016399,新規,0,2025-08-15,2025-08-15,ウンドウジャパン合同会社,,合同会社,神奈川県,三浦市,南下浦町金田１０３１番地１,,14,210,2380103,,,,,,,2025-08-15,1,,,,,ウンドウジャパン,0
861,4040001140011,新規,0,2025-08-15,2025-08-15,株式会社ＩＴコーポレーション,,株式会社,千葉県,千葉市若葉区,殿台町２６０番地,,12,104,2640036,,,,,,,2025-08-15,1,,,,,アイティーコーポレーション,0
862,4040001140069,新規,0,2025-08-15,2025-08-15,株式会社藤田,,株式会社,千葉県,船橋市,本町３丁目１３番１７号１階,,12,204,2730005,,,,,,,2025-08-15,1,,,,,フジタ,0
865,4040003028238,新規,0,2025-08-15,2025-08-15,合同会社カネコ,,合同会社,千葉県,市川市,八幡５丁目１０番１２号,,12,203,2720021,,,,,,,2025-08-15,1,,,,,カネコ,0
866,4040003028246,新規,0,2025-08-15,2025-08-15,祥麟合同会社,,合同会社,千葉県,柏市,柏３丁目６番２４号丸福ビル２階,,12,217,2770005,,,,,,,2025-08-15,1,,,,,ショウリン,0
871,4070001043260,新規,0,2025-08-15,2025-08-15,株式会社ＳＰＡＲＫＬＥ,,株式会社,群馬県,前橋市,富士見町原之郷１４５２番地８,,10,201,3710116,,,,,,,2025-08-15,1,,,,,スパークル,0
872,4070001043277,新規,0,2025-08-15,2025-08-15,株式会社アコード,,株式会社,群馬県,高崎市,上佐野町３３番地５,,10,202,3700857,,,,,,,2025-08-15,1,,,,,アコード,0
881,4080401028109,新規,0,2025-08-15,2025-08-15,株式会社キタヤ,,株式会社,静岡県,磐田市,国府台２２番地６,,22,211,4380077,,,,,,,2025-08-15,1,,,,,キタヤ,0
887,4100003008340,新規,0,2025-08-15,2025-08-15,合同会社正龍舎,,合同会社,長野県,塩尻市,大字広丘野村１７８８番地５６７ボブテール花輪２０２,,20,215,3990702,,,,,,,2025-08-15,1,,,,,セイリュウシャ,0
891,4110001039502,新規,0,2025-08-15,2025-08-15,ＡＢアドバイザリー株式会社,,株式会社,新潟県,新潟市江南区,元町１丁目４番５号,,15,104,9500143,,,,,,,2025-08-15,1,,,,,エービーアドバイザリー,0
894,4110005017256,新規,0,2025-08-15,2025-08-15,ＮＰＯ法人Ｓａｋｕｒａｋｏ,,その他の設立登記法人,新潟県,新潟市東区,江南１丁目７番地５,,15,102,9500855,,,,,,,2025-08-15,1,,,,,サクラコ,0
907,4120001278710,新規,0,2025-08-15,2025-08-15,株式会社ｏｆｆｉｃｅソルテラ,,株式会社,大阪府,寝屋川市,河北西町１３番２号,,27,215,5720817,,,,,,,2025-08-15,1,,,,,オフィスソルテラ,0
908,4120001278743,新規,0,2025-08-15,2025-08-15,ＳｈｉＳｈｉ株式会社,,株式会社,大阪府,大阪市此花区,春日出北３丁目１３番３７－４０２号,,27,104,5540021,,,,,,,2025-08-15,1,,,,,シシ,0
909,4120001278776,新規,0,2025-08-15,2025-08-15,大八建機株式会社,,株式会社,大阪府,大阪市鶴見区,諸口６丁目１５番１０３号,,27,124,5380051,,,,,,,2025-08-15,1,,,,,ダイハチケンキ,0
910,4120001278784,新規,0,2025-08-15,2025-08-15,ムーンフォックス株式会社,,株式会社,大阪府,大阪市淀川区,新北野１丁目１１－１３－１０１,,27,123,5320025,,,,,,,2025-08-15,1,,,,,ムーンフォックス,0
912,4120101072278,新規,0,2025-08-15,2025-08-15,ＩＮＦＩＮＩＴＹ株式会社,,株式会社,大阪府,松原市,北新町６丁目１４９番地の１（Ｗ棟２０１号）,,27,217,5800025,,,,,,,2025-08-15,1,,,,,インフィニティ,0
913,4120101072286,新規,0,2025-08-15,2025-08-15,株式会社エスアンドユー,,株式会社,大阪府,堺市堺区,中田出井町１丁２番２４号,,27,141,5900016,,,,,,,2025-08-15,1,,,,,エスアンドユー,0
915,4120901051316,新規,0,2025-08-15,2025-08-15,株式会社フォレストリンク,,株式会社,大阪府,豊中市,小曽根１丁目７番２８号,,27,203,5610813,,,,,,,2025-08-15,1,,,,,フォレストリンク,0
916,4120903005823,新規,0,2025-08-15,2025-08-15,合同会社ＦＪハウス,,合同会社,大阪府,吹田市,山田東２丁目４０番１７号,,27,205,5650821,,,,,,,2025-08-15,1,,,,,エフジェイハウス,0
922,4140001139555,新規,0,2025-08-15,2025-08-15,株式会社神田ホールディングス,,株式会社,兵庫県,淡路市,斗ノ内３４３番地３,,28,226,6561743,,,,,,,2025-08-15,1,,,,,カンダホールディングス,0
923,4140001139654,新規,0,2025-08-15,2025-08-15,ＴＭトレーディング株式会社,,株式会社,兵庫県,神戸市垂水区,清水が丘１丁目１９－２ＣＵＢＥ・ＭＡＩＫＯ２０１号室,,28,108,6550031,,,,,,,2025-08-15,1,,,,,ティーエムトレーディング,0
924,4140001139662,新規,0,2025-08-15,2025-08-15,ナツＭＯＡ株式会社,,株式会社,兵庫県,神戸市須磨区,道正台１丁目１番１－４０５,,28,107,6540122,,,,,,,2025-08-15,1,,,,,ナツエムオーエー,0
937,4160001026982,新規,0,2025-08-15,2025-08-15,株式会社洛楽村,,株式会社,滋賀県,彦根市,肥田町３３９,,25,202,5211123,,,,,,,2025-08-15,1,,,,,ラクラクムラ,0
944,4180001168096,新規,0,2025-08-15,2025-08-15,三恭ホールディングス株式会社,,株式会社,愛知県,名古屋市中区,丸の内２丁目１４番３１号ジェムストーン丸の内,,23,106,4600002,,,,,,,2025-08-15,1,,,,,サンキョウホールディングス,0
948,4180003028884,新規,0,2025-08-15,2025-08-15,合同会社ピアニーズ,,合同会社,愛知県,東海市,中央町２丁目３２５番地２,,23,222,4760013,,,,,,,2025-08-15,1,,,,,ピアニーズ,0
951,4190001032474,新規,0,2025-08-15,2025-08-15,株式会社結鐵,,株式会社,三重県,伊賀市,坂之下１１９番地１,,24,216,5180012,,,,,,,2025-08-15,1,,,,,ユイテツ,0
956,4200001044138,新規,0,2025-08-15,2025-08-15,株式会社Ｇ‐ｃｈｏｉｃｅ　ｐｌｕｓ,,株式会社,岐阜県,大垣市,昼飯町３７７番地２,,21,202,5032216,,,,,,,2025-08-15,1,,,,,ジーチョイスプラス,0
961,4230003002487,新規,0,2025-08-15,2025-08-15,ＩＺＵＭＩ　ＳＴＵＤＩＯ合同会社,,合同会社,富山県,富山市,清水町１丁目１番３‐９０１号,,16,201,9300036,,,,,,,2025-08-15,1,,,,,イズミスタジオ,0
964,4240001065361,新規,0,2025-08-15,2025-08-15,株式会社タマイ不動産,,株式会社,広島県,安芸郡熊野町,城之堀９丁目４－１６,,34,307,7314215,,,,,,,2025-08-15,1,,,,,タマイフドウサン,0
965,4240001065378,新規,0,2025-08-15,2025-08-15,株式会社起業サポート‐ｉｒｏｄｏｒｉ,,株式会社,広島県,呉市,本通３丁目６番１０－２０１号,,34,202,7370045,,,,,,,2025-08-15,1,,,,,キギョウサポートイロドリ,0
966,4250001021297,新規,0,2025-08-15,2025-08-15,株式会社東田農機,,株式会社,山口県,下関市,菊川町田部１１２３－１スパークル２０５,,35,201,7500000,,,,,,,2025-08-15,1,,,,,ヒガシダノウキ,0
969,4260003005297,新規,0,2025-08-15,2025-08-15,合同会社ギフト,,合同会社,岡山県,倉敷市,北畝３丁目１２番－３３－１８号,,33,202,7128032,,,,,,,2025-08-15,1,,,,,ギフト,0
974,4290001111078,新規,0,2025-08-15,2025-08-15,株式会社誠信,,株式会社,福岡県,福岡市博多区,博多駅南２丁目１－５博多サンシティビル３０８,,40,132,8120016,,,,,,,2025-08-15,1,,,,,セイシン,0
976,4290003017232,新規,0,2025-08-15,2025-08-15,合同会社今泉２４２,,合同会社,福岡県,福岡市博多区,博多駅中央街６番２号,,40,132,8120012,,,,,,,2025-08-15,1,,,,,イマイズミニーヨンニー,0
977,4290801031780,新規,0,2025-08-15,2025-08-15,株式会社ＳＴ,,株式会社,福岡県,行橋市,大字天生田１８４－１,,40,213,8240044,,,,,,,2025-08-15,1,,,,,エスティー,0
990,4330001033490,新規,0,2025-08-15,2025-08-15,穏聯科技株式会社,,株式会社,熊本県,熊本市中央区,帯山２丁目４番１号,,43,101,8620924,,,,,,,2025-08-15,1,,,,,オンレンカギ,0
991,4330001033499,新規,0,2025-08-15,2025-08-15,株式会社Ｃｏｍｐｌｅｘ　Ｃｏｎｃｉｅｒｇｅ,,株式会社,熊本県,熊本市中央区,新屋敷１丁目１９番１１号２０１,,43,101,8620975,,,,,,,2025-08-15,1,,,,,コンプレックスコンシェルジュ,0
1002,4400005008507,新規,0,2025-08-15,2025-08-15,社会福祉法人いろは,,その他の設立登記法人,岩手県,奥州市,水沢太日通り２丁目１番２０号,,03,215,0230827,,,,,,,2025-08-15,1,,,,,イロハ,0
1009,4430001094936,新規,0,2025-08-15,2025-08-15,吉田不動産株式会社,,株式会社,北海道,札幌市豊平区,月寒東三条１９丁目２番４３号,,01,105,0620053,,,,,,,2025-08-15,1,,,,,ヨシダフドウサン,0
1011,4430003017960,新規,0,2025-08-15,2025-08-15,合同会社Ｓ‐ｌｉｇｈｔ,,合同会社,北海道,札幌市中央区,南二条西５丁目３１番地１ＲＭＢｌｄ．７０１,,01,101,0600062,,,,,,,2025-08-15,1,,,,,エスライト,0
1017,4490001011142,新規,0,2025-08-15,2025-08-15,株式会社ツルホウ水産,,株式会社,高知県,須崎市,大間本町１３番１８号,,39,206,7850034,,,,,,,2025-08-15,1,,,,,ツルホウスイサン,0
1022,5010001257740,新規,0,2025-08-15,2025-08-15,株式会社ＬｅａｐＳｈａｒｋ,,株式会社,東京都,千代田区,神田和泉町一番地６番１６号ヤマトビル４０５,,13,101,1010024,,,,,,,2025-08-15,1,,,,,リープシャーク,0
1023,5010001257773,新規,0,2025-08-15,2025-08-15,丸紅パワートレーディング株式会社,,株式会社,東京都,千代田区,大手町１丁目４番２号,,13,101,1000004,,,,,,,2025-08-15,1,,,,,マルベニパワートレーディング,0
1025,5010003048337,新規,0,2025-08-15,2025-08-15,Ｄｒａｇｏｎｓｌａｙｅｒ　Ｇａｍｅｓ合同会社,,合同会社,東京都,中央区,八丁堀４丁目４番４号梅崎ビル３階,,13,102,1040032,,,,,,,2025-08-15,1,,,,,,0
1026,5010003048386,新規,0,2025-08-15,2025-08-15,Ｂ１７　Ｊａｐａｎ合同会社,,合同会社,東京都,中央区,銀座４丁目１４番１１号七十七銀座ビル８階,,13,102,1040061,,,,,,,2025-08-15,1,,,,,ビーセブンティーンジャパン,0
1027,5010003048403,新規,0,2025-08-15,2025-08-15,合同会社努力は才能を勝る,,合同会社,東京都,中央区,銀座１丁目１２番４号Ｎ＆ＥＢＬＤ６Ｆ,,13,102,1040061,,,,,,,2025-08-15,1,,,,,ドリョクハサイノウヲマサル,0
1028,5010003048436,新規,0,2025-08-15,2025-08-15,合同会社バッテリーパーク１６,,合同会社,東京都,千代田区,有楽町１丁目１番２号東京ミッドタウン日比谷日比谷三井タワー３３０２号室,,13,101,1000006,,,,,,,2025-08-15,1,,,,,バッテリーパークシックスティーン,0
1043,5010505003624,新規,0,2025-08-15,2025-08-15,一般社団法人ベトナムガイド協会,,その他の設立登記法人,東京都,台東区,元浅草１丁目４番３号貝原ビル４０２,,13,106,1110041,,,,,,,2025-08-15,1,,,,,ベトナムガイドキョウカイ,0
1046,5010601067795,新規,0,2025-08-15,2025-08-15,株式会社ＧＭＡ,,株式会社,東京都,江東区,豊洲６丁目２番３１－３４０１号,,13,108,1350061,,,,,,,2025-08-15,1,,,,,ジーエムエー,0
1047,5010601067804,新規,0,2025-08-15,2025-08-15,株式会社ＪＫＨＤＩＢ３号,,株式会社,東京都,江東区,新木場１丁目７番２２号,,13,108,1360082,,,,,,,2025-08-15,1,,,,,ジェイケーエイチディーアイビーサンゴウ,0
1048,5010603011735,新規,0,2025-08-15,2025-08-15,合同会社ＳＡＲＯＳ,,合同会社,東京都,墨田区,石原１丁目２９－１１ブリス両国２０２,,13,107,1300011,,,,,,,2025-08-15,1,,,,,サロス,0
1056,5011001171873,新規,0,2025-08-15,2025-08-15,Ｓｉａｐ株式会社,,株式会社,東京都,渋谷区,道玄坂１丁目１０番８号渋谷道玄坂東急ビル２Ｆ－Ｃ,,13,113,1500043,,,,,,,2025-08-15,1,,,,,シアップ,0
1057,5011001171915,新規,0,2025-08-15,2025-08-15,神宮外苑前コンサルティング株式会社,,株式会社,東京都,渋谷区,神宮前３丁目１番３０号,,13,113,1500001,,,,,,,2025-08-15,1,,,,,ジングウガイエンマエコンサルティング,0
1058,5011005011118,新規,0,2025-08-15,2025-08-15,一般社団法人未来プラスＥＱ,,その他の設立登記法人,東京都,渋谷区,神南１丁目１１－４ＦＰＧリンクス神南５階,,13,113,1500041,,,,,,,2025-08-15,1,,,,,ミライプラスイーキュー,0
1067,5011403004796,新規,0,2025-08-15,2025-08-15,好物合同会社,,合同会社,東京都,板橋区,仲町６３番７号ＯＥＯｆｆｉｃｅＢｌｄｇ．４１２号,,13,119,1730022,,,,,,,2025-08-15,1,,,,,ハオウー,0
1068,5011501032443,新規,0,2025-08-15,2025-08-15,株式会社２ＺＥＲＯＳ,,株式会社,東京都,荒川区,南千住４丁目７番３－２９０１号,,13,118,1160003,,,,,,,2025-08-15,1,,,,,トゥーゼローズ,0
1069,5011601028894,新規,0,2025-08-15,2025-08-15,株式会社ＥｎｄｕｒｏＡＸ,,株式会社,東京都,練馬区,光が丘３丁目８番２－１２０４号,,13,120,1790072,,,,,,,2025-08-15,1,,,,,エンデューロエイエクス,0
1073,5011801046589,新規,0,2025-08-15,2025-08-15,株式会社花むら,,株式会社,東京都,足立区,西新井３丁目１１番８号クレア西新井３０３,,13,121,1230841,,,,,,,2025-08-15,1,,,,,ハナムラ,0
1074,5011801046597,新規,0,2025-08-15,2025-08-15,ＫＳ株式会社,,株式会社,東京都,足立区,弘道１丁目３１番３号,,13,121,1200013,,,,,,,2025-08-15,1,,,,,ケイエス,0
1081,5012701019016,新規,0,2025-08-15,2025-08-15,株式会社ＭＡＣＨＩＫＯＹＡ　ＢＡＳＥ,,株式会社,東京都,小平市,上水新町３丁目１２番８号,,13,211,1870023,,,,,,,2025-08-15,1,,,,,マチコヤベース,0
1095,5021001086022,新規,0,2025-08-15,2025-08-15,株式会社総合建装,,株式会社,神奈川県,綾瀬市,寺尾釜田３丁目１５番４号,,14,218,2521135,,,,,,,2025-08-15,1,,,,,ソウゴウケンソウ,0
1099,5021003016398,新規,0,2025-08-15,2025-08-15,夢気力合同会社,,合同会社,神奈川県,海老名市,国分北３丁目１５番４号,,14,215,2430406,,,,,,,2025-08-15,1,,,,,ユメキリョク,0
1114,5040001140002,新規,0,2025-08-15,2025-08-15,ＲＥＮＴ株式会社,,株式会社,千葉県,千葉市中央区,本千葉町７番９－１００１号,,12,101,2600014,,,,,,,2025-08-15,1,,,,,レント,0
1116,5040003028245,新規,0,2025-08-15,2025-08-15,合同会社浅葉自動車整備工場,,合同会社,千葉県,山武市,成東４９６番地１,,12,237,2891326,,,,,,,2025-08-15,1,,,,,アサバジドウシャセイビコウジョウ,0
1117,5050001057121,新規,0,2025-08-15,2025-08-15,株式会社おしだファーム,,株式会社,茨城県,稲敷市,沼田１３２０番地１,,08,229,3000506,,,,,,,2025-08-15,1,,,,,オシダファーム,0
1119,5050003009500,新規,0,2025-08-15,2025-08-15,ＥＦＡＮ合同会社,,合同会社,茨城県,水戸市,五軒町２丁目１番１０―１００５号レーベンハイム五軒町レジデンス,,08,201,3100063,,,,,,,2025-08-15,1,,,,,イーファン,0
1120,5060003005688,新規,0,2025-08-15,2025-08-15,佐野市ＬＥＤソリューション推進合同会社,,合同会社,栃木県,佐野市,伊勢山町１４番地１３,,09,204,3270817,,,,,,,2025-08-15,1,,,,,サノシエルイーディソリューションスイシン,0
1126,5070001043210,新規,0,2025-08-15,2025-08-15,株式会社美な味,,株式会社,群馬県,高崎市,台町１５番地８,,10,202,3700805,,,,,,,2025-08-15,1,,,,,ミナミ,0
1134,5080401028116,新規,0,2025-08-15,2025-08-15,株式会社ＦＩＲＳＴ,,株式会社,静岡県,浜松市浜名区,引佐町三岳６１１－３,,22,139,4312203,,,,,,,2025-08-15,1,,,,,ファースト,0
1135,5090003002872,新規,0,2025-08-15,2025-08-15,合同会社ＦＥＬＩＣＥ,,合同会社,山梨県,甲府市,徳行５丁目１１番３１号,,19,201,4000047,,,,,,,2025-08-15,1,,,,,,0
1139,5100001038875,新規,0,2025-08-15,2025-08-15,株式会社Ｂｕｄｄｙ,,株式会社,長野県,塩尻市,大字洗馬６０４番地,,20,215,3996462,,,,,,,2025-08-15,1,,,,,バディ,0
1144,5110001039518,新規,0,2025-08-15,2025-08-15,株式会社ＺＥＲＯ４,,株式会社,新潟県,新潟市中央区,米山３丁目１７番１０号,,15,103,9500916,,,,,,,2025-08-15,1,,,,,ゼロヨン,0
1160,5120001278668,新規,0,2025-08-15,2025-08-15,蓮潔株式会社,,株式会社,大阪府,大阪市西成区,北津守４丁目５番３号,,27,122,5570061,,,,,,,2025-08-15,1,,,,,レンケツ,0
1161,5120001278718,新規,0,2025-08-15,2025-08-15,瑞兆実業株式会社,,株式会社,大阪府,大阪市阿倍野区,昭和町４丁目１－１－５０１,,27,119,5450011,,,,,,,2025-08-15,1,,,,,ズイチョウジツギョウ,0
1162,5120001278767,新規,0,2025-08-15,2025-08-15,株式会社Ａｕｔｈｅｎｔｉｃ,,株式会社,大阪府,大阪市西区,靱本町３丁目２番５－３０１号,,27,106,5500004,,,,,,,2025-08-15,1,,,,,オーセンティック,0
1163,5120001278775,新規,0,2025-08-15,2025-08-15,株式会社ＲＥＶＥ,,株式会社,大阪府,大阪市中央区,南船場３丁目３番２９号,,27,128,5420081,,,,,,,2025-08-15,1,,,,,レーブ,0
1165,5120003030267,新規,0,2025-08-15,2025-08-15,合同会社Ｂｉｃｅｒ,,合同会社,大阪府,大阪市北区,西天満４丁目１番１１号昭栄ビル１０１,,27,127,5300047,,,,,,,2025-08-15,1,,,,,ビチェール,0
1168,5120103006638,新規,0,2025-08-15,2025-08-15,ＷＡＪＩＲＡ　ＩＮＴＥＲＮＡＴＩＯＮＡＬ合同会社,,合同会社,大阪府,藤井寺市,道明寺１丁目２１番２１号富陽文化２０５号室,,27,226,5830012,,,,,,,2025-08-15,1,,,,,ワジラインターナショナル,0
1170,5120901051307,新規,0,2025-08-15,2025-08-15,株式会社プラム,,株式会社,大阪府,茨木市,学園南町７番５号,,27,211,5670834,,,,,,,2025-08-15,1,,,,,プラム,0
1171,5120901051315,新規,0,2025-08-15,2025-08-15,株式会社ＮＥＸＴ　ＢＵＩＬＤ,,株式会社,大阪府,豊中市,庄内西町３丁目１１番１７－６０６号,,27,203,5610832,,,,,,,2025-08-15,1,,,,,ネクストビルド,0
1174,5130003010722,新規,0,2025-08-15,2025-08-15,合同会社ミライリンク,,合同会社,京都府,宮津市,字波路２２２９番地,,26,205,6260061,,,,,,,2025-08-15,1,,,,,ミライリンク,0
1177,5140001139645,新規,0,2025-08-15,2025-08-15,株式会社丸辰商事,,株式会社,兵庫県,西宮市,門戸西町１０番７８号,,28,204,6620828,,,,,,,2025-08-15,1,,,,,マルタツショウジ,0
1178,5140001139678,新規,0,2025-08-15,2025-08-15,ＳＡＮＷＡコンストラクション株式会社,,株式会社,兵庫県,尼崎市,西本町３丁目７５,,28,202,6600874,,,,,,,2025-08-15,1,,,,,サンワコンストラクション,0
1179,5140001139686,新規,0,2025-08-15,2025-08-15,太洋電気株式会社,,株式会社,兵庫県,神戸市中央区,下山手通２丁目１３番１７号橋本ビル３Ｆ,,28,110,6500011,,,,,,,2025-08-15,1,,,,,タイヨウデンキ,0
1180,5140003022353,新規,0,2025-08-15,2025-08-15,合同会社Ｔｒｕｎｋ,,合同会社,兵庫県,伊丹市,稲野町１丁目２２番１号,,28,207,6640861,,,,,,,2025-08-15,1,,,,,トランク,0
1188,5180001168070,新規,0,2025-08-15,2025-08-15,株式会社ブレーンズ,,株式会社,愛知県,名古屋市守山区,天子田２丁目５１２番地,,23,113,4630037,,,,,,,2025-08-15,1,,,,,ブレーンズ,0
1193,5190001032481,新規,0,2025-08-15,2025-08-15,株式会社くまタケ舎,,株式会社,三重県,鈴鹿市,末広西５番８号,,24,207,5130852,,,,,,,2025-08-15,1,,,,,クマタケシャ,0
1197,5200001044153,新規,0,2025-08-15,2025-08-15,大誠商事株式会社,,株式会社,岐阜県,養老郡養老町,沢田２２３３番地,,21,341,5031241,,,,,,,2025-08-15,1,,,,,タイセイショウジ,0
1210,5240001065377,新規,0,2025-08-15,2025-08-15,株式会社Ｋサービス,,株式会社,広島県,安芸郡熊野町,萩原２丁目２２番１７号,,34,307,7314213,,,,,,,2025-08-15,1,,,,,ケイサービス,0
1211,5250003003796,新規,0,2025-08-15,2025-08-15,田村電機合同会社,,合同会社,山口県,光市,光井７丁目３６番７号,,35,210,7430011,,,,,,,2025-08-15,1,,,,,タムラデンキ,0
1216,5260003005296,新規,0,2025-08-15,2025-08-15,Ｓａｄｏｕ　Ｉｎｎ合同会社,,合同会社,岡山県,玉野市,宇野３丁目１０番２８号,,33,204,7060011,,,,,,,2025-08-15,1,,,,,サドウイン,0
1227,5290805009855,新規,0,2025-08-15,2025-08-15,一般社団法人恒和会,,その他の設立登記法人,福岡県,中間市,東中間１丁目３－７,,40,215,8090019,,,,,,,2025-08-15,1,,,,,コウワカイ,0
1231,5320001021272,新規,0,2025-08-15,2025-08-15,株式会社南北,,株式会社,大分県,豊後高田市,来縄２８７７番地１,,44,209,8790614,,,,,,,2025-08-15,1,,,,,ナンボク,0
1240,5360001035640,新規,0,2025-08-15,2025-08-15,Ｄｅｃｋｓ　Ｊａｐａｎ株式会社,,株式会社,沖縄県,中頭郡北中城村,字喜舎場１３６６番地１,,47,327,9012311,,,,,,,2025-08-15,1,,,,,デックスジャパン,0
1244,5360005007272,新規,0,2025-08-15,2025-08-15,特定非営利活動法人九士鎮魂碑慰霊の会,,その他の設立登記法人,沖縄県,那覇市,宇栄原３丁目１９番２８号長嶺アパート１０２号,,47,201,9010153,,,,,,,2025-08-15,1,,,,,キュウシチンコンヒイレイノカイ,0
1249,5380001035498,新規,0,2025-08-15,2025-08-15,株式会社すっきり,,株式会社,福島県,東白川郡棚倉町,大字棚倉字古町２６番地２,,07,481,9636131,,,,,,,2025-08-15,1,,,,,スッキリ,0
1257,5420001019232,新規,0,2025-08-15,2025-08-15,株式会社カネセ高橋かまぼこ店,,株式会社,青森県,青森市,本町５丁目７番１５号,,02,201,0300802,,,,,,,2025-08-15,1,,,,,カネセタカハシカマボコテン,0
1259,5430003017976,新規,0,2025-08-15,2025-08-15,合同会社パブロス,,合同会社,北海道,札幌市中央区,宮ケ丘３丁目２番２４号ステラ宮ヶ丘３０１号,,01,101,0640959,,,,,,,2025-08-15,1,,,,,パブロス,0
1261,5460101007744,新規,0,2025-08-15,2025-08-15,アーククリエイト株式会社,,株式会社,北海道,河東郡音更町,緑陽台北区５番地９,,01,631,0800316,,,,,,,2025-08-15,1,,,,,アーククリエイト,0
1267,5500001026468,新規,0,2025-08-15,2025-08-15,ＹＫＩ工業株式会社,,株式会社,愛媛県,新居浜市,船木甲４３０６番地の２,,38,205,7920856,,,,,,,2025-08-15,1,,,,,ワイケイアイコウギョウ,0
1279,6010001257665,新規,0,2025-08-15,2025-08-15,株式会社デジタルノマド,,株式会社,東京都,中央区,日本橋室町１丁目１１番１２号日本橋水野ビル７階,,13,102,1030022,,,,,,,2025-08-15,1,,,,,デジタルノマド,0
1280,6010001257707,新規,0,2025-08-15,2025-08-15,株式会社日本ワンヘルス,,株式会社,東京都,中央区,日本橋浜町３丁目４５番７号,,13,102,1030007,,,,,,,2025-08-15,1,,,,,ニホンワンヘルス,0
1281,6010003048328,新規,0,2025-08-15,2025-08-15,ナナコミック合同会社,,合同会社,東京都,中央区,銀座７丁目７－１２ＧＩＮＺＡＳＴＥＰＳ２階,,13,102,1040061,,,,,,,2025-08-15,1,,,,,ナナコミック,0
1282,6010003048385,新規,0,2025-08-15,2025-08-15,Ｂ１８　Ｊａｐａｎ合同会社,,合同会社,東京都,中央区,銀座４丁目１４番１１号七十七銀座ビル８階,,13,102,1040061,,,,,,,2025-08-15,1,,,,,ビーエイティーンジャパン,0
1283,6010003048435,新規,0,2025-08-15,2025-08-15,合同会社バッテリーパーク１５,,合同会社,東京都,千代田区,有楽町１丁目１番２号東京ミッドタウン日比谷日比谷三井タワー３３０２号室,,13,101,1000006,,,,,,,2025-08-15,1,,,,,バッテリーパークフィフティーン,0
1284,6010103002630,新規,0,2025-08-15,2025-08-15,合同会社ＳＨＥＥＰＳ．ＷＯＲＫ,,合同会社,東京都,八王子市,南大沢４丁目１０番地１０－８１４,,13,201,1920364,,,,,,,2025-08-15,1,,,,,シープスワーク,0
1287,6010401192157,新規,0,2025-08-15,2025-08-15,ＡＳＭＧＴ０１株式会社,,株式会社,東京都,港区,六本木１丁目６番１号,,13,103,1060032,,,,,,,2025-08-15,1,,,,,エーエスエムジーティーゼロワン,0
1288,6010401192537,新規,0,2025-08-15,2025-08-15,株式会社ＫＹＯＥＩ,,株式会社,東京都,港区,北青山１丁目３－３三橋ビル３階,,13,103,1070061,,,,,,,2025-08-15,1,,,,,キョウエイ,0
1291,6010403035826,新規,0,2025-08-15,2025-08-15,合同会社Ｖｅｃｔｏｒ　Ｆｕｎｄ１,,合同会社,東京都,港区,芝公園３丁目４番３０号,,13,103,1050011,,,,,,,2025-08-15,1,,,,,ベクターファンドワン,0
1302,6010601067803,新規,0,2025-08-15,2025-08-15,株式会社ＪＫＨＤＩＢ２号,,株式会社,東京都,江東区,新木場１丁目７番２２号,,13,108,1360082,,,,,,,2025-08-15,1,,,,,ジェイケーエイチディーアイビーニゴウ,0
1308,6010803005503,新規,0,2025-08-15,2025-08-15,合同会社Ｌｉｌｙ,,合同会社,東京都,大田区,仲六郷２丁目１４－３,,13,111,1440055,,,,,,,2025-08-15,1,,,,,リリー,0
1310,6010903010196,新規,0,2025-08-15,2025-08-15,合同会社リポーズ・スタジオ,,合同会社,東京都,世田谷区,南烏山６丁目３０番２２号コーポ高橋２０６,,13,112,1570062,,,,,,,2025-08-15,1,,,,,リポーズスタジオ,0
1312,6010905004816,新規,0,2025-08-15,2025-08-15,一般社団法人ＳＵＣＣＥＳＳ　ＡＧＩＮＧ　ＣＬＵＢ,,その他の設立登記法人,東京都,世田谷区,奥沢３丁目４３番３号,,13,112,1580083,,,,,,,2025-08-15,1,,,,,サクセスエージングクラブ,0
1317,6011101112702,新規,0,2025-08-15,2025-08-15,株式会社ミライワークス,,株式会社,東京都,新宿区,西新宿３丁目３－１３西新宿水間ビル６Ｆ,,13,104,1600023,,,,,,,2025-08-15,1,,,,,ミライワークス,0
1318,6011101112710,新規,0,2025-08-15,2025-08-15,株式会社栖霞,,株式会社,東京都,新宿区,新宿７丁目２７番４－５０２号,,13,104,1600022,,,,,,,2025-08-15,1,,,,,セイカ,0
1319,6011101112900,新規,0,2025-08-15,2025-08-15,株式会社Ｋ‐ＷＯＲＫＳ,,株式会社,東京都,新宿区,西新宿３丁目６番５号トーカン新宿キャステール１２１０,,13,104,1600023,,,,,,,2025-08-15,1,,,,,ケーワークス,0
1329,6011501032426,新規,0,2025-08-15,2025-08-15,株式会社東吉,,株式会社,東京都,北区,志茂２丁目６４番１４号,,13,117,1150042,,,,,,,2025-08-15,1,,,,,トウヨシ,0
1330,6011501032442,新規,0,2025-08-15,2025-08-15,株式会社ＰＬＵＳ　ＮＩＮＥ,,株式会社,東京都,荒川区,西尾久８丁目４４番３０－１００６号,,13,118,1160011,,,,,,,2025-08-15,1,,,,,プラスナイン,0
1337,6011803007019,新規,0,2025-08-15,2025-08-15,合同会社ＪＯＳＨＮＡ　ＣＯＲＰＯＲＡＴＩＯＮ,,合同会社,東京都,葛飾区,南水元１丁目２７－１,,13,122,1250035,,,,,,,2025-08-15,1,,,,,ジョスナコーポレーション,0
1339,6012701019023,新規,0,2025-08-15,2025-08-15,株式会社くるみ,,株式会社,東京都,西東京市,ひばりが丘３丁目５番２２－７０３号,,13,229,2020001,,,,,,,2025-08-15,1,,,,,クルミ,0
1340,6013101009770,新規,0,2025-08-15,2025-08-15,株式会社康和,,株式会社,東京都,あきる野市,渕上２１９番地１,,13,228,1970833,,,,,,,2025-08-15,1,,,,,コウワ,0
1345,6013303007820,新規,0,2025-08-15,2025-08-15,合同会社わたりむすび,,合同会社,東京都,豊島区,東池袋２丁目６２番８号ＢＩＧオフィスプラザ池袋１２０６,,13,116,1700013,,,,,,,2025-08-15,1,,,,,ワタリムスビ,0
1350,6021001086005,新規,0,2025-08-15,2025-08-15,株式会社風来夢,,株式会社,神奈川県,厚木市,栄町２丁目８番５－１０３号,,14,212,2430017,,,,,,,2025-08-15,1,,,,,フウライム,0
1351,6021001086021,新規,0,2025-08-15,2025-08-15,株式会社バディーズ,,株式会社,神奈川県,平塚市,横内２７６０番地の４,,14,203,2540002,,,,,,,2025-08-15,1,,,,,バディーズ,0
1352,6021001086062,新規,0,2025-08-15,2025-08-15,株式会社Ａｓホームズ,,株式会社,神奈川県,大和市,上和田２０７１番地４,,14,213,2420014,,,,,,,2025-08-15,1,,,,,エーズホームズ,0
1353,6021001086095,新規,0,2025-08-15,2025-08-15,株式会社ｐｒｉｍｅｒ,,株式会社,神奈川県,大和市,大和南１丁目６番１３－４０１号,,14,213,2420016,,,,,,,2025-08-15,1,,,,,プライマー,0
1354,6021001086104,新規,0,2025-08-15,2025-08-15,株式会社ＤＲコンサルタント,,株式会社,神奈川県,小田原市,久野２２２５番地５,,14,206,2500055,,,,,,,2025-08-15,1,,,,,ディーアールコンサルタント,0
1357,6021003016397,新規,0,2025-08-15,2025-08-15,合同会社ＭＡＨ,,合同会社,神奈川県,大和市,下鶴間１７８６番地４セザール中央林間南５０８,,14,213,2420001,,,,,,,2025-08-15,1,,,,,エムエーエイチ,0
1367,6030003027420,新規,0,2025-08-15,2025-08-15,合同会社ＰＩＫＡカー,,合同会社,埼玉県,北葛飾郡杉戸町,大字鷲巣６１７－３,,11,464,3450002,,,,,,,2025-08-15,1,,,,,ピカカー,0
1372,6040001140018,新規,0,2025-08-15,2025-08-15,株式会社Ｓ．Ａ．Ｉ．Ｔ．Ｏ．,,株式会社,千葉県,成田市,官林３８９番地２０,,12,211,2870221,,,,,,,2025-08-15,1,,,,,サイトウ,0
1373,6040001140026,新規,0,2025-08-15,2025-08-15,株式会社ＳＦ実装研究所,,株式会社,千葉県,市川市,菅野２丁目３番４号三藏館１Ｆ,,12,203,2720824,,,,,,,2025-08-15,1,,,,,エスエフジッソウケンキュウジョ,0
1374,6040001140050,新規,0,2025-08-15,2025-08-15,株式会社ヒルブック,,株式会社,千葉県,船橋市,三山２丁目１０番８号,,12,204,2740072,,,,,,,2025-08-15,1,,,,,ヒルブック,0
1375,6040001140075,新規,0,2025-08-15,2025-08-15,Ｓｕｎｎｙ　Ｓｉｄｅ　Ｓｏｌｕｔｉｏｎ株式会社,,株式会社,千葉県,松戸市,六実６丁目３６番地の４,,12,207,2702204,,,,,,,2025-08-15,1,,,,,サニーサイドソリューション,0
1380,6040003028236,新規,0,2025-08-15,2025-08-15,合同会社Ｃｏｎｓｃｉｅｎｃｅ２,,合同会社,千葉県,柏市,若柴２７６番地１中央１６１街区１,,12,217,2770871,,,,,,,2025-08-15,1,,,,,コンシャスツー,0
1381,6040003028244,新規,0,2025-08-15,2025-08-15,ユーロイーショップ合同会社,,合同会社,千葉県,白井市,堀込２丁目４番１３棟３０７号,,12,232,2701424,,,,,,,2025-08-15,1,,,,,ユーロイーショップ,0
1386,6060001038508,新規,0,2025-08-15,2025-08-15,株式会社ケーズファーム,,株式会社,栃木県,宇都宮市,下荒針町２４０５番地２３,,09,201,3210346,,,,,,,2025-08-15,1,,,,,ケーズファーム,0
1388,6060003005687,新規,0,2025-08-15,2025-08-15,ＳｏｒａＶｅｒｓｅ　Ｇｌｏｂａｌ合同会社,,合同会社,栃木県,佐野市,並木町１１６４番地２並木アパートＪ号室,,09,204,3270002,,,,,,,2025-08-15,1,,,,,ソラバースグローバル,0
1390,6070001043234,新規,0,2025-08-15,2025-08-15,株式会社ｅｔｅｒｎａｌ　ｃｌａｓｓｙ,,株式会社,群馬県,太田市,脇屋町２０１番地６,,10,205,3730031,,,,,,,2025-08-15,1,,,,,エターナルクラッシー,0
1391,6070001043259,新規,0,2025-08-15,2025-08-15,株式会社アールエス,,株式会社,群馬県,桐生市,新里町武井３９２番地２,,10,203,3760123,,,,,,,2025-08-15,1,,,,,アールエス,0
1392,6070001043267,新規,0,2025-08-15,2025-08-15,清群ＴＲＩＮＩＴＹ株式会社,,株式会社,群馬県,高崎市,倉賀野町９９７番地１６,,10,202,3701201,,,,,,,2025-08-15,1,,,,,セイグントリニティ,0
1402,6080401028115,新規,0,2025-08-15,2025-08-15,株式会社小杉家,,株式会社,静岡県,掛川市,富部２７０－５５,,22,213,4360224,,,,,,,2025-08-15,1,,,,,コスギヤ,0
1403,6090001019463,新規,0,2025-08-15,2025-08-15,株式会社Ｋ．Ｉ研究所,,株式会社,山梨県,北杜市,小淵沢町１０２９番地４,,19,209,4080044,,,,,,,2025-08-15,1,,,,,ケーアイケンキュウジョ,0
1427,6120001278683,新規,0,2025-08-15,2025-08-15,株式会社リオサス,,株式会社,大阪府,大阪市西区,新町１丁目１４番２１－１１１２号,,27,106,5500013,,,,,,,2025-08-15,1,,,,,リオサス,0
1428,6120001278691,新規,0,2025-08-15,2025-08-15,株式会社ＢＩＲＴＨ,,株式会社,大阪府,大阪市淀川区,十三本町２丁目１番２０号,,27,123,5320024,,,,,,,2025-08-15,1,,,,,バース,0
1429,6120001278717,新規,0,2025-08-15,2025-08-15,株式会社リノハグプラス,,株式会社,大阪府,大阪市港区,磯路３丁目８番２４－２０５号,,27,107,5520003,,,,,,,2025-08-15,1,,,,,リノハグプラス,0
1430,6120001278741,新規,0,2025-08-15,2025-08-15,株式会社ＳＰＲＯＵＴＥ,,株式会社,大阪府,大阪市西区,西本町１丁目２番４号５階,,27,106,5500005,,,,,,,2025-08-15,1,,,,,スプラウト,0
1431,6120001278758,新規,0,2025-08-15,2025-08-15,株式会社ｓｉｌｋ　ｔｒｅｅ,,株式会社,大阪府,寝屋川市,八坂町１番１８号,,27,215,5720838,,,,,,,2025-08-15,1,,,,,シルクツリー,0
1432,6120001278766,新規,0,2025-08-15,2025-08-15,株式会社弥やさか,,株式会社,大阪府,大阪市淀川区,十三東１丁目１７－１３水交ビル４０３号,,27,123,5320023,,,,,,,2025-08-15,1,,,,,イヤサカ,0
1433,6120001278782,新規,0,2025-08-15,2025-08-15,株式会社大阪宿泊企画,,株式会社,大阪府,大阪市北区,西天満３丁目１１－１５－８０１,,27,127,5300047,,,,,,,2025-08-15,1,,,,,オオサカシュクハクキカク,0
1434,6120001278832,新規,0,2025-08-15,2025-08-15,株式会社ＨＮＰ　ＣＯＮＮＥＣＴ,,株式会社,大阪府,大阪市北区,大淀中５丁目８番３号,,27,127,5310076,,,,,,,2025-08-15,1,,,,,エイチエヌピーコネクト,0
1436,6120003030274,新規,0,2025-08-15,2025-08-15,合同会社ゼンティア,,合同会社,大阪府,大阪市中央区,東心斎橋１丁目９－１９－３０７,,27,128,5420083,,,,,,,2025-08-15,1,,,,,ゼンティア,0
1437,6120003030282,新規,0,2025-08-15,2025-08-15,来都来了合同会社,,合同会社,大阪府,大阪市阿倍野区,阪南町１丁目１５番２－２０１号,,27,119,5450021,,,,,,,2025-08-15,1,,,,,ライドーライラー,0
1438,6120101072235,新規,0,2025-08-15,2025-08-15,辻忠商店株式会社,00140300,株式会社,大阪府,貝塚市,澤３８９番地の１,,27,208,5970062,,,,,,,2025-08-15,1,,,,,ツジチュウショウテン,0
1439,6120101072284,新規,0,2025-08-15,2025-08-15,株式会社匯和,,株式会社,大阪府,大阪狭山市,今熊２丁目１８２３狭山ヒルズＡ棟,,27,231,5890021,,,,,,,2025-08-15,1,,,,,カイワ,0
1457,6140005027597,新規,0,2025-08-15,2025-08-15,志手原農事組合法人,,その他の設立登記法人,兵庫県,三田市,志手原４１１番地１,,28,219,6691506,,,,,,,2025-08-15,1,,,,,シデハラ,0
1458,6150003003681,新規,0,2025-08-15,2025-08-15,合同会社バリュークリエーション,,合同会社,奈良県,橿原市,川西町１２０５番地の７,,29,205,6340826,,,,,,,2025-08-15,1,,,,,バリュークリエーション,0
1466,6180001168094,新規,0,2025-08-15,2025-08-15,ＨＮ分割準備株式会社,,株式会社,愛知県,名古屋市熱田区,大宝１丁目１３番２０号,,23,109,4560062,,,,,,,2025-08-15,1,,,,,エイチエヌブンカツジュンビ,0
1467,6180001168144,新規,0,2025-08-15,2025-08-15,株式会社ＨＡＫＯＢＩＴＯ,,株式会社,愛知県,名古屋市西区,庄内通４丁目２４－６Ｍａｉｓｏｒｉｅ庄内通３０２,,23,104,4510016,,,,,,,2025-08-15,1,,,,,ハコビト,0
1485,6190001032480,新規,0,2025-08-15,2025-08-15,佑晃アセットマネジメント株式会社,,株式会社,三重県,津市,南が丘２丁目１２番地１,,24,201,5140822,,,,,,,2025-08-15,1,,,,,ユウコウアセットマネジメント,0
1494,6260001040443,新規,0,2025-08-15,2025-08-15,株式会社杉田マウンテンパートナーズ,,株式会社,岡山県,加賀郡吉備中央町,富永１４２３番地１,,33,681,7092553,,,,,,,2025-08-15,1,,,,,スギタマウンテンパートナーズ,0
1498,6290001111027,新規,0,2025-08-15,2025-08-15,株式会社エムプラス,,株式会社,福岡県,福岡市中央区,春吉２丁目１８番８－３０５号,,40,133,8100003,,,,,,,2025-08-15,1,,,,,エムプラス,0
1499,6290001111076,新規,0,2025-08-15,2025-08-15,株式会社ｈａｎａ,,株式会社,福岡県,福岡市博多区,博多駅前３丁目５番２２号,,40,132,8120011,,,,,,,2025-08-15,1,,,,,ハナ,0
1502,6290003017222,新規,0,2025-08-15,2025-08-15,合同会社ウエストシーズ,,合同会社,福岡県,福岡市南区,大橋３丁目２０番２－２０１,,40,134,8150033,,,,,,,2025-08-15,1,,,,,ウエストシーズ,0
1505,6310003005067,新規,0,2025-08-15,2025-08-15,合同会社しまばら金工舎,,合同会社,長崎県,島原市,高島２丁目７１９５番５,,42,203,8550801,,,,,,,2025-08-15,1,,,,,シマバラキンコウシャ,0
1506,6320003004745,新規,0,2025-08-15,2025-08-15,合同会社礼．Ａｙａ,,合同会社,大分県,中津市,大字角木２０８番地１,,44,203,8710091,,,,,,,2025-08-15,1,,,,,レイアヤ,0
1507,6330001033497,新規,0,2025-08-15,2025-08-15,株式会社コウエン,,株式会社,熊本県,菊池市,木柑子１７０８番地１,,43,210,8611315,,,,,,,2025-08-15,1,,,,,コウエン,0
1523,6380003006117,新規,0,2025-08-15,2025-08-15,合同会社ももいろファーム,,合同会社,福島県,田村市,常葉町常葉字富岡４番地１,,07,211,9634602,,,,,,,2025-08-15,1,,,,,モモイロファーム,0
1535,6500003003571,新規,0,2025-08-15,2025-08-15,合同会社くろーば,,合同会社,愛媛県,松山市,高砂町１丁目１番７号第８グリーンハイツ５０８号室,,38,201,7900822,,,,,,,2025-08-15,1,,,,,クローバ,0
1548,7010001257540,新規,0,2025-08-15,2025-08-15,株式会社ｎａｎａｌａ,,株式会社,東京都,中央区,佃１丁目４－４,,13,102,1040051,,,,,,,2025-08-15,1,,,,,,0
1549,7010001257557,新規,0,2025-08-15,2025-08-15,日本橋電力株式会社,,株式会社,東京都,中央区,日本橋室町１丁目１３－１,,13,102,1030022,,,,,,,2025-08-15,1,,,,,ニホンバシデンリョク,0
1550,7010001257607,新規,0,2025-08-15,2025-08-15,ＬｏＮＬｙ株式会社,,株式会社,東京都,中央区,新富１丁目４番１号ウィンド新富ビル７階７０２号室,,13,102,1040041,,,,,,,2025-08-15,1,,,,,ロンリー,0
1551,7010001257664,新規,0,2025-08-15,2025-08-15,慶雲行株式会社,,株式会社,東京都,千代田区,神田佐久間町３丁目２８星野ビル４Ｆ６号,,13,101,1010025,,,,,,,2025-08-15,1,,,,,,0
1552,7010001257680,新規,0,2025-08-15,2025-08-15,株式会社４Ａ＆Ｃｏ．,,株式会社,東京都,中央区,晴海５丁目６番５－１１０３号,,13,102,1040053,,,,,,,2025-08-15,1,,,,,フォーエーアンドカンパニー,0
1553,7010001257714,新規,0,2025-08-15,2025-08-15,ＨＹＤ株式会社,,株式会社,東京都,中央区,勝どき４丁目６番２号,,13,102,1040054,,,,,,,2025-08-15,1,,,,,エイチワイディー,0
1555,7010003048319,新規,0,2025-08-15,2025-08-15,合同会社Ｅｖａ,,合同会社,東京都,中央区,銀座１丁目２２番１１号銀座大竹ビジデンス２Ｆ,,13,102,1040061,,,,,,,2025-08-15,1,,,,,エヴァ,0
1556,7010003048335,新規,0,2025-08-15,2025-08-15,オールワン合同会社,,合同会社,東京都,中央区,勝どき１丁目７番２－１３０８号,,13,102,1040054,,,,,,,2025-08-15,1,,,,,オールワン,0
1557,7010003048384,新規,0,2025-08-15,2025-08-15,Ｂ１９　Ｊａｐａｎ合同会社,,合同会社,東京都,中央区,銀座４丁目１４番１１号七十七銀座ビル８階,,13,102,1040061,,,,,,,2025-08-15,1,,,,,ビーナインティーンジャパン,0
1558,7010003048392,新規,0,2025-08-15,2025-08-15,Ｂ１１　Ｊａｐａｎ合同会社,,合同会社,東京都,中央区,銀座４丁目１４番１１号七十七銀座ビル８階,,13,102,1040061,,,,,,,2025-08-15,1,,,,,ビーイレブンジャパン,0
1559,7010003048401,新規,0,2025-08-15,2025-08-15,合同会社まめりん,,合同会社,東京都,千代田区,一番町６番地４－３０２号,,13,101,1020082,,,,,,,2025-08-15,1,,,,,マメリン,0
1560,7010003048426,新規,0,2025-08-15,2025-08-15,合同会社ＪＲＰＦ関内２,,合同会社,東京都,千代田区,丸の内１丁目４番１号東京共同会計事務所内,,13,101,1000005,,,,,,,2025-08-15,1,,,,,ジェイアールピーエフカンナイツー,0
1561,7010003048434,新規,0,2025-08-15,2025-08-15,合同会社バッテリーパーク１４,,合同会社,東京都,千代田区,有楽町１丁目１番２号東京ミッドタウン日比谷日比谷三井タワー３３０２号室,,13,101,1000006,,,,,,,2025-08-15,1,,,,,バッテリーパークフォーティーン,0
1562,7010003048442,新規,0,2025-08-15,2025-08-15,合同会社バッテリーパーク２２,,合同会社,東京都,千代田区,有楽町１丁目１番２号東京ミッドタウン日比谷日比谷三井タワー３３０２号室,,13,101,1000006,,,,,,,2025-08-15,1,,,,,バッテリーパークトゥエンティーツー,0
1564,7010005040521,新規,0,2025-08-15,2025-08-15,一般社団法人共医会,,その他の設立登記法人,東京都,中央区,銀座５丁目１０番２号ＧＩＮＺＡＭＩＳＳＰＡＲＩＳ１０階,,13,102,1040061,,,,,,,2025-08-15,1,,,,,キョウイカイ,0
1567,7010401192239,新規,0,2025-08-15,2025-08-15,ジブン株式会社,,株式会社,東京都,港区,三田５丁目１－４－７０２,,13,103,1080073,,,,,,,2025-08-15,1,,,,,ジブン,0
1569,7010601067802,新規,0,2025-08-15,2025-08-15,ＢＵＢＧＲＡＰＨＩＣＳ株式会社,,株式会社,東京都,墨田区,錦糸１丁目２－１アルカセントラル１４階,,13,107,1300013,,,,,,,2025-08-15,1,,,,,ビーユービーグラフィックス,0
1570,7010701048140,新規,0,2025-08-15,2025-08-15,株式会社アルムジャパン,,株式会社,東京都,品川区,大井１丁目４９番１５号,,13,109,1400014,,,,,,,2025-08-15,1,,,,,アルムジャパン,0
1575,7010905004815,新規,0,2025-08-15,2025-08-15,一般社団法人ジャパンエイジ団体連合会,,その他の設立登記法人,東京都,世田谷区,桜３丁目１４番１２号,,13,112,1560053,,,,,,,2025-08-15,1,,,,,ジャパンエイジダンタイレンゴウカイ,0
1577,7011001171335,新規,0,2025-08-15,2025-08-15,ＡｄＥｒａ株式会社,,株式会社,東京都,渋谷区,恵比寿西２丁目４番８号,,13,113,1500021,,,,,,,2025-08-15,1,,,,,アドエラ,0
1580,7011003022156,新規,0,2025-08-15,2025-08-15,合同会社アトラス,,合同会社,東京都,渋谷区,道玄坂１丁目１０番８号渋谷道玄坂東急ビル２Ｆ－Ｃ,,13,113,1500043,,,,,,,2025-08-15,1,,,,,アトラス,0
1581,7011003022271,新規,0,2025-08-15,2025-08-15,リザフィックバレー合同会社,,合同会社,東京都,目黒区,自由が丘２丁目１６番１２号ＲＪ３,,13,110,1520035,,,,,,,2025-08-15,1,,,,,リザフィックバレー,0
1582,7011003022305,新規,0,2025-08-15,2025-08-15,ＧＲＥＡＴ　ＶＡＬＬＥＹ合同会社,,合同会社,東京都,渋谷区,円山町５番３号ＭＩＥＵＸ渋谷ビル８階,,13,113,1500044,,,,,,,2025-08-15,1,,,,,グレートバレー,0
1589,7011101112890,新規,0,2025-08-15,2025-08-15,株式会社Ｋｉｋｋａｋｅｅ,,株式会社,東京都,新宿区,西新宿３丁目３番１３号西新宿水間ビル２Ｆ,,13,104,1600023,,,,,,,2025-08-15,1,,,,,キッカケ,0
1591,7011301030810,新規,0,2025-08-15,2025-08-15,銀湖資本株式会社,,株式会社,東京都,杉並区,高円寺南２丁目５１番９－２０２号,,13,115,1660003,,,,,,,2025-08-15,1,,,,,ギンコシホン,0
1596,7011601028851,新規,0,2025-08-15,2025-08-15,株式会社ＣＬＴ,,株式会社,東京都,練馬区,南大泉４丁目２６番２号,,13,120,1780064,,,,,,,2025-08-15,1,,,,,シーエルティ,0
1598,7011801046587,新規,0,2025-08-15,2025-08-15,株式会社明日も,,株式会社,東京都,葛飾区,亀有２丁目３３番６号,,13,122,1250061,,,,,,,2025-08-15,1,,,,,アスモ,0
1607,7020001164281,新規,0,2025-08-15,2025-08-15,株式会社ＯＡＲＫ一級建築士事務所,,株式会社,神奈川県,横浜市港北区,篠原西町１７番８号,,14,109,2220025,,,,,,,2025-08-15,1,,,,,オークイッキュウケンチクシジムショ,0
1608,7020003029004,新規,0,2025-08-15,2025-08-15,合同会社オークベイ,,合同会社,神奈川県,横浜市中区,寺久保４４番地２２,,14,104,2310855,,,,,,,2025-08-15,1,,,,,オークベイ,0
1613,7021001086004,新規,0,2025-08-15,2025-08-15,ＬＩＦＥ＆ＳＥＡ株式会社,,株式会社,神奈川県,藤沢市,片瀬海岸３丁目７番１２号,,14,205,2510035,,,,,,,2025-08-15,1,,,,,ライフアンドシー,0
1614,7021001086029,新規,0,2025-08-15,2025-08-15,株式会社香川製作所,,株式会社,神奈川県,秦野市,堀山下１５５６番地,,14,211,2591304,,,,,,,2025-08-15,1,,,,,カガワセイサクショ,0
1615,7021001086103,新規,0,2025-08-15,2025-08-15,株式会社ＤＲＥＳＳ,,株式会社,神奈川県,秦野市,菖蒲６０５番地の１,,14,211,2591332,,,,,,,2025-08-15,1,,,,,ドレス,0
1620,7030005022229,新規,0,2025-08-15,2025-08-15,機械装置再生協同組合,,その他の設立登記法人,埼玉県,深谷市,上柴町東３丁目１０番１３号,,11,218,3660051,,,,,,,2025-08-15,1,,,,,キカイソウチサイセイ,0
1626,7040001139884,新規,0,2025-08-15,2025-08-15,株式会社ＤＬＩＧＨＴ　ＬＩＦＥ,,株式会社,千葉県,印西市,草深２３２３－９,,12,231,2701337,,,,,,,2025-08-15,1,,,,,ディライトライフ,0
1627,7040001140017,新規,0,2025-08-15,2025-08-15,株式会社ＯＰＥＮ,,株式会社,千葉県,成田市,玉造６丁目１１番地４,,12,211,2860011,,,,,,,2025-08-15,1,,,,,オープン,0
1628,7040001140025,新規,0,2025-08-15,2025-08-15,株式会社ライフタグ,,株式会社,千葉県,船橋市,海神１丁目２３番８－１０１号,,12,204,2730021,,,,,,,2025-08-15,1,,,,,ライフタグ,0
1629,7040001140074,新規,0,2025-08-15,2025-08-15,株式会社キノテック,,株式会社,千葉県,木更津市,高柳９１２番地３,,12,206,2920014,,,,,,,2025-08-15,1,,,,,キノテック,0
1630,7040003028268,新規,0,2025-08-15,2025-08-15,合同会社井上農園,,合同会社,千葉県,市原市,神代２５７番地２,,12,219,2900258,,,,,,,2025-08-15,1,,,,,イノウエノウエン,0
1631,7040003028276,新規,0,2025-08-15,2025-08-15,合同会社レジンデザイン,,合同会社,千葉県,市川市,相之川３丁目１３－１６,,12,203,2720143,,,,,,,2025-08-15,1,,,,,レジンデザイン,0
1632,7050001057061,新規,0,2025-08-15,2025-08-15,株式会社ＴＧＳＫ,,株式会社,茨城県,東茨城郡茨城町,大字下飯沼５３９番地,,08,302,3113154,,,,,,,2025-08-15,1,,,,,ティージーエスケー,0
1633,7050001057094,新規,0,2025-08-15,2025-08-15,株式会社Ｔｒａｊｅｃｔｏｒｙ,,株式会社,茨城県,日立市,川尻町６丁目４５番２６号,,08,202,3191411,,,,,,,2025-08-15,1,,,,,トラジェクトリー,0
1634,7060001038507,新規,0,2025-08-15,2025-08-15,株式会社ＹＨＣ,,株式会社,栃木県,佐野市,免鳥町４２９番地２,,09,204,3270041,,,,,,,2025-08-15,1,,,,,ワイエイチシー,0
1636,7070003006048,新規,0,2025-08-15,2025-08-15,サクラ合同会社,,合同会社,群馬県,前橋市,本町１丁目５番地１１,,10,201,3710023,,,,,,,2025-08-15,1,,,,,,0
1638,7080105006531,新規,0,2025-08-15,2025-08-15,一般社団法人トラストセキュリティ・コンソーシアム,,その他の設立登記法人,静岡県,熱海市,西熱海町１丁目１５番１号Ｂ－９０２,,22,205,4130038,,,,,,,2025-08-15,1,,,,,トラストセキュリティコンソーシアム,0
1650,7120001278542,新規,0,2025-08-15,2025-08-15,万谷商事株式会社,,株式会社,大阪府,大阪市中央区,内平野町１丁目２番９号７０３号室,,27,128,5400037,,,,,,,2025-08-15,1,,,,,マンタニショウジ,0
1651,7120001278682,新規,0,2025-08-15,2025-08-15,リカパートナーズ株式会社,,株式会社,大阪府,大阪市中央区,南船場３丁目２番２２－２０５号,,27,128,5420081,,,,,,,2025-08-15,1,,,,,リカパートナーズ,0
1652,7120001278757,新規,0,2025-08-15,2025-08-15,株式会社希カンパニー,,株式会社,大阪府,守口市,藤田町１丁目２番２号セイワマンション１１１号,,27,209,5700014,,,,,,,2025-08-15,1,,,,,ノゾミカンパニー,0
1653,7120001278781,新規,0,2025-08-15,2025-08-15,株式会社ＯｎｅＬｉｆｅ,,株式会社,大阪府,大阪市北区,東天満１丁目９番３－１００１号,,27,127,5300044,,,,,,,2025-08-15,1,,,,,ワンライフ,0
1658,7120003030257,新規,0,2025-08-15,2025-08-15,Ｇｏｏｄ　Ｈｕｍｏｒ合同会社,,合同会社,大阪府,大阪市北区,梅田１丁目２番２号大阪駅前第２ビル１２－１２,,27,127,5300001,,,,,,,2025-08-15,1,,,,,グッドユーモア,0
1659,7120101072275,新規,0,2025-08-15,2025-08-15,株式会社ＮＳＫ,,株式会社,大阪府,松原市,北新町５丁目１１７番地の３,,27,217,5800025,,,,,,,2025-08-15,1,,,,,エヌエスケー,0
1661,7122003003283,新規,0,2025-08-15,2025-08-15,穆福林合同会社,,合同会社,大阪府,東大阪市,水走１丁目３－４５－３０４室,,27,227,5780921,,,,,,,2025-08-15,1,,,,,ボクフリン,0
1673,7140003022442,新規,0,2025-08-15,2025-08-15,合同会社ＩＧＭ,,合同会社,兵庫県,明石市,二見町福里３５７番地の１３,,28,203,6740091,,,,,,,2025-08-15,1,,,,,アイジーエム,0
1674,7140003022450,新規,0,2025-08-15,2025-08-15,アグリエイト合同会社,,合同会社,兵庫県,姫路市,飾東町塩崎１７４番地,,28,201,6710211,,,,,,,2025-08-15,1,,,,,アグリエイト,0
1678,7150001028333,新規,0,2025-08-15,2025-08-15,株式会社中村板金,,株式会社,奈良県,大和高田市,大字根成柿４８５番地９,,29,202,6350051,,,,,,,2025-08-15,1,,,,,ナカムラバンキン,0
1679,7150003003689,新規,0,2025-08-15,2025-08-15,パーポッド合同会社,,合同会社,奈良県,奈良市,朱雀５丁目４－１０,,29,201,6310806,,,,,,,2025-08-15,1,,,,,パーポッド,0
1681,7160001026996,新規,0,2025-08-15,2025-08-15,オフィスエム・エージェンシー株式会社,,株式会社,滋賀県,野洲市,小篠原１９７４－２－２Ｆ,,25,210,5202331,,,,,,,2025-08-15,1,,,,,オフィスエムエージェンシー,0
1684,7160003003572,新規,0,2025-08-15,2025-08-15,髪之屋合同会社,,合同会社,滋賀県,蒲生郡竜王町,大字山面３５番地１６７,,25,384,5202564,,,,,,,2025-08-15,1,,,,,カミノヤ,0
1691,7180001167938,新規,0,2025-08-15,2025-08-15,株式会社ＴＡＮＡＫＡ　ＰＬＵＳ,,株式会社,愛知県,名古屋市千種区,御影町２丁目３４番地,,23,101,4640014,,,,,,,2025-08-15,1,,,,,タナカプラス,0
1692,7180001168093,新規,0,2025-08-15,2025-08-15,株式会社ＣＲＯＳＨＩＯ,,株式会社,愛知県,名古屋市中川区,愛知町４６番２１号－１（ＬｅＧｉｏｉｅささしまライブ駅４・２０１号）,,23,110,4540807,,,,,,,2025-08-15,1,,,,,クロシオ,0
1698,7200001044151,新規,0,2025-08-15,2025-08-15,株式会社グレース,,株式会社,岐阜県,多治見市,生田町４丁目２４番地,,21,204,5070807,,,,,,,2025-08-15,1,,,,,グレース,0
1708,7240001065375,新規,0,2025-08-15,2025-08-15,ＫａｎＩ株式会社,,株式会社,広島県,広島市中区,江波栄町６番２９号,,34,101,7300836,,,,,,,2025-08-15,1,,,,,カンイ,0
1714,7290001111026,新規,0,2025-08-15,2025-08-15,株式会社カスタマーサービス西日本,,株式会社,福岡県,福岡市城南区,七隈５丁目９番１２号,,40,136,8140133,,,,,,,2025-08-15,1,,,,,カスタマーサービスニシニホン,0
1718,7290803005136,新規,0,2025-08-15,2025-08-15,合同会社ＢＩＳＯ,,合同会社,福岡県,北九州市八幡西区,穴生１丁目５番８－１０３号,,40,109,8060049,,,,,,,2025-08-15,1,,,,,ビソ,0
1719,7300001014326,新規,0,2025-08-15,2025-08-15,株式会社パステック,,株式会社,佐賀県,佐賀市,呉服元町２番１５号ＣＯＴＯＣＯ２１５,,41,201,8400824,,,,,,,2025-08-15,1,,,,,パステック,0
1723,7320003004744,新規,0,2025-08-15,2025-08-15,合同会社ＪＳＡ,,合同会社,大分県,大分市,新川町１丁目１１番８号アーバンブレーム新川７０３号室,,44,201,8700016,,,,,,,2025-08-15,1,,,,,ジェイエスエー,0
1729,7340001027588,新規,0,2025-08-15,2025-08-15,株式会社Ｒｏｓｅ　ｄｅ　Ｏｒｉｎａｓ,,株式会社,鹿児島県,奄美市,名瀬末広町５－１７－１０１,,46,222,8940027,,,,,,,2025-08-15,1,,,,,ローズドオリナス,0
1742,7390003002428,新規,0,2025-08-15,2025-08-15,合同会社ハート＆サン,,合同会社,山形県,山形市,桧町２丁目７番３２号,,06,201,9900813,,,,,,,2025-08-15,1,,,,,,0
1747,7430003017974,新規,0,2025-08-15,2025-08-15,合同会社Ｓｈａｒｏ,,合同会社,北海道,札幌市北区,新琴似十一条１０丁目７番２７号,,01,102,0010911,,,,,,,2025-08-15,1,,,,,シャロ,0
1748,7460103001735,新規,0,2025-08-15,2025-08-15,合同会社ＤＡＹ．,,合同会社,北海道,帯広市,西十一条南１８丁目１,,01,207,0800021,,,,,,,2025-08-15,1,,,,,デイ,0
1750,7500003003570,新規,0,2025-08-15,2025-08-15,合同会社いよす,,合同会社,愛媛県,松山市,道後樋又８番６号,,38,201,7900825,,,,,,,2025-08-15,1,,,,,イヨス,0
1755,8010001257696,新規,0,2025-08-15,2025-08-15,株式会社オプシグ,,株式会社,東京都,中央区,銀座１丁目１２番４号Ｎ＆ＥＢＬＤ．６Ｆ,,13,102,1040061,,,,,,,2025-08-15,1,,,,,オプシグ,0
1756,8010003048342,新規,0,2025-08-15,2025-08-15,合同会社ＫＨＩＴ,,合同会社,東京都,三宅島三宅村,阿古１８８１番地１,,13,381,1001212,,,,,,,2025-08-15,1,,,,,ヒット,0
1757,8010003048391,新規,0,2025-08-15,2025-08-15,Ｂ１２　Ｊａｐａｎ合同会社,,合同会社,東京都,中央区,銀座４丁目１４番１１号七十七銀座ビル８階,,13,102,1040061,,,,,,,2025-08-15,1,,,,,ビートゥエルブジャパン,0
1758,8010003048409,新規,0,2025-08-15,2025-08-15,合同会社ユラドキ,,合同会社,東京都,千代田区,神田三崎町２丁目９番５号,,13,101,1010061,,,,,,,2025-08-15,1,,,,,ユラドキ,0
1759,8010003048425,新規,0,2025-08-15,2025-08-15,合同会社ホーム５,,合同会社,東京都,千代田区,丸の内１丁目４番１号東京共同会計事務所内,,13,101,1000005,,,,,,,2025-08-15,1,,,,,ホームゴ,0
1760,8010003048433,新規,0,2025-08-15,2025-08-15,合同会社バッテリーパーク１３,,合同会社,東京都,千代田区,有楽町１丁目１番２号東京ミッドタウン日比谷日比谷三井タワー３３０２号室,,13,101,1000006,,,,,,,2025-08-15,1,,,,,バッテリーパークサーティーン,0
1761,8010003048441,新規,0,2025-08-15,2025-08-15,合同会社バッテリーパーク２１,,合同会社,東京都,千代田区,有楽町１丁目１番２号東京ミッドタウン日比谷日比谷三井タワー３３０２号室,,13,101,1000006,,,,,,,2025-08-15,1,,,,,バッテリーパークトゥエンティーワン,0
1763,8010005040504,新規,0,2025-08-15,2025-08-15,社会保険労務士法人アクセル,,その他の設立登記法人,東京都,中央区,八丁堀４丁目１番３号宝町ＴＡＴＳＵＭＩビル７階,,13,102,1040032,,,,,,,2025-08-15,1,,,,,アクセル,0
1771,8010401192139,新規,0,2025-08-15,2025-08-15,ＳＥＮＺＩＮ株式会社,,株式会社,東京都,港区,赤坂５丁目２－３３ＩＳＡＩＡｋａｓａｋａ１４１２,,13,103,1070052,,,,,,,2025-08-15,1,,,,,センジン,0
1772,8010401192270,新規,0,2025-08-15,2025-08-15,清水＆パートナーズアドバイザリー株式会社,,株式会社,東京都,港区,南青山３丁目１番３６号青山丸竹ビル６Ｆ,,13,103,1070062,,,,,,,2025-08-15,1,,,,,シミズアンドパートナーズアドバイザリー,0
1773,8010401192535,新規,0,2025-08-15,2025-08-15,株式会社Ｒｕｒｂａｎｉｓｍ,,株式会社,東京都,港区,北青山１丁目３－３三橋ビル３Ｆ,,13,103,1070061,,,,,,,2025-08-15,1,,,,,ラーバニズム,0
1775,8010403035717,新規,0,2025-08-15,2025-08-15,ＤＮＥ　ＰＩＥＣＥ合同会社,,合同会社,東京都,港区,西麻布４丁目１番１号,,13,103,1060031,,,,,,,2025-08-15,1,,,,,ディーエヌイーピース,0
1776,8010403035849,新規,0,2025-08-15,2025-08-15,Ｓｉｏｎ合同会社,,合同会社,東京都,港区,浜松町２丁目２番１５号浜松町ダイヤビル２Ｆ,,13,103,1050013,,,,,,,2025-08-15,1,,,,,シオン,0
1784,8010801036498,新規,0,2025-08-15,2025-08-15,株式会社ＥＤＧＥ,,株式会社,東京都,大田区,千鳥２丁目３５－５,,13,111,1460083,,,,,,,2025-08-15,1,,,,,エッジ,0
1788,8010901057898,新規,0,2025-08-15,2025-08-15,ＳＨＡＲＥ　ＬＯＶＥ株式会社,,株式会社,東京都,世田谷区,岡本２丁目２８番７号,,13,112,1570076,,,,,,,2025-08-15,1,,,,,シェアラブ,0
1789,8010903010194,新規,0,2025-08-15,2025-08-15,合同会社Ｗｏｒｋｃａｒｅ,,合同会社,東京都,世田谷区,駒沢１丁目５番１４玉川ビル２－１階,,13,112,1540012,,,,,,,2025-08-15,1,,,,,ワーケア,0
1790,8010905004814,新規,0,2025-08-15,2025-08-15,一般社団法人ワーカーアンカー,,その他の設立登記法人,東京都,世田谷区,代田２丁目２９番１５－３０２号,,13,112,1550033,,,,,,,2025-08-15,1,,,,,ワーカーアンカー,0
1795,8011101112659,新規,0,2025-08-15,2025-08-15,株式会社メディアプルーフ,,株式会社,東京都,新宿区,西新宿３丁目３番１３号西新宿水間ビル２Ｆ,,13,104,1600023,,,,,,,2025-08-15,1,,,,,メディアプルーフ,0
1796,8011101112898,新規,0,2025-08-15,2025-08-15,株式会社ベルティクス,,株式会社,東京都,新宿区,西新宿３丁目３番１３号西新宿水間ビル２Ｆ,,13,104,1600023,,,,,,,2025-08-15,1,,,,,ベルティクス,0
1810,8011801046586,新規,0,2025-08-15,2025-08-15,株式会社バーサ・ジャパン,,株式会社,東京都,足立区,弘道２丁目２９番１５－１０１号,,13,121,1200013,,,,,,,2025-08-15,1,,,,,バーサジャパン,0
1811,8011801046594,新規,0,2025-08-15,2025-08-15,Ｋｕｌｌａ株式会社,,株式会社,東京都,足立区,千住曙町２２番１１－３０４号,00140292,13,121,1200023,,,,,,,2025-08-15,1,,,,,クッラ,0
1819,8012801024169,新規,0,2025-08-15,2025-08-15,株式会社リソラ,,株式会社,東京都,国分寺市,北町３丁目１３番地５レジデンス北町１０１,,13,214,1850001,,,,,,,2025-08-15,1,,,,,リソラ,0
1828,8020001164396,新規,0,2025-08-15,2025-08-15,株式会社レイ・クリエイト,,株式会社,神奈川県,横浜市港北区,日吉６丁目２番２５号,,14,109,2230061,,,,,,,2025-08-15,1,,,,,レイクリエイト,0
1834,8021001086003,新規,0,2025-08-15,2025-08-15,株式会社和田工業,,株式会社,神奈川県,秦野市,落合８２４番地の３,,14,211,2570025,,,,,,,2025-08-15,1,,,,,ワダコウギョウ,0
1835,8021001086036,新規,0,2025-08-15,2025-08-15,株式会社シンテラス,,株式会社,神奈川県,藤沢市,朝日町１２－１,,14,205,2510054,,,,,,,2025-08-15,1,,,,,シンテラス,0
1836,8021001086102,新規,0,2025-08-15,2025-08-15,株式会社リバイヴ,,株式会社,神奈川県,横須賀市,佐原４丁目１３００番地横須賀グリーンゴルフ内,,14,201,2390835,,,,,,,2025-08-15,1,,,,,リバイヴ,0
1837,8021001086127,新規,0,2025-08-15,2025-08-15,株式会社鎌倉山ファミリー,,株式会社,神奈川県,鎌倉市,鎌倉山１丁目１９番２７号,,14,204,2480031,,,,,,,2025-08-15,1,,,,,カマクラヤマファミリー,0
1840,8021003016404,新規,0,2025-08-15,2025-08-15,合同会社ＶｉＹｏ,,合同会社,神奈川県,藤沢市,辻堂元町２丁目６番２５号サニーデール１０２,,14,205,2510043,,,,,,,2025-08-15,1,,,,,ヴィヨー,0
1849,8040001140008,新規,0,2025-08-15,2025-08-15,ＧＯＯＤ　ＦＥＬＬＯＷＳ株式会社,,株式会社,千葉県,千葉市若葉区,千城台東３丁目３３番１１－２号,,12,104,2640002,,,,,,,2025-08-15,1,,,,,グッドフェローズ,0
1850,8040001140024,新規,0,2025-08-15,2025-08-15,株式会社ｋａｍｕｙ,,株式会社,千葉県,千葉市中央区,末広３丁目３番８号,,12,101,2600843,,,,,,,2025-08-15,1,,,,,カムイ,0
1851,8040001140049,新規,0,2025-08-15,2025-08-15,株式会社Ｄａｓｈ　Ｆｏｒｃｅ,,株式会社,千葉県,柏市,藤ケ谷新田８１番地１,,12,217,2770932,,,,,,,2025-08-15,1,,,,,ダッシュフォース,0
1853,8040003028192,新規,0,2025-08-15,2025-08-15,合同会社酒屋,,合同会社,千葉県,松戸市,牧の原２番地の６グリーンハイツ牧の原１棟１０６号,,12,207,2702267,,,,,,,2025-08-15,1,,,,,サカヤ,0
1854,8040003028275,新規,0,2025-08-15,2025-08-15,合同会社美彩,,合同会社,千葉県,野田市,野田６４５‐４,,12,208,2780037,,,,,,,2025-08-15,1,,,,,ビサイ,0
1862,8070001043257,新規,0,2025-08-15,2025-08-15,Ｙ＆Ａアセットマネジメント株式会社,,株式会社,群馬県,伊勢崎市,昭和町１６４５番地１１ルミエールＩＩ４Ｄ号室,00140302,10,204,3720014,,,,,,,2025-08-15,1,,,,,ワイアンドエイアセットマネジメント,0
1863,8070001043265,新規,0,2025-08-15,2025-08-15,株式会社ケーツーネット,,株式会社,群馬県,太田市,藪塚町１５２５番地６－１０３,,10,205,3792301,,,,,,,2025-08-15,1,,,,,ケーツーネット,0
1864,8070001043273,新規,0,2025-08-15,2025-08-15,ライズクルー株式会社,,株式会社,群馬県,高崎市,田町１４８番地８,,10,202,3700824,,,,,,,2025-08-15,1,,,,,ライズクルー,0
1865,8070003006047,新規,0,2025-08-15,2025-08-15,合同会社ＫＭＲ・建築事務所,,合同会社,群馬県,高崎市,小八木町３１２－１５ビジネスパーク小八木２Ｆ,,10,202,3700071,,,,,,,2025-08-15,1,,,,,ケーエムアールケンチクジムショ,0
1866,8070003006055,新規,0,2025-08-15,2025-08-15,合同会社ふじい保険事務所,,合同会社,群馬県,高崎市,下豊岡町１０３４－９,,10,202,3700873,,,,,,,2025-08-15,1,,,,,,0
1868,8080105006530,新規,0,2025-08-15,2025-08-15,一般社団法人ＡＴＡＭＩミライ共創機構,,その他の設立登記法人,静岡県,熱海市,渚町１０－９未来創造スクエア２階,,22,205,4130014,,,,,,,2025-08-15,1,,,,,アタミミライキョウソウキコウ,0
1869,8080401028105,新規,0,2025-08-15,2025-08-15,株式会社ハンガン,,株式会社,静岡県,浜松市中央区,西塚町３２４番地の７コナビック西塚ＩＩ２Ｆ号室,00140299,22,138,4350044,,,,,,,2025-08-15,1,,,,,ハンガン,0
1870,8080401028113,新規,0,2025-08-15,2025-08-15,Ｏａｋｓ　ａｎｄ　Ｃｏ株式会社,,株式会社,静岡県,浜松市中央区,神ケ谷町４２９３番地の４,,22,138,4328005,,,,,,,2025-08-15,1,,,,,オークスアンドシーオー,0
1889,8120001278698,新規,0,2025-08-15,2025-08-15,株式会社くらのスタイル,,株式会社,大阪府,大阪市平野区,喜連２丁目７番２６号３Ｆ,,27,126,5470027,,,,,,,2025-08-15,1,,,,,クラノスタイル,0
1890,8120001278756,新規,0,2025-08-15,2025-08-15,勵致株式会社,,株式会社,大阪府,大阪市中央区,船場中央２丁目１番４号船場センタービル４号館地下一階Ｂ１０８ＲＯＹＡＬＯＦＦＩＣＥ内,,27,128,5410055,,,,,,,2025-08-15,1,,,,,ハゲイタ,0
1891,8120001278797,新規,0,2025-08-15,2025-08-15,株式会社ＯＮＥ　ＦＡＣＩＬＩＴＹ,,株式会社,大阪府,枚方市,招提平野町６番１５－２号,,27,210,5731135,,,,,,,2025-08-15,1,,,,,ワンファシリティ,0
1892,8120001278822,新規,0,2025-08-15,2025-08-15,ＲＥＶＩＸ　ＪＡＰＡＮ株式会社,,株式会社,大阪府,大阪市中央区,安土町２丁目４番１１号シティタワー大阪本町２９１７,,27,128,5410052,,,,,,,2025-08-15,1,,,,,リヴィックスジャパン,0
1893,8120001278913,新規,0,2025-08-15,2025-08-15,Ｍｋｅｙ　Ｉｎｆｏｒｍａ　Ｔｅｃｈ株式会社,,株式会社,大阪府,大阪市港区,弁天３丁目１０番２０号港ＯＧＩビル３０９号室,,27,107,5520007,,,,,,,2025-08-15,1,,,,,エムキーインフォーマテック,0
1897,8120003030256,新規,0,2025-08-15,2025-08-15,合同会社翔徳大志,,合同会社,大阪府,大阪市天王寺区,玉造元町８－４－３４０４,,27,109,5430014,,,,,,,2025-08-15,1,,,,,ショウトクタイシ,0
1898,8120101072274,新規,0,2025-08-15,2025-08-15,株式会社ビーイング,,株式会社,大阪府,堺市中区,辻之１１９３番地３３,00140301,27,142,5998245,,,,,,,2025-08-15,1,,,,,ビーイング,0
1899,8120103006635,新規,0,2025-08-15,2025-08-15,合同会社Ｍｏａ,,合同会社,大阪府,大阪狭山市,山本東５９３番地,,27,231,5890036,,,,,,,2025-08-15,1,,,,,モア,0
1906,8122003003282,新規,0,2025-08-15,2025-08-15,塞西合同会社,,合同会社,大阪府,東大阪市,水走１丁目３－４５－３０３室,,27,227,5780921,,,,,,,2025-08-15,1,,,,,サイセイ,0
1923,8180001168092,新規,0,2025-08-15,2025-08-15,株式会社ツルノワ,,株式会社,愛知県,名古屋市緑区,四本木９３１番地（エクセリーヌ有松１０３号）,,23,114,4580039,,,,,,,2025-08-15,1,,,,,ツルノワ,0
1924,8180001168101,新規,0,2025-08-15,2025-08-15,株式会社レーベンス,,株式会社,愛知県,名古屋市中村区,名駅南１丁目２０番１６号グレイス名駅南９０１,,23,105,4500003,,,,,,,2025-08-15,1,,,,,レーベンス,0
1925,8180001168167,新規,0,2025-08-15,2025-08-15,株式会社ｓｔｙｌｅ‐ｐｌｕｓ,,株式会社,愛知県,名古屋市昭和区,福江２丁目９番３３号,,23,107,4660059,,,,,,,2025-08-15,1,,,,,スタイルプラス,0
1926,8180001168175,新規,0,2025-08-15,2025-08-15,株式会社ＲＡＵＬ,,株式会社,愛知県,名古屋市中村区,名駅４丁目２４番５号第２森ビル４０１,,23,105,4500002,,,,,,,2025-08-15,1,,,,,ラウル,0
1928,8180003028872,新規,0,2025-08-15,2025-08-15,ＮＩＨＯＮ　ＡＵＴＯＬＩＮＫ合同会社,,合同会社,愛知県,瀬戸市,北浦町４丁目２１番１号小林ハイツ２１号室,,23,204,4890915,,,,,,,2025-08-15,1,,,,,ニホンオートリンク,0
1932,8190003005144,新規,0,2025-08-15,2025-08-15,合同会社満月堂,,合同会社,三重県,津市,久居中町１７７番地１２,,24,201,5141107,,,,,,,2025-08-15,1,,,,,,0
1944,8240001065374,新規,0,2025-08-15,2025-08-15,株式会社レゾナスタッフ,,株式会社,広島県,広島市中区,宝町１番１５号宝町ビル７階７０２号室,,34,101,7300044,,,,,,,2025-08-15,1,,,,,レゾナスタッフ,0
1945,8250005009021,新規,0,2025-08-15,2025-08-15,医療法人田村医院,,その他の設立登記法人,山口県,山口市,葵１丁目４番７３号,,35,203,7530821,,,,,,,2025-08-15,1,,,,,タムライイン,0
1951,8260003005293,新規,0,2025-08-15,2025-08-15,合同会社ハレモアナ,,合同会社,岡山県,岡山市中区,神下４８７番地９,,33,102,7038225,,,,,,,2025-08-15,1,,,,,ハレモアナ,0
1952,8290001110885,新規,0,2025-08-15,2025-08-15,株式会社ミライズ,,株式会社,福岡県,福岡市博多区,中呉服町三丁目２９－８０５,,40,132,8120035,,,,,,,2025-08-15,1,,,,,ミライズ,0
1953,8290001110976,新規,0,2025-08-15,2025-08-15,株式会社ＬＩＶＥＮＴ,,株式会社,福岡県,朝倉郡筑前町,朝日７５６番地１,,40,447,8380227,,,,,,,2025-08-15,1,,,,,リベント,0
1954,8290001111017,新規,0,2025-08-15,2025-08-15,株式会社豊永,,株式会社,福岡県,福岡市博多区,空港前５丁目５番５号,,40,132,8120002,,,,,,,2025-08-15,1,,,,,トヨナガ,0
1955,8290001111066,新規,0,2025-08-15,2025-08-15,リブデコ株式会社,,株式会社,福岡県,福岡市東区,多の津４丁目５番１２号,,40,131,8130034,,,,,,,2025-08-15,1,,,,,リブデコ,0
1956,8290001111124,新規,0,2025-08-15,2025-08-15,株式会社ＦｕｌｌｅｓｔＬｉｆｅ,,株式会社,福岡県,春日市,平田台１丁目１３８番地２９,,40,218,8160812,,,,,,,2025-08-15,1,,,,,フレストライフ,0
1957,8290001111149,新規,0,2025-08-15,2025-08-15,株式会社ライフファクター,,株式会社,福岡県,糟屋郡篠栗町,大字尾仲４９８番地１１,,40,342,8112413,,,,,,,2025-08-15,1,,,,,ライフファクター,0
1963,8320001021286,新規,0,2025-08-15,2025-08-15,大分重建株式会社,,株式会社,大分県,中津市,大字三光土田字南畑１２７番地１,,44,203,8710099,,,,,,,2025-08-15,1,,,,,オオイタジュウケン,0
1968,8330001033495,新規,0,2025-08-15,2025-08-15,株式会社ＳｔｒｕｃＸ,,株式会社,熊本県,熊本市東区,石原２丁目４番４３号,,43,102,8618046,,,,,,,2025-08-15,1,,,,,ストラクス,0
1984,8400001017136,新規,0,2025-08-15,2025-08-15,株式会社ＦＩＶＥＳＴＡＲ,,株式会社,岩手県,奥州市,水沢南町２番２１号杉山ビル１－３号室,,03,215,0230851,,,,,,,2025-08-15,1,,,,,ファイブスター,0
1985,8400003003522,新規,0,2025-08-15,2025-08-15,合同会社まつるべ,,合同会社,岩手県,一関市,厳美町字祭畤１２番地,,03,209,0210101,,,,,,,2025-08-15,1,,,,,マツルベ,0
1990,8430001094998,新規,0,2025-08-15,2025-08-15,株式会社ＩＫｕｎｉｔ,,株式会社,北海道,札幌市北区,南あいの里７丁目２８番７号,,01,102,0028091,,,,,,,2025-08-15,1,,,,,アイケーユニット,0
1994,8430005015273,新規,0,2025-08-15,2025-08-15,一般社団法人ぽっと,,その他の設立登記法人,北海道,余市郡赤井川村,字常盤４４３番地１,,01,409,0460571,,,,,,,2025-08-15,1,,,,,ポット,0
1997,8450001014707,新規,0,2025-08-15,2025-08-15,株式会社ＳＡＴＴＡＲ　ＴＲＡＤＩＮＧ,,株式会社,北海道,上川郡比布町,緑町３丁目５番１２号,,01,455,0780344,,,,,,,2025-08-15,1,,,,,サタールトレーディング,0
2002,8490003002037,新規,0,2025-08-15,2025-08-15,ＡＪＡ　Ｗｏｒｋｓ合同会社,,合同会社,高知県,高知市,旭駅前町４９番地２,,39,201,7800938,,,,,,,2025-08-15,1,,,,,エイジャワークス,0
2011,9010001257563,新規,0,2025-08-15,2025-08-15,株式会社Ｏｎｅ　Ｔａｂｌｅ＆Ｃｏ．,,株式会社,東京都,中央区,日本橋３丁目１番３号,,13,102,1030027,,,,,,,2025-08-15,1,,,,,ワンテーブルアンドカンパニー,0
2012,9010001257605,新規,0,2025-08-15,2025-08-15,株式会社ｈａｒｕｍｙ,,株式会社,東京都,中央区,銀座１丁目２２番１１号銀座大竹ビジデンス２Ｆ,,13,102,1040061,,,,,,,2025-08-15,1,,,,,ハルミー,0
2013,9010001257621,新規,0,2025-08-15,2025-08-15,アメリオーラ株式会社,,株式会社,東京都,千代田区,神田和泉町１番地６－１６ヤマトビル４０５,,13,101,1010024,,,,,,,2025-08-15,1,,,,,アメリオーラ,0
2014,9010001257670,新規,0,2025-08-15,2025-08-15,株式会社ヤドラン,,株式会社,東京都,千代田区,神田佐久間町３丁目１４－２ｈａｂｉｃｅｒａ秋葉原０３号室,,13,101,1010025,,,,,,,2025-08-15,1,,,,,ヤドラン,0
2016,9010003048390,新規,0,2025-08-15,2025-08-15,Ｂ１３　Ｊａｐａｎ合同会社,,合同会社,東京都,中央区,銀座４丁目１４番１１号七十七銀座ビル８階,,13,102,1040061,,,,,,,2025-08-15,1,,,,,ビーサーティーンジャパン,0
2017,9010003048424,新規,0,2025-08-15,2025-08-15,合同会社ホーム４,,合同会社,東京都,千代田区,丸の内１丁目４番１号東京共同会計事務所内,,13,101,1000005,,,,,,,2025-08-15,1,,,,,ホームヨン,0
2018,9010003048440,新規,0,2025-08-15,2025-08-15,合同会社バッテリーパーク２０,,合同会社,東京都,千代田区,有楽町１丁目１番２号東京ミッドタウン日比谷日比谷三井タワー３３０２号室,,13,101,1000006,,,,,,,2025-08-15,1,,,,,バッテリーパークトゥエンティー,0
2024,9010401192419,新規,0,2025-08-15,2025-08-15,株式会社Ｒｉｃｈｅｓｓｅｓ,,株式会社,東京都,港区,六本木３丁目１６番１２号六本木ＫＳビル５Ｆ,,13,103,1060032,,,,,,,2025-08-15,1,,,,,リシェス,0
2025,9010401192443,新規,0,2025-08-15,2025-08-15,株式会社ＮａＳ,,株式会社,東京都,港区,南青山３丁目１番３６号青山丸竹ビル６Ｆ,,13,103,1070062,,,,,,,2025-08-15,1,,,,,ナス,0
2029,9010403035807,新規,0,2025-08-15,2025-08-15,ＶＩＭＥＥＲ合同会社,,合同会社,東京都,港区,白金１丁目２５番４－５０２号,,13,103,1080072,,,,,,,2025-08-15,1,,,,,ヴィーメーア,0
2030,9010403035823,新規,0,2025-08-15,2025-08-15,鹿児島物産合同会社,,合同会社,東京都,港区,南青山２丁目２番１５号,,13,103,1070062,,,,,,,2025-08-15,1,,,,,カゴシマブッサン,0
2031,9010403035856,新規,0,2025-08-15,2025-08-15,合同会社ピタゴラス,,合同会社,東京都,港区,虎ノ門５丁目１番４号,,13,103,1050001,,,,,,,2025-08-15,1,,,,,ピタゴラス,0
2034,9010501054527,新規,0,2025-08-15,2025-08-15,株式会社Ｏｎｗｏｒｄｓ,,株式会社,東京都,台東区,三筋１丁目１７番１２号長沼ビル２０１,,13,106,1110055,,,,,,,2025-08-15,1,,,,,オンワーズ,0
2047,9011003022170,新規,0,2025-08-15,2025-08-15,合同会社田中商店,,合同会社,東京都,目黒区,碑文谷１丁目２－１０シーアイマンション碑文谷７０１,,13,110,1520003,,,,,,,2025-08-15,1,,,,,タナカショウテン,0
2052,9011103016279,新規,0,2025-08-15,2025-08-15,Ｋｎｏｗｌｅｄｇｅ　Ｕｐ合同会社,,合同会社,東京都,新宿区,西新宿３丁目３番１３号西新宿水間ビル２Ｆ,,13,104,1600023,,,,,,,2025-08-15,1,,,,,ナレッジアップ,0
2053,9011105011559,新規,0,2025-08-15,2025-08-15,一般財団法人２０２８年技能五輪国際大会日本組織委員会,,その他の設立登記法人,東京都,新宿区,神楽坂４丁目１番１号,,13,104,1620825,,,,,,,2025-08-15,1,,,,,ニセンニジュウハチネンギノウゴリンコクサイタイカイニホンソシキイインカイ,0
2062,9011701028618,新規,0,2025-08-15,2025-08-15,株式会社みらいＪａｐａｎ,,株式会社,東京都,江戸川区,興宮町２２番９号,,13,123,1330042,,,,,,,2025-08-15,1,,,,,ミライジャパン,0
2066,9011801046593,新規,0,2025-08-15,2025-08-15,株式会社Ｐｉｎｔｏ　Ｃｒｅｗ,,株式会社,東京都,葛飾区,立石２丁目１１番１５－６０４号サングランデ立石,,13,122,1240012,,,,,,,2025-08-15,1,,,,,ピントクルー,0
2069,9012401043485,新規,0,2025-08-15,2025-08-15,株式会社ｗｋ,,株式会社,東京都,多摩市,落合３丁目１１番地の９,,13,224,2060033,,,,,,,2025-08-15,1,,,,,ダブルケー,0
2095,9021001086092,新規,0,2025-08-15,2025-08-15,株式会社Ｌｅ　Ｃｒｅ,,株式会社,神奈川県,相模原市中央区,相模原２丁目４番１２号ローズハイツ相模原１１５,,14,152,2520231,,,,,,,2025-08-15,1,,,,,ルクレ,0
2096,9021001086101,新規,0,2025-08-15,2025-08-15,静山舎株式会社,,株式会社,神奈川県,茅ヶ崎市,赤羽根２４７３番地１,,14,207,2530001,,,,,,,2025-08-15,1,,,,,セイザンシャ,0
2098,9021003016403,新規,0,2025-08-15,2025-08-15,合同会社ＹＡＡＫテックエンジニアリング,,合同会社,神奈川県,相模原市中央区,南橋本１丁目４番２５－６０５号,,14,152,2520253,,,,,,,2025-08-15,1,,,,,ワイエーエーケーテックエンジニアリング,0
2108,9040001140015,新規,0,2025-08-15,2025-08-15,ふらっと製菓株式会社,,株式会社,千葉県,柏市,千代田２丁目１３番３８号,,12,217,2770025,,,,,,,2025-08-15,1,,,,,フラットセイカ,0
2109,9040001140031,新規,0,2025-08-15,2025-08-15,ＴＯビジネスサポート株式会社,,株式会社,千葉県,船橋市,西船３丁目７番６－６１９号,,12,204,2730031,,,,,,,2025-08-15,1,,,,,ティーオービジネスサポート,0
2110,9040001140072,新規,0,2025-08-15,2025-08-15,株式会社ビルドインク,,株式会社,千葉県,柏市,中央１丁目５－１４,,12,217,2770023,,,,,,,2025-08-15,1,,,,,ビルドインク,0
2111,9040001140080,新規,0,2025-08-15,2025-08-15,株式会社Ｗａｒｅｖｅｒ,,株式会社,千葉県,茂原市,猿袋７３２－７,,12,210,2970041,,,,,,,2025-08-15,1,,,,,ワレバ,0
2114,9040003028274,新規,0,2025-08-15,2025-08-15,合同会社Ｎｅｓｈｅｅｐ,,合同会社,千葉県,松戸市,本町１７－１１芹澤ビル６Ｆ,,12,207,2710091,,,,,,,2025-08-15,1,,,,,ネシープ,0
2116,9050001057043,新規,0,2025-08-15,2025-08-15,トモヱホールディングス株式会社,,株式会社,茨城県,古河市,下辺見１９５５番地,,08,204,3060235,,,,,,,2025-08-15,1,,,,,トモヱホールディングス,0
2118,9060001038513,新規,0,2025-08-15,2025-08-15,株式会社ＴＲＡＭエステート,,株式会社,栃木県,小山市,大字大本６７４番地,,09,208,3230009,,,,,,,2025-08-15,1,,,,,トラムエステート,0
2120,9070001043264,新規,0,2025-08-15,2025-08-15,株式会社ＧｉｆｔｅＤ,,株式会社,群馬県,太田市,岩瀬川町５７５番地１ビケンハウスＦ棟,,10,205,3730841,,,,,,,2025-08-15,1,,,,,ギフテッド,0
2121,9070001043272,新規,0,2025-08-15,2025-08-15,株式会社結キャリア,,株式会社,群馬県,伊勢崎市,境伊与久２６６３番地４,,10,204,3700105,,,,,,,2025-08-15,1,,,,,ユイキャリア,0
2122,9070003006046,新規,0,2025-08-15,2025-08-15,合同会社ＳＯＳＯ,,合同会社,群馬県,高崎市,小八木町３１２－１５ビジネスパーク小八木２Ｆ,,10,202,3700071,,,,,,,2025-08-15,1,,,,,ソソ,0
2123,9070005010418,新規,0,2025-08-15,2025-08-15,一般社団法人ｓｏｌｄａｒ,,その他の設立登記法人,群馬県,太田市,新田金井町４４５番地,,10,205,3700341,,,,,,,2025-08-15,1,,,,,ソルダー,0
2149,9120001278664,新規,0,2025-08-15,2025-08-15,芳華株式会社,,株式会社,大阪府,大阪市西成区,玉出中２丁目９番１３号,,27,122,5570044,,,,,,,2025-08-15,1,,,,,ホウカ,0
2150,9120001278739,新規,0,2025-08-15,2025-08-15,株式会社シンシアゲート,,株式会社,大阪府,大阪市中央区,安土町３丁目２番８号,,27,128,5410052,,,,,,,2025-08-15,1,,,,,シンシアゲート,0
2151,9120001278771,新規,0,2025-08-15,2025-08-15,株式会社ハピネスト,,株式会社,大阪府,大阪市住吉区,長峡町７番２０－８０１号,,27,120,5580044,,,,,,,2025-08-15,1,,,,,ハピネスト,0
2152,9120001278796,新規,0,2025-08-15,2025-08-15,株式会社ハラダ製作所,,株式会社,大阪府,大阪市城東区,今福西３丁目１２番１号,,27,118,5360004,,,,,,,2025-08-15,1,,,,,ハラダセイサクジョ,0
2153,9120001278895,新規,0,2025-08-15,2025-08-15,萬玉株式会社,,株式会社,大阪府,大阪市東成区,深江北２丁目１７番１７号,,27,115,5370001,,,,,,,2025-08-15,1,,,,,マンギョク,0
2155,9120003030288,新規,0,2025-08-15,2025-08-15,合同会社シオン,,合同会社,大阪府,大阪市生野区,中川３丁目３番１１号,,27,116,5440005,,,,,,,2025-08-15,1,,,,,シオン,0
2156,9120003030296,新規,0,2025-08-15,2025-08-15,大和合同会社,,合同会社,大阪府,大阪市鶴見区,浜３丁目８－４３、１階１０１号室,,27,124,5380035,,,,,,,2025-08-15,1,,,,,ヤマト,0
2158,9120101072273,新規,0,2025-08-15,2025-08-15,日本イノベーション株式会社,,株式会社,大阪府,堺市北区,大豆塚町２丁５０－１０,,27,146,5918042,,,,,,,2025-08-15,1,,,,,ニホンイノベーション,0
2159,9120101072281,新規,0,2025-08-15,2025-08-15,東参源株式会社,,株式会社,大阪府,泉佐野市,市場西１丁目１番１０号谷口ビル２－Ｂ,,27,213,5980006,,,,,,,2025-08-15,1,,,,,トウサンゲン,0
2161,9122003003281,新規,0,2025-08-15,2025-08-15,ＳＪＰ　ＣＯＮＮＥＣＴ合同会社,,合同会社,大阪府,東大阪市,水走１丁目３－４５－２０６室,,27,227,5780921,,,,,,,2025-08-15,1,,,,,エスジェーピーコネクト,0
2169,9140001139658,新規,0,2025-08-15,2025-08-15,株式会社ぷりんとＦｉｇｕ・ｒａＩｎ,,株式会社,兵庫県,神戸市中央区,北長狭通３丁目３０－８８,,28,110,6500012,,,,,,,2025-08-15,1,,,,,プリントフィグライン,0
2174,9140003022449,新規,0,2025-08-15,2025-08-15,おかじ合同会社,,合同会社,兵庫県,神戸市東灘区,御影中町１丁目９－１,,28,101,6580054,,,,,,,2025-08-15,1,,,,,オカジ,0
2179,9160001026986,新規,0,2025-08-15,2025-08-15,株式会社ＭＫコーポレーション,,株式会社,滋賀県,近江八幡市,鷹飼町２５４番地１４,,25,204,5230891,,,,,,,2025-08-15,1,,,,,エムケーコーポレーション,0
2180,9160001026994,新規,0,2025-08-15,2025-08-15,株式会社ＯＴＶ,,株式会社,滋賀県,草津市,青地町９５４番地３,,25,206,5250041,,,,,,,2025-08-15,1,,,,,オーティーブイ,0
2186,9180001168109,新規,0,2025-08-15,2025-08-15,株式会社ＥＮＩＳＨＩ,,株式会社,愛知県,名古屋市中川区,中野本町１丁目３３番地,,23,110,4540047,,,,,,,2025-08-15,1,,,,,エニシ,0
2187,9180001168117,新規,0,2025-08-15,2025-08-15,株式会社Ｇｒｅｅｎ　Ｐｏｉｎｔ　Ｂａｓｅ,,株式会社,愛知県,名古屋市守山区,大字中志段味字曲畷２４４４番地の３８,,23,113,4630002,,,,,,,2025-08-15,1,,,,,グリーンポイントベース,0
2188,9180001168125,新規,0,2025-08-15,2025-08-15,株式会社ダンケ,,株式会社,愛知県,一宮市,小信中島字東鵯平８番地１,,23,203,4940007,,,,,,,2025-08-15,1,,,,,ダンケ,0
2189,9180001168158,新規,0,2025-08-15,2025-08-15,北川ＨＤ株式会社,,株式会社,愛知県,名古屋市南区,明治１丁目２２番２２号,,23,112,4570861,,,,,,,2025-08-15,1,,,,,キタガワエイチディー,0
2190,9180001168166,新規,0,2025-08-15,2025-08-15,久野ホールディングス株式会社,,株式会社,愛知県,名古屋市緑区,野末町２０１番地,,23,114,4580915,,,,,,,2025-08-15,1,,,,,クノホールディングス,0
2192,9180303006692,新規,0,2025-08-15,2025-08-15,合同会社アグリ２,,合同会社,愛知県,豊田市,若林東町東山４０番地８,,23,211,4730914,,,,,,,2025-08-15,1,,,,,アグリニ,0
2194,9190001032478,新規,0,2025-08-15,2025-08-15,クロスロード株式会社,,株式会社,三重県,松阪市,上川町３７３３番地２７,,24,204,5150041,,,,,,,2025-08-15,1,,,,,クロスロード,0
2196,9200001044117,新規,0,2025-08-15,2025-08-15,株式会社ＷｉｎＤｒｅａｍ,,株式会社,岐阜県,揖斐郡池田町,沓井字下村前西８５１番地２,,21,404,5032401,,,,,,,2025-08-15,1,,,,,ウィンドリーム,0
2201,9230001021039,新規,0,2025-08-15,2025-08-15,株式会社ＹＣ,,株式会社,富山県,富山市,上冨居２丁目１０番８号,,16,201,9300835,,,,,,,2025-08-15,1,,,,,ワイシー,0
2202,9230001021047,新規,0,2025-08-15,2025-08-15,株式会社ＷｏｎｄｅｒＶｉｎｅ,,株式会社,富山県,富山市,堀川小泉町１丁目４番１２号,,16,201,9398081,,,,,,,2025-08-15,1,,,,,ワンダーヴァイン,0
2207,9270005005653,新規,0,2025-08-15,2025-08-15,一般社団法人外国人ライフサポートｎｉｃｏｔｔｏ,,その他の設立登記法人,鳥取県,鳥取市,西円通寺９６番地６,,31,201,6801145,,,,,,,2025-08-15,1,,,,,ガイコクジンライフサポートニコット,0
2208,9290001111065,新規,0,2025-08-15,2025-08-15,株式会社ラプロバ,,株式会社,福岡県,福岡市中央区,平尾２丁目２番２２号ＭＡＹコーポ一本木１０１,,40,133,8100014,,,,,,,2025-08-15,1,,,,,ラプロバ,0
2210,9290801031792,新規,0,2025-08-15,2025-08-15,株式会社ＳＡＫＡＳ,,株式会社,福岡県,北九州市門司区,東本町２番１９号,,40,101,8000000,,,,,,,2025-08-15,1,,,,,サカス,0
2217,9320003004742,新規,0,2025-08-15,2025-08-15,合同会社ＭＩＴＳＵＨＡ,,合同会社,大分県,日田市,天瀬町五馬市２１１８番地１,,44,204,8770111,,,,,,,2025-08-15,1,,,,,ミツハ,0
2219,9330001033494,新規,0,2025-08-15,2025-08-15,株式会社本道工業,,株式会社,熊本県,熊本市南区,荒尾３丁目２番１２号スプルースＩＶ－３０１,00140295,43,104,8614136,,,,,,,2025-08-15,1,,,,,ホンドウコウギョウ,0
2222,9340001027586,新規,0,2025-08-15,2025-08-15,株式会社ジャスミン,,株式会社,鹿児島県,鹿児島市,東千石町２番３８号福楽園ビル１Ｆ１０２号,,46,201,8920842,,,,,,,2025-08-15,1,,,,,ジャスミン,0
2229,9370003007253,新規,0,2025-08-15,2025-08-15,合同会社心灯,,合同会社,宮城県,大崎市,古川稲葉字新堀６０番地１ジャルダンフルールＤ２０３号,,04,215,9896135,,,,,,,2025-08-15,1,,,,,シントウ,0
2231,9380001035511,新規,0,2025-08-15,2025-08-15,梅宮農園株式会社,,株式会社,福島県,伊達市,保原町字柏町１１８番地１,,07,213,9600651,,,,,,,2025-08-15,1,,,,,ウメミヤノウエン,0
2232,9380003006114,新規,0,2025-08-15,2025-08-15,合同会社パルパリエ,,合同会社,福島県,福島市,栄町１１番１０号栄町ビルＢ１Ｆ,,07,201,9608031,,,,,,,2025-08-15,1,,,,,パルパリエ,0
2235,9390003002426,新規,0,2025-08-15,2025-08-15,合同会社月山銀工房,,合同会社,山形県,西村山郡西川町,大字睦合字滝ノ前甲４０５番地２,,06,322,9900701,,,,,,,2025-08-15,1,,,,,ガッサンギンコウボウ,0
2238,9430005015272,新規,0,2025-08-15,2025-08-15,一般社団法人北日本相続センター,,その他の設立登記法人,北海道,札幌市東区,北六条東６丁目１番２号,,01,103,0600906,,,,,,,2025-08-15,1,,,,,キタニホンソウゾクセンター,0
2239,9440003001703,新規,0,2025-08-15,2025-08-15,合同会社橘仮設,,合同会社,北海道,北斗市,七重浜１丁目９番１２号,,01,236,0490111,,,,,,,2025-08-15,1,,,,,タチバナカセツ,0
2240,9450001014706,新規,0,2025-08-15,2025-08-15,株式会社ローカルのみらい,,株式会社,北海道,上川郡上川町,南町１０３３番地,,01,457,0781753,,,,,,,2025-08-15,1,,,,,ローカルノミライ,0
2241,9460101007740,新規,0,2025-08-15,2025-08-15,株式会社北海道カーレスキュー,,株式会社,北海道,河東郡上士幌町,字上士幌東２線２４３坂本空調内,,01,633,0801408,,,,,,,2025-08-15,1,,,,,,0
2249,9490001011146,新規,0,2025-08-15,2025-08-15,株式会社ＶＲＡＩ,,株式会社,高知県,高知市,大津甲９８２番地４,,39,201,7815102,,,,,,,2025-08-15,1,,,,,ヴレ,0
2251,9500005008814,新規,0,2025-08-15,2025-08-15,一般社団法人笑顔ライフ協会,,その他の設立登記法人,愛媛県,松山市,余戸西４丁目１番４号,,38,201,7900046,,,,,,,2025-08-15,1,,,,,エガオライフキョウカイ,0
