sequenceNumber,corporateNumber,process,correct,updateDate,changeDate,name,nameImageId,kind,prefectureName,cityName,streetNumber,addressImageId,prefectureCode,cityCode,postCode,addressOutside,addressOutsideImageId,closeDate,closeCause,successorCorporateNumber,changeCause,assignmentDate,latest,enName,enPrefectureName,enCityName,enAddressOutside,furigana,hihyoji
14,1010005033919,新規,0,2021-09-08,2021-09-08,一般社団法人日本インドアゴルフ協会,,その他の設立登記法人,東京都,中央区,築地３丁目１１番６号,,13,102,1040045,,,,,,,2021-09-08,1,,,,,ニホンインドアゴルフキョウカイ,0
15,1010005033943,新規,0,2021-09-08,2021-09-08,医療法人社団令明会,,その他の設立登記法人,東京都,中央区,日本橋１丁目１８番１４号クローバー日本橋２階,,13,102,1030027,,,,,,,2021-09-08,1,,,,,レイメイカイ,0
16,1010101014847,新規,0,2021-09-08,2021-09-08,令和通信機株式会社,,株式会社,東京都,八王子市,子安町４丁目９番１１号グリーントークビル１階,,13,201,1920904,,,,,,,2021-09-08,1,,,,,レイワツウシンキ,0
27,1010401162544,新規,0,2021-09-08,2021-09-08,株式会社ＢＦＦ,,株式会社,東京都,港区,南麻布４丁目１４番２号ＬＡＺ南麻布３Ｆ,,13,103,1060047,,,,,,,2021-09-08,1,,,,,ビーエフエフ,0
28,1010401162577,新規,0,2021-09-08,2021-09-08,Ｃｌｅ　Ｇｌｏｂａｌ　Ａｅｓｔｈｅｔｉｃｓ株式会社,,株式会社,東京都,港区,六本木６丁目１２番３－２９０１号,,13,103,1060032,,,,,,,2021-09-08,1,,,,,クレグローバルエステティックス,0
33,1010403026078,新規,0,2021-09-08,2021-09-08,ＤＳ　Ｎｉｓｈｉｓｈｉｎｊｕｋｕ合同会社,,合同会社,東京都,港区,虎ノ門５丁目１番４号,,13,103,1050001,,,,,,,2021-09-08,1,,,,,ディーエスニシシンジュク,0
39,1010601059904,新規,0,2021-09-08,2021-09-08,株式会社Ｙｏｊｉ,,株式会社,東京都,江東区,豊洲６丁目２番３１－２５１７号,,13,108,1350061,,,,,,,2021-09-08,1,,,,,ヨジ,0
40,1010603009122,新規,0,2021-09-08,2021-09-08,合同会社フォーライムズ,,合同会社,東京都,江東区,東砂８丁目１８番２２－２１７号,,13,108,1360074,,,,,,,2021-09-08,1,,,,,フォーライムズ,0
43,1010801032297,新規,0,2021-09-08,2021-09-08,株式会社ＳＩＬ　ＳＫＹ,,株式会社,東京都,大田区,山王２丁目１１番１８号,,13,111,1430023,,,,,,,2021-09-08,1,,,,,エスアイエルスカイ,0
47,1010901049407,新規,0,2021-09-08,2021-09-08,ステップパートナーズ株式会社,,株式会社,東京都,世田谷区,北沢３丁目５番１７号,,13,112,1550031,,,,,,,2021-09-08,1,,,,,ステップパートナーズ,0
48,1010903006777,新規,0,2021-09-08,2021-09-08,ＣＢＰ合同会社,,合同会社,東京都,世田谷区,玉川２丁目７番３号コニファー二子玉川２Ｆ,,13,112,1580094,,,,,,,2021-09-08,1,,,,,シービーピー,0
49,1010905004201,新規,0,2021-09-08,2021-09-08,一般社団法人建物長寿命化施工協会,,その他の設立登記法人,東京都,世田谷区,船橋６丁目５番１９号株式会社ジョスコム内,,13,112,1560055,,,,,,,2021-09-08,1,,,,,タテモノチョウジュミョウカセコウキョウカイ,0
55,1011001142630,新規,0,2021-09-08,2021-09-08,株式会社ｓｅｎｓｅｓ,,株式会社,東京都,渋谷区,神宮前６丁目２３番４号桑野ビル２階,,13,113,1500001,,,,,,,2021-09-08,1,,,,,センセス,0
56,1011003013301,新規,0,2021-09-08,2021-09-08,合同会社ラベルマドモアゼル,,合同会社,東京都,渋谷区,恵比寿２丁目２８－１１－４０２,,13,113,1500013,,,,,,,2021-09-08,1,,,,,ラベルマドモアゼル,0
58,1011101096231,新規,0,2021-09-08,2021-09-08,株式会社ＳＫＮクリエイト,,株式会社,東京都,新宿区,市谷本村町７番４－１５０２号,,13,104,1620845,,,,,,,2021-09-08,1,,,,,エスケイエヌクリエイト,0
61,1011303004149,新規,0,2021-09-08,2021-09-08,合同会社二十九三十,,合同会社,東京都,杉並区,方南１丁目３９番７号Ｅｒｉｃａ３０３,,13,115,1680062,,,,,,,2021-09-08,1,,,,,ニジュウクサンジュウ,0
62,1011303004157,新規,0,2021-09-08,2021-09-08,合同会社ティー・エム・ティー,,合同会社,東京都,杉並区,高井戸東３丁目１４番９－１１号,,13,115,1680072,,,,,,,2021-09-08,1,,,,,ティーエムティー,0
66,1011601025391,新規,0,2021-09-08,2021-09-08,株式会社緑設備,,株式会社,東京都,練馬区,土支田１丁目９番２２号,,13,120,1790076,,,,,,,2021-09-08,1,,,,,ミドリセツビ,0
68,1011701024673,新規,0,2021-09-08,2021-09-08,株式会社本郷新電機,,株式会社,東京都,江戸川区,上篠崎３丁目８番１７号,,13,123,1330054,,,,,,,2021-09-08,1,,,,,ホンゴウシンデンキ,0
72,1012301012696,新規,0,2021-09-08,2021-09-08,株式会社マルユウ商会,,株式会社,東京都,町田市,金井５丁目１１８１番地,,13,209,1950072,,,,,,,2021-09-08,1,,,,,マルユウショウカイ,0
73,1012301012705,新規,0,2021-09-08,2021-09-08,株式会社ｅｆｉｍ,,株式会社,東京都,町田市,小山ヶ丘４丁目６番地９グロリアヒルズ多摩境９０１,,13,209,1940215,,,,,,,2021-09-08,1,,,,,エフィム,0
86,1020001142838,新規,0,2021-09-08,2021-09-08,オリエント・アセット・マネジメント株式会社,,株式会社,神奈川県,川崎市中原区,小杉町２丁目２７６番地１,,14,133,2110063,,,,,,,2021-09-08,1,,,,,オリエントアセットマネジメント,0
87,1020001142920,新規,0,2021-09-08,2021-09-08,株式会社ＡｒｔＣｕｒａｔｏｒ,,株式会社,神奈川県,横浜市港南区,芹が谷４丁目１２番３０号,,14,111,2330006,,,,,,,2021-09-08,1,,,,,アートキュレーター,0
88,1020001142937,新規,0,2021-09-08,2021-09-08,株式会社録音,,株式会社,神奈川県,川崎市中原区,新丸子東２丁目９０２番地１ｃｏｍｏｄｏ５０３,,14,133,2110004,,,,,,,2021-09-08,1,,,,,ロクオン,0
92,1020005015189,新規,0,2021-09-08,2021-09-08,一般社団法人便利屋カンパニー,,その他の設立登記法人,神奈川県,横浜市西区,北幸１丁目１番８号エキニア横浜５階ＨａｍａＰｏｒｔ内,,14,103,2200004,,,,,,,2021-09-08,1,,,,,,0
95,1021001073866,新規,0,2021-09-08,2021-09-08,株式会社北原設備,,株式会社,神奈川県,藤沢市,菖蒲沢２２１番地の４,,14,205,2520823,,,,,,,2021-09-08,1,,,,,キタハラセツビ,0
96,1021001073890,新規,0,2021-09-08,2021-09-08,株式会社ドライブコンサルティング,,株式会社,神奈川県,座間市,栗原中央１丁目３５番３０号,,14,216,2520014,,,,,,,2021-09-08,1,,,,,ドライブコンサルティング,0
101,1030001144230,新規,0,2021-09-08,2021-09-08,ＲＴＨＫ株式会社,,株式会社,埼玉県,さいたま市中央区,鈴谷６丁目１５番３１号,,11,105,3380013,,,,,,,2021-09-08,1,,,,,アールティーエイチケー,0
102,1030001144239,新規,0,2021-09-08,2021-09-08,株式会社Ｍ－ＰＲＯＧＲＥＳＳ,,株式会社,埼玉県,入間市,豊岡３丁目３番２０号内村ビル２Ｆ,,11,225,3580003,,,,,,,2021-09-08,1,,,,,エムプログレス,0
103,1030001144255,新規,0,2021-09-08,2021-09-08,シャフシャウエン株式会社,,株式会社,埼玉県,さいたま市大宮区,寿能町１丁目２４番地前場ビル１Ａ,,11,103,3300805,,,,,,,2021-09-08,1,,,,,シャフシャウエン,0
107,1030005020519,新規,0,2021-09-08,2021-09-08,一般社団法人権利擁護支援協会武蔵乃,,その他の設立登記法人,埼玉県,行田市,向町２７番３２号,,11,206,3610075,,,,,,,2021-09-08,1,,,,,ケンリヨウゴシエンキョウカイムサシノ,0
110,1040001120081,新規,0,2021-09-08,2021-09-08,ＡＨ　Ｗｏｒｋ株式会社,,株式会社,千葉県,千葉市花見川区,長作町２３４番２号,,12,102,2620044,,,,,,,2021-09-08,1,,,,,エーエイチワーク,0
119,1050005012927,新規,0,2021-09-08,2021-09-08,一般社団法人住宅再生管理機構,,その他の設立登記法人,茨城県,水戸市,南町３丁目３番３５号,,08,201,3100021,,,,,,,2021-09-08,1,,,,,ジュウタクサイセイカンリキコウ,0
127,1080001024403,新規,0,2021-09-08,2021-09-08,金谷ＰＦＩパートナーズ株式会社,,株式会社,静岡県,島田市,金谷代官町３４００番地,,22,209,4280012,,,,,,,2021-09-08,1,,,,,カナヤピーエフアイパートナーズ,0
143,1110005016698,新規,0,2021-09-08,2021-09-08,川東村農業会,,その他の設立登記法人,新潟県,新発田市,石喜１８０番地,,15,206,9570353,,,,,,,2021-09-08,1,,,,,カワヒガシムラ,0
156,1120001240276,新規,0,2021-09-08,2021-09-08,株式会社ＫＮＷトレーディング,,株式会社,大阪府,大阪市城東区,野江２丁目１８－２５,,27,118,5360006,,,,,,,2021-09-08,1,,,,,ケイエヌダブリュウトレーディング,0
168,1130001070078,新規,0,2021-09-08,2021-09-08,株式会社インテグラル,,株式会社,京都府,京都市南区,久世高田町３７３番地１京都桂川つむぎの街グランスクエア４３１号,,26,107,6018211,,,,,,,2021-09-08,1,,,,,インテグラル,0
173,1140001122968,新規,0,2021-09-08,2021-09-08,株式会社ＬＥＯＴＥＣ,,株式会社,兵庫県,尼崎市,蓬川町３０２番地の１６ザ・ガーデネスクシティアクア館７０５,,28,202,6600081,,,,,,,2021-09-08,1,,,,,レオテック,0
174,1140001122984,新規,0,2021-09-08,2021-09-08,株式会社ＬＩＦＥ　ＰＬＵＳ,,株式会社,兵庫県,南あわじ市,八木寺内１３０３番地１,,28,224,6560446,,,,,,,2021-09-08,1,,,,,ライフプラス,0
181,1150001024908,新規,0,2021-09-08,2021-09-08,株式会社レーブ,,株式会社,奈良県,香芝市,畑３丁目９５１番地１,,29,210,6390245,,,,,,,2021-09-08,1,,,,,レーブ,0
192,1180001147648,新規,0,2021-09-08,2021-09-08,株式会社エイコウホーム,,株式会社,愛知県,名古屋市北区,垣戸町２丁目２０番地,,23,103,4620867,,,,,,,2021-09-08,1,,,,,エイコウホーム,0
193,1180001147714,新規,0,2021-09-08,2021-09-08,Ｓ株式会社,,株式会社,愛知県,名古屋市千種区,池下町２丁目１５番地ハクビ池下ビル８Ｆ,,23,101,4640066,,,,,,,2021-09-08,1,,,,,エス,0
194,1180001147739,新規,0,2021-09-08,2021-09-08,夢企画建築株式会社,,株式会社,愛知県,知多市,新知東町２丁目２５番地の１０,,23,224,4780065,,,,,,,2021-09-08,1,,,,,ユメキカクケンチク,0
195,1180001147747,新規,0,2021-09-08,2021-09-08,株式会社ｃｒｉｍ,,株式会社,愛知県,一宮市,多加木４丁目３１番１２号,,23,203,4910837,,,,,,,2021-09-08,1,,,,,クリム,0
196,1180001147755,新規,0,2021-09-08,2021-09-08,株式会社ホースリゾート・Ｓ,,株式会社,愛知県,知多郡東浦町,大字森岡字西時志３番２３,,23,442,4702101,,,,,,,2021-09-08,1,,,,,ホースリゾートエス,0
208,1180003022931,新規,0,2021-09-08,2021-09-08,Ａ　Ｉ　Ｅ　Ｊａｐａｎ合同会社,,合同会社,愛知県,名古屋市中村区,名駅４丁目２４－１６広小路ガーデンアベニュー４階,,23,105,4500002,,,,,,,2021-09-08,1,,,,,エーアイイージャパン,0
217,1180301035338,新規,0,2021-09-08,2021-09-08,株式会社Ｐ＆Ｈ９８,,株式会社,愛知県,岡崎市,井田南町１番地１０,,23,202,4440068,,,,,,,2021-09-08,1,,,,,ピーアンドエイチキュウジュウハチ,0
220,1190001028665,新規,0,2021-09-08,2021-09-08,株式会社スマート不動産,,株式会社,三重県,四日市市,鵜の森１丁目８番１３号,,24,202,5100074,,,,,,,2021-09-08,1,,,,,スマートフドウサン,0
223,1200001039116,新規,0,2021-09-08,2021-09-08,株式会社ＧＰ,,株式会社,岐阜県,関市,小屋名１２９３番地の１シャンポール赤土坂Ａ１０１,,21,205,5013941,,,,,,,2021-09-08,1,,,,,ジーピー,0
228,1220001024413,新規,0,2021-09-08,2021-09-08,株式会社ＶＡＲＳ,,株式会社,石川県,野々市市,二日市２丁目１０番地,,17,212,9218809,,,,,,,2021-09-08,1,,,,,バース,0
229,1220001024421,新規,0,2021-09-08,2021-09-08,ドリームコントライブ株式会社,,株式会社,石川県,小松市,新町１２,,17,203,9230912,,,,,,,2021-09-08,1,,,,,ドリームコントライブ,0
234,1230003001723,新規,0,2021-09-08,2021-09-08,合同会社グッドライフ,,合同会社,富山県,富山市,桜木町１１－１０ふるさとビル１階,,16,201,9300082,,,,,,,2021-09-08,1,,,,,グッドライフ,0
239,1240003005269,新規,0,2021-09-08,2021-09-08,シーズンキッチン合同会社,,合同会社,広島県,広島市佐伯区,五日市駅前２丁目１７番７号,,34,108,7315125,,,,,,,2021-09-08,1,,,,,シーズンキッチン,0
251,1290001094482,新規,0,2021-09-08,2021-09-08,株式会社ねこ,,株式会社,福岡県,福岡市博多区,博多駅前２丁目１２番１２号５階,,40,132,8120011,,,,,,,2021-09-08,1,,,,,ネコ,0
252,1290001094499,新規,0,2021-09-08,2021-09-08,株式会社Ｒａｙ,,株式会社,福岡県,うきは市,吉井町福永４番地１,,40,225,8391305,,,,,,,2021-09-08,1,,,,,レイ,0
253,1290001094508,新規,0,2021-09-08,2021-09-08,株式会社ＮＥＸＴ　ＥＩＧＨＴ,,株式会社,福岡県,福岡市中央区,大名１丁目１０番１０号ＫＩビル２Ｆ,,40,133,8100041,,,,,,,2021-09-08,1,,,,,ネクストエイト,0
254,1290001094524,新規,0,2021-09-08,2021-09-08,株式会社岩隈電工,,株式会社,福岡県,古賀市,花見東２丁目８番９号,,40,223,8113112,,,,,,,2021-09-08,1,,,,,イワクマデンコウ,0
255,1290001094532,新規,0,2021-09-08,2021-09-08,株式会社シーノ,,株式会社,福岡県,福岡市東区,多の津４丁目９番１号ＯＫＩビル１０４号,,40,131,8130034,,,,,,,2021-09-08,1,,,,,シーノ,0
256,1290001094557,新規,0,2021-09-08,2021-09-08,アンドマンフィール株式会社,,株式会社,福岡県,福岡市中央区,天神１丁目９番１７号,,40,133,8100001,,,,,,,2021-09-08,1,,,,,アンドマンフィール,0
257,1290001094573,新規,0,2021-09-08,2021-09-08,株式会社ＲＨホーム,,株式会社,福岡県,久留米市,御井町２０３９番地４,,40,203,8390851,,,,,,,2021-09-08,1,,,,,アールエイチホーム,0
259,1290003011584,新規,0,2021-09-08,2021-09-08,合同会社アルゴフィックス,,合同会社,福岡県,福岡市西区,石丸２丁目３７番１１号,,40,135,8190025,,,,,,,2021-09-08,1,,,,,アルゴフィックス,0
267,1310001017465,新規,0,2021-09-08,2021-09-08,株式会社千都,,株式会社,長崎県,長崎市,琴海戸根原町８３１番地５,,42,201,8513211,,,,,,,2021-09-08,1,,,,,セント,0
269,1320001018586,新規,0,2021-09-08,2021-09-08,株式会社Ｕ’ｓ　Ｃｏｒｐｏｒａｔｉｏｎ,,株式会社,大分県,別府市,大字北石垣８１４番地の１シーサイド上人Ⅱ７０８号,00124169,44,202,8740000,,,,,,,2021-09-08,1,,,,,ユーズコーポレーション,0
286,1360003011420,新規,0,2021-09-08,2021-09-08,Ｓｏｕｎｄ・Ｓｔｒａｔｅｇｙ合同会社,,合同会社,沖縄県,沖縄市,桃原３丁目１５番１号,,47,211,9042164,,,,,,,2021-09-08,1,,,,,サウンドストラテジー,0
287,1360003011429,新規,0,2021-09-08,2021-09-08,合同会社Ａｒｑｕｅｂｕｓ,,合同会社,沖縄県,那覇市,首里崎山町３丁目４９番地４メゾンＴＯＫＵ５０２,,47,201,9030814,,,,,,,2021-09-08,1,,,,,アーキバス,0
289,1370001047523,新規,0,2021-09-08,2021-09-08,株式会社ＹＡＩＺＯＯ仙台,,株式会社,宮城県,柴田郡村田町,大字村田字針生前９―１,,04,322,9891305,,,,,,,2021-09-08,1,,,,,ヤイズーセンダイ,0
299,1380005012472,新規,0,2021-09-08,2021-09-08,特定非営利活動法人たすけ愛ネットワークふくしま,,その他の設立登記法人,福島県,福島市,上浜町１０番７号,,07,201,9608134,,,,,,,2021-09-08,1,,,,,タスケアイネットワークフクシマ,0
311,1430001084873,新規,0,2021-09-08,2021-09-08,株式会社北組,,株式会社,北海道,室蘭市,知利別町１丁目８番１３号,,01,205,0500076,,,,,,,2021-09-08,1,,,,,キタグミ,0
312,1430001084881,新規,0,2021-09-08,2021-09-08,株式会社北海道企画,,株式会社,北海道,札幌市豊平区,福住一条３丁目１３番１－２０５号,,01,105,0620041,,,,,,,2021-09-08,1,,,,,ホッカイドウキカク,0
313,1430003013104,新規,0,2021-09-08,2021-09-08,北笑架設合同会社,,合同会社,北海道,札幌市白石区,菊水元町八条２丁目１０番６号,,01,104,0030828,,,,,,,2021-09-08,1,,,,,ホクショウカセツ,0
317,1480001011476,新規,0,2021-09-08,2021-09-08,株式会社中田製作所,,株式会社,徳島県,阿南市,水井町西８４番地,,36,204,7715174,,,,,,,2021-09-08,1,,,,,ナカタセイサクショ,0
318,1480001011484,新規,0,2021-09-08,2021-09-08,きせきれい株式会社,,株式会社,徳島県,勝浦郡上勝町,大字旭字八重地１８番地４９,,36,302,7714502,,,,,,,2021-09-08,1,,,,,キセキレイ,0
330,1700150104660,新規,0,2021-09-08,2021-09-08,ＭＳＤ健康保険組合,,その他,東京都,千代田区,九段北１丁目１３－１２北の丸スクエア,,13,101,1020073,,,,,,,2021-09-08,1,,,,,エムエスデイーケンコウホケンクミアイ,0
337,2010001221014,新規,0,2021-09-08,2021-09-08,株式会社ローカルアライアンス,,株式会社,東京都,千代田区,外神田３丁目６番５－８０２号,,13,101,1010021,,,,,,,2021-09-08,1,,,,,ローカルアライランス,0
338,2010001221022,新規,0,2021-09-08,2021-09-08,株式会社ＳＨＩＰ第２３５号,,株式会社,東京都,千代田区,丸の内２丁目７番２号,,13,101,1000005,,,,,,,2021-09-08,1,,,,,エスエイチアイピーニヒヤクサンジユウゴゴウ,0
345,2010003035742,新規,0,2021-09-08,2021-09-08,合同会社Ａｌｂａ,,合同会社,東京都,中央区,日本橋本町２丁目６番７－４０６号,,13,102,1030023,,,,,,,2021-09-08,1,,,,,アルバ,0
351,2010005033918,新規,0,2021-09-08,2021-09-08,コンフィアンス税理士法人,,その他の設立登記法人,東京都,千代田区,飯田橋３丁目４番４号第５田中ビル１０階,,13,101,1020072,,,,,,,2021-09-08,1,,,,,コンフィアンス,0
352,2010005033926,新規,0,2021-09-08,2021-09-08,医療法人社団Ｈ＆Ｔ,,その他の設立登記法人,東京都,千代田区,神田和泉町１番地１－１３蓼沼ビル２階,,13,101,1010024,,,,,,,2021-09-08,1,,,,,エイチアンドティー,0
353,2010005033942,新規,0,2021-09-08,2021-09-08,プロキオンＭＦ一般社団法人,,その他の設立登記法人,東京都,千代田区,霞が関３丁目２番５号,,13,101,1000013,,,,,,,2021-09-08,1,,,,,プロキオンエムエフ,0
359,2010401162477,新規,0,2021-09-08,2021-09-08,Ｗａｌｌｅｔ　Ｔｅｃｈｎｏｌｏｇｉｅｓ株式会社,,株式会社,東京都,港区,元麻布３丁目１番６号,,13,103,1060046,,,,,,,2021-09-08,1,,,,,ウォレットテクノロジーズ,0
360,2010401162576,新規,0,2021-09-08,2021-09-08,株式会社シェアリングスタジオ,,株式会社,東京都,港区,新橋３丁目８番８号,,13,103,1050004,,,,,,,2021-09-08,1,,,,,シェアリングスタジオ,0
363,2010403026069,新規,0,2021-09-08,2021-09-08,合同会社ｍａｓｔｅｒ,,合同会社,東京都,港区,東新橋２丁目７番３号昭和アステック１号館ＢＩＺＭＡＲＫＳ新橋汐留２０８号,,13,103,1050021,,,,,,,2021-09-08,1,,,,,マスター,0
368,2010601059903,新規,0,2021-09-08,2021-09-08,株式会社セカンドファイブ,,株式会社,東京都,江東区,清澄３丁目６番１６号,,13,108,1350024,,,,,,,2021-09-08,1,,,,,セカンドファイブ,0
379,2010801032296,新規,0,2021-09-08,2021-09-08,株式会社木は氣なり,,株式会社,東京都,大田区,北千束２丁目３２番５号ひのきの里北千束３０２号,,13,111,1450062,,,,,,,2021-09-08,1,,,,,キハキナリ,0
382,2010903006792,新規,0,2021-09-08,2021-09-08,ａｎｄ　Ｍｅ合同会社,,合同会社,東京都,世田谷区,桜丘５丁目３０番８号世田谷桜丘グレイスコート３０３,,13,112,1560054,,,,,,,2021-09-08,1,,,,,アンドミー,0
387,2011001142638,新規,0,2021-09-08,2021-09-08,株式会社イマジンジャパン,,株式会社,東京都,渋谷区,代々木１丁目３７番３号岩崎ビル４階,,13,113,1510053,,,,,,,2021-09-08,1,,,,,イマジンジャパン,0
388,2011001142670,新規,0,2021-09-08,2021-09-08,株式会社ｐａｌａｃｅ,,株式会社,東京都,目黒区,大橋１丁目１０番１－１７０２号,,13,110,1530044,,,,,,,2021-09-08,1,,,,,パレス,0
389,2011001142679,新規,0,2021-09-08,2021-09-08,や・ゆ・よ株式会社,,株式会社,東京都,渋谷区,恵比寿２丁目１６番６号ＦＬＥＧ恵比寿Ｗ４０１,,13,113,1500013,,,,,,,2021-09-08,1,,,,,ヤユヨ,0
390,2011001142712,新規,0,2021-09-08,2021-09-08,株式会社雨晴,,株式会社,東京都,目黒区,東山３丁目９番１号シティオ東山３０１,,13,110,1530043,,,,,,,2021-09-08,1,,,,,アマハレ,0
391,2011001142737,新規,0,2021-09-08,2021-09-08,株式会社ＡｄＲｅｎａ,,株式会社,東京都,渋谷区,東３丁目１２番１５－４０４号,,13,113,1500011,,,,,,,2021-09-08,1,,,,,アドレナ,0
395,2011005009214,新規,0,2021-09-08,2021-09-08,医療法人社団昇龍会,,その他の設立登記法人,東京都,渋谷区,千駄ヶ谷５丁目２３番２号藤原建設ビル２階,,13,113,1510051,,,,,,,2021-09-08,1,,,,,ショウリュウカイ,0
398,2011101096222,新規,0,2021-09-08,2021-09-08,株式会社ＡＲＫＡＤＥＡＲ,,株式会社,東京都,新宿区,市谷薬王寺町１４番地４カスタリア市ヶ谷２０２,,13,104,1620063,,,,,,,2021-09-08,1,,,,,アルカディア,0
399,2011101096230,新規,0,2021-09-08,2021-09-08,オッターハウス株式会社,,株式会社,東京都,新宿区,新宿１丁目２３番１６号,,13,104,1600022,,,,,,,2021-09-08,1,,,,,オッターハウス,0
401,2011103010998,新規,0,2021-09-08,2021-09-08,Ｈａｎｄｙ合同会社,,合同会社,東京都,新宿区,四谷４丁目２６番地１号,,13,104,1600004,,,,,,,2021-09-08,1,,,,,ハンディ,0
402,2011201023233,新規,0,2021-09-08,2021-09-08,メスト株式会社,,株式会社,東京都,中野区,若宮１丁目２４番８号アールヴィヴァン２０１,,13,114,1650033,,,,,,,2021-09-08,1,,,,,メスト,0
407,2011501027289,新規,0,2021-09-08,2021-09-08,株式会社ＳＫＡＤＩ,,株式会社,東京都,北区,赤羽１丁目７番９号赤羽第一葉山ビル４階,,13,117,1150045,,,,,,,2021-09-08,1,,,,,スカディ,0
408,2011601025390,新規,0,2021-09-08,2021-09-08,株式会社フレッシー,,株式会社,東京都,練馬区,平和台１丁目３２－１５,,13,120,1790083,,,,,,,2021-09-08,1,,,,,フレッシー,0
409,2011701024689,新規,0,2021-09-08,2021-09-08,デイ・イースト株式会社,,株式会社,東京都,江戸川区,東瑞江１丁目３番１４号,,13,123,1320014,,,,,,,2021-09-08,1,,,,,デイイースト,0
411,2011803004770,新規,0,2021-09-08,2021-09-08,合同会社アリア,,合同会社,東京都,足立区,竹の塚２丁目１５番４号,,13,121,1210813,,,,,,,2021-09-08,1,,,,,アリア,0
412,2012301012704,新規,0,2021-09-08,2021-09-08,あいわ商事株式会社,,株式会社,東京都,町田市,本町田２４２４番地１公社住宅ホ１２－１０３,,13,209,1940032,,,,,,,2021-09-08,1,,,,,アイワショウジ,0
427,2020001142845,新規,0,2021-09-08,2021-09-08,株式会社Ｓａｍｕｒａｉ　Ｇｌｏｂａｌ　Ｔｒａｄｅ,,株式会社,神奈川県,川崎市中原区,木月４丁目３０番１号ミハシマンション３０１,,14,133,2110025,,,,,,,2021-09-08,1,,,,,サムライグローバルトレード,0
428,2020001142944,新規,0,2021-09-08,2021-09-08,株式会社ＡＲＯＮ,,株式会社,神奈川県,横浜市港北区,綱島西２丁目２番２２号パーク・ノヴァ綱島６１６,,14,109,2230053,,,,,,,2021-09-08,1,,,,,アロン,0
429,2020001142969,新規,0,2021-09-08,2021-09-08,株式会社エイテック,,株式会社,神奈川県,横浜市金沢区,高舟台１丁目２９番２号,,14,108,2360044,,,,,,,2021-09-08,1,,,,,エイテック,0
431,2020003020454,新規,0,2021-09-08,2021-09-08,合同会社スマートケアサービス,,合同会社,神奈川県,川崎市川崎区,渡田４丁目４番１５号コーポ石嶋１０１,,14,131,2100837,,,,,,,2021-09-08,1,,,,,スマートケアサービス,0
436,2021001073915,新規,0,2021-09-08,2021-09-08,株式会社ピースマイル,,株式会社,神奈川県,伊勢原市,笠窪４２３番地１３鶴巻フラット２０４,,14,214,2591137,,,,,,,2021-09-08,1,,,,,ピースマイル,0
440,2021003010858,新規,0,2021-09-08,2021-09-08,合同会社オマツー,,合同会社,神奈川県,茅ヶ崎市,白浜町６－７,,14,207,2530036,,,,,,,2021-09-08,1,,,,,オマツー,0
441,2021003010866,新規,0,2021-09-08,2021-09-08,合同会社ＳｍａｌｌＷｉｓｄｏｍ,,合同会社,神奈川県,座間市,東原３丁目５番１０号グランデさがみ野２０１,,14,216,2520004,,,,,,,2021-09-08,1,,,,,スモールウィズダム,0
450,2030001144188,新規,0,2021-09-08,2021-09-08,株式会社ＰＨＯＥＮＩＸ・Ｘ,,株式会社,埼玉県,所沢市,小手指南５丁目２２番地の４,,11,208,3591146,,,,,,,2021-09-08,1,,,,,フェニックスクロス,0
451,2030001144238,新規,0,2021-09-08,2021-09-08,株式会社チェリーピーク,,株式会社,埼玉県,所沢市,大字山口１７９６番地の３８,,11,208,3591145,,,,,,,2021-09-08,1,,,,,チェリーピーク,0
452,2030001144270,新規,0,2021-09-08,2021-09-08,株式会社高山,,株式会社,埼玉県,さいたま市西区,西大宮４丁目２７番地１,,11,101,3310078,,,,,,,2021-09-08,1,,,,,タカヤマ,0
455,2030003017920,新規,0,2021-09-08,2021-09-08,合同会社加須船越太陽光発電所,,合同会社,埼玉県,越谷市,相模町６丁目４９６番地５,,11,222,3430823,,,,,,,2021-09-08,1,,,,,カゾフナコシタイヨウコウハツデンショ,0
456,2030003017929,新規,0,2021-09-08,2021-09-08,フェルスインゼル合同会社,,合同会社,埼玉県,新座市,新堀２丁目２－１３,,11,230,3520032,,,,,,,2021-09-08,1,,,,,フェルスインゼル,0
464,2040001120122,新規,0,2021-09-08,2021-09-08,株式会社フォイユ,,株式会社,千葉県,市川市,市川１丁目７番１５－６０４号（カメイビル）,,12,203,2720034,,,,,,,2021-09-08,1,,,,,フォイユ,0
468,2040003018463,新規,0,2021-09-08,2021-09-08,合同会社栄工業,,合同会社,千葉県,千葉市若葉区,若松町５３１番地２８３,,12,104,2640021,,,,,,,2021-09-08,1,,,,,サカエコウギョウ,0
472,2060001034064,新規,0,2021-09-08,2021-09-08,ＢＡＪＷＡ　ＴＲＡＤＩＮＧ株式会社,,株式会社,栃木県,栃木市,岩舟町新里１３０４番地,,09,203,3294316,,,,,,,2021-09-08,1,,,,,バジュワトレーディング,0
474,2060003003769,新規,0,2021-09-08,2021-09-08,合同会社ツーグッド,,合同会社,栃木県,真岡市,上大田和２５２番地１,,09,209,3214411,,,,,,,2021-09-08,1,,,,,ツーグッド,0
492,2120001240135,新規,0,2021-09-08,2021-09-08,株式会社ｄｓｓマネジメント,,株式会社,大阪府,大阪市西区,本田１丁目３番３－１００３号,,27,106,5500022,,,,,,,2021-09-08,1,,,,,ディーエスエスマネジメント,0
493,2120001240218,新規,0,2021-09-08,2021-09-08,アルチザン不動産株式会社,,株式会社,大阪府,大阪市西区,江戸堀３丁目６番３４－９２号,,27,106,5500002,,,,,,,2021-09-08,1,,,,,アルチザンフドウサン,0
494,2120001240267,新規,0,2021-09-08,2021-09-08,株式会社ＧＣ,,株式会社,大阪府,大阪市淀川区,西中島６丁目３番２４号Ｌ４０４,,27,123,5320011,,,,,,,2021-09-08,1,,,,,ジーシー,0
496,2120003020188,新規,0,2021-09-08,2021-09-08,合同会社サウス,,合同会社,大阪府,大阪市西区,阿波座２丁目２番２１号７０７,,27,106,5500011,,,,,,,2021-09-08,1,,,,,サウス,0
497,2120101064269,新規,0,2021-09-08,2021-09-08,株式会社硯学堂,,株式会社,大阪府,泉大津市,我孫子２７－３ＧＯＮビル２Ｆ,,27,206,5950031,,,,,,,2021-09-08,1,,,,,セキガクドウ,0
499,2120103004339,新規,0,2021-09-08,2021-09-08,合同会社Ｏｈａｎａ,,合同会社,大阪府,岸和田市,下池田町３丁目１番５号,,27,202,5960811,,,,,,,2021-09-08,1,,,,,オハナ,0
502,2122001035143,新規,0,2021-09-08,2021-09-08,株式会社マウンテンマウス,,株式会社,大阪府,四條畷市,田原台８丁目１５番１６号,,27,229,5750013,,,,,,,2021-09-08,1,,,,,マウンテンマウス,0
506,2130001070052,新規,0,2021-09-08,2021-09-08,向田電業株式会社,,株式会社,京都府,宇治市,天神台３丁目１番地の４５,,26,204,6110029,,,,,,,2021-09-08,1,,,,,ムカイダデンギョウ,0
507,2130003007465,新規,0,2021-09-08,2021-09-08,合同会社Ｅｓｐｏｉｒ,,合同会社,京都府,木津川市,梅美台２丁目１９番地５,,26,214,6190215,,,,,,,2021-09-08,1,,,,,エスポワール,0
517,2140001122967,新規,0,2021-09-08,2021-09-08,株式会社コーナン感染対策総合研究所,,株式会社,兵庫県,尼崎市,武庫町４丁目８番２０号,,28,202,6610044,,,,,,,2021-09-08,1,,,,,コーナンカンセンタイサクソウゴウケンキュウジョ,0
522,2140005025794,新規,0,2021-09-08,2021-09-08,農事組合法人長野営農組合,,その他の設立登記法人,兵庫県,神崎郡福崎町,高岡１２７７番地２,,28,443,6792217,,,,,,,2021-09-08,1,,,,,ナガノエイノウクミアイ,0
539,2180001147639,新規,0,2021-09-08,2021-09-08,ＭＩＮＴ　ＰＲＯＭＯＴＩＯＮ株式会社,,株式会社,愛知県,長久手市,蟹原１１０２番地,,23,238,4801142,,,,,,,2021-09-08,1,,,,,ミントプロモーション,0
540,2180001147696,新規,0,2021-09-08,2021-09-08,株式会社ミモザ,,株式会社,愛知県,半田市,岩滑高山町７丁目１３０番地１,,23,205,4750962,,,,,,,2021-09-08,1,,,,,ミモザ,0
541,2180001147713,新規,0,2021-09-08,2021-09-08,ＳＴＡＴＩＯＮ　Ａｉ株式会社,,株式会社,愛知県,名古屋市西区,牛島町２番１号,,23,104,4510046,,,,,,,2021-09-08,1,,,,,ステーションエーアイ,0
542,2180001147762,新規,0,2021-09-08,2021-09-08,ホクリスＢｒｏｓ株式会社,,株式会社,愛知県,瀬戸市,西松山町２丁目１９３番地,,23,204,4890912,,,,,,,2021-09-08,1,,,,,ホクリスブロス,0
547,2180003022914,新規,0,2021-09-08,2021-09-08,合同会社つみ木,,合同会社,愛知県,東海市,加木屋町鎌吉良根５３番地１,,23,222,4770032,,,,,,,2021-09-08,1,,,,,ツミキ,0
548,2180003022930,新規,0,2021-09-08,2021-09-08,合同会社カートラスト,,合同会社,愛知県,名古屋市西区,野南町１－３ＱＯＬビル４階,,23,104,4520847,,,,,,,2021-09-08,1,,,,,カートラスト,0
554,2180305009238,新規,0,2021-09-08,2021-09-08,医療法人白青会,,その他の設立登記法人,愛知県,豊田市,十塚町３丁目３６番地ＬＥＰＵＳビル３０１号,,23,211,4710869,,,,,,,2021-09-08,1,,,,,ハクセイカイ,0
557,2190003003756,新規,0,2021-09-08,2021-09-08,合同会社アルマンド,,合同会社,三重県,松阪市,殿町１５６５番地４メゾン殿町３０１号,,24,204,5150073,,,,,,,2021-09-08,1,,,,,アルマンド,0
566,2220005008592,新規,0,2021-09-08,2021-09-08,全電通石川県住宅生活協同組合,,その他の設立登記法人,石川県,金沢市,丸の内６番７号,,17,201,9200937,,,,,,,2021-09-08,1,,,,,ゼンデンツウイシカワケンジュウタクセイカツ,0
573,2230003001722,新規,0,2021-09-08,2021-09-08,合同会社リンクホーム,,合同会社,富山県,富山市,婦中町西本郷７６番地３,,16,201,9392701,,,,,,,2021-09-08,1,,,,,リンクホーム,0
576,2240001058557,新規,0,2021-09-08,2021-09-08,株式会社アップデート,,株式会社,広島県,福山市,新市町大字相方１０８９番地５４,,34,207,7293102,,,,,,,2021-09-08,1,,,,,アップデート,0
595,2290001094432,新規,0,2021-09-08,2021-09-08,ＡＲＴＥＯＲＩＯＮ株式会社,,株式会社,福岡県,福岡市博多区,博多駅前１丁目１５番２０号ＮＭＦ博多駅前ビル２Ｆ,,40,132,8120011,,,,,,,2021-09-08,1,,,,,アルテオリオン,0
596,2290001094498,新規,0,2021-09-08,2021-09-08,株式会社きびる不動産,,株式会社,福岡県,飯塚市,横田４５番地１,,40,205,8200044,,,,,,,2021-09-08,1,,,,,キビルフドウサン,0
597,2290001094515,新規,0,2021-09-08,2021-09-08,株式会社ＨＳＣ　ＳＴＡＴＩＯＮ,,株式会社,福岡県,糟屋郡新宮町,大字原上１７２０番２,,40,345,8110101,,,,,,,2021-09-08,1,,,,,エイチエスシーステーション,0
598,2290001094523,新規,0,2021-09-08,2021-09-08,株式会社オーエフシー,,株式会社,福岡県,福岡市中央区,舞鶴１丁目９番１１号,,40,133,8100073,,,,,,,2021-09-08,1,,,,,オーエフシー,0
599,2290001094548,新規,0,2021-09-08,2021-09-08,株式会社Ｎセゾン,,株式会社,福岡県,春日市,松ヶ丘２丁目１３７番地,,40,218,8160843,,,,,,,2021-09-08,1,,,,,エヌセゾン,0
600,2290001094556,新規,0,2021-09-08,2021-09-08,Ｒｏｙ’ｓ株式会社,,株式会社,福岡県,久留米市,諏訪野町１９３５番地６シティキャッスル諏訪野１００６号,,40,203,8300037,,,,,,,2021-09-08,1,,,,,ロイズ,0
605,2290003011583,新規,0,2021-09-08,2021-09-08,合同会社ドットコイ,,合同会社,福岡県,久留米市,諏訪野町２５４６番地３－９０２号,,40,203,8300037,,,,,,,2021-09-08,1,,,,,ドットコイ,0
606,2290003011591,新規,0,2021-09-08,2021-09-08,ＷＯＲＱＵＥＳ　Ｐｒｏｄｕｃｔｉｏｎｓ合同会社,,合同会社,福岡県,福岡市中央区,大名２丁目１０－３１－１００５,,40,133,8100041,,,,,,,2021-09-08,1,,,,,ワークスプロダクションズ,0
608,2290801027756,新規,0,2021-09-08,2021-09-08,株式会社シートスアール,,株式会社,福岡県,北九州市小倉北区,赤坂海岸８番２０号,,40,106,8020031,,,,,,,2021-09-08,1,,,,,シートスアール,0
620,2310003004155,新規,0,2021-09-08,2021-09-08,合同会社ＡＴＥＬＩＥＲＴＯＡ,,合同会社,長崎県,長崎市,南山手町４番２８号ヴィラコモン２０４,,42,201,8500931,,,,,,,2021-09-08,1,,,,,アトリエトア,0
624,2320001018585,新規,0,2021-09-08,2021-09-08,株式会社宏博貿易,,株式会社,大分県,国東市,国東町富来浦６９５番地１,,44,214,8730643,,,,,,,2021-09-08,1,,,,,ヒロハクボウエキ,0
630,2330003009037,新規,0,2021-09-08,2021-09-08,ＪＡＧＡ合同会社,,合同会社,熊本県,玉名市,大倉１４８７番地,,43,206,8650023,,,,,,,2021-09-08,1,,,,,ジャガ,0
638,2360003011411,新規,0,2021-09-08,2021-09-08,合同会社ヒロ・コーポレーション,,合同会社,沖縄県,国頭郡金武町,字屋嘉２９３５番地８６,,47,314,9041203,,,,,,,2021-09-08,1,,,,,ヒロコーポレーション,0
642,2370001047588,新規,0,2021-09-08,2021-09-08,株式会社ＭｙＵｎｉＢｉｒｔｈ,,株式会社,宮城県,仙台市青葉区,国分町２丁目２－２,,04,101,9800803,,,,,,,2021-09-08,1,,,,,マイユニバース,0
658,2430001084906,新規,0,2021-09-08,2021-09-08,メナード白鳥公園株式会社,,株式会社,北海道,札幌市手稲区,星置三条４丁目２番３７号,,01,109,0060853,,,,,,,2021-09-08,1,,,,,メナードハクチョウコウエン,0
659,2430003013103,新規,0,2021-09-08,2021-09-08,合同会社マルタニ,,合同会社,北海道,札幌市白石区,川北２２４８番地２,,01,104,0030859,,,,,,,2021-09-08,1,,,,,マルタニ,0
664,2460301005006,新規,0,2021-09-08,2021-09-08,株式会社トイシ,,株式会社,北海道,常呂郡訓子府町,元町３７番地,,01,549,0991437,,,,,,,2021-09-08,1,,,,,,0
665,2470001018703,新規,0,2021-09-08,2021-09-08,株式会社エブリモーメント,,株式会社,香川県,高松市,三条町２２４番地９エクラス三条Ｂ,,37,201,7618072,,,,,,,2021-09-08,1,,,,,エブリモーメント,0
667,2480001011475,新規,0,2021-09-08,2021-09-08,フォークリフトサービス四国株式会社,,株式会社,徳島県,阿南市,那賀川町上福井藤島１７７番地４,,36,204,7791243,,,,,,,2021-09-08,1,,,,,フォークリフトサービスシコク,0
681,3010001220881,新規,0,2021-09-08,2021-09-08,ルネサイエント株式会社,,株式会社,東京都,千代田区,九段南１丁目５番６号りそな九段ビル５階ＫＳフロア,,13,101,1020074,,,,,,,2021-09-08,1,,,,,ルネサイエント,0
682,3010001220898,新規,0,2021-09-08,2021-09-08,ＪＸキャピタル株式会社,,株式会社,東京都,中央区,勝どき６丁目３番１号,,13,102,1040054,,,,,,,2021-09-08,1,,,,,ジェイエックスキャピタル,0
683,3010001221005,新規,0,2021-09-08,2021-09-08,株式会社アップイット,,株式会社,東京都,中央区,銀座１丁目２２番１１号銀座大竹ビジデンス２階,,13,102,1040061,,,,,,,2021-09-08,1,,,,,アップイット,0
684,3010001221021,新規,0,2021-09-08,2021-09-08,株式会社ＳＨＩＰ第２３６号,,株式会社,東京都,千代田区,丸の内２丁目７番２号,,13,101,1000005,,,,,,,2021-09-08,1,,,,,エスエイチアイピーダイニヒャクサンジュウロクゴウ,0
685,3010001221054,新規,0,2021-09-08,2021-09-08,ユーゼオ株式会社,,株式会社,東京都,文京区,本郷５丁目２４番１号,,13,105,1130033,,,,,,,2021-09-08,1,,,,,ユーゼオ,0
688,3010003035766,新規,0,2021-09-08,2021-09-08,ＯＦＸ　Ｊａｐａｎ合同会社,,合同会社,東京都,中央区,日本橋室町４丁目３番９号,,13,102,1030022,,,,,,,2021-09-08,1,,,,,オーエフエックスジャパン,0
689,3010003035774,新規,0,2021-09-08,2021-09-08,カニスＭＦ合同会社,,合同会社,東京都,千代田区,霞が関３丁目２番５号,,13,101,1000013,,,,,,,2021-09-08,1,,,,,カニスエムエフ,0
692,3010005033909,新規,0,2021-09-08,2021-09-08,日本グロースキャピタル投資法人,,その他の設立登記法人,東京都,千代田区,大手町２丁目２番２号,,13,101,1000004,,,,,,,2021-09-08,1,,,,,ニホングロースキャピタル,0
693,3010005033941,新規,0,2021-09-08,2021-09-08,カニスＭＦ一般社団法人,,その他の設立登記法人,東京都,千代田区,霞が関３丁目２番５号,,13,101,1000013,,,,,,,2021-09-08,1,,,,,カニスエムエフ,0
698,3010103001767,新規,0,2021-09-08,2021-09-08,青木合同会社,,合同会社,東京都,八王子市,旭町１５番１８号丸信マンション八王子３０２室,,13,201,1920083,,,,,,,2021-09-08,1,,,,,アオキ,0
706,3010401162559,新規,0,2021-09-08,2021-09-08,株式会社ＫＡＤＡＮ　ＳＰＡ,,株式会社,東京都,港区,愛宕２丁目５番１号愛宕グリーンヒルズＭＯＲＩタワー１８階,,13,103,1050002,,,,,,,2021-09-08,1,,,,,カダンスパ,0
707,3010401162583,新規,0,2021-09-08,2021-09-08,株式会社ＧＡＲＥＫＩ,,株式会社,東京都,港区,西麻布４丁目１番１号麻布霞町マンション１０１１号室,,13,103,1060031,,,,,,,2021-09-08,1,,,,,ガレキ,0
712,3010403026084,新規,0,2021-09-08,2021-09-08,ロッキー合同会社,,合同会社,東京都,港区,虎ノ門４丁目３番１号城山トラストタワー２７階ＳａｎｎｅＧｒｏｕｐＪａｐａｎ株式会社内,,13,103,1050001,,,,,,,2021-09-08,1,,,,,ロッキー,0
714,3010501047809,新規,0,2021-09-08,2021-09-08,コンフィジャパン株式会社,,株式会社,東京都,台東区,今戸１丁目１０番４－３０１号,,13,106,1110024,,,,,,,2021-09-08,1,,,,,コンフィジャパン,0
719,3010601059885,新規,0,2021-09-08,2021-09-08,株式会社Ｃｑｕｉｃｋ,,株式会社,東京都,江東区,木場６丁目１１番１号アルヴィータ木場１０１,,13,108,1350042,,,,,,,2021-09-08,1,,,,,シークイック,0
720,3010601059902,新規,0,2021-09-08,2021-09-08,株式会社ＹＨ,,株式会社,東京都,江東区,東雲１丁目１０番１４－９３２号,,13,108,1350062,,,,,,,2021-09-08,1,,,,,ワイエイチ,0
727,3010701041462,新規,0,2021-09-08,2021-09-08,ｈｏｔｉｃｅ株式会社,,株式会社,東京都,品川区,荏原７丁目１９番２号サンシャイン洗足２０２,,13,109,1420063,,,,,,,2021-09-08,1,,,,,ホットアイス,0
731,3010803003880,新規,0,2021-09-08,2021-09-08,合同会社Ｙｏｓｈｉｍｉ－Ｂｅａｕｔｙ＆Ａｓｓｅｔ,,合同会社,東京都,大田区,鵜の木２丁目１１番１２号,,13,111,1460091,,,,,,,2021-09-08,1,,,,,ヨシミビューティーアンドアセット,0
733,3010805002872,新規,0,2021-09-08,2021-09-08,医療法人社団玲翔会,,その他の設立登記法人,東京都,大田区,大森北１丁目１０番１４号Ｌｕｚ大森６階Ｃ区画,,13,111,1430016,,,,,,,2021-09-08,1,,,,,レイショウカイ,0
746,3011103010997,新規,0,2021-09-08,2021-09-08,合同会社パリ・マルシェ,,合同会社,東京都,新宿区,神楽坂３丁目１番地サイレンス神楽坂６０１,,13,104,1620825,,,,,,,2021-09-08,1,,,,,パリマルシェ,0
753,3011603003385,新規,0,2021-09-08,2021-09-08,宅建サービス佐久間事務所合同会社,,合同会社,東京都,練馬区,高松５丁目２番１２号リノアビル高松４０１号室,,13,120,1790075,,,,,,,2021-09-08,1,,,,,タッケンサービスサクマジムショ,0
755,3011801039685,新規,0,2021-09-08,2021-09-08,株式会社ケアろぐ,,株式会社,東京都,足立区,鹿浜２丁目２５番１－５０６号,,13,121,1230864,,,,,,,2021-09-08,1,,,,,ケアログ,0
758,3013101008718,新規,0,2021-09-08,2021-09-08,株式会社Ｃｕｍｐｌｉｒ,,株式会社,東京都,西多摩郡瑞穂町,大字駒形富士山３３番地４,,13,303,1901202,,,,,,,2021-09-08,1,,,,,コンプリィ,0
766,3020003020445,新規,0,2021-09-08,2021-09-08,合同会社南寿屋,,合同会社,神奈川県,横浜市旭区,南本宿町１５３番地３０,,14,112,2410833,,,,,,,2021-09-08,1,,,,,ナスヤ,0
773,3021001073889,新規,0,2021-09-08,2021-09-08,株式会社黒澤防水,,株式会社,神奈川県,伊勢原市,小稲葉２５５６番地,,14,214,2591122,,,,,,,2021-09-08,1,,,,,クロサワボウスイ,0
781,3030001144220,新規,0,2021-09-08,2021-09-08,株式会社５２ＳＴＹＬＥ,,株式会社,埼玉県,越谷市,南越谷１丁目２９０４番地４,,11,222,3430845,,,,,,,2021-09-08,1,,,,,ゴーニースタイル,0
782,3030001144245,新規,0,2021-09-08,2021-09-08,ＹＨＤ株式会社,,株式会社,埼玉県,川越市,今成２丁目４０－５,,11,201,3501105,,,,,,,2021-09-08,1,,,,,ワイエチディ,0
785,3030003017829,新規,0,2021-09-08,2021-09-08,Ｏｒｉｇｉｎ＆Ｆｕｔｕｒｅ合同会社,,合同会社,埼玉県,川越市,小仙波町２丁目２７番地４号,,11,201,3500036,,,,,,,2021-09-08,1,,,,,,0
787,3040001120105,新規,0,2021-09-08,2021-09-08,株式会社Ｋａｗａｎａ,,株式会社,千葉県,長生郡長生村,七井土１６７５番地５,,12,423,2994333,,,,,,,2021-09-08,1,,,,,カワナ,0
799,3060001034055,新規,0,2021-09-08,2021-09-08,株式会社サンクチュアリ,,株式会社,栃木県,宇都宮市,緑３丁目１７番２４号,,09,201,3210165,,,,,,,2021-09-08,1,,,,,,0
800,3060001034063,新規,0,2021-09-08,2021-09-08,株式会社北関東架設,,株式会社,栃木県,那須塩原市,東原３番地１３２８,,09,213,3250034,,,,,,,2021-09-08,1,,,,,,0
811,3070001038410,新規,0,2021-09-08,2021-09-08,株式会社ＴＲＡＮＳ,,株式会社,群馬県,伊勢崎市,西久保町２丁目１８１－２５,,10,204,3792204,,,,,,,2021-09-08,1,,,,,トランス,0
812,3070001038419,新規,0,2021-09-08,2021-09-08,株式会社Ａｓｈｒａｎｃｅ,,株式会社,群馬県,高崎市,倉賀野町９３番地,,10,202,3701201,,,,,,,2021-09-08,1,,,,,アシュランス,0
835,3120001240200,新規,0,2021-09-08,2021-09-08,株式会社レーヴ,,株式会社,大阪府,大阪市西成区,天下茶屋１丁目２３番１０号,,27,122,5570014,,,,,,,2021-09-08,1,,,,,レーヴ,0
836,3120001240217,新規,0,2021-09-08,2021-09-08,株式会社水木星,,株式会社,大阪府,大阪市中央区,安堂寺町２丁目７番２－５０２号,,27,128,5420061,,,,,,,2021-09-08,1,,,,,スイモクセイ,0
837,3120001240233,新規,0,2021-09-08,2021-09-08,株式会社瀬戸山工務店,,株式会社,大阪府,大阪市東淀川区,豊里５丁目６番２号,,27,114,5330013,,,,,,,2021-09-08,1,,,,,セトヤマコウムテン,0
838,3120001240266,新規,0,2021-09-08,2021-09-08,株式会社モンドリアン,,株式会社,大阪府,大阪市東成区,大今里西１丁目２５－１３南星ビル２０２,,27,115,5370014,,,,,,,2021-09-08,1,,,,,モンドリアン,0
839,3120001240274,新規,0,2021-09-08,2021-09-08,株式会社さくら不動産開発,,株式会社,大阪府,大阪市中央区,谷町４丁目５－９谷町アークビル３０３号,,27,128,5400012,,,,,,,2021-09-08,1,,,,,サクラフドウサンカイハツ,0
841,3120003020146,新規,0,2021-09-08,2021-09-08,ＳＡＢＩＮＡ　ＧＲＯＵＰ合同会社,,合同会社,大阪府,大阪市都島区,東野田町５丁目１番１９－２０９号,,27,102,5340024,,,,,,,2021-09-08,1,,,,,サビナグループ,0
842,3120003020187,新規,0,2021-09-08,2021-09-08,Ｒａｍ　ｇｒｏｕｐ合同会社,,合同会社,大阪府,大阪市西淀川区,姫里２丁目１０番１０号,,27,113,5550025,,,,,,,2021-09-08,1,,,,,ラムグループ,0
846,3120101064268,新規,0,2021-09-08,2021-09-08,株式会社ＣＯＳＭＯＳ,,株式会社,大阪府,堺市北区,百舌鳥赤畑町３丁１３６番地２グランドメゾンもず５０５号,,27,146,5918037,,,,,,,2021-09-08,1,,,,,コスモス,0
848,3130001070051,新規,0,2021-09-08,2021-09-08,株式会社Ｎ’ｓプロ,,株式会社,京都府,京都市左京区,田中下柳町８番地７１,,26,103,6068204,,,,,,,2021-09-08,1,,,,,エヌズプロ,0
849,3130001070076,新規,0,2021-09-08,2021-09-08,サーベラス投資顧問株式会社,,株式会社,京都府,京都市中京区,菊水鉾町５７０番地,,26,104,6048154,,,,,,,2021-09-08,1,,,,,サーベラストウシコモン,0
870,3170003001629,新規,0,2021-09-08,2021-09-08,合同会社てん,,合同会社,和歌山県,西牟婁郡白浜町,堅田２５３６番地の９１,,30,401,6492201,,,,,,,2021-09-08,1,,,,,テン,0
883,3180001147687,新規,0,2021-09-08,2021-09-08,株式会社ＳＡＴＯ,,株式会社,愛知県,名古屋市中川区,戸田明正１丁目１００５番地,,23,110,4540961,,,,,,,2021-09-08,1,,,,,サトー,0
884,3180001147712,新規,0,2021-09-08,2021-09-08,二馬力株式会社,,株式会社,愛知県,丹羽郡大口町,大屋敷１丁目５０番地,,23,361,4800137,,,,,,,2021-09-08,1,,,,,ニバリキ,0
885,3180001147745,新規,0,2021-09-08,2021-09-08,株式会社ＴＯＫＩＷＡ,,株式会社,愛知県,小牧市,常普請３丁目１１５番地,,23,219,4850044,,,,,,,2021-09-08,1,,,,,トキワ,0
886,3180001147761,新規,0,2021-09-08,2021-09-08,株式会社フーガ,,株式会社,愛知県,名古屋市瑞穂区,彌富町字紅葉園５４番地,,23,108,4670032,,,,,,,2021-09-08,1,,,,,フーガ,0
901,3220001024403,新規,0,2021-09-08,2021-09-08,電協興業株式会社,,株式会社,石川県,金沢市,西町三番丁２３番地１,,17,201,9200913,,,,,,,2021-09-08,1,,,,,デンキョウコウギョウ,0
902,3230001018965,新規,0,2021-09-08,2021-09-08,株式会社片口組土建,,株式会社,富山県,高岡市,熊野町２番２１号,,16,202,9330903,,,,,,,2021-09-08,1,,,,,カタグチグミドケン,0
903,3230001018973,新規,0,2021-09-08,2021-09-08,株式会社旭防疫,,株式会社,富山県,富山市,呉羽町１０１４番地３７,,16,201,9300138,,,,,,,2021-09-08,1,,,,,アサヒボウエキ,0
904,3230003001721,新規,0,2021-09-08,2021-09-08,インフェイスピア合同会社,,合同会社,富山県,富山市,二口町１丁目１番地１,,16,201,9398211,,,,,,,2021-09-08,1,,,,,インフェイスピア,0
917,3240001058580,新規,0,2021-09-08,2021-09-08,サミーロード株式会社,,株式会社,広島県,広島市安佐南区,祇園２丁目２番７号,,34,105,7310138,,,,,,,2021-09-08,1,,,,,サミーロード,0
921,3250001019111,新規,0,2021-09-08,2021-09-08,株式会社レフテ,,株式会社,山口県,下関市,伊倉町１丁目４番１５号,,35,201,7510864,,,,,,,2021-09-08,1,,,,,レフテ,0
935,3290001094464,新規,0,2021-09-08,2021-09-08,株式会社菜々７カンパニー,,株式会社,福岡県,久留米市,津福今町４１９番地３,,40,203,8300061,,,,,,,2021-09-08,1,,,,,ナナナカンパニー,0
936,3290001094489,新規,0,2021-09-08,2021-09-08,大和プラスチック株式会社,,株式会社,福岡県,飯塚市,相田７５－１７４,,40,205,8200052,,,,,,,2021-09-08,1,,,,,ダイワプラスチック,0
937,3290001094539,新規,0,2021-09-08,2021-09-08,株式会社カムサ九州,,株式会社,福岡県,糟屋郡須惠町,大字植木１１８６番地１,,40,344,8112112,,,,,,,2021-09-08,1,,,,,カムサキュウシュウ,0
939,3290003011590,新規,0,2021-09-08,2021-09-08,Ａｚｕｍａ合同会社,,合同会社,福岡県,古賀市,筵内２１５６番地３,,40,223,8113121,,,,,,,2021-09-08,1,,,,,アズマ,0
944,3330005010396,新規,0,2021-09-08,2021-09-08,一般社団法人Ｐａｓｔｅｌ　Ｗｉｎｇ,,その他の設立登記法人,熊本県,熊本市中央区,神水本町９番２９号,,43,101,8620955,,,,,,,2021-09-08,1,,,,,パステルウィング,0
947,3350003003920,新規,0,2021-09-08,2021-09-08,ＣＯＮＴＲＯＬ合同会社,,合同会社,宮崎県,都城市,郡元町２９５２番地１０,,45,202,8850013,,,,,,,2021-09-08,1,,,,,コントロール,0
952,3360001029330,新規,0,2021-09-08,2021-09-08,株式会社ＬＩＶＮＯ,,株式会社,沖縄県,中頭郡読谷村,字宇座１８６１番,,47,324,9040328,,,,,,,2021-09-08,1,,,,,リブノー,0
953,3370001047554,新規,0,2021-09-08,2021-09-08,株式会社Ｄｏ　ｉｔ,,株式会社,宮城県,仙台市青葉区,五橋１丁目１番１７号,,04,101,9800022,,,,,,,2021-09-08,1,,,,,ドゥーイット,0
970,3430001084871,新規,0,2021-09-08,2021-09-08,株式会社地域活性化計画,,株式会社,北海道,札幌市西区,西野二条２丁目５番７号,,01,107,0630032,,,,,,,2021-09-08,1,,,,,チイキカッセイカケイカク,0
971,3430001084905,新規,0,2021-09-08,2021-09-08,株式会社エクセス,,株式会社,北海道,札幌市白石区,東札幌五条６丁目１番１０号,,01,104,0030005,,,,,,,2021-09-08,1,,,,,エクセス,0
979,3470003002027,新規,0,2021-09-08,2021-09-08,合同会社愛・サポート,,合同会社,香川県,丸亀市,福島町１１１番地,,37,202,7630044,,,,,,,2021-09-08,1,,,,,アイサポート,0
1000,4010001220996,新規,0,2021-09-08,2021-09-08,大澤製薬株式会社,,株式会社,東京都,中央区,日本橋蛎殻町１丁目３番５号共同ビル２階２３号,,13,102,1030014,,,,,,,2021-09-08,1,,,,,ダイザワセイヤク,0
1001,4010001221004,新規,0,2021-09-08,2021-09-08,Ｔｈｉｎｋ　Ｃｏｆｆｅｅ　Ｊａｐａｎ株式会社,,株式会社,東京都,千代田区,外神田２丁目１７－６－１６０５,,13,101,1010021,,,,,,,2021-09-08,1,,,,,ティンクコーヒージャパン,0
1002,4010001221020,新規,0,2021-09-08,2021-09-08,株式会社ＳＨＩＰ第２３７号,,株式会社,東京都,千代田区,丸の内２丁目７番２号,,13,101,1000005,,,,,,,2021-09-08,1,,,,,エスエイチアイピーダイニヒャクサンジュウナナゴウ,0
1005,4010003035773,新規,0,2021-09-08,2021-09-08,プロキオン１合同会社,,合同会社,東京都,千代田区,霞が関３丁目２番５号,,13,101,1000013,,,,,,,2021-09-08,1,,,,,プロキオンワン,0
1006,4010003035781,新規,0,2021-09-08,2021-09-08,合同会社ＰＧＹ,,合同会社,東京都,千代田区,神田佐久間町１丁目１６－１大橋ビル,,13,101,1010025,,,,,,,2021-09-08,1,,,,,ピージーワイ,0
1010,4010005033908,新規,0,2021-09-08,2021-09-08,医療法人社団創雅会,,その他の設立登記法人,東京都,中央区,銀座３丁目１１番１６号３階,,13,102,1040061,,,,,,,2021-09-08,1,,,,,ソウビカイ,0
1020,4010401162558,新規,0,2021-09-08,2021-09-08,シンシキエンターテイメント株式会社,,株式会社,東京都,港区,元赤坂１丁目２番７号赤坂Ｋタワー４階,,13,103,1070051,,,,,,,2021-09-08,1,,,,,シンシキエンターテイメント,0
1021,4010401162574,新規,0,2021-09-08,2021-09-08,株式会社ガクハブ,,株式会社,東京都,港区,南青山２丁目２番１５号,,13,103,1070062,,,,,,,2021-09-08,1,,,,,ガクハブ,0
1022,4010401162590,新規,0,2021-09-08,2021-09-08,株式会社ＳｅｅＤ,,株式会社,東京都,港区,六本木４丁目３番１１号六本木ユニハウス２２３,,13,103,1060032,,,,,,,2021-09-08,1,,,,,シード,0
1027,4010403026067,新規,0,2021-09-08,2021-09-08,ベスピン・グローバル・ジャパン合同会社,,合同会社,東京都,港区,南麻布３丁目１９番２３号オーク南麻布ビル２階,,13,103,1060047,,,,,,,2021-09-08,1,,,,,ベスピングローバルジャパン,0
1033,4010501047816,新規,0,2021-09-08,2021-09-08,株式会社Ｌｉｇｈｔ　Ｓｔｕｄｉｏ,,株式会社,東京都,台東区,台東４丁目１番４号ミツバビル３階,,13,106,1100016,,,,,,,2021-09-08,1,,,,,ライトスタジオ,0
1037,4010601059884,新規,0,2021-09-08,2021-09-08,Ｘａｎｄｒｉｅ　Ｊａｐａｎ株式会社,,株式会社,東京都,墨田区,横網１丁目１０番５号,,13,107,1300015,,,,,,,2021-09-08,1,,,,,ザンドリージャパン,0
1038,4010601059901,新規,0,2021-09-08,2021-09-08,株式会社公電設工業,,株式会社,東京都,墨田区,押上２丁目２４番１１号,,13,107,1310045,,,,,,,2021-09-08,1,,,,,コウデンセツコウギョウ,0
1039,4010603009136,新規,0,2021-09-08,2021-09-08,ｎｏ．Ｖｅｍ－ｂｅｒ＆３９合同会社,,合同会社,東京都,江東区,北砂４丁目３４番１５号,,13,108,1360073,,,,,,,2021-09-08,1,,,,,ノベンバーアンドサンキュー,0
1040,4010701041478,新規,0,2021-09-08,2021-09-08,株式会社日本美賢,,株式会社,東京都,品川区,東五反田５丁目２２番３７号,,13,109,1410022,,,,,,,2021-09-08,1,,,,,ニホンビケン,0
1056,4011103010996,新規,0,2021-09-08,2021-09-08,ＺＥＲＯ合同会社,,合同会社,東京都,新宿区,西早稲田３丁目３１番１０号,,13,104,1690051,,,,,,,2021-09-08,1,,,,,ゼロ,0
1070,4011803004769,新規,0,2021-09-08,2021-09-08,合同会社カカシ,,合同会社,東京都,足立区,東六月町１１番４５号,,13,121,1210071,,,,,,,2021-09-08,1,,,,,カカシ,0
1072,4012301012693,新規,0,2021-09-08,2021-09-08,初代タイガーマスクネットワーク株式会社,,株式会社,東京都,町田市,三輪緑山１丁目３番地２緑山ヒルズ４１２,,13,209,1950055,,,,,,,2021-09-08,1,,,,,ショダイタイガーマスクネットワーク,0
1073,4012305001973,新規,0,2021-09-08,2021-09-08,医療法人社団悠優会,,その他の設立登記法人,東京都,町田市,鶴間３丁目３番地１グランベリーパークステーションコート２階,,13,209,1940004,,,,,,,2021-09-08,1,,,,,ユウユウカイ,0
1074,4012401038283,新規,0,2021-09-08,2021-09-08,Ｈｙｄｒｏ－Ｃａｒｂｏｎ　ＥＮＥＲＧＹ　Ｅｎｇｉｎｅｅｒｉｎｇ株式会社,,株式会社,東京都,三鷹市,下連雀５丁目３番１－４３０号,,13,204,1810013,,,,,,,2021-09-08,1,,,,,ハイドロカーボンエナジーエンジニアリング,0
1075,4012401038291,新規,0,2021-09-08,2021-09-08,株式会社レベルテンズ,,株式会社,東京都,多摩市,落合１丁目５－１,,13,224,2060033,,,,,,,2021-09-08,1,,,,,レベルテンズ,0
1077,4012405004637,新規,0,2021-09-08,2021-09-08,一般社団法人日本エンパシー協会,,その他の設立登記法人,東京都,府中市,白糸台３丁目５４番地の９コーポヤハタ２０１,,13,206,1830011,,,,,,,2021-09-08,1,,,,,ニホンエンパシーキョウカイ,0
1080,4012801021062,新規,0,2021-09-08,2021-09-08,株式会社Ｈｉｋａｒｉａ,,株式会社,東京都,立川市,柴崎町３丁目７番７号ＳＫ立川駅前ビル９Ｆ,,13,202,1900023,,,,,,,2021-09-08,1,,,,,ヒカリア,0
1081,4012803002589,新規,0,2021-09-08,2021-09-08,合同会社粤森行貿易,,合同会社,東京都,立川市,富士見町４丁目２番１号エストグランディール立川ヴェールブラン２０５号,,13,202,1900013,,,,,,,2021-09-08,1,,,,,エツシンコウボウエキ,0
1084,4013101008717,新規,0,2021-09-08,2021-09-08,株式会社優心植木,,株式会社,東京都,青梅市,千ヶ瀬町２丁目２７８番地コーポ伊藤２－１０２,,13,205,1980043,,,,,,,2021-09-08,1,,,,,ユウシンウエキ,0
1087,4013301047993,新規,0,2021-09-08,2021-09-08,ＬＶＮＤグリーンプラス株式会社,,株式会社,東京都,豊島区,西池袋４丁目２３番１２号西池マンション１０２号,,13,116,1710021,,,,,,,2021-09-08,1,,,,,エルブイエヌディーグリーンプラス,0
1091,4020001142851,新規,0,2021-09-08,2021-09-08,株式会社Ｉｒｉｅ　ｈｏｏｄ,,株式会社,神奈川県,川崎市高津区,久地３丁目１０－１プレジール高津２０２,,14,134,2130032,,,,,,,2021-09-08,1,,,,,アイリーフッド,0
1092,4020001142942,新規,0,2021-09-08,2021-09-08,株式会社ＫＡＮＯＵ,,株式会社,神奈川県,横浜市南区,宮元町３丁目６３番地２,,14,105,2320016,,,,,,,2021-09-08,1,,,,,カノウ,0
1093,4020003020460,新規,0,2021-09-08,2021-09-08,合同会社ＡＡ,,合同会社,神奈川県,横浜市西区,みなとみらい４丁目９番２－Ｃ２６０５号,,14,103,2200012,,,,,,,2021-09-08,1,,,,,エイエイ,0
1097,4021001073871,新規,0,2021-09-08,2021-09-08,株式会社Ｎｉｄ,,株式会社,神奈川県,藤沢市,辻堂元町１丁目１１番１８号,,14,205,2510043,,,,,,,2021-09-08,1,,,,,ニド,0
1102,4030001144252,新規,0,2021-09-08,2021-09-08,株式会社令和コーポレーション,,株式会社,埼玉県,越谷市,東町５丁目４４－１,,11,222,3430826,,,,,,,2021-09-08,1,,,,,レイワコーポレーション,0
1103,4030003017910,新規,0,2021-09-08,2021-09-08,ＬＡＤＵ・ＴＲＡＤＩＮＧ合同会社,,合同会社,埼玉県,八潮市,大字木曽根９４２番地２、１階,,11,234,3400813,,,,,,,2021-09-08,1,,,,,ラドゥトレーディング,0
1104,4030003017919,新規,0,2021-09-08,2021-09-08,Ａｍｕｓｅ　Ｐａｒｔｎｅｒ合同会社,,合同会社,埼玉県,さいたま市北区,日進町２丁目１５２４番地９,,11,102,3310823,,,,,,,2021-09-08,1,,,,,アミューゼパートナー,0
1105,4030003017927,新規,0,2021-09-08,2021-09-08,合同会社バトルフィールド,,合同会社,埼玉県,さいたま市岩槻区,東町２丁目４番８号東町グリーンビラ３０３,,11,110,3390055,,,,,,,2021-09-08,1,,,,,バトルフィールド,0
1109,4040001120104,新規,0,2021-09-08,2021-09-08,株式会社ＮＥＯプロテック,,株式会社,千葉県,袖ケ浦市,蔵波台２丁目２８番地４４,,12,229,2990245,,,,,,,2021-09-08,1,,,,,ネオプロテック,0
1121,4060003003800,新規,0,2021-09-08,2021-09-08,Ｄａｉｓｈｉｎ　Ｅｎｅｒｇｙ合同会社,,合同会社,栃木県,栃木市,西方町真名子２０４１番地５,,09,203,3220605,,,,,,,2021-09-08,1,,,,,ダイシンエナジー,0
1125,4070001038418,新規,0,2021-09-08,2021-09-08,ひかり建装株式会社,,株式会社,群馬県,桐生市,新里町山上２３３６番地３,,10,203,3760125,,,,,,,2021-09-08,1,,,,,ヒカリケンソウ,0
1145,4120001240125,新規,0,2021-09-08,2021-09-08,株式会社ａａ　ｗｏｒｋｓ,,株式会社,大阪府,大阪市西淀川区,中島１丁目３３番３４号,,27,113,5550041,,,,,,,2021-09-08,1,,,,,エーエーワークス,0
1146,4120001240216,新規,0,2021-09-08,2021-09-08,株式会社Ｃ・Ｅ・Ｌ・Ｌ,,株式会社,大阪府,大阪市浪速区,元町１丁目１１番８号,,27,111,5560016,,,,,,,2021-09-08,1,,,,,セル,0
1147,4120001240281,新規,0,2021-09-08,2021-09-08,株式会社ＴＲＭ,,株式会社,大阪府,大阪市淀川区,三津屋北３丁目３番２７号,,27,123,5320032,,,,,,,2021-09-08,1,,,,,ティーアールエム,0
1150,4120003020186,新規,0,2021-09-08,2021-09-08,合同会社ねむの木,,合同会社,大阪府,大阪市東淀川区,小松２丁目８－９グリーンハイツ１０５,,27,114,5330004,,,,,,,2021-09-08,1,,,,,ネムノキ,0
1154,4120005022494,新規,0,2021-09-08,2021-09-08,一般社団法人健青会,,その他の設立登記法人,大阪府,大阪市天王寺区,上本町６丁目９番１０号,,27,109,5430001,,,,,,,2021-09-08,1,,,,,ケンセイカイ,0
1157,4120101064267,新規,0,2021-09-08,2021-09-08,Ｊ　Ｐｒｏｄｕｃｅ株式会社,,株式会社,大阪府,泉南市,幡代２丁目５番１２号２Ｆ,,27,228,5900524,,,,,,,2021-09-08,1,,,,,ジェイプロデュース,0
1176,4140001122940,新規,0,2021-09-08,2021-09-08,株式会社トナカイの木,,株式会社,兵庫県,尼崎市,南武庫之荘３丁目２４番２０号,,28,202,6610033,,,,,,,2021-09-08,1,,,,,トナカイノキ,0
1181,4150001024913,新規,0,2021-09-08,2021-09-08,株式会社高雅建装,00124172,株式会社,奈良県,葛城市,勝根１７９番地２プラシード勝根Ｂ棟２０３号,,29,211,6390275,,,,,,,2021-09-08,1,,,,,タカマサケンソウ,0
1182,4150003002479,新規,0,2021-09-08,2021-09-08,合同会社Ｏｈａｎａ,,合同会社,奈良県,生駒市,生駒台南２６７番地,,29,209,6300202,,,,,,,2021-09-08,1,,,,,オハナ,0
1193,4180001147686,新規,0,2021-09-08,2021-09-08,たくす不動産株式会社,,株式会社,愛知県,名古屋市中村区,十王町６番５号,,23,105,4530035,,,,,,,2021-09-08,1,,,,,タクスフドウサン,0
1194,4180001147760,新規,0,2021-09-08,2021-09-08,株式会社ヘラソカ,,株式会社,愛知県,名古屋市緑区,滝ノ水３丁目２１０５番地,,23,114,4580021,,,,,,,2021-09-08,1,,,,,ヘラソカ,0
1201,4180003022904,新規,0,2021-09-08,2021-09-08,合同会社ＡＭＥＲＩＡ　ＭＯＲＥ,,合同会社,愛知県,名古屋市中村区,宿跡町２丁目３８番地の５,,23,105,4530067,,,,,,,2021-09-08,1,,,,,アメリアモア,0
1202,4180003022929,新規,0,2021-09-08,2021-09-08,合同会社ｌａ　ｆｒａｉｓｅ,,合同会社,愛知県,海部郡蟹江町,城３丁目４８５番地,,23,425,4970040,,,,,,,2021-09-08,1,,,,,ラフレーズ,0
1203,4180003022937,新規,0,2021-09-08,2021-09-08,マンハッタン合同会社,,合同会社,愛知県,名古屋市中区,錦３丁目５－２１錦ＨＯＴＥＩビル３Ｆ－Ｂ,,23,106,4600003,,,,,,,2021-09-08,1,,,,,マンハッタン,0
1211,4230003001720,新規,0,2021-09-08,2021-09-08,ＣＡＭＩＮＯ合同会社,,合同会社,富山県,中新川郡舟橋村,舟橋６００番地,,16,321,9300281,,,,,,,2021-09-08,1,,,,,カミーノ,0
1227,4250001019093,新規,0,2021-09-08,2021-09-08,株式会社ＤＳＫ,,株式会社,山口県,岩国市,牛野谷町２丁目２３番８－２号,,35,208,7410071,,,,,,,2021-09-08,1,,,,,ディーエスケー,0
1228,4250001019110,新規,0,2021-09-08,2021-09-08,株式会社ＫＳＳ,,株式会社,山口県,下関市,長府古城町４番９号,,35,201,7520954,,,,,,,2021-09-08,1,,,,,ケイエスエス,0
1232,4260001035949,新規,0,2021-09-08,2021-09-08,ＬＡＳＨＩＫＵ株式会社,,株式会社,岡山県,岡山市北区,撫川１６７番地,,33,101,7010164,,,,,,,2021-09-08,1,,,,,ラシク,0
1242,4290001094488,新規,0,2021-09-08,2021-09-08,株式会社スクラム,,株式会社,福岡県,福岡市早良区,西新３丁目１番８号,,40,137,8140002,,,,,,,2021-09-08,1,,,,,スクラム,0
1243,4290001094505,新規,0,2021-09-08,2021-09-08,株式会社ＡＳＵＫＡ,,株式会社,福岡県,八女市,岩崎４５５番地１,,40,210,8340062,,,,,,,2021-09-08,1,,,,,アスカ,0
1260,4300001012621,新規,0,2021-09-08,2021-09-08,ＯＮＥ　ＵＰ株式会社,,株式会社,佐賀県,唐津市,枝去木２０１５番地１２,,41,202,8470123,,,,,,,2021-09-08,1,,,,,ワンナップ,0
1263,4310005008540,新規,0,2021-09-08,2021-09-08,一般社団法人マリンハビタット壱岐,,その他の設立登記法人,長崎県,壱岐市,芦辺町箱崎江角触２２６５番地,00124177,42,210,8115467,,,,,,,2021-09-08,1,,,,,マリンハビタットイキ,0
1278,4360003011426,新規,0,2021-09-08,2021-09-08,スピリッツ合同会社,,合同会社,沖縄県,那覇市,松川３丁目１７番地１号島アパートＢ棟１０４号室,,47,201,9020062,,,,,,,2021-09-08,1,,,,,スピリッツ,0
1290,4420001017583,新規,0,2021-09-08,2021-09-08,株式会社三共商事,,株式会社,青森県,弘前市,大字文京町６番地１８,,02,202,0368224,,,,,,,2021-09-08,1,,,,,サンキョウショウジ,0
1298,4430001084920,新規,0,2021-09-08,2021-09-08,株式会社あびこ事務所,,株式会社,北海道,小樽市,花園２丁目３番３号,,01,203,0470024,,,,,,,2021-09-08,1,,,,,アビコジムショ,0
1304,4460001005592,新規,0,2021-09-08,2021-09-08,鶴雅ファースト株式会社,,株式会社,北海道,釧路市,阿寒町阿寒湖温泉４丁目６番１０号,,01,206,0850467,,,,,,,2021-09-08,1,,,,,ツルガファースト,0
1305,4480001011473,新規,0,2021-09-08,2021-09-08,株式会社ＥＹＥＬｉＤ,,株式会社,徳島県,阿波市,土成町成当７９３番地,,36,206,7711504,,,,,,,2021-09-08,1,,,,,アイリッド,0
1306,4480003001720,新規,0,2021-09-08,2021-09-08,合同会社Ｍａｇｎｅｔ　Ｖｉｓｉｏｎ,,合同会社,徳島県,徳島市,徳島町城内６－１９,,36,201,7700851,,,,,,,2021-09-08,1,,,,,マグネットビジョン,0
1312,4500001023672,新規,0,2021-09-08,2021-09-08,株式会社内子龍王バイオマスエネルギー,,株式会社,愛媛県,喜多郡内子町,五十崎甲２１２６番地１,,38,422,7950301,,,,,,,2021-09-08,1,,,,,ウチコリュウオウバイオマスエネルギー,0
1324,5010003035772,新規,0,2021-09-08,2021-09-08,プロキオン２合同会社,,合同会社,東京都,千代田区,霞が関３丁目２番５号,,13,101,1000013,,,,,,,2021-09-08,1,,,,,プロキオンツー,0
1326,5010005033923,新規,0,2021-09-08,2021-09-08,医療法人社団マキマ会,,その他の設立登記法人,東京都,文京区,湯島３丁目３９番３号上野不二ビル６階,,13,105,1130034,,,,,,,2021-09-08,1,,,,,マキマカイ,0
1331,5010401162581,新規,0,2021-09-08,2021-09-08,株式会社ＫＧ　Ｉｎｉｃｉｓ　Ｊａｐａｎ,,株式会社,東京都,港区,港南２丁目１６番４号,,13,103,1080075,,,,,,,2021-09-08,1,,,,,ケージーイニシスジャパン,0
1332,5010401162598,新規,0,2021-09-08,2021-09-08,株式会社ｂｅｂｅ　ｃｏｓｍｅｔｉｑｕｅ,,株式会社,東京都,港区,六本木３丁目３番２７号,,13,103,1060032,,,,,,,2021-09-08,1,,,,,ベベコスメティーク,0
1334,5010403026074,新規,0,2021-09-08,2021-09-08,Ｊメディアネット合同会社,,合同会社,東京都,港区,浜松町２丁目２番１５号浜松町ダイヤビル２Ｆ,,13,103,1050013,,,,,,,2021-09-08,1,,,,,ジェイメディアネット,0
1344,5010601059891,新規,0,2021-09-08,2021-09-08,株式会社Ｌｉｃｏ＆Ｃ,,株式会社,東京都,江東区,富岡１丁目２２番１６号,,13,108,1350047,,,,,,,2021-09-08,1,,,,,リコアンドシー,0
1345,5010603009135,新規,0,2021-09-08,2021-09-08,合同会社アルカンシェル,,合同会社,東京都,江東区,東陽７丁目１番１号,,13,108,1350016,,,,,,,2021-09-08,1,,,,,アルカンシェル,0
1348,5010701041469,新規,0,2021-09-08,2021-09-08,株式会社ナウシカ,,株式会社,東京都,品川区,小山台１丁目２６番２０号,,13,109,1420061,,,,,,,2021-09-08,1,,,,,ナウシカ,0
1360,5011001142585,新規,0,2021-09-08,2021-09-08,ＧａｉＪｏｂ株式会社,,株式会社,東京都,渋谷区,神南１丁目１２番１４号渋谷宮田ビル,,13,113,1500041,,,,,,,2021-09-08,1,,,,,ガイジョブ,0
1361,5011001142759,新規,0,2021-09-08,2021-09-08,株式会社ＳＯＡ,,株式会社,東京都,渋谷区,円山町２８番８号,,13,113,1500044,,,,,,,2021-09-08,1,,,,,ソア,0
1367,5011101096228,新規,0,2021-09-08,2021-09-08,株式会社ＥＲＥＮ,,株式会社,東京都,新宿区,四谷４丁目２９番５号ロジマン御苑３１１号室,,13,104,1600004,,,,,,,2021-09-08,1,,,,,エレン,0
1369,5011203003635,新規,0,2021-09-08,2021-09-08,合同会社カインド・ライフ,,合同会社,東京都,中野区,新井２丁目７番２号ＤＲホームズ地下１階,,13,114,1650026,,,,,,,2021-09-08,1,,,,,カインドライフ,0
1373,5011601025388,新規,0,2021-09-08,2021-09-08,株式会社キラリプラネット,,株式会社,東京都,練馬区,氷川台４丁目４７番１８号,,13,120,1790084,,,,,,,2021-09-08,1,,,,,キラリプラネット,0
1381,5012703002309,新規,0,2021-09-08,2021-09-08,合同会社ＥＳ－ＩＫ,,合同会社,東京都,東村山市,栄町１丁目６番地２－７１１,,13,213,1890013,,,,,,,2021-09-08,1,,,,,イーエスアイケイ,0
1383,5013103001074,新規,0,2021-09-08,2021-09-08,ＷＯＮＳ井上合同会社,,合同会社,東京都,青梅市,勝沼１丁目１８９番地,,13,205,1980041,,,,,,,2021-09-08,1,,,,,ワンズイノウエ,0
1390,5013301047992,新規,0,2021-09-08,2021-09-08,株式会社ヒルズビューティー,,株式会社,東京都,豊島区,目白３丁目５番１６号青山ビル３Ｆ,,13,116,1710031,,,,,,,2021-09-08,1,,,,,ヒルズビューティー,0
1397,5020003020451,新規,0,2021-09-08,2021-09-08,合同会社スロンボライト,,合同会社,神奈川県,川崎市宮前区,南野川３丁目２９番８号,,14,136,2160042,,,,,,,2021-09-08,1,,,,,スロンボライト,0
1406,5021001073895,新規,0,2021-09-08,2021-09-08,株式会社かおりの,,株式会社,神奈川県,南足柄市,和田河原８４５番地９,,14,217,2500112,,,,,,,2021-09-08,1,,,,,カオリノ,0
1407,5021001073904,新規,0,2021-09-08,2021-09-08,株式会社ユウシン,,株式会社,神奈川県,相模原市南区,上鶴間５丁目９－１９グランＫ－１Ｆ,,14,153,2520302,,,,,,,2021-09-08,1,,,,,ユウシン,0
1409,5021003010871,新規,0,2021-09-08,2021-09-08,合同会社レガロ,,合同会社,神奈川県,逗子市,久木８丁目１５番４８号,,14,208,2490001,,,,,,,2021-09-08,1,,,,,レガロ,0
1415,5030001144219,新規,0,2021-09-08,2021-09-08,株式会社ケーアイロジ,,株式会社,埼玉県,幸手市,大字円藤内６８１番地４,,11,240,3400104,,,,,,,2021-09-08,1,,,,,ケーアイロジ,0
1416,5030001144235,新規,0,2021-09-08,2021-09-08,株式会社ＳＨＯＵＫＩ,,株式会社,埼玉県,川口市,大字道合９３６番地ウッドビレッジ２０５号,,11,203,3330835,,,,,,,2021-09-08,1,,,,,ショウキ,0
1423,5030003017918,新規,0,2021-09-08,2021-09-08,わちゃわちゃぱっかーん合同会社,,合同会社,埼玉県,さいたま市南区,別所５丁目１５番２号,,11,108,3360021,,,,,,,2021-09-08,1,,,,,ワチャワチャパッカーン,0
1428,5040001120045,新規,0,2021-09-08,2021-09-08,株式会社Ｒｏｕｎｄ　ｚｅｒｏ,,株式会社,千葉県,市川市,本北方２丁目３５番５号,,12,203,2720816,,,,,,,2021-09-08,1,,,,,ラウンドゼロ,0
1429,5040001120111,新規,0,2021-09-08,2021-09-08,ファンズ株式会社,,株式会社,千葉県,八千代市,勝田台１丁目２６番地２１,,12,221,2760023,,,,,,,2021-09-08,1,,,,,ファンズ,0
1439,5060003003799,新規,0,2021-09-08,2021-09-08,合同会社メニー,,合同会社,栃木県,宇都宮市,清原台６丁目１０番１５－１０２号,,09,201,3213223,,,,,,,2021-09-08,1,,,,,メニー,0
1451,5090003001940,新規,0,2021-09-08,2021-09-08,合同会社飯野屋,,合同会社,山梨県,南アルプス市,飯野３６８３番地１,,19,208,4000222,,,,,,,2021-09-08,1,,,,,イイノヤ,0
1453,5100003006228,新規,0,2021-09-08,2021-09-08,合同会社ＺＺＺ,,合同会社,長野県,北佐久郡御代田町,大字塩野３１８０－１７９,,20,323,3890201,,,,,,,2021-09-08,1,,,,,ゼットゼットゼット,0
1468,5120001240090,新規,0,2021-09-08,2021-09-08,株式会社ベストパートナーズ,,株式会社,大阪府,大阪市中央区,内久宝寺町２丁目２番２２－４０４号,,27,128,5400013,,,,,,,2021-09-08,1,,,,,ベストパートナーズ,0
1469,5120001240099,新規,0,2021-09-08,2021-09-08,睿盈株式会社,,株式会社,大阪府,大阪市城東区,蒲生３丁目１５番１２号セザンヌ藤３０２Ａ,,27,118,5360016,,,,,,,2021-09-08,1,,,,,エイエイ,0
1473,5120003020185,新規,0,2021-09-08,2021-09-08,合同会社デル,,合同会社,大阪府,大阪市北区,神山町１番３２－１２０１号,,27,127,5300026,,,,,,,2021-09-08,1,,,,,デル,0
1474,5120003020193,新規,0,2021-09-08,2021-09-08,合同会社明源堂,,合同会社,大阪府,大阪市中央区,高津３丁目１４番１１－３００４号,,27,128,5420072,,,,,,,2021-09-08,1,,,,,メイゲンドウ,0
1485,5130001070074,新規,0,2021-09-08,2021-09-08,株式会社柴田設備,,株式会社,京都府,綴喜郡井手町,大字井手小字西山７９番地の４６,,26,343,6100302,,,,,,,2021-09-08,1,,,,,シバタセツビ,0
1486,5130003007462,新規,0,2021-09-08,2021-09-08,しな軸合同会社,,合同会社,京都府,京都市西京区,樫原六反田３番地１,,26,111,6158117,,,,,,,2021-09-08,1,,,,,シナジク,0
1505,5180001147702,新規,0,2021-09-08,2021-09-08,株式会社ゼロイチワークス,,株式会社,愛知県,名古屋市西区,那古野２丁目９番８号,,23,104,4510042,,,,,,,2021-09-08,1,,,,,ゼロイチワークス,0
1506,5180001147735,新規,0,2021-09-08,2021-09-08,株式会社ＣＬＷＮ,,株式会社,愛知県,名古屋市緑区,兵庫１丁目１１０１番地パパプラザ,,23,114,4580802,,,,,,,2021-09-08,1,,,,,クルン,0
1527,5240001058579,新規,0,2021-09-08,2021-09-08,株式会社ＣＳＳ,,株式会社,広島県,広島市中区,中町５番５－１１０１号,,34,101,7300037,,,,,,,2021-09-08,1,,,,,シーエスエス,0
1530,5250001019118,新規,0,2021-09-08,2021-09-08,株式会社ＣＧＧ,,株式会社,山口県,下関市,みもすそ川町２番１２号,,35,201,7510813,,,,,,,2021-09-08,1,,,,,シージージー,0
1535,5260005010963,新規,0,2021-09-08,2021-09-08,一般社団法人保護猫応援ファーム,,その他の設立登記法人,岡山県,岡山市北区,駅前町１丁目８番１号新光ビル岡山,,33,101,7000023,,,,,,,2021-09-08,1,,,,,ホゴネコオウエンファーム,0
1543,5290001094487,新規,0,2021-09-08,2021-09-08,株式会社真芯,,株式会社,福岡県,筑後市,大字常用８００番地３,,40,211,8330016,,,,,,,2021-09-08,1,,,,,マシン,0
1544,5290001094504,新規,0,2021-09-08,2021-09-08,株式会社ＭａｎｉＭａｎｉ,,株式会社,福岡県,福岡市中央区,大名１丁目２番６－１００２号,,40,133,8100041,,,,,,,2021-09-08,1,,,,,マニマニ,0
1545,5290001094512,新規,0,2021-09-08,2021-09-08,グローバルサクセス株式会社,,株式会社,福岡県,久留米市,江戸屋敷１丁目４番３２号,,40,203,8300059,,,,,,,2021-09-08,1,,,,,グローバルサクセス,0
1546,5290001094537,新規,0,2021-09-08,2021-09-08,株式会社ランドビュー,,株式会社,福岡県,福岡市中央区,白金１丁目８番１１号ダイヤモンドタワー薬院南３０１号,,40,133,8100012,,,,,,,2021-09-08,1,,,,,ランドビュー,0
1549,5290005018343,新規,0,2021-09-08,2021-09-08,社会保険労務士法人ビルドアップ,,その他の設立登記法人,福岡県,福岡市博多区,博多駅東１丁目１０番３５―２０５号,,40,132,8120013,,,,,,,2021-09-08,1,,,,,ビルドアップ,0
1551,5290801027753,新規,0,2021-09-08,2021-09-08,株式会社さくら工務店,,株式会社,福岡県,北九州市小倉南区,春ケ丘１番２７号,,40,107,8020803,,,,,,,2021-09-08,1,,,,,サクラコウムテン,0
1556,5300001012612,新規,0,2021-09-08,2021-09-08,株式会社アイシン,,株式会社,佐賀県,武雄市,武雄町大字昭和６番地１ジェネローソマンション武雄４０２,,41,206,8430023,,,,,,,2021-09-08,1,,,,,アイシン,0
1557,5300005007030,新規,0,2021-09-08,2021-09-08,一般社団法人チョイス,,その他の設立登記法人,佐賀県,佐賀市,北川副町江上町分５１４番地５,,41,201,8490000,,,,,,,2021-09-08,1,,,,,チョイス,0
1574,5360003011417,新規,0,2021-09-08,2021-09-08,４ＵＳ　ｉｎｎｏｖａｔｉｏｎ合同会社,,合同会社,沖縄県,中頭郡西原町,字幸地１６０－１,,47,329,9030116,,,,,,,2021-09-08,1,,,,,フォーアスイノベーション,0
1590,5410001012956,新規,0,2021-09-08,2021-09-08,株式会社穀栄,,株式会社,秋田県,南秋田郡大潟村,字西３丁目２番地１,,05,368,0100445,,,,,,,2021-09-08,1,,,,,コクエイ,0
1605,5460001005591,新規,0,2021-09-08,2021-09-08,鶴雅プリメーラ株式会社,,株式会社,北海道,釧路市,阿寒町阿寒湖温泉４丁目６番１０号,,01,206,0850467,,,,,,,2021-09-08,1,,,,,ツルガプリメーラ,0
1618,5700150104649,新規,0,2021-09-08,2021-09-08,トレイン・ホールディング・リミテッド,,外国会社等,東京都,千代田区,丸の内３丁目１番１号東京共同会計事務所内,,13,101,1000005,英国領西インド諸島、ケイマン諸島、グランドケイマンＫＹ１－９００５、ワン・ネクサス・ウェイ、カマーナ・ベイ、インタートラスト・コーポレート・サービシーズ（ケイマン）リミテッド内,,,,,,2021-09-08,1,,,,,トレインホールデイングリミテツド,0
1636,6010001220978,新規,0,2021-09-08,2021-09-08,株式会社ＥＡＴ８,,株式会社,東京都,中央区,東日本橋２丁目１２番７号,,13,102,1030004,,,,,,,2021-09-08,1,,,,,イートエイト,0
1637,6010001221010,新規,0,2021-09-08,2021-09-08,マトレマネジメント株式会社,,株式会社,東京都,中央区,日本橋箱崎町４１－９－９０１,,13,102,1030015,,,,,,,2021-09-08,1,,,,,マトレマネジメント,0
1638,6010001221019,新規,0,2021-09-08,2021-09-08,株式会社ＳＨＩＰ第２３８号,,株式会社,東京都,千代田区,丸の内２丁目７番２号,,13,101,1000005,,,,,,,2021-09-08,1,,,,,エスエイチアイピーダイニヒャクサンジュウハチゴウ,0
1641,6010003035763,新規,0,2021-09-08,2021-09-08,デジビレッジ合同会社,,合同会社,東京都,中央区,銀座１丁目２２番１１号２階,,13,102,1040061,,,,,,,2021-09-08,1,,,,,デジビレッジ,0
1642,6010003035771,新規,0,2021-09-08,2021-09-08,合同会社まごころ,,合同会社,東京都,千代田区,平河町２丁目１２番８号アール平河町３０２,,13,101,1020093,,,,,,,2021-09-08,1,,,,,マゴコロ,0
1644,6010005033914,新規,0,2021-09-08,2021-09-08,社会保険労務士法人平真理事務所,,その他の設立登記法人,東京都,中央区,新川１丁目２番２号ＧＣ茅場町ビル５階,,13,102,1040033,,,,,,,2021-09-08,1,,,,,タイラマリジムショ,0
1645,6010005033922,新規,0,2021-09-08,2021-09-08,弁護士法人つくし,,その他の設立登記法人,東京都,中央区,銀座６丁目４番１号東海堂銀座ビル７階,,13,102,1040061,,,,,,,2021-09-08,1,,,,,ツクシ,0
1648,6010101014842,新規,0,2021-09-08,2021-09-08,アールスタジオ株式会社,,株式会社,東京都,八王子市,鑓水２丁目７８番地２－１３０５,,13,201,1920375,,,,,,,2021-09-08,1,,,,,アールスタジオ,0
1655,6010401162564,新規,0,2021-09-08,2021-09-08,タクスリ株式会社,,株式会社,東京都,港区,港南１丁目９番３６号,,13,103,1080075,,,,,,,2021-09-08,1,,,,,タクスリ,0
1656,6010401162572,新規,0,2021-09-08,2021-09-08,株式会社しろまる不動産エージェント,,株式会社,東京都,港区,浜松町２丁目２番１５号浜松町ダイヤビル２Ｆ,,13,103,1050013,,,,,,,2021-09-08,1,,,,,シロマルフドウサンエージェント,0
1665,6010405020207,新規,0,2021-09-08,2021-09-08,ＤＳ　Ａｋａｓａｋａ一般社団法人,,その他の設立登記法人,東京都,港区,虎ノ門５丁目１番４号,,13,103,1050001,,,,,,,2021-09-08,1,,,,,ディーエスアカサカ,0
1672,6010601059890,新規,0,2021-09-08,2021-09-08,株式会社ＫＲＳ,,株式会社,東京都,江東区,豊洲６丁目２番２９－１３０４号,,13,108,1350061,,,,,,,2021-09-08,1,,,,,ケイアールエス,0
1673,6010601059899,新規,0,2021-09-08,2021-09-08,株式会社ＤＩＭＥＮＳＩＯＮ,,株式会社,東京都,江東区,南砂２丁目２８番地３－３０１,,13,108,1360076,,,,,,,2021-09-08,1,,,,,ディメンション,0
1674,6010603009134,新規,0,2021-09-08,2021-09-08,エスプロパティー合同会社,,合同会社,東京都,江東区,豊洲２丁目５番１－５１１号,,13,108,1350061,,,,,,,2021-09-08,1,,,,,エスプロパティー,0
1675,6010603009142,新規,0,2021-09-08,2021-09-08,合同会社エムツー企画,,合同会社,東京都,江東区,亀戸６丁目５５番８－１０３号,,13,108,1360071,,,,,,,2021-09-08,1,,,,,エムツーキカク,0
1679,6010701041476,新規,0,2021-09-08,2021-09-08,株式会社ＰＲＡＣＴ,,株式会社,東京都,品川区,東品川５丁目９－６－１３１０号,,13,109,1400002,,,,,,,2021-09-08,1,,,,,プラクト,0
1680,6010703005933,新規,0,2021-09-08,2021-09-08,順芬合同会社,,合同会社,東京都,品川区,荏原１丁目２４番２号,,13,109,1420063,,,,,,,2021-09-08,1,,,,,ジュンフン,0
1681,6010705003266,新規,0,2021-09-08,2021-09-08,税理士法人ウィズハピネス,,その他の設立登記法人,東京都,品川区,大井１丁目２３番１２号,,13,109,1400014,,,,,,,2021-09-08,1,,,,,ウィズハピネス,0
1687,6010901049393,新規,0,2021-09-08,2021-09-08,ＥＳ４ＥＪａｐａｎ株式会社,,株式会社,東京都,世田谷区,用賀２丁目２９番１６号１Ｆ,,13,112,1580097,,,,,,,2021-09-08,1,,,,,イーエスフォーイージャパン,0
1688,6010901049410,新規,0,2021-09-08,2021-09-08,株式会社コンティニュアーレ,,株式会社,東京都,世田谷区,深沢２丁目５－１ヴィトライユ深沢３０２,,13,112,1580081,,,,,,,2021-09-08,1,,,,,コンティニュアーレ,0
1699,6011001142626,新規,0,2021-09-08,2021-09-08,株式会社ユークリッドＸＲイマーシブ,,株式会社,東京都,渋谷区,富ヶ谷１丁目１４番１４号,,13,113,1510063,,,,,,,2021-09-08,1,,,,,ユークリッドエックスアールイマーシブ,0
1700,6011001142659,新規,0,2021-09-08,2021-09-08,ＢＳ＆Ｔ株式会社,,株式会社,東京都,渋谷区,神宮前２丁目２８番１３号,,13,113,1500001,,,,,,,2021-09-08,1,,,,,ビーエスアンドティー,0
1701,6011001142675,新規,0,2021-09-08,2021-09-08,株式会社ＩＮＮＥＲ　ＷＯＲＬＤ,,株式会社,東京都,渋谷区,幡ヶ谷１丁目７番７号ミュージシャンズヴィラ幡ケ谷６０３,,13,113,1510072,,,,,,,2021-09-08,1,,,,,インナーワールド,0
1702,6011001142758,新規,0,2021-09-08,2021-09-08,株式会社サルタビ,,株式会社,東京都,渋谷区,円山町２８番８号,,13,113,1500044,,,,,,,2021-09-08,1,,,,,サルタビ,0
1704,6011003013305,新規,0,2021-09-08,2021-09-08,ＦＩＧＧＹ合同会社,,合同会社,東京都,渋谷区,神宮前６丁目２３番４号桑野ビル２階,,13,113,1500001,,,,,,,2021-09-08,1,,,,,フィギー,0
1706,6011005009169,新規,0,2021-09-08,2021-09-08,一般社団法人ＢＩＲＴＨＤＡＹＳＯＬＵＴＩＯＮ協会,,その他の設立登記法人,東京都,目黒区,下目黒１丁目３番２２－４０５号エルアルカサル目黒,,13,110,1530064,,,,,,,2021-09-08,1,,,,,バースデイソリューションキョウカイ,0
1711,6011501027277,新規,0,2021-09-08,2021-09-08,株式会社リアライヴ,,株式会社,東京都,北区,東十条１丁目３番３号,,13,117,1140001,,,,,,,2021-09-08,1,,,,,リアライヴ,0
1714,6011701024693,新規,0,2021-09-08,2021-09-08,ＲＳ　ＩＮＴＥＲＮＡＴＩＯＮＡＬ株式会社,,株式会社,東京都,江戸川区,船堀７丁目３－５－２０２Ｙ．Ｋビル,,13,123,1340091,,,,,,,2021-09-08,1,,,,,アールエスインターナショナル,0
1734,6020003020450,新規,0,2021-09-08,2021-09-08,合同会社ＫＹＮＡ,,合同会社,神奈川県,横浜市港北区,新吉田東５丁目１９番１号,,14,109,2230058,,,,,,,2021-09-08,1,,,,,キイナ,0
1740,6021001073903,新規,0,2021-09-08,2021-09-08,株式会社Ｖ．Ｉ．Ｐインターナショナル,,株式会社,神奈川県,大和市,中央３丁目１番２２号,,14,213,2420021,,,,,,,2021-09-08,1,,,,,ヴイアイピーインターナショナル,0
1743,6021003010862,新規,0,2021-09-08,2021-09-08,合同会社上溝クリエイトライフ,,合同会社,神奈川県,相模原市中央区,上溝３８３９番地５２,,14,152,2520243,,,,,,,2021-09-08,1,,,,,カミミゾクリエイトライフ,0
1749,6030001144192,新規,0,2021-09-08,2021-09-08,アいちず創製株式会社,,株式会社,埼玉県,日高市,大字台５０番地８,,11,242,3501253,,,,,,,2021-09-08,1,,,,,アイチズソウセイ,0
1750,6030001144226,新規,0,2021-09-08,2021-09-08,株式会社ハウスクリーンメンテナンス,,株式会社,埼玉県,さいたま市桜区,大字道場７０９番地１アステックビル２階,,11,106,3380835,,,,,,,2021-09-08,1,,,,,ハウスクリーンメンテナンス,0
1751,6030001144234,新規,0,2021-09-08,2021-09-08,福山工業株式会社,,株式会社,埼玉県,さいたま市南区,曲本１丁目７番４号２０３号,,11,108,3360033,,,,,,,2021-09-08,1,,,,,フクヤマコウギョウ,0
1752,6030001144259,新規,0,2021-09-08,2021-09-08,展顯株式会社,,株式会社,埼玉県,川口市,飯塚２丁目２番１０号１６０５,,11,203,3320023,,,,,,,2021-09-08,1,,,,,テンケン,0
1753,6030003017909,新規,0,2021-09-08,2021-09-08,合同会社ＯＲＵＫＡ,,合同会社,埼玉県,さいたま市岩槻区,東岩槻５丁目２番地２１,,11,110,3390005,,,,,,,2021-09-08,1,,,,,オルカ,0
1754,6030003017925,新規,0,2021-09-08,2021-09-08,合同会社金子至誠堂,,合同会社,埼玉県,日高市,大字梅原９９番地２,,11,242,3501246,,,,,,,2021-09-08,1,,,,,カネコシセイドウ,0
1756,6030005020514,新規,0,2021-09-08,2021-09-08,社会保険労務士法人吉池労務管理事務所,,その他の設立登記法人,埼玉県,さいたま市浦和区,東高砂町２７番５号,,11,107,3300055,,,,,,,2021-09-08,1,,,,,ヨシイケロウムカンリジムショ,0
1761,6040001119961,新規,0,2021-09-08,2021-09-08,浪花商店株式会社,,株式会社,千葉県,いすみ市,小沢１２１７番地１,,12,238,2980012,,,,,,,2021-09-08,1,,,,,ナミハナショウテン,0
1762,6040001119994,新規,0,2021-09-08,2021-09-08,株式会社ＭｉｌｌｉｏｎＴｅｃｈ,,株式会社,千葉県,印西市,武西学園台３丁目１２－３,,12,231,2701355,,,,,,,2021-09-08,1,,,,,ミリオンテック,0
1763,6040001120110,新規,0,2021-09-08,2021-09-08,タイショウ技工株式会社,,株式会社,千葉県,市原市,西広３丁目２番地４６,,12,219,2900022,,,,,,,2021-09-08,1,,,,,タイショウギコウ,0
1764,6040001120119,新規,0,2021-09-08,2021-09-08,株式会社学び舎,,株式会社,千葉県,市川市,南大野３丁目１４番９号,,12,203,2720804,,,,,,,2021-09-08,1,,,,,マナビヤ,0
1768,6040003018476,新規,0,2021-09-08,2021-09-08,合同会社優輝,,合同会社,千葉県,市川市,市川南１丁目１番２号山晃社ビル,,12,203,2720033,,,,,,,2021-09-08,1,,,,,ユウキ,0
1777,6060001034052,新規,0,2021-09-08,2021-09-08,株式会社フルモデルス,,株式会社,栃木県,下野市,医大前２丁目５番地１４,,09,216,3290403,,,,,,,2021-09-08,1,,,,,フルモデルス,0
1816,6120001240206,新規,0,2021-09-08,2021-09-08,株式会社野江ミルクセンター,,株式会社,大阪府,大阪市城東区,野江２丁目９番１９号,,27,118,5360006,,,,,,,2021-09-08,1,,,,,ノエミルクセンター,0
1822,6120003020151,新規,0,2021-09-08,2021-09-08,合同会社ＧＲＥＥＮ　ＬＵＳＨ,,合同会社,大阪府,大阪市住吉区,住吉２丁目５番２４号グルパ住吉１号館３０１号,,27,120,5580045,,,,,,,2021-09-08,1,,,,,グリーンラッシュ,0
1823,6120003020168,新規,0,2021-09-08,2021-09-08,合同会社ＳＨＩＫＩ　ＧＲＯＵＰ,,合同会社,大阪府,大阪市天王寺区,生玉前町１－２８杉本ビル１Ｆ,,27,109,5430072,,,,,,,2021-09-08,1,,,,,シキグループ,0
1828,6120103004335,新規,0,2021-09-08,2021-09-08,合同会社喜八不動産,,合同会社,大阪府,泉佐野市,日根野７２番地の１９,,27,213,5980021,,,,,,,2021-09-08,1,,,,,キハチフドウサン,0
1849,6140003016718,新規,0,2021-09-08,2021-09-08,秦明登合同会社,,合同会社,兵庫県,神戸市中央区,脇浜海岸通３丁目１番１８－２５０２号,,28,110,6510073,,,,,,,2021-09-08,1,,,,,ハタアキト,0
1852,6150001024911,新規,0,2021-09-08,2021-09-08,株式会社原田測量,,株式会社,奈良県,吉野郡大淀町,大字桧垣本２０９３番地の１２８,,29,442,6380812,,,,,,,2021-09-08,1,,,,,ハラダソクリョウ,0
1853,6150003002477,新規,0,2021-09-08,2021-09-08,合同会社ＢｒｕＵ,,合同会社,奈良県,奈良市,西大寺北町１丁目７－８きたまちアパートメント４０１,,29,201,6310817,,,,,,,2021-09-08,1,,,,,ブルー,0
1863,6180001147767,新規,0,2021-09-08,2021-09-08,株式会社ＲＹＵ建築設計,,株式会社,愛知県,名古屋市守山区,八剣１丁目５０４番地プラウド大森金城学院前２０１号室,,23,113,4630022,,,,,,,2021-09-08,1,,,,,リュウケンチクセッケイ,0
1878,6230001018970,新規,0,2021-09-08,2021-09-08,エフテレット株式会社,,株式会社,富山県,富山市,才覚寺７６０番地,,16,201,9398263,,,,,,,2021-09-08,1,,,,,エフテレット,0
1889,6250001019117,新規,0,2021-09-08,2021-09-08,株式会社パールプラス・ファースト,,株式会社,山口県,下関市,岬之町１６番６号下関ハイマート１０１,,35,201,7500014,,,,,,,2021-09-08,1,,,,,パールプラスファースト,0
1898,6280005007437,新規,0,2021-09-08,2021-09-08,一般社団法人ＹＡＯＹＯＬＯＺ,,その他の設立登記法人,島根県,出雲市,斐川町阿宮２１４番地１,,32,203,6990611,,,,,,,2021-09-08,1,,,,,,0
1907,6290001094486,新規,0,2021-09-08,2021-09-08,ジェイエイトレジデンス株式会社,,株式会社,福岡県,福岡市早良区,高取１丁目２８番３０－１４０１号,,40,137,8140011,,,,,,,2021-09-08,1,,,,,ジェイエイトレジデンス,0
1908,6290001094494,新規,0,2021-09-08,2021-09-08,株式会社ＵＲＡＲＴ,,株式会社,福岡県,朝倉郡東峰村,大字宝珠山３１００番地,,40,448,8381701,,,,,,,2021-09-08,1,,,,,ウラート,0
1909,6290001094511,新規,0,2021-09-08,2021-09-08,株式会社１パーセント,,株式会社,福岡県,福岡市博多区,中洲中島町３－１５－８０５,,40,132,8100802,,,,,,,2021-09-08,1,,,,,イチパーセント,0
1910,6290001094569,新規,0,2021-09-08,2021-09-08,無双貿易株式会社,,株式会社,福岡県,福岡市中央区,薬院３丁目１６番２６号西鉄薬院ビル５Ｆ,,40,133,8100022,,,,,,,2021-09-08,1,,,,,ムソウボウエキ,0
1918,6290801027760,新規,0,2021-09-08,2021-09-08,株式会社ＬＣＫエンタープライズ,,株式会社,福岡県,北九州市小倉北区,片野新町１丁目１２番２１号,,40,106,8020062,,,,,,,2021-09-08,1,,,,,エルシーケーエンタープライズ,0
1923,6290805009466,新規,0,2021-09-08,2021-09-08,一般社団法人北九州ムスリム会,,その他の設立登記法人,福岡県,北九州市戸畑区,千防２丁目５番１５号,,40,105,8040081,,,,,,,2021-09-08,1,,,,,ムスリムカイ,0
1940,6360003011408,新規,0,2021-09-08,2021-09-08,合同会社ＣＹＧ,,合同会社,沖縄県,うるま市,字兼箇段１３５０－１・Ｇ－１,,47,213,9042241,,,,,,,2021-09-08,1,,,,,シーワイジー,0
1941,6360003011416,新規,0,2021-09-08,2021-09-08,合同会社沖縄アドバンストシステムズ,,合同会社,沖縄県,宜野湾市,大山１丁目１４番２３－８０１号ミルコマンション宜野湾大山ビュー,,47,205,9012223,,,,,,,2021-09-08,1,,,,,オキナワアドバンストシステムズ,0
1942,6360005006505,新規,0,2021-09-08,2021-09-08,社会保険労務士法人堀下＆パートナーズ,,その他の設立登記法人,沖縄県,浦添市,西洲２丁目６番地６組合会館２Ｆ,,47,208,9012123,,,,,,,2021-09-08,1,,,,,ホリシタアンドパートナーズ,0
1947,6370003005383,新規,0,2021-09-08,2021-09-08,合同会社ＳＣＥ,,合同会社,宮城県,仙台市青葉区,台原６丁目１２番１９－４１０号,,04,101,9810911,,,,,,,2021-09-08,1,,,,,エスシーイー,0
1955,6390001016587,新規,0,2021-09-08,2021-09-08,株式会社ＯＧＡ工業,,株式会社,山形県,鶴岡市,辻興屋字街ノ上２番地４５,00124167,06,203,9971115,,,,,,,2021-09-08,1,,,,,オージーエーコウギョウ,0
1960,6420001017581,新規,0,2021-09-08,2021-09-08,宮本商店株式会社,,株式会社,青森県,上北郡六戸町,大字犬落瀬字佐野谷地１０３番２,,02,405,0392371,,,,,,,2021-09-08,1,,,,,ミヤモトショウテン,0
1962,6430001084877,新規,0,2021-09-08,2021-09-08,株式会社キャットハウスみゅーみゅー,,株式会社,北海道,札幌市白石区,川下一条７丁目２番１０号,,01,104,0030861,,,,,,,2021-09-08,1,,,,,キャットハウスミューミュー,0
1963,6430001084893,新規,0,2021-09-08,2021-09-08,株式会社素,,株式会社,北海道,札幌市西区,山の手七条７丁目３番１号,,01,107,0630007,,,,,,,2021-09-08,1,,,,,ス,0
1971,6470003002032,新規,0,2021-09-08,2021-09-08,合同会社平野美装,,合同会社,香川県,高松市,由良町１４９番地２,,37,201,7610441,,,,,,,2021-09-08,1,,,,,ヒラノビソウ,0
1975,6490001009985,新規,0,2021-09-08,2021-09-08,九十九商運株式会社,,株式会社,高知県,高知市,桟橋通６丁目１番２号,,39,201,7818010,,,,,,,2021-09-08,1,,,,,ツクモショウウン,0
1986,7010001220886,新規,0,2021-09-08,2021-09-08,株式会社Ｇｒｏｗ５８,,株式会社,東京都,中央区,銀座４丁目９番８号,,13,102,1040061,,,,,,,2021-09-08,1,,,,,グロウゴジュウハチ,0
1987,7010001221018,新規,0,2021-09-08,2021-09-08,株式会社ＳＨＩＰ第２３９号,,株式会社,東京都,千代田区,丸の内２丁目７番２号,,13,101,1000005,,,,,,,2021-09-08,1,,,,,エスエイチアイピーダイニヒャクサンジュウキュウゴウ,0
1988,7010001221034,新規,0,2021-09-08,2021-09-08,大信産業株式会社,,株式会社,東京都,千代田区,神田錦町３丁目２１番地１２０８号,,13,101,1010054,,,,,,,2021-09-08,1,,,,,ダイシンサンギョウ,0
1992,7010003035770,新規,0,2021-09-08,2021-09-08,合同会社Ｓａｇｅ,,合同会社,東京都,中央区,入船１丁目６番３号,,13,102,1040042,,,,,,,2021-09-08,1,,,,,セージ,0
1996,7010005033938,新規,0,2021-09-08,2021-09-08,特定非営利活動法人Ｒｅｍｅｍｂｅｒ　ＨＡＮＡ,,その他の設立登記法人,東京都,文京区,音羽２丁目４番２号ノーブル音羽２０４号室,,13,105,1120013,,,,,,,2021-09-08,1,,,,,リメンバーハナ,0
2007,7010403026080,新規,0,2021-09-08,2021-09-08,ＤＳ　Ａｋａｓａｋａ合同会社,,合同会社,東京都,港区,虎ノ門５丁目１番４号,,13,103,1050001,,,,,,,2021-09-08,1,,,,,ディーエスアカサカ,0
2008,7010405020206,新規,0,2021-09-08,2021-09-08,ＤＳ　Ｓｈｉｂａｋｏｅｎ一般社団法人,,その他の設立登記法人,東京都,港区,虎ノ門５丁目１番４号,,13,103,1050001,,,,,,,2021-09-08,1,,,,,ディーエスシバコウエン,0
2012,7010603009141,新規,0,2021-09-08,2021-09-08,合同会社７月,,合同会社,東京都,江東区,大島８丁目９番２号,,13,108,1360072,,,,,,,2021-09-08,1,,,,,シチガツ,0
2027,7011001142716,新規,0,2021-09-08,2021-09-08,株式会社クオリティオブライフ,,株式会社,東京都,目黒区,目黒２丁目９番６号４階,,13,110,1530063,,,,,,,2021-09-08,1,,,,,クオリティオブライフ,0
2030,7011003013353,新規,0,2021-09-08,2021-09-08,スピア合同会社,,合同会社,東京都,目黒区,目黒４丁目２０番１０号,,13,110,1530063,,,,,,,2021-09-08,1,,,,,スピア,0
2041,7011201023229,新規,0,2021-09-08,2021-09-08,株式会社ニッチ,,株式会社,東京都,中野区,中央２丁目３６番１４号,,13,114,1640011,,,,,,,2021-09-08,1,,,,,ニッチ,0
2046,7011601025386,新規,0,2021-09-08,2021-09-08,ＧＣ株式会社,,株式会社,東京都,練馬区,関町北５丁目９番２５号,,13,120,1770051,,,,,,,2021-09-08,1,,,,,ジーシー,0
2048,7011701024692,新規,0,2021-09-08,2021-09-08,株式会社キネアジア,,株式会社,東京都,江戸川区,西葛西７丁目９番１４－２０６,,13,123,1340088,,,,,,,2021-09-08,1,,,,,キネアジア,0
2050,7012301012699,新規,0,2021-09-08,2021-09-08,株式会社ジェイカーズ,,株式会社,東京都,町田市,金井８丁目１１番１８号,,13,209,1950072,,,,,,,2021-09-08,1,,,,,ジェイカーズ,0
2057,7013101008714,新規,0,2021-09-08,2021-09-08,株式会社先読,,株式会社,東京都,羽村市,栄町１丁目９番地６リアライズ羽村４１８,,13,227,2050002,,,,,,,2021-09-08,1,,,,,サキヨミ,0
2075,7021001073844,新規,0,2021-09-08,2021-09-08,株式会社出口工業,,株式会社,神奈川県,厚木市,金田３８３番地,,14,212,2430807,,,,,,,2021-09-08,1,,,,,デグチコウギョウ,0
2076,7021001073877,新規,0,2021-09-08,2021-09-08,株式会社ＮＡＳＲＩＮ・ＩＮＴＥＲＮＡＴＩＯＮＡＬ,,株式会社,神奈川県,厚木市,旭町１丁目２３番３号,,14,212,2430014,,,,,,,2021-09-08,1,,,,,ナスリンインターナショナル,0
2077,7021001073885,新規,0,2021-09-08,2021-09-08,ＤＡソリューション株式会社,,株式会社,神奈川県,藤沢市,鵠沼石上２丁目１番３～８０１号,,14,205,2510025,,,,,,,2021-09-08,1,,,,,ディーエーソリューション,0
2078,7021001073893,新規,0,2021-09-08,2021-09-08,株式会社ＩＮＳＩＤＥ,,株式会社,神奈川県,厚木市,寿町２丁目１番５号神崎ビル,,14,212,2430003,,,,,,,2021-09-08,1,,,,,インサイド,0
2084,7021003010845,新規,0,2021-09-08,2021-09-08,合同会社ＲＡＳＹＳ,,合同会社,神奈川県,藤沢市,鵠沼石上１丁目７番８,00124166,14,205,2510025,,,,,,,2021-09-08,1,,,,,レイシス,0
2085,7021003010853,新規,0,2021-09-08,2021-09-08,Ａｓｉａ　Ｃｒａｆｔ　Ｉｎｎｏｖａｔｉｏｎｓ合同会社,,合同会社,神奈川県,茅ヶ崎市,元町３番１７号村田ビル２０２,,14,207,2530043,,,,,,,2021-09-08,1,,,,,アジアクラフトイノベーションズ,0
2090,7030001144200,新規,0,2021-09-08,2021-09-08,株式会社マグ・シー,,株式会社,埼玉県,入間市,東藤沢７丁目１６番３７号,,11,225,3580012,,,,,,,2021-09-08,1,,,,,マグシー,0
2091,7030001144217,新規,0,2021-09-08,2021-09-08,株式会社シントコーポレーション,,株式会社,埼玉県,さいたま市見沼区,大和田町２丁目１００９番地１,,11,104,3370053,,,,,,,2021-09-08,1,,,,,シントコーポレーション,0
2092,7030001144233,新規,0,2021-09-08,2021-09-08,株式会社クロスカンパニー,,株式会社,埼玉県,上尾市,西宮下４丁目３１３番地１４,,11,219,3620043,,,,,,,2021-09-08,1,,,,,クロスカンパニー,0
2093,7030001144274,新規,0,2021-09-08,2021-09-08,株式会社ＰＣＳ,,株式会社,埼玉県,入間郡越生町,大字大満２１７番地,,11,327,3500423,,,,,,,2021-09-08,1,,,,,ピーシーエス,0
2096,7030003017924,新規,0,2021-09-08,2021-09-08,合同会社ａｔｅｌｉｅｒ　ＷＡＮＴ,,合同会社,埼玉県,蓮田市,見沼町１５－２１,,11,238,3490127,,,,,,,2021-09-08,1,,,,,アトリエウォント,0
2100,7040001119977,新規,0,2021-09-08,2021-09-08,石坂漁業株式会社,,株式会社,千葉県,銚子市,川口町１丁目２０５２番地,,12,202,2880001,,,,,,,2021-09-08,1,,,,,,0
2108,7040003018467,新規,0,2021-09-08,2021-09-08,ワイズ技研合同会社,,合同会社,千葉県,市原市,若宮３丁目７番地７,,12,219,2900006,,,,,,,2021-09-08,1,,,,,ワイズギケン,0
2109,7040005021337,新規,0,2021-09-08,2021-09-08,一般社団法人恵心福祉協会,,その他の設立登記法人,千葉県,船橋市,田喜野井１丁目４５番７号,,12,204,2740073,,,,,,,2021-09-08,1,,,,,ケイシンフクシキョウカイ,0
2110,7040005021345,新規,0,2021-09-08,2021-09-08,行政書士法人大樂事務所,,その他の設立登記法人,千葉県,市原市,五井中央東２丁目６番地１相川ビル３階,,12,219,2900054,,,,,,,2021-09-08,1,,,,,,0
2112,7050001049793,新規,0,2021-09-08,2021-09-08,マイスターシャフト株式会社,,株式会社,茨城県,守谷市,松ケ丘７丁目１８番地２３,,08,224,3020127,,,,,,,2021-09-08,1,,,,,マイスターシャフト,0
2119,7060003003797,新規,0,2021-09-08,2021-09-08,Ｙ２Ｓ合同会社,,合同会社,栃木県,芳賀郡芳賀町,芳賀台３９１６番地３２,,09,345,3213325,,,,,,,2021-09-08,1,,,,,,0
2136,7100001034591,新規,0,2021-09-08,2021-09-08,ｒｅｔｈ株式会社,,株式会社,長野県,北安曇郡白馬村,大字北城１２３０４,,20,485,3999301,,,,,,,2021-09-08,1,,,,,リス,0
2147,7120001240155,新規,0,2021-09-08,2021-09-08,Ｋ．Ｎ株式会社,,株式会社,大阪府,大阪市生野区,生野東１丁目１４番１４号,,27,116,5440025,,,,,,,2021-09-08,1,,,,,ケーエヌ,0
2148,7120001240188,新規,0,2021-09-08,2021-09-08,株式会社ＧＥＴＳ,,株式会社,大阪府,枚方市,藤阪西町５番１０－２０３号,,27,210,5730158,,,,,,,2021-09-08,1,,,,,ゲッツ,0
2149,7120001240221,新規,0,2021-09-08,2021-09-08,株式会社シュルテ,,株式会社,大阪府,大阪市中央区,久太郎町３丁目５番２７号,,27,128,5410056,,,,,,,2021-09-08,1,,,,,シュルテ,0
2150,7120001240270,新規,0,2021-09-08,2021-09-08,株式会社ライン,,株式会社,大阪府,大阪市浪速区,恵美須西１丁目３番４号２階,,27,111,5560003,,,,,,,2021-09-08,1,,,,,ライン,0
2156,7120003020183,新規,0,2021-09-08,2021-09-08,合同会社ＺＵＢＩＺＵＢＡ,,合同会社,大阪府,大阪市北区,堂山町１－５三共梅田ビル７階,,27,127,5300027,,,,,,,2021-09-08,1,,,,,ズビズバ,0
2157,7120003020191,新規,0,2021-09-08,2021-09-08,合同会社ＤＡＹＡ,,合同会社,大阪府,枚方市,田宮本町９－２９,,27,210,5730024,,,,,,,2021-09-08,1,,,,,デイヤ,0
2158,7120005022491,新規,0,2021-09-08,2021-09-08,一般社団法人おおきに協会,,その他の設立登記法人,大阪府,大阪市中央区,瓦町４丁目４番７号,,27,128,5410048,,,,,,,2021-09-08,1,,,,,オオキニキョウカイ,0
2161,7120101064272,新規,0,2021-09-08,2021-09-08,東阪ホールディングス株式会社,,株式会社,大阪府,泉南市,馬場１丁目７０１番地の１,,27,228,5900525,,,,,,,2021-09-08,1,,,,,トウハンホールディングス,0
2167,7130001070048,新規,0,2021-09-08,2021-09-08,京翔株式会社,,株式会社,京都府,舞鶴市,字朝代４８－１－２０６号,,26,202,6240842,,,,,,,2021-09-08,1,,,,,ケイショウ,0
2168,7130001070080,新規,0,2021-09-08,2021-09-08,株式会社ＤＥＮＴＯ,,株式会社,京都府,京都市右京区,山ノ内宮脇町１５－１,,26,108,6150092,,,,,,,2021-09-08,1,,,,,デントウ,0
2169,7130003007469,新規,0,2021-09-08,2021-09-08,リンクス合同会社,,合同会社,京都府,八幡市,内里東山川４９番地１,,26,210,6148244,,,,,,,2021-09-08,1,,,,,リンクス,0
2174,7140001122921,新規,0,2021-09-08,2021-09-08,ａｍｂａｒ株式会社,,株式会社,兵庫県,小野市,王子町７７９番地の１,,28,218,6751378,,,,,,,2021-09-08,1,,,,,アンバル,0
2175,7140001122938,新規,0,2021-09-08,2021-09-08,株式会社福条モータース,,株式会社,兵庫県,淡路市,志筑１６３０番地１１,,28,226,6562131,,,,,,,2021-09-08,1,,,,,フクジョウモータース,0
2176,7140001122946,新規,0,2021-09-08,2021-09-08,株式会社まつもと建築工房,,株式会社,兵庫県,豊岡市,中陰１５２番地の１,,28,209,6680013,,,,,,,2021-09-08,1,,,,,マツモトケンチクコウボウ,0
2177,7140001122987,新規,0,2021-09-08,2021-09-08,株式会社建装奄美,,株式会社,兵庫県,宝塚市,安倉南４丁目１２番８号,,28,214,6650823,,,,,,,2021-09-08,1,,,,,ケンソウアマミ,0
2183,7140003016717,新規,0,2021-09-08,2021-09-08,合同会社ｔｏ　ｇｏ,,合同会社,兵庫県,豊岡市,高屋９９２番地の６,,28,209,6680064,,,,,,,2021-09-08,1,,,,,トゥーゴー,0
2184,7140003016725,新規,0,2021-09-08,2021-09-08,あかぎコンサルティング合同会社,,合同会社,兵庫県,神戸市北区,花山中尾台１丁目１９番地の１,,28,109,6511202,,,,,,,2021-09-08,1,,,,,アカギコンサルティング,0
2204,7180001147659,新規,0,2021-09-08,2021-09-08,株式会社トーヨーワークス,,株式会社,愛知県,あま市,二ツ寺三本松１３３番地４,,23,237,4901207,,,,,,,2021-09-08,1,,,,,トーヨーワークス,0
2205,7180001147758,新規,0,2021-09-08,2021-09-08,株式会社ウェブロッサム,,株式会社,愛知県,名古屋市中川区,花塚町４丁目１８番地の２,,23,110,4540052,,,,,,,2021-09-08,1,,,,,ウェブロッサム,0
2206,7180001147766,新規,0,2021-09-08,2021-09-08,株式会社ＳＭＡＳＨ　ＨＤ,,株式会社,愛知県,名古屋市熱田区,金山町１丁目７番５号電波学園金山第１ビル９階,,23,109,4560002,,,,,,,2021-09-08,1,,,,,スマッシュホールディングス,0
2209,7180003022926,新規,0,2021-09-08,2021-09-08,合同会社ブリーディングハウス,,合同会社,愛知県,小牧市,大字大草５７３４番地４,,23,219,4850802,,,,,,,2021-09-08,1,,,,,ブリーディングハウス,0
2214,7190001028668,新規,0,2021-09-08,2021-09-08,株式会社シーブリーム,,株式会社,三重県,松阪市,飯高町宮前２５７番地１,,24,204,5151502,,,,,,,2021-09-08,1,,,,,シーブリーム,0
2239,7250001019108,新規,0,2021-09-08,2021-09-08,株式会社ＥＣＸＩＡ,,株式会社,山口県,下松市,大字末武上８９５番地５,,35,207,7440024,,,,,,,2021-09-08,1,,,,,エクシア,0
2254,7290001094485,新規,0,2021-09-08,2021-09-08,愛心テクノス株式会社,,株式会社,福岡県,福津市,福間南２丁目７番１２号,,40,224,8113212,,,,,,,2021-09-08,1,,,,,アイシンテクノス,0
2255,7290001094493,新規,0,2021-09-08,2021-09-08,株式会社いままち薬局,,株式会社,福岡県,大牟田市,大字田隈３６８番地５,,40,202,8370916,,,,,,,2021-09-08,1,,,,,イママチヤッキョク,0
2256,7290001094502,新規,0,2021-09-08,2021-09-08,株式会社ＩＳＡＯ,,株式会社,福岡県,福津市,西福間５丁目２番１２号,,40,224,8113219,,,,,,,2021-09-08,1,,,,,イサオ,0
2257,7290001094510,新規,0,2021-09-08,2021-09-08,株式会社Ｎ．ファースト,,株式会社,福岡県,福岡市南区,花畑３丁目３８－１３,,40,134,8111356,,,,,,,2021-09-08,1,,,,,エヌドットファースト,0
2258,7290001094527,新規,0,2021-09-08,2021-09-08,株式会社Ｓａｉｌｉｎｇ,,株式会社,福岡県,福岡市中央区,天神２丁目３番１０号天神パインクレスト７１９号,,40,133,8100001,,,,,,,2021-09-08,1,,,,,セーリング,0
2259,7290001094535,新規,0,2021-09-08,2021-09-08,株式会社４４０ガレージ,,株式会社,福岡県,飯塚市,仁保８番地３,,40,205,8200115,,,,,,,2021-09-08,1,,,,,ヨンヨンゼロガレージ,0
2279,7360001029310,新規,0,2021-09-08,2021-09-08,株式会社ＭＵＳＵＢＩ,,株式会社,沖縄県,宮古島市,平良字久貝８３６番地３プレステージ久貝３０１,,47,214,9060015,,,,,,,2021-09-08,1,,,,,ムスビ,0
2280,7360001029335,新規,0,2021-09-08,2021-09-08,株式会社コザ部品店,,株式会社,沖縄県,沖縄市,八重島２丁目１３番１号１Ｆ,,47,211,9040006,,,,,,,2021-09-08,1,,,,,コザブヒンテン,0
2281,7360001029343,新規,0,2021-09-08,2021-09-08,株式会社新ＩＳＯ創研,,株式会社,沖縄県,那覇市,松尾１丁目１９番１２‐６０５号ロイヤルマンション県庁前,,47,201,9000014,,,,,,,2021-09-08,1,,,,,シンアイエスオーソウケン,0
2284,7360003011407,新規,0,2021-09-08,2021-09-08,合同会社地域共創サポートｙ’ｓ　Ｃｏ－ｃｒｅａｔｉｏｎ,,合同会社,沖縄県,石垣市,字登野城１３２番地,,47,207,9070004,,,,,,,2021-09-08,1,,,,,チイキキョウソウサポートワイズコークリエーション,0
2285,7360003011415,新規,0,2021-09-08,2021-09-08,合同会社平城,,合同会社,沖縄県,うるま市,字赤道６８９番地１９,,47,213,9042245,,,,,,,2021-09-08,1,,,,,ヘイジョウ,0
2286,7360003011423,新規,0,2021-09-08,2021-09-08,ＣＡＮＴＥＣ．合同会社,,合同会社,沖縄県,沖縄市,久保田２丁目９番５号,,47,211,9040023,,,,,,,2021-09-08,1,,,,,キャンテック,0
2288,7370001047583,新規,0,2021-09-08,2021-09-08,輝翠ＴＥＣＨ株式会社,,株式会社,宮城県,仙台市青葉区,荒巻字青葉６－６－４０,,04,101,9800845,,,,,,,2021-09-08,1,,,,,キスイテック,0
2306,7430005014268,新規,0,2021-09-08,2021-09-08,一般社団法人みらいの杜,,その他の設立登記法人,北海道,札幌市清田区,平岡六条３丁目１８番１４号,,01,110,0040876,,,,,,,2021-09-08,1,,,,,ミライノモリ,0
2309,7480001011487,新規,0,2021-09-08,2021-09-08,株式会社金山木工所,,株式会社,徳島県,三好市,池田町中西丸畠１６６９番地２,,36,208,7795161,,,,,,,2021-09-08,1,,,,,カネヤマモッコウショ,0
2313,7490001009984,新規,0,2021-09-08,2021-09-08,ウエスト．フォレスト．ステイブル株式会社,,株式会社,高知県,吾川郡仁淀川町,長者乙２１９０番地,,39,387,7811911,,,,,,,2021-09-08,1,,,,,ウエストフォレストステイブル,0
2319,8010001220968,新規,0,2021-09-08,2021-09-08,株式会社ブランチ,,株式会社,東京都,中央区,日本橋小網町１番４号淳和ビル６Ｆ－Ｂ,,13,102,1030016,,,,,,,2021-09-08,1,,,,,ブランチ,0
2320,8010001220992,新規,0,2021-09-08,2021-09-08,新苑株式会社,,株式会社,東京都,千代田区,内神田２丁目３番１－５０２号,,13,101,1010047,,,,,,,2021-09-08,1,,,,,シンエン,0
2321,8010001221009,新規,0,2021-09-08,2021-09-08,株式会社ハーキュリーズ・アドバイザリー,,株式会社,東京都,千代田区,内神田１丁目１８番１１号東京ロイヤルプラザ１０２０号室,,13,101,1010047,,,,,,,2021-09-08,1,,,,,ハーキュリーズアドバイザリー,0
2322,8010001221033,新規,0,2021-09-08,2021-09-08,株式会社エクレール,,株式会社,東京都,千代田区,西神田２丁目１番１２号景雲ビル４階,,13,101,1010065,,,,,,,2021-09-08,1,,,,,エクレール,0
2323,8010001221041,新規,0,2021-09-08,2021-09-08,株式会社カーディバル,,株式会社,東京都,千代田区,外神田３丁目１５番５号ＭＮビル４階,,13,101,1010021,,,,,,,2021-09-08,1,,,,,カーディバル,0
2328,8010003035786,新規,0,2021-09-08,2021-09-08,ハイランダーパブリックアフェアーズ合同会社,,合同会社,東京都,千代田区,平河町２丁目１１番１０号パークウエストひらかわ３０１号,,13,101,1020093,,,,,,,2021-09-08,1,,,,,ハイランダーパブリックアフェアーズ,0
2339,8010405020205,新規,0,2021-09-08,2021-09-08,ＤＳ　Ｎｉｓｈｉｓｈｉｎｊｕｋｕ一般社団法人,,その他の設立登記法人,東京都,港区,虎ノ門５丁目１番４号,,13,103,1050001,,,,,,,2021-09-08,1,,,,,ディーエスニシシンジュク,0
2342,8010501047804,新規,0,2021-09-08,2021-09-08,エルピスホールディングス株式会社,,株式会社,東京都,台東区,元浅草１丁目１５番１５号山田ビル２Ｆ,,13,106,1110041,,,,,,,2021-09-08,1,,,,,エルピスホールディングス,0
2344,8010503006378,新規,0,2021-09-08,2021-09-08,合同会社Ｒ．Ｔ．Ｙ,,合同会社,東京都,台東区,竜泉２丁目１７番６－６０２号プライムステージ・オオシマ,,13,106,1100012,,,,,,,2021-09-08,1,,,,,アールティーワイ,0
2351,8010601059897,新規,0,2021-09-08,2021-09-08,株式会社ＴＯＴＳ,,株式会社,東京都,江東区,北砂４丁目３９番１６号,,13,108,1360073,,,,,,,2021-09-08,1,,,,,トッツ,0
2352,8010601059906,新規,0,2021-09-08,2021-09-08,株式会社ジラソーレ,,株式会社,東京都,江東区,亀戸７丁目３９番１１号,,13,108,1360071,,,,,,,2021-09-08,1,,,,,ジラソーレ,0
2353,8010701041458,新規,0,2021-09-08,2021-09-08,株式会社ＳＯＬ,,株式会社,東京都,品川区,東五反田１丁目２番１３号,,13,109,1410022,,,,,,,2021-09-08,1,,,,,エスオーエル,0
2354,8010705003264,新規,0,2021-09-08,2021-09-08,医療法人社団かなた,,その他の設立登記法人,東京都,品川区,豊町４丁目６番７号斎川ビル１０１号室,,13,109,1420042,,,,,,,2021-09-08,1,,,,,カナタ,0
2370,8011001142632,新規,0,2021-09-08,2021-09-08,株式会社ｓａｉ　ａｎｄ　ｐａｒｔｎｅｒｓ,,株式会社,東京都,渋谷区,猿楽町２番地７シャトーソフィアＳＵＮ５０３,,13,113,1500033,,,,,,,2021-09-08,1,,,,,サイアンドパートナーズ,0
2371,8011001142681,新規,0,2021-09-08,2021-09-08,株式会社Ｃｌｕｅ＆Ｓ,,株式会社,東京都,渋谷区,神宮前６丁目２３番４号桑野ビル２階,,13,113,1500001,,,,,,,2021-09-08,1,,,,,クルーアンドエス,0
2374,8011003013311,新規,0,2021-09-08,2021-09-08,Ｓｔａｒ５０合同会社,,合同会社,東京都,目黒区,碑文谷５丁目２番５号Ｔ＆Ａビル５階,,13,110,1520003,,,,,,,2021-09-08,1,,,,,スターフィフティ,0
2381,8011101096209,新規,0,2021-09-08,2021-09-08,東新建設株式会社,,株式会社,東京都,新宿区,西新宿７丁目１７番７号廣田ビル５階,,13,104,1600023,,,,,,,2021-09-08,1,,,,,トウシンケンセツ,0
2385,8011305002771,新規,0,2021-09-08,2021-09-08,一般社団法人経皮毒研究会,,その他の設立登記法人,東京都,杉並区,浜田山３丁目３５番１９号レジデンス浜田山１０８,,13,115,1680065,,,,,,,2021-09-08,1,,,,,ケイヒドクケンキュウカイ,0
2388,8011605002397,新規,0,2021-09-08,2021-09-08,医療法人社団順福会,,その他の設立登記法人,東京都,練馬区,栄町３２番７号１Ｆ,,13,120,1760006,,,,,,,2021-09-08,1,,,,,ジュンフクカイ,0
2389,8011801039672,新規,0,2021-09-08,2021-09-08,株式会社榎本工業,,株式会社,東京都,足立区,扇１丁目５５番５７号,,13,121,1230873,,,,,,,2021-09-08,1,,,,,エノモトコウギョウ,0
2392,8012303001583,新規,0,2021-09-08,2021-09-08,合同会社ｋａｙｕ,,合同会社,東京都,町田市,南町田３丁目２３番３５号Ｈｅｉｍｓｔäｅｔｔｅ綵雲館３０２,00124176,13,209,1940005,,,,,,,2021-09-08,1,,,,,カユ,0
2393,8013101008713,新規,0,2021-09-08,2021-09-08,株式会社マイランド,,株式会社,東京都,青梅市,今井１丁目５４８番地,,13,205,1980023,,,,,,,2021-09-08,1,,,,,マイランド,0
2406,8020001142914,新規,0,2021-09-08,2021-09-08,株式会社アクシアエース,,株式会社,神奈川県,横浜市港北区,新横浜２丁目４番１９号富士火災横浜ビル４階ＭＥＧＡオフィス,,14,109,2220033,,,,,,,2021-09-08,1,,,,,アクシアエース,0
2407,8020001142947,新規,0,2021-09-08,2021-09-08,株式会社東洋産業,,株式会社,神奈川県,横浜市鶴見区,仲通３丁目８１番３４号,,14,101,2300042,,,,,,,2021-09-08,1,,,,,トウヨウサンギョウ,0
2411,8020003020449,新規,0,2021-09-08,2021-09-08,ＭｉＫコンサルティング合同会社,,合同会社,神奈川県,川崎市中原区,中丸子１３番地１０ザ・クラッシィタワー３８０９,,14,133,2110012,,,,,,,2021-09-08,1,,,,,ミックコンサルティング,0
2412,8020003020457,新規,0,2021-09-08,2021-09-08,合同会社ムンジュ,,合同会社,神奈川県,横浜市中区,石川町５丁目２１９番地,,14,104,2310868,,,,,,,2021-09-08,1,,,,,ムンジュ,0
2416,8021001073876,新規,0,2021-09-08,2021-09-08,株式会社自然食品ＹＡＭＡ,,株式会社,神奈川県,横須賀市,久里浜８丁目１９番２号,,14,201,2390831,,,,,,,2021-09-08,1,,,,,シゼンショクヒンヤマ,0
2417,8021001073901,新規,0,2021-09-08,2021-09-08,株式会社ＧＬＯＲＹ　ＯＦ　ＢＲＩＤＧＥ,,株式会社,神奈川県,相模原市中央区,星が丘３丁目９番２４号,,14,152,2520238,,,,,,,2021-09-08,1,,,,,グローリーオブブリッジ,0
2420,8021003010869,新規,0,2021-09-08,2021-09-08,マッシュ合同会社,,合同会社,神奈川県,茅ヶ崎市,高田２丁目１２番３４号,,14,207,2530002,,,,,,,2021-09-08,1,,,,,マッシュ,0
2421,8021005012285,新規,0,2021-09-08,2021-09-08,一般社団法人ブラッサムアート協会,,その他の設立登記法人,神奈川県,鎌倉市,小町２丁目１３番２２号,,14,204,2480006,,,,,,,2021-09-08,1,,,,,ブラッサムアートキョウカイ,0
2422,8021005012293,新規,0,2021-09-08,2021-09-08,一般社団法人ドッグセラピーいぬとも,,その他の設立登記法人,神奈川県,藤沢市,弥勒寺４丁目１４番１５号,,14,205,2510016,,,,,,,2021-09-08,1,,,,,ドッグセラピーイヌトモ,0
2439,8030005020512,新規,0,2021-09-08,2021-09-08,特定非営利活動法人彩の国文化芸術創造協会,,その他の設立登記法人,埼玉県,本庄市,児玉町八幡山１２番地,,11,211,3670217,,,,,,,2021-09-08,1,,,,,サイノクニブンカゲイジュツソウゾウキョウカイ,0
2460,8070003004224,新規,0,2021-09-08,2021-09-08,合同会社プラス,,合同会社,群馬県,高崎市,筑縄町１５番地６小見ビル２０２,,10,202,3700075,,,,,,,2021-09-08,1,,,,,プラス,0
2479,8120001240170,新規,0,2021-09-08,2021-09-08,株式会社Ａｔｌａｓ,,株式会社,大阪府,大阪市住之江区,西住之江２丁目３番２１号,,27,125,5590005,,,,,,,2021-09-08,1,,,,,アトラス,0
2480,8120001240237,新規,0,2021-09-08,2021-09-08,味彩株式会社,,株式会社,大阪府,大阪市天王寺区,東高津町１１番７号上本町グランディムビル,,27,109,5430021,,,,,,,2021-09-08,1,,,,,アジサイ,0
2481,8120001240278,新規,0,2021-09-08,2021-09-08,株式会社允購,,株式会社,大阪府,大阪市北区,天満２丁目１－１２天満橋ＳＥビル５階,,27,127,5300043,,,,,,,2021-09-08,1,,,,,ジョウコウ,0
2488,8120101064263,新規,0,2021-09-08,2021-09-08,辻本建設株式会社,00124168,株式会社,大阪府,松原市,天美北１丁目４３６番地の３,,27,217,5800031,,,,,,,2021-09-08,1,,,,,ツジモトケンセツ,0
2489,8120103004325,新規,0,2021-09-08,2021-09-08,ＧＲＥＥＮ　ＡＰＰＬＥ合同会社,,合同会社,大阪府,堺市美原区,大饗２８番地１１,,27,147,5870063,,,,,,,2021-09-08,1,,,,,グリーンアップル,0
2493,8122001035138,新規,0,2021-09-08,2021-09-08,株式会社ミヤマエホールディングス,,株式会社,大阪府,東大阪市,荒本１丁目２番３２号,,27,227,5770023,,,,,,,2021-09-08,1,,,,,ミヤマエホールディングス,0
2495,8130001070047,新規,0,2021-09-08,2021-09-08,株式会社まいづる食生活,,株式会社,京都府,舞鶴市,字上安久１４０番地３,,26,202,6240913,,,,,,,2021-09-08,1,,,,,マイヅルショクセイカツ,0
2496,8130001070055,新規,0,2021-09-08,2021-09-08,大鴻産業株式会社,,株式会社,京都府,京都市南区,西九条蔵王町６２番地,,26,107,6018414,,,,,,,2021-09-08,1,,,,,タイコウサンギョウ,0
2501,8140003016724,新規,0,2021-09-08,2021-09-08,Ｅｓｐｅｒａｎｚａ合同会社,,合同会社,兵庫県,西宮市,松風町２番５－１０１号,,28,204,6620073,,,,,,,2021-09-08,1,,,,,エスペランサ,0
2504,8150001024892,新規,0,2021-09-08,2021-09-08,株式会社ＯＮＷＡＹＳ,,株式会社,奈良県,生駒郡斑鳩町,阿波２丁目９－２９－２０３,,29,344,6360122,,,,,,,2021-09-08,1,,,,,オンウェイズ,0
2508,8170005006927,新規,0,2021-09-08,2021-09-08,特定非営利活動法人ＣＲＵＩＳＥ　ＡＲＩＤＡ,,その他の設立登記法人,和歌山県,有田市,宮原町東２６,,30,204,6490432,,,,,,,2021-09-08,1,,,,,クルーズアリダ,0
2513,8180001147625,新規,0,2021-09-08,2021-09-08,株式会社〇,,株式会社,愛知県,名古屋市西区,名駅２丁目４－３ウエスタンビル３Ｆ３４号,,23,104,4510045,,,,,,,2021-09-08,1,,,,,マル,0
2514,8180001147749,新規,0,2021-09-08,2021-09-08,オイルピット株式会社,,株式会社,愛知県,一宮市,花池４丁目１４番２１号,,23,203,4910914,,,,,,,2021-09-08,1,,,,,オイルピット,0
2515,8180001147765,新規,0,2021-09-08,2021-09-08,株式会社シンコーパートナーズ,,株式会社,愛知県,名古屋市中村区,名駅南１丁目１９番１３号ＡＥビル６Ｆ,,23,105,4500003,,,,,,,2021-09-08,1,,,,,シンコーパートナーズ,0
2519,8180003022933,新規,0,2021-09-08,2021-09-08,合同会社りゅうめい,,合同会社,愛知県,知多郡東浦町,大字藤江字上満９番地の２,,23,442,4702105,,,,,,,2021-09-08,1,,,,,リュウメイ,0
2527,8180303005101,新規,0,2021-09-08,2021-09-08,合同会社光ｇｒｏｕｐ,,合同会社,愛知県,岡崎市,戸崎元町５番地３,,23,202,4440842,,,,,,,2021-09-08,1,,,,,,0
2531,8200005013242,新規,0,2021-09-08,2021-09-08,特定非営利活動法人ゆいまーる技能実習生応援団,,その他の設立登記法人,岐阜県,美濃市,長瀬１０５番地,,21,207,5013782,,,,,,,2021-09-08,1,,,,,ユイマールギノウジッシュウセイオウエンダン,0
2536,8220003003111,新規,0,2021-09-08,2021-09-08,合同会社ＮＣｏ,,合同会社,石川県,金沢市,光が丘１丁目２１番地１,,17,201,9218142,,,,,,,2021-09-08,1,,,,,エヌシーオー,0
2539,8230001018969,新規,0,2021-09-08,2021-09-08,株式会社ｏｎｅ　ｂｙ　ｏｎｅ,,株式会社,富山県,富山市,稲荷町３丁目６番８号,,16,201,9300012,,,,,,,2021-09-08,1,,,,,ワンバイワン,0
2550,8250003002894,新規,0,2021-09-08,2021-09-08,合同会社森導,,合同会社,山口県,萩市,大字佐々並久年市１８９７番地,,35,204,7530101,,,,,,,2021-09-08,1,,,,,モリノシルベ,0
2557,8290001094492,新規,0,2021-09-08,2021-09-08,ミルクバンク株式会社,,株式会社,福岡県,小郡市,小郡２９１番地５－２階,,40,216,8380141,,,,,,,2021-09-08,1,,,,,ミルクバンク,0
2558,8290001094501,新規,0,2021-09-08,2021-09-08,株式会社新日本ホテルズ,,株式会社,福岡県,福岡市中央区,赤坂１丁目１４番２２号,,40,133,8100042,,,,,,,2021-09-08,1,,,,,シンニホンホテルズ,0
2559,8290001094518,新規,0,2021-09-08,2021-09-08,株式会社だるま商店,,株式会社,福岡県,福岡市博多区,麦野５丁目１番１４号,,40,132,8120882,,,,,,,2021-09-08,1,,,,,ダルマショウテン,0
2560,8290001094534,新規,0,2021-09-08,2021-09-08,株式会社Ｍａｔｅ,,株式会社,福岡県,福岡市博多区,板付２丁目１１番９号,,40,132,8120888,,,,,,,2021-09-08,1,,,,,メイト,0
2561,8290001094542,新規,0,2021-09-08,2021-09-08,ＢＲＡコミュニケーションズ株式会社,,株式会社,福岡県,春日市,桜ヶ丘７丁目２９－５０２,,40,218,8160872,,,,,,,2021-09-08,1,,,,,ビーアールエーコミュニケーションズ,0
2562,8290001094567,新規,0,2021-09-08,2021-09-08,株式会社宮川建設工業,,株式会社,福岡県,柳川市,本町３０番地１４,,40,207,8320045,,,,,,,2021-09-08,1,,,,,ミヤガワケンセツコウギョウ,0
2565,8290005018349,新規,0,2021-09-08,2021-09-08,ＮＰＯ法人まちづくりプランニングチクシィ,,その他の設立登記法人,福岡県,筑紫野市,大字永岡１９０番地１０,,40,217,8180066,,,,,,,2021-09-08,1,,,,,マチヅクリプランニングチクシィ,0
2572,8300001012618,新規,0,2021-09-08,2021-09-08,株式会社Ｒｏｓｅ,,株式会社,佐賀県,佐賀市,駅前中央２丁目８番２０－２０４号,,41,201,8400801,,,,,,,2021-09-08,1,,,,,ローズ,0
2588,8360001029342,新規,0,2021-09-08,2021-09-08,９２ガーデン株式会社,,株式会社,沖縄県,うるま市,字高江洲１２３番地１,,47,213,9042242,,,,,,,2021-09-08,1,,,,,クニガーデン,0
2608,8420003002381,新規,0,2021-09-08,2021-09-08,合同会社Ｓ＆Ｓ　ｇｌｏｂａｌ　ｔｒａｄｅ,,合同会社,青森県,十和田市,稲生町１５番２４号パルコビル,,02,206,0340011,,,,,,,2021-09-08,1,,,,,エスアンドエスグローバルトレード,0
2614,8430003013106,新規,0,2021-09-08,2021-09-08,合同会社日胆重機工業,,合同会社,北海道,苫小牧市,新中野町１丁目９番７号,,01,213,0530006,,,,,,,2021-09-08,1,,,,,ニッタンジュウキコウギョウ,0
2615,8430003013122,新規,0,2021-09-08,2021-09-08,合同会社佐々木ひとみ事務所,,合同会社,北海道,札幌市豊平区,中の島二条１０丁目６番２－１０６号,,01,105,0620922,,,,,,,2021-09-08,1,,,,,ササキヒトミジムショ,0
2619,8470003002030,新規,0,2021-09-08,2021-09-08,合同会社ｔｋ－ｗｏｒｋｓ,,合同会社,香川県,高松市,国分寺町国分１５０７－１,,37,201,7690102,,,,,,,2021-09-08,1,,,,,ティーケーワークス,0
2620,8480001011486,新規,0,2021-09-08,2021-09-08,株式会社Ｓ　ｃｏｒｉｎｇ,,株式会社,徳島県,徳島市,名東町２丁目６８６番地の３,,36,201,7700047,,,,,,,2021-09-08,1,,,,,エスコーリング,0
2636,9010001221016,新規,0,2021-09-08,2021-09-08,株式会社ＬＸ　Ｓｅｍｉｃｏｎ　Ｊａｐａｎ,,株式会社,東京都,千代田区,大手町１丁目７番２号東京サンケイビル２５階,,13,101,1000004,,,,,,,2021-09-08,1,,,,,エルエックスセミコンジャパン,0
2637,9010003035736,新規,0,2021-09-08,2021-09-08,合同会社３０１Ｗ,,合同会社,東京都,中央区,銀座１丁目１２－４Ｎ＆ＥＢＬＤ．７階,,13,102,1040061,,,,,,,2021-09-08,1,,,,,スリーオーワンウエスト,0
2638,9010003035760,新規,0,2021-09-08,2021-09-08,合同会社ＫＥＹ　ＩＩＩ,,合同会社,東京都,千代田区,平河町１丁目６番１５号ＵＳビル８Ｆ,,13,101,1020093,,,,,,,2021-09-08,1,,,,,ケイスリー,0
2639,9010003035785,新規,0,2021-09-08,2021-09-08,鴨川財産合同会社,,合同会社,東京都,千代田区,永田町２丁目９番８号パレロワイヤル永田町,,13,101,1000014,,,,,,,2021-09-08,1,,,,,カモガワザイサン,0
2640,9010005033911,新規,0,2021-09-08,2021-09-08,医療法人社団とちのき会,,その他の設立登記法人,東京都,千代田区,神田駿河台１丁目８番２号駿河台アライビル１階,,13,101,1010062,,,,,,,2021-09-08,1,,,,,トチノキカイ,0
2651,9010401162594,新規,0,2021-09-08,2021-09-08,アイベクス株式会社,,株式会社,東京都,港区,北青山２丁目７－２０猪瀬ビル２Ｆ,,13,103,1070061,,,,,,,2021-09-08,1,,,,,アイベクス,0
2652,9010401162611,新規,0,2021-09-08,2021-09-08,株式会社メタシフト,,株式会社,東京都,港区,南麻布２丁目２番２８号,,13,103,1060047,,,,,,,2021-09-08,1,,,,,メタシフト,0
2656,9010403026079,新規,0,2021-09-08,2021-09-08,ＤＳ　Ｓｈｉｂａｋｏｅｎ合同会社,,合同会社,東京都,港区,虎ノ門５丁目１番４号,,13,103,1050001,,,,,,,2021-09-08,1,,,,,ディーエスシバコウエン,0
2662,9010601059896,新規,0,2021-09-08,2021-09-08,株式会社Ｅｍｂｒａｃｅ,,株式会社,東京都,江東区,亀戸９丁目１７番７－８０１号,,13,108,1360071,,,,,,,2021-09-08,1,,,,,エンブレイス,0
2663,9010601059905,新規,0,2021-09-08,2021-09-08,ＧＳエナジー株式会社,,株式会社,東京都,墨田区,向島１丁目３２番７号ＫＳビル４Ｆ,,13,107,1310033,,,,,,,2021-09-08,1,,,,,ジーエスエナジー,0
2667,9010801032298,新規,0,2021-09-08,2021-09-08,株式会社ＳＩＬ　ＧＲＥＥＮ,,株式会社,東京都,大田区,山王２丁目１１番１８号,,13,111,1430023,,,,,,,2021-09-08,1,,,,,エスアイエルグリーン,0
2675,9010903006786,新規,0,2021-09-08,2021-09-08,合同会社ライトセカンド,,合同会社,東京都,世田谷区,北沢２丁目３３－６グリーンテラスビル２Ｆ,,13,112,1550031,,,,,,,2021-09-08,1,,,,,ライトセカンド,0
2678,9011001142680,新規,0,2021-09-08,2021-09-08,株式会社富ヶ谷エムジーエス,,株式会社,東京都,渋谷区,富ヶ谷１丁目１８番８号,,13,113,1510063,,,,,,,2021-09-08,1,,,,,トミガヤエムジーエス,0
2679,9011001142697,新規,0,2021-09-08,2021-09-08,ＮＡＰＩＡＳ株式会社,,株式会社,東京都,渋谷区,神宮前６丁目２９番４号原宿ｋｏｍｉｙａビル６階,,13,113,1500001,,,,,,,2021-09-08,1,,,,,ナピア,0
2681,9011003013319,新規,0,2021-09-08,2021-09-08,合同会社Ｓ　ＳＡＵＣＥ,,合同会社,東京都,渋谷区,神泉町２２番３号,,13,113,1500045,,,,,,,2021-09-08,1,,,,,エスソース,0
2686,9011303004158,新規,0,2021-09-08,2021-09-08,ｍａｇ合同会社,,合同会社,東京都,杉並区,梅里１丁目８番１３号,,13,115,1660011,,,,,,,2021-09-08,1,,,,,マグ,0
2687,9011305002770,新規,0,2021-09-08,2021-09-08,医療法人社団明北会,,その他の設立登記法人,東京都,杉並区,和泉２丁目７番１号甘酒屋ビル２階,,13,115,1680063,,,,,,,2021-09-08,1,,,,,メイキタカイ,0
2700,9011701024690,新規,0,2021-09-08,2021-09-08,株式会社ＯＮＥ　ＦＯＲ　ＡＬＬ不動産,,株式会社,東京都,江戸川区,西葛西３丁目２番９号ＡＳＰビル５階,,13,123,1340088,,,,,,,2021-09-08,1,,,,,ワンフォーオールフドウサン,0
2701,9011801039647,新規,0,2021-09-08,2021-09-08,株式会社ハイビジョン,,株式会社,東京都,足立区,千住２丁目５１番地,,13,121,1200034,,,,,,,2021-09-08,1,,,,,ハイビジョン,0
2704,9011805003104,新規,0,2021-09-08,2021-09-08,医療法人社団愛真会,,その他の設立登記法人,東京都,足立区,梅島３丁目３２番２４号第１矢野新ビル１階Ａ室,,13,121,1210816,,,,,,,2021-09-08,1,,,,,アイシンカイ,0
2705,9012301012706,新規,0,2021-09-08,2021-09-08,株式会社ＭＩＲＡＣ,,株式会社,東京都,町田市,原町田４丁目１５番１０号荒川ビル１階,,13,209,1940013,,,,,,,2021-09-08,1,,,,,ミラク,0
2710,9013101008720,新規,0,2021-09-08,2021-09-08,株式会社Ｒｙｕｓｅｉレッカー,,株式会社,東京都,西多摩郡瑞穂町,長岡３丁目５番１号,,13,303,1901232,,,,,,,2021-09-08,1,,,,,リュウセイレッカー,0
2718,9020001142946,新規,0,2021-09-08,2021-09-08,株式会社ＰＲＯＴＥＣＴ．ＯＮＥ,,株式会社,神奈川県,横浜市南区,清水ケ丘１９３番地１２ユナイト南太田ジュラ―ル・ピケ２０７,,14,105,2320007,,,,,,,2021-09-08,1,,,,,プロテクトワン,0
2723,9020003020456,新規,0,2021-09-08,2021-09-08,合同会社咲元,,合同会社,神奈川県,横浜市港北区,大倉山６丁目１６番２４号,,14,109,2220037,,,,,,,2021-09-08,1,,,,,サキモト,0
2727,9021001073900,新規,0,2021-09-08,2021-09-08,株式会社ｋａｎａｄｅ,,株式会社,神奈川県,藤沢市,鵠沼石上２丁目９－１１ｗａｌｅａ石上１０２,,14,205,2510025,,,,,,,2021-09-08,1,,,,,カナデ,0
2738,9030001144149,新規,0,2021-09-08,2021-09-08,株式会社ＥＮｇａＷＡ,,株式会社,埼玉県,秩父郡横瀬町,大字横瀬２００６番地３,,11,361,3680072,,,,,,,2021-09-08,1,,,,,エンガワ,0
2739,9030001144231,新規,0,2021-09-08,2021-09-08,株式会社Ｍｏｎｏｌｉｔｈ,,株式会社,埼玉県,所沢市,寿町２１番１２号,,11,208,3591122,,,,,,,2021-09-08,1,,,,,モノリス,0
2740,9030001144280,新規,0,2021-09-08,2021-09-08,株式会社キートス・マネジメント,,株式会社,埼玉県,さいたま市大宮区,桜木町１丁目２６６番地３シンワＫＩビル４Ｆ,,11,103,3300854,,,,,,,2021-09-08,1,,,,,キートスマネジメント,0
2749,9030003017922,新規,0,2021-09-08,2021-09-08,ハードユニーク合同会社,,合同会社,埼玉県,坂戸市,にっさい花みず木２丁目４番地１２号,,11,239,3500269,,,,,,,2021-09-08,1,,,,,ハードユニーク,0
2750,9030003017930,新規,0,2021-09-08,2021-09-08,合同会社香要,,合同会社,埼玉県,川越市,大字山田１６２１番地１,,11,201,3500822,,,,,,,2021-09-08,1,,,,,コウヨウ,0
2767,9050001049800,新規,0,2021-09-08,2021-09-08,株式会社あおい,,株式会社,茨城県,土浦市,大岩田２１７６番地１５,,08,203,3000835,,,,,,,2021-09-08,1,,,,,アオイ,0
2785,9080101022761,新規,0,2021-09-08,2021-09-08,株式会社ｂｕｉｌｄ３,,株式会社,静岡県,富士市,沼田新田１５１番地の１,,22,210,4170833,,,,,,,2021-09-08,1,,,,,ビルドスリー,0
2786,9080401025332,新規,0,2021-09-08,2021-09-08,株式会社オリー,,株式会社,静岡県,磐田市,中泉１０５番地７,,22,211,4380078,,,,,,,2021-09-08,1,,,,,オリー,0
2788,9090003001937,新規,0,2021-09-08,2021-09-08,合同会社ＩＭＰＣＴｏｒｓ,,合同会社,山梨県,甲府市,国母７丁目９番３８号,,19,201,4000043,,,,,,,2021-09-08,1,,,,,,0
2796,9110005016699,新規,0,2021-09-08,2021-09-08,五十公野村農業会,,その他の設立登記法人,新潟県,新発田市,五十公野１５８４番地,,15,206,9570021,,,,,,,2021-09-08,1,,,,,イジミノムラ,0
2802,9120001240244,新規,0,2021-09-08,2021-09-08,株式会社大心,,株式会社,大阪府,枚方市,片鉾本町３番１１－１０２号,,27,210,5731157,,,,,,,2021-09-08,1,,,,,ダイシン,0
2803,9120001240277,新規,0,2021-09-08,2021-09-08,慶沅株式会社,00124171,株式会社,大阪府,大阪市中央区,博労町４丁目７－１ノバカネイチ本町御堂５０４,,27,128,5410059,,,,,,,2021-09-08,1,,,,,ケイゲン,0
2811,9120103004332,新規,0,2021-09-08,2021-09-08,合同会社Ｈ．Ｔ,,合同会社,大阪府,堺市北区,北長尾町１丁５番２５号,,27,146,5918043,,,,,,,2021-09-08,1,,,,,エイチティー,0
2818,9120903003806,新規,0,2021-09-08,2021-09-08,合同会社ＥＲＫ,,合同会社,大阪府,豊中市,新千里東町１丁目１－２－２２０３,,27,203,5600082,,,,,,,2021-09-08,1,,,,,イーアールケー,0
2826,9130001070079,新規,0,2021-09-08,2021-09-08,株式会社プラチナデータバンク,,株式会社,京都府,京都市下京区,七条通新町東入西境町１４９番地サザン京都駅前ビル,,26,106,6008218,,,,,,,2021-09-08,1,,,,,プラチナデータバンク,0
2827,9130003007459,新規,0,2021-09-08,2021-09-08,合同会社カナコ,,合同会社,京都府,京都市南区,吉祥院清水町１８番地２,,26,107,6018329,,,,,,,2021-09-08,1,,,,,カナコ,0
2834,9140001122969,新規,0,2021-09-08,2021-09-08,株式会社ＺＩＲＡＪＡＰＡＮ,,株式会社,兵庫県,尼崎市,武庫之荘８丁目５番２８号,,28,202,6610035,,,,,,,2021-09-08,1,,,,,ジラジャパン,0
2835,9140001122977,新規,0,2021-09-08,2021-09-08,株式会社ＭＩＹＡＢＩ建設,,株式会社,兵庫県,尼崎市,東難波町３丁目１番８号,,28,202,6600892,,,,,,,2021-09-08,1,,,,,ミヤビケンセツ,0
2836,9140003016715,新規,0,2021-09-08,2021-09-08,合同会社Ｇｏｓｈｏｗ,,合同会社,兵庫県,西宮市,東山台３丁目７－１０,,28,204,6691133,,,,,,,2021-09-08,1,,,,,ゴウショウ,0
2855,9180003022932,新規,0,2021-09-08,2021-09-08,合同会社雅,,合同会社,愛知県,稲沢市,正明寺２丁目２５番１３号,,23,220,4928145,,,,,,,2021-09-08,1,,,,,ミヤビ,0
2857,9180301035355,新規,0,2021-09-08,2021-09-08,豊和株式会社,,株式会社,愛知県,岡崎市,昭和町字落合１６番地１,,23,202,4440938,,,,,,,2021-09-08,1,,,,,ホウワ,0
2869,9220001024422,新規,0,2021-09-08,2021-09-08,株式会社ミナミコーポレーション,,株式会社,石川県,小松市,串町南１２０番地,,17,203,9230965,,,,,,,2021-09-08,1,,,,,ミナミコーポレーション,0
2870,9220003003110,新規,0,2021-09-08,2021-09-08,合同会社ＡＤ　ＰＨＯＴＯ　ＳＨＩＮＡＮＯ,,合同会社,石川県,金沢市,東力町ニ２１３番地１,,17,201,9218016,,,,,,,2021-09-08,1,,,,,アドフォトシナノ,0
2871,9230001018968,新規,0,2021-09-08,2021-09-08,グリーンランド株式会社,,株式会社,富山県,富山市,星井町１丁目２番１７号,,16,201,9300065,,,,,,,2021-09-08,1,,,,,グリーンランド,0
2882,9250001019114,新規,0,2021-09-08,2021-09-08,株式会社ＫＧ下関,,株式会社,山口県,下関市,細江町２丁目１番１号第一ハイツ細江２階,,35,201,7500016,,,,,,,2021-09-08,1,,,,,ケージーシモノセキ,0
2891,9290001094491,新規,0,2021-09-08,2021-09-08,株式会社ブラックダイヤモンド,,株式会社,福岡県,飯塚市,庄司１９７４番地２,,40,205,8200051,,,,,,,2021-09-08,1,,,,,ブラックダイヤモンド,0
2892,9290001094500,新規,0,2021-09-08,2021-09-08,株式会社藤井商店,,株式会社,福岡県,八女郡広川町,大字川上１０３番地７,,40,544,8340113,,,,,,,2021-09-08,1,,,,,フジイショウテン,0
2893,9290001094509,新規,0,2021-09-08,2021-09-08,株式会社ネクストステージ,,株式会社,福岡県,福岡市東区,和白６丁目２３番２７－２０６号,,40,131,8110202,,,,,,,2021-09-08,1,,,,,ネクストステージ,0
2895,9290003011585,新規,0,2021-09-08,2021-09-08,合同会社ＨＴ－ｃｕｂｅ,,合同会社,福岡県,福岡市南区,大橋２丁目４番２０号,,40,134,8150033,,,,,,,2021-09-08,1,,,,,エイチティーキューブ,0
2902,9310003004157,新規,0,2021-09-08,2021-09-08,合同会社５ＴＨ,,合同会社,長崎県,長崎市,大黒町５番１３号佐藤ビル２階,,42,201,8500057,,,,,,,2021-09-08,1,,,,,フィフス,0
2933,9420001017562,新規,0,2021-09-08,2021-09-08,株式会社花田ラジオ商会,,株式会社,青森県,北津軽郡板柳町,大字板柳字土井１０１番地１２号,,02,381,0383662,,,,,,,2021-09-08,1,,,,,ハナダラジオショウカイ,0
2935,9420003002380,新規,0,2021-09-08,2021-09-08,合同会社幸凜,,合同会社,青森県,八戸市,大字田面木字松長根７番地２４,,02,203,0391104,,,,,,,2021-09-08,1,,,,,コウリン,0
2940,9430001084882,新規,0,2021-09-08,2021-09-08,スターキャリア株式会社,,株式会社,北海道,札幌市東区,東雁来八条４丁目１番１号,,01,103,0070828,,,,,,,2021-09-08,1,,,,,スターキャリア,0
2941,9430001084908,新規,0,2021-09-08,2021-09-08,株式会社想形,,株式会社,北海道,札幌市西区,宮の沢一条５丁目２２番３２－２０４号,,01,107,0630051,,,,,,,2021-09-08,1,,,,,ソウケイ,0
2942,9460101007055,新規,0,2021-09-08,2021-09-08,株式会社帯広みらい計画,,株式会社,北海道,帯広市,西九条南１丁目２番地１,,01,207,0800019,,,,,,,2021-09-08,1,,,,,オビヒロミライケイカク,0
2945,9480001011485,新規,0,2021-09-08,2021-09-08,マザーズラブ株式会社,,株式会社,徳島県,阿南市,吉井町地神北３０番地４,,36,204,7715172,,,,,,,2021-09-08,1,,,,,マザーズラブ,0
