sequenceNumber,corporateNumber,process,correct,updateDate,changeDate,name,nameImageId,kind,prefectureName,cityName,streetNumber,addressImageId,prefectureCode,cityCode,postCode,addressOutside,addressOutsideImageId,closeDate,closeCause,successorCorporateNumber,changeCause,assignmentDate,latest,enName,enPrefectureName,enCityName,enAddressOutside,furigana,hihyoji
10,1010001233695,新規,0,2023-03-17,2023-03-17,Ｒｉｓｅ　ｏｆ　ｔｈｅ　Ｍｏｔｈｅｒ株式会社,,株式会社,東京都,中央区,銀座６丁目６番１号銀座風月堂ビル５Ｆ,,13,102,1040061,,,,,,,2023-03-17,1,,,,,ライズオブザマザー,0
15,1010003039975,新規,0,2023-03-17,2023-03-17,合同会社Ｐｅａｋｓ,,合同会社,東京都,中央区,晴海２丁目２番４２号パークタワー晴海３６０８号,,13,102,1040053,,,,,,,2023-03-17,1,,,,,ピークス,0
21,1010401172931,新規,0,2023-03-17,2023-03-17,ＢｉｌｌｉｏｎＢｉｔ株式会社,,株式会社,東京都,港区,南青山４丁目１７番１３号２０５室,,13,103,1070062,,,,,,,2023-03-17,1,,,,,ビリオンビット,0
22,1010401173038,新規,0,2023-03-17,2023-03-17,Ｔｒａｎｓｏｍ　Ｐｏｓｔ　Ｉｎｔｅｒｎａｔｉｏｎａｌ　Ｊａｐａｎ株式会社,,株式会社,東京都,港区,元麻布３丁目１番６号,,13,103,1060046,,,,,,,2023-03-17,1,,,,,トランサムポストインターナショナルジャパン,0
23,1010401173145,新規,0,2023-03-17,2023-03-17,ＨＩＢパートナーズ株式会社,,株式会社,東京都,港区,麻布台１丁目１１番９号,,13,103,1060041,,,,,,,2023-03-17,1,,,,,エイチアイビーパートナーズ,0
25,1010403029709,新規,0,2023-03-17,2023-03-17,合同会社サミットワンモーター,,合同会社,東京都,港区,虎ノ門１丁目３番１号東京虎ノ門グローバルスクエア５階５０２,,13,103,1050001,,,,,,,2023-03-17,1,,,,,サミットワンモーター,0
26,1010405021911,新規,0,2023-03-17,2023-03-17,ＫＲエナジーホールディングス一般社団法人,,その他の設立登記法人,東京都,港区,虎ノ門１丁目１６番１６号虎ノ門一丁目ＭＧビル３階ブレイン綜合会計事務所内,,13,103,1050001,,,,,,,2023-03-17,1,,,,,ケーアールエナジーホールディングス,0
27,1010405021936,新規,0,2023-03-17,2023-03-17,一般社団法人Ｌａ　Ｓｏｒｅｌｌｉｎａ,,その他の設立登記法人,東京都,港区,虎ノ門３丁目２２番１０－２０１号,,13,103,1050001,,,,,,,2023-03-17,1,,,,,ラソレリーナ,0
28,1010501050153,新規,0,2023-03-17,2023-03-17,株式会社秋和,,株式会社,東京都,台東区,池之端１丁目１－２－６０６ウスダム・コーツ池之端ハイツ,,13,106,1100008,,,,,,,2023-03-17,1,,,,,シュウワ,0
33,1010601062767,新規,0,2023-03-17,2023-03-17,株式会社ＮＥＥＭＯ,,株式会社,東京都,墨田区,八広４丁目９番１２号,,13,107,1310041,,,,,,,2023-03-17,1,,,,,ニーモ,0
34,1010601062775,新規,0,2023-03-17,2023-03-17,株式会社エンマスタ,,株式会社,東京都,江東区,青海２丁目７番４号,,13,108,1350064,,,,,,,2023-03-17,1,,,,,エンマスタ,0
35,1010601062783,新規,0,2023-03-17,2023-03-17,Ｙａｒｄ　ａｒｔ株式会社,,株式会社,東京都,江東区,東砂５丁目５番６－４０９号,,13,108,1360074,,,,,,,2023-03-17,1,,,,,ヤードアート,0
38,1010703006630,新規,0,2023-03-17,2023-03-17,合同会社ｖｅｇｅ　ｂｕｇｓ　ｓｔｕｄｉｏ,,合同会社,東京都,品川区,東品川４丁目１１番３６－１３１９号,,13,109,1400002,,,,,,,2023-03-17,1,,,,,ベジバグズスタジオ,0
40,1010803004476,新規,0,2023-03-17,2023-03-17,合同会社ＧＬＶ,,合同会社,東京都,大田区,蒲田４丁目２５番１６号スリーピーラグーン４０３,,13,111,1440052,,,,,,,2023-03-17,1,,,,,ジーエルブイ,0
41,1010901052724,新規,0,2023-03-17,2023-03-17,ステア株式会社,,株式会社,東京都,世田谷区,下馬３丁目１３番３号,,13,112,1540002,,,,,,,2023-03-17,1,,,,,ステア,0
48,1011001153108,新規,0,2023-03-17,2023-03-17,株式会社エムアンドパートナーズ,,株式会社,東京都,渋谷区,初台２丁目２７－１,,13,113,1510061,,,,,,,2023-03-17,1,,,,,エムアンドパートナーズ,0
49,1011001153256,新規,0,2023-03-17,2023-03-17,株式会社Ｂｒｕｃｅ　Ｕｎｌｉｍｉｔｅｄ,,株式会社,東京都,渋谷区,道玄坂１丁目１０番８号渋谷道玄坂東急ビル２Ｆ－Ｃ,,13,113,1500043,,,,,,,2023-03-17,1,,,,,ブルースアンリミテッド,0
52,1011003016493,新規,0,2023-03-17,2023-03-17,合同会社Ｗｅｂｔｒａ,,合同会社,東京都,渋谷区,道玄坂１丁目１０番８号渋谷道玄坂東急ビル２Ｆ－Ｃ,,13,113,1500043,,,,,,,2023-03-17,1,,,,,ウェブトラ,0
60,1011403003942,新規,0,2023-03-17,2023-03-17,合同会社ヒュッテ,,合同会社,東京都,板橋区,南町５１番１号,,13,119,1730027,,,,,,,2023-03-17,1,,,,,ヒュッテ,0
69,1011601026670,新規,0,2023-03-17,2023-03-17,株式会社ザッツイット,,株式会社,東京都,練馬区,旭丘２丁目１８－７アイコート江古田３０２,,13,120,1760005,,,,,,,2023-03-17,1,,,,,ザッツイット,0
70,1011701026091,新規,0,2023-03-17,2023-03-17,Ｓｈｏｏｔｉｎｇ　Ｓｔａｒｓ　Ｉｎｔｅｒｎａｔｉｏｎａｌ　Ｇｒｏｕｐ株式会社,,株式会社,東京都,江戸川区,一之江７丁目１０番１２号,,13,123,1320024,,,,,,,2023-03-17,1,,,,,シューティングスターズインターナショナルグループ,0
71,1011801042105,新規,0,2023-03-17,2023-03-17,アイケイ実業株式会社,,株式会社,東京都,足立区,西新井３丁目１番７号,,13,121,1230841,,,,,,,2023-03-17,1,,,,,アイケイジツギョウ,0
76,1012401040291,新規,0,2023-03-17,2023-03-17,エナジーエックスジャパン株式会社,,株式会社,東京都,多摩市,豊ヶ丘１丁目３番地の１８メゾンド・ミネ２０１,,13,224,2060031,,,,,,,2023-03-17,1,,,,,エナジーエックスジャパン,0
87,1020001150709,新規,0,2023-03-17,2023-03-17,建築工房プログレス株式会社,,株式会社,神奈川県,横浜市都筑区,池辺町１６１４番地２プラシードＩ１０１号,00129788,14,118,2240053,,,,,,,2023-03-17,1,,,,,ケンチクコウボウプログレス,0
88,1020001150758,新規,0,2023-03-17,2023-03-17,株式会社ケーアイ,,株式会社,神奈川県,横浜市港南区,笹下３丁目１９番１－４号,,14,111,2340052,,,,,,,2023-03-17,1,,,,,ケーアイ,0
91,1020003023532,新規,0,2023-03-17,2023-03-17,横浜エーゼット合同会社,,合同会社,神奈川県,横浜市金沢区,町屋町２２番５号,,14,108,2360022,,,,,,,2023-03-17,1,,,,,ヨコハマエーゼット,0
92,1020005015890,新規,0,2023-03-17,2023-03-17,医療法人社団正潤会,,その他の設立登記法人,神奈川県,横浜市青葉区,あざみ野１丁目７番地１ゴールドワンあざみ野３階,,14,117,2250011,,,,,,,2023-03-17,1,,,,,セイジュンカイ,0
94,1021001078444,新規,0,2023-03-17,2023-03-17,株式会社Ｌａｋｉ,,株式会社,神奈川県,平塚市,四之宮２丁目１４番４１号,,14,203,2540014,,,,,,,2023-03-17,1,,,,,ラキ,0
95,1021001078452,新規,0,2023-03-17,2023-03-17,株式会社アガタ,,株式会社,神奈川県,平塚市,夕陽ケ丘４番３４号２０３,,14,203,2540806,,,,,,,2023-03-17,1,,,,,アガタ,0
98,1021005012754,新規,0,2023-03-17,2023-03-17,医療法人社団辻堂なかたに歯科クリニック,,その他の設立登記法人,神奈川県,藤沢市,辻堂太平台２丁目１３番２２号１階４号室,,14,205,2510044,,,,,,,2023-03-17,1,,,,,ツジドウナカタニシカクリニック,0
107,1030001152877,新規,0,2023-03-17,2023-03-17,株式会社Ｇｌｏｗ　Ｌａｂ,,株式会社,埼玉県,川口市,三ツ和１丁目２５番地の９,,11,203,3340011,,,,,,,2023-03-17,1,,,,,グロウラボ,0
108,1030001152885,新規,0,2023-03-17,2023-03-17,鴻裕泰商事株式会社,,株式会社,埼玉県,坂戸市,仲町１番２１号安斉ビル１０２号室,,11,239,3500227,,,,,,,2023-03-17,1,,,,,コウユウタイショウジ,0
109,1030001152893,新規,0,2023-03-17,2023-03-17,株式会社インヘリット,,株式会社,埼玉県,さいたま市大宮区,天沼町２丁目４４３番地１３２,,11,103,3300834,,,,,,,2023-03-17,1,,,,,インヘリット,0
110,1030001152935,新規,0,2023-03-17,2023-03-17,株式会社美建創業,,株式会社,埼玉県,川口市,戸塚南５丁目２３番２４号,,11,203,3330817,,,,,,,2023-03-17,1,,,,,ビケンソウギョウ,0
111,1030001152943,新規,0,2023-03-17,2023-03-17,株式会社ＮａＳ,,株式会社,埼玉県,北葛飾郡杉戸町,倉松３丁目１２－８,,11,464,3450034,,,,,,,2023-03-17,1,,,,,ナズ,0
117,1030003021386,新規,0,2023-03-17,2023-03-17,ｍｅｒｒｉｌｙ合同会社,,合同会社,埼玉県,さいたま市中央区,上落合１丁目９番４号,,11,105,3380001,,,,,,,2023-03-17,1,,,,,メリリー,0
118,1030003021394,新規,0,2023-03-17,2023-03-17,ＳＨＷＥ　ＢＯＮ　ＳＡＮ合同会社,,合同会社,埼玉県,さいたま市中央区,鈴谷９丁目４番１６号,,11,105,3380013,,,,,,,2023-03-17,1,,,,,シュエボンサン,0
125,1040001127465,新規,0,2023-03-17,2023-03-17,株式会社ユウセイ建設,,株式会社,千葉県,船橋市,習志野台５丁目２２番２７号,,12,204,2740063,,,,,,,2023-03-17,1,,,,,ユウセイケンセツ,0
126,1040001127556,新規,0,2023-03-17,2023-03-17,株式会社Ｂｒａｖｅ,,株式会社,千葉県,千葉市稲毛区,天台４丁目１１番５号Ａ号室,,12,103,2630016,,,,,,,2023-03-17,1,,,,,ブレイブ,0
127,1040001127564,新規,0,2023-03-17,2023-03-17,株式会社Ａｒｃ,,株式会社,千葉県,山武市,松尾町武野里１５５０番地３,,12,237,2891532,,,,,,,2023-03-17,1,,,,,アルク,0
128,1040003022210,新規,0,2023-03-17,2023-03-17,合同会社ケーシステム,,合同会社,千葉県,市川市,大洲３丁目１５番２－３１０号（ライフパル市川）,,12,203,2720032,,,,,,,2023-03-17,1,,,,,ケーシステム,0
130,1050001052555,新規,0,2023-03-17,2023-03-17,株式会社ＫＡＵＳＨＩＫ,,株式会社,茨城県,つくば市,松代５丁目１６番地４２,,08,220,3050035,,,,,,,2023-03-17,1,,,,,カウシク,0
132,1050003007326,新規,0,2023-03-17,2023-03-17,合同会社ひなまるん,,合同会社,茨城県,那珂郡東海村,舟石川駅東３丁目１番１号東海村産業・情報プラザ２階２０５,,08,341,3191118,,,,,,,2023-03-17,1,,,,,ヒナマルン,0
135,1060001035807,新規,0,2023-03-17,2023-03-17,株式会社オフィスイケダ,,株式会社,栃木県,宇都宮市,豊郷台３丁目３２番地５,,09,201,3200003,,,,,,,2023-03-17,1,,,,,オフィスイケダ,0
143,1090001018032,新規,0,2023-03-17,2023-03-17,株式会社一八,,株式会社,山梨県,南アルプス市,下今諏訪６９番地３,,19,208,4000212,,,,,,,2023-03-17,1,,,,,イチハチ,0
155,1120001253204,新規,0,2023-03-17,2023-03-17,宏福株式会社,,株式会社,大阪府,大阪市大正区,三軒家西３丁目４番１６号中山ビル２０７Ｂ,,27,108,5510001,,,,,,,2023-03-17,1,,,,,コウフク,0
156,1120001253229,新規,0,2023-03-17,2023-03-17,株式会社ＴＡＴ,,株式会社,大阪府,大阪市淀川区,塚本２丁目２４－３森山ビル２Ｆ,,27,123,5320026,,,,,,,2023-03-17,1,,,,,ティーエイティー,0
157,1120001253237,新規,0,2023-03-17,2023-03-17,株式会社サチアレ,,株式会社,大阪府,大阪市北区,梅田１丁目２番２号大阪駅前第２ビル１２－１２,,27,127,5300001,,,,,,,2023-03-17,1,,,,,サチアレ,0
158,1120001253261,新規,0,2023-03-17,2023-03-17,株式会社ツヤツヤ,,株式会社,大阪府,大阪市中央区,谷町７丁目１番３９－３０１号Ｃ,,27,128,5420012,,,,,,,2023-03-17,1,,,,,ツヤツヤ,0
159,1120001253286,新規,0,2023-03-17,2023-03-17,源之造物株式会社,,株式会社,大阪府,大阪市天王寺区,悲田院町９－１７阪和ビル４０５号室,,27,109,5430055,,,,,,,2023-03-17,1,,,,,ゲンノゾウブツ,0
160,1120001253303,新規,0,2023-03-17,2023-03-17,株式会社Ｕ’ｓ,,株式会社,大阪府,大阪市平野区,瓜破３丁目２番６９号,,27,126,5470024,,,,,,,2023-03-17,1,,,,,ユーズ,0
161,1120003023621,新規,0,2023-03-17,2023-03-17,合同会社プランニング・ヤマネ,,合同会社,大阪府,枚方市,高田１丁目４番５３号,,27,210,5730073,,,,,,,2023-03-17,1,,,,,プランニングヤマネ,0
162,1120003023638,新規,0,2023-03-17,2023-03-17,合同会社かきつばた,,合同会社,大阪府,大阪市淀川区,東三国２丁目１０－１０－７０１,,27,123,5320002,,,,,,,2023-03-17,1,,,,,カキツバタ,0
165,1120103005123,新規,0,2023-03-17,2023-03-17,Ｒｅ＆Ｗａｖｅ合同会社,,合同会社,大阪府,阪南市,舞３丁目４番１４号,,27,232,5990224,,,,,,,2023-03-17,1,,,,,リアンドウェイブ,0
166,1120901047275,新規,0,2023-03-17,2023-03-17,ＯＨＫ株式会社,,株式会社,大阪府,箕面市,外院２丁目１５番１号,,27,220,5620026,,,,,,,2023-03-17,1,,,,,オーエイチケイ,0
185,1140001129484,新規,0,2023-03-17,2023-03-17,株式会社よつ葉,,株式会社,兵庫県,神戸市長田区,若松町３丁目３番２号ジェイグラン新長田１２０９,,28,106,6530038,,,,,,,2023-03-17,1,,,,,ヨツバ,0
188,1140003018842,新規,0,2023-03-17,2023-03-17,合同会社森建設,,合同会社,兵庫県,伊丹市,池尻４丁目１番地５,,28,207,6640027,,,,,,,2023-03-17,1,,,,,モリケンセツ,0
190,1140005026513,新規,0,2023-03-17,2023-03-17,労働者協同組合こども編集部,,その他の設立登記法人,兵庫県,神戸市垂水区,塩屋町４丁目１０－１１,,28,108,6550872,,,,,,,2023-03-17,1,,,,,コドモヘンシュウブ,0
192,1150001026243,新規,0,2023-03-17,2023-03-17,株式会社エムツージェイ,,株式会社,奈良県,御所市,大字西北窪２・３番地,,29,208,6392335,,,,,,,2023-03-17,1,,,,,エムツージェイ,0
203,1180301037202,新規,0,2023-03-17,2023-03-17,高橋エステイト株式会社,,株式会社,愛知県,岡崎市,滝町字外浦３５１番地,,23,202,4443173,,,,,,,2023-03-17,1,,,,,タカハシエステイト,0
208,1200001041088,新規,0,2023-03-17,2023-03-17,株式会社警信,,株式会社,岐阜県,岐阜市,下鵜飼１７６５番地８,,21,201,5011172,,,,,,,2023-03-17,1,,,,,ケイシン,0
211,1210001019257,新規,0,2023-03-17,2023-03-17,株式会社ＩｇｎｉｔｉｏｎＣａｐｉｔａｌグループ,,株式会社,福井県,坂井市,春江町江留下屋敷７２番地１,,18,210,9190414,,,,,,,2023-03-17,1,,,,,イグニッションキャピタルグループ,0
212,1230001019750,新規,0,2023-03-17,2023-03-17,株式会社カミ,,株式会社,富山県,魚津市,駅前新町９番２号,,16,204,9370051,,,,,,,2023-03-17,1,,,,,カミ,0
222,1250001020013,新規,0,2023-03-17,2023-03-17,株式会社明日和,,株式会社,山口県,長門市,東深川８３６番地３,,35,211,7594101,,,,,,,2023-03-17,1,,,,,アスワ,0
225,1260003004244,新規,0,2023-03-17,2023-03-17,シーピーエムエス岡山合同会社,,合同会社,岡山県,岡山市南区,浦安西町３１‐７,,33,104,7028025,,,,,,,2023-03-17,1,,,,,シーピーエムエスオカヤマ,0
226,1270003001505,新規,0,2023-03-17,2023-03-17,合同会社みつやなぎ印刷,,合同会社,鳥取県,米子市,両三柳２３７８番地５,,31,202,6830853,,,,,,,2023-03-17,1,,,,,ミツヤナギインサツ,0
230,1290001100926,新規,0,2023-03-17,2023-03-17,株式会社Ａｒｅｔｅ,,株式会社,福岡県,福岡市博多区,千代４丁目１９番１７号,,40,132,8120044,,,,,,,2023-03-17,1,,,,,アレテ,0
231,1290003013688,新規,0,2023-03-17,2023-03-17,合同会社あけぼのコンサルティング,,合同会社,福岡県,福岡市城南区,松山１丁目１４‐１１,,40,136,8140131,,,,,,,2023-03-17,1,,,,,アケボノコンサルティング,0
239,1340001025440,新規,0,2023-03-17,2023-03-17,株式会社佐伯,,株式会社,鹿児島県,姶良市,西餅田４４番地１ユーミーマンション堀口２０５号,,46,225,8995431,,,,,,,2023-03-17,1,,,,,サエキ,0
242,1340005009571,新規,0,2023-03-17,2023-03-17,医療法人長里歯科医院,,その他の設立登記法人,鹿児島県,日置市,東市来町長里２２６１番,,46,216,8992202,,,,,,,2023-03-17,1,,,,,ナガサトシカイイン,0
246,1360001031718,新規,0,2023-03-17,2023-03-17,株式会社雅工務店,,株式会社,沖縄県,うるま市,石川２丁目９番１号,,47,213,9041106,,,,,,,2023-03-17,1,,,,,ミヤビコウムテン,0
253,1370001049726,新規,0,2023-03-17,2023-03-17,株式会社縁美,,株式会社,宮城県,仙台市青葉区,一番町２丁目５番１号,,04,101,9800811,,,,,,,2023-03-17,1,,,,,エンビ,0
254,1370001049734,新規,0,2023-03-17,2023-03-17,株式会社エネルギープロパティ,,株式会社,宮城県,仙台市青葉区,一番町１丁目４番３０号さのやビルディング６階,,04,101,9800811,,,,,,,2023-03-17,1,,,,,エネルギープロパティ,0
258,1390001017193,新規,0,2023-03-17,2023-03-17,株式会社ハードワーカー,,株式会社,山形県,山形市,松波１丁目４番７号スターリーハイツ１０８号,,06,201,9900023,,,,,,,2023-03-17,1,,,,,ハードワーカー,0
264,1420003002685,新規,0,2023-03-17,2023-03-17,合同会社ユアーズ,,合同会社,青森県,十和田市,東十三番町１０番６号,,02,206,0340023,,,,,,,2023-03-17,1,,,,,ユアーズ,0
269,1430001088643,新規,0,2023-03-17,2023-03-17,Ｃ＆Ｍロボティクス北海道株式会社,,株式会社,北海道,恵庭市,恵み野北３丁目１番１,,01,231,0611374,,,,,,,2023-03-17,1,,,,,シーアンドエムロボティクスホッカイドウ,0
270,1430001088668,新規,0,2023-03-17,2023-03-17,株式会社セルテクニカ,,株式会社,北海道,札幌市豊平区,西岡二条１１丁目１６番２７号,,01,105,0620032,,,,,,,2023-03-17,1,,,,,セルテクニカ,0
271,1430003014829,新規,0,2023-03-17,2023-03-17,ＣＡＰ合同会社,,合同会社,北海道,千歳市,緑町５丁目６番１２号,,01,224,0660074,,,,,,,2023-03-17,1,,,,,シーエーピー,0
272,1430003014837,新規,0,2023-03-17,2023-03-17,イーデン合同会社,,合同会社,北海道,札幌市中央区,南一条西１６丁目１番地３２３春野ビル３Ｆ,,01,101,0600061,,,,,,,2023-03-17,1,,,,,イーデン,0
275,1470001019520,新規,0,2023-03-17,2023-03-17,株式会社豊作,,株式会社,香川県,三豊市,仁尾町仁尾甲２２６番地２,,37,208,7691408,,,,,,,2023-03-17,1,,,,,ホウサク,0
281,1700150114858,新規,0,2023-03-17,2023-03-17,Ｓｈｅｎ　ｚｈｅｎ　ｓｈｉ　ｚｈａｎｇ　ｈｏｎｇ　ｋｅ　ｊｉ　ｙｏｕ　ｘｉａｎ　ｇｏｎｇ　ｓｉ,,外国会社等,,,,,,,,Ｇｕｓｈｕ　Ｃｏｍｍｕｎｉｔｙ，Ｘｉｘｉａｎｇ　Ｓｔｒｅｅｔ，Ｂａｏａｎ　Ｄｉｓｔｒｉｃｔ　６０２，Ｂｕｉｌｄｉｎｇ　１，Ｓｈａｂｉａｎｃｈｅｎｇｄｏｎｇ　Ｉｎｄｕｓｔｒｉａｌ　Ｚｏｎｅ　Ｓｈｅｎｚｈｅｎ　Ｇｕａｎｇｄｏｎｇ　５１８０００　ＣＮ,,,,,,2023-03-17,1,,,,,シェンジェンシージャンホンコージーヨウシエンゴンスー,0
305,2010405021935,新規,0,2023-03-17,2023-03-17,一般社団法人Ｒｉｂｏｔ,,その他の設立登記法人,東京都,港区,虎ノ門３丁目２２番１０－２０１号,,13,103,1050001,,,,,,,2023-03-17,1,,,,,リボー,0
308,2010601062774,新規,0,2023-03-17,2023-03-17,株式会社遠藤,,株式会社,東京都,江東区,木場１丁目５番６５号,,13,108,1350042,,,,,,,2023-03-17,1,,,,,エンドウ,0
317,2011001153148,新規,0,2023-03-17,2023-03-17,株式会社ｉｎｖｅｓｔｍｅｎｔ　ｅｎｔｅｒｔａｉｎｍｅｎｔ,,株式会社,東京都,渋谷区,神宮前６丁目１２番１８号,,13,113,1500001,,,,,,,2023-03-17,1,,,,,インベストメントエンターテインメント,0
318,2011001153255,新規,0,2023-03-17,2023-03-17,アメリカンプロパティ株式会社,,株式会社,東京都,渋谷区,渋谷２丁目６番１１号花門ビル３Ｆ,,13,113,1500002,,,,,,,2023-03-17,1,,,,,アメリカンプロパティ,0
320,2011003016476,新規,0,2023-03-17,2023-03-17,マリーズノート合同会社,,合同会社,東京都,目黒区,下目黒４丁目２０番６－１０７号,,13,110,1530064,,,,,,,2023-03-17,1,,,,,マリーズノート,0
321,2011003016484,新規,0,2023-03-17,2023-03-17,パラディスハウス合同会社,,合同会社,東京都,目黒区,自由が丘１丁目２３番３号,,13,110,1520035,,,,,,,2023-03-17,1,,,,,パラディスハウス,0
323,2011101102186,新規,0,2023-03-17,2023-03-17,株式会社天宝国際,,株式会社,東京都,新宿区,百人町１丁目１８番４号,,13,104,1690073,,,,,,,2023-03-17,1,,,,,テンホウコクサイ,0
324,2011101102203,新規,0,2023-03-17,2023-03-17,株式会社聖心会,,株式会社,東京都,新宿区,新宿１丁目９番４号,,13,104,1600022,,,,,,,2023-03-17,1,,,,,セイシンカイ,0
325,2011103012805,新規,0,2023-03-17,2023-03-17,Ｓｏｕｒｃｅ　ＭｃＣａｒｔｎｅｙ合同会社,,合同会社,東京都,新宿区,西新宿３丁目３番１３号西新宿水間ビル６階,,13,104,1600023,,,,,,,2023-03-17,1,,,,,ソースマッカートニー,0
328,2011201024504,新規,0,2023-03-17,2023-03-17,株式会社Ｒｅｌｕｍｏ,,株式会社,東京都,中野区,江古田２丁目２２－１２サンパーク１０３,,13,114,1650022,,,,,,,2023-03-17,1,,,,,レルーモ,0
333,2011603003857,新規,0,2023-03-17,2023-03-17,ｏｆｆｉｃｅ　Ｃａｍｏｍｉｌｌｅ合同会社,,合同会社,東京都,練馬区,石神井町６丁目３１番１８号,,13,120,1770041,,,,,,,2023-03-17,1,,,,,オフィスカモミール,0
334,2011605002502,新規,0,2023-03-17,2023-03-17,一般社団法人カザフスタン文化センター,,その他の設立登記法人,東京都,練馬区,土支田４丁目１８番３４号,,13,120,1790076,,,,,,,2023-03-17,1,,,,,カザフスタンブンカセンター,0
337,2011701026090,新規,0,2023-03-17,2023-03-17,株式会社オフィスＭ,,株式会社,東京都,江戸川区,大杉５丁目１５番７号,,13,123,1320022,,,,,,,2023-03-17,1,,,,,オフィスエム,0
341,2012403005886,新規,0,2023-03-17,2023-03-17,電磁気応用合同会社,,合同会社,東京都,府中市,是政５丁目７番地の２５ラ・ベーラ是政４０３,,13,206,1830014,,,,,,,2023-03-17,1,,,,,デンジキオウヨウ,0
352,2020001150708,新規,0,2023-03-17,2023-03-17,株式会社エムスタイル,,株式会社,神奈川県,横浜市鶴見区,馬場６丁目６番８号,,14,101,2300076,,,,,,,2023-03-17,1,,,,,エムスタイル,0
353,2020001150716,新規,0,2023-03-17,2023-03-17,株式会社エピック,,株式会社,神奈川県,横浜市西区,北幸１丁目１１番１号水信ビル７階,,14,103,2200004,,,,,,,2023-03-17,1,,,,,エピック,0
354,2020001150724,新規,0,2023-03-17,2023-03-17,株式会社大翔建設,,株式会社,神奈川県,横浜市南区,新川町２丁目４番地１ＣｉｔｙＬｕｘＹｏｋｏｈａｍａ１００３,,14,105,2320027,,,,,,,2023-03-17,1,,,,,タイショウケンセツ,0
357,2020003023498,新規,0,2023-03-17,2023-03-17,ＧａｔｅＭｉｓｓｉｏｎ合同会社,,合同会社,神奈川県,横浜市青葉区,青葉台２丁目３２－５,,14,117,2270062,,,,,,,2023-03-17,1,,,,,ゲートミッション,0
358,2020003023548,新規,0,2023-03-17,2023-03-17,合同会社ＹＪプランニング,,合同会社,神奈川県,横浜市保土ケ谷区,瀬戸ケ谷町２０２－３４,,14,106,2400024,,,,,,,2023-03-17,1,,,,,ワイジェイプランニング,0
360,2021001078468,新規,0,2023-03-17,2023-03-17,株式会社横須賀スタイル,,株式会社,神奈川県,横須賀市,汐入町２丁目４３番地１－３Ｆ,,14,201,2380042,,,,,,,2023-03-17,1,,,,,ヨコスカスタイル,0
374,2030001152851,新規,0,2023-03-17,2023-03-17,株式会社Ａ’ｓネクスト,,株式会社,埼玉県,さいたま市見沼区,大字蓮沼１５１２番地,,11,104,3370015,,,,,,,2023-03-17,1,,,,,エーズネクスト,0
375,2030001152892,新規,0,2023-03-17,2023-03-17,株式会社慶真,,株式会社,埼玉県,加須市,南篠崎１０２０番地１,,11,210,3470017,,,,,,,2023-03-17,1,,,,,ケイシン,0
377,2030005021169,新規,0,2023-03-17,2023-03-17,カシオペア協同組合,,その他の設立登記法人,埼玉県,児玉郡美里町,大字沼上４３６番地２,,11,381,3670105,,,,,,,2023-03-17,1,,,,,カシオペア,0
382,2040001127539,新規,0,2023-03-17,2023-03-17,株式会社ヘルスケアマネージメントオフィスＢｅｅ,,株式会社,千葉県,香取市,佐原ロ２０２３番地３,,12,236,2870001,,,,,,,2023-03-17,1,,,,,ヘルスケアマネージメントオフィスビー,0
383,2040001127555,新規,0,2023-03-17,2023-03-17,株式会社鴨川総合研究所,,株式会社,千葉県,鴨川市,天津３２２８番地,,12,223,2995503,,,,,,,2023-03-17,1,,,,,カモガワソウゴウケンキュウジョ,0
384,2040001127571,新規,0,2023-03-17,2023-03-17,ＪＡＮＮＡＴ　ＴＲＡＤＩＮＧ株式会社,,株式会社,千葉県,市川市,香取１丁目１０番２４－１０３号,,12,203,2720141,,,,,,,2023-03-17,1,,,,,ジャンナットトレーディング,0
388,2040005021936,新規,0,2023-03-17,2023-03-17,社会福祉法人ラフト,,その他の設立登記法人,千葉県,船橋市,習志野台１丁目１１番４号三和医療ビル２階,,12,204,2740063,,,,,,,2023-03-17,1,,,,,ラフト,0
396,2070001040235,新規,0,2023-03-17,2023-03-17,株式会社群馬ロケーションズ,,株式会社,群馬県,高崎市,沖町４８６番地１８５,,10,202,3700086,,,,,,,2023-03-17,1,,,,,グンマロケーションズ,0
398,2070005010093,新規,0,2023-03-17,2023-03-17,一般社団法人みどり市観光協会,,その他の設立登記法人,群馬県,みどり市,大間々町大間々１０３４番地５,,10,212,3760101,,,,,,,2023-03-17,1,,,,,ミドリシカンコウキョウカイ,0
399,2080001025524,新規,0,2023-03-17,2023-03-17,株式会社静岡マーケティング,,株式会社,静岡県,静岡市清水区,銀座４－５木口ビル２階,,22,103,4240817,,,,,,,2023-03-17,1,,,,,シズオカマーケティング,0
401,2080101023857,新規,0,2023-03-17,2023-03-17,株式会社インテリア翔,,株式会社,静岡県,富士市,石坂１３５番地の２３,,22,210,4170862,,,,,,,2023-03-17,1,,,,,インテリアショウ,0
412,2120001252832,新規,0,2023-03-17,2023-03-17,ＡＪＯ株式会社,,株式会社,大阪府,大阪市中央区,淡路町３丁目５－１３創建御堂筋ビル２階,,27,128,5410047,,,,,,,2023-03-17,1,,,,,エージェイオー,0
413,2120001253244,新規,0,2023-03-17,2023-03-17,株式会社ヤハミシステム,,株式会社,大阪府,大阪市北区,梅田２丁目５番１３桜橋第一ビル３０４号,,27,127,5300001,,,,,,,2023-03-17,1,,,,,ヤハミシステム,0
414,2120001253252,新規,0,2023-03-17,2023-03-17,ＫＯＢＥホワイトニング株式会社,,株式会社,大阪府,大阪市北区,中崎西２丁目２番１号,,27,127,5300015,,,,,,,2023-03-17,1,,,,,コウベホワイトニング,0
415,2120001253269,新規,0,2023-03-17,2023-03-17,株式会社ＨＩＢＲＡＶＥ,,株式会社,大阪府,大阪市平野区,流町１丁目６番４号ゆうハイツ流町２０６号,,27,126,5470032,,,,,,,2023-03-17,1,,,,,ハイブレイブ,0
416,2120001253285,新規,0,2023-03-17,2023-03-17,思安遠方株式会社,,株式会社,大阪府,大阪市東成区,神路１丁目７－５神路１丁目ビル３１２号室,,27,115,5370003,,,,,,,2023-03-17,1,,,,,シアンエンポウ,0
417,2120001253293,新規,0,2023-03-17,2023-03-17,株式会社Ｒｅｒｅｌ,,株式会社,大阪府,大阪市浪速区,難波中２丁目４番１２号ティタカラナビル２階,,27,111,5560011,,,,,,,2023-03-17,1,,,,,リレル,0
418,2120001253302,新規,0,2023-03-17,2023-03-17,株式会社ＸＩＮ,,株式会社,大阪府,大阪市中央区,南船場３丁目１番１６号日宝ラッキービル５階６号室,,27,128,5420081,,,,,,,2023-03-17,1,,,,,シン,0
419,2120001253319,新規,0,2023-03-17,2023-03-17,株式会社ＫＯＵ．ＨＡＫＵ,,株式会社,大阪府,大阪市此花区,梅香１丁目２１番８号,,27,104,5540013,,,,,,,2023-03-17,1,,,,,コウハク,0
420,2120001253335,新規,0,2023-03-17,2023-03-17,株式会社ＯＴＭ,,株式会社,大阪府,大阪市鶴見区,茨田大宮１丁目４番２８号,,27,124,5380031,,,,,,,2023-03-17,1,,,,,オーティーエム,0
421,2120001253351,新規,0,2023-03-17,2023-03-17,株式会社ＨＧＬＡ,,株式会社,大阪府,大阪市城東区,放出西１丁目２番５９号ファミールハイツ城東Ａ棟１１７号,,27,118,5360011,,,,,,,2023-03-17,1,,,,,エイチジーエルエー,0
422,2120001253368,新規,0,2023-03-17,2023-03-17,株式会社ユニムーン,,株式会社,大阪府,大阪市西成区,南津守６丁目１番１０５－１５号,,27,122,5570063,,,,,,,2023-03-17,1,,,,,ユニムーン,0
424,2120003023637,新規,0,2023-03-17,2023-03-17,ＳＡＲＡ合同会社,,合同会社,大阪府,大阪市中央区,島之内２丁目１３番３１号１階,,27,128,5420082,,,,,,,2023-03-17,1,,,,,サラ,0
428,2120101067156,新規,0,2023-03-17,2023-03-17,株式会社協栄建設,,株式会社,大阪府,高石市,羽衣５丁目１３番１４号中山ビル１Ｆ１０２号室,,27,225,5920002,,,,,,,2023-03-17,1,,,,,キョウエイケンセツ,0
430,2120103005122,新規,0,2023-03-17,2023-03-17,ＪＩＵ合同会社,,合同会社,大阪府,貝塚市,半田２丁目１番２１号,,27,208,5970033,,,,,,,2023-03-17,1,,,,,ジユウ,0
431,2120103005130,新規,0,2023-03-17,2023-03-17,ＳＡＣ合同会社,,合同会社,大阪府,堺市西区,菱木４丁２７６５番地１２,,27,144,5938315,,,,,,,2023-03-17,1,,,,,サック,0
434,2122001036802,新規,0,2023-03-17,2023-03-17,愛有サービス株式会社,,株式会社,大阪府,東大阪市,下小阪２丁目１０番１１号,,27,227,5770803,,,,,,,2023-03-17,1,,,,,アイウサービス,0
449,2140001129467,新規,0,2023-03-17,2023-03-17,ストランズ・インターナショナル株式会社,,株式会社,兵庫県,西宮市,羽衣町７番３０号夙川グリーンタウン３階,,28,204,6620051,,,,,,,2023-03-17,1,,,,,ストランズインターナショナル,0
450,2140001129483,新規,0,2023-03-17,2023-03-17,せつびや株式会社,,株式会社,兵庫県,神戸市長田区,五番町２丁目６番６号,,28,106,6530003,,,,,,,2023-03-17,1,,,,,セツビヤ,0
456,2150001026242,新規,0,2023-03-17,2023-03-17,株式会社アンクス,,株式会社,奈良県,奈良市,五条３丁目１９番３０号,,29,201,6308033,,,,,,,2023-03-17,1,,,,,アンクス,0
457,2170003001844,新規,0,2023-03-17,2023-03-17,Ｔｉｔａｎｉｕｍ合同会社,,合同会社,和歌山県,和歌山市,和歌浦南３丁目９－１ＦＳビル１Ｆ,,30,201,6410022,,,,,,,2023-03-17,1,,,,,タイタニウム,0
464,2180001155336,新規,0,2023-03-17,2023-03-17,株式会社ＨＡＲＵＹＵＩ,,株式会社,愛知県,丹羽郡扶桑町,大字柏森字西前２３番地,,23,362,4800103,,,,,,,2023-03-17,1,,,,,ハルユイ,0
465,2180001155410,新規,0,2023-03-17,2023-03-17,株式会社ディアホース,,株式会社,愛知県,知多郡美浜町,河和台３丁目１２７番地,,23,446,4702405,,,,,,,2023-03-17,1,,,,,ディアホース,0
472,2190001030257,新規,0,2023-03-17,2023-03-17,株式会社ジェイスタイル,,株式会社,三重県,松阪市,南虹が丘町２１番地８,,24,204,5150046,,,,,,,2023-03-17,1,,,,,ジェイスタイル,0
473,2190003004267,新規,0,2023-03-17,2023-03-17,共鳴ドライウォール合同会社,,合同会社,三重県,松阪市,久保町１８４３番地１０９メゾンドフルールＩ２０３号室,00129786,24,204,5150044,,,,,,,2023-03-17,1,,,,,キョウメイドライウォール,0
477,2200001041087,新規,0,2023-03-17,2023-03-17,株式会社ＫＳリスクマネジメント,,株式会社,岐阜県,岐阜市,西中島３丁目１１番１０号,,21,201,5020916,,,,,,,2023-03-17,1,,,,,ケーエスリスクマネジメント,0
479,2220005008733,新規,0,2023-03-17,2023-03-17,特定非営利活動法人ほがらか,,その他の設立登記法人,石川県,能美郡川北町,字橘ト１４０番地,,17,324,9231276,,,,,,,2023-03-17,1,,,,,ホガラカ,0
484,2240001061222,新規,0,2023-03-17,2023-03-17,株式会社Ｙ’ｓテック,,株式会社,広島県,広島市佐伯区,屋代３丁目１７番１６－１０２号,,34,108,7315146,,,,,,,2023-03-17,1,,,,,ワイズテック,0
494,2260003004243,新規,0,2023-03-17,2023-03-17,ＴＫ合同会社,,合同会社,岡山県,岡山市北区,新屋敷町２丁目１０番１０号（７０２号）,,33,101,7000986,,,,,,,2023-03-17,1,,,,,ティーケイ,0
495,2260005011196,新規,0,2023-03-17,2023-03-17,ＮＰＯ法人子どもの居場所かがみの,,その他の設立登記法人,岡山県,苫田郡鏡野町,小座９５番地の５,,33,606,7080363,,,,,,,2023-03-17,1,,,,,コドモノイバショカガミノ,0
497,2280001008896,新規,0,2023-03-17,2023-03-17,株式会社ろんぢん,,株式会社,島根県,安来市,荒島町１８５３番地１,,32,206,6920007,,,,,,,2023-03-17,1,,,,,ロンヂン,0
500,2290001100909,新規,0,2023-03-17,2023-03-17,株式会社あすなろう,,株式会社,福岡県,糟屋郡須惠町,大字須惠３７７番地２４,,40,344,8112113,,,,,,,2023-03-17,1,,,,,アスナロウ,0
501,2290001100917,新規,0,2023-03-17,2023-03-17,株式会社ＨＡＣＨＩＮＯＳＵ,,株式会社,福岡県,福岡市早良区,飯倉８丁目３０番１０号,,40,137,8140161,,,,,,,2023-03-17,1,,,,,ハチノス,0
502,2290001100925,新規,0,2023-03-17,2023-03-17,株式会社ＧｏＧ,,株式会社,福岡県,福岡市早良区,小田部６丁目１２番２０号,,40,137,8140032,,,,,,,2023-03-17,1,,,,,ジーオージー,0
507,2290003013679,新規,0,2023-03-17,2023-03-17,合同会社ＵＴＡＧＥ,,合同会社,福岡県,朝倉市,甘木２２１５－１２８,,40,228,8380068,,,,,,,2023-03-17,1,,,,,ウタゲ,0
510,2310001018314,新規,0,2023-03-17,2023-03-17,株式会社ライフジオン,,株式会社,長崎県,諫早市,城見町６番６号,,42,204,8540005,,,,,,,2023-03-17,1,,,,,,0
514,2330003009763,新規,0,2023-03-17,2023-03-17,合同会社幸優,,合同会社,熊本県,熊本市西区,高橋町２丁目６番７号西川アパートＢ,,43,103,8600062,,,,,,,2023-03-17,1,,,,,コウユウ,0
515,2330005010637,新規,0,2023-03-17,2023-03-17,ＮＰＯ法人山都町大造り物保存会,,その他の設立登記法人,熊本県,上益城郡山都町,下市４１番地７,,43,447,8613513,,,,,,,2023-03-17,1,,,,,ヤマトチョウオオツクリモノホゾンカイ,0
521,2360001031709,新規,0,2023-03-17,2023-03-17,株式会社ワンストップ,,株式会社,沖縄県,うるま市,字宮里７１６番地１３、２Ｆ,,47,213,9042243,,,,,,,2023-03-17,1,,,,,ワンストップ,0
522,2360003012806,新規,0,2023-03-17,2023-03-17,合同会社結丸水産,,合同会社,沖縄県,那覇市,字宇栄原４９６番地,,47,201,9010153,,,,,,,2023-03-17,1,,,,,ユイマルスイサン,0
523,2370001049717,新規,0,2023-03-17,2023-03-17,株式会社日部,,株式会社,宮城県,仙台市青葉区,本町１丁目５番２８号カーニープレイス仙台駅前通６０３号室,,04,101,9800014,,,,,,,2023-03-17,1,,,,,ニチブ,0
525,2380001033562,新規,0,2023-03-17,2023-03-17,株式会社シノノメ,,株式会社,福島県,白河市,本町６番地ワタナベビル２階,,07,205,9610905,,,,,,,2023-03-17,1,,,,,シノノメ,0
526,2390001017192,新規,0,2023-03-17,2023-03-17,株式会社フォレストコンサル,,株式会社,山形県,最上郡真室川町,大字及位２８０番地１,,06,364,9995602,,,,,,,2023-03-17,1,,,,,フォレストコンサル,0
533,2420003002676,新規,0,2023-03-17,2023-03-17,合同会社テルロコ,,合同会社,青森県,青森市,久須志４丁目２８－６,,02,201,0380013,,,,,,,2023-03-17,1,,,,,テルロコ,0
534,2420003002684,新規,0,2023-03-17,2023-03-17,合同会社根室ウインドパワー,,合同会社,青森県,青森市,大字駒込字桐ノ沢１９番地４,,02,201,0300955,,,,,,,2023-03-17,1,,,,,ネムロウインドパワー,0
541,2430001088650,新規,0,2023-03-17,2023-03-17,Ｄｅｓｉｇｎ　Ｌｉｆｅ株式会社,,株式会社,北海道,札幌市中央区,南十条西１丁目１番１２号,,01,101,0640810,,,,,,,2023-03-17,1,,,,,デザインライフ,0
542,2430001088667,新規,0,2023-03-17,2023-03-17,株式会社スターフィールド,,株式会社,北海道,札幌市南区,澄川一条２丁目４番５号サニーハイツ１０１号,,01,106,0050001,,,,,,,2023-03-17,1,,,,,スターフィールド,0
543,2430003014836,新規,0,2023-03-17,2023-03-17,合同会社ＫＷＴ,,合同会社,北海道,札幌市南区,石山二条９丁目３番１１号,,01,106,0050842,,,,,,,2023-03-17,1,,,,,ケーダブリュティ,0
544,2430005014660,新規,0,2023-03-17,2023-03-17,医療法人社団千陽,,その他の設立登記法人,北海道,札幌市北区,新琴似二条１丁目１番５２号,,01,102,0010902,,,,,,,2023-03-17,1,,,,,センヨウ,0
547,2450003002310,新規,0,2023-03-17,2023-03-17,合同会社ピュア,,合同会社,北海道,富良野市,幸町１０番２０号,,01,229,0760024,,,,,,,2023-03-17,1,,,,,ピュア,0
550,2470003002366,新規,0,2023-03-17,2023-03-17,合同会社ティーオーケー音楽事務所,,合同会社,香川県,綾歌郡綾川町,畑田２７２７－３,,37,387,7612101,,,,,,,2023-03-17,1,,,,,ティーオーケーオンガクジムショ,0
552,2500001024821,新規,0,2023-03-17,2023-03-17,株式会社ｃｒａｎｅ,,株式会社,愛媛県,松山市,土居田町８２９番地３,,38,201,7900056,,,,,,,2023-03-17,1,,,,,,0
555,2500005008589,新規,0,2023-03-17,2023-03-17,一般社団法人ＬＯＤＥＳＴＡＲ　ＡＴＨＬＥＴＩＣＳ　ＣＬＵＢ,,その他の設立登記法人,愛媛県,松山市,衣山５丁目１番地５０,,38,201,7918025,,,,,,,2023-03-17,1,,,,,ロドスターアスレティクスクラブ,0
557,2700150114428,新規,0,2023-03-17,2023-02-21,うんなん終活支援センター,,その他,島根県,雲南市,三刀屋町三刀屋１０６５番地１,,32,209,6902404,,,,,,,2023-02-21,1,,,,,ウンナンシユウカツシエンセンター,0
558,2700150114857,新規,0,2023-03-17,2023-03-17,Ｄｉｓｔｒｉｂｕｔｅｄ　Ｃｒｅａｔｉｏｎ，Ｉｎｃ,,外国会社等,,,,,,,,１１４　Ｆｉｆｔｈ　Ａｖｅｎｕｅ　１１ｔｈ　Ｆｌｏｏｒ，ＮＹ，ＮＹ　１００１１，ＵＳＡ,,,,,,2023-03-17,1,,,,,デイストリビユーテツドクリエイシヨンインク,0
571,3010003040089,新規,0,2023-03-17,2023-03-17,ＡＩＭＩエンタープライズ合同会社,,合同会社,東京都,中央区,八丁堀２丁目４番１－３０４号,,13,102,1040032,,,,,,,2023-03-17,1,,,,,アイミエンタープライズ,0
595,3010401173077,新規,0,2023-03-17,2023-03-17,Ｃｏｍｐａｓｓ　Ｏｆｆｉｃｅｓ　ＪＷＢ株式会社,,株式会社,東京都,港区,虎ノ門５丁目１３番１号虎ノ門４０ＭＴビル,,13,103,1050001,,,,,,,2023-03-17,1,,,,,コンパスオフィシズジェイダブリュビー,0
597,3010403029707,新規,0,2023-03-17,2023-03-17,ＫＢＳ合同会社,,合同会社,東京都,港区,新橋５丁目８－１３,,13,103,1050004,,,,,,,2023-03-17,1,,,,,ケービーエス,0
598,3010601062773,新規,0,2023-03-17,2023-03-17,株式会社Ｆｒｏｍ　Ｓｃｒａｔｃｈ　Ｃａｒｐｅｎｔｒｙ,,株式会社,東京都,墨田区,八広２丁目５４番５－９０２号レクシオ亀戸,,13,107,1310041,,,,,,,2023-03-17,1,,,,,フロムスクラッチカーペントリー,0
600,3010603010061,新規,0,2023-03-17,2023-03-17,合同会社Ａｌｅａ,,合同会社,東京都,江東区,南砂３丁目１２番５号４０１,,13,108,1360076,,,,,,,2023-03-17,1,,,,,アーレア,0
604,3010801033780,新規,0,2023-03-17,2023-03-17,ウィズユー不動産株式会社,,株式会社,東京都,大田区,南馬込３丁目１番７号サンシャイン南馬込２０１,,13,111,1430025,,,,,,,2023-03-17,1,,,,,ウィズユーフドウサン,0
606,3010805003012,新規,0,2023-03-17,2023-03-17,医療法人社団たまがわ,,その他の設立登記法人,東京都,大田区,南六郷２丁目２１番９号クレッセントハイム１階,,13,111,1440045,,,,,,,2023-03-17,1,,,,,,0
608,3010901052722,新規,0,2023-03-17,2023-03-17,株式会社ＥｅＳｔａｒ．ｔｏ,,株式会社,東京都,世田谷区,用賀３丁目４番９号ラヴィエール用賀２０１,,13,112,1580097,,,,,,,2023-03-17,1,,,,,イースタートー,0
614,3011001153114,新規,0,2023-03-17,2023-03-17,リープフロッグ株式会社,,株式会社,東京都,渋谷区,道玄坂１丁目１０－８渋谷道玄坂東急ビル２Ｆ－Ｃ,,13,113,1500043,,,,,,,2023-03-17,1,,,,,リープフロッグ,0
615,3011001153188,新規,0,2023-03-17,2023-03-17,株式会社Ｓｔｕｄｉｏ　ＨＫ,,株式会社,東京都,渋谷区,道玄坂１丁目１０番８号渋谷道玄坂東急ビル２Ｆ－Ｃ,,13,113,1500043,,,,,,,2023-03-17,1,,,,,スタジオエイチケー,0
618,3011003016467,新規,0,2023-03-17,2023-03-17,合同会社ウェライフ,,合同会社,東京都,渋谷区,恵比寿南１丁目１６番７号エビスツイン仁平５０１,,13,113,1500022,,,,,,,2023-03-17,1,,,,,ウェライフ,0
619,3011003016475,新規,0,2023-03-17,2023-03-17,合同会社ｌｉｖｅ　ｆｒｅｅｌｙ,,合同会社,東京都,渋谷区,神宮前６丁目２３番４号桑野ビル２階,,13,113,1500001,,,,,,,2023-03-17,1,,,,,リブフリーリー,0
623,3011103012820,新規,0,2023-03-17,2023-03-17,テンセン合同会社,,合同会社,東京都,新宿区,西新宿３丁目３番１３号西新宿水間ビル２Ｆ,,13,104,1600023,,,,,,,2023-03-17,1,,,,,テンセン,0
624,3011201024503,新規,0,2023-03-17,2023-03-17,株式会社聖矢,,株式会社,東京都,中野区,弥生町４丁目７番１６号,,13,114,1640013,,,,,,,2023-03-17,1,,,,,セイヤ,0
628,3011601026660,新規,0,2023-03-17,2023-03-17,株式会社エンシア,,株式会社,東京都,練馬区,田柄４丁目４２番３０－２０３号,,13,120,1790073,,,,,,,2023-03-17,1,,,,,エンシア,0
629,3011601026669,新規,0,2023-03-17,2023-03-17,上京株式会社,,株式会社,東京都,練馬区,関町北５丁目６番２０号,,13,120,1770051,,,,,,,2023-03-17,1,,,,,ジョウキョウ,0
630,3011801042103,新規,0,2023-03-17,2023-03-17,株式会社小林舞台研究所,,株式会社,東京都,葛飾区,新小岩１丁目２８番１１号白嶺館,,13,122,1240024,,,,,,,2023-03-17,1,,,,,,0
652,3020001150707,新規,0,2023-03-17,2023-03-17,株式会社ＲＯＮＩＭＯ,,株式会社,神奈川県,横浜市西区,浅間台９６－１,,14,103,2200071,,,,,,,2023-03-17,1,,,,,ロニモ,0
653,3020001150715,新規,0,2023-03-17,2023-03-17,株式会社日出商,,株式会社,神奈川県,横浜市神奈川区,松本町２丁目１８番１号クリンハイツＡ４０２,,14,102,2210841,,,,,,,2023-03-17,1,,,,,ヒデショウ,0
656,3020003023530,新規,0,2023-03-17,2023-03-17,合同会社Ｂｌｏｓｓｏｍ,,合同会社,神奈川県,横浜市青葉区,美しが丘１丁目１３番地１０吉村ビル１０７号,,14,117,2250002,,,,,,,2023-03-17,1,,,,,ブロッサム,0
657,3020003023547,新規,0,2023-03-17,2023-03-17,ＥＳＭＩ合同会社,,合同会社,神奈川県,横浜市瀬谷区,瀬谷４丁目１１－２３あすかパレス瀬谷Ｂ２０２,,14,114,2460031,,,,,,,2023-03-17,1,,,,,,0
659,3020005015889,新規,0,2023-03-17,2023-03-17,一般社団法人まちまど,,その他の設立登記法人,神奈川県,横浜市磯子区,洋光台５丁目４番１０－１０４号,,14,107,2350045,,,,,,,2023-03-17,1,,,,,マチマド,0
664,3021001078442,新規,0,2023-03-17,2023-03-17,日本トレーサーガス式漏水調査修理専門センター株式会社,,株式会社,神奈川県,横須賀市,不入斗町２丁目１番２号,,14,201,2380051,,,,,,,2023-03-17,1,,,,,ニホントレーサーガスシキロウスイチョウサシュウリセンモンセンター,0
665,3021001078450,新規,0,2023-03-17,2023-03-17,ＯＶＡＣＡＮＳ株式会社,,株式会社,神奈川県,小田原市,国府津２丁目５番２号ＢＬＥＮＤＷＯＲＫ２階,,14,206,2560812,,,,,,,2023-03-17,1,,,,,オバカンス,0
666,3021001078467,新規,0,2023-03-17,2023-03-17,株式会社辻鉄筋鋼業,00129797,株式会社,神奈川県,小田原市,府川７０７番地,,14,206,2500052,,,,,,,2023-03-17,1,,,,,ツジテッキンコウギョウ,0
672,3030001152859,新規,0,2023-03-17,2023-03-17,株式会社原商事,,株式会社,埼玉県,久喜市,下清久４０４番地１,,11,232,3460033,,,,,,,2023-03-17,1,,,,,ハラショウジ,0
673,3030001152891,新規,0,2023-03-17,2023-03-17,株式会社エムズコーポレーション,,株式会社,埼玉県,新座市,栗原１丁目６番１３号,,11,230,3520035,,,,,,,2023-03-17,1,,,,,エムズコーポレーション,0
674,3030001152900,新規,0,2023-03-17,2023-03-17,株式会社あきもと,,株式会社,埼玉県,さいたま市見沼区,大字片柳２１４番地４,,11,104,3370024,,,,,,,2023-03-17,1,,,,,アキモト,0
675,3030001152909,新規,0,2023-03-17,2023-03-17,株式会社鷹商ホールディングス,,株式会社,埼玉県,春日部市,上蛭田６２８番地１８,,11,214,3440046,,,,,,,2023-03-17,1,,,,,タカショウホールディングス,0
679,3030003021376,新規,0,2023-03-17,2023-03-17,合同会社錚宏工業,,合同会社,埼玉県,川口市,大字安行原字半縄下２０９番地１３,,11,203,3340057,,,,,,,2023-03-17,1,,,,,ソウコウコウギョウ,0
680,3030003021392,新規,0,2023-03-17,2023-03-17,ＨＫＴ合同会社,,合同会社,埼玉県,秩父市,下影森６９８番地,,11,207,3691871,,,,,,,2023-03-17,1,,,,,エイチケイティ,0
689,3040003022209,新規,0,2023-03-17,2023-03-17,合同会社ＭＫ商会,,合同会社,千葉県,袖ケ浦市,下泉１４０６番地,,12,229,2990231,,,,,,,2023-03-17,1,,,,,エムケーショウカイ,0
692,3050003007316,新規,0,2023-03-17,2023-03-17,合同会社喜久屋,,合同会社,茨城県,日立市,久慈町３丁目１８番１６号,,08,202,3191222,,,,,,,2023-03-17,1,,,,,キクヤ,0
693,3050003007324,新規,0,2023-03-17,2023-03-17,Ｃｈｉｉｉ　Ｄｅｓｉｇｎ合同会社,,合同会社,茨城県,小美玉市,栗又四ケ字逆井２４９０番１,,08,236,3113434,,,,,,,2023-03-17,1,,,,,チーデザイン,0
699,3070001040234,新規,0,2023-03-17,2023-03-17,株式会社Ｋ’ｓ運送,,株式会社,群馬県,安中市,中宿１丁目３番５－２号,,10,211,3790115,,,,,,,2023-03-17,1,,,,,ケーズウンソウ,0
702,3080001025523,新規,0,2023-03-17,2023-03-17,株式会社國分工業,,株式会社,静岡県,静岡市清水区,折戸４３３番地の３２,,22,103,4240902,,,,,,,2023-03-17,1,,,,,コクブンコウギョウ,0
704,3090001018030,新規,0,2023-03-17,2023-03-17,株式会社ＥＶＥＲ　ＧＲＥＥＮ,,株式会社,山梨県,笛吹市,春日居町国府２７１番地６,,19,211,4060014,,,,,,,2023-03-17,1,,,,,エバーグリーン,0
719,3120001253144,新規,0,2023-03-17,2023-03-17,株式会社スパイラル,,株式会社,大阪府,寝屋川市,高柳２丁目５０番１７号ＷＥＳＴ高柳１０１号,,27,215,5720051,,,,,,,2023-03-17,1,,,,,スパイラル,0
720,3120001253193,新規,0,2023-03-17,2023-03-17,株式会社ＮＡＶＩＧＡＴＯＲ,,株式会社,大阪府,大阪市北区,豊崎３丁目１６番１６－３２１４号,,27,127,5310072,,,,,,,2023-03-17,1,,,,,ナビゲーター,0
721,3120001253276,新規,0,2023-03-17,2023-03-17,株式会社ＵＦＥ．Ｌａｂ,,株式会社,大阪府,大阪市北区,西天満３丁目１２番３８号八方商事第一ビル４階,,27,127,5300047,,,,,,,2023-03-17,1,,,,,ユーエフイーラボ,0
722,3120001253284,新規,0,2023-03-17,2023-03-17,華薇株式会社,,株式会社,大阪府,大阪市港区,池島３丁目１０－１１船田マンション５０４号室,,27,107,5520015,,,,,,,2023-03-17,1,,,,,カビ,0
723,3120001253292,新規,0,2023-03-17,2023-03-17,ＭＫスペック株式会社,,株式会社,大阪府,大阪市住吉区,南住吉３丁目６番６号,,27,120,5580041,,,,,,,2023-03-17,1,,,,,エムケイスペック,0
724,3120001253301,新規,0,2023-03-17,2023-03-17,株式会社ｈａｎｅｕｌ　ｇｒｏｕｐ,,株式会社,大阪府,大阪市天王寺区,寺田町１丁目１－３今井ビル１階,,27,109,5430045,,,,,,,2023-03-17,1,,,,,ハヌルグループ,0
725,3120001253318,新規,0,2023-03-17,2023-03-17,株式会社ファーストペンギンホールディングス,,株式会社,大阪府,大阪市北区,天神橋１丁目１８番２７号５０５号,,27,127,5300041,,,,,,,2023-03-17,1,,,,,ファーストペンギンホールディングス,0
726,3120001253334,新規,0,2023-03-17,2023-03-17,株式会社メタクリエイト,,株式会社,大阪府,大阪市北区,梅田１丁目２番２号大阪駅前第２ビル１２－１２,,27,127,5300001,,,,,,,2023-03-17,1,,,,,メタクリエイト,0
727,3120001253350,新規,0,2023-03-17,2023-03-17,株式会社リシェス,,株式会社,大阪府,大阪市西成区,北津守４丁目４番７５－３５号,,27,122,5570061,,,,,,,2023-03-17,1,,,,,リシェス,0
731,3120003023586,新規,0,2023-03-17,2023-03-17,ＳＨＩＭＩＲＵ合同会社,,合同会社,大阪府,大阪市中央区,上汐１丁目４番１０号上汐ビル３０２号,,27,128,5420064,,,,,,,2023-03-17,1,,,,,シミズ,0
732,3120003023644,新規,0,2023-03-17,2023-03-17,都成合同会社,,合同会社,大阪府,大阪市平野区,平野市町１丁目１番９号２０３号室,,27,126,5470042,,,,,,,2023-03-17,1,,,,,トセイ,0
733,3120003023660,新規,0,2023-03-17,2023-03-17,合同会社リンクス,,合同会社,大阪府,大阪市西区,南堀江２丁目９番２２号３０２,,27,106,5500015,,,,,,,2023-03-17,1,,,,,リンクス,0
738,3120903004545,新規,0,2023-03-17,2023-03-17,合同会社人間理解研究所,,合同会社,大阪府,高槻市,古曽部町２丁目３０番１－９０７号,,27,207,5691115,,,,,,,2023-03-17,1,,,,,ニンゲンリカイケンキュウジョ,0
746,3130003008594,新規,0,2023-03-17,2023-03-17,六感サイエンス合同会社,,合同会社,京都府,京都市中京区,西ノ京伯楽町１８番地１５オー・エヌ・エス２０２,,26,104,6048452,,,,,,,2023-03-17,1,,,,,ロッカンサイエンス,0
751,3140001129482,新規,0,2023-03-17,2023-03-17,太田商事株式会社,,株式会社,兵庫県,高砂市,荒井町紙町２７番４号,,28,216,6760015,,,,,,,2023-03-17,1,,,,,,0
752,3140001129490,新規,0,2023-03-17,2023-03-17,株式会社セカンドフロンティア,,株式会社,兵庫県,明石市,太寺２丁目４番２０号ヒルズ太寺１０３号,,28,203,6730845,,,,,,,2023-03-17,1,,,,,セカンドフロンティア,0
753,3140001129499,新規,0,2023-03-17,2023-03-17,株式会社べんざいてん,,株式会社,兵庫県,姫路市,西夢前台３丁目１５番地,,28,201,6712214,,,,,,,2023-03-17,1,,,,,ベンザイテン,0
754,3140001129508,新規,0,2023-03-17,2023-03-17,株式会社ＳＣＥＮＥ,,株式会社,兵庫県,神戸市中央区,加納町４丁目６番５号ロイヤルビル,,28,110,6500001,,,,,,,2023-03-17,1,,,,,シーン,0
756,3140003018857,新規,0,2023-03-17,2023-03-17,ＯＭ　Ｔｒａｄｉｎｇ　Ｃｏｍｐａｎｙ合同会社,,合同会社,兵庫県,尼崎市,潮江１丁目２０－１アミング潮江イーストＡ弐棟１階,,28,202,6610976,,,,,,,2023-03-17,1,,,,,オーエムトレーディングカンパニー,0
761,3160001024905,新規,0,2023-03-17,2023-03-17,株式会社ＴＥＡＭ・Ｉ,,株式会社,滋賀県,甲賀市,信楽町長野１３５８番地,,25,209,5291851,,,,,,,2023-03-17,1,,,,,チームアイ,0
769,3180001155376,新規,0,2023-03-17,2023-03-17,株式会社ＲＡＩＳＥ,,株式会社,愛知県,名古屋市中区,栄１丁目１３番４号みその大林ビル８Ｆ,,23,106,4600008,,,,,,,2023-03-17,1,,,,,レイズ,0
771,3180005020139,新規,0,2023-03-17,2023-03-17,ＮＰＯ法人ドリームブリッジ,,その他の設立登記法人,愛知県,岩倉市,八剱町樋口３番地東棟,,23,228,4820031,,,,,,,2023-03-17,1,,,,,ドリームブリッジ,0
772,3180301037191,新規,0,2023-03-17,2023-03-17,株式会社コレクト,,株式会社,愛知県,刈谷市,今岡町日向９３番地,,23,210,4480008,,,,,,,2023-03-17,1,,,,,コレクト,0
773,3180301037200,新規,0,2023-03-17,2023-03-17,株式会社ファースト,,株式会社,愛知県,豊橋市,野黒町７５番地アソシエイトプラザ２０３,,23,201,4418022,,,,,,,2023-03-17,1,,,,,ファースト,0
783,3240003006050,新規,0,2023-03-17,2023-03-17,合同会社６Ｓｅｎｓｅ,,合同会社,広島県,東広島市,志和町志和堀１５００番地,,34,212,7390269,,,,,,,2023-03-17,1,,,,,シックスセンス,0
790,3260001037748,新規,0,2023-03-17,2023-03-17,星宝国際株式会社,,株式会社,岡山県,岡山市北区,津島笹が瀬４番８号１０２,,33,101,7000088,,,,,,,2023-03-17,1,,,,,セイホウコクサイ,0
791,3260001037756,新規,0,2023-03-17,2023-03-17,株式会社Ｉ・イースト,,株式会社,岡山県,玉野市,八浜町波知３８６番地１,,33,204,7060223,,,,,,,2023-03-17,1,,,,,アイイースト,0
800,3290003013678,新規,0,2023-03-17,2023-03-17,合同会社福岡運送,,合同会社,福岡県,糟屋郡新宮町,大字下府８２７番地,,40,345,8110112,,,,,,,2023-03-17,1,,,,,フクオカウンソウ,0
801,3290003013686,新規,0,2023-03-17,2023-03-17,合同会社ＭＯＶＥｉｔ,,合同会社,福岡県,福岡市中央区,大手門２丁目３番７－１３０１号,,40,133,8100074,,,,,,,2023-03-17,1,,,,,ムーブイット,0
805,3290803004372,新規,0,2023-03-17,2023-03-17,合同会社ＤＥＰＡＲＴＵＲＥＳ,,合同会社,福岡県,北九州市若松区,畑谷町７‐２８,,40,103,8080055,,,,,,,2023-03-17,1,,,,,ディパーチャーズ,0
810,3320001019640,新規,0,2023-03-17,2023-03-17,フリージャム潜水株式会社,,株式会社,大分県,大分市,大字一尺屋２００８番地,,44,201,8792203,,,,,,,2023-03-17,1,,,,,フリージャムセンスイ,0
817,3350001018235,新規,0,2023-03-17,2023-03-17,株式会社カーサポ,,株式会社,宮崎県,宮崎市,大坪町尾崎２２３８番１,,45,201,8800933,,,,,,,2023-03-17,1,,,,,カーサポ,0
822,3360001031716,新規,0,2023-03-17,2023-03-17,株式会社夢かい初,,株式会社,沖縄県,浦添市,牧港４丁目１－１７ダウンタウンビル１－３,,47,208,9012131,,,,,,,2023-03-17,1,,,,,ユメカイハツ,0
823,3360003012805,新規,0,2023-03-17,2023-03-17,オキハイ・ハケンサービス合同会社,,合同会社,沖縄県,那覇市,字松川２７６番地（４Ｆ）,,47,201,9020062,,,,,,,2023-03-17,1,,,,,オキハイハケンサービス,0
824,3370001049732,新規,0,2023-03-17,2023-03-17,株式会社ＳＡＮＤ,,株式会社,宮城県,仙台市青葉区,一番町４丁目５番１７号東一市場２階,,04,101,9800811,,,,,,,2023-03-17,1,,,,,サンド,0
832,3430001088641,新規,0,2023-03-17,2023-03-17,Ｋ・Ｉパートナーズ株式会社,,株式会社,北海道,札幌市豊平区,豊平四条３丁目３番１０号,,01,105,0620904,,,,,,,2023-03-17,1,,,,,ケイアイパートナーズ,0
833,3430001088658,新規,0,2023-03-17,2023-03-17,ＳＮＯＷ　ｅｎｔｅｒｔａｉｎｍｅｎｔ株式会社,,株式会社,北海道,札幌市中央区,南一条西５丁目１９番地１,,01,101,0600061,,,,,,,2023-03-17,1,,,,,スノーエンターテイメント,0
834,3430001088674,新規,0,2023-03-17,2023-03-17,株式会社パーマカルチャー研究所,,株式会社,北海道,札幌市南区,簾舞３１３番地１,,01,106,0612272,,,,,,,2023-03-17,1,,,,,パーマカルチャーケンキュウジョ,0
836,3430003014835,新規,0,2023-03-17,2023-03-17,合同会社ノース,,合同会社,北海道,札幌市厚別区,厚別中央三条１丁目９－１,,01,108,0040053,,,,,,,2023-03-17,1,,,,,ノース,0
845,3490003001753,新規,0,2023-03-17,2023-03-17,合同会社フッドライズ,,合同会社,高知県,宿毛市,大深浦２１９８番地４,,39,208,7880034,,,,,,,2023-03-17,1,,,,,フッドライズ,0
847,3500003002997,新規,0,2023-03-17,2023-03-17,合同会社大粋,,合同会社,愛媛県,松山市,井門町３６８番地８,,38,201,7911114,,,,,,,2023-03-17,1,,,,,タイキ,0
848,3700150114856,新規,0,2023-03-17,2023-03-17,プルムウォングローバルインベストメントパートナーシッププライベートエクイティファンド,,外国会社等,,,,,,,,４ｔｈ　Ｆｌ．，２８０，Ｇｗａｎｇｐｙｅｏｎｇ－ｒｏ，Ｇａｎｇｎａｍ－ｇｕ，Ｓｅｏｕｌ，Ｒｅｐｕｂｌｉｃ　ｏｆ　Ｋｏｒｅａ,,,,,,2023-03-17,1,,,,,プルムウオングローバルインベストメントパートナーシツププライベートエクイテイフアンド,0
860,4010003040006,新規,0,2023-03-17,2023-03-17,合同会社ＨＹＫＭＹ,,合同会社,東京都,中央区,勝どき５丁目１２―４コスモ東京ベイタワー６１０,,13,102,1040054,,,,,,,2023-03-17,1,,,,,ハイクミー,0
863,4010005036381,新規,0,2023-03-17,2023-03-17,特定目的会社Ｐｒｅｍｉｓｉａ　Ｏｎｅ,,その他の設立登記法人,東京都,千代田区,霞が関３丁目２番５号,,13,101,1000013,,,,,,,2023-03-17,1,,,,,プレミシアワン,0
874,4010403029763,新規,0,2023-03-17,2023-03-17,合同会社ＥＧＵＵＵ,,合同会社,東京都,港区,麻布十番１丁目２番７号ラフィネ麻布十番７０１号室,,13,103,1060045,,,,,,,2023-03-17,1,,,,,エグー,0
875,4010405021909,新規,0,2023-03-17,2023-03-17,一般社団法人ＡＬＡ日本セルフチューニング協会,,その他の設立登記法人,東京都,港区,南青山５丁目１７番２号シドニービル５０２,,13,103,1070062,,,,,,,2023-03-17,1,,,,,エーエルエーニホンセルフチューニングキョウカイ,0
876,4010501050175,新規,0,2023-03-17,2023-03-17,ＭＥＴＡ株式会社,,株式会社,東京都,台東区,台東２丁目２７番３号ＮＳＫビル１０Ｆ,,13,106,1100016,,,,,,,2023-03-17,1,,,,,メタ,0
880,4010701043986,新規,0,2023-03-17,2023-03-17,株式会社ヘルスケアビジョン,,株式会社,東京都,品川区,東五反田１丁目７番１１号３０４号室,,13,109,1410022,,,,,,,2023-03-17,1,,,,,ヘルスケアビジョン,0
881,4010703006628,新規,0,2023-03-17,2023-03-17,ＧＦＤ合同会社,,合同会社,東京都,品川区,西五反田７丁目１３番５号ＤＫ五反田ビル８階,,13,109,1410031,,,,,,,2023-03-17,1,,,,,ジーエフディー,0
884,4010801033788,新規,0,2023-03-17,2023-03-17,株式会社Ｊ’ｓ,,株式会社,東京都,大田区,多摩川１丁目１６番１１－１１０２号,,13,111,1460095,,,,,,,2023-03-17,1,,,,,ジェイズ,0
887,4010901052721,新規,0,2023-03-17,2023-03-17,株式会社フォーメド,,株式会社,東京都,世田谷区,下馬６丁目１８番２－６０４号,,13,112,1540002,,,,,,,2023-03-17,1,,,,,,0
893,4011001153088,新規,0,2023-03-17,2023-03-17,株式会社ＣＦＯ,,株式会社,東京都,渋谷区,東３丁目２１番１４号,,13,113,1500011,,,,,,,2023-03-17,1,,,,,シーエフオー,0
894,4011001153113,新規,0,2023-03-17,2023-03-17,株式会社ブリリオ,,株式会社,東京都,渋谷区,神宮前１丁目５－８神宮前タワービルディング１４階,,13,113,1500001,,,,,,,2023-03-17,1,,,,,ブリリオ,0
895,4011001153229,新規,0,2023-03-17,2023-03-17,株式会社ＫＥＴＥＬ　ＳＴＲＥＡＭ,,株式会社,東京都,渋谷区,松濤１丁目１番３号ジョワレ松濤６階,,13,113,1500046,,,,,,,2023-03-17,1,,,,,ケテルストリーム,0
904,4011101102192,新規,0,2023-03-17,2023-03-17,中宇株式会社,,株式会社,東京都,新宿区,高田馬場３丁目２５番２７号,,13,104,1690075,,,,,,,2023-03-17,1,,,,,ナカウ,0
906,4011201024510,新規,0,2023-03-17,2023-03-17,株式会社８９４ＢＡＳＥ,,株式会社,東京都,中野区,沼袋１丁目３４番６号戸倉ハウジング１階,,13,114,1650025,,,,,,,2023-03-17,1,,,,,ハチキュウヨンベース,0
918,4011603003855,新規,0,2023-03-17,2023-03-17,合同会社３８,,合同会社,東京都,練馬区,中村北１丁目１１番６－７０５号,,13,120,1760023,,,,,,,2023-03-17,1,,,,,サンジュウハチ,0
922,4011803005560,新規,0,2023-03-17,2023-03-17,シーニックハイツ合同会社,,合同会社,東京都,足立区,西新井１丁目３６番４号,,13,121,1230841,,,,,,,2023-03-17,1,,,,,シーニックハイツ,0
926,4012401040297,新規,0,2023-03-17,2023-03-17,株式会社アリオン,,株式会社,東京都,府中市,朝日町２丁目３番地の１、５号棟３０６,,13,206,1830003,,,,,,,2023-03-17,1,,,,,アリオン,0
935,4020001150706,新規,0,2023-03-17,2023-03-17,株式会社Ｋｕｕｎ,,株式会社,神奈川県,横浜市中区,桜木町１丁目１０１番地１クロスゲート７階,,14,104,2310062,,,,,,,2023-03-17,1,,,,,クウン,0
941,4020003023546,新規,0,2023-03-17,2023-03-17,ＹＫ商事合同会社,,合同会社,神奈川県,横浜市鶴見区,東寺尾２丁目６番３３号,,14,101,2300077,,,,,,,2023-03-17,1,,,,,ワイケイショウジ,0
942,4020003023554,新規,0,2023-03-17,2023-03-17,旭リビングサポート合同会社,,合同会社,神奈川県,横浜市緑区,台村町１８６,,14,113,2260014,,,,,,,2023-03-17,1,,,,,アサヒリビングサポート,0
947,4021001078466,新規,0,2023-03-17,2023-03-17,株式会社グランドリバー,,株式会社,神奈川県,平塚市,田村４丁目２７－２９,,14,203,2540013,,,,,,,2023-03-17,1,,,,,グランドリバー,0
956,4030001152874,新規,0,2023-03-17,2023-03-17,株式会社ＤＡＬＺＩＥＬ,,株式会社,埼玉県,本庄市,駅南２丁目１－１９マスミビル５０１,,11,211,3670041,,,,,,,2023-03-17,1,,,,,ダルジエール,0
957,4030001152890,新規,0,2023-03-17,2023-03-17,クラフトワークス株式会社,,株式会社,埼玉県,所沢市,大字城６１９番地,,11,208,3590013,,,,,,,2023-03-17,1,,,,,クラフトワークス,0
958,4030001152899,新規,0,2023-03-17,2023-03-17,裕成株式会社,,株式会社,埼玉県,さいたま市岩槻区,西原台２丁目１番２４号ハイツ和田１０２,,11,110,3390082,,,,,,,2023-03-17,1,,,,,ユウセイ,0
959,4030001152908,新規,0,2023-03-17,2023-03-17,株式会社ＳＦＳ,,株式会社,埼玉県,入間郡三芳町,大字上富２０００番地２,,11,324,3540045,,,,,,,2023-03-17,1,,,,,エスエフエス,0
963,4030003021383,新規,0,2023-03-17,2023-03-17,合同会社Ｃｈａｒｌｉｅ,,合同会社,埼玉県,ふじみ野市,新田１丁目２番１号イニシアふじみ野３０８,,11,245,3560033,,,,,,,2023-03-17,1,,,,,チャーリー,0
970,4040001127537,新規,0,2023-03-17,2023-03-17,ＢＵ生活健康株式会社,,株式会社,千葉県,成田市,加良部２丁目２番地１,,12,211,2860036,,,,,,,2023-03-17,1,,,,,ビーユーセイカツケンコウ,0
971,4040001127545,新規,0,2023-03-17,2023-03-17,株式会社アオゾラリフォーム,,株式会社,千葉県,松戸市,西馬橋３丁目３７番地の１０サニークレメントＩ－１０２号,,12,207,2710044,,,,,,,2023-03-17,1,,,,,アオゾラリフォーム,0
972,4040001127553,新規,0,2023-03-17,2023-03-17,株式会社ＫＯＷＡ　Ｉｎｄｕｓｔｒｉｅｓ,,株式会社,千葉県,柏市,南増尾６丁目１５番８号,,12,217,2770054,,,,,,,2023-03-17,1,,,,,コーワインダストリーズ,0
973,4040001127561,新規,0,2023-03-17,2023-03-17,株式会社ＯＮＥ’Ｓ,,株式会社,千葉県,千葉市美浜区,高洲２丁目６番９棟４０２号,,12,106,2610004,,,,,,,2023-03-17,1,,,,,ワンズ,0
976,4040003022208,新規,0,2023-03-17,2023-03-17,ＩＡ・ＴＲＡＤＩＮＧ合同会社,,合同会社,千葉県,野田市,次木１８０番地１５,,12,208,2700228,,,,,,,2023-03-17,1,,,,,アイエートレーディング,0
979,4050001052544,新規,0,2023-03-17,2023-03-17,株式会社長谷川,,株式会社,茨城県,水戸市,見川２丁目２２番地の１５,,08,201,3100912,,,,,,,2023-03-17,1,,,,,ハセガワ,0
984,4070001040233,新規,0,2023-03-17,2023-03-17,ＦＤＬ株式会社,,株式会社,群馬県,邑楽郡大泉町,大字古海７３２番地の１,,10,524,3700524,,,,,,,2023-03-17,1,,,,,エフディエル,0
989,4110003005007,新規,0,2023-03-17,2023-03-17,合同会社イズミ林業,,合同会社,新潟県,新潟市中央区,新和１丁目６番２６－６０６,,15,103,9500972,,,,,,,2023-03-17,1,,,,,イズミリンギョウ,0
995,4120001252995,新規,0,2023-03-17,2023-03-17,株式会社Ｓ．Ｔ．Ａｄｖａｎｃｅ,,株式会社,大阪府,大阪市住之江区,御崎１丁目４番２１号,,27,125,5590013,,,,,,,2023-03-17,1,,,,,エスティーアドバンス,0
996,4120001253267,新規,0,2023-03-17,2023-03-17,株式会社ブルースカイ管理,,株式会社,大阪府,大阪市浪速区,敷津東３丁目６番９号,,27,111,5560012,,,,,,,2023-03-17,1,,,,,ブルースカイカンリ,0
997,4120001253275,新規,0,2023-03-17,2023-03-17,株式会社ＤＵＯ,,株式会社,大阪府,大阪市浪速区,日本橋３丁目４番９号,,27,111,5560005,,,,,,,2023-03-17,1,,,,,デュオ,0
998,4120001253283,新規,0,2023-03-17,2023-03-17,安東株式会社,,株式会社,大阪府,大阪市東住吉区,鷹合３丁目４－２プレジデント鷹合４０６号室,,27,121,5460014,,,,,,,2023-03-17,1,,,,,アンドウ,0
999,4120001253300,新規,0,2023-03-17,2023-03-17,荷墨谷雨株式会社,,株式会社,大阪府,大阪市北区,天満２丁目９－１７－４０２号室,,27,127,5300043,,,,,,,2023-03-17,1,,,,,カボクコクウ,0
1000,4120001253309,新規,0,2023-03-17,2023-03-17,株式会社アソボラボホールディングス,,株式会社,大阪府,大阪市西区,江戸堀１丁目２３番１１号,,27,106,5500002,,,,,,,2023-03-17,1,,,,,アソボラボホールディングス,0
1003,4120003023643,新規,0,2023-03-17,2023-03-17,ＨＡ‐ＨＡ合同会社,,合同会社,大阪府,大阪市東淀川区,東中島１丁目１９－１４,,27,114,5330033,,,,,,,2023-03-17,1,,,,,ハーハ,0
1006,4120101067154,新規,0,2023-03-17,2023-03-17,株式会社Ｅｎｔｅｒｐｌａｃｅ,,株式会社,大阪府,松原市,上田３丁目１番１８号,,27,217,5800016,,,,,,,2023-03-17,1,,,,,エンタープレース,0
1007,4120103005129,新規,0,2023-03-17,2023-03-17,Ｓｅｖｅｎ　Ｓｔａｒｓ　Ｊａｐａｎ合同会社,,合同会社,大阪府,富田林市,川向町３番２－３０３号,,27,214,5840049,,,,,,,2023-03-17,1,,,,,セブンスターズジャパン,0
1010,4122001036800,新規,0,2023-03-17,2023-03-17,株式会社エイブル引越サービス,,株式会社,大阪府,東大阪市,川俣１丁目３番８号,,27,227,5770063,,,,,,,2023-03-17,1,,,,,エイブルヒッコシサービス,0
1014,4130001073887,新規,0,2023-03-17,2023-03-17,株式会社沼田住建,,株式会社,京都府,京都市伏見区,羽束師鴨川町７１－２０,,26,109,6128484,,,,,,,2023-03-17,1,,,,,ヌマタジュウケン,0
1018,4130003008585,新規,0,2023-03-17,2023-03-17,合同会社ｉｎｎｏｖａｔｉｏｎ,,合同会社,京都府,京都市中京区,東木屋町通四条上る鍋屋町２２５番地萩原ビル２階－西,,26,104,6048015,,,,,,,2023-03-17,1,,,,,イノベーション,0
1024,4140001129473,新規,0,2023-03-17,2023-03-17,株式会社ＭａｒＣ,,株式会社,兵庫県,姫路市,忍町１００Ｂビル２階,,28,201,6700917,,,,,,,2023-03-17,1,,,,,マーク,0
1026,4140005026527,新規,0,2023-03-17,2023-03-17,一般社団法人ピッコロ,,その他の設立登記法人,兵庫県,宝塚市,安倉西４丁目９番６号,,28,214,6650825,,,,,,,2023-03-17,1,,,,,ピッコロ,0
1027,4160001024904,新規,0,2023-03-17,2023-03-17,匠実通商株式会社,,株式会社,滋賀県,守山市,吉身１丁目１０番５２号,,25,207,5240021,,,,,,,2023-03-17,1,,,,,タクミツウショウ,0
1042,4180001155409,新規,0,2023-03-17,2023-03-17,東洋ユニオンホールディングス株式会社,,株式会社,愛知県,名古屋市緑区,定納山２丁目１２０３番地,,23,114,4598011,,,,,,,2023-03-17,1,,,,,トウヨウユニオンホールディングス,0
1046,4180301037199,新規,0,2023-03-17,2023-03-17,株式会社カレッジ,,株式会社,愛知県,豊橋市,松葉町２丁目１１番地１ＩＳＭビル３階３Ｂ号室,,23,201,4400897,,,,,,,2023-03-17,1,,,,,カレッジ,0
1047,4180301037208,新規,0,2023-03-17,2023-03-17,株式会社Ｐｄｉｅｎ,,株式会社,愛知県,岡崎市,真伝１丁目１４番地１１,,23,202,4443175,,,,,,,2023-03-17,1,,,,,プディン,0
1049,4190001030255,新規,0,2023-03-17,2023-03-17,株式会社ＢＵＮＳＵＮ,,株式会社,三重県,多気郡明和町,大字中村１２７２番地１,,24,442,5150348,,,,,,,2023-03-17,1,,,,,ブンサン,0
1060,4260001037755,新規,0,2023-03-17,2023-03-17,株式会社王様のメロン,,株式会社,岡山県,倉敷市,西坂４４１‐１,,33,202,7100004,,,,,,,2023-03-17,1,,,,,オウサマノメロン,0
1066,4290003013669,新規,0,2023-03-17,2023-03-17,合同会社ｆｒｅｃｔａｓ,,合同会社,福岡県,福岡市中央区,天神４丁目６－２８天神ファーストビル７階,,40,133,8100001,,,,,,,2023-03-17,1,,,,,フレクタス,0
1067,4290003013677,新規,0,2023-03-17,2023-03-17,合同会社Ｋ,,合同会社,福岡県,福岡市東区,香椎２丁目５番４６－２１０号,,40,131,8130011,,,,,,,2023-03-17,1,,,,,ケー,0
1074,4310003004525,新規,0,2023-03-17,2023-03-17,合同会社塩田緑化工業,,合同会社,長崎県,島原市,先魁町１１６３番地４０,,42,203,8550035,,,,,,,2023-03-17,1,,,,,シオタリョクカコウギョウ,0
1086,4360001031715,新規,0,2023-03-17,2023-03-17,株式会社一真開発,,株式会社,沖縄県,沖縄市,知花６丁目１５－３４カーサベルデＣ,,47,211,9042143,,,,,,,2023-03-17,1,,,,,イッシンカイハツ,0
1088,4370001049731,新規,0,2023-03-17,2023-03-17,株式会社館のエステート,,株式会社,宮城県,大崎市,古川西館１丁目７番４６号,,04,215,9896156,,,,,,,2023-03-17,1,,,,,ダテノエステート,0
1089,4370003006037,新規,0,2023-03-17,2023-03-17,台原医療機器合同会社,,合同会社,宮城県,仙台市青葉区,台原５丁目４番２８号,,04,101,9810911,,,,,,,2023-03-17,1,,,,,ダイノハライリョウキキ,0
1093,4380003005418,新規,0,2023-03-17,2023-03-17,合同会社チャレンジャー,,合同会社,福島県,伊達市,保原町上保原字名場ノ内４番地７,,07,213,9600684,,,,,,,2023-03-17,1,,,,,チャレンジャー,0
1094,4380005012692,新規,0,2023-03-17,2023-03-17,一般社団法人阿武隈牛の背ウルシぷろじぇくと,,その他の設立登記法人,福島県,田村市,船引町船引字原田１１６番地１,,07,211,9634312,,,,,,,2023-03-17,1,,,,,アブクマウシノセウルシプロジェクト,0
1107,4430001088632,新規,0,2023-03-17,2023-03-17,テイクワークス株式会社,,株式会社,北海道,札幌市豊平区,平岸二条８丁目５番６２号,,01,105,0620932,,,,,,,2023-03-17,1,,,,,テイクワークス,0
1111,4430003014826,新規,0,2023-03-17,2023-03-17,ＡＯ合同会社,,合同会社,北海道,札幌市中央区,界川３丁目８番２７号,,01,101,0640943,,,,,,,2023-03-17,1,,,,,アオ,0
1112,4430003014834,新規,0,2023-03-17,2023-03-17,合同会社きずなグループ８４１,,合同会社,北海道,札幌市西区,琴似二条５丁目２番８号,,01,107,0630812,,,,,,,2023-03-17,1,,,,,キズナグループヤヨイ,0
1113,4430005014659,新規,0,2023-03-17,2023-03-17,一般社団法人ホースライフサポート協会,,その他の設立登記法人,北海道,札幌市豊平区,平岸四条１６丁目５番１－７１３号,,01,105,0620934,,,,,,,2023-03-17,1,,,,,ホースライフサポートキョウカイ,0
1114,4450001013927,新規,0,2023-03-17,2023-03-17,マテリアルリサイクル株式会社,,株式会社,北海道,旭川市,旭神二条３丁目６番２５号,,01,204,0788372,,,,,,,2023-03-17,1,,,,,マテリアルリサイクル,0
1119,4700150114855,新規,0,2023-03-17,2023-03-17,Ｗｕｈａｎ　Ａｉ　Ｍｅｎｇ　Ｄｉ　Ｔｅｃｈｎｏｌｏｇｙ　Ｃｏ．，Ｌｔｄ．,,外国会社等,,,,,,,,Ｎｏ．９，Ｆｌｏｏｒ　２１，Ｕｎｉｔ　３，Ｐｈａｓｅ　Ｉ，Ｍｏｄｅｒｎ　Ｉｎｔｅｒｎａｔｉｏｎａｌ　Ｄｅｓｉｇｎ　Ｃｉｔｙ，Ｇｕａｎｎａｎ　Ｓｃｉｅｎｃｅ　ａｎｄ　Ｔｅｃｈｎｏｌｏｇｙ　Ｉｎｄｕｓｔｒｉａｌ　Ｐａｒｋ，Ｄｏｎｇｈｕ　Ｎｅｗ　Ｔｅｃｈｎｏｌｏｇｙ　Ｄｅｖｅｌｏｐｍｅｎｔ　Ｚｏｎｅ，Ｗｕｈａｎ,00129784,,,,,2023-03-17,1,,,,,ブカンアイメイチテクノロジーカンパニーリミテド,0
1129,5010101015560,新規,0,2023-03-17,2023-03-17,Ａｎｇｉｅ　Ｊａｐａｎ株式会社,,株式会社,東京都,八王子市,平岡町１２－１４－１０５,,13,201,1920061,,,,,,,2023-03-17,1,,,,,アンジージャパン,0
1135,5010403029754,新規,0,2023-03-17,2023-03-17,合同会社Ｌａ　Ｓｏｒｅｌｌｉｎａ,,合同会社,東京都,港区,虎ノ門３丁目２２番１０－２０１号,,13,103,1050001,,,,,,,2023-03-17,1,,,,,ラソレリーナ,0
1136,5010403029762,新規,0,2023-03-17,2023-03-17,Ａｅｒｉｓ　Ｃｏｍｍｕｎｉｃａｔｉｏｎｓ合同会社,,合同会社,東京都,港区,六本木１丁目９番１０号アークヒルズ仙石山森タワー２８階ベーカー＆マッケンジー法律事務所（外国法共同事業）内,,13,103,1060032,,,,,,,2023-03-17,1,,,,,エアリスコミュニケーションズ,0
1138,5010503006918,新規,0,2023-03-17,2023-03-17,合同会社寿,,合同会社,東京都,台東区,清川１丁目１０番１０－９０２号グランウィッシュ浅草イースト,,13,106,1110022,,,,,,,2023-03-17,1,,,,,コトブキ,0
1149,5010801033779,新規,0,2023-03-17,2023-03-17,株式会社Ｂｏｌｔ,,株式会社,東京都,大田区,中央８丁目２－４,,13,111,1430024,,,,,,,2023-03-17,1,,,,,ボルト,0
1151,5010803004472,新規,0,2023-03-17,2023-03-17,合同会社ソニック・フィールド,,合同会社,東京都,大田区,鵜の木２丁目４０番４号２０１,,13,111,1460091,,,,,,,2023-03-17,1,,,,,ソニックフィールド,0
1153,5010901052720,新規,0,2023-03-17,2023-03-17,株式会社ＳＤＰ,,株式会社,東京都,世田谷区,世田谷１丁目４４番９号１Ｆ,,13,112,1540017,,,,,,,2023-03-17,1,,,,,エスディーピー,0
1156,5010903008035,新規,0,2023-03-17,2023-03-17,ＥＧＣＩＳ合同会社,,合同会社,東京都,世田谷区,深沢８丁目１０番１４号,,13,112,1580081,,,,,,,2023-03-17,1,,,,,エグシス,0
1161,5011001152849,新規,0,2023-03-17,2023-03-17,サラリ株式会社,,株式会社,東京都,渋谷区,千駄ヶ谷３丁目３－３１アルティーム原宿３０２号室,,13,113,1510051,,,,,,,2023-03-17,1,,,,,サラリ,0
1162,5011001153112,新規,0,2023-03-17,2023-03-17,株式会社ｓａａｂ,,株式会社,東京都,目黒区,上目黒５丁目６－２５目黒ＬＦＶ２１１,,13,110,1530051,,,,,,,2023-03-17,1,,,,,サアブ,0
1164,5011005009987,新規,0,2023-03-17,2023-03-17,医療法人社団ファイブドッツ,,その他の設立登記法人,東京都,渋谷区,渋谷１丁目６番５号ＳＫ青山ビル５階,,13,113,1500002,,,,,,,2023-03-17,1,,,,,ファイブドッツ,0
1166,5011101102191,新規,0,2023-03-17,2023-03-17,株式会社Ｓ‐Ｄｅｓｉｇｎ,,株式会社,東京都,新宿区,西新宿１丁目２５番１号新宿センタービル４９階,,13,104,1600023,,,,,,,2023-03-17,1,,,,,エスデザイン,0
1169,5011103012810,新規,0,2023-03-17,2023-03-17,Ｈ．Ｉ．Ｆ．ＩＮＶＯＩＣＥ合同会社,,合同会社,東京都,新宿区,西新宿６丁目２１番１号アイタウン・プラザ２０３号,,13,104,1600023,,,,,,,2023-03-17,1,,,,,エイチアイエフインボイス,0
1170,5011103012819,新規,0,2023-03-17,2023-03-17,合同会社Ｌａｍｐ,,合同会社,東京都,新宿区,新宿５丁目１４番１２号天翔新宿三丁目ビル１０５,,13,104,1600022,,,,,,,2023-03-17,1,,,,,ランプ,0
1171,5011203004030,新規,0,2023-03-17,2023-03-17,ＲＥＴＲＹ合同会社,,合同会社,東京都,中野区,大和町２丁目３１番２号,,13,114,1650034,,,,,,,2023-03-17,1,,,,,リトライ,0
1173,5011503005513,新規,0,2023-03-17,2023-03-17,合同会社ＦＬ８,,合同会社,東京都,北区,赤羽１丁目４２番１３－４０２号,,13,117,1150045,,,,,,,2023-03-17,1,,,,,エフエルエイト,0
1188,5020001150655,新規,0,2023-03-17,2023-03-17,ｈａｎｄｖｅｒｋ株式会社,,株式会社,神奈川県,横浜市都筑区,勝田町１０５４,,14,118,2240034,,,,,,,2023-03-17,1,,,,,ハンドバーク,0
1193,5021001078457,新規,0,2023-03-17,2023-03-17,株式会社エンカウント,,株式会社,神奈川県,愛甲郡愛川町,中津９６２番地６,,14,401,2430303,,,,,,,2023-03-17,1,,,,,エンカウント,0
1194,5021001078473,新規,0,2023-03-17,2023-03-17,株式会社エル・ゲート,,株式会社,神奈川県,秦野市,渋沢上２丁目１番３０号－１０１,,14,211,2591326,,,,,,,2023-03-17,1,,,,,エルゲート,0
1204,5030001152907,新規,0,2023-03-17,2023-03-17,テックジャパンエンジニアリング株式会社,,株式会社,埼玉県,川越市,大字南田島７９７番地１,,11,201,3500027,,,,,,,2023-03-17,1,,,,,テックジャパンエンジニアリング,0
1208,5030003021382,新規,0,2023-03-17,2023-03-17,クマラヤ合同会社,,合同会社,埼玉県,川越市,大字下広谷１１１５番４号,,11,201,3500804,,,,,,,2023-03-17,1,,,,,クマラヤ,0
1209,5030003021390,新規,0,2023-03-17,2023-03-17,合同会社ヨシザワ,,合同会社,埼玉県,川口市,柳崎１丁目３１番３号,,11,203,3330861,,,,,,,2023-03-17,1,,,,,ヨシザワ,0
1214,5040001127445,新規,0,2023-03-17,2023-03-17,株式会社ＭＫ,,株式会社,千葉県,八千代市,勝田台南２丁目１９番２４号,,12,221,2760025,,,,,,,2023-03-17,1,,,,,エムケー,0
1215,5040001127511,新規,0,2023-03-17,2023-03-17,株式会社ＫＴシステム,,株式会社,千葉県,船橋市,田喜野井１丁目３２番１１号,,12,204,2740073,,,,,,,2023-03-17,1,,,,,ケイティシステム,0
1216,5040001127544,新規,0,2023-03-17,2023-03-17,健太株式会社,,株式会社,千葉県,印西市,小林北３丁目１番地９,,12,231,2701313,,,,,,,2023-03-17,1,,,,,ケンタ,0
1217,5040001127552,新規,0,2023-03-17,2023-03-17,和田商事株式会社,,株式会社,千葉県,船橋市,高根台７丁目９－１５－２Ｆ,,12,204,2740065,,,,,,,2023-03-17,1,,,,,ワダショウジ,0
1223,5040003022173,新規,0,2023-03-17,2023-03-17,合同会社白石工業,,合同会社,千葉県,千葉市中央区,星久喜町４６３番地４ＧＲＡＣＩＭ＿０５・２－Ｂ,,12,101,2600808,,,,,,,2023-03-17,1,,,,,シライシコウギョウ,0
1224,5040003022215,新規,0,2023-03-17,2023-03-17,合同会社ＭＩＲＯＳＥ,,合同会社,千葉県,千葉市中央区,南生実町８３１番１,,12,101,2600814,,,,,,,2023-03-17,1,,,,,ミローズ,0
1225,5050001052543,新規,0,2023-03-17,2023-03-17,株式会社響心工業,,株式会社,茨城県,神栖市,深芝１１０６番地３,,08,232,3140148,,,,,,,2023-03-17,1,,,,,キョウシンコウギョウ,0
1238,5080401026367,新規,0,2023-03-17,2023-03-17,株式会社Ａｒｃｈｅｔｙｐｏ,,株式会社,静岡県,浜松市西区,入野町１６１０２番地の２,,22,133,4328061,,,,,,,2023-03-17,1,,,,,アルケティポ,0
1239,5080401026383,新規,0,2023-03-17,2023-03-17,株式会社ハッピームーブインターナショナル,,株式会社,静岡県,浜松市中区,佐鳴台３丁目５７番１８号,,22,131,4328021,,,,,,,2023-03-17,1,,,,,ハッピームーブインターナショナル,0
1253,5120001253217,新規,0,2023-03-17,2023-03-17,株式会社大恒,,株式会社,大阪府,大阪市大正区,三軒家西３丁目４番１６号中山ビル２０２Ｂ,,27,108,5510001,,,,,,,2023-03-17,1,,,,,ダイコウ,0
1254,5120001253274,新規,0,2023-03-17,2023-03-17,株式会社セラヴィー,,株式会社,大阪府,大阪市浪速区,下寺１丁目３番１６号オリエンス夕陽丘２０６,,27,111,5560001,,,,,,,2023-03-17,1,,,,,セラヴィー,0
1255,5120001253308,新規,0,2023-03-17,2023-03-17,株式会社Ｍ’ｓ　Ｌｉｎｋ,,株式会社,大阪府,大阪市住吉区,遠里小野６丁目１０番２７号,,27,120,5580032,,,,,,,2023-03-17,1,,,,,エムズリンク,0
1256,5120001253381,新規,0,2023-03-17,2023-03-17,ＴＭアセット株式会社,,株式会社,大阪府,大阪市西区,江戸堀３丁目８番１６－１１０１号,,27,106,5500002,,,,,,,2023-03-17,1,,,,,ティエムアセット,0
1260,5120003023634,新規,0,2023-03-17,2023-03-17,コンサポート合同会社,,合同会社,大阪府,大阪市北区,梅田１丁目１番３号大阪駅前第３ビル２９階１－１－１号室,,27,127,5300001,,,,,,,2023-03-17,1,,,,,コンサポート,0
1261,5120003023642,新規,0,2023-03-17,2023-03-17,合同会社Ｒ１３,,合同会社,大阪府,枚方市,磯島茶屋町１８番１号,,27,210,5731184,,,,,,,2023-03-17,1,,,,,アールジュウサン,0
1262,5120003023659,新規,0,2023-03-17,2023-03-17,ＥＮＲＩ合同会社,,合同会社,大阪府,大阪市中央区,島之内１丁目１１番６号グレイス長堀１２０１号室,,27,128,5420082,,,,,,,2023-03-17,1,,,,,エンリ,0
1265,5120101067153,新規,0,2023-03-17,2023-03-17,株式会社ＩＲＩＥ　Ｈｏｍｅ,,株式会社,大阪府,羽曳野市,島泉２丁目５番４号,,27,222,5830881,,,,,,,2023-03-17,1,,,,,アイリーホーム,0
1268,5130003008592,新規,0,2023-03-17,2023-03-17,合同会社リアルイメージ,,合同会社,京都府,京都市伏見区,海老屋町１０１７番地,,26,109,6128335,,,,,,,2023-03-17,1,,,,,リアルイメージ,0
1273,5140001129464,新規,0,2023-03-17,2023-03-17,株式会社ＢＥＮ．ＳＰＯＲＴＳ,,株式会社,兵庫県,姫路市,西二階町１１８番地,,28,201,6700901,,,,,,,2023-03-17,1,,,,,ベンスポーツ,0
1274,5140001129480,新規,0,2023-03-17,2023-03-17,株式会社コランダム,,株式会社,兵庫県,神戸市西区,玉津町小山下大田１１８－１ティージーテクノビル３Ｆ,,28,111,6512144,,,,,,,2023-03-17,1,,,,,コランダム,0
1280,5140003018764,新規,0,2023-03-17,2023-03-17,合同会社ＲＴＹ工業,,合同会社,兵庫県,明石市,二見町西二見８９番地の２ウエステージ明石六番館１００１号,,28,203,6740094,,,,,,,2023-03-17,1,,,,,アールティーワイコウギョウ,0
1289,5180001155399,新規,0,2023-03-17,2023-03-17,株式会社一双,,株式会社,愛知県,名古屋市中川区,戸田ゆたか２丁目１６１９番地の１,,23,110,4540966,,,,,,,2023-03-17,1,,,,,イッソウ,0
1298,5180301037198,新規,0,2023-03-17,2023-03-17,株式会社らくおーれ,,株式会社,愛知県,刈谷市,住吉町３丁目５８番地,,23,210,4480852,,,,,,,2023-03-17,1,,,,,ラクオーレ,0
1301,5200001041076,新規,0,2023-03-17,2023-03-17,ナカノ不動産株式会社,,株式会社,岐阜県,羽島市,正木町不破一色５１１番地,,21,209,5016228,,,,,,,2023-03-17,1,,,,,ナカノフドウサン,0
1302,5200001041084,新規,0,2023-03-17,2023-03-17,株式会社プーリベルユー,,株式会社,岐阜県,羽島郡岐南町,伏屋３丁目２３８番地の１（クレストナガイ３２号室）,,21,302,5016006,,,,,,,2023-03-17,1,,,,,プーリベルユー,0
1307,5230001019747,新規,0,2023-03-17,2023-03-17,株式会社コミゼン,,株式会社,富山県,富山市,磯部町１丁目５番１７号,,16,201,9300077,,,,,,,2023-03-17,1,,,,,コミゼン,0
1311,5240003006049,新規,0,2023-03-17,2023-03-17,合同会社Ｙ・Ｏ,,合同会社,広島県,広島市中区,大手町４丁目３番１８号Ａ．Ｂ．Ｅ．ｂｌｄｇ,,34,101,7300051,,,,,,,2023-03-17,1,,,,,ワイオー,0
1312,5260001037754,新規,0,2023-03-17,2023-03-17,株式会社アオギリ,,株式会社,岡山県,岡山市南区,新保６７９番地１９（２０５）,,33,104,7000945,,,,,,,2023-03-17,1,,,,,アオギリ,0
1317,5290001100906,新規,0,2023-03-17,2023-03-17,ＣＣＮ株式会社,,株式会社,福岡県,福岡市中央区,今泉２丁目１番７０号,,40,133,8100021,,,,,,,2023-03-17,1,,,,,シーシーエヌ,0
1318,5290001100922,新規,0,2023-03-17,2023-03-17,株式会社ネクストイノベーション,,株式会社,福岡県,福岡市中央区,天神１丁目９番１７号福岡天神フコク生命ビル１５階,,40,133,8100001,,,,,,,2023-03-17,1,,,,,ネクストイノベーション,0
1320,5290003013676,新規,0,2023-03-17,2023-03-17,ＬＩＮＫＤ　ＴＯＵＲＩＳＭ合同会社,,合同会社,福岡県,福岡市早良区,小田部７丁目２２番１５－１０１号グレートリバー１２,,40,137,8140032,,,,,,,2023-03-17,1,,,,,リンクドツーリズム,0
1321,5290003013684,新規,0,2023-03-17,2023-03-17,合同会社まるさん,,合同会社,福岡県,福岡市南区,大楠２丁目１９番４号,,40,134,8150082,,,,,,,2023-03-17,1,,,,,マルサン,0
1329,5320001019639,新規,0,2023-03-17,2023-03-17,株式会社Ａｖａｎｔ‐ｄｉｒ,,株式会社,大分県,大分市,中央町２丁目‐３番‐１０号二八堂ビル４階,,44,201,8700035,,,,,,,2023-03-17,1,,,,,アヴァンディール,0
1331,5360005006803,新規,0,2023-03-17,2023-03-17,一般社団法人那覇Ｅａｓｔベースボールアカデミー,,その他の設立登記法人,沖縄県,那覇市,字仲井真２３８番地１０、１Ｆ,,47,201,9020074,,,,,,,2023-03-17,1,,,,,ナハイーストベースボールアカデミー,0
1332,5370001049722,新規,0,2023-03-17,2023-03-17,株式会社ファナス,,株式会社,宮城県,塩竈市,玉川３丁目２番５０号ＳＨＩＯＧＡＭＡＢＡＳＥＢＡＳＥ５,,04,203,9850042,,,,,,,2023-03-17,1,,,,,ファナス,0
1335,5380001033551,新規,0,2023-03-17,2023-03-17,情報整備局株式会社,,株式会社,福島県,須賀川市,滑川字東町１４５番地,,07,207,9620403,,,,,,,2023-03-17,1,,,,,ジョウホウセイビキョク,0
1337,5380003005417,新規,0,2023-03-17,2023-03-17,浪江マーケティング合同会社,,合同会社,福島県,双葉郡浪江町,大字樋渡字江添２４－７オレンジガーデンハイム１０３,,07,547,9791532,,,,,,,2023-03-17,1,,,,,ナミエマーケティング,0
1338,5390002001952,新規,0,2023-03-17,2023-03-17,有限会社トステック,,有限会社,山形県,山形市,三日町１丁目４番２８号,,06,201,9900036,,,,,,,2023-03-17,1,,,,,トステック,0
1341,5420001018192,新規,0,2023-03-17,2023-03-17,Ｄ‐ｔｃｓ株式会社,,株式会社,青森県,青森市,大字浜田字玉川２４４番地６,,02,201,0300843,,,,,,,2023-03-17,1,,,,,ディーテックス,0
1342,5420003002681,新規,0,2023-03-17,2023-03-17,合同会社清藤塗装,,合同会社,青森県,弘前市,大字撫牛子３丁目８番地４,,02,202,0368075,,,,,,,2023-03-17,1,,,,,セイトウトソウ,0
1350,5430001088648,新規,0,2023-03-17,2023-03-17,株式会社ＳＧ・トラスト,,株式会社,北海道,札幌市東区,伏古十三条４丁目３番７号,,01,103,0070873,,,,,,,2023-03-17,1,,,,,エスジートラスト,0
1351,5430001088664,新規,0,2023-03-17,2023-03-17,ソフトプライム株式会社,,株式会社,北海道,小樽市,桜２丁目２６－２３,,01,203,0470156,,,,,,,2023-03-17,1,,,,,ソフトプライム,0
1355,5430003014775,新規,0,2023-03-17,2023-03-17,合同会社Ｔｕｔｔｏ　ｍａｎａｇｅｍｅｎｔ,,合同会社,北海道,札幌市北区,屯田四条７丁目３番１７号,,01,102,0020854,,,,,,,2023-03-17,1,,,,,トゥットマネジメント,0
1356,5430003014825,新規,0,2023-03-17,2023-03-17,ＣＯＣＯ３合同会社,,合同会社,北海道,札幌市東区,東雁来十条１丁目１４番２１号,,01,103,0070030,,,,,,,2023-03-17,1,,,,,ココスリー,0
1357,5430003014833,新規,0,2023-03-17,2023-03-17,合同会社ソレイユ,,合同会社,北海道,札幌市中央区,南三条西１２丁目３２５－９,,01,101,0600063,,,,,,,2023-03-17,1,,,,,ソレイユ,0
1363,5700150114854,新規,0,2023-03-17,2023-03-17,Ｓｈｅｎｚｈｅｎ　ｇａｏｓｈａｎｇｍｅｉ　Ｔｅｃｈｎｏｌｏｇｙ　Ｃｏ．Ｌｔｄ．,,外国会社等,,,,,,,,７０６　Ｈｅｘｉｎｇ　Ｂｕｉｌｄｉｎｇ，Ｌａｎｅ　４，Ｓｏｕｔｈ　Ｈｏｍ　Ｒｏａｄ，Ｂａｎｔｉａｎ　Ｓｔｒｅｅｔ，Ｌｏｎｇｇａｎｇ　Ｄｉｓｔｒｉｃｔ，Ｓｈｅｎｚｈｅｎ，Ｇｕａｎｇｄｏｎｇ,,,,,,2023-03-17,1,,,,,シンセンシコウシヨウビテクノロジーカンパニーリミテド,0
1376,6010001233724,新規,0,2023-03-17,2023-03-17,株式会社ｍｉｌｋ,,株式会社,東京都,中央区,銀座１丁目２２番１１号銀座大竹ビジデンス２階,,13,102,1040061,,,,,,,2023-03-17,1,,,,,ミルク,0
1377,6010001233740,新規,0,2023-03-17,2023-03-17,祥隆通商株式会社,,株式会社,東京都,千代田区,九段南１丁目５番６号,,13,101,1020074,,,,,,,2023-03-17,1,,,,,ショウリュウツウショウ,0
1378,6010001233823,新規,0,2023-03-17,2023-03-17,冨田ビル株式会社,,株式会社,東京都,中央区,日本橋２丁目２番５号,,13,102,1030027,,,,,,,2023-03-17,1,,,,,トミタビル,0
1393,6010401173017,新規,0,2023-03-17,2023-03-17,株式会社ＡＰＵＯＭ,,株式会社,東京都,港区,高輪２丁目３－１７ステージファースト高輪－２０７,,13,103,1080074,,,,,,,2023-03-17,1,,,,,アピューム,0
1394,6010401173116,新規,0,2023-03-17,2023-03-17,マテリアルズビジョンジャパン株式会社,,株式会社,東京都,港区,六本木７丁目１２－２Ｒ７ビルディングＳ－０５,,13,103,1060032,,,,,,,2023-03-17,1,,,,,マテリアルズビジョンジャパン,0
1395,6010401173173,新規,0,2023-03-17,2023-03-17,株式会社ＲＡｉＦＴ,,株式会社,東京都,港区,南青山２丁目２番１５号,,13,103,1070062,,,,,,,2023-03-17,1,,,,,ライフト,0
1398,6010403029753,新規,0,2023-03-17,2023-03-17,合同会社Ｒｉｂｏｔ,,合同会社,東京都,港区,虎ノ門３丁目２２番１０－２０１号,,13,103,1050001,,,,,,,2023-03-17,1,,,,,リボー,0
1400,6010601062779,新規,0,2023-03-17,2023-03-17,株式会社ＳＴＡＮＤ　ＵＰ,,株式会社,東京都,江東区,豊洲３丁目４番１号シティータワー豊洲Ｓ棟３４０９,,13,108,1350061,,,,,,,2023-03-17,1,,,,,スタンドアップ,0
1401,6010603010067,新規,0,2023-03-17,2023-03-17,２３ＣＲＡＦＴ　ＣＯＭＰＡＮＹ合同会社,,合同会社,東京都,江東区,富岡１丁目２２－２４－２０８,,13,108,1350047,,,,,,,2023-03-17,1,,,,,トゥエンティースリークラフトカンパニー,0
1417,6011001153103,新規,0,2023-03-17,2023-03-17,株式会社ＮＴＮ,,株式会社,東京都,渋谷区,本町５丁目１５－１４エスタシオン渋谷３１５,,13,113,1510071,,,,,,,2023-03-17,1,,,,,エヌテイエヌ,0
1418,6011001153111,新規,0,2023-03-17,2023-03-17,株式会社リプロ,,株式会社,東京都,渋谷区,道玄坂１丁目１０番８号渋谷道玄坂東急ビル２Ｆ－Ｃ,,13,113,1500043,,,,,,,2023-03-17,1,,,,,,0
1419,6011001153177,新規,0,2023-03-17,2023-03-17,Ｂａｍｂｕ　Ｊａｐａｎ株式会社,,株式会社,東京都,渋谷区,道玄坂１丁目１２番１号,,13,113,1500043,,,,,,,2023-03-17,1,,,,,バンブージャパン,0
1425,6011101102182,新規,0,2023-03-17,2023-03-17,株式会社マルトミ,,株式会社,東京都,新宿区,袋町３番地４クレール神楽坂１４－１階,,13,104,1620828,,,,,,,2023-03-17,1,,,,,マルトミ,0
1426,6011103012818,新規,0,2023-03-17,2023-03-17,合同会社ＢＥＳＴ　ＯＮＥ,,合同会社,東京都,新宿区,新宿５丁目１４番１２号天翔新宿三丁目ビル１０５,,13,104,1600022,,,,,,,2023-03-17,1,,,,,ベストワン,0
1430,6011401024985,新規,0,2023-03-17,2023-03-17,株式会社ｓｔｒａｉｇｈｔ,,株式会社,東京都,板橋区,大谷口上町９０番１０号,,13,119,1730032,,,,,,,2023-03-17,1,,,,,ストレート,0
1431,6011501029026,新規,0,2023-03-17,2023-03-17,こびと企画株式会社,,株式会社,東京都,北区,赤羽１丁目５３番５号楊茂ビル１階,,13,117,1150045,,,,,,,2023-03-17,1,,,,,コビトキカク,0
1432,6011603003853,新規,0,2023-03-17,2023-03-17,合同会社Ｓ．Ｋ．Ｙ,,合同会社,東京都,練馬区,三原台２丁目５番９号,,13,120,1770031,,,,,,,2023-03-17,1,,,,,エスケーワイ,0
1433,6011701026095,新規,0,2023-03-17,2023-03-17,株式会社アクト,,株式会社,東京都,江戸川区,中葛西７丁目５番１６－３０７号,,13,123,1340083,,,,,,,2023-03-17,1,,,,,アクト,0
1434,6011703003415,新規,0,2023-03-17,2023-03-17,合同会社醫鍼伊崎,00129796,合同会社,東京都,江戸川区,北小岩６丁目３２－１２,,13,123,1330051,,,,,,,2023-03-17,1,,,,,イシンイザキ,0
1435,6011801042075,新規,0,2023-03-17,2023-03-17,株式会社ＰＲＥＦＡＭＩ,,株式会社,東京都,葛飾区,細田３丁目８番１１－４１３号ザ・グランリバーフォート高砂,,13,122,1240021,,,,,,,2023-03-17,1,,,,,プレファミ,0
1436,6011802020195,新規,0,2023-03-17,2023-03-17,有限会社ブレイヴ,,有限会社,東京都,足立区,梅島３丁目３３番１８－４Ｆ,,13,121,1210816,,,,,,,2023-03-17,1,,,,,ブレイヴ,0
1439,6012705002347,新規,0,2023-03-17,2023-03-17,医療法人社団藤希会,,その他の設立登記法人,東京都,小平市,花小金井南町１丁目１５番２９号,,13,211,1870003,,,,,,,2023-03-17,1,,,,,フジキカイ,0
1449,6020001150712,新規,0,2023-03-17,2023-03-17,ＩＤＬ株式会社,,株式会社,神奈川県,横浜市都筑区,南山田町４２７９番地３ＭＩＮＡＭＩ１０１,,14,118,2240026,,,,,,,2023-03-17,1,,,,,アイディーエル,0
1450,6020001150720,新規,0,2023-03-17,2023-03-17,ＩＴＯ　ＢＲＡＳＩＬ　ＧＲＵＰＯ株式会社,,株式会社,神奈川県,横浜市保土ケ谷区,常盤台５３番１‐３０５号,,14,106,2400067,,,,,,,2023-03-17,1,,,,,イトウブラジルグループ,0
1452,6020003023536,新規,0,2023-03-17,2023-03-17,ＭＵＳＵＢＩパートナーズ合同会社,,合同会社,神奈川県,横浜市泉区,白百合３丁目１４番１０号,,14,116,2450005,,,,,,,2023-03-17,1,,,,,ムスビパートナーズ,0
1453,6020003023544,新規,0,2023-03-17,2023-03-17,合同会社彦星,,合同会社,神奈川県,川崎市川崎区,桜本２丁目１７番４号,,14,131,2100833,,,,,,,2023-03-17,1,,,,,ヒコボシ,0
1456,6021001078456,新規,0,2023-03-17,2023-03-17,株式会社ＤＨ近藤商店,,株式会社,神奈川県,横須賀市,鴨居２丁目８０番３８号,,14,201,2390813,,,,,,,2023-03-17,1,,,,,ディーエイチコンドウショウテン,0
1457,6021001078472,新規,0,2023-03-17,2023-03-17,株式会社Ｆａｃｔ,,株式会社,神奈川県,藤沢市,大庭５２４７番地の１６,,14,205,2510861,,,,,,,2023-03-17,1,,,,,ファクト,0
1471,6030001152889,新規,0,2023-03-17,2023-03-17,元新貿易株式会社,,株式会社,埼玉県,志木市,幸町１丁目８番４０－５１３号,,11,228,3530005,,,,,,,2023-03-17,1,,,,,ゲンシンボウエキ,0
1472,6030001152906,新規,0,2023-03-17,2023-03-17,株式会社三妻,,株式会社,埼玉県,所沢市,松が丘２丁目５０番地９,,11,208,3591132,,,,,,,2023-03-17,1,,,,,ミツマ,0
1476,6030003021398,新規,0,2023-03-17,2023-03-17,合同会社Ｋ‐ＳＴＹＬＥ,,合同会社,埼玉県,さいたま市大宮区,下町３丁目７番地１Ｆ５１４号,,11,103,3300844,,,,,,,2023-03-17,1,,,,,ケースタイル,0
1477,6030005021173,新規,0,2023-03-17,2023-03-17,一般社団法人おかえり集学校,,その他の設立登記法人,埼玉県,さいたま市緑区,大字三室５０番地１１４,,11,109,3360911,,,,,,,2023-03-17,1,,,,,オカエリシュウガッコウ,0
1482,6040001127493,新規,0,2023-03-17,2023-03-17,株式会社ＣＡＲＰＡ,,株式会社,千葉県,船橋市,二和東６丁目４３番地９レピュート５・２０３,,12,204,2740805,,,,,,,2023-03-17,1,,,,,カルパ,0
1483,6040001127510,新規,0,2023-03-17,2023-03-17,ラッキープランニング株式会社,,株式会社,千葉県,浦安市,高洲３丁目２１番１号,,12,227,2790023,,,,,,,2023-03-17,1,,,,,ラッキープランニング,0
1484,6040001127543,新規,0,2023-03-17,2023-03-17,テックアシスト株式会社,,株式会社,千葉県,柏市,新柏４丁目１番地２９,,12,217,2770084,,,,,,,2023-03-17,1,,,,,テックアシスト,0
1485,6040001127551,新規,0,2023-03-17,2023-03-17,ファストエレガント株式会社,,株式会社,千葉県,松戸市,上本郷６１８－１マンション第八松戸３１５号,,12,207,2710064,,,,,,,2023-03-17,1,,,,,ファストエレガント,0
1489,6040003022189,新規,0,2023-03-17,2023-03-17,銭多多合同会社,,合同会社,千葉県,館山市,北条２１９４番地の１ティーズアパートメント１Ｒ,,12,205,2940045,,,,,,,2023-03-17,1,,,,,センタタ,0
1490,6040003022197,新規,0,2023-03-17,2023-03-17,Ｍａｎａｍｅ　Ｉｎｔｅｒｎａｔｉｏｎａｌ合同会社,,合同会社,千葉県,富里市,中沢字滝台６５１番２,,12,233,2860222,,,,,,,2023-03-17,1,,,,,マナメインターナショナル,0
1491,6040005021932,新規,0,2023-03-17,2023-03-17,一般社団法人ＳＡＬＵＴＥ・健康増進イタリア料理協会,,その他の設立登記法人,千葉県,千葉市美浜区,打瀬３丁目１番地３ブエナテラーサＡ－２０３号,,12,106,2610013,,,,,,,2023-03-17,1,,,,,サルーテケンコウゾウシンイタリアリョウリキョウカイ,0
1504,6080401026382,新規,0,2023-03-17,2023-03-17,株式会社リニューアルワーク,,株式会社,静岡県,浜松市東区,上西町５６番地の７,,22,132,4350048,,,,,,,2023-03-17,1,,,,,リニューアルワーク,0
1507,6100005012982,新規,0,2023-03-17,2023-03-17,特定非営利活動法人ＪＡＺＺＹ　ＤＯＧ　ＬＩＦＥ,,その他の設立登記法人,長野県,小県郡長和町,長久保１４９７番地,,20,350,3860602,,,,,,,2023-03-17,1,,,,,ジャジードッグライフ,0
1512,6120001253208,新規,0,2023-03-17,2023-03-17,錦星貿易株式会社,,株式会社,大阪府,大阪市大正区,三軒家西３丁目４番１６号中山ビル２１０Ｂ,,27,108,5510001,,,,,,,2023-03-17,1,,,,,キンセイボウエキ,0
1513,6120001253240,新規,0,2023-03-17,2023-03-17,株式会社ＴＭＣ経営事務所,,株式会社,大阪府,大阪市北区,天神西町８番１４号,,27,127,5300045,,,,,,,2023-03-17,1,,,,,ティエムシィケイエイジムショ,0
1514,6120001253323,新規,0,2023-03-17,2023-03-17,株式会社Ｇ２,,株式会社,大阪府,大阪市中央区,北久宝寺町１丁目５番１５－８０５号,,27,128,5410057,,,,,,,2023-03-17,1,,,,,ジーツー,0
1515,6120001253348,新規,0,2023-03-17,2023-03-17,関綺株式会社,,株式会社,大阪府,大阪市住吉区,長居東４丁目１５－２１－２０２,,27,120,5580004,,,,,,,2023-03-17,1,,,,,カンキ,0
1516,6120001253356,新規,0,2023-03-17,2023-03-17,株式会社リアルスター,,株式会社,大阪府,大阪市中央区,内淡路町２丁目３番１４号,,27,128,5400038,,,,,,,2023-03-17,1,,,,,リアルスター,0
1519,6120003023625,新規,0,2023-03-17,2023-03-17,ＨＬ合同会社,,合同会社,大阪府,大阪市生野区,新今里３丁目１９番７号相愛マンション１２号,,27,116,5440001,,,,,,,2023-03-17,1,,,,,エイチエル,0
1524,6120101067152,新規,0,2023-03-17,2023-03-17,株式会社ＭＥＴＡＸ１,,株式会社,大阪府,泉佐野市,りんくう往来北１番地ＳｉＳりんくうタワー１４階１４０７号,,27,213,5980048,,,,,,,2023-03-17,1,,,,,メタエックスワン,0
1525,6120101067160,新規,0,2023-03-17,2023-03-17,株式会社センシンイングリッシュクラブ,,株式会社,大阪府,堺市南区,晴美台１丁３１番１号,,27,145,5900113,,,,,,,2023-03-17,1,,,,,センシンイングリッシュクラブ,0
1529,6130001073893,新規,0,2023-03-17,2023-03-17,株式会社一喜,,株式会社,京都府,京都市右京区,西京極東池田町３７番地,,26,108,6150805,,,,,,,2023-03-17,1,,,,,イッキ,0
1537,6140001129463,新規,0,2023-03-17,2023-03-17,株式会社豐広,,株式会社,兵庫県,神崎郡福崎町,西田原１２０９番地１,,28,443,6792204,,,,,,,2023-03-17,1,,,,,トヨヒロ,0
1544,6140003018846,新規,0,2023-03-17,2023-03-17,合同会社千葉殖産,,合同会社,兵庫県,尼崎市,塚口町１丁目１６番６号,,28,202,6610002,,,,,,,2023-03-17,1,,,,,チバショクサン,0
1546,6150001026239,新規,0,2023-03-17,2023-03-17,株式会社ｍｉＸａｓ,,株式会社,奈良県,生駒郡安堵町,大字窪田１１３４番地の１,,29,345,6391064,,,,,,,2023-03-17,1,,,,,ミクサス,0
1547,6150003002907,新規,0,2023-03-17,2023-03-17,木村商會合同会社,,合同会社,奈良県,吉野郡吉野町,大字入野７５１番地の１,,29,441,6393431,,,,,,,2023-03-17,1,,,,,キムラショウカイ,0
1550,6170001017509,新規,0,2023-03-17,2023-03-17,同天株式会社,,株式会社,和歌山県,西牟婁郡白浜町,３１４８番地５,,30,401,6492211,,,,,,,2023-03-17,1,,,,,ドウテン,0
1556,6180001155407,新規,0,2023-03-17,2023-03-17,株式会社旬楽膳ホールディングス,,株式会社,愛知県,一宮市,大和町氏永字仲林１４０番地１,,23,203,4910923,,,,,,,2023-03-17,1,,,,,シュンラクゼンホールディングス,0
1564,6180005020136,新規,0,2023-03-17,2023-03-17,社会保険労務士法人オムニ,,その他の設立登記法人,愛知県,名古屋市東区,東桜１丁目１３番３号ＮＨＫ名古屋放送センタービル１２階,,23,102,4610005,,,,,,,2023-03-17,1,,,,,オムニ,0
1565,6180301037206,新規,0,2023-03-17,2023-03-17,株式会社シャイニング,,株式会社,愛知県,岡崎市,若松町字横手８番地１,,23,202,4440826,,,,,,,2023-03-17,1,,,,,シャイニング,0
1570,6190001030253,新規,0,2023-03-17,2023-03-17,株式会社ケアプラン光,,株式会社,三重県,伊賀市,小田町１３７３番地の２９,,24,216,5180825,,,,,,,2023-03-17,1,,,,,ケアプランヒカリ,0
1578,6240001061219,新規,0,2023-03-17,2023-03-17,株式会社博信,,株式会社,広島県,広島市中区,弥生町４番７－４０１号,,34,101,7300023,,,,,,,2023-03-17,1,,,,,ヒロシン,0
1579,6240001061235,新規,0,2023-03-17,2023-03-17,株式会社青葉,,株式会社,広島県,安芸郡坂町,坂西３丁目４番７－２号,,34,309,7314314,,,,,,,2023-03-17,1,,,,,アオバ,0
1583,6240003006056,新規,0,2023-03-17,2023-03-17,合同会社束力,,合同会社,広島県,広島市中区,袋町５－３５－１４０２号,,34,101,7300036,,,,,,,2023-03-17,1,,,,,タバリキ,0
1586,6260001037745,新規,0,2023-03-17,2023-03-17,ＡＮＣＨＯＲ株式会社,,株式会社,岡山県,岡山市南区,浦安本町８５－２,,33,104,7028026,,,,,,,2023-03-17,1,,,,,アンカー,0
1589,6290001100938,新規,0,2023-03-17,2023-03-17,株式会社Ｆｌａｔ　Ｈｉｌｌ　Ｊａｐａｎ,,株式会社,福岡県,福岡市東区,香住ヶ丘４丁目２２番２６－２号,,40,131,8130003,,,,,,,2023-03-17,1,,,,,フラットヒルジャパン,0
1591,6290003013667,新規,0,2023-03-17,2023-03-17,合同会社Ｍセラヴィ,,合同会社,福岡県,福岡市南区,南大橋１丁目１６番３２－７１０号パークハイム大橋,,40,134,8150034,,,,,,,2023-03-17,1,,,,,エムセラヴィ,0
1592,6290003013675,新規,0,2023-03-17,2023-03-17,合同会社ながた会計,,合同会社,福岡県,福岡市早良区,西新５丁目１５‐２８‐３０３,,40,137,8140002,,,,,,,2023-03-17,1,,,,,ナガタカイケイ,0
1593,6290003013683,新規,0,2023-03-17,2023-03-17,合同会社ＲＩＭＳ,,合同会社,福岡県,福岡市博多区,元町２丁目６番１－４０６号,,40,132,8120877,,,,,,,2023-03-17,1,,,,,リムス,0
1597,6320001019638,新規,0,2023-03-17,2023-03-17,株式会社ＹＲＭ,,株式会社,大分県,中津市,１５番地,,44,203,8710099,,,,,,,2023-03-17,1,,,,,ワイアールエム,0
1601,6340003004074,新規,0,2023-03-17,2023-03-17,Ｍｅｌｌｏｗ　Ａｍａｍｉ合同会社,,合同会社,鹿児島県,大島郡龍郷町,中勝１３４０番地１３,,46,527,8940106,,,,,,,2023-03-17,1,,,,,メロウアマミ,0
1606,6370005010605,新規,0,2023-03-17,2023-03-17,一般社団法人東北シティジャズヒストリー,,その他の設立登記法人,宮城県,仙台市青葉区,一番町４丁目４番１７号,,04,101,9800811,,,,,,,2023-03-17,1,,,,,トウホクシティジャズヒストリー,0
1610,6380003005416,新規,0,2023-03-17,2023-03-17,合同会社一輝コーポレーション,,合同会社,福島県,いわき市,勿来町酒井関根３５番地の６,,07,204,9790142,,,,,,,2023-03-17,1,,,,,イッキコーポレーション,0
1611,6400005008307,新規,0,2023-03-17,2023-03-17,特定非営利活動法人大船渡市リアス総合研究所,,その他の設立登記法人,岩手県,大船渡市,大船渡町字上山７番地４,,03,203,0220002,,,,,,,2023-03-17,1,,,,,オオフナトシリアスソウゴウケンキュウジョ,0
1613,6420001018191,新規,0,2023-03-17,2023-03-17,株式会社４２Ｌｉｎｅ,,株式会社,青森県,弘前市,大字樹木４丁目１番地２６,,02,202,0368228,,,,,,,2023-03-17,1,,,,,フォーティトゥライン,0
1617,6430001088647,新規,0,2023-03-17,2023-03-17,ＲＳ株式会社,,株式会社,北海道,札幌市南区,川沿六条４丁目３番２０号２０１,,01,106,0050806,,,,,,,2023-03-17,1,,,,,アールエス,0
1618,6430003014832,新規,0,2023-03-17,2023-03-17,合同会社ＮＯＲＴＨ　ＢＡＳＥ　ＣＯＭＰＡＮＹ,,合同会社,北海道,札幌市東区,北三十九条東２１丁目２番７０号,,01,103,0070839,,,,,,,2023-03-17,1,,,,,ノースベースカンパニー,0
1619,6430003014840,新規,0,2023-03-17,2023-03-17,合同会社アルフレッド,,合同会社,北海道,札幌市西区,発寒六条１４丁目１４番３７号,,01,107,0630826,,,,,,,2023-03-17,1,,,,,アルフレッド,0
1622,6450001013925,新規,0,2023-03-17,2023-03-17,株式会社山崎農園,00129785,株式会社,北海道,深川市,音江町字稲田１２３３番地２,,01,228,0741276,,,,,,,2023-03-17,1,,,,,ヤマザキノウエン,0
1627,6700150040323,新規,0,2023-03-17,2015-10-09,山形県町村会,,その他,山形県,山形市,松波４丁目１－１５,,06,201,9900023,,,,,,,2015-10-09,1,,,,,ヤマガタケンチヨウソンカイ,0
1629,6700150114853,新規,0,2023-03-17,2023-03-17,Ｇｕａｎｇｚｈｏｕ　Ｔａｉｅｎ　Ｔｅｃｈｎｌｇｙ　Ｃｏ．，Ｌｔｄ,,外国会社等,,,,,,,,Ｇｕａｎｇｚｈｏｕｓｈｉ　Ｈｕａｎｇｐｕｑｕ　Ｒｕｉｆｅｎｇｓａｎｊｉｅ２ｈａｏ　１１２６,,,,,,2023-03-17,1,,,,,コウシユウタイオンテクノロシカンパニーリミテド,0
1646,7010401173107,新規,0,2023-03-17,2023-03-17,株式会社ｅｖｏ,,株式会社,東京都,港区,新橋６丁目５番４号ＤＩＫマンション新橋８１１,,13,103,1050004,,,,,,,2023-03-17,1,,,,,エヴォ,0
1647,7010401173189,新規,0,2023-03-17,2023-03-17,株式会社Ａｓｔｏｎ　Ｐａｒｔｎｅｒｓ,,株式会社,東京都,港区,海岸１丁目９番１４号,,13,103,1050022,,,,,,,2023-03-17,1,,,,,アストンパートナーズ,0
1650,7010601062778,新規,0,2023-03-17,2023-03-17,株式会社ＴＨＥ　ＳＵＮ,,株式会社,東京都,江東区,扇橋１丁目１９番１号,,13,108,1350011,,,,,,,2023-03-17,1,,,,,ザサン,0
1651,7010601062786,新規,0,2023-03-17,2023-03-17,株式会社Ｈｅｒｏｗ,,株式会社,東京都,墨田区,江東橋１丁目２番４－７０２号,,13,107,1300022,,,,,,,2023-03-17,1,,,,,ヒーロー,0
1657,7010901052727,新規,0,2023-03-17,2023-03-17,ＩＳサーティフィケーション株式会社,,株式会社,東京都,世田谷区,奥沢１丁目２８番７号,,13,112,1580083,,,,,,,2023-03-17,1,,,,,アイエスサーティフィケーション,0
1663,7011001153102,新規,0,2023-03-17,2023-03-17,吉本浜実株式会社,,株式会社,東京都,渋谷区,千駄ヶ谷３丁目１２－１ＴＨＥＫＩＴＡ２０２号室,,13,113,1510051,,,,,,,2023-03-17,1,,,,,ヨシモトハマミ,0
1664,7011001153201,新規,0,2023-03-17,2023-03-17,株式会社８８,,株式会社,東京都,渋谷区,猿楽町３０番３号,,13,113,1500033,,,,,,,2023-03-17,1,,,,,ハチハチ,0
1665,7011001153242,新規,0,2023-03-17,2023-03-17,株式会社Ｊａｅｇｅｒ,,株式会社,東京都,渋谷区,富ヶ谷２丁目３０番４号,,13,113,1510063,,,,,,,2023-03-17,1,,,,,イェーガー,0
1675,7011101102198,新規,0,2023-03-17,2023-03-17,株式会社エスプラス,,株式会社,東京都,新宿区,四谷三栄町１－１四谷Ｎクラブ２０４,,13,104,1600008,,,,,,,2023-03-17,1,,,,,エスプラス,0
1677,7011105010587,新規,0,2023-03-17,2023-03-17,一般社団法人三陽会,,その他の設立登記法人,東京都,新宿区,新宿４丁目２番２１号相模ビル７階,,13,104,1600022,,,,,,,2023-03-17,1,,,,,サンヨウカイ,0
1681,7011401024984,新規,0,2023-03-17,2023-03-17,株式会社Ｄ‐ｓｅｌｅｃｔ,,株式会社,東京都,板橋区,徳丸３丁目１５番２号３０２,,13,119,1750083,,,,,,,2023-03-17,1,,,,,ディーセレクト,0
1682,7011405002235,新規,0,2023-03-17,2023-03-17,歌舞伎町タウン・マネージメント労働組合,,その他の設立登記法人,東京都,板橋区,高島平９丁目２番２０－１４０５号,,13,119,1750082,,,,,,,2023-03-17,1,,,,,カブキチョウタウンマネージメント,0
1688,7011703003414,新規,0,2023-03-17,2023-03-17,合同会社そらいろ,,合同会社,東京都,江戸川区,小松川１丁目５番１０－２３０５号,,13,123,1320034,,,,,,,2023-03-17,1,,,,,ソライロ,0
1692,7011801042099,新規,0,2023-03-17,2023-03-17,株式会社ＬＵＣＥ,,株式会社,東京都,足立区,鹿浜３丁目７番１３号,,13,121,1230864,,,,,,,2023-03-17,1,,,,,ルーチェ,0
1712,7020001150711,新規,0,2023-03-17,2023-03-17,オーカス株式会社,,株式会社,神奈川県,横浜市西区,北幸１丁目１１番１号水信ビル７階,,14,103,2200004,,,,,,,2023-03-17,1,,,,,オーカス,0
1716,7020003023535,新規,0,2023-03-17,2023-03-17,合同会社Ｓｉｘｍａｎ　Ｃｏｎｓｕｌｔａｎｔ,,合同会社,神奈川県,横浜市港北区,大豆戸町１２８番地３－３０２,,14,109,2220032,,,,,,,2023-03-17,1,,,,,シックスマンコンサルタント,0
1717,7020003023543,新規,0,2023-03-17,2023-03-17,玉＿合同会社,00129787,合同会社,神奈川県,川崎市幸区,下平間字宮前耕地２０７番地１０,,14,132,2120053,,,,,,,2023-03-17,1,,,,,タマキン,0
1718,7020003023551,新規,0,2023-03-17,2023-03-17,ビジィモア合同会社,,合同会社,神奈川県,川崎市多摩区,登戸３１４７グランドゥール登戸２０３,,14,135,2140014,,,,,,,2023-03-17,1,,,,,ビジィモア,0
1721,7021001078447,新規,0,2023-03-17,2023-03-17,株式会社快,,株式会社,神奈川県,平塚市,河内４４５－２－１０１,,14,203,2540903,,,,,,,2023-03-17,1,,,,,カイ,0
1722,7021001078455,新規,0,2023-03-17,2023-03-17,雍蘭株式会社,,株式会社,神奈川県,秦野市,本町３丁目８番１３号,,14,211,2570035,,,,,,,2023-03-17,1,,,,,ヨウラン,0
1736,7030001152863,新規,0,2023-03-17,2023-03-17,株式会社ゼーゲル,,株式会社,埼玉県,さいたま市緑区,大字三室９９１番地３,,11,109,3360911,,,,,,,2023-03-17,1,,,,,ゼーゲル,0
1741,7030003021380,新規,0,2023-03-17,2023-03-17,合同会社インフィニティー,,合同会社,埼玉県,羽生市,大字中岩瀬１０５９－４,,11,216,3480046,,,,,,,2023-03-17,1,,,,,インフィニティー,0
1742,7030003021389,新規,0,2023-03-17,2023-03-17,合同会社梅ノ木システムラボ,,合同会社,埼玉県,新座市,大和田１丁目１５番３号,,11,230,3520004,,,,,,,2023-03-17,1,,,,,ウメノキシステムラボ,0
1746,7040001127518,新規,0,2023-03-17,2023-03-17,株式会社ながいき農園,,株式会社,千葉県,長生郡長南町,須田投松６４番４,,12,427,2970111,,,,,,,2023-03-17,1,,,,,ナガイキノウエン,0
1748,7040003022205,新規,0,2023-03-17,2023-03-17,合同会社ハーモニー,,合同会社,千葉県,白井市,根４３５番地の４１,,12,232,2701431,,,,,,,2023-03-17,1,,,,,ハーモニー,0
1752,7050003007304,新規,0,2023-03-17,2023-03-17,合同会社ｃａｔｈａｎｄｙ,,合同会社,茨城県,行方市,小牧５２６番地１,,08,233,3113816,,,,,,,2023-03-17,1,,,,,キャットハンディ,0
1765,7080403004757,新規,0,2023-03-17,2023-03-17,合同会社Ｌｉｃ,,合同会社,静岡県,浜松市南区,瓜内町６３１番地の４,,22,134,4300854,,,,,,,2023-03-17,1,,,,,リック,0
1771,7100001036233,新規,0,2023-03-17,2023-03-17,株式会社ＶａｓｅＨｏｕｓｅ,,株式会社,長野県,大町市,大町２３２２番地,,20,212,3980002,,,,,,,2023-03-17,1,,,,,ヴェイスハウス,0
1780,7120001253207,新規,0,2023-03-17,2023-03-17,風域株式会社,,株式会社,大阪府,大阪市大正区,三軒家西３丁目４番１６号中山ビル２０３Ａ,,27,108,5510001,,,,,,,2023-03-17,1,,,,,フウイキ,0
1781,7120001253223,新規,0,2023-03-17,2023-03-17,ラッキー株式会社,,株式会社,大阪府,大阪市中央区,船場中央２丁目１番４号船場センタービル４号館地下一階Ｂ１０８ＲＯＹＡＬＯＦＦＩＣＥ内,,27,128,5410055,,,,,,,2023-03-17,1,,,,,ラッキー,0
1782,7120001253248,新規,0,2023-03-17,2023-03-17,株式会社タレントキャリア,,株式会社,大阪府,大阪市中央区,北浜２丁目６番１８号淀屋橋スクエア８階,,27,128,5410041,,,,,,,2023-03-17,1,,,,,タレントキャリア,0
1783,7120001253264,新規,0,2023-03-17,2023-03-17,株式会社ｅｔｅｒｎｉｔａ　Ｇｒｏｕｐ,,株式会社,大阪府,大阪市東成区,玉津１丁目４番４号エムロード玉造６０５号,,27,115,5370023,,,,,,,2023-03-17,1,,,,,エテルニータグループ,0
1784,7120001253280,新規,0,2023-03-17,2023-03-17,株式会社リノベル不動産,,株式会社,大阪府,大阪市西区,江之子島１丁目６番２号,,27,106,5500006,,,,,,,2023-03-17,1,,,,,リノベルフドウサン,0
1785,7120001253297,新規,0,2023-03-17,2023-03-17,ザイドリッツ株式会社,,株式会社,大阪府,大阪市北区,東天満１丁目１１番１５号,,27,127,5300044,,,,,,,2023-03-17,1,,,,,ザイドリッツ,0
1788,7120003023624,新規,0,2023-03-17,2023-03-17,エイトライズ合名会社,,合名会社,大阪府,大阪市大正区,泉尾２丁目１７番４号,,27,108,5510031,,,,,,,2023-03-17,1,,,,,エイトライズ,0
1789,7120003023640,新規,0,2023-03-17,2023-03-17,合同会社みずき,,合同会社,大阪府,枚方市,伊加賀北町４番２４号,,27,210,5730036,,,,,,,2023-03-17,1,,,,,ミズキ,0
1798,7130001073892,新規,0,2023-03-17,2023-03-17,株式会社ＩＮ‐ＳＴＲＵＣＴ,,株式会社,京都府,京都市中京区,柳水町８４三洋六角ビル５０４,,26,104,6048242,,,,,,,2023-03-17,1,,,,,インストラクト,0
1801,7130003008590,新規,0,2023-03-17,2023-03-17,合同会社松永インベスト,,合同会社,京都府,京都市右京区,鳴滝藤ノ木町１０番地の１５,,26,108,6168244,,,,,,,2023-03-17,1,,,,,マツナガインベスト,0
1816,7140003018853,新規,0,2023-03-17,2023-03-17,合同会社上坂部主計研究所,,合同会社,兵庫県,神戸市垂水区,塩屋町５丁目７番１５号,,28,108,6550872,,,,,,,2023-03-17,1,,,,,カミサカベシュケイケンキュウショ,0
1818,7140005026524,新規,0,2023-03-17,2023-03-17,一般社団法人ソーシャルイノベーション,,その他の設立登記法人,兵庫県,姫路市,広畑区東新町３丁目３番地２,,28,201,6711121,,,,,,,2023-03-17,1,,,,,ソーシャルイノベーション,0
1819,7150003002906,新規,0,2023-03-17,2023-03-17,合同会社Ｈａｒｉｅ’ｓ　ａｎｄ　Ｂ,,合同会社,奈良県,磯城郡三宅町,大字石見１２２－７３,,29,362,6360212,,,,,,,2023-03-17,1,,,,,ハリーズアンドビー,0
1830,7180001155406,新規,0,2023-03-17,2023-03-17,エスケイ株式会社,,株式会社,愛知県,東海市,加木屋町鎌吉良根３３番地４１１,,23,222,4770032,,,,,,,2023-03-17,1,,,,,エスケイ,0
1837,7180303005655,新規,0,2023-03-17,2023-03-17,新英合同会社,,合同会社,愛知県,豊田市,小川町２丁目４１番地４エスペランサ燈１０２号,,23,211,4710857,,,,,,,2023-03-17,1,,,,,シンエイ,0
1843,7220001025315,新規,0,2023-03-17,2023-03-17,株式会社ステファニー,,株式会社,石川県,金沢市,森山１丁目２番１号２１６,,17,201,9200843,,,,,,,2023-03-17,1,,,,,ステファニー,0
1848,7250001020008,新規,0,2023-03-17,2023-03-17,株式会社アドバンス,,株式会社,山口県,下松市,大字末武上５７１番地２,,35,207,7440024,,,,,,,2023-03-17,1,,,,,アドバンス,0
1849,7260003004247,新規,0,2023-03-17,2023-03-17,合同会社ネイチャー,,合同会社,岡山県,岡山市北区,表町３丁目１８－５２吉本ビル２Ｆ,,33,101,7000822,,,,,,,2023-03-17,1,,,,,ネイチャー,0
1852,7290003013658,新規,0,2023-03-17,2023-03-17,合同会社Ｌｉｌｙ,,合同会社,福岡県,福岡市博多区,金の隈３丁目５番２５号,,40,132,8120863,,,,,,,2023-03-17,1,,,,,リリー,0
1853,7290003013682,新規,0,2023-03-17,2023-03-17,合同会社レスペシュミ,,合同会社,福岡県,大牟田市,大字三池９５１番地１,,40,202,8370921,,,,,,,2023-03-17,1,,,,,レスペシュミ,0
1862,7330001030691,新規,0,2023-03-17,2023-03-17,株式会社積,,株式会社,熊本県,熊本市中央区,新大江３丁目１３番５１－２０５号,,43,101,8620972,,,,,,,2023-03-17,1,,,,,セキ,0
1867,7340001025443,新規,0,2023-03-17,2023-03-17,株式会社ＭＩＴＡ　ＲＥＡＬＴＹ,,株式会社,鹿児島県,鹿児島市,星ヶ峯６丁目１９番地２,,46,201,8910102,,,,,,,2023-03-17,1,,,,,ミタリアリティ,0
1873,7370001049720,新規,0,2023-03-17,2023-03-17,株式会社小池コンサル＆コーチング,,株式会社,宮城県,仙台市太白区,西中田４丁目１３番２４号,,04,104,9811105,,,,,,,2023-03-17,1,,,,,コイケコンサルアンドコーチング,0
1874,7370001049729,新規,0,2023-03-17,2023-03-17,ＳＤＫ株式会社,,株式会社,宮城県,仙台市泉区,館２丁目１４番地の１１,,04,105,9813214,,,,,,,2023-03-17,1,,,,,エスディーケー,0
1880,7400005008306,新規,0,2023-03-17,2023-03-17,農事組合法人仏坂仙翁水の里,,その他の設立登記法人,岩手県,一関市,千厩町磐清水字上関代３番地,,03,209,0290804,,,,,,,2023-03-17,1,,,,,ホトケザカセンノウスイノサト,0
1882,7410001013424,新規,0,2023-03-17,2023-03-17,株式会社根本設備工業,,株式会社,秋田県,大館市,清水３丁目２番６５－１０号,,05,204,0170046,,,,,,,2023-03-17,1,,,,,ネモトセツビコウギョウ,0
1887,7430001088646,新規,0,2023-03-17,2023-03-17,株式会社オーセン,,株式会社,北海道,札幌市中央区,大通西１５丁目３番地１３,,01,101,0600042,,,,,,,2023-03-17,1,,,,,オーセン,0
1888,7430001088654,新規,0,2023-03-17,2023-03-17,ワイズオート株式会社,,株式会社,北海道,札幌市北区,太平十二条５丁目５番１３号,,01,102,0028012,,,,,,,2023-03-17,1,,,,,ワイズオート,0
1889,7430001088662,新規,0,2023-03-17,2023-03-17,株式会社Ｏ．ｉ．ａ,,株式会社,北海道,札幌市中央区,南一条西１１丁目３２７－１２センターパーキングビル５０２号,,01,101,0600061,,,,,,,2023-03-17,1,,,,,イア,0
1892,7430005014656,新規,0,2023-03-17,2023-03-17,医療法人社団ゆめみレディースクリニック,,その他の設立登記法人,北海道,札幌市西区,琴似二条５丁目１番３号琴似パークマンション２階,,01,107,0630812,,,,,,,2023-03-17,1,,,,,ユメミレディースクリニック,0
1893,7430005014664,新規,0,2023-03-17,2023-03-17,一般社団法人情報メッセージアシストサポート協議会,,その他の設立登記法人,北海道,札幌市中央区,南六条西２６丁目３番１７号マンション秀峰２０３号,,01,101,0640806,,,,,,,2023-03-17,1,,,,,ジョウホウメッセージアシストサポートキョウギカイ,0
1894,7460101007354,新規,0,2023-03-17,2023-03-17,株式会社スタートゴー,,株式会社,北海道,河東郡上士幌町,字上士幌東２線２３７番６,,01,633,0801408,,,,,,,2023-03-17,1,,,,,スタートゴー,0
1895,7460103001520,新規,0,2023-03-17,2023-03-17,ＫＡＴＳＵＲＡＧＩ合同会社,,合同会社,北海道,帯広市,東一条南９丁目１６－１,,01,207,0800801,,,,,,,2023-03-17,1,,,,,カツラギ,0
1903,7700150114852,新規,0,2023-03-17,2023-03-17,Ｓｈｅｎｚｈｅｎ　Ｇｌｏｃｕｓｅｎｔ　Ｔｅｃｈｎｏｌｏｇｙ　Ｃｏ．，Ｌｔｄ,,外国会社等,,,,,,,,Ｒｏｏｍ　１７０３，Ｎｏ．１８８，Ｃｈｕａｎｇｙｅ　２ｎｄ　Ｒｏａｄ，Ｌｉｎｇｚｈｉｙｕａｎ　Ｃｏｍｍｕｎｉｔｙ，Ｘｉｎ’ａｎ　Ｓｔｒｅｅｔ，Ｂａｏ’ａｎ　Ｄｉｓｔｒｉｃｔ，Ｓｈｅｎｚｈｅｎ，Ｇｕａｎｇｄｏｎｇ　Ｐｒｏｖｉｎｃｅ，Ｃｈｉｎａ,,,,,,2023-03-17,1,,,,,シンセンシグロセントテクノロジーカンパニーリミテド,0
1912,8010001233747,新規,0,2023-03-17,2023-03-17,ナディア株式会社,,株式会社,東京都,千代田区,九段南１丁目５－６,,13,101,1020074,,,,,,,2023-03-17,1,,,,,ナディア,0
1916,8010005036394,新規,0,2023-03-17,2023-03-17,一般社団法人ＫＳＴ５,,その他の設立登記法人,東京都,千代田区,内幸町２丁目１番６号,,13,101,1000011,,,,,,,2023-03-17,1,,,,,ケイエスティーファイブ,0
1922,8010403029768,新規,0,2023-03-17,2023-03-17,合同会社ＧＲＡＳＳｉＡ,,合同会社,東京都,港区,南青山２丁目２番１５号,,13,103,1070062,,,,,,,2023-03-17,1,,,,,グラシア,0
1923,8010405021905,新規,0,2023-03-17,2023-03-17,一般社団法人上場インフラファンド協議会,,その他の設立登記法人,東京都,港区,赤坂５丁目２番２０号,,13,103,1070052,,,,,,,2023-03-17,1,,,,,ジョウジョウインフラファンドキョウギカイ,0
1930,8010601062785,新規,0,2023-03-17,2023-03-17,株式会社ＣｈｅｃｋＡｃｔｉｏｎ,,株式会社,東京都,墨田区,両国１丁目３番１１号アオヤギ両国ビル３階,,13,107,1300026,,,,,,,2023-03-17,1,,,,,チェックアクション,0
1936,8010801033784,新規,0,2023-03-17,2023-03-17,ＦＲＰテクノロジー株式会社,,株式会社,東京都,大田区,大森西４丁目１０番８号,,13,111,1430015,,,,,,,2023-03-17,1,,,,,エフアールピーテクノロジー,0
1942,8011001153084,新規,0,2023-03-17,2023-03-17,株式会社Ｌｉｆ,,株式会社,東京都,渋谷区,円山町５番５号Ｎａｖｉ渋谷Ｖ３階,,13,113,1500044,,,,,,,2023-03-17,1,,,,,リーフ,0
1946,8011003016438,新規,0,2023-03-17,2023-03-17,ＫＡＴＡＮＡＹＡデザイン合同会社,,合同会社,東京都,目黒区,上目黒３丁目４４番１８号,,13,110,1530051,,,,,,,2023-03-17,1,,,,,カタナヤデザイン,0
1948,8011101102189,新規,0,2023-03-17,2023-03-17,株式会社ＤＥＶＬＯＸ,,株式会社,東京都,新宿区,西新宿３丁目３番１３号西新宿水間ビル２Ｆ,,13,104,1600023,,,,,,,2023-03-17,1,,,,,デブロックス,0
1949,8011101102197,新規,0,2023-03-17,2023-03-17,株式会社サウスエージェンシー,,株式会社,東京都,新宿区,西新宿３丁目３番１３号西新宿水間ビル６階,,13,104,1600023,,,,,,,2023-03-17,1,,,,,サウスエージェンシー,0
1952,8011501029065,新規,0,2023-03-17,2023-03-17,株式会社ＡｒｃｈｉｔｅｃｔｕｒｅＴｅａｍ,,株式会社,東京都,荒川区,東尾久２丁目１０－１７,,13,118,1160012,,,,,,,2023-03-17,1,,,,,アーキテクチャーチーム,0
1955,8012305002043,新規,0,2023-03-17,2023-03-17,医療法人社団桂花会,,その他の設立登記法人,東京都,町田市,大蔵町５００２番地２鶴川メディカルモール１階１０３号室,,13,209,1950062,,,,,,,2023-03-17,1,,,,,ケイカカイ,0
1970,8020001150628,新規,0,2023-03-17,2023-03-17,株式会社Ｚ　Ｍａｒｋｅｔｉｎｇ,,株式会社,神奈川県,横浜市中区,扇町１丁目１番地２５キンガビル,,14,104,2310027,,,,,,,2023-03-17,1,,,,,ゼットマーケティング,0
1971,8020001150710,新規,0,2023-03-17,2023-03-17,ＴＳＫＨＤ株式会社,,株式会社,神奈川県,横浜市金沢区,幸浦２丁目１５番地７,,14,108,2360003,,,,,,,2023-03-17,1,,,,,ティーエスケーエイチディー,0
1974,8021001078446,新規,0,2023-03-17,2023-03-17,株式会社東林間テニスクラブ,,株式会社,神奈川県,相模原市南区,上鶴間６丁目６番２６号,,14,153,2520302,,,,,,,2023-03-17,1,,,,,ヒガシリンカンテニスクラブ,0
1975,8021003012881,新規,0,2023-03-17,2023-03-17,合同会社エムズ興業,,合同会社,神奈川県,大和市,中央５丁目７番２５号ニッパーマンション１０４,,14,213,2420021,,,,,,,2023-03-17,1,,,,,エムズコウギョウ,0
1976,8021005012756,新規,0,2023-03-17,2023-03-17,医療法人ＧＯＯＤ　Ｔ,,その他の設立登記法人,神奈川県,横須賀市,馬堀町４丁目６番５号,,14,201,2390802,,,,,,,2023-03-17,1,,,,,グッティー,0
1981,8030001152895,新規,0,2023-03-17,2023-03-17,ＴＲＡＳＴ株式会社,,株式会社,埼玉県,さいたま市桜区,大字塚本４０番地６,,11,106,3380816,,,,,,,2023-03-17,1,,,,,トラスト,0
1982,8030001152937,新規,0,2023-03-17,2023-03-17,株式会社アレストル,,株式会社,埼玉県,さいたま市北区,吉野町１丁目３６４番地５サクラーレ１０５号室,,11,102,3310811,,,,,,,2023-03-17,1,,,,,アレストル,0
1989,8030005021171,新規,0,2023-03-17,2023-03-17,一般社団法人サンズスポーツ＆コミュニケーションズ,,その他の設立登記法人,埼玉県,熊谷市,拾六間１３０－８,,11,202,3600846,,,,,,,2023-03-17,1,,,,,サンズスポーツアンドコミュニケーションズ,0
1995,8040001127517,新規,0,2023-03-17,2023-03-17,株式会社レオ,,株式会社,千葉県,市原市,飯沼１７３番地１明幸１０２,,12,219,2900037,,,,,,,2023-03-17,1,,,,,レオ,0
1996,8040001127558,新規,0,2023-03-17,2023-03-17,株式会社コクア,,株式会社,千葉県,山武市,美杉野４丁目１３番３号,,12,237,2891224,,,,,,,2023-03-17,1,,,,,コクア,0
1997,8040003022170,新規,0,2023-03-17,2023-03-17,合同会社アップツリー,,合同会社,千葉県,千葉市稲毛区,小仲台９丁目３番２４号,,12,103,2630043,,,,,,,2023-03-17,1,,,,,アップツリー,0
1998,8040003022195,新規,0,2023-03-17,2023-03-17,ダイバー合同会社,,合同会社,千葉県,流山市,向小金２丁目４２３番地の１南柏ガーデンヒルズ１０８,,12,220,2700143,,,,,,,2023-03-17,1,,,,,ダイバー,0
1999,8040003022220,新規,0,2023-03-17,2023-03-17,合同会社つちだ,,合同会社,千葉県,木更津市,下郡１７７７－３０,,12,206,2920205,,,,,,,2023-03-17,1,,,,,ツチダ,0
2007,8080001025519,新規,0,2023-03-17,2023-03-17,株式会社ＡＤＴＣ,,株式会社,静岡県,静岡市清水区,谷田１３番１１号,,22,103,4240887,,,,,,,2023-03-17,1,,,,,エーディーティーシー,0
2008,8080003002945,新規,0,2023-03-17,2023-03-17,合同会社イーハイ,,合同会社,静岡県,静岡市駿河区,中田本町３８番７号,,22,102,4228043,,,,,,,2023-03-17,1,,,,,イーハイ,0
2011,8090001018026,新規,0,2023-03-17,2023-03-17,株式会社ＬＩＲＵ,,株式会社,山梨県,甲府市,上石田２丁目３９番２４号ＡＵＧ１Ｆ,,19,201,4000041,,,,,,,2023-03-17,1,,,,,リル,0
2035,8120001253172,新規,0,2023-03-17,2023-03-17,拾星株式会社,,株式会社,大阪府,大阪市港区,市岡元町２丁目６番１１－２０５号,,27,107,5520002,,,,,,,2023-03-17,1,,,,,シュウセイ,0
2036,8120001253321,新規,0,2023-03-17,2023-03-17,富豊株式会社,,株式会社,大阪府,大阪市西成区,岸里東１丁目２９番３－３０３号,,27,122,5570042,,,,,,,2023-03-17,1,,,,,トミトヨ,0
2037,8120001253338,新規,0,2023-03-17,2023-03-17,株式会社エイル,,株式会社,大阪府,大阪市中央区,瓦町３丁目１番３－２８０６号,,27,128,5410048,,,,,,,2023-03-17,1,,,,,エイル,0
2041,8120901047252,新規,0,2023-03-17,2023-03-17,株式会社福寿海,,株式会社,大阪府,高槻市,大字芥川二丁目９－１５,,27,207,5690000,,,,,,,2023-03-17,1,,,,,フクジュカイ,0
2042,8122003002540,新規,0,2023-03-17,2023-03-17,近未来ファーム合同会社,,合同会社,大阪府,八尾市,大字大窪６０７番地,,27,212,5810863,,,,,,,2023-03-17,1,,,,,キンミライファーム,0
2043,8130001073867,新規,0,2023-03-17,2023-03-17,株式会社増本塗装,,株式会社,京都府,京都市山科区,川田土仏１１番地２７,,26,110,6078325,,,,,,,2023-03-17,1,,,,,マスモトトソウ,0
2050,8140001129478,新規,0,2023-03-17,2023-03-17,株式会社ことのは企画,,株式会社,兵庫県,芦屋市,親王塚町１０番２２－３０４号,,28,206,6590016,,,,,,,2023-03-17,1,,,,,コトノハキカク,0
2054,8140003018844,新規,0,2023-03-17,2023-03-17,合同会社クエタ,,合同会社,兵庫県,神戸市東灘区,本山中町２丁目１番２４号,,28,101,6580016,,,,,,,2023-03-17,1,,,,,クエタ,0
2056,8150001026237,新規,0,2023-03-17,2023-03-17,美隆株式会社,,株式会社,奈良県,北葛城郡河合町,大字川合２５８番地,,29,427,6360051,,,,,,,2023-03-17,1,,,,,ミタカ,0
2057,8150003002905,新規,0,2023-03-17,2023-03-17,合同会社ｓｐｒｅａｄｏｕｔ,,合同会社,奈良県,宇陀市,榛原額井２４１番地の６,,29,212,6330208,,,,,,,2023-03-17,1,,,,,スプレッドアウト,0
2059,8160001024909,新規,0,2023-03-17,2023-03-17,株式会社ＲＩＥ　ＴＲＵＳＴ,,株式会社,滋賀県,大津市,穴太１丁目６番１０号,,25,201,5200114,,,,,,,2023-03-17,1,,,,,リエトラスト,0
2077,8180301037195,新規,0,2023-03-17,2023-03-17,株式会社俺の麺処,,株式会社,愛知県,豊橋市,萱町１４番地八　千代ビル４階Ｄ号室,,23,201,4400896,,,,,,,2023-03-17,1,,,,,オレノメンドコロ,0
2078,8180301037204,新規,0,2023-03-17,2023-03-17,株式会社ベルフェイト,,株式会社,愛知県,刈谷市,東刈谷町２丁目３番地８,,23,210,4480807,,,,,,,2023-03-17,1,,,,,ベルフェイト,0
2081,8200003005902,新規,0,2023-03-17,2023-03-17,合同会社中京サービス,,合同会社,岐阜県,羽島市,正木町曲利１３７０番地,,21,209,5016227,,,,,,,2023-03-17,1,,,,,チュウキョウサービス,0
2097,8250001020015,新規,0,2023-03-17,2023-03-17,株式会社ＳＡＫＵＲＡ,,株式会社,山口県,山口市,諸願小路３番地,,35,203,7530084,,,,,,,2023-03-17,1,,,,,サクラ,0
2099,8260003004246,新規,0,2023-03-17,2023-03-17,合同会社五常,,合同会社,岡山県,岡山市東区,松新町１２０番地２０,,33,103,7048174,,,,,,,2023-03-17,1,,,,,ゴジョウ,0
2104,8290001100928,新規,0,2023-03-17,2023-03-17,株式会社建翔,,株式会社,福岡県,那珂川市,片縄２丁目７４番地,,40,231,8111201,,,,,,,2023-03-17,1,,,,,ケンショウ,0
2105,8290001100936,新規,0,2023-03-17,2023-03-17,株式会社ｍｉｏｒｙ,,株式会社,福岡県,福岡市博多区,博多駅前１丁目１５番２０号ＮＭＦ博多駅前ビル２階,,40,132,8120011,,,,,,,2023-03-17,1,,,,,ミオリー,0
2107,8290003013673,新規,0,2023-03-17,2023-03-17,久遠合同会社,,合同会社,福岡県,嘉麻市,山野３２５番地１,,40,227,8200202,,,,,,,2023-03-17,1,,,,,クオン,0
2112,8290801029383,新規,0,2023-03-17,2023-03-17,株式会社花沢不動産,,株式会社,福岡県,北九州市小倉北区,高浜２丁目３番３６号,,40,106,8020021,,,,,,,2023-03-17,1,,,,,ハナザワフドウサン,0
2113,8310001018317,新規,0,2023-03-17,2023-03-17,株式会社ダイワテクノス,,株式会社,長崎県,佐世保市,柚木元町２５４９－１,,42,202,8570115,,,,,,,2023-03-17,1,,,,,ダイワテクノス,0
2118,8350001018239,新規,0,2023-03-17,2023-03-17,株式会社佐藤工業,,株式会社,宮崎県,日向市,比良町１丁目１７番地ＣＵＢＩＣ１棟２０２号,,45,206,8830031,,,,,,,2023-03-17,1,,,,,サトウコウギョウ,0
2122,8370001049703,新規,0,2023-03-17,2023-03-17,株式会社パターソン,,株式会社,宮城県,仙台市太白区,長町２丁目５番１５－２０１号,,04,104,9820011,,,,,,,2023-03-17,1,,,,,パターソン,0
2123,8370003006041,新規,0,2023-03-17,2023-03-17,合同会社はりケア,,合同会社,宮城県,仙台市泉区,八乙女中央１丁目３番地３０号,,04,105,9813135,,,,,,,2023-03-17,1,,,,,ハリケア,0
2125,8380001033549,新規,0,2023-03-17,2023-03-17,株式会社シーズスタイル,,株式会社,福島県,郡山市,三穂田町山口字坂下６０－１,,07,203,9630126,,,,,,,2023-03-17,1,,,,,シーズスタイル,0
2130,8400005008313,新規,0,2023-03-17,2023-03-17,弁護士法人熊谷・岩田法律事務所,,その他の設立登記法人,岩手県,盛岡市,南大通１丁目８番７号ＣＦＣビル３階,,03,201,0200874,,,,,,,2023-03-17,1,,,,,クマガイイワタホウリツジムショ,0
2134,8430001088637,新規,0,2023-03-17,2023-03-17,株式会社ＬＥＡＰ,,株式会社,北海道,札幌市豊平区,平岸三条７丁目１０番８－４０３号,,01,105,0620933,,,,,,,2023-03-17,1,,,,,リープ,0
2135,8430001088645,新規,0,2023-03-17,2023-03-17,株式会社スタンダップ,,株式会社,北海道,札幌市豊平区,月寒東一条１５丁目１２番２０号,,01,105,0620051,,,,,,,2023-03-17,1,,,,,スタンダップ,0
2136,8430001088653,新規,0,2023-03-17,2023-03-17,株式会社ＳＢＳ,,株式会社,北海道,札幌市中央区,北一条西１９丁目２－１緒方ビル６階,,01,101,0600001,,,,,,,2023-03-17,1,,,,,エスビーエス,0
2139,8430003014839,新規,0,2023-03-17,2023-03-17,合同会社弥栄,,合同会社,北海道,札幌市中央区,南四条西２５丁目１‐２５南円山４条シティハウス２０１,,01,101,0640804,,,,,,,2023-03-17,1,,,,,イヤサカ,0
2140,8430003014847,新規,0,2023-03-17,2023-03-17,合同会社ＮｅｗＢｅｌｌ,,合同会社,北海道,札幌市東区,東苗穂十四条１丁目２番５号,,01,103,0070814,,,,,,,2023-03-17,1,,,,,ニューベル,0
2141,8430005014647,新規,0,2023-03-17,2023-03-17,一般社団法人先輩の風の協議会,,その他の設立登記法人,北海道,札幌市南区,南三十四条西１０丁目２番１０号１０１号,,01,106,0050034,,,,,,,2023-03-17,1,,,,,センパイノカゼノキョウギカイ,0
2144,8460101007353,新規,0,2023-03-17,2023-03-17,株式会社とかち野菜急便,,株式会社,北海道,帯広市,西一条南１５丁目１４番地１,,01,207,0800011,,,,,,,2023-03-17,1,,,,,トカチヤサイキュウビン,0
2145,8700150114851,新規,0,2023-03-17,2023-03-17,Ｗｅｎｚｈｏｕ　Ｙｉｎｄｕｏ　Ｌｉｇｈｔｉｎｇ　Ｃｏ．，Ｌｔｄ,,外国会社等,,,,,,,,Ｓｈａｎｇｙａｎｈｏｕ　Ｖｉｌｌａｇｅ，Ｌｉｕｓｈｉ　Ｔｏｗｎ，Ｙｕｅｑｉｎｇ　Ｃｉｔｙ,,,,,,2023-03-17,1,,,,,オンシユウインドライテイングカンパニーリミテド,0
2156,9010001233589,新規,0,2023-03-17,2023-03-17,株式会社ｗｉｚＵ,,株式会社,東京都,千代田区,富士見２丁目１０番３号,,13,101,1020071,,,,,,,2023-03-17,1,,,,,ウィズユー,0
2157,9010001233688,新規,0,2023-03-17,2023-03-17,Ｊａｐａｎ　Ｌａｎｅ　Ｂｉｚ　Ｃｏｎｓｕｌｔａｔｉｏｎ株式会社,,株式会社,東京都,千代田区,四番町４－９新東京国際リーガル内,,13,101,1020081,,,,,,,2023-03-17,1,,,,,ジャパンレーンビジネスコンサルテーション,0
2158,9010001233812,新規,0,2023-03-17,2023-03-17,Ｍｅｄｉａ　Ｌａｂｏ株式会社,,株式会社,東京都,中央区,銀座１丁目１２番４号Ｎ＆Ｅ．ＢＬＤ．７階,,13,102,1040061,,,,,,,2023-03-17,1,,,,,メディアラボ,0
2160,9010005036393,新規,0,2023-03-17,2023-03-17,一般社団法人ＫＳＴ４,,その他の設立登記法人,東京都,千代田区,内幸町２丁目１番６号,,13,101,1000011,,,,,,,2023-03-17,1,,,,,ケイエスティーフォー,0
2166,9010405021904,新規,0,2023-03-17,2023-03-17,行政書士法人ＰＥＡＫＳ　ＴＯＫＹＯ　ＯＦＦＩＣＥ,,その他の設立登記法人,東京都,港区,新橋２丁目１２番５号池伝ビル９Ｆ,,13,103,1050004,,,,,,,2023-03-17,1,,,,,ピークストーキョーオフィス,0
2174,9010501050162,新規,0,2023-03-17,2023-03-17,株式会社ｃｏｎｆｉａｎｚａ,,株式会社,東京都,台東区,浅草４丁目１０番４号,,13,106,1110032,,,,,,,2023-03-17,1,,,,,コンフィアンサ,0
2177,9010601062768,新規,0,2023-03-17,2023-03-17,名鉄急運株式会社,,株式会社,東京都,江東区,青海３丁目２番１７号ワールド流通センター内事務棟２０５室,,13,108,1350064,,,,,,,2023-03-17,1,,,,,メイテツキュウウン,0
2178,9010601062776,新規,0,2023-03-17,2023-03-17,株式会社はじめまして,,株式会社,東京都,江東区,北砂３丁目１６番１８号,,13,108,1360073,,,,,,,2023-03-17,1,,,,,ハジメマシテ,0
2180,9010603010056,新規,0,2023-03-17,2023-03-17,フィールドヴィレッジハーベスト合同会社,,合同会社,東京都,江東区,門前仲町１丁目１６番４号,,13,108,1350048,,,,,,,2023-03-17,1,,,,,フィールドヴィレッジハーベスト,0
2181,9010603010064,新規,0,2023-03-17,2023-03-17,ＭＪコンサルティング合同会社,,合同会社,東京都,江東区,東雲１丁目１０番１４－７３５号,,13,108,1350062,,,,,,,2023-03-17,1,,,,,エムジェイコンサルティング,0
2184,9010803004477,新規,0,2023-03-17,2023-03-17,合同会社トクガワ,,合同会社,東京都,大田区,西蒲田８丁目２２番３号インペリアル２１２号,,13,111,1440051,,,,,,,2023-03-17,1,,,,,トクガワ,0
2195,9011001153083,新規,0,2023-03-17,2023-03-17,エラノブム株式会社,,株式会社,東京都,渋谷区,道玄坂１丁目１２番１号,,13,113,1500043,,,,,,,2023-03-17,1,,,,,エラノブム,0
2197,9011003016437,新規,0,2023-03-17,2023-03-17,合同会社Ｏｒｉｏｎ,,合同会社,東京都,渋谷区,東３丁目１６番１０号三浦ビル６０２,,13,113,1500011,,,,,,,2023-03-17,1,,,,,オリオン,0
2198,9011003016461,新規,0,2023-03-17,2023-03-17,合同会社ｙｕｍａ,,合同会社,東京都,渋谷区,千駄ヶ谷３丁目１３－１４,,13,113,1510051,,,,,,,2023-03-17,1,,,,,ユーマ,0
2207,9011203004019,新規,0,2023-03-17,2023-03-17,ｏｒａｎｇＫ合同会社,,合同会社,東京都,中野区,中野５丁目６７番７号,,13,114,1640001,,,,,,,2023-03-17,1,,,,,オーランケー,0
2209,9011401024982,新規,0,2023-03-17,2023-03-17,株式会社ＧｒｏＷｉｎｇ,,株式会社,東京都,板橋区,成増５丁目２番１２号,,13,119,1750094,,,,,,,2023-03-17,1,,,,,グローウィング,0
2214,9011605002504,新規,0,2023-03-17,2023-03-17,医療法人社団Ｌｉｎｅ　Ａｎｇｌｅ,,その他の設立登記法人,東京都,練馬区,石神井町３丁目１７番１５号ＫＹビル１階,,13,120,1770041,,,,,,,2023-03-17,1,,,,,ラインアングル,0
2215,9011701026092,新規,0,2023-03-17,2023-03-17,株式会社奏．１１１,,株式会社,東京都,江戸川区,春江町５丁目９番地１－４２７,,13,123,1340003,,,,,,,2023-03-17,1,,,,,カナデドットイチイチイチ,0
2216,9011703003412,新規,0,2023-03-17,2023-03-17,合同会社ＭｉｋｏＳｔｙｌｅ,,合同会社,東京都,江戸川区,南篠崎町１丁目２１番２１号,,13,123,1330065,,,,,,,2023-03-17,1,,,,,ミコスタイル,0
2219,9011801042097,新規,0,2023-03-17,2023-03-17,株式会社ハイリンク・ロジスティクス・ジャパン,,株式会社,東京都,足立区,千住関屋町９番１号２Ｆ,,13,121,1200024,,,,,,,2023-03-17,1,,,,,ハイリンクロジスティクスジャパン,0
2221,9011805003252,新規,0,2023-03-17,2023-03-17,医療法人社団律生会,,その他の設立登記法人,東京都,足立区,西綾瀬２丁目６番２０号１階,,13,121,1200014,,,,,,,2023-03-17,1,,,,,リッセイカイ,0
2226,9012401040284,新規,0,2023-03-17,2023-03-17,ＳＫ商事株式会社,,株式会社,東京都,武蔵野市,吉祥寺本町１丁目１５番９号岩崎吉祥寺ビル５階,00129798,13,203,1800004,,,,,,,2023-03-17,1,,,,,エスケーショウジ,0
2227,9012401040292,新規,0,2023-03-17,2023-03-17,株式会社アロハヌイ,,株式会社,東京都,武蔵野市,吉祥寺北町５丁目７番６号,,13,203,1800001,,,,,,,2023-03-17,1,,,,,アロハヌイ,0
2229,9013101009132,新規,0,2023-03-17,2023-03-17,株式会社オーセン,,株式会社,東京都,羽村市,羽中２丁目２８１８番１,,13,227,2050015,,,,,,,2023-03-17,1,,,,,オーセン,0
2236,9020001150726,新規,0,2023-03-17,2023-03-17,株式会社Ｕ三,,株式会社,神奈川県,横浜市中区,扇町１丁目１－２５,,14,104,2310027,,,,,,,2023-03-17,1,,,,,ユウサン,0
2237,9020001150742,新規,0,2023-03-17,2023-03-17,株式会社Ｈｕｍａｔｃｈ,,株式会社,神奈川県,横浜市西区,南浅間町２１番地１１,,14,103,2200074,,,,,,,2023-03-17,1,,,,,ヒューマッチ,0
2239,9020003023533,新規,0,2023-03-17,2023-03-17,合同会社サンティー,,合同会社,神奈川県,横浜市鶴見区,鶴見中央５丁目１１番１２－Ａ６０２号,,14,101,2300051,,,,,,,2023-03-17,1,,,,,サンティー,0
2243,9021001078445,新規,0,2023-03-17,2023-03-17,株式会社Ｂｅｇｉｎｎｉｎｇ,,株式会社,神奈川県,相模原市中央区,相模原５丁目２番１６－２０１号,,14,152,2520231,,,,,,,2023-03-17,1,,,,,ビギニング,0
2244,9021001078461,新規,0,2023-03-17,2023-03-17,株式会社Ｋ．ＷＯＲＬＤ,,株式会社,神奈川県,大和市,つきみ野７丁目１３番地２５,,14,213,2420002,,,,,,,2023-03-17,1,,,,,ケイワールド,0
2245,9021003012880,新規,0,2023-03-17,2023-03-17,合同会社ｅｎ　ｙｏｇｉｎｉ,,合同会社,神奈川県,茅ヶ崎市,浜竹３丁目７番５－３１号,,14,207,2530021,,,,,,,2023-03-17,1,,,,,エンヨギーニ,0
2250,9030001152861,新規,0,2023-03-17,2023-03-17,ケンユウ株式会社,,株式会社,埼玉県,八潮市,大字西袋６７７番地６－２０１号室,,11,234,3400833,,,,,,,2023-03-17,1,,,,,ケンユウ,0
2251,9030001152903,新規,0,2023-03-17,2023-03-17,株式会社Ｌａｂｏｋｏ,,株式会社,埼玉県,さいたま市大宮区,浅間町２丁目２８１番地ＰＯＲＴ英２０３,,11,103,3300842,,,,,,,2023-03-17,1,,,,,ラボコ,0
2256,9030003021395,新規,0,2023-03-17,2023-03-17,合同会社ｂｅｌｌｅ,,合同会社,埼玉県,川口市,芝高木１丁目４番３６号,,11,203,3330868,,,,,,,2023-03-17,1,,,,,ベル,0
2260,9040001127516,新規,0,2023-03-17,2023-03-17,株式会社Ａｃｔａ,,株式会社,千葉県,船橋市,市場４丁目７番１０号,,12,204,2730001,,,,,,,2023-03-17,1,,,,,アクタ,0
2261,9040001127540,新規,0,2023-03-17,2023-03-17,アシストテックホールディングス株式会社,,株式会社,千葉県,市原市,潤井戸１３５４番地８,,12,219,2900171,,,,,,,2023-03-17,1,,,,,アシストテックホールディングス,0
2262,9040001127549,新規,0,2023-03-17,2023-03-17,ミラクル株式会社,,株式会社,千葉県,四街道市,和良比９２９番地７,,12,228,2840044,,,,,,,2023-03-17,1,,,,,ミラクル,0
2264,9040003022211,新規,0,2023-03-17,2023-03-17,宮田建物合同会社,,合同会社,千葉県,船橋市,西習志野２丁目１１番１７号,,12,204,2740815,,,,,,,2023-03-17,1,,,,,ミヤタタテモノ,0
2266,9050003007319,新規,0,2023-03-17,2023-03-17,合同会社Ｓ．Ｂ,,合同会社,茨城県,取手市,配松４７８番地－２０９,,08,217,3001541,,,,,,,2023-03-17,1,,,,,エスビー,0
2267,9050003007327,新規,0,2023-03-17,2023-03-17,合同会社ｂｒｉｄｇｅ,,合同会社,茨城県,那珂郡東海村,東海１丁目１６番２号（ｇｕｐｌｕｓ１０１号室）,,08,341,3191117,,,,,,,2023-03-17,1,,,,,ブリッジ,0
2269,9050005013224,新規,0,2023-03-17,2023-03-17,特定非営利活動法人友部コモンズ,,その他の設立登記法人,茨城県,笠間市,鯉淵６６５５番地２２,,08,216,3091703,,,,,,,2023-03-17,1,,,,,トモベコモンズ,0
2281,9090005007552,新規,0,2023-03-17,2023-03-17,一般社団法人ＳＨＯＷＡスポーツ＆カルチャーコミュニティ,,その他の設立登記法人,山梨県,中巨摩郡昭和町,河西１６１２番地７,,19,384,4093851,,,,,,,2023-03-17,1,,,,,ショウワスポーツアンドカルチャーコミュニティ,0
2298,9120001253147,新規,0,2023-03-17,2023-03-17,恩土株式会社,,株式会社,大阪府,大阪市西区,京町堀１丁目１４番２８号４０２,,27,106,5500003,,,,,,,2023-03-17,1,,,,,オンド,0
2299,9120001253205,新規,0,2023-03-17,2023-03-17,ＪＡＪ株式会社,,株式会社,大阪府,大阪市大正区,三軒家西３丁目４番１６号中山ビル２１４Ａ,,27,108,5510001,,,,,,,2023-03-17,1,,,,,ジェイエージェイ,0
2300,9120001253254,新規,0,2023-03-17,2023-03-17,株式会社ＮＥＸＣＥＥ,,株式会社,大阪府,大阪市中央区,南船場２丁目１１番４号,,27,128,5420081,,,,,,,2023-03-17,1,,,,,ネクシー,0
2301,9120001253270,新規,0,2023-03-17,2023-03-17,株式会社誓,,株式会社,大阪府,大阪市中央区,瓦町４丁目５番３号日宝西本町ビル６階４号,,27,128,5410048,,,,,,,2023-03-17,1,,,,,チカイ,0
2302,9120001253312,新規,0,2023-03-17,2023-03-17,株式会社中尾工務店,,株式会社,大阪府,大阪市西淀川区,大和田３丁目６番１－３０２号,,27,113,5550032,,,,,,,2023-03-17,1,,,,,ナカオコウムテン,0
2303,9120001253320,新規,0,2023-03-17,2023-03-17,ベストデベロップ日本株式会社,,株式会社,大阪府,大阪市中央区,上本町西１丁目５番９－４０６号,,27,128,5420062,,,,,,,2023-03-17,1,,,,,ベストデベロップニホン,0
2304,9120001253329,新規,0,2023-03-17,2023-03-17,株式会社スタンピード,,株式会社,大阪府,大阪市中央区,内本町１丁目２番６号,,27,128,5400026,,,,,,,2023-03-17,1,,,,,スタンピード,0
2305,9120001253337,新規,0,2023-03-17,2023-03-17,ニコマ株式会社,,株式会社,大阪府,大阪市東成区,大今里２丁目３番９号,,27,115,5370012,,,,,,,2023-03-17,1,,,,,ニコマ,0
2308,9120101067166,新規,0,2023-03-17,2023-03-17,株式会社藤原工務店,,株式会社,大阪府,貝塚市,馬場５２５番地,,27,208,5970103,,,,,,,2023-03-17,1,,,,,フジワラコウムテン,0
2310,9122001036762,新規,0,2023-03-17,2023-03-17,丸加商事株式会社,,株式会社,大阪府,東大阪市,山手町１１番２号,,27,227,5798022,,,,,,,2023-03-17,1,,,,,マルカショウジ,0
2316,9130001073890,新規,0,2023-03-17,2023-03-17,株式会社林建物,,株式会社,京都府,京都市南区,上鳥羽角田町７７番地１ラティス上鳥羽１０３,,26,107,6018104,,,,,,,2023-03-17,1,,,,,ハヤシタテモノ,0
2319,9130003008589,新規,0,2023-03-17,2023-03-17,合同会社大相撲大阪売店組合,,合同会社,京都府,相楽郡精華町,精華台５丁目１１番３号,,26,366,6190238,,,,,,,2023-03-17,1,,,,,オオズモウオオサカバイテンクミアイ,0
2320,9130003008597,新規,0,2023-03-17,2023-03-17,合同会社ＮＡＵＲＵ,,合同会社,京都府,長岡京市,友岡２丁目３番１０号Ｓ．Ｃｒｅｅｋ長岡京３０６,,26,209,6170843,,,,,,,2023-03-17,1,,,,,ナウル,0
2325,9140001129469,新規,0,2023-03-17,2023-03-17,株式会社ＭＪ,,株式会社,兵庫県,宝塚市,安倉北３丁目９番４号,,28,214,6650821,,,,,,,2023-03-17,1,,,,,エムジェイ,0
2326,9140001129493,新規,0,2023-03-17,2023-03-17,株式会社Ｆ・パートナーズ,,株式会社,兵庫県,神戸市東灘区,深江北町４丁目７番１８－１０１号,,28,101,6580013,,,,,,,2023-03-17,1,,,,,エフパートナーズ,0
2329,9140003018835,新規,0,2023-03-17,2023-03-17,ライフィールカンパニー合同会社,,合同会社,兵庫県,神戸市北区,鈴蘭台東町９丁目３－２０,,28,109,6511112,,,,,,,2023-03-17,1,,,,,ライフィールカンパニー,0
2330,9140003018843,新規,0,2023-03-17,2023-03-17,合同会社よしかわ企画,,合同会社,兵庫県,宝塚市,雲雀丘山手２丁目１７番７号,,28,214,6650804,,,,,,,2023-03-17,1,,,,,ヨシカワキカク,0
2331,9140003018851,新規,0,2023-03-17,2023-03-17,合同会社ＧＡＴ,,合同会社,兵庫県,尼崎市,東難波町５丁目２１番１１号Ｅｓｐｅｒａｎｃｅ１０Ｃ,,28,202,6600892,,,,,,,2023-03-17,1,,,,,ジーエーティー,0
2333,9140005026522,新規,0,2023-03-17,2023-03-17,医療法人社団Ｆｏｒ　Ｙｏｕｒ　Ｈｅａｌｔｈ,,その他の設立登記法人,兵庫県,西宮市,北六甲台１丁目２４－６,,28,204,6511413,,,,,,,2023-03-17,1,,,,,フォーユアヘルス,0
2335,9160001024908,新規,0,2023-03-17,2023-03-17,株式会社キム設計,,株式会社,滋賀県,栗東市,下鈎１６０９－１,,25,208,5203026,,,,,,,2023-03-17,1,,,,,キムセッケイ,0
2345,9180305009454,新規,0,2023-03-17,2023-03-17,医療法人鷹心会,,その他の設立登記法人,愛知県,安城市,三河安城本町２丁目４番地７　２階,,23,212,4460059,,,,,,,2023-03-17,1,,,,,ヨウシンカイ,0
2350,9200001041089,新規,0,2023-03-17,2023-03-17,株式会社ｐｌｕｓ　ｏｎｅ,,株式会社,岐阜県,関市,倉知３２７２番地５,,21,205,5013936,,,,,,,2023-03-17,1,,,,,プラスワン,0
2351,9200003005901,新規,0,2023-03-17,2023-03-17,クリーングリーン合同会社,,合同会社,岐阜県,岐阜市,折立４５６番地２,,21,201,5011132,,,,,,,2023-03-17,1,,,,,クリーングリーン,0
2360,9240001061224,新規,0,2023-03-17,2023-03-17,株式会社ＢＯＬＥＨ,,株式会社,広島県,福山市,御幸町上岩成７５５,,34,207,7210000,,,,,,,2023-03-17,1,,,,,ボレー,0
2361,9240001061232,新規,0,2023-03-17,2023-03-17,株式会社Ｓ．ｓｔｙｌｅ,,株式会社,広島県,広島市佐伯区,三宅４丁目３番４２－２０２号,,34,108,7315143,,,,,,,2023-03-17,1,,,,,エススタイル,0
2366,9260001037750,新規,0,2023-03-17,2023-03-17,株式会社ＫＭＧ,,株式会社,岡山県,岡山市北区,磨屋町３番１０号,,33,101,7000826,,,,,,,2023-03-17,1,,,,,ケイエムジー,0
2367,9260003004245,新規,0,2023-03-17,2023-03-17,ＬＥＡＰ合同会社,,合同会社,岡山県,岡山市北区,庭瀬７００番地,,33,101,7010153,,,,,,,2023-03-17,1,,,,,リィープ,0
2368,9270005005546,新規,0,2023-03-17,2023-03-17,一般社団法人とっとり圏,,その他の設立登記法人,鳥取県,米子市,東福原８丁目１７番２２号,,31,202,6830802,,,,,,,2023-03-17,1,,,,,トットリケン,0
2371,9290001100927,新規,0,2023-03-17,2023-03-17,株式会社ｓｅｔｏ,,株式会社,福岡県,福岡市東区,千早４丁目２７番１－９１１号,,40,131,8130044,,,,,,,2023-03-17,1,,,,,セト,0
2372,9290001100943,新規,0,2023-03-17,2023-03-17,株式会社ＷＥＬｃｏｒｅ,,株式会社,福岡県,福岡市博多区,博多駅前１丁目２３番１号ＰａｒｋＦｒｏｎｔ博多駅前１丁目５Ｆ－Ｂ,,40,132,8120011,,,,,,,2023-03-17,1,,,,,ウェルコア,0
2373,9290801029374,新規,0,2023-03-17,2023-03-17,株式会社Ｄ組,,株式会社,福岡県,北九州市小倉北区,船場町７番２０－２０１号,,40,106,8020007,,,,,,,2023-03-17,1,,,,,ディーグミ,0
2381,9340001025441,新規,0,2023-03-17,2023-03-17,株式会社アグリサポートかごしま,,株式会社,鹿児島県,志布志市,有明町野神３５８－１,,46,221,8997512,,,,,,,2023-03-17,1,,,,,アグリサポートカゴシマ,0
2390,9370001049719,新規,0,2023-03-17,2023-03-17,株式会社小池浩,,株式会社,宮城県,仙台市太白区,西中田４丁目１３番２４号,,04,104,9811105,,,,,,,2023-03-17,1,,,,,コイケヒロシ,0
2391,9370001049727,新規,0,2023-03-17,2023-03-17,株式会社アールグラン,,株式会社,宮城県,仙台市太白区,長町７丁目１９番３９号,,04,104,9820011,,,,,,,2023-03-17,1,,,,,アールグラン,0
2397,9380003005413,新規,0,2023-03-17,2023-03-17,合同会社風音,,合同会社,福島県,会津若松市,北滝沢１丁目６番６８号,,07,202,9650015,,,,,,,2023-03-17,1,,,,,カザオト,0
2403,9430001088652,新規,0,2023-03-17,2023-03-17,ラグジュアリーモーターホーム株式会社,,株式会社,北海道,札幌市北区,新川四条１１丁目３番１１号,,01,102,0010924,,,,,,,2023-03-17,1,,,,,ラグジュアリーモーターホーム,0
2406,9430003014838,新規,0,2023-03-17,2023-03-17,合同会社Ｃｕｏｒｅ,,合同会社,北海道,石狩市,樽川４８５－５,,01,235,0613251,,,,,,,2023-03-17,1,,,,,クオーレ,0
2407,9430003014846,新規,0,2023-03-17,2023-03-17,合同会社ＫＡＮＡ,,合同会社,北海道,札幌市手稲区,前田七条１０丁目９番２０号,,01,109,0060817,,,,,,,2023-03-17,1,,,,,カナ,0
2408,9430005014662,新規,0,2023-03-17,2023-03-17,医療法人ｃｆ,,その他の設立登記法人,北海道,小樽市,稲穂１丁目７番１４号,,01,203,0470032,,,,,,,2023-03-17,1,,,,,シーエフ,0
2411,9470003002368,新規,0,2023-03-17,2023-03-17,合同会社オフィスチョコ,,合同会社,香川県,高松市,室新町９７３番地５　１３１１,,37,201,7618062,,,,,,,2023-03-17,1,,,,,オフィスチョコ,0
2419,9700150114850,新規,0,2023-03-17,2023-03-17,清越百貨（青島）有限公司,,外国会社等,東京都,北区,浮間１丁目７－２３兆豊浮間ビル５０２号室,,13,117,1150051,Ｎｏ．１２７－１　Ｚｈａｎｇｊｉａｎｇ　Ｒｏａｄ，Ｈｕａｎｇｄａｏ　Ｄｉｓｔｒｉｃｔ，Ｑｉｎｇｄａｏ　Ｃｉｔｙ，Ｓｈａｎｇ　ｄｏｎｇ　Ｐｒｏｖｉｎｃｅ,,,,,,2023-03-17,1,,,,,チンユエバイフオユウゲンコンス,0
2420,9700150114859,新規,0,2023-03-17,2023-03-17,ｓｈｅｎｚｈｅｎｔｕｏｐｕｔａｉｋｅｋｅｊｉｙｏｕｘｉａｎｇｏｎｇｓｉ,,外国会社等,,,,,,,,Ｓｈｉｊｉａ　Ｃｏｍｍｕｎｉｔｙ，Ｍａｔｉａｎ　Ｓｔｒｅｅｔ，Ｇｕａｎｇｍｉｎｇ　Ｄｉｓｔｒｉｃｔ　Ｂ２００３，Ｂｕｉｌｄｉｎｇ　１，Ｆｅｎｇｈｕｉ　Ｇａｒｄｅｎ，Ｎｏ．９　Ｎａｎｈｕａｎ　Ｒｏａｄ　Ｓｈｅｎｚｈｅｎ　Ｇｕａｎｇｄｏｎｇ　５１８０００　ＣＮ,,,,,,2023-03-17,1,,,,,シェンジェントゥオプータイコーコージーヨウシエンゴンスー,0
