sequenceNumber,corporateNumber,process,correct,updateDate,changeDate,name,nameImageId,kind,prefectureName,cityName,streetNumber,addressImageId,prefectureCode,cityCode,postCode,addressOutside,addressOutsideImageId,closeDate,closeCause,successorCorporateNumber,changeCause,assignmentDate,latest,enName,enPrefectureName,enCityName,enAddressOutside,furigana,hihyoji
22,1010101000491,登記記録の閉鎖等,0,2026-02-04,2026-02-02,株式会社エー・アンド・ビー,,株式会社,東京都,八王子市,明神町４丁目１番２－５０５号,,13,201,1920046,,,2026-02-02,清算の結了等,,,2015-10-05,1,,,,,エーアンドビー,0
25,1010401115915,登記記録の閉鎖等,0,2026-02-04,2026-01-09,株式会社オークネット・モーターサイクル,,株式会社,東京都,港区,北青山２丁目５番８号,,13,103,1070061,,,2026-01-09,合併による解散等,4010001116006,令和７年１２月３１日東京都港区北青山二丁目５番８号株式会社オークネット（4010001116006）に合併し解散,2015-10-05,1,,,,,オークネットモーターサイクル,0
26,1010401160424,登記記録の閉鎖等,0,2026-02-04,2026-01-30,ＤＸＧｏＧｏ株式会社,,株式会社,東京都,千代田区,飯田橋３丁目１０番１０号,,13,101,1020072,,,2026-01-30,清算の結了等,,,2021-05-26,1,,,,,ディーエックスゴーゴー,0
27,1010401192459,登記記録の閉鎖等,0,2026-02-04,2026-01-08,アートテラ株式会社,,株式会社,東京都,港区,南青山６丁目８番２号エス・テラス南青山５０３,,13,103,1070062,,,2026-01-08,清算の結了等,,,2025-08-19,1,,,,,アートテラ,0
30,1010501049410,登記記録の閉鎖等,0,2026-02-04,2026-01-13,Ｊ．Ｉ．Ｓ．株式会社,,株式会社,千葉県,成田市,三里塚御料１－１０７９,00129347,12,211,2860116,,,2026-01-13,清算の結了等,,,2022-09-26,1,,,,,ジェイアイエス,0
37,1010603005030,登記記録の閉鎖等,0,2026-02-04,2026-01-07,トレーフルジャパン合同会社,,合同会社,千葉県,市川市,本行徳１７番２２号,,12,203,2720103,,,2026-01-07,清算の結了等,,,2015-10-05,1,,,,,トレーフルジャパン,0
39,1010705003642,登記記録の閉鎖等,0,2026-02-04,2026-01-26,一般社団法人白楽ホーム,,その他の設立登記法人,東京都,品川区,上大崎３丁目１番１号目黒セントラルスクエア１５階,,13,109,1410021,,,2026-01-26,清算の結了等,,,2024-06-25,1,,,,,ハクラクホーム,0
58,1011005007953,登記記録の閉鎖等,0,2026-02-04,2026-02-02,一般社団法人ヘアループ・アソシエーション・ジャパン,,その他の設立登記法人,大阪府,大阪市城東区,諏訪３丁目８番４号,,27,118,5360021,,,2026-02-02,清算の結了等,,,2019-01-15,1,,,,,ヘアループアソソエーションジャパンシ,0
63,1011201010694,登記記録の閉鎖等,0,2026-02-04,2026-01-28,株式会社インターウェーブジャパン,,株式会社,東京都,中野区,東中野１丁目２５番６号,,13,114,1640003,,,2026-01-28,清算の結了等,,,2015-10-05,1,,,,,,0
91,1020001089039,登記記録の閉鎖等,0,2026-02-04,2025-09-11,株式会社シンフードサービス,,株式会社,神奈川県,横浜市西区,みなとみらい４丁目９番２号,,14,103,2200012,,,2025-09-11,合併による解散等,2020001082851,令和７年８月３１日神奈川県横浜市西区南幸二丁目１４番１号株式会社心（2020001082851）に合併し解散,2015-10-05,1,,,,,シンフードサービス,0
95,1020001157992,登記記録の閉鎖等,0,2026-02-04,2026-01-29,株式会社センターエステート,,株式会社,神奈川県,横浜市港北区,新横浜２丁目５番１０号９階Ｃ室,,14,109,2220033,,,2026-01-29,合併による解散等,6030001066965,令和８年１月１日大阪府茨木市西駅前町１３番２５号株式会社ウィーズ（6030001066965）に合併し解散,2024-07-08,1,,,,,センターエステート,0
97,1020002009375,登記記録の閉鎖等,0,2026-02-04,2026-02-02,有限会社カジノ,,有限会社,神奈川県,横浜市磯子区,岡村８丁目１２番３号,,14,107,2350021,,,2026-02-02,清算の結了等,,,2015-10-05,1,,,,,カジノ,0
98,1020002086365,登記記録の閉鎖等,0,2026-02-04,2026-02-02,有限会社小島建材店,,有限会社,神奈川県,川崎市宮前区,菅生ケ丘１２番２号,,14,136,2160014,,,2026-02-02,清算の結了等,,,2015-10-05,1,,,,,コジマケンザイテン,0
110,1030002088889,登記記録の閉鎖等,0,2026-02-04,2026-01-28,有限会社エア・フィール,,有限会社,埼玉県,越谷市,弥栄町３丁目４３番地５,,11,222,3430046,,,2026-01-28,清算の結了等,,,2015-10-05,1,,,,,エアフィール,0
111,1030003021972,登記記録の閉鎖等,0,2026-02-04,2026-01-22,合同会社世界樹ジェムストーン,,合同会社,埼玉県,さいたま市桜区,大字下大久保１０２６番１号メゾンプロスパリティー３０３号室,,11,106,3380825,,,2026-01-22,清算の結了等,,,2023-06-23,1,,,,,セカイジュジェムストーン,0
120,1040003025155,登記記録の閉鎖等,0,2026-02-04,2026-01-13,合同会社Ｌａｐａ,,合同会社,千葉県,船橋市,藤原７丁目５番４０号,,12,204,2730047,,,2026-01-13,清算の結了等,,,2024-06-10,1,,,,,ラパ,0
130,1060001029247,登記記録の閉鎖等,0,2026-02-04,2026-02-02,株式会社シルクセンス,,株式会社,栃木県,小山市,西城南３丁目１１番地６,,09,208,3230820,,,2026-02-02,清算の結了等,,,2017-04-11,1,,,,,シルクセンス,0
133,1070001000636,登記記録の閉鎖等,0,2026-02-04,2026-01-30,岡田工業株式会社,,株式会社,群馬県,前橋市,川曲町４７８番地,,10,201,3710823,,,2026-01-30,清算の結了等,,,2015-10-05,1,,,,,オカダコウギョウ,0
138,1070003004008,登記記録の閉鎖等,0,2026-02-04,2026-02-03,合同会社Ｖ．Ａ．Ｉ．Ａ,,合同会社,群馬県,高崎市,東貝沢町１丁目１３番地９,,10,202,3700041,,,2026-02-03,清算の結了等,,,2021-02-17,1,,,,,バイア,0
155,1120001222968,登記記録の閉鎖等,0,2026-02-04,2026-02-02,株式会社ＡＫＭＡ,,株式会社,大阪府,大阪市北区,西天満３丁目６番２１号,,27,127,5300047,,,2026-02-02,清算の結了等,,,2019-08-06,1,,,,,エイケイエムエイ,0
168,1120101025156,登記記録の閉鎖等,0,2026-02-04,2026-01-29,工藤工業株式会社,,株式会社,大阪府,松原市,西大塚１丁目３番２９号,,27,217,5800011,,,2026-01-29,清算の結了等,,,2015-10-05,1,,,,,クドウコウギョウ,0
176,1120903004778,登記記録の閉鎖等,0,2026-02-04,2026-01-30,合同会社Ｔｉｐ　Ｂａｌｌ,,合同会社,大阪府,高槻市,天神町２丁目１番１２－１４０１号,,27,207,5691117,,,2026-01-30,清算の結了等,,,2023-08-14,1,,,,,チップボール,0
194,1180001098395,登記記録の閉鎖等,0,2026-02-04,2026-01-30,上村ボーリング工業株式会社,,株式会社,愛知県,あま市,木田加瀬３３番地の２,,23,237,4901222,,,2026-01-30,清算の結了等,,,2015-10-05,1,,,,,ウエムラボーリングコウギョウ,0
203,1180003011042,登記記録の閉鎖等,0,2026-02-04,2026-01-30,合資会社にしきや,,合資会社,愛知県,尾張旭市,大字三郷字栄４１番地,,23,226,4880000,,,2026-01-30,清算の結了等,,,2015-10-05,1,,,,,ニシキヤ,0
205,1180005019950,登記記録の閉鎖等,0,2026-02-04,2026-01-30,一般社団法人ゆいまーる経営者の会,,その他の設立登記法人,愛知県,日進市,赤池町箕ノ手２番地１７３０,,23,230,4700126,,,2026-01-30,清算の結了等,,,2022-10-07,1,,,,,ユイマールケイエイシャノカイ,0
207,1200001014119,登記記録の閉鎖等,0,2026-02-04,2026-01-30,株式会社ノダ,,株式会社,岐阜県,大垣市,荒尾町２１６番地,,21,202,5030034,,,2026-01-30,清算の結了等,,,2015-10-05,1,,,,,ノダ,0
213,1230001008209,登記記録の閉鎖等,0,2026-02-04,2026-02-02,小川電機株式会社,,株式会社,富山県,砺波市,栄町２１０番地,,16,208,9391371,,,2026-02-02,清算の結了等,,,2015-10-05,1,,,,,オガワデンキ,0
214,1240001048030,登記記録の閉鎖等,0,2026-02-04,2026-01-29,株式会社惠創,,株式会社,広島県,東広島市,八本松町正力１００４４番地５６,,34,212,7390132,,,2026-01-29,清算の結了等,,,2015-10-05,1,,,,,ケイソウ,0
218,1250001002077,登記記録の閉鎖等,0,2026-02-04,2025-08-06,株式会社タカショウ,,株式会社,山口県,山口市,吉敷下東３丁目４番５号,,35,203,7530814,,,2025-08-06,合併による解散等,8250001000272,令和７年８月１日山口県山口市吉敷下東三丁目４番５号株式会社リブプラス（8250001000272）に合併し解散,2015-10-05,1,,,,,,0
221,1250002008156,登記記録の閉鎖等,0,2026-02-04,2026-01-30,有限会社今津商店,,有限会社,山口県,下関市,椋野町３丁目８番３２号,,35,201,7510816,,,2026-01-30,清算の結了等,,,2015-10-05,1,,,,,イマヅショウテン,0
247,1310002020699,登記記録の閉鎖等,0,2026-02-04,2026-02-02,村岡食肉産業有限会社,,有限会社,長崎県,五島市,富江町富江２０９番地,,42,211,8530201,,,2026-02-02,合併による解散等,9310001017409,令和８年１月３１日長崎県五島市富江町富江３５７番地５９株式会社エム（9310001017409）に合併し解散,2015-10-05,1,,,,,ムラオカショクニクサンギョウ,0
252,1320001020690,登記記録の閉鎖等,0,2026-02-04,2026-01-29,株式会社野田ビル,,株式会社,大分県,大分市,大字政所３６８４番地の２,,44,201,8700268,,,2026-01-29,清算の結了等,,,2024-09-05,1,,,,,,0
277,1430002024003,登記記録の閉鎖等,0,2026-02-04,2026-02-02,有限会社フジケン,,有限会社,秋田県,男鹿市,野石字天山６番地,,05,206,0100401,,,2026-02-02,清算の結了等,,,2024-12-19,1,,,,,フジケン,0
288,1490002001822,登記記録の閉鎖等,0,2026-02-04,2026-02-02,有限会社福乃屋,,有限会社,高知県,高知市,菜園場町４番１１号,,39,201,7800823,,,2026-02-02,清算の結了等,,,2015-10-05,1,,,,,フクノヤ,0
290,1500002015770,登記記録の閉鎖等,0,2026-02-04,2026-02-02,有限会社アーチ設計室,,有限会社,愛媛県,新居浜市,宇高町１丁目１４番３１号,,38,205,7920866,,,2026-02-02,清算の結了等,,,2015-10-05,1,,,,,アーチセッケイシツ,0
294,1700150028587,登記記録の閉鎖等,0,2026-02-04,2024-03-31,ＯＫＫ健康保険組合,,その他,兵庫県,伊丹市,北伊丹８丁目１０,,28,207,6640831,,,2024-03-31,その他の清算の結了等,,,2015-10-09,1,,,,,オーケーケーケンコウホケンクミアイ,0
298,2010001226921,登記記録の閉鎖等,0,2026-02-04,2026-01-09,ロックウェル株式会社,,株式会社,東京都,港区,南青山３丁目１番３号,,13,103,1070062,,,2026-01-09,清算の結了等,,,2022-05-31,1,,,,,ロックウェル,0
309,2010003029570,登記記録の閉鎖等,0,2026-02-04,2026-01-13,合同会社ＦＵＬＬ－ＦＯＲＣＥ,,合同会社,東京都,中央区,日本橋兜町１８－５日本橋兜町ビル２Ｆ,,13,102,1030026,,,2026-01-13,清算の結了等,,,2019-03-28,1,,,,,フルフォース,0
317,2010401115914,登記記録の閉鎖等,0,2026-02-04,2026-01-09,株式会社オークネット・コンシューマープロダクツ,,株式会社,東京都,港区,北青山２丁目５番８号,,13,103,1070061,,,2026-01-09,合併による解散等,4010001116006,令和７年１２月３１日東京都港区北青山二丁目５番８号株式会社オークネット（4010001116006）に合併し解散,2015-10-05,1,,,,,オークネットコンシューマープロダクツ,0
364,2020001008872,登記記録の閉鎖等,0,2026-02-04,2026-01-21,株式会社ダイヤプレーティング研究所,,株式会社,神奈川県,横浜市都筑区,東方町４０３番地１,,14,118,2240045,,,2026-01-21,清算の結了等,,,2015-10-05,1,,,,,ダイヤプレーティングケンキュウショ,0
367,2020001140386,登記記録の閉鎖等,0,2026-02-04,2026-01-13,ガルマ株式会社,,株式会社,東京都,港区,浜松町１丁目１２番６号,,13,103,1050013,,,2026-01-13,清算の結了等,,,2021-03-16,1,,,,,ガルマ,0
383,2030002073493,登記記録の閉鎖等,0,2026-02-04,2026-01-28,有限会社三双建築設計事務所,,有限会社,埼玉県,川越市,連雀町２２番地１,,11,201,3500066,,,2026-01-28,清算の結了等,,,2015-10-05,1,,,,,サンソウケンチクセッケイジムショ,0
390,2040002022350,登記記録の閉鎖等,0,2026-02-04,2026-01-09,有限会社櫻屋商店,,有限会社,千葉県,船橋市,本町１丁目２２番１４号,,12,204,2730005,,,2026-01-09,清算の結了等,,,2015-10-05,1,,,,,サクラヤショウテン,0
395,2050002008051,登記記録の閉鎖等,0,2026-02-04,2026-01-23,有限会社石井工業,,有限会社,茨城県,ひたちなか市,平磯遠原町５番地１８,,08,221,3111204,,,2026-01-23,清算の結了等,,,2015-10-05,1,,,,,,0
399,2060002008975,登記記録の閉鎖等,0,2026-02-04,2026-02-02,有限会社麺逹,00024339,有限会社,栃木県,宇都宮市,下桑島町１０４９番地２９,,09,201,3210914,,,2026-02-02,清算の結了等,,,2015-10-05,1,,,,,メンタツ,0
428,2120003015304,登記記録の閉鎖等,0,2026-02-04,2026-02-02,合同会社ジャスト,,合同会社,大阪府,大阪市都島区,友渕町１丁目５番６－１１１６号,,27,102,5340016,,,2026-02-02,清算の結了等,,,2019-02-15,1,,,,,ジャスト,0
452,2170005005298,登記記録の閉鎖等,0,2026-02-04,2026-02-02,特定非営利活動法人ハトぽっぽ,,その他の設立登記法人,和歌山県,新宮市,佐野９５４番地の３,,30,207,6470071,,,2026-02-02,清算の結了等,,,2015-10-05,1,,,,,ハトポッポ,0
454,2180001057078,登記記録の閉鎖等,0,2026-02-04,2026-01-30,株式会社エスアール中部,,株式会社,愛知県,名古屋市名東区,牧の原２丁目２０３番地,,23,115,4650072,,,2026-01-30,清算の結了等,,,2015-10-05,1,,,,,,0
464,2180003013401,登記記録の閉鎖等,0,2026-02-04,2026-01-28,合同会社Ｈ＆Ｔ,,合同会社,愛知県,東海市,加木屋町大清水５１９番地,,23,222,4770032,,,2026-01-28,清算の結了等,,,2015-10-05,1,,,,,エイチアンドテイ,0
467,2180301023993,登記記録の閉鎖等,0,2026-02-04,2026-01-28,株式会社さかきや,,株式会社,愛知県,新城市,片山字西野畑５４８番地１２,,23,221,4411354,,,2026-01-28,清算の結了等,,,2015-10-05,1,,,,,サカキヤ,0
477,2210001016856,登記記録の閉鎖等,0,2026-02-04,2026-02-02,株式会社ＮＥＩＧＨＢＯＲＦＯＯＤ,,株式会社,福井県,越前市,本保町第８号５番地の１,,18,209,9150806,,,2026-02-02,清算の結了等,,,2017-08-10,1,,,,,ネイバーフード,0
492,2250001009369,登記記録の閉鎖等,0,2026-02-04,2026-02-02,株式会社ユアブレーン,,株式会社,山口県,周南市,緑町２丁目１３番地,,35,215,7450075,,,2026-02-02,清算の結了等,,,2015-10-05,1,,,,,ユアブレーン,0
501,2290001099035,登記記録の閉鎖等,0,2026-02-04,2025-09-03,株式会社ヒーバックエンジニアリング,,株式会社,愛媛県,松山市,天山３丁目１０番９号,,38,201,7900951,,,2025-09-03,合併による解散等,9290001110100,令和７年８月１日福岡県福岡市中央区平尾三丁目２６番１５号株式会社ヒーバックソリューションサービス（9290001110100）に合併し解散,2022-10-03,1,,,,,ヒーバックエンジニアリング,0
506,2290003010049,登記記録の閉鎖等,0,2026-02-04,2026-01-27,合同会社西部エアコン,,合同会社,福岡県,福岡市早良区,祖原２０番２４－１０５号,,40,137,8140005,,,2026-01-27,清算の結了等,,,2020-06-05,1,,,,,セイブエアコン,0
516,2320001014691,登記記録の閉鎖等,0,2026-02-04,2026-01-29,株式会社アップトレンド,,株式会社,大分県,大分市,都町３丁目６番３８－５１４号,,44,201,8700034,,,2026-01-29,清算の結了等,,,2016-02-01,1,,,,,,0
518,2340002021685,登記記録の閉鎖等,0,2026-02-04,2026-01-26,有限会社川畑組,,有限会社,鹿児島県,大島郡瀬戸内町,大字古仁屋字船津１３番地１７,,46,525,8941506,,,2026-01-26,清算の結了等,,,2015-10-05,1,,,,,カワバタグミ,0
527,2380003002821,登記記録の閉鎖等,0,2026-02-04,2026-01-29,新電力相馬太陽光発電合同会社,,合同会社,福島県,相馬市,程田字潜石８９－５,,07,209,9760035,,,2026-01-29,清算の結了等,,,2015-10-05,1,,,,,シンデンリョクソウマタイヨウコウハツデン,0
535,2400602000470,登記記録の閉鎖等,0,2026-02-04,2026-01-26,千葉造園有限会社,,有限会社,岩手県,奥州市,水沢黒石町字二渡４７番地,,03,215,0230101,,,2026-01-26,清算の結了等,,,2015-10-05,1,,,,,チバゾウエン,0
547,2700150017696,削除,,2026-02-04,,,,,,,,,,,,,,,,,,,,,,,,,
555,3010002036377,登記記録の閉鎖等,0,2026-02-04,2026-01-13,有限会社豊海食品,,有限会社,東京都,中央区,豊海町１４番１７号マルハ物流ネット豊海物流センター３Ｆ,,13,102,1040055,,,2026-01-13,清算の結了等,,,2015-10-05,1,,,,,トヨミショクヒン,0
563,3010102007690,登記記録の閉鎖等,0,2026-02-04,2026-02-02,おいら有限会社,,有限会社,東京都,八王子市,明神町４丁目２番７号秀和第１八王子レジデンス５０５号,,13,201,1920046,,,2026-02-02,清算の結了等,,,2015-10-05,1,,,,,オイラ,0
564,3010401010024,登記記録の閉鎖等,0,2026-02-04,2026-01-13,株式会社五建設計事務所,,株式会社,東京都,港区,三田１丁目３番３３号,,13,103,1080073,,,2026-01-13,清算の結了等,,,2015-10-05,1,,,,,ゴケンセッケイジムショ,0
566,3010401115913,登記記録の閉鎖等,0,2026-02-04,2026-01-09,株式会社オークネット・アグリビジネス,,株式会社,東京都,港区,北青山２丁目５番８号,,13,103,1070061,,,2026-01-09,合併による解散等,4010001116006,令和７年１２月３１日東京都港区北青山二丁目５番８号株式会社オークネット（4010001116006）に合併し解散,2015-10-05,1,,,,,オークネットアグリビジネス,0
570,3010401186112,登記記録の閉鎖等,0,2026-02-04,2026-01-09,株式会社ＶＩＲＡＬ,,株式会社,東京都,渋谷区,恵比寿１丁目１９番１９号,,13,113,1500013,,,2026-01-09,合併による解散等,2011001059337,令和８年１月１日東京都渋谷区恵比寿一丁目１９番１９号ＳｔｏｃｋＴｅｃｈ株式会社（2011001059337）に合併し解散,2024-11-05,1,,,,,ヴァイラル,0
575,3010403019674,登記記録の閉鎖等,0,2026-02-04,2026-01-14,合同会社Ｖ麹町,,合同会社,東京都,千代田区,丸の内１丁目４番１号東京共同会計事務所内,,13,101,1000005,,,2026-01-14,清算の結了等,,,2018-11-14,1,,,,,ブイコウジマチ,0
579,3010501002771,登記記録の閉鎖等,0,2026-02-04,2026-01-22,株式会社カワカミ,,株式会社,東京都,台東区,浅草橋５丁目２３番９号,,13,106,1110053,,,2026-01-22,清算の結了等,,,2015-10-05,1,,,,,カワカミ,0
583,3010701041041,登記記録の閉鎖等,0,2026-02-04,2026-01-27,ワイエスデザイン株式会社,,株式会社,東京都,品川区,東品川１丁目２番５号,,13,109,1400002,,,2026-01-27,清算の結了等,,,2021-06-11,1,,,,,ワイエスデザイン,0
592,3011001137075,登記記録の閉鎖等,0,2026-02-04,2026-01-13,株式会社ＥＮＤＥＳＴ,,株式会社,東京都,港区,南青山３丁目１４番２７号ＩＪＫ南青山れい３０２号室,,13,103,1070062,,,2026-01-13,清算の結了等,,,2020-11-24,1,,,,,エンデスト,0
594,3011001157742,登記記録の閉鎖等,0,2026-02-04,2026-01-09,ｂｉｊｏｕｘ株式会社,,株式会社,東京都,渋谷区,広尾１丁目１番３９号,,13,113,1500012,,,2026-01-09,合併による解散等,7010401139784,令和８年１月１日東京都渋谷区広尾一丁目１番３９号株式会社ＦＡ　Ｐｒｏｊｅｃｔ（7010401139784）に合併し解散,2023-10-25,1,,,,,ビジュー,0
605,3011103007028,登記記録の閉鎖等,0,2026-02-04,2026-01-07,日本京王商事合同会社,,合同会社,東京都,新宿区,西新宿７丁目１－７新宿ダイカンプラザＡ館３Ｆ,,13,104,1600023,,,2026-01-07,清算の結了等,,,2017-05-02,1,,,,,ニホンケイオウショウジ,0
613,3011801045320,登記記録の閉鎖等,0,2026-02-04,2026-02-03,株式会社江東部品販売,,株式会社,東京都,葛飾区,新小岩４丁目４３番２号,,13,122,1240024,,,2026-02-03,清算の結了等,,,2024-12-17,1,,,,,コウトウブヒンハンバイ,0
615,3011802009167,登記記録の閉鎖等,0,2026-02-04,2026-02-02,有限会社あさみ商店,,有限会社,東京都,足立区,千住旭町４番１８号,,13,121,1200026,,,2026-02-02,清算の結了等,,,2015-10-05,1,,,,,アサミショウテン,0
617,3012402020324,登記記録の閉鎖等,0,2026-02-04,2026-02-02,有限会社デイリーズ,,有限会社,東京都,三鷹市,下連雀４丁目１５番３３号,,13,204,1810013,,,2026-02-02,清算の結了等,,,2015-10-05,1,,,,,,0
624,3020001042383,登記記録の閉鎖等,0,2026-02-04,2026-01-26,よこはま環境センター株式会社,,株式会社,神奈川県,横浜市港北区,仲手原２丁目２２番５号,,14,109,2220023,,,2026-01-26,清算の結了等,,,2015-10-05,1,,,,,ヨコハマカンキョウセンター,0
630,3020002080003,登記記録の閉鎖等,0,2026-02-04,2026-02-02,有限会社辰巳,,有限会社,神奈川県,横浜市神奈川区,西神奈川１丁目１７番７号,,14,102,2210822,,,2026-02-02,清算の結了等,,,2015-10-05,1,,,,,,0
635,3030001022616,登記記録の閉鎖等,0,2026-02-04,2026-01-28,株式会社大貴,,株式会社,埼玉県,蕨市,中央７丁目４３番９号,,11,223,3350004,,,2026-01-28,清算の結了等,,,2015-10-05,1,,,,,オオキ,0
638,3030001138750,登記記録の閉鎖等,0,2026-02-04,2026-01-29,株式会社レゾナック光半導体,,株式会社,埼玉県,秩父市,下影森１５０５番地,,11,207,3691871,,,2026-01-29,合併による解散等,3011101018084,令和８年１月１日東京都港区東新橋一丁目９番１号株式会社レゾナック（3011101018084）に合併し解散,2020-10-14,1,,,,,レゾナックヒカリハンドウタイ,0
656,3070001038419,登記記録の閉鎖等,0,2026-02-04,2026-01-13,株式会社Ａｓｈｒａｎｃｅ,,株式会社,東京都,中央区,東日本橋２丁目５番５号レオーネ東日本橋駅前ＩＩ４０１号,00131610,13,102,1030004,,,2026-01-13,清算の結了等,,,2021-09-08,1,,,,,アシュランス,0
657,3080001008866,登記記録の閉鎖等,0,2026-02-04,2026-01-30,株式会社日本プランニング,,株式会社,静岡県,静岡市清水区,庵原町１４４番地の１４,,22,103,4240114,,,2026-01-30,清算の結了等,,,2015-10-05,1,,,,,ニホンプランニング,0
661,3080401026360,登記記録の閉鎖等,0,2026-02-04,2026-01-28,株式会社アズメイリー,,株式会社,静岡県,浜松市中央区,原島町４２７番地の１,,22,138,4350047,,,2026-01-28,清算の結了等,,,2023-03-07,1,,,,,アズメイリー,0
665,3090003001835,登記記録の閉鎖等,0,2026-02-04,2026-01-29,合同会社ＨＩＰＯＷＥＲ,,合同会社,山梨県,富士吉田市,竜ケ丘１丁目１２番４号,,19,202,4030014,,,2026-01-29,清算の結了等,,,2021-03-19,1,,,,,ハイパワー,0
669,3110001035510,登記記録の閉鎖等,0,2026-02-04,2026-02-02,株式会社Ｋ－ｗａｌｋ,,株式会社,新潟県,加茂市,幸町１丁目３番２６号,,15,209,9591313,,,2026-02-02,清算の結了等,,,2021-02-05,1,,,,,ケーウォーク,0
682,3120001271583,登記記録の閉鎖等,0,2026-02-04,2026-01-30,株式会社結聯堂,,株式会社,大阪府,大阪市西成区,玉出中２丁目９番６－１０１号,,27,122,5570044,,,2026-01-30,清算の結了等,,,2025-01-07,1,,,,,ケツレンドウ,0
711,3140001018108,登記記録の閉鎖等,0,2026-02-04,2026-01-29,株式会社インタック,,株式会社,兵庫県,神戸市長田区,松野通３丁目６番５－１０１号,,28,106,6530841,,,2026-01-29,清算の結了等,,,2015-10-05,1,,,,,インタック,0
713,3140001106028,登記記録の閉鎖等,0,2026-02-04,2026-02-02,大建工業株式会社,,株式会社,兵庫県,川西市,西多田２丁目５番１３号,,28,217,6660138,,,2026-02-02,清算の結了等,,,2017-05-09,1,,,,,ダイケンコウギョウ,0
730,3180001029902,登記記録の閉鎖等,0,2026-02-04,2026-01-30,株式会社カワイプロセス,,株式会社,愛知県,名古屋市中村区,草薙町２丁目６８番地,,23,105,4530064,,,2026-01-30,清算の結了等,,,2015-10-05,1,,,,,,0
761,3210002004677,登記記録の閉鎖等,0,2026-02-04,2026-02-03,有限会社ニュー・パワー・ジェネレーション,,有限会社,福井県,福井市,勝見３丁目１４番２７号ストークマンション福井４０１号室,,18,201,9100856,,,2026-02-03,清算の結了等,,,2015-10-05,1,,,,,,0
765,3230005004012,登記記録の閉鎖等,0,2026-02-04,2026-02-02,淨因寺,,その他の設立登記法人,富山県,下新川郡入善町,椚山４４２４番地,,16,342,9390627,,,2026-02-02,清算の結了等,,,2015-10-05,1,,,,,ジョウインジ,0
769,3240005011536,登記記録の閉鎖等,0,2026-02-04,2026-02-02,農事組合法人サングリーン世羅,,その他の設立登記法人,広島県,世羅郡世羅町,大字寺町１３８番地の８,,34,462,7221111,,,2026-02-02,清算の結了等,,,2015-10-05,1,,,,,サングリーンセラ,0
792,3320001008379,登記記録の閉鎖等,0,2026-02-04,2026-01-30,立石木材株式会社,,株式会社,大分県,杵築市,山香町大字立石１２２５番地の１,,44,210,8791302,,,2026-01-30,清算の結了等,,,2015-10-05,1,,,,,タテイシモクザイ,0
803,3370002010478,登記記録の閉鎖等,0,2026-02-04,2026-02-02,有限会社上杉サショウ,,有限会社,宮城県,仙台市青葉区,上杉１丁目４番３０号,,04,101,9800011,,,2026-02-02,清算の結了等,,,2015-10-05,1,,,,,カミスギサンショウ,0
813,3420005003894,登記記録の閉鎖等,0,2026-02-04,2026-01-26,特定非営利活動法人ごしょがわら恵鈴会,,その他の設立登記法人,青森県,五所川原市,字元町１１番地の６,,02,205,0370044,,,2026-01-26,清算の結了等,,,2015-10-05,1,,,,,ゴショガワラケイレイカイ,0
820,3470001004363,登記記録の閉鎖等,0,2026-02-04,2026-02-03,株式会社和田,,株式会社,香川県,高松市,木太町４５８３番地,,37,201,7600080,,,2026-02-03,清算の結了等,,,2015-10-05,1,,,,,ワダ,0
829,3700150019072,登記記録の閉鎖等,0,2026-02-04,2025-09-15,手塚吉高神事務所,,その他,栃木県,宇都宮市,小幡２丁目６－１０,,09,201,3200036,,,2025-09-15,その他の清算の結了等,,,2015-10-09,1,,,,,テツカキツコウジンジムシヨ,0
830,3700150075561,登記記録の閉鎖等,0,2026-02-04,2025-08-31,みんなのふる里,,その他,京都府,京丹後市,久美浜町友重８０２,,26,212,6293447,,,2025-08-31,その他の清算の結了等,,,2016-09-13,1,,,,,ミンナノフルサト,0
837,4010001086546,登記記録の閉鎖等,0,2026-02-04,2026-01-13,株式会社東和コンピュータ・システムズ,,株式会社,千葉県,松戸市,二ツ木１３９６番地の８,,12,207,2700027,,,2026-01-13,清算の結了等,,,2015-10-05,1,,,,,トウワコンピュータシステムズ,0
842,4010001228552,登記記録の閉鎖等,0,2026-02-04,2026-01-13,株式会社ライフェンリッチ,,株式会社,東京都,千代田区,丸の内１丁目１１番１号,,13,101,1000005,,,2026-01-13,清算の結了等,,,2022-08-04,1,,,,,ライフェンリッチ,0
851,4010003039907,登記記録の閉鎖等,0,2026-02-04,2026-01-13,合同会社Ｃｉｅｌ　Ｃｏｎｓｕｌｔｉｎｇ,,合同会社,東京都,中央区,日本橋人形町１丁目５番３－３０３号,,13,102,1030013,,,2026-01-13,清算の結了等,,,2023-02-27,1,,,,,シエルコンサルティング,0
859,4010401110748,登記記録の閉鎖等,0,2026-02-04,2026-01-09,株式会社オークネットメディカル,,株式会社,東京都,港区,北青山２丁目５番８号,,13,103,1070061,,,2026-01-09,合併による解散等,4010001116006,令和７年１２月３１日東京都港区北青山二丁目５番８号株式会社オークネット（4010001116006）に合併し解散,2015-10-05,1,,,,,オークネットメディカル,0
861,4010401149670,登記記録の閉鎖等,0,2026-02-04,2026-01-13,株式会社ａｌｌ　ｔｈｅ　ｗａｙ,,株式会社,東京都,千代田区,神田猿楽町２丁目８－１１ＶＯＲＴ水道橋ＩＩＩ９階ＩＧＮＩＳ内,00124608,13,101,1010064,,,2026-01-13,清算の結了等,,,2019-12-06,1,,,,,オールザウェイ,0
863,4010401167796,登記記録の閉鎖等,0,2026-02-04,2026-01-07,Ｒｉａ　Ｆｉｎａｎｃｉａｌ　Ｓｅｒｖｉｃｅｓ　Ｊａｐａｎ株式会社,,株式会社,東京都,新宿区,百人町２丁目４番８号,,13,104,1690073,,,2026-01-07,清算の結了等,,,2022-06-08,1,,,,,リアファイナンシャルサービシズジャパン,0
883,4010901000779,登記記録の閉鎖等,0,2026-02-04,2026-01-29,株式会社ａｒｉａｋｅ,,株式会社,東京都,世田谷区,深沢４丁目７番２９－２０１号,,13,112,1580081,,,2026-01-29,清算の結了等,,,2015-10-05,1,,,,,,0
885,4010901051938,登記記録の閉鎖等,0,2026-02-04,2026-02-02,株式会社ｔｏｙａ,,株式会社,東京都,世田谷区,下馬４丁目２９番１１号祐天寺フラワーマンション８０３,,13,112,1540002,,,2026-02-02,清算の結了等,,,2022-11-10,1,,,,,トヤ,0
890,4011001138469,登記記録の閉鎖等,0,2026-02-04,2026-01-09,株式会社ｒｅｖｏｌｍ,,株式会社,東京都,目黒区,中目黒２丁目８番１７－１００１号マイキャッスル中目黒ＩＩＩ,00122134,13,110,1530061,,,2026-01-09,清算の結了等,,,2021-02-10,1,,,,,レボルム,0
913,4012401025546,登記記録の閉鎖等,0,2026-02-04,2026-02-02,株式会社ヨコタ,,株式会社,東京都,三鷹市,下連雀３丁目３７番２８－４０１,,13,204,1810013,,,2026-02-02,清算の結了等,,,2015-10-05,1,,,,,ヨコタ,0
919,4020001066646,登記記録の閉鎖等,0,2026-02-04,2026-02-02,テック電子工業株式会社,,株式会社,神奈川県,川崎市高津区,子母口４３５番地,,14,134,2130023,,,2026-02-02,清算の結了等,,,2015-10-05,1,,,,,テックデンシコウギョウ,0
923,4020001141283,登記記録の閉鎖等,0,2026-02-04,2026-01-29,株式会社伍,,株式会社,神奈川県,川崎市川崎区,小田５丁目２０番１３号,,14,131,2100846,,,2026-01-29,清算の結了等,,,2021-05-13,1,,,,,ゴ,0
927,4020002049781,登記記録の閉鎖等,0,2026-02-04,2026-01-22,有限会社八百昇大澤商店,,有限会社,神奈川県,横浜市西区,老松町５２番地,,14,103,2200032,,,2026-01-22,清算の結了等,,,2015-10-05,1,,,,,,0
928,4020002070291,登記記録の閉鎖等,0,2026-02-04,2026-01-06,有限会社スタッフコンステレーション,,有限会社,千葉県,船橋市,南本町１２番１５号,,12,204,2730004,,,2026-01-06,清算の結了等,,,2015-10-05,1,,,,,スタッフコンステレーション,0
929,4020002089308,登記記録の閉鎖等,0,2026-02-04,2026-01-21,有限会社島田製作所,,有限会社,神奈川県,川崎市高津区,宇奈根７１８番地４０,,14,134,2130031,,,2026-01-21,清算の結了等,,,2015-10-05,1,,,,,シマダセイサクショ,0
939,4030002092863,登記記録の閉鎖等,0,2026-02-04,2026-01-28,有限会社不二リフォーム,,有限会社,埼玉県,坂戸市,西坂戸４丁目６番２５号,,11,239,3500247,,,2026-01-28,清算の結了等,,,2015-10-05,1,,,,,フジリフォーム,0
947,4040003007150,登記記録の閉鎖等,0,2026-02-04,2026-01-06,合同会社とも,,合同会社,千葉県,浦安市,北栄４丁目６番１６－４０１号ダイアパレス浦安,,12,227,2790002,,,2026-01-06,清算の結了等,,,2015-10-05,1,,,,,トモ,0
952,4040005000310,登記記録の閉鎖等,0,2026-02-04,2026-01-15,千葉県山林種苗緑化木協同組合,,その他の設立登記法人,千葉県,千葉市中央区,長洲１丁目１５番７号,,12,101,2600854,,,2026-01-15,清算の結了等,,,2015-10-05,1,,,,,チバケンサンリンシュビョウリョッカキ,0
964,4060003002240,登記記録の閉鎖等,0,2026-02-04,2026-02-02,合同会社アピチェ,,合同会社,栃木県,栃木市,片柳町５丁目６番１２号,,09,203,3280053,,,2026-02-02,合併による解散等,4060001016548,令和８年２月１日栃木市片柳町五丁目６番１２号ＮＡＧＡＴＡコーポレーション株式会社（4060001016548）に合併し解散,2016-03-31,1,,,,,アピチェ,0
968,4070002014153,登記記録の閉鎖等,0,2026-02-04,2026-01-26,有限会社須藤組,,有限会社,群馬県,高崎市,箕郷町富岡１１２６番地,,10,202,3703115,,,2026-01-26,清算の結了等,,,2015-10-05,1,,,,,ストウグミ,0
977,4090001011125,登記記録の閉鎖等,0,2026-02-04,2026-01-29,大鴻建設株式会社,,株式会社,山梨県,韮崎市,穴山町三ツ石８９０５番地,,19,207,4070263,,,2026-01-29,清算の結了等,,,2015-10-05,1,,,,,,0
987,4120001139152,登記記録の閉鎖等,0,2026-02-04,2026-02-02,株式会社ウィズ,,株式会社,大阪府,大阪市生野区,新今里４丁目２番１７号,,27,116,5440001,,,2026-02-02,清算の結了等,,,2015-10-05,1,,,,,ウィズ,0
1005,4120901043486,登記記録の閉鎖等,0,2026-02-04,2026-02-03,株式会社チームエムズ,,株式会社,大阪府,吹田市,山田南３２番１２－５０２号,,27,205,5650823,,,2026-02-03,清算の結了等,,,2020-11-18,1,,,,,,0
1009,4130001080719,登記記録の閉鎖等,0,2026-02-04,2026-02-02,株式会社Ｌｅａｌｉｎａ,,株式会社,京都府,京田辺市,三山木中央２丁目２番地４パデシオン三山木駅前１１０４,,26,211,6100313,,,2026-02-02,清算の結了等,,,2025-10-07,1,,,,,レアリナ,0
1036,4180002010967,登記記録の閉鎖等,0,2026-02-04,2026-01-30,有限会社石川荘,,有限会社,愛知県,名古屋市昭和区,塩付通６丁目４７番地,,23,107,4660022,,,2026-01-30,清算の結了等,,,2015-10-05,1,,,,,イシカワソウ,0
1043,4200001028776,登記記録の閉鎖等,0,2026-02-04,2026-01-30,株式会社岐阜社寺メンテナンス,,株式会社,岐阜県,加茂郡富加町,大平賀１２７０番地,,21,502,5013307,,,2026-01-30,清算の結了等,,,2015-10-05,1,,,,,ギフシャジメンテナンス,0
1048,4230001005905,登記記録の閉鎖等,0,2026-02-04,2026-01-30,株式会社笹木歯科商店,,株式会社,富山県,富山市,黒瀬北町２丁目１６番地１２,,16,201,9398216,,,2026-01-30,合併による解散等,1210001003186,令和８年１月２１日福井市南四ツ居二丁目１番１号株式会社別田（1210001003186）に合併し解散,2015-10-05,1,,,,,ササキシカショウテン,0
1055,4260001032335,登記記録の閉鎖等,0,2026-02-04,2026-02-02,株式会社倉敷ベジ・ラボ,,株式会社,岡山県,倉敷市,中庄３１２６番地の８,,33,202,7100016,,,2026-02-02,清算の結了等,,,2018-08-22,1,,,,,クラシキベジラボ,0
1061,4290001030773,登記記録の閉鎖等,0,2026-02-04,2026-01-28,株式会社イシン・ハカタ・オペレーションズ,,株式会社,福岡県,福岡市博多区,博多駅南１丁目３番９号,,40,132,8120016,,,2026-01-28,合併による解散等,4010401116076,令和８年１月１日東京都文京区本郷一丁目２５番２７号株式会社イシン・スイドウバシ・オペレーションズ（4010401116076）に合併し解散,2015-10-05,1,,,,,イシンハカタオペレーションズ,0
1064,4290001110897,登記記録の閉鎖等,0,2026-02-04,2026-01-27,寺甌株式会社,00140147,株式会社,福岡県,福岡市博多区,博多駅前４丁目３３番７号ロマネスク博多駅前９０８号室,,40,132,8120011,,,2026-01-27,清算の結了等,,,2025-08-04,1,,,,,ジオウ,0
1069,4290002003571,登記記録の閉鎖等,0,2026-02-04,2026-01-26,有限会社ベストライフ,,有限会社,福岡県,福岡市博多区,西月隈３丁目８番１２－２１６号,,40,132,8120857,,,2026-01-26,清算の結了等,,,2015-10-05,1,,,,,ベストライフ,0
1070,4290002034542,登記記録の閉鎖等,0,2026-02-04,2026-01-23,有限会社吉村プランニング,,有限会社,福岡県,福津市,星ケ丘２９番１２号,,40,224,8113308,,,2026-01-23,清算の結了等,,,2015-10-05,1,,,,,ヨシムラプランニング,0
1082,4340003004019,登記記録の閉鎖等,0,2026-02-04,2026-01-29,合同会社ｔａｂ,,合同会社,鹿児島県,霧島市,国分中央３丁目２４番１３－９０２号,,46,218,8994332,,,2026-01-29,清算の結了等,,,2023-01-13,1,,,,,タブ,0
1089,4380001004966,登記記録の閉鎖等,0,2026-02-04,2026-01-30,くどう地所株式会社,,株式会社,福島県,郡山市,富田町字中亀田３５番地の１９,,07,203,9638041,,,2026-01-30,清算の結了等,,,2015-10-05,1,,,,,クドウチショ,0
1091,4380002034079,登記記録の閉鎖等,0,2026-02-04,2026-01-29,有限会社エンドウスタジオ,,有限会社,福島県,河沼郡会津坂下町,字古市乙１３２番地,,07,421,9696539,,,2026-01-29,清算の結了等,,,2015-10-05,1,,,,,エンドウスタジオ,0
1120,5010002053379,登記記録の閉鎖等,0,2026-02-04,2026-02-02,有限会社Ａ＆Ｆ　ＪＡＰＡＮ,,有限会社,東京都,足立区,保木間５丁目２６番２－９０３号,,13,121,1210064,,,2026-02-02,清算の結了等,,,2015-10-05,1,,,,,,0
1129,5010401081435,登記記録の閉鎖等,0,2026-02-04,2026-01-13,株式会社ギャップスキャスト,,株式会社,東京都,港区,新橋２丁目２番２号,,13,103,1050004,,,2026-01-13,清算の結了等,,,2015-10-05,1,,,,,ギャップスキャスト,0
1132,5010401181037,登記記録の閉鎖等,0,2026-02-04,2026-01-09,Ｌｏｋａｖａｎｔ　ＡＰＡＣ株式会社,,株式会社,東京都,港区,芝大門２丁目２番１号ＡＣＮ芝大門ビルディング６階・７階,,13,103,1050012,,,2026-01-09,清算の結了等,,,2024-03-19,1,,,,,ロカヴァントエーピーエーシー,0
1146,5010502016769,登記記録の閉鎖等,0,2026-02-04,2026-01-13,有限会社エル・ティー・エム,,有限会社,東京都,港区,六本木４丁目２番２０－４０６号,,13,103,1060032,,,2026-01-13,清算の結了等,,,2015-10-05,1,,,,,エルティーエム,0
1150,5010701010374,登記記録の閉鎖等,0,2026-02-04,2026-01-26,株式会社渡辺精衡所,,株式会社,東京都,品川区,西中延１丁目２番２０号,,13,109,1420054,,,2026-01-26,清算の結了等,,,2015-10-05,1,,,,,ワタナベセイコウジョ,0
1155,5010901024100,登記記録の閉鎖等,0,2026-02-04,2026-01-29,株式会社ＴＭＣフーズ,,株式会社,東京都,世田谷区,成城６丁目４番１３号成城フルールビル２Ｆ,,13,112,1570066,,,2026-01-29,清算の結了等,,,2015-10-05,1,,,,,ティーエムシーフーズ,0
1171,5011101053591,登記記録の閉鎖等,0,2026-02-04,2026-01-28,株式会社フジホーム,,株式会社,東京都,杉並区,高円寺南３丁目５８番２２号,,13,115,1660003,,,2026-01-28,清算の結了等,,,2015-10-05,1,,,,,フジホーム,0
1177,5011301002563,登記記録の閉鎖等,0,2026-02-04,2026-01-29,株式会社小松設備商会,,株式会社,東京都,杉並区,西荻南１丁目５番１号,,13,115,1670053,,,2026-01-29,清算の結了等,,,2015-10-05,1,,,,,コマツセツビショウカイ,0
1192,5020001081917,登記記録の閉鎖等,0,2026-02-04,2025-09-11,株式会社ビューティーハート,,株式会社,神奈川県,横浜市西区,みなとみらい４丁目９－２,,14,103,2200012,,,2025-09-11,合併による解散等,2020001082851,令和７年８月３１日神奈川県横浜市西区南幸二丁目１４番１号株式会社心（2020001082851）に合併し解散,2015-10-05,1,,,,,ビューティーハート,0
1195,5020003014148,登記記録の閉鎖等,0,2026-02-04,2026-02-02,合同会社イーアンドビー,,合同会社,神奈川県,横浜市西区,浅間台１５番地１２,,14,103,2200071,,,2026-02-02,清算の結了等,,,2018-04-05,1,,,,,イーアンドビー,0
1202,5030001127000,登記記録の閉鎖等,0,2026-02-04,2026-02-02,株式会社リアムプロモーション,,株式会社,兵庫県,西宮市,羽衣町７－３０川夙グリーンタウン３Ｆ,,28,204,6620051,,,2026-02-02,清算の結了等,,,2018-08-14,1,,,,,リアムプロモーション,0
1204,5030001142148,登記記録の閉鎖等,0,2026-02-04,2026-01-28,株式会社Ｎ２Ｐ　ｂｙ　ｍｉｍｉｙｏｇａ,,株式会社,埼玉県,所沢市,中新井５丁目２２番８号,,11,208,3590041,,,2026-01-28,清算の結了等,,,2021-05-12,1,,,,,エヌトゥピーバイミイミヨガ,0
1225,5080001016710,登記記録の閉鎖等,0,2026-02-04,2026-01-30,株式会社ホテルシルビア,,株式会社,静岡県,藤枝市,稲川１丁目１１番４８号,,22,214,4260022,,,2026-01-30,清算の結了等,,,2015-10-05,1,,,,,ホテルシルビア,0
1237,5120001048724,登記記録の閉鎖等,0,2026-02-04,2026-01-30,日本セラウエイ株式会社,,株式会社,大阪府,大阪市中央区,今橋２丁目１番１０号,,27,128,5410042,,,2026-01-30,合併による解散等,6120001273081,令和８年１月３０日大阪市中央区今橋二丁目１番１０号ダイセンインベストメント株式会社（6120001273081）に合併し解散,2015-10-05,1,,,,,ニホンセラウエイ,0
1260,5140001068349,登記記録の閉鎖等,0,2026-02-04,2026-02-02,金井土木工業株式会社,,株式会社,兵庫県,西宮市,城ケ堀町４番１号,,28,204,6620856,,,2026-02-02,清算の結了等,,,2015-10-05,1,,,,,カナイドボクコウギョウ,0
1274,5170001010621,登記記録の閉鎖等,0,2026-02-04,2026-02-02,紀和ダイハツ株式会社,,株式会社,和歌山県,橋本市,学文路５７番地の１,,30,203,6480043,,,2026-02-02,合併による解散等,6170002008457,令和８年２月１日和歌山県紀の川市貴志川町長山２７７番地１１２株式会社熊井自動車（6170002008457）に合併し解散,2015-10-05,1,,,,,キワダイハツ,0
1282,5180002061563,登記記録の閉鎖等,0,2026-02-04,2026-01-30,有限会社モア・リビング,,有限会社,愛知県,名古屋市中村区,椿町１４番５号,,23,105,4530015,,,2026-01-30,清算の結了等,,,2015-10-05,1,,,,,モアリビング,0
1294,5210002004287,登記記録の閉鎖等,0,2026-02-04,2026-02-02,有限会社みつわ商事,,有限会社,福井県,福井市,問屋町３丁目２０５番地,,18,201,9188231,,,2026-02-02,清算の結了等,,,2015-10-05,1,,,,,ミツワショウジ,0
1296,5220002001176,登記記録の閉鎖等,0,2026-02-04,2026-02-02,有限会社乾工務店,,有限会社,石川県,金沢市,馬替３丁目１４０番地,,17,201,9218141,,,2026-02-02,清算の結了等,,,2015-10-05,1,,,,,イヌイコウムテン,0
1298,5230003000457,登記記録の閉鎖等,0,2026-02-04,2026-01-28,合名会社中村設計事務所,,合名会社,富山県,小矢部市,新富町５番２号,,16,209,9320044,,,2026-01-28,清算の結了等,,,2015-10-05,1,,,,,ナカムラセッケイジムショ,0
1300,5240005009933,登記記録の閉鎖等,0,2026-02-04,2026-01-30,農事組合法人神石高原和牛の里,,その他の設立登記法人,広島県,神石郡神石高原町,油木乙６２５６番地２１,,34,545,7201812,,,2026-01-30,清算の結了等,,,2015-10-05,1,,,,,ジンセキコウゲンワギュウノサト,0
1312,5290001035664,登記記録の閉鎖等,0,2026-02-04,2026-01-05,株式会社ウッドクラフト,,株式会社,福岡県,那珂川市,下梶原１丁目１０番３３号,,40,231,8111222,,,2026-01-05,清算の結了等,,,2015-10-05,1,,,,,ウッドクラフト,0
1340,5380001027520,登記記録の閉鎖等,0,2026-02-04,2026-01-30,株式会社つながるファーム,,株式会社,福島県,福島市,松川町下川崎字下ノ原山５番地の１,,07,201,9601232,,,2026-01-30,清算の結了等,,,2016-11-17,1,,,,,,0
1341,5380001033477,登記記録の閉鎖等,0,2026-02-04,2026-01-29,デュオ不動産管理株式会社,,株式会社,福島県,会津若松市,神指町大字南四合字幕内南６３２番地１２,,07,202,9650858,,,2026-01-29,清算の結了等,,,2023-02-16,1,,,,,デュオフドウサンカンリ,0
1344,5400001005696,登記記録の閉鎖等,0,2026-02-04,2026-01-26,株式会社ＧＳＣ,,株式会社,岩手県,花巻市,南笹間２地割２２５番地１,,03,205,0250134,,,2026-01-26,清算の結了等,,,2015-10-05,1,,,,,ジーエスシー,0
1362,5470005001677,登記記録の閉鎖等,0,2026-02-04,2026-02-03,医療法人社団藤英会,,その他の設立登記法人,香川県,高松市,三谷町９２０番地２６,,37,201,7610450,,,2026-02-03,清算の結了等,,,2015-10-05,1,,,,,トウエイカイ,0
1373,6010001145655,登記記録の閉鎖等,0,2026-02-04,2026-01-30,株式会社北上書房,,株式会社,岩手県,一関市,大町１番２４号,,03,209,0210881,,,2026-01-30,合併による解散等,1122001028973,令和８年１月１日東京都文京区小石川二丁目２２番２号楽天ブックスネットワーク株式会社（1122001028973）に合併し解散,2015-10-05,1,,,,,キタカミショボウ,0
1381,6010003035061,登記記録の閉鎖等,0,2026-02-04,2026-01-14,合同会社ｔｒａｖｉ,,合同会社,東京都,文京区,西片２丁目２２－４－１０７,,13,105,1130024,,,2026-01-14,清算の結了等,,,2021-06-14,1,,,,,トラビ,0
1387,6010401039151,登記記録の閉鎖等,0,2026-02-04,2026-01-13,株式会社味ごよみ一心,,株式会社,東京都,港区,芝公園２丁目６番８号日本女子会館内,,13,103,1050011,,,2026-01-13,清算の結了等,,,2015-10-05,1,,,,,アジゴヨミイッシン,0
1392,6010401182769,登記記録の閉鎖等,0,2026-02-04,2025-12-19,Ｘ‐ＡＩ．Ｌａｂｏ株式会社,,株式会社,東京都,港区,南青山３丁目１番３４号３ｒｄＭＩＮＡＭＩＡＯＹＡＭＡ１１階,,13,103,1070062,,,2025-12-19,合併による解散等,5011101079356,令和７年１２月１日東京都港区南青山三丁目１番３４号グロービング株式会社（5011101079356）に合併し解散,2024-06-04,1,,,,,クロスエーアイラボ,0
1395,6010403034332,登記記録の閉鎖等,0,2026-02-04,2026-01-14,合同会社Ｌｉｖｅ　Ｐｒｏｔｅｃｔｉｏｎ,,合同会社,東京都,港区,北青山１丁目３番１号アールキューブ青山３階,,13,103,1070061,,,2026-01-14,清算の結了等,,,2025-02-14,1,,,,,ライブプロテクション,0
1403,6010502020852,登記記録の閉鎖等,0,2026-02-04,2026-01-22,有限会社エルエスプランニング,,有限会社,東京都,台東区,千束４丁目１８番３号,,13,106,1110031,,,2026-01-22,清算の結了等,,,2015-10-05,1,,,,,エルエスプランニング,0
1405,6010602019299,登記記録の閉鎖等,0,2026-02-04,2026-01-26,有限会社関本工務店,,有限会社,東京都,墨田区,亀沢２丁目２５番１１号,,13,107,1300014,,,2026-01-26,清算の結了等,,,2015-10-05,1,,,,,セキモトコウムテン,0
1407,6010701038803,登記記録の閉鎖等,0,2026-02-04,2026-01-30,シーメンス・エナジー株式会社,,株式会社,東京都,品川区,上大崎３丁目１番１号,,13,109,1410021,,,2026-01-30,合併による解散等,4010001217035,令和８年１月１日東京都港区東新橋一丁目９番１号東京汐留ビルディング１４Ｆシーメンス・エナジー株式会社（4010001217035）に合併し解散,2020-01-27,1,,,,,,0
1410,6010703007236,登記記録の閉鎖等,0,2026-02-04,2026-01-26,白楽ホームホールディングス合同会社,,合同会社,東京都,品川区,上大崎３丁目１番１号目黒セントラルスクエア１５階,,13,109,1410021,,,2026-01-26,清算の結了等,,,2024-06-27,1,,,,,ハクラクホームホールディングス,0
1412,6010901043207,登記記録の閉鎖等,0,2026-02-04,2026-01-29,株式会社栞音,,株式会社,神奈川県,川崎市中原区,小杉町３丁目１５０１番地２プラウドタワー武蔵小杉３２０９,,14,133,2110063,,,2026-01-29,清算の結了等,,,2018-12-03,1,,,,,カノン,0
1423,6011003021407,登記記録の閉鎖等,0,2026-02-04,2025-12-26,合同会社ｐｌａｃｅｈｏｌｄｅｒ,,合同会社,東京都,渋谷区,円山町５番３号ＭＩＥＵＸ渋谷ビル８階,,13,113,1500044,,,2025-12-26,清算の結了等,,,2025-04-07,1,,,,,プレースホルダー,0
1429,6011201006779,登記記録の閉鎖等,0,2026-02-04,2026-01-27,株式会社モードじょうじゅん,,株式会社,東京都,中野区,野方２丁目５１番１号,,13,114,1650027,,,2026-01-27,清算の結了等,,,2015-10-05,1,,,,,モードジョウジュン,0
1432,6011501026188,登記記録の閉鎖等,0,2026-02-04,2026-02-02,株式会社Ｄｒｅａｍ　Ｒｏａｄ,,株式会社,東京都,足立区,東伊興１丁目１１番１１号,,13,121,1210801,,,2026-02-02,清算の結了等,,,2020-09-16,1,,,,,ドリームロード,0
1452,6013303007580,登記記録の閉鎖等,0,2026-02-04,2026-01-27,ＩＴＢＳ合同会社,,合同会社,東京都,豊島区,東池袋１丁目１７番１１－１１０５号パークハイツ池袋,,13,116,1700013,,,2026-01-27,清算の結了等,,,2025-03-19,1,,,,,アイティービーエス,0
1454,6020001001353,登記記録の閉鎖等,0,2026-02-04,2026-01-26,国産自動車販売株式会社,,株式会社,神奈川県,横浜市瀬谷区,五貫目町１１番地の８,,14,114,2460008,,,2026-01-26,清算の結了等,,,2015-10-05,1,,,,,コクサンジドウシャハンバイ,0
1477,6030002028386,登記記録の閉鎖等,0,2026-02-04,2026-01-29,有限会社内野商店,,有限会社,埼玉県,所沢市,大字荒幡２０２番地２,,11,208,3591133,,,2026-01-29,清算の結了等,,,2015-10-05,1,,,,,ウチノショウテン,0
1481,6040001105350,登記記録の閉鎖等,0,2026-02-04,2026-01-13,株式会社アグリスト,,株式会社,千葉県,銚子市,長山町２０３１番地２,,12,202,2880865,,,2026-01-13,清算の結了等,,,2018-07-05,1,,,,,アグリスト,0
1487,6040002067284,登記記録の閉鎖等,0,2026-02-04,2026-01-08,東総産業有限会社,,有限会社,千葉県,木更津市,清見台２丁目２番２１号,,12,206,2920045,,,2026-01-08,清算の結了等,,,2015-10-05,1,,,,,,0
1488,6040002100573,登記記録の閉鎖等,0,2026-02-04,2026-01-07,有限会社松戸コーキング,,有限会社,千葉県,南房総市,安馬谷２１５１番地１５,,12,234,2992522,,,2026-01-07,清算の結了等,,,2015-10-05,1,,,,,マツドコーキング,0
1498,6070001038382,登記記録の閉鎖等,0,2026-02-04,2026-02-03,株式会社しろくま不動産,,株式会社,群馬県,伊勢崎市,宮子町３１３８,,10,204,3720801,,,2026-02-03,清算の結了等,,,2021-08-27,1,,,,,シロクマフドウサン,0
1500,6070002013376,登記記録の閉鎖等,0,2026-02-04,2026-01-13,有限会社ティアープロジェクト,,有限会社,東京都,千代田区,麹町２丁目１０番３号,,13,101,1020083,,,2026-01-13,清算の結了等,,,2015-10-05,1,,,,,ティアープロジェクト,0
1501,6070002036682,登記記録の閉鎖等,0,2026-02-04,2026-02-02,有限会社中之条ホンダ販売,,有限会社,群馬県,吾妻郡中之条町,大字折田２１４番地１,,10,421,3770433,,,2026-02-02,合併による解散等,9070001002930,令和８年２月１日群馬県前橋市問屋町一丁目１０番地８株式会社ホンダカーズ群馬（9070001002930）に合併し解散,2015-10-05,1,,,,,ナカノジョウホンダハンバイ,0
1505,6080401018198,登記記録の閉鎖等,0,2026-02-04,2026-01-28,株式会社ＭＩ,,株式会社,愛知県,新城市,細川字大沢３５番地,,23,221,4411613,,,2026-01-28,清算の結了等,,,2015-10-05,1,,,,,エムアイ,0
1506,6100002034154,登記記録の閉鎖等,0,2026-02-04,2026-01-30,有限会社信州蜂酒研究所,,有限会社,長野県,上伊那郡中川村,葛島２５３８番地３,00069707,20,386,3993803,,,2026-01-30,清算の結了等,,,2015-10-05,1,,,,,シンシュウホウシュケンキュウジョ,0
1511,6120001096417,登記記録の閉鎖等,0,2026-02-04,2026-01-22,ルックマン株式会社,,株式会社,大阪府,大阪市阿倍野区,阿倍野元町１５番２６号,,27,119,5450034,,,2026-01-22,清算の結了等,,,2015-10-05,1,,,,,ルックマン,0
1531,6120101057723,登記記録の閉鎖等,0,2026-02-04,2026-01-29,株式会社安住,,株式会社,大阪府,富田林市,向陽台５丁目４番６号,,27,214,5840082,,,2026-01-29,清算の結了等,,,2018-01-30,1,,,,,アンジュ,0
1532,6120103006810,登記記録の閉鎖等,0,2026-02-04,2026-01-27,合同会社タック,,合同会社,大阪府,富田林市,津々山台１丁目５番８号,,27,214,5840086,,,2026-01-27,合併による解散等,7120102016900,令和８年１月１日大阪府富田林市津々山台一丁目５番８号タックトータルマネジメント株式会社（7120102016900）に合併し解散,2025-10-27,1,,,,,タック,0
1538,6140001128721,登記記録の閉鎖等,0,2026-02-04,2026-02-02,株式会社Ｇｌｕｔｅ,,株式会社,兵庫県,多可郡多可町,八千代区下三原７６２番地下三原団地１０号,,28,365,6770131,,,2026-02-02,清算の結了等,,,2023-01-12,1,,,,,グルート,0
1550,6160003002864,登記記録の閉鎖等,0,2026-02-04,2026-01-30,ＷｅｓｔＮｏｒｔｈ合同会社,,合同会社,滋賀県,守山市,二町町３０番地１０５,,25,207,5240043,,,2026-01-30,清算の結了等,,,2023-04-28,1,,,,,ウエストノース,0
1554,6180001051787,登記記録の閉鎖等,0,2026-02-04,2026-01-29,メディカル８株式会社,,株式会社,愛知県,名古屋市東区,泉２丁目２６番２号,,23,102,4610001,,,2026-01-29,合併による解散等,6030001066965,令和８年１月１日大阪府茨木市西駅前町１３番２５号株式会社ウィーズ（6030001066965）に合併し解散,2015-10-05,1,,,,,メディカルエイト,0
1555,6180001075902,登記記録の閉鎖等,0,2026-02-04,2026-01-30,株式会社三幸,,株式会社,愛知県,小牧市,大字東田中２５１７番地,,23,219,4850826,,,2026-01-30,清算の結了等,,,2015-10-05,1,,,,,サンコウ,0
1562,6180302000690,登記記録の閉鎖等,0,2026-02-04,2026-01-30,有限会社小沢屋商店,,有限会社,愛知県,岡崎市,本町通３丁目１５番地,,23,202,4440051,,,2026-01-30,清算の結了等,,,2015-10-05,1,,,,,オザワヤショウテン,0
1572,6230002001059,登記記録の閉鎖等,0,2026-02-04,2026-01-30,クレハインシュァランス有限会社,,有限会社,富山県,富山市,百塚１８８番地,,16,201,9302214,,,2026-01-30,清算の結了等,,,2015-10-05,1,,,,,クレハインシュァランス,0
1573,6230002002197,登記記録の閉鎖等,0,2026-02-04,2026-01-30,有限会社津和工業,,有限会社,富山県,富山市,小杉７６３番地の３,,16,201,9398063,,,2026-01-30,清算の結了等,,,2015-10-05,1,,,,,ツワコウギョウ,0
1591,6290001070784,登記記録の閉鎖等,0,2026-02-04,2026-01-23,株式会社チーム岩崎,00092906,株式会社,福岡県,春日市,千歳町３丁目３０番地１３,,40,218,8160805,,,2026-01-23,清算の結了等,,,2015-10-05,1,,,,,チームイワサキ,0
1638,6700150098741,登記記録の閉鎖等,0,2026-02-04,2025-09-30,是川新鮮あおぞら市,,その他,青森県,八戸市,是川１丁目１２－１０,,02,203,0310023,,,2025-09-30,その他の清算の結了等,,,2020-04-10,1,,,,,コレカワシンセンアオゾライチ,0
1648,7010001152279,登記記録の閉鎖等,0,2026-02-04,2026-02-02,株式会社フランソワ,,株式会社,東京都,葛飾区,立石２丁目３１番１５号,,13,122,1240012,,,2026-02-02,清算の結了等,,,2015-10-05,1,,,,,フランソワ,0
1663,7010401021034,登記記録の閉鎖等,0,2026-02-04,2026-01-26,株式会社Ｎ・Ｆ・Ｂ,,株式会社,東京都,豊島区,目白３丁目９番２０号,,13,116,1710031,,,2026-01-26,清算の結了等,,,2015-10-05,1,,,,,エヌエフビー,0
1674,7010601010646,登記記録の閉鎖等,0,2026-02-04,2026-01-29,謙信興業株式会社,,株式会社,東京都,墨田区,両国４丁目３２番１９号,,13,107,1300026,,,2026-01-29,清算の結了等,,,2015-10-05,1,,,,,ケンシンコウギョウ,0
1681,7010901021574,登記記録の閉鎖等,0,2026-02-04,2026-02-02,株式会社悠林舎,,株式会社,東京都,世田谷区,深沢５丁目２５番１０号,,13,112,1580081,,,2026-02-02,清算の結了等,,,2015-10-05,1,,,,,ユウリンシャ,0
1693,7011101090773,登記記録の閉鎖等,0,2026-02-04,2026-02-02,株式会社Ｔ＆Ａインターナショナル・サービス,,株式会社,大阪府,茨木市,庄１丁目１番４号,,27,211,5670806,,,2026-02-02,清算の結了等,,,2020-03-17,1,,,,,ティーアンドエーインターナショナルサービス,0
1697,7011103014425,登記記録の閉鎖等,0,2026-02-04,2026-01-07,合同会社プロジェクト０１,,合同会社,東京都,新宿区,四谷２丁目９番地１５東京ユナイテッド綜合事務所内,,13,104,1600004,,,2026-01-07,清算の結了等,,,2024-05-24,1,,,,,プロジェクトゼロワン,0
1706,7011701013167,登記記録の閉鎖等,0,2026-02-04,2026-01-29,セントラルテクノ株式会社,,株式会社,東京都,江戸川区,篠崎町５丁目９番１６号チェリーハイツＢ２０２,,13,123,1330061,,,2026-01-29,清算の結了等,,,2015-10-05,1,,,,,セントラルテクノ,0
1715,7012701010484,登記記録の閉鎖等,0,2026-02-04,2026-01-13,株式会社万里,,株式会社,東京都,台東区,上野３丁目１１番５号,,13,106,1100005,,,2026-01-13,清算の結了等,,,2015-10-05,1,,,,,バンリ,0
1719,7013201010082,登記記録の閉鎖等,0,2026-02-04,2026-01-08,株式会社フォースカミング,,株式会社,東京都,目黒区,上目黒１丁目４番４号,,13,110,1530051,,,2026-01-08,清算の結了等,,,2015-10-05,1,,,,,フォースカミング,0
1724,7020001122561,登記記録の閉鎖等,0,2026-02-04,2026-01-26,株式会社ＣＨＡＮＣＥ,,株式会社,神奈川県,横浜市港北区,新横浜２丁目５番１４号３階,,14,109,2220033,,,2026-01-26,清算の結了等,,,2017-08-16,1,,,,,シャンス,0
1726,7020001141636,登記記録の閉鎖等,0,2026-02-04,2026-01-19,株式会社エス・ケイプラント工業,,株式会社,神奈川県,横浜市中区,石川町５丁目２１９番地２Ｆ,,14,104,2310868,,,2026-01-19,清算の結了等,,,2021-06-03,1,,,,,エスケイプラントコウギョウ,0
1733,7021005002592,登記記録の閉鎖等,0,2026-02-04,2026-01-05,西門市場協同組合,,その他の設立登記法人,神奈川県,相模原市中央区,相模原６丁目２４番６号,,14,152,2520231,,,2026-01-05,清算の結了等,,,2015-10-05,1,,,,,ニシモンイチバ,0
1750,7040002103014,登記記録の閉鎖等,0,2026-02-04,2026-01-13,有限会社生活支援事業ＮＯＡＨ,,有限会社,千葉県,夷隅郡御宿町,岩和田１０５６番地,,12,443,2995105,,,2026-01-13,清算の結了等,,,2015-10-05,1,,,,,,0
1771,7080102018372,登記記録の閉鎖等,0,2026-02-04,2026-01-29,有限会社ペルソナ,,有限会社,静岡県,熱海市,清水町１番４号,,22,205,4130021,,,2026-01-29,清算の結了等,,,2015-10-05,1,,,,,ペルソナ,0
1778,7120001013379,登記記録の閉鎖等,0,2026-02-04,2026-01-30,株式会社ハラ,,株式会社,大阪府,大阪市東成区,東小橋１丁目１６番５号,,27,115,5370024,,,2026-01-30,清算の結了等,,,2015-10-05,1,,,,,ハラ,0
1788,7120002033384,登記記録の閉鎖等,0,2026-02-04,2026-02-02,有限会社アズタビル,,有限会社,大阪府,大阪市中央区,船越町１丁目６番２号,,27,128,5400036,,,2026-02-02,清算の結了等,,,2015-10-05,1,,,,,アズタビル,0
1789,7120002044679,登記記録の閉鎖等,0,2026-02-04,2026-02-02,有限会社今里コーセツ,,有限会社,大阪府,大阪市生野区,新今里４丁目２番１７号,,27,116,5440001,,,2026-02-02,清算の結了等,,,2015-10-05,1,,,,,,0
1811,7140002041245,登記記録の閉鎖等,0,2026-02-04,2026-01-29,有限会社首藤工務店,,有限会社,兵庫県,尼崎市,常吉２丁目３番４号Ａ－２０２号,,28,202,6610042,,,2026-01-29,清算の結了等,,,2015-10-05,1,,,,,スドウコウムテン,0
1818,7170001013309,登記記録の閉鎖等,0,2026-02-04,2026-01-30,ベルッド株式会社,,株式会社,和歌山県,海南市,日方１２８１番地１,,30,202,6420002,,,2026-01-30,清算の結了等,,,2015-10-05,1,,,,,ベルッド,0
1823,7180001050177,登記記録の閉鎖等,0,2026-02-04,2026-01-30,株式会社エコ・リサーチ,,株式会社,愛知県,名古屋市中区,錦１丁目４番６号,,23,106,4600003,,,2026-01-30,清算の結了等,,,2015-10-05,1,,,,,エコリサーチ,0
1826,7180001073021,登記記録の閉鎖等,0,2026-02-04,2026-01-30,株式会社ＫＳプランニング,,株式会社,愛知県,名古屋市中村区,草薙町２丁目６８番地,,23,105,4530064,,,2026-01-30,清算の結了等,,,2015-10-05,1,,,,,,0
1838,7200001004064,登記記録の閉鎖等,0,2026-02-04,2026-02-02,株式会社日住設計,,株式会社,岐阜県,岐阜市,平和通１丁目１８番地の２,,21,201,5020827,,,2026-02-02,清算の結了等,,,2015-10-05,1,,,,,ニチジュウセッケイ,0
1845,7230002011040,登記記録の閉鎖等,0,2026-02-04,2026-02-02,有限会社高陵ニュートラベル,,有限会社,富山県,高岡市,丸の内７番３５号丸の内ビル２階,,16,202,9330912,,,2026-02-02,清算の結了等,,,2015-10-05,1,,,,,コウリョウニュートラベル,0
1878,7310002017211,登記記録の閉鎖等,0,2026-02-04,2026-02-02,有限会社古藤建設,,有限会社,長崎県,諫早市,貝津町９２７番地１,,42,204,8540063,,,2026-02-02,合併による解散等,1310001003259,令和８年２月１日長崎市三京町２８９８番地１４株式会社長崎日鋪（1310001003259）に合併し解散,2015-10-05,1,,,,,コトウケンセツ,0
1888,7380003005893,登記記録の閉鎖等,0,2026-02-04,2026-01-30,Ｌｉｇｈｔ　Ｓｔｙｌｅ合同会社,,合同会社,福島県,福島市,渡利字番匠町１０５－２タイムＡ２０１,,07,201,9608141,,,2026-01-30,清算の結了等,,,2024-11-20,1,,,,,ライトスタイル,0
1892,7400002006403,登記記録の閉鎖等,0,2026-02-04,2026-01-28,有限会社ピーエヌダブリュー,,有限会社,岩手県,盛岡市,北山２丁目２５番１３号,,03,201,0200061,,,2026-01-28,清算の結了等,,,2015-10-05,1,,,,,ピーエヌダブリュー,0
1894,7420001007061,登記記録の閉鎖等,0,2026-02-04,2025-09-08,株式会社ワカノビジネスサービス,,株式会社,青森県,八戸市,大字長苗代字上中坪１２番１,,02,203,0391103,,,2025-09-08,合併による解散等,4420001006850,令和７年９月８日青森県八戸市大字長苗代字上中坪１２番地１若野ホンダ販売株式会社（4420001006850）に合併し解散,2015-10-05,1,,,,,ワカノビジネスサービス,0
1909,8010001095915,登記記録の閉鎖等,0,2026-02-04,2026-01-05,株式会社ＭＡＣＣ,,株式会社,東京都,中央区,銀座６丁目６番１号,,13,102,1040061,,,2026-01-05,清算の結了等,,,2015-10-05,1,,,,,エムエーシーシー,0
1910,8010001096046,登記記録の閉鎖等,0,2026-02-04,2026-01-13,ミリオンアロー株式会社,,株式会社,東京都,千代田区,岩本町３丁目９番１３号,,13,101,1010032,,,2026-01-13,清算の結了等,,,2015-10-05,1,,,,,ミリオンアロー,0
1914,8010001205399,登記記録の閉鎖等,0,2026-02-04,2026-01-13,株式会社包旺筆,,株式会社,東京都,中央区,銀座３丁目１１番１号銀座参番館ビル３階,,13,102,1040061,,,2026-01-13,清算の結了等,,,2019-11-18,1,,,,,ホウオウフデ,0
1927,8010101007241,登記記録の閉鎖等,0,2026-02-04,2026-02-02,株式会社エスケーリース,,株式会社,東京都,八王子市,戸吹町９２番地,,13,201,1920001,,,2026-02-02,清算の結了等,,,2015-10-05,1,,,,,エスケーリース,0
1931,8010401102502,登記記録の閉鎖等,0,2026-02-04,2026-01-13,株式会社ＪＩＭＡ,,株式会社,東京都,千代田区,大手町１丁目５番１号大手町ファーストスクエアイーストタワー４階,,13,101,1000004,,,2026-01-13,清算の結了等,,,2015-10-05,1,,,,,ジーマ,0
1932,8010401132185,登記記録の閉鎖等,0,2026-02-04,2026-01-09,株式会社Ｋａｒａｋｓａメディアパートナー,,株式会社,東京都,港区,赤坂１丁目１番１号,,13,103,1070052,,,2026-01-09,清算の結了等,,,2017-06-23,1,,,,,カラクサメディアパートナー,0
1934,8010401153487,登記記録の閉鎖等,0,2026-02-04,2026-01-08,株式会社スラープ,,株式会社,東京都,港区,芝浦４丁目４番２７－１３０５号,,13,103,1080023,,,2026-01-08,清算の結了等,,,2020-06-22,1,,,,,スラープ,0
1936,8010401188673,登記記録の閉鎖等,0,2026-02-04,2026-01-09,楽天ステイオペレーションズ株式会社,,株式会社,東京都,港区,港南２丁目１６番５号ＮＢＦ品川タワー１４階,,13,103,1080075,,,2026-01-09,合併による解散等,4010901048100,令和８年１月１日東京都港区港南二丁目１６番５号楽天ステイホスピタリティ株式会社（4010901048100）に合併し解散,2025-03-07,1,,,,,ラクテンステイオペレーションズ,0
1944,8010601059807,登記記録の閉鎖等,0,2026-02-04,2026-01-29,ＫＧ株式会社,,株式会社,東京都,江東区,北砂４丁目１９番３０号北砂四丁目住宅６３７号,,13,108,1360073,,,2026-01-29,清算の結了等,,,2021-08-23,1,,,,,ケージー,0
1949,8010801001824,登記記録の閉鎖等,0,2026-02-04,2026-01-20,エムディーマネジメント株式会社,,株式会社,東京都,大田区,大森北１丁目５番１号,,13,111,1430016,,,2026-01-20,合併による解散等,1010803002100,令和８年１月１日東京都大田区大森北一丁目５番１号合同会社Ａｌｉｇｎ（1010803002100）に合併し解散,2015-10-05,1,,,,,エムディーマネジメント,0
1973,8011101046683,登記記録の閉鎖等,0,2026-02-04,2026-01-29,株式会社ティー・アンド・ジー,,株式会社,東京都,板橋区,坂下２丁目４番１号,,13,119,1740043,,,2026-01-29,清算の結了等,,,2015-10-05,1,,,,,ティーアンドジー,0
1975,8011101084989,登記記録の閉鎖等,0,2026-02-04,2026-01-29,プレズビューティ株式会社,,株式会社,広島県,福山市,沖野上町４丁目８番２３号,,34,207,7200825,,,2026-01-29,清算の結了等,,,2018-08-07,1,,,,,プレズビューティ,0
1996,8020001134077,登記記録の閉鎖等,0,2026-02-04,2026-02-02,株式会社Ｓｕｎ　Ａｃｅ,,株式会社,神奈川県,横浜市緑区,十日市場町８７１番地１０ウイライブ十日市場３０２,,14,113,2260025,,,2026-02-02,清算の結了等,,,2019-12-16,1,,,,,サンエース,0
1998,8020002002687,登記記録の閉鎖等,0,2026-02-04,2026-01-23,有限会社幸洋建設,,有限会社,神奈川県,横浜市泉区,和泉町５８８３,,14,116,2450016,,,2026-01-23,清算の結了等,,,2015-10-05,1,,,,,コウヨウケンセツ,0
1999,8020002055082,登記記録の閉鎖等,0,2026-02-04,2026-01-20,有限会社リメイン,,有限会社,神奈川県,横浜市旭区,中尾１丁目３２番３号,,14,112,2410815,,,2026-01-20,清算の結了等,,,2015-10-05,1,,,,,リメイン,0
2007,8030001026471,登記記録の閉鎖等,0,2026-02-04,2026-01-13,株式会社鷹城,,株式会社,埼玉県,狭山市,大字中新田芝２１１番７号,,11,215,3501311,,,2026-01-13,清算の結了等,,,2015-10-05,1,,,,,タカジョウ,0
2020,8030002031644,登記記録の閉鎖等,0,2026-02-04,2026-01-28,有限会社三共,,有限会社,埼玉県,所沢市,緑町４丁目８番２０号,,11,208,3591111,,,2026-01-28,清算の結了等,,,2015-10-05,1,,,,,サンキョウ,0
2043,8070002021369,登記記録の閉鎖等,0,2026-02-04,2026-02-03,有限会社野通美装,,有限会社,群馬県,佐波郡玉村町,大字藤川５９番地７,,10,464,3701101,,,2026-02-03,清算の結了等,,,2015-10-05,1,,,,,ノミチビソウ,0
2045,8070002034833,登記記録の閉鎖等,0,2026-02-04,2026-02-02,有限会社ホンダカーズ沼田南,,有限会社,群馬県,沼田市,戸鹿野町４００番地２,,10,206,3780015,,,2026-02-02,合併による解散等,9070001002930,令和８年２月１日群馬県前橋市問屋町一丁目１０番地８株式会社ホンダカーズ群馬（9070001002930）に合併し解散,2015-10-05,1,,,,,ホンダカーズヌマタミナミ,0
2047,8080401027478,登記記録の閉鎖等,0,2026-02-04,2026-01-29,Ｒｉｎｐｌｕｓ株式会社,,株式会社,静岡県,浜松市中央区,有玉南町１８６７番地の１,,22,138,4313122,,,2026-01-29,清算の結了等,,,2024-10-02,1,,,,,リンプラス,0
2064,8120003019381,登記記録の閉鎖等,0,2026-02-04,2026-02-02,合同会社イデア,,合同会社,大阪府,大阪市此花区,酉島２丁目１－２９,,27,104,5540051,,,2026-02-02,清算の結了等,,,2021-05-12,1,,,,,イデア,0
2067,8120101045940,登記記録の閉鎖等,0,2026-02-04,2026-01-29,一休フードシステム株式会社,,株式会社,大阪府,泉南市,男里５丁目１４番２号２階,,27,228,5900526,,,2026-01-29,清算の結了等,,,2015-10-05,1,,,,,イッキュウフードシステム,0
2074,8120902015126,登記記録の閉鎖等,0,2026-02-04,2026-01-30,有限会社オリエンタル．ラボラトリー,,有限会社,大阪府,箕面市,桜井３丁目７番２２号,,27,220,5620043,,,2026-01-30,清算の結了等,,,2015-10-05,1,,,,,オリエンタルラボラトリー,0
2079,8140001017939,登記記録の閉鎖等,0,2026-02-04,2026-01-30,株式会社松山電設,,株式会社,兵庫県,神戸市須磨区,磯馴町６丁目２番２０号,,28,107,6540047,,,2026-01-30,清算の結了等,,,2015-10-05,1,,,,,マツヤマデンセツ,0
2081,8140001104308,登記記録の閉鎖等,0,2026-02-04,2026-01-28,株式会社こころ,,株式会社,兵庫県,神戸市東灘区,深江浜町１番１東部市場内,,28,101,6580023,,,2026-01-28,清算の結了等,,,2016-12-12,1,,,,,ココロ,0
2091,8150001019868,登記記録の閉鎖等,0,2026-02-04,2026-02-02,株式会社キタマル塗装,,株式会社,奈良県,天理市,中町１８３番地１２,,29,204,6320097,,,2026-02-02,清算の結了等,,,2015-10-05,1,,,,,キタマルトソウ,0
2113,8230001004993,登記記録の閉鎖等,0,2026-02-04,2026-01-27,株式会社三幸富山センター,,株式会社,富山県,富山市,中大久保字沼野割１９６番１６,,16,201,9392243,,,2026-01-27,合併による解散等,3010401068269,令和８年１月１日東京都港区浜松町二丁目５番５号株式会社三幸（3010401068269）に合併し解散,2015-10-05,1,,,,,サンコウトヤマセンター,0
2115,8230003001238,登記記録の閉鎖等,0,2026-02-04,2026-01-29,合同会社ＵＰａｎｄＵＰ,,合同会社,富山県,富山市,四方荒屋２５８９番地１,,16,201,9302243,,,2026-01-29,清算の結了等,,,2018-07-23,1,,,,,アップアンドアップ,0
2125,8250002010799,登記記録の閉鎖等,0,2026-02-04,2026-01-30,有限会社フレンド商会,,有限会社,山口県,下関市,竹崎町３丁目５番５号,,35,201,7500025,,,2026-01-30,清算の結了等,,,2015-10-05,1,,,,,フレンドショウカイ,0
2137,8280005002353,登記記録の閉鎖等,0,2026-02-04,2026-02-02,特定非営利活動法人エプロンの会,,その他の設立登記法人,島根県,安来市,安来町１７１０番地,,32,206,6920011,,,2026-02-02,清算の結了等,,,2015-10-05,1,,,,,,0
2142,8290001057391,登記記録の閉鎖等,0,2026-02-04,2026-01-23,ケア・サポート寿株式会社,,株式会社,福岡県,飯塚市,鯰田７６７番地１,,40,205,8200001,,,2026-01-23,清算の結了等,,,2015-10-05,1,,,,,ケアサポートヒロ,0
2156,8320001011452,登記記録の閉鎖等,0,2026-02-04,2026-02-02,株式会社ケアー・マイスター,,株式会社,大分県,大分市,南津留２０３番地２,,44,201,8700937,,,2026-02-02,清算の結了等,,,2015-10-05,1,,,,,ケアーマイスター,0
2172,8420002000683,登記記録の閉鎖等,0,2026-02-04,2026-01-29,有限会社オフィス・サーティファイブ,,有限会社,青森県,青森市,造道３丁目２番９号,,02,201,0300911,,,2026-01-29,清算の結了等,,,2015-10-05,1,,,,,オフィスサーティファイブ,0
2184,8490002000495,登記記録の閉鎖等,0,2026-02-04,2026-01-30,有限会社市原建築,,有限会社,高知県,高知市,みづき３丁目９０７番地,,39,201,7800976,,,2026-01-30,清算の結了等,,,2015-10-05,1,,,,,イチハラケンチク,0
2185,8490002002574,登記記録の閉鎖等,0,2026-02-04,2026-02-02,株式会社エスアール商事,,株式会社,高知県,高知市,南はりまや町１丁目２番２０号,,39,201,7800833,,,2026-02-02,清算の結了等,,,2015-10-05,1,,,,,エスアールショウジ,0
2188,8700150035593,登記記録の閉鎖等,0,2026-02-04,2025-09-01,仙台市中央卸売市場運営協力会,,その他,宮城県,仙台市若林区,卸町４丁目３－１,,04,103,9840015,,,2025-09-01,その他の清算の結了等,,,2015-10-09,1,,,,,センダイシチユウオウオロシウリシジヨウウンエイキヨウリヨクカイ,0
2236,9010901040630,登記記録の閉鎖等,0,2026-02-04,2026-01-13,株式会社ＭＹＷＡＹＤＥＳＩＧＮ,,株式会社,東京都,港区,南青山４丁目１８－１１フォレストヒルズイーストウィング２Ｆ,,13,103,1070062,,,2026-01-13,清算の結了等,,,2017-08-08,1,,,,,マイウェイデザイン,0
2247,9011201016263,登記記録の閉鎖等,0,2026-02-04,2026-01-27,株式会社日本アーサー,,株式会社,東京都,中野区,本町４丁目４４番１６号高橋ビル３０１号室,,13,114,1640012,,,2026-01-27,清算の結了等,,,2015-10-05,1,,,,,ニホンアーサー,0
2248,9011203001528,登記記録の閉鎖等,0,2026-02-04,2026-01-27,アイビーヒルズ合同会社,,合同会社,東京都,中野区,中野３丁目３４番１８号アイビーヒルズ１０１,,13,114,1640001,,,2026-01-27,清算の結了等,,,2015-10-05,1,,,,,アイビーヒルズ,0
2252,9011501030014,登記記録の閉鎖等,0,2026-02-04,2026-02-02,安浦商事株式会社,,株式会社,東京都,荒川区,東尾久２丁目２番９号三祥ビル２４７,,13,118,1160012,,,2026-02-02,清算の結了等,,,2023-11-20,1,,,,,ヤスウラショウジ,0
2257,9011701022018,登記記録の閉鎖等,0,2026-02-04,2026-01-29,セントラルテクノロジー株式会社,,株式会社,東京都,江戸川区,篠崎町５丁目９番１６号,,13,123,1330061,,,2026-01-29,清算の結了等,,,2018-08-22,1,,,,,セントラルテクノロジー,0
2263,9011805003137,登記記録の閉鎖等,0,2026-02-04,2026-02-02,ＮＰＯ法人インドシナの平和と子供を守る会,,その他の設立登記法人,東京都,足立区,梅島２丁目１７番１－５１０号,,13,121,1210816,,,2026-02-02,清算の結了等,,,2022-01-27,1,,,,,インドシナノヘイワトコドモヲマモルカイ,0
2266,9012403006894,登記記録の閉鎖等,0,2026-02-04,2026-01-30,合同会社Ｅｍｏｔｒｕｓｔ,,合同会社,東京都,武蔵野市,中町１丁目３１番５―１０３,,13,203,1800006,,,2026-01-30,清算の結了等,,,2025-01-07,1,,,,,エモトラスト,0
2267,9012405001299,登記記録の閉鎖等,0,2026-02-04,2026-01-30,特定非営利活動法人海から海へ,,その他の設立登記法人,東京都,調布市,布田１丁目３２番地５マートルコート調布４０７,,13,208,1820024,,,2026-01-30,清算の結了等,,,2015-10-05,1,,,,,ウミカラウミヘ,0
2278,9020001063366,登記記録の閉鎖等,0,2026-02-04,2026-01-23,株式会社シゲミコウキ,,株式会社,神奈川県,横浜市中区,扇町３丁目８番地４号,,14,104,2310027,,,2026-01-23,清算の結了等,,,2015-10-05,1,,,,,シゲミコウキ,0
2299,9030002023715,登記記録の閉鎖等,0,2026-02-04,2026-01-29,有限会社インテリア細井,,有限会社,埼玉県,戸田市,下前１丁目１４番２６号,,11,224,3350016,,,2026-01-29,清算の結了等,,,2015-10-05,1,,,,,インテリアホソイ,0
2312,9040003022285,登記記録の閉鎖等,0,2026-02-04,2026-01-13,合同会社アルミナ・ホワイト,,合同会社,千葉県,船橋市,藤原７丁目５番４０号,,12,204,2730047,,,2026-01-13,清算の結了等,,,2023-03-28,1,,,,,アルミナホワイト,0
2330,9080402010911,登記記録の閉鎖等,0,2026-02-04,2026-01-30,有限会社東名商会,,有限会社,静岡県,浜松市天竜区,二俣町二俣２０６４番地,,22,140,4313314,,,2026-01-30,清算の結了等,,,2015-10-05,1,,,,,トウメイショウカイ,0
2335,9120001274671,登記記録の閉鎖等,0,2026-02-04,2026-01-23,＿晟株式会社,00138824,株式会社,大阪府,大阪市住吉区,殿辻１丁目２－２６シーズコート住吉２０２－Ｂ,,27,120,5580042,,,2026-01-23,清算の結了等,,,2025-04-17,1,,,,,キンセイ,0
2376,9180001076567,登記記録の閉鎖等,0,2026-02-04,2026-01-30,名岐合同株式会社,,株式会社,愛知県,小牧市,大字大草５７８５番地の５７８,,23,219,4850802,,,2026-01-30,清算の結了等,,,2015-10-05,1,,,,,,0
2384,9180002024178,登記記録の閉鎖等,0,2026-02-04,2026-01-30,有限会社名古屋ジャーマン,,有限会社,愛知県,名古屋市西区,江向町３丁目６５番地,,23,104,4510013,,,2026-01-30,清算の結了等,,,2015-10-05,1,,,,,ナゴヤジャーマン,0
2392,9200001031511,登記記録の閉鎖等,0,2026-02-04,2026-02-02,株式会社ＷＡＴＥＲ　ＣＯＮＮＥＣＴ,,株式会社,岐阜県,岐阜市,木ノ下町２丁目４番地,,21,201,5008154,,,2026-02-02,合併による解散等,3200001008738,令和８年２月１日岐阜市木ノ下町二丁目４番地株式会社ＴＫＳ（3200001008738）に合併し解散,2015-10-05,1,,,,,ウォーターコネクト,0
2395,9200002016016,登記記録の閉鎖等,0,2026-02-04,2026-01-30,有限会社可茂エルピーガス保安センター,,有限会社,岐阜県,美濃加茂市,前平町１丁目６６番地,,21,211,5050037,,,2026-01-30,清算の結了等,,,2015-10-05,1,,,,,カモエルピーガスホアンセンター,0
2398,9210002010661,登記記録の閉鎖等,0,2026-02-04,2026-02-02,有限会社ホーコー,,有限会社,福井県,敦賀市,古田刈１０号４４番地,,18,202,9140045,,,2026-02-02,合併による解散等,2210001009430,令和８年２月１日福井市三ツ屋町１４－２株式会社プログレス（2210001009430）に合併し解散,2015-10-05,1,,,,,ホーコー,0
2405,9240005004336,登記記録の閉鎖等,0,2026-02-04,2026-02-02,農事組合法人石本農場,,その他の設立登記法人,広島県,山県郡北広島町,志路原船峠７９番地,,34,369,7311701,,,2026-02-02,清算の結了等,,,2015-10-05,1,,,,,イシモトノウジョウ,0
2409,9250001001609,登記記録の閉鎖等,0,2026-02-04,2026-02-02,株式会社テイク,,株式会社,山口県,山口市,緑町４番８号,,35,203,7530078,,,2026-02-02,清算の結了等,,,2015-10-05,1,,,,,テイク,0
2419,9280001006844,登記記録の閉鎖等,0,2026-02-04,2026-01-30,株式会社恵風,,株式会社,島根県,益田市,下本郷町２２１番地２０,,32,204,6980002,,,2026-01-30,清算の結了等,,,2015-10-05,1,,,,,ケイフウ,0
2424,9290001093519,登記記録の閉鎖等,0,2026-02-04,2025-09-03,株式会社共琉トラスト,,株式会社,愛媛県,松山市,松前町２丁目２番地６グランディアパークウエスト２０４号,,38,201,7900812,,,2025-09-03,合併による解散等,9290001110100,令和７年８月１日福岡県福岡市中央区平尾三丁目２６番１５号株式会社ヒーバックソリューションサービス（9290001110100）に合併し解散,2021-06-16,1,,,,,キョウリュウトラスト,0
2434,9290005017903,登記記録の閉鎖等,0,2026-02-04,2026-01-27,一般社団法人里山耕人舎,,その他の設立登記法人,福岡県,糟屋郡須惠町,大字植木１８５１番地５,,40,344,8112112,,,2026-01-27,清算の結了等,,,2020-10-08,1,,,,,サトヤマコウジンシャ,0
2456,9330002005410,登記記録の閉鎖等,0,2026-02-04,2026-01-29,有限会社廣建,,有限会社,熊本県,宇城市,松橋町豊崎２０３４番地３,,43,213,8690542,,,2026-01-29,清算の結了等,,,2015-10-05,1,,,,,コウケン,0
2458,9340003004121,登記記録の閉鎖等,0,2026-02-04,2026-01-29,合同会社青龍,,合同会社,鹿児島県,姶良市,平松４９７７番地２,,46,225,8995652,,,2026-01-29,清算の結了等,,,2023-05-12,1,,,,,セイリュウ,0
2466,9380001006719,登記記録の閉鎖等,0,2026-02-04,2026-02-02,株式会社三井ピーシーオー,,株式会社,福島県,郡山市,備前舘１丁目１５１番地,,07,203,9638044,,,2026-02-02,清算の結了等,,,2015-10-05,1,,,,,,0
2475,9420003002554,登記記録の閉鎖等,0,2026-02-04,2026-01-27,合同会社アズマシー,,合同会社,青森県,五所川原市,字大町５０１番地１５,,02,205,0370063,,,2026-01-27,清算の結了等,,,2022-08-03,1,,,,,アズマシー,0
2484,9490002013042,登記記録の閉鎖等,0,2026-02-04,2026-02-02,有限会社海南工業,,有限会社,高知県,安芸市,伊尾木７７２番地３３,,39,203,7840045,,,2026-02-02,清算の結了等,,,2015-10-05,1,,,,,,0
