sequenceNumber,corporateNumber,process,correct,updateDate,changeDate,name,nameImageId,kind,prefectureName,cityName,streetNumber,addressImageId,prefectureCode,cityCode,postCode,addressOutside,addressOutsideImageId,closeDate,closeCause,successorCorporateNumber,changeCause,assignmentDate,latest,enName,enPrefectureName,enCityName,enAddressOutside,furigana,hihyoji
6,1010003045239,新規,0,2024-10-21,2024-10-21,合同会社アルファ,,合同会社,東京都,文京区,目白台１丁目９番１７号,,13,105,1120015,,,,,,,2024-10-21,1,,,,,アルファ,0
7,1010005038983,新規,0,2024-10-21,2024-10-21,一般社団法人Ｊａｐａｎ　Ｃａｒｅ　Ｇｌｏｃａｌ,,その他の設立登記法人,東京都,中央区,日本橋兜町１７番１号日本橋ロイヤルプラザ７０６,,13,102,1030026,,,,,,,2024-10-21,1,,,,,ジャパンケアグローカル,0
13,1010401185933,新規,0,2024-10-21,2024-10-21,株式会社商談プロ,,株式会社,東京都,港区,芝浦１丁目６－４１グローバルフロントタワー３００４号室,,13,103,1050023,,,,,,,2024-10-21,1,,,,,ショウダンプロ,0
16,1010405023701,新規,0,2024-10-21,2024-10-21,イネーブルメント社会保険労務士法人,,その他の設立登記法人,東京都,港区,南青山３丁目１５番９号ＭＩＮＯＷＡ表参道３階２９２号室,,13,103,1070062,,,,,,,2024-10-21,1,,,,,イネーブルメント,0
18,1010601066099,新規,0,2024-10-21,2024-10-21,株式会社加熱屋,,株式会社,東京都,墨田区,東向島４丁目５番１０号,,13,107,1310032,,,,,,,2024-10-21,1,,,,,カネツヤ,0
30,1010903009425,新規,0,2024-10-21,2024-10-21,合同会社ＧＲＩＰ＆Ｃｏ．,,合同会社,東京都,世田谷区,上野毛２丁目６番６－２０３号,,13,112,1580093,,,,,,,2024-10-21,1,,,,,グリップアンドコー,0
33,1011001165128,新規,0,2024-10-21,2024-10-21,卓信テクノロジーズ株式会社,,株式会社,東京都,渋谷区,富ヶ谷１丁目１４番１４号３Ｆ,,13,113,1510063,,,,,,,2024-10-21,1,,,,,タクシンテクノロジーズ,0
34,1011001165375,新規,0,2024-10-21,2024-10-21,株式会社ＬＡＭＥＲ,,株式会社,東京都,渋谷区,円山町５番５号Ｎａｖｉ渋谷Ｖ３階,,13,113,1500044,,,,,,,2024-10-21,1,,,,,ラメール,0
39,1011101109216,新規,0,2024-10-21,2024-10-21,株式会社ＫＯＩＫＥ,,株式会社,東京都,新宿区,新宿１丁目２０番２号,,13,104,1600022,,,,,,,2024-10-21,1,,,,,コイケ,0
41,1011301030097,新規,0,2024-10-21,2024-10-21,株式会社ａｓ　ａｌｗａｙｓ,,株式会社,東京都,杉並区,高円寺南２丁目２０番５号,,13,115,1660003,,,,,,,2024-10-21,1,,,,,アズオールウェイズ,0
44,1011501031275,新規,0,2024-10-21,2024-10-21,株式会社マプラス,,株式会社,東京都,荒川区,東尾久１丁目３１番４－１０２号,,13,118,1160012,,,,,,,2024-10-21,1,,,,,マプラス,0
45,1011503006267,新規,0,2024-10-21,2024-10-21,合同会社プロダクト,,合同会社,東京都,荒川区,東日暮里４丁目２７番１１号プラーズ東日暮里２,,13,118,1160014,,,,,,,2024-10-21,1,,,,,プロダクト,0
49,1011801045025,新規,0,2024-10-21,2024-10-21,株式会社クワエストル,,株式会社,東京都,足立区,千住旭町４０番３号,,13,121,1200026,,,,,,,2024-10-21,1,,,,,クワエストル,0
54,1012301014131,新規,0,2024-10-21,2024-10-21,エコ・マーケティング株式会社,,株式会社,東京都,町田市,つくし野４丁目２１番地２６,,13,209,1940001,,,,,,,2024-10-21,1,,,,,エコマーケティング,0
58,1012703003104,新規,0,2024-10-21,2024-10-21,合同会社ｅｌｌ’ｓ　ｄｉｎｉｎｇ,,合同会社,東京都,東村山市,栄町３丁目１０番１８号,,13,213,1890013,,,,,,,2024-10-21,1,,,,,エルズダイニング,0
59,1012801023516,新規,0,2024-10-21,2024-10-21,株式会社まる,,株式会社,東京都,国分寺市,西町１丁目３０番地２６,,13,214,1850035,,,,,,,2024-10-21,1,,,,,マル,0
60,1012803003532,新規,0,2024-10-21,2024-10-21,合同会社Ｌｕｐｉｎｕｓ,,合同会社,東京都,立川市,富士見町４丁目１７番１４－２０５号,,13,202,1900013,,,,,,,2024-10-21,1,,,,,ルピナス,0
63,1020001159700,新規,0,2024-10-21,2024-10-21,株式会社こもれび不動産,,株式会社,神奈川県,横浜市戸塚区,下倉田町１２７番地,,14,110,2440815,,,,,,,2024-10-21,1,,,,,コモレビフドウサン,0
64,1020001159725,新規,0,2024-10-21,2024-10-21,株式会社地主家主の知恵袋,,株式会社,神奈川県,川崎市多摩区,生田８丁目１１番３号,,14,135,2140038,,,,,,,2024-10-21,1,,,,,ジヌシヤヌシノチエブクロ,0
65,1020001159733,新規,0,2024-10-21,2024-10-21,株式会社Ｒｅ‐ｐｈａｒａｍｅ,,株式会社,神奈川県,横浜市西区,北幸２丁目１１番４７－８０５号,,14,103,2200004,,,,,,,2024-10-21,1,,,,,リファレーム,0
67,1020003027079,新規,0,2024-10-21,2024-10-21,レスペデーザ合同会社,,合同会社,神奈川県,横浜市瀬谷区,橋戸１丁目２２番地１６,,14,114,2460037,,,,,,,2024-10-21,1,,,,,レスペデーザ,0
73,1021001083510,新規,0,2024-10-21,2024-10-21,ブランジャパン株式会社,,株式会社,神奈川県,大和市,草柳１丁目１９番地９田園リビングマート７号室,,14,213,2420026,,,,,,,2024-10-21,1,,,,,ブランジャパン,0
79,1021003015123,新規,0,2024-10-21,2024-10-21,合同会社ｓｗ,,合同会社,神奈川県,横須賀市,長瀬２丁目１０番８号フラワーハイツ１０１,,14,201,2390826,,,,,,,2024-10-21,1,,,,,エスダブリュー,0
93,1030003025346,新規,0,2024-10-21,2024-10-21,合同会社ＡＣＥ,,合同会社,埼玉県,川越市,大字小堤８４番地１（ハイラーク川越２０２号室）,,11,201,3500811,,,,,,,2024-10-21,1,,,,,エース,0
98,1040001135848,新規,0,2024-10-21,2024-10-21,株式会社明誠,,株式会社,千葉県,松戸市,五香西５丁目１７番２号,,12,207,2702218,,,,,,,2024-10-21,1,,,,,メイセイ,0
102,1040003026005,新規,0,2024-10-21,2024-10-21,合同会社Ｒｕｃｈｉｒｉａ,,合同会社,千葉県,船橋市,飯山満町２丁目４１４番地１ＰＬＥＮＤＹ東船橋１０６号,,12,204,2740822,,,,,,,2024-10-21,1,,,,,ルチリア,0
103,1040003026013,新規,0,2024-10-21,2024-10-21,ＬＡＫＷＩＮ　ＩＮＴＥＲＮＡＴＩＯＮＡＬ合同会社,,合同会社,千葉県,山武郡横芝光町,目篠２０３１－２３,,12,410,2891722,,,,,,,2024-10-21,1,,,,,ラクウィンインターナショナル,0
104,1040005022555,新規,0,2024-10-21,2024-10-21,医療法人社団ＨＳ会,,その他の設立登記法人,千葉県,千葉市中央区,長洲２丁目３番８号,,12,101,2600854,,,,,,,2024-10-21,1,,,,,エイチエスカイ,0
107,1050001055541,新規,0,2024-10-21,2024-10-21,トライフ株式会社,,株式会社,茨城県,土浦市,桜ケ丘町２７番１号,,08,203,3000832,,,,,,,2024-10-21,1,,,,,トライフ,0
108,1060001037588,新規,0,2024-10-21,2024-10-21,プロテク商会株式会社,,株式会社,栃木県,小山市,大字南飯田３０３－６,,09,208,3290213,,,,,,,2024-10-21,1,,,,,プロテクショウカイ,0
109,1060003005287,新規,0,2024-10-21,2024-10-21,Ｑｕａｖｅｘ合同会社,,合同会社,栃木県,宇都宮市,一ノ沢町２７０－１ジュネス一の沢１０１,,09,201,3200049,,,,,,,2024-10-21,1,,,,,クアベックス,0
110,1060003005295,新規,0,2024-10-21,2024-10-21,合同会社ＮＨマネージメント,,合同会社,栃木県,宇都宮市,宝木町２丁目９１９番地２３,,09,201,3200061,,,,,,,2024-10-21,1,,,,,エヌエイチマネージメント,0
112,1080001026556,新規,0,2024-10-21,2024-10-21,株式会社ＫＴＳ,,株式会社,静岡県,静岡市葵区,平和１丁目２番３０号,,22,101,4200876,,,,,,,2024-10-21,1,,,,,ケーティーエス,0
114,1080403005125,新規,0,2024-10-21,2024-10-21,合同会社Ｈ＆Ａ,,合同会社,静岡県,掛川市,駅前３番地の６,,22,213,4360077,,,,,,,2024-10-21,1,,,,,エイチアンドエー,0
115,1090001018957,新規,0,2024-10-21,2024-10-21,ＡＧＳ株式会社,,株式会社,山梨県,南アルプス市,東南湖８７６番地１,,19,208,4000412,,,,,,,2024-10-21,1,,,,,エージーエス,0
116,1100001037947,新規,0,2024-10-21,2024-10-21,エーアイ・ラボコレクト株式会社,,株式会社,長野県,長野市,中御所４丁目８番２０号１０７,,20,201,3800935,,,,,,,2024-10-21,1,,,,,エーアイラボコレクト,0
126,1120001269225,新規,0,2024-10-21,2024-10-21,株式会社ビッグウエスト,,株式会社,大阪府,枚方市,大垣内町３丁目２番２０号クラウンハイツ１０１,,27,210,5730027,,,,,,,2024-10-21,1,,,,,ビッグウエスト,0
127,1120001269274,新規,0,2024-10-21,2024-10-21,株式会社チョモランマエクスプレス,,株式会社,大阪府,大阪市北区,本庄東１丁目１８番８号ベルハイツ１－１Ｆコミュニティスペース５．６内,,27,127,5310074,,,,,,,2024-10-21,1,,,,,チョモランマエクスプレス,0
128,1120001269480,新規,0,2024-10-21,2024-10-21,盈佳株式会社,,株式会社,大阪府,大阪市住之江区,安立２丁目１０番１４号三坂ビル２０５号室,,27,125,5590003,,,,,,,2024-10-21,1,,,,,ヨウカ,0
129,1120001269506,新規,0,2024-10-21,2024-10-21,株式会社ロードアップ,,株式会社,大阪府,大阪市住之江区,平林南２丁目３番１３号グランドール住之江２Ｂ,,27,125,5590025,,,,,,,2024-10-21,1,,,,,ロードアップ,0
130,1120001269514,新規,0,2024-10-21,2024-10-21,ＡＰＩＡＣ　ＪＡＰＡＮ株式会社,,株式会社,大阪府,大阪市住吉区,遠里小野５丁目１４番２０号、２０４号室,,27,120,5580032,,,,,,,2024-10-21,1,,,,,アピアックジャパン,0
131,1120001269530,新規,0,2024-10-21,2024-10-21,株式会社Ｈ,,株式会社,大阪府,大阪市中央区,農人橋１丁目４－３１,,27,128,5400011,,,,,,,2024-10-21,1,,,,,エイチ,0
132,1120001269539,新規,0,2024-10-21,2024-10-21,福達株式会社,,株式会社,大阪府,大阪市東住吉区,矢田４丁目９－１５－３０６,,27,121,5460023,,,,,,,2024-10-21,1,,,,,フクタツ,0
135,1120101070441,新規,0,2024-10-21,2024-10-21,株式会社Ｍ・Ｓ・Ｈ,,株式会社,大阪府,羽曳野市,羽曳が丘５丁目１２番１３号,,27,222,5830864,,,,,,,2024-10-21,1,,,,,エムエスエイチ,0
136,1120103006096,新規,0,2024-10-21,2024-10-21,イオナズン合同会社,,合同会社,大阪府,和泉市,のぞみ野１丁目１２番１２号,,27,219,5941105,,,,,,,2024-10-21,1,,,,,イオナズン,0
138,1122001038543,新規,0,2024-10-21,2024-10-21,株式会社ユーズアイ,,株式会社,大阪府,東大阪市,友井２丁目２７番６３号,,27,227,5770816,,,,,,,2024-10-21,1,,,,,ユーズアイ,0
142,1130001078179,新規,0,2024-10-21,2024-10-21,株式会社レクサー,,株式会社,京都府,宇治市,小倉町山際５５番地の２３恵美寿ビル２階,,26,204,6110042,,,,,,,2024-10-21,1,,,,,レクサー,0
149,1140001136183,新規,0,2024-10-21,2024-10-21,株式会社ＭＩＲＡＣＬｅ,,株式会社,兵庫県,神戸市西区,北別府３丁目１番地の６,,28,111,6512117,,,,,,,2024-10-21,1,,,,,ミラクル,0
153,1140003021210,新規,0,2024-10-21,2024-10-21,合同会社リラクティブ,,合同会社,兵庫県,尼崎市,杭瀬本町３丁目３番２６号,,28,202,6600814,,,,,,,2024-10-21,1,,,,,リラクティブ,0
154,1160001026291,新規,0,2024-10-21,2024-10-21,株式会社アップライスフィールド,,株式会社,滋賀県,彦根市,高宮町１４８９番地３,,25,202,5220201,,,,,,,2024-10-21,1,,,,,アップライスフィールド,0
160,1180001163694,新規,0,2024-10-21,2024-10-21,株式会社Ｉｎｎｏｖａｔｅ,,株式会社,愛知県,名古屋市中区,錦３丁目１７番１０号錦三ビル９Ｆ,,23,106,4600003,,,,,,,2024-10-21,1,,,,,イノベート,0
161,1180001163736,新規,0,2024-10-21,2024-10-21,株式会社アベンチュリン,,株式会社,愛知県,名古屋市中区,栄５丁目２６番３６号,,23,106,4600008,,,,,,,2024-10-21,1,,,,,アベンチュリン,0
163,1180003027526,新規,0,2024-10-21,2024-10-21,合同会社ＢＩＬＯＧ,,合同会社,愛知県,春日井市,高森台７丁目５－９,,23,206,4870032,,,,,,,2024-10-21,1,,,,,ビローグ,0
164,1190001031743,新規,0,2024-10-21,2024-10-21,ＦＩＲＳＴ株式会社,,株式会社,三重県,四日市市,諏訪栄町１１番５号堀田ビル２階,,24,202,5100086,,,,,,,2024-10-21,1,,,,,ファースト,0
178,1250003003577,新規,0,2024-10-21,2024-10-21,合同会社マイ・ハウス,,合同会社,山口県,周南市,椎木町８番１６号,,35,215,7460008,,,,,,,2024-10-21,1,,,,,マイハウス,0
183,1260001039556,新規,0,2024-10-21,2024-10-21,ハルミドリ株式会社,,株式会社,岡山県,岡山市南区,藤田１８０４番地７,,33,104,7010221,,,,,,,2024-10-21,1,,,,,ハルミドリ,0
184,1260001039564,新規,0,2024-10-21,2024-10-21,百川商事株式会社,,株式会社,岡山県,岡山市北区,東古松２丁目８－１８,,33,101,7000921,,,,,,,2024-10-21,1,,,,,ヒャクセンショウジ,0
195,1290005019543,新規,0,2024-10-21,2024-10-21,一般社団法人まちにわ,,その他の設立登記法人,福岡県,福岡市南区,大橋２丁目２番１号,,40,134,8150033,,,,,,,2024-10-21,1,,,,,マチニワ,0
197,1310003004882,新規,0,2024-10-21,2024-10-21,合同会社ＳＰＥＬＵＳ,,合同会社,長崎県,西彼杵郡長与町,吉無田郷５７９番地７２,,42,307,8512126,,,,,,,2024-10-21,1,,,,,スペラス,0
198,1330001032495,新規,0,2024-10-21,2024-10-21,九鼎株式会社,,株式会社,熊本県,菊池郡菊陽町,大字原水１３３０－３,,43,404,8691102,,,,,,,2024-10-21,1,,,,,キュウテイ,0
199,1330001032553,新規,0,2024-10-21,2024-10-21,株式会社追夢,,株式会社,熊本県,熊本市南区,元三町３丁目４番４６号,,43,104,8614105,,,,,,,2024-10-21,1,,,,,ツイム,0
206,1360001034316,新規,0,2024-10-21,2024-10-21,株式会社ＰＲＯ,,株式会社,沖縄県,名護市,字済井出２６０番地,,47,209,9051635,,,,,,,2024-10-21,1,,,,,プロ,0
207,1360001034340,新規,0,2024-10-21,2024-10-21,株式会社よしえリゾート,,株式会社,沖縄県,那覇市,上之屋１丁目１７番５号,,47,201,9000011,,,,,,,2024-10-21,1,,,,,ヨシエリゾート,0
208,1360003014407,新規,0,2024-10-21,2024-10-21,合同会社Ｒ，インフィニティ,,合同会社,沖縄県,島尻郡南風原町,字宮平８０４番地２,,47,350,9011104,,,,,,,2024-10-21,1,,,,,アールインフィニティ,0
210,1370003006782,新規,0,2024-10-21,2024-10-21,合同会社ティーベルティーファクトリー,,合同会社,宮城県,石巻市,元倉１丁目１３番３号,,04,202,9860811,,,,,,,2024-10-21,1,,,,,ティーベルティーファクトリー,0
211,1380001034850,新規,0,2024-10-21,2024-10-21,株式会社福寿建装,,株式会社,福島県,郡山市,並木１丁目１７番１５号,,07,203,9638026,,,,,,,2024-10-21,1,,,,,フクジュケンソウ,0
212,1380001034859,新規,0,2024-10-21,2024-10-21,Ｒ・ＧＲＡＣＥ株式会社,,株式会社,福島県,郡山市,方八町２丁目２番１１号,,07,203,9638811,,,,,,,2024-10-21,1,,,,,アールグレイス,0
227,1410003003998,新規,0,2024-10-21,2024-10-21,合同会社ｌｕｃｅ,,合同会社,秋田県,秋田市,東通観音前１１番６号イーストロード６１０Ｂ－１０１号,,05,201,0100004,,,,,,,2024-10-21,1,,,,,ルーチェ,0
233,1430001092884,新規,0,2024-10-21,2024-10-21,株式会社ポラリックス,,株式会社,北海道,札幌市北区,あいの里三条５丁目１５番３６号,,01,102,0028073,,,,,,,2024-10-21,1,,,,,ポラリックス,0
234,1430001092901,新規,0,2024-10-21,2024-10-21,株式会社りかちや,,株式会社,北海道,札幌市清田区,清田六条２丁目２３番２７号,,01,110,0040846,,,,,,,2024-10-21,1,,,,,リカチヤ,0
236,1430003016899,新規,0,2024-10-21,2024-10-21,合同会社レージョンズアセット,,合同会社,北海道,札幌市東区,北十六条東１丁目２番３－３０２号,,01,103,0650016,,,,,,,2024-10-21,1,,,,,レージョンズアセット,0
252,2010001249138,新規,0,2024-10-21,2024-10-21,株式会社アニハッチ,,株式会社,東京都,千代田区,神田猿楽町２丁目８番１１号,,13,101,1010064,,,,,,,2024-10-21,1,,,,,アニハッチ,0
258,2010103002436,新規,0,2024-10-21,2024-10-21,合同会社ＫＡ　ａｇｅｎｃｙ,,合同会社,東京都,八王子市,中野山王２丁目１３番１３号２０７号室,,13,201,1920042,,,,,,,2024-10-21,1,,,,,ケーエーエージェンシー,0
267,2010401185759,新規,0,2024-10-21,2024-10-21,株式会社思絵夢プロダクションズ,,株式会社,東京都,港区,赤坂９丁目１番７,,13,103,1070052,,,,,,,2024-10-21,1,,,,,シエムプロダクションズ,0
268,2010401185866,新規,0,2024-10-21,2024-10-21,リュクス株式会社,,株式会社,東京都,港区,六本木３丁目４番２－４０３号,,13,103,1060032,,,,,,,2024-10-21,1,,,,,リュクス,0
269,2010401185882,新規,0,2024-10-21,2024-10-21,ＳｙｓＪｕｓｔ株式会社,,株式会社,東京都,港区,赤坂２丁目８番１４－４０７号,,13,103,1070052,,,,,,,2024-10-21,1,,,,,サスジャスト,0
273,2010405023626,新規,0,2024-10-21,2024-10-21,行政書士法人サンハーツ,,その他の設立登記法人,東京都,港区,高輪３丁目１９番８－２０１号,,13,103,1080074,,,,,,,2024-10-21,1,,,,,サンハーツ,0
274,2010405023650,新規,0,2024-10-21,2024-10-21,税理士法人セントラルタックスブレイン,,その他の設立登記法人,東京都,港区,虎ノ門３丁目６番２号,,13,103,1050001,,,,,,,2024-10-21,1,,,,,セントラルタックスブレイン,0
275,2010501053015,新規,0,2024-10-21,2024-10-21,チナル株式会社,,株式会社,東京都,台東区,台東２丁目３１－１０第２掛川ビル１０９号室,,13,106,1100016,,,,,,,2024-10-21,1,,,,,チナル,0
278,2010705003690,新規,0,2024-10-21,2024-10-21,一般社団法人ＭＫ,,その他の設立登記法人,東京都,品川区,上大崎３丁目１番１号目黒セントラルスクエア１５Ｆ,,13,109,1410021,,,,,,,2024-10-21,1,,,,,エムケー,0
297,2011101109173,新規,0,2024-10-21,2024-10-21,トラストライン株式会社,,株式会社,東京都,新宿区,高田馬場４丁目１７－１５東陽ビルディング６０３号,,13,104,1690075,,,,,,,2024-10-21,1,,,,,トラストライン,0
298,2011201025873,新規,0,2024-10-21,2024-10-21,株式会社ケイズ,,株式会社,東京都,中野区,野方２丁目５９番５号,,13,114,1650027,,,,,,,2024-10-21,1,,,,,ケイズ,0
300,2011301030088,新規,0,2024-10-21,2024-10-21,株式会社Ｇａｂｂｅｒ,,株式会社,東京都,杉並区,高円寺南４丁目２７番１０号タイガーデン５階,,13,115,1660003,,,,,,,2024-10-21,1,,,,,ガバー,0
302,2011501031282,新規,0,2024-10-21,2024-10-21,ＦＴＯＺＯＮ　ＴＯＫＹＯ株式会社,,株式会社,東京都,北区,滝野川３丁目９番２号西巣鴨ＫＴＢビルマイルーム西巣鴨２０８号室,,13,117,1140023,,,,,,,2024-10-21,1,,,,,エフトゾントウキョウ,0
305,2011801045024,新規,0,2024-10-21,2024-10-21,株式会社ワイユートランスポート,,株式会社,東京都,足立区,西綾瀬３丁目１２番９号,,13,121,1200014,,,,,,,2024-10-21,1,,,,,ワイユートランスポート,0
306,2012301014130,新規,0,2024-10-21,2024-10-21,株式会社キャリゲート,,株式会社,東京都,町田市,小山ヶ丘３丁目２８アパガーデンパレス多摩境５１７号室,,13,209,1940215,,,,,,,2024-10-21,1,,,,,キャリゲート,0
311,2012701018499,新規,0,2024-10-21,2024-10-21,株式会社Ｍｅｒａｋｉ,,株式会社,東京都,西東京市,中町１丁目１０番９－２０１号,,13,229,2020013,,,,,,,2024-10-21,1,,,,,メラキ,0
312,2012703003111,新規,0,2024-10-21,2024-10-21,合同会社スターライト,,合同会社,東京都,西東京市,柳沢２丁目１番２３号リバーランド柳沢３０２,,13,229,2020022,,,,,,,2024-10-21,1,,,,,スターライト,0
316,2012801023507,新規,0,2024-10-21,2024-10-21,桑原商店株式会社,,株式会社,東京都,立川市,錦町１丁目４番４号サニービル２階ＣＳ－２２１,,13,202,1900022,,,,,,,2024-10-21,1,,,,,クワバラショウテン,0
317,2020001159690,新規,0,2024-10-21,2024-10-21,株式会社枡屋ホールディングス,,株式会社,神奈川県,横浜市保土ケ谷区,星川３丁目７番１８－３０３号,,14,106,2400006,,,,,,,2024-10-21,1,,,,,マスヤホールディングス,0
318,2020001159815,新規,0,2024-10-21,2024-10-21,株式会社ブリリファイア,,株式会社,神奈川県,横浜市神奈川区,金港町５－１４クアドリフォリオ８階,,14,102,2210056,,,,,,,2024-10-21,1,,,,,ブリリファイア,0
322,2020003027020,新規,0,2024-10-21,2024-10-21,合同会社Ｈｏｒｎ,,合同会社,神奈川県,川崎市宮前区,土橋２丁目１３番地８菱興マンション２０３,,14,136,2160005,,,,,,,2024-10-21,1,,,,,ホーン,0
323,2020003027078,新規,0,2024-10-21,2024-10-21,青い月合同会社,,合同会社,神奈川県,川崎市高津区,向ケ丘６７番地１モルト・フェリーチェ２０７,,14,134,2130035,,,,,,,2024-10-21,1,,,,,アオイツキ,0
327,2021001083534,新規,0,2024-10-21,2024-10-21,株式会社風翠,,株式会社,神奈川県,南足柄市,狩野５５０番地,,14,217,2500126,,,,,,,2024-10-21,1,,,,,フウスイ,0
328,2021001083559,新規,0,2024-10-21,2024-10-21,株式会社圏央ワークス,,株式会社,神奈川県,小田原市,下大井２１３番地,,14,206,2500208,,,,,,,2024-10-21,1,,,,,ケンオウワークス,0
330,2021003015130,新規,0,2024-10-21,2024-10-21,合同会社半島整備,,合同会社,神奈川県,三浦市,三崎町小網代１４９４番地１２,,14,210,2380225,,,,,,,2024-10-21,1,,,,,ハントウセイビ,0
341,2040001135855,新規,0,2024-10-21,2024-10-21,株式会社ｗｏｎｄｅｒｗａｌｌ,,株式会社,千葉県,柏市,今谷上町２９番地２ラピエ・ベル２０２号,,12,217,2770074,,,,,,,2024-10-21,1,,,,,ワンダーウォール,0
346,2050001055549,新規,0,2024-10-21,2024-10-21,株式会社ビュートレイン,,株式会社,茨城県,つくば市,谷田部２４１６番地２７,,08,220,3050861,,,,,,,2024-10-21,1,,,,,ビュートレイン,0
349,2060001037595,新規,0,2024-10-21,2024-10-21,株式会社アール,,株式会社,栃木県,宇都宮市,駅前通り２丁目３番１２号Ａ１０２,,09,201,3210964,,,,,,,2024-10-21,1,,,,,アール,0
351,2060003005294,新規,0,2024-10-21,2024-10-21,合同会社ＹＭＳ,,合同会社,栃木県,足利市,板倉町２２７７番地,,09,202,3260102,,,,,,,2024-10-21,1,,,,,ワイエムエス,0
363,2090003002669,新規,0,2024-10-21,2024-10-21,合同会社ＳＹ,,合同会社,山梨県,甲府市,国母８丁目９番２０号の５,,19,201,4000043,,,,,,,2024-10-21,1,,,,,エスワイ,0
384,2140001136166,新規,0,2024-10-21,2024-10-21,株式会社ｍａｉａｓａｕｒａ,,株式会社,兵庫県,加古川市,平岡町西谷６０番地の１,,28,210,6750102,,,,,,,2024-10-21,1,,,,,マイアサウラ,0
385,2140001136174,新規,0,2024-10-21,2024-10-21,東和ホームズ株式会社,,株式会社,兵庫県,西宮市,西宮浜４丁目１２番３－２０５号,,28,204,6620934,,,,,,,2024-10-21,1,,,,,トウワホームズ,0
407,2180001163652,新規,0,2024-10-21,2024-10-21,半崎商事株式会社,,株式会社,愛知県,豊明市,新田町大割１００番地１,,23,229,4701112,,,,,,,2024-10-21,1,,,,,ハンザキショウジ,0
408,2180001163702,新規,0,2024-10-21,2024-10-21,株式会社Ｉｎｆｉｎｉｔｙ,,株式会社,愛知県,名古屋市東区,泉３丁目１７番１０号泉ビル６０４号,,23,102,4610001,,,,,,,2024-10-21,1,,,,,インフィニティ,0
409,2180001163743,新規,0,2024-10-21,2024-10-21,ニューロジェン・スタジオ株式会社,,株式会社,愛知県,名古屋市中村区,名駅３丁目４番１０号,,23,105,4500002,,,,,,,2024-10-21,1,,,,,ニューロジェンスタジオ,0
410,2180001163751,新規,0,2024-10-21,2024-10-21,株式会社ＩＣＨＩＲＯ,,株式会社,愛知県,名古屋市中村区,名駅３丁目１３番２８号,,23,105,4500002,,,,,,,2024-10-21,1,,,,,イチロ,0
411,2180001163768,新規,0,2024-10-21,2024-10-21,グローバルリアルティ株式会社,,株式会社,愛知県,名古屋市西区,城西４丁目１９番１８号,,23,104,4510031,,,,,,,2024-10-21,1,,,,,グローバルリアルティ,0
412,2180001163826,新規,0,2024-10-21,2024-10-21,株式会社ＦアンドＣ,,株式会社,愛知県,名古屋市中村区,烏森町１丁目１３０番地の１,,23,105,4530855,,,,,,,2024-10-21,1,,,,,エフアンドシー,0
415,2180003027491,新規,0,2024-10-21,2024-10-21,合同会社ベイブラウンジ,,合同会社,愛知県,清須市,西枇杷島町芳野１丁目３２番地,,23,233,4520065,,,,,,,2024-10-21,1,,,,,ベイブラウンジ,0
416,2180301039156,新規,0,2024-10-21,2024-10-21,株式会社ジャパンツーリズム愛知,,株式会社,愛知県,豊田市,笹戸町神田１８,,23,211,4442826,,,,,,,2024-10-21,1,,,,,ジャパンツーリズムアイチ,0
418,2190001031742,新規,0,2024-10-21,2024-10-21,Ｔ２Ｋ株式会社,,株式会社,三重県,四日市市,諏訪栄町８番１６‐１号諏訪栄美好プラザビル２階,,24,202,5100086,,,,,,,2024-10-21,1,,,,,ティーツーケー,0
423,2230001020575,新規,0,2024-10-21,2024-10-21,株式会社牛若フード,,株式会社,富山県,富山市,愛宕町２丁目３番１８号,,16,201,9300091,,,,,,,2024-10-21,1,,,,,ウシワカフード,0
428,2250001020854,新規,0,2024-10-21,2024-10-21,株式会社ｐｌａｃｅ,,株式会社,山口県,周南市,新地２丁目８番３号,,35,215,7450861,,,,,,,2024-10-21,1,,,,,プレイス,0
429,2250003003576,新規,0,2024-10-21,2024-10-21,合同会社坂井技巧,,合同会社,山口県,山口市,大内御堀４丁目４番１９号,,35,203,7530214,,,,,,,2024-10-21,1,,,,,サカイギコウ,0
440,2290001107680,新規,0,2024-10-21,2024-10-21,シナジーアーツ株式会社,,株式会社,福岡県,福岡市中央区,荒戸１丁目５番１８号アンバル大濠００９号,,40,133,8100062,,,,,,,2024-10-21,1,,,,,シナジーアーツ,0
441,2290001107689,新規,0,2024-10-21,2024-10-21,株式会社こなつ会計,,株式会社,福岡県,春日市,下白水北１丁目４８番地エルグランド春日６０８号,,40,218,8160854,,,,,,,2024-10-21,1,,,,,コナツカイケイ,0
451,2290005019534,新規,0,2024-10-21,2024-10-21,一般財団法人若杉アンビシャスの杜,,その他の設立登記法人,福岡県,糟屋郡須惠町,大字佐谷１７０５－１,,40,344,8112115,,,,,,,2024-10-21,1,,,,,ワカスギアンビシャスノモリ,0
455,2290801030974,新規,0,2024-10-21,2024-10-21,騰陽株式会社,,株式会社,福岡県,京都郡みやこ町,犀川谷口４６５番地１カーサまるみ３号棟３１２号室,,40,625,8240216,,,,,,,2024-10-21,1,,,,,トウヨウ,0
457,2300001013943,新規,0,2024-10-21,2024-10-21,株式会社平川ステンレス,,株式会社,佐賀県,多久市,南多久町大字長尾３３３８番地５,,41,204,8460023,,,,,,,2024-10-21,1,,,,,ヒラカワステンレス,0
459,2320001020764,新規,0,2024-10-21,2024-10-21,ベストスマイルホールディングス株式会社,,株式会社,大分県,大分市,田中町３丁目１番１８号,,44,201,8700852,,,,,,,2024-10-21,1,,,,,ベストスマイルホールディングス,0
460,2320003004501,新規,0,2024-10-21,2024-10-21,合同会社ポンテ,,合同会社,大分県,大分市,大字猪野８０８番地の１３,,44,201,8700134,,,,,,,2024-10-21,1,,,,,ポンテ,0
463,2340001026867,新規,0,2024-10-21,2024-10-21,株式会社若松工業,,株式会社,鹿児島県,鹿児島市,小原町１６番８号,,46,201,8910111,,,,,,,2024-10-21,1,,,,,ワカマツコウギョウ,0
467,2360001034331,新規,0,2024-10-21,2024-10-21,株式会社ワイズリゾート琉球,,株式会社,沖縄県,うるま市,石川１９３６番地１６ハートアンジュ２－３０２号,,47,213,9041106,,,,,,,2024-10-21,1,,,,,ワイズリゾートリュウキュウ,0
470,2370003006757,新規,0,2024-10-21,2024-10-21,合同会社ｔｒｕｎｋ,,合同会社,宮城県,仙台市太白区,鹿野３丁目１２－１７,,04,104,9820023,,,,,,,2024-10-21,1,,,,,トランク,0
471,2370003006781,新規,0,2024-10-21,2024-10-21,合同会社福の髪,,合同会社,宮城県,仙台市太白区,秋保町湯元字除４番地１７,,04,104,9820241,,,,,,,2024-10-21,1,,,,,フクノカミ,0
481,2400003003338,新規,0,2024-10-21,2024-10-21,合同会社ＨＡＳ,,合同会社,岩手県,盛岡市,大通２丁目４－１１鈴木ビル１Ｆ,,03,201,0200022,,,,,,,2024-10-21,1,,,,,,0
484,2430001092883,新規,0,2024-10-21,2024-10-21,株式会社ＭＥＴ,,株式会社,北海道,札幌市北区,北九条西４丁目１９－３－４０４,,01,102,0600809,,,,,,,2024-10-21,1,,,,,メット,0
493,2460101007623,新規,0,2024-10-21,2024-10-21,株式会社ＹＯＺＯＲＡ,,株式会社,北海道,帯広市,西一条南１１丁目１９番地１ふく井ホテル内,,01,207,0800011,,,,,,,2024-10-21,1,,,,,ヨゾラ,0
494,2462503000222,新規,0,2024-10-21,2024-10-21,ＭＯＢＵＩＬＤ合同会社,,合同会社,北海道,標津郡中標津町,東二十八条北６丁目２番地２,,01,692,0861068,,,,,,,2024-10-21,1,,,,,モービルド,0
496,2490003001944,新規,0,2024-10-21,2024-10-21,合同会社サリエ,,合同会社,高知県,安芸市,川北乙１７７４番地２７,,39,203,7840044,,,,,,,2024-10-21,1,,,,,サリエ,0
497,2500001025951,新規,0,2024-10-21,2024-10-21,株式会社若杉ホームサービス,,株式会社,愛媛県,松山市,正円寺３丁目３番３２号,,38,201,7900904,,,,,,,2024-10-21,1,,,,,ワカスギホームサービス,0
498,2500003003352,新規,0,2024-10-21,2024-10-21,Ｎｅｘｔ　Ｓｔａｇｅ合同会社,,合同会社,愛媛県,西条市,周布４８２番地５,,38,206,7991371,,,,,,,2024-10-21,1,,,,,ネクストステージ,0
503,3010001249129,新規,0,2024-10-21,2024-10-21,株式会社ヨーク・ホールディングス,,株式会社,東京都,千代田区,二番町８番地８,,13,101,1020084,,,,,,,2024-10-21,1,,,,,ヨークホールディングス,0
504,3010001249277,新規,0,2024-10-21,2024-10-21,株式会社新海,,株式会社,東京都,中央区,勝どき４丁目６番１－５６１６号,,13,102,1040054,,,,,,,2024-10-21,1,,,,,シンカイ,0
517,3010401185865,新規,0,2024-10-21,2024-10-21,株式会社インフルエンサーフォース,,株式会社,東京都,港区,六本木１丁目３番５０号,,13,103,1060032,,,,,,,2024-10-21,1,,,,,インフルエンサーフォース,0
520,3010405023658,新規,0,2024-10-21,2024-10-21,一般社団法人睡眠美容診断士学会,,その他の設立登記法人,東京都,港区,三田３丁目７番１８号ＴＨＥ．ＩＴＯＹＡＭＡ．ＴＯＷＥＲ５階,,13,103,1080073,,,,,,,2024-10-21,1,,,,,スイミンビヨウシンダンシガッカイ,0
521,3010501053063,新規,0,2024-10-21,2024-10-21,Ｗｉｔｈ　Ｊｕｌｉａｎ株式会社,,株式会社,東京都,台東区,上野３丁目１６番２号７０４－Ｄ,,13,106,1100005,,,,,,,2024-10-21,1,,,,,ウィズジュリアン,0
530,3010905004686,新規,0,2024-10-21,2024-10-21,税理士法人Ｐｏｒｔ,,その他の設立登記法人,東京都,世田谷区,瀬田１丁目２番１７号パークハウス瀬田一丁目１０１,,13,112,1580095,,,,,,,2024-10-21,1,,,,,ポート,0
535,3011001165175,新規,0,2024-10-21,2024-10-21,株式会社研修ＨＵＢ,,株式会社,東京都,渋谷区,道玄坂１丁目１２番１号渋谷マークシティＷ２２階,,13,113,1500043,,,,,,,2024-10-21,1,,,,,ケンシュウハブ,0
544,3011101109172,新規,0,2024-10-21,2024-10-21,株式会社ＫＩＭＡＴＡ　ＢＯＤＹ　ＳＴＵＤＩＯ,,株式会社,東京都,新宿区,市谷柳町２５番地,,13,104,1620061,,,,,,,2024-10-21,1,,,,,キマタボディスタジオ,0
549,3011501031273,新規,0,2024-10-21,2024-10-21,大謙株式会社,,株式会社,東京都,北区,中里１丁目２１番２号中里ビル１Ｆ,,13,117,1140015,,,,,,,2024-10-21,1,,,,,ダイケン,0
551,3011601028137,新規,0,2024-10-21,2024-10-21,株式会社ＭＯＮＤ,,株式会社,東京都,練馬区,東大泉２丁目４１番３号,,13,120,1780063,,,,,,,2024-10-21,1,,,,,モンド,0
552,3011605002609,新規,0,2024-10-21,2024-10-21,一般社団法人ジャーニー・ホーム,,その他の設立登記法人,東京都,練馬区,田柄１丁目１６－９,,13,120,1790073,,,,,,,2024-10-21,1,,,,,ジャーニーホーム,0
553,3011701027740,新規,0,2024-10-21,2024-10-21,株式会社シャインライン,,株式会社,東京都,江戸川区,平井３丁目１６番２２号,,13,123,1320035,,,,,,,2024-10-21,1,,,,,シャインライン,0
555,3011801045023,新規,0,2024-10-21,2024-10-21,株式会社Ｌｅａｐ　Ｔｅｃｈ,,株式会社,東京都,葛飾区,奥戸６丁目２０番１２号,,13,122,1240022,,,,,,,2024-10-21,1,,,,,リープテック,0
558,3012701018498,新規,0,2024-10-21,2024-10-21,野口貸店舗株式会社,,株式会社,東京都,西東京市,保谷町４丁目２番３１号,,13,229,2020015,,,,,,,2024-10-21,1,,,,,ノグチカシテンポ,0
559,3012801023514,新規,0,2024-10-21,2024-10-21,株式会社天才ステップスキッズ,,株式会社,東京都,国分寺市,本町４丁目１２番２２号ハイネス国分寺荒田マンション１０６号,,13,214,1850012,,,,,,,2024-10-21,1,,,,,テンサイステップスキッズ,0
568,3020001158774,新規,0,2024-10-21,2024-10-21,株式会社Ｄ‐ｖｅｒｔ,,株式会社,神奈川県,横浜市中区,弁天通３丁目４１エクセレントビル２、７０１,,14,104,2310007,,,,,,,2024-10-21,1,,,,,ディベルト,0
569,3020001159657,新規,0,2024-10-21,2024-10-21,和語国際株式会社,,株式会社,神奈川県,川崎市川崎区,砂子２丁目８番地１シャンボール互恵ビル１００８号室,,14,131,2100006,,,,,,,2024-10-21,1,,,,,ワゴコクサイ,0
570,3020001159665,新規,0,2024-10-21,2024-10-21,健千冷急株式会社,,株式会社,神奈川県,横浜市戸塚区,上倉田町１５９３番地６,,14,110,2440816,,,,,,,2024-10-21,1,,,,,ケンセンレイキュウ,0
571,3020001159673,新規,0,2024-10-21,2024-10-21,株式会社ＹＣＣｏｍｐａｎｙ,,株式会社,神奈川県,川崎市宮前区,鷺沼２丁目１４番地１５,,14,136,2160004,,,,,,,2024-10-21,1,,,,,ワイシーカンパニー,0
573,3020003027036,新規,0,2024-10-21,2024-10-21,ウブンコート合同会社,,合同会社,神奈川県,横浜市神奈川区,子安台１丁目４－５,,14,102,2210012,,,,,,,2024-10-21,1,,,,,ウブンコート,0
574,3020003027069,新規,0,2024-10-21,2024-10-21,合同会社Ｂｏｎ　Ｎｏｗ,,合同会社,神奈川県,横浜市神奈川区,大口通１３６番地２,,14,102,2210002,,,,,,,2024-10-21,1,,,,,ボンノウ,0
575,3020003027093,新規,0,2024-10-21,2024-10-21,合同会社みらいポケット,,合同会社,神奈川県,川崎市中原区,丸子通１丁目６１２番地２パークスクエア多摩川グリーンレジデンス５０１,,14,133,2110006,,,,,,,2024-10-21,1,,,,,ミライポケット,0
579,3021001083541,新規,0,2024-10-21,2024-10-21,坂本組ホールディングス株式会社,,株式会社,神奈川県,伊勢原市,西富岡１０２８番地１,,14,214,2591111,,,,,,,2024-10-21,1,,,,,サカモトグミホールディングス,0
581,3021005013206,新規,0,2024-10-21,2024-10-21,ＮＰＯ法人海育プロジェクト,,その他の設立登記法人,神奈川県,三浦郡葉山町,一色２１４１番地の１５,,14,301,2400111,,,,,,,2024-10-21,1,,,,,ウミイクプロジェクト,0
586,3030001163088,新規,0,2024-10-21,2024-10-21,Ａｍｂｉｔｉｏｕｓ株式会社,,株式会社,埼玉県,川口市,桜町６丁目１３番１１号,,11,203,3340001,,,,,,,2024-10-21,1,,,,,アンビシャス,0
597,3040001135788,新規,0,2024-10-21,2024-10-21,株式会社Ｔｅｔｏｔｅ,,株式会社,千葉県,印西市,大塚３丁目４０―１５,,12,231,2701352,,,,,,,2024-10-21,1,,,,,テトテ,0
601,3060001037594,新規,0,2024-10-21,2024-10-21,株式会社Ｒ’ｓ,,株式会社,栃木県,小山市,城北３丁目２０番地１０,,09,208,3230029,,,,,,,2024-10-21,1,,,,,アールズ,0
603,3060003005293,新規,0,2024-10-21,2024-10-21,合同会社訪問看護ステーションぽらりす,,合同会社,栃木県,芳賀郡芳賀町,大字与能１１３４番地,,09,345,3213316,,,,,,,2024-10-21,1,,,,,ホウモンカンゴステーションポラリス,0
615,3080401027516,新規,0,2024-10-21,2024-10-21,株式会社ｐｏｎｏ,,株式会社,静岡県,磐田市,中泉７２７番地３,,22,211,4380078,,,,,,,2024-10-21,1,,,,,ポノ,0
616,3080403005123,新規,0,2024-10-21,2024-10-21,合同会社Ｂｌｉｓｓ,,合同会社,静岡県,湖西市,新居町中之郷３８０７－１３,,22,221,4310301,,,,,,,2024-10-21,1,,,,,ブリス,0
617,3100005013232,新規,0,2024-10-21,2024-10-21,一般社団法人中古現場機械流通推進協会,,その他の設立登記法人,長野県,茅野市,宮川安国寺２７６８番地１,,20,214,3910013,,,,,,,2024-10-21,1,,,,,チュウコゲンバキカイリュウツウスイシンキョウカイ,0
627,3120001269487,新規,0,2024-10-21,2024-10-21,華暉嘉晨株式会社,,株式会社,大阪府,大阪市住之江区,南港中３丁目９番２７－１２０８号,,27,125,5590033,,,,,,,2024-10-21,1,,,,,カキカシ,0
628,3120001269537,新規,0,2024-10-21,2024-10-21,秋雨之福株式会社,,株式会社,大阪府,大阪市生野区,桃谷３丁目２０番２５号桃谷ハイツ２０３号室,,27,116,5440034,,,,,,,2024-10-21,1,,,,,シュウウノフク,0
639,3130001078160,新規,0,2024-10-21,2024-10-21,株式会社桃源郷拉麺,,株式会社,京都府,京都市中京区,錦小路通烏丸東入元法然寺町６８３番地烏丸錦ビル１階,,26,104,6048144,,,,,,,2024-10-21,1,,,,,トウゲンキョウラーメン,0
641,3140003021217,新規,0,2024-10-21,2024-10-21,合同会社Ｔａｍａ’ｓ　Ｅｓｔａｔｅ,,合同会社,兵庫県,加古川市,平岡町土山９８９,,28,210,6750104,,,,,,,2024-10-21,1,,,,,タマズエステート,0
658,3180001163742,新規,0,2024-10-21,2024-10-21,ＳＡＫＡＮＡ　ＣＲＡＢ株式会社,,株式会社,愛知県,名古屋市中村区,則武２丁目１４番１１号,,23,105,4530014,,,,,,,2024-10-21,1,,,,,サカナクラブ,0
672,3180305009617,新規,0,2024-10-21,2024-10-21,一般社団法人地域活性協会,,その他の設立登記法人,愛知県,岡崎市,日名西町８番地８,,23,202,4440917,,,,,,,2024-10-21,1,,,,,チイキカッセイキョウカイ,0
682,3250003003575,新規,0,2024-10-21,2024-10-21,合同会社空と海,,合同会社,山口県,光市,浅江１丁目４番１４号アイオイビル,,35,210,7430021,,,,,,,2024-10-21,1,,,,,ソラトウミ,0
694,3290001107622,新規,0,2024-10-21,2024-10-21,株式会社グッドスタジオ,,株式会社,福岡県,福岡市中央区,清川１丁目１４－１３渡辺通ＣＣＤビル５０１,,40,133,8100005,,,,,,,2024-10-21,1,,,,,グッドスタジオ,0
695,3290001107671,新規,0,2024-10-21,2024-10-21,株式会社だんどり,,株式会社,福岡県,福岡市博多区,博多駅前２丁目１番１号,,40,132,8120011,,,,,,,2024-10-21,1,,,,,ダンドリ,0
696,3290001107696,新規,0,2024-10-21,2024-10-21,ネクストステップ株式会社,,株式会社,福岡県,福岡市博多区,博多駅前１丁目２３番２号ＰａｒｋＦｒｏｎｔ博多駅前１丁目５Ｆ－Ｂ,,40,132,8120011,,,,,,,2024-10-21,1,,,,,ネクストステップ,0
697,3290001107705,新規,0,2024-10-21,2024-10-21,株式会社大鶴交通,00136699,株式会社,福岡県,筑後市,大字野町３７６番地１,,40,211,8330032,,,,,,,2024-10-21,1,,,,,オオツルコウツウ,0
701,3290003015955,新規,0,2024-10-21,2024-10-21,合同会社Ｏｐｕｓ,,合同会社,福岡県,福岡市博多区,美野島３丁目８番１号美野島シティビル１Ｆ,,40,132,8120017,,,,,,,2024-10-21,1,,,,,オーパス,0
702,3290005019525,新規,0,2024-10-21,2024-10-21,一般社団法人メタネイチャー研究所,,その他の設立登記法人,福岡県,糸島市,前原中央１丁目１番１７号,,40,230,8191116,,,,,,,2024-10-21,1,,,,,メタネイチャーケンキュウジョ,0
703,3290801030973,新規,0,2024-10-21,2024-10-21,株式会社かける,,株式会社,福岡県,北九州市小倉南区,葛原東２丁目３－２３－２Ｆ,,40,107,8000206,,,,,,,2024-10-21,1,,,,,カケル,0
705,3300001013942,新規,0,2024-10-21,2024-10-21,株式会社アヒマセット,,株式会社,佐賀県,佐賀市,六座町５番１８号,,41,201,8400845,,,,,,,2024-10-21,1,,,,,アヒマセット,0
711,3330001032543,新規,0,2024-10-21,2024-10-21,株式会社ＴＭＫ,,株式会社,熊本県,熊本市南区,富合町平原１９４番地１,,43,104,8614154,,,,,,,2024-10-21,1,,,,,ティエムケイ,0
713,3360001034322,新規,0,2024-10-21,2024-10-21,Ｗｅｔｒｉｐ　ｊａｐａｎ株式会社,,株式会社,沖縄県,名護市,大北４丁目１６番６号フレアガーデン２０１号,,47,209,9050019,,,,,,,2024-10-21,1,,,,,ウィートリップ,0
724,3400003003337,新規,0,2024-10-21,2024-10-21,合同会社フルサワ建企,,合同会社,岩手県,盛岡市,盛岡駅前通３番１－４０７号,,03,201,0200034,,,,,,,2024-10-21,1,,,,,フルサワケンキ,0
726,3430001092882,新規,0,2024-10-21,2024-10-21,コンフィアンスポーター株式会社,,株式会社,北海道,札幌市東区,本町一条１丁目７番５－２０１号,,01,103,0650041,,,,,,,2024-10-21,1,,,,,コンフィアンスポーター,0
727,3430003016880,新規,0,2024-10-21,2024-10-21,合同会社イノセンス,,合同会社,北海道,札幌市東区,北二十一条東１丁目３－１２中西ビル３号室,,01,103,0650021,,,,,,,2024-10-21,1,,,,,イノセンス,0
728,3430003016906,新規,0,2024-10-21,2024-10-21,合同会社Ｍａａ’ｕｎ　Ｊａｐａｎ,,合同会社,北海道,札幌市中央区,南三条東４丁目３－１３ラ・クラッセ札幌シティイースト７０２,,01,101,0600053,,,,,,,2024-10-21,1,,,,,マーウンジャパン,0
744,3500003003351,新規,0,2024-10-21,2024-10-21,合同会社みねもと,,合同会社,愛媛県,松山市,桑原７丁目３番３２号,,38,201,7900911,,,,,,,2024-10-21,1,,,,,ミネモト,0
755,4010001249078,新規,0,2024-10-21,2024-10-21,株式会社あたらよ,,株式会社,東京都,中央区,銀座６丁目１３番１６号銀座ＷａｌｌビルＵＣＦ５階,,13,102,1040061,,,,,,,2024-10-21,1,,,,,アタラヨ,0
760,4010003045252,新規,0,2024-10-21,2024-10-21,中川合同会社,,合同会社,東京都,千代田区,丸の内１丁目４番１号東京共同会計事務所内,,13,101,1000005,,,,,,,2024-10-21,1,,,,,ナカガワ,0
774,4010401185674,新規,0,2024-10-21,2024-10-21,株式会社ｅｎｈａｒｎｅｓｓ．,,株式会社,東京都,港区,三田１丁目２番１５－１１０５号,,13,103,1080073,,,,,,,2024-10-21,1,,,,,エンハーネス,0
776,4010405023657,新規,0,2024-10-21,2024-10-21,一般社団法人Ｗｅｂ３人材マネジメント協会,,その他の設立登記法人,東京都,港区,浜松町２丁目７番１７号天翔オフィス浜松町大門１０１３,,13,103,1050013,,,,,,,2024-10-21,1,,,,,ウェブスリージンザイマネジメントキョウカイ,0
778,4010501053046,新規,0,2024-10-21,2024-10-21,株式会社シルバーギークスジャパン,,株式会社,東京都,台東区,小島１丁目１６番５号松井ビル２Ｆ,,13,106,1110056,,,,,,,2024-10-21,1,,,,,シルバーギークスジャパン,0
779,4010503007603,新規,0,2024-10-21,2024-10-21,合同会社ａｏｆａ,,合同会社,東京都,台東区,根岸３丁目１１番１１号,,13,106,1100003,,,,,,,2024-10-21,1,,,,,アオファ,0
783,4010703007394,新規,0,2024-10-21,2024-10-21,ＦＪフードサービス合同会社,,合同会社,東京都,品川区,大井１丁目３１番１－２５１８号,,13,109,1400014,,,,,,,2024-10-21,1,,,,,エフジェーフードサービス,0
784,4010705003689,新規,0,2024-10-21,2024-10-21,一般社団法人トドロキ,,その他の設立登記法人,東京都,品川区,上大崎３丁目１番１号目黒セントラルスクエア１５Ｆ,,13,109,1410021,,,,,,,2024-10-21,1,,,,,トドロキ,0
786,4010803005133,新規,0,2024-10-21,2024-10-21,ＯＳＫ合同会社,,合同会社,東京都,大田区,千鳥３丁目８番１１号,,13,111,1460083,,,,,,,2024-10-21,1,,,,,オーエスケイ,0
796,4011201025847,新規,0,2024-10-21,2024-10-21,株式会社トータツ・スポーテイメント,,株式会社,東京都,中野区,東中野１丁目５８番１６号－２０３,,13,114,1640003,,,,,,,2024-10-21,1,,,,,トータツスポーテイメント,0
805,4011801045006,新規,0,2024-10-21,2024-10-21,株式会社ＨＵＳ,,株式会社,東京都,葛飾区,東四つ木３丁目４３番１０－４２１号,,13,122,1240014,,,,,,,2024-10-21,1,,,,,ヒュース,0
806,4011801045014,新規,0,2024-10-21,2024-10-21,０Ｘ１株式会社,,株式会社,東京都,足立区,大谷田２丁目３番３５－３－７１１号,,13,121,1200001,,,,,,,2024-10-21,1,,,,,ゼロバイワン,0
808,4012301014120,新規,0,2024-10-21,2024-10-21,株式会社リノウェル,,株式会社,東京都,町田市,南成瀬４丁目１１番地１０シャンプレンハイツ南成瀬Ｉ１－２,00136696,13,209,1940045,,,,,,,2024-10-21,1,,,,,リノウェル,0
812,4012401042384,新規,0,2024-10-21,2024-10-21,株式会社＿盛,00136697,株式会社,東京都,府中市,南町３丁目４１番地の７０,,13,206,1830026,,,,,,,2024-10-21,1,,,,,シンセイ,0
813,4012401042401,新規,0,2024-10-21,2024-10-21,株式会社オークラ興業,,株式会社,東京都,調布市,西つつじケ丘１丁目３７番地２０,,13,208,1820006,,,,,,,2024-10-21,1,,,,,オークラコウギョウ,0
815,4012801023505,新規,0,2024-10-21,2024-10-21,株式会社ささえ倶楽部,,株式会社,東京都,国分寺市,日吉町３丁目１２番１２号,,13,214,1850032,,,,,,,2024-10-21,1,,,,,ササエクラブ,0
816,4012801023513,新規,0,2024-10-21,2024-10-21,株式会社美音シンセリティー,,株式会社,東京都,武蔵村山市,大南２丁目７４番地の９,,13,223,2080013,,,,,,,2024-10-21,1,,,,,ミオンシンセリティー,0
828,4020001159664,新規,0,2024-10-21,2024-10-21,株式会社ＥＡＳＴ,,株式会社,神奈川県,川崎市宮前区,初山２丁目２２番１７－１号室,,14,136,2160026,,,,,,,2024-10-21,1,,,,,イースト,0
829,4020001159714,新規,0,2024-10-21,2024-10-21,株式会社トラストニュース不動産,,株式会社,神奈川県,横浜市保土ケ谷区,峰岡町２丁目２３３－２６,,14,106,2400064,,,,,,,2024-10-21,1,,,,,トラストニュースフドウサン,0
838,4021003015129,新規,0,2024-10-21,2024-10-21,グラーティアＭ合同会社,,合同会社,神奈川県,藤沢市,鵠沼石上３丁目３番２７－３０１号,,14,205,2510025,,,,,,,2024-10-21,1,,,,,グラーティアエム,0
848,4030001163087,新規,0,2024-10-21,2024-10-21,株式会社滝沢デザイン,,株式会社,埼玉県,富士見市,渡戸３丁目８番１２号,,11,235,3540032,,,,,,,2024-10-21,1,,,,,タキザワデザイン,0
852,4030003025343,新規,0,2024-10-21,2024-10-21,合同会社ｒｈｅａ,,合同会社,埼玉県,川口市,戸塚東２丁目２０番３４号セトル１０３号,,11,203,3330802,,,,,,,2024-10-21,1,,,,,レア,0
855,4030005021893,新規,0,2024-10-21,2024-10-21,一般社団法人日本クリエイター協会,,その他の設立登記法人,埼玉県,さいたま市岩槻区,大字箕輪２４４番地１,,11,110,3390069,,,,,,,2024-10-21,1,,,,,ニホンクリエイターキョウカイ,0
859,4040001135878,新規,0,2024-10-21,2024-10-21,株式会社くるくるやっほー,,株式会社,千葉県,銚子市,猿田町９５８番地,,12,202,2880855,,,,,,,2024-10-21,1,,,,,クルクルヤッホー,0
866,4060001037593,新規,0,2024-10-21,2024-10-21,株式会社口羽電設,,株式会社,栃木県,下都賀郡壬生町,表町１０番２２－１号,,09,361,3210224,,,,,,,2024-10-21,1,,,,,クチバデンセツ,0
867,4060003005292,新規,0,2024-10-21,2024-10-21,Ｍ‐ファースト合同会社,,合同会社,栃木県,佐野市,浅沼町１８５番地７,,09,204,3270831,,,,,,,2024-10-21,1,,,,,エムファースト,0
873,4080101025067,新規,0,2024-10-21,2024-10-21,長谷川工業株式会社,,株式会社,静岡県,伊東市,宇佐美１９８１番地の１４,,22,208,4140001,,,,,,,2024-10-21,1,,,,,ハセガワコウギョウ,0
878,4090005007656,新規,0,2024-10-21,2024-10-21,一般社団法人アクティブランド,,その他の設立登記法人,山梨県,笛吹市,石和町東高橋３４５,,19,211,4060041,,,,,,,2024-10-21,1,,,,,,0
881,4110001038784,新規,0,2024-10-21,2024-10-21,Ｌｏａｌｉｂ株式会社,,株式会社,新潟県,新潟市東区,江南３丁目５番地３６三佐和ビル３‐Ｂ,,15,102,9500855,,,,,,,2024-10-21,1,,,,,ロアリブ,0
893,4120001269445,新規,0,2024-10-21,2024-10-21,株式会社エフケイ商事,,株式会社,大阪府,大阪市西区,西本町１丁目３番１５号,,27,106,5500005,,,,,,,2024-10-21,1,,,,,エフケイショウジ,0
894,4120001269503,新規,0,2024-10-21,2024-10-21,株式会社晃世,,株式会社,大阪府,大阪市住吉区,長居東４丁目１４番１７号,,27,120,5580004,,,,,,,2024-10-21,1,,,,,コウセイ,0
895,4120001269528,新規,0,2024-10-21,2024-10-21,氷川リゾート株式会社,,株式会社,大阪府,大阪市中央区,北久宝寺町１丁目５番６号堺筋本町アーバンライフ５１２号室,,27,128,5410057,,,,,,,2024-10-21,1,,,,,ヒカワリゾート,0
897,4120003027776,新規,0,2024-10-21,2024-10-21,合同会社オリジナルインベストメント,,合同会社,大阪府,大阪市東成区,東小橋１丁目１１番４－５０３号,,27,115,5370024,,,,,,,2024-10-21,1,,,,,オリジナルインベストメント,0
898,4120003027792,新規,0,2024-10-21,2024-10-21,Ｒｏｏｔｆｏｒ合同会社,,合同会社,大阪府,大阪市北区,梅田１丁目２番２号大阪駅前第２ビル１２－１２,,27,127,5300001,,,,,,,2024-10-21,1,,,,,ルートフォー,0
901,4120101070439,新規,0,2024-10-21,2024-10-21,イノウエエンタープライズ株式会社,,株式会社,大阪府,高石市,加茂２丁目１２番２１号,,27,225,5920011,,,,,,,2024-10-21,1,,,,,イノウエエンタープライズ,0
902,4120101070447,新規,0,2024-10-21,2024-10-21,株式会社ヨズマ,,株式会社,大阪府,泉佐野市,羽倉崎上町３丁目９－２５,,27,213,5980037,,,,,,,2024-10-21,1,,,,,ヨズマ,0
903,4120105009920,新規,0,2024-10-21,2024-10-21,一般社団法人日本書道学会,,その他の設立登記法人,大阪府,泉南郡岬町,淡輪８３８番地５,,27,366,5990301,,,,,,,2024-10-21,1,,,,,ニホンショドウガッカイ,0
906,4120901049913,新規,0,2024-10-21,2024-10-21,エフエス株式会社,,株式会社,大阪府,豊中市,桜の町５丁目１番１号,,27,203,5600054,,,,,,,2024-10-21,1,,,,,エフエス,0
908,4130001078135,新規,0,2024-10-21,2024-10-21,株式会社Ｓｈｉｎｅ　ｏｎ,,株式会社,京都府,亀岡市,大井町並河５丁目６２番地,,26,206,6210013,,,,,,,2024-10-21,1,,,,,シャインオン,0
909,4130003009939,新規,0,2024-10-21,2024-10-21,合同会社Ｐ．Ｄ．Ｃ,,合同会社,京都府,木津川市,加茂町北鴨村６０番地,,26,214,6191113,,,,,,,2024-10-21,1,,,,,ピーディーシー,0
911,4150001027619,新規,0,2024-10-21,2024-10-21,株式会社ＲＥＳＴＡＧＥ,,株式会社,奈良県,奈良市,学園朝日元町２丁目５２９番地の３エクセルハイツＡ－４０３号,,29,201,6310015,,,,,,,2024-10-21,1,,,,,リステージ,0
913,4160001026297,新規,0,2024-10-21,2024-10-21,株式会社Ｌｉｅｎ,,株式会社,滋賀県,大津市,小野１６３番地の５,,25,201,5200525,,,,,,,2024-10-21,1,,,,,リアン,0
922,4180001163683,新規,0,2024-10-21,2024-10-21,株式会社Ｌｉｂｅｒｔａｄ,,株式会社,愛知県,瀬戸市,中品野町１５２番地の１０,,23,204,4801218,,,,,,,2024-10-21,1,,,,,リベルタード,0
923,4180001163691,新規,0,2024-10-21,2024-10-21,株式会社Ｃｈｅｒｉ,,株式会社,愛知県,名古屋市中村区,二ツ橋町１丁目３３番地の１,,23,105,4530813,,,,,,,2024-10-21,1,,,,,シェリ,0
924,4180001163709,新規,0,2024-10-21,2024-10-21,株式会社ＯＩＬ　ＢＥＥＳ,,株式会社,愛知県,名古屋市北区,米が瀬町１９７番地の１,,23,103,4620031,,,,,,,2024-10-21,1,,,,,オイルビーズ,0
925,4180001163758,新規,0,2024-10-21,2024-10-21,株式会社ＡＳＭ,,株式会社,愛知県,名古屋市熱田区,一番３丁目７番６号,,23,109,4560053,,,,,,,2024-10-21,1,,,,,アスム,0
926,4180003027507,新規,0,2024-10-21,2024-10-21,ＤＳＡジャパン合同会社,,合同会社,愛知県,名古屋市昭和区,北山町３丁目１１番地の４,,23,107,4660006,,,,,,,2024-10-21,1,,,,,ディーエスエージャヤパン,0
932,4180303006318,新規,0,2024-10-21,2024-10-21,合同会社ＡＺＺＡＨＲＡ　ＨＡＬＡＬ　ＦＯＯＤ,,合同会社,愛知県,豊橋市,南栄町字空池１１３番地・市営空池住宅２棟１０８号,,23,201,4418107,,,,,,,2024-10-21,1,,,,,アズザハラハラールフード,0
934,4180305009616,新規,0,2024-10-21,2024-10-21,一般社団法人西三河フードバンク連絡協議会,,その他の設立登記法人,愛知県,豊田市,十塚町２丁目１番地コーポとつか１０３,,23,211,4710869,,,,,,,2024-10-21,1,,,,,ニシミカワフードバンクレンラクキョウギカイ,0
938,4210001019948,新規,0,2024-10-21,2024-10-21,株式会社Ｇ‐ＴＥＣ,,株式会社,福井県,三方上中郡若狭町,脇袋２２－１２,,18,501,9191524,,,,,,,2024-10-21,1,,,,,ジーテック,0
941,4220001026274,新規,0,2024-10-21,2024-10-21,ニューファイブ株式会社,,株式会社,石川県,金沢市,藤江北２丁目２７番地１,,17,201,9200345,,,,,,,2024-10-21,1,,,,,ニューファイブ,0
954,4260001039561,新規,0,2024-10-21,2024-10-21,株式会社良寛庵ひらい,,株式会社,岡山県,倉敷市,玉島乙島６６９７番地５,,33,202,7138103,,,,,,,2024-10-21,1,,,,,リョウカンアンヒライ,0
967,4290005019540,新規,0,2024-10-21,2024-10-21,一般社団法人福北会計,,その他の設立登記法人,福岡県,福岡市城南区,長尾５丁目２番８号,,40,136,8140123,,,,,,,2024-10-21,1,,,,,フクホクカイケイ,0
970,4290801030972,新規,0,2024-10-21,2024-10-21,株式会社Ｎｅｘｔ　ｉｎｎｏｖａｔｉｏｎ,,株式会社,福岡県,北九州市小倉南区,若園２丁目２１番７号,,40,107,8020816,,,,,,,2024-10-21,1,,,,,ネクストイノベーション,0
976,4330001032550,新規,0,2024-10-21,2024-10-21,ＭＨＲ株式会社,,株式会社,熊本県,熊本市北区,弓削１丁目９番９号,,43,105,8618002,,,,,,,2024-10-21,1,,,,,エムエイチアール,0
977,4330001032559,新規,0,2024-10-21,2024-10-21,恒大電子株式会社,,株式会社,熊本県,熊本市中央区,新屋敷３丁目２番６号真野ビル４０３号室,,43,101,8620975,,,,,,,2024-10-21,1,,,,,コウダイデンシ,0
983,4340003004621,新規,0,2024-10-21,2024-10-21,若宮煌合同会社,,合同会社,鹿児島県,伊佐市,大口大田１６８６番地１,,46,224,8952507,,,,,,,2024-10-21,1,,,,,ワカミヤコウ,0
991,4360001034338,新規,0,2024-10-21,2024-10-21,株式会社栄光,,株式会社,沖縄県,那覇市,具志３丁目２５番３号クラシック館２０１,,47,201,9010146,,,,,,,2024-10-21,1,,,,,エイコウ,0
992,4360001034346,新規,0,2024-10-21,2024-10-21,琉北株式会社,,株式会社,沖縄県,中頭郡西原町,字幸地１００４番地の１,,47,329,9030116,,,,,,,2024-10-21,1,,,,,リュウホク,0
994,4370001051828,新規,0,2024-10-21,2024-10-21,株式会社ＭＯＮＴ,,株式会社,宮城県,仙台市泉区,天神沢１丁目１７番２２号,,04,105,9813105,,,,,,,2024-10-21,1,,,,,モント,0
1004,4390003002298,新規,0,2024-10-21,2024-10-21,ＡＩ　Ｐｒｏｇｒｅｓｓ合同会社,,合同会社,山形県,山形市,南館２丁目４－１０,,06,201,9902461,,,,,,,2024-10-21,1,,,,,エーアイプログレス,0
1010,4430001092898,新規,0,2024-10-21,2024-10-21,宝能株式会社,,株式会社,北海道,札幌市北区,北二十六条西７丁目２番３－１０２号,,01,102,0010026,,,,,,,2024-10-21,1,,,,,ホウノウ,0
1011,4430003016896,新規,0,2024-10-21,2024-10-21,合同会社ｉ．ｓｔｙｌｅ,,合同会社,北海道,札幌市白石区,本郷通９丁目南３－２３－１０２,,01,104,0030024,,,,,,,2024-10-21,1,,,,,アイスタイル,0
1012,4440001009513,新規,0,2024-10-21,2024-10-21,株式会社久遠,,株式会社,北海道,函館市,梁川町１９番９号第６ＭＣビル１Ｆ,,01,202,0400015,,,,,,,2024-10-21,1,,,,,クオン,0
1023,5010001249176,新規,0,2024-10-21,2024-10-21,ＹＭＩアカウンティング株式会社,,株式会社,東京都,千代田区,神田佐久間町３丁目２７番３号ガーデンパークビル３階,,13,101,1010025,,,,,,,2024-10-21,1,,,,,ワイエムアイ,0
1029,5010003045227,新規,0,2024-10-21,2024-10-21,オタクコンサル合同会社,,合同会社,東京都,中央区,銀座７丁目１３番２１号銀座ｓｉｎｒｏｋｕｓｙｕビル２階,,13,102,1040061,,,,,,,2024-10-21,1,,,,,オタクコンサル,0
1030,5010003045251,新規,0,2024-10-21,2024-10-21,スプリングプロパティー合同会社,,合同会社,東京都,千代田区,丸の内１丁目１１番１号,,13,101,1000005,,,,,,,2024-10-21,1,,,,,スプリングプロパティー,0
1032,5010101016377,新規,0,2024-10-21,2024-10-21,ＫＩＫＩ　ＴＥＣＨ株式会社,,株式会社,東京都,八王子市,大楽寺町１７３番地４,,13,201,1930816,,,,,,,2024-10-21,1,,,,,キキテック,0
1041,5010401185806,新規,0,2024-10-21,2024-10-21,株式会社ニューロスキャン,,株式会社,東京都,港区,元赤坂１丁目１番７－８０７号,,13,103,1070051,,,,,,,2024-10-21,1,,,,,ニューロスキャン,0
1042,5010403033640,新規,0,2024-10-21,2024-10-21,Ｍｅｔａｃｏｒｅ　Ｊａｐａｎ合同会社,,合同会社,東京都,港区,六本木６丁目２番３１号,,13,103,1060032,,,,,,,2024-10-21,1,,,,,メタコアジャパン,0
1048,5010601066112,新規,0,2024-10-21,2024-10-21,株式会社ノジマ住建,,株式会社,東京都,江東区,青海２丁目７番４号１１２９号室,,13,108,1350064,,,,,,,2024-10-21,1,,,,,ノジマジュウケン,0
1049,5010701046690,新規,0,2024-10-21,2024-10-21,Ｄｏｕｂｌｅ　Ｂｅａｕｔｙ株式会社,,株式会社,東京都,品川区,勝島１丁目４番２０－５２０号,,13,109,1400012,,,,,,,2024-10-21,1,,,,,ダブルビューティー,0
1051,5010703007393,新規,0,2024-10-21,2024-10-21,Ｔｉｍｅ　Ｔｒａｖｅｌ合同会社,,合同会社,東京都,品川区,上大崎１丁目１３番９号ＭＤＭ白金台３０４,,13,109,1410021,,,,,,,2024-10-21,1,,,,,タイムトラベル,0
1052,5010705003688,新規,0,2024-10-21,2024-10-21,一般社団法人ふじろく,,その他の設立登記法人,東京都,品川区,上大崎３丁目１番１号目黒セントラルスクエア１５Ｆ,,13,109,1410021,,,,,,,2024-10-21,1,,,,,フジロク,0
1060,5011001165025,新規,0,2024-10-21,2024-10-21,株式会社ａｍｓｅｌ,,株式会社,東京都,渋谷区,初台２丁目１６－２１－２０１,,13,113,1510061,,,,,,,2024-10-21,1,,,,,アムゼル,0
1061,5011001165248,新規,0,2024-10-21,2024-10-21,トリトリカンパニー株式会社,,株式会社,東京都,目黒区,五本木３丁目２８番１号３０４,,13,110,1530053,,,,,,,2024-10-21,1,,,,,トリトリカンパニー,0
1062,5011001165272,新規,0,2024-10-21,2024-10-21,グリュックパートナーズ株式会社,,株式会社,東京都,渋谷区,渋谷２丁目１９－１５宮益坂ビルディング６０９,,13,113,1500002,,,,,,,2024-10-21,1,,,,,グリュックパートナーズ,0
1071,5011203004501,新規,0,2024-10-21,2024-10-21,合同会社Ｕ,,合同会社,東京都,中野区,東中野１丁目５４番２号ＯＳｄｕｏ３０１,,13,114,1640003,,,,,,,2024-10-21,1,,,,,ユー,0
1074,5011601028135,新規,0,2024-10-21,2024-10-21,ＮｏＮａｍｅ　Ｉｎｆｉｎｉｔｅ株式会社,,株式会社,東京都,練馬区,向山４丁目２番８号ブランニュー向山２号１０１,,13,120,1760022,,,,,,,2024-10-21,1,,,,,ノーネームインフィニット,0
1075,5011603004489,新規,0,2024-10-21,2024-10-21,Ｙ２Ｄスタジオ合同会社,,合同会社,東京都,練馬区,平和台４丁目７－８－４０５,,13,120,1790083,,,,,,,2024-10-21,1,,,,,ワイツーディースタジオ,0
1077,5011801045013,新規,0,2024-10-21,2024-10-21,株式会社ディンドン,,株式会社,東京都,足立区,舎人４丁目１１番２号,,13,121,1210831,,,,,,,2024-10-21,1,,,,,ディンドン,0
1078,5011801045021,新規,0,2024-10-21,2024-10-21,Ｚｅｎｔｏｒｉ株式会社,,株式会社,東京都,足立区,小台１丁目６番５号３０７号室,,13,121,1200046,,,,,,,2024-10-21,1,,,,,ゼントリー,0
1079,5012701018496,新規,0,2024-10-21,2024-10-21,株式会社ＭＩＳＡＫＵ,,株式会社,東京都,西東京市,下保谷２丁目１―１５,,13,229,2020004,,,,,,,2024-10-21,1,,,,,ミサク,0
1081,5013101009540,新規,0,2024-10-21,2024-10-21,株式会社Ｓｈｕ,,株式会社,東京都,青梅市,天ヶ瀬町９３０番地の２,,13,205,1980087,,,,,,,2024-10-21,1,,,,,シュー,0
1085,5020001159671,新規,0,2024-10-21,2024-10-21,株式会社スリーカムズ,,株式会社,神奈川県,横浜市青葉区,あざみ野４丁目４－８－３０１,,14,117,2250011,,,,,,,2024-10-21,1,,,,,スリーカムズ,0
1086,5020001159688,新規,0,2024-10-21,2024-10-21,株式会社正和建設,,株式会社,神奈川県,横浜市港北区,日吉５丁目２２番３４－２０１号,,14,109,2230061,,,,,,,2024-10-21,1,,,,,ショウワケンセツ,0
1087,5020001159721,新規,0,2024-10-21,2024-10-21,株式会社ヴァリュー,,株式会社,神奈川県,横浜市南区,通町３丁目５０番２号４０４,,14,105,2320056,,,,,,,2024-10-21,1,,,,,ヴァリュー,0
1089,5020003027083,新規,0,2024-10-21,2024-10-21,作庭小林合同会社,,合同会社,神奈川県,横浜市都筑区,中川３丁目５番１３号,,14,118,2240001,,,,,,,2024-10-21,1,,,,,サクテイコバヤシ,0
1094,5021001083515,新規,0,2024-10-21,2024-10-21,株式会社Ｆｒｏｒｅａ,,株式会社,神奈川県,相模原市中央区,田名７３６８番地１０,,14,152,2520244,,,,,,,2024-10-21,1,,,,,フローレア,0
1096,5021005013204,新規,0,2024-10-21,2024-10-21,特定非営利活動法人げんきすこやか,,その他の設立登記法人,神奈川県,海老名市,中央１丁目１６番３１号Ａ＆ＮＩビル１階,,14,215,2430432,,,,,,,2024-10-21,1,,,,,ゲンキスコヤカ,0
1106,5030003025284,新規,0,2024-10-21,2024-10-21,方通合同会社,,合同会社,埼玉県,草加市,瀬崎４丁目１０－７,,11,221,3400022,,,,,,,2024-10-21,1,,,,,ホウツウ,0
1117,5060003005291,新規,0,2024-10-21,2024-10-21,合同会社ＵＮＤＥＲＦＩＥＬＤ,,合同会社,栃木県,宇都宮市,鶴田町２０５５番地３６,,09,201,3200851,,,,,,,2024-10-21,1,,,,,アンダーフィールド,0
1118,5060005010257,新規,0,2024-10-21,2024-10-21,那須ビューパレス管理組合法人,,その他の設立登記法人,栃木県,那須郡那須町,大字湯本２１２番地３５３,,09,407,3250301,,,,,,,2024-10-21,1,,,,,ナスビューパレス,0
1125,5080101025074,新規,0,2024-10-21,2024-10-21,株式会社日月光,,株式会社,静岡県,賀茂郡東伊豆町,稲取２３３０－１,,22,301,4130411,,,,,,,2024-10-21,1,,,,,ヒツキコウ,0
1132,5100003007812,新規,0,2024-10-21,2024-10-21,合同会社１１２３５,,合同会社,長野県,伊那市,長谷溝口１２１０－１Ｆ,,20,209,3960402,,,,,,,2024-10-21,1,,,,,イチイチニーサンゴ,0
1139,5120001268727,新規,0,2024-10-21,2024-10-21,Ｗｅ　Ｇｏ　Ｒｏｕｎｄ　Ｊａｐａｎ株式会社,,株式会社,大阪府,大阪市淀川区,西中島５丁目２番７号,,27,123,5320011,,,,,,,2024-10-21,1,,,,,ウィゴーラウンドジャパン,0
1141,5120003027791,新規,0,2024-10-21,2024-10-21,ＴＨＩＮＨ　ＰＨＡＴ合同会社,,合同会社,大阪府,大阪市西成区,玉出中１丁目５－８－５０７号,,27,122,5570044,,,,,,,2024-10-21,1,,,,,ティンファット,0
1144,5120101070438,新規,0,2024-10-21,2024-10-21,株式会社コムズ,,株式会社,大阪府,貝塚市,橋本１６番地１７,,27,208,5970043,,,,,,,2024-10-21,1,,,,,コムズ,0
1145,5120101070446,新規,0,2024-10-21,2024-10-21,株式会社Ｈａｎｇ,,株式会社,大阪府,泉南郡岬町,深日２０１２番地の７６,,27,366,5990303,,,,,,,2024-10-21,1,,,,,ハング,0
1148,5120103006101,新規,0,2024-10-21,2024-10-21,Ａｋｉｒａ合同会社,,合同会社,大阪府,貝塚市,麻生中７５２番地６－１０３号室,,27,208,5970081,,,,,,,2024-10-21,1,,,,,アキラ,0
1162,5140003021207,新規,0,2024-10-21,2024-10-21,合同会社セカンドライン,,合同会社,兵庫県,赤穂市,さつき町１２番地５,,28,212,6780226,,,,,,,2024-10-21,1,,,,,セカンドライン,0
1164,5160001026288,新規,0,2024-10-21,2024-10-21,長楽産業株式会社,,株式会社,滋賀県,大津市,尾花川５番１５号,,25,201,5200031,,,,,,,2024-10-21,1,,,,,チョウラクサンギョウ,0
1165,5160001026296,新規,0,2024-10-21,2024-10-21,株式会社モリタメディカルキャスティング,,株式会社,滋賀県,甲賀市,甲賀町鳥居野７６５番地,,25,209,5203403,,,,,,,2024-10-21,1,,,,,モリタメディカルキャスティング,0
1170,5180001163690,新規,0,2024-10-21,2024-10-21,株式会社Ｍアルファ,,株式会社,愛知県,一宮市,木曽川町外割田字西郷中８１番地,,23,203,4930007,,,,,,,2024-10-21,1,,,,,エムアルファ,0
1171,5180001163724,新規,0,2024-10-21,2024-10-21,株式会社Ｂｅ,,株式会社,愛知県,稲沢市,井之口北畑町２０３番地,,23,220,4928151,,,,,,,2024-10-21,1,,,,,ビー,0
1172,5180001163749,新規,0,2024-10-21,2024-10-21,株式会社テクノホーム,,株式会社,愛知県,名古屋市中区,錦１丁目１６番２５号三甲名古屋錦ビル５Ｆ,,23,106,4600003,,,,,,,2024-10-21,1,,,,,テクノホーム,0
1175,5180003027489,新規,0,2024-10-21,2024-10-21,リワードフーズ合同会社,,合同会社,愛知県,名古屋市中村区,靖国町２丁目３３番地の３,,23,105,4530065,,,,,,,2024-10-21,1,,,,,リファードフーズ,0
1177,5180303006309,新規,0,2024-10-21,2024-10-21,合同会社ブーケ,,合同会社,愛知県,田原市,豊島町釜鋳硲８７番地７,,23,231,4413417,,,,,,,2024-10-21,1,,,,,ブーケ,0
1181,5210003001845,新規,0,2024-10-21,2024-10-21,合同会社ＦＴＪｌａｂ,,合同会社,福井県,敦賀市,神楽町２丁目６ー５,,18,202,9140063,,,,,,,2024-10-21,1,,,,,エフティージェーラボ,0
1190,5220003003857,新規,0,2024-10-21,2024-10-21,ＳＥＡＭＡＭＡ合同会社,,合同会社,石川県,金沢市,上安原町６７４番地１,,17,201,9200374,,,,,,,2024-10-21,1,,,,,シーママ,0
1192,5240001063975,新規,0,2024-10-21,2024-10-21,株式会社愛真,,株式会社,広島県,福山市,神村町６６番地１,,34,207,7290112,,,,,,,2024-10-21,1,,,,,アイシン,0
1195,5260001039552,新規,0,2024-10-21,2024-10-21,株式会社ワンダースペース,,株式会社,岡山県,岡山市南区,新福２丁目５番１９号,,33,104,7000943,,,,,,,2024-10-21,1,,,,,ワンダースペース,0
1196,5270001009075,新規,0,2024-10-21,2024-10-21,ＡＳＫＢＩＤ株式会社,,株式会社,鳥取県,境港市,元町１１１番地,,31,204,6840032,,,,,,,2024-10-21,1,,,,,アスクビッド,0
1204,5290001107678,新規,0,2024-10-21,2024-10-21,株式会社山下,,株式会社,福岡県,大野城市,錦町２丁目５番４号,,40,219,8160935,,,,,,,2024-10-21,1,,,,,ヤマシタ,0
1209,5290005019531,新規,0,2024-10-21,2024-10-21,一般社団法人価値創造サポート協議会,,その他の設立登記法人,福岡県,久留米市,東町５番地１３－３０２号,,40,203,8300032,,,,,,,2024-10-21,1,,,,,カチソウゾウサポートキョウギカイ,0
1215,5330001032566,新規,0,2024-10-21,2024-10-21,株式会社ＡＲＵＫＵ,,株式会社,熊本県,熊本市南区,八幡１１丁目７番３２号,,43,104,8614113,,,,,,,2024-10-21,1,,,,,アルク,0
1217,5330003010611,新規,0,2024-10-21,2024-10-21,合同会社ＬＡＧ　ｃｏｎｎｅｃｔ,,合同会社,熊本県,玉名市,山田１３６０番地１,,43,206,8650066,,,,,,,2024-10-21,1,,,,,ラグコネクト,0
1220,5340001026872,新規,0,2024-10-21,2024-10-21,株式会社蓮華,,株式会社,鹿児島県,鹿児島市,吉野町１５０３番地８,,46,201,8920871,,,,,,,2024-10-21,1,,,,,レンカ,0
1225,5360001034337,新規,0,2024-10-21,2024-10-21,株式会社Ｈ＆Ｙ　Ｈｅａｌｔｈ　Ｓｃｉｅｎｃｅ,,株式会社,沖縄県,浦添市,仲西２丁目４番２２－１００２号,,47,208,9012125,,,,,,,2024-10-21,1,,,,,エイチアンドワイヘルスサイエンス,0
1231,5370001051827,新規,0,2024-10-21,2024-10-21,株式会社エス・システム,,株式会社,宮城県,多賀城市,山王字掃下し２番地の２３,,04,209,9850852,,,,,,,2024-10-21,1,,,,,エスシステム,0
1238,5420001018894,新規,0,2024-10-21,2024-10-21,Ｔｏｓｈｉｎ株式会社,,株式会社,青森県,弘前市,大字栄町２丁目４番地１,,02,202,0368336,,,,,,,2024-10-21,1,,,,,トーシン,0
1243,5430001092880,新規,0,2024-10-21,2024-10-21,Ｔｈｅ　Ｖｉｅｗ株式会社,,株式会社,北海道,札幌市中央区,北二条西１０丁目２番地７Ｗａｌｌ６０２,,01,101,0600002,,,,,,,2024-10-21,1,,,,,ザビュー,0
1244,5430001092889,新規,0,2024-10-21,2024-10-21,株式会社アムテック,,株式会社,北海道,札幌市東区,東苗穂九条２丁目１番５６号,,01,103,0070809,,,,,,,2024-10-21,1,,,,,アムテック,0
1245,5480001012628,新規,0,2024-10-21,2024-10-21,株式会社みんなで,,株式会社,徳島県,板野郡藍住町,矢上字西１６０番地８９,,36,403,7711251,,,,,,,2024-10-21,1,,,,,ミンナデ,0
1261,6010001249183,新規,0,2024-10-21,2024-10-21,立本株式会社,,株式会社,東京都,千代田区,神田三崎町２丁目１０番１１号ｐｅｇビル６Ａ－９,,13,101,1010061,,,,,,,2024-10-21,1,,,,,タチモト,0
1265,6010003045201,新規,0,2024-10-21,2024-10-21,合同会社プライムタワー新浦安,,合同会社,東京都,千代田区,霞が関３丁目２番５号,,13,101,1000013,,,,,,,2024-10-21,1,,,,,プライムタワーシンウラヤス,0
1266,6010003045250,新規,0,2024-10-21,2024-10-21,ＭＩＲＡＩ東京蓄電合同会社,,合同会社,東京都,千代田区,神田練塀町３番地,,13,101,1010022,,,,,,,2024-10-21,1,,,,,ミライトウキョウチクデン,0
1267,6010005038979,新規,0,2024-10-21,2024-10-21,一般社団法人ハラル・コスメティック・エステティック協会,,その他の設立登記法人,東京都,中央区,銀座６丁目７番１６号岩月ビル８Ｆ,,13,102,1040061,,,,,,,2024-10-21,1,,,,,ハラルコスメティックエステティックキョウカイ,0
1272,6010401185805,新規,0,2024-10-21,2024-10-21,ＦＩＬＬＴＵＮＥ　ｔｅｃｈｎｏｌｏｇｉｅｓ株式会社,,株式会社,東京都,港区,南青山４丁目７番１６号サンハイム南青山１０２,,13,103,1070062,,,,,,,2024-10-21,1,,,,,フィルテューンテクノロジーズ,0
1278,6010403033648,新規,0,2024-10-21,2024-10-21,ＦＴＡＧ　Ｊａｐａｎ　ＰＭ合同会社,,合同会社,東京都,港区,海岸１丁目９番１１号マリンクス・タワー１階,,13,103,1050022,,,,,,,2024-10-21,1,,,,,エフティエージージャパンピーエム,0
1283,6010703007392,新規,0,2024-10-21,2024-10-21,合同会社とらすけ,,合同会社,東京都,品川区,東品川１丁目２２番６号２０１,,13,109,1400002,,,,,,,2024-10-21,1,,,,,トラスケ,0
1285,6010901056159,新規,0,2024-10-21,2024-10-21,ＣＲＡＦＴ　ＢＲＥＷＥＲＳ株式会社,,株式会社,東京都,世田谷区,太子堂１丁目１５番１２号セントラルビル１階１０１号,,13,112,1540004,,,,,,,2024-10-21,1,,,,,クラフトブリュワーズ,0
1288,6011001165288,新規,0,2024-10-21,2024-10-21,株式会社ホワイトキャンバス,,株式会社,東京都,渋谷区,恵比寿西２丁目８番４号ＥＸ恵比寿西ビル５階,,13,113,1500021,,,,,,,2024-10-21,1,,,,,ホワイトキャンバス,0
1289,6011001165296,新規,0,2024-10-21,2024-10-21,株式会社ｐａｎｇｒａｍ,,株式会社,東京都,渋谷区,渋谷２丁目１９－１５宮益坂ビルディング６０９,,13,113,1500002,,,,,,,2024-10-21,1,,,,,パングラム,0
1290,6011001165305,新規,0,2024-10-21,2024-10-21,株式会社ｍｅｎｔａｉ,,株式会社,東京都,渋谷区,渋谷２丁目１９－１５宮益坂ビルディング６０９,,13,113,1500002,,,,,,,2024-10-21,1,,,,,メンタイ,0
1291,6011003020078,新規,0,2024-10-21,2024-10-21,合同会社ももくま,,合同会社,東京都,渋谷区,渋谷２丁目１９‐１５宮益坂ビルディング６０９,,13,113,1500002,,,,,,,2024-10-21,1,,,,,モモクマ,0
1292,6011003020177,新規,0,2024-10-21,2024-10-21,Ｗａｎｏｋｕｎｉ合同会社,,合同会社,東京都,渋谷区,恵比寿西２丁目４番８号ウィンド恵比寿ビル８Ｆ,,13,113,1500021,,,,,,,2024-10-21,1,,,,,ワノクニ,0
1293,6011005010688,新規,0,2024-10-21,2024-10-21,一般社団法人日本ラグビーフットボール技術支援研究協会,,その他の設立登記法人,東京都,渋谷区,神宮前６丁目２３番４号桑野ビル２階,,13,113,1500001,,,,,,,2024-10-21,1,,,,,ニホンラグビーフットボールギジュツシエンケンキュウキョウカイ,0
1299,6011101109203,新規,0,2024-10-21,2024-10-21,株式会社ｋｅｅｎ,,株式会社,東京都,新宿区,北新宿１丁目１番２０号プリオール三信ビル８階,,13,104,1690074,,,,,,,2024-10-21,1,,,,,キーン,0
1306,6011701027738,新規,0,2024-10-21,2024-10-21,株式会社Ｏｎｅ＆Ｏｎｅ,,株式会社,東京都,江戸川区,南葛西４丁目２２番１５号,,13,123,1340085,,,,,,,2024-10-21,1,,,,,ワンアンドワン,0
1308,6011803006508,新規,0,2024-10-21,2024-10-21,百立合同会社,,合同会社,東京都,葛飾区,金町２丁目２１－５プラーズ金町５０３室,,13,122,1250042,,,,,,,2024-10-21,1,,,,,モモタツ,0
1310,6012401042399,新規,0,2024-10-21,2024-10-21,おでんらぼ株式会社,,株式会社,東京都,調布市,調布ケ丘１丁目１２―１２,,13,208,1820021,,,,,,,2024-10-21,1,,,,,オデンラボ,0
1312,6012703003108,新規,0,2024-10-21,2024-10-21,合同会社ＭＲＣ‐ＰＬＵＳ,,合同会社,東京都,西東京市,富士町４丁目１２番６号,,13,229,2020014,,,,,,,2024-10-21,1,,,,,エムアールシープラス,0
1321,6020003027082,新規,0,2024-10-21,2024-10-21,合同会社スラッシュドット,,合同会社,神奈川県,横浜市神奈川区,白楽３２番地３７,,14,102,2210065,,,,,,,2024-10-21,1,,,,,スラッシュドット,0
1327,6021001083497,新規,0,2024-10-21,2024-10-21,株式会社プラスワンフラワーズ,,株式会社,神奈川県,藤沢市,鵠沼海岸５丁目８番１～１０４,00136700,14,205,2510037,,,,,,,2024-10-21,1,,,,,プラスワンフラワーズ,0
1330,6021003015135,新規,0,2024-10-21,2024-10-21,合同会社コミリー,,合同会社,神奈川県,海老名市,中央３丁目３番９―１００４,,14,215,2430432,,,,,,,2024-10-21,1,,,,,コミリー,0
1337,6030001162987,新規,0,2024-10-21,2024-10-21,株式会社エレフィット,,株式会社,埼玉県,川越市,大字福田９７７番地３,,11,201,3500821,,,,,,,2024-10-21,1,,,,,エレフィット,0
1347,6060001037591,新規,0,2024-10-21,2024-10-21,株式会社スミレ,,株式会社,栃木県,さくら市,氏家３５１１番地４９,,09,214,3291311,,,,,,,2024-10-21,1,,,,,スミレ,0
1349,6060005010256,新規,0,2024-10-21,2024-10-21,一般社団法人日本オフロード協会,,その他の設立登記法人,栃木県,宇都宮市,石那田町８８番地５,,09,201,3212103,,,,,,,2024-10-21,1,,,,,ニッポンオフロードキョウカイ,0
1351,6070005010321,新規,0,2024-10-21,2024-10-21,一般社団法人建設多能工リスキリング協会,,その他の設立登記法人,群馬県,佐波郡玉村町,大字樋越７９９番地７,,10,464,3701103,,,,,,,2024-10-21,1,,,,,ケンセツタノウコウリスキリングキョウカイ,0
1353,6080101025065,新規,0,2024-10-21,2024-10-21,株式会社Ｂａｎａｎａ,,株式会社,静岡県,駿東郡清水町,伏見２７６－１,,22,341,4110907,,,,,,,2024-10-21,1,,,,,バナナ,0
1354,6080101025073,新規,0,2024-10-21,2024-10-21,株式会社ナンクル,,株式会社,静岡県,御殿場市,大坂９４番地の１エンゼルハイム御殿場１０３,,22,215,4120034,,,,,,,2024-10-21,1,,,,,ナンクル,0
1356,6080103003168,新規,0,2024-10-21,2024-10-21,合同会社ＡＲＹＡＡＮ　ＷＨＥＥＬＳ,,合同会社,静岡県,富士宮市,ひばりが丘８９５番地－１０１号室,,22,207,4180003,,,,,,,2024-10-21,1,,,,,アルヤーンホイールズ,0
1359,6100003007811,新規,0,2024-10-21,2024-10-21,合同会社タテプロ,,合同会社,長野県,北佐久郡立科町,大字芦田９６０番地１６,,20,324,3842305,,,,,,,2024-10-21,1,,,,,タテプロ,0
1360,6110001038790,新規,0,2024-10-21,2024-10-21,株式会社Ｒｅｖｅｌｉｅｒ,,株式会社,新潟県,三条市,西裏館１丁目７番３０号,,15,204,9550082,,,,,,,2024-10-21,1,,,,,レーブリエ,0
1368,6120001269229,新規,0,2024-10-21,2024-10-21,株式会社榮盛,,株式会社,大阪府,大阪市阿倍野区,阪南町５丁目１８番１１号,,27,119,5450021,,,,,,,2024-10-21,1,,,,,エイセイ,0
1369,6120001269492,新規,0,2024-10-21,2024-10-21,株式会社ＪＢＰ,,株式会社,大阪府,大阪市北区,天神橋６丁目５番５号サカエビル２階,,27,127,5300041,,,,,,,2024-10-21,1,,,,,ジェイビーピー,0
1372,6120003027774,新規,0,2024-10-21,2024-10-21,合同会社ＫＩＺＵＮＡ,,合同会社,大阪府,大阪市福島区,海老江１丁目１１番１－４０１号,,27,103,5530001,,,,,,,2024-10-21,1,,,,,キズナ,0
1377,6120103006100,新規,0,2024-10-21,2024-10-21,ロッキー合同会社,,合同会社,大阪府,和泉市,黒鳥町４丁目５番９号,,27,219,5940022,,,,,,,2024-10-21,1,,,,,ロッキー,0
1379,6120903005383,新規,0,2024-10-21,2024-10-21,合同会社フローラ,,合同会社,大阪府,豊中市,緑丘４丁目３１番５号,,27,203,5600002,,,,,,,2024-10-21,1,,,,,フローラ,0
1385,6130001078141,新規,0,2024-10-21,2024-10-21,ＦＯＲＥＳＴ株式会社,,株式会社,京都府,京都市左京区,北白川琵琶町１１,,26,103,6068293,,,,,,,2024-10-21,1,,,,,フォレスト,0
1388,6140001136105,新規,0,2024-10-21,2024-10-21,株式会社兵建伊丹,,株式会社,兵庫県,伊丹市,西台３丁目９番２２－３１０号,,28,207,6640858,,,,,,,2024-10-21,1,,,,,ヒョウケンイタミ,0
1389,6150001027617,新規,0,2024-10-21,2024-10-21,エクスバンク株式会社,,株式会社,奈良県,磯城郡田原本町,大字新木１番地の１３１,,29,363,6360347,,,,,,,2024-10-21,1,,,,,エクスバンク,0
1402,6180001163681,新規,0,2024-10-21,2024-10-21,株式会社ジャパンエクスプレス,,株式会社,愛知県,名古屋市港区,春田野２丁目３１０４番地（サンパーク１０２号）,,23,111,4550873,,,,,,,2024-10-21,1,,,,,ジャパンエクスプレス,0
1403,6180001163698,新規,0,2024-10-21,2024-10-21,名西トラスト株式会社,,株式会社,愛知県,名古屋市西区,城西４丁目２２番１１号,,23,104,4510031,,,,,,,2024-10-21,1,,,,,メイセイトラスト,0
1406,6180003027496,新規,0,2024-10-21,2024-10-21,ＫＯＳＥＩＩ合同会社,,合同会社,愛知県,名古屋市中川区,一色新町２丁目４０１番地（三日月住宅５棟４０８号）,,23,110,4540946,,,,,,,2024-10-21,1,,,,,コセイアイ,0
1408,6180301039160,新規,0,2024-10-21,2024-10-21,株式会社アビリティシステム,,株式会社,愛知県,豊田市,小坂本町１丁目５－５ＹＡＭＡＴＯＢＬＤＧ２階,,23,211,4710034,,,,,,,2024-10-21,1,,,,,,0
1421,6270001009074,新規,0,2024-10-21,2024-10-21,株式会社看製社,,株式会社,鳥取県,米子市,奈喜良１９９番地１,,31,202,6830022,,,,,,,2024-10-21,1,,,,,カンセイシャ,0
1428,6290001107520,新規,0,2024-10-21,2024-10-21,ＨＵＮＴＥＲ株式会社,,株式会社,福岡県,福岡市西区,愛宕南１丁目７番７－５０３号,,40,135,8190007,,,,,,,2024-10-21,1,,,,,ハンター,0
1429,6290001107652,新規,0,2024-10-21,2024-10-21,株式会社博睿,,株式会社,福岡県,福岡市博多区,博多駅中央街５番１１号,,40,132,8120012,,,,,,,2024-10-21,1,,,,,ヒロシエイ,0
1430,6290001107669,新規,0,2024-10-21,2024-10-21,株式会社グリーンケアみらい,,株式会社,福岡県,福岡市南区,野間２丁目７番２２号,,40,134,8150041,,,,,,,2024-10-21,1,,,,,グリーンケアミライ,0
1434,6290801030970,新規,0,2024-10-21,2024-10-21,彩株式会社,,株式会社,福岡県,北九州市小倉南区,長尾５丁目１５番１－４０３号,,40,107,8030274,,,,,,,2024-10-21,1,,,,,イロドリ,0
1438,6310001019275,新規,0,2024-10-21,2024-10-21,株式会社システムアップ,,株式会社,長崎県,長崎市,賑町５番２３号,,42,201,8500876,,,,,,,2024-10-21,1,,,,,システムアップ,0
1446,6360003014402,新規,0,2024-10-21,2024-10-21,合同会社うちょうりゃ,,合同会社,沖縄県,石垣市,字登野城７００番地２,,47,207,9070004,,,,,,,2024-10-21,1,,,,,ウチョウリャ,0
1451,6380003005878,新規,0,2024-10-21,2024-10-21,合同会社ＵｖｅｒＧｒｏｕｐ,,合同会社,福島県,会津若松市,飯寺南４丁目７番８０号,,07,202,9650840,,,,,,,2024-10-21,1,,,,,ウーバーグループ,0
1453,6400003003342,新規,0,2024-10-21,2024-10-21,合同会社ルース,,合同会社,岩手県,盛岡市,東仙北２丁目１６番３６号,,03,201,0200862,,,,,,,2024-10-21,1,,,,,ルース,0
1463,6430001092896,新規,0,2024-10-21,2024-10-21,株式会社Ｋ・プロジェクト,,株式会社,北海道,滝川市,江部乙町東１０丁目１３番５号,,01,225,0790463,,,,,,,2024-10-21,1,,,,,ケープロジェクト,0
1464,6440001009511,新規,0,2024-10-21,2024-10-21,株式会社エスプラウド,,株式会社,北海道,函館市,高盛町２番１５号,,01,202,0400024,,,,,,,2024-10-21,1,,,,,エスプラウド,0
1465,6450003002546,新規,0,2024-10-21,2024-10-21,合同会社はるかぜ介護相談室,,合同会社,北海道,旭川市,東光十三条１丁目２番４号２階,,01,204,0788353,,,,,,,2024-10-21,1,,,,,ハルカゼカイゴソウダンシツ,0
1469,6500001025948,新規,0,2024-10-21,2024-10-21,株式会社マイトム,,株式会社,愛媛県,松山市,久米窪田町３９０番地３,,38,201,7911101,,,,,,,2024-10-21,1,,,,,マイトム,0
1475,7010003045200,新規,0,2024-10-21,2024-10-21,ＡＡＪ　Ｆ合同会社,,合同会社,東京都,千代田区,霞が関３丁目２番５号,,13,101,1000013,,,,,,,2024-10-21,1,,,,,エーエージェイエフ,0
1476,7010005038961,新規,0,2024-10-21,2024-10-21,一般社団法人ベンス,,その他の設立登記法人,東京都,千代田区,紀尾井町３番１０号紀尾井町ガーデンタワー２５０４,,13,101,1020094,,,,,,,2024-10-21,1,,,,,ベンス,0
1490,7010405023646,新規,0,2024-10-21,2024-10-21,一般社団法人高性能材料技術・事業化研究所,,その他の設立登記法人,東京都,港区,芝５丁目３６番４号札の辻スクエア９階,,13,103,1080014,,,,,,,2024-10-21,1,,,,,コウセイノウザイリョウギジュツジギョウカケンキュウショ,0
1493,7010501053051,新規,0,2024-10-21,2024-10-21,株式会社エル企画,,株式会社,東京都,台東区,寿４丁目１４番７－４０２号,,13,106,1110042,,,,,,,2024-10-21,1,,,,,エルキカク,0
1498,7010801035492,新規,0,2024-10-21,2024-10-21,株式会社フォルテ,,株式会社,東京都,大田区,蒲田５丁目２８番４号ＥＣＳ第２７ビル３階,,13,111,1440052,,,,,,,2024-10-21,1,,,,,フォルテ,0
1502,7010901056158,新規,0,2024-10-21,2024-10-21,株式会社ゆらりす,,株式会社,東京都,世田谷区,粕谷２丁目２－２０－１０２,,13,112,1570063,,,,,,,2024-10-21,1,,,,,ユラリス,0
1509,7011001165295,新規,0,2024-10-21,2024-10-21,ＢＩＧ　ＭＯＵＴＨ　ＳＴＵＤＩＯＳ株式会社,,株式会社,東京都,渋谷区,広尾５丁目１４番２号,,13,113,1500012,,,,,,,2024-10-21,1,,,,,ビッグマウススタジオ,0
1512,7011103015076,新規,0,2024-10-21,2024-10-21,翔撃企画合同会社,,合同会社,東京都,新宿区,西新宿３丁目３番１３号西新宿水間ビル２Ｆ,,13,104,1600023,,,,,,,2024-10-21,1,,,,,ショウゲキキカク,0
1518,7011303005323,新規,0,2024-10-21,2024-10-21,合同会社ｃｒｕｍ　ｆａｃｔｏｒｙ,,合同会社,東京都,杉並区,和泉２丁目３１－５ガーデニア和泉１０２号室,,13,115,1680063,,,,,,,2024-10-21,1,,,,,クラムファクトリー,0
1525,7012701018503,新規,0,2024-10-21,2024-10-21,株式会社ＮＥＯ,,株式会社,東京都,西東京市,向台町１丁目７番１４号,,13,229,1880013,,,,,,,2024-10-21,1,,,,,ネオ,0
1526,7012801023502,新規,0,2024-10-21,2024-10-21,ニューシードテック株式会社,,株式会社,東京都,国分寺市,西恋ヶ窪３丁目６番地６号東京ビル６Ｂ２０２,,13,214,1850013,,,,,,,2024-10-21,1,,,,,ニューシードテック,0
1527,7012801023510,新規,0,2024-10-21,2024-10-21,株式会社ＵＢＢ,,株式会社,東京都,立川市,曙町２丁目２３番１号フタバソシアルビル５Ａ,,13,202,1900012,,,,,,,2024-10-21,1,,,,,ユービービー,0
1534,7020001159686,新規,0,2024-10-21,2024-10-21,株式会社アザトース,,株式会社,神奈川県,横浜市神奈川区,西寺尾４丁目２５番Ｄ－４０３号,,14,102,2210001,,,,,,,2024-10-21,1,,,,,アザトース,0
1536,7020003027081,新規,0,2024-10-21,2024-10-21,合同会社オーエスプラン,,合同会社,神奈川県,川崎市幸区,新塚越１番地２サウザンドシティ１－４００７,00136698,14,132,2120027,,,,,,,2024-10-21,1,,,,,オーエスプラン,0
1541,7021001083554,新規,0,2024-10-21,2024-10-21,株式会社Ｍｅｄｉｃａｒｅ　Ｆｉｔ,,株式会社,神奈川県,逗子市,逗子４丁目６番３号,,14,208,2490006,,,,,,,2024-10-21,1,,,,,メディケアフィット,0
1556,7030001162994,新規,0,2024-10-21,2024-10-21,株式会社らりぃ,,株式会社,埼玉県,北葛飾郡松伏町,ゆめみ野東２丁目２番地１９,,11,465,3430114,,,,,,,2024-10-21,1,,,,,ラリィ,0
1557,7030001163076,新規,0,2024-10-21,2024-10-21,株式会社谷口商店,,株式会社,埼玉県,北本市,高尾８丁目３３１番地,,11,233,3640034,,,,,,,2024-10-21,1,,,,,タニグチショウテン,0
1565,7040001135875,新規,0,2024-10-21,2024-10-21,株式会社ＳｔｒｕｃｔｕｒｅＷｏｒｋｓ,,株式会社,千葉県,千葉市稲毛区,小仲台９丁目２４番３号,,12,103,2630043,,,,,,,2024-10-21,1,,,,,ストラクチャーワークス,0
1574,7080101025072,新規,0,2024-10-21,2024-10-21,株式会社島田屋建設,,株式会社,静岡県,伊東市,馬場町１丁目１４番１０号,,22,208,4140033,,,,,,,2024-10-21,1,,,,,シマダヤケンセツ,0
1587,7110005017138,新規,0,2024-10-21,2024-10-21,企業組合月影の郷,,その他の設立登記法人,新潟県,上越市,浦川原区横住４１０番地,,15,222,9420322,,,,,,,2024-10-21,1,,,,,ツキカゲノサト,0
1594,7120001269491,新規,0,2024-10-21,2024-10-21,Ｒｅ‐ｉｇｎｉｔｅ株式会社,,株式会社,大阪府,大阪市平野区,長吉出戸８丁目４番１７号,,27,126,5470011,,,,,,,2024-10-21,1,,,,,リイグナイト,0
1595,7120001269517,新規,0,2024-10-21,2024-10-21,株式会社ＭＯＲＥ,,株式会社,大阪府,大阪市中央区,谷町２丁目２番２２号ＮＳビル４階,,27,128,5400012,,,,,,,2024-10-21,1,,,,,モア,0
1602,7120101070411,新規,0,2024-10-21,2024-10-21,株式会社無色透明,,株式会社,大阪府,和泉市,浦田町１４番地の１井阪ビル１階,,27,219,5941103,,,,,,,2024-10-21,1,,,,,ムショクトウメイ,0
1603,7120101070436,新規,0,2024-10-21,2024-10-21,雲裳薔薇株式会社,,株式会社,大阪府,阪南市,貝掛６３番３号シーサイド貝掛Ｂ棟４階４０９,,27,232,5990231,,,,,,,2024-10-21,1,,,,,ウンモバラ,0
1604,7120101070452,新規,0,2024-10-21,2024-10-21,株式会社ライフウェル,,株式会社,大阪府,阪南市,光陽台１丁目２２番１８号,,27,232,5990223,,,,,,,2024-10-21,1,,,,,ライフウェル,0
1605,7120103006090,新規,0,2024-10-21,2024-10-21,ＢＭＦ合同会社,,合同会社,大阪府,富田林市,藤沢台３丁目８－２０シャトードイワネ１０１号,,27,214,5840071,,,,,,,2024-10-21,1,,,,,ビーエムエフ,0
1606,7120103006099,新規,0,2024-10-21,2024-10-21,幸和合同会社,,合同会社,大阪府,堺市中区,平井８６９番地９,,27,142,5998251,,,,,,,2024-10-21,1,,,,,コウワ,0
1611,7122001038554,新規,0,2024-10-21,2024-10-21,株式会社一善不動産,,株式会社,大阪府,東大阪市,長田西２丁目２番１号松田ビル２階,,27,227,5770016,,,,,,,2024-10-21,1,,,,,イチゼンフドウサン,0
1615,7130003009944,新規,0,2024-10-21,2024-10-21,合同会社ビューティフルズ,,合同会社,京都府,京都市西京区,桂上野東町１６４Ｒｅｑｕｉｅ上桂２０３,,26,111,6158003,,,,,,,2024-10-21,1,,,,,ビューティフルズ,0
1620,7140001136112,新規,0,2024-10-21,2024-10-21,Ｂ＆Ｔ株式会社,,株式会社,兵庫県,佐用郡佐用町,西徳久２４３番地１,,28,501,6795214,,,,,,,2024-10-21,1,,,,,ビーアンドティー,0
1624,7140005027241,新規,0,2024-10-21,2024-10-21,一般財団法人ＫＮＣ広瀬財団,,その他の設立登記法人,兵庫県,神戸市中央区,港島南町７丁目１番地の１９,,28,110,6500047,,,,,,,2024-10-21,1,,,,,ケイエヌシーヒロセザイダン,0
1637,7180001163706,新規,0,2024-10-21,2024-10-21,株式会社大野工業,,株式会社,愛知県,知多市,岡田緑が丘１７番地３,,23,224,4780028,,,,,,,2024-10-21,1,,,,,オオノコウギョウ,0
1638,7180001163730,新規,0,2024-10-21,2024-10-21,ティン株式会社,,株式会社,愛知県,名古屋市東区,代官町１０番８号寺尾ビル１Ｆ,,23,102,4610002,,,,,,,2024-10-21,1,,,,,ティン,0
1645,7180003027487,新規,0,2024-10-21,2024-10-21,合同会社ＵＬＴＲＡ　ＧＯＬＤ　ＴＲＡＤＩＮＧＳ,,合同会社,愛知県,名古屋市天白区,元植田３丁目２１４番地ハイツ緑ヶ丘１０７号,,23,116,4680009,,,,,,,2024-10-21,1,,,,,ウルトラゴールドトレイディングス,0
1649,7200001043062,新規,0,2024-10-21,2024-10-21,株式会社Ｚｅｎｉｔｈ,,株式会社,岐阜県,岐阜市,雲竜町８番地１（アモローソ雲竜２０１）,,21,201,5008123,,,,,,,2024-10-21,1,,,,,ゼニス,0
1654,7220001026271,新規,0,2024-10-21,2024-10-21,株式会社まるたく,,株式会社,石川県,能美市,寺井町る６番地１,,17,211,9231121,,,,,,,2024-10-21,1,,,,,マルタク,0
1671,7290003015968,新規,0,2024-10-21,2024-10-21,合同会社ＫＪＮ,,合同会社,福岡県,飯塚市,天道４７３番地２,,40,205,8200075,,,,,,,2024-10-21,1,,,,,ケイジェイエヌ,0
1674,7290803004856,新規,0,2024-10-21,2024-10-21,合同会社ＯＮＥ　ＷＯＲＬＤ,,合同会社,福岡県,北九州市小倉北区,宇佐町２丁目７番１号,,40,106,8020016,,,,,,,2024-10-21,1,,,,,ワンワールド,0
1680,7350003004766,新規,0,2024-10-21,2024-10-21,ウェルビーラック合同会社,,合同会社,宮崎県,宮崎市,吉村町寺ノ前甲２８８２番地１８６,,45,201,8800841,,,,,,,2024-10-21,1,,,,,ウェルビーラック,0
1696,7390001017774,新規,0,2024-10-21,2024-10-21,株式会社リスタート,,株式会社,山形県,酒田市,亀ケ崎６丁目３番２１号,,06,204,9980842,,,,,,,2024-10-21,1,,,,,リスタート,0
1698,7430001092887,新規,0,2024-10-21,2024-10-21,株式会社Ｋ＆Ｎクリエーション,,株式会社,北海道,札幌市中央区,北二条西１４丁目３番地１６パークハウス知事公館前４０２号,,01,101,0600002,,,,,,,2024-10-21,1,,,,,ケイアンドエヌクリエーション,0
1699,7430001092895,新規,0,2024-10-21,2024-10-21,株式会社グリーン,,株式会社,北海道,札幌市白石区,菊水二条３丁目２番１５号,,01,104,0030802,,,,,,,2024-10-21,1,,,,,グリーン,0
1700,7430003016877,新規,0,2024-10-21,2024-10-21,合同会社Ｆｏｏｄ　Ｔｅｃｈ．ＮＫ,,合同会社,北海道,札幌市中央区,北二条西１０丁目１番地６コンフォリア札幌植物園１５０３号,,01,101,0600002,,,,,,,2024-10-21,1,,,,,フードテックエヌケイ,0
1702,7440001009510,新規,0,2024-10-21,2024-10-21,株式会社Ｌｅｉ,,株式会社,北海道,函館市,山の手２丁目３８番１８号,,01,202,0410836,,,,,,,2024-10-21,1,,,,,レイ,0
1707,7490001010892,新規,0,2024-10-21,2024-10-21,しぎんキャピタルパートナーズ株式会社,,株式会社,高知県,高知市,南はりまや町１丁目１番１号,,39,201,7800833,,,,,,,2024-10-21,1,,,,,シギンキャピタルパートナーズ,0
1717,8010003045249,新規,0,2024-10-21,2024-10-21,ＪＴＵ美浦村蓄電合同会社,,合同会社,東京都,千代田区,神田練塀町３番地,,13,101,1010022,,,,,,,2024-10-21,1,,,,,ジェイティーユーミホムラチクデン,0
1719,8010005038969,新規,0,2024-10-21,2024-10-21,ＡＡＪ　Ｆ特定目的会社,,その他の設立登記法人,東京都,千代田区,霞が関３丁目２番５号,,13,101,1000013,,,,,,,2024-10-21,1,,,,,エーエージェイエフ,0
1725,8010401185869,新規,0,2024-10-21,2024-10-21,株式会社クレアリ,,株式会社,東京都,港区,港南４丁目２－７シティタワー品川２１１１,,13,103,1080075,,,,,,,2024-10-21,1,,,,,クレアリ,0
1730,8010501053059,新規,0,2024-10-21,2024-10-21,株式会社ＰＡＬＵＣホールディングス,,株式会社,東京都,台東区,元浅草２丁目６番７号,,13,106,1110041,,,,,,,2024-10-21,1,,,,,パルックホールディングス,0
1735,8010701046705,新規,0,2024-10-21,2024-10-21,株式会社Ｃｒｅｅｋｓｉｄｅ,,株式会社,東京都,品川区,大崎２丁目９番１号,,13,109,1410032,,,,,,,2024-10-21,1,,,,,クリークサイド,0
1736,8010701046713,新規,0,2024-10-21,2024-10-21,株式会社Ｆ．Ｒ．Ｋ．Ｚ　ＪＡＰＡＮ,,株式会社,東京都,品川区,荏原１丁目１７－２－１０３,,13,109,1420063,,,,,,,2024-10-21,1,,,,,,0
1738,8010801035500,新規,0,2024-10-21,2024-10-21,株式会社日本予防医療開発研究所,,株式会社,東京都,大田区,田園調布本町１９番１４号,,13,111,1450072,,,,,,,2024-10-21,1,,,,,ニホンヨボウイリョウカイハツケンキュウジョ,0
1743,8011001165303,新規,0,2024-10-21,2024-10-21,株式会社ＲＣＥ　Ｊａｐａｎ,,株式会社,東京都,渋谷区,初台１丁目５１番１－８１０号,,13,113,1510061,,,,,,,2024-10-21,1,,,,,アールシーイージャパン,0
1744,8011001165311,新規,0,2024-10-21,2024-10-21,株式会社ハウスコーポレーション,,株式会社,東京都,目黒区,柿の木坂１丁目３２番１６号４０３,,13,110,1520022,,,,,,,2024-10-21,1,,,,,ハウスコーポレーション,0
1748,8011101109184,新規,0,2024-10-21,2024-10-21,株式会社テンペラ,,株式会社,東京都,新宿区,新宿４丁目４－１０ビジネスインのむらビルＢ号室,,13,104,1600022,,,,,,,2024-10-21,1,,,,,テンペラ,0
1749,8011201025827,新規,0,2024-10-21,2024-10-21,株式会社アイエスワークス,,株式会社,東京都,中野区,弥生町５丁目２０番１号,,13,114,1640013,,,,,,,2024-10-21,1,,,,,アイエスワークス,0
1758,8011801045019,新規,0,2024-10-21,2024-10-21,株式会社鴻基,,株式会社,東京都,葛飾区,水元２丁目１０－７エリービル１２０８号室,,13,122,1250032,,,,,,,2024-10-21,1,,,,,コウキ,0
1759,8011803006497,新規,0,2024-10-21,2024-10-21,東京緑輝商貿合同会社,,合同会社,東京都,葛飾区,東新小岩７丁目１１－３,,13,122,1240023,,,,,,,2024-10-21,1,,,,,トウキョウリョクキショウボウ,0
1764,8012703003114,新規,0,2024-10-21,2024-10-21,合同会社吉岡薬局,,合同会社,東京都,西東京市,南町１丁目１４－１１,,13,229,1880012,,,,,,,2024-10-21,1,,,,,ヨシオカヤッキョク,0
1766,8012803003534,新規,0,2024-10-21,2024-10-21,ＲＤネットワークス合同会社,,合同会社,東京都,国立市,東１丁目１５番地１１号４４８ビル３階,,13,215,1860002,,,,,,,2024-10-21,1,,,,,アールディーネットワークス,0
1771,8013301053229,新規,0,2024-10-21,2024-10-21,株式会社ＦＬＩＰＣＬＩＰ,,株式会社,東京都,豊島区,池袋２丁目６０番１１号ともビル１Ｆ,,13,116,1710014,,,,,,,2024-10-21,1,,,,,フリップクリップ,0
1776,8020001159636,新規,0,2024-10-21,2024-10-21,ＳＴ株式会社,,株式会社,神奈川県,横浜市鶴見区,下末吉５丁目２１番１４号ＧＡヒルズ下末吉１０２,,14,101,2300012,,,,,,,2024-10-21,1,,,,,エスティー,0
1777,8020001159652,新規,0,2024-10-21,2024-10-21,株式会社思いやり不動産,,株式会社,神奈川県,横浜市南区,大岡２丁目１５番２３号みなとビル２０１号,,14,105,2320061,,,,,,,2024-10-21,1,,,,,オモイヤリフドウサン,0
1778,8020001159685,新規,0,2024-10-21,2024-10-21,株式会社ＰＥＰＥ,,株式会社,神奈川県,横浜市都筑区,牛久保東１丁目２番８号,,14,118,2240014,,,,,,,2024-10-21,1,,,,,ペペ,0
1789,8021001083545,新規,0,2024-10-21,2024-10-21,株式会社ミライ建築,,株式会社,神奈川県,秦野市,北矢名２９０番地の１ガーデンハウス秦野Ｃ－４,,14,211,2570006,,,,,,,2024-10-21,1,,,,,ミライケンチク,0
1790,8021003015133,新規,0,2024-10-21,2024-10-21,合同会社チェゴヤ,,合同会社,神奈川県,横須賀市,本町２丁目１番地１２,,14,201,2380041,,,,,,,2024-10-21,1,,,,,チェゴヤ,0
1792,8021005013201,新規,0,2024-10-21,2024-10-21,特定非営利活動法人パパラギ住まいのサポートセンター,,その他の設立登記法人,神奈川県,藤沢市,鵠沼石上１丁目３番６号,,14,205,2510025,,,,,,,2024-10-21,1,,,,,パパラギスマイノサポートセンター,0
1804,8040001135866,新規,0,2024-10-21,2024-10-21,株式会社翠嵐社,,株式会社,千葉県,千葉市美浜区,打瀬３丁目５番地マリンフォート２－１３０３号,,12,106,2610013,,,,,,,2024-10-21,1,,,,,スイランシャ,0
1809,8060001037581,新規,0,2024-10-21,2024-10-21,新日金ホールディングス株式会社,,株式会社,栃木県,佐野市,栄町１番地４,,09,204,3270816,,,,,,,2024-10-21,1,,,,,シンニッキンホールディングス,0
1810,8060001037598,新規,0,2024-10-21,2024-10-21,栃の木産業株式会社,,株式会社,栃木県,小山市,大字羽川５０１番地２３,,09,208,3230012,,,,,,,2024-10-21,1,,,,,トチノキサンギョウ,0
1818,8100003007818,新規,0,2024-10-21,2024-10-21,長楽合同会社,,合同会社,長野県,茅野市,本町東８番６号１Ｆ西側,,20,214,3910003,,,,,,,2024-10-21,1,,,,,チョウラク,0
1822,8110001038780,新規,0,2024-10-21,2024-10-21,株式会社ＺＯＯ,,株式会社,新潟県,新発田市,蔵光２９３７番地,,15,206,9592521,,,,,,,2024-10-21,1,,,,,ズー,0
1830,8120001269235,新規,0,2024-10-21,2024-10-21,株式会社ＲＥＡ,,株式会社,大阪府,大阪市北区,茶屋町４番４号ガーデンビル３Ｆ,,27,127,5300013,,,,,,,2024-10-21,1,,,,,リア,0
1831,8120001269499,新規,0,2024-10-21,2024-10-21,株式会社ＷＩＬＬ,,株式会社,大阪府,大阪市城東区,諏訪４丁目１４－２１,,27,118,5360021,,,,,,,2024-10-21,1,,,,,ウィル,0
1832,8120001269508,新規,0,2024-10-21,2024-10-21,株式会社Ｚｅｍｂｅｔ,,株式会社,大阪府,大阪市北区,曾根崎２丁目８番５号お初天神ＥＡＳＴＢＬＤＧ３Ｆ,,27,127,5300057,,,,,,,2024-10-21,1,,,,,ゼンベット,0
1833,8120001269524,新規,0,2024-10-21,2024-10-21,株式会社ぼっち,,株式会社,大阪府,大阪市平野区,平野宮町１丁目６番２号,,27,126,5470046,,,,,,,2024-10-21,1,,,,,ボッチ,0
1836,8120003027780,新規,0,2024-10-21,2024-10-21,アカガシ合同会社,,合同会社,大阪府,大阪市北区,梅田１丁目２番２号大阪駅前第２ビル１２－１２,,27,127,5300001,,,,,,,2024-10-21,1,,,,,アカガシ,0
1837,8120005024586,新規,0,2024-10-21,2024-10-21,ネクサス社会保険労務士法人,,その他の設立登記法人,大阪府,大阪市西区,立売堀１丁目４－１２立売堀スクエア８階,,27,106,5500012,,,,,,,2024-10-21,1,,,,,ネクサス,0
1840,8120101070419,新規,0,2024-10-21,2024-10-21,株式会社ワンプラスワン,,株式会社,大阪府,泉北郡忠岡町,高月南１丁目１１番６号２Ｆ,,27,341,5950802,,,,,,,2024-10-21,1,,,,,ワンプラスワン,0
1841,8120101070443,新規,0,2024-10-21,2024-10-21,株式会社デッキワン,,株式会社,大阪府,岸和田市,山直中町１８０番地の１,,27,202,5960102,,,,,,,2024-10-21,1,,,,,デッキワン,0
1842,8120103006098,新規,0,2024-10-21,2024-10-21,Ｓｏｕｔｈ　Ｈｏｕｓｅ合同会社,,合同会社,大阪府,岸和田市,本町３番８号,,27,202,5960074,,,,,,,2024-10-21,1,,,,,サウスハウス,0
1850,8130001078180,新規,0,2024-10-21,2024-10-21,ゼットアイエンジニアリング株式会社,,株式会社,京都府,京都市中京区,西ノ京上平町１８,,26,104,6048494,,,,,,,2024-10-21,1,,,,,ゼットアイエンジニアリング,0
1862,8140005027240,新規,0,2024-10-21,2024-10-21,一般社団法人イノセンス,,その他の設立登記法人,兵庫県,加古川市,尾上町養田６４８番地の１,,28,210,6750025,,,,,,,2024-10-21,1,,,,,イノセンス,0
1863,8160001026293,新規,0,2024-10-21,2024-10-21,Ｅａｔ’ｓ　Ｌａｂ株式会社,,株式会社,滋賀県,草津市,青地町９３３番地１,,25,206,5250041,,,,,,,2024-10-21,1,,,,,イーツラボ,0
1868,8180001163606,新規,0,2024-10-21,2024-10-21,ＢＳＯＧ株式会社,,株式会社,愛知県,名古屋市港区,木場町６番地の３３,,23,111,4550021,,,,,,,2024-10-21,1,,,,,ビーエスオージー,0
1869,8180001163754,新規,0,2024-10-21,2024-10-21,株式会社愛知不動産売却センター,,株式会社,愛知県,名古屋市東区,東桜２丁目１２番２５号メゾン森７０３号,,23,102,4610005,,,,,,,2024-10-21,1,,,,,アイチフドウサンバイキャクセンター,0
1875,8180301039142,新規,0,2024-10-21,2024-10-21,株式会社ＬＨＬ,,株式会社,愛知県,豊川市,蔵子４丁目６番地１７,,23,207,4420842,,,,,,,2024-10-21,1,,,,,エルエイチエル,0
1876,8180301039159,新規,0,2024-10-21,2024-10-21,ＪＰトレーディング株式会社,,株式会社,愛知県,安城市,安城町秋葉西５４－８恵美秋葉荘,,23,212,4460026,,,,,,,2024-10-21,1,,,,,ジェイピートレーディング,0
1877,8180303006314,新規,0,2024-10-21,2024-10-21,ａｎｄ合同会社,,合同会社,愛知県,西尾市,天竹町池田６１,,23,213,4450051,,,,,,,2024-10-21,1,,,,,アンド,0
1886,8220001026279,新規,0,2024-10-21,2024-10-21,コーケンホールディングス株式会社,,株式会社,石川県,金沢市,割出町７０１番地１,,17,201,9200062,,,,,,,2024-10-21,1,,,,,コーケンホールディングス,0
1888,8230001020578,新規,0,2024-10-21,2024-10-21,株式会社キヨシ電工,,株式会社,富山県,富山市,婦中町田島９３０番地３４,,16,201,9392702,,,,,,,2024-10-21,1,,,,,キヨシデンコウ,0
1893,8240003006905,新規,0,2024-10-21,2024-10-21,合同会社ＣＨＳ,,合同会社,広島県,広島市安佐北区,安佐町大字くすの木台２４番地１４,,34,106,7313363,,,,,,,2024-10-21,1,,,,,シーエイチエス,0
1894,8250001020857,新規,0,2024-10-21,2024-10-21,株式会社ＮＥＸＴ,,株式会社,山口県,下関市,山の田東町１１番１３号,,35,201,7510834,,,,,,,2024-10-21,1,,,,,ネクスト,0
1897,8260003004931,新規,0,2024-10-21,2024-10-21,合同会社ＴＡＥＭＩ,,合同会社,岡山県,岡山市北区,辰巳４０番地１０３,,33,101,7000976,,,,,,,2024-10-21,1,,,,,タエミ,0
1903,8290001107675,新規,0,2024-10-21,2024-10-21,株式会社ＬＧＳ,,株式会社,福岡県,福岡市東区,西戸崎６丁目５番１３号,,40,131,8110321,,,,,,,2024-10-21,1,,,,,エルジーエス,0
1904,8290001107691,新規,0,2024-10-21,2024-10-21,株式会社アークステック,,株式会社,福岡県,太宰府市,通古賀１丁目６番２４－３０２号,,40,221,8180104,,,,,,,2024-10-21,1,,,,,アークステック,0
1907,8290003015967,新規,0,2024-10-21,2024-10-21,合同会社ＡＳＡＨＩ,,合同会社,福岡県,福岡市西区,壱岐団地１番６０２号,,40,135,8190042,,,,,,,2024-10-21,1,,,,,アサヒ,0
1909,8290005019512,新規,0,2024-10-21,2024-10-21,ＮＰＯ法人国際文化交流センター,,その他の設立登記法人,福岡県,大川市,大字酒見８０番地１,,40,212,8310016,,,,,,,2024-10-21,1,,,,,コクサイブンカコウリュウセンター,0
1910,8320001020775,新規,0,2024-10-21,2024-10-21,株式会社うおかね,,株式会社,大分県,大分市,豊海３丁目２番１号,,44,201,8700018,,,,,,,2024-10-21,1,,,,,ウオカネ,0
1918,8330003010609,新規,0,2024-10-21,2024-10-21,合同会社トロクホームズ,,合同会社,熊本県,熊本市中央区,渡鹿７丁目６番２４号,,43,101,8620970,,,,,,,2024-10-21,1,,,,,トロクホームズ,0
1925,8350003004765,新規,0,2024-10-21,2024-10-21,ドローンサービス合同会社,,合同会社,宮崎県,宮崎市,大塚町竹下５２０番地２５,,45,201,8800951,,,,,,,2024-10-21,1,,,,,ドローンサービス,0
1926,8360001034342,新規,0,2024-10-21,2024-10-21,ワイズプランニング株式会社,,株式会社,沖縄県,中頭郡中城村,字南上原５７７番地・２８街区５画地,,47,328,9012424,,,,,,,2024-10-21,1,,,,,ワイズプランニング,0
1930,8360003014383,新規,0,2024-10-21,2024-10-21,合同会社ＬｉｆｅＨｕｂ,,合同会社,沖縄県,那覇市,三原２丁目２－３１,,47,201,9020063,,,,,,,2024-10-21,1,,,,,ライフハブ,0
1931,8360003014391,新規,0,2024-10-21,2024-10-21,成郷おきなわ合同会社,,合同会社,沖縄県,国頭郡東村,字有銘１１１５－３２－１２,,47,303,9051206,,,,,,,2024-10-21,1,,,,,セイキョウオキナワ,0
1932,8360005007113,新規,0,2024-10-21,2024-10-21,医療法人豊睦会,,その他の設立登記法人,沖縄県,豊見城市,字長堂３７５番地６,,47,212,9010203,,,,,,,2024-10-21,1,,,,,トヨムカイ,0
1934,8370001051832,新規,0,2024-10-21,2024-10-21,スパイラルアップ株式会社,,株式会社,宮城県,東松島市,矢本字町浦１９８番地１,,04,214,9810503,,,,,,,2024-10-21,1,,,,,スパイラルアップ,0
1935,8370001051840,新規,0,2024-10-21,2024-10-21,株式会社Ａ　ｕｎｉｔｙ,,株式会社,宮城県,仙台市青葉区,木町通１丁目８番２８－２０１号,,04,101,9800801,,,,,,,2024-10-21,1,,,,,エースユニティ,0
1943,8390001017773,新規,0,2024-10-21,2024-10-21,株式会社ＢＲＩＧＧＳ,,株式会社,山形県,東田川郡庄内町,余目字土堤下２１番地１,,06,428,9997781,,,,,,,2024-10-21,1,,,,,ブリッグス,0
1945,8400001016831,新規,0,2024-10-21,2024-10-21,ＭＯＳＴ８株式会社,,株式会社,岩手県,奥州市,水沢字小石田１１４番地クレセールＳＵＧＡ、Ｓ棟２０２号室,,03,215,0230062,,,,,,,2024-10-21,1,,,,,モストエイト,0
1947,8400003003340,新規,0,2024-10-21,2024-10-21,合同会社もみの木,,合同会社,岩手県,盛岡市,桜台２丁目２１番２０号,,03,201,0200002,,,,,,,2024-10-21,1,,,,,モミノキ,0
1948,8420001018900,新規,0,2024-10-21,2024-10-21,株式会社マルフジ商会,,株式会社,青森県,三戸郡南部町,大字沖田面字土城後２５番地１,,02,445,0390105,,,,,,,2024-10-21,1,,,,,マルフジショウカイ,0
1951,8430001092853,新規,0,2024-10-21,2024-10-21,豆屋株式会社,,株式会社,北海道,札幌市西区,発寒六条１１丁目１番３９号,,01,107,0630826,,,,,,,2024-10-21,1,,,,,マメヤ,0
1952,8430001092894,新規,0,2024-10-21,2024-10-21,株式会社札幌ライフサード,,株式会社,北海道,札幌市西区,八軒一条西３丁目１番６３号,,01,107,0630841,,,,,,,2024-10-21,1,,,,,サッポロライフサード,0
1953,8430001092903,新規,0,2024-10-21,2024-10-21,株式会社ＨＡＮＡＵＴＡ,,株式会社,北海道,札幌市東区,北三十九条東１６丁目１番９号,,01,103,0070839,,,,,,,2024-10-21,1,,,,,ハナウタ,0
1955,8430003016892,新規,0,2024-10-21,2024-10-21,合同会社栄創,,合同会社,北海道,小樽市,祝津２丁目２９８番地１３,,01,203,0470047,,,,,,,2024-10-21,1,,,,,エイソウ,0
1965,8490003001947,新規,0,2024-10-21,2024-10-21,Ａｒｒｏｚ　Ｊａｐａｎ合同会社,,合同会社,高知県,香南市,野市町西野４２番地１,,39,211,7815232,,,,,,,2024-10-21,1,,,,,,0
1967,8500001025946,新規,0,2024-10-21,2024-10-21,株式会社ステライチヨン,,株式会社,愛媛県,喜多郡内子町,城廻６９１番地,,38,422,7913310,,,,,,,2024-10-21,1,,,,,ステライチヨン,0
1980,9010103002438,新規,0,2024-10-21,2024-10-21,合同会社寄り添う介護なごみ,,合同会社,東京都,八王子市,石川町３３１番地４,,13,201,1920032,,,,,,,2024-10-21,1,,,,,ヨリソウカイゴナゴミ,0
1987,9010401185843,新規,0,2024-10-21,2024-10-21,株式会社ＭＳＹ,,株式会社,東京都,港区,西麻布４丁目１７－２２アビターレ西麻布４０１号,,13,103,1060031,,,,,,,2024-10-21,1,,,,,エムエスワイ,0
1988,9010401185868,新規,0,2024-10-21,2024-10-21,メンタルヘルスラボの訪問看護横浜株式会社,,株式会社,東京都,港区,北青山２丁目７番１３号プラセオ青山ビル３階,,13,103,1070061,,,,,,,2024-10-21,1,,,,,メンタルヘルスラボノホウモンカンゴヨコハマ,0
1993,9010403033637,新規,0,2024-10-21,2024-10-21,フタコ合同会社,,合同会社,東京都,港区,三田４丁目１９番２５－３１７号,,13,103,1080073,,,,,,,2024-10-21,1,,,,,フタコ,0
2007,9011001165302,新規,0,2024-10-21,2024-10-21,株式会社アイコーポレーション,,株式会社,東京都,渋谷区,元代々木町３－１３－２Ｆ,,13,113,1510062,,,,,,,2024-10-21,1,,,,,アイコーポレーション,0
2008,9011001165310,新規,0,2024-10-21,2024-10-21,株式会社Ｌｙｎｘ　ｔｉｐｓ,,株式会社,東京都,渋谷区,桜丘町１７番１２号渋谷ジョンソンビル４０１,,13,113,1500031,,,,,,,2024-10-21,1,,,,,リンクスティップ,0
2020,9011201025875,新規,0,2024-10-21,2024-10-21,株式会社Ｍａａ,,株式会社,東京都,中野区,中野５丁目６７番７号プラザ中野８０１,,13,114,1640001,,,,,,,2024-10-21,1,,,,,マー,0
2021,9011301030098,新規,0,2024-10-21,2024-10-21,株式会社くぐり,,株式会社,東京都,杉並区,松庵２丁目１９番２１号,,13,115,1670054,,,,,,,2024-10-21,1,,,,,クグリ,0
2024,9011401026401,新規,0,2024-10-21,2024-10-21,株式会社ＱＵＥＥＮ　ＦＵＭＩＥ,,株式会社,東京都,板橋区,前野町２丁目６番１３号アーバンライフ前野町３Ｆ,,13,119,1740063,,,,,,,2024-10-21,1,,,,,クイーンフミエ,0
2028,9011501031284,新規,0,2024-10-21,2024-10-21,株式会社ターンアラウンド・マネジメント・パートナーズ,,株式会社,東京都,北区,上中里１丁目７番８号,,13,117,1140016,,,,,,,2024-10-21,1,,,,,ターンアラウンドマネジメントパートナーズ,0
2030,9011703004014,新規,0,2024-10-21,2024-10-21,Ｒｕｂｙ　Ｓｔｕｄｉｏ合同会社,,合同会社,東京都,江戸川区,西小岩２丁目１９－１３,,13,123,1330057,,,,,,,2024-10-21,1,,,,,ルビースタジオ,0
2034,9011801044993,新規,0,2024-10-21,2024-10-21,イーバリューパートナース株式会社,,株式会社,東京都,葛飾区,東四つ木４丁目２０番３号,,13,122,1240014,,,,,,,2024-10-21,1,,,,,イーバリューパートナース,0
2036,9011805003401,新規,0,2024-10-21,2024-10-21,一般社団法人マルチ・ブラスト協会,,その他の設立登記法人,東京都,葛飾区,奥戸１丁目１７番９号,,13,122,1240022,,,,,,,2024-10-21,1,,,,,マルチブラストキョウカイ,0
2039,9012401042396,新規,0,2024-10-21,2024-10-21,株式会社Ｍ‐ｗｉｎ,,株式会社,東京都,多摩市,関戸６丁目１０番地の１０エステ・スクエア多摩永山６０２,,13,224,2060011,,,,,,,2024-10-21,1,,,,,エムウィン,0
2040,9012401042405,新規,0,2024-10-21,2024-10-21,株式会社アラミス,,株式会社,東京都,調布市,多摩川１丁目４７番１号ライオンズガーデン調布第２－２１３,,13,208,1820025,,,,,,,2024-10-21,1,,,,,アラミス,0
2047,9013103001376,新規,0,2024-10-21,2024-10-21,エント合同会社,,合同会社,東京都,青梅市,今寺４丁目２３番５号,,13,205,1980021,,,,,,,2024-10-21,1,,,,,エント,0
2054,9020001159619,新規,0,2024-10-21,2024-10-21,株式会社ジオプライム,,株式会社,神奈川県,横浜市鶴見区,上の宮１丁目１番２６－１号,,14,101,2300075,,,,,,,2024-10-21,1,,,,,ジオプライム,0
2055,9020001159701,新規,0,2024-10-21,2024-10-21,株式会社ＳＣ,,株式会社,神奈川県,横浜市西区,北幸２丁目１０番４８号３Ｆ,,14,103,2200004,,,,,,,2024-10-21,1,,,,,エスシー,0
2056,9020001159726,新規,0,2024-10-21,2024-10-21,株式会社ビジネス支援協会,,株式会社,神奈川県,川崎市宮前区,宮前平１丁目１０－１２桔梗ビル３０２,,14,136,2160006,,,,,,,2024-10-21,1,,,,,ビジネスシエンキョウカイ,0
2060,9020003027088,新規,0,2024-10-21,2024-10-21,ココペリ合同会社,,合同会社,神奈川県,横浜市金沢区,富岡西５丁目１８番１２号,,14,108,2360052,,,,,,,2024-10-21,1,,,,,ココペリ,0
2062,9021001083536,新規,0,2024-10-21,2024-10-21,株式会社和,,株式会社,神奈川県,藤沢市,高倉７９９番地２,,14,205,2520802,,,,,,,2024-10-21,1,,,,,カズ,0
2063,9021001083544,新規,0,2024-10-21,2024-10-21,株式会社Ｌａ　Ｆａｍｉｌｌｅ　Ｋａｎｅｄａ,,株式会社,神奈川県,鎌倉市,稲村ガ崎１丁目１５番２８号,,14,204,2480024,,,,,,,2024-10-21,1,,,,,ラファミーユカネダ,0
2068,9021003015124,新規,0,2024-10-21,2024-10-21,合同会社ＴＫ,,合同会社,神奈川県,横須賀市,深田台８２番地コーポめだか６号室,,14,201,2380016,,,,,,,2024-10-21,1,,,,,ティーケー,0
2088,9060001037589,新規,0,2024-10-21,2024-10-21,株式会社チャーミー,,株式会社,栃木県,宇都宮市,御幸ケ原町１３９番地７３,,09,201,3210982,,,,,,,2024-10-21,1,,,,,チャーミー,0
2091,9070001042282,新規,0,2024-10-21,2024-10-21,株式会社ＦＫＳホールディングス,,株式会社,群馬県,太田市,龍舞町５６９７番地,,10,205,3730806,,,,,,,2024-10-21,1,,,,,エフケイエスホールディングス,0
2097,9080401027460,新規,0,2024-10-21,2024-10-21,株式会社ＦＩＲＳＴ　Ｍａｎａｇｅｍｅｎｔ　Ｈｏｌｄｉｎｇｓ,,株式会社,静岡県,浜松市中央区,流通元町１６番２号,,22,138,4350007,,,,,,,2024-10-21,1,,,,,ファーストマネジメントホールディングス,0
2098,9080401027519,新規,0,2024-10-21,2024-10-21,株式会社ひ・く・ま,,株式会社,静岡県,浜松市中央区,曳馬４丁目２０番１０号,,22,138,4300901,,,,,,,2024-10-21,1,,,,,ヒクマ,0
2100,9080403005126,新規,0,2024-10-21,2024-10-21,Ｙ＆Ｍテクニカルコンサルタント合同会社,,合同会社,静岡県,浜松市浜名区,寺島１９５１番地の２,,22,139,4340035,,,,,,,2024-10-21,1,,,,,ワイアンパサンドエムテクニカルコンサルタント,0
2127,9120001269473,新規,0,2024-10-21,2024-10-21,株式会社オルムアート,,株式会社,大阪府,大阪市北区,中之島５丁目３－６８,,27,127,5300005,,,,,,,2024-10-21,1,,,,,オルムアート,0
2128,9120001269481,新規,0,2024-10-21,2024-10-21,株式会社Ｉ　ｆａｃｔｏｒｙ,,株式会社,大阪府,大阪市西区,南堀江１丁目２１番９号南堀江ビル２階,,27,106,5500015,,,,,,,2024-10-21,1,,,,,アイファクトリー,0
2129,9120001269507,新規,0,2024-10-21,2024-10-21,株式会社ラッキーピース,,株式会社,大阪府,大阪市中央区,島之内２丁目５番２６号ラヴェール島之内９０２号,,27,128,5420082,,,,,,,2024-10-21,1,,,,,ラッキーピース,0
2130,9120001269515,新規,0,2024-10-21,2024-10-21,株式会社ＭＴＫ,,株式会社,大阪府,大阪市中央区,南船場１丁目５番２１号,,27,128,5420081,,,,,,,2024-10-21,1,,,,,エムティーケー,0
2131,9120001269523,新規,0,2024-10-21,2024-10-21,株式会社ＹＡＭＡＴＯ,,株式会社,大阪府,大阪市都島区,東野田町１丁目１１番６号堀マンション４Ａ,,27,102,5340024,,,,,,,2024-10-21,1,,,,,ヤマト,0
2133,9120003027755,新規,0,2024-10-21,2024-10-21,合同会社Ｋｉｎｇｙｏ　Ｆｉｌｍｓ,,合同会社,大阪府,大阪市北区,天神橋７丁目１６－１－１３１０,,27,127,5310041,,,,,,,2024-10-21,1,,,,,キンギョフィルムス,0
2134,9120003027788,新規,0,2024-10-21,2024-10-21,ＡＩＭ合同会社,,合同会社,大阪府,大阪市淀川区,西中島３丁目１３番８号北中ビル１Ｆ,,27,123,5320011,,,,,,,2024-10-21,1,,,,,エイム,0
2135,9120005024585,新規,0,2024-10-21,2024-10-21,一般社団法人ベストリビング協会,,その他の設立登記法人,大阪府,大阪市阿倍野区,西田辺町１丁目１２番８号,,27,119,5450014,,,,,,,2024-10-21,1,,,,,ベストリビングキョウカイ,0
2148,9130003009942,新規,0,2024-10-21,2024-10-21,ＣＨＡＵＤＨＲＹ　ＴＲＡＤＩＮＧ合同会社,,合同会社,京都府,京都市伏見区,西尼崎町９００番地グランヴィラ桃山３１６号室,,26,109,6128358,,,,,,,2024-10-21,1,,,,,チャウドリートレーディング,0
2153,9140001136143,新規,0,2024-10-21,2024-10-21,株式会社Ｒｅｗｉｎｄ,,株式会社,兵庫県,川西市,けやき坂２丁目５３番地の９,,28,217,6660145,,,,,,,2024-10-21,1,,,,,リワインド,0
2154,9140001136168,新規,0,2024-10-21,2024-10-21,株式会社マイエンジン,,株式会社,兵庫県,西宮市,大森町１３番４０号,,28,204,6638023,,,,,,,2024-10-21,1,,,,,マイエンジン,0
2157,9140003021211,新規,0,2024-10-21,2024-10-21,ＥＬ　Ｋａｌａｎｃｈｏｅ合同会社,,合同会社,兵庫県,神戸市中央区,磯辺通１丁目１番１８号カサベラ国際プラザビル７０７,,28,110,6510084,,,,,,,2024-10-21,1,,,,,エルカランコエ,0
2172,9180001163662,新規,0,2024-10-21,2024-10-21,株式会社中部トラック販売,,株式会社,愛知県,弥富市,鮫ケ地３丁目５番地２,,23,235,4901415,,,,,,,2024-10-21,1,,,,,チュウブトラックハンバイ,0
2173,9180001163679,新規,0,2024-10-21,2024-10-21,株式会社マドノ,,株式会社,愛知県,東海市,富木島町船島１０８番地,,23,222,4760011,,,,,,,2024-10-21,1,,,,,マドノ,0
2174,9180001163687,新規,0,2024-10-21,2024-10-21,株式会社ＭＩＮＫＲＯ,,株式会社,愛知県,一宮市,佐千原字郷前３２番地１,,23,203,4910124,,,,,,,2024-10-21,1,,,,,ミンクロ,0
2175,9180001163712,新規,0,2024-10-21,2024-10-21,株式会社シラカワデザインルーム,,株式会社,愛知県,名古屋市中区,栄１丁目１４番２０号東海御園ハイツ７０４,,23,106,4600008,,,,,,,2024-10-21,1,,,,,シラカワデザインルーム,0
2176,9180001163729,新規,0,2024-10-21,2024-10-21,株式会社水野ビルヂング,,株式会社,愛知県,名古屋市中区,大須３丁目１３番３８号,,23,106,4600011,,,,,,,2024-10-21,1,,,,,ミズノビルヂング,0
2177,9180001163786,新規,0,2024-10-21,2024-10-21,株式会社ＳＫライン,,株式会社,愛知県,春日井市,味美町３丁目１５６番地１,,23,206,4860968,,,,,,,2024-10-21,1,,,,,エスケイライン,0
2178,9180001163811,新規,0,2024-10-21,2024-10-21,株式会社智徳クリエイト,,株式会社,愛知県,犬山市,大字羽黒字川西１３番地,,23,215,4840894,,,,,,,2024-10-21,1,,,,,チトククリエイト,0
2188,9200001043060,新規,0,2024-10-21,2024-10-21,株式会社Ｒｉｔｏ,,株式会社,岐阜県,羽島市,舟橋町出須賀２丁目５３番地５,,21,209,5016304,,,,,,,2024-10-21,1,,,,,リト,0
2194,9230001020577,新規,0,2024-10-21,2024-10-21,株式会社北陸ケアサポート,,株式会社,富山県,滑川市,菰原６５番地１,,16,206,9360066,,,,,,,2024-10-21,1,,,,,ホクリクケアサポート,0
2197,9260001039557,新規,0,2024-10-21,2024-10-21,株式会社宗和建設,,株式会社,岡山県,倉敷市,新田３１８７－１３,,33,202,7100038,,,,,,,2024-10-21,1,,,,,ソウワケンセツ,0
2206,9290005019536,新規,0,2024-10-21,2024-10-21,一般社団法人臨牀と研究,,その他の設立登記法人,福岡県,福岡市博多区,山王２丁目３番５号,,40,132,8120015,,,,,,,2024-10-21,1,,,,,リンショウトケンキュウ,0
2212,9320001020774,新規,0,2024-10-21,2024-10-21,株式会社ジャパロニア大分ファクトリー,,株式会社,大分県,大分市,東津留１丁目５番１号ユナイテッド東津留２階,,44,201,8700934,,,,,,,2024-10-21,1,,,,,ジャパロニアオオイタファクトリー,0
2221,9360001034341,新規,0,2024-10-21,2024-10-21,株式会社ｃｏｌｏｒｓ,,株式会社,沖縄県,石垣市,字新川２１３６－２３,,47,207,9070024,,,,,,,2024-10-21,1,,,,,カラーズ,0
2222,9360003014408,新規,0,2024-10-21,2024-10-21,合同会社グリーンライフ,,合同会社,沖縄県,宮古島市,平良字下里２４４番地１棟２０１,,47,214,9060013,,,,,,,2024-10-21,1,,,,,グリーンライフ,0
2237,9420001018899,新規,0,2024-10-21,2024-10-21,株式会社ＢｒｉＪｏｙ,,株式会社,青森県,青森市,浜田１丁目１２番地１２,,02,201,0300843,,,,,,,2024-10-21,1,,,,,ブリジョイ,0
2242,9430001092885,新規,0,2024-10-21,2024-10-21,ＫＵＭＵＮＡ株式会社,,株式会社,北海道,札幌市中央区,南十八条西１４丁目１番３６号スターゲート伏見旭堂第８Ｂ棟１号,,01,101,0640918,,,,,,,2024-10-21,1,,,,,クムナ,0
2243,9430001092893,新規,0,2024-10-21,2024-10-21,株式会社Ｔサービス,,株式会社,北海道,札幌市中央区,南十一条西７丁目２－２１,,01,101,0640811,,,,,,,2024-10-21,1,,,,,ティーサービス,0
2250,9490001010890,新規,0,2024-10-21,2024-10-21,株式会社スボーラ,,株式会社,高知県,高知市,追手筋１丁目８番１号グリーンパークビル４階西,,39,201,7800842,,,,,,,2024-10-21,1,,,,,スボーラ,0
