sequenceNumber,corporateNumber,process,correct,updateDate,changeDate,name,nameImageId,kind,prefectureName,cityName,streetNumber,addressImageId,prefectureCode,cityCode,postCode,addressOutside,addressOutsideImageId,closeDate,closeCause,successorCorporateNumber,changeCause,assignmentDate,latest,enName,enPrefectureName,enCityName,enAddressOutside,furigana,hihyoji
6,1010001251284,新規,0,2025-01-23,2025-01-23,凱善生物科技株式会社,,株式会社,東京都,中央区,日本橋堀留町１丁目９番１０号日本橋ライフサイエンスビルディング７＿６階Ｃ－９室,,13,102,1030012,,,,,,,2025-01-23,1,,,,,カイゼンセイブツカギ,0
7,1010001251623,新規,0,2025-01-23,2025-01-23,株式会社ＬａｎｄＶａｌｕｅＣｒｅａｔｉｏｎ,,株式会社,東京都,中央区,銀座１丁目１２番４号Ｎ＆ＥＢＬＤ．６Ｆ,,13,102,1040061,,,,,,,2025-01-23,1,,,,,ランドバリュークリエイション,0
8,1010003046138,新規,0,2025-01-23,2025-01-23,ＲＡＩＫＡ合同会社,,合同会社,東京都,中央区,銀座１丁目１２番４号Ｎ＆ＥＢＬＤ．６Ｆ,,13,102,1040061,,,,,,,2025-01-23,1,,,,,ライカ,0
9,1010005039445,新規,0,2025-01-23,2025-01-23,ＨＢＳエナジー２号ホールディングス一般社団法人,,その他の設立登記法人,東京都,千代田区,紀尾井町４番１号ニューオータニガーデンコート１９階フィンポート税理士法人内,,13,101,1020094,,,,,,,2025-01-23,1,,,,,エイチビーエスエナジーニゴウホールディングス,0
21,1010901056642,新規,0,2025-01-23,2025-01-23,株式会社ｉｂａｓｈｏ,,株式会社,東京都,世田谷区,南烏山６丁目５番１１号明光ビル新館１０２,,13,112,1570062,,,,,,,2025-01-23,1,,,,,イバショ,0
22,1010901056683,新規,0,2025-01-23,2025-01-23,株式会社ＴＲＡＮＱＵＩＬＩＴＹ,,株式会社,東京都,世田谷区,三軒茶屋２丁目２１番２号メゾン・ヴァンベール１０１,,13,112,1540024,,,,,,,2025-01-23,1,,,,,トランクイリティ,0
26,1010905004721,新規,0,2025-01-23,2025-01-23,一般社団法人インターユニオン,,その他の設立登記法人,東京都,世田谷区,上馬４丁目３２番１４号,,13,112,1540011,,,,,,,2025-01-23,1,,,,,インターユニオン,0
31,1011001166877,新規,0,2025-01-23,2025-01-23,ＪＡＣＫ　ｃｏｒｐｏｒａｔｉｏｎ株式会社,,株式会社,東京都,渋谷区,代々木５丁目１７番１－１３０１号,,13,113,1510053,,,,,,,2025-01-23,1,,,,,ジャックコーポレーション,0
32,1011001167322,新規,0,2025-01-23,2025-01-23,アップネクスト株式会社,,株式会社,東京都,渋谷区,松濤２丁目１４番１号,,13,113,1500046,,,,,,,2025-01-23,1,,,,,アップネクスト,0
33,1011001167339,新規,0,2025-01-23,2025-01-23,ＴｅｍｐｅｓｔＡＩ株式会社,,株式会社,東京都,渋谷区,宇田川町１４－１３宇田川町ビルディング３階,,13,113,1500042,,,,,,,2025-01-23,1,,,,,テンペストエーアイ,0
40,1011301030312,新規,0,2025-01-23,2025-01-23,株式会社ＶＩＴＡＬＵＸ,,株式会社,東京都,杉並区,荻窪４丁目３２番８号パインマンション荻窪１０２,,13,115,1670051,,,,,,,2025-01-23,1,,,,,ヴィータルクス,0
42,1011801045470,新規,0,2025-01-23,2025-01-23,遊集株式会社,,株式会社,東京都,足立区,西伊興３丁目１８－１４－１０６号室,,13,121,1210824,,,,,,,2025-01-23,1,,,,,ユウシュウ,0
43,1012401042692,新規,0,2025-01-23,2025-01-23,株式会社ＪＴＯ,,株式会社,東京都,小金井市,前原町３丁目２９－１７内藤順一,,13,210,1840013,,,,,,,2025-01-23,1,,,,,ジェイティオー,0
45,1012703003178,新規,0,2025-01-23,2025-01-23,合同会社Ｎ‐３,,合同会社,東京都,東久留米市,南沢４丁目１１番２号,,13,222,2030023,,,,,,,2025-01-23,1,,,,,エヌスリー,0
46,1012801023714,新規,0,2025-01-23,2025-01-23,エムズサン株式会社,,株式会社,東京都,立川市,錦町５丁目５番３号,,13,202,1900022,,,,,,,2025-01-23,1,,,,,エムズサン,0
181,1020001160955,新規,0,2025-01-23,2025-01-23,株式会社サキハマ電設,,株式会社,神奈川県,横浜市鶴見区,東寺尾東台１５番１０号,,14,101,2300018,,,,,,,2025-01-23,1,,,,,サキハマデンセツ,0
182,1020001160988,新規,0,2025-01-23,2025-01-23,株式会社トーエイ工業,,株式会社,神奈川県,川崎市川崎区,日ノ出１丁目９番６号２Ｆ,,14,131,2100824,,,,,,,2025-01-23,1,,,,,,0
184,1020003027608,新規,0,2025-01-23,2025-01-23,合同会社Ｒ＆Ｉ,,合同会社,神奈川県,横浜市青葉区,あかね台２丁目１２番地１５,,14,117,2270066,,,,,,,2025-01-23,1,,,,,アールアンドアイ,0
185,1020003027616,新規,0,2025-01-23,2025-01-23,Ｙ＆Ｋ合同会社,,合同会社,神奈川県,横浜市港北区,岸根町５４３番地１,,14,109,2220034,,,,,,,2025-01-23,1,,,,,ワイアンドケイ,0
194,1030001164443,新規,0,2025-01-23,2025-01-23,村越自動車株式会社,,株式会社,埼玉県,朝霞市,幸町２丁目２番１１号,,11,227,3510015,,,,,,,2025-01-23,1,,,,,ムラコシジドウシャ,0
195,1030001164476,新規,0,2025-01-23,2025-01-23,美園ＥＮＧ株式会社,,株式会社,埼玉県,所沢市,狭山ケ丘１丁目２９８０番地の１５１ウエストビル,,11,208,3591161,,,,,,,2025-01-23,1,,,,,ミソノエンジ,0
196,1030001164484,新規,0,2025-01-23,2025-01-23,瑞＿貿易株式会社,00137748,株式会社,埼玉県,戸田市,本町１丁目４－１３－６０２号,,11,224,3350023,,,,,,,2025-01-23,1,,,,,ズイキボウエキ,0
197,1030001164518,新規,0,2025-01-23,2025-01-23,サイタマ農産株式会社,,株式会社,埼玉県,羽生市,大字上新郷７１８６番地,,11,216,3480041,,,,,,,2025-01-23,1,,,,,サイタマノウサン,0
200,1030003025908,新規,0,2025-01-23,2025-01-23,合同会社Ｇｒｏｗｓｈｉｎｅ,,合同会社,埼玉県,所沢市,東所沢３丁目８番地の２３,,11,208,3590021,,,,,,,2025-01-23,1,,,,,グローシャイン,0
201,1040001000787,新規,0,2025-01-23,2025-01-23,宇那谷建設株式会社,,株式会社,千葉県,千葉市稲毛区,長沼原町６２７番地,,12,103,2630001,,,,,,,2025-01-23,1,,,,,ウナヤケンセツ,0
205,1040001137084,新規,0,2025-01-23,2025-01-23,株式会社ワイズ,,株式会社,千葉県,八千代市,萱田町９３８番地３８,,12,221,2760044,,,,,,,2025-01-23,1,,,,,ワイズ,0
206,1040001137126,新規,0,2025-01-23,2025-01-23,株式会社Ｐｌａｙｅｒ　Ｈａｎｄｌｅｒ,,株式会社,千葉県,我孫子市,根戸６３７番地の１３,,12,222,2701168,,,,,,,2025-01-23,1,,,,,プレイヤーハンドラー,0
208,1050005013545,新規,0,2025-01-23,2025-01-23,かすみガウガウら協同組合,,その他の設立登記法人,茨城県,かすみがうら市,中台４５０番地２４,,08,230,3000133,,,,,,,2025-01-23,1,,,,,カスミガウガウラ,0
210,1060001037844,新規,0,2025-01-23,2025-01-23,株式会社Ｍ　ｑｕａｌｉｔｙ,,株式会社,栃木県,足利市,八幡町３丁目３番地１６グランドパレス１０１,,09,202,3260824,,,,,,,2025-01-23,1,,,,,エムクオリティ,0
215,1100003007948,新規,0,2025-01-23,2025-01-23,プロジェクトＡＩ合同会社,,合同会社,長野県,松本市,寿台９丁目１４番１号,,20,202,3990025,,,,,,,2025-01-23,1,,,,,プロジェクトエーアイ,0
442,1120001272138,新規,0,2025-01-23,2025-01-23,株式会社レイマ,,株式会社,大阪府,大阪市中央区,内久宝寺町４丁目１番７－３６０１号,,27,128,5400013,,,,,,,2025-01-23,1,,,,,レイマ,0
443,1120001272170,新規,0,2025-01-23,2025-01-23,株式会社ＪＭＡ,,株式会社,大阪府,大阪市住之江区,粉浜西２丁目１８番４号粉浜グリーンハイツ７０７号室,,27,125,5590007,,,,,,,2025-01-23,1,,,,,ジェイエムエー,0
444,1120001272229,新規,0,2025-01-23,2025-01-23,ＦＲＩ株式会社,,株式会社,大阪府,大阪市西区,九条１丁目２７番６号,,27,106,5500027,,,,,,,2025-01-23,1,,,,,エフアールアイ,0
445,1120001272237,新規,0,2025-01-23,2025-01-23,株式会社翔建,,株式会社,大阪府,大阪市此花区,伝法１丁目１番１－８０７,,27,104,5540002,,,,,,,2025-01-23,1,,,,,ショウケン,0
454,1120901050329,新規,0,2025-01-23,2025-01-23,株式会社アダムスアネックス,,株式会社,大阪府,茨木市,双葉町７番８号,,27,211,5670829,,,,,,,2025-01-23,1,,,,,アダムスアネックス,0
455,1120903005520,新規,0,2025-01-23,2025-01-23,Ｈｏｒｏ　Ｗｏｒｋｓ合同会社,,合同会社,大阪府,摂津市,正雀４丁目１３番５７号,,27,224,5660023,,,,,,,2025-01-23,1,,,,,ホオロワークス,0
555,1140001137140,新規,0,2025-01-23,2025-01-23,株式会社インナーメディカルジャパン,,株式会社,兵庫県,神戸市中央区,御幸通８丁目１－６神戸国際会館２２階,,28,110,6510087,,,,,,,2025-01-23,1,,,,,インナーメディカルジャパン,0
556,1140001137173,新規,0,2025-01-23,2025-01-23,井上山田株式会社,,株式会社,兵庫県,神戸市中央区,脇浜町３丁目５番３－２０６号,,28,110,6510072,,,,,,,2025-01-23,1,,,,,イノウエヤマダ,0
668,1180001165006,新規,0,2025-01-23,2025-01-23,三山開発株式会社,,株式会社,愛知県,瀬戸市,城ケ根町４７番地の５４,,23,204,4890924,,,,,,,2025-01-23,1,,,,,,0
669,1180001165113,新規,0,2025-01-23,2025-01-23,株式会社ＭＭＪ,,株式会社,愛知県,名古屋市名東区,極楽５丁目１６２番地,,23,115,4650053,,,,,,,2025-01-23,1,,,,,エムエムジェイ,0
672,1180005020925,新規,0,2025-01-23,2025-01-23,一般社団法人グローバルパワー活用支援機構,,その他の設立登記法人,愛知県,名古屋市港区,大手町６丁目９番地の１,,23,111,4550046,,,,,,,2025-01-23,1,,,,,グローバルパワーカツヨウシエンキコウ,0
685,1200001043365,新規,0,2025-01-23,2025-01-23,株式会社アルコウェル,,株式会社,岐阜県,岐阜市,宇佐南４丁目６－７東海ジュークビル２０３,,21,201,5008367,,,,,,,2025-01-23,1,,,,,アルコウェル,0
687,1210005010179,新規,0,2025-01-23,2025-01-23,一般社団法人九頭竜川パドリングセンター,,その他の設立登記法人,福井県,福井市,若栄町７０２番地（福井鐵工株式会社内）,,18,201,9100831,,,,,,,2025-01-23,1,,,,,クズリュウガワパドリングセンター,0
692,1230001020717,新規,0,2025-01-23,2025-01-23,株式会社トライロ,,株式会社,富山県,射水市,戸破２７９８番地サン・フローラ戸破１０２,,16,211,9390351,,,,,,,2025-01-23,1,,,,,トライロ,0
693,1240001064424,新規,0,2025-01-23,2025-01-23,株式会社アサギテック,,株式会社,広島県,広島市中区,小町９番２４号,,34,101,7300041,,,,,,,2025-01-23,1,,,,,アサギテック,0
743,1290803004952,新規,0,2025-01-23,2025-01-23,合同会社さわやか,,合同会社,福岡県,鞍手郡小竹町,大字新多１５２９番地２,,40,401,8201104,,,,,,,2025-01-23,1,,,,,,0
745,1300001014059,新規,0,2025-01-23,2025-01-23,株式会社Ｂａｒａｎｇａｙ九州,,株式会社,佐賀県,佐賀市,南佐賀２丁目１５－１８,,41,201,8400016,,,,,,,2025-01-23,1,,,,,バランガイキュウシュウ,0
752,1310003004932,新規,0,2025-01-23,2025-01-23,合同会社ＡＲＣ,,合同会社,長崎県,長崎市,上野町２０－２１,,42,201,8528113,,,,,,,2025-01-23,1,,,,,アーク,0
755,1330001032826,新規,0,2025-01-23,2025-01-23,株式会社ピットランド,,株式会社,熊本県,熊本市北区,龍田６丁目１２－９０,,43,105,8618006,,,,,,,2025-01-23,1,,,,,ピットランド,0
780,1430003017195,新規,0,2025-01-23,2025-01-23,合同会社ｓｌａｐｓｈｏｔ,,合同会社,北海道,札幌市豊平区,西岡四条１丁目３番１－２０３号,,01,105,0620034,,,,,,,2025-01-23,1,,,,,スラップショット,0
859,1470001020544,新規,0,2025-01-23,2025-01-23,株式会社ＺＥＸＴ,,株式会社,香川県,丸亀市,葭町２９番地,,37,202,7630003,,,,,,,2025-01-23,1,,,,,ゼクスト,0
861,1500001026109,新規,0,2025-01-23,2025-01-23,株式会社ゆめしま倶楽部,,株式会社,愛媛県,越智郡上島町,生名１２６６,,38,356,7942550,,,,,,,2025-01-23,1,,,,,ユメシマクラブ,0
868,2010001251630,新規,0,2025-01-23,2025-01-23,ＩＮＡｈｅｒｏ株式会社,,株式会社,東京都,中央区,銀座１丁目１２－４－６Ｆ,,13,102,1040061,,,,,,,2025-01-23,1,,,,,イナヒロ,0
869,2010001251639,新規,0,2025-01-23,2025-01-23,株式会社登坂車線,,株式会社,東京都,文京区,本郷２丁目１８番８,,13,105,1130033,,,,,,,2025-01-23,1,,,,,トウハンシャセン,0
870,2010001251746,新規,0,2025-01-23,2025-01-23,株式会社グリーンマテリアルラボ,,株式会社,東京都,文京区,本郷６丁目２５番１４号,,13,105,1130033,,,,,,,2025-01-23,1,,,,,グリーンマテリアルラボ,0
873,2010003046137,新規,0,2025-01-23,2025-01-23,ハーモニー合同会社,,合同会社,東京都,千代田区,霞が関３丁目２番５号,,13,101,1000013,,,,,,,2025-01-23,1,,,,,ハーモニー,0
874,2010003046153,新規,0,2025-01-23,2025-01-23,合同会社カナデアイ,,合同会社,東京都,中央区,銀座１丁目１２番４号Ｎ＆ＥＢＬＤ．６Ｆ,,13,102,1040061,,,,,,,2025-01-23,1,,,,,カナデアイ,0
883,2010501053510,新規,0,2025-01-23,2025-01-23,東和ホールディングス株式会社,,株式会社,東京都,台東区,柳橋２丁目２１番２号小幡ビル３階,,13,106,1110052,,,,,,,2025-01-23,1,,,,,トウワホールディングス,0
886,2010601066627,新規,0,2025-01-23,2025-01-23,大田株式会社,,株式会社,東京都,江東区,亀戸３丁目６２番１０号３０１号室,,13,108,1360071,,,,,,,2025-01-23,1,,,,,オオタ,0
894,2010901056682,新規,0,2025-01-23,2025-01-23,ＦＯＲＬＩＧＨＴ株式会社,,株式会社,東京都,世田谷区,喜多見３丁目１５番３６号,,13,112,1570067,,,,,,,2025-01-23,1,,,,,フォーライト,0
895,2010901056690,新規,0,2025-01-23,2025-01-23,株式会社ＭＫＩ,,株式会社,東京都,世田谷区,深沢１丁目５番１９号,,13,112,1580081,,,,,,,2025-01-23,1,,,,,エムケーアイ,0
896,2011001167197,新規,0,2025-01-23,2025-01-23,株式会社アンヴェール,,株式会社,東京都,渋谷区,富ヶ谷２丁目２６番１１号,,13,113,1510063,,,,,,,2025-01-23,1,,,,,アンヴェール,0
897,2011001167206,新規,0,2025-01-23,2025-01-23,株式会社博川商事,,株式会社,東京都,渋谷区,代々木１丁目３０番１５号天翔オフィス代々木Ｓ６１２,,13,113,1510053,,,,,,,2025-01-23,1,,,,,ヒロカワショウジ,0
898,2011001167222,新規,0,2025-01-23,2025-01-23,ＬｏｂｂｙＡＩ株式会社,,株式会社,東京都,渋谷区,渋谷３丁目２７－１,,13,113,1500002,,,,,,,2025-01-23,1,,,,,ロビーエーアイ,0
902,2011101110354,新規,0,2025-01-23,2025-01-23,株式会社ＲＥＰＯＳ,,株式会社,東京都,新宿区,高田馬場１丁目２６番１２号高田馬場ビル２階,,13,104,1690075,,,,,,,2025-01-23,1,,,,,ルポ,0
903,2011101110370,新規,0,2025-01-23,2025-01-23,株式会社ＣＲＥＶＥＲ,,株式会社,東京都,新宿区,西新宿３丁目５番１号トーカン新宿第２キャステール３０１号室,,13,104,1600023,,,,,,,2025-01-23,1,,,,,クレバー,0
913,2012405005075,新規,0,2025-01-23,2025-01-23,一般社団法人スポーツクラブセリオス,,その他の設立登記法人,東京都,武蔵野市,境南町２丁目２７番４号武蔵野ハウス２０２,,13,203,1800023,,,,,,,2025-01-23,1,,,,,スポーツクラブセリオス,0
914,2012801023713,新規,0,2025-01-23,2025-01-23,インクリーズ・ファースト株式会社,,株式会社,東京都,国立市,中２丁目１７番地の１０,,13,215,1860004,,,,,,,2025-01-23,1,,,,,インクリーズファースト,0
915,2012803003597,新規,0,2025-01-23,2025-01-23,合同会社ワイズアカウンティング,,合同会社,東京都,東大和市,上北台１丁目９０２番地の１５２,,13,220,2070023,,,,,,,2025-01-23,1,,,,,ワイズアカウンティング,0
916,2012803003606,新規,0,2025-01-23,2025-01-23,ｔｉｉｎａ合同会社,,合同会社,東京都,立川市,一番町４丁目３９番地の３－３０２,,13,202,1900033,,,,,,,2025-01-23,1,,,,,ティーナ,0
1051,2013303007477,新規,0,2025-01-23,2025-01-23,合同会社Ｗａ‐ｃｏｎ,,合同会社,東京都,豊島区,西池袋５丁目１１番１１号スカイハイツ３０７号,,13,116,1710021,,,,,,,2025-01-23,1,,,,,ワコン,0
1062,2020001160946,新規,0,2025-01-23,2025-01-23,テックエラ株式会社,,株式会社,神奈川県,川崎市麻生区,王禅寺西１丁目１－１,,14,137,2150017,,,,,,,2025-01-23,1,,,,,テックエラ,0
1063,2020001160970,新規,0,2025-01-23,2025-01-23,株式会社ＴＳＵＫＵＲＵ,,株式会社,神奈川県,横浜市青葉区,つつじが丘６番地５ウィナード青葉台２０１,,14,117,2270055,,,,,,,2025-01-23,1,,,,,ツクル,0
1064,2020001160987,新規,0,2025-01-23,2025-01-23,株式会社ｐａｇｅ,,株式会社,神奈川県,川崎市中原区,下小田中１丁目２８番２１号エスト１Ｆ,,14,133,2110041,,,,,,,2025-01-23,1,,,,,,0
1066,2020003027598,新規,0,2025-01-23,2025-01-23,合同会社Ｆｅｅｒｉｑｕｅ,,合同会社,神奈川県,横浜市西区,南幸２丁目１０番１５号,,14,103,2200005,,,,,,,2025-01-23,1,,,,,フェリーク,0
1067,2021001084292,新規,0,2025-01-23,2025-01-23,株式会社エスワイシステムズ,,株式会社,神奈川県,相模原市中央区,共和２丁目３番２号－４０５,,14,152,2520234,,,,,,,2025-01-23,1,,,,,エスワイシステムズ,0
1068,2021003015502,新規,0,2025-01-23,2025-01-23,合同会社Ｗａｆｒｉｃａ,,合同会社,神奈川県,鎌倉市,由比ガ浜２丁目２０番１２号,,14,204,2480014,,,,,,,2025-01-23,1,,,,,ワフリカ,0
1081,2030003025857,新規,0,2025-01-23,2025-01-23,合同会社えんどこ,,合同会社,埼玉県,草加市,谷塚町１１８４－１４,,11,221,3400023,,,,,,,2025-01-23,1,,,,,エンドコ,0
1082,2030003025923,新規,0,2025-01-23,2025-01-23,協栄ガラス合同会社,,合同会社,埼玉県,川口市,大字新堀２６９－６,,11,203,3340061,,,,,,,2025-01-23,1,,,,,キョウエイガラス,0
1083,2040001137042,新規,0,2025-01-23,2025-01-23,ステラ工業株式会社,,株式会社,千葉県,柏市,船戸３丁目６番地１２８,,12,217,2770802,,,,,,,2025-01-23,1,,,,,ステラコウギョウ,0
1084,2040001137100,新規,0,2025-01-23,2025-01-23,株式会社ＣＨＥＥＲＦＵＬＰＯＷＥＲ,,株式会社,千葉県,船橋市,習志野台１丁目８番２号,,12,204,2740063,,,,,,,2025-01-23,1,,,,,チアフルパワー,0
1085,2040001137117,新規,0,2025-01-23,2025-01-23,ユニック岡村商店株式会社,,株式会社,千葉県,白井市,根字丸山２８９－３６,,12,232,2701431,,,,,,,2025-01-23,1,,,,,ユニックオカムラショウテン,0
1088,2040003026672,新規,0,2025-01-23,2025-01-23,合同会社大翔,,合同会社,千葉県,印西市,草深１１１３番地５,,12,231,2701337,,,,,,,2025-01-23,1,,,,,ダイショウ,0
1092,2050003008934,新規,0,2025-01-23,2025-01-23,さんぽ合同会社,,合同会社,茨城県,つくば市,小野崎９７１－２,,08,220,3050034,,,,,,,2025-01-23,1,,,,,サンポ,0
1094,2050005013544,新規,0,2025-01-23,2025-01-23,一般社団法人みんな家族,,その他の設立登記法人,茨城県,水戸市,笠原町１５４１番地の１９,,08,201,3100852,,,,,,,2025-01-23,1,,,,,ミンナカゾク,0
1101,2080401027698,新規,0,2025-01-23,2025-01-23,株式会社セカンド・ジェネレーション,,株式会社,静岡県,浜松市中央区,砂山町３４８－１２,,22,138,4300926,,,,,,,2025-01-23,1,,,,,セカンドジェネレーション,0
1102,2100001038234,新規,0,2025-01-23,2025-01-23,株式会社ネオン,,株式会社,長野県,安曇野市,穂高４５０７番地１,,20,220,3998303,,,,,,,2025-01-23,1,,,,,ネオン,0
1323,2120001272079,新規,0,2025-01-23,2025-01-23,ＷＥＬＬ　ＣＯＮＳＵＬＴ株式会社,,株式会社,大阪府,大阪市生野区,巽北１丁目１番１号２Ｆ－Ｉ,00137755,27,116,5440004,,,,,,,2025-01-23,1,,,,,ウェルコンサルト,0
1324,2120001272112,新規,0,2025-01-23,2025-01-23,株式会社Ｏｎｅ　ｎｅｔ,,株式会社,大阪府,大阪市西区,阿波座１丁目７番１２号東新ビル１０階,,27,106,5500011,,,,,,,2025-01-23,1,,,,,ワンネット,0
1325,2120001272129,新規,0,2025-01-23,2025-01-23,株式会社ピープル・ビジネス・スクール,,株式会社,大阪府,大阪市北区,梅田１丁目２番２号大阪駅前第２ビル１２－１２,,27,127,5300001,,,,,,,2025-01-23,1,,,,,ピープルビジネススクール,0
1326,2120001272153,新規,0,2025-01-23,2025-01-23,加藤商事株式会社,,株式会社,大阪府,大阪市鶴見区,諸口２丁目１０番９号,,27,124,5380051,,,,,,,2025-01-23,1,,,,,カトウショウジ,0
1327,2120001272161,新規,0,2025-01-23,2025-01-23,セイカツカイゼン株式会社,,株式会社,大阪府,大阪市西区,九条３丁目１０－７,,27,106,5500027,,,,,,,2025-01-23,1,,,,,セイカツカイゼン,0
1328,2120001272194,新規,0,2025-01-23,2025-01-23,美真科技株式会社,,株式会社,大阪府,大阪市淀川区,西宮原２丁目６－１新大阪コーポビアネーズ８０１号室,,27,123,5320004,,,,,,,2025-01-23,1,,,,,ビシンカギ,0
1329,2120001272203,新規,0,2025-01-23,2025-01-23,愛印株式会社,,株式会社,大阪府,大阪市都島区,片町２丁目７番５７号,,27,102,5340025,,,,,,,2025-01-23,1,,,,,アイジルシ,0
1330,2120001272244,新規,0,2025-01-23,2025-01-23,保育第三者評価株式会社,,株式会社,大阪府,大阪市淀川区,西中島６丁目７番８号,,27,123,5320011,,,,,,,2025-01-23,1,,,,,ホイクダイサンシャヒョウカ,0
1332,2120003028446,新規,0,2025-01-23,2025-01-23,合同会社とんかつふじ井,,合同会社,大阪府,大阪市旭区,千林１丁目１１番５号,,27,117,5350012,,,,,,,2025-01-23,1,,,,,トンカツフジイ,0
1425,2122001038815,新規,0,2025-01-23,2025-01-23,フレイヤシステム株式会社,,株式会社,大阪府,東大阪市,荒本新町７番２５－１１０３号コスモ東大阪ステーションアベニュー１１０３号,,27,227,5770022,,,,,,,2025-01-23,1,,,,,フレイヤシステム,0
1434,2130001078830,新規,0,2025-01-23,2025-01-23,株式会社Ｋ＆Ｋ,,株式会社,京都府,京都市南区,久世築山町３７８番地の６,,26,107,6018203,,,,,,,2025-01-23,1,,,,,ケイアンドケイ,0
1436,2130003010147,新規,0,2025-01-23,2025-01-23,合同会社ＴＫ業務サービス,,合同会社,京都府,京田辺市,田辺平田１５番地１９,,26,211,6100331,,,,,,,2025-01-23,1,,,,,ティーケーギョウムサービス,0
1449,2140005027353,新規,0,2025-01-23,2025-01-23,一般社団法人ミリオンベル,,その他の設立登記法人,兵庫県,明石市,魚住町西岡１０３番地,,28,203,6740084,,,,,,,2025-01-23,1,,,,,ミリオンベル,0
1547,2180003027905,新規,0,2025-01-23,2025-01-23,合同会社Ｒ＆Ｙ,,合同会社,愛知県,名古屋市瑞穂区,彌富通４丁目１６番地アメニティ弥富通６０１号,,23,108,4670064,,,,,,,2025-01-23,1,,,,,アールアンドワイ,0
1561,2220001026441,新規,0,2025-01-23,2025-01-23,株式会社越田ハウステック,,株式会社,石川県,白山市,北成町１８番地,,17,210,9240030,,,,,,,2025-01-23,1,,,,,コシダハウステック,0
1562,2220003003934,新規,0,2025-01-23,2025-01-23,合同会社キューカ,,合同会社,石川県,金沢市,入江２丁目１０７番地,,17,201,9218011,,,,,,,2025-01-23,1,,,,,キューカ,0
1565,2240001064423,新規,0,2025-01-23,2025-01-23,株式会社ＹＫＴ,,株式会社,広島県,広島市東区,戸坂千足１丁目１６番３７－２０１号,,34,102,7320009,,,,,,,2025-01-23,1,,,,,ワイケイティ,0
1603,2260001039836,新規,0,2025-01-23,2025-01-23,株式会社有信,,株式会社,岡山県,津山市,大田８６番地１３ポポラーレ大田１０８号,,33,203,7080806,,,,,,,2025-01-23,1,,,,,ユウシン,0
1621,2290001108654,新規,0,2025-01-23,2025-01-23,株式会社オールハート,,株式会社,福岡県,大野城市,つつじケ丘４丁目２番６号,,40,219,8160962,,,,,,,2025-01-23,1,,,,,オールハート,0
1622,2290001108712,新規,0,2025-01-23,2025-01-23,株式会社創琳,,株式会社,福岡県,八女市,蒲原１６０３番地,,40,210,8340064,,,,,,,2025-01-23,1,,,,,ソウリン,0
1626,2290003016319,新規,0,2025-01-23,2025-01-23,合同会社誠秀企画,,合同会社,福岡県,福岡市南区,警弥郷３丁目２５番２５号,,40,134,8111324,,,,,,,2025-01-23,1,,,,,セイシュウキカク,0
1627,2290005019617,新規,0,2025-01-23,2025-01-23,司法書士法人博多中央総合法務事務所,,その他の設立登記法人,福岡県,福岡市博多区,祇園町１番２０号スタービル,,40,132,8120038,,,,,,,2025-01-23,1,,,,,ハカタチュウオウソウゴウホウムジムショ,0
1632,2290801031196,新規,0,2025-01-23,2025-01-23,株式会社フリージアオフィス,,株式会社,福岡県,北九州市小倉北区,三郎丸３丁目１１番８号,,40,106,8020061,,,,,,,2025-01-23,1,,,,,フリージアオフィス,0
1633,2290803004951,新規,0,2025-01-23,2025-01-23,合同会社ｒａｉｓｅ,,合同会社,福岡県,田川市,大字川宮１２３番地,,40,206,8260042,,,,,,,2025-01-23,1,,,,,,0
1640,2320001020905,新規,0,2025-01-23,2025-01-23,株式会社ＡＩＲＩＮＫＯ,,株式会社,大分県,中津市,大字定留２３６４番地１５,,44,203,8790122,,,,,,,2025-01-23,1,,,,,アイリンコ,0
1644,2330001032817,新規,0,2025-01-23,2025-01-23,ＡＯ建設株式会社,,株式会社,熊本県,菊池郡菊陽町,光の森４丁目３４７９番地１１,,43,404,8691108,,,,,,,2025-01-23,1,,,,,アオケンセツ,0
1648,2340001027072,新規,0,2025-01-23,2025-01-23,株式会社ＹＭＧ,,株式会社,鹿児島県,鹿児島市,松原町１番２８号藤田ビル５０１号,,46,201,8920833,,,,,,,2025-01-23,1,,,,,ワイエムジー,0
1651,2350003004829,新規,0,2025-01-23,2025-01-23,丸竹青果合同会社,,合同会社,宮崎県,都城市,都北町１６７２番地２,,45,202,8850004,,,,,,,2025-01-23,1,,,,,マルタケセイカ,0
1666,2430001093477,新規,0,2025-01-23,2025-01-23,富麗株式会社,,株式会社,北海道,札幌市西区,発寒十三条３丁目６－５－２０１,,01,107,0630833,,,,,,,2025-01-23,1,,,,,フレイ,0
1749,2470003002795,新規,0,2025-01-23,2025-01-23,北海道札幌蓄電合同会社,,合同会社,香川県,高松市,上之町３丁目１番４号,,37,201,7618064,,,,,,,2025-01-23,1,,,,,ホッカイドウサッポロチクデン,0
1750,2480003002225,新規,0,2025-01-23,2025-01-23,合同会社Ｈｏｍａｒｅ,,合同会社,徳島県,勝浦郡勝浦町,大字三渓字栗城４５番地１,,36,301,7714300,,,,,,,2025-01-23,1,,,,,ホマレ,0
1762,3010001251662,新規,0,2025-01-23,2025-01-23,グローバルナウジャパン株式会社,,株式会社,東京都,中央区,日本橋茅場町２丁目１７番５号,,13,102,1030025,,,,,,,2025-01-23,1,,,,,グローバルナウジャパン,0
1767,3010401187770,新規,0,2025-01-23,2025-01-23,ＮＫＥ株式会社,,株式会社,東京都,港区,新橋５丁目６番４号トゥシェ新橋４０４,,13,103,1050004,,,,,,,2025-01-23,1,,,,,エヌケーイー,0
1773,3010703007528,新規,0,2025-01-23,2025-01-23,合同会社Ｎｐｌｕｓ,,合同会社,東京都,品川区,上大崎２丁目１５－１９ＭＧ目黒駅前４０３号,,13,109,1410021,,,,,,,2025-01-23,1,,,,,エヌプラス,0
1781,3011001167196,新規,0,2025-01-23,2025-01-23,株式会社ＢＯＵ,,株式会社,東京都,渋谷区,神宮前６丁目２９－４原宿Ｋｏｍｉｙａビル６Ｆ,,13,113,1500001,,,,,,,2025-01-23,1,,,,,ボウ,0
1782,3011001167205,新規,0,2025-01-23,2025-01-23,株式会社Ｂ‐ｕｐｔｈ,,株式会社,東京都,目黒区,大橋２丁目２３番２１樹琳館１０３号,,13,110,1530044,,,,,,,2025-01-23,1,,,,,ビーアップス,0
1783,3011001167312,新規,0,2025-01-23,2025-01-23,株式会社８ＤＡＹＳ　ＳＴＵＤＩＯ,,株式会社,東京都,目黒区,下目黒１丁目１番１４号コノトラビル７Ｆ,,13,110,1530064,,,,,,,2025-01-23,1,,,,,エイトデイズスタジオ,0
1784,3011003020808,新規,0,2025-01-23,2025-01-23,ＶＥＳＳＥＬ合同会社,,合同会社,東京都,渋谷区,幡ヶ谷３丁目５２－１２－１０１,,13,113,1510072,,,,,,,2025-01-23,1,,,,,ベゼル,0
1785,3011003020840,新規,0,2025-01-23,2025-01-23,合同会社ことぶきデベロップメント,,合同会社,東京都,渋谷区,千駄ヶ谷５丁目２６番５－７０３号,,13,113,1510051,,,,,,,2025-01-23,1,,,,,コトブキデベロップメント,0
1786,3011101110353,新規,0,2025-01-23,2025-01-23,株式会社Ｐａｃｔｏｍ,,株式会社,東京都,新宿区,西新宿３丁目３番１３号西新宿水間ビル２Ｆ,,13,104,1600023,,,,,,,2025-01-23,1,,,,,パクトム,0
1787,3011101110361,新規,0,2025-01-23,2025-01-23,株式会社セント,,株式会社,東京都,新宿区,新宿１丁目３０番１６号,,13,104,1600022,,,,,,,2025-01-23,1,,,,,セント,0
1790,3011203004585,新規,0,2025-01-23,2025-01-23,合同会社ＴＨＲＨＪＡ　ｓｔｕｄｉｏ,,合同会社,東京都,中野区,沼袋２丁目２８番４２号,,13,114,1650025,,,,,,,2025-01-23,1,,,,,トゥラフジャスタジオ,0
1791,3011301030310,新規,0,2025-01-23,2025-01-23,たかゆ企画株式会社,,株式会社,東京都,杉並区,梅里２丁目１８番１０－１３０８号梅里大同マンション,,13,115,1660011,,,,,,,2025-01-23,1,,,,,タカユキカク,0
1797,3012801023679,新規,0,2025-01-23,2025-01-23,株式会社ＭＪＨ,,株式会社,東京都,国分寺市,南町３丁目１１番１７号尾崎ビル２階,,13,214,1850021,,,,,,,2025-01-23,1,,,,,エムジェイエイチ,0
1934,3020001160961,新規,0,2025-01-23,2025-01-23,株式会社シー・ワイ・ピー・３,,株式会社,神奈川県,横浜市西区,みなとみらい３丁目１番１号,,14,103,2200012,,,,,,,2025-01-23,1,,,,,シーワイピースリー,0
1935,3020001161027,新規,0,2025-01-23,2025-01-23,株式会社Ａｎｎｕｌｕｓ,,株式会社,神奈川県,横浜市中区,石川町３丁目１１４番地１２セシリア元街２０１号室,,14,104,2310868,,,,,,,2025-01-23,1,,,,,アニュラス,0
1937,3020003027614,新規,0,2025-01-23,2025-01-23,合同会社陽だまりの家,,合同会社,神奈川県,横浜市金沢区,釜利谷南１丁目３－Ｄ－３０６,,14,108,2360045,,,,,,,2025-01-23,1,,,,,ヒダマリノイエ,0
1943,3021003015492,新規,0,2025-01-23,2025-01-23,合同会社もりきよ,,合同会社,神奈川県,鎌倉市,極楽寺２丁目８番１２号,,14,204,2480023,,,,,,,2025-01-23,1,,,,,モリキヨ,0
1944,3021003015501,新規,0,2025-01-23,2025-01-23,ＣｒｅＡｂｓ合同会社,,合同会社,神奈川県,横須賀市,佐島の丘１丁目５－３,,14,201,2400108,,,,,,,2025-01-23,1,,,,,クリーブス,0
1947,3030001164490,新規,0,2025-01-23,2025-01-23,株式会社朝日美装工業,,株式会社,埼玉県,行田市,城西４丁目１２番９号,,11,206,3610057,,,,,,,2025-01-23,1,,,,,アサヒビソウコウギョウ,0
1951,3030003025939,新規,0,2025-01-23,2025-01-23,Ｊ・Ｈ・Ｗ合同会社,,合同会社,埼玉県,川口市,西川口１丁目３１－１６パインプレイス４０１号室,,11,203,3320021,,,,,,,2025-01-23,1,,,,,ジェイエイチダブリュー,0
1959,3050001056059,新規,0,2025-01-23,2025-01-23,株式会社栄知開発工業,,株式会社,茨城県,古河市,東山田５８１番地２,,08,204,3060112,,,,,,,2025-01-23,1,,,,,エイチカイハツコウギョウ,0
1962,3050003008933,新規,0,2025-01-23,2025-01-23,合同会社サブマリーン,,合同会社,茨城県,水戸市,南町３丁目３－３７,,08,201,3100021,,,,,,,2025-01-23,1,,,,,サブマリーン,0
1964,3060001037784,新規,0,2025-01-23,2025-01-23,株式会社夢ファーム,,株式会社,栃木県,那須塩原市,細竹３番１,,09,213,3250113,,,,,,,2025-01-23,1,,,,,ユメファーム,0
1967,3070001042569,新規,0,2025-01-23,2025-01-23,石金産業株式会社,,株式会社,群馬県,渋川市,赤城町長井小川田２１５２番地１,,10,208,3791102,,,,,,,2025-01-23,1,,,,,イシカネサンギョウ,0
1970,3080005007666,新規,0,2025-01-23,2025-01-23,特定非営利活動法人海の環境と生物資源研究会さくらえびラボ,,その他の設立登記法人,静岡県,静岡市駿河区,谷田１５番１１号,,22,102,4228002,,,,,,,2025-01-23,1,,,,,ウミノカンキョウトセイブツシゲンケンキュウカイサクラエビラボ,0
1972,3080105006485,新規,0,2025-01-23,2025-01-23,一般社団法人アジア太平洋総合研究所,,その他の設立登記法人,静岡県,伊豆市,湯ケ島２５７１番地の１０－３６０室,,22,222,4103206,,,,,,,2025-01-23,1,,,,,アジアタイヘイヨウソウゴウケンキュウジョ,0
1976,3100003007938,新規,0,2025-01-23,2025-01-23,合同会社ｉｉｉｒｏ,,合同会社,長野県,飯山市,大字飯山１２０７番地６号,,20,213,3892253,,,,,,,2025-01-23,1,,,,,イイイロ,0
1978,3110001039008,新規,0,2025-01-23,2025-01-23,株式会社ＢＵＺＺＴＯＷＮ,,株式会社,新潟県,佐渡市,両津夷４２‐１、２階,,15,224,9520011,,,,,,,2025-01-23,1,,,,,バズタウン,0
2210,3120001272103,新規,0,2025-01-23,2025-01-23,株式会社全日陽,,株式会社,大阪府,大阪市住之江区,安立２丁目７番２号,,27,125,5590003,,,,,,,2025-01-23,1,,,,,ゼンニチヨウ,0
2211,3120001272136,新規,0,2025-01-23,2025-01-23,吉妙思国際株式会社,,株式会社,大阪府,大阪市西成区,花園南１丁目９－１５エーワガーデン４Ｆ,,27,122,5570015,,,,,,,2025-01-23,1,,,,,キミョウシコクサイ,0
2212,3120001272144,新規,0,2025-01-23,2025-01-23,ＣＵ　Ｈｏｓｔ株式会社,,株式会社,大阪府,大阪市住吉区,遠里小野６丁目７番２２号プレアール遠里小野ＩＩ５０３号室,00137749,27,120,5580032,,,,,,,2025-01-23,1,,,,,シーユーホスト,0
2219,3120005024731,新規,0,2025-01-23,2025-01-23,一般社団法人枚方市空き家アドバイザー協議会,,その他の設立登記法人,大阪府,枚方市,茄子作１丁目４３番１２号,,27,210,5730071,,,,,,,2025-01-23,1,,,,,ヒラカタシアキヤアドバイザーキョウギカイ,0
2220,3120005024748,新規,0,2025-01-23,2025-01-23,医療法人大阪日帰り外科そけいヘルニアクリニック,,その他の設立登記法人,大阪府,大阪市北区,梅田１丁目１３番１号１３階,,27,127,5300001,,,,,,,2025-01-23,1,,,,,オオサカヒガエリゲカソケイヘルニアクリニック,0
2223,3120901050327,新規,0,2025-01-23,2025-01-23,株式会社Ｏｚグリーン,,株式会社,大阪府,吹田市,岸部中１丁目２４番３３－２０６号,,27,205,5640002,,,,,,,2025-01-23,1,,,,,オズグリーン,0
2224,3120903005519,新規,0,2025-01-23,2025-01-23,オメパチハウス合同会社,,合同会社,大阪府,高槻市,安岡寺町５丁目２６番５号,,27,207,5691029,,,,,,,2025-01-23,1,,,,,オメパチハウス,0
2325,3140001137139,新規,0,2025-01-23,2025-01-23,株式会社ノビシロ,,株式会社,兵庫県,神戸市垂水区,日向２丁目１番１号,,28,108,6550893,,,,,,,2025-01-23,1,,,,,ノビシロ,0
2326,3140001137163,新規,0,2025-01-23,2025-01-23,株式会社ＣＡＲＥ　ＳＡＬＯＮ　ＧＲＯＵＰ,,株式会社,兵庫県,宝塚市,南口２丁目３番３５－１０３号,,28,214,6650011,,,,,,,2025-01-23,1,,,,,ケアサロングループ,0
2327,3140003021563,新規,0,2025-01-23,2025-01-23,合同会社ＫＳＤ,,合同会社,兵庫県,神戸市垂水区,本多聞３丁目７番１７号,,28,108,6550006,,,,,,,2025-01-23,1,,,,,ケーエスディー,0
2436,3180001165094,新規,0,2025-01-23,2025-01-23,株式会社ＪＵＳＴ　ＢＲＡＮＣＨ,,株式会社,愛知県,一宮市,今伊勢町新神戸字乾２４番地,,23,203,4910052,,,,,,,2025-01-23,1,,,,,ジャストブランチ,0
2445,3180003027879,新規,0,2025-01-23,2025-01-23,合同会社Ｗａｒｄｅｌｌ,,合同会社,愛知県,名古屋市中区,栄５丁目１８番３号アパルトメント栄５・３０３号,,23,106,4600008,,,,,,,2025-01-23,1,,,,,ワーデル,0
2455,3200001043355,新規,0,2025-01-23,2025-01-23,株式会社リバティーロード,,株式会社,岐阜県,海津市,海津町福江５４７番地６,,21,221,5030628,,,,,,,2025-01-23,1,,,,,リバティーロード,0
2460,3220001026449,新規,0,2025-01-23,2025-01-23,株式会社クチノトマーケット,,株式会社,石川県,羽咋郡宝達志水町,門前１５０番地１１,,17,386,9291311,,,,,,,2025-01-23,1,,,,,クチノトマーケット,0
2461,3230001020715,新規,0,2025-01-23,2025-01-23,飛鳥商業株式会社,,株式会社,富山県,富山市,東福沢１２６７番地１,,16,201,9301281,,,,,,,2025-01-23,1,,,,,アスカショウギョウ,0
2493,3250005008977,新規,0,2025-01-23,2025-01-23,一般社団法人神原学童保育クラブ,,その他の設立登記法人,山口県,宇部市,松山町１丁目５番１６号,,35,202,7550026,,,,,,,2025-01-23,1,,,,,カミハラガクドウホイククラブ,0
2523,3290001108570,新規,0,2025-01-23,2025-01-23,株式会社ニシヨリシステムズ,,株式会社,福岡県,久留米市,南１丁目１１番２号,,40,203,8300051,,,,,,,2025-01-23,1,,,,,ニシヨリシステムズ,0
2528,3330001032790,新規,0,2025-01-23,2025-01-23,株式会社本田工業,,株式会社,熊本県,八代市,高下西町１９６５番地,,43,202,8660072,,,,,,,2025-01-23,1,,,,,ホンダコウギョウ,0
2537,3370003006905,新規,0,2025-01-23,2025-01-23,合同会社介護ｐｌｕｓ,,合同会社,宮城県,仙台市青葉区,錦ケ丘６丁目８番地の１０,,04,101,9893123,,,,,,,2025-01-23,1,,,,,カイゴプラス,0
2543,3420001018995,新規,0,2025-01-23,2025-01-23,小虎創建株式会社,,株式会社,青森県,八戸市,大字市川町字尻引堤沢３３番地１７４,,02,203,0392241,,,,,,,2025-01-23,1,,,,,コトラソウケン,0
2549,3430001093518,新規,0,2025-01-23,2025-01-23,株式会社オグラ塗装,,株式会社,北海道,札幌市豊平区,福住三条５丁目１番３９,,01,105,0620043,,,,,,,2025-01-23,1,,,,,オグラトソウ,0
2636,4010001251521,新規,0,2025-01-23,2025-01-23,ＡｓｓｅｔＬｉｎｋ株式会社,,株式会社,東京都,千代田区,紀尾井町４－１ニューオータニガーデンコート１２階,,13,101,1020094,,,,,,,2025-01-23,1,,,,,アセットリンク,0
2639,4010003045905,新規,0,2025-01-23,2025-01-23,合同会社ダンクプロジェクト,,合同会社,東京都,千代田区,神田和泉町１番地６－１６ヤマトビル４０５,,13,101,1010024,,,,,,,2025-01-23,1,,,,,ダンクプロジェクト,0
2640,4010003046176,新規,0,2025-01-23,2025-01-23,ＴＯＫ１ＡＥ合同会社,,合同会社,東京都,千代田区,丸の内１丁目４番１号東京共同会計事務所内,,13,101,1000005,,,,,,,2025-01-23,1,,,,,トックワンエーイー,0
2641,4010103002500,新規,0,2025-01-23,2025-01-23,志朋合同会社,,合同会社,東京都,八王子市,東町１０番３号１１２号,,13,201,1920082,,,,,,,2025-01-23,1,,,,,,0
2655,4010601066641,新規,0,2025-01-23,2025-01-23,あおば株式会社,,株式会社,東京都,江東区,青海２丁目７番４号８０３,,13,108,1350064,,,,,,,2025-01-23,1,,,,,アオバ,0
2660,4010701047079,新規,0,2025-01-23,2025-01-23,株式会社Ｏ　Ｔｏｐ　Ｍｅｓａ,,株式会社,東京都,品川区,南大井６丁目２６番２号大森ベルポートＣ館２階,,13,109,1400013,,,,,,,2025-01-23,1,,,,,,0
2664,4010803005232,新規,0,2025-01-23,2025-01-23,合同会社ＺＥＲＯ,,合同会社,東京都,大田区,大森北６丁目１０－１ハウスシゲ２０１,,13,111,1430016,,,,,,,2025-01-23,1,,,,,ゼロ,0
2665,4010803005249,新規,0,2025-01-23,2025-01-23,合同会社未来支援,,合同会社,東京都,大田区,南雪谷２丁目１９番１号シャルムサンシン３０１,,13,111,1450066,,,,,,,2025-01-23,1,,,,,ミライシエン,0
2669,4011001167146,新規,0,2025-01-23,2025-01-23,株式会社アルティキッズジャパン,,株式会社,東京都,目黒区,上目黒３丁目３９－１９大澤ビル１０１,,13,110,1530051,,,,,,,2025-01-23,1,,,,,アルティキッズジャパン,0
2670,4011001167286,新規,0,2025-01-23,2025-01-23,株式会社ミエルカメンテ,,株式会社,東京都,渋谷区,渋谷２丁目１９番１５号宮益坂ビルディング６０９,,13,113,1500002,,,,,,,2025-01-23,1,,,,,ミエルカメンテ,0
2671,4011001167311,新規,0,2025-01-23,2025-01-23,株式会社ＣＴＷ,,株式会社,東京都,渋谷区,南平台町１６番２８号Ｄａｉｗａ渋谷スクエア６Ｆ,,13,113,1500036,,,,,,,2025-01-23,1,,,,,シーティーダブリュ,0
2673,4011003020807,新規,0,2025-01-23,2025-01-23,合同会社ＡＭＢＩＴＩＯＵＳ,,合同会社,東京都,目黒区,下目黒１丁目１番１４号コノトラビル７Ｆ,,13,110,1530064,,,,,,,2025-01-23,1,,,,,アンビシャス,0
2674,4011101110212,新規,0,2025-01-23,2025-01-23,株式会社ライモ,,株式会社,東京都,新宿区,西新宿７丁目７番３０号小田急西新宿Ｏ－ＰＬＡＣＥ１階,,13,104,1600023,,,,,,,2025-01-23,1,,,,,ライモ,0
2675,4011201026069,新規,0,2025-01-23,2025-01-23,快魚設計研究所株式会社,,株式会社,東京都,中野区,本町４丁目４４－１３西京成西ビル２階,,13,114,1640012,,,,,,,2025-01-23,1,,,,,カイギョセッケイケンキュウショ,0
2678,4011401026760,新規,0,2025-01-23,2025-01-23,株式会社エムアイコンサルティング,,株式会社,東京都,板橋区,三園１丁目２９番１７－７０３号グランシティユーロコート成増,,13,119,1750091,,,,,,,2025-01-23,1,,,,,エムアイコンサルティング,0
2797,4020001160928,新規,0,2025-01-23,2025-01-23,株式会社キリンの芽,,株式会社,神奈川県,横浜市西区,北幸１丁目１１－１水原ビル７階,,14,103,2200004,,,,,,,2025-01-23,1,,,,,キリンノメ,0
2798,4020001160952,新規,0,2025-01-23,2025-01-23,株式会社ｂｕｒａｎ,,株式会社,神奈川県,川崎市幸区,大宮町２０番地１マック川崎コートＢ０１,,14,132,2120014,,,,,,,2025-01-23,1,,,,,ブラン,0
2799,4020001160985,新規,0,2025-01-23,2025-01-23,株式会社イトウ解体,,株式会社,神奈川県,川崎市川崎区,貝塚１丁目１０番４号,,14,131,2100014,,,,,,,2025-01-23,1,,,,,イトウカイタイ,0
2805,4021003015467,新規,0,2025-01-23,2025-01-23,ジェイオーエル合同会社,,合同会社,神奈川県,鎌倉市,山ノ内９７２,,14,204,2470062,,,,,,,2025-01-23,1,,,,,ジェイオーエル,0
2807,4030001164515,新規,0,2025-01-23,2025-01-23,吹丸運輸倉庫株式会社,,株式会社,埼玉県,越谷市,大成町１丁目２２８２番地１,,11,222,3430825,,,,,,,2025-01-23,1,,,,,フキマルウンユソウコ,0
2808,4030001164556,新規,0,2025-01-23,2025-01-23,株式会社ストラマジック,,株式会社,埼玉県,さいたま市大宮区,大門町２丁目２０－２ＴＭＯｆｆｉｃｅ大宮北３０７号室,,11,103,3300846,,,,,,,2025-01-23,1,,,,,ストラマジック,0
2814,4040001137098,新規,0,2025-01-23,2025-01-23,シェアタイム株式会社,,株式会社,千葉県,松戸市,小金原６丁目９番地の１６－４０４Ｂ,,12,207,2700021,,,,,,,2025-01-23,1,,,,,シェアタイム,0
2815,4040001137115,新規,0,2025-01-23,2025-01-23,ＢＹＳ株式会社,,株式会社,千葉県,松戸市,松戸１３０７番地の１松戸ビル１３Ｆ,,12,207,2710092,,,,,,,2025-01-23,1,,,,,ビーワイエス,0
2817,4040003026687,新規,0,2025-01-23,2025-01-23,広葉コンクリート工業合同会社,,合同会社,千葉県,旭市,ロの９１５番地,,12,215,2892516,,,,,,,2025-01-23,1,,,,,コウヨウコンクリートコウギョウ,0
2818,4040005022619,新規,0,2025-01-23,2025-01-23,一般社団法人和道政経ＬＡＢＯ,,その他の設立登記法人,千葉県,市川市,原木２丁目３番２５号,,12,203,2720004,,,,,,,2025-01-23,1,,,,,ワドウセイケイラボ,0
2820,4050003008957,新規,0,2025-01-23,2025-01-23,合同会社ＨＪ,,合同会社,茨城県,龍ケ崎市,南中島町９０番地３、３０２号室,,08,208,3010047,,,,,,,2025-01-23,1,,,,,エイチジェー,0
2823,4060003005400,新規,0,2025-01-23,2025-01-23,ＫＡＩＳＥＲ　ＷＥＢ合同会社,,合同会社,栃木県,小山市,大字雨ケ谷新田８－２１,,09,208,3230824,,,,,,,2025-01-23,1,,,,,カイザーウェブ,0
2825,4070003005762,新規,0,2025-01-23,2025-01-23,クオン合同会社,,合同会社,群馬県,前橋市,南町３丁目５０－２プラザアン２階Ｄ－７９,,10,201,3710805,,,,,,,2025-01-23,1,,,,,,0
2832,4080103003244,新規,0,2025-01-23,2025-01-23,合同会社ＢＵＬＬＥＴ,,合同会社,静岡県,沼津市,内浦三津１２２－５８,,22,203,4100223,,,,,,,2025-01-23,1,,,,,バレット,0
2833,4080105006484,新規,0,2025-01-23,2025-01-23,一般社団法人静岡県セレモニー協会,,その他の設立登記法人,静岡県,沼津市,下河原町１丁目１１番１,,22,203,4100841,,,,,,,2025-01-23,1,,,,,シズオカケンセレモニーキョウカイ,0
3066,4120001272218,新規,0,2025-01-23,2025-01-23,株式会社森企画,,株式会社,大阪府,大阪市北区,大淀北１丁目６番２１－１３１１号,,27,127,5310077,,,,,,,2025-01-23,1,,,,,モリキカク,0
3074,4120101070942,新規,0,2025-01-23,2025-01-23,フロンティアコンサルティング株式会社,,株式会社,大阪府,堺市西区,下田町１０番２号,,27,144,5938329,,,,,,,2025-01-23,1,,,,,フロンティアコンサルティング,0
3169,4130001078795,新規,0,2025-01-23,2025-01-23,念念株式会社,,株式会社,京都府,京都市南区,八条寺内町３－８,,26,107,6018476,,,,,,,2025-01-23,1,,,,,ネンネン,0
3170,4130001078820,新規,0,2025-01-23,2025-01-23,ＳｋｙＧｕａｒｄ株式会社,,株式会社,京都府,京都市下京区,堺町通松原下る鍛冶屋町２５７番地レ・タン・ドゥ・ラ・メールＣＫＶＩ６０３号,00137746,26,106,6008079,,,,,,,2025-01-23,1,,,,,スカイガード,0
3171,4130001078837,新規,0,2025-01-23,2025-01-23,ぶらぶら探検隊株式会社,,株式会社,京都府,京都市下京区,釘隠町２５５番地２０８号,,26,106,6008423,,,,,,,2025-01-23,1,,,,,ブラブラタンケンタイ,0
3176,4140001137154,新規,0,2025-01-23,2025-01-23,株式会社Ｄｉｓ‐ｍｏｉ,,株式会社,兵庫県,神戸市中央区,生田町３丁目２番１－６０２号,,28,110,6510092,,,,,,,2025-01-23,1,,,,,ディモア,0
3177,4140001137170,新規,0,2025-01-23,2025-01-23,株式会社ｈａｌｅ,,株式会社,兵庫県,芦屋市,業平町七丁目１６番１０３号室,,28,206,6590068,,,,,,,2025-01-23,1,,,,,ハレ,0
3239,4160003003385,新規,0,2025-01-23,2025-01-23,合同会社ｍｏｏｎ’ｔ　ｆｌｏｗ,,合同会社,滋賀県,甲賀市,水口町植２１９,,25,209,5280055,,,,,,,2025-01-23,1,,,,,ムーンノットフロウ,0
3274,4170001018459,新規,0,2025-01-23,2025-01-23,ＳＡＨＩ　ＡＵＴＯ株式会社,,株式会社,和歌山県,和歌山市,中３６４番地１森下ビル２０６号室,,30,201,6408451,,,,,,,2025-01-23,1,,,,,サヒオート,0
3296,4180001164938,新規,0,2025-01-23,2025-01-23,株式会社ＭＳＫ　Ｊａｐａｎ,,株式会社,愛知県,丹羽郡扶桑町,大字高雄字堂子２９番地,,23,362,4800102,,,,,,,2025-01-23,1,,,,,エムエスケイジャパン,0
3297,4180001165069,新規,0,2025-01-23,2025-01-23,株式会社ＥＩＧＨＴ　ＨＯＵＳＥ,,株式会社,愛知県,名古屋市西区,樋の口町１番１５号,,23,104,4510034,,,,,,,2025-01-23,1,,,,,エイトハウス,0
3298,4180001165127,新規,0,2025-01-23,2025-01-23,株式会社Ｃ‐Ｌｉｆｅ,,株式会社,愛知県,海部郡大治町,大字花常字出口１０８－１,,23,424,4901136,,,,,,,2025-01-23,1,,,,,シーライフ,0
3300,4180003027894,新規,0,2025-01-23,2025-01-23,合同会社Ｒｖｎ,,合同会社,愛知県,小牧市,桜井本町５３番地,,23,219,4850043,,,,,,,2025-01-23,1,,,,,アールブイエヌ,0
3305,4180305009649,新規,0,2025-01-23,2025-01-23,一般社団法人イケダ,,その他の設立登記法人,愛知県,豊田市,広久手町６丁目１番地,,23,211,4710036,,,,,,,2025-01-23,1,,,,,イケダ,0
3327,4230003002363,新規,0,2025-01-23,2025-01-23,合同会社ＣＯＣＯ,,合同会社,富山県,富山市,高屋敷２５４‐１Ｄ‐ＢＯＸ高屋敷Ａ１０３号室,,16,201,9398036,,,,,,,2025-01-23,1,,,,,ココ,0
3391,4290001108693,新規,0,2025-01-23,2025-01-23,株式会社Ｄｅｍｅｔｅｒｙｈｉ,,株式会社,福岡県,福岡市博多区,博多駅南３丁目２１番地９－２０６号エステート博多駅南ハウス,,40,132,8120016,,,,,,,2025-01-23,1,,,,,デメテリヒ,0
3392,4290001108719,新規,0,2025-01-23,2025-01-23,アートＴ株式会社,,株式会社,福岡県,福岡市城南区,友泉亭１３番７－５０３号エンゼルブレッサ友泉亭,,40,136,8140122,,,,,,,2025-01-23,1,,,,,アートティ,0
3401,4290003016317,新規,0,2025-01-23,2025-01-23,ＦｏＲ合同会社,,合同会社,福岡県,福岡市博多区,祇園町８番１３号第一プリンスビル１Ｆ,,40,132,8120038,,,,,,,2025-01-23,1,,,,,エフオーアール,0
3402,4290005019623,新規,0,2025-01-23,2025-01-23,特定非営利活動法人住まい支援センター,,その他の設立登記法人,福岡県,福岡市早良区,賀茂４丁目３８番１８号,,40,137,8140164,,,,,,,2025-01-23,1,,,,,スマイシエンセンター,0
3413,4360003014552,新規,0,2025-01-23,2025-01-23,合同会社Ｒ．Ｈ,,合同会社,沖縄県,那覇市,牧志２丁目７０１－２,,47,201,9000013,,,,,,,2025-01-23,1,,,,,アールエイチ,0
3419,4380005012908,新規,0,2025-01-23,2025-01-23,農事組合法人加倉ファーム,,その他の設立登記法人,福島県,双葉郡浪江町,大字加倉字北柴田１４番地,,07,547,9791536,,,,,,,2025-01-23,1,,,,,カクラファーム,0
3522,4470001020541,新規,0,2025-01-23,2025-01-23,株式会社清々,,株式会社,香川県,丸亀市,瓦町３３２番地２,,37,202,7630002,,,,,,,2025-01-23,1,,,,,セイセイ,0
3528,4500002024348,新規,0,2025-01-23,2025-01-23,鹿島住宅産業有限会社,,有限会社,愛媛県,松山市,勝山町１丁目１番地７,,38,201,7900878,,,,,,,2025-01-23,1,,,,,,0
3529,4500003003417,新規,0,2025-01-23,2025-01-23,のりのり合同会社,,合同会社,愛媛県,東温市,西岡５９９番地６０,,38,215,7910205,,,,,,,2025-01-23,1,,,,,ノリノリ,0
3533,4700150128913,新規,0,2025-01-23,2025-01-23,ＤＯＮＧＧＵＡＮ　ＪＩＮＣＨＩ　ＥＬＥＣＴＲＯＮＩＣ　ＴＥＣＨＮＯＬＯＧＹ　ＣＯ．，ＬＴＤ,,外国会社等,,,,,,,,２－３／Ｆ，Ａ　Ｂｌｋ，Ｎｏ．２　Ｌｏｎｇｔｏｎｇ　Ｒｄ，Ｘｉｎｈｅ　Ｃｏｍｍｕｎｉｔｙ，Ｗａｎｊｉａｎｇ　Ｄｉｓｔｒｉｃｔ，Ｄｏｎｇｇｕａｎ　Ｃｉｔｙ，Ｇｕａｎｇｄｏｎｇ　Ｐｒｏｖｉｎｃｅ,,,,,,2025-01-23,1,,,,,ドーングワンシージンチーディエンズーコーァジーヨウシエンゴーンスー,0
3541,5010001251553,新規,0,2025-01-23,2025-01-23,株式会社ｇｒａｄｉ,,株式会社,東京都,中央区,日本橋３丁目２番１４号,,13,102,1030027,,,,,,,2025-01-23,1,,,,,グラディ,0
3542,5010001251652,新規,0,2025-01-23,2025-01-23,株式会社田,,株式会社,東京都,中央区,銀座１丁目１２－４Ｎ＆ＥＢＬＤ．７階,,13,102,1040061,,,,,,,2025-01-23,1,,,,,デン,0
3544,5010003046167,新規,0,2025-01-23,2025-01-23,合同会社アイランド不動産,,合同会社,東京都,八丈島八丈町,中之郷３２６２－６,,13,401,1001623,,,,,,,2025-01-23,1,,,,,アイランドフドウサン,0
3548,5010005039433,新規,0,2025-01-23,2025-01-23,一般社団法人日本心臓血管外科手術データベース機構,,その他の設立登記法人,東京都,文京区,本郷３丁目９番１１号平原ビル２階２０２号日本心臓血管外科学会事務局内,,13,105,1130033,,,,,,,2025-01-23,1,,,,,ニホンシンゾウケッカンゲカシュジュツデータベースキコウ,0
3552,5010401187364,新規,0,2025-01-23,2025-01-23,ピクセルＫ株式会社,,株式会社,東京都,港区,虎ノ門４丁目１番４０号,,13,103,1050001,,,,,,,2025-01-23,1,,,,,ピクセルケー,0
3557,5010503007692,新規,0,2025-01-23,2025-01-23,合同会社Ｍ＆Ｄ,,合同会社,東京都,台東区,浅草２丁目２０－２プライムアーバン浅草テラス４０２,,13,106,1110032,,,,,,,2025-01-23,1,,,,,エムアンドディー,0
3559,5010701047144,新規,0,2025-01-23,2025-01-23,株式会社晴ノ雫,,株式会社,東京都,品川区,南品川４丁目１６番１－５１４号,,13,109,1400004,,,,,,,2025-01-23,1,,,,,ハレノシズク,0
3562,5010801035775,新規,0,2025-01-23,2025-01-23,株式会社ＫＩＢＩＲＵ,,株式会社,東京都,大田区,北千束２丁目３５－１ＡＱＵＡＳＴＹＬＥ２０２,,13,111,1450062,,,,,,,2025-01-23,1,,,,,キビル,0
3568,5010903009660,新規,0,2025-01-23,2025-01-23,合同会社ｅｄｅｌ,,合同会社,東京都,世田谷区,南烏山６丁目２５番８号ピエス南烏山１０３,,13,112,1570062,,,,,,,2025-01-23,1,,,,,エーデル,0
3573,5011001167087,新規,0,2025-01-23,2025-01-23,株式会社Ｐｏｍｍｅｙ,,株式会社,東京都,渋谷区,神南１丁目１１番４号ＦＰＧリンクス神南５階,,13,113,1500041,,,,,,,2025-01-23,1,,,,,ポミー,0
3574,5011003020806,新規,0,2025-01-23,2025-01-23,ＭＡＷＥＮＡ　ＧＬＯＢＡＬ合同会社,,合同会社,東京都,渋谷区,鉢山町５番３号ｃｉｅｌ代官山Ｂ,,13,113,1500035,,,,,,,2025-01-23,1,,,,,マウエナグローバル,0
3575,5011003020814,新規,0,2025-01-23,2025-01-23,ＫｅｎｍａＡＩ合同会社,,合同会社,東京都,渋谷区,恵比寿西２丁目４番８号ウィンド恵比寿ビル８Ｆ,,13,113,1500021,,,,,,,2025-01-23,1,,,,,ケンマエーアイ,0
3584,5011101109419,新規,0,2025-01-23,2025-01-23,日本空間浄化技術株式会社,,株式会社,東京都,新宿区,西新宿６丁目１６番６号新宿タツミビル１００２,,13,104,1600023,,,,,,,2025-01-23,1,,,,,ニホンクウカンジョウカギジュツ,0
3585,5011101110368,新規,0,2025-01-23,2025-01-23,株式会社Ｅｕｐｈｏｒｉａ　Ｆｉｌｍｓ,,株式会社,東京都,新宿区,西新宿３丁目３番１３号西新宿水間ビル２Ｆ,,13,104,1600023,,,,,,,2025-01-23,1,,,,,ユーフォリアフィルムズ,0
3586,5011103015433,新規,0,2025-01-23,2025-01-23,合同会社ＭＨプランニング,,合同会社,東京都,新宿区,西新宿４丁目３９番１号宮沢ハイツ３０３,,13,104,1600023,,,,,,,2025-01-23,1,,,,,エムエイチプランニング,0
3587,5011201026068,新規,0,2025-01-23,2025-01-23,株式会社回響,,株式会社,東京都,中野区,中野１丁目５５番３号フェリスビル３０１,,13,114,1640001,,,,,,,2025-01-23,1,,,,,カイキョウ,0
3595,5012703003174,新規,0,2025-01-23,2025-01-23,合同会社インターネッコ,,合同会社,東京都,東村山市,野口町２丁目３－６シティハイツ小山２－２０３,,13,213,1890022,,,,,,,2025-01-23,1,,,,,インターネッコ,0
3596,5012703003182,新規,0,2025-01-23,2025-01-23,ＨＭひばりヶ丘合同会社,,合同会社,東京都,西東京市,谷戸町３丁目２３－１７,,13,229,1880001,,,,,,,2025-01-23,1,,,,,エイチエムヒバリガオカ,0
3598,5012803003603,新規,0,2025-01-23,2025-01-23,合同会社クリエイトライト,,合同会社,東京都,国分寺市,北町３丁目４番地５４号,,13,214,1850001,,,,,,,2025-01-23,1,,,,,クリエイトライト,0
3599,5012803003611,新規,0,2025-01-23,2025-01-23,合同会社ＣｏｎｔｒａｉＬ,,合同会社,東京都,東大和市,新堀３丁目１－２０,,13,220,2070012,,,,,,,2025-01-23,1,,,,,コントレイル,0
3600,5013101009615,新規,0,2025-01-23,2025-01-23,株式会社ＡＳＴＲＡ,,株式会社,東京都,あきる野市,雨間７５３―１４,,13,228,1970825,,,,,,,2025-01-23,1,,,,,アストラ,0
3723,5020001160951,新規,0,2025-01-23,2025-01-23,株式会社アンダーザツリー,,株式会社,神奈川県,川崎市多摩区,宿河原１丁目１７番８－２１４号,,14,135,2140021,,,,,,,2025-01-23,1,,,,,アンダーザツリー,0
3724,5020001160968,新規,0,2025-01-23,2025-01-23,株式会社エアテクノ,,株式会社,神奈川県,横浜市戸塚区,秋葉町４８７番地２８,,14,110,2450052,,,,,,,2025-01-23,1,,,,,エアテクノ,0
3725,5020001160984,新規,0,2025-01-23,2025-01-23,株式会社ＥＣＬＡＩＲ,,株式会社,神奈川県,横浜市青葉区,美しが丘１丁目１３番地１０吉村ビル１０７号,,14,117,2250002,,,,,,,2025-01-23,1,,,,,エクレール,0
3726,5020001160992,新規,0,2025-01-23,2025-01-23,めめラボ株式会社,,株式会社,神奈川県,横浜市青葉区,柿の木台４５番地４,,14,117,2270048,,,,,,,2025-01-23,1,,,,,メメラボ,0
3727,5020003027604,新規,0,2025-01-23,2025-01-23,合同会社すくすくサポート,,合同会社,神奈川県,川崎市高津区,下野毛１丁目２番地８号２０２号室,,14,134,2130006,,,,,,,2025-01-23,1,,,,,スクスクサポート,0
3736,5030001164472,新規,0,2025-01-23,2025-01-23,Ｋ．ｗｉｓｈ株式会社,,株式会社,埼玉県,戸田市,上戸田２丁目２２番５号,,11,224,3350022,,,,,,,2025-01-23,1,,,,,ケーウィッシュ,0
3743,5030003025920,新規,0,2025-01-23,2025-01-23,安藤インベストメント合同会社,,合同会社,埼玉県,白岡市,上野田１２３４番地,,11,246,3490221,,,,,,,2025-01-23,1,,,,,アンドウインベストメント,0
3745,5040001137122,新規,0,2025-01-23,2025-01-23,株式会社大匠ファーム,,株式会社,千葉県,印旛郡栄町,四ツ谷８番地２,,12,329,2701542,,,,,,,2025-01-23,1,,,,,ダイショウファーム,0
3752,5040003026620,新規,0,2025-01-23,2025-01-23,合同会社Ｄｒｅａｍ　ｂｕｉｌｄｅｒ,,合同会社,千葉県,千葉市中央区,弁天４丁目３－１５Ｔプレイス弁天２０４号,,12,101,2600045,,,,,,,2025-01-23,1,,,,,ドリームビルダー,0
3753,5050001056032,新規,0,2025-01-23,2025-01-23,株式会社ＳＴＡＧＥ　ｕｐ,,株式会社,茨城県,水戸市,泉町１丁目２番１号アーバンスクエア水戸ビル４階,,08,201,3100026,,,,,,,2025-01-23,1,,,,,ステージアップ,0
3754,5050001056073,新規,0,2025-01-23,2025-01-23,株式会社ヒラソル,,株式会社,茨城県,守谷市,松前台３丁目２２番１号,,08,224,3020102,,,,,,,2025-01-23,1,,,,,ヒラソル,0
3757,5060003005399,新規,0,2025-01-23,2025-01-23,合同会社ＡＮＮＡ,,合同会社,栃木県,宇都宮市,小幡２丁目３番１４号コーポつかさ２０２号,,09,201,3200036,,,,,,,2025-01-23,1,,,,,アナ,0
3763,5080003003376,新規,0,2025-01-23,2025-01-23,合同会社Ｂ＆Ｊ,,合同会社,静岡県,静岡市駿河区,池田６２－１－８０５,,22,102,4228005,,,,,,,2025-01-23,1,,,,,ビーアンドジェイ,0
3766,5080101025256,新規,0,2025-01-23,2025-01-23,株式会社Ｒ　ＦＯＵＲＳ,,株式会社,静岡県,御殿場市,印野１７９１番地の４,,22,215,4120008,,,,,,,2025-01-23,1,,,,,,0
3767,5080103003243,新規,0,2025-01-23,2025-01-23,合同会社季望の芽,,合同会社,静岡県,富士市,水戸島元町８番１号,,22,210,4160922,,,,,,,2025-01-23,1,,,,,キボウノメ,0
3769,5100001038231,新規,0,2025-01-23,2025-01-23,ＭＯＲＩＴＡ建設株式会社,,株式会社,長野県,茅野市,玉川２５４６番地６,,20,214,3910011,,,,,,,2025-01-23,1,,,,,モリタケンセツ,0
3774,5100003007944,新規,0,2025-01-23,2025-01-23,合同会社ｓｅｋｉ　ｏｍｏｃｈａ,,合同会社,長野県,北佐久郡軽井沢町,大字長倉５５２０番地２１,,20,321,3890111,,,,,,,2025-01-23,1,,,,,セキオモチャ,0
3775,5100003007960,新規,0,2025-01-23,2025-01-23,合同会社ＢＩＧ　ＴＨＸ,,合同会社,長野県,長野市,大字鶴賀上千歳町１１３７番地２３,,20,201,3800821,,,,,,,2025-01-23,1,,,,,ビッグサンクス,0
3981,5120001272142,新規,0,2025-01-23,2025-01-23,Ｐｅｔｒａｆ　Ｍｅｄｉｃａｌ　Ｅｉｒ株式会社,,株式会社,大阪府,大阪市北区,梅田１丁目１２番１２号東京建物梅田ビル１２階,,27,127,5300001,,,,,,,2025-01-23,1,,,,,ペトラフメディカルエイル,0
3982,5120001272159,新規,0,2025-01-23,2025-01-23,佳盛株式会社,,株式会社,大阪府,大阪市城東区,東中浜１丁目７番２２号,,27,118,5360023,,,,,,,2025-01-23,1,,,,,カモリ,0
3983,5120001272191,新規,0,2025-01-23,2025-01-23,株式会社ワンリバー,,株式会社,大阪府,守口市,八雲北町２丁目２６番２５号,,27,209,5700008,,,,,,,2025-01-23,1,,,,,ワンリバー,0
3985,5120003028427,新規,0,2025-01-23,2025-01-23,プラス・アンド・モアー合同会社,,合同会社,大阪府,大阪市中央区,備後町１丁目４番１０号,,27,128,5410051,,,,,,,2025-01-23,1,,,,,プラスアンドモアー,0
3986,5120003028435,新規,0,2025-01-23,2025-01-23,合同会社ＬＩＮＯ,,合同会社,大阪府,守口市,下島町６－１２,,27,209,5700007,,,,,,,2025-01-23,1,,,,,リノ,0
4103,5130003010152,新規,0,2025-01-23,2025-01-23,合同会社Ｓａｕｃｙ,,合同会社,京都府,京都市北区,衣笠北荒見町１１番地１バルコ衣笠４０７,,26,101,6038316,,,,,,,2025-01-23,1,,,,,サシィー,0
4110,5140001137153,新規,0,2025-01-23,2025-01-23,ＧＭＴジャパン株式会社,,株式会社,兵庫県,神戸市灘区,大土平町１丁目４番１１－７０５号,,28,102,6570014,,,,,,,2025-01-23,1,,,,,ジーエムティージャパン,0
4112,5150003003476,新規,0,2025-01-23,2025-01-23,合同会社フットパス,,合同会社,奈良県,奈良市,西大寺新町２丁目７番９－２号,,29,201,6310815,,,,,,,2025-01-23,1,,,,,フットパス,0
4161,5160005011369,新規,0,2025-01-23,2025-01-23,特定非営利活動法人きずな,,その他の設立登記法人,滋賀県,栗東市,目川１０７０番地シャトルハルタ１０４号,,25,208,5203013,,,,,,,2025-01-23,1,,,,,キズナ,0
4206,5180001165092,新規,0,2025-01-23,2025-01-23,ＴＵＭＥＨ　ＨＯＬＤＩＮＧＳ株式会社,,株式会社,愛知県,名古屋市緑区,作の山町４番地,,23,114,4580038,,,,,,,2025-01-23,1,,,,,トゥーメホールディングス,0
4207,5180001165126,新規,0,2025-01-23,2025-01-23,ＴＯＭＯＲＲＯＷ　ＳＨＩＰ株式会社,,株式会社,愛知県,名古屋市中村区,名駅南４丁目１２番１７号,,23,105,4500003,,,,,,,2025-01-23,1,,,,,トゥモローシップ,0
4210,5180003027893,新規,0,2025-01-23,2025-01-23,合同会社Ｔｋｖ,,合同会社,愛知県,小牧市,桜井本町５３番地,,23,219,4850043,,,,,,,2025-01-23,1,,,,,ティーケイブイ,0
4215,5190001031954,新規,0,2025-01-23,2025-01-23,ＨＩＫＡＲＩ東海株式会社,,株式会社,三重県,四日市市,西浜田町１０番１号西浜田ビル１階南側,,24,202,5100073,,,,,,,2025-01-23,1,,,,,ヒカリトウカイ,0
4218,5190003004917,新規,0,2025-01-23,2025-01-23,ハーモニー農園合同会社,,合同会社,三重県,桑名市,大字上深谷部１６６番地,,24,205,5110809,,,,,,,2025-01-23,1,,,,,ハーモニーノウエン,0
4224,5200003006671,新規,0,2025-01-23,2025-01-23,合同会社ＬＩＢＥＲＴＹ,,合同会社,岐阜県,羽島市,舟橋町本町５丁目１,,21,209,5016303,,,,,,,2025-01-23,1,,,,,リバティ,0
4225,5200005013708,新規,0,2025-01-23,2025-01-23,一般社団法人ミライの住宅,,その他の設立登記法人,岐阜県,岐阜市,上芥見４３４番地,,21,201,5013115,,,,,,,2025-01-23,1,,,,,ミライノジュウタク,0
4232,5240001064420,新規,0,2025-01-23,2025-01-23,株式会社ＴＬＣＣ,,株式会社,広島県,広島市佐伯区,利松１丁目１８番９号,,34,108,7315106,,,,,,,2025-01-23,1,,,,,ティーエルシーシー,0
4300,5290001108701,新規,0,2025-01-23,2025-01-23,株式会社Ｉ’ｓ工業,,株式会社,福岡県,那珂川市,片縄北７丁目４番２２号,,40,231,8111203,,,,,,,2025-01-23,1,,,,,アイズコウギョウ,0
4312,5310001019425,新規,0,2025-01-23,2025-01-23,株式会社ヨシマサ,,株式会社,長崎県,佐世保市,皆瀬町２番１４号,,42,202,8570144,,,,,,,2025-01-23,1,,,,,ヨシマサ,0
4316,5360003014618,新規,0,2025-01-23,2025-01-23,合同会社Ｍａｌａｎｕｉ,,合同会社,沖縄県,うるま市,字宇堅５６８番地２,,47,213,9042211,,,,,,,2025-01-23,1,,,,,マラヌイ,0
4322,5400001016917,新規,0,2025-01-23,2025-01-23,株式会社バンセイ,,株式会社,岩手県,盛岡市,志家町２番２５Ｋプラッツ６０５号,,03,201,0200883,,,,,,,2025-01-23,1,,,,,バンセイ,0
4326,5400005008464,新規,0,2025-01-23,2025-01-23,特定非営利活動法人宮沢賢治・花巻市民の会,,その他の設立登記法人,岩手県,花巻市,豊沢町２－１８,,03,205,0250089,,,,,,,2025-01-23,1,,,,,ミヤザワケンジハナマキシミンノカイ,0
4336,5430001093516,新規,0,2025-01-23,2025-01-23,株式会社りぷらホールディングス,,株式会社,北海道,札幌市北区,北三十条西７丁目２番２７号,,01,102,0010030,,,,,,,2025-01-23,1,,,,,リプラホールディングス,0
4337,5440003001657,新規,0,2025-01-23,2025-01-23,合同会社ＹＫ　Ｆｏｏｄ　ｃｏｎｎｅｃｔ,,合同会社,北海道,函館市,日吉町３丁目７番１７号,,01,202,0410841,,,,,,,2025-01-23,1,,,,,ワイケーフードコネクト,0
4433,5480001012719,新規,0,2025-01-23,2025-01-23,株式会社ＦＳＮ,,株式会社,徳島県,吉野川市,山川町川田八幡１８５番地１,,36,205,7793405,,,,,,,2025-01-23,1,,,,,エフエスエヌ,0
4436,5500002024504,新規,0,2025-01-23,2025-01-23,有限会社上松組,,有限会社,愛媛県,松山市,天山町１２６番地の１,,38,201,7900951,,,,,,,2025-01-23,1,,,,,ウエマツグミ,0
4452,6010001251511,新規,0,2025-01-23,2025-01-23,株式会社ＣｒｅｓｔＬａｂ,,株式会社,東京都,千代田区,神田和泉町１番地６－１６ヤマトビル４０５,,13,101,1010024,,,,,,,2025-01-23,1,,,,,クレストラボ,0
4453,6010001251643,新規,0,2025-01-23,2025-01-23,株式会社ＢＥ　Ａｐｅｘ,,株式会社,東京都,中央区,銀座１丁目２２番１１号銀座大竹ビジデンス２Ｆ,,13,102,1040061,,,,,,,2025-01-23,1,,,,,ビーアペックス,0
4458,6010005039440,新規,0,2025-01-23,2025-01-23,一般社団法人日管連管理組合サポートセンター,,その他の設立登記法人,東京都,文京区,春日２丁目１３番１号,,13,105,1120003,,,,,,,2025-01-23,1,,,,,ニチカンレンカンリクミアイサポートセンター,0
4466,6010403034209,新規,0,2025-01-23,2025-01-23,フォレスト合同会社,,合同会社,東京都,港区,浜松町１丁目２０番１０号ライオネス浜松町５０６号室,,13,103,1050013,,,,,,,2025-01-23,1,,,,,フォレスト,0
4475,6010803005255,新規,0,2025-01-23,2025-01-23,合同会社ララシェルキッズ,,合同会社,東京都,大田区,石川町２丁目１６番８－１０５号,,13,111,1450061,,,,,,,2025-01-23,1,,,,,ララシェルキッズ,0
4478,6010901056679,新規,0,2025-01-23,2025-01-23,株式会社ＫＥＮＢＯ,,株式会社,東京都,世田谷区,世田谷２丁目２１番１１－５０３号,,13,112,1540017,,,,,,,2025-01-23,1,,,,,ケンボー,0
4479,6010901056687,新規,0,2025-01-23,2025-01-23,株式会社１１７,,株式会社,東京都,世田谷区,玉堤１丁目１４番１５号,,13,112,1580087,,,,,,,2025-01-23,1,,,,,イイナ,0
4488,6011001167301,新規,0,2025-01-23,2025-01-23,株式会社トライズ,,株式会社,東京都,渋谷区,神南１丁目１０番５号,,13,113,1500041,,,,,,,2025-01-23,1,,,,,トライズ,0
4489,6011001167318,新規,0,2025-01-23,2025-01-23,株式会社ＰＬＵＴＯ,,株式会社,東京都,渋谷区,神宮前６丁目３５番３号コープオリンピア６１０,,13,113,1500001,,,,,,,2025-01-23,1,,,,,プルート,0
4491,6011003020697,新規,0,2025-01-23,2025-01-23,合同会社Ｇｕｔ　Ｂｕｌｌ,,合同会社,東京都,渋谷区,道玄坂１丁目１０番８号渋谷道玄坂東急ビル２Ｆ－Ｃ,,13,113,1500043,,,,,,,2025-01-23,1,,,,,ガットブル,0
4492,6011003020805,新規,0,2025-01-23,2025-01-23,合同会社Ａｌｌｉｅｄ,,合同会社,東京都,渋谷区,渋谷２丁目１９－１５宮益坂ビルディング６０９,,13,113,1500002,,,,,,,2025-01-23,1,,,,,アライド,0
4493,6011005010829,新規,0,2025-01-23,2025-01-23,原宿コーポ別館管理組合法人,,その他の設立登記法人,東京都,渋谷区,神宮前１丁目１０番３４号原宿コーポ別館内,,13,113,1500001,,,,,,,2025-01-23,1,,,,,ハラジュクコーポベッカン,0
4495,6011101110219,新規,0,2025-01-23,2025-01-23,株式会社ベネッセスタイルケアグループ,,株式会社,東京都,新宿区,西新宿２丁目３番１号新宿モノリスビル,,13,104,1600023,,,,,,,2025-01-23,1,,,,,ベネッセスタイルケアグループ,0
4496,6011101110342,新規,0,2025-01-23,2025-01-23,ＦＳエッジ株式会社,,株式会社,東京都,新宿区,西新宿３丁目３番１３号西新宿水間ビル２Ｆ,,13,104,1600023,,,,,,,2025-01-23,1,,,,,エフエスエッジ,0
4497,6011103015432,新規,0,2025-01-23,2025-01-23,関数合同会社,,合同会社,東京都,新宿区,新宿７丁目１２番１号新宿平和ビル１階,,13,104,1600022,,,,,,,2025-01-23,1,,,,,カンスウ,0
4503,6012403006930,新規,0,2025-01-23,2025-01-23,合同会社ＴＭＤＴ,,合同会社,東京都,武蔵野市,吉祥寺本町２丁目２０番５号ファミール武蔵野１０３,,13,203,1800004,,,,,,,2025-01-23,1,,,,,ティーエムディーティー,0
4504,6012701018669,新規,0,2025-01-23,2025-01-23,株式会社ルミナス・エッジ,,株式会社,東京都,東村山市,美住町１丁目１８番地６５ウィングヒルズ久米川Ｐ２、５０３,,13,213,1890023,,,,,,,2025-01-23,1,,,,,ルミナスエッジ,0
4505,6012801023701,新規,0,2025-01-23,2025-01-23,株式会社フォロープラス,,株式会社,東京都,日野市,万願寺１丁目９番地の１５,,13,212,1910024,,,,,,,2025-01-23,1,,,,,フォロープラス,0
4614,6020001160950,新規,0,2025-01-23,2025-01-23,株式会社ＢＳＴ,,株式会社,神奈川県,横浜市西区,高島２丁目１１－２,,14,103,2200011,,,,,,,2025-01-23,1,,,,,,0
4615,6020001160975,新規,0,2025-01-23,2025-01-23,株式会社ロンエトワール,,株式会社,神奈川県,横浜市西区,久保町１９番１８号,,14,103,2200061,,,,,,,2025-01-23,1,,,,,ロンエトワール,0
4616,6020001160991,新規,0,2025-01-23,2025-01-23,株式会社シンフォルテ,,株式会社,神奈川県,横浜市西区,北幸２丁目１０番４８号むつみビル３階,,14,103,2200004,,,,,,,2025-01-23,1,,,,,シンフォルテ,0
4617,6020001161098,新規,0,2025-01-23,2025-01-23,株式会社ＬＥＲホールディングス,,株式会社,神奈川県,横浜市南区,共進町２丁目５１番地,,14,105,2320015,,,,,,,2025-01-23,1,,,,,エルイーアールホールディングス,0
4618,6020003027553,新規,0,2025-01-23,2025-01-23,合同会社ＣＲＯＳＳ,,合同会社,神奈川県,横浜市緑区,小山町４０３番地８,,14,113,2260023,,,,,,,2025-01-23,1,,,,,クロス,0
4619,6020003027603,新規,0,2025-01-23,2025-01-23,エレメント合同会社,,合同会社,神奈川県,横浜市保土ケ谷区,法泉３丁目２７番２３－３号,,14,106,2400032,,,,,,,2025-01-23,1,,,,,エレメント,0
4621,6020005016686,新規,0,2025-01-23,2025-01-23,一般社団法人ＶＥＲＤＥ．Ｓ．Ｃ,,その他の設立登記法人,神奈川県,川崎市宮前区,潮見台２番２９－５０５号,,14,136,2160013,,,,,,,2025-01-23,1,,,,,ベルデエスシー,0
4625,6021001084248,新規,0,2025-01-23,2025-01-23,ツクリテ株式会社,,株式会社,神奈川県,小田原市,久野８８３番地,,14,206,2500055,,,,,,,2025-01-23,1,,,,,ツクリテ,0
4626,6021003015498,新規,0,2025-01-23,2025-01-23,合同会社遊華,,合同会社,神奈川県,相模原市中央区,上溝２２１８番地１６,,14,152,2520243,,,,,,,2025-01-23,1,,,,,ユウカ,0
4634,6030001164488,新規,0,2025-01-23,2025-01-23,株式会社富士建産業,,株式会社,埼玉県,狭山市,笹井１丁目１１番１２－１０２号,,11,215,3501327,,,,,,,2025-01-23,1,,,,,フジケンサンギョウ,0
4635,6030001164505,新規,0,2025-01-23,2025-01-23,株式会社太刀,,株式会社,埼玉県,和光市,丸山台１丁目２－７－９０１,,11,229,3510112,,,,,,,2025-01-23,1,,,,,タチ,0
4636,6030001164554,新規,0,2025-01-23,2025-01-23,株式会社ＢＵＢ　ＣＯＮＳＵＬＴＩＮＧ,,株式会社,埼玉県,さいたま市浦和区,常盤６丁目２３番９－１号,,11,107,3300061,,,,,,,2025-01-23,1,,,,,ビーユービーコンサルティング,0
4638,6030003025820,新規,0,2025-01-23,2025-01-23,むさし企画合同会社,,合同会社,埼玉県,さいたま市緑区,美園３丁目２４－１６ウィズプラス浦和美園ウエストＥ棟２０５,,11,109,3360967,,,,,,,2025-01-23,1,,,,,ムサシキカク,0
4639,6030003025903,新規,0,2025-01-23,2025-01-23,合同会社ハロースマイル,,合同会社,埼玉県,春日部市,中央７丁目１０番地２８第７アオイビル３０２,,11,214,3440067,,,,,,,2025-01-23,1,,,,,ハロースマイル,0
4642,6040001137121,新規,0,2025-01-23,2025-01-23,Ｊｅｔ　Ａｌｌｉａｎｃｅ株式会社,,株式会社,千葉県,印旛郡栄町,麻生２１７番地,,12,329,2701504,,,,,,,2025-01-23,1,,,,,ジェットアライアンス,0
4646,6040003026669,新規,0,2025-01-23,2025-01-23,合同会社ベンテックス,,合同会社,千葉県,市原市,ちはら台東９丁目１１番地４号メープルスクウェア２０５,,12,219,2900141,,,,,,,2025-01-23,1,,,,,,0
4647,6040005022641,新規,0,2025-01-23,2025-01-23,特定非営利活動法人未来の学びと地域防災アカデミー,,その他の設立登記法人,千葉県,市川市,原木２５２６番地３２,,12,203,2720004,,,,,,,2025-01-23,1,,,,,,0
4662,6080101025263,新規,0,2025-01-23,2025-01-23,長尾創業株式会社,,株式会社,静岡県,三島市,芝本町１２番６号ＭｉｓｈｉｍａＴｒｕｓｔＢｕｉｌｄｉｎｇ,,22,206,4110857,,,,,,,2025-01-23,1,,,,,ナガオソウギョウ,0
4664,6100001038222,新規,0,2025-01-23,2025-01-23,株式会社ａＬｄｅ　ｆａｒｍ,,株式会社,長野県,伊那市,ますみヶ丘８１８番地１３,,20,209,3960027,,,,,,,2025-01-23,1,,,,,アルデファーム,0
4665,6100001038230,新規,0,2025-01-23,2025-01-23,甲子花苑株式会社,,株式会社,長野県,茅野市,泉野２３１３番地２,,20,214,3910214,,,,,,,2025-01-23,1,,,,,コウシカエン,0
4869,6120001271738,新規,0,2025-01-23,2025-01-23,株式会社Ｎｏｖａｒｉｓｅ,,株式会社,大阪府,大阪市西区,北堀江１丁目１４番２４号ラポール四ツ橋ビルディング２０５号室,,27,106,5500014,,,,,,,2025-01-23,1,,,,,ノバライズ,0
4870,6120001272133,新規,0,2025-01-23,2025-01-23,株式会社エフアールエスシステム,,株式会社,大阪府,交野市,星田山手２丁目３番１０号,,27,230,5760014,,,,,,,2025-01-23,1,,,,,エフアールエスシステム,0
4871,6120001272141,新規,0,2025-01-23,2025-01-23,株式会社Ｋ‐Ｇｒｏｗｔｈ,,株式会社,大阪府,大阪市大正区,平尾２丁目２０番１９号,,27,108,5510012,,,,,,,2025-01-23,1,,,,,ケーグロース,0
4872,6120001272174,新規,0,2025-01-23,2025-01-23,株式会社メタファー,,株式会社,大阪府,大阪市北区,野崎町１番２６号豊ビル３０２,,27,127,5300055,,,,,,,2025-01-23,1,,,,,メタファー,0
4873,6120001272190,新規,0,2025-01-23,2025-01-23,隆盛株式会社,,株式会社,大阪府,大阪市淀川区,木川西１丁目４番１９－２０３号,,27,123,5320013,,,,,,,2025-01-23,1,,,,,リュウセイ,0
4874,6120001272224,新規,0,2025-01-23,2025-01-23,株式会社ファイナンシャルリサーチ,,株式会社,大阪府,大阪市中央区,安土町２丁目５番５号,,27,128,5410052,,,,,,,2025-01-23,1,,,,,ファイナンシャルリサーチ,0
4877,6120003028442,新規,0,2025-01-23,2025-01-23,ＥＮＩＳＨＩ合同会社,,合同会社,大阪府,大阪市西区,江戸堀２丁目１番１号地下１階,,27,106,5500002,,,,,,,2025-01-23,1,,,,,エニシ,0
4885,6120901050332,新規,0,2025-01-23,2025-01-23,株式会社シークグリー,,株式会社,大阪府,豊中市,曽根東町２丁目１２番１３号,,27,203,5610802,,,,,,,2025-01-23,1,,,,,シークグリー,0
4886,6120903005516,新規,0,2025-01-23,2025-01-23,エムエフフード合同会社,,合同会社,大阪府,吹田市,春日１丁目４番１３号,,27,205,5650853,,,,,,,2025-01-23,1,,,,,エムエフフード,0
4984,6130001078835,新規,0,2025-01-23,2025-01-23,株式会社Ｐａｉｎｔｅｄ　Ａｒｃｈ,,株式会社,京都府,京都市西京区,桂艮町１７－２９ジョイフル北村１０３,,26,111,6158083,,,,,,,2025-01-23,1,,,,,ペインティッドアーク,0
4989,6140001137152,新規,0,2025-01-23,2025-01-23,株式会社レベルナール,,株式会社,兵庫県,神戸市北区,鈴蘭台東町３丁目３番３７号,,28,109,6511112,,,,,,,2025-01-23,1,,,,,レベルナール,0
4994,6140005027358,新規,0,2025-01-23,2025-01-23,特定非営利活動法人ＴＥＲＡＫＯＹＡ,,その他の設立登記法人,兵庫県,三田市,けやき台５丁目２５番地１８２,,28,219,6691321,,,,,,,2025-01-23,1,,,,,テラコヤ,0
5121,6200001043360,新規,0,2025-01-23,2025-01-23,株式会社Ｔｅｎｓｉｎ,,株式会社,岐阜県,岐阜市,都通３丁目１３番地,,21,201,5008309,,,,,,,2025-01-23,1,,,,,テンシン,0
5128,6240001064428,新規,0,2025-01-23,2025-01-23,株式会社ｅｉｇｈｔ,,株式会社,広島県,東広島市,西条町吉行６０５番５,,34,212,7390002,,,,,,,2025-01-23,1,,,,,エイト,0
5179,6280003001912,新規,0,2025-01-23,2025-01-23,合同会社三澤左官,,合同会社,島根県,仁多郡奥出雲町,八代２８２番地１,,32,343,6991433,,,,,,,2025-01-23,1,,,,,ミサワサカン,0
5181,6290001108700,新規,0,2025-01-23,2025-01-23,株式会社木ここち建築工房,,株式会社,福岡県,八女市,星野村６３０６番地,,40,210,8340201,,,,,,,2025-01-23,1,,,,,キココチケンチクコウボウ,0
5278,6480001012718,新規,0,2025-01-23,2025-01-23,株式会社ＨＩＲＡＹＡＭＡ,,株式会社,徳島県,徳島市,大松町榎原外７７番地の１０,,36,201,7708022,,,,,,,2025-01-23,1,,,,,ヒラヤマ,0
5290,7010001251642,新規,0,2025-01-23,2025-01-23,株式会社ブレンディクス,,株式会社,東京都,千代田区,神田錦町３丁目１１番地,,13,101,1010054,,,,,,,2025-01-23,1,,,,,ブレンディクス,0
5291,7010001251659,新規,0,2025-01-23,2025-01-23,株式会社ＮＧＣ,,株式会社,東京都,千代田区,神田小川町３丁目１４番３－２０４号,,13,101,1010052,,,,,,,2025-01-23,1,,,,,エヌジーシー,0
5300,7010405023943,新規,0,2025-01-23,2025-01-23,一般社団法人在日ベトナムＤＸ協会,,その他の設立登記法人,東京都,港区,芝公園１丁目７番６号ＫＤＸ浜松町プレイス１０階,,13,103,1050011,,,,,,,2025-01-23,1,,,,,ザイニチベトナムディーエックスキョウカイ,0
5304,7010603011337,新規,0,2025-01-23,2025-01-23,合同会社ＴＡＧＬＯ,,合同会社,東京都,江東区,大島３丁目８―７―１３１２,,13,108,1360072,,,,,,,2025-01-23,1,,,,,タグロ,0
5307,7010801035781,新規,0,2025-01-23,2025-01-23,株式会社ｎａｎａｉｒｏ,,株式会社,東京都,大田区,新蒲田３丁目２３番１８号,,13,111,1440054,,,,,,,2025-01-23,1,,,,,ナナイロ,0
5314,7011001167283,新規,0,2025-01-23,2025-01-23,ＳｏｌｖｅＸ　Ｃａｐｉｔａｌ　Ｐａｒｔｎｅｒｓ株式会社,,株式会社,東京都,目黒区,柿の木坂１丁目３０番１７号モナークマンション都立大５０２号室,,13,110,1520022,,,,,,,2025-01-23,1,,,,,ソルベックスキャピタルパートナーズ,0
5315,7011001167309,新規,0,2025-01-23,2025-01-23,株式会社ＢｅＬｉｇｈｔ,,株式会社,東京都,目黒区,南２丁目３－１サウスウェルズ１０２,,13,110,1520013,,,,,,,2025-01-23,1,,,,,ビーライト,0
5316,7011001167317,新規,0,2025-01-23,2025-01-23,株式会社エス,,株式会社,東京都,渋谷区,鶯谷町５－７松本ビル４０３,,13,113,1500032,,,,,,,2025-01-23,1,,,,,エス,0
5317,7011003020804,新規,0,2025-01-23,2025-01-23,合同会社インフィニア,,合同会社,東京都,渋谷区,代々木４丁目１１番８号茶花ハイツ１０３,,13,113,1510053,,,,,,,2025-01-23,1,,,,,インフィニア,0
5323,7011301030315,新規,0,2025-01-23,2025-01-23,株式会社Ｐａｒｔａｇｅｒ,,株式会社,東京都,杉並区,浜田山３丁目２６番２４号ハウス崔綜１３３,,13,115,1680065,,,,,,,2025-01-23,1,,,,,パータジェ,0
5329,7012301014233,新規,0,2025-01-23,2025-01-23,ＲＣＭ株式会社,,株式会社,東京都,町田市,根岸１丁目９番地５,,13,209,1940038,,,,,,,2025-01-23,1,,,,,アールシーエム,0
5333,7012801023709,新規,0,2025-01-23,2025-01-23,株式会社サクラテック,,株式会社,東京都,国立市,西１丁目１０番地２４,,13,215,1860005,,,,,,,2025-01-23,1,,,,,サクラテック,0
5334,7012803003601,新規,0,2025-01-23,2025-01-23,韜文合同会社,,合同会社,東京都,立川市,砂川町８丁目６１番地の１藤和シティホームズ武蔵砂川３０５号,,13,202,1900031,,,,,,,2025-01-23,1,,,,,トウブン,0
5451,7013301053659,新規,0,2025-01-23,2025-01-23,株式会社Ｈａｒｍｏｎｉｕｍ,,株式会社,東京都,豊島区,池袋２丁目３６番１号ＢＩＺｃｏｍｆｏｒｔ池袋西口,,13,116,1710014,,,,,,,2025-01-23,1,,,,,ハルモニウム,0
5458,7020001160990,新規,0,2025-01-23,2025-01-23,バリュードラフト株式会社,,株式会社,神奈川県,横浜市西区,北幸２丁目１０番４８号むつみビル３階,,14,103,2200004,,,,,,,2025-01-23,1,,,,,バリュードラフト,0
5459,7020001160999,新規,0,2025-01-23,2025-01-23,株式会社ＩＭＰＯＳＳＩＢＬＥ　ＪＰ,,株式会社,神奈川県,横浜市中区,本牧大里町３０－９,,14,104,2310823,,,,,,,2025-01-23,1,,,,,インポッシブルジャパン,0
5460,7020001161097,新規,0,2025-01-23,2025-01-23,横浜倉庫ホールディングス株式会社,,株式会社,神奈川県,横浜市神奈川区,東神奈川２丁目４８番地２,,14,102,2210044,,,,,,,2025-01-23,1,,,,,ヨコハマソウコホールディングス,0
5463,7020003027511,新規,0,2025-01-23,2025-01-23,合同会社Ｙｕｎｉｔｅ,,合同会社,神奈川県,川崎市高津区,下作延６丁目７－４４,,14,134,2130033,,,,,,,2025-01-23,1,,,,,ユナイト,0
5464,7020003027610,新規,0,2025-01-23,2025-01-23,合同会社Ｗｉｌｌｏｗ　ｓｔｙｌｅ,,合同会社,神奈川県,横浜市瀬谷区,瀬谷４丁目８番地１３川口ビル第１マンション２０６,,14,114,2460031,,,,,,,2025-01-23,1,,,,,ウィロウスタイル,0
5465,7020005016685,新規,0,2025-01-23,2025-01-23,テイクヒルズ司法書士法人,,その他の設立登記法人,神奈川県,横浜市西区,みなとみらい２丁目２番１号横浜ランドマークタワー３０階,,14,103,2200012,,,,,,,2025-01-23,1,,,,,テイクヒルズ,0
5474,7030001164487,新規,0,2025-01-23,2025-01-23,株式会社ＨＭＲ,,株式会社,埼玉県,川口市,元郷５丁目３番１０号１Ｆ,,11,203,3320011,,,,,,,2025-01-23,1,,,,,エイチエムアール,0
5475,7030001164495,新規,0,2025-01-23,2025-01-23,株式会社平賀工業,,株式会社,埼玉県,越谷市,赤山町３丁目８４番地７,,11,222,3430807,,,,,,,2025-01-23,1,,,,,ヒラガコウギョウ,0
5476,7030001164504,新規,0,2025-01-23,2025-01-23,株式会社ＹＤＫ,,株式会社,埼玉県,さいたま市緑区,大字中尾１８３４番地１,,11,109,3360932,,,,,,,2025-01-23,1,,,,,ワイディーケー,0
5477,7030001164512,新規,0,2025-01-23,2025-01-23,株式会社ＲＥＭＯＶＥ,,株式会社,埼玉県,所沢市,東所沢３丁目３６番地の４６,,11,208,3590021,,,,,,,2025-01-23,1,,,,,リムーブ,0
5482,7030003025935,新規,0,2025-01-23,2025-01-23,合同会社ミドルロード,,合同会社,埼玉県,さいたま市浦和区,瀬ヶ崎２丁目６番５号,,11,107,3300044,,,,,,,2025-01-23,1,,,,,ミドルロード,0
5487,7040001137070,新規,0,2025-01-23,2025-01-23,株式会社江原将会,,株式会社,千葉県,白井市,根７２０番地,,12,232,2701431,,,,,,,2025-01-23,1,,,,,エハラショウカイ,0
5488,7040001137120,新規,0,2025-01-23,2025-01-23,株式会社クローバー,,株式会社,千葉県,山武市,成東７４４番１,,12,237,2891326,,,,,,,2025-01-23,1,,,,,クローバー,0
5493,7040003026676,新規,0,2025-01-23,2025-01-23,合同会社エルプラス,,合同会社,千葉県,木更津市,大和１丁目９‐５魁ビル３Ｆ右側,,12,206,2920805,,,,,,,2025-01-23,1,,,,,エルプラス,0
5498,7050003008962,新規,0,2025-01-23,2025-01-23,合同会社Ｃｈｕｎ　Ｃｈｕｎ　Ｆａｃｔｏｒｙ,,合同会社,茨城県,土浦市,神立中央２丁目１５番５号宮本ハイツ２０２,,08,203,3000011,,,,,,,2025-01-23,1,,,,,チュンチュンファクトリー,0
5507,7080101025270,新規,0,2025-01-23,2025-01-23,株式会社聖晃,,株式会社,静岡県,富士市,宮島１４４０番地の４,,22,210,4160945,,,,,,,2025-01-23,1,,,,,セイコウ,0
5514,7100001038213,新規,0,2025-01-23,2025-01-23,株式会社ＩＮＴＯ‐ＡＲＣＳ,,株式会社,長野県,南佐久郡南牧村,大字板橋６２番地３８,,20,305,3841304,,,,,,,2025-01-23,1,,,,,イントゥアークス,0
5712,7120001272124,新規,0,2025-01-23,2025-01-23,ＪｏｅＢｏｎ株式会社,,株式会社,大阪府,大阪市淀川区,宮原２丁目１２－１４－９０９,,27,123,5320003,,,,,,,2025-01-23,1,,,,,ジョウボン,0
5713,7120001272149,新規,0,2025-01-23,2025-01-23,株式会社Ｔ＆Ｔネクサス,,株式会社,大阪府,大阪市北区,本庄東１丁目２３番２－１５０５号,,27,127,5310074,,,,,,,2025-01-23,1,,,,,ティーアンドティーネクサス,0
5717,7120003028425,新規,0,2025-01-23,2025-01-23,ＡｉＴＥＣＨ合同会社,,合同会社,大阪府,大阪市福島区,福島８丁目１６番２４－２０５号,,27,103,5530003,,,,,,,2025-01-23,1,,,,,アイテック,0
5724,7120901050331,新規,0,2025-01-23,2025-01-23,株式会社だいまる屋,,株式会社,大阪府,豊中市,曽根東町６丁目２番５号,,27,203,5610802,,,,,,,2025-01-23,1,,,,,ダイマルヤ,0
5725,7120905006676,新規,0,2025-01-23,2025-01-23,医療法人かめい内科消化器クリニック,,その他の設立登記法人,大阪府,茨木市,西駅前町６番２号クリニックステーション茨木駅前２階１号室,,27,211,5670032,,,,,,,2025-01-23,1,,,,,カメイナイカショウカキクリニック,0
5820,7122001038835,新規,0,2025-01-23,2025-01-23,株式会社小山金属,,株式会社,大阪府,東大阪市,柏田西２丁目１８番９号,,27,227,5770835,,,,,,,2025-01-23,1,,,,,コヤマキンゾク,0
5825,7122003003102,新規,0,2025-01-23,2025-01-23,徳輝観光合同会社,,合同会社,大阪府,八尾市,千塚２丁目１４４番１号,00137745,27,212,5810862,,,,,,,2025-01-23,1,,,,,ノリキカンコウ,0
5830,7130003010150,新規,0,2025-01-23,2025-01-23,合同会社ＧＯＹＵ,,合同会社,京都府,京都市北区,衣笠街道町１３番地,,26,101,6038372,,,,,,,2025-01-23,1,,,,,ゴユ,0
5832,7140001137077,新規,0,2025-01-23,2025-01-23,株式会社エスティー・ハロー,,株式会社,兵庫県,姫路市,南駅前町８７番地リンクスビル１Ｆ,,28,201,6700962,,,,,,,2025-01-23,1,,,,,エスティーハロー,0
5833,7140001137119,新規,0,2025-01-23,2025-01-23,ｂｅＫＯＵＥ株式会社,,株式会社,兵庫県,神戸市中央区,磯辺通１丁目１番１８号カサベラ国際プラザビル７０７号室,,28,110,6510084,,,,,,,2025-01-23,1,,,,,ビーコウエ,0
5837,7150001027830,新規,0,2025-01-23,2025-01-23,株式会社トータルｗｏｒｋ,,株式会社,奈良県,香芝市,西真美２丁目２２番地７,,29,210,6390222,,,,,,,2025-01-23,1,,,,,トータルワーク,0
5949,7180001165116,新規,0,2025-01-23,2025-01-23,株式会社ダイレクト,,株式会社,愛知県,名古屋市北区,水切町７丁目１２１番１３号水切浅田ビル２０３号,,23,103,4620833,,,,,,,2025-01-23,1,,,,,ダイレクト,0
5954,7180003027842,新規,0,2025-01-23,2025-01-23,合同会社ＤＡＲＵＭＡ,,合同会社,愛知県,愛知郡東郷町,清水４丁目７番地２,,23,302,4700165,,,,,,,2025-01-23,1,,,,,ダルマ,0
5967,7240001064419,新規,0,2025-01-23,2025-01-23,イリゼメンテナンス株式会社,,株式会社,広島県,呉市,広名田２丁目１６番８号,,34,202,7370132,,,,,,,2025-01-23,1,,,,,イリゼメンテナンス,0
5969,7240003007029,新規,0,2025-01-23,2025-01-23,ＡＪＹ‐ＴＡ合同会社,,合同会社,広島県,呉市,広本町１丁目７番２号,,34,202,7370125,,,,,,,2025-01-23,1,,,,,アジュータ,0
6042,7280003001911,新規,0,2025-01-23,2025-01-23,合同会社Ｈ＆Ｍアセント,,合同会社,島根県,出雲市,今市町１２６５番地,,32,203,6930001,,,,,,,2025-01-23,1,,,,,エイチアンドエムアセント,0
6049,7290003016322,新規,0,2025-01-23,2025-01-23,ゆうりうた合同会社,,合同会社,福岡県,筑後市,大字徳久６０番地８,,40,211,8330004,,,,,,,2025-01-23,1,,,,,ユウリウタ,0
6050,7290005019620,新規,0,2025-01-23,2025-01-23,医療法人Ｔｅｔｏｔｅ,,その他の設立登記法人,福岡県,久留米市,諏訪野町２７７２番地１,,40,203,8300037,,,,,,,2025-01-23,1,,,,,テトテ,0
6051,7300001014053,新規,0,2025-01-23,2025-01-23,株式会社フルゥード,,株式会社,佐賀県,佐賀市,兵庫北２丁目１２番１４号,,41,201,8490919,,,,,,,2025-01-23,1,,,,,フルゥード,0
6057,7340003004718,新規,0,2025-01-23,2025-01-23,合同会社ここりん,,合同会社,鹿児島県,薩摩川内市,平佐町１０１１番地１,,46,215,8950012,,,,,,,2025-01-23,1,,,,,ココリン,0
6059,7350001019378,新規,0,2025-01-23,2025-01-23,株式会社祐建輸送,,株式会社,宮崎県,宮崎市,佐土原町西上那珂２３５番地,,45,201,8800302,,,,,,,2025-01-23,1,,,,,ユウケンユソウ,0
6066,7420003003059,新規,0,2025-01-23,2025-01-23,合同会社前田農園,,合同会社,青森県,南津軽郡藤崎町,大字藤崎字四本松３８番地１,,02,361,0383802,,,,,,,2025-01-23,1,,,,,マエダノウエン,0
6067,7420005007941,新規,0,2025-01-23,2025-01-23,医療法人ＷＡＴＡＮＡＢＥ　ＤＥＮＴＡＬ　ＣＬＩＮＩＣ,,その他の設立登記法人,青森県,八戸市,田向２丁目６番１０号,,02,203,0310011,,,,,,,2025-01-23,1,,,,,ワタナベデンタルクリニック,0
6072,7430005015142,新規,0,2025-01-23,2025-01-23,一般社団法人北海道ガストロノミックサイエンス研究会,,その他の設立登記法人,北海道,札幌市中央区,北八条西１３丁目２８番地２１エア・ウォーターの森２１２号室,,01,101,0600008,,,,,,,2025-01-23,1,,,,,ホッカイドウガストロノミックサイエンスケンキュウカイ,0
6152,7500001026078,新規,0,2025-01-23,2025-01-23,株式会社モリ商,,株式会社,愛媛県,四国中央市,中之庄町１６９４番地３,,38,213,7990422,,,,,,,2025-01-23,1,,,,,モリショウ,0
6153,7500003003414,新規,0,2025-01-23,2025-01-23,標準合同会社,,合同会社,愛媛県,松山市,上高野町５８番地８,,38,201,7910103,,,,,,,2025-01-23,1,,,,,ヒョウジュン,0
6158,8010001251583,新規,0,2025-01-23,2025-01-23,株式会社ＪＳＳ０２,,株式会社,東京都,千代田区,大手町２丁目３番１号大手町プレイスウエストタワー２４階,,13,101,1000004,,,,,,,2025-01-23,1,,,,,ジェイエスエスゼロニ,0
6168,8010601066646,新規,0,2025-01-23,2025-01-23,漢和株式会社,,株式会社,東京都,江東区,亀戸３丁目６２番１０号ＳＡＮビル２０８号室,,13,108,1360071,,,,,,,2025-01-23,1,,,,,カンワ,0
6171,8010701047117,新規,0,2025-01-23,2025-01-23,株式会社Ｉｎｆｉｎｉｃｅ,,株式会社,東京都,品川区,荏原６丁目５番２－３０２号,,13,109,1420063,,,,,,,2025-01-23,1,,,,,インフィニス,0
6173,8010803005245,新規,0,2025-01-23,2025-01-23,合同会社いせのうと,,合同会社,東京都,大田区,大森中１丁目１４－８－６０３,,13,111,1430014,,,,,,,2025-01-23,1,,,,,イセノウト,0
6174,8010803005253,新規,0,2025-01-23,2025-01-23,セブンスリー合同会社,,合同会社,東京都,大田区,東雪谷３丁目９番８号,,13,111,1450065,,,,,,,2025-01-23,1,,,,,セブンスリー,0
6176,8010901056677,新規,0,2025-01-23,2025-01-23,株式会社アウルワイケー,,株式会社,東京都,世田谷区,宮坂１丁目３２番２０号,,13,112,1560051,,,,,,,2025-01-23,1,,,,,アウルワイケー,0
6177,8010901056685,新規,0,2025-01-23,2025-01-23,株式会社トラスト・ワン,,株式会社,東京都,世田谷区,世田谷４丁目８番５－１０６号,,13,112,1540017,,,,,,,2025-01-23,1,,,,,トラストワン,0
6183,8011001167209,新規,0,2025-01-23,2025-01-23,将来創造研究所株式会社,,株式会社,東京都,渋谷区,桜丘町２３－１７シティコート桜丘,,13,113,1500031,,,,,,,2025-01-23,1,,,,,ショウライソウゾウケンキュウジョ,0
6184,8011001167217,新規,0,2025-01-23,2025-01-23,株式会社布川商事,,株式会社,東京都,目黒区,青葉台１丁目２９－１２－８０３号,,13,110,1530042,,,,,,,2025-01-23,1,,,,,ヌノカワショウジ,0
6185,8011001167290,新規,0,2025-01-23,2025-01-23,株式会社ＰＡＳＳＯＮ,,株式会社,東京都,渋谷区,道玄坂１丁目１０番８号渋谷道玄坂東急ビル２Ｆ－Ｃ,,13,113,1500043,,,,,,,2025-01-23,1,,,,,パッソン,0
6186,8011001167332,新規,0,2025-01-23,2025-01-23,株式会社Ａｓｙｍｐｔｏｔｅ,,株式会社,東京都,渋谷区,渋谷１丁目１５番１５―１３０５号テラス渋谷美竹,,13,113,1500002,,,,,,,2025-01-23,1,,,,,アシンプトート,0
6187,8011001167340,新規,0,2025-01-23,2025-01-23,株式会社ａｎｎｖｉｅｗ,,株式会社,東京都,渋谷区,道玄坂１丁目１６－６二葉ビル８ｂ,,13,113,1500043,,,,,,,2025-01-23,1,,,,,アンビュー,0
6191,8011003020803,新規,0,2025-01-23,2025-01-23,合同会社Ａｉｓｈｉ,,合同会社,東京都,渋谷区,恵比寿西２丁目８番４号ＥＸ恵比寿西ビル５階,,13,113,1500021,,,,,,,2025-01-23,1,,,,,アイシ,0
6203,8011501031624,新規,0,2025-01-23,2025-01-23,Ｆｕｔｕｒａ株式会社,,株式会社,東京都,北区,豊島２丁目１０番６号２０２号室,,13,117,1140003,,,,,,,2025-01-23,1,,,,,フーツラ,0
6204,8011503006392,新規,0,2025-01-23,2025-01-23,ＰＡＸａ合同会社,,合同会社,東京都,北区,赤羽１丁目６６番５号グリーンコーポＩＩ－３０１,00137753,13,117,1150045,,,,,,,2025-01-23,1,,,,,,0
6210,8012403006929,新規,0,2025-01-23,2025-01-23,ＬＩＴＴＬＥ　ＶＩＬＬＡＧＥ合同会社,,合同会社,東京都,多摩市,一ノ宮４丁目３６－４１,,13,224,2060002,,,,,,,2025-01-23,1,,,,,リトルヴィレッジ,0
6319,8013303007496,新規,0,2025-01-23,2025-01-23,合同会社キュウハチ,,合同会社,東京都,豊島区,東池袋１丁目１７－１１－８０２,,13,116,1700013,,,,,,,2025-01-23,1,,,,,キュウハチ,0
6323,8020001160908,新規,0,2025-01-23,2025-01-23,Ｓ．ＳＭＩＬＥ株式会社,,株式会社,神奈川県,横浜市西区,浅間町１丁目４番３号ウィザードビル４０２,,14,103,2200072,,,,,,,2025-01-23,1,,,,,エススマイル,0
6324,8020001160949,新規,0,2025-01-23,2025-01-23,株式会社スポークトラスト,,株式会社,神奈川県,川崎市川崎区,桜本２丁目８番５－１号,,14,131,2100833,,,,,,,2025-01-23,1,,,,,スポークトラスト,0
6328,8020005016684,新規,0,2025-01-23,2025-01-23,一般社団法人ＬｏｃａｌＮｅｘｕｓ,,その他の設立登記法人,神奈川県,横浜市西区,浅間町１丁目４番３号ウィザードビル４０２,,14,103,2200072,,,,,,,2025-01-23,1,,,,,ローカルネクサス,0
6333,8030001164453,新規,0,2025-01-23,2025-01-23,株式会社ｇｒｏｗ,,株式会社,埼玉県,さいたま市西区,三橋６丁目１３８９番地１アヴァンティピア２０１,,11,101,3310052,,,,,,,2025-01-23,1,,,,,グロウ,0
6334,8030001164478,新規,0,2025-01-23,2025-01-23,株式会社慶晶,,株式会社,埼玉県,入間市,大字新光３０６番地６３８,,11,225,3580055,,,,,,,2025-01-23,1,,,,,ケイショウ,0
6335,8030001164486,新規,0,2025-01-23,2025-01-23,ユニバーサルリンク株式会社,,株式会社,埼玉県,越谷市,登戸町８番４０号,,11,222,3430846,,,,,,,2025-01-23,1,,,,,ユニバーサルリンク,0
6336,8030001164528,新規,0,2025-01-23,2025-01-23,株式会社ＳＴＣ,,株式会社,埼玉県,さいたま市中央区,八王子４丁目４番２０号フォーブル与野１０５号,,11,105,3380006,,,,,,,2025-01-23,1,,,,,エスティーシー,0
6339,8030003025918,新規,0,2025-01-23,2025-01-23,トリプルアイ合同会社,,合同会社,埼玉県,さいたま市北区,宮原町２丁目１１４－９,,11,102,3310812,,,,,,,2025-01-23,1,,,,,トリプルアイ,0
6345,8040001137061,新規,0,2025-01-23,2025-01-23,株式会社萬達,,株式会社,千葉県,野田市,中根７１番地の９,,12,208,2780031,,,,,,,2025-01-23,1,,,,,マンタツ,0
6351,8060001037854,新規,0,2025-01-23,2025-01-23,株式会社益子観光農園リゾート開発,,株式会社,栃木県,芳賀郡益子町,大字上大羽２３９１,,09,342,3214212,,,,,,,2025-01-23,1,,,,,マシコカンコウノウエンリゾートカイハツ,0
6358,8070001042572,新規,0,2025-01-23,2025-01-23,株式会社明和ホールディングス,,株式会社,群馬県,高崎市,箕郷町上芝３９４番地１,,10,202,3703104,,,,,,,2025-01-23,1,,,,,メイワホールディングス,0
6361,8070003005759,新規,0,2025-01-23,2025-01-23,みらい農場合同会社,,合同会社,群馬県,吾妻郡中之条町,大字小雨７３３番地５,,10,421,3771704,,,,,,,2025-01-23,1,,,,,ミライノウジョウ,0
6376,8100003007958,新規,0,2025-01-23,2025-01-23,合同会社コヤナギ環境調査,,合同会社,長野県,佐久市,岩村田９７１番地１１,,20,217,3850022,,,,,,,2025-01-23,1,,,,,コヤナギカンキョウチョウサ,0
6598,8120001272156,新規,0,2025-01-23,2025-01-23,ＹＺＹＭ株式会社,,株式会社,大阪府,大阪市西成区,橘１丁目１１－２８オフィスポート橘４０７号室,,27,122,5570051,,,,,,,2025-01-23,1,,,,,ワイゼットワイエムー,0
6600,8120003028424,新規,0,2025-01-23,2025-01-23,合同会社アグニ,,合同会社,大阪府,大阪市鶴見区,鶴見３丁目１２番１０－２７０１号,,27,124,5380053,,,,,,,2025-01-23,1,,,,,アグニ,0
6602,8120105009958,新規,0,2025-01-23,2025-01-23,医療法人たき歯科医院,,その他の設立登記法人,大阪府,富田林市,常盤町１５番１１号,,27,214,5840032,,,,,,,2025-01-23,1,,,,,タキシカイイン,0
6605,8120901050330,新規,0,2025-01-23,2025-01-23,株式会社ファースト,,株式会社,大阪府,高槻市,宮野町１７番１号,,27,207,5690081,,,,,,,2025-01-23,1,,,,,ファースト,0
6704,8140001137142,新規,0,2025-01-23,2025-01-23,株式会社輪,,株式会社,兵庫県,明石市,和坂３丁目７番８号,,28,203,6730012,,,,,,,2025-01-23,1,,,,,リン,0
6705,8140001137150,新規,0,2025-01-23,2025-01-23,株式会社Ｐａｒｅｈｅｌｐ,,株式会社,兵庫県,神戸市長田区,戸崎通３丁目１１番１１板宿パークホームズ１４０１,,28,106,6530845,,,,,,,2025-01-23,1,,,,,ペアレップ,0
6707,8140005027356,新規,0,2025-01-23,2025-01-23,特定非営利活動法人コロコロおむすび,,その他の設立登記法人,兵庫県,神戸市兵庫区,水木通８丁目１－９開福ビル３階,,28,105,6520802,,,,,,,2025-01-23,1,,,,,コロコロオムスビ,0
6805,8180001165123,新規,0,2025-01-23,2025-01-23,株式会社プライムフィット,,株式会社,愛知県,日進市,五色園３丁目６０７番地,,23,230,4700105,,,,,,,2025-01-23,1,,,,,プライムフィット,0
6806,8180001165131,新規,0,2025-01-23,2025-01-23,株式会社オイロン,,株式会社,愛知県,名古屋市中村区,名駅３丁目４－１０アルティメイト名駅１ｓｔ２階,,23,105,4500002,,,,,,,2025-01-23,1,,,,,オイロン,0
6814,8180003027874,新規,0,2025-01-23,2025-01-23,合同会社ＯＭＩ,,合同会社,愛知県,春日井市,下屋敷町字下屋敷１１８番地３,,23,206,4860906,,,,,,,2025-01-23,1,,,,,オーエムアイ,0
6815,8180005020919,新規,0,2025-01-23,2025-01-23,はなぶさ協同組合,,その他の設立登記法人,愛知県,名古屋市中区,金山２丁目１０番９号第８フクマルビル４階,,23,106,4600022,,,,,,,2025-01-23,1,,,,,ハナブサ,0
6888,8260003005038,新規,0,2025-01-23,2025-01-23,Ｏｏｉｋａ合同会社,,合同会社,岡山県,岡山市中区,祇園５１７番地６,00137747,33,102,7038207,,,,,,,2025-01-23,1,,,,,オオイカ,0
6893,8290001108681,新規,0,2025-01-23,2025-01-23,株式会社しまんと,,株式会社,福岡県,福岡市博多区,東光２丁目１７－１７－８０９,,40,132,8120008,,,,,,,2025-01-23,1,,,,,シマント,0
6896,8290003016321,新規,0,2025-01-23,2025-01-23,ａ．ｄ．ａ合同会社,,合同会社,福岡県,筑後市,大字前津２６１番地２１,,40,211,8330002,,,,,,,2025-01-23,1,,,,,エーディーエー,0
6897,8290005019628,新規,0,2025-01-23,2025-01-23,一般社団法人ＬＯＡＭＯＫＵ,,その他の設立登記法人,福岡県,古賀市,舞の里５丁目６－４アベニュー舞の里Ａ２０２号室,,40,223,8113114,,,,,,,2025-01-23,1,,,,,ロアモク,0
6903,8290805009803,新規,0,2025-01-23,2025-01-23,一般社団法人思春期みらいサポーターズ,,その他の設立登記法人,福岡県,北九州市小倉南区,湯川１丁目１０番１１号,,40,107,8000257,,,,,,,2025-01-23,1,,,,,シシュンキミライサポーターズ,0
6916,8360001034680,新規,0,2025-01-23,2025-01-23,琉球ペガサス株式会社,,株式会社,沖縄県,那覇市,銘苅３丁目１番３１号,,47,201,9000004,,,,,,,2025-01-23,1,,,,,リュウキュウペガサス,0
6919,8360003014598,新規,0,2025-01-23,2025-01-23,駿輝合同会社,,合同会社,沖縄県,うるま市,字上江洲１３７番地７,,47,213,9042222,,,,,,,2025-01-23,1,,,,,シュンキ,0
6920,8360003014615,新規,0,2025-01-23,2025-01-23,合同会社クマノミ,,合同会社,沖縄県,沖縄市,上地２丁目３－６由心ハイツ３０３,,47,211,9040031,,,,,,,2025-01-23,1,,,,,クマノミ,0
6921,8360005007162,新規,0,2025-01-23,2025-01-23,特定非営利活動法人先島諸島福祉事業支援友の会,,その他の設立登記法人,沖縄県,宮古島市,平良字西里５５１番地２ぐるくんハウス１０１,,47,214,9060012,,,,,,,2025-01-23,1,,,,,サキシマショトウフクシジギョウシエントモノカイ,0
6926,8420003003058,新規,0,2025-01-23,2025-01-23,チクフル合同会社,,合同会社,青森県,青森市,大字石江字平山２番地４０１,,02,201,0380003,,,,,,,2025-01-23,1,,,,,チクフル,0
6932,8430003017197,新規,0,2025-01-23,2025-01-23,合同会社アイランド,,合同会社,北海道,札幌市白石区,北郷二条１４丁目４番１‐３号,,01,104,0030832,,,,,,,2025-01-23,1,,,,,アイランド,0
7012,8490003001971,新規,0,2025-01-23,2025-01-23,合同会社三協警備,,合同会社,高知県,高知市,小石木町２６番地２２パレスヒル２０６号,,39,201,7808032,,,,,,,2025-01-23,1,,,,,,0
7015,8500005008757,新規,0,2025-01-23,2025-01-23,社会保険労務士法人和田修事務所,,その他の設立登記法人,愛媛県,松山市,山西町７０９番地１,,38,201,7918026,,,,,,,2025-01-23,1,,,,,ワダオサムジムショ,0
7025,9010001251624,新規,0,2025-01-23,2025-01-23,株式会社リコネクト,,株式会社,東京都,千代田区,神田平河町１第３東ビル５Ｆ,,13,101,1010027,,,,,,,2025-01-23,1,,,,,リコネクト,0
7026,9010003046147,新規,0,2025-01-23,2025-01-23,合同会社３９,,合同会社,東京都,千代田区,神田須田町１丁目１２－８ＪＬＢグランエクリュ神田,,13,101,1010041,,,,,,,2025-01-23,1,,,,,サンキュー,0
7027,9010005039446,新規,0,2025-01-23,2025-01-23,晴海２一般社団法人,,その他の設立登記法人,東京都,千代田区,神田小川町３丁目２６番８号神田小川町三丁目ビル６階,,13,101,1010052,,,,,,,2025-01-23,1,,,,,ハルミツー,0
7039,9010701047090,新規,0,2025-01-23,2025-01-23,セーフィーセキュリティ株式会社,,株式会社,東京都,品川区,西品川１丁目１番１号住友不動産大崎ガーデンタワー,,13,109,1410033,,,,,,,2025-01-23,1,,,,,セーフィーセキュリティ,0
7042,9010901056676,新規,0,2025-01-23,2025-01-23,株式会社メダル,,株式会社,東京都,世田谷区,船橋３丁目２５番１号,,13,112,1560055,,,,,,,2025-01-23,1,,,,,メダル,0
7043,9010901056684,新規,0,2025-01-23,2025-01-23,Ｒ＆Ａ株式会社,,株式会社,東京都,世田谷区,深沢４丁目３０番２７号,,13,112,1580081,,,,,,,2025-01-23,1,,,,,アールアンドエー,0
7050,9011001167298,新規,0,2025-01-23,2025-01-23,株式会社ロケーションリバイバル,,株式会社,東京都,渋谷区,神山町３番８号,,13,113,1500047,,,,,,,2025-01-23,1,,,,,ロケーションリバイバル,0
7053,9011003020802,新規,0,2025-01-23,2025-01-23,Ｇ．Ｒ．Ｗ合同会社,,合同会社,東京都,渋谷区,千駄ヶ谷５丁目２３－６グランスイート代々木２１３号室,,13,113,1510051,,,,,,,2025-01-23,1,,,,,ジーアールダブリュー,0
7055,9011101110331,新規,0,2025-01-23,2025-01-23,新宿住販株式会社,,株式会社,東京都,新宿区,百人町１丁目２２番７号,,13,104,1690073,,,,,,,2025-01-23,1,,,,,シンジュクジュウハン,0
7056,9011101110364,新規,0,2025-01-23,2025-01-23,株式会社ビジョンプラス,,株式会社,東京都,新宿区,西新宿３丁目３番１３号西新宿水間ビル２Ｆ,,13,104,1600023,,,,,,,2025-01-23,1,,,,,ビジョンプラス,0
7058,9011401026764,新規,0,2025-01-23,2025-01-23,零図株式会社,,株式会社,東京都,板橋区,仲宿６３番地７号ＯＥＯｆｆｉｃｅＢｌｄｇ．１０２号,,13,119,1730005,,,,,,,2025-01-23,1,,,,,レイズ,0
7190,9013301053657,新規,0,2025-01-23,2025-01-23,英峰株式会社,,株式会社,東京都,豊島区,西池袋２丁目２４番８号,,13,116,1710021,,,,,,,2025-01-23,1,,,,,エイホウ,0
7197,9020001160931,新規,0,2025-01-23,2025-01-23,株式会社ｒｉｃ．,,株式会社,神奈川県,横浜市港南区,上大岡西１丁目１３番１８号,,14,111,2330002,,,,,,,2025-01-23,1,,,,,リック,0
7198,9020001160964,新規,0,2025-01-23,2025-01-23,株式会社ティーツーシー,,株式会社,神奈川県,川崎市高津区,新作４丁目２２番１３号エリタージュ３号室,,14,134,2130014,,,,,,,2025-01-23,1,,,,,ティーツーシー,0
7203,9020003027617,新規,0,2025-01-23,2025-01-23,合同会社ＥｈａＬａｂｏ,,合同会社,神奈川県,横浜市西区,北幸２丁目１０番４８号むつみビル３階,,14,103,2200004,,,,,,,2025-01-23,1,,,,,エハラボ,0
7205,9021001084286,新規,0,2025-01-23,2025-01-23,株式会社ＪＰＮ　ＴＲＡＤＥＲ,,株式会社,神奈川県,相模原市南区,東大沼２丁目２番５９－１号,,14,153,2520333,,,,,,,2025-01-23,1,,,,,ジェイピーエヌトレーダー,0
7206,9021003015495,新規,0,2025-01-23,2025-01-23,合同会社クーゼロ,,合同会社,神奈川県,相模原市南区,松が枝町２５－１６Ｔ’ｓｇａｒｄｅｎ小田急相模原２Ａ,,14,153,2520313,,,,,,,2025-01-23,1,,,,,クーゼロ,0
7210,9030001164444,新規,0,2025-01-23,2025-01-23,小康必勝株式会社,,株式会社,埼玉県,ふじみ野市,大原２丁目１、Ａ－１５１３号Ｂｒｉｌｌｉａ・ｃｉｔｙふじみ野,,11,245,3560003,,,,,,,2025-01-23,1,,,,,ショウコウヒッショウ,0
7211,9030001164469,新規,0,2025-01-23,2025-01-23,株式会社シンケールス,,株式会社,埼玉県,狭山市,大字北入曽８００番地の１０オーチャードシティ狭山Ｇ,,11,215,3501315,,,,,,,2025-01-23,1,,,,,シンケールス,0
7214,9030005022012,新規,0,2025-01-23,2025-01-23,一般社団法人腰塚なつ子バレエアトリエ,,その他の設立登記法人,埼玉県,さいたま市大宮区,土手町１丁目１８３番地１,,11,103,3300801,,,,,,,2025-01-23,1,,,,,コシヅカナツコバレエアトリエ,0
7222,9040001137110,新規,0,2025-01-23,2025-01-23,株式会社ビビホク,,株式会社,千葉県,千葉市花見川区,幕張町６丁目１０２番地１１,,12,102,2620032,,,,,,,2025-01-23,1,,,,,ビビホク,0
7223,9040001137127,新規,0,2025-01-23,2025-01-23,株式会社エステート関東,,株式会社,千葉県,市川市,島尻１番４４－３０５号,,12,203,2720145,,,,,,,2025-01-23,1,,,,,エステートカントウ,0
7224,9040003026674,新規,0,2025-01-23,2025-01-23,合同会社山吹,,合同会社,千葉県,鎌ケ谷市,南鎌ケ谷１丁目１２－３５,,12,224,2730106,,,,,,,2025-01-23,1,,,,,ヤマブキ,0
7227,9050001056037,新規,0,2025-01-23,2025-01-23,株式会社ＡＴ　Ｌｏｇｉｓｔｉｃｓ　Ｊａｐａｎ,,株式会社,茨城県,牛久市,久野町３２９８,,08,219,3001288,,,,,,,2025-01-23,1,,,,,エーティーロジスティックスジャパン,0
7228,9050001056053,新規,0,2025-01-23,2025-01-23,株式会社ナガクニホールディングス,,株式会社,茨城県,水戸市,加倉井町１２５９番地４,,08,201,3114163,,,,,,,2025-01-23,1,,,,,ナガクニホールディングス,0
7233,9050003008960,新規,0,2025-01-23,2025-01-23,ＧＯＶＩＮＤ合同会社,,合同会社,茨城県,筑西市,二木成９５２番地イシカワビル１Ｆ,,08,227,3080841,,,,,,,2025-01-23,1,,,,,ゴビン,0
7241,9100001038228,新規,0,2025-01-23,2025-01-23,株式会社ＫＣ,,株式会社,長野県,飯田市,大瀬木４２２９番地４,,20,205,3950157,,,,,,,2025-01-23,1,,,,,ケーシー,0
7244,9110005017177,新規,0,2025-01-23,2025-01-23,農事組合法人菅田営農組合,,その他の設立登記法人,新潟県,胎内市,菅田１１５０番地１,,15,227,9592603,,,,,,,2025-01-23,1,,,,,スゲタエイノウクミアイ,0
7447,9120001272089,新規,0,2025-01-23,2025-01-23,株式会社知縁,,株式会社,大阪府,大阪市中央区,北浜２丁目１番２１号,,27,128,5410041,,,,,,,2025-01-23,1,,,,,チエン,0
7448,9120001272130,新規,0,2025-01-23,2025-01-23,株式会社Ｖｏｌａｎｔｅ,,株式会社,大阪府,大阪市中央区,伏見町２丁目６番４号Ｔ＆Ａ淀屋橋ビル６階,,27,128,5410044,,,,,,,2025-01-23,1,,,,,ボランチ,0
7449,9120001272139,新規,0,2025-01-23,2025-01-23,旅結株式会社,,株式会社,大阪府,大阪市中央区,松屋町住吉５番２５号,,27,128,5400017,,,,,,,2025-01-23,1,,,,,タビムスビ,0
7450,9120001272188,新規,0,2025-01-23,2025-01-23,株式会社フジムラ設備,,株式会社,大阪府,大阪市此花区,酉島３丁目２６番５号,,27,104,5540051,,,,,,,2025-01-23,1,,,,,フジムラセツビ,0
7453,9120003028415,新規,0,2025-01-23,2025-01-23,合同会社フロンティア,,合同会社,大阪府,大阪市中央区,本町４丁目８番１号ＳＤ本町ビル７０２号,,27,128,5410053,,,,,,,2025-01-23,1,,,,,フロンティア,0
7454,9120003028431,新規,0,2025-01-23,2025-01-23,テンホーシス合同会社,,合同会社,大阪府,大阪市港区,弁天１丁目３番１３－４２０２号,,27,107,5520007,,,,,,,2025-01-23,1,,,,,テンホーシス,0
7455,9120005024750,新規,0,2025-01-23,2025-01-23,特定非営利活動法人越境先生,,その他の設立登記法人,大阪府,大阪市福島区,福島７丁目１番１０号,,27,103,5530003,,,,,,,2025-01-23,1,,,,,エッキョウセンセイ,0
7546,9122001038825,新規,0,2025-01-23,2025-01-23,マサキ住建株式会社,,株式会社,大阪府,八尾市,山城町３丁目５番２６号,,27,212,5810801,,,,,,,2025-01-23,1,,,,,マサキジュウケン,0
7554,9122003003100,新規,0,2025-01-23,2025-01-23,ＡＫＩ合同会社,,合同会社,大阪府,東大阪市,上小阪４丁目１１－２林ビル３０２号,,27,227,5770806,,,,,,,2025-01-23,1,,,,,アキ,0
7560,9140001137166,新規,0,2025-01-23,2025-01-23,株式会社ノーブル・トゥルース,,株式会社,兵庫県,芦屋市,岩園町２７番２２号,,28,206,6590013,,,,,,,2025-01-23,1,,,,,ノーブルトゥルース,0
7605,9160001026499,新規,0,2025-01-23,2025-01-23,株式会社Ｏｎｅ,,株式会社,滋賀県,近江八幡市,小船木町７６５番地７０,,25,204,5230083,,,,,,,2025-01-23,1,,,,,ワン,0
7668,9180001165080,新規,0,2025-01-23,2025-01-23,株式会社Ｓｕｐｐｏｒｔ　Ｇｒｏｗｔｈ,,株式会社,愛知県,犬山市,東古券３１３番地１７,,23,215,4840000,,,,,,,2025-01-23,1,,,,,サポートグロース,0
7670,9180003027898,新規,0,2025-01-23,2025-01-23,合同会社インテック,,合同会社,愛知県,名古屋市港区,高木町１丁目７番地の１,,23,111,4550821,,,,,,,2025-01-23,1,,,,,インテック,0
7671,9180003027907,新規,0,2025-01-23,2025-01-23,合同会社ｃｏｃｃｏ　ｗｏｒｋｓ,,合同会社,愛知県,名古屋市名東区,平和が丘３丁目５－１２平和が丘住宅４－３０２,,23,115,4650097,,,,,,,2025-01-23,1,,,,,コッコワークス,0
7672,9180005020901,新規,0,2025-01-23,2025-01-23,特定非営利活動法人ＨＡＮＤＳ．,,その他の設立登記法人,愛知県,春日井市,鳥居松町７丁目２０番地,,23,206,4860844,,,,,,,2025-01-23,1,,,,,ハンズ,0
7673,9180005020926,新規,0,2025-01-23,2025-01-23,一般社団法人貨物運送トラック広告協会,,その他の設立登記法人,愛知県,名古屋市中村区,名駅４丁目２４番５号,,23,105,4500002,,,,,,,2025-01-23,1,,,,,カモツウンソウトラックコウコクキョウカイ,0
7684,9190003004905,新規,0,2025-01-23,2025-01-23,合同会社９６２５ＣＯＭＰＡＮＹ,,合同会社,三重県,松阪市,曽原町１１３８番地,,24,204,5152112,,,,,,,2025-01-23,1,,,,,クロネコカンパニー,0
7685,9200001043358,新規,0,2025-01-23,2025-01-23,株式会社ｆ．ｅ．ｖ,,株式会社,岐阜県,大垣市,熊野町４丁目９８番地２,,21,202,5030032,,,,,,,2025-01-23,1,,,,,エフイーブイ,0
7686,9200001043366,新規,0,2025-01-23,2025-01-23,株式会社ベルツリー,,株式会社,岐阜県,関市,鋳物師屋７丁目１番２０号,,21,205,5013914,,,,,,,2025-01-23,1,,,,,ベルツリー,0
7689,9220003003936,新規,0,2025-01-23,2025-01-23,セブンオブナインズ合同会社,,合同会社,石川県,金沢市,西念２丁目２６番３５号,,17,201,9200024,,,,,,,2025-01-23,1,,,,,セブンオブナインズ,0
7693,9240001064417,新規,0,2025-01-23,2025-01-23,株式会社テールロード,,株式会社,広島県,尾道市,新高山１丁目２７４８番地１９０,,34,205,7220055,,,,,,,2025-01-23,1,,,,,テールロード,0
7749,9290001108722,新規,0,2025-01-23,2025-01-23,ＡＮＤＯＮ株式会社,,株式会社,福岡県,福岡市東区,和白丘４丁目１６番４５号アンシャンテ１０１号室,,40,131,8110213,,,,,,,2025-01-23,1,,,,,アンドン,0
7754,9290005019627,新規,0,2025-01-23,2025-01-23,医療法人貴矯,,その他の設立登記法人,福岡県,春日市,春日原東町３丁目８番,,40,218,8160801,,,,,,,2025-01-23,1,,,,,タカキョウ,0
7756,9290803004953,新規,0,2025-01-23,2025-01-23,合同会社ロスパジオ,,合同会社,福岡県,北九州市小倉北区,浅野１丁目１－１ビエラ小倉１ＦＤＩＳＣＯＶＥＲＹ１４７号,,40,106,8020001,,,,,,,2025-01-23,1,,,,,ロスパジオ,0
7760,9320001020907,新規,0,2025-01-23,2025-01-23,株式会社Ｌｉｎｏ,,株式会社,大分県,大分市,碩田町２丁目３番１２号,,44,201,8700048,,,,,,,2025-01-23,1,,,,,リノ,0
7761,9330001032827,新規,0,2025-01-23,2025-01-23,株式会社レガレイラ,,株式会社,熊本県,熊本市中央区,迎町１丁目６番１２号,,43,101,8600817,,,,,,,2025-01-23,1,,,,,レガレイラ,0
7763,9350001019376,新規,0,2025-01-23,2025-01-23,株式会社鍛冶洸輝,,株式会社,宮崎県,日向市,大字塩見１５１６７番地１,,45,206,8830033,,,,,,,2025-01-23,1,,,,,カジコウキ,0
7775,9430001093520,新規,0,2025-01-23,2025-01-23,札幌学校冷房整備株式会社,,株式会社,北海道,札幌市豊平区,月寒東二条１６丁目１番６号,,01,105,0620052,,,,,,,2025-01-23,1,,,,,サッポロガッコウレイボウセイビ,0
7817,9450005004439,新規,0,2025-01-23,2025-01-23,特定非営利活動法人あさひかわナースハーモニー,,その他の設立登記法人,北海道,旭川市,八条通８丁目４１－３４,,01,204,0700038,,,,,,,2025-01-23,1,,,,,アサヒカワナースハーモニー,0
7829,9460003001032,新規,0,2025-01-23,2025-01-23,合同会社ＥＬ．Ｐ,,合同会社,北海道,白糠郡白糠町,西一条南１丁目２－２５,,01,668,0880311,,,,,,,2025-01-23,1,,,,,エルプ,0
7853,9460101007658,新規,0,2025-01-23,2025-01-23,株式会社Ｄａｉｒｙ　Ｆａｒｍ　ＴＡＫＡＧＩ,,株式会社,北海道,河東郡上士幌町,字上音更基線２６２番地,,01,633,0801407,,,,,,,2025-01-23,1,,,,,デーリィファームタカギ,0
7865,9480003002227,新規,0,2025-01-23,2025-01-23,合同会社うみのはたけ,,合同会社,徳島県,鳴門市,瀬戸町明神字弐軒家３番地８,,36,202,7720060,,,,,,,2025-01-23,1,,,,,ウミノハタケ,0
