sequenceNumber,corporateNumber,process,correct,updateDate,changeDate,name,nameImageId,kind,prefectureName,cityName,streetNumber,addressImageId,prefectureCode,cityCode,postCode,addressOutside,addressOutsideImageId,closeDate,closeCause,successorCorporateNumber,changeCause,assignmentDate,latest,enName,enPrefectureName,enCityName,enAddressOutside,furigana,hihyoji
9,1010001246607,新規,0,2024-07-19,2024-07-19,あかよろし株式会社,,株式会社,東京都,千代田区,平河町２丁目１４番７号ＹＵＫＥＮ平河町ビル３階,,13,101,1020093,,,,,,,2024-07-19,1,,,,,アカヨロシ,0
10,1010001246664,新規,0,2024-07-19,2024-07-19,株式会社ＢＣＪ‐８３,,株式会社,東京都,千代田区,丸の内１丁目１番１号パレスビル５階,,13,101,1000005,,,,,,,2024-07-19,1,,,,,ビーシージェイエイティースリー,0
11,1010001246680,新規,0,2024-07-19,2024-07-19,Ｔｉｎｙ　Ａｗａｙ　Ｊａｐａｎ株式会社,,株式会社,東京都,中央区,銀座６丁目１３番１６号銀座ＷａｌｌビルＵＣＦ５０１,,13,102,1040061,,,,,,,2024-07-19,1,,,,,タイニーアウェイジャパン,0
14,1010003044240,新規,0,2024-07-19,2024-07-19,くろねこキャピタル合同会社,,合同会社,東京都,中央区,勝どき４丁目６－１－２８２５,,13,102,1040054,,,,,,,2024-07-19,1,,,,,クロネコキャピタル,0
15,1010005038496,新規,0,2024-07-19,2024-07-19,一般社団法人ｍｏｎｏｎｏｎｅ,,その他の設立登記法人,東京都,千代田区,神田須田町１丁目７番８号ＶＯＲＴ秋葉原ＩＶ・２階,,13,101,1010041,,,,,,,2024-07-19,1,,,,,モノノネ,0
18,1010401183904,新規,0,2024-07-19,2024-07-19,株式会社ザイマックスジザイライフ,,株式会社,東京都,港区,虎ノ門２丁目１０番１号,,13,103,1050001,,,,,,,2024-07-19,1,,,,,ザイマックスジザイライフ,0
19,1010401183912,新規,0,2024-07-19,2024-07-19,株式会社Ｕｌｔｒａ　Ｓｕｐｅｒ　Ｎｅｗ,,株式会社,東京都,港区,南青山６丁目６番２０号,,13,103,1070062,,,,,,,2024-07-19,1,,,,,ウルトラスーパーニュー,0
20,1010401183929,新規,0,2024-07-19,2024-07-19,Ｏｐｅｎ　Ｑｕａｎｔ株式会社,,株式会社,東京都,港区,北青山１丁目３番１号アールキューブ青山３階,,13,103,1070061,,,,,,,2024-07-19,1,,,,,オープンクオント,0
23,1010403033066,新規,0,2024-07-19,2024-07-19,合同会社ＢＯＰＬＥＫ,,合同会社,東京都,港区,南青山３丁目１番３６号青山丸竹ビル６階,,13,103,1070062,,,,,,,2024-07-19,1,,,,,ボプレクニ,0
24,1010403033082,新規,0,2024-07-19,2024-07-19,合同会社Ｂｅ‐ａｎｓ．,,合同会社,東京都,港区,白金６丁目１４番３号ＨＪＰＬＡＣＥＳＨＩＲＯＫＡＮＥ４０２,,13,103,1080072,,,,,,,2024-07-19,1,,,,,ビーアンサー,0
32,1010801035242,新規,0,2024-07-19,2024-07-19,宮丸サービス株式会社,,株式会社,東京都,大田区,南馬込２丁目４番３号,,13,111,1430025,,,,,,,2024-07-19,1,,,,,ミヤマルサービス,0
38,1011001163239,新規,0,2024-07-19,2024-07-19,聯徳株式会社,00135625,株式会社,東京都,渋谷区,本町３丁目２５番５号,,13,113,1510071,,,,,,,2024-07-19,1,,,,,レントク,0
39,1011001163296,新規,0,2024-07-19,2024-07-19,株式会社ＤＤＤｉｓｔｏｒｔｉｏｎ,,株式会社,東京都,渋谷区,大山町７－９,,13,113,1510065,,,,,,,2024-07-19,1,,,,,ディストレーション,0
40,1011001163338,新規,0,2024-07-19,2024-07-19,株式会社ＡＶＯＴ,,株式会社,東京都,渋谷区,道玄坂１丁目１０番８号渋谷道玄坂東急ビル２Ｆ－Ｃ,,13,113,1500043,,,,,,,2024-07-19,1,,,,,アボット,0
41,1011001163370,新規,0,2024-07-19,2024-07-19,株式会社ＭＴ企画,,株式会社,東京都,渋谷区,神宮前６丁目２３番４号桑野ビル２階,,13,113,1500001,,,,,,,2024-07-19,1,,,,,エムティーキカク,0
42,1011001163379,新規,0,2024-07-19,2024-07-19,株式会社とらしん,,株式会社,東京都,目黒区,中央町２丁目３５番１５号,,13,110,1520001,,,,,,,2024-07-19,1,,,,,トラシン,0
43,1011001163536,新規,0,2024-07-19,2024-07-19,株式会社Ｓｔａｔｌａｒｙ,,株式会社,東京都,渋谷区,代々木１丁目４３－１１,,13,113,1510053,,,,,,,2024-07-19,1,,,,,スタットラリー,0
47,1011003019579,新規,0,2024-07-19,2024-07-19,合同会社つながる,,合同会社,東京都,渋谷区,渋谷２丁目１９番１５号宮益坂ビルディング６０９,,13,113,1500002,,,,,,,2024-07-19,1,,,,,ツナガル,0
55,1011101108028,新規,0,2024-07-19,2024-07-19,株式会社ｍｉｍｏｓａ,,株式会社,東京都,新宿区,西新宿６丁目１０番１号日土地西新宿ビル８階,,13,104,1600023,,,,,,,2024-07-19,1,,,,,ミモザ,0
56,1011101108060,新規,0,2024-07-19,2024-07-19,株式会社ビジュパラディ,,株式会社,東京都,新宿区,神楽坂６丁目６６番地２,,13,104,1620825,,,,,,,2024-07-19,1,,,,,ビジュパラディ,0
57,1011101108077,新規,0,2024-07-19,2024-07-19,株式会社ｓａｍａｐ,,株式会社,東京都,新宿区,西早稲田１丁目１４番１－５０９号,,13,104,1690051,,,,,,,2024-07-19,1,,,,,サマップ,0
58,1011101108085,新規,0,2024-07-19,2024-07-19,グランセキュノロジー株式会社,,株式会社,東京都,新宿区,西新宿３丁目２０番２号,,13,104,1600023,,,,,,,2024-07-19,1,,,,,グランセキュノロジー,0
59,1011101108093,新規,0,2024-07-19,2024-07-19,株式会社ＦＲＵＯＲ,,株式会社,東京都,新宿区,歌舞伎町２丁目３７番５号,,13,104,1600021,,,,,,,2024-07-19,1,,,,,フルオール,0
61,1011103014694,新規,0,2024-07-19,2024-07-19,合同会社ＷＭＡＲＴ,,合同会社,東京都,新宿区,西新宿３丁目３番１３号西新宿水間ビル６階,,13,104,1600023,,,,,,,2024-07-19,1,,,,,ダブルマート,0
62,1011103014703,新規,0,2024-07-19,2024-07-19,合同会社ニーズ,,合同会社,東京都,新宿区,西新宿３丁目３番１３号西新宿水間ビル６階,,13,104,1600023,,,,,,,2024-07-19,1,,,,,ニーズ,0
69,1011503006151,新規,0,2024-07-19,2024-07-19,合同会社やまびこ企画,,合同会社,東京都,荒川区,荒川５丁目４３－２ザ・テラス町屋１０１,,13,118,1160002,,,,,,,2024-07-19,1,,,,,ヤマビコキカク,0
79,1012403006670,新規,0,2024-07-19,2024-07-19,合同会社ヴァンジェーロ,,合同会社,東京都,狛江市,駒井町３丁目６番１０号,,13,219,2010016,,,,,,,2024-07-19,1,,,,,ヴァンジェーロ,0
80,1012703003046,新規,0,2024-07-19,2024-07-19,合同会社０１ＰＬＵＳ,,合同会社,東京都,東久留米市,中央町１丁目２番４号,,13,222,2030054,,,,,,,2024-07-19,1,,,,,ゼロイチプラス,0
85,1020001158066,新規,0,2024-07-19,2024-07-19,株式会社ＳＡＲＡ,,株式会社,神奈川県,横浜市都筑区,茅ケ崎南１丁目３番９号,,14,118,2240037,,,,,,,2024-07-19,1,,,,,サラ,0
86,1020001158090,新規,0,2024-07-19,2024-07-19,株式会社デューク,,株式会社,神奈川県,横浜市港南区,港南１丁目１５番１９号,,14,111,2330003,,,,,,,2024-07-19,1,,,,,デューク,0
87,1020003026493,新規,0,2024-07-19,2024-07-19,ＣＨＩＮＡＲＩ合同会社,,合同会社,神奈川県,横浜市神奈川区,二ツ谷町４－７笹部ビル３階３０２号室,,14,102,2210823,,,,,,,2024-07-19,1,,,,,チナリ,0
93,1021001082727,新規,0,2024-07-19,2024-07-19,株式会社三邦,,株式会社,神奈川県,海老名市,国分寺台５丁目９番３３号,,14,215,2430413,,,,,,,2024-07-19,1,,,,,ミクニ,0
94,1021001082768,新規,0,2024-07-19,2024-07-19,ミモザＭＳ株式会社,,株式会社,神奈川県,鎌倉市,長谷２丁目１番７号,,14,204,2480016,,,,,,,2024-07-19,1,,,,,ミモザエムエス,0
97,1021003014785,新規,0,2024-07-19,2024-07-19,合同会社Ｇｌｏｂａｌ　Ｗｏｒｋｓ,,合同会社,神奈川県,相模原市中央区,宮下本町１丁目４４番１５号,,14,152,2520211,,,,,,,2024-07-19,1,,,,,グローバルワークス,0
98,1021003014793,新規,0,2024-07-19,2024-07-19,ＭＲＣ合同会社,,合同会社,神奈川県,相模原市南区,相模大野６丁目２番５－１号,,14,153,2520303,,,,,,,2024-07-19,1,,,,,エムアールシー,0
103,1030001161481,新規,0,2024-07-19,2024-07-19,株式会社総武興業,,株式会社,埼玉県,草加市,北谷２丁目３５番４０号,,11,221,3400046,,,,,,,2024-07-19,1,,,,,ソウブコウギョウ,0
104,1030001161515,新規,0,2024-07-19,2024-07-19,株式会社ＡＰＩＳ,,株式会社,埼玉県,さいたま市桜区,栄和５丁目７番３号,,11,106,3380823,,,,,,,2024-07-19,1,,,,,アピス,0
109,1030003024629,新規,0,2024-07-19,2024-07-19,合同会社ＦＭ,,合同会社,埼玉県,川口市,西川口５丁目１４番２７号グリーンテラス１０２号,,11,203,3320021,,,,,,,2024-07-19,1,,,,,エフエム,0
110,1030003024728,新規,0,2024-07-19,2024-07-19,明日香合同会社,,合同会社,埼玉県,鴻巣市,天神２丁目４番３－２０２号アメニティパレスワタナベ,,11,217,3650036,,,,,,,2024-07-19,1,,,,,アスカ,0
114,1040001134354,新規,0,2024-07-19,2024-07-19,株式会社ビクトリア,,株式会社,千葉県,浦安市,高洲３丁目１―１０,,12,227,2790023,,,,,,,2024-07-19,1,,,,,ビクトリア,0
115,1040001134585,新規,0,2024-07-19,2024-07-19,ジェーオートサービス株式会社,,株式会社,千葉県,千葉市稲毛区,長沼原町６６６番地,,12,103,2630001,,,,,,,2024-07-19,1,,,,,ジェーオートサービス,0
119,1040005022448,新規,0,2024-07-19,2024-07-19,一般社団法人はれる,,その他の設立登記法人,千葉県,柏市,若柴１７８番地４柏の葉キャンパス１４８街区１パークシティ柏の葉キャンパスザ・ゲートタワーウエスト３階Ｖ１１５,,12,217,2770871,,,,,,,2024-07-19,1,,,,,ハレル,0
123,1060001037316,新規,0,2024-07-19,2024-07-19,エスエイ関東株式会社,,株式会社,栃木県,宇都宮市,若松原３丁目１４番１３号,,09,201,3210139,,,,,,,2024-07-19,1,,,,,エスエイカントウ,0
131,1080403005059,新規,0,2024-07-19,2024-07-19,合同会社ＡＩＬＥ　ｒｅｔｒｅａｔ,,合同会社,静岡県,浜松市中央区,萩丘１丁目１８番５号,,22,138,4338121,,,,,,,2024-07-19,1,,,,,エルリトリート,0
134,1100001037682,新規,0,2024-07-19,2024-07-19,ウーラジャパン株式会社,,株式会社,長野県,松本市,大手３丁目３番９号ＮＴＴ東日本松本大名町ビル１階,,20,202,3900874,,,,,,,2024-07-19,1,,,,,ウーラジャパン,0
145,1120001266940,新規,0,2024-07-19,2024-07-19,株式会社ＬＩＧＨＴ,,株式会社,大阪府,大阪市鶴見区,中茶屋１丁目１０番１０号,,27,124,5380033,,,,,,,2024-07-19,1,,,,,ライト,0
147,1120003027036,新規,0,2024-07-19,2024-07-19,合同会社ＮＧＳ,,合同会社,大阪府,枚方市,牧野阪２丁目５－５－９０１,,27,210,5731146,,,,,,,2024-07-19,1,,,,,エヌジーエス,0
148,1120003027060,新規,0,2024-07-19,2024-07-19,ＭＯＯＮ合同会社,,合同会社,大阪府,大阪市生野区,新今里４丁目３番２３号,,27,116,5440001,,,,,,,2024-07-19,1,,,,,ムーン,0
150,1120101070004,新規,0,2024-07-19,2024-07-19,株式会社縁,,株式会社,大阪府,堺市堺区,旭ヶ丘南町３丁２－３１,,27,141,5900807,,,,,,,2024-07-19,1,,,,,エニシ,0
158,1122005003766,新規,0,2024-07-19,2024-07-19,医療法人けいよう会,,その他の設立登記法人,大阪府,東大阪市,足代２丁目３番１号現代布施駅前ビル２階,,27,227,5770841,,,,,,,2024-07-19,1,,,,,ケイヨウカイ,0
159,1130001077503,新規,0,2024-07-19,2024-07-19,株式会社２８８,,株式会社,京都府,京都市中京区,壬生神明町１番地３クレアドーレ京都二条６１１号室,,26,104,6048861,,,,,,,2024-07-19,1,,,,,ニーハチハチ,0
165,1140001135136,新規,0,2024-07-19,2024-07-19,株式会社ａ　Ｒｏｕｔｅ,,株式会社,兵庫県,神戸市灘区,水道筋３丁目４番地７,,28,102,6570831,,,,,,,2024-07-19,1,,,,,アルウト,0
166,1140001135185,新規,0,2024-07-19,2024-07-19,株式会社ＢＵＲＡＩ,,株式会社,兵庫県,姫路市,白浜町宇佐崎北３丁目３４６番地１,,28,201,6728013,,,,,,,2024-07-19,1,,,,,ブライ,0
167,1140001135202,新規,0,2024-07-19,2024-07-19,株式会社フジックス,,株式会社,兵庫県,芦屋市,親王塚町８番２５－５０２号,,28,206,6590016,,,,,,,2024-07-19,1,,,,,フジックス,0
168,1150001027431,新規,0,2024-07-19,2024-07-19,株式会社日本資源土地開発,,株式会社,奈良県,奈良市,東紀寺町２丁目６番１５号,,29,201,6308305,,,,,,,2024-07-19,1,,,,,ニホンシゲントチカイハツ,0
177,1180001162382,新規,0,2024-07-19,2024-07-19,ラフグラッド株式会社,,株式会社,愛知県,名古屋市昭和区,広瀬町３丁目８番地の１,,23,107,4660004,,,,,,,2024-07-19,1,,,,,ラフグラッド,0
178,1180001162390,新規,0,2024-07-19,2024-07-19,株式会社グルーヴ,,株式会社,愛知県,名古屋市名東区,上社１丁目１２０１番地（第２上社ハイツ８０６号）,,23,115,4650025,,,,,,,2024-07-19,1,,,,,グルーヴ,0
189,1200001042730,新規,0,2024-07-19,2024-07-19,株式会社Ｍａｇｍｅｌｌ,,株式会社,岐阜県,海津市,平田町野寺１２７６,,21,221,5030303,,,,,,,2024-07-19,1,,,,,マグメル,0
197,1230001020444,新規,0,2024-07-19,2024-07-19,株式会社ＨＡＢＩＬＩＳ,,株式会社,富山県,富山市,羽根１４８０番地６,,16,201,9300864,,,,,,,2024-07-19,1,,,,,ハビリス,0
205,1240001063558,新規,0,2024-07-19,2024-07-19,ＫＥＫ株式会社,,株式会社,広島県,広島市南区,宇品東２丁目１番４０－１１０２号,,34,103,7340003,,,,,,,2024-07-19,1,,,,,ケーイーケー,0
207,1240003006770,新規,0,2024-07-19,2024-07-19,チャレンジパートナーズ合同会社,,合同会社,広島県,神石郡神石高原町,油木６６７３,,34,545,7201812,,,,,,,2024-07-19,1,,,,,チャレンジパートナーズ,0
210,1260003004822,新規,0,2024-07-19,2024-07-19,合同会社野澤商店,,合同会社,岡山県,備前市,三石１７１番地７,,33,211,7050132,,,,,,,2024-07-19,1,,,,,ノザワショウテン,0
220,1300003002152,新規,0,2024-07-19,2024-07-19,合同会社ＳＲサポート,,合同会社,佐賀県,鳥栖市,原町１０３１番地５,,41,203,8410024,,,,,,,2024-07-19,1,,,,,,0
222,1310003004817,新規,0,2024-07-19,2024-07-19,合同会社百一,,合同会社,長崎県,長崎市,桶屋町１８番地桶屋町七福商会ビル５０３号室,,42,201,8500027,,,,,,,2024-07-19,1,,,,,モモイチ,0
225,1320001020600,新規,0,2024-07-19,2024-07-19,ヨシダ財務コンサルティング株式会社,,株式会社,大分県,大分市,田中町３丁目９番１４号,,44,201,8700852,,,,,,,2024-07-19,1,,,,,ヨシダザイムコンサルティング,0
226,1320003004428,新規,0,2024-07-19,2024-07-19,合同会社Ｍ．Ｗ．Ｓ　Ｃｏｍｐａｎｙ,,合同会社,大分県,中津市,大字一ツ松１２６番地７,,44,203,8710014,,,,,,,2024-07-19,1,,,,,エムダブリューエスカンパニー,0
227,1330001032256,新規,0,2024-07-19,2024-07-19,株式会社ＶＥ‐ＬＬ,,株式会社,熊本県,熊本市中央区,下通１丁目５番２６号第１ＲＩＫＩビル４階Ｂ号室,,43,101,8600807,,,,,,,2024-07-19,1,,,,,ベル,0
228,1340001026661,新規,0,2024-07-19,2024-07-19,株式会社ＳＳ企画,,株式会社,鹿児島県,日置市,日吉町日置２２８番地４,,46,216,8993101,,,,,,,2024-07-19,1,,,,,エスエスキカク,0
245,1410001013883,新規,0,2024-07-19,2024-07-19,株式会社Ｔ‐ＳＴＹＬＥ　ＰＲＯＪＥＣＴ,,株式会社,秋田県,秋田市,中通２丁目１番４８号中小路ビルＢ１Ｆ,,05,201,0100001,,,,,,,2024-07-19,1,,,,,ティースタイルプロジェクト,0
248,1420003002958,新規,0,2024-07-19,2024-07-19,合同会社Ｒｉｉｃｃｏｏ,,合同会社,青森県,弘前市,大字城東中央２丁目４番地２ブルーグラス・フォート２０６号,,02,202,0368093,,,,,,,2024-07-19,1,,,,,リークー,0
253,1430001092273,新規,0,2024-07-19,2024-07-19,株式会社ソレア,,株式会社,北海道,札幌市西区,二十四軒一条５丁目１番２ラ・ポール二十四軒２号館１０７号室,,01,107,0630801,,,,,,,2024-07-19,1,,,,,ソレア,0
254,1430001092281,新規,0,2024-07-19,2024-07-19,株式会社Ａ．Ｔ不動産,,株式会社,北海道,札幌市南区,澄川五条７丁目４番１号,,01,106,0050005,,,,,,,2024-07-19,1,,,,,エーティーフドウサン,0
256,1430003016569,新規,0,2024-07-19,2024-07-19,夏莉菜合同会社,,合同会社,北海道,札幌市南区,澄川五条１３丁目５－１３,,01,106,0050005,,,,,,,2024-07-19,1,,,,,カリナ,0
261,1470003002680,新規,0,2024-07-19,2024-07-19,合同会社ＭＡＲＧＡＲＥＴ,,合同会社,香川県,三豊市,詫間町詫間６８２５番地３２,,37,208,7691101,,,,,,,2024-07-19,1,,,,,マーガレット,0
264,1490001010816,新規,0,2024-07-19,2024-07-19,株式会社信富建設,,株式会社,高知県,高知市,薊野南町１０番１４号,,39,201,7810014,,,,,,,2024-07-19,1,,,,,シントミケンセツ,0
273,1500003003279,新規,0,2024-07-19,2024-07-19,合同会社ＭＯＯＮ,,合同会社,愛媛県,今治市,湊町１丁目４番３号,,38,202,7940003,,,,,,,2024-07-19,1,,,,,ムーン,0
277,2010001246556,新規,0,2024-07-19,2024-07-19,株式会社ＰＵＹ,,株式会社,東京都,文京区,音羽１丁目２２－１８－８Ｆ,,13,105,1120013,,,,,,,2024-07-19,1,,,,,ピーユーワイ,0
278,2010001246655,新規,0,2024-07-19,2024-07-19,株式会社キャンズクリエイティブ,,株式会社,東京都,千代田区,平河町１丁目９番８－９０２号,,13,101,1020093,,,,,,,2024-07-19,1,,,,,キャンズクリエイティブ,0
279,2010001246688,新規,0,2024-07-19,2024-07-19,株式会社ピースエレメンツ,,株式会社,東京都,中央区,銀座３丁目３番１４号,,13,102,1040061,,,,,,,2024-07-19,1,,,,,ピースエレメンツ,0
280,2010001246721,新規,0,2024-07-19,2024-07-19,Ｌ・ＣＯＮＤ株式会社,,株式会社,東京都,千代田区,神田神保町２丁目４６番地赤石建設ビル２階（児玉会計事務所内）,,13,101,1010051,,,,,,,2024-07-19,1,,,,,エルシイオーエヌデイ,0
291,2010401183853,新規,0,2024-07-19,2024-07-19,株式会社ビューティサポート,,株式会社,東京都,港区,芝浦４丁目１１番１７号６階,,13,103,1080023,,,,,,,2024-07-19,1,,,,,ビューティサポート,0
292,2010401183861,新規,0,2024-07-19,2024-07-19,株式会社スターセイル,,株式会社,東京都,港区,赤坂８丁目１２－１２ワンサードレジデンス赤坂ＪＯＨＯビル３０２号室,,13,103,1070052,,,,,,,2024-07-19,1,,,,,スターセイル,0
293,2010401183894,新規,0,2024-07-19,2024-07-19,ＯＰＩ・１９株式会社,,株式会社,東京都,港区,浜松町２丁目４番１号,,13,103,1050013,,,,,,,2024-07-19,1,,,,,オーピーアイナインティーン,0
294,2010401183911,新規,0,2024-07-19,2024-07-19,株式会社ウゴネット,,株式会社,東京都,港区,浜松町２丁目２番１５号浜松町ダイヤビル２Ｆ,,13,103,1050013,,,,,,,2024-07-19,1,,,,,ウゴネット,0
296,2010403033073,新規,0,2024-07-19,2024-07-19,ＯＰＩ・２０合同会社,,合同会社,東京都,港区,浜松町２丁目４番１号,,13,103,1050013,,,,,,,2024-07-19,1,,,,,オーピーアイトゥエンティー,0
298,2010501052628,新規,0,2024-07-19,2024-07-19,株式会社第一建物管理,,株式会社,東京都,台東区,東浅草２丁目２８番５－２０１号,,13,106,1110025,,,,,,,2024-07-19,1,,,,,ダイイチタテモノカンリ,0
299,2010501052636,新規,0,2024-07-19,2024-07-19,ｅｎｖｉｒｏｎｍｅｎｔ　ｂａｎｋ株式会社,,株式会社,東京都,台東区,蔵前４丁目２５番４－９０２号,,13,106,1110051,,,,,,,2024-07-19,1,,,,,エンバイロメントバンク,0
301,2010601065579,新規,0,2024-07-19,2024-07-19,ＲＩＧＯ　ＴＥＣＨ株式会社,,株式会社,東京都,江東区,塩浜２丁目７番５－１１７号,,13,108,1350043,,,,,,,2024-07-19,1,,,,,リゴテック,0
302,2010605004351,新規,0,2024-07-19,2024-07-19,一般社団法人おひとりさまサポート,,その他の設立登記法人,東京都,墨田区,錦糸２丁目４番６号,,13,107,1300013,,,,,,,2024-07-19,1,,,,,オヒトリサマサポート,0
308,2011001163246,新規,0,2024-07-19,2024-07-19,株式会社ＭＯＧＵ,,株式会社,東京都,渋谷区,渋谷２丁目１９－１５宮益坂ビルディング６０９,,13,113,1500002,,,,,,,2024-07-19,1,,,,,モグ,0
309,2011001163337,新規,0,2024-07-19,2024-07-19,株式会社ｃｅｃｅｃｈｉｃ,,株式会社,東京都,渋谷区,松濤１丁目１９－１０－１０３,,13,113,1500046,,,,,,,2024-07-19,1,,,,,シーシーシック,0
310,2011001163361,新規,0,2024-07-19,2024-07-19,蘭美人株式会社,,株式会社,東京都,渋谷区,代々木３丁目５９番１１－２０６号,,13,113,1510053,,,,,,,2024-07-19,1,,,,,ランビジン,0
316,2011101108092,新規,0,2024-07-19,2024-07-19,株式会社ａｉｍ,,株式会社,東京都,新宿区,西新宿３丁目３番１３号西新宿水間ビル２Ｆ,,13,104,1600023,,,,,,,2024-07-19,1,,,,,エイム,0
317,2011101108126,新規,0,2024-07-19,2024-07-19,株式会社ＦＴスマイル,,株式会社,東京都,新宿区,新宿１丁目１９番１０号サンモールクレスト６０２号,,13,104,1600022,,,,,,,2024-07-19,1,,,,,エフティースマイル,0
319,2011301029849,新規,0,2024-07-19,2024-07-19,株式会社Ｅｃｏｓｙｓｔｅｍｓ　Ｊａｐａｎ,,株式会社,東京都,杉並区,井草２丁目１－２－２０１,,13,115,1670021,,,,,,,2024-07-19,1,,,,,エコシステムスジャパン,0
323,2011501030945,新規,0,2024-07-19,2024-07-19,株式会社グリーンマートＨＡＮＯ,,株式会社,東京都,北区,十条仲原１丁目１－４,,13,117,1140031,,,,,,,2024-07-19,1,,,,,グリーンマートハノ,0
325,2011601027908,新規,0,2024-07-19,2024-07-19,ブランシード株式会社,,株式会社,東京都,練馬区,東大泉２丁目３８番３８号,,13,120,1780063,,,,,,,2024-07-19,1,,,,,ブランシード,0
326,2011605002592,新規,0,2024-07-19,2024-07-19,一般社団法人よつば会,,その他の設立登記法人,東京都,練馬区,大泉学園町３丁目１番３２号,,13,120,1780061,,,,,,,2024-07-19,1,,,,,ヨツバカイ,0
335,2012301013999,新規,0,2024-07-19,2024-07-19,株式会社ＭＴＧ,,株式会社,東京都,町田市,相原町９２７－７８,,13,209,1940211,,,,,,,2024-07-19,1,,,,,エムティジィ,0
337,2012401042106,新規,0,2024-07-19,2024-07-19,株式会社あん,,株式会社,東京都,武蔵野市,西久保２丁目１番６－１０３号,,13,203,1800013,,,,,,,2024-07-19,1,,,,,アン,0
339,2012405005018,新規,0,2024-07-19,2024-07-19,ソーシャル国際行政書士法人,,その他の設立登記法人,東京都,武蔵野市,吉祥寺本町１丁目１１番２４号,,13,203,1800004,,,,,,,2024-07-19,1,,,,,ソーシャルコクサイ,0
340,2012701018367,新規,0,2024-07-19,2024-07-19,株式会社ＳＰＤ,,株式会社,東京都,東村山市,久米川町５丁目４番１号野崎ビル１０１,,13,213,1890003,,,,,,,2024-07-19,1,,,,,エスピーディー,0
349,2020001158065,新規,0,2024-07-19,2024-07-19,株式会社ＹＡＲ,,株式会社,神奈川県,横浜市西区,浅間町１丁目４番３号ウィザードビル４０２,,14,103,2200072,,,,,,,2024-07-19,1,,,,,ワイエーアール,0
350,2020001158123,新規,0,2024-07-19,2024-07-19,株式会社フロレゾン,,株式会社,神奈川県,横浜市西区,浅間町１丁目４番３号ウィザードビル４０２,,14,103,2200072,,,,,,,2024-07-19,1,,,,,フロレゾン,0
357,2021001082767,新規,0,2024-07-19,2024-07-19,ＳＥＮＳＥ株式会社,,株式会社,神奈川県,藤沢市,辻堂元町２丁目３番１８号湘南ルークＤ,,14,205,2510043,,,,,,,2024-07-19,1,,,,,センス,0
358,2021001082775,新規,0,2024-07-19,2024-07-19,オクト株式会社,,株式会社,神奈川県,伊勢原市,東大竹２丁目７番地の７ＬＭ伊勢原第３－５０２号,,14,214,2591133,,,,,,,2024-07-19,1,,,,,オクト,0
360,2021003014784,新規,0,2024-07-19,2024-07-19,合同会社ＷＩＮＧ,,合同会社,神奈川県,大和市,上草柳１２３―２,,14,213,2420029,,,,,,,2024-07-19,1,,,,,ウイング,0
364,2030001161497,新規,0,2024-07-19,2024-07-19,株式会社よつば企画,,株式会社,埼玉県,志木市,中宗岡４丁目１８番１－３０７号,,11,228,3530002,,,,,,,2024-07-19,1,,,,,ヨツバキカク,0
365,2030001161506,新規,0,2024-07-19,2024-07-19,株式会社ｓｅｔａｎａ,,株式会社,埼玉県,戸田市,美女木４丁目７番地の１０,,11,224,3350031,,,,,,,2024-07-19,1,,,,,セタナ,0
366,2030001161514,新規,0,2024-07-19,2024-07-19,Ｌｕｃｋｙ　Ｅｄｅｎ株式会社,,株式会社,埼玉県,坂戸市,西坂戸１丁目４番４号,,11,239,3500247,,,,,,,2024-07-19,1,,,,,ラッキーエデン,0
372,2030003024685,新規,0,2024-07-19,2024-07-19,合同会社ＵＰＣ,,合同会社,埼玉県,越谷市,蒲生寿町１７番１号－２Ｆ,,11,222,3430836,,,,,,,2024-07-19,1,,,,,ユーピーシー,0
373,2040001134493,新規,0,2024-07-19,2024-07-19,株式会社ＡＭＡＲＡ,,株式会社,千葉県,印西市,師戸２７５９番地１,,12,231,2701615,,,,,,,2024-07-19,1,,,,,アマラ,0
375,2040003025443,新規,0,2024-07-19,2024-07-19,合同会社スフリ,,合同会社,千葉県,千葉市若葉区,西都賀３丁目９番２号小山ビル,,12,104,2640026,,,,,,,2024-07-19,1,,,,,スフリ,0
379,2060001037298,新規,0,2024-07-19,2024-07-19,株式会社三桜運送,,株式会社,栃木県,日光市,猪倉３３９２番地１１２チェリーハイツ２０１,,09,206,3212344,,,,,,,2024-07-19,1,,,,,ミサクラウンソウ,0
380,2060001037323,新規,0,2024-07-19,2024-07-19,株式会社アースニューグリーン,,株式会社,栃木県,宇都宮市,泉が丘４丁目９番１７号泉が丘ガーデンハウスＢ棟,,09,201,3210952,,,,,,,2024-07-19,1,,,,,アースニューグリーン,0
384,2070001041968,新規,0,2024-07-19,2024-07-19,株式会社ＡＳ,,株式会社,群馬県,前橋市,高井町１丁目２９番地６キャッツアイＢ２０２号,,10,201,3710857,,,,,,,2024-07-19,1,,,,,アス,0
385,2070001041984,新規,0,2024-07-19,2024-07-19,株式会社Ｓｈｏｗｄｏｇ,,株式会社,群馬県,高崎市,本町４８,,10,202,3700813,,,,,,,2024-07-19,1,,,,,ショードッグ,0
388,2070005010300,新規,0,2024-07-19,2024-07-19,一般社団法人ＧＣＣ,,その他の設立登記法人,群馬県,桐生市,相生町２丁目２６０番地の５１,,10,203,3760011,,,,,,,2024-07-19,1,,,,,,0
390,2080103003097,新規,0,2024-07-19,2024-07-19,Ａ・Ｉ・Ｒ合同会社,,合同会社,静岡県,富士市,青島町１５８－６,,22,210,4170047,,,,,,,2024-07-19,1,,,,,エーアイアール,0
393,2090003002603,新規,0,2024-07-19,2024-07-19,合同会社ＨＵＮＴＳＭＥＮ　ＬＬＣ,,合同会社,山梨県,南都留郡鳴沢村,８５４５番地４,,19,429,4010320,,,,,,,2024-07-19,1,,,,,ハンツメンエルエルシー,0
408,2120001266725,新規,0,2024-07-19,2024-07-19,株式会社ＫＬＣ,,株式会社,大阪府,大阪市中央区,淡路町１丁目６番９号,,27,128,5410047,,,,,,,2024-07-19,1,,,,,ケーエルシー,0
409,2120001266857,新規,0,2024-07-19,2024-07-19,株式会社くうはく,,株式会社,大阪府,大阪市福島区,玉川４丁目１３－２７,,27,103,5530004,,,,,,,2024-07-19,1,,,,,クウハク,0
410,2120001266898,新規,0,2024-07-19,2024-07-19,美景株式会社,,株式会社,大阪府,大阪市浪速区,下寺３丁目１８番７号１０１,,27,111,5560001,,,,,,,2024-07-19,1,,,,,ビケイ,0
411,2120001266923,新規,0,2024-07-19,2024-07-19,ツバメ株式会社,,株式会社,大阪府,大阪市生野区,新今里５丁目１５－１７プランシュＩＩ２Ｄ,00135640,27,116,5440001,,,,,,,2024-07-19,1,,,,,ツバメ,0
415,2120003027068,新規,0,2024-07-19,2024-07-19,ＨＳ合同会社,,合同会社,大阪府,大阪市天王寺区,上本町７丁目３番２７号パシフィック上本町１００３,,27,109,5430001,,,,,,,2024-07-19,1,,,,,エイチエス,0
417,2120101070003,新規,0,2024-07-19,2024-07-19,株式会社俊設備工業,,株式会社,大阪府,羽曳野市,高鷲１０丁目１３番７号,,27,222,5830882,,,,,,,2024-07-19,1,,,,,シュンセツビコウギョウ,0
418,2120103005956,新規,0,2024-07-19,2024-07-19,ＣＲＥＡＴＩＶＥ　ＩＮＮＯＶＡＴＩＯＮ合同会社,,合同会社,大阪府,松原市,上田４丁目１番２６－４０８号,,27,217,5800016,,,,,,,2024-07-19,1,,,,,クリエイティブイノベーション,0
420,2120105009889,新規,0,2024-07-19,2024-07-19,一般社団法人ジェントルハンズ協会,,その他の設立登記法人,大阪府,泉大津市,楠町西３－２０,,27,206,5950038,,,,,,,2024-07-19,1,,,,,ジェントルハンズキョウカイ,0
441,2170001018221,新規,0,2024-07-19,2024-07-19,浅丸技巧株式会社,,株式会社,和歌山県,紀の川市,西井阪７番地６,,30,208,6496427,,,,,,,2024-07-19,1,,,,,アサマルギコウ,0
449,2180003027079,新規,0,2024-07-19,2024-07-19,合同会社東海調査,,合同会社,愛知県,名古屋市千種区,池下１丁目１１番２１号,,23,101,4640067,,,,,,,2024-07-19,1,,,,,トウカイチョウサ,0
450,2180003027104,新規,0,2024-07-19,2024-07-19,ＩＴエンジニアリング合同会社,,合同会社,愛知県,名古屋市天白区,平針１丁目１１１１番地の１,,23,116,4680011,,,,,,,2024-07-19,1,,,,,アイティーエンジニアリング,0
451,2180005020701,新規,0,2024-07-19,2024-07-19,アヴァンジェ大塚管理組合法人,,その他の設立登記法人,愛知県,稲沢市,大塚南２丁目１４６番地,,23,220,4928214,,,,,,,2024-07-19,1,,,,,アヴァンジェオオツカ,0
458,2190005011971,新規,0,2024-07-19,2024-07-19,一般社団法人だーこ,,その他の設立登記法人,三重県,伊賀市,上野愛宕町１８２２番地の１,,24,216,5180846,,,,,,,2024-07-19,1,,,,,,0
468,2240001063557,新規,0,2024-07-19,2024-07-19,株式会社源氣印．,,株式会社,広島県,広島市中区,十日市町１丁目２番２２号,,34,101,7300805,,,,,,,2024-07-19,1,,,,,ゲンキジルシ,0
469,2240001063565,新規,0,2024-07-19,2024-07-19,株式会社さいわいのもり,,株式会社,広島県,広島市東区,牛田東３丁目３番４１－１号,,34,102,7320063,,,,,,,2024-07-19,1,,,,,サイワイノモリ,0
478,2290801030710,新規,0,2024-07-19,2024-07-19,株式会社風と空,,株式会社,福岡県,北九州市戸畑区,三六町１１番４号,,40,105,8040091,,,,,,,2024-07-19,1,,,,,カゼトソラ,0
482,2330001032263,新規,0,2024-07-19,2024-07-19,株式会社陽月,,株式会社,熊本県,熊本市中央区,練兵町２７番地（６０５号）,,43,101,8600017,,,,,,,2024-07-19,1,,,,,ヨウゲツ,0
485,2330003010473,新規,0,2024-07-19,2024-07-19,合同会社敬企画,,合同会社,熊本県,阿蘇郡南阿蘇村,大字長野１８０９番地４リゾートマンション阿蘇２　１０５号,,43,433,8691403,,,,,,,2024-07-19,1,,,,,ケイキカク,0
486,2340001026660,新規,0,2024-07-19,2024-07-19,ＴＫ　ｔｗｉｎｓ株式会社,,株式会社,鹿児島県,鹿児島市,吉野町３５０６番地２１７,,46,201,8920871,,,,,,,2024-07-19,1,,,,,ティーケーツインズ,0
489,2340005009760,新規,0,2024-07-19,2024-07-19,一般社団法人ハートフルライフ,,その他の設立登記法人,鹿児島県,鹿児島市,桜ヶ丘５丁目３７番２号三愛ハイツ２０１,,46,201,8910175,,,,,,,2024-07-19,1,,,,,ハートフルライフ,0
491,2360001033952,新規,0,2024-07-19,2024-07-19,株式会社瑞興,,株式会社,沖縄県,糸満市,西崎町３丁目５１０番地の２７１,,47,210,9010306,,,,,,,2024-07-19,1,,,,,ズイコウ,0
492,2360003014166,新規,0,2024-07-19,2024-07-19,合同会社ＪＰ,,合同会社,沖縄県,那覇市,泊３丁目６番地１０－２０２,,47,201,9000012,,,,,,,2024-07-19,1,,,,,ジェーピー,0
500,2410001013882,新規,0,2024-07-19,2024-07-19,株式会社建築板金大友,,株式会社,秋田県,大仙市,大沢郷宿字山ノ田６０番地,,05,212,0192202,,,,,,,2024-07-19,1,,,,,ケンチクバンキンオオトモ,0
504,2410005006593,新規,0,2024-07-19,2024-07-19,医療法人清勝会,,その他の設立登記法人,秋田県,秋田市,御野場８丁目７番１号,,05,201,0101424,,,,,,,2024-07-19,1,,,,,セイショウカイ,0
511,2430001092280,新規,0,2024-07-19,2024-07-19,エミシエル株式会社,,株式会社,北海道,札幌市中央区,南二条西１０丁目１０００－２４ＴＡＫＥＴＯビル２Ｆ,,01,101,0600062,,,,,,,2024-07-19,1,,,,,エミシエル,0
521,2480001012548,新規,0,2024-07-19,2024-07-19,株式会社ＡＩＢ,,株式会社,徳島県,勝浦郡上勝町,大字正木字西槻地２０８番地,,36,302,7714505,,,,,,,2024-07-19,1,,,,,エーアイビー,0
525,2500003003278,新規,0,2024-07-19,2024-07-19,合同会社ＦＴＭ,,合同会社,愛媛県,西条市,古川乙５６番地２,,38,206,7930045,,,,,,,2024-07-19,1,,,,,エフティエム,0
534,3010001246646,新規,0,2024-07-19,2024-07-19,ＳＵＰＲＥＷＥ株式会社,,株式会社,東京都,文京区,大塚５丁目１７番２－７０４号,00135630,13,105,1120012,,,,,,,2024-07-19,1,,,,,サプリウィー,0
535,3010001246679,新規,0,2024-07-19,2024-07-19,ルーニバス株式会社,,株式会社,東京都,中央区,銀座６丁目１３番１６号銀座ＷａｌｌビルＵＣＦ５０１,,13,102,1040061,,,,,,,2024-07-19,1,,,,,ルーニバス,0
540,3010003044040,新規,0,2024-07-19,2024-07-19,合同会社アシスト,,合同会社,東京都,千代田区,丸の内２丁目３番２号郵船ビルディング１階,,13,101,1000005,,,,,,,2024-07-19,1,,,,,アシスト,0
541,3010003044354,新規,0,2024-07-19,2024-07-19,ｏｌｉｉｖｅ合同会社,,合同会社,東京都,中央区,銀座１丁目１２番４号Ｎ＆ＥＢＬＤ．６Ｆ,,13,102,1040061,,,,,,,2024-07-19,1,,,,,オリーブ,0
547,3010401183852,新規,0,2024-07-19,2024-07-19,株式会社ビューティサイドアップ,,株式会社,東京都,港区,芝浦４丁目１１番１７号６階,,13,103,1080023,,,,,,,2024-07-19,1,,,,,ビューティサイドアップ,0
548,3010401183902,新規,0,2024-07-19,2024-07-19,ＨＹＢＲＩＤＷＯＲＫＳ株式会社,,株式会社,東京都,港区,六本木１丁目４－５アークヒルズサウスタワー４Ｆ,,13,103,1060032,,,,,,,2024-07-19,1,,,,,ハイブリッドワークス,0
549,3010401183919,新規,0,2024-07-19,2024-07-19,Ｕｎｍａｎｎｅｄ　Ｌｉｆｅ株式会社,,株式会社,東京都,港区,虎ノ門１丁目１７番１号,,13,103,1050001,,,,,,,2024-07-19,1,,,,,アンマンドライフ,0
559,3010601065586,新規,0,2024-07-19,2024-07-19,ＲＭソリューション株式会社,,株式会社,東京都,墨田区,立花５丁目５０番２８－２３６号,,13,107,1310043,,,,,,,2024-07-19,1,,,,,アールエムソリューション,0
560,3010605004350,新規,0,2024-07-19,2024-07-19,一般社団法人Ｔｏｒｉｉ,,その他の設立登記法人,東京都,江東区,東陽３丁目２７番３号,,13,108,1350016,,,,,,,2024-07-19,1,,,,,トリイ,0
567,3011001163237,新規,0,2024-07-19,2024-07-19,株式会社ジーニング,,株式会社,東京都,目黒区,鷹番３丁目９－９地下１階,,13,110,1520004,,,,,,,2024-07-19,1,,,,,ジーニング,0
568,3011001163344,新規,0,2024-07-19,2024-07-19,株式会社Ｒｅｖｉｖａｌ　Ｃｏｒｅ,,株式会社,東京都,渋谷区,宇田川町３番７号ヒューリック渋谷公園通りビル５Ｆ－１０２,,13,113,1500042,,,,,,,2024-07-19,1,,,,,リバイバルコア,0
569,3011001163360,新規,0,2024-07-19,2024-07-19,株式会社フリル,,株式会社,東京都,渋谷区,渋谷２丁目１９－１５宮益坂ビルディング６０９,,13,113,1500002,,,,,,,2024-07-19,1,,,,,フリル,0
570,3011001163484,新規,0,2024-07-19,2024-07-19,株式会社Ｒｏｄｅｎ,,株式会社,東京都,渋谷区,富ヶ谷１丁目８‐６ラルーチェ１０１,,13,113,1510063,,,,,,,2024-07-19,1,,,,,ローデン,0
571,3011003019577,新規,0,2024-07-19,2024-07-19,Ｃ＆Ｅ総合管理合同会社,,合同会社,東京都,渋谷区,道玄坂１丁目１０番８号渋谷道玄坂東急ビル２Ｆ－Ｃ,,13,113,1500043,,,,,,,2024-07-19,1,,,,,シーアンドイーソウゴウカンリ,0
574,3011101108075,新規,0,2024-07-19,2024-07-19,株式会社ＴｈｒｅｅＣｏｄｅ,,株式会社,東京都,新宿区,西新宿６丁目５番１号新宿アイランドタワー２階,,13,104,1600023,,,,,,,2024-07-19,1,,,,,スリーコード,0
575,3011101108083,新規,0,2024-07-19,2024-07-19,ＣＯＵＮＴＥＲシップ株式会社,,株式会社,東京都,新宿区,市谷船河原町１番地,,13,104,1620826,,,,,,,2024-07-19,1,,,,,カウンターシップ,0
576,3011101108091,新規,0,2024-07-19,2024-07-19,株式会社Ｂｒｉｃｋ　Ｂａｙ　Ｉｎｓｉｇｈｔｓ,,株式会社,東京都,新宿区,西新宿３丁目３番１３号西新宿水間ビル２Ｆ,,13,104,1600023,,,,,,,2024-07-19,1,,,,,ブリックベイインサイツ,0
577,3011103014701,新規,0,2024-07-19,2024-07-19,たくぞーグラフィック合同会社,,合同会社,東京都,新宿区,西新宿３丁目３番１３号西新宿水間ビル２Ｆ,,13,104,1600023,,,,,,,2024-07-19,1,,,,,タクゾーグラフィック,0
584,3011301029856,新規,0,2024-07-19,2024-07-19,株式会社ＴＲＥＮＯ,,株式会社,東京都,杉並区,浜田山１丁目１７番４号パークサイド浜田山１０２,,13,115,1680065,,,,,,,2024-07-19,1,,,,,トレノ,0
586,3011401026266,新規,0,2024-07-19,2024-07-19,株式会社Ｄｉｓｐｅｒ,,株式会社,東京都,板橋区,中板橋２１番１６号グランミューズ８０１号室,,13,119,1730016,,,,,,,2024-07-19,1,,,,,ディスパー,0
595,3011601027907,新規,0,2024-07-19,2024-07-19,株式会社フォルトゥナプランニング,,株式会社,東京都,練馬区,石神井台４丁目７番３号石神井台クリニックモール４階,,13,120,1770045,,,,,,,2024-07-19,1,,,,,フォルトゥナプランニング,0
599,3011701027451,新規,0,2024-07-19,2024-07-19,株式会社Ｇｒａｂ　Ｔｏｐ,,株式会社,東京都,江戸川区,松島３丁目１５番４号,,13,123,1320031,,,,,,,2024-07-19,1,,,,,グラブトップ,0
601,3011801044561,新規,0,2024-07-19,2024-07-19,株式会社アール・イー・オー,,株式会社,東京都,足立区,平野１丁目１６番１４号,,13,121,1210076,,,,,,,2024-07-19,1,,,,,アールイーオー,0
602,3011803006345,新規,0,2024-07-19,2024-07-19,清栄合同会社,,合同会社,東京都,葛飾区,西水元１丁目２９－３,,13,122,1250031,,,,,,,2024-07-19,1,,,,,セイエ,0
604,3012301013998,新規,0,2024-07-19,2024-07-19,株式会社アンドワイコンセプト,,株式会社,東京都,町田市,森野１丁目３６番２号セレステ町田１階２階,,13,209,1940022,,,,,,,2024-07-19,1,,,,,アンドワイコンセプト,0
609,3013101009468,新規,0,2024-07-19,2024-07-19,株式会社Ｆｒｅｉｇｏ,,株式会社,東京都,羽村市,神明台１丁目２２番地２４,,13,227,2050023,,,,,,,2024-07-19,1,,,,,フレイゴ,0
613,3020001158056,新規,0,2024-07-19,2024-07-19,テロワール株式会社,,株式会社,神奈川県,横浜市西区,西戸部町３丁目２７２番地３１,,14,103,2200046,,,,,,,2024-07-19,1,,,,,テロワール,0
619,3021001082766,新規,0,2024-07-19,2024-07-19,シニアライフリアルティ株式会社,,株式会社,神奈川県,小田原市,久野９８６番地の１４,,14,206,2500055,,,,,,,2024-07-19,1,,,,,シニアライフリアルティ,0
622,3021003014791,新規,0,2024-07-19,2024-07-19,合同会社ヴェール,,合同会社,神奈川県,厚木市,下依知１丁目５番１１号,,14,212,2430806,,,,,,,2024-07-19,1,,,,,ヴェール,0
624,3030001161505,新規,0,2024-07-19,2024-07-19,Ｇｏｏｄ　Ｎｅｗｓ株式会社,,株式会社,埼玉県,坂戸市,南町２２－２１ソリッド・リファイン坂戸１０３号室,,11,239,3500233,,,,,,,2024-07-19,1,,,,,グッドニュース,0
628,3030003024610,新規,0,2024-07-19,2024-07-19,ＳＫＹＰＥＲＳＩＡ合同会社,,合同会社,埼玉県,比企郡川島町,大字中山１１００－４Ｂ２０２,,11,346,3500165,,,,,,,2024-07-19,1,,,,,スカイペルシア,0
629,3030003024692,新規,0,2024-07-19,2024-07-19,ＨＵＤＡ合同会社,,合同会社,埼玉県,飯能市,本町１９番２号ＫＩＶ－Ｗｅｌｆａｒｅ会館飯能６号室,,11,209,3570032,,,,,,,2024-07-19,1,,,,,フーダ,0
631,3030005021770,新規,0,2024-07-19,2024-07-19,ＮＰＯ法人Ｃａｎｃｅｒ．Ｓｔａｇｅ０,,その他の設立登記法人,埼玉県,秩父市,和泉町２０番,,11,207,3691874,,,,,,,2024-07-19,1,,,,,キャンサーステージゼロ,0
633,3040001134550,新規,0,2024-07-19,2024-07-19,ＪＭＥＸコンサルティング株式会社,,株式会社,千葉県,佐倉市,大蛇町５８３番地６１,,12,212,2850043,,,,,,,2024-07-19,1,,,,,ジェイメックスコンサルティング,0
636,3040003025418,新規,0,2024-07-19,2024-07-19,合同会社ＢＵＺＺ,,合同会社,千葉県,千葉市中央区,富士見２丁目１７番１０号Ａ－１ビル８階,,12,101,2600015,,,,,,,2024-07-19,1,,,,,バズ,0
637,3040003025442,新規,0,2024-07-19,2024-07-19,ＲＩ‐ＦＡＳＴ合同会社,,合同会社,千葉県,流山市,流山２丁目３１５番地,,12,220,2700164,,,,,,,2024-07-19,1,,,,,リファスト,0
643,3060001037314,新規,0,2024-07-19,2024-07-19,きぶなアセットマネジメント株式会社,,株式会社,栃木県,下野市,祇園５丁目１０番地５,00135620,09,216,3290434,,,,,,,2024-07-19,1,,,,,キブナアセットマネジメント,0
644,3060001037322,新規,0,2024-07-19,2024-07-19,株式会社ＭＵＧＩ,,株式会社,栃木県,宇都宮市,大網町９０５番地１,,09,201,3212111,,,,,,,2024-07-19,1,,,,,ムギ,0
666,3120001266947,新規,0,2024-07-19,2024-07-19,株式会社ヴィヴ,,株式会社,大阪府,大阪市中央区,南船場４丁目１０番５号南船場ＳＯＨＯビル７０２,,27,128,5420081,,,,,,,2024-07-19,1,,,,,ヴィヴ,0
667,3120001266963,新規,0,2024-07-19,2024-07-19,株式会社アペゼ,,株式会社,大阪府,大阪市淀川区,十三東１丁目２番１５号１０２,,27,123,5320023,,,,,,,2024-07-19,1,,,,,アペゼ,0
671,3120005024442,新規,0,2024-07-19,2024-07-19,医療法人愉全会,,その他の設立登記法人,大阪府,門真市,大字横地６０４番地３,,27,223,5710023,,,,,,,2024-07-19,1,,,,,ユゼンカイ,0
676,3122001038285,新規,0,2024-07-19,2024-07-19,株式会社Ｍ．ＴＲＩＳＴＡＮ,,株式会社,大阪府,八尾市,高美町６丁目８番５９号,,27,212,5810017,,,,,,,2024-07-19,1,,,,,エムトリスタン,0
678,3130001077476,新規,0,2024-07-19,2024-07-19,株式会社ＣＨＥＥＭＡ　ＧＲＯＵＰ,,株式会社,京都府,京都市伏見区,淀樋爪町２３０番地９,,26,109,6130901,,,,,,,2024-07-19,1,,,,,チーマグループ,0
685,3140001135142,新規,0,2024-07-19,2024-07-19,株式会社ジンコーポレーション,,株式会社,兵庫県,神戸市長田区,川西通４丁目１０９番地の１７,,28,106,6530834,,,,,,,2024-07-19,1,,,,,ジンコーポレーション,0
686,3140001135150,新規,0,2024-07-19,2024-07-19,ペガサス総研株式会社,,株式会社,兵庫県,芦屋市,公光町４番２８号芦屋市商工会館１階Ａ－５,00135618,28,206,6590065,,,,,,,2024-07-19,1,,,,,ペガサスソウケン,0
693,3140003020838,新規,0,2024-07-19,2024-07-19,合同会社ＹＡＫＥＮ,,合同会社,兵庫県,神戸市中央区,神若通６丁目１－１０寿マンション１０５,,28,110,6510067,,,,,,,2024-07-19,1,,,,,ヤケン,0
695,3160005011321,新規,0,2024-07-19,2024-07-19,特定非営利活動法人太陽十月,,その他の設立登記法人,滋賀県,湖南市,菩提寺１１３６番地,,25,211,5203242,,,,,,,2024-07-19,1,,,,,タイヨウトツキ,0
696,3170001018220,新規,0,2024-07-19,2024-07-19,株式会社ＲＯＣＫ　ＢＲＩＤＧＥ,,株式会社,和歌山県,和歌山市,磯の浦３３２番地３,,30,201,6400114,,,,,,,2024-07-19,1,,,,,ロックブリッジ,0
706,3180001162356,新規,0,2024-07-19,2024-07-19,日本養蚕支援株式会社,,株式会社,愛知県,名古屋市北区,柳原２丁目８番３号,,23,103,4620845,,,,,,,2024-07-19,1,,,,,ニホンヨウサンシエン,0
707,3180001162380,新規,0,2024-07-19,2024-07-19,株式会社ドシル,,株式会社,愛知県,名古屋市東区,葵１丁目１７番１４号エルブ葵１２０７,,23,102,4610004,,,,,,,2024-07-19,1,,,,,ドシル,0
715,3200003006434,新規,0,2024-07-19,2024-07-19,合同会社ＬＧＤ,,合同会社,岐阜県,安八郡安八町,北今ケ渕７０番地５,,21,383,5030113,,,,,,,2024-07-19,1,,,,,エルジーディ,0
720,3230001020442,新規,0,2024-07-19,2024-07-19,株式会社ＭＯＯＳＵＮ,,株式会社,富山県,富山市,緑町２丁目３番５号,,16,201,9300038,,,,,,,2024-07-19,1,,,,,ムーサン,0
722,3240001063556,新規,0,2024-07-19,2024-07-19,株式会社カノン,,株式会社,広島県,広島市西区,庚午北２丁目７番１０号,,34,104,7330821,,,,,,,2024-07-19,1,,,,,カノン,0
724,3250001020738,新規,0,2024-07-19,2024-07-19,株式会社ＣＤＳＥ,,株式会社,山口県,岩国市,南岩国町２丁目１番３２－３０２号ジャクソン・タワー,,35,208,7400034,,,,,,,2024-07-19,1,,,,,シーデーエスイー,0
727,3260003004820,新規,0,2024-07-19,2024-07-19,合同会社ｗｏｏｄ　ｆａｒｍ畦田,,合同会社,岡山県,新見市,哲西町矢田１１８９番地,,33,210,7193701,,,,,,,2024-07-19,1,,,,,ウッドファームアゼダ,0
731,3280005007621,新規,0,2024-07-19,2024-07-19,医療法人陽だまり,,その他の設立登記法人,島根県,松江市,東出雲町出雲郷８６２番地１,,32,201,6990108,,,,,,,2024-07-19,1,,,,,ヒダマリ,0
734,3290001106624,新規,0,2024-07-19,2024-07-19,株式会社ハーバーホールディングス,,株式会社,福岡県,福岡市東区,多の津１丁目１番４号,,40,131,8130034,,,,,,,2024-07-19,1,,,,,ハーバーホールディングス,0
735,3290003015542,新規,0,2024-07-19,2024-07-19,合同会社エン,,合同会社,福岡県,飯塚市,伊岐須６３４番地３,,40,205,8200053,,,,,,,2024-07-19,1,,,,,エン,0
736,3300001013843,新規,0,2024-07-19,2024-07-19,株式会社丸幸,,株式会社,佐賀県,佐賀市,川副町大字犬井道１６３１番地３,,41,201,8402212,,,,,,,2024-07-19,1,,,,,マルコウ,0
750,3370001051531,新規,0,2024-07-19,2024-07-19,株式会社成,,株式会社,宮城県,仙台市青葉区,宮町４丁目３番５３号シャーメゾンアムール２０２,,04,101,9800004,,,,,,,2024-07-19,1,,,,,ナル,0
770,3430001092288,新規,0,2024-07-19,2024-07-19,株式会社Ｒｕａｍａ,,株式会社,北海道,札幌市西区,西野四条３丁目１３番１５号,,01,107,0630034,,,,,,,2024-07-19,1,,,,,ルアマ,0
775,3462501001007,新規,0,2024-07-19,2024-07-19,ＫＡＷＡＩＨＯＭＥＳ株式会社,,株式会社,北海道,標津郡中標津町,西町５丁目１４番地２０,,01,692,0861157,,,,,,,2024-07-19,1,,,,,カワイホームズ,0
777,3480001012547,新規,0,2024-07-19,2024-07-19,株式会社ロジックパートナーズ,,株式会社,徳島県,徳島市,南前川町４丁目３番地ビラフェニックス城ノ内２０１,,36,201,7700808,,,,,,,2024-07-19,1,,,,,ロジックパートナーズ,0
791,4010001246595,新規,0,2024-07-19,2024-07-19,ＮＹＭｓ株式会社,,株式会社,東京都,中央区,新富２丁目１０番３号,,13,102,1040041,,,,,,,2024-07-19,1,,,,,,0
792,4010001246711,新規,0,2024-07-19,2024-07-19,株式会社イーストシャイン,,株式会社,東京都,千代田区,岩本町２丁目１－８ＳＯＵＳＩＡ神田ビル６Ｉ,,13,101,1010032,,,,,,,2024-07-19,1,,,,,イーストシャイン,0
797,4010003044345,新規,0,2024-07-19,2024-07-19,ソーラーオオルリ合同会社,,合同会社,東京都,千代田区,麹町２丁目８番地ＭＬＣ麹町ビル４階フィンポート税理士法人内,,13,101,1020083,,,,,,,2024-07-19,1,,,,,ソーラーオオルリ,0
798,4010003044361,新規,0,2024-07-19,2024-07-19,おびのもり合同会社,,合同会社,東京都,中央区,銀座１丁目１２番４号,,13,102,1040061,,,,,,,2024-07-19,1,,,,,オビノモリ,0
799,4010101016238,新規,0,2024-07-19,2024-07-19,ＵＮＩＰＲＯＳ　ＪＡＰＡＮ株式会社,,株式会社,東京都,八王子市,東中野１４８７番地４,,13,201,1920351,,,,,,,2024-07-19,1,,,,,ユニプロスジャパン,0
815,4010401183876,新規,0,2024-07-19,2024-07-19,株式会社ＢＡＢＹ　ＳＬＥＥＰ　ＳＣＨＯＯＬ,,株式会社,東京都,港区,南青山３丁目１番３６号青山丸竹ビル６Ｆ,,13,103,1070062,,,,,,,2024-07-19,1,,,,,ベビースリープスクール,0
817,4010403033071,新規,0,2024-07-19,2024-07-19,Ｔｈｅ７７合同会社,,合同会社,東京都,港区,三田４丁目１２－１４ＣＨＡＮＥＸ５０１,,13,103,1080073,,,,,,,2024-07-19,1,,,,,ザセブンティセブン,0
822,4010501052634,新規,0,2024-07-19,2024-07-19,Ａｋｏ’ｓ株式会社,,株式会社,東京都,台東区,千束３丁目２１番１２号キートスビル３０２号室,,13,106,1110031,,,,,,,2024-07-19,1,,,,,エコス,0
823,4010601065585,新規,0,2024-07-19,2024-07-19,株式会社Ｒｕｉｄｏ　Ｂｏｎｉｔｏ,,株式会社,東京都,江東区,亀戸８丁目９番４号,,13,108,1360071,,,,,,,2024-07-19,1,,,,,ルイードボニート,0
831,4011001163343,新規,0,2024-07-19,2024-07-19,株式会社ｄｏｔ．,,株式会社,東京都,目黒区,上目黒２丁目１６番１４号＆ＮＥＩＧＨＢＯＲｎａｋａｍｅｇｕｒｏ３０２,,13,110,1530051,,,,,,,2024-07-19,1,,,,,ドット,0
832,4011001163491,新規,0,2024-07-19,2024-07-19,株式会社コニーズ,,株式会社,東京都,渋谷区,神宮前６丁目２３番４号桑野ビル２Ｆ,,13,113,1500001,,,,,,,2024-07-19,1,,,,,コニーズ,0
833,4011001163500,新規,0,2024-07-19,2024-07-19,株式会社ＦＲＥＡＫ,,株式会社,東京都,渋谷区,道玄坂１丁目２１番１号渋谷マークシティＷ２２Ｆ,,13,113,1500043,,,,,,,2024-07-19,1,,,,,フリーク,0
835,4011101108108,新規,0,2024-07-19,2024-07-19,株式会社つむと,,株式会社,東京都,新宿区,新宿４丁目３番地１５号レイフラット新宿Ｂ棟３階,,13,104,1600022,,,,,,,2024-07-19,1,,,,,ツムト,0
837,4011103014667,新規,0,2024-07-19,2024-07-19,Ｍｏｏｎ　Ｅｓｔａｔｅ合同会社,,合同会社,東京都,新宿区,大久保１丁目４番２０号グロウハイム大久保３０２号室,,13,104,1690072,,,,,,,2024-07-19,1,,,,,ムーンエステート,0
838,4011103014691,新規,0,2024-07-19,2024-07-19,ＩＳＨ合同会社,,合同会社,東京都,新宿区,西新宿３丁目３番１３号西新宿水間ビル２Ｆ,,13,104,1600023,,,,,,,2024-07-19,1,,,,,アイエスエイチ,0
839,4011103014700,新規,0,2024-07-19,2024-07-19,合同会社ｂｙｔｅｎ,,合同会社,東京都,新宿区,西新宿３丁目３番１３号西新宿水間ビル２Ｆ,,13,104,1600023,,,,,,,2024-07-19,1,,,,,バイテン,0
846,4011701027459,新規,0,2024-07-19,2024-07-19,株式会社とらのお,,株式会社,東京都,江戸川区,東小岩４丁目６－４,,13,123,1330052,,,,,,,2024-07-19,1,,,,,トラノオ,0
847,4011801044552,新規,0,2024-07-19,2024-07-19,東京七様株式会社,,株式会社,東京都,足立区,栗原３丁目２６番１号２Ｆ,,13,121,1230842,,,,,,,2024-07-19,1,,,,,トウキョウナナヨウ,0
848,4011803006344,新規,0,2024-07-19,2024-07-19,ベスト絆合同会社,,合同会社,東京都,足立区,千住元町３５番１－５０１号,,13,121,1200041,,,,,,,2024-07-19,1,,,,,ベストキズナ,0
849,4011805003380,新規,0,2024-07-19,2024-07-19,一般社団法人千寿フレッシュ,,その他の設立登記法人,東京都,足立区,日ノ出町２８番２－７０３号,,13,121,1200021,,,,,,,2024-07-19,1,,,,,センジュフレッシュ,0
854,4012401042054,新規,0,2024-07-19,2024-07-19,ｅｎｎａ株式会社,,株式会社,東京都,狛江市,中和泉３丁目３０‐１１,,13,219,2010012,,,,,,,2024-07-19,1,,,,,エンナ,0
855,4012401042104,新規,0,2024-07-19,2024-07-19,米国株研究所株式会社,,株式会社,東京都,調布市,深大寺南町４丁目１０ー１４,,13,208,1820013,,,,,,,2024-07-19,1,,,,,ベイコクカブケンキュウショ,0
864,4020001158047,新規,0,2024-07-19,2024-07-19,株式会社ＳＦＩ‐ＤＡ,,株式会社,神奈川県,横浜市都筑区,東方町５９７番地４５,,14,118,2240045,,,,,,,2024-07-19,1,,,,,スフィーダ,0
865,4020001158063,新規,0,2024-07-19,2024-07-19,株式会社ＥＰＯＣＨ,,株式会社,神奈川県,川崎市高津区,二子１丁目１番１７－１０１号,,14,134,2130002,,,,,,,2024-07-19,1,,,,,,0
866,4020001158138,新規,0,2024-07-19,2024-07-19,株式会社Ｃｈａｒｉｔｙ　Ｔｉｃｋｅｔ,,株式会社,神奈川県,川崎市高津区,二子３丁目２５番６号オープンブルーム二子１０１,,14,134,2130002,,,,,,,2024-07-19,1,,,,,チャリティーチケット,0
873,4021001082716,新規,0,2024-07-19,2024-07-19,株式会社ロンフレアシスト,,株式会社,神奈川県,高座郡寒川町,岡田８丁目１９番３号,,14,321,2530105,,,,,,,2024-07-19,1,,,,,ロンフレアシスト,0
874,4021001082757,新規,0,2024-07-19,2024-07-19,株式会社石見銀山地域経営研究所,,株式会社,神奈川県,鎌倉市,由比ガ浜２丁目３番４号３階,,14,204,2480014,,,,,,,2024-07-19,1,,,,,イワミギンザンチイキケイエイケンキュウショ,0
875,4021001082765,新規,0,2024-07-19,2024-07-19,株式会社ＯＴＥＲＡ,,株式会社,神奈川県,逗子市,新宿３丁目２番４０号,,14,208,2490007,,,,,,,2024-07-19,1,,,,,オテラ,0
876,4021001082781,新規,0,2024-07-19,2024-07-19,株式会社０,,株式会社,神奈川県,藤沢市,善行１丁目１０番地の１０アネスタ２１～３０２号,,14,205,2510871,,,,,,,2024-07-19,1,,,,,ゼロ,0
884,4030001161495,新規,0,2024-07-19,2024-07-19,株式会社ジャパンデジタル,,株式会社,埼玉県,戸田市,笹目１丁目１５番地１０号,,11,224,3350034,,,,,,,2024-07-19,1,,,,,ジャパンデジタル,0
885,4030001161520,新規,0,2024-07-19,2024-07-19,万祥株式会社,,株式会社,埼玉県,桶川市,大字川田谷３２３６－２,,11,231,3630027,,,,,,,2024-07-19,1,,,,,バンショウ,0
891,4030003024733,新規,0,2024-07-19,2024-07-19,ナイン合同会社,,合同会社,埼玉県,加須市,花崎２丁目２番地１メゾネット・ハシモト３０２号室,,11,210,3470032,,,,,,,2024-07-19,1,,,,,ナイン,0
902,4060001037313,新規,0,2024-07-19,2024-07-19,株式会社ＮＥＸＴ　ＡＧＲＩ　ＷＯＲＫ,,株式会社,栃木県,那須塩原市,木曽畑中１９５番地,,09,213,3293145,,,,,,,2024-07-19,1,,,,,ネクストアグリワーク,0
903,4060001037321,新規,0,2024-07-19,2024-07-19,株式会社ハイテイクロジサポート,,株式会社,栃木県,宇都宮市,下荒針町３５６５番地１０,,09,201,3210346,,,,,,,2024-07-19,1,,,,,ハイテイクロジサポート,0
906,4070001041982,新規,0,2024-07-19,2024-07-19,さいてき株式会社,,株式会社,群馬県,高崎市,下之城町５９３番地,,10,202,3700854,,,,,,,2024-07-19,1,,,,,サイテキ,0
910,4080101024894,新規,0,2024-07-19,2024-07-19,株式会社ゑびすタイヤ,,株式会社,静岡県,三島市,三ツ谷新田４４５番地の２,,22,206,4110013,,,,,,,2024-07-19,1,,,,,ヱビスタイヤ,0
916,4080401027317,新規,0,2024-07-19,2024-07-19,株式会社ＵＮ１,,株式会社,静岡県,浜松市中央区,有玉台１丁目６番９号,,22,138,4313126,,,,,,,2024-07-19,1,,,,,ユーエヌワン,0
931,4120001266871,新規,0,2024-07-19,2024-07-19,株式会社ラキクマ,,株式会社,大阪府,大阪市北区,天満１丁目１７番２号パークリュクス大阪天満１５０２,,27,127,5300043,,,,,,,2024-07-19,1,,,,,ラキクマ,0
932,4120001266905,新規,0,2024-07-19,2024-07-19,株式会社ＲＯＰＩ,,株式会社,大阪府,大阪市西成区,中開２丁目４番１５号,,27,122,5570022,,,,,,,2024-07-19,1,,,,,ロピ,0
933,4120001267011,新規,0,2024-07-19,2024-07-19,株式会社ＣＯＭＰＡＳＳ,,株式会社,大阪府,大阪市東住吉区,針中野３丁目１０番２５号,,27,121,5460011,,,,,,,2024-07-19,1,,,,,コンパス,0
935,4120003027074,新規,0,2024-07-19,2024-07-19,合同会社ＹＳメディカル,,合同会社,大阪府,大阪市住吉区,帝塚山中１丁目２番７号,00135639,27,120,5580053,,,,,,,2024-07-19,1,,,,,ワイエスメディカル,0
936,4120003027082,新規,0,2024-07-19,2024-07-19,合同会社えん,,合同会社,大阪府,大阪市平野区,平野元町４番７－６０９号,,27,126,5470047,,,,,,,2024-07-19,1,,,,,エン,0
937,4120101070001,新規,0,2024-07-19,2024-07-19,株式会社大澤商会,,株式会社,大阪府,大阪狭山市,西山台６丁目１４番１０号（１００２号）,,27,231,5890022,,,,,,,2024-07-19,1,,,,,オオサワショウカイ,0
943,4122001038268,新規,0,2024-07-19,2024-07-19,大八電業株式会社,,株式会社,大阪府,八尾市,天王寺屋２丁目１１０番地の２３,,27,212,5810025,,,,,,,2024-07-19,1,,,,,ダイハチデンギョウ,0
944,4122001038284,新規,0,2024-07-19,2024-07-19,株式会社ＳＴ設備,,株式会社,大阪府,大東市,御領４丁目３番１４号５号室,,27,218,5740064,,,,,,,2024-07-19,1,,,,,エスティーセツビ,0
948,4130003009708,新規,0,2024-07-19,2024-07-19,かがやき不動産合同会社,,合同会社,京都府,京都市北区,平野上八丁柳町４８番地６,,26,101,6038353,,,,,,,2024-07-19,1,,,,,カガヤキフドウサン,0
949,4130005017139,新規,0,2024-07-19,2024-07-19,一般社団法人ＴＨＥ　ＦＯＯＤ,,その他の設立登記法人,京都府,亀岡市,東つつじケ丘曙台１丁目４番地１６,,26,206,6210833,,,,,,,2024-07-19,1,,,,,ザフード,0
957,4140001135125,新規,0,2024-07-19,2024-07-19,株式会社ＭＹＫ,,株式会社,兵庫県,明石市,宮の上２番１６－１０４号,,28,203,6730031,,,,,,,2024-07-19,1,,,,,エムワイケー,0
959,4140003020829,新規,0,2024-07-19,2024-07-19,Ｋａｉｋｕｎ合同会社,,合同会社,兵庫県,尼崎市,汐町２０番地の１,,28,202,6600866,,,,,,,2024-07-19,1,,,,,カイクン,0
960,4140003020837,新規,0,2024-07-19,2024-07-19,ＶＥＨＩＣＬＥ合同会社,,合同会社,兵庫県,三木市,緑が丘町中２丁目１２番地の１３,,28,215,6730532,,,,,,,2024-07-19,1,,,,,ヴィークル,0
969,4160003003245,新規,0,2024-07-19,2024-07-19,フリーダム合同会社,,合同会社,滋賀県,長浜市,勝町８７８番地３,,25,203,5260042,,,,,,,2024-07-19,1,,,,,フリーダム,0
978,4180001162405,新規,0,2024-07-19,2024-07-19,株式会社ＴＡＫＩ設備,,株式会社,愛知県,知多郡阿久比町,大字板山字比沙田５７番地５,,23,441,4702203,,,,,,,2024-07-19,1,,,,,タキセツビ,0
981,4190001031501,新規,0,2024-07-19,2024-07-19,株式会社ゆいまーる,,株式会社,三重県,松阪市,高町２２９番地９,,24,204,5150011,,,,,,,2024-07-19,1,,,,,ユイマール,0
984,4200001042736,新規,0,2024-07-19,2024-07-19,株式会社ユニークアグリ,,株式会社,岐阜県,岐阜市,薮田南３丁目７番２０号,,21,201,5008384,,,,,,,2024-07-19,1,,,,,ユニークアグリ,0
986,4220001026101,新規,0,2024-07-19,2024-07-19,株式会社井口工業,,株式会社,石川県,金沢市,直江南２丁目９６番地,,17,201,9208214,,,,,,,2024-07-19,1,,,,,イグチコウギョウ,0
1005,4240005015800,新規,0,2024-07-19,2024-07-19,弁護士法人青木・今岡法律事務所,,その他の設立登記法人,広島県,三次市,十日市中２丁目７番２７号,,34,209,7280012,,,,,,,2024-07-19,1,,,,,アオキイマオカホウリツジムショ,0
1008,4290001106466,新規,0,2024-07-19,2024-07-19,株式会社ベルク,,株式会社,福岡県,福岡市東区,和白東２丁目２０番２１号,,40,131,8110214,,,,,,,2024-07-19,1,,,,,ベルク,0
1009,4290001106516,新規,0,2024-07-19,2024-07-19,株式会社ＲＥＴＵＲＮ　ＴＯ,,株式会社,福岡県,福岡市東区,香住ヶ丘５丁目５番１０号,,40,131,8130003,,,,,,,2024-07-19,1,,,,,リターントゥー,0
1012,4300001013842,新規,0,2024-07-19,2024-07-19,株式会社ＤＲＡＧ‐ＯＮ,,株式会社,佐賀県,武雄市,武雄町大字富岡１１２０５番地２・１０２号,,41,206,8430024,,,,,,,2024-07-19,1,,,,,ドラグオン,0
1018,4340001026659,新規,0,2024-07-19,2024-07-19,株式会社聖友会,,株式会社,鹿児島県,鹿児島市,荒田１丁目３７番３号,,46,201,8900054,,,,,,,2024-07-19,1,,,,,セイユウカイ,0
1021,4350001019091,新規,0,2024-07-19,2024-07-19,宮崎経営サポート株式会社,,株式会社,宮崎県,日向市,大字富高５２４番地,,45,206,8830034,,,,,,,2024-07-19,1,,,,,ミヤザキケイエイサポート,0
1026,4370001051506,新規,0,2024-07-19,2024-07-19,株式会社わたなべ,,株式会社,宮城県,仙台市青葉区,国分町３丁目１１番５号日宝勾当台西ビル２０３,,04,101,9800803,,,,,,,2024-07-19,1,,,,,ワタナベ,0
1027,4370001051530,新規,0,2024-07-19,2024-07-19,株式会社ＳＴ企画,,株式会社,宮城県,仙台市泉区,加茂３丁目２５番地の２,,04,105,9813122,,,,,,,2024-07-19,1,,,,,エスティキカク,0
1049,4430001092270,新規,0,2024-07-19,2024-07-19,株式会社ＨＹコーポレーション,,株式会社,北海道,札幌市西区,西野二条６丁目２番１０号フェリス西野３０１号,,01,107,0630032,,,,,,,2024-07-19,1,,,,,エイチワイコーポレーション,0
1050,4430001092279,新規,0,2024-07-19,2024-07-19,株式会社ネオエナジーソリューションズ,,株式会社,北海道,札幌市西区,二十四軒四条７丁目５番３５－２１号,,01,107,0630804,,,,,,,2024-07-19,1,,,,,ネオエナジーソリューションズ,0
1058,4440003001609,新規,0,2024-07-19,2024-07-19,合同会社くみ,,合同会社,北海道,函館市,桔梗町４３５－４５２,,01,202,0410801,,,,,,,2024-07-19,1,,,,,クミ,0
1070,5010001246636,新規,0,2024-07-19,2024-07-19,株式会社ナエリ,,株式会社,東京都,千代田区,神田淡路町１丁目９番地５,,13,101,1010063,,,,,,,2024-07-19,1,,,,,ナエリ,0
1071,5010001246644,新規,0,2024-07-19,2024-07-19,株式会社リバレイトマーケティング,,株式会社,東京都,中央区,銀座１丁目２２番１１号銀座大竹ビジデンス２Ｆ,,13,102,1040061,,,,,,,2024-07-19,1,,,,,リバレイトマーケティング,0
1072,5010001246669,新規,0,2024-07-19,2024-07-19,株式会社すとれりちあ,,株式会社,東京都,中央区,銀座１丁目１２－４Ｎ＆ＥＢＬＤ７階,,13,102,1040061,,,,,,,2024-07-19,1,,,,,ストレリチア,0
1073,5010001246677,新規,0,2024-07-19,2024-07-19,株式会社綾コーポレーション,,株式会社,東京都,中央区,日本橋人形町２丁目１－７リビオ日本橋人形町８０６,,13,102,1030013,,,,,,,2024-07-19,1,,,,,アヤコーポレーション,0
1074,5010001246727,新規,0,2024-07-19,2024-07-19,フォルテ株式会社,,株式会社,東京都,千代田区,内神田１丁目５番１１－２０１号,,13,101,1010047,,,,,,,2024-07-19,1,,,,,フォルテ,0
1076,5010003044311,新規,0,2024-07-19,2024-07-19,Ｄｅｎａｌｉ　ＡＩ　Ｊａｐａｎ合同会社,,合同会社,東京都,千代田区,丸の内１丁目１１番１号パシフィックセンチュリープレイス丸の内８階,,13,101,1000005,,,,,,,2024-07-19,1,,,,,デナリエーアイジャパン,0
1077,5010003044352,新規,0,2024-07-19,2024-07-19,合同会社ＯＣＴＡ,,合同会社,東京都,中央区,銀座１丁目１２－４Ｎ＆ＥＢＬＤ．７階,,13,102,1040061,,,,,,,2024-07-19,1,,,,,オクタ,0
1078,5010003044360,新規,0,2024-07-19,2024-07-19,合同会社アセットシナジー,,合同会社,東京都,千代田区,神田和泉町１－６－１６ヤマトビル４０５,,13,101,1010024,,,,,,,2024-07-19,1,,,,,アセットシナジー,0
1079,5010005038526,新規,0,2024-07-19,2024-07-19,一般社団法人東京医科歯科大学循環器内科同門会,,その他の設立登記法人,東京都,文京区,湯島１丁目５番４５号,,13,105,1130034,,,,,,,2024-07-19,1,,,,,トウキョウイカシカダイガクジュンカンキナイカドウモンカイ,0
1084,5010401183834,新規,0,2024-07-19,2024-07-19,白寿ＢＩＯ医研株式会社,,株式会社,東京都,港区,南青山１丁目２６番１６号,,13,103,1070062,,,,,,,2024-07-19,1,,,,,ハクジュバイオイケン,0
1085,5010401183891,新規,0,2024-07-19,2024-07-19,株式会社ＲｅＲｏａｄ,,株式会社,東京都,港区,北青山１丁目３番１号アールキューブ青山３階,,13,103,1070061,,,,,,,2024-07-19,1,,,,,リロード,0
1086,5010401183909,新規,0,2024-07-19,2024-07-19,兆田医薬株式会社,,株式会社,東京都,港区,芝大門１丁目４番４－９０８号,,13,103,1050012,,,,,,,2024-07-19,1,,,,,チョウデンイヤク,0
1088,5010403033079,新規,0,2024-07-19,2024-07-19,ＳＢ＆Ｊ合同会社,,合同会社,東京都,港区,北青山１丁目３番１号アールキューブ青山３階,,13,103,1070061,,,,,,,2024-07-19,1,,,,,エスビーアンドジェイ,0
1091,5010501052633,新規,0,2024-07-19,2024-07-19,ＳＴ　ｏｎｅ株式会社,,株式会社,東京都,台東区,根岸４丁目１９番１０号,,13,106,1100003,,,,,,,2024-07-19,1,,,,,エスティーワン,0
1093,5010601065568,新規,0,2024-07-19,2024-07-19,ダニエルジャパン株式会社,,株式会社,東京都,江東区,東砂３丁目４番３号,,13,108,1360074,,,,,,,2024-07-19,1,,,,,ダニエルジャパン,0
1099,5010803005017,新規,0,2024-07-19,2024-07-19,合同会社ｂｌｅｓｓｉｎｇ,,合同会社,東京都,大田区,大森東２丁目２２－６－３０３,,13,111,1430012,,,,,,,2024-07-19,1,,,,,ブレシング,0
1100,5010803005025,新規,0,2024-07-19,2024-07-19,合同会社花,,合同会社,東京都,大田区,羽田５丁目４番６号,,13,111,1440043,,,,,,,2024-07-19,1,,,,,ハナ,0
1102,5010901055649,新規,0,2024-07-19,2024-07-19,株式会社ｉｃｈｉｎｉ,,株式会社,東京都,世田谷区,等々力１丁目３１番１２号ジュネス等々力２０３,,13,112,1580082,,,,,,,2024-07-19,1,,,,,イチニ,0
1107,5011001163359,新規,0,2024-07-19,2024-07-19,Ｓ２ＡＸ株式会社,,株式会社,東京都,目黒区,下目黒１丁目１番１４号コノトラビル７Ｆ,,13,110,1530064,,,,,,,2024-07-19,1,,,,,エスツーエーエックス,0
1110,5011101108016,新規,0,2024-07-19,2024-07-19,フューチャービジョン株式会社,,株式会社,東京都,新宿区,市谷田町２丁目１７番地八重洲市谷ビル９Ｆ,,13,104,1620843,,,,,,,2024-07-19,1,,,,,フューチャービジョン,0
1112,5011103014658,新規,0,2024-07-19,2024-07-19,ＫＫｄａｙ　Ｈｏｌｄｉｎｇｓ合同会社,,合同会社,東京都,新宿区,四谷１丁目２２番地５ＷＥＳＴＡＬＬ四谷ビル２階,,13,104,1600004,,,,,,,2024-07-19,1,,,,,ケイケイディホールディングス,0
1113,5011103014666,新規,0,2024-07-19,2024-07-19,ＲＡＩＯＮ　ＣＡＰＩＴＡＬ　ＪＡＰＡＮ２合同会社,,合同会社,東京都,新宿区,大久保１丁目４番２０号グロウハイム大久保３０２号室,,13,104,1690072,,,,,,,2024-07-19,1,,,,,ライオンキャピタルジャパンツー,0
1114,5011103014690,新規,0,2024-07-19,2024-07-19,プラストソリューション合同会社,,合同会社,東京都,新宿区,下落合１丁目１２番１６番地６１６,,13,104,1610033,,,,,,,2024-07-19,1,,,,,プラストソリューション,0
1117,5011301029854,新規,0,2024-07-19,2024-07-19,和吉株式会社,,株式会社,東京都,杉並区,天沼３丁目１７番２１号ヤマキ荻窪マンション３０２,,13,115,1670032,,,,,,,2024-07-19,1,,,,,カズヨシ,0
1120,5011401026264,新規,0,2024-07-19,2024-07-19,株式会社ＩＳＳＨＩＮ　ＢＥＥＦ　ｅｎｔ．,,株式会社,東京都,板橋区,南常盤台２丁目２番３号プラザときわ台２階及び３階,,13,119,1740072,,,,,,,2024-07-19,1,,,,,イッシンビーフエンターテインメント,0
1125,5011503006148,新規,0,2024-07-19,2024-07-19,Ａｌｔｅｒｎａｔｉｖｅ　Ｋｎｏｗｌｅｄｇｅ　Ｄｅｓｉｇｎｓ合同会社,,合同会社,東京都,北区,滝野川１丁目５４番１号西崎ビル３階,,13,117,1140023,,,,,,,2024-07-19,1,,,,,オルタナティブナレッジデザイン,0
1126,5011505002640,新規,0,2024-07-19,2024-07-19,一般社団法人堅盾海外華人宣教協力同盟,,その他の設立登記法人,東京都,荒川区,西日暮里２丁目５２番５号キングビル４０１,,13,118,1160013,,,,,,,2024-07-19,1,,,,,ケンダテカイガイカジンセンキョウキョウリョクドウメイ,0
1127,5011601027905,新規,0,2024-07-19,2024-07-19,株式会社リフシア,,株式会社,東京都,練馬区,石神井町３丁目２０番２０号ＳＫビル１階,,13,120,1770041,,,,,,,2024-07-19,1,,,,,リフシア,0
1129,5011801044543,新規,0,2024-07-19,2024-07-19,株式会社ｔｉｅｂｒｅａｋ,,株式会社,東京都,足立区,鹿浜６丁目２１番９号,,13,121,1230864,,,,,,,2024-07-19,1,,,,,タイブレーク,0
1130,5011801044551,新規,0,2024-07-19,2024-07-19,ＢＲＩＪ株式会社,,株式会社,東京都,足立区,加賀１丁目１０番１５号,,13,121,1230861,,,,,,,2024-07-19,1,,,,,ブリジ,0
1146,5020001158054,新規,0,2024-07-19,2024-07-19,隆樂ユニバーサル株式会社,,株式会社,神奈川県,横浜市中区,上野町１丁目３番地２山手ＧＯＪＯ３０１号室,,14,104,2310842,,,,,,,2024-07-19,1,,,,,タカラユニバーサル,0
1147,5020001158079,新規,0,2024-07-19,2024-07-19,株式会社スペースサート,,株式会社,神奈川県,横浜市保土ケ谷区,西久保町１４番地デイパーク横濱天王町１００９号,,14,106,2400022,,,,,,,2024-07-19,1,,,,,スペースサート,0
1151,5021001082764,新規,0,2024-07-19,2024-07-19,株式会社中村総建,,株式会社,神奈川県,相模原市中央区,陽光台４丁目２４番７号つるやハイツ２０２,,14,152,2520226,,,,,,,2024-07-19,1,,,,,ナカムラソウケン,0
1153,5021003014781,新規,0,2024-07-19,2024-07-19,合同会社Ａ‐ＦＬＯＷ,,合同会社,神奈川県,藤沢市,鵠沼松が岡３丁目２―２８,,14,205,2510038,,,,,,,2024-07-19,1,,,,,エーフロー,0
1156,5030001161478,新規,0,2024-07-19,2024-07-19,株式会社Ｋ‐ＲＡＩＺＥ,,株式会社,埼玉県,川口市,大字東内野１３番地の６,,11,203,3330821,,,,,,,2024-07-19,1,,,,,ケーライズ,0
1157,5030001161494,新規,0,2024-07-19,2024-07-19,株式会社ＢｉｎａｒｙＴｒｅｅ,,株式会社,埼玉県,さいたま市浦和区,領家３丁目２２－２６,,11,107,3300072,,,,,,,2024-07-19,1,,,,,バイナリツリー,0
1158,5030001161503,新規,0,2024-07-19,2024-07-19,株式会社ＫＡＹＡ,,株式会社,埼玉県,川口市,戸塚東１丁目２２番１０－２１０号,,11,203,3330802,,,,,,,2024-07-19,1,,,,,カヤ,0
1159,5030001161511,新規,0,2024-07-19,2024-07-19,株式会社東花,,株式会社,埼玉県,熊谷市,星川１丁目１００番地,,11,202,3600043,,,,,,,2024-07-19,1,,,,,トウカ,0
1160,5030001161536,新規,0,2024-07-19,2024-07-19,株式会社出雲食品,,株式会社,埼玉県,北足立郡伊奈町,大字小室４６１６番地,,11,301,3620806,,,,,,,2024-07-19,1,,,,,イズモショクヒン,0
1164,5030005021769,新規,0,2024-07-19,2024-07-19,一般社団法人ソノママ,,その他の設立登記法人,埼玉県,深谷市,榛沢２３５番地,,11,218,3690223,,,,,,,2024-07-19,1,,,,,ソノママ,0
1177,5040001134565,新規,0,2024-07-19,2024-07-19,株式会社羽石マネジメント,,株式会社,千葉県,成田市,玉造６丁目１６番地１０,,12,211,2860011,,,,,,,2024-07-19,1,,,,,ハネイシマネジメント,0
1178,5040001134598,新規,0,2024-07-19,2024-07-19,株式会社護国豊穣社,,株式会社,千葉県,松戸市,牧の原２番地の６５牧の原公団住宅１街区１９棟３１８号,,12,207,2702267,,,,,,,2024-07-19,1,,,,,ゴコクホウジョウシャ,0
1179,5040001134631,新規,0,2024-07-19,2024-07-19,佐川精密株式会社,,株式会社,千葉県,松戸市,栄町８丁目６７０－１８,,12,207,2710062,,,,,,,2024-07-19,1,,,,,サガワセイミツ,0
1189,5050003008551,新規,0,2024-07-19,2024-07-19,三協ファーム合同会社,,合同会社,茨城県,常総市,本石下３番地１,,08,211,3002707,,,,,,,2024-07-19,1,,,,,サンキョウファーム,0
1191,5060001037320,新規,0,2024-07-19,2024-07-19,株式会社Ａｃｒｏｓｓ,,株式会社,栃木県,宇都宮市,立伏町８９３－６５,,09,201,3291116,,,,,,,2024-07-19,1,,,,,アクロス,0
1195,5070001041981,新規,0,2024-07-19,2024-07-19,株式会社梅山不動産管理,,株式会社,群馬県,高崎市,新後閑町１３番１３号,,10,202,3700845,,,,,,,2024-07-19,1,,,,,,0
1198,5080101024893,新規,0,2024-07-19,2024-07-19,玖竹株式会社,,株式会社,静岡県,伊東市,八幡野１３５７の５７,,22,208,4130232,,,,,,,2024-07-19,1,,,,,キタケ,0
1204,5100001037654,新規,0,2024-07-19,2024-07-19,株式会社プレイフルイノベーターズ,,株式会社,長野県,松本市,寿北６丁目１１番１号淵庵村Ｗベース１０,,20,202,3990011,,,,,,,2024-07-19,1,,,,,プレイフルイノベーターズ,0
1214,5120001266771,新規,0,2024-07-19,2024-07-19,株式会社ＭＩＴファシリティーズ,,株式会社,大阪府,大阪市北区,梅田１丁目１番３号,,27,127,5300001,,,,,,,2024-07-19,1,,,,,エムアイティーファシリティーズ,0
1215,5120001266838,新規,0,2024-07-19,2024-07-19,株式会社ＭＯＮぶらん,,株式会社,大阪府,大阪市中央区,南船場４丁目１２番９号クレスト心斎橋４０５,,27,128,5420081,,,,,,,2024-07-19,1,,,,,モンブラン,0
1216,5120001266904,新規,0,2024-07-19,2024-07-19,株式会社ここあ,,株式会社,大阪府,門真市,桑才町１０番２９号,,27,223,5710035,,,,,,,2024-07-19,1,,,,,ココア,0
1217,5120001266945,新規,0,2024-07-19,2024-07-19,ＫＩＮＧＳＭＡＮ株式会社,,株式会社,大阪府,大阪市東住吉区,南田辺５丁目２８番６号,,27,121,5460033,,,,,,,2024-07-19,1,,,,,キングスマン,0
1218,5120001266994,新規,0,2024-07-19,2024-07-19,株式会社ｐａｓｏ,,株式会社,大阪府,大阪市都島区,都島南通２丁目５番１９号,,27,102,5340023,,,,,,,2024-07-19,1,,,,,パソ,0
1219,5120003027057,新規,0,2024-07-19,2024-07-19,Ａｔｅｌｉｅｒ　Ａｍｏｕｒ合同会社,,合同会社,大阪府,大阪市北区,梅田２丁目２番２号ヒルトンプラザウエスト１９階,,27,127,5300001,,,,,,,2024-07-19,1,,,,,アトリエアムール,0
1220,5120003027073,新規,0,2024-07-19,2024-07-19,合同会社ＴＰＴ　Ｖｅｃｔｌｉｖｅ,,合同会社,大阪府,大阪市中央区,南船場３丁目２番２２号おおきに南船場ビル２０５,,27,128,5420081,,,,,,,2024-07-19,1,,,,,ティーピーティーヴェクトライブ,0
1221,5120101070009,新規,0,2024-07-19,2024-07-19,ホープフルケア株式会社,,株式会社,大阪府,高石市,取石２丁目２９番１１号,,27,225,5920013,,,,,,,2024-07-19,1,,,,,ホープフルケア,0
1226,5120905006629,新規,0,2024-07-19,2024-07-19,特定非営利活動法人日本子ども食育学会,,その他の設立登記法人,大阪府,箕面市,新稲２丁目１１番１号,,27,220,5620005,,,,,,,2024-07-19,1,,,,,ニホンコドモショクイクガッカイ,0
1227,5120905006637,新規,0,2024-07-19,2024-07-19,医療法人翔輝会,,その他の設立登記法人,大阪府,池田市,満寿美町１２番９号リエス池田満寿美町１０２号,,27,204,5630041,,,,,,,2024-07-19,1,,,,,ショウキカイ,0
1228,5122001038275,新規,0,2024-07-19,2024-07-19,株式会社ＲＡＶｉｔ’ｓ,,株式会社,大阪府,東大阪市,大蓮北３丁目２２番２７号,,27,227,5770826,,,,,,,2024-07-19,1,,,,,ラビッツ,0
1237,5140001135033,新規,0,2024-07-19,2024-07-19,株式会社ウェルメディカル,,株式会社,兵庫県,姫路市,南駅前町７５番地イルソーレ南駅前２０２,,28,201,6700962,,,,,,,2024-07-19,1,,,,,ウェルメディカル,0
1238,5140001135124,新規,0,2024-07-19,2024-07-19,株式会社フレッシュデザイン,,株式会社,兵庫県,芦屋市,浜町１１番２０号,,28,206,6590025,,,,,,,2024-07-19,1,,,,,フレッシュデザイン,0
1239,5140001135132,新規,0,2024-07-19,2024-07-19,株式会社エープラス,,株式会社,兵庫県,神戸市須磨区,北落合５丁目６番２４号Ｄ－２１０号,,28,107,6540151,,,,,,,2024-07-19,1,,,,,,0
1240,5140001135165,新規,0,2024-07-19,2024-07-19,株式会社マネッジキャピタル,,株式会社,兵庫県,神戸市西区,北別府５丁目６番地の１６,,28,111,6512117,,,,,,,2024-07-19,1,,,,,マネッジキャピタル,0
1245,5140003020836,新規,0,2024-07-19,2024-07-19,Ｋ．Ｂ．Ｓ合同会社,,合同会社,兵庫県,尼崎市,潮江５丁目８番１－４０２号,,28,202,6610976,,,,,,,2024-07-19,1,,,,,ケービーエス,0
1248,5150005009612,新規,0,2024-07-19,2024-07-19,社会福祉法人みらい福祉会,,その他の設立登記法人,奈良県,桜井市,大字慈恩寺８９０番地３,,29,206,6330017,,,,,,,2024-07-19,1,,,,,ミライフクシカイ,0
1254,5180001162247,新規,0,2024-07-19,2024-07-19,二葉治具エンジニア株式会社,,株式会社,愛知県,名古屋市守山区,花咲台２丁目５０１番地,,23,113,4630808,,,,,,,2024-07-19,1,,,,,フタバジグエンジニア,0
1255,5180001162338,新規,0,2024-07-19,2024-07-19,株式会社協和,,株式会社,愛知県,海部郡蟹江町,宝１丁目７１番地,,23,425,4970030,,,,,,,2024-07-19,1,,,,,キョウワ,0
1256,5180001162354,新規,0,2024-07-19,2024-07-19,Ｐｅｔａｌｓ＆Ｐｏｕｒｓ株式会社,,株式会社,愛知県,名古屋市熱田区,外土居町９番１４号トキワ外土居ビル１０５,,23,109,4560013,,,,,,,2024-07-19,1,,,,,ペタルズアンドポーズ,0
1257,5180001162486,新規,0,2024-07-19,2024-07-19,株式会社日本情報システム機構,,株式会社,愛知県,名古屋市中区,錦１丁目４番１６号,,23,106,4600003,,,,,,,2024-07-19,1,,,,,ニホンジョウホウシステムキコウ,0
1262,5190001031500,新規,0,2024-07-19,2024-07-19,株式会社さくら,,株式会社,三重県,伊勢市,御薗町長屋２１４７番地４,,24,203,5160804,,,,,,,2024-07-19,1,,,,,サクラ,0
1264,5190005011969,新規,0,2024-07-19,2024-07-19,一般社団法人ベトナムものづくり協会,,その他の設立登記法人,三重県,桑名市,長島町押付５４３番地,,24,205,5111113,,,,,,,2024-07-19,1,,,,,ベトナムモノヅクリキョウカイ,0
1266,5200001042727,新規,0,2024-07-19,2024-07-19,株式会社河合装飾,,株式会社,岐阜県,美濃加茂市,加茂野町加茂野６８５番地１,,21,211,5050054,,,,,,,2024-07-19,1,,,,,カワイソウショク,0
1279,5240001063562,新規,0,2024-07-19,2024-07-19,株式会社ＹＪ,,株式会社,広島県,広島市南区,宇品御幸４丁目１０番２１号,,34,103,7340015,,,,,,,2024-07-19,1,,,,,ワイジェイ,0
1281,5240005015799,新規,0,2024-07-19,2024-07-19,一般社団法人精神障がい者雇用ブリッジワーク推進協議会,,その他の設立登記法人,広島県,広島市中区,大手町３丁目８番４号佐野ビル５階,,34,101,7300051,,,,,,,2024-07-19,1,,,,,セイシンショウガイシャコヨウブリッジワークスイシンキョウギカイ,0
1282,5260005011383,新規,0,2024-07-19,2024-07-19,一般社団法人親なきあと財産管理サポート協会,,その他の設立登記法人,岡山県,岡山市北区,西古松２丁目２６番１６号,,33,101,7000927,,,,,,,2024-07-19,1,,,,,オヤナキアトザイサンカンリサポートキョウカイ,0
1285,5290001106589,新規,0,2024-07-19,2024-07-19,株式会社ＢＥＥＫ,,株式会社,福岡県,福岡市中央区,白金１丁目１２番８号アストアＭＣビル４階,,40,133,8100012,,,,,,,2024-07-19,1,,,,,ビーク,0
1290,5290801030708,新規,0,2024-07-19,2024-07-19,株式会社琉碧工務店,,株式会社,福岡県,北九州市八幡西区,永犬丸２丁目１４番２４号,,40,109,8070851,,,,,,,2024-07-19,1,,,,,リュウアコウムテン,0
1292,5300001013841,新規,0,2024-07-19,2024-07-19,株式会社コウテック,,株式会社,佐賀県,唐津市,神田１１７９番地１６,,41,202,8470824,,,,,,,2024-07-19,1,,,,,コウテック,0
1301,5330001032252,新規,0,2024-07-19,2024-07-19,エンジェルエージェント株式会社,,株式会社,熊本県,熊本市中央区,中央街４番２２号９階,,43,101,8600802,,,,,,,2024-07-19,1,,,,,エンジェルエージェント,0
1303,5330003010470,新規,0,2024-07-19,2024-07-19,合同会社ＴｒｉＧＯ,,合同会社,熊本県,合志市,御代志１６６１番地１,,43,216,8611104,,,,,,,2024-07-19,1,,,,,トリーゴ,0
1306,5340003004546,新規,0,2024-07-19,2024-07-19,合同会社えがお,,合同会社,鹿児島県,姶良市,西姶良４丁目３－１５,,46,225,8995656,,,,,,,2024-07-19,1,,,,,エガオ,0
1307,5350001019090,新規,0,2024-07-19,2024-07-19,株式会社Ｄｏｕｘ　Ｐｌａｃｅ,,株式会社,宮崎県,宮崎市,大字小松１４２９番地４,,45,201,8802112,,,,,,,2024-07-19,1,,,,,ドゥプラス,0
1309,5360001033958,新規,0,2024-07-19,2024-07-19,ＡＵＧ３２株式会社,,株式会社,沖縄県,那覇市,松山１丁目１２番１５号１Ｆ,,47,201,9000032,,,,,,,2024-07-19,1,,,,,エーユージーサンジュウニ,0
1313,5370005010820,新規,0,2024-07-19,2024-07-19,一般社団法人仙南歯科医師会,,その他の設立登記法人,宮城県,白石市,大手町１番１号,,04,206,9890276,,,,,,,2024-07-19,1,,,,,センナンシカイシカイ,0
1317,5400001016727,新規,0,2024-07-19,2024-07-19,株式会社ＢＴＳ,,株式会社,岩手県,花巻市,狼沢第９地割２４８番地１,,03,205,0250322,,,,,,,2024-07-19,1,,,,,ビーティーエス,0
1322,5420001018804,新規,0,2024-07-19,2024-07-19,株式会社三津谷電装工業所,,株式会社,青森県,東津軽郡平内町,大字福館字雷電林１番地３０,,02,301,0393311,,,,,,,2024-07-19,1,,,,,ミツヤデンソウコウギョウショ,0
1329,5430001092278,新規,0,2024-07-19,2024-07-19,株式会社Ｌ．Ｃ．Ａ,,株式会社,北海道,札幌市白石区,本通６丁目北３番１１号,,01,104,0030027,,,,,,,2024-07-19,1,,,,,エルシーエー,0
1348,6010001246610,新規,0,2024-07-19,2024-07-19,株式会社鬼頭企画,,株式会社,東京都,千代田区,紀尾井町３番地３３－６階,,13,101,1020094,,,,,,,2024-07-19,1,,,,,キトウキカク,0
1349,6010001246627,新規,0,2024-07-19,2024-07-19,ＭＫＫ株式会社,,株式会社,東京都,千代田区,外神田２丁目１３番５号ＭＩＮＴＲＯＮ秋葉原ビル６階,,13,101,1010021,,,,,,,2024-07-19,1,,,,,エムケーケー,0
1350,6010001246635,新規,0,2024-07-19,2024-07-19,株式会社ＥＬＥＢＩＺ,,株式会社,東京都,文京区,本郷１丁目３５－２７,,13,105,1130033,,,,,,,2024-07-19,1,,,,,エレビズ,0
1351,6010001246668,新規,0,2024-07-19,2024-07-19,日本仁済医療株式会社,,株式会社,東京都,千代田区,東神田１丁目１１－７－５０２ハイツ神田岩本町大橋芳町ビル４Ｆ,,13,101,1010031,,,,,,,2024-07-19,1,,,,,ニホンジンサイイリョウ,0
1352,6010001246676,新規,0,2024-07-19,2024-07-19,豊倉株式会社,,株式会社,東京都,中央区,日本橋２丁目１４番１０号東日本橋二丁目ビル,,13,102,1030027,,,,,,,2024-07-19,1,,,,,トヨクラ,0
1353,6010001246759,新規,0,2024-07-19,2024-07-19,株式会社スマコンスタイル,,株式会社,東京都,中央区,銀座７丁目１５番８号タウンハイツ銀座４０６,,13,102,1040061,,,,,,,2024-07-19,1,,,,,スマコンスタイル,0
1354,6010003044145,新規,0,2024-07-19,2024-07-19,ＫＨＩＮ　ＫＨＩＮ合同会社,,合同会社,東京都,文京区,本駒込２丁目１２－１３アジア文化会館内,,13,105,1130021,,,,,,,2024-07-19,1,,,,,キンキン,0
1355,6010003044211,新規,0,2024-07-19,2024-07-19,第二太陽光発電合同会社,,合同会社,東京都,中央区,京橋２丁目２番１号,,13,102,1040031,,,,,,,2024-07-19,1,,,,,ダイニタイヨウコウハツデン,0
1356,6010003044351,新規,0,2024-07-19,2024-07-19,合同会社ＭＩＳＳＩＯＮ　ＦＲＯＮＴＩＥＲＳ,,合同会社,東京都,中央区,銀座１丁目１２番４号Ｎ＆ＥＢＬＤ．６Ｆ,,13,102,1040061,,,,,,,2024-07-19,1,,,,,ミッションフロンティアズ,0
1364,6010401183924,新規,0,2024-07-19,2024-07-19,株式会社ＪＡＥＪＩＬ,,株式会社,東京都,港区,南青山５丁目４番３０号,,13,103,1070062,,,,,,,2024-07-19,1,,,,,ジェジル,0
1365,6010403033078,新規,0,2024-07-19,2024-07-19,合同会社ＹＳ,,合同会社,東京都,港区,港南１丁目８番２３－１８０１号,,13,103,1080075,,,,,,,2024-07-19,1,,,,,ワイエス,0
1370,6010803005024,新規,0,2024-07-19,2024-07-19,合同会社ベストマンデイ,,合同会社,東京都,大田区,上池台３丁目４５番１号エレガＩＩＩ６０２,00135619,13,111,1450064,,,,,,,2024-07-19,1,,,,,ベストマンデイ,0
1372,6010901055648,新規,0,2024-07-19,2024-07-19,株式会社ロング・ライダーズ,,株式会社,東京都,世田谷区,成城２丁目４０番５－３０５号ヴェルドミール成城,,13,112,1570066,,,,,,,2024-07-19,1,,,,,ロングライダーズ,0
1376,6011001163382,新規,0,2024-07-19,2024-07-19,株式会社ＦＵＮ　Ｒｉｔｕａｌｓ,,株式会社,東京都,渋谷区,渋谷２丁目１９番１５号宮益坂ビルディング６０９,,13,113,1500002,,,,,,,2024-07-19,1,,,,,エフユーエヌリチュアルズ,0
1377,6011001163449,新規,0,2024-07-19,2024-07-19,株式会社ＴＡＥ,,株式会社,東京都,目黒区,東が丘１丁目２４番１号ガーデン東が丘Ｗ棟３０５,,13,110,1520021,,,,,,,2024-07-19,1,,,,,ティーエーイー,0
1378,6011001163523,新規,0,2024-07-19,2024-07-19,株式会社ＮＵＭＭ,,株式会社,東京都,渋谷区,渋谷２丁目９－１３アイアアネックスビルＢ１Ｆ,,13,113,1500002,,,,,,,2024-07-19,1,,,,,ナム,0
1386,6011101108056,新規,0,2024-07-19,2024-07-19,博一総合健康研究所株式会社,,株式会社,東京都,新宿区,西早稲田３丁目１４番１号－３Ｆ,,13,104,1690051,,,,,,,2024-07-19,1,,,,,ヒロイチソウゴウケンコウケンキュウジョ,0
1391,6011103014657,新規,0,2024-07-19,2024-07-19,キャリッジアップ合同会社,,合同会社,東京都,新宿区,西新宿７丁目５番５号Ｐｌａｚａ西新宿ＵＣＦ４階,,13,104,1600023,,,,,,,2024-07-19,1,,,,,キャリッジアップ,0
1392,6011103014681,新規,0,2024-07-19,2024-07-19,合同会社ＮＩＣＯ,,合同会社,東京都,新宿区,西新宿３丁目３番１３号西新宿水間ビル２Ｆ,,13,104,1600023,,,,,,,2024-07-19,1,,,,,ニコ,0
1397,6011501030941,新規,0,2024-07-19,2024-07-19,株式会社ｓｕｂｉｇ,,株式会社,東京都,荒川区,東尾久２丁目３５番６号,,13,118,1160012,,,,,,,2024-07-19,1,,,,,サビッグ,0
1400,6011601027904,新規,0,2024-07-19,2024-07-19,株式会社創和,,株式会社,東京都,練馬区,東大泉７丁目４２番１１号,,13,120,1780063,,,,,,,2024-07-19,1,,,,,ソウワ,0
1403,6011701027449,新規,0,2024-07-19,2024-07-19,ＫＳＫ株式会社,,株式会社,東京都,江戸川区,西小岩１丁目２６番６－５０４号,,13,123,1330057,,,,,,,2024-07-19,1,,,,,ケーエスケー,0
1404,6011803006342,新規,0,2024-07-19,2024-07-19,合同会社グランド,,合同会社,東京都,葛飾区,西新小岩４丁目２１番２１－１０５号,,13,122,1240025,,,,,,,2024-07-19,1,,,,,グランド,0
1410,6012403006674,新規,0,2024-07-19,2024-07-19,Ｃｉｒｔｅｃ合同会社,,合同会社,東京都,三鷹市,深大寺２丁目２番６－１０２,,13,204,1810016,,,,,,,2024-07-19,1,,,,,サーテック,0
1411,6012701018363,新規,0,2024-07-19,2024-07-19,ブルームライフ株式会社,,株式会社,東京都,東村山市,本町２丁目１２－１サンライトビル３Ｆ,,13,213,1890014,,,,,,,2024-07-19,1,,,,,ブルームライフ,0
1413,6012801023338,新規,0,2024-07-19,2024-07-19,株式会社ＡＯ　ＤＡＩ　ＦＯＯＤ,,株式会社,東京都,武蔵村山市,神明３丁目２６番地の９,,13,223,2080002,,,,,,,2024-07-19,1,,,,,アオザイフード,0
1419,6020001158061,新規,0,2024-07-19,2024-07-19,エストエー株式会社,,株式会社,神奈川県,横浜市西区,南浅間町１８番地６－２０４号,,14,103,2200074,,,,,,,2024-07-19,1,,,,,エストエー,0
1420,6020001158136,新規,0,2024-07-19,2024-07-19,株式会社リンク,,株式会社,神奈川県,横浜市保土ケ谷区,岡沢町３６３番地１４,,14,106,2400062,,,,,,,2024-07-19,1,,,,,リンク,0
1425,6020005016488,新規,0,2024-07-19,2024-07-19,一般財団法人総合美術仏日華共同歴史保存管理財団,,その他の設立登記法人,神奈川県,横浜市西区,西戸部町３丁目２５２番地９,,14,103,2200046,,,,,,,2024-07-19,1,,,,,ソウゴウビジュツフニカキョウドウレキシホゾンカンリザイダン,0
1432,6021001082763,新規,0,2024-07-19,2024-07-19,株式会社新和建設工業,,株式会社,神奈川県,藤沢市,大庭５６８３番地の２駒寄１３～５０１,,14,205,2510861,,,,,,,2024-07-19,1,,,,,シンワケンセツコウギョウ,0
1437,6021003014780,新規,0,2024-07-19,2024-07-19,Ｂｅｙｏｎｄ　Ｌｉｆｅ合同会社,,合同会社,神奈川県,茅ヶ崎市,中島３８２番地５,,14,207,2530073,,,,,,,2024-07-19,1,,,,,ビヨンドライフ,0
1438,6021003014789,新規,0,2024-07-19,2024-07-19,合同会社ハトメヤ,,合同会社,神奈川県,大和市,西鶴間５丁目１番１０号ラグリューＩＩ１１号,00135638,14,213,2420005,,,,,,,2024-07-19,1,,,,,ハトメヤ,0
1439,6021003014797,新規,0,2024-07-19,2024-07-19,レゾナエンバイロ合同会社,,合同会社,神奈川県,相模原市中央区,矢部１丁目２６番３号,,14,152,2520232,,,,,,,2024-07-19,1,,,,,レゾナエンバイロ,0
1446,6030001161477,新規,0,2024-07-19,2024-07-19,株式会社スパーク,,株式会社,埼玉県,所沢市,東狭山ケ丘６丁目８０２－５,,11,208,3591106,,,,,,,2024-07-19,1,,,,,スパーク,0
1447,6030001161535,新規,0,2024-07-19,2024-07-19,大代工業株式会社,,株式会社,埼玉県,熊谷市,日向１０４５番地２,,11,202,3600224,,,,,,,2024-07-19,1,,,,,オオシロコウギョウ,0
1448,6030001161543,新規,0,2024-07-19,2024-07-19,株式会社ＳｅＣＯＬＯＲ,,株式会社,埼玉県,春日部市,薄谷１２２番地１,,11,214,3440034,,,,,,,2024-07-19,1,,,,,エスイカラー,0
1450,6030003024715,新規,0,2024-07-19,2024-07-19,合同会社ＮＣ,,合同会社,埼玉県,狭山市,狭山台２丁目１８番地５号アマン第２狭山台１０２号室,,11,215,3501304,,,,,,,2024-07-19,1,,,,,エヌシー,0
1451,6030003024731,新規,0,2024-07-19,2024-07-19,合同会社ＴＳＵＲＵ　ＳＴＵＤＩＯ,,合同会社,埼玉県,児玉郡上里町,大字神保原町６６７番地５,,11,385,3690305,,,,,,,2024-07-19,1,,,,,ツルスタジオ,0
1452,6030005021768,新規,0,2024-07-19,2024-07-19,一般社団法人Ｗｅｌｌ‐Ｂｅｉｎｇ,,その他の設立登記法人,埼玉県,さいたま市大宮区,桜木町１丁目１番地４ＴＳ－１１４ＢＬＤＧ．５階,,11,103,3300854,,,,,,,2024-07-19,1,,,,,ウエルビーイング,0
1460,6040001134630,新規,0,2024-07-19,2024-07-19,株式会社達磨総建,,株式会社,千葉県,袖ケ浦市,奈良輪３３６番地,,12,229,2990263,,,,,,,2024-07-19,1,,,,,ダルマソウケン,0
1461,6040003025431,新規,0,2024-07-19,2024-07-19,合同会社Ｎｏｉｒ,,合同会社,千葉県,船橋市,前原西４丁目２－３－１,,12,204,2740825,,,,,,,2024-07-19,1,,,,,ノワール,0
1476,6080401027315,新規,0,2024-07-19,2024-07-19,株式会社Ｍ＆Ｍ,,株式会社,静岡県,浜松市中央区,泉１丁目７番１７号,,22,138,4338124,,,,,,,2024-07-19,1,,,,,エムアンドエム,0
1490,6120001266721,新規,0,2024-07-19,2024-07-19,株式会社ＫＭテック,,株式会社,大阪府,大阪市平野区,加美東４丁目３番４７号,,27,126,5470002,,,,,,,2024-07-19,1,,,,,ケーエムテック,0
1491,6120001266812,新規,0,2024-07-19,2024-07-19,株式会社ペルソナーク,,株式会社,大阪府,大阪市天王寺区,上本町５丁目２番１１号,,27,109,5430001,,,,,,,2024-07-19,1,,,,,ペルソナーク,0
1492,6120001266894,新規,0,2024-07-19,2024-07-19,坂本テクノロジー株式会社,,株式会社,大阪府,大阪市西淀川区,柏里２丁目７－２６ラ・ピース塚本３０１号室,00135621,27,113,5550022,,,,,,,2024-07-19,1,,,,,サカモトテクノロジー,0
1493,6120001266903,新規,0,2024-07-19,2024-07-19,株式会社きなり,,株式会社,大阪府,大阪市東淀川区,東中島１丁目１７番５－１０１４号,,27,114,5330033,,,,,,,2024-07-19,1,,,,,キナリ,0
1494,6120001266952,新規,0,2024-07-19,2024-07-19,Ｇｌｏｂａｌ　Ｔａｎｅｘ株式会社,,株式会社,大阪府,大阪市中央区,粉川町４番８－４０１号,,27,128,5400018,,,,,,,2024-07-19,1,,,,,グローバルタネックス,0
1495,6120001266960,新規,0,2024-07-19,2024-07-19,株式会社ＢＩＸＣＯ,,株式会社,大阪府,大阪市中央区,船場中央３丁目３番９号船場センタービル９号館２階,,27,128,5410055,,,,,,,2024-07-19,1,,,,,ビックスコ,0
1499,6120003027031,新規,0,2024-07-19,2024-07-19,合同会社ＭＡＴＣＨＡＭＯＮ,,合同会社,大阪府,大阪市浪速区,湊町１丁目２－１７－４０１,,27,111,5560017,,,,,,,2024-07-19,1,,,,,マッチャモン,0
1500,6120003027080,新規,0,2024-07-19,2024-07-19,合同会社ＳＮＨ,,合同会社,大阪府,守口市,大日町３丁目４番４９－１２０４号,,27,209,5700003,,,,,,,2024-07-19,1,,,,,エスエヌエイチ,0
1509,6120903005268,新規,0,2024-07-19,2024-07-19,合同会社標準化コンサルティング,,合同会社,大阪府,豊中市,刀根山６丁目１２番２１号,,27,203,5600045,,,,,,,2024-07-19,1,,,,,ヒョウジュンカコンサルティング,0
1510,6120905006636,新規,0,2024-07-19,2024-07-19,医療法人凰楓会,,その他の設立登記法人,大阪府,吹田市,片山町４丁目１番２号,,27,205,5640082,,,,,,,2024-07-19,1,,,,,オウフウカイ,0
1511,6122001038274,新規,0,2024-07-19,2024-07-19,株式会社エドュース,,株式会社,大阪府,八尾市,老原３丁目２０番地の２１,,27,212,5810092,,,,,,,2024-07-19,1,,,,,エドュース,0
1512,6122001038282,新規,0,2024-07-19,2024-07-19,Ｕ．Ａ．Ｏコンサルティング株式会社,,株式会社,大阪府,八尾市,高美町６丁目７番６号,,27,212,5810017,,,,,,,2024-07-19,1,,,,,ユーエーオーコンサルティング,0
1517,6130001077457,新規,0,2024-07-19,2024-07-19,株式会社ひまわり,,株式会社,京都府,京都市下京区,西七条北月読町７８番地２７,,26,106,6008886,,,,,,,2024-07-19,1,,,,,ヒマワリ,0
1518,6130001077498,新規,0,2024-07-19,2024-07-19,株式会社ムツダ物流,,株式会社,京都府,京都市下京区,西七条北東野町１０７,,26,106,6008871,,,,,,,2024-07-19,1,,,,,ムツダブツリュウ,0
1519,6130001077531,新規,0,2024-07-19,2024-07-19,３Ａｎｎｅｓ株式会社,,株式会社,京都府,京都市北区,西賀茂南今原町１２３番地,,26,101,6038843,,,,,,,2024-07-19,1,,,,,スリーアンス,0
1520,6130003009722,新規,0,2024-07-19,2024-07-19,ＢＦＦ　ＫＹＯＴＯ合同会社,,合同会社,京都府,京都市中京区,堺町通押小路上る竹屋町１６２番地３,,26,104,6040823,,,,,,,2024-07-19,1,,,,,ビーエフエフキョウト,0
1526,6140001135123,新規,0,2024-07-19,2024-07-19,株式会社ＴＤＩ,,株式会社,兵庫県,川西市,東久代２丁目１１番２０号,,28,217,6660023,,,,,,,2024-07-19,1,,,,,ティーディーアイ,0
1527,6140001135148,新規,0,2024-07-19,2024-07-19,株式会社Ｂｌｕｅ,,株式会社,兵庫県,神戸市兵庫区,福原町３２番１０－４０２号ラ・ウェゾン湊川公園,,28,105,6520036,,,,,,,2024-07-19,1,,,,,ブルー,0
1534,6150005009611,新規,0,2024-07-19,2024-07-19,一般社団法人Ｂｌｕｅ　Ｅａｒｔｈ　Ｂｒｉｄｇｅ,,その他の設立登記法人,奈良県,橿原市,新賀町２０１番地の２仲川ビル１Ｆ,,29,205,6340006,,,,,,,2024-07-19,1,,,,,ブルーアースブリッジ,0
1537,6170005007092,新規,0,2024-07-19,2024-07-19,一般社団法人ともに,,その他の設立登記法人,和歌山県,田辺市,中三栖１４６番地の７,,30,206,6460215,,,,,,,2024-07-19,1,,,,,トモニ,0
1543,6180001162246,新規,0,2024-07-19,2024-07-19,二葉産業株式会社,,株式会社,愛知県,名古屋市守山区,花咲台２丁目５０１番地,,23,113,4630808,,,,,,,2024-07-19,1,,,,,フタバサンギョウ,0
1544,6180001162361,新規,0,2024-07-19,2024-07-19,ＴＲｉＴｏｎ株式会社,,株式会社,愛知県,名古屋市瑞穂区,北原町３丁目９番地の１,,23,108,4670811,,,,,,,2024-07-19,1,,,,,トリトン,0
1545,6180001162428,新規,0,2024-07-19,2024-07-19,株式会社ノブナガパートナーズ,,株式会社,愛知県,名古屋市名東区,高針原１丁目２０４－１－８０３,,23,115,4650073,,,,,,,2024-07-19,1,,,,,ノブナガパートナーズ,0
1546,6180001162444,新規,0,2024-07-19,2024-07-19,株式会社アドリクス,,株式会社,愛知県,名古屋市名東区,石が根町４６番地の１シティハウス藤が丘８０２号,,23,115,4650023,,,,,,,2024-07-19,1,,,,,アドリクス,0
1547,6180001162485,新規,0,2024-07-19,2024-07-19,ＡＭＡ株式会社,,株式会社,愛知県,瀬戸市,薬師町５０番地４,,23,204,4890821,,,,,,,2024-07-19,1,,,,,アマ,0
1548,6180001162493,新規,0,2024-07-19,2024-07-19,株式会社ＶＩＣＴＯ‐ＬＩＮＫ,,株式会社,愛知県,稲沢市,長束町観音寺田８７,,23,220,4928167,,,,,,,2024-07-19,1,,,,,ビクトリンク,0
1554,6200001042734,新規,0,2024-07-19,2024-07-19,株式会社キューブ,,株式会社,岐阜県,高山市,吹屋町１７８－５,,21,203,5060831,,,,,,,2024-07-19,1,,,,,キューブ,0
1557,6220001026099,新規,0,2024-07-19,2024-07-19,株式会社能商店,,株式会社,石川県,金沢市,湊２丁目１４０番地,,17,201,9200211,,,,,,,2024-07-19,1,,,,,ノウショウテン,0
1560,6230003002254,新規,0,2024-07-19,2024-07-19,合同会社雨奇晴好,,合同会社,富山県,富山市,下大久保１０５５番地,,16,201,9392251,,,,,,,2024-07-19,1,,,,,ウキセイコウ,0
1564,6240001063553,新規,0,2024-07-19,2024-07-19,株式会社ＥＪフィールド,,株式会社,広島県,広島市西区,南観音３丁目１２番１０号,,34,104,7330035,,,,,,,2024-07-19,1,,,,,イージェイフィールド,0
1565,6240005015798,新規,0,2024-07-19,2024-07-19,一般社団法人広島バスケクリニック,,その他の設立登記法人,広島県,広島市安佐南区,西原４丁目２９番１８－４号,,34,105,7310113,,,,,,,2024-07-19,1,,,,,ヒロシマバスケクリニック,0
1568,6260001039270,新規,0,2024-07-19,2024-07-19,株式会社ＪＰＳ,,株式会社,岡山県,赤磐市,河本７３０番地１,,33,213,7090821,,,,,,,2024-07-19,1,,,,,ジェイピーエス,0
1569,6280001009214,新規,0,2024-07-19,2024-07-19,株式会社Ｓｈｉｔｏ,,株式会社,島根県,松江市,殿町３２４番地,,32,201,6900887,,,,,,,2024-07-19,1,,,,,シト,0
1575,6290801030707,新規,0,2024-07-19,2024-07-19,株式会社Ｒｏｔｔ,,株式会社,福岡県,中間市,土手ノ内１丁目２３番３０号,,40,215,8090033,,,,,,,2024-07-19,1,,,,,ロット,0
1576,6290803004782,新規,0,2024-07-19,2024-07-19,合同会社スピラーレ,,合同会社,福岡県,北九州市八幡西区,日吉台１丁目１３－１６,,40,109,8070866,,,,,,,2024-07-19,1,,,,,スピラーレ,0
1580,6330001032268,新規,0,2024-07-19,2024-07-19,願いが叶う株式会社,,株式会社,熊本県,熊本市北区,高平１丁目５番１５号,,43,105,8600085,,,,,,,2024-07-19,1,,,,,ネガイガカナウ,0
1584,6360003014154,新規,0,2024-07-19,2024-07-19,合同会社ワタル,,合同会社,沖縄県,浦添市,西原４丁目３４番３－２０３号コーポ日の出,,47,208,9012101,,,,,,,2024-07-19,1,,,,,ワタル,0
1590,6370003006687,新規,0,2024-07-19,2024-07-19,合同会社ＳＡＫＵ,,合同会社,宮城県,仙台市太白区,富沢西４丁目１９番地１９号ガーデンコート富沢７０４号室,,04,104,9820037,,,,,,,2024-07-19,1,,,,,サク,0
1626,7010001246551,新規,0,2024-07-19,2024-07-19,Ｌｉｌｙ　Ｅｓｔａｔｅ株式会社,,株式会社,東京都,中央区,勝どき６丁目３番１－４８２２号,,13,102,1040054,,,,,,,2024-07-19,1,,,,,リリーエステート,0
1627,7010001246584,新規,0,2024-07-19,2024-07-19,Ｇｒａｃｅ　Ｅｎｅｒｇｙ　Ｊａｐａｎ株式会社,,株式会社,東京都,千代田区,平河町２丁目４－５ＶＯＲＴ平河町ＩＩ５階,00135628,13,101,1020093,,,,,,,2024-07-19,1,,,,,グレースエナジージャパン,0
1628,7010001246667,新規,0,2024-07-19,2024-07-19,株式会社リトリック,,株式会社,東京都,中央区,銀座１丁目１２－４Ｎ＆ＥＢＬＤ．７階,,13,102,1040061,,,,,,,2024-07-19,1,,,,,リトリック,0
1629,7010001246675,新規,0,2024-07-19,2024-07-19,株式会社アジト,,株式会社,東京都,千代田区,岩本町３丁目１番９号,,13,101,1010032,,,,,,,2024-07-19,1,,,,,アジト,0
1631,7010003044334,新規,0,2024-07-19,2024-07-19,合同会社ＨＡＣＨＩ,,合同会社,東京都,千代田区,外神田３丁目８番３号,,13,101,1010021,,,,,,,2024-07-19,1,,,,,ハチ,0
1640,7010401183725,新規,0,2024-07-19,2024-07-19,株式会社青山地所リアルティ,,株式会社,東京都,港区,南青山２丁目２６番３７号,,13,103,1070062,,,,,,,2024-07-19,1,,,,,アオヤマチショリアルティ,0
1641,7010401183907,新規,0,2024-07-19,2024-07-19,株式会社グリーン・ホールディングス,,株式会社,東京都,港区,三田２丁目１４－５フロイントゥ三田１００８,,13,103,1080073,,,,,,,2024-07-19,1,,,,,グリーンホールディングス,0
1645,7010405023381,新規,0,2024-07-19,2024-07-19,一般社団法人ＷＳＴＳ日本協議会,,その他の設立登記法人,東京都,港区,港南２丁目１５番１号品川インターシティＡ棟２８階,,13,103,1080075,,,,,,,2024-07-19,1,,,,,ダブリューエスティーエスニホンキョウギカイ,0
1649,7010603010966,新規,0,2024-07-19,2024-07-19,合同会社超研修,,合同会社,東京都,墨田区,本所４丁目２６－１４－４０１,,13,107,1300004,,,,,,,2024-07-19,1,,,,,チョウケンシュウ,0
1650,7010705003645,新規,0,2024-07-19,2024-07-19,一般社団法人製造ＤＸ協会,,その他の設立登記法人,東京都,品川区,東五反田５丁目２２番２３号ＴＫ池田山ビル２階,,13,109,1410022,,,,,,,2024-07-19,1,,,,,セイゾウディーエックスキョウカイ,0
1657,7010901055671,新規,0,2024-07-19,2024-07-19,株式会社ＢｌｕｅＳｔａｒ,,株式会社,東京都,世田谷区,用賀１丁目９‐２２‐Ｅ３０３,,13,112,1580097,,,,,,,2024-07-19,1,,,,,ブルースター,0
1659,7011003019565,新規,0,2024-07-19,2024-07-19,ｂｕｃｕｒｉｅ合同会社,,合同会社,東京都,渋谷区,道玄坂１丁目１０－８渋谷道玄坂東急ビル２Ｆ－Ｃ,,13,113,1500043,,,,,,,2024-07-19,1,,,,,ブクリエ,0
1663,7011101108071,新規,0,2024-07-19,2024-07-19,金盛株式会社,,株式会社,東京都,新宿区,歌舞伎町１丁目２１番３号日拓新宿第４ビル５Ｆ,,13,104,1600021,,,,,,,2024-07-19,1,,,,,キンセイ,0
1664,7011103014623,新規,0,2024-07-19,2024-07-19,合同会社ＴＵ００４,,合同会社,東京都,新宿区,四谷２丁目９番地１５東京ユナイテッド綜合事務所内,,13,104,1600004,,,,,,,2024-07-19,1,,,,,ティーユーゼロゼロフォー,0
1665,7011103014697,新規,0,2024-07-19,2024-07-19,ＩＴＳ合同会社,,合同会社,東京都,新宿区,西新宿３丁目３番１３号西新宿水間ビル２階,,13,104,1600023,,,,,,,2024-07-19,1,,,,,アイティエス,0
1666,7011201025638,新規,0,2024-07-19,2024-07-19,東一株式会社,,株式会社,東京都,中野区,野方６丁目２０番４号,,13,114,1650027,,,,,,,2024-07-19,1,,,,,トウイチ,0
1667,7011301029852,新規,0,2024-07-19,2024-07-19,勝ち星株式会社,,株式会社,東京都,杉並区,久我山４丁目３０番２３号セボン久我山,,13,115,1680082,,,,,,,2024-07-19,1,,,,,カチボシ,0
1668,7011301029860,新規,0,2024-07-19,2024-07-19,株式会社インプロービア,,株式会社,東京都,杉並区,宮前２丁目５－１６,,13,115,1680081,,,,,,,2024-07-19,1,,,,,インプロービア,0
1673,7011501030949,新規,0,2024-07-19,2024-07-19,ＯＩＫＡＷＡ株式会社,,株式会社,東京都,北区,豊島５丁目２番５０－６２２号コスモ王子ガーデンズ,,13,117,1140003,,,,,,,2024-07-19,1,,,,,オイカワ,0
1677,7011603004388,新規,0,2024-07-19,2024-07-19,Ｍｉｃｌａｓ合同会社,,合同会社,東京都,練馬区,東大泉２丁目２３番１１号,,13,120,1780063,,,,,,,2024-07-19,1,,,,,ミクラス,0
1692,7013101009464,新規,0,2024-07-19,2024-07-19,株式会社樂,,株式会社,東京都,羽村市,羽東１丁目１２番１６号,,13,227,2050014,,,,,,,2024-07-19,1,,,,,ガク,0
1706,7020001158060,新規,0,2024-07-19,2024-07-19,アドビジョン株式会社,,株式会社,神奈川県,川崎市高津区,千年６８４番地３,,14,134,2130022,,,,,,,2024-07-19,1,,,,,アドビジョン,0
1709,7021001082762,新規,0,2024-07-19,2024-07-19,株式会社ビジネスアソシエセブン,,株式会社,神奈川県,藤沢市,菖蒲沢８９５番地の１,,14,205,2520823,,,,,,,2024-07-19,1,,,,,ビジネスアソシエセブン,0
1710,7021001082770,新規,0,2024-07-19,2024-07-19,株式会社ｏｃｔｏｏ,,株式会社,神奈川県,茅ヶ崎市,柳島海岸６－４５－２,,14,207,2530063,,,,,,,2024-07-19,1,,,,,オクト,0
1718,7030001161402,新規,0,2024-07-19,2024-07-19,ＦＯＲＣＥ　ＢＥＨＩＮＤ株式会社,,株式会社,埼玉県,新座市,野寺２丁目１９番１４－１号,,11,230,3520034,,,,,,,2024-07-19,1,,,,,フォースビハインド,0
1719,7030001161534,新規,0,2024-07-19,2024-07-19,株式会社ユーコー,,株式会社,埼玉県,川口市,戸塚６丁目２１番１号,,11,203,3330811,,,,,,,2024-07-19,1,,,,,ユーコー,0
1720,7030001161542,新規,0,2024-07-19,2024-07-19,ジャパゴリ株式会社,,株式会社,埼玉県,さいたま市北区,日進町３丁目１３５番地３細野ビル３０１,,11,102,3310823,,,,,,,2024-07-19,1,,,,,ジャパゴリ,0
1723,7030003024706,新規,0,2024-07-19,2024-07-19,ＹＫデザイン合同会社,,合同会社,埼玉県,さいたま市南区,南浦和２丁目３２番２号,,11,108,3360017,,,,,,,2024-07-19,1,,,,,ワイケイデザイン,0
1724,7030003024739,新規,0,2024-07-19,2024-07-19,合同会社８００００００ｂｉｔ,,合同会社,埼玉県,川口市,北原台１丁目２６番４－１号,,11,203,3330815,,,,,,,2024-07-19,1,,,,,ヤオヨロズビット,0
1725,7030005021767,新規,0,2024-07-19,2024-07-19,一般社団法人２４７トラスト,,その他の設立登記法人,埼玉県,さいたま市大宮区,宮町２丁目４３番地１,,11,103,3300802,,,,,,,2024-07-19,1,,,,,ニイヨンナナトラスト,0
1730,7040001134588,新規,0,2024-07-19,2024-07-19,株式会社へいきち,,株式会社,千葉県,旭市,ハの６９７番地１１,,12,215,2892521,,,,,,,2024-07-19,1,,,,,ヘイキチ,0
1735,7040003025414,新規,0,2024-07-19,2024-07-19,合同会社ジーエーシー,,合同会社,千葉県,船橋市,夏見１丁目２１番４５号,,12,204,2730865,,,,,,,2024-07-19,1,,,,,ジーエーシー,0
1739,7060001037319,新規,0,2024-07-19,2024-07-19,卓光リアルター株式会社,,株式会社,栃木県,宇都宮市,中今泉１丁目２２番９号,,09,201,3210968,,,,,,,2024-07-19,1,,,,,タクミツリアルター,0
1744,7080403005061,新規,0,2024-07-19,2024-07-19,ハピネス合同会社,,合同会社,静岡県,袋井市,高尾町２４番地の７グランジュール２０５,,22,216,4370027,,,,,,,2024-07-19,1,,,,,ハピネス,0
1748,7100001037685,新規,0,2024-07-19,2024-07-19,ＯＦＬＡ株式会社,,株式会社,長野県,松本市,北深志３丁目６番１１号,,20,202,3900872,,,,,,,2024-07-19,1,,,,,オフラ,0
1751,7100005013195,新規,0,2024-07-19,2024-07-19,一般財団法人ＡＳＡＧＩ　Ｌａｂｓ,,その他の設立登記法人,長野県,北佐久郡軽井沢町,軽井沢１２番地２,,20,321,3890103,,,,,,,2024-07-19,1,,,,,アサギラボス,0
1766,7120001266662,新規,0,2024-07-19,2024-07-19,株式会社Ｆ＆Ｌ,,株式会社,大阪府,大阪市淀川区,西中島１丁目６番１３号,,27,123,5320011,,,,,,,2024-07-19,1,,,,,エフアンドエル,0
1767,7120001266803,新規,0,2024-07-19,2024-07-19,株式会社三力,,株式会社,大阪府,大阪市浪速区,大国１丁目９－１３－４０５号,,27,111,5560014,,,,,,,2024-07-19,1,,,,,サンリキ,0
1768,7120001266811,新規,0,2024-07-19,2024-07-19,ＴＯＯＨＯＴ株式会社,,株式会社,大阪府,大阪市西成区,旭１丁目１０番２５－２０１号,,27,122,5570032,,,,,,,2024-07-19,1,,,,,トゥーホット,0
1769,7120001266869,新規,0,2024-07-19,2024-07-19,ホワイトアルバム株式会社,,株式会社,大阪府,枚方市,大垣内町１丁目４番３０－７０２号,,27,210,5730027,,,,,,,2024-07-19,1,,,,,ホワイトアルバム,0
1770,7120001266893,新規,0,2024-07-19,2024-07-19,元盛株式会社,,株式会社,大阪府,大阪市西淀川区,柏里２丁目７－２６ラ・ピース塚本７０７号室,00135624,27,113,5550022,,,,,,,2024-07-19,1,,,,,ゲンセイ,0
1771,7120001266902,新規,0,2024-07-19,2024-07-19,大野株式会社,,株式会社,大阪府,大阪市淀川区,東三国２丁目１８－１３－４０３,,27,123,5320002,,,,,,,2024-07-19,1,,,,,オオノ,0
1772,7120001266927,新規,0,2024-07-19,2024-07-19,マルワ不動産株式会社,,株式会社,大阪府,大阪市阿倍野区,阪南町１丁目１８番１３－１０２号,,27,119,5450021,,,,,,,2024-07-19,1,,,,,マルワフドウサン,0
1775,7120003027006,新規,0,2024-07-19,2024-07-19,木霊合同会社,,合同会社,大阪府,大阪市北区,豊崎３丁目１６番１６－１１０１号,,27,127,5310072,,,,,,,2024-07-19,1,,,,,コダマ,0
1776,7120003027055,新規,0,2024-07-19,2024-07-19,合同会社嘉誠,,合同会社,大阪府,大阪市浪速区,恵美須西２丁目１４－１２－４０６室,,27,111,5560003,,,,,,,2024-07-19,1,,,,,カセイ,0
1777,7120003027063,新規,0,2024-07-19,2024-07-19,萌大野合同会社,,合同会社,大阪府,大阪市東住吉区,公園南矢田１丁目３－１３,,27,121,5460024,,,,,,,2024-07-19,1,,,,,モエオオノ,0
1780,7120901049480,新規,0,2024-07-19,2024-07-19,株式会社シンシアヘルスケア,,株式会社,大阪府,箕面市,稲５丁目７番１０９号,,27,220,5620015,,,,,,,2024-07-19,1,,,,,シンシアヘルスケア,0
1782,7122001038281,新規,0,2024-07-19,2024-07-19,株式会社光洋電気,,株式会社,大阪府,東大阪市,若江東町２丁目７番２－１４０９号,,27,227,5780935,,,,,,,2024-07-19,1,,,,,コウヨウデンキ,0
1784,7122003002938,新規,0,2024-07-19,2024-07-19,山茶花合同会社,,合同会社,大阪府,八尾市,高美町５丁目３－２,,27,212,5810017,,,,,,,2024-07-19,1,,,,,サザンカ,0
1786,7130003009705,新規,0,2024-07-19,2024-07-19,合同会社リトルサポート,,合同会社,京都府,向日市,寺戸町笹屋２０番地の９,,26,208,6170002,,,,,,,2024-07-19,1,,,,,リトルサポート,0
1790,7140001135147,新規,0,2024-07-19,2024-07-19,株式会社アクシズ,,株式会社,兵庫県,姫路市,東雲町１丁目４５番地ＭＣビル４階,,28,201,6700046,,,,,,,2024-07-19,1,,,,,アクシズ,0
1806,7180001162402,新規,0,2024-07-19,2024-07-19,株式会社ＬＥＺＥＶ,,株式会社,愛知県,名古屋市緑区,姥子山１丁目５０６番地,,23,114,4580830,,,,,,,2024-07-19,1,,,,,レゼブ,0
1810,7180005020705,新規,0,2024-07-19,2024-07-19,一般社団法人Ｈａｎａ,,その他の設立登記法人,愛知県,名古屋市緑区,大清水東１２０２番地,,23,114,4580849,,,,,,,2024-07-19,1,,,,,ハナ,0
1812,7190001031498,新規,0,2024-07-19,2024-07-19,株式会社Ｍａｉｓｏｎ　Ｋ,,株式会社,三重県,鈴鹿市,中旭が丘２丁目２番１１号,,24,207,5100212,,,,,,,2024-07-19,1,,,,,メゾンケー,0
1824,7230001020447,新規,0,2024-07-19,2024-07-19,株式会社鳳志,,株式会社,富山県,富山市,米田町１丁目５番４１号,,16,201,9318304,,,,,,,2024-07-19,1,,,,,ホウシ,0
1826,7240001063552,新規,0,2024-07-19,2024-07-19,株式会社ＵＰ,,株式会社,広島県,安芸高田市,吉田町吉田７３０番地９,,34,214,7310501,,,,,,,2024-07-19,1,,,,,アップ,0
1837,7250005008932,新規,0,2024-07-19,2024-07-19,一般社団法人ＧＯＲＩＲＡ,,その他の設立登記法人,山口県,宇部市,相生町６－５真締川ハイツ６０２,,35,202,7550043,,,,,,,2024-07-19,1,,,,,ゴリラ,0
1841,7290001106439,新規,0,2024-07-19,2024-07-19,ｋａｒａｄａ　ｋａｉｇｉ株式会社,,株式会社,福岡県,福岡市博多区,博多駅前２丁目５番８号,,40,132,8120011,,,,,,,2024-07-19,1,,,,,カラダカイギ,0
1842,7290001106579,新規,0,2024-07-19,2024-07-19,株式会社ＧＲＯＷＴＨ,,株式会社,福岡県,福岡市中央区,大名２丁目１１番２０号シティホール福岡大名７Ｆ,,40,133,8100041,,,,,,,2024-07-19,1,,,,,グロース,0
1845,7290003015539,新規,0,2024-07-19,2024-07-19,フィールドウェーブ合同会社,,合同会社,福岡県,福岡市西区,横浜３丁目２３－１３－１０４,,40,135,8190366,,,,,,,2024-07-19,1,,,,,フィールドウェーブ,0
1847,7290801030706,新規,0,2024-07-19,2024-07-19,株式会社アヴェニール,,株式会社,福岡県,田川郡川崎町,大字池尻４５２番地の１,,40,605,8270002,,,,,,,2024-07-19,1,,,,,アヴェニール,0
1849,7320003004430,新規,0,2024-07-19,2024-07-19,永城商事合同会社,,合同会社,大分県,杵築市,大字熊野３４４４番地,,44,210,8730008,,,,,,,2024-07-19,1,,,,,ナガキショウジ,0
1850,7330001032259,新規,0,2024-07-19,2024-07-19,株式会社ＭＡＲＵＴＡ　ＳＴＹＬＥ,,株式会社,熊本県,菊池郡大津町,大字平川４６４番地,,43,403,8691231,,,,,,,2024-07-19,1,,,,,マルタスタイル,0
1851,7330003010469,新規,0,2024-07-19,2024-07-19,合同会社Ｔ１９７５,,合同会社,熊本県,熊本市中央区,下通１丁目９番４号宇都宮ビル２階Ａ号室,,43,101,8600807,,,,,,,2024-07-19,1,,,,,ティーイチキュウナナゴ,0
1852,7330003010477,新規,0,2024-07-19,2024-07-19,合同会社大和,,合同会社,熊本県,天草市,東浜町２０番２号,,43,215,8630014,,,,,,,2024-07-19,1,,,,,ヤマト,0
1853,7340003004544,新規,0,2024-07-19,2024-07-19,プログラムデザイン合同会社,,合同会社,鹿児島県,鹿児島市,東谷山２丁目１５番２号上村ビル１０２,,46,201,8910113,,,,,,,2024-07-19,1,,,,,プログラムデザイン,0
1859,7360005007072,新規,0,2024-07-19,2024-07-19,一般社団法人ゆめか広場,,その他の設立登記法人,沖縄県,中頭郡北谷町,字美浜１５番地１４の２０１,,47,326,9040115,,,,,,,2024-07-19,1,,,,,ユメカヒロバ,0
1870,7400001016733,新規,0,2024-07-19,2024-07-19,京浜光膜工業株式会社,,株式会社,岩手県,奥州市,江刺岩谷堂字松長根５８番地２,,03,215,0231101,,,,,,,2024-07-19,1,,,,,ケイヒンコウマクコウギョウ,0
1876,7430001092284,新規,0,2024-07-19,2024-07-19,株式会社ケイエステート,,株式会社,北海道,札幌市中央区,南十四条西１２丁目２番４０－４０５号,,01,101,0640914,,,,,,,2024-07-19,1,,,,,ケイエステート,0
1878,7430003016571,新規,0,2024-07-19,2024-07-19,Ｐｏｐ‐Ｕｐ合同会社,,合同会社,北海道,札幌市清田区,里塚緑ケ丘９丁目４番８号アセット弐番館Ｈ号,,01,110,0040805,,,,,,,2024-07-19,1,,,,,ポップーアップ,0
1901,8010001246435,新規,0,2024-07-19,2024-07-19,ｊｐｒｉｓｅ株式会社,,株式会社,東京都,中央区,日本橋人形町２丁目１０番５号,,13,102,1030013,,,,,,,2024-07-19,1,,,,,ジェイピーライズ,0
1902,8010001246658,新規,0,2024-07-19,2024-07-19,株式会社朝日中央事業承継Ｍ＆Ａコンサルティング,,株式会社,東京都,千代田区,霞が関３丁目２番５号霞が関ビル１９階,,13,101,1000013,,,,,,,2024-07-19,1,,,,,アサヒチュウオウジギョウショウケイエムアンドエーコンサルティング,0
1903,8010001246716,新規,0,2024-07-19,2024-07-19,株式会社ｓｔａｒｔ　ｕｐ,,株式会社,東京都,中央区,入船１丁目７番８号,,13,102,1040042,,,,,,,2024-07-19,1,,,,,スタートアップ,0
1904,8010001246740,新規,0,2024-07-19,2024-07-19,株式会社クープデザイン,,株式会社,東京都,中央区,銀座１丁目１６番７号銀座大栄ビル６階,,13,102,1040061,,,,,,,2024-07-19,1,,,,,クープデザイン,0
1905,8010003044309,新規,0,2024-07-19,2024-07-19,合同会社Ａｌｐｈａ　ＢｉｏＭｅｄｉｃａｌ　Ｊａｐａｎ,,合同会社,東京都,中央区,銀座７丁目１３番６号サガミビル２階,,13,102,1040061,,,,,,,2024-07-19,1,,,,,アルファバイオメディカルジャパン,0
1908,8010401183625,新規,0,2024-07-19,2024-07-19,株式会社ＳＥＩＫＡ,,株式会社,東京都,港区,三田４丁目１８番１４－４０１号,,13,103,1080073,,,,,,,2024-07-19,1,,,,,セイカ,0
1909,8010401183922,新規,0,2024-07-19,2024-07-19,株式会社日本擁壁保証販売,,株式会社,東京都,港区,浜松町１丁目２番１号Ｎｏ．Ｒ浜松町９Ｆ,,13,103,1050013,,,,,,,2024-07-19,1,,,,,ニホンヨウヘキホショウハンバイ,0
1911,8010403033076,新規,0,2024-07-19,2024-07-19,合同会社東京共感ストーリー２４,,合同会社,東京都,港区,芝公園２丁目９番８号,,13,103,1050011,,,,,,,2024-07-19,1,,,,,トウキョウキョウカンストーリーニジュウヨン,0
1916,8010603010957,新規,0,2024-07-19,2024-07-19,合同会社ハミデモノ,,合同会社,東京都,墨田区,文花１丁目１８－１３,,13,107,1310044,,,,,,,2024-07-19,1,,,,,ハミデモノ,0
1926,8011001163307,新規,0,2024-07-19,2024-07-19,株式会社アダプトエッジ,,株式会社,東京都,渋谷区,神宮前６丁目１９－１５高野第一ビル１０階Ｂ,,13,113,1500001,,,,,,,2024-07-19,1,,,,,アダプトエッジ,0
1929,8011003019597,新規,0,2024-07-19,2024-07-19,合同会社ストライプミュージック,,合同会社,東京都,渋谷区,渋谷２丁目１９－１５宮益坂ビルディング６０９,,13,113,1500002,,,,,,,2024-07-19,1,,,,,ストライプミュージック,0
1932,8011101108104,新規,0,2024-07-19,2024-07-19,株式会社栞,,株式会社,東京都,新宿区,西新宿３丁目３番１３号西新宿水間ビル２階,,13,104,1600023,,,,,,,2024-07-19,1,,,,,シオリ,0
1933,8011103014622,新規,0,2024-07-19,2024-07-19,合同会社ＴＵ００３,,合同会社,東京都,新宿区,四谷２丁目９番地１５東京ユナイテッド綜合事務所内,,13,104,1600004,,,,,,,2024-07-19,1,,,,,ティーユーゼロゼロスリー,0
1934,8011103014671,新規,0,2024-07-19,2024-07-19,合同会社オザイ,,合同会社,東京都,新宿区,西落合３丁目２番１１号ロシェ西落合３０３,,13,104,1610031,,,,,,,2024-07-19,1,,,,,オザイ,0
1937,8011301029851,新規,0,2024-07-19,2024-07-19,株式会社ＲｅＧｌｏｗ,,株式会社,東京都,杉並区,荻窪２丁目２３－１３Ａｒｔｅ荻窪２０１,,13,115,1670051,,,,,,,2024-07-19,1,,,,,リグロー,0
1940,8011501030923,新規,0,2024-07-19,2024-07-19,株式会社初来,,株式会社,東京都,北区,滝野川１丁目３番－６０１王子トータルビル,,13,117,1140023,,,,,,,2024-07-19,1,,,,,ソライ,0
1945,8011601027910,新規,0,2024-07-19,2024-07-19,株式会社紫縁,,株式会社,東京都,練馬区,石神井町４丁目２５番９号,,13,120,1770041,,,,,,,2024-07-19,1,,,,,シエン,0
1949,8011801044499,新規,0,2024-07-19,2024-07-19,ＯＮＥ　ＴＥＣＨ株式会社,,株式会社,東京都,葛飾区,堀切７丁目２７－７名橋ビル４０２号室,,13,122,1240006,,,,,,,2024-07-19,1,,,,,ワンテック,0
1950,8011801044549,新規,0,2024-07-19,2024-07-19,株式会社宮商,,株式会社,東京都,葛飾区,亀有３丁目３７番１８号,,13,122,1250061,,,,,,,2024-07-19,1,,,,,ミヤショウ,0
1951,8011801044557,新規,0,2024-07-19,2024-07-19,ＬＡＺＯ株式会社,,株式会社,東京都,足立区,加平３丁目１２番１５,,13,121,1210055,,,,,,,2024-07-19,1,,,,,ラソ,0
1953,8012701018361,新規,0,2024-07-19,2024-07-19,株式会社ＭＩＳＳＩＯＮ　ＢＲＯＴＨＥＲＳ,,株式会社,東京都,小平市,学園西町２丁目１３－２３－５Ｆ,,13,211,1870045,,,,,,,2024-07-19,1,,,,,,0
1956,8013301006285,新規,0,2024-07-19,2024-07-19,株式会社西洋環境開発,,株式会社,東京都,豊島区,東池袋３丁目１番１号,,13,116,1700013,,,,,,,2024-07-19,1,,,,,,0
1959,8020001158076,新規,0,2024-07-19,2024-07-19,株式会社けいファーマ,,株式会社,神奈川県,横浜市港南区,上永谷３丁目２番２号,,14,111,2330012,,,,,,,2024-07-19,1,,,,,ケイファーマ,0
1960,8020001158101,新規,0,2024-07-19,2024-07-19,株式会社ＷＡＱＵＡＳ,,株式会社,神奈川県,川崎市中原区,市ノ坪３２６番地１エクラージュ３０１,,14,133,2110016,,,,,,,2024-07-19,1,,,,,ワクアス,0
1961,8020001158118,新規,0,2024-07-19,2024-07-19,株式会社Ｅ‐Ｓｐｉｃｅ,,株式会社,神奈川県,横浜市栄区,小菅ケ谷１丁目５番２－８２７号,,14,115,2470007,,,,,,,2024-07-19,1,,,,,イースパイス,0
1963,8020003026479,新規,0,2024-07-19,2024-07-19,Ｍａｒｓ＆Ｂｅｌｌｏｎａ　Ｃｏｎｓｕｌｔｉｎｇ合同会社,,合同会社,神奈川県,横浜市鶴見区,小野町１番地１－１１５号,,14,101,2300046,,,,,,,2024-07-19,1,,,,,マルスアンドベローナコンサルティング,0
1964,8020003026495,新規,0,2024-07-19,2024-07-19,合同会社伯勝,,合同会社,神奈川県,横浜市緑区,鴨居４丁目３番６－１４３号,,14,113,2260003,,,,,,,2024-07-19,1,,,,,ハクショウ,0
1965,8020005016486,新規,0,2024-07-19,2024-07-19,一般財団法人全国ピースエントリー就労支援管理機構,,その他の設立登記法人,神奈川県,川崎市川崎区,藤崎４丁目１１番２－３０２号,,14,131,2100804,,,,,,,2024-07-19,1,,,,,ゼンコクピースエントリーシュウロウシエンカンリキコウ,0
1967,8021001082753,新規,0,2024-07-19,2024-07-19,株式会社ホライゾン・ジャパン,,株式会社,神奈川県,平塚市,山下１丁目４番３３－２０１号リゾート高麗,,14,203,2540911,,,,,,,2024-07-19,1,,,,,ホライゾンジャパン,0
1968,8021001082761,新規,0,2024-07-19,2024-07-19,ミッドブルック商事株式会社,,株式会社,神奈川県,鎌倉市,稲村ガ崎５丁目２２番１号ー１,,14,204,2480024,,,,,,,2024-07-19,1,,,,,ミッドブルックショウジ,0
1983,8040001134513,新規,0,2024-07-19,2024-07-19,ミユキコンサルティング株式会社,,株式会社,千葉県,四街道市,四街道１丁目２２番７号,,12,228,2840005,,,,,,,2024-07-19,1,,,,,ミユキコンサルティング,0
1984,8040001134620,新規,0,2024-07-19,2024-07-19,アールインフォース株式会社,,株式会社,千葉県,習志野市,東習志野１丁目７番２７号,,12,216,2750001,,,,,,,2024-07-19,1,,,,,アールインフォース,0
1989,8040003025421,新規,0,2024-07-19,2024-07-19,合同会社ＯＬＤ　ＵＳＡＲ,,合同会社,千葉県,鎌ケ谷市,東道野辺２丁目４番１５号（サニーハウスＡ１０２）,,12,224,2730115,,,,,,,2024-07-19,1,,,,,オールドウザー,0
2004,8070001041970,新規,0,2024-07-19,2024-07-19,株式会社ＴＨＥ　ＳＵＮＲＩＳＥ,,株式会社,群馬県,太田市,新井町５７６番地２エステーハイツＡ－１０５号,,10,205,3730852,,,,,,,2024-07-19,1,,,,,ザサンライズ,0
2005,8070001041979,新規,0,2024-07-19,2024-07-19,株式会社ラファール,,株式会社,群馬県,前橋市,大友町２丁目２５番１３号,,10,201,3710847,,,,,,,2024-07-19,1,,,,,ラファール,0
2009,8070003005503,新規,0,2024-07-19,2024-07-19,合同会社むすび,,合同会社,群馬県,伊勢崎市,間野谷町６１７番地１（Ｂ号棟）,,10,204,3792201,,,,,,,2024-07-19,1,,,,,ムスビ,0
2035,8120001266901,新規,0,2024-07-19,2024-07-19,コムゼット株式会社,,株式会社,大阪府,門真市,深田町１３番１５号,,27,223,5710042,,,,,,,2024-07-19,1,,,,,コムゼット,0
2036,8120001266942,新規,0,2024-07-19,2024-07-19,株式会社ｅｎＤｊｏｙ,,株式会社,大阪府,大阪市淀川区,塚本２丁目２２番１２－４０１号,,27,123,5320026,,,,,,,2024-07-19,1,,,,,エンドジョイ,0
2040,8120003027054,新規,0,2024-07-19,2024-07-19,合同会社Ｅ・Ｌｉｅｂｅ,,合同会社,大阪府,門真市,本町２７番５号,,27,223,5710046,,,,,,,2024-07-19,1,,,,,エリーベ,0
2041,8120005024446,新規,0,2024-07-19,2024-07-19,医療法人ステラ会,,その他の設立登記法人,大阪府,大阪市旭区,大宮２丁目２７番２３号,,27,117,5350002,,,,,,,2024-07-19,1,,,,,ステラカイ,0
2043,8120101070006,新規,0,2024-07-19,2024-07-19,株式会社チェリッシュコネクション,,株式会社,大阪府,堺市中区,大野芝町３５番地１６,,27,142,5998233,,,,,,,2024-07-19,1,,,,,チェリッシュコネクション,0
2051,8130001077488,新規,0,2024-07-19,2024-07-19,株式会社京愛,,株式会社,京都府,京都市下京区,東塩小路町５９５番地３グロリアス京都７０６,,26,106,6000000,,,,,,,2024-07-19,1,,,,,ケイアイ,0
2058,8140001135138,新規,0,2024-07-19,2024-07-19,株式会社フェローズ,,株式会社,兵庫県,尼崎市,東園田町５丁目１３－２,,28,202,6610953,,,,,,,2024-07-19,1,,,,,フェローズ,0
2059,8140001135146,新規,0,2024-07-19,2024-07-19,ＡｓＴ　ｄｅｓｉｇｎ　ｗｏｒｋｓ株式会社,,株式会社,兵庫県,姫路市,南町７６姫路城陽ビル４階コアワーキングスペースｍｏｃｃｏ姫路,,28,201,6700912,,,,,,,2024-07-19,1,,,,,アストデザインワークス,0
2060,8140001135154,新規,0,2024-07-19,2024-07-19,神戸アセット株式会社,,株式会社,兵庫県,神戸市垂水区,塩屋町７丁目１番４４号,,28,108,6550872,,,,,,,2024-07-19,1,,,,,コウベアセット,0
2064,8140003020825,新規,0,2024-07-19,2024-07-19,合同会社イレブンウィング,,合同会社,兵庫県,丹波篠山市,住吉台１０番地７,,28,221,6692231,,,,,,,2024-07-19,1,,,,,イレブンウィング,0
2065,8160001026079,新規,0,2024-07-19,2024-07-19,一博株式会社,,株式会社,滋賀県,栗東市,小柿６丁目９番２０－９号２階,,25,208,5203024,,,,,,,2024-07-19,1,,,,,イッポ,0
2075,8180001162384,新規,0,2024-07-19,2024-07-19,株式会社Ｂｒｅｅｚｅ,,株式会社,愛知県,名古屋市昭和区,広路町字隼人１２番地隼人宛３０６,,23,107,4660834,,,,,,,2024-07-19,1,,,,,ブリーズ,0
2076,8180001162418,新規,0,2024-07-19,2024-07-19,東海酒造株式会社,,株式会社,愛知県,名古屋市天白区,中平５丁目２１０７番地,,23,116,4680014,,,,,,,2024-07-19,1,,,,,トウカイシュゾウ,0
2086,8200001042724,新規,0,2024-07-19,2024-07-19,株式会社ＬＵＡＮＡ,,株式会社,岐阜県,瑞穂市,野白新田４１３番地１,,21,216,5010231,,,,,,,2024-07-19,1,,,,,ルアナ,0
2087,8200001042732,新規,0,2024-07-19,2024-07-19,株式会社ロデオファイン,,株式会社,岐阜県,岐阜市,柳森町１丁目２５番地１Ｆ西,,21,201,5008365,,,,,,,2024-07-19,1,,,,,ロデオファイン,0
2094,8220003003788,新規,0,2024-07-19,2024-07-19,合同会社ソーシャルネットワーク社,,合同会社,石川県,金沢市,白菊町８番１号日京ハイツ３０２,,17,201,9218024,,,,,,,2024-07-19,1,,,,,ソーシャルネットワークシャ,0
2099,8230003002252,新規,0,2024-07-19,2024-07-19,合同会社さくら咲く,,合同会社,富山県,富山市,蓮町５丁目８番１６号,00135622,16,201,9318333,,,,,,,2024-07-19,1,,,,,サクラサク,0
2107,8260001039269,新規,0,2024-07-19,2024-07-19,Ｎ‐ＬＩＮＥ株式会社,,株式会社,岡山県,岡山市北区,富田町１丁目２－１アルファ富田町４０５,,33,101,7000816,,,,,,,2024-07-19,1,,,,,エヌライン,0
2108,8260001039277,新規,0,2024-07-19,2024-07-19,株式会社ＥＬＥＶＥＮＴＨ,,株式会社,岡山県,浅口市,金光町占見新田８１６番地５,,33,216,7190104,,,,,,,2024-07-19,1,,,,,イレブンス,0
2111,8290001106446,新規,0,2024-07-19,2024-07-19,株式会社Ｓｋｕｉ,,株式会社,福岡県,福岡市西区,今宿駅前１丁目１５番１８号,,40,135,8190168,,,,,,,2024-07-19,1,,,,,スクイ,0
2116,8290801030705,新規,0,2024-07-19,2024-07-19,株式会社九州日本斎苑,,株式会社,福岡県,北九州市小倉南区,葛原本町１丁目３番２３号,,40,107,8000253,,,,,,,2024-07-19,1,,,,,キュウシュウニホンサイエン,0
2121,8330001032258,新規,0,2024-07-19,2024-07-19,株式会社ＢＬＯＯＭ,,株式会社,熊本県,熊本市東区,長嶺南１丁目３番１３３－１号,,43,102,8618039,,,,,,,2024-07-19,1,,,,,ブルーム,0
2141,8400001016732,新規,0,2024-07-19,2024-07-19,株式会社Ｊｅｗｅｌ．Ｃ,,株式会社,岩手県,花巻市,上小舟渡９６番地,,03,205,0250062,,,,,,,2024-07-19,1,,,,,ジュエルシー,0
2144,8400003003299,新規,0,2024-07-19,2024-07-19,合同会社Ａｃｔｉｏｎ,,合同会社,岩手県,陸前高田市,米崎町字高畑２９番地１７,,03,210,0292206,,,,,,,2024-07-19,1,,,,,アクション,0
2152,8430001092283,新規,0,2024-07-19,2024-07-19,株式会社ＳＵＺＵＫＩＣＨＩ,,株式会社,北海道,札幌市東区,北十二条東５丁目１番６号,,01,103,0650012,,,,,,,2024-07-19,1,,,,,スズキチ,0
2154,8430003016570,新規,0,2024-07-19,2024-07-19,Ｎｅｅｄｌｅｓ合同会社,,合同会社,北海道,札幌市南区,石山一条２丁目４番５０－８１２号,,01,106,0050841,,,,,,,2024-07-19,1,,,,,ニードルズ,0
2158,8460101007576,新規,0,2024-07-19,2024-07-19,株式会社神楽,,株式会社,北海道,帯広市,清流東４丁目７番地１,,01,207,0800871,,,,,,,2024-07-19,1,,,,,カグラ,0
2161,8470003002682,新規,0,2024-07-19,2024-07-19,合同会社いろは,,合同会社,香川県,仲多度郡多度津町,西港町５１番地５ポンドハイツ２階２０３号,,37,404,7640017,,,,,,,2024-07-19,1,,,,,イロハ,0
2162,8470005006574,新規,0,2024-07-19,2024-07-19,ハイウェイネット協同組合,,その他の設立登記法人,香川県,丸亀市,飯山町川原１０７８番地５,,37,202,7620082,,,,,,,2024-07-19,1,,,,,,0
2165,8480003002161,新規,0,2024-07-19,2024-07-19,合同会社エフ,,合同会社,徳島県,小松島市,立江町字新開１１０番地の１,,36,203,7730017,,,,,,,2024-07-19,1,,,,,エフ,0
2173,9010001246211,新規,0,2024-07-19,2024-07-19,株式会社ＢｉｔｃｏｉｎＴＶ,,株式会社,東京都,千代田区,二番町１－２－４０４,,13,101,1020084,,,,,,,2024-07-19,1,,,,,ビットコインティーヴィー,0
2174,9010001246533,新規,0,2024-07-19,2024-07-19,途正株式会社,,株式会社,東京都,千代田区,東神田２丁目４番１１号ＳＡＫＵＲＡＧＡＲＤＥＮ７階,,13,101,1010031,,,,,,,2024-07-19,1,,,,,トセイ,0
2175,9010001246657,新規,0,2024-07-19,2024-07-19,株式会社晃洋,,株式会社,東京都,千代田区,外神田２丁目１６番２号,,13,101,1010021,,,,,,,2024-07-19,1,,,,,コウヨウ,0
2176,9010001246665,新規,0,2024-07-19,2024-07-19,株式会社ＢＣＪ‐８４,,株式会社,東京都,千代田区,丸の内１丁目１番１号パレスビル５階,,13,101,1000005,,,,,,,2024-07-19,1,,,,,ビーシージェイエイティーフォー,0
2177,9010001246707,新規,0,2024-07-19,2024-07-19,株式会社４Ｄ　Ｐｏｃｋｅｔ,,株式会社,東京都,中央区,新川２丁目２１番７号,,13,102,1040033,,,,,,,2024-07-19,1,,,,,フォーディポケット,0
2179,9010003044340,新規,0,2024-07-19,2024-07-19,合同会社ギガラボ,,合同会社,東京都,千代田区,神田和泉町１番地６－１６ヤマトビル４０５,,13,101,1010024,,,,,,,2024-07-19,1,,,,,ギガラボ,0
2181,9010101016241,新規,0,2024-07-19,2024-07-19,株式会社Ｏｆｆｉｃｅ　Ｗｅｌｌ　Ｄｏｎｅ,,株式会社,東京都,八王子市,四谷町１２０２番地７,,13,201,1930813,,,,,,,2024-07-19,1,,,,,オフィスウエルダン,0
2184,9010401183913,新規,0,2024-07-19,2024-07-19,株式会社ＳＷＩＭ,,株式会社,東京都,港区,南青山５丁目４番３０号,,13,103,1070062,,,,,,,2024-07-19,1,,,,,スウィム,0
2187,9010403033083,新規,0,2024-07-19,2024-07-19,ｈｙｐｈｅｎ合同会社,,合同会社,東京都,港区,北青山１丁目３－１アールキューブ青山３Ｆ,,13,103,1070061,,,,,,,2024-07-19,1,,,,,ハイフン,0
2188,9010405023413,新規,0,2024-07-19,2024-07-19,一般社団法人ジーシーピー３,,その他の設立登記法人,東京都,港区,元赤坂１丁目１番８号株式会社赤坂国際会計内,,13,103,1070051,,,,,,,2024-07-19,1,,,,,ジーシーピースリー,0
2193,9010601065580,新規,0,2024-07-19,2024-07-19,株式会社ＱＵａｎｔｕｍ　Ｅｎｃｈａｎｔｅｄ　ＳｏｆＴ,,株式会社,東京都,墨田区,緑１丁目１番１１号ラティエラ両国４０７,,13,107,1300021,,,,,,,2024-07-19,1,,,,,クエスト,0
2195,9010603010964,新規,0,2024-07-19,2024-07-19,日常福祉合同会社,,合同会社,東京都,墨田区,京島３丁目２３番１１号,,13,107,1310046,,,,,,,2024-07-19,1,,,,,ニチジョウフクシ,0
2203,9010801035235,新規,0,2024-07-19,2024-07-19,Ｄｅｃ　Ｊａｐａｎ株式会社,,株式会社,東京都,大田区,仲池上１丁目１７番１３号ヒシコーハイツ１階,,13,111,1460081,,,,,,,2024-07-19,1,,,,,デックジャパン,0
2204,9010801035243,新規,0,2024-07-19,2024-07-19,株式会社心輝,,株式会社,東京都,大田区,大森北６丁目２１番１１号－１０１,,13,111,1430016,,,,,,,2024-07-19,1,,,,,シンキ,0
2206,9010903009228,新規,0,2024-07-19,2024-07-19,Ｑｕａｎｔｕｍ　Ｄｒｅａｍ合同会社,,合同会社,東京都,世田谷区,代沢１丁目２２番８号,,13,112,1550032,,,,,,,2024-07-19,1,,,,,クアンタムドリーム,0
2210,9011001163339,新規,0,2024-07-19,2024-07-19,株式会社Ｔｉｍ,,株式会社,東京都,渋谷区,円山町２６番７号ＴＫＦＬＡＴＳ渋谷４０３,,13,113,1500044,,,,,,,2024-07-19,1,,,,,,0
2211,9011003019588,新規,0,2024-07-19,2024-07-19,Ｊｏｌｌｙ　Ｐｅａｃｅ合同会社,,合同会社,東京都,渋谷区,代々木５丁目４４－６ファミーユ藤Ａ棟３０１,,13,113,1510053,,,,,,,2024-07-19,1,,,,,ジョリーピース,0
2212,9011003019596,新規,0,2024-07-19,2024-07-19,サレエペペ合同会社,,合同会社,東京都,渋谷区,円山町５番５号Ｎａｖｉ渋谷Ｖ３階,,13,113,1500044,,,,,,,2024-07-19,1,,,,,サレエペペ,0
2213,9011003019605,新規,0,2024-07-19,2024-07-19,合同会社ラーニングオーグ,,合同会社,東京都,渋谷区,渋谷２丁目１９－１５宮益坂ビルディング６０９,,13,113,1500002,,,,,,,2024-07-19,1,,,,,ラーニングオーグ,0
2217,9011103014687,新規,0,2024-07-19,2024-07-19,合同会社ラザロ,,合同会社,東京都,新宿区,西新宿３丁目３番１３号西新宿水間ビル２Ｆ,,13,104,1600023,,,,,,,2024-07-19,1,,,,,ラザロ,0
2218,9011103014704,新規,0,2024-07-19,2024-07-19,ｅｐｋｋ合同会社,,合同会社,東京都,新宿区,西新宿７丁目２２番３８号興亜ビル４０３,,13,104,1600023,,,,,,,2024-07-19,1,,,,,イーピーケーケー,0
2219,9011301029850,新規,0,2024-07-19,2024-07-19,株式会社ＦＬＡＴＯＮＥ,,株式会社,東京都,杉並区,高円寺南４丁目７番３号サンシャイン高円寺８０３号,,13,115,1660003,,,,,,,2024-07-19,1,,,,,フラットワン,0
2223,9011401026269,新規,0,2024-07-19,2024-07-19,ジャコール株式会社,,株式会社,東京都,板橋区,南常盤台２丁目２１番１４号スカイコートときわ台２、２０５号,,13,119,1740072,,,,,,,2024-07-19,1,,,,,ジャコール,0
2224,9011403004446,新規,0,2024-07-19,2024-07-19,合同会社エスピーエス,,合同会社,東京都,板橋区,成増１丁目２９番１５－２０７号,,13,119,1750094,,,,,,,2024-07-19,1,,,,,エスピーエス,0
2229,9011603004386,新規,0,2024-07-19,2024-07-19,合同会社ＯＨＧＩ,,合同会社,東京都,練馬区,錦１丁目２１番１５－１０１号,,13,120,1790082,,,,,,,2024-07-19,1,,,,,オウギ,0
2230,9011603004394,新規,0,2024-07-19,2024-07-19,合同会社若者に農業を,,合同会社,東京都,練馬区,関町南３丁目２０－６,,13,120,1770053,,,,,,,2024-07-19,1,,,,,ワカモノニノウギョウヲ,0
2232,9011701027446,新規,0,2024-07-19,2024-07-19,ＴＲＢ　Ｉｎｔｅｒｎａｔｉｏｎａｌ株式会社,,株式会社,東京都,江戸川区,南小岩４丁目１８番４号,,13,123,1330056,,,,,,,2024-07-19,1,,,,,ティーアールビーインターナショナル,0
2233,9011703003908,新規,0,2024-07-19,2024-07-19,合同会社ちゅーず,,合同会社,東京都,江戸川区,松江１丁目７番５号１Ｆ,,13,123,1320025,,,,,,,2024-07-19,1,,,,,チューズ,0
2236,9011801044548,新規,0,2024-07-19,2024-07-19,ｌａｐｌａｃｅ株式会社,,株式会社,東京都,足立区,島根１丁目１１番５－６０３号,,13,121,1210815,,,,,,,2024-07-19,1,,,,,ラプレイス,0
2245,9013303007198,新規,0,2024-07-19,2024-07-19,合同会社Ｍ．Ｉ．Ｌ．Ｓ,,合同会社,東京都,豊島区,南池袋２丁目４１－１２池袋セントラル６０１,,13,116,1710022,,,,,,,2024-07-19,1,,,,,ミルス,0
2251,9020001158133,新規,0,2024-07-19,2024-07-19,Ａｎｏｎｚ株式会社,,株式会社,神奈川県,横浜市鶴見区,佃野町３４番１８－２号,,14,101,2300061,,,,,,,2024-07-19,1,,,,,アノン,0
2252,9020003026486,新規,0,2024-07-19,2024-07-19,合同会社ＤＡＩＣＨＩ　ＳＴＵＤＩＯ,,合同会社,神奈川県,横浜市神奈川区,栄町１１番地１０,,14,102,2210052,,,,,,,2024-07-19,1,,,,,ダイチスタジオ,0
2253,9020005016477,新規,0,2024-07-19,2024-07-19,特定非営利活動法人月の光グループ本部,,その他の設立登記法人,神奈川県,横浜市中区,本牧和田２２番地２４号,,14,104,2310827,,,,,,,2024-07-19,1,,,,,,0
2259,9021001082760,新規,0,2024-07-19,2024-07-19,株式会社アイル,,株式会社,神奈川県,足柄下郡箱根町,湯本４６８番地の４－３０７,,14,382,2500311,,,,,,,2024-07-19,1,,,,,アイル,0
2260,9021001082769,新規,0,2024-07-19,2024-07-19,株式会社Ｂｅａｒｄｅｅｒ,,株式会社,神奈川県,三浦郡葉山町,一色１５７６番地の１１,,14,301,2400111,,,,,,,2024-07-19,1,,,,,ビアーディアー,0
2261,9021001082777,新規,0,2024-07-19,2024-07-19,株式会社みや,,株式会社,神奈川県,大和市,中央林間２丁目４番６－２号,,14,213,2420007,,,,,,,2024-07-19,1,,,,,ミヤ,0
2262,9021003014794,新規,0,2024-07-19,2024-07-19,合同会社ＢＷＴ,,合同会社,神奈川県,鎌倉市,鎌倉山２丁目２０番５号,,14,204,2480031,,,,,,,2024-07-19,1,,,,,ビーダブリューティー,0
2270,9030001161490,新規,0,2024-07-19,2024-07-19,株式会社ｋｕｋｋａ　ｕｎｅｌｍａ,,株式会社,埼玉県,川口市,芝富士２丁目９番１１号,,11,203,3330854,,,,,,,2024-07-19,1,,,,,クッカウネルマ,0
2271,9030001161540,新規,0,2024-07-19,2024-07-19,株式会社ＨＩＬＯ,,株式会社,埼玉県,新座市,片山３丁目９番３４－４２号,,11,230,3520025,,,,,,,2024-07-19,1,,,,,イロ,0
2277,9040001134586,新規,0,2024-07-19,2024-07-19,株式会社アサヒサイン,,株式会社,千葉県,八千代市,大和田新田４６９番地３１９,,12,221,2760046,,,,,,,2024-07-19,1,,,,,アサヒサイン,0
2278,9040001134611,新規,0,2024-07-19,2024-07-19,ＭＯＫＫＥ株式会社,,株式会社,千葉県,柏市,若柴１７８－４柏の葉キャンパス１４８街区１Ｗ－３５１０,,12,217,2770871,,,,,,,2024-07-19,1,,,,,モッケ,0
2284,9050001055113,新規,0,2024-07-19,2024-07-19,株式会社うにスピードエージェンシー,,株式会社,茨城県,神栖市,溝口１６６０－５,,08,232,3140121,,,,,,,2024-07-19,1,,,,,ウニスピードエージェンシー,0
2286,9060001037325,新規,0,2024-07-19,2024-07-19,蘇隆商事株式会社,,株式会社,栃木県,さくら市,早乙女１９４５番地２,,09,214,3291414,,,,,,,2024-07-19,1,,,,,ソリュウショウジ,0
2292,9070001041978,新規,0,2024-07-19,2024-07-19,Ｗｅａｄ株式会社,,株式会社,群馬県,桐生市,平井町４番２１号,,10,203,3760051,,,,,,,2024-07-19,1,,,,,ウィード,0
2298,9090001018818,新規,0,2024-07-19,2024-07-19,株式会社Ｎ建設,,株式会社,山梨県,甲州市,勝沼町休息１７６４番地,,19,213,4091304,,,,,,,2024-07-19,1,,,,,エヌケンセツ,0
2302,9100003007651,新規,0,2024-07-19,2024-07-19,ＩＰＰＯ合同会社,,合同会社,長野県,長野市,戸隠豊岡１５５２,,20,201,3814102,,,,,,,2024-07-19,1,,,,,イッポ,0
2316,9120001266727,新規,0,2024-07-19,2024-07-19,Ｏｙｅ株式会社,,株式会社,大阪府,大阪市淀川区,新北野１丁目１２番１０号レバンガ十三アパートメント,,27,123,5320025,,,,,,,2024-07-19,1,,,,,オイエ,0
2317,9120001266875,新規,0,2024-07-19,2024-07-19,Ｓｍａｄ　Ｅｌｅｃｔｒｉｃ株式会社,,株式会社,大阪府,大阪市西成区,旭１丁目１０番２５－２０２号,,27,122,5570032,,,,,,,2024-07-19,1,,,,,スマッドエレクトリック,0
2318,9120001266909,新規,0,2024-07-19,2024-07-19,首都国際株式会社,,株式会社,大阪府,門真市,上野口町８－１,,27,223,5710070,,,,,,,2024-07-19,1,,,,,シュトコクサイ,0
2319,9120001266917,新規,0,2024-07-19,2024-07-19,昌信株式会社,,株式会社,大阪府,大阪市東成区,大今里２丁目６番１１号,,27,115,5370012,,,,,,,2024-07-19,1,,,,,ショウシン,0
2320,9120001266941,新規,0,2024-07-19,2024-07-19,株式会社パラミックス倶楽部,,株式会社,大阪府,大阪市淀川区,西中島３丁目９番１２号,,27,123,5320011,,,,,,,2024-07-19,1,,,,,,0
2324,9120005024445,新規,0,2024-07-19,2024-07-19,医療法人翔徳会,,その他の設立登記法人,大阪府,大阪市生野区,勝山南４丁目５番６号Ｋ’ｓＩＩ２Ｆ・３Ｆ,00135626,27,116,5440021,,,,,,,2024-07-19,1,,,,,ショウトクカイ,0
2326,9120101070013,新規,0,2024-07-19,2024-07-19,株式会社Ａｎｃｈｏｒ,,株式会社,大阪府,松原市,立部１丁目１８５－４,,27,217,5800012,,,,,,,2024-07-19,1,,,,,アンカー,0
2330,9120901049479,新規,0,2024-07-19,2024-07-19,株式会社碧一,,株式会社,大阪府,茨木市,竹橋町１１番１３－４０６号,,27,211,5670815,,,,,,,2024-07-19,1,,,,,アオイ,0
2335,9130001077446,新規,0,2024-07-19,2024-07-19,株式会社フォレスト,,株式会社,京都府,宇治市,明星町４丁目１２番地の８,,26,204,6110014,,,,,,,2024-07-19,1,,,,,フォレスト,0
2336,9130001077529,新規,0,2024-07-19,2024-07-19,株式会社エメラージュ,,株式会社,京都府,京都市上京区,宮垣町９１番地１０２,,26,102,6020853,,,,,,,2024-07-19,1,,,,,エメラージュ,0
2343,9140001135145,新規,0,2024-07-19,2024-07-19,株式会社ショーター整形靴工房,,株式会社,兵庫県,神戸市灘区,原田通１丁目１番５号リムハウス１階,,28,102,6570837,,,,,,,2024-07-19,1,,,,,ショーターセイケイクツコウボウ,0
2345,9140003020824,新規,0,2024-07-19,2024-07-19,アメージングライフ合同会社,,合同会社,兵庫県,芦屋市,船戸町１２番１２号,,28,206,6590093,,,,,,,2024-07-19,1,,,,,アメージングライフ,0
2346,9140003020840,新規,0,2024-07-19,2024-07-19,合同会社Ｓｐｏｒｔ,,合同会社,兵庫県,神戸市中央区,磯上通４丁目１－１４三宮スカイビル７Ｆ,,28,110,6510086,,,,,,,2024-07-19,1,,,,,エスポート,0
2348,9160001026086,新規,0,2024-07-19,2024-07-19,株式会社ＴＭＫ,,株式会社,滋賀県,草津市,下笠町７３１番地１,,25,206,5250029,,,,,,,2024-07-19,1,,,,,ティエムケイ,0
2360,9180001162391,新規,0,2024-07-19,2024-07-19,Ｎｓｏｌｅｉｌ株式会社,,株式会社,愛知県,名古屋市昭和区,小坂町２丁目１４番地の２（セレーノ吹上２０３号）,,23,107,4660021,,,,,,,2024-07-19,1,,,,,エヌソレイユ,0
2361,9180001162417,新規,0,2024-07-19,2024-07-19,ＡＮＯＳ株式会社,,株式会社,愛知県,名古屋市中村区,名駅４丁目２４番５号第２森ビル４０１,,23,105,4500002,,,,,,,2024-07-19,1,,,,,アノス,0
2371,9180003027080,新規,0,2024-07-19,2024-07-19,大昇金属合同会社,,合同会社,愛知県,名古屋市東区,東桜２丁目３０７番地東カン名古屋キャステール４２２室,,23,102,4610005,,,,,,,2024-07-19,1,,,,,ダイショウキンゾク,0
2378,9200001042723,新規,0,2024-07-19,2024-07-19,株式会社ＳＳＣ,,株式会社,岐阜県,岐阜市,粟野西１丁目４５４番地５,,21,201,5020006,,,,,,,2024-07-19,1,,,,,エスエスシー,0
2385,9220003003795,新規,0,2024-07-19,2024-07-19,合同会社ソレイユ,,合同会社,石川県,河北郡津幡町,字能瀬ニ３０番地１４,,17,361,9290319,,,,,,,2024-07-19,1,,,,,ソレイユ,0
2389,9230001020445,新規,0,2024-07-19,2024-07-19,株式会社レザンヴェール,,株式会社,富山県,高岡市,鴨島町６０番地１,,16,202,9330932,,,,,,,2024-07-19,1,,,,,レザンヴェール,0
2396,9240001063559,新規,0,2024-07-19,2024-07-19,株式会社ＧＲＡＣＥ,,株式会社,広島県,広島市西区,高須台５丁目１１番４号,,34,104,7330876,,,,,,,2024-07-19,1,,,,,グレース,0
2397,9240001063567,新規,0,2024-07-19,2024-07-19,株式会社神龍,,株式会社,広島県,広島市南区,比治山本町５番４３－２０１号,,34,103,7320816,,,,,,,2024-07-19,1,,,,,シンリュウ,0
2400,9260001039268,新規,0,2024-07-19,2024-07-19,株式会社ＣＲＥＡＳ,,株式会社,岡山県,倉敷市,連島町鶴新田２１４９番地４,,33,202,7128006,,,,,,,2024-07-19,1,,,,,クレアス,0
2401,9260001039276,新規,0,2024-07-19,2024-07-19,株式会社ＴＷＥＬＦＴＨ,,株式会社,岡山県,倉敷市,福田町古新田７６３番地８ブルマーレＩ２０５号室,00135623,33,202,7128046,,,,,,,2024-07-19,1,,,,,トゥエルフス,0
2403,9270003001646,新規,0,2024-07-19,2024-07-19,合同会社ＴＯＳＵ,,合同会社,鳥取県,倉吉市,新町３丁目１０８１,,31,203,6820861,,,,,,,2024-07-19,1,,,,,トス,0
2406,9290001106461,新規,0,2024-07-19,2024-07-19,ジプソフィア・マネジメント株式会社,,株式会社,福岡県,福岡市東区,香椎駅前１丁目１８番５－６０２号,,40,131,8130013,,,,,,,2024-07-19,1,,,,,ジプソフィアマネジメント,0
2407,9290001106577,新規,0,2024-07-19,2024-07-19,株式会社アクロライズ,,株式会社,福岡県,福岡市早良区,城西１丁目５番２５－５０５号,,40,137,8140003,,,,,,,2024-07-19,1,,,,,アクロライズ,0
2408,9290001106585,新規,0,2024-07-19,2024-07-19,株式会社ファクターアソシエイツ,,株式会社,福岡県,福岡市博多区,博多駅南１丁目７番１４号ＢＯＩＳ博多,,40,132,8120016,,,,,,,2024-07-19,1,,,,,ファクターアソシエイツ,0
2417,9330001032265,新規,0,2024-07-19,2024-07-19,株式会社Ｒａｂｂｉｔ　ａｎｄ　Ｔｕｒｔｌｅ,,株式会社,熊本県,熊本市東区,長嶺東４丁目１０番３３号,,43,102,8618038,,,,,,,2024-07-19,1,,,,,ラビットアンドタートル,0
2418,9330003010475,新規,0,2024-07-19,2024-07-19,合同会社ＭＯＤＡ,,合同会社,熊本県,熊本市中央区,国府２丁目６番７９号アルファステイツ国府２０３号,,43,101,8620949,,,,,,,2024-07-19,1,,,,,モダ,0
2421,9340001026662,新規,0,2024-07-19,2024-07-19,株式会社キャリアラボ,,株式会社,鹿児島県,鹿児島市,魚見町１４１番地１２,,46,201,8910112,,,,,,,2024-07-19,1,,,,,キャリアラボ,0
2425,9360001033954,新規,0,2024-07-19,2024-07-19,株式会社アイテック,,株式会社,沖縄県,豊見城市,字豊見城１００７番地７,,47,212,9010241,,,,,,,2024-07-19,1,,,,,アイテック,0
2431,9400001016731,新規,0,2024-07-19,2024-07-19,株式会社エレック,,株式会社,岩手県,八幡平市,松尾寄木第１地割５００番地８６,,03,214,0287302,,,,,,,2024-07-19,1,,,,,エレック,0
2432,9400005008428,新規,0,2024-07-19,2024-07-19,一般社団法人イノベーションサポート協会,,その他の設立登記法人,岩手県,盛岡市,中央通２丁目１－７－３０１号,,03,201,0200021,,,,,,,2024-07-19,1,,,,,イノベーションサポートキョウカイ,0
2445,9470001020297,新規,0,2024-07-19,2024-07-19,ＤＥＣＣＩ株式会社,,株式会社,香川県,香川郡直島町,１２３４番地,,37,364,7613110,,,,,,,2024-07-19,1,,,,,デッチ,0
