sequenceNumber,corporateNumber,process,correct,updateDate,changeDate,name,nameImageId,kind,prefectureName,cityName,streetNumber,addressImageId,prefectureCode,cityCode,postCode,addressOutside,addressOutsideImageId,closeDate,closeCause,successorCorporateNumber,changeCause,assignmentDate,latest,enName,enPrefectureName,enCityName,enAddressOutside,furigana,hihyoji
1,1010001018584,登記記録の閉鎖等,0,2025-07-07,2025-06-09,ショウエイプロス株式会社,,株式会社,東京都,千代田区,平河町２丁目２番１号,,13,101,1020093,,,2025-06-09,清算の結了等,,,2025-01-07,1,,,,,ショウエイプロス,0
13,1010001245006,登記記録の閉鎖等,0,2025-07-07,2025-06-05,野村鉱業株式会社,,株式会社,東京都,千代田区,大手町１丁目７番２号,,13,101,1000004,,,2025-06-05,清算の結了等,,,2024-05-23,1,,,,,ノムラコウギョウ,0
25,1010005029421,登記記録の閉鎖等,0,2025-07-07,2025-06-27,一般社団法人小樽不動産,,その他の設立登記法人,東京都,千代田区,神田神保町１丁目１１番地さくら綜合事務所内,,13,101,1010051,,,2025-06-27,清算の結了等,,,2018-11-29,1,,,,,オタルフドウサン,0
32,1010401170729,登記記録の閉鎖等,0,2025-07-07,2025-06-20,株式会社ＯＭＥＮ,,株式会社,岡山県,岡山市北区,昭和町４番１７号１２１６号室,,33,101,7000032,,,2025-06-20,清算の結了等,,,2022-11-09,1,,,,,オーメン,0
41,1010701031341,登記記録の閉鎖等,0,2025-07-07,2025-06-20,ＨＩＮＡＳＹＳ株式会社,,株式会社,東京都,台東区,谷中３丁目２３番９－３０３号,,13,106,1100001,,,2025-06-20,清算の結了等,,,2015-10-05,1,,,,,,0
55,1011003010810,登記記録の閉鎖等,0,2025-07-07,2025-06-09,合同会社たかたか本舗,,合同会社,東京都,渋谷区,渋谷１丁目２０番２８号,,13,113,1500002,,,2025-06-09,清算の結了等,,,2020-01-27,1,,,,,タカタカホンポ,0
56,1011003012393,登記記録の閉鎖等,0,2025-07-07,2025-06-09,合同会社ｍｉｃｃｅ,,合同会社,東京都,渋谷区,神宮前６丁目２３番４号桑野ビル２階,,13,113,1500001,,,2025-06-09,清算の結了等,,,2021-03-18,1,,,,,ミッケ,0
70,1011801010334,登記記録の閉鎖等,0,2025-07-07,2025-06-30,東新工業株式会社,,株式会社,東京都,足立区,栗原４丁目２２番６号,,13,121,1230842,,,2025-06-30,清算の結了等,,,2015-10-05,1,,,,,トウシンコウギョウ,0
72,1012702008913,登記記録の閉鎖等,0,2025-07-07,2025-06-30,有限会社エイジング,,有限会社,東京都,西東京市,田無町５丁目６番２０号,,13,229,1880011,,,2025-06-30,清算の結了等,,,2015-10-05,1,,,,,エイジング,0
74,1013303001381,登記記録の閉鎖等,0,2025-07-07,2025-06-26,合資会社大川電設,,合資会社,東京都,豊島区,巣鴨４丁目４４番１－２４０５号,,13,116,1700002,,,2025-06-26,清算の結了等,,,2015-10-05,1,,,,,オオカワデンセツ,0
106,1040002101411,登記記録の閉鎖等,0,2025-07-07,2025-06-19,有限会社モンフルニエ,,有限会社,千葉県,館山市,北条１０７４番地の２,,12,205,2940045,,,2025-06-19,清算の結了等,,,2015-10-05,1,,,,,モンフルニエ,0
122,1100002024993,登記記録の閉鎖等,0,2025-07-07,2025-07-01,星光商事有限会社,,有限会社,長野県,塩尻市,大字広丘野村１３６６番地１８,,20,215,3990702,,,2025-07-01,清算の結了等,,,2015-10-05,1,,,,,セイコウショウジ,0
123,1100002035041,登記記録の閉鎖等,0,2025-07-07,2025-07-01,有限会社矢澤建設工業,,有限会社,長野県,上伊那郡箕輪町,大字中箕輪１３８３０番地２,,20,383,3994601,,,2025-07-01,清算の結了等,,,2015-10-05,1,,,,,ヤザワケンセツコウギョウ,0
173,1150001025732,登記記録の閉鎖等,0,2025-07-07,2025-07-01,株式会社ＭＵＴＵＭＩ,,株式会社,大阪府,寝屋川市,高宮１丁目１番４号,,27,215,5720806,,,2025-07-01,合併による解散等,7120001214349,令和７年７月１日大阪府枚方市山之上二丁目２１番９号株式会社ＮＡＴＴＯＫＵ（7120001214349）に合併し解散,2022-07-29,1,,,,,ムツミ,0
175,1170001012084,登記記録の閉鎖等,0,2025-07-07,2025-07-01,株式会社トーワ,,株式会社,大阪府,泉佐野市,りんくう往来北２番１１,,27,213,5980048,,,2025-07-01,合併による解散等,5170001012196,令和７年７月１日大阪府泉佐野市りんくう往来北２番１１株式会社トーワ（5170001012196）に合併し解散,2015-10-05,1,,,,,トーワ,0
176,1170001017059,登記記録の閉鎖等,0,2025-07-07,2025-07-01,株式会社紀泉,,株式会社,和歌山県,橋本市,隅田町山内１６８７番地の１,,30,203,6480003,,,2025-07-01,合併による解散等,4170001010622,令和７年７月１日和歌山県橋本市隅田町山内１６８７番地の１紀泉物流株式会社（4170001010622）に合併し解散,2022-04-18,1,,,,,キセン,0
181,1180001139273,登記記録の閉鎖等,0,2025-07-07,2025-06-23,株式会社エムジーエム,,株式会社,愛知県,名古屋市東区,筒井３丁目２６番１０号,,23,102,4610003,,,2025-06-23,清算の結了等,,,2019-12-16,1,,,,,エムジーエム,0
188,1180305008777,登記記録の閉鎖等,0,2025-07-07,2025-06-25,一般社団法人空き家の窓口,,その他の設立登記法人,愛知県,豊橋市,東田町字西脇７１番地１,,23,201,4400062,,,2025-06-25,清算の結了等,,,2018-04-10,1,,,,,アキヤノマドグチ,0
197,1210002008928,登記記録の閉鎖等,0,2025-07-07,2025-07-01,有限会社士邦建設,,有限会社,福井県,福井市,文京１丁目２７番８号,,18,201,9100017,,,2025-07-01,清算の結了等,,,2015-10-05,1,,,,,シホウケンセツ,0
201,1220001023464,登記記録の閉鎖等,0,2025-07-07,2025-06-26,株式会社富樫緑化,,株式会社,石川県,金沢市,窪５丁目６８２番地,,17,201,9218151,,,2025-06-26,清算の結了等,,,2020-04-06,1,,,,,トガシリョクカ,0
228,1320002002960,登記記録の閉鎖等,0,2025-07-07,2025-06-30,有限会社さくらんぼ薬局,,有限会社,大分県,大分市,仲西町１丁目６番１３号,,44,201,8700135,,,2025-06-30,清算の結了等,,,2015-10-05,1,,,,,サクランボヤッキョク,0
246,1410002010608,登記記録の閉鎖等,0,2025-07-07,2025-07-01,有限会社山口板金工業,,有限会社,秋田県,能代市,落合字中大野１０８番地１４,,05,202,0160014,,,2025-07-01,清算の結了等,,,2015-10-05,1,,,,,ヤマグチバンキンコウギョウ,0
249,1430001051493,登記記録の閉鎖等,0,2025-07-07,2025-07-01,株式会社ブシロードウェルビー,,株式会社,東京都,中野区,中央１丁目３８番１号,,13,114,1640011,,,2025-07-01,合併による解散等,8030001107206,令和７年７月１日東京都中野区中央一丁目３８番１号株式会社ブシロードクリエイティブ（8030001107206）に合併し解散,2015-10-05,1,,,,,ブシロードウェルビー,0
260,1470001019545,登記記録の閉鎖等,0,2025-07-07,2025-06-30,株式会社ＫＥＩＺ,,株式会社,香川県,丸亀市,飯野町東二甲１１１番地１,,37,202,7630084,,,2025-06-30,清算の結了等,,,2023-04-10,1,,,,,ケイズ,0
261,1490001002482,登記記録の閉鎖等,0,2025-07-07,2025-07-01,株式会社八州包装センター,,株式会社,高知県,高知市,南久保４番２１号,,39,201,7810087,,,2025-07-01,合併による解散等,8490002002161,令和７年７月１日高知市北久保２番３５号栄産業株式会社（8490002002161）に合併し解散,2015-10-05,1,,,,,ハチスホウソウセンター,0
262,1500001020103,登記記録の閉鎖等,0,2025-07-07,2025-06-27,株式会社オーバースタイル,,株式会社,愛媛県,伊予郡松前町,大字中川原７２５番地４,,38,401,7913164,,,2025-06-27,清算の結了等,,,2016-09-21,1,,,,,,0
282,2010005012277,登記記録の閉鎖等,0,2025-07-07,2025-06-26,第一三共ファーマ労働組合,,その他の設立登記法人,東京都,中央区,日本橋本町３丁目８番３号,,13,102,1030023,,,2025-06-26,清算の結了等,,,2015-10-05,1,,,,,ダイイチサンキョウファーマ,0
289,2010401082279,登記記録の閉鎖等,0,2025-07-07,2025-06-17,株式会社東和商会,,株式会社,東京都,港区,新橋２丁目２０番１５号新橋駅前ビル１号館３０５,,13,103,1050004,,,2025-06-17,清算の結了等,,,2015-10-05,1,,,,,トウワショウカイ,0
291,2010401126705,登記記録の閉鎖等,0,2025-07-07,2025-07-01,株式会社東亜ＦＧ,,株式会社,東京都,港区,麻布十番１丁目１１番３号,,13,103,1060045,,,2025-07-01,合併による解散等,8010403000761,令和７年７月１日東京都港区麻布十番一丁目１１番３号株式会社東亜商館（8010403000761）に合併し解散,2016-08-23,1,,,,,トウアエフジー,0
292,2010401170991,登記記録の閉鎖等,0,2025-07-07,2025-06-17,Ｂ．Ｏ．Ｔ株式会社,,株式会社,東京都,港区,南青山３丁目１番３６号青山丸竹ビル６Ｆ,,13,103,1070062,,,2025-06-17,清算の結了等,,,2022-11-25,1,,,,,ビーオーティー,0
294,2010401177178,登記記録の閉鎖等,0,2025-07-07,2025-06-13,株式会社ＤＲＥＡＭ　ＳＨＯＰ,,株式会社,東京都,港区,南青山２丁目２番１５号,,13,103,1070062,,,2025-06-13,清算の結了等,,,2023-09-15,1,,,,,ドリームショップ,0
310,2010901040439,登記記録の閉鎖等,0,2025-07-07,2025-06-19,株式会社ＡＮＤＮＯＷ,,株式会社,宮崎県,宮崎市,橘通東４丁目１番４号河北ビル１階・２階,,45,201,8800805,,,2025-06-19,清算の結了等,,,2017-07-11,1,,,,,アンドナウ,0
313,2011001013376,登記記録の閉鎖等,0,2025-07-07,2025-06-06,株式会社大発,,株式会社,東京都,渋谷区,千駄ヶ谷３丁目１３番１４号清和ビル４０１号,,13,113,1510051,,,2025-06-06,清算の結了等,,,2015-10-05,1,,,,,ダイハツ,0
314,2011001018185,登記記録の閉鎖等,0,2025-07-07,2025-06-09,株式会社ネクスト,,株式会社,東京都,渋谷区,幡ヶ谷１丁目３３番１号シティー幡ヶ谷５０１号,,13,113,1510072,,,2025-06-09,清算の結了等,,,2015-10-05,1,,,,,,0
340,2011702001316,登記記録の閉鎖等,0,2025-07-07,2025-06-27,有限会社岩建機工,,有限会社,東京都,江戸川区,中央４丁目１９番５号,,13,123,1320021,,,2025-06-27,清算の結了等,,,2015-10-05,1,,,,,イワケンキコウ,0
386,2040002057330,登記記録の閉鎖等,0,2025-07-07,2025-06-20,有限会社三和商事,,有限会社,千葉県,印西市,山田１３０番地,,12,231,2701604,,,2025-06-20,清算の結了等,,,2015-10-05,1,,,,,,0
387,2040002074210,登記記録の閉鎖等,0,2025-07-07,2025-06-20,有限会社地引製作所,,有限会社,千葉県,市原市,村上１０６６番地５,,12,219,2900031,,,2025-06-20,清算の結了等,,,2015-10-05,1,,,,,ジビキセイサクジョ,0
392,2040005018890,登記記録の閉鎖等,0,2025-07-07,2025-06-20,特定非営利活動法人障害者・環境支援センター,,その他の設立登記法人,千葉県,市原市,磯ケ谷２９７番地３,,12,219,2900204,,,2025-06-20,清算の結了等,,,2016-01-08,1,,,,,ショウガイシャカンキョウシエンセンター,0
399,2060002015410,登記記録の閉鎖等,0,2025-07-07,2025-06-30,有限会社本村製麺所,,有限会社,栃木県,日光市,吉沢３３番地１,,09,206,3211273,,,2025-06-30,清算の結了等,,,2015-10-05,1,,,,,モトムラセイメンジョ,0
405,2080002004304,登記記録の閉鎖等,0,2025-07-07,2025-06-26,有限会社長倉文具店,,有限会社,静岡県,静岡市葵区,宮ケ崎町３５番地,,22,101,4200868,,,2025-06-26,清算の結了等,,,2015-10-05,1,,,,,,0
461,2180001108203,登記記録の閉鎖等,0,2025-07-07,2025-06-23,株式会社高橋興業,00072610,株式会社,愛知県,愛西市,藤ケ瀬町西沼１３番地１,,23,232,4968041,,,2025-06-23,清算の結了等,,,2015-10-05,1,,,,,タカハシコウギョウ,0
477,2210002004281,登記記録の閉鎖等,0,2025-07-07,2025-06-27,有限会社みどり,,有限会社,福井県,福井市,花堂南２丁目１６番１号ベル１階,,18,201,9188015,,,2025-06-27,清算の結了等,,,2015-10-05,1,,,,,ミドリ,0
482,2240001023486,登記記録の閉鎖等,0,2025-07-07,2025-06-27,株式会社東広設計,,株式会社,広島県,東広島市,八本松東３丁目２９番１５号,,34,212,7390142,,,2025-06-27,清算の結了等,,,2015-10-05,1,,,,,トウコウセッケイ,0
487,2240002014278,登記記録の閉鎖等,0,2025-07-07,2025-06-30,有限会社フォレスト,,有限会社,広島県,広島市中区,富士見町１５番２３－７０１号,,34,101,7300043,,,2025-06-30,清算の結了等,,,2015-10-05,1,,,,,フォレスト,0
501,2290002030477,登記記録の閉鎖等,0,2025-07-07,2025-06-24,有限会社エービース,,有限会社,福岡県,福岡市城南区,梅林３丁目１７番１１号,,40,136,8140144,,,2025-06-24,清算の結了等,,,2015-10-05,1,,,,,エービース,0
515,2330003010358,登記記録の閉鎖等,0,2025-07-07,2025-06-20,合同会社ｍａｈｏｒｏｂａ,,合同会社,熊本県,山鹿市,鹿本町御宇田２０２番地,,43,208,8610304,,,2025-06-20,清算の結了等,,,2024-05-08,1,,,,,マホロバ,0
524,2370001047092,登記記録の閉鎖等,0,2025-07-07,2025-07-03,国吉建設株式会社,,株式会社,宮城県,仙台市宮城野区,中野３丁目７番地の２,,04,102,9830013,,,2025-07-03,合併による解散等,7380001015738,令和７年６月３０日福島県相馬市中村字桜ケ丘８４番地アイワビルド株式会社（7380001015738）に合併し解散,2021-05-19,1,,,,,クニヨシケンセツ,0
527,2370802001223,登記記録の閉鎖等,0,2025-07-07,2025-06-23,有限会社カネヒサ小野海苔店,,有限会社,宮城県,亘理郡亘理町,字新井町３７番地,,04,361,9892351,,,2025-06-23,清算の結了等,,,2015-10-05,1,,,,,カネヒサオノノリテン,0
529,2380001017301,登記記録の閉鎖等,0,2025-07-07,2025-07-01,株式会社オール・リゾート・サービス,,株式会社,福島県,耶麻郡猪苗代町,字出雲壇３５番地１,,07,408,9693111,,,2025-07-01,合併による解散等,2380001017219,令和７年７月１日福島県耶麻郡猪苗代町字出雲壇３５番地１株式会社アセラ（2380001017219）に合併し解散,2015-10-05,1,,,,,オールリゾートサービス,0
551,2460102005650,登記記録の閉鎖等,0,2025-07-07,2025-07-01,有限会社ニシオカ,,有限会社,北海道,河東郡上士幌町,字ぬかびら源泉郷南区２３番地１,,01,633,0801403,,,2025-07-01,合併による解散等,2460102002078,令和７年７月１日北海道帯広市東一条南十二丁目１０番地１株式会社畜大練成会（2460102002078）に合併し解散,2015-10-05,1,,,,,ニシオカ,0
565,3010001138331,登記記録の閉鎖等,0,2025-07-07,2025-05-09,マリアナ・シッピング・ジャパン株式会社,,株式会社,東京都,中央区,八丁堀３丁目２番４号,,13,102,1040032,,,2025-05-09,清算の結了等,,,2015-10-05,1,,,,,マリアナシッピングジャパン,0
572,3010003028811,登記記録の閉鎖等,0,2025-07-07,2025-06-17,合同会社小樽不動産,,合同会社,東京都,千代田区,神田神保町１丁目１１番地さくら綜合事務所内,,13,101,1010051,,,2025-06-17,清算の結了等,,,2018-11-29,1,,,,,オタルフドウサン,0
586,3010403014709,登記記録の閉鎖等,0,2025-07-07,2025-06-16,合同会社Ｒｉｎｇ　ｏｆ　ＮＹ,,合同会社,東京都,港区,港南３丁目５番１０号,,13,103,1080075,,,2025-06-16,合併による解散等,4010403015318,令和７年６月１日東京都港区港南三丁目５番１０号合同会社こうき（4010403015318）に合併し解散,2016-04-22,1,,,,,リングオブエヌワイ,0
587,3010403026159,登記記録の閉鎖等,0,2025-07-07,2025-06-12,合同会社美しい村づくりプロジェクト,,合同会社,東京都,千代田区,神田美土代町３－４,,13,101,1010053,,,2025-06-12,清算の結了等,,,2021-09-22,1,,,,,ウツクシイムラヅクリプロジェクト,0
598,3011001104109,登記記録の閉鎖等,0,2025-07-07,2025-06-06,ネクスタップ株式会社,,株式会社,東京都,渋谷区,渋谷３丁目６番２号,,13,113,1500002,,,2025-06-06,清算の結了等,,,2015-10-05,1,,,,,ネクスタップ,0
599,3011001113951,登記記録の閉鎖等,0,2025-07-07,2025-07-01,マイケル株式会社,,株式会社,東京都,中野区,本町１丁目３２番２号,,13,114,1640012,,,2025-07-01,合併による解散等,5011201013586,令和７年７月１日東京都中野区本町一丁目３２番２号株式会社イード（5011201013586）に合併し解散,2016-12-08,1,,,,,マイケル,0
607,3011103013587,登記記録の閉鎖等,0,2025-07-07,2025-06-11,合同会社ＫＩＲＡ,,合同会社,東京都,新宿区,歌舞伎町２丁目２９番１号第３ウイザードセブンビル５階,,13,104,1600021,,,2025-06-11,清算の結了等,,,2023-10-16,1,,,,,キラ,0
648,3030001148295,登記記録の閉鎖等,0,2025-07-07,2025-06-27,ＩＰＭジャパン株式会社,,株式会社,埼玉県,さいたま市北区,日進町２丁目７３６番１,,11,102,3310823,,,2025-06-27,合併による解散等,6010601027253,令和７年６月２７日さいたま市北区日進町二丁目７３６番地１株式会社ピー・アイ・シー（6010601027253）に合併し解散,2022-05-23,1,,,,,アイピーエムジャパン,0
660,3040001080324,登記記録の閉鎖等,0,2025-07-07,2025-06-19,株式会社ホクデン,,株式会社,千葉県,長生郡白子町,南日当４１０番地２,,12,424,2994205,,,2025-06-19,清算の結了等,,,2015-10-05,1,,,,,ホクデン,0
661,3040001124089,登記記録の閉鎖等,0,2025-07-07,2025-06-19,株式会社ＳＥＥＤ,,株式会社,千葉県,習志野市,大久保２丁目１３番７号ウィングスター００１号室,,12,216,2750011,,,2025-06-19,清算の結了等,,,2022-07-08,1,,,,,シード,0
666,3040002075760,登記記録の閉鎖等,0,2025-07-07,2025-06-26,有限会社ロンロンロン,,有限会社,千葉県,市原市,君塚１丁目２５番地１３,,12,219,2900051,,,2025-06-26,清算の結了等,,,2015-10-05,1,,,,,ロンロンロン,0
667,3040002101021,登記記録の閉鎖等,0,2025-07-07,2025-06-26,有限会社平松工作所,,有限会社,千葉県,鴨川市,貝渚５９２番地の１４,,12,223,2960004,,,2025-06-26,清算の結了等,,,2015-10-05,1,,,,,,0
674,3060002008719,登記記録の閉鎖等,0,2025-07-07,2025-06-27,有限会社緑住設,,有限会社,栃木県,宇都宮市,緑５丁目１２番４号,,09,201,3210165,,,2025-06-27,清算の結了等,,,2015-10-05,1,,,,,ミドリジュウセツ,0
677,3070003003379,登記記録の閉鎖等,0,2025-07-07,2025-06-27,株式会社ロジックス,,株式会社,群馬県,渋川市,有馬８１６番地３三本杉Ｄ棟,,10,208,3770005,,,2025-06-27,清算の結了等,,,2019-02-06,1,,,,,ロジックス,0
709,3120102003200,登記記録の閉鎖等,0,2025-07-07,2025-06-27,司産業有限会社,,有限会社,大阪府,堺市堺区,北三国ヶ丘町４丁２番２３号,,27,141,5900021,,,2025-06-27,清算の結了等,,,2015-10-05,1,,,,,ツカササンギョウ,0
725,3140003019046,登記記録の閉鎖等,0,2025-07-07,2025-06-30,合同会社Ｍｏｉｂｏｘ,,合同会社,兵庫県,神戸市長田区,水笠通１丁目１－４２,,28,106,6530842,,,2025-06-30,清算の結了等,,,2023-05-02,1,,,,,モイボックス,0
731,3160001015763,登記記録の閉鎖等,0,2025-07-07,2025-06-30,中江鈑金塗装工業株式会社,,株式会社,滋賀県,野洲市,乙窪５９２番地の１,,25,210,5202435,,,2025-06-30,清算の結了等,,,2015-10-05,1,,,,,ナカエバンキントソウコウギョウ,0
732,3160003002735,登記記録の閉鎖等,0,2025-07-07,2025-06-30,合同会社ｅスポーツｅｘｐａｎｄ,,合同会社,滋賀県,彦根市,銀座町５番３号,,25,202,5220088,,,2025-06-30,清算の結了等,,,2022-11-11,1,,,,,イースポーツイクスパンド,0
734,3180001134157,登記記録の閉鎖等,0,2025-07-07,2025-07-03,株式会社ＳＯＹｂｅｅ,,株式会社,東京都,港区,高輪１丁目２７番３７－４６０４号,,13,103,1080074,,,2025-07-03,合併による解散等,7180001089827,令和７年６月３０日東京都千代田区二番町９番地３株式会社Ｐｒｉｎｃｅｓｓ　Ｈｉｍｅ　Ｓｕｉｔｅ（7180001089827）に合併し解散,2018-10-23,1,,,,,ソイビー,0
738,3180002064758,登記記録の閉鎖等,0,2025-07-07,2025-06-23,グランドトランスポート有限会社,,有限会社,愛知県,名古屋市港区,宝神５丁目２０２番地,,23,111,4550832,,,2025-06-23,清算の結了等,,,2015-10-05,1,,,,,グランドトランスポート,0
744,3180305007281,登記記録の閉鎖等,0,2025-07-07,2025-06-24,西三河貝類卸協同組合,,その他の設立登記法人,愛知県,西尾市,一色町小薮東実録９１番地１,,23,213,4440424,,,2025-06-24,清算の結了等,,,2015-10-05,1,,,,,ニシミカワカイルイオロシ,0
750,3200002007177,登記記録の閉鎖等,0,2025-07-07,2025-06-30,有限会社カーフレンドヤマモト,,有限会社,岐阜県,各務原市,蘇原大島町４丁目９番地の２,,21,213,5040847,,,2025-06-30,清算の結了等,,,2015-10-05,1,,,,,カーフレンドヤマモト,0
755,3230001006276,登記記録の閉鎖等,0,2025-07-07,2025-07-01,デジプラシステム株式会社,,株式会社,富山県,富山市,大泉中町３番１号,,16,201,9398095,,,2025-07-01,清算の結了等,,,2015-10-05,1,,,,,デジプラシステム,0
758,3240001004089,登記記録の閉鎖等,0,2025-07-07,2025-06-30,三共工業株式会社,,株式会社,広島県,広島市南区,出島２丁目１１番６０号,,34,103,7340013,,,2025-06-30,合併による解散等,6240001008640,令和７年６月３０日広島市南区出島二丁目１番４０号株式会社仁保製作所（6240001008640）に合併し解散,2015-10-05,1,,,,,サンキョウコウギョウ,0
779,3330001025398,登記記録の閉鎖等,0,2025-07-07,2025-06-25,株式会社マモル,,株式会社,熊本県,熊本市中央区,横手２丁目１２番５４号－１１,,43,101,8600046,,,2025-06-25,清算の結了等,,,2018-06-12,1,,,,,マモル,0
786,3340001024069,登記記録の閉鎖等,0,2025-07-07,2025-06-24,株式会社なのはな商店,,株式会社,鹿児島県,大島郡知名町,大字徳時１３９６番地１,,46,534,8919222,,,2025-06-24,清算の結了等,,,2021-09-07,1,,,,,ナノハナショウテン,0
793,3360003011559,登記記録の閉鎖等,0,2025-07-07,2025-06-24,Ｂｅｇｉｎ合同会社,,合同会社,沖縄県,那覇市,久茂地１丁目１番１号９階,,47,201,9000015,,,2025-06-24,清算の結了等,,,2021-11-15,1,,,,,ビギン,0
798,3380002033016,登記記録の閉鎖等,0,2025-07-07,2025-06-24,有限会社米販あいづ,,有限会社,福島県,会津若松市,町北町谷地８番地の５,,07,202,9650051,,,2025-06-24,清算の結了等,,,2015-10-05,1,,,,,ベイハンアイズ,0
815,3480001001599,登記記録の閉鎖等,0,2025-07-07,2025-06-20,株式会社中西,,株式会社,徳島県,徳島市,佐古一番町９番２号,,36,201,7700021,,,2025-06-20,清算の結了等,,,2015-10-05,1,,,,,ナカニシ,0
823,4010001139527,登記記録の閉鎖等,0,2025-07-07,2025-06-13,株式会社八重洲ゴルフスクール,,株式会社,東京都,中央区,日本橋３丁目３番１８号富士八重洲ビル,,13,102,1030027,,,2025-06-13,清算の結了等,,,2015-10-05,1,,,,,ヤエスゴルフスクール,0
825,4010001205452,登記記録の閉鎖等,0,2025-07-07,2025-06-27,メディカルマイスター株式会社,,株式会社,群馬県,高崎市,下横町１０番地６,,10,202,3700837,,,2025-06-27,清算の結了等,,,2019-11-20,1,,,,,メディカルマイスター,0
828,4010002052712,登記記録の閉鎖等,0,2025-07-07,2025-06-17,有限会社ケー・ケー・エス,,有限会社,東京都,新島村,本村１丁目３番３号,,13,363,1000402,,,2025-06-17,清算の結了等,,,2015-10-05,1,,,,,ケーケーエス,0
835,4010401174594,登記記録の閉鎖等,0,2025-07-07,2025-06-17,メイベルインターナショナル株式会社,,株式会社,東京都,港区,元麻布３丁目１番６号,,13,103,1060046,,,2025-06-17,清算の結了等,,,2023-05-24,1,,,,,メイベルインターナショナル,0
841,4010403031257,登記記録の閉鎖等,0,2025-07-07,2025-06-17,合同会社とは,,合同会社,東京都,港区,赤坂２丁目２１番４号,,13,103,1070052,,,2025-06-17,清算の結了等,,,2023-10-26,1,,,,,トハ,0
845,4010601009492,登記記録の閉鎖等,0,2025-07-07,2025-06-27,株式会社オザワ,,株式会社,東京都,墨田区,江東橋４丁目１１番４号,,13,107,1300022,,,2025-06-27,清算の結了等,,,2015-10-05,1,,,,,オザワ,0
852,4010901004706,登記記録の閉鎖等,0,2025-07-07,2025-07-03,株式会社サンシップ,,株式会社,東京都,世田谷区,下馬２丁目９番１５号,,13,112,1540002,,,2025-07-03,清算の結了等,,,2015-10-05,1,,,,,サンシップ,0
859,4011001069391,登記記録の閉鎖等,0,2025-07-07,2025-06-09,株式会社ＡＩＬ,,株式会社,東京都,渋谷区,初台１丁目４７番４号,,13,113,1510061,,,2025-06-09,清算の結了等,,,2015-10-05,1,,,,,エーアイエル,0
868,4011003008257,登記記録の閉鎖等,0,2025-07-07,2025-06-09,道蓮國際交易合同会社,,合同会社,東京都,目黒区,青葉台３丁目１８番１０号第一目黒橋ビルカーサ青葉台４０６号,,13,110,1530042,,,2025-06-09,清算の結了等,,,2017-11-24,1,,,,,ドウレンコクサイコウエキ,0
872,4011101070704,登記記録の閉鎖等,0,2025-07-07,2025-06-26,Ｒｅｍｕｎｅｒａ　Ｊｏｒｕｄａｎ株式会社,,株式会社,東京都,新宿区,新宿２丁目５番１０号,,13,104,1600022,,,2025-06-26,清算の結了等,,,2015-10-05,1,,,,,,0
877,4011201015369,登記記録の閉鎖等,0,2025-07-07,2025-07-03,株式会社グリーンネット・エンジニアリング,,株式会社,東京都,中野区,野方４丁目３９番９号,,13,114,1650027,,,2025-07-03,清算の結了等,,,2015-10-05,1,,,,,グリーンネットエンジニアリング,0
900,4021001044996,登記記録の閉鎖等,0,2025-07-07,2025-06-30,ＯＺＡエンジニアリング株式会社,,株式会社,神奈川県,藤沢市,大庭５０９８番地の１,,14,205,2510861,,,2025-06-30,清算の結了等,,,2015-10-05,1,,,,,オザエンジニアリング,0
916,4030002061447,登記記録の閉鎖等,0,2025-07-07,2025-06-30,有限会社白石商会,,有限会社,埼玉県,新座市,栄３丁目５番１３号,,11,230,3520014,,,2025-06-30,清算の結了等,,,2015-10-05,1,,,,,シライシショウカイ,0
934,4060001031844,登記記録の閉鎖等,0,2025-07-07,2025-06-30,エムエスウッド株式会社,,株式会社,栃木県,佐野市,植上町１６５３－４,,09,204,3270832,,,2025-06-30,清算の結了等,,,2019-08-16,1,,,,,エムエスウッド,0
936,4060002018221,登記記録の閉鎖等,0,2025-07-07,2025-06-27,有限会社福田精密,,有限会社,栃木県,芳賀郡益子町,大字七井８６番地,,09,342,3214106,,,2025-06-27,清算の結了等,,,2015-10-05,1,,,,,フクダセイミツ,0
946,4100001029413,登記記録の閉鎖等,0,2025-07-07,2025-07-01,株式会社エム・コア,,株式会社,長野県,茅野市,玉川９９５３番地１,,20,214,3910011,,,2025-07-01,清算の結了等,,,2016-06-07,1,,,,,エムコア,0
951,4100005001797,登記記録の閉鎖等,0,2025-07-07,2025-06-30,長野県労働者住宅生活協同組合,,その他の設立登記法人,長野県,長野市,県町５２３番地,,20,201,3810000,,,2025-06-30,清算の結了等,,,2015-10-05,1,,,,,ナガノケンロウドウシャジュウタク,0
987,4120902011814,登記記録の閉鎖等,0,2025-07-07,2025-06-30,有限会社フヨウ・ジヤパン,,有限会社,大阪府,大阪市北区,中津１丁目１６番２３号,,27,127,5310071,,,2025-06-30,清算の結了等,,,2015-10-05,1,,,,,,0
991,4130001030599,登記記録の閉鎖等,0,2025-07-07,2025-07-01,松村工芸株式会社,,株式会社,京都府,乙訓郡大山崎町,字円明寺小字若宮前１０番地の３８,,26,303,6180091,,,2025-07-01,清算の結了等,,,2015-10-05,1,,,,,マツムラコウゲイ,0
1006,4170002006454,登記記録の閉鎖等,0,2025-07-07,2025-07-01,小椋漆工有限会社,,有限会社,和歌山県,海南市,黒江６１０番地,,30,202,6420011,,,2025-07-01,清算の結了等,,,2015-10-05,1,,,,,オグラシッコウ,0
1008,4170005006526,登記記録の閉鎖等,0,2025-07-07,2025-07-02,特定非営利活動法人ひだまりの和,,その他の設立登記法人,和歌山県,有田郡有田川町,大字金屋７番地,,30,366,6430152,,,2025-07-02,清算の結了等,,,2016-08-31,1,,,,,ヒダマリノワ,0
1009,4180001146614,登記記録の閉鎖等,0,2025-07-07,2025-06-23,株式会社ワイ・ジャパン,,株式会社,愛知県,瀬戸市,西本地町２丁目２７７番地の１,,23,204,4890971,,,2025-06-23,清算の結了等,,,2021-06-18,1,,,,,ワイジャパン,0
1017,4180305005160,登記記録の閉鎖等,0,2025-07-07,2025-06-26,石橋グループ事業協同組合,,その他の設立登記法人,愛知県,碧南市,山神町２丁目７２番地,,23,209,4470869,,,2025-06-26,清算の結了等,,,2015-10-05,1,,,,,イシバシグループジギョウ,0
1019,4190002006700,登記記録の閉鎖等,0,2025-07-07,2025-06-27,有限会社中條米穀店,,有限会社,三重県,鈴鹿市,若松東２丁目１２番２３号,,24,207,5100225,,,2025-06-27,清算の結了等,,,2015-10-05,1,,,,,チュウジョウベイコクテン,0
1021,4200001001394,登記記録の閉鎖等,0,2025-07-07,2025-06-30,岐阜電材株式会社,,株式会社,岐阜県,岐阜市,新興町５番地の３,,21,201,5008375,,,2025-06-30,合併による解散等,9100001001516,令和７年６月２１日長野市三輪荒屋１１５４番地昭和電機産業株式会社（9100001001516）に合併し解散,2015-10-05,1,,,,,ギフデンザイ,0
1030,4220005003105,登記記録の閉鎖等,0,2025-07-07,2025-07-01,医療法人社団礼志久会,,その他の設立登記法人,石川県,金沢市,此花町３番２号ライブ１ビル１階,,17,201,9200852,,,2025-07-01,清算の結了等,,,2015-10-05,1,,,,,レイシクカイ,0
1036,4240002046708,登記記録の閉鎖等,0,2025-07-07,2025-06-27,央間建設有限会社,,有限会社,広島県,府中市,久佐町５０６番地の１,,34,208,7293222,,,2025-06-27,清算の結了等,,,2015-10-05,1,,,,,ナカマケンセツ,0
1038,4250001008740,登記記録の閉鎖等,0,2025-07-07,2025-06-27,株式会社河村理助商店,,株式会社,山口県,周南市,大字久米２８１番地の１,,35,215,7450801,,,2025-06-27,清算の結了等,,,2015-10-05,1,,,,,カワムラリスケショウテン,0
1040,4250002019563,登記記録の閉鎖等,0,2025-07-07,2025-06-30,有限会社セイホウ,,有限会社,山口県,岩国市,桂町１丁目２番２２－３号,,35,208,7400013,,,2025-06-30,清算の結了等,,,2015-10-05,1,,,,,セイホウ,0
1049,4290005004419,登記記録の閉鎖等,0,2025-07-07,2025-07-04,医療法人はらだ形成外科皮ふクリニック,,その他の設立登記法人,福岡県,福岡市博多区,住吉５丁目２５番８号,,40,132,8120018,,,2025-07-04,清算の結了等,,,2015-10-05,1,,,,,ハラダケイセイゲカヒフクリニック,0
1051,4290801026772,登記記録の閉鎖等,0,2025-07-07,2025-06-30,株式会社オンザアース,,株式会社,福岡県,遠賀郡遠賀町,松の本２丁目１２番１号,,40,384,8114305,,,2025-06-30,清算の結了等,,,2020-09-04,1,,,,,オンザアース,0
1059,4310002004146,登記記録の閉鎖等,0,2025-07-07,2025-06-30,有限会社西電機工業所,,有限会社,長崎県,長崎市,弁天町１７番１２号,,42,201,8528002,,,2025-06-30,清算の結了等,,,2015-10-05,1,,,,,ニシデンキコウギョウショ,0
1083,4390001011549,登記記録の閉鎖等,0,2025-07-07,2025-06-24,株式会社栄信,,株式会社,山形県,米沢市,大字川井２８６５番地の１２,,06,202,9920117,,,2025-06-24,清算の結了等,,,2015-10-05,1,,,,,エイシン,0
1086,4410001003741,登記記録の閉鎖等,0,2025-07-07,2025-07-01,株式会社太陽防災工業,,株式会社,秋田県,秋田市,新屋松美ガ丘北町１６番２３号,,05,201,0101618,,,2025-07-01,清算の結了等,,,2015-10-05,1,,,,,タイヨウボウサイコウギョウ,0
1089,4430001083278,登記記録の閉鎖等,0,2025-07-07,2025-07-04,株式会社ＢＡＳＥ,,株式会社,北海道,札幌市西区,西野六条１丁目５番８号,,01,107,0630036,,,2025-07-04,清算の結了等,,,2021-01-27,1,,,,,ベース,0
1092,4440001005355,登記記録の閉鎖等,0,2025-07-07,2025-07-02,株式会社竹原工務所,,株式会社,北海道,函館市,千歳町２７番１１号,,01,202,0400033,,,2025-07-02,清算の結了等,,,2015-10-05,1,,,,,タケハラコウムショ,0
1093,4440001006915,登記記録の閉鎖等,0,2025-07-07,2025-06-05,株式会社理容のディスカウント函館,,株式会社,北海道,函館市,昭和１丁目２９番６号,,01,202,0410812,,,2025-06-05,清算の結了等,,,2015-10-05,1,,,,,リヨウノディスカウントハコダテ,0
1094,4450001001840,登記記録の閉鎖等,0,2025-07-07,2025-06-25,株式会社タケトー,,株式会社,北海道,旭川市,豊岡四条５丁目３番３号,,01,204,0788234,,,2025-06-25,清算の結了等,,,2023-06-12,1,,,,,,0
1100,4490001008444,登記記録の閉鎖等,0,2025-07-07,2025-07-01,株式会社源三,,株式会社,高知県,高知市,朝倉己２２９番地１０,,39,201,7808066,,,2025-07-01,合併による解散等,5490001000838,令和７年７月１日高知市本宮町１０５番地２３構営技術コンサルタント株式会社（5490001000838）に合併し解散,2016-08-29,1,,,,,ゲンゾウ,0
1108,5010001216283,登記記録の閉鎖等,0,2025-07-07,2025-06-13,株式会社Ｖ－Ｌｉｎｋ　Ｂｕｓｉｎｅｓｓ　Ｃｏｎｓｕｌｔｉｎｇ,,株式会社,東京都,千代田区,神田富山町７番４０９号,,13,101,1010043,,,2025-06-13,清算の結了等,,,2021-03-02,1,,,,,ブリンクビジネスコンサルティング,0
1113,5010002038751,登記記録の閉鎖等,0,2025-07-07,2025-06-19,有限会社溝口メンタルセラピストオフィス,,有限会社,東京都,千代田区,麹町３丁目５番地２,00061117,13,101,1020083,,,2025-06-19,清算の結了等,,,2015-10-05,1,,,,,ミゾグチメンタルセラピストオフィス,0
1115,5010101000975,登記記録の閉鎖等,0,2025-07-07,2025-07-01,株式会社協進住宅,,株式会社,東京都,八王子市,千人町４丁目３番３号,,13,201,1930835,,,2025-07-01,合併による解散等,6010101000974,令和７年７月１日東京都八王子市千人町二丁目１８番５号株式会社協進建設（6010101000974）に合併し解散,2015-10-05,1,,,,,キョウシンジュウタク,0
1122,5010401162697,登記記録の閉鎖等,0,2025-07-07,2025-06-11,株式会社ＨＲ　Ａｓｓｅｓｓｍｅｎｔ,,株式会社,東京都,新宿区,西新宿３丁目３番１３号６階,,13,104,1600023,,,2025-06-11,清算の結了等,,,2021-09-15,1,,,,,エイチアールアセスメント,0
1127,5010501047360,登記記録の閉鎖等,0,2025-07-07,2025-07-01,株式会社レスパス,,株式会社,東京都,千代田区,神田和泉町１番地１２の１６,,13,101,1010024,,,2025-07-01,合併による解散等,2010701007142,令和７年７月１日東京都千代田区神田和泉町１番地１２の１６株式会社トリリオン（2010701007142）に合併し解散,2021-05-25,1,,,,,レスパス,0
1145,5011001164753,登記記録の閉鎖等,0,2025-07-07,2025-06-09,株式会社半月社,,株式会社,東京都,渋谷区,本町１丁目２０番２号,,13,113,1510071,,,2025-06-09,清算の結了等,,,2024-09-24,1,,,,,ハンゲツシャ,0
1156,5011101087796,登記記録の閉鎖等,0,2025-07-07,2025-07-01,Ｗリビング株式会社,,株式会社,長野県,飯山市,大字蓮９９０番地１,,20,213,3892256,,,2025-07-01,清算の結了等,,,2019-05-27,1,,,,,ダブルリビング,0
1158,5011201021770,登記記録の閉鎖等,0,2025-07-07,2025-06-27,株式会社ｗａｇａｓｈｉｂｏｙｓ,,株式会社,群馬県,前橋市,野中町１５０－６レジデンス前橋８０３,,10,201,3792166,,,2025-06-27,清算の結了等,,,2019-11-07,1,,,,,ワガシボーイズ,0
1161,5011402003758,登記記録の閉鎖等,0,2025-07-07,2025-07-01,有限会社栄屋,,有限会社,東京都,板橋区,中板橋１８番８号,,13,119,1730016,,,2025-07-01,清算の結了等,,,2015-10-05,1,,,,,サカエヤ,0
1199,5040001107629,登記記録の閉鎖等,0,2025-07-07,2025-06-19,株式会社藤徳,,株式会社,千葉県,市川市,福栄２丁目２番５号ラフレシア２０１号,,12,203,2720137,,,2025-06-19,清算の結了等,,,2019-01-15,1,,,,,フジトク,0
1212,5060002017032,登記記録の閉鎖等,0,2025-07-07,2025-06-27,有限会社ウエノ・タイヤサービス,,有限会社,栃木県,真岡市,下籠谷４３０５番地４,,09,209,3214415,,,2025-06-27,清算の結了等,,,2015-10-05,1,,,,,ウエノタイヤサービス,0
1227,5120001150397,登記記録の閉鎖等,0,2025-07-07,2025-06-26,ハイメディックジャパン株式会社,,株式会社,大阪府,枚方市,招提元町３丁目３５番５号,,27,210,5731133,,,2025-06-26,清算の結了等,,,2015-10-05,1,,,,,,0
1254,5120103003560,登記記録の閉鎖等,0,2025-07-07,2025-06-30,ＩＳＡＭＩ　ＨＯＬＤＩＮＧＳ合同会社,,合同会社,大阪府,阪南市,箱の浦６９番地の９,,27,232,5990235,,,2025-06-30,清算の結了等,,,2019-12-27,1,,,,,イサミホールディングス,0
1292,5180305009433,登記記録の閉鎖等,0,2025-07-07,2025-06-24,みかわ税理士法人,,その他の設立登記法人,愛知県,豊橋市,前田南町２丁目８番地６,,23,201,4400851,,,2025-06-24,清算の結了等,,,2023-01-16,1,,,,,ミカワ,0
1299,5210005004045,登記記録の閉鎖等,0,2025-07-07,2025-07-01,霞教会,,その他の設立登記法人,福井県,坂井市,丸岡町霞町１丁目４５番地,,18,210,9100231,,,2025-07-01,清算の結了等,,,2015-10-05,1,,,,,カスミキョウカイ,0
1311,5270002009223,登記記録の閉鎖等,0,2025-07-07,2025-07-02,西部アスコン有限会社,,有限会社,鳥取県,米子市,古豊千３７２番地,,31,202,6893537,,,2025-07-02,清算の結了等,,,2015-10-05,1,,,,,セイブアスコン,0
1312,5280001006294,登記記録の閉鎖等,0,2025-07-07,2025-07-01,株式会社松江住設,,株式会社,島根県,松江市,東出雲町出雲郷８４番地６,,32,201,6990108,,,2025-07-01,合併による解散等,6280001003381,令和７年７月１日島根県出雲市長浜町１３７２番８福間商事株式会社（6280001003381）に合併し解散,2015-10-05,1,,,,,マツエジュウセツ,0
1335,5330002001198,登記記録の閉鎖等,0,2025-07-07,2025-07-01,有限会社うなとく,,有限会社,熊本県,熊本市南区,近見９丁目１番９号,,43,104,8614101,,,2025-07-01,合併による解散等,3330002019770,令和７年７月１日熊本県上益城郡嘉島町大字鯰２０２５番地１株式会社とくなが（3330002019770）に合併し解散,2015-10-05,1,,,,,ウナトク,0
1347,5410002010612,登記記録の閉鎖等,0,2025-07-07,2025-06-30,有限会社友和農業資材,,有限会社,秋田県,能代市,竹生字笹ノ台４０３番地,,05,202,0160016,,,2025-06-30,清算の結了等,,,2015-10-05,1,,,,,ユウワノウギョウシザイ,0
1351,5430001046639,登記記録の閉鎖等,0,2025-07-07,2025-06-25,空知管理サービス株式会社,,株式会社,北海道,岩見沢市,美園六条７丁目４番４号,,01,210,0680816,,,2025-06-25,清算の結了等,,,2015-10-05,1,,,,,ソラチカンリサービス,0
1358,5480002010300,登記記録の閉鎖等,0,2025-07-07,2025-07-01,有限会社潮企画,,有限会社,徳島県,鳴門市,鳴門町三ツ石字江尻山１０３番地,,36,202,7720052,,,2025-07-01,清算の結了等,,,2015-10-05,1,,,,,ウシオキカク,0
1360,5490001005449,登記記録の閉鎖等,0,2025-07-07,2025-07-01,サンヨー製紙株式会社,,株式会社,高知県,土佐市,高岡町乙３１９８番地,,39,205,7811102,,,2025-07-01,合併による解散等,3490001005450,令和７年７月１日高知県土佐市高岡町丙４４３番地１三和製紙株式会社（3490001005450）に合併し解散,2015-10-05,1,,,,,サンヨーセイシ,0
1376,6010002050838,登記記録の閉鎖等,0,2025-07-07,2025-06-20,有限会社ユアスペース,,有限会社,東京都,千代田区,神田神保町１丁目２８番９－５０１号,,13,101,1010051,,,2025-06-20,清算の結了等,,,2015-10-05,1,,,,,ユアスペース,0
1377,6010003032034,登記記録の閉鎖等,0,2025-07-07,2025-06-17,合同会社オーケーチャタン,,合同会社,東京都,千代田区,丸の内１丁目４番１号東京共同会計事務所内,,13,101,1000005,,,2025-06-17,清算の結了等,,,2020-04-06,1,,,,,オーケーチャタン,0
1385,6010401177166,登記記録の閉鎖等,0,2025-07-07,2025-06-16,株式会社レサンク,,株式会社,東京都,港区,芝大門１丁目５番１号ワタベビル２階,,13,103,1050012,,,2025-06-16,清算の結了等,,,2023-09-14,1,,,,,レサンク,0
1392,6010402036040,登記記録の閉鎖等,0,2025-07-07,2025-06-30,有限会社マーズアンドマークス,,有限会社,神奈川県,茅ヶ崎市,小和田１丁目９番３５号,,14,207,2530012,,,2025-06-30,清算の結了等,,,2015-10-05,1,,,,,マーズアンドマークス,0
1396,6010403029803,登記記録の閉鎖等,0,2025-07-07,2025-06-16,ビーエムホールディングス合同会社,,合同会社,東京都,港区,六本木７丁目１７番１０－４１８号,,13,103,1060032,,,2025-06-16,清算の結了等,,,2023-03-28,1,,,,,ビーエムホールディングス,0
1412,6010802002971,登記記録の閉鎖等,0,2025-07-07,2025-06-27,有限会社オールウェイズアズマ,,有限会社,東京都,品川区,西大井３丁目７番１１号,,13,109,1400015,,,2025-06-27,清算の結了等,,,2015-10-05,1,,,,,オールウェイズアズマ,0
1423,6011101031167,登記記録の閉鎖等,0,2025-07-07,2025-06-25,株式会社ｉｃｏｉ,,株式会社,東京都,新宿区,新宿１丁目２９番４号,,13,104,1600022,,,2025-06-25,清算の結了等,,,2015-10-05,1,,,,,イコイ,0
1429,6011201019392,登記記録の閉鎖等,0,2025-07-07,2025-07-01,株式会社ＫＡＩ,,株式会社,東京都,中野区,弥生町２丁目４４番３号,,13,114,1640013,,,2025-07-01,合併による解散等,8011201009490,令和７年７月１日東京都中野区中野二丁目２３番１号株式会社インティ（8011201009490）に合併し解散,2016-09-21,1,,,,,カイ,0
1454,6013302004298,登記記録の閉鎖等,0,2025-07-07,2025-06-25,有限会社ココホームズ,,有限会社,東京都,豊島区,長崎１丁目３番３号,,13,116,1710051,,,2025-06-25,清算の結了等,,,2015-10-05,1,,,,,ココホームズ,0
1456,6020001092260,登記記録の閉鎖等,0,2025-07-07,2025-06-11,株式会社フジプランニング,,株式会社,神奈川県,横浜市中区,不老町１丁目２番地７,,14,104,2310032,,,2025-06-11,清算の結了等,,,2015-10-05,1,,,,,フジプランニング,0
1496,6040001033221,登記記録の閉鎖等,0,2025-07-07,2025-06-19,株式会社オアシス,,株式会社,千葉県,市川市,鬼高３丁目４番１７号,,12,203,2720015,,,2025-06-19,清算の結了等,,,2015-10-05,1,,,,,オアシス,0
1507,6040003018435,登記記録の閉鎖等,0,2025-07-07,2025-06-26,合同会社ＴＴ企画,,合同会社,千葉県,千葉市花見川区,幕張町６丁目９２番地５,,12,102,2620032,,,2025-06-26,清算の結了等,,,2021-09-06,1,,,,,ティーティーキカク,0
1514,6060001016455,登記記録の閉鎖等,0,2025-07-07,2025-06-30,大正商事株式会社,,株式会社,栃木県,栃木市,大平町横堀６５７番地１,,09,203,3294411,,,2025-06-30,清算の結了等,,,2015-10-05,1,,,,,タイショウショウジ,0
1520,6080002015090,登記記録の閉鎖等,0,2025-07-07,2025-06-26,大石電機有限会社,,有限会社,静岡県,牧之原市,静波４４０番地,,22,226,4210422,,,2025-06-26,清算の結了等,,,2015-10-05,1,,,,,オオイシデンキ,0
1527,6100002023082,登記記録の閉鎖等,0,2025-07-07,2025-07-01,有限会社ＧＥＮ　ＣＯＲＰＯＲＡＴＩＯＮ,,有限会社,長野県,松本市,大字笹賀５６５２番地８３,,20,202,3990033,,,2025-07-01,合併による解散等,2100001012817,令和７年７月１日長野県松本市大字笹賀５６５２番地８３エンジニアリングシステム株式会社（2100001012817）に合併し解散,2015-10-05,1,,,,,ゲンコーポレーション,0
1544,6120005022559,登記記録の閉鎖等,0,2025-07-07,2025-07-03,アリスト十三管理組合法人,,その他の設立登記法人,大阪府,大阪市淀川区,十三東５丁目１番５４アリスト十三管理事務室,,27,123,5320023,,,2025-07-03,清算の結了等,,,2021-11-16,1,,,,,アリストジュウソウ,0
1545,6120101071022,登記記録の閉鎖等,0,2025-07-07,2025-07-02,株式会社常磐技研,,株式会社,大阪府,堺市北区,長曽根町１２３２番地,,27,146,5918025,,,2025-07-02,合併による解散等,1120001143405,令和７年６月３０日大阪市西淀川区歌島一丁目２４番２２号株式会社コーケンエンジニアリング（1120001143405）に合併し解散,2025-02-10,1,,,,,トキワギケン,0
1561,6140001045735,登記記録の閉鎖等,0,2025-07-07,2025-07-01,株式会社濱名建設,00039612,株式会社,兵庫県,加古郡播磨町,宮西２丁目１番１５号,,28,382,6750145,,,2025-07-01,清算の結了等,,,2015-10-05,1,,,,,ハマナケンセツ,0
1574,6180001079770,登記記録の閉鎖等,0,2025-07-07,2025-06-23,日産チェリー瀬戸販売株式会社,,株式会社,愛知県,瀬戸市,川西町２丁目８番地,,23,204,4890926,,,2025-06-23,清算の結了等,,,2015-10-05,1,,,,,ニッサンチェリーセトハンバイ,0
1577,6180001146612,登記記録の閉鎖等,0,2025-07-07,2025-06-23,株式会社ワイ・ホールディングス,,株式会社,愛知県,瀬戸市,西本地町２丁目２７７番地の１,,23,204,4890971,,,2025-06-23,清算の結了等,,,2021-06-22,1,,,,,ワイホールディングス,0
1591,6200002004700,登記記録の閉鎖等,0,2025-07-07,2025-07-01,有限会社雅,,有限会社,岐阜県,岐阜市,加納清水町３丁目８番地１,,21,201,5008429,,,2025-07-01,清算の結了等,,,2015-10-05,1,,,,,ミヤビ,0
1607,6260002032729,登記記録の閉鎖等,0,2025-07-07,2025-06-20,有限会社光陽社,,有限会社,岡山県,玉野市,玉６丁目２３番１５号,,33,204,7060012,,,2025-06-20,清算の結了等,,,2015-10-05,1,,,,,コウヨウシャ,0
1613,6280002010451,登記記録の閉鎖等,0,2025-07-07,2025-07-02,有限会社鹿足住設,,有限会社,島根県,鹿足郡津和野町,高峯４４４番地,,32,501,6995614,,,2025-07-02,清算の結了等,,,2015-10-05,1,,,,,カノアシジュウセツ,0
1632,6330003010404,登記記録の閉鎖等,0,2025-07-07,2025-06-24,合同会社ｃｏｃｏｋａｒａ,,合同会社,熊本県,熊本市中央区,桜町１番２５号未来会議室,,43,101,8600805,,,2025-06-24,清算の結了等,,,2024-06-06,1,,,,,ココカラ,0
1648,6430001049681,登記記録の閉鎖等,0,2025-07-07,2025-06-25,株式会社イワスズ,,株式会社,北海道,小樽市,稲穂１丁目１２番１号マリンシティ１０１号,,01,203,0470032,,,2025-06-25,清算の結了等,,,2015-10-05,1,,,,,イワスズ,0
1654,6460101004261,登記記録の閉鎖等,0,2025-07-07,2025-07-01,株式会社さわだ猛機販,,株式会社,北海道,帯広市,西十九条南３丁目４１番４号,,01,207,0802469,,,2025-07-01,清算の結了等,,,2015-10-05,1,,,,,サワダタケシキハン,0
1657,6470002012098,登記記録の閉鎖等,0,2025-07-07,2025-06-30,有限会社ライフサポート,,有限会社,香川県,綾歌郡宇多津町,浜九番丁１４７番地３,,37,386,7690209,,,2025-06-30,清算の結了等,,,2015-10-05,1,,,,,ライフサポート,0
1658,6470002019250,登記記録の閉鎖等,0,2025-07-07,2025-06-30,有限会社アトリウムゆふ,,有限会社,香川県,小豆郡小豆島町,安田甲１４４番地１９２,,37,324,7614411,,,2025-06-30,清算の結了等,,,2015-10-05,1,,,,,アトリウムユフ,0
1661,6490001005381,登記記録の閉鎖等,0,2025-07-07,2025-07-01,株式会社三彩,,株式会社,高知県,土佐市,北地４５１７番地２,,39,205,7811111,,,2025-07-01,合併による解散等,8490001005446,令和７年７月１日高知県土佐市北地２４２４番地７三昭紙業株式会社（8490001005446）に合併し解散,2015-10-05,1,,,,,サンサイ,0
1669,7010001191112,登記記録の閉鎖等,0,2025-07-07,2025-06-19,株式会社Ｓｔａｎ’ｓ　Ｆｉｔｎｅｓｓ,,株式会社,東京都,中央区,銀座１丁目１２番４号ＶＡＮＱＵＩＳＨ１１階,,13,102,1040061,,,2025-06-19,清算の結了等,,,2018-04-13,1,,,,,スタンズフィットネス,0
1681,7010003038451,登記記録の閉鎖等,0,2025-07-07,2025-06-17,合同会社ティーダ,,合同会社,東京都,千代田区,丸の内１丁目４番１号東京共同会計事務所内,,13,101,1000005,,,2025-06-17,清算の結了等,,,2022-08-22,1,,,,,ティーダ,0
1688,7010401027980,登記記録の閉鎖等,0,2025-07-07,2025-06-16,株式会社マスヤスズキ,,株式会社,東京都,港区,白金１丁目１５番２１号,,13,103,1080072,,,2025-06-16,清算の結了等,,,2015-10-05,1,,,,,マスヤスズキ,0
1689,7010401076508,登記記録の閉鎖等,0,2025-07-07,2025-06-09,ヒルアンドノウルトンジャパン株式会社,,株式会社,東京都,渋谷区,恵比寿４丁目２０番３号恵比寿ガーデンプレイスタワー２５階,,13,113,1500013,,,2025-06-09,清算の結了等,,,2015-10-05,1,,,,,ヒルアンドノウルトンジャパン,0
1701,7010405014414,登記記録の閉鎖等,0,2025-07-07,2025-06-16,一般社団法人ＳＨ８２,,その他の設立登記法人,東京都,港区,虎ノ門３丁目２２番１０－２０１号,,13,103,1050001,,,2025-06-16,清算の結了等,,,2015-12-15,1,,,,,エスエイチエイトツー,0
1717,7011001110235,登記記録の閉鎖等,0,2025-07-07,2025-06-09,株式会社エプルガフードパートナーズ,,株式会社,東京都,渋谷区,恵比寿３丁目１番１号,,13,113,1500013,,,2025-06-09,清算の結了等,,,2016-04-12,1,,,,,,0
1735,7011503003861,登記記録の閉鎖等,0,2025-07-07,2025-06-30,合同会社Ｔｒｅｅ　Ｔｈｒｅｅ,,合同会社,東京都,荒川区,南千住１丁目１番８号２０１,,13,118,1160003,,,2025-06-30,清算の結了等,,,2019-01-24,1,,,,,ツリースリー,0
1736,7011801004140,登記記録の閉鎖等,0,2025-07-07,2025-07-01,藤越不動産株式会社,,株式会社,東京都,葛飾区,亀有５丁目１８番１１号,,13,122,1250061,,,2025-07-01,清算の結了等,,,2015-10-05,1,,,,,フジコシフドウサン,0
1737,7011802026431,登記記録の閉鎖等,0,2025-07-07,2025-06-30,有限会社ワイズ製作所,,有限会社,東京都,葛飾区,白鳥４丁目４番３号,,13,122,1250063,,,2025-06-30,清算の結了等,,,2015-10-05,1,,,,,,0
1766,7040001054200,登記記録の閉鎖等,0,2025-07-07,2025-06-20,株式会社高石工務店,00019215,株式会社,千葉県,市原市,岩崎１丁目１４番地１４,,12,219,2900047,,,2025-06-20,清算の結了等,,,2015-10-05,1,,,,,タカイシコウムテン,0
1767,7040001056782,登記記録の閉鎖等,0,2025-07-07,2025-06-19,株式会社龍宮,,株式会社,千葉県,成田市,飯田町１７７番地３,,12,211,2860041,,,2025-06-19,清算の結了等,,,2015-10-05,1,,,,,リュウグウ,0
1782,7070002007724,登記記録の閉鎖等,0,2025-07-07,2025-06-27,有限会社理髪屋,,有限会社,群馬県,前橋市,石倉町３丁目４番１号,,10,201,3710841,,,2025-06-27,清算の結了等,,,2015-10-05,1,,,,,リハツヤ,0
1784,7080001013251,登記記録の閉鎖等,0,2025-07-07,2025-06-26,平松電機株式会社,,株式会社,静岡県,島田市,道悦島１４１２番地の５,,22,209,4270014,,,2025-06-26,清算の結了等,,,2015-10-05,1,,,,,ヒラマツデンキ,0
1786,7080002015684,登記記録の閉鎖等,0,2025-07-07,2025-06-26,有限会社大住コンタクト,,有限会社,静岡県,焼津市,大住１０６５番地,,22,212,4250072,,,2025-06-26,清算の結了等,,,2015-10-05,1,,,,,オオズミコンタクト,0
1790,7100001011979,登記記録の閉鎖等,0,2025-07-07,2025-07-02,株式会社ホクサン,,株式会社,長野県,飯山市,大字寿３２４番地１０,,20,213,3892418,,,2025-07-02,清算の結了等,,,2015-10-05,1,,,,,ホクサン,0
1793,7100002022257,登記記録の閉鎖等,0,2025-07-07,2025-07-02,有限会社西澤設備,,有限会社,長野県,松本市,梓川倭１２５９番地２,,20,202,3901701,,,2025-07-02,清算の結了等,,,2015-10-05,1,,,,,ニシザワセツビ,0
1818,7120002079741,登記記録の閉鎖等,0,2025-07-07,2025-06-26,有限会社三和住宅,,有限会社,大阪府,門真市,島頭４丁目２４番１０号,,27,223,5710016,,,2025-06-26,清算の結了等,,,2015-10-05,1,,,,,,0
1819,7120003012577,登記記録の閉鎖等,0,2025-07-07,2025-06-30,合同会社ユニバーサルプロパティーサービス,,合同会社,大阪府,大阪市住吉区,我孫子５丁目１３番１１号,,27,120,5580014,,,2025-06-30,清算の結了等,,,2017-03-14,1,,,,,ユニバーサルプロパティーサービス,0
1864,7180001166122,登記記録の閉鎖等,0,2025-07-07,2025-06-18,日産陶器株式会社,,株式会社,愛知県,瀬戸市,西松山町２丁目２５２番地,,23,204,4890912,,,2025-06-18,清算の結了等,,,2025-04-11,1,,,,,ニッサントウキ,0
1867,7180303002082,登記記録の閉鎖等,0,2025-07-07,2025-06-25,合資会社佐野時計店,,合資会社,愛知県,高浜市,八幡町６丁目６番地４,,23,227,4441302,,,2025-06-25,清算の結了等,,,2015-10-05,1,,,,,サノトケイテン,0
1884,7250002000272,登記記録の閉鎖等,0,2025-07-07,2025-07-01,有限会社エス・アンド・アイ,,有限会社,山口県,山口市,宮野上１８００番地１,,35,203,7530001,,,2025-07-01,清算の結了等,,,2015-10-05,1,,,,,エスアンドアイ,0
1887,7260002034146,登記記録の閉鎖等,0,2025-07-07,2025-06-20,有限会社瀬戸技工,,有限会社,岡山県,真庭市,落合垂水１１１６番地１,,33,214,7193144,,,2025-06-20,清算の結了等,,,2015-10-05,1,,,,,セトギコウ,0
1890,7280002001128,登記記録の閉鎖等,0,2025-07-07,2025-06-30,有限会社商工デザイン研究所,,有限会社,島根県,松江市,矢田町２５０番地８９,,32,201,6900021,,,2025-06-30,合併による解散等,7280001000576,令和７年６月３０日島根県松江市矢田町２５０番２株式会社パッケージ中澤（7280001000576）に合併し解散,2015-10-05,1,,,,,,0
1894,7290001055702,登記記録の閉鎖等,0,2025-07-07,2025-06-20,株式会社Ｆａｓｔｏ,,株式会社,福岡県,太宰府市,御笠１丁目４番１１号,,40,221,8180110,,,2025-06-20,清算の結了等,,,2015-10-05,1,,,,,,0
1899,7290805008509,登記記録の閉鎖等,0,2025-07-07,2025-07-01,医療法人うえだ内科クリニック,,その他の設立登記法人,福岡県,築上郡築上町,大字椎田９０３番地１,,40,647,8290301,,,2025-07-01,清算の結了等,,,2015-10-05,1,,,,,ウエダナイカクリニック,0
1902,7310005008653,登記記録の閉鎖等,0,2025-07-07,2025-06-30,一般社団法人長崎ペンギンの会,,その他の設立登記法人,長崎県,長崎市,坂本１丁目５番２号,,42,201,8528102,,,2025-06-30,清算の結了等,,,2022-12-28,1,,,,,ナガサキペンギンノカイ,0
1910,7360003011167,登記記録の閉鎖等,0,2025-07-07,2025-06-24,合同会社Ｄａｉｎａｎ工業,,合同会社,沖縄県,島尻郡八重瀬町,字伊覇２７４番地４Ｒａｙｇａｒｄｅｎ３０１号室,,47,362,9010405,,,2025-06-24,清算の結了等,,,2021-05-31,1,,,,,ダイナンコウギョウ,0
1920,7390005006170,登記記録の閉鎖等,0,2025-07-07,2025-06-23,医療法人消化器内科遠藤一平医院,,その他の設立登記法人,山形県,米沢市,中央４丁目７番２６号,,06,202,9920045,,,2025-06-23,清算の結了等,,,2015-10-05,1,,,,,ショウカキナイカエンドウカズヒライイン,0
1921,7410001001544,登記記録の閉鎖等,0,2025-07-07,2025-07-01,曽我住宅産業株式会社,,株式会社,秋田県,秋田市,楢山石塚町５番２４号,,05,201,0100033,,,2025-07-01,清算の結了等,,,2015-10-05,1,,,,,ソガジュウタクサンギョウ,0
1925,7420002005857,登記記録の閉鎖等,0,2025-07-07,2025-07-04,有限会社元一物流,,有限会社,北海道,石狩市,新港東２丁目２番地５,,01,235,0613243,,,2025-07-04,清算の結了等,,,2015-10-05,1,,,,,モトイチブツリュウ,0
1932,7462502000268,登記記録の閉鎖等,0,2025-07-07,2025-07-04,有限会社光野板金,,有限会社,北海道,標津郡中標津町,西十一条北１３丁目２番地,,01,692,0861131,,,2025-07-04,清算の結了等,,,2015-10-05,1,,,,,コウノバンキン,0
1937,7490001003698,登記記録の閉鎖等,0,2025-07-07,2025-07-01,入交クリエイト株式会社,,株式会社,高知県,高知市,仁井田４５６３番地１,,39,201,7810112,,,2025-07-01,合併による解散等,2490001000213,令和７年７月１日高知市中の島２番８９号入交トラストエナジー株式会社（2490001000213）に合併し解散,2015-10-05,1,,,,,イリマジリクリエイト,0
1951,8010003031785,登記記録の閉鎖等,0,2025-07-07,2025-06-18,合同会社ココタモ,,合同会社,福岡県,福岡市西区,姪浜５－２１－１１－４０１,,40,135,8190000,,,2025-06-18,清算の結了等,,,2020-03-05,1,,,,,,0
1973,8010601044742,登記記録の閉鎖等,0,2025-07-07,2025-06-17,ＣＬＥＡＮ　ＥＮＥＲＧＩＥＳ　ＲＥＳＯＵＲＣＥＳ株式会社,,株式会社,東京都,港区,東新橋１丁目５番２号汐留シティセンター８階リアルブルーソーラー内,,13,103,1050021,,,2025-06-17,清算の結了等,,,2015-10-05,1,,,,,クリーンエナジーズリソーシス,0
1983,8010902009345,登記記録の閉鎖等,0,2025-07-07,2025-07-01,有限会社高崎設備工業,,有限会社,東京都,世田谷区,代田３丁目３３番１０号,,13,112,1550033,,,2025-07-01,清算の結了等,,,2015-10-05,1,,,,,タカサキセツビコウギョウ,0
1994,8011101018749,登記記録の閉鎖等,0,2025-07-07,2025-06-09,株式会社ブラウズ東京,,株式会社,東京都,渋谷区,千駄ヶ谷５丁目２７番３号,,13,113,1510051,,,2025-06-09,清算の結了等,,,2015-10-05,1,,,,,ブラウズトウキョウ,0
2002,8011202002354,登記記録の閉鎖等,0,2025-07-07,2025-07-02,コロンビヤ靴有限会社,,有限会社,東京都,中野区,本町２丁目５０番１５号,,13,114,1640012,,,2025-07-02,清算の結了等,,,2015-10-05,1,,,,,コロンビヤクツ,0
2012,8012801016224,登記記録の閉鎖等,0,2025-07-07,2025-07-03,株式会社ＰＡＫＵＭＡ,,株式会社,東京都,八王子市,八日町３－１－１５１１,,13,201,1920071,,,2025-07-03,清算の結了等,,,2015-10-05,1,,,,,パクマ,0
2043,8040001042435,登記記録の閉鎖等,0,2025-07-07,2025-06-10,株式会社ケーマーク,,株式会社,千葉県,千葉市稲毛区,稲毛東２丁目３番１２号ぱれくれーるあいはらビル３０５号,,12,103,2630031,,,2025-06-10,清算の結了等,,,2015-10-05,1,,,,,ケーマーク,0
2055,8040002020745,登記記録の閉鎖等,0,2025-07-07,2025-06-19,有限会社内田製作所,,有限会社,千葉県,船橋市,南本町１番１４号,,12,204,2730004,,,2025-06-19,清算の結了等,,,2015-10-05,1,,,,,ウチダセイサクジョ,0
2059,8040002100051,登記記録の閉鎖等,0,2025-07-07,2025-06-18,有限会社高梨工業,00021108,有限会社,千葉県,南房総市,富浦町多田良１１１４番地５,,12,234,2992404,,,2025-06-18,清算の結了等,,,2015-10-05,1,,,,,タカナシコウギョウ,0
2065,8060002016106,登記記録の閉鎖等,0,2025-07-07,2025-06-27,有限会社栄屋製菓,,有限会社,栃木県,日光市,鬼怒川温泉大原１３９６番地１５,,09,206,3212522,,,2025-06-27,清算の結了等,,,2015-10-05,1,,,,,サカエヤセイカ,0
2067,8070001037077,登記記録の閉鎖等,0,2025-07-07,2025-06-27,株式会社アシスト,,株式会社,群馬県,伊勢崎市,本町１１番地３,,10,204,3720047,,,2025-06-27,清算の結了等,,,2020-08-04,1,,,,,,0
2069,8070002008102,登記記録の閉鎖等,0,2025-07-07,2025-06-30,有限会社ＳＹＫ,,有限会社,群馬県,前橋市,亀泉町７４６番地２,,10,201,3710004,,,2025-06-30,清算の結了等,,,2015-10-05,1,,,,,エスワイケー,0
2074,8080001021889,登記記録の閉鎖等,0,2025-07-07,2025-06-26,コーショウ株式会社,,株式会社,静岡県,静岡市駿河区,下川原１丁目６番６号,,22,102,4210113,,,2025-06-26,清算の結了等,,,2017-10-25,1,,,,,コーショウ,0
2075,8080001026194,登記記録の閉鎖等,0,2025-07-07,2025-06-26,清光土地住宅株式会社,,株式会社,静岡県,藤枝市,小石川町４丁目２番４１号,,22,214,4260033,,,2025-06-26,清算の結了等,,,2024-03-28,1,,,,,セイコウトチジュウタク,0
2084,8080402015283,登記記録の閉鎖等,0,2025-07-07,2025-06-30,有限会社友田実業,,有限会社,静岡県,浜松市浜名区,貴布祢７８番地の１,,22,139,4340038,,,2025-06-30,清算の結了等,,,2015-10-05,1,,,,,トモダジツギョウ,0
2097,8110002018195,登記記録の閉鎖等,0,2025-07-07,2025-06-20,とやの清算第三株式会社,,株式会社,新潟県,新潟市中央区,上所１丁目１番２４号Ｎビル４階とやの総合法律事務所内,,15,103,9500994,,,2025-06-20,清算の結了等,,,2015-10-05,1,,,,,トヤノセイサンダイサン,0
2098,8120001015060,登記記録の閉鎖等,0,2025-07-07,2025-06-27,てつまる株式会社,,株式会社,大阪府,茨木市,横江２丁目２番１６号,,27,211,5670865,,,2025-06-27,清算の結了等,,,2015-10-05,1,,,,,テツマル,0
2122,8120905005297,登記記録の閉鎖等,0,2025-07-07,2025-06-23,特定非営利活動法人影絵劇団おととえ座,,その他の設立登記法人,大阪府,豊能郡豊能町,希望ケ丘６丁目２番地の６,,27,321,5630214,,,2025-06-23,清算の結了等,,,2015-11-19,1,,,,,カゲエゲキダンオトトエザ,0
2129,8140001093583,登記記録の閉鎖等,0,2025-07-07,2025-06-30,株式会社ウエストワン,,株式会社,兵庫県,加東市,南山６丁目８番地１０,,28,228,6731341,,,2025-06-30,清算の結了等,,,2015-10-05,1,,,,,ウエストワン,0
2130,8140001097097,登記記録の閉鎖等,0,2025-07-07,2025-06-30,株式会社やぶの花,,株式会社,兵庫県,養父市,大屋町和田２０６番地,,28,222,6670435,,,2025-06-30,清算の結了等,,,2015-10-05,1,,,,,ヤブノハナ,0
2166,8240001064582,登記記録の閉鎖等,0,2025-07-07,2025-06-30,ＳＴＳ株式会社,,株式会社,広島県,広島市安芸区,船越南４丁目５番１８号,,34,107,7360082,,,2025-06-30,合併による解散等,7240001007286,令和７年６月３０日広島市安芸区船越南四丁目５番１８号株式会社デルタ（7240001007286）に合併し解散,2025-02-28,1,,,,,エスティエス,0
2179,8290801023262,登記記録の閉鎖等,0,2025-07-07,2025-06-30,イノベーション株式会社,,株式会社,福岡県,北九州市八幡西区,折尾５丁目５－２７フォーレスト折尾２０１,,40,109,8070825,,,2025-06-30,清算の結了等,,,2017-02-03,1,,,,,イノベーション,0
2190,8330002026473,登記記録の閉鎖等,0,2025-07-07,2025-06-20,有限会社山内商店,,有限会社,熊本県,八代市,新地町５番４号,,43,202,8660016,,,2025-06-20,清算の結了等,,,2015-10-05,1,,,,,ヤマウチショウテン,0
2197,8370401000769,登記記録の閉鎖等,0,2025-07-07,2025-06-24,株式会社森と人・元気村,,株式会社,宮城県,登米市,登米町大字日根牛小池１００番地,,04,212,9870703,,,2025-06-24,清算の結了等,,,2015-10-05,1,,,,,モリトヒトゲンキムラ,0
2207,8420003001714,登記記録の閉鎖等,0,2025-07-07,2025-06-24,合同会社さくら個別スクール,,合同会社,青森県,上北郡七戸町,字野続３７番地１５,,02,402,0392573,,,2025-06-24,清算の結了等,,,2017-03-24,1,,,,,サクラコベツスクール,0
2217,8480002005405,登記記録の閉鎖等,0,2025-07-07,2025-07-01,有限会社立志堂,,有限会社,徳島県,徳島市,佐古三番町１番１６号,,36,201,7700023,,,2025-07-01,清算の結了等,,,2015-10-05,1,,,,,リッシドウ,0
2218,8480002011320,登記記録の閉鎖等,0,2025-07-07,2025-07-01,有限会社松茂タクシー,,有限会社,徳島県,板野郡松茂町,中喜来字稲本１０５番地,,36,401,7710212,,,2025-07-01,清算の結了等,,,2015-10-05,1,,,,,マツシゲタクシー,0
2237,9010001169172,登記記録の閉鎖等,0,2025-07-07,2025-06-18,株式会社ブレイン,,株式会社,東京都,千代田区,平河町１丁目３番６号,,13,101,1020093,,,2025-06-18,清算の結了等,,,2015-10-05,1,,,,,ブレイン,0
2244,9010003042022,登記記録の閉鎖等,0,2025-07-07,2025-06-11,合同会社Ｓｔａｐｌｅ　Ｐｅｏｐｌｅ’ｓ　ＣＯ‐ＯＰ,,合同会社,東京都,中央区,日本橋小舟町１４－７ＳＯＩＬＮｉｈｏｎｂａｓｈｉ２ＦＳｏｉｌｗｏｒｋ,,13,102,1030024,,,2025-06-11,清算の結了等,,,2023-11-16,1,,,,,ステイプルピープルズコープ,0
2265,9010405013281,登記記録の閉鎖等,0,2025-07-07,2025-06-16,ちはら台ホールディング１一般社団法人,,その他の設立登記法人,東京都,港区,虎ノ門３丁目２２番１０－２０１号,,13,103,1050001,,,2025-06-16,清算の結了等,,,2015-10-05,1,,,,,チハラダイホールディングワン,0
2277,9010901014923,登記記録の閉鎖等,0,2025-07-07,2025-07-01,株式会社マークス,,株式会社,東京都,世田谷区,太子堂１丁目４番２４号,,13,112,1540004,,,2025-07-01,合併による解散等,4010901027104,令和７年７月１日東京都世田谷区太子堂一丁目４番２４号株式会社マークスグループ・ホールディングス（4010901027104）に合併し解散,2015-10-05,1,,,,,マークス,0
2314,9012701011241,登記記録の閉鎖等,0,2025-07-07,2025-06-30,株式会社明日香ケアワークス,,株式会社,東京都,小平市,学園東町１丁目１６番１７号,,13,211,1870043,,,2025-06-30,清算の結了等,,,2015-10-05,1,,,,,,0
2335,9020003023938,登記記録の閉鎖等,0,2025-07-07,2025-06-26,合同会社マークン,,合同会社,神奈川県,横浜市緑区,長津田みなみ台４丁目１番地１プリマシティＥ―５１０号,,14,113,2260018,,,2025-06-26,清算の結了等,,,2023-05-18,1,,,,,マークン,0
2338,9030001068298,登記記録の閉鎖等,0,2025-07-07,2025-06-09,株式会社ケーテック,,株式会社,東京都,渋谷区,西原３丁目１番６号メゾンド・ファラ３０１,,13,113,1510066,,,2025-06-09,清算の結了等,,,2015-10-05,1,,,,,ケーテック,0
2353,9040001043390,登記記録の閉鎖等,0,2025-07-07,2025-06-19,株式会社ゼネラルフォト,,株式会社,千葉県,富里市,七栄７５５番地７,,12,233,2860221,,,2025-06-19,清算の結了等,,,2015-10-05,1,,,,,ゼネラルフォト,0
2354,9040001068677,登記記録の閉鎖等,0,2025-07-07,2025-06-19,株式会社ライブラ,,株式会社,千葉県,我孫子市,つくし野３丁目１７番１０６号,,12,222,2701164,,,2025-06-19,清算の結了等,,,2015-10-05,1,,,,,ライブラ,0
2374,9070001028513,登記記録の閉鎖等,0,2025-07-07,2025-06-30,ティーエススチール株式会社,,株式会社,群馬県,太田市,只上町４６７番地２,,10,205,3730011,,,2025-06-30,清算の結了等,,,2015-10-05,1,,,,,ティーエススチール,0
2375,9070002020460,登記記録の閉鎖等,0,2025-07-07,2025-06-25,有限会社タカダ工業,,有限会社,群馬県,伊勢崎市,境上渕名１１０２番地の１５,,10,204,3700102,,,2025-06-25,清算の結了等,,,2015-10-05,1,,,,,タカダコウギョウ,0
2409,9120101052886,登記記録の閉鎖等,0,2025-07-07,2025-06-30,株式会社エディワースクリエイツ,,株式会社,大阪府,堺市美原区,平尾２３３５番地５,,27,147,5870022,,,2025-06-30,清算の結了等,,,2015-10-05,1,,,,,エディワースクリエイツ,0
2414,9120901038135,登記記録の閉鎖等,0,2025-07-07,2025-07-03,株式会社ナーシングトラスト,,株式会社,大阪府,豊中市,宝山町１７番１号,,27,203,5610893,,,2025-07-03,合併による解散等,6140001084337,令和７年７月１日大阪市中央区南本町一丁目２番６号株式会社フルライフケア（6140001084337）に合併し解散,2017-03-07,1,,,,,ナーシングトラスト,0
2431,9170001008653,登記記録の閉鎖等,0,2025-07-07,2025-07-01,興紀海運株式会社,,株式会社,和歌山県,田辺市,目良２３番３号,,30,206,6460058,,,2025-07-01,清算の結了等,,,2015-10-05,1,,,,,コウキカイウン,0
2474,9290002009639,登記記録の閉鎖等,0,2025-07-07,2025-06-23,有限会社イノウエジュエリー,,有限会社,福岡県,福岡市中央区,天神１丁目１１番１１号,,40,133,8100001,,,2025-06-23,清算の結了等,,,2015-10-05,1,,,,,イノウエジュエリー,0
2487,9330001017431,登記記録の閉鎖等,0,2025-07-07,2025-07-01,株式会社シータ,,株式会社,熊本県,熊本市東区,尾ノ上４丁目２０番１９号,,43,102,8620913,,,2025-07-01,合併による解散等,7330002014561,令和７年７月１日熊本市北区龍田二丁目１９番１号株式会社アイシー企画（7330002014561）に合併し解散,2015-10-05,1,,,,,シータ,0
2489,9330002010864,登記記録の閉鎖等,0,2025-07-07,2025-06-23,有限会社ヤマグチ・プランニング・システム,,有限会社,熊本県,熊本市東区,戸島西７丁目１５番１４号,,43,102,8618043,,,2025-06-23,清算の結了等,,,2015-10-05,1,,,,,ヤマグチプランニングシステム,0
