sequenceNumber,corporateNumber,process,correct,updateDate,changeDate,name,nameImageId,kind,prefectureName,cityName,streetNumber,addressImageId,prefectureCode,cityCode,postCode,addressOutside,addressOutsideImageId,closeDate,closeCause,successorCorporateNumber,changeCause,assignmentDate,latest,enName,enPrefectureName,enCityName,enAddressOutside,furigana,hihyoji
7,1010001243158,新規,0,2024-03-22,2024-03-22,ＺＥＮ経営共創株式会社,,株式会社,東京都,千代田区,外神田５丁目６－２菊池ビル１階,,13,101,1010021,,,,,,,2024-03-22,1,,,,,ゼンケイエイキョウソウ,0
8,1010001243190,新規,0,2024-03-22,2024-03-22,株式会社ＦＵＭＩＮＡ,,株式会社,東京都,文京区,湯島３丁目２１番１７－５０２号,,13,105,1130034,,,,,,,2024-03-22,1,,,,,フミナ,0
9,1010001243199,新規,0,2024-03-22,2024-03-22,株式会社ＪＤＣ,,株式会社,東京都,中央区,日本橋浜町２丁目５０番１ー７０２号,,13,102,1030007,,,,,,,2024-03-22,1,,,,,ジェイディーシー,0
10,1010001243232,新規,0,2024-03-22,2024-03-22,日本益大精密ゴム株式会社,,株式会社,東京都,千代田区,丸の内１丁目１１番１号パシフィックセンチュリープレイス１３階,,13,101,1000005,,,,,,,2024-03-22,1,,,,,ニホンエキダイセイミツゴム,0
11,1010001243331,新規,0,2024-03-22,2024-03-22,ＳＫＹ　Ｐｒｏｐｅｒｔｉｅｓ株式会社,,株式会社,東京都,千代田区,二番町１番地番町ハイム５１３号室,,13,101,1020084,,,,,,,2024-03-22,1,,,,,エスケーワイプロパティズ,0
15,1010003043242,新規,0,2024-03-22,2024-03-22,健深プロパティ合同会社,,合同会社,東京都,中央区,晴海３丁目１３番１－Ｅ４７０９号税理士法人ＪＴＡＧｒｏｕｐ内,,13,102,1040053,,,,,,,2024-03-22,1,,,,,ケンシンプロパティ,0
16,1010003043275,新規,0,2024-03-22,2024-03-22,Ｌｉｆｅ　Ｃｏｎｓｔｅｌｌａｔｉｏｎ合同会社,,合同会社,東京都,中央区,日本橋２丁目２番３号ＲＩＳＨＥビルＵＣＦ４階,,13,102,1030027,,,,,,,2024-03-22,1,,,,,ライフコンステレーション,0
24,1010401181123,新規,0,2024-03-22,2024-03-22,株式会社廻,,株式会社,東京都,港区,西麻布２丁目８－７－２０２,,13,103,1060031,,,,,,,2024-03-22,1,,,,,メグル,0
25,1010401181164,新規,0,2024-03-22,2024-03-22,Ｆｅａｒｌｅｓｓ１５株式会社,,株式会社,東京都,港区,南青山２丁目２番１５号,,13,103,1070062,,,,,,,2024-03-22,1,,,,,フィアレスフィフティーン,0
26,1010401181197,新規,0,2024-03-22,2024-03-22,未来創造株式会社,,株式会社,東京都,港区,新橋２丁目１６番１号ニュー新橋ビル７０４Ａ－２,,13,103,1050004,,,,,,,2024-03-22,1,,,,,ミライソウゾウ,0
27,1010401181230,新規,0,2024-03-22,2024-03-22,株式会社ｍａｒｋ　ｏｎ,,株式会社,東京都,港区,新橋２丁目９番１７号第二常盤ビル４階Ｂ号室,,13,103,1050004,,,,,,,2024-03-22,1,,,,,マークオン,0
29,1010403032209,新規,0,2024-03-22,2024-03-22,合同会社オフィスリベルタ,,合同会社,東京都,港区,北青山１丁目３番１号アールキューブ青山３階,,13,103,1070061,,,,,,,2024-03-22,1,,,,,オフィスリベルタ,0
30,1010501051985,新規,0,2024-03-22,2024-03-22,株式会社木本建設,,株式会社,東京都,台東区,上野６丁目１番６号御徒町グリーンハイツ１００５号室,,13,106,1100005,,,,,,,2024-03-22,1,,,,,キモトケンセツ,0
32,1010503007382,新規,0,2024-03-22,2024-03-22,合同会社Ｍａｒｉｃｏ,,合同会社,東京都,台東区,今戸２丁目１０番１－６０３号日神デュオステージ浅草今戸,,13,106,1110024,,,,,,,2024-03-22,1,,,,,マリコ,0
37,1010701045738,新規,0,2024-03-22,2024-03-22,株式会社ｒｅｂｒａｎｄ,,株式会社,東京都,品川区,小山４丁目４－１５－４０４,,13,109,1420062,,,,,,,2024-03-22,1,,,,,リブランド,0
40,1010901054902,新規,0,2024-03-22,2024-03-22,株式会社ＡＴＥＬＩＥＲ　ＢＬＥＵＥ,,株式会社,東京都,世田谷区,玉川３丁目２９番１４－２０１号,,13,112,1580094,,,,,,,2024-03-22,1,,,,,アトリエブルー,0
41,1010901054919,新規,0,2024-03-22,2024-03-22,株式会社ｅｍｏｔｉｏｎａｌ　ｂｏｎｄ,,株式会社,東京都,世田谷区,上北沢５丁目１２番２－３０１号,,13,112,1560057,,,,,,,2024-03-22,1,,,,,エモーショナルボンド,0
49,1011001160657,新規,0,2024-03-22,2024-03-22,株式会社ＴＯＲＣＨ,,株式会社,東京都,渋谷区,代官山町２０番２３号ＦｏｒｅｓｔｇａｔｅＤａｉｋａｎｙａｍａＭＡＩＮ棟３Ｆ,,13,113,1500034,,,,,,,2024-03-22,1,,,,,トーチ,0
50,1011001160681,新規,0,2024-03-22,2024-03-22,ＮＡＨＩＲＯ株式会社,,株式会社,東京都,渋谷区,松濤２丁目７番１２号,,13,113,1500046,,,,,,,2024-03-22,1,,,,,ナヒロ,0
51,1011001160698,新規,0,2024-03-22,2024-03-22,株式会社縁彩,,株式会社,東京都,渋谷区,恵比寿西２丁目４番８号ウィンド恵比寿ビル８Ｆ,,13,113,1500021,,,,,,,2024-03-22,1,,,,,エンサイ,0
52,1011001160715,新規,0,2024-03-22,2024-03-22,株式会社ｘｅｒｏｇｒａｖ．,,株式会社,東京都,渋谷区,千駄ヶ谷３丁目５１番１０号,,13,113,1510051,,,,,,,2024-03-22,1,,,,,ゼログラヴ,0
53,1011001160780,新規,0,2024-03-22,2024-03-22,株式会社Ｔｉｎｙ　Ｔａｌｅｓ,,株式会社,東京都,渋谷区,恵比寿西２丁目４番８号ウィンド恵比寿ビル８Ｆ,,13,113,1500021,,,,,,,2024-03-22,1,,,,,タイニーテイルズ,0
54,1011001160789,新規,0,2024-03-22,2024-03-22,株式会社ＮＹＴ,,株式会社,東京都,渋谷区,本町１丁目１８番１０号,,13,113,1510071,,,,,,,2024-03-22,1,,,,,エヌワイティー,0
55,1011001160797,新規,0,2024-03-22,2024-03-22,株式会社スイーツプラス,,株式会社,東京都,渋谷区,恵比寿西１丁目２０番６号,,13,113,1500021,,,,,,,2024-03-22,1,,,,,スイーツプラス,0
58,1011003018671,新規,0,2024-03-22,2024-03-22,ＷＯＲＬＤ　ＩＭＰＯＲＴ合同会社,,合同会社,東京都,目黒区,自由が丘２丁目１６番１２号ＲＪ３,,13,110,1520035,,,,,,,2024-03-22,1,,,,,ワールドインポート,0
59,1011003018696,新規,0,2024-03-22,2024-03-22,Ｎｅｏｔｅｃ　Ｓｏｌｕｔｉｏｎｓ合同会社,,合同会社,東京都,渋谷区,代々木１丁目３０番１５号,,13,113,1510053,,,,,,,2024-03-22,1,,,,,ネオテックソリューションズ,0
60,1011003018713,新規,0,2024-03-22,2024-03-22,合同会社ｌｏｎｇｅｎ,,合同会社,東京都,目黒区,中央町１丁目１５番８－３０５号,,13,110,1520001,,,,,,,2024-03-22,1,,,,,ロンジェン,0
61,1011003018746,新規,0,2024-03-22,2024-03-22,合同会社ジェネラス,,合同会社,東京都,渋谷区,恵比寿西２丁目４番８号ウィンド恵比寿ビル８Ｆ,,13,113,1500021,,,,,,,2024-03-22,1,,,,,ジェネラス,0
62,1011003018754,新規,0,2024-03-22,2024-03-22,和むテック合同会社,,合同会社,東京都,目黒区,碑文谷１丁目２０番１５号,,13,110,1520003,,,,,,,2024-03-22,1,,,,,ワムテック,0
69,1011101106584,新規,0,2024-03-22,2024-03-22,カタリナ・ハート株式会社,,株式会社,東京都,新宿区,四谷三栄町３番１２－３０２号,,13,104,1600008,,,,,,,2024-03-22,1,,,,,カタリナハート,0
70,1011101106634,新規,0,2024-03-22,2024-03-22,５５株式会社,,株式会社,東京都,新宿区,西新宿５丁目５番１－１６０９号,,13,104,1600023,,,,,,,2024-03-22,1,,,,,ゴーゴー,0
75,1011701027123,新規,0,2024-03-22,2024-03-22,株式会社ｌａｋｓｈｍｉ,,株式会社,東京都,江戸川区,上篠崎２丁目５番６号,,13,123,1330054,,,,,,,2024-03-22,1,,,,,ラクシュミー,0
81,1011801043937,新規,0,2024-03-22,2024-03-22,株式会社仲代金属ホールディングス,,株式会社,東京都,足立区,加平３丁目１４番１１号,,13,121,1210055,,,,,,,2024-03-22,1,,,,,ナカダイキンゾクホールディングス,0
82,1011801043945,新規,0,2024-03-22,2024-03-22,Ｓｈｏｗ株式会社,,株式会社,東京都,足立区,東六月町６番２３号,,13,121,1210071,,,,,,,2024-03-22,1,,,,,ショー,0
83,1011801043953,新規,0,2024-03-22,2024-03-22,株式会社張本工務店,,株式会社,東京都,足立区,花畑８丁目４番１０－２０７号,,13,121,1210061,,,,,,,2024-03-22,1,,,,,ハリモトコウムテン,0
84,1011801043961,新規,0,2024-03-22,2024-03-22,株式会社肉屋たけうちコーポレーション,,株式会社,東京都,葛飾区,東新小岩７丁目１４番１５号,,13,122,1240023,,,,,,,2024-03-22,1,,,,,ニクヤタケウチコーポレーション,0
89,1012701018145,新規,0,2024-03-22,2024-03-22,株式会社Ｌ‐ＦＬＡＴ,,株式会社,東京都,小平市,天神町４丁目１５番２３号,,13,211,1870004,,,,,,,2024-03-22,1,,,,,エルフラット,0
90,1012701018153,新規,0,2024-03-22,2024-03-22,株式会社ＳＯＩＲＥＶＥ,,株式会社,東京都,東久留米市,下里７丁目６番１号,,13,222,2030043,,,,,,,2024-03-22,1,,,,,スワレーヴ,0
92,1013301052245,新規,0,2024-03-22,2024-03-22,株式会社りんご,,株式会社,東京都,豊島区,高田２丁目３番５号,,13,116,1710033,,,,,,,2024-03-22,1,,,,,リンゴ,0
97,1020001156301,新規,0,2024-03-22,2024-03-22,ｓｎｏｗ株式会社,,株式会社,神奈川県,横浜市青葉区,新石川２丁目２２番地１３,,14,117,2250003,,,,,,,2024-03-22,1,,,,,スノー,0
98,1020001156334,新規,0,2024-03-22,2024-03-22,株式会社ＢｅｙｏｎＺ,,株式会社,神奈川県,川崎市麻生区,王禅寺西１丁目１１番２号,,14,137,2150017,,,,,,,2024-03-22,1,,,,,ビヨンズ,0
100,1020003025784,新規,0,2024-03-22,2024-03-22,五度合同会社,,合同会社,神奈川県,横浜市磯子区,汐見台１丁目２－４,,14,107,2350022,,,,,,,2024-03-22,1,,,,,ゴド,0
103,1021001081737,新規,0,2024-03-22,2024-03-22,株式会社Ａｎｋｕｅｍ,,株式会社,神奈川県,大和市,上草柳９丁目３番３０号,,14,213,2420029,,,,,,,2024-03-22,1,,,,,アンクエム,0
104,1021001081753,新規,0,2024-03-22,2024-03-22,株式会社Ｖｏｙａｇｅ,,株式会社,神奈川県,平塚市,平塚３丁目２１番１９号,,14,203,2540052,,,,,,,2024-03-22,1,,,,,ヴォヤージュ,0
105,1021001081786,新規,0,2024-03-22,2024-03-22,株式会社心想工業,,株式会社,神奈川県,愛甲郡愛川町,中津２３２１番地６,,14,401,2430303,,,,,,,2024-03-22,1,,,,,シンソウコウギョウ,0
106,1021003014281,新規,0,2024-03-22,2024-03-22,合同会社Ｋｎｅａｄ設計,,合同会社,神奈川県,藤沢市,辻堂新町１丁目４－２６－１００４,,14,205,2510042,,,,,,,2024-03-22,1,,,,,ニードセッケイ,0
111,1030001159278,新規,0,2024-03-22,2024-03-22,Ｓｔａｎｄ　ｆｉｅｌｄ株式会社,,株式会社,埼玉県,越谷市,川柳町１丁目４１番地１０,,11,222,3430827,,,,,,,2024-03-22,1,,,,,スタンドフィールド,0
112,1030001159294,新規,0,2024-03-22,2024-03-22,株式会社ＢＥＡＲＤ　ＬＡＢ,,株式会社,埼玉県,川越市,大字平塚６５－７,,11,201,3500814,,,,,,,2024-03-22,1,,,,,ビアードラボ,0
113,1030001159303,新規,0,2024-03-22,2024-03-22,株式会社ＦＪＭ,,株式会社,埼玉県,富士見市,東みずほ台４丁目２９番地２８,,11,235,3540015,,,,,,,2024-03-22,1,,,,,エフジェイエム,0
114,1030001159311,新規,0,2024-03-22,2024-03-22,株式会社三峰トラスト,,株式会社,埼玉県,八潮市,大字古新田３１９番３号,,11,234,3400823,,,,,,,2024-03-22,1,,,,,ミツミネトラスト,0
115,1030001159344,新規,0,2024-03-22,2024-03-22,株式会社ＣＫホールディングス,,株式会社,埼玉県,春日部市,備後西３丁目５番４０号,,11,214,3440033,,,,,,,2024-03-22,1,,,,,シーケーホールディングス,0
116,1030001159352,新規,0,2024-03-22,2024-03-22,株式会社Ａ‐ｃｏｎｓｕｌｔａｎｔ,,株式会社,埼玉県,越谷市,花田４丁目２番地１０,,11,222,3430015,,,,,,,2024-03-22,1,,,,,エーコンサルタント,0
123,1030003023845,新規,0,2024-03-22,2024-03-22,Ｃｏｍｐａｓｓ　Ａｌｐｈａ合同会社,,合同会社,埼玉県,さいたま市緑区,大字大門１１６番地１浦和東パークホームズ５０５,,11,109,3360963,,,,,,,2024-03-22,1,,,,,コンパスアルファ,0
124,1030003023853,新規,0,2024-03-22,2024-03-22,合同会社ＡＮＤ　ＯＮＥ,,合同会社,埼玉県,川口市,差間２丁目２－１７ユートピア２０２,,11,203,3330816,,,,,,,2024-03-22,1,,,,,アンドワン,0
127,1040001132705,新規,0,2024-03-22,2024-03-22,株式会社ベルウッド,,株式会社,千葉県,野田市,古布内１５４２番地２,,12,208,2700221,,,,,,,2024-03-22,1,,,,,ベルウッド,0
128,1040001132721,新規,0,2024-03-22,2024-03-22,株式会社山庄,,株式会社,千葉県,習志野市,鷺沼３丁目８番４号,,12,216,2750014,,,,,,,2024-03-22,1,,,,,ヤマショウ,0
129,1040001132770,新規,0,2024-03-22,2024-03-22,株式会社ＴＳＫ,,株式会社,千葉県,市原市,飯沼３０３番地６,,12,219,2900037,,,,,,,2024-03-22,1,,,,,ティーエスケー,0
130,1040001132829,新規,0,2024-03-22,2024-03-22,株式会社東葛ハウジング,00134169,株式会社,千葉県,柏市,布施８５６番地３,,12,217,2770825,,,,,,,2024-03-22,1,,,,,トウカツハウジング,0
133,1040003024363,新規,0,2024-03-22,2024-03-22,合同会社ＧＡＮＫＩ．,,合同会社,千葉県,木更津市,畑沢４丁目１１番１０号,,12,206,2920825,,,,,,,2024-03-22,1,,,,,ガンキ,0
134,1040003024586,新規,0,2024-03-22,2024-03-22,Ａｌｏｈｉ合同会社,,合同会社,千葉県,千葉市中央区,中央港１丁目２５番２０号エコロジー千葉みなとレジデンス,,12,101,2600024,,,,,,,2024-03-22,1,,,,,アロヒ,0
135,1050001054477,新規,0,2024-03-22,2024-03-22,株式会社Ｌｉｂｅｒａｌ　Ａｃｅ,,株式会社,茨城県,水戸市,笠原町６９０番地の１８,,08,201,3100852,,,,,,,2024-03-22,1,,,,,リベラルエース,0
136,1050001054493,新規,0,2024-03-22,2024-03-22,株式会社不二総研,,株式会社,茨城県,取手市,白山１丁目７番１７－５号,,08,217,3020023,,,,,,,2024-03-22,1,,,,,フジソウケン,0
142,1060005010178,新規,0,2024-03-22,2024-03-22,一般社団法人おひさま,,その他の設立登記法人,栃木県,河内郡上三川町,大字上蒲生５６０番地１５,,09,301,3290617,,,,,,,2024-03-22,1,,,,,オヒサマ,0
145,1080001026201,新規,0,2024-03-22,2024-03-22,平松鋼業株式会社,,株式会社,静岡県,島田市,南２丁目２５番１号,,22,209,4270017,,,,,,,2024-03-22,1,,,,,ヒラマツコウギョウ,0
150,1080101024609,新規,0,2024-03-22,2024-03-22,伊いな不動産株式会社,,株式会社,静岡県,伊豆市,宮上９９番地の１,,22,222,4102511,,,,,,,2024-03-22,1,,,,,イイナフドウサン,0
153,1080401027055,新規,0,2024-03-22,2024-03-22,Ａｒｉｓｅ株式会社,,株式会社,静岡県,浜松市中央区,西山町２番地パリタＩＩ１０２,00134168,22,138,4328001,,,,,,,2024-03-22,1,,,,,アライズ,0
163,1100005013135,新規,0,2024-03-22,2024-03-22,一般社団法人わくわくの村,,その他の設立登記法人,長野県,東筑摩郡麻績村,日３３４９番地１,,20,446,3997702,,,,,,,2024-03-22,1,,,,,ワクワクノムラ,0
177,1120001263236,新規,0,2024-03-22,2024-03-22,株式会社ＮＥＸＩＡ,,株式会社,大阪府,大阪市鶴見区,鶴見１丁目３番５１－３１３号,,27,124,5380053,,,,,,,2024-03-22,1,,,,,ネクシア,0
178,1120001263252,新規,0,2024-03-22,2024-03-22,ｗｉｉｉｌｌ株式会社,,株式会社,大阪府,大阪市北区,梅田２丁目２－２ヒルトンプラザウエストオフィスタワー１９Ｆ,,27,127,5300001,,,,,,,2024-03-22,1,,,,,ウィル,0
179,1120001263302,新規,0,2024-03-22,2024-03-22,株式会社リテラ,,株式会社,大阪府,大阪市東住吉区,杭全７丁目７番１４号,,27,121,5460002,,,,,,,2024-03-22,1,,,,,リテラ,0
180,1120001263310,新規,0,2024-03-22,2024-03-22,株式会社Ｒｉｎｇ,,株式会社,大阪府,大阪市北区,梅田１丁目２番２号大阪駅前第２ビル１２－１２,,27,127,5300001,,,,,,,2024-03-22,1,,,,,リング,0
181,1120001263319,新規,0,2024-03-22,2024-03-22,Ｙｕｂｉホールディングス株式会社,,株式会社,大阪府,大阪市福島区,福島６丁目１３番６号,,27,103,5530003,,,,,,,2024-03-22,1,,,,,アイブリッジグループ,0
182,1120001263327,新規,0,2024-03-22,2024-03-22,株式会社満福,,株式会社,大阪府,大阪市天王寺区,勝山２丁目１７番７号,,27,109,5430043,,,,,,,2024-03-22,1,,,,,マンプク,0
183,1120001263384,新規,0,2024-03-22,2024-03-22,株式会社アースマイル,,株式会社,大阪府,大阪市西区,立売堀５丁目５番７－３０２号,,27,106,5500012,,,,,,,2024-03-22,1,,,,,アースマイル,0
184,1120001263401,新規,0,2024-03-22,2024-03-22,株式会社ＢＡＳＥ,,株式会社,大阪府,大阪市都島区,都島南通２丁目１番３－１００４号,,27,102,5340023,,,,,,,2024-03-22,1,,,,,ベース,0
186,1120003026178,新規,0,2024-03-22,2024-03-22,合同会社ニューエージェント,,合同会社,大阪府,大阪市北区,梅田１丁目２番２号大阪駅前第２ビル１２－１２,,27,127,5300001,,,,,,,2024-03-22,1,,,,,ニューエージェント,0
187,1120003026194,新規,0,2024-03-22,2024-03-22,合同会社Ｆｏｕｒｔｅｅｎ,,合同会社,大阪府,大阪市北区,西天満３丁目８番１３号,,27,127,5300047,,,,,,,2024-03-22,1,,,,,フォーティーン,0
194,1120901048901,新規,0,2024-03-22,2024-03-22,株式会社スリーロータス,,株式会社,大阪府,茨木市,末広町１番７号３Ｆ,,27,211,5670821,,,,,,,2024-03-22,1,,,,,スリーロータス,0
195,1120901048926,新規,0,2024-03-22,2024-03-22,株式会社Ｒ．Ｏ．Ｉ．Ｇ．Ｏ,,株式会社,大阪府,高槻市,上田辺町１９番１３－１００１号,,27,207,5690805,,,,,,,2024-03-22,1,,,,,ロイゴ,0
198,1130001076612,新規,0,2024-03-22,2024-03-22,ＫＡＫＵＤＡＩ株式会社,,株式会社,京都府,京田辺市,山手東２丁目５番地１ファインパークＡ棟５０３号,,26,211,6100357,,,,,,,2024-03-22,1,,,,,カクダイ,0
199,1130001076620,新規,0,2024-03-22,2024-03-22,株式会社ｅａｒｔｈ　ｓｕｐｐｏｒｔ,,株式会社,京都府,木津川市,城山台６丁目５番地４カスティブローノ２０１号,,26,214,6190218,,,,,,,2024-03-22,1,,,,,アースサポート,0
200,1130001076629,新規,0,2024-03-22,2024-03-22,株式会社ＲＳＪ,,株式会社,京都府,京都市右京区,西京極前田町２８－７メゾンブランシェ１Ｆ,,26,108,6150823,,,,,,,2024-03-22,1,,,,,アールエスジェイ,0
201,1130001076645,新規,0,2024-03-22,2024-03-22,一心株式会社,,株式会社,京都府,京都市右京区,龍安寺池ノ下町１０番地１０,,26,108,6168003,,,,,,,2024-03-22,1,,,,,イッシン,0
203,1130003009388,新規,0,2024-03-22,2024-03-22,合同会社Ｆｌｅｓｙ,,合同会社,京都府,京都市西京区,樫原蛸田町４５番地１２,,26,111,6158161,,,,,,,2024-03-22,1,,,,,フレッシイ,0
210,1140001133718,新規,0,2024-03-22,2024-03-22,株式会社ベアック,,株式会社,兵庫県,西宮市,石在町１５番１８－９０７号,,28,204,6620928,,,,,,,2024-03-22,1,,,,,ベアック,0
211,1140001133750,新規,0,2024-03-22,2024-03-22,株式会社リヴァイブ,,株式会社,兵庫県,神戸市長田区,菅原通７丁目５１－１ゴールドウッズシューズタウンＰ２、２－Ａ,,28,106,6530015,,,,,,,2024-03-22,1,,,,,リヴァイブ,0
212,1140001133775,新規,0,2024-03-22,2024-03-22,株式会社ｓｉｎｒｉｎ,,株式会社,兵庫県,洲本市,栄町２丁目１－２４清水ビル２Ｆ,,28,205,6560026,,,,,,,2024-03-22,1,,,,,シンリン,0
214,1140003020286,新規,0,2024-03-22,2024-03-22,合同会社ＡＬＷＡＹＳ．,,合同会社,兵庫県,明石市,二見町西二見１７１４－１,,28,203,6740094,,,,,,,2024-03-22,1,,,,,オールウェイズ,0
215,1140003020303,新規,0,2024-03-22,2024-03-22,合同会社ｓ．ｙ．ｉ,,合同会社,兵庫県,西宮市,安井町５番４号,,28,204,6620045,,,,,,,2024-03-22,1,,,,,,0
219,1180001160601,新規,0,2024-03-22,2024-03-22,株式会社ＢＯＴ‐ＬＩＦＥ,,株式会社,愛知県,名古屋市緑区,青山２丁目６１番地の１,,23,114,4580833,,,,,,,2024-03-22,1,,,,,ボットライフ,0
220,1180001160634,新規,0,2024-03-22,2024-03-22,株式会社ホロムア,,株式会社,愛知県,名古屋市中村区,名駅５丁目２３番３号,,23,105,4500002,,,,,,,2024-03-22,1,,,,,ホロムア,0
221,1180001160642,新規,0,2024-03-22,2024-03-22,株式会社Ｂｅａｕｔｉｆｕｌ　Ｈａｒｍｏｎｙ,,株式会社,愛知県,長久手市,野田農１３０２番地カーサ・ベルデＢ２０２号,,23,238,4801166,,,,,,,2024-03-22,1,,,,,ビューティフルハーモニー,0
222,1180001160650,新規,0,2024-03-22,2024-03-22,株式会社ＧＡＲＡＧＥ　Ｇ．Ｔ．Ｏ．,,株式会社,愛知県,春日井市,六軒屋町３丁目１９４番地,,23,206,4860842,,,,,,,2024-03-22,1,,,,,ガレージジーティーオー,0
223,1180001160667,新規,0,2024-03-22,2024-03-22,株式会社吉村真基建築計画事務所,,株式会社,愛知県,名古屋市千種区,山添町１丁目１０番地の３,,23,101,4640832,,,,,,,2024-03-22,1,,,,,ヨシムラマキケンチクケイカクジムショ,0
228,1180003026528,新規,0,2024-03-22,2024-03-22,合同会社翔,,合同会社,愛知県,名古屋市中区,栄４丁目１４番１５号伊藤義ビル１Ｆ,,23,106,4600008,,,,,,,2024-03-22,1,,,,,カケル,0
230,1180301038423,新規,0,2024-03-22,2024-03-22,株式会社フカクサ設備,,株式会社,愛知県,豊田市,青木町２丁目５番地２０シャンポール青木１Ｄ号,,23,211,4700335,,,,,,,2024-03-22,1,,,,,フカクサセツビ,0
231,1180301038431,新規,0,2024-03-22,2024-03-22,株式会社本町オーブン,,株式会社,愛知県,西尾市,本町１５番地,,23,213,4450865,,,,,,,2024-03-22,1,,,,,ホンマチオーブン,0
232,1180303006048,新規,0,2024-03-22,2024-03-22,合同会社ｅｎｎ,,合同会社,愛知県,豊田市,西岡町裏畑７８番地２,,23,211,4730936,,,,,,,2024-03-22,1,,,,,エン,0
233,1200001042301,新規,0,2024-03-22,2024-03-22,株式会社ｎｉｎｅ　ｂｕｌｌｅｔ　ｓｅｎｓａｔｉｏｎ,,株式会社,岐阜県,岐阜市,六条江東３丁目２番３号,,21,201,5008356,,,,,,,2024-03-22,1,,,,,ナインバレットセンセーション,0
240,1230005009368,新規,0,2024-03-22,2024-03-22,農事組合法人堀田営農組合,,その他の設立登記法人,富山県,氷見市,堀田３５５６番地１,,16,205,9350104,,,,,,,2024-03-22,1,,,,,ホリタエイノウクミアイ,0
244,1240003006589,新規,0,2024-03-22,2024-03-22,合同会社ＡＩ電気,,合同会社,広島県,福山市,三吉町３丁目９番１３号,,34,207,7200031,,,,,,,2024-03-22,1,,,,,エアイデンキ,0
246,1250003003461,新規,0,2024-03-22,2024-03-22,合同会社ぬくもり舎,,合同会社,山口県,萩市,大字江崎５５,,35,204,7593113,,,,,,,2024-03-22,1,,,,,ヌクモリシャ,0
250,1260003004624,新規,0,2024-03-22,2024-03-22,合同会社ｓｗｉｍ　ｕｐ,,合同会社,岡山県,倉敷市,浜町１丁目１１番４０号Ｂ,,33,202,7100062,,,,,,,2024-03-22,1,,,,,スイムアップ,0
253,1290001105181,新規,0,2024-03-22,2024-03-22,ＳｔａＲと管理株式会社,,株式会社,福岡県,福岡市南区,清水３丁目１７番２号,,40,134,8150031,,,,,,,2024-03-22,1,,,,,スタートカンリ,0
254,1290001105198,新規,0,2024-03-22,2024-03-22,株式会社ｐｒｏｇｒｅｓｓ,,株式会社,福岡県,福岡市中央区,天神４丁目６－２８天神ファーストビル７階,,40,133,8100001,,,,,,,2024-03-22,1,,,,,プログレス,0
278,1360001033391,新規,0,2024-03-22,2024-03-22,西崎レジデンス株式会社,,株式会社,沖縄県,那覇市,若狭１丁目６番１０号ビーチサイドビル,,47,201,9000031,,,,,,,2024-03-22,1,,,,,ニシザキレジデンス,0
282,1370001051095,新規,0,2024-03-22,2024-03-22,まるあ株式会社,,株式会社,宮城県,仙台市宮城野区,出花２丁目８番地の７サンハイツＩＩＩ－１０３,00134170,04,102,9830012,,,,,,,2024-03-22,1,,,,,マルア,0
285,1380001034363,新規,0,2024-03-22,2024-03-22,株式会社大成,,株式会社,福島県,会津若松市,神指町大字中四合字天満北４０番地,,07,202,9650065,,,,,,,2024-03-22,1,,,,,タイセイ,0
287,1380003005718,新規,0,2024-03-22,2024-03-22,合同会社橋祥社,,合同会社,福島県,郡山市,富久山町久保田字下河原１９１－１福島コトひらく内,,07,203,9638071,,,,,,,2024-03-22,1,,,,,キョウショウシャ,0
288,1390003002219,新規,0,2024-03-22,2024-03-22,合同会社ＳＨＯＮＡＩ　ＢＡＫＵＳＨＵ,,合同会社,山形県,鶴岡市,本町３丁目１３番２５号,,06,203,9970034,,,,,,,2024-03-22,1,,,,,ショウナイバクシュウ,0
289,1400001016598,新規,0,2024-03-22,2024-03-22,株式会社条掌,,株式会社,岩手県,盛岡市,門２丁目２４番１０号サンバレー２０３号,,03,201,0200823,,,,,,,2024-03-22,1,,,,,ジョウショウ,0
292,1400003003231,新規,0,2024-03-22,2024-03-22,合同会社ＦＲＯＮＥＸ,,合同会社,岩手県,盛岡市,向中野５丁目２番２５号リビングタウン向中野Ｂ２０２号,,03,201,0200851,,,,,,,2024-03-22,1,,,,,フロンクス,0
295,1420005007889,新規,0,2024-03-22,2024-03-22,一般社団法人ＡＭＲ,,その他の設立登記法人,青森県,八戸市,南類家２丁目１６番１５号アーバンパレスＤ,,02,203,0310004,,,,,,,2024-03-22,1,,,,,エーエムアール,0
297,1430001091309,新規,0,2024-03-22,2024-03-22,株式会社ＴＡＫＡＳＨＯ,,株式会社,北海道,札幌市東区,東雁来町四条一丁目１番４０号,,01,103,0070820,,,,,,,2024-03-22,1,,,,,タカショー,0
298,1430001091325,新規,0,2024-03-22,2024-03-22,株式会社ＯＴ‐ＮＯ‐ＭＯＮＯ,,株式会社,北海道,恵庭市,黄金中央５丁目１９６番地の１,,01,231,0611449,,,,,,,2024-03-22,1,,,,,オテノモノ,0
299,1430001091333,新規,0,2024-03-22,2024-03-22,株式会社Ｄ＆Ｄ,,株式会社,北海道,札幌市手稲区,稲穂一条７丁目３番１２－３０１号,,01,109,0060031,,,,,,,2024-03-22,1,,,,,ディーアンドディー,0
300,1430001091341,新規,0,2024-03-22,2024-03-22,株式会社Ｎａｓｕｋ,,株式会社,北海道,札幌市北区,新琴似五条１丁目５番１－３０１号,,01,102,0010905,,,,,,,2024-03-22,1,,,,,ナスク,0
301,1430003016107,新規,0,2024-03-22,2024-03-22,未来ａｒｃｏ合同会社,,合同会社,北海道,伊達市,南稀府町２６３番地６４,,01,233,0590273,,,,,,,2024-03-22,1,,,,,ミライアルコ,0
303,1460101007517,新規,0,2024-03-22,2024-03-22,株式会社Ｓｉｌｖｅｒ　Ｂａｃｋ,,株式会社,北海道,帯広市,西二条北２丁目１５番地５,,01,207,0800032,,,,,,,2024-03-22,1,,,,,シルバーバック,0
304,1460103001600,新規,0,2024-03-22,2024-03-22,にこっとはなまる合同会社,,合同会社,北海道,中川郡幕別町,札内みずほ町１７３番地４,,01,643,0890554,,,,,,,2024-03-22,1,,,,,ニコットハナマル,0
316,2010001243165,新規,0,2024-03-22,2024-03-22,株式会社ＲｏＮ‐ＢＥ．,,株式会社,東京都,中央区,銀座６丁目４番１８号マキシ・ド・ピアビル２階,,13,102,1040061,,,,,,,2024-03-22,1,,,,,ロンビー,0
317,2010001243231,新規,0,2024-03-22,2024-03-22,株式会社こんにちハロー,,株式会社,東京都,中央区,築地３丁目２番１０－１１０６号,,13,102,1040045,,,,,,,2024-03-22,1,,,,,コンニチハロー,0
318,2010001243355,新規,0,2024-03-22,2024-03-22,ＳＥＬＥＮＥ株式会社,,株式会社,東京都,中央区,銀座７丁目１３番２０号銀座ＴＨビル９階,,13,102,1040061,,,,,,,2024-03-22,1,,,,,セレネ,0
320,2010003043217,新規,0,2024-03-22,2024-03-22,合同会社メディア,,合同会社,東京都,千代田区,神田和泉町１番地６－１６ヤマトビル４０５,,13,101,1010024,,,,,,,2024-03-22,1,,,,,メディア,0
321,2010005038074,新規,0,2024-03-22,2024-03-22,医療法人社団Ｓ＆Ｔ医会,,その他の設立登記法人,東京都,中央区,銀座５丁目１番１５号第一御幸ビル４階,,13,102,1040061,,,,,,,2024-03-22,1,,,,,エスアンドティイカイ,0
326,2010401181155,新規,0,2024-03-22,2024-03-22,Ｂｅｙｏｎｄ　Ｇｒａｖｉｔｙ　ｏｆ　ＡＲＴ株式会社,,株式会社,東京都,港区,西麻布３丁目１３番１６－２０３号室,,13,103,1060031,,,,,,,2024-03-22,1,,,,,ビヨンドグラビティオブアート,0
327,2010401181238,新規,0,2024-03-22,2024-03-22,株式会社ウェルキャリア,,株式会社,東京都,港区,新橋４丁目３１番３号第３名和ビル,,13,103,1050004,,,,,,,2024-03-22,1,,,,,ウェルキャリア,0
328,2010403032199,新規,0,2024-03-22,2024-03-22,ＪＤＣグリーンエナジー合同会社,,合同会社,東京都,港区,虎ノ門４丁目３番１３号,,13,103,1050001,,,,,,,2024-03-22,1,,,,,ジェイディシーグリーンエナジー,0
329,2010403032208,新規,0,2024-03-22,2024-03-22,合同会社Ｆｉｒｓｔ　ｉｍｐｒｅｓｓｉｏｎ,,合同会社,東京都,港区,赤坂４丁目１３番８号赤坂パレスマンション５１０,,13,103,1070052,,,,,,,2024-03-22,1,,,,,ファーストインプレッション,0
331,2010501051869,新規,0,2024-03-22,2024-03-22,株式会社ＭＳ,,株式会社,東京都,台東区,上野３丁目１５－７－５０２,,13,106,1100005,,,,,,,2024-03-22,1,,,,,エムエス,0
333,2010601064853,新規,0,2024-03-22,2024-03-22,早稲田教育株式会社,,株式会社,東京都,江東区,有明１丁目６番３０－３００６号,,13,108,1350063,,,,,,,2024-03-22,1,,,,,ワセダキョウイク,0
335,2010603010723,新規,0,2024-03-22,2024-03-22,キボウテック合同会社,,合同会社,東京都,江東区,有明１丁目４番１１－１４２６号,,13,108,1350063,,,,,,,2024-03-22,1,,,,,キボウテック,0
337,2010801034870,新規,0,2024-03-22,2024-03-22,株式会社Ａｐｐｒｉｃｏｔ,,株式会社,東京都,大田区,田園調布５丁目２９番２５号,,13,111,1450071,,,,,,,2024-03-22,1,,,,,アプリコット,0
346,2011001160672,新規,0,2024-03-22,2024-03-22,ＭＢオペレーションズ株式会社,,株式会社,東京都,渋谷区,恵比寿４丁目７番６号,,13,113,1500013,,,,,,,2024-03-22,1,,,,,エムビーオペレーションズ,0
347,2011001160722,新規,0,2024-03-22,2024-03-22,株式会社Ｂｒａｉｎｂｉｏｍｅ,,株式会社,東京都,渋谷区,代々木１丁目４４番４号,,13,113,1510053,,,,,,,2024-03-22,1,,,,,ブレインバイオーム,0
348,2011001160730,新規,0,2024-03-22,2024-03-22,株式会社ｍｕｔｔａ,,株式会社,東京都,渋谷区,道玄坂１丁目１０番８号渋谷道玄坂東急ビル２Ｆ－Ｃ,,13,113,1500043,,,,,,,2024-03-22,1,,,,,ムッタ,0
349,2011001160739,新規,0,2024-03-22,2024-03-22,株式会社百葉堂,,株式会社,東京都,渋谷区,猿楽町１７番１６号,,13,113,1500033,,,,,,,2024-03-22,1,,,,,ヒャクヨウドウ,0
350,2011001160788,新規,0,2024-03-22,2024-03-22,エウゼーンカンパニー株式会社,,株式会社,東京都,渋谷区,道玄坂１丁目１０番８号渋谷道玄坂東急ビル２Ｆ－Ｃ,,13,113,1500043,,,,,,,2024-03-22,1,,,,,エウゼーンカンパニー,0
351,2011001160805,新規,0,2024-03-22,2024-03-22,株式会社ＮＯ　ＬＡＢＥＬ　ＭＵＳＩＣ,,株式会社,東京都,渋谷区,富ヶ谷２丁目１６番１４－６０５号,,13,113,1510063,,,,,,,2024-03-22,1,,,,,ノーラベルミュージック,0
355,2011003018737,新規,0,2024-03-22,2024-03-22,合同会社貞村,,合同会社,東京都,渋谷区,恵比寿西２丁目８番４号ＥＸ恵比寿西ビル５階,,13,113,1500021,,,,,,,2024-03-22,1,,,,,サダムラ,0
358,2011101106674,新規,0,2024-03-22,2024-03-22,株式会社ｍｉｎｉｍａ．,,株式会社,東京都,新宿区,西新宿３丁目６－１７新宿都庁前パレステュディオ１６０５,,13,104,1600023,,,,,,,2024-03-22,1,,,,,ミニマ,0
360,2011203004330,新規,0,2024-03-22,2024-03-22,ＫＯＤＥＮ　ＵＫＩ合同会社,,合同会社,東京都,中野区,弥生町３丁目５番５号,,13,114,1640013,,,,,,,2024-03-22,1,,,,,コーデンウキ,0
361,2011301029510,新規,0,2024-03-22,2024-03-22,株式会社ｗａｖｅ,,株式会社,東京都,杉並区,方南１丁目２９番７号ダイアパレス５０３号室,,13,115,1680062,,,,,,,2024-03-22,1,,,,,ウェイヴ,0
362,2011303005105,新規,0,2024-03-22,2024-03-22,クロスボーダー合同会社,,合同会社,東京都,杉並区,阿佐谷北２丁目３４番１６号,,13,115,1660001,,,,,,,2024-03-22,1,,,,,クロスボーダー,0
363,2011401025938,新規,0,2024-03-22,2024-03-22,逸見エステート株式会社,,株式会社,東京都,板橋区,大山東町２７番２号,,13,119,1730014,,,,,,,2024-03-22,1,,,,,ヘンミエステート,0
364,2011501030458,新規,0,2024-03-22,2024-03-22,株式会社ＭＫ’ｓ,,株式会社,東京都,北区,桐ケ丘１丁目６番２－２０１号,,13,117,1150054,,,,,,,2024-03-22,1,,,,,エムケーズ,0
368,2011503005994,新規,0,2024-03-22,2024-03-22,合同会社ぼくです,,合同会社,東京都,北区,西ケ原３丁目５番９号,,13,117,1140024,,,,,,,2024-03-22,1,,,,,ボクデス,0
370,2011603004285,新規,0,2024-03-22,2024-03-22,スタジオヴァレリ合同会社,,合同会社,東京都,練馬区,平和台３丁目１番１４号,,13,120,1790083,,,,,,,2024-03-22,1,,,,,スタジオヴァレリ,0
372,2011703003781,新規,0,2024-03-22,2024-03-22,合同会社ぺん銀,,合同会社,東京都,江戸川区,東小松川４丁目５７番１０－１３０５号,,13,123,1320033,,,,,,,2024-03-22,1,,,,,ペンギン,0
373,2011801043928,新規,0,2024-03-22,2024-03-22,諾華数字科技株式会社,,株式会社,東京都,足立区,中川２丁目１３－２ジョイフル亀有３０１,,13,121,1200002,,,,,,,2024-03-22,1,,,,,ダクカスウジカギ,0
374,2011801043952,新規,0,2024-03-22,2024-03-22,株式会社シナトラ,,株式会社,東京都,足立区,日ノ出町２８－２－２０２,,13,121,1200021,,,,,,,2024-03-22,1,,,,,シナトラ,0
375,2011801043960,新規,0,2024-03-22,2024-03-22,株式会社ＷＡＲＡ‐Ｌ,,株式会社,東京都,足立区,千住桜木１丁目３－３アデニウム北千住８０６,,13,121,1200045,,,,,,,2024-03-22,1,,,,,ワラエル,0
376,2011801043969,新規,0,2024-03-22,2024-03-22,株式会社Ｋ＆Ｋプロダクツ,,株式会社,東京都,足立区,中川３丁目２３番８号,,13,121,1200002,,,,,,,2024-03-22,1,,,,,ケイアンドケイプロダクツ,0
384,2012701018144,新規,0,2024-03-22,2024-03-22,グロース不動産株式会社,,株式会社,東京都,小平市,鈴木町１丁目４５番地の１６,,13,211,1870011,,,,,,,2024-03-22,1,,,,,グロースフドウサン,0
390,2013301052244,新規,0,2024-03-22,2024-03-22,株式会社潤椿,,株式会社,東京都,豊島区,西池袋３丁目２５番８号相馬屋ビル６階,,13,116,1710021,,,,,,,2024-03-22,1,,,,,ジュンチュン,0
394,2020001156317,新規,0,2024-03-22,2024-03-22,株式会社エヌ・イーコーポレーション,,株式会社,神奈川県,川崎市中原区,木月３丁目１６番２４号,,14,133,2110025,,,,,,,2024-03-22,1,,,,,エヌイーコーポレーション,0
395,2020001156325,新規,0,2024-03-22,2024-03-22,株式会社ミライホームトレーディング,,株式会社,神奈川県,川崎市幸区,河原町１番地河原町団地１３－８４１,,14,132,2120007,,,,,,,2024-03-22,1,,,,,ミライホームトレーディング,0
396,2020001156374,新規,0,2024-03-22,2024-03-22,アクリ株式会社,,株式会社,神奈川県,横浜市都筑区,中川３丁目７番６号,,14,118,2240001,,,,,,,2024-03-22,1,,,,,アクリ,0
398,2020003025759,新規,0,2024-03-22,2024-03-22,合同会社ａｎｄ　Ｈａｒｕ,,合同会社,神奈川県,横浜市港南区,日野中央３丁目９－１－６０６,,14,111,2340053,,,,,,,2024-03-22,1,,,,,アンドハル,0
399,2020005016319,新規,0,2024-03-22,2024-03-22,一般社団法人日本心理的安全教育機構,,その他の設立登記法人,神奈川県,横浜市西区,浅間町１丁目４番３号ウィザードビル４０２,,14,103,2200072,,,,,,,2024-03-22,1,,,,,ニッポンシンリテキアンゼンキョウイクキコウ,0
409,2021003014289,新規,0,2024-03-22,2024-03-22,クロス４合同会社,,合同会社,神奈川県,藤沢市,藤沢２２３番地の２,,14,205,2510052,,,,,,,2024-03-22,1,,,,,クロスフォー,0
412,2030001159285,新規,0,2024-03-22,2024-03-22,シンプルテック株式会社,,株式会社,埼玉県,狭山市,大字北入曽１５０８番地の６１,,11,215,3501315,,,,,,,2024-03-22,1,,,,,シンプルテック,0
413,2030001159293,新規,0,2024-03-22,2024-03-22,ブライト・ライフ施設株式会社,,株式会社,埼玉県,さいたま市大宮区,宮町３丁目６３－２ＰａｒｋＭａｉｓｏｎ宮町Ｅａｓｔ２０１号室,,11,103,3300802,,,,,,,2024-03-22,1,,,,,ブライトライフシセツ,0
414,2030001159310,新規,0,2024-03-22,2024-03-22,株式会社とこなび,,株式会社,埼玉県,所沢市,東所沢和田３丁目２５番地の１１,,11,208,3590023,,,,,,,2024-03-22,1,,,,,トコナビ,0
415,2030001159335,新規,0,2024-03-22,2024-03-22,株式会社ＺＥＲＱ,,株式会社,埼玉県,本庄市,寿２丁目６番２４号,,11,211,3670023,,,,,,,2024-03-22,1,,,,,ザーク,0
416,2030001159343,新規,0,2024-03-22,2024-03-22,ワイズ株式会社,,株式会社,埼玉県,川口市,坂下町３丁目２６番６号,,11,203,3340003,,,,,,,2024-03-22,1,,,,,ワイズ,0
417,2030001159351,新規,0,2024-03-22,2024-03-22,ルーツ株式会社,,株式会社,埼玉県,所沢市,大字久米７９２番地の９,,11,208,3591131,,,,,,,2024-03-22,1,,,,,ルーツ,0
420,2030003023828,新規,0,2024-03-22,2024-03-22,アイトネット合同会社,,合同会社,埼玉県,草加市,新里町４３番地１０,,11,221,3400031,,,,,,,2024-03-22,1,,,,,アイトネット,0
421,2030003023844,新規,0,2024-03-22,2024-03-22,合同会社２ＹＲ,,合同会社,埼玉県,新座市,西堀２丁目１０番５０－１０号,,11,230,3520031,,,,,,,2024-03-22,1,,,,,ツーワイアール,0
422,2030003023852,新規,0,2024-03-22,2024-03-22,合同会社ＴｒａｐＳ,,合同会社,埼玉県,川口市,末広１丁目１６番－７－１０１７号リビオシティ川口元郷,,11,203,3320006,,,,,,,2024-03-22,1,,,,,トラップス,0
423,2030003023860,新規,0,2024-03-22,2024-03-22,わいんなじかん合同会社,,合同会社,埼玉県,草加市,稲荷３丁目１８番５号,,11,221,3400003,,,,,,,2024-03-22,1,,,,,ワインナジカン,0
428,2040001132704,新規,0,2024-03-22,2024-03-22,株式会社ＧｌｏｗＣｒａｆｔ,,株式会社,千葉県,我孫子市,天王台４丁目５番１６号パークハイツ我孫子台１１６号室,,12,222,2701143,,,,,,,2024-03-22,1,,,,,グロークラフト,0
429,2040001132712,新規,0,2024-03-22,2024-03-22,株式会社ＡＶＡＮＩ,,株式会社,千葉県,柏市,船戸１丁目１０番地３,,12,217,2770802,,,,,,,2024-03-22,1,,,,,アヴァニ,0
430,2040001132720,新規,0,2024-03-22,2024-03-22,株式会社ＷＩＳＤＯＭ,,株式会社,千葉県,船橋市,旭町２丁目１１番１９号,,12,204,2730041,,,,,,,2024-03-22,1,,,,,ウィズダム,0
431,2040001132729,新規,0,2024-03-22,2024-03-22,株式会社響リスクマネジメント,,株式会社,千葉県,君津市,外箕輪２丁目７番１号,,12,225,2991173,,,,,,,2024-03-22,1,,,,,ヒビキリスクマネジメント,0
432,2040001132753,新規,0,2024-03-22,2024-03-22,株式会社Ｐａｌｅｔｔｅ　Ｍｅｎｔａｌ　Ｃｏａｃｈｉｎｇ,,株式会社,千葉県,千葉市中央区,仁戸名町３４２番地５５,,12,101,2600801,,,,,,,2024-03-22,1,,,,,パレットメンタルコーチング,0
433,2040001132794,新規,0,2024-03-22,2024-03-22,株式会社リンクジャパン,,株式会社,千葉県,八千代市,八千代台北６丁目８番７号ＫＩＤＡビル３０２,,12,221,2760031,,,,,,,2024-03-22,1,,,,,リンクジャパン,0
434,2040001132803,新規,0,2024-03-22,2024-03-22,株式会社大久保興業,,株式会社,千葉県,野田市,山崎新町１１－１Ｃ棟,,12,208,2780029,,,,,,,2024-03-22,1,,,,,,0
436,2040003024577,新規,0,2024-03-22,2024-03-22,合同会社ＰＬＯＴＯ,,合同会社,千葉県,柏市,若柴１７８－４柏の葉キャンパス１４８街区２ショップ＆オフィス棟６階,,12,217,2770871,,,,,,,2024-03-22,1,,,,,プロト,0
437,2040003024602,新規,0,2024-03-22,2024-03-22,ＤＥＥＮ　ＧＲＯＵＰ合同会社,,合同会社,千葉県,東金市,上布田４１－４Ａ,,12,213,2830834,,,,,,,2024-03-22,1,,,,,ディーングループ,0
438,2040003024610,新規,0,2024-03-22,2024-03-22,利華商事合同会社,,合同会社,千葉県,松戸市,馬橋３２２５ガーラ・レジデンス馬橋２０１,,12,207,2710051,,,,,,,2024-03-22,1,,,,,リカショウジ,0
439,2040003024627,新規,0,2024-03-22,2024-03-22,Ｔｅｒｉｚｏｎ合同会社,,合同会社,千葉県,千葉市中央区,中央３丁目１６番１号デュオヒルズ千葉中央９０３号,,12,101,2600013,,,,,,,2024-03-22,1,,,,,テライゾン,0
440,2040005022323,新規,0,2024-03-22,2024-03-22,クボタ京葉ユニオン,,その他の設立登記法人,千葉県,船橋市,栄町２丁目１６番１号,,12,204,2730018,,,,,,,2024-03-22,1,,,,,クボタケイヨウユニオン,0
441,2050001054476,新規,0,2024-03-22,2024-03-22,エスクリエイト株式会社,,株式会社,茨城県,日立市,中成沢町２丁目７番２０号,,08,202,3160033,,,,,,,2024-03-22,1,,,,,エスクリエイト,0
444,2060001036928,新規,0,2024-03-22,2024-03-22,株式会社Ｍｅｒｒｙ　Ｆａｒｍ,,株式会社,栃木県,栃木市,都賀町家中２２９３番地１,,09,203,3280111,,,,,,,2024-03-22,1,,,,,メリーファーム,0
458,2100001037302,新規,0,2024-03-22,2024-03-22,株式会社ＦＯＲ,,株式会社,長野県,松本市,大字島内４８９７番地８１,,20,202,3900851,,,,,,,2024-03-22,1,,,,,フォー,0
460,2110001038266,新規,0,2024-03-22,2024-03-22,株式会社ローテックプラス,,株式会社,新潟県,南魚沼市,五日町５６４番地,,15,226,9497101,,,,,,,2024-03-22,1,,,,,ローテックプラス,0
462,2110003005289,新規,0,2024-03-22,2024-03-22,Ｍｙｏｐｏ合同会社,,合同会社,新潟県,妙高市,大字田切２１８番地１８０,,15,217,9492102,,,,,,,2024-03-22,1,,,,,ミョウポ,0
466,2120001263227,新規,0,2024-03-22,2024-03-22,エムビーエヌ株式会社,,株式会社,大阪府,大阪市北区,西天満５丁目１６番１５号エフワンビル２Ｆ,,27,127,5300047,,,,,,,2024-03-22,1,,,,,エムビーエヌ,0
467,2120001263251,新規,0,2024-03-22,2024-03-22,株式会社創,,株式会社,大阪府,大阪市大正区,北村２丁目５番１９－３０２号,,27,108,5510032,,,,,,,2024-03-22,1,,,,,ソウ,0
468,2120001263301,新規,0,2024-03-22,2024-03-22,株式会社上夲組,,株式会社,大阪府,大阪市大正区,小林東２丁目１０番７号,,27,108,5510011,,,,,,,2024-03-22,1,,,,,ウエモトグミ,0
469,2120001263318,新規,0,2024-03-22,2024-03-22,日本アセットリアルティ株式会社,,株式会社,大阪府,大阪市西区,南堀江３丁目１２番２１号,,27,106,5500015,,,,,,,2024-03-22,1,,,,,ニホンアセットリアルティ,0
470,2120001263359,新規,0,2024-03-22,2024-03-22,株式会社Ｗｅｌｉｎｏ,,株式会社,大阪府,大阪市淀川区,宮原１丁目１９－１１ネオハイツ新大阪５１１号室,,27,123,5320003,,,,,,,2024-03-22,1,,,,,ウェリノ,0
471,2120001263400,新規,0,2024-03-22,2024-03-22,ＫａＬａ株式会社,,株式会社,大阪府,大阪市生野区,生野東１丁目１３番８号,,27,116,5440025,,,,,,,2024-03-22,1,,,,,カラ,0
472,2120001263417,新規,0,2024-03-22,2024-03-22,三井株式会社,,株式会社,大阪府,大阪市港区,市岡１丁目７－２４,,27,107,5520012,,,,,,,2024-03-22,1,,,,,ミツイ,0
473,2120001263474,新規,0,2024-03-22,2024-03-22,株式会社Ｎ,,株式会社,大阪府,大阪市住吉区,山之内１丁目２４番２１－３０２号,,27,120,5580023,,,,,,,2024-03-22,1,,,,,エヌ,0
477,2120901048909,新規,0,2024-03-22,2024-03-22,株式会社Ｍｓａｌｏｎ,,株式会社,大阪府,茨木市,中村町２番２２号西田マンション３０８号,,27,211,5670822,,,,,,,2024-03-22,1,,,,,エムズサロン,0
478,2120901048917,新規,0,2024-03-22,2024-03-22,株式会社スマホＳＰ,,株式会社,大阪府,箕面市,船場東３丁目１１番１３－８０３号,,27,220,5620035,,,,,,,2024-03-22,1,,,,,スマホエスピー,0
479,2120901048925,新規,0,2024-03-22,2024-03-22,ひまわりホームコンサルタント株式会社,,株式会社,大阪府,吹田市,千里丘上１９番１１号,,27,205,5650811,,,,,,,2024-03-22,1,,,,,ヒマワリホームコンサルタント,0
483,2130001076652,新規,0,2024-03-22,2024-03-22,マテレッジ株式会社,,株式会社,京都府,綴喜郡宇治田原町,緑苑坂２２番地の２,,26,344,6100202,,,,,,,2024-03-22,1,,,,,マテレッジ,0
484,2130001076660,新規,0,2024-03-22,2024-03-22,株式会社ブラッシュアップ,,株式会社,京都府,京都市下京区,烏丸通仏光寺上る二帖半敷町６４６番地ダイマルヤ四条烏丸ビル４Ｂ,,26,106,6008412,,,,,,,2024-03-22,1,,,,,ブラッシュアップ,0
487,2140001133717,新規,0,2024-03-22,2024-03-22,コルトファーマ株式会社,,株式会社,兵庫県,西宮市,南郷町１２番３３号,,28,204,6620038,,,,,,,2024-03-22,1,,,,,コルトファーマ,0
488,2140001133733,新規,0,2024-03-22,2024-03-22,ＥＭ企画株式会社,,株式会社,兵庫県,明石市,大久保町西島１１７５番地の１,,28,203,6740065,,,,,,,2024-03-22,1,,,,,イーエムキカク,0
489,2140001133790,新規,0,2024-03-22,2024-03-22,株式会社ｍｙｓ,,株式会社,兵庫県,神戸市西区,井吹台東町４丁目１８番地１０－３０３号,,28,111,6512242,,,,,,,2024-03-22,1,,,,,マイズ,0
490,2140001133808,新規,0,2024-03-22,2024-03-22,株式会社Ｐｕｂｌｉｃ　Ｆｏｒｅｓｔ,,株式会社,兵庫県,西宮市,甲子園七番町１０－１１,,28,204,6638177,,,,,,,2024-03-22,1,,,,,パブリックフォレスト,0
491,2140003020260,新規,0,2024-03-22,2024-03-22,合同会社フィクシム,,合同会社,兵庫県,尼崎市,南塚口町４丁目１番１８号,,28,202,6610012,,,,,,,2024-03-22,1,,,,,フィクシム,0
492,2140003020293,新規,0,2024-03-22,2024-03-22,合同会社Ｖｏｉｄｓ,,合同会社,兵庫県,神戸市西区,美賀多台１丁目３番地,,28,111,6512277,,,,,,,2024-03-22,1,,,,,ヴォイズ,0
493,2140003020310,新規,0,2024-03-22,2024-03-22,長寿薬膳堂カフェ合同会社,,合同会社,兵庫県,神戸市東灘区,田中町１丁目１２番３号,,28,101,6580081,,,,,,,2024-03-22,1,,,,,チョウジュヤクゼンドウカフェ,0
494,2140003020319,新規,0,2024-03-22,2024-03-22,合同会社ワントライ,,合同会社,兵庫県,神戸市中央区,磯辺通１丁目１番１８号カサベラ国際プラザビル７０７,,28,110,6510084,,,,,,,2024-03-22,1,,,,,ワントライ,0
502,2160005011280,新規,0,2024-03-22,2024-03-22,社会福祉法人綺羅星,,その他の設立登記法人,滋賀県,栗東市,川辺２２８番９,,25,208,5203014,,,,,,,2024-03-22,1,,,,,,0
503,2170003002009,新規,0,2024-03-22,2024-03-22,合同会社たから舟,,合同会社,和歌山県,岩出市,岡田４４３番地の７,,30,209,6496222,,,,,,,2024-03-22,1,,,,,タカラブネ,0
504,2180001160625,新規,0,2024-03-22,2024-03-22,株式会社Ｅｎｖａｌｕｅ,,株式会社,愛知県,名古屋市中川区,かの里３丁目８０１番地,,23,110,4540957,,,,,,,2024-03-22,1,,,,,エンバリュー,0
505,2180001160682,新規,0,2024-03-22,2024-03-22,株式会社ＭＹＷＡＹ,,株式会社,愛知県,名古屋市昭和区,向山町２丁目３７番地の５,,23,107,4660829,,,,,,,2024-03-22,1,,,,,マイウェイ,0
506,2180001160716,新規,0,2024-03-22,2024-03-22,中原株式会社,,株式会社,愛知県,名古屋市南区,赤坪町２２７番地２号,,23,112,4570024,,,,,,,2024-03-22,1,,,,,ナカハラ,0
507,2180001160724,新規,0,2024-03-22,2024-03-22,鳳凰フェニックスエナジー株式会社,,株式会社,愛知県,知多市,大興寺字里９９番地の１,,23,224,4780022,,,,,,,2024-03-22,1,,,,,ホウオウフェニックスエナジー,0
508,2180301038439,新規,0,2024-03-22,2024-03-22,株式会社ＨＩ　Ｓｙｓｔｅｍ,,株式会社,愛知県,安城市,里町三郎４番地１１０,,23,212,4460001,,,,,,,2024-03-22,1,,,,,ハイシステム,0
509,2180303006047,新規,0,2024-03-22,2024-03-22,合同会社白シャープ,,合同会社,愛知県,刈谷市,野田町馬池２１番地１,,23,210,4480803,,,,,,,2024-03-22,1,,,,,シロシャープ,0
512,2200001042291,新規,0,2024-03-22,2024-03-22,株式会社ＳＵＮＮＹ,,株式会社,岐阜県,大垣市,本今３丁目６３番地ファーストステップＡ２０２号室,,21,202,5030931,,,,,,,2024-03-22,1,,,,,サニー,0
515,2220003003694,新規,0,2024-03-22,2024-03-22,まねこ合同会社,,合同会社,石川県,小松市,大領町そ４８‐４,,17,203,9230854,,,,,,,2024-03-22,1,,,,,マネコ,0
516,2220003003703,新規,0,2024-03-22,2024-03-22,合同会社Ｃｕｌｔｉｖａｔｅ,,合同会社,石川県,金沢市,新竪町３丁目４８番地１,,17,201,9200995,,,,,,,2024-03-22,1,,,,,カルチヴェイト,0
521,2240005015752,新規,0,2024-03-22,2024-03-22,一般社団法人みんなの防災倉庫普及協会,,その他の設立登記法人,広島県,広島市中区,橋本町９番７号,,34,101,7300015,,,,,,,2024-03-22,1,,,,,ミンナノボウサイソウコフキュウキョウカイ,0
525,2250005008904,新規,0,2024-03-22,2024-03-22,医療法人彩祥会,,その他の設立登記法人,山口県,岩国市,今津町１丁目９番２６号,,35,208,7400017,,,,,,,2024-03-22,1,,,,,サイヨウカイ,0
528,2260003004623,新規,0,2024-03-22,2024-03-22,合同会社エフケン,,合同会社,岡山県,岡山市南区,新保４０５番地１１,,33,104,7000945,,,,,,,2024-03-22,1,,,,,エフケン,0
531,2290001105098,新規,0,2024-03-22,2024-03-22,株式会社Ｓｅｒｉｓｉｎ,,株式会社,福岡県,糟屋郡粕屋町,大字仲原２５０９番地１,,40,349,8112304,,,,,,,2024-03-22,1,,,,,セリシン,0
532,2290001105189,新規,0,2024-03-22,2024-03-22,株式会社アイディケーション,,株式会社,福岡県,福岡市中央区,天神２丁目２番１２号Ｔ＆Ｊビルディング７Ｆ,,40,133,8100001,,,,,,,2024-03-22,1,,,,,アイディケーション,0
533,2290001105197,新規,0,2024-03-22,2024-03-22,株式会社Ｖｉｉ,,株式会社,福岡県,福岡市博多区,博多駅前１丁目２３番２号ＰａｔｋＦｒｏｎｔ博多駅前１丁目５Ｆ－Ｂ,,40,132,8120011,,,,,,,2024-03-22,1,,,,,ヴィー,0
534,2290003015089,新規,0,2024-03-22,2024-03-22,合同会社ヒューマンソリューションズ,,合同会社,福岡県,福岡市中央区,赤坂３丁目１３－３,,40,133,8100042,,,,,,,2024-03-22,1,,,,,ヒューマンソリューションズ,0
535,2290003015097,新規,0,2024-03-22,2024-03-22,ｎｉｊｉ合同会社,,合同会社,福岡県,福岡市城南区,樋井川７丁目１６番２０－２０１号ＫＹコーポ,,40,136,8140153,,,,,,,2024-03-22,1,,,,,ニジ,0
536,2290003015106,新規,0,2024-03-22,2024-03-22,合同会社テレワークス,,合同会社,福岡県,福岡市博多区,博多駅南５丁目４－１,,40,132,8120016,,,,,,,2024-03-22,1,,,,,テレワークス,0
537,2310001018917,新規,0,2024-03-22,2024-03-22,株式会社サッシカイア,,株式会社,長崎県,諫早市,城見町２０番１８－１３０１号,,42,204,8540005,,,,,,,2024-03-22,1,,,,,サッシカイア,0
540,2320001020368,新規,0,2024-03-22,2024-03-22,株式会社大分認証サービス,,株式会社,大分県,大分市,藤の台２１番地の１０,,44,201,8700957,,,,,,,2024-03-22,1,,,,,オオイタニンショウサービス,0
547,2340001026388,新規,0,2024-03-22,2024-03-22,株式会社志村商店,,株式会社,鹿児島県,大島郡龍郷町,龍郷２０７,,46,527,8940321,,,,,,,2024-03-22,1,,,,,シムラショウテン,0
554,2370001051094,新規,0,2024-03-22,2024-03-22,建設業合理化機構株式会社,,株式会社,宮城県,仙台市太白区,向山４丁目３０－１５,,04,104,9820841,,,,,,,2024-03-22,1,,,,,ケンセツギョウゴウリカキコウ,0
556,2370003006526,新規,0,2024-03-22,2024-03-22,合同会社Ｎドリームズ,,合同会社,宮城県,仙台市青葉区,一番町４丁目６番１号仙台第一生命タワービルディング１４階,,04,101,9800811,,,,,,,2024-03-22,1,,,,,エヌドリームズ,0
557,2370003006534,新規,0,2024-03-22,2024-03-22,合同会社Ｍａｓａｍｕｎｅ,,合同会社,宮城県,仙台市若林区,河原町１丁目３番６号７０５号室,,04,103,9840816,,,,,,,2024-03-22,1,,,,,マサムネ,0
562,2390003002218,新規,0,2024-03-22,2024-03-22,にじまる合同会社,,合同会社,山形県,酒田市,黒森乙５７,,06,204,9980111,,,,,,,2024-03-22,1,,,,,ニジマル,0
568,2420005007888,新規,0,2024-03-22,2024-03-22,一般社団法人Ａｒｔ　Ｍｕｓｉｃ　Ａｏｍｏｒｉ,,その他の設立登記法人,青森県,東津軽郡外ヶ浜町,字蟹田８５番地,,02,307,0301303,,,,,,,2024-03-22,1,,,,,アートミュージックアオモリ,0
569,2430001091357,新規,0,2024-03-22,2024-03-22,株式会社イロドア,,株式会社,北海道,札幌市中央区,南五条西１５丁目２－３リズム医大前５０３号室,,01,101,0640805,,,,,,,2024-03-22,1,,,,,イロドア,0
570,2430001091365,新規,0,2024-03-22,2024-03-22,株式会社ｔ‐Ｐａｒｅｔ,,株式会社,北海道,札幌市中央区,南五条西１８丁目３番８－３０２号,,01,101,0640805,,,,,,,2024-03-22,1,,,,,ティーパレット,0
571,2430001091373,新規,0,2024-03-22,2024-03-22,株式会社マネジメントケア道,,株式会社,北海道,札幌市北区,篠路二条３丁目３番１４号,,01,102,0028022,,,,,,,2024-03-22,1,,,,,マネジメントケアミチ,0
572,2430003016080,新規,0,2024-03-22,2024-03-22,合同会社Ｙプランニング,,合同会社,北海道,札幌市中央区,南十九条西１５丁目４番１１号,,01,101,0640919,,,,,,,2024-03-22,1,,,,,ワイプランニング,0
573,2430003016097,新規,0,2024-03-22,2024-03-22,合同会社フィックス,,合同会社,北海道,札幌市白石区,南郷通１丁目北２番１５号１０１号室,,01,104,0030023,,,,,,,2024-03-22,1,,,,,フィックス,0
574,2440001009408,新規,0,2024-03-22,2024-03-22,株式会社瑞宝,,株式会社,北海道,茅部郡森町,字新川町２４番地,,01,345,0492304,,,,,,,2024-03-22,1,,,,,ズイホウ,0
578,2460101007516,新規,0,2024-03-22,2024-03-22,Ｒｅｃｏｄｅｃ株式会社,,株式会社,北海道,帯広市,西十五条南１４丁目１番地１,,01,207,0800025,,,,,,,2024-03-22,1,,,,,リコデック,0
588,3010001243197,新規,0,2024-03-22,2024-03-22,株式会社ＣＨＡＮＣＥ,,株式会社,東京都,中央区,日本橋箱崎町３０番１号Ａ．ｉ．ＮｉｈｏｍｂａｓｈｉＥＡＳＴ１階,,13,102,1030015,,,,,,,2024-03-22,1,,,,,チャンス,0
589,3010001243255,新規,0,2024-03-22,2024-03-22,ＴｒｙＬｉｎｋ　Ｃｏｎｓｕｌｔｉｎｇ＆Ｅｎｔｅｒｔａｉｎｍｅｎｔ株式会社,,株式会社,東京都,中央区,日本橋室町１丁目１１番１２号日本橋水野ビル７階,,13,102,1030022,,,,,,,2024-03-22,1,,,,,トライリンクコンサルティングアンドエンターテイメント,0
590,3010001243338,新規,0,2024-03-22,2024-03-22,株式会社ＬＡＱＤＡ,,株式会社,東京都,中央区,銀座１丁目２２番１１号銀座大竹ビジデンス２Ｆ,,13,102,1040061,,,,,,,2024-03-22,1,,,,,ラクダ,0
591,3010001243354,新規,0,2024-03-22,2024-03-22,Ｂｒｉｄｇｅ　Ｇｒｏｕｐ株式会社,,株式会社,東京都,文京区,根津１丁目１番地１９号シティハイツ根津１０２号室,,13,105,1130031,,,,,,,2024-03-22,1,,,,,ブリッジグループ,0
593,3010003043257,新規,0,2024-03-22,2024-03-22,合同会社エボルブ,,合同会社,東京都,中央区,日本橋２丁目２番３号ＲＩＳＨＥビルＵＣＦ４階,,13,102,1030027,,,,,,,2024-03-22,1,,,,,エボルブ,0
594,3010003043281,新規,0,2024-03-22,2024-03-22,合同会社Ａｄａｍａｓ,,合同会社,東京都,千代田区,神田和泉町１番地６－１６ヤマトビル４０５,,13,101,1010024,,,,,,,2024-03-22,1,,,,,アダマス,0
603,3010401181179,新規,0,2024-03-22,2024-03-22,株式会社Ｇｏｏｄ　Ｂｅａｔ,,株式会社,東京都,港区,白金６丁目４番１５号,,13,103,1080072,,,,,,,2024-03-22,1,,,,,グッドビート,0
604,3010401181187,新規,0,2024-03-22,2024-03-22,株式会社エンジョイ・ライフ,,株式会社,東京都,港区,港南２丁目１６－１,,13,103,1080075,,,,,,,2024-03-22,1,,,,,,0
605,3010401181220,新規,0,2024-03-22,2024-03-22,株式会社縁実,,株式会社,東京都,港区,高輪１丁目２０番１３号,,13,103,1080074,,,,,,,2024-03-22,1,,,,,エミ,0
606,3010401181237,新規,0,2024-03-22,2024-03-22,株式会社和橋堂,,株式会社,東京都,港区,南青山３丁目１番３号,,13,103,1070062,,,,,,,2024-03-22,1,,,,,ワキョウドウ,0
610,3010403032025,新規,0,2024-03-22,2024-03-22,玲合同会社,,合同会社,東京都,港区,港南４丁目１番６－１５０４号,,13,103,1080075,,,,,,,2024-03-22,1,,,,,リョウ,0
611,3010501051892,新規,0,2024-03-22,2024-03-22,ブルボン株式会社,,株式会社,東京都,台東区,浅草１丁目２４－７,,13,106,1110032,,,,,,,2024-03-22,1,,,,,ブルボン,0
613,3010701045711,新規,0,2024-03-22,2024-03-22,株式会社ＬＩＭＭＹ,,株式会社,東京都,品川区,西五反田２丁目６－１５栄華ビル５階,,13,109,1410031,,,,,,,2024-03-22,1,,,,,リミー,0
614,3010701045736,新規,0,2024-03-22,2024-03-22,株式会社ジーク,,株式会社,東京都,品川区,平塚１丁目７－１６－３０９,,13,109,1420051,,,,,,,2024-03-22,1,,,,,ジーク,0
616,3010901054883,新規,0,2024-03-22,2024-03-22,株式会社ＡＭＡＤＥＵＳ,,株式会社,東京都,世田谷区,太子堂４丁目６番３－１１０２号,,13,112,1540004,,,,,,,2024-03-22,1,,,,,アマデウス,0
617,3010901054925,新規,0,2024-03-22,2024-03-22,ベホマ株式会社,,株式会社,東京都,世田谷区,北沢２丁目３０－８,,13,112,1550031,,,,,,,2024-03-22,1,,,,,ベホマ,0
619,3011001160696,新規,0,2024-03-22,2024-03-22,株式会社Ｓａｉｔａ　Ｐｌａｎｎｉｎｇ,,株式会社,東京都,渋谷区,神宮前６丁目２３番４号,,13,113,1500001,,,,,,,2024-03-22,1,,,,,サイタプランニング,0
620,3011001160705,新規,0,2024-03-22,2024-03-22,株式会社ＦＲＯＮＴＲＩＶＥＲ,,株式会社,東京都,渋谷区,広尾５丁目４番１６号,,13,113,1500012,,,,,,,2024-03-22,1,,,,,フロントリバー,0
621,3011001160762,新規,0,2024-03-22,2024-03-22,株式会社Ｂｌｕｅ　Ｍｏｏｎ,,株式会社,東京都,渋谷区,道玄坂１丁目１０番８号渋谷道玄坂東急ビル２Ｆ－Ｃ,,13,113,1500043,,,,,,,2024-03-22,1,,,,,ブルームーン,0
622,3011001160787,新規,0,2024-03-22,2024-03-22,株式会社エムズラボ,,株式会社,東京都,渋谷区,神宮前６丁目２８番９号東武ビル６階,,13,113,1500001,,,,,,,2024-03-22,1,,,,,エムズラボ,0
623,3011001160804,新規,0,2024-03-22,2024-03-22,株式会社エスマネージ,,株式会社,東京都,渋谷区,神宮前３丁目２５番６号,,13,113,1500001,,,,,,,2024-03-22,1,,,,,エスマネージ,0
624,3011003018744,新規,0,2024-03-22,2024-03-22,合同会社ミレーニア,,合同会社,東京都,目黒区,目黒本町６丁目１２番７号,,13,110,1520002,,,,,,,2024-03-22,1,,,,,ミレーニア,0
625,3011003018760,新規,0,2024-03-22,2024-03-22,ＧＲＡＦ合同会社,,合同会社,東京都,渋谷区,代々木３丁目５２番７号,,13,113,1510053,,,,,,,2024-03-22,1,,,,,グラフ,0
630,3011301029501,新規,0,2024-03-22,2024-03-22,株式会社ＭＡＩＮ’Ｓ,,株式会社,東京都,杉並区,下高井戸４丁目４番２号アクサス桜上水アジールコート９０１,,13,115,1680073,,,,,,,2024-03-22,1,,,,,メインズ,0
631,3011301029518,新規,0,2024-03-22,2024-03-22,Ｌ’ＯＥＩＬ　ＤＥ　ＴＯＫＹＯ　Ｊａｐａｎ株式会社,,株式会社,東京都,杉並区,浜田山１丁目３３－３０メゾンアンドー１１０,,13,115,1680065,,,,,,,2024-03-22,1,,,,,ロイデトウキョウジャパン,0
634,3011703003780,新規,0,2024-03-22,2024-03-22,Ｂｒａｂｂｉｔ合同会社,,合同会社,東京都,江戸川区,東瑞江１丁目３０番３号,,13,123,1320014,,,,,,,2024-03-22,1,,,,,ビーラビット,0
635,3011801043951,新規,0,2024-03-22,2024-03-22,株式会社ＭＭＧ,,株式会社,東京都,足立区,千住仲町１５番２－９０５号北千住ダイヤモンドマンション,,13,121,1200036,,,,,,,2024-03-22,1,,,,,エムエムジー,0
636,3011801043968,新規,0,2024-03-22,2024-03-22,アイティーテクソル株式会社,,株式会社,東京都,葛飾区,新宿６丁目２番１８－１６０７,,13,122,1250051,,,,,,,2024-03-22,1,,,,,アイティーテクソル,0
641,3012401041668,新規,0,2024-03-22,2024-03-22,株式会社Ｌｉｎｋ　Ｖｉｓｉｏｎ,,株式会社,東京都,武蔵野市,西久保２丁目２８－３ｋｏｎａｇａｉｈｏｕｓｅ１０６,,13,203,1800013,,,,,,,2024-03-22,1,,,,,リンクビジョン,0
642,3012701018151,新規,0,2024-03-22,2024-03-22,ＲＰＤコンサルティング株式会社,,株式会社,東京都,西東京市,東伏見５丁目４番２３号,,13,229,2020021,,,,,,,2024-03-22,1,,,,,アールピーディーコンサルティング,0
643,3012703002938,新規,0,2024-03-22,2024-03-22,ＰＩＦ合同会社,,合同会社,東京都,西東京市,新町５丁目４番１号,,13,229,2020023,,,,,,,2024-03-22,1,,,,,ピーアイエフ,0
644,3013301052243,新規,0,2024-03-22,2024-03-22,株式会社ＺＮＰマーケティング,,株式会社,東京都,豊島区,東池袋１丁目１８番１号,,13,116,1700013,,,,,,,2024-03-22,1,,,,,ゼットエヌピーマーケティング,0
647,3020001156150,新規,0,2024-03-22,2024-03-22,株式会社Ｎｅｗ　Ｄｅａｌ　Ｃｏｒｐｏｒａｔｉｏｎ,,株式会社,神奈川県,横浜市緑区,鴨居７丁目２７－２３,,14,113,2260003,,,,,,,2024-03-22,1,,,,,ニューディールコーポレーション,0
648,3020001156290,新規,0,2024-03-22,2024-03-22,株式会社Ｒｉｐ,,株式会社,神奈川県,横浜市鶴見区,梶山２丁目３８番１０号,,14,101,2300072,,,,,,,2024-03-22,1,,,,,リップ,0
649,3020001156299,新規,0,2024-03-22,2024-03-22,之樂堂株式会社,,株式会社,神奈川県,横浜市神奈川区,金港町５－１４クアドリフォリオ８階,,14,102,2210056,,,,,,,2024-03-22,1,,,,,コラクドウ,0
650,3020001156340,新規,0,2024-03-22,2024-03-22,ＲＥＧＲＵＳ　ＩＮＴＥＲＮＡＴＩＯＮＡＬ株式会社,,株式会社,神奈川県,横浜市神奈川区,三ツ沢下町２２－３－３,,14,102,2210852,,,,,,,2024-03-22,1,,,,,レグラスインターナショナル,0
651,3020001156373,新規,0,2024-03-22,2024-03-22,株式会社Ｃ４Ｂ,,株式会社,神奈川県,横浜市港北区,菊名７丁目１８番６号エンゼルハイム大倉山第二６０６,,14,109,2220011,,,,,,,2024-03-22,1,,,,,シーフォービー,0
655,3020005016318,新規,0,2024-03-22,2024-03-22,一般社団法人相続ＦＰ協会,,その他の設立登記法人,神奈川県,横浜市戸塚区,深谷町９１７番地４３,,14,110,2450067,,,,,,,2024-03-22,1,,,,,ソウゾクエフピーキョウカイ,0
658,3021001081743,新規,0,2024-03-22,2024-03-22,ビーラック株式会社,,株式会社,神奈川県,藤沢市,湘南台３丁目８－９ぱる湘南台Ｎｏｒｔｈ１,,14,205,2520804,,,,,,,2024-03-22,1,,,,,ビーラック,0
659,3021001081776,新規,0,2024-03-22,2024-03-22,Ｍａｒｕ株式会社,,株式会社,神奈川県,伊勢原市,高森１丁目９番地の９,,14,214,2591114,,,,,,,2024-03-22,1,,,,,マル,0
662,3021003014288,新規,0,2024-03-22,2024-03-22,合同会社コワッソン・パブリッシング,,合同会社,神奈川県,横須賀市,吉倉町２丁目５９番地グリーンコーポネモト１０１,,14,201,2380047,,,,,,,2024-03-22,1,,,,,コワッソンパブリッシング,0
663,3021003014296,新規,0,2024-03-22,2024-03-22,ＯＺＡＷＡ　ＭＡＮＡＧＥＭＥＮＴ合同会社,,合同会社,神奈川県,高座郡寒川町,一之宮１丁目２３番３７号,,14,321,2530111,,,,,,,2024-03-22,1,,,,,オザワマネジメント,0
669,3030001159276,新規,0,2024-03-22,2024-03-22,株式会社Ｙ・Ｆ・Ｃ,,株式会社,埼玉県,さいたま市岩槻区,大字飯塚１６５０番地１,,11,110,3390031,,,,,,,2024-03-22,1,,,,,ワイエフシー,0
670,3030001159301,新規,0,2024-03-22,2024-03-22,株式会社ｉｃｈｉｌｉｎｋ,,株式会社,埼玉県,所沢市,緑町４丁目３８番１９－３０１号,,11,208,3591111,,,,,,,2024-03-22,1,,,,,イチリンク,0
671,3030001159326,新規,0,2024-03-22,2024-03-22,株式会社ＡＳＸＥＥＤ,,株式会社,埼玉県,上尾市,仲町２丁目４－１２アルーム３０４,,11,219,3620035,,,,,,,2024-03-22,1,,,,,アスシード,0
672,3030001159334,新規,0,2024-03-22,2024-03-22,株式会社勇喜建設,,株式会社,埼玉県,春日部市,武里中野１１１番地９,,11,214,3440026,,,,,,,2024-03-22,1,,,,,ユウキ,0
673,3030001159342,新規,0,2024-03-22,2024-03-22,株式会社ＨＣＰ,,株式会社,埼玉県,加須市,下高柳１１７４番地７,,11,210,3470033,,,,,,,2024-03-22,1,,,,,エイチシーピー,0
674,3030001159350,新規,0,2024-03-22,2024-03-22,株式会社Ｈ．Ｙ　Ｃｏｒｐｏｒａｔｉｏｎ,,株式会社,埼玉県,さいたま市中央区,円阿弥５丁目８番５０－Ｇ１００４号,,11,105,3380007,,,,,,,2024-03-22,1,,,,,エイチワイコーポレーション,0
675,3030001159359,新規,0,2024-03-22,2024-03-22,株式会社ＥＲＳＴＥＲ,,株式会社,埼玉県,蕨市,塚越７丁目１８番３－１０５号,,11,223,3350002,,,,,,,2024-03-22,1,,,,,エァスタ,0
676,3030001159367,新規,0,2024-03-22,2024-03-22,ミヤビ産業株式会社,,株式会社,埼玉県,本庄市,前原２丁目１２番１５号,,11,211,3670047,,,,,,,2024-03-22,1,,,,,ミヤビサンギョウ,0
678,3030003023884,新規,0,2024-03-22,2024-03-22,合同会社文京産業医事務所,,合同会社,埼玉県,鴻巣市,原馬室２４７３－６,,11,217,3650043,,,,,,,2024-03-22,1,,,,,ブンキョウサンギョウイジムショ,0
679,3030005021597,新規,0,2024-03-22,2024-03-22,一般社団法人薬剤師倫理学会,,その他の設立登記法人,埼玉県,加須市,陽光台２丁目８４３番地３５,,11,210,3491204,,,,,,,2024-03-22,1,,,,,ヤクザイシリンリガッカイ,0
684,3040001132645,新規,0,2024-03-22,2024-03-22,株式会社Ｓｍｉｌｅ　ＬＯＣＯｔ,,株式会社,千葉県,流山市,おおたかの森北２丁目１７番地の８,,12,220,2700119,,,,,,,2024-03-22,1,,,,,スマイルロコ,0
685,3040001132703,新規,0,2024-03-22,2024-03-22,藤成株式会社,,株式会社,千葉県,柏市,藤ケ谷１５１０番地,,12,217,2770931,,,,,,,2024-03-22,1,,,,,フジナリ,0
686,3040001132711,新規,0,2024-03-22,2024-03-22,株式会社高田工業,00134153,株式会社,千葉県,佐倉市,本町１２２番地１１,,12,212,2850037,,,,,,,2024-03-22,1,,,,,タカダコウギョウ,0
687,3040001132744,新規,0,2024-03-22,2024-03-22,ＡＳｍｉｌｅホールディングス株式会社,,株式会社,千葉県,銚子市,松岸町３丁目３８３番地,,12,202,2880836,,,,,,,2024-03-22,1,,,,,アスミルホールディングス,0
688,3040001132769,新規,0,2024-03-22,2024-03-22,ｊｏｙ　ｒｕｌｅｒ株式会社,,株式会社,千葉県,千葉市中央区,浜野町７５１番地,,12,101,2600824,,,,,,,2024-03-22,1,,,,,ジョイルーラー,0
689,3040001132777,新規,0,2024-03-22,2024-03-22,共思株式会社,,株式会社,千葉県,佐倉市,宮前３丁目２２番地４ＧＡＲＤＥＮＥＬＥＧＡＮＴ３２０号室,,12,212,2850005,,,,,,,2024-03-22,1,,,,,キョウシ,0
690,3040001132785,新規,0,2024-03-22,2024-03-22,株式会社在原工業,,株式会社,千葉県,袖ケ浦市,蔵波台２丁目１７番地１１,,12,229,2990245,,,,,,,2024-03-22,1,,,,,アリハラコウギョウ,0
691,3040001132819,新規,0,2024-03-22,2024-03-22,株式会社ＢＵＤ　ＶＩＬＬＡＧＥ　ＪＡＰＡＮ,,株式会社,千葉県,柏市,鷲野谷５９４番地１,,12,217,2701443,,,,,,,2024-03-22,1,,,,,バドヴィレッジジャパン,0
695,3040003024568,新規,0,2024-03-22,2024-03-22,ｅｎｚｉｎｅ合同会社,,合同会社,千葉県,千葉市花見川区,幕張町１丁目７６７５番地２レクセルマンション幕張ブリーズ１０１０号,,12,102,2620032,,,,,,,2024-03-22,1,,,,,エンジン,0
696,3040003024576,新規,0,2024-03-22,2024-03-22,合同会社ＩＮＦＩＮＩＴＹ,,合同会社,千葉県,市川市,高谷１丁目２番１－１０９号,,12,203,2720013,,,,,,,2024-03-22,1,,,,,インフィニティ,0
700,3050001054475,新規,0,2024-03-22,2024-03-22,ＴＳ　ａｓｓｉｓｔ株式会社,,株式会社,茨城県,土浦市,中高津２丁目１１番５号,,08,203,3000815,,,,,,,2024-03-22,1,,,,,ティエスアシスト,0
701,3050001054491,新規,0,2024-03-22,2024-03-22,株式会社Ｌｅａ　Ｍａｋａｎａ,,株式会社,茨城県,つくば市,梅園２丁目５番地３梅園スクエアＢ００１,,08,220,3050045,,,,,,,2024-03-22,1,,,,,レアカマナ,0
702,3050003008207,新規,0,2024-03-22,2024-03-22,合同会社ＭＢＷ,,合同会社,茨城県,日立市,幸町１丁目２２番６－１１０６号,,08,202,3170073,,,,,,,2024-03-22,1,,,,,エムビーダブリュー,0
703,3050003008215,新規,0,2024-03-22,2024-03-22,合同会社ＬＩＡＮ,,合同会社,茨城県,水戸市,加倉井町１７９３番地の７,,08,201,3114163,,,,,,,2024-03-22,1,,,,,リアン,0
704,3050005013411,新規,0,2024-03-22,2024-03-22,医療法人つくば,,その他の設立登記法人,茨城県,つくば市,春日３丁目１８番地１,,08,220,3050821,,,,,,,2024-03-22,1,,,,,ツクバ,0
713,3080101024615,新規,0,2024-03-22,2024-03-22,日進商事株式会社,,株式会社,静岡県,沼津市,足高２９１番地２８,,22,203,4100001,,,,,,,2024-03-22,1,,,,,ニッシンショウジ,0
720,3100003007450,新規,0,2024-03-22,2024-03-22,合同会社ＳＥＥＤ　ＡＲＲＯＷＳ,,合同会社,長野県,長野市,吉田５丁目２０－４,,20,201,3810043,,,,,,,2024-03-22,1,,,,,シードアローズ,0
722,3110005017067,新規,0,2024-03-22,2024-03-22,一般社団法人あわいづ,,その他の設立登記法人,新潟県,東蒲原郡阿賀町,九島６５１野々花１号,,15,385,9594501,,,,,,,2024-03-22,1,,,,,アワイヅ,0
726,3120001263242,新規,0,2024-03-22,2024-03-22,株式会社竹川住建,,株式会社,大阪府,大阪市生野区,桃谷３丁目２３番３号,,27,116,5440034,,,,,,,2024-03-22,1,,,,,タケガワジュウケン,0
727,3120001263300,新規,0,2024-03-22,2024-03-22,株式会社ＢＵＺＺ,,株式会社,大阪府,大阪市都島区,中野町１丁目６番７－６０４号,,27,102,5340027,,,,,,,2024-03-22,1,,,,,バズ,0
728,3120001263309,新規,0,2024-03-22,2024-03-22,株式会社ＲＫ,,株式会社,大阪府,大阪市城東区,鴫野東２丁目２８番１０号スプランディッド京橋ＥＡＳＴ１１０１,,27,118,5360013,,,,,,,2024-03-22,1,,,,,アールケー,0
729,3120001263317,新規,0,2024-03-22,2024-03-22,ＧＥＮＥＲＡＴＥ株式会社,,株式会社,大阪府,大阪市西区,新町１丁目１４番２１－５１０２号,,27,106,5500013,,,,,,,2024-03-22,1,,,,,ジェネレイト,0
730,3120001263366,新規,0,2024-03-22,2024-03-22,株式会社ＲＡＯＮ‐Ｊ,,株式会社,大阪府,大阪市東成区,大今里３丁目９番２１号,,27,115,5370012,,,,,,,2024-03-22,1,,,,,ラオンジェイ,0
731,3120001263374,新規,0,2024-03-22,2024-03-22,株式会社ＮＥＸＴＨＯＭＥ,,株式会社,大阪府,大阪市都島区,友渕町２丁目８番７－１１０号,,27,102,5340016,,,,,,,2024-03-22,1,,,,,ネクストホーム,0
732,3120001263382,新規,0,2024-03-22,2024-03-22,株式会社ＡＬＢＡＬＩＺＥ,,株式会社,大阪府,大阪市西淀川区,佃３丁目１９番６８号,,27,113,5550001,,,,,,,2024-03-22,1,,,,,アルバライズ,0
733,3120003026201,新規,0,2024-03-22,2024-03-22,合同会社プンニャ,,合同会社,大阪府,大阪市城東区,野江２丁目１８番２５号,,27,118,5360006,,,,,,,2024-03-22,1,,,,,プンニャ,0
741,3130001076602,新規,0,2024-03-22,2024-03-22,株式会社ＣＯＶＯ,,株式会社,京都府,京都市中京区,河原町通三条上る恵比須町５３４番地３３エアポートビル１階西Ｂ号室,,26,104,6048005,,,,,,,2024-03-22,1,,,,,コーヴォ,0
745,3140001133708,新規,0,2024-03-22,2024-03-22,株式会社ＷＭＨ,,株式会社,兵庫県,神戸市垂水区,南多聞台６丁目９番２号,,28,108,6550043,,,,,,,2024-03-22,1,,,,,ダブリューエムエイチ,0
746,3140001133716,新規,0,2024-03-22,2024-03-22,株式会社シナジーＡプラス,,株式会社,兵庫県,宍粟市,山崎町須賀沢１３０５－１,,28,227,6712533,,,,,,,2024-03-22,1,,,,,シナジーエープラス,0
747,3140001133740,新規,0,2024-03-22,2024-03-22,株式会社ワイズサービス,,株式会社,兵庫県,神戸市東灘区,深江南町１丁目２番１０－９０５号,,28,101,6580022,,,,,,,2024-03-22,1,,,,,ワイズサービス,0
748,3140001133815,新規,0,2024-03-22,2024-03-22,オリジナル株式会社,,株式会社,兵庫県,神戸市東灘区,向洋町中１丁目１７アジア・ワン・センター３０２号室,,28,101,6580032,,,,,,,2024-03-22,1,,,,,オリジナル,0
750,3150005009572,新規,0,2024-03-22,2024-03-22,一般社団法人のせ川くれよん,,その他の設立登記法人,奈良県,吉野郡野迫川村,大字中３６９番地,,29,447,6370424,,,,,,,2024-03-22,1,,,,,ノセガワクレヨン,0
759,3180001160558,新規,0,2024-03-22,2024-03-22,株式会社Ｍトレーディング,,株式会社,愛知県,名古屋市瑞穂区,田辺通６丁目１番,,23,108,4670027,,,,,,,2024-03-22,1,,,,,エムトレーディング,0
760,3180001160590,新規,0,2024-03-22,2024-03-22,株式会社ｐｌｕｓ　Ａ,,株式会社,愛知県,名古屋市中川区,柳堀町１３番８号,,23,110,4540006,,,,,,,2024-03-22,1,,,,,プラスエー,0
761,3180001160599,新規,0,2024-03-22,2024-03-22,ＫＡＷＡＧＵＣＨＩホールディングス株式会社,,株式会社,愛知県,春日井市,篠木町１丁目４０番地,,23,206,4860851,,,,,,,2024-03-22,1,,,,,カワグチホールディングス,0
762,3180001160616,新規,0,2024-03-22,2024-03-22,株式会社ＹＹＤＳ,,株式会社,愛知県,名古屋市港区,藤高１丁目１８番地,,23,111,4550854,,,,,,,2024-03-22,1,,,,,ワイワイディーエス,0
763,3180001160624,新規,0,2024-03-22,2024-03-22,クリエイト‐イグザｃｏ．ｌｔｄ株式会社,,株式会社,愛知県,名古屋市天白区,島田４丁目２２０３番地の１（カーサ天白島田１０２号）,,23,116,4680056,,,,,,,2024-03-22,1,,,,,クリエイトハイフンイグザシーオードットエルティーディー,0
764,3180001160673,新規,0,2024-03-22,2024-03-22,ＲＭＫシステム株式会社,,株式会社,愛知県,名古屋市東区,車道町２丁目３２番地の３,,23,102,4610036,,,,,,,2024-03-22,1,,,,,アールエムケーシステム,0
765,3180001160715,新規,0,2024-03-22,2024-03-22,明るい空株式会社,,株式会社,愛知県,名古屋市中川区,法華２丁目６３番地,,23,110,4540933,,,,,,,2024-03-22,1,,,,,アカルイソラ,0
771,3180003026518,新規,0,2024-03-22,2024-03-22,合同会社グローバルエージェント,,合同会社,愛知県,名古屋市中区,大須１丁目２４番４５号藤和シティホームズ大須７０１号,,23,106,4600011,,,,,,,2024-03-22,1,,,,,グローバルエージェント,0
772,3180005020551,新規,0,2024-03-22,2024-03-22,一般社団法人日本自閉症サポート協会ＡＭＵＳＭＡ,,その他の設立登記法人,愛知県,愛知郡東郷町,三ツ池４丁目２番地４,,23,302,4700164,,,,,,,2024-03-22,1,,,,,ニホンジヘイショウサポートキョウカイアムスマ,0
773,3180301038438,新規,0,2024-03-22,2024-03-22,株式会社ＦＯＣＵＳ,,株式会社,愛知県,豊橋市,一色町字一色上３２番地５,,23,201,4418148,,,,,,,2024-03-22,1,,,,,フォーカス,0
774,3180301038446,新規,0,2024-03-22,2024-03-22,株式会社ノームコア,,株式会社,愛知県,安城市,和泉町南本郷３３３番地１,,23,212,4441221,,,,,,,2024-03-22,1,,,,,ノームコア,0
775,3180303006046,新規,0,2024-03-22,2024-03-22,合同会社福々堂,,合同会社,愛知県,新城市,杉山字四ツ谷２０番地１２,,23,221,4411341,,,,,,,2024-03-22,1,,,,,フクフクドウ,0
783,3220003003702,新規,0,2024-03-22,2024-03-22,合同会社貴咲,,合同会社,石川県,金沢市,しじま台１丁目２番地２３,,17,201,9218132,,,,,,,2024-03-22,1,,,,,タカショウ,0
785,3240001062946,新規,0,2024-03-22,2024-03-22,株式会社Ｐｌａｎｔｓ　Ｐｌａｎ,,株式会社,広島県,福山市,神辺町川南５５２番地１－Ａ,,34,207,7210000,,,,,,,2024-03-22,1,,,,,プランツプラン,0
786,3240001062979,新規,0,2024-03-22,2024-03-22,株式会社メガアース,,株式会社,広島県,広島市安佐南区,祇園３丁目２２番１号,,34,105,7310138,,,,,,,2024-03-22,1,,,,,メガアース,0
787,3240001062987,新規,0,2024-03-22,2024-03-22,株式会社ＭＯ‐ＭＯ‐ＭＩＬＫ,,株式会社,広島県,広島市安佐北区,白木町大字三田４８２７番地１,,34,106,7391521,,,,,,,2024-03-22,1,,,,,モーモーミルク,0
789,3240003006579,新規,0,2024-03-22,2024-03-22,合同会社ｌｅｇａｔｏ,,合同会社,広島県,福山市,西町１丁目１番１号エフピコＲｉＭ１階コワーキングスペースｔｏｖｉｏ内,,34,207,7200067,,,,,,,2024-03-22,1,,,,,レガート,0
790,3240003006587,新規,0,2024-03-22,2024-03-22,合同会社Ｉｎｆｉｎｉｔｙ,,合同会社,広島県,広島市安芸区,瀬野町２６０４番地,,34,107,7390312,,,,,,,2024-03-22,1,,,,,インフィニティー,0
795,3290001105064,新規,0,2024-03-22,2024-03-22,Ｐｒｉｎｃｅｓｓ．Ｔｒｅｅ株式会社,,株式会社,福岡県,朝倉市,堤１１６４番地１,,40,228,8380062,,,,,,,2024-03-22,1,,,,,プリンセスドットツリー,0
796,3290001105089,新規,0,2024-03-22,2024-03-22,株式会社Ｒｏｏｔｓ,,株式会社,福岡県,福岡市城南区,別府３丁目９番３５－７０３号,,40,136,8140104,,,,,,,2024-03-22,1,,,,,ルーツ,0
797,3290001105130,新規,0,2024-03-22,2024-03-22,株式会社Ｓｈｕｎａ,,株式会社,福岡県,糸島市,志摩岐志１５２５番地１,,40,230,8191334,,,,,,,2024-03-22,1,,,,,シュナ,0
798,3290001105188,新規,0,2024-03-22,2024-03-22,株式会社ＮＮｃｌｏｕｄ,,株式会社,福岡県,福岡市中央区,天神２丁目２番１２号Ｔ＆Ｊビルディング７Ｆ,,40,133,8100001,,,,,,,2024-03-22,1,,,,,エヌエヌクラウド,0
799,3290001105196,新規,0,2024-03-22,2024-03-22,ＳＥＮＴＥＲ株式会社,,株式会社,福岡県,福岡市博多区,冷泉町１０－２３博多冷泉町ビル２階,,40,132,8120039,,,,,,,2024-03-22,1,,,,,センター,0
808,3310001018916,新規,0,2024-03-22,2024-03-22,ＢＯＢ株式会社,,株式会社,長崎県,対馬市,上県町伊奈１２６１番地,,42,209,8171532,,,,,,,2024-03-22,1,,,,,ビオビ,0
813,3330003010274,新規,0,2024-03-22,2024-03-22,合同会社田村工業,,合同会社,熊本県,菊池市,西迫間１２５番地７,,43,210,8611685,,,,,,,2024-03-22,1,,,,,タムラコウギョウ,0
814,3330005010768,新規,0,2024-03-22,2024-03-22,ＮＰＯ法人菊池大学,,その他の設立登記法人,熊本県,菊池市,今７２５番地,,43,210,8611303,,,,,,,2024-03-22,1,,,,,,0
815,3340001026387,新規,0,2024-03-22,2024-03-22,株式会社Ｓｔｏｋｅｄ　Ｓｔａｔｉｏｎ,,株式会社,鹿児島県,大島郡龍郷町,赤尾木２６番地,,46,527,8940411,,,,,,,2024-03-22,1,,,,,ストークステーション,0
826,3370001051093,新規,0,2024-03-22,2024-03-22,株式会社ノーザンヴィレッジ,,株式会社,宮城県,大崎市,鳴子温泉字新屋敷３３番地,,04,215,9896822,,,,,,,2024-03-22,1,,,,,ノーザンヴィレッジ,0
827,3370003006525,新規,0,2024-03-22,2024-03-22,オリオン合同会社,,合同会社,宮城県,名取市,相互台４丁目９番地の１,,04,207,9811246,,,,,,,2024-03-22,1,,,,,オリオン,0
832,3380001034386,新規,0,2024-03-22,2024-03-22,株式会社並木の杜,,株式会社,福島県,いわき市,平字小太郎町１番地の３・２Ｆ,,07,204,9708026,,,,,,,2024-03-22,1,,,,,ナミキノモリ,0
843,3430001091323,新規,0,2024-03-22,2024-03-22,株式会社Ｆｅｍｔｅｃｈｓ,,株式会社,北海道,恵庭市,黄金中央５丁目１９６番地の１北海道文教大学内５０研究室,,01,231,0611449,,,,,,,2024-03-22,1,,,,,フェムテェックス,0
844,3430001091331,新規,0,2024-03-22,2024-03-22,株式会社北洋電設,,株式会社,北海道,札幌市西区,八軒九条西９丁目１番５１号,,01,107,0630849,,,,,,,2024-03-22,1,,,,,ホクヨウデンセツ,0
845,3430001091348,新規,0,2024-03-22,2024-03-22,株式会社ＭＹ電設,,株式会社,北海道,札幌市白石区,北郷五条７丁目２－７ＣｈｏｕＣｈｏｕ北郷５７　２０２,,01,104,0030835,,,,,,,2024-03-22,1,,,,,マイデンセツ,0
846,3430001091356,新規,0,2024-03-22,2024-03-22,株式会社ＳｏｕｔｈＯｃｅａｎＧｒａｃｅ,,株式会社,北海道,札幌市北区,北二十条西４丁目２－１９アクシルコート１階,,01,102,0010020,,,,,,,2024-03-22,1,,,,,サウスオーシャングレース,0
847,3430001091372,新規,0,2024-03-22,2024-03-22,株式会社ＮＯＴ　ＡＴ　ＡＬＬ,,株式会社,北海道,苫小牧市,啓北町２丁目９番２３号,,01,213,0530854,,,,,,,2024-03-22,1,,,,,ノットアットオール,0
848,3430001091380,新規,0,2024-03-22,2024-03-22,やまのアイズ株式会社,,株式会社,北海道,札幌市北区,北九条西４丁目７番地４エルムビル８階Ｂ－４号室,,01,102,0600809,,,,,,,2024-03-22,1,,,,,ヤマノアイズ,0
849,3430003016088,新規,0,2024-03-22,2024-03-22,合同会社ＭＥＲＩＭＥＲＯ,,合同会社,北海道,札幌市豊平区,豊平四条１２丁目３番１３－５０３,,01,105,0620904,,,,,,,2024-03-22,1,,,,,メリメロ,0
850,3430003016096,新規,0,2024-03-22,2024-03-22,合同会社ＭＲＨコネクト,,合同会社,北海道,札幌市北区,北三十七条西８丁目２－３０－４１１,,01,102,0010037,,,,,,,2024-03-22,1,,,,,エムアールエイチコネクト,0
853,3460101007515,新規,0,2024-03-22,2024-03-22,株式会社Ｎ３ｕｎｌｉｍｉｔｅｄ,,株式会社,北海道,河東郡音更町,南鈴蘭北３丁目５番地６,,01,631,0800311,,,,,,,2024-03-22,1,,,,,エヌサンアンリミテッド,0
854,3460105002280,新規,0,2024-03-22,2024-03-22,医療法人信仁会,,その他の設立登記法人,北海道,帯広市,東一条南６丁目２番地４川村ビル２階,,01,207,0800801,,,,,,,2024-03-22,1,,,,,シンジンカイ,0
855,3460301005203,新規,0,2024-03-22,2024-03-22,株式会社マツモト,,株式会社,北海道,紋別郡遠軽町,生田原八重２１８番地の１,,01,555,0990703,,,,,,,2024-03-22,1,,,,,マツモト,0
868,4010001243171,新規,0,2024-03-22,2024-03-22,株式会社３．Ｒ,,株式会社,東京都,中央区,銀座１丁目２２番１１号銀座大竹ビジデンス２Ｆ,,13,102,1040061,,,,,,,2024-03-22,1,,,,,サンドットアール,0
869,4010003043280,新規,0,2024-03-22,2024-03-22,合同会社ＥＸ　Ｄｅｓｉｇｎ＆Ｒｅｓｅａｒｃｈ,,合同会社,東京都,中央区,銀座１丁目２２番１１号銀座大竹ビジデンス２階,,13,102,1040061,,,,,,,2024-03-22,1,,,,,エクスデザインアンドリサーチ,0
878,4010401181070,新規,0,2024-03-22,2024-03-22,ＭＡＳＡ＆ＣＯＭＰＡＮＹ株式会社,,株式会社,東京都,港区,南麻布５丁目１４番４－５０２号,,13,103,1060047,,,,,,,2024-03-22,1,,,,,マサアンドカンパニー,0
879,4010401181186,新規,0,2024-03-22,2024-03-22,株式会社Ｐｒｏｆｔ,,株式会社,東京都,港区,南青山３丁目１番３６号青山丸竹ビル６Ｆ,,13,103,1070062,,,,,,,2024-03-22,1,,,,,プロフト,0
880,4010401181228,新規,0,2024-03-22,2024-03-22,株式会社博士ネット,,株式会社,東京都,港区,新橋１丁目１２番９号,,13,103,1050004,,,,,,,2024-03-22,1,,,,,ハカセネット,0
881,4010403032098,新規,0,2024-03-22,2024-03-22,合同会社ＫＷＳ,,合同会社,東京都,港区,南青山２丁目３番３号パークコート青山ザタワー１３０４,,13,103,1070062,,,,,,,2024-03-22,1,,,,,ケーダブリューエス,0
882,4010403032222,新規,0,2024-03-22,2024-03-22,合同会社ハルカミライ,,合同会社,東京都,港区,芝大門１丁目２－２２－６０４,,13,103,1050012,,,,,,,2024-03-22,1,,,,,ハルカミライ,0
884,4010501051974,新規,0,2024-03-22,2024-03-22,株式会社Ｋ’ｓ　ＬＩＳＥ,,株式会社,東京都,台東区,上野２丁目１０番４号４Ｆ－Ｅ,,13,106,1100005,,,,,,,2024-03-22,1,,,,,ケーズライズ,0
886,4010601064876,新規,0,2024-03-22,2024-03-22,株式会社スカイ運送,,株式会社,東京都,墨田区,東墨田１丁目３番３号,,13,107,1310042,,,,,,,2024-03-22,1,,,,,スカイウンソウ,0
889,4010703007106,新規,0,2024-03-22,2024-03-22,ケーケーコンサルティング合同会社,,合同会社,東京都,品川区,東大井１丁目１１番２５－１５１８,,13,109,1400011,,,,,,,2024-03-22,1,,,,,ケーケーコンサルティング,0
892,4010903008911,新規,0,2024-03-22,2024-03-22,ｙ’ｏｎｅ合同会社,,合同会社,東京都,世田谷区,尾山台３丁目１８－６,,13,112,1580086,,,,,,,2024-03-22,1,,,,,ユーワン,0
894,4011001160547,新規,0,2024-03-22,2024-03-22,株式会社Ｈｉｓｔｏｒｉｅ,,株式会社,東京都,渋谷区,神宮前６丁目２３番４号桑野ビル２階,,13,113,1500001,,,,,,,2024-03-22,1,,,,,ヒストリエ,0
895,4011001160695,新規,0,2024-03-22,2024-03-22,株式会社Ｋ‐ｎｅｒｄ,,株式会社,東京都,渋谷区,恵比寿西２丁目４番８号ウィンド恵比寿ビル８Ｆ,,13,113,1500021,,,,,,,2024-03-22,1,,,,,ケーナード,0
896,4011001160704,新規,0,2024-03-22,2024-03-22,株式会社ＩＲＩＳ．,,株式会社,東京都,渋谷区,道玄坂２丁目１９番３号ライオンズマンション道玄坂５０８,,13,113,1500043,,,,,,,2024-03-22,1,,,,,アイリス,0
897,4011001160720,新規,0,2024-03-22,2024-03-22,ＷＩＮＣＡＲ　ＡＳＩＡ株式会社,,株式会社,東京都,目黒区,下目黒３丁目１０番３６号,,13,110,1530064,,,,,,,2024-03-22,1,,,,,ウィンカーアジア,0
898,4011001160761,新規,0,2024-03-22,2024-03-22,株式会社ＣＯＣＯＳＩＣａ,,株式会社,東京都,渋谷区,円山町１０番１６号,,13,113,1500044,,,,,,,2024-03-22,1,,,,,ココシカ,0
899,4011001160794,新規,0,2024-03-22,2024-03-22,ＩＣＶゼットメディア株式会社,,株式会社,東京都,渋谷区,代々木２丁目２３番地１号,,13,113,1510053,,,,,,,2024-03-22,1,,,,,アイシーブイゼットメディア,0
901,4011003018710,新規,0,2024-03-22,2024-03-22,合同会社ＲＥＶＩＵＳ,,合同会社,東京都,目黒区,下目黒１丁目３番２－２０２号,,13,110,1530064,,,,,,,2024-03-22,1,,,,,レビウス,0
902,4011003018727,新規,0,2024-03-22,2024-03-22,合同会社ＹＭＭ,,合同会社,東京都,渋谷区,宇田川町３番１４－１４０２号,,13,113,1500042,,,,,,,2024-03-22,1,,,,,ワイエムエム,0
903,4011003018751,新規,0,2024-03-22,2024-03-22,合同会社Ｌｉｆｅ‐ＦＵＮ,,合同会社,東京都,渋谷区,神宮前６丁目２３番４号桑野ビル２Ｆ,,13,113,1500001,,,,,,,2024-03-22,1,,,,,ライフファン,0
909,4011201025343,新規,0,2024-03-22,2024-03-22,株式会社Ｎｏｔａｂｌｅ　Ｋｎｏｗｌｅｄｇｅ,,株式会社,東京都,中野区,鷺宮４丁目１４番５号,,13,114,1650032,,,,,,,2024-03-22,1,,,,,ノータブルナレッジ,0
912,4011403004310,新規,0,2024-03-22,2024-03-22,合同会社リビルド,,合同会社,東京都,板橋区,小茂根３丁目８番１１号,,13,119,1730037,,,,,,,2024-03-22,1,,,,,リビルド,0
916,4011605002574,新規,0,2024-03-22,2024-03-22,石神井福音教会,,その他の設立登記法人,東京都,練馬区,下石神井４丁目２１番１６号,,13,120,1770042,,,,,,,2024-03-22,1,,,,,シャクジイフクインキョウカイ,0
918,4011701027120,新規,0,2024-03-22,2024-03-22,株式会社ＴＭＧ,,株式会社,東京都,江戸川区,西瑞江３丁目３５,,13,123,1320015,,,,,,,2024-03-22,1,,,,,ティーエムジー,0
919,4011801043950,新規,0,2024-03-22,2024-03-22,株式会社ＴＥＭＡＮＥＫＩ,,株式会社,東京都,足立区,梅田８丁目１４番２－１２０９号,,13,121,1230851,,,,,,,2024-03-22,1,,,,,テマネキ,0
920,4011801043959,新規,0,2024-03-22,2024-03-22,株式会社Ｖｉｖｉｄ,,株式会社,東京都,足立区,佐野２丁目３９番４号,,13,121,1210053,,,,,,,2024-03-22,1,,,,,ヴィヴィッド,0
921,4011801043967,新規,0,2024-03-22,2024-03-22,株式会社ＳｉｘＦｉｖｅ,,株式会社,東京都,葛飾区,東新小岩１丁目４番１号太田ビル１階,,13,122,1240023,,,,,,,2024-03-22,1,,,,,シックスファイブ,0
927,4012405004959,新規,0,2024-03-22,2024-03-22,一般社団法人アップシー,,その他の設立登記法人,東京都,府中市,若松町２丁目１１番地の６,,13,206,1830005,,,,,,,2024-03-22,1,,,,,アップシー,0
928,4012701018150,新規,0,2024-03-22,2024-03-22,株式会社サンアイズユー,,株式会社,東京都,西東京市,柳沢２丁目１番１６号,,13,229,2020022,,,,,,,2024-03-22,1,,,,,サンアイズユー,0
930,4012703002937,新規,0,2024-03-22,2024-03-22,Ｌａｎｋａ合同会社,,合同会社,東京都,西東京市,芝久保町４丁目１２番４８号,,13,229,1880014,,,,,,,2024-03-22,1,,,,,ランカ,0
932,4013101009376,新規,0,2024-03-22,2024-03-22,株式会社ＳＩＥＬＯ,,株式会社,東京都,青梅市,塩船１６２番地の７,,13,205,1980011,,,,,,,2024-03-22,1,,,,,シエロ,0
939,4020001156323,新規,0,2024-03-22,2024-03-22,ＫＩＬＡ株式会社,,株式会社,神奈川県,横浜市中区,桜木町１丁目１－７ヒューリックみなとみらい１０階,,14,104,2310062,,,,,,,2024-03-22,1,,,,,キラ,0
940,4020001156364,新規,0,2024-03-22,2024-03-22,ココロクリエーション株式会社,,株式会社,神奈川県,横浜市西区,北幸１丁目１１番１号水信ビル７階,,14,103,2200004,,,,,,,2024-03-22,1,,,,,ココロクリエーション,0
942,4020003025765,新規,0,2024-03-22,2024-03-22,合同会社ＨＡＪＩＭＥ,,合同会社,神奈川県,川崎市多摩区,菅仙谷２丁目３４番２０－５０２号,,14,135,2140006,,,,,,,2024-03-22,1,,,,,ハジメ,0
944,4021001081767,新規,0,2024-03-22,2024-03-22,株式会社金田工業,,株式会社,神奈川県,藤沢市,葛原１１８４番地の１－Ａ,,14,205,2520822,,,,,,,2024-03-22,1,,,,,カネダコウギョウ,0
945,4021001081783,新規,0,2024-03-22,2024-03-22,株式会社ＴｅｃｈＲｏａｄ,,株式会社,神奈川県,座間市,座間１丁目３１００番地の５,,14,216,2520027,,,,,,,2024-03-22,1,,,,,テックロード,0
948,4021003014287,新規,0,2024-03-22,2024-03-22,合同会社ＨＥＹＬ,,合同会社,神奈川県,藤沢市,白旗１丁目１２番３１号,,14,205,2510051,,,,,,,2024-03-22,1,,,,,ヘイル,0
950,4030001159259,新規,0,2024-03-22,2024-03-22,株式会社ルーラルワン,,株式会社,埼玉県,さいたま市桜区,大字白鍬４２９番地２３,,11,106,3380811,,,,,,,2024-03-22,1,,,,,ルーラルワン,0
951,4030001159267,新規,0,2024-03-22,2024-03-22,株式会社浅古空調,,株式会社,埼玉県,さいたま市見沼区,大字中川２２番地３,,11,104,3370043,,,,,,,2024-03-22,1,,,,,アサコクウチョウ,0
952,4030001159275,新規,0,2024-03-22,2024-03-22,株式会社Ｆｏｏｔ　Ｔｒｙ,,株式会社,埼玉県,越谷市,蒲生寿町２番１０号ヴィルヌーブ南越谷Ａ－６１９,,11,222,3430836,,,,,,,2024-03-22,1,,,,,フットトライ,0
953,4030001159283,新規,0,2024-03-22,2024-03-22,株式会社ＴＥＮ,,株式会社,埼玉県,さいたま市緑区,美園３丁目１９番地２２レ・ユノディエールＵｒａｗａＡ－００３,,11,109,3360967,,,,,,,2024-03-22,1,,,,,テン,0
954,4030001159291,新規,0,2024-03-22,2024-03-22,ＯＫｅｏ株式会社,,株式会社,埼玉県,所沢市,寿町１０番１３－４０２号キャトル・フィーユ,,11,208,3591122,,,,,,,2024-03-22,1,,,,,オケオ,0
955,4030001159300,新規,0,2024-03-22,2024-03-22,株式会社アイコンサルティングオフィス,,株式会社,埼玉県,さいたま市中央区,上落合１丁目８番１８－１０９号,,11,105,3380001,,,,,,,2024-03-22,1,,,,,アイコンサルティングオフィス,0
956,4030001159309,新規,0,2024-03-22,2024-03-22,株式会社ゼニアール,,株式会社,埼玉県,川口市,朝日１丁目５－１,,11,203,3320001,,,,,,,2024-03-22,1,,,,,ゼニアール,0
957,4030001159317,新規,0,2024-03-22,2024-03-22,株式会社ニーナラボ,,株式会社,埼玉県,さいたま市桜区,大字神田６９０番地１,,11,106,3380812,,,,,,,2024-03-22,1,,,,,ニーナラボ,0
958,4030001159325,新規,0,2024-03-22,2024-03-22,軒昂株式会社,,株式会社,埼玉県,川口市,西川口２丁目６番１３号,,11,203,3320021,,,,,,,2024-03-22,1,,,,,ケンゴウ,0
959,4030001159333,新規,0,2024-03-22,2024-03-22,株式会社ＢＵＬＬＰＥＮ,,株式会社,埼玉県,さいたま市北区,吉野町１丁目４３７－３Ｋ’ｓ１０５,,11,102,3310811,,,,,,,2024-03-22,1,,,,,ブルペン,0
960,4030001159341,新規,0,2024-03-22,2024-03-22,株式会社Ｎｅｘａｌｅｎｃｅ,,株式会社,埼玉県,川口市,大字芝６９４３サニーコーポ川口１０１,,11,203,3330866,,,,,,,2024-03-22,1,,,,,ネクサレンス,0
961,4030001159374,新規,0,2024-03-22,2024-03-22,株式会社ＣＬＡＲＵＳ,,株式会社,埼玉県,和光市,新倉２丁目３０番５３号,,11,229,3510115,,,,,,,2024-03-22,1,,,,,クラルス,0
963,4030003023842,新規,0,2024-03-22,2024-03-22,合同会社ＡＭＥＲＩＳ,,合同会社,埼玉県,草加市,栄町３丁目８番１６号シャテロハイム２０３号,,11,221,3400011,,,,,,,2024-03-22,1,,,,,エメリス,0
964,4030003023859,新規,0,2024-03-22,2024-03-22,合同会社ＧＬＯＲＹ,,合同会社,埼玉県,朝霞市,栄町２丁目５番３１号,,11,227,3510012,,,,,,,2024-03-22,1,,,,,グローリー,0
965,4040001132702,新規,0,2024-03-22,2024-03-22,株式会社２‐ＴＯＰ,,株式会社,千葉県,佐倉市,城８０９番地１１,,12,212,2850815,,,,,,,2024-03-22,1,,,,,ツートップ,0
966,4040001132719,新規,0,2024-03-22,2024-03-22,日本防カビセンター株式会社,,株式会社,千葉県,柏市,東上町１番２－２０１号,,12,217,2770011,,,,,,,2024-03-22,1,,,,,ニホンボウカビセンター,0
967,4040001132776,新規,0,2024-03-22,2024-03-22,ＷＹ．Ｈ株式会社,,株式会社,千葉県,佐倉市,宮前３丁目２２番地４ＧＡＲＤＥＮＥＬＥＧＡＮＴ２２０号室,,12,212,2850005,,,,,,,2024-03-22,1,,,,,ダブリューワイエイチ,0
968,4040001132792,新規,0,2024-03-22,2024-03-22,株式会社ＡＳＨＩＢＡＸ,,株式会社,千葉県,千葉市若葉区,御成台３丁目６番地１１,,12,104,2650077,,,,,,,2024-03-22,1,,,,,アシバックス,0
969,4040001132801,新規,0,2024-03-22,2024-03-22,株式会社ＣＡＲＡＶＡＮ　ＬＯＧＩＳＴＩＣＳ　ＪＡＰＡＮ,,株式会社,千葉県,習志野市,鷺沼台４丁目１１番２６号プラウド幕張本郷２０２号,,12,216,2750015,,,,,,,2024-03-22,1,,,,,キャラバンロジスティクスジャパン,0
970,4040003024575,新規,0,2024-03-22,2024-03-22,合同会社ロマン,,合同会社,千葉県,佐倉市,ユーカリが丘７丁目１５番５号,,12,212,2850858,,,,,,,2024-03-22,1,,,,,ロマン,0
971,4040003024609,新規,0,2024-03-22,2024-03-22,合同会社清雅閣,,合同会社,千葉県,千葉市中央区,長洲１丁目１３番１４号,,12,101,2600854,,,,,,,2024-03-22,1,,,,,セイガガク,0
976,4050001054482,新規,0,2024-03-22,2024-03-22,株式会社パロサント,,株式会社,茨城県,笠間市,笠間５３０番地１,,08,216,3091611,,,,,,,2024-03-22,1,,,,,パロサント,0
977,4050003008222,新規,0,2024-03-22,2024-03-22,合同会社木城緑化,,合同会社,茨城県,筑西市,二木成１４２９番地,,08,227,3080841,,,,,,,2024-03-22,1,,,,,キシロリョッカ,0
979,4050005013410,新規,0,2024-03-22,2024-03-22,医療法人社団三光会,,その他の設立登記法人,茨城県,龍ケ崎市,馴馬町２９７６番１,,08,208,3010004,,,,,,,2024-03-22,1,,,,,サンコウカイ,0
981,4060003004955,新規,0,2024-03-22,2024-03-22,Ｓ．Ｖ．ＪＡＰＡＮ　ＴＲＡＤＩＮＧ合同会社,,合同会社,栃木県,真岡市,若旅６６９番地３,,09,209,3214352,,,,,,,2024-03-22,1,,,,,エスブィジャパントレーディング,0
982,4070003005325,新規,0,2024-03-22,2024-03-22,合同会社ＢＬＯＯＭ,,合同会社,群馬県,前橋市,上小出町２丁目４２番地２コンパートメントアイビー１２０５号,,10,201,3710037,,,,,,,2024-03-22,1,,,,,ブルーム,0
993,4080401027077,新規,0,2024-03-22,2024-03-22,オシゴトシズオカ株式会社,,株式会社,静岡県,袋井市,旭町１丁目８番地の６,,22,216,4370015,,,,,,,2024-03-22,1,,,,,オシゴトシズオカ,0
996,4100001037300,新規,0,2024-03-22,2024-03-22,株式会社鬼笑園,,株式会社,長野県,飯山市,大字照里４０１番地,,20,213,3892413,,,,,,,2024-03-22,1,,,,,キショウエン,0
1000,4110005017066,新規,0,2024-03-22,2024-03-22,一般社団法人てとり,,その他の設立登記法人,新潟県,新発田市,新富町１丁目４－８,,15,206,9570017,,,,,,,2024-03-22,1,,,,,テトリ,0
1005,4120001263233,新規,0,2024-03-22,2024-03-22,株式会社ブルーアドバンス,,株式会社,大阪府,大阪市中央区,本町４丁目４番１７号ＲＥ－０１２ビル５０３,,27,128,5410053,,,,,,,2024-03-22,1,,,,,ブルーアドバンス,0
1006,4120001263241,新規,0,2024-03-22,2024-03-22,株式会社ｔｈｉｒｔｙ‐ｔｈｒｅｅ,,株式会社,大阪府,大阪市中央区,島之内１丁目８番８号６階,,27,128,5420082,,,,,,,2024-03-22,1,,,,,サーティースリー,0
1007,4120001263299,新規,0,2024-03-22,2024-03-22,Ｂｉｊｉｎ　Ｃａｒｅ　Ｊｐ株式会社,,株式会社,大阪府,大阪市平野区,加美西１丁目６番１８号,,27,126,5470005,,,,,,,2024-03-22,1,,,,,ビジンケアジェイピー,0
1008,4120001263308,新規,0,2024-03-22,2024-03-22,株式会社Ｓｅａ　ｈｏｒｓｅ,,株式会社,大阪府,大阪市北区,梅田１丁目２番２号大阪駅前第２ビル１２－１２,,27,127,5300001,,,,,,,2024-03-22,1,,,,,シーホース,0
1009,4120001263316,新規,0,2024-03-22,2024-03-22,株式会社Ｄ＆Ｄ．ＦＡＣＴＯＲＹ,,株式会社,大阪府,大阪市北区,西天満１丁目１１番２０－３０４号,,27,127,5300047,,,,,,,2024-03-22,1,,,,,ディーアンドディーファクトリー,0
1010,4120001263332,新規,0,2024-03-22,2024-03-22,株式会社Ｏｎｅ,,株式会社,大阪府,大阪市中央区,北浜３丁目２－２５京阪淀屋橋ビル８階,,27,128,5410041,,,,,,,2024-03-22,1,,,,,イチ,0
1011,4120001263340,新規,0,2024-03-22,2024-03-22,バディ株式会社,,株式会社,大阪府,大阪市淀川区,宮原１丁目１９番２３－５１７号,,27,123,5320003,,,,,,,2024-03-22,1,,,,,バディ,0
1012,4120001263349,新規,0,2024-03-22,2024-03-22,ＡＣＨＩＬＬＥＳ　ＳＯＬＵＴＩＯＮＳ株式会社,,株式会社,大阪府,大阪市中央区,南本町２丁目３番１２号３Ｆ,,27,128,5410054,,,,,,,2024-03-22,1,,,,,アキレスソリューションズ,0
1013,4120001263365,新規,0,2024-03-22,2024-03-22,ＤＲＯＰ　ＯＦ　ＲＡＩＮ株式会社,,株式会社,大阪府,大阪市東淀川区,上新庄２丁目１番３８号４階,,27,114,5330006,,,,,,,2024-03-22,1,,,,,ドロップオブレイン,0
1014,4120001263381,新規,0,2024-03-22,2024-03-22,株式会社Ｙｏｌｏ　Ｇｒｏｕｐ,,株式会社,大阪府,大阪市中央区,東心斎橋１丁目３番２２－６０２号,,27,128,5420083,,,,,,,2024-03-22,1,,,,,ヨログループ,0
1015,4120001263423,新規,0,2024-03-22,2024-03-22,株式会社ＡＫｓｔｒｅａｍ,,株式会社,大阪府,大阪市福島区,福島１丁目６－７－４Ｆ,,27,103,5530003,,,,,,,2024-03-22,1,,,,,エーケーストリーム,0
1018,4120003026209,新規,0,2024-03-22,2024-03-22,ＡＶＡＮＺＡＲＥ合同会社,,合同会社,大阪府,大阪市住吉区,苅田４丁目４番２１号,,27,120,5580011,,,,,,,2024-03-22,1,,,,,アヴァンツァーレ,0
1020,4120101069241,新規,0,2024-03-22,2024-03-22,株式会社Ｄｅｃｏｏ’ｓ,,株式会社,大阪府,堺市堺区,旭ヶ丘中町２丁１番１号,,27,141,5900808,,,,,,,2024-03-22,1,,,,,デコーズ,0
1022,4120901048915,新規,0,2024-03-22,2024-03-22,株式会社心花‐Ｓｈｉｎｋａ,,株式会社,大阪府,豊中市,永楽荘４丁目１１番２１号,,27,203,5600051,,,,,,,2024-03-22,1,,,,,シンカ,0
1023,4120901048948,新規,0,2024-03-22,2024-03-22,株式会社Ｔ．Ｎ開発,,株式会社,大阪府,茨木市,永代町５番阪急駅前ビル４０５号,,27,211,5670816,,,,,,,2024-03-22,1,,,,,ティエヌカイハツ,0
1025,4122001037914,新規,0,2024-03-22,2024-03-22,株式会社タカシマ,,株式会社,大阪府,東大阪市,高井田元町２丁目７－７,,27,227,5770054,,,,,,,2024-03-22,1,,,,,タカシマ,0
1026,4122003002833,新規,0,2024-03-22,2024-03-22,オサカベテクノ合同会社,,合同会社,大阪府,八尾市,刑部３丁目８番地の７,,27,212,5810015,,,,,,,2024-03-22,1,,,,,オサカベテクノ,0
1027,4130001076626,新規,0,2024-03-22,2024-03-22,株式会社Ｄｅｖｅｌｏｐ,,株式会社,京都府,長岡京市,馬場餅田８番地１,,26,209,6170828,,,,,,,2024-03-22,1,,,,,ディベロップ,0
1031,4130003009393,新規,0,2024-03-22,2024-03-22,合同会社Ｒａｆｆｉｎｅ,,合同会社,京都府,京都市下京区,七条通油小路東入大黒町２２７番地第２キョートビル４０２,,26,106,6008223,,,,,,,2024-03-22,1,,,,,ラフィネ,0
1035,4140001133707,新規,0,2024-03-22,2024-03-22,株式会社マイリフォーム,,株式会社,兵庫県,川西市,小戸２丁目３番１１－１０２号,,28,217,6660014,,,,,,,2024-03-22,1,,,,,マイリフォーム,0
1036,4140001133748,新規,0,2024-03-22,2024-03-22,にじいろハッピー株式会社,,株式会社,兵庫県,姫路市,大津区恵美酒町１丁目１０８番地２,,28,201,6711136,,,,,,,2024-03-22,1,,,,,ニジイロハッピー,0
1037,4140001133806,新規,0,2024-03-22,2024-03-22,株式会社イロカド,,株式会社,兵庫県,神戸市西区,伊川谷町有瀬８６１番地の２、７０２号,,28,111,6512113,,,,,,,2024-03-22,1,,,,,イロカド,0
1038,4140001133814,新規,0,2024-03-22,2024-03-22,喜悦株式会社,,株式会社,兵庫県,神戸市中央区,熊内町１丁目１－１５マンションガス灯１０３号室,,28,110,6510056,,,,,,,2024-03-22,1,,,,,キエツ,0
1045,4140003020309,新規,0,2024-03-22,2024-03-22,長寿薬膳堂グループ合同会社,,合同会社,兵庫県,神戸市東灘区,田中町３丁目４番２０号,,28,101,6580081,,,,,,,2024-03-22,1,,,,,チョウジュヤクゼンドウグループ,0
1052,4170001018062,新規,0,2024-03-22,2024-03-22,Ｌｕｘ株式会社,,株式会社,和歌山県,和歌山市,小雑賀２５７番地５,,30,201,6410007,,,,,,,2024-03-22,1,,,,,ルクス,0
1053,4170003002007,新規,0,2024-03-22,2024-03-22,合同会社ＭＣＤ,,合同会社,和歌山県,和歌山市,納定３５―３１ヴィレッタコート宮北Ｃ,,30,201,6408344,,,,,,,2024-03-22,1,,,,,エムシーディー,0
1056,4180001160697,新規,0,2024-03-22,2024-03-22,株式会社ＵＮＤＥＲＳＴＡＮＤ,,株式会社,愛知県,尾張旭市,東栄町４丁目５番地１,,23,226,4880011,,,,,,,2024-03-22,1,,,,,アンダースタンド,0
1057,4180001160714,新規,0,2024-03-22,2024-03-22,株式会社みずほ商店,,株式会社,愛知県,名古屋市瑞穂区,釜塚町１丁目７番地の３,,23,108,4670051,,,,,,,2024-03-22,1,,,,,ミズホショウテン,0
1060,4180301038437,新規,0,2024-03-22,2024-03-22,株式会社フロアクリエート,,株式会社,愛知県,豊川市,御津町御馬野添１０５番地１,,23,207,4410311,,,,,,,2024-03-22,1,,,,,フロアクリエート,0
1061,4180301038445,新規,0,2024-03-22,2024-03-22,株式会社Ｂｌｕｅ　Ｓｔａｒ,,株式会社,愛知県,豊田市,四郷町森前南７番地１,,23,211,4700373,,,,,,,2024-03-22,1,,,,,ブルースター,0
1062,4190001031212,新規,0,2024-03-22,2024-03-22,株式会社北川電設,,株式会社,三重県,四日市市,小林町３０１９番地５７８,,24,202,5100946,,,,,,,2024-03-22,1,,,,,キタガワデンセツ,0
1066,4200001042307,新規,0,2024-03-22,2024-03-22,株式会社愛永総建,,株式会社,岐阜県,瑞浪市,稲津町小里１８５８番地の２,,21,208,5096103,,,,,,,2024-03-22,1,,,,,アイエイソウケン,0
1070,4240001062986,新規,0,2024-03-22,2024-03-22,株式会社３ｒｄ　Ｐｌａｃｅ,,株式会社,広島県,広島市南区,宇品神田５丁目２５番２２号,,34,103,7340004,,,,,,,2024-03-22,1,,,,,サードプレイス,0
1072,4240003006578,新規,0,2024-03-22,2024-03-22,合同会社アティエス環境建築設計,,合同会社,広島県,東広島市,西条朝日町１番１４号みどりビル２階,,34,212,7390012,,,,,,,2024-03-22,1,,,,,アティエスカンキョウケンチクセッケイ,0
1074,4250001020563,新規,0,2024-03-22,2024-03-22,株式会社ＭＴＢホールディングス,,株式会社,山口県,下関市,吉見新町２丁目５番９号,,35,201,7596532,,,,,,,2024-03-22,1,,,,,エムティービーホールディングス,0
1077,4260001038869,新規,0,2024-03-22,2024-03-22,フレンドシップ株式会社,,株式会社,岡山県,津山市,上河原２０５番地８源津山ビル２階,,33,203,7080002,,,,,,,2024-03-22,1,,,,,フレンドシップ,0
1078,4260001038885,新規,0,2024-03-22,2024-03-22,株式会社中国リフォームサービス,,株式会社,岡山県,井原市,高屋町３０４７番地１,,33,207,7150024,,,,,,,2024-03-22,1,,,,,チュウゴクリフォームサービス,0
1079,4260005011327,新規,0,2024-03-22,2024-03-22,司法書士法人シンシア,,その他の設立登記法人,岡山県,津山市,椿高下４４番地２,,33,203,7080051,,,,,,,2024-03-22,1,,,,,シンシア,0
1080,4290001105030,新規,0,2024-03-22,2024-03-22,株式会社Ｈ２Ｋ２,,株式会社,福岡県,春日市,昇町３丁目１２１番地１アメニティ春日１０５号,,40,218,8160851,,,,,,,2024-03-22,1,,,,,エイチツーケーツー,0
1081,4290001105105,新規,0,2024-03-22,2024-03-22,株式会社Ｍｕｓｕｂｅｅ,,株式会社,福岡県,糸島市,前原西５丁目９番３８号,,40,230,8191117,,,,,,,2024-03-22,1,,,,,ムスビー,0
1082,4290001105179,新規,0,2024-03-22,2024-03-22,株式会社マルソ,,株式会社,福岡県,久留米市,野中町１３１８番地１２,,40,203,8390862,,,,,,,2024-03-22,1,,,,,マルソ,0
1083,4290003015095,新規,0,2024-03-22,2024-03-22,あさひ合同会社,,合同会社,福岡県,福岡市博多区,竹下４丁目１番３６－１００７号,,40,132,8120895,,,,,,,2024-03-22,1,,,,,アサヒ,0
1084,4290801030403,新規,0,2024-03-22,2024-03-22,株式会社ディーライン,,株式会社,福岡県,北九州市小倉南区,田原４丁目１４番１５号,,40,107,8000225,,,,,,,2024-03-22,1,,,,,ディーライン,0
1101,4350001018845,新規,0,2024-03-22,2024-03-22,株式会社黒乃鑑定,,株式会社,宮崎県,東諸県郡綾町,大字入野４４７６番地の１,,45,383,8801301,,,,,,,2024-03-22,1,,,,,,0
1104,4370001051101,新規,0,2024-03-22,2024-03-22,株式会社リスタート,,株式会社,宮城県,仙台市宮城野区,福室２丁目８番１７号福室マンション３１４号,,04,102,9830005,,,,,,,2024-03-22,1,,,,,リスタート,0
1107,4380001034369,新規,0,2024-03-22,2024-03-22,Ｂｒｅｚｅｌｉｃ株式会社,,株式会社,福島県,いわき市,常磐水野谷町亀ノ尾１００番地の３,,07,204,9728311,,,,,,,2024-03-22,1,,,,,ブレッツェリック,0
1113,4420003002897,新規,0,2024-03-22,2024-03-22,合同会社ＥＭＺＥＱ,,合同会社,青森県,上北郡七戸町,字寺裏４１番地８,,02,402,0392524,,,,,,,2024-03-22,1,,,,,エムゼック,0
1115,4430001091322,新規,0,2024-03-22,2024-03-22,株式会社ＵＭＡセラピー＆ウェルネス,,株式会社,北海道,恵庭市,黄金中央５丁目１９６番地の１,,01,231,0611449,,,,,,,2024-03-22,1,,,,,ウマセラピーアンドウェルネス,0
1116,4430001091339,新規,0,2024-03-22,2024-03-22,Ｐｅｏｐｌｅ　Ｔｅｃｈ　Ｕｎｉｔｅ株式会社,,株式会社,北海道,札幌市北区,新琴似九条９丁目９番１号,,01,102,0010909,,,,,,,2024-03-22,1,,,,,ピープルテックユナイト,0
1117,4430001091347,新規,0,2024-03-22,2024-03-22,Ｓｍｉｌｅ　Ｊｉｚｏ株式会社,,株式会社,北海道,砂川市,吉野一条南５丁目３６番地７０,,01,226,0730121,,,,,,,2024-03-22,1,,,,,スマイルジゾ,0
1118,4430001091355,新規,0,2024-03-22,2024-03-22,ＰｅａｃｅｆｕｌＶｉｓｉｏｎ株式会社,,株式会社,北海道,札幌市中央区,南一条西１６丁目１番地３２３春野ビル３Ｆ,,01,101,0600061,,,,,,,2024-03-22,1,,,,,ピースフルビジョン,0
1119,4430001091363,新規,0,2024-03-22,2024-03-22,株式会社ＨｏｍｅＳｅｅｄ,,株式会社,北海道,札幌市西区,八軒六条東３丁目８－８－１０１,,01,107,0630866,,,,,,,2024-03-22,1,,,,,ホームシード,0
1120,4430001091371,新規,0,2024-03-22,2024-03-22,株式会社ＣＡＲＥＣＲＥＷ　ＮＥＸＴＩＮＮＯＶＡＴＩＯＮ,,株式会社,北海道,江別市,野幌東町５４番地１８,,01,217,0690825,,,,,,,2024-03-22,1,,,,,ケアクルーネクストイノベーション,0
1122,4430003016087,新規,0,2024-03-22,2024-03-22,合同会社Ｎ．Ｐａｒｔｎｅｒｓ,,合同会社,北海道,札幌市中央区,南七条西８丁目１番地１１ローレル７・８－４０３号,,01,101,0640807,,,,,,,2024-03-22,1,,,,,エヌドットパートナーズ,0
1123,4430003016095,新規,0,2024-03-22,2024-03-22,リブ合同会社,,合同会社,北海道,札幌市南区,澄川四条６丁目５番２３号,,01,106,0050004,,,,,,,2024-03-22,1,,,,,リブ,0
1124,4430003016104,新規,0,2024-03-22,2024-03-22,合同会社キズナノオト,,合同会社,北海道,虻田郡豊浦町,字浜町７番地１,,01,571,0495415,,,,,,,2024-03-22,1,,,,,キズナノオト,0
1125,4430003016120,新規,0,2024-03-22,2024-03-22,合同会社ＴＡＭＹ,,合同会社,北海道,札幌市東区,北二十一条東３丁目２番５号,,01,103,0650021,,,,,,,2024-03-22,1,,,,,タミー,0
1126,4470001020095,新規,0,2024-03-22,2024-03-22,株式会社どびんしゃん,,株式会社,香川県,高松市,牟礼町大町１５８０番地１,,37,201,7610122,,,,,,,2024-03-22,1,,,,,ドビンシャン,0
1137,5010001243170,新規,0,2024-03-22,2024-03-22,株式会社パンキュパイ,,株式会社,東京都,中央区,日本橋馬喰町１丁目４番１４－８０３号,,13,102,1030002,,,,,,,2024-03-22,1,,,,,パンキュパイ,0
1138,5010001243311,新規,0,2024-03-22,2024-03-22,ＦｏｒｅｖｅｒＳａｔｕｒｄａｙ株式会社,,株式会社,東京都,中央区,晴海５丁目４－４－１６０８,,13,102,1040053,,,,,,,2024-03-22,1,,,,,フォーエバーサタデイ,0
1139,5010001243336,新規,0,2024-03-22,2024-03-22,ＲＥＶＩＶＥ　ＨＯＰＥ株式会社,,株式会社,東京都,中央区,銀座１丁目１２番４号Ｎ＆ＥＢＬＤ．６Ｆ,,13,102,1040061,,,,,,,2024-03-22,1,,,,,リバイブホープ,0
1140,5010001243352,新規,0,2024-03-22,2024-03-22,株式会社経済圏共創機構,,株式会社,東京都,中央区,銀座６丁目１２－１０旭ビル６０２,,13,102,1040061,,,,,,,2024-03-22,1,,,,,ケイザイケンキョウソウキコウ,0
1141,5010003043288,新規,0,2024-03-22,2024-03-22,合同会社Ｓ２８,,合同会社,東京都,中央区,銀座１丁目１２番４号６階,,13,102,1040061,,,,,,,2024-03-22,1,,,,,エスニハチ,0
1143,5010005038071,新規,0,2024-03-22,2024-03-22,一般社団法人義生殖性捗志団,,その他の設立登記法人,東京都,中央区,銀座１丁目１２－４Ｎ＆Ｅ．ＢＬＤ．７階,,13,102,1040061,,,,,,,2024-03-22,1,,,,,ギセイショクセイホシダン,0
1151,5010401181185,新規,0,2024-03-22,2024-03-22,株式会社ＳＡＲＡ・ＡＭＡＮ,,株式会社,東京都,港区,東新橋２丁目１０－７中銀第２新橋マンシオン４０２号室,,13,103,1050021,,,,,,,2024-03-22,1,,,,,サラアマン,0
1153,5010405023078,新規,0,2024-03-22,2024-03-22,ＤＶＣ久喜特定目的会社,,その他の設立登記法人,東京都,港区,南青山４丁目２１番２６号リュエル青山Ｃ棟Ｂ１細谷総合会計事務所内,,13,103,1070062,,,,,,,2024-03-22,1,,,,,ディーブイシークキ,0
1156,5010601064850,新規,0,2024-03-22,2024-03-22,工藝ハミルトン株式会社,,株式会社,東京都,墨田区,石原２丁目２５番４号,,13,107,1300011,,,,,,,2024-03-22,1,,,,,コウゲイハミルトン,0
1161,5010801034884,新規,0,2024-03-22,2024-03-22,カイロンファイブ株式会社,,株式会社,東京都,大田区,南蒲田２丁目１９番４号Ｋｙｏｋｕｔｏｕ３Ｆ,,13,111,1440035,,,,,,,2024-03-22,1,,,,,カイロンファイブ,0
1164,5010903008910,新規,0,2024-03-22,2024-03-22,合同会社Ｂｌｕｅ　ｏｃｅａｎ,,合同会社,東京都,世田谷区,太子堂１丁目１２番３８－７０１号,,13,112,1540004,,,,,,,2024-03-22,1,,,,,ブルーオーシャン,0
1167,5011001160629,新規,0,2024-03-22,2024-03-22,株式会社Ｓｆｉｄａ　Ｈｏｌｄｉｎｇｓ,,株式会社,東京都,渋谷区,円山町５番５号Ｎａｖｉ渋谷Ｖ３階,,13,113,1500044,,,,,,,2024-03-22,1,,,,,スフィーダホールディングス,0
1168,5011001160645,新規,0,2024-03-22,2024-03-22,株式会社Ｔ２マネジメント,,株式会社,東京都,渋谷区,千駄ヶ谷３丁目７番６号,,13,113,1510051,,,,,,,2024-03-22,1,,,,,ティツーマネジメント,0
1169,5011001160694,新規,0,2024-03-22,2024-03-22,株式会社エリプスワークス,,株式会社,東京都,渋谷区,渋谷２丁目１９番１５－６０９号宮益坂ビルディング,,13,113,1500002,,,,,,,2024-03-22,1,,,,,エリプスワークス,0
1170,5011001160703,新規,0,2024-03-22,2024-03-22,株式会社光男商店,,株式会社,東京都,渋谷区,道玄坂２丁目６番２号,,13,113,1500043,,,,,,,2024-03-22,1,,,,,ミツオショウテン,0
1171,5011001160752,新規,0,2024-03-22,2024-03-22,株式会社Ｄｒｅａｍ　ｂｏｕｑｕｅｔ,,株式会社,東京都,渋谷区,恵比寿西２丁目４番８号ウィンド恵比寿ビル８Ｆ,,13,113,1500021,,,,,,,2024-03-22,1,,,,,ドリームブーケ,0
1172,5011001160769,新規,0,2024-03-22,2024-03-22,株式会社Ｓｉｒ　ｃｌｏｗｄｓ,,株式会社,東京都,渋谷区,桜丘町１番４号渋谷サクラステージ,,13,113,1500031,,,,,,,2024-03-22,1,,,,,サークラウズ,0
1173,5011001160810,新規,0,2024-03-22,2024-03-22,株式会社ｕｕｕｂｕ,,株式会社,東京都,渋谷区,桜丘町１８番４号二宮ビル１Ｆ,,13,113,1500031,,,,,,,2024-03-22,1,,,,,ウーブ,0
1177,5011003018619,新規,0,2024-03-22,2024-03-22,合同会社Ｌｅｄｉａｎエンターテイメント,,合同会社,東京都,渋谷区,代々木４丁目１－６ファミール新宿グランスイートタワー３０６,,13,113,1510053,,,,,,,2024-03-22,1,,,,,レディアンエンターテイメント,0
1178,5011003018692,新規,0,2024-03-22,2024-03-22,合同会社ＯＢＯ,,合同会社,東京都,渋谷区,道玄坂２丁目２５番１２号道玄坂通５階,,13,113,1500043,,,,,,,2024-03-22,1,,,,,オービーオー,0
1179,5011003018742,新規,0,2024-03-22,2024-03-22,合同会社ＣＵＲＲＥＮＴ１２,,合同会社,東京都,渋谷区,道玄坂２丁目２９番８道玄坂センタービル２階,,13,113,1500043,,,,,,,2024-03-22,1,,,,,カレントジュウニ,0
1180,5011005010425,新規,0,2024-03-22,2024-03-22,医療法人社団清済会,,その他の設立登記法人,東京都,渋谷区,東２丁目２３番３号タゴシンビル１階,,13,113,1500011,,,,,,,2024-03-22,1,,,,,キヨスミカイ,0
1185,5011101106655,新規,0,2024-03-22,2024-03-22,Ｓ＆Ｌ株式会社,,株式会社,東京都,新宿区,百人町１丁目１３－２７オサタマンション２０１室,,13,104,1690073,,,,,,,2024-03-22,1,,,,,エスアンドエル,0
1186,5011105010977,新規,0,2024-03-22,2024-03-22,デルソーレ税理士法人,,その他の設立登記法人,東京都,新宿区,新小川町１番１４号,,13,104,1620814,,,,,,,2024-03-22,1,,,,,デルソーレ,0
1187,5011201025342,新規,0,2024-03-22,2024-03-22,株式会社ヴィクル,,株式会社,東京都,中野区,中野５丁目５７－５マルヤビル２０２,,13,114,1640001,,,,,,,2024-03-22,1,,,,,ヴィクル,0
1193,5011401025943,新規,0,2024-03-22,2024-03-22,株式会社Ｋｅｎｊｉ‐Ａｓａｎｔｅ,,株式会社,東京都,板橋区,大山金井町３８番６号,,13,119,1730024,,,,,,,2024-03-22,1,,,,,ケンジアサンテ,0
1200,5011601027640,新規,0,2024-03-22,2024-03-22,株式会社光テック,,株式会社,東京都,練馬区,練馬３丁目３番６－９０１号,,13,120,1760001,,,,,,,2024-03-22,1,,,,,ヒカリテック,0
1204,5011801043941,新規,0,2024-03-22,2024-03-22,株式会社ロックス,,株式会社,東京都,葛飾区,東金町６丁目２４番１６号,,13,122,1250041,,,,,,,2024-03-22,1,,,,,ロックス,0
1205,5011801043974,新規,0,2024-03-22,2024-03-22,Ｇａｔｅ　Ｉｎｎｏｖａｔｉｏｎ株式会社,,株式会社,東京都,足立区,西新井２丁目４番６号ＡｎｄＰｌｕｓ西新井ビル,,13,121,1230841,,,,,,,2024-03-22,1,,,,,ゲイトイノベーション,0
1206,5011803006137,新規,0,2024-03-22,2024-03-22,合同会社Ｎａｏ　Ｃｒｅａｔｉｖｅ,,合同会社,東京都,足立区,舎人３丁目６番２３号,,13,121,1210831,,,,,,,2024-03-22,1,,,,,ナオクリエイティブ,0
1209,5012401041658,新規,0,2024-03-22,2024-03-22,株式会社ミタカノビヨウシツ,,株式会社,東京都,三鷹市,下連雀３丁目４５番１４号指田ビル１Ｆ西,,13,204,1810013,,,,,,,2024-03-22,1,,,,,ミタカノビヨウシツ,0
1210,5012403006469,新規,0,2024-03-22,2024-03-22,合同会社ＨＥＤＧＥＨＯＧ,,合同会社,東京都,調布市,国領町４丁目４８番地１１ウィスタリア国領,,13,208,1820022,,,,,,,2024-03-22,1,,,,,ヘッジホッグ,0
1211,5012403006477,新規,0,2024-03-22,2024-03-22,合同会社ＡＷＣ,,合同会社,東京都,調布市,西つつじケ丘１丁目２１番地１１‐１０１,,13,208,1820006,,,,,,,2024-03-22,1,,,,,エーダブリューシー,0
1213,5012703002936,新規,0,2024-03-22,2024-03-22,合同会社藤花,,合同会社,東京都,清瀬市,野塩４丁目９０番地２４,,13,221,2040004,,,,,,,2024-03-22,1,,,,,トウカ,0
1216,5013301052241,新規,0,2024-03-22,2024-03-22,株式会社ＡｋｕＡｓ　Ｓｏｌｕｔｉｏｎ,,株式会社,東京都,豊島区,南大塚１丁目６０番２０号天翔大塚駅前ビルＳ５１６,,13,116,1700005,,,,,,,2024-03-22,1,,,,,アクアスソリューション,0
1219,5020001156339,新規,0,2024-03-22,2024-03-22,株式会社ＦＩＶＥ　ＨＵＮＤＲＥＤ,,株式会社,神奈川県,横浜市青葉区,奈良４丁目１番地１Ａ－１３０６号,,14,117,2270038,,,,,,,2024-03-22,1,,,,,ファイブハンドレッド,0
1220,5020001156363,新規,0,2024-03-22,2024-03-22,株式会社オレンジライフ,,株式会社,神奈川県,横浜市西区,北幸２丁目１０－４８むつみビル３階,,14,103,2200004,,,,,,,2024-03-22,1,,,,,オレンジライフ,0
1221,5020003025764,新規,0,2024-03-22,2024-03-22,合同会社ｉＦＰ,,合同会社,神奈川県,川崎市麻生区,万福寺３丁目１２番１－８０７号,,14,137,2150004,,,,,,,2024-03-22,1,,,,,アイエフピー,0
1222,5020003025780,新規,0,2024-03-22,2024-03-22,Ｔ．Ｔ．Ｓ合同会社,,合同会社,神奈川県,横浜市都筑区,牛久保１丁目２番５号プレミールすみれ１０１号室,,14,118,2240012,,,,,,,2024-03-22,1,,,,,ティーティーエス,0
1230,5021001081733,新規,0,2024-03-22,2024-03-22,小春不動産株式会社,,株式会社,神奈川県,秦野市,南矢名２丁目６番２７号,,14,211,2570003,,,,,,,2024-03-22,1,,,,,コハルフドウサン,0
1231,5021001081741,新規,0,2024-03-22,2024-03-22,株式会社伊澤電工,,株式会社,神奈川県,平塚市,上平塚１番３８－１号,,14,203,2540055,,,,,,,2024-03-22,1,,,,,イザワデンコウ,0
1232,5021001081758,新規,0,2024-03-22,2024-03-22,株式会社まえだ商店,,株式会社,神奈川県,大和市,福田８丁目１８－９桜ケ丘セントラルハイツ３０２,,14,213,2420024,,,,,,,2024-03-22,1,,,,,マエダショウテン,0
1235,5021005013047,新規,0,2024-03-22,2024-03-22,一般社団法人Ａｒｃａｄｉａ,,その他の設立登記法人,神奈川県,鎌倉市,常盤６４８番地４,,14,204,2480022,,,,,,,2024-03-22,1,,,,,アルカディア,0
1238,5030001159282,新規,0,2024-03-22,2024-03-22,ＩＫＨＬＡＳ　ＴＲＡＤＩＮＧ株式会社,,株式会社,埼玉県,羽生市,大字藤井上組６９４番地１,,11,216,3480064,,,,,,,2024-03-22,1,,,,,イクラストレーディング,0
1239,5030001159290,新規,0,2024-03-22,2024-03-22,株式会社蒼の月,,株式会社,埼玉県,さいたま市中央区,八王子３丁目１１番１４号,,11,105,3380006,,,,,,,2024-03-22,1,,,,,アオノツキ,0
1240,5030001159316,新規,0,2024-03-22,2024-03-22,株式会社草加産業,,株式会社,埼玉県,草加市,瀬崎３丁目２８番１３号,,11,221,3400022,,,,,,,2024-03-22,1,,,,,ソウカサンギョウ,0
1241,5030001159332,新規,0,2024-03-22,2024-03-22,株式会社レゴリス,,株式会社,埼玉県,行田市,大字和田２５７番地,,11,206,3610061,,,,,,,2024-03-22,1,,,,,レゴリス,0
1242,5030001159340,新規,0,2024-03-22,2024-03-22,株式会社健生,,株式会社,埼玉県,北葛飾郡松伏町,ゆめみ野東２丁目８番地２３,,11,465,3430114,,,,,,,2024-03-22,1,,,,,ケンセイ,0
1243,5030001159365,新規,0,2024-03-22,2024-03-22,株式会社Ｐｒｏｓ．Ｆ,,株式会社,埼玉県,和光市,白子２丁目２５番１－８０１号,,11,229,3510101,,,,,,,2024-03-22,1,,,,,プロスエフ,0
1245,5030003023858,新規,0,2024-03-22,2024-03-22,カメハメハ合同会社,,合同会社,埼玉県,川口市,芝塚原１丁目５番２２号,,11,203,3330856,,,,,,,2024-03-22,1,,,,,カメハメハ,0
1247,5040001132651,新規,0,2024-03-22,2024-03-22,株式会社箱々,,株式会社,千葉県,松戸市,栄町７丁目５８２番地２,,12,207,2710062,,,,,,,2024-03-22,1,,,,,ハコハコ,0
1248,5040001132692,新規,0,2024-03-22,2024-03-22,株式会社Ａ‐ｒｉｓｅ,,株式会社,千葉県,松戸市,古ケ崎１丁目３０４０番地の２プレミールＣ２０３号,,12,207,2710068,,,,,,,2024-03-22,1,,,,,エーライズ,0
1249,5040001132718,新規,0,2024-03-22,2024-03-22,うるぅラボ株式会社,,株式会社,千葉県,船橋市,行田３丁目１０－４５ルピアグランデ船橋行田公園７０８号,,12,204,2730044,,,,,,,2024-03-22,1,,,,,ウルゥラボ,0
1250,5040001132734,新規,0,2024-03-22,2024-03-22,株式会社松田資産カンパニー,,株式会社,千葉県,松戸市,東松戸２丁目１７番１号,,12,207,2702225,,,,,,,2024-03-22,1,,,,,マツダシサンカンパニー,0
1251,5040001132759,新規,0,2024-03-22,2024-03-22,株式会社ふぉれすと,,株式会社,千葉県,船橋市,本中山３丁目２０番１号Ｓ・Ｈ・Ｋビル２階,,12,204,2730035,,,,,,,2024-03-22,1,,,,,フォレスト,0
1252,5040001132767,新規,0,2024-03-22,2024-03-22,南房総ゲートウェイ株式会社,,株式会社,千葉県,南房総市,富浦町原岡１０５７番地１,,12,234,2992403,,,,,,,2024-03-22,1,,,,,ミナミボウソウゲートウェイ,0
1254,5040003024574,新規,0,2024-03-22,2024-03-22,合同会社ＫＨ‐ｅｘｔｅｒｉｏｒ,,合同会社,千葉県,千葉市稲毛区,長沼町１８４番地１メゾンボナールＩＩＩ２０２号,00134156,12,103,2630005,,,,,,,2024-03-22,1,,,,,ケイエイチエクステリア,0
1256,5050003008221,新規,0,2024-03-22,2024-03-22,合同会社いっしー,,合同会社,茨城県,筑西市,玉戸１５９７番地３,,08,227,3080847,,,,,,,2024-03-22,1,,,,,イッシー,0
1259,5070001041494,新規,0,2024-03-22,2024-03-22,株式会社日本療育研究所,,株式会社,群馬県,伊勢崎市,韮塚町１１８８番地６,,10,204,3720813,,,,,,,2024-03-22,1,,,,,,0
1260,5070001041503,新規,0,2024-03-22,2024-03-22,株式会社ＲｅＬＩＦＥ,,株式会社,群馬県,高崎市,下之城町５８４番地７０,,10,202,3700854,,,,,,,2024-03-22,1,,,,,リライフ,0
1264,5080001026197,新規,0,2024-03-22,2024-03-22,株式会社Ｐｅｒｌａ,,株式会社,静岡県,島田市,東町２６３番地の５,,22,209,4270011,,,,,,,2024-03-22,1,,,,,ペルラ,0
1265,5080101024613,新規,0,2024-03-22,2024-03-22,株式会社智水,,株式会社,静岡県,田方郡函南町,大土肥２８番地,,22,325,4190113,,,,,,,2024-03-22,1,,,,,チスイ,0
1268,5090001018607,新規,0,2024-03-22,2024-03-22,株式会社パフェ,,株式会社,山梨県,中央市,成島２６５,,19,214,4093815,,,,,,,2024-03-22,1,,,,,パフェ,0
1274,5100001037299,新規,0,2024-03-22,2024-03-22,株式会社境果樹園,,株式会社,長野県,須坂市,大字小河原５９８番地,,20,207,3820000,,,,,,,2024-03-22,1,,,,,サカイカジュエン,0
1275,5100003007457,新規,0,2024-03-22,2024-03-22,合同会社Ｎ．ＡＬＰ,,合同会社,長野県,北安曇郡白馬村,大字北城１６１２番地２７,,20,485,3999301,,,,,,,2024-03-22,1,,,,,エヌアルプ,0
1276,5110001038271,新規,0,2024-03-22,2024-03-22,ＡＫホールディングス株式会社,,株式会社,新潟県,新潟市秋葉区,程島１９６２番地３,,15,105,9560035,,,,,,,2024-03-22,1,,,,,エーケーホールディングス,0
1279,5110003005336,新規,0,2024-03-22,2024-03-22,大門合同会社,,合同会社,新潟県,新潟市中央区,女池上山３丁目４番３０号,,15,103,9500945,,,,,,,2024-03-22,1,,,,,ダイモン,0
1280,5110005017065,新規,0,2024-03-22,2024-03-22,一般社団法人佐渡自然塾,,その他の設立登記法人,新潟県,佐渡市,新穂北方５２２番地１０,,15,224,9520115,,,,,,,2024-03-22,1,,,,,サドシゼンジュク,0
1296,5120001263232,新規,0,2024-03-22,2024-03-22,ＬＥＶ株式会社,,株式会社,大阪府,大阪市西淀川区,田川二丁目８番３１号,,27,113,5550000,,,,,,,2024-03-22,1,,,,,レヴ,0
1297,5120001263315,新規,0,2024-03-22,2024-03-22,株式会社ｉｐｐｏ,,株式会社,大阪府,大阪市北区,中津５丁目８番９－１１０１号,,27,127,5310071,,,,,,,2024-03-22,1,,,,,イッポ,0
1298,5120001263331,新規,0,2024-03-22,2024-03-22,株式会社竹井不動産,,株式会社,大阪府,大阪市西区,新町１丁目２０番１８号,,27,106,5500013,,,,,,,2024-03-22,1,,,,,タケイフドウサン,0
1299,5120001263380,新規,0,2024-03-22,2024-03-22,株式会社ｏｎｎｅｌｉｎｅｎ,,株式会社,大阪府,大阪市北区,天神橋１丁目１８－２７,,27,127,5300041,,,,,,,2024-03-22,1,,,,,オンネリネン,0
1302,5120003026190,新規,0,2024-03-22,2024-03-22,おもおもプロジェクト合同会社,,合同会社,大阪府,大阪市中央区,南船場４丁目１０番５号南船場ＳＯＨＯビル７０２,,27,128,5420081,,,,,,,2024-03-22,1,,,,,オモオモプロジェクト,0
1303,5120101069281,新規,0,2024-03-22,2024-03-22,株式会社井乃建,,株式会社,大阪府,岸和田市,吉井町２丁目１９番５号,,27,202,5960002,,,,,,,2024-03-22,1,,,,,イノケン,0
1308,5120901048897,新規,0,2024-03-22,2024-03-22,シュロス株式会社,,株式会社,大阪府,池田市,石橋１丁目１８番１号,,27,204,5630032,,,,,,,2024-03-22,1,,,,,シュロス,0
1312,5130001076600,新規,0,2024-03-22,2024-03-22,株式会社Ｏｆｆｉｃｅファーマヘルス,,株式会社,京都府,京都市北区,紫竹上竹殿町４４新生ビルテナントＢ,,26,101,6038411,,,,,,,2024-03-22,1,,,,,オフィスファーマヘルス,0
1313,5130001076641,新規,0,2024-03-22,2024-03-22,株式会社７０３,,株式会社,京都府,京都市下京区,東洞院通五条下ル二丁目福島町５１５番地,,26,106,6000000,,,,,,,2024-03-22,1,,,,,ナナマルサン,0
1314,5130003009384,新規,0,2024-03-22,2024-03-22,ＵＮＦＯＬＬＯＷＩＮＧ合同会社,,合同会社,京都府,京都市下京区,中堂寺前田町６番地の１５,,26,106,6008804,,,,,,,2024-03-22,1,,,,,アンフォロウイング,0
1320,5140001133706,新規,0,2024-03-22,2024-03-22,ナジブ株式会社,,株式会社,兵庫県,姫路市,御国野町国分寺５８３番地１国分寺連棟,,28,201,6710234,,,,,,,2024-03-22,1,,,,,ナジブ,0
1321,5140001133747,新規,0,2024-03-22,2024-03-22,株式会社Ｈｏｉｔｏｒａ,,株式会社,兵庫県,宝塚市,安倉中２丁目２番２号,,28,214,6650822,,,,,,,2024-03-22,1,,,,,ホイトラ,0
1322,5140001133788,新規,0,2024-03-22,2024-03-22,株式会社國嶋オートサービス,,株式会社,兵庫県,三木市,吉川町上松５０５番地の１,,28,215,6731126,,,,,,,2024-03-22,1,,,,,クニシマオートサービス,0
1323,5140001133796,新規,0,2024-03-22,2024-03-22,株式会社Ｍｉｒａｋａｎａ,,株式会社,兵庫県,神戸市北区,鹿の子台北町７丁目３番１号,,28,109,6511513,,,,,,,2024-03-22,1,,,,,ミラカナ,0
1324,5140001133805,新規,0,2024-03-22,2024-03-22,株式会社鐵巧,,株式会社,兵庫県,加古川市,八幡町中西条４２４番地,,28,210,6751205,,,,,,,2024-03-22,1,,,,,テッコウ,0
1325,5140003020308,新規,0,2024-03-22,2024-03-22,合同会社ＦＯＲＴＵＮＡ,,合同会社,兵庫県,宝塚市,中州２丁目１０番１９号,,28,214,6650021,,,,,,,2024-03-22,1,,,,,フォルトゥナ,0
1328,5150005009570,新規,0,2024-03-22,2024-03-22,特定非営利活動法人やまとたかだ第九の会,,その他の設立登記法人,奈良県,大和高田市,片塩町６－１６医療法人酒本医院内,,29,202,6350085,,,,,,,2024-03-22,1,,,,,ヤマトタカダダイクノカイ,0
1329,5160003003137,新規,0,2024-03-22,2024-03-22,合同会社ＮｏｕｖｅＬｉｅｎ,,合同会社,滋賀県,草津市,下物町３２０番地２,,25,206,5250001,,,,,,,2024-03-22,1,,,,,ヌーベリアン,0
1335,5180001160622,新規,0,2024-03-22,2024-03-22,株式会社輝蔵,,株式会社,愛知県,東海市,富貴ノ台５丁目８３番地３,,23,222,4760014,,,,,,,2024-03-22,1,,,,,テルゾウ,0
1336,5180001160630,新規,0,2024-03-22,2024-03-22,株式会社スウィープエコー,,株式会社,愛知県,名古屋市千種区,高見２丁目１番２６号（３０１号）,,23,101,4640073,,,,,,,2024-03-22,1,,,,,スウィープエコー,0
1337,5180001160713,新規,0,2024-03-22,2024-03-22,株式会社ＲＥＳ,,株式会社,愛知県,名古屋市千種区,茶屋が坂１丁目２１番１５号ボヌール茶屋ヶ坂３０１号,,23,101,4640092,,,,,,,2024-03-22,1,,,,,レス,0
1338,5180001160721,新規,0,2024-03-22,2024-03-22,Ｘ‐ｅｎｅｒｇｙ　Ｊａｐａｎ株式会社,,株式会社,愛知県,名古屋市西区,城西５丁目２７番２号,,23,104,4510031,,,,,,,2024-03-22,1,,,,,エックスエナジージャパン,0
1339,5180003026508,新規,0,2024-03-22,2024-03-22,合同会社インディージャム,,合同会社,愛知県,名古屋市中区,錦１丁目１７番１３号２Ｆ,,23,106,4600003,,,,,,,2024-03-22,1,,,,,インディージャム,0
1340,5180003026532,新規,0,2024-03-22,2024-03-22,合同会社ｈｉｔｏｈａｎａ,,合同会社,愛知県,日進市,岩崎町根裏３４番地２２,,23,230,4700131,,,,,,,2024-03-22,1,,,,,ヒトハナ,0
1342,5180005020558,新規,0,2024-03-22,2024-03-22,医療法人吉田医院,,その他の設立登記法人,愛知県,名古屋市北区,楠味鋺２丁目１７０４番地,,23,103,4620014,,,,,,,2024-03-22,1,,,,,ヨシダイイン,0
1343,5180301038444,新規,0,2024-03-22,2024-03-22,ＰＴＲ株式会社,,株式会社,愛知県,豊川市,豊川元町１０番地河合ビル１階,,23,207,4420035,,,,,,,2024-03-22,1,,,,,ピーティーアル,0
1347,5200005013583,新規,0,2024-03-22,2024-03-22,一般社団法人ライヴリー・エイジング・ジャパン協会,,その他の設立登記法人,岐阜県,多治見市,小泉町３丁目２３番地,,21,204,5070073,,,,,,,2024-03-22,1,,,,,ライヴリーエイジングジャパンキョウカイ,0
1348,5210001019682,新規,0,2024-03-22,2024-03-22,株式会社Ｔ．Ａ　ＶＩＳＩＯＮ,,株式会社,福井県,鯖江市,糺町第２１号２番地２,,18,207,9160004,,,,,,,2024-03-22,1,,,,,ティーエイヴィジョン,0
1351,5230003002172,新規,0,2024-03-22,2024-03-22,合同会社Ｆ．Ｐ．Ｍ,,合同会社,富山県,高岡市,赤祖父５８４番地,,16,202,9330806,,,,,,,2024-03-22,1,,,,,エフピーエム,0
1356,5250003003458,新規,0,2024-03-22,2024-03-22,合同会社ＥＫＭＣ　ｃｏｍｐａｎｙ,,合同会社,山口県,長門市,東深川１００８０番地１３,,35,211,7594101,,,,,,,2024-03-22,1,,,,,イーケーエムシーカンパニー,0
1363,5290001105145,新規,0,2024-03-22,2024-03-22,株式会社ＥＣＨＯ,,株式会社,福岡県,福岡市中央区,天神２丁目２番１２号Ｔ＆Ｊビルディング７Ｆ,,40,133,8100001,,,,,,,2024-03-22,1,,,,,エコー,0
1364,5290001105161,新規,0,2024-03-22,2024-03-22,株式会社Ａ＆Ｒ,,株式会社,福岡県,福岡市東区,香椎浜３丁目３番５号,,40,131,8130016,,,,,,,2024-03-22,1,,,,,エーアンドアール,0
1365,5290003015094,新規,0,2024-03-22,2024-03-22,合同会社ＭＡＴＵＲＩ,,合同会社,福岡県,太宰府市,通古賀５丁目５－３５,,40,221,8180104,,,,,,,2024-03-22,1,,,,,マツリ,0
1366,5290003015103,新規,0,2024-03-22,2024-03-22,美粧堂合同会社,,合同会社,福岡県,福岡市博多区,博多駅前４丁目７番５－３０３号ムーブル博多,,40,132,8120011,,,,,,,2024-03-22,1,,,,,ビショウドウ,0
1373,5320003004317,新規,0,2024-03-22,2024-03-22,合同会社Ｆａｒｍ　Ｓａｍ,,合同会社,大分県,速見郡日出町,大字大神４１２７番地１９,,44,341,8791504,,,,,,,2024-03-22,1,,,,,ファームサム,0
1377,5330003010280,新規,0,2024-03-22,2024-03-22,ＴＯＭＯ合同会社,,合同会社,熊本県,人吉市,下原田町字堀１２５－４,,43,203,8680086,,,,,,,2024-03-22,1,,,,,,0
1390,5360003013826,新規,0,2024-03-22,2024-03-22,ソフィアピュアビューティプラス合同会社,,合同会社,沖縄県,那覇市,高良３丁目１７－４０シティパレス２（３－Ｃ）,,47,201,9010145,,,,,,,2024-03-22,1,,,,,ソフィアピュアビューティプラス,0
1395,5370001051083,新規,0,2024-03-22,2024-03-22,株式会社メディプラス,,株式会社,宮城県,仙台市青葉区,中央２丁目８－１１プレミアムグリーンヒルズ３Ｆ,,04,101,9800021,,,,,,,2024-03-22,1,,,,,メディプラス,0
1396,5370001051091,新規,0,2024-03-22,2024-03-22,株式会社ＫＧＴ‐ｊａｐａｎ,,株式会社,宮城県,仙台市宮城野区,清水沼２丁目８－３,,04,102,9830845,,,,,,,2024-03-22,1,,,,,ケイジティージャパン,0
1397,5370001051100,新規,0,2024-03-22,2024-03-22,Ｎｓｅｎｓｅ株式会社,,株式会社,宮城県,仙台市青葉区,北根３丁目１８－１２,,04,101,9810902,,,,,,,2024-03-22,1,,,,,エヌセンス,0
1400,5370003006531,新規,0,2024-03-22,2024-03-22,合同会社Ｂｅ　Ｑｕｅｓｔ　Ｐｒｏｍｏｔｉｏｎ,,合同会社,宮城県,仙台市青葉区,中央２丁目９番７号アーバンブリッジビル２階３区画,,04,101,9800021,,,,,,,2024-03-22,1,,,,,ビークエストプロモーション,0
1403,5380003005722,新規,0,2024-03-22,2024-03-22,合同会社３Ｄスケープ,,合同会社,福島県,福島市,泉字前田２３番地の５１,,07,201,9608253,,,,,,,2024-03-22,1,,,,,スリーディースケープ,0
1404,5400001016594,新規,0,2024-03-22,2024-03-22,株式会社アベ設備工業岩手,,株式会社,岩手県,滝沢市,巣子１６９番地１８,,03,216,0200611,,,,,,,2024-03-22,1,,,,,アベセツビコウギョウイワテ,0
1406,5420001018639,新規,0,2024-03-22,2024-03-22,株式会社ディーセントワークス,,株式会社,青森県,青森市,安方２丁目９番１２号パークハイツ安方第３店舗１０１号室,,02,201,0300803,,,,,,,2024-03-22,1,,,,,ディーセントワークス,0
1407,5420001018647,新規,0,2024-03-22,2024-03-22,平尾測量設計株式会社,,株式会社,青森県,青森市,はまなす１丁目１６番６号,,02,201,0300919,,,,,,,2024-03-22,1,,,,,ヒラオソクリョウセッケイ,0
1411,5430001091338,新規,0,2024-03-22,2024-03-22,東豊国際株式会社,,株式会社,北海道,札幌市中央区,南一条東７丁目２－２７０５,,01,101,0600051,,,,,,,2024-03-22,1,,,,,トウホウコクサイ,0
1412,5430001091354,新規,0,2024-03-22,2024-03-22,株式会社Ｃｏｎｃｅｉｔ,,株式会社,北海道,札幌市中央区,南十二条西９丁目２－２７ソニア１２９－３０５号,,01,101,0640912,,,,,,,2024-03-22,1,,,,,コンシート,0
1413,5430001091370,新規,0,2024-03-22,2024-03-22,株式会社Ｍａｒｃｈ,,株式会社,北海道,札幌市北区,北三十条西９丁目２番１０号,,01,102,0010030,,,,,,,2024-03-22,1,,,,,マーチ,0
1414,5430001091379,新規,0,2024-03-22,2024-03-22,株式会社フリーレン,,株式会社,北海道,札幌市豊平区,美園四条２丁目１番３１号,,01,105,0620004,,,,,,,2024-03-22,1,,,,,フリーレン,0
1416,5430003016086,新規,0,2024-03-22,2024-03-22,合同会社Ｒｏｏｔ,,合同会社,北海道,札幌市手稲区,前田八条１８丁目９－１１,,01,109,0060818,,,,,,,2024-03-22,1,,,,,ルーツ,0
1417,5430003016094,新規,0,2024-03-22,2024-03-22,合同会社ＵＲＵ,,合同会社,北海道,札幌市西区,西野六条５丁目１番４８号,,01,107,0630036,,,,,,,2024-03-22,1,,,,,ウル,0
1418,5430003016103,新規,0,2024-03-22,2024-03-22,合同会社ライフ・サポート尾崎,00134157,合同会社,北海道,札幌市東区,北三十四条東１７丁目２番１号－４０３,,01,103,0070834,,,,,,,2024-03-22,1,,,,,ライフサポートオザキ,0
1419,5430003016111,新規,0,2024-03-22,2024-03-22,ロンメックス合同会社,,合同会社,北海道,岩内郡共和町,前田１６９番地１１,,01,401,0482201,,,,,,,2024-03-22,1,,,,,ロンメックス,0
1422,5700150124291,新規,0,2024-03-22,2024-03-04,ウインタースポーツフェスティバル実行委員会,,その他,北海道,札幌市手稲区,手稲本町５９３加森観光株式会社テイネ事業部内,,01,109,0060029,,,,,,,2024-03-04,1,,,,,ウインタースポーツフェスティバルジッコウイインカイ,0
1439,6010001243194,新規,0,2024-03-22,2024-03-22,ライン服飾研究所株式会社,,株式会社,東京都,中央区,日本橋浜町３丁目２８番１０号,,13,102,1030007,,,,,,,2024-03-22,1,,,,,ラインフクショクケンキュウショ,0
1440,6010001243277,新規,0,2024-03-22,2024-03-22,株式会社ジャングルビーツ,,株式会社,東京都,中央区,八丁堀３丁目７番１号宝ビル本館１階,,13,102,1040032,,,,,,,2024-03-22,1,,,,,ジャングルビーツ,0
1441,6010001243293,新規,0,2024-03-22,2024-03-22,クリスティ株式会社,,株式会社,東京都,中央区,銀座３丁目１１番２号３Ｆ,,13,102,1040061,,,,,,,2024-03-22,1,,,,,クリスティ,0
1442,6010001243351,新規,0,2024-03-22,2024-03-22,株式会社ヘルスケア共創機構,,株式会社,東京都,中央区,銀座６丁目１２－１０旭ビル６０２,,13,102,1040061,,,,,,,2024-03-22,1,,,,,ヘルスケアキョウソウキコウ,0
1443,6010001243368,新規,0,2024-03-22,2024-03-22,株式会社ＣｈａｒＭｉｉ,,株式会社,東京都,中央区,銀座１丁目２２番１１号銀座大竹ビジデンス２Ｆ,,13,102,1040061,,,,,,,2024-03-22,1,,,,,チャーミー,0
1445,6010005038079,新規,0,2024-03-22,2024-03-22,一般社団法人ヘリオスソーラー,,その他の設立登記法人,東京都,千代田区,霞が関３丁目２番５号,,13,101,1000013,,,,,,,2024-03-22,1,,,,,ヘリオスソーラー,0
1446,6010101016054,新規,0,2024-03-22,2024-03-22,株式会社なつのそら,,株式会社,東京都,八王子市,松が谷１７番地１－５１８,,13,201,1920354,,,,,,,2024-03-22,1,,,,,ナツノソラ,0
1457,6010401180780,新規,0,2024-03-22,2024-03-22,株式会社ＭＯＭＯＴＡＲＯ　Ｈｏｌｄｉｎｇｓ,,株式会社,東京都,港区,北青山１丁目３番１号アールキューブ青山３階,,13,103,1070061,,,,,,,2024-03-22,1,,,,,モモタロウホールディングス,0
1458,6010401180938,新規,0,2024-03-22,2024-03-22,株式会社センチュリー東京,,株式会社,東京都,港区,西麻布３丁目６番１－１１０１号,,13,103,1060031,,,,,,,2024-03-22,1,,,,,センチュリートウキョウ,0
1459,6010401181102,新規,0,2024-03-22,2024-03-22,株式会社千代田経営会計事務所,,株式会社,東京都,港区,西新橋３丁目８番１号第二鈴丸ビル４階,,13,103,1050003,,,,,,,2024-03-22,1,,,,,チヨダケイエイカイケイジムショ,0
1460,6010401181176,新規,0,2024-03-22,2024-03-22,株式会社ＢＡＮＲＩ,,株式会社,東京都,港区,南青山３丁目１番３６号,,13,103,1070062,,,,,,,2024-03-22,1,,,,,バンリ,0
1461,6010401181218,新規,0,2024-03-22,2024-03-22,株式会社栄養医学研究所,,株式会社,東京都,港区,六本木７丁目７番７号,,13,103,1060032,,,,,,,2024-03-22,1,,,,,エイヨウイガクケンキュウジョ,0
1465,6010403032229,新規,0,2024-03-22,2024-03-22,合同会社隼,,合同会社,東京都,港区,白金３丁目１１番１２号,,13,103,1080072,,,,,,,2024-03-22,1,,,,,ハヤブサ,0
1470,6010501051989,新規,0,2024-03-22,2024-03-22,ＶＫＳＭ株式会社,,株式会社,東京都,台東区,東上野５丁目１３番９号,,13,106,1100015,,,,,,,2024-03-22,1,,,,,ブイケイエスエム,0
1477,6010701045741,新規,0,2024-03-22,2024-03-22,株式会社ＢＲＡＶＥ＆ＧＲＡＣＥ,,株式会社,東京都,品川区,上大崎３丁目５番２号,,13,109,1410021,,,,,,,2024-03-22,1,,,,,ブレイブアンドグレイス,0
1478,6010703007087,新規,0,2024-03-22,2024-03-22,合同会社ＴＡＯ,,合同会社,東京都,品川区,大崎１丁目１番１号,,13,109,1410032,,,,,,,2024-03-22,1,,,,,ティーエーオー,0
1481,6010901054930,新規,0,2024-03-22,2024-03-22,Ｒｏｏｉ　ＳｉｐＪｏｙ株式会社,,株式会社,東京都,世田谷区,北沢２丁目１０番１５号,,13,112,1550031,,,,,,,2024-03-22,1,,,,,ルイシップジョイ,0
1485,6011001160603,新規,0,2024-03-22,2024-03-22,株式会社おてら屋,,株式会社,東京都,目黒区,下目黒１丁目１－１４コノトラビル７Ｆ,,13,110,1530064,,,,,,,2024-03-22,1,,,,,オテラヤ,0
1486,6011001160652,新規,0,2024-03-22,2024-03-22,株式会社ワングローブ,,株式会社,東京都,渋谷区,神宮前６丁目３５番３号,,13,113,1500001,,,,,,,2024-03-22,1,,,,,ワングローブ,0
1487,6011001160669,新規,0,2024-03-22,2024-03-22,株式会社タカツキ,,株式会社,東京都,目黒区,自由が丘２丁目１０番１０号,,13,110,1520035,,,,,,,2024-03-22,1,,,,,タカツキ,0
1488,6011001160677,新規,0,2024-03-22,2024-03-22,株式会社ルイスコーポレーション,,株式会社,東京都,渋谷区,恵比寿４丁目２０番３号恵比寿ガーデンプレイスタワー１８階,,13,113,1500013,,,,,,,2024-03-22,1,,,,,ルイスコーポレーション,0
1489,6011001160693,新規,0,2024-03-22,2024-03-22,株式会社ｏｅｉｌｌｅｔ,,株式会社,東京都,渋谷区,代々木５丁目４６番３号－３０１,,13,113,1510053,,,,,,,2024-03-22,1,,,,,ウイエ,0
1490,6011001160702,新規,0,2024-03-22,2024-03-22,株式会社ＭＩＳＯ　ＳＴＵＤＩＯＳ,,株式会社,東京都,渋谷区,恵比寿１丁目１６番２６号協和ビル１０２,,13,113,1500013,,,,,,,2024-03-22,1,,,,,ミソステュディオス,0
1491,6011001160727,新規,0,2024-03-22,2024-03-22,ｆｒｏｎｔｃｏａｃｈｉｎｇ株式会社,,株式会社,東京都,渋谷区,道玄坂１丁目１０番８号渋谷道玄坂東急ビル２Ｆ－Ｃ,,13,113,1500043,,,,,,,2024-03-22,1,,,,,フロントコーチング,0
1492,6011001160743,新規,0,2024-03-22,2024-03-22,株式会社ＴＯＭＩＮＥ,,株式会社,東京都,渋谷区,円山町５番５号Ｎａｖｉ渋谷Ｖ３階,,13,113,1500044,,,,,,,2024-03-22,1,,,,,トミネ,0
1493,6011001160768,新規,0,2024-03-22,2024-03-22,株式会社ＳＡＫＵＲＡＳ,,株式会社,東京都,渋谷区,桜丘町２０番１号渋谷インフォスタワー,,13,113,1500031,,,,,,,2024-03-22,1,,,,,サクラス,0
1494,6011001160776,新規,0,2024-03-22,2024-03-22,メディカルストラクチャー株式会社,,株式会社,東京都,渋谷区,道玄坂１丁目１０番８号渋谷道玄坂東急ビル２Ｆ－Ｃ,,13,113,1500043,,,,,,,2024-03-22,1,,,,,メディカルストラクチャー,0
1496,6011003018717,新規,0,2024-03-22,2024-03-22,合同会社Ｍｉｒｕ＆Ｃｏ．,,合同会社,東京都,目黒区,下目黒１丁目１番１４号コノトラビル７Ｆ,,13,110,1530064,,,,,,,2024-03-22,1,,,,,ミル,0
1497,6011005010416,新規,0,2024-03-22,2024-03-22,一般社団法人ＭｅｌｔｉｎｇＰｏｔ,,その他の設立登記法人,東京都,目黒区,下目黒１丁目１番１４号コノトラビル７Ｆ,,13,110,1530064,,,,,,,2024-03-22,1,,,,,メルティングポット,0
1503,6011103014244,新規,0,2024-03-22,2024-03-22,合同会社Ｎｏｖａｓｓｉｓ,,合同会社,東京都,新宿区,神楽坂６丁目８番地アスコット神楽坂３０１,,13,104,1620825,,,,,,,2024-03-22,1,,,,,ノヴァシス,0
1507,6011105010976,新規,0,2024-03-22,2024-03-22,Ｔ．Ｖ．Ｂ税理士法人,,その他の設立登記法人,東京都,新宿区,新宿２丁目９番２２号多摩川新宿ビル６階,,13,104,1600022,,,,,,,2024-03-22,1,,,,,ティーブイビー,0
1513,6011401025934,新規,0,2024-03-22,2024-03-22,株式会社イトー工芸ホールディングス,,株式会社,東京都,板橋区,成増４丁目２５番１７号,,13,119,1750094,,,,,,,2024-03-22,1,,,,,イトーコウゲイホールディングス,0
1514,6011501030462,新規,0,2024-03-22,2024-03-22,株式会社ｃｅｎａ,,株式会社,東京都,北区,赤羽西１丁目２６番１３号,,13,117,1150055,,,,,,,2024-03-22,1,,,,,チェナ,0
1515,6011701027127,新規,0,2024-03-22,2024-03-22,株式会社ヒストリンク,,株式会社,東京都,江戸川区,平井５丁目１５－１０平井駅北口駅前ビル２Ｆ,,13,123,1320035,,,,,,,2024-03-22,1,,,,,ヒストリンク,0
1520,6011801043940,新規,0,2024-03-22,2024-03-22,株式会社ＭＡＭ,,株式会社,東京都,葛飾区,南水元４丁目１７番２３号,,13,122,1250035,,,,,,,2024-03-22,1,,,,,マム,0
1521,6011801043949,新規,0,2024-03-22,2024-03-22,森達株式会社,,株式会社,東京都,足立区,竹の塚１丁目１３－１３－３０２号室,,13,121,1210813,,,,,,,2024-03-22,1,,,,,モリタツ,0
1522,6011801043957,新規,0,2024-03-22,2024-03-22,株式会社山旭,,株式会社,東京都,足立区,六月３丁目４番１１－６０４号,,13,121,1210814,,,,,,,2024-03-22,1,,,,,サンキョク,0
1523,6011801043973,新規,0,2024-03-22,2024-03-22,東岸国際株式会社,,株式会社,東京都,葛飾区,奥戸３丁目２６番２３号,,13,122,1240022,,,,,,,2024-03-22,1,,,,,トウガンコクサイ,0
1530,6012701018149,新規,0,2024-03-22,2024-03-22,株式会社ルナローム,,株式会社,東京都,東久留米市,滝山２丁目５－１－１０３,,13,222,2030033,,,,,,,2024-03-22,1,,,,,ルナローム,0
1533,6013301052224,新規,0,2024-03-22,2024-03-22,株式会社９Ａｔｏ　Ｅｎｔｅｒｔａｉｎｍｅｎｔ　Ｊａｐａｎ,,株式会社,東京都,豊島区,西池袋３丁目２１番１３－２２０９号,,13,116,1710021,,,,,,,2024-03-22,1,,,,,ナインアットエンターテイメイント,0
1538,6020001156288,新規,0,2024-03-22,2024-03-22,株式会社コムリード,,株式会社,神奈川県,横浜市旭区,中沢１丁目３５番１１号,,14,112,2410814,,,,,,,2024-03-22,1,,,,,コムリード,0
1539,6020001156313,新規,0,2024-03-22,2024-03-22,株式会社Ｒｏｏｔｓ　Ｒｅｗｉｎｄ,,株式会社,神奈川県,川崎市麻生区,王禅寺東２丁目３９番１号,,14,137,2150018,,,,,,,2024-03-22,1,,,,,ルーツリワインド,0
1544,6020003025763,新規,0,2024-03-22,2024-03-22,ＪＵＳＰＥＲ合同会社,,合同会社,神奈川県,横浜市戸塚区,戸塚町４１６２,,14,110,2440003,,,,,,,2024-03-22,1,,,,,ジャスパー,0
1545,6020003025805,新規,0,2024-03-22,2024-03-22,合同会社Ｎｅｕｔｒａｌ,,合同会社,神奈川県,川崎市宮前区,宮崎２丁目８―８ＣＯＭＯＤＯ宮崎台３０５,,14,136,2160033,,,,,,,2024-03-22,1,,,,,ニュートラル,0
1548,6021001081732,新規,0,2024-03-22,2024-03-22,ＭＡＲＥ株式会社,,株式会社,神奈川県,鎌倉市,御成町４－１５－３０１,,14,204,2480012,,,,,,,2024-03-22,1,,,,,マーレ,0
1549,6021003014277,新規,0,2024-03-22,2024-03-22,苅宿俊文研究室合同会社,,合同会社,神奈川県,相模原市中央区,由野台１丁目１番５号ホワイトパレス万年青４０６,,14,152,2520222,,,,,,,2024-03-22,1,,,,,カリヤドトシブミケンキュウシツ,0
1552,6030001159315,新規,0,2024-03-22,2024-03-22,株式会社インクレディブルジャパン,,株式会社,埼玉県,春日部市,粕壁東６丁目８－２４,,11,214,3440062,,,,,,,2024-03-22,1,,,,,インクレディブルジャパン,0
1553,6030001159323,新規,0,2024-03-22,2024-03-22,株式会社Ｅｋｏｌｕ,,株式会社,埼玉県,八潮市,大字二丁目１９５番地１,,11,234,3400811,,,,,,,2024-03-22,1,,,,,エコル,0
1554,6030001159348,新規,0,2024-03-22,2024-03-22,株式会社藤木興業,,株式会社,埼玉県,草加市,苗塚町３２８－５Ｓａｉｌｉｎｇ１０１号室,,11,221,3400036,,,,,,,2024-03-22,1,,,,,フジキコウギョウ,0
1555,6030001159356,新規,0,2024-03-22,2024-03-22,株式会社３１１０,,株式会社,埼玉県,川口市,本町１丁目５番１９号,,11,203,3320012,,,,,,,2024-03-22,1,,,,,サンイチイチゼロ,0
1556,6030001159364,新規,0,2024-03-22,2024-03-22,株式会社ハヤシ,,株式会社,埼玉県,川口市,芝園町３番４－８１３号芝園団地,,11,203,3330853,,,,,,,2024-03-22,1,,,,,ハヤシ,0
1557,6030001159380,新規,0,2024-03-22,2024-03-22,Ｗ＆ＡＳトレーディング株式会社,,株式会社,埼玉県,比企郡川島町,大字下狢６５１,,11,346,3500135,,,,,,,2024-03-22,1,,,,,ダブルアンドエーエストレーディング,0
1561,6030003023849,新規,0,2024-03-22,2024-03-22,合同会社Ａｉｌｅ,,合同会社,埼玉県,熊谷市,円光１丁目１番地３３号,,11,202,3600813,,,,,,,2024-03-22,1,,,,,エール,0
1562,6030003023857,新規,0,2024-03-22,2024-03-22,合同会社アド,,合同会社,埼玉県,深谷市,武蔵野１９６１,,11,218,3691241,,,,,,,2024-03-22,1,,,,,アド,0
1563,6040001132675,新規,0,2024-03-22,2024-03-22,株式会社かわしま,,株式会社,千葉県,八千代市,神野７１２,,12,221,2760016,,,,,,,2024-03-22,1,,,,,カワシマ,0
1564,6040001132717,新規,0,2024-03-22,2024-03-22,ＬＩＦＥ　ＲｅＢＯＲＮ株式会社,,株式会社,千葉県,船橋市,藤原５丁目１２番８４号,,12,204,2730047,,,,,,,2024-03-22,1,,,,,ライフリボーン,0
1565,6040001132733,新規,0,2024-03-22,2024-03-22,菊家カンパニー株式会社,,株式会社,千葉県,木更津市,真里１０４９番地,,12,206,2920212,,,,,,,2024-03-22,1,,,,,キクヤカンパニー,0
1566,6040001132741,新規,0,2024-03-22,2024-03-22,株式会社アキ,,株式会社,千葉県,柏市,あけぼの４丁目３番２１号柏あけぼのビル２階,,12,217,2770841,,,,,,,2024-03-22,1,,,,,アキ,0
1575,6050001054456,新規,0,2024-03-22,2024-03-22,株式会社エムエスホールディングス,,株式会社,茨城県,水戸市,姫子１丁目８９番地１,,08,201,3114151,,,,,,,2024-03-22,1,,,,,エムエスホールディングス,0
1576,6050001054464,新規,0,2024-03-22,2024-03-22,株式会社エースホット,,株式会社,茨城県,神栖市,筒井１３６７－３,,08,232,3140132,,,,,,,2024-03-22,1,,,,,エースホット,0
1577,6050001054480,新規,0,2024-03-22,2024-03-22,やまた株式会社,,株式会社,茨城県,神栖市,土合中央２丁目３番２１号,,08,232,3140347,,,,,,,2024-03-22,1,,,,,ヤマタ,0
1578,6050001054489,新規,0,2024-03-22,2024-03-22,株式会社大建コーポレーション,,株式会社,茨城県,水戸市,平須町１８２４番地の１９,,08,201,3100853,,,,,,,2024-03-22,1,,,,,ダイケンコーポレーション,0
1579,6050003008212,新規,0,2024-03-22,2024-03-22,合同会社啓万,,合同会社,茨城県,水戸市,本町３丁目４番３０号,,08,201,3100815,,,,,,,2024-03-22,1,,,,,ケイマン,0
1580,6060001036932,新規,0,2024-03-22,2024-03-22,株式会社ハレ,,株式会社,栃木県,足利市,葉鹿町２７１番地１,,09,202,3260143,,,,,,,2024-03-22,1,,,,,ハレ,0
1584,6070001041519,新規,0,2024-03-22,2024-03-22,株式会社いきなこ商店,,株式会社,群馬県,高崎市,新町２２７０番地１１,,10,202,3701301,,,,,,,2024-03-22,1,,,,,イキナコショウテン,0
1587,6080001026196,新規,0,2024-03-22,2024-03-22,日本エイジングケアＬａｂｏ株式会社,,株式会社,静岡県,静岡市葵区,東静岡１丁目１番３９号マークスアネシスタワー,,22,101,4200817,,,,,,,2024-03-22,1,,,,,ニホンエイジングケアラボ,0
1588,6080003003160,新規,0,2024-03-22,2024-03-22,合同会社ぐっじょぶ,,合同会社,静岡県,静岡市駿河区,中島３２９７,,22,102,4228046,,,,,,,2024-03-22,1,,,,,グッジョブ,0
1592,6080401027075,新規,0,2024-03-22,2024-03-22,株式会社９９９コーポレーション,,株式会社,静岡県,浜松市浜名区,尾野１２１１番地１,,22,139,4340002,,,,,,,2024-03-22,1,,,,,キューキューキューコーポレーション,0
1600,6110001038270,新規,0,2024-03-22,2024-03-22,株式会社宮川重機,,株式会社,新潟県,小千谷市,大字桜町２３３６番地,,15,208,9470035,,,,,,,2024-03-22,1,,,,,ミヤカワジュウキ,0
1613,6120001263248,新規,0,2024-03-22,2024-03-22,オルレアンの乙女株式会社,,株式会社,大阪府,大阪市淀川区,西中島３丁目１１番１４－２０６号,,27,123,5320011,,,,,,,2024-03-22,1,,,,,オルレアンノオトメ,0
1614,6120001263272,新規,0,2024-03-22,2024-03-22,株式会社ＷＥＢコン,,株式会社,大阪府,大阪市北区,曾根崎新地２丁目６番２３号ＭＦ桜橋ビル５階Ｄ,,27,127,5300002,,,,,,,2024-03-22,1,,,,,ウェブコン,0
1615,6120001263306,新規,0,2024-03-22,2024-03-22,株式会社ＵＭＲ,,株式会社,大阪府,大阪市大正区,泉尾５丁目１０番４号,,27,108,5510031,,,,,,,2024-03-22,1,,,,,ユーエムアール,0
1616,6120001263314,新規,0,2024-03-22,2024-03-22,株式会社ＫＡＫＥＲＵ,,株式会社,大阪府,守口市,八雲東町２丁目６１番４号,,27,209,5700021,,,,,,,2024-03-22,1,,,,,カケル,0
1617,6120001263330,新規,0,2024-03-22,2024-03-22,ＴＤ　ｃｏｎｎｅｃｔ株式会社,,株式会社,大阪府,大阪市中央区,南船場３丁目９番６号３Ｆ,,27,128,5420081,,,,,,,2024-03-22,1,,,,,ティーディーコネクト,0
1618,6120001263363,新規,0,2024-03-22,2024-03-22,株式会社モカイル・クリーン,,株式会社,大阪府,大阪市浪速区,敷津東２丁目１番２４なんばグランドマスターズタワー２４０２,,27,111,5560012,,,,,,,2024-03-22,1,,,,,モカイルクリーン,0
1619,6120001263371,新規,0,2024-03-22,2024-03-22,株式会社ＥＲＡ　ＣＲＥＡＴＩＶＥ,,株式会社,大阪府,大阪市中央区,平野町２丁目５番１４－６０３号,,27,128,5410046,,,,,,,2024-03-22,1,,,,,エラクリエイティブ,0
1620,6120001263388,新規,0,2024-03-22,2024-03-22,株式会社Ｈａｒｍｏｎｉａ,,株式会社,大阪府,大阪市淀川区,西中島６丁目６－６ＮＬＣ新大阪１１号館３０１号室,,27,123,5320011,,,,,,,2024-03-22,1,,,,,ハルモニア,0
1627,6120901048905,新規,0,2024-03-22,2024-03-22,株式会社ＲＩＺ,,株式会社,大阪府,豊中市,庄内幸町３丁目２８番１１号,,27,203,5610833,,,,,,,2024-03-22,1,,,,,リズ,0
1628,6120901048913,新規,0,2024-03-22,2024-03-22,ＬＩＦＥ　ＳＥＳＳＩＯＮ株式会社,,株式会社,大阪府,吹田市,千里山東１丁目２４番１８号,,27,205,5650842,,,,,,,2024-03-22,1,,,,,ライフセッション,0
1629,6120901048938,新規,0,2024-03-22,2024-03-22,Ｙ．Ｓ．Ｋ株式会社,,株式会社,大阪府,豊中市,刀根山元町４番３４号,,27,203,5600044,,,,,,,2024-03-22,1,,,,,ワイエスケイ,0
1630,6120901048946,新規,0,2024-03-22,2024-03-22,株式会社ＧＯＬＤ　ＭＩＮＥ,,株式会社,大阪府,豊中市,南桜塚１丁目３番８－３０８号,,27,203,5610882,,,,,,,2024-03-22,1,,,,,ゴールドマイン,0
1634,6120903005094,新規,0,2024-03-22,2024-03-22,イノベーション合同会社,,合同会社,大阪府,茨木市,真砂２丁目１２番１７号,,27,211,5670851,,,,,,,2024-03-22,1,,,,,イノベーション,0
1645,6130003009375,新規,0,2024-03-22,2024-03-22,ＮＶＭ合同会社,,合同会社,京都府,京都市下京区,朱雀宝蔵町４４番地協栄ビル２階京都朱雀スタジオ,,26,106,6008846,,,,,,,2024-03-22,1,,,,,エヌヴィーエム,0
1646,6140001133738,新規,0,2024-03-22,2024-03-22,株式会社スペースロック,,株式会社,兵庫県,西宮市,六湛寺町１番１０号山崎ビル２階,,28,204,6620918,,,,,,,2024-03-22,1,,,,,スペースロック,0
1647,6140001133779,新規,0,2024-03-22,2024-03-22,株式会社谷口牧場,,株式会社,兵庫県,宍粟市,山崎町葛根７５２番地１,,28,227,6712568,,,,,,,2024-03-22,1,,,,,タニグチボクジョウ,0
1648,6140001133804,新規,0,2024-03-22,2024-03-22,株式会社Ｓｈｕｕ,,株式会社,兵庫県,高砂市,高砂町松波町４４０番地の７０,,28,216,6760023,,,,,,,2024-03-22,1,,,,,シュウ,0
1650,6140003020298,新規,0,2024-03-22,2024-03-22,合同会社ＩＮｆｅａＴ,,合同会社,兵庫県,神戸市垂水区,清水が丘３丁目６番２０号,,28,108,6550031,,,,,,,2024-03-22,1,,,,,インフィート,0
1651,6140003020307,新規,0,2024-03-22,2024-03-22,合同会社カイゴノイエ,,合同会社,兵庫県,明石市,貴崎５丁目２番６－１０１号,,28,203,6730037,,,,,,,2024-03-22,1,,,,,,0
1652,6140003020315,新規,0,2024-03-22,2024-03-22,合同会社ＣＯＮＦＩＤＡＮＴ,,合同会社,兵庫県,明石市,二見町西二見１２２４－１２プリンス西二見１０１,,28,203,6740094,,,,,,,2024-03-22,1,,,,,コンフィダント,0
1653,6140005026979,新規,0,2024-03-22,2024-03-22,一般社団法人ＬｉｎｋＳｍｉｌｅ　ｐｒｏｊｅｃｔ,,その他の設立登記法人,兵庫県,西宮市,名塩南台２丁目５番地３,,28,204,6691132,,,,,,,2024-03-22,1,,,,,リンクスマイルプロジェクト,0
1656,6150001027162,新規,0,2024-03-22,2024-03-22,株式会社翠,,株式会社,奈良県,大和郡山市,城の台町８番地１,,29,203,6391008,,,,,,,2024-03-22,1,,,,,ミドリ,0
1664,6180001160407,新規,0,2024-03-22,2024-03-22,ＨＡＫプラスチック株式会社,,株式会社,愛知県,名古屋市北区,大曽根３丁目１０番７号,,23,103,4620825,,,,,,,2024-03-22,1,,,,,ハックプラスチック,0
1665,6180001160621,新規,0,2024-03-22,2024-03-22,株式会社ＮＶＲ,,株式会社,愛知県,名古屋市西区,中小田井３丁目１４３番地‐７０３号,,23,104,4520822,,,,,,,2024-03-22,1,,,,,ネバー,0
1666,6180001160679,新規,0,2024-03-22,2024-03-22,株式会社Ｚｅａｌ　ａｄｖａｎｃｅ,,株式会社,愛知県,半田市,白山町５丁目２０５番地の３,,23,205,4750912,,,,,,,2024-03-22,1,,,,,ジールアドバンス,0
1667,6180001160687,新規,0,2024-03-22,2024-03-22,西日本信用株式会社,,株式会社,愛知県,名古屋市中区,栄２丁目２番１号,,23,106,4600008,,,,,,,2024-03-22,1,,,,,ニシニホンシンヨウ,0
1668,6180001160712,新規,0,2024-03-22,2024-03-22,やさしい株式会社,,株式会社,愛知県,名古屋市千種区,古出来３丁目２番７号,,23,101,4640085,,,,,,,2024-03-22,1,,,,,ヤサシイ,0
1673,6180003026531,新規,0,2024-03-22,2024-03-22,合同会社リライフ,,合同会社,愛知県,名古屋市東区,葵１丁目２番２０号シティタワー葵１２１６号,,23,102,4610004,,,,,,,2024-03-22,1,,,,,リライフ,0
1675,6180301038427,新規,0,2024-03-22,2024-03-22,株式会社飲食店集客ラボ,,株式会社,愛知県,額田郡幸田町,大字芦谷字幸田３６番地,00134158,23,501,4440116,,,,,,,2024-03-22,1,,,,,インショクテンシュウキャクラボ,0
1676,6180301038435,新規,0,2024-03-22,2024-03-22,株式会社ＭＥＣ,,株式会社,愛知県,豊橋市,大村町字大ノ前５１番地２,,23,201,4400081,,,,,,,2024-03-22,1,,,,,メック,0
1677,6180301038443,新規,0,2024-03-22,2024-03-22,株式会社ＩＮＡＨＯ,,株式会社,愛知県,岡崎市,稲熊町字５丁目１５３番地,,23,202,4440071,,,,,,,2024-03-22,1,,,,,イナホ,0
1678,6180301038451,新規,0,2024-03-22,2024-03-22,株式会社中部甲信越ホールディングス,,株式会社,愛知県,知立市,牛田町裏新切２２番地１,,23,225,4720007,,,,,,,2024-03-22,1,,,,,チュウブコウシンエツホールディングス,0
1679,6180303006043,新規,0,2024-03-22,2024-03-22,合同会社電天,,合同会社,愛知県,豊橋市,佐藤２丁目２１番地２,,23,201,4400853,,,,,,,2024-03-22,1,,,,,デンテン,0
1680,6190001031210,新規,0,2024-03-22,2024-03-22,本好工業株式会社,,株式会社,三重県,四日市市,小林町３０１８番地２１８,,24,202,5100946,,,,,,,2024-03-22,1,,,,,モトヨシコウギョウ,0
1689,6240003006584,新規,0,2024-03-22,2024-03-22,合同会社ｏｕｒｎｅｓｓ,,合同会社,広島県,福山市,駅家町中島９１１－５,,34,207,7210000,,,,,,,2024-03-22,1,,,,,アワネス,0
1691,6240005015749,新規,0,2024-03-22,2024-03-22,一般社団法人キャリアビジョン協会,,その他の設立登記法人,広島県,広島市西区,庚午北４丁目６番２４号,,34,104,7330821,,,,,,,2024-03-22,1,,,,,キャリアビジョンキョウカイ,0
1703,6290001105144,新規,0,2024-03-22,2024-03-22,株式会社プラスエム,,株式会社,福岡県,大牟田市,下白川町１丁目８５番地６,,40,202,8370928,,,,,,,2024-03-22,1,,,,,プラスエム,0
1704,6290001105210,新規,0,2024-03-22,2024-03-22,株式会社ＨＬナレッジ,,株式会社,福岡県,福岡市博多区,博多駅南２丁目１９－６－５０２,,40,132,8120016,,,,,,,2024-03-22,1,,,,,エイチエルナレッジ,0
1705,6290003015077,新規,0,2024-03-22,2024-03-22,合同会社ＢＳＫ,,合同会社,福岡県,福岡市博多区,博多駅前１‐２３‐２パークフロント博多駅前１丁目５Ｆ‐Ｂ,,40,132,8120000,,,,,,,2024-03-22,1,,,,,ビーエスケー,0
1706,6290003015102,新規,0,2024-03-22,2024-03-22,合同会社Ｋｉｎｄ　Ｐｌｕｓ,,合同会社,福岡県,糸島市,志摩西貝塚２７６番地,,40,230,8191325,,,,,,,2024-03-22,1,,,,,カインドプラス,0
1711,6310001018913,新規,0,2024-03-22,2024-03-22,株式会社福繁商会,,株式会社,長崎県,佐世保市,三川内町１９０－１,,42,202,8593155,,,,,,,2024-03-22,1,,,,,フクシゲショウカイ,0
1714,6320001020372,新規,0,2024-03-22,2024-03-22,株式会社日本キャパシタ電力,,株式会社,大分県,由布市,湯布院町中川１０５０番地１,,44,213,8795104,,,,,,,2024-03-22,1,,,,,ニホンキャパシタデンリョク,0
1715,6320003004316,新規,0,2024-03-22,2024-03-22,合同会社ＲＡＩ,,合同会社,大分県,大分市,永興１丁目２番４６号,,44,201,8700883,,,,,,,2024-03-22,1,,,,,ライ,0
1724,6360001033379,新規,0,2024-03-22,2024-03-22,株式会社直組,,株式会社,沖縄県,うるま市,みどり町２丁目１３番７号,,47,213,9042215,,,,,,,2024-03-22,1,,,,,ナオグミ,0
1727,6360003013817,新規,0,2024-03-22,2024-03-22,ＲＡＦ合同会社,,合同会社,沖縄県,中頭郡北谷町,字吉原９３６ＧＲＥＥＮＧＡＲＤＥＮ,,47,326,9040105,,,,,,,2024-03-22,1,,,,,ラフ,0
1730,6370001051082,新規,0,2024-03-22,2024-03-22,株式会社ＺＥＵＳ,,株式会社,宮城県,石巻市,恵み野４丁目４－４,,04,202,9860868,,,,,,,2024-03-22,1,,,,,ゼウス,0
1735,6380003005721,新規,0,2024-03-22,2024-03-22,合同会社ＲＰＳ,,合同会社,福島県,福島市,松川町下川崎字鍜治屋山１４番地,,07,201,9601232,,,,,,,2024-03-22,1,,,,,アールピーエス,0
1738,6400003003227,新規,0,2024-03-22,2024-03-22,合同会社Ｒａｙ‐Ｌｉｎｅ,,合同会社,岩手県,盛岡市,高松２丁目１８番５５号,,03,201,0200114,,,,,,,2024-03-22,1,,,,,レイライン,0
1742,6420001018646,新規,0,2024-03-22,2024-03-22,株式会社ＭＩＲＩＺＥ,,株式会社,青森県,北津軽郡中泊町,大字八幡字盛山３６５番地１八幡団地１１号,,02,387,0370309,,,,,,,2024-03-22,1,,,,,ミライズ,0
1744,6430001091345,新規,0,2024-03-22,2024-03-22,株式会社北凰,,株式会社,北海道,札幌市白石区,栄通５丁目７番１９－２０２号,,01,104,0030021,,,,,,,2024-03-22,1,,,,,ホクオウ,0
1745,6430001091353,新規,0,2024-03-22,2024-03-22,株式会社８ｅｉｇｈｔ,,株式会社,北海道,札幌市白石区,川北三条１丁目９－１,,01,104,0030853,,,,,,,2024-03-22,1,,,,,ハチエイト,0
1746,6430001091378,新規,0,2024-03-22,2024-03-22,株式会社アイランドアロー,,株式会社,北海道,札幌市厚別区,大谷地東３丁目３番１－１００３号,,01,108,0040041,,,,,,,2024-03-22,1,,,,,アイランドアロー,0
1747,6430003016093,新規,0,2024-03-22,2024-03-22,合同会社和だち,,合同会社,北海道,江別市,文京台６６番地の７サーム森林公園弐番館２１０,,01,217,0690833,,,,,,,2024-03-22,1,,,,,ワダチ,0
1748,6430003016102,新規,0,2024-03-22,2024-03-22,合同会社ライト,,合同会社,北海道,札幌市手稲区,富丘二条４丁目１３番１８号,,01,109,0060012,,,,,,,2024-03-22,1,,,,,ライト,0
1749,6430003016110,新規,0,2024-03-22,2024-03-22,Ｎｏｒｔｈ　Ｇｒｅｅｎａｔｉｏｎ合同会社,,合同会社,北海道,札幌市中央区,南二条西７丁目１番５　２．７ビル２階,,01,101,0600062,,,,,,,2024-03-22,1,,,,,ノースグリーンネーション,0
1750,6430003016119,新規,0,2024-03-22,2024-03-22,トヅキ合同会社,,合同会社,北海道,札幌市西区,西野六条１０丁目２４番２４号,,01,107,0630036,,,,,,,2024-03-22,1,,,,,トヅキ,0
1756,6470001020093,新規,0,2024-03-22,2024-03-22,株式会社ボンテッジ・ジャパン,,株式会社,香川県,高松市,田町１４番地６,,37,201,7600053,,,,,,,2024-03-22,1,,,,,ボンテッジジャパン,0
1757,6480001012420,新規,0,2024-03-22,2024-03-22,株式会社大豊,,株式会社,徳島県,鳴門市,撫養町黒崎字松島９６番地２,,36,202,7720001,,,,,,,2024-03-22,1,,,,,タイホウ,0
1759,6480005007012,新規,0,2024-03-22,2024-03-22,四国マイミルク酪農協同組合,,その他の設立登記法人,徳島県,阿波市,吉野町西条字野田原８４番地１,,36,206,7711402,,,,,,,2024-03-22,1,,,,,シコクマイミルクラクノウ,0
1760,6490003001874,新規,0,2024-03-22,2024-03-22,合同会社なかとさＬＩＦＥ,,合同会社,高知県,高岡郡中土佐町,久礼６１９３－１０,,39,401,7891301,,,,,,,2024-03-22,1,,,,,ナカトサライフ,0
1777,7010003043220,新規,0,2024-03-22,2024-03-22,合同会社ＹＵＭＥＮＯ,,合同会社,東京都,中央区,銀座１丁目１２番４号Ｎ＆ＥＢＬＤ．６Ｆ,,13,102,1040061,,,,,,,2024-03-22,1,,,,,ユメノ,0
1778,7010005038078,新規,0,2024-03-22,2024-03-22,マーズ特定目的会社,,その他の設立登記法人,東京都,千代田区,麹町５丁目１番地ＮＫ真和ビル９階,,13,101,1020083,,,,,,,2024-03-22,1,,,,,マーズ,0
1779,7010101016053,新規,0,2024-03-22,2024-03-22,建築ピンチランナー株式会社,,株式会社,東京都,八王子市,館町６３７番地２－２０１,,13,201,1930944,,,,,,,2024-03-22,1,,,,,ケンチクピンチランナー,0
1780,7010103002324,新規,0,2024-03-22,2024-03-22,鴻運合同会社,,合同会社,東京都,八王子市,長沼町１３０７－１２,,13,201,1920907,,,,,,,2024-03-22,1,,,,,コウウン,0
1786,7010401181101,新規,0,2024-03-22,2024-03-22,株式会社Ｅｍｅｒａｌｄ　Ｐｒｏｐｅｒｔｙ,,株式会社,東京都,港区,赤坂６丁目１３番１９号オリエント赤坂６０２号,,13,103,1070052,,,,,,,2024-03-22,1,,,,,エメラルドプロパティ,0
1790,7010403032211,新規,0,2024-03-22,2024-03-22,ラヴィベル合同会社,,合同会社,東京都,港区,南麻布２丁目５番１６－７０３号,,13,103,1060047,,,,,,,2024-03-22,1,,,,,ラヴィベル,0
1791,7010403032228,新規,0,2024-03-22,2024-03-22,合同会社ｖａｃｉｌａｎｄｏ,,合同会社,東京都,港区,白金台５丁目２－５トランドウ白金台４０４,,13,103,1080071,,,,,,,2024-03-22,1,,,,,ヴァシランド,0
1792,7010403032244,新規,0,2024-03-22,2024-03-22,ＭｉｎｄＭａｔｒｉｘ合同会社,,合同会社,東京都,港区,南青山３丁目１番３６号青山丸竹ビル６Ｆ,,13,103,1070062,,,,,,,2024-03-22,1,,,,,マインドマトリックス,0
1793,7010403032252,新規,0,2024-03-22,2024-03-22,合同会社Ｕｎｌｏｃｋ,,合同会社,東京都,港区,浜松町２丁目２番１５号浜松町ダイヤビル２Ｆ,,13,103,1050013,,,,,,,2024-03-22,1,,,,,アンロック,0
1794,7010405023027,新規,0,2024-03-22,2024-03-22,一般社団法人Ｍｉｎｅｒｖａ　Ｊａｐａｎ,,その他の設立登記法人,東京都,港区,南青山５丁目１２番２４号,,13,103,1070062,,,,,,,2024-03-22,1,,,,,ミネルバジャパン,0
1796,7010501051963,新規,0,2024-03-22,2024-03-22,Ｄｅａｒ　Ｄｅｓｉｇｎ株式会社,,株式会社,東京都,台東区,柳橋１丁目８番地５,,13,106,1110052,,,,,,,2024-03-22,1,,,,,ディアデザイン,0
1797,7010501051971,新規,0,2024-03-22,2024-03-22,株式会社髪美人,,株式会社,東京都,台東区,元浅草２丁目９番１０－３０１号ステージグランデ元浅草,,13,106,1110041,,,,,,,2024-03-22,1,,,,,カミビジン,0
1798,7010503007385,新規,0,2024-03-22,2024-03-22,合同会社ＪＪＳ,,合同会社,東京都,台東区,上野６丁目１－６御徒町グリーンハイツ８０５号,,13,106,1100005,,,,,,,2024-03-22,1,,,,,ジェージェーエス,0
1801,7010601064840,新規,0,2024-03-22,2024-03-22,Ｔ＆Ｓ株式会社,,株式会社,東京都,江東区,東陽３丁目３番１－９０１号,,13,108,1350016,,,,,,,2024-03-22,1,,,,,ティーアンドエス,0
1802,7010601064857,新規,0,2024-03-22,2024-03-22,ＰＷＣパワーシステム株式会社,,株式会社,東京都,江東区,潮見２丁目３番９号２階,,13,108,1350052,,,,,,,2024-03-22,1,,,,,ピーダブリューシーパワーシステム,0
1804,7010701045708,新規,0,2024-03-22,2024-03-22,株式会社ＨＡＭＯＮ,,株式会社,東京都,品川区,上大崎３丁目２－１目黒センタービル８階,,13,109,1410021,,,,,,,2024-03-22,1,,,,,ハモン,0
1805,7010701045732,新規,0,2024-03-22,2024-03-22,株式会社ＹＵＺＵ,,株式会社,東京都,品川区,西大井１丁目５番９－１０１号,,13,109,1400015,,,,,,,2024-03-22,1,,,,,ユズ,0
1806,7010801034882,新規,0,2024-03-22,2024-03-22,株式会社ＢＢＷ,,株式会社,東京都,大田区,山王１丁目３１番１１号弓削多ビル３Ｆ西,,13,111,1430023,,,,,,,2024-03-22,1,,,,,ビービーダブリュー,0
1808,7010803004891,新規,0,2024-03-22,2024-03-22,日進合同会社,,合同会社,東京都,大田区,西蒲田６丁目３１番６号,,13,111,1440051,,,,,,,2024-03-22,1,,,,,ニッシン,0
1813,7010901054905,新規,0,2024-03-22,2024-03-22,株式会社クリエイトダイザー,,株式会社,東京都,世田谷区,駒沢３丁目７番３－３０３号,,13,112,1540012,,,,,,,2024-03-22,1,,,,,クリエイトダイザー,0
1814,7010901054913,新規,0,2024-03-22,2024-03-22,株式会社ｒｃｅｏ,,株式会社,東京都,世田谷区,太子堂１丁目１２－２７コンフォートテラス１００５号,,13,112,1540004,,,,,,,2024-03-22,1,,,,,アールシーイーオー,0
1815,7010903008909,新規,0,2024-03-22,2024-03-22,Ｓｕｎｎｙ　Ｐｉｅｃｅｓ合同会社,,合同会社,東京都,世田谷区,弦巻２丁目２８番３号,,13,112,1540016,,,,,,,2024-03-22,1,,,,,サニーピースィズ,0
1820,7011001160668,新規,0,2024-03-22,2024-03-22,株式会社ＳＡホーム,,株式会社,東京都,渋谷区,南平台町２番１２号,,13,113,1500036,,,,,,,2024-03-22,1,,,,,,0
1821,7011001160684,新規,0,2024-03-22,2024-03-22,株式会社ＳＴＵＤＩＯ　ＨＯＭＥ,,株式会社,東京都,渋谷区,代官山町８－７ＤＡＩＷＡ代官山ビル,,13,113,1500034,,,,,,,2024-03-22,1,,,,,スタジオホーム,0
1822,7011001160692,新規,0,2024-03-22,2024-03-22,リブライフ株式会社,,株式会社,東京都,渋谷区,笹塚３丁目２４番５号エレガンス笹塚５０１,,13,113,1510073,,,,,,,2024-03-22,1,,,,,リブライフ,0
1823,7011001160726,新規,0,2024-03-22,2024-03-22,株式会社マナバナ,,株式会社,東京都,渋谷区,初台１丁目３番８号ＬＯＮＯ初台２０２,,13,113,1510061,,,,,,,2024-03-22,1,,,,,マナバナ,0
1824,7011001160767,新規,0,2024-03-22,2024-03-22,株式会社ハルマキングコング,,株式会社,東京都,渋谷区,広尾５丁目１７番１３号,,13,113,1500012,,,,,,,2024-03-22,1,,,,,ハルマキングコング,0
1825,7011001160783,新規,0,2024-03-22,2024-03-22,株式会社ＭＡＪＥＮＣＥ,,株式会社,東京都,渋谷区,恵比寿４丁目２０番３号恵比寿ガーデンプレイスタワー１８階,,13,113,1500013,,,,,,,2024-03-22,1,,,,,マジェンス,0
1826,7011001160800,新規,0,2024-03-22,2024-03-22,ココゾロ株式会社,,株式会社,東京都,渋谷区,道玄坂１丁目１０番８号渋谷道玄坂東急ビル２Ｆ－Ｃ,,13,113,1500043,,,,,,,2024-03-22,1,,,,,ココゾロ,0
1827,7011001160809,新規,0,2024-03-22,2024-03-22,株式会社ＯＨＢＡＹＡＳＨＩ,,株式会社,東京都,渋谷区,千駄ヶ谷５丁目２９番７号,,13,113,1510051,,,,,,,2024-03-22,1,,,,,オオバヤシ,0
1828,7011001160817,新規,0,2024-03-22,2024-03-22,株式会社ＳＹＮＥＲＧＹＣＯ,,株式会社,東京都,渋谷区,道玄坂１丁目１０番８号渋谷道玄坂東急ビル２Ｆ－Ｃ,,13,113,1500043,,,,,,,2024-03-22,1,,,,,シナジーコー,0
1830,7011003018708,新規,0,2024-03-22,2024-03-22,合同会社Ｌａｕｒｅｌｓ,,合同会社,東京都,渋谷区,恵比寿西２丁目８番４号ＥＸ恵比寿西ビル５階,,13,113,1500021,,,,,,,2024-03-22,1,,,,,ローレルズ,0
1831,7011003018716,新規,0,2024-03-22,2024-03-22,合同会社Ｆａｎｆａｒｅ,,合同会社,東京都,渋谷区,神宮前６丁目２３番４号桑野ビル２Ｆ,,13,113,1500001,,,,,,,2024-03-22,1,,,,,ファンファーレ,0
1832,7011003018749,新規,0,2024-03-22,2024-03-22,合同会社Ｃｌａｎ,,合同会社,東京都,渋谷区,東４丁目７番４号広尾ヴィラスクエア６０２,,13,113,1500011,,,,,,,2024-03-22,1,,,,,クラン,0
1836,7011103014251,新規,0,2024-03-22,2024-03-22,セールスムービー合同会社,,合同会社,東京都,新宿区,新宿５丁目１１番３０号新宿第五葉山ビル３Ｆ,,13,104,1600022,,,,,,,2024-03-22,1,,,,,セールスムービー,0
1837,7011105010975,新規,0,2024-03-22,2024-03-22,弁護士法人マンションパートナーズ,,その他の設立登記法人,東京都,新宿区,新宿１丁目３４番１５号新宿エステートビル４階Ｂ,,13,104,1600022,,,,,,,2024-03-22,1,,,,,マンションパートナーズ,0
1840,7011301029514,新規,0,2024-03-22,2024-03-22,株式会社ブライトブロッサム,,株式会社,東京都,杉並区,本天沼１丁目１５番１号グランビル本天沼７０１,,13,115,1670031,,,,,,,2024-03-22,1,,,,,ブライトブロッサム,0
1841,7011401025941,新規,0,2024-03-22,2024-03-22,株式会社ドットコネクト,,株式会社,東京都,板橋区,成増４丁目７番３０号,,13,119,1750094,,,,,,,2024-03-22,1,,,,,ドットコネクト,0
1846,7011603004280,新規,0,2024-03-22,2024-03-22,合同会社ＳＥＡＳＯＮＡＬ,,合同会社,東京都,練馬区,西大泉４丁目２３番１２－３０３号,,13,120,1780065,,,,,,,2024-03-22,1,,,,,シーズナル,0
1848,7011703003777,新規,0,2024-03-22,2024-03-22,合同会社アイオラ,,合同会社,東京都,江戸川区,東小松川１丁目１２番３６号,,13,123,1320033,,,,,,,2024-03-22,1,,,,,アイオラ,0
1855,7011801043956,新規,0,2024-03-22,2024-03-22,株式会社方建,,株式会社,東京都,足立区,本木１丁目２６番４号２０３号室,,13,121,1230853,,,,,,,2024-03-22,1,,,,,ホウケン,0
1860,7012401041672,新規,0,2024-03-22,2024-03-22,株式会社ＢｅＣｈｅｅｒｚ,,株式会社,東京都,三鷹市,井口３丁目９番２７号‐１,,13,204,1810011,,,,,,,2024-03-22,1,,,,,ビーチアーズ,0
1861,7012701018148,新規,0,2024-03-22,2024-03-22,Ｔｈｉｎｋ８株式会社,,株式会社,東京都,東村山市,栄町２丁目１９番２３号１階,,13,213,1890013,,,,,,,2024-03-22,1,,,,,シンクエイト,0
1864,7013101009373,新規,0,2024-03-22,2024-03-22,株式会社コラソン,,株式会社,東京都,西多摩郡瑞穂町,大字箱根ケ崎２１１１番地１,,13,303,1901221,,,,,,,2024-03-22,1,,,,,コラソン,0
1874,7020001156361,新規,0,2024-03-22,2024-03-22,株式会社シティ・コンサルティング,,株式会社,神奈川県,横浜市瀬谷区,阿久和西２丁目３８－１５,,14,114,2460025,,,,,,,2024-03-22,1,,,,,シティコンサルティング,0
1877,7020003025770,新規,0,2024-03-22,2024-03-22,合同会社ＴＯＫＵプロダクション,,合同会社,神奈川県,横浜市鶴見区,尻手１丁目１番１８－７０５号,,14,101,2300003,,,,,,,2024-03-22,1,,,,,トクプロダクション,0
1881,7021001081748,新規,0,2024-03-22,2024-03-22,横須賀潜水株式会社,,株式会社,神奈川県,横須賀市,船越町３丁目６番地７,,14,201,2370076,,,,,,,2024-03-22,1,,,,,ヨコスカセンスイ,0
1882,7021001081764,新規,0,2024-03-22,2024-03-22,株式会社東翔,,株式会社,神奈川県,藤沢市,長後１４１１番地の５０,,14,205,2520801,,,,,,,2024-03-22,1,,,,,トウショウ,0
1883,7021003014276,新規,0,2024-03-22,2024-03-22,合同会社Ｋｏｎｏｈａｎａ　ｓｐａｃｅ,,合同会社,神奈川県,鎌倉市,雪ノ下１丁目１０番１１号,,14,204,2480005,,,,,,,2024-03-22,1,,,,,コノハナスペース,0
1887,7030001158992,新規,0,2024-03-22,2024-03-22,株式会社ヴィタネスト,,株式会社,埼玉県,さいたま市岩槻区,大字大戸５１９番７,,11,110,3390014,,,,,,,2024-03-22,1,,,,,ヴィタネスト,0
1888,7030001159289,新規,0,2024-03-22,2024-03-22,株式会社エフォートライン,,株式会社,埼玉県,入間市,小谷田１丁目１番３号プロデュース第１ビル３０２,,11,225,3580026,,,,,,,2024-03-22,1,,,,,エフォートライン,0
1889,7030001159306,新規,0,2024-03-22,2024-03-22,デジコネクト株式会社,,株式会社,埼玉県,川口市,西川口１丁目１９番１０号ホワイトハウスＫ２０１,,11,203,3320021,,,,,,,2024-03-22,1,,,,,デジコネクト,0
1890,7030001159314,新規,0,2024-03-22,2024-03-22,株式会社ＲＩＴＯＮＡＬＩ,,株式会社,埼玉県,川口市,戸塚東４丁目２番１０号サンシティ東川口１０５号,,11,203,3330802,,,,,,,2024-03-22,1,,,,,リトナリ,0
1891,7030001159339,新規,0,2024-03-22,2024-03-22,株式会社明ａａｋｉ建築設計事務所,,株式会社,埼玉県,桶川市,寿１丁目３番７号,,11,231,3630016,,,,,,,2024-03-22,1,,,,,アァキケンチクセッケイジムショ,0
1892,7030001159347,新規,0,2024-03-22,2024-03-22,株式会社リクイド,,株式会社,埼玉県,川口市,西川口１丁目５番２０号－４４０号,,11,203,3320021,,,,,,,2024-03-22,1,,,,,リクイド,0
1893,7030001159388,新規,0,2024-03-22,2024-03-22,株式会社森澤園,,株式会社,埼玉県,所沢市,東狭山ケ丘３丁目７２１番地１,,11,208,3591106,,,,,,,2024-03-22,1,,,,,モリサワエン,0
1895,7040001132699,新規,0,2024-03-22,2024-03-22,ＴＨＲＥＥ株式会社,,株式会社,千葉県,千葉市若葉区,金親町１３３番地８,,12,104,2640001,,,,,,,2024-03-22,1,,,,,スリー,0
1896,7040001132708,新規,0,2024-03-22,2024-03-22,株式会社ＢＲＥＡＤＣＲＵＳＴ,,株式会社,千葉県,成田市,宝田１３４５番地１,,12,211,2860844,,,,,,,2024-03-22,1,,,,,ブレッドクラスト,0
1897,7040001132732,新規,0,2024-03-22,2024-03-22,株式会社Ｏ’ｚ　ＧＡＲＡＧＥ,,株式会社,千葉県,八千代市,高津１１５３番地,,12,221,2760036,,,,,,,2024-03-22,1,,,,,オズガレージ,0
1898,7040001132757,新規,0,2024-03-22,2024-03-22,雅稲惠舎株式会社,,株式会社,千葉県,南房総市,安馬谷３２７３番地５,,12,234,2992522,,,,,,,2024-03-22,1,,,,,ガネエシャ,0
1900,7050001054471,新規,0,2024-03-22,2024-03-22,株式会社ｐｉｌｌａｒ,,株式会社,茨城県,筑西市,新井新田４２番地３,,08,227,3004516,,,,,,,2024-03-22,1,,,,,ピラー,0
1901,7050001054505,新規,0,2024-03-22,2024-03-22,株式会社ＧＳ‐ｔｅｃ,,株式会社,茨城県,牛久市,柏田町３２５３－３５（１０７）,,08,219,3001211,,,,,,,2024-03-22,1,,,,,ジーエステック,0
1904,7060003004977,新規,0,2024-03-22,2024-03-22,ＣｕｏｒｅＲｉｃｃｏ合同会社,,合同会社,栃木県,宇都宮市,宝木本町１４６７－４,,09,201,3200075,,,,,,,2024-03-22,1,,,,,クオーレリッコ,0
1905,7070003005322,新規,0,2024-03-22,2024-03-22,合同会社ＨＡＴＴ,,合同会社,群馬県,前橋市,川原町１丁目２７番３号,,10,201,3710046,,,,,,,2024-03-22,1,,,,,,0
1913,7080401027074,新規,0,2024-03-22,2024-03-22,やましょう不動産株式会社,,株式会社,静岡県,浜松市浜名区,引佐町横尾１１４６番地,,22,139,4312214,,,,,,,2024-03-22,1,,,,,ヤマショウフドウサン,0
1916,7100001037297,新規,0,2024-03-22,2024-03-22,株式会社３９Ｌｏｃｌｅ,,株式会社,長野県,佐久市,中込２３３６番地１ワークテラス佐久,,20,217,3850051,,,,,,,2024-03-22,1,,,,,サクロークル,0
1920,7100005013146,新規,0,2024-03-22,2024-03-22,一般社団法人ＴＡＫＥ　ＯＦＦ　ＪＢ,,その他の設立登記法人,長野県,松本市,筑摩２丁目３４番５－４号,,20,202,3900821,,,,,,,2024-03-22,1,,,,,テイクオフジェイビー,0
1931,7120001263305,新規,0,2024-03-22,2024-03-22,株式会社ブラスト,,株式会社,大阪府,大阪市東住吉区,東田辺２丁目５番１５号,,27,121,5460032,,,,,,,2024-03-22,1,,,,,ブラスト,0
1932,7120001263313,新規,0,2024-03-22,2024-03-22,株式会社ＰＬＡＩＮ,,株式会社,大阪府,大阪市平野区,平野北２丁目７番１３号,,27,126,5470041,,,,,,,2024-03-22,1,,,,,プレイン,0
1933,7120001263362,新規,0,2024-03-22,2024-03-22,ＫＤＣ株式会社,,株式会社,大阪府,大阪市北区,西天満２丁目３番６号大阪法曹ビル２０２,,27,127,5300047,,,,,,,2024-03-22,1,,,,,ケーディーシー,0
1934,7120001263387,新規,0,2024-03-22,2024-03-22,ＳｋＹ　Ｐｒｏｐ株式会社,,株式会社,大阪府,大阪市北区,角田町八丁目４７阪急グランドビル２０Ｆ,,27,127,5300017,,,,,,,2024-03-22,1,,,,,スカイプロップ,0
1935,7120001263395,新規,0,2024-03-22,2024-03-22,株式会社Ｃｌｅａｎ　Ｌａｂｏ,,株式会社,大阪府,大阪市北区,梅田１丁目２番２号,,27,127,5300001,,,,,,,2024-03-22,1,,,,,クリーンラボ,0
1936,7120001263404,新規,0,2024-03-22,2024-03-22,株式会社ＰＲＯＧＲＥＳＳ,,株式会社,大阪府,大阪市住吉区,万代５丁目４番９号,,27,120,5580055,,,,,,,2024-03-22,1,,,,,プログレス,0
1938,7120003026197,新規,0,2024-03-22,2024-03-22,にじいろハッピー合同会社,,合同会社,大阪府,大阪市北区,大淀南２丁目２番９号,,27,127,5310075,,,,,,,2024-03-22,1,,,,,ニジイロハッピー,0
1943,7120901048929,新規,0,2024-03-22,2024-03-22,株式会社ポラリス総合会計,,株式会社,大阪府,高槻市,南松原町８番９号の２,,27,207,5690085,,,,,,,2024-03-22,1,,,,,ポラリスソウゴウカイケイ,0
1944,7120901048945,新規,0,2024-03-22,2024-03-22,株式会社ＩＧＢカンパニー,,株式会社,大阪府,吹田市,江の木町２番３１号,,27,205,5640053,,,,,,,2024-03-22,1,,,,,アイジービーカンパニー,0
1945,7120903005093,新規,0,2024-03-22,2024-03-22,合同会社ひかり,,合同会社,大阪府,高槻市,津之江町２丁目２７番２７－１０３号,,27,207,5690822,,,,,,,2024-03-22,1,,,,,ヒカリ,0
1946,7122001037911,新規,0,2024-03-22,2024-03-22,株式会社カウル,,株式会社,大阪府,大東市,御領４丁目３番１４号,,27,218,5740064,,,,,,,2024-03-22,1,,,,,カウル,0
1947,7130001076615,新規,0,2024-03-22,2024-03-22,株式会社Ｔｅｎｄ,,株式会社,京都府,京田辺市,興戸久保１７番地,,26,211,6100332,,,,,,,2024-03-22,1,,,,,テンド,0
1948,7130001076648,新規,0,2024-03-22,2024-03-22,ミズナラ株式会社,,株式会社,京都府,京都市南区,吉祥院嶋高町４６番地,,26,107,6018372,,,,,,,2024-03-22,1,,,,,ミズナラ,0
1949,7130001076656,新規,0,2024-03-22,2024-03-22,株式会社塁染,,株式会社,京都府,宇治市,木幡北畠２５番地の１１,,26,204,6110002,,,,,,,2024-03-22,1,,,,,ルイセン,0
1951,7130005017037,新規,0,2024-03-22,2024-03-22,一般社団法人舞姫道,,その他の設立登記法人,京都府,京都市左京区,上高野鷺町３９番地,,26,103,6060042,,,,,,,2024-03-22,1,,,,,マイヒメドウ,0
1955,7140001133753,新規,0,2024-03-22,2024-03-22,株式会社ワンビリティ,,株式会社,兵庫県,神戸市兵庫区,本町２丁目３番１８号,,28,105,6520834,,,,,,,2024-03-22,1,,,,,ワンビリティ,0
1956,7140001133761,新規,0,2024-03-22,2024-03-22,シンクス株式会社,,株式会社,兵庫県,西宮市,小松東町３丁目３番１１号,,28,204,6638123,,,,,,,2024-03-22,1,,,,,シンクス,0
1957,7140001133778,新規,0,2024-03-22,2024-03-22,株式会社トリニティ姫路,,株式会社,兵庫県,姫路市,二階町１８番地ＡＮＧＥＲＯ二階町２０５,,28,201,6700922,,,,,,,2024-03-22,1,,,,,トリニティヒメジ,0
1958,7140001133786,新規,0,2024-03-22,2024-03-22,株式会社ＡＬＣＯ,,株式会社,兵庫県,神戸市中央区,御幸通６丁目１番２０号ジイテックスアセントビル,,28,110,6510087,,,,,,,2024-03-22,1,,,,,アルコ,0
1959,7140001133811,新規,0,2024-03-22,2024-03-22,株式会社Ｌｉｅｎ,,株式会社,兵庫県,川辺郡猪名川町,伏見台３丁目１－６０,,28,301,6660262,,,,,,,2024-03-22,1,,,,,リアン,0
1965,7140003020297,新規,0,2024-03-22,2024-03-22,合同会社ｋｎｏｃｋ　ｏｎ,,合同会社,兵庫県,神戸市須磨区,妙法寺字白坂１０２２番地の２５,,28,107,6540121,,,,,,,2024-03-22,1,,,,,ノックオン,0
1968,7160001025775,新規,0,2024-03-22,2024-03-22,株式会社リアン,,株式会社,滋賀県,守山市,矢島町２３３－３,,25,207,5240015,,,,,,,2024-03-22,1,,,,,リアン,0
1974,7180001160604,新規,0,2024-03-22,2024-03-22,株式会社佐藤工業,,株式会社,愛知県,名古屋市緑区,兵庫１丁目１４４１番地レージュフェイマス１０３号,,23,114,4580802,,,,,,,2024-03-22,1,,,,,サトウコウギョウ,0
1975,7180001160620,新規,0,2024-03-22,2024-03-22,株式会社アート・プレイス,,株式会社,愛知県,名古屋市中区,正木４丁目６番６号第１３フクマルビル９０６号室,,23,106,4600024,,,,,,,2024-03-22,1,,,,,アートプレイス,0
1976,7180001160653,新規,0,2024-03-22,2024-03-22,株式会社嘉の屋,,株式会社,愛知県,名古屋市中区,栄４丁目２１番１号,,23,106,4600008,,,,,,,2024-03-22,1,,,,,カノヤ,0
1977,7180001160661,新規,0,2024-03-22,2024-03-22,株式会社ネクスト,,株式会社,愛知県,一宮市,伝法寺２丁目８番地２０,,23,203,4910828,,,,,,,2024-03-22,1,,,,,ネクスト,0
1978,7180001160678,新規,0,2024-03-22,2024-03-22,株式会社Ｓ’ＭＯＲＥ,,株式会社,愛知県,名古屋市港区,当知３丁目３２０６番地ファミリアーレ当知５０３,,23,111,4550804,,,,,,,2024-03-22,1,,,,,スモア,0
1983,7180005020548,新規,0,2024-03-22,2024-03-22,医療法人ＡＣＴ,,その他の設立登記法人,愛知県,名古屋市東区,芳野３丁目６番４号ダイアパレス東白壁Ｄ棟００１,,23,102,4610027,,,,,,,2024-03-22,1,,,,,エーシーティー,0
1984,7180301038401,新規,0,2024-03-22,2024-03-22,晟源金属商事株式会社,,株式会社,愛知県,豊田市,御船町洞口２７番地１９,,23,211,4700371,,,,,,,2024-03-22,1,,,,,セイゲンキンゾクショウジ,0
1985,7180301038426,新規,0,2024-03-22,2024-03-22,ＭＫセントラルテクノ株式会社,,株式会社,愛知県,刈谷市,新富町４丁目６０１番地３０１号,,23,210,4480045,,,,,,,2024-03-22,1,,,,,エムケーセントラルテクノ,0
1986,7180301038434,新規,0,2024-03-22,2024-03-22,ＩＲＩＳ株式会社,,株式会社,愛知県,豊橋市,柱二番町２番地１,,23,201,4418053,,,,,,,2024-03-22,1,,,,,アイリス,0
1987,7180301038442,新規,0,2024-03-22,2024-03-22,株式会社ＨＡＲＩｓａｎ,,株式会社,愛知県,安城市,安城町甲山寺５６－１,,23,212,4460026,,,,,,,2024-03-22,1,,,,,ハリサン,0
1988,7180301038450,新規,0,2024-03-22,2024-03-22,ＶＮＪＰ　ＰＲＩＭＥ　ＴＲＡＤＥ株式会社,,株式会社,愛知県,豊田市,石楠町伊達屋敷２６番地,,23,211,4442207,,,,,,,2024-03-22,1,,,,,ブイエヌジェイピープライムトレード,0
1989,7180303006034,新規,0,2024-03-22,2024-03-22,合同会社恵神会,,合同会社,愛知県,刈谷市,東境町大坪５番地１,,23,210,4480007,,,,,,,2024-03-22,1,,,,,ケイシンカイ,0
1990,7180303006042,新規,0,2024-03-22,2024-03-22,合同会社山本,,合同会社,愛知県,豊橋市,岩田町字居村１４４番地,,23,201,4400032,,,,,,,2024-03-22,1,,,,,ヤマモト,0
1991,7180303006050,新規,0,2024-03-22,2024-03-22,合同会社Ｌｅｇａｃｙ,,合同会社,愛知県,豊田市,西岡町星ケ丘２０番地第３高岡清風寮１１０８号,,23,211,4730937,,,,,,,2024-03-22,1,,,,,レガシー,0
1994,7190003004618,新規,0,2024-03-22,2024-03-22,合同会社未来のちから,,合同会社,三重県,亀山市,田村町４９３番地１,,24,210,5190213,,,,,,,2024-03-22,1,,,,,ミライノチカラ,0
1998,7200001042287,新規,0,2024-03-22,2024-03-22,株式会社ＫＡＺＯＣ,,株式会社,岐阜県,各務原市,那加桐野町４丁目２６番地１,,21,213,5040008,,,,,,,2024-03-22,1,,,,,カゾック,0
2003,7230001020257,新規,0,2024-03-22,2024-03-22,株式会社ネットワーク富山,,株式会社,富山県,射水市,堀岡古明神３３６番地,,16,211,9330224,,,,,,,2024-03-22,1,,,,,ネットワークトヤマ,0
2006,7240001062975,新規,0,2024-03-22,2024-03-22,株式会社共盈,,株式会社,広島県,呉市,仁方本町２丁目３番８－８号,,34,202,7370152,,,,,,,2024-03-22,1,,,,,キョウエイ,0
2007,7240001062983,新規,0,2024-03-22,2024-03-22,株式会社ＡＬＲ,,株式会社,広島県,広島市安佐南区,高取北１丁目４８番１０号,,34,105,7310144,,,,,,,2024-03-22,1,,,,,エーエルアール,0
2008,7240001062991,新規,0,2024-03-22,2024-03-22,株式会社Ａｆｒｉｔ,,株式会社,広島県,三次市,十日市東１丁目１－７,,34,209,7280013,,,,,,,2024-03-22,1,,,,,アフリット,0
2010,7240003006583,新規,0,2024-03-22,2024-03-22,合同会社メルセグループ,,合同会社,広島県,広島市安佐南区,古市２丁目１１番１７号,,34,105,7310123,,,,,,,2024-03-22,1,,,,,メルセグループ,0
2018,7290001105102,新規,0,2024-03-22,2024-03-22,株式会社Ｋ．ｓ,,株式会社,福岡県,糟屋郡志免町,片峰中央３丁目５番６号,,40,343,8112246,,,,,,,2024-03-22,1,,,,,ケイズ,0
2019,7290001105127,新規,0,2024-03-22,2024-03-22,株式会社トゥルヌソル,,株式会社,福岡県,那珂川市,道善３丁目７５番地,,40,231,8111254,,,,,,,2024-03-22,1,,,,,トゥルヌソル,0
2020,7290003015084,新規,0,2024-03-22,2024-03-22,合同会社Ｇｅｎｅ　ａｎｄ　Ｅｄｄｉｅ,,合同会社,福岡県,三潴郡大木町,大字大角１３２１番地１１,,40,522,8300403,,,,,,,2024-03-22,1,,,,,ジーンアンドエディ,0
2022,7290803004658,新規,0,2024-03-22,2024-03-22,ＺＡＨＩＤ　ＴＲＡＤＩＮＧ合同会社,,合同会社,福岡県,遠賀郡岡垣町,中央台４丁目８番２号,,40,383,8114218,,,,,,,2024-03-22,1,,,,,ザヒドトレーディング,0
2028,7310003004753,新規,0,2024-03-22,2024-03-22,合同会社ＲｅＶＥ,,合同会社,長崎県,佐世保市,権常寺町３９４番地１１,,42,202,8593213,,,,,,,2024-03-22,1,,,,,レーヴ,0
2034,7330005010772,新規,0,2024-03-22,2024-03-22,一般社団法人地元サイコゥ育成機構,,その他の設立登記法人,熊本県,合志市,栄３７９２番地６２,,43,216,8611113,,,,,,,2024-03-22,1,,,,,ジモトサイコウイクセイキコウ,0
2040,7360003013832,新規,0,2024-03-22,2024-03-22,合同会社うちいで企画,,合同会社,沖縄県,那覇市,久米１丁目２０－１０－２階,,47,201,9000033,,,,,,,2024-03-22,1,,,,,ウチイデキカク,0
2044,7370001051098,新規,0,2024-03-22,2024-03-22,株式会社Ｗｉｎ＆Ｗｉｎ,,株式会社,宮城県,栗原市,若柳字川南上堤２７番地,,04,213,9895502,,,,,,,2024-03-22,1,,,,,ウインアンドウイン,0
2045,7380001034374,新規,0,2024-03-22,2024-03-22,株式会社ＡＩＳ,,株式会社,福島県,会津若松市,天神町１４番地２,,07,202,9650832,,,,,,,2024-03-22,1,,,,,アイズ,0
2046,7380001034382,新規,0,2024-03-22,2024-03-22,株式会社十和,,株式会社,福島県,福島市,本町２番１０号Ｆｕｋｕｓｈｉｍａ－ＢＡＳＥ内,,07,201,9608035,,,,,,,2024-03-22,1,,,,,トオワ,0
2047,7380003005720,新規,0,2024-03-22,2024-03-22,ビクトリー福島合同会社,,合同会社,福島県,福島市,南沢又字中琵琶淵７３番地,,07,201,9608254,,,,,,,2024-03-22,1,,,,,ビクトリーフクシマ,0
2052,7400001016592,新規,0,2024-03-22,2024-03-22,株式会社ネオグレッサ,,株式会社,岩手県,北上市,常盤台４丁目３１－８,,03,206,0240012,,,,,,,2024-03-22,1,,,,,ネオグレッサ,0
2055,7410001013762,新規,0,2024-03-22,2024-03-22,株式会社ＳＵＢＵＲＢＩＡ,,株式会社,秋田県,横手市,十文字町字海道下３７番地１,,05,203,0190529,,,,,,,2024-03-22,1,,,,,サバービア,0
2058,7420001018645,新規,0,2024-03-22,2024-03-22,Ｋ・ＦＡＣＴＯＲＹ株式会社,,株式会社,青森県,北津軽郡中泊町,大字中里字紅葉坂２２２番地１もみじ団地９号,,02,387,0370305,,,,,,,2024-03-22,1,,,,,ケイファクトリー,0
2059,7420003002894,新規,0,2024-03-22,2024-03-22,合同会社美枝紙,,合同会社,青森県,弘前市,大字泉野２丁目４番地３ポワッソン２０１号,,02,202,0368164,,,,,,,2024-03-22,1,,,,,ミエシ,0
2063,7430001091328,新規,0,2024-03-22,2024-03-22,株式会社Ｒｉｃｏ＆Ｗｅｌｌｎｅｓｓ,,株式会社,北海道,恵庭市,黄金中央５丁目１９６番地の１,,01,231,0611449,,,,,,,2024-03-22,1,,,,,リコアンドウェルネス,0
2064,7430001091352,新規,0,2024-03-22,2024-03-22,株式会社Ｎｏｗｆｏｒｗａｒｄ,,株式会社,北海道,札幌市中央区,南一条西１６丁目１番地３２３春野ビル３Ｆ,,01,101,0600061,,,,,,,2024-03-22,1,,,,,ナウフォワード,0
2065,7430001091385,新規,0,2024-03-22,2024-03-22,株式会社ｇｌａｄ．ｋ,,株式会社,北海道,札幌市中央区,南八条西６丁目２８９番地３０,,01,101,0640808,,,,,,,2024-03-22,1,,,,,グラッドケイ,0
2068,7430003016118,新規,0,2024-03-22,2024-03-22,合同会社ｓｉｄｅＸｓｉｄｅ,,合同会社,北海道,札幌市中央区,宮の森三条１０丁目６番５号２階,,01,101,0640953,,,,,,,2024-03-22,1,,,,,サイドバイサイド,0
2072,7470001020084,新規,0,2024-03-22,2024-03-22,株式会社ＳＯＩ,,株式会社,香川県,善通寺市,文京町２丁目１番４号ＺＥＮキューブ内４階,,37,204,7650013,,,,,,,2024-03-22,1,,,,,ソーイ,0
2073,7470001020092,新規,0,2024-03-22,2024-03-22,株式会社ＯＭ,,株式会社,香川県,坂出市,元町２丁目１番１号,,37,203,7620045,,,,,,,2024-03-22,1,,,,,オム,0
2085,8010001243102,新規,0,2024-03-22,2024-03-22,株式会社ＬＩＢＥＲＴＡ,,株式会社,東京都,中央区,銀座１丁目２２番１１号銀座大竹ビジデンス２階,,13,102,1040061,,,,,,,2024-03-22,1,,,,,リベルタ,0
2086,8010001243218,新規,0,2024-03-22,2024-03-22,株式会社Ｅｌｅｇａｎｔ　Ｒｅｎｔ,,株式会社,東京都,千代田区,内神田１丁目１８番１１号東京ロイヤルプラザ６１０号,,13,101,1010047,,,,,,,2024-03-22,1,,,,,エレガントレント,0
2087,8010001243317,新規,0,2024-03-22,2024-03-22,ＰＭＲ株式会社,,株式会社,東京都,千代田区,神田佐久間町１丁目１４番地第２東ビル２０５号室,,13,101,1010025,,,,,,,2024-03-22,1,,,,,ピーアールエム,0
2090,8010003043244,新規,0,2024-03-22,2024-03-22,合同会社Ｇｉｇｉ,,合同会社,東京都,中央区,銀座１丁目１２番４号Ｎ＆ＥＢＬＤ．６Ｆ,,13,102,1040061,,,,,,,2024-03-22,1,,,,,ギギ,0
2093,8010101016052,新規,0,2024-03-22,2024-03-22,株式会社ＢＥＬＬＥ　ＢＥＳＴＩＥ,,株式会社,東京都,八王子市,旭町５番１号,,13,201,1920083,,,,,,,2024-03-22,1,,,,,ベルベスティエ,0
2104,8010401181216,新規,0,2024-03-22,2024-03-22,株式会社Ｚｅｒｏ　Ｆｏｒｃｅ,,株式会社,東京都,港区,港南３丁目７－１６－１５０８,,13,103,1080075,,,,,,,2024-03-22,1,,,,,ゼロフォース,0
2105,8010401181224,新規,0,2024-03-22,2024-03-22,株式会社ＭＡＲＩＡＧＥ,,株式会社,東京都,港区,北青山３丁目４番３号クラス青山９１１,,13,103,1070061,,,,,,,2024-03-22,1,,,,,マリアージュ,0
2106,8010403032219,新規,0,2024-03-22,2024-03-22,ホロムアワーク合同会社,,合同会社,東京都,港区,南青山２丁目２番１５号ＷＩＮ青山５３１,,13,103,1070062,,,,,,,2024-03-22,1,,,,,ホロムアワーク,0
2107,8010403032227,新規,0,2024-03-22,2024-03-22,Ｋ＆Ｋ合同会社,,合同会社,東京都,港区,南麻布１丁目８番２１号ＴＨＥＣＬＡＳＳ南麻布１００１号室,,13,103,1060047,,,,,,,2024-03-22,1,,,,,ケイアンドケイ,0
2110,8010501051970,新規,0,2024-03-22,2024-03-22,イノウソフト株式会社,,株式会社,東京都,台東区,台東４丁目３１番７号,,13,106,1100016,,,,,,,2024-03-22,1,,,,,イノウソフト,0
2115,8010601064872,新規,0,2024-03-22,2024-03-22,株式会社ＳＰＡＣＥ,,株式会社,東京都,墨田区,向島１丁目２５番８－３０３号,,13,107,1310033,,,,,,,2024-03-22,1,,,,,スペース,0
2116,8010701045731,新規,0,2024-03-22,2024-03-22,株式会社ノイ,,株式会社,東京都,品川区,大崎１丁目１番１号ルサンク大崎シティータワー２３０５,,13,109,1410032,,,,,,,2024-03-22,1,,,,,ノイ,0
2118,8010703007102,新規,0,2024-03-22,2024-03-22,合同会社すだち,,合同会社,東京都,品川区,旗の台１丁目３番８号,,13,109,1420064,,,,,,,2024-03-22,1,,,,,スダチ,0
2121,8010901054904,新規,0,2024-03-22,2024-03-22,株式会社アクソン,,株式会社,東京都,世田谷区,成城７丁目３４番１９号,,13,112,1570066,,,,,,,2024-03-22,1,,,,,アクソン,0
2122,8010901054920,新規,0,2024-03-22,2024-03-22,株式会社ｔｒａｙｅｃｔｏ．,,株式会社,東京都,世田谷区,三宿２丁目１９番１２号,,13,112,1540005,,,,,,,2024-03-22,1,,,,,トライエクト,0
2134,8011001160650,新規,0,2024-03-22,2024-03-22,Ｈａｎｓｅｎ　Ｔｒａｎｓｍｉｓｓｉｏｎｓ株式会社,,株式会社,東京都,渋谷区,宇田川町２－１渋谷ホームズ３１３－Ｏ号室,,13,113,1500042,,,,,,,2024-03-22,1,,,,,ハンソントランスミッションズ,0
2135,8011001160675,新規,0,2024-03-22,2024-03-22,株式会社８８,,株式会社,東京都,渋谷区,広尾４丁目１番１３－６０１号,,13,113,1500012,,,,,,,2024-03-22,1,,,,,ハチハチ,0
2136,8011001160691,新規,0,2024-03-22,2024-03-22,グレッセンス株式会社,,株式会社,東京都,渋谷区,富ヶ谷２丁目１８番１０－３０８号,,13,113,1510063,,,,,,,2024-03-22,1,,,,,グレッセンス,0
2137,8011001160709,新規,0,2024-03-22,2024-03-22,虹株式会社,,株式会社,東京都,渋谷区,代々木５丁目３４番６号代々木パークハウスＰＲＩＭＥＨＩＬＬＳ３０１,,13,113,1510053,,,,,,,2024-03-22,1,,,,,ニジ,0
2138,8011001160717,新規,0,2024-03-22,2024-03-22,株式会社ＮＹＳＫ,,株式会社,東京都,渋谷区,神宮前５丁目２４番８号,,13,113,1500001,,,,,,,2024-03-22,1,,,,,エヌワイエスケー,0
2139,8011001160741,新規,0,2024-03-22,2024-03-22,株式会社ｃｌｕｂ　Ｍａｉ　ａｒｃｈｉｔｅｃｔｓ,,株式会社,東京都,渋谷区,渋谷１丁目３番１８号,,13,113,1500002,,,,,,,2024-03-22,1,,,,,クラブマイアーキテクツ,0
2140,8011001160782,新規,0,2024-03-22,2024-03-22,株式会社ＮＡＤＩＡ,,株式会社,東京都,渋谷区,渋谷２丁目１９番１５号宮益坂ビルディング６０９,,13,113,1500002,,,,,,,2024-03-22,1,,,,,ナディア,0
2141,8011001160808,新規,0,2024-03-22,2024-03-22,ＶＩｉＣＥＬＫ　ｃｏｓｍｅｔｉｃｓ株式会社,,株式会社,東京都,渋谷区,恵比寿４丁目２０番３号恵比寿ガーデンプレイスタワー１８階,,13,113,1500013,,,,,,,2024-03-22,1,,,,,ヴィーセルコスメティクス,0
2142,8011003018748,新規,0,2024-03-22,2024-03-22,合同会社Ｖｉｖａｌｕ,,合同会社,東京都,渋谷区,渋谷２丁目１９番１５号宮益坂ビルディング６０９,,13,113,1500002,,,,,,,2024-03-22,1,,,,,ビバル,0
2143,8011003018756,新規,0,2024-03-22,2024-03-22,合同会社ＴＭプランニング,,合同会社,東京都,渋谷区,道玄坂２丁目１５番１号ノア道玄坂９１６号室,,13,113,1500043,,,,,,,2024-03-22,1,,,,,ティーエムプランニング,0
2144,8011005010430,新規,0,2024-03-22,2024-03-22,特定非営利活動法人ＡＬＥＴＴＡ,,その他の設立登記法人,東京都,目黒区,下目黒２丁目２３番１６－１００２号パラスト目黒,,13,110,1530064,,,,,,,2024-03-22,1,,,,,アレッタ,0
2146,8011101106644,新規,0,2024-03-22,2024-03-22,Ａ‐Ｃｏｎｎｅｃｔメディアコンサルティング株式会社,,株式会社,東京都,新宿区,西新宿３丁目６番４号ＣＩＲＣＬＥＳ西新宿６Ｆ,,13,104,1600023,,,,,,,2024-03-22,1,,,,,エーコネクトメディアコンサルティング,0
2148,8011103014250,新規,0,2024-03-22,2024-03-22,合同会社ＪＬＣ,,合同会社,東京都,新宿区,新宿１丁目２３番６－８０３号,,13,104,1600022,,,,,,,2024-03-22,1,,,,,ジェイエルシー,0
2149,8011203004333,新規,0,2024-03-22,2024-03-22,合同会社リブトゥウィン,,合同会社,東京都,中野区,江原町１丁目４６－１２－８０１,,13,114,1650023,,,,,,,2024-03-22,1,,,,,リブトゥウィン,0
2150,8011303005099,新規,0,2024-03-22,2024-03-22,合同会社Ｇｅｎｕｉｎｅ　ｍｉｎｄ,,合同会社,東京都,杉並区,高井戸東３丁目２８番３５号ヴォーガコルテ高井戸４０２,,13,115,1680072,,,,,,,2024-03-22,1,,,,,ジェヌインマインド,0
2151,8011501030469,新規,0,2024-03-22,2024-03-22,株式会社ＮＥＸ４,,株式会社,東京都,北区,豊島８丁目２７番２－２０７号,,13,117,1140003,,,,,,,2024-03-22,1,,,,,ネックスフォー,0
2152,8011503005980,新規,0,2024-03-22,2024-03-22,合同会社ＫＩＸ,,合同会社,東京都,北区,赤羽２丁目４－１４蛇の目ビル３Ｆ,,13,117,1150045,,,,,,,2024-03-22,1,,,,,キックス,0
2153,8011503005997,新規,0,2024-03-22,2024-03-22,合同会社ｓｋｙ,,合同会社,東京都,荒川区,西日暮里６丁目５６番６号ＮＦ西日暮里六丁目ビル１０１号,,13,118,1160013,,,,,,,2024-03-22,1,,,,,スカイ,0
2158,8012403006474,新規,0,2024-03-22,2024-03-22,合同会社Ｊｕｇｅｎｄ,,合同会社,東京都,武蔵野市,吉祥寺本町１丁目２０番１号吉祥寺永谷シティープラザ１００２,,13,203,1800004,,,,,,,2024-03-22,1,,,,,ユーゲント,0
2160,8012701018155,新規,0,2024-03-22,2024-03-22,株式会社３ｕｎ,,株式会社,東京都,東村山市,本町２丁目４番地６－１２０１,,13,213,1890014,,,,,,,2024-03-22,1,,,,,サン,0
2164,8013301052230,新規,0,2024-03-22,2024-03-22,株式会社トラストホールディングス,,株式会社,東京都,豊島区,南池袋２丁目２９番１２号,,13,116,1710022,,,,,,,2024-03-22,1,,,,,トラストホールディングス,0
2167,8020001156328,新規,0,2024-03-22,2024-03-22,株式会社サンタキャラベル,,株式会社,神奈川県,横浜市保土ケ谷区,東川島町４１番地１９フェイム上星川３０２号,,14,106,2400041,,,,,,,2024-03-22,1,,,,,サンタキャラベル,0
2174,8021001081747,新規,0,2024-03-22,2024-03-22,株式会社Ｌｅａｄ,,株式会社,神奈川県,座間市,ひばりが丘３丁目５７番Ｃ－３０８号エステ・スクエアさがみ野,,14,216,2520003,,,,,,,2024-03-22,1,,,,,リード,0
2184,8030001159305,新規,0,2024-03-22,2024-03-22,株式会社色八,,株式会社,埼玉県,さいたま市緑区,東大門３丁目１９番地２７,,11,109,3360964,,,,,,,2024-03-22,1,,,,,イロハチ,0
2185,8030001159321,新規,0,2024-03-22,2024-03-22,株式会社ＷＨＩＴＥ　ＬＡＢ,,株式会社,埼玉県,比企郡川島町,大字新堀９番地２,,11,346,3500134,,,,,,,2024-03-22,1,,,,,ホワイトラボ,0
2186,8030001159338,新規,0,2024-03-22,2024-03-22,株式会社ＯＡ１,,株式会社,埼玉県,朝霞市,幸町２丁目１５番２７号,,11,227,3510015,,,,,,,2024-03-22,1,,,,,オーエーワン,0
2187,8030001159354,新規,0,2024-03-22,2024-03-22,荒健設株式会社,,株式会社,埼玉県,深谷市,大谷２３８６番地１,,11,218,3660814,,,,,,,2024-03-22,1,,,,,アラケンセツ,0
2188,8030001159370,新規,0,2024-03-22,2024-03-22,株式会社ＳＴＵＤＩＯ　Ｐ‐ＢＯＵＺＵ,,株式会社,埼玉県,越谷市,北越谷３丁目２３番８号,,11,222,3430026,,,,,,,2024-03-22,1,,,,,スタジオピーボウズ,0
2189,8030001159379,新規,0,2024-03-22,2024-03-22,株式会社越後家,,株式会社,埼玉県,草加市,瀬崎３丁目３５番３４号,,11,221,3400022,,,,,,,2024-03-22,1,,,,,エチゴヤ,0
2195,8030003023847,新規,0,2024-03-22,2024-03-22,合同会社ＰＬＡＴＩＮＵＭ２４,,合同会社,埼玉県,春日部市,上蛭田３４番地１ウイステリアＩ－１０１,00134166,11,214,3440046,,,,,,,2024-03-22,1,,,,,プラチナム,0
2196,8030003023855,新規,0,2024-03-22,2024-03-22,合同会社達磨,,合同会社,埼玉県,南埼玉郡宮代町,学園台１丁目７番１０号,,11,442,3450826,,,,,,,2024-03-22,1,,,,,ダルマ,0
2201,8040001132624,新規,0,2024-03-22,2024-03-22,ウエストコーストパフォーマンス株式会社,,株式会社,千葉県,柏市,逆井４丁目３３－２,,12,217,2770042,,,,,,,2024-03-22,1,,,,,ウエストコーストパフォーマンス,0
2202,8040001132715,新規,0,2024-03-22,2024-03-22,株式会社ＫＥＮ‐Ｚ,,株式会社,千葉県,袖ケ浦市,飯富２６８６番１,,12,229,2990256,,,,,,,2024-03-22,1,,,,,ケンズ,0
2203,8040001132764,新規,0,2024-03-22,2024-03-22,恵榮株式会社,,株式会社,千葉県,船橋市,馬込町９２１番地１６,,12,204,2730851,,,,,,,2024-03-22,1,,,,,ケイヨウ,0
2204,8040001132797,新規,0,2024-03-22,2024-03-22,アリマ株式会社,,株式会社,千葉県,市川市,国府台１丁目１１番２号,,12,203,2720827,,,,,,,2024-03-22,1,,,,,アリマ,0
2205,8040003024596,新規,0,2024-03-22,2024-03-22,田熊建設合同会社,,合同会社,千葉県,船橋市,山手３丁目１１番１０号,,12,204,2730045,,,,,,,2024-03-22,1,,,,,タクマケンセツ,0
2206,8040003024605,新規,0,2024-03-22,2024-03-22,合同会社禎祉堂,,合同会社,千葉県,船橋市,小室町５１２０－３,,12,204,2701471,,,,,,,2024-03-22,1,,,,,テイシドウ,0
2208,8050001054479,新規,0,2024-03-22,2024-03-22,株式会社ｏｕｔＲｅａｌ,,株式会社,茨城県,水戸市,石川１丁目３９９５番地の４スピカハイムＶ３０３号,,08,201,3100905,,,,,,,2024-03-22,1,,,,,アウトリアル,0
2209,8050001054487,新規,0,2024-03-22,2024-03-22,株式会社ＡＫＵＴＳＵ,,株式会社,茨城県,水戸市,白梅４丁目２番１６号,,08,201,3100804,,,,,,,2024-03-22,1,,,,,アクツ,0
2213,8060001036939,新規,0,2024-03-22,2024-03-22,ネオフロンティア株式会社,,株式会社,栃木県,日光市,今市１２４５番地１０,,09,206,3211261,,,,,,,2024-03-22,1,,,,,ネオフロンティア,0
2216,8070001041500,新規,0,2024-03-22,2024-03-22,豊美実業株式会社,,株式会社,群馬県,邑楽郡邑楽町,大字中野５７３９番地,,10,525,3700603,,,,,,,2024-03-22,1,,,,,,0
2217,8070001041517,新規,0,2024-03-22,2024-03-22,株式会社寿プラン,,株式会社,群馬県,伊勢崎市,寿町１３７番地５,,10,204,3720052,,,,,,,2024-03-22,1,,,,,コトブキプラン,0
2218,8070001041525,新規,0,2024-03-22,2024-03-22,株式会社ビットーリア,,株式会社,群馬県,伊勢崎市,田中町８８７番地２,,10,204,3720814,,,,,,,2024-03-22,1,,,,,,0
2219,8070003005321,新規,0,2024-03-22,2024-03-22,合同会社木暮工ム店,,合同会社,群馬県,前橋市,駒形町１４２７番地１,,10,201,3792122,,,,,,,2024-03-22,1,,,,,キグレコウムテン,0
2221,8080101024610,新規,0,2024-03-22,2024-03-22,イケ重機械工業株式会社,,株式会社,静岡県,田方郡函南町,肥田３３４番地の１,,22,325,4190125,,,,,,,2024-03-22,1,,,,,イケジュウキカイコウギョウ,0
2222,8080101024619,新規,0,2024-03-22,2024-03-22,株式会社ＯＧＡＷＡ　ＤＥＡＬＩＮＧＳ,,株式会社,静岡県,三島市,東大場１丁目２０番地の８,,22,206,4110802,,,,,,,2024-03-22,1,,,,,オガワディーリングス,0
2227,8080401027073,新規,0,2024-03-22,2024-03-22,株式会社ＳＡＭＩＣＫ,,株式会社,静岡県,袋井市,月見町８番地の４,,22,216,4370126,,,,,,,2024-03-22,1,,,,,サミック,0
2234,8100001037296,新規,0,2024-03-22,2024-03-22,株式会社トゥルーカラーズ,,株式会社,長野県,東御市,県１６０－２,,20,219,3890517,,,,,,,2024-03-22,1,,,,,トゥルーカラーズ,0
2235,8100003007454,新規,0,2024-03-22,2024-03-22,合同会社ＴＣＭ,,合同会社,長野県,諏訪郡下諏訪町,４９３８番地１２,,20,361,3930000,,,,,,,2024-03-22,1,,,,,ティーシーエム,0
2236,8100005013145,新規,0,2024-03-22,2024-03-22,一般社団法人静間農場,,その他の設立登記法人,長野県,飯山市,大字静間１７００番地４,,20,213,3892255,,,,,,,2024-03-22,1,,,,,シズマノウジョウ,0
2247,8120001263304,新規,0,2024-03-22,2024-03-22,株式会社モットイ,,株式会社,大阪府,大阪市北区,長柄中１丁目４番６号ＣＡＳＡＫＯＮＡＭＩ４０１号室,,27,127,5310062,,,,,,,2024-03-22,1,,,,,モットイ,0
2248,8120001263312,新規,0,2024-03-22,2024-03-22,株式会社ＱＵＡＲＩＳ,,株式会社,大阪府,大阪市北区,大淀中４丁目１３番１７号ラ・クール１Ｆ,,27,127,5310076,,,,,,,2024-03-22,1,,,,,クオリス,0
2249,8120001263386,新規,0,2024-03-22,2024-03-22,Ｃｈｏｉｓ　Ｃｈａｎｓ株式会社,,株式会社,大阪府,大阪市生野区,林寺２丁目１番１９－１０２号,,27,116,5440023,,,,,,,2024-03-22,1,,,,,チョイスチャンス,0
2250,8120001263403,新規,0,2024-03-22,2024-03-22,株式会社ＮＡＮ,,株式会社,大阪府,大阪市阿倍野区,北畠１丁目２－２ファミールグラン北畠３０３,,27,119,5450035,,,,,,,2024-03-22,1,,,,,ナン,0
2255,8120101069279,新規,0,2024-03-22,2024-03-22,株式会社Ｄａｎｋ‐Ａｌｌ,,株式会社,大阪府,阪南市,尾崎町９１－９Ｍ．ｐｌａｉｓａｎｔ－Ａ－２号,,27,232,5990201,,,,,,,2024-03-22,1,,,,,ダンクオール,0
2257,8120901048911,新規,0,2024-03-22,2024-03-22,株式会社Ｋａｉｍ,,株式会社,大阪府,高槻市,辻子３丁目５１番５号,00134154,27,207,5690036,,,,,,,2024-03-22,1,,,,,ケイム,0
2258,8120901048936,新規,0,2024-03-22,2024-03-22,ＫＳ　ａｓｓｅｔ株式会社,,株式会社,大阪府,豊中市,東豊中町６丁目２３－３７－１０３,,27,203,5600003,,,,,,,2024-03-22,1,,,,,ケーエスアセット,0
2259,8120901048944,新規,0,2024-03-22,2024-03-22,株式会社古文栄商店,,株式会社,大阪府,茨木市,永代町１０番１８号,,27,211,5670816,,,,,,,2024-03-22,1,,,,,フルブンサカエショウテン,0
2263,8130001076622,新規,0,2024-03-22,2024-03-22,株式会社フロントランナー,,株式会社,京都府,京都市伏見区,向島二ノ丸町３９９番地２アークビル２０１,,26,109,6128141,,,,,,,2024-03-22,1,,,,,フロントランナー,0
2264,8130001076671,新規,0,2024-03-22,2024-03-22,株式会社デュアラボ,,株式会社,京都府,長岡京市,神足２丁目５－１－１００５,,26,209,6170833,,,,,,,2024-03-22,1,,,,,デュアラボ,0
2271,8140001133736,新規,0,2024-03-22,2024-03-22,株式会社ラグーザ,,株式会社,兵庫県,尼崎市,西昆陽１丁目２番２１号,,28,202,6610047,,,,,,,2024-03-22,1,,,,,ラグーザ,0
2272,8140001133760,新規,0,2024-03-22,2024-03-22,株式会社大福工業,,株式会社,兵庫県,姫路市,広畑区蒲田２丁目６７番地３,,28,201,6711102,,,,,,,2024-03-22,1,,,,,ダイフクコウギョウ,0
2273,8140001133785,新規,0,2024-03-22,2024-03-22,株式会社小桜,,株式会社,兵庫県,神戸市東灘区,向洋町中５丁目１５番地,,28,101,6580032,,,,,,,2024-03-22,1,,,,,コザクラ,0
2274,8140001133819,新規,0,2024-03-22,2024-03-22,株式会社Ｆ＆Ｍアセット,,株式会社,兵庫県,西宮市,甲子園洲鳥町２番２７号,,28,204,6638151,,,,,,,2024-03-22,1,,,,,エフアンドエムアセット,0
2281,8160001025774,新規,0,2024-03-22,2024-03-22,ＳＦＫＳ００４株式会社,,株式会社,滋賀県,近江八幡市,倉橋部町２４３番地,,25,204,5230023,,,,,,,2024-03-22,1,,,,,エスエフケイエスゼロゼロヨン,0
2287,8180001160603,新規,0,2024-03-22,2024-03-22,株式会社ＡＳＬＡＮ,,株式会社,愛知県,稲沢市,稲沢町前田２４５番地１,,23,220,4928217,,,,,,,2024-03-22,1,,,,,アスラン,0
2288,8180001160611,新規,0,2024-03-22,2024-03-22,ＳＣメタルズ株式会社,,株式会社,愛知県,小牧市,新町１丁目１０９番地３,,23,219,4850013,,,,,,,2024-03-22,1,,,,,エスシーメタルズ,0
2289,8180001160702,新規,0,2024-03-22,2024-03-22,ＳＩＮＹＯ株式会社,,株式会社,愛知県,瀬戸市,新田町２２０番地の２,,23,204,4890949,,,,,,,2024-03-22,1,,,,,シンヨー,0
2290,8180001160719,新規,0,2024-03-22,2024-03-22,株式会社Ｂｕｉｌｄ　Ｍ,,株式会社,愛知県,名古屋市千種区,新池町２丁目１５番地バンベール東山５０５号,,23,101,4640027,,,,,,,2024-03-22,1,,,,,ビルドエム,0
2291,8180001160727,新規,0,2024-03-22,2024-03-22,株式会社ＫＪＨＯＭＥ,,株式会社,愛知県,名古屋市北区,柳原４丁目１番２号,,23,103,4620845,,,,,,,2024-03-22,1,,,,,ケイジェイホーム,0
2298,8180003026513,新規,0,2024-03-22,2024-03-22,ＤＩＮＨ　ＳＡＮＧ合同会社,,合同会社,愛知県,海部郡蟹江町,本町９丁目１１４番地桃花林３０２号,,23,425,4970034,,,,,,,2024-03-22,1,,,,,ディンサン,0
2300,8180301038417,新規,0,2024-03-22,2024-03-22,株式会社プラスクリエイト,,株式会社,愛知県,刈谷市,築地町１丁目２０番地１エル雁が音,,23,210,4480011,,,,,,,2024-03-22,1,,,,,プラスクリエイト,0
2301,8180301038425,新規,0,2024-03-22,2024-03-22,株式会社ＡｉｒＡｇｅ,,株式会社,愛知県,安城市,安城町宮前１０７番地オフィス３６５,,23,212,4460026,,,,,,,2024-03-22,1,,,,,エアエイジ,0
2302,8180301038441,新規,0,2024-03-22,2024-03-22,株式会社ＦＯＣ,,株式会社,愛知県,豊橋市,前田南町１丁目１７番地１１,,23,201,4400851,,,,,,,2024-03-22,1,,,,,エフオーシー,0
2303,8190001031209,新規,0,2024-03-22,2024-03-22,株式会社ＪＥＣ,,株式会社,三重県,伊勢市,前山町９６８番地１,,24,203,5160044,,,,,,,2024-03-22,1,,,,,ジェック,0
2304,8200001042303,新規,0,2024-03-22,2024-03-22,株式会社Ｇｏムーブ,,株式会社,岐阜県,可児市,長坂６丁目５７番地,,21,214,5090257,,,,,,,2024-03-22,1,,,,,ゴームーブ,0
2310,8220001025883,新規,0,2024-03-22,2024-03-22,株式会社ＮＳサポート,,株式会社,石川県,野々市市,押野７丁目１１８番地,,17,212,9218802,,,,,,,2024-03-22,1,,,,,エヌエスサポート,0
2311,8220005008819,新規,0,2024-03-22,2024-03-22,特定非営利活動法人いしかわ食わかちａｉ,,その他の設立登記法人,石川県,金沢市,有松４丁目６番地２５号ファイン有松ＡＮＮＥＸ・Ｂ号室,,17,201,9218161,,,,,,,2024-03-22,1,,,,,イシカワショクワカチアイ,0
2312,8230001020256,新規,0,2024-03-22,2024-03-22,株式会社クヌギファーム,,株式会社,富山県,富山市,下新川郡入善町椚山１０８６番地,,16,201,9390000,,,,,,,2024-03-22,1,,,,,クヌギファーム,0
2314,8240001062982,新規,0,2024-03-22,2024-03-22,株式会社Ｅｉｇｈｔ　ｉｎｄｕｓｔｒｙ,,株式会社,広島県,広島市安芸区,矢野西２丁目４番１１号,,34,107,7360085,,,,,,,2024-03-22,1,,,,,エイトインダストリー,0
2318,8250001020576,新規,0,2024-03-22,2024-03-22,通信電測株式会社,,株式会社,山口県,山口市,陶４９００番地２,,35,203,7540891,,,,,,,2024-03-22,1,,,,,ツウシンデンソク,0
2323,8290001105118,新規,0,2024-03-22,2024-03-22,株式会社Ｎｅｘｔｒｏｖｅ,,株式会社,福岡県,福岡市南区,玉川町１９番１１－１１０号,,40,134,8150037,,,,,,,2024-03-22,1,,,,,ネクストローブ,0
2324,8290001105126,新規,0,2024-03-22,2024-03-22,株式会社レイフ,,株式会社,福岡県,久留米市,梅満町３２番地５ペリートチャチャ２０５号,,40,203,8300048,,,,,,,2024-03-22,1,,,,,レイフ,0
2325,8290001105150,新規,0,2024-03-22,2024-03-22,ＳＴＡＲＴＡＳ株式会社,,株式会社,福岡県,福岡市博多区,諸岡３丁目３３番４５－５０１号,,40,132,8120894,,,,,,,2024-03-22,1,,,,,スタータス,0
2328,8290801030408,新規,0,2024-03-22,2024-03-22,株式会社Ｈ．Ｍ．Ｊサービス,,株式会社,福岡県,北九州市八幡西区,木屋瀬５丁目８番７号,,40,109,8071261,,,,,,,2024-03-22,1,,,,,エイチエムジェイサービス,0
2331,8320001020362,新規,0,2024-03-22,2024-03-22,正幸建設株式会社,,株式会社,大分県,大分市,大字迫３８６番地３,,44,201,8700272,,,,,,,2024-03-22,1,,,,,,0
2336,8340001026366,新規,0,2024-03-22,2024-03-22,ＭＳＫ株式会社,,株式会社,鹿児島県,鹿屋市,笠之原町２８番１‐３号,,46,203,8930023,,,,,,,2024-03-22,1,,,,,エムエスケー,0
2341,8360003013815,新規,0,2024-03-22,2024-03-22,合同会社動く倉庫,,合同会社,沖縄県,中頭郡北谷町,字砂辺８８,,47,326,9040111,,,,,,,2024-03-22,1,,,,,ウゴクソウコ,0
2348,8370001051080,新規,0,2024-03-22,2024-03-22,株式会社エンカウント,,株式会社,宮城県,仙台市宮城野区,鶴ケ谷１丁目３６番２２号ｓｋｉｐｓｓｓ１０５,,04,102,9830824,,,,,,,2024-03-22,1,,,,,エンカウント,0
2349,8370001051089,新規,0,2024-03-22,2024-03-22,株式会社ＥＬＬＥ,,株式会社,宮城県,仙台市青葉区,広瀬町４番８－２６１２号,,04,101,9800873,,,,,,,2024-03-22,1,,,,,エル,0
2350,8370001051097,新規,0,2024-03-22,2024-03-22,株式会社丸櫻組,,株式会社,宮城県,塩竈市,泉沢町３番３９号,,04,203,9850062,,,,,,,2024-03-22,1,,,,,マルオウグミ,0
2354,8380001034381,新規,0,2024-03-22,2024-03-22,株式会社第一不動産鑑定所,,株式会社,福島県,会津若松市,追手町３番１６号,,07,202,9650873,,,,,,,2024-03-22,1,,,,,ダイイチフドウサンカンテイショ,0
2358,8400001016591,新規,0,2024-03-22,2024-03-22,株式会社シンデンキ,,株式会社,岩手県,北上市,藤沢８地割１７８番地,,03,206,0240013,,,,,,,2024-03-22,1,,,,,シンデンキ,0
2363,8420001018644,新規,0,2024-03-22,2024-03-22,リンクコーポレーション株式会社,,株式会社,青森県,黒石市,柵ノ木４丁目１５８番地１５,,02,204,0360333,,,,,,,2024-03-22,1,,,,,リンクコーポレーション,0
2366,8430001091327,新規,0,2024-03-22,2024-03-22,株式会社フィジカルインソール,,株式会社,北海道,恵庭市,黄金中央５丁目１９６番地の１,,01,231,0611449,,,,,,,2024-03-22,1,,,,,フィジカルインソール,0
2367,8430001091384,新規,0,2024-03-22,2024-03-22,株式会社Ｎａｔｉｏｎａｌ　Ｔｅｌｅｃｏｍ,,株式会社,北海道,札幌市中央区,南一条西７丁目２０番地１スカイビル３階,,01,101,0600061,,,,,,,2024-03-22,1,,,,,ナショナルテレコム,0
2368,8430003016100,新規,0,2024-03-22,2024-03-22,合同会社リンクウィット,,合同会社,北海道,勇払郡安平町,追分白樺２丁目７３番地,,01,585,0591942,,,,,,,2024-03-22,1,,,,,リンクウィット,0
2369,8430003016117,新規,0,2024-03-22,2024-03-22,合同会社かんわけあ,,合同会社,北海道,小樽市,桂岡町４番１号春香２　１６号,,01,203,0470264,,,,,,,2024-03-22,1,,,,,カンワケア,0
2380,8460103001602,新規,0,2024-03-22,2024-03-22,ミカタ合同会社,,合同会社,北海道,中川郡本別町,上本別１４－３ハイツおがわＢ棟２０１号,,01,646,0893321,,,,,,,2024-03-22,1,,,,,ミカタ,0
2386,8500003003207,新規,0,2024-03-22,2024-03-22,Ｃａｎｖａｓ合同会社,,合同会社,愛媛県,松山市,竹原２丁目１番５３号エバーグリーン松山２号館１０４号,,38,201,7900053,,,,,,,2024-03-22,1,,,,,キャンバス,0
2399,9010001243159,新規,0,2024-03-22,2024-03-22,株式会社もくもく,,株式会社,東京都,千代田区,二番町９番地３ＴＨＥＢＡＳＥ麹町Ｅ－２１１号室,,13,101,1020084,,,,,,,2024-03-22,1,,,,,モクモク,0
2400,9010001243200,新規,0,2024-03-22,2024-03-22,株式会社マッケン＆Ｃｏ,,株式会社,東京都,千代田区,神田神保町２丁目４０番地７友輪ビル６階,,13,101,1010051,,,,,,,2024-03-22,1,,,,,マッケンアンドコウ,0
2401,9010001243225,新規,0,2024-03-22,2024-03-22,株式会社ＹＵＬ,,株式会社,東京都,中央区,銀座１丁目１２番４号Ｎ＆ＥＢＬＤ．６Ｆ,,13,102,1040061,,,,,,,2024-03-22,1,,,,,ユル,0
2402,9010001243299,新規,0,2024-03-22,2024-03-22,株式会社Ｔｒｕｓｔｆａｌｌ,,株式会社,東京都,千代田区,神田和泉町１番地６－１６ヤマトビル４０５,,13,101,1010024,,,,,,,2024-03-22,1,,,,,トラストフォール,0
2404,9010003043276,新規,0,2024-03-22,2024-03-22,ＺＥＴＴＯＮ合同会社,,合同会社,東京都,中央区,銀座７丁目１５番８号,,13,102,1040061,,,,,,,2024-03-22,1,,,,,ゼットン,0
2405,9010005038076,新規,0,2024-03-22,2024-03-22,一般社団法人オークス,,その他の設立登記法人,東京都,文京区,白山４丁目３２番１０号オークス８８－３Ｆ,,13,105,1120001,,,,,,,2024-03-22,1,,,,,オークス,0
2414,9010401181231,新規,0,2024-03-22,2024-03-22,株式会社Ｓｕｎｎｙ　Ｌａｂ．,,株式会社,東京都,港区,六本木５丁目１８－１９グランメール六本木６０８,,13,103,1060032,,,,,,,2024-03-22,1,,,,,サニーラボ,0
2418,9010403032102,新規,0,2024-03-22,2024-03-22,Ｓｕｎ合同会社,,合同会社,東京都,港区,北青山１丁目３番１号アールキューブ青山３階,,13,103,1070061,,,,,,,2024-03-22,1,,,,,サン,0
2421,9010603010717,新規,0,2024-03-22,2024-03-22,ＬＯＵＴＳ　ＲＩＳＥ　ＢＥＡＵＴＹ合同会社,,合同会社,東京都,墨田区,本所２丁目１６－２プライムメゾン浅草イースト３０６,,13,107,1300004,,,,,,,2024-03-22,1,,,,,ロータスライズビューティ,0
2422,9010603010725,新規,0,2024-03-22,2024-03-22,Ｎｅｘｔ　ｅｇｇ合同会社,,合同会社,東京都,墨田区,東向島４丁目３９番１６号,,13,107,1310032,,,,,,,2024-03-22,1,,,,,ネクストエッグ,0
2423,9010605004304,新規,0,2024-03-22,2024-03-22,医療法人社団こうよう会,,その他の設立登記法人,東京都,墨田区,亀沢２丁目１１番１４号ハーテクトハウス１階,,13,107,1300014,,,,,,,2024-03-22,1,,,,,コウヨウカイ,0
2424,9010701045730,新規,0,2024-03-22,2024-03-22,株式会社あきこ堂,,株式会社,東京都,品川区,豊町６丁目１６番６号,,13,109,1420042,,,,,,,2024-03-22,1,,,,,アキコドウ,0
2425,9010701045739,新規,0,2024-03-22,2024-03-22,株式会社ＣＯＬＺＡ,,株式会社,東京都,品川区,上大崎３丁目１４－４６ＡＲＴＥＳＳＩＭＯＣＡＲＯ３０２,,13,109,1410021,,,,,,,2024-03-22,1,,,,,コルザ,0
2431,9010803004881,新規,0,2024-03-22,2024-03-22,ＡＳＡカンパニー合同会社,,合同会社,東京都,大田区,大森北３丁目２９－２３但馬屋マンション１０６,,13,111,1430016,,,,,,,2024-03-22,1,,,,,エーエスエーカンパニー,0
2433,9010901054903,新規,0,2024-03-22,2024-03-22,株式会社Ｆａｍｉｌｉａｒ　Ｐｒｉｖａｔｅ　Ｃａｐｉｔａｌ,,株式会社,東京都,世田谷区,北烏山８丁目６番１０号,,13,112,1570061,,,,,,,2024-03-22,1,,,,,ファミリアプライベートキャピタル,0
2434,9010901054911,新規,0,2024-03-22,2024-03-22,株式会社Ｒｅｇｉｏｎ　Ｓｏｕｎｄ,,株式会社,東京都,世田谷区,上祖師谷５丁目２８－７,,13,112,1570065,,,,,,,2024-03-22,1,,,,,リージョンサウンド,0
2435,9010901054928,新規,0,2024-03-22,2024-03-22,株式会社Ｗ・Ａ,,株式会社,東京都,世田谷区,喜多見５丁目１０番１６号カーサポモドーロＣ１２,,13,112,1570067,,,,,,,2024-03-22,1,,,,,ダブルエー,0
2437,9010903008907,新規,0,2024-03-22,2024-03-22,ＳＵＰＥＲ　ＵＮＩＶＥＲＳＡＬ合同会社,,合同会社,東京都,世田谷区,三軒茶屋２丁目１３番２０－６０６号,,13,112,1540024,,,,,,,2024-03-22,1,,,,,スーパーユニバーサル,0
2447,9011001160583,新規,0,2024-03-22,2024-03-22,株式会社ＧＬＯＢＡＬＳＴＡＮＤＡＲＤ,,株式会社,東京都,目黒区,祐天寺２丁目１９番２号ピアチェーレ２０３,,13,110,1530052,,,,,,,2024-03-22,1,,,,,グローバルスタンダード,0
2448,9011001160674,新規,0,2024-03-22,2024-03-22,ＣｒｅｗＺ株式会社,,株式会社,東京都,渋谷区,代々木１丁目３９番１１号ＭＦＰＲ代々木タワー５０８,,13,113,1510053,,,,,,,2024-03-22,1,,,,,クルーズ,0
2449,9011001160690,新規,0,2024-03-22,2024-03-22,株式会社６ＫＡＮ,,株式会社,東京都,渋谷区,桜丘町２３番１７号シティコート桜丘４０８,,13,113,1500031,,,,,,,2024-03-22,1,,,,,ロッカン,0
2450,9011001160699,新規,0,2024-03-22,2024-03-22,株式会社Ｌｕｍｉｅｒｅ　ｄｏｕｃｅ,,株式会社,東京都,渋谷区,恵比寿３丁目６番１９号ピアリッジ恵比寿３０４,,13,113,1500013,,,,,,,2024-03-22,1,,,,,ルミエールドゥース,0
2451,9011001160716,新規,0,2024-03-22,2024-03-22,株式会社エンファースト,,株式会社,東京都,渋谷区,神宮前６丁目２３番４号桑野ビル２階,,13,113,1500001,,,,,,,2024-03-22,1,,,,,エンファースト,0
2452,9011001160749,新規,0,2024-03-22,2024-03-22,スター信用保証株式会社,,株式会社,東京都,渋谷区,渋谷１丁目９番４号,,13,113,1500002,,,,,,,2024-03-22,1,,,,,スターシンヨウホショウ,0
2453,9011001160765,新規,0,2024-03-22,2024-03-22,株式会社ＥＴＲＯＫＡ,,株式会社,東京都,渋谷区,恵比寿南２丁目２２番１号,,13,113,1500022,,,,,,,2024-03-22,1,,,,,エトロカ,0
2454,9011001160807,新規,0,2024-03-22,2024-03-22,株式会社アドピス,,株式会社,東京都,目黒区,中町１丁目２９番２号テイ・ケイ・プルミエール目黒２０３,,13,110,1530065,,,,,,,2024-03-22,1,,,,,アドピス,0
2455,9011001160815,新規,0,2024-03-22,2024-03-22,２Ａ．株式会社,,株式会社,東京都,渋谷区,神宮前４丁目２２番７号,,13,113,1500001,,,,,,,2024-03-22,1,,,,,ツーエードット,0
2456,9011003018739,新規,0,2024-03-22,2024-03-22,合同会社オフィスパートナーズ,,合同会社,東京都,目黒区,自由が丘２丁目１６番１２号ＲＪ３,,13,110,1520035,,,,,,,2024-03-22,1,,,,,オフィスパートナーズ,0
2457,9011003018755,新規,0,2024-03-22,2024-03-22,合同会社アール,,合同会社,東京都,渋谷区,神宮前３丁目１８番４２号,,13,113,1500001,,,,,,,2024-03-22,1,,,,,アール,0
2465,9011101106635,新規,0,2024-03-22,2024-03-22,株式会社ＬＩＶＩＵＳ　ＪＡＰＡＮ,,株式会社,東京都,新宿区,新宿１丁目１８番１０号カテリーナ柳通り７階,,13,104,1600022,,,,,,,2024-03-22,1,,,,,リビウスジャパン,0
2466,9011101106676,新規,0,2024-03-22,2024-03-22,株式会社Ｂｒａｖｏ,,株式会社,東京都,新宿区,大久保２丁目１番８号,,13,104,1690072,,,,,,,2024-03-22,1,,,,,ブラボー,0
2469,9011103014258,新規,0,2024-03-22,2024-03-22,合同会社ＫＮＹ,,合同会社,東京都,新宿区,西新宿３丁目３番１３号西新宿水間ビル２Ｆ,,13,104,1600023,,,,,,,2024-03-22,1,,,,,ケーエヌワイ,0
2471,9011201025339,新規,0,2024-03-22,2024-03-22,ちゃちゃまるクリーン株式会社,,株式会社,東京都,中野区,東中野１丁目５９－４－６Ｆ,,13,114,1640003,,,,,,,2024-03-22,1,,,,,チャチャマルクリーン,0
2473,9011601027629,新規,0,2024-03-22,2024-03-22,ＤＩＡ株式会社,,株式会社,東京都,練馬区,関町南２丁目２７番７号,,13,120,1770053,,,,,,,2024-03-22,1,,,,,ディーアイエー,0
2479,9011801043970,新規,0,2024-03-22,2024-03-22,株式会社イットパックス,,株式会社,東京都,足立区,栗原２丁目２番１４－３０５号,,13,121,1230842,,,,,,,2024-03-22,1,,,,,イットパックス,0
2482,9012401041662,新規,0,2024-03-22,2024-03-22,株式会社パワー,,株式会社,東京都,三鷹市,大沢１丁目５番２７号,,13,204,1810015,,,,,,,2024-03-22,1,,,,,パワー,0
2484,9012701018146,新規,0,2024-03-22,2024-03-22,株式会社日光建設,,株式会社,東京都,清瀬市,野塩５丁目２８５番地１１,,13,221,2040004,,,,,,,2024-03-22,1,,,,,ニッコウケンセツ,0
2485,9012701018154,新規,0,2024-03-22,2024-03-22,株式会社河野,,株式会社,東京都,小平市,上水新町１丁目５番７号,,13,211,1870023,,,,,,,2024-03-22,1,,,,,カワノ,0
2486,9012703002940,新規,0,2024-03-22,2024-03-22,いーもん房合同会社,,合同会社,東京都,西東京市,富士町５丁目４番９号富士ビル１Ｆ,,13,229,2020014,,,,,,,2024-03-22,1,,,,,イーモンボウ,0
2498,9020001156335,新規,0,2024-03-22,2024-03-22,ＥＧＧＨＥＡＲＴ株式会社,,株式会社,神奈川県,横浜市神奈川区,高島台６番地２高島台ハウス４０４号,,14,102,2210833,,,,,,,2024-03-22,1,,,,,エッグハート,0
2499,9020001156368,新規,0,2024-03-22,2024-03-22,ＡＮＩＭＡＬ株式会社,,株式会社,神奈川県,横浜市南区,中村町４丁目２７４－５－５０６,,14,105,2320033,,,,,,,2024-03-22,1,,,,,アニマル,0
2500,9020001156376,新規,0,2024-03-22,2024-03-22,株式会社Ａｉｎｓｉｇｈｔ,,株式会社,神奈川県,川崎市宮前区,東有馬３丁目１３番２８号,,14,136,2160002,,,,,,,2024-03-22,1,,,,,エーインサイト,0
2501,9020001156392,新規,0,2024-03-22,2024-03-22,新栄株式会社,,株式会社,神奈川県,横浜市西区,浜松町３番１８号,,14,103,2200055,,,,,,,2024-03-22,1,,,,,シンロン,0
2503,9020003025769,新規,0,2024-03-22,2024-03-22,合同会社ケアポート,,合同会社,神奈川県,横浜市金沢区,能見台４丁目３番１５号シティ能見台つどいの街参番館８０５号室,,14,108,2360057,,,,,,,2024-03-22,1,,,,,ケアポート,0
2506,9021001081770,新規,0,2024-03-22,2024-03-22,株式会社ＲＯＶＯＭＯ,,株式会社,神奈川県,横須賀市,安浦町２丁目２０番地４－７０５号,,14,201,2380012,,,,,,,2024-03-22,1,,,,,ロボモ,0
2509,9021003014299,新規,0,2024-03-22,2024-03-22,合同会社秀美資産,,合同会社,神奈川県,綾瀬市,寺尾南２丁目３番３０号,,14,218,2521134,,,,,,,2024-03-22,1,,,,,シュウビシサン,0
2518,9030001159279,新規,0,2024-03-22,2024-03-22,株式会社ＧｒａＢｅｌｉｅ,,株式会社,埼玉県,さいたま市中央区,八王子３丁目１９番１２号,,11,105,3380006,,,,,,,2024-03-22,1,,,,,グラビリー,0
2519,9030001159287,新規,0,2024-03-22,2024-03-22,株式会社グラウンドアート,,株式会社,埼玉県,川口市,南町２丁目１番２４号,,11,203,3320026,,,,,,,2024-03-22,1,,,,,グラウンドアート,0
2520,9030001159295,新規,0,2024-03-22,2024-03-22,株式会社ＵＬＴＩＭＥ,,株式会社,埼玉県,所沢市,けやき台１丁目１－１－９１７,,11,208,3591118,,,,,,,2024-03-22,1,,,,,ユルティム,0
2521,9030001159304,新規,0,2024-03-22,2024-03-22,株式会社敬Ｅｘｔｅｒｉｏｒ,,株式会社,埼玉県,入間市,狭山台１丁目４－８,,11,225,3580033,,,,,,,2024-03-22,1,,,,,ケイエクステリ,0
2522,9030001159320,新規,0,2024-03-22,2024-03-22,株式会社ＲＥＤＲＡ,,株式会社,埼玉県,さいたま市浦和区,常盤９丁目７番１２号,,11,107,3300061,,,,,,,2024-03-22,1,,,,,レドラ,0
2523,9030001159329,新規,0,2024-03-22,2024-03-22,株式会社野崎商事,00134167,株式会社,埼玉県,加須市,北小浜４３０番地１,,11,210,3470011,,,,,,,2024-03-22,1,,,,,ノザキショウジ,0
2524,9030001159345,新規,0,2024-03-22,2024-03-22,株式会社ｇｉｖｅｒ　ｅｉｇｈｔ,,株式会社,埼玉県,戸田市,大字新曽２３９８番地の１（メゾンドフィルズ３０９号室）,,11,224,3350021,,,,,,,2024-03-22,1,,,,,ギバーエイト,0
2525,9030001159361,新規,0,2024-03-22,2024-03-22,株式会社ＡＴ　Ｔｏｐ,,株式会社,埼玉県,朝霞市,泉水３丁目１２番２５－７０３号,,11,227,3510024,,,,,,,2024-03-22,1,,,,,アットトップ,0
2530,9030003023846,新規,0,2024-03-22,2024-03-22,ＰＡＹｉＴＦＯＲＷＡＲＤ合同会社,,合同会社,埼玉県,川口市,本町３丁目２番地１２デュアルコート川口イーストビュー７０５,,11,203,3320012,,,,,,,2024-03-22,1,,,,,ペイフォワード,0
2531,9030003023854,新規,0,2024-03-22,2024-03-22,合同会社ＲＥＯ．ｐｌａｎｎｉｎｇ,,合同会社,埼玉県,さいたま市浦和区,高砂４丁目４番１５号,,11,107,3300063,,,,,,,2024-03-22,1,,,,,レオプランニング,0
2532,9030003023862,新規,0,2024-03-22,2024-03-22,ＤｒｅａｍＨｏｕｓｅ合同会社,,合同会社,埼玉県,川口市,西川口１丁目３０番２０号３Ｆ,,11,203,3320021,,,,,,,2024-03-22,1,,,,,ドリームハウス,0
2541,9040001132739,新規,0,2024-03-22,2024-03-22,株式会社爆烈玩具,,株式会社,千葉県,浦安市,高洲２丁目１番１０－５１１号エクセレントスクエア新浦安,,12,227,2790023,,,,,,,2024-03-22,1,,,,,バクレツガング,0
2542,9040001132755,新規,0,2024-03-22,2024-03-22,株式会社和,,株式会社,千葉県,船橋市,西船４丁目２２番３号ＫＴＲビル１階,,12,204,2730031,,,,,,,2024-03-22,1,,,,,ナゴミ,0
2550,9050001054486,新規,0,2024-03-22,2024-03-22,株式会社伊藤総建,,株式会社,茨城県,鉾田市,大竹１５００－２８,,08,234,3111513,,,,,,,2024-03-22,1,,,,,イトウソウケン,0
2551,9050001054494,新規,0,2024-03-22,2024-03-22,株式会社マイアミ商会,,株式会社,茨城県,稲敷郡阿見町,大字阿見２９５８番地,,08,443,3000331,,,,,,,2024-03-22,1,,,,,マイアミショウカイ,0
2553,9050003008226,新規,0,2024-03-22,2024-03-22,ＴＨＡＮＨ　ＢＩＥＮ合同会社,,合同会社,茨城県,鉾田市,鉾田１０９番地ＨＫ１０－２０７号室,,08,234,3111517,,,,,,,2024-03-22,1,,,,,タインビエン,0
2555,9060001036938,新規,0,2024-03-22,2024-03-22,株式会社麻の力,,株式会社,栃木県,大田原市,中田原２０８９番地３５アネックスＣ－２１０号,,09,210,3240062,,,,,,,2024-03-22,1,,,,,アサノチカラ,0
2556,9060003004975,新規,0,2024-03-22,2024-03-22,合同会社山の家,,合同会社,栃木県,那須塩原市,黒磯６５２番地２３,,09,213,3250017,,,,,,,2024-03-22,1,,,,,ヤマノイエ,0
2557,9060003004983,新規,0,2024-03-22,2024-03-22,合同会社ユードリームズ,,合同会社,栃木県,宇都宮市,簗瀬町１９６１番地１クレストコートＡ３０５,,09,201,3210933,,,,,,,2024-03-22,1,,,,,ユードリームズ,0
2558,9070001041508,新規,0,2024-03-22,2024-03-22,３６９ｄｅｓｉｇｎ株式会社,,株式会社,群馬県,高崎市,並榎町１６４番地４２,,10,202,3700802,,,,,,,2024-03-22,1,,,,,ミロクデザイン,0
2559,9070001041524,新規,0,2024-03-22,2024-03-22,株式会社ＤＡＹＳ　ＧＲＯＵＰ,,株式会社,群馬県,高崎市,柳川町３５番地１,,10,202,3700815,,,,,,,2024-03-22,1,,,,,,0
2561,9080001026202,新規,0,2024-03-22,2024-03-22,株式会社アドゴルフ,,株式会社,静岡県,静岡市葵区,伝馬町１番地の２,,22,101,4200858,,,,,,,2024-03-22,1,,,,,アドゴルフ,0
2572,9110003005332,新規,0,2024-03-22,2024-03-22,合同会社ファーストオーダー,,合同会社,新潟県,新潟市西区,金巻１１４１番地３,,15,107,9501112,,,,,,,2024-03-22,1,,,,,ファーストオーダー,0
2575,9120001263212,新規,0,2024-03-22,2024-03-22,株式会社エーシーズ,,株式会社,大阪府,大阪市浪速区,湊町２丁目２番５号なんばセントラルプラザリバーガーデン２４０３,,27,111,5560017,,,,,,,2024-03-22,1,,,,,エーシーズ,0
2576,9120001263253,新規,0,2024-03-22,2024-03-22,株式会社クレール,,株式会社,大阪府,大阪市中央区,久太郎町２丁目５番１８号宝ビル２階２１号,,27,128,5410056,,,,,,,2024-03-22,1,,,,,クレール,0
2577,9120001263303,新規,0,2024-03-22,2024-03-22,株式会社ゆず,,株式会社,大阪府,大阪市東淀川区,菅原２丁目３番２６号,,27,114,5330022,,,,,,,2024-03-22,1,,,,,ユズ,0
2578,9120001263311,新規,0,2024-03-22,2024-03-22,株式会社Ｒｉｃｈｅｒｉ．Ｋ,,株式会社,大阪府,大阪市西区,南堀江２丁目５番３－１２０１号,,27,106,5500015,,,,,,,2024-03-22,1,,,,,リシェリケイ,0
2579,9120001263344,新規,0,2024-03-22,2024-03-22,株式会社フル・ステージホールディングス,,株式会社,大阪府,大阪市中央区,道修町２丁目６番６号塩野日生ビル,,27,128,5410045,,,,,,,2024-03-22,1,,,,,フルステージホールディングス,0
2580,9120001263377,新規,0,2024-03-22,2024-03-22,株式会社ｏｎＴｒｕｓｔ,,株式会社,大阪府,大阪市西区,北堀江１丁目１番２７号８Ｈ,,27,106,5500014,,,,,,,2024-03-22,1,,,,,オントラスト,0
2581,9120001263385,新規,0,2024-03-22,2024-03-22,株式会社Ａｉコーポレーション,,株式会社,大阪府,枚方市,牧野阪２丁目５番１７,,27,210,5731146,,,,,,,2024-03-22,1,,,,,アイコーポレーション,0
2582,9120001263402,新規,0,2024-03-22,2024-03-22,株式会社みやまえ,,株式会社,大阪府,大阪市東淀川区,南江口１丁目２番８７,,27,114,5330003,,,,,,,2024-03-22,1,,,,,ミヤマエ,0
2584,9120003026212,新規,0,2024-03-22,2024-03-22,合同会社Ａｋａｎｋｏ,,合同会社,大阪府,大阪市西区,北堀江４丁目１２－１０－５２６,,27,106,5500014,,,,,,,2024-03-22,1,,,,,アカンコ,0
2588,9120101069261,新規,0,2024-03-22,2024-03-22,株式会社芽生,,株式会社,大阪府,貝塚市,浦田２０６番地１５,,27,208,5970061,,,,,,,2024-03-22,1,,,,,メバエ,0
2589,9120101069278,新規,0,2024-03-22,2024-03-22,知庭株式会社,,株式会社,大阪府,泉大津市,条南町３－２６松浜マンション２０５室,,27,206,5950016,,,,,,,2024-03-22,1,,,,,チテイ,0
2591,9120901048910,新規,0,2024-03-22,2024-03-22,株式会社つくも,,株式会社,大阪府,吹田市,垂水町２丁目２７番１－４０１号,,27,205,5640062,,,,,,,2024-03-22,1,,,,,ツクモ,0
2592,9120901048943,新規,0,2024-03-22,2024-03-22,株式会社ヤマダイ,,株式会社,大阪府,吹田市,山手町４丁目１０番１１号,,27,205,5640073,,,,,,,2024-03-22,1,,,,,ヤマダイ,0
2597,9130001076605,新規,0,2024-03-22,2024-03-22,株式会社辻元重量,00134155,株式会社,京都府,京都市右京区,西京極畑田町５３番地１ベルフィールド西京極Ｗ２０１,,26,108,6150824,,,,,,,2024-03-22,1,,,,,ツジモトジュウリョウ,0
2605,9140001133710,新規,0,2024-03-22,2024-03-22,株式会社アレスティ,,株式会社,兵庫県,川西市,出在家町２１番９号,,28,217,6660011,,,,,,,2024-03-22,1,,,,,アレスティ,0
2606,9140001133719,新規,0,2024-03-22,2024-03-22,株式会社サンプランニング,,株式会社,兵庫県,西宮市,熊野町２番１６－５０５号,,28,204,6638103,,,,,,,2024-03-22,1,,,,,サンプランニング,0
2607,9140001133735,新規,0,2024-03-22,2024-03-22,株式会社ユーファクトリー,,株式会社,兵庫県,芦屋市,打出小槌町１０番６号メインステージ芦屋ＯＮＥ―ＢＬＯＣＫ５０２,00134152,28,206,6590028,,,,,,,2024-03-22,1,,,,,ユーファクトリー,0
2608,9140001133751,新規,0,2024-03-22,2024-03-22,株式会社ファースト・テクノ,,株式会社,兵庫県,尼崎市,尾浜町１丁目２９番８－６号,,28,202,6610022,,,,,,,2024-03-22,1,,,,,ファーストテクノ,0
2609,9140001133784,新規,0,2024-03-22,2024-03-22,シリカのある生活株式会社,,株式会社,兵庫県,尼崎市,元浜町１丁目５９番地の１,,28,202,6600085,,,,,,,2024-03-22,1,,,,,シリカノアルセイカツ,0
2610,9140001133801,新規,0,2024-03-22,2024-03-22,ＺＤＤ株式会社,,株式会社,兵庫県,宝塚市,すみれガ丘３丁目５番１－１１５号,,28,214,6650847,,,,,,,2024-03-22,1,,,,,ゼードディディ,0
2612,9140003020320,新規,0,2024-03-22,2024-03-22,矢谷合同会社,,合同会社,兵庫県,神戸市北区,唐櫃台２丁目２４番８－３０４号,,28,109,6511332,,,,,,,2024-03-22,1,,,,,ヤタニ,0
2613,9140005026984,新規,0,2024-03-22,2024-03-22,一般社団法人藤井クリニック,,その他の設立登記法人,兵庫県,神戸市中央区,明石町３２番地明海ビル８階,,28,110,6500037,,,,,,,2024-03-22,1,,,,,フジイクリニック,0
2616,9180001160585,新規,0,2024-03-22,2024-03-22,ＤＥＩＬ株式会社,,株式会社,愛知県,江南市,般若町東山５６番地,,23,217,4838012,,,,,,,2024-03-22,1,,,,,デイル,0
2617,9180001160602,新規,0,2024-03-22,2024-03-22,クオーレ株式会社,,株式会社,愛知県,一宮市,大和町福森字井戸畑１９番地,,23,203,4910935,,,,,,,2024-03-22,1,,,,,クオーレ,0
2618,9180001160610,新規,0,2024-03-22,2024-03-22,株式会社堺工業,,株式会社,愛知県,名古屋市中川区,昭和橋通４丁目９番地の５（エルフィン昭和橋通３０１号）,,23,110,4540852,,,,,,,2024-03-22,1,,,,,サカイコウギョウ,0
2619,9180001160627,新規,0,2024-03-22,2024-03-22,株式会社誠心工業,,株式会社,愛知県,名古屋市緑区,滝ノ水３丁目１０５番地,,23,114,4580021,,,,,,,2024-03-22,1,,,,,セイシンコウギョウ,0
2620,9180001160651,新規,0,2024-03-22,2024-03-22,株式会社ＭＫＩぷらす,,株式会社,愛知県,小牧市,田県町１７番地,,23,219,4850004,,,,,,,2024-03-22,1,,,,,ミキプラス,0
2621,9180001160668,新規,0,2024-03-22,2024-03-22,ｔｗｅｌｖｅ株式会社,,株式会社,愛知県,名古屋市中区,大須３丁目３８番４５号,,23,106,4600011,,,,,,,2024-03-22,1,,,,,トゥエルブ,0
2622,9180001160684,新規,0,2024-03-22,2024-03-22,株式会社もえ建築工房一級建築士事務所,,株式会社,愛知県,常滑市,檜原字平井前２４番地,,23,216,4790803,,,,,,,2024-03-22,1,,,,,モエケンチクコウボウイッキュウケンチクシジムショ,0
2624,9180301038432,新規,0,2024-03-22,2024-03-22,株式会社ＴＯＭＡＴＥＸ,,株式会社,愛知県,田原市,光崎１丁目５番地５,,23,231,4413407,,,,,,,2024-03-22,1,,,,,トマテックス,0
2625,9180301038449,新規,0,2024-03-22,2024-03-22,株式会社Ｌａ　Ｍａｆｉａ,,株式会社,愛知県,刈谷市,板倉町２丁目３番地２,,23,210,4480801,,,,,,,2024-03-22,1,,,,,ラマフィア,0
2627,9200001042302,新規,0,2024-03-22,2024-03-22,株式会社ヒカリへ,,株式会社,岐阜県,大垣市,笠木町８４番地８,,21,202,5030023,,,,,,,2024-03-22,1,,,,,ヒカリエ,0
2634,9220001025874,新規,0,2024-03-22,2024-03-22,株式会社あるところに,,株式会社,石川県,金沢市,東山１丁目１３番４号,,17,201,9200831,,,,,,,2024-03-22,1,,,,,アルトコロニ,0
2635,9230001020247,新規,0,2024-03-22,2024-03-22,株式会社Ａｎｄ　Ｎｅｗ,,株式会社,富山県,富山市,中市１丁目７番１２号,,16,201,9398005,,,,,,,2024-03-22,1,,,,,アンドニュー,0
2637,9240001062940,新規,0,2024-03-22,2024-03-22,株式会社１０４,,株式会社,広島県,三原市,港町１丁目７番２７号,,34,204,7230017,,,,,,,2024-03-22,1,,,,,イチマルヨン,0
2638,9240001062981,新規,0,2024-03-22,2024-03-22,株式会社ｉｖｙ,,株式会社,広島県,広島市安佐南区,西原８丁目３９番９号,,34,105,7310113,,,,,,,2024-03-22,1,,,,,アイビー,0
2640,9270001008940,新規,0,2024-03-22,2024-03-22,株式会社Ｂｅｌｌｅ　Ｇａｒｄｅｎ,,株式会社,鳥取県,米子市,東倉吉町１３５番地５（２階）,,31,202,6830815,,,,,,,2024-03-22,1,,,,,ベルガーデン,0
2643,9290001105100,新規,0,2024-03-22,2024-03-22,Ｂｒａｎｄｉｎｇ　ａｔｅ株式会社,,株式会社,福岡県,福岡市東区,東浜１丁目１３番３２号１Ｆ,,40,131,8120055,,,,,,,2024-03-22,1,,,,,ブランディングエイト,0
2644,9290001105117,新規,0,2024-03-22,2024-03-22,株式会社プリデンス,,株式会社,福岡県,福岡市博多区,築港本町７番１４－４０１号,,40,132,8120021,,,,,,,2024-03-22,1,,,,,プリデンス,0
2645,9290001105141,新規,0,2024-03-22,2024-03-22,株式会社Ｋ．Ｒ．Ｙ．ソリューションズ,,株式会社,福岡県,大牟田市,新勝立町４丁目３番地８５,,40,202,8360895,,,,,,,2024-03-22,1,,,,,ケイアールワイソリューションズ,0
2646,9290001105182,新規,0,2024-03-22,2024-03-22,株式会社西日本パワーエナジー,,株式会社,福岡県,宗像市,広陵台５丁目３番地２１,,40,220,8114165,,,,,,,2024-03-22,1,,,,,ニシニホンパワーエナジー,0
2647,9290001105216,新規,0,2024-03-22,2024-03-22,例規ドラフト株式会社,,株式会社,福岡県,福岡市西区,小戸４丁目７番７号カーレント小戸５０１号,,40,135,8190001,,,,,,,2024-03-22,1,,,,,レイキドラフト,0
2648,9290003015082,新規,0,2024-03-22,2024-03-22,合同会社Ｍｉｉｉｉ,,合同会社,福岡県,福岡市中央区,平尾３丁目１４番２８号,,40,133,8100014,,,,,,,2024-03-22,1,,,,,ミー,0
2649,9290003015099,新規,0,2024-03-22,2024-03-22,ＴＡＮ　ＡＮ合同会社,,合同会社,福岡県,福岡市東区,若宮２丁目４１番８号,,40,131,8130036,,,,,,,2024-03-22,1,,,,,タンアン,0
2651,9300005007183,新規,0,2024-03-22,2024-03-22,一般社団法人佐賀メイト,,その他の設立登記法人,佐賀県,佐賀市,大和町大字池上３６７２番地１,,41,201,8400212,,,,,,,2024-03-22,1,,,,,サガメイト,0
2655,9310001018919,新規,0,2024-03-22,2024-03-22,株式会社エスポワール,,株式会社,長崎県,長崎市,新大工町１番１４号,,42,201,8500017,,,,,,,2024-03-22,1,,,,,エスポワール,0
2656,9330005010770,新規,0,2024-03-22,2024-03-22,一般社団法人恵会,,その他の設立登記法人,熊本県,熊本市北区,下硯川１丁目１番７号,,43,105,8615526,,,,,,,2024-03-22,1,,,,,メグミカイ,0
2660,9350001018840,新規,0,2024-03-22,2024-03-22,株式会社アスカゼ,,株式会社,宮崎県,宮崎市,橘通東４丁目５－２５Ｍ－Ｃｉｔｙ橘６Ｆランバーミル内,,45,201,8800805,,,,,,,2024-03-22,1,,,,,アスカゼ,0
2672,9380001034389,新規,0,2024-03-22,2024-03-22,株式会社ウェルテックスチール,,株式会社,福島県,郡山市,安積町長久保１丁目２６番地の２４,,07,203,9630105,,,,,,,2024-03-22,1,,,,,ウェルテックスチール,0
2673,9380003005719,新規,0,2024-03-22,2024-03-22,れいわ企画合同会社,,合同会社,福島県,福島市,南沢又字中琵琶淵７３番地,,07,201,9608254,,,,,,,2024-03-22,1,,,,,レイワキカク,0
2675,9400001016599,新規,0,2024-03-22,2024-03-22,株式会社オードリー,,株式会社,岩手県,盛岡市,三本柳２２地割１０７番地６,,03,201,0200831,,,,,,,2024-03-22,1,,,,,オードリー,0
2677,9410001013769,新規,0,2024-03-22,2024-03-22,株式会社ウッドバード,,株式会社,秋田県,秋田市,御所野堤台３丁目３番地６,,05,201,0101419,,,,,,,2024-03-22,1,,,,,ウッドバード,0
2680,9420001018643,新規,0,2024-03-22,2024-03-22,株式会社Ａｒｔ　Ｍｕｓｉｃ　Ｊａｐａｎ,,株式会社,青森県,西津軽郡深浦町,大字深浦字岡町１５９番地,,02,323,0382324,,,,,,,2024-03-22,1,,,,,アートミュージックジャパン,0
2682,9430001091342,新規,0,2024-03-22,2024-03-22,株式会社Ｐｌｕｓ　Ａｌｐｈａ,,株式会社,北海道,札幌市南区,石山一条７丁目１３番１９号,,01,106,0050841,,,,,,,2024-03-22,1,,,,,プラスアルファ,0
2683,9430001091350,新規,0,2024-03-22,2024-03-22,株式会社ＬＩＦＥＭＡＰクリエイト,,株式会社,北海道,札幌市中央区,南一条西１３丁目４番地５５,,01,101,0600061,,,,,,,2024-03-22,1,,,,,ライフマップクリエイト,0
2684,9430001091359,新規,0,2024-03-22,2024-03-22,株式会社ＣＲＯＳＳ,,株式会社,北海道,札幌市中央区,北一条西１９丁目１番地４日宝北１条ビル２階,,01,101,0600001,,,,,,,2024-03-22,1,,,,,クロス,0
2685,9430001091367,新規,0,2024-03-22,2024-03-22,Ｓｔｅｐ　Ｆｏｒｗａｒｄ株式会社,,株式会社,北海道,札幌市中央区,南五条西１５丁目２番３号リズム医大前５０３号室,,01,101,0640805,,,,,,,2024-03-22,1,,,,,ステップフォワード,0
2691,9430003016090,新規,0,2024-03-22,2024-03-22,合同会社ミラク,,合同会社,北海道,札幌市豊平区,豊平六条３丁目１番１－１０７号,,01,105,0620906,,,,,,,2024-03-22,1,,,,,ミラク,0
2693,9460101007518,新規,0,2024-03-22,2024-03-22,株式会社ＭＸ,,株式会社,北海道,帯広市,西十六条南４丁目３３－１０,,01,207,0800026,,,,,,,2024-03-22,1,,,,,エムエックス,0
2694,9460103001601,新規,0,2024-03-22,2024-03-22,合同会社十晴社,,合同会社,北海道,帯広市,西二条南１８丁目１２番１,,01,207,0800012,,,,,,,2024-03-22,1,,,,,ジュッセイシャ,0
