sequenceNumber,corporateNumber,process,correct,updateDate,changeDate,name,nameImageId,kind,prefectureName,cityName,streetNumber,addressImageId,prefectureCode,cityCode,postCode,addressOutside,addressOutsideImageId,closeDate,closeCause,successorCorporateNumber,changeCause,assignmentDate,latest,enName,enPrefectureName,enCityName,enAddressOutside,furigana,hihyoji
1,1010001000955,登記記録の閉鎖等,0,2021-12-13,2021-12-06,株式会社ＡＥＡ総合計画事務所,,株式会社,東京都,文京区,本郷２丁目３番３号パレス御茶ノ水１－６０１,,13,105,1130033,,,2021-12-06,清算の結了等,,,2015-10-05,1,,,,,エーイーエーソウゴウケイカクジムショ,0
4,1010001086730,登記記録の閉鎖等,0,2021-12-13,2021-12-08,株式会社バイオシンクタンク,,株式会社,東京都,文京区,本郷４丁目１番４号,,13,105,1130033,,,2021-12-08,清算の結了等,,,2015-10-05,1,,,,,バイオシンクタンク,0
25,1010401145400,登記記録の閉鎖等,0,2021-12-13,2021-12-06,シニフィアンＶＩＣ株式会社,,株式会社,東京都,港区,虎ノ門５丁目１１番１号オランダヒルズ森タワーＲｏＰ１１０４,,13,103,1050001,,,2021-12-06,清算の結了等,,,2019-05-14,1,,,,,シニフィアンブイアイシー,0
42,1010803001705,登記記録の閉鎖等,0,2021-12-13,2021-12-07,合同会社ハウジングビー２８,,合同会社,東京都,大田区,蒲田５丁目２８番１０号佐藤ビル４階,,13,111,1440052,,,2021-12-07,清算の結了等,,,2015-10-05,1,,,,,ハウジングビーニジュウハチ,0
55,1011001117640,登記記録の閉鎖等,0,2021-12-13,2021-12-08,株式会社アバカム,,株式会社,東京都,中央区,新川２丁目２１番１０号,,13,102,1040033,,,2021-12-08,清算の結了等,,,2017-07-31,1,,,,,アバカム,0
130,1040002013508,登記記録の閉鎖等,0,2021-12-13,2021-12-10,ベストホケン有限会社,,有限会社,千葉県,千葉市若葉区,若松町３７４番地の１０,,12,104,2640021,,,2021-12-10,清算の結了等,,,2015-10-05,1,,,,,ベストホケン,0
139,1050002039568,登記記録の閉鎖等,0,2021-12-13,2021-12-08,有限会社石塚車輌,,有限会社,茨城県,常総市,花島町１０６８番地,,08,211,3002511,,,2021-12-08,清算の結了等,,,2015-10-05,1,,,,,イシツカシャリョウ,0
142,1060001010339,登記記録の閉鎖等,0,2021-12-13,2021-12-07,株式会社釜徳商店,,株式会社,栃木県,鹿沼市,下田町２丁目１０７８番地エムケイハイム１０３号室,,09,205,3220036,,,2021-12-07,清算の結了等,,,2015-10-05,1,,,,,カマトクショウテン,0
148,1080001016433,登記記録の閉鎖等,0,2021-12-13,2021-12-09,株式会社志太重量,,株式会社,静岡県,藤枝市,下当間６８８番地の１,,22,214,4260003,,,2021-12-09,清算の結了等,,,2015-10-05,1,,,,,シダジュウリョウ,0
149,1080103002100,登記記録の閉鎖等,0,2021-12-13,2021-12-09,合同会社富樫研究開発,,合同会社,静岡県,御殿場市,山之尻８４０番地の１３,,22,215,4120018,,,2021-12-09,清算の結了等,,,2020-01-29,1,,,,,トガシケンキュウカイハツ,0
164,1120001114653,登記記録の閉鎖等,0,2021-12-13,2021-12-08,株式会社ＹＴプランニング,,株式会社,大阪府,大阪市淀川区,西中島４丁目７番２３号やなぎ屋ビル３階,,27,123,5320011,,,2021-12-08,清算の結了等,,,2015-10-05,1,,,,,ワイティプランニング,0
199,1140002050929,登記記録の閉鎖等,0,2021-12-13,2021-12-06,有限会社松島熔接工業所,,有限会社,兵庫県,姫路市,御国野町御着字深見１８７番地,,28,201,6710232,,,2021-12-06,清算の結了等,,,2015-10-05,1,,,,,マツシマヨウセツコウギョウショ,0
204,1180001110011,登記記録の閉鎖等,0,2021-12-13,2021-12-07,株式会社ＢＭＰ,,株式会社,愛知県,名古屋市東区,泉１丁目１８番３０号,,23,102,4610001,,,2021-12-07,清算の結了等,,,2015-10-05,1,,,,,ビーエムピー,0
215,1200001009531,登記記録の閉鎖等,0,2021-12-13,2021-12-09,株式会社ＭＧＴリミテッド,,株式会社,岐阜県,岐阜市,細畑１丁目３－１,,21,201,5008238,,,2021-12-09,清算の結了等,,,2015-10-05,1,,,,,エムジーティーリミテッド,0
216,1200001015538,登記記録の閉鎖等,0,2021-12-13,2021-12-08,カネジュー株式会社,,株式会社,岐阜県,海津市,平田町今尾１５８０番地,,21,221,5030321,,,2021-12-08,清算の結了等,,,2015-10-05,1,,,,,カネジュー,0
226,1240002035250,登記記録の閉鎖等,0,2021-12-13,2021-12-09,ハタモトセーフティ有限会社,,有限会社,広島県,呉市,広白岳５丁目６番４４号,,34,202,7370144,,,2021-12-09,清算の結了等,,,2015-10-05,1,,,,,ハタモトセーフティ,0
234,1260002002471,登記記録の閉鎖等,0,2021-12-13,2021-12-10,有限会社学匠,,有限会社,岡山県,岡山市北区,富田町２丁目７番１号,,33,101,7000816,,,2021-12-10,清算の結了等,,,2015-10-05,1,,,,,,0
250,1290002033563,登記記録の閉鎖等,0,2021-12-13,2021-12-07,有限会社タイセイ,,有限会社,福岡県,福岡市南区,的場１丁目２９番１７号,,40,134,8111314,,,2021-12-07,清算の結了等,,,2015-10-05,1,,,,,タイセイ,0
264,1330001010245,登記記録の閉鎖等,0,2021-12-13,2021-12-09,株式会社菊鹿フラワーバンク,,株式会社,熊本県,山鹿市,菊鹿町下内田７３３番地,,43,208,8610406,,,2021-12-09,清算の結了等,,,2015-10-05,1,,,,,キクカフラワーバンク,0
302,2010001106990,登記記録の閉鎖等,0,2021-12-13,2021-12-06,株式会社ユニバーサルコーポレーション,,株式会社,東京都,世田谷区,成城２丁目２６番９号,,13,112,1570066,,,2021-12-06,清算の結了等,,,2015-10-05,1,,,,,ユニバーサルコーポレーション,0
313,2010005031285,登記記録の閉鎖等,0,2021-12-13,2021-12-08,一般社団法人ターフプロパティ,,その他の設立登記法人,東京都,中央区,日本橋２丁目７番１号,,13,102,1030027,,,2021-12-08,清算の結了等,,,2020-01-09,1,,,,,ターフプロパティ,0
315,2010401092501,登記記録の閉鎖等,0,2021-12-13,2021-12-09,株式会社ＵＦＯ,,株式会社,神奈川県,横浜市青葉区,つつじが丘２７番地１７,,14,117,2270055,,,2021-12-09,清算の結了等,,,2015-10-05,1,,,,,ユーフォー,0
335,2010701013594,登記記録の閉鎖等,0,2021-12-13,2021-12-07,株式会社ハツタテクノ,,株式会社,東京都,港区,芝大門１丁目５番１０号,,13,103,1050012,,,2021-12-07,合併による解散等,6120001150363,令和３年１２月１日大阪府枚方市招提田近三丁目５番地株式会社初田製作所（6120001150363）に合併し解散,2015-10-05,1,,,,,ハツタテクノ,0
341,2010801030283,登記記録の閉鎖等,0,2021-12-13,2021-12-07,株式会社ＳＬＡＳＨ　ｃｒｅａｔｉｖｅ　ｏｆｆｉｃｅ,,株式会社,東京都,大田区,仲池上２丁目２８番５－３０１号,,13,111,1460081,,,2021-12-07,清算の結了等,,,2019-10-11,1,,,,,スラッシュクリエイティブオフィス,0
342,2010803001704,登記記録の閉鎖等,0,2021-12-13,2021-12-07,合同会社ハウスビー２８,,合同会社,東京都,大田区,蒲田５丁目２８番１０号佐藤ビル４階,,13,111,1440052,,,2021-12-07,清算の結了等,,,2015-10-05,1,,,,,ハウスビーニジュウハチ,0
380,2012401015202,登記記録の閉鎖等,0,2021-12-13,2021-12-09,株式会社ロンロンヘアブティック,,株式会社,東京都,武蔵野市,吉祥寺南町１丁目１番２４号,,13,203,1800003,,,2021-12-09,清算の結了等,,,2015-10-05,1,,,,,ロンロンヘアブティック,0
382,2012701012469,登記記録の閉鎖等,0,2021-12-13,2021-12-09,株式会社めろんぱん・ふぉと,,株式会社,東京都,小平市,上水新町１丁目１８番１３号,,13,211,1870023,,,2021-12-09,清算の結了等,,,2015-10-05,1,,,,,,0
401,2021002071546,登記記録の閉鎖等,0,2021-12-13,2021-12-08,有限会社しぶき亭,,有限会社,神奈川県,三浦市,三崎町城ケ島６５８番地１０,,14,210,2380237,,,2021-12-08,清算の結了等,,,2015-10-05,1,,,,,,0
406,2030002022896,登記記録の閉鎖等,0,2021-12-13,2021-12-07,有限会社ハタゾエ製本,,有限会社,埼玉県,蓮田市,見沼町１番１９号,,11,238,3490127,,,2021-12-07,清算の結了等,,,2015-10-05,1,,,,,ハタゾエセイホン,0
407,2030002060748,登記記録の閉鎖等,0,2021-12-13,2021-12-09,有限会社江口工業,,有限会社,埼玉県,新座市,石神３丁目１９番３２号ベルジュールひばりヶ丘２０７,,11,230,3520033,,,2021-12-09,清算の結了等,,,2015-10-05,1,,,,,エグチコウギョウ,0
408,2030002063486,登記記録の閉鎖等,0,2021-12-13,2021-12-09,有限会社西沢住設建材,,有限会社,埼玉県,富士見市,水谷東２丁目３８番１０号,,11,235,3540013,,,2021-12-09,清算の結了等,,,2015-10-05,1,,,,,ニシザワジュウセツケンザイ,0
410,2030002100586,登記記録の閉鎖等,0,2021-12-13,2021-12-09,有限会社今井鉄工所,,有限会社,埼玉県,川口市,青木４丁目２７番１８号,,11,203,3320031,,,2021-12-09,清算の結了等,,,2015-10-05,1,,,,,イマイテッコウジョ,0
413,2030005000379,登記記録の閉鎖等,0,2021-12-13,2021-11-30,天理教春谷分教会,,その他の設立登記法人,埼玉県,さいたま市北区,宮原町４丁目４０番地１９,,11,102,3310812,,,2021-11-30,合併による解散等,2030005009809,令和３年１１月３０日埼玉県鴻巣市滝馬室１３９３番地３天理教春光分教会（2030005009809）に合併し解散,2015-10-05,1,,,,,テンリキョウハルタニブンキョウカイ,0
421,2040002051390,登記記録の閉鎖等,0,2021-12-13,2021-12-08,有限会社木村電気,,有限会社,千葉県,流山市,流山１丁目２７５番地,,12,220,2700164,,,2021-12-08,清算の結了等,,,2015-10-05,1,,,,,キムラデンキ,0
422,2040002061142,登記記録の閉鎖等,0,2021-12-13,2021-12-09,有限会社谷田,,有限会社,千葉県,佐倉市,ユーカリが丘７丁目３２番１－４０３号,,12,212,2850858,,,2021-12-09,清算の結了等,,,2015-10-05,1,,,,,タニダ,0
430,2050001005660,登記記録の閉鎖等,0,2021-12-13,2021-12-08,株式会社ライズワン,,株式会社,茨城県,那珂市,菅谷２０４７番地の３,,08,226,3110105,,,2021-12-08,清算の結了等,,,2015-10-05,1,,,,,ライズワン,0
432,2050002039047,登記記録の閉鎖等,0,2021-12-13,2021-12-08,有限会社マルエイ,,有限会社,茨城県,取手市,戸頭２丁目４４番１２号,,08,217,3020034,,,2021-12-08,清算の結了等,,,2015-10-05,1,,,,,,0
472,2120101059079,登記記録の閉鎖等,0,2021-12-13,2021-12-06,株式会社武田フィルム,,株式会社,大阪府,岸和田市,春木本町３番１１号,,27,202,5960034,,,2021-12-06,清算の結了等,,,2018-11-30,1,,,,,タケダフィルム,0
479,2120901035015,登記記録の閉鎖等,0,2021-12-13,2021-12-09,株式会社Ｒａｒａｈｉｒａ,,株式会社,大阪府,茨木市,新中条町８番１９－１０６号,,27,211,5670872,,,2021-12-09,清算の結了等,,,2015-10-05,1,,,,,ララヒラ,0
483,2122001003744,登記記録の閉鎖等,0,2021-12-13,2021-12-08,株式会社スミダファスナーカンパニー,,株式会社,大阪府,東大阪市,金物町１番８号,,27,227,5770815,,,2021-12-08,清算の結了等,,,2015-10-05,1,,,,,スミダファスナーカンパニー,0
491,2130001070143,登記記録の閉鎖等,0,2021-12-13,2021-12-08,株式会社西島建設,,株式会社,京都府,綴喜郡井手町,大字井手小字柏原４３番地２,,26,343,6100302,,,2021-12-08,清算の結了等,,,2021-09-27,1,,,,,ニシジマケンセツ,0
498,2140001081734,登記記録の閉鎖等,0,2021-12-13,2021-12-08,株式会社タケオ,,株式会社,兵庫県,宝塚市,栄町１丁目６番２－１０４,,28,214,6650845,,,2021-12-08,清算の結了等,,,2015-10-05,1,,,,,タケオ,0
510,2160002006837,登記記録の閉鎖等,0,2021-12-13,2021-12-09,有限会社西嶋商店,,有限会社,滋賀県,長浜市,殿町５番２の１号,,25,203,5260064,,,2021-12-09,清算の結了等,,,2015-10-05,1,,,,,ニシジマショウテン,0
533,2240002029549,登記記録の閉鎖等,0,2021-12-13,2021-12-09,有限会社たかさごや,,有限会社,広島県,山県郡北広島町,蔵迫５３番地,,34,369,7311502,,,2021-12-09,清算の結了等,,,2015-10-05,1,,,,,タカサゴヤ,0
534,2250002011596,登記記録の閉鎖等,0,2021-12-13,2021-12-10,有限会社和田鮮魚店,,有限会社,山口県,下関市,長門町１０番１号（長門プラザ内）,,35,201,7500026,,,2021-12-10,清算の結了等,,,2015-10-05,1,,,,,,0
550,2300005000756,登記記録の閉鎖等,0,2021-12-13,2021-11-24,天理教川副分教会,,その他の設立登記法人,佐賀県,佐賀市,北川副町大字光法１３０番地の１,,41,201,8400012,,,2021-11-24,合併による解散等,6290005005547,令和３年１１月１８日福岡県古賀市千鳥二丁目２３番１号天理教西海大教会（6290005005547）に合併し解散,2015-10-05,1,,,,,テンリキョウカワソエブンキョウカイ,0
564,2370003002467,登記記録の閉鎖等,0,2021-12-13,2021-12-08,合同会社アレンジメント東北,,合同会社,宮城県,亘理郡山元町,山寺字西牛橋３５番地の１４９,,04,362,9892201,,,2021-12-08,清算の結了等,,,2015-10-05,1,,,,,アレンジメントトウホク,0
576,2430001065039,登記記録の閉鎖等,0,2021-12-13,2021-12-10,株式会社オクショウ,,株式会社,北海道,札幌市東区,伏古三条４丁目１番３４号,,01,103,0070863,,,2021-12-10,清算の結了等,,,2015-10-05,1,,,,,オクショウ,0
614,3010901019465,登記記録の閉鎖等,0,2021-12-13,2021-11-30,株式会社蔵前テクノベンチャー,,株式会社,山梨県,笛吹市,春日居町桑戸９２０番地,,19,211,4060003,,,2021-11-30,清算の結了等,,,2015-10-05,1,,,,,クラマエテクノベンチャー,0
658,3012401035422,登記記録の閉鎖等,0,2021-12-13,2021-12-06,株式会社ＥＫＯＬＮＯＡ,,株式会社,東京都,府中市,八幡町１丁目８番地の７,,13,206,1830016,,,2021-12-06,清算の結了等,,,2019-06-14,1,,,,,エコルノア,0
705,3040002049401,登記記録の閉鎖等,0,2021-12-13,2021-12-09,有限会社ユー・ケー加工サービス,,有限会社,千葉県,松戸市,五香西２丁目４４番地１,,12,207,2702218,,,2021-12-09,清算の結了等,,,2015-10-05,1,,,,,,0
713,3050002009271,登記記録の閉鎖等,0,2021-12-13,2021-12-07,有限会社高須建材,,有限会社,茨城県,東茨城郡大洗町,神山町１２５３番地,,08,309,3111312,,,2021-12-07,清算の結了等,,,2015-10-05,1,,,,,タカスケンザイ,0
719,3080005003252,登記記録の閉鎖等,0,2021-12-13,2021-12-09,農事組合法人宮前実行組合,,その他の設立登記法人,静岡県,静岡市清水区,庵原町２０４１番地,,22,103,4240114,,,2021-12-09,清算の結了等,,,2015-10-05,1,,,,,ミヤマエジッコウクミアイ,0
725,3100001005786,登記記録の閉鎖等,0,2021-12-13,2021-12-09,株式会社エクセル,,株式会社,東京都,練馬区,中村３丁目４番２３号,,13,120,1760024,,,2021-12-09,清算の結了等,,,2015-10-05,1,,,,,エクセル,0
751,3120005014815,登記記録の閉鎖等,0,2021-12-13,2021-12-09,特定非営利活動法人ＩＬＤプロジェクト,,その他の設立登記法人,大阪府,大阪市生野区,生野西１丁目１４番１号,,27,116,5440024,,,2021-12-09,清算の結了等,,,2015-10-05,1,,,,,,0
760,3120905001697,登記記録の閉鎖等,0,2021-12-13,2021-12-07,準学校法人千里丘文化学園,,その他の設立登記法人,大阪府,摂津市,千里丘１丁目５番２４号,,27,224,5660001,,,2021-12-07,清算の結了等,,,2015-10-05,1,,,,,センリオカブンカガクエン,0
771,3140002013289,登記記録の閉鎖等,0,2021-12-13,2021-12-08,有限会社奥島,,有限会社,兵庫県,神戸市中央区,花隈町２４番１７号,,28,110,6500013,,,2021-12-08,清算の結了等,,,2015-10-05,1,,,,,オクシマ,0
772,3140002041629,登記記録の閉鎖等,0,2021-12-13,2021-12-02,有限会社田中睦材木店,,有限会社,兵庫県,尼崎市,浜２丁目５番２号,,28,202,6610967,,,2021-12-02,清算の結了等,,,2015-10-05,1,,,,,タナカムツザイモクテン,0
773,3140003016464,登記記録の閉鎖等,0,2021-12-13,2021-12-08,合同会社サエラ,,合同会社,兵庫県,加古郡稲美町,加古３３９９番地の３,,28,381,6751105,,,2021-12-08,清算の結了等,,,2021-06-25,1,,,,,サエラ,0
778,3160001000815,登記記録の閉鎖等,0,2021-12-13,2021-12-09,三協電装株式会社,,株式会社,滋賀県,大津市,秋葉台２７番１８号,,25,201,5200822,,,2021-12-09,清算の結了等,,,2015-10-05,1,,,,,サンキョウデンソウ,0
779,3180001071012,登記記録の閉鎖等,0,2021-12-13,2021-12-08,株式会社オフィスＫ＆Ｙ,,株式会社,愛知県,名古屋市昭和区,山里町３６番地の２４‐２０２,,23,107,4660824,,,2021-12-08,清算の結了等,,,2015-10-05,1,,,,,オフィスケイアンドワイ,0
781,3180001102980,登記記録の閉鎖等,0,2021-12-13,2021-12-07,株式会社名長,,株式会社,愛知県,名古屋市中村区,郷前町３丁目２９番地,,23,105,4530808,,,2021-12-07,清算の結了等,,,2015-10-05,1,,,,,メイチョウ,0
784,3180001114893,登記記録の閉鎖等,0,2021-12-13,2021-12-07,株式会社Ｍ５,,株式会社,愛知県,名古屋市中区,錦３丁目７番１号,,23,106,4600003,,,2021-12-07,清算の結了等,,,2015-10-05,1,,,,,エムゴ,0
793,3180303002037,登記記録の閉鎖等,0,2021-12-13,2021-12-09,冨士土地建物合名会社,,合名会社,愛知県,碧南市,道場山町３丁目２４番地,,23,209,4470864,,,2021-12-09,清算の結了等,,,2015-10-05,1,,,,,フジトチタテモノ,0
800,3200001028595,登記記録の閉鎖等,0,2021-12-13,2021-12-10,株式会社鴻鵠ホールディングス,00076774,株式会社,岐阜県,岐阜市,西野町１丁目１３番地,,21,201,5008882,,,2021-12-10,清算の結了等,,,2015-10-05,1,,,,,コウコクホールディングス,0
807,3210001017597,登記記録の閉鎖等,0,2021-12-13,2021-12-08,株式会社令洸,,株式会社,福井県,福井市,成和１丁目３１１２番地,,18,201,9188239,,,2021-12-08,清算の結了等,,,2019-06-20,1,,,,,レイコウ,0
818,3250005000117,登記記録の閉鎖等,0,2021-12-13,2021-12-08,財団法人初瀬保勝会,,その他の設立登記法人,山口県,山口市,宮野下１５０９番地,,35,203,7530011,,,2021-12-08,清算の結了等,,,2015-10-05,1,,,,,ハセホショウカイ,0
844,3310002007819,登記記録の閉鎖等,0,2021-12-13,2021-12-09,有限会社車楽,,有限会社,長崎県,西彼杵郡時津町,左底郷１３７１番地１,,42,308,8512106,,,2021-12-09,清算の結了等,,,2015-10-05,1,,,,,シャラク,0
845,3320001010062,登記記録の閉鎖等,0,2021-12-13,2021-12-09,大商建設工業株式会社,,株式会社,大分県,日田市,大字上野８６番地,,44,204,8770000,,,2021-12-09,清算の結了等,,,2015-10-05,1,,,,,ダイショウケンセツコウギョウ,0
861,3370003003893,登記記録の閉鎖等,0,2021-12-13,2021-12-07,合同会社ルアナ,,合同会社,宮城県,仙台市青葉区,二日町１３番２６号,,04,101,9800802,,,2021-12-07,清算の結了等,,,2017-08-07,1,,,,,ルアナ,0
874,3430001039438,登記記録の閉鎖等,0,2021-12-13,2021-12-09,株式会社スポーツビジネス研究所,,株式会社,北海道,虻田郡ニセコ町,字本通１０６番地９,,01,395,0481502,,,2021-12-09,清算の結了等,,,2015-10-05,1,,,,,スポーツビジネスケンキュウジョ,0
878,3430005008629,登記記録の閉鎖等,0,2021-12-13,2021-11-22,天理教神惠内分教会,,その他の設立登記法人,北海道,古宇郡神恵内村,大字神恵内村字浜中１２番地の５,,01,404,0450301,,,2021-11-22,合併による解散等,6430005008469,令和３年１１月２２日北海道虻田郡倶知安町北六条東九丁目１番地１３天理教北冨士分教会（6430005008469）に合併し解散,2015-10-05,1,,,,,テンリキョウカモエナイブンキョウカイ,0
896,4010103000867,登記記録の閉鎖等,0,2021-12-13,2021-12-06,合同会社インクルシオン,,合同会社,東京都,八王子市,長房町６０番地１３,,13,201,1930824,,,2021-12-06,清算の結了等,,,2015-10-05,1,,,,,インクルシオン,0
909,4010702002909,登記記録の閉鎖等,0,2021-12-13,2021-12-09,有限会社伍栄商会,,有限会社,東京都,品川区,北品川２丁目８番１１－７０２号,,13,109,1400001,,,2021-12-09,清算の結了等,,,2015-10-05,1,,,,,ゴエイショウカイ,0
912,4011001014777,登記記録の閉鎖等,0,2021-12-13,2021-12-02,株式会社デーリー,,株式会社,東京都,渋谷区,代々木３丁目４６番１５号,,13,113,1510053,,,2021-12-02,合併による解散等,1010001026166,令和３年１１月３０日東京都千代田区丸の内三丁目４番１号株式会社野澤組（1010001026166）に合併し解散,2015-10-05,1,,,,,デーリー,0
920,4011101045821,登記記録の閉鎖等,0,2021-12-13,2021-12-09,株式会社サクラ堂グラフィカ,,株式会社,東京都,新宿区,富久町１１番５号５０１,,13,104,1620067,,,2021-12-09,清算の結了等,,,2015-10-05,1,,,,,サクラドウグラフィカ,0
928,4011401005129,登記記録の閉鎖等,0,2021-12-13,2021-12-09,株式会社根岸,,株式会社,東京都,板橋区,赤塚２丁目２番１４号,00065587,13,119,1750092,,,2021-12-09,清算の結了等,,,2015-10-05,1,,,,,ネギシ,0
930,4011602004771,登記記録の閉鎖等,0,2021-12-13,2021-12-09,有限会社伸興電機,,有限会社,東京都,練馬区,上石神井３丁目１３番２号,,13,120,1770044,,,2021-12-09,清算の結了等,,,2015-10-05,1,,,,,シンコウデンキ,0
957,4030001126713,登記記録の閉鎖等,0,2021-12-13,2021-12-09,株式会社ＡＴＴＲＡＣＴ,,株式会社,埼玉県,蕨市,北町１丁目１６番１２号本田マンション１号棟３０９,,11,223,3350001,,,2021-12-09,清算の結了等,,,2018-07-24,1,,,,,アトラクト,0
962,4040001017176,登記記録の閉鎖等,0,2021-12-13,2021-12-09,クリエイトハウジング株式会社,,株式会社,千葉県,習志野市,鷺沼３丁目６番４１号,,12,216,2750014,,,2021-12-09,清算の結了等,,,2015-10-05,1,,,,,クリエイトハウジング,0
963,4040001049129,登記記録の閉鎖等,0,2021-12-13,2021-12-07,株式会社恒栄,,株式会社,千葉県,四街道市,大日１６４３番地７,,12,228,2840001,,,2021-12-07,清算の結了等,,,2015-10-05,1,,,,,コウエイ,0
972,4040002063608,登記記録の閉鎖等,0,2021-12-13,2021-12-08,有限会社野村興業,,有限会社,千葉県,八街市,東吉田８１７番地,,12,230,2891114,,,2021-12-08,清算の結了等,,,2015-10-05,1,,,,,ノムラコウギョウ,0
1026,4140002064199,登記記録の閉鎖等,0,2021-12-13,2021-12-07,有限会社リカレント,,有限会社,兵庫県,伊丹市,伊丹３丁目４番２７号,,28,207,6640846,,,2021-12-07,清算の結了等,,,2015-10-05,1,,,,,リカレント,0
1029,4150001001615,登記記録の閉鎖等,0,2021-12-13,2021-12-09,南都投資顧問株式会社,,株式会社,奈良県,奈良市,大宮町４丁目２６６番地の１,,29,201,6308115,,,2021-12-09,清算の結了等,,,2015-10-05,1,,,,,ナントトウシコモン,0
1032,4150002000764,登記記録の閉鎖等,0,2021-12-13,2021-12-10,有限会社三田クリーニング店,,有限会社,奈良県,奈良市,北京終町４０番地,,29,201,6308322,,,2021-12-10,清算の結了等,,,2015-10-05,1,,,,,サンタクリーニングテン,0
1035,4160001016216,登記記録の閉鎖等,0,2021-12-13,2021-12-07,株式会社オカモト,,株式会社,福岡県,福岡市早良区,小田部１丁目６番１７号,,40,137,8140032,,,2021-12-07,清算の結了等,,,2015-10-05,1,,,,,オカモト,0
1050,4180301016509,登記記録の閉鎖等,0,2021-12-13,2021-12-08,株式会社ケーアイコーポレーション,,株式会社,愛知県,名古屋市中区,丸の内３丁目２０番５号,,23,106,4600002,,,2021-12-08,清算の結了等,,,2015-10-05,1,,,,,ケーアイコーポレーション,0
1054,4190002002179,登記記録の閉鎖等,0,2021-12-13,2021-12-09,有限会社前川電気,,有限会社,三重県,津市,一志町波瀬１８８６番地,,24,201,5152522,,,2021-12-09,清算の結了等,,,2015-10-05,1,,,,,マエガワデンキ,0
1065,4240002011629,登記記録の閉鎖等,0,2021-12-13,2021-12-09,有限会社ながお風呂ショップ,,有限会社,広島県,広島市安佐北区,口田南６丁目８－２１－１８,,34,106,7391733,,,2021-12-09,清算の結了等,,,2015-10-05,1,,,,,ナガオフロショップ,0
1087,4320002006942,登記記録の閉鎖等,0,2021-12-13,2021-12-10,安田鋼産有限会社,,有限会社,大分県,大分市,大州浜２丁目５番５号,,44,201,8700906,,,2021-12-10,清算の結了等,,,2015-10-05,1,,,,,ヤスダコウサン,0
1153,5010601003206,登記記録の閉鎖等,0,2021-12-13,2021-12-07,株式会社大廣社,,株式会社,東京都,江東区,三好３丁目７番９号,,13,108,1350022,,,2021-12-07,清算の結了等,,,2015-10-05,1,,,,,ダイコウシャ,0
1171,5011101084208,登記記録の閉鎖等,0,2021-12-13,2021-12-07,株式会社ｂｉｚｉｔ,,株式会社,東京都,新宿区,早稲田町７４番地１７ＯＬＩＯ早稲田６０２,,13,104,1620042,,,2021-12-07,清算の結了等,,,2018-05-21,1,,,,,ビジット,0
1175,5011102012695,登記記録の閉鎖等,0,2021-12-13,2021-12-03,武藤食品有限会社,,有限会社,東京都,新宿区,余丁町６番３７号,,13,104,1620055,,,2021-12-03,清算の結了等,,,2015-10-05,1,,,,,ムトウショクヒン,0
1178,5011401003775,登記記録の閉鎖等,0,2021-12-13,2021-12-10,大東機械株式会社,,株式会社,東京都,板橋区,前野町６丁目８番２６号,,13,119,1740063,,,2021-12-10,清算の結了等,,,2015-10-05,1,,,,,ダイトウキカイ,0
1198,5012405002103,登記記録の閉鎖等,0,2021-12-13,2021-12-09,医療法人社団橙康会,,その他の設立登記法人,東京都,府中市,府中町２丁目１番地７角ないとうビル２階,,13,206,1830055,,,2021-12-09,清算の結了等,,,2015-10-05,1,,,,,トウコウカイ,0
1210,5020001121425,登記記録の閉鎖等,0,2021-12-13,2021-12-09,株式会社Ｄｕｎｃｈａ　Ｉｎｔｅｒｎａｔｉｏｎａｌ,,株式会社,神奈川県,横浜市港北区,新横浜２丁目５番１４号ＷＩＳＥＮＥＸＴ新横浜３Ｆ,,14,109,2220033,,,2021-12-09,清算の結了等,,,2017-05-22,1,,,,,ドウンチャインターナショナル,0
1212,5021001040565,登記記録の閉鎖等,0,2021-12-13,2021-12-08,株式会社ジュエル・ローラン,,株式会社,神奈川県,横須賀市,大滝町２丁目２０番地,,14,201,2380008,,,2021-12-08,清算の結了等,,,2015-10-05,1,,,,,ジュエルローラン,0
1230,5030002083597,登記記録の閉鎖等,0,2021-12-13,2021-12-09,有限会社松本オートサービス,,有限会社,埼玉県,北本市,二ツ家４丁目３２番地,,11,233,3640014,,,2021-12-09,清算の結了等,,,2015-10-05,1,,,,,マツモトオートサービス,0
1248,5050002030011,登記記録の閉鎖等,0,2021-12-13,2021-12-07,有限会社関資源センター,,有限会社,茨城県,神栖市,横瀬９５８番地８２,,08,232,3140113,,,2021-12-07,清算の結了等,,,2015-10-05,1,,,,,,0
1251,5060001023386,登記記録の閉鎖等,0,2021-12-13,2021-12-07,ＳＥＥＤ株式会社,,株式会社,福岡県,福岡市中央区,港２丁目１番５号,,40,133,8100075,,,2021-12-07,清算の結了等,,,2015-10-05,1,,,,,シード,0
1262,5110002027182,登記記録の閉鎖等,0,2021-12-13,2021-12-08,有限会社小畑瓦店,,有限会社,新潟県,長岡市,芹川町１３２６番地,,15,202,9402473,,,2021-12-08,清算の結了等,,,2015-10-05,1,,,,,オバタカワラテン,0
1265,5120001150380,登記記録の閉鎖等,0,2021-12-13,2021-12-08,華食品株式会社,,株式会社,大阪府,枚方市,菊丘町３３番２０号,,27,210,5730091,,,2021-12-08,清算の結了等,,,2015-10-05,1,,,,,ハナショクヒン,0
1282,5120005009581,登記記録の閉鎖等,0,2021-12-13,2021-12-03,特定非営利活動法人地下水利用技術センター,,その他の設立登記法人,大阪府,大阪市淀川区,西中島５丁目１番８号日研ビル５０９号室,,27,123,5320011,,,2021-12-03,清算の結了等,,,2015-10-05,1,,,,,チカスイリヨウギジュツセンター,0
1295,5140002008246,登記記録の閉鎖等,0,2021-12-13,2021-12-07,有限会社エスエム工業,,有限会社,兵庫県,神戸市北区,藤原台南町１丁目１番１１号,,28,109,6511303,,,2021-12-07,清算の結了等,,,2015-10-05,1,,,,,エスエムコウギョウ,0
1350,5290802024691,登記記録の閉鎖等,0,2021-12-13,2021-12-08,有限会社中村工業,,有限会社,福岡県,田川郡川崎町,大字川崎９６０番地,,40,605,8270003,,,2021-12-08,清算の結了等,,,2015-10-05,1,,,,,ナカムラコウギョウ,0
1351,5300005000778,登記記録の閉鎖等,0,2021-12-13,2021-11-24,天理教肥玉分教会,,その他の設立登記法人,佐賀県,佐賀市,紺屋町４番１７号,,41,201,8400056,,,2021-11-24,合併による解散等,6290005005547,令和３年１１月１８日福岡県古賀市千鳥二丁目２３番１号天理教西海大教会（6290005005547）に合併し解散,2015-10-05,1,,,,,テンリキョウヒダマブンキョウカイ,0
1354,5330002020082,登記記録の閉鎖等,0,2021-12-13,2021-12-09,有限会社田代工務店,,有限会社,熊本県,上益城郡益城町,大字宮園４８４番地,,43,443,8612241,,,2021-12-09,清算の結了等,,,2015-10-05,1,,,,,タシロコウムテン,0
1377,5430001071496,登記記録の閉鎖等,0,2021-12-13,2021-12-09,株式会社和心,,株式会社,北海道,札幌市清田区,北野三条２丁目３番７号,,01,110,0040863,,,2021-12-09,清算の結了等,,,2016-05-10,1,,,,,ワゴコロ,0
1391,5500005000667,登記記録の閉鎖等,0,2021-12-13,2021-12-08,医療法人河野小児科,,その他の設立登記法人,愛媛県,松山市,久米窪田町７８１番地３,,38,201,7911101,,,2021-12-08,清算の結了等,,,2015-10-05,1,,,,,コウノショウニカ,0
1392,5700150068010,登記記録の閉鎖等,0,2021-12-13,2016-07-01,ミドリ安全厚生年金基金,,その他,東京都,港区,六本木３丁目１－３０ＡＢビル６Ｆ,,13,103,1060032,,,2016-07-01,その他の清算の結了等,,,2015-12-17,1,,,,,ミドリアンゼンコウセイネンキンキキン,0
1418,6010601005564,登記記録の閉鎖等,0,2021-12-13,2021-12-06,日本原色印刷工業株式会社,,株式会社,東京都,墨田区,立花１丁目３４番４号,,13,107,1310043,,,2021-12-06,清算の結了等,,,2015-10-05,1,,,,,ニホンゲンショクインサツコウギョウ,0
1423,6010801002295,登記記録の閉鎖等,0,2021-12-13,2021-12-08,株式会社落合京浜,,株式会社,東京都,大田区,仲六郷２丁目４１番７号,,13,111,1440055,,,2021-12-08,合併による解散等,7010501002306,令和３年１２月１日東京都台東区下谷一丁目４番１２号株式会社落合（7010501002306）に合併し解散,2015-10-05,1,,,,,,0
1444,6011501017360,登記記録の閉鎖等,0,2021-12-13,2021-12-08,株式会社ナスカ,,株式会社,東京都,北区,滝野川５丁目４３番７号,,13,117,1140023,,,2021-12-08,清算の結了等,,,2015-10-05,1,,,,,ナスカ,0
1445,6011502002865,登記記録の閉鎖等,0,2021-12-13,2021-12-07,有限会社新東京運輸,,有限会社,東京都,北区,栄町４３番６号,,13,117,1140005,,,2021-12-07,清算の結了等,,,2015-10-05,1,,,,,シントウキョウウンユ,0
1452,6011801030096,登記記録の閉鎖等,0,2021-12-13,2021-12-03,株式会社ベストライフ,,株式会社,東京都,豊島区,池袋３丁目３４番７号,,13,116,1710014,,,2021-12-03,清算の結了等,,,2015-10-05,1,,,,,ベストライフ,0
1458,6012702008818,登記記録の閉鎖等,0,2021-12-13,2021-12-07,有限会社サカイ木材,,有限会社,東京都,清瀬市,松山１丁目１３番３号－３２７,,13,221,2040022,,,2021-12-07,清算の結了等,,,2015-10-05,1,,,,,サカイモクザイ,0
1462,6013202006725,登記記録の閉鎖等,0,2021-12-13,2021-12-08,有限会社横田製作所,,有限会社,東京都,目黒区,中央町１丁目１５番２号,,13,110,1520001,,,2021-12-08,清算の結了等,,,2015-10-05,1,,,,,ヨコタセイサクショ,0
1485,6030002030061,登記記録の閉鎖等,0,2021-12-13,2021-12-08,有限会社高浦建設,,有限会社,埼玉県,所沢市,中富南３丁目７番地の２３,,11,208,3590003,,,2021-12-08,清算の結了等,,,2015-10-05,1,,,,,タカウラケンセツ,0
1490,6040001001558,登記記録の閉鎖等,0,2021-12-13,2021-12-07,株式会社川真,,株式会社,千葉県,千葉市中央区,都町５丁目４番１４号,,12,101,2600001,,,2021-12-07,清算の結了等,,,2015-10-05,1,,,,,カワシン,0
1496,6040002087159,登記記録の閉鎖等,0,2021-12-13,2021-12-08,有限会社丸新木材,,有限会社,千葉県,香取市,多田４３２番地,,12,236,2870014,,,2021-12-08,清算の結了等,,,2015-10-05,1,,,,,マルシンモクザイ,0
1513,6080002013144,登記記録の閉鎖等,0,2021-12-13,2021-12-07,有限会社ダイセツ,,有限会社,静岡県,静岡市駿河区,西島３６３－４５,,22,102,4228045,,,2021-12-07,清算の結了等,,,2015-10-05,1,,,,,ダイセツ,0
1532,6120001170774,登記記録の閉鎖等,0,2021-12-13,2021-12-08,株式会社シーズン,,株式会社,大阪府,大阪市北区,堂島２丁目３番９号ＳＵＲＥ堂島ビル８階,,27,127,5300003,,,2021-12-08,清算の結了等,,,2015-10-05,1,,,,,シーズン,0
1568,6160005008018,登記記録の閉鎖等,0,2021-12-13,2021-12-10,特定非営利活動法人日本生活習慣改善協会,,その他の設立登記法人,滋賀県,湖南市,石部西１丁目１２番４０号,,25,211,5203105,,,2021-12-10,清算の結了等,,,2015-10-05,1,,,,,ニホンセイカツシュウカンカイゼンキョウカイ,0
1569,6160005008736,登記記録の閉鎖等,0,2021-12-13,2021-12-08,特定非営利活動法人キッズダンスフェスティバル,,その他の設立登記法人,滋賀県,草津市,野路５丁目１２番１８号,,25,206,5250059,,,2021-12-08,清算の結了等,,,2015-10-05,1,,,,,キッズダンスフェスティバル,0
1570,6160005010279,登記記録の閉鎖等,0,2021-12-13,2021-12-08,一般社団法人滋賀県地域活性化協会,,その他の設立登記法人,滋賀県,草津市,野路５丁目１２番１３号,,25,206,5250059,,,2021-12-08,清算の結了等,,,2016-07-15,1,,,,,シガケンチイキカッセイカキョウカイ,0
1582,6180001121482,登記記録の閉鎖等,0,2021-12-13,2021-12-06,ＡＳＡ小牧中央株式会社,,株式会社,愛知県,小牧市,新町２丁目２６４番地,,23,219,4850013,,,2021-12-06,清算の結了等,,,2015-12-24,1,,,,,エーエスエーコマキチュウオウ,0
1588,6180001136497,登記記録の閉鎖等,0,2021-12-13,2021-12-02,株式会社恭賀,,株式会社,愛知県,日進市,本郷町宮下５２１番地８,,23,230,4700121,,,2021-12-02,清算の結了等,,,2019-05-10,1,,,,,キョウガ,0
1592,6180002066454,登記記録の閉鎖等,0,2021-12-13,2021-12-08,有限会社ＳＴ－ＯＮＥ,,有限会社,愛知県,春日井市,乙輪町２丁目４８番地,,23,206,4860832,,,2021-12-08,清算の結了等,,,2015-10-05,1,,,,,エスティーワン,0
1593,6180003021565,登記記録の閉鎖等,0,2021-12-13,2021-12-09,合同会社りょう,,合同会社,愛知県,春日井市,牛山町３６６－４８,,23,206,4860901,,,2021-12-09,清算の結了等,,,2020-09-01,1,ryo-llc,Aichi,"366-48 Ushiyamacho, Kasugai shi",,リョウ,0
1594,6180005016431,登記記録の閉鎖等,0,2021-12-13,2021-12-06,税理士法人ヒューマン,,その他の設立登記法人,愛知県,名古屋市中村区,名駅５丁目１６番１７号,,23,105,4500002,,,2021-12-06,清算の結了等,,,2015-10-05,1,,,,,ヒューマン,0
1600,6190002016061,登記記録の閉鎖等,0,2021-12-13,2021-12-10,有限会社ＳＡＮＹＵＵ,,有限会社,三重県,多気郡明和町,大字上村８２番地２２,,24,442,5150322,,,2021-12-10,清算の結了等,,,2015-10-05,1,,,,,,0
1601,6190002020740,登記記録の閉鎖等,0,2021-12-13,2021-12-10,有限会社セルビス,,有限会社,三重県,四日市市,尾平町３０２８番地の１,,24,202,5120921,,,2021-12-10,清算の結了等,,,2015-10-05,1,,,,,セルビス,0
1635,6330003008968,登記記録の閉鎖等,0,2021-12-13,2021-12-07,合資会社大友商店,,合資会社,熊本県,玉名市,高瀬３８６番地,,43,206,8650025,,,2021-12-07,清算の結了等,,,2021-07-20,1,,,,,オオトモショウテン,0
1639,6350002015105,登記記録の閉鎖等,0,2021-12-13,2021-12-10,有限会社メイワ,,有限会社,宮崎県,都城市,下川東４丁目１１号４番地２,,45,202,8850011,,,2021-12-10,清算の結了等,,,2015-10-05,1,,,,,メイワ,0
1689,7010002008620,登記記録の閉鎖等,0,2021-12-13,2021-12-06,有限会社オフィス・アルファ,,有限会社,東京都,千代田区,神田神保町３丁目６番地４－３０１号,,13,101,1010051,,,2021-12-06,清算の結了等,,,2015-10-05,1,,,,,オフィスアルファ,0
1707,7010601050155,登記記録の閉鎖等,0,2021-12-13,2021-12-07,ＩＮＮＯクリエイト株式会社,,株式会社,東京都,墨田区,本所３丁目１５番１０号,,13,107,1300004,,,2021-12-07,合併による解散等,8010601011098,令和３年１２月１日東京都墨田区石原三丁目２７番１２号株式会社三央（8010601011098）に合併し解散,2016-08-03,1,,,,,イノクリエイト,0
1718,7010902014692,登記記録の閉鎖等,0,2021-12-13,2021-12-08,有限会社ミズホ,,有限会社,東京都,世田谷区,羽根木２丁目３６番１号,,13,112,1560042,,,2021-12-08,清算の結了等,,,2015-10-05,1,,,,,ミズホ,0
1728,7011005003550,登記記録の閉鎖等,0,2021-12-13,2021-11-30,一般社団法人こどものための柴基金,,その他の設立登記法人,東京都,渋谷区,代官山町１５－９代官山センタービル４Ｆ,,13,113,1500034,,,2021-11-30,清算の結了等,,,2015-10-05,1,,,,,コドモノタメノシバキキン,0
1729,7011101009146,登記記録の閉鎖等,0,2021-12-13,2021-12-09,株式会社シブヤ,,株式会社,東京都,新宿区,山吹町３５３番地矢口運送ビル,,13,104,1620801,,,2021-12-09,清算の結了等,,,2015-10-05,1,,,,,シブヤ,0
1735,7011103006414,登記記録の閉鎖等,0,2021-12-13,2021-12-06,映画合同会社,,合同会社,大阪府,大阪市阿倍野区,天王寺町北１丁目８番４７－８２０号,,27,119,5450001,,,2021-12-06,清算の結了等,,,2016-07-26,1,,,,,エイガ,0
1751,7012701004172,登記記録の閉鎖等,0,2021-12-13,2021-12-09,株式会社ニシカワ,,株式会社,東京都,清瀬市,上清戸１丁目１０番２号,,13,221,2040013,,,2021-12-09,清算の結了等,,,2015-10-05,1,,,,,,0
1757,7013202007276,登記記録の閉鎖等,0,2021-12-13,2021-11-30,有限会社藤岡商事,,有限会社,東京都,目黒区,緑が丘１丁目１５番１９号,,13,110,1520034,,,2021-11-30,清算の結了等,,,2015-10-05,1,,,,,フジオカショウジ,0
1778,7030002033443,登記記録の閉鎖等,0,2021-12-13,2021-12-09,有限会社オートサービスぱる,,有限会社,埼玉県,狭山市,大字堀兼７４５番地の６,,11,215,3501312,,,2021-12-09,清算の結了等,,,2015-10-05,1,,,,,オートサービスパル,0
1780,7030002118698,登記記録の閉鎖等,0,2021-12-13,2021-12-09,有限会社一之助,,有限会社,埼玉県,深谷市,榛沢新田５９番地,,11,218,3690221,,,2021-12-09,清算の結了等,,,2015-10-05,1,,,,,,0
1784,7030005013509,登記記録の閉鎖等,0,2021-12-13,2021-12-09,特定非営利活動法人街づくり会社・白壁,,その他の設立登記法人,埼玉県,行田市,大字下忍２２１９番地３,,11,206,3610037,,,2021-12-09,清算の結了等,,,2015-10-05,1,,,,,,0
1794,7050002013583,登記記録の閉鎖等,0,2021-12-13,2021-12-08,有限会社小倉重機,,有限会社,茨城県,稲敷郡阿見町,大字阿見５０４３番地,,08,443,3000331,,,2021-12-08,清算の結了等,,,2015-10-05,1,,,,,オグラジュウキ,0
1795,7050002024779,登記記録の閉鎖等,0,2021-12-13,2021-12-07,有限会社東山精機,,有限会社,茨城県,古河市,高野１１１８番地,,08,204,3060214,,,2021-12-07,清算の結了等,,,2015-10-05,1,,,,,ヒガシヤマセイキ,0
1797,7060002015884,登記記録の閉鎖等,0,2021-12-13,2021-12-07,有限会社宮田工務店,,有限会社,栃木県,日光市,稲荷町３丁目３２５番地,,09,206,3211411,,,2021-12-07,清算の結了等,,,2015-10-05,1,,,,,ミヤタコウムテン,0
1807,7090001000307,登記記録の閉鎖等,0,2021-12-13,2021-12-07,株式会社エムプランナー,,株式会社,山梨県,甲府市,住吉４丁目６番６号,,19,201,4000851,,,2021-12-07,清算の結了等,,,2015-10-05,1,,,,,エムプランナー,0
1827,7120002003833,登記記録の閉鎖等,0,2021-12-13,2021-12-08,有限会社ヤマモト,,有限会社,大阪府,大阪市阿倍野区,相生通２丁目１番２号,,27,119,5450033,,,2021-12-08,清算の結了等,,,2015-10-05,1,,,,,ヤマモト,0
1828,7120002053754,登記記録の閉鎖等,0,2021-12-13,2021-12-07,有限会社オプト宝,,有限会社,大阪府,大阪市阿倍野区,阿倍野元町１９番３号,,27,119,5450034,,,2021-12-07,清算の結了等,,,2015-10-05,1,,,,,オプトタカラ,0
1847,7140001104861,登記記録の閉鎖等,0,2021-12-13,2021-12-08,株式会社日経芦屋販売,00109076,株式会社,兵庫県,芦屋市,業平町６番１７号,,28,206,6590068,,,2021-12-08,清算の結了等,,,2017-01-30,1,,,,,ニッケイアシヤハンバイ,0
1860,7180001076115,登記記録の閉鎖等,0,2021-12-13,2021-12-08,中日チキン株式会社,,株式会社,愛知県,小牧市,小牧４丁目４５５番地,,23,219,4850041,,,2021-12-08,清算の結了等,,,2015-10-05,1,,,,,チュウニチチキン,0
1866,7180002017745,登記記録の閉鎖等,0,2021-12-13,2021-12-08,有限会社加新商事,,有限会社,愛知県,名古屋市中川区,八熊１丁目５番１１号,,23,110,4540013,,,2021-12-08,清算の結了等,,,2015-10-05,1,,,,,カシンショウジ,0
1878,7200001019483,登記記録の閉鎖等,0,2021-12-13,2021-12-08,株式会社ハートランドかみのほ,,株式会社,岐阜県,関市,上之保１４８４７番地の１,,21,205,5013601,,,2021-12-08,清算の結了等,,,2015-10-05,1,,,,,ハートランドカミノホ,0
1924,7470002000762,登記記録の閉鎖等,0,2021-12-13,2021-12-07,有限会社アブセ,,有限会社,香川県,高松市,木太町３１６４番地１１,,37,201,7600080,,,2021-12-07,清算の結了等,,,2015-10-05,1,,,,,アブセ,0
1958,8010001188512,登記記録の閉鎖等,0,2021-12-13,2021-11-29,株式会社ＩＮＦＩＥＬＤ,,株式会社,神奈川県,横浜市保土ケ谷区,狩場町３０３番地３０２,,14,106,2400025,,,2021-11-29,清算の結了等,,,2017-12-21,1,,,,,インフィールド,0
1966,8010401020729,登記記録の閉鎖等,0,2021-12-13,2021-12-06,株式会社東京トレイディング,,株式会社,東京都,港区,高輪１丁目４番８号,,13,103,1080074,,,2021-12-06,清算の結了等,,,2015-10-05,1,,,,,,0
2027,8013303004592,登記記録の閉鎖等,0,2021-12-13,2021-12-03,合同会社Ｔｒｅｓｈ,,合同会社,東京都,豊島区,池袋３丁目３４番７号ビジネスパーク池袋２階,,13,116,1710014,,,2021-12-03,清算の結了等,,,2019-04-12,1,,,,,トレッシュ,0
2030,8020001089395,登記記録の閉鎖等,0,2021-12-13,2021-12-09,株式会社ＵＳＳロジスティクス・インターナショナル・サービス,,株式会社,神奈川県,横浜市鶴見区,大黒町９番１９号,,14,101,2300053,,,2021-12-09,清算の結了等,,,2015-10-05,1,,,,,ユーエスエスロジスティクスインターナショナルサービス,0
2035,8021001028748,登記記録の閉鎖等,0,2021-12-13,2021-12-09,株式会社穂麿,,株式会社,神奈川県,座間市,相武台１丁目４５１５番地の９,,14,216,2520011,,,2021-12-09,清算の結了等,,,2015-10-05,1,,,,,,0
2047,8030002086985,登記記録の閉鎖等,0,2021-12-13,2021-12-09,有限会社田中企画,,有限会社,埼玉県,越谷市,大字大里２５２番地２,,11,222,3430031,,,2021-12-09,清算の結了等,,,2015-10-05,1,,,,,タナカキカク,0
2076,8060001028903,登記記録の閉鎖等,0,2021-12-13,2021-12-03,アメモリ株式会社,,株式会社,栃木県,足利市,通２丁目２７４５番地１号,,09,202,3260814,,,2021-12-03,清算の結了等,,,2016-12-13,1,,,,,アメモリ,0
2079,8080001016063,登記記録の閉鎖等,0,2021-12-13,2021-12-07,オールティーアシスト株式会社,,株式会社,静岡県,牧之原市,道場１９７番地９,,22,226,4210415,,,2021-12-07,清算の結了等,,,2015-10-05,1,,,,,オールティーアシスト,0
2082,8080102020906,登記記録の閉鎖等,0,2021-12-13,2021-12-08,有限会社エムアンドケイ,,有限会社,静岡県,下田市,吉佐美２１６７番地の１９,,22,219,4150028,,,2021-12-08,清算の結了等,,,2015-10-05,1,,,,,エムアンドケイ,0
2084,8110001030036,登記記録の閉鎖等,0,2021-12-13,2021-12-09,クローバー保険株式会社,,株式会社,新潟県,上越市,春日山町３丁目１１番１９号,,15,222,9430807,,,2021-12-09,清算の結了等,,,2015-10-05,1,,,,,クローバーホケン,0
2088,8120001086424,登記記録の閉鎖等,0,2021-12-13,2021-12-07,西陣ネクタイ株式会社,,株式会社,大阪府,大阪市中央区,内平野町１丁目３番９号サンビラ大手前６０４号,,27,128,5400037,,,2021-12-07,清算の結了等,,,2015-10-05,1,,,,,,0
2106,8130001000879,登記記録の閉鎖等,0,2021-12-13,2021-12-08,株式会社三共製作所,,株式会社,京都府,京都市西京区,桂乾町１３番地の１,,26,111,6158086,,,2021-12-08,清算の結了等,,,2015-10-05,1,,,,,サンキョウセイサクショ,0
2115,8140002021080,登記記録の閉鎖等,0,2021-12-13,2021-12-09,有限会社フォブレスリサーチ,,有限会社,兵庫県,西宮市,枝川町３番１２３－５０４号,,28,204,6638143,,,2021-12-09,清算の結了等,,,2015-10-05,1,,,,,フォブレスリサーチ,0
2117,8140002047134,登記記録の閉鎖等,0,2021-12-13,2021-12-07,有限会社アオイ不動産,,有限会社,兵庫県,姫路市,安田１丁目１４番地の１,,28,201,6700955,,,2021-12-07,清算の結了等,,,2015-10-05,1,,,,,アオイフドウサン,0
2122,8170001008621,登記記録の閉鎖等,0,2021-12-13,2021-12-09,株式会社紀南警備保障,,株式会社,和歌山県,田辺市,南新万１５番２２号,,30,206,6460013,,,2021-12-09,清算の結了等,,,2015-10-05,1,,,,,キナンケイビホショウ,0
2140,8180002051140,登記記録の閉鎖等,0,2021-12-13,2021-12-07,有限会社ワタナベ,,有限会社,愛知県,名古屋市東区,泉１丁目１８番３０号,,23,102,4610001,,,2021-12-07,清算の結了等,,,2015-10-05,1,,,,,ワタナベ,0
2142,8180003018824,登記記録の閉鎖等,0,2021-12-13,2021-12-07,合同会社総合管理システムズ,,合同会社,愛知県,名古屋市東区,葵１丁目１２番１号オフィス布池ビル２階,,23,102,4610004,,,2021-12-07,清算の結了等,,,2018-04-05,1,,,,,ソウゴウカンリシステムズ,0
2148,8200001021785,登記記録の閉鎖等,0,2021-12-13,2021-12-09,白梅酒造株式会社,,株式会社,岐阜県,瑞浪市,寺河戸町１０６７番地の１,,21,208,5096121,,,2021-12-09,清算の結了等,,,2015-10-05,1,,,,,シラウメシュゾウ,0
2156,8250001004001,登記記録の閉鎖等,0,2021-12-13,2021-12-09,船木工業株式会社,,株式会社,山口県,宇部市,大字船木４６５番地３,,35,202,7570216,,,2021-12-09,清算の結了等,,,2015-10-05,1,,,,,フナキコウギョウ,0
2160,8260001016128,登記記録の閉鎖等,0,2021-12-13,2021-12-10,株式会社ケー・ワイ,,株式会社,岡山県,倉敷市,児島元浜町１４１番地,,33,202,7110922,,,2021-12-10,清算の結了等,,,2015-10-05,1,,,,,ケーワイ,0
2180,8310002005875,登記記録の閉鎖等,0,2021-12-13,2021-12-10,有限会社ヤマモトインテリア,,有限会社,長崎県,長崎市,三原２丁目３３番４号,,42,201,8528123,,,2021-12-10,清算の結了等,,,2015-10-05,1,,,,,ヤマモトインテリア,0
2193,8350002012447,登記記録の閉鎖等,0,2021-12-13,2021-12-08,有限会社延岡観光ホテル,,有限会社,宮崎県,延岡市,東本小路６番地の２,,45,203,8820813,,,2021-12-08,清算の結了等,,,2015-10-05,1,,,,,ノベオカカンコウホテル,0
2205,8380001005242,登記記録の閉鎖等,0,2021-12-13,2021-12-07,郡山木工株式会社,,株式会社,福島県,郡山市,安積町成田字三渡１０番地,,07,203,9630112,,,2021-12-07,清算の結了等,,,2015-10-05,1,,,,,コオリヤマモッコウ,0
2207,8380001006496,登記記録の閉鎖等,0,2021-12-13,2021-12-07,福島電化器材株式会社,,株式会社,福島県,郡山市,字菜根屋敷６０番１２号,,07,203,9638863,,,2021-12-07,清算の結了等,,,2015-10-05,1,,,,,,0
2241,9010001104294,登記記録の閉鎖等,0,2021-12-13,2021-12-08,株式会社メディノ,,株式会社,埼玉県,比企郡小川町,大字小川１５５番地,,11,343,3550321,,,2021-12-08,清算の結了等,,,2015-10-05,1,,,,,メディノ,0
2245,9010001185847,登記記録の閉鎖等,0,2021-12-13,2021-12-08,株式会社アクロフォス,,株式会社,東京都,中央区,日本橋本町４丁目８番１５号,,13,102,1030023,,,2021-12-08,清算の結了等,,,2017-08-24,1,,,,,アクロフォス,0
2283,9011002034729,登記記録の閉鎖等,0,2021-12-13,2021-12-09,有限会社エル・アリス,,有限会社,東京都,新宿区,中落合２丁目７－１０－７０１,,13,104,1610032,,,2021-12-09,清算の結了等,,,2015-10-05,1,,,,,エルアリス,0
2292,9011201004747,登記記録の閉鎖等,0,2021-12-13,2021-12-03,株式会社フー・ダァプロッシュ,,株式会社,東京都,中野区,本町３丁目３０番１４号,,13,114,1640012,,,2021-12-03,合併による解散等,7011201004823,令和３年１２月２日東京都中野区本町三丁目３０番１４号株式会社ブリーズヴァン（7011201004823）に合併し解散,2015-10-05,1,,,,,,0
2301,9011502005592,登記記録の閉鎖等,0,2021-12-13,2021-12-07,有限会社松永紙器製作所,,有限会社,東京都,北区,堀船４丁目６番２号,,13,117,1140004,,,2021-12-07,清算の結了等,,,2015-10-05,1,,,,,マツナガシキセイサクショ,0
2304,9011701005204,登記記録の閉鎖等,0,2021-12-13,2021-12-08,テイ・エンド・エム・ドリーム株式会社,,株式会社,東京都,江戸川区,西小岩１丁目２６番５号,,13,123,1330057,,,2021-12-08,清算の結了等,,,2015-10-05,1,,,,,テイエンドエムドリーム,0
2320,9013301045084,登記記録の閉鎖等,0,2021-12-13,2021-12-03,株式会社インゴット,,株式会社,東京都,豊島区,南長崎４丁目１６番１４号,,13,116,1710052,,,2021-12-03,清算の結了等,,,2020-01-21,1,,,,,インゴット,0
2333,9021001070393,登記記録の閉鎖等,0,2021-12-13,2021-12-07,レディバード株式会社,,株式会社,神奈川県,藤沢市,湘南台２丁目３４番地の３０ベルメゾン湘南台１０２,,14,205,2520804,,,2021-12-07,清算の結了等,,,2020-07-21,1,,,,,レディバード,0
2334,9021003008747,登記記録の閉鎖等,0,2021-12-13,2021-12-08,ＣＲＯＳＳ　ＵＰ合同会社,,合同会社,神奈川県,相模原市南区,下溝４０７番地１１,,14,153,2520335,,,2021-12-08,清算の結了等,,,2019-10-11,1,,,,,クロスアップ,0
2364,9050002037886,登記記録の閉鎖等,0,2021-12-13,2021-12-07,有限会社広井プラント工業,,有限会社,茨城県,牛久市,南１丁目４番地２２,,08,219,3001222,,,2021-12-07,清算の結了等,,,2015-10-05,1,,,,,ヒロイプラントコウギョウ,0
2378,9080101008785,登記記録の閉鎖等,0,2021-12-13,2021-12-07,株式会社杉山製作所,,株式会社,静岡県,富士市,依田橋３１１番地の６,,22,210,4170002,,,2021-12-07,清算の結了等,,,2015-10-05,1,,,,,スギヤマセイサクジョ,0
2389,9120001041056,登記記録の閉鎖等,0,2021-12-13,2021-12-06,ローズ・コモディティ株式会社,,株式会社,大阪府,大阪市中央区,南船場２丁目１２番５号,,27,128,5420081,,,2021-12-06,清算の結了等,,,2015-10-05,1,,,,,,0
2420,9140001010224,登記記録の閉鎖等,0,2021-12-13,2021-12-06,株式会社早川輸出見本帳製作所,,株式会社,兵庫県,神戸市中央区,二宮町３丁目１番１０号,,28,110,6510093,,,2021-12-06,清算の結了等,,,2015-10-05,1,,,,,ハヤカワユシュツミホンチョウセイサクショ,0
2424,9140001048999,登記記録の閉鎖等,0,2021-12-13,2021-12-09,サンフード株式会社,,株式会社,兵庫県,尼崎市,常松１丁目６番１９号,,28,202,6610046,,,2021-12-09,清算の結了等,,,2015-10-05,1,,,,,サンフード,0
2432,9150001015800,登記記録の閉鎖等,0,2021-12-13,2021-12-09,株式会社ＨＡＵＺＥＸ．Ｌａｂｏ．,,株式会社,奈良県,吉野郡大淀町,大字桧垣本１０８３番地の４,,29,442,6380812,,,2021-12-09,清算の結了等,,,2015-10-05,1,,,,,ハウゼックスラボ,0
2436,9180001008784,登記記録の閉鎖等,0,2021-12-13,2021-12-08,中部オーデイオサービス株式会社,,株式会社,愛知県,名古屋市昭和区,鶴舞２丁目７番１４号,,23,107,4660064,,,2021-12-08,清算の結了等,,,2015-10-05,1,,,,,チュウブオーデイオサービス,0
2446,9180001141313,登記記録の閉鎖等,0,2021-12-13,2021-12-07,株式会社アネラ,,株式会社,愛知県,名古屋市東区,泉１丁目１８番３０号－１８０４,,23,102,4610001,,,2021-12-07,清算の結了等,,,2020-05-26,1,,,,,アネラ,0
2462,9190001026554,登記記録の閉鎖等,0,2021-12-13,2021-12-09,誉商事株式会社,,株式会社,三重県,松阪市,垣鼻町８０９番地６９,,24,204,5150033,,,2021-12-09,清算の結了等,,,2019-07-05,1,,,,,ホマレショウジ,0
2468,9220003001948,登記記録の閉鎖等,0,2021-12-13,2021-12-07,イメージスペース・プリマドール合同会社,,合同会社,石川県,金沢市,安江町１番１号グランドパレス武蔵ヶ辻ＢＦ１－Ｈ号,00118484,17,201,9200854,,,2021-12-07,合併による解散等,8010001184635,令和３年１２月１日東京都中央区日本橋小舟町４番１号株式会社ビューティフルコネクション（8010001184635）に合併し解散,2015-10-05,1,,,,,イメージスペースプリマドール,0
2469,9240002002680,登記記録の閉鎖等,0,2021-12-13,2021-12-10,有限会社エルフ,,有限会社,広島県,広島市西区,井口５丁目９番３１号,,34,104,7330842,,,2021-12-10,清算の結了等,,,2015-10-05,1,,,,,エルフ,0
2481,9290002056788,登記記録の閉鎖等,0,2021-12-13,2021-12-07,千年インテリア有限会社,,有限会社,福岡県,うきは市,吉井町千年１３８番地の１,,40,225,8391304,,,2021-12-07,清算の結了等,,,2015-10-05,1,,,,,チトセインテリア,0
2486,9300005006680,登記記録の閉鎖等,0,2021-12-13,2021-12-06,一般社団法人地方創生推進機構,,その他の設立登記法人,佐賀県,武雄市,武雄町大字昭和６番地１,,41,206,8430023,,,2021-12-06,清算の結了等,,,2017-11-06,1,,,,,チホウソウセイスイシンキコウ,0
2490,9310002014859,登記記録の閉鎖等,0,2021-12-13,2021-12-10,有限会社オフィスＭ,,有限会社,長崎県,諫早市,高来町泉１番地７,,42,204,8590121,,,2021-12-10,清算の結了等,,,2015-10-05,1,,,,,オフィスエム,0
2492,9310005002142,登記記録の閉鎖等,0,2021-12-13,2021-12-10,特定非営利活動法人ワーニープロダクション,,その他の設立登記法人,長崎県,長崎市,小浦町４５３番地小浦アパートＣ棟５０８号,,42,201,8500067,,,2021-12-10,清算の結了等,,,2015-10-05,1,,,,,ワーニープロダクション,0
2493,9320002006681,登記記録の閉鎖等,0,2021-12-13,2021-12-10,有限会社南電機,,有限会社,大分県,大分市,大道町２丁目６番１９号,,44,201,8700822,,,2021-12-10,清算の結了等,,,2015-10-05,1,,,,,ミナミデンキ,0
2518,9380002015339,登記記録の閉鎖等,0,2021-12-13,2021-12-07,有限会社大越モータース,,有限会社,福島県,田村市,大越町上大越字白石３８１番地,,07,211,9634111,,,2021-12-07,清算の結了等,,,2015-10-05,1,,,,,,0
2528,9430001028550,登記記録の閉鎖等,0,2021-12-13,2021-12-07,北斗ビジネスサポート株式会社,,株式会社,北海道,札幌市中央区,南十条西１０丁目１番２０号,,01,101,0640810,,,2021-12-07,合併による解散等,5010401027462,令和３年１２月１日東京都港区芝三丁目３番１３号北斗ビジネスソフト株式会社（5010401027462）に合併し解散,2015-10-05,1,,,,,ホクトビジネスサポート,0
