sequenceNumber,corporateNumber,process,correct,updateDate,changeDate,name,nameImageId,kind,prefectureName,cityName,streetNumber,addressImageId,prefectureCode,cityCode,postCode,addressOutside,addressOutsideImageId,closeDate,closeCause,successorCorporateNumber,changeCause,assignmentDate,latest,enName,enPrefectureName,enCityName,enAddressOutside,furigana,hihyoji
5,1010001232689,新規,0,2023-02-06,2023-02-06,株式会社つむぎトラベル,,株式会社,東京都,中央区,新川１丁目６－１２ＡＩビル茅場町２０１,,13,102,1040033,,,,,,,2023-02-06,1,,,,,ツムギトラベル,0
6,1010001232714,新規,0,2023-02-06,2023-02-06,Ａｎａｔｏｍａｇｅ　Ｊａｐａｎ株式会社,,株式会社,東京都,千代田区,霞が関３丁目２番５号,,13,101,1000013,,,,,,,2023-02-06,1,,,,,アナトマージジャパン,0
8,1010003039744,新規,0,2023-02-06,2023-02-06,Ｖｉａｄｅｘ　Ｊａｐａｎ合同会社,,合同会社,東京都,中央区,銀座６丁目１３番１６号銀座ＷａｌｌビルＵＣＦ５０１,,13,102,1040061,,,,,,,2023-02-06,1,,,,,ヴァイアデックスジャパン,0
9,1010005036203,新規,0,2023-02-06,2023-02-06,管理組合法人八重洲第七長岡ビル,,その他の設立登記法人,東京都,千代田区,神田多町２丁目２番２２号千代田ビル７Ｆ,,13,101,1010046,,,,,,,2023-02-06,1,,,,,ヤエスダイナナナガオカビル,0
15,1010405021787,新規,0,2023-02-06,2023-02-06,一般社団法人ＳＨ０６５,,その他の設立登記法人,東京都,港区,虎ノ門３丁目２２番１０－２０１号,,13,103,1050001,,,,,,,2023-02-06,1,,,,,エスエイチゼロシックスファイブ,0
26,1010901052476,新規,0,2023-02-06,2023-02-06,株式会社クラテク,,株式会社,東京都,世田谷区,桜丘５丁目１３－１１,,13,112,1560054,,,,,,,2023-02-06,1,,,,,クラテク,0
39,1011001152282,新規,0,2023-02-06,2023-02-06,ＹＳＪアドバイザリー株式会社,,株式会社,東京都,目黒区,自由が丘２丁目２０－８ＭＳＫ自由が丘３０１,,13,110,1520035,,,,,,,2023-02-06,1,,,,,ワイエスジェイアドバイザリー,0
40,1011001152316,新規,0,2023-02-06,2023-02-06,株式会社ＩＨコーポレーション,,株式会社,東京都,渋谷区,代官山町１３－８－５０４,,13,113,1500034,,,,,,,2023-02-06,1,,,,,アイエイチコーポレーション,0
41,1011001152324,新規,0,2023-02-06,2023-02-06,デュエット株式会社,,株式会社,東京都,渋谷区,千駄ヶ谷３丁目４番１１号,,13,113,1510051,,,,,,,2023-02-06,1,,,,,デュエット,0
42,1011001152407,新規,0,2023-02-06,2023-02-06,株式会社エヌビーエル,,株式会社,東京都,目黒区,下目黒２丁目９番２号,,13,110,1530064,,,,,,,2023-02-06,1,,,,,エヌビーエル,0
43,1011001152423,新規,0,2023-02-06,2023-02-06,株式会社Ｄａｒｋ,,株式会社,東京都,目黒区,中町２丁目３７番１７号ジュネパレス・中町Ｂ,,13,110,1530065,,,,,,,2023-02-06,1,,,,,ダーク,0
44,1011001152431,新規,0,2023-02-06,2023-02-06,株式会社Ｃｅｅｖｓ,,株式会社,東京都,目黒区,鷹番３丁目６番７号,,13,110,1520004,,,,,,,2023-02-06,1,,,,,シーブス,0
48,1011003016122,新規,0,2023-02-06,2023-02-06,合同会社ｄｏｌｏ,,合同会社,東京都,渋谷区,道玄坂１丁目１０番８号渋谷道玄坂東急ビル２Ｆ－Ｃ,,13,113,1500043,,,,,,,2023-02-06,1,,,,,ドロ,0
51,1011101101750,新規,0,2023-02-06,2023-02-06,株式会社未来兄弟,,株式会社,東京都,新宿区,若葉１丁目６番地,,13,104,1600011,,,,,,,2023-02-06,1,,,,,ミライキョウダイ,0
59,1011501028940,新規,0,2023-02-06,2023-02-06,株式会社カーボレス,,株式会社,東京都,北区,志茂２丁目４５番１２号サンハイツ新生１階,,13,117,1150042,,,,,,,2023-02-06,1,,,,,カーボレス,0
61,1011601026563,新規,0,2023-02-06,2023-02-06,キャプテンファーム株式会社,,株式会社,東京都,練馬区,田柄５丁目１５番５号,,13,120,1790073,,,,,,,2023-02-06,1,,,,,キャプテンファーム,0
62,1011701025985,新規,0,2023-02-06,2023-02-06,株式会社ＫＭＫ,,株式会社,東京都,江戸川区,中央１丁目２９番１９号３０２号,,13,123,1320021,,,,,,,2023-02-06,1,,,,,ケーエムケー,0
65,1011803005497,新規,0,2023-02-06,2023-02-06,日暮里駅前ＫＴＫパーク合同会社,,合同会社,東京都,足立区,梅田８丁目１３番１０－１０７号,,13,121,1230851,,,,,,,2023-02-06,1,,,,,ニッポリエキマエケイティケイパーク,0
68,1012403005805,新規,0,2023-02-06,2023-02-06,合同会社ＬＥＡＰ,,合同会社,東京都,多摩市,鶴牧３丁目２番地ブリリア多摩センター１７０９,,13,224,2060034,,,,,,,2023-02-06,1,,,,,リープ,0
70,1012701017460,新規,0,2023-02-06,2023-02-06,株式会社西東京給与サポートセンター,,株式会社,東京都,西東京市,栄町３丁目４番５号,,13,229,2020006,,,,,,,2023-02-06,1,,,,,ニシトウキョウキュウヨサポートセンター,0
86,1020001150080,新規,0,2023-02-06,2023-02-06,ＳＯＲＡハウジング株式会社,,株式会社,神奈川県,川崎市川崎区,浅田３丁目１０番１号東洋ロザイ浅田ビル１Ｆ,,14,131,2100847,,,,,,,2023-02-06,1,,,,,ソラハウジング,0
87,1020001150089,新規,0,2023-02-06,2023-02-06,株式会社フォルトゥーナ,,株式会社,神奈川県,横浜市中区,北仲通５丁目５７番２号,,14,104,2310003,,,,,,,2023-02-06,1,,,,,フォルトゥーナ,0
88,1020001150097,新規,0,2023-02-06,2023-02-06,プロモーションズ株式会社,,株式会社,神奈川県,横浜市港北区,大倉山１丁目１３番１２号,,14,109,2220037,,,,,,,2023-02-06,1,,,,,プロモーションズ,0
89,1020001150130,新規,0,2023-02-06,2023-02-06,株式会社ジャパントレーナーコンサルティング,,株式会社,神奈川県,横浜市西区,北幸２丁目１０番２７号,,14,103,2200004,,,,,,,2023-02-06,1,,,,,ジャパントレーナーコンサルティング,0
90,1020001150139,新規,0,2023-02-06,2023-02-06,タッチジャパン株式会社,,株式会社,神奈川県,横浜市金沢区,能見台５丁目１８番地６,,14,108,2360057,,,,,,,2023-02-06,1,,,,,タッチジャパン,0
92,1020003023243,新規,0,2023-02-06,2023-02-06,ＳＫＹ合同会社,,合同会社,神奈川県,横浜市緑区,上山２丁目３２番３号－Ｅ,,14,113,2260012,,,,,,,2023-02-06,1,,,,,スカイ,0
93,1020003023251,新規,0,2023-02-06,2023-02-06,合同会社グッドライフＦＰパートナーズ,,合同会社,神奈川県,横浜市西区,浅間町１丁目４番３号ウィザードビル４０２,,14,103,2200072,,,,,,,2023-02-06,1,,,,,グッドライフエフピーパートナーズ,0
94,1020005015841,新規,0,2023-02-06,2023-02-06,弁理士法人ＩＰｍａｒｃｈｅ,,その他の設立登記法人,神奈川県,川崎市中原区,小杉町３丁目６００番地ＭＩＤＰＯＩＮＴ武蔵小杉１－１２,,14,133,2110063,,,,,,,2023-02-06,1,,,,,アイピーマルシェ,0
98,1021001078114,新規,0,2023-02-06,2023-02-06,リガードホーム株式会社,,株式会社,神奈川県,高座郡寒川町,岡田３丁目１４番４号,,14,321,2530105,,,,,,,2023-02-06,1,,,,,リガードホーム,0
99,1021001078122,新規,0,2023-02-06,2023-02-06,株式会社小田原衛生公社,,株式会社,神奈川県,小田原市,寿町１丁目１番１２号,,14,206,2500002,,,,,,,2023-02-06,1,,,,,オダワラエイセイコウシャ,0
105,1021003012707,新規,0,2023-02-06,2023-02-06,合同会社ＭＭＭ,,合同会社,神奈川県,横須賀市,公郷町１丁目５２番地１９,,14,201,2380022,,,,,,,2023-02-06,1,,,,,エムエムエム,0
106,1021003012715,新規,0,2023-02-06,2023-02-06,合同会社信喜,,合同会社,神奈川県,横須賀市,森崎２丁目４番１１号,,14,201,2380023,,,,,,,2023-02-06,1,,,,,シンキ,0
112,1030001152209,新規,0,2023-02-06,2023-02-06,株式会社Ｃ．Ｖ．ｗｏｒｋｓ,,株式会社,埼玉県,春日部市,内牧４１８３番地５,,11,214,3440051,,,,,,,2023-02-06,1,,,,,シーブイワークス,0
113,1030001152258,新規,0,2023-02-06,2023-02-06,志木街づくり株式会社,,株式会社,埼玉県,志木市,本町５丁目２４番２１号,,11,228,3530004,,,,,,,2023-02-06,1,,,,,シキマチヅクリ,0
114,1030001152266,新規,0,2023-02-06,2023-02-06,株式会社古里商事,,株式会社,埼玉県,草加市,八幡町１１０７番地１５,,11,221,3400006,,,,,,,2023-02-06,1,,,,,フルサトショウジ,0
115,1030001152282,新規,0,2023-02-06,2023-02-06,株式会社Ｒ‐ｏｎｅ,,株式会社,埼玉県,草加市,稲荷５丁目２番１１号,,11,221,3400003,,,,,,,2023-02-06,1,,,,,アールワン,0
116,1030001152290,新規,0,2023-02-06,2023-02-06,株式会社ＳＲＢ,,株式会社,埼玉県,所沢市,和ケ原３丁目９４－９,,11,208,3591162,,,,,,,2023-02-06,1,,,,,エスアールビー,0
122,1030003021106,新規,0,2023-02-06,2023-02-06,ＬＥＧＡＲＥＡ　ＢＡＳＥ合同会社,,合同会社,埼玉県,越谷市,レイクタウン９丁目１－２８ロイジェントパークスレイクタウンＡ３０５,,11,222,3430828,,,,,,,2023-02-06,1,,,,,レガリアベイス,0
123,1030003021114,新規,0,2023-02-06,2023-02-06,合同会社ファインモーション,,合同会社,埼玉県,所沢市,弥生町２８７２番地,,11,208,3590043,,,,,,,2023-02-06,1,,,,,ファインモーション,0
130,1050001052340,新規,0,2023-02-06,2023-02-06,株式会社Ｐｌｕｓ　Ｏｎｅ,,株式会社,茨城県,龍ケ崎市,松葉３丁目４番地９,,08,208,3010043,,,,,,,2023-02-06,1,,,,,プラスワン,0
133,1050003007219,新規,0,2023-02-06,2023-02-06,合同会社ＫＦＬ,,合同会社,茨城県,守谷市,けやき台５丁目５番１ハイツクリハラ１階,,08,224,3020128,,,,,,,2023-02-06,1,,,,,ケーエフエル,0
136,1060001035666,新規,0,2023-02-06,2023-02-06,株式会社なちゅり,,株式会社,栃木県,河内郡上三川町,大字西汗１７４６番地１１３,,09,301,3290607,,,,,,,2023-02-06,1,,,,,ナチュリ,0
141,1080101023783,新規,0,2023-02-06,2023-02-06,株式会社ＨＯＵＥＩ,,株式会社,静岡県,富士宮市,源道寺町１１１８番地,,22,207,4180074,,,,,,,2023-02-06,1,,,,,ホウエイ,0
147,1080401026296,新規,0,2023-02-06,2023-02-06,南洋ＴＲＡＤＩＮＧ株式会社,,株式会社,静岡県,浜松市南区,三島町３９７番地の３,,22,134,4300853,,,,,,,2023-02-06,1,,,,,ナンヨウトレーディング,0
148,1080401026305,新規,0,2023-02-06,2023-02-06,株式会社ＬＩＢＥＬＵＳ,,株式会社,静岡県,浜松市南区,三島町１０６１番地,,22,134,4300853,,,,,,,2023-02-06,1,,,,,リベルス,0
149,1090001017959,新規,0,2023-02-06,2023-02-06,株式会社装新,,株式会社,山梨県,甲府市,徳行１丁目１３番５号,,19,201,4000047,,,,,,,2023-02-06,1,,,,,ソウシン,0
150,1090001017967,新規,0,2023-02-06,2023-02-06,株式会社ＭｅｃｔａＬａｂｏ,,株式会社,山梨県,甲斐市,西八幡２１１３番地１,,19,210,4000117,,,,,,,2023-02-06,1,,,,,メクタラボ,0
151,1100001036123,新規,0,2023-02-06,2023-02-06,株式会社里山マネジメント,,株式会社,長野県,飯山市,大字豊田６４５８番地,,20,213,3892411,,,,,,,2023-02-06,1,,,,,サトヤママネジメント,0
152,1100001036131,新規,0,2023-02-06,2023-02-06,鈴木塗装工業株式会社,,株式会社,長野県,長野市,篠ノ井塩崎４５９０番地１,,20,201,3888014,,,,,,,2023-02-06,1,,,,,スズキトソウコウギョウ,0
156,1110001037285,新規,0,2023-02-06,2023-02-06,アイビスソリューションズ株式会社,,株式会社,新潟県,新潟市北区,石動１丁目１５番地３,,15,101,9503327,,,,,,,2023-02-06,1,,,,,アイビスソリューションズ,0
172,1120001252230,新規,0,2023-02-06,2023-02-06,株式会社ＲｉＢ,,株式会社,大阪府,大阪市北区,中崎西１丁目６番３６号サクラビル３０７号,,27,127,5300015,,,,,,,2023-02-06,1,,,,,アールアイビー,0
173,1120001252288,新規,0,2023-02-06,2023-02-06,株式会社クロステック,,株式会社,大阪府,大阪市北区,梅田１丁目１－３大阪駅前第３ビル２９階１－１－１号室,,27,127,5300001,,,,,,,2023-02-06,1,,,,,クロステック,0
174,1120001252296,新規,0,2023-02-06,2023-02-06,株式会社シンノラ,,株式会社,大阪府,大阪市中央区,南本町２丁目１番１号ＴｈｅＤＥＣＫ１Ｆ,,27,128,5410054,,,,,,,2023-02-06,1,,,,,シンノラ,0
178,1120005023462,新規,0,2023-02-06,2023-02-06,司法書士法人ライズ法務事務所,,その他の設立登記法人,大阪府,大阪市中央区,谷町１丁目４番２号大阪オルガンビル,,27,128,5400012,,,,,,,2023-02-06,1,,,,,ライズホウムジムショ,0
181,1120101066935,新規,0,2023-02-06,2023-02-06,株式会社Ｏｒｅａ,,株式会社,大阪府,和泉市,内田町３丁目１０番１４号,,27,219,5941156,,,,,,,2023-02-06,1,,,,,オレア,0
183,1120103005065,新規,0,2023-02-06,2023-02-06,合同会社岸和田サテライト,,合同会社,大阪府,岸和田市,野田町１丁目３番１９号,,27,202,5960076,,,,,,,2023-02-06,1,,,,,キシワダサテライト,0
188,1120901047077,新規,0,2023-02-06,2023-02-06,株式会社ハマコー,,株式会社,大阪府,豊中市,若竹町１丁目１０番７８号,,27,203,5610811,,,,,,,2023-02-06,1,,,,,ハマコー,0
189,1120901047085,新規,0,2023-02-06,2023-02-06,プログマイル株式会社,,株式会社,大阪府,豊中市,上野坂１丁目１８番５号,,27,203,5600012,,,,,,,2023-02-06,1,,,,,プログマイル,0
190,1120901047093,新規,0,2023-02-06,2023-02-06,株式会社クオーラメディカル,,株式会社,大阪府,豊中市,北桜塚２丁目９番２３号,,27,203,5600022,,,,,,,2023-02-06,1,,,,,クオーラメディカル,0
193,1130001073626,新規,0,2023-02-06,2023-02-06,株式会社ライト,,株式会社,京都府,京都市伏見区,納所南城堀１番地９,,26,109,6128278,,,,,,,2023-02-06,1,,,,,ライト,0
202,1140001128949,新規,0,2023-02-06,2023-02-06,株式会社ＰａｉｎｔＢｏｘ２,,株式会社,兵庫県,伊丹市,南野２丁目２番１７号,,28,207,6640865,,,,,,,2023-02-06,1,,,,,ペイントボックスツー,0
203,1140001128965,新規,0,2023-02-06,2023-02-06,株式会社アートオブウォー,,株式会社,兵庫県,姫路市,飾磨区清水２丁目１１３番地,,28,201,6728051,,,,,,,2023-02-06,1,,,,,アートオブウォー,0
204,1140001128998,新規,0,2023-02-06,2023-02-06,株式会社一華美術,,株式会社,兵庫県,尼崎市,名神町１丁目１１番１号アビロード名神１１０号室,,28,202,6610021,,,,,,,2023-02-06,1,,,,,イッカビジュツ,0
205,1140001129030,新規,0,2023-02-06,2023-02-06,株式会社ひでりこ,,株式会社,兵庫県,神戸市東灘区,住吉山手８丁目２１番１１号,,28,101,6580063,,,,,,,2023-02-06,1,,,,,ヒデリコ,0
206,1140003018677,新規,0,2023-02-06,2023-02-06,米とわたしと合同会社,,合同会社,兵庫県,神戸市東灘区,岡本２丁目１１番１０－１０１号,,28,101,6580072,,,,,,,2023-02-06,1,,,,,コメトワタシト,0
207,1140003018693,新規,0,2023-02-06,2023-02-06,合同会社まちあわせ,,合同会社,兵庫県,神戸市長田区,池田広町３７番地の６,,28,106,6530814,,,,,,,2023-02-06,1,,,,,マチアワセ,0
212,1150003002878,新規,0,2023-02-06,2023-02-06,合同会社アップ,,合同会社,奈良県,奈良市,大宮町６丁目６番地の６文屋ビル４Ｆ,,29,201,6308115,,,,,,,2023-02-06,1,,,,,アップ,0
215,1160001024808,新規,0,2023-02-06,2023-02-06,株式会社滋賀経理サポートサービス,,株式会社,滋賀県,大津市,中央３丁目４番２８号,,25,201,5200043,,,,,,,2023-02-06,1,,,,,シガケイリサポートサービス,0
226,1180001154792,新規,0,2023-02-06,2023-02-06,株式会社一生,,株式会社,愛知県,名古屋市中区,丸の内２丁目１４番４号エグゼ丸の内７０１号,,23,106,4600002,,,,,,,2023-02-06,1,,,,,イッショウ,0
227,1180001154801,新規,0,2023-02-06,2023-02-06,鼎＿株式会社,00129348,株式会社,愛知県,名古屋市北区,成願寺１丁目６番６ザ・シーン城北アストロタワー７０７号－Ｃ室,,23,103,4620021,,,,,,,2023-02-06,1,,,,,テイキン,0
228,1180001154818,新規,0,2023-02-06,2023-02-06,株式会社くにひろ事務所,,株式会社,愛知県,知多郡美浜町,北方３丁目２３番地１,,23,446,4702403,,,,,,,2023-02-06,1,,,,,クニヒロジムショ,0
229,1180001154826,新規,0,2023-02-06,2023-02-06,株式会社ＣＲホールディングス,,株式会社,愛知県,名古屋市熱田区,白鳥３丁目６番２２号,,23,109,4560035,,,,,,,2023-02-06,1,,,,,シーアールホールディングス,0
230,1180001154834,新規,0,2023-02-06,2023-02-06,株式会社幸昇,,株式会社,愛知県,名古屋市中川区,戸田西２丁目１５０８番地の２,,23,110,4540967,,,,,,,2023-02-06,1,,,,,コウショウ,0
231,1180001154850,新規,0,2023-02-06,2023-02-06,株式会社丹陽重量,,株式会社,愛知県,一宮市,丹陽町九日市場字上田１０番地,,23,203,4910824,,,,,,,2023-02-06,1,,,,,タンヨウジュウリョウ,0
232,1180001154859,新規,0,2023-02-06,2023-02-06,株式会社ＲＩＣＫＩＥＳ,,株式会社,愛知県,名古屋市緑区,大将ケ根１丁目１６１６番地の７,,23,114,4580822,,,,,,,2023-02-06,1,,,,,リッキーズ,0
233,1180001154867,新規,0,2023-02-06,2023-02-06,株式会社ＢＵＮＣＵＲＥＹ,,株式会社,愛知県,名古屋市中区,上前津１丁目１０番１１号,,23,106,4600013,,,,,,,2023-02-06,1,,,,,バンクレイ,0
234,1180001154875,新規,0,2023-02-06,2023-02-06,株式会社２０４号室,,株式会社,愛知県,名古屋市中村区,名駅４丁目２４番５号第２森ビル４０１,,23,105,4500002,,,,,,,2023-02-06,1,,,,,ニマルヨンゴウシツ,0
245,1180303005603,新規,0,2023-02-06,2023-02-06,ＳＥＩＫＯＵ　ＪＡＰＡＮ合同会社,,合同会社,愛知県,豊橋市,南旭町４５番地,,23,201,4400056,,,,,,,2023-02-06,1,,,,,セイコウジャパン,0
248,1190001030150,新規,0,2023-02-06,2023-02-06,大野グループホールディングス株式会社,,株式会社,三重県,度会郡大紀町,柏野１４９２番地の１,,24,471,5192801,,,,,,,2023-02-06,1,,,,,オオノグループホールディングス,0
249,1190003004219,新規,0,2023-02-06,2023-02-06,合同会社にじいろ産業,,合同会社,三重県,鈴鹿市,算所２丁目８番８号,,24,207,5130806,,,,,,,2023-02-06,1,,,,,ニジイロサンギョウ,0
251,1200003005834,新規,0,2023-02-06,2023-02-06,合同会社ウィズレップ,,合同会社,岐阜県,岐阜市,柳津町下佐波１丁目１８４番地３,,21,201,5016121,,,,,,,2023-02-06,1,,,,,ウィズレップ,0
256,1230005009277,新規,0,2023-02-06,2023-02-06,農事組合法人加茂営農組合,,その他の設立登記法人,富山県,射水市,加茂中部１１７０番地,,16,211,9330204,,,,,,,2023-02-06,1,,,,,カモエイノウクミアイ,0
259,1240001061041,新規,0,2023-02-06,2023-02-06,ワイワイワールド株式会社,,株式会社,広島県,廿日市市,上平良１２２番地３,,34,213,7380026,,,,,,,2023-02-06,1,,,,,ワイワイワールド,0
260,1240001061058,新規,0,2023-02-06,2023-02-06,タイセイフード株式会社,,株式会社,広島県,広島市中区,本川町２丁目１番９号,,34,101,7300802,,,,,,,2023-02-06,1,,,,,タイセイフード,0
261,1240001061066,新規,0,2023-02-06,2023-02-06,アイオーエフ株式会社,,株式会社,広島県,福山市,駅家町大字服部永谷２３番地８,,34,207,7202522,,,,,,,2023-02-06,1,,,,,アイオーエフ,0
263,1240003006011,新規,0,2023-02-06,2023-02-06,合同会社キャリーサプライソリューションズ,,合同会社,広島県,広島市中区,富士見町１２番１５－３０１号,,34,101,7300043,,,,,,,2023-02-06,1,,,,,キャリーサプライソリューションズ,0
271,1260003004194,新規,0,2023-02-06,2023-02-06,愛武合同会社,,合同会社,岡山県,倉敷市,向山２１３２番地３０,,33,202,7100044,,,,,,,2023-02-06,1,,,,,アイブ,0
281,1290003013498,新規,0,2023-02-06,2023-02-06,合同会社快晴舎,,合同会社,福岡県,福岡市博多区,博多駅前１丁目２３番１号ＰａｒｋＦｒｏｎｔ博多駅前一丁目５Ｆ－Ｂ,,40,132,8120011,,,,,,,2023-02-06,1,,,,,カイセイシャ,0
283,1290801029266,新規,0,2023-02-06,2023-02-06,森川不動産株式会社,,株式会社,福岡県,北九州市小倉北区,下到津２丁目３番２７号,,40,106,8030846,,,,,,,2023-02-06,1,,,,,モリカワフドウサン,0
291,1320003004007,新規,0,2023-02-06,2023-02-06,ＪＡＴ合同会社,,合同会社,大分県,由布市,湯布院町川北２０２７番地１,,44,213,8795114,,,,,,,2023-02-06,1,,,,,ジェイエーティ,0
295,1330001030557,新規,0,2023-02-06,2023-02-06,株式会社渡部企画,,株式会社,熊本県,荒尾市,桜山町１丁目７番１６号,,43,204,8640022,,,,,,,2023-02-06,1,,,,,ワタベキカク,0
297,1330003009707,新規,0,2023-02-06,2023-02-06,合同会社にっこりカンパニー,,合同会社,熊本県,熊本市東区,山ノ内２丁目３番８２－２号,,43,102,8620914,,,,,,,2023-02-06,1,,,,,ニッコリカンパニー,0
299,1340005009555,新規,0,2023-02-06,2023-02-06,特定非営利活動法人野生動物被害対策研究会,,その他の設立登記法人,鹿児島県,日置市,東市来町神之川１９０番地,,46,216,8992204,,,,,,,2023-02-06,1,,,,,ヤセイドウブツヒガイタイサクケンキュウカイ,0
302,1360001031511,新規,0,2023-02-06,2023-02-06,株式会社Ｂｒｉｇｈｔ,,株式会社,沖縄県,那覇市,松尾１丁目２０－１２・１Ｆ,,47,201,9000014,,,,,,,2023-02-06,1,,,,,ブライト,0
303,1360001031536,新規,0,2023-02-06,2023-02-06,株式会社美ＳＨＯＷ舎,,株式会社,沖縄県,宜野湾市,大山３丁目１４番７号,,47,205,9012223,,,,,,,2023-02-06,1,,,,,ビショウシャ,0
304,1360001031544,新規,0,2023-02-06,2023-02-06,株式会社ＴＯＭＩ’Ｓ２１,,株式会社,沖縄県,中頭郡北谷町,字吉原６７７番地６,,47,326,9040105,,,,,,,2023-02-06,1,,,,,トミズニジュウイチ,0
305,1360003012708,新規,0,2023-02-06,2023-02-06,合同会社艶,,合同会社,沖縄県,うるま市,字兼箇段１８７２番地,,47,213,9042241,,,,,,,2023-02-06,1,,,,,エン,0
310,1380001033448,新規,0,2023-02-06,2023-02-06,株式会社まさおガーデン,,株式会社,福島県,須賀川市,あおば町２６１番地４,,07,207,9620811,,,,,,,2023-02-06,1,,,,,マサオガーデン,0
311,1380001033456,新規,0,2023-02-06,2023-02-06,株式会社オグラ,,株式会社,福島県,郡山市,本町１丁目２３番１１号セレーノ本町２０２号,,07,203,9638871,,,,,,,2023-02-06,1,,,,,オグラ,0
319,1410001013388,新規,0,2023-02-06,2023-02-06,株式会社センスｏｆ秋田,,株式会社,秋田県,秋田市,泉北３丁目４番２０号,,05,201,0100916,,,,,,,2023-02-06,1,,,,,センスオブアキタ,0
325,1430001088354,新規,0,2023-02-06,2023-02-06,株式会社ＵＬＴ,,株式会社,北海道,札幌市白石区,本通３丁目北３番７－１０１号,,01,104,0030027,,,,,,,2023-02-06,1,,,,,ウルト,0
326,1430001088362,新規,0,2023-02-06,2023-02-06,株式会社ＭＡＴＳＵＢＡＲＡ,,株式会社,北海道,小樽市,稲穂３丁目４番１５号,,01,203,0470032,,,,,,,2023-02-06,1,,,,,マツバラ,0
327,1430001088370,新規,0,2023-02-06,2023-02-06,株式会社トラストプロ,,株式会社,北海道,江別市,豊幌花園町１０番地の１６,,01,217,0670026,,,,,,,2023-02-06,1,,,,,トラストプロ,0
328,1430001088379,新規,0,2023-02-06,2023-02-06,株式会社川西製餡所,,株式会社,北海道,札幌市東区,北十三条東１丁目３番２５－１０３号,,01,103,0650013,,,,,,,2023-02-06,1,,,,,カワニシセイアンジョ,0
329,1430001088387,新規,0,2023-02-06,2023-02-06,三協株式会社,,株式会社,北海道,札幌市白石区,北郷四条１０丁目２番３４号,,01,104,0030834,,,,,,,2023-02-06,1,,,,,サンキョウ,0
333,1470003002342,新規,0,2023-02-06,2023-02-06,下組合同会社,,合同会社,香川県,三豊市,三野町下高瀬９７７番地,,37,208,7670032,,,,,,,2023-02-06,1,,,,,シモグミ,0
339,1700150112977,新規,0,2023-02-06,2022-11-22,ＭＯＭＥＮＴ,,その他,東京都,杉並区,井草１丁目２６－９ラビリンス２０３,,13,115,1670021,,,,,,,2022-11-22,1,,,,,モーメント,0
354,2010001232688,新規,0,2023-02-06,2023-02-06,株式会社ビルサポ,,株式会社,東京都,千代田区,丸の内２丁目７番３号,,13,101,1000005,,,,,,,2023-02-06,1,,,,,ビルサポ,0
355,2010001232738,新規,0,2023-02-06,2023-02-06,株式会社ＩＫＩ,,株式会社,東京都,中央区,月島３丁目３番２号,,13,102,1040052,,,,,,,2023-02-06,1,,,,,アイケイアイ,0
356,2010001232770,新規,0,2023-02-06,2023-02-06,株式会社Ｖｅｒｔｅｘ　Ｄｉｇｉｔａｌ　Ｍａｒｋｅｔｉｎｇ,,株式会社,東京都,千代田区,神田猿楽町２丁目８番１１号ＶＯＲＴ水道橋ＩＩＩ,00129350,13,101,1010064,,,,,,,2023-02-06,1,,,,,バーテックスデジタルマーケティング,0
357,2010003039693,新規,0,2023-02-06,2023-02-06,顧問クラブ合同会社,,合同会社,東京都,中央区,銀座１丁目１２番４号Ｎ＆ＥＢＬＤ．６Ｆ,,13,102,1040061,,,,,,,2023-02-06,1,,,,,コモンクラブ,0
358,2010003039768,新規,0,2023-02-06,2023-02-06,ＳｔｉｃｋＢｕｇ合同会社,,合同会社,東京都,中央区,銀座１丁目１２番４号Ｎ＆ＥＢＬＤ．６Ｆ,,13,102,1040061,,,,,,,2023-02-06,1,,,,,スティックバグ,0
359,2010003039784,新規,0,2023-02-06,2023-02-06,合同会社トポス,,合同会社,東京都,文京区,千駄木５丁目１７番２号,,13,105,1130022,,,,,,,2023-02-06,1,,,,,トポス,0
360,2010005036219,新規,0,2023-02-06,2023-02-06,メック都市開発１５号一般社団法人,,その他の設立登記法人,東京都,中央区,日本橋１丁目４番１号日本橋一丁目ビルディング,,13,102,1030027,,,,,,,2023-02-06,1,,,,,メックトシカイハツジュウゴゴウ,0
371,2010401172286,新規,0,2023-02-06,2023-02-06,株式会社Ａ２クオリティーフーズ,,株式会社,東京都,港区,赤坂９丁目１－７秀和赤坂レジデンシャルホテル３階３６５号室,,13,103,1070052,,,,,,,2023-02-06,1,,,,,エーツークオリティーフーズ,0
372,2010403029427,新規,0,2023-02-06,2023-02-06,合同会社身体研究所,,合同会社,東京都,港区,南青山２丁目２番１５号,,13,103,1070062,,,,,,,2023-02-06,1,,,,,シンタイケンキュウジョ,0
374,2010505003379,新規,0,2023-02-06,2023-02-06,税理士法人カンパネラ,,その他の設立登記法人,東京都,台東区,鳥越２丁目１０番２号,,13,106,1110054,,,,,,,2023-02-06,1,,,,,カンパネラ,0
377,2010603009971,新規,0,2023-02-06,2023-02-06,合同会社ＪＪ,,合同会社,東京都,江東区,亀戸７丁目３８番１１号ルモーデ亀戸１２０２,,13,108,1360071,,,,,,,2023-02-06,1,,,,,ジェージェー,0
378,2010701043823,新規,0,2023-02-06,2023-02-06,株式会社Ｏｕｒ　Ｔｕｒｎ,,株式会社,東京都,品川区,平塚３丁目１０番５号フラッツ東亜２０１,,13,109,1420051,,,,,,,2023-02-06,1,,,,,アワーターン,0
379,2010801033658,新規,0,2023-02-06,2023-02-06,株式会社オーマイチーズケーキ,,株式会社,東京都,大田区,東矢口２丁目２番２２号,,13,111,1460094,,,,,,,2023-02-06,1,,,,,オーマイチーズケーキ,0
386,2010903007956,新規,0,2023-02-06,2023-02-06,ＭｈｉｎＴ合同会社,,合同会社,東京都,世田谷区,桜丘１丁目１４－１１－５１２,,13,112,1560054,,,,,,,2023-02-06,1,,,,,ミント,0
391,2011001152315,新規,0,2023-02-06,2023-02-06,株式会社ＳＲコーポレーション,,株式会社,東京都,渋谷区,代官山町１３－８－５０４,,13,113,1500034,,,,,,,2023-02-06,1,,,,,,0
392,2011001152323,新規,0,2023-02-06,2023-02-06,株式会社テックリープ,,株式会社,東京都,渋谷区,道玄坂１丁目１０番８号渋谷道玄坂東急ビル２Ｆ－Ｃ,,13,113,1500043,,,,,,,2023-02-06,1,,,,,テックリープ,0
393,2011001152430,新規,0,2023-02-06,2023-02-06,株式会社ファインドスペース,,株式会社,東京都,渋谷区,富ヶ谷１丁目４４番６号２Ｆ,,13,113,1510063,,,,,,,2023-02-06,1,,,,,ファインドスペース,0
395,2011101101717,新規,0,2023-02-06,2023-02-06,株式会社レガトゥスゼノ,,株式会社,東京都,新宿区,新宿１丁目３６番１２号サンカテリーナビル６Ｆ,,13,104,1600022,,,,,,,2023-02-06,1,,,,,レガトゥスゼノ,0
396,2011101101725,新規,0,2023-02-06,2023-02-06,株式会社ＳＣ,,株式会社,東京都,新宿区,西新宿６丁目９番１－５０５号,,13,104,1600023,,,,,,,2023-02-06,1,,,,,エスシー,0
398,2011103012664,新規,0,2023-02-06,2023-02-06,リベレーションフォース合同会社,,合同会社,東京都,新宿区,南榎町５４－３０１,,13,104,1620852,,,,,,,2023-02-06,1,,,,,リベレーションフォース,0
399,2011103012672,新規,0,2023-02-06,2023-02-06,ネッキョー合同会社,,合同会社,東京都,新宿区,西新宿３丁目３番１３号西新宿水間ビル２Ｆ,,13,104,1600023,,,,,,,2023-02-06,1,,,,,ネッキョー,0
400,2011203004000,新規,0,2023-02-06,2023-02-06,ａｋｉｘｘ合同会社,,合同会社,東京都,中野区,南台２丁目１８番３号和暢ビル２Ｆ,,13,114,1640014,,,,,,,2023-02-06,1,,,,,アキックス,0
417,2011601026562,新規,0,2023-02-06,2023-02-06,株式会社木川組,,株式会社,東京都,練馬区,高野台４丁目１２番１２号,,13,120,1770033,,,,,,,2023-02-06,1,,,,,キカワグミ,0
423,2011701025992,新規,0,2023-02-06,2023-02-06,ＧＲＡＮＴ株式会社,,株式会社,東京都,江戸川区,中葛西４丁目１２番２－２０５号メゾンアルファ中葛西,,13,123,1340083,,,,,,,2023-02-06,1,,,,,グラント,0
431,2011803005496,新規,0,2023-02-06,2023-02-06,ＲＨＤ合同会社,,合同会社,東京都,足立区,神明１丁目１番７号,,13,121,1210051,,,,,,,2023-02-06,1,,,,,アールエイチディー,0
432,2012301013297,新規,0,2023-02-06,2023-02-06,京澤株式会社,,株式会社,東京都,町田市,成瀬が丘２丁目２３－４－２０２号,,13,209,1940011,,,,,,,2023-02-06,1,,,,,キョウザワ,0
433,2012305002040,新規,0,2023-02-06,2023-02-06,一般社団法人睡眠改善アカデミー,,その他の設立登記法人,東京都,町田市,原町田６丁目２７番１９号平本ビル２Ｆ,,13,209,1940013,,,,,,,2023-02-06,1,,,,,スイミンカイゼンアカデミー,0
438,2013301050280,新規,0,2023-02-06,2023-02-06,株式会社Ｓｈｉｔｅｎ,,株式会社,東京都,豊島区,南池袋１丁目１６番２０号ぬかりやビル６階６１４,,13,116,1710022,,,,,,,2023-02-06,1,,,,,シテン,0
445,2020001150088,新規,0,2023-02-06,2023-02-06,Ｋエンタープライズ株式会社,,株式会社,神奈川県,横浜市保土ケ谷区,今井町１１２０番地１,,14,106,2400035,,,,,,,2023-02-06,1,,,,,ケーエンタープライズ,0
446,2020001150096,新規,0,2023-02-06,2023-02-06,株式会社ＨＯＲＩ,,株式会社,神奈川県,川崎市川崎区,中瀬３丁目２０番１９号,,14,131,2100818,,,,,,,2023-02-06,1,,,,,ホリ,0
447,2020001150113,新規,0,2023-02-06,2023-02-06,Ｇｒｏｕｎｄ　Ｍ株式会社,,株式会社,神奈川県,横浜市緑区,台村町３５２番地１ピコ中山１０２号,,14,113,2260014,,,,,,,2023-02-06,1,,,,,グラウンドエム,0
448,2020001150154,新規,0,2023-02-06,2023-02-06,エイトコア株式会社,,株式会社,神奈川県,横浜市西区,北幸２丁目１０番地２８むつみビル３Ｆ,,14,103,2200004,,,,,,,2023-02-06,1,,,,,エイトコア,0
449,2020003023218,新規,0,2023-02-06,2023-02-06,メサキプランニング合同会社,,合同会社,神奈川県,横浜市瀬谷区,二ツ橋町６４番地７,,14,114,2460021,,,,,,,2023-02-06,1,,,,,メサキプランニング,0
450,2020003023242,新規,0,2023-02-06,2023-02-06,合同会社ブリス,,合同会社,神奈川県,横浜市南区,弘明寺町２７０番地第二親和不動産ビル２階,,14,105,2320067,,,,,,,2023-02-06,1,,,,,ブリス,0
451,2020003023259,新規,0,2023-02-06,2023-02-06,栄和合同会社,,合同会社,神奈川県,横浜市中区,伊勢佐木町２丁目９０,,14,104,2310045,,,,,,,2023-02-06,1,,,,,エイワ,0
459,2021001078113,新規,0,2023-02-06,2023-02-06,株式会社Ｒｉｓｋｄｅｆｅｎｓｅ,,株式会社,神奈川県,海老名市,上今泉２丁目５番３９－１０２号,,14,215,2430431,,,,,,,2023-02-06,1,,,,,リスクディフェンス,0
460,2021001078121,新規,0,2023-02-06,2023-02-06,Ｔ・ＲＡＩＳＥ株式会社,,株式会社,神奈川県,茅ヶ崎市,浜竹１丁目６番２４－７号,,14,207,2530021,,,,,,,2023-02-06,1,,,,,ティーレイズ,0
466,2021003012714,新規,0,2023-02-06,2023-02-06,Ａｎｄｒａｗ合同会社,,合同会社,神奈川県,平塚市,広川４１番地１０,,14,203,2591219,,,,,,,2023-02-06,1,,,,,アンドロー,0
471,2030001152224,新規,0,2023-02-06,2023-02-06,株式会社Ｋａｎａｓａ,,株式会社,埼玉県,坂戸市,泉町３丁目２０番８号,,11,239,3500231,,,,,,,2023-02-06,1,,,,,カナサ,0
472,2030001152249,新規,0,2023-02-06,2023-02-06,株式会社ジョー,,株式会社,埼玉県,鶴ヶ島市,松ヶ丘５丁目１５番１０号,,11,241,3502205,,,,,,,2023-02-06,1,,,,,ジョー,0
473,2030001152257,新規,0,2023-02-06,2023-02-06,株式会社ＴＲＹ,,株式会社,埼玉県,加須市,琴寄８７１番地１,,11,210,3491133,,,,,,,2023-02-06,1,,,,,トライ,0
474,2030001152273,新規,0,2023-02-06,2023-02-06,株式会社スタジオ・プロワン,,株式会社,埼玉県,さいたま市南区,四谷３丁目７番９－５０４号ローヤルシティ武蔵浦和ガーデン,,11,108,3360032,,,,,,,2023-02-06,1,,,,,スタジオプロワン,0
475,2030001152281,新規,0,2023-02-06,2023-02-06,ＢＥＬＬ　ＢＡＳＥ株式会社,,株式会社,埼玉県,さいたま市緑区,東浦和３丁目４－１８,,11,109,3360926,,,,,,,2023-02-06,1,,,,,ベルベース,0
481,2030003021047,新規,0,2023-02-06,2023-02-06,Ｂｒｉｇｈｔ合同会社,,合同会社,埼玉県,さいたま市緑区,大字三室１６５５番地２０,,11,109,3360911,,,,,,,2023-02-06,1,,,,,ブライト,0
482,2030003021105,新規,0,2023-02-06,2023-02-06,合同会社Ｒｅｌｉｅｆ,,合同会社,埼玉県,上尾市,愛宕１丁目１６番１０号オクタビア・ヒルＤ－４０２,,11,219,3620034,,,,,,,2023-02-06,1,,,,,リリーフ,0
488,2040001126929,新規,0,2023-02-06,2023-02-06,株式会社高橋パーキング,,株式会社,千葉県,千葉市中央区,今井２丁目１８番９号,,12,101,2600834,,,,,,,2023-02-06,1,,,,,タカハシパーキング,0
489,2040001126937,新規,0,2023-02-06,2023-02-06,株式会社優設計,,株式会社,千葉県,流山市,平和台１丁目３番地１６サニーウェル１０００１,,12,220,2700157,,,,,,,2023-02-06,1,,,,,ユウセッケイ,0
490,2040001126945,新規,0,2023-02-06,2023-02-06,＿域株式会社,00129338,株式会社,千葉県,船橋市,海神５丁目２８番１８－１号,,12,204,2730021,,,,,,,2023-02-06,1,,,,,キンイキ,0
491,2040001126961,新規,0,2023-02-06,2023-02-06,株式会社ＡＷＡＴ,,株式会社,千葉県,松戸市,稔台２丁目９番地の８,,12,207,2702231,,,,,,,2023-02-06,1,,,,,アワット,0
492,2040001126986,新規,0,2023-02-06,2023-02-06,タキグチ建設株式会社,,株式会社,千葉県,流山市,大字西深井８０８番地の１２,,12,220,2700107,,,,,,,2023-02-06,1,,,,,タキグチケンセツ,0
494,2040003021855,新規,0,2023-02-06,2023-02-06,合同会社ハクナン,,合同会社,千葉県,柏市,高柳１４９２番地２,,12,217,2770941,,,,,,,2023-02-06,1,,,,,ハクナン,0
502,2050001052331,新規,0,2023-02-06,2023-02-06,若松株式会社,,株式会社,茨城県,龍ケ崎市,出し山町１１２番地２階,,08,208,3010839,,,,,,,2023-02-06,1,,,,,ワカマツ,0
503,2050003007218,新規,0,2023-02-06,2023-02-06,Ｃｅｙｌｏｎ　Ｍｉｎｔ合同会社,,合同会社,茨城県,龍ケ崎市,愛戸町２９番地,,08,208,3010838,,,,,,,2023-02-06,1,,,,,セイロンミント,0
504,2060001035665,新規,0,2023-02-06,2023-02-06,株式会社高岩興業,,株式会社,栃木県,栃木市,大宮町２０９７番地１３,,09,203,3280011,,,,,,,2023-02-06,1,,,,,タカイワコウギョウ,0
512,2070001040094,新規,0,2023-02-06,2023-02-06,株式会社Ｂ．Ａ．コーポレーション,,株式会社,群馬県,館林市,堀工町１０９６番地の３,,10,207,3740033,,,,,,,2023-02-06,1,,,,,ビーエーコーポレーション,0
514,2070003004816,新規,0,2023-02-06,2023-02-06,合同会社ｕｌｕ,,合同会社,群馬県,高崎市,大沢町１０１番地１,,10,202,3700012,,,,,,,2023-02-06,1,,,,,ウル,0
517,2080105006313,新規,0,2023-02-06,2023-02-06,和合人材支援協同組合,,その他の設立登記法人,静岡県,富士市,鮫島５６９番地の１,,22,210,4160934,,,,,,,2023-02-06,1,,,,,ワゴウジンザイシエン,0
521,2090005007542,新規,0,2023-02-06,2023-02-06,特定非営利活動法人山梨・人ねっこアートワーク,,その他の設立登記法人,山梨県,笛吹市,御坂町二之宮２５－２,,19,211,4060807,,,,,,,2023-02-06,1,,,,,ヤマナシヒトネッコアートワーク,0
522,2100001036122,新規,0,2023-02-06,2023-02-06,株式会社奥原不動産鑑定,,株式会社,長野県,松本市,中央１丁目２１番３号長野県理容会館２階南号室,,20,202,3900811,,,,,,,2023-02-06,1,,,,,オクハラフドウサンカンテイ,0
523,2100003006874,新規,0,2023-02-06,2023-02-06,リアルワークス合同会社,,合同会社,長野県,長野市,篠ノ井布施高田１００６－９,,20,201,3888007,,,,,,,2023-02-06,1,,,,,リアルワークス,0
526,2110001037284,新規,0,2023-02-06,2023-02-06,よりそう保険コンシェル株式会社,,株式会社,新潟県,新潟市中央区,八千代１丁目３番２６号アパガーデンコート万代４１６号,,15,103,9500909,,,,,,,2023-02-06,1,,,,,ヨリソウホケンコンシェル,0
539,2120001251859,新規,0,2023-02-06,2023-02-06,株式会社モモモグラ,,株式会社,大阪府,大阪市浪速区,日本橋５丁目７番１０号山田ビル４０５,,27,111,5560005,,,,,,,2023-02-06,1,,,,,モモモグラ,0
540,2120001252295,新規,0,2023-02-06,2023-02-06,株式会社シエスタ,,株式会社,大阪府,大阪市中央区,東心斎橋２丁目５番１８号三原ビル２Ｆ,,27,128,5420083,,,,,,,2023-02-06,1,,,,,シエスタ,0
541,2120001252312,新規,0,2023-02-06,2023-02-06,株式会社ＡＡ,,株式会社,大阪府,大阪市西区,南堀江４丁目２５番－８０５,,27,106,5500015,,,,,,,2023-02-06,1,,,,,ダブルエース,0
545,2120003023356,新規,0,2023-02-06,2023-02-06,ＬＩＬＡＣ合同会社,,合同会社,大阪府,大阪市住吉区,長居東３丁目１５番３５号３Ｆ,,27,120,5580004,,,,,,,2023-02-06,1,,,,,ライラック,0
546,2120003023364,新規,0,2023-02-06,2023-02-06,合同会社ふるさとの樹,,合同会社,大阪府,大阪市西成区,玉出東２丁目５番２－７０２号,,27,122,5570043,,,,,,,2023-02-06,1,,,,,フルサトノキ,0
547,2120003023380,新規,0,2023-02-06,2023-02-06,キャピタル合同会社,,合同会社,大阪府,大阪市北区,梅田１丁目２番２号大阪駅前第２ビル１２－１２,,27,127,5300001,,,,,,,2023-02-06,1,,,,,キャピタル,0
551,2120101066918,新規,0,2023-02-06,2023-02-06,株式会社ＮＥＸＵＳ,,株式会社,大阪府,堺市西区,浜寺石津町西３丁４番２３－３０２号,,27,144,5928333,,,,,,,2023-02-06,1,,,,,ネクサス,0
552,2120101066950,新規,0,2023-02-06,2023-02-06,株式会社ｅｎ‐ｃｒｅａｔｅ,,株式会社,大阪府,堺市南区,和田東９８８－１,,27,145,5900102,,,,,,,2023-02-06,1,,,,,エンクリエイト,0
553,2120101066959,新規,0,2023-02-06,2023-02-06,株式会社インフィールド,,株式会社,大阪府,堺市北区,長曽根町１２０７番地２,,27,146,5918025,,,,,,,2023-02-06,1,,,,,インフィールド,0
555,2120901047076,新規,0,2023-02-06,2023-02-06,株式会社Ｓｕｎｓｅｔ　Ｒｉｓｅ,,株式会社,大阪府,豊中市,西緑丘１丁目５番１２－３０６号,,27,203,5600005,,,,,,,2023-02-06,1,,,,,サンセットライズ,0
556,2120903004496,新規,0,2023-02-06,2023-02-06,つきがさ合同会社,,合同会社,大阪府,茨木市,南耳原１丁目５番２９号の５,,27,211,5670004,,,,,,,2023-02-06,1,,,,,ツキガサ,0
557,2120905006417,新規,0,2023-02-06,2023-02-06,医療法人ハッピースマイル会,,その他の設立登記法人,大阪府,箕面市,西小路３丁目５番１０号,,27,220,5620003,,,,,,,2023-02-06,1,,,,,ハッピースマイルカイ,0
558,2120905006425,新規,0,2023-02-06,2023-02-06,弁理士法人北大阪特許事務所,,その他の設立登記法人,大阪府,吹田市,豊津町１番１８号エクラート江坂ビル４Ｆ,,27,205,5640051,,,,,,,2023-02-06,1,,,,,キタオオサカトッキョジムショ,0
564,2130001073617,新規,0,2023-02-06,2023-02-06,株式会社京都渓流カンパニー,,株式会社,京都府,京都市北区,小山花ノ木町１５番地,,26,101,6038122,,,,,,,2023-02-06,1,,,,,キョウトケイリュウカンパニー,0
570,2140001128948,新規,0,2023-02-06,2023-02-06,大林貿易株式会社,,株式会社,兵庫県,明石市,沢野３丁目１１番地の６,,28,203,6730008,,,,,,,2023-02-06,1,,,,,オオバヤシボウエキ,0
571,2140001128964,新規,0,2023-02-06,2023-02-06,株式会社新陵管財,,株式会社,兵庫県,姫路市,広畑区吾妻町１丁目２６番地３,,28,201,6711154,,,,,,,2023-02-06,1,,,,,シンリョウカンザイ,0
572,2140001129005,新規,0,2023-02-06,2023-02-06,株式会社ＣＩＴＲＯＮ,,株式会社,兵庫県,姫路市,飾磨区加茂３５４番地１,,28,201,6728074,,,,,,,2023-02-06,1,,,,,シトロン,0
574,2150003002877,新規,0,2023-02-06,2023-02-06,合同会社ファミーユ,,合同会社,奈良県,大和郡山市,朝日町３番１２号ピアッツァコート大和郡山駅前８０６号,,29,203,6391013,,,,,,,2023-02-06,1,,,,,ファミーユ,0
583,2180001154800,新規,0,2023-02-06,2023-02-06,利＿資源株式会社,00129349,株式会社,愛知県,名古屋市北区,成願寺１丁目６番６ザ・シーン城北アストロタワー７０７号－Ｂ室,,23,103,4620021,,,,,,,2023-02-06,1,,,,,リシンシゲン,0
584,2180001154809,新規,0,2023-02-06,2023-02-06,グロースコンサルティング株式会社,,株式会社,愛知県,尾張旭市,南原山町石原１０９番地２ラビデンス三郷東館９０２号,,23,226,4880067,,,,,,,2023-02-06,1,,,,,グロースコンサルティング,0
585,2180001154841,新規,0,2023-02-06,2023-02-06,株式会社ファイブハンドレッド,,株式会社,愛知県,名古屋市北区,柳原３丁目６番７号（プレサンスグラン名城公園６０６号）,,23,103,4620845,,,,,,,2023-02-06,1,,,,,ファイブハンドレッド,0
586,2180001154866,新規,0,2023-02-06,2023-02-06,株式会社パレム,,株式会社,愛知県,名古屋市中川区,東中島町１丁目５６番地,,23,110,4540866,,,,,,,2023-02-06,1,,,,,パレム,0
587,2180001154874,新規,0,2023-02-06,2023-02-06,株式会社ＭＯＬ,,株式会社,愛知県,日進市,赤池１丁目２８０１番地,,23,230,4700125,,,,,,,2023-02-06,1,,,,,エムオーエル,0
590,2180003024803,新規,0,2023-02-06,2023-02-06,合同会社ウェルライフ,,合同会社,愛知県,小牧市,久保新町２６番地,,23,219,4850006,,,,,,,2023-02-06,1,,,,,ウェルライフ,0
593,2180303005602,新規,0,2023-02-06,2023-02-06,合同会社ＢＡＮＡＮＡＷＯＲＫＳ,,合同会社,愛知県,高浜市,青木町５丁目７番地１００,,23,227,4441325,,,,,,,2023-02-06,1,,,,,バナナワークス,0
597,2190003004218,新規,0,2023-02-06,2023-02-06,合同会社アロアロ,,合同会社,三重県,伊勢市,二見町光の街１０１５番地５,,24,203,5190611,,,,,,,2023-02-06,1,,,,,アロアロ,0
600,2200003005833,新規,0,2023-02-06,2023-02-06,カタリスト合同会社,,合同会社,岐阜県,美濃加茂市,加茂野町加茂野５３番地１,,21,211,5050054,,,,,,,2023-02-06,1,,,,,カタリスト,0
603,2220003003447,新規,0,2023-02-06,2023-02-06,合同会社Ｒ＆Ｔ,,合同会社,石川県,金沢市,横山町１番２６号１Ｆ,,17,201,9200922,,,,,,,2023-02-06,1,,,,,アールアンドティー,0
606,2240001061032,新規,0,2023-02-06,2023-02-06,竹鶴ホールディングス株式会社,,株式会社,広島県,竹原市,本町３丁目１０番２９号,,34,203,7250022,,,,,,,2023-02-06,1,,,,,タケツルホールディングス,0
607,2240001061040,新規,0,2023-02-06,2023-02-06,つばめ野菜株式会社,,株式会社,広島県,尾道市,美ノ郷町本郷１番地１２３,,34,205,7220212,,,,,,,2023-02-06,1,,,,,ツバメヤサイ,0
608,2240001061049,新規,0,2023-02-06,2023-02-06,株式会社ＡＫホールディングス,,株式会社,広島県,福山市,曙町４丁目４番１６号,,34,207,7210952,,,,,,,2023-02-06,1,,,,,エーケーホールディングス,0
609,2240001061057,新規,0,2023-02-06,2023-02-06,株式会社ｐｅｐｅ,,株式会社,広島県,三次市,十日市東５丁目２番３９号,,34,209,7280013,,,,,,,2023-02-06,1,,,,,ペペ,0
610,2240001061065,新規,0,2023-02-06,2023-02-06,株式会社ＹＵＩ,,株式会社,広島県,広島市西区,南観音２丁目９番１８－５０３号,,34,104,7330035,,,,,,,2023-02-06,1,,,,,ユイ,0
613,2240005015513,新規,0,2023-02-06,2023-02-06,一般社団法人広島未来デザイン,,その他の設立登記法人,広島県,広島市中区,橋本町１番８号上柳橋ハイタウン１０１,,34,101,7300015,,,,,,,2023-02-06,1,,,,,ヒロシマミライデザイン,0
614,2250001019946,新規,0,2023-02-06,2023-02-06,株式会社ユナイト,,株式会社,山口県,下関市,富任町３丁目３番４１号,,35,201,7596613,,,,,,,2023-02-06,1,,,,,ユナイト,0
623,2290003013497,新規,0,2023-02-06,2023-02-06,合同会社ＦＡＭＯ,,合同会社,福岡県,福岡市南区,曰佐４丁目２番１号,,40,134,8111313,,,,,,,2023-02-06,1,,,,,ファモ,0
630,2320002019376,新規,0,2023-02-06,2023-02-06,有限会社矢治木工,,有限会社,大分県,日田市,亀山町４番１５号,,44,204,8770045,,,,,,,2023-02-06,1,,,,,,0
632,2330001030572,新規,0,2023-02-06,2023-02-06,株式会社ＫＤＳ,,株式会社,熊本県,八代市,通町１１番１４号ニュークリエイトビル３階,,43,202,8660856,,,,,,,2023-02-06,1,,,,,ケイディエス,0
634,2340001025349,新規,0,2023-02-06,2023-02-06,株式会社元井農園,,株式会社,鹿児島県,奄美市,住用町大字役勝２２２番地,,46,222,8941205,,,,,,,2023-02-06,1,,,,,モトイノウエン,0
640,2370001049576,新規,0,2023-02-06,2023-02-06,株式会社光,,株式会社,宮城県,仙台市青葉区,霊屋下１１番１０号チサンマンション広瀬川壱番館２０５,,04,101,9800814,,,,,,,2023-02-06,1,,,,,ヒカル,0
650,2410001013387,新規,0,2023-02-06,2023-02-06,株式会社藤原屋,,株式会社,秋田県,潟上市,天王字上江川８２番地１５,,05,211,0100201,,,,,,,2023-02-06,1,,,,,フジワラヤ,0
654,2430001088353,新規,0,2023-02-06,2023-02-06,株式会社ティーグロウ,,株式会社,北海道,札幌市北区,屯田七条６丁目１番７号,,01,102,0020857,,,,,,,2023-02-06,1,,,,,ティーグロウ,0
656,2430003014704,新規,0,2023-02-06,2023-02-06,合同会社さくら,,合同会社,北海道,石狩市,花川南七条１丁目１１１番地,,01,235,0613207,,,,,,,2023-02-06,1,,,,,サクラ,0
657,2430003014712,新規,0,2023-02-06,2023-02-06,Ｔｒｉａｎｇｌｅ合同会社,,合同会社,北海道,札幌市中央区,南十四条西１７丁目１番４４号,,01,101,0640914,,,,,,,2023-02-06,1,,,,,トライアングル,0
661,2440001009218,新規,0,2023-02-06,2023-02-06,株式会社寅福プラント,,株式会社,北海道,檜山郡上ノ国町,字大留１３番地１,,01,362,0490611,,,,,,,2023-02-06,1,,,,,トラフクプラント,0
667,2460101007326,新規,0,2023-02-06,2023-02-06,かみむら農場株式会社,,株式会社,北海道,河東郡鹿追町,上然別西９線１３番地１４,,01,634,0810218,,,,,,,2023-02-06,1,,,,,カミムラノウジョウ,0
669,2470001019461,新規,0,2023-02-06,2023-02-06,株式会社ＵＭＬ,,株式会社,香川県,高松市,伏石町２０４６番地１サーパス伏石中央公園２０１号,,37,201,7618071,,,,,,,2023-02-06,1,,,,,ユーエムエル,0
673,2480003001929,新規,0,2023-02-06,2023-02-06,合同会社徳島東帆布工房,,合同会社,徳島県,徳島市,津田本町３丁目３番６号,,36,201,7708003,,,,,,,2023-02-06,1,,,,,トクシマヒガシハンプコウボウ,0
676,2500003002973,新規,0,2023-02-06,2023-02-06,ＴＫＳ合同会社,,合同会社,愛媛県,松山市,針田町１９２－５,,38,201,7900055,,,,,,,2023-02-06,1,,,,,ティーケーエス,0
682,3010001232737,新規,0,2023-02-06,2023-02-06,株式会社ＹＯＨＡＣＫ,,株式会社,東京都,中央区,八重洲１丁目４番１６号東京建物八重洲ビル３階,,13,102,1030028,,,,,,,2023-02-06,1,,,,,ヨハク,0
688,3010003039734,新規,0,2023-02-06,2023-02-06,合同会社Ｃ＆Ｅ,,合同会社,東京都,中央区,日本橋３丁目１番４号７０１号,,13,102,1030027,,,,,,,2023-02-06,1,,,,,シーアンドイー,0
691,3010005036226,新規,0,2023-02-06,2023-02-06,一般社団法人Ｃｒｙｐｔｏ,,その他の設立登記法人,東京都,中央区,日本橋兜町５番１号兜町第１平和ビル７階,,13,102,1030026,,,,,,,2023-02-06,1,,,,,クリプト,0
695,3010401172260,新規,0,2023-02-06,2023-02-06,青山インベストメント・リサーチ株式会社,,株式会社,東京都,港区,南青山４丁目１８番２１号,,13,103,1070062,,,,,,,2023-02-06,1,,,,,アオヤマインベストメントリサーチ,0
696,3010401172277,新規,0,2023-02-06,2023-02-06,ラボナス株式会社,,株式会社,東京都,港区,高輪１丁目４番８－１３０７号,,13,103,1080074,,,,,,,2023-02-06,1,,,,,ラボナス,0
697,3010401172293,新規,0,2023-02-06,2023-02-06,株式会社ＬＩＦ,,株式会社,東京都,港区,高輪２丁目１４番１７号,,13,103,1080074,,,,,,,2023-02-06,1,,,,,リフ,0
700,3010501049961,新規,0,2023-02-06,2023-02-06,株式会社ＮＯＲ,,株式会社,東京都,台東区,蔵前３丁目６番７号,,13,106,1110051,,,,,,,2023-02-06,1,,,,,エヌオーアール,0
704,3010601062559,新規,0,2023-02-06,2023-02-06,ＲＯＹＡＬ　ＩＮＴＥＲＮＡＴＩＯＮＡＬ株式会社,,株式会社,東京都,江東区,北砂３丁目１７－１９,,13,108,1360073,,,,,,,2023-02-06,1,,,,,ロイヤルインターナショナル,0
708,3010801033657,新規,0,2023-02-06,2023-02-06,株式会社ひろば,,株式会社,東京都,大田区,田園調布南５－２シェアプレイス田園調布南２１１号室,,13,111,1450076,,,,,,,2023-02-06,1,,,,,ヒロバ,0
712,3010901052474,新規,0,2023-02-06,2023-02-06,アウトリガー株式会社,,株式会社,東京都,世田谷区,下馬１丁目５２番１１－５号室,,13,112,1540002,,,,,,,2023-02-06,1,,,,,アウトリガー,0
713,3010903007955,新規,0,2023-02-06,2023-02-06,合同会社あおぼし,,合同会社,東京都,世田谷区,等々力７丁目１９番１７号,,13,112,1580082,,,,,,,2023-02-06,1,,,,,アオボシ,0
714,3011001001322,新規,0,2023-02-06,2023-02-06,株式会社アトリエランブレ,,株式会社,東京都,渋谷区,千駄ヶ谷１丁目１１番２号,,13,113,1510051,,,,,,,2023-02-06,1,,,,,アトリエランブレ,0
717,3011001152396,新規,0,2023-02-06,2023-02-06,株式会社ＳＭＩＬＥ,,株式会社,東京都,目黒区,碑文谷１丁目２３番１２－５０７号,,13,110,1520003,,,,,,,2023-02-06,1,,,,,スマイル,0
718,3011001152413,新規,0,2023-02-06,2023-02-06,株式会社トランキーレ,,株式会社,東京都,渋谷区,幡ヶ谷２丁目１４番９号,,13,113,1510072,,,,,,,2023-02-06,1,,,,,トランキーレ,0
719,3011003016203,新規,0,2023-02-06,2023-02-06,合同会社ｂ‐ｇｒｏｗｔｈ,,合同会社,東京都,渋谷区,道玄坂１丁目１０番８号渋谷道玄坂東急ビル２Ｆ－Ｃ,,13,113,1500043,,,,,,,2023-02-06,1,,,,,ビーグロース,0
720,3011003016228,新規,0,2023-02-06,2023-02-06,合同会社Ｌｉｎｋ　Ｈ,,合同会社,東京都,渋谷区,神宮前６丁目２３番４号桑野ビル２階,,13,113,1500001,,,,,,,2023-02-06,1,,,,,リンクエイチ,0
721,3011003016236,新規,0,2023-02-06,2023-02-06,合同会社ＲＥＤ　ＣＵＢＥ,,合同会社,東京都,渋谷区,本町３丁目３９番１２－９０１号,,13,113,1510071,,,,,,,2023-02-06,1,,,,,レッドキューブ,0
725,3011103012663,新規,0,2023-02-06,2023-02-06,合同会社キミドリグルイ,,合同会社,東京都,新宿区,西新宿３丁目３番１３号西新宿水間ビル６階,,13,104,1600023,,,,,,,2023-02-06,1,,,,,キミドリグルイ,0
735,3011601026553,新規,0,2023-02-06,2023-02-06,順祥興業株式会社,,株式会社,東京都,練馬区,上石神井３丁目２８番１０号,,13,120,1770044,,,,,,,2023-02-06,1,,,,,ジュンショウコウギョウ,0
738,3011801041889,新規,0,2023-02-06,2023-02-06,株式会社しまえなが,,株式会社,東京都,足立区,南花畑２丁目４０番４号,,13,121,1210062,,,,,,,2023-02-06,1,,,,,,0
747,3013303006486,新規,0,2023-02-06,2023-02-06,ｔａｎｙ　ｄｅｓｉｇｎ合同会社,,合同会社,東京都,豊島区,東池袋１丁目３４番５号いちご東池袋ビル６階,,13,116,1700013,,,,,,,2023-02-06,1,,,,,タニーデザイン,0
754,3020001150087,新規,0,2023-02-06,2023-02-06,株式会社ＬＵＬＵ不動産,,株式会社,神奈川県,横浜市中区,本牧町１丁目１５２番地２,,14,104,2310806,,,,,,,2023-02-06,1,,,,,ルルフドウサン,0
755,3020001150129,新規,0,2023-02-06,2023-02-06,ソルチオーネジャパン株式会社,,株式会社,神奈川県,横浜市中区,桜木町１丁目１０１番地１クロスゲート７階,,14,104,2310062,,,,,,,2023-02-06,1,,,,,ソルチオーネジャパン,0
756,3020001150137,新規,0,2023-02-06,2023-02-06,晴株式会社,,株式会社,神奈川県,横浜市青葉区,美しが丘２丁目３４番地１,,14,117,2250002,,,,,,,2023-02-06,1,,,,,ハレ,0
757,3020001150153,新規,0,2023-02-06,2023-02-06,株式会社Ｙｏｋｏｈａｍａ　Ｂａｌｌｅｔ　Ｗｏｒｋｓ,,株式会社,神奈川県,横浜市西区,浅間町１丁目４番３号ウィザードビル４０２,,14,103,2200072,,,,,,,2023-02-06,1,,,,,ヨコハマバレエワークス,0
758,3020001150161,新規,0,2023-02-06,2023-02-06,株式会社ｅｎｐｌｕｓ設計室,,株式会社,神奈川県,横浜市神奈川区,泉町１５番地５,,14,102,2210842,,,,,,,2023-02-06,1,,,,,エンプラスセッケイシツ,0
761,3020003023258,新規,0,2023-02-06,2023-02-06,合同会社ビブリオテックリサーチ,,合同会社,神奈川県,横浜市港北区,日吉本町５丁目５６番１５号,,14,109,2230062,,,,,,,2023-02-06,1,,,,,ビブリオテックリサーチ,0
765,3021001078120,新規,0,2023-02-06,2023-02-06,株式会社安次富興業,,株式会社,神奈川県,平塚市,東真土１丁目７番２８－１号,,14,203,2540018,,,,,,,2023-02-06,1,,,,,アシトミコウギョウ,0
766,3021001078137,新規,0,2023-02-06,2023-02-06,株式会社リタ,,株式会社,神奈川県,平塚市,紅谷町３番１０－９０１号,,14,203,2540043,,,,,,,2023-02-06,1,,,,,リタ,0
767,3021001078145,新規,0,2023-02-06,2023-02-06,株式会社ｏｎｅ　ｓｔｙｌｅ　ｂｅａｕｔｙ,,株式会社,神奈川県,藤沢市,藤沢９７１－１リベール藤沢第２ビル２階,,14,205,2510052,,,,,,,2023-02-06,1,,,,,ワンスタイルビューティー,0
768,3021003012721,新規,0,2023-02-06,2023-02-06,Ｂｉｚ合同会社,,合同会社,神奈川県,足柄下郡箱根町,強羅１３２０－８６ＧＶ強羅Ｄ－２０１＃Ｒ０１,,14,382,2500408,,,,,,,2023-02-06,1,,,,,ビズ,0
777,3030001152090,新規,0,2023-02-06,2023-02-06,株式会社Ｋｒｙｐｔ,,株式会社,埼玉県,さいたま市浦和区,常盤５丁目８番３９－６０８号,,11,107,3300061,,,,,,,2023-02-06,1,,,,,クリプト,0
778,3030001152223,新規,0,2023-02-06,2023-02-06,株式会社ユー,,株式会社,埼玉県,三郷市,天神１丁目１４３番地１,,11,237,3410051,,,,,,,2023-02-06,1,,,,,ユー,0
779,3030001152248,新規,0,2023-02-06,2023-02-06,株式会社パックエール,,株式会社,埼玉県,春日部市,南１丁目１番地７号,,11,214,3440064,,,,,,,2023-02-06,1,,,,,パックエール,0
780,3030001152256,新規,0,2023-02-06,2023-02-06,ＡＳＰテック株式会社,,株式会社,埼玉県,蕨市,北町１丁目２６番４号ルネ蕨ガーデンシティ１００７号,,11,223,3350001,,,,,,,2023-02-06,1,,,,,エーエスピーテック,0
781,3030001152272,新規,0,2023-02-06,2023-02-06,株式会社ＳＰＯＩＴＥ,,株式会社,埼玉県,戸田市,下前１丁目１１番２０－１３５９号,,11,224,3350016,,,,,,,2023-02-06,1,,,,,スポイト,0
783,3030003021087,新規,0,2023-02-06,2023-02-06,合同会社オフィス１,,合同会社,埼玉県,朝霞市,西弁財２丁目５番９号,,11,227,3510021,,,,,,,2023-02-06,1,,,,,オフィスワン,0
784,3030003021112,新規,0,2023-02-06,2023-02-06,合同会社やどりぎ天月,,合同会社,埼玉県,さいたま市大宮区,上小町６９８番地１第２山平コーポ３０２号室,,11,103,3300855,,,,,,,2023-02-06,1,,,,,ヤドリギアマツ,0
785,3030003021120,新規,0,2023-02-06,2023-02-06,合同会社ベンジャミン,,合同会社,埼玉県,さいたま市見沼区,島町２４７－６,,11,104,3370006,,,,,,,2023-02-06,1,,,,,ベンジャミン,0
789,3040001126944,新規,0,2023-02-06,2023-02-06,株式会社Ｒｏｏｆｓｈｏｔ,,株式会社,千葉県,千葉市美浜区,中瀬１丁目３番地幕張テクノガーデンＣＢ棟３階ＭＢＰ,,12,106,2610023,,,,,,,2023-02-06,1,,,,,ルーフショット,0
790,3040001126960,新規,0,2023-02-06,2023-02-06,株式会社車楽生活,,株式会社,千葉県,船橋市,南三咲１丁目３番８号,,12,204,2740813,,,,,,,2023-02-06,1,,,,,シャラクセイカツ,0
791,3040001126985,新規,0,2023-02-06,2023-02-06,株式会社ＴＥＣ不動産鑑定,,株式会社,千葉県,習志野市,谷津５丁目１８－２５,,12,216,2750026,,,,,,,2023-02-06,1,,,,,ティーイーシーフドウサンカンテイ,0
795,3040003021870,新規,0,2023-02-06,2023-02-06,ＭＧＳ合同会社,,合同会社,千葉県,松戸市,栗山７０番地の６,,12,207,2710097,,,,,,,2023-02-06,1,,,,,エムジーエス,0
796,3050001052330,新規,0,2023-02-06,2023-02-06,菊地塗工株式会社,,株式会社,茨城県,つくば市,上ノ室１９６７番地４,,08,220,3050023,,,,,,,2023-02-06,1,,,,,キクチトコウ,0
797,3050001052339,新規,0,2023-02-06,2023-02-06,株式会社ＪＮＩ,,株式会社,茨城県,守谷市,百合ケ丘２丁目４８００番地２,,08,224,3020110,,,,,,,2023-02-06,1,,,,,ジェイエヌアイ,0
800,3050003007217,新規,0,2023-02-06,2023-02-06,合同会社ＤＫＮ　ＩＮＴＥＲＮＡＴＩＯＮＡＬ,,合同会社,茨城県,龍ケ崎市,若柴町１１２６番地２、小林住宅,,08,208,3010041,,,,,,,2023-02-06,1,,,,,ディーケーエヌインターナショナル,0
801,3050003007225,新規,0,2023-02-06,2023-02-06,Ｔｅｃｈｎｏ　Ｚｏｎｅ合同会社,,合同会社,茨城県,龍ケ崎市,若柴町１１２６番地１,,08,208,3010041,,,,,,,2023-02-06,1,,,,,テクノゾーン,0
802,3050005013205,新規,0,2023-02-06,2023-02-06,一般社団法人つくばスクラム,,その他の設立登記法人,茨城県,つくば市,天王台１丁目１番地１筑波大学体育科学系棟Ｂ２０１,,08,220,3050006,,,,,,,2023-02-06,1,,,,,ツクバスクラム,0
804,3060001035664,新規,0,2023-02-06,2023-02-06,株式会社直竹左官,,株式会社,栃木県,那須郡那須町,大字高久甲２３６２番地１９,,09,407,3250001,,,,,,,2023-02-06,1,,,,,ナオタケサカン,0
805,3060001035672,新規,0,2023-02-06,2023-02-06,株式会社野代生建設,,株式会社,栃木県,日光市,土沢１４３６－１１,,09,206,3211274,,,,,,,2023-02-06,1,,,,,ヤヨイケンセツ,0
808,3070001040093,新規,0,2023-02-06,2023-02-06,株式会社ＷｏｏｄＢｅｌｌ．,,株式会社,群馬県,太田市,山之神町２９９番地９,,10,205,3792302,,,,,,,2023-02-06,1,,,,,ウッドベルピリオド,0
813,3080401026303,新規,0,2023-02-06,2023-02-06,Ａｓａｈｉ　Ｇｒｏｕｐ株式会社,,株式会社,静岡県,浜松市南区,遠州浜２丁目２２番９号,,22,134,4300835,,,,,,,2023-02-06,1,,,,,アサヒグループ,0
815,3100001036113,新規,0,2023-02-06,2023-02-06,株式会社堀金仮設,,株式会社,長野県,松本市,大字今井７０６４番地５,,20,202,3901131,,,,,,,2023-02-06,1,,,,,ホリガネカセツ,0
817,3110001037283,新規,0,2023-02-06,2023-02-06,株式会社瀧建,,株式会社,新潟県,見附市,細越２丁目５番５７号,,15,211,9540054,,,,,,,2023-02-06,1,,,,,タキケン,0
826,3120001252162,新規,0,2023-02-06,2023-02-06,株式会社ｋｎｏｗ‐ｗｈｙ,,株式会社,大阪府,大阪市淀川区,西中島３丁目１８番２１号ＮＬＣ新大阪１８号館４階,,27,123,5320011,,,,,,,2023-02-06,1,,,,,ノウホワイ,0
827,3120001252220,新規,0,2023-02-06,2023-02-06,株式会社Ｒｏｏｔｓ,,株式会社,大阪府,大阪市北区,梅田１丁目２番２号大阪駅前第２ビル４階,,27,127,5300001,,,,,,,2023-02-06,1,,,,,ルーツ,0
828,3120001252286,新規,0,2023-02-06,2023-02-06,株式会社リンクシップ,,株式会社,大阪府,大阪市北区,池田町１６－６レジュールアッシュ天神橋６０５,,27,127,5300033,,,,,,,2023-02-06,1,,,,,リンクシップ,0
829,3120001252294,新規,0,2023-02-06,2023-02-06,株式会社雷雨決行,,株式会社,大阪府,大阪市北区,万歳町３番３９－６０５号,,27,127,5300028,,,,,,,2023-02-06,1,,,,,ライウケッコウ,0
830,3120001252303,新規,0,2023-02-06,2023-02-06,株式会社Ａｖｅｎｉｒ,,株式会社,大阪府,大阪市北区,浪花町１３－３８千代田ビル北館,,27,127,5300022,,,,,,,2023-02-06,1,,,,,アヴェニール,0
833,3120003023388,新規,0,2023-02-06,2023-02-06,合同会社ひゃくまん一心,,合同会社,大阪府,大阪市福島区,大開１丁目１３番６号,,27,103,5530007,,,,,,,2023-02-06,1,,,,,ヒャクマンイッシン,0
834,3120003023396,新規,0,2023-02-06,2023-02-06,ＬｉｎｋＵ合同会社,,合同会社,大阪府,大阪市中央区,玉造２丁目５番１３―５０６号,,27,128,5400004,,,,,,,2023-02-06,1,,,,,リンクユー,0
839,3120101066933,新規,0,2023-02-06,2023-02-06,株式会社Ｃ＆Ｅ,,株式会社,大阪府,藤井寺市,藤井寺１丁目１－２３第一芝田ビル１Ｆ,,27,226,5830024,,,,,,,2023-02-06,1,,,,,シーアンドイー,0
840,3120101066958,新規,0,2023-02-06,2023-02-06,株式会社サウスライズ,,株式会社,大阪府,堺市西区,上野芝町４丁８番２３－５０３号,,27,144,5938301,,,,,,,2023-02-06,1,,,,,サウスライズ,0
842,3120103005063,新規,0,2023-02-06,2023-02-06,ＧｅｅＰｌｕｓ合同会社,,合同会社,大阪府,堺市北区,中百舌鳥町６丁９６２番地１０１,,27,146,5918023,,,,,,,2023-02-06,1,,,,,ジープラス,0
843,3120103005071,新規,0,2023-02-06,2023-02-06,合同会社ＨＡＴＡＮＯ　ＷＯＲＫＳ,,合同会社,大阪府,堺市堺区,中之町西１丁１番７－４０１号,,27,141,5900957,,,,,,,2023-02-06,1,,,,,ハタノワークス,0
845,3120901047100,新規,0,2023-02-06,2023-02-06,ＦＵＴＵＲＥ　ＤＥＳＩＧＮ株式会社,,株式会社,大阪府,高槻市,東城山町１０番１５号,,27,207,5691037,,,,,,,2023-02-06,1,,,,,フューチャーデザイン,0
852,3130001073599,新規,0,2023-02-06,2023-02-06,ＴＲＩＡＴＥ株式会社,,株式会社,京都府,宇治市,広野町八軒屋谷１番地公益財団法人京都府公園公社内,,26,204,6110031,,,,,,,2023-02-06,1,,,,,トリエイト,0
855,3140001128963,新規,0,2023-02-06,2023-02-06,株式会社ＭＤＳ,,株式会社,兵庫県,加古川市,別府町別府８５８番地の２ロワイヤル別府ＩＩー５０３号,00129333,28,210,6750122,,,,,,,2023-02-06,1,,,,,エムディーエス,0
856,3140001129012,新規,0,2023-02-06,2023-02-06,ビズ・デバイス株式会社,,株式会社,兵庫県,西宮市,一里山町６－３,,28,204,6638002,,,,,,,2023-02-06,1,,,,,ビズデバイス,0
857,3140001129029,新規,0,2023-02-06,2023-02-06,株式会社ｍｏｔｏ,,株式会社,兵庫県,尼崎市,東園田町５丁目８７番地,,28,202,6610953,,,,,,,2023-02-06,1,,,,,モト,0
858,3140001129045,新規,0,2023-02-06,2023-02-06,株式会社ＥＡＴＯＰＩＡ,,株式会社,兵庫県,神戸市中央区,京町７１番地,,28,110,6500034,,,,,,,2023-02-06,1,,,,,イートピア,0
859,3140001129053,新規,0,2023-02-06,2023-02-06,株式会社イベントファクトリー,,株式会社,兵庫県,姫路市,飾磨区中野田２丁目２９番地,,28,201,6728045,,,,,,,2023-02-06,1,,,,,イベントファクトリー,0
860,3140001129061,新規,0,2023-02-06,2023-02-06,里山設備設計株式会社,,株式会社,兵庫県,川西市,笹部２丁目３７番２５－１号,,28,217,6660104,,,,,,,2023-02-06,1,,,,,サトヤマセツビセッケイ,0
861,3140003018675,新規,0,2023-02-06,2023-02-06,合同会社ＧＯＯＤ　ＭＥＡＴ,,合同会社,兵庫県,淡路市,大磯７番地２,,28,226,6562302,,,,,,,2023-02-06,1,,,,,グッドミート,0
866,3160001024806,新規,0,2023-02-06,2023-02-06,株式会社Ｃｒｅｅｔ,,株式会社,滋賀県,草津市,上笠４丁目２９番２号,,25,206,5250028,,,,,,,2023-02-06,1,,,,,クリート,0
867,3160003002792,新規,0,2023-02-06,2023-02-06,合同会社ＢＷＨ総合研究所,,合同会社,滋賀県,大津市,本堅田２丁目６番３２号,,25,201,5200242,,,,,,,2023-02-06,1,,,,,ビーダブリューエイチソウゴウケンキュウジョ,0
873,3180001154865,新規,0,2023-02-06,2023-02-06,株式会社ＤＥＫＩＴＡ,,株式会社,愛知県,名古屋市中区,栄２丁目２番１号広小路伏見中駒ビル２Ｆ－９,,23,106,4600008,,,,,,,2023-02-06,1,,,,,デキタ,0
876,3180003024802,新規,0,2023-02-06,2023-02-06,ひまわり合同会社,,合同会社,愛知県,名古屋市守山区,深沢１丁目１９１７番地,,23,113,4630811,,,,,,,2023-02-06,1,,,,,ヒマワリ,0
882,3190001030149,新規,0,2023-02-06,2023-02-06,株式会社川又興業,,株式会社,三重県,三重郡川越町,大字豊田９５３番地１カーサ・デ・ルッツ２０１号室,,24,344,5108122,,,,,,,2023-02-06,1,,,,,カワマタコウギョウギョウ,0
883,3190001030157,新規,0,2023-02-06,2023-02-06,ＮＳ建設株式会社,,株式会社,三重県,鈴鹿市,若松中１丁目５番８号,,24,207,5100224,,,,,,,2023-02-06,1,,,,,エヌエスケンセツ,0
886,3200003005832,新規,0,2023-02-06,2023-02-06,ペルテ合同会社,,合同会社,岐阜県,岐阜市,神室町５丁目２０番地３,,21,201,5008878,,,,,,,2023-02-06,1,,,,,ペルテ,0
889,3210001019230,新規,0,2023-02-06,2023-02-06,株式会社山崎建築板金,00129334,株式会社,福井県,坂井市,丸岡町上田町２丁目２５番地１４,,18,210,9100263,,,,,,,2023-02-06,1,,,,,ヤマザキケンチクバンキン,0
897,3240001061056,新規,0,2023-02-06,2023-02-06,株式会社ＫＡＤ,,株式会社,広島県,広島市西区,三篠町１丁目１－１２－２０３号,,34,104,7330003,,,,,,,2023-02-06,1,,,,,ケーエーディー,0
898,3240001061064,新規,0,2023-02-06,2023-02-06,株式会社Ｒｅｃｏｖｅｒｙ,,株式会社,広島県,広島市安佐南区,西原８丁目３番４４－１－１０２号,,34,105,7310113,,,,,,,2023-02-06,1,,,,,リカバリー,0
902,3250003003220,新規,0,2023-02-06,2023-02-06,合同会社クレイン,,合同会社,山口県,山口市,道場門前１丁目２番２２号,,35,203,7530047,,,,,,,2023-02-06,1,,,,,クレイン,0
910,3280001008879,新規,0,2023-02-06,2023-02-06,株式会社ビックウエスト,,株式会社,島根県,松江市,東津田町１３２５番地８８,,32,201,6900011,,,,,,,2023-02-06,1,,,,,ビックウエスト,0
917,3290001100486,新規,0,2023-02-06,2023-02-06,株式会社大福屋,,株式会社,福岡県,太宰府市,水城１丁目２１番１０号１Ｆ,,40,221,8180131,,,,,,,2023-02-06,1,,,,,ダイフクヤ,0
921,3290003013505,新規,0,2023-02-06,2023-02-06,合同会社ＩＣＮ,,合同会社,福岡県,糸島市,二丈福井４０８番地１,,40,230,8191631,,,,,,,2023-02-06,1,,,,,アイシーエヌ,0
928,3320003004013,新規,0,2023-02-06,2023-02-06,合同会社ｅ‐ｐｌａｎアシスト,,合同会社,大分県,大分市,東大道１丁目１１番１号,,44,201,8700823,,,,,,,2023-02-06,1,,,,,イープランアシスト,0
934,3360001031534,新規,0,2023-02-06,2023-02-06,株式会社スリー,,株式会社,沖縄県,那覇市,牧志２丁目１７番１０号,,47,201,9000013,,,,,,,2023-02-06,1,,,,,スリー,0
935,3360003012697,新規,0,2023-02-06,2023-02-06,合同会社Ｎシステム,,合同会社,沖縄県,糸満市,字糸満１５２２番地１,,47,210,9010361,,,,,,,2023-02-06,1,,,,,エヌシステム,0
941,3380001033454,新規,0,2023-02-06,2023-02-06,株式会社池田屋,,株式会社,福島県,いわき市,好間町下好間字一町坪２４番地の７,,07,204,9701151,,,,,,,2023-02-06,1,,,,,イケダヤ,0
956,3430001088352,新規,0,2023-02-06,2023-02-06,株式会社ＬＯＯＰ,,株式会社,北海道,札幌市中央区,北五条東２丁目６番地ザ・サッポロレジデンス１４０５号,,01,101,0600035,,,,,,,2023-02-06,1,,,,,ループ,0
957,3430001088393,新規,0,2023-02-06,2023-02-06,株式会社石狩丸庄水産,,株式会社,北海道,石狩市,花川南七条３丁目２５１番地,,01,235,0613207,,,,,,,2023-02-06,1,,,,,イシカリマルショウスイサン,0
960,3430003014711,新規,0,2023-02-06,2023-02-06,合同会社ナカシン,,合同会社,北海道,札幌市白石区,南郷通１５丁目北８番１１号清水マンション１号,,01,104,0030023,,,,,,,2023-02-06,1,,,,,ナカシン,0
974,3500001024754,新規,0,2023-02-06,2023-02-06,株式会社医療ビューティークリニック,,株式会社,愛媛県,松山市,勝岡町２５６３番地２,,38,201,7992661,,,,,,,2023-02-06,1,,,,,イリョウビューティークリニック,0
975,3500003002972,新規,0,2023-02-06,2023-02-06,合同会社海風ファーム,,合同会社,愛媛県,宇和島市,津島町田之浜１７１３番地,,38,203,7983357,,,,,,,2023-02-06,1,,,,,ウミカゼファーム,0
979,4010001232736,新規,0,2023-02-06,2023-02-06,株式会社エイバル,,株式会社,東京都,中央区,銀座１丁目２２番１１号銀座大竹ビジデンス２Ｆ,,13,102,1040061,,,,,,,2023-02-06,1,,,,,エイバル,0
980,4010001232752,新規,0,2023-02-06,2023-02-06,株式会社ＫＭ開発,,株式会社,東京都,中央区,日本橋小舟町６番１６号,,13,102,1030024,,,,,,,2023-02-06,1,,,,,ケイエムカイハツ,0
1006,4010501049977,新規,0,2023-02-06,2023-02-06,ユタカ彫刻株式会社,,株式会社,東京都,台東区,小島１丁目１８番３号,,13,106,1110056,,,,,,,2023-02-06,1,,,,,ユタカチョウコク,0
1015,4010605004168,新規,0,2023-02-06,2023-02-06,一般社団法人アジア自動車ラリー,,その他の設立登記法人,東京都,墨田区,墨田２丁目４１番１８号,,13,107,1310031,,,,,,,2023-02-06,1,,,,,アジアジドウシャラリー,0
1027,4010903007954,新規,0,2023-02-06,2023-02-06,Ｊｏｙ　ｗｉｔｈ　Ｐａｗｓ合同会社,,合同会社,東京都,世田谷区,駒沢３丁目２４番６号,,13,112,1540012,,,,,,,2023-02-06,1,,,,,ジョイウィズポーズ,0
1030,4011001152395,新規,0,2023-02-06,2023-02-06,バックライン東京株式会社,,株式会社,東京都,渋谷区,道玄坂１丁目１０番８号渋谷道玄坂東急ビル２Ｆ－Ｃ,,13,113,1500043,,,,,,,2023-02-06,1,,,,,バックライントウキョウ,0
1031,4011001152437,新規,0,2023-02-06,2023-02-06,株式会社Ｋａｎａｋａｎａ,,株式会社,東京都,渋谷区,道玄坂１丁目１０番８号渋谷道玄坂東急ビル２Ｆ－Ｃ,,13,113,1500043,,,,,,,2023-02-06,1,,,,,カナカナ,0
1032,4011001152445,新規,0,2023-02-06,2023-02-06,株式会社オースピシャス渋谷,,株式会社,東京都,渋谷区,東２丁目２２番１４号,,13,113,1500011,,,,,,,2023-02-06,1,,,,,オースピシャスシブヤ,0
1033,4011001152453,新規,0,2023-02-06,2023-02-06,Ｌｅｖｅｌｅｒ株式会社,,株式会社,東京都,渋谷区,道玄坂１丁目１０番８号渋谷道玄坂東急ビル２Ｆ－Ｃ,,13,113,1500043,,,,,,,2023-02-06,1,,,,,レベラー,0
1037,4011101101748,新規,0,2023-02-06,2023-02-06,株式会社Ｓａｋａｂａ　Ｗｏｒｌｄ,,株式会社,東京都,新宿区,新小川町１番１４号リープレックスビズ２階,,13,104,1620814,,,,,,,2023-02-06,1,,,,,サカバワールド,0
1039,4011105010540,新規,0,2023-02-06,2023-02-06,一般社団法人アルモ会,,その他の設立登記法人,東京都,新宿区,神楽坂６丁目６４番地、雅庵神楽坂９０２号室,,13,104,1620825,,,,,,,2023-02-06,1,,,,,アルモカイ,0
1040,4011301028436,新規,0,2023-02-06,2023-02-06,株式会社ヒサエ,,株式会社,東京都,杉並区,荻窪３丁目２１番１５号,,13,115,1670051,,,,,,,2023-02-06,1,,,,,ヒサエ,0
1047,4011601026560,新規,0,2023-02-06,2023-02-06,株式会社コスモス．Ｒ,,株式会社,東京都,練馬区,大泉学園町４丁目２７番１５－１０２号,,13,120,1780061,,,,,,,2023-02-06,1,,,,,コスモスドットアール,0
1050,4011801041888,新規,0,2023-02-06,2023-02-06,株式会社リード・インターナショナル,,株式会社,東京都,葛飾区,堀切４丁目２２番４号,,13,122,1240006,,,,,,,2023-02-06,1,,,,,リードインターナショナル,0
1053,4012401040149,新規,0,2023-02-06,2023-02-06,株式会社ＨＡＫＡＴＯＭＯ,,株式会社,東京都,三鷹市,下連雀５丁目３番１－２２５号,,13,204,1810013,,,,,,,2023-02-06,1,,,,,ハカトモ,0
1054,4012401040157,新規,0,2023-02-06,2023-02-06,株式会社オーセンティック東京,,株式会社,東京都,調布市,飛田給１丁目５番地１サニーコート調布飛田給５０４,,13,208,1820036,,,,,,,2023-02-06,1,,,,,オーセンティックトウキョウ,0
1055,4012701017466,新規,0,2023-02-06,2023-02-06,株式会社ルームクラフト,,株式会社,東京都,西東京市,保谷町６丁目１５番２２号,,13,229,2020015,,,,,,,2023-02-06,1,,,,,ルームクラフト,0
1057,4012703002631,新規,0,2023-02-06,2023-02-06,Ｇｌｕｖ合同会社,,合同会社,東京都,小平市,学園西町１丁目１１番１６号,,13,211,1870045,,,,,,,2023-02-06,1,,,,,ジラブ,0
1061,4013301050279,新規,0,2023-02-06,2023-02-06,株式会社ＩＳＢプラス,,株式会社,東京都,豊島区,東池袋１丁目１７番１１号パークハイツ池袋１１０５,,13,116,1700013,,,,,,,2023-02-06,1,,,,,アイエスビープラス,0
1062,4013301050287,新規,0,2023-02-06,2023-02-06,株式会社金盛商事,,株式会社,東京都,豊島区,西池袋５丁目１７番４号,,13,116,1710021,,,,,,,2023-02-06,1,,,,,カナモリショウジ,0
1068,4020001150078,新規,0,2023-02-06,2023-02-06,株式会社カワサキシステム,,株式会社,神奈川県,川崎市幸区,大宮町１５番地１,,14,132,2120014,,,,,,,2023-02-06,1,,,,,カワサキシステム,0
1069,4020001150094,新規,0,2023-02-06,2023-02-06,株式会社アイウイズロボティクス,,株式会社,神奈川県,横浜市鶴見区,市場富士見町１番２１号,,14,101,2300026,,,,,,,2023-02-06,1,,,,,アイウイズロボティクス,0
1070,4020001150111,新規,0,2023-02-06,2023-02-06,株式会社翼設備,,株式会社,神奈川県,川崎市多摩区,菅３丁目８番２５号ターフヴィレッジＡ,,14,135,2140001,,,,,,,2023-02-06,1,,,,,ツバサセツビ,0
1071,4020001150136,新規,0,2023-02-06,2023-02-06,ＬＥ工業株式会社,,株式会社,神奈川県,横浜市南区,日枝町２丁目４７番地６クレアール吉野町３０１号室,,14,105,2320011,,,,,,,2023-02-06,1,,,,,エルイーコウギョウ,0
1072,4020001150152,新規,0,2023-02-06,2023-02-06,株式会社Ｆｒｅｅｄｏｍ　Ｆｒｅａｋｓ,,株式会社,神奈川県,横浜市港北区,日吉１丁目２５番１１号,,14,109,2230061,,,,,,,2023-02-06,1,,,,,フリーダムフリークス,0
1073,4020001150160,新規,0,2023-02-06,2023-02-06,株式会社プレアデス,,株式会社,神奈川県,横浜市南区,庚台２２番地,,14,105,2320008,,,,,,,2023-02-06,1,,,,,プレアデス,0
1078,4020003023224,新規,0,2023-02-06,2023-02-06,Ｙｅｌｌｏｗ　Ｔｉａｒａ合同会社,,合同会社,神奈川県,横浜市緑区,いぶき野２７－１５ヴィラいぶき野２０４,,14,113,2260028,,,,,,,2023-02-06,1,,,,,イエローティアラ,0
1079,4020003023232,新規,0,2023-02-06,2023-02-06,合同会社山恒宮,,合同会社,神奈川県,横浜市中区,山下町１４６番地２号,,14,104,2310023,,,,,,,2023-02-06,1,,,,,サンコウキュー,0
1080,4020003023249,新規,0,2023-02-06,2023-02-06,ヒラデン合同会社,,合同会社,神奈川県,横浜市緑区,長津田町２６４０,,14,113,2260026,,,,,,,2023-02-06,1,,,,,ヒラデン,0
1081,4020003023257,新規,0,2023-02-06,2023-02-06,ＥＮＩＡＣ合同会社,,合同会社,神奈川県,横浜市都筑区,中川中央１丁目２４－６センター北ＹＳビル４０１,,14,118,2240003,,,,,,,2023-02-06,1,,,,,エニアック,0
1087,4021001078004,新規,0,2023-02-06,2023-02-06,株式会社ＦＵＪＩ,,株式会社,神奈川県,相模原市南区,相模台６丁目１２番１３号サンステージ相模台第二２０１,,14,153,2520321,,,,,,,2023-02-06,1,,,,,フジ,0
1088,4021001078136,新規,0,2023-02-06,2023-02-06,坂本不動産管理株式会社,,株式会社,神奈川県,藤沢市,鵠沼石上１丁目７番８号ビックライズビル５Ｆ,,14,205,2510025,,,,,,,2023-02-06,1,,,,,サカモトフドウサンカンリ,0
1089,4021001078144,新規,0,2023-02-06,2023-02-06,株式会社アフリクション,,株式会社,神奈川県,南足柄市,塚原８６０番地９,,14,217,2500117,,,,,,,2023-02-06,1,,,,,アフリクション,0
1090,4021001078160,新規,0,2023-02-06,2023-02-06,株式会社タウンアップ,,株式会社,神奈川県,藤沢市,鵠沼藤が谷２丁目８番１４号,,14,205,2510031,,,,,,,2023-02-06,1,,,,,タウンアップ,0
1100,4030001152214,新規,0,2023-02-06,2023-02-06,株式会社オレンジスペック,,株式会社,埼玉県,川口市,大字里１１８７番地の２３,,11,203,3340005,,,,,,,2023-02-06,1,,,,,オレンジスペック,0
1101,4030001152222,新規,0,2023-02-06,2023-02-06,株式会社Ｋホーム,,株式会社,埼玉県,上尾市,緑丘４丁目３番２号ベルーフ緑丘２０１,,11,219,3620015,,,,,,,2023-02-06,1,,,,,ケーホーム,0
1102,4030001152230,新規,0,2023-02-06,2023-02-06,株式会社ファルコン,,株式会社,埼玉県,川口市,上青木５丁目１４番１５号,,11,203,3330844,,,,,,,2023-02-06,1,,,,,ファルコン,0
1103,4030001152239,新規,0,2023-02-06,2023-02-06,株式会社レクスト,,株式会社,埼玉県,児玉郡上里町,大字七本木３６５８番地２,,11,385,3690306,,,,,,,2023-02-06,1,,,,,レクスト,0
1104,4030001152255,新規,0,2023-02-06,2023-02-06,キワ中古品株式会社,,株式会社,埼玉県,春日部市,道口蛭田１７５番地の８,,11,214,3440045,,,,,,,2023-02-06,1,,,,,キワチュウコヒン,0
1105,4030001152288,新規,0,2023-02-06,2023-02-06,株式会社ｏｎｅ　ｔｅａｍ,,株式会社,埼玉県,さいたま市北区,植竹町１丁目５４１－３０１,,11,102,3310813,,,,,,,2023-02-06,1,,,,,ワンチーム,0
1108,4030003021094,新規,0,2023-02-06,2023-02-06,ＡＲＩ合同会社,,合同会社,埼玉県,さいたま市大宮区,北袋町１丁目３２８番地２メリービル２Ｆ,,11,103,3300835,,,,,,,2023-02-06,1,,,,,エーアールアイ,0
1112,4040001126902,新規,0,2023-02-06,2023-02-06,株式会社ＮＯＢＬＥ,,株式会社,千葉県,木更津市,ほたる野４丁目３５番地３,,12,206,2920038,,,,,,,2023-02-06,1,,,,,ノーブル,0
1113,4040001126951,新規,0,2023-02-06,2023-02-06,株式会社日本プラント管理,,株式会社,千葉県,柏市,しいの木台４丁目１１番地１４,,12,217,2770945,,,,,,,2023-02-06,1,,,,,ニホンプラントカンリ,0
1114,4040001126968,新規,0,2023-02-06,2023-02-06,にわーず株式会社,,株式会社,千葉県,流山市,大字東深井１１０６番地５６,,12,220,2700101,,,,,,,2023-02-06,1,,,,,ニワーズ,0
1115,4040001126984,新規,0,2023-02-06,2023-02-06,株式会社こばでん,,株式会社,千葉県,松戸市,幸田２丁目１６９,,12,207,2700001,,,,,,,2023-02-06,1,,,,,コバデン,0
1119,4040003021861,新規,0,2023-02-06,2023-02-06,第十二日本ソーラー電力合同会社,,合同会社,千葉県,千葉市中央区,富士見１丁目１４番１３号千葉大栄ビル８階,,12,101,2600015,,,,,,,2023-02-06,1,,,,,ダイジュウニニホンソーラーデンリョク,0
1120,4050005013204,新規,0,2023-02-06,2023-02-06,一般社団法人Ｅ‐ＣＲＥＡＴＩＯＮ,,その他の設立登記法人,茨城県,水戸市,宮町１丁目２番４号ＭＹＭビル３階ＢＩＺｃｏｍｆｏｒｔ水戸,,08,201,3100015,,,,,,,2023-02-06,1,,,,,イークリエイション,0
1123,4060001035663,新規,0,2023-02-06,2023-02-06,株式会社寿栄,,株式会社,栃木県,下野市,川中子１１７２番地１６ＹＳハイツ１０２号室,,09,216,3290415,,,,,,,2023-02-06,1,,,,,コトエイ,0
1124,4060003004402,新規,0,2023-02-06,2023-02-06,合同会社キッズアシスト,,合同会社,栃木県,那須塩原市,鍋掛１０８７番地１２８４,,09,213,3250013,,,,,,,2023-02-06,1,,,,,キッズアシスト,0
1126,4070001040084,新規,0,2023-02-06,2023-02-06,株式会社ＲＡＹＡＮ　ＪＡＰＡＮ　ＴＲＡＤＩＮＧ,,株式会社,群馬県,伊勢崎市,平和町１８番１６号ヴィラコーポ・ヤナイ１０６,,10,204,3720041,,,,,,,2023-02-06,1,,,,,ラヤンジャパントレーディング,0
1128,4080103002741,新規,0,2023-02-06,2023-02-06,ノイエ合同会社,,合同会社,静岡県,伊豆の国市,奈古谷２２１２番地の１９４,,22,225,4102132,,,,,,,2023-02-06,1,,,,,ノイエ,0
1132,4100001036104,新規,0,2023-02-06,2023-02-06,株式会社ライジングサン,,株式会社,長野県,長野市,差出南２丁目２３１５番地３,,20,201,3800948,,,,,,,2023-02-06,1,,,,,ライジングサン,0
1133,4100001036112,新規,0,2023-02-06,2023-02-06,株式会社ＫｉｔｃｈｅｎＺ,,株式会社,長野県,長野市,川中島町原１３０９番地１,,20,201,3812224,,,,,,,2023-02-06,1,,,,,キッチンゼット,0
1136,4100005012968,新規,0,2023-02-06,2023-02-06,ＩＪＡ協同組合,,その他の設立登記法人,長野県,佐久市,志賀５６６４番地２,,20,217,3850006,,,,,,,2023-02-06,1,,,,,アイジェイエー,0
1152,4120001252244,新規,0,2023-02-06,2023-02-06,株式会社アールユー,,株式会社,大阪府,大阪市生野区,小路東４丁目１５番１９号,,27,116,5440003,,,,,,,2023-02-06,1,,,,,アールユー,0
1153,4120001252260,新規,0,2023-02-06,2023-02-06,メディア総研イノベーションズ株式会社,,株式会社,大阪府,大阪市西区,立売堀１丁目３番１１号,,27,106,5500012,,,,,,,2023-02-06,1,,,,,メディアソウケンイノベーションズ,0
1154,4120001252310,新規,0,2023-02-06,2023-02-06,株式会社天花,,株式会社,大阪府,大阪市城東区,鴫野西２丁目１０－１２レイジュビル２階,,27,118,5360014,,,,,,,2023-02-06,1,,,,,テンカ,0
1157,4120005023451,新規,0,2023-02-06,2023-02-06,ゆみりか社会保険労務士法人,,その他の設立登記法人,大阪府,大阪市西淀川区,御幣島４丁目８番１１号１階,,27,113,5550012,,,,,,,2023-02-06,1,,,,,ユミリカ,0
1159,4120101066924,新規,0,2023-02-06,2023-02-06,株式会社Ｆｕｔｕｒｅ　Ｄｕｃｔ,,株式会社,大阪府,富田林市,楠風台２丁目７番４号,,27,214,5840051,,,,,,,2023-02-06,1,,,,,フュチャーダクト,0
1163,4120901047082,新規,0,2023-02-06,2023-02-06,株式会社マックストラベル,,株式会社,大阪府,高槻市,柱本５丁目３０番２１号,,27,207,5690844,,,,,,,2023-02-06,1,,,,,マックストラベル,0
1165,4122005003664,新規,0,2023-02-06,2023-02-06,一般社団法人八尾市住宅開発協議会,,その他の設立登記法人,大阪府,八尾市,桜ヶ丘２丁目６５番地,,27,212,5810869,,,,,,,2023-02-06,1,,,,,ヤオシジュウタクカイハツキョウギカイ,0
1171,4140003018682,新規,0,2023-02-06,2023-02-06,合同会社オサム電工,,合同会社,兵庫県,淡路市,多賀１１３５番地１,,28,226,6561521,,,,,,,2023-02-06,1,,,,,オサムデンコウ,0
1179,4170003001834,新規,0,2023-02-06,2023-02-06,合同会社ｅｂｉｓ,,合同会社,和歌山県,和歌山市,大谷８４５番地８,,30,201,6408472,,,,,,,2023-02-06,1,,,,,エビス,0
1184,4180001154757,新規,0,2023-02-06,2023-02-06,坂井ホールディングス株式会社,,株式会社,愛知県,一宮市,祐久字南野黒２０番地,,23,203,4940017,,,,,,,2023-02-06,1,,,,,サカイホールディングス,0
1185,4180001154831,新規,0,2023-02-06,2023-02-06,株式会社Ｙ’ｓクリエイト,,株式会社,愛知県,名古屋市名東区,高針台３丁目１０２８番地,,23,115,4650054,,,,,,,2023-02-06,1,,,,,ワイズクリエイト,0
1186,4180001154856,新規,0,2023-02-06,2023-02-06,ヒロコーポレーション株式会社,,株式会社,愛知県,名古屋市中区,千代田５丁目１７番１９号,,23,106,4600012,,,,,,,2023-02-06,1,,,,,ヒロコーポレーション,0
1187,4180001154864,新規,0,2023-02-06,2023-02-06,ＣＥＮＴＥＣＨ株式会社,,株式会社,愛知県,名古屋市東区,泉１丁目１番３０号（ＢＰＲレジデンス久屋大通公園１１０６号）,,23,102,4610001,,,,,,,2023-02-06,1,,,,,センテック,0
1188,4180001154889,新規,0,2023-02-06,2023-02-06,株式会社Ｌｉｖｅ　Ｈｏｍｅ,,株式会社,愛知県,西春日井郡豊山町,大字豊場字伊勢山２３５番地,,23,342,4800202,,,,,,,2023-02-06,1,,,,,ライブホーム,0
1192,4180003024818,新規,0,2023-02-06,2023-02-06,合同会社エヌスタイル,,合同会社,愛知県,名古屋市東区,泉３丁目４番１５号グランツ泉６０３,,23,102,4610001,,,,,,,2023-02-06,1,,,,,エヌスタイル,0
1198,4190001030156,新規,0,2023-02-06,2023-02-06,株式会社ナシュデザイン,,株式会社,三重県,伊勢市,小俣町本町９０３番地１Ａ２０１,,24,203,5190505,,,,,,,2023-02-06,1,,,,,ナシュデザイン,0
1202,4200003005831,新規,0,2023-02-06,2023-02-06,合同会社大鳥羽,,合同会社,岐阜県,岐阜市,岩田坂４丁目１２番８号２階,,21,201,5013155,,,,,,,2023-02-06,1,,,,,オオトバ,0
1209,4230003001968,新規,0,2023-02-06,2023-02-06,合同会社アシュクナ,,合同会社,富山県,富山市,清風町１１６番地,,16,201,9318409,,,,,,,2023-02-06,1,,,,,アシュクナ,0
1213,4240001061014,新規,0,2023-02-06,2023-02-06,株式会社ＳＡＮＳＨＩＮ,,株式会社,広島県,呉市,安浦町内海南４丁目１番１０号,,34,202,7372519,,,,,,,2023-02-06,1,,,,,サンシン,0
1222,4270001008722,新規,0,2023-02-06,2023-02-06,株式会社Ｃｕｌｅ,,株式会社,鳥取県,鳥取市,青谷町奥崎６５番地,,31,201,6890519,,,,,,,2023-02-06,1,,,,,キュール,0
1232,4290001100502,新規,0,2023-02-06,2023-02-06,株式会社五識,,株式会社,福岡県,糟屋郡須惠町,大字須惠１０２５番地１,,40,344,8112113,,,,,,,2023-02-06,1,,,,,ゴシキ,0
1240,4290801029255,新規,0,2023-02-06,2023-02-06,株式会社プラットフォーム,,株式会社,福岡県,直方市,大字感田３５５０番地４,,40,204,8220001,,,,,,,2023-02-06,1,,,,,プラットフォーム,0
1248,4320003004012,新規,0,2023-02-06,2023-02-06,合同会社ｅｓｃａ,,合同会社,大分県,別府市,大字内竈１６９番地３,,44,202,8740011,,,,,,,2023-02-06,1,,,,,エスカ,0
1249,4330001030562,新規,0,2023-02-06,2023-02-06,Ｅｔｅｒｎａｌ　Ｌｉｇｈｔ株式会社,,株式会社,熊本県,熊本市中央区,水前寺１丁目１８番３号ダイコー水前寺ＩＩＩ４０２,00129343,43,101,8620950,,,,,,,2023-02-06,1,,,,,エターナルライト,0
1250,4330001030570,新規,0,2023-02-06,2023-02-06,ＪＯＥ株式会社,,株式会社,熊本県,山鹿市,山鹿１５５番地８セリーヌ壱番館１０５,,43,208,8610501,,,,,,,2023-02-06,1,,,,,ジョー,0
1253,4330003009712,新規,0,2023-02-06,2023-02-06,合同会社蘇,,合同会社,熊本県,菊池郡大津町,大字室２４７番地１１,,43,403,8691235,,,,,,,2023-02-06,1,,,,,ソ,0
1254,4340001025355,新規,0,2023-02-06,2023-02-06,株式会社Ｋｉｎｄ　Ｃｕｂｅ,,株式会社,鹿児島県,鹿児島市,春山町１０４３番地１５,,46,201,8992704,,,,,,,2023-02-06,1,,,,,カインドキューブ,0
1259,4360001031533,新規,0,2023-02-06,2023-02-06,株式会社プラスワン,,株式会社,沖縄県,豊見城市,字翁長８４３番地２６,,47,212,9010223,,,,,,,2023-02-06,1,,,,,プラスワン,0
1267,4410001013385,新規,0,2023-02-06,2023-02-06,株式会社プレイフル,,株式会社,秋田県,横手市,平鹿町浅舞字覚町後２３６番地５,,05,203,0130105,,,,,,,2023-02-06,1,,,,,プレイフル,0
1275,4430001088343,新規,0,2023-02-06,2023-02-06,株式会社Ｊファーム苫小牧,,株式会社,北海道,札幌市中央区,北一条西３丁目２番地,,01,101,0600001,,,,,,,2023-02-06,1,,,,,ジェイファームトマコマイ,0
1276,4430001088376,新規,0,2023-02-06,2023-02-06,株式会社石田農場,,株式会社,北海道,岩内郡共和町,発足６９５番地２,,01,401,0450122,,,,,,,2023-02-06,1,,,,,イシダノウジョウ,0
1277,4430001088384,新規,0,2023-02-06,2023-02-06,株式会社ＯＡＲＫ,,株式会社,北海道,札幌市北区,屯田八条２丁目４－２４,,01,102,0020858,,,,,,,2023-02-06,1,,,,,オーク,0
1278,4430003014710,新規,0,2023-02-06,2023-02-06,合同会社ｎｅｏ　ｒｅｌａｔｉｏｎ,,合同会社,北海道,札幌市東区,北四十二条東６丁目２－２６,,01,103,0070842,,,,,,,2023-02-06,1,,,,,ネオリレーション,0
1281,4450005004360,新規,0,2023-02-06,2023-02-06,ＮＰＯ法人ａｓａｔａｎサポート,,その他の設立登記法人,北海道,旭川市,永山町２丁目１２０番地３１,,01,204,0798431,,,,,,,2023-02-06,1,,,,,アサタンサポート,0
1291,5010001232719,新規,0,2023-02-06,2023-02-06,株式会社リアルフォース,,株式会社,東京都,千代田区,丸の内１丁目８番２号鉄鋼ビルディング,,13,101,1000005,,,,,,,2023-02-06,1,,,,,リアルフォース,0
1292,5010001232743,新規,0,2023-02-06,2023-02-06,Ｆｕｔｕｒｅ　ｔｅｃｈｎｏｌｏｇｉｅｓ株式会社,,株式会社,東京都,中央区,銀座２丁目１０番１８号,,13,102,1040061,,,,,,,2023-02-06,1,,,,,フューチャーテクノロジーズ,0
1294,5010003039773,新規,0,2023-02-06,2023-02-06,ＲＢソーラーククイ合同会社,,合同会社,東京都,千代田区,麹町２丁目８番地ＭＬＣ麹町ビル４階フィンポート税理士法人内,,13,101,1020083,,,,,,,2023-02-06,1,,,,,アールビーソーラーククイ,0
1295,5010005036224,新規,0,2023-02-06,2023-02-06,ＲＢソーラーミサゴ一般社団法人,,その他の設立登記法人,東京都,千代田区,麹町２丁目８番地ＭＬＣ麹町ビル４階フィンポート税理士法人内,,13,101,1020083,,,,,,,2023-02-06,1,,,,,アールビーソーラーミサゴ,0
1301,5010401172291,新規,0,2023-02-06,2023-02-06,株式会社ベルダ出版,,株式会社,東京都,港区,麻布台３丁目４番１１号,,13,103,1060041,,,,,,,2023-02-06,1,,,,,ベルダシュッパン,0
1302,5010401172317,新規,0,2023-02-06,2023-02-06,Ｑ．Ｎ．Ｓ株式会社,,株式会社,東京都,港区,南青山４丁目１７番１３号２０２室,,13,103,1070062,,,,,,,2023-02-06,1,,,,,キューエヌエス,0
1304,5010403029440,新規,0,2023-02-06,2023-02-06,Ｉｎｄｕｓ合同会社,,合同会社,東京都,港区,南青山７丁目２番１０－６０１号,,13,103,1070062,,,,,,,2023-02-06,1,,,,,インダス,0
1305,5010403029457,新規,0,2023-02-06,2023-02-06,合同会社Ｈａｃｏ,,合同会社,東京都,港区,高輪２丁目１番１３－４０８号,,13,103,1080074,,,,,,,2023-02-06,1,,,,,ハコ,0
1309,5010601062524,新規,0,2023-02-06,2023-02-06,ＴＩＫホールディングス株式会社,,株式会社,東京都,墨田区,太平４丁目１８番３号,,13,107,1300012,,,,,,,2023-02-06,1,,,,,ティーアイケーホールディングス,0
1310,5010601062540,新規,0,2023-02-06,2023-02-06,株式会社健一商事,,株式会社,東京都,墨田区,立川３丁目１２番７－１０２号室,,13,107,1300023,,,,,,,2023-02-06,1,,,,,ケンイチショウジ,0
1311,5010601062549,新規,0,2023-02-06,2023-02-06,株式会社リンクプラス,,株式会社,東京都,江東区,猿江２丁目５番９号,,13,108,1350003,,,,,,,2023-02-06,1,,,,,リンクプラス,0
1313,5010603009985,新規,0,2023-02-06,2023-02-06,合同会社ごけんぼりスタジオ,,合同会社,東京都,墨田区,菊川１丁目１番４号ルナ・ドミール１Ｆ,,13,107,1300024,,,,,,,2023-02-06,1,,,,,ゴケンボリスタジオ,0
1318,5010801033655,新規,0,2023-02-06,2023-02-06,株式会社ＪＳＫ,,株式会社,東京都,大田区,大森北１丁目１１番１１号,,13,111,1430016,,,,,,,2023-02-06,1,,,,,ジェイエスケイ,0
1319,5010901052472,新規,0,2023-02-06,2023-02-06,株式会社Ｓｐｏｒｔｉａ,,株式会社,東京都,世田谷区,砧７丁目１８番２６号,,13,112,1570073,,,,,,,2023-02-06,1,,,,,スポーティア,0
1329,5011001152246,新規,0,2023-02-06,2023-02-06,株式会社ゴービヨンド,,株式会社,東京都,渋谷区,渋谷３丁目１３－５,,13,113,1500002,,,,,,,2023-02-06,1,,,,,ゴービヨンド,0
1330,5011001152411,新規,0,2023-02-06,2023-02-06,株式会社００００００,,株式会社,東京都,渋谷区,神南１丁目１１番３号ＰＯＲＴＡＬＰＯＩＮＴＳＨＩＢＵＹＡ２階,,13,113,1500041,,,,,,,2023-02-06,1,,,,,ブラック,0
1331,5011003016201,新規,0,2023-02-06,2023-02-06,合同会社フローワンセブン,,合同会社,東京都,目黒区,目黒本町５丁目２６番１５号ベルボワ－ル１０２,,13,110,1520002,,,,,,,2023-02-06,1,,,,,フローワンセブン,0
1332,5011003016226,新規,0,2023-02-06,2023-02-06,合同会社ＬＡＭＰ,,合同会社,東京都,渋谷区,上原１丁目３番９号,,13,113,1510064,,,,,,,2023-02-06,1,,,,,ランプ,0
1348,5011601026568,新規,0,2023-02-06,2023-02-06,株式会社ライフサポートエージェンシー,,株式会社,東京都,練馬区,春日町６丁目１１番４１号エクセルハイム２０７,,13,120,1790074,,,,,,,2023-02-06,1,,,,,ライフサポートエージェンシー,0
1355,5011801041887,新規,0,2023-02-06,2023-02-06,ＮＡＧＡＴＡ株式会社,,株式会社,東京都,葛飾区,立石２丁目２４番１３号,,13,122,1240012,,,,,,,2023-02-06,1,,,,,ナガタ,0
1360,5012401040148,新規,0,2023-02-06,2023-02-06,侍レスキュー株式会社,,株式会社,東京都,調布市,柴崎２丁目７番地１、１－３０９,,13,208,1820014,,,,,,,2023-02-06,1,,,,,サムライレスキュー,0
1361,5012403005801,新規,0,2023-02-06,2023-02-06,ＧＬＯＢＡＬ　ＳＨＡＲＥＳ合同会社,,合同会社,東京都,調布市,下石原１丁目１０番地１１,,13,208,1820034,,,,,,,2023-02-06,1,,,,,グローバルシェアーズ,0
1363,5013103001207,新規,0,2023-02-06,2023-02-06,合同会社Ｇ１３,,合同会社,東京都,福生市,大字熊川５９３番地１クレストコート３０３号室,,13,218,1970003,,,,,,,2023-02-06,1,,,,,ジーサーティーン,0
1367,5013301050278,新規,0,2023-02-06,2023-02-06,株式会社ワラビーネット,,株式会社,東京都,豊島区,東池袋１丁目１７番１１号パークハイツ池袋１１０５,,13,116,1700013,,,,,,,2023-02-06,1,,,,,ワラビーネット,0
1368,5013301050286,新規,0,2023-02-06,2023-02-06,株式会社プシュカル,,株式会社,東京都,豊島区,南大塚３丁目２番１０号林ビル２Ｆ,,13,116,1700005,,,,,,,2023-02-06,1,,,,,プシュカル,0
1377,5020001150052,新規,0,2023-02-06,2023-02-06,エステック株式会社,,株式会社,神奈川県,横浜市瀬谷区,瀬谷２丁目３７番地の１０,,14,114,2460031,,,,,,,2023-02-06,1,,,,,エステック,0
1378,5020001150093,新規,0,2023-02-06,2023-02-06,株式会社エースアンドクリエイト,,株式会社,神奈川県,川崎市多摩区,登戸２０９３番地,,14,135,2140014,,,,,,,2023-02-06,1,,,,,エースアンドクリエイト,0
1379,5020001150102,新規,0,2023-02-06,2023-02-06,株式会社フローレス,,株式会社,神奈川県,横浜市都筑区,仲町台３丁目１２番４号,,14,118,2240041,,,,,,,2023-02-06,1,,,,,フローレス,0
1380,5020001150119,新規,0,2023-02-06,2023-02-06,ＢＥＴＴＥＲ　ＨＯＭＥ株式会社,,株式会社,神奈川県,川崎市川崎区,京町２丁目２４番６－１５０５号,,14,131,2100848,,,,,,,2023-02-06,1,,,,,ベターホーム,0
1381,5020001150135,新規,0,2023-02-06,2023-02-06,サベージ株式会社,,株式会社,神奈川県,横浜市泉区,領家１丁目３番地２,,14,116,2450004,,,,,,,2023-02-06,1,,,,,サベージ,0
1386,5020003023256,新規,0,2023-02-06,2023-02-06,ハレトアメ合同会社,,合同会社,神奈川県,横浜市南区,共進町３丁目６８番地,,14,105,2320015,,,,,,,2023-02-06,1,,,,,ハレトアメ,0
1390,5021001078110,新規,0,2023-02-06,2023-02-06,株式会社ＮＥＸＴ　ＩＮＮＯＶＡＴＩＯＮ,,株式会社,神奈川県,横須賀市,坂本町３丁目１７番地７７,,14,201,2380043,,,,,,,2023-02-06,1,,,,,ネクストイノベーション,0
1391,5021001078119,新規,0,2023-02-06,2023-02-06,株式会社Ｇｅｎｕｉｎｅ,,株式会社,神奈川県,小田原市,久野２２２３番地の６,,14,206,2500055,,,,,,,2023-02-06,1,,,,,ジェニュイン,0
1392,5021001078135,新規,0,2023-02-06,2023-02-06,株式会社カーボルブ,,株式会社,神奈川県,藤沢市,湘南台１丁目１０番地の１藤沢湘南台駅前分譲共同ビル９１１号,,14,205,2520804,,,,,,,2023-02-06,1,,,,,カーボルブ,0
1394,5021003012711,新規,0,2023-02-06,2023-02-06,Ｒｏａｂ合同会社,,合同会社,神奈川県,鎌倉市,西鎌倉２丁目８番２５号,,14,204,2480035,,,,,,,2023-02-06,1,,,,,ロアブ,0
1399,5030001152213,新規,0,2023-02-06,2023-02-06,株式会社ＬｉｂｅｒＴ,,株式会社,埼玉県,所沢市,くすのき台１丁目１３番地の２,,11,208,3590037,,,,,,,2023-02-06,1,,,,,リバティー,0
1400,5030001152254,新規,0,2023-02-06,2023-02-06,株式会社Ｈｏｐ’ｓ,,株式会社,埼玉県,吉川市,栄町１４２２番地１,,11,243,3420050,,,,,,,2023-02-06,1,,,,,ホップス,0
1401,5030001152262,新規,0,2023-02-06,2023-02-06,株式会社一,,株式会社,埼玉県,三郷市,高州３丁目１３３番地２６,,11,237,3410037,,,,,,,2023-02-06,1,,,,,ハジメ,0
1402,5030001152270,新規,0,2023-02-06,2023-02-06,リする株式会社,,株式会社,埼玉県,新座市,新座３丁目２番１０－４０２号,,11,230,3520006,,,,,,,2023-02-06,1,,,,,リスル,0
1403,5030001152287,新規,0,2023-02-06,2023-02-06,ＡＬＭＡ株式会社,,株式会社,埼玉県,さいたま市大宮区,桜木町１丁目３７８番地ＢＩＺｃｏｍｆｏｒｔ大宮西口ビル,,11,103,3300854,,,,,,,2023-02-06,1,,,,,アルマ,0
1410,5030003021102,新規,0,2023-02-06,2023-02-06,ＳＵＧ合同会社,,合同会社,埼玉県,さいたま市中央区,下落合５丁目３番２号奥村ビル１Ｆ,,11,105,3380002,,,,,,,2023-02-06,1,,,,,エスユージー,0
1418,5040001126918,新規,0,2023-02-06,2023-02-06,株式会社一銀商店,,株式会社,千葉県,柏市,高田８２４番地の３－２０４,,12,217,2770861,,,,,,,2023-02-06,1,,,,,イチギンショウテン,0
1419,5040001126967,新規,0,2023-02-06,2023-02-06,株式会社大力,,株式会社,千葉県,成田市,吾妻２丁目２番地１（１棟４０５号）,,12,211,2860018,,,,,,,2023-02-06,1,,,,,ダイリキ,0
1420,5040003021836,新規,0,2023-02-06,2023-02-06,合同会社パンプ,,合同会社,千葉県,船橋市,中野木１丁目１８番２５－６０２号,,12,204,2740826,,,,,,,2023-02-06,1,,,,,パンプ,0
1422,5050001052361,新規,0,2023-02-06,2023-02-06,株式会社ＴＡＫＡＮＯ,,株式会社,茨城県,下妻市,鎌庭２６９２番地２プレジデンツ壱番館１０２,,08,210,3040819,,,,,,,2023-02-06,1,,,,,タカノ,0
1425,5050003007215,新規,0,2023-02-06,2023-02-06,合同会社Ｕ‐ｒｅｆｉｎｅ,,合同会社,茨城県,ひたちなか市,大字高場２０２３番地１６,,08,221,3120062,,,,,,,2023-02-06,1,,,,,ユーリファイン,0
1427,5050005013203,新規,0,2023-02-06,2023-02-06,一般社団法人Ｇ＆Ｂヘルスケア,,その他の設立登記法人,茨城県,かすみがうら市,西成井１１６５番地７,,08,230,3000122,,,,,,,2023-02-06,1,,,,,ジーアンドビーヘルスケア,0
1430,5060001035670,新規,0,2023-02-06,2023-02-06,株式会社エーシーシー,,株式会社,栃木県,足利市,福居町３２７番地ピアステージ足利１０１号室,,09,202,3260338,,,,,,,2023-02-06,1,,,,,エーシーシー,0
1432,5060003004401,新規,0,2023-02-06,2023-02-06,わをん合同会社,,合同会社,栃木県,宇都宮市,駅前通り２丁目３番１２号ザ・ミレニアムタワー９０１,,09,201,3210964,,,,,,,2023-02-06,1,,,,,ワヲン,0
1438,5080101023788,新規,0,2023-02-06,2023-02-06,株式会社ＴＳ工法技術協議会,,株式会社,静岡県,沼津市,本田町４番２６号,,22,203,4100004,,,,,,,2023-02-06,1,,,,,ティエスコウホウギジュツキョウギカイ,0
1442,5080401026301,新規,0,2023-02-06,2023-02-06,株式会社フィレット,,株式会社,静岡県,浜松市浜北区,染地台３丁目２３番１７号,,22,136,4340046,,,,,,,2023-02-06,1,,,,,フィレット,0
1445,5100003006871,新規,0,2023-02-06,2023-02-06,合同会社岳峪社,,合同会社,長野県,松本市,大字里山辺１５４９番地１柏葉ビル２０２号,,20,202,3900221,,,,,,,2023-02-06,1,,,,,ガクユウシャ,0
1449,5110005016892,新規,0,2023-02-06,2023-02-06,えちご中越農業協同組合,,その他の設立登記法人,新潟県,長岡市,今朝白２丁目７番２５号,,15,202,9400033,,,,,,新潟県長岡市今朝白二丁目７番２５号越後ながおか農業協同組合（6110005012016）と新潟県長岡市大野２４９番地越後さんとう農業協同組合（7110005012015）と新潟県三条市下保内３４８番地１にいがた南蒲農業協同組合（5110005005904）と新潟県柏崎市駅前一丁目３番２２号柏崎農業協同組合（2110005007317）の合併により設立,2023-02-06,1,,,,,エチゴチュウエツ,0
1459,5120001252227,新規,0,2023-02-06,2023-02-06,株式会社滝本商店,,株式会社,大阪府,守口市,南寺方東通４丁目２番１２号１０２号室,,27,209,5700043,,,,,,,2023-02-06,1,,,,,タキモトショウテン,0
1460,5120001252235,新規,0,2023-02-06,2023-02-06,株式会社ｗｉｔｈ,,株式会社,大阪府,門真市,本町２７番１８号,,27,223,5710046,,,,,,,2023-02-06,1,,,,,ウィズ,0
1465,5120005023459,新規,0,2023-02-06,2023-02-06,愛生社会保険労務士法人,,その他の設立登記法人,大阪府,大阪市中央区,上本町西５丁目２番１８号リクショー上六ビル５階,,27,128,5420062,,,,,,,2023-02-06,1,,,,,アイセイ,0
1467,5120101066931,新規,0,2023-02-06,2023-02-06,株式会社アークウィル,,株式会社,大阪府,堺市堺区,綾之町西１丁１番３号永木ビルＩＩ－２０５号,00129339,27,141,5900926,,,,,,,2023-02-06,1,,,,,アークウィル,0
1468,5120101066956,新規,0,2023-02-06,2023-02-06,株式会社ＵＴＡ,,株式会社,大阪府,泉佐野市,日根野１０４０－３,,27,213,5980021,,,,,,,2023-02-06,1,,,,,ウタ,0
1471,5122001036659,新規,0,2023-02-06,2023-02-06,ＭＫホールディングス株式会社,,株式会社,大阪府,八尾市,安中町３丁目１番２６号,,27,212,5810085,,,,,,,2023-02-06,1,,,,,エムケーホールディングス,0
1472,5122001036675,新規,0,2023-02-06,2023-02-06,永光株式会社,,株式会社,大阪府,東大阪市,高井田元町１丁目１１番２５号,,27,227,5770054,,,,,,,2023-02-06,1,,,,,エイコウ,0
1474,5122003002510,新規,0,2023-02-06,2023-02-06,合同会社寸穂,,合同会社,大阪府,東大阪市,河内町３番８号,,27,227,5798044,,,,,,,2023-02-06,1,,,,,スンホ,0
1477,5130001073639,新規,0,2023-02-06,2023-02-06,株式会社Ｃ・Ｖ,,株式会社,京都府,京都市西京区,大枝西新林町５丁目１番地１８,,26,111,6101141,,,,,,,2023-02-06,1,,,,,シーヴイ,0
1478,5130001073647,新規,0,2023-02-06,2023-02-06,株式会社Ａｎｏｔｈｅｒ　Ｃ,,株式会社,京都府,京都市中京区,河原町通三条入ル中島町９６の２三条木屋町ビル４Ｆ,,26,104,6040000,,,,,,,2023-02-06,1,,,,,アナザーシー,0
1486,5140001129002,新規,0,2023-02-06,2023-02-06,株式会社大関バイオテク,,株式会社,兵庫県,西宮市,今津社前町４番５号,,28,204,6638229,,,,,,,2023-02-06,1,,,,,オオゼキバイオテク,0
1487,5140001129010,新規,0,2023-02-06,2023-02-06,株式会社ＨＩＲＯＴＥＣ,,株式会社,兵庫県,神戸市西区,二ツ屋１丁目３番２５－１０１号,,28,111,6512142,,,,,,,2023-02-06,1,,,,,ヒロテック,0
1489,5140003018673,新規,0,2023-02-06,2023-02-06,エリアアース合同会社,,合同会社,兵庫県,宝塚市,宝梅１丁目８番２－２０７号,,28,214,6650013,,,,,,,2023-02-06,1,,,,,エリアアース,0
1490,5140003018681,新規,0,2023-02-06,2023-02-06,合同会社ＯＡＧＥ,,合同会社,兵庫県,神戸市北区,谷上東町１１番８号,,28,109,6511245,,,,,,,2023-02-06,1,,,,,オアゲ,0
1493,5150001026157,新規,0,2023-02-06,2023-02-06,株式会社タウゼントトラベル,,株式会社,奈良県,奈良市,西大寺東町２丁目２番１号三都ビル３０１号室,,29,201,6310821,,,,,,,2023-02-06,1,,,,,タウゼントトラベル,0
1494,5160001024812,新規,0,2023-02-06,2023-02-06,株式会社アクアファーム,,株式会社,滋賀県,高島市,新旭町太田２７５２番地２１,,25,212,5201512,,,,,,,2023-02-06,1,,,,,アクアファーム,0
1496,5160003002790,新規,0,2023-02-06,2023-02-06,飯田商会合同会社,,合同会社,滋賀県,甲賀市,甲南町希望ケ丘４丁目２７番地５,,25,209,5203333,,,,,,,2023-02-06,1,,,,,イイダショウカイ,0
1499,5170003001833,新規,0,2023-02-06,2023-02-06,合同会社ｂｒｏｔｈ,,合同会社,和歌山県,和歌山市,田中町４丁目７８番地,,30,201,6408329,,,,,,,2023-02-06,1,,,,,ブロス,0
1505,5180001154665,新規,0,2023-02-06,2023-02-06,瀬栄陶器株式会社,,株式会社,愛知県,名古屋市東区,芳野１丁目１４番１９号,,23,102,4610027,,,,,,,2023-02-06,1,,,,,セイエイトウキ,0
1506,5180001154797,新規,0,2023-02-06,2023-02-06,株式会社Ｂｕｎｎｙ,,株式会社,愛知県,江南市,宮後町砂場東３３３石井コーポ３０２号室,,23,217,4838044,,,,,,,2023-02-06,1,,,,,バニー,0
1507,5180001154806,新規,0,2023-02-06,2023-02-06,ホマレソーシャルサービス株式会社,,株式会社,愛知県,東海市,東海町３丁目５番１号,,23,222,4760015,,,,,,,2023-02-06,1,,,,,ホマレソーシャルサービス,0
1508,5180001154830,新規,0,2023-02-06,2023-02-06,株式会社ＤＳ,,株式会社,愛知県,名古屋市千種区,園山町１丁目１８番地の１０,,23,101,4640812,,,,,,,2023-02-06,1,,,,,ディーエス,0
1509,5180001154855,新規,0,2023-02-06,2023-02-06,株式会社ＴＡＩＹＯＷ物流,,株式会社,愛知県,名古屋市北区,大曽根３丁目５番１９号ヒルズ大曽根７０２号,,23,103,4620825,,,,,,,2023-02-06,1,,,,,タイヨウブツリュウ,0
1510,5180001154863,新規,0,2023-02-06,2023-02-06,株式会社マル瀬,,株式会社,愛知県,名古屋市北区,池花町４４番地の１,,23,103,4620005,,,,,,,2023-02-06,1,,,,,マルセ,0
1511,5180001154871,新規,0,2023-02-06,2023-02-06,株式会社ＬｉｖｉｎｇＣｏｎｎｅｃｔ,,株式会社,愛知県,江南市,古知野町千丸２７‐２,,23,217,4838206,,,,,,,2023-02-06,1,,,,,リビングコネクト,0
1512,5180001154888,新規,0,2023-02-06,2023-02-06,青久商店株式会社,,株式会社,愛知県,名古屋市中区,金山２丁目６番１４号ＨＡＴビル１Ｆ,,23,106,4600022,,,,,,,2023-02-06,1,,,,,アオキュウショウテン,0
1516,5180003024800,新規,0,2023-02-06,2023-02-06,合同会社エナジーパーク南伊勢,,合同会社,愛知県,名古屋市瑞穂区,苗代町１８番１７号,,23,108,4670841,,,,,,,2023-02-06,1,,,,,エナジーパークミナミイセ,0
1520,5180301037066,新規,0,2023-02-06,2023-02-06,株式会社奈良電機,,株式会社,愛知県,知立市,昭和２丁目６番地２,,23,225,4720011,,,,,,,2023-02-06,1,,,,,ナラデンキ,0
1522,5190001030139,新規,0,2023-02-06,2023-02-06,株式会社ｉｎｎｏｖａｔｉｏｎ　ｍａｒｋｅｔ,,株式会社,三重県,四日市市,諏訪町６番１１号ピュアコート店舗１０４,,24,202,5100085,,,,,,,2023-02-06,1,,,,,イノベーションマーケット,0
1523,5190001030147,新規,0,2023-02-06,2023-02-06,自然電力いなべ株式会社,,株式会社,三重県,いなべ市,北勢町阿下喜３１番地,,24,214,5110428,,,,,,,2023-02-06,1,,,,,シゼンデンリョクイナベ,0
1524,5190001030155,新規,0,2023-02-06,2023-02-06,株式会社彩光建装,,株式会社,三重県,四日市市,別山３丁目１１０９番地,,24,202,5120936,,,,,,,2023-02-06,1,,,,,サイコウケンソウ,0
1527,5190003004223,新規,0,2023-02-06,2023-02-06,ＣＬＯＶＥＲＣ合同会社,,合同会社,三重県,桑名市,大字星川９５８番地５,,24,205,5110912,,,,,,,2023-02-06,1,,,,,クローバーシー,0
1541,5240001061046,新規,0,2023-02-06,2023-02-06,ＨＩＴＯＭＩＳＴＹＬＥ株式会社,,株式会社,広島県,広島市中区,大手町４丁目５番１１－１２０２号,,34,101,7300051,,,,,,,2023-02-06,1,,,,,ヒトミスタイル,0
1542,5240001061054,新規,0,2023-02-06,2023-02-06,株式会社建築診断広島,,株式会社,広島県,広島市安佐南区,大塚西６丁目５－２,,34,105,7313167,,,,,,,2023-02-06,1,,,,,ケンチクシンダンヒロシマ,0
1544,5250001019951,新規,0,2023-02-06,2023-02-06,株式会社ＰＧスターホールディングス,,株式会社,山口県,下関市,岬之町１２番２６号富士パークビル,,35,201,7500014,,,,,,,2023-02-06,1,,,,,ピージースターホールディングス,0
1552,5270003001484,新規,0,2023-02-06,2023-02-06,合同会社アジャスト,,合同会社,鳥取県,東伯郡湯梨浜町,大字久留２１番地２２,,31,370,6820723,,,,,,,2023-02-06,1,,,,,アジャスト,0
1559,5290001100492,新規,0,2023-02-06,2023-02-06,株式会社大紘,,株式会社,福岡県,糟屋郡宇美町,光正寺２丁目１２番２７号,,40,341,8112123,,,,,,,2023-02-06,1,,,,,ダイコウ,0
1563,5290003013494,新規,0,2023-02-06,2023-02-06,合同会社雅,,合同会社,福岡県,福岡市中央区,高砂１丁目１１番１号,,40,133,8100011,,,,,,,2023-02-06,1,,,,,ミヤビ,0
1566,5290801029254,新規,0,2023-02-06,2023-02-06,株式会社大結,,株式会社,福岡県,北九州市小倉南区,下貫１丁目７番１８－１０６号,,40,107,8000236,,,,,,,2023-02-06,1,,,,,ダイユウ,0
1571,5320001019556,新規,0,2023-02-06,2023-02-06,株式会社おおいた天洋丸,,株式会社,大分県,臼杵市,大字板知屋１番地の８,,44,206,8750034,,,,,,,2023-02-06,1,,,,,オオイタテンヨウマル,0
1572,5320003004011,新規,0,2023-02-06,2023-02-06,合同会社エス・ビー・エフ,,合同会社,大分県,別府市,大字亀川２３４２番地の５,,44,202,8740000,,,,,,,2023-02-06,1,,,,,エスビーエフ,0
1573,5330003009711,新規,0,2023-02-06,2023-02-06,合同会社ＮＹＬ,,合同会社,熊本県,菊池郡菊陽町,大字津久礼１５７番地４ポルトメルベーユＡ２０１号,,43,404,8691101,,,,,,,2023-02-06,1,,,,,エヌワイエル,0
1575,5350001018175,新規,0,2023-02-06,2023-02-06,株式会社ヨコヤマキカイ,,株式会社,宮崎県,宮崎市,清武町今泉乙２８６３番地６,,45,201,8891602,,,,,,,2023-02-06,1,,,,,ヨコヤマキカイ,0
1579,5360001031532,新規,0,2023-02-06,2023-02-06,株式会社ワイズマリン沖縄,,株式会社,沖縄県,国頭郡本部町,字崎本部２７９５番地１,,47,308,9050225,,,,,,,2023-02-06,1,,,,,ワイズマリンオキナワ,0
1583,5370003005979,新規,0,2023-02-06,2023-02-06,ＰＳＩ合同会社,,合同会社,宮城県,仙台市青葉区,宮町２丁目１－４８,,04,101,9800004,,,,,,,2023-02-06,1,,,,,ピエスアイ,0
1590,5380001033452,新規,0,2023-02-06,2023-02-06,ＬＥカンパニー株式会社,,株式会社,福島県,いわき市,東田町菖蒲沢１３番地,,07,204,9748212,,,,,,,2023-02-06,1,,,,,エルイーカンパニー,0
1597,5410001013384,新規,0,2023-02-06,2023-02-06,株式会社久輔,,株式会社,秋田県,大館市,櫃崎字大堀宅地４番地,,05,204,0170855,,,,,,,2023-02-06,1,,,,,キュウスケ,0
1602,5430001088342,新規,0,2023-02-06,2023-02-06,ＮＡＯ株式会社,,株式会社,北海道,岩見沢市,北本町東９丁目１番１２号,,01,210,0680057,,,,,,,2023-02-06,1,,,,,ナオ,0
1603,5430001088375,新規,0,2023-02-06,2023-02-06,株式会社岡崎農園,,株式会社,北海道,岩内郡共和町,発足２８０３番地,,01,401,0450122,,,,,,,2023-02-06,1,,,,,オカザキノウエン,0
1604,5430001088383,新規,0,2023-02-06,2023-02-06,株式会社識工房,,株式会社,北海道,札幌市南区,南沢四条４丁目１６番２号,,01,106,0050824,,,,,,,2023-02-06,1,,,,,シキコウボウ,0
1605,5430001088391,新規,0,2023-02-06,2023-02-06,株式会社みらいのたね,,株式会社,北海道,札幌市西区,発寒八条１０丁目３番７号,,01,107,0630828,,,,,,,2023-02-06,1,,,,,ミライノタネ,0
1606,5430001088400,新規,0,2023-02-06,2023-02-06,株式会社ＮＣ１,,株式会社,北海道,札幌市北区,北十四条西１丁目２番１４－４０１号,,01,102,0010014,,,,,,,2023-02-06,1,,,,,エヌシーワン,0
1609,5430003014718,新規,0,2023-02-06,2023-02-06,合同会社ホームテック,,合同会社,北海道,札幌市白石区,川下一条８丁目５番７号,,01,104,0030861,,,,,,,2023-02-06,1,,,,,ホームテック,0
1613,5470001019459,新規,0,2023-02-06,2023-02-06,株式会社エス工業,,株式会社,香川県,仲多度郡琴平町,五條７２７番地１１,,37,403,7660003,,,,,,,2023-02-06,1,,,,,エスコウギョウ,0
1616,5500005008578,新規,0,2023-02-06,2023-02-06,一般社団法人西条市ＳＤＧｓ推進協議会,,その他の設立登記法人,愛媛県,西条市,明屋敷１３１番地２,,38,206,7930023,,,,,,,2023-02-06,1,,,,,サイジョウシエスディジーズスイシンキョウギカイ,0
1618,5700150114202,新規,0,2023-02-06,2023-02-06,名田庄土地改良区,,その他,福井県,大飯郡おおい町,本郷１３６－１－１,,18,483,9192111,,,,,,,2023-02-06,1,,,,,ナタシヨウトチカイリヨウク,0
1628,6010003039731,新規,0,2023-02-06,2023-02-06,ｔ　ａｎｄ合同会社,,合同会社,東京都,文京区,小日向２丁目２９番２号ハーブ小日向茗蹊館３０１,,13,105,1120006,,,,,,,2023-02-06,1,,,,,ティーアンド,0
1629,6010005036223,新規,0,2023-02-06,2023-02-06,ＲＢソーラーヒバリ一般社団法人,,その他の設立登記法人,東京都,千代田区,麹町２丁目８番地ＭＬＣ麹町ビル４階フィンポート税理士法人内,,13,101,1020083,,,,,,,2023-02-06,1,,,,,アールビーソーラーヒバリ,0
1636,6010401172308,新規,0,2023-02-06,2023-02-06,株式会社楔,,株式会社,東京都,港区,南青山３丁目１番３６号青山丸竹ビル６Ｆ,,13,103,1070062,,,,,,,2023-02-06,1,,,,,クサビ,0
1638,6010403029448,新規,0,2023-02-06,2023-02-06,メディカルインキュベータ合同会社,,合同会社,東京都,港区,三田２丁目１４番４号,,13,103,1080073,,,,,,,2023-02-06,1,,,,,メディカルインキュベータ,0
1643,6010405021766,新規,0,2023-02-06,2023-02-06,一般社団法人日本男女支援協会,,その他の設立登記法人,東京都,港区,南青山３丁目５番２号南青山第一韮澤ビル３Ｆ,,13,103,1070062,,,,,,,2023-02-06,1,,,,,ニホンダンジョシエンキョウカイ,0
1646,6010603009984,新規,0,2023-02-06,2023-02-06,ＳＨＯＥＤＵＮＫＡＮ合同会社,,合同会社,東京都,墨田区,向島３丁目３番３－６０１号アトラス押上,,13,107,1310033,,,,,,,2023-02-06,1,,,,,シューダンカン,0
1647,6010701043753,新規,0,2023-02-06,2023-02-06,株式会社ドゥーラサポート,,株式会社,東京都,品川区,東五反田５丁目２５番１８号,,13,109,1410022,,,,,,,2023-02-06,1,,,,,ドゥーラサポート,0
1648,6010701043828,新規,0,2023-02-06,2023-02-06,易健国際株式会社,,株式会社,東京都,品川区,南大井３丁目２０番地５ＳＵ大森ビル,,13,109,1400013,,,,,,,2023-02-06,1,,,,,エキケンコクサイ,0
1662,6010901052471,新規,0,2023-02-06,2023-02-06,ＫＥＮＴＯＳＨＩ株式会社,,株式会社,東京都,世田谷区,駒沢２丁目３４番２号,,13,112,1540012,,,,,,,2023-02-06,1,,,,,ケントウシ,0
1663,6010903007952,新規,0,2023-02-06,2023-02-06,ブロムスト．プロジェクトマネジメント合同会社,,合同会社,東京都,世田谷区,三宿１丁目１４番８号２０４,,13,112,1540005,,,,,,,2023-02-06,1,,,,,ブロムストプロジェクトマネジメント,0
1664,6011001152294,新規,0,2023-02-06,2023-02-06,株式会社Ｍｅｒｃ,,株式会社,東京都,渋谷区,恵比寿南３丁目１番１号いちご恵比寿グリーングラス６Ｆ,,13,113,1500022,,,,,,,2023-02-06,1,,,,,メルク,0
1665,6011001152393,新規,0,2023-02-06,2023-02-06,株式会社ＷＥＬＬ‐ＥＳＳＥＮＣＥ,,株式会社,東京都,渋谷区,神宮前６丁目３番８号,,13,113,1500001,,,,,,,2023-02-06,1,,,,,ウェルエッセンス,0
1666,6011001152410,新規,0,2023-02-06,2023-02-06,Ｙａｇｉｓｈ　Ｌａｂ株式会社,,株式会社,東京都,渋谷区,恵比寿西２丁目３番１２号,,13,113,1500021,,,,,,,2023-02-06,1,,,,,ヤギッシュラボ,0
1667,6011001152443,新規,0,2023-02-06,2023-02-06,株式会社ＡＲＭＳＴＥＣＨ,,株式会社,東京都,目黒区,東が丘１丁目１番４号,,13,110,1520021,,,,,,,2023-02-06,1,,,,,アームズテック,0
1673,6011105010539,新規,0,2023-02-06,2023-02-06,一般社団法人金融リテラシー向上協会,,その他の設立登記法人,東京都,新宿区,市谷八幡町２番地１ＤＳ市ヶ谷ビル３階,,13,104,1620844,,,,,,,2023-02-06,1,,,,,キンユウリテラシーコウジョウキョウカイ,0
1674,6011203003997,新規,0,2023-02-06,2023-02-06,合同会社真,,合同会社,東京都,中野区,中野５丁目２９番１３号,,13,114,1640001,,,,,,,2023-02-06,1,,,,,マコト,0
1678,6011501028928,新規,0,2023-02-06,2023-02-06,宝翼科技株式会社,,株式会社,東京都,荒川区,町屋３丁目２４番２号面川ビル２１０号室,,13,118,1160001,,,,,,,2023-02-06,1,,,,,ホウヨクカギ,0
1679,6011501028936,新規,0,2023-02-06,2023-02-06,株式会社エムワイ,,株式会社,東京都,荒川区,東日暮里２丁目３７番１２号,,13,118,1160014,,,,,,,2023-02-06,1,,,,,エムワイ,0
1682,6011503005470,新規,0,2023-02-06,2023-02-06,ＭＫ合同会社,,合同会社,東京都,荒川区,東日暮里４丁目２３番１１－２０３号青山ビル,,13,118,1160014,,,,,,,2023-02-06,1,,,,,エムケイ,0
1684,6011603003812,新規,0,2023-02-06,2023-02-06,合同会社ＣＵ,,合同会社,東京都,練馬区,豊玉上２丁目５番１４－３０４号,,13,120,1760011,,,,,,,2023-02-06,1,,,,,シーユー,0
1688,6011801041886,新規,0,2023-02-06,2023-02-06,株式会社ＴＳＲＣ,,株式会社,東京都,足立区,東保木間２丁目２６番６号,,13,121,1210063,,,,,,,2023-02-06,1,,,,,ティーエスアールシー,0
1691,6012801022133,新規,0,2023-02-06,2023-02-06,友希株式会社,,株式会社,東京都,国分寺市,東元町３丁目２８－１,,13,214,1850022,,,,,,,2023-02-06,1,,,,,ユウキ,0
1697,6013301050285,新規,0,2023-02-06,2023-02-06,株式会社スマートセレクト,,株式会社,東京都,豊島区,西池袋１丁目４番１０号,,13,116,1710021,,,,,,,2023-02-06,1,,,,,スマートセレクト,0
1701,6020001150084,新規,0,2023-02-06,2023-02-06,ＢａｙＳｈａｒｉｎｇ株式会社,,株式会社,神奈川県,横浜市保土ケ谷区,岩崎町２３番３８号,,14,106,2400015,,,,,,,2023-02-06,1,,,,,ベイシェアリング,0
1702,6020001150142,新規,0,2023-02-06,2023-02-06,株式会社ＵＮＩＱＵＥ,,株式会社,神奈川県,横浜市神奈川区,三ツ沢西町４番２１－１０１号,,14,102,2210855,,,,,,,2023-02-06,1,,,,,ユニック,0
1707,6020003023239,新規,0,2023-02-06,2023-02-06,合同会社ＦＥＥＴ,,合同会社,神奈川県,川崎市多摩区,栗谷２丁目８番４号,,14,135,2140039,,,,,,,2023-02-06,1,,,,,フィート,0
1708,6020003023255,新規,0,2023-02-06,2023-02-06,合同会社ビーワークス,,合同会社,神奈川県,川崎市幸区,戸手４丁目９番３－３０７号グラン・エステ川崎ツインタワー弐番館,,14,132,2120005,,,,,,,2023-02-06,1,,,,,ビーワークス,0
1712,6021001078118,新規,0,2023-02-06,2023-02-06,株式会社樹梢,,株式会社,神奈川県,横須賀市,日の出町１丁目６番地リアライズ横須賀７０５号室,,14,201,2380006,,,,,,,2023-02-06,1,,,,,ジュショウ,0
1713,6021001078134,新規,0,2023-02-06,2023-02-06,鴻澤興業株式会社,,株式会社,神奈川県,平塚市,南金目７２３番地１号,,14,203,2591201,,,,,,,2023-02-06,1,,,,,コウタクコウギョウ,0
1714,6021001078159,新規,0,2023-02-06,2023-02-06,株式会社葵マネジメントサポート,,株式会社,神奈川県,厚木市,中町２丁目４－１４リゾフィスＰＬＵＳ本厚木駅前２０９号室,,14,212,2430018,,,,,,,2023-02-06,1,,,,,アオイマネジメントサポート,0
1716,6021003012727,新規,0,2023-02-06,2023-02-06,合同会社ブリリアント,,合同会社,神奈川県,藤沢市,鵠沼海岸７丁目１８番１４号,,14,205,2510037,,,,,,,2023-02-06,1,,,,,ブリリアント,0
1721,6030001152261,新規,0,2023-02-06,2023-02-06,株式会社Ｍ‐ｓｔｙｌｅ,,株式会社,埼玉県,越谷市,南越谷１丁目１５番地１,,11,222,3430845,,,,,,,2023-02-06,1,,,,,エムスタイル,0
1722,6030001152278,新規,0,2023-02-06,2023-02-06,株式会社エバーユアーズ,,株式会社,埼玉県,さいたま市見沼区,東大宮６丁目５０番地２,,11,104,3370051,,,,,,,2023-02-06,1,,,,,エバーユアーズ,0
1726,6030003021101,新規,0,2023-02-06,2023-02-06,龍江合同会社,,合同会社,埼玉県,川口市,西川口６丁目７－３２,,11,203,3320021,,,,,,,2023-02-06,1,,,,,リュウコウ,0
1727,6030005021132,新規,0,2023-02-06,2023-02-06,一般社団法人松山陣屋顕彰会,,その他の設立登記法人,埼玉県,東松山市,松葉町１丁目１３番１７号,,11,212,3550017,,,,,,,2023-02-06,1,,,,,マツヤマジンヤケンショウカイ,0
1732,6040001126909,新規,0,2023-02-06,2023-02-06,日新建設工業株式会社,,株式会社,千葉県,木更津市,ほたる野１丁目３番地９,,12,206,2920038,,,,,,,2023-02-06,1,,,,,ニッシンケンセツコウギョウ,0
1733,6040001126941,新規,0,2023-02-06,2023-02-06,株式会社ハクナマタタ,,株式会社,千葉県,八千代市,米本１２１７番地９,,12,221,2760015,,,,,,,2023-02-06,1,,,,,ハクナマタタ,0
1737,6040003021819,新規,0,2023-02-06,2023-02-06,トトノエルジャパン合同会社,,合同会社,千葉県,船橋市,西船３丁目７－３５エクセラン１０３,,12,204,2730031,,,,,,,2023-02-06,1,,,,,トトノエルジャパン,0
1738,6050001052336,新規,0,2023-02-06,2023-02-06,株式会社ハビット,,株式会社,茨城県,古河市,女沼４００番地１Ｌｅ．Ｒｅｖｅ３０７,,08,204,3060226,,,,,,,2023-02-06,1,,,,,ハビット,0
1741,6050003007214,新規,0,2023-02-06,2023-02-06,合同会社オフィスカモシダ,,合同会社,茨城県,日立市,大沼町４丁目３番９号,,08,202,3160022,,,,,,,2023-02-06,1,,,,,オフィスカモシダ,0
1748,6080001025446,新規,0,2023-02-06,2023-02-06,株式会社ＳＲＩ,,株式会社,静岡県,静岡市駿河区,石田３丁目１４番２７号,,22,102,4228042,,,,,,,2023-02-06,1,,,,,エスアールアイ,0
1751,6080101023787,新規,0,2023-02-06,2023-02-06,ロイヤルインターナショナル株式会社,,株式会社,静岡県,富士市,瓜島町１１４番地２Ｆ,,22,210,4170057,,,,,,,2023-02-06,1,,,,,ロイヤルインターナショナル,0
1752,6090001017962,新規,0,2023-02-06,2023-02-06,株式会社ＳＫＩＬＬ,,株式会社,山梨県,山梨市,上神内川１１８９番地メゾン・ド・タカノ２０１,,19,205,4050018,,,,,,,2023-02-06,1,,,,,スキル,0
1754,6100001036119,新規,0,2023-02-06,2023-02-06,六太郎製作所株式会社,,株式会社,長野県,上田市,真田町長６１２８番地,,20,203,3862201,,,,,,,2023-02-06,1,,,,,ロクタロウセイサクショ,0
1755,6110001037272,新規,0,2023-02-06,2023-02-06,株式会社日出人,,株式会社,新潟県,糸魚川市,大町１丁目１番１７号,,15,216,9410061,,,,,,,2023-02-06,1,,,,,ヒデト,0
1763,6120001252226,新規,0,2023-02-06,2023-02-06,株式会社西田辺Ｐｒｅｍｉｅｒｅ,,株式会社,大阪府,大阪市阿倍野区,西田辺町１丁目１８番１５号,,27,119,5450014,,,,,,,2023-02-06,1,,,,,ニシタナベプレミア,0
1764,6120001252234,新規,0,2023-02-06,2023-02-06,株式会社ＥＭＩ‐ＴＡＳ,,株式会社,大阪府,大阪市淀川区,三津屋中２丁目１５番６号,,27,123,5320036,,,,,,,2023-02-06,1,,,,,エミタス,0
1765,6120001252242,新規,0,2023-02-06,2023-02-06,株式会社リーガル,,株式会社,大阪府,大阪市西区,西本町２丁目１－３９カナード西本町３０１,,27,106,5500005,,,,,,,2023-02-06,1,,,,,リーガル,0
1766,6120001252259,新規,0,2023-02-06,2023-02-06,株式会社トライウェブ,,株式会社,大阪府,大阪市東淀川区,井高野１丁目４番６－１０８号,,27,114,5330001,,,,,,,2023-02-06,1,,,,,トライウェブ,0
1767,6120001252291,新規,0,2023-02-06,2023-02-06,Ｄ＆Ｙ　Ｖｅｎｔｕｒｅｓ株式会社,,株式会社,大阪府,大阪市浪速区,敷津西２丁目１３番２号ＮＯ．２ＢＬＯＯＭＢＬＤ３Ｆ,,27,111,5560015,,,,,,,2023-02-06,1,,,,,ディーアンドワイベンチャーズ,0
1768,6120001252333,新規,0,2023-02-06,2023-02-06,株式会社サムライ茶屋,,株式会社,大阪府,大阪市浪速区,元町１丁目１－２０－９Ｆ,,27,111,5560016,,,,,,,2023-02-06,1,,,,,サムライチャヤ,0
1774,6120101066922,新規,0,2023-02-06,2023-02-06,株式会社ＲＯＬＥ,,株式会社,大阪府,堺市中区,平井５７２番地１８,,27,142,5998251,,,,,,,2023-02-06,1,,,,,ロール,0
1775,6120101066930,新規,0,2023-02-06,2023-02-06,株式会社ＯＭＣ,,株式会社,大阪府,堺市中区,新家町７５４番地１２,,27,142,5998232,,,,,,,2023-02-06,1,,,,,オーエムシー,0
1776,6120101066939,新規,0,2023-02-06,2023-02-06,株式会社クリーントライヴ,,株式会社,大阪府,堺市西区,草部１４８０番地,,27,144,5938312,,,,,,,2023-02-06,1,,,,,クリーントライヴ,0
1777,6120101066955,新規,0,2023-02-06,2023-02-06,株式会社Ｅａｒｔｈ,,株式会社,大阪府,堺市堺区,南花田口町１丁３番７号,,27,141,5900075,,,,,,,2023-02-06,1,,,,,アース,0
1779,6120901047097,新規,0,2023-02-06,2023-02-06,株式会社中山住設,,株式会社,大阪府,高槻市,栄町３丁目１６番５号,,27,207,5690825,,,,,,,2023-02-06,1,,,,,ナカヤマジュウセツ,0
1785,6120903004492,新規,0,2023-02-06,2023-02-06,合同会社長谷川,,合同会社,大阪府,豊中市,岡町南３丁目１１番２号,,27,203,5610883,,,,,,,2023-02-06,1,,,,,ハセガワ,0
1788,6122001036658,新規,0,2023-02-06,2023-02-06,Ｆ．Ｂ．Ｄ．Ａ．広島株式会社,,株式会社,大阪府,東大阪市,御厨南３丁目１番４６－９０８号,,27,227,5770034,,,,,,,2023-02-06,1,,,,,エフビーディーエーヒロシマ,0
1791,6130001073596,新規,0,2023-02-06,2023-02-06,ＨＴ　ＭＯＢＩＬＥ株式会社,,株式会社,京都府,京都市伏見区,深草相深町１６番地３,,26,109,6120004,,,,,,,2023-02-06,1,,,,,エイチティーモバイル,0
1792,6130001073621,新規,0,2023-02-06,2023-02-06,室町防災設備株式会社,,株式会社,京都府,亀岡市,旭町蔵ノ本４番地,,26,206,6210001,,,,,,,2023-02-06,1,,,,,ムロマチボウサイセツビ,0
1793,6130001073638,新規,0,2023-02-06,2023-02-06,株式会社ＶＩＴＯ,,株式会社,京都府,京都市南区,唐橋花園町１４番地１,,26,107,6018465,,,,,,,2023-02-06,1,,,,,ヴィトー,0
1796,6140001128952,新規,0,2023-02-06,2023-02-06,株式会社ＩＢＡＬ,,株式会社,兵庫県,芦屋市,大東町１２番２３－４１６号,,28,206,6590023,,,,,,,2023-02-06,1,,,,,イバル,0
1797,6140001128960,新規,0,2023-02-06,2023-02-06,株式会社Ｖａｎｎｅｌｌｉ　Ｃｏｆｆｅｅ　Ｊａｐａｎ,,株式会社,兵庫県,三木市,別所町東這田５７０番地の１,,28,215,6730444,,,,,,,2023-02-06,1,,,,,ヴァンネリコーヒージャパン,0
1798,6140001128977,新規,0,2023-02-06,2023-02-06,株式会社ＮＥＯ,,株式会社,兵庫県,伊丹市,緑ケ丘６丁目４３番地１,,28,207,6640012,,,,,,,2023-02-06,1,,,,,ネオ,0
1799,6140001128993,新規,0,2023-02-06,2023-02-06,クリエイト生野株式会社,,株式会社,兵庫県,朝来市,生野町口銀谷５９４番地６,,28,225,6793301,,,,,,,2023-02-06,1,,,,,クリエイトイクノ,0
1800,6140001129018,新規,0,2023-02-06,2023-02-06,株式会社ロジグリッシュ,,株式会社,兵庫県,神戸市須磨区,潮見台町５丁目１３番２７号,,28,107,6540075,,,,,,,2023-02-06,1,,,,,ロジグリッシュ,0
1801,6140001129026,新規,0,2023-02-06,2023-02-06,株式会社おくむら,,株式会社,兵庫県,淡路市,志筑１６９７番地１,,28,226,6562131,,,,,,,2023-02-06,1,,,,,オクムラ,0
1812,6160001024811,新規,0,2023-02-06,2023-02-06,株式会社発展工業,,株式会社,滋賀県,長浜市,木之本町廣瀬３０２番地４７,,25,203,5290424,,,,,,,2023-02-06,1,,,,,ハッテンコウギョウ,0
1815,6170001017467,新規,0,2023-02-06,2023-02-06,株式会社ＪＴＰ,,株式会社,和歌山県,和歌山市,五筋目１０番地,,30,201,6408076,,,,,,,2023-02-06,1,,,,,ジェーティーピー,0
1822,6180001154813,新規,0,2023-02-06,2023-02-06,株式会社安谷設備,,株式会社,愛知県,清須市,市場矢倉６５３番地１五条リバーサイド１Ｂ号室,,23,233,4520000,,,,,,,2023-02-06,1,,,,,ヤスタニセツビ,0
1823,6180001154854,新規,0,2023-02-06,2023-02-06,株式会社イトーシャ,,株式会社,愛知県,名古屋市中村区,太閤通６丁目９５番地,,23,105,4530811,,,,,,,2023-02-06,1,,,,,イトーシャ,0
1824,6180001154862,新規,0,2023-02-06,2023-02-06,株式会社Ｇｒａｉｓｅ　ＨＯＭＥ,,株式会社,愛知県,長久手市,城屋敷８０１番地,,23,238,4801122,,,,,,,2023-02-06,1,,,,,ジーレイズホーム,0
1825,6180001154870,新規,0,2023-02-06,2023-02-06,株式会社トレスアール,,株式会社,愛知県,一宮市,奥町字七丁４番地３８,,23,203,4910201,,,,,,,2023-02-06,1,,,,,トレスアール,0
1826,6180001154879,新規,0,2023-02-06,2023-02-06,株式会社アプライム,,株式会社,愛知県,一宮市,千秋町佐野字郷西２５番地４メゾンルバンルージュＥ号,,23,203,4910804,,,,,,,2023-02-06,1,,,,,アプライム,0
1832,6180003024799,新規,0,2023-02-06,2023-02-06,合同会社ＫＡＺ,,合同会社,愛知県,名古屋市東区,徳川町１１０５番地ヴィークコート徳川町３０５号,,23,102,4610023,,,,,,,2023-02-06,1,,,,,カズ,0
1833,6180003024808,新規,0,2023-02-06,2023-02-06,合同会社エイチ,,合同会社,愛知県,津島市,東柳原町３丁目１７番地,,23,208,4960045,,,,,,,2023-02-06,1,,,,,エイチ,0
1834,6180005020103,新規,0,2023-02-06,2023-02-06,一般社団法人ｐｏｓｓｉｂｉｌｉｔｙ,,その他の設立登記法人,愛知県,一宮市,西大海道字下宮２２番地,,23,203,4910005,,,,,,,2023-02-06,1,,,,,ポッシビリティー,0
1837,6190001030146,新規,0,2023-02-06,2023-02-06,株式会社エバーグリーンホールディングス,,株式会社,三重県,津市,上弁財町４番１号,,24,201,5140806,,,,,,,2023-02-06,1,,,,,エバーグリーンホールディングス,0
1838,6190001030154,新規,0,2023-02-06,2023-02-06,ＬＥＯ株式会社,,株式会社,三重県,津市,豊が丘２丁目３２番１１号,,24,201,5142222,,,,,,,2023-02-06,1,,,,,レオ,0
1840,6190003004222,新規,0,2023-02-06,2023-02-06,合同会社エムエス,,合同会社,三重県,津市,河芸町上野３４６番地６６,,24,201,5100304,,,,,,,2023-02-06,1,,,,,エムエス,0
1842,6200001040936,新規,0,2023-02-06,2023-02-06,株式会社ポニエンテ,,株式会社,岐阜県,瑞穂市,稲里２８５－５,,21,216,5010224,,,,,,,2023-02-06,1,,,,,ポニエンテ,0
1846,6220003003443,新規,0,2023-02-06,2023-02-06,合同会社ハレ建築デザイン,,合同会社,石川県,加賀市,大聖寺南町ニ９番地３サニー第２ビル１Ｆ,,17,206,9220811,,,,,,,2023-02-06,1,,,,,ハレケンチクデザイン,0
1851,6240001061037,新規,0,2023-02-06,2023-02-06,広島トヨタホールディングス株式会社,,株式会社,広島県,広島市中区,広瀬北町２番２４号,,34,101,7300803,,,,,,,2023-02-06,1,,,,,ヒロシマトヨタホールディングス,0
1858,6250003003218,新規,0,2023-02-06,2023-02-06,ＳＡＭ合同会社,,合同会社,山口県,宇部市,大字妻崎開作６５２番地１、６０５号,,35,202,7590204,,,,,,,2023-02-06,1,,,,,サム,0
1877,6290005018945,新規,0,2023-02-06,2023-02-06,一般社団法人Ｈｏｌｙ　Ｓｐｉｒｉｔ　Ａｃａｄｅｍｙ,,その他の設立登記法人,福岡県,糸島市,二丈吉井３５１５番地１０福吉リゾートエクセル５５－６１０号,,40,230,8191641,,,,,,,2023-02-06,1,,,,,ホーリースピリットアカデミー,0
1878,6310001018260,新規,0,2023-02-06,2023-02-06,シュウシュウ株式会社,,株式会社,長崎県,長崎市,下黒崎町３２６１番地,,42,201,8512326,,,,,,,2023-02-06,1,,,,,,0
1883,6330001030560,新規,0,2023-02-06,2023-02-06,株式会社木村グループ本社,,株式会社,熊本県,熊本市南区,流通団地２丁目５番地,,43,104,8620967,,,,,,,2023-02-06,1,,,,,キムラグループホンシャ,0
1892,6350001018174,新規,0,2023-02-06,2023-02-06,株式会社エコアース,,株式会社,宮崎県,宮崎市,佐土原町下田島２０４４４番地２７,,45,201,8800211,,,,,,,2023-02-06,1,,,,,エコアース,0
1893,6360001031523,新規,0,2023-02-06,2023-02-06,株式会社宮古島農産品開発センター,,株式会社,沖縄県,宮古島市,平良字東仲宗根６１３番地ガーリカーサＩＩ２－Ａ,00129342,47,214,9060007,,,,,,,2023-02-06,1,,,,,ミヤコジマノウサンヒンカイハツセンター,0
1894,6360005006785,新規,0,2023-02-06,2023-02-06,一般社団法人具志川腹門中,,その他の設立登記法人,沖縄県,糸満市,字糸満４２０番地,,47,210,9010361,,,,,,,2023-02-06,1,,,,,グシカワバラムンチュウ,0
1897,6370001049564,新規,0,2023-02-06,2023-02-06,株式会社花と清組,,株式会社,宮城県,大崎市,古川三日町２丁目３番５３号,,04,215,9896154,,,,,,,2023-02-06,1,,,,,ハナトキヨグミ,0
1898,6370001049572,新規,0,2023-02-06,2023-02-06,株式会社たきやプランニング,,株式会社,宮城県,仙台市泉区,泉中央１丁目４３番地の６,,04,105,9813133,,,,,,,2023-02-06,1,,,,,タキヤプランニング,0
1899,6370001049580,新規,0,2023-02-06,2023-02-06,株式会社真空工房,,株式会社,宮城県,仙台市若林区,六丁の目中町６番２５号,,04,103,9840012,,,,,,,2023-02-06,1,,,,,シンクウコウボウ,0
1902,6370003005978,新規,0,2023-02-06,2023-02-06,Ｃａｎａａ合同会社,,合同会社,宮城県,仙台市青葉区,花京院１丁目１番５２－１２０１号,,04,101,9800013,,,,,,,2023-02-06,1,,,,,カナ,0
1905,6380001033451,新規,0,2023-02-06,2023-02-06,株式会社八崎,,株式会社,福島県,いわき市,泉町下川字大畑６２番地,,07,204,9718183,,,,,,,2023-02-06,1,,,,,ハッサキ,0
1914,6400003003029,新規,0,2023-02-06,2023-02-06,合同会社ＧＯＵＫＥＮ,,合同会社,岩手県,遠野市,大工町４番５号,,03,208,0280527,,,,,,,2023-02-06,1,,,,,ゴウケン,0
1924,6430003014717,新規,0,2023-02-06,2023-02-06,ハッシュマップ合同会社,,合同会社,北海道,札幌市中央区,大通東３丁目１番地３６,,01,101,0600041,,,,,,,2023-02-06,1,,,,,ハッシュマップ,0
1931,6470001019458,新規,0,2023-02-06,2023-02-06,株式会社ＥＮＧＩＮＥ,,株式会社,香川県,丸亀市,十番丁１８番地１,,37,202,7630030,,,,,,,2023-02-06,1,,,,,エンジン,0
1942,7010001232659,新規,0,2023-02-06,2023-02-06,株式会社ｄｕｏｔｏｎｅ,,株式会社,東京都,中央区,銀座１丁目１２番４号Ｎ＆ＥＢＬＤ．６Ｆ,,13,102,1040061,,,,,,,2023-02-06,1,,,,,デュオトーン,0
1943,7010001232683,新規,0,2023-02-06,2023-02-06,株式会社ｅ‐Ｌｏｏｐ,,株式会社,東京都,千代田区,神田三崎町３丁目５番９号,,13,101,1010061,,,,,,,2023-02-06,1,,,,,イーループ,0
1944,7010001232709,新規,0,2023-02-06,2023-02-06,株式会社Ａｌｔａマーケティング,,株式会社,東京都,中央区,日本橋小網町１８番１７号ＩＴＳ日本橋ビル６階,,13,102,1030016,,,,,,,2023-02-06,1,,,,,アルタマーケティング,0
1945,7010001232733,新規,0,2023-02-06,2023-02-06,ＡＴ　Ｆｏｒｅｆｒｏｎｔ株式会社,,株式会社,東京都,文京区,西片２丁目１３番７号,,13,105,1130024,,,,,,,2023-02-06,1,,,,,エーティーフォーフロント,0
1949,7010005036206,新規,0,2023-02-06,2023-02-06,一般社団法人エンデバー・ジャパン,,その他の設立登記法人,東京都,千代田区,神田錦町２丁目４番地６,,13,101,1010054,,,,,,,2023-02-06,1,,,,,エンデバージャパン,0
1950,7010005036214,新規,0,2023-02-06,2023-02-06,一般社団法人自由診療振興協議会,,その他の設立登記法人,東京都,千代田区,永田町２丁目１７－５ローレル永田町５１４号室,,13,101,1000014,,,,,,,2023-02-06,1,,,,,ジユウシンリョウシンコウキョウギカイ,0
1951,7010005036222,新規,0,2023-02-06,2023-02-06,ＲＢソーラークイナ一般社団法人,,その他の設立登記法人,東京都,千代田区,麹町２丁目８番地ＭＬＣ麹町ビル４階フィンポート税理士法人内,,13,101,1020083,,,,,,,2023-02-06,1,,,,,アールビーソーラークイナ,0
1956,7010501049958,新規,0,2023-02-06,2023-02-06,株式会社アド・イーグルホールディングス,,株式会社,東京都,台東区,上野１丁目１番１２号,,13,106,1100005,,,,,,,2023-02-06,1,,,,,アドイーグルホールディングス,0
1959,7010503006874,新規,0,2023-02-06,2023-02-06,ＣＳ合同会社,,合同会社,東京都,台東区,下谷２丁目１５番４－３０２号エクセル入谷２号館,,13,106,1100004,,,,,,,2023-02-06,1,,,,,シーエス,0
1968,7010903007951,新規,0,2023-02-06,2023-02-06,合同会社蘖,,合同会社,東京都,世田谷区,桜丘１丁目１６番６号,,13,112,1560054,,,,,,,2023-02-06,1,,,,,,0
1975,7011001152319,新規,0,2023-02-06,2023-02-06,株式会社ＬＵＳＨＥＲＡ,,株式会社,東京都,目黒区,上目黒１丁目１４－２,,13,110,1530051,,,,,,,2023-02-06,1,,,,,ルシェラ,0
1976,7011001152384,新規,0,2023-02-06,2023-02-06,ランベントプロダクションズ株式会社,,株式会社,東京都,渋谷区,代官山町１６番２号,,13,113,1500034,,,,,,,2023-02-06,1,,,,,ランベントプロダクションズ,0
1977,7011001152418,新規,0,2023-02-06,2023-02-06,株式会社ＵＫ,,株式会社,東京都,渋谷区,代々木１丁目３番４号パレステュディオ代々木ＩＩ（神宮の杜）２０４,00129345,13,113,1510053,,,,,,,2023-02-06,1,,,,,ユーケー,0
1986,7011101101729,新規,0,2023-02-06,2023-02-06,株式会社エヌライトジャパン,,株式会社,東京都,新宿区,大久保２丁目１番８号プラザ新大樹ビル３階,,13,104,1690072,,,,,,,2023-02-06,1,,,,,エヌライトジャパン,0
1987,7011101101737,新規,0,2023-02-06,2023-02-06,株式会社遂晴,,株式会社,東京都,新宿区,高田馬場１丁目１２番８号貴ビル３０１号室,,13,104,1690075,,,,,,,2023-02-06,1,,,,,スイセイ,0
1993,7011401024877,新規,0,2023-02-06,2023-02-06,ＺＥＲ０１ＣＨＩ　ＨＯＬＤＩＮＧＳ株式会社,,株式会社,東京都,板橋区,板橋３丁目１番８－１００７号,,13,119,1730004,,,,,,,2023-02-06,1,,,,,ゼロイチホールディングス,0
1994,7011501028927,新規,0,2023-02-06,2023-02-06,ＦＨ株式会社,,株式会社,東京都,荒川区,町屋３丁目２４番２号面川ビル２１１号室,,13,118,1160001,,,,,,,2023-02-06,1,,,,,エフエッチ,0
2002,7011701025988,新規,0,2023-02-06,2023-02-06,株式会社ノブサン,,株式会社,東京都,江戸川区,瑞江１丁目１２番２号クレイドル瑞江６０１,,13,123,1320011,,,,,,,2023-02-06,1,,,,,ノブサン,0
2005,7012403005808,新規,0,2023-02-06,2023-02-06,合同会社スクエア,,合同会社,東京都,稲城市,東長沼４２２番地の５セイシェル２０３号,,13,225,2060802,,,,,,,2023-02-06,1,,,,,スクエア,0
2007,7012801022132,新規,0,2023-02-06,2023-02-06,株式会社Ｒｅｂｉｒｔｈ,,株式会社,東京都,武蔵村山市,本町１丁目６番地の１,,13,223,2080004,,,,,,,2023-02-06,1,,,,,リバース,0
2014,7013301050268,新規,0,2023-02-06,2023-02-06,知行投資株式会社,,株式会社,東京都,豊島区,北大塚２丁目２番１３－７０１号,,13,116,1700004,,,,,,,2023-02-06,1,,,,,チギョウトウシ,0
2015,7013301050276,新規,0,2023-02-06,2023-02-06,みちびき株式会社,,株式会社,東京都,豊島区,南池袋２丁目２４－１八大ビル５０２号室,,13,116,1710022,,,,,,,2023-02-06,1,,,,,ミチビキ,0
2016,7013301050292,新規,0,2023-02-06,2023-02-06,株式会社Ｂ．Ｔ．ＦＡＳＨＩＯＮ,,株式会社,東京都,豊島区,東池袋２丁目６２番９号サンハイツ東池袋７０２,,13,116,1700013,,,,,,,2023-02-06,1,,,,,ビーティーファッション,0
2020,7020001150117,新規,0,2023-02-06,2023-02-06,株式会社百夏,,株式会社,神奈川県,川崎市中原区,木月４丁目３９番２０号,,14,133,2110025,,,,,,,2023-02-06,1,,,,,ヒャッカ,0
2021,7020001150133,新規,0,2023-02-06,2023-02-06,株式会社ＴＨＲＥＥ　ＳＥＥＤｓ,,株式会社,神奈川県,横浜市磯子区,汐見台３丁目２番地３ヴェレーナシティ上大岡４１９号,,14,107,2350022,,,,,,,2023-02-06,1,,,,,スリーシーズ,0
2028,7021001078109,新規,0,2023-02-06,2023-02-06,株式会社柳川建設,,株式会社,神奈川県,秦野市,千村４丁目２番２１号メゾネット萩山１０３号,,14,211,2591324,,,,,,,2023-02-06,1,,,,,ヤナガワケンセツ,0
2031,7021003012701,新規,0,2023-02-06,2023-02-06,Ｌｉｍｅ．ａｒｔ合同会社,,合同会社,神奈川県,横須賀市,秋谷４１６５番地１２,,14,201,2400105,,,,,,,2023-02-06,1,,,,,ライムドットアート,0
2032,7021003012726,新規,0,2023-02-06,2023-02-06,アマノ合同会社,,合同会社,神奈川県,藤沢市,川名１８１－１７－５０４,,14,205,2510015,,,,,,,2023-02-06,1,,,,,アマノ,0
2041,7030001152211,新規,0,2023-02-06,2023-02-06,株式会社ＯＨＦ　ＤＥＳＩＧＮ,,株式会社,埼玉県,狭山市,広瀬東１丁目４－１３,,11,215,3501320,,,,,,,2023-02-06,1,,,,,オフデザイン,0
2042,7030001152244,新規,0,2023-02-06,2023-02-06,普天株式会社,,株式会社,埼玉県,上尾市,大字原市３７５５番地２０,,11,219,3620021,,,,,,,2023-02-06,1,,,,,フテン,0
2043,7030001152252,新規,0,2023-02-06,2023-02-06,株式会社ＫＨ‐ｏｎｌｉｎｅ,,株式会社,埼玉県,さいたま市西区,大字西遊馬１１７９番地１,,11,101,3310061,,,,,,,2023-02-06,1,,,,,ケイエイチオンライン,0
2044,7030001152269,新規,0,2023-02-06,2023-02-06,株式会社ｕｎｉｃｏ　ｄｅｓｉｇｎ,,株式会社,埼玉県,北本市,石戸４丁目４７５番地４,,11,233,3640024,,,,,,,2023-02-06,1,,,,,ユニコデザイン,0
2045,7030001152293,新規,0,2023-02-06,2023-02-06,株式会社ｋｕｕｐｏｒｔ,,株式会社,埼玉県,さいたま市大宮区,宮町１丁目８６番地１,,11,103,3300802,,,,,,,2023-02-06,1,,,,,クーポート,0
2055,7030003021026,新規,0,2023-02-06,2023-02-06,合同会社近藤運輸,,合同会社,埼玉県,川越市,霞ケ関北５丁目２１－４,,11,201,3501109,,,,,,,2023-02-06,1,,,,,コンドウウンユ,0
2056,7030003021109,新規,0,2023-02-06,2023-02-06,合同会社Ｍ‐Ｒ‐ＴＲＡＤＩＮＧ,,合同会社,埼玉県,深谷市,江原４０４番地１,,11,218,3660012,,,,,,,2023-02-06,1,,,,,エムアールトレーディング,0
2061,7040001126833,新規,0,2023-02-06,2023-02-06,株式会社リュオレリテール,,株式会社,千葉県,市川市,塩焼２丁目２番３号棟２２０号,,12,203,2720114,,,,,,,2023-02-06,1,,,,,リュオレリテール,0
2062,7040001126908,新規,0,2023-02-06,2023-02-06,株式会社アンザイレンフーズ,,株式会社,千葉県,市原市,五井東１丁目１４番地１０,,12,219,2900055,,,,,,,2023-02-06,1,,,,,アンザイレンフーズ,0
2063,7040001126932,新規,0,2023-02-06,2023-02-06,株式会社Ｚ‐ＥＬＥＸ　ＰＯＷＥＲ,,株式会社,千葉県,千葉市若葉区,貝塚１丁目４番４号,,12,104,2640020,,,,,,,2023-02-06,1,,,,,ズィーエレックスパワー,0
2064,7040001126940,新規,0,2023-02-06,2023-02-06,悦華株式会社,,株式会社,千葉県,船橋市,宮本３丁目４番１３号１０１室,,12,204,2730003,,,,,,,2023-02-06,1,,,,,エツカ,0
2065,7040001126965,新規,0,2023-02-06,2023-02-06,株式会社ＦＰ．Ｓｕｐｐｏｒｔ,,株式会社,千葉県,浦安市,海楽１丁目２９番１２号,,12,227,2790003,,,,,,,2023-02-06,1,,,,,エフピーサポート,0
2067,7040003021859,新規,0,2023-02-06,2023-02-06,ワイズ・グローバルソース合同会社,,合同会社,千葉県,千葉市若葉区,原町１１６番地１原町貸事務所１０１,,12,104,2640034,,,,,,,2023-02-06,1,,,,,ワイズグローバルソース,0
2070,7050001052335,新規,0,2023-02-06,2023-02-06,株式会社小堀建材,,株式会社,茨城県,下妻市,宗道３８７番地６,,08,210,3040814,,,,,,,2023-02-06,1,,,,,コホリケンザイ,0
2071,7050001052343,新規,0,2023-02-06,2023-02-06,株式会社ＧＲＭ,,株式会社,茨城県,つくばみらい市,谷井田１５３８番地１０,,08,235,3002337,,,,,,,2023-02-06,1,,,,,ジーアールエム,0
2073,7050003007196,新規,0,2023-02-06,2023-02-06,合同会社ＭＩＹＡＴＡ,,合同会社,茨城県,猿島郡境町,２０４８番地１７,,08,546,3060433,,,,,,,2023-02-06,1,,,,,ミヤタ,0
2074,7050003007213,新規,0,2023-02-06,2023-02-06,合同会社ワイズアンドエムズ,,合同会社,茨城県,土浦市,中村南６丁目１１番９号,,08,203,3000843,,,,,,,2023-02-06,1,,,,,ワイズアンドエムズ,0
2076,7070005010080,新規,0,2023-02-06,2023-02-06,一般社団法人群馬県ペストコントロール協会,,その他の設立登記法人,群馬県,太田市,小舞木町４７９番地,,10,205,3730818,,,,,,,2023-02-06,1,,,,,グンマケンペストコントロールキョウカイ,0
2077,7080101023786,新規,0,2023-02-06,2023-02-06,ＫＩＫＫＡＷＡ興業株式会社,,株式会社,静岡県,沼津市,大手町４丁目４番１２号伊豆屋第三ビル２階,,22,203,4100801,,,,,,,2023-02-06,1,,,,,キッカワコウギョウ,0
2079,7090001017961,新規,0,2023-02-06,2023-02-06,株式会社ＫＯＲ,,株式会社,山梨県,甲府市,向町４５９番地１,,19,201,4000813,,,,,,,2023-02-06,1,,,,,ケーオーアール,0
2081,7100001036134,新規,0,2023-02-06,2023-02-06,株式会社ＧｒｏｗｔｈＳｅｅｄｉｎｇＢｌｏｏｍ．,,株式会社,長野県,長野市,真島町真島１００４番地３,,20,201,3812204,,,,,,,2023-02-06,1,,,,,グロースシーディングブルーム,0
2088,7120001252241,新規,0,2023-02-06,2023-02-06,株式会社パシオンクレスト,,株式会社,大阪府,枚方市,東田宮１丁目１番１１号,,27,210,5730023,,,,,,,2023-02-06,1,,,,,パシオンクレスト,0
2089,7120001252258,新規,0,2023-02-06,2023-02-06,株式会社リフレクト,,株式会社,大阪府,大阪市東住吉区,公園南矢田２丁目１３番１３号,,27,121,5460024,,,,,,,2023-02-06,1,,,,,リフレクト,0
2090,7120001252266,新規,0,2023-02-06,2023-02-06,株式会社晴之丘,,株式会社,大阪府,大阪市浪速区,敷津西１丁目１番２８号３Ａ,,27,111,5560015,,,,,,,2023-02-06,1,,,,,ハレノオカ,0
2091,7120001252282,新規,0,2023-02-06,2023-02-06,株式会社ＢＲネクスト,,株式会社,大阪府,大阪市中央区,南本町３丁目６番６号船場エコービル４階,,27,128,5410054,,,,,,,2023-02-06,1,,,,,ビーアールネクスト,0
2092,7120001252290,新規,0,2023-02-06,2023-02-06,株式会社Ｕｎｌｅａｓｈｅｄ,,株式会社,大阪府,大阪市北区,池田町６－４－３Ａ,,27,127,5300033,,,,,,,2023-02-06,1,,,,,アンリーシュド,0
2093,7120001252316,新規,0,2023-02-06,2023-02-06,株式会社エステートそら,,株式会社,大阪府,大阪市天王寺区,堂ケ芝１丁目１１番２０号,,27,109,5430033,,,,,,,2023-02-06,1,,,,,エステートソラ,0
2100,7120005023465,新規,0,2023-02-06,2023-02-06,ＭｉＮ税理士法人,,その他の設立登記法人,大阪府,大阪市中央区,本町４丁目４番１７号ＲＥ－０１２，９０６,,27,128,5410053,,,,,,,2023-02-06,1,,,,,エムアイエヌ,0
2104,7120101066921,新規,0,2023-02-06,2023-02-06,株式会社Ｅａｓｔｏｎ,,株式会社,大阪府,阪南市,箱作２５００番地,,27,232,5990232,,,,,,,2023-02-06,1,,,,,イーストン,0
2105,7120101066938,新規,0,2023-02-06,2023-02-06,株式会社ｉｘＦｉｖｅ,,株式会社,大阪府,堺市西区,草部１４８０番地,,27,144,5938312,,,,,,,2023-02-06,1,,,,,アイファイヴ,0
2106,7120901047096,新規,0,2023-02-06,2023-02-06,株式会社ラーン,,株式会社,大阪府,高槻市,大蔵司２丁目２番２６号,,27,207,5691034,,,,,,,2023-02-06,1,,,,,ラーン,0
2108,7122001036673,新規,0,2023-02-06,2023-02-06,壱興株式会社,,株式会社,大阪府,大東市,大字龍間１２１７番地,,27,218,5740012,,,,,,,2023-02-06,1,,,,,イチコウ,0
2109,7122003002509,新規,0,2023-02-06,2023-02-06,彩り合同会社,,合同会社,大阪府,東大阪市,上石切町２丁目４番２２号,,27,227,5798012,,,,,,,2023-02-06,1,,,,,イロドリ,0
2111,7130001073579,新規,0,2023-02-06,2023-02-06,株式会社ネクスト,,株式会社,京都府,京都市伏見区,西大文字町９５４番地３,,26,109,6128376,,,,,,,2023-02-06,1,,,,,ネクスト,0
2112,7130001073587,新規,0,2023-02-06,2023-02-06,Ｃｙｎ‐Ｋバイオ株式会社,,株式会社,京都府,京都市左京区,吉田橘町３２番地,,26,103,6068303,,,,,,,2023-02-06,1,,,,,シンケイバイオ,0
2113,7140001128968,新規,0,2023-02-06,2023-02-06,株式会社ｍｏＮ,,株式会社,兵庫県,加古川市,加古川町溝之口７２８番地ミキシティビル１Ｆ,,28,210,6750064,,,,,,,2023-02-06,1,,,,,モン,0
2114,7140001128984,新規,0,2023-02-06,2023-02-06,ワイズ株式会社,,株式会社,兵庫県,神戸市灘区,記田町５丁目２－１,,28,102,6570034,,,,,,,2023-02-06,1,,,,,ワイズ,0
2115,7140001129000,新規,0,2023-02-06,2023-02-06,株式会社たまひで,,株式会社,兵庫県,神戸市中央区,加納町３丁目１３番１号清河ビル１Ｆ,,28,110,6500001,,,,,,,2023-02-06,1,,,,,タマヒデ,0
2116,7140001129033,新規,0,2023-02-06,2023-02-06,株式会社ＣＲＡＦＥＥ,,株式会社,兵庫県,西宮市,老松町５番２１－１号,,28,204,6620085,,,,,,,2023-02-06,1,,,,,クラフィ,0
2120,7150001026147,新規,0,2023-02-06,2023-02-06,エスセティックエデュケイション株式会社,,株式会社,奈良県,奈良市,高畑町１０５８番地１０１室,,29,201,6308301,,,,,,,2023-02-06,1,,,,,エスセティックエデュケイション,0
2122,7150003002880,新規,0,2023-02-06,2023-02-06,リライアブルパートナー合同会社,,合同会社,奈良県,奈良市,松陽台２丁目１８番１６号,,29,201,6310007,,,,,,,2023-02-06,1,,,,,リライアブルパートナー,0
2123,7160001024819,新規,0,2023-02-06,2023-02-06,あさイチダッシュ株式会社,,株式会社,滋賀県,大津市,山百合の丘２１番３７号,,25,201,5200357,,,,,,,2023-02-06,1,,,,,アサイチダッシュ,0
2125,7160005011160,新規,0,2023-02-06,2023-02-06,一般社団法人Ｑｕｅｓｅｒａ,,その他の設立登記法人,滋賀県,東近江市,幸町１番６８号ｍ５バンクス２０１号室,,25,213,5270031,,,,,,,2023-02-06,1,,,,,ケセラ,0
2136,7180001154738,新規,0,2023-02-06,2023-02-06,日本循環資源株式会社,,株式会社,愛知県,名古屋市東区,東桜２丁目１２番１８号,,23,102,4610005,,,,,,,2023-02-06,1,,,,,ニホンジュンカンシゲン,0
2137,7180001154804,新規,0,2023-02-06,2023-02-06,株式会社ふなはしサービス,,株式会社,愛知県,岩倉市,井上町２５０番地,,23,228,4820032,,,,,,,2023-02-06,1,,,,,フナハシサービス,0
2138,7180001154812,新規,0,2023-02-06,2023-02-06,株式会社ｇｒｅＫｅｎ　ｄｅｎｔａｌ　ｌａｂ,,株式会社,愛知県,名古屋市昭和区,鶴舞３丁目１番１５号セントラルハイツカシノ２階,,23,107,4660064,,,,,,,2023-02-06,1,,,,,グリケンデンタルラボ,0
2139,7180001154845,新規,0,2023-02-06,2023-02-06,Ｆ．Ｂ．Ｄ．Ａ．名古屋株式会社,,株式会社,愛知県,名古屋市守山区,中新１０番１０号,,23,113,4630057,,,,,,,2023-02-06,1,,,,,エフビーディエーナゴヤ,0
2148,7180303005606,新規,0,2023-02-06,2023-02-06,合同会社ａｎｄ．Ｂ,,合同会社,愛知県,岡崎市,福岡町字岩ケ崎８番地,,23,202,4440825,,,,,,,2023-02-06,1,,,,,アンドビー,0
2155,7200003005829,新規,0,2023-02-06,2023-02-06,合同会社メタ・サーチ,,合同会社,岐阜県,土岐市,下石町３１５番地の３,,21,212,5095202,,,,,,,2023-02-06,1,,,,,メタサーチ,0
2156,7210001019219,新規,0,2023-02-06,2023-02-06,上田水産食品株式会社,,株式会社,福井県,敦賀市,長沢２４号７番地の１,,18,202,9140046,,,,,,,2023-02-06,1,,,,,ウエダスイサンショクヒン,0
2158,7220001025249,新規,0,2023-02-06,2023-02-06,トラストブレーン株式会社,,株式会社,石川県,金沢市,新神田４丁目８番７号,,17,201,9218013,,,,,,,2023-02-06,1,,,,,トラストブレーン,0
2168,7240001061044,新規,0,2023-02-06,2023-02-06,株式会社Ｊ．Ｂ．ＷＯＲＫＳ,,株式会社,広島県,東広島市,高屋町白市４２１番地４,,34,212,7392114,,,,,,,2023-02-06,1,,,,,ジェイビーワークス,0
2169,7240001061052,新規,0,2023-02-06,2023-02-06,株式会社栄雄組,,株式会社,広島県,三原市,糸崎７丁目１番３２号,,34,204,7290324,,,,,,,2023-02-06,1,,,,,エイユウグミ,0
2191,7290803004336,新規,0,2023-02-06,2023-02-06,合同会社みらいインベスト,,合同会社,福岡県,行橋市,泉中央６丁目１１番３７号,,40,213,8240034,,,,,,,2023-02-06,1,,,,,ミライインベスト,0
2197,7320003004001,新規,0,2023-02-06,2023-02-06,合同会社サンライズ,,合同会社,大分県,豊後大野市,大野町田中２１０６番地２,,44,212,8796441,,,,,,,2023-02-06,1,,,,,サンライズ,0
2200,7340003004040,新規,0,2023-02-06,2023-02-06,合同会社Ｗａｌｉ　ｂｒｏｔｈｅｒ’ｓ,,合同会社,鹿児島県,霧島市,隼人町内山田１８１９番地３グレートハピネス神宮Ａ棟５０８,,46,218,8995106,,,,,,,2023-02-06,1,,,,,ワリブラザーズ,0
2203,7360001031530,新規,0,2023-02-06,2023-02-06,株式会社リオール,,株式会社,沖縄県,那覇市,字小禄１４８３番地４,,47,201,9010152,,,,,,,2023-02-06,1,,,,,リオール,0
2206,7370001049571,新規,0,2023-02-06,2023-02-06,株式会社シミズアグリサービス,,株式会社,宮城県,角田市,角田字栗木７２番地,,04,208,9811505,,,,,,,2023-02-06,1,,,,,シミズアグリサービス,0
2227,7430001088365,新規,0,2023-02-06,2023-02-06,Ａ．Ｓｔｅｐ’ｓ株式会社,,株式会社,北海道,札幌市豊平区,月寒東三条３丁目４番５号,,01,105,0620053,,,,,,,2023-02-06,1,,,,,アステップス,0
2229,7430003014699,新規,0,2023-02-06,2023-02-06,合同会社ＡＺ　Ｇｒｏｕｐ,,合同会社,北海道,千歳市,末広５丁目８番１号アルファテラス末広１Ｆ,,01,224,0660027,,,,,,,2023-02-06,1,,,,,エーゼットグループ,0
2230,7430003014708,新規,0,2023-02-06,2023-02-06,合同会社サンリーラボ,,合同会社,北海道,岩見沢市,大和三条３丁目２８番地,,01,210,0680853,,,,,,,2023-02-06,1,,,,,サンリーラボ,0
2231,7430003014716,新規,0,2023-02-06,2023-02-06,三川屋合同会社,,合同会社,北海道,札幌市白石区,本郷通６丁目北５番１－４０２号,,01,104,0030025,,,,,,,2023-02-06,1,,,,,ミカワヤ,0
2235,7470003002337,新規,0,2023-02-06,2023-02-06,ＭＹメタル合同会社,,合同会社,香川県,善通寺市,生野町１７０６番地６,,37,204,7650053,,,,,,,2023-02-06,1,,,,,エムワイメタル,0
2247,8010001232765,新規,0,2023-02-06,2023-02-06,株式会社伊藤料理写真,,株式会社,東京都,文京区,白山１丁目３３番地８号朝日白山マンション１２０６号室,,13,105,1130001,,,,,,,2023-02-06,1,,,,,イトウリョウリシャシン,0
2248,8010001232781,新規,0,2023-02-06,2023-02-06,株式会社ナミプロ,,株式会社,東京都,千代田区,内幸町２丁目１－１飯野ビルディング９階,,13,101,1000011,,,,,,,2023-02-06,1,,,,,ナミプロ,0
2250,8010003039762,新規,0,2023-02-06,2023-02-06,合同会社まえだオフィス,,合同会社,東京都,中央区,銀座１丁目２２番１１号銀座大竹ビジデンス２Ｆ,,13,102,1040061,,,,,,,2023-02-06,1,,,,,マエダオフィス,0
2252,8010005036221,新規,0,2023-02-06,2023-02-06,ＲＢソーラーククイ一般社団法人,,その他の設立登記法人,東京都,千代田区,麹町２丁目８番地ＭＬＣ麹町ビル４階フィンポート税理士法人内,,13,101,1020083,,,,,,,2023-02-06,1,,,,,アールビーソーラーククイ,0
2255,8010401172272,新規,0,2023-02-06,2023-02-06,株式会社オプライゾン,,株式会社,東京都,港区,港南２丁目１５番２号,,13,103,1080075,,,,,,,2023-02-06,1,,,,,オプライゾン,0
2257,8010403029438,新規,0,2023-02-06,2023-02-06,合同会社ＨＮ,,合同会社,東京都,港区,赤坂３丁目１５番２号４階,,13,103,1070052,,,,,,,2023-02-06,1,,,,,エイチエヌ,0
2260,8010405021789,新規,0,2023-02-06,2023-02-06,一般社団法人ＳＨ０６７,,その他の設立登記法人,東京都,港区,虎ノ門３丁目２２番１０－２０１号,,13,103,1050001,,,,,,,2023-02-06,1,,,,,エスエイチゼロシックスセブン,0
2263,8010501049866,新規,0,2023-02-06,2023-02-06,株式会社ＧＯＬＤ　ＣＲＯＷＮ　ＲＥＣＯＲＤ,,株式会社,東京都,台東区,西浅草２丁目１７番５号ラシクラス西浅草７０１,,13,106,1110035,,,,,,,2023-02-06,1,,,,,ゴールドクラウンレコード,0
2264,8010501049965,新規,0,2023-02-06,2023-02-06,信友商事株式会社,,株式会社,東京都,台東区,台東１丁目２４番９号ブライト秋葉原２Ｆ,,13,106,1100016,,,,,,,2023-02-06,1,,,,,シンユウショウジ,0
2265,8010501049973,新規,0,2023-02-06,2023-02-06,１ｓｔ建設株式会社,,株式会社,東京都,台東区,花川戸２丁目１７番７－７０２号,,13,106,1110033,,,,,,,2023-02-06,1,,,,,ファーストケンセツ,0
2267,8010601062546,新規,0,2023-02-06,2023-02-06,ＬＵＤＥ株式会社,,株式会社,東京都,江東区,東砂５丁目５番６－３０７号,,13,108,1360074,,,,,,,2023-02-06,1,,,,,ルード,0
2268,8010601062562,新規,0,2023-02-06,2023-02-06,株式会社ＬａＳＴＡ,,株式会社,東京都,江東区,牡丹１丁目１５番５号,,13,108,1350046,,,,,,,2023-02-06,1,,,,,ラスタ,0
2269,8010603009982,新規,0,2023-02-06,2023-02-06,合同会社ＭＨＭ,,合同会社,東京都,江東区,大島８丁目９－５メイト大島ＩＩ３０１,00129344,13,108,1360072,,,,,,,2023-02-06,1,,,,,エムエイチエム,0
2283,8011001152301,新規,0,2023-02-06,2023-02-06,Ｓｔａｎｅｅｒ株式会社,,株式会社,東京都,渋谷区,恵比寿西２丁目９－９クリスタルスクエア代官山３－Ｂ,,13,113,1500021,,,,,,,2023-02-06,1,,,,,スタニア,0
2284,8011001152409,新規,0,2023-02-06,2023-02-06,ＬＥＶＥＬＵＰ　ｆｏｏｄｓ　ｔｅｃｈｎｏｌｏｇｙ　Ｊａｐａｎ株式会社,,株式会社,東京都,渋谷区,恵比寿１丁目２１番１８－５０１号,,13,113,1500013,,,,,,,2023-02-06,1,,,,,レベルアップフーズテクノロジージャパン,0
2285,8011003016181,新規,0,2023-02-06,2023-02-06,Ａｘｌａ合同会社,,合同会社,東京都,渋谷区,道玄坂１丁目１０番８号渋谷道玄坂東急ビル２Ｆ－Ｃ,,13,113,1500043,,,,,,,2023-02-06,1,,,,,アクセラ,0
2293,8011101101736,新規,0,2023-02-06,2023-02-06,株式会社ハシテン,,株式会社,東京都,新宿区,西新宿７丁目２番７号豊ビル１Ｆ,,13,104,1600023,,,,,,,2023-02-06,1,,,,,ハシテン,0
2294,8011103012667,新規,0,2023-02-06,2023-02-06,合同会社ＯｎｌｙＭｉｎｅ,,合同会社,東京都,新宿区,西新宿３丁目３番１３号西新宿水間ビル６階,,13,104,1600023,,,,,,,2023-02-06,1,,,,,オンリーマイン,0
2297,8011501028942,新規,0,2023-02-06,2023-02-06,ＮｅｗＳａｕｃｅｒ株式会社,,株式会社,東京都,荒川区,西日暮里２丁目２１番１０－１１０２号,,13,118,1160013,,,,,,,2023-02-06,1,,,,,ニューソーサー,0
2299,8011503005452,新規,0,2023-02-06,2023-02-06,ｋｉｈｉ合同会社,,合同会社,東京都,北区,赤羽北３丁目３番２０－２０２号ハイツＭ＆Ｍ,,13,117,1150052,,,,,,,2023-02-06,1,,,,,キヒ,0
2300,8011505002530,新規,0,2023-02-06,2023-02-06,一般社団法人ＳＥＴＳＵＫＯの花の教室,,その他の設立登記法人,東京都,北区,東十条５丁目６番５号,,13,117,1140001,,,,,,,2023-02-06,1,,,,,セツコノハナノキョウシツ,0
2301,8011601026557,新規,0,2023-02-06,2023-02-06,株式会社Ｔｒｅｆｏｉｌ,,株式会社,東京都,練馬区,関町北３丁目４０番３号,,13,120,1770051,,,,,,,2023-02-06,1,,,,,トレフォイル,0
2303,8011603003810,新規,0,2023-02-06,2023-02-06,合同会社ヤプト,,合同会社,東京都,練馬区,東大泉１丁目２８番２－１６０３号,,13,120,1780063,,,,,,,2023-02-06,1,,,,,ヤプト,0
2319,8020001150074,新規,0,2023-02-06,2023-02-06,株式会社サンライズ,,株式会社,神奈川県,横浜市西区,御所山町１７番地４,,14,103,2200043,,,,,,,2023-02-06,1,,,,,サンライズ,0
2320,8020001150108,新規,0,2023-02-06,2023-02-06,カブトオウ株式会社,,株式会社,神奈川県,川崎市中原区,丸子通１丁目６４０番地２２,,14,133,2110006,,,,,,,2023-02-06,1,,,,,カブトオウ,0
2321,8020001150116,新規,0,2023-02-06,2023-02-06,株式会社マキタ,,株式会社,神奈川県,横浜市保土ケ谷区,狩場町３０３番地２３６グランコート保土ケ谷１０２号,,14,106,2400025,,,,,,,2023-02-06,1,,,,,マキタ,0
2322,8020001150149,新規,0,2023-02-06,2023-02-06,レトロ株式会社,,株式会社,神奈川県,横浜市西区,老松町９番地,,14,103,2200032,,,,,,,2023-02-06,1,,,,,レトロ,0
2325,8020003023237,新規,0,2023-02-06,2023-02-06,Ｄｈ‐ＨＡＬ合同会社,,合同会社,神奈川県,横浜市金沢区,泥亀２丁目１番１０号,,14,108,2360021,,,,,,,2023-02-06,1,,,,,ディーエイチハル,0
2326,8020003023253,新規,0,2023-02-06,2023-02-06,合同会社あおぞら,,合同会社,神奈川県,横浜市中区,伊勢佐木町５丁目１２９番地１ライオンズマンション伊勢佐木町通り７０５号,,14,104,2310045,,,,,,,2023-02-06,1,,,,,アオゾラ,0
2335,8021001078108,新規,0,2023-02-06,2023-02-06,ＡＵＴＯ　ＷＯＲＬＤ株式会社,,株式会社,神奈川県,藤沢市,西俣野１９０８番地１,,14,205,2520812,,,,,,,2023-02-06,1,,,,,オートワールド,0
2336,8021001078116,新規,0,2023-02-06,2023-02-06,株式会社プライムターフ,,株式会社,神奈川県,相模原市緑区,下九沢２４９６番地７ラウレア２０１,,14,151,2520134,,,,,,,2023-02-06,1,,,,,プライムターフ,0
2343,8021003012700,新規,0,2023-02-06,2023-02-06,ＳＴＵＤＩＯ　ＴＥＮＴＡＣＬＥＣＵＢＥ合同会社,,合同会社,神奈川県,横須賀市,湘南鷹取３丁目２２番３号,,14,201,2370066,,,,,,,2023-02-06,1,,,,,スタジオテンタクルキューブ,0
2344,8021003012725,新規,0,2023-02-06,2023-02-06,合同会社軽あります,,合同会社,神奈川県,相模原市中央区,相模原５丁目２－１,,14,152,2520231,,,,,,,2023-02-06,1,,,,,ケイアリマス,0
2349,8030001152219,新規,0,2023-02-06,2023-02-06,株式会社アーキテクトマネージメント,,株式会社,埼玉県,川口市,末広２丁目１６番１３号,,11,203,3320006,,,,,,,2023-02-06,1,,,,,アーキテクトマネージメント,0
2350,8030001152227,新規,0,2023-02-06,2023-02-06,株式会社ＫＵＮＩ,,株式会社,埼玉県,さいたま市見沼区,東大宮１丁目１０番３号,,11,104,3370051,,,,,,,2023-02-06,1,,,,,クニ,0
2351,8030001152235,新規,0,2023-02-06,2023-02-06,株式会社ナガイサッシ,,株式会社,埼玉県,新座市,池田５丁目３番２３号,,11,230,3520015,,,,,,,2023-02-06,1,,,,,ナガイサッシ,0
2352,8030001152251,新規,0,2023-02-06,2023-02-06,ＨＲエージェント株式会社,,株式会社,埼玉県,川口市,川口２丁目１２番１０－２０１号エルヴィータ,,11,203,3320015,,,,,,,2023-02-06,1,,,,,エイチアールエージェント,0
2353,8030001152268,新規,0,2023-02-06,2023-02-06,株式会社中尾解体,,株式会社,埼玉県,三郷市,東町３５７番地２サンクレイドル三郷ファーストスクエア７０４号,,11,237,3410036,,,,,,,2023-02-06,1,,,,,ナカオカイタイ,0
2354,8030001152284,新規,0,2023-02-06,2023-02-06,株式会社Ｔｏｎａｉ,,株式会社,埼玉県,入間市,扇町屋５丁目２番７号５,,11,225,3580022,,,,,,,2023-02-06,1,,,,,トウナイ,0
2357,8030003021090,新規,0,2023-02-06,2023-02-06,合同会社ビサイホーム,,合同会社,埼玉県,川越市,小仙波町２丁目３５番地２９,,11,201,3500036,,,,,,,2023-02-06,1,,,,,ビサイホーム,0
2358,8030003021116,新規,0,2023-02-06,2023-02-06,合同会社ネオシル,,合同会社,埼玉県,さいたま市大宮区,桜木町２丁目３番地７階,,11,103,3300854,,,,,,,2023-02-06,1,,,,,ネオシル,0
2359,8030003021124,新規,0,2023-02-06,2023-02-06,合同会社ホットハートコネクト,,合同会社,埼玉県,春日部市,西金野井４５８番地１９,,11,214,3440112,,,,,,,2023-02-06,1,,,,,ホットハートコネクト,0
2361,8040001126923,新規,0,2023-02-06,2023-02-06,株式会社Ｃｈｅｅｒ　ＵＰ,,株式会社,千葉県,千葉市美浜区,中瀬１丁目３番地幕張テクノガーデン,,12,106,2610023,,,,,,,2023-02-06,1,,,,,チアーアップ,0
2362,8040001126997,新規,0,2023-02-06,2023-02-06,株式会社ＡＭＢ,,株式会社,千葉県,松戸市,大橋１４１－１,,12,207,2702224,,,,,,,2023-02-06,1,,,,,エーエムビー,0
2368,8040003021858,新規,0,2023-02-06,2023-02-06,合同会社ｒａｐｐｏｒｔ,,合同会社,千葉県,成田市,大清水２２３番地５９（コッティＡ２０３）,,12,211,2860122,,,,,,,2023-02-06,1,,,,,ラポール,0
2369,8040005021880,新規,0,2023-02-06,2023-02-06,ＮＰＯ法人ＥｄＦｕｔｕｒｅ,,その他の設立登記法人,千葉県,松戸市,大橋２８０番地の６,,12,207,2702224,,,,,,,2023-02-06,1,,,,,エドフューチャー,0
2373,8050001052334,新規,0,2023-02-06,2023-02-06,株式会社ポライト,,株式会社,茨城県,守谷市,百合ケ丘２丁目４８０１番地の１４グリーンビル２Ｆ,,08,224,3020110,,,,,,,2023-02-06,1,,,,,ポライト,0
2374,8050001052342,新規,0,2023-02-06,2023-02-06,株式会社Ｂｏｎｄｓ,,株式会社,茨城県,水戸市,笠原町９７５番地の２６,,08,201,3100852,,,,,,,2023-02-06,1,,,,,ボンズ,0
2377,8060001035668,新規,0,2023-02-06,2023-02-06,株式会社ＩＢＵＫＩ,,株式会社,栃木県,栃木市,大宮町１６８３番地１,,09,203,3280011,,,,,,,2023-02-06,1,,,,,イブキ,0
2378,8060001035676,新規,0,2023-02-06,2023-02-06,株式会社Ｓｈａｒｅ,,株式会社,栃木県,宇都宮市,中央３丁目１番４号栃木県産業会館３階宇都宮ベンチャーズ内,,09,201,3200806,,,,,,,2023-02-06,1,,,,,シェア,0
2381,8080001025452,新規,0,2023-02-06,2023-02-06,株式会社れいわ不動産,,株式会社,静岡県,静岡市葵区,新伝馬１丁目１－９、２Ｆ,,22,101,4200944,,,,,,,2023-02-06,1,,,,,レイワフドウサン,0
2382,8080103002738,新規,0,2023-02-06,2023-02-06,墜露園合同会社,,合同会社,静岡県,伊豆市,土肥２８４－２,,22,222,4103302,,,,,,,2023-02-06,1,,,,,ツイロエン,0
2386,8100001036109,新規,0,2023-02-06,2023-02-06,株式会社燕十,,株式会社,長野県,松本市,中央２丁目５番１９号,,20,202,3900811,,,,,,,2023-02-06,1,,,,,エンジュ,0
2387,8100001036117,新規,0,2023-02-06,2023-02-06,ＧＥＡＲ冷熱株式会社,,株式会社,長野県,佐久市,鍛冶屋３７５番地５,,20,217,3850041,,,,,,,2023-02-06,1,,,,,ギアレイネツ,0
2388,8100003006869,新規,0,2023-02-06,2023-02-06,合同会社ヴァントわ,,合同会社,長野県,中野市,大字越８４６番地２,,20,211,3830005,,,,,,,2023-02-06,1,,,,,ヴァントワ,0
2397,8120001252224,新規,0,2023-02-06,2023-02-06,株式会社ＭＧシビル,,株式会社,大阪府,大阪市中央区,久太郎町３丁目４番３０号,,27,128,5410056,,,,,,,2023-02-06,1,,,,,エムジーシビル,0
2398,8120001252298,新規,0,2023-02-06,2023-02-06,株式会社Ｈ・Ｓ,,株式会社,大阪府,大阪市東住吉区,矢田１丁目１１番３０号３０３号室,,27,121,5460023,,,,,,,2023-02-06,1,,,,,エイチエス,0
2402,8120003023367,新規,0,2023-02-06,2023-02-06,ＣｏＥｖｏｌｕｔｉｏｎ合同会社,,合同会社,大阪府,大阪市中央区,北久宝寺町３丁目６番１号本町南ガーデンシティ７階,,27,128,5410057,,,,,,,2023-02-06,1,,,,,コーエボリューション,0
2403,8120005023464,新規,0,2023-02-06,2023-02-06,都住創大手前管理組合法人,,その他の設立登記法人,大阪府,大阪市中央区,大手前１丁目４番２号,,27,128,5400008,,,,,,,2023-02-06,1,,,,,トジュウソウオオテマエ,0
2406,8120101066920,新規,0,2023-02-06,2023-02-06,株式会社ＭＯＧＵＲＡフィルムコンテンツ,,株式会社,大阪府,藤井寺市,小山６丁目１番１８号,,27,226,5830033,,,,,,,2023-02-06,1,,,,,モグラフィルムコンテンツ,0
2407,8120101066929,新規,0,2023-02-06,2023-02-06,西野設備株式会社,,株式会社,大阪府,岸和田市,上野町西１７番９号,,27,202,5960048,,,,,,,2023-02-06,1,,,,,ニシノセツビ,0
2408,8120101066953,新規,0,2023-02-06,2023-02-06,御幸株式会社,,株式会社,大阪府,堺市東区,丈六３６０番地９,,27,143,5998122,,,,,,,2023-02-06,1,,,,,ミユキ,0
2414,8120901047079,新規,0,2023-02-06,2023-02-06,スポコン株式会社,,株式会社,大阪府,高槻市,芥川町２丁目６番１号スカイジャンプビル３階南側,,27,207,5691123,,,,,,,2023-02-06,1,,,,,スポコン,0
2418,8122001036672,新規,0,2023-02-06,2023-02-06,株式会社リーガルパートナーズ,,株式会社,大阪府,大東市,赤井１丁目３番１８号白井ビル２階,,27,218,5740046,,,,,,,2023-02-06,1,,,,,リーガルパートナーズ,0
2422,8130001073611,新規,0,2023-02-06,2023-02-06,株式会社佐保建材,,株式会社,京都府,城陽市,富野森山１９番地の１０,,26,207,6100111,,,,,,,2023-02-06,1,,,,,サホケンザイ,0
2426,8130003008499,新規,0,2023-02-06,2023-02-06,合同会社南山内装,,合同会社,京都府,八幡市,八幡三本橋７５番地の９,,26,210,6148093,,,,,,,2023-02-06,1,,,,,ミナミヤマナイソウ,0
2427,8130003008516,新規,0,2023-02-06,2023-02-06,ヤマモトＧ合同会社,,合同会社,京都府,京都市上京区,大宮通下長者町下る清元町７１７・７１８・７２１番合地,,26,102,6028116,,,,,,,2023-02-06,1,,,,,ヤマモトジー,0
2429,8140001128967,新規,0,2023-02-06,2023-02-06,株式会社ＡＬＡ,,株式会社,兵庫県,姫路市,広畑区東新町１丁目３２番地米田第１ビル５０１,,28,201,6711121,,,,,,,2023-02-06,1,,,,,エーエルエー,0
2430,8140001129016,新規,0,2023-02-06,2023-02-06,株式会社ＫＯＳ,,株式会社,兵庫県,尼崎市,上坂部３丁目１１番１号フレアージュ塚口１Ｆ,,28,202,6610979,,,,,,,2023-02-06,1,,,,,コス,0
2443,8180001154803,新規,0,2023-02-06,2023-02-06,株式会社シーエム,,株式会社,愛知県,名古屋市中区,新栄１丁目１２番２０号プリンセス瓦町１階１Ｂ号室,,23,106,4600007,,,,,,,2023-02-06,1,,,,,シーエム,0
2444,8180001154852,新規,0,2023-02-06,2023-02-06,株式会社ナチル,,株式会社,愛知県,名古屋市天白区,高島１丁目６２３番地,,23,116,4680022,,,,,,,2023-02-06,1,,,,,ナチル,0
2445,8180001154860,新規,0,2023-02-06,2023-02-06,いちとも工房株式会社,,株式会社,愛知県,一宮市,丹羽字井端１２２６番地１０,,23,203,4910083,,,,,,,2023-02-06,1,,,,,イチトモコウボウ,0
2446,8180001154869,新規,0,2023-02-06,2023-02-06,コスパ不動産株式会社,,株式会社,愛知県,一宮市,西島町１丁目４０番地,,23,203,4910062,,,,,,,2023-02-06,1,,,,,コスパフドウサン,0
2447,8180001154885,新規,0,2023-02-06,2023-02-06,株式会社ケージーベース,,株式会社,愛知県,名古屋市千種区,千種２丁目２３番６号,,23,101,4640858,,,,,,,2023-02-06,1,,,,,ケージーベース,0
2448,8180003024806,新規,0,2023-02-06,2023-02-06,合同会社丸茂商店,,合同会社,愛知県,名古屋市名東区,宝が丘２６６番地の１,,23,115,4650043,,,,,,,2023-02-06,1,,,,,マルシゲショウテン,0
2449,8180003024814,新規,0,2023-02-06,2023-02-06,合同会社河合商店,,合同会社,愛知県,名古屋市守山区,小幡常燈１８番２号,,23,113,4630047,,,,,,,2023-02-06,1,,,,,カワイショウテン,0
2456,8200001040934,新規,0,2023-02-06,2023-02-06,株式会社アクス,,株式会社,岐阜県,羽島郡笠松町,長池２６３番地の１,,21,303,5016063,,,,,,,2023-02-06,1,,,,,アクス,0
2457,8200003005836,新規,0,2023-02-06,2023-02-06,合同会社まるたか訪問介護,,合同会社,岐阜県,郡上市,高鷲町鮎立２８１５番地１,,21,219,5015304,,,,,,,2023-02-06,1,,,,,マルタカホウモンカイゴ,0
2461,8220003003441,新規,0,2023-02-06,2023-02-06,合同会社高花堂,,合同会社,石川県,金沢市,此花町２番４８号,,17,201,9200852,,,,,,,2023-02-06,1,,,,,タカハナドウ,0
2471,8240001061043,新規,0,2023-02-06,2023-02-06,株式会社ｅ．Ｋｏｓ‐Ｆｉｋａ,,株式会社,広島県,広島市佐伯区,湯来町大字葛原８８４番地,,34,108,7380511,,,,,,,2023-02-06,1,,,,,イコスフィーカ,0
2472,8240001061051,新規,0,2023-02-06,2023-02-06,株式会社Ｓ・Ｊ・Ｋ,,株式会社,広島県,福山市,千田町２丁目４７番２１－４号,,34,207,7200017,,,,,,,2023-02-06,1,,,,,エスジェイケイ,0
2480,8240003006013,新規,0,2023-02-06,2023-02-06,合同会社５２,,合同会社,広島県,広島市安佐南区,大塚西６丁目１１－３－６０４,,34,105,7313167,,,,,,,2023-02-06,1,,,,,ファイブトゥー,0
2492,8260001037636,新規,0,2023-02-06,2023-02-06,株式会社岡田商事,,株式会社,岡山県,岡山市北区,幸町７番２８号,,33,101,7000903,,,,,,,2023-02-06,1,,,,,オカダショウジ,0
2495,8270003001481,新規,0,2023-02-06,2023-02-06,ＧＡＬＡＮＴ　ＲＯＳＥ　ＩＮＴＥＲＮＡＴＩＯＮＡＬ合同会社,,合同会社,鳥取県,米子市,両三柳５０３７,,31,202,6830853,,,,,,,2023-02-06,1,,,,,ギャランローズインターナショナル,0
2498,8280003001695,新規,0,2023-02-06,2023-02-06,合同会社訪問看護ステーション花ｈａｎａ,,合同会社,島根県,益田市,横田町２８５－８,,32,204,6995132,,,,,,,2023-02-06,1,,,,,ホウモンカンゴステーションハナハナ,0
2504,8290001100382,新規,0,2023-02-06,2023-02-06,株式会社ＢＡＮＧＡＳＨＩＬＡ,,株式会社,福岡県,福岡市中央区,天神３丁目１番１号天神フタタビル,,40,133,8100001,,,,,,,2023-02-06,1,,,,,バンガシラ,0
2506,8290003013500,新規,0,2023-02-06,2023-02-06,合同会社シティ,,合同会社,福岡県,福岡市博多区,麦野２丁目１９番１１号米倉ビル５０８号,,40,132,8120882,,,,,,,2023-02-06,1,,,,,シティ,0
2508,8300001013211,新規,0,2023-02-06,2023-02-06,株式会社彦左衛門,,株式会社,佐賀県,佐賀市,大和町大字梅野１９２５番地３,,41,201,8400203,,,,,,,2023-02-06,1,,,,,ヒコザエモン,0
2517,8330001030567,新規,0,2023-02-06,2023-02-06,株式会社宮川コーポレーション,,株式会社,熊本県,熊本市中央区,南千反畑町７番５号パークサイド２０２号,,43,101,8600842,,,,,,,2023-02-06,1,,,,,ミヤガワコーポレーション,0
2518,8330001030575,新規,0,2023-02-06,2023-02-06,株式会社アーバントラスト,,株式会社,熊本県,熊本市中央区,水前寺３丁目２１番２号,,43,101,8620950,,,,,,,2023-02-06,1,,,,,アーバントラスト,0
2522,8360001031521,新規,0,2023-02-06,2023-02-06,株式会社旅工房沖縄,,株式会社,沖縄県,宜野湾市,野嵩１丁目３７番４－２号,,47,205,9012203,,,,,,,2023-02-06,1,,,,,タビコウボウオキナワ,0
2524,8360005006783,新規,0,2023-02-06,2023-02-06,一般社団法人アースメディスンセンター,,その他の設立登記法人,沖縄県,南城市,大里字古堅１４２番地,,47,215,9011207,,,,,,,2023-02-06,1,,,,,アースメディスンセンター,0
2528,8370001049562,新規,0,2023-02-06,2023-02-06,株式会社ニッシン工業,,株式会社,宮城県,石巻市,門脇字二番谷地８番地４,,04,202,9860853,,,,,,,2023-02-06,1,,,,,ニッシンコウギョウ,0
2552,8430001088372,新規,0,2023-02-06,2023-02-06,株式会社Ｋ＆８,,株式会社,北海道,札幌市清田区,清田七条１丁目３６番８号,,01,110,0040847,,,,,,,2023-02-06,1,,,,,ケイアンドエイト,0
2554,8430003014698,新規,0,2023-02-06,2023-02-06,合同会社ＩＣＦ,,合同会社,北海道,札幌市白石区,菊水五条２丁目４番２３号パークヒルズ菊水１階,,01,104,0030805,,,,,,,2023-02-06,1,,,,,アイシーエフ,0
2561,8500001024758,新規,0,2023-02-06,2023-02-06,ＹＯＭＯＤＡ株式会社,,株式会社,愛媛県,松山市,大街道３丁目８番地１２本田ビル１階,,38,201,7900004,,,,,,,2023-02-06,1,,,,,ヨモダ,0
2568,9010001232681,新規,0,2023-02-06,2023-02-06,株式会社ＶＡＭＯＳ,,株式会社,東京都,千代田区,岩本町２丁目１１番１号,,13,101,1010032,,,,,,,2023-02-06,1,,,,,ヴァモス,0
2569,9010001232715,新規,0,2023-02-06,2023-02-06,株式会社ＳＴＵＤＩＯ　ＲＡＫＵ,,株式会社,東京都,中央区,日本橋人形町１丁目１３番９－６０２号,,13,102,1030013,,,,,,,2023-02-06,1,,,,,スタジオラク,0
2570,9010001232731,新規,0,2023-02-06,2023-02-06,株式会社Ｍｏｄｕｌａｔｉｏｎ,,株式会社,東京都,中央区,銀座１丁目１２番４号Ｎ＆Ｅ－ＢＬＤ．６Ｆ,,13,102,1040061,,,,,,,2023-02-06,1,,,,,モジュレーション,0
2571,9010001232772,新規,0,2023-02-06,2023-02-06,株式会社ｃｙｍｂａ,,株式会社,東京都,中央区,晴海５丁目１番９号,,13,102,1040053,,,,,,,2023-02-06,1,,,,,シンバ,0
2576,9010403029412,新規,0,2023-02-06,2023-02-06,合同会社マリブ,,合同会社,東京都,港区,麻布十番３丁目１２番２号,,13,103,1060045,,,,,,,2023-02-06,1,,,,,マリブ,0
2577,9010405021788,新規,0,2023-02-06,2023-02-06,一般社団法人ＳＨ０６６,,その他の設立登記法人,東京都,港区,虎ノ門３丁目２２番１０－２０１号,,13,103,1050001,,,,,,,2023-02-06,1,,,,,エスエイチゼロシックスシックス,0
2578,9010501049964,新規,0,2023-02-06,2023-02-06,株式会社スタジオＭ,,株式会社,東京都,台東区,寿１丁目１１番１２号１Ｆ,,13,106,1110042,,,,,,,2023-02-06,1,,,,,スタジオエム,0
2579,9010501049980,新規,0,2023-02-06,2023-02-06,株式会社松澤,,株式会社,東京都,台東区,根岸３丁目６番１号新根岸拾番館８０２,,13,106,1100003,,,,,,,2023-02-06,1,,,,,マツザワ,0
2582,9010601062553,新規,0,2023-02-06,2023-02-06,株式会社一藝,,株式会社,東京都,墨田区,石原３丁目１４番９－４０１号,,13,107,1300011,,,,,,,2023-02-06,1,,,,,イチゲイ,0
2587,9010701043817,新規,0,2023-02-06,2023-02-06,株式会社マティアラボ,,株式会社,東京都,品川区,上大崎３丁目７番８号しろがねロッカス別館,,13,109,1410021,,,,,,,2023-02-06,1,,,,,マティアラボ,0
2589,9010703006573,新規,0,2023-02-06,2023-02-06,合同会社ＷＡＴＴ,,合同会社,東京都,品川区,西五反田７丁目１７番７号,,13,109,1410031,,,,,,,2023-02-06,1,,,,,ワット,0
2593,9010901052477,新規,0,2023-02-06,2023-02-06,スピノ株式会社,,株式会社,東京都,世田谷区,野沢４丁目２４番１－１４０１号,,13,112,1540003,,,,,,,2023-02-06,1,,,,,スピノ,0
2594,9010901052485,新規,0,2023-02-06,2023-02-06,株式会社ｉｎｉｚｉｏ,,株式会社,東京都,世田谷区,船橋１丁目３５番１６号,,13,112,1560055,,,,,,,2023-02-06,1,,,,,イニツィオ,0
2596,9010903007958,新規,0,2023-02-06,2023-02-06,Ｔｒｅａｔ　Ｊａｐａｎ合同会社,,合同会社,東京都,世田谷区,奥沢１丁目２番８－５０５号,,13,112,1580083,,,,,,,2023-02-06,1,,,,,トリートジャパン,0
2598,9011001152382,新規,0,2023-02-06,2023-02-06,Ａｎｅｌａ　Ｈｏｌｄｉｎｇｓ株式会社,,株式会社,東京都,渋谷区,神宮前４丁目３１番１１号,,13,113,1500001,,,,,,,2023-02-06,1,,,,,アネラホールディングス,0
2599,9011001152449,新規,0,2023-02-06,2023-02-06,株式会社パストム,,株式会社,東京都,渋谷区,代々木１丁目５３番１号ＭＹ・ＴＯＷＥＲ・ＲＥＳＩＤＥＮＣＥ・１５０６,,13,113,1510053,,,,,,,2023-02-06,1,,,,,パストム,0
2602,9011003016156,新規,0,2023-02-06,2023-02-06,合同会社テンショー堂,,合同会社,東京都,渋谷区,道玄坂１丁目１０番８号渋谷道玄坂東急ビル２Ｆ－Ｃ,,13,113,1500043,,,,,,,2023-02-06,1,,,,,テンショードウ,0
2603,9011003016239,新規,0,2023-02-06,2023-02-06,ＹｗＣ＆Ｃｏｍｐａｎｙ合同会社,,合同会社,東京都,渋谷区,渋谷２丁目１９番１５－６０９号宮益坂ビルディング,,13,113,1500002,,,,,,,2023-02-06,1,,,,,ワイダブリューシーアンドカンパニー,0
2605,9011101101719,新規,0,2023-02-06,2023-02-06,株式会社エスピーシー,,株式会社,東京都,新宿区,西新宿７丁目３番１号,,13,104,1600023,,,,,,,2023-02-06,1,,,,,エスピーシー,0
2609,9011103012658,新規,0,2023-02-06,2023-02-06,合同会社Ｅｆｆｏｒｔ,,合同会社,東京都,新宿区,信濃町１３番地２５,,13,104,1600016,,,,,,,2023-02-06,1,,,,,エフォート,0
2616,9011503005468,新規,0,2023-02-06,2023-02-06,合同会社フルーツボーイ,,合同会社,東京都,北区,赤羽１丁目７番９号赤羽第一葉山ビル４Ｆ,,13,117,1150045,,,,,,,2023-02-06,1,,,,,フルーツボーイ,0
2621,9011803005498,新規,0,2023-02-06,2023-02-06,合同会社みどりエクステリア,,合同会社,東京都,足立区,島根２丁目２２番１０号カーサセガワ５０１,,13,121,1210815,,,,,,,2023-02-06,1,,,,,ミドリエクステリア,0
2632,9020001150123,新規,0,2023-02-06,2023-02-06,日心ハウスグループ株式会社,,株式会社,神奈川県,横浜市西区,みなとみらい２丁目２番１号ランドマークタワー２０階,,14,103,2200012,,,,,,,2023-02-06,1,,,,,ニッシンハウスグループ,0
2635,9020003023244,新規,0,2023-02-06,2023-02-06,合同会社ＴＲ,,合同会社,神奈川県,横浜市栄区,長沼町７９２番地５４,,14,115,2440841,,,,,,,2023-02-06,1,,,,,ティーアール,0
2636,9020005015842,新規,0,2023-02-06,2023-02-06,一般社団法人神奈川県知的障害施設団体連合会,,その他の設立登記法人,神奈川県,横浜市神奈川区,反町３丁目１７－２神奈川県社会福祉センター５階,,14,102,2210825,,,,,,,2023-02-06,1,,,,,カナガワケンチテキショウガイシセツダンタイレンゴウカイ,0
2639,9021001078115,新規,0,2023-02-06,2023-02-06,株式会社アローサポート,,株式会社,神奈川県,相模原市中央区,田名４０６３番地３６,,14,152,2520244,,,,,,,2023-02-06,1,,,,,アローサポート,0
2640,9021001078131,新規,0,2023-02-06,2023-02-06,比田井建設工業株式会社,,株式会社,神奈川県,大和市,下和田８６１番地１,,14,213,2420015,,,,,,,2023-02-06,1,,,,,ヒダイケンセツコウギョウ,0
2642,9021003012732,新規,0,2023-02-06,2023-02-06,合同会社Ｂｒｅａｔｈｉｎｇ,,合同会社,神奈川県,茅ヶ崎市,東海岸南２丁目１３－２２ヴェルブィル２－２０１,,14,207,2530054,,,,,,,2023-02-06,1,,,,,ブリーズィング,0
2643,9021005012730,新規,0,2023-02-06,2023-02-06,特定非営利活動法人ひまわり,,その他の設立登記法人,神奈川県,横須賀市,安浦町２丁目３３番地１２リーデンス・コート６０４,,14,201,2380012,,,,,,,2023-02-06,1,,,,,ヒマワリ,0
2650,9030001152168,新規,0,2023-02-06,2023-02-06,相志コンサルティング株式会社,,株式会社,埼玉県,八潮市,大字木曽根８２１番地１サンシャトーＳ３０１,,11,234,3400813,,,,,,,2023-02-06,1,,,,,ソウシコンサルティング,0
2651,9030001152201,新規,0,2023-02-06,2023-02-06,株式会社ｂｕｄｄｙＯ,,株式会社,埼玉県,春日部市,大場１１０８番地１上原第五ビル２Ｆ,,11,214,3440021,,,,,,,2023-02-06,1,,,,,バディーオー,0
2652,9030001152218,新規,0,2023-02-06,2023-02-06,株式会社ＫＯＷＡ,,株式会社,埼玉県,戸田市,笹目６丁目８番地の１７,,11,224,3350034,,,,,,,2023-02-06,1,,,,,コーワ,0
2653,9030001152226,新規,0,2023-02-06,2023-02-06,株式会社Ｊコーポレーション,,株式会社,埼玉県,川口市,大字伊刈１６７番地２,,11,203,3330865,,,,,,,2023-02-06,1,,,,,ジェイコーポレーション,0
2654,9030001152234,新規,0,2023-02-06,2023-02-06,株式会社きらら栄川口介護タクシー,,株式会社,埼玉県,川口市,栄町１丁目９番８号,,11,203,3320017,,,,,,,2023-02-06,1,,,,,キララサカエカワグチカイゴタクシー,0
2655,9030001152250,新規,0,2023-02-06,2023-02-06,株式会社クレイズテクノ,,株式会社,埼玉県,草加市,金明町９３５番地１２,,11,221,3400052,,,,,,,2023-02-06,1,,,,,クレイズテクノ,0
2656,9030001152259,新規,0,2023-02-06,2023-02-06,株式会社ジェット興業,,株式会社,埼玉県,さいたま市南区,大字太田窪２９６３番地１－１０１号,,11,108,3360015,,,,,,,2023-02-06,1,,,,,ジェットコウギョウ,0
2657,9030001152275,新規,0,2023-02-06,2023-02-06,株式会社ＮｅｘｕｓＡｒｃ,,株式会社,埼玉県,川口市,東領家３丁目２４番３号,,11,203,3320003,,,,,,,2023-02-06,1,,,,,ネクサスアーク,0
2658,9030001152283,新規,0,2023-02-06,2023-02-06,株式会社三幸リペア,,株式会社,埼玉県,狭山市,大字上赤坂６４１番地の２,,11,215,3501313,,,,,,,2023-02-06,1,,,,,サンコウリペア,0
2664,9030003021115,新規,0,2023-02-06,2023-02-06,Ｊｅｅｍｓ合同会社,,合同会社,埼玉県,草加市,青柳４丁目１番１３号,,11,221,3400002,,,,,,,2023-02-06,1,,,,,ジームス,0
2665,9030003021123,新規,0,2023-02-06,2023-02-06,坂井陽介合同会社,,合同会社,埼玉県,さいたま市大宮区,櫛引町１丁目４５６番地１Ａ棟,,11,103,3300851,,,,,,,2023-02-06,1,,,,,サカイヨウスケ,0
2670,9040001126930,新規,0,2023-02-06,2023-02-06,ＲＩＭ株式会社,,株式会社,千葉県,松戸市,常盤平３丁目２１番地１,,12,207,2702261,,,,,,,2023-02-06,1,,,,,リム,0
2671,9040001126939,新規,0,2023-02-06,2023-02-06,株式会社鶴田ホールディングス,,株式会社,千葉県,船橋市,三咲９丁目１６番４－３号,,12,204,2740812,,,,,,,2023-02-06,1,,,,,ツルタホールディングス,0
2672,9040001126955,新規,0,2023-02-06,2023-02-06,ＦＲＩＥＮＤＦＲＩＥＮＤ株式会社,,株式会社,千葉県,山武郡九十九里町,片貝３７６２番地１３,,12,403,2830104,,,,,,,2023-02-06,1,,,,,フレンドフレンド,0
2673,9040001126963,新規,0,2023-02-06,2023-02-06,株式会社アプロド,,株式会社,千葉県,習志野市,津田沼１丁目３番１１号６Ｆ,,12,216,2750016,,,,,,,2023-02-06,1,,,,,アプロド,0
2676,9040003021857,新規,0,2023-02-06,2023-02-06,合同会社ＯＮＥ　ＶＩＮ　ＥＮＴＥＲＰＲＩＳＥＳ,,合同会社,千葉県,成田市,名古屋１３７４番地１９２,,12,211,2890116,,,,,,,2023-02-06,1,,,,,ワンビンエンタープライセス,0
2678,9050001052333,新規,0,2023-02-06,2023-02-06,株式会社笠間塗装,,株式会社,茨城県,笠間市,湯崎８４５番地５,,08,216,3091715,,,,,,,2023-02-06,1,,,,,カサマトソウ,0
2684,9070001040096,新規,0,2023-02-06,2023-02-06,ｅ‐ほいく株式会社,,株式会社,群馬県,吾妻郡長野原町,大字北軽井沢２０３２番地４５２５王領地の森１７２２,,10,424,3771412,,,,,,,2023-02-06,1,,,,,イーホイク,0
2689,9080101023784,新規,0,2023-02-06,2023-02-06,Ｓｔａｒ　Ｆｏｒｅｓｔｓ株式会社,,株式会社,静岡県,伊豆市,修善寺１０４１番地の１,,22,222,4102416,,,,,,,2023-02-06,1,,,,,スターフォレスト,0
2693,9080403004722,新規,0,2023-02-06,2023-02-06,Ｐｍｅｎｓａ合同会社,,合同会社,静岡県,浜松市南区,飯田町１５６７－４－２０１号,,22,134,4350028,,,,,,,2023-02-06,1,,,,,ピーメンサ,0
2697,9100001036116,新規,0,2023-02-06,2023-02-06,株式会社小池空調,,株式会社,長野県,諏訪市,大字中洲５３０１番地８,,20,206,3920015,,,,,,,2023-02-06,1,,,,,コイケクウチョウ,0
2712,9120001251860,新規,0,2023-02-06,2023-02-06,株式会社８８,,株式会社,大阪府,大阪市西区,新町１丁目２２－１７－３０６号,,27,106,5500013,,,,,,,2023-02-06,1,,,,,,0
2713,9120001252264,新規,0,2023-02-06,2023-02-06,株式会社ＣＯＱ,,株式会社,大阪府,大阪市福島区,福島５丁目５番６号－６０１,,27,103,5530003,,,,,,,2023-02-06,1,,,,,コキュウ,0
2714,9120001252289,新規,0,2023-02-06,2023-02-06,株式会社ＳＥＣＯＮＤ,,株式会社,大阪府,大阪市阿倍野区,阿倍野筋３丁目１０番１－７０６号,,27,119,5450052,,,,,,,2023-02-06,1,,,,,セカンド,0
2715,9120001252306,新規,0,2023-02-06,2023-02-06,株式会社千里,,株式会社,大阪府,大阪市生野区,新今里７丁目５番１８号,,27,116,5440001,,,,,,,2023-02-06,1,,,,,センリ,0
2716,9120001252314,新規,0,2023-02-06,2023-02-06,株式会社Ｖｅｎｔｉ,,株式会社,大阪府,大阪市中央区,南本町４丁目３番１６－３００９号,,27,128,5410054,,,,,,,2023-02-06,1,,,,,ベンティ,0
2717,9120003023382,新規,0,2023-02-06,2023-02-06,Ｃｉｒｏ合同会社,,合同会社,大阪府,大阪市北区,中崎３丁目４番１３号プリマクラッセ１０１Ｂ,,27,127,5300016,,,,,,,2023-02-06,1,,,,,チロ,0
2720,9120101066928,新規,0,2023-02-06,2023-02-06,株式会社ｃｏｎｎｅｃｔ＆Ｆ,,株式会社,大阪府,堺市北区,野遠町４９３番地２レオネクストソシア野遠１０５号,,27,146,5918013,,,,,,,2023-02-06,1,,,,,コネクトアンドエフ,0
2721,9120101066936,新規,0,2023-02-06,2023-02-06,ＲＥＡＬＩＺＥ株式会社,,株式会社,大阪府,堺市西区,鳳南町４丁４１０－４,,27,144,5938325,,,,,,,2023-02-06,1,,,,,リアライズ,0
2722,9120101066944,新規,0,2023-02-06,2023-02-06,株式会社ミートソリューション,,株式会社,大阪府,堺市堺区,田出井町１番３－４０２号,,27,141,5900014,,,,,,,2023-02-06,1,,,,,ミートソリューション,0
2723,9120101066952,新規,0,2023-02-06,2023-02-06,株式会社ＮＫＢ,,株式会社,大阪府,堺市中区,辻之３９８番地１－９０７号,00129341,27,142,5998245,,,,,,,2023-02-06,1,,,,,エヌケービー,0
2725,9120901047078,新規,0,2023-02-06,2023-02-06,株式会社徳茂,,株式会社,大阪府,吹田市,広芝町１０－１８江坂薫友ビル,,27,205,5640052,,,,,,,2023-02-06,1,,,,,トクシゲ,0
2726,9120901047094,新規,0,2023-02-06,2023-02-06,株式会社団欒,,株式会社,大阪府,豊中市,刀根山３丁目２番７号,,27,203,5600045,,,,,,,2023-02-06,1,,,,,ダンラン,0
2732,9130003008515,新規,0,2023-02-06,2023-02-06,型染織ふじかわ合同会社,,合同会社,京都府,京都市下京区,東中筋通高辻下る舟屋町６６５番地１,00129337,26,106,6008466,,,,,,,2023-02-06,1,,,,,カタセンショクフジカワ,0
2738,9140001128966,新規,0,2023-02-06,2023-02-06,ＴＲＡＮＳＰＯＲＴ　ＭＩＮＡＴＯ株式会社,,株式会社,兵庫県,加古郡播磨町,古田１丁目１０番２０号,,28,382,6750146,,,,,,,2023-02-06,1,,,,,トランスポートミナト,0
2739,9140001128990,新規,0,2023-02-06,2023-02-06,株式会社ｆｉｋａ,,株式会社,兵庫県,神戸市北区,鈴蘭台南町５丁目４番３２号マノアール鈴蘭３０３号室,,28,109,6511113,,,,,,,2023-02-06,1,,,,,フィーカ,0
2740,9140001129023,新規,0,2023-02-06,2023-02-06,株式会社ＭＵＳＩＣ　ＢＥＡＮＳ,,株式会社,兵庫県,西宮市,苦楽園五番町２番５６進和苦楽園アーバンライフ１２０１号,,28,204,6620087,,,,,,,2023-02-06,1,,,,,ミュージックビーンズ,0
2741,9140001129056,新規,0,2023-02-06,2023-02-06,神戸セントラル株式会社,,株式会社,兵庫県,西宮市,段上町６丁目９番４－１号,,28,204,6638006,,,,,,,2023-02-06,1,,,,,コウベセントラル,0
2744,9150001026161,新規,0,2023-02-06,2023-02-06,株式会社Ｑｕａｔｒｅ　ｄｉｅｕｘ,,株式会社,奈良県,奈良市,大宮町１丁目１３３－５トータスｂｌｄ１Ｆ,,29,201,6308115,,,,,,,2023-02-06,1,,,,,キャトルデュウ,0
2745,9150003002879,新規,0,2023-02-06,2023-02-06,合同会社楓琳,,合同会社,奈良県,磯城郡田原本町,大字三笠１９９番地の６,,29,363,6360342,,,,,,,2023-02-06,1,,,,,カリン,0
2747,9160001024809,新規,0,2023-02-06,2023-02-06,株式会社ダイニングエクスペリエンス,,株式会社,滋賀県,草津市,大路１丁目９番１－１２１０号,,25,206,5250032,,,,,,,2023-02-06,1,,,,,ダイニングエクスペリエンス,0
2752,9180001154793,新規,0,2023-02-06,2023-02-06,株式会社Ｍａｎ‐ｔｅｃｈ,,株式会社,愛知県,名古屋市南区,要町５丁目１６４番地倉庫付事務所Ｄ号室,,23,112,4570802,,,,,,,2023-02-06,1,,,,,マンテック,0
2753,9180001154802,新規,0,2023-02-06,2023-02-06,株式会社赫連,,株式会社,愛知県,海部郡蟹江町,富吉１丁目７２１富吉ビル一階,,23,425,4970058,,,,,,,2023-02-06,1,,,,,カクレン,0
2754,9180001154819,新規,0,2023-02-06,2023-02-06,Ｎ‐ｉｎｃ株式会社,,株式会社,愛知県,名古屋市緑区,南大高３丁目１５０１番地の１,,23,114,4598016,,,,,,,2023-02-06,1,,,,,エヌインク,0
2755,9180001154827,新規,0,2023-02-06,2023-02-06,株式会社岡本建築,,株式会社,愛知県,あま市,上萱津大門９４番地,,23,237,4901112,,,,,,,2023-02-06,1,,,,,オカモトケンチク,0
2756,9180001154851,新規,0,2023-02-06,2023-02-06,株式会社伊藤工業,,株式会社,愛知県,海部郡大治町,大字西條字壱町田１２番地の２,,23,424,4901144,,,,,,,2023-02-06,1,,,,,イトウコウギョウ,0
2757,9180001154868,新規,0,2023-02-06,2023-02-06,株式会社ＳＵＮ　ＴＲＡＤＥ,,株式会社,愛知県,春日井市,神領町１丁目２５番地７,,23,206,4860821,,,,,,,2023-02-06,1,,,,,サントレード,0
2758,9180001154884,新規,0,2023-02-06,2023-02-06,株式会社クリエイトバリュー,,株式会社,愛知県,名古屋市北区,金城町２丁目５６,,23,103,4620047,,,,,,,2023-02-06,1,,,,,クリエイトバリュー,0
2762,9180003024813,新規,0,2023-02-06,2023-02-06,ＵＧＯソリューションズ合同会社,,合同会社,愛知県,名古屋市中川区,かの里１丁目７０１番地ライオンズガーデン戸田８０５号,,23,110,4540957,,,,,,,2023-02-06,1,,,,,ユージーオーソリューションズ,0
2765,9190001030143,新規,0,2023-02-06,2023-02-06,株式会社ケイジコーポレーション,,株式会社,三重県,桑名市,大字東方１２８１番地３,,24,205,5110811,,,,,,,2023-02-06,1,,,,,ケイジコーポレーション,0
2766,9190001030151,新規,0,2023-02-06,2023-02-06,太成ホールディングス株式会社,,株式会社,三重県,津市,島崎町２０９番地の２,,24,201,5140002,,,,,,,2023-02-06,1,,,,,タイセイホールディングス,0
2771,9210001019225,新規,0,2023-02-06,2023-02-06,株式会社ＴＳワークス,,株式会社,福井県,鯖江市,石田上町１４号２番地５,,18,207,9160083,,,,,,,2023-02-06,1,,,,,ティーエスワークス,0
2773,9220001025255,新規,0,2023-02-06,2023-02-06,北陸総合建設株式会社,,株式会社,石川県,金沢市,諸江町２７番地９ＨＯＲＩビル１階,,17,201,9200014,,,,,,,2023-02-06,1,,,,,ホクリクソウゴウケンセツ,0
2776,9240001061050,新規,0,2023-02-06,2023-02-06,株式会社北川興産,,株式会社,広島県,府中市,広谷町７９７番地６,,34,208,7260011,,,,,,,2023-02-06,1,,,,,キタガワコウサン,0
2777,9240001061067,新規,0,2023-02-06,2023-02-06,Ｗｅｌｌ　Ｕｐ株式会社,,株式会社,広島県,広島市西区,三篠町１丁目１０番６－９０１号,,34,104,7330003,,,,,,,2023-02-06,1,,,,,ウェルアップ,0
2781,9260001037635,新規,0,2023-02-06,2023-02-06,株式会社岡田コーポレーション,,株式会社,岡山県,岡山市北区,幸町７番２８号,,33,101,7000903,,,,,,,2023-02-06,1,,,,,オカダコーポレーション,0
2784,9280003001694,新規,0,2023-02-06,2023-02-06,マザーアース合同会社,,合同会社,島根県,出雲市,古志町５１番地８,,32,203,6930031,,,,,,,2023-02-06,1,,,,,マザーアース,0
2788,9290001100489,新規,0,2023-02-06,2023-02-06,株式会社ｔｏ　ｐｌａｎ,,株式会社,福岡県,福岡市東区,名島５丁目６９番１２号アンピール千早駅南４１０号室,,40,131,8130043,,,,,,,2023-02-06,1,,,,,トゥプラン,0
2795,9290801029259,新規,0,2023-02-06,2023-02-06,株式会社サンシャイン,,株式会社,福岡県,北九州市小倉北区,砂津２丁目２番１９‐１００３号,,40,106,8020014,,,,,,,2023-02-06,1,,,,,サンシャイン,0
2796,9290803004334,新規,0,2023-02-06,2023-02-06,ＢＢｒａｎｃｈ合同会社,,合同会社,福岡県,北九州市門司区,大里原町９番２１号,,40,101,8000038,,,,,,,2023-02-06,1,,,,,ビーブランチ,0
2798,9310001018258,新規,0,2023-02-06,2023-02-06,株式会社総建,,株式会社,長崎県,佐世保市,瀬戸越３丁目２３－２５　１階右,,42,202,8570134,,,,,,,2023-02-06,1,,,,,,0
2799,9320003004008,新規,0,2023-02-06,2023-02-06,合同会社ＷＩＳＴＥＮ,,合同会社,大分県,大分市,下郡南５丁目２―２２エイルマンション下郡アクティス８０３号室,,44,201,8700955,,,,,,,2023-02-06,1,,,,,ウィステン,0
2801,9340001025350,新規,0,2023-02-06,2023-02-06,株式会社牛の曙,,株式会社,鹿児島県,大島郡龍郷町,大勝３１９１番地,,46,527,8940105,,,,,,,2023-02-06,1,,,,,ウシノアケボノ,0
2804,9350003004277,新規,0,2023-02-06,2023-02-06,合同会社木風舎,,合同会社,宮崎県,宮崎市,吉村町平塚甲１８７７番地７,,45,201,8800841,,,,,,,2023-02-06,1,,,,,モクフウシャ,0
2805,9360001031512,新規,0,2023-02-06,2023-02-06,株式会社セントラルパーク,,株式会社,沖縄県,豊見城市,宜保４丁目３番地１１,,47,212,9010244,,,,,,,2023-02-06,1,,,,,セントラルパーク,0
2806,9360001031545,新規,0,2023-02-06,2023-02-06,株式会社Ｔｈｅ　Ｏｋｉｎａｗａ　Ｖａｎｉｌｌａ　Ｃｏｍｐａｎｙ,,株式会社,沖縄県,南城市,玉城字船越２１８番地１,,47,215,9010618,,,,,,,2023-02-06,1,,,,,オキナワバニラカンパニー,0
2814,9380001033449,新規,0,2023-02-06,2023-02-06,株式会社リトルポート,,株式会社,福島県,福島市,大森字椿舘６番地の３,,07,201,9601101,,,,,,,2023-02-06,1,,,,,リトルポート,0
2815,9380001033457,新規,0,2023-02-06,2023-02-06,ハーク株式会社,,株式会社,福島県,河沼郡会津坂下町,字市中二番甲３６５８番地,,07,421,9696543,,,,,,,2023-02-06,1,,,,,,0
2826,9430001088347,新規,0,2023-02-06,2023-02-06,ｗａｌｌリペアサービス株式会社,,株式会社,北海道,札幌市白石区,菊水五条２丁目４番２３号パークヒルズ菊水１階,,01,104,0030805,,,,,,,2023-02-06,1,,,,,ウォールリペアサービス,0
2827,9430001088363,新規,0,2023-02-06,2023-02-06,ＳＯＰＩＲＡ株式会社,,株式会社,北海道,苫小牧市,ウトナイ北５丁目６番２９号,,01,213,0591306,,,,,,,2023-02-06,1,,,,,ソピラ,0
2828,9430003014706,新規,0,2023-02-06,2023-02-06,ハナブサ合同会社,,合同会社,北海道,札幌市豊平区,美園八条８丁目１番２号美園住宅５０２－５３号,,01,105,0620008,,,,,,,2023-02-06,1,,,,,ハナブサ,0
2829,9430003014714,新規,0,2023-02-06,2023-02-06,トラスト札幌合同会社,,合同会社,北海道,札幌市中央区,宮の森二条８丁目１番１４－４号,,01,101,0640952,,,,,,,2023-02-06,1,,,,,トラストサッポロ,0
2830,9450001013897,新規,0,2023-02-06,2023-02-06,株式会社山勝機械,,株式会社,北海道,名寄市,字徳田６５番地５４,,01,221,0960071,,,,,,,2023-02-06,1,,,,,サンショウキカイ,0
2832,9470001019463,新規,0,2023-02-06,2023-02-06,株式会社０２３,,株式会社,香川県,高松市,女木町１０５番地,,37,201,7600092,,,,,,,2023-02-06,1,,,,,ゼロニサン,0
2838,9490005006885,新規,0,2023-02-06,2023-02-06,一般社団法人ｐｏｃｏ　ａ　ｐｏｃｏ,,その他の設立登記法人,高知県,須崎市,浜町２丁目５番１０号,,39,206,7850006,,,,,,,2023-02-06,1,,,,,ポコアポコ,0
