sequenceNumber,corporateNumber,process,correct,updateDate,changeDate,name,nameImageId,kind,prefectureName,cityName,streetNumber,addressImageId,prefectureCode,cityCode,postCode,addressOutside,addressOutsideImageId,closeDate,closeCause,successorCorporateNumber,changeCause,assignmentDate,latest,enName,enPrefectureName,enCityName,enAddressOutside,furigana,hihyoji
7,1010001228092,新規,0,2022-07-15,2022-07-15,ＪＰＡ第２５０号株式会社,,株式会社,東京都,千代田区,霞が関３丁目２番１号,,13,101,1000013,,,,,,,2022-07-15,1,,,,,ジェイピーエーダイニヒャクゴジュウゴウ,0
8,1010001228126,新規,0,2022-07-15,2022-07-15,株式会社アールイーコーポレーション,,株式会社,東京都,中央区,日本橋３丁目５番１２号ヒューリック八重洲通ビル３Ｆ,,13,102,1030027,,,,,,,2022-07-15,1,,,,,アールイーコーポレーション,0
12,1010003038151,新規,0,2022-07-15,2022-07-15,合同会社Ｒｅｓｉｌｉｅｎｃｅ　ＸＩＸ,,合同会社,東京都,中央区,銀座１丁目６番１１号土志田ビルディング３Ｆ,,13,102,1040061,,,,,,,2022-07-15,1,,,,,レジリエンスナインティーン,0
13,1010003038184,新規,0,2022-07-15,2022-07-15,合同会社ＴＭＪ　Ｊａｐａｎ,,合同会社,東京都,中央区,銀座１丁目２２番１１号銀座大竹ビジデンス２階,,13,102,1040061,,,,,,,2022-07-15,1,,,,,ティーエムジェイジャパン,0
26,1010401168434,新規,0,2022-07-15,2022-07-15,株式会社Ｌｕｍｉｎａ　ＩＩマスターリース,,株式会社,東京都,港区,虎ノ門４丁目１番２８号,,13,103,1050001,,,,,,,2022-07-15,1,,,,,ルミナツーマスターリース,0
27,1010401168558,新規,0,2022-07-15,2022-07-15,株式会社Ｚｎ,,株式会社,東京都,港区,赤坂４丁目１０番７－５０１号,,13,103,1070052,,,,,,,2022-07-15,1,,,,,ゼットン,0
30,1010403028058,新規,0,2022-07-15,2022-07-15,Ｎｉｅｗ合同会社,,合同会社,東京都,港区,南青山２丁目２番１５号,,13,103,1070062,,,,,,,2022-07-15,1,,,,,エヌアイイーダブリュー,0
31,1010403028090,新規,0,2022-07-15,2022-07-15,ＣＨＩＭＩＮ合同会社,,合同会社,東京都,港区,芝浦４丁目１０番１号,,13,103,1080023,,,,,,,2022-07-15,1,,,,,チミン,0
45,1010905004341,新規,0,2022-07-15,2022-07-15,特定非営利活動法人世田谷ぶんか村ＰＬＡＣＥ,,その他の設立登記法人,東京都,世田谷区,船橋４丁目３番５－４０７号,,13,112,1560055,,,,,,,2022-07-15,1,,,,,セタガヤブンカムラプレイス,0
49,1011001148652,新規,0,2022-07-15,2022-07-15,株式会社和學館,,株式会社,東京都,渋谷区,千駄ヶ谷５丁目２７番３号,,13,113,1510051,,,,,,,2022-07-15,1,,,,,ワガクカン,0
50,1011001148677,新規,0,2022-07-15,2022-07-15,株式会社ＡＧＡＴＨＡ,,株式会社,東京都,渋谷区,恵比寿南１丁目１７番６－６０３号,,13,113,1500022,,,,,,,2022-07-15,1,,,,,アガサ,0
51,1011001148719,新規,0,2022-07-15,2022-07-15,株式会社ＭＴホールディングス,,株式会社,東京都,渋谷区,恵比寿４丁目１７番３号,,13,113,1500013,,,,,,,2022-07-15,1,,,,,エムティーホールディングス,0
52,1011001148751,新規,0,2022-07-15,2022-07-15,ＨＩＫＡＫＵ株式会社,,株式会社,東京都,渋谷区,広尾１丁目１１番２号ＡＩＯＳ広尾ビル８０７号室,,13,113,1500012,,,,,,,2022-07-15,1,,,,,ヒカク,0
53,1011005009652,新規,0,2022-07-15,2022-07-15,特定非営利活動法人ｗｅＭＯＲＩ・ＪＡＰＡＮ,,その他の設立登記法人,東京都,渋谷区,広尾２丁目７番７号,,13,113,1500012,,,,,,,2022-07-15,1,,,,,ウィーモリジャパン,0
56,1011203003878,新規,0,2022-07-15,2022-07-15,ＮＭ合同会社,,合同会社,東京都,中野区,中野１丁目１番６号,,13,114,1640001,,,,,,,2022-07-15,1,,,,,エヌエム,0
57,1011303004470,新規,0,2022-07-15,2022-07-15,合同会社ｃＬＩＭｂｅｒ’ｓ　Ｌｉｆｅ,,合同会社,東京都,杉並区,上高井戸１丁目２９番１２号,,13,115,1680074,,,,,,,2022-07-15,1,,,,,クライマーズライフ,0
62,1011501028271,新規,0,2022-07-15,2022-07-15,株式会社吉田商事,,株式会社,東京都,荒川区,西日暮里２丁目２６番１０号メゾン丸十１Ｆ,,13,118,1160013,,,,,,,2022-07-15,1,,,,,ヨシダショウジ,0
65,1012301013067,新規,0,2022-07-15,2022-07-15,株式会社さくら建築,,株式会社,東京都,町田市,原町田２丁目４番３号スカイパレス町田３０３号室,,13,209,1940013,,,,,,,2022-07-15,1,,,,,サクラケンチク,0
67,1012401039425,新規,0,2022-07-15,2022-07-15,株式会社ルーツ,,株式会社,東京都,三鷹市,下連雀３丁目３７番３８号城西三鷹ビル３階,,13,204,1810013,,,,,,,2022-07-15,1,,,,,ルーツ,0
68,1012403005490,新規,0,2022-07-15,2022-07-15,アイディトータルサプライ合同会社,,合同会社,東京都,府中市,新町２丁目３２番地の４,,13,206,1830052,,,,,,,2022-07-15,1,,,,,アイディトータルサプライ,0
100,1030001149122,新規,0,2022-07-15,2022-07-15,Ｆｒｅｅ　ｆｏｒｃｅ株式会社,,株式会社,埼玉県,川口市,西青木２丁目６番２８号３Ｆ,,11,203,3320035,,,,,,,2022-07-15,1,,,,,フリーフォース,0
102,1030003019810,新規,0,2022-07-15,2022-07-15,ＪＡＢＡＮ　ＳＴＹＬＥ　ＬＡＢＯ合同会社,,合同会社,埼玉県,さいたま市緑区,大字中尾１５０８－３,,11,109,3360932,,,,,,,2022-07-15,1,,,,,ジャバンスタイルラボ,0
108,1040001124330,新規,0,2022-07-15,2022-07-15,株式会社天水,,株式会社,千葉県,浦安市,堀江６丁目５番２０－２０２号レジェンド高砂,,12,227,2790041,,,,,,,2022-07-15,1,,,,,テンスイ,0
117,1060001035071,新規,0,2022-07-15,2022-07-15,株式会社漸心,,株式会社,栃木県,足利市,山下町１８８０番地１,,09,202,3260846,,,,,,,2022-07-15,1,,,,,ゼンシン,0
120,1060003004149,新規,0,2022-07-15,2022-07-15,合同会社ａｏｂａ,,合同会社,栃木県,小山市,東城南４丁目３２－８サニープレイスＩ１０２号室,00127237,09,208,3230829,,,,,,,2022-07-15,1,,,,,アオバ,0
122,1070001039443,新規,0,2022-07-15,2022-07-15,株式会社ＴＧ,,株式会社,群馬県,高崎市,小八木町１６０９番地１,,10,202,3700071,,,,,,,2022-07-15,1,,,,,ティージー,0
123,1070001039451,新規,0,2022-07-15,2022-07-15,株式会社ティーコネクト,,株式会社,群馬県,伊勢崎市,宮子町１１６２－２１,,10,204,3720801,,,,,,,2022-07-15,1,,,,,ティーコネクト,0
125,1070003004552,新規,0,2022-07-15,2022-07-15,合同会社ＮＨＣ　ＴＲＡＤＩＮＧ,,合同会社,群馬県,太田市,岩瀬川町５８０番地３タウンハウス岩瀬川１０６号,,10,205,3730841,,,,,,,2022-07-15,1,,,,,エンエチシトレーディング,0
140,1100001035538,新規,0,2022-07-15,2022-07-15,離山社中株式会社,,株式会社,長野県,北佐久郡軽井沢町,大字長倉２０８２番地５,,20,321,3890111,,,,,,,2022-07-15,1,,,,,ハナレヤマシャチュウ,0
158,1120001247313,新規,0,2022-07-15,2022-07-15,方寸株式会社,,株式会社,大阪府,大阪市東成区,東小橋１丁目１７－３１グランドハイツ東小橋６１３号室,,27,115,5370024,,,,,,,2022-07-15,1,,,,,ホウスン,0
159,1120001247387,新規,0,2022-07-15,2022-07-15,株式会社ＴＥＮ,,株式会社,大阪府,枚方市,香里ケ丘５丁目６番地,,27,210,5730084,,,,,,,2022-07-15,1,,,,,テン,0
160,1120001247395,新規,0,2022-07-15,2022-07-15,潤合株式会社,,株式会社,大阪府,大阪市東成区,深江北３丁目４番２１号エクラ深江橋５１５Ｂ,,27,115,5370001,,,,,,,2022-07-15,1,,,,,ジュンゴウ,0
165,1120003021988,新規,0,2022-07-15,2022-07-15,合同会社道通,,合同会社,大阪府,大阪市東成区,中道２丁目１５－５－１０１,,27,115,5370025,,,,,,,2022-07-15,1,,,,,ドウツウ,0
168,1120101065937,新規,0,2022-07-15,2022-07-15,株式会社槻瀬,,株式会社,大阪府,高石市,綾園１丁目１４番５号,,27,225,5920014,,,,,,,2022-07-15,1,,,,,ツキセ,0
170,1130005016531,新規,0,2022-07-15,2022-07-15,医療法人Ｐ．Ｉ,,その他の設立登記法人,京都府,京都市伏見区,桃山町山ノ下３２番地ＭＯＭＯテラス２階,,26,109,6128002,,,,,,,2022-07-15,1,,,,,ピーアイ,0
173,1140001126770,新規,0,2022-07-15,2022-07-15,株式会社レヴォルテ,,株式会社,兵庫県,神戸市兵庫区,浜中町２丁目１２－３－６０３,,28,105,6520875,,,,,,,2022-07-15,1,,,,,レヴォルテ,0
174,1140003017910,新規,0,2022-07-15,2022-07-15,合同会社エネビス,,合同会社,兵庫県,西宮市,羽衣町７－３０夙川グリーンタウン３階,,28,204,6620051,,,,,,,2022-07-15,1,,,,,エネビス,0
184,1180001152152,新規,0,2022-07-15,2022-07-15,株式会社ＳｏｌｅｉＬ,,株式会社,愛知県,名古屋市名東区,亀の井３丁目１０６番地の１,,23,115,4650094,,,,,,,2022-07-15,1,,,,,ソレイユ,0
185,1180001152193,新規,0,2022-07-15,2022-07-15,株式会社ＥＤＧＥ　ｃｏｒｐｏｒａｔｉｏｎ,,株式会社,愛知県,日進市,折戸町枯木１６０番地－１,,23,230,4700115,,,,,,,2022-07-15,1,,,,,エッジコーポレーション,0
186,1180001152210,新規,0,2022-07-15,2022-07-15,株式会社ＤＢ,,株式会社,愛知県,名古屋市中区,錦２丁目５番５号八木兵伝馬町ビル３階,,23,106,4600003,,,,,,,2022-07-15,1,,,,,ディービー,0
187,1180001152227,新規,0,2022-07-15,2022-07-15,株式会社スマートビジョン,,株式会社,愛知県,名古屋市千種区,池下１丁目６番２０号チサンマンション池下３０５号,,23,101,4640067,,,,,,,2022-07-15,1,,,,,スマートビジョン,0
188,1180001152235,新規,0,2022-07-15,2022-07-15,株式会社ＹＥＳＴＡ,,株式会社,愛知県,東海市,大田町天神下ノ上８番地の１１,,23,222,4770031,,,,,,,2022-07-15,1,,,,,イエスタ,0
198,1190001029630,新規,0,2022-07-15,2022-07-15,株式会社ＴＡＴＳＵＭＡ,,株式会社,三重県,伊賀市,川合１２８番１０１号,,24,216,5181315,,,,,,,2022-07-15,1,,,,,タツマ,0
212,1230001019453,新規,0,2022-07-15,2022-07-15,ミントアーキテクツ株式会社,,株式会社,富山県,富山市,常盤町５番１３号,,16,201,9300047,,,,,,,2022-07-15,1,,,,,ミントアーキテクツ,0
220,1240001060092,新規,0,2022-07-15,2022-07-15,東洋シップエージェンシー株式会社,,株式会社,広島県,呉市,中央１丁目４番２４号,,34,202,7370051,,,,,,,2022-07-15,1,,,,,,0
222,1250001019674,新規,0,2022-07-15,2022-07-15,株式会社スリーナイン,,株式会社,山口県,防府市,大字新田１４０９番地の３,,35,206,7470825,,,,,,,2022-07-15,1,,,,,スリーナイン,0
228,1280001008749,新規,0,2022-07-15,2022-07-15,マスタープラン株式会社,,株式会社,島根県,出雲市,平田町５３８８番地２,,32,203,6910001,,,,,,,2022-07-15,1,,,,,マスタープラン,0
231,1280005007490,新規,0,2022-07-15,2022-07-15,一般財団法人亀山教育振興会,,その他の設立登記法人,島根県,浜田市,黒川町３７４９番地,,32,202,6970024,,,,,,,2022-07-15,1,,,,,カメヤマキョウイクシンコウカイ,0
236,1290001098302,新規,0,2022-07-15,2022-07-15,株式会社ＯＨＭＩ　ＨＥＡＬＴＨ　ＤＥＰＯ,,株式会社,福岡県,福岡市早良区,西新７丁目８－１１－６１０,,40,137,8140002,,,,,,,2022-07-15,1,,,,,オウミヘルスデポ,0
240,1290005018751,新規,0,2022-07-15,2022-07-15,一般社団法人こもれ陽の会,,その他の設立登記法人,福岡県,糸島市,志摩師吉４７７番地１５,,40,230,8191314,,,,,,,2022-07-15,1,,,,,コモレビノカイ,0
242,1300001013011,新規,0,2022-07-15,2022-07-15,株式会社西九州自動車,,株式会社,佐賀県,嬉野市,嬉野町大字下宿甲４５４３番地２,,41,209,8430301,,,,,,,2022-07-15,1,,,,,ニシキュウシュウジドウシャ,0
249,1320003003850,新規,0,2022-07-15,2022-07-15,合同会社ＭＳファーム,,合同会社,大分県,豊後大野市,大野町中原井ノ迫２１５－２,,44,212,8796421,,,,,,,2022-07-15,1,,,,,エムエスファーム,0
253,1340001024905,新規,0,2022-07-15,2022-07-15,株式会社カワノリース開発,,株式会社,鹿児島県,日置市,伊集院町下谷口１７９番地１,,46,216,8992501,,,,,,,2022-07-15,1,,,,,カワノリースカイハツ,0
266,1370001048810,新規,0,2022-07-15,2022-07-15,ＨＯＣＣＯ．Ｌａｂ株式会社,,株式会社,宮城県,栗原市,若柳字川南３４５番地,,04,213,9872200,,,,,,,2022-07-15,1,,,,,ホッコーラブ,0
271,1380003005239,新規,0,2022-07-15,2022-07-15,合同会社ＧＡＬＫＯＴ,,合同会社,福島県,郡山市,八山田西４丁目１３番地,,07,203,9638053,,,,,,,2022-07-15,1,,,,,ガルコット,0
287,1460003000909,新規,0,2022-07-15,2022-07-15,合同会社ＭＹｓｔｙｌｅ,,合同会社,北海道,釧路市,若竹町１４番５号２Ｆ,,01,206,0850036,,,,,,,2022-07-15,1,,,,,マイスタイル,0
298,1480001011798,新規,0,2022-07-15,2022-07-15,家中家ＦＡＲＭ株式会社,,株式会社,徳島県,海部郡海陽町,久保字板取１７５番地３,,36,388,7750502,,,,,,,2022-07-15,1,,,,,イエナカケファーム,0
300,1490001002078,新規,0,2022-07-15,2022-07-15,株式会社矢の久,,株式会社,高知県,高知市,はりまや町２丁目５番１９号,,39,201,7800822,,,,,,,2022-07-15,1,,,,,ヤノキュウ,0
312,2010001228091,新規,0,2022-07-15,2022-07-15,ＪＰＡ第２４９号株式会社,,株式会社,東京都,千代田区,霞が関３丁目２番１号,,13,101,1000013,,,,,,,2022-07-15,1,,,,,ジェイピーエーダイニヒャクヨンジュウキュウゴウ,0
313,2010001228158,新規,0,2022-07-15,2022-07-15,株式会社オールワーク,,株式会社,東京都,千代田区,東神田２丁目９番１９－８０６号,,13,101,1010031,,,,,,,2022-07-15,1,,,,,オールワーク,0
314,2010001228166,新規,0,2022-07-15,2022-07-15,株式会社ジサクコム,,株式会社,東京都,文京区,本郷６丁目２４－９－６０１,,13,105,1130033,,,,,,,2022-07-15,1,,,,,,0
318,2010003038101,新規,0,2022-07-15,2022-07-15,ＲＢソーラーゲート合同会社,,合同会社,東京都,中央区,八丁堀４丁目２番１０号ＡＯＪ税理士法人内,,13,102,1040032,,,,,,,2022-07-15,1,,,,,アールビーソーラーゲート,0
319,2010003038183,新規,0,2022-07-15,2022-07-15,合同会社藤舞,,合同会社,東京都,中央区,晴海５丁目１番１７－１７０７号,,13,102,1040053,,,,,,,2022-07-15,1,,,,,フジマイ,0
333,2010401168499,新規,0,2022-07-15,2022-07-15,株式会社バーニーズ,,株式会社,東京都,港区,青山二丁目２番１５号,,13,103,1050000,,,,,,,2022-07-15,1,,,,,バーニーズ,0
339,2010503006656,新規,0,2022-07-15,2022-07-15,合同会社エール,,合同会社,東京都,台東区,松が谷４丁目１４番２号,,13,106,1110036,,,,,,,2022-07-15,1,,,,,エール,0
348,2010803004236,新規,0,2022-07-15,2022-07-15,Ｍｕｓａｎｇ合同会社,,合同会社,東京都,大田区,北嶺町３２－６－５０３,,13,111,1450073,,,,,,,2022-07-15,1,,,,,ムサン,0
366,2011501028270,新規,0,2022-07-15,2022-07-15,株式会社恒輝,,株式会社,東京都,荒川区,荒川５丁目４２番１２号,,13,118,1160002,,,,,,,2022-07-15,1,,,,,コウキ,0
368,2011503005227,新規,0,2022-07-15,2022-07-15,合同会社クィーンスプマンテ,,合同会社,東京都,荒川区,東尾久２丁目４４番１５号,,13,118,1160012,,,,,,,2022-07-15,1,,,,,クィーンスプマンテ,0
369,2011601026109,新規,0,2022-07-15,2022-07-15,株式会社ａｒｒｏｗｓ　ｃｏｎｎｅｃｔ,,株式会社,東京都,練馬区,春日町６丁目１２番７号,,13,120,1790074,,,,,,,2022-07-15,1,,,,,アローズコネクト,0
373,2011603003650,新規,0,2022-07-15,2022-07-15,プラウ合同会社,,合同会社,東京都,練馬区,桜台４丁目３３－１３,,13,120,1760002,,,,,,,2022-07-15,1,,,,,プラウ,0
378,2012301013058,新規,0,2022-07-15,2022-07-15,ライフテック株式会社,,株式会社,東京都,町田市,相原町４７６番地１４,,13,209,1940211,,,,,,,2022-07-15,1,,,,,ライフテック,0
379,2012401039432,新規,0,2022-07-15,2022-07-15,株式会社ディーフォー,,株式会社,東京都,武蔵野市,吉祥寺南町３丁目１番４－４０１号,,13,203,1800003,,,,,,,2022-07-15,1,,,,,ディーフォー,0
384,2012403005481,新規,0,2022-07-15,2022-07-15,ＰＩＣ合同会社,,合同会社,東京都,多摩市,百草１１０５番地の６,,13,224,2060004,,,,,,,2022-07-15,1,,,,,ピーアイシー,0
385,2012801021725,新規,0,2022-07-15,2022-07-15,株式会社オリーブ・プラン,,株式会社,東京都,日野市,大字日野７７１セジュール８８－１０５,,13,212,1910012,,,,,,,2022-07-15,1,,,,,オリーブプラン,0
388,2012803002839,新規,0,2022-07-15,2022-07-15,うさぎダッシュ合同会社,,合同会社,東京都,昭島市,つつじが丘２丁目４－１４－３０６,,13,207,1960012,,,,,,,2022-07-15,1,,,,,ウサギダッシュ,0
392,2020001147282,新規,0,2022-07-15,2022-07-15,れいなんエステート株式会社,,株式会社,神奈川県,横浜市神奈川区,三枚町２５６番地８,,14,102,2210862,,,,,,,2022-07-15,1,,,,,レイナンエステート,0
397,2020003022087,新規,0,2022-07-15,2022-07-15,Ｆｒｅｅ合同会社,,合同会社,神奈川県,横浜市泉区,中田東３丁目１０－８,,14,116,2450013,,,,,,,2022-07-15,1,,,,,フリー,0
398,2020003022129,新規,0,2022-07-15,2022-07-15,合同会社ＴＮＹ,,合同会社,神奈川県,川崎市川崎区,港町５番２－２９０４号,,14,131,2100807,,,,,,,2022-07-15,1,,,,,ティーエヌワイ,0
409,2030001149121,新規,0,2022-07-15,2022-07-15,株式会社東京テクメイズ,,株式会社,埼玉県,三郷市,高州１丁目１２０番地１,,11,237,3410037,,,,,,,2022-07-15,1,,,,,トウキョウテクメイズ,0
410,2030001149245,新規,0,2022-07-15,2022-07-15,株式会社ＡＮＺＡＩ電通,,株式会社,埼玉県,日高市,大字高萩７８１番地３４,,11,242,3501213,,,,,,,2022-07-15,1,,,,,アンザイデンツウ,0
418,2040001124313,新規,0,2022-07-15,2022-07-15,株式会社カネト産業,,株式会社,千葉県,千葉市緑区,土気町４１４番地,,12,105,2670061,,,,,,,2022-07-15,1,,,,,カネトサンギョウ,0
421,2050001051416,新規,0,2022-07-15,2022-07-15,株式会社ＡＬＴＡＦ　ＩＮＴＥＲＮＡＴＩＯＮＡＬ,,株式会社,茨城県,筑西市,向上野１４７８番２,,08,227,3004522,,,,,,,2022-07-15,1,,,,,アリタフインターナショナル,0
423,2060001035070,新規,0,2022-07-15,2022-07-15,株式会社ノスデザイン,,株式会社,栃木県,下都賀郡壬生町,大字国谷３２２番２９８,,09,361,3210211,,,,,,,2022-07-15,1,,,,,ノスデザイン,0
424,2060001035087,新規,0,2022-07-15,2022-07-15,株式会社菅谷電気,,株式会社,栃木県,小山市,大字土塔２３４番地１８,,09,208,3230812,,,,,,,2022-07-15,1,,,,,スガヤデンキ,0
426,2070001039450,新規,0,2022-07-15,2022-07-15,株式会社佐俣建築,,株式会社,群馬県,前橋市,五代町２７０番地１,,10,201,3710132,,,,,,,2022-07-15,1,,,,,サマタケンチク,0
428,2070005010011,新規,0,2022-07-15,2022-07-15,みなかみ町特定地域づくり事業協同組合,,その他の設立登記法人,群馬県,利根郡みなかみ町,湯原８０９番地６,,10,449,3791617,,,,,,,2022-07-15,1,,,,,ミナカミマチトクテイチイキヅクリ,0
433,2080405007473,新規,0,2022-07-15,2022-07-15,一般社団法人浜松児童福祉会,,その他の設立登記法人,静岡県,浜松市中区,葵西２丁目１９番５５号,,22,131,4338111,,,,,,,2022-07-15,1,,,,,ハママツジドウフクシカイ,0
434,2090001017669,新規,0,2022-07-15,2022-07-15,ＴＡＩＳＡＩ株式会社,,株式会社,山梨県,北杜市,大泉町西井出６０４４番地,,19,209,4091501,,,,,,,2022-07-15,1,,,,,タイサイ,0
435,2090003002132,新規,0,2022-07-15,2022-07-15,ＥＡＲＴＨ‐ＣＲＡＦＴ合同会社,,合同会社,山梨県,甲府市,塩部１丁目８番３号,,19,201,4000026,,,,,,,2022-07-15,1,,,,,アースクラフト,0
447,2120001247312,新規,0,2022-07-15,2022-07-15,株式会社馥留,,株式会社,大阪府,大阪市東成区,東小橋１丁目１７－３１グランドハイツ東小橋７０２号室,,27,115,5370024,,,,,,,2022-07-15,1,,,,,フクリュウ,0
448,2120001247320,新規,0,2022-07-15,2022-07-15,株式会社ＧＩＶＥ＆ＧＩＶＥ,,株式会社,大阪府,大阪市淀川区,十三本町１丁目２０番２０号,,27,123,5320024,,,,,,,2022-07-15,1,,,,,ギブアンドギブ,0
449,2120001247378,新規,0,2022-07-15,2022-07-15,株式会社Ｓｋｙ　ｃｒｅａｔｅ,,株式会社,大阪府,門真市,千石西町６番５号,,27,223,5710014,,,,,,,2022-07-15,1,,,,,スカイクリエイト,0
450,2120001247394,新規,0,2022-07-15,2022-07-15,來愛株式会社,,株式会社,大阪府,大阪市住之江区,南港北１丁目２９番１－６０４号,,27,125,5590034,,,,,,,2022-07-15,1,,,,,ラア,0
451,2120001247460,新規,0,2022-07-15,2022-07-15,株式会社Ｘｗｅｓｔ,,株式会社,大阪府,大阪市中央区,本町３丁目４番１４号ディライト本町ビル４階,,27,128,5410053,,,,,,,2022-07-15,1,,,,,エックスウエスト,0
469,2120901046251,新規,0,2022-07-15,2022-07-15,リッタイモリ株式会社,,株式会社,大阪府,箕面市,瀬川４丁目２０番１６号,,27,220,5620045,,,,,,,2022-07-15,1,,,,,リッタイモリ,0
471,2122003002372,新規,0,2022-07-15,2022-07-15,Ｌ＆Ａｌｐｈａ合同会社,,合同会社,大阪府,東大阪市,小阪本町２丁目１１番８号,,27,227,5770802,,,,,,,2022-07-15,1,,,,,ランドアルファ,0
477,2130001072172,新規,0,2022-07-15,2022-07-15,Ｅａｓｙｃｏｍ　Ｊａｐａｎ株式会社,,株式会社,京都府,京都市中京区,錦小路通室町西入天神山町２８０,,26,104,6048221,,,,,,,2022-07-15,1,,,,,イージーコムジャパン,0
482,2130005016530,新規,0,2022-07-15,2022-07-15,一般社団法人はなふじ総合ランド,,その他の設立登記法人,京都府,綾部市,天神町４７番地藤大慶方,,26,203,6230061,,,,,,,2022-07-15,1,,,,,ハナフジソウゴウランド,0
485,2140001126704,新規,0,2022-07-15,2022-07-15,株式会社アグリ・バイオ・コーポレーション,,株式会社,兵庫県,芦屋市,朝日ケ丘町１４番２－５０４号,,28,206,6590012,,,,,,,2022-07-15,1,,,,,アグリバイオコーポレーション,0
486,2140001126737,新規,0,2022-07-15,2022-07-15,株式会社ＬＩＢＥＲ,,株式会社,兵庫県,神戸市北区,広陵町５丁目６６－１,,28,109,6511213,,,,,,,2022-07-15,1,,,,,リベル,0
502,2180001152192,新規,0,2022-07-15,2022-07-15,アトモスＰＶ株式会社,,株式会社,愛知県,名古屋市中村区,則武１丁目１０番６号,,23,105,4530014,,,,,,,2022-07-15,1,,,,,アトモスピーブイ,0
503,2180001152201,新規,0,2022-07-15,2022-07-15,株式会社東方健平,,株式会社,愛知県,名古屋市中区,栄４丁目１７番２９号,,23,106,4600008,,,,,,,2022-07-15,1,,,,,トウホウケンペイ,0
504,2180001152242,新規,0,2022-07-15,2022-07-15,株式会社ラフロード,,株式会社,愛知県,名古屋市中川区,四女子町１丁目２９番地,,23,110,4540822,,,,,,,2022-07-15,1,,,,,ラフロード,0
519,2200001040287,新規,0,2022-07-15,2022-07-15,ＦＭＣ株式会社,,株式会社,岐阜県,高山市,七日町２丁目１１６番地１,,21,203,5060005,,,,,,,2022-07-15,1,,,,,エフエムシー,0
521,2210001019009,新規,0,2022-07-15,2022-07-15,Ｅｍｂｅｄｓｏｃｉａｌ　Ｊａｐａｎ株式会社,,株式会社,福井県,大飯郡おおい町,成海１－８－５,,18,483,9192107,,,,,,,2022-07-15,1,,,,,エンベッドソーシャルジャパン,0
527,2240001060100,新規,0,2022-07-15,2022-07-15,株式会社Ｂ．Ｄ,,株式会社,広島県,広島市南区,宇品御幸３丁目５番１５号,,34,103,7340015,,,,,,,2022-07-15,1,,,,,ビーディー,0
531,2250001019665,新規,0,2022-07-15,2022-07-15,株式会社吉永商店,,株式会社,山口県,下関市,貴船町３丁目４番１号ヴィラナリー貴船１号棟５０２号,,35,201,7510823,,,,,,,2022-07-15,1,,,,,ヨシナガショウテン,0
535,2270001008591,新規,0,2022-07-15,2022-07-15,株式会社リージョンビジネス・ブランディング,,株式会社,鳥取県,米子市,安倍２００番地１,,31,202,6830846,,,,,,,2022-07-15,1,,,,,リージョンビジネスブランディング,0
545,2290005018750,新規,0,2022-07-15,2022-07-15,ＮＰＯ法人全国子どもアドボカシー協議会,,その他の設立登記法人,福岡県,福岡市中央区,警固２丁目１７番２６－８０４号,,40,133,8100023,,,,,,,2022-07-15,1,,,,,ゼンコクコドモアドボカシーキョウギカイ,0
565,2370001048801,新規,0,2022-07-15,2022-07-15,株式会社エイジング,,株式会社,宮城県,黒川郡大和町,宮床字久保田２６番地１,,04,421,9813624,,,,,,,2022-07-15,1,,,,,エイジング,0
568,2380001032985,新規,0,2022-07-15,2022-07-15,ＭＣＳ株式会社,,株式会社,福島県,郡山市,桑野２丁目３９番２１号,,07,203,9638025,,,,,,,2022-07-15,1,,,,,エムシーエス,0
569,2380001032993,新規,0,2022-07-15,2022-07-15,カーサポートさぼてん株式会社,,株式会社,福島県,伊達市,月舘町御代田字堀川４４番地５,,07,213,9600906,,,,,,,2022-07-15,1,,,,,カーサポートサボテン,0
589,2430003014118,新規,0,2022-07-15,2022-07-15,合同会社かない商店,,合同会社,北海道,札幌市手稲区,新発寒七条１１丁目１１番６号,,01,109,0060807,,,,,,,2022-07-15,1,,,,,カナイショウテン,0
591,2440001009119,新規,0,2022-07-15,2022-07-15,株式会社ＷＩＳＨ,,株式会社,北海道,二海郡八雲町,花浦２７４番地,,01,346,0493122,,,,,,,2022-07-15,1,,,,,ウィッシュ,0
592,2450003002228,新規,0,2022-07-15,2022-07-15,霜鳥興業合資会社,,合資会社,北海道,旭川市,四条通１０丁目左７、８号,,01,204,0700034,,,,,,,2022-07-15,1,,,,,シモトリコウギョウ,0
613,3010001228009,新規,0,2022-07-15,2022-07-15,カタライズ株式会社,,株式会社,東京都,中央区,日本橋茅場町２丁目８－１ＢＲＩＣＫＧＡＴＥ茅場町Ｂ１Ｆ,,13,102,1030025,,,,,,,2022-07-15,1,,,,,カタライズ,0
614,3010001228025,新規,0,2022-07-15,2022-07-15,ＦＴＡＴファーム株式会社,,株式会社,東京都,中央区,湊１丁目６番１１号,,13,102,1040043,,,,,,,2022-07-15,1,,,,,エフティーエーティーファーム,0
615,3010001228090,新規,0,2022-07-15,2022-07-15,ＪＰＡ第２４８号株式会社,,株式会社,東京都,千代田区,霞が関３丁目２番１号,,13,101,1000013,,,,,,,2022-07-15,1,,,,,ジェイピーエーダイニヒャクヨンジュウハチゴウ,0
616,3010001228140,新規,0,2022-07-15,2022-07-15,株式会社ＭＰＸ,,株式会社,東京都,千代田区,永田町２丁目１０番３号,,13,101,1000014,,,,,,,2022-07-15,1,,,,,エムピーエックス,0
617,3010003038100,新規,0,2022-07-15,2022-07-15,ＲＢソーラータワー合同会社,,合同会社,東京都,中央区,八丁堀４丁目２番１０号ＡＯＪ税理士法人内,,13,102,1040032,,,,,,,2022-07-15,1,,,,,アールビーソーラータワー,0
618,3010003038190,新規,0,2022-07-15,2022-07-15,合同会社ＴＯマネジメント,,合同会社,東京都,中央区,新川２丁目６番４号,,13,102,1040033,,,,,,,2022-07-15,1,,,,,ティーオーマネジメント,0
626,3010401168498,新規,0,2022-07-15,2022-07-15,株式会社ＳｐａｃｅＳｌｅｅｐ,,株式会社,東京都,港区,新橋４丁目１５番８号ル・グラシエルＢＬＤＧ．２１－８Ｆ,,13,103,1050004,,,,,,,2022-07-15,1,,,,,スペーススリープ,0
628,3010403028080,新規,0,2022-07-15,2022-07-15,ＶａｙｎｅｒＭｅｄｉａ　Ｊａｐａｎ合同会社,,合同会社,東京都,港区,港南２丁目１６番１号品川イーストワンタワー７階８階,,13,103,1080075,,,,,,,2022-07-15,1,,,,,ヴェイナメディアジャパン,0
629,3010403028089,新規,0,2022-07-15,2022-07-15,ＳＭＹＺ合同会社,,合同会社,東京都,港区,芝浦４丁目１０番１号,,13,103,1080023,,,,,,,2022-07-15,1,,,,,スミーズ,0
630,3010403028097,新規,0,2022-07-15,2022-07-15,Ｌ３ハリステクノロジーズ日本合同会社,,合同会社,東京都,港区,赤坂１丁目１２番３２号アーク森ビル１２階,,13,103,1070052,,,,,,,2022-07-15,1,,,,,エルスリーハリステクノロジーズニホン,0
633,3010503006655,新規,0,2022-07-15,2022-07-15,Ａｖａｌａｎｃｈｅ　Ｍａｒｋｅｔｉｎｇ合同会社,,合同会社,東京都,台東区,元浅草１丁目３番２号,,13,106,1110041,,,,,,,2022-07-15,1,,,,,アヴァランチェマーケティング,0
642,3010703006323,新規,0,2022-07-15,2022-07-15,ＫＢＳ合同会社,,合同会社,東京都,品川区,旗の台３丁目１４－９－３０８,,13,109,1420064,,,,,,,2022-07-15,1,,,,,ケービーエス,0
644,3010801033129,新規,0,2022-07-15,2022-07-15,株式会社なかの制作所,,株式会社,東京都,大田区,下丸子３丁目５番６号,,13,111,1460092,,,,,,,2022-07-15,1,,,,,ナカノセイサクジョ,0
649,3010901051253,新規,0,2022-07-15,2022-07-15,株式会社ハニカム,,株式会社,東京都,世田谷区,上野毛１丁目１７－１３シュエット上野毛２０３,,13,112,1580093,,,,,,,2022-07-15,1,,,,,ハニカム,0
654,3011001148139,新規,0,2022-07-15,2022-07-15,株式会社Ｎａｄｌｌｅｈ,,株式会社,東京都,渋谷区,神宮前６丁目２３番４号桑野ビル２Ｆ,,13,113,1500001,,,,,,,2022-07-15,1,,,,,ナドレ,0
655,3011001148667,新規,0,2022-07-15,2022-07-15,株式会社ライブラブ,,株式会社,東京都,渋谷区,幡ヶ谷３丁目３９番１２号渋谷ウエストビル１階,,13,113,1510072,,,,,,,2022-07-15,1,,,,,,0
656,3011001148733,新規,0,2022-07-15,2022-07-15,株式会社神楽,,株式会社,東京都,目黒区,大橋１丁目５番１－１８０８号,,13,110,1530044,,,,,,,2022-07-15,1,,,,,カグラ,0
657,3011003015056,新規,0,2022-07-15,2022-07-15,イージータビ合同会社,,合同会社,東京都,渋谷区,代々木１丁目３０番１５号天翔代々木ビル５階Ｓ５１３号室,,13,113,1510053,,,,,,,2022-07-15,1,,,,,イージータビ,0
665,3011203003876,新規,0,2022-07-15,2022-07-15,合同会社ｔｉｎｙ　ｆｅｅｔ,,合同会社,東京都,中野区,大和町２丁目５－４,,13,114,1650034,,,,,,,2022-07-15,1,,,,,,0
668,3011401024410,新規,0,2022-07-15,2022-07-15,株式会社ティーデル,,株式会社,東京都,板橋区,板橋４丁目３６番５号,,13,119,1730004,,,,,,,2022-07-15,1,,,,,ティーデル,0
681,3012403005480,新規,0,2022-07-15,2022-07-15,合同会社けやき不動産サービス,,合同会社,東京都,小金井市,緑町５丁目１３番７－５０６号パークホームズ武蔵小金井緑町,,13,210,1840003,,,,,,,2022-07-15,1,,,,,,0
684,3013301049388,新規,0,2022-07-15,2022-07-15,ＯＹＳＴＥＲ　ＪＰ株式会社,,株式会社,東京都,豊島区,南大塚３丁目４２番３号,,13,116,1700005,,,,,,,2022-07-15,1,,,,,オイスタージェイピー,0
694,3020001147372,新規,0,2022-07-15,2022-07-15,株式会社ピオン,,株式会社,神奈川県,横浜市港北区,大倉山３丁目２番２号,,14,109,2220037,,,,,,,2022-07-15,1,,,,,ピオン,0
695,3020001147397,新規,0,2022-07-15,2022-07-15,林ホールディング株式会社,,株式会社,神奈川県,横浜市中区,住吉町３丁目２９番地,,14,104,2310013,,,,,,,2022-07-15,1,,,,,,0
696,3020001147406,新規,0,2022-07-15,2022-07-15,株式会社天野屋ホールディングス,,株式会社,神奈川県,横浜市鶴見区,鶴見中央４丁目３６番２３号,,14,101,2300051,,,,,,,2022-07-15,1,,,,,アマノヤホールディングス,0
699,3020003022128,新規,0,2022-07-15,2022-07-15,合同会社Ｐｉｔ．Ｍ,,合同会社,神奈川県,川崎市川崎区,浅田２丁目８番６号,,14,131,2100847,,,,,,,2022-07-15,1,,,,,ピットエム,0
706,3030001149260,新規,0,2022-07-15,2022-07-15,株式会社インテグラル,,株式会社,埼玉県,熊谷市,石原１２９５番地,,11,202,3600816,,,,,,,2022-07-15,1,,,,,インテグラル,0
715,3040001124155,新規,0,2022-07-15,2022-07-15,株式会社Ｎ．ｏ．Ｎ,,株式会社,千葉県,柏市,富里１丁目４番２９号,,12,217,2770081,,,,,,,2022-07-15,1,,,,,エヌオーエヌ,0
716,3040001124270,新規,0,2022-07-15,2022-07-15,株式会社Ｃｒｅｓｃｅｎｔ　Ｅｌｅｍｅｎｔｓ,,株式会社,千葉県,我孫子市,天王台１丁目２０番９号中村ビル３階,,12,222,2701143,,,,,,,2022-07-15,1,,,,,クレセントエレメンツ,0
717,3040001124295,新規,0,2022-07-15,2022-07-15,ＴＲＩＰＰＬＥ　Ｒ　ＩＮＴＥＲＮＡＴＩＯＮＡＬ株式会社,,株式会社,千葉県,八街市,八街ほ４９５番地２７,,12,230,2891115,,,,,,,2022-07-15,1,,,,,トリップアルインターナショナル,0
718,3040001124312,新規,0,2022-07-15,2022-07-15,コントラクト北海道株式会社,,株式会社,千葉県,船橋市,前原西２丁目１４番２号津田沼駅前安田ビル３階,,12,204,2740825,,,,,,,2022-07-15,1,,,,,コントラクトホッカイドウ,0
720,3040005021679,新規,0,2022-07-15,2022-07-15,一般社団法人民族楽器保存委員会,,その他の設立登記法人,千葉県,柏市,十余二２９７番地４５Ｍ・エスポワール３０６号,,12,217,2770872,,,,,,,2022-07-15,1,,,,,,0
728,3050005013114,新規,0,2022-07-15,2022-07-15,一般社団法人事業主サポート協会,,その他の設立登記法人,茨城県,稲敷市,月出里６２１番地,,08,229,3000521,,,,,,,2022-07-15,1,,,,,ジギョウヌシサポートキョウカイ,0
730,3060001035086,新規,0,2022-07-15,2022-07-15,株式会社おすもうさん,,株式会社,栃木県,小山市,駅東通り３丁目３番地１７,,09,208,3230022,,,,,,,2022-07-15,1,,,,,オスモウサン,0
733,3070003004550,新規,0,2022-07-15,2022-07-15,合同会社幾年,,合同会社,群馬県,渋川市,半田１８５８番地４,,10,208,3770004,,,,,,,2022-07-15,1,,,,,イクトセ,0
735,3080101023427,新規,0,2022-07-15,2022-07-15,株式会社ロゼットハウス,,株式会社,静岡県,伊豆の国市,韮山多田９８２－１１６,,22,225,4102133,,,,,,,2022-07-15,1,,,,,ロゼットハウス,0
736,3080401025957,新規,0,2022-07-15,2022-07-15,株式会社ＭＴＣ,,株式会社,静岡県,浜松市中区,富吉町１番３号メゾン・ド・エクセレンスＩＩ２０７,00127235,22,131,4300804,,,,,,,2022-07-15,1,,,,,エムティーシー,0
759,3120001247352,新規,0,2022-07-15,2022-07-15,株式会社アンダ,,株式会社,大阪府,大阪市東成区,大今里南１丁目１１番３－１０２号,,27,115,5370013,,,,,,,2022-07-15,1,,,,,アンダ,0
760,3120001247369,新規,0,2022-07-15,2022-07-15,株式会社Ｇｒｏｗｎｏｔｅ,,株式会社,大阪府,大阪市天王寺区,上本町９丁目５－１２－１３０４,,27,109,5430001,,,,,,,2022-07-15,1,,,,,グロウノート,0
761,3120001247393,新規,0,2022-07-15,2022-07-15,株式会社悠遊,,株式会社,大阪府,大阪市北区,堂山町１７番５号２Ｆ,,27,127,5300027,,,,,,,2022-07-15,1,,,,,ユウユウ,0
767,3120003022076,新規,0,2022-07-15,2022-07-15,合同会社ｓｈｏｈｅｉ,,合同会社,大阪府,大阪市生野区,巽中４丁目１１番２号メゾン一刻４０２号,00127231,27,116,5440013,,,,,,,2022-07-15,1,,,,,ショウヘイ,0
769,3120005023080,新規,0,2022-07-15,2022-07-15,医療法人真奏会,,その他の設立登記法人,大阪府,大阪市中央区,瓦屋町１丁目７－３１アッシュソレイユ１階,,27,128,5420066,,,,,,,2022-07-15,1,,,,,シンソウカイ,0
776,3120905006358,新規,0,2022-07-15,2022-07-15,一般社団法人リベラルアーツ・エンターテイメント,,その他の設立登記法人,大阪府,吹田市,尺谷２４番１２号,,27,205,5650818,,,,,,,2022-07-15,1,,,,,リベラルアーツエンターテイメント,0
782,3130001072139,新規,0,2022-07-15,2022-07-15,ＳＥＭＩＯ　Ｃａｐｉｔａｌ株式会社,,株式会社,京都府,京都市東山区,東大路古門前上る稲荷町北組５６７番地３１,,26,105,6050068,,,,,,,2022-07-15,1,,,,,セミオキャピタル,0
783,3130001072196,新規,0,2022-07-15,2022-07-15,株式会社ソルファシリティーズ,,株式会社,京都府,京都市東山区,三条通東分木町２８０番地,,26,105,6050000,,,,,,,2022-07-15,1,,,,,ソルファシリティーズ,0
789,3140001126752,新規,0,2022-07-15,2022-07-15,Ｓｙｎｅａｎ株式会社,,株式会社,兵庫県,神戸市中央区,磯部通２－２－１０、２Ｆ（ＷａｙＯｕｔ内）,,28,110,6500000,,,,,,,2022-07-15,1,,,,,シニアン,0
799,3160001024376,新規,0,2022-07-15,2022-07-15,株式会社永順,,株式会社,滋賀県,大津市,浜大津４丁目７番３６号,,25,201,5200047,,,,,,,2022-07-15,1,,,,,エイジュン,0
809,3180001152183,新規,0,2022-07-15,2022-07-15,株式会社Ｓｌｏｐｅ　Ｍａｎａｇｅ,,株式会社,愛知県,名古屋市東区,芳野１丁目１７番２２－５０１号（プラウド東白壁）,,23,102,4610027,,,,,,,2022-07-15,1,,,,,スロープマネージ,0
810,3180001152209,新規,0,2022-07-15,2022-07-15,株式会社Ｅｎｌｅａｃｈ,,株式会社,愛知県,名古屋市中区,栄１丁目３０番２３号シティコーポ白川４０２号室,,23,106,4600008,,,,,,,2022-07-15,1,,,,,エンリーチ,0
811,3180001152241,新規,0,2022-07-15,2022-07-15,株式会社キノケン,,株式会社,愛知県,津島市,唐臼町油田７２番地,,23,208,4960026,,,,,,,2022-07-15,1,,,,,キノケン,0
812,3180001152266,新規,0,2022-07-15,2022-07-15,ＫＴ株式会社,,株式会社,愛知県,名古屋市名東区,藤森１丁目２８６番地の６,,23,115,4650026,,,,,,,2022-07-15,1,,,,,ケイティ,0
813,3180003024034,新規,0,2022-07-15,2022-07-15,合同会社東郷,,合同会社,愛知県,愛知郡東郷町,大字春木字中ノ杁８１１番１４,,23,302,4700162,,,,,,,2022-07-15,1,,,,,トウゴウ,0
814,3180003024050,新規,0,2022-07-15,2022-07-15,合同会社カサブランカ,,合同会社,愛知県,名古屋市千種区,今池４丁目１０番１号プロスパー第三ビル６階,,23,101,4640850,,,,,,,2022-07-15,1,,,,,カサブランカ,0
861,3290003012746,新規,0,2022-07-15,2022-07-15,ｆｉｚ合同会社,,合同会社,福岡県,福岡市中央区,小笹４丁目５番５０－７０１号コスモ南公園,,40,133,8100033,,,,,,,2022-07-15,1,,,,,フィズ,0
863,3290801028737,新規,0,2022-07-15,2022-07-15,株式会社グローイングハート,,株式会社,福岡県,鞍手郡鞍手町,大字永谷６８１番３号,,40,402,8071304,,,,,,,2022-07-15,1,,,,,グローイングハート,0
865,3290803004158,新規,0,2022-07-15,2022-07-15,合同会社Ｒｅ’Ｇａｔｅ,,合同会社,福岡県,北九州市八幡西区,木屋瀬２丁目２５番１８－２０４号,,40,109,8071261,,,,,,,2022-07-15,1,,,,,リゲート,0
866,3290803004166,新規,0,2022-07-15,2022-07-15,合同会社縁,,合同会社,福岡県,田川市,大字奈良１５８７番地９５,,40,206,8260043,,,,,,,2022-07-15,1,,,,,エン,0
888,3380003005220,新規,0,2022-07-15,2022-07-15,合同会社山王会,,合同会社,福島県,河沼郡柳津町,大字飯谷字明神前甲５番地,,07,423,9697206,,,,,,,2022-07-15,1,,,,,サンノウカイ,0
898,3430001087024,新規,0,2022-07-15,2022-07-15,株式会社クリエバ,,株式会社,北海道,札幌市東区,北三十三条東１６丁目２番２号,,01,103,0650033,,,,,,,2022-07-15,1,,,,,クリエバ,0
904,3430003014083,新規,0,2022-07-15,2022-07-15,楽酷合同会社,,合同会社,北海道,虻田郡倶知安町,字高砂２１９番地２７,,01,400,0440076,,,,,,,2022-07-15,1,,,,,ラーク,0
922,4010001227934,新規,0,2022-07-15,2022-07-15,株式会社Ｖｉｅ・Ｍｅｒｃｉ,,株式会社,東京都,中央区,湊３丁目１３－１５サザンフロント新富町１０１,,13,102,1040043,,,,,,,2022-07-15,1,,,,,ヴィメルシー,0
923,4010001228008,新規,0,2022-07-15,2022-07-15,メディカルサービスＴＯＫＹＯ株式会社,,株式会社,東京都,千代田区,神田三崎町２丁目２０番４号八木ビル,,13,101,1010061,,,,,,,2022-07-15,1,,,,,メディカルサービストウキョウ,0
924,4010001228156,新規,0,2022-07-15,2022-07-15,株式会社さくらアドバイザリー,,株式会社,東京都,中央区,日本橋１丁目１８番１４号第三正明ビル４Ｆ,,13,102,1030027,,,,,,,2022-07-15,1,,,,,サクラアドバイザリー,0
925,4010001228164,新規,0,2022-07-15,2022-07-15,株式会社ユニコン,,株式会社,東京都,千代田区,東神田１丁目１５－９,,13,101,1010031,,,,,,,2022-07-15,1,,,,,ユニコン,0
929,4010003038099,新規,0,2022-07-15,2022-07-15,ＲＢソーラーライト合同会社,,合同会社,東京都,中央区,八丁堀４丁目２番１０号ＡＯＪ税理士法人内,,13,102,1040032,,,,,,,2022-07-15,1,,,,,アールビーソーラーライト,0
930,4010003038157,新規,0,2022-07-15,2022-07-15,合同会社Ｒｅｓｉｌｉｅｎｃｅ　ＸＸＶ,,合同会社,東京都,中央区,銀座１丁目６番１１号土志田ビルディング３Ｆ,,13,102,1040061,,,,,,,2022-07-15,1,,,,,レジリエンストゥエンティファイブ,0
931,4010003038181,新規,0,2022-07-15,2022-07-15,ノーズ・インベストメント合同会社,,合同会社,東京都,千代田区,丸の内２丁目１番１号,,13,101,1000005,,,,,,,2022-07-15,1,,,,,ノーズインベストメント,0
939,4010401168539,新規,0,2022-07-15,2022-07-15,株式会社ｂｌｕｅ　ｂｌｏｏｄｅｄ,,株式会社,東京都,港区,芝浦３丁目１７番１１号,,13,103,1080023,,,,,,,2022-07-15,1,,,,,ブルーブラッデッド,0
940,4010401168555,新規,0,2022-07-15,2022-07-15,株式会社Ｉｃｈｏｓ,,株式会社,東京都,港区,赤坂２丁目２２番２１号クラスアクトビル地下１階,,13,103,1070052,,,,,,,2022-07-15,1,,,,,イクオス,0
945,4010703006322,新規,0,2022-07-15,2022-07-15,合同会社谷口,,合同会社,東京都,品川区,東五反田２丁目２０－７ＳＴキャッスル４０１号室,,13,109,1410022,,,,,,,2022-07-15,1,,,,,タニグチ,0
953,4010901051228,新規,0,2022-07-15,2022-07-15,ホームケアラボ株式会社,,株式会社,東京都,世田谷区,奥沢２丁目３７番２０号,,13,112,1580083,,,,,,,2022-07-15,1,,,,,ホームケアラボ,0
969,4011403003725,新規,0,2022-07-15,2022-07-15,合同会社同窓会本舗,,合同会社,東京都,板橋区,大門７番１２号,,13,119,1750085,,,,,,,2022-07-15,1,,,,,ドウソウカイホンポ,0
972,4011501028269,新規,0,2022-07-15,2022-07-15,株式会社明智商事,,株式会社,東京都,荒川区,南千住５丁目２４番１５号,,13,118,1160003,,,,,,,2022-07-15,1,,,,,アケチショウジ,0
973,4011601026107,新規,0,2022-07-15,2022-07-15,株式会社ＭＯＡＮＡ　ＥＳＴＡＴＥ,,株式会社,東京都,練馬区,貫井１丁目２４番５号,,13,120,1760021,,,,,,,2022-07-15,1,,,,,モアナエステート,0
976,4012301013064,新規,0,2022-07-15,2022-07-15,株式会社ＬｉｂｅｒｔｙＷｏｒｔｈ,,株式会社,東京都,町田市,中町１丁目２－５ＳＨＥＬＬＭＩＹＡＫＯＶ３Ｆ,,13,209,1940021,,,,,,,2022-07-15,1,,,,,,0
985,4020001147388,新規,0,2022-07-15,2022-07-15,ＡＦＣプランニング株式会社,,株式会社,神奈川県,横浜市中区,野毛町４丁目１７３番由栄ハイツ４０１号,,14,104,2310064,,,,,,,2022-07-15,1,,,,,エーエフシープランニング,0
986,4020001147396,新規,0,2022-07-15,2022-07-15,株式会社唯美,,株式会社,神奈川県,横浜市戸塚区,汲沢８丁目１１番１２号,,14,110,2450061,,,,,,,2022-07-15,1,,,,,ユイビ,0
988,4020003022110,新規,0,2022-07-15,2022-07-15,合同会社アスリッチ,,合同会社,神奈川県,横浜市旭区,柏町５６番地１０,,14,112,2410835,,,,,,,2022-07-15,1,,,,,アスリッチ,0
998,4030001149136,新規,0,2022-07-15,2022-07-15,株式会社ＩＫＵ,,株式会社,埼玉県,新座市,畑中２丁目１７番３７号,,11,230,3520012,,,,,,,2022-07-15,1,,,,,イク,0
999,4030001149210,新規,0,2022-07-15,2022-07-15,光正株式会社,,株式会社,埼玉県,川口市,西川口２丁目１４番６－３０３号,,11,203,3320021,,,,,,,2022-07-15,1,,,,,コウセイ,0
1005,4030003019808,新規,0,2022-07-15,2022-07-15,フランクユニ合同会社,,合同会社,埼玉県,川越市,菅原町８番地１９レオパレスグランドール１０５号室,,11,201,3500046,,,,,,,2022-07-15,1,,,,,フランクユニ,0
1006,4030005020920,新規,0,2022-07-15,2022-07-15,一般社団法人マチノキ,,その他の設立登記法人,埼玉県,川口市,元郷４丁目６番６－５号,,11,203,3320011,,,,,,,2022-07-15,1,,,,,マチノキ,0
1008,4040001124286,新規,0,2022-07-15,2022-07-15,株式会社ビー・アライヴ,,株式会社,千葉県,白井市,桜台２丁目１７番５棟２０５号,,12,232,2701412,,,,,,,2022-07-15,1,,,,,ビーアライヴ,0
1009,4040001124294,新規,0,2022-07-15,2022-07-15,Ａｒｏｕｎｄ　Ｔｈｅ　Ｐｅａｃｅ株式会社,,株式会社,千葉県,我孫子市,中峠１６６２番地,,12,222,2701121,,,,,,,2022-07-15,1,,,,,アラウンドザピース,0
1010,4040001124303,新規,0,2022-07-15,2022-07-15,株式会社オカザキ商事市原,,株式会社,千葉県,市原市,君塚５丁目５番地１１,,12,219,2900051,,,,,,,2022-07-15,1,,,,,オカザキショウジイチハラ,0
1011,4040001124311,新規,0,2022-07-15,2022-07-15,コントラクト東日本株式会社,,株式会社,千葉県,船橋市,前原西２丁目１４番２号津田沼駅前安田ビル３階,,12,204,2740825,,,,,,,2022-07-15,1,,,,,コントラクトヒガシニホン,0
1021,4050001051422,新規,0,2022-07-15,2022-07-15,株式会社Ｈｅａｒｔｓ,,株式会社,茨城県,神栖市,木崎２３９８番地７,,08,232,3140127,,,,,,,2022-07-15,1,,,,,ハーツ,0
1026,4060003004146,新規,0,2022-07-15,2022-07-15,合同会社ＳＵＰＥＲＧＲＡＳＳ,,合同会社,栃木県,日光市,高徳５６４番地１,,09,206,3212523,,,,,,,2022-07-15,1,,,,,スーパーグラス,0
1031,4080005007467,新規,0,2022-07-15,2022-07-15,一般社団法人しまだきものさんぽ,,その他の設立登記法人,静岡県,島田市,本通６丁目７８１４番地,,22,209,4270022,,,,,,,2022-07-15,1,,,,,シマダキモノサンポ,0
1035,4100003006625,新規,0,2022-07-15,2022-07-15,合同会社ＩＣＨ,,合同会社,長野県,上田市,八木沢１４５４番地２４,,20,203,3861327,,,,,,,2022-07-15,1,,,,,アイシーエイチ,0
1043,4120001247302,新規,0,2022-07-15,2022-07-15,株式会社ＨＷＬ,,株式会社,大阪府,大阪市天王寺区,生玉町１１番２９－６０８号,,27,109,5430071,,,,,,,2022-07-15,1,,,,,エイチダブリューエル,0
1044,4120001247384,新規,0,2022-07-15,2022-07-15,Ｌａｎｄｓｃａｐｅｒ株式会社,,株式会社,大阪府,大阪市福島区,鷺洲５丁目１番４－８０１号,,27,103,5530002,,,,,,,2022-07-15,1,,,,,ランドスケーパー,0
1045,4120001247392,新規,0,2022-07-15,2022-07-15,株式会社ＮＯＭＥ．,,株式会社,大阪府,大阪市北区,梅田１丁目１番３号大阪駅前第３ビル２９階１－１－１号室,,27,127,5300001,,,,,,,2022-07-15,1,,,,,ノーム,0
1046,4120001247434,新規,0,2022-07-15,2022-07-15,株式会社明日香,,株式会社,大阪府,大阪市西区,江戸堀２丁目７番２７－９０３号,,27,106,5500002,,,,,,,2022-07-15,1,,,,,アスカ,0
1049,4120005023071,新規,0,2022-07-15,2022-07-15,医療法人ＧｙＮｅｔ,,その他の設立登記法人,大阪府,大阪市北区,天神橋２丁目５番２５号若杉グランドビル本館１階,,27,127,5300041,,,,,,,2022-07-15,1,,,,,ジィネット,0
1054,4120101065934,新規,0,2022-07-15,2022-07-15,株式会社ＴＡＫＨ,,株式会社,大阪府,堺市中区,大野芝町１６９番地２,,27,142,5998233,,,,,,,2022-07-15,1,,,,,ティーエーケーエイチ,0
1063,4130003008057,新規,0,2022-07-15,2022-07-15,ＰＬＴリフォーム合同会社,,合同会社,京都府,京都市左京区,岩倉南河原町９２,,26,103,6060019,,,,,,,2022-07-15,1,,,,,ピーエルティーリフォーム,0
1066,4130005016529,新規,0,2022-07-15,2022-07-15,医療法人真善美会,,その他の設立登記法人,京都府,木津川市,梅美台４丁目１２番地１７,,26,214,6190215,,,,,,,2022-07-15,1,,,,,シンゼンビカイ,0
1067,4140001126702,新規,0,2022-07-15,2022-07-15,株式会社Ｓ‐ｎｅｘｔ,,株式会社,兵庫県,神戸市中央区,御幸通３丁目２番４号コスモプラザ三宮３２２号室,,28,110,6510087,,,,,,,2022-07-15,1,,,,,エスネクスト,0
1076,4170003001751,新規,0,2022-07-15,2022-07-15,合同会社Ｐｉｘｅｌ　ＪＴＫ,,合同会社,和歌山県,和歌山市,島２６－３０,,30,201,6496314,,,,,,,2022-07-15,1,,,,,ピクセルジェイティケイ,0
1078,4180001152199,新規,0,2022-07-15,2022-07-15,株式会社ｆｏｒｅｓｔ,,株式会社,愛知県,名古屋市中区,金山５丁目２番３８号,,23,106,4600022,,,,,,,2022-07-15,1,,,,,フォレスト,0
1079,4180001152208,新規,0,2022-07-15,2022-07-15,株式会社ＴＫ,,株式会社,愛知県,一宮市,奥町字南目草１４番地,,23,203,4910201,,,,,,,2022-07-15,1,,,,,ティーケイ,0
1081,4180003024041,新規,0,2022-07-15,2022-07-15,合同会社トータル・Ｂｉｚ,,合同会社,愛知県,名古屋市名東区,香坂９０７番地（ティーエムズ香坂２０２号）,,23,115,4650007,,,,,,,2022-07-15,1,,,,,トータルビズ,0
1101,4240003005712,新規,0,2022-07-15,2022-07-15,合同会社サンクス,,合同会社,広島県,安芸郡海田町,三迫３丁目１９番３４－６号,,34,304,7360014,,,,,,,2022-07-15,1,,,,,サンクス,0
1111,4290001098299,新規,0,2022-07-15,2022-07-15,デイジー株式会社,,株式会社,福岡県,飯塚市,柏の森１４９番地８,,40,205,8200011,,,,,,,2022-07-15,1,,,,,デイジー,0
1113,4290003012745,新規,0,2022-07-15,2022-07-15,ＨＡＳＵ合同会社,,合同会社,福岡県,福岡市南区,塩原４丁目５－４６－１Ｆ,,40,134,8150032,,,,,,,2022-07-15,1,,,,,ハス,0
1114,4290005018749,新規,0,2022-07-15,2022-07-15,一般社団法人ＬＩＮＫ　ＨＥＡＲＴＳ,,その他の設立登記法人,福岡県,糟屋郡須惠町,大字須惠１２６番地５５,,40,344,8112113,,,,,,,2022-07-15,1,,,,,リンクハート,0
1115,4290801028736,新規,0,2022-07-15,2022-07-15,株式会社祐徳,,株式会社,福岡県,北九州市小倉北区,熊本３丁目８番１８－３０２号,,40,106,8020044,,,,,,,2022-07-15,1,,,,,ユウトク,0
1116,4300001013009,新規,0,2022-07-15,2022-07-15,株式会社ＡＫＡＭＡＲＵ,,株式会社,佐賀県,鳥栖市,村田町６２９番地８,,41,203,8410072,,,,,,,2022-07-15,1,,,,,アカマル,0
1119,4320001019210,新規,0,2022-07-15,2022-07-15,株式会社ＫｅｎＢｉｓｈｉ,,株式会社,大分県,大分市,中春日町１５番１２号,,44,201,8700039,,,,,,,2022-07-15,1,,,,,ケンビシ,0
1124,4330003009448,新規,0,2022-07-15,2022-07-15,合同会社７８,,合同会社,熊本県,熊本市南区,富合町榎津８４２番地２,,43,104,8614146,,,,,,,2022-07-15,1,,,,,ナナジュウハチ,0
1129,4340003003862,新規,0,2022-07-15,2022-07-15,合同会社ＴＯＰＧＵＮ,,合同会社,鹿児島県,鹿児島市,下荒田３丁目３０番１８号,,46,201,8900056,,,,,,,2022-07-15,1,,,,,トップガン,0
1139,4370001048808,新規,0,2022-07-15,2022-07-15,株式会社アベ塗装工業,,株式会社,宮城県,柴田郡大河原町,字新南２７番地２,,04,321,9891245,,,,,,,2022-07-15,1,,,,,アベトソウコウギョウ,0
1140,4370003005773,新規,0,2022-07-15,2022-07-15,ｓｏｌｖｅ合同会社,,合同会社,宮城県,仙台市青葉区,国見６丁目４１－３７エステートピア国見Ａ棟２０３号室,,04,101,9810943,,,,,,,2022-07-15,1,,,,,ソルベ,0
1150,4420001017939,新規,0,2022-07-15,2022-07-15,青森Ｍ＆Ａ株式会社,,株式会社,青森県,弘前市,大字末広２丁目１－２佐藤惣ビル２階１号,,02,202,0368085,,,,,,,2022-07-15,1,,,,,アオモリエムアンドエー,0
1178,4480001005401,新規,0,2022-07-15,2022-07-15,株式会社ＯＧＡＴＡ開発,,株式会社,徳島県,板野郡北島町,鯛浜字西ノ須５１番地１１７,,36,402,7710204,,,,,,,2022-07-15,1,,,,,オガタカイハツ,0
1184,5010001227867,新規,0,2022-07-15,2022-07-15,株式会社Ｄａｔａｓｅｅｄ,,株式会社,東京都,千代田区,丸の内１丁目１１番１号パシフィックセンチュリープレイス１３Ｆ,,13,101,1000005,,,,,,,2022-07-15,1,,,,,データシード,0
1185,5010001228089,新規,0,2022-07-15,2022-07-15,ＪＰＡ第２４７号株式会社,,株式会社,東京都,千代田区,霞が関３丁目２番１号,,13,101,1000013,,,,,,,2022-07-15,1,,,,,ジェイピーエーダイニヒャクヨンジュウナナゴウ,0
1186,5010001228097,新規,0,2022-07-15,2022-07-15,株式会社Ｓｏｍｎｉｕｍ,,株式会社,東京都,文京区,千駄木３丁目４０番２－９０４号,,13,105,1130022,,,,,,,2022-07-15,1,,,,,ソムニウム,0
1187,5010001228130,新規,0,2022-07-15,2022-07-15,ＣＭＭジャパン株式会社,,株式会社,東京都,千代田区,九段北４丁目１番３１号,,13,101,1020073,,,,,,,2022-07-15,1,,,,,シーエムエムジャパン,0
1191,5010003038098,新規,0,2022-07-15,2022-07-15,ＲＢソーラーボート合同会社,,合同会社,東京都,中央区,八丁堀４丁目２番１０号ＡＯＪ税理士法人内,,13,102,1040032,,,,,,,2022-07-15,1,,,,,アールビーソーラーボート,0
1192,5010003038156,新規,0,2022-07-15,2022-07-15,合同会社Ｒｅｓｉｌｉｅｎｃｅ　ＸＸＩＶ,,合同会社,東京都,中央区,銀座１丁目６番１１号土志田ビルディング３Ｆ,,13,102,1040061,,,,,,,2022-07-15,1,,,,,レジリエンストゥエンティフォー,0
1194,5010005035267,新規,0,2022-07-15,2022-07-15,一般社団法人Ｏｎｅ　Ｅａｒｔｈ　Ｇｕａｒｄｉａｎｓオフィス,,その他の設立登記法人,東京都,文京区,弥生１丁目１番１号東京大学大学院農学生命科学研究科内,,13,105,1130032,,,,,,,2022-07-15,1,,,,,ワンアースガーディアンズオフィス,0
1197,5010403028079,新規,0,2022-07-15,2022-07-15,クリティカルゾーン合同会社,,合同会社,東京都,港区,白金３丁目１１番１７－４０４号,,13,103,1080072,,,,,,,2022-07-15,1,,,,,クリティカルゾーン,0
1212,5010701042954,新規,0,2022-07-15,2022-07-15,Ｊａｐｏｎａｉｓ　Ｌｉｑｕｅｕｒ株式会社,,株式会社,東京都,品川区,西品川２丁目５－２－２Ｆ,,13,109,1410033,,,,,,,2022-07-15,1,,,,,ジャポネリキュール,0
1214,5010801033119,新規,0,2022-07-15,2022-07-15,ＵＭＡＮＧ株式会社,,株式会社,東京都,大田区,多摩川１丁目２６番８号,,13,111,1460095,,,,,,,2022-07-15,1,,,,,ウマング,0
1241,5011501028268,新規,0,2022-07-15,2022-07-15,株式会社ＳＯＣＩＡＬ　ＷＩＴ＆ＷＩＬＬＩＮＧＮＥＳＳ,,株式会社,東京都,荒川区,荒川７丁目４６番１－２０１０号,,13,118,1160002,,,,,,,2022-07-15,1,,,,,ソーシャルウィットアンドウィリングネス,0
1251,5011601026106,新規,0,2022-07-15,2022-07-15,ダブルツリー株式会社,,株式会社,東京都,練馬区,田柄１丁目２９番１９号,,13,120,1790073,,,,,,,2022-07-15,1,,,,,ダブルツリー,0
1256,5011801041020,新規,0,2022-07-15,2022-07-15,株式会社Ｏ２Ｃａｒｅ,,株式会社,東京都,足立区,新田３丁目２９番１－１４０９号,,13,121,1230865,,,,,,,2022-07-15,1,,,,,オーツーケア,0
1258,5012401039421,新規,0,2022-07-15,2022-07-15,ホーム美化技研株式会社,,株式会社,東京都,狛江市,東和泉４丁目６番１０号,,13,219,2010014,,,,,,,2022-07-15,1,,,,,ホームビカギケン,0
1263,5012801021722,新規,0,2022-07-15,2022-07-15,株式会社Ｗｉｌｌ　Ｍｅｉｓｔｅｒ,,株式会社,東京都,立川市,柴崎町３丁目４番１７号岡部ビル２階,,13,202,1900023,,,,,,,2022-07-15,1,,,,,ウィルマイスター,0
1271,5020001147379,新規,0,2022-07-15,2022-07-15,株式会社ＱＵＩＥＴ,,株式会社,神奈川県,横浜市港北区,樽町１丁目２２番６０号,,14,109,2220001,,,,,,,2022-07-15,1,,,,,クワイエット,0
1272,5020001147387,新規,0,2022-07-15,2022-07-15,しんみつ株式会社,,株式会社,神奈川県,横浜市港北区,篠原北２丁目５番３２号,,14,109,2220021,,,,,,,2022-07-15,1,,,,,シンミツ,0
1273,5020001147395,新規,0,2022-07-15,2022-07-15,株式会社盛和,,株式会社,神奈川県,横浜市青葉区,藤が丘２丁目３６番地１４－５０１,,14,117,2270043,,,,,,,2022-07-15,1,,,,,セイワ,0
1274,5020001147404,新規,0,2022-07-15,2022-07-15,ＭＣ商事株式会社,,株式会社,神奈川県,横浜市旭区,中沢３丁目７番２号,,14,112,2410814,,,,,,,2022-07-15,1,,,,,エムシーショウジ,0
1275,5020001147412,新規,0,2022-07-15,2022-07-15,クリアフレイトジャパン株式会社,,株式会社,神奈川県,横浜市中区,北仲通２丁目１４番地,,14,104,2310003,,,,,,,2022-07-15,1,,,,,クリアフレイトジャパン,0
1277,5020003022126,新規,0,2022-07-15,2022-07-15,合同会社ＤＩＡＢＯＲＯ,,合同会社,神奈川県,横浜市旭区,東希望が丘１９０－６４,,14,112,2410826,,,,,,,2022-07-15,1,,,,,ディアボロ,0
1278,5020003022134,新規,0,2022-07-15,2022-07-15,合同会社博文,,合同会社,神奈川県,横浜市南区,宮元町２丁目３７番地中村ビル１Ｆ,,14,105,2320016,,,,,,,2022-07-15,1,,,,,ハクブン,0
1279,5020005015598,新規,0,2022-07-15,2022-07-15,一般社団法人神奈川県相続支援協会,,その他の設立登記法人,神奈川県,横浜市中区,長者町３丁目８番１３号ＴＫ関内プラザ６階,,14,104,2310033,,,,,,,2022-07-15,1,,,,,カナガワケンソウゾクシエンキョウカイ,0
1289,5030001149259,新規,0,2022-07-15,2022-07-15,株式会社ＮＮ,,株式会社,埼玉県,所沢市,日吉町９番２０号第８０東京ビル３０３,,11,208,3591123,,,,,,,2022-07-15,1,,,,,エヌエヌ,0
1290,5030003019807,新規,0,2022-07-15,2022-07-15,ＹＭ商事合同会社,,合同会社,埼玉県,三郷市,半田４１８番地１エフローレ新三郷２１６－７１４号,,11,237,3410012,,,,,,,2022-07-15,1,,,,,ワイエムショウジ,0
1296,5040001124070,新規,0,2022-07-15,2022-07-15,Ｎａｗｅｄ株式会社,,株式会社,千葉県,四街道市,大日３５８番地９アーバニティＩＩ３０１,00127227,12,228,2840001,,,,,,,2022-07-15,1,,,,,ナウェド,0
1297,5040001124302,新規,0,2022-07-15,2022-07-15,株式会社グッドプラネット,,株式会社,千葉県,船橋市,習志野５丁目１０番２９－９号,,12,204,2740071,,,,,,,2022-07-15,1,,,,,グッドプラネット,0
1300,5050001051272,新規,0,2022-07-15,2022-07-15,株式会社Ｊ＆Ｇ,,株式会社,茨城県,結城市,大字結城１８３,,08,207,3070001,,,,,,,2022-07-15,1,,,,,ジェイアンドジー,0
1301,5050001051413,新規,0,2022-07-15,2022-07-15,オハヨーバンコック株式会社,,株式会社,茨城県,常総市,水海道高野町２３１６番地１,,08,211,3030033,,,,,,,2022-07-15,1,,,,,オハヨーバンコック,0
1306,5060001035092,新規,0,2022-07-15,2022-07-15,ＮｉＫＫｉ株式会社,,株式会社,栃木県,小山市,城東３丁目７番８号,,09,208,3230807,,,,,,,2022-07-15,1,,,,,ニッキ,0
1308,5060003004153,新規,0,2022-07-15,2022-07-15,ＮＩＨＯＮ　ＴＲＡＤＩＮＧ合同会社,,合同会社,栃木県,足利市,大前町１２９０番地１ＡＫＩハウスＡ１０１,,09,202,3260845,,,,,,,2022-07-15,1,,,,,ニホントレーディング,0
1309,5070003004549,新規,0,2022-07-15,2022-07-15,合同会社ＡｉＫ,,合同会社,群馬県,吾妻郡中之条町,大字中之条町小川３４０,,10,421,3770424,,,,,,,2022-07-15,1,,,,,アイケイ,0
1321,5100001007814,新規,0,2022-07-15,2022-07-15,株式会社中央名店,,株式会社,長野県,佐久市,中込１丁目１７番地８,,20,217,3850051,,,,,,,2022-07-15,1,,,,,チュウオウメイテン,0
1335,5120001247243,新規,0,2022-07-15,2022-07-15,株式会社ありかたラボ,,株式会社,大阪府,枚方市,高野道１丁目２１番１９号,,27,210,5731131,,,,,,,2022-07-15,1,,,,,アリカタラボ,0
1336,5120001247342,新規,0,2022-07-15,2022-07-15,株式会社Ｒｅａｃｈ　ｏｕｔ,,株式会社,大阪府,大阪市西区,立売堀１丁目９番１３号エアル本町ビル７階,,27,106,5500012,,,,,,,2022-07-15,1,,,,,リーチアウト,0
1337,5120001247383,新規,0,2022-07-15,2022-07-15,スマイルジャパン株式会社,,株式会社,大阪府,大阪市中央区,森ノ宮中央２丁目８番１２号,,27,128,5400003,,,,,,,2022-07-15,1,,,,,スマイルジャパン,0
1338,5120001247409,新規,0,2022-07-15,2022-07-15,株式会社Ｓｉｎｃｅｒｅ,,株式会社,大阪府,寝屋川市,三井南町５番５号,,27,215,5720019,,,,,,,2022-07-15,1,,,,,シンシア,0
1339,5120001247441,新規,0,2022-07-15,2022-07-15,株式会社Ｒ＆Ｔ,,株式会社,大阪府,大阪市福島区,吉野５丁目９番５３号,,27,103,5530006,,,,,,,2022-07-15,1,,,,,アールアンドティー,0
1340,5120001247508,新規,0,2022-07-15,2022-07-15,株式会社Ｗｒａｉｔｈ,,株式会社,大阪府,大阪市西成区,潮路２丁目１５番１８号,,27,122,5570052,,,,,,,2022-07-15,1,,,,,レイス,0
1342,5120003022082,新規,0,2022-07-15,2022-07-15,合同会社Ｒｅｐｌａｃｅ,,合同会社,大阪府,大阪市住吉区,清水丘１丁目２３－３,,27,120,5580033,,,,,,,2022-07-15,1,,,,,リプレイス,0
1348,5122001036072,新規,0,2022-07-15,2022-07-15,株式会社アルファー建設,,株式会社,大阪府,四條畷市,岡山１丁目４番２５－１０５号,,27,229,5750002,,,,,,,2022-07-15,1,,,,,アルファーケンセツ,0
1352,5130001072186,新規,0,2022-07-15,2022-07-15,京都アンプリチュード株式会社,,株式会社,京都府,京都市中京区,御池通堀川東入森ノ木町２０８番地の２,,26,104,6040053,,,,,,,2022-07-15,1,,,,,キョウトアンプリチュード,0
1363,5140001126701,新規,0,2022-07-15,2022-07-15,ＫＡＭＯエステート株式会社,,株式会社,兵庫県,川西市,加茂２丁目２番１７号,,28,217,6660025,,,,,,,2022-07-15,1,,,,,カモエステート,0
1384,5180001152090,新規,0,2022-07-15,2022-07-15,コスモ開発株式会社,,株式会社,愛知県,名古屋市西区,中小田井２丁目９１番地,,23,104,4520822,,,,,,,2022-07-15,1,,,,,コスモカイハツ,0
1403,5200001040292,新規,0,2022-07-15,2022-07-15,ＫＲＣ株式会社,,株式会社,岐阜県,岐阜市,薮田南１丁目１１番９号第２岐阜県ビル８０５号室,,21,201,5008384,,,,,,,2022-07-15,1,,,,,ケーアールシー,0
1411,5240003005703,新規,0,2022-07-15,2022-07-15,合同会社嬉しい楽しい,,合同会社,広島県,広島市中区,鶴見町１１－１６,,34,101,7300045,,,,,,,2022-07-15,1,,,,,ウレシイタノシイ,0
1415,5250001019662,新規,0,2022-07-15,2022-07-15,ながとペーパーサービス株式会社,,株式会社,山口県,長門市,東深川８２２番地１,,35,211,7594101,,,,,,,2022-07-15,1,,,,,ナガトペーパーサービス,0
1416,5250001019670,新規,0,2022-07-15,2022-07-15,株式会社ＹＯＳＨＩＤＥＮ,,株式会社,山口県,岩国市,玖珂町６４４５番地１１,,35,208,7420344,,,,,,,2022-07-15,1,,,,,ヨシデン,0
1433,5290001098315,新規,0,2022-07-15,2022-07-15,キモト株式会社,,株式会社,福岡県,古賀市,庄６６番地４,,40,223,8113116,,,,,,,2022-07-15,1,,,,,キモト,0
1438,5300001013008,新規,0,2022-07-15,2022-07-15,株式会社マキヤマ工建,,株式会社,佐賀県,唐津市,久里１９２番地５,,41,202,8470033,,,,,,,2022-07-15,1,,,,,マキヤマコウケン,0
1455,5370001048765,新規,0,2022-07-15,2022-07-15,株式会社コウリツ,,株式会社,宮城県,仙台市青葉区,中央４丁目７番１３号,,04,101,9800021,,,,,,,2022-07-15,1,,,,,コウリツ,0
1456,5370001048798,新規,0,2022-07-15,2022-07-15,株式会社トップスピンコーポレーション,,株式会社,宮城県,気仙沼市,最知北最知２４７番地－２,,04,205,9880215,,,,,,,2022-07-15,1,,,,,トップスピンコーポレーション,0
1457,5370001048815,新規,0,2022-07-15,2022-07-15,株式会社佐々木商事,,株式会社,宮城県,加美郡加美町,字赤塚２７２－１、Ｂ－１０３,,04,445,9814264,,,,,,,2022-07-15,1,,,,,ササキショウジ,0
1458,5370003005772,新規,0,2022-07-15,2022-07-15,合同会社アイ,,合同会社,宮城県,名取市,愛の杜２丁目１番地の５,,04,207,9811230,,,,,,,2022-07-15,1,,,,,アイ,0
1459,5370005010507,新規,0,2022-07-15,2022-07-15,一般社団法人なかのスポーツクラブ,,その他の設立登記法人,宮城県,仙台市宮城野区,栄１丁目４番１４－１０１号,,04,102,9830011,,,,,,,2022-07-15,1,,,,,ナカノスポーツクラブ,0
1465,5380003005235,新規,0,2022-07-15,2022-07-15,合同会社トレードオン,,合同会社,福島県,大沼郡会津美里町,字石切畑甲２５３８番地１,,07,447,9696046,,,,,,,2022-07-15,1,,,,,トレードオン,0
1477,5430001087113,新規,0,2022-07-15,2022-07-15,株式会社基豊,,株式会社,北海道,札幌市西区,二十四軒三条２丁目６番１０号アルピナ２４－３０３号,,01,107,0630803,,,,,,,2022-07-15,1,,,,,キホウ,0
1488,5490001001712,新規,0,2022-07-15,2022-07-15,ニコホン株式会社,,株式会社,高知県,高知市,南久保１３８番地,,39,201,7810087,,,,,,,2022-07-15,1,,,,,ニコホン,0
1489,5490001002248,新規,0,2022-07-15,2022-07-15,株式会社マサヤ,,株式会社,高知県,高知市,南久保１０番３４号,,39,201,7810087,,,,,,,2022-07-15,1,,,,,マサヤ,0
1504,6010001227932,新規,0,2022-07-15,2022-07-15,株式会社ニシハル,,株式会社,東京都,中央区,築地７丁目１５番８号,,13,102,1040045,,,,,,,2022-07-15,1,,,,,ニシハル,0
1505,6010001228071,新規,0,2022-07-15,2022-07-15,株式会社アネモネ,,株式会社,東京都,中央区,銀座１丁目２２番１１号銀座大竹ビジデンス２階,,13,102,1040061,,,,,,,2022-07-15,1,,,,,アネモネ,0
1506,6010001228088,新規,0,2022-07-15,2022-07-15,ＪＰＡ第２４６号株式会社,,株式会社,東京都,千代田区,霞が関３丁目２番１号,,13,101,1000013,,,,,,,2022-07-15,1,,,,,ジェイピーエーダイニヒャクヨンジュウロクゴウ,0
1508,6010003038155,新規,0,2022-07-15,2022-07-15,合同会社Ｒｅｓｉｌｉｅｎｃｅ　ＸＸＩＩＩ,,合同会社,東京都,中央区,銀座１丁目６番１１号土志田ビルディング３Ｆ,,13,102,1040061,,,,,,,2022-07-15,1,,,,,レジリエンストゥエンティスリー,0
1509,6010003038196,新規,0,2022-07-15,2022-07-15,合同会社ｍｉｘｒｏｓｓ,,合同会社,東京都,中央区,銀座１丁目２２番１１号銀座大竹ビジデンス２階,,13,102,1040061,,,,,,,2022-07-15,1,,,,,ミクロス,0
1512,6010005035266,新規,0,2022-07-15,2022-07-15,一般社団法人Ｄ．Ｃ．Ｊａｐａｎ,,その他の設立登記法人,東京都,中央区,日本橋小網町１番４号,,13,102,1030016,,,,,,,2022-07-15,1,,,,,ディーシージャパン,0
1515,6010403028078,新規,0,2022-07-15,2022-07-15,Ｌｙｎ’ｓ　Ｔｒａｄｉｎｇ合同会社,,合同会社,東京都,港区,浜松町１丁目１２－８横須賀第８ビル,,13,103,1050013,,,,,,,2022-07-15,1,,,,,リンズトレーディング,0
1524,6010505003326,新規,0,2022-07-15,2022-07-15,一般社団法人恵比寿マネジメント,,その他の設立登記法人,東京都,台東区,柳橋１丁目２３番３号ＶＯＲＴ浅草橋駅前８階,,13,106,1110052,,,,,,,2022-07-15,1,,,,,エビスマネジメント,0
1532,6010701042953,新規,0,2022-07-15,2022-07-15,株式会社ＬＯＴ,,株式会社,東京都,品川区,南大井６丁目２５番１０－５０１号,,13,109,1400013,,,,,,,2022-07-15,1,,,,,ロト,0
1546,6010901051242,新規,0,2022-07-15,2022-07-15,愛メディカルサポート株式会社,,株式会社,東京都,世田谷区,松原３丁目１２番８号,,13,112,1560043,,,,,,,2022-07-15,1,,,,,アイメディカルサポート,0
1557,6011001148656,新規,0,2022-07-15,2022-07-15,株式会社リアルエステート東京,,株式会社,東京都,渋谷区,円山町２８番４号,,13,113,1500044,,,,,,,2022-07-15,1,,,,,リアルエステートトウキョウ,0
1562,6011201023972,新規,0,2022-07-15,2022-07-15,株式会社ファンドスタジオ,,株式会社,東京都,中野区,中野２丁目２６番１号,,13,114,1640001,,,,,,,2022-07-15,1,,,,,ファンドスタジオ,0
1564,6011401024408,新規,0,2022-07-15,2022-07-15,高盛株式会社,,株式会社,東京都,板橋区,高島平２丁目３３番２－１３２２号,,13,119,1750082,,,,,,,2022-07-15,1,,,,,タカモリ,0
1569,6011501028267,新規,0,2022-07-15,2022-07-15,株式会社やじろう,,株式会社,東京都,荒川区,東日暮里５丁目１１番４号メインステージ東日暮里４０１,,13,118,1160014,,,,,,,2022-07-15,1,,,,,ヤジロウ,0
1579,6011803005179,新規,0,2022-07-15,2022-07-15,合同会社ＡＢＩＮＡＳＨ　Ｃｏｎｓｕｌｔｉｎｇ,,合同会社,東京都,葛飾区,堀切２丁目１４番１０－１１０号,,13,122,1240006,,,,,,,2022-07-15,1,,,,,アビナスコンサルティング,0
1580,6012301013062,新規,0,2022-07-15,2022-07-15,株式会社ヨシムツ,,株式会社,東京都,町田市,木曽東３丁目３１番１号,,13,209,1940036,,,,,,,2022-07-15,1,,,,,ヨシムツ,0
1581,6012303001701,新規,0,2022-07-15,2022-07-15,合同会社ｂｅ　ｎｉｃｅ,,合同会社,東京都,町田市,森野２丁目２２－１６－４０３,,13,209,1940022,,,,,,,2022-07-15,1,,,,,ビーナイス,0
1583,6012401039429,新規,0,2022-07-15,2022-07-15,商店東京株式会社,,株式会社,東京都,三鷹市,上連雀７丁目８番３０アレックス宮崎１０５号,,13,204,1810012,,,,,,,2022-07-15,1,,,,,ショウテントウキョウ,0
1598,6020001147329,新規,0,2022-07-15,2022-07-15,ドラゴンビレッジ株式会社,,株式会社,神奈川県,横浜市港北区,新吉田東５丁目７７番１１号,,14,109,2230058,,,,,,,2022-07-15,1,,,,,ドラゴンビレッジ,0
1599,6020001147378,新規,0,2022-07-15,2022-07-15,株式会社ソフィアエステート,,株式会社,神奈川県,川崎市高津区,末長４丁目２３番２２号,,14,134,2130013,,,,,,,2022-07-15,1,,,,,ソフィアエステート,0
1600,6020001147394,新規,0,2022-07-15,2022-07-15,株式会社ＫＡＩ,,株式会社,神奈川県,川崎市幸区,新小倉２番３－１４０７号,,14,132,2120031,,,,,,,2022-07-15,1,,,,,カイ,0
1603,6020003022075,新規,0,2022-07-15,2022-07-15,カイロ合同会社,,合同会社,神奈川県,横浜市青葉区,あざみ野１丁目２７－１イディオスＣ２０６,,14,117,2250011,,,,,,,2022-07-15,1,,,,,カイロ,0
1604,6020003022125,新規,0,2022-07-15,2022-07-15,合同会社縁,,合同会社,神奈川県,川崎市川崎区,宮本町６番地８須田ビル５０１,,14,131,2100004,,,,,,,2022-07-15,1,,,,,エニシ,0
1607,6021001076550,新規,0,2022-07-15,2022-07-15,株式会社Ｄａｉｄａｉ,,株式会社,神奈川県,藤沢市,鵠沼橘１丁目１７番１１号順天ビル４階,,14,205,2510024,,,,,,,2022-07-15,1,,,,,ダイダイ,0
1613,6030001149068,新規,0,2022-07-15,2022-07-15,株式会社ｖｉｓｔａ,,株式会社,埼玉県,草加市,氷川町２１５２番地２クレドール草加１０６号,,11,221,3400034,,,,,,,2022-07-15,1,,,,,ヴィスタ,0
1614,6030001149225,新規,0,2022-07-15,2022-07-15,株式会社ＴＣＫ,,株式会社,埼玉県,さいたま市大宮区,天沼町２丁目１２３２番地,,11,103,3300834,,,,,,,2022-07-15,1,,,,,ティーシーケー,0
1615,6030001149241,新規,0,2022-07-15,2022-07-15,ＡＢＣ人材株式会社,,株式会社,埼玉県,さいたま市大宮区,吉敷町１丁目５４番地３ディアプレイス４０３号室,,11,103,3300843,,,,,,,2022-07-15,1,,,,,,0
1616,6030001149258,新規,0,2022-07-15,2022-07-15,鳳昇株式会社,,株式会社,埼玉県,所沢市,日吉町９番２０号第８０東京ビル３０１,,11,208,3591123,,,,,,,2022-07-15,1,,,,,ホウショウ,0
1620,6030003019806,新規,0,2022-07-15,2022-07-15,ＰＬＡＮ３３５合同会社,,合同会社,埼玉県,戸田市,本町４丁目４－６ＴＢＣ,,11,224,3350023,,,,,,,2022-07-15,1,,,,,プランサンサンゴ,0
1624,6040005021676,新規,0,2022-07-15,2022-07-15,一般社団法人玄龍堂メディカル,,その他の設立登記法人,千葉県,香取市,佐原イ２９０７番地１,,12,236,2870003,,,,,,,2022-07-15,1,,,,,ゲンリュウドウメディカル,0
1627,6050001051420,新規,0,2022-07-15,2022-07-15,株式会社ＰＨＯＥＮＩＸ,,株式会社,茨城県,土浦市,神立中央２丁目４番４号,,08,203,3000011,,,,,,,2022-07-15,1,,,,,フェニックス,0
1629,6050003006694,新規,0,2022-07-15,2022-07-15,アルファ合同会社,,合同会社,茨城県,つくばみらい市,下平柳５６７番地３,,08,235,3002333,,,,,,,2022-07-15,1,,,,,アルファ,0
1632,6050005013111,新規,0,2022-07-15,2022-07-15,一般社団法人医院開業協会,,その他の設立登記法人,茨城県,つくば市,小茎１８２番地５,,08,220,3001255,,,,,,,2022-07-15,1,,,,,イインカイギョウキョウカイ,0
1634,6060003004144,新規,0,2022-07-15,2022-07-15,合同会社Ｊ’Ｓｔｙｌｅ,,合同会社,栃木県,小山市,駅南町４丁目３０番６号,,09,208,3230822,,,,,,,2022-07-15,1,,,,,ジェイスタイル,0
1635,6070001039447,新規,0,2022-07-15,2022-07-15,株式会社富沢塗装工業,,株式会社,群馬県,高崎市,菅谷町２０番地６１０,,10,202,3703522,,,,,,,2022-07-15,1,,,,,トミザワトソウコウギョウ,0
1636,6070001039455,新規,0,2022-07-15,2022-07-15,アアデル株式会社,,株式会社,群馬県,高崎市,山名町２５０６番地５,,10,202,3701213,,,,,,,2022-07-15,1,,,,,アアデル,0
1637,6070003004556,新規,0,2022-07-15,2022-07-15,合同会社ｒａｙ,,合同会社,群馬県,高崎市,下和田町２丁目７－２Ｉ’Ｓマンション１Ｄ,,10,202,3700846,,,,,,,2022-07-15,1,,,,,レイ,0
1646,6090001017673,新規,0,2022-07-15,2022-07-15,株式会社ルモンズプランニング,,株式会社,山梨県,都留市,下谷２９２６番地２３,,19,204,4020051,,,,,,,2022-07-15,1,,,,,ルモンズプランニング,0
1649,6100001035541,新規,0,2022-07-15,2022-07-15,株式会社ＤＵＮＫ,,株式会社,長野県,松本市,村井町南３丁目５番６号,,20,202,3990036,,,,,,,2022-07-15,1,,,,,ダンク,0
1666,6120001247341,新規,0,2022-07-15,2022-07-15,ＳＯＵＮＤＲＩＶＥ株式会社,,株式会社,大阪府,大阪市北区,梅田１丁目１番３号大阪駅前第３ビル２３０７,,27,127,5300001,,,,,,,2022-07-15,1,,,,,サウンドライブ,0
1667,6120001247390,新規,0,2022-07-15,2022-07-15,株式会社マハナ動物病院,,株式会社,大阪府,大阪市住吉区,帝塚山西３丁目１番８号,,27,120,5580052,,,,,,,2022-07-15,1,,,,,マハナドウブツビョウイン,0
1668,6120001247432,新規,0,2022-07-15,2022-07-15,株式会社リアルスタイル,,株式会社,大阪府,大阪市天王寺区,上汐３丁目１番６号,,27,109,5430002,,,,,,,2022-07-15,1,,,,,リアルスタイル,0
1669,6120001247457,新規,0,2022-07-15,2022-07-15,ステージアップ株式会社,,株式会社,大阪府,大阪市中央区,淡路町３丁目５番１３号創建御堂筋ビル２階,,27,128,5410047,,,,,,,2022-07-15,1,,,,,ステージアップ,0
1670,6120001247473,新規,0,2022-07-15,2022-07-15,株式会社ふうりん,,株式会社,大阪府,大阪市西区,立売堀１丁目４番２２号セレニテ本町グランデ１０３,,27,106,5500012,,,,,,,2022-07-15,1,,,,,フウリン,0
1674,6120003022081,新規,0,2022-07-15,2022-07-15,ＬＧ　ＧＬＯＢＡＬ合同会社,,合同会社,大阪府,大阪市西淀川区,柏里２丁目６番１７号盛山ビル２８号室,,27,113,5550022,,,,,,,2022-07-15,1,,,,,エルジーグローバル,0
1689,6120103004780,新規,0,2022-07-15,2022-07-15,合同会社Ｓｍｉｌｅ　Ｂｅｓｔ,,合同会社,大阪府,岸和田市,藤井町１丁目２番８号プリマベェーラ２０７号,,27,202,5960046,,,,,,,2022-07-15,1,,,,,スマイルベスト,0
1692,6122001036055,新規,0,2022-07-15,2022-07-15,株式会社ＨＴＳ,,株式会社,大阪府,東大阪市,長田東１丁目６番３３号,,27,227,5770012,,,,,,,2022-07-15,1,,,,,エイチティエス,0
1693,6122001036071,新規,0,2022-07-15,2022-07-15,セカンドワイド株式会社,,株式会社,大阪府,八尾市,山本町南１丁目９－２５フウキレジデンス１０１,,27,212,5810013,,,,,,,2022-07-15,1,,,,,セカンドワイド,0
1700,6130001072193,新規,0,2022-07-15,2022-07-15,株式会社フィラフト,,株式会社,京都府,八幡市,八幡女郎花６８番地の８,,26,210,6148077,,,,,,,2022-07-15,1,,,,,フィラフト,0
1706,6140001126675,新規,0,2022-07-15,2022-07-15,株式会社Ｇｏｄｏｔ,,株式会社,兵庫県,神戸市中央区,浪花町５６番地三井住友銀行神戸本部ビル２Ｆ起業プラザひょうご内,,28,110,6500035,,,,,,,2022-07-15,1,,,,,ゴドー,0
1707,6140001126717,新規,0,2022-07-15,2022-07-15,株式会社ａｒａｔａ,,株式会社,兵庫県,神戸市東灘区,御影３丁目１番２１号前田マンション２階東,,28,101,6580047,,,,,,,2022-07-15,1,,,,,アラタ,0
1708,6140001126733,新規,0,2022-07-15,2022-07-15,スタンスユナイテッド株式会社,,株式会社,兵庫県,尼崎市,潮江１丁目２１番１－５０４号,,28,202,6610976,,,,,,,2022-07-15,1,,,,,スタンスユナイテッド,0
1709,6140001126774,新規,0,2022-07-15,2022-07-15,株式会社アドバンス,,株式会社,兵庫県,宝塚市,伊孑志２丁目１７番３０－１０１号,,28,214,6650033,,,,,,,2022-07-15,1,,,,,アドバンス,0
1712,6140003017914,新規,0,2022-07-15,2022-07-15,合同会社サンシャインサービス,,合同会社,兵庫県,神戸市中央区,熊内町１丁目３番１１－６０６号,,28,110,6510056,,,,,,,2022-07-15,1,,,,,サンシャインサービス,0
1715,6160003002625,新規,0,2022-07-15,2022-07-15,合同会社Ｃｏｕｇａ　Ａｓｓｉｓｔ,,合同会社,滋賀県,湖南市,石部南１丁目１番５８－３０７号,,25,211,5203108,,,,,,,2022-07-15,1,,,,,コウガアシスト,0
1724,6180001152247,新規,0,2022-07-15,2022-07-15,株式会社いちえ,,株式会社,愛知県,名古屋市中村区,岩塚町字郷中９７番地,,23,105,4530862,,,,,,,2022-07-15,1,,,,,イチエ,0
1735,6210001019005,新規,0,2022-07-15,2022-07-15,株式会社Ｙ・Ｈ・Ｋ,,株式会社,福井県,坂井市,丸岡町一本田福所第２０号１４番地１,,18,210,9100251,,,,,,,2022-07-15,1,,,,,ワイエイチケー,0
1748,6240001060105,新規,0,2022-07-15,2022-07-15,株式会社新東方交易,,株式会社,広島県,福山市,伊勢丘６丁目１番１０－６号,,34,207,7210915,,,,,,,2022-07-15,1,,,,,シントウホウコウエキ,0
1754,6290001098314,新規,0,2022-07-15,2022-07-15,株式会社ＪＴエテルナ,,株式会社,福岡県,福岡市西区,姪の浜５丁目１０番２６号,,40,135,8190002,,,,,,,2022-07-15,1,,,,,ジェイティエテルナ,0
1758,6300001013007,新規,0,2022-07-15,2022-07-15,株式会社アート内外装佐賀,,株式会社,佐賀県,佐賀市,駅前中央３丁目１４番３４号,,41,201,8400801,,,,,,,2022-07-15,1,,,,,アートナイガイソウサガ,0
1759,6300003001868,新規,0,2022-07-15,2022-07-15,合同会社Ｎａｔｕｒ　ｍｅｄｉｃａｌ,,合同会社,佐賀県,佐賀市,本庄町大字本庄５０７番地９,,41,201,8400027,,,,,,,2022-07-15,1,,,,,ナチュールメディカル,0
1760,6300005007087,新規,0,2022-07-15,2022-07-15,一般社団法人ＴＵＲＫＳ　ＳＡＧＡ,,その他の設立登記法人,佐賀県,武雄市,朝日町大字甘久２３０３番地２,,41,206,8430001,,,,,,,2022-07-15,1,,,,,タークスサガ,0
1766,6320001019209,新規,0,2022-07-15,2022-07-15,日絆工業株式会社,,株式会社,大分県,大分市,東浜１丁目９番２４号コミュニティ東浜１０３号室,,44,201,8700932,,,,,,,2022-07-15,1,,,,,ニチバンコウギョウ,0
1771,6340003003860,新規,0,2022-07-15,2022-07-15,合同会社山郷,,合同会社,鹿児島県,大島郡瀬戸内町,大字網野子小浜１０番地２,,46,525,8941513,,,,,,,2022-07-15,1,,,,,ヤマグン,0
1790,6430001087112,新規,0,2022-07-15,2022-07-15,株式会社ＰＮＤ　ＥＸＬＥＡＤ,,株式会社,北海道,江別市,四条１丁目１４番地１０２号室,,01,217,0670014,,,,,,,2022-07-15,1,,,,,ピーエヌディエクスリード,0
1796,6500003002862,新規,0,2022-07-15,2022-07-15,合同会社ＤＸＧ,,合同会社,愛媛県,松山市,祝谷２丁目１２番４６号,,38,201,7900833,,,,,,,2022-07-15,1,,,,,ディーエックスジー,0
1801,7010001228070,新規,0,2022-07-15,2022-07-15,株式会社ＣＯＣＯＮ,,株式会社,東京都,中央区,銀座１丁目１５番８号銀座耀ビル２Ｆ,,13,102,1040061,,,,,,,2022-07-15,1,,,,,ココン,0
1802,7010001228087,新規,0,2022-07-15,2022-07-15,ＪＰＡ第２４５号株式会社,,株式会社,東京都,千代田区,霞が関３丁目２番１号,,13,101,1000013,,,,,,,2022-07-15,1,,,,,ジェイピーエーダイニヒャクヨンジュウゴゴウ,0
1803,7010001228095,新規,0,2022-07-15,2022-07-15,ＪＰＡ第２５３号株式会社,,株式会社,東京都,千代田区,霞が関３丁目２番１号,,13,101,1000013,,,,,,,2022-07-15,1,,,,,ジェイピーエーダイニヒャクゴジュウサンゴウ,0
1804,7010001228137,新規,0,2022-07-15,2022-07-15,株式会社Ｙ．Ｈカンパニー,,株式会社,東京都,千代田区,一番町１３番地８一番町ＫＫビル６階,,13,101,1020082,,,,,,,2022-07-15,1,,,,,ワイエイチカンパニー,0
1807,7010003038154,新規,0,2022-07-15,2022-07-15,合同会社Ｒｅｓｉｌｉｅｎｃｅ　ＸＸＩＩ,,合同会社,東京都,中央区,銀座１丁目６番１１号土志田ビルディング３Ｆ,,13,102,1040061,,,,,,,2022-07-15,1,,,,,レジリエンストゥエンティツー,0
1826,7010801033133,新規,0,2022-07-15,2022-07-15,株式会社アステージ,,株式会社,東京都,大田区,仲六郷１丁目５０番２０号,,13,111,1440055,,,,,,,2022-07-15,1,,,,,アステージ,0
1834,7011001148647,新規,0,2022-07-15,2022-07-15,株式会社リノベーショングループ,,株式会社,東京都,渋谷区,渋谷２丁目１９－１５宮益坂ビルディング６０９,,13,113,1500002,,,,,,,2022-07-15,1,,,,,リノベーショングループ,0
1848,7011501028274,新規,0,2022-07-15,2022-07-15,株式会社日本看護師研究所,,株式会社,東京都,荒川区,西日暮里２丁目４９－５光工芸者ビル４０１号,,13,118,1160013,,,,,,,2022-07-15,1,,,,,ニホンカンゴシケンキュウジョ,0
1856,7011701025468,新規,0,2022-07-15,2022-07-15,株式会社ビーフレンズ,,株式会社,東京都,江戸川区,松島３丁目２９番３－５０７号,,13,123,1320031,,,,,,,2022-07-15,1,,,,,ビーフレンズ,0
1863,7012703002496,新規,0,2022-07-15,2022-07-15,合同会社エーワン,,合同会社,東京都,西東京市,新町５丁目１１番２１号,,13,229,2020023,,,,,,,2022-07-15,1,,,,,エーワン,0
1867,7013301049384,新規,0,2022-07-15,2022-07-15,Ｄ　ｗｉｌｌ株式会社,,株式会社,東京都,豊島区,巣鴨１丁目３６番５号,,13,116,1700002,,,,,,,2022-07-15,1,,,,,ディーウィル,0
1877,7020001147377,新規,0,2022-07-15,2022-07-15,株式会社輝,,株式会社,神奈川県,川崎市川崎区,砂子２丁目８番地１,,14,131,2100006,,,,,,,2022-07-15,1,,,,,テル,0
1878,7020001147393,新規,0,2022-07-15,2022-07-15,株式会社ＢＩＳＡＵＮＩ,,株式会社,神奈川県,横浜市鶴見区,本町通３丁目１６３番地２９,,14,101,2300048,,,,,,,2022-07-15,1,,,,,ビサウニ,0
1883,7020003022124,新規,0,2022-07-15,2022-07-15,合同会社プレシャス,,合同会社,神奈川県,川崎市川崎区,砂子１丁目９番１－２階,,14,131,2100006,,,,,,,2022-07-15,1,,,,,プレシャス,0
1897,7030005020918,新規,0,2022-07-15,2022-07-15,一般社団法人アヴィエールスポーツクラブ,,その他の設立登記法人,埼玉県,所沢市,大字山口１６５番地の３６,,11,208,3591145,,,,,,,2022-07-15,1,,,,,アヴィエールスポーツクラブ,0
1903,7040001124283,新規,0,2022-07-15,2022-07-15,株式会社Ｓｔｒｕｃｔｕｒｅ＆Ｓｔｒａｔｅｇｙ,,株式会社,千葉県,八街市,大谷流８４０番地１,,12,230,2891134,,,,,,,2022-07-15,1,,,,,ストラクチャーアンドストラテジー,0
1915,7070001039454,新規,0,2022-07-15,2022-07-15,ＭＳＭ株式会社,,株式会社,群馬県,太田市,西本町１９番６号,,10,205,3730033,,,,,,,2022-07-15,1,,,,,エムエスエム,0
1916,7070003004555,新規,0,2022-07-15,2022-07-15,ＡＮＨ　ＢＥＯ　ＱＵＡＮ合同会社,,合同会社,群馬県,前橋市,新前橋町１８番地４１グレイスビル２階,,10,201,3710843,,,,,,,2022-07-15,1,,,,,アインベオクアン,0
1918,7080101023423,新規,0,2022-07-15,2022-07-15,株式会社アルコ,,株式会社,静岡県,富士市,桑崎３１５番地の５,,22,210,4170803,,,,,,,2022-07-15,1,,,,,アルコ,0
1934,7110001036827,新規,0,2022-07-15,2022-07-15,株式会社フリーエージェントスタイルホールディングス,,株式会社,新潟県,上越市,牧区小川１８７４番地１,,15,222,9430648,,,,,,,2022-07-15,1,,,,,フリーエージェントスタイルホールディングス,0
1941,7120001247340,新規,0,2022-07-15,2022-07-15,衣水縁株式会社,,株式会社,大阪府,大阪市中央区,船越町２丁目３番８号天満橋ガーデンハイツ４０４号室,,27,128,5400036,,,,,,,2022-07-15,1,,,,,イスイエン,0
1942,7120001247398,新規,0,2022-07-15,2022-07-15,Ｎｅｘｏｍ株式会社,,株式会社,大阪府,大阪市生野区,新今里３丁目４番１７号シャトー第４今里４０４Ａ,,27,116,5440001,,,,,,,2022-07-15,1,,,,,ネクソン,0
1943,7120001247431,新規,0,2022-07-15,2022-07-15,株式会社丸人商事,,株式会社,大阪府,大阪市中央区,島之内２丁目９－３３ホースタイ南４Ｆ４２５号,,27,128,5420082,,,,,,,2022-07-15,1,,,,,マルトショウジ,0
1947,7120003022080,新規,0,2022-07-15,2022-07-15,ＴＲ　ＧＬＯＢＡＬ合同会社,,合同会社,大阪府,大阪市此花区,梅香１丁目１９番２１号４０２,,27,104,5540013,,,,,,,2022-07-15,1,,,,,ティアールグローバル,0
1952,7120901046255,新規,0,2022-07-15,2022-07-15,株式会社かんばんむすめ,,株式会社,大阪府,豊中市,上新田１丁目２４番Ｇ－１４０５号,,27,203,5600085,,,,,,,2022-07-15,1,,,,,カンバンムスメ,0
1958,7130001072201,新規,0,2022-07-15,2022-07-15,株式会社新矢管工,,株式会社,京都府,長岡京市,東神足２丁目８－２５,,26,209,6170832,,,,,,,2022-07-15,1,,,,,シンヤカンコウ,0
1968,7140001126749,新規,0,2022-07-15,2022-07-15,ライトアツプ株式会社,,株式会社,兵庫県,加古郡稲美町,六分一１３５４番地の３,,28,381,6751112,,,,,,,2022-07-15,1,,,,,ライトアツプ,0
1969,7140001126773,新規,0,2022-07-15,2022-07-15,ジェイアインポート株式会社,,株式会社,兵庫県,西宮市,上甲子園４丁目９番６６－２１１号,,28,204,6638114,,,,,,,2022-07-15,1,,,,,ジェイアインポート,0
1972,7140003017913,新規,0,2022-07-15,2022-07-15,合同会社結,,合同会社,兵庫県,明石市,大久保町谷八木５３８番地１００９号,,28,203,6740062,,,,,,,2022-07-15,1,,,,,ムスビ,0
1973,7150003002732,新規,0,2022-07-15,2022-07-15,合同会社訪問看護ステーションれんげ,,合同会社,奈良県,生駒郡安堵町,大字西安堵５００番地の１９,,29,345,6391066,,,,,,,2022-07-15,1,,,,,ホウモンカンゴステーションレンゲ,0
1982,7180001152205,新規,0,2022-07-15,2022-07-15,株式会社ＭＯＬＥ,,株式会社,愛知県,名古屋市中村区,名駅３丁目２８番１２号大名古屋ビルヂング２５階,,23,105,4500002,,,,,,,2022-07-15,1,,,,,モール,0
1983,7180001152246,新規,0,2022-07-15,2022-07-15,株式会社ＮＥＯ,,株式会社,愛知県,一宮市,栄３丁目７番３号,,23,203,4910858,,,,,,,2022-07-15,1,,,,,ネオ,0
1987,7180003024047,新規,0,2022-07-15,2022-07-15,セントラルビレッジ合同会社,,合同会社,愛知県,名古屋市昭和区,山中町１丁目３０番地,,23,107,4660828,,,,,,,2022-07-15,1,,,,,セントラルビレッジ,0
1988,7180003024055,新規,0,2022-07-15,2022-07-15,合同会社ＴＨＯＵＳＡＮＤＭＩＬＥＳ,,合同会社,愛知県,名古屋市西区,那古野１丁目２０－３－２階,,23,104,4510042,,,,,,,2022-07-15,1,,,,,サウザントマイル,0
2015,7270001008595,新規,0,2022-07-15,2022-07-15,株式会社メディルーク,,株式会社,鳥取県,米子市,大崎１７７８番地,,31,202,6830104,,,,,,,2022-07-15,1,,,,,メディルーク,0
2026,7290805009572,新規,0,2022-07-15,2022-07-15,一般社団法人九州国際交流協会,,その他の設立登記法人,福岡県,行橋市,宮市町１０番２１号,,40,213,8240008,,,,,,,2022-07-15,1,,,,,キュウシュウコクサイコウリュウキョウカイ,0
2027,7300001013006,新規,0,2022-07-15,2022-07-15,株式会社重富解体産業,,株式会社,佐賀県,杵島郡白石町,大字福富９６番地,,41,425,8490401,,,,,,,2022-07-15,1,,,,,シゲドミカイタイサンギョウ,0
2050,7370001048805,新規,0,2022-07-15,2022-07-15,株式会社ＴＨ２,,株式会社,宮城県,仙台市青葉区,中央４丁目９番１３ニーズトラストビルヂング．Ｓ－ＩＩ中央６階－Ｂ,00127228,04,101,9800021,,,,,,,2022-07-15,1,,,,,ティーエイチツー,0
2051,7370001048813,新規,0,2022-07-15,2022-07-15,マルイチ電工株式会社,,株式会社,宮城県,仙台市宮城野区,岩切字洞ノ口東８０番地の２,,04,102,9830821,,,,,,,2022-07-15,1,,,,,マルイチデンコウ,0
2068,7430001087037,新規,0,2022-07-15,2022-07-15,宇光株式会社,,株式会社,北海道,札幌市白石区,菊水六条４丁目１番４－１０６号,,01,104,0030806,,,,,,,2022-07-15,1,,,,,ウコウ,0
2069,7430001087128,新規,0,2022-07-15,2022-07-15,株式会社由和サービス,,株式会社,北海道,札幌市清田区,平岡公園東４丁目３番１８号,,01,110,0040882,,,,,,,2022-07-15,1,,,,,ユウワサービス,0
2083,7490001010232,新規,0,2022-07-15,2022-07-15,株式会社地ラボ,,株式会社,高知県,高知市,春野町森山１０２５番地,,39,201,7810325,,,,,,,2022-07-15,1,,,,,ヂラボ,0
2084,7490002002237,新規,0,2022-07-15,2022-07-15,有限会社三宗,,有限会社,高知県,高知市,一宮東町５丁目２１番８号,,39,201,7818132,,,,,,,2022-07-15,1,,,,,サンソウ,0
2094,8010001228086,新規,0,2022-07-15,2022-07-15,ＪＰＡ第２４４号株式会社,,株式会社,東京都,千代田区,霞が関３丁目２番１号,,13,101,1000013,,,,,,,2022-07-15,1,,,,,ジェイピーエーダイニヒャクヨンジュウヨンゴウ,0
2095,8010001228094,新規,0,2022-07-15,2022-07-15,ＪＰＡ第２５２号株式会社,,株式会社,東京都,千代田区,霞が関３丁目２番１号,,13,101,1000013,,,,,,,2022-07-15,1,,,,,ジェイピーエーダイニヒャクゴジュウニゴウ,0
2096,8010001228136,新規,0,2022-07-15,2022-07-15,株式会社アバックストア,,株式会社,東京都,中央区,銀座６丁目１０番１号ＧＩＮＺＡＳＩＸ８階,,13,102,1040061,,,,,,,2022-07-15,1,,,,,アバックストア,0
2100,8010003038153,新規,0,2022-07-15,2022-07-15,合同会社Ｒｅｓｉｌｉｅｎｃｅ　ＸＸＩ,,合同会社,東京都,中央区,銀座１丁目６番１１号土志田ビルディング３Ｆ,,13,102,1040061,,,,,,,2022-07-15,1,,,,,レジリエンストゥエンティワン,0
2101,8010003038186,新規,0,2022-07-15,2022-07-15,合同会社旅路,,合同会社,東京都,中央区,日本橋人形町１丁目１８番９号ＡＴビル９階,,13,102,1030013,,,,,,,2022-07-15,1,,,,,タビジ,0
2105,8010401168510,新規,0,2022-07-15,2022-07-15,株式会社ＳＨＩＫＩ,,株式会社,東京都,港区,南青山１丁目１６－６乃木坂ヒルズ１１６６・１０１号室,,13,103,1070062,,,,,,,2022-07-15,1,,,,,シキ,0
2106,8010401168527,新規,0,2022-07-15,2022-07-15,株式会社ＢＬＵＥ,,株式会社,東京都,港区,元麻布３丁目２番１９号,,13,103,1060046,,,,,,,2022-07-15,1,,,,,ブルー,0
2110,8010501049123,新規,0,2022-07-15,2022-07-15,株式会社Ｄｅｃｉｄｅ,,株式会社,東京都,台東区,浅草橋１丁目１９－７,,13,106,1110053,,,,,,,2022-07-15,1,,,,,ディサイド,0
2112,8010505003324,新規,0,2022-07-15,2022-07-15,ＪＡＰＡＮ行政書士法人,,その他の設立登記法人,東京都,台東区,東上野３丁目１７番８号大野屋ビル３階Ａ号室,,13,106,1100015,,,,,,,2022-07-15,1,,,,,ジャパン,0
2119,8010703006319,新規,0,2022-07-15,2022-07-15,合同会社ＡＭｔｅｃｈ,,合同会社,東京都,品川区,大崎２丁目７－２３－１０１,,13,109,1410032,,,,,,,2022-07-15,1,,,,,エーエムテック,0
2125,8010901051249,新規,0,2022-07-15,2022-07-15,株式会社明治測量事務所,,株式会社,東京都,世田谷区,三宿１丁目１番３号内田ビル２Ｆ,,13,112,1540005,,,,,,,2022-07-15,1,,,,,メイジソクリョウジムショ,0
2129,8011001148555,新規,0,2022-07-15,2022-07-15,ＧＲＩＮＣＯＭＭＯＮＳ株式会社,,株式会社,東京都,渋谷区,神南１丁目１４番７号ワイズ神南ビル２Ｆ,,13,113,1500041,,,,,,,2022-07-15,1,,,,,グリンコモンズ,0
2130,8011001148646,新規,0,2022-07-15,2022-07-15,株式会社ＦＡＴＢＯＹ,,株式会社,東京都,渋谷区,神宮前６丁目２３番４号桑野ビル２階,,13,113,1500001,,,,,,,2022-07-15,1,,,,,ファットボーイ,0
2131,8011001148670,新規,0,2022-07-15,2022-07-15,株式会社ＲＭＦ,,株式会社,東京都,渋谷区,渋谷１丁目１５－１２ＬＡＩＤＯＵＴＳＨＩＢＵＹＡ２０４,,13,113,1500002,,,,,,,2022-07-15,1,,,,,アールエムエフ,0
2133,8011105010322,新規,0,2022-07-15,2022-07-15,弁護士法人ファーマ法律事務所,,その他の設立登記法人,東京都,新宿区,高田馬場１丁目２９番４号新陽ビルＩＩＩ２階,00127226,13,104,1690075,,,,,,,2022-07-15,1,,,,,ファーマホウリツジムショ,0
2150,8012803002841,新規,0,2022-07-15,2022-07-15,ＴＣｔｒｉｏ合同会社,,合同会社,東京都,立川市,富士見町２丁目３２番３３号メゾン・ド・ノアピア富士見町２０７号,,13,202,1900013,,,,,,,2022-07-15,1,,,,,ティーシートリオ,0
2151,8013105001805,新規,0,2022-07-15,2022-07-15,一般社団法人すこやか,,その他の設立登記法人,東京都,青梅市,成木１丁目４６７番地,,13,205,1980001,,,,,,,2022-07-15,1,,,,,スコヤカ,0
2165,8020003022123,新規,0,2022-07-15,2022-07-15,合同会社Ｗｅｅｋｄｅｓｉｇｎ,,合同会社,神奈川県,横浜市金沢区,能見台２丁目２５－３,,14,108,2360057,,,,,,,2022-07-15,1,,,,,ウィークデザイン,0
2166,8020003022131,新規,0,2022-07-15,2022-07-15,ｓｍａｌｌｍｏａｔ合同会社,,合同会社,神奈川県,川崎市麻生区,高石３丁目２９番８－２０８号,,14,137,2150003,,,,,,,2022-07-15,1,,,,,スモールモート,0
2167,8021001076557,新規,0,2022-07-15,2022-07-15,株式会社ＧＥＳＰ,,株式会社,神奈川県,小田原市,桑原４４３,,14,206,2500861,,,,,,,2022-07-15,1,,,,,ジースプ,0
2178,8030001149256,新規,0,2022-07-15,2022-07-15,Ｕ　ＴＥＣＨ　ＪＡＰＡＮ株式会社,,株式会社,埼玉県,加須市,東栄２丁目７－１７,,11,210,3470064,,,,,,,2022-07-15,1,,,,,ユーテックジャパン,0
2190,8040001124290,新規,0,2022-07-15,2022-07-15,株式会社Ｈａｒｖｅｓｔ,,株式会社,千葉県,習志野市,藤崎２丁目９番１０号,,12,216,2750017,,,,,,,2022-07-15,1,,,,,ハーベスト,0
2192,8040003020447,新規,0,2022-07-15,2022-07-15,合同会社ＡＮＨ　ＫＨＯＩ,,合同会社,千葉県,船橋市,湊町２丁目１番１８号,,12,204,2730011,,,,,,,2022-07-15,1,,,,,アインコイ,0
2205,8060001035057,新規,0,2022-07-15,2022-07-15,株式会社ｂｅａｕｔｙ　ｐａｒｔｎｅｒｓ,,株式会社,栃木県,小山市,大字鉢形７３９番地３,,09,208,3230801,,,,,,,2022-07-15,1,,,,,ビューティーパートナーズ,0
2206,8060001035081,新規,0,2022-07-15,2022-07-15,株式会社平賀工業,,株式会社,栃木県,足利市,山下町２４１９番地１,,09,202,3260846,,,,,,,2022-07-15,1,,,,,ヒラガコウギョウ,0
2207,8060003004142,新規,0,2022-07-15,2022-07-15,ＩＧＮｉＴＥ合同会社,,合同会社,栃木県,大田原市,浅香２丁目３５７４番地４４６,,09,210,3240043,,,,,,,2022-07-15,1,,,,,イグナイト,0
2208,8060003004150,新規,0,2022-07-15,2022-07-15,合同会社第一モーターズ,,合同会社,栃木県,小山市,若木町１丁目２２番６号ヴィラ安田１０１号,,09,208,3230028,,,,,,,2022-07-15,1,,,,,ダイイチモーターズ,0
2209,8060005009998,新規,0,2022-07-15,2022-07-15,一般社団法人癒しの風,,その他の設立登記法人,栃木県,さくら市,喜連川４２４５番地４,,09,214,3291412,,,,,,,2022-07-15,1,,,,,イヤシノカゼ,0
2212,8070003004554,新規,0,2022-07-15,2022-07-15,Ｏｌｉｖｅ合同会社,,合同会社,群馬県,前橋市,箱田町１４０８番地５,,10,201,3710837,,,,,,,2022-07-15,1,,,,,オリーブ,0
2226,8110005016832,新規,0,2022-07-15,2022-07-15,一般社団法人創奏,,その他の設立登記法人,新潟県,燕市,吉田日之出町３０番２５号,,15,213,9590231,,,,,,,2022-07-15,1,,,,,ソウソウ,0
2239,8120001247158,新規,0,2022-07-15,2022-07-15,株式会社ＷＴ　ＰＡＲＴＮＥＲＳ,,株式会社,大阪府,大阪市中央区,難波５丁目１番６０号２７Ｆ,,27,128,5420076,,,,,,,2022-07-15,1,,,,,ダブリューティーパートナーズ,0
2240,8120001247389,新規,0,2022-07-15,2022-07-15,株式会社レマークス,,株式会社,大阪府,大阪市平野区,平野西３丁目７番３０号,,27,126,5470033,,,,,,,2022-07-15,1,,,,,レマークス,0
2241,8120001247430,新規,0,2022-07-15,2022-07-15,株式会社ＯＩＰ,,株式会社,大阪府,大阪市北区,本庄西２丁目８－５,,27,127,5310073,,,,,,,2022-07-15,1,,,,,オイップ,0
2242,8120005023084,新規,0,2022-07-15,2022-07-15,医療法人ルーク山田眼科,,その他の設立登記法人,大阪府,枚方市,長尾荒阪１丁目２８２９番地７,,27,210,5730103,,,,,,,2022-07-15,1,,,,,ルークヤマダガンカ,0
2246,8120105009594,新規,0,2022-07-15,2022-07-15,医療法人春永会,,その他の設立登記法人,大阪府,堺市東区,日置荘西町１丁４８番１５号,,27,143,5998114,,,,,,,2022-07-15,1,,,,,シュンエイカイ,0
2248,8120901046254,新規,0,2022-07-15,2022-07-15,株式会社コーリング,,株式会社,大阪府,茨木市,真砂２丁目１１番４号,,27,211,5670851,,,,,,,2022-07-15,1,,,,,コーリング,0
2253,8122003002375,新規,0,2022-07-15,2022-07-15,合同会社ＴａｎｉｏＢｒｏｔｈｅｒｓ,,合同会社,大阪府,八尾市,龍華町１丁目４番２－２７２１号,,27,212,5810069,,,,,,,2022-07-15,1,,,,,タニオブラザーズ,0
2258,8130001072175,新規,0,2022-07-15,2022-07-15,株式会社ｆｉｆｔｈ,,株式会社,京都府,京都市山科区,音羽役出町１０番地１０,,26,110,6078076,,,,,,,2022-07-15,1,,,,,フィフス,0
2259,8130001072191,新規,0,2022-07-15,2022-07-15,株式会社プロシード,,株式会社,京都府,京都市南区,東九条下殿田町４３番地Ｇ２０５,,26,107,6018047,,,,,,,2022-07-15,1,,,,,プロシード,0
2260,8130001072200,新規,0,2022-07-15,2022-07-15,株式会社ＲＩＥＦ,,株式会社,京都府,京都市中京区,大宮通四条上る錦大宮町１３２－１新栄ビル１Ｆ,,26,104,6048365,,,,,,,2022-07-15,1,,,,,リエフ,0
2261,8130001072217,新規,0,2022-07-15,2022-07-15,株式会社Ｄ‐ＷＥＡＶＥ,,株式会社,京都府,京都市中京区,占出山町３０８番地ＳＯＨＯオフィス四条烏丸,,26,104,6048155,,,,,,,2022-07-15,1,,,,,ディーウィーブ,0
2263,8130003008053,新規,0,2022-07-15,2022-07-15,ＤＧＰ　Ｃｏｎｓｕｌｔｉｎｇ合同会社,,合同会社,京都府,京都市下京区,綾西洞院町７４３ＷＥＳＴＰＡＲＫビル３階３０２号室,,26,106,6008474,,,,,,,2022-07-15,1,,,,,ディージーピーコンサルティング,0
2264,8130003008061,新規,0,2022-07-15,2022-07-15,合同会社円居舎,,合同会社,京都府,京都市下京区,高辻通烏丸西入骨屋町３２３番地,,26,106,6008425,,,,,,,2022-07-15,1,,,,,マドイシャ,0
2272,8140001126707,新規,0,2022-07-15,2022-07-15,株式会社ｕｃｈｕ,,株式会社,兵庫県,神戸市東灘区,御影３丁目２番１１号,,28,101,6580047,,,,,,,2022-07-15,1,,,,,ウチュ,0
2273,8140001126731,新規,0,2022-07-15,2022-07-15,ＳＥＫＩＹＡＭＡサービス株式会社,,株式会社,兵庫県,加古川市,志方町横大路３８９番地の１,,28,210,6750332,,,,,,,2022-07-15,1,,,,,セキヤマサービス,0
2277,8160001024371,新規,0,2022-07-15,2022-07-15,株式会社ＫＯＭＡＹＡ,,株式会社,滋賀県,栗東市,綣８丁目３番３１号,,25,208,5203031,,,,,,,2022-07-15,1,,,,,コマヤ,0
2281,8180001152162,新規,0,2022-07-15,2022-07-15,株式会社ＥＳＳＥＮＣＥ,,株式会社,愛知県,あま市,七宝町桂山之浦１６９３番地５８,,23,237,4970004,,,,,,,2022-07-15,1,,,,,エッセンス,0
2282,8180001152179,新規,0,2022-07-15,2022-07-15,株式会社アール,,株式会社,愛知県,名古屋市天白区,島田が丘１１０２番地の７,,23,116,4680029,,,,,,,2022-07-15,1,,,,,アール,0
2283,8180001152220,新規,0,2022-07-15,2022-07-15,株式会社森栄不動産,,株式会社,愛知県,一宮市,起字西生出８番地,,23,203,4940006,,,,,,,2022-07-15,1,,,,,モリエイフドウサン,0
2284,8180001152245,新規,0,2022-07-15,2022-07-15,株式会社Ｈ,,株式会社,愛知県,一宮市,栄３丁目７番３号,,23,203,4910858,,,,,,,2022-07-15,1,,,,,エイチ,0
2287,8180003024054,新規,0,2022-07-15,2022-07-15,エルボス合同会社,,合同会社,愛知県,名古屋市中区,栄５丁目２６番３９号ＧＳ栄ビル３Ｆ,,23,106,4600008,,,,,,,2022-07-15,1,,,,,エルボス,0
2310,8240003005717,新規,0,2022-07-15,2022-07-15,合同会社ｓｔｕｄｉｏスイナ,,合同会社,広島県,広島市南区,出汐１丁目１７番１号３階,,34,103,7340001,,,,,,,2022-07-15,1,,,,,スタジオスイナ,0
2313,8250003003117,新規,0,2022-07-15,2022-07-15,合同会社ＰＥＧ,,合同会社,山口県,山口市,中央５丁目１５―１３－１０１,,35,203,7530074,,,,,,,2022-07-15,1,,,,,ピーイージー,0
2321,8290001098304,新規,0,2022-07-15,2022-07-15,ＭＩＲＡＮＥＳＴ株式会社,,株式会社,福岡県,福岡市中央区,今泉１丁目２０番２号,,40,133,8100021,,,,,,,2022-07-15,1,,,,,ミラネスト,0
2329,8290803004161,新規,0,2022-07-15,2022-07-15,Ｓｈａｒｅ　Ｄａｔａ合同会社,,合同会社,福岡県,行橋市,大字大野井８０５－５,,40,213,8240041,,,,,,,2022-07-15,1,,,,,シェアデータ,0
2333,8300001013005,新規,0,2022-07-15,2022-07-15,株式会社桜樹会,,株式会社,佐賀県,佐賀市,川副町大字福富４０番地４,,41,201,8402201,,,,,,,2022-07-15,1,,,,,オウジュカイ,0
2335,8320002022853,新規,0,2022-07-15,2022-07-15,山国ナショナル有限会社,,有限会社,大分県,中津市,山国町守実７０の３番地,,44,203,8710712,,,,,,,2022-07-15,1,,,,,ヤマグニナショナル,0
2336,8320003003852,新規,0,2022-07-15,2022-07-15,合同会社ｋｕｕ．,,合同会社,大分県,中津市,耶馬溪町大字平田１３８７番地５,,44,203,8710401,,,,,,,2022-07-15,1,,,,,クウ,0
2343,8360001030721,新規,0,2022-07-15,2022-07-15,ｌｉｆｅ　ｒｏｏｔｓ　ｍａｒｋｅｔ株式会社,,株式会社,沖縄県,名護市,字天仁屋１８１－１４,,47,209,9052261,,,,,,,2022-07-15,1,,,,,ライフルーツマーケット,0
2347,8370001048812,新規,0,2022-07-15,2022-07-15,株式会社スペチアーレ,,株式会社,宮城県,仙台市青葉区,国見ケ丘３丁目５番地の５,,04,101,9893201,,,,,,,2022-07-15,1,,,,,スペチアーレ,0
2376,8430001086995,新規,0,2022-07-15,2022-07-15,株式会社晴,,株式会社,北海道,札幌市手稲区,富丘二条２丁目１０番１５号,,01,109,0060012,,,,,,,2022-07-15,1,,,,,ハル,0
2377,8430001087102,新規,0,2022-07-15,2022-07-15,北海道アセットマネジメント株式会社,,株式会社,北海道,札幌市中央区,北一条西５丁目２番地９,,01,101,0600001,,,,,,,2022-07-15,1,,,,,ホッカイドウアセットマネジメント,0
2385,8460101007221,新規,0,2022-07-15,2022-07-15,株式会社Ｓｈｅ,,株式会社,北海道,帯広市,東八条南１２丁目１番地２グランドコモンズＩＩ４０４,00127238,01,207,0800808,,,,,,,2022-07-15,1,,,,,シー,0
2390,8470002019678,新規,0,2022-07-15,2022-07-15,有限会社幸洋水産,,有限会社,香川県,東かがわ市,坂元７２０番地,,37,207,7692904,,,,,,,2022-07-15,1,,,,,コウヨウスイサン,0
2392,8490001010231,新規,0,2022-07-15,2022-07-15,株式会社カワグチ設計,,株式会社,高知県,高知市,栄田町３丁目６番１５号,,39,201,7800061,,,,,,,2022-07-15,1,,,,,カワグチセッケイ,0
2402,9010001228003,新規,0,2022-07-15,2022-07-15,株式会社竹橋共同事務所,,株式会社,東京都,千代田区,神田錦町３丁目１１番地,,13,101,1010054,,,,,,,2022-07-15,1,,,,,タケバシキョウドウジムショ,0
2403,9010001228093,新規,0,2022-07-15,2022-07-15,ＪＰＡ第２５１号株式会社,,株式会社,東京都,千代田区,霞が関３丁目２番１号,,13,101,1000013,,,,,,,2022-07-15,1,,,,,ジェイピーエーダイニヒャクゴジュウイチゴウ,0
2404,9010001228151,新規,0,2022-07-15,2022-07-15,株式会社イストリアス,,株式会社,東京都,文京区,小石川４丁目１４番２４－４０９号,,13,105,1120002,,,,,,,2022-07-15,1,,,,,イストリアス,0
2405,9010003038152,新規,0,2022-07-15,2022-07-15,合同会社Ｒｅｓｉｌｉｅｎｃｅ　ＸＸ,,合同会社,東京都,中央区,銀座１丁目６番１１号土志田ビルディング３Ｆ,,13,102,1040061,,,,,,,2022-07-15,1,,,,,レジリエンストゥエンティ,0
2419,9010401168542,新規,0,2022-07-15,2022-07-15,フィリピンコンサルティング株式会社,,株式会社,東京都,港区,愛宕２丁目５番１号愛宕グリーンヒルズＭＯＲＩタワー３４階,,13,103,1050002,,,,,,,2022-07-15,1,,,,,フィリピンコンサルティング,0
2420,9010401168559,新規,0,2022-07-15,2022-07-15,未来実現カンパニー株式会社,,株式会社,東京都,港区,南青山２丁目２番１５号ウィン青山９４２,,13,103,1070062,,,,,,,2022-07-15,1,,,,,ミライジツゲンカンパニー,0
2436,9010705003387,新規,0,2022-07-15,2022-07-15,モビリティサービス協同組合,,その他の設立登記法人,東京都,品川区,南大井６丁目２番７号,,13,109,1400013,,,,,,,2022-07-15,1,,,,,モビリティサービス,0
2444,9010901051248,新規,0,2022-07-15,2022-07-15,株式会社ワンスコミュニケーション,,株式会社,東京都,世田谷区,深沢１丁目２番７号,,13,112,1580081,,,,,,,2022-07-15,1,,,,,ワンスコミュニケーション,0
2446,9011001004864,新規,0,2022-07-15,2022-07-15,株式会社桜友社,,株式会社,東京都,渋谷区,千駄ヶ谷３丁目５５番７号,,13,113,1510051,,,,,,,2022-07-15,1,,,,,,0
2450,9011001148637,新規,0,2022-07-15,2022-07-15,株式会社Ｆｉｋａ　ａｎｄ　Ｆｏｔｏｓ,,株式会社,東京都,渋谷区,元代々木町５２番１６号元代々木ｆｌａｔ１０３号室,,13,113,1510062,,,,,,,2022-07-15,1,,,,,フィーカアンドフォトズ,0
2461,9011303004455,新規,0,2022-07-15,2022-07-15,合同会社ｉ‐ＭＥＭＥエンターテインメント,,合同会社,東京都,杉並区,高円寺南３丁目５７番１０号,,13,115,1660003,,,,,,,2022-07-15,1,,,,,アイミームエンターテインメント,0
2463,9011405002209,新規,0,2022-07-15,2022-07-15,一般社団法人モンドーラ委員会,,その他の設立登記法人,東京都,板橋区,宮本町２９番１０号,,13,119,1740054,,,,,,,2022-07-15,1,,,,,モンドーライインカイ,0
2472,9011803005176,新規,0,2022-07-15,2022-07-15,盛和合同会社,,合同会社,東京都,葛飾区,青戸３丁目４１番１１号１階,,13,122,1250062,,,,,,,2022-07-15,1,,,,,セイワ,0
2480,9012701017148,新規,0,2022-07-15,2022-07-15,ＳＮＫ株式会社,,株式会社,東京都,東久留米市,南沢５丁目１９番２４－９１６号,,13,222,2030023,,,,,,,2022-07-15,1,,,,,エスエヌケー,0
2481,9012801021727,新規,0,2022-07-15,2022-07-15,株式会社アクアローズＣＯ．Ｌｔｄ,,株式会社,東京都,立川市,錦町１丁目４番１３号,,13,202,1900022,,,,,,,2022-07-15,1,,,,,アクアローズ,0
2487,9013303006225,新規,0,2022-07-15,2022-07-15,合同会社ＴＨ　ＩＮＣＥＰＴ,,合同会社,東京都,豊島区,池袋１丁目８番７号サン池袋Ｉ６０５号,00127230,13,116,1700014,,,,,,,2022-07-15,1,,,,,ティーエイチインセプト,0
2492,9020001147391,新規,0,2022-07-15,2022-07-15,アライブ株式会社,,株式会社,神奈川県,川崎市多摩区,登戸１８６６番地,,14,135,2140014,,,,,,,2022-07-15,1,,,,,アライブ,0
2499,9020003022130,新規,0,2022-07-15,2022-07-15,ｕｎｉｋｓ合同会社,,合同会社,神奈川県,横浜市鶴見区,鶴見中央２丁目７番６－５０２号,,14,101,2300051,,,,,,,2022-07-15,1,,,,,ユニクス,0
2505,9030001149255,新規,0,2022-07-15,2022-07-15,株式会社Ｏ‐ｚｅｔ,,株式会社,埼玉県,深谷市,上野台３２番地８,,11,218,3660801,,,,,,,2022-07-15,1,,,,,オーゼット,0
2506,9030001149263,新規,0,2022-07-15,2022-07-15,大通株式会社,,株式会社,埼玉県,越谷市,神明町２丁目３９７－３－１０８,,11,222,3430805,,,,,,,2022-07-15,1,,,,,ダイツウ,0
2527,9040001124265,新規,0,2022-07-15,2022-07-15,株式会社オーエス,,株式会社,千葉県,袖ケ浦市,神納１丁目２０番６号,,12,229,2990257,,,,,,,2022-07-15,1,,,,,オーエス,0
2528,9040001124281,新規,0,2022-07-15,2022-07-15,Ｍ＆Ｍ　Ｓｏｌｕｔｉｏｎｓ株式会社,,株式会社,千葉県,市川市,国府台１丁目１３－８,,12,203,2720827,,,,,,,2022-07-15,1,,,,,エムアンドエムソリューションズ,0
2529,9040001124331,新規,0,2022-07-15,2022-07-15,平野株式会社,,株式会社,千葉県,千葉市美浜区,高浜２丁目３番３号,,12,106,2610003,,,,,,,2022-07-15,1,,,,,ヒラノ,0
2534,9050001051401,新規,0,2022-07-15,2022-07-15,株式会社Ｒ・Ｍジャパン,,株式会社,茨城県,水戸市,若宮１丁目７番１４棟３０２号,,08,201,3100013,,,,,,,2022-07-15,1,,,,,アールエムジャパン,0
2535,9050001051418,新規,0,2022-07-15,2022-07-15,株式会社ｅロボティクス茨城,,株式会社,茨城県,かすみがうら市,稲吉３丁目１番１号,,08,230,3150054,,,,,,,2022-07-15,1,,,,,イーロボティクスイバラキ,0
2538,9060003004141,新規,0,2022-07-15,2022-07-15,合同会社ウイズアツプ,,合同会社,栃木県,宇都宮市,下岡本町４５４７番地１６,,09,201,3291104,,,,,,,2022-07-15,1,,,,,ウイズアツプ,0
2540,9060005009997,新規,0,2022-07-15,2022-07-15,一般社団法人日本外壁塗装協会,,その他の設立登記法人,栃木県,宇都宮市,下田原町１６３１番地３,,09,201,3291115,,,,,,,2022-07-15,1,,,,,ニホンガイヘキトソウキョウカイ,0
2542,9070003004545,新規,0,2022-07-15,2022-07-15,ＳＫＣＹ合同会社,,合同会社,群馬県,前橋市,南町２丁目５２番３号西村ハイツ１０４,,10,201,3710805,,,,,,,2022-07-15,1,,,,,セクシー,0
2549,9080401025951,新規,0,2022-07-15,2022-07-15,株式会社ＡＩ技研,,株式会社,静岡県,浜松市中区,城北３丁目５番１号静岡大学イノベーション社会連携推進機構インキュベーション施設２１０号室,,22,131,4328011,,,,,,,2022-07-15,1,,,,,エーアイギケン,0
2555,9110001036825,新規,0,2022-07-15,2022-07-15,株式会社Ｆ．ｃｓ,,株式会社,新潟県,長岡市,中沢１丁目５４番地,,15,202,9400853,,,,,,,2022-07-15,1,,,,,エフシーエス,0
2565,9120001247314,新規,0,2022-07-15,2022-07-15,潤芳可株式会社,,株式会社,大阪府,大阪市東成区,東小橋１丁目１７－３１グランドハイツ東小橋４１７号室,,27,115,5370024,,,,,,,2022-07-15,1,,,,,ジュンホウカ,0
2566,9120001247330,新規,0,2022-07-15,2022-07-15,オーエムプラント工業株式会社,,株式会社,大阪府,門真市,北巣本町１番１９号ＹシャトレーヌＩＩ２０５号,00127236,27,223,5710073,,,,,,,2022-07-15,1,,,,,オーエムプラントコウギョウ,0
2567,9120001247339,新規,0,2022-07-15,2022-07-15,大川国際貿易株式会社,,株式会社,大阪府,大阪市北区,天神橋７丁目１５番２号ユーロハイツ天神橋５０３号室,,27,127,5310041,,,,,,,2022-07-15,1,,,,,オオカワコクサイボウエキ,0
2568,9120001247388,新規,0,2022-07-15,2022-07-15,株式会社ＳＵＸＰＥＲＩＡ,,株式会社,大阪府,大阪市北区,中津１丁目６番２９－２５０８号,,27,127,5310071,,,,,,,2022-07-15,1,,,,,,0
2569,9120001247512,新規,0,2022-07-15,2022-07-15,滝偉株式会社,,株式会社,大阪府,大阪市中央区,伏見町４丁目４番１号日生伏見町ビル本館２階,,27,128,5410044,,,,,,,2022-07-15,1,,,,,タキイ,0
2572,9120003022070,新規,0,2022-07-15,2022-07-15,Ｓｐａｒｋｌｅ合同会社,,合同会社,大阪府,大阪市阿倍野区,王子町４丁目２番２１－９０２号,,27,119,5450023,,,,,,,2022-07-15,1,,,,,スパークル,0
2573,9120005023075,新規,0,2022-07-15,2022-07-15,医療法人幸輝会,,その他の設立登記法人,大阪府,大阪市西区,新町１丁目３３番１号ＯＮＥＳＨＩＮＭＡＣＨＩ２階,,27,106,5500013,,,,,,,2022-07-15,1,,,,,コウキカイ,0
2578,9120105009593,新規,0,2022-07-15,2022-07-15,医療法人水野クリニック,,その他の設立登記法人,大阪府,河内長野市,千代田台町６番１号,,27,216,5860027,,,,,,,2022-07-15,1,,,,,ミズノクリニック,0
2588,9130003008060,新規,0,2022-07-15,2022-07-15,フラスコ合同会社,,合同会社,京都府,京都市左京区,一乗寺庵野町８８－１Ｈ,,26,103,6068166,,,,,,,2022-07-15,1,,,,,フラスコ,0
2590,9130005016524,新規,0,2022-07-15,2022-07-15,医療法人芳幸会,,その他の設立登記法人,京都府,木津川市,山城町上狛前畑１２番地１,,26,214,6190204,,,,,,,2022-07-15,1,,,,,ホウコウカイ,0
2594,9140001126706,新規,0,2022-07-15,2022-07-15,株式会社さくらメゾピアノｍｕｓｉｃ,,株式会社,兵庫県,西宮市,羽衣町７番３０号,,28,204,6620051,,,,,,,2022-07-15,1,,,,,サクラメゾピアノミュージック,0
2595,9140001126771,新規,0,2022-07-15,2022-07-15,ＮＯＴ株式会社,,株式会社,兵庫県,姫路市,兼田６０３番地,,28,201,6728001,,,,,,,2022-07-15,1,,,,,エヌオーティー,0
2596,9140001126788,新規,0,2022-07-15,2022-07-15,株式会社雅建設工業,,株式会社,兵庫県,姫路市,庄田６２番地２,,28,201,6700951,,,,,,,2022-07-15,1,,,,,ミヤビケンセツコウギョウ,0
2603,9140003017911,新規,0,2022-07-15,2022-07-15,合同会社ＲａｂｉＬａｂｏ,,合同会社,兵庫県,姫路市,花田町加納原田１７７－６,,28,201,6710252,,,,,,,2022-07-15,1,,,,,ラビラボ,0
2613,9180001152186,新規,0,2022-07-15,2022-07-15,株式会社ＢＥＹＯＮＤ,,株式会社,愛知県,名古屋市名東区,照が丘２藤が丘イーストスクエア３Ｆ,,23,115,4650042,,,,,,,2022-07-15,1,,,,,ビヨンド,0
2614,9180001152194,新規,0,2022-07-15,2022-07-15,株式会社ロイヤルセオリー,,株式会社,愛知県,名古屋市緑区,鳴海町字平部４５番地の３,,23,114,4580801,,,,,,,2022-07-15,1,,,,,ロイヤルセオリー,0
2615,9180001152228,新規,0,2022-07-15,2022-07-15,株式会社ことぶき,,株式会社,愛知県,半田市,白山町４丁目１２番地ガウディ白山１－Ｄ,,23,205,4750912,,,,,,,2022-07-15,1,,,,,コトブキ,0
2635,9190005011726,新規,0,2022-07-15,2022-07-15,医療法人泰真会,,その他の設立登記法人,三重県,熊野市,井戸町３７８番地,,24,212,5194324,,,,,,,2022-07-15,1,,,,,タイシンカイ,0
2644,9230001019454,新規,0,2022-07-15,2022-07-15,株式会社ヒトノリノベーション,,株式会社,富山県,高岡市,鐘紡町３番１５号,,16,202,9330856,,,,,,,2022-07-15,1,,,,,ヒトノリノベーション,0
2645,9230003001889,新規,0,2022-07-15,2022-07-15,合同会社ＧＯＬＤＫ,,合同会社,富山県,砺波市,鷹栖６６０番地６,,16,208,9391335,,,,,,,2022-07-15,1,,,,,ゴルディク,0
2649,9250001019675,新規,0,2022-07-15,2022-07-15,株式会社エープラス,,株式会社,山口県,下関市,武久町２丁目２番２２号,,35,201,7510833,,,,,,,2022-07-15,1,,,,,エープラス,0
2662,9290001098311,新規,0,2022-07-15,2022-07-15,株式会社Ｋ‐バイタル,,株式会社,福岡県,福岡市博多区,博多駅前３丁目１４－１２－１２０１,,40,132,8120011,,,,,,,2022-07-15,1,,,,,ケーバイタル,0
2665,9290005018752,新規,0,2022-07-15,2022-07-15,一般社団法人セルフラブホロスコープ協会,,その他の設立登記法人,福岡県,福岡市早良区,四箇６丁目１番３５－２０６,,40,137,8111103,,,,,,,2022-07-15,1,,,,,セルフラブホロスコープキョウカイ,0
2666,9300001013004,新規,0,2022-07-15,2022-07-15,株式会社ノグチ工業,,株式会社,佐賀県,小城市,芦刈町浜枝川１３９６番地１,00127229,41,208,8490315,,,,,,,2022-07-15,1,,,,,ノグチコウギョウ,0
2681,9370001048803,新規,0,2022-07-15,2022-07-15,株式会社ミナミ第一保険事務所,,株式会社,宮城県,岩沼市,桜５丁目４番５号ロイヤルヒル桜１０２,,04,211,9892433,,,,,,,2022-07-15,1,,,,,ミナミダイイチホケンジムショ,0
2682,9370003005777,新規,0,2022-07-15,2022-07-15,ハッピーケア合同会社,,合同会社,宮城県,仙台市若林区,石名坂４６番地１９－２０２,,04,103,9840063,,,,,,,2022-07-15,1,,,,,ハッピーケア,0
2699,9430003014086,新規,0,2022-07-15,2022-07-15,合同会社Ｃ‐ｗｅｅｂ,,合同会社,北海道,札幌市中央区,南二十条西１３丁目１番３７－５０６号,,01,101,0640920,,,,,,,2022-07-15,1,,,,,シーウェーブ,0
2707,9480001011799,新規,0,2022-07-15,2022-07-15,ＢｅｌｌｅｖｕｅＭｅｄｉｃａｌ株式会社,,株式会社,徳島県,阿波市,阿波町高垣５０番地２,,36,206,7711705,,,,,,,2022-07-15,1,,,,,ベルビューメディカル,0
2708,9490001003440,新規,0,2022-07-15,2022-07-15,吉村商事株式会社,,株式会社,高知県,高知市,南久保１３９番地,,39,201,7810087,,,,,,,2022-07-15,1,,,,,ヨシムラショウジ,0
