sequenceNumber,corporateNumber,process,correct,updateDate,changeDate,name,nameImageId,kind,prefectureName,cityName,streetNumber,addressImageId,prefectureCode,cityCode,postCode,addressOutside,addressOutsideImageId,closeDate,closeCause,successorCorporateNumber,changeCause,assignmentDate,latest,enName,enPrefectureName,enCityName,enAddressOutside,furigana,hihyoji
6,1010001207856,登記記録の閉鎖等,0,2023-06-08,2023-06-01,ルートオーナーサポート株式会社,,株式会社,東京都,千代田区,神田司町２丁目２番地１１,,13,101,1010048,,,2023-06-01,合併による解散等,8010001080818,令和５年６月１日東京都千代田区神田司町二丁目２番地１１ルートストアハブ株式会社（8010001080818）に合併し解散,2020-03-10,1,,,,,ルートオーナーサポート,0
14,1010005006098,登記記録の閉鎖等,0,2023-06-08,2023-06-05,麹町山王マンション管理組合法人,,その他の設立登記法人,東京都,千代田区,二番町１１番地１０,,13,101,1020084,,,2023-06-05,清算の結了等,,,2015-10-05,1,,,,,コウジマチサンノウマンション,0
15,1010005028811,登記記録の閉鎖等,0,2023-06-08,2023-04-21,一般社団法人りょうぜん,,その他の設立登記法人,東京都,千代田区,霞が関３丁目２番５号,,13,101,1000013,,,2023-04-21,清算の結了等,,,2018-07-23,1,,,,,リョウゼン,0
30,1010502011427,登記記録の閉鎖等,0,2023-06-08,2023-06-06,有限会社明通,,有限会社,東京都,台東区,谷中７丁目５番９号山田ビル２０３,,13,106,1100001,,,2023-06-06,清算の結了等,,,2015-10-05,1,,,,,メイツウ,0
33,1010601024627,登記記録の閉鎖等,0,2023-06-08,2023-06-02,エイチ・イー・シー株式会社,,株式会社,東京都,江東区,青海２丁目４５番タイム２４ビル４階Ｅ－１０,,13,108,1350064,,,2023-06-02,清算の結了等,,,2015-10-05,1,,,,,エイチイーシー,0
71,1011302014801,登記記録の閉鎖等,0,2023-06-08,2023-06-01,有限会社ビジュアルスケープ,,有限会社,東京都,千代田区,内神田１丁目１８番１１号,,13,101,1010047,,,2023-06-01,清算の結了等,,,2015-10-05,1,,,,,ビジュアルスケープ,0
88,1013402006918,登記記録の閉鎖等,0,2023-06-08,2023-06-02,有限会社大三,,有限会社,東京都,日野市,多摩平６丁目３２番地の１９,,13,212,1910062,,,2023-06-02,清算の結了等,,,2015-10-05,1,,,,,ダイサン,0
108,1021002013045,登記記録の閉鎖等,0,2023-06-08,2023-06-05,有限会社湘南・メディカルサービス,,有限会社,神奈川県,茅ヶ崎市,東海岸北１丁目６番３８号,,14,207,2530053,,,2023-06-05,清算の結了等,,,2015-10-05,1,,,,,ショウナンメディカルサービス,0
130,1040003000926,登記記録の閉鎖等,0,2023-06-08,2023-05-23,合同会社Ｔ．Ｓ＆Ｃ,,合同会社,千葉県,船橋市,新高根５丁目２０番１１号,,12,204,2740814,,,2023-05-23,清算の結了等,,,2015-10-05,1,,,,,ティーエスアンドシー,0
137,1060001014505,登記記録の閉鎖等,0,2023-06-08,2023-06-01,株式会社東邦測量設計,,株式会社,栃木県,小山市,大字羽川３４４番地４,,09,208,3230012,,,2023-06-01,合併による解散等,4060001014262,令和５年６月１日栃木県小山市大字羽川５０５番地１株式会社三条工測（4060001014262）に合併し解散,2015-10-05,1,,,,,トウホウソクリョウセッケイ,0
177,1140002020782,登記記録の閉鎖等,0,2023-06-08,2023-06-01,有限会社アイティー技研,,有限会社,兵庫県,神戸市中央区,中島通３丁目５番２８号,,28,110,6510052,,,2023-06-01,清算の結了等,,,2015-10-05,1,,,,,アイティーギケン,0
189,1170005000085,登記記録の閉鎖等,0,2023-06-08,2023-06-07,紀洲ハイヤータクシー事業協同組合,,その他の設立登記法人,和歌山県,和歌山市,太田１０５番地,,30,201,6408323,,,2023-06-07,清算の結了等,,,2015-10-05,1,,,,,キシュウハイヤータクシー,0
195,1180001110556,登記記録の閉鎖等,0,2023-06-08,2023-06-02,株式会社ガーデンクラフト,,株式会社,愛知県,名古屋市名東区,梅森坂５丁目２０８番地,,23,115,4650065,,,2023-06-02,清算の結了等,,,2015-10-05,1,,,,,ガーデンクラフト,0
231,1230002000354,登記記録の閉鎖等,0,2023-06-08,2023-06-06,有限会社石黒興産,,有限会社,富山県,富山市,水橋畠等２９７番地,,16,201,9393521,,,2023-06-06,清算の結了等,,,2015-10-05,1,,,,,イシグロコウサン,0
248,1290001061557,登記記録の閉鎖等,0,2023-06-08,2023-06-01,株式会社ＦＯＭＡクリーンエネルギー,,株式会社,福岡県,福岡市博多区,榎田２丁目１番１９号,,40,132,8120004,,,2023-06-01,合併による解散等,3290001036193,令和５年６月１日福岡市博多区榎田二丁目１番１９号株式会社ＦＯＭＡ（3290001036193）に合併し解散,2015-10-05,1,,,,,フォーマ,0
254,1290003011766,登記記録の閉鎖等,0,2023-06-08,2023-06-02,合同会社ＴＡＡＮコーポレーション,,合同会社,福岡県,糟屋郡篠栗町,和田３丁目１６番３２号,,40,342,8112414,,,2023-06-02,清算の結了等,,,2021-11-04,1,,,,,ターンコーポレーション,0
262,1320002021457,登記記録の閉鎖等,0,2023-06-08,2023-06-06,エスケーコンピューター・ワールド有限会社,,有限会社,大分県,中津市,大字下宮永５０５番地の９,,44,203,8710029,,,2023-06-06,清算の結了等,,,2015-10-05,1,,,,,,0
268,1340001015086,登記記録の閉鎖等,0,2023-06-08,2023-06-01,株式会社ホンダプリモ曽於,,株式会社,鹿児島県,曽於市,末吉町二之方５１６１番地８,,46,217,8998605,,,2023-06-01,合併による解散等,1340001007364,令和５年６月１日鹿児島県霧島市隼人町見次１０９２番地１株式会社ホンダ鹿児島（1340001007364）に合併し解散,2015-10-05,1,,,,,ホンダプリモソオ,0
270,1340002005318,登記記録の閉鎖等,0,2023-06-08,2023-06-05,有限会社西南土地建物,,有限会社,鹿児島県,鹿児島市,東谷山４丁目１５番８号,,46,201,8910113,,,2023-06-05,清算の結了等,,,2015-10-05,1,,,,,,0
278,1370003003490,登記記録の閉鎖等,0,2023-06-08,2023-06-06,合同会社ｌｉｎｋ－ｅａｒｔｈ,,合同会社,宮城県,仙台市青葉区,五橋１丁目１番５８号ダイアパレス仙台中央５２０号室,,04,101,9800022,,,2023-06-06,清算の結了等,,,2016-05-12,1,,,,,,0
352,2010901032048,登記記録の閉鎖等,0,2023-06-08,2023-06-05,株式会社キャメルフロンティア,,株式会社,東京都,世田谷区,代田２丁目３１番８号,,13,112,1550033,,,2023-06-05,清算の結了等,,,2015-10-05,1,,,,,キャメルフロンティア,0
355,2010903003096,登記記録の閉鎖等,0,2023-06-08,2023-06-05,合同会社パリテ,,合同会社,東京都,世田谷区,成城２丁目４０番７号ＴＯＰ成城学園４０２号,,13,112,1570066,,,2023-06-05,清算の結了等,,,2016-03-24,1,,,,,パリテ,0
368,2011003004134,登記記録の閉鎖等,0,2023-06-08,2023-06-02,Ｓｋｕｌｌｃａｎｄｙ　Ｊａｐａｎ合同会社,,合同会社,東京都,渋谷区,神宮前５丁目１７番１１号パークサイドオーサキ２階,,13,113,1500001,,,2023-06-02,清算の結了等,,,2015-10-05,1,,,,,スカルキャンディジャパン,0
380,2011601020391,登記記録の閉鎖等,0,2023-06-08,2023-05-31,株式会社ＳＵＩ,,株式会社,東京都,練馬区,豊玉上２丁目１５番９号,,13,120,1760011,,,2023-05-31,清算の結了等,,,2015-10-05,1,,,,,,0
386,2011803004630,登記記録の閉鎖等,0,2023-06-08,2023-06-05,ＡｎＡｒｋＴｅｃｈ合同会社,,合同会社,東京都,葛飾区,高砂３丁目１４番１２号Ｋ・ＬＯＦＴＩＢ－１０１,,13,122,1250054,,,2023-06-05,清算の結了等,,,2021-05-21,1,,,,,アナークテック,0
390,2012301007646,登記記録の閉鎖等,0,2023-06-08,2023-05-31,株式会社椿,,株式会社,東京都,町田市,成瀬が丘２丁目２３番地８,,13,209,1940011,,,2023-05-31,清算の結了等,,,2015-10-05,1,,,,,ツバキ,0
395,2012801003392,登記記録の閉鎖等,0,2023-06-08,2023-05-31,株式会社プロネット,,株式会社,東京都,東大和市,立野２丁目２番地の１６,,13,220,2070021,,,2023-05-31,合併による解散等,1012801006669,令和５年５月３１日東京都東大和市立野二丁目２番地の１６本荘グループ株式会社（1012801006669）に合併し解散,2015-10-05,1,,,,,プロネット,0
457,2080101005987,登記記録の閉鎖等,0,2023-06-08,2023-06-06,東海システムサービス株式会社,,株式会社,静岡県,駿東郡清水町,玉川１３４番地の２,,22,341,4110902,,,2023-06-06,清算の結了等,,,2015-10-05,1,,,,,トウカイシステムサービス,0
467,2100005012490,登記記録の閉鎖等,0,2023-06-08,2023-05-30,特定非営利活動法人彩の舎,,その他の設立登記法人,長野県,諏訪郡原村,１７２１７番地１１１０,,20,363,3910100,,,2023-05-30,清算の結了等,,,2019-12-23,1,,,,,イロドリノイエ,0
478,2120001144815,登記記録の閉鎖等,0,2023-06-08,2023-06-02,株式会社ゴシック,,株式会社,福井県,小浜市,谷田部第１９号１０番地の１,,18,204,9170031,,,2023-06-02,清算の結了等,,,2015-10-05,1,,,,,ゴシック,0
492,2120101028851,登記記録の閉鎖等,0,2023-06-08,2023-06-05,株式会社シー・アンド・ティ,,株式会社,大阪府,堺市東区,草尾６８７番地１,,27,143,5998127,,,2023-06-05,清算の結了等,,,2015-10-05,1,,,,,シーアンドティ,0
511,2160001021036,登記記録の閉鎖等,0,2023-06-08,2023-06-02,株式会社Ｂ２,,株式会社,愛知県,名古屋市西区,名駅２丁目３４番１７号セントラル名古屋,,23,104,4510045,,,2023-06-02,清算の結了等,,,2018-07-05,1,,,,,ビーツー,0
525,2180003022187,登記記録の閉鎖等,0,2023-06-08,2023-06-05,アールサポート合同会社,,合同会社,愛知県,瀬戸市,曽野町７５１番地,,23,204,4890008,,,2023-06-05,清算の結了等,,,2021-03-02,1,,,,,アールサポート,0
538,2200001006759,登記記録の閉鎖等,0,2023-06-08,2023-05-30,レイフィールド株式会社,,株式会社,愛知県,名古屋市中村区,名駅５丁目４番１４号花車ビル北館３０３号室,,23,105,4500002,,,2023-05-30,合併による解散等,4010401132651,令和５年５月１日東京都港区愛宕二丁目５番１号愛宕グリーンヒルズＭＯＲＩタワー株式会社ＮＳＳＫ－Ｄ（4010401132651）に合併し解散,2015-10-05,1,,,,,レイフィールド,0
554,2290001003401,登記記録の閉鎖等,0,2023-06-08,2023-06-01,セムアパレルマネージメント株式会社,,株式会社,福岡県,福岡市東区,多の津１丁目１０番８号,,40,131,8130034,,,2023-06-01,合併による解散等,1290001098211,令和５年６月１日福岡市東区多の津一丁目１０番８号ＹＡＴＯＪＩ　ＡＳＳＥＴ　ＭＡＮＡＧＥＭＥＮＴ合同会社（1290001098211）に合併し解散,2015-10-05,1,,,,,セムアパレルマネージメント,0
606,2430001057886,登記記録の閉鎖等,0,2023-06-08,2023-05-16,株式会社ササキメタル,,株式会社,北海道,登別市,片倉町４丁目６番地２,,01,230,0590016,,,2023-05-16,清算の結了等,,,2015-10-05,1,,,,,ササキメタル,0
621,2500002013336,登記記録の閉鎖等,0,2023-06-08,2023-06-01,太陽建設有限会社,,有限会社,愛媛県,西宇和郡伊方町,釜木２２２番地１,,38,442,7960815,,,2023-06-01,清算の結了等,,,2023-04-20,1,,,,,タイヨウケンセツ,0
638,3010401080083,登記記録の閉鎖等,0,2023-06-08,2023-05-22,イノスジャパン株式会社,,株式会社,東京都,港区,白金２丁目１番８－４０６号,,13,103,1080072,,,2023-05-22,清算の結了等,,,2015-10-05,1,,,,,イノスジャパン,0
678,3011101086206,登記記録の閉鎖等,0,2023-06-08,2023-06-06,株式会社Ａｌｔｓｋｙ,,株式会社,東京都,新宿区,西新宿７丁目２０番１２号西新宿カルネイア５０１,,13,104,1600023,,,2023-06-06,清算の結了等,,,2018-12-07,1,,,,,オルトスカイ,0
737,3030001072875,登記記録の閉鎖等,0,2023-06-08,2023-05-16,株式会社ＧＯＳＯＵＴＨ,,株式会社,埼玉県,狭山市,柏原９１番地の２,,11,215,3501335,,,2023-05-16,清算の結了等,,,2015-10-05,1,,,,,ゴーサウス,0
774,3100002025643,登記記録の閉鎖等,0,2023-06-08,2023-06-01,有限会社アラックス,,有限会社,長野県,松本市,大字笹賀３４２１番１,,20,202,3990033,,,2023-06-01,清算の結了等,,,2015-10-05,1,,,,,アラックス,0
781,3120001052075,登記記録の閉鎖等,0,2023-06-08,2023-06-06,株式会社菅原電気商会,,株式会社,大阪府,大阪市東淀川区,下新庄２丁目８番１１号,,27,114,5330021,,,2023-06-06,清算の結了等,,,2015-10-05,1,,,,,スガワラデンキショウカイ,0
782,3120001072429,登記記録の閉鎖等,0,2023-06-08,2023-05-26,株式会社ワールドペニー,,株式会社,大阪府,大阪市中央区,釣鐘町１丁目３番１０号,,27,128,5400035,,,2023-05-26,清算の結了等,,,2015-10-05,1,,,,,ワールドペニー,0
788,3120001219665,登記記録の閉鎖等,0,2023-06-08,2023-06-02,不動産商事株式会社,,株式会社,大阪府,大阪市中央区,（東区）今橋２－１９－５,,27,128,5390000,,,2023-06-02,清算の結了等,,,2019-03-27,1,,,,,フドウサンショウジ,1
804,3120903003522,登記記録の閉鎖等,0,2023-06-08,2023-06-02,合同会社ｓｐｅｅｄ,,合同会社,大阪府,豊中市,上新田２丁目７－１５,,27,203,5600085,,,2023-06-02,清算の結了等,,,2021-02-10,1,,,,,スピード,0
829,3180002090705,登記記録の閉鎖等,0,2023-06-08,2023-06-05,有限会社サトウ,,有限会社,愛知県,愛西市,西保町中田１２番地,,23,232,4960911,,,2023-06-05,清算の結了等,,,2015-10-05,1,,,,,サトウ,0
832,3180005002244,登記記録の閉鎖等,0,2023-06-08,2023-06-02,学校法人立志舎中央,,その他の設立登記法人,愛知県,名古屋市中村区,椿町１４番８号,,23,105,4530015,,,2023-06-02,合併による解散等,3010605000614,令和５年５月３０日東京都墨田区錦糸一丁目２番１号学校法人立志舎（3010605000614）に合併し解散,2015-10-05,1,,,,,リッシシャチュウオウ,0
835,3180303002284,登記記録の閉鎖等,0,2023-06-08,2023-05-29,合同会社不二商会,,合同会社,愛知県,高浜市,青木町３丁目２番地６,,23,227,4441325,,,2023-05-29,清算の結了等,,,2015-10-05,1,,,,,フジショウカイ,0
855,3240002041809,登記記録の閉鎖等,0,2023-06-08,2023-05-26,有限会社中央産業,,有限会社,広島県,福山市,春日町５丁目３番３３号,,34,207,7210907,,,2023-05-26,清算の結了等,,,2015-10-05,1,,,,,チュウオウサンギョウ,0
860,3260002030041,登記記録の閉鎖等,0,2023-06-08,2023-05-31,有限会社ビューティアートタカハシ,,有限会社,岡山県,津山市,山下２８番地の１,,33,203,7080022,,,2023-05-31,清算の結了等,,,2015-10-05,1,,,,,ビューティアートタカハシ,0
897,3370001000587,登記記録の閉鎖等,0,2023-06-08,2023-06-05,キョーユー企業株式会社,,株式会社,宮城県,仙台市泉区,長命ケ丘４丁目９番地の６,,04,105,9813212,,,2023-06-05,清算の結了等,,,2015-10-05,1,,,,,キョーユー,0
919,4000030360013,登記記録の閉鎖等,0,2023-06-08,2023-03-20,勝浦町横瀬財産区,,地方公共団体,徳島県,勝浦郡勝浦町,大字久国字久保田３,,36,301,7714305,,,2023-03-20,その他の清算の結了等,,,2015-10-05,1,Katsuura-cho Yokose property ward,Tokushima,"3,Kubota Hisakuni, Katsuura-cho Katsuura-gun",,カツウラチョウヨコセザイサンク,0
922,4010001180621,登記記録の閉鎖等,0,2023-06-08,2023-06-02,ＪＰＡ第５８号株式会社,,株式会社,東京都,千代田区,霞が関３丁目２番１号,,13,101,1000013,,,2023-06-02,清算の結了等,,,2017-01-11,1,,,,,ジェイピーエーダイゴジュウハチ,0
942,4010403005806,登記記録の閉鎖等,0,2023-06-08,2023-06-02,合同会社ロックウェルアイズプラス,,合同会社,東京都,世田谷区,赤堤１丁目１１番１１号,,13,112,1560044,,,2023-06-02,清算の結了等,,,2015-10-05,1,,,,,ロックウェルアイズプラス,0
953,4010602017817,登記記録の閉鎖等,0,2023-06-08,2023-06-05,有限会社ユーカリ美装,,有限会社,東京都,江東区,大島９丁目４番１－８０４号,,13,108,1360072,,,2023-06-05,清算の結了等,,,2015-10-05,1,,,,,ユーカリビソウ,0
963,4011001119238,登記記録の閉鎖等,0,2023-06-08,2023-06-01,株式会社ビルティ,,株式会社,東京都,渋谷区,西原２丁目１６番２号渡部荘２０５号,,13,113,1510066,,,2023-06-01,清算の結了等,,,2017-11-14,1,,,,,ビルティ,0
978,4011101092962,登記記録の閉鎖等,0,2023-06-08,2023-06-06,株式会社ＥＳ４０,,株式会社,東京都,新宿区,下宮比町１番４号,,13,104,1620822,,,2023-06-06,清算の結了等,,,2020-10-26,1,,,,,イーエスヨンジュウ,0
996,4013301031741,登記記録の閉鎖等,0,2023-06-08,2023-06-01,株式会社エムインターナショナル,,株式会社,東京都,豊島区,高松１丁目２２番１－１８０４号,,13,116,1710042,,,2023-06-01,清算の結了等,,,2015-10-05,1,,,,,エムインターナショナル,0
997,4013301038258,登記記録の閉鎖等,0,2023-06-08,2023-06-02,株式会社楠建設,,株式会社,東京都,豊島区,駒込１丁目３７番４号,,13,116,1700003,,,2023-06-02,清算の結了等,,,2016-01-26,1,,,,,クスノキケンセツ,0
1015,4021001004983,登記記録の閉鎖等,0,2023-06-08,2023-06-02,送電リアルエステート株式会社,,株式会社,神奈川県,藤沢市,西俣野４５３番地の１,,14,205,2520812,,,2023-06-02,合併による解散等,8021001000921,令和５年６月２日神奈川県藤沢市西俣野４５３番地の１湘南送電工事株式会社（8021001000921）に合併し解散,2015-10-05,1,,,,,ソウデンリアルエステート,0
1043,4040003020665,登記記録の閉鎖等,0,2023-06-08,2023-05-23,ティフラップ合同会社,,合同会社,千葉県,船橋市,習志野２丁目８番１７号,,12,204,2740071,,,2023-05-23,清算の結了等,,,2022-08-19,1,,,,,ティフラップ,0
1058,4070002001259,登記記録の閉鎖等,0,2023-06-08,2023-06-07,有限会社オリンピア,,有限会社,群馬県,前橋市,山王町２丁目４４番地の２,,10,201,3792123,,,2023-06-07,清算の結了等,,,2015-10-05,1,,,,,オリンピア,0
1060,4070002029630,登記記録の閉鎖等,0,2023-06-08,2023-06-05,有限会社しら鳥,,有限会社,群馬県,邑楽郡大泉町,西小泉２丁目１３番２２号,,10,524,3700517,,,2023-06-05,清算の結了等,,,2015-10-05,1,,,,,シラトリ,0
1070,4120001147816,登記記録の閉鎖等,0,2023-06-08,2023-06-01,株式会社コーナン薬局,,株式会社,大阪府,寝屋川市,寿町４７番３５号,,27,215,5720029,,,2023-06-01,合併による解散等,4120001179545,令和５年６月１日大阪府枚方市堤町５－９株式会社ＫＫＣ（4120001179545）に合併し解散,2015-10-05,1,,,,,,0
1092,4120105008261,登記記録の閉鎖等,0,2023-06-08,2023-06-02,一般社団法人ウエルサポートレオネス,,その他の設立登記法人,大阪府,堺市南区,庭代台２丁４番５０号,,27,145,5900133,,,2023-06-02,清算の結了等,,,2015-10-05,1,,,,,ウエルサホートレオネス,0
1117,4180001043019,登記記録の閉鎖等,0,2023-06-08,2023-06-02,株式会社アメニティ,,株式会社,愛知県,名古屋市昭和区,向山町２丁目５３番地,,23,107,4660829,,,2023-06-02,合併による解散等,8180001040879,令和５年６月１日名古屋市昭和区向山町二丁目５３番地萬代インテリア株式会社（8180001040879）に合併し解散,2015-10-05,1,,,,,アメニティ,0
1118,4180001055666,登記記録の閉鎖等,0,2023-06-08,2023-06-02,株式会社神谷デザイン事務所,,株式会社,愛知県,名古屋市中区,千代田３丁目２４番２０号,,23,106,4600012,,,2023-06-02,清算の結了等,,,2015-10-05,1,,,,,カミヤデザインジムショ,0
1136,4180301020849,登記記録の閉鎖等,0,2023-06-08,2023-06-02,株式会社テクノメイシン,,株式会社,愛知県,豊田市,栄町７丁目６番地１,,23,211,4710066,,,2023-06-02,清算の結了等,,,2015-10-05,1,,,,,テクノメイシン,0
1137,4180302010295,登記記録の閉鎖等,0,2023-06-08,2023-06-02,有限会社山崎裕弘ワシントン靴店,,有限会社,愛知県,田原市,田原町南新地７６番地１ショッピングタウンパオ内,,23,231,4413421,,,2023-06-02,清算の結了等,,,2015-10-05,1,,,,,ヤマザキヤスヒロワシントンクツテン,0
1147,4190002015742,登記記録の閉鎖等,0,2023-06-08,2023-06-01,有限会社三瀬谷工運,,有限会社,三重県,多気郡大台町,長ケ１０４８番地の３,,24,443,5192401,,,2023-06-01,清算の結了等,,,2015-10-05,1,,,,,ミセダニコウウン,0
1149,4200002001229,登記記録の閉鎖等,0,2023-06-08,2023-06-06,有限会社岐阜北研水質管理センター,,有限会社,愛知県,名古屋市千種区,丸山町２丁目５番地,,23,101,4640843,,,2023-06-06,清算の結了等,,,2015-10-05,1,,,,,ギフホッケンスイシツカンリセンター,0
1167,4250001018905,登記記録の閉鎖等,0,2023-06-08,2023-05-31,株式会社ＬＦＢ賃貸,,株式会社,山口県,山口市,平井７０７番１,,35,203,7530831,,,2023-05-31,合併による解散等,8250001008200,令和５年５月３１日山口県山口市黒川字矢口４００番地１株式会社田村ビルズ（8250001008200）に合併し解散,2021-06-04,1,,,,,エルエフビーチンタイ,0
1171,4260002029529,登記記録の閉鎖等,0,2023-06-08,2023-06-05,有限会社源建設,,有限会社,岡山県,津山市,加茂町公郷６８６番地,,33,203,7093921,,,2023-06-05,清算の結了等,,,2015-10-05,1,,,,,ミナモトケンセツ,0
1226,4470005003344,登記記録の閉鎖等,0,2023-06-08,2023-04-13,特定非営利活動法人ふぁみりぃＮＯＴＥ,,その他の設立登記法人,香川県,丸亀市,綾歌町富熊５０４７番地７,,37,202,7612407,,,2023-04-13,合併による解散等,7470005002343,令和５年４月１３日香川県高松市田村町４７１番地２特定非営利活動法人すぷーん（7470005002343）に合併し解散,2015-10-05,1,,,,,ファミリィノート,0
1231,4490002004459,登記記録の閉鎖等,0,2023-06-08,2023-06-06,有限会社福永商店,,有限会社,高知県,高知市,一宮しなね１丁目３番２９号,,39,201,7818131,,,2023-06-06,清算の結了等,,,2015-10-05,1,,,,,フクナガショウテン,0
1237,5000030360012,登記記録の閉鎖等,0,2023-06-08,2023-03-20,勝浦町生比奈財産区,,地方公共団体,徳島県,勝浦郡勝浦町,大字久国字久保田３,,36,301,7714305,,,2023-03-20,その他の清算の結了等,,,2015-10-05,1,Katsuura-cho Ikuhina property ward,Tokushima,"3,Kubota Hisakuni, Katsuura-cho Katsuura-gun",,カツウラチョウイクヒナザイサンク,0
1239,5010001178929,登記記録の閉鎖等,0,2023-06-08,2023-06-02,ＪＰＡ第４６号株式会社,,株式会社,東京都,千代田区,霞が関３丁目２番１号,,13,101,1000013,,,2023-06-02,清算の結了等,,,2016-10-14,1,,,,,ジェイピーエーダイヨンジュウロク,0
1247,5010401059035,登記記録の閉鎖等,0,2023-06-08,2023-06-07,アジリティ株式会社,,株式会社,東京都,目黒区,下目黒５丁目６－１６,,13,110,1530064,,,2023-06-07,清算の結了等,,,2015-10-05,1,,,,,アジリティ,0
1280,5010902004010,登記記録の閉鎖等,0,2023-06-08,2023-06-05,有限会社梶山硝子店,,有限会社,東京都,世田谷区,宮坂３丁目１１番３号,,13,112,1560051,,,2023-06-05,清算の結了等,,,2015-10-05,1,,,,,カジヤマガラステン,0
1281,5011001045086,登記記録の閉鎖等,0,2023-06-08,2023-06-05,株式会社ＡＬＢＥＲＴ,,株式会社,東京都,新宿区,北新宿２丁目２１番１号新宿フロントタワー１５階,,13,104,1690074,,,2023-06-05,合併による解散等,7010401001556,令和５年６月１日東京都港区赤坂一丁目８番１号アクセンチュア株式会社（7010401001556）に合併し解散,2015-10-05,1,,,,,アルベルト,0
1360,5060001005236,登記記録の閉鎖等,0,2023-06-08,2023-06-01,株式会社カレンテックス,,株式会社,栃木県,宇都宮市,平出町３７５１番地１１,,09,201,3210901,,,2023-06-01,合併による解散等,4060001002358,令和５年６月１日栃木県宇都宮市平出町３７５１番地１１鈴木印刷株式会社（4060001002358）に合併し解散,2015-10-05,1,,,,,カレンテックス,0
1398,5120901036316,登記記録の閉鎖等,0,2023-06-08,2023-06-01,アイビックスタイル株式会社,,株式会社,大阪府,豊中市,長興寺南３丁目１６番１４号,,27,203,5610874,,,2023-06-01,清算の結了等,,,2016-01-04,1,,,,,アイビックスタイル,0
1420,5140002028252,登記記録の閉鎖等,0,2023-06-08,2023-06-01,有限会社朝霧獣医科総合病院,,有限会社,兵庫県,明石市,朝霧台１１３８番地の７,,28,203,6730852,,,2023-06-01,清算の結了等,,,2015-10-05,1,,,,,アサギリジュウイカソウゴウビョウイン,0
1428,5180001097393,登記記録の閉鎖等,0,2023-06-08,2023-05-31,南海建設株式会社,,株式会社,愛知県,愛西市,町方町南堤外２１番地２０,,23,232,4968014,,,2023-05-31,清算の結了等,,,2015-10-05,1,,,,,ナンカイケンセツ,0
1440,5180002081933,登記記録の閉鎖等,0,2023-06-08,2023-06-02,有限会社塩見産業,,有限会社,愛知県,江南市,和田町旭１９３番地,,23,217,4838022,,,2023-06-02,清算の結了等,,,2015-10-05,1,,,,,シオミサンギョウ,0
1443,5180002093020,登記記録の閉鎖等,0,2023-06-08,2023-06-01,株式会社ワンプロス,,株式会社,愛知県,津島市,西愛宕町２丁目１６７番地１,,23,208,4960037,,,2023-06-01,合併による解散等,6180001067560,令和５年６月１日愛知県日進市浅田町茶園３５番地１１株式会社名勝産業（6180001067560）に合併し解散,2015-10-05,1,,,,,ワンプロス,0
1451,5220001022512,登記記録の閉鎖等,0,2023-06-08,2023-06-02,株式会社スペースバリューホールディングス,,株式会社,東京都,港区,芝３丁目４番１２号,,13,103,1050014,,,2023-06-02,合併による解散等,6020001001477,令和５年５月３０日横浜市神奈川区栄町５番地１株式会社ＮＢ建設（6020001001477）に合併し解散,2018-10-12,1,,,,,スペースバリューホールディングス,0
1458,5240001017031,登記記録の閉鎖等,0,2023-06-08,2023-06-05,株式会社広島住宅メンテナンス,,株式会社,広島県,広島市佐伯区,五日市町大字石内４８１０番地,,34,108,7315102,,,2023-06-05,清算の結了等,,,2015-10-05,1,,,,,ヒロシマジュウタクメンテナンス,0
1466,5280001008357,登記記録の閉鎖等,0,2023-06-08,2023-06-01,Ｇ－ＮＥＸＵＳ株式会社,,株式会社,島根県,出雲市,神西沖町１０６３番地,,32,203,6990822,,,2023-06-01,清算の結了等,,,2021-02-18,1,,,,,ジーネクサス,0
1497,5380001015962,登記記録の閉鎖等,0,2023-06-08,2023-06-02,稲垣スレート株式会社,,株式会社,福島県,南相馬市,小高区南町２丁目４６番地,,07,212,9792122,,,2023-06-02,清算の結了等,,,2015-10-05,1,,,,,イナガキスレート,0
1517,5440002008703,登記記録の閉鎖等,0,2023-06-08,2023-06-06,有限会社岡崎商事,,有限会社,北海道,山越郡長万部町,字平里１２番地の１,,01,347,0493513,,,2023-06-06,清算の結了等,,,2015-10-05,1,,,,,オカザキショウジ,0
1518,5450002005121,登記記録の閉鎖等,0,2023-06-08,2023-06-05,有限会社ますい自動車,,有限会社,北海道,旭川市,緑町１５丁目３０２９番地の５１,,01,204,0700823,,,2023-06-05,清算の結了等,,,2015-10-05,1,,,,,マスイジドウシャ,0
1522,5470002014847,登記記録の閉鎖等,0,2023-06-08,2023-06-02,有限会社コトブキ自動車,,有限会社,香川県,坂出市,高屋町５０４番地の２,,37,203,7620017,,,2023-06-02,清算の結了等,,,2015-10-05,1,,,,,,0
1528,5480002004310,登記記録の閉鎖等,0,2023-06-08,2023-06-06,有限会社藤金組,,有限会社,徳島県,徳島市,二軒屋町１丁目２２番地,,36,201,7700928,,,2023-06-06,清算の結了等,,,2015-10-05,1,,,,,フジカネグミ,0
1541,6010001036805,登記記録の閉鎖等,0,2023-06-08,2023-06-01,株式会社一雅堂,,株式会社,東京都,中央区,日本橋浜町１丁目７番６号,,13,102,1030007,,,2023-06-01,清算の結了等,,,2015-10-05,1,,,,,イチガドウ,0
1555,6010005029879,登記記録の閉鎖等,0,2023-06-08,2023-06-05,小春特定目的会社,,その他の設立登記法人,東京都,中央区,日本橋１丁目４番１号,,13,102,1030027,,,2023-06-05,清算の結了等,,,2019-03-15,1,,,,,コハル,0
1566,6010501031223,登記記録の閉鎖等,0,2023-06-08,2023-06-02,株式会社セブンドリーム,,株式会社,東京都,渋谷区,渋谷３丁目１－１５,,13,113,1500002,,,2023-06-02,清算の結了等,,,2015-10-05,1,,,,,セブンドリーム,0
1579,6010801010505,登記記録の閉鎖等,0,2023-06-08,2023-05-01,株式会社双葉造園,,株式会社,東京都,大田区,西蒲田１丁目８番１１号,,13,111,1440051,,,2023-05-01,合併による解散等,2010801023881,令和５年５月１日東京都大田区西蒲田一丁目８番１１号株式会社池上植木（2010801023881）に合併し解散,2015-10-05,1,,,,,フタバゾウエン,0
1597,6011301018575,登記記録の閉鎖等,0,2023-06-08,2023-06-02,ラッキーカンパニー株式会社,,株式会社,東京都,杉並区,和田１丁目３１番３号,,13,115,1660012,,,2023-06-02,清算の結了等,,,2015-10-05,1,,,,,,0
1606,6011702004331,登記記録の閉鎖等,0,2023-06-08,2023-06-05,有限会社寿左官工業,,有限会社,東京都,江戸川区,篠崎町３丁目２８番２号,,13,123,1330061,,,2023-06-05,清算の結了等,,,2015-10-05,1,,,,,コトブキサカンコウギョウ,0
1610,6011803004750,登記記録の閉鎖等,0,2023-06-08,2023-06-06,竜世合同会社,,合同会社,東京都,葛飾区,亀有３丁目３１－８武田ビル２階,,13,122,1250061,,,2023-06-06,清算の結了等,,,2021-09-03,1,,,,,リュウセイ,0
1612,6012401036483,登記記録の閉鎖等,0,2023-06-08,2023-06-05,株式会社ムサコ,,株式会社,東京都,日野市,日野本町１丁目５番１４号,,13,212,1910011,,,2023-06-05,清算の結了等,,,2020-04-21,1,,,,,ムサコ,0
1636,6020002044764,登記記録の閉鎖等,0,2023-06-08,2023-06-01,富洋立検有限会社,,有限会社,神奈川県,横浜市中区,太田町４丁目４５番地,,14,104,2310011,,,2023-06-01,清算の結了等,,,2015-10-05,1,,,,,フヨウリッケン,0
1647,6021002022529,登記記録の閉鎖等,0,2023-06-08,2023-06-05,有限会社手島電子サービス,,有限会社,神奈川県,相模原市南区,相模台３丁目１０番２７号,,14,153,2520321,,,2023-06-05,清算の結了等,,,2015-10-05,1,,,,,,0
1648,6021002046817,登記記録の閉鎖等,0,2023-06-08,2023-06-01,有限会社日野商事,,有限会社,神奈川県,綾瀬市,上土棚中１丁目５番５８号,,14,218,2521113,,,2023-06-01,清算の結了等,,,2015-10-05,1,,,,,ヒノショウジ,0
1651,6030001118411,登記記録の閉鎖等,0,2023-06-08,2023-05-26,株式会社ミューシン,,株式会社,埼玉県,さいたま市緑区,東浦和２丁目３番地１ニチエイ東浦和マンション１０２,,11,109,3360926,,,2023-05-26,清算の結了等,,,2017-02-01,1,,,,,ミューシン,0
1670,6040002021407,登記記録の閉鎖等,0,2023-06-08,2023-05-22,有限会社金親商店,,有限会社,千葉県,船橋市,本町２丁目２６番２３号,,12,204,2730005,,,2023-05-22,清算の結了等,,,2015-10-05,1,,,,,カネオヤショウテン,0
1681,6050002020820,登記記録の閉鎖等,0,2023-06-08,2023-06-01,有限会社石島電気,,有限会社,茨城県,つくば市,上横場２００６番地の６,,08,220,3050854,,,2023-06-01,清算の結了等,,,2015-10-05,1,,,,,イシジマデンキ,0
1687,6070001002933,登記記録の閉鎖等,0,2023-06-08,2023-06-05,武尊山観光開発株式会社,,株式会社,群馬県,前橋市,荒牧町２丁目３８番地９,,10,201,3710044,,,2023-06-05,清算の結了等,,,2015-10-05,1,,,,,,0
1725,6120101029937,登記記録の閉鎖等,0,2023-06-08,2023-06-02,株式会社ｆａｓｔ　ｃｏｌｏｒｓ,,株式会社,福井県,小浜市,谷田部第１９号１０番地の１,,18,204,9170031,,,2023-06-02,清算の結了等,,,2015-10-05,1,,,,,ファストカラーズ,0
1731,6122001001430,登記記録の閉鎖等,0,2023-06-08,2023-06-05,近江産業株式会社,,株式会社,大阪府,東大阪市,南鴻池町１丁目１番１１号,,27,227,5780961,,,2023-06-05,清算の結了等,,,2015-10-05,1,,,,,オウミサンギョウ,0
1732,6122001030256,登記記録の閉鎖等,0,2023-06-08,2023-06-01,株式会社Ｗｉｎ,,株式会社,大阪府,東大阪市,善根寺町５丁目５番４４号,,27,227,5798001,,,2023-06-01,清算の結了等,,,2017-01-13,1,,,,,ウイン,0
1733,6122001030561,登記記録の閉鎖等,0,2023-06-08,2023-06-05,株式会社三信商会,,株式会社,大阪府,八尾市,東山本新町３丁目７番２２号,,27,212,5810866,,,2023-06-05,清算の結了等,,,2017-05-02,1,,,,,サンシンショウカイ,0
1775,6180005005236,登記記録の閉鎖等,0,2023-06-08,2023-06-01,社会福祉法人なごや平和福祉会,,その他の設立登記法人,愛知県,名古屋市中区,平和２丁目２番３６号,,23,106,4600021,,,2023-06-01,合併による解散等,2180005002880,令和５年６月１日名古屋市北区上飯田南町五丁目５３番社会福祉法人名北福祉会（2180005002880）に合併し解散,2015-10-05,1,,,,,ナゴヤヘイワフクシカイ,0
1783,6200001025697,登記記録の閉鎖等,0,2023-06-08,2023-06-05,株式会社村川商店,,株式会社,岐阜県,高山市,下切町３９７番地,,21,203,5060041,,,2023-06-05,合併による解散等,1180001045546,令和５年６月１日愛知県清須市西須ケ口９３番地株式会社宮崎（1180001045546）に合併し解散,2015-10-05,1,,,,,ムラカワショウテン,0
1785,6200002003850,登記記録の閉鎖等,0,2023-06-08,2023-06-02,有限会社ピユア・リゾート,,有限会社,岐阜県,岐阜市,石切町２０番地,,21,201,5008437,,,2023-06-02,清算の結了等,,,2015-10-05,1,,,,,ピユアリゾート,0
1787,6200005007072,登記記録の閉鎖等,0,2023-06-08,2023-06-01,社会福祉法人森山学園会,,その他の設立登記法人,岐阜県,美濃加茂市,森山町１丁目６番３３号,,21,211,5050021,,,2023-06-01,合併による解散等,6200005007188,令和５年６月１日岐阜県可児市中恵土２２３５－１社会福祉法人村の木清福会（6200005007188）に合併し解散,2015-10-05,1,,,,,モリヤマガクエンカイ,0
1788,6200005007080,登記記録の閉鎖等,0,2023-06-08,2023-06-01,社会福祉法人サンシャイン福祉振興会,,その他の設立登記法人,岐阜県,加茂郡白川町,坂ノ東５５００番地１,,21,506,5091106,,,2023-06-01,合併による解散等,9200005007078,令和５年６月１日岐阜県加茂郡白川町三川２０６５番地の２社会福祉法人白川町社会福祉協議会（9200005007078）に合併し解散,2015-10-05,1,,,,,サンシャインフクシシンコウカイ,0
1809,6290002015648,登記記録の閉鎖等,0,2023-06-08,2023-06-02,システムクリエート有限会社,,有限会社,福岡県,福岡市中央区,大名２丁目８番１８号,,40,133,8100041,,,2023-06-02,合併による解散等,9290001079501,令和５年６月１日福岡市中央区大名二丁目８番１８号株式会社書肆侃侃房（9290001079501）に合併し解散,2015-10-05,1,,,,,,0
1813,6300002000185,登記記録の閉鎖等,0,2023-06-08,2023-05-31,有限会社エムワイコンチェルン,,有限会社,佐賀県,佐賀市,木原１丁目９番３号,,41,201,8400015,,,2023-05-31,清算の結了等,,,2015-10-05,1,,,,,エムワイコンチェルン,0
1829,6370001004858,登記記録の閉鎖等,0,2023-06-08,2023-06-05,かとう工業株式会社,,株式会社,宮城県,仙台市宮城野区,福室３丁目３５番１４号,,04,102,9830005,,,2023-06-05,清算の結了等,,,2015-10-05,1,,,,,カトウコウギョウ,0
1834,6380002033203,登記記録の閉鎖等,0,2023-06-08,2023-06-02,有限会社丸善工芸,,有限会社,福島県,会津若松市,門田町大字黒岩字石高６番地の７,,07,202,9650825,,,2023-06-02,清算の結了等,,,2015-10-05,1,,,,,マルゼンコウゲイ,0
1838,6410002007871,登記記録の閉鎖等,0,2023-06-08,2023-05-31,有限会社秋田仏壇販売,,有限会社,秋田県,湯沢市,川連町字万九郎屋布７５番地の５,,05,207,0120105,,,2023-05-31,清算の結了等,,,2015-10-05,1,,,,,アキタブツダンハンバイ,0
1849,6460001003207,登記記録の閉鎖等,0,2023-06-08,2023-06-06,高梨農機株式会社,,株式会社,北海道,川上郡弟子屈町,中央３丁目５番１４号,,01,665,0883211,,,2023-06-06,清算の結了等,,,2015-10-05,1,,,,,タカナシノウキ,0
1850,6460302001611,登記記録の閉鎖等,0,2023-06-08,2023-06-07,有限会社ユアサ商事,,有限会社,北海道,北見市,幸町３丁目１番９号,,01,208,0900036,,,2023-06-07,清算の結了等,,,2015-10-05,1,,,,,ユアサショウジ,0
1865,7010001163565,登記記録の閉鎖等,0,2023-06-08,2023-06-02,ＪＰＡ第２１号株式会社,,株式会社,東京都,千代田区,霞が関３丁目２番１号,,13,101,1000013,,,2023-06-02,清算の結了等,,,2015-10-05,1,,,,,ジェイピーエーダイニジュウイチ,0
1866,7010001170017,登記記録の閉鎖等,0,2023-06-08,2023-06-02,ＪＰＡ第２８号株式会社,,株式会社,東京都,千代田区,霞が関３丁目２番１号,,13,101,1000013,,,2023-06-02,清算の結了等,,,2015-10-05,1,,,,,ジェイピーエーダイニジュウハチ,0
1875,7010003023916,登記記録の閉鎖等,0,2023-06-08,2023-06-01,Ｆプランニング合同会社,,合同会社,東京都,北区,豊島２丁目１９番９－１０２号コープまきやＩＩ,00128378,13,117,1140003,,,2023-06-01,清算の結了等,,,2016-08-02,1,,,,,エフプランニング,0
1884,7010401107221,登記記録の閉鎖等,0,2023-06-08,2023-05-25,株式会社アーキエイトリング,,株式会社,東京都,港区,芝３丁目２１番１５号芝公園シティビル,,13,103,1050014,,,2023-05-25,清算の結了等,,,2015-10-05,1,,,,,アーキエイトリング,0
1895,7010501033846,登記記録の閉鎖等,0,2023-06-08,2023-06-05,マワタ株式会社,,株式会社,東京都,台東区,池之端４丁目２番４号,,13,106,1100008,,,2023-06-05,清算の結了等,,,2015-10-05,1,,,,,マワタ,0
1901,7010603005693,登記記録の閉鎖等,0,2023-06-08,2023-06-05,Ｃｏｂａｘ合同会社,,合同会社,東京都,墨田区,東駒形１丁目１５番１１号,,13,107,1300005,,,2023-06-05,清算の結了等,,,2015-10-05,1,,,,,コバックス,0
1917,7011101076186,登記記録の閉鎖等,0,2023-06-08,2023-06-01,オリエンタルビューティー株式会社,,株式会社,東京都,中央区,銀座５丁目１０番１０号４Ｆ,,13,102,1040061,,,2023-06-01,合併による解散等,4021001047256,令和５年６月１日東京都中央区銀座五丁目１０番１０号４Ｆ株式会社ネクストイノベーション（4021001047256）に合併し解散,2016-03-02,1,,,,,オリエンタルビューティー,0
1941,7011701023901,登記記録の閉鎖等,0,2023-06-08,2023-06-05,ＩＮＴＲＯＷＥＬＬ　ＬＩＭＩＴＥＤ星緯株式会社,,株式会社,東京都,江戸川区,北小岩４丁目３３番１９－２０４号サンリット北小岩,,13,123,1330051,,,2023-06-05,清算の結了等,,,2020-11-12,1,,,,,ホシイ,0
1956,7020001083275,登記記録の閉鎖等,0,2023-06-08,2023-06-02,株式会社春夏冬フードサービス,,株式会社,神奈川県,横浜市港南区,上大岡西１丁目６番１号,,14,111,2330002,,,2023-06-02,合併による解散等,7020001003794,令和５年５月２１日横浜市港南区上大岡西一丁目６番１号株式会社クラシード（7020001003794）に合併し解散,2015-10-05,1,,,,,アキナイフードサービス,0
1960,7021002015911,登記記録の閉鎖等,0,2023-06-08,2023-06-06,有限会社ワイ・エム・ケイ,,有限会社,神奈川県,鎌倉市,大船１丁目９番５号,,14,204,2470056,,,2023-06-06,清算の結了等,,,2015-10-05,1,,,,,ワイエムケイ,0
1964,7030001059217,登記記録の閉鎖等,0,2023-06-08,2023-05-24,株式会社クリーニングハウスミヤザワ,,株式会社,埼玉県,ふじみ野市,上福岡２丁目６番１３号,,11,245,3560004,,,2023-05-24,清算の結了等,,,2015-10-05,1,,,,,クリーニングハウスミヤザワ,0
1981,7040002045826,登記記録の閉鎖等,0,2023-06-08,2023-05-23,有限会社Ｔ．Ｋ．テック．トラスト,,有限会社,千葉県,松戸市,古ケ崎４丁目３４６１番地の７,,12,207,2710068,,,2023-05-23,清算の結了等,,,2015-10-05,1,,,,,,0
1996,7070002021626,登記記録の閉鎖等,0,2023-06-08,2023-06-02,有限会社プロトエンジニアリング,,有限会社,群馬県,伊勢崎市,戸谷塚町１０４９番地４,,10,204,3720825,,,2023-06-02,清算の結了等,,,2015-10-05,1,,,,,プロトエンジニアリング,0
2005,7100002016829,登記記録の閉鎖等,0,2023-06-08,2023-06-01,有限会社塚田製作所,,有限会社,長野県,埴科郡坂城町,大字上五明１８２２番地,,20,521,3890606,,,2023-06-01,清算の結了等,,,2015-10-05,1,,,,,ツカダセイサクショ,0
2010,7120001000096,登記記録の閉鎖等,0,2023-06-08,2023-06-01,池田商事株式会社,,株式会社,大阪府,大阪市旭区,高殿４丁目１６番１号,,27,117,5350031,,,2023-06-01,合併による解散等,6120001000097,令和５年６月１日大阪市旭区高殿四丁目１６番１号池田紙業株式会社（6120001000097）に合併し解散,2015-10-05,1,,,,,イケダショウジ,0
2011,7120001104491,登記記録の閉鎖等,0,2023-06-08,2023-06-05,ワークシード株式会社,,株式会社,大阪府,大阪市西区,新町２丁目３番８－５０５号,,27,106,5500013,,,2023-06-05,清算の結了等,,,2015-10-05,1,,,,,,0
2013,7120001168925,登記記録の閉鎖等,0,2023-06-08,2023-06-05,Ｂ．Ｓ渡辺株式会社,,株式会社,大阪府,大阪市鶴見区,横堤５丁目７番３２号,,27,124,5380052,,,2023-06-05,清算の結了等,,,2015-10-05,1,,,,,ビーエスワタナベ,0
2015,7120001228423,登記記録の閉鎖等,0,2023-06-08,2023-06-06,株式会社ＮＯＺ,,株式会社,大阪府,大阪市旭区,生江３丁目１２番３号,,27,117,5350004,,,2023-06-06,清算の結了等,,,2020-04-08,1,,,,,ノーズ,0
2022,7120002068463,登記記録の閉鎖等,0,2023-06-08,2023-06-06,有限会社辻商事,00031302,有限会社,大阪府,大阪市平野区,喜連４丁目２番２５号,,27,126,5470027,,,2023-06-06,清算の結了等,,,2015-10-05,1,,,,,ツジショウジ,0
2052,7180001151842,登記記録の閉鎖等,0,2023-06-08,2023-06-05,デザインマーケティング株式会社,,株式会社,愛知県,名古屋市瑞穂区,竹田町２丁目１４番地ライオンズマンション桜山西４０３,,23,108,4670873,,,2023-06-05,清算の結了等,,,2022-06-21,1,,,,,デザインマーケティング,0
2073,7200002024656,登記記録の閉鎖等,0,2023-06-08,2023-06-06,有限会社足立住建,,有限会社,岐阜県,恵那市,三郷町佐々良木１２１０番地,,21,210,5097124,,,2023-06-06,清算の結了等,,,2015-10-05,1,,,,,,0
2079,7230003001305,登記記録の閉鎖等,0,2023-06-08,2023-06-06,合同会社ＦｕｌｌＢｌｏｏｍ,,合同会社,富山県,富山市,布瀬町２丁目１１番３号,,16,201,9398206,,,2023-06-06,清算の結了等,,,2019-04-10,1,,,,,フルブルーム,0
2080,7240001030503,登記記録の閉鎖等,0,2023-06-08,2023-06-06,株式会社弘亜,,株式会社,広島県,福山市,沖野上町１丁目４番２４号,,34,207,7200825,,,2023-06-06,清算の結了等,,,2015-10-05,1,,,,,ヒロア,0
2089,7250002019016,登記記録の閉鎖等,0,2023-06-08,2023-06-02,有限会社吉田建設,,有限会社,山口県,岩国市,由宇町１４０７１番地の１,,35,208,7401488,,,2023-06-02,清算の結了等,,,2015-10-05,1,,,,,ヨシダケンセツ,0
2112,7330005002365,登記記録の閉鎖等,0,2023-06-08,2023-06-01,特定非営利活動法人かがやき,,その他の設立登記法人,熊本県,熊本市中央区,水前寺公園２３番１７号,,43,101,8620956,,,2023-06-01,清算の結了等,,,2015-10-05,1,,,,,カガヤキ,0
2114,7340002019808,登記記録の閉鎖等,0,2023-06-08,2023-06-07,有限会社神山観光,,有限会社,鹿児島県,熊毛郡屋久島町,安房７８８番地１８,,46,505,8914311,,,2023-06-07,清算の結了等,,,2015-10-05,1,,,,,カミヤマカンコウ,0
2130,7400001007055,登記記録の閉鎖等,0,2023-06-08,2023-06-01,株式会社尾半商店,,株式会社,岩手県,下閉伊郡山田町,中央町５番６号,,03,482,0281332,,,2023-06-01,合併による解散等,7400002011023,令和５年５月３１日岩手県下閉伊郡山田町中央町５番６号尾半商事株式会社（7400002011023）に合併し解散,2015-10-05,1,,,,,ビハンショウテン,0
2157,7500002021813,登記記録の閉鎖等,0,2023-06-08,2023-06-06,有限会社浜田組,,有限会社,愛媛県,四国中央市,金生町下分５３９番地,,38,213,7990111,,,2023-06-06,清算の結了等,,,2015-10-05,1,,,,,ハマダグミ,0
2165,8010001163250,登記記録の閉鎖等,0,2023-06-08,2023-06-02,ＪＰＡ第２０号株式会社,,株式会社,東京都,千代田区,霞が関３丁目２番１号,,13,101,1000013,,,2023-06-02,清算の結了等,,,2015-10-05,1,,,,,ジェイピーエーダイニジュウゴウ,0
2166,8010001163564,登記記録の閉鎖等,0,2023-06-08,2023-06-02,ＪＰＡ第２２号株式会社,,株式会社,東京都,千代田区,霞が関３丁目２番１号,,13,101,1000013,,,2023-06-02,清算の結了等,,,2015-10-05,1,,,,,ジェイピーエーダイニジュウニ,0
2167,8010001170016,登記記録の閉鎖等,0,2023-06-08,2023-06-02,ＪＰＡ第２７号株式会社,,株式会社,東京都,千代田区,霞が関３丁目２番１号,,13,101,1000013,,,2023-06-02,清算の結了等,,,2015-10-05,1,,,,,ジェイピーエーダイニジュウナナ,0
2199,8010701003549,登記記録の閉鎖等,0,2023-06-08,2023-06-05,コロナ商事株式会社,,株式会社,東京都,品川区,北品川４丁目１０番９号,,13,109,1400001,,,2023-06-05,清算の結了等,,,2015-10-05,1,,,,,コロナショウジ,0
2201,8010703001773,登記記録の閉鎖等,0,2023-06-08,2023-06-05,法雅コンサルティング合同会社,,合同会社,東京都,品川区,大井１丁目２１番１２－１２０１号,,13,109,1400014,,,2023-06-05,清算の結了等,,,2015-10-05,1,,,,,ホウガコンサルティング,0
2242,8011401018416,登記記録の閉鎖等,0,2023-06-08,2023-06-06,株式会社ラ・フォンタナロッサ,,株式会社,東京都,板橋区,大谷口北町５８番４号,,13,119,1730031,,,2023-06-06,清算の結了等,,,2015-10-05,1,,,,,ラフォンタナロッサ,0
2250,8011702012340,登記記録の閉鎖等,0,2023-06-08,2023-06-06,有限会社ヨシナカ,,有限会社,東京都,江戸川区,松島３丁目１５番２号,,13,123,1320031,,,2023-06-06,清算の結了等,,,2015-10-05,1,,,,,ヨシナカ,0
2257,8011802008008,登記記録の閉鎖等,0,2023-06-08,2023-05-25,株式会社ワンルーム引越センター,,株式会社,埼玉県,さいたま市浦和区,岸町４丁目１８番８号,,11,107,3300064,,,2023-05-25,清算の結了等,,,2015-10-05,1,,,,,ワンルームヒッコシセンター,0
2264,8012802000581,登記記録の閉鎖等,0,2023-06-08,2023-06-05,有限会社風間プロダクシヨン,,有限会社,東京都,立川市,柏町４丁目７０番地の１６,,13,202,1900004,,,2023-06-05,清算の結了等,,,2015-10-05,1,,,,,カザマプロダクション,0
2276,8020001134341,登記記録の閉鎖等,0,2023-06-08,2023-06-02,ネレスジャパン株式会社,,株式会社,東京都,品川区,東品川２丁目５番８号,,13,109,1400002,,,2023-06-02,合併による解散等,9010401071498,令和５年６月１日東京都品川区東品川二丁目５番８号バルメット株式会社（9010401071498）に合併し解散,2020-01-09,1,,,,,ネレスジャパン,0
2296,8021002003452,登記記録の閉鎖等,0,2023-06-08,2023-06-05,有限会社デスクサイド・コイズミ,,有限会社,神奈川県,藤沢市,弥勒寺３丁目１番５号,,14,205,2510016,,,2023-06-05,清算の結了等,,,2015-10-05,1,,,,,デスクサイドコイズミ,0
2297,8030001075618,登記記録の閉鎖等,0,2023-06-08,2023-06-05,セイコープラント株式会社,,株式会社,埼玉県,川口市,柳崎１丁目１５番３３号,,11,203,3330861,,,2023-06-05,合併による解散等,8010001048369,令和５年５月２５日東京都中央区日本橋室町一丁目１１番２号精工産業株式会社（8010001048369）に合併し解散,2015-10-05,1,,,,,セイコープラント,0
2321,8040003007700,登記記録の閉鎖等,0,2023-06-08,2023-05-24,合同会社スィッカグローバル,,合同会社,千葉県,柏市,篠籠田１３９８番地１０１,,12,217,2770862,,,2023-05-24,清算の結了等,,,2015-10-05,1,,,,,スィッカグローバル,0
2367,8120003020983,登記記録の閉鎖等,0,2023-06-08,2023-06-06,Ｅ‐ａｇｅｎｔ合同会社,,合同会社,大阪府,東大阪市,菱屋東２丁目１番２４号,,27,227,5780948,,,2023-06-06,合併による解散等,6122001036435,令和５年６月１日大阪市北区曽根崎新地一丁目１３番２２号御堂筋フロントタワー９階株式会社ＴＳＡＣＥ（6122001036435）に合併し解散,2022-01-20,1,,,,,イーエージェント,0
2379,8120102004251,登記記録の閉鎖等,0,2023-06-08,2023-06-05,有限会社平成インシュアランス・シキュアラティ,,有限会社,大阪府,堺市堺区,緑ヶ丘北町４丁３番２２号,,27,141,5900806,,,2023-06-05,清算の結了等,,,2015-10-05,1,,,,,インシュアランスシキュアラティ,0
2387,8150002003598,登記記録の閉鎖等,0,2023-06-08,2023-06-05,有限会社プログレス,,有限会社,奈良県,奈良市,高畑町６５８番地の３,,29,201,6308301,,,2023-06-05,清算の結了等,,,2015-10-05,1,,,,,プログレス,0
2405,8180001150125,登記記録の閉鎖等,0,2023-06-08,2023-06-05,株式会社ＣｈａＲｍ,,株式会社,愛知県,名古屋市昭和区,阿由知通４丁目７番地グローバル御器所５Ｃ,,23,107,4660027,,,2023-06-05,清算の結了等,,,2022-02-28,1,,,,,チャーム,0
2418,8200001030019,登記記録の閉鎖等,0,2023-06-08,2023-06-02,株式会社ＳＭＣ,,株式会社,愛知県,名古屋市中村区,名駅４丁目５番２７号大一名駅ビル５階,,23,105,4500002,,,2023-06-02,清算の結了等,,,2015-10-05,1,,,,,エスエムシー,0
2421,8200003001827,登記記録の閉鎖等,0,2023-06-08,2023-06-06,西脇毛織合名会社,,合名会社,岐阜県,安八郡輪之内町,楡俣新田４８１番地,,21,382,5030203,,,2023-06-06,清算の結了等,,,2015-10-05,1,,,,,ニシワキケオリ,0
2424,8230001001644,登記記録の閉鎖等,0,2023-06-08,2023-06-06,立山地質調査株式会社,,株式会社,富山県,富山市,住吉町１丁目７番２１号,,16,201,9300031,,,2023-06-06,清算の結了等,,,2015-10-05,1,,,,,タテヤマチシツチョウサ,0
2443,8290001051106,登記記録の閉鎖等,0,2023-06-08,2023-06-01,ＫＵＲＵＭＥＨＯＴＥＬ株式会社,,株式会社,福岡県,久留米市,東町３３９番地,,40,203,8300032,,,2023-06-01,合併による解散等,8290001062490,令和５年６月１日福岡県久留米市東町３３９番地株式会社ＰＵＲＯ（8290001062490）に合併し解散,2015-10-05,1,,,,,クルメホテル,0
2462,8320001019297,登記記録の閉鎖等,0,2023-06-08,2023-05-31,太田建設株式会社,,株式会社,大分県,大分市,城崎町２丁目６番２８号,,44,201,8700045,,,2023-05-31,清算の結了等,,,2022-09-09,1,,,,,,0
2463,8330001014487,登記記録の閉鎖等,0,2023-06-08,2023-06-01,株式会社火の国観光バス,,株式会社,熊本県,八代市,敷川内町９５５番地１,,43,202,8695151,,,2023-06-01,合併による解散等,3330001003222,令和５年６月１日熊本市東区新生二丁目２３番１８号株式会社ドゥ．ヨネザワ（3330001003222）に合併し解散,2015-10-05,1,,,,,ヒノクニカンコウバス,0
2519,9010002017875,登記記録の閉鎖等,0,2023-06-08,2023-06-02,ＪＰＣ第１号株式会社,,株式会社,東京都,千代田区,霞が関３丁目２番１号,,13,101,1000013,,,2023-06-02,清算の結了等,,,2015-10-05,1,,,,,ジェイピーシーダイイチゴウ,0
2525,9010101002332,登記記録の閉鎖等,0,2023-06-08,2023-06-01,株式会社インターシステム,,株式会社,東京都,八王子市,中野山王１丁目１９番１５号,,13,201,1920042,,,2023-06-01,合併による解散等,9010101002596,令和５年６月１日東京都八王子市中野山王一丁目１９番１５号東京ソックス株式会社（9010101002596）に合併し解散,2015-10-05,1,,,,,インターシステム,0
2548,9010901034649,登記記録の閉鎖等,0,2023-06-08,2023-06-05,株式会社ウエルモア,,株式会社,東京都,世田谷区,経堂１丁目２４番４号,,13,112,1560052,,,2023-06-05,清算の結了等,,,2015-10-05,1,,,,,ウェルモア,0
2558,9011101023673,登記記録の閉鎖等,0,2023-06-08,2023-06-05,株式会社ブルートレーディング,,株式会社,東京都,新宿区,中落合２丁目２２番６号,,13,104,1610032,,,2023-06-05,清算の結了等,,,2015-10-05,1,,,,,,0
2561,9011101080153,登記記録の閉鎖等,0,2023-06-08,2023-06-05,株式会社デザインワークス,,株式会社,東京都,新宿区,西新宿７丁目１番１２号,,13,104,1600023,,,2023-06-05,清算の結了等,,,2017-04-11,1,,,,,デザインワークス,0
2590,9012802000738,登記記録の閉鎖等,0,2023-06-08,2023-06-02,有限会社グリーンボーイズ,,有限会社,東京都,立川市,一番町４丁目５９番地の１,,13,202,1900033,,,2023-06-02,清算の結了等,,,2015-10-05,1,,,,,グリーンボーイズ,0
2613,9030001148158,登記記録の閉鎖等,0,2023-06-08,2023-05-25,株式会社ｆｅａｃｔｉｖｅ,,株式会社,埼玉県,鴻巣市,天神５丁目８番３号,,11,217,3650036,,,2023-05-25,清算の結了等,,,2022-05-11,1,,,,,フィーアクティブ,0
2644,9070005002167,登記記録の閉鎖等,0,2023-06-08,2023-06-01,天理教上州分教会,,その他の設立登記法人,群馬県,高崎市,大八木町４９４番地の３,,10,202,3700072,,,2023-06-01,合併による解散等,6070005002178,令和５年６月１日群馬県高崎市中室田町１８番地１天理教室田分教会（6070005002178）に合併し解散,2015-10-05,1,,,,,,0
2649,9080401005061,登記記録の閉鎖等,0,2023-06-08,2023-06-05,株式会社丸公高林,,株式会社,静岡県,浜松市東区,有玉南町１１０番地,,22,132,4313122,,,2023-06-05,清算の結了等,,,2015-10-05,1,,,,,マルコウタカバヤシ,0
2676,9122001019602,登記記録の閉鎖等,0,2023-06-08,2023-06-01,日興金属工業株式会社,,株式会社,大阪府,八尾市,上尾町５丁目１番地の２,,27,212,5810851,,,2023-06-01,合併による解散等,4122002009615,令和５年６月１日大阪府東大阪市川俣一丁目１０番２７号株式会社エステック（4122002009615）に合併し解散,2015-10-05,1,,,,,ニッコウキンゾクコウギョウ,0
2688,9140001082916,登記記録の閉鎖等,0,2023-06-08,2023-05-31,株式会社エイチアイ企画,,株式会社,兵庫県,宝塚市,野上３丁目５番２４号,,28,214,6650022,,,2023-05-31,清算の結了等,,,2015-10-05,1,,,,,エイチアイキカク,0
2695,9180001013207,登記記録の閉鎖等,0,2023-06-08,2023-06-01,株式会社ハットリフーズ,,株式会社,愛知県,名古屋市緑区,桶狭間切戸２２１７番地,,23,114,4580922,,,2023-06-01,合併による解散等,5180001115989,令和５年６月１日名古屋市緑区桶狭間切戸２２１７番地ＪＢレストラン株式会社（5180001115989）に合併し解散,2015-10-05,1,,,,,ハットリフーズ,0
2696,9180001017298,登記記録の閉鎖等,0,2023-06-08,2023-06-07,田中株式会社,,株式会社,愛知県,名古屋市中区,丸の内２丁目１５番１４号,,23,106,4600002,,,2023-06-07,清算の結了等,,,2015-10-05,1,,,,,タナカ,0
2724,9200001000598,登記記録の閉鎖等,0,2023-06-08,2023-06-05,江崎産業株式会社,,株式会社,岐阜県,岐阜市,月丘町１丁目５番地,,21,201,5008141,,,2023-06-05,清算の結了等,,,2015-10-05,1,,,,,エサキサンギョウ,0
2728,9220002003103,登記記録の閉鎖等,0,2023-06-08,2023-06-06,有限会社清水工房,,有限会社,石川県,金沢市,進和町４２番地,,17,201,9218006,,,2023-06-06,清算の結了等,,,2015-10-05,1,,,,,シミズコウボウ,0
2732,9250001002350,登記記録の閉鎖等,0,2023-06-08,2023-06-01,株式会社ロータリープロジェクトマネジメント,,株式会社,山口県,防府市,大字浜方１１番地の８,,35,206,7470833,,,2023-06-01,合併による解散等,2250001002349,令和５年６月１日山口県防府市大字浜方１１番地８株式会社ロータリーコーポレーション（2250001002349）に合併し解散,2015-10-05,1,,,,,ロータリープロジェクトマネジメント,0
2766,9400002000346,登記記録の閉鎖等,0,2023-06-08,2023-06-02,有限会社いかり,,有限会社,岩手県,盛岡市,大通３丁目３番２９号,,03,201,0200022,,,2023-06-02,清算の結了等,,,2015-10-05,1,,,,,,0
