sequenceNumber,corporateNumber,process,correct,updateDate,changeDate,name,nameImageId,kind,prefectureName,cityName,streetNumber,addressImageId,prefectureCode,cityCode,postCode,addressOutside,addressOutsideImageId,closeDate,closeCause,successorCorporateNumber,changeCause,assignmentDate,latest,enName,enPrefectureName,enCityName,enAddressOutside,furigana,hihyoji
8,1010001024293,登記記録の閉鎖等,0,2022-08-02,2022-07-19,巴屋株式会社,,株式会社,東京都,千代田区,神田須田町１丁目１２番地８神田館１０１号,,13,101,1010041,,,2022-07-19,清算の結了等,,,2015-10-05,1,,,,,トモエヤ,0
41,1010801019947,登記記録の閉鎖等,0,2022-08-02,2022-07-26,ＳＥＪＩＮ　ＪＡＰＡＮ株式会社,,株式会社,東京都,大田区,多摩川２丁目７番１３号,,13,111,1460095,,,2022-07-26,清算の結了等,,,2015-10-05,1,,,,,セジンジャパン,0
61,1011301001437,登記記録の閉鎖等,0,2022-08-02,2022-07-29,株式会社大須賀商店,,株式会社,東京都,杉並区,高円寺北２丁目２２番６号,,13,115,1660002,,,2022-07-29,清算の結了等,,,2015-10-05,1,,,,,オオスカショウテン,0
64,1011501005898,登記記録の閉鎖等,0,2022-08-02,2022-08-01,株式会社面川建機製作所,,株式会社,東京都,荒川区,町屋４丁目１８番１４号,,13,118,1160001,,,2022-08-01,清算の結了等,,,2015-10-05,1,,,,,,0
70,1011602021563,登記記録の閉鎖等,0,2022-08-02,2022-07-29,有限会社ワークシェア,,有限会社,東京都,練馬区,関町北４丁目２１番６７号武蔵関マンション第５棟Ｉ－２,,13,120,1770051,,,2022-07-29,清算の結了等,,,2015-10-05,1,,,,,,0
76,1012303001417,登記記録の閉鎖等,0,2022-08-02,2022-07-29,合同会社Ｒｕｄｄｅｒ　Ｃｒｅａｔｉｏｎ,,合同会社,東京都,町田市,常盤町３０８３番地３４,,13,209,1940213,,,2022-07-29,清算の結了等,,,2020-06-26,1,,,,,ラダークリエイション,0
98,1020002028879,登記記録の閉鎖等,0,2022-08-02,2022-07-21,有限会社秋元工芸,,有限会社,神奈川県,横浜市南区,大岡２丁目７番１号,,14,105,2320061,,,2022-07-21,清算の結了等,,,2015-10-05,1,,,,,アキモトコウゲイ,0
99,1020003010489,登記記録の閉鎖等,0,2022-08-02,2022-07-22,合同会社キャリッジワークス,,合同会社,神奈川県,横浜市西区,高島２丁目１１番２号スカイメナー横浜４２２,,14,103,2200011,,,2022-07-22,清算の結了等,,,2015-10-21,1,,,,,キャリッジワークス,0
100,1020003018144,登記記録の閉鎖等,0,2022-08-02,2022-07-21,阿部合同会社,,合同会社,神奈川県,川崎市多摩区,菅仙谷３丁目１番１１－１０４号,,14,135,2140006,,,2022-07-21,清算の結了等,,,2020-07-08,1,,,,,アベ,0
106,1021002055558,登記記録の閉鎖等,0,2022-08-02,2022-07-27,有限会社市平商事,,有限会社,神奈川県,足柄上郡開成町,延沢７４４番地,,14,366,2580026,,,2022-07-27,清算の結了等,,,2015-10-05,1,,,,,イチヘイショウジ,0
121,1030003018507,登記記録の閉鎖等,0,2022-08-02,2022-07-20,長野コーポレーション合同会社,,合同会社,埼玉県,越谷市,大字大松８６番地１,,11,222,3430004,,,2022-07-20,清算の結了等,,,2021-12-16,1,,,,,ナガノコーポレーション,0
127,1040001004581,登記記録の閉鎖等,0,2022-08-02,2022-07-22,株式会社千葉県交通会館,,株式会社,千葉県,千葉市中央区,市場町７番９号,,12,101,2600855,,,2022-07-22,清算の結了等,,,2015-10-05,1,,,,,チバケンコウツウカイカン,0
132,1040001077173,登記記録の閉鎖等,0,2022-08-02,2022-07-25,株式会社龍慶商事,,株式会社,千葉県,船橋市,坪井東３丁目１２番７５号,,12,204,2740060,,,2022-07-25,清算の結了等,,,2015-10-05,1,,,,,リュウケイショウジ,0
150,1060005007026,登記記録の閉鎖等,0,2022-08-02,2022-07-26,田沼木材加工協同組合,,その他の設立登記法人,栃木県,佐野市,下彦間町１０８９番地,,09,204,3270325,,,2022-07-26,清算の結了等,,,2015-10-05,1,,,,,タヌマモクザイカコウ,0
160,1100001007009,登記記録の閉鎖等,0,2022-08-02,2022-07-26,株式会社アイディアル,,株式会社,長野県,長野市,大字稲葉２０５３番地２,,20,201,3800911,,,2022-07-26,清算の結了等,,,2015-10-05,1,,,,,アイディアル,0
196,1140001093466,登記記録の閉鎖等,0,2022-08-02,2022-07-28,株式会社セイコーホームケア,,株式会社,兵庫県,尼崎市,東園田町６丁目１０７番地の１４,,28,202,6610953,,,2022-07-28,清算の結了等,,,2015-10-05,1,,,,,セイコーホームケア,0
206,1160001001170,登記記録の閉鎖等,0,2022-08-02,2022-08-01,高橋精器株式会社,00044179,株式会社,滋賀県,大津市,里５丁目１２番２号,,25,201,5202276,,,2022-08-01,清算の結了等,,,2015-10-05,1,,,,,タカハシセイキ,0
210,1180001023320,登記記録の閉鎖等,0,2022-08-02,2022-07-28,株式会社エフジィエル,,株式会社,愛知県,東海市,名和町三番割上４０番地の２,,23,222,4760002,,,2022-07-28,清算の結了等,,,2015-10-05,1,,,,,エフジィエル,0
214,1180001048326,登記記録の閉鎖等,0,2022-08-02,2022-07-29,ジェイエイ愛信ビジネス株式会社,,株式会社,愛知県,名古屋市名東区,社口２丁目３０１番地,,23,115,4650013,,,2022-07-29,清算の結了等,,,2015-10-05,1,,,,,ジェイエイアイシンビジネス,0
215,1180001073720,登記記録の閉鎖等,0,2022-08-02,2022-07-29,株式会社井上鉄工所,,株式会社,愛知県,春日井市,気噴町北１丁目６３番地,,23,206,4870015,,,2022-07-29,清算の結了等,,,2015-10-05,1,,,,,イノウエテッコウショ,0
218,1180002047500,登記記録の閉鎖等,0,2022-08-02,2022-07-27,有限会社天白電気サービス,,有限会社,愛知県,名古屋市緑区,ほら貝２丁目４番地の２,,23,114,4580013,,,2022-07-27,清算の結了等,,,2015-10-05,1,,,,,テンパクデンキサービス,0
237,1220002000033,登記記録の閉鎖等,0,2022-08-02,2022-07-28,有限会社ゼット,,有限会社,石川県,白山市,河内町内尾ロ９７番地,,17,210,9202318,,,2022-07-28,清算の結了等,,,2015-10-05,1,,,,,ゼット,0
239,1220002014529,登記記録の閉鎖等,0,2022-08-02,2022-07-19,金剛食品有限会社,,有限会社,石川県,羽咋郡志賀町,酒見韮山１８０番地１,,17,384,9250564,,,2022-07-19,清算の結了等,,,2015-10-05,1,,,,,コンゴウショクヒン,0
242,1230002003654,登記記録の閉鎖等,0,2022-08-02,2022-07-28,有限会社モリツネ設備,,有限会社,富山県,富山市,吉作１０６６番地の１,,16,201,9300142,,,2022-07-28,清算の結了等,,,2015-10-05,1,,,,,モリツネセツビ,0
247,1240002041950,登記記録の閉鎖等,0,2022-08-02,2022-07-29,有限会社トータルプランニング,,有限会社,広島県,福山市,木之庄町４丁目２番１４号,,34,207,7200082,,,2022-07-29,清算の結了等,,,2015-10-05,1,,,,,トータルプランニング,0
262,1280002001348,登記記録の閉鎖等,0,2022-08-02,2022-08-01,有限会社太陽,,有限会社,島根県,松江市,内中原町１６８番地,,32,201,6900873,,,2022-08-01,清算の結了等,,,2015-10-05,1,,,,,タイヨウ,0
267,1290001057407,登記記録の閉鎖等,0,2022-08-02,2022-07-25,株式会社ＦＯＬＬＥＴＴＯ,,株式会社,福岡県,福岡市中央区,渡辺通５丁目２３番３号東急ドエルアルス天神６０８号,,40,133,8100004,,,2022-07-25,清算の結了等,,,2015-10-05,1,,,,,フォレット,0
290,1370001013847,登記記録の閉鎖等,0,2022-08-02,2022-07-21,株式会社サクセス総研,,株式会社,宮城県,仙台市青葉区,錦町２丁目４番１３号,,04,101,9800012,,,2022-07-21,清算の結了等,,,2015-10-05,1,,,,,サクセスソウケン,0
291,1370001020752,登記記録の閉鎖等,0,2022-08-02,2022-07-22,株式会社マトール,,株式会社,宮城県,仙台市青葉区,一番町１丁目１番８号,,04,101,9800811,,,2022-07-22,清算の結了等,,,2015-10-05,1,,,,,マトール,0
292,1370001022278,登記記録の閉鎖等,0,2022-08-02,2022-07-20,株式会社ブライトリー,,株式会社,宮城県,仙台市青葉区,落合２丁目８番５７号,,04,101,9893126,,,2022-07-20,清算の結了等,,,2015-10-05,1,,,,,ブライトリー,0
299,1370601002811,登記記録の閉鎖等,0,2022-08-02,2022-07-25,株式会社リーフテック,,株式会社,宮城県,宮城郡利府町,花園３丁目１７番地４,,04,406,9810132,,,2022-07-25,清算の結了等,,,2015-10-05,1,,,,,リーフテック,0
301,1380001023077,登記記録の閉鎖等,0,2022-08-02,2022-07-27,株式会社コウシン,,株式会社,福島県,福島市,御山字甘粕１３番地の４,,07,201,9608252,,,2022-07-27,清算の結了等,,,2015-10-05,1,,,,,,0
322,1480001002046,登記記録の閉鎖等,0,2022-08-02,2022-08-01,芙蓉工業株式会社,,株式会社,徳島県,徳島市,川内町榎瀬７１０番地,,36,201,7710144,,,2022-08-01,清算の結了等,,,2015-10-05,1,,,,,フヨウコウギョウ,0
325,1490002006128,登記記録の閉鎖等,0,2022-08-02,2022-07-28,有限会社一宮山の手観光,,有限会社,高知県,高知市,一宮西町４丁目２１番２号,,39,201,7818136,,,2022-07-28,清算の結了等,,,2015-10-05,1,,,,,イックヤマノテカンコウ,0
326,1500001002448,登記記録の閉鎖等,0,2022-08-02,2022-08-01,第一機械株式会社,,株式会社,愛媛県,松山市,余戸南１丁目２３番１８号,,38,201,7900047,,,2022-08-01,清算の結了等,,,2015-10-05,1,,,,,ダイイチキカイ,0
349,2010401159259,登記記録の閉鎖等,0,2022-08-02,2022-07-12,株式会社ＬＥ・ＳＣＯＰＥ,,株式会社,東京都,港区,六本木７丁目１８番５号ソフィア六本木５０６,,13,103,1060032,,,2022-07-12,清算の結了等,,,2021-04-05,1,,,,,ルスコルプ,0
353,2010402035459,登記記録の閉鎖等,0,2022-08-02,2022-07-22,スカンジナビアショッピングサービス有限会社,,有限会社,神奈川県,横浜市磯子区,東町二丁目１５番地日神グランパレス根岸森林公園６０３,,14,107,2350005,,,2022-07-22,清算の結了等,,,2015-10-05,1,,,,,スカンジナビアショッピングサービス,0
354,2010403022357,登記記録の閉鎖等,0,2022-08-02,2022-07-11,合同会社ＹＣＨ５,,合同会社,東京都,港区,南青山２丁目２番１５－８２５号,,13,103,1070062,,,2022-07-11,清算の結了等,,,2020-02-17,1,,,,,ワイシーエイチファイブ,0
402,2012401022124,登記記録の閉鎖等,0,2022-08-02,2022-07-27,株式会社ＭＧＧテクノロジー,,株式会社,東京都,国立市,東２丁目１３番２４号シルバーコーポ２０２号,,13,215,1860002,,,2022-07-27,清算の結了等,,,2015-10-05,1,,,,,エムジージーテクノロジー,0
406,2020001061517,登記記録の閉鎖等,0,2022-08-02,2022-07-21,第一プラン株式会社,,株式会社,神奈川県,横浜市鶴見区,市場上町１０番５１－５０２号,,14,101,2300021,,,2022-07-21,清算の結了等,,,2015-10-05,1,,,,,ダイイチプラン,0
411,2020002077611,登記記録の閉鎖等,0,2022-08-02,2022-07-19,有限会社Ｌｕｃｋｙ＆Ｆｕｋｕ,,有限会社,神奈川県,横浜市神奈川区,金港町１番地１１,,14,102,2210056,,,2022-07-19,清算の結了等,,,2015-10-05,1,,,,,,0
414,2021001019208,登記記録の閉鎖等,0,2022-08-02,2022-07-25,株式会社厚木相中,,株式会社,神奈川県,厚木市,栄町１丁目１番７号,,14,212,2430017,,,2022-07-25,清算の結了等,,,2015-10-05,1,,,,,アツギソウチュウ,0
426,2021002058510,登記記録の閉鎖等,0,2022-08-02,2022-07-27,有限会社セントラル化成,,有限会社,神奈川県,平塚市,田村８丁目２２番１５号,,14,203,2540013,,,2022-07-27,清算の結了等,,,2015-10-05,1,,,,,セントラルカセイ,0
430,2030002088756,登記記録の閉鎖等,0,2022-08-02,2022-07-20,有限会社ケイ・コーポレーション,,有限会社,埼玉県,越谷市,千間台東３丁目５１１番地３,,11,222,3430042,,,2022-07-20,清算の結了等,,,2015-10-05,1,,,,,ケイコーポレーション,0
442,2050001031260,登記記録の閉鎖等,0,2022-08-02,2022-07-25,株式会社Ｙ．Ｔ．ＪＡＰＡＮ,,株式会社,茨城県,牛久市,中央２丁目４番地３,,08,219,3001234,,,2022-07-25,清算の結了等,,,2015-10-05,1,,,,,,0
445,2050002043230,登記記録の閉鎖等,0,2022-08-02,2022-07-25,有限会社ワイシー下館北部,,有限会社,茨城県,筑西市,中舘２４９番地３,,08,227,3080005,,,2022-07-25,清算の結了等,,,2015-10-05,1,,,,,ワイシーシモダテホクブ,0
458,2110003003061,登記記録の閉鎖等,0,2022-08-02,2022-07-11,合同会社ヒプノス,,合同会社,東京都,港区,南青山２丁目２番１５号,,13,103,1070062,,,2022-07-11,清算の結了等,,,2015-10-05,1,,,,,ヒプノス,0
462,2120001209948,登記記録の閉鎖等,0,2022-08-02,2022-07-29,清水商事株式会社,,株式会社,大阪府,大阪市淀川区,西中島４丁目７番２０号,,27,123,5320011,,,2022-07-29,清算の結了等,,,2017-12-08,1,,,,,シミズショウジ,0
476,2140001107720,登記記録の閉鎖等,0,2022-08-02,2022-07-28,日本住設販売株式会社,,株式会社,兵庫県,神戸市北区,鈴蘭台南町５丁目１番１３－１０４号,,28,109,6511113,,,2022-07-28,清算の結了等,,,2017-10-05,1,,,,,ニホンジュウセツハンバイ,0
490,2140005025200,登記記録の閉鎖等,0,2022-08-02,2022-07-27,一般社団法人兵庫県福祉支援事業団ぬくもり,,その他の設立登記法人,兵庫県,神戸市長田区,苅藻島町１丁目１番６５号,,28,106,6530033,,,2022-07-27,清算の結了等,,,2020-06-23,1,,,,,ヒョウゴケンフクシシエンジギョウダンヌクモリ,0
503,2180001133564,登記記録の閉鎖等,0,2022-08-02,2022-07-29,株式会社ＫＯＮＤＯ,,株式会社,愛知県,豊明市,新栄町２丁目１４７番地１ガーデンプラムＢ棟１０２号,,23,229,4701154,,,2022-07-29,清算の結了等,,,2018-08-30,1,,,,,コンドー,0
509,2180002038911,登記記録の閉鎖等,0,2022-08-02,2022-07-28,有限会社ノハラリフォームサービス,,有限会社,愛知県,名古屋市西区,宝地町３５２番地１,,23,104,4520808,,,2022-07-28,清算の結了等,,,2015-10-05,1,,,,,ノハラリフォームサービス,0
525,2240002008230,登記記録の閉鎖等,0,2022-08-02,2022-07-29,有限会社白木総合物産,,有限会社,広島県,広島市安佐北区,白木町大字三田２３７４番地の１６,,34,106,7391521,,,2022-07-29,清算の結了等,,,2015-10-05,1,,,,,シラキソウゴウブッサン,0
536,2290003010305,登記記録の閉鎖等,0,2022-08-02,2022-07-22,合同会社Ｗｅｂｍａｒｋｅ,,合同会社,福岡県,糸島市,前原南１丁目１１番１５号（Ａ）,,40,230,8191139,,,2022-07-22,清算の結了等,,,2020-08-20,1,,,,,ウェブマーク,0
547,2350002011537,登記記録の閉鎖等,0,2022-08-02,2022-07-28,有限会社むら一番,,有限会社,宮崎県,東臼杵郡美郷町,西郷田代６２８６番地３,,45,431,8831101,,,2022-07-28,清算の結了等,,,2015-10-05,1,,,,,ムライチバン,0
553,2370001001900,登記記録の閉鎖等,0,2022-08-02,2022-07-20,大正電設株式会社,,株式会社,宮城県,仙台市太白区,郡山字谷地田西６番地の４,,04,104,9820003,,,2022-07-20,清算の結了等,,,2015-10-05,1,,,,,タイショウデンセツ,0
559,2400002006721,登記記録の閉鎖等,0,2022-08-02,2022-08-01,有限会社アルテック,,有限会社,岩手県,岩手郡雫石町,七ツ森１１１番地１０,,03,301,0200503,,,2022-08-01,清算の結了等,,,2015-10-05,1,,,,,アルテック,0
565,2440002008912,登記記録の閉鎖等,0,2022-08-02,2022-07-25,有限会社岡林建設,,有限会社,北海道,瀬棚郡今金町,字今金１９１番地の２４,,01,370,0494308,,,2022-07-25,清算の結了等,,,2015-10-05,1,,,,,オカバヤシケンセツ,0
604,3010401135903,登記記録の閉鎖等,0,2022-08-02,2022-07-11,ミューロン株式会社,,株式会社,東京都,港区,三田２丁目１４番５－６０３号,,13,103,1080073,,,2022-07-11,清算の結了等,,,2018-01-12,1,,,,,ミューロン,0
619,3010901006488,登記記録の閉鎖等,0,2022-08-02,2022-07-27,センポール株式会社,,株式会社,東京都,世田谷区,南烏山５丁目３４番１８号,,13,112,1570062,,,2022-07-27,清算の結了等,,,2015-10-05,1,,,,,センポール,0
653,3012701015545,登記記録の閉鎖等,0,2022-08-02,2022-07-11,株式会社ＨＥＲＯＥＳ,,株式会社,東京都,港区,高輪１丁目１６番２１－６０３号,,13,103,1080074,,,2022-07-11,清算の結了等,,,2019-09-26,1,,,,,ヒーローズ,0
666,3020003018968,登記記録の閉鎖等,0,2022-08-02,2022-07-14,ＴＦＤｘマネジメント合同会社,,合同会社,神奈川県,横浜市西区,みなとみらい４丁目４－２横浜ブルーアベニュー１２Ｆ,,14,103,2200012,,,2022-07-14,清算の結了等,,,2020-12-17,1,,,,,ティエフデジタルトランスフォーメーションマネジメント,0
667,3020003020973,登記記録の閉鎖等,0,2022-08-02,2022-07-20,合同会社ＦＫＭ管理,,合同会社,神奈川県,横浜市港南区,上永谷２丁目１９番３号,,14,111,2330012,,,2022-07-20,清算の結了等,,,2021-12-14,1,,,,,エフケーエムカンリ,0
686,3040001062173,登記記録の閉鎖等,0,2022-08-02,2022-07-25,常総興業株式会社,,株式会社,千葉県,銚子市,三軒町１８番地の１２,,12,202,2880045,,,2022-07-25,清算の結了等,,,2015-10-05,1,,,,,ジョウソウコウギョウ,0
705,3080002002034,登記記録の閉鎖等,0,2022-08-02,2022-07-29,有限会社ゴジョウ,,有限会社,静岡県,焼津市,吉永１２５９番地の１７,,22,212,4210211,,,2022-07-29,清算の結了等,,,2015-10-05,1,,,,,ゴジョウ,0
717,3100002004077,登記記録の閉鎖等,0,2022-08-02,2022-07-28,有限会社はとう梱包運輸,,有限会社,長野県,長野市,若穂保科３２３９番地,,20,201,3810102,,,2022-07-28,清算の結了等,,,2015-10-05,1,,,,,ハトウコンポウウンユ,0
729,3120001149994,登記記録の閉鎖等,0,2022-08-02,2022-07-26,タイヨー土地開発株式会社,,株式会社,大阪府,枚方市,野村中町６番１号,,27,210,5730144,,,2022-07-26,清算の結了等,,,2015-10-05,1,,,,,タイヨートチカイハツ,0
730,3120001160373,登記記録の閉鎖等,0,2022-08-02,2022-07-28,新機通信建設株式会社,,株式会社,大阪府,守口市,藤田町５丁目６番２号,,27,209,5700014,,,2022-07-28,清算の結了等,,,2015-10-05,1,,,,,,0
747,3130001034956,登記記録の閉鎖等,0,2022-08-02,2022-07-15,北丹建設株式会社,,株式会社,京都府,南丹市,園部町上木崎町坪ノ内３２番地,,26,213,6220011,,,2022-07-15,合併による解散等,5130001034888,令和４年７月１日京都府南丹市園部町木崎町土手下１７番地１株式会社山陰土建（5130001034888）に合併し解散,2015-10-05,1,,,,,ホクタンケンセツ,0
753,3140001008661,登記記録の閉鎖等,0,2022-08-02,2022-07-29,株式会社スタジオパツク,,株式会社,兵庫県,神戸市中央区,港島中町３丁目１番地の２,,28,110,6500046,,,2022-07-29,清算の結了等,,,2015-10-05,1,,,,,スタジオパック,0
788,3190001021271,登記記録の閉鎖等,0,2022-08-02,2022-07-26,株式会社お墓掃除本舗,,株式会社,三重県,津市,南が丘２丁目７番地３,,24,201,5140822,,,2022-07-26,清算の結了等,,,2015-10-05,1,,,,,オハカソウジホンポ,0
789,3190005001204,登記記録の閉鎖等,0,2022-08-02,2022-07-27,特定非営利活動法人ラポール,,その他の設立登記法人,三重県,津市,大門７番１５号,,24,201,5140027,,,2022-07-27,清算の結了等,,,2015-10-05,1,,,,,ラポール,0
796,3220002014213,登記記録の閉鎖等,0,2022-08-02,2022-07-28,有限会社能登島シーサイドハウス,,有限会社,石川県,七尾市,能登島須曽町四弐部４番地,,17,202,9260213,,,2022-07-28,清算の結了等,,,2015-10-05,1,,,,,ノトジマシーサイドハウス,0
797,3230001005765,登記記録の閉鎖等,0,2022-08-02,2022-07-29,株式会社トータルビジネス,,株式会社,富山県,富山市,呉羽町２７番地２４,,16,201,9300138,,,2022-07-29,清算の結了等,,,2015-10-05,1,,,,,トータルビジネス,0
806,3240001054068,登記記録の閉鎖等,0,2022-08-02,2022-07-29,株式会社ドリーミング,,株式会社,広島県,広島市安佐南区,川内１丁目１２番３０－４号,,34,105,7310102,,,2022-07-29,合併による解散等,7240001048198,令和４年７月２９日広島市安佐北区深川二丁目３９番４－１号原電工業株式会社（7240001048198）に合併し解散,2019-03-18,1,,,,,ドリーミング,0
820,3280001000497,登記記録の閉鎖等,0,2022-08-02,2022-08-01,テクノ工業株式会社,,株式会社,島根県,松江市,八幡町７８０番地１,,32,201,6900025,,,2022-08-01,合併による解散等,1280001004566,令和４年８月１日島根県江津市渡津町９６１番地４３イワミ工業株式会社（1280001004566）に合併し解散,2015-10-05,1,,,,,テクノコウギョウ,0
833,3320005001776,登記記録の閉鎖等,0,2022-08-02,2022-08-01,特定非営利活動法人技術サポートネットワーク大分,,その他の設立登記法人,大分県,大分市,大字葛木１８６番地の２,00097128,44,201,8700133,,,2022-08-01,清算の結了等,,,2015-10-05,1,,,,,ギジュツサポートネットワークオオイタ,0
847,3370001048206,登記記録の閉鎖等,0,2022-08-02,2022-07-22,エーエスピーカンパニー株式会社,,株式会社,宮城県,大崎市,古川大宮８丁目４番５３号,,04,215,9896221,,,2022-07-22,清算の結了等,,,2022-02-14,1,,,,,エーエスピーカンパニー,0
851,3380002025847,登記記録の閉鎖等,0,2022-08-02,2022-07-25,有限会社ブリス,,有限会社,福島県,いわき市,江名字安竜２５番地,,07,204,9700311,,,2022-07-25,清算の結了等,,,2015-10-05,1,,,,,ブリス,0
855,3400005000992,登記記録の閉鎖等,0,2022-08-02,2022-08-01,特定非営利活動法人いわてシニアネット,,その他の設立登記法人,岩手県,盛岡市,永井第１７地割２１番地１１,,03,201,0200834,,,2022-08-01,清算の結了等,,,2015-10-05,1,,,,,イワテシニアネット,0
856,3430001021684,登記記録の閉鎖等,0,2022-08-02,2022-07-26,日商砿油株式会社,,株式会社,北海道,札幌市白石区,南郷通２丁目南９番７号,,01,104,0030022,,,2022-07-26,合併による解散等,2010001126403,令和４年７月１日東京都中央区新富一丁目１８番８号出光リテール販売株式会社（2010001126403）に合併し解散,2015-10-05,1,,,,,ニッショウコウユ,0
861,3430001072174,登記記録の閉鎖等,0,2022-08-02,2022-07-20,北海道リレーション株式会社,,株式会社,北海道,札幌市中央区,南二条東２丁目１６番地,,01,101,0600052,,,2022-07-20,清算の結了等,,,2016-08-10,1,,,,,ホッカイドウリレーション,0
886,4010401021846,登記記録の閉鎖等,0,2022-08-02,2022-07-12,双日シェアードサービス株式会社,,株式会社,東京都,千代田区,内幸町２丁目１番１号,,13,101,1000011,,,2022-07-12,合併による解散等,6010401098627,令和４年７月１日東京都千代田区内幸町二丁目１番１号双日シェアードサービス株式会社（6010401098627）に合併し解散,2015-10-05,1,,,,,ソウジツシェアードサービス,0
887,4010401063525,登記記録の閉鎖等,0,2022-08-02,2022-07-11,株式会社ウエストサイドコミュニケーションズ,,株式会社,東京都,港区,六本木７丁目１７番１２号六本木ビジネスアパートメンツ４１８,,13,103,1060032,,,2022-07-11,清算の結了等,,,2015-10-05,1,,,,,ウエストサイドコミュニケーションズ,0
903,4010601024046,登記記録の閉鎖等,0,2022-08-02,2022-07-25,株式会社石原金庫事務器,,株式会社,東京都,墨田区,両国４丁目３７番６号,,13,107,1300026,,,2022-07-25,清算の結了等,,,2015-10-05,1,,,,,イシハラキンコジムキ,0
905,4010601045141,登記記録の閉鎖等,0,2022-08-02,2022-07-28,ＬＯＨＡＳ　ＥＣＥ　ＢＬＡＣＫ株式会社,,株式会社,福岡県,北九州市若松区,北浜２丁目４番８号,,40,103,8080023,,,2022-07-28,合併による解散等,1290801027939,令和４年７月２５日北九州市若松区北浜二丁目４番８号株式会社アリエナジー（1290801027939）に合併し解散,2015-10-05,1,,,,,ロハスイーシーイーブラック,0
936,4011302008809,登記記録の閉鎖等,0,2022-08-02,2022-07-27,丸鈴運送有限会社,,有限会社,東京都,杉並区,下高井戸１丁目３２番９号,,13,115,1680073,,,2022-07-27,清算の結了等,,,2015-10-05,1,,,,,マルスズウンソウ,0
949,4012702012532,登記記録の閉鎖等,0,2022-08-02,2022-07-29,有限会社キャッチ,,有限会社,東京都,東久留米市,新川町１丁目３番４号プレミスト東久留米９０１号室,,13,222,2030013,,,2022-07-29,清算の結了等,,,2015-10-05,1,,,,,キャッチ,0
951,4012802010345,登記記録の閉鎖等,0,2022-08-02,2022-07-22,有限会社アント,,有限会社,神奈川県,川崎市高津区,下野毛１丁目１２番７号,,14,134,2130006,,,2022-07-22,清算の結了等,,,2015-10-05,1,,,,,アント,0
956,4013301033671,登記記録の閉鎖等,0,2022-08-02,2022-07-28,株式会社ファクター,,株式会社,東京都,豊島区,西池袋５丁目２６番１６号,,13,116,1710021,,,2022-07-28,清算の結了等,,,2015-10-05,1,,,,,ファクター,0
958,4020001051301,登記記録の閉鎖等,0,2022-08-02,2022-07-21,ｃｕｂｉｃ株式会社,,株式会社,神奈川県,横浜市西区,みなとみらい３丁目６番１号みなとみらいセンタービル１９階,,14,103,2200012,,,2022-07-21,清算の結了等,,,2015-10-05,1,,,,,キュービック,0
965,4020002096956,登記記録の閉鎖等,0,2022-08-02,2022-07-22,有限会社サカイ,,有限会社,神奈川県,川崎市川崎区,追分町１７番３号,,14,131,2100835,,,2022-07-22,清算の結了等,,,2015-10-05,1,,,,,サカイ,0
972,4021001007219,登記記録の閉鎖等,0,2022-08-02,2022-07-25,株式会社内藤商会,,株式会社,神奈川県,茅ヶ崎市,平和町２番１９号,,14,207,2530024,,,2022-07-25,清算の結了等,,,2015-10-05,1,,,,,ナイトウショウカイ,0
985,4030001143122,登記記録の閉鎖等,0,2022-08-02,2022-07-20,株式会社内田工業,,株式会社,埼玉県,新座市,西堀２丁目１９番３９号,,11,230,3520031,,,2022-07-20,清算の結了等,,,2021-07-07,1,,,,,ウチダコウギョウ,0
989,4030002084002,登記記録の閉鎖等,0,2022-08-02,2022-07-14,有限会社中島不動産,,有限会社,埼玉県,鴻巣市,笠原２９８２番地３,,11,217,3650023,,,2022-07-14,清算の結了等,,,2015-10-05,1,,,,,ナカジマフドウサン,0
1006,4050001031242,登記記録の閉鎖等,0,2022-08-02,2022-07-25,株式会社楽団,,株式会社,茨城県,つくば市,上岩崎１８４７番地７５,,08,220,3001274,,,2022-07-25,清算の結了等,,,2015-10-05,1,,,,,ガクダン,0
1025,4100001009506,登記記録の閉鎖等,0,2022-08-02,2022-07-26,愛知電機株式会社,,株式会社,長野県,上田市,住吉３７３番地１,,20,203,3860002,,,2022-07-26,合併による解散等,1010001003966,令和４年７月１日東京都千代田区外神田二丁目２番３号スズデン株式会社（1010001003966）に合併し解散,2015-10-05,1,,,,,アイチデンキ,0
1026,4100002003284,登記記録の閉鎖等,0,2022-08-02,2022-07-26,有限会社伝田建設,,有限会社,長野県,長野市,大字栗田字部屋田６１番地９,,20,201,3800921,,,2022-07-26,清算の結了等,,,2015-10-05,1,,,,,デンダケンセツ,0
1047,4120005019152,登記記録の閉鎖等,0,2022-08-02,2022-07-28,一般社団法人日本食品安全協会,,その他の設立登記法人,大阪府,大阪市中央区,島之内１丁目１３番２８号,,27,128,5420082,,,2022-07-28,清算の結了等,,,2016-12-27,1,,,,,ニホンショクヒンアンゼンキョウカイ,0
1061,4130005015010,登記記録の閉鎖等,0,2022-08-02,2022-07-25,一般社団法人リボンクラフト協会,,その他の設立登記法人,京都府,京都市上京区,中立売通松屋町東入新白水丸町４６０番地の１,,26,102,6028205,,,2022-07-25,清算の結了等,,,2017-08-07,1,,,,,リボンクラフトキョウカイ,0
1067,4140001125737,登記記録の閉鎖等,0,2022-08-02,2022-07-25,株式会社神戸太田,,株式会社,兵庫県,神戸市兵庫区,松原通２丁目３番５号,,28,105,6520881,,,2022-07-25,清算の結了等,,,2022-04-22,1,,,,,,0
1082,4180001105207,登記記録の閉鎖等,0,2022-08-02,2022-07-28,株式会社フジミ,,株式会社,愛知県,名古屋市南区,南野３丁目３７番地,,23,112,4570068,,,2022-07-28,清算の結了等,,,2015-10-05,1,,,,,フジミ,0
1092,4180005003381,登記記録の閉鎖等,0,2022-08-02,2022-07-29,名東西山商店街振興組合,,その他の設立登記法人,愛知県,名古屋市名東区,西山本通１丁目５番地,,23,115,4650085,,,2022-07-29,清算の結了等,,,2015-10-05,1,,,,,メイトウニシヤマ,0
1096,4180301031169,登記記録の閉鎖等,0,2022-08-02,2022-07-25,プロマスト・セーフティ株式会社,,株式会社,愛知県,刈谷市,半城土町北十三塚１３番地２,,23,210,4480804,,,2022-07-25,清算の結了等,,,2018-02-01,1,,,,,プロマストセーフティ,0
1125,4280002001907,登記記録の閉鎖等,0,2022-08-02,2022-08-01,有限会社木綿屋,,有限会社,島根県,松江市,末次本町４番地,,32,201,6900843,,,2022-08-01,清算の結了等,,,2015-10-05,1,,,,,モメンヤ,0
1139,4340001007114,登記記録の閉鎖等,0,2022-08-02,2022-08-01,株式会社ＭＡメディカル,,株式会社,鹿児島県,鹿児島市,小野４丁目１９番７号,,46,201,8900021,,,2022-08-01,清算の結了等,,,2015-10-05,1,,,,,エムエーメディカル,0
1143,4340002009539,登記記録の閉鎖等,0,2022-08-02,2022-08-01,有限会社南日本新聞大明ケ丘販売センター,,有限会社,鹿児島県,鹿児島市,大明丘１丁目２１番１３号,,46,201,8920872,,,2022-08-01,清算の結了等,,,2015-10-05,1,,,,,ミナミニホンシンブンダイミョウガオカケハンバイセンター,0
1151,4360002019536,登記記録の閉鎖等,0,2022-08-02,2022-07-20,有限会社サンコウ,,有限会社,沖縄県,名護市,大西５丁目１１番１号,,47,209,9050018,,,2022-07-20,清算の結了等,,,2015-10-05,1,,,,,,0
1154,4370001017993,登記記録の閉鎖等,0,2022-08-02,2022-07-22,株式会社阿光設備,,株式会社,宮城県,仙台市太白区,羽黒台１６番８号,,04,104,9820817,,,2022-07-22,清算の結了等,,,2015-10-05,1,,,,,アコウセツビ,0
1170,4430001044882,登記記録の閉鎖等,0,2022-08-02,2022-07-19,イーベックス株式会社,,株式会社,北海道,札幌市中央区,大通西１５丁目３番地４,,01,101,0600042,,,2022-07-19,清算の結了等,,,2015-10-05,1,,,,,イーベックス,0
1179,4470001014469,登記記録の閉鎖等,0,2022-08-02,2022-08-01,株式会社牛若丸,,株式会社,香川県,東かがわ市,白鳥８２８番地１,,37,207,7692705,,,2022-08-01,清算の結了等,,,2015-10-05,1,,,,,ウシワカマル,0
1181,4480002013626,登記記録の閉鎖等,0,2022-08-02,2022-08-01,有限会社宝松海運,,有限会社,徳島県,阿南市,見能林町下志んじやく１７番地１,,36,204,7740017,,,2022-08-01,清算の結了等,,,2015-10-05,1,,,,,,0
1197,5010001214139,登記記録の閉鎖等,0,2022-08-02,2022-07-21,株式会社エムラボ,,株式会社,東京都,中央区,東日本橋２丁目２８番４号日本橋ＣＥＴビル２階,,13,102,1030004,,,2022-07-21,合併による解散等,9010601051309,令和４年７月１日東京都港区浜松町二丁目２番１５号浜松町ダイヤビル２階株式会社オールラウンド（9010601051309）に合併し解散,2020-12-03,1,,,,,エムラボ,0
1200,5010002021765,登記記録の閉鎖等,0,2022-08-02,2022-07-25,有限会社富士見かね七,,有限会社,東京都,江東区,豊洲６丁目５番１号,,13,108,1350061,,,2022-07-25,清算の結了等,,,2015-10-05,1,,,,,フジミカネシチ,0
1240,5010901046086,登記記録の閉鎖等,0,2022-08-02,2022-07-28,株式会社ＫＥＹ　ＱＵＥＳＴ,,株式会社,東京都,世田谷区,瀬田５丁目３５番８号,,13,112,1580095,,,2022-07-28,清算の結了等,,,2020-04-15,1,,,,,キークエスト,0
1242,5011001143798,登記記録の閉鎖等,0,2022-08-02,2022-07-14,株式会社ＷＯ－１,,株式会社,東京都,渋谷区,神宮前６丁目６番８ラビドリエラデエミ３０２,,13,113,1500001,,,2022-07-14,清算の結了等,,,2021-11-11,1,,,,,ダブルオーワン,0
1251,5011103011366,登記記録の閉鎖等,0,2022-08-02,2022-07-28,Ｊａｙ’ｓ合同会社,,合同会社,東京都,新宿区,北町２４－１シャリエ神楽坂２０３,,13,104,1620834,,,2022-07-28,清算の結了等,,,2022-01-25,1,,,,,ジェイズ,0
1272,5020001081504,登記記録の閉鎖等,0,2022-08-02,2022-07-25,株式会社アトリエ・ヒロ,,株式会社,神奈川県,川崎市多摩区,東生田１丁目１０番３号,,14,135,2140031,,,2022-07-25,清算の結了等,,,2015-10-05,1,,,,,アトリエヒロ,0
1295,5030002055357,登記記録の閉鎖等,0,2022-08-02,2022-07-21,有限会社和正,,有限会社,埼玉県,上尾市,中妻２丁目１２番地の１,,11,219,3620072,,,2022-07-21,清算の結了等,,,2015-10-05,1,,,,,カズマサ,0
1304,5040002040977,登記記録の閉鎖等,0,2022-08-02,2022-07-25,有限会社シゲモリ,,有限会社,千葉県,浦安市,堀江４丁目３番３号,,12,227,2790041,,,2022-07-25,清算の結了等,,,2015-10-05,1,,,,,シゲモリ,0
1318,5080001004087,登記記録の閉鎖等,0,2022-08-02,2022-08-01,日本実業株式会社,,株式会社,静岡県,静岡市葵区,本通３丁目３番地,,22,101,4200064,,,2022-08-01,清算の結了等,,,2015-10-05,1,,,,,ニホンジツギョウ,0
1322,5100001006270,登記記録の閉鎖等,0,2022-08-02,2022-07-26,株式会社屋代スター商会,,株式会社,長野県,千曲市,大字粟佐１２９５番地,,20,218,3870006,,,2022-07-26,清算の結了等,,,2015-10-05,1,,,,,ヤシロスターショウカイ,0
1337,5120001209367,登記記録の閉鎖等,0,2022-08-02,2022-07-28,株式会社ＤＤ,,株式会社,大阪府,大阪市都島区,都島南通２丁目１番３－６０４号,,27,102,5340023,,,2022-07-28,清算の結了等,,,2017-11-08,1,,,,,,0
1343,5120003019426,登記記録の閉鎖等,0,2022-08-02,2022-07-26,合同会社ＡＳＫ,,合同会社,大阪府,大阪市淀川区,十三本町２丁目１０番１１号カーサトレディーチ２０８号,,27,123,5320024,,,2022-07-26,清算の結了等,,,2021-05-18,1,,,,,エイエスケー,0
1356,5122001018384,登記記録の閉鎖等,0,2022-08-02,2022-07-25,ケージーエス関西株式会社,,株式会社,大阪府,八尾市,山賀町６丁目１番地の１４,,27,212,5810812,,,2022-07-25,清算の結了等,,,2015-10-05,1,,,,,ケージーエスカンサイ,0
1359,5130002014179,登記記録の閉鎖等,0,2022-08-02,2022-07-19,有限会社大基建設,,有限会社,京都府,京都市伏見区,羽束師古川町１１３番地の５,,26,109,6128486,,,2022-07-19,清算の結了等,,,2015-10-05,1,,,,,ダイキケンセツ,0
1376,5160001011455,登記記録の閉鎖等,0,2022-08-02,2022-08-01,株式会社ラチーノセンター,,株式会社,滋賀県,近江八幡市,出町１３３番３,,25,204,5230892,,,2022-08-01,清算の結了等,,,2015-10-05,1,,,,,ラチーノセンター,0
1383,5180001010447,登記記録の閉鎖等,0,2022-08-02,2022-07-28,第一合成株式会社,,株式会社,愛知県,名古屋市緑区,黒沢台２丁目１４２０番地,,23,114,4580003,,,2022-07-28,清算の結了等,,,2015-10-05,1,,,,,ダイイチゴウセイ,0
1415,5260002014950,登記記録の閉鎖等,0,2022-08-02,2022-08-01,有限会社アトリエモナミ,,有限会社,岡山県,赤磐市,福田３２９番地の１,,33,213,7012504,,,2022-08-01,清算の結了等,,,2015-10-05,1,,,,,アトリエモナミ,0
1416,5260002022854,登記記録の閉鎖等,0,2022-08-02,2022-07-22,株式会社マインズ・レーベ,,株式会社,岡山県,倉敷市,二日市５１１番地１,,33,202,7100042,,,2022-07-22,合併による解散等,8260001012531,令和４年７月２２日岡山県倉敷市二日市５１１番地の１株式会社いのうえ（8260001012531）に合併し解散,2015-10-05,1,,,,,マインズレーベ,0
1447,5360001027794,登記記録の閉鎖等,0,2022-08-02,2022-07-20,Ｇｏｏｄ　Ｓｈｅｐｈｅｒｄ株式会社,,株式会社,沖縄県,那覇市,前島３丁目２５番２号泊ポートビル５階,,47,201,9000016,,,2022-07-20,清算の結了等,,,2020-10-14,1,,,,,グッドシェパード,0
1450,5360005006209,登記記録の閉鎖等,0,2022-08-02,2022-07-19,一般社団法人賢照,,その他の設立登記法人,沖縄県,うるま市,字江洲２１０６番地４一階,,47,213,9042244,,,2022-07-19,清算の結了等,,,2020-04-08,1,,,,,ケンショウ,0
1454,5370102000253,登記記録の閉鎖等,0,2022-08-02,2022-07-20,有限会社サトウ配管,,有限会社,宮城県,柴田郡村田町,大字沼辺字新若宮脇１８６番地,,04,322,9891321,,,2022-07-20,清算の結了等,,,2015-10-05,1,,,,,サトウハイカン,0
1457,5380001005773,登記記録の閉鎖等,0,2022-08-02,2022-07-25,タツタ建設株式会社,,株式会社,福島県,郡山市,富田町字向舘８３番地,,07,203,9638041,,,2022-07-25,清算の結了等,,,2015-10-05,1,,,,,,0
1464,5430001052686,登記記録の閉鎖等,0,2022-08-02,2022-07-20,株式会社大内工務店,,株式会社,北海道,苫小牧市,日吉町３丁目１０番２号,,01,213,0530816,,,2022-07-20,清算の結了等,,,2015-10-05,1,,,,,オオウチコウムテン,0
1469,5430002038239,登記記録の閉鎖等,0,2022-08-02,2022-07-04,有限会社北海道園芸センター札幌,,有限会社,北海道,札幌市北区,新琴似町７８７番地１,,01,102,0010915,,,2022-07-04,合併による解散等,8430002039473,令和４年７月１日札幌市北区新琴似町７８７番地１株式会社エール商事（8430002039473）に合併し解散,2015-10-05,1,,,,,ホッカイドウエンゲイセンターサッポロ,0
1479,5480001010219,登記記録の閉鎖等,0,2022-08-02,2022-08-01,株式会社美郷の湯,,株式会社,徳島県,吉野川市,美郷字奥丸７５番地,,36,205,7793505,,,2022-08-01,清算の結了等,,,2017-12-22,1,,,,,ミサトノユ,0
1517,6010401092811,登記記録の閉鎖等,0,2022-08-02,2022-07-19,株式会社メディア・パートナーズ,,株式会社,東京都,港区,高輪２丁目２番１８号,,13,103,1080074,,,2022-07-19,清算の結了等,,,2015-10-05,1,,,,,,0
1520,6010401099955,登記記録の閉鎖等,0,2022-08-02,2022-07-08,株式会社サービストラスト,,株式会社,東京都,港区,赤坂２丁目９番１１号,,13,103,1070052,,,2022-07-08,清算の結了等,,,2015-10-05,1,,,,,サービストラスト,0
1535,6010902005346,登記記録の閉鎖等,0,2022-08-02,2022-07-27,有限会社ケーアンドエム,,有限会社,東京都,世田谷区,下馬４丁目２３番２号,,13,112,1540002,,,2022-07-27,清算の結了等,,,2015-10-05,1,,,,,ケーアンドエム,0
1545,6011101004619,登記記録の閉鎖等,0,2022-08-02,2022-07-28,加藤高層住宅株式会社,,株式会社,東京都,新宿区,下落合１丁目１０番７号,,13,104,1610033,,,2022-07-28,清算の結了等,,,2015-10-05,1,,,,,カトウコウソウジュウタク,0
1554,6011105000746,登記記録の閉鎖等,0,2022-08-02,2022-07-28,余丁町基督教会,,その他の設立登記法人,東京都,新宿区,若松町１２番１２号,,13,104,1620056,,,2022-07-28,清算の結了等,,,2015-10-05,1,,,,,ヨチョウマチキリストキョウカイ,0
1566,6011702002789,登記記録の閉鎖等,0,2022-08-02,2022-07-29,有限会社加瀬製作所,,有限会社,東京都,江戸川区,鹿骨１丁目５５番１６号,,13,123,1330073,,,2022-07-29,清算の結了等,,,2015-10-05,1,,,,,カセセイサクショ,0
1572,6012801000907,登記記録の閉鎖等,0,2022-08-02,2022-07-29,多摩メンテナス工業株式会社,,株式会社,東京都,西多摩郡日の出町,大字平井１１７３番地,,13,305,1900182,,,2022-07-29,清算の結了等,,,2015-10-05,1,,,,,タマメンテナスコウギョウ,0
1590,6021003003684,登記記録の閉鎖等,0,2022-08-02,2022-07-28,合同会社解体王,,合同会社,神奈川県,藤沢市,石川６３５番地７,,14,205,2520815,,,2022-07-28,清算の結了等,,,2015-10-05,1,,,,,カイタイオウ,0
1599,6030002089247,登記記録の閉鎖等,0,2022-08-02,2022-07-20,有限会社卯月構造設計室,,有限会社,埼玉県,北葛飾郡松伏町,ゆめみ野３丁目５番地７,,11,465,3430113,,,2022-07-20,清算の結了等,,,2015-10-05,1,,,,,ウヅキコウゾウセッケイシツ,0
1600,6030002100938,登記記録の閉鎖等,0,2022-08-02,2022-07-13,有限会社エッグス,,有限会社,埼玉県,川口市,南鳩ヶ谷５丁目１５番１３号,,11,203,3340013,,,2022-07-13,清算の結了等,,,2015-10-05,1,,,,,エッグス,0
1618,6040005002817,登記記録の閉鎖等,0,2022-08-02,2022-07-08,天理教本南正分教会,,その他の設立登記法人,千葉県,船橋市,南本町３０番１号,,12,204,2730004,,,2022-07-08,合併による解散等,9011705000218,令和４年７月４日東京都江戸川区平井四丁目１８番２３号天理教本南分教会（9011705000218）に合併し解散,2015-10-05,1,,,,,,0
1627,6060002028144,登記記録の閉鎖等,0,2022-08-02,2022-07-26,有限会社神山電気商会,,有限会社,栃木県,小山市,大字南小林９４番地,,09,208,3230057,,,2022-07-26,清算の結了等,,,2015-10-05,1,,,,,カミヤマデンキショウカイ,0
1636,6100001017713,登記記録の閉鎖等,0,2022-08-02,2022-07-27,株式会社イリイチ上松,,株式会社,長野県,木曽郡上松町,大字小川１９７５番地,,20,422,3995607,,,2022-07-27,清算の結了等,,,2015-10-05,1,,,,,イリイチアゲマツ,0
1639,6110002027454,登記記録の閉鎖等,0,2022-08-02,2022-07-28,有限会社グランドオートサービス社,,有限会社,新潟県,長岡市,笹崎１丁目２番地２,,15,202,9400833,,,2022-07-28,清算の結了等,,,2015-10-05,1,,,,,グランドオートサービスシャ,0
1670,6140001059842,登記記録の閉鎖等,0,2022-08-02,2022-07-29,大御幸ビル株式会社,,株式会社,兵庫県,姫路市,駅前町２６７番地,,28,201,6700927,,,2022-07-29,清算の結了等,,,2015-10-05,1,,,,,オオミユキビル,0
1682,6180001019801,登記記録の閉鎖等,0,2022-08-02,2022-07-28,須藤ネジ株式会社,,株式会社,愛知県,名古屋市中川区,八家町１丁目４９番地,,23,110,4540835,,,2022-07-28,清算の結了等,,,2015-10-05,1,,,,,スドウネジ,0
1684,6180001042101,登記記録の閉鎖等,0,2022-08-02,2022-07-28,株式会社渡邉勝則デザイン研究所,,株式会社,愛知県,名古屋市中区,丸の内３丁目６番１９号３０２号室,,23,106,4600002,,,2022-07-28,清算の結了等,,,2015-10-05,1,,,,,ワタナベカツノリデザインケンキュウショ,0
1712,6250001011024,登記記録の閉鎖等,0,2022-08-02,2022-07-28,株式会社下松テクノ,,株式会社,山口県,下松市,大字河内２７７０番地７,,35,207,7440061,,,2022-07-28,清算の結了等,,,2015-10-05,1,,,,,クダマツテクノ,0
1732,6320002018242,登記記録の閉鎖等,0,2022-08-02,2022-07-29,有限会社大津留商店,,有限会社,大分県,豊後大野市,犬飼町犬飼１０番地,,44,212,8797301,,,2022-07-29,清算の結了等,,,2015-10-05,1,,,,,オオツルショウテン,0
1735,6330002022672,登記記録の閉鎖等,0,2022-08-02,2022-07-20,有限会社ＩＯ技研,,有限会社,熊本県,玉名市,安楽寺４７１番地,,43,206,8650014,,,2022-07-20,清算の結了等,,,2015-10-05,1,,,,,アイオーギケン,0
1737,6340001022227,登記記録の閉鎖等,0,2022-08-02,2022-08-01,株式会社Ｋ　ｓｍｉｌｅ　ｐｒｏｊｅｃｔ,,株式会社,鹿児島県,姶良市,東餅田２６８０番地６８,,46,225,8995421,,,2022-08-01,合併による解散等,5340001009869,令和４年７月３１日鹿児島県熊毛郡屋久島町宮之浦１２０８番地９株式会社シーサイドホテル屋久島（5340001009869）に合併し解散,2019-08-29,1,,,,,ケースマイルプロジェクト,0
1743,6370002010946,登記記録の閉鎖等,0,2022-08-02,2022-07-19,有限会社紺野製本所,,有限会社,宮城県,仙台市青葉区,八幡２丁目７番２号,,04,101,9800871,,,2022-07-19,清算の結了等,,,2015-10-05,1,,,,,コンノセイホンジョ,0
1754,6430001026020,登記記録の閉鎖等,0,2022-08-02,2022-07-21,コンチネンタルツアーズ株式会社,,株式会社,北海道,札幌市中央区,南一条西１１丁目１番地,,01,101,0600061,,,2022-07-21,清算の結了等,,,2015-10-05,1,,,,,コンチネンタルツアーズ,0
1757,6470001007388,登記記録の閉鎖等,0,2022-08-02,2022-07-29,株式会社竹内食品工業所,,株式会社,香川県,丸亀市,津森町５９３番地,,37,202,7630052,,,2022-07-29,清算の結了等,,,2015-10-05,1,,,,,タケウチショクヒンコウギョウショ,0
1773,7010001087483,登記記録の閉鎖等,0,2022-08-02,2022-07-19,株式会社ピンポインター,,株式会社,東京都,千代田区,内神田１丁目５番６－７０１号,,13,101,1010047,,,2022-07-19,清算の結了等,,,2015-10-05,1,,,,,ピンポインター,0
1825,7011105004911,登記記録の閉鎖等,0,2022-08-02,2022-07-27,はやぶさ監査法人,,その他の設立登記法人,東京都,新宿区,揚場町２番１８号,,13,104,1620824,,,2022-07-27,清算の結了等,,,2015-10-05,1,,,,,ハヤブサ,0
1839,7011702013579,登記記録の閉鎖等,0,2022-08-02,2022-07-29,有限会社エム・エイチ・プロモーション,,有限会社,東京都,江戸川区,江戸川５丁目１３番１０号,,13,123,1340013,,,2022-07-29,清算の結了等,,,2015-10-05,1,,,,,エムエイチプロモーション,0
1869,7020001123551,登記記録の閉鎖等,0,2022-08-02,2022-07-21,株式会社マルタファーム,,株式会社,神奈川県,横浜市港北区,樽町４丁目１４番３４号,,14,109,2220001,,,2022-07-21,清算の結了等,,,2017-10-25,1,,,,,マルタファーム,0
1871,7020002077648,登記記録の閉鎖等,0,2022-08-02,2022-07-15,有限会社秋山システム・コンサルティング,,有限会社,神奈川県,横浜市栄区,桂台南２丁目３０番２号,,14,115,2470033,,,2022-07-15,清算の結了等,,,2015-10-05,1,,,,,アキヤマシステムコンサルティング,0
1885,7030002030465,登記記録の閉鎖等,0,2022-08-02,2022-07-20,有限会社ナガイプラスチック,,有限会社,埼玉県,所沢市,大字南永井４００番地,,11,208,3590011,,,2022-07-20,清算の結了等,,,2015-10-05,1,,,,,ナガイプラスチック,0
1886,7030002088124,登記記録の閉鎖等,0,2022-08-02,2022-07-21,有限会社みかわや,,有限会社,埼玉県,越谷市,大字増林４５６６番地,,11,222,3430011,,,2022-07-21,清算の結了等,,,2015-10-05,1,,,,,ミカワヤ,0
1889,7030005013871,登記記録の閉鎖等,0,2022-08-02,2022-07-04,天理教北武行分教会,,その他の設立登記法人,埼玉県,行田市,大字和田２０６番地の１,,11,206,3610061,,,2022-07-04,合併による解散等,6030005013864,令和４年７月４日埼玉県行田市本丸６番１３号天理教武行分教会（6030005013864）に合併し解散,2015-10-05,1,,,,,テンリキョウキタタケユキブンキョウカイ,0
1905,7080402005112,登記記録の閉鎖等,0,2022-08-02,2022-08-01,有限会社ツルヤ開発,,有限会社,静岡県,浜松市中区,幸３丁目１１番１５号,,22,131,4338123,,,2022-08-01,清算の結了等,,,2015-10-05,1,,,,,ツルヤカイハツ,0
1909,7100001020625,登記記録の閉鎖等,0,2022-08-02,2022-07-26,あるしんリース株式会社,,株式会社,長野県,伊那市,荒井３４３８番地１,,20,209,3960025,,,2022-07-26,清算の結了等,,,2015-10-05,1,,,,,アルシンリース,0
1911,7100002029021,登記記録の閉鎖等,0,2022-08-02,2022-07-26,有限会社ミヤザワ商事,,有限会社,長野県,諏訪市,湖岸通り５丁目１０番１０号,,20,206,3920027,,,2022-07-26,清算の結了等,,,2015-10-05,1,,,,,ミヤザワショウジ,0
1912,7110001011391,登記記録の閉鎖等,0,2022-08-02,2022-07-28,株式会社百津屋酒店,,株式会社,新潟県,阿賀野市,中島町８番３号,,15,223,9592024,,,2022-07-28,清算の結了等,,,2015-10-05,1,,,,,モモヅヤサケテン,0
1914,7110001032743,登記記録の閉鎖等,0,2022-08-02,2022-07-12,ｂｅｓｔｉｅ株式会社,,株式会社,東京都,中央区,日本橋小伝馬町１０番８号第一林ビル３０１号室,,13,102,1030001,,,2022-07-12,清算の結了等,,,2017-10-06,1,,,,,ベスティ,0
1917,7120001049786,登記記録の閉鎖等,0,2022-08-02,2022-07-28,昌和自動車株式会社,,株式会社,大阪府,大阪市西淀川区,花川２丁目２１番８号,,27,113,5550023,,,2022-07-28,清算の結了等,,,2015-10-05,1,,,,,ショウワジドウシャ,0
1946,7140001042319,登記記録の閉鎖等,0,2022-08-02,2022-07-28,ホームランド２４株式会社,,株式会社,兵庫県,明石市,大久保町高丘１丁目３番地の１,,28,203,6740057,,,2022-07-28,清算の結了等,,,2015-10-05,1,,,,,ホームランドニジュウヨン,0
1958,7160001016675,登記記録の閉鎖等,0,2022-08-02,2022-07-29,株式会社料和,,株式会社,滋賀県,草津市,野村５丁目２３番３号,,25,206,5250027,,,2022-07-29,清算の結了等,,,2015-10-05,1,,,,,リョウワ,0
1959,7160001023077,登記記録の閉鎖等,0,2022-08-02,2022-07-29,株式会社農地所有適格法人ＳＨＯＫＩファーム,,株式会社,滋賀県,湖南市,菩提寺西３丁目９番１２号,,25,211,5203248,,,2022-07-29,清算の結了等,,,2021-02-05,1,,,,,ノウチショユウテキカクホウジンショウキファーム,0
1974,7190001000750,登記記録の閉鎖等,0,2022-08-02,2022-07-25,株式会社トップハウス,,株式会社,三重県,津市,広明町４１８番地１,,24,201,5140006,,,2022-07-25,清算の結了等,,,2022-06-21,1,,,,,トップハウス,0
1979,7200001039738,登記記録の閉鎖等,0,2022-08-02,2022-08-01,野田グループ太進建設株式会社,,株式会社,岐阜県,羽島郡笠松町,北及６４７番地,,21,303,5016064,,,2022-08-01,清算の結了等,,,2022-02-10,1,,,,,ノダグループタイシンケンセツ,0
1981,7200002002843,登記記録の閉鎖等,0,2022-08-02,2022-08-01,有限会社タケヒロ,,有限会社,岐阜県,岐阜市,茜部中島１丁目１４０番地の４,,21,201,5008269,,,2022-08-01,清算の結了等,,,2015-10-05,1,,,,,タケヒロ,0
1982,7200002014616,登記記録の閉鎖等,0,2022-08-02,2022-07-27,有限会社サン商事,,有限会社,岐阜県,海津市,海津町外浜８２番地の１,,21,221,5030621,,,2022-07-27,清算の結了等,,,2015-10-05,1,,,,,サンショウジ,0
1985,7220001006372,登記記録の閉鎖等,0,2022-08-02,2022-07-27,株式会社北陸セルコ,,株式会社,石川県,金沢市,弥勒町ロ７１番地,,17,201,9203115,,,2022-07-27,清算の結了等,,,2015-10-05,1,,,,,ホクリクセルコ,0
1998,7250002019767,登記記録の閉鎖等,0,2022-08-02,2022-07-27,有限会社データサプライ,,有限会社,山口県,柳井市,柳井４７０８番地の６,,35,212,7420021,,,2022-07-27,清算の結了等,,,2015-10-05,1,,,,,データサプライ,0
2004,7290001031182,登記記録の閉鎖等,0,2022-08-02,2022-07-22,株式会社中村技術士事務所,,株式会社,福岡県,福岡市東区,香椎駅東４丁目４２番４号,,40,131,8130012,,,2022-07-22,清算の結了等,,,2015-10-05,1,,,,,ナカムラギジュツシジムショ,0
2012,7290802002150,登記記録の閉鎖等,0,2022-08-02,2022-08-01,有限会社黒川商店,,有限会社,福岡県,北九州市戸畑区,南鳥旗町１番４号,,40,105,8040074,,,2022-08-01,清算の結了等,,,2015-10-05,1,,,,,クロカワショウテン,0
2046,7490001007377,登記記録の閉鎖等,0,2022-08-02,2022-07-28,株式会社ＩＮＬＩＧＨＴ,,株式会社,高知県,高知市,鴨部１１２２番地１,,39,201,7808050,,,2022-07-28,清算の結了等,,,2015-10-05,1,,,,,インライト,0
2053,8010001209664,登記記録の閉鎖等,0,2022-08-02,2022-07-13,株式会社チェンジアンドパートナーズ,,株式会社,東京都,千代田区,九段南１丁目５番６号りそな九段ビル５階ＫＳフロア,,13,101,1020074,,,2022-07-13,清算の結了等,,,2020-05-15,1,,,,,チェンジアンドパートナーズ,0
2063,8010003030358,登記記録の閉鎖等,0,2022-08-02,2022-07-15,合同会社Ａｌｐｈａ　Ｐｒｏｊｅｃｔ１号,,合同会社,東京都,千代田区,霞が関３丁目２番１号霞が関コモンゲート西館２０階,,13,101,1000013,,,2022-07-15,清算の結了等,,,2019-08-06,1,,,,,アルファプロジェクトイチゴウ,0
2064,8010102000204,登記記録の閉鎖等,0,2022-08-02,2022-07-19,有限会社秋設計総合企画,,有限会社,東京都,八王子市,楢原町４５７番地,00050267,13,201,1930803,,,2022-07-19,清算の結了等,,,2015-10-05,1,,,,,アキセッケイソウゴウキカク,0
2092,8011101068827,登記記録の閉鎖等,0,2022-08-02,2022-08-01,株式会社Ｋａｉ,,株式会社,福岡県,北九州市門司区,光町１丁目１０番２２号,,40,101,8000046,,,2022-08-01,清算の結了等,,,2015-10-05,1,,,,,カイ,0
2110,8012401021021,登記記録の閉鎖等,0,2022-08-02,2022-07-29,スプロッグシステムズ株式会社,,株式会社,東京都,杉並区,西荻北４丁目１－８ガーデン西荻窪２１３,,13,115,1670042,,,2022-07-29,清算の結了等,,,2015-10-05,1,,,,,スプロッグシステムズ,0
2117,8012803001975,登記記録の閉鎖等,0,2022-08-02,2022-07-26,合同会社ＲＲＩＮＣ,,合同会社,東京都,日野市,日野本町４丁目１０番地の３２,,13,212,1910011,,,2022-07-26,清算の結了等,,,2019-02-20,1,,,,,アールアールインク,0
2139,8030003003361,登記記録の閉鎖等,0,2022-08-02,2022-07-21,合同会社松場工業,,合同会社,埼玉県,越谷市,新川町１丁目４４７番地６,,11,222,3430852,,,2022-07-21,清算の結了等,,,2015-10-05,1,,,,,マツバコウギョウ,0
2140,8030005017517,登記記録の閉鎖等,0,2022-08-02,2022-07-21,特定非営利活動法人さいたま県防災教育振興協会,,その他の設立登記法人,埼玉県,川越市,岸町１丁目４４番地８０,,11,201,3501131,,,2022-07-21,清算の結了等,,,2015-10-05,1,,,,,サイタマケンボウサイキョウイクシンコウキョウカイ,0
2160,8080002007061,登記記録の閉鎖等,0,2022-08-02,2022-08-01,有限会社ヒロシステム,,有限会社,静岡県,静岡市葵区,本通１丁目２番４号,,22,101,4200064,,,2022-08-01,清算の結了等,,,2015-10-05,1,,,,,ヒロシステム,0
2162,8080401002943,登記記録の閉鎖等,0,2022-08-02,2022-08-01,株式会社大七商店,,株式会社,静岡県,浜松市中区,中央２丁目８番２３号,,22,131,4300929,,,2022-08-01,清算の結了等,,,2015-10-05,1,,,,,ダイナナショウテン,0
2163,8080401024921,登記記録の閉鎖等,0,2022-08-02,2022-07-28,株式会社タロの畑,,株式会社,静岡県,菊川市,下内田３４３６番地の２,,22,224,4390034,,,2022-07-28,清算の結了等,,,2021-03-29,1,,,,,タロノハタケ,0
2184,8120001224405,登記記録の閉鎖等,0,2022-08-02,2022-07-05,株式会社開森,,株式会社,大阪府,大阪市淀川区,西宮原３丁目２番１－４２７号,,27,123,5320004,,,2022-07-05,清算の結了等,,,2019-10-11,1,,,,,カイシン,0
2195,8120002056582,登記記録の閉鎖等,0,2022-08-02,2022-07-27,有限会社アールブルー,,有限会社,大阪府,大阪市中央区,北久宝寺町１丁目９番６号,,27,128,5410057,,,2022-07-27,清算の結了等,,,2015-10-05,1,,,,,,0
2203,8120101055642,登記記録の閉鎖等,0,2022-08-02,2022-07-29,株式会社クリーン,,株式会社,大阪府,泉南郡熊取町,大久保南５丁目３番１号,,27,361,5900405,,,2022-07-29,清算の結了等,,,2016-11-09,1,,,,,,0
2227,8160001018398,登記記録の閉鎖等,0,2022-08-02,2022-07-26,株式会社中嶋不動産,,株式会社,滋賀県,大津市,松山町１０番３０号,,25,201,5200024,,,2022-07-26,清算の結了等,,,2015-10-05,1,,,,,ナカジマフドウサン,0
2234,8170002002920,登記記録の閉鎖等,0,2022-08-02,2022-08-01,日世ファインケミカル有限会社,,有限会社,和歌山県,和歌山市,吉礼６３番地の１,,30,201,6400351,,,2022-08-01,清算の結了等,,,2015-10-05,1,,,,,ニッセイファインケミカル,0
2239,8180001058541,登記記録の閉鎖等,0,2022-08-02,2022-07-28,株式会社ＣＨＡＩＲＺ,,株式会社,愛知県,名古屋市港区,善進本町４３２番地,,23,111,4550813,,,2022-07-28,清算の結了等,,,2015-10-05,1,,,,,チャイルズ,0
2249,8180005011637,登記記録の閉鎖等,0,2022-08-02,2022-07-21,特定非営利活動法人ワールドワークサポート,,その他の設立登記法人,愛知県,名古屋市中川区,吉良町１７８番地の４,,23,110,4540874,,,2022-07-21,清算の結了等,,,2015-10-05,1,,,,,ワールドワークサポート,0
2257,8200002010960,登記記録の閉鎖等,0,2022-08-02,2022-08-01,有限会社戸田,,有限会社,岐阜県,羽島郡笠松町,奈良町２４番地の２,,21,303,5016041,,,2022-08-01,清算の結了等,,,2015-10-05,1,,,,,トダ,0
2274,8250005001259,登記記録の閉鎖等,0,2022-08-02,2022-07-26,医療法人亀田医院,,その他の設立登記法人,山口県,山口市,徳地堀１７４６番地,,35,203,7470231,,,2022-07-26,清算の結了等,,,2015-10-05,1,,,,,カメダイイン,0
2307,8370201003195,登記記録の閉鎖等,0,2022-08-02,2022-07-13,株式会社小野良建設,,株式会社,宮城県,栗原市,金成沢辺町沖２２３番地,,04,213,9895171,,,2022-07-13,合併による解散等,3370201003712,令和４年７月１０日宮城県栗原市金成沢辺町沖２２４番地くりはら新エネルギー開発株式会社（3370201003712）に合併し解散,2015-10-05,1,,,,,オノヨシケンセツ,0
2343,9010001174817,登記記録の閉鎖等,0,2022-08-02,2022-07-13,Ｃｌｉｎｌｏｇｉｘ　Ｊａｐａｎ株式会社,,株式会社,東京都,千代田区,麹町５丁目２－１,,13,101,1020083,,,2022-07-13,清算の結了等,,,2016-04-12,1,,,,,クリンロジックスジャパン,0
2348,9010003021001,登記記録の閉鎖等,0,2022-08-02,2022-07-14,日光１７４ロマンツェ東灘合同会社,,合同会社,東京都,千代田区,丸の内３丁目１番１号東京共同会計事務所内,,13,101,1000005,,,2022-07-14,清算の結了等,,,2015-10-05,1,,,,,ニッコウワンハンドレッドセブンティーフォーロマンツェヒガシナダ,0
2349,9010005001372,登記記録の閉鎖等,0,2022-08-02,2022-07-22,駒込酒販協同組合,,その他の設立登記法人,東京都,文京区,本駒込１丁目１１番３号,,13,105,1130021,,,2022-07-22,清算の結了等,,,2015-10-05,1,,,,,コマゴメシュハン,0
2371,9011001109779,登記記録の閉鎖等,0,2022-08-02,2022-07-14,株式会社ツナギテ,,株式会社,東京都,渋谷区,渋谷１丁目３番１８号ビラ・モデルナＢ６０１,,13,113,1500002,,,2022-07-14,清算の結了等,,,2016-03-01,1,,,,,ツナギテ,0
2385,9011602004024,登記記録の閉鎖等,0,2022-08-02,2022-07-27,有限会社小窓,,有限会社,東京都,練馬区,石神井町３丁目２７番２０号,,13,120,1770041,,,2022-07-27,清算の結了等,,,2015-10-05,1,,,,,コマド,0
2395,9012801019936,登記記録の閉鎖等,0,2022-08-02,2022-07-28,ラファクト株式会社,,株式会社,東京都,杉並区,和泉１丁目２２番１９号,,13,115,1680063,,,2022-07-28,清算の結了等,,,2020-01-28,1,,,,,ラファクト,0
2399,9013301021143,登記記録の閉鎖等,0,2022-08-02,2022-07-11,株式会社アイ・ニュース事業,,株式会社,東京都,豊島区,北大塚２丁目２番７号,,13,116,1700004,,,2022-07-11,清算の結了等,,,2015-10-05,1,,,,,アイニュースジギョウ,0
2415,9021002012576,登記記録の閉鎖等,0,2022-08-02,2022-07-27,有限会社神奈研,,有限会社,神奈川県,茅ヶ崎市,松尾２番地１３号,,14,207,2530065,,,2022-07-27,清算の結了等,,,2015-10-05,1,,,,,カナケン,0
2416,9021002040998,登記記録の閉鎖等,0,2022-08-02,2022-07-27,有限会社三盛商事,,有限会社,神奈川県,大和市,上草柳７丁目２番５号,,14,213,2420029,,,2022-07-27,清算の結了等,,,2015-10-05,1,,,,,サンセイショウジ,0
2419,9021005002120,登記記録の閉鎖等,0,2022-08-02,2022-07-27,鎌倉彫振興協同組合,,その他の設立登記法人,神奈川県,鎌倉市,長谷１丁目１１番２６号,,14,204,2480016,,,2022-07-27,清算の結了等,,,2015-10-05,1,,,,,カマクラボリシンコウ,0
2438,9050001033886,登記記録の閉鎖等,0,2022-08-02,2022-07-25,根本製作所株式会社,,株式会社,茨城県,鹿嶋市,大字下塙１４３８番地,,08,222,3140025,,,2022-07-25,清算の結了等,,,2015-10-05,1,,,,,,0
2445,9060002036012,登記記録の閉鎖等,0,2022-08-02,2022-07-26,有限会社栗原創造経営研究所,,有限会社,栃木県,足利市,大橋町２丁目１８１６番地,,09,202,3260051,,,2022-07-26,清算の結了等,,,2015-10-05,1,,,,,クリハラソウゾウケイエイケンキュウジョ,0
2458,9080102011557,登記記録の閉鎖等,0,2022-08-02,2022-08-01,有限会社北海重機,,有限会社,静岡県,三島市,三恵台３番地の１,,22,206,4110017,,,2022-08-01,清算の結了等,,,2015-10-05,1,,,,,ホッカイジュウキ,0
2464,9110002008187,登記記録の閉鎖等,0,2022-08-02,2022-07-28,有限会社博電社,,有限会社,新潟県,新潟市江南区,亀田本町２丁目６番２６号,,15,104,9500164,,,2022-07-28,清算の結了等,,,2015-10-05,1,,,,,ハクデンシャ,0
2466,9120001051229,登記記録の閉鎖等,0,2022-08-02,2022-08-01,株式会社イフタフヤー・シムシム,,株式会社,大阪府,大阪市東淀川区,豊里２丁目２４番３号石川マンション１階,,27,114,5330013,,,2022-08-01,清算の結了等,,,2015-10-05,1,,,,,イフタフヤーシムシム,0
2506,9180002084115,登記記録の閉鎖等,0,2022-08-02,2022-07-28,有限会社ユーフーズ,,有限会社,愛知県,半田市,瑞穂町３丁目３番地の２３,,23,205,4750828,,,2022-07-28,清算の結了等,,,2015-10-05,1,,,,,ユーフーズ,0
2509,9180305008480,登記記録の閉鎖等,0,2022-08-02,2022-07-19,一般社団法人日本お片づけセラピスト協会,,その他の設立登記法人,愛知県,豊橋市,吉川町６８番地の１,,23,201,4418002,,,2022-07-19,清算の結了等,,,2016-01-28,1,,,,,ニホンオカタヅケセラピストキョウカイ,0
2513,9190001012793,登記記録の閉鎖等,0,2022-08-02,2022-07-27,長榮鋼研株式会社,,株式会社,三重県,桑名市,長島町白鶏３２０番地,,24,205,5111136,,,2022-07-27,清算の結了等,,,2015-10-05,1,,,,,チョウエイコウケン,0
2517,9200002009853,登記記録の閉鎖等,0,2022-08-02,2022-08-01,有限会社ヤスマ,,有限会社,岐阜県,瑞穂市,稲里４４５番地の１,,21,216,5010224,,,2022-08-01,清算の結了等,,,2015-10-05,1,,,,,ヤスマ,0
2522,9220001023119,登記記録の閉鎖等,0,2022-08-02,2022-07-28,Ａｒａｉ　ＵＤ　Ｗｏｒｋｓｈｏｐ株式会社,,株式会社,石川県,金沢市,つつじが丘２６３番地,,17,201,9218103,,,2022-07-28,清算の結了等,,,2019-09-20,1,,,,,アライユーディーワークショップ,0
2524,9220002003425,登記記録の閉鎖等,0,2022-08-02,2022-07-29,有限会社セベラルオートサービス,,有限会社,石川県,金沢市,間明二丁目６３番地,,17,201,9200000,,,2022-07-29,清算の結了等,,,2015-10-05,1,,,,,セベラルオートサービス,0
2536,9270003001118,登記記録の閉鎖等,0,2022-08-02,2022-07-11,合同会社Ｌａｚｙ　Ｅｇｇ　Ｃａｒｅ　Ｐｌａｎｎｉｎｇ,,合同会社,鳥取県,鳥取市,卯垣４丁目３７１番地,,31,201,6800074,,,2022-07-11,清算の結了等,,,2019-01-31,1,,,,,レイジーエッグケアプランニング,0
2554,9320001010552,登記記録の閉鎖等,0,2022-08-02,2022-08-01,株式会社Ｉ．Ｔ．Ｏ,,株式会社,大分県,日田市,城町１丁目４２５番１,,44,204,8770004,,,2022-08-01,清算の結了等,,,2015-10-05,1,,,,,アイティオー,0
2569,9370402002152,登記記録の閉鎖等,0,2022-08-02,2022-07-21,有限会社丸武建設,,有限会社,宮城県,登米市,中田町上沼字籠壇１１４番地の１,,04,212,9870602,,,2022-07-21,清算の結了等,,,2015-10-05,1,,,,,マルタケケンセツ,0
2574,9400001003614,登記記録の閉鎖等,0,2022-08-02,2022-08-01,小岩井農産株式会社,,株式会社,岩手県,岩手郡雫石町,丸谷地３６番地１,,03,301,0200507,,,2022-08-01,清算の結了等,,,2015-10-05,1,,,,,コイワイノウサン,0
2577,9410001012795,登記記録の閉鎖等,0,2022-08-02,2022-07-26,秋田由利本荘洋上ウインドエナジー株式会社,,株式会社,秋田県,由利本荘市,川口字大覚１８２番地本荘由利産学共同研究センター,,05,210,0150051,,,2022-07-26,清算の結了等,,,2021-04-14,1,,,,,アキタユリホンジョウヨウジョウウインドエナジー,0
2590,9470002004464,登記記録の閉鎖等,0,2022-08-02,2022-08-01,有限会社谷一石油,,有限会社,香川県,高松市,西植田町３０２９番地３,,37,201,7610445,,,2022-08-01,清算の結了等,,,2015-10-05,1,,,,,タニイチセキユ,0
2591,9470002006675,登記記録の閉鎖等,0,2022-08-02,2022-08-01,有限会社三井紙器工業所,,有限会社,香川県,高松市,錦町２丁目１７番１０号,,37,201,7600020,,,2022-08-01,清算の結了等,,,2015-10-05,1,,,,,ミツイシキコウギョウショ,0
2592,9470002017945,登記記録の閉鎖等,0,2022-08-02,2022-07-29,有限会社ハーツ,,有限会社,香川県,さぬき市,志度２１４６番地３,,37,206,7692101,,,2022-07-29,清算の結了等,,,2015-10-05,1,,,,,ハーツ,0
