sequenceNumber,corporateNumber,process,correct,updateDate,changeDate,name,nameImageId,kind,prefectureName,cityName,streetNumber,addressImageId,prefectureCode,cityCode,postCode,addressOutside,addressOutsideImageId,closeDate,closeCause,successorCorporateNumber,changeCause,assignmentDate,latest,enName,enPrefectureName,enCityName,enAddressOutside,furigana,hihyoji
7,1010001223738,新規,0,2022-01-14,2022-01-14,株式会社あいうえお,,株式会社,東京都,千代田区,飯田橋１丁目８－９ニューシティハイツ飯田橋７０７,,13,101,1020072,,,,,,,2022-01-14,1,,,,,アイウエオ,0
8,1010001223787,新規,0,2022-01-14,2022-01-14,株式会社東仙ぷらす,,株式会社,東京都,中央区,築地６丁目１４番６号,,13,102,1040045,,,,,,,2022-01-14,1,,,,,トウセンプラス,0
9,1010001223878,新規,0,2022-01-14,2022-01-14,ＱｕａｒｋＴｗｉｎ　Ｔｅｃｈｎｏｌｏｇｙ株式会社,,株式会社,東京都,中央区,東日本橋２丁目２８番５号５０８,,13,102,1030004,,,,,,,2022-01-14,1,,,,,クォークツインテクノロジー,0
10,1010001223886,新規,0,2022-01-14,2022-01-14,Ｇホールディングス株式会社,,株式会社,東京都,中央区,日本橋室町２丁目４番３号,,13,102,1030022,,,,,,,2022-01-14,1,,,,,ジーホールディングス,0
13,1010003036741,新規,0,2022-01-14,2022-01-14,サンカイノカミ合同会社,,合同会社,東京都,中央区,銀座１丁目２２番１１号銀座大竹ビジデンス２階,,13,102,1040061,,,,,,,2022-01-14,1,,,,,サンカイノカミ,0
26,1010401164714,新規,0,2022-01-14,2022-01-14,株式会社ポイント機構,,株式会社,東京都,港区,赤坂３丁目１３番３号,,13,103,1070052,,,,,,,2022-01-14,1,,,,,ポイントキコウ,0
27,1010401164846,新規,0,2022-01-14,2022-01-14,株式会社ｅｎｉｓｈｉ,,株式会社,東京都,港区,西新橋３丁目１４番８－９０５号,,13,103,1050003,,,,,,,2022-01-14,1,,,,,エニシ,0
28,1010401164887,新規,0,2022-01-14,2022-01-14,株式会社スターク・インダストリーズ,,株式会社,東京都,港区,港南４丁目２番７－３４２１号,,13,103,1080075,,,,,,,2022-01-14,1,,,,,スタークインダストリーズ,0
32,1010403026838,新規,0,2022-01-14,2022-01-14,合同会社Ｄ４Ｃ,,合同会社,東京都,港区,南青山２丁目２番１５号,,13,103,1070062,,,,,,,2022-01-14,1,,,,,ディーフォーシー,0
33,1010403026854,新規,0,2022-01-14,2022-01-14,ＺＥＣ１合同会社,,合同会社,東京都,港区,虎ノ門３丁目２２番１０－２０１号,,13,103,1050001,,,,,,,2022-01-14,1,,,,,ゼックイチ,0
34,1010405020574,新規,0,2022-01-14,2022-01-14,ＺＥＣ１一般社団法人,,その他の設立登記法人,東京都,港区,虎ノ門３丁目２２番１０－２０１号,,13,103,1050001,,,,,,,2022-01-14,1,,,,,ゼックイチ,0
35,1010501048305,新規,0,2022-01-14,2022-01-14,株式会社エムズ,,株式会社,東京都,台東区,東上野３丁目１５番１３号,,13,106,1100015,,,,,,,2022-01-14,1,,,,,エムズ,0
36,1010603009337,新規,0,2022-01-14,2022-01-14,アケルアドバイザリー合同会社,,合同会社,東京都,江東区,有明３丁目７－１１,,13,108,1350063,,,,,,,2022-01-14,1,,,,,アケルアドバイザリー,0
38,1010801032652,新規,0,2022-01-14,2022-01-14,光明商事株式会社,,株式会社,東京都,大田区,西蒲田５丁目１４番１７号,,13,111,1440051,,,,,,,2022-01-14,1,,,,,コウメイショウジ,0
40,1010901050141,新規,0,2022-01-14,2022-01-14,株式会社アディショナルタイム,,株式会社,東京都,世田谷区,大蔵１丁目１６番１０－２０５号,,13,112,1570074,,,,,,,2022-01-14,1,,,,,アディショナルタイム,0
41,1010901050158,新規,0,2022-01-14,2022-01-14,美像株式会社,,株式会社,東京都,世田谷区,南烏山５丁目４番１０号１Ｆ,,13,112,1570062,,,,,,,2022-01-14,1,,,,,ビゾウ,0
42,1010901050166,新規,0,2022-01-14,2022-01-14,株式会社ＯＺ,,株式会社,東京都,世田谷区,三軒茶屋２丁目４８番１７号,,13,112,1540024,,,,,,,2022-01-14,1,,,,,オズ,0
44,1011001144899,新規,0,2022-01-14,2022-01-14,株式会社スリーネクスト,,株式会社,東京都,渋谷区,代々木２丁目１１番１２号田中ビル２Ｆ,,13,113,1510053,,,,,,,2022-01-14,1,,,,,スリーネクスト,0
45,1011001144932,新規,0,2022-01-14,2022-01-14,うちうみ造船株式会社,,株式会社,東京都,目黒区,上目黒３丁目８番１５号,,13,110,1530051,,,,,,,2022-01-14,1,,,,,ウチウミゾウセン,0
46,1011001144965,新規,0,2022-01-14,2022-01-14,株式会社ｋｏｇａｃｃｈｉ．ｃｏｍ,,株式会社,東京都,目黒区,碑文谷３丁目３－２１パレス碑文谷４０２,,13,110,1520003,,,,,,,2022-01-14,1,,,,,コガッチドットコム,0
47,1011001144981,新規,0,2022-01-14,2022-01-14,株式会社ライフ,,株式会社,東京都,渋谷区,道玄坂１丁目１６番１５号,,13,113,1500043,,,,,,,2022-01-14,1,,,,,ライフ,0
48,1011001145039,新規,0,2022-01-14,2022-01-14,株式会社ショウヒンカイハツブ,,株式会社,東京都,渋谷区,恵比寿南２丁目８番２号,,13,113,1500022,,,,,,,2022-01-14,1,,,,,ショウヒンカイハツブ,0
49,1011001145047,新規,0,2022-01-14,2022-01-14,株式会社ティータスエンタテインメント,,株式会社,東京都,目黒区,目黒本町２丁目２３番６号,,13,110,1520002,,,,,,,2022-01-14,1,,,,,ティータスエンタテインメント,0
50,1011001145063,新規,0,2022-01-14,2022-01-14,株式会社ミックスグリーン,,株式会社,東京都,渋谷区,神宮前５丁目４６番２号青山イースト＆ウェスト１階,,13,113,1500001,,,,,,,2022-01-14,1,,,,,ミックスグリーン,0
51,1011001145071,新規,0,2022-01-14,2022-01-14,株式会社ヘロン,,株式会社,東京都,目黒区,大橋２丁目４番２１号,,13,110,1530044,,,,,,,2022-01-14,1,,,,,ヘロン,0
52,1011003013986,新規,0,2022-01-14,2022-01-14,Ｌａ　Ｃｏｎｔｅｎｔｏ合同会社,,合同会社,東京都,渋谷区,神宮前６丁目２３番４号,,13,113,1500001,,,,,,,2022-01-14,1,,,,,ラコンテント,0
55,1011101097527,新規,0,2022-01-14,2022-01-14,イクェバ株式会社,,株式会社,東京都,新宿区,住吉町５－７－２０１,,13,104,1620065,,,,,,,2022-01-14,1,,,,,イクェバ,0
58,1011201023548,新規,0,2022-01-14,2022-01-14,株式会社一分の一,,株式会社,東京都,中野区,中央５丁目２４番９号,,13,114,1640011,,,,,,,2022-01-14,1,,,,,イチブンノイチ,0
59,1011303004272,新規,0,2022-01-14,2022-01-14,シーファースト合同会社,,合同会社,東京都,杉並区,西荻南１丁目２０番１５号,,13,115,1670053,,,,,,,2022-01-14,1,,,,,シーファースト,0
62,1011503005038,新規,0,2022-01-14,2022-01-14,麦田合同会社,,合同会社,東京都,北区,田端新町１丁目７－１４ビズフィールド西日暮里３１２,,13,117,1140012,,,,,,,2022-01-14,1,,,,,ムギタ,0
66,1011803004920,新規,0,2022-01-14,2022-01-14,合同会社Ｈａｌｕｎｉ,,合同会社,東京都,足立区,新田１丁目８番６―６１９号,,13,121,1230865,,,,,,,2022-01-14,1,,,,,ハルニ,0
68,1012401038757,新規,0,2022-01-14,2022-01-14,株式会社石川建業,,株式会社,東京都,三鷹市,牟礼６丁目２番１２号ヴィラ・カンターレ１０２,,13,204,1810002,,,,,,,2022-01-14,1,,,,,イシカワケンギョウ,0
70,1012403005193,新規,0,2022-01-14,2022-01-14,Ｌｅｆｔ合同会社,,合同会社,東京都,調布市,染地２丁目１０番地１－２０６号,,13,208,1820023,,,,,,,2022-01-14,1,,,,,レフト,0
72,1012801021338,新規,0,2022-01-14,2022-01-14,パースル株式会社,,株式会社,東京都,武蔵村山市,岸１丁目２７番地の１５,,13,223,2080031,,,,,,,2022-01-14,1,,,,,パースル,0
88,1020001144727,新規,0,2022-01-14,2022-01-14,株式会社Ｂｏｕｇａｉｎｖｉｌｌｅａ,,株式会社,神奈川県,川崎市中原区,小杉御殿町１丁目９４０番地２０,,14,133,2110068,,,,,,,2022-01-14,1,,,,,ブーゲンビリア,0
89,1020001144768,新規,0,2022-01-14,2022-01-14,株式会社満金富,,株式会社,神奈川県,横浜市磯子区,森４丁目１０番１７号,,14,107,2350023,,,,,,,2022-01-14,1,,,,,マンキンフ,0
90,1020001144784,新規,0,2022-01-14,2022-01-14,キノテクノ株式会社,,株式会社,神奈川県,横浜市金沢区,釜利谷南１丁目３番Ｈ－５０２号,,14,108,2360045,,,,,,,2022-01-14,1,,,,,キノテクノ,0
95,1020003021115,新規,0,2022-01-14,2022-01-14,合同会社ＴＡＹＮＡＲ,,合同会社,神奈川県,横浜市神奈川区,子安通１丁目５番９号,,14,102,2210021,,,,,,,2022-01-14,1,,,,,テイナー,0
99,1021001074922,新規,0,2022-01-14,2022-01-14,フリーチャレンジ株式会社,,株式会社,神奈川県,相模原市緑区,二本松４丁目５－２,,14,151,2520137,,,,,,,2022-01-14,1,,,,,フリーチャレンジ,0
100,1021001074930,新規,0,2022-01-14,2022-01-14,株式会社ＴＯＲ,,株式会社,神奈川県,茅ヶ崎市,堤１７番地８,,14,207,2530006,,,,,,,2022-01-14,1,,,,,トア,0
101,1021001074939,新規,0,2022-01-14,2022-01-14,ｏｎｄｏ株式会社,,株式会社,神奈川県,中郡二宮町,山西３１４番地の１０,,14,342,2590124,,,,,,,2022-01-14,1,,,,,オンド,0
102,1021001074955,新規,0,2022-01-14,2022-01-14,株式会社コノラボ,,株式会社,神奈川県,相模原市中央区,緑が丘１丁目７番２号,,14,152,2520225,,,,,,,2022-01-14,1,,,,,コノラボ,0
103,1021003011287,新規,0,2022-01-14,2022-01-14,合同会社西田,,合同会社,神奈川県,南足柄市,関本５３７番地,,14,217,2500105,,,,,,,2022-01-14,1,,,,,ニシダ,0
104,1021003011295,新規,0,2022-01-14,2022-01-14,Ｅ－Ｚ　ＰＡＹ　ＧＬＯＢＡＬ合同会社,,合同会社,神奈川県,横須賀市,本町３丁目１１番地,,14,201,2380041,,,,,,,2022-01-14,1,,,,,イージーペイグローバル,0
108,1030001146301,新規,0,2022-01-14,2022-01-14,株式会社慎美興業,,株式会社,埼玉県,川口市,八幡木１丁目７番地の１３,,11,203,3340012,,,,,,,2022-01-14,1,,,,,シンビコウギョウ,0
109,1030001146342,新規,0,2022-01-14,2022-01-14,株式会社上田興業,,株式会社,埼玉県,さいたま市見沼区,大字中川１１５５番地１１,,11,104,3370043,,,,,,,2022-01-14,1,,,,,ウエダコウギョウ,0
113,1030003018630,新規,0,2022-01-14,2022-01-14,合同会社ＡｌｌＴｒａｄｅｓ,,合同会社,埼玉県,新座市,東２丁目４番４号,,11,230,3520002,,,,,,,2022-01-14,1,,,,,オールトレード,0
114,1030005020691,新規,0,2022-01-14,2022-01-14,ＮＰＯ法人ＪＵアカデミー基金,,その他の設立登記法人,埼玉県,鶴ヶ島市,南町２丁目１番５－１０６号新鶴団地,,11,241,3502215,,,,,,,2022-01-14,1,,,,,ジェイユーアカデミーキキン,0
116,1040001121773,新規,0,2022-01-14,2022-01-14,ボーアンドベル・ジャパン株式会社,,株式会社,千葉県,市川市,新井１丁目１５番７号,,12,203,2720144,,,,,,,2022-01-14,1,,,,,ボーアンドベルジャパン,0
117,1040003019272,新規,0,2022-01-14,2022-01-14,合同会社ワンワールドジャパン,,合同会社,千葉県,千葉市美浜区,幸町２丁目１５番９棟２０２号,,12,106,2610001,,,,,,,2022-01-14,1,,,,,ワンワールドジャパン,0
123,1050001050468,新規,0,2022-01-14,2022-01-14,株式会社ＩＴＯ,,株式会社,茨城県,牛久市,猪子町７８２番地パサニアテラス２０６,,08,219,3001231,,,,,,,2022-01-14,1,,,,,イト,0
128,1060003003927,新規,0,2022-01-14,2022-01-14,ｃｏｃｏｌｏ合同会社,,合同会社,栃木県,栃木市,箱森町３６番２８号,,09,203,3280075,,,,,,,2022-01-14,1,,,,,ココロ,0
135,1080401025570,新規,0,2022-01-14,2022-01-14,トヨタホームとうかい株式会社,,株式会社,静岡県,浜松市東区,西塚町３０３番地の７,,22,132,4350044,,,,,,,2022-01-14,1,,,,,トヨタホームトウカイ,0
140,1090005007460,新規,0,2022-01-14,2022-01-14,早川地域づくり事業協同組合,,その他の設立登記法人,山梨県,南巨摩郡早川町,高住６５０番地,,19,364,4092732,,,,,,,2022-01-14,1,,,,,ハヤカワチイキヅクリ,0
145,1110001036361,新規,0,2022-01-14,2022-01-14,ＳｍｉＬｏｏｐ株式会社,,株式会社,新潟県,小千谷市,大字＿生甲２０５８番地１,00125394,15,208,9470003,,,,,,,2022-01-14,1,,,,,スマイループ,0
162,1120001243056,新規,0,2022-01-14,2022-01-14,株式会社ＬーＧＲＥＥＤ,,株式会社,大阪府,大阪市中央区,本町４丁目４番１７号,,27,128,5410053,,,,,,,2022-01-14,1,,,,,エルグリード,0
163,1120001243064,新規,0,2022-01-14,2022-01-14,株式会社さいとやドットコム,,株式会社,大阪府,大阪市此花区,朝日２丁目１８番８号３Ｆ６２０,,27,104,5540011,,,,,,,2022-01-14,1,,,,,サイトヤドットコム,0
164,1120001243080,新規,0,2022-01-14,2022-01-14,株式会社オンフォワード,,株式会社,大阪府,大阪市西区,新町３丁目１番１７号６１３,,27,106,5500013,,,,,,,2022-01-14,1,,,,,オンフォワード,0
165,1120001243089,新規,0,2022-01-14,2022-01-14,ＦＰアライズ株式会社,,株式会社,大阪府,大阪市旭区,太子橋１丁目１１番１号,,27,117,5350001,,,,,,,2022-01-14,1,,,,,エフピーアライズ,0
166,1120001243106,新規,0,2022-01-14,2022-01-14,株式会社コネクトグロー,,株式会社,大阪府,大阪市北区,梅田１丁目１番３大阪駅前第３ビル２９階１－１－１号室,,27,127,5300001,,,,,,,2022-01-14,1,,,,,コネクトグロー,0
167,1120001243114,新規,0,2022-01-14,2022-01-14,株式会社ＳＨＵＵＶＯＷ,,株式会社,大阪府,大阪市浪速区,日本橋東２丁目４番１１－３０２号,,27,111,5560006,,,,,,,2022-01-14,1,,,,,シュウボウ,0
168,1120001243130,新規,0,2022-01-14,2022-01-14,Ｎｅｘｔ　Ｌｉｎｋ株式会社,,株式会社,大阪府,大阪市中央区,淡路町１丁目３番２号紀陽オリエントビル７０２,,27,128,5410047,,,,,,,2022-01-14,1,,,,,ネクストリンク,0
169,1120001243147,新規,0,2022-01-14,2022-01-14,才高支援株式会社,,株式会社,大阪府,大阪市北区,兎我野町１５番３－１００２号,,27,127,5300056,,,,,,,2022-01-14,1,,,,,サイコウシエン,0
170,1120001243163,新規,0,2022-01-14,2022-01-14,株式会社テラ,,株式会社,大阪府,大阪市住吉区,山之内１丁目８番１５号,,27,120,5580023,,,,,,,2022-01-14,1,,,,,テラ,0
171,1120001243188,新規,0,2022-01-14,2022-01-14,株式会社ＥＮＪ,,株式会社,大阪府,大阪市西区,阿波座１丁目１２番９号大島ビル２階,,27,106,5500011,,,,,,,2022-01-14,1,,,,,イーエヌジェイ,0
172,1120001243205,新規,0,2022-01-14,2022-01-14,錦一株式会社,,株式会社,大阪府,大阪市北区,大淀南２丁目８－１１エクセランス梅田西３０３号室,,27,127,5310075,,,,,,,2022-01-14,1,,,,,キンイチ,0
174,1120003020940,新規,0,2022-01-14,2022-01-14,合同会社１８,,合同会社,大阪府,大阪市淀川区,三国本町３丁目８番１６号,,27,123,5320005,,,,,,,2022-01-14,1,,,,,ジュウハチ,0
175,1120005022704,新規,0,2022-01-14,2022-01-14,一般社団法人いきいきライフ協会中央大阪,,その他の設立登記法人,大阪府,大阪市北区,西天満２丁目８番５号西天満大治ビル６階,,27,127,5300047,,,,,,,2022-01-14,1,,,,,イキイキライフキョウカイチュウオウオオサカ,0
178,1120101064930,新規,0,2022-01-14,2022-01-14,株式会社サンジャスト,,株式会社,大阪府,羽曳野市,壺井３２０番地の１,,27,222,5830844,,,,,,,2022-01-14,1,,,,,サンジャスト,0
179,1120101064939,新規,0,2022-01-14,2022-01-14,株式会社Ｓｐｅａｒｍｉｎｔ,,株式会社,大阪府,堺市北区,百舌鳥梅北町３丁１２５番地１８７,,27,146,5918031,,,,,,,2022-01-14,1,,,,,スペアミント,0
180,1120101064947,新規,0,2022-01-14,2022-01-14,ｆｒｅｓｃｏ株式会社,,株式会社,大阪府,和泉市,小野田町２５９,,27,219,5941127,,,,,,,2022-01-14,1,,,,,フレスコ,0
183,1120103004521,新規,0,2022-01-14,2022-01-14,合同会社Ｑｕｅｅｎ　ａ　ｌａ　ｍｏｄｅ,,合同会社,大阪府,河内長野市,南花台４丁目１７番７号,,27,216,5860077,,,,,,,2022-01-14,1,,,,,クイーンアラモード,0
185,1120901045452,新規,0,2022-01-14,2022-01-14,株式会社ｇ－ｃｏｎｎｅｃｔｉｏｎ,,株式会社,大阪府,吹田市,長野東１２番１０－１０１号,,27,205,5650816,,,,,,,2022-01-14,1,,,,,ジーコネクション,0
186,1120901045460,新規,0,2022-01-14,2022-01-14,ＥＵＲＯＣＥＬＬ　ＪＡＰＡＮ株式会社,,株式会社,大阪府,池田市,住吉２丁目１４番８号,,27,204,5630033,,,,,,,2022-01-14,1,,,,,ユーロセルジャパン,0
190,1130001070854,新規,0,2022-01-14,2022-01-14,株式会社都音通,,株式会社,京都府,京都市西京区,桂上野中町１７５番地,,26,111,6158002,,,,,,,2022-01-14,1,,,,,ツウオンツウ,0
191,1130001070912,新規,0,2022-01-14,2022-01-14,株式会社Ｋ－ｓｔｙｌｅ,,株式会社,京都府,京都市山科区,四ノ宮神田町４１番地の１,,26,110,6078035,,,,,,,2022-01-14,1,,,,,ケイスタイル,0
197,1140005025993,新規,0,2022-01-14,2022-01-14,一般社団法人真経営者協会,,その他の設立登記法人,兵庫県,神戸市中央区,磯辺通３丁目２番４－７０２号,,28,110,6510084,,,,,,,2022-01-14,1,,,,,シンケイエイシャキョウカイ,0
199,1150001025229,新規,0,2022-01-14,2022-01-14,ＢＲ・ＧＡＲＡＧＥ株式会社,,株式会社,奈良県,天理市,三昧田町２０２番地,,29,204,6320046,,,,,,,2022-01-14,1,,,,,ビーアールガレージ,0
202,1160001023941,新規,0,2022-01-14,2022-01-14,株式会社ベリグ,,株式会社,滋賀県,彦根市,西今町４０６番地３,,25,202,5220054,,,,,,,2022-01-14,1,,,,,ベリグ,0
205,1170001016936,新規,0,2022-01-14,2022-01-14,ゆう不動産株式会社,,株式会社,和歌山県,岩出市,中島８１３番地の１,,30,209,6496245,,,,,,,2022-01-14,1,,,,,ユウフドウサン,0
210,1180001149487,新規,0,2022-01-14,2022-01-14,株式会社日進クリーンウッズ,,株式会社,愛知県,日進市,東山１丁目４０８番地,,23,230,4700116,,,,,,,2022-01-14,1,,,,,ニッシンクリーンウッズ,0
211,1180001149504,新規,0,2022-01-14,2022-01-14,株式会社ブルーマウンテン,,株式会社,愛知県,海部郡飛島村,大宝４丁目２３番地,,23,427,4901438,,,,,,,2022-01-14,1,,,,,ブルーマウンテン,0
212,1180001149512,新規,0,2022-01-14,2022-01-14,ツクリエ株式会社,,株式会社,愛知県,名古屋市東区,泉１丁目１２番１号ＨＦ久屋大通レジデンス４０５号,,23,102,4610001,,,,,,,2022-01-14,1,,,,,ツクリエ,0
215,1180005019595,新規,0,2022-01-14,2022-01-14,特定非営利活動法人森本剣道塾,,その他の設立登記法人,愛知県,小牧市,大字北外山１４６２番地１Ｔ’ｓＤＵＰＬＥＸ１０２号,,23,219,4850023,,,,,,,2022-01-14,1,,,,,モリモトケンドウジュク,0
217,1180301035825,新規,0,2022-01-14,2022-01-14,株式会社プロダクトコネクト,,株式会社,愛知県,刈谷市,一ツ木町１丁目６番地１２ＴＳセンター２Ｆ,,23,210,4480003,,,,,,,2022-01-14,1,,,,,プロダクトコネクト,0
218,1180303005223,新規,0,2022-01-14,2022-01-14,合同会社Ｒｉｓｗｅｌｌ,,合同会社,愛知県,安城市,城ケ入町欠間２１番地３７,,23,212,4441206,,,,,,,2022-01-14,1,,,,,リズウェル,0
219,1190001029011,新規,0,2022-01-14,2022-01-14,株式会社１コマ,,株式会社,三重県,鈴鹿市,高岡台２丁目１７番８号,,24,207,5130019,,,,,,,2022-01-14,1,,,,,ヒトコマ,0
223,1200001039652,新規,0,2022-01-14,2022-01-14,株式会社中八,,株式会社,岐阜県,飛騨市,神岡町殿３９０番地１,,21,217,5061121,,,,,,,2022-01-14,1,,,,,ナカヤ,0
234,1220003003183,新規,0,2022-01-14,2022-01-14,合同会社うのけ住設,,合同会社,石川県,かほく市,秋浜ロ６番地５,,17,209,9291175,,,,,,,2022-01-14,1,,,,,ウノケジュウセツ,0
241,1250001019352,新規,0,2022-01-14,2022-01-14,株式会社ｎｉｋｏｔ,,株式会社,山口県,長門市,東深川１９５０番地１,,35,211,7594101,,,,,,,2022-01-14,1,,,,,ニコット,0
242,1260001036413,新規,0,2022-01-14,2022-01-14,株式会社スピカ経営サポート,,株式会社,岡山県,岡山市中区,倉富１２２番地２５,,33,102,7038264,,,,,,,2022-01-14,1,,,,,スピカケイエイサポート,0
243,1260001036438,新規,0,2022-01-14,2022-01-14,株式会社ＹＵＴＡＫＡ,,株式会社,岡山県,岡山市中区,桑野２０６番地５０,,33,102,7028002,,,,,,,2022-01-14,1,,,,,ユタカ,0
249,1290001095984,新規,0,2022-01-14,2022-01-14,株式会社江利田設計室,,株式会社,福岡県,福岡市西区,生の松原３丁目３９番１０号,,40,135,8190055,,,,,,,2022-01-14,1,,,,,エリタセッケイシツ,0
250,1290001096000,新規,0,2022-01-14,2022-01-14,株式会社ＢＡＴＯＮＳ,,株式会社,福岡県,福岡市城南区,干隈１丁目１２番１３号,,40,136,8140132,,,,,,,2022-01-14,1,,,,,バトンズ,0
251,1290001096025,新規,0,2022-01-14,2022-01-14,フォーリッチ株式会社,,株式会社,福岡県,福岡市中央区,大手門２丁目８番６－３０５号,,40,133,8100074,,,,,,,2022-01-14,1,,,,,フォーリッチ,0
252,1290001096033,新規,0,2022-01-14,2022-01-14,株式会社Ｆ‐ＩＮＮＯＶＡＴＩＯＮ,,株式会社,福岡県,福岡市博多区,博多駅前２丁目１番１号福岡朝日ビル１Ｆ,,40,132,8120011,,,,,,,2022-01-14,1,,,,,エフイノベーション,0
253,1290001096074,新規,0,2022-01-14,2022-01-14,株式会社トライデント,,株式会社,福岡県,福岡市博多区,博多駅前３丁目１４－１２－１２０１,,40,132,8120011,,,,,,,2022-01-14,1,,,,,トライデント,0
254,1290001096082,新規,0,2022-01-14,2022-01-14,株式会社業務の改善,,株式会社,福岡県,福岡市博多区,博多駅前３丁目７番３５号博多ハイテックビル５０５号,,40,132,8120011,,,,,,,2022-01-14,1,,,,,ギョウムノカイゼン,0
257,1290005018520,新規,0,2022-01-14,2022-01-14,社会保険労務士法人ＣＨＩＫＹＵＪＩＮ,,その他の設立登記法人,福岡県,福岡市博多区,博多駅東１丁目９番１１号,,40,132,8120013,,,,,,,2022-01-14,1,,,,,チキュウジン,0
258,1290801028160,新規,0,2022-01-14,2022-01-14,株式会社専壱,,株式会社,福岡県,行橋市,大字今井３２２１番地７,,40,213,8240018,,,,,,,2022-01-14,1,,,,,センイツ,0
259,1290801028169,新規,0,2022-01-14,2022-01-14,株式会社ブライズ,,株式会社,福岡県,遠賀郡水巻町,立屋敷３丁目３番１２号,,40,382,8070051,,,,,,,2022-01-14,1,,,,,ブライズ,0
260,1290803004028,新規,0,2022-01-14,2022-01-14,合同会社ＴＯＬ,,合同会社,福岡県,北九州市小倉南区,貫弥生が丘４丁目２番２号,,40,107,8000234,,,,,,,2022-01-14,1,,,,,トール,0
261,1300001012756,新規,0,2022-01-14,2022-01-14,株式会社Ｍａ,,株式会社,佐賀県,佐賀市,駅前中央２丁目１番１号北口ビル１階,,41,201,8400801,,,,,,,2022-01-14,1,,,,,マ,0
262,1300001012772,新規,0,2022-01-14,2022-01-14,株式会社九州保全,,株式会社,佐賀県,佐賀市,本庄町大字本庄５７５番地５,,41,201,8400027,,,,,,,2022-01-14,1,,,,,キュウシュウホゼン,0
265,1320003003702,新規,0,2022-01-14,2022-01-14,合同会社河の組,,合同会社,大分県,大分市,ふじが丘西１丁目７番９号,,44,201,8701185,,,,,,,2022-01-14,1,,,,,カワノグミ,0
268,1340001024426,新規,0,2022-01-14,2022-01-14,ＧＯＡＴ株式会社,,株式会社,鹿児島県,曽於市,末吉町深川１２４８８番地３,,46,217,8998606,,,,,,,2022-01-14,1,,,,,ゴート,0
273,1350001017528,新規,0,2022-01-14,2022-01-14,ＢｅＦ株式会社,,株式会社,宮崎県,宮崎市,恒久３丁目２番地１３,,45,201,8800913,,,,,,,2022-01-14,1,,,,,ベフ,0
278,1360001029877,新規,0,2022-01-14,2022-01-14,株式会社ＲＥＧＡＬＯ,,株式会社,沖縄県,沖縄市,室川１丁目５－５,,47,211,9040013,,,,,,,2022-01-14,1,,,,,レガロ,0
279,1360003011718,新規,0,2022-01-14,2022-01-14,合同会社アキラデンキ,,合同会社,沖縄県,糸満市,西崎町５丁目１１番地の１５,,47,210,9010306,,,,,,,2022-01-14,1,,,,,アキラデンキ,0
280,1360003011726,新規,0,2022-01-14,2022-01-14,合同会社ＮａｎｏＳｔｙｌｅ　ＡｒｔＧｒａｐｈｙ,,合同会社,沖縄県,うるま市,字大田７６０番地１Ｆ,,47,213,9042224,,,,,,,2022-01-14,1,,,,,ナノスタイルアートグラフィー,0
281,1360003011734,新規,0,2022-01-14,2022-01-14,合同会社ＣＫ食品,,合同会社,沖縄県,那覇市,古島２丁目１６番地１８,,47,201,9020061,,,,,,,2022-01-14,1,,,,,シーケーショクヒン,0
282,1370001048050,新規,0,2022-01-14,2022-01-14,スズキネット工業株式会社,,株式会社,宮城県,仙台市宮城野区,福住町１９番地の２０,,04,102,9830033,,,,,,,2022-01-14,1,,,,,スズキネットコウギョウ,0
283,1370001048059,新規,0,2022-01-14,2022-01-14,株式会社ブルーフロー,,株式会社,宮城県,石巻市,立町２丁目６番２６号,,04,202,9860824,,,,,,,2022-01-14,1,,,,,ブルーフロー,0
284,1370001048067,新規,0,2022-01-14,2022-01-14,株式会社東北ラーメンストリート,,株式会社,宮城県,仙台市青葉区,北目町７番５号サンファンレジデンス８０１,,04,101,9800023,,,,,,,2022-01-14,1,,,,,トウホクラーメンストリート,0
292,1380001032482,新規,0,2022-01-14,2022-01-14,株式会社樹,,株式会社,福島県,郡山市,三穂田町川田字北神子内６１番地の１,,07,203,9630121,,,,,,,2022-01-14,1,,,,,イツキ,0
306,1430001085780,新規,0,2022-01-14,2022-01-14,株式会社ＴＡＫＥ　ＡＣＴＩＯＮ,,株式会社,北海道,札幌市白石区,中央二条１丁目４番１４号,,01,104,0030012,,,,,,,2022-01-14,1,,,,,テイクアクション,0
307,1430003013525,新規,0,2022-01-14,2022-01-14,合同会社高陣,,合同会社,北海道,石狩郡当別町,元町８３３番地３４,,01,303,0610222,,,,,,,2022-01-14,1,,,,,タカジン,0
310,1440001009012,新規,0,2022-01-14,2022-01-14,株式会社広笑,,株式会社,北海道,亀田郡七飯町,字上藤城３１３番地５６,,01,337,0411104,,,,,,,2022-01-14,1,,,,,ヒロエミ,0
314,1470001018910,新規,0,2022-01-14,2022-01-14,株式会社ＧＲ,,株式会社,香川県,さぬき市,志度１７０１番地２,,37,206,7692101,,,,,,,2022-01-14,1,,,,,ジーアール,0
315,1470003002111,新規,0,2022-01-14,2022-01-14,ＭＫ電機合同会社,,合同会社,香川県,仲多度郡まんのう町,宮田６１４番地３,,37,406,7690312,,,,,,,2022-01-14,1,,,,,エムケーデンキ,0
320,1500001023931,新規,0,2022-01-14,2022-01-14,株式会社メタルファースト,,株式会社,愛媛県,今治市,喜田村４丁目２番３０号,,38,202,7991502,,,,,,,2022-01-14,1,,,,,メタルファースト,0
325,1700150106285,新規,0,2022-01-14,2021-12-15,ばぐーす長谷川,,その他,静岡県,浜松市南区,小沢渡町２３０番地の２,,22,134,4328063,,,,,,,2021-12-15,1,,,,,バグースハセガワ,0
326,1700150106566,新規,0,2022-01-14,2022-01-11,東根市民立大学「タントまなべ学園」実行委員会,,その他,山形県,東根市,中央１丁目１－１,,06,211,9993711,,,,,,,2022-01-11,1,,,,,ヒガシネシミンリツダイガクタントマナベガクエンジツコウイインカイ,0
327,1700150106640,新規,0,2022-01-14,2022-01-14,ＵＮＩ　ＡＵＴＯ,,外国会社等,千葉県,八街市,沖２０３０－５,,12,230,2891126,スリランカ民主社会主義共和国、マダワラ・バザール、バンガラ・ジェダラ８４番地,,,,,,2022-01-14,1,,,,,ユニオート,0
331,2010001223786,新規,0,2022-01-14,2022-01-14,株式会社エスエムディー,,株式会社,東京都,千代田区,東神田１丁目１１番５号,,13,101,1010031,,,,,,,2022-01-14,1,,,,,エスエムディー,0
332,2010001223803,新規,0,2022-01-14,2022-01-14,ファルメーヌ株式会社,,株式会社,東京都,千代田区,平河町１丁目１番８号,,13,101,1020093,,,,,,,2022-01-14,1,,,,,ファルメーヌ,0
333,2010001223828,新規,0,2022-01-14,2022-01-14,ポラリスソリューションズ株式会社,,株式会社,東京都,千代田区,鍛冶町１丁目１０番６号ＢＩＺＳＭＡＲＴ神田,,13,101,1010044,,,,,,,2022-01-14,1,,,,,ポラリスソリューションズ,0
335,2010101015010,新規,0,2022-01-14,2022-01-14,株式会社アドバンスゴルフ,,株式会社,東京都,八王子市,みなみ野３丁目２７番２２号,,13,201,1920916,,,,,,,2022-01-14,1,,,,,アドバンスゴルフ,0
342,2010401164861,新規,0,2022-01-14,2022-01-14,株式会社ポリゴンテーラーコンサルティング,,株式会社,東京都,港区,南青山５丁目１１番９号,,13,103,1070062,,,,,,,2022-01-14,1,,,,,ポリゴンテーラーコンサルティング,0
343,2010401164928,新規,0,2022-01-14,2022-01-14,株式会社ＯＮＥ　ＦＯＲ　ＡＬＬ,,株式会社,東京都,港区,東麻布２丁目３５番１号ＫＣビル６Ｆ,,13,103,1060044,,,,,,,2022-01-14,1,,,,,ワンフォーオール,0
344,2010401164944,新規,0,2022-01-14,2022-01-14,株式会社Ｐｕｒｐｌｅｘ,,株式会社,東京都,港区,北青山２丁目７番２８号,,13,103,1070061,,,,,,,2022-01-14,1,,,,,パープレックス,0
349,2010403026861,新規,0,2022-01-14,2022-01-14,合同会社ルーツマネジメント,,合同会社,東京都,港区,白金台３丁目１３番２５－４０５号,,13,103,1080071,,,,,,,2022-01-14,1,,,,,ルーツマネジメント,0
353,2010601060514,新規,0,2022-01-14,2022-01-14,株式会社ＮＡＫＨＥＥＬ,,株式会社,東京都,墨田区,八広６丁目５７番１０－３０２号,,13,107,1310041,,,,,,,2022-01-14,1,,,,,ナヒール,0
359,2010701042049,新規,0,2022-01-14,2022-01-14,株式会社Ｍａｕｒｕｕｒｕ　ｒｏａ,,株式会社,東京都,品川区,戸越３丁目３番１号クレスト戸越４０３,,13,109,1420041,,,,,,,2022-01-14,1,,,,,マウルールロア,0
361,2010703006068,新規,0,2022-01-14,2022-01-14,合同会社アイボリー,,合同会社,東京都,品川区,西大井１丁目５番１９－３０２号,,13,109,1400015,,,,,,,2022-01-14,1,,,,,アイボリー,0
363,2010901050132,新規,0,2022-01-14,2022-01-14,株式会社大倉,,株式会社,東京都,世田谷区,成城２丁目３１番１０号,,13,112,1570066,,,,,,,2022-01-14,1,,,,,オオクラ,0
364,2011001144964,新規,0,2022-01-14,2022-01-14,株式会社ｔｈｅｅ　ｏｔｔｏ．,,株式会社,東京都,渋谷区,代々木１丁目２８－１ダムビル２０１,,13,113,1510053,,,,,,,2022-01-14,1,,,,,ジーオット,0
365,2011001144980,新規,0,2022-01-14,2022-01-14,株式会社アミューズラボ,,株式会社,東京都,目黒区,碑文谷５丁目２－５Ｔ＆Ａビル５Ｆ,,13,110,1520003,,,,,,,2022-01-14,1,,,,,アミューズラボ,0
366,2011001145038,新規,0,2022-01-14,2022-01-14,Ｋｒｏｓｓｉｎｇ株式会社,,株式会社,東京都,目黒区,下目黒３丁目１０番３４－２１１号,,13,110,1530064,,,,,,,2022-01-14,1,,,,,クロッシング,0
367,2011001145046,新規,0,2022-01-14,2022-01-14,株式会社ＹＯＵ＆ＭＥ,,株式会社,東京都,渋谷区,笹塚１丁目６０番９－７０４号ボヌール・トーキ・ササズカ,,13,113,1510073,,,,,,,2022-01-14,1,,,,,ユーエンミー,0
368,2011001145054,新規,0,2022-01-14,2022-01-14,株式会社ＲＳテクノロジーズ,,株式会社,東京都,渋谷区,恵比寿南１丁目１番１号８Ｆ,,13,113,1500022,,,,,,,2022-01-14,1,,,,,アールエステクノロジーズ,0
369,2011001145062,新規,0,2022-01-14,2022-01-14,株式会社ＦＵＳＩＯＮＳ,,株式会社,東京都,渋谷区,渋谷２丁目１９番１５－６０９号宮益坂ビルディング,,13,113,1500002,,,,,,,2022-01-14,1,,,,,フュージョンズ,0
370,2011001145079,新規,0,2022-01-14,2022-01-14,株式会社ｍｅｎｏｐｅｅｒ,,株式会社,東京都,渋谷区,上原１丁目３番９号,,13,113,1510064,,,,,,,2022-01-14,1,,,,,メノピア,0
371,2011003013969,新規,0,2022-01-14,2022-01-14,合同会社Ｋ２ＰＡＬＭＳ．,,合同会社,東京都,渋谷区,神宮前６丁目２３番４号桑野ビル２階,,13,113,1500001,,,,,,,2022-01-14,1,,,,,ケーツーパームス,0
377,2011101097476,新規,0,2022-01-14,2022-01-14,Ｚ　Ｉｎｖｅｓｔｍｅｎｔ２株式会社,,株式会社,東京都,新宿区,新宿５丁目１８番２０号ルックハイツ新宿８０３号,,13,104,1600022,,,,,,,2022-01-14,1,,,,,ゼットインベストメント,0
378,2011101097484,新規,0,2022-01-14,2022-01-14,株式会社ＲｕｃｋＰｌｕｓ,,株式会社,東京都,新宿区,新宿５丁目１８番２０号ルックハイツ新宿８０３号室,,13,104,1600022,,,,,,,2022-01-14,1,,,,,ラックプラス,0
379,2011301027489,新規,0,2022-01-14,2022-01-14,はっち株式会社,,株式会社,東京都,杉並区,久我山５丁目３２番２０号,,13,115,1680082,,,,,,,2022-01-14,1,,,,,ハッチ,0
383,2011401023958,新規,0,2022-01-14,2022-01-14,株式会社ヒトイキ,,株式会社,東京都,板橋区,大山西町５６番７－３０１号,,13,119,1730033,,,,,,,2022-01-14,1,,,,,ヒトイキ,0
392,2013301048523,新規,0,2022-01-14,2022-01-14,株式会社Ｂ－ｅａｒ,,株式会社,東京都,豊島区,東池袋５丁目７番３号リードシー東池袋ビル２Ｆ,,13,116,1700013,,,,,,,2022-01-14,1,,,,,ベアー,0
394,2013303005984,新規,0,2022-01-14,2022-01-14,合同会社イシダシステム,,合同会社,東京都,豊島区,高田３丁目３７番１２号,,13,116,1710033,,,,,,,2022-01-14,1,,,,,イシダシステム,0
400,2020001144726,新規,0,2022-01-14,2022-01-14,株式会社サルース,,株式会社,神奈川県,川崎市川崎区,東門前３丁目３番２号,,14,131,2100812,,,,,,,2022-01-14,1,,,,,サルース,0
401,2020001144742,新規,0,2022-01-14,2022-01-14,株式会社アトリエマリス,,株式会社,神奈川県,横浜市都筑区,牛久保西４丁目１９番１８号,,14,118,2240015,,,,,,,2022-01-14,1,,,,,アトリエマリス,0
402,2020001144750,新規,0,2022-01-14,2022-01-14,興株式会社,,株式会社,神奈川県,横浜市港南区,日野５丁目３０番３０号ドエル日野１０２,,14,111,2340051,,,,,,,2022-01-14,1,,,,,オキ,0
408,2020003021114,新規,0,2022-01-14,2022-01-14,合同会社Ｄｅａｒｌｙ　ｄｅｓｉｇｎ,,合同会社,神奈川県,川崎市高津区,子母口４２番地１,,14,134,2130023,,,,,,,2022-01-14,1,,,,,ディアリーデザイン,0
409,2020003021122,新規,0,2022-01-14,2022-01-14,合同会社ケーコンサルテーション,,合同会社,神奈川県,川崎市幸区,新塚越１番地２－１－１７１０,,14,132,2120027,,,,,,,2022-01-14,1,,,,,ケーコンサルテーション,0
410,2020003021147,新規,0,2022-01-14,2022-01-14,Ｈ．Ｐ．Ｍｕｓｉｃ合同会社,,合同会社,神奈川県,横浜市磯子区,洋光台３丁目１２番１４号,,14,107,2350045,,,,,,,2022-01-14,1,,,,,エイチピーミュージック,0
411,2020005015353,新規,0,2022-01-14,2022-01-14,一般社団法人虹の橋,,その他の設立登記法人,神奈川県,横浜市港北区,綱島東２丁目２番１４号２階,,14,109,2230052,,,,,,,2022-01-14,1,,,,,ニジノハシ,0
416,2021001074946,新規,0,2022-01-14,2022-01-14,オーエスバディーズ株式会社,,株式会社,神奈川県,相模原市中央区,富士見６丁目６番１号大賀ビル２０８,,14,152,2520236,,,,,,,2022-01-14,1,,,,,オーエスバディーズ,0
417,2021001074954,新規,0,2022-01-14,2022-01-14,株式会社Ｋ‐ビルドリフォーム,,株式会社,神奈川県,鎌倉市,腰越３丁目１７番８号ブルーメゾンＩＩＩ,00125400,14,204,2480033,,,,,,,2022-01-14,1,,,,,ケービルドリフォーム,0
418,2021001074962,新規,0,2022-01-14,2022-01-14,株式会社ひらつか学校給食サービス,,株式会社,神奈川県,平塚市,四之宮１丁目８番５６号,,14,203,2540014,,,,,,,2022-01-14,1,,,,,ヒラツカガッコウキュウショクサービス,0
421,2021003011294,新規,0,2022-01-14,2022-01-14,合同会社ブルーフィグ,,合同会社,神奈川県,厚木市,田村町１３番３－３号,,14,212,2430016,,,,,,,2022-01-14,1,,,,,ブルーフィグ,0
427,2030001146283,新規,0,2022-01-14,2022-01-14,株式会社翔,,株式会社,埼玉県,幸手市,中５丁目７番３０号Ａ－１０１,,11,240,3400115,,,,,,,2022-01-14,1,,,,,ショウ,0
428,2030001146300,新規,0,2022-01-14,2022-01-14,株式会社ＴＡＣＴ　ＴＲＡＤＩＮＧ,,株式会社,埼玉県,さいたま市見沼区,東大宮７丁目６６番地６－２０１号室,,11,104,3370051,,,,,,,2022-01-14,1,,,,,タクトトレーディング,0
429,2030001146317,新規,0,2022-01-14,2022-01-14,株式会社ＳＧＷｏｒｋ,,株式会社,埼玉県,さいたま市大宮区,三橋１丁目１２１１番地２,,11,103,3300856,,,,,,,2022-01-14,1,,,,,エスジーワーク,0
430,2030001146341,新規,0,2022-01-14,2022-01-14,株式会社マディー動物病院,,株式会社,埼玉県,上尾市,本町１丁目１１７９番地２,,11,219,3620014,,,,,,,2022-01-14,1,,,,,マディードウブツビョウイン,0
433,2030003018646,新規,0,2022-01-14,2022-01-14,ラフター合同会社,,合同会社,埼玉県,日高市,大字高萩６７２番地１,,11,242,3501213,,,,,,,2022-01-14,1,,,,,ラフター,0
434,2030003018662,新規,0,2022-01-14,2022-01-14,ＨＯＬＹ合同会社,,合同会社,埼玉県,新座市,東北１丁目１４番８号ベルメゾン四季３０３号室,,11,230,3520001,,,,,,,2022-01-14,1,,,,,ホリ,0
435,2030005020690,新規,0,2022-01-14,2022-01-14,一般社団法人さまちか,,その他の設立登記法人,埼玉県,比企郡川島町,大字下八ツ林９２３番地,,11,346,3500122,,,,,,,2022-01-14,1,,,,,サマチカ,0
444,2040001121707,新規,0,2022-01-14,2022-01-14,株式会社ＬＥＡＰ　ＲＩＳＥ,,株式会社,千葉県,千葉市稲毛区,天台２丁目１４番５号,,12,103,2630016,,,,,,,2022-01-14,1,,,,,リープライズ,0
445,2040001121715,新規,0,2022-01-14,2022-01-14,株式会社ＫＴＢ,,株式会社,千葉県,柏市,十余二２４８番地２コスモ柏セランス５０５号,,12,217,2770872,,,,,,,2022-01-14,1,,,,,ケーティービー,0
446,2040001121756,新規,0,2022-01-14,2022-01-14,アールブローデン株式会社,,株式会社,千葉県,成田市,川上２４５番地３０３５,,12,211,2870244,,,,,,,2022-01-14,1,,,,,アールブローデン,0
449,2040003019271,新規,0,2022-01-14,2022-01-14,合同会社カームリビング山田,,合同会社,千葉県,柏市,篠籠田４５３番地６７,,12,217,2770862,,,,,,,2022-01-14,1,,,,,カームリビングヤマダ,0
450,2040003019296,新規,0,2022-01-14,2022-01-14,合同会社デキルシコ,,合同会社,千葉県,松戸市,上本郷１４６５－７,,12,207,2710064,,,,,,,2022-01-14,1,,,,,デキルシコ,0
451,2040003019305,新規,0,2022-01-14,2022-01-14,ｔｏリコード合同会社,,合同会社,千葉県,松戸市,栄町１丁目３０番地の４,,12,207,2710062,,,,,,,2022-01-14,1,,,,,トゥーリコード,0
454,2050005012991,新規,0,2022-01-14,2022-01-14,一般社団法人まあるい地球のホームランド,,その他の設立登記法人,茨城県,稲敷郡美浦村,大字舟子２０４４番地２６,,08,442,3000428,,,,,,,2022-01-14,1,,,,,マアルイチキュウノホームランド,0
458,2060005009938,新規,0,2022-01-14,2022-01-14,一般社団法人日本イラン協会,,その他の設立登記法人,栃木県,宇都宮市,馬場通り４丁目２－４田中ビル２Ｆ,,09,201,3200026,,,,,,,2022-01-14,1,,,,,ニホンイランキョウカイ,0
460,2070001038824,新規,0,2022-01-14,2022-01-14,ＭｅｒｒｙＧａｔｅ株式会社,,株式会社,群馬県,太田市,新井町５６５番地５,,10,205,3730852,,,,,,,2022-01-14,1,,,,,メリーゲイト,0
461,2070001038832,新規,0,2022-01-14,2022-01-14,株式会社Ａｋａｇｉ　Ｎａｔｕｒｅ’ｓ　Ｃａｒｅ,,株式会社,群馬県,太田市,吉沢町１０５８番地５,,10,205,3730019,,,,,,,2022-01-14,1,,,,,アカギネイチャーズケア,0
463,2070003004353,新規,0,2022-01-14,2022-01-14,合同会社片山建築塗装,,合同会社,群馬県,伊勢崎市,田部井町２丁目５５２番地１１,,10,204,3792222,,,,,,,2022-01-14,1,,,,,カタヤマケンチクトソウ,0
473,2090001017363,新規,0,2022-01-14,2022-01-14,株式会社スプリングワイン,,株式会社,山梨県,甲府市,朝日４丁目５番３号,,19,201,4000025,,,,,,,2022-01-14,1,,,,,スプリングワイン,0
475,2100003006362,新規,0,2022-01-14,2022-01-14,軽井沢リューサクレ合同会社,,合同会社,長野県,北佐久郡軽井沢町,大字追分１６１９番地２,,20,321,3890115,,,,,,,2022-01-14,1,,,,,カルイザワリューサクレ,0
476,2110001036360,新規,0,2022-01-14,2022-01-14,株式会社金澤美装,,株式会社,新潟県,長岡市,槇山町２０１２番地３,,15,202,9402002,,,,,,,2022-01-14,1,,,,,カナザワビソウ,0
485,2120001243063,新規,0,2022-01-14,2022-01-14,ＺｏｎｏＨｏｍｅ株式会社,,株式会社,大阪府,大阪市東成区,神路１丁目７番２号,,27,115,5370003,,,,,,,2022-01-14,1,,,,,ゾノホーム,0
486,2120001243071,新規,0,2022-01-14,2022-01-14,株式会社ＥＶＥＲＦＬＯＷ,,株式会社,大阪府,大阪市中央区,南船場１丁目１８番２４号長堀橋アーバンライフ１００４室,,27,128,5420081,,,,,,,2022-01-14,1,,,,,エバーフロー,0
487,2120001243113,新規,0,2022-01-14,2022-01-14,赤白コネクション株式会社,,株式会社,大阪府,大阪市淀川区,十三本町１丁目９番１５号２Ｆ,,27,123,5320024,,,,,,,2022-01-14,1,,,,,アカシロコネクション,0
488,2120001243146,新規,0,2022-01-14,2022-01-14,株式会社ＰＥＮＧ,,株式会社,大阪府,大阪市都島区,毛馬町４丁目１１－２９,,27,102,5340001,,,,,,,2022-01-14,1,,,,,ペング,0
489,2120001243154,新規,0,2022-01-14,2022-01-14,株式会社ＩＮＴＥＲＳＥＣＴＩＯＮ,,株式会社,大阪府,枚方市,藤阪西町１番８－４０３号,,27,210,5730158,,,,,,,2022-01-14,1,,,,,インターセクション,0
490,2120001243162,新規,0,2022-01-14,2022-01-14,株式会社バタフライエフェクト,,株式会社,大阪府,大阪市北区,大深町３番４０－１２１４号,,27,127,5300011,,,,,,,2022-01-14,1,,,,,バタフライエフェクト,0
491,2120001243195,新規,0,2022-01-14,2022-01-14,Ｍｅｌｌｏｗ　Ｂｌｕｅ株式会社,,株式会社,大阪府,大阪市北区,与力町１番２６－１５０３号,,27,127,5300036,,,,,,,2022-01-14,1,,,,,メロウブルー,0
492,2120001243212,新規,0,2022-01-14,2022-01-14,ＨＬＡ　Ｓｔｅｍ　Ｃｅｌｌ　Ｂａｎｋ株式会社,,株式会社,大阪府,大阪市北区,天満橋１丁目８番４０号帝国ホテルプラザ２階,,27,127,5300042,,,,,,,2022-01-14,1,,,,,エイチエルエーステムセルバンク,0
496,2120003020857,新規,0,2022-01-14,2022-01-14,合同会社一,,合同会社,大阪府,大阪市生野区,巽東２丁目９番２５号,,27,116,5440014,,,,,,,2022-01-14,1,,,,,ハジメ,0
501,2120005022686,新規,0,2022-01-14,2022-01-14,一般社団法人日本非破壊検査情報技術協会,,その他の設立登記法人,大阪府,大阪市西成区,天下茶屋３丁目２４番１５号メゾン・ドゥ・アルシオン１０４号,,27,122,5570014,,,,,,,2022-01-14,1,,,,,ニホンヒハカイケンサジョウホウギジュツキョウカイ,0
502,2120005022694,新規,0,2022-01-14,2022-01-14,一般社団法人ＴＮＳ,,その他の設立登記法人,大阪府,大阪市天王寺区,上汐３丁目６番１３号,,27,109,5430002,,,,,,,2022-01-14,1,,,,,ティエヌエス,0
507,2120101064938,新規,0,2022-01-14,2022-01-14,南海グローバルソリューション株式会社,,株式会社,大阪府,堺市西区,浜寺諏訪森町西１丁７番地,,27,144,5928347,,,,,,,2022-01-14,1,,,,,ナンカイグローバルソリューション,0
508,2120101064946,新規,0,2022-01-14,2022-01-14,株式会社Ｇｙｕｔｔｏ　Ｔｅｒｒａｃｅ,,株式会社,大阪府,堺市北区,野遠町５１９－１２,,27,146,5918013,,,,,,,2022-01-14,1,,,,,ギュットテラス,0
510,2120901045451,新規,0,2022-01-14,2022-01-14,株式会社ルアナジャパン,,株式会社,大阪府,箕面市,瀬川１丁目７番１号の２,,27,220,5620045,,,,,,,2022-01-14,1,,,,,ルアナジャパン,0
512,2122001035507,新規,0,2022-01-14,2022-01-14,株式会社ＭＡＬＯＵ,,株式会社,大阪府,八尾市,南小阪合町５丁目１－２６－３０２,,27,212,5810019,,,,,,,2022-01-14,1,,,,,マルー,0
514,2130001070853,新規,0,2022-01-14,2022-01-14,株式会社林石油商会,,株式会社,京都府,京都市右京区,西院平町１８番地１,,26,108,6160000,,,,,,,2022-01-14,1,,,,,ハヤシセキユショウカイ,0
515,2130001070903,新規,0,2022-01-14,2022-01-14,株式会社ＯＳ,,株式会社,京都府,京都市伏見区,深草鞍ケ谷２９－１,,26,109,6120822,,,,,,,2022-01-14,1,,,,,オーエス,0
516,2130001070936,新規,0,2022-01-14,2022-01-14,株式会社ジラフ,,株式会社,京都府,京都市西京区,上桂西居町１２番地９,,26,111,6158228,,,,,,,2022-01-14,1,,,,,ジラフ,0
517,2140001124476,新規,0,2022-01-14,2022-01-14,株式会社Ｍ．Ｋ．Ｈ,,株式会社,兵庫県,神戸市西区,伊川谷町潤和８７５番地の１エステリーオＡ－１０２号,,28,111,6512124,,,,,,,2022-01-14,1,,,,,エムケーエイチ,0
520,2140003017216,新規,0,2022-01-14,2022-01-14,合同会社Ｍ＆ＴＮＲＳ,,合同会社,兵庫県,三木市,平田１丁目６番地の７,,28,215,6730405,,,,,,,2022-01-14,1,,,,,エムアンドティーエヌアールエス,0
521,2140003017240,新規,0,2022-01-14,2022-01-14,合同会社サスライプロジェクト,,合同会社,兵庫県,丹波市,春日町下三井庄１５９－１,,28,223,6694252,,,,,,,2022-01-14,1,,,,,サスライプロジェクト,0
524,2160001023940,新規,0,2022-01-14,2022-01-14,株式会社ＪＡＰＡＮ３ホールディングス,,株式会社,滋賀県,高島市,今津町今津１６６０番地１,,25,212,5201621,,,,,,,2022-01-14,1,,,,,ジャパンスリーホールディングス,0
525,2160003002471,新規,0,2022-01-14,2022-01-14,アンシカル合同会社,,合同会社,滋賀県,東近江市,今崎町６２５,,25,213,5270016,,,,,,,2022-01-14,1,,,,,アンシカル,0
527,2170001016935,新規,0,2022-01-14,2022-01-14,株式会社テクノケア,,株式会社,和歌山県,和歌山市,新雑賀町１番地１,,30,201,6408101,,,,,,,2022-01-14,1,,,,,テクノケア,0
535,2180001149346,新規,0,2022-01-14,2022-01-14,株式会社ＣＡＲＳ,,株式会社,愛知県,名古屋市北区,落合町１９６番地,,23,103,4620017,,,,,,,2022-01-14,1,,,,,カーズ,0
536,2180001149387,新規,0,2022-01-14,2022-01-14,株式会社ピボーテ,,株式会社,愛知県,名古屋市名東区,上菅２丁目８０１番地,,23,115,4650014,,,,,,,2022-01-14,1,,,,,ピボーテ,0
537,2180001149486,新規,0,2022-01-14,2022-01-14,株式会社ｇｉｆｔ,,株式会社,愛知県,半田市,乙川深田町１丁目４１番地,,23,205,4750065,,,,,,,2022-01-14,1,,,,,ギフト,0
538,2180001149511,新規,0,2022-01-14,2022-01-14,株式会社ツバキユニオンレーベル,,株式会社,愛知県,名古屋市中区,丸の内２丁目１９番１９号丸の内ヒルズ１Ｆ,,23,106,4600002,,,,,,,2022-01-14,1,,,,,ツバキユニオンレーベル,0
539,2180001149536,新規,0,2022-01-14,2022-01-14,山下設備株式会社,,株式会社,愛知県,愛西市,北河田町郷前７２４番地,,23,232,4968008,,,,,,,2022-01-14,1,,,,,ヤマシタセツビ,0
540,2180001149552,新規,0,2022-01-14,2022-01-14,Ｈｅｌｅｎａ　Ｂｅａｕｔｙ　Ｓｑｕａｒｅ株式会社,,株式会社,愛知県,名古屋市千種区,春岡１丁目１４番２１号,,23,101,4640848,,,,,,,2022-01-14,1,,,,,エレナビューティースクエア,0
541,2180001149577,新規,0,2022-01-14,2022-01-14,株式会社Ｎ’ｓクラフト設計室,,株式会社,愛知県,春日井市,藤山台８丁目９番地２０,,23,206,4870035,,,,,,,2022-01-14,1,,,,,エヌズクラフトセッケイシツ,0
544,2180301035824,新規,0,2022-01-14,2022-01-14,株式会社Ａｓｓｉｓｔ．ｍｉ,,株式会社,愛知県,豊橋市,西幸町字浜池３３３番地の９豊橋サイエンスコア１０９,,23,201,4418113,,,,,,,2022-01-14,1,,,,,アシストミー,0
557,2220001024651,新規,0,2022-01-14,2022-01-14,株式会社Ａｉｄ駅西,,株式会社,石川県,金沢市,駅西本町２丁目５番１６号,,17,201,9200025,,,,,,,2022-01-14,1,,,,,エイドエキニシ,0
559,2230003001788,新規,0,2022-01-14,2022-01-14,合同会社あおぞら,,合同会社,富山県,高岡市,伏木古府元町１番２３号,,16,202,9330115,,,,,,,2022-01-14,1,,,,,アオゾラ,0
574,2290801028176,新規,0,2022-01-14,2022-01-14,株式会社プラスジェイ,,株式会社,福岡県,京都郡苅田町,磯浜町２丁目６番地６,,40,621,8000313,,,,,,,2022-01-14,1,,,,,プラスジェイ,0
576,2290803004027,新規,0,2022-01-14,2022-01-14,合同会社ＧＡＣ,,合同会社,福岡県,北九州市若松区,片山１丁目１番１６号,,40,103,8080106,,,,,,,2022-01-14,1,,,,,ジーエーシー,0
578,2310003004254,新規,0,2022-01-14,2022-01-14,合同会社ＤＤジャパン,,合同会社,長崎県,大村市,古賀島町４８４番地１７,,42,205,8560817,,,,,,,2022-01-14,1,,,,,ディーディージャパン,0
582,2330001029359,新規,0,2022-01-14,2022-01-14,株式会社東田工務店,,株式会社,熊本県,熊本市北区,植木町内５０７番地,,43,105,8610102,,,,,,,2022-01-14,1,,,,,ヒガシダコウムテン,0
583,2330003009202,新規,0,2022-01-14,2022-01-14,合同会社ＳＫＹ,,合同会社,熊本県,熊本市北区,清水新地２丁目５番２３号,,43,105,8618075,,,,,,,2022-01-14,1,,,,,エスケーワイ,0
584,2330005010455,新規,0,2022-01-14,2022-01-14,一般社団法人ヒューマンドライブアテンダー協会,,その他の設立登記法人,熊本県,下益城郡美里町,中郡５７９番地１,,43,348,8614403,,,,,,,2022-01-14,1,,,,,ヒューマンドライブアテンダーキョウカイ,0
585,2340003003682,新規,0,2022-01-14,2022-01-14,合同会社三光エンジニアリング,,合同会社,鹿児島県,鹿屋市,吾平町上名５７２７番地２,,46,203,8931101,,,,,,,2022-01-14,1,,,,,サンコウエンジニアリング,0
588,2350001017527,新規,0,2022-01-14,2022-01-14,株式会社ＴＨＲＥＥ　ＨＡＵＳ,,株式会社,宮崎県,宮崎市,大字熊野９８３０番地３,,45,201,8892151,,,,,,,2022-01-14,1,,,,,スリーハウス,0
590,2360003011733,新規,0,2022-01-14,2022-01-14,合同会社ｓａｌｕｄ,,合同会社,沖縄県,石垣市,字大川１５９番地１,,47,207,9070022,,,,,,,2022-01-14,1,,,,,サルー,0
591,2370001048041,新規,0,2022-01-14,2022-01-14,ラクノーヴァ株式会社,,株式会社,宮城県,刈田郡蔵王町,遠刈田温泉字遠刈田北山２１－１２,,04,301,9890916,,,,,,,2022-01-14,1,,,,,ラクノーヴァ,0
592,2370001048058,新規,0,2022-01-14,2022-01-14,株式会社楽,,株式会社,宮城県,柴田郡大河原町,字南桜町３番地７新星館Ａ棟,,04,321,9891272,,,,,,,2022-01-14,1,,,,,ガク,0
593,2370001048066,新規,0,2022-01-14,2022-01-14,ＳＡＳ　ＧＬＯＢＡＬ　ＴＲＡＤＩＮＧ株式会社,,株式会社,宮城県,黒川郡大衡村,大瓜字西沢２２６番地１,,04,424,9813601,,,,,,,2022-01-14,1,,,,,エスエーエスグローバルトレーディング,0
594,2370003005544,新規,0,2022-01-14,2022-01-14,プレフィール合同会社,,合同会社,宮城県,仙台市太白区,あすと長町４丁目２番３８－１３１６号,,04,104,9820007,,,,,,,2022-01-14,1,,,,,プレフィール,0
614,2420001017701,新規,0,2022-01-14,2022-01-14,Ｍｉｎｔ株式会社,,株式会社,青森県,青森市,金沢４丁目１番３３号,,02,201,0300853,,,,,,,2022-01-14,1,,,,,ミント,0
615,2420003002429,新規,0,2022-01-14,2022-01-14,Ｔｕｕｌｉ合同会社,,合同会社,青森県,青森市,花園２丁目３５番７号,,02,201,0300966,,,,,,,2022-01-14,1,,,,,トウーリ,0
619,2430001085805,新規,0,2022-01-14,2022-01-14,Ｔａｒｏｌｙｍｐｈ株式会社,,株式会社,北海道,札幌市中央区,大通西１１丁目４番地,,01,101,0600042,,,,,,,2022-01-14,1,,,,,タロリンパ,0
621,2460005001549,新規,0,2022-01-14,2022-01-14,一般社団法人ＭＯＴＴＯ,,その他の設立登記法人,北海道,釧路市,文苑１丁目５９番２７号,,01,206,0850063,,,,,,,2022-01-14,1,,,,,モットー,0
623,2470001018926,新規,0,2022-01-14,2022-01-14,二葉商会株式会社,,株式会社,香川県,丸亀市,綾歌町栗熊東４番地３,,37,202,7612406,,,,,,,2022-01-14,1,,,,,フタバショウカイ,0
630,2500005008449,新規,0,2022-01-14,2022-01-14,一般社団法人キャンバス,,その他の設立登記法人,愛媛県,宇和島市,伊吹町甲１０８３番地１,,38,203,7980022,,,,,,,2022-01-14,1,,,,,キャンバス,0
631,2700150106631,新規,0,2022-01-14,2022-01-14,トランスパシフィック・グループ・エルエルシー,,外国会社等,東京都,港区,虎ノ門５丁目１３番１号虎ノ門４０ＭＴビル７階,,13,103,1050001,アメリカ合衆国フロリダ州マイアミ・ビーチ、レノックス・アベニュー４２９、スイート５０５,,,,,,2022-01-14,1,,,,,トランスパシフイツクグループエルエルシー,0
632,2700150106648,新規,0,2022-01-14,2022-01-14,ＩＮＴＥＲＷＯＲＬＤ　ＥＮＴＥＲＰＲＩＳＥＳ　ＰＲＩＶＡＴＥ　ＬＩＭＩＴＥＤ,,外国会社等,千葉県,八街市,滝台６８３－６,,12,230,2891123,スリランカ民主社会主義共和国、マダワラバザール、キャンディロード、Ｎｏ．１２１,,,,,,2022-01-14,1,,,,,インターワールドエンタープライセスプライベートリミテツド,0
645,3010001223645,新規,0,2022-01-14,2022-01-14,株式会社プルーヴアット,,株式会社,東京都,千代田区,九段南３丁目４番５号フタバ九段ビル１Ｆ,,13,101,1020074,,,,,,,2022-01-14,1,,,,,プルーヴアット,0
646,3010001223777,新規,0,2022-01-14,2022-01-14,Ａｕｘｉｌｉａｒｙ　Ｐａｒｔｎｅｒｓ株式会社,,株式会社,東京都,千代田区,神田錦町３丁目７－２東京堂錦町ビルディング,,13,101,1010054,,,,,,,2022-01-14,1,,,,,オージィリアリー,0
647,3010001223802,新規,0,2022-01-14,2022-01-14,株式会社吉留商会,,株式会社,東京都,中央区,銀座７丁目１８番１２号,,13,102,1040061,,,,,,,2022-01-14,1,,,,,ヨシトメショウカイ,0
648,3010001223819,新規,0,2022-01-14,2022-01-14,株式会社ウィロヴァリトーキョー,,株式会社,東京都,千代田区,丸の内３丁目２番２号丸の内二重橋ビル３階,,13,101,1000005,,,,,,,2022-01-14,1,,,,,ウィローヴァリトーキョー,0
649,3010001223876,新規,0,2022-01-14,2022-01-14,Ｑｕａｓｈｏｗ　Ｔｅｃｈ株式会社,,株式会社,東京都,中央区,東日本橋２丁目２８番５号５０８,,13,102,1030004,,,,,,,2022-01-14,1,,,,,クアショーテック,0
652,3010003036723,新規,0,2022-01-14,2022-01-14,ＪＰインベストメント地域・インパクト合同会社,,合同会社,東京都,千代田区,大手町２丁目３番１号,,13,101,1000004,,,,,,,2022-01-14,1,,,,,ジェイピーインベストメントチイキインパクト,0
660,3010401164844,新規,0,2022-01-14,2022-01-14,株式会社志希会,,株式会社,東京都,港区,南青山２丁目３番３号パークコート青山ザタワー１４０３,,13,103,1070062,,,,,,,2022-01-14,1,,,,,シキカイ,0
661,3010401164852,新規,0,2022-01-14,2022-01-14,株式会社ＭＯＯＮ,,株式会社,東京都,港区,芝５丁目２９－２５コアビル５階,,13,103,1080014,,,,,,,2022-01-14,1,,,,,ムーン,0
662,3010401164860,新規,0,2022-01-14,2022-01-14,株式会社ＦａｎＦｕｎ,,株式会社,東京都,港区,浜松町２丁目２番１５号浜松町ダイヤビル２Ｆ,,13,103,1050013,,,,,,,2022-01-14,1,,,,,ファンファン,0
663,3010401164885,新規,0,2022-01-14,2022-01-14,株式会社Ａｊｉｔｏ,,株式会社,東京都,港区,新橋２丁目９番１７号,,13,103,1050004,,,,,,,2022-01-14,1,,,,,アジト,0
664,3010401164919,新規,0,2022-01-14,2022-01-14,株式会社ＭＥＮＴ　ＲＥＣＯＲＤＩＮＧ,,株式会社,東京都,港区,赤坂９丁目６番３５号,,13,103,1070052,,,,,,,2022-01-14,1,,,,,メントレコーディング,0
665,3010401164943,新規,0,2022-01-14,2022-01-14,ＨＯＲＩＺＯＮ株式会社,,株式会社,東京都,港区,北青山２丁目７番２８号,,13,103,1070061,,,,,,,2022-01-14,1,,,,,ホライズン,0
669,3010403026877,新規,0,2022-01-14,2022-01-14,合同会社ＤＭＵＸ,,合同会社,東京都,港区,浜松町２丁目２番１５号浜松町ダイヤビル２Ｆ,,13,103,1050013,,,,,,,2022-01-14,1,,,,,ディームックス,0
673,3010701042031,新規,0,2022-01-14,2022-01-14,Ｚ　Ｉｎｖｅｓｔｍｅｎｔ３株式会社,,株式会社,東京都,品川区,西五反田１丁目２６番２号五反田サンハイツ９１１,,13,109,1410031,,,,,,,2022-01-14,1,,,,,ゼットインベストメントスリー,0
674,3010701042056,新規,0,2022-01-14,2022-01-14,株式会社ＤＩＣＥ不動産,,株式会社,東京都,品川区,西五反田７丁目１３番５号,,13,109,1410031,,,,,,,2022-01-14,1,,,,,ダイスフドウサン,0
679,3010901050131,新規,0,2022-01-14,2022-01-14,株式会社ＭＯＵＺＵ,,株式会社,東京都,世田谷区,世田谷２丁目２９番２５号,,13,112,1540017,,,,,,,2022-01-14,1,,,,,モウズ,0
680,3010901050156,新規,0,2022-01-14,2022-01-14,株式会社桃の木,,株式会社,東京都,世田谷区,等々力２丁目１５番１２－２１０号,,13,112,1580082,,,,,,,2022-01-14,1,,,,,モモノキ,0
686,3011001144906,新規,0,2022-01-14,2022-01-14,株式会社英智舎,,株式会社,東京都,目黒区,三田２丁目１０番２９号,,13,110,1530062,,,,,,,2022-01-14,1,,,,,エイチシャ,0
687,3011001145037,新規,0,2022-01-14,2022-01-14,みのしごと株式会社,,株式会社,東京都,渋谷区,広尾５丁目４番１２号－４Ｆ,,13,113,1500012,,,,,,,2022-01-14,1,,,,,ミノシゴト,0
688,3011001145053,新規,0,2022-01-14,2022-01-14,株式会社ＡＳユニコーンズ,,株式会社,東京都,渋谷区,恵比寿南１丁目１番１号８Ｆ,,13,113,1500022,,,,,,,2022-01-14,1,,,,,エーエスユニコーンズ,0
689,3011001145061,新規,0,2022-01-14,2022-01-14,株式会社ＫＳブライト,,株式会社,東京都,渋谷区,恵比寿南１丁目１番１号８Ｆ,,13,113,1500022,,,,,,,2022-01-14,1,,,,,ケイエスブライト,0
691,3011003013992,新規,0,2022-01-14,2022-01-14,合同会社Ｍ　ｄｅｕｘ,,合同会社,東京都,目黒区,自由が丘２丁目１７番１６号,,13,110,1520035,,,,,,,2022-01-14,1,,,,,エムドゥ,0
695,3011101097442,新規,0,2022-01-14,2022-01-14,株式会社アプリコットマーケティング,,株式会社,東京都,新宿区,新宿７丁目２４番３号パルサー新宿４階,,13,104,1600022,,,,,,,2022-01-14,1,,,,,アプリコットマーケティング,0
696,3011101097500,新規,0,2022-01-14,2022-01-14,ヴェリタストレード株式会社,,株式会社,東京都,新宿区,西新宿４丁目１－１０東建ニューハイツ西新宿６０７,,13,104,1600023,,,,,,,2022-01-14,1,,,,,ヴェリタストレード,0
697,3011101097517,新規,0,2022-01-14,2022-01-14,株式会社グローバルエージェント,,株式会社,東京都,新宿区,西早稲田２丁目２０番１０号ユニロイヤル西早稲田１４０３,,13,104,1690051,,,,,,,2022-01-14,1,,,,,グローバルエージェント,0
698,3011101097525,新規,0,2022-01-14,2022-01-14,株式会社ルエートル・キャピタル,,株式会社,東京都,新宿区,西新宿７丁目７番１９号,,13,104,1600023,,,,,,,2022-01-14,1,,,,,ルエートルキャピタル,0
706,3011501027668,新規,0,2022-01-14,2022-01-14,株式会社ＢＺＫ,,株式会社,東京都,荒川区,南千住６丁目３７番９号,,13,118,1160003,,,,,,,2022-01-14,1,,,,,,0
707,3011503005036,新規,0,2022-01-14,2022-01-14,合同会社赤羽ｓｈｏｐ,,合同会社,東京都,北区,神谷３丁目３４番９号,,13,117,1150043,,,,,,,2022-01-14,1,,,,,アカバネショップ,0
708,3011601025662,新規,0,2022-01-14,2022-01-14,株式会社ＬｂＬ,,株式会社,東京都,練馬区,南大泉１丁目１４番１５号,,13,120,1780064,,,,,,,2022-01-14,1,,,,,エルビーエル,0
711,3011801040180,新規,0,2022-01-14,2022-01-14,株式会社ファブナック,,株式会社,東京都,足立区,舎人５丁目９番１９号,,13,121,1210831,,,,,,,2022-01-14,1,,,,,ファブナック,0
712,3011801040189,新規,0,2022-01-14,2022-01-14,東京ＭＣＮ株式会社,,株式会社,東京都,足立区,皿沼１丁目１６番１９号,,13,121,1230862,,,,,,,2022-01-14,1,,,,,トウキョウエムシーエヌ,0
716,3012401038747,新規,0,2022-01-14,2022-01-14,株式会社ＴＯＭＯＥ,,株式会社,東京都,調布市,調布ケ丘２丁目１４番地７－２００６,,13,208,1820021,,,,,,,2022-01-14,1,,,,,トモエ,0
720,3013101008825,新規,0,2022-01-14,2022-01-14,株式会社ｙｕｊ,,株式会社,東京都,あきる野市,二宮２２４８番地４,,13,228,1970814,,,,,,,2022-01-14,1,,,,,ユジュ,0
721,3013103001101,新規,0,2022-01-14,2022-01-14,合同会社ウエノ,,合同会社,東京都,福生市,北田園１丁目８番地１４,,13,218,1970005,,,,,,,2022-01-14,1,,,,,ウエノ,0
723,3013303005991,新規,0,2022-01-14,2022-01-14,合同会社ＰＩＶＯＴ９,,合同会社,東京都,豊島区,南長崎６丁目２１番１０号,,13,116,1710052,,,,,,,2022-01-14,1,,,,,ピヴォットナイン,0
734,3020001144709,新規,0,2022-01-14,2022-01-14,株式会社トラストイノベーター,,株式会社,神奈川県,横浜市西区,北幸２丁目８番４号,,14,103,2200004,,,,,,,2022-01-14,1,,,,,トラストイノベーター,0
735,3020001144717,新規,0,2022-01-14,2022-01-14,株式会社フクバ,,株式会社,神奈川県,川崎市麻生区,細山４丁目２５番１－３号,,14,137,2150001,,,,,,,2022-01-14,1,,,,,フクバ,0
736,3020001144733,新規,0,2022-01-14,2022-01-14,株式会社原,,株式会社,神奈川県,横浜市南区,高根町２丁目７番地１－１１０３号,,14,105,2320022,,,,,,,2022-01-14,1,,,,,ハラ,0
737,3020001144741,新規,0,2022-01-14,2022-01-14,株式会社西真工業,,株式会社,神奈川県,川崎市幸区,塚越２丁目２５５番地１,,14,132,2120024,,,,,,,2022-01-14,1,,,,,セイシンコウギョウ,0
738,3020001144766,新規,0,2022-01-14,2022-01-14,株式会社Ｒａｉｈａｎａ,,株式会社,神奈川県,横浜市西区,西戸部町２丁目１６２番地３,,14,103,2200046,,,,,,,2022-01-14,1,,,,,ライハナ,0
739,3020001144774,新規,0,2022-01-14,2022-01-14,株式会社ＴＨＡＮＫＳＭＩＬＥ,,株式会社,神奈川県,横浜市港北区,綱島東４丁目６番１２－１号,,14,109,2230052,,,,,,,2022-01-14,1,,,,,サンクスマイル,0
740,3020005015352,新規,0,2022-01-14,2022-01-14,一般社団法人日本ゴルフマナー協会,,その他の設立登記法人,神奈川県,横浜市都筑区,茅ケ崎南４丁目１４番１－１２０５号,,14,118,2240037,,,,,,,2022-01-14,1,,,,,ニホンゴルフマナーキョウカイ,0
745,3021001074920,新規,0,2022-01-14,2022-01-14,株式会社波音,,株式会社,神奈川県,鎌倉市,由比ガ浜２丁目５番１６号根岸ビル１階,,14,204,2480014,,,,,,,2022-01-14,1,,,,,ハノン,0
746,3021001074945,新規,0,2022-01-14,2022-01-14,株式会社ｂｕｉｌｄｕｐ,,株式会社,神奈川県,藤沢市,鵠沼石上１丁目７番８号,00125392,14,205,2510025,,,,,,,2022-01-14,1,,,,,ビルドアップ,0
747,3021001074953,新規,0,2022-01-14,2022-01-14,株式会社ＵＮＩＰＯＲＴ,,株式会社,神奈川県,相模原市南区,鵜野森２丁目２５番６号Ｂ１０７,,14,153,2520301,,,,,,,2022-01-14,1,,,,,ユニポート,0
752,3030001146266,新規,0,2022-01-14,2022-01-14,株式会社ＴＳＳ,,株式会社,埼玉県,川越市,大字上寺山４５４番地１（ＶＥＲＴ・ＳＯＬＥＩＬＩＩＩ－１０１号室）,00125401,11,201,3500826,,,,,,,2022-01-14,1,,,,,ティーエスエス,0
753,3030001146282,新規,0,2022-01-14,2022-01-14,株式会社Ｇ－ＰＯＷＥＲ　Ｌｅａｄｉｎｇ,,株式会社,埼玉県,さいたま市西区,大字二ツ宮５６８番地１,,11,101,3310065,,,,,,,2022-01-14,1,,,,,ジーパワーリーディング,0
754,3030001146324,新規,0,2022-01-14,2022-01-14,株式会社幸人建設,,株式会社,埼玉県,草加市,稲荷４丁目１６番１５－３号,,11,221,3400003,,,,,,,2022-01-14,1,,,,,ユキトケンセツ,0
759,3030003018645,新規,0,2022-01-14,2022-01-14,合同会社成秀,,合同会社,埼玉県,さいたま市中央区,大字下落合１０８３番地３与野駅前プラザ７０３号室,,11,105,3380002,,,,,,,2022-01-14,1,,,,,セイシュウ,0
764,3040001121615,新規,0,2022-01-14,2022-01-14,株式会社アイシー・コーポレーション,,株式会社,千葉県,松戸市,新松戸南２丁目１３２番地の２,,12,207,2700035,,,,,,,2022-01-14,1,,,,,アイシーコーポレーション,0
765,3040001121714,新規,0,2022-01-14,2022-01-14,株式会社ＴＯＫ,,株式会社,千葉県,野田市,関宿台町１９９５番地２,,12,208,2700202,,,,,,,2022-01-14,1,,,,,ティオーケー,0
766,3040001121722,新規,0,2022-01-14,2022-01-14,株式会社ヴァイナル,,株式会社,千葉県,浦安市,北栄１丁目４番１８－１０８号ベレオシンフォニア,,12,227,2790002,,,,,,,2022-01-14,1,,,,,ヴァイナル,0
767,3040001121796,新規,0,2022-01-14,2022-01-14,株式会社ウィズモー,,株式会社,千葉県,船橋市,前原西２丁目３７番２号,,12,204,2740825,,,,,,,2022-01-14,1,,,,,ウィズモー,0
770,3040003019295,新規,0,2022-01-14,2022-01-14,合同会社Ｓ・Ａプランニング,,合同会社,千葉県,富里市,日吉台１丁目３番地４,,12,233,2860201,,,,,,,2022-01-14,1,,,,,エスエープランニング,0
772,3050001050458,新規,0,2022-01-14,2022-01-14,株式会社ＵＩｅｓｔａｔｅ,,株式会社,茨城県,つくば市,花畑３丁目８番地２８,,08,220,3003261,,,,,,,2022-01-14,1,,,,,ユーアイエステート,0
776,3060001034484,新規,0,2022-01-14,2022-01-14,株式会社ＴＦスマイル,,株式会社,栃木県,宇都宮市,東谷町４番地１,,09,201,3210123,,,,,,,2022-01-14,1,,,,,ティエフスマイル,0
782,3070005009936,新規,0,2022-01-14,2022-01-14,一般社団法人ケアロボットコンソーシアム,,その他の設立登記法人,群馬県,高崎市,上中居町３９８番地８,,10,202,3700851,,,,,,,2022-01-14,1,,,,,ケアロボットコンソーシアム,0
785,3080003002719,新規,0,2022-01-14,2022-01-14,合同会社杉山建装,,合同会社,静岡県,静岡市駿河区,西島１１６５番１,,22,102,4228045,,,,,,,2022-01-14,1,,,,,スギヤマケンソウ,0
790,3090001017354,新規,0,2022-01-14,2022-01-14,ＲＥＧＡＬＯ　ＨＯＭＥ株式会社,,株式会社,山梨県,南都留郡山中湖村,山中５７５番地,,19,425,4010501,,,,,,,2022-01-14,1,,,,,レガロホーム,0
791,3090001017362,新規,0,2022-01-14,2022-01-14,株式会社Ｆｅｗｚｅ,,株式会社,山梨県,都留市,上谷６丁目６番１４号エルバーレ１Ｆ,,19,204,4020053,,,,,,,2022-01-14,1,,,,,ヒューズ,0
795,3090003002024,新規,0,2022-01-14,2022-01-14,佳林合同会社,,合同会社,山梨県,甲府市,上石田１丁目１４－４アルセナーレ４０１,,19,201,4000041,,,,,,,2022-01-14,1,,,,,カリン,0
796,3090005007459,新規,0,2022-01-14,2022-01-14,特定非営利活動法人いろはの里,,その他の設立登記法人,山梨県,南巨摩郡身延町,遅沢１９４６番地,,19,365,4093433,,,,,,,2022-01-14,1,,,,,イロハノサト,0
797,3110001036368,新規,0,2022-01-14,2022-01-14,株式会社稲電工業,,株式会社,新潟県,柏崎市,西山町大津１６１０番地１,,15,205,9494203,,,,,,,2022-01-14,1,,,,,イナデンコウギョウ,0
806,3120001243062,新規,0,2022-01-14,2022-01-14,株式会社Ｒｕｔｚ,,株式会社,大阪府,大阪市東住吉区,西今川２丁目６番６号,,27,121,5460042,,,,,,,2022-01-14,1,,,,,ラッツ,0
807,3120001243079,新規,0,2022-01-14,2022-01-14,株式会社Ｍｉｃｋｅｌｓｏｎ,,株式会社,大阪府,大阪市中央区,南船場４丁目１０番５号南船場ＳＯＨＯ９０３号,,27,128,5420081,,,,,,,2022-01-14,1,,,,,ミケルソン,0
808,3120001243087,新規,0,2022-01-14,2022-01-14,株式会社ＦＵＮ　ＦＵＮ　ＦＵＮ,,株式会社,大阪府,大阪市北区,国分寺２丁目２番７号ＭＵＲＡＴＡｂｕｉｌｄｉｎｇ２０２,,27,127,5310064,,,,,,,2022-01-14,1,,,,,ファンファンファン,0
809,3120001243095,新規,0,2022-01-14,2022-01-14,株式会社Ｍｅｒｃｙ５,,株式会社,大阪府,大阪市中央区,千日前２丁目６番８号,,27,128,5420074,,,,,,,2022-01-14,1,,,,,マーシーファイブ,0
810,3120001243104,新規,0,2022-01-14,2022-01-14,株式会社ｍｏｍｏ,,株式会社,大阪府,大阪市西区,江戸堀２丁目６番２５－８０５号,,27,106,5500002,,,,,,,2022-01-14,1,,,,,モモ,0
811,3120001243112,新規,0,2022-01-14,2022-01-14,ＫＴＭ　ｎａｔｕｒｅ　ｉｎｔｅｒｎａｔｉｏｎａｌ株式会社,,株式会社,大阪府,大阪市中央区,平野町３丁目４番９号,,27,128,5410046,,,,,,,2022-01-14,1,,,,,ケイティーエムネイチャーインターナショナル,0
812,3120001243120,新規,0,2022-01-14,2022-01-14,株式会社ｎｅｒｏ,,株式会社,大阪府,大阪市北区,梅田１丁目１－３,,27,127,5300001,,,,,,,2022-01-14,1,,,,,ネロ,0
813,3120001243153,新規,0,2022-01-14,2022-01-14,株式会社ＡＴＩＣプラス,,株式会社,大阪府,大阪市中央区,久太郎町２丁目５番５－２０５号,,27,128,5410056,,,,,,,2022-01-14,1,,,,,アティックプラス,0
814,3120001243186,新規,0,2022-01-14,2022-01-14,株式会社キャンディ,,株式会社,大阪府,大阪市東住吉区,山坂１丁目１２番４－５０１号,,27,121,5460035,,,,,,,2022-01-14,1,,,,,キャンディ,0
815,3120003020939,新規,0,2022-01-14,2022-01-14,フロアファシリテーター合同会社,,合同会社,大阪府,大阪市淀川区,西中島４丁目５番４号,,27,123,5320011,,,,,,,2022-01-14,1,,,,,フロアファシリテーター,0
816,3120101064929,新規,0,2022-01-14,2022-01-14,株式会社バリエンテ,,株式会社,大阪府,堺市美原区,菅生９２番地３,,27,147,5870041,,,,,,,2022-01-14,1,,,,,バリエンテ,0
819,3120901045459,新規,0,2022-01-14,2022-01-14,株式会社ＡＴＥＬＩＥＲ　ＳＡＳＡＫＩ,,株式会社,大阪府,高槻市,昭和台町２丁目１６番１９号,,27,207,5690815,,,,,,,2022-01-14,1,,,,,アトリエササキ,0
820,3120901045467,新規,0,2022-01-14,2022-01-14,株式会社ＳＯＬＯ,,株式会社,大阪府,豊中市,上野東２丁目４番４１号,,27,203,5600013,,,,,,,2022-01-14,1,,,,,ソロ,0
823,3130001070919,新規,0,2022-01-14,2022-01-14,Ｃｅｎｏｔｅ株式会社,,株式会社,京都府,京都市上京区,小川通上立売下る東入近衛殿北口町１９２番地,,26,102,6020045,,,,,,,2022-01-14,1,,,,,セノーテ,0
824,3130001070927,新規,0,2022-01-14,2022-01-14,フラワーリング株式会社,,株式会社,京都府,京都市中京区,鯉山町５２４番地,,26,104,6048163,,,,,,,2022-01-14,1,,,,,フラワーリング,0
829,3140003017173,新規,0,2022-01-14,2022-01-14,合同会社ｌｕｃｉｎａ,,合同会社,兵庫県,加古郡播磨町,北野添３丁目１４－１０,,28,382,6750158,,,,,,,2022-01-14,1,,,,,ルキナ,0
830,3140003017215,新規,0,2022-01-14,2022-01-14,合同会社Ｄｒｅａｍ　Ｏｒｂｉｔａｌ　Ｔｒｏｏｐ,,合同会社,兵庫県,伊丹市,南町２丁目４番９号,,28,207,6640854,,,,,,,2022-01-14,1,,,,,ドリームオービタルトループ,0
834,3170001016942,新規,0,2022-01-14,2022-01-14,株式会社伐屋,,株式会社,和歌山県,田辺市,新万３番６号,,30,206,6460014,,,,,,,2022-01-14,1,,,,,バツヤ,0
840,3180001149493,新規,0,2022-01-14,2022-01-14,株式会社ＲＵＮ,,株式会社,愛知県,名古屋市千種区,田代本通２丁目１,,23,101,4640827,,,,,,,2022-01-14,1,,,,,ラン,0
853,3200001039650,新規,0,2022-01-14,2022-01-14,Ｒｕｎｗａｙ　Ｊａｐａｎ株式会社,,株式会社,岐阜県,羽島郡笠松町,下柳川町５６番地の４,,21,303,5016057,,,,,,,2022-01-14,1,,,,,ランウェイジャパン,0
867,3220003003181,新規,0,2022-01-14,2022-01-14,合同会社ＹＵＩＫＯ　ＪＡＰＡＮ　ＢＤ　ＬＴＤ,,合同会社,石川県,金沢市,西念２丁目１４番１号（１３０１）,,17,201,9200024,,,,,,,2022-01-14,1,,,,,ユイコージャパンバングラデシュエルティーディー,0
870,3230001019195,新規,0,2022-01-14,2022-01-14,ｃａｐｔｕｒｅ　ｆｌｏｗ株式会社,,株式会社,富山県,射水市,太閤山７丁目７４,,16,211,9390362,,,,,,,2022-01-14,1,,,,,キャプチャーフロー,0
871,3230003001787,新規,0,2022-01-14,2022-01-14,軟開合同会社,,合同会社,富山県,砺波市,大窪１３３番地,,16,208,9391303,,,,,,,2022-01-14,1,,,,,ナンカイ,0
872,3240001059199,新規,0,2022-01-14,2022-01-14,株式会社Ｗｒｅａｔｈ＆Ｃｏ．,,株式会社,広島県,広島市安佐南区,東野２丁目１番２９号,,34,105,7310111,,,,,,,2022-01-14,1,,,,,リースアンドコー,0
875,3240003005449,新規,0,2022-01-14,2022-01-14,合同会社ＣＲＥＡ,,合同会社,広島県,広島市中区,昭和町８番４１－７０３号,,34,101,7300046,,,,,,,2022-01-14,1,,,,,クレア,0
876,3250001019342,新規,0,2022-01-14,2022-01-14,株式会社ＩＫ　ｗｏｒｋ,,株式会社,山口県,岩国市,玖珂町３３２１番地,,35,208,7420344,,,,,,,2022-01-14,1,,,,,アイケイワーク,0
877,3250003002981,新規,0,2022-01-14,2022-01-14,合同会社Ｔｅｋｕｗａｌｋ,,合同会社,山口県,山口市,大内千坊４丁目５番２２号,,35,203,7530251,,,,,,,2022-01-14,1,,,,,テクウォーク,0
878,3260003003772,新規,0,2022-01-14,2022-01-14,合同会社ＤＭＣおかやま,,合同会社,岡山県,美作市,湯郷３２３‐８,,33,215,7070062,,,,,,,2022-01-14,1,,,,,ディーエムシーオカヤマ,0
886,3290001095999,新規,0,2022-01-14,2022-01-14,株式会社青嵐,,株式会社,福岡県,福岡市博多区,青木１丁目１３番３５－１０１号,,40,132,8120851,,,,,,,2022-01-14,1,,,,,セイラン,0
887,3290001096031,新規,0,2022-01-14,2022-01-14,比嘉工業株式会社,,株式会社,福岡県,福岡市早良区,西入部２丁目１２４番地１,,40,137,8111121,,,,,,,2022-01-14,1,,,,,ヒガコウギョウ,0
888,3290001096097,新規,0,2022-01-14,2022-01-14,株式会社ＪｚＬＩＭＩＴＥＤ,,株式会社,福岡県,福岡市東区,美和台新町２１番８号,,40,131,8110211,,,,,,,2022-01-14,1,,,,,ジェイズリミテッド,0
889,3290001096106,新規,0,2022-01-14,2022-01-14,樋口造園株式会社,00125402,株式会社,福岡県,うきは市,浮羽町新川２４４９番地１,,40,225,8391413,,,,,,,2022-01-14,1,,,,,ヒグチゾウエン,0
891,3290003012036,新規,0,2022-01-14,2022-01-14,クロスファイア合同会社,,合同会社,福岡県,福岡市中央区,天神１丁目１‐１アクロス福岡１Ｆｆａｂｂｉｔ内,,40,133,8100001,,,,,,,2022-01-14,1,,,,,クロスファイア,0
894,3290005018527,新規,0,2022-01-14,2022-01-14,ＮＰＯ法人日本クリプトカレンシー相談窓口,,その他の設立登記法人,福岡県,福岡市中央区,春吉３丁目２４番１０－２０１号,,40,133,8100003,,,,,,,2022-01-14,1,,,,,ニホンクリプトカレンシーソウダンマドグチ,0
895,3290801028159,新規,0,2022-01-14,2022-01-14,親和ネクスト株式会社,,株式会社,福岡県,北九州市若松区,響町１丁目１０１番地３,,40,103,8080021,,,,,,,2022-01-14,1,,,,,シンワネクスト,0
896,3290801028167,新規,0,2022-01-14,2022-01-14,一心電設株式会社,,株式会社,福岡県,北九州市小倉南区,上曽根新町１１番２０－１１２号室,,40,107,8000215,,,,,,,2022-01-14,1,,,,,イッシンデンセツ,0
897,3290801028175,新規,0,2022-01-14,2022-01-14,株式会社永優,,株式会社,福岡県,北九州市小倉南区,葛原４丁目２番１０号２０１,,40,107,8000251,,,,,,,2022-01-14,1,,,,,エイユウ,0
898,3300001012770,新規,0,2022-01-14,2022-01-14,ＮＯＧＵＫＥＮ株式会社,,株式会社,佐賀県,佐賀市,北川副町大字新郷４８８番地４,,41,201,8400013,,,,,,,2022-01-14,1,,,,,ノグケン,0
909,3330001029358,新規,0,2022-01-14,2022-01-14,株式会社ＴＹ工業,,株式会社,熊本県,玉名郡長洲町,大字清源寺９８２番地３,,43,368,8690105,,,,,,,2022-01-14,1,,,,,ティーワイコウギョウ,0
911,3340001024432,新規,0,2022-01-14,2022-01-14,Ｃｅｌｅｂｒａｔｉｏｎｓ株式会社,,株式会社,鹿児島県,鹿児島市,松原町１４番１１号－７０５,,46,201,8920833,,,,,,,2022-01-14,1,,,,,セレブレーションズ,0
913,3350001017526,新規,0,2022-01-14,2022-01-14,株式会社Ｎｉｃｏｌａｕｇｈ,,株式会社,宮崎県,延岡市,安賀多町４丁目２番地７,,45,203,8820845,,,,,,,2022-01-14,1,,,,,ニコラフ,0
914,3360001029875,新規,0,2022-01-14,2022-01-14,株式会社Ｔ＆Ａカンパニー,,株式会社,沖縄県,那覇市,字国場１１７８番地７メゾンかみやＡ１０１,,47,201,9020075,,,,,,,2022-01-14,1,,,,,ティーアンドエーカンパニー,0
915,3360001029883,新規,0,2022-01-14,2022-01-14,株式会社みはら建設,,株式会社,沖縄県,沖縄市,美原１丁目１２番１８号、１０４号,,47,211,9042155,,,,,,,2022-01-14,1,,,,,ミハラケンセツ,0
917,3370001048040,新規,0,2022-01-14,2022-01-14,株式会社ＥＮＥＲＵ,,株式会社,宮城県,東松島市,大曲字寺前６１番地２,,04,214,9810502,,,,,,,2022-01-14,1,,,,,エネル,0
918,3370001048049,新規,0,2022-01-14,2022-01-14,株式会社Ｙ’ｓ,,株式会社,宮城県,仙台市宮城野区,幸町３丁目１３番６号ラ・ヴィル杜２１５,,04,102,9830836,,,,,,,2022-01-14,1,,,,,ワイズ,0
919,3370001048057,新規,0,2022-01-14,2022-01-14,株式会社ＮＥＥＤ,,株式会社,宮城県,仙台市宮城野区,二の森２番２０号,,04,102,9830838,,,,,,,2022-01-14,1,,,,,ニード,0
920,3370003005543,新規,0,2022-01-14,2022-01-14,伊藤合同会社,,合同会社,宮城県,仙台市泉区,将監１０丁目１６番７号,,04,105,9813132,,,,,,,2022-01-14,1,,,,,イトウ,0
924,3380001032480,新規,0,2022-01-14,2022-01-14,株式会社Ｂｕｄｄｙ,,株式会社,福島県,郡山市,東原２丁目１５９番地,,07,203,9630552,,,,,,,2022-01-14,1,,,,,バディー,0
929,3390003001912,新規,0,2022-01-14,2022-01-14,合同会社イデアル,,合同会社,山形県,酒田市,日吉町２丁目１番３４号,,06,204,9980037,,,,,,,2022-01-14,1,,,,,イデアル,0
938,3430003013531,新規,0,2022-01-14,2022-01-14,合同会社３ＫＲＡＦＴ,,合同会社,北海道,札幌市北区,屯田七条５丁目１２番１２号,,01,102,0020857,,,,,,,2022-01-14,1,,,,,サンクラフト,0
943,3470001018909,新規,0,2022-01-14,2022-01-14,株式会社ＳＵＮＲＩＶＥＲ,,株式会社,香川県,高松市,浜ノ町６９－１０－１００１,,37,201,7600011,,,,,,,2022-01-14,1,,,,,サンリバー,0
949,3700150106647,新規,0,2022-01-14,2022-01-14,ＤＹＮＡＭＩＣ　ＳＰＡＣＥ　ＥＤＧＥ　ＰＲＩＶＡＴＥ　ＬＩＭＩＴＥＤ,,外国会社等,茨城県,つくばみらい市,谷井田２４４９番地１１－Ａ,,08,235,3002337,スリランカ民主社会主義共和国、コロンボ１０、モヒディーンマスジッドロード、１７７－３４,,,,,,2022-01-14,1,,,,,ダイナミツクスペースエツジプライベートリミテツド,0
958,4010001223867,新規,0,2022-01-14,2022-01-14,株式会社ＴＩＡＭ,,株式会社,東京都,大島町,元町字家の上４１６－４伊豆大島クエストハウス,,13,361,1000101,,,,,,,2022-01-14,1,,,,,ティアム,0
959,4010003036730,新規,0,2022-01-14,2022-01-14,川西３合同会社,,合同会社,東京都,中央区,日本橋１丁目４番１号日本橋一丁目ビルディング,,13,102,1030027,,,,,,,2022-01-14,1,,,,,カワニシサン,0
960,4010003036763,新規,0,2022-01-14,2022-01-14,合同会社プラチナライプ,,合同会社,東京都,中央区,銀座６丁目１３番１６号銀座ＷａｌｌビルＵＣＦ５０１,,13,102,1040061,,,,,,,2022-01-14,1,,,,,プラチナライプ,0
961,4010003036771,新規,0,2022-01-14,2022-01-14,合同会社ラスカス,,合同会社,東京都,千代田区,平河町１丁目６番１３－５０４号,,13,101,1020093,,,,,,,2022-01-14,1,,,,,ラスカス,0
972,4010401164851,新規,0,2022-01-14,2022-01-14,株式会社ベガ,,株式会社,東京都,港区,元麻布３丁目４番２９－４０１号,,13,103,1060046,,,,,,,2022-01-14,1,,,,,ベガ,0
973,4010401164884,新規,0,2022-01-14,2022-01-14,株式会社ボウト,,株式会社,東京都,港区,南青山４丁目８番１９号バウステージ南青山３１０号室,,13,103,1070062,,,,,,,2022-01-14,1,,,,,ボウト,0
974,4010401164934,新規,0,2022-01-14,2022-01-14,株式会社ライクリ,,株式会社,東京都,港区,南麻布３丁目９番２０号リフージョ南麻布,,13,103,1060047,,,,,,,2022-01-14,1,,,,,ライクリ,0
975,4010401164942,新規,0,2022-01-14,2022-01-14,株式会社マグマサウナラボ,,株式会社,東京都,港区,三田３丁目７番１８号ＴＨＥ．ＩＴＯＹＡＭＡ．ＴＯＷＥＲ５階,,13,103,1080073,,,,,,,2022-01-14,1,,,,,マグマサウナラボ,0
980,4010601060520,新規,0,2022-01-14,2022-01-14,株式会社ＫＥＩ,,株式会社,東京都,江東区,東砂８丁目５番１２ツインシティ壱番館エトランズ東砂３０４,,13,108,1360074,,,,,,,2022-01-14,1,,,,,ケイ,0
983,4010603009342,新規,0,2022-01-14,2022-01-14,合同会社メタ・エナジージャパン,,合同会社,東京都,墨田区,太平４丁目１８番９号,,13,107,1300012,,,,,,,2022-01-14,1,,,,,メタエナジージャパン,0
984,4010701042047,新規,0,2022-01-14,2022-01-14,安東不動産ビルマネジメント株式会社,,株式会社,東京都,品川区,東五反田４丁目３番２６号,,13,109,1410022,,,,,,,2022-01-14,1,,,,,アンドウフドウサンビルマネジメント,0
985,4010701042055,新規,0,2022-01-14,2022-01-14,株式会社ＭＨラボ,,株式会社,東京都,品川区,東品川１丁目１３番４号,,13,109,1400002,,,,,,,2022-01-14,1,,,,,エムエイチラボ,0
996,4010901050130,新規,0,2022-01-14,2022-01-14,株式会社エムティーアールフォー,,株式会社,東京都,世田谷区,奥沢５丁目１番１１号,,13,112,1580083,,,,,,,2022-01-14,1,,,,,エムティーアールフォー,0
997,4010901050147,新規,0,2022-01-14,2022-01-14,株式会社Ａｎｄ　ｇｏ,,株式会社,東京都,世田谷区,上北沢４丁目３４番１５号,,13,112,1560057,,,,,,,2022-01-14,1,,,,,アンドゴー,0
998,4010901050163,新規,0,2022-01-14,2022-01-14,株式会社まるちず,,株式会社,東京都,世田谷区,給田５丁目１０番１２号カーサ・デル・ソーレ１０２,,13,112,1570064,,,,,,,2022-01-14,1,,,,,マルチズ,0
999,4011001144905,新規,0,2022-01-14,2022-01-14,株式会社Ｎｏｚａｒａｓｈｉ,,株式会社,東京都,渋谷区,大山町４０番１７号,,13,113,1510065,,,,,,,2022-01-14,1,,,,,ノザラシ,0
1000,4011001144954,新規,0,2022-01-14,2022-01-14,株式会社ｐｅｔｅｃ,,株式会社,東京都,渋谷区,円山町１６－３－１３階,,13,113,1500044,,,,,,,2022-01-14,1,,,,,,0
1001,4011001144979,新規,0,2022-01-14,2022-01-14,生薬ラボ株式会社,,株式会社,東京都,渋谷区,道玄坂１丁目１０番８号渋谷道玄坂東急ビル２Ｆ－Ｃ,,13,113,1500043,,,,,,,2022-01-14,1,,,,,ショウヤクラボ,0
1002,4011001145093,新規,0,2022-01-14,2022-01-14,ＳＴＯＲＹ　ＬＡＢＯ株式会社,,株式会社,東京都,渋谷区,神宮前６丁目２９番４号６階,,13,113,1500001,,,,,,,2022-01-14,1,,,,,ストーリーラボ,0
1006,4011003013950,新規,0,2022-01-14,2022-01-14,合同会社一座,,合同会社,東京都,渋谷区,代官山町１３番８号キャッスルマンション代官山５１３号,,13,113,1500034,,,,,,,2022-01-14,1,,,,,イチザ,0
1007,4011003013967,新規,0,2022-01-14,2022-01-14,合同会社Ｒａｔｅｌ,,合同会社,東京都,渋谷区,神宮前６丁目２３番４号桑野ビル２階,,13,113,1500001,,,,,,,2022-01-14,1,,,,,ラーテル,0
1015,4011101097417,新規,0,2022-01-14,2022-01-14,株式会社Ｄ－ｐｌｕｓ,,株式会社,東京都,新宿区,新宿７丁目２７番３－６０５号,,13,104,1600022,,,,,,,2022-01-14,1,,,,,ディープラス,0
1016,4011101097508,新規,0,2022-01-14,2022-01-14,株式会社しんじゅく一色,,株式会社,東京都,新宿区,新宿３丁目１８番１号,,13,104,1600022,,,,,,,2022-01-14,1,,,,,シンジュクイッシキ,0
1017,4011103011367,新規,0,2022-01-14,2022-01-14,パープルサブマリン合同会社,,合同会社,東京都,新宿区,新宿４丁目４番８号,,13,104,1600022,,,,,,,2022-01-14,1,,,,,パープルサブマリン,0
1025,4011501027667,新規,0,2022-01-14,2022-01-14,株式会社ＹＧアセット,,株式会社,東京都,荒川区,南千住８丁目３番７号,,13,118,1160003,,,,,,,2022-01-14,1,,,,,ワイジーアセット,0
1028,4011601025661,新規,0,2022-01-14,2022-01-14,ＧＬＤ株式会社,,株式会社,東京都,練馬区,関町南２丁目２７番７号,,13,120,1770053,,,,,,,2022-01-14,1,,,,,ジーエルディー,0
1044,4020001144575,新規,0,2022-01-14,2022-01-14,株式会社ＡＩＭ,,株式会社,神奈川県,横浜市都筑区,南山田２丁目１７番２１号モンテベルテ１０５,,14,118,2240029,,,,,,,2022-01-14,1,,,,,エイム,0
1045,4020001144708,新規,0,2022-01-14,2022-01-14,株式会社Ｂｌｏｏｍ,,株式会社,神奈川県,横浜市磯子区,坂下町１番１９号,,14,107,2350003,,,,,,,2022-01-14,1,,,,,ブルーム,0
1046,4020001144732,新規,0,2022-01-14,2022-01-14,株式会社アメイジングプラス,,株式会社,神奈川県,横浜市中区,山下町３２番地１３ＨＡＲＡビル５階,,14,104,2310023,,,,,,,2022-01-14,1,,,,,アメイジングプラス,0
1047,4020001144740,新規,0,2022-01-14,2022-01-14,株式会社楓人,,株式会社,神奈川県,横浜市都筑区,中川１丁目１９番２７号,,14,118,2240001,,,,,,,2022-01-14,1,,,,,フウト,0
1048,4020001144749,新規,0,2022-01-14,2022-01-14,株式会社ひこばえ,,株式会社,神奈川県,横浜市鶴見区,鶴見１丁目７番２４号,,14,101,2300063,,,,,,,2022-01-14,1,,,,,ヒコバエ,0
1049,4020001144781,新規,0,2022-01-14,2022-01-14,株式会社オゲームズ,,株式会社,神奈川県,横浜市西区,中央１丁目３５－３,,14,103,2200051,,,,,,,2022-01-14,1,,,,,オゲームズ,0
1053,4020003021120,新規,0,2022-01-14,2022-01-14,合同会社アシスト,,合同会社,神奈川県,横浜市瀬谷区,中央２番地２６ルピナス瀬谷５０３号,,14,114,2460014,,,,,,,2022-01-14,1,,,,,アシスト,0
1057,4021001074928,新規,0,2022-01-14,2022-01-14,一光システム株式会社,,株式会社,神奈川県,茅ヶ崎市,南湖４丁目２２番４２－７０４号,,14,207,2530061,,,,,,,2022-01-14,1,,,,,イチコウシステム,0
1058,4021001074936,新規,0,2022-01-14,2022-01-14,株式会社クライムアップ,,株式会社,神奈川県,秦野市,平沢６９３番地の１グレイスコートＩＩ２０２号,00125391,14,211,2570015,,,,,,,2022-01-14,1,,,,,クライムアップ,0
1059,4021001074952,新規,0,2022-01-14,2022-01-14,株式会社ＳＯＬ,,株式会社,神奈川県,海老名市,中新田３丁目９番５０号,,14,215,2430422,,,,,,,2022-01-14,1,,,,,エスオーエル,0
1065,4030001146273,新規,0,2022-01-14,2022-01-14,株式会社ＥＣＯＷＳ,,株式会社,埼玉県,越谷市,花田７丁目５番地４,,11,222,3430015,,,,,,,2022-01-14,1,,,,,エコース,0
1066,4030001146281,新規,0,2022-01-14,2022-01-14,株式会社ジャパンスタンダード,,株式会社,埼玉県,さいたま市南区,四谷３丁目７番９－５０４号ローヤルシティ武蔵浦和ガーデン,,11,108,3360032,,,,,,,2022-01-14,1,,,,,ジャパンスタンダード,0
1067,4030001146307,新規,0,2022-01-14,2022-01-14,株式会社フジミノハウス,,株式会社,埼玉県,ふじみ野市,新田１丁目６番７号,,11,245,3560033,,,,,,,2022-01-14,1,,,,,フジミノハウス,0
1068,4030001146348,新規,0,2022-01-14,2022-01-14,株式会社アオモク,,株式会社,埼玉県,越谷市,大字砂原１０８２－１,,11,222,3430803,,,,,,,2022-01-14,1,,,,,アオモク,0
1070,4030003018644,新規,0,2022-01-14,2022-01-14,Ｈａｕｏｒｉ合同会社,,合同会社,埼玉県,志木市,柏町６丁目５番８号,,11,228,3530007,,,,,,,2022-01-14,1,,,,,ハウオリ,0
1071,4030003018660,新規,0,2022-01-14,2022-01-14,合同会社エイト,,合同会社,埼玉県,入間市,東藤沢１丁目３番２３号メゾン藤沢２０２号室,,11,225,3580012,,,,,,,2022-01-14,1,,,,,エイト,0
1078,4040001121639,新規,0,2022-01-14,2022-01-14,株式会社ＬＵＮＡ．ＣＯ．，ＬＴＤ．,,株式会社,千葉県,八街市,八街ほ２２４番地１６,,12,230,2891115,,,,,,,2022-01-14,1,,,,,ルナコーポレーション,0
1079,4040001121671,新規,0,2022-01-14,2022-01-14,豊海国際株式会社,,株式会社,千葉県,松戸市,大橋４２１－３－１０１,,12,207,2702224,,,,,,,2022-01-14,1,,,,,トヨミコクサイ,0
1080,4040001121713,新規,0,2022-01-14,2022-01-14,株式会社ラピス,,株式会社,千葉県,船橋市,前貝塚町４６９番地１,,12,204,2730042,,,,,,,2022-01-14,1,,,,,ラピス,0
1081,4040001121754,新規,0,2022-01-14,2022-01-14,株式会社ミオネッツ,,株式会社,千葉県,千葉市若葉区,都賀３丁目８番３号安藤コーポ４０２号,,12,104,2640025,,,,,,,2022-01-14,1,,,,,ミオネッツ,0
1082,4040001121779,新規,0,2022-01-14,2022-01-14,ＴＲソリューション株式会社,,株式会社,千葉県,千葉市中央区,市場町２番１５号,,12,101,2600855,,,,,,,2022-01-14,1,,,,,ティーアールソリューション,0
1083,4040001121804,新規,0,2022-01-14,2022-01-14,株式会社ＯＮＥ,,株式会社,千葉県,松戸市,東松戸１丁目８番地５,,12,207,2702225,,,,,,,2022-01-14,1,,,,,ワン,0
1084,4040003019278,新規,0,2022-01-14,2022-01-14,合同会社ＡＧＯＮＩＳＴ,,合同会社,千葉県,千葉市中央区,富士見２丁目７番９号富士見ビル６０９号,,12,101,2600015,,,,,,,2022-01-14,1,,,,,アゴニスト,0
1085,4040003019294,新規,0,2022-01-14,2022-01-14,エスクレア合同会社,,合同会社,千葉県,柏市,大室１３４０－８６,,12,217,2770813,,,,,,,2022-01-14,1,,,,,エスクレア,0
1086,4040003019303,新規,0,2022-01-14,2022-01-14,流山アーティサンズ合同会社,,合同会社,千葉県,流山市,美原３丁目８５－３ハピネス池田２０１号室,,12,220,2700103,,,,,,,2022-01-14,1,,,,,ナガレヤマアーティサンズ,0
1088,4050001050457,新規,0,2022-01-14,2022-01-14,株式会社ｅｎ．,,株式会社,茨城県,つくば市,松代１丁目２１番地１６,,08,220,3050035,,,,,,,2022-01-14,1,,,,,エン,0
1093,4060003003924,新規,0,2022-01-14,2022-01-14,ＴＫＴインベストメント合同会社,,合同会社,栃木県,宇都宮市,上戸祭町５５番地４－Ｂ－１０２,,09,201,3200051,,,,,,,2022-01-14,1,,,,,ティーケイティーインベストメント,0
1099,4080101023038,新規,0,2022-01-14,2022-01-14,株式会社Ｖｅｌｖｅｔ　ｐａｓｓ,,株式会社,静岡県,沼津市,大岡２４２番地の８,,22,203,4100022,,,,,,,2022-01-14,1,,,,,ベルベットパス,0
1105,4090001017361,新規,0,2022-01-14,2022-01-14,株式会社永田工務店,,株式会社,山梨県,南都留郡西桂町,１５９０番地,,19,423,4030000,,,,,,,2022-01-14,1,,,,,ナガタコウムテン,0
1107,4100003006369,新規,0,2022-01-14,2022-01-14,同徳協力合同会社,,合同会社,長野県,飯田市,松尾代田１８１２番地１,,20,205,3950812,,,,,,,2022-01-14,1,,,,,ドウトクキョウリョク,0
1108,4110001036367,新規,0,2022-01-14,2022-01-14,株式会社長峰建築,,株式会社,新潟県,阿賀野市,山崎３１１番地,,15,223,9591919,,,,,,,2022-01-14,1,,,,,ナガミネケンチク,0
1112,4110003004677,新規,0,2022-01-14,2022-01-14,合同会社クーレベント,,合同会社,新潟県,長岡市,古正寺１丁目２９２４番地,,15,202,9402106,,,,,,,2022-01-14,1,,,,,クーレベント,0
1127,4120001243020,新規,0,2022-01-14,2022-01-14,株式会社フルキ,,株式会社,大阪府,寝屋川市,日之出町５番１号,,27,215,5720835,,,,,,,2022-01-14,1,,,,,フルキ,0
1128,4120001243086,新規,0,2022-01-14,2022-01-14,株式会社ＴＳＧ,,株式会社,大阪府,大阪市中央区,南久宝寺町１丁目９番９号,,27,128,5410058,,,,,,,2022-01-14,1,,,,,ティーエスジー,0
1129,4120001243103,新規,0,2022-01-14,2022-01-14,株式会社ナチュラルケアベーシック,,株式会社,大阪府,大阪市浪速区,幸町２丁目３番１４号ダイトービル５０７号,,27,111,5560021,,,,,,,2022-01-14,1,,,,,ナチュラルケアベーシック,0
1130,4120001243111,新規,0,2022-01-14,2022-01-14,京橋メディカル株式会社,,株式会社,大阪府,大阪市都島区,東野田町２丁目３－１４大京商事本社ビル３階Ｂ,,27,102,5340024,,,,,,,2022-01-14,1,,,,,キョウバシメディカル,0
1131,4120001243128,新規,0,2022-01-14,2022-01-14,株式会社Ｋ－ＲｅｇｕＬｕｓ,,株式会社,大阪府,大阪市中央区,南船場２丁目１０番２７号,,27,128,5420081,,,,,,,2022-01-14,1,,,,,ケーレグルス,0
1132,4120001243144,新規,0,2022-01-14,2022-01-14,株式会社グラシアス,,株式会社,大阪府,大阪市東淀川区,下新庄５丁目１２番１０号,,27,114,5330021,,,,,,,2022-01-14,1,,,,,グラシアス,0
1133,4120001243160,新規,0,2022-01-14,2022-01-14,株式会社ロータスギャラリー,,株式会社,大阪府,大阪市北区,梅田２丁目２番２号ヒルトンプラザウエストオフィスタワー１９階,,27,127,5300001,,,,,,,2022-01-14,1,,,,,ロータスギャラリー,0
1134,4120001243169,新規,0,2022-01-14,2022-01-14,ａ　ｓｔａｇｅ株式会社,,株式会社,大阪府,大阪市西区,南堀江１丁目１６番１１号,,27,106,5500015,,,,,,,2022-01-14,1,,,,,アルファステージ,0
1135,4120001243210,新規,0,2022-01-14,2022-01-14,株式会社アクトサウンドプロダクト,,株式会社,大阪府,大阪市天王寺区,上汐３丁目２番２５－７０３,,27,109,5430002,,,,,,,2022-01-14,1,,,,,アクトサウンドプロダクト,0
1141,4120003020888,新規,0,2022-01-14,2022-01-14,合同会社榎本,,合同会社,大阪府,大阪市浪速区,戎本町１丁目７番１－１０４号,,27,111,5560013,,,,,,,2022-01-14,1,,,,,エノモト,0
1142,4120003020938,新規,0,2022-01-14,2022-01-14,ＨＯＲＩＺＯＮ合同会社,,合同会社,大阪府,大阪市福島区,吉野２丁目１３番１０号,,27,103,5530006,,,,,,,2022-01-14,1,,,,,ホライズン,0
1143,4120003020954,新規,0,2022-01-14,2022-01-14,ＳＡＮＣ合同会社,,合同会社,大阪府,大阪市中央区,安堂寺町２丁目５番１０－５０４号,,27,128,5420061,,,,,,,2022-01-14,1,,,,,サンク,0
1147,4120101064952,新規,0,2022-01-14,2022-01-14,株式会社リスタート,,株式会社,大阪府,高石市,東羽衣３丁目１番１－１３０７号,,27,225,5920003,,,,,,,2022-01-14,1,,,,,リスタート,0
1149,4120103004527,新規,0,2022-01-14,2022-01-14,安心セーフティ合同会社,,合同会社,大阪府,泉大津市,旭町２２番２０－１６号,,27,206,5950025,,,,,,,2022-01-14,1,,,,,アンシンセーフティ,0
1157,4120901045458,新規,0,2022-01-14,2022-01-14,株式会社電匠工業,,株式会社,大阪府,吹田市,岸部北２丁目３１番１８号,,27,205,5640001,,,,,,,2022-01-14,1,,,,,デンショウコウギョウ,0
1158,4120903003991,新規,0,2022-01-14,2022-01-14,合同会社興和,,合同会社,大阪府,茨木市,五日市２丁目１番１７号,,27,211,5670005,,,,,,,2022-01-14,1,,,,,コウワ,0
1162,4130001070918,新規,0,2022-01-14,2022-01-14,株式会社ＫＭＰ,,株式会社,京都府,京都市山科区,北花山中道町８３番地東花マンション２１号,,26,110,6078481,,,,,,,2022-01-14,1,,,,,ケーエムピー,0
1168,4140001124540,新規,0,2022-01-14,2022-01-14,ＴＳＡ株式会社,,株式会社,兵庫県,尼崎市,南塚口町８丁目１４番３０－２号,,28,202,6610012,,,,,,,2022-01-14,1,,,,,ティーエスエー,0
1171,4140005025990,新規,0,2022-01-14,2022-01-14,一般社団法人日本訪問診療・看護協会,,その他の設立登記法人,兵庫県,神戸市西区,北別府５丁目２４番地の９,,28,111,6512117,,,,,,,2022-01-14,1,,,,,ニホンホウモンシンリョウカンゴキョウカイ,0
1172,4150001025250,新規,0,2022-01-14,2022-01-14,株式会社大和ロジスティック,,株式会社,奈良県,山辺郡山添村,大字三ケ谷４４６番地,,29,322,6302223,,,,,,,2022-01-14,1,,,,,ヤマトロジスティック,0
1174,4160005011031,新規,0,2022-01-14,2022-01-14,一般社団法人日本手帳クリエイター協会,,その他の設立登記法人,滋賀県,守山市,守山１丁目２番１０号,,25,207,5240022,,,,,,,2022-01-14,1,,,,,ニホンテチョウクリエイターキョウカイ,0
1176,4170001016933,新規,0,2022-01-14,2022-01-14,株式会社マルサカ,,株式会社,和歌山県,田辺市,明洋３丁目１２番１５号,,30,206,6460062,,,,,,,2022-01-14,1,,,,,マルサカ,0
1180,4180001149583,新規,0,2022-01-14,2022-01-14,株式会社マーヴェリックアンドカンパニー,,株式会社,愛知県,春日井市,下屋敷町字知光院３１番地３８,,23,206,4860906,,,,,,,2022-01-14,1,,,,,マーヴェリックアンドカンパニー,0
1183,4180003023340,新規,0,2022-01-14,2022-01-14,合同会社砂月新聞店,,合同会社,愛知県,常滑市,金山字六治６８番地,,23,216,4790003,,,,,,,2022-01-14,1,,,,,サツキシンブンテン,0
1184,4180005019601,新規,0,2022-01-14,2022-01-14,一般社団法人日本セラピストグロウアカデミー,,その他の設立登記法人,愛知県,名古屋市中区,丸の内３丁目１９番１４号,,23,106,4600002,,,,,,,2022-01-14,1,,,,,ニホンセラピストグロウアカデミー,0
1201,4230001019194,新規,0,2022-01-14,2022-01-14,株式会社就活ラジオ,,株式会社,富山県,富山市,上飯野２０－６,,16,201,9300827,,,,,,,2022-01-14,1,,,,,シュウカツラジオ,0
1209,4250003002980,新規,0,2022-01-14,2022-01-14,合同会社ファイナンシャルプロＩＦＡ,,合同会社,山口県,下関市,安岡町４丁目１０番１７号,,35,201,7596603,,,,,,,2022-01-14,1,,,,,ファイナンシャルプロアイエフエー,0
1216,4290001096096,新規,0,2022-01-14,2022-01-14,株式会社ＡＳＳＯＯＮＡＳ,,株式会社,福岡県,福岡市中央区,天神４丁目１－１８,,40,133,8100001,,,,,,,2022-01-14,1,,,,,アズスーンアズ,0
1218,4290003012035,新規,0,2022-01-14,2022-01-14,Ｌ．Ｎ．Ｍｏｔｏｒｓ合同会社,,合同会社,福岡県,宗像市,田熊５丁目９番１８号,,40,220,8113431,,,,,,,2022-01-14,1,,,,,エルエヌモーターズ,0
1220,4290005018518,新規,0,2022-01-14,2022-01-14,特定非営利活動法人日韓障がい者交流協会ふくおか,,その他の設立登記法人,福岡県,福岡市南区,平和２丁目２７番２６号貴島ビル,,40,134,8150071,,,,,,,2022-01-14,1,,,,,ニッカンショウガイシャコウリュウキョウカイフクオカ,0
1221,4290801028166,新規,0,2022-01-14,2022-01-14,スペシャル・ニーズ・サポート株式会社,,株式会社,福岡県,北九州市小倉北区,片野３丁目６番３５－５０２号,,40,106,8020064,,,,,,,2022-01-14,1,,,,,スペシャルニーズサポート,0
1222,4290801028174,新規,0,2022-01-14,2022-01-14,アイデアランズ株式会社,,株式会社,福岡県,田川郡福智町,赤池４７４番地９８,,40,610,8221101,,,,,,,2022-01-14,1,,,,,アイデアランズ,0
1223,4290803004033,新規,0,2022-01-14,2022-01-14,合同会社愛悠福祉会,,合同会社,福岡県,中間市,通谷２丁目３５－３１,,40,215,8090018,,,,,,,2022-01-14,1,,,,,アイユウフクシカイ,0
1227,4300003001779,新規,0,2022-01-14,2022-01-14,合同会社ＯｎｅＳｅｌｆ,,合同会社,佐賀県,佐賀市,本庄町大字袋３５９番地１１－６０２号,,41,201,8400023,,,,,,,2022-01-14,1,,,,,ワンセルフ,0
1236,4320003003699,新規,0,2022-01-14,2022-01-14,合同会社御菓子司日田とらや,,合同会社,大分県,日田市,中本町５番４１号,,44,204,8770047,,,,,,,2022-01-14,1,,,,,オカシツカサヒタトラヤ,0
1243,4350001017525,新規,0,2022-01-14,2022-01-14,株式会社柏原牧場,,株式会社,宮崎県,小林市,野尻町東麓２５２４番地１,,45,205,8860212,,,,,,,2022-01-14,1,,,,,カシワバラボクジョウ,0
1245,4370001048048,新規,0,2022-01-14,2022-01-14,トラストテック株式会社,,株式会社,宮城県,仙台市青葉区,高松２丁目１１番７９号１Ｆ１０２号室,,04,101,9810907,,,,,,,2022-01-14,1,,,,,トラストテック,0
1246,4370001048056,新規,0,2022-01-14,2022-01-14,志喜建興株式会社,,株式会社,宮城県,仙台市青葉区,南吉成６丁目３－１９－１０２,,04,101,9893204,,,,,,,2022-01-14,1,,,,,シキケンコウ,0
1251,4370003005550,新規,0,2022-01-14,2022-01-14,合同会社ｙｕｓｈｉｎ,,合同会社,宮城県,仙台市青葉区,立町１６番２５号ライオンズマンション立町１０１号室,,04,101,9800822,,,,,,,2022-01-14,1,,,,,ユシン,0
1255,4380001032488,新規,0,2022-01-14,2022-01-14,株式会社ＣＡＲＳＰＥＣ,,株式会社,福島県,福島市,北矢野目字前原１０番地の１,,07,201,9600113,,,,,,,2022-01-14,1,,,,,カースペック,0
1256,4380001032496,新規,0,2022-01-14,2022-01-14,株式会社サンライズ,,株式会社,福島県,郡山市,久留米４丁目９６番地の８,,07,203,9638846,,,,,,,2022-01-14,1,,,,,サンライズ,0
1259,4400003002882,新規,0,2022-01-14,2022-01-14,合同会社ａｂｉｂｅＵ,,合同会社,岩手県,盛岡市,山岸３丁目２０番１２号,,03,201,0200004,,,,,,,2022-01-14,1,,,,,アヴァイブ,0
1261,4420001017699,新規,0,2022-01-14,2022-01-14,株式会社ＡＱＵＡ　ＣＲＡＦＴ,,株式会社,青森県,十和田市,西二十二番町１９番１９号,,02,206,0340094,,,,,,,2022-01-14,1,,,,,アクアクラフト,0
1262,4420003002427,新規,0,2022-01-14,2022-01-14,合資会社どんぐりの里,,合資会社,青森県,青森市,大字羽白字沢田６６番地１９,,02,201,0380058,,,,,,,2022-01-14,1,,,,,ドングリノサト,0
1265,4430001085803,新規,0,2022-01-14,2022-01-14,株式会社タカモリコウギョウ,,株式会社,北海道,札幌市北区,屯田六条３丁目３番１８号,,01,102,0020856,,,,,,,2022-01-14,1,,,,,タカモリコウギョウ,0
1275,4470005006405,新規,0,2022-01-14,2022-01-14,一般社団法人さぬき市津田地区まちづくり協議会,,その他の設立登記法人,香川県,さぬき市,津田町鶴羽１５２０番地１３０,,37,206,7692402,,,,,,,2022-01-14,1,,,,,サヌキシツダチクマチヅクリキョウギカイ,0
1288,5010001223817,新規,0,2022-01-14,2022-01-14,株式会社ＧＥＮＵＩＮＥ,,株式会社,東京都,中央区,入船３丁目１０－５銀座レジデンス壱番館１２０２,,13,102,1040042,,,,,,,2022-01-14,1,,,,,ジェニュイン,0
1289,5010001223858,新規,0,2022-01-14,2022-01-14,株式会社ＲＡＹ．Ｌｕ,,株式会社,東京都,中央区,日本橋室町１丁目２－６日本橋大栄ビル７階,,13,102,1030022,,,,,,,2022-01-14,1,,,,,レイル,0
1290,5010001223874,新規,0,2022-01-14,2022-01-14,株式会社ＳｐｅｎｃｅｒＨａｗｋ,,株式会社,東京都,千代田区,丸の内１丁目８番３号丸の内トラストタワー本館２０階,,13,101,1000005,,,,,,,2022-01-14,1,,,,,スペンサーホーク,0
1291,5010003036762,新規,0,2022-01-14,2022-01-14,マウンテンドーナッツ合同会社,,合同会社,東京都,千代田区,神田小川町３丁目６－９神田第２アメレックスビル９Ｆ,,13,101,1010052,,,,,,,2022-01-14,1,,,,,マウンテンドーナッツ,0
1292,5010003036770,新規,0,2022-01-14,2022-01-14,Ｒｅ－Ｗｏｒｋ合同会社,,合同会社,東京都,中央区,銀座７丁目１３－６サガミビル２階,,13,102,1040061,,,,,,,2022-01-14,1,,,,,リワーク,0
1293,5010003036779,新規,0,2022-01-14,2022-01-14,合同会社ヤナカホールディングス,,合同会社,東京都,中央区,銀座６丁目１２番１２号,,13,102,1040061,,,,,,,2022-01-14,1,,,,,ヤナカホールディングス,0
1303,5010403026826,新規,0,2022-01-14,2022-01-14,合同会社Ｔａｕｌａｌａ,,合同会社,東京都,港区,南青山２丁目２番１５号,,13,103,1070062,,,,,,,2022-01-14,1,,,,,タウララ,0
1304,5010403026891,新規,0,2022-01-14,2022-01-14,ＵＩ　Ｋｏｎａｎ　Ｋａｎｓａｉ合同会社,,合同会社,東京都,港区,元赤坂１丁目１番７号,,13,103,1070051,,,,,,,2022-01-14,1,,,,,ユーアイコナンカンサイ,0
1305,5010405020570,新規,0,2022-01-14,2022-01-14,一般社団法人国際医薬品・サプリメント普及協会,,その他の設立登記法人,東京都,港区,白金台４丁目３番１９号ＫＤＸレジデンス白金Ｂ１,,13,103,1080071,,,,,,,2022-01-14,1,,,,,コクサイイヤクヒンサブリメントフキュウキョウカイ,0
1306,5010501048284,新規,0,2022-01-14,2022-01-14,華成株式会社,,株式会社,東京都,台東区,今戸２丁目１６－１１,,13,106,1110024,,,,,,,2022-01-14,1,,,,,カセイ,0
1307,5010501048318,新規,0,2022-01-14,2022-01-14,株式会社クローズバイ,,株式会社,東京都,台東区,東上野３丁目２１番２号越前ビル２０１,,13,106,1100015,,,,,,,2022-01-14,1,,,,,クローズバイ,0
1308,5010501048326,新規,0,2022-01-14,2022-01-14,株式会社ＹＯＲＯＫＯＢＩ,,株式会社,東京都,台東区,谷中３丁目２３番９－２０３号ザ・パークハウス谷中道灌山レジデンス,,13,106,1100001,,,,,,,2022-01-14,1,,,,,ヨロコビ,0
1310,5010503006471,新規,0,2022-01-14,2022-01-14,合同会社ＭＩＮＤ　ＲＥＳＥＴアライアンス,,合同会社,東京都,台東区,池之端４丁目９番１１号,,13,106,1100008,,,,,,,2022-01-14,1,,,,,マインドリセットアライアンス,0
1312,5010701042054,新規,0,2022-01-14,2022-01-14,シェフズプロテイン株式会社,,株式会社,東京都,品川区,上大崎４丁目１番１－２５０３号,,13,109,1410021,,,,,,,2022-01-14,1,,,,,シェフズプロテイン,0
1313,5010701042062,新規,0,2022-01-14,2022-01-14,Ｖｉｃｔｏｒｉａ　Ｍａｎａｇｅｍｅｎｔ株式会社,,株式会社,東京都,品川区,大崎２丁目９番２号,,13,109,1410032,,,,,,,2022-01-14,1,,,,,ヴィクトリアマネジメント,0
1314,5010801032649,新規,0,2022-01-14,2022-01-14,株式会社Ａｃｅ．,,株式会社,東京都,大田区,池上８丁目２５番２号グリーンベル池上１０１,,13,111,1460082,,,,,,,2022-01-14,1,,,,,エース,0
1321,5010903007078,新規,0,2022-01-14,2022-01-14,合同会社うらかた,,合同会社,東京都,世田谷区,喜多見６丁目４番７号,,13,112,1570067,,,,,,,2022-01-14,1,,,,,ウラカタ,0
1325,5011001144920,新規,0,2022-01-14,2022-01-14,株式会社ワールドレオン,,株式会社,東京都,渋谷区,恵比寿南３丁目１番２６号クオリアＹ’Ｚ恵比寿６０７,,13,113,1500022,,,,,,,2022-01-14,1,,,,,ワールドレオン,0
1326,5011001145043,新規,0,2022-01-14,2022-01-14,株式会社Ｔｏｍｏｒｒｏｗ,,株式会社,東京都,渋谷区,桜丘町１７番１２号ジョンソンビル４０１,,13,113,1500031,,,,,,,2022-01-14,1,,,,,トゥモロー,0
1327,5011001145051,新規,0,2022-01-14,2022-01-14,株式会社ｒｅｍｅｎｔａｌ,,株式会社,東京都,渋谷区,宇田川町３－７ヒューリック渋谷公園通りビル５Ｆ－２０,,13,113,1500042,,,,,,,2022-01-14,1,,,,,リメンタル,0
1328,5011001145126,新規,0,2022-01-14,2022-01-14,ＥＳＳＰＲＩＤＥ３６１ＨＯＬＤＩＮＧＳ株式会社,,株式会社,東京都,渋谷区,千駄ヶ谷３丁目１７番１１号,,13,113,1510051,,,,,,,2022-01-14,1,,,,,エスプライドサンビャクロクジュウイチホールディングス,0
1330,5011005009384,新規,0,2022-01-14,2022-01-14,社会保険労務士法人Ｃｏ．Ｃｏ．Ｌａｂｏ経営・社労士事務所,,その他の設立登記法人,東京都,渋谷区,代々木２丁目２３－１ニューステートメナー１２６３,,13,113,1510053,,,,,,,2022-01-14,1,,,,,ココラボケイエイシャロウシジムショ,0
1333,5011101097507,新規,0,2022-01-14,2022-01-14,Ｔｒｅｖｅ株式会社,,株式会社,東京都,新宿区,下落合３丁目１２番３２号,,13,104,1610033,,,,,,,2022-01-14,1,,,,,トレーヴ,0
1334,5011101097515,新規,0,2022-01-14,2022-01-14,Ｇｒａｎｄｅｕｒ株式会社,,株式会社,東京都,新宿区,新宿１丁目１３番１２号ＦＩＲＳＴビル,,13,104,1600022,,,,,,,2022-01-14,1,,,,,グランドール,0
1335,5011101097523,新規,0,2022-01-14,2022-01-14,株式会社ＣＥＴ,,株式会社,東京都,新宿区,西新宿１丁目２６番２号新宿野村ビル３２Ｆ,,13,104,1600023,,,,,,,2022-01-14,1,,,,,シーイーティー,0
1336,5011201023544,新規,0,2022-01-14,2022-01-14,エーシャンゲート株式会社,,株式会社,東京都,中野区,鷺宮６丁目２８番３２号,,13,114,1650032,,,,,,,2022-01-14,1,,,,,エーシャンゲート,0
1337,5011201023552,新規,0,2022-01-14,2022-01-14,株式会社よかろうもん,,株式会社,東京都,中野区,江古田３丁目１４番１３－２０７号,,13,114,1650022,,,,,,,2022-01-14,1,,,,,ヨカロウモン,0
1339,5011301027478,新規,0,2022-01-14,2022-01-14,株式会社ｍｏｏｎｂｉｒｄ,,株式会社,東京都,杉並区,高円寺南２丁目２１番４号ヒルズテラス高円寺Ｂ１階,,13,115,1660003,,,,,,,2022-01-14,1,,,,,ムーンバード,0
1340,5011305002799,新規,0,2022-01-14,2022-01-14,税理士法人コスモタックス,,その他の設立登記法人,東京都,杉並区,阿佐谷南１丁目１８番６号第７スカイビル４０１号,,13,115,1660004,,,,,,,2022-01-14,1,,,,,コスモタックス,0
1342,5011501027666,新規,0,2022-01-14,2022-01-14,株式会社ディオソレイユ,,株式会社,東京都,荒川区,南千住１丁目２１番３号,,13,118,1160003,,,,,,,2022-01-14,1,,,,,ディオソレイユ,0
1343,5011601025660,新規,0,2022-01-14,2022-01-14,株式会社カーズインフィニティ,,株式会社,東京都,練馬区,石神井町１丁目２６番１０号３階,,13,120,1770041,,,,,,,2022-01-14,1,,,,,カーズインフィニティ,0
1344,5011603003499,新規,0,2022-01-14,2022-01-14,合同会社ＫＥＲＳ,,合同会社,東京都,練馬区,大泉学園町５丁目２７番１４号,,13,120,1780061,,,,,,,2022-01-14,1,,,,,ケルス,0
1349,5011801040179,新規,0,2022-01-14,2022-01-14,株式会社ニューテック,,株式会社,東京都,足立区,中央本町５丁目１３番１２号,,13,121,1210011,,,,,,,2022-01-14,1,,,,,ニューテック,0
1350,5011801040187,新規,0,2022-01-14,2022-01-14,株式会社Ｇｉｖｅ　ｃｏｕｎｔｒｙ,,株式会社,東京都,葛飾区,東新小岩４丁目６番２号,,13,122,1240023,,,,,,,2022-01-14,1,,,,,ギブカントリー,0
1352,5012301012833,新規,0,2022-01-14,2022-01-14,株式会社オフィスワイ,,株式会社,東京都,町田市,本町田２４２４番地１公社住宅ホ１２－１０３,,13,209,1940032,,,,,,,2022-01-14,1,,,,,オフィスワイ,0
1354,5012401038745,新規,0,2022-01-14,2022-01-14,株式会社中久本店,,株式会社,東京都,府中市,宮西町４丁目２番地の１,,13,206,1830022,,,,,,,2022-01-14,1,,,,,ナカキュウホンテン,0
1361,5013301048545,新規,0,2022-01-14,2022-01-14,株式会社Ｂｒｅｓｃ,,株式会社,東京都,豊島区,南大塚３丁目５２番８－３０１号,,13,116,1700005,,,,,,,2022-01-14,1,,,,,ブレスク,0
1362,5013301048553,新規,0,2022-01-14,2022-01-14,株式会社ＢＥＬＩＦＥ,,株式会社,東京都,豊島区,南池袋１丁目２０番９号第一中野ビル６階,,13,116,1710022,,,,,,,2022-01-14,1,,,,,ビライフ,0
1369,5020001144698,新規,0,2022-01-14,2022-01-14,Ｓｌｅｅｐｙ　Ｔｏｆｕ　Ｊａｐａｎ株式会社,,株式会社,神奈川県,横浜市中区,相生町１丁目７番地和同ビル,,14,104,2310012,,,,,,,2022-01-14,1,,,,,スリーピトウフジャパン,0
1370,5020001144707,新規,0,2022-01-14,2022-01-14,株式会社ＩＲＩＥ,,株式会社,神奈川県,横浜市栄区,小菅ケ谷１丁目２０番６－２０７号,,14,115,2470007,,,,,,,2022-01-14,1,,,,,アイリー,0
1371,5020001144715,新規,0,2022-01-14,2022-01-14,Ｈ＆Ｔ株式会社,,株式会社,神奈川県,川崎市多摩区,中野島６丁目１３番１２号,,14,135,2140012,,,,,,,2022-01-14,1,,,,,エイチアンドティー,0
1372,5020001144723,新規,0,2022-01-14,2022-01-14,バイオメディック株式会社,,株式会社,神奈川県,横浜市戸塚区,川上町９０番地６東戸塚ウエストビル２Ｆ,,14,110,2440805,,,,,,,2022-01-14,1,,,,,バイオメディック,0
1373,5020001144748,新規,0,2022-01-14,2022-01-14,株式会社ウミネコアーキ,,株式会社,神奈川県,横浜市港北区,篠原町２８１３,,14,109,2220026,,,,,,,2022-01-14,1,,,,,ウミネコアーキ,0
1374,5020001144772,新規,0,2022-01-14,2022-01-14,株式会社プロップスエージェンシー,,株式会社,神奈川県,横浜市中区,翁町２丁目８－１０ルメイユ横浜関内５０２,,14,104,2310028,,,,,,,2022-01-14,1,,,,,プロップスエージェンシー,0
1375,5020001144797,新規,0,2022-01-14,2022-01-14,マークアンドカンパニー株式会社,,株式会社,神奈川県,川崎市川崎区,日進町１番地サンスクエア３－９０７,,14,131,2100024,,,,,,,2022-01-14,1,,,,,マークアンドカンパニー,0
1377,5020003021128,新規,0,2022-01-14,2022-01-14,ｄｅｓｉｇｎ　ＭｅＭＥ合同会社,,合同会社,神奈川県,横浜市都筑区,北山田５丁目７番１－６０３号,,14,118,2240021,,,,,,,2022-01-14,1,,,,,デザインミーム,0
1380,5021001074935,新規,0,2022-01-14,2022-01-14,株式会社ｇｒａｎｄ　ａｒｂｒｅ,,株式会社,神奈川県,小田原市,国府津２７０７番地の３,,14,206,2560812,,,,,,,2022-01-14,1,,,,,グランアルブル,0
1381,5021001074951,新規,0,2022-01-14,2022-01-14,株式会社ＥＳコンサルティング,,株式会社,神奈川県,大和市,中央林間西４丁目１４番６号,,14,213,2420008,,,,,,,2022-01-14,1,,,,,イイエスコンサルティング,0
1385,5021003011291,新規,0,2022-01-14,2022-01-14,合同会社杜ノ市,,合同会社,神奈川県,茅ヶ崎市,東海岸北２丁目１４番４１号ＭａｂｂｙＳ・Ｒｅｓｉｄｅｎｃｅ東海岸２－Ｂ,,14,207,2530053,,,,,,,2022-01-14,1,,,,,モリノイチ,0
1386,5021005012420,新規,0,2022-01-14,2022-01-14,農事組合法人清の菜,,その他の設立登記法人,神奈川県,三浦市,南下浦町毘沙門７１６番地,,14,210,2380105,,,,,,,2022-01-14,1,,,,,セイノナ,0
1393,5030001146264,新規,0,2022-01-14,2022-01-14,株式会社ノリキャリー,,株式会社,埼玉県,和光市,白子１丁目２６番５７号,,11,229,3510101,,,,,,,2022-01-14,1,,,,,ノリキャリー,0
1394,5030001146272,新規,0,2022-01-14,2022-01-14,株式会社ＥＮＭＡ　ＪＡＰＡＮ,,株式会社,埼玉県,入間郡三芳町,大字北永井１５２番地１,,11,324,3540044,,,,,,,2022-01-14,1,,,,,エンマジャパン,0
1395,5030001146280,新規,0,2022-01-14,2022-01-14,株式会社ノースショア,,株式会社,埼玉県,北葛飾郡杉戸町,清地２丁目１３番８号,,11,464,3450025,,,,,,,2022-01-14,1,,,,,ノースショア,0
1396,5030001146306,新規,0,2022-01-14,2022-01-14,株式会社メガバイス,,株式会社,埼玉県,ふじみ野市,新田１丁目６番７号,,11,245,3560033,,,,,,,2022-01-14,1,,,,,メガバイス,0
1397,5030001146339,新規,0,2022-01-14,2022-01-14,株式会社ＳＵＢＳＥＡ,,株式会社,埼玉県,川口市,大字蓮沼２９８メゾンハイビス２０２,,11,203,3340064,,,,,,,2022-01-14,1,,,,,サブシー,0
1398,5030001146347,新規,0,2022-01-14,2022-01-14,株式会社ＢＲＡＶＥ,,株式会社,埼玉県,幸手市,大字上高野４１９番地９,,11,240,3400155,,,,,,,2022-01-14,1,,,,,ブレイブ,0
1404,5030003018643,新規,0,2022-01-14,2022-01-14,トム・エンタープライズ合同会社,,合同会社,埼玉県,戸田市,新曽南２丁目７番９－２０５号,,11,224,3350026,,,,,,,2022-01-14,1,,,,,トムエンタープライズ,0
1405,5030005020688,新規,0,2022-01-14,2022-01-14,行政書士法人マイリーガル,,その他の設立登記法人,埼玉県,東松山市,大字上唐子１４１８番地３,,11,212,3550077,,,,,,,2022-01-14,1,,,,,マイリーガル,0
1409,5040001121786,新規,0,2022-01-14,2022-01-14,株式会社Ｔａｎａｋａ　Ｍｉｒａｉ　Ｓｅｒｖｉｃｅ,,株式会社,千葉県,印西市,滝野５丁目３－１１,,12,231,2702329,,,,,,,2022-01-14,1,,,,,タナカミライサービス,0
1410,5040003019285,新規,0,2022-01-14,2022-01-14,にじ合同会社,,合同会社,千葉県,鎌ケ谷市,道野辺中央３丁目３番１６号,,12,224,2730113,,,,,,,2022-01-14,1,,,,,ニジ,0
1411,5040003019293,新規,0,2022-01-14,2022-01-14,合同会社アマテ,,合同会社,千葉県,東金市,松之郷１２７９番地,,12,213,2830805,,,,,,,2022-01-14,1,,,,,アマテ,0
1414,5050001050456,新規,0,2022-01-14,2022-01-14,株式会社山惣,,株式会社,茨城県,鉾田市,柏熊１１９５番地３,,08,234,3111511,,,,,,,2022-01-14,1,,,,,ヤマソウ,0
1415,5050001050464,新規,0,2022-01-14,2022-01-14,山本工業株式会社,,株式会社,茨城県,稲敷郡阿見町,中央２丁目６番４５号,,08,443,3000332,,,,,,,2022-01-14,1,,,,,ヤマモトコウギョウ,0
1417,5060001034474,新規,0,2022-01-14,2022-01-14,株式会社ステップクラージュ,,株式会社,栃木県,足利市,小俣町２２１７番地５,,09,202,3260141,,,,,,,2022-01-14,1,,,,,ステップクラージュ,0
1422,5080101023045,新規,0,2022-01-14,2022-01-14,フジ・フルフィルメントサービス株式会社,,株式会社,静岡県,沼津市,双葉町９番１１－２号,,22,203,4100005,,,,,,,2022-01-14,1,,,,,フジフルフィルメントサービス,0
1424,5080403004453,新規,0,2022-01-14,2022-01-14,合同会社ＧＣＯ,,合同会社,静岡県,浜松市南区,三島町４５番地の３ピュアライフ三島６０２号,,22,134,4300853,,,,,,,2022-01-14,1,,,,,ジーシーオー,0
1426,5090001017360,新規,0,2022-01-14,2022-01-14,株式会社ウッドビルドワークス,,株式会社,山梨県,南アルプス市,４５８７番地１,,19,208,4000400,,,,,,,2022-01-14,1,,,,,ウッドビルドワークス,0
1429,5100005012810,新規,0,2022-01-14,2022-01-14,特定非営利活動法人プラスモア,,その他の設立登記法人,長野県,東御市,滋野字反り地乙３１３１番地３,,20,219,3890513,,,,,,,2022-01-14,1,,,,,プラスモア,0
1435,5110001036358,新規,0,2022-01-14,2022-01-14,株式会社さくらや農園,,株式会社,新潟県,魚沼市,中家１０２０番地,,15,225,9460063,,,,,,,2022-01-14,1,,,,,サクラヤノウエン,0
1437,5110003004676,新規,0,2022-01-14,2022-01-14,上越不動産売却センター合同会社,,合同会社,新潟県,上越市,浦川原区顕聖寺１０４番地,,15,222,9420314,,,,,,,2022-01-14,1,,,,,ジョウエツフドウサンバイキャクセンター,0
1448,5120001242962,新規,0,2022-01-14,2022-01-14,株式会社ＣＥＬＳＵＳＲＯＯＰ,,株式会社,大阪府,大阪市浪速区,木津川２丁目４番６１号,,27,111,5560027,,,,,,,2022-01-14,1,,,,,ケルサスループ,0
1449,5120001243093,新規,0,2022-01-14,2022-01-14,株式会社ＭＯＶＩＡ,,株式会社,大阪府,大阪市中央区,南船場４丁目１０番５号南船場ＳＯＨＯビル９０４号,,27,128,5420081,,,,,,,2022-01-14,1,,,,,モビア,0
1450,5120001243110,新規,0,2022-01-14,2022-01-14,株式会社ルームＬ,,株式会社,大阪府,大阪市北区,豊崎３丁目１１番６号－５０３,,27,127,5310072,,,,,,,2022-01-14,1,,,,,ルームエル,0
1451,5120001243119,新規,0,2022-01-14,2022-01-14,ＤＬＭ株式会社,,株式会社,大阪府,大阪市浪速区,難波中１丁目１３番８号,,27,111,5560011,,,,,,,2022-01-14,1,,,,,ディエルエム,0
1452,5120001243127,新規,0,2022-01-14,2022-01-14,南川情報サポート株式会社,,株式会社,大阪府,守口市,金田町６丁目１番９号,,27,209,5700011,,,,,,,2022-01-14,1,,,,,ミナミカワジョウホウサポート,0
1453,5120001243143,新規,0,2022-01-14,2022-01-14,株式会社Ｅ－ＣＲＥＡＴＥ,,株式会社,大阪府,大阪市淀川区,西中島１丁目３番２３号,,27,123,5320011,,,,,,,2022-01-14,1,,,,,イークリエイト,0
1454,5120001243151,新規,0,2022-01-14,2022-01-14,株式会社ＺＥＲＯ,,株式会社,大阪府,大阪市旭区,千林１丁目５番５号ファーシル千林１０３号,,27,117,5350012,,,,,,,2022-01-14,1,,,,,ゼロ,0
1455,5120001243176,新規,0,2022-01-14,2022-01-14,株式会社ＲＥＡＣＴ,,株式会社,大阪府,大阪市中央区,谷町３丁目４番２号名阪第一ビル３０１,,27,128,5400012,,,,,,,2022-01-14,1,,,,,リアクト,0
1456,5120001243201,新規,0,2022-01-14,2022-01-14,株式会社ｐｕｔ,,株式会社,大阪府,大阪市住吉区,遠里小野１丁目７－１９ソフィアビル１Ｆ,,27,120,5580032,,,,,,,2022-01-14,1,,,,,プット,0
1460,5120101064935,新規,0,2022-01-14,2022-01-14,株式会社全和,,株式会社,大阪府,堺市北区,百舌鳥赤畑町４丁３１１番地４ソラーナ三国ヶ丘１０１号,,27,146,5918037,,,,,,,2022-01-14,1,,,,,ゼンワ,0
1464,5120903003990,新規,0,2022-01-14,2022-01-14,合同会社柳君,,合同会社,大阪府,高槻市,大塚町５丁目１３番５号,,27,207,5690034,,,,,,,2022-01-14,1,,,,,リュクン,0
1468,5130001070909,新規,0,2022-01-14,2022-01-14,株式会社Ｓｈａｎｋａｒａ,,株式会社,京都府,京都市上京区,中立売通堀川西入役人町２６０番地,,26,102,6028241,,,,,,,2022-01-14,1,,,,,シャンカラ,0
1471,5140001124432,新規,0,2022-01-14,2022-01-14,株式会社Ｌｅｇａｌ　１ｓｔ,,株式会社,兵庫県,伊丹市,西台１丁目２番１０号ゲーブルハウス２階,,28,207,6640858,,,,,,,2022-01-14,1,,,,,リーガルファースト,0
1479,5150001025241,新規,0,2022-01-14,2022-01-14,株式会社えびす鉄筋工業,,株式会社,奈良県,桜井市,大字三輪１１９番地の８,,29,206,6330001,,,,,,,2022-01-14,1,,,,,エビステッキンコウギョウ,0
1482,5160001023938,新規,0,2022-01-14,2022-01-14,株式会社島川装飾,,株式会社,滋賀県,大津市,仰木の里東１丁目７番１号,,25,201,5200248,,,,,,,2022-01-14,1,,,,,シマカワソウショク,0
1483,5160001023946,新規,0,2022-01-14,2022-01-14,株式会社パール不動産,,株式会社,滋賀県,大津市,鶴の里１７番３号,,25,201,5200826,,,,,,,2022-01-14,1,,,,,パールフドウサン,0
1496,5180001149582,新規,0,2022-01-14,2022-01-14,株式会社ジェネシス,,株式会社,愛知県,春日井市,小野町６丁目３番地１９,,23,206,4860926,,,,,,,2022-01-14,1,,,,,ジェネシス,0
1499,5180301035838,新規,0,2022-01-14,2022-01-14,Ｔｅｃｈｎｉｃａｌ　Ｓｕｐｐｏｒｔ　Ｉｎｄｕｓｔｒｙ株式会社,,株式会社,愛知県,岡崎市,仁木町字年重１２２番地,,23,202,4442148,,,,,,,2022-01-14,1,,,,,テクニカルサポートインダストリー,0
1519,5230001019185,新規,0,2022-01-14,2022-01-14,株式会社山和自動車,,株式会社,富山県,魚津市,北鬼江４１５番地１,,16,204,9370066,,,,,,,2022-01-14,1,,,,,サンワジドウシャ,0
1525,5240003005447,新規,0,2022-01-14,2022-01-14,合同会社ＢＪコンサルティング,,合同会社,広島県,広島市中区,橋本町９番７号,,34,101,7300015,,,,,,,2022-01-14,1,,,,,ビージェイコンサルティング,0
1528,5250001019349,新規,0,2022-01-14,2022-01-14,株式会社ルプラス,,株式会社,山口県,宇部市,大字東岐波３７７３番地１６,,35,202,7550241,,,,,,,2022-01-14,1,,,,,ルプラス,0
1532,5270001008432,新規,0,2022-01-14,2022-01-14,ＫＯＣＫＥＹ株式会社,,株式会社,鳥取県,倉吉市,八屋１７５番地３,,31,203,6820025,,,,,,,2022-01-14,1,,,,,コッキー,0
1536,5290001095989,新規,0,2022-01-14,2022-01-14,株式会社人盡楽,,株式会社,福岡県,福岡市南区,桧原２丁目４５－２８,,40,134,8111355,,,,,,,2022-01-14,1,,,,,ジンジンラク,0
1537,5290001096046,新規,0,2022-01-14,2022-01-14,株式会社Ｓｔａｎｄ　Ｌｉｆｅ,,株式会社,福岡県,福岡市中央区,地行４丁目１１番３２－３０３号リバティＲＶＩＩＩ,00125399,40,133,8100064,,,,,,,2022-01-14,1,,,,,スタンドライフ,0
1538,5290001096070,新規,0,2022-01-14,2022-01-14,株式会社グーゴルフ,,株式会社,福岡県,福岡市博多区,博多駅中央街５番１１号第１３泰平ビル９Ｆ,,40,132,8120012,,,,,,,2022-01-14,1,,,,,グーゴルフ,0
1539,5290001096087,新規,0,2022-01-14,2022-01-14,全国債権保証株式会社,,株式会社,福岡県,福岡市博多区,博多駅南１丁目１５番２８号３階,,40,132,8120016,,,,,,,2022-01-14,1,,,,,ゼンコクサイケンホショウ,0
1543,5290003012034,新規,0,2022-01-14,2022-01-14,合同会社ｌｉｖｅ　ｓｅｎｃｅ,,合同会社,福岡県,福岡市東区,原田１丁目２番７－２０１,,40,131,8120063,,,,,,,2022-01-14,1,,,,,リブセンス,0
1544,5290801028173,新規,0,2022-01-14,2022-01-14,上り藤株式会社,,株式会社,福岡県,遠賀郡遠賀町,田園３丁目１６－２,,40,384,8114343,,,,,,,2022-01-14,1,,,,,ノボリフジ,0
1547,5300001012769,新規,0,2022-01-14,2022-01-14,株式会社喜兵衛,,株式会社,佐賀県,唐津市,千代田町２１０９番地９２矢倉ビル１階,,41,202,8470041,,,,,,,2022-01-14,1,,,,,キベイ,0
1551,5320001018839,新規,0,2022-01-14,2022-01-14,橘株式会社,,株式会社,大分県,日田市,田島１丁目６番１６号,,44,204,8770025,,,,,,,2022-01-14,1,,,,,タチバナ,0
1556,5330003009199,新規,0,2022-01-14,2022-01-14,合同会社氷川野菜出荷組合,,合同会社,熊本県,八代郡氷川町,若洲９８番地,,43,468,8694813,,,,,,,2022-01-14,1,,,,,ヒカワヤサイシュッカクミアイ,0
1561,5340003003688,新規,0,2022-01-14,2022-01-14,合同会社Ｒｅｖｉｖｅ,,合同会社,鹿児島県,鹿児島市,東谷山２丁目１８－３－２０２,,46,201,8910113,,,,,,,2022-01-14,1,,,,,リヴァイブ,0
1564,5350003004009,新規,0,2022-01-14,2022-01-14,合同会社ステラグランデ,,合同会社,宮崎県,宮崎市,大塚町馬場崎３５４５番地６,,45,201,8800951,,,,,,,2022-01-14,1,,,,,ステラグランデ,0
1568,5360003011714,新規,0,2022-01-14,2022-01-14,合同会社Ｎｅｏ　Ａｕｒｏｒａ,,合同会社,沖縄県,那覇市,字与儀２１３番地６,,47,201,9020076,,,,,,,2022-01-14,1,,,,,ネオアウローラ,0
1569,5360003011722,新規,0,2022-01-14,2022-01-14,合同会社ｍｉｎｄ,,合同会社,沖縄県,うるま市,字田場１４５５番地与古田アパートＡ－１,,47,213,9042213,,,,,,,2022-01-14,1,,,,,マインド,0
1572,5370001048055,新規,0,2022-01-14,2022-01-14,株式会社ＲＣマネージ,,株式会社,宮城県,刈田郡蔵王町,宮字坂山８６番地３,,04,301,9890701,,,,,,,2022-01-14,1,,,,,アールシーマネージ,0
1574,5370003005525,新規,0,2022-01-14,2022-01-14,合同会社Ｔｒｅ　Ｌｕｐｉ,,合同会社,宮城県,仙台市宮城野区,宮城野３丁目５番２号びゅうパルク宮城野弐番館７０５,,04,102,9830045,,,,,,,2022-01-14,1,,,,,トレルピ,0
1582,5380001032495,新規,0,2022-01-14,2022-01-14,株式会社熊田空調,,株式会社,福島県,須賀川市,あおば町４２８番地,,07,207,9620811,,,,,,,2022-01-14,1,,,,,クマダクウチョウ,0
1585,5380003005086,新規,0,2022-01-14,2022-01-14,ＰＴエネルギー合同会社,,合同会社,福島県,郡山市,舞木町字別所７５番地の１,,07,203,9630661,,,,,,,2022-01-14,1,,,,,ピーティーエネルギー,0
1594,5430001085802,新規,0,2022-01-14,2022-01-14,バンバン建装株式会社,,株式会社,北海道,石狩市,花川南二条４丁目６６番地,,01,235,0613202,,,,,,,2022-01-14,1,,,,,バンバンケンソウ,0
1596,5430005014369,新規,0,2022-01-14,2022-01-14,一般社団法人日本武道文化振興団体仁誠會,,その他の設立登記法人,北海道,札幌市手稲区,前田七条１０丁目１番３号,,01,109,0060817,,,,,,,2022-01-14,1,,,,,ニホンブドウブンカシンコウダンタイジンセイカイ,0
1602,5470005006404,新規,0,2022-01-14,2022-01-14,一般社団法人かがわ保健企画,,その他の設立登記法人,香川県,高松市,栗林町１丁目６番１号,,37,201,7600073,,,,,,,2022-01-14,1,,,,,カガワホケンキカク,0
1614,6010001223790,新規,0,2022-01-14,2022-01-14,ＡＬＴＲＹ株式会社,,株式会社,東京都,中央区,日本橋２丁目１６番３号,,13,102,1030027,,,,,,,2022-01-14,1,,,,,アルトライ,0
1615,6010001223816,新規,0,2022-01-14,2022-01-14,株式会社ココロＬＡＢＯ,,株式会社,東京都,中央区,銀座１丁目２２番１１号,,13,102,1040061,,,,,,,2022-01-14,1,,,,,ココロラボ,0
1616,6010001223849,新規,0,2022-01-14,2022-01-14,株式会社Ｖｏｌｃ,,株式会社,東京都,文京区,本郷６丁目２５番１４号,,13,105,1130033,,,,,,,2022-01-14,1,,,,,ヴォルク,0
1617,6010001223865,新規,0,2022-01-14,2022-01-14,ＡＩ　ＤＲＩＶＥ株式会社,,株式会社,東京都,文京区,後楽２丁目１６－５,,13,105,1120004,,,,,,,2022-01-14,1,,,,,エーアイドライブ,0
1620,6010003036729,新規,0,2022-01-14,2022-01-14,川西２合同会社,,合同会社,東京都,中央区,日本橋１丁目４番１号日本橋一丁目ビルディング,,13,102,1030027,,,,,,,2022-01-14,1,,,,,カワニシニ,0
1621,6010003036745,新規,0,2022-01-14,2022-01-14,ユキノダンオフィス合同会社,,合同会社,東京都,中央区,銀座１丁目１２番４号Ｎ＆ＥＢＬＤ７階,,13,102,1040061,,,,,,,2022-01-14,1,,,,,ユキノダンオフィス,0
1622,6010003036761,新規,0,2022-01-14,2022-01-14,フラックス・ジャパン合同会社,,合同会社,東京都,中央区,銀座１丁目３－３Ｇ１ビル７階,,13,102,1040061,,,,,,,2022-01-14,1,,,,,フラックスジャパン,0
1623,6010101015023,新規,0,2022-01-14,2022-01-14,株式会社イニシオ,,株式会社,東京都,八王子市,南大沢２丁目１５番地１－１－６０７,,13,201,1920364,,,,,,,2022-01-14,1,,,,,イニシオ,0
1631,6010401164899,新規,0,2022-01-14,2022-01-14,株式会社ＡＧＥＮＴＳＭＩＴＨ　ＨＯＬＤＩＮＧＳ,,株式会社,東京都,港区,六本木６丁目１０番１号,,13,103,1060032,,,,,,,2022-01-14,1,,,,,エージェントスミスホールディングス,0
1634,6010403026882,新規,0,2022-01-14,2022-01-14,ＮＯＶＡＲＩＳＥ合同会社,,合同会社,東京都,港区,港南２丁目１６番７－２２１２号,,13,103,1080075,,,,,,,2022-01-14,1,,,,,ノバライス,0
1638,6010601060519,新規,0,2022-01-14,2022-01-14,株式会社ＭＷホールディングス,,株式会社,東京都,墨田区,東駒形４丁目１９番３号,,13,107,1300005,,,,,,,2022-01-14,1,,,,,エムダブリューホールディングス,0
1643,6010703006072,新規,0,2022-01-14,2022-01-14,ｔｈａｎｋＳ合同会社,,合同会社,東京都,品川区,戸越５丁目４－１５,,13,109,1420041,,,,,,,2022-01-14,1,,,,,サンクス,0
1647,6010901050161,新規,0,2022-01-14,2022-01-14,株式会社Ｍａｒｒｉｓｈ　Ｐａｙ,,株式会社,東京都,世田谷区,代沢５丁目２９番５号,,13,112,1550032,,,,,,,2022-01-14,1,,,,,マリッシュペイ,0
1653,6011001145042,新規,0,2022-01-14,2022-01-14,株式会社ＡＴＥＹＡＫＡ,,株式会社,東京都,目黒区,自由が丘２丁目１３番７号中居ビル２階,,13,110,1520035,,,,,,,2022-01-14,1,,,,,アテヤカ,0
1654,6011001145050,新規,0,2022-01-14,2022-01-14,株式会社ＲＳシアトル,,株式会社,東京都,渋谷区,恵比寿南１丁目１番１号８Ｆ,,13,113,1500022,,,,,,,2022-01-14,1,,,,,アールエスシアトル,0
1655,6011001145059,新規,0,2022-01-14,2022-01-14,株式会社ＰＤＸ,,株式会社,東京都,渋谷区,神宮前５丁目３０番２－２０２号,,13,113,1500001,,,,,,,2022-01-14,1,,,,,ピーディエックス,0
1656,6011001145091,新規,0,2022-01-14,2022-01-14,株式会社エンターキー,,株式会社,東京都,渋谷区,初台１丁目９番３号,,13,113,1510061,,,,,,,2022-01-14,1,,,,,エンターキー,0
1657,6011003013949,新規,0,2022-01-14,2022-01-14,合同会社ＡＢＳ,,合同会社,東京都,渋谷区,恵比寿西１丁目８番１０号木村ビル地下１階,,13,113,1500021,,,,,,,2022-01-14,1,,,,,エービーエス,0
1658,6011003013957,新規,0,2022-01-14,2022-01-14,Ｏｔｔｅｒ　Ｐｒｏｄｕｃｔｓ　Ｊａｐａｎ合同会社,,合同会社,東京都,渋谷区,恵比寿４丁目３番５号７０４号室アークアウトソーシング株式会社内,,13,113,1500013,,,,,,,2022-01-14,1,,,,,オッタープロダクツジャパン,0
1664,6011301027477,新規,0,2022-01-14,2022-01-14,株式会社Ｕｐｓｕｒｇｅ　Ｓｔｕｄｉｏｓ　Ｅａｓｔ,,株式会社,東京都,杉並区,松ノ木２丁目３４番８号サットンプレイス・ボヌール２０６,,13,115,1660014,,,,,,,2022-01-14,1,,,,,アップサージスタジオズイースト,0
1667,6011601025668,新規,0,2022-01-14,2022-01-14,株式会社ヤクドウ,,株式会社,東京都,練馬区,中村南２丁目６番１０－２０２号,,13,120,1760025,,,,,,,2022-01-14,1,,,,,ヤクドウ,0
1669,6011605002424,新規,0,2022-01-14,2022-01-14,一般社団法人先端技術研究機構,,その他の設立登記法人,東京都,練馬区,南大泉３丁目３番３４号フラワーガーデンＡ,,13,120,1780064,,,,,,,2022-01-14,1,,,,,センタンギジュツケンキュウキコウ,0
1676,6012401038752,新規,0,2022-01-14,2022-01-14,音美都株式会社,,株式会社,東京都,府中市,府中町１丁目１－１ＬＩＧＨＴＵＰＬＯＢＢＹ,,13,206,1830055,,,,,,,2022-01-14,1,,,,,オンビート,0
1677,6012401038760,新規,0,2022-01-14,2022-01-14,株式会社ＭＤ,,株式会社,東京都,稲城市,若葉台３丁目１番地の１Ｆ９０７,,13,225,2060824,,,,,,,2022-01-14,1,,,,,エムデー,0
1684,6013301048511,新規,0,2022-01-14,2022-01-14,ＳＨＩＮＳＥＭＡ株式会社,,株式会社,東京都,豊島区,東池袋１丁目４２番１４号７階,,13,116,1700013,,,,,,,2022-01-14,1,,,,,シンセマ,0
1685,6013301048528,新規,0,2022-01-14,2022-01-14,株式会社フリラボ,,株式会社,東京都,豊島区,東池袋１丁目１７番１１号パークハイツ池袋１１０５号,,13,116,1700013,,,,,,,2022-01-14,1,,,,,フリラボ,0
1686,6013301048544,新規,0,2022-01-14,2022-01-14,株式会社美南,,株式会社,東京都,豊島区,西池袋３丁目２９番３号梅本ビル２階Ｃ,,13,116,1710021,,,,,,,2022-01-14,1,,,,,ミナミ,0
1687,6013301048552,新規,0,2022-01-14,2022-01-14,株式会社ディア,,株式会社,東京都,豊島区,上池袋２丁目２８番５号,,13,116,1700012,,,,,,,2022-01-14,1,,,,,ディア,0
1696,6020001144722,新規,0,2022-01-14,2022-01-14,株式会社Ｙ’ｓ　ｌｉｆｅ,,株式会社,神奈川県,川崎市中原区,木月１丁目３１番１９号ａｎｄｙｏｕ３００号室,,14,133,2110025,,,,,,,2022-01-14,1,,,,,ワイズライフ,0
1697,6020001144755,新規,0,2022-01-14,2022-01-14,株式会社チームスターズ,,株式会社,神奈川県,川崎市幸区,南加瀬２丁目３３番３号,,14,132,2120055,,,,,,,2022-01-14,1,,,,,チームスターズ,0
1698,6020001144788,新規,0,2022-01-14,2022-01-14,株式会社モアリノベイト,,株式会社,神奈川県,川崎市幸区,東小倉１５番７－５０３号,,14,132,2120033,,,,,,,2022-01-14,1,,,,,モアリノベイト,0
1705,6020003021119,新規,0,2022-01-14,2022-01-14,合同会社Ｔ－Ｒｕｂａｔｏ,,合同会社,神奈川県,川崎市高津区,二子３丁目２０番３－１号,,14,134,2130002,,,,,,,2022-01-14,1,,,,,ティールバート,0
1706,6020003021127,新規,0,2022-01-14,2022-01-14,万生エイジングケアハウス合同会社,,合同会社,神奈川県,川崎市幸区,小向西町３丁目４８番１号,,14,132,2120004,,,,,,,2022-01-14,1,,,,,バンセイエイジングケアハウス,0
1707,6020003021135,新規,0,2022-01-14,2022-01-14,合同会社川奈,,合同会社,神奈川県,横浜市磯子区,杉田３丁目３０番１７号,,14,107,2350033,,,,,,,2022-01-14,1,,,,,カワナ,0
1708,6020003021143,新規,0,2022-01-14,2022-01-14,ＫＯＰＩＬＡ合同会社,,合同会社,神奈川県,横浜市鶴見区,矢向６丁目１７番１８号小林荘２０２,,14,101,2300001,,,,,,,2022-01-14,1,,,,,コピラ,0
1712,6021001074918,新規,0,2022-01-14,2022-01-14,株式会社西田グループ,,株式会社,神奈川県,相模原市中央区,青葉１丁目８番７号,,14,152,2520224,,,,,,,2022-01-14,1,,,,,ニシダグループ,0
1713,6021001074934,新規,0,2022-01-14,2022-01-14,株式会社ＮＫ－ＨＯＭＥ,,株式会社,神奈川県,相模原市南区,双葉２丁目２番１１号エステートピア慶１０３,,14,153,2520316,,,,,,,2022-01-14,1,,,,,エヌケイホーム,0
1714,6021001074942,新規,0,2022-01-14,2022-01-14,株式会社ＬＵＸ　ＡＣＨＩＥＶＥＭＥＮＴ,,株式会社,神奈川県,高座郡寒川町,宮山１９７０番地２プライムハイツＡ１０１,,14,321,2530106,,,,,,,2022-01-14,1,,,,,ルクスアチーブメント,0
1715,6021001074950,新規,0,2022-01-14,2022-01-14,株式会社湘南電気,,株式会社,神奈川県,秦野市,菖蒲１１０３番地の８,,14,211,2591332,,,,,,,2022-01-14,1,,,,,ショウナンデンキ,0
1716,6021001074959,新規,0,2022-01-14,2022-01-14,株式会社ＫＯＳ,,株式会社,神奈川県,厚木市,戸田２５１９番地２,,14,212,2430023,,,,,,,2022-01-14,1,,,,,ケイオウエス,0
1719,6021003011299,新規,0,2022-01-14,2022-01-14,インタレックス合同会社,,合同会社,神奈川県,小田原市,栄町２丁目１２－３サングレイス小田原,,14,206,2500011,,,,,,,2022-01-14,1,,,,,インタレックス,0
1723,6030001146263,新規,0,2022-01-14,2022-01-14,株式会社Ｔｒｙ－ｉｎｇ,,株式会社,埼玉県,朝霞市,根岸台１丁目４番９号,,11,227,3510005,,,,,,,2022-01-14,1,,,,,トライイング,0
1724,6030001146305,新規,0,2022-01-14,2022-01-14,株式会社アートライン,,株式会社,埼玉県,新座市,大和田５丁目９番３７号,,11,230,3520004,,,,,,,2022-01-14,1,,,,,アートライン,0
1725,6030001146313,新規,0,2022-01-14,2022-01-14,株式会社Ｌｉａ,,株式会社,埼玉県,川口市,並木３丁目５番１８号,,11,203,3320034,,,,,,,2022-01-14,1,,,,,リア,0
1729,6030003018659,新規,0,2022-01-14,2022-01-14,合同会社多果木,,合同会社,埼玉県,越谷市,レイクタウン６丁目３５番地１０３,,11,222,3430828,,,,,,,2022-01-14,1,,,,,タカキ,0
1732,6040001121678,新規,0,2022-01-14,2022-01-14,株式会社Ｈ－ｖｉｌｌａｇｅ,,株式会社,千葉県,木更津市,真舟４丁目１３番６号,,12,206,2920802,,,,,,,2022-01-14,1,,,,,エイチビレッジ,0
1733,6040001121703,新規,0,2022-01-14,2022-01-14,Ｒｔｅｃ－Ｉｎｓｔｒｕｍｅｎｔｓ株式会社,,株式会社,千葉県,千葉市美浜区,中瀬１丁目３番地幕張テクノガーデンＣＢ棟３階ＭＢＰ,,12,106,2610023,,,,,,,2022-01-14,1,,,,,アールテックインストゥルメンツ,0
1734,6040001121744,新規,0,2022-01-14,2022-01-14,株式会社Ｒａｙ,,株式会社,千葉県,千葉市花見川区,武石町１丁目５７６番地,,12,102,2620031,,,,,,,2022-01-14,1,,,,,レイ,0
1735,6040001121769,新規,0,2022-01-14,2022-01-14,株式会社ＯＷＴ,,株式会社,千葉県,千葉市中央区,登戸１丁目１３－２１,,12,101,2600032,,,,,,,2022-01-14,1,,,,,オーダブリューティー,0
1736,6040001121777,新規,0,2022-01-14,2022-01-14,株式会社ＮＥＯＧＲＯＵＰ,,株式会社,千葉県,千葉市稲毛区,園生町９７９番地１－９０１号,,12,103,2630051,,,,,,,2022-01-14,1,,,,,,0
1737,6040001121802,新規,0,2022-01-14,2022-01-14,Ｊｏｓｅ株式会社,,株式会社,千葉県,千葉市花見川区,西小中台２－２５－５０３,,12,102,2620016,,,,,,,2022-01-14,1,,,,,ジョセイ,0
1738,6040003019276,新規,0,2022-01-14,2022-01-14,合同会社千の葉,,合同会社,千葉県,市川市,北方町４丁目１９０５－１３,,12,203,2720811,,,,,,,2022-01-14,1,,,,,センノハ,0
1739,6050001050455,新規,0,2022-01-14,2022-01-14,株式会社わくわくｃｏｍｐａｎｙ,,株式会社,茨城県,牛久市,南２丁目３０番地１,,08,219,3001222,,,,,,,2022-01-14,1,,,,,ワクワクカンパニー,0
1744,6060001034473,新規,0,2022-01-14,2022-01-14,株式会社絆信電気,,株式会社,栃木県,宇都宮市,平出町１３６０番地３,,09,201,3210901,,,,,,,2022-01-14,1,,,,,バンシンデンキ,0
1745,6060003003922,新規,0,2022-01-14,2022-01-14,合同会社ライズ,,合同会社,栃木県,小山市,大字乙女７１４番地１９９,,09,208,3290214,,,,,,,2022-01-14,1,,,,,ライズ,0
1749,6070001038837,新規,0,2022-01-14,2022-01-14,株式会社風間興業,,株式会社,群馬県,桐生市,境野町６丁目２７０番地の５,,10,203,3760002,,,,,,,2022-01-14,1,,,,,カザマコウギョウ,0
1751,6080101023036,新規,0,2022-01-14,2022-01-14,丸一興産株式会社,,株式会社,静岡県,富士市,伝法２６１４番地,,22,210,4170061,,,,,,,2022-01-14,1,,,,,マルイチコウサン,0
1759,6110001036357,新規,0,2022-01-14,2022-01-14,株式会社チャム,,株式会社,新潟県,燕市,下粟生津２９６３番地２０,,15,213,9590222,,,,,,,2022-01-14,1,,,,,チャム,0
1767,6120001243010,新規,0,2022-01-14,2022-01-14,Ｗ－ＴＷＥＮＴＹ株式会社,,株式会社,大阪府,大阪市北区,梅田２丁目５番１３号桜橋第１ビル３０４号,,27,127,5300001,,,,,,,2022-01-14,1,,,,,ダブリュートゥウェンティー,0
1768,6120001243043,新規,0,2022-01-14,2022-01-14,株式会社手をつなごう,,株式会社,大阪府,大阪市此花区,島屋６丁目２番１１０－２４１１号,,27,104,5540024,,,,,,,2022-01-14,1,,,,,テヲツナゴウ,0
1769,6120001243076,新規,0,2022-01-14,2022-01-14,ソメイジュ株式会社,,株式会社,大阪府,大阪市中央区,大手通２丁目５５番７０２号,,27,128,5400021,,,,,,,2022-01-14,1,,,,,ソメイジュ,0
1770,6120001243084,新規,0,2022-01-14,2022-01-14,株式会社ツバサエステート,,株式会社,大阪府,大阪市東淀川区,豊新３丁目１番２６－６０４号,,27,114,5330014,,,,,,,2022-01-14,1,,,,,ツバサエステート,0
1771,6120001243092,新規,0,2022-01-14,2022-01-14,株式会社ＥＮＣＯＮＮＥＣＴ,,株式会社,大阪府,大阪市北区,豊崎７丁目２番３５－２０２号,,27,127,5310072,,,,,,,2022-01-14,1,,,,,エンコネクト,0
1772,6120001243101,新規,0,2022-01-14,2022-01-14,株式会社ナレッジインベストメントグループ,,株式会社,大阪府,大阪市福島区,福島４丁目６番３５号ヌーベル福島３０１号,,27,103,5530003,,,,,,,2022-01-14,1,,,,,ナレッジインベストメントグループ,0
1773,6120001243118,新規,0,2022-01-14,2022-01-14,株式会社ファイブプラスワン,,株式会社,大阪府,大阪市西区,土佐堀１丁目６番１０号,,27,106,5500001,,,,,,,2022-01-14,1,,,,,ファイブプラスワン,0
1774,6120001243126,新規,0,2022-01-14,2022-01-14,株式会社常勝,,株式会社,大阪府,寝屋川市,香里新町２０番１６号（２０２号）,,27,215,5720085,,,,,,,2022-01-14,1,,,,,ジョウショウ,0
1775,6120001243183,新規,0,2022-01-14,2022-01-14,株式会社ＩＣＨＩ　ＩＣＨＩ,,株式会社,大阪府,大阪市中央区,平野町４丁目８番５号ＲＥ－０１３・５０３号室,,27,128,5410046,,,,,,,2022-01-14,1,,,,,イチイチ,0
1778,6120003020911,新規,0,2022-01-14,2022-01-14,ビルドアップ合同会社,,合同会社,大阪府,大阪市北区,豊崎１丁目１１番６－２０３号,,27,127,5310072,,,,,,,2022-01-14,1,,,,,ビルドアップ,0
1779,6120003020936,新規,0,2022-01-14,2022-01-14,合同会社七味,,合同会社,大阪府,大阪市都島区,善源寺町２丁目２番４－４１３号,,27,102,5340015,,,,,,,2022-01-14,1,,,,,シチミ,0
1780,6120003020944,新規,0,2022-01-14,2022-01-14,合同会社アドピタル,,合同会社,大阪府,大阪市中央区,上本町西１丁目３番２号セントレ上町６０２,,27,128,5420062,,,,,,,2022-01-14,1,,,,,アドピタル,0
1781,6120005022699,新規,0,2022-01-14,2022-01-14,一般社団法人ｔｅｒａｓｗｏｒｋｓ,,その他の設立登記法人,大阪府,大阪市北区,西天満６丁目８番２号ヤノシゲビル６０１号,,27,127,5300047,,,,,,,2022-01-14,1,,,,,テラスワークス,0
1792,6120901045448,新規,0,2022-01-14,2022-01-14,株式会社ＲｅＶＯＹＬ,,株式会社,大阪府,吹田市,広芝町８番１２号,,27,205,5640052,,,,,,,2022-01-14,1,,,,,リボイル,0
1793,6120901045456,新規,0,2022-01-14,2022-01-14,株式会社ペテップス,,株式会社,大阪府,吹田市,千里山西５丁目２８番２８号,,27,205,5650851,,,,,,,2022-01-14,1,,,,,ペテップス,0
1794,6120901045464,新規,0,2022-01-14,2022-01-14,株式会社Ｏｎｅ　Ｆｉｖｅ　Ｏｎｅ　Ａ,,株式会社,大阪府,吹田市,千里丘中４７番１７－３１４号,,27,205,5650812,,,,,,,2022-01-14,1,,,,,ワンファイブワンエー,0
1798,6122003002253,新規,0,2022-01-14,2022-01-14,Ｉ・ＲＯ・ＨＡ合同会社,,合同会社,大阪府,柏原市,国分市場１丁目６番２１号,,27,221,5820022,,,,,,,2022-01-14,1,,,,,イロハ,0
1799,6122005003596,新規,0,2022-01-14,2022-01-14,ＮＰＯ法人ふぁんじゅーる,,その他の設立登記法人,大阪府,東大阪市,六万寺町１丁目２０番４３号,,27,227,5798061,,,,,,,2022-01-14,1,,,,,ファンジュール,0
1801,6130001070949,新規,0,2022-01-14,2022-01-14,ＡＬＡ　ＨＯＴＥＬ’Ｓ株式会社,,株式会社,京都府,京都市下京区,東洞院通七条下る塩小路町５１８番地,,26,106,6008212,,,,,,,2022-01-14,1,,,,,アルアホテルズ,0
1803,6140001124547,新規,0,2022-01-14,2022-01-14,株式会社池田産業,,株式会社,兵庫県,神戸市西区,玉津町高津橋６１５番地の６,,28,111,6512122,,,,,,,2022-01-14,1,,,,,イケダサンギョウ,0
1804,6140003017204,新規,0,2022-01-14,2022-01-14,ＴＡＢＩ　ＨＡＫＵ合同会社,,合同会社,兵庫県,美方郡香美町,香住区中野２５１番地,,28,585,6696556,,,,,,,2022-01-14,1,,,,,タビハク,0
1807,6150001025249,新規,0,2022-01-14,2022-01-14,株式会社大和ガーデンファーム,,株式会社,奈良県,山辺郡山添村,大字三ケ谷４４６番地,,29,322,6302223,,,,,,,2022-01-14,1,,,,,ヤマトガーデンファーム,0
1811,6160001023945,新規,0,2022-01-14,2022-01-14,株式会社Ｍｅｄ－Ｂｒｉｄｇｅ,,株式会社,滋賀県,長浜市,口分田町６９６番地６,,25,203,5260014,,,,,,,2022-01-14,1,,,,,メドブリッジ,0
1815,6180001149375,新規,0,2022-01-14,2022-01-14,ライフタップホールディングス株式会社,,株式会社,愛知県,名古屋市中区,門前町１－６０,,23,106,4600018,,,,,,,2022-01-14,1,,,,,ライフタップホールディングス,0
1816,6180001149581,新規,0,2022-01-14,2022-01-14,ＫＥＭＹ株式会社,,株式会社,愛知県,名古屋市守山区,菱池町１９番２０号,,23,113,4630045,,,,,,,2022-01-14,1,,,,,ケミー,0
1817,6180003023363,新規,0,2022-01-14,2022-01-14,名古屋キャリアコンサルティングセンター合同会社,,合同会社,愛知県,名古屋市守山区,大字中志段味字湿ケ２０１６番地,,23,113,4630002,,,,,,,2022-01-14,1,,,,,ナゴヤキャリアコンサルティングセンター,0
1820,6180301035829,新規,0,2022-01-14,2022-01-14,株式会社光陽電気,,株式会社,愛知県,刈谷市,一ツ木町鵜島１番地１４８,,23,210,4480003,,,,,,,2022-01-14,1,,,,,コウヨウデンキ,0
1821,6180301035837,新規,0,2022-01-14,2022-01-14,株式会社ＴＯＫＹＯ　ＨＡＺＥ,,株式会社,愛知県,豊橋市,春日町２丁目８６番地の１２,,23,201,4400821,,,,,,,2022-01-14,1,,,,,トーキョーヘイズ,0
1824,6190001029031,新規,0,2022-01-14,2022-01-14,良組架設工業株式会社,,株式会社,三重県,多気郡明和町,大字明星１５８７番地１２,,24,442,5150313,,,,,,,2022-01-14,1,,,,,ヨシグミカセツコウギョウ,0
1825,6200001039656,新規,0,2022-01-14,2022-01-14,株式会社煌陽,,株式会社,岐阜県,大垣市,楽田町３丁目１６番地２,,21,202,5030008,,,,,,,2022-01-14,1,,,,,コウヨウ,0
1829,6200003005417,新規,0,2022-01-14,2022-01-14,合同会社ｇｉｆｔ,,合同会社,岐阜県,岐阜市,雄総桜町３丁目３２番地,,21,201,5020016,,,,,,,2022-01-14,1,,,,,ギフト,0
1837,6220001024648,新規,0,2022-01-14,2022-01-14,株式会社ＧＯＬＤ　ＦＬＡＳＨ,,株式会社,石川県,金沢市,清川町１番７号,,17,201,9218032,,,,,,,2022-01-14,1,,,,,ゴールドフラッシュ,0
1838,6220003003179,新規,0,2022-01-14,2022-01-14,合同会社リムアット,,合同会社,石川県,金沢市,泉野町１丁目１５番２号,,17,201,9218034,,,,,,,2022-01-14,1,,,,,リムアット,0
1839,6220003003187,新規,0,2022-01-14,2022-01-14,合同会社フィナンシャルＰｏｒｔ,,合同会社,石川県,金沢市,伏見台１丁目１２番２０号,,17,201,9218177,,,,,,,2022-01-14,1,,,,,,0
1845,6240001059205,新規,0,2022-01-14,2022-01-14,株式会社大畑兄弟商会,,株式会社,広島県,廿日市市,宮島町胡町１１６５番地４,,34,213,7390505,,,,,,,2022-01-14,1,,,,,オオハタキョウダイショウカイ,0
1856,6270003001384,新規,0,2022-01-14,2022-01-14,合同会社Ｂｅｓｔ　Ｂｏｄｙ　Ｌｉｎｅ,,合同会社,鳥取県,鳥取市,浜坂２０９番地１７,,31,201,6800001,,,,,,,2022-01-14,1,,,,,ベストボディライン,0
1860,6290001096061,新規,0,2022-01-14,2022-01-14,株式会社ｎｅｉｇｈｂｏｒｈｏｏｄ,,株式会社,福岡県,福岡市西区,今宿駅前１丁目１４－２６,,40,135,8190168,,,,,,,2022-01-14,1,,,,,ナイバーフッド,0
1861,6290001096086,新規,0,2022-01-14,2022-01-14,株式会社Ｅｉｓｅｉ,,株式会社,福岡県,飯塚市,小正４０１番地１５,,40,205,8200089,,,,,,,2022-01-14,1,,,,,エイセイ,0
1862,6290001096094,新規,0,2022-01-14,2022-01-14,株式会社祐真,,株式会社,福岡県,福岡市早良区,四箇１丁目４番１７号,,40,137,8111103,,,,,,,2022-01-14,1,,,,,ユウシン,0
1864,6290003011984,新規,0,2022-01-14,2022-01-14,合同会社リーフ,,合同会社,福岡県,福岡市中央区,渡辺通３丁目１０番３９号５０３号室,,40,133,8100004,,,,,,,2022-01-14,1,,,,,リーフ,0
1865,6290003012033,新規,0,2022-01-14,2022-01-14,Ａ‐ＬＡＮＣＥ合同会社,,合同会社,福岡県,福岡市早良区,西新１丁目５－６ブランシェ西新３０３,,40,137,8140002,,,,,,,2022-01-14,1,,,,,エーランス,0
1866,6290005018524,新規,0,2022-01-14,2022-01-14,一般社団法人ＰＥＴ’Ｓおおむた,,その他の設立登記法人,福岡県,大牟田市,不知火町２丁目８番地５,,40,202,8360843,,,,,,,2022-01-14,1,,,,,ペッツオオムタ,0
1870,6290801028156,新規,0,2022-01-14,2022-01-14,株式会社ＣＬＡＰプラス,,株式会社,福岡県,北九州市八幡西区,折尾１丁目１４番５号,,40,109,8070825,,,,,,,2022-01-14,1,,,,,クラッププラス,0
1876,6320001018838,新規,0,2022-01-14,2022-01-14,株式会社プロップ,,株式会社,大分県,日田市,田島１丁目７番２３号,,44,204,8770025,,,,,,,2022-01-14,1,,,,,プロップ,0
1880,6330001029347,新規,0,2022-01-14,2022-01-14,株式会社エムビープラス,,株式会社,熊本県,菊池市,隈府７１６番地５,,43,210,8611331,,,,,,,2022-01-14,1,,,,,エムビープラス,0
1881,6330003009198,新規,0,2022-01-14,2022-01-14,合同会社ワイレイ,,合同会社,熊本県,熊本市西区,花園３丁目４番１８号,,43,103,8600072,,,,,,,2022-01-14,1,,,,,ワイレイ,0
1883,6340001024413,新規,0,2022-01-14,2022-01-14,株式会社丸純,,株式会社,鹿児島県,出水郡長島町,諸浦１６３９番地,,46,404,8991403,,,,,,,2022-01-14,1,,,,,マルジュン,0
1884,6340001024421,新規,0,2022-01-14,2022-01-14,株式会社トップワン,,株式会社,鹿児島県,鹿児島市,春山町２９０番地５,,46,201,8992704,,,,,,,2022-01-14,1,,,,,トップワン,0
1889,6350001017523,新規,0,2022-01-14,2022-01-14,株式会社ＤＡＹ　ＢＹ　ＤＡＹ　ＰＨＡＲＭＡＣＹ,,株式会社,宮崎県,宮崎市,月見ケ丘１丁目８番１０号,,45,201,8800926,,,,,,,2022-01-14,1,,,,,デイバイデイファーマシー,0
1893,6360001029872,新規,0,2022-01-14,2022-01-14,株式会社Ｃａｌｍ,,株式会社,沖縄県,名護市,港２丁目１０番７号,,47,209,9050014,,,,,,,2022-01-14,1,,,,,カーム,0
1894,6360001029880,新規,0,2022-01-14,2022-01-14,株式会社みんなの家,,株式会社,沖縄県,那覇市,字安里３５８番地,,47,201,9020067,,,,,,,2022-01-14,1,,,,,ミンナノイエ,0
1895,6360001029889,新規,0,2022-01-14,2022-01-14,株式会社大新設備,,株式会社,沖縄県,南城市,大里字稲嶺７６３番地,,47,215,9011204,,,,,,,2022-01-14,1,,,,,タイシンセツビ,0
1896,6360003011713,新規,0,2022-01-14,2022-01-14,クリーンアシスト合同会社,,合同会社,沖縄県,石垣市,字桃里１６５番地１８４,,47,207,9070241,,,,,,,2022-01-14,1,,,,,クリーンアシスト,0
1897,6370001048062,新規,0,2022-01-14,2022-01-14,ＳＨＩＰＳ　ＩＮＴ’Ｌ株式会社,,株式会社,宮城県,大崎市,古川駅東３丁目７－５４,,04,215,9896115,,,,,,,2022-01-14,1,,,,,シップスインターナショナル,0
1898,6370001048070,新規,0,2022-01-14,2022-01-14,株式会社鮨きく池,,株式会社,宮城県,仙台市青葉区,一番町２丁目２番１３号仙建ビル地下１階,,04,101,9800811,,,,,,,2022-01-14,1,,,,,スシキクチ,0
1899,6370003005549,新規,0,2022-01-14,2022-01-14,合同会社ｋｉｎоｋо．,,合同会社,宮城県,仙台市青葉区,中央１丁目２番３号仙台マークワンセンター１９階,,04,101,9800021,,,,,,,2022-01-14,1,,,,,キノコ,0
1918,6430001085743,新規,0,2022-01-14,2022-01-14,株式会社柳谷工業,,株式会社,北海道,石狩市,花川南四条１丁目１７８番地,,01,235,0613204,,,,,,,2022-01-14,1,,,,,ヤナギヤコウギョウ,0
1923,6470001018914,新規,0,2022-01-14,2022-01-14,ＮＩＯ　ＹＯＳＵＧＡ株式会社,,株式会社,香川県,三豊市,仁尾町仁尾丁３１２番地,,37,208,7691407,,,,,,,2022-01-14,1,,,,,ニオヨスガ,0
1929,6700150106413,新規,0,2022-01-14,2021-12-27,集っこ,,その他,東京都,北区,王子１丁目２２－１６まきやビル５Ｆ,,13,117,1140002,,,,,,,2021-12-27,1,,,,,ツドツコ,0
1930,6700150106644,新規,0,2022-01-14,2022-01-14,ＡＢＤ　ＬＡＮＫＡ　ＥＮＴＥＲＰＲＩＳＥＳ,,外国会社等,千葉県,八街市,東吉田１３４－９８オフィスＮｏ．１,,12,230,2891114,スリランカ民主社会主義共和国、アダレイチェナイ－１０、サブリライスミルロード、Ｎｏ．２４７Ａ,,,,,,2022-01-14,1,,,,,エイビーデイランカエンタープライセス,0
1939,7010001223798,新規,0,2022-01-14,2022-01-14,株式会社ＪＰｉＸ投資一号,,株式会社,東京都,千代田区,丸の内１丁目９番２号グラントウキョウサウスタワー８階,,13,101,1000005,,,,,,,2022-01-14,1,,,,,ジェイピックストウシイチゴウ,0
1940,7010001223815,新規,0,2022-01-14,2022-01-14,株式会社ＮＯＢＵ　Ｐｌａｎｎｉｎｇ,,株式会社,東京都,中央区,日本橋堀留町２丁目５－１２－１００９,,13,102,1030012,,,,,,,2022-01-14,1,,,,,ノブプランニング,0
1941,7010001223856,新規,0,2022-01-14,2022-01-14,Ｒｅｂｏｒｄ株式会社,,株式会社,東京都,中央区,日本橋中洲７番７－７０２号,,13,102,1030008,,,,,,,2022-01-14,1,,,,,リボード,0
1942,7010001223880,新規,0,2022-01-14,2022-01-14,マインドリンク株式会社,,株式会社,東京都,千代田区,二番町９番３号,,13,101,1020084,,,,,,,2022-01-14,1,,,,,マインドリンク,0
1945,7010003036728,新規,0,2022-01-14,2022-01-14,川西１合同会社,,合同会社,東京都,中央区,日本橋１丁目４番１号日本橋一丁目ビルディング,,13,102,1030027,,,,,,,2022-01-14,1,,,,,カワニシイチ,0
1946,7010003036736,新規,0,2022-01-14,2022-01-14,合同会社ダリア経営コンサルティング,,合同会社,東京都,千代田区,麹町２丁目１０－３,,13,101,1020083,,,,,,,2022-01-14,1,,,,,ダリアケイエイコンサルティング,0
1947,7010003036760,新規,0,2022-01-14,2022-01-14,合同会社ｃｈａｔｅａｕ,,合同会社,東京都,中央区,銀座２丁目１４番１５アヴァンティーク銀座２丁目弐番館６０１,,13,102,1040061,,,,,,,2022-01-14,1,,,,,シャトー,0
1949,7010005034432,新規,0,2022-01-14,2022-01-14,一般社団法人環境未来推進協議会,,その他の設立登記法人,東京都,千代田区,麹町１丁目１０番１１号麹町広洋ビル５階,,13,101,1020083,,,,,,,2022-01-14,1,,,,,カンキョウミライスイシンキョウギカイ,0
1953,7010401164898,新規,0,2022-01-14,2022-01-14,株式会社サードオピニオン,,株式会社,東京都,港区,西新橋１丁目１８番６号,,13,103,1050003,,,,,,,2022-01-14,1,,,,,サードオピニオン,0
1954,7010401164915,新規,0,2022-01-14,2022-01-14,株式会社ラトリエカリス,,株式会社,東京都,港区,白金台５丁目２番５号トランドゥ５０２,,13,103,1080071,,,,,,,2022-01-14,1,,,,,ラトリエカリス,0
1955,7010401164923,新規,0,2022-01-14,2022-01-14,株式会社スリー・ビー,,株式会社,東京都,港区,元赤坂１丁目１番７－１００８号オリエント赤坂モートサイド,,13,103,1070051,,,,,,,2022-01-14,1,,,,,スリービー,0
1956,7010401164931,新規,0,2022-01-14,2022-01-14,株式会社ＩＢＺ,,株式会社,東京都,港区,南青山２丁目２番１５号ＷｉｎＡｏｙａｍａビルＵＣＦ６階,,13,103,1070062,,,,,,,2022-01-14,1,,,,,アイビーゼット,0
1963,7010601060526,新規,0,2022-01-14,2022-01-14,株式会社アーキペラゴアーキテクツスタジオ,,株式会社,東京都,江東区,永代１丁目３－３,,13,108,1350034,,,,,,,2022-01-14,1,,,,,アーキペラゴアーキテクツスタジオ,0
1964,7010603009348,新規,0,2022-01-14,2022-01-14,合同会社ｇａｌａｃｔｉｃ　ｒａｉｎｂｏｗ　ｃｏｎｎｅｃｔｉｏｎｓ．,,合同会社,東京都,墨田区,京島１丁目９番１１号,,13,107,1310046,,,,,,,2022-01-14,1,,,,,ギャラクティックレインボーコネクションズ,0
1965,7010701042044,新規,0,2022-01-14,2022-01-14,株式会社ＨＯＷｓｔａｒ,,株式会社,東京都,品川区,東大井６丁目８番１９号,,13,109,1400011,,,,,,,2022-01-14,1,,,,,ハウスター,0
1966,7010901050144,新規,0,2022-01-14,2022-01-14,ＲｅＭｅＹｏｕ株式会社,,株式会社,東京都,世田谷区,弦巻３丁目１７番６－２０６号,,13,112,1540016,,,,,,,2022-01-14,1,,,,,レミーユー,0
1967,7010903007068,新規,0,2022-01-14,2022-01-14,合同会社ＣｏｎｆｅｉｔＯ,,合同会社,東京都,世田谷区,三軒茶屋２丁目５１番３０号,,13,112,1540024,,,,,,,2022-01-14,1,,,,,コンフェイト,0
1968,7010903007076,新規,0,2022-01-14,2022-01-14,ｅｎｄ合同会社,,合同会社,東京都,世田谷区,代田５丁目５番２－１１０号,,13,112,1550033,,,,,,,2022-01-14,1,,,,,エンド,0
1969,7011001145058,新規,0,2022-01-14,2022-01-14,株式会社ＲＳサンズ,,株式会社,東京都,渋谷区,恵比寿南１丁目１番１号８Ｆ,,13,113,1500022,,,,,,,2022-01-14,1,,,,,アールエスサンズ,0
1970,7011001145074,新規,0,2022-01-14,2022-01-14,株式会社ＡＬＬ　ＢＲＡＮＤ　Ｍ＆Ｎ,,株式会社,東京都,目黒区,碑文谷２丁目５番２１号,,13,110,1520003,,,,,,,2022-01-14,1,,,,,オールブランドエムアンドエヌ,0
1971,7011001145124,新規,0,2022-01-14,2022-01-14,株式会社クレアデュース,,株式会社,東京都,目黒区,自由が丘１丁目７番３号,,13,110,1520035,,,,,,,2022-01-14,1,,,,,クレアデュース,0
1975,7011101097488,新規,0,2022-01-14,2022-01-14,株式会社ライフメディア,,株式会社,東京都,新宿区,高田馬場１丁目３２－１０,,13,104,1690075,,,,,,,2022-01-14,1,,,,,ライフメディア,0
1976,7011103011372,新規,0,2022-01-14,2022-01-14,Ｔ　Ｋａｔｏ合同会社,,合同会社,東京都,新宿区,西新宿４丁目４０番５－１３０１,,13,104,1600023,,,,,,,2022-01-14,1,,,,,ティーカトウ,0
1977,7011201023550,新規,0,2022-01-14,2022-01-14,株式会社Ｓ＆Ｐ,,株式会社,東京都,中野区,野方２丁目３８番４号,,13,114,1650027,,,,,,,2022-01-14,1,,,,,エスアンドピー,0
1978,7011201023559,新規,0,2022-01-14,2022-01-14,株式会社スパイラル,,株式会社,東京都,中野区,本町６丁目７番９号ＡｉｒＴｏｗｅｒＮａｋａｎｏ２０３,,13,114,1640012,,,,,,,2022-01-14,1,,,,,スパイラル,0
1981,7011501027664,新規,0,2022-01-14,2022-01-14,株式会社ａｎ－ｂｏｏ,,株式会社,東京都,荒川区,荒川３丁目４６番３号,,13,118,1160002,,,,,,,2022-01-14,1,,,,,アンブゥ,0
1983,7011601025634,新規,0,2022-01-14,2022-01-14,トキワリビング株式会社,,株式会社,東京都,練馬区,富士見台４丁目１４－２０,,13,120,1770034,,,,,,,2022-01-14,1,,,,,トキワリビング,0
1984,7011601025659,新規,0,2022-01-14,2022-01-14,株式会社ＪＯＩＮＴＩＮＯ,,株式会社,東京都,練馬区,豊玉中３丁目２８番１５－２０６号,,13,120,1760013,,,,,,,2022-01-14,1,,,,,ジョインティーノ,0
1985,7011603003497,新規,0,2022-01-14,2022-01-14,グレイプス合同会社,,合同会社,東京都,練馬区,豊玉南１丁目１１番１０－３０４号,,13,120,1760014,,,,,,,2022-01-14,1,,,,,グレイプス,0
1989,7011801040185,新規,0,2022-01-14,2022-01-14,ＢＥＣ株式会社,,株式会社,東京都,葛飾区,西亀有２丁目４０番５－２０１号,,13,122,1240002,,,,,,,2022-01-14,1,,,,,ビーイーシー,0
1990,7012401038751,新規,0,2022-01-14,2022-01-14,株式会社グロース,,株式会社,東京都,多摩市,東寺方６０２番地の１麗風荘１０２号室,,13,224,2060003,,,,,,,2022-01-14,1,,,,,グロース,0
1992,7012801021332,新規,0,2022-01-14,2022-01-14,ゲレンデ・シュトラッセ株式会社,,株式会社,東京都,日野市,平山４丁目６番地の９,,13,212,1910043,,,,,,,2022-01-14,1,,,,,ゲレンデシュトラッセ,0
1994,7012803002677,新規,0,2022-01-14,2022-01-14,合同会社矯正保護研究機構,,合同会社,東京都,武蔵村山市,大南４丁目２１番地の３１エステート大南公園１－１０５号,,13,223,2080013,,,,,,,2022-01-14,1,,,,,キョウセイホゴケンキュウキコウ,0
2006,7013305003296,新規,0,2022-01-14,2022-01-14,社会保険労務士法人竹内社労士事務所,,その他の設立登記法人,東京都,豊島区,北大塚２丁目１３番１号,,13,116,1700004,,,,,,,2022-01-14,1,,,,,タケウチシャロウシジムショ,0
2011,7020001144762,新規,0,2022-01-14,2022-01-14,株式会社エレーナグループ,,株式会社,神奈川県,横浜市中区,花咲町１丁目４８番地ロゼ桜木町７０２,,14,104,2310063,,,,,,,2022-01-14,1,,,,,エレーナグループ,0
2012,7020001144770,新規,0,2022-01-14,2022-01-14,昭栄工業株式会社,,株式会社,神奈川県,川崎市中原区,下沼部１８１０番地１シティハウス武蔵小杉１７０４,,14,133,2110011,,,,,,,2022-01-14,1,,,,,ショウエイコウギョウ,0
2013,7020001144779,新規,0,2022-01-14,2022-01-14,株式会社フォー・エフ,,株式会社,神奈川県,横浜市瀬谷区,下瀬谷３丁目３１番地２９,,14,114,2460035,,,,,,,2022-01-14,1,,,,,フォーエフ,0
2014,7020001144787,新規,0,2022-01-14,2022-01-14,シア・トランスポートジャパン株式会社,,株式会社,神奈川県,横浜市中区,桜木町１丁目１番地７ヒューリックみなとみらい１０階,,14,104,2310062,,,,,,,2022-01-14,1,,,,,シアトランスポートジャパン,0
2016,7020003021118,新規,0,2022-01-14,2022-01-14,合同会社ＳＵＵ,,合同会社,神奈川県,川崎市高津区,二子２丁目１番１５号,,14,134,2130002,,,,,,,2022-01-14,1,,,,,スー,0
2017,7020003021126,新規,0,2022-01-14,2022-01-14,合同会社シンフィニティ,,合同会社,神奈川県,横浜市保土ケ谷区,帷子町１丁目３０－１クボタビル３０１,,14,106,2400013,,,,,,,2022-01-14,1,,,,,シンフィニティ,0
2018,7020003021134,新規,0,2022-01-14,2022-01-14,合同会社Ｃｏｎｎｅｃｔ　ｗｉｔｈ　Ｃｈｉｌｄｒｅｎ,,合同会社,神奈川県,横浜市鶴見区,獅子ケ谷１丁目１０番３５号株式会社エルアンドイーサポートシステム２階,,14,101,2300073,,,,,,,2022-01-14,1,,,,,コネクトウィズチルドレン,0
2025,7021001074917,新規,0,2022-01-14,2022-01-14,株式会社丸三,,株式会社,神奈川県,藤沢市,辻堂東海岸３丁目９番Ｍ～４０８号,,14,205,2510045,,,,,,,2022-01-14,1,,,,,マルミ,0
2026,7021001074925,新規,0,2022-01-14,2022-01-14,株式会社ナカシマ製作所,,株式会社,神奈川県,相模原市南区,新磯野５丁目１０番５号,,14,153,2520325,,,,,,,2022-01-14,1,,,,,ナカシマセイサクショ,0
2027,7021001074958,新規,0,2022-01-14,2022-01-14,株式会社エムズ・ワークス,,株式会社,神奈川県,相模原市南区,相模台６丁目３０番３７号オルテンシア相模台１０２,,14,153,2520321,,,,,,,2022-01-14,1,,,,,エムズワークス,0
2028,7021001074966,新規,0,2022-01-14,2022-01-14,株式会社くすのき,,株式会社,神奈川県,平塚市,東八幡１丁目１０番７号,,14,203,2540016,,,,,,,2022-01-14,1,,,,,クスノキ,0
2031,7021005012419,新規,0,2022-01-14,2022-01-14,一般社団法人日本マザーズピラティス協会,,その他の設立登記法人,神奈川県,厚木市,元町１２番１０号,,14,212,2430002,,,,,,,2022-01-14,1,,,,,ニホンマザーズピラティスキョウカイ,0
2034,7030001146262,新規,0,2022-01-14,2022-01-14,株式会社アクトライブトランスポート,,株式会社,埼玉県,北本市,北中丸２丁目３番地,,11,233,3640012,,,,,,,2022-01-14,1,,,,,アクトライブトランスポート,0
2035,7030001146279,新規,0,2022-01-14,2022-01-14,ギヤフォース株式会社,,株式会社,埼玉県,熊谷市,妻沼２５４４番地,,11,202,3600201,,,,,,,2022-01-14,1,,,,,ギヤホース,0
2036,7030001146320,新規,0,2022-01-14,2022-01-14,株式会社ｐｅｒｆｏｒｍ,,株式会社,埼玉県,戸田市,戸田公園５番９号,,11,224,3350024,,,,,,,2022-01-14,1,,,,,パフォーム,0
2043,7040001121735,新規,0,2022-01-14,2022-01-14,株式会社ライブホールディングス,,株式会社,千葉県,千葉市美浜区,磯辺２丁目５番１号,,12,106,2610012,,,,,,,2022-01-14,1,,,,,ライブホールディングス,0
2044,7040001121768,新規,0,2022-01-14,2022-01-14,株式会社ｂａｌａｎｚａ,,株式会社,千葉県,千葉市中央区,富士見２丁目１２番８号さくら井屋ビル１階Ａ室,,12,101,2600015,,,,,,,2022-01-14,1,,,,,バランサ,0
2045,7040001121776,新規,0,2022-01-14,2022-01-14,長島興業株式会社,,株式会社,千葉県,松戸市,五香西４丁目７番地の１７,,12,207,2702218,,,,,,,2022-01-14,1,,,,,ナガシマコウギョウ,0
2046,7040001121792,新規,0,2022-01-14,2022-01-14,Ｇプランニング株式会社,,株式会社,千葉県,八千代市,緑が丘１丁目１１０６－５－４０,,12,221,2760049,,,,,,,2022-01-14,1,,,,,ジープランニング,0
2048,7040003019283,新規,0,2022-01-14,2022-01-14,合同会社ＦＩＲＳＴ,,合同会社,千葉県,茂原市,八千代１丁目２０番地の１０岩瀬ビル２階,,12,210,2970024,,,,,,,2022-01-14,1,,,,,ファースト,0
2049,7040005021477,新規,0,2022-01-14,2022-01-14,一般社団法人ＧＩＲＣ被害者の会,,その他の設立登記法人,千葉県,千葉市中央区,中央１丁目１７番１号ＣｈｉｂａＣｅｎｔｒａｌＴｏｗｅｒ６１１,,12,101,2600013,,,,,,,2022-01-14,1,,,,,ジーアイアールシーヒガイシャノカイ,0
2052,7050001050462,新規,0,2022-01-14,2022-01-14,株式会社Ｓｅｖｅｎ　Ｒｉｎｇｓ,,株式会社,茨城県,土浦市,真鍋４丁目１４番１３号ＴＧビル１Ｆ,,08,203,3000051,,,,,,,2022-01-14,1,,,,,セブンリングス,0
2053,7050003006306,新規,0,2022-01-14,2022-01-14,ＬＩＮＮＥ合同会社,,合同会社,茨城県,つくば市,吾妻１丁目５番地７ダイワロイネットホテルつくばビル２Ｆ,,08,220,3050031,,,,,,,2022-01-14,1,,,,,リンネ,0
2055,7070001038836,新規,0,2022-01-14,2022-01-14,株式会社ツルマウソフト,,株式会社,群馬県,高崎市,飯塚町７４３番地８、２階,,10,202,3700069,,,,,,,2022-01-14,1,,,,,ツルマウソフト,0
2056,7070001038844,新規,0,2022-01-14,2022-01-14,株式会社ＨＡＢＡＴＡＫＩ,,株式会社,群馬県,伊勢崎市,田中島町１４００－２協和第二ビル２０４号,,10,204,3720802,,,,,,,2022-01-14,1,,,,,ハバタキ,0
2057,7080001024686,新規,0,2022-01-14,2022-01-14,株式会社リペアテクト,,株式会社,静岡県,静岡市葵区,山崎２丁目３２番地の１９,,22,101,4211213,,,,,,,2022-01-14,1,,,,,リペアテクト,0
2059,7080005007423,新規,0,2022-01-14,2022-01-14,一般社団法人Ｗａｋｗａｋ　ｆｏｒ　Ｅｖｅｒｙｏｎｅ,,その他の設立登記法人,静岡県,静岡市清水区,押切２２８４番地の２,,22,103,4240008,,,,,,,2022-01-14,1,,,,,ワクワクフォーエブリワン,0
2066,7090001017359,新規,0,2022-01-14,2022-01-14,株式会社ＧＲＥＥＮ　ＣＩＴＹ,,株式会社,山梨県,笛吹市,石和町駅前８番地８,,19,211,4060028,,,,,,,2022-01-14,1,,,,,グリーンシティ,0
2067,7090001017367,新規,0,2022-01-14,2022-01-14,株式会社ＡＬＵＸＩＡ,,株式会社,山梨県,富士吉田市,上吉田東２丁目１番３０号鈴木ビル２０２Ａ号室,,19,202,4030032,,,,,,,2022-01-14,1,,,,,アルシア,0
2071,7110001036356,新規,0,2022-01-14,2022-01-14,株式会社亀福,,株式会社,新潟県,中魚沼郡津南町,大字下船渡丁７９９６番地１,,15,482,9498201,,,,,,,2022-01-14,1,,,,,カメフク,0
2072,7110001036372,新規,0,2022-01-14,2022-01-14,株式会社シラベ,,株式会社,新潟県,新潟市秋葉区,中沢町５番２号,,15,105,9560831,,,,,,,2022-01-14,1,,,,,シラベ,0
2086,7120001243026,新規,0,2022-01-14,2022-01-14,Ｓｉｒｉｕｓホールディングス株式会社,,株式会社,大阪府,大阪市浪速区,下寺３丁目６番７号３０５,,27,111,5560001,,,,,,,2022-01-14,1,,,,,シリウスホールディングス,0
2087,7120001243034,新規,0,2022-01-14,2022-01-14,ＷＩｚ株式会社,,株式会社,大阪府,大阪市浪速区,大国２丁目１１番３号,,27,111,5560014,,,,,,,2022-01-14,1,,,,,ウィズ,0
2088,7120001243067,新規,0,2022-01-14,2022-01-14,株式会社ＬＭＣ,,株式会社,大阪府,大阪市西区,南堀江１丁目１６番９号,,27,106,5500015,,,,,,,2022-01-14,1,,,,,エルエムシー,0
2089,7120001243117,新規,0,2022-01-14,2022-01-14,株式会社ＩＮＮＯＳＥＮＳＥ,,株式会社,大阪府,大阪市中央区,西心斎橋２丁目１０番１５号心斎橋ロジック２Ｆ－Ｆ２,,27,128,5420086,,,,,,,2022-01-14,1,,,,,イノセンス,0
2090,7120001243158,新規,0,2022-01-14,2022-01-14,株式会社ｎｅｓ,,株式会社,大阪府,大阪市浪速区,難波中３丁目９番３号,,27,111,5560011,,,,,,,2022-01-14,1,,,,,ネス,0
2091,7120001243166,新規,0,2022-01-14,2022-01-14,筑合株式会社,,株式会社,大阪府,大阪市此花区,春日出中１丁目９番１３－２０３号,,27,104,5540022,,,,,,,2022-01-14,1,,,,,チクゴウ,0
2092,7120001243190,新規,0,2022-01-14,2022-01-14,株式会社ｏｂｂａ,,株式会社,大阪府,大阪市淀川区,田川１丁目１２番６号,,27,123,5320027,,,,,,,2022-01-14,1,,,,,オッバー,0
2093,7120001243199,新規,0,2022-01-14,2022-01-14,株式会社ＮＴコンサルティング,,株式会社,大阪府,大阪市西区,新町１丁目１４番２１号,,27,106,5500013,,,,,,,2022-01-14,1,,,,,エヌティーコンサルティング,0
2096,7120101064933,新規,0,2022-01-14,2022-01-14,ケイジーホーム株式会社,,株式会社,大阪府,富田林市,藤沢台２丁目２番３９８号,,27,214,5840071,,,,,,,2022-01-14,1,,,,,ケイジーホーム,0
2100,7120901045447,新規,0,2022-01-14,2022-01-14,株式会社パパビルド,,株式会社,大阪府,豊中市,宝山町２２番５０号,,27,203,5610893,,,,,,,2022-01-14,1,,,,,パパビルド,0
2101,7120901045455,新規,0,2022-01-14,2022-01-14,株式会社ＹＡＭＡＴＯコーポレーション,,株式会社,大阪府,茨木市,真砂１丁目１２番１９号ハイツ弘栄１０６,,27,211,5670851,,,,,,,2022-01-14,1,,,,,ヤマトコーポレーション,0
2102,7120901045463,新規,0,2022-01-14,2022-01-14,株式会社モリシゲ,,株式会社,大阪府,高槻市,殿町２番１９号,,27,207,5691126,,,,,,,2022-01-14,1,,,,,モリシゲ,0
2103,7120903003980,新規,0,2022-01-14,2022-01-14,ムーノートライブ合同会社,,合同会社,大阪府,豊中市,北桜塚４丁目１０番１０－１０３号,,27,203,5600022,,,,,,,2022-01-14,1,,,,,ムーノートライブ,0
2108,7140001124538,新規,0,2022-01-14,2022-01-14,株式会社ＳＵＮＳＥＡ’Ｓ,,株式会社,兵庫県,神戸市中央区,北長狭通３丁目１２番１５号ＧＷトアロードビル２階,,28,110,6500012,,,,,,,2022-01-14,1,,,,,サンシーズ,0
2113,7160003002467,新規,0,2022-01-14,2022-01-14,合同会社Ｊｉｂ　Ａｎｄａ,,合同会社,滋賀県,草津市,矢橋町２０７０番地１ヴィア・プレッソ６１５号,,25,206,5250066,,,,,,,2022-01-14,1,,,,,ジブアンダ,0
2114,7160005011029,新規,0,2022-01-14,2022-01-14,社会保険労務士法人みなと人事労務管理,,その他の設立登記法人,滋賀県,草津市,駒井沢町２１６番地５－１０３,,25,206,5250014,,,,,,,2022-01-14,1,,,,,ミナトジンジロウムカンリ,0
2117,7180001149580,新規,0,2022-01-14,2022-01-14,株式会社ＳＤＡ,,株式会社,愛知県,名古屋市名東区,上社２丁目２１８番地,,23,115,4650025,,,,,,,2022-01-14,1,,,,,エスディエー,0
2119,7180005019598,新規,0,2022-01-14,2022-01-14,一般社団法人日本コーチングアカデミー協会,,その他の設立登記法人,愛知県,尾張旭市,印場元町５丁目５番地３７,,23,226,4880840,,,,,,,2022-01-14,1,,,,,ニホンコーチングアカデミーキョウカイ,0
2120,7180301035836,新規,0,2022-01-14,2022-01-14,株式会社ｓａｋａ松,,株式会社,愛知県,刈谷市,新富町５丁目８１番地,,23,210,4480045,,,,,,,2022-01-14,1,,,,,サカマツ,0
2130,7220001024647,新規,0,2022-01-14,2022-01-14,株式会社ＹＵＫＩ,,株式会社,石川県,金沢市,東山１丁目４番４２号,,17,201,9200831,,,,,,,2022-01-14,1,,,,,ユキ,0
2138,7240001059204,新規,0,2022-01-14,2022-01-14,株式会社ＣＡＰＩＴＡＬ,,株式会社,広島県,広島市中区,中町４番１４号,,34,101,7300037,,,,,,,2022-01-14,1,,,,,キャピタル,0
2140,7250001019339,新規,0,2022-01-14,2022-01-14,株式会社藤高電設,,株式会社,山口県,宇部市,大字西岐波２１２５番地２７,,35,202,7550151,,,,,,,2022-01-14,1,,,,,フジタカデンセツ,0
2142,7260001036440,新規,0,2022-01-14,2022-01-14,株式会社チャイム３１,,株式会社,岡山県,岡山市東区,君津３２７番地１２,,33,103,7048166,,,,,,,2022-01-14,1,,,,,チャイムサンジュウイチ,0
2150,7290001096028,新規,0,2022-01-14,2022-01-14,株式会社益田屋,,株式会社,福岡県,柳川市,東蒲池７９番地８,,40,207,8320006,,,,,,,2022-01-14,1,,,,,マスダヤ,0
2151,7290001096044,新規,0,2022-01-14,2022-01-14,株式会社マイ・プラス,,株式会社,福岡県,福岡市早良区,西新５丁目１４番２０号,,40,137,8140002,,,,,,,2022-01-14,1,,,,,マイプラス,0
2152,7290001096077,新規,0,2022-01-14,2022-01-14,株式会社三辰,,株式会社,福岡県,福岡市東区,和白東２丁目３３－７－１,,40,131,8110214,,,,,,,2022-01-14,1,,,,,サンシン,0
2153,7290001096085,新規,0,2022-01-14,2022-01-14,株式会社Ｂ‐Ｓｉｅｇ,,株式会社,福岡県,福岡市中央区,今泉２丁目５番２８号６Ｆ,,40,133,8100021,,,,,,,2022-01-14,1,,,,,ビージーク,0
2154,7290001096093,新規,0,2022-01-14,2022-01-14,株式会社Ｍａｋｅ　Ａｎｄ,,株式会社,福岡県,福岡市中央区,渡辺通５丁目３番１５－５０１号,,40,133,8100004,,,,,,,2022-01-14,1,,,,,メイクアンド,0
2155,7290003012032,新規,0,2022-01-14,2022-01-14,合同会社Ｌｕｃａｓ．Ｋ,,合同会社,福岡県,福岡市東区,箱崎１丁目２７番１号ソフィア箱崎１０２号,,40,131,8120053,,,,,,,2022-01-14,1,,,,,ルカドットケイ,0
2156,7290801028163,新規,0,2022-01-14,2022-01-14,株式会社ワイドクロス,,株式会社,福岡県,遠賀郡岡垣町,大字山田９１７番地３,,40,383,8114221,,,,,,,2022-01-14,1,,,,,ワイドクロス,0
2157,7290801028171,新規,0,2022-01-14,2022-01-14,ＳＴＫ株式会社,,株式会社,福岡県,北九州市小倉北区,下富野５丁目６番２６号,,40,106,8020023,,,,,,,2022-01-14,1,,,,,エスティーケイ,0
2158,7290803004030,新規,0,2022-01-14,2022-01-14,合同会社Ｋ‐プランニング,,合同会社,福岡県,北九州市若松区,栄盛川町２番２６号,,40,103,8080014,,,,,,,2022-01-14,1,,,,,ケープランニング,0
2167,7340001024420,新規,0,2022-01-14,2022-01-14,クリックセレクト株式会社,,株式会社,鹿児島県,姶良郡湧水町,恒次１１０２番地,,46,452,8996206,,,,,,,2022-01-14,1,,,,,クリックセレクト,0
2170,7350001017530,新規,0,2022-01-14,2022-01-14,株式会社さんてらす,,株式会社,宮崎県,宮崎市,霧島２丁目５番地,,45,201,8800032,,,,,,,2022-01-14,1,,,,,サンテラス,0
2171,7350001017539,新規,0,2022-01-14,2022-01-14,株式会社Ｒｅｖｉｖｅ,,株式会社,宮崎県,宮崎市,大字吉野１１８３番地,,45,201,8802233,,,,,,,2022-01-14,1,,,,,リバイブ,0
2172,7350003004007,新規,0,2022-01-14,2022-01-14,合同会社久保田,,合同会社,宮崎県,日南市,吾田東４丁目６番４号,,45,204,8870041,,,,,,,2022-01-14,1,,,,,クボタ,0
2173,7350005006042,新規,0,2022-01-14,2022-01-14,弁護士法人かおる風法律事務所,,その他の設立登記法人,宮崎県,宮崎市,江平西１丁目１番３２号ハイシティアラジンビル８０２,,45,201,8800051,,,,,,,2022-01-14,1,,,,,カオルカゼホウリツジムショ,0
2174,7360001029871,新規,0,2022-01-14,2022-01-14,ウィルケリ株式会社,,株式会社,沖縄県,石垣市,字真栄里３４５番地６０,,47,207,9070002,,,,,,,2022-01-14,1,,,,,ウィルケリ,0
2178,7370003005548,新規,0,2022-01-14,2022-01-14,合同会社緑の足音,,合同会社,宮城県,仙台市青葉区,上愛子字蛇台原４９番地の１１,,04,101,9893124,,,,,,,2022-01-14,1,,,,,ミドリノアシオト,0
2191,7430001085742,新規,0,2022-01-14,2022-01-14,株式会社絆,,株式会社,北海道,伊達市,旭町２７番地５３,,01,233,0520015,,,,,,,2022-01-14,1,,,,,キズナ,0
2192,7430001085750,新規,0,2022-01-14,2022-01-14,株式会社ＤＥＥＳ,,株式会社,北海道,札幌市清田区,平岡公園東２丁目７番５号,,01,110,0040882,,,,,,,2022-01-14,1,,,,,ディーズ,0
2193,7430001085783,新規,0,2022-01-14,2022-01-14,株式会社ビネガー,,株式会社,北海道,札幌市北区,新琴似七条５丁目２番１１号,,01,102,0010907,,,,,,,2022-01-14,1,,,,,ビネガー,0
2194,7430003013528,新規,0,2022-01-14,2022-01-14,エウレカエナジージャパン合同会社,,合同会社,北海道,札幌市南区,藤野五条５丁目１２番６号,,01,106,0612285,,,,,,,2022-01-14,1,,,,,エウレカエナジージャパン,0
2196,7440001009015,新規,0,2022-01-14,2022-01-14,フロンティアＴＳＫ株式会社,,株式会社,北海道,函館市,陣川１丁目１４番２号,,01,202,0410837,,,,,,,2022-01-14,1,,,,,フロンティアティーエスケイ,0
2202,7700150106643,新規,0,2022-01-14,2022-01-14,ＧＬＯＢＡＬ　ＬＩＮＫ,,外国会社等,宮城県,加美郡色麻町,四竃２２１－１オフィス－８,,04,444,9814122,スリランカ民主社会主義共和国、コロンボ１１、ファーストクロスストリート、コロンボプラザ、Ｎｏ．１５６、１／５,00124394,,,,,2022-01-14,1,,,,,グローバルリンク,0
2207,8010001223797,新規,0,2022-01-14,2022-01-14,バースインベスター株式会社,,株式会社,東京都,中央区,銀座１丁目２２番１１号銀座大竹ビジデンス２階,,13,102,1040061,,,,,,,2022-01-14,1,,,,,バースインベスター,0
2208,8010001223814,新規,0,2022-01-14,2022-01-14,ｉＳｉＰ株式会社,,株式会社,東京都,文京区,小石川５丁目１６－１０小島ビル２Ｆ,,13,105,1120002,,,,,,,2022-01-14,1,,,,,アイシップ,0
2209,8010001223822,新規,0,2022-01-14,2022-01-14,株式会社イトーキマーケティング,,株式会社,東京都,中央区,日本橋２丁目５番１号,,13,102,1030027,,,,,,,2022-01-14,1,,,,,イトーキマーケティング,0
2210,8010001223847,新規,0,2022-01-14,2022-01-14,株式会社ｍｉｇｎ,,株式会社,東京都,文京区,本郷６丁目２５番１４号,,13,105,1130033,,,,,,,2022-01-14,1,,,,,マイン,0
2213,8010003036727,新規,0,2022-01-14,2022-01-14,コスモス１合同会社,,合同会社,東京都,中央区,日本橋１丁目４番１号日本橋一丁目ビルディング,,13,102,1030027,,,,,,,2022-01-14,1,,,,,コスモスイチ,0
2214,8010003036735,新規,0,2022-01-14,2022-01-14,合同会社喜納,,合同会社,東京都,千代田区,岩本町２丁目２番３－３０１号,,13,101,1010032,,,,,,,2022-01-14,1,,,,,キナ,0
2216,8010005034423,新規,0,2022-01-14,2022-01-14,一般社団法人日本冠動脈外科学会,,その他の設立登記法人,東京都,千代田区,三番町２番地三番町ＫＳビル株式会社コンベンションリンケージ内,,13,101,1020075,,,,,,,2022-01-14,1,,,,,ニホンカンドウミャクゲカガッカイ,0
2230,8010401164880,新規,0,2022-01-14,2022-01-14,株式会社Ｇｒａｂ　ｔｈｅ　Ｆａｔｅ,,株式会社,東京都,港区,南青山２丁目２番１５号,,13,103,1070062,,,,,,,2022-01-14,1,,,,,グラブザフェイト,0
2231,8010401164922,新規,0,2022-01-14,2022-01-14,株式会社コマーステクノロジー,,株式会社,東京都,港区,芝公園２丁目４番１号芝パークビル,,13,103,1050011,,,,,,,2022-01-14,1,,,,,コマーステクノロジー,0
2232,8010401164939,新規,0,2022-01-14,2022-01-14,株式会社Ｇｒａｓｓｉａｓ　ＴＯＫＹＯ,,株式会社,東京都,港区,南青山３丁目８番４０号青山センタービル,,13,103,1070062,,,,,,,2022-01-14,1,,,,,グラシアストウキョウ,0
2233,8010405020568,新規,0,2022-01-14,2022-01-14,一般社団法人海外人材雇用支援機構,,その他の設立登記法人,東京都,港区,高輪３丁目２５番２７号,,13,103,1080074,,,,,,,2022-01-14,1,,,,,カイガイジンザイコヨウシエンキコウ,0
2235,8010501048323,新規,0,2022-01-14,2022-01-14,株式会社スミジョイ,,株式会社,東京都,台東区,台東２丁目２７番３号ＮＳＫビル１０Ｆ,,13,106,1100016,,,,,,,2022-01-14,1,,,,,スミジョイ,0
2236,8010601060500,新規,0,2022-01-14,2022-01-14,株式会社キヨクリーン,,株式会社,東京都,墨田区,墨田１丁目１７番１１－２０６号,,13,107,1310031,,,,,,,2022-01-14,1,,,,,キヨクリーン,0
2238,8010703006070,新規,0,2022-01-14,2022-01-14,ＣａＭＰ　Ｆｉｌｍ合同会社,,合同会社,東京都,品川区,南品川５丁目１１－９,,13,109,1400004,,,,,,,2022-01-14,1,,,,,キャンプフィルム,0
2239,8010801032654,新規,0,2022-01-14,2022-01-14,株式会社ｂｌａｎｃ．ｌａｂ,,株式会社,東京都,大田区,鵜の木２丁目４３番４号,,13,111,1460091,,,,,,,2022-01-14,1,,,,,ブランラボ,0
2242,8010901050143,新規,0,2022-01-14,2022-01-14,株式会社Ｂａｒａｑｕｅ,,株式会社,東京都,世田谷区,玉川３丁目３２番１０号,,13,112,1580094,,,,,,,2022-01-14,1,,,,,バラック,0
2243,8010903007067,新規,0,2022-01-14,2022-01-14,創造と投資合同会社,,合同会社,東京都,世田谷区,上馬１丁目１５番２１号,,13,112,1540011,,,,,,,2022-01-14,1,,,,,ソウゾウトトウシ,0
2245,8011001145049,新規,0,2022-01-14,2022-01-14,株式会社ピオ,,株式会社,東京都,渋谷区,道玄坂１丁目１２番１号渋谷マークシティウエスト２２階,,13,113,1500043,,,,,,,2022-01-14,1,,,,,ピオ,0
2246,8011001145057,新規,0,2022-01-14,2022-01-14,株式会社森山開次事務所,,株式会社,東京都,渋谷区,神宮前６丁目２３番４号桑野ビル２階,,13,113,1500001,,,,,,,2022-01-14,1,,,,,モリヤマカイジジムショ,0
2247,8011001145065,新規,0,2022-01-14,2022-01-14,株式会社トラストホールディングス,,株式会社,東京都,渋谷区,恵比寿南１丁目１番１号８Ｆ,,13,113,1500022,,,,,,,2022-01-14,1,,,,,トラストホールディングス,0
2248,8011001145073,新規,0,2022-01-14,2022-01-14,株式会社アマネイト,,株式会社,東京都,渋谷区,神宮前４丁目１８番６－３０２,,13,113,1500001,,,,,,,2022-01-14,1,,,,,アマネイト,0
2249,8011003013963,新規,0,2022-01-14,2022-01-14,合同会社ドロースリー,,合同会社,東京都,目黒区,中央町１丁目４番３－２０６号,,13,110,1520001,,,,,,,2022-01-14,1,,,,,ドロースリー,0
2250,8011003013988,新規,0,2022-01-14,2022-01-14,合同会社Ｙ’ｓ　Ｃｏｒｐｏｒａｔｉｏｎ,,合同会社,東京都,渋谷区,猿楽町１１番２５号,,13,113,1500033,,,,,,,2022-01-14,1,,,,,ワイズコーポレーション,0
2253,8011101097470,新規,0,2022-01-14,2022-01-14,ｔｉｅｓ　ｅｎｇｉｎｅｅｒｉｎｇ株式会社,,株式会社,東京都,新宿区,西新宿２丁目６番１号新宿住友ビル３２階,,13,104,1600023,,,,,,,2022-01-14,1,,,,,タイズエンジニアリング,0
2254,8011101097495,新規,0,2022-01-14,2022-01-14,ＧＯＬＤ－ＴＥＣ　ＳＥＲＶＩＣＥ株式会社,,株式会社,東京都,新宿区,岩戸町１４番地,,13,104,1620832,,,,,,,2022-01-14,1,,,,,ゴールドテックサービス,0
2255,8011101097512,新規,0,2022-01-14,2022-01-14,風雅株式会社,,株式会社,東京都,新宿区,西新宿３丁目３番１３号西新宿水間ビル６Ｆ,,13,104,1600023,,,,,,,2022-01-14,1,,,,,フウガ,0
2257,8011103011371,新規,0,2022-01-14,2022-01-14,合同会社ＣｅｎｔＡｒｃ,,合同会社,東京都,新宿区,矢来町３７番地矢来町テラス１０１,,13,104,1620805,,,,,,,2022-01-14,1,,,,,セントアーク,0
2262,8011503005031,新規,0,2022-01-14,2022-01-14,Ｙｏｕｎｇ　ａｎｄ　Ｉｎｎｏｃｅｎｔ合同会社,,合同会社,東京都,荒川区,東尾久２丁目２番９号三祥ビル２０５,,13,118,1160012,,,,,,,2022-01-14,1,,,,,ヤングアンドイノセント,0
2266,8011801040184,新規,0,2022-01-14,2022-01-14,株式会社ＶＡＲＥＬ,,株式会社,東京都,葛飾区,東立石２丁目２５番９号,,13,122,1240013,,,,,,,2022-01-14,1,,,,,ヴァレル,0
2268,8012401038742,新規,0,2022-01-14,2022-01-14,株式会社幸良,,株式会社,東京都,府中市,宮西町５丁目１１番地の２,,13,206,1830022,,,,,,,2022-01-14,1,,,,,コウラ,0
2269,8012401038750,新規,0,2022-01-14,2022-01-14,株式会社Ｇ－ｖｉｓｉｏｎ,,株式会社,東京都,調布市,西つつじケ丘１丁目５４番地１２,,13,208,1820006,,,,,,,2022-01-14,1,,,,,ジーヴィジョン,0
2279,8020001144687,新規,0,2022-01-14,2022-01-14,ｅ－Ｌｉｎｅ　Ｐｌｕｓ株式会社,,株式会社,神奈川県,横浜市南区,六ツ川１丁目２４３番地５８,,14,105,2320066,,,,,,,2022-01-14,1,,,,,イーラインプラス,0
2280,8020001144704,新規,0,2022-01-14,2022-01-14,Ｖｅｔｓ　Ｃｒｅｗ株式会社,,株式会社,神奈川県,横浜市磯子区,上中里町字向坂３８８－１,,14,107,2350042,,,,,,,2022-01-14,1,,,,,ベッツクルー,0
2281,8020001144720,新規,0,2022-01-14,2022-01-14,株式会社ＬＩＮＤＡ,,株式会社,神奈川県,川崎市中原区,木月３丁目１１番２７号,,14,133,2110025,,,,,,,2022-01-14,1,,,,,リンダ,0
2282,8020001144745,新規,0,2022-01-14,2022-01-14,株式会社ブライト,,株式会社,神奈川県,横浜市都筑区,中川２丁目９番６－２０１号,,14,118,2240001,,,,,,,2022-01-14,1,,,,,ブライト,0
2283,8020001144761,新規,0,2022-01-14,2022-01-14,オネスト株式会社,,株式会社,神奈川県,横浜市旭区,鶴ケ峰１丁目８６番地７７,,14,112,2410022,,,,,,,2022-01-14,1,,,,,オネスト,0
2284,8020001144786,新規,0,2022-01-14,2022-01-14,株式会社ソーシャルインフィニティ,,株式会社,神奈川県,横浜市西区,北幸１丁目１１－１,,14,103,2200004,,,,,,,2022-01-14,1,,,,,ソーシャルインフィニティ,0
2287,8020003021117,新規,0,2022-01-14,2022-01-14,合同会社Ｗｉｓｐｏ,,合同会社,神奈川県,横浜市中区,住吉町６丁目７４番地ピージェイ馬車道ビル２Ｆ,,14,104,2310013,,,,,,,2022-01-14,1,,,,,ウィスポ,0
2288,8020003021125,新規,0,2022-01-14,2022-01-14,ａｌｌｉｅｄ－ｐａｒｔｎｅｒｓ合同会社,,合同会社,神奈川県,横浜市港北区,菊名２丁目２４番２２－２号,,14,109,2220011,,,,,,,2022-01-14,1,,,,,アライドパートナーズ,0
2289,8020003021133,新規,0,2022-01-14,2022-01-14,合同会社ＩＰＡＭ　Ｌｉｍｉｔｅｄ,,合同会社,神奈川県,横浜市瀬谷区,二ツ橋町２１５番地市営楽老ハイツ８棟２０３号,,14,114,2460021,,,,,,,2022-01-14,1,,,,,,0
2290,8020005015348,新規,0,2022-01-14,2022-01-14,一般社団法人未来創造ネットワーク,,その他の設立登記法人,神奈川県,横浜市港北区,綱島東５丁目２０番２２－３号,,14,109,2230052,,,,,,,2022-01-14,1,,,,,ミライソウゾウネットワーク,0
2292,8021001074916,新規,0,2022-01-14,2022-01-14,株式会社未悠綜合警備,,株式会社,神奈川県,大和市,福田２丁目２９番１０号１０１,,14,213,2420024,,,,,,,2022-01-14,1,,,,,ミユウソウゴウケイビ,0
2293,8021001074932,新規,0,2022-01-14,2022-01-14,松川電設株式会社,,株式会社,神奈川県,相模原市南区,下溝２０６８番地２１,,14,153,2520335,,,,,,,2022-01-14,1,,,,,マツカワデンセツ,0
2294,8021001074940,新規,0,2022-01-14,2022-01-14,株式会社エスディーダブルホールディングス,,株式会社,神奈川県,藤沢市,片瀬海岸３丁目１８番２３号,,14,205,2510035,,,,,,,2022-01-14,1,,,,,エスディーダブルホールディングス,0
2295,8021001074949,新規,0,2022-01-14,2022-01-14,リスタ株式会社,,株式会社,神奈川県,鎌倉市,大船１丁目１２番１０号湘南第５ビル４ＦＮＥＫＴＯＮ大船１４,,14,204,2470056,,,,,,,2022-01-14,1,,,,,リスタ,0
2296,8021001074957,新規,0,2022-01-14,2022-01-14,株式会社すずひろ,,株式会社,神奈川県,大和市,福田７丁目２２番１２号,,14,213,2420024,,,,,,,2022-01-14,1,,,,,スズヒロ,0
2301,8021005012418,新規,0,2022-01-14,2022-01-14,一般社団法人ビクトリースポーツ,,その他の設立登記法人,神奈川県,藤沢市,羽鳥５丁目１２番１８号アリエル湘南Ａ２０２号室,,14,205,2510056,,,,,,,2022-01-14,1,,,,,ビクトリースポーツ,0
2309,8030001146286,新規,0,2022-01-14,2022-01-14,ポジー株式会社,,株式会社,埼玉県,鴻巣市,南１丁目１０番４６号,,11,217,3690122,,,,,,,2022-01-14,1,,,,,ポジー,0
2310,8030001146311,新規,0,2022-01-14,2022-01-14,株式会社青天,,株式会社,埼玉県,入間郡三芳町,大字上富３８６番地１,,11,324,3540045,,,,,,,2022-01-14,1,,,,,アオテン,0
2314,8030003018657,新規,0,2022-01-14,2022-01-14,東銘合同会社,,合同会社,埼玉県,さいたま市南区,文蔵３丁目２８番６号１０２号棟２０１室,,11,108,3360025,,,,,,,2022-01-14,1,,,,,トウメイ,0
2320,8040001121734,新規,0,2022-01-14,2022-01-14,みずほ健工株式会社,,株式会社,千葉県,大網白里市,みずほ台１丁目１４番地２３,,12,239,2993234,,,,,,,2022-01-14,1,,,,,ミズホケンコウ,0
2321,8040001121742,新規,0,2022-01-14,2022-01-14,株式会社ＷＡＮＩＨＡＮＡ,,株式会社,千葉県,八街市,八街に１６２番地４,,12,230,2891103,,,,,,,2022-01-14,1,,,,,ワニハナ,0
2322,8040001121767,新規,0,2022-01-14,2022-01-14,株式会社ＴＫＧ土地開発プランニング,,株式会社,千葉県,市川市,須和田１丁目１６番１０号,,12,203,2720825,,,,,,,2022-01-14,1,,,,,ティーケージートチカイハツプランニング,0
2323,8040001121817,新規,0,2022-01-14,2022-01-14,株式会社アクアワールドジャパン,,株式会社,千葉県,浦安市,日の出１丁目４－Ｈ－２０６ベイシティ浦安,,12,227,2790013,,,,,,,2022-01-14,1,,,,,アクアワールドジャパン,0
2325,8040003019274,新規,0,2022-01-14,2022-01-14,ＡＮＮＡ’Ｓ　Ｅｘｐｏｒｔｓ＆Ｉｍｐｏｒｔｓ合同会社,,合同会社,千葉県,船橋市,東中山２丁目１番２号石井荘１０５号,,12,204,2730036,,,,,,,2022-01-14,1,,,,,アンナズエクスポーツアンドインポーツ,0
2326,8040003019290,新規,0,2022-01-14,2022-01-14,合同会社バンブーシュート,,合同会社,千葉県,野田市,蕃昌２５７－１０,,12,208,2780041,,,,,,,2022-01-14,1,,,,,バンブーシュート,0
2327,8040003019299,新規,0,2022-01-14,2022-01-14,ＴＨＥ　ＳＵＰＥＲ　ＭＯＯＮ合同会社,,合同会社,千葉県,柏市,西原３丁目１番５－８０４号,,12,217,2770885,,,,,,,2022-01-14,1,,,,,ザスーパームーン,0
2328,8040005021484,新規,0,2022-01-14,2022-01-14,ＲｅＦｉｎｅ税理士法人,,その他の設立登記法人,千葉県,流山市,市野谷２６番地の４（運Ａ７２街区１４）,,12,220,2700137,,,,,,,2022-01-14,1,,,,,リファイン,0
2330,8050001050453,新規,0,2022-01-14,2022-01-14,株式会社田直人不動産,,株式会社,茨城県,鹿嶋市,大字宮中８８２番地１ヒルズ谷田川Ｈ,,08,222,3140031,,,,,,,2022-01-14,1,,,,,デンナオトフドウサン,0
2331,8050001050461,新規,0,2022-01-14,2022-01-14,レガート株式会社,,株式会社,茨城県,牛久市,神谷２丁目７番地１,,08,219,3001216,,,,,,,2022-01-14,1,,,,,レガート,0
2333,8050003006313,新規,0,2022-01-14,2022-01-14,クレルド合同会社,,合同会社,茨城県,つくば市,並木３丁目２１番３号,,08,220,3050044,,,,,,,2022-01-14,1,,,,,クレルド,0
2336,8060001034471,新規,0,2022-01-14,2022-01-14,株式会社ＹＭファクトリー,,株式会社,栃木県,宇都宮市,上桑島町１４０２番地,,09,201,3210913,,,,,,,2022-01-14,1,,,,,ワイエムファクトリー,0
2338,8070001038819,新規,0,2022-01-14,2022-01-14,株式会社Ｍａｈｏｒａ,,株式会社,群馬県,高崎市,飯塚町４９０番地カツミマンション１０２号,,10,202,3700069,,,,,,,2022-01-14,1,,,,,マホラ,0
2339,8070001038835,新規,0,2022-01-14,2022-01-14,株式会社斎藤緑化,,株式会社,群馬県,甘楽郡甘楽町,大字小幡１４３番地１,,10,384,3702202,,,,,,,2022-01-14,1,,,,,サイトウリョクカ,0
2350,8090001017366,新規,0,2022-01-14,2022-01-14,ＯＧ．Ｓｍｉｌｙ株式会社,,株式会社,山梨県,南都留郡山中湖村,山中８６５番地の２９１,,19,425,4010501,,,,,,,2022-01-14,1,,,,,オージースマイリィー,0
2352,8090003002028,新規,0,2022-01-14,2022-01-14,ノーネーム合同会社,,合同会社,山梨県,上野原市,上野原４５０２番地,,19,212,4090112,,,,,,,2022-01-14,1,,,,,ノーネーム,0
2355,8100001034979,新規,0,2022-01-14,2022-01-14,株式会社Ｗ’ｓ,,株式会社,長野県,飯田市,上郷黒田１８９１番地３,,20,205,3950004,,,,,,,2022-01-14,1,,,,,ダボーズ,0
2382,8120001243041,新規,0,2022-01-14,2022-01-14,株式会社Ａｌｂｕｓ,,株式会社,大阪府,寝屋川市,田井西町２０－９,,27,215,5720020,,,,,,,2022-01-14,1,,,,,アルベス,0
2383,8120001243058,新規,0,2022-01-14,2022-01-14,ＡＤＤ　ＦＯＸ株式会社,,株式会社,大阪府,大阪市中央区,島之内１丁目７番２１号,,27,128,5420082,,,,,,,2022-01-14,1,,,,,アッドフォックス,0
2384,8120001243099,新規,0,2022-01-14,2022-01-14,株式会社ｋｎｏｗ　ｔｈｙｓｅｌｆ,,株式会社,大阪府,大阪市北区,本庄西１丁目３番１６－５０７号,,27,127,5310073,,,,,,,2022-01-14,1,,,,,ノウシィーセルフ,0
2385,8120001243132,新規,0,2022-01-14,2022-01-14,株式会社ＣｈｅｓｔｎｕｔＴｉｇｅｒ,,株式会社,大阪府,大阪市中央区,上本町西１丁目４番２３－６０４号,,27,128,5420062,,,,,,,2022-01-14,1,,,,,チェスナットタイガー,0
2386,8120001243149,新規,0,2022-01-14,2022-01-14,Ａ－Ｓｍｉｌｅ株式会社,,株式会社,大阪府,交野市,星田４丁目１５番５号－３０２号,,27,230,5760016,,,,,,,2022-01-14,1,,,,,アースマイル,0
2387,8120001243181,新規,0,2022-01-14,2022-01-14,株式会社神楽,,株式会社,大阪府,大阪市東住吉区,北田辺６丁目１３番８号,,27,121,5460044,,,,,,,2022-01-14,1,,,,,カグラ,0
2388,8120001243198,新規,0,2022-01-14,2022-01-14,宝達株式会社,,株式会社,大阪府,大阪市北区,天満２丁目１－１２天満橋ＳＥビル４階,,27,127,5300043,,,,,,,2022-01-14,1,,,,,ホウタツ,0
2392,8120003020934,新規,0,2022-01-14,2022-01-14,合同会社ＳＮＷ,,合同会社,大阪府,大阪市中央区,島之内１丁目１１番６号グレイス長堀１３０３号室,,27,128,5420082,,,,,,,2022-01-14,1,,,,,シンワ,0
2393,8120003020942,新規,0,2022-01-14,2022-01-14,合同会社Ｍ＆Ｊ,,合同会社,大阪府,大阪市東淀川区,西淡路２丁目１０番１９－３０１号,,27,114,5330031,,,,,,,2022-01-14,1,,,,,エムアンドジェー,0
2395,8120005022706,新規,0,2022-01-14,2022-01-14,特定非営利活動法人どこでもことばドア,,その他の設立登記法人,大阪府,大阪市此花区,酉島４丁目１番２０－３９０９号リバーサイドヒルなぎさ街,,27,104,5540051,,,,,,,2022-01-14,1,,,,,ドコデモコトバドア,0
2405,8122003002251,新規,0,2022-01-14,2022-01-14,クリーンライフ関西合同会社,,合同会社,大阪府,東大阪市,上六万寺町１２番５８号,,27,227,5798062,,,,,,,2022-01-14,1,,,,,クリーンライフカンサイ,0
2406,8130001070930,新規,0,2022-01-14,2022-01-14,株式会社ｍｉｎｏｒｉ,,株式会社,京都府,京都市南区,吉祥院仁木ノ森町３３番地５,,26,107,6018354,,,,,,,2022-01-14,1,,,,,ミノリ,0
2410,8140001124537,新規,0,2022-01-14,2022-01-14,ティーエムアール・マネジメント株式会社,,株式会社,兵庫県,神戸市中央区,葺合町字蝉山１番地の７熊内台セントポリア１１１０号,00125398,28,110,6510058,,,,,,,2022-01-14,1,,,,,ティーエムアールマネジメント,0
2411,8140001124545,新規,0,2022-01-14,2022-01-14,株式会社サンウェルス,,株式会社,兵庫県,西宮市,熊野町７番２７－４１７号,,28,204,6638103,,,,,,,2022-01-14,1,,,,,サンウェルス,0
2413,8140005025995,新規,0,2022-01-14,2022-01-14,社会福祉法人ＴＲＵＳＴこころ,,その他の設立登記法人,兵庫県,加古川市,加古川町大野９５６番１,,28,210,6750061,,,,,,,2022-01-14,1,,,,,トラストココロ,0
2414,8150001025239,新規,0,2022-01-14,2022-01-14,株式会社銀鈴管理,,株式会社,奈良県,奈良市,中山町西４丁目５３５番地の５５２,,29,201,6310013,,,,,,,2022-01-14,1,,,,,ギンレイカンリ,0
2416,8160001023935,新規,0,2022-01-14,2022-01-14,株式会社彩,,株式会社,滋賀県,愛知郡愛荘町,愛知川７０９－１,,25,425,5291331,,,,,,,2022-01-14,1,,,,,イロドリ,0
2418,8160003002466,新規,0,2022-01-14,2022-01-14,合同会社ｎｉｃｏｎ,,合同会社,滋賀県,守山市,小島町１６１０番地１,,25,207,5240002,,,,,,,2022-01-14,1,,,,,ニコン,0
2419,8170001016938,新規,0,2022-01-14,2022-01-14,ヤマトスタイルズ株式会社,,株式会社,和歌山県,御坊市,塩屋町南塩屋２８５番地１,,30,205,6440024,,,,,,,2022-01-14,1,,,,,ヤマトスタイルズ,0
2426,8180001149547,新規,0,2022-01-14,2022-01-14,株式会社ＭＩＲＵＨＩＴＯ,,株式会社,愛知県,名古屋市千種区,春岡通６丁目７番地松仙堂ビル１０３号室,,23,101,4640847,,,,,,,2022-01-14,1,,,,,ミルヒト,0
2427,8180003023361,新規,0,2022-01-14,2022-01-14,ベリタス合同会社,,合同会社,愛知県,名古屋市中区,栄２丁目２番地１号広小路伏見中駒ビル２Ｆ－９,,23,106,4600008,,,,,,,2022-01-14,1,,,,,ベリタス,0
2429,8180301035827,新規,0,2022-01-14,2022-01-14,アドア株式会社,,株式会社,愛知県,岡崎市,竜泉寺町字境ケ嶺大入２４番地１３,,23,202,4443524,,,,,,,2022-01-14,1,,,,,アドア,0
2442,8190001029021,新規,0,2022-01-14,2022-01-14,株式会社ありがとうございます,,株式会社,三重県,鈴鹿市,稲生町８９６２番地１Ｂ倉庫,,24,207,5100201,,,,,,,2022-01-14,1,,,,,アリガトウゴザイマス,0
2443,8200001039654,新規,0,2022-01-14,2022-01-14,厨房革命株式会社,,株式会社,岐阜県,岐阜市,神田町１丁目４番地１ＰＭビル１階,,21,201,5008833,,,,,,,2022-01-14,1,,,,,チュウボウカクメイ,0
2449,8220001024646,新規,0,2022-01-14,2022-01-14,株式会社Ｓｏｌｉｓ,,株式会社,石川県,金沢市,泉１丁目７番３－２号,,17,201,9218041,,,,,,,2022-01-14,1,,,,,ソリス,0
2450,8220003003185,新規,0,2022-01-14,2022-01-14,ザワナビ合同会社,,合同会社,石川県,金沢市,泉野町１丁目４‐４北川ビル２Ｆ・３Ｆ,,17,201,9218034,,,,,,,2022-01-14,1,,,,,ザワナビ,0
2455,8240001059178,新規,0,2022-01-14,2022-01-14,株式会社Ｌｉｃ　Ｌｉｕｔｙ,,株式会社,広島県,広島市中区,大手町４丁目５番４号,,34,101,7300051,,,,,,,2022-01-14,1,,,,,リックリューティー,0
2456,8240003005452,新規,0,2022-01-14,2022-01-14,合同会社アウル,,合同会社,広島県,広島市安佐北区,狩留家町１２７８番地１,,34,106,7391753,,,,,,,2022-01-14,1,,,,,アウル,0
2460,8250001019346,新規,0,2022-01-14,2022-01-14,株式会社岡村工業,,株式会社,山口県,岩国市,山手町４丁目２番６５号,,35,208,7400022,,,,,,,2022-01-14,1,,,,,オカムラコウギョウ,0
2461,8250003002985,新規,0,2022-01-14,2022-01-14,合同会社シミズ,,合同会社,山口県,山口市,阿知須３６２番地３,,35,203,7541277,,,,,,,2022-01-14,1,,,,,シミズ,0
2463,8260001036423,新規,0,2022-01-14,2022-01-14,株式会社ＣＡＲＡ,,株式会社,岡山県,岡山市中区,原尾島１丁目１番１５号（１０１号室）,,33,102,7038235,,,,,,,2022-01-14,1,,,,,カーラ,0
2464,8260001036431,新規,0,2022-01-14,2022-01-14,株式会社一創,,株式会社,岡山県,岡山市北区,西辛川７５６番地,,33,101,7011213,,,,,,,2022-01-14,1,,,,,イッソウ,0
2465,8260003003776,新規,0,2022-01-14,2022-01-14,合同会社アグリシステムズ,,合同会社,岡山県,津山市,高野本郷２０２１番地９,,33,203,7081125,,,,,,,2022-01-14,1,,,,,アグリシステムズ,0
2471,8290001095994,新規,0,2022-01-14,2022-01-14,株式会社セナコーポレーション,,株式会社,福岡県,福岡市博多区,住吉３丁目８番３０－１０１３号,,40,132,8120018,,,,,,,2022-01-14,1,,,,,セナコーポレーション,0
2472,8290001096027,新規,0,2022-01-14,2022-01-14,株式会社ＭＴ,,株式会社,福岡県,久留米市,大善寺町宮本４１番地５,,40,203,8300073,,,,,,,2022-01-14,1,,,,,エムティー,0
2473,8290001096051,新規,0,2022-01-14,2022-01-14,株式会社わっか,,株式会社,福岡県,飯塚市,大分１０２８番地３,,40,205,8200712,,,,,,,2022-01-14,1,,,,,ワッカ,0
2474,8290001096084,新規,0,2022-01-14,2022-01-14,ユグドラシルホールディングス株式会社,,株式会社,福岡県,柳川市,三橋町柳河５４５番地,,40,207,8320806,,,,,,,2022-01-14,1,,,,,ユグドラシルホールディングス,0
2475,8290003012023,新規,0,2022-01-14,2022-01-14,合同会社ほのぼの,,合同会社,福岡県,福岡市南区,若久５丁目１６番２号,,40,134,8150042,,,,,,,2022-01-14,1,,,,,ホノボノ,0
2476,8290801028162,新規,0,2022-01-14,2022-01-14,松柿商事株式会社,,株式会社,福岡県,北九州市若松区,宮丸２丁目２４番１３－２０２号,,40,103,8080064,,,,,,,2022-01-14,1,,,,,マツガキショウジ,0
2477,8290801028170,新規,0,2022-01-14,2022-01-14,株式会社ファイブオズ,,株式会社,福岡県,北九州市八幡西区,友田１丁目２番１０号,,40,109,8070828,,,,,,,2022-01-14,1,,,,,ファイブオズ,0
2480,8290805009514,新規,0,2022-01-14,2022-01-14,医療法人佐藤りさ眼科,,その他の設立登記法人,福岡県,北九州市若松区,白山１丁目２－３メイプルビル２Ｆ,,40,103,8080035,,,,,,,2022-01-14,1,,,,,サトウリサガンカ,0
2482,8310003004257,新規,0,2022-01-14,2022-01-14,合同会社タカセファーム,,合同会社,長崎県,壱岐市,郷ノ浦町牛方触５０７番地の１,,42,210,8115113,,,,,,,2022-01-14,1,,,,,タカセファーム,0
2484,8320001018836,新規,0,2022-01-14,2022-01-14,ダイヤモンドホールディングス株式会社,,株式会社,大分県,別府市,大字鶴見１０３番地の３,,44,202,8740840,,,,,,,2022-01-14,1,,,,,ダイヤモンドホールディングス,0
2490,8340001024411,新規,0,2022-01-14,2022-01-14,株式会社皆吉不動産,,株式会社,鹿児島県,薩摩川内市,横馬場町４番４号,,46,215,8950023,,,,,,,2022-01-14,1,,,,,ミナヨシフドウサン,0
2496,8350003004006,新規,0,2022-01-14,2022-01-14,合同会社桜羽凛,,合同会社,宮崎県,都城市,高崎町縄瀬４１１５番地５,,45,202,8894503,,,,,,,2022-01-14,1,,,,,オウリン,0
2498,8360001029879,新規,0,2022-01-14,2022-01-14,株式会社ＣｈｏｕＣｈｏｕ,,株式会社,沖縄県,うるま市,字宮里６５１、１Ｆ,,47,213,9042243,,,,,,,2022-01-14,1,,,,,,0
2501,8370001048069,新規,0,2022-01-14,2022-01-14,株式会社Ｑｏｉｎ,,株式会社,宮城県,仙台市青葉区,中央２丁目２番３０号,,04,101,9800021,,,,,,,2022-01-14,1,,,,,コイン,0
2502,8370003005547,新規,0,2022-01-14,2022-01-14,合同会社アリエスジャパン,,合同会社,宮城県,仙台市若林区,河原町２丁目６番１３号,,04,103,9840816,,,,,,,2022-01-14,1,,,,,アリエスジャパン,0
2503,8380001032492,新規,0,2022-01-14,2022-01-14,株式会社伊藤電気管理事務所,,株式会社,福島県,いわき市,平中神谷字立鉾１４番地の１,,07,204,9708021,,,,,,,2022-01-14,1,,,,,イトウデンキカンリジムショ,0
2509,8400001015742,新規,0,2022-01-14,2022-01-14,株式会社紫波酒造店,,株式会社,岩手県,紫波郡紫波町,宮手字泉屋敷２番地４,,03,321,0283447,,,,,,,2022-01-14,1,,,,,シワシュゾウテン,0
2512,8420001017695,新規,0,2022-01-14,2022-01-14,株式会社タワーテックイーライン,,株式会社,青森県,青森市,千富町２丁目５番１７号,,02,201,0300854,,,,,,,2022-01-14,1,,,,,タワーテックイーライン,0
2517,8420003002431,新規,0,2022-01-14,2022-01-14,合同会社ｎＺｋ,,合同会社,青森県,上北郡六戸町,小松ケ丘４丁目７７番地１１３４,,02,405,0330074,,,,,,,2022-01-14,1,,,,,ヌジーク,0
2524,8430001085725,新規,0,2022-01-14,2022-01-14,ボンズ株式会社,,株式会社,北海道,砂川市,西一条南２丁目１番４号,,01,226,0730141,,,,,,,2022-01-14,1,,,,,ボンズ,0
2525,8430001085799,新規,0,2022-01-14,2022-01-14,株式会社ＥＮＴＯＷＡ,,株式会社,北海道,札幌市豊平区,平岸五条１０丁目７番４－４１０号,,01,105,0620935,,,,,,,2022-01-14,1,,,,,エントワ,0
2526,8430003013519,新規,0,2022-01-14,2022-01-14,合同会社Ｈ－ＳＵＭＭＩＴ,,合同会社,北海道,札幌市中央区,南二条西５丁目３１番１号,,01,101,0600062,,,,,,,2022-01-14,1,,,,,エイチサミット,0
2527,8430003013527,新規,0,2022-01-14,2022-01-14,合同会社ＭＩＬＬＩＥＮ,,合同会社,北海道,札幌市北区,北七条西４丁目１番１号トーカン札幌第一キャステール６０７,,01,102,0600807,,,,,,,2022-01-14,1,,,,,ミリアン,0
2528,8440001009014,新規,0,2022-01-14,2022-01-14,株式会社道南サポート,,株式会社,北海道,茅部郡森町,字森川町２４１番地１,,01,345,0492313,,,,,,,2022-01-14,1,,,,,ドウナンサポート,0
2532,8460101007122,新規,0,2022-01-14,2022-01-14,株式会社とかちサポート,,株式会社,北海道,足寄郡足寄町,南七条１丁目４０番１,,01,647,0893717,,,,,,,2022-01-14,1,,,,,トカチサポート,0
2534,8470001018912,新規,0,2022-01-14,2022-01-14,株式会社３Ｄオルソデンタル,,株式会社,香川県,坂出市,文京町２丁目１０１９－７－３Ｆ,,37,203,7620031,,,,,,,2022-01-14,1,,,,,スリーディーオルソデンタル,0
2553,9010001223796,新規,0,2022-01-14,2022-01-14,株式会社Ｈ．Ａ．Ｃｏｎｎｅｃｔ,,株式会社,東京都,中央区,日本橋本町４丁目３番１４号,,13,102,1030023,,,,,,,2022-01-14,1,,,,,エイチエーコネクト,0
2554,9010001223821,新規,0,2022-01-14,2022-01-14,株式会社Ｌｉｎｋａｇｅ,,株式会社,東京都,中央区,銀座１丁目２２番１１号銀座大竹ビジデンス２階,,13,102,1040061,,,,,,,2022-01-14,1,,,,,リンケージ,0
2555,9010003036668,新規,0,2022-01-14,2022-01-14,コルブスＭＦ合同会社,,合同会社,東京都,千代田区,霞が関３丁目２番５号,,13,101,1000013,,,,,,,2022-01-14,1,,,,,コルブスエムエフ,0
2556,9010003036734,新規,0,2022-01-14,2022-01-14,ＳＵＭ　ＣＲＥＡＴＥ合同会社,,合同会社,東京都,中央区,銀座１丁目２２番１１号２Ｆ,,13,102,1040061,,,,,,,2022-01-14,1,,,,,サムクリエイト,0
2567,9010401164979,新規,0,2022-01-14,2022-01-14,ＣＨＩＬＤ株式会社,,株式会社,東京都,港区,南青山２丁目２番１５号,,13,103,1070062,,,,,,,2022-01-14,1,,,,,チヤイルド,0
2571,9010403026905,新規,0,2022-01-14,2022-01-14,合同会社ツァイトガイスト・インターナショナル,,合同会社,東京都,港区,白金台１丁目１番２１－１１０号,,13,103,1080071,,,,,,,2022-01-14,1,,,,,ツァイトガイストインターナショナル,0
2572,9010405020591,新規,0,2022-01-14,2022-01-14,ＵＩ　Ｋｏｎａｎ　Ｋａｎｓａｉ一般社団法人,,その他の設立登記法人,東京都,港区,元赤坂１丁目１番７号,,13,103,1070051,,,,,,,2022-01-14,1,,,,,ユーアイコナンカンサイ,0
2573,9010501048297,新規,0,2022-01-14,2022-01-14,株式会社ピーナレッジマネジメント,,株式会社,東京都,台東区,上野２丁目１２番１８号池之端ヒロハイツ２階,,13,106,1100005,,,,,,,2022-01-14,1,,,,,ピーナレッジマネジメント,0
2574,9010501048322,新規,0,2022-01-14,2022-01-14,株式会社Ａｉｌｅ,,株式会社,東京都,台東区,東上野３丁目１４－１２，３０３,,13,106,1100015,,,,,,,2022-01-14,1,,,,,エール,0
2578,9010601060499,新規,0,2022-01-14,2022-01-14,ＫＩＲＩＮ　ＵＮＩＶＥＲＳＥ株式会社,,株式会社,東京都,墨田区,向島３丁目２０番６号,,13,107,1310033,,,,,,,2022-01-14,1,,,,,キリンユニバース,0
2579,9010601060516,新規,0,2022-01-14,2022-01-14,ＧＲＥＥＮ株式会社,,株式会社,東京都,墨田区,緑２丁目１９番９号,,13,107,1300021,,,,,,,2022-01-14,1,,,,,グリーン,0
2580,9010601060524,新規,0,2022-01-14,2022-01-14,株式会社テレナ,,株式会社,東京都,墨田区,立花４丁目８－１０ＤＯＭＡ＋２Ｂ,,13,107,1310043,,,,,,,2022-01-14,1,,,,,テレナ,0
2582,9010603009346,新規,0,2022-01-14,2022-01-14,大澤コンサルティング合同会社,,合同会社,東京都,墨田区,亀沢４丁目２４番４号小宮ビル１０１号,,13,107,1300014,,,,,,,2022-01-14,1,,,,,オオサワコンサルティング,0
2586,9010705003305,新規,0,2022-01-14,2022-01-14,一般社団法人日本未来創造型建設産業分野ＩＣＴ基盤整備振興機構,,その他の設立登記法人,東京都,品川区,東五反田１丁目１０番４号,,13,109,1410022,,,,,,,2022-01-14,1,,,,,ニホンミライソウゾウガタケンセツサンギョウブンヤアイシーティキバンセイビシンコウキコウ,0
2595,9010901050159,新規,0,2022-01-14,2022-01-14,株式会社ＧＢ,,株式会社,東京都,世田谷区,等々力４丁目５番９号キラクプレイス等々力５０３号室,,13,112,1580082,,,,,,,2022-01-14,1,,,,,ジービー,0
2596,9010903007074,新規,0,2022-01-14,2022-01-14,合同会社長谷荘,,合同会社,東京都,世田谷区,北烏山８丁目３１－１５泉山ハイツ２０３,,13,112,1570061,,,,,,,2022-01-14,1,,,,,ナガタニソウ,0
2598,9011001144909,新規,0,2022-01-14,2022-01-14,株式会社ＣＲＥＥＤ　ＰＲＯＤＵＣＴＳ,,株式会社,東京都,渋谷区,千駄ヶ谷５丁目２１番８号代々木第１０下田ビル１０Ｆ,,13,113,1510051,,,,,,,2022-01-14,1,,,,,クリードプロダクツ,0
2599,9011001144982,新規,0,2022-01-14,2022-01-14,株式会社ＣＡＭＰＦＩＲＥ　ＥＮｊｉＮＥ,,株式会社,東京都,渋谷区,恵比寿４丁目２０番３号恵比寿ガーデンプレイスタワー８階,,13,113,1500013,,,,,,,2022-01-14,1,,,,,キャンプファイヤーエンジン,0
2600,9011001145048,新規,0,2022-01-14,2022-01-14,株式会社Ｎｅｗ　Ｓａｎｋｏ　Ａｄｖａｎｃｅ,,株式会社,東京都,渋谷区,桜丘町２０番１号渋谷インフォスタワー１０Ｆ,,13,113,1500031,,,,,,,2022-01-14,1,,,,,ニューサンコーアドバンス,0
2601,9011001145056,新規,0,2022-01-14,2022-01-14,ラ・グラース株式会社,,株式会社,東京都,渋谷区,神宮前４丁目１８番９号ボヌール表参道３Ｆ,,13,113,1500001,,,,,,,2022-01-14,1,,,,,ラグラース,0
2602,9011001145064,新規,0,2022-01-14,2022-01-14,株式会社シンギュラーグループ,,株式会社,東京都,渋谷区,恵比寿南１丁目１番１号８Ｆ,,13,113,1500022,,,,,,,2022-01-14,1,,,,,シンギュラーグループ,0
2604,9011003013987,新規,0,2022-01-14,2022-01-14,合同会社マーベルマーズ,,合同会社,東京都,目黒区,三田２丁目３番２１号,,13,110,1530062,,,,,,,2022-01-14,1,,,,,マーベルマーズ,0
2608,9011101097478,新規,0,2022-01-14,2022-01-14,シューズランドリー株式会社,,株式会社,東京都,新宿区,西新宿６丁目２０番７－２６１５号,,13,104,1600023,,,,,,,2022-01-14,1,,,,,シューズランドリー,0
2609,9011101097503,新規,0,2022-01-14,2022-01-14,株式会社Ｐａｌｅｔｔｅ,,株式会社,東京都,新宿区,西新宿３丁目３番１３号・西新宿水間ビル６階,,13,104,1600023,,,,,,,2022-01-14,1,,,,,パレット,0
2610,9011101097511,新規,0,2022-01-14,2022-01-14,株式会社Ｃｒｅｍｏ,,株式会社,東京都,新宿区,西新宿３丁目３番１３号西新宿水間ビル６階,,13,104,1600023,,,,,,,2022-01-14,1,,,,,クレモ,0
2612,9011103011346,新規,0,2022-01-14,2022-01-14,合同会社Ｓｕｎｓｈｉｎｅ　Ｈｏｐｅ,,合同会社,東京都,新宿区,西新宿３丁目３番１３号西新宿水間ビル６階,,13,104,1600023,,,,,,,2022-01-14,1,,,,,サンシャインホープ,0
2613,9011103011370,新規,0,2022-01-14,2022-01-14,ＢＩＢＩ．ＫＯＪＩＭＡ合同会社,,合同会社,東京都,新宿区,西新宿６丁目１５番１ー２１０３号,,13,104,1600023,,,,,,,2022-01-14,1,,,,,ビビットコジマ,0
2614,9011301027474,新規,0,2022-01-14,2022-01-14,株式会社杉並セレモニーサービス,,株式会社,東京都,杉並区,和泉４丁目４２番２９－２０１号,,13,115,1680063,,,,,,,2022-01-14,1,,,,,スギナミセレモニーサービス,0
2615,9011303004273,新規,0,2022-01-14,2022-01-14,ケーエムブリッジ合同会社,,合同会社,東京都,杉並区,下高井戸４丁目４１番１２号,,13,115,1680073,,,,,,,2022-01-14,1,,,,,ケーエムブリッジ,0
2620,9011603003495,新規,0,2022-01-14,2022-01-14,イノベーティブアセット合同会社,,合同会社,東京都,練馬区,石神井台７丁目２２番２２－３１０号,,13,120,1770045,,,,,,,2022-01-14,1,,,,,イノベーティブアセット,0
2623,9012403005194,新規,0,2022-01-14,2022-01-14,合同会社裕久,,合同会社,東京都,調布市,染地１丁目１４番３５号,,13,208,1820023,,,,,,,2022-01-14,1,,,,,ユウキュウ,0
2624,9012701016876,新規,0,2022-01-14,2022-01-14,マンジュウヤ株式会社,,株式会社,東京都,小平市,上水本町１丁目３番２５号,,13,211,1870022,,,,,,,2022-01-14,1,,,,,マンジュウヤ,0
2625,9012703002387,新規,0,2022-01-14,2022-01-14,アールビルド合同会社,,合同会社,東京都,西東京市,南町１丁目１５番１０号,,13,229,1880012,,,,,,,2022-01-14,1,,,,,アールビルド,0
2626,9012803002675,新規,0,2022-01-14,2022-01-14,小澤アセットマネジメント合同会社,,合同会社,東京都,国立市,西３丁目７番地の７２,,13,215,1860005,,,,,,,2022-01-14,1,,,,,オザワアセットマネジメント,0
2627,9013103001104,新規,0,2022-01-14,2022-01-14,合同会社ｋｏｏｂａｌ,,合同会社,東京都,福生市,志茂１１５－３０６,,13,218,1970023,,,,,,,2022-01-14,1,,,,,クウバル,0
2645,9020001144711,新規,0,2022-01-14,2022-01-14,株式会社ＰＥＲＦＥＣＴＩＯＮ,,株式会社,神奈川県,横浜市港南区,日野南４丁目３２番１号－３号室,,14,111,2340055,,,,,,,2022-01-14,1,,,,,ペルフェクション,0
2646,9020001144744,新規,0,2022-01-14,2022-01-14,株式会社ランプシー,,株式会社,神奈川県,横浜市戸塚区,名瀬町３１２８番地１５,,14,110,2450051,,,,,,,2022-01-14,1,,,,,ランプシー,0
2647,9020001144752,新規,0,2022-01-14,2022-01-14,株式会社ｅｍｍ．ヘルスデザイン,,株式会社,神奈川県,横浜市緑区,東本郷５丁目７番１４号,,14,113,2260002,,,,,,,2022-01-14,1,,,,,イーエムエムヘルスデザイン,0
2648,9020001144760,新規,0,2022-01-14,2022-01-14,株式会社Ｅ－ＴＡＳ,,株式会社,神奈川県,川崎市川崎区,小田６丁目１６番７－６０９号,,14,131,2100846,,,,,,,2022-01-14,1,,,,,イータス,0
2649,9020001144769,新規,0,2022-01-14,2022-01-14,ＲＯＳＳＯ　ＣＯＲＳＡ株式会社,,株式会社,神奈川県,横浜市緑区,鴨居４丁目５２－１５,,14,113,2260003,,,,,,,2022-01-14,1,,,,,ロッソコルサ,0
2650,9020001144777,新規,0,2022-01-14,2022-01-14,株式会社佐々木工業,,株式会社,神奈川県,横浜市戸塚区,深谷町１４１番地４,,14,110,2450067,,,,,,,2022-01-14,1,,,,,ササキコウギョウ,0
2651,9020001144793,新規,0,2022-01-14,2022-01-14,株式会社エフェクト,,株式会社,神奈川県,横浜市泉区,岡津町２５５９番地２,,14,116,2450003,,,,,,,2022-01-14,1,,,,,エフェクト,0
2654,9020003021116,新規,0,2022-01-14,2022-01-14,合同会社ＤＯＧＴＩＭＥ,,合同会社,神奈川県,横浜市都筑区,勝田南２丁目１９番地６号清健ハイツ１０２号室,,14,118,2240036,,,,,,,2022-01-14,1,,,,,ドッグタイム,0
2660,9021001074923,新規,0,2022-01-14,2022-01-14,株式会社ｋｉｎｓｅｎ,,株式会社,神奈川県,逗子市,久木４丁目１３番１７号,,14,208,2490001,,,,,,,2022-01-14,1,,,,,キンセン,0
2661,9021001074956,新規,0,2022-01-14,2022-01-14,坊主の頭株式会社,,株式会社,神奈川県,小田原市,酒匂４丁目１０番１－８０４号ダイアパレス西湘南,,14,206,2560816,,,,,,,2022-01-14,1,,,,,ボウズノアタマ,0
2664,9021003011296,新規,0,2022-01-14,2022-01-14,Ｔ‐ｏｎｅ合同会社,,合同会社,神奈川県,藤沢市,遠藤２０１８番地１,,14,205,2520816,,,,,,,2022-01-14,1,,,,,ティーワン,0
2665,9021005012417,新規,0,2022-01-14,2022-01-14,一般社団法人髪育ＪＡＰＡＮ協会,,その他の設立登記法人,神奈川県,鎌倉市,小町１丁目５番２３号３Ｆ,,14,204,2480006,,,,,,,2022-01-14,1,,,,,カミイクジャパンキョウカイ,0
2675,9030001146277,新規,0,2022-01-14,2022-01-14,株式会社ライブリック不動産,,株式会社,埼玉県,越谷市,越ヶ谷本町５番２４号,,11,222,3430818,,,,,,,2022-01-14,1,,,,,ライブリックフドウサン,0
2676,9030001146285,新規,0,2022-01-14,2022-01-14,ＳＵＮ　ＢＲＩＧＨＴ株式会社,,株式会社,埼玉県,さいたま市南区,関１丁目９番１２号栄ハイツ２０１,,11,108,3360038,,,,,,,2022-01-14,1,,,,,サンブライト,0
2677,9030001146319,新規,0,2022-01-14,2022-01-14,クロスチャート株式会社,,株式会社,埼玉県,さいたま市南区,大字太田窪２１７０番地２９,,11,108,3360015,,,,,,,2022-01-14,1,,,,,クロスチャート,0
2678,9030001146327,新規,0,2022-01-14,2022-01-14,コペンハーゲンズデザイン株式会社,,株式会社,埼玉県,さいたま市浦和区,高砂２丁目１４番１７号,,11,107,3300063,,,,,,,2022-01-14,1,,,,,コペンハーゲンズデザイン,0
2679,9030001146343,新規,0,2022-01-14,2022-01-14,株式会社ネジヤ,,株式会社,埼玉県,幸手市,大字上吉羽２１００番地９２,,11,240,3400121,,,,,,,2022-01-14,1,,,,,ネジヤ,0
2684,9030003018648,新規,0,2022-01-14,2022-01-14,合同会社アシスト２１,,合同会社,埼玉県,越谷市,大成町８丁目２６２７番地５号,,11,222,3430825,,,,,,,2022-01-14,1,,,,,アシストニジュウイチ,0
2685,9030003018656,新規,0,2022-01-14,2022-01-14,合同会社Ｙ・Ｒ・Ｋ,,合同会社,埼玉県,川越市,大字久下戸３３７３番地２,,11,201,3500011,,,,,,,2022-01-14,1,,,,,ワイアールケイ,0
2686,9030005020692,新規,0,2022-01-14,2022-01-14,一般社団法人たねまき,,その他の設立登記法人,埼玉県,さいたま市大宮区,桜木町２丁目３番地大宮マルイ７階,,11,103,3300854,,,,,,,2022-01-14,1,,,,,タネマキ,0
2691,9040001121774,新規,0,2022-01-14,2022-01-14,株式会社Ｔａｕｒｏｓ　Ｊａｐａｎ,,株式会社,千葉県,柏市,藤ケ谷１１７３番地１,,12,217,2770931,,,,,,,2022-01-14,1,,,,,タウロスジャパン,0
2692,9040001121799,新規,0,2022-01-14,2022-01-14,株式会社長嶺工務店,,株式会社,千葉県,白井市,根１３６７番地の１,,12,232,2701431,,,,,,,2022-01-14,1,,,,,ナガミネコウムテン,0
2694,9040003019265,新規,0,2022-01-14,2022-01-14,ＨＴ　ＪＡＰＡＮ合同会社,,合同会社,千葉県,船橋市,前原西１丁目２２番４号,,12,204,2740825,,,,,,,2022-01-14,1,,,,,エイチティジャパン,0
2695,9040003019281,新規,0,2022-01-14,2022-01-14,ＯＴＯＦＩＮＥ合同会社,,合同会社,千葉県,千葉市中央区,富士見２丁目７番９号富士見ビル６０９号,,12,101,2600015,,,,,,,2022-01-14,1,,,,,オトファイン,0
2696,9040005021483,新規,0,2022-01-14,2022-01-14,税理士法人井上事務所,,その他の設立登記法人,千葉県,柏市,根戸４０１番地８,,12,217,2770831,,,,,,,2022-01-14,1,,,,,イノウエジムショ,0
2697,9050001050460,新規,0,2022-01-14,2022-01-14,株式会社岩瀬事務所,,株式会社,茨城県,筑西市,直井１１６１番地２,,08,227,3080803,,,,,,,2022-01-14,1,,,,,イワセジムショ,0
2699,9050005012993,新規,0,2022-01-14,2022-01-14,一般財団法人ＫＡＷＡＳＡＫＩ　ＫＩＤＳ基金,,その他の設立登記法人,茨城県,ひたちなか市,勝田中央５番１５号,,08,221,3120045,,,,,,,2022-01-14,1,,,,,カワサキキッズキキン,0
2702,9060001034470,新規,0,2022-01-14,2022-01-14,株式会社とちまるファーム,,株式会社,栃木県,小山市,大字乙女４４８番地,,09,208,3290214,,,,,,,2022-01-14,1,,,,,トチマルファーム,0
2703,9060001034487,新規,0,2022-01-14,2022-01-14,御月商事株式会社,,株式会社,栃木県,鹿沼市,西茂呂３丁目２７番地１０,,09,205,3220029,,,,,,,2022-01-14,1,,,,,ミヅキショウジ,0
2705,9070001038826,新規,0,2022-01-14,2022-01-14,株式会社ＫＳセルフラボ,,株式会社,群馬県,太田市,龍舞町２８０７番地１,,10,205,3730806,,,,,,,2022-01-14,1,,,,,ケーエスセルフラボ,0
2711,9090003002027,新規,0,2022-01-14,2022-01-14,合同会社アイリス,,合同会社,山梨県,甲府市,丸の内３丁目２９－１０,,19,201,4000031,,,,,,,2022-01-14,1,,,,,アイリス,0
2713,9100003006364,新規,0,2022-01-14,2022-01-14,ＣＯＲ　Ｉｎｖｅｓｔｍｅｎｔ＆Ｃｏｎｓｕｌｔｉｎｇ合同会社,,合同会社,長野県,北佐久郡御代田町,大字御代田４１０１番地３０,,20,323,3890206,,,,,,,2022-01-14,1,,,,,シーオーアールインベストメントアンドコンサルティング,0
2736,9120001243040,新規,0,2022-01-14,2022-01-14,株式会社２ｎｄ　Ｓｔａｇｅ,,株式会社,大阪府,大阪市北区,西天満４丁目１番２号,,27,127,5300047,,,,,,,2022-01-14,1,,,,,セカンドステージ,0
2737,9120001243081,新規,0,2022-01-14,2022-01-14,株式会社２０ＳＳ,,株式会社,大阪府,大阪市西区,南堀江１丁目２１番１６号ＲＥ００１－３０５号室,,27,106,5500015,,,,,,,2022-01-14,1,,,,,トゥーオーエスエス,0
2738,9120001243107,新規,0,2022-01-14,2022-01-14,株式会社響道,,株式会社,大阪府,枚方市,岡本町７番１号,,27,210,5730031,,,,,,,2022-01-14,1,,,,,キョウドウ,0
2739,9120001243180,新規,0,2022-01-14,2022-01-14,アブクリエイト株式会社,,株式会社,大阪府,大阪市旭区,清水３丁目２９番１２号,,27,117,5350021,,,,,,,2022-01-14,1,,,,,アブクリエイト,0
2742,9120005022696,新規,0,2022-01-14,2022-01-14,一般社団法人アトラス福祉会,,その他の設立登記法人,大阪府,大阪市西区,南堀江３丁目６番１号西大阪ビルディング３０１号,,27,106,5500015,,,,,,,2022-01-14,1,,,,,アトラスフクシカイ,0
2745,9120101064923,新規,0,2022-01-14,2022-01-14,株式会社Ｙ’Ｓコーポレーション,,株式会社,大阪府,泉北郡忠岡町,忠岡東１丁目２２番１５号,,27,341,5950805,,,,,,,2022-01-14,1,,,,,ワイズコーポレーション,0
2746,9120101064931,新規,0,2022-01-14,2022-01-14,株式会社ＬＩＣ,,株式会社,大阪府,岸和田市,尾生町５２０９番地の７上松上住宅２－１９,,27,202,5960816,,,,,,,2022-01-14,1,,,,,エルアイシー,0
2748,9120901045453,新規,0,2022-01-14,2022-01-14,株式会社ＡＬＡＴ,,株式会社,大阪府,茨木市,松ケ本町２番３０号,,27,211,5670033,,,,,,,2022-01-14,1,,,,,アラット,0
2749,9120903003995,新規,0,2022-01-14,2022-01-14,合同会社ＹМ＆Ｃｏ．,,合同会社,大阪府,高槻市,塚原１丁目７番９－３０２号,,27,207,5691046,,,,,,,2022-01-14,1,,,,,ワイエムアンドカンパニー,0
2751,9130001070921,新規,0,2022-01-14,2022-01-14,ＢＲシーポイントネクスト株式会社,,株式会社,京都府,京都市下京区,中堂寺粟田町９３ＫＲＰ４号館,,26,106,6008815,,,,,,,2022-01-14,1,,,,,ビーアールシーポイントネクスト,0
2757,9140001124486,新規,0,2022-01-14,2022-01-14,株式会社タクト,,株式会社,兵庫県,明石市,魚住町西岡２１２１番地の１０,,28,203,6740084,,,,,,,2022-01-14,1,,,,,タクト,0
2758,9140001124536,新規,0,2022-01-14,2022-01-14,株式会社ＩＮＦＩＮＩ,,株式会社,兵庫県,明石市,大久保町高丘３丁目６番地の７,,28,203,6740057,,,,,,,2022-01-14,1,,,,,アンフィニ,0
2759,9140001124585,新規,0,2022-01-14,2022-01-14,ｐｉｏｎｕｎｎａｌ株式会社,,株式会社,兵庫県,神戸市灘区,篠原北町３丁目１４番１２－６０２号,,28,102,6570068,,,,,,,2022-01-14,1,,,,,ピオヌンナル,0
2762,9150001025246,新規,0,2022-01-14,2022-01-14,株式会社喜峰,,株式会社,奈良県,天理市,長柄町８５８番地２,,29,204,6320062,,,,,,,2022-01-14,1,,,,,キボウ,0
2763,9150003002598,新規,0,2022-01-14,2022-01-14,ｏｈａｎａ合同会社,,合同会社,奈良県,奈良市,大宮町３丁目１番２４－８１２号,,29,201,6308115,,,,,,,2022-01-14,1,,,,,オハナ,0
2768,9170001016937,新規,0,2022-01-14,2022-01-14,株式会社ＴＲＵＳＴ,,株式会社,和歌山県,田辺市,稲成町５６番地の１１,,30,206,6460051,,,,,,,2022-01-14,1,,,,,トラスト,0
2778,9180001149406,新規,0,2022-01-14,2022-01-14,株式会社Ｍ’ｓコーポレーション,,株式会社,愛知県,一宮市,馬見塚７４２番地,,23,203,4910874,,,,,,,2022-01-14,1,,,,,エムズコーポレーション,0
2779,9180001149463,新規,0,2022-01-14,2022-01-14,株式会社レビュー,,株式会社,愛知県,名古屋市中区,栄５丁目２６－３９ＧＳ栄ビル３Ｆ,,23,106,4600008,,,,,,,2022-01-14,1,,,,,レビュー,0
2780,9180001149546,新規,0,2022-01-14,2022-01-14,ＺＯＫＺＩＮ株式会社,,株式会社,愛知県,名古屋市西区,城西３丁目１０番２１号サンハイツ城西４０１,,23,104,4510031,,,,,,,2022-01-14,1,,,,,ゾクジン,0
2781,9180001149562,新規,0,2022-01-14,2022-01-14,株式会社アドバンスコーポレーション,,株式会社,愛知県,東海市,名和町天王前３３番地の１,,23,222,4760002,,,,,,,2022-01-14,1,,,,,アドバンスコーポレーション,0
2782,9180001149579,新規,0,2022-01-14,2022-01-14,株式会社内田塗工,,株式会社,愛知県,名古屋市緑区,野末町２０７番地,,23,114,4580915,,,,,,,2022-01-14,1,,,,,ウチダトコウ,0
2785,9180003023369,新規,0,2022-01-14,2022-01-14,合同会社ＦＩＲＳＴ,,合同会社,愛知県,西春日井郡豊山町,大字青山字六和１２７番地２,,23,342,4800201,,,,,,,2022-01-14,1,,,,,ファースト,0
2789,9180301035818,新規,0,2022-01-14,2022-01-14,株式会社ＥＮＴＩＲＯＯＭ,,株式会社,愛知県,豊橋市,萱町６０番地（１００２）,,23,201,4400896,,,,,,,2022-01-14,1,,,,,エンティルーム,0
2791,9190001029037,新規,0,2022-01-14,2022-01-14,ｆｅｌｌｏｗ株式会社,,株式会社,三重県,伊賀市,畑村１８６番地,,24,216,5181408,,,,,,,2022-01-14,1,,,,,フェロウ,0
2793,9190003003873,新規,0,2022-01-14,2022-01-14,合同会社Ｏｋｕｙａｍａ　Ｃｏｎｄｙ,,合同会社,三重県,鈴鹿市,小田町９９８番地１０７,,24,207,5130007,,,,,,,2022-01-14,1,,,,,オクヤマコンディ,0
2798,9200001039653,新規,0,2022-01-14,2022-01-14,株式会社ＬＥＧＡＴＯ,,株式会社,岐阜県,飛騨市,古川町黒内５３１番地３３,,21,217,5094275,,,,,,,2022-01-14,1,,,,,レガート,0
2805,9220001024604,新規,0,2022-01-14,2022-01-14,株式会社サンモール,,株式会社,石川県,金沢市,大友１丁目６３番地,,17,201,9208205,,,,,,,2022-01-14,1,,,,,サンモール,0
2806,9220001024645,新規,0,2022-01-14,2022-01-14,株式会社安多興業,,株式会社,石川県,小松市,城北町５０番地,,17,203,9230013,,,,,,,2022-01-14,1,,,,,ヤスダコウギョウ,0
2807,9220003003184,新規,0,2022-01-14,2022-01-14,ＴＯＩＲＯ合同会社,,合同会社,石川県,金沢市,入江３丁目３番地２,,17,201,9218011,,,,,,,2022-01-14,1,,,,,トイロ,0
2811,9240001059210,新規,0,2022-01-14,2022-01-14,株式会社ゆまな,,株式会社,広島県,広島市西区,井口台３丁目３７番３－２０４号,,34,104,7330844,,,,,,,2022-01-14,1,,,,,ユマナ,0
2816,9250001019345,新規,0,2022-01-14,2022-01-14,株式会社Ｍｅｔｅｏｒ,,株式会社,山口県,下松市,大字西豊井１２５０番地ツインスター下松駅南グリッツァ９０３号,,35,207,7440011,,,,,,,2022-01-14,1,,,,,ミーティア,0
2817,9250001019353,新規,0,2022-01-14,2022-01-14,株式会社ヨシダキカク,,株式会社,山口県,萩市,大字江向１６５番地,,35,204,7580041,,,,,,,2022-01-14,1,,,,,ヨシダキカク,0
2820,9260001036406,新規,0,2022-01-14,2022-01-14,福澤飼料株式会社,,株式会社,岡山県,津山市,茅町８５番地１,,33,203,7080043,,,,,,,2022-01-14,1,,,,,フクザワシリョウ,0
2822,9270001008437,新規,0,2022-01-14,2022-01-14,株式会社重工舎,,株式会社,鳥取県,鳥取市,宮長１２０番地テナント１２０Ｂ－２号,,31,201,6800872,,,,,,,2022-01-14,1,,,,,ジュウコウシャ,0
2823,9290001096001,新規,0,2022-01-14,2022-01-14,株式会社ぽんぽこ,,株式会社,福岡県,大野城市,白木原１丁目１２番１３,,40,219,8160943,,,,,,,2022-01-14,1,,,,,ポンポコ,0
2824,9290001096026,新規,0,2022-01-14,2022-01-14,株式会社匠工業,,株式会社,福岡県,大牟田市,大字甘木３６７番地３,,40,202,8370905,,,,,,,2022-01-14,1,,,,,タクミコウギョウ,0
2825,9290001096034,新規,0,2022-01-14,2022-01-14,Ｋｎａｃｋ株式会社,,株式会社,福岡県,大野城市,白木原５丁目２番１号,,40,219,8160943,,,,,,,2022-01-14,1,,,,,ケーナック,0
2826,9290001096042,新規,0,2022-01-14,2022-01-14,株式会社くるりくら,,株式会社,福岡県,八女市,納楚７０７－５江栄ビル２階,,40,210,8340004,,,,,,,2022-01-14,1,,,,,クルリクラ,0
2827,9290001096083,新規,0,2022-01-14,2022-01-14,株式会社双福,,株式会社,福岡県,嘉穂郡桂川町,大字土師１９７０番地１,,40,421,8200607,,,,,,,2022-01-14,1,,,,,ソウフク,0
2829,9290005018521,新規,0,2022-01-14,2022-01-14,一般社団法人れいぱす,,その他の設立登記法人,福岡県,福岡市南区,野間２丁目５番５－１０１号,,40,134,8150041,,,,,,,2022-01-14,1,,,,,レイパス,0
2830,9290801028153,新規,0,2022-01-14,2022-01-14,株式会社クックエール,,株式会社,福岡県,直方市,大字下境２７２７－６,,40,204,8220007,,,,,,,2022-01-14,1,,,,,クックエール,0
2831,9290801028161,新規,0,2022-01-14,2022-01-14,株式会社ｎｉｋｏ,,株式会社,福岡県,北九州市小倉北区,清水４丁目３番３４－４０５号,,40,106,8030841,,,,,,,2022-01-14,1,,,,,ニコ,0
2832,9290803004029,新規,0,2022-01-14,2022-01-14,Ｋ’ｓ　ｖｉｓｉｏｎ合同会社,,合同会社,福岡県,北九州市小倉北区,浅野３丁目８番１号ＡＩＭ（アジア太平洋インポートマート）ビル６階,,40,106,8020001,,,,,,,2022-01-14,1,,,,,ケイズビジョン,0
2833,9300001012773,新規,0,2022-01-14,2022-01-14,株式会社ｎａｎａｒｏｋｕｐａｉｎ,,株式会社,佐賀県,佐賀市,唐人２丁目２番１４号,,41,201,8400813,,,,,,,2022-01-14,1,,,,,ナナロクパン,0
2834,9320001018835,新規,0,2022-01-14,2022-01-14,株式会社東昇,,株式会社,大分県,別府市,元町５番１７号,,44,202,8740944,,,,,,,2022-01-14,1,,,,,トウショウ,0
2837,9330001029360,新規,0,2022-01-14,2022-01-14,株式会社ＭＲクラウド,,株式会社,熊本県,熊本市中央区,渡鹿４丁目３番２０号,,43,101,8620970,,,,,,,2022-01-14,1,,,,,エムアールクラウド,0
2839,9330003009204,新規,0,2022-01-14,2022-01-14,合同会社ＡＧＥ,,合同会社,熊本県,熊本市東区,健軍４丁目９番１号,,43,102,8620911,,,,,,,2022-01-14,1,,,,,エージ,0
2844,9350001017520,新規,0,2022-01-14,2022-01-14,株式会社黒田建築,,株式会社,宮崎県,延岡市,山月町２丁目４７４９－５２,,45,203,8820037,,,,,,,2022-01-14,1,,,,,クロダケンチク,0
2846,9360003011727,新規,0,2022-01-14,2022-01-14,合同会社ＭＯＤＡ企画,,合同会社,沖縄県,島尻郡南風原町,字津嘉山１３８０番地１セレニティコート１階,,47,350,9011117,,,,,,,2022-01-14,1,,,,,モダキカク,0
2848,9370001048051,新規,0,2022-01-14,2022-01-14,株式会社Ｃｒｅａｔｅ　Ｋ,,株式会社,宮城県,加美郡色麻町,清水字田中北９番地,,04,444,9814101,,,,,,,2022-01-14,1,,,,,クリエイトケー,0
2849,9370003005554,新規,0,2022-01-14,2022-01-14,合同会社ｃｈａｂｉ,,合同会社,宮城県,仙台市太白区,西多賀１丁目４番１５－２号,,04,104,9820034,,,,,,,2022-01-14,1,,,,,チャビ,0
2864,9420001017703,新規,0,2022-01-14,2022-01-14,株式会社ＬＩＬＥ　ＨＯＵＳＥ,,株式会社,青森県,十和田市,東十一番町８番５５号,,02,206,0340013,,,,,,,2022-01-14,1,,,,,リレハウス,0
2879,9470003002112,新規,0,2022-01-14,2022-01-14,合同会社だいご,,合同会社,香川県,さぬき市,寒川町石田東甲６３９－２,,37,206,7692321,,,,,,,2022-01-14,1,,,,,ダイゴ,0
