sequenceNumber,corporateNumber,process,correct,updateDate,changeDate,name,nameImageId,kind,prefectureName,cityName,streetNumber,addressImageId,prefectureCode,cityCode,postCode,addressOutside,addressOutsideImageId,closeDate,closeCause,successorCorporateNumber,changeCause,assignmentDate,latest,enName,enPrefectureName,enCityName,enAddressOutside,furigana,hihyoji
15,1010401168731,新規,0,2022-07-29,2022-07-29,株式会社Ｕｒｕｋ,,株式会社,東京都,港区,南青山２丁目２番１５号,,13,103,1070062,,,,,,,2022-07-29,1,,,,,ウルク,0
16,1010401168814,新規,0,2022-07-29,2022-07-29,福岡企画株式会社,,株式会社,東京都,港区,赤坂６丁目７番１４－１００２号,,13,103,1070052,,,,,,,2022-07-29,1,,,,,フクオカキカク,0
21,1010403027761,新規,0,2022-07-29,2022-07-29,デイリージョイ合同会社,,合同会社,東京都,港区,南青山２丁目２番１５号,,13,103,1070062,,,,,,,2022-07-29,1,,,,,デイリージョイ,0
22,1010403028149,新規,0,2022-07-29,2022-07-29,合同会社Ｔｉａｒａ,,合同会社,東京都,港区,西麻布１丁目８番１２号ソムニアーレ西麻布１Ｆ,,13,103,1060031,,,,,,,2022-07-29,1,,,,,ティアラ,0
32,1010901051321,新規,0,2022-07-29,2022-07-29,株式会社フェニックスウイング,,株式会社,東京都,世田谷区,鎌田１丁目１９番４号－９,,13,112,1570077,,,,,,,2022-07-29,1,,,,,フェニックスウイング,0
45,1011105010337,新規,0,2022-07-29,2022-07-29,一般社団法人成果配分調査会,,その他の設立登記法人,東京都,新宿区,西新宿３丁目３番１３号西新宿水間ビル６階,,13,104,1600023,,,,,,,2022-07-29,1,,,,,セイカハイブンチョウサカイ,0
47,1011203003886,新規,0,2022-07-29,2022-07-29,Ｋアソシエイツ合同会社,,合同会社,東京都,中野区,若宮２丁目７番１１号,,13,114,1650033,,,,,,,2022-07-29,1,,,,,ケイアソシエイツ,0
60,1011801041057,新規,0,2022-07-29,2022-07-29,株式会社ＮＯＡＨ,,株式会社,東京都,足立区,花畑４丁目３９－１４山月ビル１階,,13,121,1210061,,,,,,,2022-07-29,1,,,,,ノア,0
62,1012401039474,新規,0,2022-07-29,2022-07-29,オウンウルトラ株式会社,,株式会社,東京都,狛江市,元和泉１丁目１番２号エコルマ２、２０１,,13,219,2010013,,,,,,,2022-07-29,1,,,,,オウンウルトラ,0
74,1020001147523,新規,0,2022-07-29,2022-07-29,株式会社一颯,,株式会社,神奈川県,川崎市川崎区,日進町１１番地７ニュー川崎ドミールマンション２０１,,14,131,2100024,,,,,,,2022-07-29,1,,,,,イブキ,0
81,1021003011989,新規,0,2022-07-29,2022-07-29,合同会社ＣＲＯＳ,,合同会社,神奈川県,相模原市中央区,相模原２丁目２番１５号プレジデントビル３階,,14,152,2520231,,,,,,,2022-07-29,1,,,,,クロス,0
87,1030001149394,新規,0,2022-07-29,2022-07-29,株式会社サイスラボ,,株式会社,埼玉県,さいたま市桜区,田島２丁目９番１７－６０３号,,11,106,3380837,,,,,,,2022-07-29,1,,,,,サイスラボ,0
93,1030003019876,新規,0,2022-07-29,2022-07-29,合同会社男メイド,,合同会社,埼玉県,比企郡ときがわ町,大字番匠６４１－１,,11,349,3550354,,,,,,,2022-07-29,1,,,,,ダンメイド,0
109,1040005021689,新規,0,2022-07-29,2022-07-29,一般社団法人相続すまいるプラザ,,その他の設立登記法人,千葉県,市川市,南八幡４丁目２番５号いちかわ情報プラザ２０３号,,12,203,2720023,,,,,,,2022-07-29,1,,,,,ソウゾクスマイルプラザ,0
125,1090001017703,新規,0,2022-07-29,2022-07-29,株式会社Ｍｓｔｙｌｅ,,株式会社,山梨県,甲府市,和戸町９９６番地１ルクソールＩ１０７,00127367,19,201,4000812,,,,,,,2022-07-29,1,,,,,エムスタイル,0
126,1090003002141,新規,0,2022-07-29,2022-07-29,合同会社ＲＦＣ,,合同会社,山梨県,富士吉田市,竜ケ丘３丁目７番２０号カーサ・スペラーレ２０１,,19,202,4030014,,,,,,,2022-07-29,1,,,,,アールエフシー,0
149,1120001247627,新規,0,2022-07-29,2022-07-29,アサク商事株式会社,,株式会社,大阪府,大阪市北区,大淀南２丁目２番９－１７１３号,,27,127,5310075,,,,,,,2022-07-29,1,,,,,アサクショウジ,0
150,1120001247684,新規,0,2022-07-29,2022-07-29,株式会社ＯｆｆｉｃｅＴａｋａｄａ,,株式会社,大阪府,大阪市西区,江戸堀１丁目６番１７－１９０５号,,27,106,5500002,,,,,,,2022-07-29,1,,,,,オフィスタカダ,0
151,1120001247750,新規,0,2022-07-29,2022-07-29,株式会社ハシチュウ,,株式会社,大阪府,大阪市淀川区,田川北２丁目３番３３号,,27,123,5320021,,,,,,,2022-07-29,1,,,,,ハシチュウ,0
152,1120001247767,新規,0,2022-07-29,2022-07-29,新彩株式会社,,株式会社,大阪府,大阪市西成区,天下茶屋３丁目３番４号,,27,122,5570014,,,,,,,2022-07-29,1,,,,,シンサイ,0
153,1120001247817,新規,0,2022-07-29,2022-07-29,株式会社ＦＯＸＪＯＢ,,株式会社,大阪府,大阪市西区,江戸堀１丁目２３番２１－１１０４号,,27,106,5500002,,,,,,,2022-07-29,1,,,,,フォックスジョブ,0
158,1120003022169,新規,0,2022-07-29,2022-07-29,ＪＡＣＫＹ　ＣＨＡＳＥ合同会社,,合同会社,大阪府,大阪市平野区,瓜破１丁目４－１５－１１３,,27,126,5470024,,,,,,,2022-07-29,1,,,,,ジャッキーチェイス,0
159,1120003022177,新規,0,2022-07-29,2022-07-29,合同会社Ｒ・Ｙフロアー,,合同会社,大阪府,大阪市淀川区,十八条３丁目３番１９号,,27,123,5320001,,,,,,,2022-07-29,1,,,,,アールワイフロアー,0
170,1130001072297,新規,0,2022-07-29,2022-07-29,ＳＴＡＭＡＩＺ株式会社,,株式会社,京都府,京都市左京区,下鴨水口町４２番地３,,26,103,6060843,,,,,,,2022-07-29,1,,,,,スタマイズ,0
171,1130003008084,新規,0,2022-07-29,2022-07-29,京都ホテルオペレーションズ合同会社,,合同会社,京都府,京都市中京区,西洞院通姉小路下る姉西洞院町５２４番地,,26,104,6048273,,,,,,,2022-07-29,1,,,,,キョウトホテルオペレーションズ,0
177,1140001126894,新規,0,2022-07-29,2022-07-29,株式会社ａｔ　ｗｉｌｌ,,株式会社,兵庫県,洲本市,桑間２７２番地の２,,28,205,6560014,,,,,,,2022-07-29,1,,,,,アットウィル,0
182,1150001025732,新規,0,2022-07-29,2022-07-29,株式会社ＭＵＴＵＭＩ,,株式会社,奈良県,大和郡山市,城見町２番５号,,29,203,6391012,,,,,,,2022-07-29,1,,,,,ムツミ,0
183,1150003002738,新規,0,2022-07-29,2022-07-29,明英合同会社,,合同会社,奈良県,奈良市,朝日町１丁目１６番地の２,,29,201,6310014,,,,,,,2022-07-29,1,,,,,メイエイ,0
191,1180301036476,新規,0,2022-07-29,2022-07-29,仔熊商事株式会社,,株式会社,愛知県,豊橋市,西小鷹野４丁目１１番地３,,23,201,4400013,,,,,,,2022-07-29,1,,,,,コグマショウジ,0
192,1180301036484,新規,0,2022-07-29,2022-07-29,株式会社ＱＯ‐Ｌｉｎｋｓ,,株式会社,愛知県,岡崎市,美合町字生田１７３番地,,23,202,4440804,,,,,,,2022-07-29,1,,,,,コリンクス,0
195,1180303005405,新規,0,2022-07-29,2022-07-29,ＭＩＮ合同会社,,合同会社,愛知県,豊川市,国府町上坊入４５番地の２２,,23,207,4420854,,,,,,,2022-07-29,1,,,,,エムアイエヌ,0
199,1200001040321,新規,0,2022-07-29,2022-07-29,株式会社カイプラジョブ,,株式会社,岐阜県,岐阜市,柳津町流通センター１丁目１６番地３,,21,201,5016123,,,,,,,2022-07-29,1,,,,,カイプラジョブ,0
201,1210001019026,新規,0,2022-07-29,2022-07-29,株式会社Ｌａ　Ｍａｕｖｅ,,株式会社,福井県,坂井市,春江町江留中第１６号３０番地,,18,210,9190412,,,,,,,2022-07-29,1,,,,,ラモーヴ,0
203,1220003003332,新規,0,2022-07-29,2022-07-29,合同会社エステック・パークライフ金沢三社町,,合同会社,石川県,金沢市,新神田５丁目５番地,,17,201,9218013,,,,,,,2022-07-29,1,,,,,エステックパークライフカナザワサンジャマチ,0
208,1240003005731,新規,0,2022-07-29,2022-07-29,合同会社ことほぎ,,合同会社,広島県,広島市中区,中町７番１６－１４０４号,,34,101,7300037,,,,,,,2022-07-29,1,,,,,コトホギ,0
215,1260003003997,新規,0,2022-07-29,2022-07-29,合同会社エイチ,,合同会社,岡山県,岡山市北区,伊島町３丁目５番３８号しんマンション２０５,,33,101,7000016,,,,,,,2022-07-29,1,,,,,エイチ,0
218,1270003001430,新規,0,2022-07-29,2022-07-29,ふくろう商会合同会社,,合同会社,鳥取県,米子市,両三柳４５７５番地１２,,31,202,6830853,,,,,,,2022-07-29,1,,,,,フクロウショウカイ,0
224,1290001098392,新規,0,2022-07-29,2022-07-29,株式会社ＳＶＡ,,株式会社,福岡県,筑紫野市,大字永岡９３５番５,,40,217,8180066,,,,,,,2022-07-29,1,,,,,エスブイエー,0
229,1290801028763,新規,0,2022-07-29,2022-07-29,株式会社ライフライン,,株式会社,福岡県,北九州市若松区,東小石町１６番８号,,40,103,8080017,,,,,,,2022-07-29,1,,,,,ライフライン,0
233,1320001019246,新規,0,2022-07-29,2022-07-29,Ｅａｓｔ　Ｍａｎ　Ｗｏｒｋｓ株式会社,,株式会社,大分県,佐伯市,内町２番１１号ネバーランドビル３０３,,44,205,8760845,,,,,,,2022-07-29,1,,,,,イーストマンワークス,0
262,1430001087166,新規,0,2022-07-29,2022-07-29,株式会社ＦＡＣＴ＆ＧＲＡＰＨ,,株式会社,北海道,札幌市東区,北十一条東８丁目１番３号,,01,103,0650011,,,,,,,2022-07-29,1,,,,,ファクトアンドグラフ,0
263,1430001087174,新規,0,2022-07-29,2022-07-29,株式会社タケコウ,,株式会社,北海道,札幌市白石区,本郷通１０丁目南２番１７－２０２号,,01,104,0030024,,,,,,,2022-07-29,1,,,,,タケコウ,0
264,1450001013756,新規,0,2022-07-29,2022-07-29,株式会社ＳＨＩＮＫＩ,,株式会社,北海道,旭川市,末広五条１１丁目４番１７号,,01,204,0718135,,,,,,,2022-07-29,1,,,,,シンキ,0
269,1500003002867,新規,0,2022-07-29,2022-07-29,合同会社ＵＷＡ,,合同会社,愛媛県,四国中央市,土居町土居２０８６番地１,,38,213,7990711,,,,,,,2022-07-29,1,,,,,ユーダブリューエー,0
277,2010001228323,新規,0,2022-07-29,2022-07-29,ＣＯ２削減株式会社,,株式会社,東京都,千代田区,大手町２丁目２番１号,,13,101,1000004,,,,,,,2022-07-29,1,,,,,シーオーツーサクゲン,0
278,2010003038282,新規,0,2022-07-29,2022-07-29,合同会社Ｍ＆Ａ,,合同会社,東京都,文京区,本駒込２丁目９番１号,,13,105,1130021,,,,,,,2022-07-29,1,,,,,エムアンドエー,0
279,2010003038290,新規,0,2022-07-29,2022-07-29,永代マネージメント合同会社,,合同会社,東京都,千代田区,丸の内１丁目１１番１号,,13,101,1000005,,,,,,,2022-07-29,1,,,,,エイタイマネージメント,0
280,2010005035360,新規,0,2022-07-29,2022-07-29,一般社団法人シオシオ,,その他の設立登記法人,東京都,千代田区,丸の内３丁目１番１号東京共同会計事務所内,,13,101,1000005,,,,,,,2022-07-29,1,,,,,シオシオ,0
283,2010401168598,新規,0,2022-07-29,2022-07-29,Ｒｅｐｕｂｌｉｃ　ｏｆ　Ｆｒａｎｃｅ　Ｐａｖｉｌｉｏｎ‐Ｏｓａｋａ２０２５株式会社,,株式会社,東京都,港区,南麻布４丁目１１－４４,,13,103,1060047,,,,,,,2022-07-29,1,,,,,リパブリックオブフランスパビリオンオオサカニセンニジュウゴ,0
284,2010403028115,新規,0,2022-07-29,2022-07-29,合同会社ビーチリスペクト,,合同会社,東京都,港区,赤坂４丁目８番１９号,,13,103,1070052,,,,,,,2022-07-29,1,,,,,ビーチリスペクト,0
285,2010403028148,新規,0,2022-07-29,2022-07-29,ＨＨＲ合同会社,,合同会社,東京都,港区,赤坂４丁目８番１９号赤坂フロントタウン３階,,13,103,1070052,,,,,,,2022-07-29,1,,,,,エイチエイチアール,0
288,2010601061545,新規,0,2022-07-29,2022-07-29,株式会社ＫＰＳ,,株式会社,東京都,江東区,東陽６丁目２番１３号,,13,108,1350016,,,,,,,2022-07-29,1,,,,,ケーピーエス,0
289,2010601061561,新規,0,2022-07-29,2022-07-29,株式会社ＨＡＬＨＡＬ,,株式会社,東京都,墨田区,押上１丁目１５番２号,,13,107,1310045,,,,,,,2022-07-29,1,,,,,ハルハル,0
292,2010803004244,新規,0,2022-07-29,2022-07-29,サウザンドリーフ合同会社,,合同会社,東京都,大田区,田園調布３丁目２９－１７,,13,111,1450071,,,,,,,2022-07-29,1,,,,,サウザンドリーフ,0
301,2011001148932,新規,0,2022-07-29,2022-07-29,株式会社サイクツ．,,株式会社,東京都,渋谷区,代々木１丁目４番３－３０２号,,13,113,1510053,,,,,,,2022-07-29,1,,,,,サイクツ,0
309,2011501028295,新規,0,2022-07-29,2022-07-29,株式会社ＡＰＰＲＥＣＩＡＴＥ　ＰＬＵＳ,,株式会社,東京都,荒川区,東日暮里４丁目２７番１１号プラーザ東日暮里ＩＩ１００９,00127365,13,118,1160014,,,,,,,2022-07-29,1,,,,,アプリシエイトプラス,0
317,2011701025497,新規,0,2022-07-29,2022-07-29,ＧＥＮＴＬＥＭＡＮＩＡ株式会社,,株式会社,東京都,江戸川区,清新町２丁目２番２０号,,13,123,1340087,,,,,,,2022-07-29,1,,,,,ジェントルマニア,0
324,2012701017170,新規,0,2022-07-29,2022-07-29,株式会社Ｍｓｔａ,,株式会社,東京都,西東京市,北町４丁目８－１７,,13,229,2020003,,,,,,,2022-07-29,1,,,,,エムスタ,0
327,2013301049439,新規,0,2022-07-29,2022-07-29,ＤＩＡＭＯＮＤ　ＫＩＮＧ株式会社,,株式会社,東京都,豊島区,南大塚１丁目１０番１９号,,13,116,1700005,,,,,,,2022-07-29,1,,,,,ダイアモンドキング,0
328,2013301049447,新規,0,2022-07-29,2022-07-29,涛振株式会社,,株式会社,東京都,豊島区,池袋本町２丁目２９番１６号,,13,116,1700011,,,,,,,2022-07-29,1,,,,,トウシン,0
333,2020001147489,新規,0,2022-07-29,2022-07-29,株式会社ＲＥＳＴＡＣＴ,,株式会社,神奈川県,横浜市西区,北幸１丁目１１番１号水信ビル７階,,14,103,2200004,,,,,,,2022-07-29,1,,,,,リスタクト,0
334,2020001147497,新規,0,2022-07-29,2022-07-29,株式会社オオイシ,,株式会社,神奈川県,川崎市川崎区,小島町４番４号,,14,131,2100861,,,,,,,2022-07-29,1,,,,,オオイシ,0
335,2020001147506,新規,0,2022-07-29,2022-07-29,つながる企画株式会社,,株式会社,神奈川県,横浜市青葉区,大場町３５９番地２５,,14,117,2250023,,,,,,,2022-07-29,1,,,,,ツナガルキカク,0
336,2020001147547,新規,0,2022-07-29,2022-07-29,水滴株式会社,,株式会社,神奈川県,横浜市中区,山下町１９４番地,,14,104,2310023,,,,,,,2022-07-29,1,,,,,スイテキ,0
341,2020003022161,新規,0,2022-07-29,2022-07-29,テラタプランニング合同会社,,合同会社,神奈川県,横浜市港北区,新横浜３丁目２番１号,,14,109,2220033,,,,,,,2022-07-29,1,,,,,テラタプランニング,0
354,2030001149427,新規,0,2022-07-29,2022-07-29,株式会社アセットナビ,,株式会社,埼玉県,坂戸市,関間１丁目１５番４０号,,11,239,3500215,,,,,,,2022-07-29,1,,,,,アセットナビ,0
357,2030003019842,新規,0,2022-07-29,2022-07-29,龍源合同会社,,合同会社,埼玉県,比企郡小川町,大字大塚１２７１－２,,11,343,3550328,,,,,,,2022-07-29,1,,,,,リュウゲン,0
358,2030003019875,新規,0,2022-07-29,2022-07-29,合同会社ショーテストパス,,合同会社,埼玉県,草加市,栄町３丁目４番１１号エスタシオン草加松原１００６号室,,11,221,3400011,,,,,,,2022-07-29,1,,,,,ショーテストパス,0
359,2030003019891,新規,0,2022-07-29,2022-07-29,キヤスターメンテサービス合同会社,,合同会社,埼玉県,さいたま市緑区,大字大崎２０２０番地５,,11,109,3360974,,,,,,,2022-07-29,1,,,,,キヤスターメンテサービス,0
364,2040001124478,新規,0,2022-07-29,2022-07-29,株式会社Ｂｌｅｎｄｅｒ　Ｂｒｏｓ,,株式会社,千葉県,千葉市美浜区,打瀬１丁目９番地パティオス９番街３０１号,,12,106,2610013,,,,,,,2022-07-29,1,,,,,ブレンダーブロス,0
370,2040003020510,新規,0,2022-07-29,2022-07-29,合同会社カワシマ,,合同会社,千葉県,浦安市,美浜１丁目１番１０１５号,,12,227,2790011,,,,,,,2022-07-29,1,,,,,カワシマ,0
374,2050001051465,新規,0,2022-07-29,2022-07-29,株式会社高野商店,00127356,株式会社,茨城県,東茨城郡城里町,大字下古内９３０番地の１,,08,310,3114314,,,,,,,2022-07-29,1,,,,,タカノショウテン,0
379,2050003006731,新規,0,2022-07-29,2022-07-29,合同会社ｂｒｉｄｇｅ,,合同会社,茨城県,水戸市,泉町２丁目２番３３号水戸泉町ビル７Ｆ,,08,201,3100026,,,,,,,2022-07-29,1,,,,,ブリッジ,0
386,2080003002843,新規,0,2022-07-29,2022-07-29,合同会社もあい,,合同会社,静岡県,静岡市清水区,西大曲町５－３９,,22,103,4240046,,,,,,,2022-07-29,1,,,,,モアイ,0
390,2080101023452,新規,0,2022-07-29,2022-07-29,株式会社伊豆天城農園,,株式会社,静岡県,伊豆市,柏久保４９７番地の１,,22,222,4102407,,,,,,,2022-07-29,1,,,,,イズアマギノウエン,0
392,2090001017693,新規,0,2022-07-29,2022-07-29,野外企画株式会社,,株式会社,山梨県,南都留郡山中湖村,山中字東姥ノ懐５０５番地６ファミール・ヴィラ山中湖２番館２０２号室,,19,425,4010501,,,,,,,2022-07-29,1,,,,,ヤガイキカク,0
397,2100003006643,新規,0,2022-07-29,2022-07-29,合同会社エイドリアン,,合同会社,長野県,伊那市,高遠町西高遠１６４４番地５,,20,209,3960211,,,,,,,2022-07-29,1,,,,,エイドリアン,0
416,2120001247659,新規,0,2022-07-29,2022-07-29,文紹株式会社,,株式会社,大阪府,大阪市東成区,深江北３丁目４番２１号エクラ深江橋２１２Ｂ,,27,115,5370001,,,,,,,2022-07-29,1,,,,,ブンショウ,0
417,2120001247675,新規,0,2022-07-29,2022-07-29,株式会社Ａ’ｓ,,株式会社,大阪府,大阪市中央区,伏見町３丁目１番１－３０２号,,27,128,5410044,,,,,,,2022-07-29,1,,,,,エース,0
418,2120001247709,新規,0,2022-07-29,2022-07-29,株式会社栄昇,,株式会社,大阪府,大阪市中央区,南船場２丁目７番１３－４０３号,,27,128,5420081,,,,,,,2022-07-29,1,,,,,エイショウ,0
419,2120001247733,新規,0,2022-07-29,2022-07-29,ピーコム株式会社,,株式会社,大阪府,大阪市旭区,高殿７丁目１４番１３号,,27,117,5350031,,,,,,,2022-07-29,1,,,,,ピーコム,0
420,2120001247741,新規,0,2022-07-29,2022-07-29,株式会社電気管理センター,,株式会社,大阪府,大阪市都島区,東野田町５丁目１１番２４－５０３号,,27,102,5340024,,,,,,,2022-07-29,1,,,,,デンキカンリセンター,0
421,2120001247824,新規,0,2022-07-29,2022-07-29,株式会社ジェイドワークス,,株式会社,大阪府,大阪市生野区,巽中４丁目１２番１３号,,27,116,5440013,,,,,,,2022-07-29,1,,,,,ジェイドワークス,0
430,2120003022176,新規,0,2022-07-29,2022-07-29,Ｓ＆Ｌ　Ｃｒｅａｔｉｖｅ合同会社,,合同会社,大阪府,大阪市淀川区,宮原２丁目１２番１４－１３０９号,,27,123,5320003,,,,,,,2022-07-29,1,,,,,エスアンドエルクリエイティブ,0
431,2120005023115,新規,0,2022-07-29,2022-07-29,医療法人希誠会,,その他の設立登記法人,大阪府,大阪市東淀川区,北江口１丁目７番５号,,27,114,5330002,,,,,,,2022-07-29,1,,,,,キセイカイ,0
446,2140001126869,新規,0,2022-07-29,2022-07-29,株式会社ｒａｖｗａｆｆ,,株式会社,兵庫県,川西市,日高町１０番１４－１号,,28,217,6660032,,,,,,,2022-07-29,1,,,,,ラヴァッフ,0
469,2200001040320,新規,0,2022-07-29,2022-07-29,株式会社ＰＭＹ,,株式会社,岐阜県,海津市,海津町鹿野１３８２番地１,,21,221,5030608,,,,,,,2022-07-29,1,,,,,ピーエムワイ,0
474,2210005010038,新規,0,2022-07-29,2022-07-29,一般社団法人えんまん,,その他の設立登記法人,福井県,あわら市,吉崎２丁目３０１番,,18,208,9220679,,,,,,,2022-07-29,1,,,,,エンマン,0
483,2240001060141,新規,0,2022-07-29,2022-07-29,株式会社江川商事,,株式会社,広島県,廿日市市,桜尾３丁目８番５号,,34,213,7380004,,,,,,,2022-07-29,1,,,,,エガワショウジ,0
502,2290003012763,新規,0,2022-07-29,2022-07-29,合同会社ＷＨＩＴＥＢＯＯＫＳ,,合同会社,福岡県,福岡市早良区,南庄６丁目２番３０－５０２号,,40,137,8140031,,,,,,,2022-07-29,1,,,,,ホワイトブックス,0
505,2290801028770,新規,0,2022-07-29,2022-07-29,ＨＩＭＩＫＯ　ＮＯ　ＡＴＯＲＩＥ株式会社,,株式会社,福岡県,北九州市小倉北区,室町２丁目１０番２２号菅野ビル２０３号室,,40,106,8030812,,,,,,,2022-07-29,1,,,,,ヒミコノアトリエ,0
507,2300001013019,新規,0,2022-07-29,2022-07-29,株式会社ＴＡＫＥＳ,,株式会社,佐賀県,神埼郡吉野ヶ里町,吉田３５番地３,,41,327,8420031,,,,,,,2022-07-29,1,,,,,テイクス,0
509,2310001017968,新規,0,2022-07-29,2022-07-29,株式会社Ｂｒａｖｅ,,株式会社,長崎県,長崎市,樺島町８番１８－４０１号,,42,201,8500034,,,,,,,2022-07-29,1,,,,,ブレイブ,0
511,2320003003866,新規,0,2022-07-29,2022-07-29,合同会社イーストウェイブ,,合同会社,大分県,国東市,安岐町塩屋５５４番地２０,,44,214,8730212,,,,,,,2022-07-29,1,,,,,イーストウェイブ,0
514,2330003009458,新規,0,2022-07-29,2022-07-29,合同会社Ａ‐ｓｔｙｌｅ,,合同会社,熊本県,熊本市中央区,新屋敷３丁目１番３１－１０１号,,43,101,8620975,,,,,,,2022-07-29,1,,,,,エースタイル,0
515,2340001024929,新規,0,2022-07-29,2022-07-29,株式会社森,,株式会社,鹿児島県,薩摩川内市,大小路町６３番７号,,46,215,8950076,,,,,,,2022-07-29,1,,,,,モリ,0
516,2340003003872,新規,0,2022-07-29,2022-07-29,合同会社ＯＫＵＲＯ,,合同会社,鹿児島県,肝属郡肝付町,岸良１１８４,,46,492,8931511,,,,,,,2022-07-29,1,,,,,オクロ,0
548,2430001087165,新規,0,2022-07-29,2022-07-29,歌富株式会社,,株式会社,北海道,恵庭市,島松寿町２丁目３６番地３,,01,231,0611355,,,,,,,2022-07-29,1,,,,,ウタトミ,0
554,2470001019180,新規,0,2022-07-29,2022-07-29,株式会社ポンプマン,,株式会社,香川県,高松市,国分寺町新居２８６番地１１,,37,201,7690101,,,,,,,2022-07-29,1,,,,,ポンプマン,0
573,3010003038281,新規,0,2022-07-29,2022-07-29,アストロ・セブン合同会社,,合同会社,東京都,中央区,銀座１丁目６番１１号土志田ビルディング３Ｆ,,13,102,1040061,,,,,,,2022-07-29,1,,,,,アストロセブン,0
575,3010005035319,新規,0,2022-07-29,2022-07-29,ロングラン税理士法人,,その他の設立登記法人,東京都,千代田区,外神田５丁目１番７号秋葉原５番館４階,,13,101,1010021,,,,,,,2022-07-29,1,,,,,ロングラン,0
580,3010401168696,新規,0,2022-07-29,2022-07-29,Ｄｅｃｕｓ株式会社,,株式会社,東京都,港区,白金４丁目１－６－３０１,,13,103,1080072,,,,,,,2022-07-29,1,,,,,デクス,0
581,3010401168762,新規,0,2022-07-29,2022-07-29,ナカイアンドパートナーズ株式会社,,株式会社,東京都,港区,麻布台３丁目５番３号,,13,103,1060041,,,,,,,2022-07-29,1,,,,,ナカイアンドパートナーズ,0
590,3010601061569,新規,0,2022-07-29,2022-07-29,ＭＰＳデザイン株式会社,,株式会社,東京都,江東区,東砂５丁目１６番２号,,13,108,1360074,,,,,,,2022-07-29,1,,,,,エムピーエスデザイン,0
603,3011101099686,新規,0,2022-07-29,2022-07-29,株式会社西城文化,,株式会社,東京都,新宿区,中井２丁目２番８号１０５号室,,13,104,1610035,,,,,,,2022-07-29,1,,,,,サイジョウブンカ,0
605,3011201023975,新規,0,2022-07-29,2022-07-29,株式会社ティアネクスト,,株式会社,東京都,中野区,東中野１丁目３６番６号ｉ－ＳｕｉｔｅＨｉｇａｓｈｉＮａｋａｎｏ８０５,00127358,13,114,1640003,,,,,,,2022-07-29,1,,,,,ティアネクスト,0
609,3011501028303,新規,0,2022-07-29,2022-07-29,株式会社ＵＡＴ,,株式会社,東京都,荒川区,西日暮里２丁目４９番６号サンハイツ西日暮里３０４,,13,118,1160013,,,,,,,2022-07-29,1,,,,,ユーエーティー,0
610,3011501028336,新規,0,2022-07-29,2022-07-29,株式会社ニューワーズ,,株式会社,東京都,荒川区,町屋３丁目８番１８－７０２号,,13,118,1160001,,,,,,,2022-07-29,1,,,,,ニューワーズ,0
611,3011601026132,新規,0,2022-07-29,2022-07-29,株式会社マンクンカンクン,,株式会社,東京都,練馬区,豊玉中３丁目１３番１２号,,13,120,1760013,,,,,,,2022-07-29,1,,,,,マンクンカンクン,0
612,3011601026140,新規,0,2022-07-29,2022-07-29,セイフティ・クリエイト株式会社,,株式会社,東京都,練馬区,練馬１丁目２０番８号日建練馬ビル２Ｆ,,13,120,1760001,,,,,,,2022-07-29,1,,,,,セイフティクリエイト,0
622,3012403005506,新規,0,2022-07-29,2022-07-29,合同会社ＭＡＹＡ,,合同会社,東京都,武蔵野市,吉祥寺北町３丁目２番３５号,,13,203,1800001,,,,,,,2022-07-29,1,,,,,マヤ,0
635,3020001147521,新規,0,2022-07-29,2022-07-29,ｆａｍｉｌｉａ株式会社,,株式会社,神奈川県,横浜市中区,本牧三之谷１６－２９－２０４,,14,104,2310824,,,,,,,2022-07-29,1,,,,,ファミリア,0
636,3020001147546,新規,0,2022-07-29,2022-07-29,ＤＷＹ貿易株式会社,,株式会社,神奈川県,横浜市中区,山下町１９４番地,,14,104,2310023,,,,,,,2022-07-29,1,,,,,ディダブリュワイボウエキ,0
643,3021001076611,新規,0,2022-07-29,2022-07-29,株式会社Ｍ２フロンティア,,株式会社,神奈川県,相模原市南区,上鶴間本町６丁目２３番２５号,,14,153,2520318,,,,,,,2022-07-29,1,,,,,エムツーフロンティア,0
646,3021003011987,新規,0,2022-07-29,2022-07-29,合同会社５１０,,合同会社,神奈川県,伊勢原市,桜台５丁目２番２０－４号,,14,214,2591132,,,,,,,2022-07-29,1,,,,,ファイブテン,0
654,3030003019866,新規,0,2022-07-29,2022-07-29,三和合同会社,,合同会社,埼玉県,さいたま市南区,南浦和２丁目４１番７号南浦和セントラルハイツ５０１号,,11,108,3360017,,,,,,,2022-07-29,1,,,,,サンワ,0
655,3030003019874,新規,0,2022-07-29,2022-07-29,ツインツリー合同会社,,合同会社,埼玉県,さいたま市南区,曲本５丁目６－２３,,11,108,3360033,,,,,,,2022-07-29,1,,,,,ツインツリー,0
662,3040001124428,新規,0,2022-07-29,2022-07-29,株式会社ＧＲＥＥＮ　ＣＯＷ,,株式会社,千葉県,四街道市,栗山１０５４番地１４３,,12,228,2840027,,,,,,,2022-07-29,1,,,,,グリーンカウ,0
663,3040001124452,新規,0,2022-07-29,2022-07-29,株式会社ＳＴＲ,,株式会社,千葉県,松戸市,東平賀３７０番地の１リベール北小金フォレスタ２０９号,,12,207,2700003,,,,,,,2022-07-29,1,,,,,エスティーアール,0
664,3040001124469,新規,0,2022-07-29,2022-07-29,三友景明株式会社,,株式会社,千葉県,船橋市,本町６丁目１８－１９第３山中ビル４０１号室,,12,204,2730005,,,,,,,2022-07-29,1,,,,,サンユウケイメイ,0
670,3050003006730,新規,0,2022-07-29,2022-07-29,ＭＴＤ　ＮＩＨＯＮ　ＭＯＴＯＲＳ合同会社,,合同会社,茨城県,稲敷市,伊佐津２１８２－２,,08,229,3001411,,,,,,,2022-07-29,1,,,,,エムティディニホンモータース,0
676,3080101023451,新規,0,2022-07-29,2022-07-29,株式会社アドアニモ,,株式会社,静岡県,富士宮市,源道寺町８５２番地の１,,22,207,4180074,,,,,,,2022-07-29,1,,,,,アドアニモ,0
683,3100003006642,新規,0,2022-07-29,2022-07-29,合同会社ルリ,,合同会社,長野県,岡谷市,２５３番地２５,,20,204,3940091,,,,,,,2022-07-29,1,,,,,ルリ,0
699,3120001247617,新規,0,2022-07-29,2022-07-29,燕月株式会社,,株式会社,大阪府,大阪市東淀川区,豊新５丁目６番３－２０１号,,27,114,5330014,,,,,,,2022-07-29,1,,,,,エンゲツ,0
700,3120001247633,新規,0,2022-07-29,2022-07-29,大捷智能科技株式会社,,株式会社,大阪府,大阪市東成区,東小橋１丁目１７－３１グランドハイツ東小橋５１３号室,,27,115,5370024,,,,,,,2022-07-29,1,,,,,ダイショウチノウカギ,0
701,3120001247666,新規,0,2022-07-29,2022-07-29,株式会社Ｓａｉ,,株式会社,大阪府,大阪市西区,川口２丁目３番２６－８０６号,,27,106,5500021,,,,,,,2022-07-29,1,,,,,サイ,0
702,3120001247682,新規,0,2022-07-29,2022-07-29,株式会社ＡＵＲＡ,,株式会社,大阪府,大阪市北区,曾根崎新地１丁目４番２０号桜橋ＩＭビル３Ｆ,,27,127,5300002,,,,,,,2022-07-29,1,,,,,アウラ,0
703,3120001247699,新規,0,2022-07-29,2022-07-29,Ｄｕｏｙｉ　Ｎｅｔｗｏｒｋ株式会社,,株式会社,大阪府,大阪市西区,北堀江１丁目５番２号四ツ橋新興産ビル９０３号室,,27,106,5500014,,,,,,,2022-07-29,1,,,,,ドウイネットワーク,0
704,3120001247724,新規,0,2022-07-29,2022-07-29,徳零株式会社,,株式会社,大阪府,大阪市東成区,深江北３丁目４番２１号エクラ深江橋２０３Ａ,,27,115,5370001,,,,,,,2022-07-29,1,,,,,,0
705,3120001247732,新規,0,2022-07-29,2022-07-29,株式会社ジャパンプラチナム,,株式会社,大阪府,大阪市北区,梅田２丁目５番１３号桜橋第一ビル３０４号,,27,127,5300001,,,,,,,2022-07-29,1,,,,,ジャパンプラチナム,0
706,3120001247749,新規,0,2022-07-29,2022-07-29,羽田共株式会社,,株式会社,大阪府,大阪市平野区,平野上町１丁目６番５号,,27,126,5470045,,,,,,,2022-07-29,1,,,,,ハネダキョウ,0
707,3120001247765,新規,0,2022-07-29,2022-07-29,大昂建設株式会社,,株式会社,大阪府,大阪市城東区,諏訪４丁目４番７号ミキビル２０１,,27,118,5360021,,,,,,,2022-07-29,1,,,,,ダイコウケンセツ,0
711,3120003022167,新規,0,2022-07-29,2022-07-29,ＫＥＯＮ合同会社,,合同会社,大阪府,大阪市北区,梅田１丁目１－３大阪駅前第３ビル２９階１－１－１号室,,27,127,5300001,,,,,,,2022-07-29,1,,,,,キーオン,0
712,3120003022175,新規,0,2022-07-29,2022-07-29,三口文子貿易合同会社,,合同会社,大阪府,大阪市西成区,潮路１丁目３番１８－２Ｃ,,27,122,5570052,,,,,,,2022-07-29,1,,,,,シナブンシボウエキ,0
717,3120101065984,新規,0,2022-07-29,2022-07-29,株式会社ＬＩＴＴＬＥ　ＷＩＮＧ,,株式会社,大阪府,和泉市,和気町３丁目７番１号,,27,219,5940073,,,,,,,2022-07-29,1,,,,,リトルウィング,0
724,3122003002388,新規,0,2022-07-29,2022-07-29,合同会社山本造園石材,,合同会社,大阪府,東大阪市,日下町８丁目２番３１号,,27,227,5798003,,,,,,,2022-07-29,1,,,,,ヤマモトゾウエンセキザイ,0
741,3150001025730,新規,0,2022-07-29,2022-07-29,株式会社ＮＫＧ倉庫,,株式会社,奈良県,奈良市,東九条町１１１２番地の１,,29,201,6308144,,,,,,,2022-07-29,1,,,,,エヌケージーソウコ,0
754,3180005019874,新規,0,2022-07-29,2022-07-29,特定非営利活動法人ｓｅａｇｕｌｌ,,その他の設立登記法人,愛知県,名古屋市名東区,社口２丁目４０３番地シティハウス上社ヒルズ１０５号,,23,115,4650013,,,,,,,2022-07-29,1,,,,,シーガル,0
758,3220001024964,新規,0,2022-07-29,2022-07-29,エルアンドエー株式会社,,株式会社,石川県,金沢市,小立野２丁目２７番１６号,,17,201,9200942,,,,,,,2022-07-29,1,,,,,エルアンドエー,0
762,3230001019468,新規,0,2022-07-29,2022-07-29,株式会社アウトリメッサ・マツ,,株式会社,富山県,中新川郡上市町,若杉１丁目１０２番地,,16,322,9300314,,,,,,,2022-07-29,1,,,,,アウトリメッサマツ,0
785,3290001098408,新規,0,2022-07-29,2022-07-29,株式会社ディーフォーム,,株式会社,福岡県,福岡市中央区,天神４丁目６番２８号天神ファーストビル７階,,40,133,8100001,,,,,,,2022-07-29,1,,,,,ディーフォーム,0
786,3290001098416,新規,0,2022-07-29,2022-07-29,株式会社イークラフト,,株式会社,福岡県,久留米市,東合川新町７－２２,,40,203,8390808,,,,,,,2022-07-29,1,,,,,イークラフト,0
794,3320001019244,新規,0,2022-07-29,2022-07-29,株式会社志大創建,,株式会社,大分県,大分市,大字木田１６０２－３,,44,201,8700311,,,,,,,2022-07-29,1,,,,,シダイソウケン,0
803,3370001048874,新規,0,2022-07-29,2022-07-29,株式会社エイト,,株式会社,宮城県,岩沼市,大手町４番３３号Ｖ,00127369,04,211,9892442,,,,,,,2022-07-29,1,,,,,エイト,0
828,4010001228420,新規,0,2022-07-29,2022-07-29,太郎空間設計株式会社,,株式会社,東京都,文京区,小石川２丁目２４番７号,,13,105,1120002,,,,,,,2022-07-29,1,,,,,タロウクウカンセッケイ,0
835,4010003038289,新規,0,2022-07-29,2022-07-29,水天宮プロパティー合同会社,,合同会社,東京都,千代田区,丸の内１丁目１１番１号,,13,101,1000005,,,,,,,2022-07-29,1,,,,,スイテングウプロパティー,0
841,4010401168729,新規,0,2022-07-29,2022-07-29,株式会社ササカワ,,株式会社,東京都,港区,港南４丁目６番２－２９０６号,,13,103,1080075,,,,,,,2022-07-29,1,,,,,ササカワ,0
848,4010403028170,新規,0,2022-07-29,2022-07-29,合同会社新発田バイオマス開発,,合同会社,東京都,港区,北青山３丁目２番５号ＮＨ青山ビル５階税理士法人キャシュモ内,,13,103,1070061,,,,,,,2022-07-29,1,,,,,シバタバイオマスカイハツ,0
852,4010503006670,新規,0,2022-07-29,2022-07-29,ＪＭ　ＤＥＬＩＶＥＲＹ合同会社,,合同会社,東京都,台東区,東浅草２丁目１０番１号,,13,106,1110025,,,,,,,2022-07-29,1,,,,,ジェーエムデリバリー,0
856,4010601061543,新規,0,2022-07-29,2022-07-29,株式会社Ｍｏｖｅｒｓ,,株式会社,東京都,江東区,南砂３丁目１３番９号グリーンゲート１０２,,13,108,1360076,,,,,,,2022-07-29,1,,,,,ムーバーズ,0
859,4010803004234,新規,0,2022-07-29,2022-07-29,エズヲエガク合同会社,,合同会社,東京都,大田区,田園調布５丁目３９－８－１０１,,13,111,1450071,,,,,,,2022-07-29,1,,,,,エズヲエガク,0
879,4011003015121,新規,0,2022-07-29,2022-07-29,Ｐｅｎｓｉｅｒｏ合同会社,,合同会社,東京都,渋谷区,広尾５丁目１９番６号,,13,113,1500012,,,,,,,2022-07-29,1,,,,,ペンスィエーロ,0
881,4011005009658,新規,0,2022-07-29,2022-07-29,一般社団法人日本美容医療カウンセラー協会,,その他の設立登記法人,東京都,渋谷区,東１丁目２番２０－１７０６号ラ・トゥール渋谷,,13,113,1500011,,,,,,,2022-07-29,1,,,,,ニホンビヨウイリョウカウンセラーキョウカイ,0
887,4011203003883,新規,0,2022-07-29,2022-07-29,合同会社ＧＸＣＯ,,合同会社,東京都,中野区,丸山２丁目２７番１９号,,13,114,1650021,,,,,,,2022-07-29,1,,,,,ジーエックスシーオー,0
891,4011701025487,新規,0,2022-07-29,2022-07-29,株式会社ＣｉａｎｓＳｔｅｐ,,株式会社,東京都,江戸川区,東小岩６丁目１３番９号,,13,123,1330052,,,,,,,2022-07-29,1,,,,,シアンズステップ,0
916,4020001147504,新規,0,2022-07-29,2022-07-29,株式会社エンターテインメント・スクリプト,,株式会社,神奈川県,横浜市保土ケ谷区,西久保町１８５番地雫石ハイツ１－１０１号,,14,106,2400022,,,,,,,2022-07-29,1,,,,,エンターテインメントスクリプト,0
925,4021001076602,新規,0,2022-07-29,2022-07-29,コトブキグループ株式会社,,株式会社,神奈川県,高座郡寒川町,田端１１７６番地,,14,321,2530114,,,,,,,2022-07-29,1,,,,,コトブキグループ,0
936,4030001149409,新規,0,2022-07-29,2022-07-29,株式会社スリーエス,,株式会社,埼玉県,蕨市,塚越２丁目７番２号ハナハウス１０１号,,11,223,3350002,,,,,,,2022-07-29,1,,,,,スリーエス,0
937,4030001149417,新規,0,2022-07-29,2022-07-29,佐亜利工業株式会社,,株式会社,埼玉県,川口市,上青木西３丁目３番２９号ＦｏｎｔａｎａＥａｓｔ１０１号,,11,203,3330845,,,,,,,2022-07-29,1,,,,,サアリコウギョウ,0
938,4030001149425,新規,0,2022-07-29,2022-07-29,ＷＯＲＬＤ　ＬＩＮＫＳ株式会社,,株式会社,埼玉県,さいたま市岩槻区,大字大口１７８－２,,11,110,3390013,,,,,,,2022-07-29,1,,,,,ワールドリンク,0
944,4030003019849,新規,0,2022-07-29,2022-07-29,ＡＳＩＡＮ　ＲＩＳＩＮＧ　ＳＴＡＲ合同会社,,合同会社,埼玉県,川口市,西川口３丁目３２番地１２,,11,203,3320021,,,,,,,2022-07-29,1,,,,,アジアンライジングスター,0
945,4030003019873,新規,0,2022-07-29,2022-07-29,フェアネスサポート合同会社,,合同会社,埼玉県,さいたま市南区,白幡６丁目８番１９号４０４,,11,108,3360022,,,,,,,2022-07-29,1,,,,,フェアネスサポート,0
946,4030003019881,新規,0,2022-07-29,2022-07-29,イッツタイム合同会社,,合同会社,埼玉県,蓮田市,馬込３丁目１４２番地２,,11,238,3490114,,,,,,,2022-07-29,1,,,,,イッツタイム,0
950,4040001124377,新規,0,2022-07-29,2022-07-29,株式会社ＬＩＢＥＲＴＹ　ＴＥＮＮＩＳ　ＥＤＵＣＡＴＩＯＮ,,株式会社,千葉県,船橋市,芝山２丁目５番１０－７０５号,,12,204,2740816,,,,,,,2022-07-29,1,,,,,リバティテニスデュケーション,0
964,4050003006705,新規,0,2022-07-29,2022-07-29,合同会社Ｌｅａｐ,,合同会社,茨城県,常陸太田市,大里町４０６７番地の７,,08,212,3130125,,,,,,,2022-07-29,1,,,,,リープ,0
965,4060001035127,新規,0,2022-07-29,2022-07-29,株式会社江面工業,,株式会社,栃木県,宇都宮市,宝木町２丁目２５６９番地３７,,09,201,3200061,,,,,,,2022-07-29,1,,,,,エヅラコウギョウ,0
966,4060003004170,新規,0,2022-07-29,2022-07-29,ｓｏｒａ合同会社,,合同会社,栃木県,宇都宮市,鶴田町３６４１番地４８,,09,201,3200851,,,,,,,2022-07-29,1,,,,,ソラ,0
967,4070003004566,新規,0,2022-07-29,2022-07-29,岸住宅合同会社,,合同会社,群馬県,高崎市,新保町４４４番地３,,10,202,3700018,,,,,,,2022-07-29,1,,,,,キシジュウタク,0
970,4080001025101,新規,0,2022-07-29,2022-07-29,株式会社Ｌｅｌｉｅｎ,,株式会社,静岡県,静岡市葵区,新伝馬２丁目１０番２７－３Ｊ号,,22,101,4200944,,,,,,,2022-07-29,1,,,,,ルリアン,0
1001,4120001247632,新規,0,2022-07-29,2022-07-29,Ｄｕｓｈｉ読時株式会社,,株式会社,大阪府,大阪市都島区,東野田町４丁目５－４４翠連マンション２２３号室,,27,102,5340024,,,,,,,2022-07-29,1,,,,,デュシドクジ,0
1002,4120001247707,新規,0,2022-07-29,2022-07-29,ＭＩＲＡＩファクトリー株式会社,,株式会社,大阪府,大阪市北区,西天満３丁目１番６号,,27,127,5300047,,,,,,,2022-07-29,1,,,,,ミライファクトリー,0
1003,4120001247723,新規,0,2022-07-29,2022-07-29,ＪＣＴ株式会社,,株式会社,大阪府,大阪市東成区,深江北３丁目４番２１号エクラ深江橋７０２Ａ,,27,115,5370001,,,,,,,2022-07-29,1,,,,,ジェイシーティー,0
1004,4120001247772,新規,0,2022-07-29,2022-07-29,株式会社ルピア,,株式会社,大阪府,大阪市都島区,都島本通１丁目１３番１７号,,27,102,5340021,,,,,,,2022-07-29,1,,,,,ルピア,0
1015,4120901046299,新規,0,2022-07-29,2022-07-29,ｄｕｏｂｉｋｅ株式会社,,株式会社,大阪府,池田市,畑５丁目４－１６,,27,204,5630021,,,,,,,2022-07-29,1,,,,,デュオバイク,0
1023,4130001072303,新規,0,2022-07-29,2022-07-29,株式会社藤幸,,株式会社,京都府,亀岡市,曽我部町寺広畑５１番地,,26,206,6210023,,,,,,,2022-07-29,1,,,,,フジコウ,0
1027,4140001126867,新規,0,2022-07-29,2022-07-29,株式会社フォールテック,,株式会社,兵庫県,明石市,二見町東二見２９６番地の１,,28,203,6740092,,,,,,,2022-07-29,1,,,,,フォールテック,0
1028,4140001126891,新規,0,2022-07-29,2022-07-29,タクスルコンサルティング株式会社,,株式会社,兵庫県,神戸市東灘区,住吉宮町３丁目１５番２２－９０１号,,28,101,6580053,,,,,,,2022-07-29,1,,,,,タクスルコンサルティング,0
1031,4170001017213,新規,0,2022-07-29,2022-07-29,トライアングルズ貿易株式会社,,株式会社,和歌山県,和歌山市,和歌浦中２丁目１３番１５号あしべハイツ１０１号,,30,201,6410025,,,,,,,2022-07-29,1,,,,,トライアングルズボウエキ,0
1051,4180301036481,新規,0,2022-07-29,2022-07-29,株式会社ＢＲＩＧＨＴ,,株式会社,愛知県,知立市,昭和１丁目１２番地７,,23,225,4720011,,,,,,,2022-07-29,1,,,,,ブライト,0
1062,4210001019023,新規,0,2022-07-29,2022-07-29,株式会社大進,,株式会社,福井県,三方上中郡若狭町,大鳥羽第２５号４０番地１,,18,501,9191504,,,,,,,2022-07-29,1,,,,,タイシン,0
1086,4290003012778,新規,0,2022-07-29,2022-07-29,合同会社Ｍ＆Ｉ,,合同会社,福岡県,太宰府市,坂本３丁目２２－８,,40,221,8180133,,,,,,,2022-07-29,1,,,,,エムアンドアイ,0
1094,4330001029976,新規,0,2022-07-29,2022-07-29,株式会社和工務店,,株式会社,熊本県,菊池郡大津町,大字吹田１１９７番地９,,43,403,8691218,,,,,,,2022-07-29,1,,,,,カズコウムテン,0
1096,4340001024927,新規,0,2022-07-29,2022-07-29,ブルーアイザック株式会社,,株式会社,鹿児島県,肝属郡錦江町,馬場１２１９番地,,46,490,8932303,,,,,,,2022-07-29,1,,,,,ブルーアイザック,0
1104,4370001048873,新規,0,2022-07-29,2022-07-29,株式会社ディーテック,,株式会社,宮城県,仙台市宮城野区,中野１丁目１５番地の１７,,04,102,9830013,,,,,,,2022-07-29,1,,,,,ディーテック,0
1108,4380003005252,新規,0,2022-07-29,2022-07-29,合同会社リファイン,,合同会社,福島県,福島市,栄町１－３５福島キャピタルフロント７Ｆ,,07,201,9608031,,,,,,,2022-07-29,1,,,,,リファイン,0
1116,4430001087155,新規,0,2022-07-29,2022-07-29,株式会社武信総業,,株式会社,北海道,札幌市手稲区,稲穂三条６丁目５番６号,,01,109,0060033,,,,,,,2022-07-29,1,,,,,タケノブソウギョウ,0
1117,4430001087205,新規,0,2022-07-29,2022-07-29,ＫｅＹＳエンターテインメント株式会社,,株式会社,北海道,札幌市北区,北二十四条西４丁目２－６第一鶴会館１階,,01,102,0010024,,,,,,,2022-07-29,1,,,,,キーズエンターテインメント,0
1120,4430003014140,新規,0,2022-07-29,2022-07-29,合同会社ヴァンノースプレイス,,合同会社,北海道,札幌市豊平区,美園六条７丁目１番１号,,01,105,0620006,,,,,,,2022-07-29,1,,,,,ヴァンノースプレイス,0
1121,4470001019179,新規,0,2022-07-29,2022-07-29,株式会社ＡＲＭ’Ｓ,,株式会社,香川県,三豊市,三野町下高瀬２３６９番地３,,37,208,7670032,,,,,,,2022-07-29,1,,,,,アームズ,0
1125,4480003001860,新規,0,2022-07-29,2022-07-29,合同会社エルニーニョ,,合同会社,徳島県,徳島市,北沖洲１丁目１１－８,,36,201,7700872,,,,,,,2022-07-29,1,,,,,エルニーニョ,0
1126,4490001010243,新規,0,2022-07-29,2022-07-29,ＩＺＭ株式会社,,株式会社,高知県,吾川郡いの町,天王南２丁目６番地４,,39,386,7812123,,,,,,,2022-07-29,1,,,,,イズム,0
1150,5010003038288,新規,0,2022-07-29,2022-07-29,永代プロパティー合同会社,,合同会社,東京都,千代田区,丸の内１丁目１１番１号,,13,101,1000005,,,,,,,2022-07-29,1,,,,,エイタイプロパティー,0
1165,5010401168760,新規,0,2022-07-29,2022-07-29,ＨＫＺ株式会社,,株式会社,東京都,港区,赤坂６丁目１９番４１－３０４号,,13,103,1070052,,,,,,,2022-07-29,1,,,,,エイチケーゼット,0
1166,5010401168769,新規,0,2022-07-29,2022-07-29,株式会社イー・エル・シー,,株式会社,東京都,港区,海岸３丁目７番１７－９０１号,,13,103,1080022,,,,,,,2022-07-29,1,,,,,イーエルシー,0
1167,5010401168777,新規,0,2022-07-29,2022-07-29,株式会社ＲＯＡ,,株式会社,東京都,港区,西新橋１丁目１２－３ＴＭビル３Ｆ,,13,103,1050003,,,,,,,2022-07-29,1,,,,,ロア,0
1168,5010401168802,新規,0,2022-07-29,2022-07-29,Ｌｉｌ　Ｗｏｏｄｙ’ｓ　Ｂｕｒｇｅｒｓ＆Ｓｈａｋｅｓ株式会社,,株式会社,東京都,港区,南麻布１丁目１５番５－４０１号,,13,103,1060047,,,,,,,2022-07-29,1,,,,,リルウディーズバーガーアンドシェイク,0
1174,5010601061567,新規,0,2022-07-29,2022-07-29,株式会社ｍｕｊｉｃａ,,株式会社,東京都,江東区,佐賀２丁目１番１７号,,13,108,1350031,,,,,,,2022-07-29,1,,,,,ムジカ,0
1175,5010601061575,新規,0,2022-07-29,2022-07-29,アセットマネジメント久住株式会社,,株式会社,東京都,江東区,東砂７丁目１８番４－４０１号,,13,108,1360074,,,,,,,2022-07-29,1,,,,,アセットマネジメントクスミ,0
1190,5011001148871,新規,0,2022-07-29,2022-07-29,株式会社ジャスティスアドバンス,,株式会社,東京都,渋谷区,上原１丁目３５番９号,,13,113,1510064,,,,,,,2022-07-29,1,,,,,ジャスティスアドバンス,0
1191,5011001148896,新規,0,2022-07-29,2022-07-29,株式会社麗和企画,,株式会社,東京都,目黒区,祐天寺２丁目１６番１号,,13,110,1530052,,,,,,,2022-07-29,1,,,,,レイワキカク,0
1199,5011401024441,新規,0,2022-07-29,2022-07-29,Ｆ・Ｉ・Ａ情報株式会社,,株式会社,東京都,板橋区,三園１丁目２９番１７－２０９号,,13,119,1750091,,,,,,,2022-07-29,1,,,,,エフアイエイジョウホウ,0
1202,5011501028318,新規,0,2022-07-29,2022-07-29,株式会社信達,,株式会社,東京都,北区,田端新町１丁目７－１４ビズフィールド西日暮里３０７号,,13,117,1140012,,,,,,,2022-07-29,1,,,,,シンタツ,0
1208,5012403005512,新規,0,2022-07-29,2022-07-29,伸郁合同会社,,合同会社,東京都,狛江市,東和泉３丁目９－７,,13,219,2010014,,,,,,,2022-07-29,1,,,,,シンカ,0
1215,5013301049436,新規,0,2022-07-29,2022-07-29,株式会社水月鏡花,,株式会社,東京都,豊島区,西池袋３丁目２５番８号,,13,116,1710021,,,,,,,2022-07-29,1,,,,,スイゲツキョウカ,0
1225,5020001147486,新規,0,2022-07-29,2022-07-29,株式会社栄華,,株式会社,神奈川県,横浜市西区,赤門町２丁目２６番地,,14,103,2200034,,,,,,,2022-07-29,1,,,,,エイカ,0
1226,5020001147503,新規,0,2022-07-29,2022-07-29,株式会社Ｇｒｏｗｔｈｉｎｇ,,株式会社,神奈川県,横浜市中区,尾上町４丁目５７番地,,14,104,2310015,,,,,,,2022-07-29,1,,,,,グロウシング,0
1227,5020001147511,新規,0,2022-07-29,2022-07-29,株式会社ＢＥＬＬ,,株式会社,神奈川県,横浜市神奈川区,鶴屋町３丁目３３番地の８アサヒビル３Ｆ,,14,102,2210835,,,,,,,2022-07-29,1,,,,,ベル,0
1228,5020001147528,新規,0,2022-07-29,2022-07-29,株式会社ジェイディーアール,,株式会社,神奈川県,横浜市瀬谷区,上瀬谷町２番地４４,,14,114,2460006,,,,,,,2022-07-29,1,,,,,ジェイディーアール,0
1244,5030001149416,新規,0,2022-07-29,2022-07-29,朗潤株式会社,,株式会社,埼玉県,草加市,氷川町２１０４番地１７,,11,221,3400034,,,,,,,2022-07-29,1,,,,,ランルン,0
1253,5040001124467,新規,0,2022-07-29,2022-07-29,環境アドバンス株式会社,,株式会社,千葉県,柏市,十余二２４８番地３２８,,12,217,2770872,,,,,,,2022-07-29,1,,,,,カンキョウアドバンス,0
1264,5070003004565,新規,0,2022-07-29,2022-07-29,あさひ中央トレーディング合同会社,,合同会社,群馬県,高崎市,下之城町１８番地２,,10,202,3700854,,,,,,,2022-07-29,1,,,,,アサヒチュウオウトレーディング,0
1265,5080001025100,新規,0,2022-07-29,2022-07-29,株式会社ＳＨＩＮＥ　ＯＮ,,株式会社,静岡県,静岡市葵区,伝馬町９番地の４,,22,101,4200858,,,,,,,2022-07-29,1,,,,,シャインオン,0
1297,5120001247557,新規,0,2022-07-29,2022-07-29,株式会社イキイキＨＲ,,株式会社,大阪府,大阪市北区,梅田１丁目１－３大阪駅前第３ビル２９階１－１－１号室,,27,127,5300001,,,,,,,2022-07-29,1,,,,,イキイキエイチアール,0
1298,5120001247656,新規,0,2022-07-29,2022-07-29,藤崎株式会社,,株式会社,大阪府,大阪市東成区,深江北３丁目４番２１号エクラ深江橋２１３Ｂ,,27,115,5370001,,,,,,,2022-07-29,1,,,,,フジサキ,0
1299,5120001247697,新規,0,2022-07-29,2022-07-29,福一株式会社,,株式会社,大阪府,大阪市東成区,深江北３丁目４番２１号エクラ深江橋５０８Ｂ,,27,115,5370001,,,,,,,2022-07-29,1,,,,,フクイチ,0
1300,5120001247722,新規,0,2022-07-29,2022-07-29,大道株式会社,,株式会社,大阪府,大阪市住之江区,泉１丁目２番５１号雄風商事泉ビル２０１号,,27,125,5590023,,,,,,,2022-07-29,1,,,,,ダイドウ,0
1306,5120901046298,新規,0,2022-07-29,2022-07-29,株式会社ＡＤＶＹ,,株式会社,大阪府,箕面市,白島３丁目１１番８号,,27,220,5620012,,,,,,,2022-07-29,1,,,,,アドビー,0
1310,5122001036106,新規,0,2022-07-29,2022-07-29,三宝株式会社,,株式会社,大阪府,八尾市,大竹５丁目３９,,27,212,5810854,,,,,,,2022-07-29,1,,,,,サンボウ,0
1311,5122001036114,新規,0,2022-07-29,2022-07-29,株式会社エステートはた楽,,株式会社,大阪府,東大阪市,桜町４番８号,,27,227,5798047,,,,,,,2022-07-29,1,,,,,エステートハタラク,0
1316,5130001072302,新規,0,2022-07-29,2022-07-29,エクスガーデンナビ株式会社,,株式会社,京都府,京都市下京区,下数珠屋町通東洞院東入西玉水町２８５番地シャーメゾン京花４０２号,,26,106,6000000,,,,,,,2022-07-29,1,,,,,エクスガーデンナビ,0
1319,5130003008106,新規,0,2022-07-29,2022-07-29,ウントレーベン合同会社,,合同会社,京都府,京都市右京区,西院日照町９２番地１小笹マンション３０１号,,26,108,6150065,,,,,,,2022-07-29,1,,,,,ウントレーベン,0
1326,5140001126825,新規,0,2022-07-29,2022-07-29,ＭＫＫ　Ｔｒａｄｉｎｇ株式会社,,株式会社,兵庫県,神戸市東灘区,岡本９丁目９番７号,,28,101,6580072,,,,,,,2022-07-29,1,,,,,エムケイケイトレーディング,0
1327,5140001126866,新規,0,2022-07-29,2022-07-29,株式会社エムアールソイル,,株式会社,兵庫県,西宮市,東山台２丁目２６番地２,,28,204,6691133,,,,,,,2022-07-29,1,,,,,エムアールソイル,0
1329,5140003017972,新規,0,2022-07-29,2022-07-29,ｋ・ｔ・ｃｏｍ合同会社,,合同会社,兵庫県,神戸市中央区,元町通１丁目７－２ニューもとビル６Ｆ,,28,110,6500022,,,,,,,2022-07-29,1,,,,,ケティコム,0
1350,5200001040318,新規,0,2022-07-29,2022-07-29,株式会社日虹貿易,,株式会社,岐阜県,瑞穂市,祖父江１１７,,21,216,5010225,,,,,,,2022-07-29,1,,,,,ニッコウボウエキ,0
1351,5200001040326,新規,0,2022-07-29,2022-07-29,株式会社ＩＮＩＴ,,株式会社,岐阜県,可児市,川合７７２番地３,,21,214,5090201,,,,,,,2022-07-29,1,,,,,イニット,0
1369,5290001098372,新規,0,2022-07-29,2022-07-29,株式会社ＤＩＥＵ‐ＴＨＯＭ,,株式会社,福岡県,福岡市博多区,那珂６丁目１番３９号エルグランド大産３０５,,40,132,8120893,,,,,,,2022-07-29,1,,,,,ジュウトム,0
1370,5290001098406,新規,0,2022-07-29,2022-07-29,株式会社スリーアローズネットワークス,,株式会社,福岡県,糟屋郡須惠町,大字旅石８８７－７オフィスパレア須恵ＩＩＩＢ棟２号室,00127359,40,344,8112221,,,,,,,2022-07-29,1,,,,,スリーアローズネットワークス,0
1387,5330003009463,新規,0,2022-07-29,2022-07-29,合同会社ＡＬＩ　ＴＲＡＤＩＮＧ,,合同会社,熊本県,熊本市中央区,渡鹿６丁目１番６２号１階１０５号室,,43,101,8620970,,,,,,,2022-07-29,1,,,,,アリトレーディング,0
1388,5360005006695,新規,0,2022-07-29,2022-07-29,一般社団法人琉球総合スポーツ振興協会,,その他の設立登記法人,沖縄県,沖縄市,高原６丁目８番５号,,47,211,9042171,,,,,,,2022-07-29,1,,,,,,0
1390,5370001048864,新規,0,2022-07-29,2022-07-29,ＳＡＥＥＤ＆ＳＯＮＳ株式会社,,株式会社,宮城県,仙台市青葉区,下愛子字横町前６番１－３０２号,,04,101,9893125,,,,,,,2022-07-29,1,,,,,サイードアンドサンズ,0
1401,5430001087170,新規,0,2022-07-29,2022-07-29,株式会社Ｓｅｒｅｔａｎ,,株式会社,北海道,札幌市中央区,南六条西９丁目１０１９番地１２,,01,101,0640806,,,,,,,2022-07-29,1,,,,,セレタン,0
1407,5480001011811,新規,0,2022-07-29,2022-07-29,株式会社板東電機,,株式会社,徳島県,名西郡石井町,石井字石井７１６番地５,,36,341,7793233,,,,,,,2022-07-29,1,,,,,バンドウデンキ,0
1417,6010001228344,新規,0,2022-07-29,2022-07-29,クォーツコム・ジャパン株式会社,,株式会社,東京都,千代田区,平河町２丁目６番１号平河町ビル７階,,13,101,1020093,,,,,,,2022-07-29,1,,,,,クォーツコムジャパン,0
1418,6010001228427,新規,0,2022-07-29,2022-07-29,株式会社幽閉ＳＴＹＬＥ,,株式会社,東京都,千代田区,神田須田町１丁目２２－２シュガービル２Ｆ,,13,101,1010041,,,,,,,2022-07-29,1,,,,,ユウヘイスタイル,0
1419,6010001228443,新規,0,2022-07-29,2022-07-29,日本井源生物科学院株式会社,,株式会社,東京都,中央区,日本橋蛎殻町１丁目３－５共同ビル２階２３号,,13,102,1030014,,,,,,,2022-07-29,1,,,,,ニホンセイゲンセイブツカガクイン,0
1421,6010003038262,新規,0,2022-07-29,2022-07-29,環境エネルギーイニシアティブ合同会社,,合同会社,東京都,千代田区,丸の内２丁目３－２郵船ビルディング１階,,13,101,1000005,,,,,,,2022-07-29,1,,,,,カンキョウエネルギーイニシアティブ,0
1422,6010003038287,新規,0,2022-07-29,2022-07-29,今泉マネージメント合同会社,,合同会社,東京都,千代田区,丸の内１丁目１１番１号,,13,101,1000005,,,,,,,2022-07-29,1,,,,,イマイズミマネージメント,0
1423,6010005035308,新規,0,2022-07-29,2022-07-29,不動産・相続サポート行政書士法人,,その他の設立登記法人,東京都,中央区,銀座２丁目１５番１２号－２階,,13,102,1040061,,,,,,,2022-07-29,1,,,,,フドウサンソウゾクサポート,0
1429,6010401168751,新規,0,2022-07-29,2022-07-29,大安心株式会社,,株式会社,東京都,港区,港南１丁目８番１５号,,13,103,1080075,,,,,,,2022-07-29,1,,,,,ダイアンシン,0
1430,6010401168768,新規,0,2022-07-29,2022-07-29,サンライズマーケティング株式会社,,株式会社,東京都,港区,北青山２丁目７番１３号,,13,103,1070061,,,,,,,2022-07-29,1,,,,,サンライズマーケティング,0
1431,6010401168801,新規,0,2022-07-29,2022-07-29,株式会社表参道メディカルクリニックマネジメント,,株式会社,東京都,港区,西麻布１丁目１４番１７号ＷＡＶＥ４階,,13,103,1060031,,,,,,,2022-07-29,1,,,,,オモテサンドウメディカルクリニックマネジメント,0
1433,6010403028144,新規,0,2022-07-29,2022-07-29,ＤＡＦＵ合同会社,,合同会社,東京都,港区,西麻布３丁目１７番１７－３０１号,,13,103,1060031,,,,,,,2022-07-29,1,,,,,ダーフー,0
1434,6010601061541,新規,0,2022-07-29,2022-07-29,桜棠会株式会社,,株式会社,東京都,江東区,豊洲５丁目１番１３－４６０３号,,13,108,1350061,,,,,,,2022-07-29,1,,,,,オウトウカイ,0
1437,6010805002960,新規,0,2022-07-29,2022-07-29,一般社団法人微笑サポート,,その他の設立登記法人,東京都,大田区,田園調布本町４５番１１号,,13,111,1450072,,,,,,,2022-07-29,1,,,,,ホホエミサポート,0
1463,6011301027989,新規,0,2022-07-29,2022-07-29,株式会社エルマーケティング,,株式会社,東京都,杉並区,西荻南２丁目１０番１２号サンライズ西荻３階,,13,115,1670053,,,,,,,2022-07-29,1,,,,,エルマーケティング,0
1477,6013301049419,新規,0,2022-07-29,2022-07-29,株式会社ＭＥＲＡ,,株式会社,東京都,豊島区,巣鴨４丁目２６番地１０号,,13,116,1700002,,,,,,,2022-07-29,1,,,,,メラ,0
1492,6020001147527,新規,0,2022-07-29,2022-07-29,株式会社プリーズプロパティ,,株式会社,神奈川県,横浜市港北区,箕輪町２丁目５番３号,,14,109,2230051,,,,,,,2022-07-29,1,,,,,プリーズプロパティ,0
1494,6020003022117,新規,0,2022-07-29,2022-07-29,合同会社ｎｉｋｏｇｅ,,合同会社,神奈川県,横浜市港北区,大倉山３丁目４４番６号メゾンラヴェール３０１,,14,109,2220037,,,,,,,2022-07-29,1,,,,,ニコゲ,0
1495,6020003022174,新規,0,2022-07-29,2022-07-29,合同会社縁々,,合同会社,神奈川県,横浜市鶴見区,下野谷町１丁目２０番１号,,14,101,2300047,,,,,,,2022-07-29,1,,,,,ヨリヨリ,0
1497,6021001076617,新規,0,2022-07-29,2022-07-29,Ｓｕｐｅｒ　Ｃａｒｓ株式会社,,株式会社,神奈川県,綾瀬市,蓼川１丁目１２番１０－１０５号,,14,218,2521105,,,,,,,2022-07-29,1,,,,,スーパーカーズ,0
1498,6021001076625,新規,0,2022-07-29,2022-07-29,ハジメ株式会社,,株式会社,神奈川県,相模原市南区,鵜野森１丁目３０番３－２１１号,,14,153,2520301,,,,,,,2022-07-29,1,,,,,ハジメ,0
1512,6030003019847,新規,0,2022-07-29,2022-07-29,合同会社Ｂｅａｒ,,合同会社,埼玉県,さいたま市岩槻区,大字岩槻６７９５番地,,11,110,3390061,,,,,,,2022-07-29,1,,,,,ベア,0
1513,6030003019888,新規,0,2022-07-29,2022-07-29,雅姜合同会社,,合同会社,埼玉県,川口市,川口５丁目１９番５０－８０３号川口５丁目パークホームズ,,11,203,3320015,,,,,,,2022-07-29,1,,,,,ガガ,0
1515,6030005020935,新規,0,2022-07-29,2022-07-29,一般社団法人日越架け橋協会,,その他の設立登記法人,埼玉県,川口市,川口２丁目２番３号,,11,203,3320015,,,,,,,2022-07-29,1,,,,,ニチエツカケハシキョウカイ,0
1530,6080001025099,新規,0,2022-07-29,2022-07-29,株式会社ＳＭＩＬＥ,,株式会社,静岡県,静岡市葵区,伝馬町９番地の４,,22,101,4200858,,,,,,,2022-07-29,1,,,,,スマイル,0
1551,6120001247614,新規,0,2022-07-29,2022-07-29,イー・アセット・マネジメント株式会社,,株式会社,大阪府,大阪市中央区,中寺１丁目４番２７号,,27,128,5420065,,,,,,,2022-07-29,1,,,,,イーアセットマネジメント,0
1552,6120001247630,新規,0,2022-07-29,2022-07-29,Ｂｉｏｔｉｍｅ株式会社,,株式会社,大阪府,大阪市東成区,東小橋１丁目１７－３１グランドハイツ東小橋７１３号室,,27,115,5370024,,,,,,,2022-07-29,1,,,,,バイオタイム,0
1553,6120001247671,新規,0,2022-07-29,2022-07-29,ＴＥＣＨ　ＣＯＭＰＯＮＥＮＴＳ‐ＪＡＰＡＮ株式会社,,株式会社,大阪府,大阪市東成区,深江北３丁目４番２１号エクラ深江橋７０２Ｂ,,27,115,5370001,,,,,,,2022-07-29,1,,,,,テックコンポーネンツジャパン,0
1554,6120001247696,新規,0,2022-07-29,2022-07-29,株式会社ＥＸＡＭ,,株式会社,大阪府,大阪市中央区,東心斎橋１丁目３番３－７０８号,,27,128,5420083,,,,,,,2022-07-29,1,,,,,イグザム,0
1555,6120001247721,新規,0,2022-07-29,2022-07-29,良源株式会社,,株式会社,大阪府,大阪市東成区,深江北３丁目４番２１号エクラ深江橋２０８Ｂ,,27,115,5370001,,,,,,,2022-07-29,1,,,,,リョウゲン,0
1556,6120001247746,新規,0,2022-07-29,2022-07-29,株式会社ＳＪ,,株式会社,大阪府,大阪市浪速区,幸町２丁目３番１４号ダイトービル２０６号,,27,111,5560021,,,,,,,2022-07-29,1,,,,,エスジェイ,0
1557,6120001247754,新規,0,2022-07-29,2022-07-29,小透明株式会社,,株式会社,大阪府,大阪市淀川区,田川北２丁目５－３４・Ｄ棟３０１号室,,27,123,5320021,,,,,,,2022-07-29,1,,,,,コトウメイ,0
1562,6120903004253,新規,0,2022-07-29,2022-07-29,合同会社ＳＣＤｓ,,合同会社,大阪府,吹田市,東御旅町５番９号,,27,205,5640033,,,,,,,2022-07-29,1,,,,,エスシーディーズ,0
1576,6140001126865,新規,0,2022-07-29,2022-07-29,株式会社梶正工業,,株式会社,兵庫県,神戸市北区,南五葉６丁目５番２８号,,28,109,6511132,,,,,,,2022-07-29,1,,,,,カジマサコウギョウ,0
1580,6160001024407,新規,0,2022-07-29,2022-07-29,株式会社マルシュン,,株式会社,滋賀県,湖南市,下田１５１８番地１,,25,211,5203201,,,,,,,2022-07-29,1,,,,,マルシュン,0
1594,6180005019871,新規,0,2022-07-29,2022-07-29,一般社団法人Ｂａｓｋｅｔｂａｌｌ　ａｎｄ　Ｌｉｆｅ,,その他の設立登記法人,愛知県,名古屋市西区,浄心２丁目９番５号,,23,104,4510061,,,,,,,2022-07-29,1,,,,,バスケットボールアンドライフ,0
1602,6180303005409,新規,0,2022-07-29,2022-07-29,合同会社ＬａｕｇｈＫｅｙ,,合同会社,愛知県,西尾市,永楽町４丁目２１番地,,23,213,4450854,,,,,,,2022-07-29,1,,,,,ラフキー,0
1606,6200001040325,新規,0,2022-07-29,2022-07-29,東海商事株式会社,,株式会社,岐阜県,本巣市,山口６９０番地１,,21,218,5011201,,,,,,,2022-07-29,1,,,,,トウカイショウジ,0
1608,6200005013368,新規,0,2022-07-29,2022-07-29,特定非営利活動法人七宗福祉事業支援友の会,,その他の設立登記法人,岐阜県,加茂郡七宗町,川並１９９番地１,,21,504,5090402,,,,,,,2022-07-29,1,,,,,ヒチソウフクシジギョウシエントモノカイ,0
1619,6240001060138,新規,0,2022-07-29,2022-07-29,株式会社Ｍａｃ,,株式会社,広島県,広島市中区,流川町５－１４,,34,101,7300028,,,,,,,2022-07-29,1,,,,,マック,0
1622,6240003005735,新規,0,2022-07-29,2022-07-29,合同会社森Ｐ,,合同会社,広島県,広島市安佐北区,落合南１丁目１７番１６号,,34,106,7391732,,,,,,,2022-07-29,1,,,,,モリピー,0
1624,6240005015427,新規,0,2022-07-29,2022-07-29,特定非営利活動法人くみサポ,,その他の設立登記法人,広島県,広島市中区,猫屋町３番１０号,,34,101,7300852,,,,,,,2022-07-29,1,,,,,クミサポ,0
1644,6290001098396,新規,0,2022-07-29,2022-07-29,株式会社六五朗,,株式会社,福岡県,久留米市,南２丁目１９番２０号,,40,203,8300051,,,,,,,2022-07-29,1,,,,,ムツゴロウ,0
1656,6330001029974,新規,0,2022-07-29,2022-07-29,株式会社ホールスクエア,,株式会社,熊本県,上益城郡益城町,大字宮園７８８番地,,43,443,8612241,,,,,,,2022-07-29,1,,,,,ホールスクエア,0
1663,6330003009462,新規,0,2022-07-29,2022-07-29,合同会社ｉｒｉｓ,,合同会社,熊本県,熊本市北区,徳王２丁目７番６８号,,43,105,8615525,,,,,,,2022-07-29,1,,,,,イリス,0
1665,6340001024925,新規,0,2022-07-29,2022-07-29,株式会社ＯＴＡＮ,,株式会社,鹿児島県,霧島市,国分清水１丁目５番４０号,,46,218,8994304,,,,,,,2022-07-29,1,,,,,オタン,0
1669,6370001048814,新規,0,2022-07-29,2022-07-29,株式会社エムズワイケーエー,,株式会社,宮城県,柴田郡村田町,大字村田字西６８番地１,,04,322,9891305,,,,,,,2022-07-29,1,,,,,エムズワイケーエー,0
1673,6380001033014,新規,0,2022-07-29,2022-07-29,株式会社隼警備保障,,株式会社,福島県,河沼郡会津坂下町,字舘ノ内甲２５５０番地３,,07,421,9696552,,,,,,,2022-07-29,1,,,,,ハヤブサケイビホショウ,0
1686,6430003014130,新規,0,2022-07-29,2022-07-29,合同会社ＴａｂＭａｃ,,合同会社,北海道,札幌市中央区,南一条西１５丁目１番地１５ＭＯＤＥＮＡ医大前９０２号,,01,101,0600061,,,,,,,2022-07-29,1,,,,,タブマック,0
1687,6430003014139,新規,0,2022-07-29,2022-07-29,合同会社ヴァンウエストプレイス,,合同会社,北海道,札幌市西区,琴似二条６丁目１番２１号,,01,107,0630812,,,,,,,2022-07-29,1,,,,,ヴァンウエストプレイス,0
1688,6430003014155,新規,0,2022-07-29,2022-07-29,合同会社こじゅまり,,合同会社,北海道,札幌市東区,北十二条東５丁目１番３５号ダイアパレス北１２条２１１号室,,01,103,0650012,,,,,,,2022-07-29,1,,,,,コジュマリ,0
1694,6480003001859,新規,0,2022-07-29,2022-07-29,合同会社エフ,,合同会社,徳島県,板野郡北島町,中村字明神下３６番地４,,36,402,7710203,,,,,,,2022-07-29,1,,,,,エフ,0
1696,6700150110992,新規,0,2022-07-29,2022-07-29,現代ジェニュイン株式会社,,外国会社等,東京都,千代田区,有楽町１丁目７番１号有楽町電気ビルヂング北館６階,,13,101,1000006,大韓民国ソウル特別市鍾路区栗谷路７５（桂洞）,,,,,,2022-07-29,1,,,,,ゲンダイジエニユインカブシキカイシヤ,0
1710,7010003038245,新規,0,2022-07-29,2022-07-29,合同会社ＡＮＴＺコンサルティング,,合同会社,東京都,中央区,新川２丁目７番４－９０６号,,13,102,1040033,,,,,,,2022-07-29,1,,,,,アンズコンサルティング,0
1711,7010003038286,新規,0,2022-07-29,2022-07-29,薬院プロパティー合同会社,,合同会社,東京都,千代田区,丸の内１丁目１１番１号,,13,101,1000005,,,,,,,2022-07-29,1,,,,,ヤクインプロパティー,0
1717,7010401168734,新規,0,2022-07-29,2022-07-29,株式会社Ｌｐｒｏｏｆ,,株式会社,東京都,港区,南青山２丁目２番１５号,,13,103,1070062,,,,,,,2022-07-29,1,,,,,エルプルーフ,0
1718,7010403028151,新規,0,2022-07-29,2022-07-29,合同会社ＴＫ０１,,合同会社,東京都,港区,愛宕２丁目５番１号,,13,103,1050002,,,,,,,2022-07-29,1,,,,,ティーケーゼロイチ,0
1725,7010601061557,新規,0,2022-07-29,2022-07-29,株式会社フィクター,,株式会社,東京都,墨田区,文花２丁目１６番５号シーアイマンションあずま百樹園４０１,,13,107,1310044,,,,,,,2022-07-29,1,,,,,フィクター,0
1726,7010603009645,新規,0,2022-07-29,2022-07-29,合同会社ヤマゴードットコム,,合同会社,東京都,江東区,豊洲５丁目１番１３－４１１５号,,13,108,1350061,,,,,,,2022-07-29,1,,,,,ヤマゴードットコム,0
1731,7010901051308,新規,0,2022-07-29,2022-07-29,株式会社ベター,,株式会社,東京都,世田谷区,北沢１丁目２３番５号,,13,112,1550031,,,,,,,2022-07-29,1,,,,,ベター,0
1745,7011005009663,新規,0,2022-07-29,2022-07-29,一般社団法人国際スマイリスト協会,,その他の設立登記法人,東京都,渋谷区,円山町５番４－２０１号,,13,113,1500044,,,,,,,2022-07-29,1,,,,,コクサイスマイリストキョウカイ,0
1755,7011305002839,新規,0,2022-07-29,2022-07-29,一般社団法人井上育英基金,,その他の設立登記法人,東京都,杉並区,浜田山４丁目２９番２５号,,13,115,1680065,,,,,,,2022-07-29,1,,,,,イノウエイクエイキキン,0
1758,7011501028332,新規,0,2022-07-29,2022-07-29,株式会社三毎,,株式会社,東京都,北区,赤羽台３丁目５番２号コンフォート３０１,,13,117,1150053,,,,,,,2022-07-29,1,,,,,サンマイ,0
1765,7012301013086,新規,0,2022-07-29,2022-07-29,株式会社ＪＡＰＡＷＯＲＫ,,株式会社,東京都,町田市,金井３丁目１７番地９,,13,209,1950072,,,,,,,2022-07-29,1,,,,,ジャパワーク,0
1771,7012401039460,新規,0,2022-07-29,2022-07-29,株式会社ヴァンデ,,株式会社,東京都,調布市,多摩川３丁目４０番地１５フォルスコート調布７０８号,,13,208,1820025,,,,,,,2022-07-29,1,,,,,,0
1772,7012401039477,新規,0,2022-07-29,2022-07-29,株式会社ＳＤＦ,,株式会社,東京都,府中市,四谷６丁目２９－３２,,13,206,1830035,,,,,,,2022-07-29,1,,,,,エスディーエフ,0
1776,7013101008986,新規,0,2022-07-29,2022-07-29,株式会社髪と色,,株式会社,東京都,西多摩郡日の出町,大字大久野１７０８番地,,13,305,1900181,,,,,,,2022-07-29,1,,,,,カミトイロ,0
1788,7020001147484,新規,0,2022-07-29,2022-07-29,リノプロ株式会社,,株式会社,神奈川県,横浜市西区,高島２丁目１１番２号スカイメナー横浜５１９,,14,103,2200011,,,,,,,2022-07-29,1,,,,,リノプロ,0
1789,7020001147542,新規,0,2022-07-29,2022-07-29,株式会社ＶＬＡＧ,,株式会社,神奈川県,川崎市幸区,新小倉２番１－１５０４号,,14,132,2120031,,,,,,,2022-07-29,1,,,,,ヴラッヒ,0
1792,7021001076616,新規,0,2022-07-29,2022-07-29,シン・マーケ株式会社,,株式会社,神奈川県,茅ヶ崎市,松が丘２丁目５番２５号,,14,207,2530025,,,,,,,2022-07-29,1,,,,,シンマーケ,0
1793,7021003011991,新規,0,2022-07-29,2022-07-29,２ＴＨＲＥＥ４ＬＯＧＩＳＴＩＣＳ合同会社,,合同会社,神奈川県,相模原市南区,相模台３丁目１１番３号ドリームハイツ２０１,,14,153,2520321,,,,,,,2022-07-29,1,,,,,トゥスリーフォーロジスティックス,0
1803,7030001149397,新規,0,2022-07-29,2022-07-29,株式会社スゥリール,,株式会社,埼玉県,さいたま市見沼区,大和田町１丁目４６４番地４,,11,104,3370053,,,,,,,2022-07-29,1,,,,,スゥリール,0
1804,7030001149414,新規,0,2022-07-29,2022-07-29,株式会社貴真工業,,株式会社,埼玉県,さいたま市緑区,東浦和３丁目１０番地１グランシャリオ１０１,,11,109,3360926,,,,,,,2022-07-29,1,,,,,キシンコウギョウ,0
1809,7030003019887,新規,0,2022-07-29,2022-07-29,ＭｙＰａｃｅ合同会社,,合同会社,埼玉県,川口市,南町１丁目１４－８,,11,203,3320026,,,,,,,2022-07-29,1,,,,,,0
1814,7040001124465,新規,0,2022-07-29,2022-07-29,株式会社エスリース,,株式会社,千葉県,柏市,藤ケ谷９５４番地,,12,217,2770931,,,,,,,2022-07-29,1,,,,,エスリース,0
1817,7040003020514,新規,0,2022-07-29,2022-07-29,合同会社ｏｍｓｈｒｅｅ,,合同会社,千葉県,柏市,中新宿３丁目２番１２号,,12,217,2770066,,,,,,,2022-07-29,1,,,,,オムシュリー,0
1825,7070003004539,新規,0,2022-07-29,2022-07-29,山久金谷合同会社,,合同会社,群馬県,北群馬郡吉岡町,大字大久保１４６８番地６,,10,345,3703602,,,,,,,2022-07-29,1,,,,,ヤマキュウカナヤ,0
1826,7080001025098,新規,0,2022-07-29,2022-07-29,株式会社Ｌｕｄｅｎｓ,,株式会社,静岡県,静岡市葵区,常磐町２丁目４番地の２５イデア常磐町ビル３階,,22,101,4200034,,,,,,,2022-07-29,1,,,,,ルーデンス,0
1828,7090001017706,新規,0,2022-07-29,2022-07-29,株式会社ソルブレインズ,,株式会社,山梨県,甲府市,堀之内町８４０番地１,,19,201,4000056,,,,,,,2022-07-29,1,,,,,ソルブレインズ,0
1831,7100001035557,新規,0,2022-07-29,2022-07-29,株式会社ＬＯＣＡＬ,,株式会社,長野県,松本市,梓川梓４１４０番地２,,20,202,3901702,,,,,,,2022-07-29,1,,,,,ローカル,0
1851,7120001247695,新規,0,2022-07-29,2022-07-29,多肉株式会社,,株式会社,大阪府,大阪市中央区,日本橋２丁目１５番１８－１０１号,,27,128,5420073,,,,,,,2022-07-29,1,,,,,タニク,0
1852,7120001247720,新規,0,2022-07-29,2022-07-29,卓途株式会社,,株式会社,大阪府,大阪市淀川区,宮原１丁目１９－２３ステュディオ新御堂筋４２３号室,,27,123,5320003,,,,,,,2022-07-29,1,,,,,タクト,0
1853,7120001247753,新規,0,2022-07-29,2022-07-29,株式会社Ｃ　ＴＲＥＥ,,株式会社,大阪府,大阪市住吉区,長居東４丁目１１番１０号－１Ｆ,,27,120,5580004,,,,,,,2022-07-29,1,,,,,シーツリー,0
1854,7120001247761,新規,0,2022-07-29,2022-07-29,読勤株式会社,,株式会社,大阪府,大阪市東成区,深江北３丁目４番２１号エクラ深江橋７０６Ａ,,27,115,5370001,,,,,,,2022-07-29,1,,,,,ドクキン,0
1862,7120003022171,新規,0,2022-07-29,2022-07-29,合同会社ＨＫ３６,,合同会社,大阪府,大阪市城東区,鴫野西３丁目５番４６号,,27,118,5360014,,,,,,,2022-07-29,1,,,,,エイチケーサンジュウロク,0
1864,7120101065980,新規,0,2022-07-29,2022-07-29,ＭＫＡジャパン株式会社,,株式会社,大阪府,堺市堺区,三宝町３丁１６４番地３,,27,141,5900906,,,,,,,2022-07-29,1,,,,,エムケーエージャパン,0
1879,7140003017954,新規,0,2022-07-29,2022-07-29,合同会社ｆａｃｔｏｒｙ　ｃｏｍｐａｎｙ,,合同会社,兵庫県,高砂市,阿弥陀町魚橋１６８３番地,,28,216,6760822,,,,,,,2022-07-29,1,,,,,ファクトリーカンパニー,0
1880,7140003017962,新規,0,2022-07-29,2022-07-29,實合同会社,,合同会社,兵庫県,尼崎市,瓦宮２丁目２０番２３号,,28,202,6610971,,,,,,,2022-07-29,1,,,,,サネ,0
1892,7180001152320,新規,0,2022-07-29,2022-07-29,株式会社ビズブレイン,,株式会社,愛知県,名古屋市北区,生駒町４丁目７３番地の３,,23,103,4620832,,,,,,,2022-07-29,1,,,,,ビズブレイン,0
1913,7240003005734,新規,0,2022-07-29,2022-07-29,合同会社ＫＯＵＳＨＩＮ,,合同会社,広島県,広島市中区,吉島東２丁目３－２,,34,101,7300822,,,,,,,2022-07-29,1,,,,,コウシン,0
1925,7290001098404,新規,0,2022-07-29,2022-07-29,株式会社ＱｕｅｓＬｅｔｅ．,,株式会社,福岡県,福岡市早良区,原１丁目１５番１６－１０１号,,40,137,8140022,,,,,,,2022-07-29,1,,,,,クエスリート,0
1926,7290001098412,新規,0,2022-07-29,2022-07-29,株式会社ＣＯＬＯＲ　ＷＯＲＫＳ　ＪＡＰＡＮ,,株式会社,福岡県,福岡市城南区,樋井川２丁目２番５－６０５号,,40,136,8140153,,,,,,,2022-07-29,1,,,,,カラーワークスジャパン,0
1929,7290003012783,新規,0,2022-07-29,2022-07-29,合同会社Ｉｎｎｃｒｅａ,,合同会社,福岡県,福岡市博多区,博多駅前３丁目４－２５アクロスキューブ博多駅前,,40,132,8120011,,,,,,,2022-07-29,1,,,,,インクレア,0
1934,7310001017963,新規,0,2022-07-29,2022-07-29,株式会社ＩＰＣＫホールディングス,,株式会社,長崎県,諫早市,西小路町９９９番地３９,,42,204,8540015,,,,,,,2022-07-29,1,,,,,アイピーシーケーホールディングス,0
1937,7330001029940,新規,0,2022-07-29,2022-07-29,株式会社オンリーケア,,株式会社,熊本県,熊本市東区,若葉２丁目１０番２４号,,43,102,8620903,,,,,,,2022-07-29,1,,,,,オンリーケア,0
1957,7430001087185,新規,0,2022-07-29,2022-07-29,株式会社ＫＬＩＭ,,株式会社,北海道,札幌市清田区,清田二条１丁目１５番１６号,,01,110,0040842,,,,,,,2022-07-29,1,,,,,クリム,0
1961,7430003014138,新規,0,2022-07-29,2022-07-29,合同会社ヴァンイーストプレイス,,合同会社,北海道,札幌市厚別区,厚別中央二条５丁目３番５号,,01,108,0040052,,,,,,,2022-07-29,1,,,,,ヴァンイーストプレイス,0
1962,7430003014154,新規,0,2022-07-29,2022-07-29,合同会社ＭＴＫコンサルタント,,合同会社,北海道,札幌市厚別区,厚別北一条１丁目９番１２号,,01,108,0040071,,,,,,,2022-07-29,1,,,,,エムテイケイコンサルタント,0
1965,7470001019176,新規,0,2022-07-29,2022-07-29,株式会社超越商貿,,株式会社,香川県,三豊市,豊中町本山甲２３０番地１,,37,208,7691506,,,,,,,2022-07-29,1,,,,,チョウエツショウボウ,0
1973,7700150110991,新規,0,2022-07-29,2022-07-29,Ｐｌａｔｉｎｕｍ　Ｏｎｅ　Ｐｒｏｐｅｒｔｙ　Ｄｅｖｅｌｏｐｍｅｎｔ　Ｐｔｙ．ＬＴＤ．,,外国会社等,,,,,,,,クイーンズランド州、ニューファーム、ウェルズビーストリート７５、ショップ１,,,,,,2022-07-29,1,,,,,プラチナムワンプロパテイデベロツプメンツピーテイーワイリミテツド,0
1977,8010001228391,新規,0,2022-07-29,2022-07-29,株式会社ＡＵＯ,,株式会社,東京都,中央区,銀座７丁目１３番６号,,13,102,1040061,,,,,,,2022-07-29,1,,,,,エーユーオー,0
1979,8010003038285,新規,0,2022-07-29,2022-07-29,今泉プロパティー合同会社,,合同会社,東京都,千代田区,丸の内１丁目１１番１号,,13,101,1000005,,,,,,,2022-07-29,1,,,,,イマイズミプロパティー,0
1986,8010401168733,新規,0,2022-07-29,2022-07-29,株式会社フィルプロモーション,,株式会社,東京都,港区,赤坂５丁目２番２０号,,13,103,1070052,,,,,,,2022-07-29,1,,,,,フィルプロモーション,0
1987,8010401168758,新規,0,2022-07-29,2022-07-29,株式会社ＲＩＣＨＥ,,株式会社,東京都,港区,六本木５丁目１１番３８－１０１号,,13,103,1060032,,,,,,,2022-07-29,1,,,,,リーチェ,0
1994,8010501049172,新規,0,2022-07-29,2022-07-29,株式会社アトラス,,株式会社,東京都,台東区,台東２丁目１７－１－４０１号,,13,106,1100016,,,,,,,2022-07-29,1,,,,,アトラス,0
1995,8010601061556,新規,0,2022-07-29,2022-07-29,株式会社リープハイ,,株式会社,東京都,墨田区,文花２丁目１６番５号シーアイマンションあずま百樹園４０１,,13,107,1310044,,,,,,,2022-07-29,1,,,,,リープハイ,0
2023,8011401024439,新規,0,2022-07-29,2022-07-29,株式会社やまだや,,株式会社,東京都,板橋区,南常盤台２丁目３番１２－５０２号,,13,119,1740072,,,,,,,2022-07-29,1,,,,,ヤマダヤ,0
2027,8011603003661,新規,0,2022-07-29,2022-07-29,ＴＨＺ合同会社,,合同会社,東京都,練馬区,春日町４丁目３０番２４号,,13,120,1790074,,,,,,,2022-07-29,1,,,,,ティーエイチゼット,0
2038,8012405004765,新規,0,2022-07-29,2022-07-29,特定非営利活動法人三多摩子供スポーツ振興会,,その他の設立登記法人,東京都,多摩市,和田７６３番地相沢ビル１０１号,,13,224,2060001,,,,,,,2022-07-29,1,,,,,サンタマコドモスポーツシンコウカイ,0
2051,8020001147483,新規,0,2022-07-29,2022-07-29,株式会社ギャラン,,株式会社,神奈川県,横浜市鶴見区,矢向２丁目７番２０－６号,,14,101,2300001,,,,,,,2022-07-29,1,,,,,ギャラン,0
2052,8020001147500,新規,0,2022-07-29,2022-07-29,株式会社ラメール,,株式会社,神奈川県,横浜市神奈川区,新浦島町２丁目２番地１－５３９号,,14,102,2210031,,,,,,,2022-07-29,1,,,,,ラメール,0
2054,8020003022164,新規,0,2022-07-29,2022-07-29,トドクヨ合同会社,,合同会社,神奈川県,川崎市川崎区,駅前本町１１番地２川崎フロンティアビル４階,,14,131,2100007,,,,,,,2022-07-29,1,,,,,トドクヨ,0
2060,8021001076623,新規,0,2022-07-29,2022-07-29,株式会社インサラス,,株式会社,神奈川県,相模原市中央区,水郷田名１丁目１１番１４号,,14,152,2520246,,,,,,,2022-07-29,1,,,,,インサラス,0
2064,8030001149388,新規,0,2022-07-29,2022-07-29,株式会社サイネクスト,,株式会社,埼玉県,入間郡越生町,大字上野８５０－３,,11,327,3500415,,,,,,,2022-07-29,1,,,,,サイネクスト,0
2065,8030001149421,新規,0,2022-07-29,2022-07-29,株式会社ＴＫＦメタルエンジニア,,株式会社,埼玉県,さいたま市見沼区,大字御蔵１１１０番地１,,11,104,3370033,,,,,,,2022-07-29,1,,,,,ティーケーエフメタルエンジニア,0
2069,8030003019861,新規,0,2022-07-29,2022-07-29,楓の木合同会社,,合同会社,埼玉県,さいたま市緑区,大字三室２１０８番地６号,,11,109,3360911,,,,,,,2022-07-29,1,,,,,カエデノキ,0
2070,8030005020941,新規,0,2022-07-29,2022-07-29,一般社団法人日本フードリカバリー協会,,その他の設立登記法人,埼玉県,草加市,清門２丁目４２番地１４,,11,221,3400055,,,,,,,2022-07-29,1,,,,,ニホンフードリカバリーキョウカイ,0
2076,8040001124398,新規,0,2022-07-29,2022-07-29,株式会社コーセー,,株式会社,千葉県,松戸市,稔台８丁目２－１８,,12,207,2702231,,,,,,,2022-07-29,1,,,,,コーセー,0
2077,8040001124456,新規,0,2022-07-29,2022-07-29,リーズカンパニー株式会社,,株式会社,千葉県,柏市,中新宿１丁目２３番１－１０２号,,12,217,2770066,,,,,,,2022-07-29,1,,,,,リーズカンパニー,0
2082,8040003020521,新規,0,2022-07-29,2022-07-29,合同会社スランカアグロ,,合同会社,千葉県,山武市,板中新田字宮ノ後１６２番６,,12,237,2891222,,,,,,,2022-07-29,1,,,,,スランカアグロ,0
2101,8070001039445,新規,0,2022-07-29,2022-07-29,株式会社Ｌｅｇｉｔ,,株式会社,群馬県,館林市,大島町５１２－４,,10,207,3740001,,,,,,,2022-07-29,1,,,,,レジット,0
2128,8120001247133,新規,0,2022-07-29,2022-07-29,株式会社ｇｂ　ｐｌａｎｎｉｎｇ,,株式会社,大阪府,大阪市北区,本庄西３丁目７番２０号,,27,127,5310073,,,,,,,2022-07-29,1,,,,,ジービープランニング,0
2129,8120001247760,新規,0,2022-07-29,2022-07-29,友彦株式会社,,株式会社,大阪府,大阪市城東区,蒲生３丁目１５番１２号セザンヌ藤３０５Ａ,,27,118,5360016,,,,,,,2022-07-29,1,,,,,トモヒコ,0
2132,8120003022146,新規,0,2022-07-29,2022-07-29,合同会社ティーアドバンス,,合同会社,大阪府,大阪市中央区,農人橋１丁目１番８号谷町グリーンハイツ９０５号室,,27,128,5400011,,,,,,,2022-07-29,1,,,,,ティーアドバンス,0
2133,8120003022162,新規,0,2022-07-29,2022-07-29,１２７ｐｒｏｄｕｃｅ合同会社,,合同会社,大阪府,大阪市中央区,船越町２丁目３番１１－１４０５号,,27,128,5400036,,,,,,,2022-07-29,1,,,,,ワントゥーセブンプロデュース,0
2134,8120003022179,新規,0,2022-07-29,2022-07-29,香実合同会社,,合同会社,大阪府,大阪市生野区,新今里５丁目４－６－１０２号室,,27,116,5440001,,,,,,,2022-07-29,1,,,,,カジツ,0
2138,8120901046304,新規,0,2022-07-29,2022-07-29,ウェスティン株式会社,,株式会社,大阪府,吹田市,豊津町一丁目１８番エクラート江坂ビル３階,,27,205,5640051,,,,,,,2022-07-29,1,,,,,ウェスティン,0
2139,8120901046312,新規,0,2022-07-29,2022-07-29,株式会社中西流通,,株式会社,大阪府,三島郡島本町,桜井５丁目３０－１１,,27,301,6180022,,,,,,,2022-07-29,1,,,,,ナカニシリュウツウ,0
2142,8122001036111,新規,0,2022-07-29,2022-07-29,株式会社三建工,,株式会社,大阪府,八尾市,西高安町１丁目８４番,,27,212,5810852,,,,,,,2022-07-29,1,,,,,サンケンコウ,0
2150,8130001072233,新規,0,2022-07-29,2022-07-29,株式会社ＳＫＩＰ＆ＣＬＡＰ,,株式会社,京都府,木津川市,加茂町高田柿ノ内１７－１,,26,214,6191144,,,,,,,2022-07-29,1,,,,,スキップアンドクラップ,0
2154,8140001126871,新規,0,2022-07-29,2022-07-29,ギガブレーンズ株式会社,,株式会社,兵庫県,神戸市東灘区,森北町５丁目１番８－５０１号,,28,101,6580001,,,,,,,2022-07-29,1,,,,,ギガブレーンズ,0
2166,8180001152360,新規,0,2022-07-29,2022-07-29,ＥＭＣ株式会社,,株式会社,愛知県,名古屋市中区,千代田１丁目１５番２２号,,23,106,4600012,,,,,,,2022-07-29,1,,,,,イーエムシー,0
2171,8180003024079,新規,0,2022-07-29,2022-07-29,合同会社虹いろ,,合同会社,愛知県,名古屋市西区,万代町２丁目７２番地,,23,104,4510074,,,,,,,2022-07-29,1,,,,,ニジイロ,0
2172,8180003024095,新規,0,2022-07-29,2022-07-29,ＳＡＰＫＯＴＡ　ＧＲＯＵＰ合同会社,,合同会社,愛知県,名古屋市北区,大曽根４丁目１２番３２号,,23,103,4620825,,,,,,,2022-07-29,1,,,,,サプコタグループ,0
2176,8180301036478,新規,0,2022-07-29,2022-07-29,株式会社豊田不動産事務所,,株式会社,愛知県,豊田市,小坂本町３丁目３３番地,,23,211,4710034,,,,,,,2022-07-29,1,,,,,トヨタフドウサンジムショ,0
2181,8180303005407,新規,0,2022-07-29,2022-07-29,合同会社Ｒａｐｐｏｒｔ,,合同会社,愛知県,豊橋市,植田町字一本木１１６番地１８１,,23,201,4418134,,,,,,,2022-07-29,1,,,,,ラポール,0
2191,8220003003334,新規,0,2022-07-29,2022-07-29,フリープラス合同会社,,合同会社,石川県,金沢市,西念２丁目４番８号アパガーデンズ駅西けやき通り５０７,,17,201,9200024,,,,,,,2022-07-29,1,,,,,フリープラス,0
2206,8290001098361,新規,0,2022-07-29,2022-07-29,株式会社天福園,,株式会社,福岡県,福岡市中央区,天神５丁目９番２－７０１号ファミール天神,,40,133,8100001,,,,,,,2022-07-29,1,,,,,テンフクエン,0
2214,8320003003860,新規,0,2022-07-29,2022-07-29,合同会社ＡＳＡＨＩ　ＭＡＲＴ,,合同会社,大分県,宇佐市,大字四日市１５０７番地５,,44,211,8790471,,,,,,,2022-07-29,1,,,,,アサヒマート,0
2216,8330001029972,新規,0,2022-07-29,2022-07-29,星禾産業株式会社,,株式会社,熊本県,熊本市中央区,渡鹿５丁目１０－３０－６０４号,,43,101,8620970,,,,,,,2022-07-29,1,,,,,セイカサンギョウ,0
2236,8430003014137,新規,0,2022-07-29,2022-07-29,合同会社ヴァンセンタープレイス,,合同会社,北海道,札幌市中央区,北二条西３丁目１番地,,01,101,0600002,,,,,,,2022-07-29,1,,,,,ヴァンセンタープレイス,0
2237,8430003014153,新規,0,2022-07-29,2022-07-29,合同会社佐藤建材設計,,合同会社,北海道,札幌市中央区,北八条西１６丁目１－１－７０１号,,01,101,0600008,,,,,,,2022-07-29,1,,,,,サトウケンザイセッケイ,0
2270,9010401168716,新規,0,2022-07-29,2022-07-29,ＶＥＳＰＥＲ株式会社,,株式会社,東京都,港区,南青山２丁目２番１５号,,13,103,1070062,,,,,,,2022-07-29,1,,,,,ベスパ,0
2280,9010601061563,新規,0,2022-07-29,2022-07-29,株式会社秋蔵,,株式会社,東京都,江東区,北砂２丁目１８番２号,,13,108,1360073,,,,,,,2022-07-29,1,,,,,アキグラ,0
2281,9010601061571,新規,0,2022-07-29,2022-07-29,桜花資本株式会社,,株式会社,東京都,墨田区,文花１丁目３４－１１－４０５号,,13,107,1310044,,,,,,,2022-07-29,1,,,,,オウカシホン,0
2293,9010903007545,新規,0,2022-07-29,2022-07-29,合同会社松下大谷屋,,合同会社,東京都,世田谷区,駒沢３丁目２７番８号,,13,112,1540012,,,,,,,2022-07-29,1,,,,,マツシタオオタニヤ,0
2302,9011501028306,新規,0,2022-07-29,2022-07-29,サンバード会計株式会社,,株式会社,東京都,荒川区,東日暮里４丁目２７－１１,,13,118,1160014,,,,,,,2022-07-29,1,,,,,サンバードカイケイ,0
2315,9012401039467,新規,0,2022-07-29,2022-07-29,株式会社輝和,,株式会社,東京都,府中市,是政１丁目８番地の４コーポ西藤１０３,,13,206,1830014,,,,,,,2022-07-29,1,,,,,コウワ,0
2329,9020001147508,新規,0,2022-07-29,2022-07-29,株式会社Ａ．Ｐｒｏｄｕｃｅ,,株式会社,神奈川県,横浜市鶴見区,上の宮１丁目２３番７号,,14,101,2300075,,,,,,,2022-07-29,1,,,,,エイプロデュース,0
2335,9020003022171,新規,0,2022-07-29,2022-07-29,合同会社かねお,,合同会社,神奈川県,川崎市多摩区,菅６丁目１０番２６号,,14,135,2140001,,,,,,,2022-07-29,1,,,,,カネオ,0
2339,9021001076614,新規,0,2022-07-29,2022-07-29,小田原シネマ株式会社,,株式会社,神奈川県,小田原市,荻窪９３３番地,,14,206,2500042,,,,,,,2022-07-29,1,,,,,オダワラシネマ,0
2340,9021001076630,新規,0,2022-07-29,2022-07-29,株式会社明和テクニクス,,株式会社,神奈川県,平塚市,日向岡１丁目１番２８号,,14,203,2540905,,,,,,,2022-07-29,1,,,,,メイワテクニクス,0
2341,9021005012573,新規,0,2022-07-29,2022-07-29,一般社団法人森里,,その他の設立登記法人,神奈川県,厚木市,鳶尾５丁目２番１８号,,14,212,2430204,,,,,,,2022-07-29,1,,,,,,0
2345,9030001149420,新規,0,2022-07-29,2022-07-29,株式会社シマペイント,,株式会社,埼玉県,越谷市,大字大道３１５番地ベルファミーユ３０３,,11,222,3430035,,,,,,,2022-07-29,1,,,,,シマペイント,0
2354,9040003020520,新規,0,2022-07-29,2022-07-29,ＧＮＲ合同会社,,合同会社,千葉県,浦安市,富士見３丁目１７番２１号アラモードハウス（２０３）,,12,227,2790043,,,,,,,2022-07-29,1,,,,,ジンアル,0
2362,9080401025976,新規,0,2022-07-29,2022-07-29,株式会社浜松バイオチェスト,,株式会社,静岡県,浜松市中区,城北３丁目５番１号国立大学法人静岡大学イノベーション社会連携推進機構３１０,,22,131,4328011,,,,,,,2022-07-29,1,,,,,ハママツバイオチェスト,0
2366,9090001017704,新規,0,2022-07-29,2022-07-29,株式会社Ｔｏｍ,,株式会社,山梨県,笛吹市,境川町前間田５８番地２,,19,211,4060843,,,,,,,2022-07-29,1,,,,,トム,0
2367,9090005007503,新規,0,2022-07-29,2022-07-29,一般社団法人あまり,,その他の設立登記法人,山梨県,山梨市,切差字西久保１１８２番地,,19,205,4050048,,,,,,,2022-07-29,1,,,,,,0
2386,9120001247628,新規,0,2022-07-29,2022-07-29,健坤株式会社,,株式会社,大阪府,大阪市東淀川区,豊新５丁目６番３－２０２号,,27,114,5330014,,,,,,,2022-07-29,1,,,,,ケンコン,0
2387,9120001247693,新規,0,2022-07-29,2022-07-29,伊澤株式会社,,株式会社,大阪府,大阪市東成区,深江北３丁目４番２１号エクラ深江橋２０１Ｃ,,27,115,5370001,,,,,,,2022-07-29,1,,,,,イザワ,0
2388,9120001247710,新規,0,2022-07-29,2022-07-29,株式会社ＷＡＭＯ,,株式会社,大阪府,大阪市北区,西天満３丁目９番７－４０３号,,27,127,5300047,,,,,,,2022-07-29,1,,,,,ワモ,0
2389,9120001247719,新規,0,2022-07-29,2022-07-29,大喜株式会社,,株式会社,大阪府,大阪市東成区,神路４丁目３－１０スターレジデンス新深江３０５号室,,27,115,5370003,,,,,,,2022-07-29,1,,,,,ダイキ,0
2390,9120001247727,新規,0,2022-07-29,2022-07-29,＿成株式会社,00127357,株式会社,大阪府,大阪市西成区,鶴見橋１丁目６番１９号,,27,122,5570031,,,,,,,2022-07-29,1,,,,,キンセイ,0
2394,9120003022178,新規,0,2022-07-29,2022-07-29,ＪＢＨＴＳ　ＡＮＤ　ＳＯＮＳ合同会社,,合同会社,大阪府,大阪市淀川区,東三国４丁目２１番１１号１階,,27,123,5320002,,,,,,,2022-07-29,1,,,,,ジェイビッツアンドソンズ,0
2395,9120003022186,新規,0,2022-07-29,2022-07-29,合同会社福空商事,,合同会社,大阪府,大阪市城東区,新喜多１丁目５番２１号,,27,118,5360015,,,,,,,2022-07-29,1,,,,,フクゾラショウジ,0
2398,9120901046311,新規,0,2022-07-29,2022-07-29,株式会社ＮＳテクノ,,株式会社,大阪府,吹田市,南吹田１丁目１０番１２号,,27,205,5640043,,,,,,,2022-07-29,1,,,,,エヌエステクノ,0
2402,9130001072265,新規,0,2022-07-29,2022-07-29,エコ・クリエ株式会社,,株式会社,京都府,相楽郡南山城村,大字田山小字柳ケ谷２番２号,,26,367,6191421,,,,,,,2022-07-29,1,,,,,エコクリエ,0
2408,9140001126870,新規,0,2022-07-29,2022-07-29,株式会社Ｃ＆Ｍ,,株式会社,兵庫県,伊丹市,西野７丁目３番地１,,28,207,6640028,,,,,,,2022-07-29,1,,,,,シーアンドエム,0
2412,9140005026266,新規,0,2022-07-29,2022-07-29,一般社団法人ＩＫＩＧＡＩ　ＤＡＩ,,その他の設立登記法人,兵庫県,神戸市中央区,磯上通６丁目１番１７号,,28,110,6510086,,,,,,,2022-07-29,1,,,,,イキガイダイ,0
2413,9160001024404,新規,0,2022-07-29,2022-07-29,ＣＳＹ株式会社,,株式会社,滋賀県,長浜市,神照町４５３－１,,25,203,5260015,,,,,,,2022-07-29,1,,,,,シエスワィ,0
2414,9160003002639,新規,0,2022-07-29,2022-07-29,合同会社渡鴉,,合同会社,滋賀県,大津市,秋葉台２１番４４号,,25,201,5200822,,,,,,,2022-07-29,1,,,,,ワタリガラス,0
2423,9180001152327,新規,0,2022-07-29,2022-07-29,株式会社ＯＬＤＢＡＳＥ,,株式会社,愛知県,名古屋市西区,大野木５丁目１５６番地の２,,23,104,4520803,,,,,,,2022-07-29,1,,,,,オールドベース,0
2424,9180001152351,新規,0,2022-07-29,2022-07-29,株式会社ＧＬＡＭＢ,,株式会社,愛知県,名古屋市北区,西味鋺４丁目１１８番地,,23,103,4620016,,,,,,,2022-07-29,1,,,,,グラム,0
2443,9240001060135,新規,0,2022-07-29,2022-07-29,株式会社ＫＩＳＥＫＩ,,株式会社,広島県,尾道市,瀬戸田町福田７１０番地３５,,34,205,7222405,,,,,,,2022-07-29,1,,,,,キセキ,0
2444,9240001060143,新規,0,2022-07-29,2022-07-29,株式会社ＰＲＯＳＰＥＲ,,株式会社,広島県,廿日市市,宮園上２丁目７番地１２,,34,213,7380037,,,,,,,2022-07-29,1,,,,,プロスパー,0
2448,9240003005732,新規,0,2022-07-29,2022-07-29,合同会社ヤマセ不動産,,合同会社,広島県,福山市,沼隈町大字中山南３５２番地,,34,207,7200402,,,,,,,2022-07-29,1,,,,,ヤマセフドウサン,0
2453,9270001008602,新規,0,2022-07-29,2022-07-29,青谷鋼業株式会社,,株式会社,鳥取県,鳥取市,青谷町北河原６００番地,,31,201,6890532,,,,,,,2022-07-29,1,,,,,アオヤコウギョウ,0
2460,9290001098393,新規,0,2022-07-29,2022-07-29,株式会社建匠,,株式会社,福岡県,福岡市南区,清水３丁目１６番１２号,,40,134,8150031,,,,,,,2022-07-29,1,,,,,ケンショウ,0
2461,9290001098402,新規,0,2022-07-29,2022-07-29,前田機工株式会社,,株式会社,福岡県,大牟田市,住吉町４番地７クローバーマンション大牟田ＩＩ２０３号,00127366,40,202,8360024,,,,,,,2022-07-29,1,,,,,マエダキコウ,0
2464,9290003012781,新規,0,2022-07-29,2022-07-29,合同会社ケー・エフ・シー,,合同会社,福岡県,久留米市,東櫛原町１３６２番地１,00127364,40,203,8300003,,,,,,,2022-07-29,1,,,,,ケーエフシー,0
2466,9290005018760,新規,0,2022-07-29,2022-07-29,一般社団法人アンダーガーデンコミュニティ,,その他の設立登記法人,福岡県,糸島市,志摩桜井１１０９番地１,,40,230,8191304,,,,,,,2022-07-29,1,,,,,アンダーガーデンコミュニティ,0
2468,9300001013020,新規,0,2022-07-29,2022-07-29,株式会社ミツワ,,株式会社,佐賀県,唐津市,北波多徳須恵１３１２番地３６,,41,202,8471201,,,,,,,2022-07-29,1,,,,,ミツワ,0
2475,9330001029947,新規,0,2022-07-29,2022-07-29,アール株式会社,,株式会社,熊本県,上益城郡益城町,大字馬水８７０番地１,,43,443,8612232,,,,,,,2022-07-29,1,,,,,アール,0
2478,9340001024930,新規,0,2022-07-29,2022-07-29,株式会社テイクワンホーム,,株式会社,鹿児島県,鹿児島市,東開町４番地６１,,46,201,8910115,,,,,,,2022-07-29,1,,,,,テイクワンホーム,0
2479,9340005009481,新規,0,2022-07-29,2022-07-29,一般社団法人ＳＮＫ災害ネットワーク鹿児島,,その他の設立登記法人,鹿児島県,鹿児島市,下荒田３丁目２２番９号,,46,201,8900056,,,,,,,2022-07-29,1,,,,,エスエヌケイサイガイネットワークカゴシマ,0
2487,9370001048852,新規,0,2022-07-29,2022-07-29,たくみフーズマネジメント株式会社,,株式会社,宮城県,仙台市太白区,富沢西５丁目１２番地の２８ＰＡＳＳＩＯＮＥＩＶ,00127368,04,104,9820037,,,,,,,2022-07-29,1,,,,,タクミフーズマネジメント,0
2488,9370001048877,新規,0,2022-07-29,2022-07-29,株式会社ＧＲＯＷＴＨ　ＪＡＰＡＮ　ＴＥＣＨＮＯＬＯＧＩＥＳ,,株式会社,宮城県,仙台市青葉区,一番町３丁目１１番１５号８階ＴＡＧＥ　Ｃｏｍｍｕｎｉｔｙ,,04,101,9800811,,,,,,,2022-07-29,1,,,,,グロウスジャパンテクノロジーズ,0
2489,9370005010511,新規,0,2022-07-29,2022-07-29,一般社団法人伸山会,,その他の設立登記法人,宮城県,岩沼市,松ケ丘２丁目７番地の３,,04,211,9892456,,,,,,,2022-07-29,1,,,,,シンザンカイ,0
2493,9380001033011,新規,0,2022-07-29,2022-07-29,Ｔｏｈｏｋｕ　Ｓｕｓｔａｉｎａ　Ｌａｂｏ株式会社,,株式会社,福島県,いわき市,東田町１丁目２０番地の４,,07,204,9748212,,,,,,,2022-07-29,1,,,,,トウホクサステナラボ,0
2508,9430001087159,新規,0,2022-07-29,2022-07-29,株式会社イチヤママル,,株式会社,北海道,室蘭市,東町３丁目１番１２号,,01,205,0500083,,,,,,,2022-07-29,1,,,,,イチヤママル,0
2509,9430001087200,新規,0,2022-07-29,2022-07-29,株式会社Ｆｒｅｅ　Ｅｓｔａｔｅ,,株式会社,北海道,札幌市豊平区,平岸七条１３丁目２番３４－８０２号,,01,105,0620937,,,,,,,2022-07-29,1,,,,,フリーエステート,0
2512,9430005014522,新規,0,2022-07-29,2022-07-29,特定非営利活動法人コミュニティシンクタンクいんくるらぼ,,その他の設立登記法人,北海道,勇払郡安平町,追分青葉１丁目１４９、１５０番,,01,585,0591941,,,,,,,2022-07-29,1,,,,,コミュニティシンクタンクインクルラボ,0
2513,9450001013757,新規,0,2022-07-29,2022-07-29,株式会社北日本ホールディングス,,株式会社,北海道,旭川市,永山北二条８丁目９番地６,,01,204,0798452,,,,,,,2022-07-29,1,,,,,キタニホンホールディングス,0
2517,9470001019182,新規,0,2022-07-29,2022-07-29,みつば株式会社,,株式会社,香川県,高松市,福岡町４丁目６番２５号,,37,201,7600066,,,,,,,2022-07-29,1,,,,,ミツバ,0
2521,9480001011808,新規,0,2022-07-29,2022-07-29,株式会社ｔｗｏ‐Ｆａｃｅ,,株式会社,徳島県,徳島市,春日３丁目１番７号,,36,201,7700002,,,,,,,2022-07-29,1,,,,,ツーフェイス,0
