sequenceNumber,corporateNumber,process,correct,updateDate,changeDate,name,nameImageId,kind,prefectureName,cityName,streetNumber,addressImageId,prefectureCode,cityCode,postCode,addressOutside,addressOutsideImageId,closeDate,closeCause,successorCorporateNumber,changeCause,assignmentDate,latest,enName,enPrefectureName,enCityName,enAddressOutside,furigana,hihyoji
10,1010001227813,新規,0,2022-07-06,2022-07-06,株式会社ＰＯＬＹＶＡＬＥＮＴ,,株式会社,東京都,文京区,大塚３丁目２０番１号紅屋茗荷谷ビル６Ｆ,,13,105,1120012,,,,,,,2022-07-06,1,,,,,ポリバレント,0
24,1010401168310,新規,0,2022-07-06,2022-07-06,株式会社ボイドアセットマネジメント,,株式会社,東京都,港区,南青山２丁目２番１５号ウィン青山９４２,,13,103,1070062,,,,,,,2022-07-06,1,,,,,ボイドアセットマネジメント,0
25,1010401168327,新規,0,2022-07-06,2022-07-06,株式会社ｋｋｔｌａｂ,,株式会社,東京都,港区,浜松町２丁目２番１５号浜松町ダイヤビル２Ｆ,,13,103,1050013,,,,,,,2022-07-06,1,,,,,ケーケーティラボ,0
26,1010403028041,新規,0,2022-07-06,2022-07-06,ＲＢソーラーケープ合同会社,,合同会社,東京都,港区,虎ノ門３丁目２２番１０－２０１号,,13,103,1050001,,,,,,,2022-07-06,1,,,,,アールビーソーラーケープ,0
35,1010701042900,新規,0,2022-07-06,2022-07-06,株式会社大矢工務店,,株式会社,東京都,品川区,戸越６丁目１４番９号,,13,109,1420041,,,,,,,2022-07-06,1,,,,,オオヤコウムテン,0
36,1010701042917,新規,0,2022-07-06,2022-07-06,株式会社アラボレ,,株式会社,東京都,品川区,東五反田５丁目１６－１５－３０１,,13,109,1410022,,,,,,,2022-07-06,1,,,,,アラボレ,0
39,1010901051164,新規,0,2022-07-06,2022-07-06,Ｖｏｙａｇｅｒ　Ｊａｐａｎ株式会社,,株式会社,東京都,世田谷区,若林１丁目１８番１０号,,13,112,1540023,,,,,,,2022-07-06,1,,,,,ボイジャージャパン,0
40,1010901051172,新規,0,2022-07-06,2022-07-06,株式会社ｍｅｌｄ,,株式会社,東京都,世田谷区,上北沢４丁目３３番２１号ヴィラ・ロンド３０４,,13,112,1560057,,,,,,,2022-07-06,1,,,,,メルド,0
41,1011001148470,新規,0,2022-07-06,2022-07-06,株式会社ＤＩＭＯＲＰＨ,,株式会社,東京都,渋谷区,渋谷１丁目７番５号青山セブンハイツ２０５,,13,113,1500002,,,,,,,2022-07-06,1,,,,,ディモルフ,0
42,1011001148487,新規,0,2022-07-06,2022-07-06,株式会社ｓａｉｃｏｒｏｍ,,株式会社,東京都,目黒区,青葉台３丁目３番１１号ＭＩＤＯＲＩ．ｓｏ２Ｆ,,13,110,1530042,,,,,,,2022-07-06,1,,,,,サイコロ,0
55,1011101099457,新規,0,2022-07-06,2022-07-06,東海商事株式会社,,株式会社,東京都,新宿区,西新宿１丁目１４－６西勢ビル三階,,13,104,1600023,,,,,,,2022-07-06,1,,,,,トウカイショウジ,0
59,1011201023936,新規,0,2022-07-06,2022-07-06,株式会社スマートエステート,,株式会社,東京都,中野区,中野２丁目２６番１号,,13,114,1640001,,,,,,,2022-07-06,1,,,,,スマートエステート,0
63,1011301027894,新規,0,2022-07-06,2022-07-06,藍山谷東京株式会社,,株式会社,東京都,杉並区,梅里２丁目２５番１３号高円寺プラザ２０３号,,13,115,1660011,,,,,,,2022-07-06,1,,,,,ランサンコクトウキョウ,0
64,1011303004462,新規,0,2022-07-06,2022-07-06,合同会社Ｄｅｓｉｇｎ,,合同会社,東京都,杉並区,和泉１丁目３１番７－２０６号日神デュオステージ代田橋和泉通り,,13,115,1680063,,,,,,,2022-07-06,1,,,,,デザイン,0
66,1011501028230,新規,0,2022-07-06,2022-07-06,株式会社平井商店,,株式会社,東京都,北区,王子２丁目８番１６号,,13,117,1140002,,,,,,,2022-07-06,1,,,,,ヒライショウテン,0
68,1011601026076,新規,0,2022-07-06,2022-07-06,株式会社キュアハンズ,,株式会社,東京都,練馬区,石神井町３丁目２０番１１号,,13,120,1770041,,,,,,,2022-07-06,1,,,,,キュアハンズ,0
70,1011603003643,新規,0,2022-07-06,2022-07-06,合同会社ウリカタ,,合同会社,東京都,練馬区,早宮２丁目１８－２５－３０３,,13,120,1790085,,,,,,,2022-07-06,1,,,,,ウリカタ,0
83,1012401039383,新規,0,2022-07-06,2022-07-06,株式会社ｆａｃｉｏ　ｅｓ　ｆａｓｃｉｏ,,株式会社,東京都,府中市,若松町４丁目１５番地の７,,13,206,1830005,,,,,,,2022-07-06,1,,,,,ファシオファシオ,0
85,1012403005466,新規,0,2022-07-06,2022-07-06,合同会社ＨＡＲＵ,,合同会社,東京都,府中市,浅間町４丁目２１番地の８,,13,206,1830001,,,,,,,2022-07-06,1,,,,,ハル,0
87,1013101008967,新規,0,2022-07-06,2022-07-06,株式会社ＫＲＰＬＡＮ,,株式会社,東京都,青梅市,千ヶ瀬町２丁目１７１番地,,13,205,1980043,,,,,,,2022-07-06,1,,,,,ケーアールプラン,0
94,1013301049349,新規,0,2022-07-06,2022-07-06,ｄｕｕｘ株式会社,,株式会社,東京都,豊島区,西池袋４丁目２８番７号,,13,116,1710021,,,,,,,2022-07-06,1,,,,,ドゥークス,0
102,1020001147184,新規,0,2022-07-06,2022-07-06,株式会社アオト,,株式会社,神奈川県,横浜市中区,若葉町２丁目２４番地,,14,104,2310056,,,,,,,2022-07-06,1,,,,,アオト,0
103,1020001147201,新規,0,2022-07-06,2022-07-06,明光警備株式会社,,株式会社,神奈川県,川崎市川崎区,砂子２丁目８番地１シャンボール川崎砂子６０３,,14,131,2100006,,,,,,,2022-07-06,1,,,,,メイコウケイビ,0
104,1020001147226,新規,0,2022-07-06,2022-07-06,株式会社Ｐｌａｎ・Ｂ,,株式会社,神奈川県,横浜市神奈川区,台町１１番地２９ＭＩビル２Ｆ,,14,102,2210834,,,,,,,2022-07-06,1,,,,,プランビー,0
105,1020001147242,新規,0,2022-07-06,2022-07-06,株式会社ファイブドア,,株式会社,神奈川県,横浜市南区,大岡３丁目１３番１６号,,14,105,2320061,,,,,,,2022-07-06,1,,,,,ファイブドア,0
110,1020003022055,新規,0,2022-07-06,2022-07-06,合同会社ＬＵＣＫ,,合同会社,神奈川県,川崎市川崎区,藤崎２丁目１７番１０号マリナージュ藤崎１０３,,14,131,2100804,,,,,,,2022-07-06,1,,,,,ラック,0
117,1021001076448,新規,0,2022-07-06,2022-07-06,株式会社ＭＩＮＡＩ,,株式会社,神奈川県,綾瀬市,寺尾本町１丁目１８番５号,,14,218,2521133,,,,,,,2022-07-06,1,,,,,ミナイ,0
118,1021001076456,新規,0,2022-07-06,2022-07-06,株式会社レオ,,株式会社,神奈川県,足柄上郡大井町,金子１６６５番地１,,14,362,2580019,,,,,,,2022-07-06,1,,,,,レオ,0
119,1021001076464,新規,0,2022-07-06,2022-07-06,株式会社ナイデル,,株式会社,神奈川県,逗子市,小坪５丁目２３－４－４７０７,,14,208,2490008,,,,,,,2022-07-06,1,,,,,ナイデル,0
120,1021001076497,新規,0,2022-07-06,2022-07-06,株式会社テイクス,,株式会社,神奈川県,相模原市中央区,田名３２５８－３番地エスポワール１０２号,,14,152,2520244,,,,,,,2022-07-06,1,,,,,テイクス,0
121,1021003011898,新規,0,2022-07-06,2022-07-06,フレデリック合同会社,,合同会社,神奈川県,鎌倉市,御成町９番２５号１０２,,14,204,2480012,,,,,,,2022-07-06,1,,,,,フレデリック,0
122,1021003011907,新規,0,2022-07-06,2022-07-06,合同会社五十嵐工業,,合同会社,神奈川県,藤沢市,長後１４０１番地の１７,,14,205,2520801,,,,,,,2022-07-06,1,,,,,イガラシコウギョウ,0
131,1030001148999,新規,0,2022-07-06,2022-07-06,株式会社ＲｅＨｅａｌ,,株式会社,埼玉県,本庄市,日の出４丁目４－３３,,11,211,3670022,,,,,,,2022-07-06,1,,,,,リヒール,0
132,1030001149031,新規,0,2022-07-06,2022-07-06,株式会社ＰＳサイド,,株式会社,埼玉県,川口市,芝西１丁目２４番８号,,11,203,3330855,,,,,,,2022-07-06,1,,,,,ピーエスサイド,0
133,1030001149080,新規,0,2022-07-06,2022-07-06,バックオフィスファクトリー株式会社,,株式会社,埼玉県,鶴ヶ島市,脚折町５丁目６番１号,,11,241,3502211,,,,,,,2022-07-06,1,,,,,バックオフィスファクトリー,0
138,1040001124074,新規,0,2022-07-06,2022-07-06,株式会社いちかわ本八幡店,,株式会社,千葉県,市川市,南八幡４丁目１６番１５号メゾン・ド・一鶴１階Ｃ,,12,203,2720023,,,,,,,2022-07-06,1,,,,,イチカワモトヤワタテン,0
139,1040001124082,新規,0,2022-07-06,2022-07-06,株式会社芝陽一郎事務所,,株式会社,千葉県,夷隅郡御宿町,新町３８１,,12,443,2995103,,,,,,,2022-07-06,1,,,,,シバヨウイチロウジムショ,0
140,1040001124090,新規,0,2022-07-06,2022-07-06,株式会社八兵衛商店,,株式会社,千葉県,船橋市,馬込町９１０番地,,12,204,2730851,,,,,,,2022-07-06,1,,,,,ハチベエショウテン,0
141,1040001124099,新規,0,2022-07-06,2022-07-06,株式会社つくも設計,,株式会社,千葉県,船橋市,高根町１０７５番地２１,,12,204,2740817,,,,,,,2022-07-06,1,,,,,ツクモセッケイ,0
142,1040001124108,新規,0,2022-07-06,2022-07-06,株式会社ＲＭ．ＤＡＹ,,株式会社,千葉県,習志野市,谷津７丁目８番１号,,12,216,2750026,,,,,,,2022-07-06,1,,,,,アールエムデイ,0
143,1040001124116,新規,0,2022-07-06,2022-07-06,株式会社ＮＳＳ,,株式会社,千葉県,市川市,南大野２丁目１７番２４号,,12,203,2720804,,,,,,,2022-07-06,1,,,,,エヌエスエス,0
145,1040003020404,新規,0,2022-07-06,2022-07-06,ｃｙｂｅｒ　ｃｈｅｆ　ｋｉｔｃｈｅｎ合同会社,,合同会社,千葉県,木更津市,港南台１丁目１８番地１５,,12,206,2920827,,,,,,,2022-07-06,1,,,,,サイバーシェフキッチン,0
148,1050001051326,新規,0,2022-07-06,2022-07-06,株式会社ゴーゴーレーシング,,株式会社,茨城県,水戸市,住吉町１１１番地３,,08,201,3100844,,,,,,,2022-07-06,1,,,,,ゴーゴーレーシング,0
149,1050001051334,新規,0,2022-07-06,2022-07-06,株式会社Ｊｏａｎｎｅ＆Ｃｏ．,,株式会社,茨城県,守谷市,松ケ丘３丁目６番地５,,08,224,3020127,,,,,,,2022-07-06,1,,,,,ジョアンアンドコー,0
150,1050001051342,新規,0,2022-07-06,2022-07-06,小野酒店株式会社,,株式会社,茨城県,つくば市,研究学園３丁目１９番地１,,08,220,3050817,,,,,,,2022-07-06,1,,,,,オノサケテン,0
151,1050001051350,新規,0,2022-07-06,2022-07-06,篠崎設備株式会社,00127111,株式会社,茨城県,常総市,本豊田５３番地,,08,211,3002711,,,,,,,2022-07-06,1,,,,,シノザキセツビ,0
152,1050001051359,新規,0,2022-07-06,2022-07-06,株式会社Ｍｉｘｔｕｒｅ,,株式会社,茨城県,つくば市,高野台２丁目４番地３グランドパレスＮＳ－７７、９０３号,,08,220,3050074,,,,,,,2022-07-06,1,,,,,ミクスチャー,0
153,1050003006658,新規,0,2022-07-06,2022-07-06,合同会社ＫＯＤＡ貿易,,合同会社,茨城県,つくば市,梅園２丁目１番１５号,,08,220,3050045,,,,,,,2022-07-06,1,,,,,コーダボウエキ,0
154,1050003006666,新規,0,2022-07-06,2022-07-06,合同会社ＬＩＢＲＡ,,合同会社,茨城県,取手市,寺田５０５５番地１,,08,217,3020021,,,,,,,2022-07-06,1,,,,,リブラ,0
163,1080001025062,新規,0,2022-07-06,2022-07-06,株式会社ティーエスホーム,,株式会社,静岡県,静岡市駿河区,高松２丁目６番１５号,,22,102,4228034,,,,,,,2022-07-06,1,,,,,ティーエスホーム,0
169,1080401025926,新規,0,2022-07-06,2022-07-06,ｅｍｉｌｅ株式会社,,株式会社,静岡県,掛川市,大坂５３９番地,,22,213,4371421,,,,,,,2022-07-06,1,,,,,エミール,0
171,1080403004580,新規,0,2022-07-06,2022-07-06,合同会社シン・システム,,合同会社,静岡県,袋井市,堀越１１３０番地の６ＴＭビル１０２号,,22,216,4370065,,,,,,,2022-07-06,1,,,,,シンシステム,0
178,1110001036782,新規,0,2022-07-06,2022-07-06,株式会社遠藤総設,,株式会社,新潟県,上越市,稲田４丁目３番１２号,,15,222,9430154,,,,,,,2022-07-06,1,,,,,エンドウソウセツ,0
179,1110001036799,新規,0,2022-07-06,2022-07-06,株式会社グリュック,,株式会社,新潟県,村上市,安良町４番１２号,,15,212,9580846,,,,,,,2022-07-06,1,,,,,グリュック,0
189,1120001247131,新規,0,2022-07-06,2022-07-06,株式会社留学ネット,,株式会社,大阪府,大阪市西区,新町１丁目４－２６四ツ橋グランドビル６Ｆ,,27,106,5500013,,,,,,,2022-07-06,1,,,,,リュウガクネット,0
190,1120001247148,新規,0,2022-07-06,2022-07-06,株式会社大阪シミズ,,株式会社,大阪府,大阪市中央区,博労町４丁目４番１１号,,27,128,5410059,,,,,,,2022-07-06,1,,,,,オオサカシミズ,0
191,1120001247156,新規,0,2022-07-06,2022-07-06,公和不動産株式会社,,株式会社,大阪府,大阪市城東区,諏訪１丁目１３番２２号ＫＤ諏訪ハイツ２０１,,27,118,5360021,,,,,,,2022-07-06,1,,,,,コウワフドウサン,0
192,1120001247172,新規,0,2022-07-06,2022-07-06,株式会社Ｖｉｃｔｏｒｉａ　Ｈａｒｂｏｕｒ,,株式会社,大阪府,大阪市浪速区,大国２丁目４番１６号,,27,111,5560014,,,,,,,2022-07-06,1,,,,,ヴィクトリアハーバー,0
193,1120001247189,新規,0,2022-07-06,2022-07-06,山本商店株式会社,,株式会社,大阪府,守口市,大枝西町２番９号,,27,209,5700054,,,,,,,2022-07-06,1,,,,,ヤマモトショウテン,0
194,1120001247222,新規,0,2022-07-06,2022-07-06,二次資源電力株式会社,,株式会社,大阪府,大阪市中央区,久太郎町１丁目９番４号,,27,128,5410056,,,,,,,2022-07-06,1,,,,,ニジシゲンデンリョク,0
199,1120005023025,新規,0,2022-07-06,2022-07-06,Ｔ．Ｋ社会保険労務士法人,,その他の設立登記法人,大阪府,大阪市中央区,内平野町２丁目４番５号,,27,128,5400037,,,,,,,2022-07-06,1,,,,,ティーケー,0
200,1120101065838,新規,0,2022-07-06,2022-07-06,株式会社イーオニキス,,株式会社,大阪府,羽曳野市,東阪田３６２番地の９,,27,222,5830846,,,,,,,2022-07-06,1,,,,,イーオニキス,0
202,1122001036027,新規,0,2022-07-06,2022-07-06,株式会社モリスワン,,株式会社,大阪府,八尾市,志紀町南１丁目５２番地,,27,212,5810033,,,,,,,2022-07-06,1,,,,,モリスワン,0
209,1140001126606,新規,0,2022-07-06,2022-07-06,株式会社ショウ電工,,株式会社,兵庫県,神戸市中央区,坂口通３丁目１番２号,,28,110,6510062,,,,,,,2022-07-06,1,,,,,ショウデンコウ,0
213,1170001017174,新規,0,2022-07-06,2022-07-06,株式会社ＢＩＲＤＣＡＬＬ　ＦＩＥＬＤ,,株式会社,和歌山県,紀の川市,古和田４９９番地１,,30,208,6496432,,,,,,,2022-07-06,1,,,,,バードコールフィールド,0
214,1170003001746,新規,0,2022-07-06,2022-07-06,合同会社ＥｎｊｏｙＹｏｕｒＬｉｆｅ,,合同会社,和歌山県,和歌山市,湊通丁北１丁目１番地３,,30,201,6408262,,,,,,,2022-07-06,1,,,,,エンジョイユアライフ,0
219,1180001152029,新規,0,2022-07-06,2022-07-06,株式会社Ｄ‐ｓｔｙｌｅ,,株式会社,愛知県,名古屋市中川区,東起町２丁目５５番地１エクセルハイムＮ１０１,,23,110,4540935,,,,,,,2022-07-06,1,,,,,ディースタイル,0
220,1180001152053,新規,0,2022-07-06,2022-07-06,株式会社ＡＴＫロジリンクスＨＤ,,株式会社,愛知県,名古屋市南区,豊田５丁目１７番１３号,,23,112,4570841,,,,,,,2022-07-06,1,,,,,エイティーケイロジリンクスホールディングス,0
221,1180001152061,新規,0,2022-07-06,2022-07-06,株式会社ＳＫ工業,,株式会社,愛知県,名古屋市緑区,兵庫１丁目６０８番地の１,,23,114,4580802,,,,,,,2022-07-06,1,,,,,エスケイコウギョウ,0
222,1180001152094,新規,0,2022-07-06,2022-07-06,株式会社ＩＴＰエステート,,株式会社,愛知県,名古屋市中村区,名駅南３丁目３番３３号,,23,105,4500003,,,,,,,2022-07-06,1,,,,,アイティーピーエステート,0
223,1180003024011,新規,0,2022-07-06,2022-07-06,合同会社ＢＧコンサルティング,,合同会社,愛知県,名古屋市西区,幅下１丁目９番１０号,,23,104,4510041,,,,,,,2022-07-06,1,,,,,ビージーコンサルティング,0
224,1180005019827,新規,0,2022-07-06,2022-07-06,一般社団法人日本カプセルトイ協会,,その他の設立登記法人,愛知県,名古屋市緑区,徳重３丁目２５０８番地,,23,114,4580815,,,,,,,2022-07-06,1,,,,,ニホンカプセルトイキョウカイ,0
225,1180005019835,新規,0,2022-07-06,2022-07-06,八事財産税理士法人,,その他の設立登記法人,愛知県,名古屋市天白区,表山１丁目１１８番地,,23,116,4680069,,,,,,,2022-07-06,1,,,,,ヤゴトザイサン,0
226,1180301036385,新規,0,2022-07-06,2022-07-06,正龍機工株式会社,,株式会社,愛知県,知立市,西町落合２８番地１ベルグリシーヌ４０２号,,23,225,4720023,,,,,,,2022-07-06,1,,,,,セイリュウキコウ,0
229,1190003004029,新規,0,2022-07-06,2022-07-06,合同会社ＰＢグループ,,合同会社,三重県,四日市市,川島町９９９番地１０,,24,202,5120934,,,,,,,2022-07-06,1,,,,,ピービーグループ,0
236,1200001040239,新規,0,2022-07-06,2022-07-06,株式会社３ｒｄｓｔｏｒｙ,,株式会社,岐阜県,中津川市,中津川７７７番地の３９,,21,206,5080001,,,,,,,2022-07-06,1,,,,,サードストーリー,0
239,1210001018985,新規,0,2022-07-06,2022-07-06,株式会社ファイティー,,株式会社,福井県,坂井市,丸岡町高柳第１６号１０６番地１０,,18,210,9100373,,,,,,,2022-07-06,1,,,,,ファイティー,0
256,1240001060019,新規,0,2022-07-06,2022-07-06,株式会社勇興建設,,株式会社,広島県,安芸郡熊野町,出来庭１丁目９番２０号,,34,307,7314221,,,,,,,2022-07-06,1,,,,,ユウコウケンセツ,0
257,1240001060035,新規,0,2022-07-06,2022-07-06,株式会社ＨＩＫＡＲＩ,,株式会社,広島県,福山市,神辺町川北２３８番地１,,34,207,7210000,,,,,,,2022-07-06,1,,,,,ヒカリ,0
258,1240001060051,新規,0,2022-07-06,2022-07-06,株式会社安全警備,,株式会社,広島県,三原市,古浜１丁目７番２０号,,34,204,7230013,,,,,,,2022-07-06,1,,,,,アンゼンケイビ,0
259,1240003005698,新規,0,2022-07-06,2022-07-06,信建創合同会社,,合同会社,広島県,広島市西区,楠木町２丁目１３番１号,,34,104,7330002,,,,,,,2022-07-06,1,,,,,シンケンソウ,0
263,1260001036999,新規,0,2022-07-06,2022-07-06,坂本工業グループ株式会社,,株式会社,岡山県,津山市,草加部松尾峪１１７０番地の６,,33,203,7081117,,,,,,,2022-07-06,1,,,,,サカモトコウギョウグループ,0
264,1260001037023,新規,0,2022-07-06,2022-07-06,株式会社楽しんや,,株式会社,岡山県,総社市,南溝手３８９番地５,,33,208,7191113,,,,,,,2022-07-06,1,,,,,タノシンヤ,0
265,1270001008576,新規,0,2022-07-06,2022-07-06,ｋｅｙａｋｉ株式会社,,株式会社,鳥取県,鳥取市,富安２丁目７４番地アルファステイツ鳥取駅南１３０３号,,31,201,6800845,,,,,,,2022-07-06,1,,,,,ケヤキ,0
266,1280001008732,新規,0,2022-07-06,2022-07-06,株式会社ＨＩＤＡＫＡ,,株式会社,島根県,大田市,大森町ハ９０番地１,,32,205,6940305,,,,,,,2022-07-06,1,,,,,ヒダカ,0
270,1290001098120,新規,0,2022-07-06,2022-07-06,株式会社ＳＨＯＷＩＣＨＩＲＯＣＫ,,株式会社,福岡県,福岡市中央区,警固１丁目１５番３１号３０１号室,,40,133,8100023,,,,,,,2022-07-06,1,,,,,ショウイチロック,0
271,1290001098178,新規,0,2022-07-06,2022-07-06,株式会社ＫＡＺＵＯ,,株式会社,福岡県,久留米市,野中町１４５２番地３,,40,203,8390862,,,,,,,2022-07-06,1,,,,,カズオ,0
276,1290801028697,新規,0,2022-07-06,2022-07-06,株式会社はぁとふる,,株式会社,福岡県,田川郡福智町,伊方３７０６番地１,,40,610,8221211,,,,,,,2022-07-06,1,,,,,ハァトフル,0
282,1330001029896,新規,0,2022-07-06,2022-07-06,株式会社Ａーｆａｉｍ,,株式会社,熊本県,山鹿市,方保田２９１番地８,,43,208,8610382,,,,,,,2022-07-06,1,,,,,エーフェイム,0
286,1340001024863,新規,0,2022-07-06,2022-07-06,株式会社ｏｌｄｉｅ‐ｖｉｌｌａｇｅ,,株式会社,鹿児島県,大島郡知名町,大字余多２９番地３,,46,534,8919201,,,,,,,2022-07-06,1,,,,,オールディビレッジ,0
288,1340003003849,新規,0,2022-07-06,2022-07-06,合同会社くわきの鍼灸・筋整体院,,合同会社,鹿児島県,日置市,東市来町長里１８０１番地４,,46,216,8992202,,,,,,,2022-07-06,1,,,,,クワキノシンキュウキンセイタイイン,0
292,1370001048744,新規,0,2022-07-06,2022-07-06,株式会社ライブトレイル,,株式会社,宮城県,仙台市青葉区,一番町２丁目８番１０号,,04,101,9800811,,,,,,,2022-07-06,1,,,,,ライブトレイル,0
293,1370001048752,新規,0,2022-07-06,2022-07-06,鈴木防災株式会社,,株式会社,宮城県,仙台市若林区,沖野６丁目１－３４－Ｉ－２０６,00127104,04,103,9840831,,,,,,,2022-07-06,1,,,,,スズキボウサイ,0
300,1390001016955,新規,0,2022-07-06,2022-07-06,株式会社安部自動車ＳＫ,,株式会社,山形県,山形市,大字七浦４９５番地,,06,201,9902171,,,,,,,2022-07-06,1,,,,,アベジドウシャエスケイ,0
303,1400001015939,新規,0,2022-07-06,2022-07-06,株式会社八幡平グリーンパワー,,株式会社,岩手県,八幡平市,大更第２４地割９番地１,,03,214,0287111,,,,,,,2022-07-06,1,,,,,ハチマンタイグリーンパワー,0
306,1430003014069,新規,0,2022-07-06,2022-07-06,Ｗｈｉｓｐｏｎ合同会社,,合同会社,北海道,札幌市白石区,菊水一条４丁目４番８－１０３号,,01,104,0030801,,,,,,,2022-07-06,1,,,,,ウィスポン,0
307,1430005014496,新規,0,2022-07-06,2022-07-06,一般社団法人ＳＰＯＲＴＳ　ＣＯＯＲＤＩＮＡＴＥ　ＪＡＰＡＮ,,その他の設立登記法人,北海道,札幌市中央区,宮の森１２７４番地札幌オリンピックミュージアム内,,01,101,0640958,,,,,,,2022-07-06,1,,,,,スポーツコーディネイトジャパン,0
309,1460101007211,新規,0,2022-07-06,2022-07-06,株式会社センチュリオン,,株式会社,北海道,帯広市,大通南１３丁目１５番地,,01,207,0800010,,,,,,,2022-07-06,1,,,,,センチュリオン,0
318,1500001024319,新規,0,2022-07-06,2022-07-06,株式会社ＭＯｒｉＴＯ　Ｆａｒｍｉｎｇ,,株式会社,愛媛県,今治市,菊間町佐方１１２９番地,,38,202,7992301,,,,,,,2022-07-06,1,,,,,モリトファーミング,0
320,1700150110790,新規,0,2022-07-06,2022-07-06,Ｌｕｍｂｉｎｉ　Ｈｏｌｉｄａｙｓ　Ｔｏｕｒｓ＆Ｔｒａｖｅｌｓ　Ｐｖｔ．Ｌｔｄ．,,外国会社等,東京都,杉並区,成田東５丁目３４番２５号ムスイソウ１０２号室,,13,115,1660015,ネパール連邦民主共和国カトマンズ、タメルの２９区,,,,,,2022-07-06,1,,,,,ルンビニホリデイズツアーズアンドトラベルズプライベートリミテツド,0
330,2010001227787,新規,0,2022-07-06,2022-07-06,株式会社ＫＵＢＩＬＡＢ,,株式会社,東京都,中央区,湊２丁目１６番２２号,,13,102,1040043,,,,,,,2022-07-06,1,,,,,クビラボ,0
331,2010001227795,新規,0,2022-07-06,2022-07-06,ＭＣクリーンエナジー株式会社,,株式会社,東京都,千代田区,丸の内２丁目６番１号,,13,101,1000005,,,,,,,2022-07-06,1,,,,,エムシークリーンエナジー,0
332,2010001227845,新規,0,2022-07-06,2022-07-06,株式会社リヴァーレ,,株式会社,東京都,千代田区,九段南１丁目５番６号りそな九段ビル５階ＫＳフロア,,13,101,1020074,,,,,,,2022-07-06,1,,,,,リヴァーレ,0
339,2010401168326,新規,0,2022-07-06,2022-07-06,株式会社古道,,株式会社,東京都,港区,南青山３丁目１８番３号,,13,103,1070062,,,,,,,2022-07-06,1,,,,,コドウ,0
340,2010401168359,新規,0,2022-07-06,2022-07-06,ＮｅＸＴ株式会社,,株式会社,東京都,港区,西麻布３丁目１３－３カスタリア広尾３０２,,13,103,1060031,,,,,,,2022-07-06,1,,,,,ネクスト,0
348,2010701042899,新規,0,2022-07-06,2022-07-06,グリーンスカイホーム株式会社,,株式会社,東京都,品川区,東五反田１丁目６番１号,,13,109,1410022,,,,,,,2022-07-06,1,,,,,グリーンスカイホーム,0
349,2010901051155,新規,0,2022-07-06,2022-07-06,株式会社ＷＡＶＥ,,株式会社,東京都,世田谷区,太子堂４丁目２３番１５－５０１号,,13,112,1540004,,,,,,,2022-07-06,1,,,,,ウェーブ,0
350,2010901051163,新規,0,2022-07-06,2022-07-06,光明株式会社,,株式会社,東京都,世田谷区,成城７丁目２９番３号,,13,112,1570066,,,,,,,2022-07-06,1,,,,,コウミョウ,0
351,2010903007502,新規,0,2022-07-06,2022-07-06,合同会社ｅｔｏｋｕｍｉ,,合同会社,東京都,世田谷区,下馬１丁目２３番８－６０２号,,13,112,1540002,,,,,,,2022-07-06,1,,,,,エトクミ,0
356,2011001148511,新規,0,2022-07-06,2022-07-06,ジョイシキ株式会社,,株式会社,東京都,渋谷区,神宮前６丁目３５番３号コープオリンピア２階（２０７）,,13,113,1500001,,,,,,,2022-07-06,1,,,,,ジョイシキ,0
357,2011001148528,新規,0,2022-07-06,2022-07-06,株式会社ＴＤ,,株式会社,東京都,目黒区,青葉台１丁目１１番１４号,,13,110,1530042,,,,,,,2022-07-06,1,,,,,ティーディー,0
359,2011003014983,新規,0,2022-07-06,2022-07-06,合同会社ＡＴ,,合同会社,東京都,渋谷区,道玄坂２丁目２０番６号道玄坂リノベーションビル２０１,,13,113,1500043,,,,,,,2022-07-06,1,,,,,エーティー,0
362,2011103011922,新規,0,2022-07-06,2022-07-06,ティー・コンサルティング合同会社,,合同会社,東京都,新宿区,西新宿３丁目３番１３号西新宿水間ビル６階,,13,104,1600023,,,,,,,2022-07-06,1,,,,,ティーコンサルティング,0
363,2011201023943,新規,0,2022-07-06,2022-07-06,株式会社ＲＥＦＩＴ,,株式会社,東京都,中野区,中野１丁目６２番７号ＪＫ中野３０７,,13,114,1640001,,,,,,,2022-07-06,1,,,,,リフィット,0
367,2011401024378,新規,0,2022-07-06,2022-07-06,株式会社Ｋ．Ｓ．Ｇ,,株式会社,東京都,板橋区,赤塚２丁目６番１号,,13,119,1750092,,,,,,,2022-07-06,1,,,,,ケーエスジー,0
370,2011503005210,新規,0,2022-07-06,2022-07-06,ＣＧ合同会社,,合同会社,東京都,荒川区,荒川７丁目６番１０号林ビル５階,,13,118,1160002,,,,,,,2022-07-06,1,,,,,シージー,0
373,2011601026083,新規,0,2022-07-06,2022-07-06,株式会社ＫＥＡＸ,,株式会社,東京都,練馬区,豊玉南２丁目２６番１３－７０３号,,13,120,1760014,,,,,,,2022-07-06,1,,,,,ケアクス,0
374,2011601026091,新規,0,2022-07-06,2022-07-06,株式会社安,,株式会社,東京都,練馬区,中村北４丁目２番２号,,13,120,1760023,,,,,,,2022-07-06,1,,,,,アン,0
375,2011603003642,新規,0,2022-07-06,2022-07-06,合同会社ＩＳＨＩＮ,,合同会社,東京都,練馬区,上石神井４丁目１６－２,,13,120,1770044,,,,,,,2022-07-06,1,,,,,イシン,0
376,2011701025431,新規,0,2022-07-06,2022-07-06,ＡＣファシリティーズ株式会社,,株式会社,東京都,江戸川区,中葛西３丁目３６番１１号９Ｆ,,13,123,1340083,,,,,,,2022-07-06,1,,,,,エーシーファシリティーズ,0
377,2011703003187,新規,0,2022-07-06,2022-07-06,合同会社ＲＫＫ,,合同会社,東京都,江戸川区,南小岩６丁目２７番６号ユーフォリア１０３,,13,123,1330056,,,,,,,2022-07-06,1,,,,,アールケーケー,0
379,2011801040958,新規,0,2022-07-06,2022-07-06,永昌商事株式会社,,株式会社,東京都,足立区,平野２丁目７番１８号,,13,121,1210076,,,,,,,2022-07-06,1,,,,,エイショウショウジ,0
383,2012403005457,新規,0,2022-07-06,2022-07-06,合同会社ＴａｋａｒａＳｔｙｌｅ,,合同会社,東京都,狛江市,元和泉１丁目１６番１１－２０５号,,13,219,2010013,,,,,,,2022-07-06,1,,,,,タカラスタイル,0
384,2012701017138,新規,0,2022-07-06,2022-07-06,ＣＲＥａＴＥ興産株式会社,,株式会社,東京都,東久留米市,南沢５丁目１９番８－１００９号,,13,222,2030023,,,,,,,2022-07-06,1,,,,,クリエイトコウサン,0
385,2012801021691,新規,0,2022-07-06,2022-07-06,株式会社ケーテック,,株式会社,東京都,立川市,幸町６丁目３１番地の２２,,13,202,1900002,,,,,,,2022-07-06,1,,,,,ケーテック,0
387,2013301049348,新規,0,2022-07-06,2022-07-06,株式会社アヤメ,,株式会社,東京都,豊島区,南大塚１丁目５１番９号,,13,116,1700005,,,,,,,2022-07-06,1,,,,,アヤメ,0
389,2013305003359,新規,0,2022-07-06,2022-07-06,東京ビザ専門行政書士法人,,その他の設立登記法人,東京都,豊島区,南池袋２丁目１８番２号池袋南ビル２階,,13,116,1710022,,,,,,,2022-07-06,1,,,,,トウキョウビザセンモン,0
396,2020001147191,新規,0,2022-07-06,2022-07-06,株式会社パートナー,,株式会社,神奈川県,川崎市多摩区,菅北浦３丁目１０番４７号,,14,135,2140008,,,,,,,2022-07-06,1,,,,,パートナー,0
397,2020001147217,新規,0,2022-07-06,2022-07-06,株式会社与那嶺防水,,株式会社,神奈川県,川崎市高津区,千年３５７番地３,,14,134,2130022,,,,,,,2022-07-06,1,,,,,ヨナミネボウスイ,0
398,2020001147225,新規,0,2022-07-06,2022-07-06,株式会社ＫｅｅｐＷａｌｋｉｎｇ,,株式会社,神奈川県,横浜市神奈川区,神奈川２丁目１９番地９,,14,102,2210045,,,,,,,2022-07-06,1,,,,,キープウォーキング,0
399,2020001147233,新規,0,2022-07-06,2022-07-06,株式会社ＳＥＥＤ,,株式会社,神奈川県,横浜市青葉区,美しが丘２丁目１７番地４０,,14,117,2250002,,,,,,,2022-07-06,1,,,,,シード,0
404,2020003022046,新規,0,2022-07-06,2022-07-06,Ｂｉａｎｃａ合同会社,,合同会社,神奈川県,横浜市磯子区,坂下町１１番３０,,14,107,2350003,,,,,,,2022-07-06,1,,,,,ビアンカ,0
405,2020003022054,新規,0,2022-07-06,2022-07-06,清田合同会社,,合同会社,神奈川県,横浜市神奈川区,大口通１３５番地１,,14,102,2210002,,,,,,,2022-07-06,1,,,,,セイタ,0
409,2021003011864,新規,0,2022-07-06,2022-07-06,グローバルトラスト９９合同会社,,合同会社,神奈川県,相模原市緑区,橋本１丁目１６－１７,,14,151,2520143,,,,,,,2022-07-06,1,,,,,グローバルトラストキュウジュウキュウ,0
410,2021003011906,新規,0,2022-07-06,2022-07-06,合同会社慈眼堂,,合同会社,神奈川県,茅ヶ崎市,中海岸１丁目２番７－１０６号,,14,207,2530055,,,,,,,2022-07-06,1,,,,,ジゲンドウ,0
415,2030001149022,新規,0,2022-07-06,2022-07-06,株式会社コヤナギ,,株式会社,埼玉県,東松山市,加美町１３番地４,,11,212,3550011,,,,,,,2022-07-06,1,,,,,コヤナギ,0
416,2030001149088,新規,0,2022-07-06,2022-07-06,株式会社ＢＥＭＡＳ,,株式会社,埼玉県,草加市,高砂１丁目２番１－２０３号,,11,221,3400015,,,,,,,2022-07-06,1,,,,,ビーマス,0
418,2030003019727,新規,0,2022-07-06,2022-07-06,合同会社カーサ・ダ・ヴィンチ,,合同会社,埼玉県,さいたま市浦和区,大原１丁目１番２号,,11,107,3300046,,,,,,,2022-07-06,1,,,,,カーサダヴィンチ,0
419,2030003019743,新規,0,2022-07-06,2022-07-06,Ｒｅｃ合同会社,,合同会社,埼玉県,さいたま市南区,太田窪５丁目１８－１８,,11,108,3360015,,,,,,,2022-07-06,1,,,,,,0
430,2040001124098,新規,0,2022-07-06,2022-07-06,株式会社ＩＮＳＩＤＥ‐ＳＥＡ,,株式会社,千葉県,船橋市,印内町６２３番地５ヴァイスハイム西船２０３号,,12,204,2730025,,,,,,,2022-07-06,1,,,,,インサイドシー,0
431,2040001124107,新規,0,2022-07-06,2022-07-06,株式会社あけぼの成田国際研修センター,,株式会社,千葉県,富里市,日吉台３丁目５番１号,,12,233,2860201,,,,,,,2022-07-06,1,,,,,アケボノナリタコクサイケンシュウセンター,0
432,2040001124115,新規,0,2022-07-06,2022-07-06,ＡｄｍｉｒｅＸ株式会社,,株式会社,千葉県,柏市,若柴１７３番地８柏の葉キャンパス１５１街区Ｅ－３２０１,,12,217,2770871,,,,,,,2022-07-06,1,,,,,アドミレックス,0
440,2050001051333,新規,0,2022-07-06,2022-07-06,株式会社江口タイル,,株式会社,茨城県,潮来市,辻４５７番地８,00127123,08,223,3112421,,,,,,,2022-07-06,1,,,,,エグチタイル,0
441,2050003006657,新規,0,2022-07-06,2022-07-06,ＣＨＯＵＤＲＡＹ　ＴＲＡＤＩＮＧ合同会社,,合同会社,茨城県,水戸市,元吉田町１７４５番地の１０コーポ８０Ｂ棟２０１号,,08,201,3100836,,,,,,,2022-07-06,1,,,,,チョウドレイトレイディング,0
442,2050003006665,新規,0,2022-07-06,2022-07-06,合同会社タヌタヌフィル,,合同会社,茨城県,日立市,石名坂町１丁目４番３３号,,08,202,3191225,,,,,,,2022-07-06,1,,,,,タヌタヌフィル,0
446,2060002041175,新規,0,2022-07-06,2022-07-06,有限会社コバヤシ,,有限会社,栃木県,小山市,神鳥谷５丁目３番２６号,,09,208,3230034,,,,,,,2022-07-06,1,,,,,コバヤシ,0
447,2060003004131,新規,0,2022-07-06,2022-07-06,合同会社ｉ．,,合同会社,栃木県,足利市,助戸東山町９３３番地,,09,202,3260042,,,,,,,2022-07-06,1,,,,,アイドット,0
449,2070001039401,新規,0,2022-07-06,2022-07-06,株式会社テクノサプライズ,,株式会社,群馬県,高崎市,下小鳥町７４番地２７メゾンキャッスル１０１号室,,10,202,3700074,,,,,,,2022-07-06,1,,,,,テクノサプライズ,0
458,2080401025941,新規,0,2022-07-06,2022-07-06,株式会社なじむソフトウェア,,株式会社,静岡県,浜松市中区,鍛冶町１００－１ザザシティ浜松中央館Ｂ１Ｆ,,22,131,4300933,,,,,,,2022-07-06,1,,,,,ナジムソフトウェア,0
461,2100001035487,新規,0,2022-07-06,2022-07-06,医療ソリューション株式会社,,株式会社,長野県,北佐久郡軽井沢町,大字長倉２８８５番地１４,,20,321,3890111,,,,,,,2022-07-06,1,,,,,イリョウソリューション,0
463,2110001036781,新規,0,2022-07-06,2022-07-06,株式会社太田設計ｏｆｆｉｃｅ,,株式会社,新潟県,長岡市,福原４０１番地２,,15,202,9540165,,,,,,,2022-07-06,1,,,,,オオタセッケイオフィス,0
483,2120001247072,新規,0,2022-07-06,2022-07-06,株式会社千欣,,株式会社,大阪府,大阪市西区,新町３丁目７番１５号,,27,106,5500013,,,,,,,2022-07-06,1,,,,,センキン,0
484,2120001247139,新規,0,2022-07-06,2022-07-06,株式会社ジョイ・プロワークス,,株式会社,大阪府,枚方市,田口４丁目４３番８号,,27,210,5731162,,,,,,,2022-07-06,1,,,,,ジョイプロワークス,0
491,2120101065829,新規,0,2022-07-06,2022-07-06,日三塗装株式会社,,株式会社,大阪府,富田林市,小金台２丁目１０番８号,,27,214,5840083,,,,,,,2022-07-06,1,,,,,ニッサントソウ,0
498,2120901046185,新規,0,2022-07-06,2022-07-06,株式会社ハイロープ,,株式会社,大阪府,吹田市,新芦屋上２４番１－８０６号,00127106,27,205,5650804,,,,,,,2022-07-06,1,,,,,ハイロープ,0
517,2150001025665,新規,0,2022-07-06,2022-07-06,株式会社アールステイ,,株式会社,奈良県,奈良市,菅原町６５０番地１,,29,201,6310842,,,,,,,2022-07-06,1,,,,,アールステイ,0
524,2170001017181,新規,0,2022-07-06,2022-07-06,株式会社メディションけあ,,株式会社,和歌山県,和歌山市,西高松１丁目５番３６号,,30,201,6410051,,,,,,,2022-07-06,1,,,,,メディションケア,0
529,2180001151987,新規,0,2022-07-06,2022-07-06,株式会社Ｈｙｂｒｉｄ　Ｓｔｙｌｅ,,株式会社,愛知県,江南市,古知野町熱田５７番地江南和光ビル,,23,217,4838207,,,,,,,2022-07-06,1,,,,,ハイブリットスタイル,0
530,2180001152011,新規,0,2022-07-06,2022-07-06,株式会社忠栄機工,,株式会社,愛知県,東海市,富木島町東長口５５番地の１００,,23,222,4760011,,,,,,,2022-07-06,1,,,,,チュウエイキコウ,0
531,2180001152077,新規,0,2022-07-06,2022-07-06,株式会社Ｐｒｏｓｓｉｍａ　ｆａｓｅ,,株式会社,愛知県,名古屋市中村区,名駅３丁目２８番１２号大名古屋ビルヂング,,23,105,4500002,,,,,,,2022-07-06,1,,,,,プロッシマファーゼ,0
534,2180003023994,新規,0,2022-07-06,2022-07-06,合同会社Ｋ＆Ａ,,合同会社,愛知県,名古屋市守山区,鼓が丘２丁目１１０１－１８,,23,113,4630807,,,,,,,2022-07-06,1,,,,,ケーアンドエー,0
535,2180003024010,新規,0,2022-07-06,2022-07-06,ＭＩＳ合同会社,,合同会社,愛知県,名古屋市西区,笠取町２丁目１３１番地プレミスト庄内通１０３号,,23,104,4510072,,,,,,,2022-07-06,1,,,,,エムアイエス,0
536,2180301036384,新規,0,2022-07-06,2022-07-06,株式会社スティンガー,,株式会社,愛知県,刈谷市,小垣江町石ノ戸１７番地１,,23,210,4480813,,,,,,,2022-07-06,1,,,,,スティンガー,0
541,2200001040254,新規,0,2022-07-06,2022-07-06,株式会社いちご屋,,株式会社,岐阜県,各務原市,鵜沼西町１丁目４０７番地,,21,213,5090132,,,,,,,2022-07-06,1,,,,,イチゴヤ,0
547,2210001018984,新規,0,2022-07-06,2022-07-06,株式会社ヤマモトコーポレーション,,株式会社,福井県,福井市,豊岡１丁目４番１６号,,18,201,9100027,,,,,,,2022-07-06,1,,,,,ヤマモトコーポレーション,0
549,2220003003323,新規,0,2022-07-06,2022-07-06,アッパービレッジ合同会社,,合同会社,石川県,金沢市,鳴和２丁目１０番７３号,,17,201,9200804,,,,,,,2022-07-06,1,,,,,アッパービレッジ,0
558,2240001060018,新規,0,2022-07-06,2022-07-06,株式会社ｔｕｉｎ,,株式会社,広島県,広島市西区,井口台２丁目１１番９号,,34,104,7330844,,,,,,,2022-07-06,1,,,,,トイン,0
559,2240001060042,新規,0,2022-07-06,2022-07-06,株式会社Ｄ‐Ｐｒｏ,,株式会社,広島県,尾道市,瀬戸田町林６８６,,34,205,7222416,,,,,,,2022-07-06,1,,,,,ディープロ,0
562,2240003005697,新規,0,2022-07-06,2022-07-06,合同会社有馬工業,,合同会社,広島県,広島市西区,楠木町２丁目１３番１号,,34,104,7330002,,,,,,,2022-07-06,1,,,,,アリマコウギョウ,0
563,2260001037006,新規,0,2022-07-06,2022-07-06,セントケア岡山株式会社,,株式会社,岡山県,岡山市南区,三浜町１丁目１番２０号,,33,104,7028036,,,,,,,2022-07-06,1,,,,,セントケアオカヤマ,0
564,2260001037022,新規,0,2022-07-06,2022-07-06,岡部商事株式会社,,株式会社,岡山県,瀬戸内市,長船町長船７９３番地１,,33,212,7014271,,,,,,,2022-07-06,1,,,,,オカベショウジ,0
568,2280001008731,新規,0,2022-07-06,2022-07-06,株式会社ＧＲＩＴ,,株式会社,島根県,浜田市,黒川町１５５番地７,,32,202,6970024,,,,,,,2022-07-06,1,,,,,グリット,0
574,2290001098169,新規,0,2022-07-06,2022-07-06,株式会社まんでぃ,,株式会社,福岡県,福岡市中央区,唐人町１丁目１２番３１号,,40,133,8100063,,,,,,,2022-07-06,1,,,,,マンディ,0
575,2290001098177,新規,0,2022-07-06,2022-07-06,株式会社Ｐｉｐｐｉ,,株式会社,福岡県,福岡市早良区,南庄６丁目２番３０号,,40,137,8140031,,,,,,,2022-07-06,1,,,,,ピッピ,0
576,2290001098193,新規,0,2022-07-06,2022-07-06,株式会社Ｂａｓｅ,,株式会社,福岡県,福岡市西区,石丸２丁目２８番１５号,,40,135,8190025,,,,,,,2022-07-06,1,,,,,ベイス,0
577,2290001098210,新規,0,2022-07-06,2022-07-06,幸彩建業株式会社,,株式会社,福岡県,福岡市城南区,樋井川２丁目１－５５－１,,40,136,8140153,,,,,,,2022-07-06,1,,,,,コウサイケンギョウ,0
580,2290003012697,新規,0,2022-07-06,2022-07-06,合同会社ＡＡＴＹ,,合同会社,福岡県,久留米市,津福本町１９２６番地１,,40,203,8300047,,,,,,,2022-07-06,1,,,,,アーティ,0
585,2320001019179,新規,0,2022-07-06,2022-07-06,株式会社長野ファーム,,株式会社,大分県,宇佐市,大字江熊６９５番地,,44,211,8791126,,,,,,,2022-07-06,1,,,,,ナガノファーム,0
587,2330001029879,新規,0,2022-07-06,2022-07-06,株式会社そらとも,,株式会社,熊本県,合志市,御代志１６６１番地１,,43,216,8611104,,,,,,,2022-07-06,1,,,,,ソラトモ,0
589,2330003009433,新規,0,2022-07-06,2022-07-06,合同会社はす屋,,合同会社,熊本県,上益城郡御船町,大字木倉６６０７番地,,43,441,8613204,,,,,,,2022-07-06,1,,,,,ハスヤ,0
591,2340001024870,新規,0,2022-07-06,2022-07-06,株式会社ハダチ電設,,株式会社,鹿児島県,霧島市,国分広瀬４丁目９番７号,,46,218,8994321,,,,,,,2022-07-06,1,,,,,ハダチデンセツ,0
596,2350001017849,新規,0,2022-07-06,2022-07-06,株式会社ＳＯＵＴＨＨＩＬＬ,,株式会社,宮崎県,都城市,吉之元町５２６２－７３,,45,202,8850223,,,,,,,2022-07-06,1,,,,,サウスヒル,0
601,2360003012153,新規,0,2022-07-06,2022-07-06,グレイス喜納合同会社,,合同会社,沖縄県,糸満市,字糸満２２５８番地,,47,210,9010361,,,,,,,2022-07-06,1,,,,,グレイスキナ,0
603,2370001048751,新規,0,2022-07-06,2022-07-06,株式会社Ｋ’Ｓ,,株式会社,宮城県,仙台市青葉区,栗生７丁目１２番地の１,,04,101,9893122,,,,,,,2022-07-06,1,,,,,ケイズ,0
604,2370001048768,新規,0,2022-07-06,2022-07-06,株式会社オーランドエステート,,株式会社,宮城県,仙台市若林区,伊在２丁目１３番地の４－６番館１０２,,04,103,9840038,,,,,,,2022-07-06,1,,,,,オーランドエステート,0
607,2390001016954,新規,0,2022-07-06,2022-07-06,ＫＭＤ株式会社,,株式会社,山形県,西置賜郡白鷹町,大字横田尻１６７８番地５,,06,402,9920772,,,,,,,2022-07-06,1,,,,,ケーエムディー,0
611,2420001017924,新規,0,2022-07-06,2022-07-06,株式会社ＭＥＬＡ,,株式会社,青森県,北津軽郡板柳町,大字灰沼字玉川１５番地２１,,02,381,0383672,,,,,,,2022-07-06,1,,,,,メーラ,0
615,2430001086951,新規,0,2022-07-06,2022-07-06,株式会社ｅｓｔ,,株式会社,北海道,札幌市中央区,大通東４丁目４番４４号,,01,101,0600041,,,,,,,2022-07-06,1,,,,,エスト,0
616,2430001086976,新規,0,2022-07-06,2022-07-06,株式会社ＪＯＹ,,株式会社,北海道,夕張郡長沼町,宮下２丁目９番２号,,01,428,0691341,,,,,,,2022-07-06,1,,,,,ジョイ,0
618,2430003014068,新規,0,2022-07-06,2022-07-06,合同会社Ｖｏｌｔａｇｅ,,合同会社,北海道,札幌市中央区,北二条西２丁目３２番地第３７桂和ビル５階,,01,101,0600002,,,,,,,2022-07-06,1,,,,,ボルテージ,0
625,2500001024318,新規,0,2022-07-06,2022-07-06,ＣＡＲ‐ＷＯＲＫＳ株式会社,,株式会社,愛媛県,新居浜市,萩生１０５３番地３,,38,205,7920050,,,,,,,2022-07-06,1,,,,,,0
626,2700150110773,新規,0,2022-07-06,2022-07-06,ＬＯＷＥＬＬ　ＧＲＯＵＰ　ＰＴＥ．ＬＴＤ,,外国会社等,東京都,中央区,佃１丁目３２番地２,,13,102,1040051,１０ＢＵＫＩＴ　ＢＡＴＯＫ　ＣＲＥＳＣＥＮＴ＃０４－０７ＴＨＥ　ＳＰＩＲＥ　ＳＩＮＧＡＰＯＲＥ　６５８０７９,,,,,,2022-07-06,1,,,,,ロウエルグループ,0
636,3010001227786,新規,0,2022-07-06,2022-07-06,ＴＤＣハイトレル準備株式会社,,株式会社,東京都,中央区,日本橋本町１丁目１番１号,,13,102,1030023,,,,,,,2022-07-06,1,,,,,ティーディーシーハイトレルジュンビ,0
637,3010001227794,新規,0,2022-07-06,2022-07-06,ＭＣ洋上風力株式会社,,株式会社,東京都,千代田区,丸の内２丁目６番１号,,13,101,1000005,,,,,,,2022-07-06,1,,,,,エムシーヨウジョウフウリョク,0
638,3010001227844,新規,0,2022-07-06,2022-07-06,株式会社エンステップ,,株式会社,東京都,千代田区,九段南１丁目５番６号りそな九段ビル５階ＫＳフロア,,13,101,1020074,,,,,,,2022-07-06,1,,,,,エンステップ,0
639,3010001227885,新規,0,2022-07-06,2022-07-06,Ｓｅｉｋｏ　Ｃａｐｉｔａｌ株式会社,,株式会社,東京都,中央区,日本橋兜町１７番１号日本橋ロイヤルプラザ６１０,,13,102,1030026,,,,,,,2022-07-06,1,,,,,セイコウキャピタル,0
654,3010401168317,新規,0,2022-07-06,2022-07-06,株式会社メモリアルディスプレイ,,株式会社,東京都,港区,虎ノ門４丁目３番１号城山トラストタワー２１Ｆ,,13,103,1050001,,,,,,,2022-07-06,1,,,,,メモリアルディスプレイ,0
655,3010401168366,新規,0,2022-07-06,2022-07-06,ＳＭＡＲＴＷＡＲＥ　ＴＥＣＨＮＯＬＯＧＹ株式会社,,株式会社,東京都,港区,三田１丁目３番４０号麻布十番ＢＵＳＩＮＥＳＳＣＵＢＥ－Ｓ天翔オフィス麻布十番６階６０９号室,,13,103,1080073,,,,,,,2022-07-06,1,,,,,スマートウェアーテクノロジー,0
656,3010401168424,新規,0,2022-07-06,2022-07-06,株式会社杏玲,,株式会社,東京都,港区,元麻布２丁目１１番３６－４０６号,,13,103,1060046,,,,,,,2022-07-06,1,,,,,アンリン,0
659,3010403028023,新規,0,2022-07-06,2022-07-06,合同会社Ｓｍｉｌｅ　Ｊａｐａｎ,,合同会社,東京都,港区,浜松町２丁目２番１５号浜松町ダイヤビル２Ｆ,,13,103,1050013,,,,,,,2022-07-06,1,,,,,スマイルジャパン,0
662,3010405021166,新規,0,2022-07-06,2022-07-06,ＲＢソーラーデュオホールディングス一般社団法人,,その他の設立登記法人,東京都,港区,虎ノ門３丁目２２番１０－２０１号,,13,103,1050001,,,,,,,2022-07-06,1,,,,,アールビーソーラーデュオホールディングス,0
667,3010701042907,新規,0,2022-07-06,2022-07-06,株式会社Ｏｎｅ　Ｔｏｄａｙ,,株式会社,東京都,品川区,上大崎３丁目５番２号リードシー目黒イーストビル５階,,13,109,1410021,,,,,,,2022-07-06,1,,,,,ワントゥデイ,0
669,3010703006298,新規,0,2022-07-06,2022-07-06,合同会社ＵＮＩ,,合同会社,東京都,品川区,西五反田４丁目１６番２３号,,13,109,1410031,,,,,,,2022-07-06,1,,,,,ウニ,0
671,3010801033095,新規,0,2022-07-06,2022-07-06,株式会社Ａ＆Ｆ　Ｔｅｃｈｎｏｌｏｇｙ,,株式会社,東京都,大田区,西蒲田７丁目４３番９号,,13,111,1440051,,,,,,,2022-07-06,1,,,,,エーアンドエフテクノロジー,0
673,3010901051162,新規,0,2022-07-06,2022-07-06,株式会社Ｅ‐Ｆａｍｉｌｙ,,株式会社,東京都,世田谷区,成城６丁目１６番１２－１０１号,,13,112,1570066,,,,,,,2022-07-06,1,,,,,イーファミリー,0
674,3010901051170,新規,0,2022-07-06,2022-07-06,新堀地所株式会社,,株式会社,東京都,世田谷区,深沢１丁目２４番１８号,,13,112,1580081,,,,,,,2022-07-06,1,,,,,ニイボリジショ,0
679,3011001148460,新規,0,2022-07-06,2022-07-06,株式会社日本完備,,株式会社,東京都,渋谷区,大山町１７番８号,,13,113,1510065,,,,,,,2022-07-06,1,,,,,ニホンカンビ,0
680,3011001148477,新規,0,2022-07-06,2022-07-06,株式会社プラウドエボルブ,,株式会社,東京都,目黒区,下目黒１丁目２－２１,,13,110,1530064,,,,,,,2022-07-06,1,,,,,,0
681,3011001148502,新規,0,2022-07-06,2022-07-06,シン・ニホンパブリックアフェアーズ株式会社,,株式会社,東京都,渋谷区,代々木４丁目１８番７号,,13,113,1510053,,,,,,,2022-07-06,1,,,,,シンニホンパブリックアフェアーズ,0
682,3011001148510,新規,0,2022-07-06,2022-07-06,株式会社ＣＨＩＭＥ,,株式会社,東京都,目黒区,目黒１丁目２４番９号ＭＦＰＲ目黒タワー９０７,,13,110,1530063,,,,,,,2022-07-06,1,,,,,チメ,0
683,3011001148527,新規,0,2022-07-06,2022-07-06,株式会社Ｍｅｔａ‐ＣｏｍＲｏｃｋ,,株式会社,東京都,渋谷区,広尾５丁目４番１１号６０１号室,,13,113,1500012,,,,,,,2022-07-06,1,,,,,メタコムロック,0
686,3011003014982,新規,0,2022-07-06,2022-07-06,合同会社ＮＡＲＡ,,合同会社,東京都,目黒区,目黒３丁目３番２６号,,13,110,1530063,,,,,,,2022-07-06,1,,,,,ナラ,0
693,3011101099439,新規,0,2022-07-06,2022-07-06,株式会社ｇｅｎｕｉｎｅ,,株式会社,東京都,新宿区,歌舞伎町２丁目９番１８－１００７号,,13,104,1600021,,,,,,,2022-07-06,1,,,,,ジェニュイン,0
694,3011201023934,新規,0,2022-07-06,2022-07-06,株式会社ナンバーセブン,,株式会社,東京都,中野区,東中野１丁目２６番４号ＡＢパレス１０２,,13,114,1640003,,,,,,,2022-07-06,1,,,,,ナンバーセブン,0
699,3011401024377,新規,0,2022-07-06,2022-07-06,株式会社芯和工業,,株式会社,東京都,板橋区,舟渡１丁目９番１９号,,13,119,1740041,,,,,,,2022-07-06,1,,,,,シンワコウギョウ,0
702,3011501028229,新規,0,2022-07-06,2022-07-06,株式会社Ｋｏｎｏｔｏｒｉ,,株式会社,東京都,北区,十条仲原２丁目３番３号,,13,117,1140031,,,,,,,2022-07-06,1,,,,,コウノトリ,0
704,3011601026082,新規,0,2022-07-06,2022-07-06,法潤コンサルティング株式会社,,株式会社,東京都,練馬区,上石神井３丁目５番３号２０５号,,13,120,1770044,,,,,,,2022-07-06,1,,,,,ホウジュンコンサルティング,0
706,3011701025439,新規,0,2022-07-06,2022-07-06,ウェザーワイズ株式会社,,株式会社,東京都,江戸川区,中央１丁目２番１０号,,13,123,1320021,,,,,,,2022-07-06,1,,,,,ウェザーワイズ,0
713,3012701017137,新規,0,2022-07-06,2022-07-06,株式会社Ｃｌｕｔｃｈ,,株式会社,東京都,西東京市,保谷町３丁目９番７号茂木ビル１階,,13,229,2020015,,,,,,,2022-07-06,1,,,,,クラッチ,0
717,3013301049347,新規,0,2022-07-06,2022-07-06,株式会社ＡＬＯＨＡ,,株式会社,東京都,豊島区,池袋本町４丁目４５番１９号,,13,116,1700011,,,,,,,2022-07-06,1,,,,,アロハ,0
722,3020001147158,新規,0,2022-07-06,2022-07-06,株式会社Ｔｒｕｓｔ,,株式会社,神奈川県,横浜市都筑区,大熊町３９番地大倉山陽光ハイツ３０６号,,14,118,2240042,,,,,,,2022-07-06,1,,,,,トラスト,0
723,3020001147166,新規,0,2022-07-06,2022-07-06,株式会社エバラファーム,,株式会社,神奈川県,横浜市港北区,高田町１９４０番地,,14,109,2230063,,,,,,,2022-07-06,1,,,,,エバラファーム,0
724,3020001147174,新規,0,2022-07-06,2022-07-06,株式会社ｏｎｅ　ｐｌｕｓ,,株式会社,神奈川県,横浜市栄区,小菅ケ谷２丁目１８番１９号,,14,115,2470007,,,,,,,2022-07-06,1,,,,,ワンプラス,0
725,3020001147190,新規,0,2022-07-06,2022-07-06,株式会社キッチンＫ,,株式会社,神奈川県,横浜市青葉区,すすき野３丁目７番地２,,14,117,2250021,,,,,,,2022-07-06,1,,,,,キッチンケイ,0
726,3020001147208,新規,0,2022-07-06,2022-07-06,株式会社ｒｙｏｓｅｎ,,株式会社,神奈川県,横浜市神奈川区,栄町５番地１横浜クリエーションスクエア１４階,,14,102,2210052,,,,,,,2022-07-06,1,,,,,リョウセン,0
730,3021001076438,新規,0,2022-07-06,2022-07-06,Ｓｕｒｆ　Ｃａｍｐ　Ｓｔｙｌｅ株式会社,,株式会社,神奈川県,茅ヶ崎市,浜竹２丁目９番９号２,,14,207,2530021,,,,,,,2022-07-06,1,,,,,サーフキャンプスタイル,0
731,3021001076454,新規,0,2022-07-06,2022-07-06,株式会社ルクム,,株式会社,神奈川県,足柄上郡大井町,金子１６６５番地１,,14,362,2580019,,,,,,,2022-07-06,1,,,,,ルクム,0
732,3021001076462,新規,0,2022-07-06,2022-07-06,株式会社日和,,株式会社,神奈川県,相模原市緑区,相原２丁目１２－１９スカイコート橋本第２－４０８号室,,14,151,2520141,,,,,,,2022-07-06,1,,,,,ヒワ,0
734,3021003011905,新規,0,2022-07-06,2022-07-06,ＮＧＵ　ＤＩＭＡＴＴＥＯ合同会社,,合同会社,神奈川県,鎌倉市,由比ガ浜３丁目１１番４４号ＣＯＮＤ／鎌倉２０１,,14,204,2480014,,,,,,,2022-07-06,1,,,,,,0
740,3030001148980,新規,0,2022-07-06,2022-07-06,株式会社わきま,,株式会社,埼玉県,比企郡小川町,大字角山２６１番地,,11,343,3550316,,,,,,,2022-07-06,1,,,,,ワキマ,0
741,3030001149005,新規,0,2022-07-06,2022-07-06,株式会社プラウド,,株式会社,埼玉県,さいたま市岩槻区,本町４丁目２番１０号,,11,110,3390057,,,,,,,2022-07-06,1,,,,,プラウド,0
742,3030001149021,新規,0,2022-07-06,2022-07-06,株式会社ＨＡＳＥＢＥ,,株式会社,埼玉県,狭山市,大字北入曽８２５番地の２,,11,215,3501315,,,,,,,2022-07-06,1,,,,,ハセベ,0
743,3030001149038,新規,0,2022-07-06,2022-07-06,株式会社インテリア長堀,,株式会社,埼玉県,川口市,大字安行原２２７５番地の２８,,11,203,3340057,,,,,,,2022-07-06,1,,,,,インテリアナガホリ,0
744,3030001149070,新規,0,2022-07-06,2022-07-06,株式会社クラナス,,株式会社,埼玉県,坂戸市,三光町２４番地３２,,11,239,3500235,,,,,,,2022-07-06,1,,,,,クラナス,0
747,3030003019726,新規,0,2022-07-06,2022-07-06,合同会社タカコーポレーション,,合同会社,埼玉県,川口市,大字伊刈８２３番地,,11,203,3330865,,,,,,,2022-07-06,1,,,,,タカコーポレーション,0
748,3030003019742,新規,0,2022-07-06,2022-07-06,合同会社Ｕ．Ｉ企画,,合同会社,埼玉県,さいたま市緑区,原山２丁目２９番地１３浅香ハイツ２号,,11,109,3360931,,,,,,,2022-07-06,1,,,,,ユーアイキカク,0
755,3040001124072,新規,0,2022-07-06,2022-07-06,株式会社テラトモ,,株式会社,千葉県,市川市,曽谷４丁目２７番１３号,,12,203,2720832,,,,,,,2022-07-06,1,,,,,テラトモ,0
756,3040001124106,新規,0,2022-07-06,2022-07-06,株式会社ＩＮＤＩＧＯ　ＳＡＬＶＡＧＥ,,株式会社,千葉県,柏市,東上町３番４号,,12,217,2770011,,,,,,,2022-07-06,1,,,,,インディゴサルベージ,0
757,3040001124114,新規,0,2022-07-06,2022-07-06,スターフィッシュホールディングス株式会社,,株式会社,千葉県,船橋市,市場３丁目１０番３号,,12,204,2730001,,,,,,,2022-07-06,1,,,,,スターフィッシュホールディングス,0
758,3040001124122,新規,0,2022-07-06,2022-07-06,株式会社中山工業,,株式会社,千葉県,船橋市,飯山満町３丁目１４８９番地８,,12,204,2740822,,,,,,,2022-07-06,1,,,,,ナカヤマコウギョウ,0
759,3040001124139,新規,0,2022-07-06,2022-07-06,株式会社武平,,株式会社,千葉県,船橋市,西船７丁目３番２６号,,12,204,2730031,,,,,,,2022-07-06,1,,,,,ブヘイ,0
764,3040003020369,新規,0,2022-07-06,2022-07-06,合同会社折笠商店,,合同会社,千葉県,浦安市,入船４丁目３４番２号,,12,227,2790012,,,,,,,2022-07-06,1,,,,,オリカサショウテン,0
765,3040003020402,新規,0,2022-07-06,2022-07-06,合同会社イデアル,,合同会社,千葉県,千葉市花見川区,瑞穂３丁目２－２０,,12,102,2620026,,,,,,,2022-07-06,1,,,,,イデアル,0
767,3050001051332,新規,0,2022-07-06,2022-07-06,株式会社共祭,,株式会社,茨城県,北茨城市,磯原町本町１丁目６番地１０,,08,215,3191542,,,,,,,2022-07-06,1,,,,,キョウサイ,0
768,3050001051340,新規,0,2022-07-06,2022-07-06,ＹＡＺ‐ＴＥＣＨ保険サービス株式会社,,株式会社,茨城県,古河市,上辺見４４９イロ・ハウスＢ,,08,204,3060234,,,,,,,2022-07-06,1,,,,,ヤズテックホケンサービス,0
769,3050001051349,新規,0,2022-07-06,2022-07-06,株式会社ＦＡＩＳＡＬ　ＴＲＡＤＩＮＧ,,株式会社,茨城県,古河市,久能１０９９番地４９,,08,204,3060212,,,,,,,2022-07-06,1,,,,,ファエサルトレーディング,0
770,3050001051365,新規,0,2022-07-06,2022-07-06,日本物運株式会社,,株式会社,茨城県,水戸市,千波町１３２７番地の６,,08,201,3100851,,,,,,,2022-07-06,1,,,,,ニッポンブツウン,0
771,3050003006656,新規,0,2022-07-06,2022-07-06,合同会社黒澤商会,,合同会社,茨城県,守谷市,みずき野６丁目３７番地４,,08,224,3020121,,,,,,,2022-07-06,1,,,,,,0
772,3050003006664,新規,0,2022-07-06,2022-07-06,合同会社Ｔ＆ＬＩＦＥ,,合同会社,茨城県,桜川市,真壁町飯塚５０５番地,,08,231,3004417,,,,,,,2022-07-06,1,,,,,ティアンドライフ,0
775,3070001039400,新規,0,2022-07-06,2022-07-06,株式会社Ｇ‐ＴＥＣＨ,,株式会社,群馬県,太田市,強戸町９２３番地３,,10,205,3730004,,,,,,,2022-07-06,1,,,,,ジテック,0
777,3070003004542,新規,0,2022-07-06,2022-07-06,合同会社ドッグランドＳＫＹ,,合同会社,群馬県,高崎市,白岩町１０７６番地１,,10,202,3703332,,,,,,,2022-07-06,1,,,,,ドッグランドスカイ,0
788,3080401025916,新規,0,2022-07-06,2022-07-06,株式会社ＶＯＬＰＥ,,株式会社,静岡県,浜松市西区,大平台２丁目１番３３号,,22,133,4328068,,,,,,,2022-07-06,1,,,,,ヴォールペ,0
789,3080401025940,新規,0,2022-07-06,2022-07-06,株式会社華一,,株式会社,静岡県,掛川市,本郷２１１番地の１,,22,213,4360111,,,,,,,2022-07-06,1,,,,,ハナイチ,0
791,3100001035486,新規,0,2022-07-06,2022-07-06,株式会社ウェーブリゾート,,株式会社,長野県,北佐久郡御代田町,大字御代田２５９２番地２５,,20,323,3890206,,,,,,,2022-07-06,1,,,,,ウェーブリゾート,0
792,3100001035494,新規,0,2022-07-06,2022-07-06,ダンクブックス株式会社,,株式会社,長野県,長野市,大字柳原２５５０番地,,20,201,3810012,,,,,,,2022-07-06,1,,,,,ダンクブックス,0
794,3110001036789,新規,0,2022-07-06,2022-07-06,株式会社渡辺果樹園,,株式会社,新潟県,三条市,井戸場１４３番地,,15,204,9550096,,,,,,,2022-07-06,1,,,,,ワタナベカジュエン,0
812,3120001247039,新規,0,2022-07-06,2022-07-06,株式会社ＷＳＲ,,株式会社,大阪府,大阪市生野区,新今里３丁目４番１７号ＯＧビル５０９Ａ,,27,116,5440001,,,,,,,2022-07-06,1,,,,,ダブリューエスアール,0
813,3120001247088,新規,0,2022-07-06,2022-07-06,株式会社英大,,株式会社,大阪府,大阪市鶴見区,放出東１丁目２７－１９,,27,124,5380044,,,,,,,2022-07-06,1,,,,,エイダイ,0
814,3120001247138,新規,0,2022-07-06,2022-07-06,株式会社ユープライス,,株式会社,大阪府,大阪市港区,三先２丁目２０番６９－１２１３号,,27,107,5520016,,,,,,,2022-07-06,1,,,,,ユープライス,0
815,3120001247179,新規,0,2022-07-06,2022-07-06,Ｄｅｇｘｉｔ＆Ｂｒｉｘｉｔ株式会社,,株式会社,大阪府,大阪市東淀川区,豊里７丁目１５番９号ＴＫ３ビル２Ｆ,,27,114,5330013,,,,,,,2022-07-06,1,,,,,デグジットアンドブライジット,0
816,3120001247187,新規,0,2022-07-06,2022-07-06,株式会社Ｎ８,,株式会社,大阪府,大阪市西成区,鶴見橋１丁目１５番１３号,,27,122,5570031,,,,,,,2022-07-06,1,,,,,ネイト,0
817,3120001247204,新規,0,2022-07-06,2022-07-06,株式会社フリーサービス,,株式会社,大阪府,大阪市西淀川区,花川１丁目９－３,,27,113,5550023,,,,,,,2022-07-06,1,,,,,フリーサービス,0
818,3120001247220,新規,0,2022-07-06,2022-07-06,株式会社アセットマネジメント,,株式会社,大阪府,寝屋川市,三井が丘４丁目４番８２－１０６号,,27,215,5720013,,,,,,,2022-07-06,1,,,,,アセットマネジメント,0
822,3120101065836,新規,0,2022-07-06,2022-07-06,株式会社Ｋｙｏｅｉ,,株式会社,大阪府,和泉市,唐国町３丁目６番２号,,27,219,5941151,,,,,,,2022-07-06,1,,,,,キョーエイ,0
823,3120101065844,新規,0,2022-07-06,2022-07-06,株式会社ＫＥ　Ｃｏｍｐａｎｙ,,株式会社,大阪府,南河内郡太子町,聖和台４丁目１４番地の９,,27,381,5830996,,,,,,,2022-07-06,1,,,,,ケイイーカンパニー,0
827,3120901046184,新規,0,2022-07-06,2022-07-06,株式会社ＬＥＯＮＯＩＲ,,株式会社,大阪府,豊中市,本町５丁目１２番２４－１０６号,,27,203,5600021,,,,,,,2022-07-06,1,,,,,レオノワール,0
828,3120901046192,新規,0,2022-07-06,2022-07-06,福英株式会社,,株式会社,大阪府,三島郡島本町,青葉３丁目２番９号１０３,,27,301,6180015,,,,,,,2022-07-06,1,,,,,フクエイ,0
829,3120901046201,新規,0,2022-07-06,2022-07-06,株式会社ＧＰＯサポート,,株式会社,大阪府,高槻市,南大樋町１番１号マイシティ高槻１０１,00127105,27,207,5690042,,,,,,,2022-07-06,1,,,,,ジーピーオーサポート,0
844,3140001126587,新規,0,2022-07-06,2022-07-06,株式会社ＳｉＫ,,株式会社,兵庫県,姫路市,駅前町３２９番地,,28,201,6700927,,,,,,,2022-07-06,1,,,,,シック,0
849,3150001025664,新規,0,2022-07-06,2022-07-06,株式会社大和シティホーム,,株式会社,奈良県,奈良市,西大寺本町２番２４号,,29,201,6310816,,,,,,,2022-07-06,1,,,,,ダイワシティホーム,0
850,3160001024327,新規,0,2022-07-06,2022-07-06,株式会社Ｎ‐デザイン,,株式会社,滋賀県,彦根市,南川瀬町１２５６番地２２,,25,202,5220222,,,,,,,2022-07-06,1,,,,,エヌデザイン,0
851,3170001017180,新規,0,2022-07-06,2022-07-06,株式会社木下印刷所,,株式会社,和歌山県,岩出市,宮１１７番地の１１,,30,209,6496226,,,,,,,2022-07-06,1,,,,,キノシタインサツショ,0
854,3180001152043,新規,0,2022-07-06,2022-07-06,株式会社アポロ測機,,株式会社,愛知県,江南市,古知野町塔塚１９５番地,,23,217,4838216,,,,,,,2022-07-06,1,,,,,アポロソクキ,0
855,3180001152051,新規,0,2022-07-06,2022-07-06,テイクプラス株式会社,,株式会社,愛知県,名古屋市中区,丸の内２丁目１７番１３号,,23,106,4600002,,,,,,,2022-07-06,1,,,,,テイクプラス,0
856,3180001152068,新規,0,2022-07-06,2022-07-06,株式会社ＳＥＰＡ,,株式会社,愛知県,名古屋市千種区,菊坂町１丁目２２番地コア菊坂２０２,,23,101,4640836,,,,,,,2022-07-06,1,,,,,セパ,0
857,3180001152101,新規,0,2022-07-06,2022-07-06,株式会社鳳凰,,株式会社,愛知県,名古屋市昭和区,川名町２丁目３６番地,,23,107,4660856,,,,,,,2022-07-06,1,,,,,ホウオウ,0
860,3180005019833,新規,0,2022-07-06,2022-07-06,特定非営利活動法人あいち相続テラス,,その他の設立登記法人,愛知県,名古屋市千種区,仲田１丁目４番１４号１Ｆ,,23,101,4640074,,,,,,,2022-07-06,1,,,,,アイチソウゾクテラス,0
861,3180301036383,新規,0,2022-07-06,2022-07-06,株式会社松井建材,,株式会社,愛知県,豊橋市,問屋町１６番地１,,23,201,4418086,,,,,,,2022-07-06,1,,,,,マツイケンザイ,0
862,3180301036391,新規,0,2022-07-06,2022-07-06,株式会社ロワイヤルスリール,,株式会社,愛知県,豊川市,一宮町社１１８番地,,23,207,4411231,,,,,,,2022-07-06,1,,,,,ロワイヤルスリール,0
864,3190003004027,新規,0,2022-07-06,2022-07-06,合同会社鈴鹿幸業,,合同会社,三重県,鈴鹿市,下箕田１丁目４番４８号,,24,207,5130052,,,,,,,2022-07-06,1,,,,,スズカコウギョウ,0
865,3200001040245,新規,0,2022-07-06,2022-07-06,株式会社訪問看護うりぼう,,株式会社,岐阜県,加茂郡八百津町,久田見３３２６番地２,,21,505,5050422,,,,,,,2022-07-06,1,,,,,ホウモンカンゴウリボウ,0
873,3230001019435,新規,0,2022-07-06,2022-07-06,株式会社源造園,,株式会社,富山県,富山市,婦中町蔵島１００７番地,,16,201,9392726,,,,,,,2022-07-06,1,,,,,ミナモトゾウエン,0
879,3240001060017,新規,0,2022-07-06,2022-07-06,株式会社庭能花園,,株式会社,広島県,広島市西区,己斐上三丁１６番１５－１０１号,,34,104,7330000,,,,,,,2022-07-06,1,,,,,ニワヨシカエン,0
880,3240001060041,新規,0,2022-07-06,2022-07-06,ハッピー石油株式会社,,株式会社,広島県,三原市,和田１丁目１１番１１号,,34,204,7230041,,,,,,,2022-07-06,1,,,,,ハッピーセキユ,0
890,3260001037005,新規,0,2022-07-06,2022-07-06,株式会社大月建材,,株式会社,岡山県,倉敷市,矢部２７５番地５,,33,202,7010105,,,,,,,2022-07-06,1,,,,,オオツキケンザイ,0
894,3290001097954,新規,0,2022-07-06,2022-07-06,株式会社センキャク,,株式会社,福岡県,福岡市中央区,大名１丁目３番４１号,,40,133,8100041,,,,,,,2022-07-06,1,,,,,センキャク,0
895,3290001098135,新規,0,2022-07-06,2022-07-06,株式会社ＢＩＲＤ　ＭＯＴＯＲ,,株式会社,福岡県,春日市,大字下白水６４番地５,,40,218,8160842,,,,,,,2022-07-06,1,,,,,バードモーター,0
896,3290001098184,新規,0,2022-07-06,2022-07-06,株式会社別天,,株式会社,福岡県,福岡市博多区,住吉２丁目１６番１－２１０号,,40,132,8120018,,,,,,,2022-07-06,1,,,,,ベッテン,0
901,3290801028695,新規,0,2022-07-06,2022-07-06,福本金網株式会社,,株式会社,福岡県,田川市,大字川宮３５６番地７,,40,206,8260042,,,,,,,2022-07-06,1,,,,,フクモトカナアミ,0
902,3290801028712,新規,0,2022-07-06,2022-07-06,株式会社九州農産物配送システム,,株式会社,福岡県,北九州市小倉北区,西港町９４番地の９,,40,106,8030801,,,,,,,2022-07-06,1,,,,,キュウシュウノウサンブツハイソウシステム,0
905,3310001017942,新規,0,2022-07-06,2022-07-06,株式会社ＭＥＴ,,株式会社,長崎県,松浦市,志佐町浦免１７２９番地５,,42,208,8594501,,,,,,,2022-07-06,1,,,,,メット,0
907,3310003004402,新規,0,2022-07-06,2022-07-06,合同会社ビジョン,,合同会社,長崎県,長崎市,三原１丁目２１番２８号ｃｕｂｅ三原櫻館３０２,,42,201,8528123,,,,,,,2022-07-06,1,,,,,ビジョン,0
912,3330001029911,新規,0,2022-07-06,2022-07-06,ランプラス株式会社,,株式会社,熊本県,熊本市北区,植木町亀甲２０４２番地１,,43,105,8610127,,,,,,,2022-07-06,1,,,,,ランプラス,0
922,3370001048742,新規,0,2022-07-06,2022-07-06,株式会社ミヤシン,,株式会社,宮城県,岩沼市,たけくま２丁目１２番１０号,,04,211,9892459,,,,,,,2022-07-06,1,,,,,ミヤシン,0
923,3370001048750,新規,0,2022-07-06,2022-07-06,株式会社仙杜工務店,,株式会社,宮城県,仙台市泉区,実沢字曽利子下１０番地の２,,04,105,9813217,,,,,,,2022-07-06,1,,,,,セントコウムテン,0
936,3390001016961,新規,0,2022-07-06,2022-07-06,ハイワーク株式会社,,株式会社,山形県,天童市,北久野本１丁目６番１７－１号,,06,210,9940011,,,,,,,2022-07-06,1,,,,,ハイワーク,0
940,3420001017931,新規,0,2022-07-06,2022-07-06,コミキト株式会社,,株式会社,青森県,弘前市,大字広野２丁目１４番地１１,,02,202,0368115,,,,,,,2022-07-06,1,,,,,コミキト,0
947,3460003000907,新規,0,2022-07-06,2022-07-06,ＱＵＩＮＴＥＴ合同会社,,合同会社,北海道,釧路市,武佐２丁目２０番１号,,01,206,0850806,,,,,,,2022-07-06,1,,,,,クインテット,0
954,3500001024325,新規,0,2022-07-06,2022-07-06,株式会社フスマセンター,,株式会社,愛媛県,松山市,畑寺３丁目１１番２８号,,38,201,7900913,,,,,,,2022-07-06,1,,,,,フスマセンター,0
962,4010001227744,新規,0,2022-07-06,2022-07-06,静和株式会社,,株式会社,東京都,中央区,日本橋人形町３丁目１番１６号ＪＰｈｏｕｓｅ日本橋ビルＢ１,,13,102,1030013,,,,,,,2022-07-06,1,,,,,セイワ,0
963,4010001227769,新規,0,2022-07-06,2022-07-06,株式会社ＵＡ,,株式会社,東京都,中央区,新富１丁目１７番－６－４０３,,13,102,1040041,,,,,,,2022-07-06,1,,,,,,0
964,4010001227802,新規,0,2022-07-06,2022-07-06,株式会社杉浦不動産,,株式会社,東京都,文京区,千駄木２丁目２６番５－３０２号,,13,105,1130022,,,,,,,2022-07-06,1,,,,,スギウラフドウサン,0
965,4010001227810,新規,0,2022-07-06,2022-07-06,株式会社ＨＭ２,,株式会社,東京都,千代田区,一ツ橋２丁目３番１号,,13,101,1010003,,,,,,,2022-07-06,1,,,,,エイチエムツー,0
966,4010001227819,新規,0,2022-07-06,2022-07-06,Ｃａｒｚ　Ｕｎｉｖｅｒｓｅ株式会社,,株式会社,東京都,中央区,銀座８丁目１８番３号銀座加藤ビル２階,,13,102,1040061,,,,,,,2022-07-06,1,,,,,カーズユニバース,0
967,4010001227926,新規,0,2022-07-06,2022-07-06,クレアトゥラ株式会社,,株式会社,東京都,中央区,日本橋２丁目１番１７号丹生ビル２階,,13,102,1030027,,,,,,,2022-07-06,1,,,,,クレアトゥラ,0
969,4010003038025,新規,0,2022-07-06,2022-07-06,多久発電所合同会社,,合同会社,東京都,千代田区,一ツ橋２丁目６番３号アクシスインベストメントアドバイザーズ株式会社内,,13,101,1010003,,,,,,,2022-07-06,1,,,,,タクハツデンショ,0
978,4010401168332,新規,0,2022-07-06,2022-07-06,株式会社ビッコレ,,株式会社,東京都,港区,浜松町２丁目１０番１号浜松町ビル５階,,13,103,1050013,,,,,,,2022-07-06,1,,,,,ビッコレ,0
979,4010401168357,新規,0,2022-07-06,2022-07-06,株式会社ソシオノード,,株式会社,東京都,港区,六本木６丁目１５番１号六本木ヒルズけやき坂テラス６Ｆ,,13,103,1060032,,,,,,,2022-07-06,1,,,,,ソシオノード,0
980,4010403028055,新規,0,2022-07-06,2022-07-06,谷田部ファシリティ合同会社,,合同会社,東京都,港区,六本木１丁目６番１号泉ガーデンタワー,,13,103,1060032,,,,,,,2022-07-06,1,,,,,ヤタベファシリティ,0
984,4010405021165,新規,0,2022-07-06,2022-07-06,ＲＢソーラーアークホールディングス一般社団法人,,その他の設立登記法人,東京都,港区,虎ノ門３丁目２２番１０－２０１号,,13,103,1050001,,,,,,,2022-07-06,1,,,,,アールビーソーラーアークホールディングス,0
986,4010501049044,新規,0,2022-07-06,2022-07-06,株式会社長谷川,,株式会社,東京都,台東区,小島２丁目１５番１号,,13,106,1110056,,,,,,,2022-07-06,1,,,,,ハセガワ,0
998,4010701042906,新規,0,2022-07-06,2022-07-06,Ｒｉｃｈｔｅｋ　Ｊａｐａｎ株式会社,,株式会社,東京都,品川区,東品川２丁目３番１２号シーフォートスクエア／センタービルディング１５階,,13,109,1400002,,,,,,,2022-07-06,1,,,,,リッチテックジャパン,0
999,4010701042914,新規,0,2022-07-06,2022-07-06,株式会社ＫＲ,,株式会社,東京都,品川区,大崎１丁目１９番９号,,13,109,1410032,,,,,,,2022-07-06,1,,,,,ケーアール,0
1000,4010801033094,新規,0,2022-07-06,2022-07-06,株式会社東京チィスィ,,株式会社,東京都,大田区,大森北１丁目８番１１号紅屋ビル１階Ｂ号室,,13,111,1430016,,,,,,,2022-07-06,1,,,,,トウキョウチィスィ,0
1001,4010803004226,新規,0,2022-07-06,2022-07-06,合同会社ＲＨアセットマネジメント,,合同会社,東京都,大田区,大森北６丁目３番２２号３０２,,13,111,1430016,,,,,,,2022-07-06,1,,,,,アールエイチアセットマネジメント,0
1003,4010901051161,新規,0,2022-07-06,2022-07-06,株式会社エフエムディーシー,,株式会社,東京都,世田谷区,玉川台２丁目３６番４号,,13,112,1580096,,,,,,,2022-07-06,1,,,,,エフエムディーシー,0
1004,4010901051178,新規,0,2022-07-06,2022-07-06,ＳＡＳＡ株式会社,,株式会社,東京都,世田谷区,野沢３丁目４番１８号柿の木坂パレス１２０６,,13,112,1540003,,,,,,,2022-07-06,1,,,,,ササ,0
1005,4010903007500,新規,0,2022-07-06,2022-07-06,合同会社豪徳寺いちのへ病院管理研究所,,合同会社,東京都,世田谷区,豪徳寺１丁目１２番１８号－５,,13,112,1540021,,,,,,,2022-07-06,1,,,,,ゴウトクジイチノヘビョウインカンリケンキュウジョ,0
1007,4011001148468,新規,0,2022-07-06,2022-07-06,ライクプロダクツ株式会社,,株式会社,東京都,渋谷区,道玄坂１丁目１２番１号渋谷マークシティウエスト,,13,113,1500043,,,,,,,2022-07-06,1,,,,,ライクプロダクツ,0
1008,4011001148501,新規,0,2022-07-06,2022-07-06,株式会社ライカ・プロジェクト,,株式会社,東京都,渋谷区,東１丁目２３番１号,,13,113,1500011,,,,,,,2022-07-06,1,,,,,ライカプロジェクト,0
1009,4011001148526,新規,0,2022-07-06,2022-07-06,ｉＭＳジャパン株式会社,,株式会社,東京都,渋谷区,宇田川町３番７号ヒューリック渋谷公園通りビル５Ｆ,,13,113,1500042,,,,,,,2022-07-06,1,,,,,アイエムエスジャパン,0
1010,4011003014973,新規,0,2022-07-06,2022-07-06,ＳＴＯＲＹ合同会社,,合同会社,東京都,渋谷区,神宮前６丁目７番３号ネスト原宿パートＩＩ２階,00127109,13,113,1500001,,,,,,,2022-07-06,1,,,,,ストーリー,0
1011,4011003014981,新規,0,2022-07-06,2022-07-06,合同会社Ｔｈｒｉｖｅ,,合同会社,東京都,目黒区,上目黒２丁目４４番２４号ＣＯＭＳ中目黒Ｉ－６階,00127110,13,110,1530051,,,,,,,2022-07-06,1,,,,,スライヴ,0
1013,4011101099421,新規,0,2022-07-06,2022-07-06,株式会社ＡｏＳｐａｃｅ,,株式会社,東京都,新宿区,新宿２丁目１２番１３号新宿アントレサロンビル２階,,13,104,1600022,,,,,,,2022-07-06,1,,,,,アオスペース,0
1015,4011103011937,新規,0,2022-07-06,2022-07-06,合同会社アットプラスポート,,合同会社,東京都,新宿区,西新宿３丁目３番１３号西新宿水間ビル６階,,13,104,1600023,,,,,,,2022-07-06,1,,,,,アットプラスポート,0
1017,4011201023941,新規,0,2022-07-06,2022-07-06,株式会社多賀,,株式会社,東京都,中野区,松が丘１丁目３５番４－４０９号,,13,114,1650024,,,,,,,2022-07-06,1,,,,,タガ,0
1019,4011301027909,新規,0,2022-07-06,2022-07-06,株式会社アズーロ・トライン,,株式会社,東京都,杉並区,阿佐谷南１丁目１７番２３号ステージファースト阿佐谷１階,,13,115,1660004,,,,,,,2022-07-06,1,,,,,アズーロトライン,0
1020,4011401024376,新規,0,2022-07-06,2022-07-06,株式会社グローバルミライズ,,株式会社,東京都,板橋区,中台３丁目２７番サンシティＡ棟７０４号,,13,119,1740064,,,,,,,2022-07-06,1,,,,,グローバルミライズ,0
1021,4011401024384,新規,0,2022-07-06,2022-07-06,株式会社ドローン・オペレーター・ネットワーク,,株式会社,東京都,板橋区,小豆沢４丁目５番５号,,13,119,1740051,,,,,,,2022-07-06,1,,,,,ドローンオペレーターネットワーク,0
1023,4011501028228,新規,0,2022-07-06,2022-07-06,スリー・エヌ株式会社,,株式会社,東京都,北区,赤羽１丁目３０番１０－２０１号,,13,117,1150045,,,,,,,2022-07-06,1,,,,,スリーエヌ,0
1025,4011601026081,新規,0,2022-07-06,2022-07-06,宜春株式会社,,株式会社,東京都,練馬区,羽沢２丁目６番９号－１０１号,,13,120,1760003,,,,,,,2022-07-06,1,,,,,イシュン,0
1032,4011703003185,新規,0,2022-07-06,2022-07-06,アイナレア合同会社,,合同会社,東京都,江戸川区,大杉１丁目６番１５号,,13,123,1320022,,,,,,,2022-07-06,1,,,,,アイナレア,0
1033,4011801040956,新規,0,2022-07-06,2022-07-06,株式会社ＳｏＮａ,,株式会社,東京都,足立区,千住桜木２丁目９番５－１０５号グランリオ,,13,121,1200045,,,,,,,2022-07-06,1,,,,,ソナ,0
1034,4011803005164,新規,0,2022-07-06,2022-07-06,しゃる合同会社,,合同会社,東京都,足立区,一ツ家４丁目１０番７－４０６号,,13,121,1210075,,,,,,,2022-07-06,1,,,,,シャル,0
1037,4012401039364,新規,0,2022-07-06,2022-07-06,株式会社エフ・アール,,株式会社,東京都,府中市,府中町２丁目６番１－１３０２号,,13,206,1830055,,,,,,,2022-07-06,1,,,,,エフアール,0
1039,4012403005471,新規,0,2022-07-06,2022-07-06,合同会社みらい,,合同会社,東京都,三鷹市,井口１丁目２１番５３号,,13,204,1810011,,,,,,,2022-07-06,1,,,,,ミライ,0
1041,4012701017136,新規,0,2022-07-06,2022-07-06,株式会社カタパルト,,株式会社,東京都,小平市,栄町３丁目１１番４号,,13,211,1870034,,,,,,,2022-07-06,1,,,,,カタパルト,0
1042,4012801021707,新規,0,2022-07-06,2022-07-06,株式会社ケルン,,株式会社,東京都,国分寺市,戸倉１丁目１３番地３１,,13,214,1850003,,,,,,,2022-07-06,1,,,,,ケルン,0
1043,4012803002829,新規,0,2022-07-06,2022-07-06,ワダビルマネイジメント合同会社,,合同会社,東京都,日野市,平山４丁目２９番地の１４,,13,212,1910043,,,,,,,2022-07-06,1,,,,,ワダビルマネイジメント,0
1048,4020001147157,新規,0,2022-07-06,2022-07-06,株式会社ＩＴＯ,,株式会社,神奈川県,横浜市旭区,白根６丁目５７番１号,,14,112,2410005,,,,,,,2022-07-06,1,,,,,アイティーオー,0
1049,4020001147198,新規,0,2022-07-06,2022-07-06,株式会社新浩架設,,株式会社,神奈川県,川崎市宮前区,東有馬１丁目２番２９号コーポ清樹ＩＩ２０７,00127124,14,136,2160002,,,,,,,2022-07-06,1,,,,,シンコウカセツ,0
1050,4020001147231,新規,0,2022-07-06,2022-07-06,株式会社ウェルゴジャパン,,株式会社,神奈川県,横浜市都筑区,牛久保２丁目２番１３号,,14,118,2240012,,,,,,,2022-07-06,1,,,,,ウェルゴジャパン,0
1051,4020001147256,新規,0,2022-07-06,2022-07-06,アイウッド株式会社,,株式会社,神奈川県,横浜市都筑区,早渕２丁目１１番１９号レオネクストエムズ早渕ＩＩＩ１０１,00127112,14,118,2240025,,,,,,,2022-07-06,1,,,,,アイウッド,0
1054,4020003022036,新規,0,2022-07-06,2022-07-06,合同会社北村国際,,合同会社,神奈川県,横浜市中区,翁町２丁目８番地５関内エメラルドビル４０８号室,,14,104,2310028,,,,,,,2022-07-06,1,,,,,キタムラコクサイ,0
1055,4020003022060,新規,0,2022-07-06,2022-07-06,Ｍｏｂｉｌｉｔｙ　Ｄｏｃｋ合同会社,,合同会社,神奈川県,横浜市西区,高島１丁目２番５号,,14,103,2200011,,,,,,,2022-07-06,1,,,,,モビリティドッグ,0
1058,4021001076437,新規,0,2022-07-06,2022-07-06,株式会社ウィズユー,,株式会社,神奈川県,鎌倉市,極楽寺４丁目１１番１２号,,14,204,2480023,,,,,,,2022-07-06,1,,,,,ウィズユー,0
1069,4030001149004,新規,0,2022-07-06,2022-07-06,株式会社ＨｏｌｏｍｕＡｋａｌａ,,株式会社,埼玉県,さいたま市中央区,大戸１丁目２９－１７,,11,105,3380012,,,,,,,2022-07-06,1,,,,,ホロムアカラ,0
1070,4030001149037,新規,0,2022-07-06,2022-07-06,モアプラン株式会社,,株式会社,埼玉県,所沢市,小手指南１丁目１番地の４７,,11,208,3591146,,,,,,,2022-07-06,1,,,,,モアプラン,0
1071,4030001149045,新規,0,2022-07-06,2022-07-06,株式会社Ｒｏｏｔ,,株式会社,埼玉県,越谷市,東越谷２丁目１７番地４パティオ２０２,,11,222,3430023,,,,,,,2022-07-06,1,,,,,ルート,0
1077,4040001124088,新規,0,2022-07-06,2022-07-06,株式会社スモールシフト,,株式会社,千葉県,船橋市,前原東４丁目１３番３号,,12,204,2740824,,,,,,,2022-07-06,1,,,,,スモールシフト,0
1078,4040001124096,新規,0,2022-07-06,2022-07-06,株式会社ビープラス,,株式会社,千葉県,木更津市,八幡台１丁目５番１号,,12,206,2920814,,,,,,,2022-07-06,1,,,,,ビープラス,0
1079,4040001124105,新規,0,2022-07-06,2022-07-06,株式会社幸電,,株式会社,千葉県,野田市,堤根３４番地の１１,,12,208,2780021,,,,,,,2022-07-06,1,,,,,コウデン,0
1080,4040001124121,新規,0,2022-07-06,2022-07-06,くまっする株式会社,,株式会社,千葉県,千葉市稲毛区,稲丘町１６番１３－１号,,12,103,2630033,,,,,,,2022-07-06,1,,,,,クマッスル,0
1081,4040001124154,新規,0,2022-07-06,2022-07-06,株式会社ヤード,,株式会社,千葉県,松戸市,竹ケ花２３６番地グリシーヌ２０３号,,12,207,2710072,,,,,,,2022-07-06,1,,,,,ヤード,0
1082,4040001124179,新規,0,2022-07-06,2022-07-06,株式会社ＡＮＤ　ＨＯＭＥ,,株式会社,千葉県,千葉市中央区,新千葉１丁目７番２号ペリエ＋ｐｌｕｓビル,,12,101,2600031,,,,,,,2022-07-06,1,,,,,アンドホーム,0
1086,4040003020368,新規,0,2022-07-06,2022-07-06,合同会社サン建築設計事務所,,合同会社,千葉県,千葉市緑区,おゆみ野中央７丁目２８番地１６,,12,105,2660032,,,,,,,2022-07-06,1,,,,,サンケンチクセッケイジムショ,0
1090,4050001051348,新規,0,2022-07-06,2022-07-06,株式会社ＳＥＡＧＡＴＥ,,株式会社,茨城県,水戸市,住吉町２５４番地の５,,08,201,3100844,,,,,,,2022-07-06,1,,,,,シーゲート,0
1091,4050001051356,新規,0,2022-07-06,2022-07-06,株式会社Ｍ’テック,,株式会社,茨城県,水戸市,元吉田町１１９４番地の２３Ｙ・Ｋビル２階,,08,201,3100836,,,,,,,2022-07-06,1,,,,,エムテック,0
1093,4050003006663,新規,0,2022-07-06,2022-07-06,合同会社ＩＡＭ＆Ｓｏｎｚ　Ａ,,合同会社,茨城県,水戸市,五軒町１丁目５番３３号,,08,201,3100063,,,,,,,2022-07-06,1,,,,,アイエイエムアンドソンズエイ,0
1094,4060001035052,新規,0,2022-07-06,2022-07-06,株式会社エムテックサービス,,株式会社,栃木県,宇都宮市,台新田１丁目１３－１２,,09,201,3210104,,,,,,,2022-07-06,1,,,,,エムテックサービス,0
1095,4070001039399,新規,0,2022-07-06,2022-07-06,ｓｎｏｏｚｙｓ株式会社,,株式会社,群馬県,佐波郡玉村町,大字斎田３６１番地１,,10,464,3701131,,,,,,,2022-07-06,1,,,,,スヌージーズ,0
1096,4070001039424,新規,0,2022-07-06,2022-07-06,株式会社Ｆ．Ｐ．Ｂ．,,株式会社,群馬県,前橋市,城東町５丁目６５６番地２,,10,201,3710016,,,,,,,2022-07-06,1,,,,,エフピービー,0
1100,4080401025931,新規,0,2022-07-06,2022-07-06,株式会社まほろば,,株式会社,静岡県,浜松市西区,雄踏町宇布見４９１７番地の７,,22,133,4310102,,,,,,,2022-07-06,1,,,,,マホロバ,0
1102,4080403004578,新規,0,2022-07-06,2022-07-06,合同会社袋井市東同笠太陽光発電所,,合同会社,静岡県,袋井市,山科２８８６番地の２,,22,216,4370066,,,,,,,2022-07-06,1,,,,,フクロイシヒガシドウガサタイヨウコウハツデンショ,0
1106,4100001035485,新規,0,2022-07-06,2022-07-06,株式会社山学ギルド,,株式会社,長野県,上田市,上塩尻９番地,,20,203,3860042,,,,,,,2022-07-06,1,,,,,サンガクギルド,0
1107,4100001035493,新規,0,2022-07-06,2022-07-06,株式会社ライズワーカー,,株式会社,長野県,伊那市,荒井３７０８番地１,,20,209,3960025,,,,,,,2022-07-06,1,,,,,ライズワーカー,0
1108,4100003006609,新規,0,2022-07-06,2022-07-06,日和合同会社,,合同会社,長野県,北安曇郡白馬村,大字北城３０２０番地９６２,,20,485,3999301,,,,,,,2022-07-06,1,,,,,ヒワ,0
1109,4110001036788,新規,0,2022-07-06,2022-07-06,株式会社ライト,,株式会社,新潟県,新潟市東区,石山６丁目２番６３号,,15,102,9500852,,,,,,,2022-07-06,1,,,,,ライト,0
1110,4110001036796,新規,0,2022-07-06,2022-07-06,株式会社セブンレイズ,,株式会社,新潟県,十日町市,新宮甲６７４番地,,15,210,9498526,,,,,,,2022-07-06,1,,,,,セブンレイズ,0
1119,4120001246923,新規,0,2022-07-06,2022-07-06,株式会社ＮＩＮＥ,,株式会社,大阪府,大阪市淀川区,西中島６丁目３番２４号Ｎ４２０,,27,123,5320011,,,,,,,2022-07-06,1,,,,,ナイン,0
1120,4120001247079,新規,0,2022-07-06,2022-07-06,永昌興株式会社,,株式会社,大阪府,枚方市,磯島茶屋町１５番１４号,,27,210,5731184,,,,,,,2022-07-06,1,,,,,エイショウコウ,0
1121,4120001247087,新規,0,2022-07-06,2022-07-06,株式会社Ｋ．Ｙ．Ｒ,,株式会社,大阪府,寝屋川市,小路南町８－１６,,27,215,5720866,,,,,,,2022-07-06,1,,,,,ケイワイアール,0
1122,4120001247137,新規,0,2022-07-06,2022-07-06,株式会社シンサリティ,,株式会社,大阪府,大阪市住之江区,住之江３丁目４番１３号１Ｆ,,27,125,5590004,,,,,,,2022-07-06,1,,,,,シンサリティ,0
1123,4120001247178,新規,0,2022-07-06,2022-07-06,株式会社ホリーズコーポレーション,,株式会社,大阪府,大阪市天王寺区,生玉前町１番１１－４０４号,,27,109,5430072,,,,,,,2022-07-06,1,,,,,ホリーズコーポレーション,0
1124,4120001247211,新規,0,2022-07-06,2022-07-06,ロケットプリント株式会社,,株式会社,大阪府,大阪市北区,中崎西３丁目２番１７号朝日プラザ梅田東ＩＩ２０１号室,00127120,27,127,5300015,,,,,,,2022-07-06,1,,,,,ロケットプリント,0
1125,4120001247285,新規,0,2022-07-06,2022-07-06,株式会社ＹｕＡ,,株式会社,大阪府,大阪市住之江区,安立１丁目１４番１１号,,27,125,5590003,,,,,,,2022-07-06,1,,,,,ユウア,0
1130,4120101065851,新規,0,2022-07-06,2022-07-06,株式会社グラフト,,株式会社,大阪府,藤井寺市,国府１丁目１番７号,,27,226,5830006,,,,,,,2022-07-06,1,,,,,グラフト,0
1131,4120101065876,新規,0,2022-07-06,2022-07-06,株式会社辻ウッドテクニカル,00127113,株式会社,大阪府,泉南郡岬町,淡輪８５２番地の１,,27,366,5990301,,,,,,,2022-07-06,1,,,,,ツジウッドテクニカル,0
1132,4120103004758,新規,0,2022-07-06,2022-07-06,タイセイ合同会社,,合同会社,大阪府,羽曳野市,向野１丁目５番１３号,,27,222,5830883,,,,,,,2022-07-06,1,,,,,タイセイ,0
1136,4120901046191,新規,0,2022-07-06,2022-07-06,イマックス株式会社,,株式会社,大阪府,高槻市,氷室町１丁目８番４号,,27,207,5691141,,,,,,,2022-07-06,1,,,,,イマックス,0
1137,4120901046200,新規,0,2022-07-06,2022-07-06,株式会社ウォーターライフ,,株式会社,大阪府,豊中市,桜の町３丁目２番７の２号,,27,203,5600054,,,,,,,2022-07-06,1,,,,,ウォーターライフ,0
1144,4140003017882,新規,0,2022-07-06,2022-07-06,合同会社Ｚｕｔｔｏ,,合同会社,兵庫県,神戸市灘区,摩耶海岸通２丁目３番１１－５０８号,,28,102,6570855,,,,,,,2022-07-06,1,,,,,ズット,0
1146,4150001025663,新規,0,2022-07-06,2022-07-06,Ｓ．Ｂ．建設株式会社,,株式会社,奈良県,北葛城郡広陵町,大字的場７９番地２,,29,426,6350802,,,,,,,2022-07-06,1,,,,,エスビーケンセツ,0
1147,4150001025671,新規,0,2022-07-06,2022-07-06,株式会社ＳＨＯＫＥＮ,,株式会社,奈良県,大和郡山市,高田町６－４,,29,203,6391132,,,,,,,2022-07-06,1,,,,,ショウケン,0
1149,4160001024350,新規,0,2022-07-06,2022-07-06,株式会社西川リース,,株式会社,滋賀県,東近江市,八日市緑町２３番２号,,25,213,5270023,,,,,,,2022-07-06,1,,,,,ニシカワリース,0
1156,4180001152026,新規,0,2022-07-06,2022-07-06,株式会社じゃい,,株式会社,愛知県,名古屋市港区,港陽２丁目８番１０号,,23,111,4550013,,,,,,,2022-07-06,1,,,,,ジャイ,0
1157,4180001152067,新規,0,2022-07-06,2022-07-06,株式会社ＷＩＮＺＹ,,株式会社,愛知県,名古屋市中村区,本陣通５丁目１３番地,,23,105,4530041,,,,,,,2022-07-06,1,,,,,ウインジー,0
1159,4180003024025,新規,0,2022-07-06,2022-07-06,合同会社ホプミン,,合同会社,愛知県,小牧市,大字大山２０５０番地５,,23,219,4850801,,,,,,,2022-07-06,1,,,,,ホプミン,0
1160,4180005019832,新規,0,2022-07-06,2022-07-06,一般社団法人炭素会計アドバイザー協会,,その他の設立登記法人,愛知県,名古屋市中区,栄２丁目６番１号ＲＴ白川ビル２階株式会社ウェイストボックス内,,23,106,4600008,,,,,,,2022-07-06,1,,,,,タンソカイケイアドバイザーキョウカイ,0
1162,4180301036416,新規,0,2022-07-06,2022-07-06,ＭＩＴＯＲＡ株式会社,,株式会社,愛知県,豊田市,花園町小松原１６４番地８,,23,211,4730924,,,,,,,2022-07-06,1,,,,,ミトラ,0
1165,4190001029586,新規,0,2022-07-06,2022-07-06,株式会社ライトアップ,,株式会社,三重県,鈴鹿市,末広北２丁目８番３号シティーグランツスエヒロＣ棟１０２号室,,24,207,5130854,,,,,,,2022-07-06,1,,,,,ライトアップ,0
1166,4190003004034,新規,0,2022-07-06,2022-07-06,合同会社暖々,,合同会社,三重県,名張市,つつじが丘北６番町１５２番地,,24,208,5180436,,,,,,,2022-07-06,1,,,,,ダンダン,0
1170,4220001024930,新規,0,2022-07-06,2022-07-06,株式会社柳川,,株式会社,石川県,小松市,五国寺町松谷２３番地１,,17,203,9230152,,,,,,,2022-07-06,1,,,,,ヤナガワ,0
1171,4220001024939,新規,0,2022-07-06,2022-07-06,株式会社ＧＵＡＲＤＹ,,株式会社,石川県,金沢市,米泉町１丁目２９番地２,,17,201,9218044,,,,,,,2022-07-06,1,,,,,ガーディ,0
1172,4220005008681,新規,0,2022-07-06,2022-07-06,のとじま特定地域づくり事業協同組合,,その他の設立登記法人,石川県,七尾市,能登島向田町ろ部８番地１,,17,202,9260211,,,,,,,2022-07-06,1,,,,,ノトジマトクテイチイキヅクリ,0
1174,4230001019434,新規,0,2022-07-06,2022-07-06,株式会社Ｈ．Ｓ．ＦＩＮＥ,,株式会社,富山県,氷見市,稲積３６８３番地,,16,205,9350006,,,,,,,2022-07-06,1,,,,,エイチエスファイン,0
1180,4240001060049,新規,0,2022-07-06,2022-07-06,株式会社むつき,,株式会社,広島県,尾道市,東則末町１３番４８号,,34,205,7220023,,,,,,,2022-07-06,1,,,,,ムツキ,0
1184,4260001037012,新規,0,2022-07-06,2022-07-06,Ｍテック株式会社,,株式会社,岡山県,倉敷市,連島４丁目１番５３号エクセランＫ（Ｂ－１０１）,,33,202,7128012,,,,,,,2022-07-06,1,,,,,エムテック,0
1186,4280001008738,新規,0,2022-07-06,2022-07-06,株式会社佐渡村衣裳店,,株式会社,島根県,浜田市,三隅町岡見１２１２番地,,32,202,6993226,,,,,,,2022-07-06,1,,,,,サドムライショウテン,0
1190,4290002020286,新規,0,2022-07-06,2022-07-06,福岡情報システム有限会社,,有限会社,福岡県,福岡市南区,大橋４丁目１７番５号,,40,134,8150033,,,,,,,2022-07-06,1,,,,,フクオカジョウホウシステム,0
1192,4290003012704,新規,0,2022-07-06,2022-07-06,合同会社灯会計事務所,,合同会社,福岡県,福岡市中央区,赤坂１丁目５番１１号,,40,133,8100042,,,,,,,2022-07-06,1,,,,,アカリカイケイジムショ,0
1193,4290003012712,新規,0,2022-07-06,2022-07-06,合同会社ＴＵＮＡＧＯ,,合同会社,福岡県,福岡市中央区,荒戸１丁目９－１６－５０１,,40,133,8100062,,,,,,,2022-07-06,1,,,,,ツナゴー,0
1198,4310005008623,新規,0,2022-07-06,2022-07-06,一般社団法人ＦＥＮＩＣＥ,,その他の設立登記法人,長崎県,長崎市,中里町１７０４番地,,42,201,8510103,,,,,,,2022-07-06,1,,,,,フェニーチェ,0
1201,4330001029902,新規,0,2022-07-06,2022-07-06,株式会社高木防水興業,00127121,株式会社,熊本県,熊本市西区,島崎６丁目１８番４１－１号,,43,103,8600073,,,,,,,2022-07-06,1,,,,,タカキボウスイコウギョウ,0
1202,4330001029910,新規,0,2022-07-06,2022-07-06,株式会社ＢＴＣ　ｓｔｙｌｅｓ,,株式会社,熊本県,熊本市中央区,城東町５番３６号大祥ビル３階,,43,101,8600846,,,,,,,2022-07-06,1,,,,,ビーティーシースタイル,0
1205,4340001024877,新規,0,2022-07-06,2022-07-06,株式会社ユナイテッド技建,,株式会社,鹿児島県,鹿屋市,川西町３６９５番地２,,46,203,8930032,,,,,,,2022-07-06,1,,,,,ユナイテッドギケン,0
1206,4340003003846,新規,0,2022-07-06,2022-07-06,合同会社鹿児島アグリサポート,,合同会社,鹿児島県,霧島市,溝辺町三縄１８４０番地３,,46,218,8996403,,,,,,,2022-07-06,1,,,,,カゴシマアグリサポート,0
1210,4360001030659,新規,0,2022-07-06,2022-07-06,株式会社一刻館,,株式会社,沖縄県,那覇市,前島３丁目９番２４号２Ｆ－Ａ,,47,201,9000016,,,,,,,2022-07-06,1,,,,,イッコクカン,0
1217,4380001032959,新規,0,2022-07-06,2022-07-06,株式会社コンフォート産業,,株式会社,福島県,会津若松市,千石町１０番３７号,,07,202,9650817,,,,,,,2022-07-06,1,,,,,コンフォートサンギョウ,0
1218,4390001016952,新規,0,2022-07-06,2022-07-06,株式会社ＮｅｘｔＶｅｒｄｅ,,株式会社,山形県,南陽市,宮内３６２６番地１,,06,213,9920472,,,,,,,2022-07-06,1,,,,,ネクストベルデ,0
1220,4390003001977,新規,0,2022-07-06,2022-07-06,ｎｉｃｏｎｄｏ合同会社,,合同会社,山形県,東根市,三日町３丁目４番２５－２０号,,06,211,9993706,,,,,,,2022-07-06,1,,,,,ニコンドー,0
1222,4400001015936,新規,0,2022-07-06,2022-07-06,株式会社福どりファーム,,株式会社,岩手県,二戸郡一戸町,小繋字小繋１２２番地６５,,03,524,0285132,,,,,,,2022-07-06,1,,,,,フクドリファーム,0
1223,4400001015944,新規,0,2022-07-06,2022-07-06,株式会社ＨＯＲＳＥ＆ＭＵＳＨ,,株式会社,岩手県,八幡平市,松尾寄木第１地割１４８３,,03,214,0287302,,,,,,,2022-07-06,1,,,,,,0
1233,4420001017922,新規,0,2022-07-06,2022-07-06,ベジハート株式会社,,株式会社,青森県,八戸市,大字長苗代字前田６８番地,,02,203,0391103,,,,,,,2022-07-06,1,,,,,ベジハート,0
1236,4430001086974,新規,0,2022-07-06,2022-07-06,株式会社ＢＬＵＥ　ＮＡＴＵＲＥ,,株式会社,北海道,登別市,富岸町２丁目３３番地１７グリーンリバー１０２,,01,230,0590028,,,,,,,2022-07-06,1,,,,,ブルーネイチャー,0
1238,4430003014074,新規,0,2022-07-06,2022-07-06,ＧＢＡフードカンパニー合同会社,,合同会社,北海道,札幌市中央区,南八条西１２丁目１番３０号,,01,101,0640808,,,,,,,2022-07-06,1,,,,,ジビエフードカンパニー,0
1240,4440001009109,新規,0,2022-07-06,2022-07-06,株式会社北光宅建,,株式会社,北海道,函館市,上新川町６番４号,,01,202,0400031,,,,,,,2022-07-06,1,,,,,,0
1241,4450001013737,新規,0,2022-07-06,2022-07-06,株式会社Ｊ‐ＷＯＲＬＤ,,株式会社,北海道,旭川市,大町一条１９丁目１３４番地の１０５,,01,204,0700841,,,,,,,2022-07-06,1,,,,,ジェイワールド,0
1242,4460003000906,新規,0,2022-07-06,2022-07-06,合同会社ＤＥＧＵ．ＴＥＣＨ,,合同会社,北海道,厚岸郡浜中町,茶内緑５１番地,,01,663,0881361,,,,,,,2022-07-06,1,,,,,デグテック,0
1244,4480001011779,新規,0,2022-07-06,2022-07-06,株式会社瀬川商店,,株式会社,徳島県,徳島市,富田橋２丁目９番地の２松村ビル１０１,,36,201,7700937,,,,,,,2022-07-06,1,,,,,セガワショウテン,0
1248,4500001024324,新規,0,2022-07-06,2022-07-06,株式会社ＭＥＳＳＡ宇和島,,株式会社,愛媛県,宇和島市,保田甲３０２番地１,,38,203,7980077,,,,,,,2022-07-06,1,,,,,メッサウワジマ,0
1250,4500005008505,新規,0,2022-07-06,2022-07-06,一般社団法人ＫＥＮ,,その他の設立登記法人,愛媛県,今治市,常盤町６丁目８番４号,,38,202,7940015,,,,,,,2022-07-06,1,,,,,ケン,0
1256,5010001227669,新規,0,2022-07-06,2022-07-06,株式会社ハイ・サポートサービス,,株式会社,東京都,千代田区,九段南１丁目５番６号りそな九段ビル５階ＫＳフロア,,13,101,1020074,,,,,,,2022-07-06,1,,,,,ハイサポートサービス,0
1257,5010001227776,新規,0,2022-07-06,2022-07-06,株式会社裕道,,株式会社,東京都,中央区,銀座１丁目１５番７号ＭＡＣ銀座ビル３階,,13,102,1040061,,,,,,,2022-07-06,1,,,,,ユウドウ,0
1266,5010401168364,新規,0,2022-07-06,2022-07-06,Ｓｔｕｄｉｏ　Ｄｒａｇｏｎ　Ｊａｐａｎ株式会社,,株式会社,東京都,港区,西新橋２丁目７－４ＣＪビル,,13,103,1050003,,,,,,,2022-07-06,1,,,,,スタジオドラゴンジャパン,0
1270,5010405021164,新規,0,2022-07-06,2022-07-06,ＲＢソーラーエースホールディングス一般社団法人,,その他の設立登記法人,東京都,港区,虎ノ門３丁目２２番１０－２０１号,,13,103,1050001,,,,,,,2022-07-06,1,,,,,アールビーソーラーエースホールディングス,0
1273,5010501049068,新規,0,2022-07-06,2022-07-06,株式会社国際印刷,,株式会社,東京都,台東区,浅草橋３丁目２７番５号,,13,106,1110053,,,,,,,2022-07-06,1,,,,,コクサイインサツ,0
1280,5010701042905,新規,0,2022-07-06,2022-07-06,株式会社トレジャリー・パートナーズ,,株式会社,東京都,品川区,西品川１丁目１番１号住友不動産大崎ガーデンタワー９階,,13,109,1410033,,,,,,,2022-07-06,1,,,,,トレジャリーパートナーズ,0
1281,5010701042913,新規,0,2022-07-06,2022-07-06,ストックルーム株式会社,,株式会社,東京都,品川区,東五反田５丁目２２番３２号サンテラス池田山１０３,,13,109,1410022,,,,,,,2022-07-06,1,,,,,ストックルーム,0
1285,5010901051169,新規,0,2022-07-06,2022-07-06,ＮＩＴＫＡＬ　ＥＮＴＥＲＰＲＩＳＥ　ＳＥＲＶＩＣＥＳ株式会社,,株式会社,東京都,世田谷区,用賀１丁目１３番２３－６０２号,,13,112,1580097,,,,,,,2022-07-06,1,,,,,ニティカルエンタープライズサービス,0
1286,5010903007499,新規,0,2022-07-06,2022-07-06,合同会社ルセンテ,,合同会社,東京都,世田谷区,代田４丁目３番３０号,,13,112,1550033,,,,,,,2022-07-06,1,,,,,ルセンテ,0
1294,5011001148467,新規,0,2022-07-06,2022-07-06,株式会社ＴＫＭ,,株式会社,東京都,目黒区,原町１丁目３３番２号,,13,110,1520011,,,,,,,2022-07-06,1,,,,,ティーケーエム,0
1295,5011001148500,新規,0,2022-07-06,2022-07-06,ＧＲＡＢＡ株式会社,,株式会社,東京都,渋谷区,猿楽町２番５号佐藤エステートビル３号館Ｂ１,,13,113,1500033,,,,,,,2022-07-06,1,,,,,グラバ,0
1296,5011005009640,新規,0,2022-07-06,2022-07-06,一般社団法人インターアーツ・アカデミー,,その他の設立登記法人,東京都,渋谷区,神宮前６丁目２３－４桑野ビル２Ｆ,,13,113,1500001,,,,,,,2022-07-06,1,,,,,,0
1300,5011101099387,新規,0,2022-07-06,2022-07-06,株式会社相進,,株式会社,東京都,新宿区,高田馬場３丁目２５番３０号,,13,104,1690075,,,,,,,2022-07-06,1,,,,,ソウシン,0
1301,5011101099437,新規,0,2022-07-06,2022-07-06,株式会社ねっこ,,株式会社,東京都,新宿区,大久保２丁目２５番２９号,,13,104,1690072,,,,,,,2022-07-06,1,,,,,ネッコ,0
1304,5011103011936,新規,0,2022-07-06,2022-07-06,スタジオタキ合同会社,,合同会社,東京都,新宿区,西新宿３丁目３番１３号西新宿水間ビル６階,,13,104,1600023,,,,,,,2022-07-06,1,,,,,スタジオタキ,0
1305,5011203003858,新規,0,2022-07-06,2022-07-06,合同会社ＡＢＩＧＡＩＬ,,合同会社,東京都,中野区,中央２丁目３０番９号,,13,114,1640011,,,,,,,2022-07-06,1,,,,,アビゲイル,0
1306,5011501028219,新規,0,2022-07-06,2022-07-06,ナイスガイ株式会社,,株式会社,東京都,荒川区,町屋６丁目１番１５号,,13,118,1160001,,,,,,,2022-07-06,1,,,,,ナイスガイ,0
1307,5011501028227,新規,0,2022-07-06,2022-07-06,株式会社ＭＩＴＡＫＥＯＡＳＨＩＮ,,株式会社,東京都,北区,堀船１丁目５番１－２０４号,,13,117,1140004,,,,,,,2022-07-06,1,,,,,ミタケオアシン,0
1308,5011501028235,新規,0,2022-07-06,2022-07-06,ＴｏＳｅｅ株式会社,,株式会社,東京都,北区,滝野川７丁目１７番１３－１００１号,,13,117,1140023,,,,,,,2022-07-06,1,,,,,トゥーシー,0
1309,5011503005208,新規,0,2022-07-06,2022-07-06,ＨＹＳ合同会社,,合同会社,東京都,荒川区,荒川２丁目４９番１号Ａｒａ・Ｓｏｌａｒｅ１０２,,13,118,1160002,,,,,,,2022-07-06,1,,,,,エイチワイエス,0
1310,5011601026072,新規,0,2022-07-06,2022-07-06,株式会社ジャスト,,株式会社,東京都,練馬区,土支田３丁目１番１８号,,13,120,1790076,,,,,,,2022-07-06,1,,,,,ジャスト,0
1311,5011701025420,新規,0,2022-07-06,2022-07-06,株式会社ＢＵＩＬＤ　ＯＮＥ,,株式会社,東京都,江戸川区,南小岩６丁目９番５号,,13,123,1330056,,,,,,,2022-07-06,1,,,,,ビルドワン,0
1312,5011701025437,新規,0,2022-07-06,2022-07-06,株式会社ＨＡＭＩＴ’Ｓ,,株式会社,東京都,江戸川区,西葛西３丁目８番３５号,,13,123,1340088,,,,,,,2022-07-06,1,,,,,ハミッツ,0
1319,5012401039363,新規,0,2022-07-06,2022-07-06,忠兵衛ＪＡＰＡＮ株式会社,,株式会社,東京都,調布市,柴崎２丁目１７番地８,,13,208,1820014,,,,,,,2022-07-06,1,,,,,チュウベイジャパン,0
1320,5012801021706,新規,0,2022-07-06,2022-07-06,株式会社Ｉｍｉｔａｔｅ,,株式会社,東京都,東大和市,蔵敷３丁目８３９番地の６,,13,220,2070032,,,,,,,2022-07-06,1,,,,,イミテート,0
1321,5013101008963,新規,0,2022-07-06,2022-07-06,株式会社ブルーム東京,,株式会社,東京都,青梅市,河辺町８丁目２番地の２３マルダイビル１階,,13,205,1980036,,,,,,,2022-07-06,1,,,,,ブルームトウキョウ,0
1323,5013301049345,新規,0,2022-07-06,2022-07-06,株式会社Ｂｙｅｒｌｉｓ,,株式会社,東京都,豊島区,東池袋１丁目１７番１１号パークハイツ池袋１１０５号,,13,116,1700013,,,,,,,2022-07-06,1,,,,,バイアリーズ,0
1325,5020001147172,新規,0,2022-07-06,2022-07-06,デイリー・コンサルティング株式会社,,株式会社,神奈川県,横浜市中区,桜木町１丁目１０１番地１クロスゲート７階,,14,104,2310062,,,,,,,2022-07-06,1,,,,,デイリーコンサルティング,0
1326,5020001147180,新規,0,2022-07-06,2022-07-06,株式会社ＷＩＮＳＯＭＥ,,株式会社,神奈川県,横浜市港北区,綱島東５丁目４番５－６０９号,,14,109,2230052,,,,,,,2022-07-06,1,,,,,ウィンサム,0
1327,5020001147197,新規,0,2022-07-06,2022-07-06,株式会社ＡＬＮＥＳＳ,,株式会社,神奈川県,横浜市都筑区,中川中央１丁目３０番１号,,14,118,2240003,,,,,,,2022-07-06,1,,,,,オルネス,0
1328,5020001147214,新規,0,2022-07-06,2022-07-06,株式会社バックナインマネジメント,,株式会社,神奈川県,横浜市港北区,篠原北２丁目１８番２－１号,,14,109,2220021,,,,,,,2022-07-06,1,,,,,バックナインマネジメント,0
1330,5020003022027,新規,0,2022-07-06,2022-07-06,ＭＩＨＡ合同会社,,合同会社,神奈川県,横浜市金沢区,六浦１丁目１７番２１,,14,108,2360031,,,,,,,2022-07-06,1,,,,,ミハ,0
1331,5020003022043,新規,0,2022-07-06,2022-07-06,２１Ｗｉｎｄｏｗ合同会社,,合同会社,神奈川県,川崎市中原区,下新城２丁目４番１８号,,14,133,2110042,,,,,,,2022-07-06,1,,,,,トゥエンティーワンウィンドウ,0
1333,5021001076452,新規,0,2022-07-06,2022-07-06,株式会社ｒｏｗｈｏｕｓｅ,,株式会社,神奈川県,藤沢市,辻堂西海岸１丁目９－１,,14,205,2510046,,,,,,,2022-07-06,1,,,,,ロウハウス,0
1342,5030001148995,新規,0,2022-07-06,2022-07-06,株式会社Ｔ・Ｓ・Ｓ,,株式会社,埼玉県,新座市,栄２丁目３番２２号,,11,230,3520014,,,,,,,2022-07-06,1,,,,,ティエスエス,0
1343,5030001149036,新規,0,2022-07-06,2022-07-06,株式会社ＰＳＫアセット,,株式会社,埼玉県,川口市,並木元町１番６７－９２１号,,11,203,3320033,,,,,,,2022-07-06,1,,,,,ピーエスケーアセット,0
1344,5030003019724,新規,0,2022-07-06,2022-07-06,ＹＡＭ合同会社,,合同会社,埼玉県,三郷市,新三郷ららシティ１丁目６番７号,,11,237,3410009,,,,,,,2022-07-06,1,,,,,ワイエーエム,0
1345,5030003019740,新規,0,2022-07-06,2022-07-06,合同会社フェディバード,,合同会社,埼玉県,北足立郡伊奈町,寿４丁目６０番地３,,11,301,3620807,,,,,,,2022-07-06,1,,,,,フェディバード,0
1352,5040001124104,新規,0,2022-07-06,2022-07-06,株式会社プラネトレード,,株式会社,千葉県,市原市,ちはら台東１丁目１４番地１,,12,219,2900141,,,,,,,2022-07-06,1,,,,,プラネトレード,0
1353,5040001124120,新規,0,2022-07-06,2022-07-06,ＰＩＹＯＲＥＳＯＲＴ株式会社,,株式会社,千葉県,千葉市中央区,寒川町２丁目２０３番地９,,12,101,2600832,,,,,,,2022-07-06,1,,,,,ピヨリゾート,0
1354,5040001124129,新規,0,2022-07-06,2022-07-06,株式会社アイエムティーコーポレーション,,株式会社,千葉県,浦安市,明海６丁目１番１２－３０４号,,12,227,2790014,,,,,,,2022-07-06,1,,,,,アイエムティーコーポレーション,0
1355,5040001124137,新規,0,2022-07-06,2022-07-06,株式会社櫻興業,,株式会社,千葉県,千葉市中央区,今井１丁目２２－１美樹ビル１０１号,,12,101,2600834,,,,,,,2022-07-06,1,,,,,サクラコウギョウ,0
1356,5040001124145,新規,0,2022-07-06,2022-07-06,株式会社三井フロンティア,,株式会社,千葉県,船橋市,本町７丁目５番７－１０２号,,12,204,2730005,,,,,,,2022-07-06,1,,,,,ミツイフロンティア,0
1357,5040001124153,新規,0,2022-07-06,2022-07-06,株式会社Ｆｏｒｔｉｓｉｏ,,株式会社,千葉県,市川市,幸２丁目１４番２０号,,12,203,2720123,,,,,,,2022-07-06,1,,,,,フォルティシオ,0
1358,5040003020367,新規,0,2022-07-06,2022-07-06,合同会社ＴＫＧ,,合同会社,千葉県,松戸市,金ケ作４０４－９１ヒルトップ五香２０１号,,12,207,2702251,,,,,,,2022-07-06,1,,,,,,0
1359,5040003020375,新規,0,2022-07-06,2022-07-06,合同会社ピクニカ,,合同会社,千葉県,流山市,富士見台２丁目７番地の１０,,12,220,2700127,,,,,,,2022-07-06,1,,,,,ピクニカ,0
1360,5040003020391,新規,0,2022-07-06,2022-07-06,ＤＨＡＮＵＳＨＫＡ　ＩＮＴＥＲＮＡＴＩＯＮＡＬ合同会社,,合同会社,千葉県,富里市,十倉７６３番地４０―１０１,,12,233,2860212,,,,,,,2022-07-06,1,,,,,ダヌシュクインターナショナル,0
1364,5050001051330,新規,0,2022-07-06,2022-07-06,株式会社シーファースト,,株式会社,茨城県,古河市,東山田５３１０番地２５３,,08,204,3060112,,,,,,,2022-07-06,1,,,,,シーファースト,0
1365,5050001051339,新規,0,2022-07-06,2022-07-06,セイカ株式会社,,株式会社,茨城県,古河市,下辺見２８０８番地フォレストヒルズ１０６,,08,204,3060235,,,,,,,2022-07-06,1,,,,,セイカ,0
1366,5050001051347,新規,0,2022-07-06,2022-07-06,天城電子株式会社,,株式会社,茨城県,笠間市,泉２２００番地９,,08,216,3190209,,,,,,,2022-07-06,1,,,,,アマギデンシ,0
1367,5050001051355,新規,0,2022-07-06,2022-07-06,用田建設株式会社,,株式会社,茨城県,高萩市,大字島名１６９１番地３,,08,214,3180023,,,,,,,2022-07-06,1,,,,,ヨウダケンセツ,0
1368,5050003006654,新規,0,2022-07-06,2022-07-06,ＳＴＡＮＤ　ＵＰ合同会社,,合同会社,茨城県,小美玉市,佐才３３－１６,,08,236,3113402,,,,,,,2022-07-06,1,,,,,スタンドアップ,0
1369,5050003006662,新規,0,2022-07-06,2022-07-06,合同会社ｃｒｏｉｘ,,合同会社,茨城県,筑西市,甲２６１番地３,,08,227,3080021,,,,,,,2022-07-06,1,,,,,クロワ,0
1373,5080001025059,新規,0,2022-07-06,2022-07-06,株式会社スレスタ,,株式会社,静岡県,静岡市葵区,駿府町２番４号,,22,101,4200856,,,,,,,2022-07-06,1,,,,,スレスタ,0
1375,5080401025939,新規,0,2022-07-06,2022-07-06,株式会社アレス,,株式会社,静岡県,磐田市,岩井１９０７番地２４０３,,22,211,4380016,,,,,,,2022-07-06,1,,,,,アレス,0
1377,5080403004577,新規,0,2022-07-06,2022-07-06,合同会社ゴールスパイス,,合同会社,静岡県,菊川市,下平川７９０番地１、サンビレッチ店舗、東号室,,22,224,4371514,,,,,,,2022-07-06,1,,,,,ゴールスパイス,0
1379,5100001035484,新規,0,2022-07-06,2022-07-06,たまい工務店株式会社,,株式会社,長野県,上田市,上野３９３番地２,,20,203,3860003,,,,,,,2022-07-06,1,,,,,タマイコウムテン,0
1380,5100001035492,新規,0,2022-07-06,2022-07-06,株式会社トライシクル,,株式会社,長野県,長野市,三輪１丁目１６番１７号,,20,201,3800803,,,,,,,2022-07-06,1,,,,,トライシクル,0
1397,5120001247152,新規,0,2022-07-06,2022-07-06,株式会社井上ＣＰ不動産管理,,株式会社,大阪府,大阪市中央区,日本橋１丁目１７－１９三木商事ビル２階,,27,128,5420073,,,,,,,2022-07-06,1,,,,,イノウエシーピーフドウサンカンリ,0
1398,5120001247169,新規,0,2022-07-06,2022-07-06,株式会社たまこ,,株式会社,大阪府,大阪市淀川区,塚本２丁目１７番６号,,27,123,5320026,,,,,,,2022-07-06,1,,,,,タマコ,0
1399,5120001247177,新規,0,2022-07-06,2022-07-06,株式会社アピス,,株式会社,大阪府,大阪市北区,梅田２丁目１番２２号野村不動産西梅田ビル６階,,27,127,5300001,,,,,,,2022-07-06,1,,,,,アピス,0
1400,5120001247185,新規,0,2022-07-06,2022-07-06,株式会社エーティーエス,,株式会社,大阪府,大阪市淀川区,宮原２丁目１１－９白鳳ビル４階,,27,123,5320003,,,,,,,2022-07-06,1,,,,,エーティーエス,0
1401,5120001247210,新規,0,2022-07-06,2022-07-06,株式会社誠進,,株式会社,大阪府,大阪市天王寺区,烏ケ辻１丁目２番５－１００１号,00127119,27,109,5430042,,,,,,,2022-07-06,1,,,,,セイシン,0
1406,5120003022009,新規,0,2022-07-06,2022-07-06,合同会社Ｒｅｉｏ　Ａｓｓｅｔ　Ｍａｎａｇｅｍｅｎｔ,,合同会社,大阪府,大阪市西淀川区,野里１丁目６番９号,,27,113,5550024,,,,,,,2022-07-06,1,,,,,レイオアセットマネジメント,0
1407,5120003022017,新規,0,2022-07-06,2022-07-06,ＣＧＴＴ合同会社,,合同会社,大阪府,大阪市生野区,新今里３丁目７－１９,,27,116,5440001,,,,,,,2022-07-06,1,,,,,シジーティティ,0
1411,5120101065842,新規,0,2022-07-06,2022-07-06,株式会社エスティー,,株式会社,大阪府,羽曳野市,南恵我之荘５丁目２番７号,,27,222,5830885,,,,,,,2022-07-06,1,,,,,エスティー,0
1412,5120101065859,新規,0,2022-07-06,2022-07-06,株式会社Ｈｉ‐ｓｈａｒｅ,,株式会社,大阪府,泉佐野市,南泉ケ丘３丁目４番１４号,,27,213,5980073,,,,,,,2022-07-06,1,,,,,ハイシェア,0
1417,5120105009589,新規,0,2022-07-06,2022-07-06,税理士法人ＬＯＧＩＣＡ,,その他の設立登記法人,大阪府,堺市堺区,熊野町東４丁４番１９号平成ビル６Ｆ,,27,141,5900946,,,,,,,2022-07-06,1,,,,,ロジカ,0
1420,5122001036031,新規,0,2022-07-06,2022-07-06,株式会社比呂,,株式会社,大阪府,四條畷市,田原台６丁目９番７号,,27,229,5750013,,,,,,,2022-07-06,1,,,,,ヒロ,0
1435,5140005026229,新規,0,2022-07-06,2022-07-06,一般社団法人甲南大学同窓会甲南会,,その他の設立登記法人,兵庫県,神戸市東灘区,住吉本町２丁目２９番１５号,,28,101,6580051,,,,,,,2022-07-06,1,,,,,コウナンダイガクドウソウカイコウナンカイ,0
1440,5150003002726,新規,0,2022-07-06,2022-07-06,合同会社いとあおによし,,合同会社,奈良県,奈良市,西木辻町１１５番地の４,00127122,29,201,6308325,,,,,,,2022-07-06,1,,,,,イトアオニヨシ,0
1441,5160001024341,新規,0,2022-07-06,2022-07-06,株式会社木谷工務店,,株式会社,滋賀県,長浜市,木之本町廣瀬２８８番地１５,,25,203,5290424,,,,,,,2022-07-06,1,,,,,キダニコウムテン,0
1450,5180001152009,新規,0,2022-07-06,2022-07-06,Ｔ’ｓ　ｅｓｔａｔｅ株式会社,,株式会社,愛知県,名古屋市昭和区,福江１丁目１３番９号,,23,107,4660059,,,,,,,2022-07-06,1,,,,,ティーズエステート,0
1451,5180001152041,新規,0,2022-07-06,2022-07-06,株式会社ジュエリーシーン,,株式会社,愛知県,日進市,竹の山２丁目２２０２番地,,23,230,4700136,,,,,,,2022-07-06,1,,,,,ジュエリーシーン,0
1452,5180001152066,新規,0,2022-07-06,2022-07-06,株式会社トウショウ,,株式会社,愛知県,北名古屋市,熊之庄登り戸１１０番地１,,23,234,4810006,,,,,,,2022-07-06,1,,,,,トウショウ,0
1453,5180001152108,新規,0,2022-07-06,2022-07-06,株式会社東海アシスト,,株式会社,愛知県,名古屋市東区,東桜２丁目３番３８号,,23,102,4610005,,,,,,,2022-07-06,1,,,,,トウカイアシスト,0
1454,5180001152124,新規,0,2022-07-06,2022-07-06,いろは株式会社,,株式会社,愛知県,大府市,共和町３丁目６番地の５,,23,223,4740061,,,,,,,2022-07-06,1,,,,,イロハ,0
1456,5180005019831,新規,0,2022-07-06,2022-07-06,医療法人社団青雲之志,,その他の設立登記法人,愛知県,津島市,金柳町字南脇２５番地,,23,208,4960014,,,,,,,2022-07-06,1,,,,,セイウンノココロザシ,0
1457,5180301036398,新規,0,2022-07-06,2022-07-06,一色建築株式会社,,株式会社,愛知県,西尾市,一色町酒手島西前通３２番地,,23,213,4440415,,,,,,,2022-07-06,1,,,,,イッシキケンチク,0
1458,5180301036415,新規,0,2022-07-06,2022-07-06,株式会社大浦,,株式会社,愛知県,みよし市,三好町半野木１番地８２－３号,,23,236,4700224,,,,,,,2022-07-06,1,,,,,オオウラ,0
1460,5190001029585,新規,0,2022-07-06,2022-07-06,株式会社エーライフ,,株式会社,三重県,四日市市,西坂部町８９７番地５,,24,202,5120913,,,,,,,2022-07-06,1,,,,,エーライフ,0
1467,5220003003320,新規,0,2022-07-06,2022-07-06,合同会社アヴェ・マリス・ステラ,,合同会社,石川県,白山市,河内町江津は１番地１９,,17,210,9202305,,,,,,,2022-07-06,1,,,,,アヴェマリスステラ,0
1468,5230001019433,新規,0,2022-07-06,2022-07-06,株式会社ＫＲＳ,,株式会社,富山県,富山市,豊田町１丁目３番４７号,,16,201,9318313,,,,,,,2022-07-06,1,,,,,ケーアールエス,0
1469,5230003001876,新規,0,2022-07-06,2022-07-06,ＢｅｃＫ合同会社,,合同会社,富山県,富山市,町村３２０番地２,,16,201,9300952,,,,,,,2022-07-06,1,,,,,ベック,0
1470,5230003001884,新規,0,2022-07-06,2022-07-06,合同会社おなかぐぅ,,合同会社,富山県,富山市,布瀬町１丁目８番１号タカイシビル２Ｆ,,16,201,9398206,,,,,,,2022-07-06,1,,,,,オナカグゥ,0
1482,5260001037003,新規,0,2022-07-06,2022-07-06,株式会社プライムミキ,,株式会社,岡山県,赤磐市,東軽部１８３３番地,,33,213,7012214,,,,,,,2022-07-06,1,,,,,プライムミキ,0
1483,5260001037011,新規,0,2022-07-06,2022-07-06,ＣＯＫ株式会社,,株式会社,岡山県,総社市,溝口１１２番地３ウイングパーソン２１－２０３,,33,208,7191135,,,,,,,2022-07-06,1,,,,,シーオーケー,0
1485,5270001008572,新規,0,2022-07-06,2022-07-06,株式会社シニアリビング・ソリューション,,株式会社,鳥取県,米子市,安倍２００番地１,,31,202,6830846,,,,,,,2022-07-06,1,,,,,シニアリビングソリューション,0
1487,5280001008737,新規,0,2022-07-06,2022-07-06,株式会社ブラザー,,株式会社,島根県,浜田市,長沢町８７番地８,,32,202,6970023,,,,,,,2022-07-06,1,,,,,ブラザー,0
1493,5290001098117,新規,0,2022-07-06,2022-07-06,維新家ジャパン株式会社,,株式会社,福岡県,福岡市博多区,博多駅前３丁目７番３５号博多ハイテックビル５０５,,40,132,8120011,,,,,,,2022-07-06,1,,,,,イシンヤジャパン,0
1494,5290001098133,新規,0,2022-07-06,2022-07-06,株式会社万葉,,株式会社,福岡県,宗像市,冨地原３９７番地１,,40,220,8114154,,,,,,,2022-07-06,1,,,,,マンヨウ,0
1495,5290001098158,新規,0,2022-07-06,2022-07-06,株式会社一竜工業,,株式会社,福岡県,みやま市,瀬高町下庄７７８番地８,,40,229,8350024,,,,,,,2022-07-06,1,,,,,イチリュウコウギョウ,0
1496,5290001098182,新規,0,2022-07-06,2022-07-06,翔建金属工業株式会社,,株式会社,福岡県,大野城市,乙金東１丁目３番５０号,,40,219,8160901,,,,,,,2022-07-06,1,,,,,ショウケンキンゾクコウギョウ,0
1504,5340001024884,新規,0,2022-07-06,2022-07-06,株式会社翔建築,,株式会社,鹿児島県,鹿児島市,中山町４９８０番地８,,46,201,8910105,,,,,,,2022-07-06,1,,,,,カケルケンチク,0
1509,5360001030633,新規,0,2022-07-06,2022-07-06,株式会社リンケージ沖縄,,株式会社,沖縄県,宜野湾市,真志喜２丁目８番８号,,47,205,9012224,,,,,,,2022-07-06,1,,,,,リンケージオキナワ,0
1510,5360001030666,新規,0,2022-07-06,2022-07-06,株式会社建築意思,,株式会社,沖縄県,南城市,玉城字奥武２７５番地３奥武島シーサイドビュー１０５号,,47,215,9010614,,,,,,,2022-07-06,1,,,,,ケンチクイシ,0
1511,5370001048749,新規,0,2022-07-06,2022-07-06,株式会社アンバランス,,株式会社,宮城県,仙台市泉区,南光台東２丁目１９番２０号,,04,105,9818001,,,,,,,2022-07-06,1,,,,,アンバランス,0
1512,5370003005756,新規,0,2022-07-06,2022-07-06,合同会社まめいち,,合同会社,宮城県,仙台市泉区,南光台東２丁目５番１８号,,04,105,9818001,,,,,,,2022-07-06,1,,,,,マメイチ,0
1515,5430001086874,新規,0,2022-07-06,2022-07-06,徳川亭株式会社,00127117,株式会社,北海道,磯谷郡蘭越町,字湯里１５６‐４,,01,394,0481321,,,,,,,2022-07-06,1,,,,,トクガワテイ,0
1516,5430001086965,新規,0,2022-07-06,2022-07-06,株式会社Ｊａｐａｎ　Ｏｒｉｇｉｎ,,株式会社,北海道,札幌市清田区,平岡六条２丁目３‐１６,,01,110,0040876,,,,,,,2022-07-06,1,,,,,ジャパンオリジン,0
1517,5430001086973,新規,0,2022-07-06,2022-07-06,株式会社北海道地域振興研究所,,株式会社,北海道,札幌市中央区,南十三条西７丁目２番３８号,,01,101,0640913,,,,,,,2022-07-06,1,,,,,ホッカイドウチイキシンコウケンキュウショ,0
1523,5470001019145,新規,0,2022-07-06,2022-07-06,株式会社クレイン,,株式会社,香川県,高松市,十川東町４７６番地,,37,201,7610434,,,,,,,2022-07-06,1,,,,,クレイン,0
1532,5700150110754,新規,0,2022-07-06,2022-07-06,ＧＬＯＢＡＬ　ＳＴＡＲＭＡＲＫ（ＰＶＴ）ＬＴＤ,,外国会社等,茨城県,筑西市,海老ヶ島１４７８－２－Ｄ,,08,227,3004517,スリランカ民主社会主義共和国マッテゴダ、ロータステラース、２４／７／Ｃ,,,,,,2022-07-06,1,,,,,グローバルスターマークピーヴイーテイーエルテイーデイー,0
1533,5700150110762,新規,0,2022-07-06,2022-07-06,Ｈｏｔｔｅｅｚｅ　Ｉｎｔｅｒｎａｔｉｏｎａｌ　Ｌｉｍｉｔｅｄ,,外国会社等,東京都,中野区,弥生町４丁目３５－２,,13,114,1640013,Ｄｏｍｅｓｔｉｃａｌｌｙ，ｉｔ’ｓ　Ｒｏｏｍ　１４０５，１４／Ｆ．，１３５　Ｂｏｎｈａｍ　Ｓｔｒａｎｄ　Ｔｒａｄｅ　Ｃｅｎｔｒｅ，１３５　Ｂｏｎｈａｍ　Ｓｔｒａｎｄ，Ｓｈｅｕｎｇ　Ｗａｎ，Ｈｏｎｇ　Ｋｏｎｇ,,,,,,2022-07-06,1,,,,,ホツテイーズインターナシヨナルリミテツド,0
1534,5700150110770,新規,0,2022-07-06,2022-07-06,現代建設株式会社　東京事務所,,外国会社等,東京都,千代田区,丸の内３丁目４－２新日石ビル９１２号,,13,101,1000005,７５，Ｙｕｌｇｏｋ－ｒｏ，Ｊｏｎｇｎｏ－ｇｕ，ｓｅｏｕｌ，Ｋｏｒｅａ,,,,,,2022-07-06,1,,,,,ヒヨンデケンセツカブシキガイシヤトウキヨウジムシヨ,0
1542,6010001227783,新規,0,2022-07-06,2022-07-06,株式会社ＧＡＩＮ,,株式会社,東京都,文京区,西方一丁目１７番９号,,13,105,1120000,,,,,,,2022-07-06,1,,,,,ゲイン,0
1543,6010001227825,新規,0,2022-07-06,2022-07-06,くれはとり株式会社,,株式会社,東京都,千代田区,岩本町３丁目８番８号,,13,101,1010032,,,,,,,2022-07-06,1,,,,,クレハトリ,0
1544,6010001227833,新規,0,2022-07-06,2022-07-06,株式会社ＣＩＰＰＳ,,株式会社,東京都,中央区,日本橋室町２丁目１番１号,,13,102,1030022,,,,,,,2022-07-06,1,,,,,シップス,0
1545,6010001227841,新規,0,2022-07-06,2022-07-06,ワゥラボ株式会社,,株式会社,東京都,中央区,日本橋浜町３丁目３９番１号,,13,102,1030007,,,,,,,2022-07-06,1,,,,,ワゥラボ,0
1550,6010003038031,新規,0,2022-07-06,2022-07-06,Ｃｒｅａｔｉｖｅ＆Ｐａｒｔｎｅｒ合同会社,,合同会社,東京都,中央区,銀座１丁目１２番地４Ｎ＆ＥＢＬＤ．７階,,13,102,1040061,,,,,,,2022-07-06,1,,,,,クリエイティブアンドパートナー,0
1552,6010005035225,新規,0,2022-07-06,2022-07-06,一般社団法人バウンダリレスキャリア協会,,その他の設立登記法人,東京都,千代田区,神田小川町３丁目２８番地５ａｘｌｅ御茶ノ水,,13,101,1010052,,,,,,,2022-07-06,1,,,,,バウンダリレスキャリアキョウカイ,0
1559,6010401168314,新規,0,2022-07-06,2022-07-06,株式会社ニューストリーム,,株式会社,東京都,港区,西新橋１丁目１８番６号,,13,103,1050003,,,,,,,2022-07-06,1,,,,,ニューストリーム,0
1560,6010401168322,新規,0,2022-07-06,2022-07-06,株式会社樺澤商店,,株式会社,東京都,港区,港南２丁目７番１９号,,13,103,1080075,,,,,,,2022-07-06,1,,,,,カバサワショウテン,0
1561,6010401168330,新規,0,2022-07-06,2022-07-06,株式会社ＮＥＸＵＳ,,株式会社,東京都,港区,六本木７丁目３番１９号バルミー六本木４０７,,13,103,1060032,,,,,,,2022-07-06,1,,,,,ネクサス,0
1562,6010401168339,新規,0,2022-07-06,2022-07-06,株式会社ケイプランニング,,株式会社,東京都,港区,元麻布２丁目７番２８号ガーデンコート元麻布４０３,,13,103,1060046,,,,,,,2022-07-06,1,,,,,ケイプランニング,0
1565,6010403028045,新規,0,2022-07-06,2022-07-06,合同会社ライフプラス,,合同会社,東京都,港区,白金３丁目１番１３号日恵ビル２階,,13,103,1080072,,,,,,,2022-07-06,1,,,,,ライフプラス,0
1567,6010405021163,新規,0,2022-07-06,2022-07-06,ＲＢソーラーケープホールディングス一般社団法人,,その他の設立登記法人,東京都,港区,虎ノ門３丁目２２番１０－２０１号,,13,103,1050001,,,,,,,2022-07-06,1,,,,,アールビーソーラーケープホールディングス,0
1569,6010501049067,新規,0,2022-07-06,2022-07-06,株式会社トレンドタウン,,株式会社,東京都,台東区,浅草橋１丁目４番２号,,13,106,1110053,,,,,,,2022-07-06,1,,,,,トレンドタウン,0
1573,6010701042904,新規,0,2022-07-06,2022-07-06,セグノ・デザイン株式会社,,株式会社,東京都,品川区,西五反田２丁目１０番８－６０５号,,13,109,1410031,,,,,,,2022-07-06,1,,,,,セグノデザイン,0
1575,6010801033092,新規,0,2022-07-06,2022-07-06,株式会社イマゼキプランニング,,株式会社,東京都,大田区,大森北２丁目３番１２号ミテッツァ大森ＩＩ５０１,00127107,13,111,1430016,,,,,,,2022-07-06,1,,,,,イマゼキプランニング,0
1577,6010901051168,新規,0,2022-07-06,2022-07-06,株式会社ゼクスト,,株式会社,東京都,世田谷区,粕谷４丁目８番１５号１階,,13,112,1570063,,,,,,,2022-07-06,1,,,,,ゼクスト,0
1578,6010901051176,新規,0,2022-07-06,2022-07-06,株式会社カプリーノ,,株式会社,東京都,世田谷区,太子堂１丁目４番３３号アークビル２階,,13,112,1540004,,,,,,,2022-07-06,1,,,,,カプリーノ,0
1580,6010903007498,新規,0,2022-07-06,2022-07-06,合同会社Ｏｆｆｉｃｅ　ＭＯＴＶ,,合同会社,東京都,世田谷区,宮坂１丁目２７－１５,,13,112,1560051,,,,,,,2022-07-06,1,,,,,オフィスエムオーティーヴイ,0
1581,6010903007507,新規,0,2022-07-06,2022-07-06,Ｄｅｗｅｙ　ａｎｄ　Ｌｏｕｉｅ合同会社,,合同会社,東京都,世田谷区,梅丘２丁目２３番９号デザインコート梅丘アネックスＢ－３,,13,112,1540022,,,,,,,2022-07-06,1,,,,,ヂューイアンドルーイ,0
1582,6010905004337,新規,0,2022-07-06,2022-07-06,一般財団法人ＩＮＳＴｅＭ,,その他の設立登記法人,東京都,世田谷区,若林３丁目１番８号,,13,112,1540023,,,,,,,2022-07-06,1,,,,,インステム,0
1588,6011001148499,新規,0,2022-07-06,2022-07-06,株式会社Ｌｉｔｈｙｍ,,株式会社,東京都,渋谷区,恵比寿１丁目２４番１４号ステラメゾン恵比寿８０３,,13,113,1500013,,,,,,,2022-07-06,1,,,,,リシム,0
1589,6011001148508,新規,0,2022-07-06,2022-07-06,株式会社ＬＡＧＢＯＴ,,株式会社,東京都,渋谷区,千駄ヶ谷４丁目１番８号,,13,113,1510051,,,,,,,2022-07-06,1,,,,,ラグボット,0
1590,6011001148516,新規,0,2022-07-06,2022-07-06,Ｍａｓｈｉｅ株式会社,,株式会社,東京都,目黒区,中町２丁目４４番９号,,13,110,1530065,,,,,,,2022-07-06,1,,,,,マーシー,0
1591,6011001148524,新規,0,2022-07-06,2022-07-06,Ｗａｌｔｅｒ　Ｃｏｎｓｕｌｔｉｎｇ株式会社,,株式会社,東京都,渋谷区,渋谷２丁目１９番１５－６０９号宮益坂ビルディング,,13,113,1500002,,,,,,,2022-07-06,1,,,,,ウォルターコンサルティング,0
1604,6011501028226,新規,0,2022-07-06,2022-07-06,株式会社ハレルアーツ,,株式会社,東京都,北区,赤羽１丁目７番９号赤羽第一葉山ビル４階,,13,117,1150045,,,,,,,2022-07-06,1,,,,,ハレルアーツ,0
1607,6011601026071,新規,0,2022-07-06,2022-07-06,株式会社Ｃｌｅａｎ,,株式会社,東京都,練馬区,関町南２丁目３０番７号,,13,120,1770053,,,,,,,2022-07-06,1,,,,,クリーン,0
1610,6011705001739,新規,0,2022-07-06,2022-07-06,Ａｉｎ税理士法人,,その他の設立登記法人,東京都,江戸川区,西葛西３丁目１５番９号,,13,123,1340088,,,,,,,2022-07-06,1,,,,,アイン,0
1613,6011801040946,新規,0,2022-07-06,2022-07-06,アスモン株式会社,,株式会社,東京都,足立区,西新井本町４丁目２番１０－３０２号,,13,121,1230845,,,,,,,2022-07-06,1,,,,,アスモン,0
1615,6011803005162,新規,0,2022-07-06,2022-07-06,ホロイムア合同会社,,合同会社,東京都,葛飾区,細田１丁目２４番１２号,,13,122,1240021,,,,,,,2022-07-06,1,,,,,ホロイムア,0
1621,6012801021705,新規,0,2022-07-06,2022-07-06,株式会社アンビション,,株式会社,東京都,東大和市,清水５丁目１００３番地の１５,,13,220,2070004,,,,,,,2022-07-06,1,,,,,アンビション,0
1623,6012803002827,新規,0,2022-07-06,2022-07-06,合同会社一心,,合同会社,東京都,日野市,南平３丁目８番地の３８,,13,212,1910041,,,,,,,2022-07-06,1,,,,,イッシン,0
1624,6013101008962,新規,0,2022-07-06,2022-07-06,株式会社千葉事務機社,,株式会社,東京都,あきる野市,菅生１１９０番地４,,13,228,1970801,,,,,,,2022-07-06,1,,,,,チバジムキシャ,0
1627,6013301049344,新規,0,2022-07-06,2022-07-06,ＡＭＢホールディングス株式会社,,株式会社,東京都,豊島区,高田３丁目３２番３号,,13,116,1710033,,,,,,,2022-07-06,1,,,,,エーエムビーホールディングス,0
1634,6020001147221,新規,0,2022-07-06,2022-07-06,株式会社ちとせ,,株式会社,神奈川県,横浜市鶴見区,駒岡３丁目４番７号,,14,101,2300071,,,,,,,2022-07-06,1,,,,,チトセ,0
1635,6020001147246,新規,0,2022-07-06,2022-07-06,フロンティア技建株式会社,,株式会社,神奈川県,横浜市鶴見区,鶴見中央３丁目１０番２６－６１９号,,14,101,2300051,,,,,,,2022-07-06,1,,,,,フロンティアギケン,0
1636,6021001076443,新規,0,2022-07-06,2022-07-06,株式会社アタエ,,株式会社,神奈川県,横須賀市,衣笠栄町１丁目２２番地１６,,14,201,2380031,,,,,,,2022-07-06,1,,,,,アタエ,0
1638,6021003011902,新規,0,2022-07-06,2022-07-06,合同会社ムラコシ不動産,,合同会社,神奈川県,小田原市,酒匂１丁目９番２１号エスポワールビル１階,,14,206,2560816,,,,,,,2022-07-06,1,,,,,ムラコシフドウサン,0
1649,6030001149035,新規,0,2022-07-06,2022-07-06,株式会社麗和,,株式会社,埼玉県,川口市,大字安行小山４９８番地,,11,203,3340055,,,,,,,2022-07-06,1,,,,,レイワ,0
1654,6030003019715,新規,0,2022-07-06,2022-07-06,合同会社ＬＩＢＥＲＴＡ,,合同会社,埼玉県,さいたま市緑区,原山１丁目１７番２６号,,11,109,3360931,,,,,,,2022-07-06,1,,,,,リベルタ,0
1658,6040001124078,新規,0,2022-07-06,2022-07-06,Ｒコンサルティング株式会社,,株式会社,千葉県,船橋市,八木が谷１丁目２７番１１号,,12,204,2740802,,,,,,,2022-07-06,1,,,,,アールコンサルティング,0
1659,6040001124094,新規,0,2022-07-06,2022-07-06,株式会社リサーチ,,株式会社,千葉県,山武市,蓮沼ハの５３５７番地１,,12,237,2891806,,,,,,,2022-07-06,1,,,,,リサーチ,0
1660,6040001124103,新規,0,2022-07-06,2022-07-06,ロッジポール設計株式会社,,株式会社,千葉県,茂原市,中の島町５９９番地,,12,210,2970034,,,,,,,2022-07-06,1,,,,,ロッジポールセッケイ,0
1661,6040001124111,新規,0,2022-07-06,2022-07-06,株式会社Ｂｉｚ‐Ｒｉｎｇ,,株式会社,千葉県,松戸市,根本１４番地の１津田ビル５０３,,12,207,2710077,,,,,,,2022-07-06,1,,,,,ビズリング,0
1662,6040001124136,新規,0,2022-07-06,2022-07-06,株式会社柳川商事,,株式会社,千葉県,山武市,松尾町広根１１６３番地,,12,237,2891533,,,,,,,2022-07-06,1,,,,,ヤナガワショウジ,0
1663,6040001124160,新規,0,2022-07-06,2022-07-06,株式会社ＨＴＢＣホールディングス,,株式会社,千葉県,佐倉市,木野子３６２番地,,12,212,2850801,,,,,,,2022-07-06,1,,,,,エイチティービーシーホールディングス,0
1669,6040003020366,新規,0,2022-07-06,2022-07-06,合同会社ＬＡＭＰＥＲ,,合同会社,千葉県,柏市,光ケ丘２丁目２３番７３号,,12,217,2770065,,,,,,,2022-07-06,1,,,,,ランパー,0
1672,6050001051338,新規,0,2022-07-06,2022-07-06,株式会社諸川農園,,株式会社,茨城県,水戸市,萱場町９８５番地の２８,,08,201,3114154,,,,,,,2022-07-06,1,,,,,モロカワノウエン,0
1673,6050001051346,新規,0,2022-07-06,2022-07-06,株式会社ＧｒｉｎＢｌｕｅ,,株式会社,茨城県,牛久市,岡見町２４４４番地２４,,08,219,3001204,,,,,,,2022-07-06,1,,,,,グリンブルー,0
1679,6070001039422,新規,0,2022-07-06,2022-07-06,株式会社たしろコーポレーション,,株式会社,群馬県,前橋市,高井町１丁目２番地８,,10,201,3710857,,,,,,,2022-07-06,1,,,,,タシロコーポレーション,0
1686,6080101023399,新規,0,2022-07-06,2022-07-06,株式会社柏谷ゴルフクラブ,,株式会社,静岡県,田方郡函南町,柏谷２２７番地,,22,325,4190112,,,,,,,2022-07-06,1,,,,,カシヤゴルフクラブ,0
1690,6080401025921,新規,0,2022-07-06,2022-07-06,アイエムイー株式会社,,株式会社,静岡県,浜松市東区,有玉西町１２６７番地の７,,22,132,4313123,,,,,,,2022-07-06,1,,,,,アイエムイー,0
1692,6080403004576,新規,0,2022-07-06,2022-07-06,ＵＫ　ＭＯＴＯＲＳ合同会社,,合同会社,静岡県,磐田市,豊浜３４９０番地１,,22,211,4371202,,,,,,,2022-07-06,1,,,,,ユウケイモータース,0
1694,6100001035491,新規,0,2022-07-06,2022-07-06,株式会社オープ・ＯＲＰ,,株式会社,長野県,上田市,上田原７８３番地８,,20,203,3861102,,,,,,,2022-07-06,1,,,,,オープオーアールピー,0
1699,6110003004808,新規,0,2022-07-06,2022-07-06,合同会社ＲｉＴａ,,合同会社,新潟県,南魚沼市,塩沢１５９５番地２６,,15,226,9496408,,,,,,,2022-07-06,1,,,,,リタ,0
1718,6120001247069,新規,0,2022-07-06,2022-07-06,毅征株式会社,,株式会社,大阪府,大阪市淀川区,十三元今里２丁目１２番２５号,,27,123,5320028,,,,,,,2022-07-06,1,,,,,キセイ,0
1719,6120001247102,新規,0,2022-07-06,2022-07-06,株式会社アプトン,,株式会社,大阪府,大阪市北区,西天満３丁目４番１５号,,27,127,5300047,,,,,,,2022-07-06,1,,,,,アプトン,0
1720,6120001247143,新規,0,2022-07-06,2022-07-06,株式会社Ｃ２,,株式会社,大阪府,大阪市西区,立売堀１丁目４－１２立売堀スクエアビル８Ｆ,,27,106,5500012,,,,,,,2022-07-06,1,,,,,シーツー,0
1721,6120001247151,新規,0,2022-07-06,2022-07-06,ａｉｌｅ株式会社,,株式会社,大阪府,門真市,末広町３６番１０号アドラブール古川橋ウエスト１０５ａ,,27,223,5710030,,,,,,,2022-07-06,1,,,,,エール,0
1722,6120001247226,新規,0,2022-07-06,2022-07-06,アジャスト株式会社,,株式会社,大阪府,大阪市北区,堂島１丁目１番５号関電不動産梅田新道ビルＢ２Ｆ,,27,127,5300003,,,,,,,2022-07-06,1,,,,,アジャスト,0
1724,6120003022024,新規,0,2022-07-06,2022-07-06,合同会社トップエンジニアリング,,合同会社,大阪府,大阪市東住吉区,矢田１丁目６番１６－９０１号,,27,121,5460023,,,,,,,2022-07-06,1,,,,,トップエンジニアリング,0
1726,6120005023029,新規,0,2022-07-06,2022-07-06,ＭＳＣ社会保険労務士法人,,その他の設立登記法人,大阪府,大阪市中央区,北浜２丁目２番２２号北浜中央ビル５Ｆ,,27,128,5410041,,,,,,,2022-07-06,1,,,,,エムエスシー,0
1729,6120101065841,新規,0,2022-07-06,2022-07-06,株式会社ウィンテック,,株式会社,大阪府,堺市南区,稲葉１丁３０２１番１,,27,145,5900156,,,,,,,2022-07-06,1,,,,,ウィンテック,0
1730,6120901046149,新規,0,2022-07-06,2022-07-06,株式会社ＭＡＳＡメディックス,,株式会社,大阪府,豊中市,服部本町１丁目８番５－１０９号,,27,203,5610852,,,,,,,2022-07-06,1,,,,,マーサメディックス,0
1731,6120901046198,新規,0,2022-07-06,2022-07-06,ＣＭ’ｓエンジニアリング株式会社,,株式会社,大阪府,吹田市,江坂町２丁目２９番１８号,,27,205,5640063,,,,,,,2022-07-06,1,,,,,シムエンジニアリング,0
1732,6120901046215,新規,0,2022-07-06,2022-07-06,ｌｅｃｋｅｒ　ｋｏｃｈｅｎ株式会社,,株式会社,大阪府,高槻市,城北町２丁目１４－２９アーバンハイツ１号,,27,207,5690071,,,,,,,2022-07-06,1,,,,,レッカーコッヘン,0
1739,6140001126634,新規,0,2022-07-06,2022-07-06,株式会社ＴＲＥＤ,,株式会社,兵庫県,西宮市,与古道町１番１３号,,28,204,6620917,,,,,,,2022-07-06,1,,,,,トレッド,0
1744,6150003002725,新規,0,2022-07-06,2022-07-06,Ｄ．Ｌｏｇ合同会社,,合同会社,奈良県,橿原市,内膳町２丁目４－５メゾン・シャルム１Ｆ,,29,205,6340804,,,,,,,2022-07-06,1,,,,,ディードットログ,0
1746,6160001024324,新規,0,2022-07-06,2022-07-06,株式会社メディカルシーズン,,株式会社,滋賀県,高島市,新旭町旭１丁目８番地５,,25,212,5201501,,,,,,,2022-07-06,1,,,,,メディカルシーズン,0
1752,6170001017178,新規,0,2022-07-06,2022-07-06,谷本石材店株式会社,,株式会社,和歌山県,西牟婁郡上富田町,朝来２４４７番地,,30,404,6492105,,,,,,,2022-07-06,1,,,,,タニモトセキザイテン,0
1758,6180001152008,新規,0,2022-07-06,2022-07-06,株式会社カチアル,,株式会社,愛知県,春日井市,割塚町１２０番地２,,23,206,4860824,,,,,,,2022-07-06,1,,,,,カチアル,0
1759,6180001152016,新規,0,2022-07-06,2022-07-06,株式会社Ｃ．Ｓ．Ｂ．,,株式会社,愛知県,名古屋市北区,田幡２丁目１３番９号志賀南ビル３Ａ号,,23,103,4620843,,,,,,,2022-07-06,1,,,,,シーエスビー,0
1760,6180001152024,新規,0,2022-07-06,2022-07-06,株式会社ポチボルト,,株式会社,愛知県,名古屋市中川区,吉津４丁目３００１番地の４,,23,110,4540981,,,,,,,2022-07-06,1,,,,,ポチボルト,0
1761,6180001152049,新規,0,2022-07-06,2022-07-06,株式会社名古屋シミズ,,株式会社,愛知県,名古屋市千種区,内山３丁目２９番１０号,,23,101,4640075,,,,,,,2022-07-06,1,,,,,ナゴヤシミズ,0
1762,6180001152057,新規,0,2022-07-06,2022-07-06,株式会社三谷造園,,株式会社,愛知県,名古屋市名東区,一社４丁目５番地,,23,115,4650093,,,,,,,2022-07-06,1,,,,,ミタニゾウエン,0
1763,6180001152065,新規,0,2022-07-06,2022-07-06,株式会社キール,,株式会社,愛知県,名古屋市中区,丸の内２丁目１８番１３号,,23,106,4600002,,,,,,,2022-07-06,1,,,,,キール,0
1767,6180005019830,新規,0,2022-07-06,2022-07-06,社会保険労務士法人ＧＲＥＥ,,その他の設立登記法人,愛知県,日進市,梅森町新田１３５番地４７１,,23,230,4700132,,,,,,,2022-07-06,1,,,,,グリー,0
1768,6180005019839,新規,0,2022-07-06,2022-07-06,ＳＫＳ税理士法人,,その他の設立登記法人,愛知県,名古屋市中川区,尾頭橋３丁目３番３号サンベアーマンション金山３０１号,,23,110,4540012,,,,,,,2022-07-06,1,,,,,エスケーエス,0
1769,6180301036397,新規,0,2022-07-06,2022-07-06,株式会社ソクトコンサルタント,,株式会社,愛知県,豊橋市,神野新田町字ロノ割１６３番地,,23,201,4418077,,,,,,,2022-07-06,1,,,,,ソクトコンサルタント,0
1770,6180301036406,新規,0,2022-07-06,2022-07-06,株式会社ＮＥＸＴＧＩＫＥＮ,,株式会社,愛知県,西尾市,吉良町宮迫四反田７７番地,,23,213,4440502,,,,,,,2022-07-06,1,,,,,ネクストギケン,0
1771,6190001029568,新規,0,2022-07-06,2022-07-06,株式会社カンシャ,,株式会社,三重県,鈴鹿市,算所５丁目１２番５号,,24,207,5130806,,,,,,,2022-07-06,1,,,,,カンシャ,0
1772,6190001029584,新規,0,2022-07-06,2022-07-06,株式会社ＣＨＩＣ,,株式会社,三重県,松阪市,小舟江町８番地１２,,24,204,5152104,,,,,,,2022-07-06,1,,,,,シーク,0
1773,6190001029592,新規,0,2022-07-06,2022-07-06,株式会社Ｍ２Ｂ,,株式会社,三重県,鈴鹿市,平田新町２番７号,,24,207,5130845,,,,,,,2022-07-06,1,,,,,エムツービー,0
1774,6190003004032,新規,0,2022-07-06,2022-07-06,合同会社Ｙｅｓ　ｗｅ　Ｃａｎ,,合同会社,三重県,員弁郡東員町,大字北大社１６９番地１０,,24,324,5110257,,,,,,,2022-07-06,1,,,,,イェスウィーキャン,0
1784,6230003001883,新規,0,2022-07-06,2022-07-06,マタアス合同会社,,合同会社,富山県,富山市,中田１丁目１１番１号,,16,201,9318453,,,,,,,2022-07-06,1,,,,,マタアス,0
1789,6240001060006,新規,0,2022-07-06,2022-07-06,株式会社くまさん工務店,,株式会社,広島県,福山市,曙町３丁目６番１１－１号,00127108,34,207,7210952,,,,,,,2022-07-06,1,,,,,クマサンコウムテン,0
1790,6240001060022,新規,0,2022-07-06,2022-07-06,株式会社ケーズファーマシー,,株式会社,広島県,福山市,今津町５丁目１４番７３号松永サクラビル２Ｆ,,34,207,7290111,,,,,,,2022-07-06,1,,,,,ケーズファーマシー,0
1791,6240001060047,新規,0,2022-07-06,2022-07-06,株式会社ＭＡＲＫ,,株式会社,広島県,呉市,仁方皆実町４番２４号,,34,202,7370156,,,,,,,2022-07-06,1,,,,,マーク,0
1792,6240003005693,新規,0,2022-07-06,2022-07-06,合同会社プライムハート,,合同会社,広島県,尾道市,向東町１３５９番地４,,34,205,7220062,,,,,,,2022-07-06,1,,,,,プライムハート,0
1798,6260001037002,新規,0,2022-07-06,2022-07-06,株式会社モトムラ,,株式会社,岡山県,岡山市北区,柳町１丁目１３－２０柳町サンタワー３０２号室,,33,101,7000904,,,,,,,2022-07-06,1,,,,,モトムラ,0
1799,6260001037019,新規,0,2022-07-06,2022-07-06,株式会社松本コーポレーション,,株式会社,岡山県,倉敷市,菰池３丁目５番５８－１０１号,,33,202,7110932,,,,,,,2022-07-06,1,,,,,マツモトコーポレーション,0
1803,6290001098132,新規,0,2022-07-06,2022-07-06,株式会社上田設備設計,,株式会社,福岡県,福岡市中央区,大名２丁目１０番４号Ｄ－６１１,,40,133,8100041,,,,,,,2022-07-06,1,,,,,ウエダセツビセッケイ,0
1804,6290001098181,新規,0,2022-07-06,2022-07-06,ＲＥＡＬ　ＮＥＥＤＳ株式会社,,株式会社,福岡県,福岡市東区,原田１丁目７番７－１０２号,,40,131,8120063,,,,,,,2022-07-06,1,,,,,リアルニーズ,0
1805,6290001098198,新規,0,2022-07-06,2022-07-06,株式会社箱守り,,株式会社,福岡県,福岡市東区,千早５丁目３１番１８号,,40,131,8130044,,,,,,,2022-07-06,1,,,,,ハコマモリ,0
1807,6290003012702,新規,0,2022-07-06,2022-07-06,トロコイドデザイン合同会社,,合同会社,福岡県,福岡市早良区,百道２丁目１７番２１－３０１号,,40,137,8140006,,,,,,,2022-07-06,1,,,,,トロコイドデザイン,0
1817,6330001029900,新規,0,2022-07-06,2022-07-06,株式会社ＳＫマテリアル,,株式会社,熊本県,熊本市東区,小山２丁目４番３５号,,43,102,8618045,,,,,,,2022-07-06,1,,,,,エスケーマテリアル,0
1831,6370001048748,新規,0,2022-07-06,2022-07-06,株式会社スリーワンメディカル,,株式会社,宮城県,仙台市青葉区,錦町２丁目４番１号ミツエリートマンション１階,,04,101,9800012,,,,,,,2022-07-06,1,,,,,スリーワンメディカル,0
1832,6370001048756,新規,0,2022-07-06,2022-07-06,株式会社ｋｉｂｉｄａｎｇｏ仙南,,株式会社,宮城県,仙台市太白区,日本平７番１８号,,04,104,9820221,,,,,,,2022-07-06,1,,,,,キビダンゴセンナン,0
1836,6390001016950,新規,0,2022-07-06,2022-07-06,かとう技建株式会社,,株式会社,山形県,東田川郡庄内町,落合字落合６３番地１,,06,428,9997763,,,,,,,2022-07-06,1,,,,,カトウギケン,0
1841,6410001013227,新規,0,2022-07-06,2022-07-06,株式会社アクセス,,株式会社,秋田県,秋田市,新屋松美ガ丘北町２０番３０号,,05,201,0101618,,,,,,,2022-07-06,1,,,,,アクセス,0
1842,6420001017920,新規,0,2022-07-06,2022-07-06,つばめアセット・アンド・マネジメント株式会社,,株式会社,青森県,八戸市,大字十日市字上樋田２６番地１１,,02,203,0310012,,,,,,,2022-07-06,1,,,,,ツバメアセットアンドマネジメント,0
1843,6420001017929,新規,0,2022-07-06,2022-07-06,株式会社ホットスタイル,,株式会社,青森県,弘前市,大字北瓦ケ町１３番地１東日本不動産弘前ビル,,02,202,0368012,,,,,,,2022-07-06,1,,,,,ホットスタイル,0
1850,6430001086956,新規,0,2022-07-06,2022-07-06,株式会社Ｒｅｕｓｓｉｒ,,株式会社,北海道,札幌市東区,本町二条５丁目７番１３号操ビル２階,,01,103,0650042,,,,,,,2022-07-06,1,,,,,レユシール,0
1851,6430003014072,新規,0,2022-07-06,2022-07-06,ｂｌｏｏｄ　ｂｒｏｔｈｅｒｓ合同会社,,合同会社,北海道,札幌市東区,北二十四条東７丁目２番１１号第６タイガービル２階,,01,103,0650024,,,,,,,2022-07-06,1,,,,,ブラッドブラザーズ,0
1854,6450001013735,新規,0,2022-07-06,2022-07-06,株式会社サンシャイン,,株式会社,北海道,紋別市,潮見町１丁目５番２５号,,01,219,0940006,,,,,,,2022-07-06,1,,,,,サンシャイン,0
1856,6470001019136,新規,0,2022-07-06,2022-07-06,株式会社サカグチ,,株式会社,香川県,善通寺市,碑殿町６２番地,,37,204,7650062,,,,,,,2022-07-06,1,,,,,サカグチ,0
1859,6480001011785,新規,0,2022-07-06,2022-07-06,株式会社ＫＤグループ,,株式会社,徳島県,徳島市,秋田町１丁目４６アクティガーデンコート１階,,36,201,7700934,,,,,,,2022-07-06,1,,,,,ケーディーグループ,0
1860,6480005006906,新規,0,2022-07-06,2022-07-06,一般社団法人生命の食,,その他の設立登記法人,徳島県,徳島市,沖浜東１丁目３６番地の４,,36,201,7708053,,,,,,,2022-07-06,1,,,,,イノチノショク,0
1869,7010001227782,新規,0,2022-07-06,2022-07-06,ＳＡＫＵＲＡ　Ｍａｒｋｅｔｉｎｇ株式会社,,株式会社,東京都,千代田区,丸の内１丁目６番５号丸の内北口ビル９Ｆ・ＳＡＫＵＲＡ・Ｕｎｉｔｅｄ・Ｓｏｌｕｔｉｏｎ,,13,101,1000005,,,,,,,2022-07-06,1,,,,,サクラマーケティング,0
1878,7010401168321,新規,0,2022-07-06,2022-07-06,インテグロン・ジャパン株式会社,,株式会社,東京都,港区,港南２丁目１６番１号品川イーストワンタワー７Ｆ,,13,103,1080075,,,,,,,2022-07-06,1,,,,,インテグロンジャパン,0
1879,7010401168362,新規,0,2022-07-06,2022-07-06,株式会社ニトロ,,株式会社,東京都,港区,南青山２丁目２番１５号,,13,103,1070062,,,,,,,2022-07-06,1,,,,,ニトロ,0
1881,7010403028044,新規,0,2022-07-06,2022-07-06,ＲＢソーラーデュオ合同会社,,合同会社,東京都,港区,虎ノ門３丁目２２番１０－２０１号,,13,103,1050001,,,,,,,2022-07-06,1,,,,,アールビーソーラーデュオ,0
1884,7010405021179,新規,0,2022-07-06,2022-07-06,谷田部ファシリティ一般社団法人,,その他の設立登記法人,東京都,港区,六本木１丁目６番１号泉ガーデンタワー,,13,103,1060032,,,,,,,2022-07-06,1,,,,,ヤタベファシリティ,0
1887,7010503006635,新規,0,2022-07-06,2022-07-06,ＭＡＹＡ合同会社,,合同会社,東京都,台東区,上野６丁目７番１６号川久保ビル５０９号室,,13,106,1100005,,,,,,,2022-07-06,1,,,,,マヤ,0
1890,7010701042903,新規,0,2022-07-06,2022-07-06,株式会社Ｌｅａｖｅ　ｉｔ　ｔｏ　ｍｅ,,株式会社,東京都,品川区,上大崎２丁目４番１９－３０１号,,13,109,1410021,,,,,,,2022-07-06,1,,,,,リーブイットトゥーミー,0
1891,7010701042911,新規,0,2022-07-06,2022-07-06,株式会社ＧＴＤペイメント,,株式会社,東京都,品川区,東五反田１丁目２番３３号,,13,109,1410022,,,,,,,2022-07-06,1,,,,,ジーティーディーペイメント,0
1892,7010703006294,新規,0,2022-07-06,2022-07-06,プラウエス合同会社,,合同会社,東京都,品川区,西品川１丁目１３番２号,,13,109,1410033,,,,,,,2022-07-06,1,,,,,プラウエス,0
1897,7010801033091,新規,0,2022-07-06,2022-07-06,株式会社Ｖａｓｅ,,株式会社,東京都,大田区,田園調布１丁目２５番８号,,13,111,1450071,,,,,,,2022-07-06,1,,,,,ヴェイス,0
1900,7010901051159,新規,0,2022-07-06,2022-07-06,ガラクーダ株式会社,,株式会社,東京都,世田谷区,成城３丁目２４番２３号,,13,112,1570066,,,,,,,2022-07-06,1,,,,,ガラクーダ,0
1901,7010901051167,新規,0,2022-07-06,2022-07-06,株式会社ＲＩＤＥ　ＨＩ,,株式会社,東京都,世田谷区,上野毛３丁目１６番３－１０６号,,13,112,1580093,,,,,,,2022-07-06,1,,,,,ライドハイ,0
1902,7010901051191,新規,0,2022-07-06,2022-07-06,株式会社アイズド,,株式会社,東京都,世田谷区,太子堂２丁目７番２０号ドーマ世田谷１３号,,13,112,1540004,,,,,,,2022-07-06,1,,,,,アイズド,0
1903,7010903007497,新規,0,2022-07-06,2022-07-06,Ｄｉｖｉｓｉｏｎ　Ｐｌ．合同会社,,合同会社,東京都,世田谷区,代田４丁目１０番９－２０１号,,13,112,1550033,,,,,,,2022-07-06,1,,,,,ディビジョンプレース,0
1904,7010905004336,新規,0,2022-07-06,2022-07-06,特定非営利活動法人ほうりつ・ふくしサポートセンター,,その他の設立登記法人,東京都,世田谷区,太子堂５丁目１６番９号太子堂壱番館１階,,13,112,1540004,,,,,,,2022-07-06,1,,,,,ホウリツフクシサポートセンター,0
1909,7011001148523,新規,0,2022-07-06,2022-07-06,株式会社Ａｓｔｒｏｇｒａｐｈ,,株式会社,東京都,渋谷区,渋谷２丁目９番１５号宮益坂ビルディング６０９,,13,113,1500002,,,,,,,2022-07-06,1,,,,,アストログラフ,0
1910,7011001148572,新規,0,2022-07-06,2022-07-06,株式会社ハミルトン,,株式会社,東京都,渋谷区,神宮前２丁目２番３９－１４０１号ＴＨＥＣＯＵＲＴ神宮外苑,,13,113,1500001,,,,,,,2022-07-06,1,,,,,ハミルトン,0
1912,7011003014987,新規,0,2022-07-06,2022-07-06,合同会社ドラゴン,,合同会社,東京都,目黒区,上目黒２丁目１５番１号レジディアタワー中目黒１３０１,,13,110,1530051,,,,,,,2022-07-06,1,,,,,ドラゴン,0
1913,7011003015011,新規,0,2022-07-06,2022-07-06,合同会社Ｕ‐ＫＥＮ　ＷＯＲＫＳ,,合同会社,東京都,渋谷区,道玄坂１丁目１０番８号渋谷道玄坂東急ビル２Ｆ－Ｃ,,13,113,1500043,,,,,,,2022-07-06,1,,,,,ユーケンワークス,0
1919,7011103011942,新規,0,2022-07-06,2022-07-06,合同会社アストレアアカウンティング,,合同会社,東京都,新宿区,歌舞伎町２丁目２５番８号エコプレイス新宿３２７,,13,104,1600021,,,,,,,2022-07-06,1,,,,,アストレアアカウンティング,0
1924,7011401024373,新規,0,2022-07-06,2022-07-06,株式会社Ｅ＆Ｅ,,株式会社,東京都,板橋区,徳丸３丁目３３番３６号,,13,119,1750083,,,,,,,2022-07-06,1,,,,,イーアンドイー,0
1925,7011401024381,新規,0,2022-07-06,2022-07-06,株式会社Ｋ‐ＣＯＮＮＥＣＴＩＯＮ,,株式会社,東京都,板橋区,三園１丁目１２番１８号,,13,119,1750091,,,,,,,2022-07-06,1,,,,,ケーコネクション,0
1927,7011501028225,新規,0,2022-07-06,2022-07-06,株式会社Ｂｉｇ　ｉｓｌａｎｄ,,株式会社,東京都,北区,岸町１丁目３番５－２０３号キョウワフラッツ王子,,13,117,1140021,,,,,,,2022-07-06,1,,,,,ビッグアイランド,0
1928,7011501028233,新規,0,2022-07-06,2022-07-06,株式会社浪漫亭,,株式会社,東京都,荒川区,西日暮里５丁目２番１５号,,13,118,1160013,,,,,,,2022-07-06,1,,,,,ロマンテイ,0
1930,7011601026070,新規,0,2022-07-06,2022-07-06,新芸術創造センター株式会社,,株式会社,東京都,練馬区,下石神井４丁目１４番５号,,13,120,1770042,,,,,,,2022-07-06,1,,,,,シンゲイジュツソウゾウセンター,0
1931,7011601026087,新規,0,2022-07-06,2022-07-06,株式会社全方位,,株式会社,東京都,練馬区,上石神井１丁目１８番地１１号パークハウス上石神井１０１,,13,120,1770044,,,,,,,2022-07-06,1,,,,,ゼンホウイ,0
1932,7011603003638,新規,0,2022-07-06,2022-07-06,合同会社ＳＨＫ,,合同会社,東京都,練馬区,早宮４丁目１９番９－１０２号,,13,120,1790085,,,,,,,2022-07-06,1,,,,,エスエイチケー,0
1933,7011703003190,新規,0,2022-07-06,2022-07-06,合同会社苗翔電設,,合同会社,東京都,江戸川区,南篠崎町２丁目４０番７－１０２号,,13,123,1330065,,,,,,,2022-07-06,1,,,,,ナエトデンセツ,0
1934,7012301013045,新規,0,2022-07-06,2022-07-06,Ｐｅａｒｌ・ｋ株式会社,,株式会社,東京都,町田市,忠生１丁目２３番４号,,13,209,1940035,,,,,,,2022-07-06,1,,,,,パールケイ,0
1936,7012401039386,新規,0,2022-07-06,2022-07-06,株式会社エヌズカイタイ,,株式会社,東京都,狛江市,東野川４丁目１６番３号,,13,219,2010002,,,,,,,2022-07-06,1,,,,,エヌズカイタイ,0
1937,7012403005469,新規,0,2022-07-06,2022-07-06,Ｏｆｆｉｃｅ　ＴＡＫＡ‐Ｔ合同会社,,合同会社,東京都,調布市,国領町３丁目６番地１ルネ調布国領モア・クレスト７０７,,13,208,1820022,,,,,,,2022-07-06,1,,,,,オフィスタカティー,0
1938,7012405004758,新規,0,2022-07-06,2022-07-06,税理士法人内山会計,,その他の設立登記法人,東京都,調布市,布田１丁目３２番地５,,13,208,1820024,,,,,,,2022-07-06,1,,,,,ウチヤマカイケイ,0
1944,7013301049335,新規,0,2022-07-06,2022-07-06,ＨＯＡＮＧ　ＨＡＩ　ＧＲＯＵＰ株式会社,,株式会社,東京都,豊島区,北大塚２丁目２９番５－２０６号,,13,116,1700004,,,,,,,2022-07-06,1,,,,,ホアンハイグループ,0
1947,7013303006219,新規,0,2022-07-06,2022-07-06,合同会社ＫＭコンサルティング,,合同会社,東京都,豊島区,雑司が谷２丁目３番６－４０４号,,13,116,1710032,,,,,,,2022-07-06,1,,,,,ケーエムコンサルティング,0
1954,7020001147179,新規,0,2022-07-06,2022-07-06,石井不動産株式会社,,株式会社,神奈川県,横浜市緑区,寺山町６０８番地,,14,113,2260013,,,,,,,2022-07-06,1,,,,,イシイフドウサン,0
1955,7020001147253,新規,0,2022-07-06,2022-07-06,サンエース株式会社,,株式会社,神奈川県,横浜市保土ケ谷区,西久保町１４１番地,,14,106,2400022,,,,,,,2022-07-06,1,,,,,サンエース,0
1962,7020003022009,新規,0,2022-07-06,2022-07-06,正企画合同会社,,合同会社,神奈川県,横浜市神奈川区,六角橋５丁目３５－２２－２０１,,14,102,2210802,,,,,,,2022-07-06,1,,,,,マサキカク,0
1963,7020003022041,新規,0,2022-07-06,2022-07-06,ダイイチビット合同会社,,合同会社,神奈川県,横浜市旭区,鶴ケ峰１丁目４６番地５レオパレス鶴ヶ峰２１０号室,,14,112,2410022,,,,,,,2022-07-06,1,,,,,ダイイチビット,0
1967,7021001076442,新規,0,2022-07-06,2022-07-06,株式会社神崎工業,00127103,株式会社,神奈川県,伊勢原市,日向７０１番地,,14,214,2591101,,,,,,,2022-07-06,1,,,,,カンザキコウギョウ,0
1969,7030001148952,新規,0,2022-07-06,2022-07-06,Ｕ・Ｋ　ＴＲＡＤＩＮＧ株式会社,,株式会社,埼玉県,久喜市,菖蒲町新堀２０３４番地５,,11,232,3460105,,,,,,,2022-07-06,1,,,,,ユーケートレーディング,0
1970,7030001148977,新規,0,2022-07-06,2022-07-06,Ｌａｎｇｌｉｎｋ　Ｇａｍｅｓ株式会社,,株式会社,埼玉県,本庄市,寿３丁目２－１,,11,211,3670023,,,,,,,2022-07-06,1,,,,,ラングリンクゲームズ,0
1971,7030001149026,新規,0,2022-07-06,2022-07-06,株式会社真和工業,,株式会社,埼玉県,春日部市,不動院野２８７９番地２,,11,214,3440001,,,,,,,2022-07-06,1,,,,,シンワコウギョウ,0
1972,7030001149067,新規,0,2022-07-06,2022-07-06,株式会社小野寺建設,,株式会社,埼玉県,新座市,栗原６丁目１番７－２０６号,,11,230,3520035,,,,,,,2022-07-06,1,,,,,オノデラケンセツ,0
1973,7030001149091,新規,0,2022-07-06,2022-07-06,株式会社エム・エヌ,,株式会社,埼玉県,和光市,本町９番６８号プレイズ和光市本町３０６,,11,229,3510114,,,,,,,2022-07-06,1,,,,,エムエヌ,0
1987,7040001123987,新規,0,2022-07-06,2022-07-06,株式会社佐藤重機,,株式会社,千葉県,野田市,小山３６４５番地の１,,12,208,2700231,,,,,,,2022-07-06,1,,,,,サトウジュウキ,0
1988,7040001124077,新規,0,2022-07-06,2022-07-06,株式会社操電,,株式会社,千葉県,浦安市,当代島１丁目３番２９号アイエムビル４階,,12,227,2790001,,,,,,,2022-07-06,1,,,,,ソウデン,0
1989,7040001124093,新規,0,2022-07-06,2022-07-06,株式会社ＪＡＳＴ,,株式会社,千葉県,八街市,八街い６９番地５６,,12,230,2891143,,,,,,,2022-07-06,1,,,,,ジャスト,0
1990,7040001124110,新規,0,2022-07-06,2022-07-06,株式会社フェイスト,,株式会社,千葉県,千葉市中央区,富士見２丁目７番９号富士見ビル６０９号,,12,101,2600015,,,,,,,2022-07-06,1,,,,,フェイスト,0
1991,7040001124127,新規,0,2022-07-06,2022-07-06,Ｎｄｉｏｔ株式会社,,株式会社,千葉県,市原市,ちはら台南５丁目２１番地６,,12,219,2900142,,,,,,,2022-07-06,1,,,,,エヌディオット,0
1992,7040001124176,新規,0,2022-07-06,2022-07-06,株式会社ＥＮＪＯＹＩＮ,,株式会社,千葉県,八街市,八街ほ１０１６番地１５,,12,230,2891115,,,,,,,2022-07-06,1,,,,,エンジョイン,0
1995,7040003020373,新規,0,2022-07-06,2022-07-06,ＨＯＭＥ　ＴＥＣＨ合同会社,,合同会社,千葉県,松戸市,八ケ崎６丁目５２番地の１,,12,207,2700023,,,,,,,2022-07-06,1,,,,,ホームテック,0
1996,7040003020381,新規,0,2022-07-06,2022-07-06,ＡＶＯＮ　ＧＲＯＵＰＳ合同会社,,合同会社,千葉県,山武市,埴谷１５２７番地１２,,12,237,2891223,,,,,,,2022-07-06,1,,,,,エイボングループス,0
1997,7040003020398,新規,0,2022-07-06,2022-07-06,＿龍合同会社,00127118,合同会社,千葉県,市原市,西五所３４－２５,,12,219,2900065,,,,,,,2022-07-06,1,,,,,キンリュウ,0
2000,7050001051329,新規,0,2022-07-06,2022-07-06,株式会社ザイン,,株式会社,茨城県,つくば市,吉瀬１３６５番地,,08,220,3050022,,,,,,,2022-07-06,1,,,,,ザイン,0
2001,7050001051345,新規,0,2022-07-06,2022-07-06,株式会社さんらいず,,株式会社,茨城県,日立市,折笠町１０１４番地１,,08,202,3191412,,,,,,,2022-07-06,1,,,,,サンライズ,0
2005,7070005010007,新規,0,2022-07-06,2022-07-06,ＮＰＯ法人ぐんま地域おこし協力隊ネットワーク,,その他の設立登記法人,群馬県,桐生市,黒保根町下田沢２７４６番地,,10,203,3760144,,,,,,,2022-07-06,1,,,,,グンマチイキオコシキョウリョクタイネットワーク,0
2011,7080401025929,新規,0,2022-07-06,2022-07-06,株式会社Ｒ＆Ｈ,,株式会社,静岡県,浜松市北区,根洗町１５３８番地の５,,22,135,4338108,,,,,,,2022-07-06,1,,,,,アールアンドエイチ,0
2012,7080403004575,新規,0,2022-07-06,2022-07-06,合同会社アシスト,,合同会社,静岡県,掛川市,浜野４５１番地,,22,213,4371424,,,,,,,2022-07-06,1,,,,,アシスト,0
2014,7100001035490,新規,0,2022-07-06,2022-07-06,株式会社一大,,株式会社,長野県,長野市,上松１丁目１６番３６号上松第２ビル３階,,20,201,3800802,,,,,,,2022-07-06,1,,,,,イチダイ,0
2015,7100001035499,新規,0,2022-07-06,2022-07-06,株式会社リノベーション・コーティング,,株式会社,長野県,長野市,若宮１丁目６番地１５モンフレールＤ１０２,,20,201,3810032,,,,,,,2022-07-06,1,,,,,リノベーションコーティング,0
2017,7110001036785,新規,0,2022-07-06,2022-07-06,ＫＣＪ不動産株式会社,,株式会社,新潟県,新発田市,中央町５丁目８番１号,,15,206,9570053,,,,,,,2022-07-06,1,,,,,ケイシージェイフドウサン,0
2018,7110001036793,新規,0,2022-07-06,2022-07-06,株式会社篠田養鯉場,,株式会社,新潟県,小千谷市,大字小栗山２３７９番地,,15,208,9470211,,,,,,,2022-07-06,1,,,,,シノダヨウリジョウ,0
2020,7110005016825,新規,0,2022-07-06,2022-07-06,特定非営利活動法人燕三条エラール推進委員会,,その他の設立登記法人,新潟県,三条市,本町２丁目１０番１７号２階,,15,204,9550071,,,,,,,2022-07-06,1,,,,,ツバメサンジョウエラールスイシンイインカイ,0
2026,7120001247084,新規,0,2022-07-06,2022-07-06,株式会社イロドリプラス,,株式会社,大阪府,大阪市平野区,喜連西４丁目７番３号,,27,126,5470026,,,,,,,2022-07-06,1,,,,,イロドリプラス,0
2027,7120001247142,新規,0,2022-07-06,2022-07-06,株式会社アクティブ,,株式会社,大阪府,大阪市西成区,北津守４丁目４番３３号,,27,122,5570061,,,,,,,2022-07-06,1,,,,,アクティブ,0
2028,7120001247150,新規,0,2022-07-06,2022-07-06,株式会社バンドウ,,株式会社,大阪府,大阪市住之江区,粉浜３丁目８番８号,,27,125,5590001,,,,,,,2022-07-06,1,,,,,バンドウ,0
2029,7120001247209,新規,0,2022-07-06,2022-07-06,福岡大名ホテルシステムズ株式会社,,株式会社,大阪府,大阪市北区,大淀中１丁目１番８８号,,27,127,5310076,,,,,,,2022-07-06,1,,,,,フクオカダイミョウホテルシステムズ,0
2033,7120003022031,新規,0,2022-07-06,2022-07-06,合同会社エクスリンク,,合同会社,大阪府,大阪市中央区,北浜１丁目１番２７号エムズ北浜ビルディング４階,,27,128,5410041,,,,,,,2022-07-06,1,,,,,エクスリンク,0
2035,7120005023036,新規,0,2022-07-06,2022-07-06,一般社団法人Ｒ・ＡＳＫ５,,その他の設立登記法人,大阪府,大阪市中央区,南船場１丁目１３番２０号,,27,128,5420081,,,,,,,2022-07-06,1,,,,,アールエーエスケーファイブ,0
2039,7120101065832,新規,0,2022-07-06,2022-07-06,株式会社ＨＡＲＲＹ,,株式会社,大阪府,泉佐野市,上町１丁目２番４４号,,27,213,5980007,,,,,,,2022-07-06,1,,,,,ハリー,0
2040,7120101065840,新規,0,2022-07-06,2022-07-06,オビヤ精工株式会社,,株式会社,大阪府,河内長野市,加賀田３８１番地の１,,27,216,5860071,,,,,,,2022-07-06,1,,,,,オビヤセイコウ,0
2042,7120105009587,新規,0,2022-07-06,2022-07-06,一般社団法人大阪空き家相談窓口,,その他の設立登記法人,大阪府,堺市中区,深阪２丁１０番５１号フジビル３Ｆ,,27,142,5998253,,,,,,,2022-07-06,1,,,,,オオサカアキヤソウダンマドグチ,0
2043,7120901046189,新規,0,2022-07-06,2022-07-06,株式会社クラフトサーブ,,株式会社,大阪府,高槻市,北大樋町７番１１号,,27,207,5690041,,,,,,,2022-07-06,1,,,,,クラフトサーブ,0
2044,7120901046206,新規,0,2022-07-06,2022-07-06,株式会社Ｔｉｏ,,株式会社,大阪府,吹田市,長野東１８番１号,,27,205,5650816,,,,,,,2022-07-06,1,,,,,ティオ,0
2050,7140001126600,新規,0,2022-07-06,2022-07-06,株式会社山南建装,,株式会社,兵庫県,西宮市,甲陽園西山町１３番１号,,28,204,6620017,,,,,,,2022-07-06,1,,,,,ヤマナミケンソウ,0
2051,7140001126682,新規,0,2022-07-06,2022-07-06,株式会社ナカモトトレーディング,,株式会社,兵庫県,西宮市,名塩平成台７番地７,,28,204,6691145,,,,,,,2022-07-06,1,,,,,ナカモトトレーディング,0
2056,7150001025669,新規,0,2022-07-06,2022-07-06,株式会社コテツ建設,,株式会社,奈良県,奈良市,法華寺町２８番地の５,,29,201,6308001,,,,,,,2022-07-06,1,,,,,コテツケンセツ,0
2059,7170001017177,新規,0,2022-07-06,2022-07-06,Ｚホールディングス株式会社,,株式会社,和歌山県,西牟婁郡白浜町,１６８８－１,,30,401,6492211,,,,,,,2022-07-06,1,,,,,ゼットホールディングス,0
2066,7180001151990,新規,0,2022-07-06,2022-07-06,ＴＡＭ株式会社,,株式会社,愛知県,名古屋市西区,南堀越２丁目５番５号－１,,23,104,4510054,,,,,,,2022-07-06,1,,,,,タム,0
2067,7180001152031,新規,0,2022-07-06,2022-07-06,株式会社エムエスピー,,株式会社,愛知県,豊明市,前後町鎗ケ名１８５９番地９,,23,229,4701151,,,,,,,2022-07-06,1,,,,,エムエスピー,0
2068,7180001152056,新規,0,2022-07-06,2022-07-06,株式会社ホームコントロール,,株式会社,愛知県,豊明市,阿野町大代８１番地,,23,229,4701141,,,,,,,2022-07-06,1,,,,,ホームコントロール,0
2069,7180001152064,新規,0,2022-07-06,2022-07-06,株式会社ＴＯＭＯＸ,,株式会社,愛知県,尾張旭市,庄中町１丁目１１番地１５,,23,226,4880838,,,,,,,2022-07-06,1,,,,,トモックス,0
2070,7180001152072,新規,0,2022-07-06,2022-07-06,ストラクト株式会社,,株式会社,愛知県,名古屋市中村区,城主町４丁目４番地の１,,23,105,4530819,,,,,,,2022-07-06,1,,,,,ストラクト,0
2071,7180001152089,新規,0,2022-07-06,2022-07-06,株式会社ＫＲＭ,,株式会社,愛知県,名古屋市昭和区,広路町字隼人２５番地の１グランドヒルズ八事広路町１０１号,,23,107,4660834,,,,,,,2022-07-06,1,,,,,ケーアールエム,0
2072,7180001152106,新規,0,2022-07-06,2022-07-06,株式会社ｉＳＥＮＳＥ,,株式会社,愛知県,あま市,甚目寺松山１４０番地２第２萬有ビル２０３号,,23,237,4901111,,,,,,,2022-07-06,1,,,,,アイセンス,0
2074,7180005019838,新規,0,2022-07-06,2022-07-06,一般社団法人愛知ハラスメント未然防止センター,,その他の設立登記法人,愛知県,尾張旭市,南新町白山１番地３８,,23,226,4880042,,,,,,,2022-07-06,1,,,,,アイチハラスメントミゼンボウシセンター,0
2075,7180301036388,新規,0,2022-07-06,2022-07-06,株式会社桑名,,株式会社,愛知県,蒲郡市,竹谷町七反９番地３,,23,214,4430046,,,,,,,2022-07-06,1,,,,,クワナ,0
2076,7180301036396,新規,0,2022-07-06,2022-07-06,株式会社建築板金秀,,株式会社,愛知県,西尾市,中畑１丁目６４番地４,,23,213,4440304,,,,,,,2022-07-06,1,,,,,ケンチクバンキンヒデ,0
2077,7180301036405,新規,0,2022-07-06,2022-07-06,株式会社平良会場設営,,株式会社,愛知県,豊田市,大林町１２丁目８番地７,,23,211,4730902,,,,,,,2022-07-06,1,,,,,ヒラヨシカイジョウセツエイ,0
2078,7180303005382,新規,0,2022-07-06,2022-07-06,合同会社ＭＡＷ　ＴＲＡＤＩＮＧ,,合同会社,愛知県,岡崎市,洞町字西奥洞６番地１,,23,202,4440008,,,,,,,2022-07-06,1,,,,,エムエーダブリュートレーディング,0
2080,7190001029575,新規,0,2022-07-06,2022-07-06,株式会社シーカーブロス,,株式会社,三重県,四日市市,別名３丁目３番２５号,,24,202,5100007,,,,,,,2022-07-06,1,,,,,シーカーブロス,0
2081,7190001029591,新規,0,2022-07-06,2022-07-06,田中工業株式会社,,株式会社,三重県,北牟婁郡紀北町,馬瀬１０２６番地１,,24,543,5193401,,,,,,,2022-07-06,1,,,,,タナカコウギョウ,0
2082,7190001029600,新規,0,2022-07-06,2022-07-06,株式会社田上電機,,株式会社,三重県,松阪市,曽原町１２３９番地,,24,204,5152112,,,,,,,2022-07-06,1,,,,,,0
2092,7200001040241,新規,0,2022-07-06,2022-07-06,愛岐フェンス株式会社,,株式会社,岐阜県,土岐市,鶴里町柿野４８４番地の１,,21,212,5095312,,,,,,,2022-07-06,1,,,,,アイギフェンス,0
2098,7200005013359,新規,0,2022-07-06,2022-07-06,一般社団法人こどもがセンター,,その他の設立登記法人,岐阜県,羽島市,舟橋町出須賀２丁目８番地,,21,209,5016304,,,,,,,2022-07-06,1,,,,,コドモガセンター,0
2099,7220001024928,新規,0,2022-07-06,2022-07-06,株式会社御木万葉造苑,,株式会社,石川県,加賀市,三木町３４の２番地,,17,206,9220854,,,,,,,2022-07-06,1,,,,,ミキマンヨウゾウエン,0
2110,7240001060046,新規,0,2022-07-06,2022-07-06,株式会社エヌ,,株式会社,広島県,広島市佐伯区,石内北１丁目５番２２号,,34,108,7315109,,,,,,,2022-07-06,1,,,,,エヌ,0
2111,7240001060054,新規,0,2022-07-06,2022-07-06,ＭＩＲＡＳＡＫＡＤＥＳＩＧＮ株式会社,,株式会社,広島県,三次市,三良坂町三良坂８０４番地,,34,209,7294304,,,,,,,2022-07-06,1,,,,,ミラサカデザイン,0
2116,7260001037026,新規,0,2022-07-06,2022-07-06,株式会社オートサービス旭,,株式会社,岡山県,久米郡美咲町,西川９５０番地,,33,666,7093404,,,,,,,2022-07-06,1,,,,,オートサービスアサヒ,0
2118,7260003003975,新規,0,2022-07-06,2022-07-06,合同会社ＡＨＬ,,合同会社,岡山県,瀬戸内市,長船町土師５７９番地３,,33,212,7014264,,,,,,,2022-07-06,1,,,,,エーエイチエル,0
2119,7280001008735,新規,0,2022-07-06,2022-07-06,ＣＲＥＥＲ株式会社,,株式会社,島根県,松江市,大輪町３９２番地３０,,32,201,6900882,,,,,,,2022-07-06,1,,,,,クレエ,0
2122,7290001098148,新規,0,2022-07-06,2022-07-06,ＦＯＲ　ＪＡＰＡＮ株式会社,,株式会社,福岡県,福岡市博多区,東光２丁目８番２６－２０１,,40,132,8120008,,,,,,,2022-07-06,1,,,,,フォージャパン,0
2123,7290001098189,新規,0,2022-07-06,2022-07-06,株式会社Ａｎｅｍｏｓ,,株式会社,福岡県,糟屋郡新宮町,大字上府６６８番地１,,40,345,8110117,,,,,,,2022-07-06,1,,,,,アネモス,0
2125,7290003012701,新規,0,2022-07-06,2022-07-06,合同会社ライトホープ,,合同会社,福岡県,糸島市,波多江駅北１丁目９－２０ベスタ伊都波多江駅前８０７号室,,40,230,8191107,,,,,,,2022-07-06,1,,,,,ライトホープ,0
2129,7290801028709,新規,0,2022-07-06,2022-07-06,株式会社グローブ,,株式会社,福岡県,北九州市八幡西区,北筑２丁目９番２３号,,40,109,8070857,,,,,,,2022-07-06,1,,,,,グローブ,0
2132,7310003004407,新規,0,2022-07-06,2022-07-06,ハマダコミュ合同会社,,合同会社,長崎県,諫早市,貝津町６０１番地１８モダンパラッツォ諫早ガーデン１０５号,,42,204,8540063,,,,,,,2022-07-06,1,,,,,,0
2134,7320001019174,新規,0,2022-07-06,2022-07-06,株式会社松山製パン工場,,株式会社,大分県,中津市,大字万田４３１番地５,,44,203,8710025,,,,,,,2022-07-06,1,,,,,マツヤマセイパンコウジョウ,0
2135,7330001029899,新規,0,2022-07-06,2022-07-06,株式会社山都興産,,株式会社,熊本県,上益城郡山都町,菅尾１０３５番地,,43,447,8613911,,,,,,,2022-07-06,1,,,,,ヤマトコウサン,0
2139,7340001024858,新規,0,2022-07-06,2022-07-06,株式会社吉満ブロイラー,,株式会社,鹿児島県,霧島市,国分重久２７４１番地３４,,46,218,8994301,,,,,,,2022-07-06,1,,,,,ヨシミツブロイラー,0
2140,7340001024866,新規,0,2022-07-06,2022-07-06,株式会社ＤＥＮ技研,,株式会社,鹿児島県,阿久根市,脇本７９９１番地５,,46,206,8991131,,,,,,,2022-07-06,1,,,,,デンギケン,0
2141,7340001024882,新規,0,2022-07-06,2022-07-06,株式会社ＥＮ　ＡＮＤ　ＲＥＳＯＲＴ,,株式会社,鹿児島県,鹿児島市,郡元１丁目３番７号,,46,201,8900065,,,,,,,2022-07-06,1,,,,,エンアンドリゾート,0
2144,7350001017844,新規,0,2022-07-06,2022-07-06,株式会社テルツァ,,株式会社,宮崎県,小林市,細野２３３７番地１７,,45,205,8860004,,,,,,,2022-07-06,1,,,,,テルツァ,0
2149,7360001030680,新規,0,2022-07-06,2022-07-06,株式会社ダイナ沖縄,,株式会社,沖縄県,糸満市,字糸洲３３７番地１,,47,210,9010342,,,,,,,2022-07-06,1,,,,,ダイナオキナワ,0
2150,7360003012140,新規,0,2022-07-06,2022-07-06,合同会社ライトシング,,合同会社,沖縄県,島尻郡八重瀬町,字宜次歌江原４０４番地１,,47,362,9010416,,,,,,,2022-07-06,1,,,,,ライトシング,0
2153,7370003005754,新規,0,2022-07-06,2022-07-06,合同会社Ｔ＆Ｄ,,合同会社,宮城県,仙台市青葉区,中央３丁目８番５号,,04,101,9800021,,,,,,,2022-07-06,1,,,,,ティーアンドディー,0
2164,7390001016958,新規,0,2022-07-06,2022-07-06,株式会社ｇｌｏｗｕｐ,,株式会社,山形県,米沢市,東２丁目２番５１号,,06,202,9920026,,,,,,,2022-07-06,1,,,,,グローアップ,0
2168,7400001015941,新規,0,2022-07-06,2022-07-06,ＴＹＰＥ‐Ａ株式会社,,株式会社,岩手県,盛岡市,南仙北２丁目２０番３９号,,03,201,0200863,,,,,,,2022-07-06,1,,,,,タイプエー,0
2177,7430001086963,新規,0,2022-07-06,2022-07-06,株式会社ＦＩＳＨ＆ＨＵＭＡＮ,,株式会社,北海道,札幌市東区,北十一条東１１丁目３－１１,,01,103,0650011,,,,,,,2022-07-06,1,,,,,フィッシュアンドヒューマン,0
2179,7430002066915,新規,0,2022-07-06,2022-07-06,第一自動車工業有限会社,,有限会社,北海道,滝川市,朝日町西３丁目２番６号,,01,225,0730018,,,,,,,2022-07-06,1,,,,,ダイイチジドウシャコウギョウ,0
2180,7430003014071,新規,0,2022-07-06,2022-07-06,クロスロード合同会社,,合同会社,北海道,札幌市東区,本町一条９丁目２番２号ノースピア北１３条通り８０３号室,,01,103,0650041,,,,,,,2022-07-06,1,,,,,クロスロード,0
2185,7460001005714,新規,0,2022-07-06,2022-07-06,株式会社マルタク水産,,株式会社,北海道,厚岸郡厚岸町,若竹１丁目５８番地,,01,662,0881118,,,,,,,2022-07-06,1,,,,,マルタクスイサン,0
2187,7460103001470,新規,0,2022-07-06,2022-07-06,合同会社伊藤美装,,合同会社,北海道,帯広市,西十一条南３４丁目１６番地１オフィス帯進Ａ号室,,01,207,0800021,,,,,,,2022-07-06,1,,,,,イトウビソウ,0
2188,7470001019151,新規,0,2022-07-06,2022-07-06,株式会社空海,,株式会社,香川県,丸亀市,川西町北１３５０番地１,,37,202,7630091,,,,,,,2022-07-06,1,,,,,クウカイ,0
2194,7700150110769,新規,0,2022-07-06,2022-07-06,Ｍｕｌｔｉｐｌｅ　Ｌｕｃｋ　Ｉｎｖｅｓｔｍｅｎｔｓ　Ｌｉｍｉｔｅｄ,,外国会社等,東京都,渋谷区,代々木２丁目１６－１４ＡＸＴ　Ｙｏｙｏｇｉ．　ＩＩ,00127115,13,113,1510053,Ｐｏｒｔｃｕｌｌｉｓ　Ｃｈａｍｂｅｒｓ，４ｔｈ　Ｆｌｏｏｒ，Ｅｌｌｅｎ　Ｓｋｅｌｔｏｎ　Ｂｕｉｌｄｉｎｇ，３０７６　Ｓｉｒ　Ｆｒａｎｃｉｓ　Ｄｒａｋｅ　Ｈｉｇｈｗａｙ，Ｒｏａｄ　Ｔｏｗｎ，Ｔｏｒｔｏｌａ，Ｂｒｉｔｉｓｈ　Ｖｉｒｇｉｎ　Ｉｓｌａｎｄｓ　ＶＧ　１１１０．,,,,,,2022-07-06,1,,,,,マルチプルラツクインベストメンツリミテツド,0
2207,8010001227831,新規,0,2022-07-06,2022-07-06,株式会社ＲＩＰＰＬＥ,,株式会社,東京都,千代田区,内神田１丁目５番１２号北大手町スクエア,,13,101,1010047,,,,,,,2022-07-06,1,,,,,リップル,0
2211,8010003038021,新規,0,2022-07-06,2022-07-06,Ｍ　Ｃｏｎｎｅｃｔ合同会社,,合同会社,東京都,文京区,根津２丁目２１番１３号,,13,105,1130031,,,,,,,2022-07-06,1,,,,,エムコネクト,0
2221,8010403028027,新規,0,2022-07-06,2022-07-06,ＡＭＢＩＴＩＯＮＳ　ＪＡＰＡＮ合同会社,,合同会社,東京都,港区,東麻布１丁目２３番５号ＰＭＣビル４階,,13,103,1060044,,,,,,,2022-07-06,1,,,,,アンビションズジャパン,0
2222,8010403028043,新規,0,2022-07-06,2022-07-06,ＲＢソーラーアーク合同会社,,合同会社,東京都,港区,虎ノ門３丁目２２番１０－２０１号,,13,103,1050001,,,,,,,2022-07-06,1,,,,,アールビーソーラーアーク,0
2223,8010403028051,新規,0,2022-07-06,2022-07-06,青森南洋上風力開発合同会社,,合同会社,東京都,港区,虎ノ門４丁目１番１３号プライムテラス神谷町５階,,13,103,1050001,,,,,,,2022-07-06,1,,,,,アオモリミナミヨウジョウフウリョクカイハツ,0
2231,8010901051158,新規,0,2022-07-06,2022-07-06,Ｃｏｎｏｗａｙ　ＰＣＳ株式会社,,株式会社,東京都,世田谷区,深沢４丁目２８番２号,,13,112,1580081,,,,,,,2022-07-06,1,,,,,コノウェイピーシーエス,0
2232,8010901051166,新規,0,2022-07-06,2022-07-06,キーウェア東北株式会社,,株式会社,東京都,世田谷区,上北沢５丁目３７番１８号,,13,112,1560057,,,,,,,2022-07-06,1,,,,,キーウェアトウホク,0
2233,8010901051174,新規,0,2022-07-06,2022-07-06,株式会社ＡＤＯＲＥ,,株式会社,東京都,世田谷区,等々力２丁目３６番２号エクセル２Ｆ,,13,112,1580082,,,,,,,2022-07-06,1,,,,,アドーア,0
2234,8010903007496,新規,0,2022-07-06,2022-07-06,アングラーズタイム合同会社,,合同会社,東京都,世田谷区,池尻４丁目３８番１１号,,13,112,1540001,,,,,,,2022-07-06,1,,,,,アングラーズタイム,0
2235,8010903007505,新規,0,2022-07-06,2022-07-06,合同会社絆ミュージック,,合同会社,東京都,世田谷区,松原６丁目３０番９号,,13,112,1560043,,,,,,,2022-07-06,1,,,,,キズナミュージック,0
2238,8011001148472,新規,0,2022-07-06,2022-07-06,株式会社ワンシーン,,株式会社,東京都,渋谷区,渋谷２丁目１９－１５宮益坂ビルディング６０９,,13,113,1500002,,,,,,,2022-07-06,1,,,,,ワンシーン,0
2239,8011001148514,新規,0,2022-07-06,2022-07-06,古野株式会社,,株式会社,東京都,渋谷区,恵比寿４丁目１８番１－４０３号,,13,113,1500013,,,,,,,2022-07-06,1,,,,,フルノ,0
2240,8011003014978,新規,0,2022-07-06,2022-07-06,ＨＫＳＦ合同会社,,合同会社,東京都,渋谷区,渋谷２丁目２４番１２号,,13,113,1500002,,,,,,,2022-07-06,1,,,,,エイチケーエスエフ,0
2247,8011101099418,新規,0,2022-07-06,2022-07-06,株式会社ＦＯＣＩ,,株式会社,東京都,新宿区,西新宿７丁目３番１０号,,13,104,1600023,,,,,,,2022-07-06,1,,,,,フォーサイ,0
2248,8011101099426,新規,0,2022-07-06,2022-07-06,株式会社たろさん,,株式会社,東京都,新宿区,神楽坂３丁目６番地カーサピッコラ神楽坂１Ｆ,,13,104,1620825,,,,,,,2022-07-06,1,,,,,タロサン,0
2249,8011101099442,新規,0,2022-07-06,2022-07-06,株式会社ＧＴＮコンシェルジュサービス,,株式会社,東京都,新宿区,大久保１丁目１５番１５号,,13,104,1690072,,,,,,,2022-07-06,1,,,,,ジーティーエヌコンシェルジュサービス,0
2254,8011201023938,新規,0,2022-07-06,2022-07-06,株式会社Ｈ＆Ｙ,,株式会社,東京都,中野区,中央３丁目４０番２号,,13,114,1640011,,,,,,,2022-07-06,1,,,,,エイチアンドワイ,0
2260,8011403003713,新規,0,2022-07-06,2022-07-06,Ａｓａｈｉ　ｉｎｔｅｒｎａｔｉｏｎａｌ合同会社,,合同会社,東京都,板橋区,南常盤台１丁目１９番８－５０３号,,13,119,1740072,,,,,,,2022-07-06,1,,,,,アサヒインターナショナル,0
2265,8011501028232,新規,0,2022-07-06,2022-07-06,ｍｕｋｕ株式会社,,株式会社,東京都,荒川区,東尾久２丁目４８番９号,,13,118,1160012,,,,,,,2022-07-06,1,,,,,ムク,0
2269,8011801040969,新規,0,2022-07-06,2022-07-06,株式会社熊瀬オフィス,,株式会社,東京都,葛飾区,亀有３丁目１７番３－７０２号,,13,122,1250061,,,,,,,2022-07-06,1,,,,,クマセオフィス,0
2272,8012701017140,新規,0,2022-07-06,2022-07-06,株式会社Ｆｕｔｕｒｅ,,株式会社,東京都,西東京市,田無町２丁目９－６野崎ビル４０２号室,,13,229,1880011,,,,,,,2022-07-06,1,,,,,フューチャー,0
2274,8013301049350,新規,0,2022-07-06,2022-07-06,株式会社ＳＣＳ,,株式会社,東京都,豊島区,雑司が谷１丁目１１番５号,,13,116,1710032,,,,,,,2022-07-06,1,,,,,エスシーエス,0
2275,8013303006218,新規,0,2022-07-06,2022-07-06,合同会社リベイディア,,合同会社,東京都,豊島区,東池袋３丁目２１番２１号,,13,116,1700013,,,,,,,2022-07-06,1,,,,,リベイディア,0
2279,8020001147211,新規,0,2022-07-06,2022-07-06,株式会社Ｄｒｅａｍ　Ｏｎ,,株式会社,神奈川県,横浜市金沢区,六浦４丁目１９番１２号,,14,108,2360031,,,,,,,2022-07-06,1,,,,,ドリームオン,0
2282,8020003022040,新規,0,2022-07-06,2022-07-06,合同会社ＦＵＹＵＲＡ,,合同会社,神奈川県,川崎市中原区,小杉町１丁目５２９番地Ｋ＆Ｗガーデン１０２,,14,133,2110063,,,,,,,2022-07-06,1,,,,,フユラ,0
2283,8020003022049,新規,0,2022-07-06,2022-07-06,合同会社ＵＦＯＮ,,合同会社,神奈川県,川崎市高津区,北見方２丁目２０番９号,,14,134,2130005,,,,,,,2022-07-06,1,,,,,ユーフォン,0
2286,8021003011900,新規,0,2022-07-06,2022-07-06,西湘サービス合同会社,,合同会社,神奈川県,小田原市,成田３１４番地の３,,14,206,2500862,,,,,,,2022-07-06,1,,,,,セイショウサービス,0
2287,8021003011909,新規,0,2022-07-06,2022-07-06,合同会社ＳＥＴＯ　ＰＬＡＮＴ,,合同会社,神奈川県,相模原市中央区,東淵野辺５丁目１２番６号,,14,152,2520203,,,,,,,2022-07-06,1,,,,,セトプラント,0
2289,8030001149066,新規,0,2022-07-06,2022-07-06,株式会社にゃんくるわん,,株式会社,埼玉県,新座市,新堀２丁目１４番２３号,,11,230,3520032,,,,,,,2022-07-06,1,,,,,ニャンクルワン,0
2297,8040001124068,新規,0,2022-07-06,2022-07-06,株式会社ロッカビレッジ,,株式会社,千葉県,木更津市,高柳９８４番地２,,12,206,2920014,,,,,,,2022-07-06,1,,,,,ロッカビレッジ,0
2298,8040001124092,新規,0,2022-07-06,2022-07-06,株式会社ＫＴ‐Ｌｉｆｅ,,株式会社,千葉県,松戸市,上本郷２６７７番地の１０２,,12,207,2710064,,,,,,,2022-07-06,1,,,,,ケーティーライフ,0
2299,8040001124101,新規,0,2022-07-06,2022-07-06,株式会社日藤工業,,株式会社,千葉県,富里市,日吉台３丁目１３番地１２,,12,233,2860201,,,,,,,2022-07-06,1,,,,,ニットウコウギョウ,0
2300,8040001124159,新規,0,2022-07-06,2022-07-06,リンクメッド株式会社,,株式会社,千葉県,千葉市稲毛区,小仲台２丁目６番１号,,12,103,2630043,,,,,,,2022-07-06,1,,,,,リンクメッド,0
2301,8040001124167,新規,0,2022-07-06,2022-07-06,株式会社レーヴ,,株式会社,千葉県,千葉市花見川区,検見川町５丁目２２５６番地８,,12,102,2620023,,,,,,,2022-07-06,1,,,,,レーヴ,0
2302,8040001124183,新規,0,2022-07-06,2022-07-06,株式会社おてち,,株式会社,千葉県,流山市,市野谷２０４番地の９（運Ａ１－４街区１－３）,,12,220,2700137,,,,,,,2022-07-06,1,,,,,オテチ,0
2304,8040003020364,新規,0,2022-07-06,2022-07-06,合同会社レガーロ,,合同会社,千葉県,柏市,豊四季６９８番地７５,,12,217,2770863,,,,,,,2022-07-06,1,,,,,レガーロ,0
2305,8040003020380,新規,0,2022-07-06,2022-07-06,甲松興業合同会社,,合同会社,千葉県,千葉市稲毛区,稲毛３丁目７－７新富稲毛第一２０１号室,,12,103,2630034,,,,,,,2022-07-06,1,,,,,,0
2306,8040003020389,新規,0,2022-07-06,2022-07-06,合同会社レイアップ,,合同会社,千葉県,成田市,並木町２２１番７２７,,12,211,2860045,,,,,,,2022-07-06,1,,,,,レイアップ,0
2307,8050001051328,新規,0,2022-07-06,2022-07-06,株式会社花連,,株式会社,茨城県,結城郡八千代町,大字菅谷４７１番地,,08,521,3003572,,,,,,,2022-07-06,1,,,,,カレン,0
2308,8050001051336,新規,0,2022-07-06,2022-07-06,株式会社ＧＲＴ,,株式会社,茨城県,守谷市,薬師台５丁目１８番地３,,08,224,3020105,,,,,,,2022-07-06,1,,,,,ジーアールティー,0
2309,8050001051352,新規,0,2022-07-06,2022-07-06,株式会社常陽アセット,,株式会社,茨城県,日立市,水木町２丁目８番５０―３０１号,,08,202,3160024,,,,,,,2022-07-06,1,,,,,ジョウヨウアセット,0
2312,8050003006668,新規,0,2022-07-06,2022-07-06,合同会社あまの,,合同会社,茨城県,守谷市,ひがし野２丁目１番地,,08,224,3020131,,,,,,,2022-07-06,1,,,,,アマノ,0
2318,8060001035049,新規,0,2022-07-06,2022-07-06,遊亀エステート株式会社,,株式会社,栃木県,宇都宮市,鶴田町３１１１番地３Ｂ－２０２,,09,201,3200851,,,,,,,2022-07-06,1,,,,,ユウキエステート,0
2331,8080401025928,新規,0,2022-07-06,2022-07-06,株式会社Ｅｌｖｉｔａ,,株式会社,静岡県,浜松市東区,中田町５１０番地の３,,22,132,4350057,,,,,,,2022-07-06,1,,,,,エルヴィータ,0
2336,8110001036792,新規,0,2022-07-06,2022-07-06,株式会社錦翔工業,,株式会社,新潟県,柏崎市,米山台５丁目６番７号,,15,205,9450842,,,,,,,2022-07-06,1,,,,,キンショウコウギョウ,0
2345,8120001247141,新規,0,2022-07-06,2022-07-06,株式会社夢ｓｏｕｚｏｕ,,株式会社,大阪府,大阪市平野区,長吉長原東３丁目２番６１号,,27,126,5470013,,,,,,,2022-07-06,1,,,,,ユメソウゾウ,0
2346,8120001247199,新規,0,2022-07-06,2022-07-06,Ｇｒａｎ　ｌｉｏｎ株式会社,,株式会社,大阪府,大阪市中央区,南船場４丁目１０番１８号ナサプライムハウス別館５階,,27,128,5420081,,,,,,,2022-07-06,1,,,,,グランリオン,0
2349,8120003022022,新規,0,2022-07-06,2022-07-06,合同会社協栄保険事務所,,合同会社,大阪府,大阪市東淀川区,菅原７丁目５番４３号,,27,114,5330022,,,,,,,2022-07-06,1,,,,,キョウエイホケンジムショ,0
2350,8120003022030,新規,0,2022-07-06,2022-07-06,合同会社オブザビュー,,合同会社,大阪府,大阪市浪速区,難波中２丁目７番２５号ナンバビル２０４,,27,111,5560011,,,,,,,2022-07-06,1,,,,,オブザビュー,0
2352,8120005023027,新規,0,2022-07-06,2022-07-06,ＡＮＣＨＯＲ　ＣＨＵＲＣＨ一般社団法人,,その他の設立登記法人,大阪府,枚方市,南楠葉２丁目２４番２号,,27,210,5731105,,,,,,,2022-07-06,1,,,,,アンカーチャーチ,0
2353,8120101065831,新規,0,2022-07-06,2022-07-06,株式会社ＬＡＺＯコーポレーション,,株式会社,大阪府,堺市中区,土師町５丁３番３－７号,,27,142,5998238,,,,,,,2022-07-06,1,,,,,ラソコーポレーション,0
2354,8120101065848,新規,0,2022-07-06,2022-07-06,株式会社ＳＲＥ,,株式会社,大阪府,堺市東区,大美野４番地８,,27,143,5998126,,,,,,,2022-07-06,1,,,,,エスアールイー,0
2370,8140003017870,新規,0,2022-07-06,2022-07-06,合同会社東益,,合同会社,兵庫県,赤穂市,加里屋中洲５丁目１－９,,28,212,6780233,,,,,,,2022-07-06,1,,,,,トーマス,0
2373,8150001025668,新規,0,2022-07-06,2022-07-06,株式会社ｋｏｋｕａ,,株式会社,奈良県,葛城市,北道穗１２６番地１５,,29,211,6392142,,,,,,,2022-07-06,1,,,,,コクア,0
2375,8160001024322,新規,0,2022-07-06,2022-07-06,株式会社ティーライン,,株式会社,滋賀県,大津市,苗鹿２丁目２９番９号,,25,201,5200102,,,,,,,2022-07-06,1,,,,,ティーライン,0
2383,8180001151981,新規,0,2022-07-06,2022-07-06,ＦｏｏＴ株式会社,,株式会社,愛知県,大府市,横根町名高山１１７番地の２,,23,223,4740011,,,,,,,2022-07-06,1,,,,,フット,0
2384,8180001152022,新規,0,2022-07-06,2022-07-06,株式会社アラカワ,,株式会社,愛知県,名古屋市南区,豊４丁目１７番１２号,,23,112,4570863,,,,,,,2022-07-06,1,,,,,アラカワ,0
2385,8180001152063,新規,0,2022-07-06,2022-07-06,株式会社アイケイ分割準備会社,,株式会社,愛知県,名古屋市中村区,上米野町４丁目２０番地,,23,105,4530809,,,,,,,2022-07-06,1,,,,,アイケイブンカツジュンビガイシャ,0
2386,8180001152071,新規,0,2022-07-06,2022-07-06,アトリエシエル株式会社,,株式会社,愛知県,名古屋市西区,枇杷島１丁目１４番１１号,,23,104,4510053,,,,,,,2022-07-06,1,,,,,アトリエシエル,0
2387,8180001152088,新規,0,2022-07-06,2022-07-06,株式会社ＣＯＭＰＡＳＳ,,株式会社,愛知県,名古屋市中村区,平池町４丁目６０番地の１２グローバルゲート１１階,,23,105,4530872,,,,,,,2022-07-06,1,,,,,コンパス,0
2388,8180001152105,新規,0,2022-07-06,2022-07-06,株式会社ＴＡＷＡＤＡ,,株式会社,愛知県,名古屋市西区,上堀越町１丁目１５番地の１４,,23,104,4510084,,,,,,,2022-07-06,1,,,,,タワダ,0
2393,8180005019829,新規,0,2022-07-06,2022-07-06,医療法人ＮＡＮＡＮＡ,,その他の設立登記法人,愛知県,名古屋市昭和区,阿由知通３丁目１６番地１レーベン御器所１階・２階,,23,107,4660027,,,,,,,2022-07-06,1,,,,,ナナナ,0
2394,8180301036395,新規,0,2022-07-06,2022-07-06,トラスト工業株式会社,,株式会社,愛知県,額田郡幸田町,大字上六栗字金ケ崎２番地９,,23,501,4440123,,,,,,,2022-07-06,1,,,,,トラストコウギョウ,0
2396,8190001029582,新規,0,2022-07-06,2022-07-06,なか新株式会社,,株式会社,三重県,伊賀市,伊勢路１６９４番地,,24,216,5180205,,,,,,,2022-07-06,1,,,,,ナカシン,0
2397,8190003004030,新規,0,2022-07-06,2022-07-06,ヒーロー薬剤師合同会社,,合同会社,三重県,志摩市,阿児町鵜方２４０７番地９,,24,215,5170501,,,,,,,2022-07-06,1,,,,,ヒーローヤクザイシ,0
2400,8200001040240,新規,0,2022-07-06,2022-07-06,渡辺バレル株式会社,,株式会社,岐阜県,関市,大杉２８９番地２,,21,205,5013922,,,,,,,2022-07-06,1,,,,,ワタナベバレル,0
2401,8200001040249,新規,0,2022-07-06,2022-07-06,スエナミサポート株式会社,,株式会社,岐阜県,岐阜市,長良２丁目６９番地１キャッスルハイツ長良一楽ＩＩＩ３０１号室,00127116,21,201,5020081,,,,,,,2022-07-06,1,,,,,スエナミサポート,0
2408,8230001019439,新規,0,2022-07-06,2022-07-06,アセットプラス株式会社,,株式会社,富山県,射水市,川口８６２番地３,,16,211,9340058,,,,,,,2022-07-06,1,,,,,アセットプラス,0
2413,8240001060012,新規,0,2022-07-06,2022-07-06,株式会社川本工業,,株式会社,広島県,豊田郡大崎上島町,沖浦１０３１番地,,34,431,7250402,,,,,,,2022-07-06,1,,,,,カワモトコウギョウ,0
2414,8240001060053,新規,0,2022-07-06,2022-07-06,株式会社みなみ内装,,株式会社,広島県,広島市安佐北区,深川７丁目２１番１８号,,34,106,7391751,,,,,,,2022-07-06,1,,,,,ミナミナイソウ,0
2421,8260001037009,新規,0,2022-07-06,2022-07-06,グリーンウッド株式会社,,株式会社,岡山県,津山市,加茂町成安１５１８番地,,33,203,7093932,,,,,,,2022-07-06,1,,,,,グリーンウッド,0
2422,8260001037017,新規,0,2022-07-06,2022-07-06,株式会社モリタトラスト,,株式会社,岡山県,倉敷市,児島味野上１丁目３番４４号,,33,202,7110917,,,,,,,2022-07-06,1,,,,,モリタトラスト,0
2423,8260001037025,新規,0,2022-07-06,2022-07-06,株式会社フルネス,,株式会社,岡山県,岡山市南区,東畦１１２番地５９,,33,104,7010211,,,,,,,2022-07-06,1,,,,,フルネス,0
2425,8260003003974,新規,0,2022-07-06,2022-07-06,合同会社リダイス,,合同会社,岡山県,岡山市南区,南輝１丁目１３番３４号（１０１）,,33,104,7028023,,,,,,,2022-07-06,1,,,,,リダイス,0
2433,8290001098106,新規,0,2022-07-06,2022-07-06,株式会社科瑞,,株式会社,福岡県,福岡市中央区,渡辺通１丁目１番２号,,40,133,8100004,,,,,,,2022-07-06,1,,,,,カスイ,0
2434,8290001098114,新規,0,2022-07-06,2022-07-06,福岡南アセット株式会社,,株式会社,福岡県,福岡市南区,向野２丁目９番１４－２０３号,,40,134,8150035,,,,,,,2022-07-06,1,,,,,フクオカミナミアセット,0
2435,8290001098130,新規,0,2022-07-06,2022-07-06,株式会社くらはち,,株式会社,福岡県,八女市,本町２番地１,,40,210,8340031,,,,,,,2022-07-06,1,,,,,クラハチ,0
2436,8290001098139,新規,0,2022-07-06,2022-07-06,Ｃ．Ｌｉｎｃｓ株式会社,,株式会社,福岡県,福岡市博多区,中洲５丁目６番１０号ＬＡ博多６階,,40,132,8100801,,,,,,,2022-07-06,1,,,,,シーリンクス,0
2437,8290001098205,新規,0,2022-07-06,2022-07-06,株式会社アマランス,,株式会社,福岡県,福岡市博多区,博多駅前２丁目１９番１７号トーカン博多第５ビル３１２号室,,40,132,8120011,,,,,,,2022-07-06,1,,,,,アマランス,0
2440,8290003012717,新規,0,2022-07-06,2022-07-06,合同会社誠心,,合同会社,福岡県,福岡市早良区,百道３丁目１５番２２－３０１号サンライズ百道,,40,137,8140006,,,,,,,2022-07-06,1,,,,,セイシン,0
2445,8290801028699,新規,0,2022-07-06,2022-07-06,株式会社朝陽総合福祉,,株式会社,福岡県,北九州市八幡西区,木屋瀬３丁目１７番１６－２０２号,,40,109,8071261,,,,,,,2022-07-06,1,,,,,アサヒソウゴウフクシ,0
2446,8290801028716,新規,0,2022-07-06,2022-07-06,株式会社吉良,,株式会社,福岡県,京都郡苅田町,松原町２番地３,,40,621,8000301,,,,,,,2022-07-06,1,,,,,キラ,0
2447,8310001017938,新規,0,2022-07-06,2022-07-06,ＦＢＳ株式会社,,株式会社,長崎県,佐世保市,吉岡町１７９２番地１４,,42,202,8570143,,,,,,,2022-07-06,1,,,,,エフビーエス,0
2448,8310001017946,新規,0,2022-07-06,2022-07-06,株式会社サロンクリエーション,,株式会社,長崎県,長崎市,住吉町７－２小出ビル１階,,42,201,8528154,,,,,,,2022-07-06,1,,,,,サロンクリエーション,0
2451,8310003004406,新規,0,2022-07-06,2022-07-06,合同会社Ｍｉｙｕｋｉホーム,,合同会社,長崎県,大村市,今富町１０５９番地３,,42,205,8560018,,,,,,,2022-07-06,1,,,,,ミユキホーム,0
2453,8320001019173,新規,0,2022-07-06,2022-07-06,株式会社塩楽工房,,株式会社,大分県,中津市,大字定留１番地５,,44,203,8790122,,,,,,,2022-07-06,1,,,,,エンラクコウボウ,0
2456,8320005010005,新規,0,2022-07-06,2022-07-06,特定非営利活動法人小さな手,,その他の設立登記法人,大分県,大分市,敷戸西町１１８２番地１３９,,44,201,8701103,,,,,,,2022-07-06,1,,,,,チイサナテ,0
2461,8340001024865,新規,0,2022-07-06,2022-07-06,株式会社Ｅａｓｔ　Ｆａｃｔｏｒｙ,,株式会社,鹿児島県,霧島市,隼人町神宮１丁目３番１２号,,46,218,8995121,,,,,,,2022-07-06,1,,,,,イーストファクトリー,0
2462,8340003003842,新規,0,2022-07-06,2022-07-06,合同会社ＨＡＮＤＳ,,合同会社,鹿児島県,鹿児島市,田上台３丁目８－３,,46,201,8900036,,,,,,,2022-07-06,1,,,,,ハンズ,0
2465,8350001017835,新規,0,2022-07-06,2022-07-06,株式会社伊東設備,,株式会社,宮崎県,延岡市,恒富町２丁目８番地４,,45,203,8820836,,,,,,,2022-07-06,1,,,,,イトウセツビ,0
2472,8370001048762,新規,0,2022-07-06,2022-07-06,株式会社もげ,,株式会社,宮城県,仙台市泉区,市名坂字黒木川原５４番地１３,,04,105,9813117,,,,,,,2022-07-06,1,,,,,モゲ,0
2479,8400001015940,新規,0,2022-07-06,2022-07-06,株式会社八幡平ネクストエナジー,,株式会社,岩手県,八幡平市,大更第２４地割９番地１,,03,214,0287111,,,,,,,2022-07-06,1,,,,,ハチマンタイネクストエナジー,0
2485,8420001017919,新規,0,2022-07-06,2022-07-06,株式会社エージーアイ,,株式会社,青森県,青森市,松原３丁目１６番１４号,,02,201,0300813,,,,,,,2022-07-06,1,,,,,エージーアイ,0
2486,8420001017935,新規,0,2022-07-06,2022-07-06,株式会社虹鱒屋,,株式会社,青森県,三戸郡新郷村,大字戸来字上栃棚森ノ下５８番地１,,02,450,0391801,,,,,,,2022-07-06,1,,,,,ニジマスヤ,0
2493,8460101007213,新規,0,2022-07-06,2022-07-06,フクシマ電気株式会社,,株式会社,北海道,河東郡音更町,緑陽台南区２７番地８,,01,631,0800318,,,,,,,2022-07-06,1,,,,,フクシマデンキ,0
2501,8500002024484,新規,0,2022-07-06,2022-07-06,有限会社武田農園,,有限会社,愛媛県,伊予市,上唐川甲１８０番地,,38,210,7993134,,,,,,,2022-07-06,1,,,,,タケダノウエン,0
2507,9010001227797,新規,0,2022-07-06,2022-07-06,株式会社１００Ｘ,,株式会社,東京都,文京区,小石川１丁目１７－１Ｂ１２１３,,13,105,1120002,,,,,,,2022-07-06,1,,,,,ヒャクエックス,0
2508,9010003038029,新規,0,2022-07-06,2022-07-06,ＳＲＪ２合同会社,,合同会社,東京都,中央区,銀座１丁目６番１１号土志田ビルディング３Ｆ,,13,102,1040061,,,,,,,2022-07-06,1,,,,,エスアールジェイツー,0
2513,9010401168360,新規,0,2022-07-06,2022-07-06,株式会社ＴＭＣ,,株式会社,東京都,港区,芝５丁目１６番７号,,13,103,1080014,,,,,,,2022-07-06,1,,,,,ティーエムシー,0
2516,9010403028042,新規,0,2022-07-06,2022-07-06,ＲＢソーラーエース合同会社,,合同会社,東京都,港区,虎ノ門３丁目２２番１０－２０１号,,13,103,1050001,,,,,,,2022-07-06,1,,,,,アールビーソーラーエース,0
2520,9010503006641,新規,0,2022-07-06,2022-07-06,合同会社タンエイ,,合同会社,東京都,台東区,上野６丁目７番１６号川久保ビル７１０号室,,13,106,1100005,,,,,,,2022-07-06,1,,,,,タンエイ,0
2521,9010701042901,新規,0,2022-07-06,2022-07-06,３Ｒ　Ｔｅｃｈ株式会社,,株式会社,東京都,品川区,東五反田５丁目２２番３３号,,13,109,1410022,,,,,,,2022-07-06,1,,,,,スリーアールテック,0
2523,9010801033098,新規,0,2022-07-06,2022-07-06,株式会社トラストティエラ,,株式会社,東京都,大田区,西蒲田８丁目２２番３－３０４号,,13,111,1440051,,,,,,,2022-07-06,1,,,,,トラストティエラ,0
2526,9010901051157,新規,0,2022-07-06,2022-07-06,株式会社ウィステ,,株式会社,東京都,世田谷区,上野毛３丁目２３番１－２２６号,,13,112,1580093,,,,,,,2022-07-06,1,,,,,ウィステ,0
2527,9010901051165,新規,0,2022-07-06,2022-07-06,株式会社ファースト・プロモーション,,株式会社,東京都,世田谷区,三軒茶屋２丁目１１番２２号,,13,112,1540024,,,,,,,2022-07-06,1,,,,,ファーストプロモーション,0
2528,9010901051173,新規,0,2022-07-06,2022-07-06,株式会社Ｍａｓｓ　Ｍｉｎｏｒｉｔｙ,,株式会社,東京都,世田谷区,上馬５丁目３２番２０号,,13,112,1540011,,,,,,,2022-07-06,1,,,,,マスマイノリティー,0
2529,9010901051181,新規,0,2022-07-06,2022-07-06,株式会社Ｂｅｌｍｅ,,株式会社,東京都,世田谷区,用賀２丁目３８番１４号天虎ビル２０１,,13,112,1580097,,,,,,,2022-07-06,1,,,,,ベルム,0
2530,9010903007470,新規,0,2022-07-06,2022-07-06,合同会社Ｎｏｌａｂｉｔｏ,,合同会社,東京都,世田谷区,粕谷４丁目１９－８－３０８,,13,112,1570063,,,,,,,2022-07-06,1,,,,,ノラビト,0
2535,9011001148463,新規,0,2022-07-06,2022-07-06,株式会社ＷｅｂＴｅｃｈ,,株式会社,東京都,目黒区,大橋１丁目５番１－１６２１号,,13,110,1530044,,,,,,,2022-07-06,1,,,,,ウェブテック,0
2536,9011001148496,新規,0,2022-07-06,2022-07-06,株式会社夜々中,,株式会社,東京都,目黒区,上目黒３丁目１番１０－２０３号,,13,110,1530051,,,,,,,2022-07-06,1,,,,,ヨルヨルナカ,0
2537,9011001148513,新規,0,2022-07-06,2022-07-06,株式会社ＢＡ　Ｍａｒｋｅｔｉｎｇ,,株式会社,東京都,渋谷区,恵比寿４丁目２０番３号恵比寿ガーデンプレイスタワー１８階,,13,113,1500013,,,,,,,2022-07-06,1,,,,,ビーエーマーケティング,0
2538,9011005009637,新規,0,2022-07-06,2022-07-06,一般社団法人フィジカルインターネットセンター,,その他の設立登記法人,東京都,渋谷区,代々木５丁目２６番１３号,,13,113,1510053,,,,,,,2022-07-06,1,,,,,フィジカルインターネットセンター,0
2543,9011101099425,新規,0,2022-07-06,2022-07-06,株式会社Ｍｉｄｔｏｗｎ,,株式会社,東京都,新宿区,神楽坂６番地８,,13,104,1600000,,,,,,,2022-07-06,1,,,,,ミッドタウン,0
2544,9011103011932,新規,0,2022-07-06,2022-07-06,合同会社オフィスエヴァーガーデン,,合同会社,東京都,新宿区,北新宿２丁目２１番２号,,13,104,1690074,,,,,,,2022-07-06,1,,,,,オフィスエヴァーガーデン,0
2545,9011201023937,新規,0,2022-07-06,2022-07-06,株式会社ＦＯＵＲ　ＬＩＮＸ,,株式会社,東京都,中野区,本町２丁目２－１１ＦＬＯＯＲＡＮＤＷＡＬＬＳ７階,,13,114,1640012,,,,,,,2022-07-06,1,,,,,フォーリンクス,0
2546,9011203003862,新規,0,2022-07-06,2022-07-06,合同会社サクセス,,合同会社,東京都,中野区,上高田１丁目２－３９,,13,114,1640002,,,,,,,2022-07-06,1,,,,,サクセス,0
2548,9011303004463,新規,0,2022-07-06,2022-07-06,合同会社オールインワンズ,,合同会社,東京都,杉並区,堀ノ内１丁目１０－５－４１５号,,13,115,1660013,,,,,,,2022-07-06,1,,,,,オールインワンズ,0
2549,9011305002829,新規,0,2022-07-06,2022-07-06,特定非営利活動法人みんなの進路委員会,,その他の設立登記法人,東京都,杉並区,高円寺北３丁目３５－１６ラフォーレ高円寺,,13,115,1660002,,,,,,,2022-07-06,1,,,,,ミンナノシンロイインカイ,0
2555,9011601026085,新規,0,2022-07-06,2022-07-06,株式会社ＣＨＡＮＶＡＲＡ,,株式会社,東京都,練馬区,豊玉北４丁目１１番９号イーホープメディカルセンタービル２Ｆ,,13,120,1760012,,,,,,,2022-07-06,1,,,,,チャンバラ,0
2559,9011701025441,新規,0,2022-07-06,2022-07-06,株式会社ノームス,,株式会社,東京都,江戸川区,中葛西２丁目１－６－５０４号第３長庄マンション,,13,123,1340083,,,,,,,2022-07-06,1,,,,,ノームス,0
2561,9011703003189,新規,0,2022-07-06,2022-07-06,Ｃａｎａｄｅａ合同会社,,合同会社,東京都,江戸川区,西葛西３丁目２番１１号村井ビル１Ｆ,,13,123,1340088,,,,,,,2022-07-06,1,,,,,カナデア,0
2563,9012801021710,新規,0,2022-07-06,2022-07-06,ハウスコム西東京株式会社,,株式会社,東京都,立川市,曙町２丁目１３番１号,,13,202,1900012,,,,,,,2022-07-06,1,,,,,ハウスコムニシトウキョウ,0
2564,9013101008968,新規,0,2022-07-06,2022-07-06,株式会社Ｆｉｌｍｉｃ,,株式会社,東京都,あきる野市,雨間２２２番地７エスポワール・大塚１０３号,,13,228,1970825,,,,,,,2022-07-06,1,,,,,,0
2575,9020001147193,新規,0,2022-07-06,2022-07-06,株式会社Ｐｏｌａｒｉｓ,,株式会社,神奈川県,横浜市西区,南幸１丁目１３番１０号,,14,103,2200005,,,,,,,2022-07-06,1,,,,,ポラリス,0
2576,9020001147210,新規,0,2022-07-06,2022-07-06,株式会社ＫＲＬａｂ,,株式会社,神奈川県,川崎市高津区,坂戸３丁目４番４－２号,,14,134,2130012,,,,,,,2022-07-06,1,,,,,ケーアールラボ,0
2577,9020001147235,新規,0,2022-07-06,2022-07-06,株式会社Ｃｙａｎ,,株式会社,神奈川県,横浜市旭区,さちが丘９番地４,,14,112,2410822,,,,,,,2022-07-06,1,,,,,シアン,0
2578,9020001147243,新規,0,2022-07-06,2022-07-06,ラ・フォンテ・クレアーレ株式会社,,株式会社,神奈川県,横浜市西区,みなとみらい２丁目２番１号横浜ランドマークタワー２０Ｆ,,14,103,2200012,,,,,,,2022-07-06,1,,,,,ラフォンテクレアーレ,0
2581,9020003022048,新規,0,2022-07-06,2022-07-06,合同会社ｍｃ,,合同会社,神奈川県,横浜市中区,蓬莱町２丁目４番地２グランステイツ３０３号,,14,104,2310048,,,,,,,2022-07-06,1,,,,,エムシー,0
2588,9021003011899,新規,0,2022-07-06,2022-07-06,合同会社ハジメテ,,合同会社,神奈川県,厚木市,長谷１１６３－４,,14,212,2430036,,,,,,,2022-07-06,1,,,,,ハジメテ,0
2593,9030001149016,新規,0,2022-07-06,2022-07-06,イーエイジ株式会社,,株式会社,埼玉県,川口市,栄町１丁目３番１１号,,11,203,3320017,,,,,,,2022-07-06,1,,,,,イーエイジ,0
2594,9030003019720,新規,0,2022-07-06,2022-07-06,ＲＵ　ＬＡＮＫＡ　ＩＮＴＥＲＮＡＴＩＯＮＡＬ　ＪＡＰＡＮ合同会社,,合同会社,埼玉県,飯能市,本町１番１１号ＫＩＶオフィス飯能Ｂ号室,,11,209,3570032,,,,,,,2022-07-06,1,,,,,ルランカインターナショナルジャパン,0
2595,9030003019745,新規,0,2022-07-06,2022-07-06,合同会社燕,,合同会社,埼玉県,さいたま市西区,三橋６丁目１６５８番地２,,11,101,3310052,,,,,,,2022-07-06,1,,,,,エン,0
2602,9040001124083,新規,0,2022-07-06,2022-07-06,株式会社Ｃｌｏｖｅｒ船橋,,株式会社,千葉県,船橋市,田喜野井２丁目２５番２号,,12,204,2740073,,,,,,,2022-07-06,1,,,,,クローバーフナバシ,0
2603,9040001124100,新規,0,2022-07-06,2022-07-06,株式会社角田重量,,株式会社,千葉県,浦安市,北栄１丁目３番５－２０２号豊ハイツ,,12,227,2790002,,,,,,,2022-07-06,1,,,,,ツノダジュウリョウ,0
2604,9040001124109,新規,0,2022-07-06,2022-07-06,株式会社Ｈ＆Ｔひなた給排設備,,株式会社,千葉県,習志野市,鷺沼２丁目１１番９号,,12,216,2750014,,,,,,,2022-07-06,1,,,,,エイチアンドティーヒナタキュウハイセツビ,0
2605,9040001124117,新規,0,2022-07-06,2022-07-06,株式会社照沼工業,,株式会社,千葉県,鎌ケ谷市,道野辺中央５丁目１番２４号,,12,224,2730113,,,,,,,2022-07-06,1,,,,,テルヌマコウギョウ,0
2606,9040001124141,新規,0,2022-07-06,2022-07-06,株式会社ＣＡＮＡＬＩＳＥ,,株式会社,千葉県,流山市,大字東深井６６３番地の３２,,12,220,2700101,,,,,,,2022-07-06,1,,,,,カナライズ,0
2607,9040001124174,新規,0,2022-07-06,2022-07-06,株式会社ふぞろい,,株式会社,千葉県,千葉市中央区,中央２丁目５－１千葉中央ツインビル２号館７階ＣＨＩＢＡ－ＬＡＢＯ内,,12,101,2600013,,,,,,,2022-07-06,1,,,,,,0
2608,9040001124182,新規,0,2022-07-06,2022-07-06,株式会社ＨＯＭＥ　ＳＴＡＲ,,株式会社,千葉県,船橋市,三山１丁目１９番１５号,,12,204,2740072,,,,,,,2022-07-06,1,,,,,ホームスター,0
2609,9040003020388,新規,0,2022-07-06,2022-07-06,合同会社おみそ,,合同会社,千葉県,長生郡長生村,本郷４３９番１,,12,423,2994345,,,,,,,2022-07-06,1,,,,,オミソ,0
2613,9050001051335,新規,0,2022-07-06,2022-07-06,株式会社ＡＭＩ,,株式会社,茨城県,結城市,大字結城６３２５番地１,,08,207,3070001,,,,,,,2022-07-06,1,,,,,アミイ,0
2620,9060003004133,新規,0,2022-07-06,2022-07-06,合同会社本郷,,合同会社,栃木県,佐野市,植上町１５６１番地３パステロ壱番館２０２号室,,09,204,3270832,,,,,,,2022-07-06,1,,,,,ホンゴウ,0
2626,9080001025063,新規,0,2022-07-06,2022-07-06,株式会社詩織,,株式会社,静岡県,静岡市清水区,大手１丁目２番１８号,,22,103,4240808,,,,,,,2022-07-06,1,,,,,ウタオリ,0
2630,9080401025927,新規,0,2022-07-06,2022-07-06,株式会社マルナカ,,株式会社,静岡県,磐田市,福田５０８９番地１,,22,211,4371203,,,,,,,2022-07-06,1,,,,,マルナカ,0
2631,9080403004581,新規,0,2022-07-06,2022-07-06,合同会社花丸福,,合同会社,静岡県,浜松市南区,遠州浜２丁目３０－２,,22,134,4300835,,,,,,,2022-07-06,1,,,,,ハナマルフク,0
2634,9100001035489,新規,0,2022-07-06,2022-07-06,株式会社リンク,,株式会社,長野県,長野市,大字鶴賀１６２９－１ＣＳ鶴賀ブレインマンション１０３,,20,201,3800907,,,,,,,2022-07-06,1,,,,,リンク,0
2637,9110001036791,新規,0,2022-07-06,2022-07-06,株式会社セーフティＥＣＯ,,株式会社,新潟県,新潟市北区,太田甲５７３１番地６,,15,101,9503313,,,,,,,2022-07-06,1,,,,,セーフティエコ,0
2638,9110001036809,新規,0,2022-07-06,2022-07-06,株式会社加藤淳設計事務所,,株式会社,新潟県,新潟市中央区,関屋大川前２丁目３番８号Ｄ棟,,15,103,9518142,,,,,,,2022-07-06,1,,,,,カトウジュンセッケイジムショ,0
2647,9120001247033,新規,0,2022-07-06,2022-07-06,株式会社ＳＨＯＵ,,株式会社,大阪府,大阪市天王寺区,上本町８丁目６番２１－５０２号,,27,109,5430001,,,,,,,2022-07-06,1,,,,,ショウ,0
2648,9120001247066,新規,0,2022-07-06,2022-07-06,株式会社大阪オルタナティブマネジャー,,株式会社,大阪府,大阪市淀川区,西中島３丁目１８－９新大阪日大ビル３１１号室,,27,123,5320011,,,,,,,2022-07-06,1,,,,,オオサカオルタナティブマネジャー,0
2649,9120001247116,新規,0,2022-07-06,2022-07-06,株式会社ＲＯＤ,,株式会社,大阪府,大阪市港区,弁天５丁目１３番１５号,,27,107,5520007,,,,,,,2022-07-06,1,,,,,ロッド,0
2650,9120001247140,新規,0,2022-07-06,2022-07-06,ＪＲ西日本不動産投資顧問株式会社,,株式会社,大阪府,大阪市北区,中之島２丁目２番７号中之島セントラルタワー,,27,127,5300005,,,,,,,2022-07-06,1,,,,,ジェイアールニシニホンフドウサントウシコモン,0
2651,9120001247165,新規,0,2022-07-06,2022-07-06,株式会社ＣＨＡＭＩＲＯＣＫ,,株式会社,大阪府,大阪市西区,南堀江２丁目５番１４－１００１号,,27,106,5500015,,,,,,,2022-07-06,1,,,,,チャミロック,0
2652,9120001247207,新規,0,2022-07-06,2022-07-06,株式会社ＫＤ　Ｃｏｎｓｕｌｔｉｎｇ,,株式会社,大阪府,大阪市中央区,島之内１丁目１３番２－３０３号,,27,128,5420082,,,,,,,2022-07-06,1,,,,,ケイディーコンサルティング,0
2653,9120001247223,新規,0,2022-07-06,2022-07-06,環境不動産株式会社,,株式会社,大阪府,大阪市中央区,久太郎町１丁目９番４号,,27,128,5410056,,,,,,,2022-07-06,1,,,,,カンキョウフドウサン,0
2654,9120001247248,新規,0,2022-07-06,2022-07-06,株式会社シノ建,,株式会社,大阪府,枚方市,招提元町４丁目３７番１０－２０３号,,27,210,5731133,,,,,,,2022-07-06,1,,,,,シノケン,0
2659,9120003022021,新規,0,2022-07-06,2022-07-06,Ａｒｃｈｅｒ合同会社,,合同会社,大阪府,大阪市平野区,平野南３丁目１－２７,,27,126,5470031,,,,,,,2022-07-06,1,,,,,アーチャー,0
2665,9120903004218,新規,0,2022-07-06,2022-07-06,Ｓｙｍｖｏｉｃｅ合同会社,,合同会社,大阪府,箕面市,粟生外院５丁目２番３号の５,,27,220,5620025,,,,,,,2022-07-06,1,,,,,シンボイス,0
2666,9122001036028,新規,0,2022-07-06,2022-07-06,アクシス株式会社,,株式会社,大阪府,四條畷市,大字下田原５６０番地１,,27,229,5750012,,,,,,,2022-07-06,1,,,,,アクシス,0
2669,9130005016499,新規,0,2022-07-06,2022-07-06,特定非営利活動法人Ｗｉｔｈ,,その他の設立登記法人,京都府,京都市山科区,大宅桟敷５番地１７ダイヤモンドパレス山科２０８号室,,26,110,6078194,,,,,,,2022-07-06,1,,,,,ウィズ,0
2672,9140001126623,新規,0,2022-07-06,2022-07-06,株式会社ＬＯＮＧ　ＱＵＡＮ,,株式会社,兵庫県,姫路市,四郷町山脇３４６番地７,,28,201,6710248,,,,,,,2022-07-06,1,,,,,ロングクァン,0
2676,9150001025667,新規,0,2022-07-06,2022-07-06,株式会社ＪｕｄｙＡｎｎＣｏｍｐａｎｙ,,株式会社,奈良県,奈良市,中山町西２丁目９４４番地の２５,,29,201,6310013,,,,,,,2022-07-06,1,,,,,ジュディアンカンパニー,0
2685,9180001151997,新規,0,2022-07-06,2022-07-06,株式会社Ｒｉｃｃａ,,株式会社,愛知県,名古屋市中村区,太閤１丁目２０番９－９０１号,,23,105,4530801,,,,,,,2022-07-06,1,,,,,リッカ,0
2686,9180001152021,新規,0,2022-07-06,2022-07-06,株式会社朝日,,株式会社,愛知県,名古屋市南区,堤起町１丁目１５番地,,23,112,4570825,,,,,,,2022-07-06,1,,,,,アサヒ,0
2687,9180001152054,新規,0,2022-07-06,2022-07-06,株式会社Ｒａｉｓｅ,,株式会社,愛知県,名古屋市中村区,黄金通５丁目３１番地,,23,105,4530804,,,,,,,2022-07-06,1,,,,,レイズ,0
2688,9180001152062,新規,0,2022-07-06,2022-07-06,株式会社ＧＬＵＸ,,株式会社,愛知県,名古屋市西区,児玉１丁目３番１２号－２,,23,104,4510066,,,,,,,2022-07-06,1,,,,,ジーラックス,0
2689,9180001152120,新規,0,2022-07-06,2022-07-06,株式会社Ｔｈｅ　Ｂｏａｔ　Ｈｏｕｓｅ,,株式会社,愛知県,名古屋市中区,新栄２丁目１番４号アソルティ新栄８Ａ,,23,106,4600007,,,,,,,2022-07-06,1,,,,,ザボートハウス,0
2694,9180003024012,新規,0,2022-07-06,2022-07-06,合同会社スイレイ,,合同会社,愛知県,名古屋市港区,入場１丁目２０６番地の２,,23,111,4550803,,,,,,,2022-07-06,1,,,,,スイレイ,0
2698,9180301036386,新規,0,2022-07-06,2022-07-06,株式会社空一伐業,,株式会社,愛知県,豊田市,井ノ口町広見１番地２,,23,211,4442354,,,,,,,2022-07-06,1,,,,,ソライチバツギョウ,0
2699,9180301036394,新規,0,2022-07-06,2022-07-06,株式会社タンネパートナー,,株式会社,愛知県,豊橋市,石巻西川町字大原１２番地,,23,201,4411102,,,,,,,2022-07-06,1,,,,,タンネパートナー,0
2710,9220001024942,新規,0,2022-07-06,2022-07-06,株式会社ガレージ・トラスト,,株式会社,石川県,金沢市,間明町２丁目１１１番地,,17,201,9218005,,,,,,,2022-07-06,1,,,,,ガレージトラスト,0
2717,9240001060036,新規,0,2022-07-06,2022-07-06,株式会社ＤＤＥ　ＦＩＮＴＥＣＨ広島西,,株式会社,広島県,広島市佐伯区,八幡３丁目２３番３１号,,34,108,7315116,,,,,,,2022-07-06,1,,,,,ディディイーフィンテックヒロシマニシ,0
2718,9240001060044,新規,0,2022-07-06,2022-07-06,株式会社教心,,株式会社,広島県,庄原市,宮内町１５６番地３,,34,210,7270007,,,,,,,2022-07-06,1,,,,,キョウシン,0
2724,9250003003108,新規,0,2022-07-06,2022-07-06,ピンクフラワー合同会社,,合同会社,山口県,下関市,長府才川１丁目３７－３９,,35,201,7520928,,,,,,,2022-07-06,1,,,,,ピンクフラワー,0
2727,9260001037024,新規,0,2022-07-06,2022-07-06,株式会社エーティックス,,株式会社,岡山県,倉敷市,玉島爪崎２１８番地４,,33,202,7100252,,,,,,,2022-07-06,1,,,,,エーティックス,0
2730,9270001008577,新規,0,2022-07-06,2022-07-06,株式会社シロウサ,,株式会社,鳥取県,鳥取市,湖山町南３丁目１５３番地,,31,201,6800945,,,,,,,2022-07-06,1,,,,,シロウサ,0
2731,9280001008741,新規,0,2022-07-06,2022-07-06,株式会社ＳＥ　ＬＡＢ,,株式会社,島根県,松江市,東出雲町下意東１６０２－１６,,32,201,6990102,,,,,,,2022-07-06,1,,,,,,0
2735,9290001098154,新規,0,2022-07-06,2022-07-06,株式会社にっしん,,株式会社,福岡県,福岡市東区,舞松原２丁目１２番１１号,,40,131,8130042,,,,,,,2022-07-06,1,,,,,ニッシン,0
2736,9290001098179,新規,0,2022-07-06,2022-07-06,株式会社空海エンジニアサービス,,株式会社,福岡県,福岡市東区,西戸崎２丁目１番３０－１３０６号,,40,131,8110321,,,,,,,2022-07-06,1,,,,,クウカイエンジニアサービス,0
2737,9290001098187,新規,0,2022-07-06,2022-07-06,逸見企画株式会社,,株式会社,福岡県,久留米市,国分町１４８５番地１シャルム高松１０３号,,40,203,8390863,,,,,,,2022-07-06,1,,,,,ヘンミキカク,0
2741,9290003012699,新規,0,2022-07-06,2022-07-06,合同会社雅急送,,合同会社,福岡県,糟屋郡宇美町,大字井野５５３番地３６,,40,341,8112104,,,,,,,2022-07-06,1,,,,,ミヤビキュウソウ,0
2746,9310001017945,新規,0,2022-07-06,2022-07-06,株式会社清祥,,株式会社,長崎県,松浦市,今福町北免２００９番地３３０,,42,208,8594521,,,,,,,2022-07-06,1,,,,,セイショウ,0
2747,9320001019180,新規,0,2022-07-06,2022-07-06,株式会社ながの,,株式会社,大分県,速見郡日出町,３８８０番地７,,44,341,8791506,,,,,,,2022-07-06,1,,,,,ナガノ,0
2748,9320003003843,新規,0,2022-07-06,2022-07-06,合同会社杵築翁達磨,,合同会社,大分県,杵築市,大字守江２１１４番地２５,,44,210,8730033,,,,,,,2022-07-06,1,,,,,キツキオキナダルマ,0
2749,9320005010004,新規,0,2022-07-06,2022-07-06,医療法人花のある暮らし,,その他の設立登記法人,大分県,大分市,富士見が丘東５丁目１０番１号,,44,201,8701176,,,,,,,2022-07-06,1,,,,,ハナノアルクラシ,0
2751,9340001024848,新規,0,2022-07-06,2022-07-06,株式会社ＴＡＢＡ,,株式会社,鹿児島県,指宿市,湊３丁目１８番１４号,,46,210,8910405,,,,,,,2022-07-06,1,,,,,タバ,0
2760,9350001017842,新規,0,2022-07-06,2022-07-06,株式会社シモヒガシ技研,,株式会社,宮崎県,都城市,花繰町６街区１７号,,45,202,8850037,,,,,,,2022-07-06,1,,,,,シモヒガシギケン,0
2765,9370001048745,新規,0,2022-07-06,2022-07-06,株式会社若建,,株式会社,宮城県,角田市,角田字牛舘２番地４３,,04,208,9811505,,,,,,,2022-07-06,1,,,,,ワカケン,0
2777,9390001016956,新規,0,2022-07-06,2022-07-06,株式会社ソーイングかたくり,,株式会社,山形県,鶴岡市,上山添字神明前３５４番地,,06,203,9970346,,,,,,,2022-07-06,1,,,,,ソーイングカタクリ,0
2778,9410001013224,新規,0,2022-07-06,2022-07-06,男鹿中いりあい風力開発株式会社,,株式会社,秋田県,男鹿市,船越字根木３４３,,05,206,0100341,,,,,,,2022-07-06,1,,,,,オガナカイリアイフウリョクカイハツ,0
2779,9410001013232,新規,0,2022-07-06,2022-07-06,株式会社スタジオ茂右衛門,,株式会社,秋田県,秋田市,土崎港東４丁目６番２８号,,05,201,0110942,,,,,,,2022-07-06,1,,,,,スタジオモエモン,0
2783,9420001017934,新規,0,2022-07-06,2022-07-06,株式会社ＫＡＩＺＥＮ,,株式会社,青森県,青森市,造道１丁目４番１９号,,02,201,0300911,,,,,,,2022-07-06,1,,,,,カイゼン,0
2790,9480001011782,新規,0,2022-07-06,2022-07-06,株式会社どるかん,,株式会社,徳島県,阿波市,吉野町西条字蛇池２６番地１,,36,206,7711402,,,,,,,2022-07-06,1,,,,,ドルカン,0
2796,9700150110767,新規,0,2022-07-06,2022-07-06,Ｓｕｐｅｒｔｒｅａｔ　ＧｍｂＨ,,外国会社等,,,,,,,,Ｔｅｉｎｆａｌｔｓｔｒａｂｅ　４／Ｂ　０９　Ｗｉｅｎ，Ｗｉｅｎ，１０１０　Ａｕｓｔｒｉａ,,,,,,2022-07-06,1,,,,,スーパートリートジーエムビーエイチ,0
