sequenceNumber,corporateNumber,process,correct,updateDate,changeDate,name,nameImageId,kind,prefectureName,cityName,streetNumber,addressImageId,prefectureCode,cityCode,postCode,addressOutside,addressOutsideImageId,closeDate,closeCause,successorCorporateNumber,changeCause,assignmentDate,latest,enName,enPrefectureName,enCityName,enAddressOutside,furigana,hihyoji
14,1010001235056,新規,0,2023-05-09,2023-05-09,株式会社ほねかご,,株式会社,東京都,千代田区,神田和泉町１番地６の１６ヤマトビル４０５,,13,101,1010024,,,,,,,2023-05-09,1,,,,,ホネカゴ,0
15,1010001235064,新規,0,2023-05-09,2023-05-09,上野バーチ・ロジスティクス・ソリューションズ株式会社,,株式会社,東京都,千代田区,霞が関３丁目２番５号,,13,101,1000013,,,,,,,2023-05-09,1,,,,,ウエノバーチロジスティクスソリューションズ,0
16,1010001235080,新規,0,2023-05-09,2023-05-09,ＮＩＳＣＯＮＳ　Ｃｏｎｓｕｌｔｉｎｇ株式会社,,株式会社,東京都,中央区,日本橋人形町３丁目３番５号,,13,102,1030013,,,,,,,2023-05-09,1,,,,,ニスコンスコンサルティング,0
17,1010001235089,新規,0,2023-05-09,2023-05-09,株式会社ｔｈｏｔｅｃ,,株式会社,東京都,中央区,新富２丁目３－１５,,13,102,1040041,,,,,,,2023-05-09,1,,,,,トーテック,0
18,1010001235097,新規,0,2023-05-09,2023-05-09,ｍ　ｍａｋｅ株式会社,,株式会社,東京都,千代田区,神田和泉町１番地６－１６ヤマトビル４０５,,13,101,1010024,,,,,,,2023-05-09,1,,,,,エムメイク,0
23,1010003040520,新規,0,2023-05-09,2023-05-09,合同会社Ｓ．ｒ．ｌ,,合同会社,東京都,千代田区,東神田１丁目１７番６号,,13,101,1010031,,,,,,,2023-05-09,1,,,,,エスアールエル,0
24,1010005036616,新規,0,2023-05-09,2023-05-09,弁理士法人紀尾井坂テーミス,,その他の設立登記法人,東京都,千代田区,紀尾井町３番６号紀尾井町パークビル,,13,101,1020094,,,,,,,2023-05-09,1,,,,,キオイザカテーミス,0
38,1010401174176,新規,0,2023-05-09,2023-05-09,メイケンＥ＆Ｓ株式会社,,株式会社,東京都,港区,西麻布４丁目２番１２号麻布ハウス２０２号室,,13,103,1060031,,,,,,,2023-05-09,1,,,,,メイケンイーアンドエス,0
41,1010601063047,新規,0,2023-05-09,2023-05-09,株式会社ＳＰＯＮＴＯ,,株式会社,東京都,江東区,亀戸１丁目４０番６号アズ亀戸ビル６階,,13,108,1360071,,,,,,,2023-05-09,1,,,,,スポント,0
42,1010601063055,新規,0,2023-05-09,2023-05-09,明日テック株式会社,,株式会社,東京都,江東区,東陽３丁目２３番２６号,,13,108,1350016,,,,,,,2023-05-09,1,,,,,アステック,0
43,1010601063063,新規,0,2023-05-09,2023-05-09,株式会社ヒュース,,株式会社,東京都,江東区,有明１丁目２番１１－１８１１号,,13,108,1350063,,,,,,,2023-05-09,1,,,,,ヒュース,0
45,1010701044194,新規,0,2023-05-09,2023-05-09,株式会社ＲＥＳＵＭＥＥ,,株式会社,東京都,品川区,東五反田２丁目９－５サウスウィング東五反田,,13,109,1410022,,,,,,,2023-05-09,1,,,,,レジュミー,0
46,1010701044211,新規,0,2023-05-09,2023-05-09,株式会社きづなろ,,株式会社,東京都,品川区,西五反田１丁目２６番２号五反田サンハイツ９１１,,13,109,1410031,,,,,,,2023-05-09,1,,,,,キズナロ,0
48,1010801033931,新規,0,2023-05-09,2023-05-09,株式会社ＡＩＭ,,株式会社,東京都,大田区,大森東３丁目１６番１５号,,13,111,1430012,,,,,,,2023-05-09,1,,,,,エイム,0
49,1010805003022,新規,0,2023-05-09,2023-05-09,一般社団法人公民連携推進機構,,その他の設立登記法人,東京都,大田区,蒲田５丁目４６番１１号蒲燃ビル４０１,,13,111,1440052,,,,,,,2023-05-09,1,,,,,コウミンレンケイスイシンキコウ,0
51,1010903008146,新規,0,2023-05-09,2023-05-09,ホースパワー合同会社,,合同会社,東京都,世田谷区,中町２丁目７番１４号,,13,112,1580091,,,,,,,2023-05-09,1,,,,,ホースパワー,0
54,1011001154238,新規,0,2023-05-09,2023-05-09,株式会社めにーすいか,,株式会社,東京都,渋谷区,宇田川町１番１２号パークコート渋谷ザタワー３８０４,,13,113,1500042,,,,,,,2023-05-09,1,,,,,メニースイカ,0
55,1011001154254,新規,0,2023-05-09,2023-05-09,株式会社Ａｔｅｌｉｅｒ　ｄｕ　ｍｉｅｌ,,株式会社,東京都,渋谷区,上原２丁目２５番１５－３０４号,,13,113,1510064,,,,,,,2023-05-09,1,,,,,アトリエドュミエル,0
57,1011003016774,新規,0,2023-05-09,2023-05-09,合同会社土筆,,合同会社,東京都,目黒区,大橋１丁目５番１－１７０４号クロスエアタワー,,13,110,1530044,,,,,,,2023-05-09,1,,,,,ツクシ,0
66,1011101102732,新規,0,2023-05-09,2023-05-09,株式会社オフィスミクラス,,株式会社,東京都,新宿区,新宿２丁目１２番１３号新宿アントレサロンビル２階,,13,104,1600022,,,,,,,2023-05-09,1,,,,,オフィスミクラス,0
67,1011101102740,新規,0,2023-05-09,2023-05-09,株式会社ダイバーシティインワークス,,株式会社,東京都,新宿区,西新宿７丁目７番２６号,,13,104,1600023,,,,,,,2023-05-09,1,,,,,ダイバーシティインワークス,0
68,1011101102765,新規,0,2023-05-09,2023-05-09,株式会社Ｋａｗａｉｉ　ＡＩ,,株式会社,東京都,新宿区,高田馬場４丁目１０－５ジュネス高田馬場１０２,,13,104,1690075,,,,,,,2023-05-09,1,,,,,カワイイエーアイ,0
69,1011201024629,新規,0,2023-05-09,2023-05-09,株式会社エクセリア,,株式会社,東京都,中野区,上鷺宮３丁目１１番１３号エクセリア上鷺宮Ｉ２０２,00130383,13,114,1650031,,,,,,,2023-05-09,1,,,,,エクセリア,0
73,1011403003991,新規,0,2023-05-09,2023-05-09,合同会社光Ｐｌａｎｎｉｎｇ,,合同会社,東京都,板橋区,蓮根１丁目５番２号,,13,119,1740046,,,,,,,2023-05-09,1,,,,,,0
81,1011801042352,新規,0,2023-05-09,2023-05-09,株式会社Ｄｉｎｏ　Ｈｅａｒｔｚ,,株式会社,東京都,足立区,千住１丁目２２－１０グランドベル４０１,,13,121,1200034,,,,,,,2023-05-09,1,,,,,ダイノハーツ,0
83,1012401040507,新規,0,2023-05-09,2023-05-09,株式会社オトノ,,株式会社,東京都,狛江市,西野川４丁目２５番５号,,13,219,2010001,,,,,,,2023-05-09,1,,,,,オトノ,0
84,1012403005961,新規,0,2023-05-09,2023-05-09,ソーラーエナジージェネレーション合同会社,,合同会社,東京都,多摩市,関戸４丁目７番地の１２パレステージ聖蹟桜ヶ丘ＩＩ４０２,00130403,13,224,2060011,,,,,,,2023-05-09,1,,,,,ソーラーエナジージェネレーション,0
87,1013301050711,新規,0,2023-05-09,2023-05-09,株式会社ＢｉｚＭｅｄ　Ｃｏｎｓｕｌｔｉｎｇ,,株式会社,東京都,豊島区,駒込２丁目１２番１６号,,13,116,1700003,,,,,,,2023-05-09,1,,,,,ビズメドコンサルティング,0
93,1020001151368,新規,0,2023-05-09,2023-05-09,株式会社Ｔ．ｖｉｌｌａｇｅ,,株式会社,神奈川県,横浜市青葉区,荏子田３丁目１９番地３０,,14,117,2250005,,,,,,,2023-05-09,1,,,,,ティーヴィレッジ,0
94,1020001151401,新規,0,2023-05-09,2023-05-09,株式会社ＣＮＣ,,株式会社,神奈川県,横浜市中区,太田町２丁目２３番地,,14,104,2310011,,,,,,,2023-05-09,1,,,,,シーエヌシー,0
95,1020001151426,新規,0,2023-05-09,2023-05-09,株式会社ベイフロア,,株式会社,神奈川県,横浜市金沢区,柳町３１番地２５,,14,108,2360026,,,,,,,2023-05-09,1,,,,,ベイフロア,0
96,1020001151434,新規,0,2023-05-09,2023-05-09,株式会社ＡＳＳＡ,,株式会社,神奈川県,横浜市保土ケ谷区,天王町１丁目２０番地５,,14,106,2400003,,,,,,,2023-05-09,1,,,,,エーエスエスエー,0
97,1020001151442,新規,0,2023-05-09,2023-05-09,株式会社ＢＩＳＨＯＫＵ,,株式会社,神奈川県,横浜市中区,弁天通６丁目８５宇徳ビルディング地下１階,,14,104,2310007,,,,,,,2023-05-09,1,,,,,ビショク,0
98,1020001151450,新規,0,2023-05-09,2023-05-09,株式会社ＩｎｔｅｒＰｌａｙ　Ｐｒｏｄｕｃｔｉｏｎｓ,,株式会社,神奈川県,横浜市南区,新川町３丁目２０番地２ザ・パークハウス横浜吉野町６０１号,,14,105,2320027,,,,,,,2023-05-09,1,,,,,インタープレイプロダクションズ,0
99,1020001151459,新規,0,2023-05-09,2023-05-09,株式会社エヌコネクト,,株式会社,神奈川県,横浜市戸塚区,下倉田町６１５番地８０,,14,110,2440815,,,,,,,2023-05-09,1,,,,,エヌコネクト,0
100,1020001151467,新規,0,2023-05-09,2023-05-09,ＢａｙＴｅａｍＳｔｙｌｅ株式会社,,株式会社,神奈川県,横浜市西区,高島１丁目２－５横浜ゲートタワー,,14,103,2200011,,,,,,,2023-05-09,1,,,,,ベイチームスタイル,0
102,1020003023846,新規,0,2023-05-09,2023-05-09,合同会社創造者失格,,合同会社,神奈川県,川崎市多摩区,菅城下１８番５号アーバンテラスサニー２０５,,14,135,2140007,,,,,,,2023-05-09,1,,,,,ソウゾウシャシッカク,0
103,1020003023854,新規,0,2023-05-09,2023-05-09,合同会社ＹＴ,,合同会社,神奈川県,川崎市宮前区,宮崎１２１番地１７,,14,136,2160033,,,,,,,2023-05-09,1,,,,,ワイティー,0
110,1030001153685,新規,0,2023-05-09,2023-05-09,株式会社Ｐ＆Ｃｓ　Ｆｉｅｌｄｉｎｇ,,株式会社,埼玉県,鴻巣市,松原３丁目５番１５号,,11,217,3650042,,,,,,,2023-05-09,1,,,,,ピーアンドシーズフィールディング,0
111,1030001153693,新規,0,2023-05-09,2023-05-09,株式会社灯,,株式会社,埼玉県,さいたま市大宮区,桜木町４丁目３０５第５メゾン稲垣２０１,,11,103,3300854,,,,,,,2023-05-09,1,,,,,アカリ,0
118,1040001128265,新規,0,2023-05-09,2023-05-09,株式会社湧匠電設,,株式会社,千葉県,千葉市緑区,誉田町２丁目１６番地２３３,,12,105,2660005,,,,,,,2023-05-09,1,,,,,ユウショウデンセツ,0
124,1050003007474,新規,0,2023-05-09,2023-05-09,バンロン合同会社,,合同会社,茨城県,つくば市,大井１４４０番地,,08,220,3001243,,,,,,,2023-05-09,1,,,,,バンロン,0
127,1060001035939,新規,0,2023-05-09,2023-05-09,株式会社ＦＪ　ＥＸＰＯＲＴ,,株式会社,栃木県,小山市,大字中久喜３５５番地１,,09,208,3230806,,,,,,,2023-05-09,1,,,,,エフジェーエクスポート,0
128,1060005010095,新規,0,2023-05-09,2023-05-09,一般社団法人戸山流居合抜刀道連盟,,その他の設立登記法人,栃木県,真岡市,石島６３３番地１,,09,209,3214507,,,,,,,2023-05-09,1,,,,,トヤマリュウイアイバットウドウレンメイ,0
131,1070003004932,新規,0,2023-05-09,2023-05-09,合同会社タートル,,合同会社,群馬県,桐生市,境野町６丁目４０９番地の２プロヴァンスＢ棟１０１号室,,10,203,3760002,,,,,,,2023-05-09,1,,,,,タートル,0
134,1100001036379,新規,0,2023-05-09,2023-05-09,株式会社ＳＣＡＰＥ,,株式会社,長野県,松本市,出川２丁目２１番２１号,,20,202,3900827,,,,,,,2023-05-09,1,,,,,スケープ,0
135,1100001036387,新規,0,2023-05-09,2023-05-09,株式会社誠心コミュニティー,,株式会社,長野県,諏訪市,大字四賀２４１１番地１ボヌール共栄Ｃ棟Ｃ１０２,,20,206,3920012,,,,,,,2023-05-09,1,,,,,セイシンコミュニティー,0
137,1100003006999,新規,0,2023-05-09,2023-05-09,合同会社ＫＭＪインテグレーション,,合同会社,長野県,松本市,大字内田７４０番地２８,,20,202,3990023,,,,,,,2023-05-09,1,,,,,ケーエムジェイインテグレーション,0
140,1110001037509,新規,0,2023-05-09,2023-05-09,株式会社清野技研,,株式会社,新潟県,新発田市,大手町３丁目２番７号,,15,206,9570052,,,,,,,2023-05-09,1,,,,,セイノギケン,0
153,1120001254615,新規,0,2023-05-09,2023-05-09,ｍｏｎｏｇａｔａｒｉ株式会社,,株式会社,大阪府,大阪市中央区,久太郎町３丁目１番６号６階,,27,128,5410056,,,,,,,2023-05-09,1,,,,,モノガタリ,0
154,1120001254689,新規,0,2023-05-09,2023-05-09,株式会社ひまわり,,株式会社,大阪府,大阪市平野区,長吉長原３丁目１２番２１号,,27,126,5470016,,,,,,,2023-05-09,1,,,,,ヒマワリ,0
155,1120001254714,新規,0,2023-05-09,2023-05-09,ＭＡＴＳＵ株式会社,,株式会社,大阪府,大阪市生野区,小路１丁目２番１７号,,27,116,5440002,,,,,,,2023-05-09,1,,,,,マツ,0
156,1120003023984,新規,0,2023-05-09,2023-05-09,合同会社ＮＭ楠木,,合同会社,大阪府,大阪市住吉区,長居東３丁目３番４－２０２号,,27,120,5580004,,,,,,,2023-05-09,1,,,,,エヌエムクスノキ,0
157,1120003024009,新規,0,2023-05-09,2023-05-09,星川合同会社,,合同会社,大阪府,大阪市中央区,北久宝寺町１丁目５－６堺筋本町アーバンライフ３０４室,,27,128,5410057,,,,,,,2023-05-09,1,,,,,ホシカワ,0
158,1120005023611,新規,0,2023-05-09,2023-05-09,特定非営利活動法人プラスサッカースクール,,その他の設立登記法人,大阪府,大阪市旭区,大宮２丁目２０番１８号,,27,117,5350002,,,,,,,2023-05-09,1,,,,,プラスサッカースクール,0
159,1120101067470,新規,0,2023-05-09,2023-05-09,株式会社上高防災機器,,株式会社,大阪府,堺市西区,鳳南町３丁２０３番地９,,27,144,5938325,,,,,,,2023-05-09,1,,,,,ジョウコウボウサイキキ,0
160,1120103005206,新規,0,2023-05-09,2023-05-09,合同会社タンブリンダイス,,合同会社,大阪府,和泉市,伯太町６丁目１０番２０号,,27,219,5940023,,,,,,,2023-05-09,1,,,,,タンブリンダイス,0
162,1120901047498,新規,0,2023-05-09,2023-05-09,株式会社ベターリンク,,株式会社,大阪府,吹田市,垂水町３丁目９－２０２,,27,205,5640062,,,,,,,2023-05-09,1,,,,,ベターリンク,0
165,1130005016770,新規,0,2023-05-09,2023-05-09,特定非営利活動法人サクセスフル・エイジングネットワーク,,その他の設立登記法人,京都府,京都市中京区,聚楽廻南町１番地９ルミエール二条４０３号室,,26,104,6048411,,,,,,,2023-05-09,1,,,,,サクセスフルエイジングネットワーク,0
169,1140001130062,新規,0,2023-05-09,2023-05-09,株式会社エムライフ,,株式会社,兵庫県,川西市,鼓が滝２丁目２番９号,,28,217,6660123,,,,,,,2023-05-09,1,,,,,エムライフ,0
170,1140001130079,新規,0,2023-05-09,2023-05-09,株式会社ＭＩＬＬＥＦＥＵＸ,,株式会社,兵庫県,神戸市東灘区,住吉本町１丁目７番１２号,,28,101,6580051,,,,,,,2023-05-09,1,,,,,ミルフー,0
182,1180001156038,新規,0,2023-05-09,2023-05-09,リエゾン株式会社,,株式会社,愛知県,名古屋市昭和区,安田通４丁目８－４ロイヤルアーク川名３０３,,23,107,4660857,,,,,,,2023-05-09,1,,,,,リエゾン,0
183,1180001156104,新規,0,2023-05-09,2023-05-09,株式会社ＭＥＥ．,,株式会社,愛知県,名古屋市西区,比良４丁目１２７番地,,23,104,4520802,,,,,,,2023-05-09,1,,,,,ミー,0
184,1180001156137,新規,0,2023-05-09,2023-05-09,株式会社ユニーズ,,株式会社,愛知県,名古屋市港区,東茶屋１丁目７０７番地の３,,23,111,4550851,,,,,,,2023-05-09,1,,,,,ユニーズ,0
185,1180001156211,新規,0,2023-05-09,2023-05-09,株式会社ｔａｎｏ,,株式会社,愛知県,名古屋市天白区,道明町１００番地,,23,116,4680064,,,,,,,2023-05-09,1,,,,,タノ,0
187,1180003025125,新規,0,2023-05-09,2023-05-09,合同会社Ａ＆Ｙ,,合同会社,愛知県,一宮市,萩原町花井方字中田島１２番地,,23,203,4910351,,,,,,,2023-05-09,1,,,,,エイアンドワイ,0
188,1180003025190,新規,0,2023-05-09,2023-05-09,合同会社ツービレッジ,,合同会社,愛知県,名古屋市昭和区,御器所４丁目１０番９号御器所シティハウス３０４号,,23,107,4660051,,,,,,,2023-05-09,1,,,,,ツービレッジ,0
189,1180301037375,新規,0,2023-05-09,2023-05-09,ベル株式会社,,株式会社,愛知県,豊橋市,下地町字橋口１２２番地１,,23,201,4400086,,,,,,,2023-05-09,1,,,,,ベル,0
190,1190001030373,新規,0,2023-05-09,2023-05-09,株式会社前田リサイクル,,株式会社,三重県,津市,戸木町５６０４番地１,,24,201,5141138,,,,,,,2023-05-09,1,,,,,マエダリサイクル,0
191,1190001030381,新規,0,2023-05-09,2023-05-09,株式会社忠三郎農園,00130386,株式会社,三重県,四日市市,山田町４４０５番地３,,24,202,5121111,,,,,,,2023-05-09,1,,,,,チュウザブロウノウエン,0
193,1200001041286,新規,0,2023-05-09,2023-05-09,株式会社ＧＩＮホールディングス,,株式会社,岐阜県,岐阜市,東金宝町２丁目２番地,,21,201,5008167,,,,,,,2023-05-09,1,,,,,ジンホールディングス,0
210,1240001061470,新規,0,2023-05-09,2023-05-09,株式会社ぶなの里,,株式会社,広島県,山県郡北広島町,東八幡原８８６番地５,,34,369,7312551,,,,,,,2023-05-09,1,,,,,ブナノサト,0
216,1260005011222,新規,0,2023-05-09,2023-05-09,一般社団法人Ｓ．ＭＥＤＩＣＡＬ,,その他の設立登記法人,岡山県,倉敷市,下庄９５０－１,,33,202,7010112,,,,,,,2023-05-09,1,,,,,エスドットメディカル,0
217,1270003001521,新規,0,2023-05-09,2023-05-09,オフィス中村合同会社,,合同会社,鳥取県,米子市,道笑町１丁目２６番地,,31,202,6830064,,,,,,,2023-05-09,1,,,,,オフィスナカムラ,0
219,1290001101404,新規,0,2023-05-09,2023-05-09,株式会社Ｓｐａｒｋｌｅ,,株式会社,福岡県,福岡市博多区,博多駅前２丁目１９番１７－３１２号トーカン博多第５ビル,,40,132,8120011,,,,,,,2023-05-09,1,,,,,スパークル,0
221,1290003013861,新規,0,2023-05-09,2023-05-09,合同会社ケアパートナー,,合同会社,福岡県,春日市,大和町３丁目２６番地２,,40,218,8160874,,,,,,,2023-05-09,1,,,,,ケアパートナー,0
226,1300005007141,新規,0,2023-05-09,2023-05-09,一般社団法人諸富トラスト,,その他の設立登記法人,佐賀県,佐賀市,諸富町大字諸富津２３０番地２,,41,201,8402105,,,,,,,2023-05-09,1,,,,,モロドミトラスト,0
231,1320001019741,新規,0,2023-05-09,2023-05-09,株式会社コーダイ,,株式会社,大分県,日田市,大字花月１８３番地５,,44,204,8770000,,,,,,,2023-05-09,1,,,,,コーダイ,0
232,1330001030838,新規,0,2023-05-09,2023-05-09,株式会社Ｕｎｉｔｅ　Ｌｅａｐ,,株式会社,熊本県,熊本市中央区,坪井６丁目２３番１７号,,43,101,8600863,,,,,,,2023-05-09,1,,,,,ユナイトリープ,0
234,1330003009830,新規,0,2023-05-09,2023-05-09,合同会社常徳商事,,合同会社,熊本県,人吉市,上林町７４１番地１,,43,203,8680081,,,,,,,2023-05-09,1,,,,,ジョウトクショウジ,0
235,1330003009839,新規,0,2023-05-09,2023-05-09,Ｔｈｒｅｅ　Ｌｉｏｎｓ合同会社,,合同会社,熊本県,熊本市東区,秋津３丁目１４番４８号,,43,102,8612104,,,,,,,2023-05-09,1,,,,,スリーライオンズ,0
242,1360001031965,新規,0,2023-05-09,2023-05-09,株式会社不可説不可説転,,株式会社,沖縄県,那覇市,泊３丁目１６番地７ライオンズマンション泊三丁目１０１,,47,201,9000012,,,,,,,2023-05-09,1,,,,,フカセツフカセツテン,0
243,1360003012939,新規,0,2023-05-09,2023-05-09,合同会社ＫＴ,,合同会社,沖縄県,国頭郡本部町,字山川５０３番地３,,47,308,9050205,,,,,,,2023-05-09,1,,,,,ケーティー,0
244,1370001049916,新規,0,2023-05-09,2023-05-09,株式会社ホーリー,,株式会社,宮城県,仙台市宮城野区,岩切字畑中４番地の１Ｂ－２０２,,04,102,9830821,,,,,,,2023-05-09,1,,,,,ホーリー,0
245,1370001049924,新規,0,2023-05-09,2023-05-09,株式会社ＣＬＡＶＩＳ,,株式会社,宮城県,名取市,みどり台３丁目７－８,,04,207,9811247,,,,,,,2023-05-09,1,,,,,クラビス,0
246,1370001049940,新規,0,2023-05-09,2023-05-09,株式会社井口構造設計事務所,,株式会社,宮城県,仙台市宮城野区,五輪２丁目３番４６号コーポ庄司１０１,,04,102,9830842,,,,,,,2023-05-09,1,,,,,イグチコウゾウセッケイジムショ,0
247,1370003006106,新規,0,2023-05-09,2023-05-09,カオスボックス合同会社,,合同会社,宮城県,仙台市青葉区,二日町１７－２９菊田アパート３０２,,04,101,9800802,,,,,,,2023-05-09,1,,,,,カオスボックス,0
248,1370003006122,新規,0,2023-05-09,2023-05-09,合同会社ＭＧＣ,,合同会社,宮城県,仙台市太白区,緑ケ丘３丁目４１番５号,,04,104,9820021,,,,,,,2023-05-09,1,,,,,エムジーシー,0
256,1410003003791,新規,0,2023-05-09,2023-05-09,合同会社高橋工営,00130402,合同会社,秋田県,大仙市,清水字下黒土１３４４番地,,05,212,0140204,,,,,,,2023-05-09,1,,,,,タカハシコウエイ,0
257,1410005006520,新規,0,2023-05-09,2023-05-09,社会保険労務士法人中小企業活性化サポート,,その他の設立登記法人,秋田県,秋田市,卸町１丁目３番２号,,05,201,0100061,,,,,,,2023-05-09,1,,,,,チュウショウキギョウカッセイカサポート,0
260,1420003002719,新規,0,2023-05-09,2023-05-09,快晴ウィンドファーム合同会社,,合同会社,青森県,青森市,長島２丁目１３番１号,,02,201,0300861,,,,,,,2023-05-09,1,,,,,カイセイウィンドファーム,0
261,1430001089105,新規,0,2023-05-09,2023-05-09,株式会社植田商会,,株式会社,北海道,札幌市白石区,川下２６９１－３６,,01,104,0030869,,,,,,,2023-05-09,1,,,,,ウエダショウカイ,0
266,1470001019603,新規,0,2023-05-09,2023-05-09,さくらクイジーヌ株式会社,,株式会社,香川県,仲多度郡琴平町,２６６番地,,37,403,7660001,,,,,,,2023-05-09,1,,,,,サクラクイジーヌ,0
271,1490003001771,新規,0,2023-05-09,2023-05-09,合同会社Ｐｌａｎｔａｇｅ　Ｍ,,合同会社,高知県,土佐市,高岡町乙２６７８番地１,,39,205,7811102,,,,,,,2023-05-09,1,,,,,プランタージュエム,0
284,2010001235014,新規,0,2023-05-09,2023-05-09,柴田商事株式会社,,株式会社,東京都,千代田区,神田佐久間町３丁目２８星野ビル５１５号,,13,101,1010025,,,,,,,2023-05-09,1,,,,,シバタショウジ,0
285,2010001235063,新規,0,2023-05-09,2023-05-09,アスコ株式会社,,株式会社,東京都,千代田区,神田東松下町１８番地,,13,101,1010042,,,,,,,2023-05-09,1,,,,,アスコ,0
286,2010001235071,新規,0,2023-05-09,2023-05-09,株式会社シンクロレーション・キャピタル,,株式会社,東京都,千代田区,大手町１丁目６番１号大手町ビルＳｐａｃｅｓ１Ｆ,,13,101,1000004,,,,,,,2023-05-09,1,,,,,シンクロレーションキャピタル,0
287,2010001235096,新規,0,2023-05-09,2023-05-09,株式会社ＡＩＳマテリアル,,株式会社,東京都,千代田区,永田町２丁目１７－５ローレル永田町６０８,,13,101,1000014,,,,,,,2023-05-09,1,,,,,エイアイエスマテリアル,0
291,2010005036623,新規,0,2023-05-09,2023-05-09,弁護士法人ＧＲｉＴ　Ｐａｒｔｎｅｒｓ法律事務所,,その他の設立登記法人,東京都,千代田区,大手町１丁目９番２号,,13,101,1000004,,,,,,,2023-05-09,1,,,,,グリットパートナーズホウリツジムショ,0
297,2010401174142,新規,0,2023-05-09,2023-05-09,プライマリーロード株式会社,,株式会社,東京都,港区,高輪３丁目３－３－１００１,,13,103,1080074,,,,,,,2023-05-09,1,,,,,プライマリーロード,0
299,2010403030054,新規,0,2023-05-09,2023-05-09,合同会社エネルヴァ,,合同会社,東京都,港区,芝浦４丁目５番１３－２０３号,,13,103,1080023,,,,,,,2023-05-09,1,,,,,エネルヴァ,0
301,2010601063062,新規,0,2023-05-09,2023-05-09,株式会社ダテグミ,,株式会社,東京都,江東区,枝川２丁目６－１５コートファミリア５０１,,13,108,1350051,,,,,,,2023-05-09,1,,,,,ダテグミ,0
302,2010701044210,新規,0,2023-05-09,2023-05-09,株式会社ＬＥＡＤ　ＦＡＣＴＯＲＹ．,,株式会社,東京都,品川区,小山６丁目７番６－２０３号,,13,109,1420062,,,,,,,2023-05-09,1,,,,,リードファクトリー,0
303,2010703006687,新規,0,2023-05-09,2023-05-09,合同会社ＶＭＧ,,合同会社,東京都,品川区,大井３丁目３番１６号カーサ・ダ・ソルテ１０１号,,13,109,1400014,,,,,,,2023-05-09,1,,,,,ブイエムジー,0
306,2010901052979,新規,0,2023-05-09,2023-05-09,株式会社サカトモオフィス,,株式会社,東京都,世田谷区,深沢５丁目１７－４,,13,112,1580081,,,,,,,2023-05-09,1,,,,,サカトモオフィス,0
307,2010901052987,新規,0,2023-05-09,2023-05-09,株式会社サーカス,,株式会社,東京都,世田谷区,喜多見８丁目２３番１１号－１２,,13,112,1570067,,,,,,,2023-05-09,1,,,,,サーカス,0
308,2010903008145,新規,0,2023-05-09,2023-05-09,合同会社ｈｏｐｅ,,合同会社,東京都,世田谷区,北沢２丁目８番１０号２０３,,13,112,1550031,,,,,,,2023-05-09,1,,,,,ホープ,0
309,2010903008161,新規,0,2023-05-09,2023-05-09,きむきむと合同会社,,合同会社,東京都,世田谷区,中町４丁目４番１６―３０１号,,13,112,1580091,,,,,,,2023-05-09,1,,,,,キムキムト,0
312,2011001154212,新規,0,2023-05-09,2023-05-09,ジャンプペイメントソリューションズ株式会社,,株式会社,東京都,渋谷区,道玄坂１丁目１０番８号渋谷道玄坂東急ビル２Ｆ－Ｃ,,13,113,1500043,,,,,,,2023-05-09,1,,,,,ジャンプペイメントソリューションズ,0
313,2011001154229,新規,0,2023-05-09,2023-05-09,スクアドロン株式会社,,株式会社,東京都,渋谷区,広尾１丁目３番１７号広尾ストーンビル８Ｆ,,13,113,1500012,,,,,,,2023-05-09,1,,,,,スクアドロン,0
314,2011101102748,新規,0,2023-05-09,2023-05-09,株式会社ＳＳ１,,株式会社,東京都,新宿区,歌舞伎町２丁目２１番２号,,13,104,1600021,,,,,,,2023-05-09,1,,,,,エスエスワン,0
315,2011101102756,新規,0,2023-05-09,2023-05-09,株式会社Ｈｉｒａｅｔｈ,,株式会社,東京都,新宿区,西新宿３丁目３番１３号,,13,104,1600023,,,,,,,2023-05-09,1,,,,,ヒラエス,0
316,2011101102764,新規,0,2023-05-09,2023-05-09,セックコーポレーション株式会社,,株式会社,東京都,新宿区,西落合１丁目３番１０号アーバンプレイス落合南長崎駅前１０１号室,,13,104,1610031,,,,,,,2023-05-09,1,,,,,セックコーポレーション,0
318,2011401025112,新規,0,2023-05-09,2023-05-09,株式会社ＭＧＮ,,株式会社,東京都,板橋区,前野町４丁目２６番１０号,,13,119,1740063,,,,,,,2023-05-09,1,,,,,エムジーエヌ,0
323,2011503005565,新規,0,2023-05-09,2023-05-09,合同会社綱川,,合同会社,東京都,北区,志茂３丁目２－３志茂マンション４０２室,,13,117,1150042,,,,,,,2023-05-09,1,,,,,ツナカワ,0
325,2011801042343,新規,0,2023-05-09,2023-05-09,ＢＯＲＧ株式会社,,株式会社,東京都,足立区,南花畑２丁目１３番９号,,13,121,1210062,,,,,,,2023-05-09,1,,,,,ボーグ,0
326,2011801042351,新規,0,2023-05-09,2023-05-09,フューチャーワイズ株式会社,,株式会社,東京都,足立区,西新井３丁目６番１１－４１０号,,13,121,1230841,,,,,,,2023-05-09,1,,,,,フューチャーワイズ,0
328,2012401040506,新規,0,2023-05-09,2023-05-09,株式会社ＣＲＥＡ,,株式会社,東京都,小金井市,東町３丁目５番２０号,,13,210,1840011,,,,,,,2023-05-09,1,,,,,クレア,0
329,2012403005969,新規,0,2023-05-09,2023-05-09,合同会社フリープロパティ,,合同会社,東京都,小金井市,本町１丁目１７番９号,,13,210,1840004,,,,,,,2023-05-09,1,,,,,フリープロパティ,0
330,2012405004861,新規,0,2023-05-09,2023-05-09,医療法人社団白虎会,,その他の設立登記法人,東京都,調布市,仙川町２丁目１２番６号アヴェニール仙川１－Ｄ,,13,208,1820002,,,,,,,2023-05-09,1,,,,,ビャッコカイ,0
331,2012701017633,新規,0,2023-05-09,2023-05-09,株式会社スマイルオールワークス,,株式会社,東京都,小平市,上水南町３丁目７番１０－６号,,13,211,1870021,,,,,,,2023-05-09,1,,,,,スマイルオールワークス,0
334,2012803003077,新規,0,2023-05-09,2023-05-09,合同会社福祉企画風来,,合同会社,東京都,国分寺市,東恋ヶ窪２丁目３３－３１鈴木ビル１階,,13,214,1850014,,,,,,,2023-05-09,1,,,,,フクシキカクフウライ,0
336,2013301050710,新規,0,2023-05-09,2023-05-09,株式会社ｇｒａｙ,,株式会社,東京都,豊島区,要町１丁目２８－２３,,13,116,1710043,,,,,,,2023-05-09,1,,,,,グレイ,0
347,2020001151425,新規,0,2023-05-09,2023-05-09,株式会社太陽燦々,,株式会社,神奈川県,川崎市高津区,末長２丁目１８番２２号スカイ・ヒル１０２,,14,134,2130013,,,,,,,2023-05-09,1,,,,,タイヨウサンサン,0
348,2020001151433,新規,0,2023-05-09,2023-05-09,イオホールディングス株式会社,,株式会社,神奈川県,横浜市神奈川区,栄町２番地９東部ヨコハマビル４階,,14,102,2210052,,,,,,,2023-05-09,1,,,,,イオホールディングス,0
349,2020001151441,新規,0,2023-05-09,2023-05-09,株式会社暮らし未来,,株式会社,神奈川県,横浜市神奈川区,神奈川２丁目１４番地５ユナイト横浜ニコラス・バトラー２０７号,,14,102,2210045,,,,,,,2023-05-09,1,,,,,,0
350,2020001151458,新規,0,2023-05-09,2023-05-09,株式会社プチティル,,株式会社,神奈川県,横浜市鶴見区,佃野町２７番２号,,14,101,2300061,,,,,,,2023-05-09,1,,,,,プチティル,0
353,2020003023853,新規,0,2023-05-09,2023-05-09,ＥＯＳ　ＪＡＰＡＮ合同会社,,合同会社,神奈川県,横浜市中区,桜木町１丁目１０１番地１クロスゲート７階,,14,104,2310062,,,,,,,2023-05-09,1,,,,,イーオーエスジャパン,0
359,2021001078996,新規,0,2023-05-09,2023-05-09,株式会社オールイン,,株式会社,神奈川県,高座郡寒川町,一之宮７丁目４番Ａ－７０３号,,14,321,2530111,,,,,,,2023-05-09,1,,,,,オールイン,0
374,2040001128223,新規,0,2023-05-09,2023-05-09,Ｐｌｕｓ　Ｏｎｅ株式会社,,株式会社,千葉県,香取市,佐原イ５３７番地,,12,236,2870003,,,,,,,2023-05-09,1,,,,,プラスワン,0
375,2040001128248,新規,0,2023-05-09,2023-05-09,株式会社ＨＯＬＴＨ,,株式会社,千葉県,千葉市稲毛区,六方町１２７番地３シティハイム１０３,,12,103,2630004,,,,,,,2023-05-09,1,,,,,ホルス,0
376,2040001128297,新規,0,2023-05-09,2023-05-09,株式会社ａｕｎ,,株式会社,千葉県,千葉市若葉区,千城台北１丁目１６番１号,,12,104,2640005,,,,,,,2023-05-09,1,,,,,アウン,0
377,2040003022507,新規,0,2023-05-09,2023-05-09,ｍａｈａｌｏ合同会社,,合同会社,千葉県,柏市,高柳１３５８番地１６,,12,217,2770941,,,,,,,2023-05-09,1,,,,,マハロ,0
378,2040003022531,新規,0,2023-05-09,2023-05-09,合同会社ＳＨＩＮＥＥ,,合同会社,千葉県,船橋市,小室町９０６番地Ａ－１－２０６,,12,204,2701471,,,,,,,2023-05-09,1,,,,,シャイニー,0
379,2040003022548,新規,0,2023-05-09,2023-05-09,ベリーグッド合同会社,,合同会社,千葉県,成田市,多良貝２４５番地１７７２,,12,211,2870242,,,,,,,2023-05-09,1,,,,,ベリーグッド,0
380,2040005021985,新規,0,2023-05-09,2023-05-09,一般社団法人ｇｅｎｔｅ編集部,,その他の設立登記法人,千葉県,松戸市,上本郷３５４０番地,,12,207,2710064,,,,,,,2023-05-09,1,,,,,ヘンテヘンシュウブ,0
381,2050001052785,新規,0,2023-05-09,2023-05-09,株式会社秋美装,,株式会社,茨城県,稲敷郡阿見町,大字阿見５１７６番地２,,08,443,3000331,,,,,,,2023-05-09,1,,,,,アキビソウ,0
382,2050003007465,新規,0,2023-05-09,2023-05-09,ＡＳＴ合同会社,,合同会社,茨城県,筑西市,赤浜４００－１,,08,227,3004523,,,,,,,2023-05-09,1,,,,,エーエスティー,0
385,2060001035970,新規,0,2023-05-09,2023-05-09,株式会社姿,,株式会社,栃木県,佐野市,植下町１１００番地,,09,204,3270835,,,,,,,2023-05-09,1,,,,,スガタ,0
389,2060005010094,新規,0,2023-05-09,2023-05-09,一般社団法人全日本抜刀道連盟,,その他の設立登記法人,栃木県,真岡市,石島６３３番地１,,09,209,3214507,,,,,,,2023-05-09,1,,,,,ゼンニッポンバットウドウレンメイ,0
390,2070003004931,新規,0,2023-05-09,2023-05-09,合同会社ライフクリエイト,,合同会社,群馬県,太田市,山之神町５３０番地７,,10,205,3792302,,,,,,,2023-05-09,1,,,,,ライフクリエイト,0
397,2080403004786,新規,0,2023-05-09,2023-05-09,合同会社ケアサービスゆん,,合同会社,静岡県,浜松市西区,入野町１６１０４番地の１３テラスハウス土屋Ａ－２,,22,133,4328061,,,,,,,2023-05-09,1,,,,,ケアサービスユン,0
401,2100001036378,新規,0,2023-05-09,2023-05-09,ａｎｄ　ｊｕｉｃｅ株式会社,,株式会社,長野県,松本市,高宮南７番３４号,,20,202,3900843,,,,,,,2023-05-09,1,,,,,アンドジュース,0
407,2110001037508,新規,0,2023-05-09,2023-05-09,株式会社雄陽,,株式会社,新潟県,上越市,東城町３丁目１０番６号,,15,222,9430836,,,,,,,2023-05-09,1,,,,,ユウヒ,0
408,2110003005041,新規,0,2023-05-09,2023-05-09,合同会社穀宇,,合同会社,新潟県,妙高市,大字西野谷５４番地,,15,217,9440064,,,,,,,2023-05-09,1,,,,,コクウ,0
419,2120001254572,新規,0,2023-05-09,2023-05-09,豪＿株式会社,00130382,株式会社,大阪府,大阪市北区,堂山町１－５三共梅田ビル６Ｆ,,27,127,5300027,,,,,,,2023-05-09,1,,,,,ゴウイ,0
420,2120001254647,新規,0,2023-05-09,2023-05-09,ソウズ株式会社,,株式会社,大阪府,枚方市,宮之阪２丁目５番３０－４１６号,,27,210,5730022,,,,,,,2023-05-09,1,,,,,ソウズ,0
421,2120001254655,新規,0,2023-05-09,2023-05-09,株式会社五一商店,,株式会社,大阪府,大阪市北区,豊崎１丁目７番１７号,,27,127,5310072,,,,,,,2023-05-09,1,,,,,ゴイチショウテン,0
422,2120001254671,新規,0,2023-05-09,2023-05-09,株式会社カネロ,,株式会社,大阪府,大阪市西区,新町３丁目１番１７－４０２号,,27,106,5500013,,,,,,,2023-05-09,1,,,,,カネロ,0
423,2120001254721,新規,0,2023-05-09,2023-05-09,五えんや警備保障株式会社,,株式会社,大阪府,大阪市浪速区,大国２丁目１番６号,,27,111,5560014,,,,,,,2023-05-09,1,,,,,ゴエンヤケイビホショウ,0
424,2120001254738,新規,0,2023-05-09,2023-05-09,ベオミライ株式会社,,株式会社,大阪府,大阪市北区,南森町２丁目２番７－１２０２号,,27,127,5300054,,,,,,,2023-05-09,1,,,,,ベオミライ,0
428,2120003023983,新規,0,2023-05-09,2023-05-09,合同会社平井,,合同会社,大阪府,大阪市天王寺区,寺田町２丁目４番１３号彩貴ビル２階,,27,109,5430045,,,,,,,2023-05-09,1,,,,,ヒライ,0
429,2120003023991,新規,0,2023-05-09,2023-05-09,合同会社ＩＶ　Ａｇｅｎｔ,,合同会社,大阪府,枚方市,津田東町２丁目１６番１０号,,27,210,5730122,,,,,,,2023-05-09,1,,,,,アイブイエージェント,0
430,2120003024024,新規,0,2023-05-09,2023-05-09,合同会社ＭＭＣ,,合同会社,大阪府,大阪市西区,北堀江１丁目１－７－５０４号室,,27,106,5500014,,,,,,,2023-05-09,1,,,,,エムエムシー,0
431,2120005023610,新規,0,2023-05-09,2023-05-09,一般社団法人在日キルギス人協会,,その他の設立登記法人,大阪府,大阪市城東区,諏訪１丁目８番１９号,,27,118,5360021,,,,,,,2023-05-09,1,,,,,ザイニチキルギスジンキョウカイ,0
433,2120101067461,新規,0,2023-05-09,2023-05-09,株式会社大島自動車商会,,株式会社,大阪府,羽曳野市,高鷲８丁目１７８番地７,,27,222,5830882,,,,,,,2023-05-09,1,,,,,オオシマジドウシャショウカイ,0
434,2120101067478,新規,0,2023-05-09,2023-05-09,株式会社トキワ電気,,株式会社,大阪府,堺市西区,浜寺石津町東３丁６番１－１号,,27,144,5928335,,,,,,,2023-05-09,1,,,,,トキワデンキ,0
435,2120101067486,新規,0,2023-05-09,2023-05-09,株式会社みらいにつなぐ,,株式会社,大阪府,松原市,田井城１丁目５番２０号,,27,217,5800044,,,,,,,2023-05-09,1,,,,,ミライニツナグ,0
436,2120101067494,新規,0,2023-05-09,2023-05-09,株式会社ワイズ,,株式会社,大阪府,和泉市,内田町４丁目７番１２号,,27,219,5941156,,,,,,,2023-05-09,1,,,,,ワイズ,0
446,2120901047489,新規,0,2023-05-09,2023-05-09,株式会社マルクリーンテック,,株式会社,大阪府,豊中市,原田南１丁目８番１６号,,27,203,5610805,,,,,,,2023-05-09,1,,,,,マルクリーンテック,0
447,2120901047497,新規,0,2023-05-09,2023-05-09,株式会社沖野商会,,株式会社,大阪府,高槻市,大畑町１６番６－９０５号,,27,207,5691144,,,,,,,2023-05-09,1,,,,,オキノショウカイ,0
449,2120905006458,新規,0,2023-05-09,2023-05-09,一般社団法人ｄｒｅａｍ　ｍａｋｅｒ,,その他の設立登記法人,大阪府,高槻市,芝生町２丁目１０番２号,,27,207,5690823,,,,,,,2023-05-09,1,,,,,ドリームメーカー,0
455,2140001130037,新規,0,2023-05-09,2023-05-09,株式会社ひだまり,,株式会社,兵庫県,神崎郡福崎町,福田２７５番地６,,28,443,6792212,,,,,,,2023-05-09,1,,,,,ヒダマリ,0
456,2140001130045,新規,0,2023-05-09,2023-05-09,株式会社キハラホーム,,株式会社,兵庫県,神戸市北区,幸陽町３丁目１５－９,,28,109,6511203,,,,,,,2023-05-09,1,,,,,キハラホーム,0
457,2140001130053,新規,0,2023-05-09,2023-05-09,株式会社オレオ,,株式会社,兵庫県,三木市,緑が丘町西４丁目１４番地の２１,,28,215,6730531,,,,,,,2023-05-09,1,,,,,オレオ,0
458,2140001130061,新規,0,2023-05-09,2023-05-09,株式会社ａｆｆｉｎｏ,,株式会社,兵庫県,神戸市北区,北五葉１丁目２番１５号栄規ビル１０３,,28,109,6511131,,,,,,,2023-05-09,1,,,,,アフィーノ,0
459,2140003019063,新規,0,2023-05-09,2023-05-09,合同会社そうわ経営パートナー,,合同会社,兵庫県,神戸市灘区,泉通５丁目３－２１－４,,28,102,6570834,,,,,,,2023-05-09,1,,,,,ソウワケイエイパートナー,0
461,2140005026603,新規,0,2023-05-09,2023-05-09,一般社団法人司法ソーシャルワーク研究所,,その他の設立登記法人,兵庫県,尼崎市,稲葉荘２丁目１２番３０号,,28,202,6600064,,,,,,,2023-05-09,1,,,,,シホウソーシャルワークケンキュウジョ,0
463,2150001026382,新規,0,2023-05-09,2023-05-09,株式会社ＲＯＭＥＯ,,株式会社,奈良県,五條市,五條３丁目５番１６号,,29,207,6370042,,,,,,,2023-05-09,1,,,,,ロミオ,0
464,2160001025012,新規,0,2023-05-09,2023-05-09,皐月株式会社,,株式会社,滋賀県,愛知郡愛荘町,栗田２１６番地１,,25,425,5291225,,,,,,,2023-05-09,1,,,,,サツキ,0
474,2180001156111,新規,0,2023-05-09,2023-05-09,株式会社サカキ製作所,,株式会社,愛知県,西春日井郡豊山町,大字豊場字高畑６番地６,,23,342,4800202,,,,,,,2023-05-09,1,,,,,サカキセイサクショ,0
475,2180001156144,新規,0,2023-05-09,2023-05-09,株式会社ウッドクラフト,,株式会社,愛知県,一宮市,奥町字野方９７番地４シャトレ愛松一宮ＶＩＩ４０１号,00130404,23,203,4910201,,,,,,,2023-05-09,1,,,,,ウッドクラフト,0
476,2180001156160,新規,0,2023-05-09,2023-05-09,株式会社Ｎｏａｈ’ｓ　Ａｒｋ　Ｐｒｏｊｅｃｔ,,株式会社,愛知県,西春日井郡豊山町,大字豊場字高前１３６番地１,,23,342,4800202,,,,,,,2023-05-09,1,,,,,ノアズアークプロジェクト,0
477,2180001156177,新規,0,2023-05-09,2023-05-09,株式会社ａ,,株式会社,愛知県,名古屋市中村区,名駅４丁目２４番５号第２森ビル４０１,,23,105,4500002,,,,,,,2023-05-09,1,,,,,エー,0
482,2180003025181,新規,0,2023-05-09,2023-05-09,ティーチ合同会社,,合同会社,愛知県,名古屋市天白区,平針２丁目１８０９番地,,23,116,4680011,,,,,,,2023-05-09,1,,,,,ティーチ,0
487,2180301037374,新規,0,2023-05-09,2023-05-09,株式会社ＴＡＩＳＥＩ,,株式会社,愛知県,豊川市,幸町２６番地の１サンメゾン豊川稲荷サウス１４０３号室,,23,207,4420046,,,,,,,2023-05-09,1,,,,,タイセイ,0
491,2190001030372,新規,0,2023-05-09,2023-05-09,株式会社シラヒゲ,,株式会社,三重県,度会郡南伊勢町,五ケ所浦３９１４番地,,24,472,5160101,,,,,,,2023-05-09,1,,,,,シラヒゲ,0
492,2190001030380,新規,0,2023-05-09,2023-05-09,株式会社桑名金属,,株式会社,三重県,桑名市,大字大仲新田３１９番地１６,,24,205,5110947,,,,,,,2023-05-09,1,,,,,クワナキンゾク,0
493,2190003004317,新規,0,2023-05-09,2023-05-09,合同会社ＴＮＫ,,合同会社,三重県,三重郡菰野町,大字菰野１８４７番地１６２,,24,341,5101233,,,,,,,2023-05-09,1,,,,,ティーエヌケイ,0
500,2220001025385,新規,0,2023-05-09,2023-05-09,株式会社ｄプラスヨシダ,,株式会社,石川県,小松市,梯町イ４７番地１,,17,203,9230028,,,,,,,2023-05-09,1,,,,,ディプラスヨシダ,0
507,2240001061453,新規,0,2023-05-09,2023-05-09,株式会社ゴナプラス,,株式会社,広島県,広島市安佐南区,大塚西６丁目１０番１－７０１号,,34,105,7313167,,,,,,,2023-05-09,1,,,,,ゴナプラス,0
508,2240003006134,新規,0,2023-05-09,2023-05-09,合同会社クリエイティブ・メイヘム,,合同会社,広島県,福山市,今町１－３マルワビル１Ｆ,,34,207,7200046,,,,,,,2023-05-09,1,,,,,クリエイティブメイヘム,0
514,2270001008773,新規,0,2023-05-09,2023-05-09,ケイビ株式会社,,株式会社,鳥取県,鳥取市,緑ケ丘２丁目４０番地２,,31,201,6800915,,,,,,,2023-05-09,1,,,,,ケイビ,0
515,2270003001520,新規,0,2023-05-09,2023-05-09,合同会社伯耆浄水,,合同会社,鳥取県,東伯郡湯梨浜町,大字引地３３６番地５,,31,370,6890715,,,,,,,2023-05-09,1,,,,,ホウキジョウスイ,0
521,2290001101436,新規,0,2023-05-09,2023-05-09,株式会社ＶＥＲＴＥ,,株式会社,福岡県,福岡市中央区,春吉３丁目２１番１８号５Ｆ,,40,133,8100003,,,,,,,2023-05-09,1,,,,,ヴェルテ,0
522,2290001101452,新規,0,2023-05-09,2023-05-09,Ａｕｔｏｎｏｍｙ株式会社,,株式会社,福岡県,福岡市城南区,長尾４丁目５番１０－２０１号,,40,136,8140123,,,,,,,2023-05-09,1,,,,,オートノミー,0
525,2290801029513,新規,0,2023-05-09,2023-05-09,株式会社一球,,株式会社,福岡県,北九州市小倉北区,足立１丁目３番１９号,,40,106,8020042,,,,,,,2023-05-09,1,,,,,イッキュウ,0
527,2300001013290,新規,0,2023-05-09,2023-05-09,株式会社飛慎工業,,株式会社,佐賀県,唐津市,神田２０４６番地５,,41,202,8470824,,,,,,,2023-05-09,1,,,,,ヒシンコウギョウ,0
531,2310001018396,新規,0,2023-05-09,2023-05-09,オルタンシア株式会社,,株式会社,長崎県,諫早市,御手水町８２４番地,,42,204,8590314,,,,,,,2023-05-09,1,,,,,オルタンシア,0
536,2320001019732,新規,0,2023-05-09,2023-05-09,株式会社愛絆物流,,株式会社,大分県,日田市,大字友田４０３番地ＢｏｓｃａｔｏＥ．ＩＶ－１０３号,00130394,44,204,8770000,,,,,,,2023-05-09,1,,,,,,0
537,2320001019740,新規,0,2023-05-09,2023-05-09,大分機械販売株式会社,,株式会社,大分県,大分市,曙台２丁目１番２号,,44,201,8700273,,,,,,,2023-05-09,1,,,,,オオイタキカイハンバイ,0
538,2320001019749,新規,0,2023-05-09,2023-05-09,株式会社ＳＴＣ,,株式会社,大分県,速見郡日出町,大字川崎３２１番地１,,44,341,8791505,,,,,,,2023-05-09,1,,,,,エスティーシー,0
542,2330001030829,新規,0,2023-05-09,2023-05-09,株式会社阿蘇肥後ファーム,,株式会社,熊本県,阿蘇市,波野大字小地野１６３１番地１,,43,214,8692801,,,,,,,2023-05-09,1,,,,,アソヒゴファーム,0
543,2330001030845,新規,0,2023-05-09,2023-05-09,いちろう酒販株式会社,,株式会社,熊本県,熊本市西区,池亀町２番１９号,,43,103,8600071,,,,,,,2023-05-09,1,,,,,イチロウシュハン,0
545,2330003009838,新規,0,2023-05-09,2023-05-09,合同会社Ｐｌｕｓ　Ｒｉａｎ,,合同会社,熊本県,熊本市西区,島崎６丁目５５０番地９,,43,103,8600073,,,,,,,2023-05-09,1,,,,,プラスリアン,0
546,2340001025563,新規,0,2023-05-09,2023-05-09,株式会社ハーモニーＡＲホールディングス,,株式会社,鹿児島県,鹿児島市,郡元１丁目５番４号,,46,201,8900065,,,,,,,2023-05-09,1,,,,,ハーモニーエイアールホールディングス,0
548,2350001018335,新規,0,2023-05-09,2023-05-09,神原工業株式会社,,株式会社,宮崎県,延岡市,塩浜町２丁目１９３３－３１,,45,203,8820864,,,,,,,2023-05-09,1,,,,,カンバラコウギョウ,0
554,2370001049907,新規,0,2023-05-09,2023-05-09,ＥＨＩ株式会社,,株式会社,宮城県,多賀城市,中央３丁目３番２９号,,04,209,9850873,,,,,,,2023-05-09,1,,,,,イーエイチアイ,0
555,2370001049923,新規,0,2023-05-09,2023-05-09,株式会社アームビルド,,株式会社,宮城県,仙台市青葉区,本町１丁目１２－１２ＧＭビルディング,,04,101,9800014,,,,,,,2023-05-09,1,,,,,アームビルド,0
559,2380003005452,新規,0,2023-05-09,2023-05-09,合同会社たまーり,,合同会社,福島県,大沼郡金山町,大字玉梨字居平２５３,,07,445,9680014,,,,,,,2023-05-09,1,,,,,タマーリ,0
560,2380005012711,新規,0,2023-05-09,2023-05-09,特定非営利活動法人みらいワーク,,その他の設立登記法人,福島県,岩瀬郡鏡石町,境９６番地,,07,342,9690401,,,,,,,2023-05-09,1,,,,,ミライワーク,0
562,2410003003790,新規,0,2023-05-09,2023-05-09,合同会社原田工務店,,合同会社,秋田県,雄勝郡羽後町,西馬音内堀回字元城下１３９番地２,,05,463,0121137,,,,,,,2023-05-09,1,,,,,ハラタコウムテン,0
563,2420001018253,新規,0,2023-05-09,2023-05-09,９１０株式会社,,株式会社,青森県,十和田市,西十二番町１１番２１号,,02,206,0340093,,,,,,,2023-05-09,1,,,,,キュウイチマル,0
565,2420003002718,新規,0,2023-05-09,2023-05-09,青天ウィンドファーム合同会社,,合同会社,青森県,青森市,長島２丁目１３番１号,,02,201,0300861,,,,,,,2023-05-09,1,,,,,セイテンウィンドファーム,0
574,2470001019602,新規,0,2023-05-09,2023-05-09,株式会社白石総業,,株式会社,香川県,三豊市,詫間町積１２２８番地,,37,208,7691105,,,,,,,2023-05-09,1,,,,,シライシソウギョウ,0
575,2470003002416,新規,0,2023-05-09,2023-05-09,合同会社糸,,合同会社,香川県,観音寺市,豊浜町姫浜６９６番地１,,37,205,7691601,,,,,,,2023-05-09,1,,,,,イト,0
579,2490003001770,新規,0,2023-05-09,2023-05-09,ｋｉｍｉｉｒｏ合同会社,,合同会社,高知県,幡多郡黒潮町,佐賀２４１７番地６３,,39,428,7891720,,,,,,,2023-05-09,1,,,,,キミイロ,0
595,3010001235062,新規,0,2023-05-09,2023-05-09,株式会社チャレンジドプラス,,株式会社,東京都,千代田区,神田須田町１丁目７－１ウィン神田高橋ビル４２２,,13,101,1010041,,,,,,,2023-05-09,1,,,,,チャレンジドプラス,0
596,3010001235079,新規,0,2023-05-09,2023-05-09,株式会社ＣＵＬＯＹ,,株式会社,東京都,千代田区,東神田１丁目１７－５東神田イチオクビル５Ｂ,,13,101,1010031,,,,,,,2023-05-09,1,,,,,クロイ,0
597,3010001235087,新規,0,2023-05-09,2023-05-09,ＴＯＹＡ　Ｈｏｌｄｉｎｇｓ株式会社,,株式会社,東京都,千代田区,紀尾井町４番１号ニューオータニ・ガーデンタワー８階,,13,101,1020094,,,,,,,2023-05-09,1,,,,,トーヤホールディングス,0
598,3010003040477,新規,0,2023-05-09,2023-05-09,ＧｌｏｂａｌＤｉｓｈＧｉｎｚａ合同会社,,合同会社,東京都,中央区,銀座３丁目１４番５号,,13,102,1040061,,,,,,,2023-05-09,1,,,,,グローバルディッシュギンザ,0
599,3010003040510,新規,0,2023-05-09,2023-05-09,合同会社真栄原城,,合同会社,東京都,千代田区,九段南３丁目７番７号成和綜合会計事務所内,,13,101,1020074,,,,,,,2023-05-09,1,,,,,マエハラジョウ,0
600,3010003040519,新規,0,2023-05-09,2023-05-09,魁聖商事合同会社,,合同会社,東京都,中央区,銀座１丁目２２番１１号銀座大竹ビジデンス２階,,13,102,1040061,,,,,,,2023-05-09,1,,,,,カイセイショウジ,0
602,3010005036564,新規,0,2023-05-09,2023-05-09,弁護士法人コトー法律事務所,,その他の設立登記法人,東京都,中央区,日本橋人形町１丁目８番２号,,13,102,1030013,,,,,,,2023-05-09,1,,,,,コトーホウリツジムショ,0
607,3010401174075,新規,0,2023-05-09,2023-05-09,栖游記トラベル株式会社,,株式会社,東京都,港区,元麻布３丁目１番６号,,13,103,1060046,,,,,,,2023-05-09,1,,,,,チーヨージトラベル,0
608,3010401174141,新規,0,2023-05-09,2023-05-09,株式会社豊見城キャピタルインベストメント,,株式会社,東京都,港区,虎ノ門３丁目２２番１０－２０１号,,13,103,1050001,,,,,,,2023-05-09,1,,,,,トミシロキャピタルインベストメント,0
609,3010401174174,新規,0,2023-05-09,2023-05-09,辰泰株式会社,,株式会社,東京都,港区,西麻布２丁目２４番３６号Ａ号棟,,13,103,1060031,,,,,,,2023-05-09,1,,,,,シンタイ,0
612,3010403030045,新規,0,2023-05-09,2023-05-09,ＦＥＳ合同会社,,合同会社,東京都,港区,元麻布３丁目１番地６号,,13,103,1060046,,,,,,,2023-05-09,1,,,,,フェス,0
622,3010601063045,新規,0,2023-05-09,2023-05-09,株式会社ハーバー,,株式会社,東京都,江東区,門前仲町１丁目３番５号山岡ビル３階,,13,108,1350048,,,,,,,2023-05-09,1,,,,,ハーバー,0
625,3010703006686,新規,0,2023-05-09,2023-05-09,シュクレ建築工房合同会社,,合同会社,東京都,品川区,北品川５丁目１２番３－９０３号,,13,109,1410001,,,,,,,2023-05-09,1,,,,,シュクレケンチクコウボウ,0
631,3010901052986,新規,0,2023-05-09,2023-05-09,株式会社Ｔａｒｏ,,株式会社,東京都,世田谷区,上野毛２丁目２６－１８,,13,112,1580093,,,,,,,2023-05-09,1,,,,,タロ,0
633,3010903008144,新規,0,2023-05-09,2023-05-09,合同会社ｏｎｅ,,合同会社,東京都,世田谷区,北沢２丁目８番１０号２０３,,13,112,1550031,,,,,,,2023-05-09,1,,,,,ワン,0
640,3011001154194,新規,0,2023-05-09,2023-05-09,株式会社伽藍洞,,株式会社,東京都,目黒区,自由が丘２丁目２番７－１０１号,,13,110,1520035,,,,,,,2023-05-09,1,,,,,ガランドウ,0
641,3011001154228,新規,0,2023-05-09,2023-05-09,サイランソリューションズ株式会社,,株式会社,東京都,目黒区,中目黒５丁目７番１０号ＡＩＲ中目黒Ａ号室,,13,110,1530061,,,,,,,2023-05-09,1,,,,,サイランソリューションズ,0
642,3011001154236,新規,0,2023-05-09,2023-05-09,株式会社ケイパートナー,,株式会社,東京都,目黒区,駒場１丁目３２番２４号,,13,110,1530041,,,,,,,2023-05-09,1,,,,,ケイパートナー,0
643,3011001154244,新規,0,2023-05-09,2023-05-09,株式会社ＧＩＦＴ,,株式会社,東京都,渋谷区,神宮前５丁目４６番１８号,,13,113,1500001,,,,,,,2023-05-09,1,,,,,ギフト,0
644,3011001154252,新規,0,2023-05-09,2023-05-09,Ａｒｋｓ株式会社,,株式会社,東京都,目黒区,青葉台３丁目１７番１１号ティーケー青葉台５０３,,13,110,1530042,,,,,,,2023-05-09,1,,,,,アークス,0
645,3011003016707,新規,0,2023-05-09,2023-05-09,合同会社すまリゾ伊豆高原,,合同会社,東京都,渋谷区,東１丁目１９番２－６０１号,,13,113,1500011,,,,,,,2023-05-09,1,,,,,スマリゾイズコウゲン,0
655,3011601026792,新規,0,2023-05-09,2023-05-09,株式会社ＵＭＥ,,株式会社,東京都,練馬区,北町７丁目９番６号アーバンパレス６号館１０２号室,,13,120,1790081,,,,,,,2023-05-09,1,,,,,ウメ,0
656,3011603003914,新規,0,2023-05-09,2023-05-09,合同会社レジスタ,,合同会社,東京都,練馬区,大泉学園町５丁目２６－６,,13,120,1780061,,,,,,,2023-05-09,1,,,,,レジスタ,0
661,3011803005636,新規,0,2023-05-09,2023-05-09,合同会社ＴＯＦＦＥＥ,,合同会社,東京都,葛飾区,西新小岩３丁目１３番２３号,,13,122,1240025,,,,,,,2023-05-09,1,,,,,トフィー,0
663,3012401040496,新規,0,2023-05-09,2023-05-09,スペードワーク株式会社,,株式会社,東京都,武蔵野市,吉祥寺本町１丁目２０番１号吉祥寺永谷シティプラザ１００２,,13,203,1800004,,,,,,,2023-05-09,1,,,,,スペードワーク,0
681,3020001151333,新規,0,2023-05-09,2023-05-09,株式会社フロプラ,,株式会社,神奈川県,川崎市多摩区,堰１丁目１９番３３号,,14,135,2140022,,,,,,,2023-05-09,1,,,,,フロプラ,0
682,3020001151382,新規,0,2023-05-09,2023-05-09,株式会社ＵＮＳＵＮＧ,,株式会社,神奈川県,横浜市港北区,新羽町１１７９番地３、ガーラ・レジデンス横浜港北４０３号,,14,109,2230057,,,,,,,2023-05-09,1,,,,,アンサング,0
683,3020001151408,新規,0,2023-05-09,2023-05-09,株式会社ムトウエンタープライズ２,,株式会社,神奈川県,横浜市神奈川区,六角橋６丁目２２番１５号,,14,102,2210802,,,,,,,2023-05-09,1,,,,,ムトウエンタープライズツー,0
684,3020001151416,新規,0,2023-05-09,2023-05-09,株式会社ＮＥＭコンポーネント,,株式会社,神奈川県,川崎市川崎区,駅前本町１１番地２川崎フロンティアビル４階,,14,131,2100007,,,,,,,2023-05-09,1,,,,,ネムコンポーネント,0
685,3020001151424,新規,0,2023-05-09,2023-05-09,株式会社エフネットホールディングス,,株式会社,神奈川県,横浜市西区,高島２丁目１９番１２号,,14,103,2200011,,,,,,,2023-05-09,1,,,,,エフネットホールディングス,0
686,3020001151432,新規,0,2023-05-09,2023-05-09,株式会社スプコン・ジャパン,,株式会社,神奈川県,横浜市神奈川区,金港町１番７号,,14,102,2210056,,,,,,,2023-05-09,1,,,,,スプコンジャパン,0
687,3020001151457,新規,0,2023-05-09,2023-05-09,株式会社ＲＩＮ　ＧＲＯＵＰ　ＨＯＬＤＩＮＧＳ,,株式会社,神奈川県,横浜市青葉区,柿の木台４番地６第１もえぎ野ハイツ１０６号室,,14,117,2270048,,,,,,,2023-05-09,1,,,,,リングループホールディングス,0
688,3020001151465,新規,0,2023-05-09,2023-05-09,株式会社シンシア,,株式会社,神奈川県,横浜市鶴見区,上の宮１丁目３５番１０号,,14,101,2300075,,,,,,,2023-05-09,1,,,,,シンシア,0
689,3020001151473,新規,0,2023-05-09,2023-05-09,株式会社鯉城工業福馬組,,株式会社,神奈川県,川崎市幸区,南加瀬４丁目１８番８号コーポ白菊１０２,,14,132,2120055,,,,,,,2023-05-09,1,,,,,リジョウコウギョウフクマグミ,0
696,3021005012810,新規,0,2023-05-09,2023-05-09,一般社団法人ＳＤＣＭａ,,その他の設立登記法人,神奈川県,相模原市中央区,横山２丁目１５番８号ジュピタービル２Ｆ,,14,152,2520242,,,,,,,2023-05-09,1,,,,,エスディシーマ,0
708,3030001153717,新規,0,2023-05-09,2023-05-09,株式会社ｋｉｈａｎａｎ,,株式会社,埼玉県,飯能市,新町１０番５号,,11,209,3570004,,,,,,,2023-05-09,1,,,,,キハナン,0
713,3030003021707,新規,0,2023-05-09,2023-05-09,合同会社Ｍ＆Ｙ　ｃｏｒｐｏｒａｔｉｏｎ,,合同会社,埼玉県,越谷市,大字南荻島３２９９番地２,,11,222,3430804,,,,,,,2023-05-09,1,,,,,エムアンドワイコーポレーション,0
715,3040001128247,新規,0,2023-05-09,2023-05-09,株式会社エネワイズ,,株式会社,千葉県,市川市,香取１丁目６番５号ＭＯビル２階,,12,203,2720141,,,,,,,2023-05-09,1,,,,,エネワイズ,0
716,3040001128255,新規,0,2023-05-09,2023-05-09,株式会社ポライト,,株式会社,千葉県,習志野市,鷺沼４丁目６番５－４号,,12,216,2750014,,,,,,,2023-05-09,1,,,,,ポライト,0
717,3040001128263,新規,0,2023-05-09,2023-05-09,株式会社ＭＡＢ,,株式会社,千葉県,千葉市緑区,あすみが丘１丁目１番地８ピアブルック５Ｆ,,12,105,2670066,,,,,,,2023-05-09,1,,,,,マブ,0
718,3040001128296,新規,0,2023-05-09,2023-05-09,株式会社中小企業,,株式会社,千葉県,浦安市,海楽２丁目３番６号,,12,227,2790003,,,,,,,2023-05-09,1,,,,,チュウショウキギョウ,0
720,3040003022530,新規,0,2023-05-09,2023-05-09,合同会社ｏｆｆｉｃｅ　ｐｌｕｍ,,合同会社,千葉県,流山市,おおたかの森南１丁目２５番地の２フロントリーフ８２１,,12,220,2700139,,,,,,,2023-05-09,1,,,,,オフィスプラム,0
721,3040003022547,新規,0,2023-05-09,2023-05-09,合同会社山田工務店,,合同会社,千葉県,柏市,布瀬１０番地２,,12,217,2701464,,,,,,,2023-05-09,1,,,,,ヤマダコウムテン,0
726,3060001035953,新規,0,2023-05-09,2023-05-09,株式会社イリゼル,,株式会社,栃木県,那須塩原市,豊浦北町７４－１１７,,09,213,3250038,,,,,,,2023-05-09,1,,,,,イリゼル,0
729,3070001040424,新規,0,2023-05-09,2023-05-09,ＷＩＣＲＥＡＤ株式会社,,株式会社,群馬県,藤岡市,浄法寺１１６８－７,,10,209,3701406,,,,,,,2023-05-09,1,,,,,ウィクリード,0
732,3070003004930,新規,0,2023-05-09,2023-05-09,合同会社Ｍｏｖｅ　ｏｎ　ｕｐ　Ｊａｐａｎ,,合同会社,群馬県,館林市,栄町２２番１０号,,10,207,3740052,,,,,,,2023-05-09,1,,,,,ムーブオンアップジャパン,0
742,3100001036385,新規,0,2023-05-09,2023-05-09,株式会社もみのき,,株式会社,長野県,安曇野市,豊科田沢５１１１番地１,,20,220,3998203,,,,,,,2023-05-09,1,,,,,モミノキ,0
746,3110001037498,新規,0,2023-05-09,2023-05-09,株式会社ＭＭＫ,,株式会社,新潟県,南魚沼市,六日町２９２６番地,,15,226,9496680,,,,,,,2023-05-09,1,,,,,エムエムケー,0
748,3110003005040,新規,0,2023-05-09,2023-05-09,合同会社ビーエスアール,,合同会社,新潟県,新潟市中央区,網川原１丁目１５番１８号パークプラザ新光６０３号,,15,103,9500964,,,,,,,2023-05-09,1,,,,,ビーエスアール,0
762,3120001254646,新規,0,2023-05-09,2023-05-09,株式会社マサキ,,株式会社,大阪府,大阪市中央区,安土町２丁目４番１１－４１０５号,,27,128,5410052,,,,,,,2023-05-09,1,,,,,マサキ,0
763,3120001254662,新規,0,2023-05-09,2023-05-09,株式会社浅野保温,,株式会社,大阪府,大阪市淀川区,十八条１丁目１３番３４号,,27,123,5320001,,,,,,,2023-05-09,1,,,,,アサノホオン,0
764,3120001254679,新規,0,2023-05-09,2023-05-09,株式会社エーティー興産,,株式会社,大阪府,大阪市住吉区,上住吉２丁目１番８号,,27,120,5580046,,,,,,,2023-05-09,1,,,,,エーティーコウサン,0
765,3120001254687,新規,0,2023-05-09,2023-05-09,株式会社ＨＫ,,株式会社,大阪府,大阪市平野区,平野南３丁目１番２７号,,27,126,5470031,,,,,,,2023-05-09,1,,,,,エイチケー,0
766,3120001254695,新規,0,2023-05-09,2023-05-09,ＫＯＡ株式会社,,株式会社,大阪府,大阪市東成区,東小橋３丁目１８－９,,27,115,5370024,,,,,,,2023-05-09,1,,,,,コア,0
767,3120001254745,新規,0,2023-05-09,2023-05-09,ＢＲ株式会社,,株式会社,大阪府,大阪市港区,市岡４丁目５番２６号,,27,107,5520012,,,,,,,2023-05-09,1,,,,,ビーアール,0
768,3120001254753,新規,0,2023-05-09,2023-05-09,株式会社フランム,,株式会社,大阪府,大阪市浪速区,桜川３丁目２番１１号,,27,111,5560022,,,,,,,2023-05-09,1,,,,,フランム,0
773,3120003023990,新規,0,2023-05-09,2023-05-09,大和屋合同会社,,合同会社,大阪府,大阪市浪速区,敷津東２丁目２番８号,,27,111,5560012,,,,,,,2023-05-09,1,,,,,ヤマトヤ,0
774,3120003024007,新規,0,2023-05-09,2023-05-09,みのま合同会社,,合同会社,大阪府,大阪市城東区,野江３丁目２５番地２７号,,27,118,5360006,,,,,,,2023-05-09,1,,,,,ミノマ,0
781,3120101067460,新規,0,2023-05-09,2023-05-09,センターアセット株式会社,,株式会社,大阪府,松原市,天美西２丁目９番７号,,27,217,5800034,,,,,,,2023-05-09,1,,,,,センターアセット,0
782,3120101067469,新規,0,2023-05-09,2023-05-09,株式会社ユウセン,,株式会社,大阪府,南河内郡河南町,大字一須賀１９６番地の２,,27,382,5850002,,,,,,,2023-05-09,1,,,,,ユウセン,0
783,3120101067477,新規,0,2023-05-09,2023-05-09,株式会社池田屋,,株式会社,大阪府,堺市北区,船堂町２丁５番１号,,27,146,5918003,,,,,,,2023-05-09,1,,,,,イケダヤ,0
791,3140001130052,新規,0,2023-05-09,2023-05-09,株式会社ＳＩＲＯ,,株式会社,兵庫県,姫路市,大津区勘兵衛町１丁目２７番地,,28,201,6711132,,,,,,,2023-05-09,1,,,,,シロ,0
792,3140001130060,新規,0,2023-05-09,2023-05-09,ＳＴＴ株式会社,,株式会社,兵庫県,高砂市,米田町塩市１０５番地の３号,,28,216,6760806,,,,,,,2023-05-09,1,,,,,エスティーティー,0
793,3140001130093,新規,0,2023-05-09,2023-05-09,株式会社ＣＨＡＩＮ,,株式会社,兵庫県,姫路市,白浜町丙４９３番地３０,,28,201,6728023,,,,,,,2023-05-09,1,,,,,チェイン,0
798,3140003019054,新規,0,2023-05-09,2023-05-09,ＲＡＦＴＥＬ合同会社,,合同会社,兵庫県,神戸市垂水区,舞多聞西３丁目２番２６号,,28,108,6550051,,,,,,,2023-05-09,1,,,,,ラフテル,0
799,3140003019062,新規,0,2023-05-09,2023-05-09,合同会社ＲＣＫ,,合同会社,兵庫県,芦屋市,若葉町２番１－３１２号,,28,206,6590041,,,,,,,2023-05-09,1,,,,,アールシーケー,0
802,3140005026602,新規,0,2023-05-09,2023-05-09,一般社団法人さくらファミリーファーム,,その他の設立登記法人,兵庫県,西宮市,東山台２丁目１１番地６,,28,204,6691133,,,,,,,2023-05-09,1,,,,,サクラファミリーファーム,0
805,3160001025011,新規,0,2023-05-09,2023-05-09,株式会社ＭＩＮＡＤＵＫＩ,,株式会社,滋賀県,愛知郡愛荘町,栗田２１６番地１,,25,425,5291225,,,,,,,2023-05-09,1,,,,,ミナヅキ,0
813,3180001156127,新規,0,2023-05-09,2023-05-09,株式会社ＣＳＫＲ,,株式会社,愛知県,名古屋市緑区,鳴海町字下汐田２３２番地,,23,114,4580801,,,,,,,2023-05-09,1,,,,,シーエスケーアール,0
814,3180001156151,新規,0,2023-05-09,2023-05-09,株式会社ＫＥＩＴＥＣ,,株式会社,愛知県,名古屋市西区,中小田井３丁目２００番地の２,,23,104,4520822,,,,,,,2023-05-09,1,,,,,ケイテック,0
815,3180001156176,新規,0,2023-05-09,2023-05-09,株式会社ＦＩＴ,,株式会社,愛知県,一宮市,浅井町大日比野字北流２０４４番地３,,23,203,4910105,,,,,,,2023-05-09,1,,,,,フィット,0
816,3180001156192,新規,0,2023-05-09,2023-05-09,株式会社脱毛革命ＣＲＲ,,株式会社,愛知県,一宮市,本町１丁目２番８号,,23,203,4910859,,,,,,,2023-05-09,1,,,,,ダツモウカクメイシーアールアール,0
817,3180001156218,新規,0,2023-05-09,2023-05-09,ＧＣＣ株式会社,,株式会社,愛知県,名古屋市天白区,島田黒石６１１番地,,23,116,4680028,,,,,,,2023-05-09,1,,,,,ジーシーシー,0
821,3180003025180,新規,0,2023-05-09,2023-05-09,ターチ合同会社,,合同会社,愛知県,名古屋市天白区,平針２丁目１８０９番地,,23,116,4680011,,,,,,,2023-05-09,1,,,,,ターチ,0
825,3190001030388,新規,0,2023-05-09,2023-05-09,株式会社ハニーエスト・エフ,,株式会社,三重県,四日市市,小古曽４丁目２番６号,,24,202,5100958,,,,,,,2023-05-09,1,,,,,ハニーエストエフ,0
826,3190003004316,新規,0,2023-05-09,2023-05-09,合同会社ＤｏｔｓＡｎｄＬｉｎｅｓ,,合同会社,三重県,松阪市,春日町２丁目２７７番地,,24,204,5150078,,,,,,,2023-05-09,1,,,,,ドッツアンドラインズ,0
827,3200001041276,新規,0,2023-05-09,2023-05-09,株式会社山都,,株式会社,岐阜県,高山市,西之一色町３丁目１０８１番地２,,21,203,5060031,,,,,,,2023-05-09,1,,,,,サント,0
832,3200003005948,新規,0,2023-05-09,2023-05-09,合同会社ｓｏｅｒｕ　ｄｅｓｉｇｎ,,合同会社,岐阜県,岐阜市,岩崎８１４番地１,,21,201,5020005,,,,,,,2023-05-09,1,,,,,ソエルデザイン,0
834,3210001019296,新規,0,2023-05-09,2023-05-09,株式会社ｎａｉｔｅ　ｊａｐａｎ,,株式会社,福井県,坂井市,三国町新宿２丁目６番３０号,,18,210,9130058,,,,,,,2023-05-09,1,,,,,ネイトジャパン,0
835,3210005010094,新規,0,2023-05-09,2023-05-09,農事組合法人能登郷,,その他の設立登記法人,福井県,三方上中郡若狭町,能登野５３号７－１,,18,501,9191314,,,,,,,2023-05-09,1,,,,,ノトゴウ,0
843,3240003006133,新規,0,2023-05-09,2023-05-09,合同会社福本商事,,合同会社,広島県,尾道市,高須町５５１０番地,,34,205,7290141,,,,,,,2023-05-09,1,,,,,フクモトショウジ,0
850,3260001037905,新規,0,2023-05-09,2023-05-09,株式会社ＧＩＦＴ,,株式会社,岡山県,岡山市北区,表町３丁目１１番６号,,33,101,7000822,,,,,,,2023-05-09,1,,,,,ギフト,0
857,3290001101385,新規,0,2023-05-09,2023-05-09,株式会社Ｍｉｅｔｓ,,株式会社,福岡県,福岡市西区,室見が丘３丁目２３－２,,40,135,8190030,,,,,,,2023-05-09,1,,,,,ミーツ,0
858,3290001101451,新規,0,2023-05-09,2023-05-09,株式会社Ｌ・Ｆモビリティアドバイザー,,株式会社,福岡県,大牟田市,上白川町２丁目２６２－４,,40,202,8370926,,,,,,,2023-05-09,1,,,,,エルエフモビリティアドバイザー,0
859,3290001101476,新規,0,2023-05-09,2023-05-09,株式会社隼工業,,株式会社,福岡県,福岡市城南区,南片江６丁目２２番４－１号,,40,136,8140143,,,,,,,2023-05-09,1,,,,,ハヤブサコウギョウ,0
865,3320001019748,新規,0,2023-05-09,2023-05-09,株式会社ワークス・ザイツ,,株式会社,大分県,大分市,大字三佐２１１５番地の２,,44,201,8700108,,,,,,,2023-05-09,1,,,,,ワークスザイツ,0
867,3330001030828,新規,0,2023-05-09,2023-05-09,株式会社ＥＸＥ　ＣＯＮＳＵＬＴＩＮＧ,,株式会社,熊本県,熊本市中央区,保田窪２丁目１２番３号,,43,101,8620926,,,,,,,2023-05-09,1,,,,,エグゼコンサルティング,0
868,3330001030844,新規,0,2023-05-09,2023-05-09,株式会社猿楽外建,,株式会社,熊本県,熊本市北区,弓削２丁目３番１０４号,,43,105,8618002,,,,,,,2023-05-09,1,,,,,サルガクガイケン,0
872,3330003009829,新規,0,2023-05-09,2023-05-09,合同会社ｃｏｃｏｍａ,,合同会社,熊本県,人吉市,紺屋町４,,43,203,8680003,,,,,,,2023-05-09,1,,,,,ココマ,0
873,3330003009837,新規,0,2023-05-09,2023-05-09,ＡＩテック合同会社,,合同会社,熊本県,熊本市中央区,出水１丁目１番２５号３Ｆ－Ｂ,,43,101,8620941,,,,,,,2023-05-09,1,,,,,エーアイテック,0
876,3330005010660,新規,0,2023-05-09,2023-05-09,一般社団法人日本社会人テニス連盟,,その他の設立登記法人,熊本県,熊本市東区,長嶺東３丁目５番９号,,43,102,8618038,,,,,,,2023-05-09,1,,,,,ニホンシャカイジンテニスレンメイ,0
877,3340001025554,新規,0,2023-05-09,2023-05-09,株式会社ＳＫ工業,,株式会社,鹿児島県,出水市,高尾野町下高尾野２０２１番地２,,46,208,8990404,,,,,,,2023-05-09,1,,,,,エスケイコウギョウ,0
885,3370001049930,新規,0,2023-05-09,2023-05-09,株式会社タカパラン,,株式会社,宮城県,仙台市泉区,七北田字東裏１５８番地ベイリーフヒルズ３０７,,04,105,9813131,,,,,,,2023-05-09,1,,,,,タカパラン,0
886,3370003006120,新規,0,2023-05-09,2023-05-09,トラスト就労支援合同会社,,合同会社,宮城県,仙台市青葉区,中央１丁目３番１号,,04,101,9800021,,,,,,,2023-05-09,1,,,,,トラストシュウロウシエン,0
892,3420003002717,新規,0,2023-05-09,2023-05-09,六ケ所ウィンドファーム合同会社,,合同会社,青森県,青森市,長島２丁目１３番１号,,02,201,0300861,,,,,,,2023-05-09,1,,,,,ロッカショウィンドファーム,0
893,3450001013977,新規,0,2023-05-09,2023-05-09,株式会社ＯＦＦＩＣＥ　ＹＯＵ,,株式会社,北海道,旭川市,神居八条１６丁目１番１１号,,01,204,0708018,,,,,,,2023-05-09,1,,,,,オフィスユー,0
899,3470001019601,新規,0,2023-05-09,2023-05-09,株式会社つくも,,株式会社,香川県,綾歌郡宇多津町,浜八番丁１２０番地６マイシティオオサカ１Ｆ,,37,386,7690208,,,,,,,2023-05-09,1,,,,,ツクモ,0
901,3480003001977,新規,0,2023-05-09,2023-05-09,合同会社岩佐縫製,,合同会社,徳島県,阿波市,市場町伊月字六反田６７番地１,,36,206,7711626,,,,,,,2023-05-09,1,,,,,イワサホウセイ,0
904,3700150000874,新規,0,2023-05-09,2015-10-09,水道バルブ工業会,,その他,東京都,千代田区,九段南４丁目８－９,,13,101,1020074,,,,,,,2015-10-09,1,,,,,スイドウバルブコウギヨウカイ,0
915,4010001235004,新規,0,2023-05-09,2023-05-09,株式会社Ｌａｎａｂｅｌｌｅ,,株式会社,東京都,中央区,日本橋兜町１７番２号兜町第６葉山ビル４階,,13,102,1030026,,,,,,,2023-05-09,1,,,,,ラナベル,0
916,4010001235037,新規,0,2023-05-09,2023-05-09,株式会社ファーストデータ,,株式会社,東京都,千代田区,神田猿楽町２丁目１番２号鎌形ビル４階,,13,101,1010064,,,,,,,2023-05-09,1,,,,,ファーストデータ,0
917,4010001235061,新規,0,2023-05-09,2023-05-09,株式会社番町新聞開発,,株式会社,東京都,千代田区,一番町２３－２－４０７,,13,101,1020082,,,,,,,2023-05-09,1,,,,,バンチョウシンブンカイハツ,0
942,4010601063052,新規,0,2023-05-09,2023-05-09,株式会社いきらぼ,,株式会社,東京都,江東区,塩浜２丁目２９番１６－１１１４号,,13,108,1350043,,,,,,,2023-05-09,1,,,,,イキラボ,0
943,4010601063060,新規,0,2023-05-09,2023-05-09,株式会社ウェルネスデザインラボ,,株式会社,東京都,墨田区,石原１丁目７番１４号,,13,107,1300011,,,,,,,2023-05-09,1,,,,,ウェルネスデザインラボ,0
945,4010701044200,新規,0,2023-05-09,2023-05-09,かんぽデジタルシステムズ株式会社,,株式会社,東京都,品川区,北品川５丁目６番１号大崎ブライトタワー,,13,109,1410001,,,,,,,2023-05-09,1,,,,,カンポデジタルシステムズ,0
952,4010905004479,新規,0,2023-05-09,2023-05-09,司法書士法人田中事務所,,その他の設立登記法人,東京都,世田谷区,三軒茶屋１丁目３３番１７－２０２号,,13,112,1540024,,,,,,,2023-05-09,1,,,,,タナカジムショ,0
955,4011001154111,新規,0,2023-05-09,2023-05-09,株式会社ＺＩＰＡＮＧ,,株式会社,東京都,目黒区,中央町２丁目３６番７号,,13,110,1520001,,,,,,,2023-05-09,1,,,,,ジパング,0
956,4011001154227,新規,0,2023-05-09,2023-05-09,株式会社ＯＮＥ,,株式会社,東京都,渋谷区,神山町２番９号,,13,113,1500047,,,,,,,2023-05-09,1,,,,,ワン,0
957,4011001154251,新規,0,2023-05-09,2023-05-09,ＴｈｅＳＥＡ株式会社,,株式会社,東京都,渋谷区,富ヶ谷２丁目２０番８号,,13,113,1510063,,,,,,,2023-05-09,1,,,,,ザシー,0
963,4011103013017,新規,0,2023-05-09,2023-05-09,合同会社Ｚａｐｔｏｓ,,合同会社,東京都,新宿区,百人町１丁目１１番１１号,,13,104,1690073,,,,,,,2023-05-09,1,,,,,ザプトス,0
966,4011205002553,新規,0,2023-05-09,2023-05-09,一般社団法人高校韓国語検定協会,,その他の設立登記法人,東京都,中野区,本町６丁目４３番１号メイフェアコート東高円寺２０３号,,13,114,1640012,,,,,,,2023-05-09,1,,,,,コウコウカンコクゴケンテイキョウカイ,0
970,4011501029242,新規,0,2023-05-09,2023-05-09,株式会社ｗｅｌｌ‐ｉｎｆｏｒｍｅｄ,,株式会社,東京都,北区,滝野川６丁目２６－３,,13,117,1140023,,,,,,,2023-05-09,1,,,,,ウェルインフォームド,0
973,4011601026783,新規,0,2023-05-09,2023-05-09,株式会社大喜,,株式会社,東京都,練馬区,貫井２丁目３番４号,,13,120,1760021,,,,,,,2023-05-09,1,,,,,ダイキ,0
974,4011605002517,新規,0,2023-05-09,2023-05-09,一般社団法人日本アニメフィルム文化連盟,,その他の設立登記法人,東京都,練馬区,練馬１丁目２０番８号日建練馬ビル２Ｆ,,13,120,1760001,,,,,,,2023-05-09,1,,,,,ニッポンアニメフィルムブンカレンメイ,0
976,4011701026213,新規,0,2023-05-09,2023-05-09,赤坂第一期株式会社,,株式会社,東京都,江戸川区,中葛西５丁目２０番９号ＳＵＮＧＩＯＩＡＮｏｒｔｈ１０１,,13,123,1340083,,,,,,,2023-05-09,1,,,,,アカサカダイイッキ,0
980,4011801042333,新規,0,2023-05-09,2023-05-09,株式会社森田クシー,,株式会社,東京都,足立区,千住仲町１番１１号,,13,121,1200036,,,,,,,2023-05-09,1,,,,,モリタクシー,0
981,4011803005619,新規,0,2023-05-09,2023-05-09,ＮＹＸ合同会社,,合同会社,東京都,足立区,梅田８丁目８―１３―１０１,,13,121,1230851,,,,,,,2023-05-09,1,,,,,ニュクス,0
983,4012401040487,新規,0,2023-05-09,2023-05-09,株式会社Ｆｅｌｉｃｅ．侑,,株式会社,東京都,稲城市,向陽台６丁目１９番地ビスタセーレ向陽台３－１０５,,13,225,2060803,,,,,,,2023-05-09,1,,,,,フェリーチェドットユウ,0
984,4012401040495,新規,0,2023-05-09,2023-05-09,株式会社Ｊ’ｓ　Ｃｏｍｐａｎｙ,,株式会社,東京都,三鷹市,中原４丁目２４番３号,,13,204,1810005,,,,,,,2023-05-09,1,,,,,ジェイズカンパニー,0
987,4012703002697,新規,0,2023-05-09,2023-05-09,高橋工事合同会社,00130393,合同会社,東京都,清瀬市,下宿２丁目４４１番地１２,,13,221,2040001,,,,,,,2023-05-09,1,,,,,タカハシコウジ,0
988,4012801022325,新規,0,2023-05-09,2023-05-09,株式会社メルドリッチ,,株式会社,東京都,立川市,羽衣町３丁目１１番２２号,,13,202,1900021,,,,,,,2023-05-09,1,,,,,メルドリッチ,0
989,4012803003067,新規,0,2023-05-09,2023-05-09,ｗｈａｔｅｖｅｒ合同会社,,合同会社,東京都,立川市,幸町２丁目２－１－８－２０５,,13,202,1900002,,,,,,,2023-05-09,1,,,,,ワットエバー,0
997,4013301050725,新規,0,2023-05-09,2023-05-09,株式会社ワークスアンドビー,,株式会社,東京都,豊島区,南池袋１丁目２１番５号第７野荻ビルＴＨＥＨＵＢ池袋ＳＯＵＴＨ,,13,116,1710022,,,,,,,2023-05-09,1,,,,,ワークスアンドビー,0
1001,4020001151415,新規,0,2023-05-09,2023-05-09,株式会社ＲＥＢＯＲＮ,,株式会社,神奈川県,横浜市港北区,綱島西２丁目１０番３－１号,,14,109,2230053,,,,,,,2023-05-09,1,,,,,リボーン,0
1002,4020001151423,新規,0,2023-05-09,2023-05-09,株式会社Ｋｏｒｏ　ｓｔｙｌｅ,,株式会社,神奈川県,川崎市宮前区,神木本町２丁目１７番６－３号,,14,136,2160031,,,,,,,2023-05-09,1,,,,,コロスタイル,0
1003,4020001151431,新規,0,2023-05-09,2023-05-09,株式会社ＭｅｄＡｂｉｌｉｔｙ,,株式会社,神奈川県,川崎市麻生区,王禅寺西４丁目１２番１０号,,14,137,2150017,,,,,,,2023-05-09,1,,,,,メッドアビリティ,0
1004,4020001151456,新規,0,2023-05-09,2023-05-09,株式会社Ｂｏｏｔｏｕｃｈ,,株式会社,神奈川県,横浜市鶴見区,駒岡４丁目１５番６号,,14,101,2300071,,,,,,,2023-05-09,1,,,,,ブータッチ,0
1005,4020001151464,新規,0,2023-05-09,2023-05-09,株式会社ＮＫＭＫ,,株式会社,神奈川県,横浜市青葉区,荏田西５丁目１番地３０,,14,117,2250014,,,,,,,2023-05-09,1,,,,,ナカマケ,0
1006,4020001151472,新規,0,2023-05-09,2023-05-09,株式会社Ｙｕｕ,,株式会社,神奈川県,横浜市都筑区,中川中央１丁目８－１１グランドールセンター北３０２,,14,118,2240003,,,,,,,2023-05-09,1,,,,,ユー,0
1009,4020003023868,新規,0,2023-05-09,2023-05-09,ＴＩＳＳ合同会社,,合同会社,神奈川県,横浜市神奈川区,六角橋１丁目１２番２０号ハイツいしかわ２Ｂ,,14,102,2210802,,,,,,,2023-05-09,1,,,,,ティス,0
1010,4020003023884,新規,0,2023-05-09,2023-05-09,合同会社ｆｒｏｍ　ＧＥＯ,,合同会社,神奈川県,横浜市港北区,樽町３丁目１０番５号マンションアムール４０２号室,,14,109,2220001,,,,,,,2023-05-09,1,,,,,フロムジオ,0
1021,4030001153666,新規,0,2023-05-09,2023-05-09,株式会社エヌ,,株式会社,埼玉県,鴻巣市,天神３丁目１０番２５号,,11,217,3650036,,,,,,,2023-05-09,1,,,,,エヌ,0
1022,4030001153682,新規,0,2023-05-09,2023-05-09,株式会社ＳＳＰ,,株式会社,埼玉県,富士見市,大字水子５０２７－１２,,11,235,3540011,,,,,,,2023-05-09,1,,,,,エスエスピー,0
1023,4030001153690,新規,0,2023-05-09,2023-05-09,株式会社キタムラ,,株式会社,埼玉県,蕨市,錦町２丁目２番８号ライオンズマンション蕨第３－１０７号,,11,223,3350005,,,,,,,2023-05-09,1,,,,,キタムラ,0
1024,4030001153716,新規,0,2023-05-09,2023-05-09,株式会社大宮オークション,,株式会社,埼玉県,さいたま市大宮区,堀の内町２丁目９０番地２大宮公園ダイカンプラザ２０８号,,11,103,3300804,,,,,,,2023-05-09,1,,,,,オオミヤオークション,0
1031,4040001128254,新規,0,2023-05-09,2023-05-09,株式会社義建,,株式会社,千葉県,木更津市,久津間５０９番地,,12,206,2920004,,,,,,,2023-05-09,1,,,,,ギケン,0
1032,4040003022521,新規,0,2023-05-09,2023-05-09,日本フクワライ合同会社,,合同会社,千葉県,千葉市美浜区,磯辺７丁目２７番６号,,12,106,2610012,,,,,,,2023-05-09,1,,,,,ニッポンフクワライ,0
1033,4040003022554,新規,0,2023-05-09,2023-05-09,合同会社ＹＳＢ９９,,合同会社,千葉県,山武郡横芝光町,木戸８４０５番地,,12,410,2891726,,,,,,,2023-05-09,1,,,,,ワイエスビイキュウジュウキュウ,0
1034,4050001052809,新規,0,2023-05-09,2023-05-09,株式会社ＯＲＧＩＬ　ＭＧＬ,,株式会社,茨城県,つくば市,洞下５２番地,,08,220,3004249,,,,,,,2023-05-09,1,,,,,オリギルエムジーエル,0
1035,4050001052817,新規,0,2023-05-09,2023-05-09,藤井グループ株式会社,,株式会社,茨城県,鉾田市,鉾田１０６８－２藤井ビル,,08,234,3111517,,,,,,,2023-05-09,1,,,,,フジイグループ,0
1037,4050003007488,新規,0,2023-05-09,2023-05-09,合同会社ＤＵＳ,,合同会社,茨城県,土浦市,並木１丁目５―１１,,08,203,3000061,,,,,,,2023-05-09,1,,,,,ディーユーエス,0
1046,4070001040423,新規,0,2023-05-09,2023-05-09,マーブルカンパニー株式会社,,株式会社,群馬県,高崎市,八幡町１００３番地５,,10,202,3700884,,,,,,,2023-05-09,1,,,,,マーブルカンパニー,0
1047,4070001040431,新規,0,2023-05-09,2023-05-09,株式会社Ｒｉｓｅ　Ｔｅｃｈｎｏ,,株式会社,群馬県,前橋市,小神明町７４２番地４,,10,201,3710134,,,,,,,2023-05-09,1,,,,,ライズテクノ,0
1049,4080101023970,新規,0,2023-05-09,2023-05-09,株式会社Ｇ‐ｓｔｕｄｉｏ,,株式会社,静岡県,御殿場市,新橋１００３番地の２２,,22,215,4120043,,,,,,,2023-05-09,1,,,,,ジースタジオ,0
1053,4110001037506,新規,0,2023-05-09,2023-05-09,株式会社アイケー,,株式会社,新潟県,新潟市東区,古川町１０番２４号,,15,102,9500056,,,,,,,2023-05-09,1,,,,,アイケー,0
1068,4120001254620,新規,0,2023-05-09,2023-05-09,株式会社リバスター,,株式会社,大阪府,守口市,滝井元町１丁目６番９号,,27,209,5700065,,,,,,,2023-05-09,1,,,,,リバスター,0
1069,4120001254653,新規,0,2023-05-09,2023-05-09,株式会社アーク,,株式会社,大阪府,大阪市住吉区,我孫子東２丁目４番２５号,,27,120,5580013,,,,,,,2023-05-09,1,,,,,アーク,0
1070,4120001254694,新規,0,2023-05-09,2023-05-09,株式会社道川事務所,,株式会社,大阪府,大阪市鶴見区,緑１丁目５番１９号,,27,124,5380054,,,,,,,2023-05-09,1,,,,,ミチカワジムショ,0
1071,4120001254711,新規,0,2023-05-09,2023-05-09,株式会社レイバック,,株式会社,大阪府,大阪市西区,靱本町１丁目１０番７－１１０４号,,27,106,5500004,,,,,,,2023-05-09,1,,,,,レイバック,0
1072,4120001254728,新規,0,2023-05-09,2023-05-09,株式会社Ｍ’ＳＴＡＲＴＩＮＧ,,株式会社,大阪府,大阪市中央区,南船場３丁目２番２８－８号,,27,128,5420081,,,,,,,2023-05-09,1,,,,,エムスターティング,0
1073,4120001254736,新規,0,2023-05-09,2023-05-09,ツァイト株式会社,,株式会社,大阪府,大阪市北区,西天満４丁目７－１３新老松ビル３７号室,,27,127,5300047,,,,,,,2023-05-09,1,,,,,ツァイト,0
1074,4120001254744,新規,0,2023-05-09,2023-05-09,ハリフトアップ株式会社,,株式会社,大阪府,大阪市北区,梅田１丁目１番３号大阪駅前第３ビル２９階１－１－１号室,,27,127,5300001,,,,,,,2023-05-09,1,,,,,ハリフトアップ,0
1078,4120101067468,新規,0,2023-05-09,2023-05-09,株式会社タカラ興建,,株式会社,大阪府,堺市美原区,北余部４０番地３５－３０８号,,27,147,5870051,,,,,,,2023-05-09,1,,,,,タカラコウケン,0
1079,4120101067476,新規,0,2023-05-09,2023-05-09,株式会社ＫＡＧＡＭＩ　ＨＯＭＥ,,株式会社,大阪府,堺市堺区,東雲西町３丁５番１５－４０５号,,27,141,5900013,,,,,,,2023-05-09,1,,,,,カガミホーム,0
1080,4120101067484,新規,0,2023-05-09,2023-05-09,欧楽株式会社,,株式会社,大阪府,高石市,西取石７丁目８番１８―１０３号,,27,225,5920012,,,,,,,2023-05-09,1,,,,,オウラク,0
1081,4120101067492,新規,0,2023-05-09,2023-05-09,株式会社ＡＳＯＢＥＥ,,株式会社,大阪府,堺市東区,草尾５７５番地１クレインストリート松本４０４号,,27,143,5998127,,,,,,,2023-05-09,1,,,,,アソビー,0
1091,4140001130043,新規,0,2023-05-09,2023-05-09,コタローフーズ株式会社,,株式会社,兵庫県,加古郡稲美町,国北１丁目５番地の２,,28,381,6751123,,,,,,,2023-05-09,1,,,,,コタローフーズ,0
1092,4140001130051,新規,0,2023-05-09,2023-05-09,Ｄ．Ｎａｒｔ．Ａｍｐｔａ株式会社,,株式会社,兵庫県,尼崎市,食満３丁目１４－４,,28,202,6610982,,,,,,,2023-05-09,1,,,,,ディナートアンプタ,0
1093,4140001130101,新規,0,2023-05-09,2023-05-09,株式会社ＦＲＰホリテック,,株式会社,兵庫県,尼崎市,浜３丁目１０番３４－２０７号,,28,202,6610967,,,,,,,2023-05-09,1,,,,,エフアールピーホリテック,0
1102,4150003002958,新規,0,2023-05-09,2023-05-09,合同会社Ｂｉｋｉｎｏｕ,,合同会社,奈良県,奈良市,大宮町６丁目４番８号,,29,201,6308115,,,,,,,2023-05-09,1,,,,,ビキノウ,0
1120,4180001156142,新規,0,2023-05-09,2023-05-09,株式会社東海環境調査,,株式会社,愛知県,名古屋市西区,枇杷島１丁目１６番７号（カーサ・ルナ１０１号）,,23,104,4510053,,,,,,,2023-05-09,1,,,,,トウカイカンキョウチョウサ,0
1121,4180001156191,新規,0,2023-05-09,2023-05-09,株式会社平出建装,,株式会社,愛知県,名古屋市千種区,下方町４丁目６９番地,,23,101,4640096,,,,,,,2023-05-09,1,,,,,ヒライデケンソウ,0
1122,4180001156217,新規,0,2023-05-09,2023-05-09,株式会社ＣＥＦＩＲＯ,,株式会社,愛知県,名古屋市中村区,名駅４丁目２４番５号第２森ビル４０１,,23,105,4500002,,,,,,,2023-05-09,1,,,,,セフィーロ,0
1127,4180003025188,新規,0,2023-05-09,2023-05-09,合同会社ひいらぎ,,合同会社,愛知県,一宮市,伝法寺４丁目４番地５,,23,203,4910828,,,,,,,2023-05-09,1,,,,,ヒイラギ,0
1128,4180005020212,新規,0,2023-05-09,2023-05-09,土地家屋調査士法人大樹,,その他の設立登記法人,愛知県,名古屋市中区,錦２丁目７番１８号,,23,106,4600003,,,,,,,2023-05-09,1,,,,,タイジュ,0
1134,4190001030387,新規,0,2023-05-09,2023-05-09,株式会社クィーンメーカー,,株式会社,三重県,四日市市,浜田町１０番１号アイティーオービル３０１号,,24,202,5100067,,,,,,,2023-05-09,1,,,,,クィーンメーカー,0
1144,4240001061377,新規,0,2023-05-09,2023-05-09,株式会社アンドエー,,株式会社,広島県,広島市西区,己斐中３丁目１６番８号,,34,104,7330813,,,,,,,2023-05-09,1,,,,,アンドエー,0
1145,4240001061468,新規,0,2023-05-09,2023-05-09,株式会社バディ,,株式会社,広島県,安芸郡海田町,南幸町８番６号,,34,304,7360032,,,,,,,2023-05-09,1,,,,,バディ,0
1146,4240003006132,新規,0,2023-05-09,2023-05-09,合同会社ななつぼし,,合同会社,広島県,広島市東区,戸坂桜上町１５番３１－３号,,34,102,7320007,,,,,,,2023-05-09,1,,,,,ナナツボシ,0
1153,4270003001519,新規,0,2023-05-09,2023-05-09,合同会社お助けや清水,,合同会社,鳥取県,倉吉市,福庭町１丁目３８７番地２,,31,203,6820018,,,,,,,2023-05-09,1,,,,,オタスケヤシミズ,0
1161,4290001101434,新規,0,2023-05-09,2023-05-09,株式会社Ａｎｅｃｔｉｏｎ,,株式会社,福岡県,福岡市早良区,次郎丸５丁目１３番７５号,,40,137,8140165,,,,,,,2023-05-09,1,,,,,アネクション,0
1167,4290801029511,新規,0,2023-05-09,2023-05-09,株式会社佐々木シロアリ,,株式会社,福岡県,北九州市八幡西区,鷹見台２丁目１－１２－１０３,,40,109,8070853,,,,,,,2023-05-09,1,,,,,ササキシロアリ,0
1172,4310001018403,新規,0,2023-05-09,2023-05-09,株式会社ジオ・ワークス,,株式会社,長崎県,諫早市,飯盛町池下２３８番地１,,42,204,8541125,,,,,,,2023-05-09,1,,,,,ジオワークス,0
1174,4310003004566,新規,0,2023-05-09,2023-05-09,Ｏ・ＦＡＣＴＯＲＹ合同会社,,合同会社,長崎県,長崎市,かき道３丁目７番５号,,42,201,8510115,,,,,,,2023-05-09,1,,,,,オーファクトリー,0
1177,4320001019747,新規,0,2023-05-09,2023-05-09,株式会社楓,,株式会社,大分県,中津市,大字蛎瀬１２８３番地１,,44,203,8710007,,,,,,,2023-05-09,1,,,,,カエデ,0
1185,4330003009836,新規,0,2023-05-09,2023-05-09,Ａｇａｎｏ＆Ｓｏｎｓ合同会社,,合同会社,熊本県,八代市,中北町３４６０番地２,,43,202,8660044,,,,,,,2023-05-09,1,,,,,アガノアンドサンズ,0
1186,4350001018341,新規,0,2023-05-09,2023-05-09,株式会社飛鳥工業,,株式会社,宮崎県,宮崎市,大字瓜生野３７０８番地２,,45,201,8800044,,,,,,,2023-05-09,1,,,,,アスカコウギョウ,0
1192,4370001049896,新規,0,2023-05-09,2023-05-09,株式会社メディファス,,株式会社,宮城県,仙台市宮城野区,日の出町２丁目２番２号,,04,102,9830035,,,,,,,2023-05-09,1,,,,,メディファス,0
1193,4370001049913,新規,0,2023-05-09,2023-05-09,株式会社ＳＡＫＡＥコーポレーション,,株式会社,宮城県,富谷市,あけの平３丁目３６番地２,,04,216,9813361,,,,,,,2023-05-09,1,,,,,サカエコーポレーション,0
1195,4380001033676,新規,0,2023-05-09,2023-05-09,株式会社イシリアル,,株式会社,福島県,郡山市,片平町字大山南２番地,,07,203,9630211,,,,,,,2023-05-09,1,,,,,イシリアル,0
1200,4410001013476,新規,0,2023-05-09,2023-05-09,株式会社高清,,株式会社,秋田県,湯沢市,字上二井田４３番地１３,,05,207,0120003,,,,,,,2023-05-09,1,,,,,タカキヨ,0
1202,4420003002716,新規,0,2023-05-09,2023-05-09,大熊ウィンドファーム合同会社,,合同会社,青森県,青森市,長島２丁目１３番１号,,02,201,0300861,,,,,,,2023-05-09,1,,,,,オオクマウィンドファーム,0
1207,4440001009257,新規,0,2023-05-09,2023-05-09,アキウル株式会社,,株式会社,北海道,函館市,本通１丁目４４番２０号,,01,202,0410851,,,,,,,2023-05-09,1,,,,,アキウル,0
1209,4460101007381,新規,0,2023-05-09,2023-05-09,株式会社藤井事務所,,株式会社,北海道,帯広市,西十九条南３丁目１３－２０,,01,207,0802469,,,,,,,2023-05-09,1,,,,,フジイジムショ,0
1212,4470001019600,新規,0,2023-05-09,2023-05-09,株式会社輝皇,,株式会社,香川県,丸亀市,三条町１２０５番地１７,,37,202,7630094,,,,,,,2023-05-09,1,,,,,キコウ,0
1214,4470003002414,新規,0,2023-05-09,2023-05-09,合同会社ケイコ,,合同会社,香川県,仲多度郡琴平町,榎井８５６番地１０,,37,403,7660004,,,,,,,2023-05-09,1,,,,,ケイコ,0
1215,4480003001976,新規,0,2023-05-09,2023-05-09,ＮＥＸＴ　ＳＴＡＧＥ合同会社,,合同会社,徳島県,徳島市,安宅１丁目１０番９号郡ビル１階,,36,201,7700863,,,,,,,2023-05-09,1,,,,,ネクストステージ,0
1225,5010001234946,新規,0,2023-05-09,2023-05-09,株式会社日本橋みらいぐみ,,株式会社,東京都,中央区,日本橋本町１丁目４番１３号３階,,13,102,1030023,,,,,,,2023-05-09,1,,,,,ニホンバシミライグミ,0
1226,5010001235003,新規,0,2023-05-09,2023-05-09,株式会社組織開発ホールディングス,,株式会社,東京都,中央区,銀座７丁目１７番１８号,,13,102,1040061,,,,,,,2023-05-09,1,,,,,ソシキカイハツホールディングス,0
1227,5010001235028,新規,0,2023-05-09,2023-05-09,株式会社Ａｌｌ　Ｒｉｇｈｔ,,株式会社,東京都,中央区,日本橋中洲２－３,,13,102,1030008,,,,,,,2023-05-09,1,,,,,オールライト,0
1228,5010001235085,新規,0,2023-05-09,2023-05-09,株式会社鳥慎,,株式会社,東京都,中央区,築地２丁目１５番１５号セントラル東銀座１０８,,13,102,1040045,,,,,,,2023-05-09,1,,,,,トリシン,0
1231,5010003040491,新規,0,2023-05-09,2023-05-09,合同会社新横プロパティ,,合同会社,東京都,中央区,日本橋１丁目４番１号,,13,102,1030027,,,,,,,2023-05-09,1,,,,,シンヨコプロパティ,0
1232,5010003040525,新規,0,2023-05-09,2023-05-09,飛鳥開発合同会社,,合同会社,東京都,千代田区,五番町１２番地７－２０４３,,13,101,1020076,,,,,,,2023-05-09,1,,,,,アスカカイハツ,0
1233,5010005036629,新規,0,2023-05-09,2023-05-09,弁理士法人お茶の水内外特許事務所,,その他の設立登記法人,東京都,千代田区,神田三崎町２丁目２１番２号,,13,101,1010061,,,,,,,2023-05-09,1,,,,,オチャノミズナイガイトッキョジムショ,0
1245,5010403030051,新規,0,2023-05-09,2023-05-09,ロブスタ１合同会社,,合同会社,東京都,港区,元麻布３丁目１番６号,,13,103,1060046,,,,,,,2023-05-09,1,,,,,ロブスタイチ,0
1248,5010601063035,新規,0,2023-05-09,2023-05-09,株式会社派淘,,株式会社,東京都,墨田区,墨田５丁目５番２号,,13,107,1310031,,,,,,,2023-05-09,1,,,,,パイタオ,0
1249,5010601063043,新規,0,2023-05-09,2023-05-09,アイテル株式会社,,株式会社,東京都,江東区,大島７丁目９番１２号,,13,108,1360072,,,,,,,2023-05-09,1,,,,,アイテル,0
1250,5010601063051,新規,0,2023-05-09,2023-05-09,越後屋ホームメンテナンス株式会社,,株式会社,東京都,墨田区,緑２丁目４番９号,,13,107,1300021,,,,,,,2023-05-09,1,,,,,エチゴヤホームメンテナンス,0
1252,5010801033928,新規,0,2023-05-09,2023-05-09,Ｃｉｅｌ株式会社,,株式会社,東京都,大田区,久が原５丁目１０番１３号,,13,111,1460085,,,,,,,2023-05-09,1,,,,,シエル,0
1256,5010903008134,新規,0,2023-05-09,2023-05-09,エイチアンドエー合同会社,,合同会社,東京都,世田谷区,桜丘２丁目２番１１号,,13,112,1560054,,,,,,,2023-05-09,1,,,,,エイチアンドエー,0
1257,5010903008150,新規,0,2023-05-09,2023-05-09,合同会社ＫＧ,,合同会社,東京都,世田谷区,太子堂２丁目５－９,,13,112,1540004,,,,,,,2023-05-09,1,,,,,ケージー,0
1263,5011001154226,新規,0,2023-05-09,2023-05-09,株式会社Ｃｅｌｅｓｔｅ,,株式会社,東京都,渋谷区,神宮前５丁目４７番１０号,,13,113,1500001,,,,,,,2023-05-09,1,,,,,セレステ,0
1264,5011001154234,新規,0,2023-05-09,2023-05-09,株式会社ＭＥＴＡ,,株式会社,東京都,渋谷区,神宮前３丁目１６番１７号ｍ－ｆｒａｍｅ神宮前１Ｆ－Ａ,,13,113,1500001,,,,,,,2023-05-09,1,,,,,メタ,0
1265,5011001154250,新規,0,2023-05-09,2023-05-09,株式会社ＧＥＭ　ｓｔｏｎｅｓ,,株式会社,東京都,渋谷区,桜丘町１８番４号,,13,113,1500031,,,,,,,2023-05-09,1,,,,,ジェムストーンズ,0
1267,5011003016770,新規,0,2023-05-09,2023-05-09,合同会社エスプランニング,,合同会社,東京都,目黒区,大橋２丁目１６番２０－１００２号ＳＯＬＩＤＯＨＡＳＨＩ,,13,110,1530044,,,,,,,2023-05-09,1,,,,,エスプランニング,0
1273,5011101102745,新規,0,2023-05-09,2023-05-09,株式会社リップワン,,株式会社,東京都,新宿区,西新宿７丁目５番５号Ｐｌａｚａ西新宿ＵＣＦ４０６,,13,104,1600023,,,,,,,2023-05-09,1,,,,,リップワン,0
1274,5011101102761,新規,0,2023-05-09,2023-05-09,株式会社Ｌｕｂｅ,,株式会社,東京都,新宿区,西新宿７丁目１８－５ＶＯＲＴ西新宿５０２,,13,104,1600023,,,,,,,2023-05-09,1,,,,,ルーブ,0
1278,5011103013024,新規,0,2023-05-09,2023-05-09,合同会社チェリー,,合同会社,東京都,新宿区,西新宿３丁目３番１３号西新宿水間ビル２Ｆ,,13,104,1600023,,,,,,,2023-05-09,1,,,,,チェリー,0
1294,5012401040486,新規,0,2023-05-09,2023-05-09,株式会社ＰＬＥＭ,,株式会社,東京都,武蔵野市,吉祥寺南町１丁目９番１１号,,13,203,1800003,,,,,,,2023-05-09,1,,,,,プレム,0
1295,5012401040511,新規,0,2023-05-09,2023-05-09,株式会社ＤｉａｍｏｎｄＳｔａｆｆ,,株式会社,東京都,府中市,本町１丁目１２－２オウズ御殿山３０２,,13,206,1830027,,,,,,,2023-05-09,1,,,,,ダイヤモンドスタッフ,0
1297,5012703002696,新規,0,2023-05-09,2023-05-09,合同会社オフィス磯部,,合同会社,東京都,西東京市,新町４丁目１２－３６,,13,229,2020023,,,,,,,2023-05-09,1,,,,,オフィスイソベ,0
1299,5013101009160,新規,0,2023-05-09,2023-05-09,株式会社Ｓｍｉｌｅ,,株式会社,東京都,西多摩郡瑞穂町,大字駒形富士山１４番地,,13,303,1901202,,,,,,,2023-05-09,1,,,,,スマイル,0
1301,5013301050716,新規,0,2023-05-09,2023-05-09,ＨＡＣＨＩＫＯ国際サービス発展株式会社,,株式会社,東京都,豊島区,南大塚１丁目６０番２０号天翔大塚駅前ビルＳ－３０５号室,,13,116,1700005,,,,,,,2023-05-09,1,,,,,ハチココクサイサービスハッテン,0
1302,5013301050724,新規,0,2023-05-09,2023-05-09,株式会社ＥＮＴＡ,,株式会社,東京都,豊島区,南長崎２丁目１７－１３アクアレーラ２０１,,13,116,1710052,,,,,,,2023-05-09,1,,,,,エンタ,0
1303,5013303006617,新規,0,2023-05-09,2023-05-09,合同会社ａｌｂａ,,合同会社,東京都,豊島区,南池袋２丁目５－２高森ビル１Ｆ,,13,116,1710022,,,,,,,2023-05-09,1,,,,,アルバ,0
1311,5020001151463,新規,0,2023-05-09,2023-05-09,三林コンサル株式会社,,株式会社,神奈川県,横浜市南区,南太田３丁目３番７号－２０６,,14,105,2320006,,,,,,,2023-05-09,1,,,,,ミツバヤシコンサル,0
1314,5020003023850,新規,0,2023-05-09,2023-05-09,合同会社Ｔ’ｓ,,合同会社,神奈川県,川崎市宮前区,馬絹１丁目１番１２－４０２号エイブル宮前平,,14,136,2160035,,,,,,,2023-05-09,1,,,,,ティーズ,0
1317,5021005012800,新規,0,2023-05-09,2023-05-09,一般社団法人ＨＴＲクラブ,,その他の設立登記法人,神奈川県,厚木市,恩名５丁目５番地３０－６１０号,,14,212,2430032,,,,,,,2023-05-09,1,,,,,エイチティーアールクラブ,0
1318,5021005012809,新規,0,2023-05-09,2023-05-09,一般社団法人東京湾海堡ツーリズム機構,,その他の設立登記法人,神奈川県,横須賀市,小川町２７番地１６,,14,201,2380004,,,,,,,2023-05-09,1,,,,,トウキョウワンカイホウツーリズムキコウ,0
1320,5030001153632,新規,0,2023-05-09,2023-05-09,株式会社きなおれ,,株式会社,埼玉県,川越市,上野田町１１番地２５,,11,201,3501112,,,,,,,2023-05-09,1,,,,,キナオレ,0
1326,5030003021688,新規,0,2023-05-09,2023-05-09,合同会社ＮＥＴ,,合同会社,埼玉県,蕨市,錦町４丁目４番２３号パレスアゼリア１０５号,,11,223,3350005,,,,,,,2023-05-09,1,,,,,ネット,0
1327,5040001128220,新規,0,2023-05-09,2023-05-09,一葉ライフアップサポート株式会社,,株式会社,千葉県,市原市,五井中央東１丁目１３番地１アルビオンマンション３０２,,12,219,2900054,,,,,,,2023-05-09,1,,,,,ヒトハライフアップサポート,0
1328,5040001128253,新規,0,2023-05-09,2023-05-09,Ｂｉ‐Ｗｉｎｇｓ株式会社,,株式会社,千葉県,松戸市,常盤平５丁目１１番地の９今井ビル２階Ｄ号室,,12,207,2702261,,,,,,,2023-05-09,1,,,,,バイウイングズ,0
1329,5040001128294,新規,0,2023-05-09,2023-05-09,株式会社ＹＵ‐ＷＡ,,株式会社,千葉県,千葉市緑区,越智町７３７番地１７４,,12,105,2670055,,,,,,,2023-05-09,1,,,,,ユウワ,0
1330,5040003022529,新規,0,2023-05-09,2023-05-09,合同会社中村,,合同会社,千葉県,船橋市,前原西２丁目３１番１号,,12,204,2740825,,,,,,,2023-05-09,1,,,,,ナカムラ,0
1331,5040003022545,新規,0,2023-05-09,2023-05-09,ＲＭ　ＩＮＴＥＲＮＡＴＩＯＮＡＬ合同会社,,合同会社,千葉県,白井市,折立５４８番地１,,12,232,2701404,,,,,,,2023-05-09,1,,,,,アールエムインターナショナル,0
1337,5070001040414,新規,0,2023-05-09,2023-05-09,ＲＩＳＥ工業株式会社,,株式会社,群馬県,桐生市,西久方町２丁目３番２号,,10,203,3760054,,,,,,,2023-05-09,1,,,,,ライズコウギョウ,0
1338,5070001040430,新規,0,2023-05-09,2023-05-09,株式会社ＣＯＺＹ　ＡＵＴＯ　ＳＡＬＥＳ,,株式会社,群馬県,高崎市,下小塙町７８８番地１,,10,202,3700076,,,,,,,2023-05-09,1,,,,,コージーオートセールス,0
1341,5070003004937,新規,0,2023-05-09,2023-05-09,合同会社ＥＶＥＲＥＳＴ,,合同会社,群馬県,吾妻郡東吾妻町,大字原町２０５番地１新井アパート,,10,429,3770801,,,,,,,2023-05-09,1,,,,,エベレスト,0
1351,5100001036375,新規,0,2023-05-09,2023-05-09,株式会社４ＤｅｅＲ,,株式会社,長野県,北安曇郡池田町,大字池田４１２４－２,,20,481,3998601,,,,,,,2023-05-09,1,,,,,フォーディア,0
1352,5100001036383,新規,0,2023-05-09,2023-05-09,Ｊｏｙｆｕｌ　Ｋｉｔｃｈｅｎ株式会社,,株式会社,長野県,伊那市,西春近８４７５番地１,,20,209,3994431,,,,,,,2023-05-09,1,,,,,ジョイフルキッチン,0
1364,5120001254561,新規,0,2023-05-09,2023-05-09,株式会社美渡,,株式会社,大阪府,大阪市東淀川区,南江口１丁目３番４１－６号,,27,114,5330003,,,,,,,2023-05-09,1,,,,,ミト,0
1365,5120001254603,新規,0,2023-05-09,2023-05-09,玉麟株式会社,,株式会社,大阪府,大阪市住之江区,東加賀屋１丁目７番９－１２０５号,,27,125,5590012,,,,,,,2023-05-09,1,,,,,ヨクリン,0
1366,5120001254652,新規,0,2023-05-09,2023-05-09,テンセイホーム株式会社,,株式会社,大阪府,大阪市東成区,中道１丁目４番２１号,,27,115,5370025,,,,,,,2023-05-09,1,,,,,テンセイホーム,0
1367,5120001254669,新規,0,2023-05-09,2023-05-09,株式会社ＰＬＶ,,株式会社,大阪府,枚方市,長尾播磨谷１丁目２８０６番地４,,27,210,5730104,,,,,,,2023-05-09,1,,,,,ピーエルブイ,0
1368,5120001254677,新規,0,2023-05-09,2023-05-09,株式会社アルク警備保障,,株式会社,大阪府,大阪市淀川区,西中島３丁目２０番８号新和ビル５０５号,,27,123,5320011,,,,,,,2023-05-09,1,,,,,アルクケイビホショウ,0
1369,5120001254727,新規,0,2023-05-09,2023-05-09,株式会社Ｋ’ＳＴＡＲＴＩＮＧ,,株式会社,大阪府,大阪市中央区,南船場３丁目２番２８－８号,,27,128,5420081,,,,,,,2023-05-09,1,,,,,ケースターティング,0
1374,5120003024005,新規,0,2023-05-09,2023-05-09,合同会社グッドプランニング,,合同会社,大阪府,大阪市浪速区,日本橋東２丁目２番１４－３０１,,27,111,5560006,,,,,,,2023-05-09,1,,,,,グッドプランニング,0
1375,5120005023608,新規,0,2023-05-09,2023-05-09,アメリア司法書士法人,,その他の設立登記法人,大阪府,大阪市中央区,北浜２丁目１番１３号北浜藤浪ビルディング６階,,27,128,5410041,,,,,,,2023-05-09,1,,,,,アメリア,0
1377,5120101067491,新規,0,2023-05-09,2023-05-09,株式会社ＮＩＫＫＥＮ,,株式会社,大阪府,高石市,取石４丁目１６番２４号,,27,225,5920013,,,,,,,2023-05-09,1,,,,,ニッケン,0
1387,5140001130026,新規,0,2023-05-09,2023-05-09,株式会社シャムロック,,株式会社,兵庫県,神戸市長田区,大橋町５丁目３番１－１１８号,,28,106,6530037,,,,,,,2023-05-09,1,,,,,シャムロック,0
1388,5140001130050,新規,0,2023-05-09,2023-05-09,株式会社ＭＫグループ,,株式会社,兵庫県,加古川市,上荘町国包３２０番地の１,,28,210,6751213,,,,,,,2023-05-09,1,,,,,エムケイグループ,0
1389,5140001130059,新規,0,2023-05-09,2023-05-09,ＺＥＮ株式会社,,株式会社,兵庫県,西宮市,松籟荘１１番１１号ブランベール甲東園１０２号,,28,204,6620822,,,,,,,2023-05-09,1,,,,,ゼン,0
1390,5140001130083,新規,0,2023-05-09,2023-05-09,株式会社ＨＡＧＤＹ,,株式会社,兵庫県,明石市,本町１丁目２番３３号興生ビル,,28,203,6730892,,,,,,,2023-05-09,1,,,,,ハグディ,0
1391,5140001130109,新規,0,2023-05-09,2023-05-09,株式会社森管財,,株式会社,兵庫県,西宮市,山口町下山口５丁目１番８号,,28,204,6511412,,,,,,,2023-05-09,1,,,,,モリカンザイ,0
1392,5140001130117,新規,0,2023-05-09,2023-05-09,株式会社アカサタナ,,株式会社,兵庫県,尼崎市,三反田町２丁目１８番１－６０６号,,28,202,6610024,,,,,,,2023-05-09,1,,,,,アカサタナ,0
1394,5140003019060,新規,0,2023-05-09,2023-05-09,Ｔａｍｙ合同会社,,合同会社,兵庫県,神戸市西区,伊川谷町長坂９７７－１８７,,28,111,6512104,,,,,,,2023-05-09,1,,,,,タミー,0
1397,5150003002957,新規,0,2023-05-09,2023-05-09,アマホーム合同会社,,合同会社,奈良県,奈良市,二名２丁目２４８８番地の２５,,29,201,6310072,,,,,,,2023-05-09,1,,,,,アマホーム,0
1401,5160003002873,新規,0,2023-05-09,2023-05-09,合同会社ＨＳコンサルティング,,合同会社,滋賀県,草津市,草津２丁目１０番２６‐１００５号クレヴィア草津,,25,206,5250034,,,,,,,2023-05-09,1,,,,,エイチエスコンサルティング,0
1406,5180001156083,新規,0,2023-05-09,2023-05-09,中部株式会社,,株式会社,愛知県,あま市,七宝町徳実郷ノ西２番地３,,23,237,4970016,,,,,,,2023-05-09,1,,,,,チュウブ,0
1407,5180001156109,新規,0,2023-05-09,2023-05-09,株式会社白壁デンタルラボ,,株式会社,愛知県,名古屋市東区,赤塚町８番地寺西ビル３階,00130392,23,102,4610026,,,,,,,2023-05-09,1,,,,,シラカベデンタルラボ,0
1408,5180001156125,新規,0,2023-05-09,2023-05-09,ＺＥＲＯ住宅設備株式会社,,株式会社,愛知県,名古屋市天白区,野並１丁目２１３番地３,,23,116,4680045,,,,,,,2023-05-09,1,,,,,ゼロジュウタクセツビ,0
1409,5180001156174,新規,0,2023-05-09,2023-05-09,イワタフクソー販売株式会社,,株式会社,愛知県,名古屋市北区,金田町１丁目１９番地,,23,103,4620033,,,,,,,2023-05-09,1,,,,,イワタフクソーハンバイ,0
1410,5180001156216,新規,0,2023-05-09,2023-05-09,株式会社ｍｅｄｉｓｏｌ,,株式会社,愛知県,長久手市,打越１２０３,,23,238,4801152,,,,,,,2023-05-09,1,,,,,メデイソル,0
1412,5180003025195,新規,0,2023-05-09,2023-05-09,合同会社サンライズ,,合同会社,愛知県,名古屋市港区,正徳町１丁目６番地,,23,111,4550075,,,,,,,2023-05-09,1,,,,,サンライズ,0
1415,5180301037371,新規,0,2023-05-09,2023-05-09,株式会社ＩＮＮＯＶＩＳ,,株式会社,愛知県,豊橋市,下地町字若宮２２番地４（２０３）,,23,201,4400083,,,,,,,2023-05-09,1,,,,,イノヴィス,0
1421,5190001030378,新規,0,2023-05-09,2023-05-09,株式会社じゅえりー平安堂,,株式会社,三重県,松阪市,勢津町９１３番地,,24,204,5151101,,,,,,,2023-05-09,1,,,,,ジュエリーヘイアンドウ,0
1422,5190001030386,新規,0,2023-05-09,2023-05-09,株式会社鈴南企画,,株式会社,三重県,鈴鹿市,秋永町３８０番地の１,,24,207,5100258,,,,,,,2023-05-09,1,,,,,レイナンキカク,0
1423,5190003004314,新規,0,2023-05-09,2023-05-09,合同会社ＦＵＪＩ,,合同会社,三重県,津市,白塚町２４７２番地,,24,201,5140101,,,,,,,2023-05-09,1,,,,,フジ,0
1425,5190005011820,新規,0,2023-05-09,2023-05-09,一般社団法人明日の一身田研究会,,その他の設立登記法人,三重県,津市,一身田大古曽３３８番地,,24,201,5140113,,,,,,,2023-05-09,1,,,,,アスノイッシンデンケンキュウカイ,0
1427,5200005013484,新規,0,2023-05-09,2023-05-09,農事組合法人ふくづか,,その他の設立登記法人,岐阜県,安八郡輪之内町,福束６８番地の１,,21,382,5030235,,,,,,,2023-05-09,1,,,,,フクヅカ,0
1429,5220001025390,新規,0,2023-05-09,2023-05-09,株式会社ＲＩＳＥ,,株式会社,石川県,小松市,北浅井町乙５０番地,,17,203,9230851,,,,,,,2023-05-09,1,,,,,ライズ,0
1431,5220003003510,新規,0,2023-05-09,2023-05-09,ＣＨＥＲＲＹ　ＯＮＬＩＮＥ　ＳＴＯＲＥ合同会社,,合同会社,石川県,野々市市,本町１丁目４番４４号,,17,212,9218815,,,,,,,2023-05-09,1,,,,,チェリーオンラインストアー,0
1435,5240001061467,新規,0,2023-05-09,2023-05-09,株式会社ｐｉｎｅ,,株式会社,広島県,広島市東区,牛田新町２丁目４番２３号,,34,102,7320068,,,,,,,2023-05-09,1,,,,,パイン,0
1437,5240003006131,新規,0,2023-05-09,2023-05-09,合同会社ｓｐａｃｅ店,,合同会社,広島県,東広島市,西条町寺家４５４４番地７,,34,212,7390041,,,,,,,2023-05-09,1,,,,,スペーステン,0
1440,5250001020075,新規,0,2023-05-09,2023-05-09,株式会社Ｋ　Ｈｏｍｅアテンダント,,株式会社,山口県,防府市,今市町３番２９号,,35,206,7470042,,,,,,,2023-05-09,1,,,,,ケイホームアテンダント,0
1446,5260003004298,新規,0,2023-05-09,2023-05-09,合同会社創工研,,合同会社,岡山県,真庭市,落合垂水５００番地,,33,214,7193144,,,,,,,2023-05-09,1,,,,,ソウコウケン,0
1451,5280003001723,新規,0,2023-05-09,2023-05-09,合同会社オリエンタルシティー,,合同会社,島根県,江津市,嘉久志町イ４０５番地,,32,207,6950016,,,,,,,2023-05-09,1,,,,,オリエンタルシティー,0
1456,5290001101318,新規,0,2023-05-09,2023-05-09,株式会社グッドワーク,,株式会社,福岡県,春日市,白水池３丁目１１１番地,,40,218,8160848,,,,,,,2023-05-09,1,,,,,グッドワーク,0
1457,5290001101391,新規,0,2023-05-09,2023-05-09,株式会社Ｋ＆Ｋ,,株式会社,福岡県,大牟田市,山上町４番地１－４０７号,,40,202,8360833,,,,,,,2023-05-09,1,,,,,ケーアンドケー,0
1458,5290001101409,新規,0,2023-05-09,2023-05-09,株式会社ｗｉｔｈ,,株式会社,福岡県,福岡市南区,太平寺二丁目２２番８号,,40,134,8150000,,,,,,,2023-05-09,1,,,,,ウィズ,0
1459,5290001101482,新規,0,2023-05-09,2023-05-09,株式会社ＫＭＴ,,株式会社,福岡県,宗像市,田熊４丁目５番１号,,40,220,8113431,,,,,,,2023-05-09,1,,,,,ケイエムティ,0
1460,5290003013874,新規,0,2023-05-09,2023-05-09,合同会社Ｓｏｌｅｉｌ　Ｊａｐａｎ,,合同会社,福岡県,福岡市西区,今宿２丁目１３番３号,,40,135,8190167,,,,,,,2023-05-09,1,,,,,ソレイユジャパン,0
1461,5290003013890,新規,0,2023-05-09,2023-05-09,合同会社Ｒｅｖｉｖｅ,,合同会社,福岡県,福岡市中央区,平和３丁目１９番２１－８０２号東峰マンション平和,,40,133,8100016,,,,,,,2023-05-09,1,,,,,リバイブ,0
1462,5290801029510,新規,0,2023-05-09,2023-05-09,株式会社ライフアンドソリューション,,株式会社,福岡県,北九州市八幡西区,星ケ丘５丁目４番７号,,40,109,8071264,,,,,,,2023-05-09,1,,,,,ライフアンドソリューション,0
1464,5310001018393,新規,0,2023-05-09,2023-05-09,株式会社ＫＡＷＡＫＥＮ,,株式会社,長崎県,長崎市,宮崎町１８１番地,,42,201,8510408,,,,,,,2023-05-09,1,,,,,カワケン,0
1465,5320001019746,新規,0,2023-05-09,2023-05-09,株式会社ハウジングＨＵＢ,,株式会社,大分県,大分市,大字東上野２２５１番地の１,,44,201,8700306,,,,,,,2023-05-09,1,,,,,ハウジングハブ,0
1467,5330001030826,新規,0,2023-05-09,2023-05-09,株式会社こゆき,,株式会社,熊本県,熊本市中央区,妙体寺町８番１号,,43,101,8600856,,,,,,,2023-05-09,1,,,,,コユキ,0
1468,5330001030834,新規,0,2023-05-09,2023-05-09,吉中養魚株式会社,,株式会社,熊本県,天草市,御所浦町横浦８７番地２２,,43,215,8660303,,,,,,,2023-05-09,1,,,,,ヨシナカヨウギョ,0
1469,5330001030842,新規,0,2023-05-09,2023-05-09,株式会社あおぞら丸孝ファーム,,株式会社,熊本県,熊本市南区,会富町４４５番地２,,43,104,8614121,,,,,,,2023-05-09,1,,,,,アオゾラマルタカファーム,0
1470,5330003009835,新規,0,2023-05-09,2023-05-09,オレンジラッシュ合同会社,,合同会社,熊本県,熊本市東区,湖東１丁目１０番２５号,,43,102,8620909,,,,,,,2023-05-09,1,,,,,オレンジラッシュ,0
1473,5340005009601,新規,0,2023-05-09,2023-05-09,一般社団法人ともえ福祉会,,その他の設立登記法人,鹿児島県,鹿児島市,松原町５番２号,,46,201,8920833,,,,,,,2023-05-09,1,,,,,トモエフクシカイ,0
1474,5350001018340,新規,0,2023-05-09,2023-05-09,株式会社Ｌｉｎｋ　Ｃｏｏｒｄｉｎａｔｅ,,株式会社,宮崎県,宮崎市,大王町４４番地１ＬｉｎｋＢｌｄ３０１,,45,201,8800871,,,,,,,2023-05-09,1,,,,,リンクコーディネート,0
1475,5370001049912,新規,0,2023-05-09,2023-05-09,株式会社ＢＲＥＡ鑑定,,株式会社,宮城県,仙台市太白区,長町１丁目６番６号,,04,104,9820011,,,,,,,2023-05-09,1,,,,,ブレアカンテイ,0
1476,5370001049920,新規,0,2023-05-09,2023-05-09,株式会社Ｐｏｓｉｔｉｖｅ　Ｐｒｏｇｒｅｓｓｉｖｅ,,株式会社,宮城県,仙台市泉区,黒松２丁目２２番１－２号,,04,105,9818006,,,,,,,2023-05-09,1,,,,,ポジティブプログレッシブ,0
1479,5380003005458,新規,0,2023-05-09,2023-05-09,合同会社Ｒ．Ｐｌａｙｆｕｌ,,合同会社,福島県,二本松市,油井字背戸谷地１８番地６,,07,210,9691404,,,,,,,2023-05-09,1,,,,,アールプレイフル,0
1481,5380005012709,新規,0,2023-05-09,2023-05-09,一般社団法人たいよう,,その他の設立登記法人,福島県,郡山市,東原３丁目３１６番地,,07,203,9630552,,,,,,,2023-05-09,1,,,,,タイヨウ,0
1486,5420001018250,新規,0,2023-05-09,2023-05-09,サポート株式会社,,株式会社,青森県,青森市,久須志４丁目８番１５号,,02,201,0380013,,,,,,,2023-05-09,1,,,,,サポート,0
1488,5420003002715,新規,0,2023-05-09,2023-05-09,浪江飯館ウィンドファーム合同会社,,合同会社,青森県,青森市,長島２丁目１３番１号,,02,201,0300861,,,,,,,2023-05-09,1,,,,,ナミエイイダテウィンドファーム,0
1492,5430001088986,新規,0,2023-05-09,2023-05-09,株式会社ＭＣＳ,,株式会社,北海道,札幌市東区,中沼西五条１丁目６番２２号ドミール中沼１号,,01,103,0070895,,,,,,,2023-05-09,1,,,,,エムシーエス,0
1496,5460101007380,新規,0,2023-05-09,2023-05-09,武藤建設工業株式会社,,株式会社,北海道,帯広市,柏林台南町５丁目１番地６－６３２号,,01,207,0800056,,,,,,,2023-05-09,1,,,,,ムトウケンセツコウギョウ,0
1497,5460103001530,新規,0,2023-05-09,2023-05-09,合同会社サーベル,,合同会社,北海道,帯広市,西十八条南２丁目２番地６５,,01,207,0800028,,,,,,,2023-05-09,1,,,,,サーベル,0
1498,5460301005143,新規,0,2023-05-09,2023-05-09,プラシーハウス株式会社,,株式会社,北海道,北見市,卸町１丁目５番地２,,01,208,0900056,,,,,,,2023-05-09,1,,,,,プラシーハウス,0
1506,5700150115968,新規,0,2023-05-09,2023-05-09,ｓｈｅｎ　ｚｈｅｎ　ｓｈｉ　ｔｏｎｇ　ｙｉｎｇ　ｓｈｅ　ｙｉｎｇ　ｑｉ　ｃａｉ　ｑｉ　ｙｅ,,外国会社等,,,,,,,,ｓｈｅｎ　ｚｈｅｎ　ｓｈｉ　ｌｏｎｇ　ｈｕａ　ｘｉｎ　ｑｕ　ｍｉｎ　ｚｈｉ　ｊｉｅ　ｄａｏ　ｈｅｎｇ　ｌｉｎｇ　２　ｑｕ　１１　ｄｏｎｇ　８８８，Ｃｈｉｎａ,,,,,,2023-05-09,1,,,,,シンセンシトンインシインキチャイキエ,0
1512,6010001235010,新規,0,2023-05-09,2023-05-09,株式会社Ｖａｌｕｅ　Ｃｒｅａｔｅ　Ｖｅｎｔｕｒｅｓ,,株式会社,東京都,中央区,銀座１丁目１８番２号辰ビル７Ｆ,,13,102,1040061,,,,,,,2023-05-09,1,,,,,バリュークリエイトベンチャーズ,0
1513,6010001235051,新規,0,2023-05-09,2023-05-09,株式会社エム・アール・ケー・ビジネスサポート,,株式会社,東京都,中央区,銀座１丁目１２番４号Ｎ＆ＥＢＬＤ．６Ｆ,,13,102,1040061,,,,,,,2023-05-09,1,,,,,エムアールケービジネスサポート,0
1514,6010001235076,新規,0,2023-05-09,2023-05-09,なないち不動産株式会社,,株式会社,東京都,千代田区,内神田１丁目１８番１１号,,13,101,1010047,,,,,,,2023-05-09,1,,,,,ナナイチフドウサン,0
1515,6010001235092,新規,0,2023-05-09,2023-05-09,カラー株式会社,,株式会社,東京都,中央区,銀座１丁目１２番４号－６Ｆ,,13,102,1040061,,,,,,,2023-05-09,1,,,,,カラー,0
1516,6010003040524,新規,0,2023-05-09,2023-05-09,合同会社ヴィゴラスマインド,,合同会社,東京都,中央区,東日本橋２丁目２８番４号日本橋ＣＥＴビル２階,,13,102,1030004,,,,,,,2023-05-09,1,,,,,ヴィゴラスマインド,0
1527,6010401173751,新規,0,2023-05-09,2023-05-09,ＩＵＩ株式会社,,株式会社,東京都,港区,虎ノ門４丁目３－１城山トラストタワー２７階,,13,103,1050001,,,,,,,2023-05-09,1,,,,,アイユーアイ,0
1528,6010401174064,新規,0,2023-05-09,2023-05-09,株式会社ジダイ,,株式会社,東京都,港区,新橋２丁目６番２号新橋アイマークビル８階,,13,103,1050004,,,,,,,2023-05-09,1,,,,,ジダイ,0
1529,6010401174130,新規,0,2023-05-09,2023-05-09,天翔る株式会社,,株式会社,東京都,港区,赤坂３丁目１５番１２号フォーラム赤坂４階,,13,103,1070052,,,,,,,2023-05-09,1,,,,,アマカケル,0
1530,6010401174171,新規,0,2023-05-09,2023-05-09,株式会社フラクトライト,,株式会社,東京都,港区,虎ノ門４丁目３番１号城山トラストタワー２７Ｆ,,13,103,1050001,,,,,,,2023-05-09,1,,,,,フラクトライト,0
1531,6010401174188,新規,0,2023-05-09,2023-05-09,株式会社ジーノ,,株式会社,東京都,港区,浜松町２丁目２番１５号浜松町ダイヤビル２Ｆ,,13,103,1050013,,,,,,,2023-05-09,1,,,,,ジーノ,0
1532,6010401174221,新規,0,2023-05-09,2023-05-09,株式会社ＡＳＨＩＮＯＫＯ,,株式会社,東京都,港区,六本木４丁目１２番８号,,13,103,1060032,,,,,,,2023-05-09,1,,,,,アシノコ,0
1533,6010403030050,新規,0,2023-05-09,2023-05-09,ブリオン１合同会社,,合同会社,東京都,港区,元麻布３丁目１番６号,,13,103,1060046,,,,,,,2023-05-09,1,,,,,ブリオンイチ,0
1534,6010403030067,新規,0,2023-05-09,2023-05-09,合同会社リアルティジャパンフォー,,合同会社,東京都,港区,六本木６丁目１０番１号六本木ヒルズ森タワー,,13,103,1060032,,,,,,,2023-05-09,1,,,,,リアルティジャパンフォー,0
1538,6010603010125,新規,0,2023-05-09,2023-05-09,合同会社ＭＫ　Ｉｎｎｏｖａｔｉｏｎ,,合同会社,東京都,江東区,塩浜２丁目２９番１６－４１１号,,13,108,1350043,,,,,,,2023-05-09,1,,,,,エムケーイノベーション,0
1543,6010801033927,新規,0,2023-05-09,2023-05-09,株式会社Ｍシステム,,株式会社,東京都,大田区,大森北１丁目２３番７号,,13,111,1430016,,,,,,,2023-05-09,1,,,,,エムシステム,0
1546,6011001154076,新規,0,2023-05-09,2023-05-09,株式会社Ｒｉｇｈｔ　ｅａｒ,,株式会社,東京都,目黒区,目黒本町２丁目８番１２－２０８号,,13,110,1520002,,,,,,,2023-05-09,1,,,,,ライトイヤー,0
1547,6011001154175,新規,0,2023-05-09,2023-05-09,株式会社Ｔｏｔａｌ　Ｈｅａｌｔｈ　Ｌａｂｏ,,株式会社,東京都,渋谷区,神宮前４丁目９番１７,,13,113,1500001,,,,,,,2023-05-09,1,,,,,トータルヘルスラボ,0
1548,6011001154225,新規,0,2023-05-09,2023-05-09,株式会社ＥＮコーポレーション,,株式会社,東京都,渋谷区,神宮前３丁目３１番１８号外苑コーポ２０１号室,,13,113,1500001,,,,,,,2023-05-09,1,,,,,エンコーポレーション,0
1549,6011001154274,新規,0,2023-05-09,2023-05-09,ＹＢＲＣ株式会社,,株式会社,東京都,渋谷区,広尾３丁目１２番１号,,13,113,1500012,,,,,,,2023-05-09,1,,,,,ワイビーアールシー,0
1555,6011101102744,新規,0,2023-05-09,2023-05-09,株式会社ヤボ,,株式会社,東京都,新宿区,余丁町６番２１号クレスト２１－７０１,,13,104,1620055,,,,,,,2023-05-09,1,,,,,ヤボ,0
1556,6011101102752,新規,0,2023-05-09,2023-05-09,株式会社ｃｏｒｒｅｃｔ,,株式会社,東京都,新宿区,新宿６丁目２７番２９－３００８号,,13,104,1600022,,,,,,,2023-05-09,1,,,,,コレクト,0
1557,6011101102760,新規,0,2023-05-09,2023-05-09,Ｂｌｕｅ‐Ｔ　Ｒｅｃｏｒｄｓ株式会社,,株式会社,東京都,新宿区,左門町６番地１７,,13,104,1600017,,,,,,,2023-05-09,1,,,,,ブルーティーレコード,0
1562,6011301028681,新規,0,2023-05-09,2023-05-09,株式会社オカリノベ,,株式会社,東京都,杉並区,阿佐谷南３丁目２番９号プロステージ阿佐ヶ谷２０４,,13,115,1660004,,,,,,,2023-05-09,1,,,,,オカリノベ,0
1563,6011401025100,新規,0,2023-05-09,2023-05-09,株式会社Ｄｒ．ＧＡＲＤＥＮ‐縁珠,,株式会社,東京都,板橋区,徳丸２丁目１１番３‐３０３号村田マンション,,13,119,1750083,,,,,,,2023-05-09,1,,,,,ドクターガーデンエンジュ,0
1564,6011401025117,新規,0,2023-05-09,2023-05-09,株式会社開誠実業,,株式会社,東京都,板橋区,赤塚６丁目３１番１２号,,13,119,1750092,,,,,,,2023-05-09,1,,,,,カイセイジツギョウ,0
1570,6011801042348,新規,0,2023-05-09,2023-05-09,リクスタシステムズ株式会社,,株式会社,東京都,足立区,千住３丁目６６番地１６,,13,121,1200034,,,,,,,2023-05-09,1,,,,,リクスタシステムズ,0
1572,6012401040502,新規,0,2023-05-09,2023-05-09,株式会社ケービーファーム,,株式会社,東京都,府中市,南町６丁目４４番地の４,,13,206,1830026,,,,,,,2023-05-09,1,,,,,ケービーファーム,0
1574,6012403005965,新規,0,2023-05-09,2023-05-09,Ｍｏｎｏ　Ｉｄｅａ＆Ｃｒｅａｔｅ　ＲＳ合同会社,,合同会社,東京都,三鷹市,下連雀３丁目３６番１－６０１号,,13,204,1810013,,,,,,,2023-05-09,1,,,,,モノアイディアアンドクリエイトアールエス,0
1575,6012403005973,新規,0,2023-05-09,2023-05-09,晴れるや合同会社,,合同会社,東京都,調布市,国領町２丁目５番地１５コクティー３Ｆ産業労働支援センター内スモールオフィス３,,13,208,1820022,,,,,,,2023-05-09,1,,,,,ハレルヤ,0
1577,6012701017638,新規,0,2023-05-09,2023-05-09,株式会社ネクストレベル,,株式会社,東京都,東久留米市,八幡町１丁目４番２７号,,13,222,2030042,,,,,,,2023-05-09,1,,,,,ネクストレベル,0
1578,6012801022331,新規,0,2023-05-09,2023-05-09,株式会社ＫＩＭＵＲＡ　ＣＨＯＵＫＯＫＵ,,株式会社,東京都,武蔵村山市,伊奈平１丁目８１番地の５,,13,223,2080023,,,,,,,2023-05-09,1,,,,,キムラチョウコク,0
1581,6013301050715,新規,0,2023-05-09,2023-05-09,ＴＡＣＨ株式会社,,株式会社,東京都,豊島区,長崎２丁目２９番９号,,13,116,1710051,,,,,,,2023-05-09,1,,,,,ティーエーシーエイチ,0
1585,6020001151438,新規,0,2023-05-09,2023-05-09,アット・レインボー株式会社,,株式会社,神奈川県,横浜市青葉区,美しが丘１丁目１３番地１０吉村ビル１０７号,,14,117,2250002,,,,,,,2023-05-09,1,,,,,,0
1586,6020001151454,新規,0,2023-05-09,2023-05-09,株式会社タスクホールディングス,,株式会社,神奈川県,横浜市西区,花咲町５丁目１３６番地１４,,14,103,2200022,,,,,,,2023-05-09,1,,,,,タスクホールディングス,0
1587,6020001151462,新規,0,2023-05-09,2023-05-09,株式会社Ｃｌｅａｒｈｏｍｅ,,株式会社,神奈川県,横浜市中区,桜木町１丁目１番地７ヒューリックみなとみらい１０階,,14,104,2310062,,,,,,,2023-05-09,1,,,,,クリアホーム,0
1588,6020001151470,新規,0,2023-05-09,2023-05-09,ＬａＶｉｅ株式会社,,株式会社,神奈川県,横浜市港北区,樽町２丁目２－２０－１Ｆ,,14,109,2220001,,,,,,,2023-05-09,1,,,,,ラヴィ,0
1589,6020001151479,新規,0,2023-05-09,2023-05-09,ＫＲＭ株式会社,,株式会社,神奈川県,横浜市戸塚区,平戸５丁目７番４２号,,14,110,2440802,,,,,,,2023-05-09,1,,,,,ケイアールエム,0
1596,6021001078935,新規,0,2023-05-09,2023-05-09,株式会社ＹＯＳＨＩＯＫＡ,,株式会社,神奈川県,相模原市中央区,陽光台６丁目７番２２号２０１,,14,152,2520226,,,,,,,2023-05-09,1,,,,,ヨシオカ,0
1597,6021001078968,新規,0,2023-05-09,2023-05-09,プラントデザインワークス株式会社,,株式会社,神奈川県,相模原市緑区,向原２丁目１０番２４－１号,,14,151,2520104,,,,,,,2023-05-09,1,,,,,プラントデザインワークス,0
1601,6030001153689,新規,0,2023-05-09,2023-05-09,株式会社ａｍｕ　ａｒｃｈｉｔｅｃｔ,,株式会社,埼玉県,三郷市,半田１１５９番地２,,11,237,3410012,,,,,,,2023-05-09,1,,,,,アムアーキテクト,0
1602,6030001153706,新規,0,2023-05-09,2023-05-09,株式会社ツナグル,,株式会社,埼玉県,狭山市,柏原３４８４番地の１３０狭山ニュータウン１０６－６,,11,215,3501335,,,,,,,2023-05-09,1,,,,,ツナグル,0
1603,6030001153730,新規,0,2023-05-09,2023-05-09,みよしＬＩＮＫ株式会社,,株式会社,埼玉県,入間郡三芳町,大字上富１９０５番地２,,11,324,3540045,,,,,,,2023-05-09,1,,,,,ミヨシリンク,0
1605,6030005021248,新規,0,2023-05-09,2023-05-09,特定非営利活動法人ＣＨＧ,,その他の設立登記法人,埼玉県,飯能市,緑町２２番地６,,11,209,3570024,,,,,,,2023-05-09,1,,,,,シーエイチジー,0
1608,6040001128186,新規,0,2023-05-09,2023-05-09,株式会社Ａｎｇｅｌ　Ｖｉｖｉｅｎｎｅ,,株式会社,千葉県,四街道市,大日９３５番地５１,,12,228,2840001,,,,,,,2023-05-09,1,,,,,エンジェルビビアンヌ,0
1609,6040001128244,新規,0,2023-05-09,2023-05-09,株式会社ＩＳ機工,,株式会社,千葉県,千葉市緑区,誉田町２丁目１１番地８２リーフガーデンＩＩＩ１０１号,00130388,12,105,2660005,,,,,,,2023-05-09,1,,,,,アイエスキコウ,0
1610,6040001128252,新規,0,2023-05-09,2023-05-09,ケイク株式会社,,株式会社,千葉県,佐倉市,上志津原３８番地１６,,12,212,2850844,,,,,,,2023-05-09,1,,,,,ケイク,0
1611,6040001128269,新規,0,2023-05-09,2023-05-09,株式会社穐田コーポレーション,,株式会社,千葉県,成田市,七沢３１１番地８,,12,211,2890117,,,,,,,2023-05-09,1,,,,,アキタコーポレーション,0
1612,6040003022528,新規,0,2023-05-09,2023-05-09,ｃａｌｍ合同会社,,合同会社,千葉県,浦安市,明海４丁目２番２－４０２号,,12,227,2790014,,,,,,,2023-05-09,1,,,,,カーム,0
1613,6040003022544,新規,0,2023-05-09,2023-05-09,レクスト合同会社,,合同会社,千葉県,千葉市美浜区,打瀬１丁目６－１－３－１２０９,,12,106,2610013,,,,,,,2023-05-09,1,,,,,レクスト,0
1614,6040003022552,新規,0,2023-05-09,2023-05-09,ＨＭ　ＣＨＩＢＡ合同会社,,合同会社,千葉県,富里市,中沢字松原３２０番２４,,12,233,2860222,,,,,,,2023-05-09,1,,,,,エイチエムチバ,0
1615,6050001052807,新規,0,2023-05-09,2023-05-09,株式会社彰鋼業,,株式会社,茨城県,つくばみらい市,富士見ヶ丘１丁目８番地２,,08,235,3002417,,,,,,,2023-05-09,1,,,,,アキラコウギョウ,0
1627,6070001040413,新規,0,2023-05-09,2023-05-09,株式会社ＫＳＫ,,株式会社,群馬県,館林市,足次町２０３８番地の１,,10,207,3740073,,,,,,,2023-05-09,1,,,,,ケーエスケー,0
1636,6100001036382,新規,0,2023-05-09,2023-05-09,株式会社ｇｒａｃｅ,,株式会社,長野県,茅野市,豊平１１１７番地１,,20,214,3910213,,,,,,,2023-05-09,1,,,,,グレイス,0
1637,6100003007002,新規,0,2023-05-09,2023-05-09,ＭＡＥＺＡＷＡ合同会社,,合同会社,長野県,下伊那郡高森町,吉田２２５８番地１,,20,403,3993102,,,,,,,2023-05-09,1,,,,,マエザワ,0
1640,6110001037520,新規,0,2023-05-09,2023-05-09,総研マテリアル株式会社,,株式会社,新潟県,新潟市秋葉区,古津２４０番地センチュリー眞２０１号,,15,105,9560847,,,,,,,2023-05-09,1,,,,,ソウケンマテリアル,0
1658,6120001254585,新規,0,2023-05-09,2023-05-09,万匯絲綢株式会社,,株式会社,大阪府,大阪市大正区,三軒家西３丁目４番１６号中山ビル３０６Ｂ,,27,108,5510001,,,,,,,2023-05-09,1,,,,,マンカイシルク,0
1659,6120001254619,新規,0,2023-05-09,2023-05-09,株式会社アイ・ポシブル,,株式会社,大阪府,大阪市港区,弁天５丁目６番１１号,,27,107,5520007,,,,,,,2023-05-09,1,,,,,アイポシブル,0
1660,6120001254643,新規,0,2023-05-09,2023-05-09,株式会社ｍｉｎａｔｏ,,株式会社,大阪府,大阪市阿倍野区,阿倍野筋２丁目４番２７号,,27,119,5450052,,,,,,,2023-05-09,1,,,,,ミナト,0
1661,6120001254651,新規,0,2023-05-09,2023-05-09,株式会社龍吉商事,,株式会社,大阪府,大阪市生野区,林寺２丁目８番２号Ｂ１０２,,27,116,5440023,,,,,,,2023-05-09,1,,,,,リュウキチショウジ,0
1662,6120003024004,新規,0,2023-05-09,2023-05-09,合同会社ＣＨＡＲＩＴＹ,,合同会社,大阪府,寝屋川市,高宮新町６番８号ベルドミール２０１,,27,215,5720847,,,,,,,2023-05-09,1,,,,,チャリティー,0
1663,6120003024012,新規,0,2023-05-09,2023-05-09,合同会社ラポール,,合同会社,大阪府,大阪市東住吉区,矢田４丁目１７番１３－１０１号,,27,121,5460023,,,,,,,2023-05-09,1,,,,,ラポール,0
1666,6120101067490,新規,0,2023-05-09,2023-05-09,株式会社山圭エステート,,株式会社,大阪府,藤井寺市,道明寺２丁目３番１７号,,27,226,5830012,,,,,,,2023-05-09,1,,,,,ヤマケイエステート,0
1671,6122001036922,新規,0,2023-05-09,2023-05-09,株式会社テイク,,株式会社,大阪府,柏原市,大正２丁目４－３２,,27,221,5820009,,,,,,,2023-05-09,1,,,,,テイク,0
1684,6140001130058,新規,0,2023-05-09,2023-05-09,株式会社維彩,,株式会社,兵庫県,尼崎市,久々知１丁目１０番７号,,28,202,6610977,,,,,,,2023-05-09,1,,,,,イサイ,0
1685,6140001130074,新規,0,2023-05-09,2023-05-09,川崎建工株式会社,,株式会社,兵庫県,洲本市,五色町都志万歳８２０番地１,,28,205,6561304,,,,,,,2023-05-09,1,,,,,カワサキケンコウ,0
1691,6160001025017,新規,0,2023-05-09,2023-05-09,大友組株式会社,,株式会社,滋賀県,長浜市,木之本町黒田６３３番地３,,25,203,5290426,,,,,,,2023-05-09,1,,,,,オオトモグミ,0
1699,6180001156099,新規,0,2023-05-09,2023-05-09,株式会社Ｊｕｓｔ　Ａｒｒｉｖｅ,,株式会社,愛知県,一宮市,花池２丁目１６番３号,,23,203,4910914,,,,,,,2023-05-09,1,,,,,ジャストアライヴ,0
1700,6180001156198,新規,0,2023-05-09,2023-05-09,株式会社５ｐｅｒｃｅｎｔ,,株式会社,愛知県,名古屋市中村区,名駅３丁目１１番４号ＨＰ名駅ビル２０１,,23,105,4500002,,,,,,,2023-05-09,1,,,,,ゴパーセント,0
1701,6180001156215,新規,0,2023-05-09,2023-05-09,株式会社ソニック,,株式会社,愛知県,名古屋市中村区,名駅３丁目４番１０号アルティメイト名駅１ｓｔ２階,,23,105,4500002,,,,,,,2023-05-09,1,,,,,ソニック,0
1705,6180003025178,新規,0,2023-05-09,2023-05-09,合同会社Ｋ＆Ｃ,,合同会社,愛知県,名古屋市中川区,的場町３丁目５９番地,,23,110,4540862,,,,,,,2023-05-09,1,,,,,ケーアンドシー,0
1706,6180003025194,新規,0,2023-05-09,2023-05-09,合同会社Ｓｅａ　ｂｅａｔ,,合同会社,愛知県,名古屋市緑区,鳴海町字有松裏２００番地,,23,114,4580824,,,,,,,2023-05-09,1,,,,,シービート,0
1712,6180305009473,新規,0,2023-05-09,2023-05-09,医療法人ＭＶＡ,,その他の設立登記法人,愛知県,豊川市,八幡町新堀２４番地,,23,207,4420857,,,,,,,2023-05-09,1,,,,,エムブイエー,0
1713,6190001030369,新規,0,2023-05-09,2023-05-09,株式会社Ｒｉｚｏｔ,,株式会社,三重県,伊勢市,本町１１番５号ニューつやだビル５Ａ,,24,203,5160074,,,,,,,2023-05-09,1,,,,,リゾット,0
1714,6190001030377,新規,0,2023-05-09,2023-05-09,株式会社丸誠,,株式会社,三重県,伊勢市,通町１２３番地３,,24,203,5160012,,,,,,,2023-05-09,1,,,,,マルセイ,0
1716,6190003004313,新規,0,2023-05-09,2023-05-09,Ｂｅｅ　Ｖａｌｌｅｙ　Ｊａｐａｎ合同会社,,合同会社,三重県,伊賀市,西高倉１０８３番地,,24,216,5180025,,,,,,,2023-05-09,1,,,,,ビーバレージャパン,0
1718,6200001041265,新規,0,2023-05-09,2023-05-09,白銀技研株式会社,,株式会社,岐阜県,飛騨市,古川町栄２丁目２番７号,,21,217,5094237,,,,,,,2023-05-09,1,,,,,シロガネギケン,0
1720,6220005008754,新規,0,2023-05-09,2023-05-09,医療法人社団しおのやクリニック,,その他の設立登記法人,石川県,白山市,湊町レ部３３番地１,,17,210,9290217,,,,,,,2023-05-09,1,,,,,シオノヤクリニック,0
1721,6230001019829,新規,0,2023-05-09,2023-05-09,株式会社ＭＥＲＣＩ,,株式会社,富山県,砺波市,庄川町青島１６３－１,,16,208,9320314,,,,,,,2023-05-09,1,,,,,メルシー,0
1725,6240001061474,新規,0,2023-05-09,2023-05-09,株式会社ＡＫＧホールディングス,,株式会社,広島県,安芸郡海田町,日の出町４番１０号,,34,304,7360035,,,,,,,2023-05-09,1,,,,,エーケージーホールディングス,0
1727,6240003006139,新規,0,2023-05-09,2023-05-09,合同会社八千代に,,合同会社,広島県,福山市,熊野町甲１３４－２,,34,207,7200411,,,,,,,2023-05-09,1,,,,,ヤチヨニ,0
1740,6290001101449,新規,0,2023-05-09,2023-05-09,アップイノベーション株式会社,,株式会社,福岡県,福岡市中央区,小笹３丁目７－１９－１００１,,40,133,8100033,,,,,,,2023-05-09,1,,,,,アップイノベーション,0
1741,6290001101457,新規,0,2023-05-09,2023-05-09,株式会社ｍｅｄＩａＴ,,株式会社,福岡県,福岡市中央区,大名２丁目６番１１号,,40,133,8100041,,,,,,,2023-05-09,1,,,,,メディエイト,0
1742,6290001101473,新規,0,2023-05-09,2023-05-09,株式会社ワンフォーオール,,株式会社,福岡県,福岡市博多区,博多駅前４丁目３３番７－４０４号,,40,132,8120011,,,,,,,2023-05-09,1,,,,,ワンフォーオール,0
1743,6290003013881,新規,0,2023-05-09,2023-05-09,ＢＬＵＥ　ＰＲＩＮＴ合同会社,,合同会社,福岡県,福岡市早良区,百道浜３丁目９番３３－２６０１号,,40,137,8140001,,,,,,,2023-05-09,1,,,,,ブループリント,0
1746,6300003001959,新規,0,2023-05-09,2023-05-09,合同会社ちくわ,,合同会社,佐賀県,武雄市,武雄町大字昭和１０番地７,,41,206,8430023,,,,,,,2023-05-09,1,,,,,チクワ,0
1748,6310001018401,新規,0,2023-05-09,2023-05-09,株式会社ソフピク,,株式会社,長崎県,長崎市,かき道４丁目２１番２７号,,42,201,8510115,,,,,,,2023-05-09,1,,,,,ソフピク,0
1751,6310003004564,新規,0,2023-05-09,2023-05-09,武蔵通信合同会社,,合同会社,長崎県,佐世保市,原分町１１６番地９,,42,202,8570103,,,,,,,2023-05-09,1,,,,,ムサシツウシン,0
1754,6320001019737,新規,0,2023-05-09,2023-05-09,株式会社大分クリーンシステム,,株式会社,大分県,大分市,三佐６丁目２番５０号,,44,201,8700108,,,,,,,2023-05-09,1,,,,,オオイタクリーンシステム,0
1755,6320001019745,新規,0,2023-05-09,2023-05-09,ＡＩＲ　ＫＵＲＡＫＯ株式会社,,株式会社,大分県,別府市,朝見２丁目１６番１８号,,44,202,8740812,,,,,,,2023-05-09,1,,,,,エアークラコ,0
1757,6320003004076,新規,0,2023-05-09,2023-05-09,合同会社園田技工,,合同会社,大分県,別府市,大字鶴見３３５８番地の１グリーンパーク９６Ａ棟１０１号,,44,202,8740840,,,,,,,2023-05-09,1,,,,,ソノダギコウ,0
1764,6330001030825,新規,0,2023-05-09,2023-05-09,株式会社ＹＡＭＡＳＡＫＩ,,株式会社,熊本県,熊本市北区,四方寄町１６０８番地５,,43,105,8615515,,,,,,,2023-05-09,1,,,,,ヤマサキ,0
1765,6330001030833,新規,0,2023-05-09,2023-05-09,株式会社菊池建機,,株式会社,熊本県,菊池市,木柑子１３６０番地３８,,43,210,8611315,,,,,,,2023-05-09,1,,,,,キクチケンキ,0
1767,6330005010658,新規,0,2023-05-09,2023-05-09,医療法人宮本会,,その他の設立登記法人,熊本県,八代市,旭中央通１９番地５,,43,202,8660844,,,,,,,2023-05-09,1,,,,,ミヤモトカイ,0
1768,6340003004116,新規,0,2023-05-09,2023-05-09,パイナスビレッジ合同会社,,合同会社,鹿児島県,鹿児島市,西田２丁目２０番８号２階,,46,201,8900046,,,,,,,2023-05-09,1,,,,,パイナスビレッジ,0
1770,6360001031993,新規,0,2023-05-09,2023-05-09,Ｗｅｌｌ株式会社,,株式会社,沖縄県,那覇市,首里崎山町２丁目２４番地１,,47,201,9030814,,,,,,,2023-05-09,1,,,,,ウェル,0
1774,6360003012942,新規,0,2023-05-09,2023-05-09,合同会社三全,,合同会社,沖縄県,浦添市,安波茶１丁目２０番１０号,,47,208,9012114,,,,,,,2023-05-09,1,,,,,ミセン,0
1775,6360005006843,新規,0,2023-05-09,2023-05-09,一般社団法人与座門中,,その他の設立登記法人,沖縄県,糸満市,字国吉１０番地,,47,210,9010324,,,,,,,2023-05-09,1,,,,,ヨザムンチュウ,0
1776,6370003006126,新規,0,2023-05-09,2023-05-09,合同会社奥野雅子心理臨床研究室,,合同会社,宮城県,仙台市青葉区,八幡７丁目２０番２４号,,04,101,9800871,,,,,,,2023-05-09,1,,,,,オクノマサコシンリリンショウケンキュウシツ,0
1784,6450001013974,新規,0,2023-05-09,2023-05-09,株式会社リアファーム,,株式会社,北海道,上川郡剣淵町,旭町１０番地２,,01,465,0980336,,,,,,,2023-05-09,1,,,,,リアファーム,0
1799,7010001234969,新規,0,2023-05-09,2023-05-09,ＡＬＬ　ＭＯＢＩＬＥ株式会社,,株式会社,東京都,中央区,銀座１丁目１２番４号Ｎ＆ＥＢＬＤ．７階,,13,102,1040061,,,,,,,2023-05-09,1,,,,,オールモバイル,0
1800,7010001235059,新規,0,2023-05-09,2023-05-09,株式会社ＩＮＶＩＣＴＵＳ,,株式会社,東京都,中央区,京橋２丁目７番８号ＦＰＧｌｉｎｋｓＫＹＯＢＡＳＨＩ,,13,102,1040031,,,,,,,2023-05-09,1,,,,,インビクタス,0
1801,7010001235067,新規,0,2023-05-09,2023-05-09,ワイグループ株式会社,,株式会社,東京都,中央区,日本橋室町１丁目１１番１２号日本橋水野ビル７階,,13,102,1030022,,,,,,,2023-05-09,1,,,,,ワイグループ,0
1802,7010001235100,新規,0,2023-05-09,2023-05-09,神速キャリアアシスト株式会社,,株式会社,東京都,千代田区,内神田１丁目１５番１６号,,13,101,1010047,,,,,,,2023-05-09,1,,,,,シンソクキャリアアシスト,0
1804,7010003040515,新規,0,2023-05-09,2023-05-09,合同会社すずめパレット,,合同会社,東京都,中央区,銀座１丁目１２－４Ｎ＆ＥＢＬＤ．７階,,13,102,1040061,,,,,,,2023-05-09,1,,,,,スズメパレット,0
1805,7010003040523,新規,0,2023-05-09,2023-05-09,Ｆ＆Ｓ　Ｊａｐａｎ合同会社,,合同会社,東京都,千代田区,丸の内２丁目１番１号明治生命館７階ディーエルエイ・パイパー東京パートナーシップ外国法共同事業法律事務所内,,13,101,1000005,,,,,,,2023-05-09,1,,,,,エフアンドエスジャパン,0
1806,7010005036619,新規,0,2023-05-09,2023-05-09,医療法人社団ＯＨＣ,,その他の設立登記法人,東京都,文京区,関口１丁目２１番１５号プリームス青柳１階,,13,105,1120014,,,,,,,2023-05-09,1,,,,,オーエイチシー,0
1825,7010401173932,新規,0,2023-05-09,2023-05-09,株式会社センザイ,,株式会社,東京都,港区,赤坂２丁目１７－５０,,13,103,1070052,,,,,,,2023-05-09,1,,,,,センザイ,0
1826,7010401174146,新規,0,2023-05-09,2023-05-09,株式会社ジェーズ,,株式会社,東京都,港区,麻布十番２丁目２０番５－４０１号,,13,103,1060045,,,,,,,2023-05-09,1,,,,,ジェーズ,0
1827,7010401174237,新規,0,2023-05-09,2023-05-09,株式会社才谷屋ミュージックパブリシャス,,株式会社,東京都,港区,白金３丁目１番２号白金ＧＮビル３０２,,13,103,1080072,,,,,,,2023-05-09,1,,,,,サイタニヤミュージックパブリシャス,0
1831,7010403030082,新規,0,2023-05-09,2023-05-09,合同会社ＷＡＫＷＡＫ　ＳＴＥＰ,,合同会社,東京都,港区,南青山２丁目２番１５号,,13,103,1070062,,,,,,,2023-05-09,1,,,,,ワクワクステップ,0
1833,7010501050412,新規,0,2023-05-09,2023-05-09,株式会社ＷＡＴＡＲＵ　ＡＲＣＨＩＴＥＣＴＳ,,株式会社,東京都,台東区,北上野１丁目２番１１号ケランビシーデカサラ２０２,,13,106,1100014,,,,,,,2023-05-09,1,,,,,ワタルアーキテクツ,0
1835,7010503006981,新規,0,2023-05-09,2023-05-09,合同会社アトリエ小袖,,合同会社,東京都,台東区,花川戸１丁目５－３若松屋ビル２階,,13,106,1110033,,,,,,,2023-05-09,1,,,,,アトリエコソデ,0
1838,7010601063058,新規,0,2023-05-09,2023-05-09,株式会社長隆,,株式会社,東京都,江東区,扇橋１丁目３番１２－１０２号,,13,108,1350011,,,,,,,2023-05-09,1,,,,,チョウリュウ,0
1840,7010703006682,新規,0,2023-05-09,2023-05-09,合同会社ＨＹＭＴパートナーズ,,合同会社,東京都,品川区,大井７丁目１２－１１,,13,109,1400014,,,,,,,2023-05-09,1,,,,,エイチワイエムティーパートナーズ,0
1841,7010801033926,新規,0,2023-05-09,2023-05-09,Ｏｐｔｉｆｌｏｗ株式会社,,株式会社,東京都,大田区,田園調布本町５２番８号,,13,111,1450072,,,,,,,2023-05-09,1,,,,,オプティフロウ,0
1847,7010901053007,新規,0,2023-05-09,2023-05-09,株式会社正和會,,株式会社,東京都,世田谷区,北沢２丁目３０番１０号瀧本ビル１０４,,13,112,1550031,,,,,,,2023-05-09,1,,,,,セイワカイ,0
1850,7011001154182,新規,0,2023-05-09,2023-05-09,株式会社ＹＨパートナーズ,,株式会社,東京都,渋谷区,神宮前６丁目２３番４号桑野ビル２階,,13,113,1500001,,,,,,,2023-05-09,1,,,,,ワイエイチパートナーズ,0
1851,7011001154240,新規,0,2023-05-09,2023-05-09,株式会社ｒａｐｐｏｒｔ,,株式会社,東京都,目黒区,上目黒３丁目１番８号Ｂｏｕｒｒｅｅ１階,,13,110,1530051,,,,,,,2023-05-09,1,,,,,ラポール,0
1852,7011001154249,新規,0,2023-05-09,2023-05-09,株式会社三野建築構造研究所,,株式会社,東京都,渋谷区,代々木２丁目２６番１０号,,13,113,1510053,,,,,,,2023-05-09,1,,,,,ミノケンチクコウゾウケンキュウジョ,0
1853,7011001154257,新規,0,2023-05-09,2023-05-09,株式会社カンプール,,株式会社,東京都,渋谷区,千駄ヶ谷４丁目３０番６号エビデンワビル３階,,13,113,1510051,,,,,,,2023-05-09,1,,,,,カンプール,0
1854,7011003016785,新規,0,2023-05-09,2023-05-09,合同会社レガテアール,,合同会社,東京都,渋谷区,神宮前６丁目２３番４号桑野ビル２階,,13,113,1500001,,,,,,,2023-05-09,1,,,,,レガテアール,0
1856,7011101102751,新規,0,2023-05-09,2023-05-09,ＢＳＭ株式会社,,株式会社,東京都,新宿区,新宿１丁目７番７号新宿内藤ビル１階,,13,104,1600022,,,,,,,2023-05-09,1,,,,,ビーエスエム,0
1858,7011103013006,新規,0,2023-05-09,2023-05-09,Ｓｕｎｒｉｓｅ合同会社,,合同会社,東京都,新宿区,榎町３４－３榎町ビル７階－１６室,,13,104,1620806,,,,,,,2023-05-09,1,,,,,サンライズ,0
1859,7011103013022,新規,0,2023-05-09,2023-05-09,オンラインライバーエージェント合同会社,,合同会社,東京都,新宿区,西新宿１丁目１４番５号新和ビル３階,,13,104,1600023,,,,,,,2023-05-09,1,,,,,オンラインライバーエージェント,0
1860,7011301028672,新規,0,2023-05-09,2023-05-09,株式会社フェルンウェイ,,株式会社,東京都,杉並区,上高井戸１丁目３番２３号,,13,115,1680074,,,,,,,2023-05-09,1,,,,,,0
1868,7011801042339,新規,0,2023-05-09,2023-05-09,開元株式会社,,株式会社,東京都,足立区,堀之内１丁目１番４号３０１室,,13,121,1230874,,,,,,,2023-05-09,1,,,,,カイゲン,0
1869,7011801042347,新規,0,2023-05-09,2023-05-09,ＥＢＩＳＵ株式会社,,株式会社,東京都,足立区,大谷田１丁目５番９号,,13,121,1200001,,,,,,,2023-05-09,1,,,,,エビス,0
1872,7012401040501,新規,0,2023-05-09,2023-05-09,株式会社ＣＯＵ　ＣＯＵ,,株式会社,東京都,多摩市,落合１丁目７番１２号ライティングビル２０２,,13,224,2060033,,,,,,,2023-05-09,1,,,,,クク,0
1873,7012403005964,新規,0,2023-05-09,2023-05-09,合同会社農プロブレム,,合同会社,東京都,小金井市,東町４丁目３８番２６号３Ｆ,,13,210,1840011,,,,,,,2023-05-09,1,,,,,ノウプロブレム,0
1880,7013301050714,新規,0,2023-05-09,2023-05-09,株式会社Ｓｈｏｗ‐Ｍｏｎ　Ａｒｔ,,株式会社,東京都,豊島区,南池袋２丁目４９番７号池袋パークビル１階,,13,116,1710022,,,,,,,2023-05-09,1,,,,,ショウモンアート,0
1881,7013301050722,新規,0,2023-05-09,2023-05-09,Ｖｏｌａｎｓ株式会社,,株式会社,東京都,豊島区,西池袋４丁目１８番７－６０６号,,13,116,1710021,,,,,,,2023-05-09,1,,,,,ボランス,0
1882,7013301050730,新規,0,2023-05-09,2023-05-09,株式会社ハピネス,,株式会社,東京都,豊島区,池袋２丁目１２番１３号,,13,116,1710014,,,,,,,2023-05-09,1,,,,,ハピネス,0
1888,7020001151429,新規,0,2023-05-09,2023-05-09,株式会社Ｆｒｉｅｎｄ,,株式会社,神奈川県,川崎市川崎区,江川１丁目３番７号ユナイト江川マークトウェイン２０２号室,,14,131,2100823,,,,,,,2023-05-09,1,,,,,フレンド,0
1889,7020001151453,新規,0,2023-05-09,2023-05-09,リバティ・ベル株式会社,,株式会社,神奈川県,横浜市中区,尾上町１丁目４番地１関内ＳＴビル１１階,,14,104,2310015,,,,,,,2023-05-09,1,,,,,リバティベル,0
1890,7020001151461,新規,0,2023-05-09,2023-05-09,株式会社チーム冨田,,株式会社,神奈川県,横浜市青葉区,荏田西３丁目１番地１－７１２,,14,117,2250014,,,,,,,2023-05-09,1,,,,,チームトミタ,0
1891,7020001151478,新規,0,2023-05-09,2023-05-09,株式会社ラピシス,,株式会社,神奈川県,川崎市高津区,溝口３丁目１番７号,,14,134,2130001,,,,,,,2023-05-09,1,,,,,ラピシス,0
1897,7020003023857,新規,0,2023-05-09,2023-05-09,合同会社ベイアウル,,合同会社,神奈川県,横浜市戸塚区,吉田町８８５番地松岡ビル２階,,14,110,2440817,,,,,,,2023-05-09,1,,,,,ベイアウル,0
1898,7020005015984,新規,0,2023-05-09,2023-05-09,一般社団法人ＣｏＩＮ,,その他の設立登記法人,神奈川県,横浜市中区,尾上町１丁目６番ＹＯＸＯＢＯＸオフィス,,14,104,2310015,,,,,,,2023-05-09,1,,,,,コイン,0
1908,7030001153705,新規,0,2023-05-09,2023-05-09,株式会社Ｖｉｔａｌ,,株式会社,埼玉県,比企郡ときがわ町,大字玉川１６０４番地,,11,349,3550342,,,,,,,2023-05-09,1,,,,,バイタル,0
1909,7030001153795,新規,0,2023-05-09,2023-05-09,Ｅｋｔｉｍｏ株式会社,,株式会社,埼玉県,川口市,芝園町１番５号ＡＱＵＡＣＯＡＳＴ２６・２０７号,,11,203,3330853,,,,,,,2023-05-09,1,,,,,エクティモ,0
1913,7030003021686,新規,0,2023-05-09,2023-05-09,島田工業合同会社,,合同会社,埼玉県,本庄市,寿２丁目１１番３７号,,11,211,3670023,,,,,,,2023-05-09,1,,,,,シマダコウギョウ,0
1916,7040001128094,新規,0,2023-05-09,2023-05-09,株式会社ケイワイ・リペアリング,,株式会社,千葉県,市川市,曽谷６丁目３０番１９号,,12,203,2720832,,,,,,,2023-05-09,1,,,,,ケイワイリペアリング,0
1917,7040001128219,新規,0,2023-05-09,2023-05-09,株式会社一葉コンサルティング,,株式会社,千葉県,市原市,五井中央東１丁目１３番地１アルビオンマンション３０２,,12,219,2900054,,,,,,,2023-05-09,1,,,,,ヒトハコンサルティング,0
1918,7040001128243,新規,0,2023-05-09,2023-05-09,ＭＡＤＭＡＸエンターテイメント株式会社,,株式会社,千葉県,船橋市,本町２丁目２５番１７号高橋ビル２０２,,12,204,2730005,,,,,,,2023-05-09,1,,,,,マッドマックスエンターテイメント,0
1919,7040001128251,新規,0,2023-05-09,2023-05-09,ＵＮＩ株式会社,,株式会社,千葉県,八千代市,大和田新田４６７番地８,,12,221,2760046,,,,,,,2023-05-09,1,,,,,ユニ,0
1920,7040001128276,新規,0,2023-05-09,2023-05-09,株式会社みつば,,株式会社,千葉県,千葉市若葉区,小倉台５丁目７番２号,,12,104,2640006,,,,,,,2023-05-09,1,,,,,ミツバ,0
1921,7040001128292,新規,0,2023-05-09,2023-05-09,武大ビルドアップ株式会社,,株式会社,千葉県,市川市,原木３丁目１４番３４号,,12,203,2720004,,,,,,,2023-05-09,1,,,,,タケダイビルドアップ,0
1923,7050001052789,新規,0,2023-05-09,2023-05-09,株式会社ＫＳＮ　ＴＲＡＤＩＮＧ,,株式会社,茨城県,結城市,大字結城１４５８番地３アリス結城第３・４号棟１０２号室,,08,207,3070001,,,,,,,2023-05-09,1,,,,,ケエスエントレーディング,0
1928,7060003004531,新規,0,2023-05-09,2023-05-09,合同会社ＯＲＩＣ‐ＬＡＢ,,合同会社,栃木県,下野市,緑５丁目１１番地４,,09,216,3290433,,,,,,,2023-05-09,1,,,,,オリックラボ,0
1931,7070001040412,新規,0,2023-05-09,2023-05-09,ＯＳＮ株式会社,,株式会社,群馬県,桐生市,新里町新川３９５２番地５,,10,203,3760121,,,,,,,2023-05-09,1,,,,,オーエスエヌ,0
1933,7070003004935,新規,0,2023-05-09,2023-05-09,合同会社エルラック,,合同会社,群馬県,佐波郡玉村町,大字上之手１５４３番地１ダイアパレス県立女子大前１１０３,,10,464,3701127,,,,,,,2023-05-09,1,,,,,エルラック,0
1938,7080003002979,新規,0,2023-05-09,2023-05-09,ＧＯＬＤ　ＢＥＬＬＳ合同会社,,合同会社,静岡県,静岡市駿河区,曲金６丁目６－３０－６０４,,22,102,4228006,,,,,,,2023-05-09,1,,,,,ゴールドベルズ,0
1942,7100001036373,新規,0,2023-05-09,2023-05-09,荒井電設株式会社,,株式会社,長野県,松本市,大字岡田下岡田８５７番地４,,20,202,3900313,,,,,,,2023-05-09,1,,,,,アライデンセツ,0
1945,7100003007001,新規,0,2023-05-09,2023-05-09,すましち合同会社,,合同会社,長野県,北佐久郡軽井沢町,大字長倉４７９３番地,,20,321,3890111,,,,,,,2023-05-09,1,,,,,スマシチ,0
1947,7110001037503,新規,0,2023-05-09,2023-05-09,株式会社滝澤板金,,株式会社,新潟県,上越市,柿崎区三ツ屋浜１９７番地,,15,222,9493256,,,,,,,2023-05-09,1,,,,,タキザワバンキン,0
1957,7120001254584,新規,0,2023-05-09,2023-05-09,日本アルファ製薬株式会社,,株式会社,大阪府,大阪市城東区,蒲生３丁目１５番１２号セザンヌ藤３０５Ａ,,27,118,5360016,,,,,,,2023-05-09,1,,,,,ニホンアルファセイカ,0
1958,7120001254626,新規,0,2023-05-09,2023-05-09,株式会社ドリームコネクト,,株式会社,大阪府,大阪市大正区,泉尾４丁目３番２３号イスズハイツビル,,27,108,5510031,,,,,,,2023-05-09,1,,,,,ドリームコネクト,0
1959,7120001254659,新規,0,2023-05-09,2023-05-09,株式会社エスフラット,,株式会社,大阪府,大阪市西成区,南津守４丁目４番２７－２０３号,,27,122,5570063,,,,,,,2023-05-09,1,,,,,エスフラット,0
1960,7120001254683,新規,0,2023-05-09,2023-05-09,ＴＰ　ｉｎｖｅｓｔｍｅｎｔ株式会社,,株式会社,大阪府,大阪市北区,中崎西１丁目６番１４号,,27,127,5300015,,,,,,,2023-05-09,1,,,,,ティーピーインベストメント,0
1961,7120001254725,新規,0,2023-05-09,2023-05-09,株式会社人平,,株式会社,大阪府,大阪市中央区,安土町２丁目５－１４大棚安土町ビル３０１,,27,128,5410052,,,,,,,2023-05-09,1,,,,,ニンペイ,0
1962,7120001254741,新規,0,2023-05-09,2023-05-09,ＳＯＬ　ＪＡＰＡＮ株式会社,,株式会社,大阪府,大阪市中央区,徳井町１丁目３－８－２０１,,27,128,5400025,,,,,,,2023-05-09,1,,,,,ソルジャパン,0
1965,7120003024003,新規,0,2023-05-09,2023-05-09,合同会社ＤＰＴ,,合同会社,大阪府,大阪市都島区,都島北通１丁目８番２１号,,27,102,5340014,,,,,,,2023-05-09,1,,,,,ディーピーティー,0
1967,7120101067473,新規,0,2023-05-09,2023-05-09,株式会社ＰＳＡ,,株式会社,大阪府,羽曳野市,埴生野１０６４－１０,,27,222,5830866,,,,,,,2023-05-09,1,,,,,ピーエスエー,0
1968,7120101067481,新規,0,2023-05-09,2023-05-09,ＨＯＵＳＥライン株式会社,,株式会社,大阪府,泉佐野市,長滝１２６５番地,,27,213,5980034,,,,,,,2023-05-09,1,,,,,ハウスライン,0
1975,7130005016765,新規,0,2023-05-09,2023-05-09,一般社団法人翔医会,,その他の設立登記法人,京都府,京都市西京区,御陵溝浦町２６番地１４,,26,111,6158231,,,,,,,2023-05-09,1,,,,,ショウイカイ,0
1982,7140001130032,新規,0,2023-05-09,2023-05-09,株式会社アールビーエム,,株式会社,兵庫県,西宮市,鳴尾町１丁目２３番５号コスモ鳴尾１０２号室,,28,204,6638184,,,,,,,2023-05-09,1,,,,,アールビーエム,0
1983,7140001130040,新規,0,2023-05-09,2023-05-09,ＮＳハートフルサービス瀬戸内株式会社,,株式会社,兵庫県,姫路市,広畑区正門通４丁目９番地の６,,28,201,6711116,,,,,,,2023-05-09,1,,,,,エヌエスハートフルサービスセトウチ,0
1984,7140001130049,新規,0,2023-05-09,2023-05-09,株式会社べにや,,株式会社,兵庫県,西宮市,名塩山荘２５番２号,,28,204,6691142,,,,,,,2023-05-09,1,,,,,ベニヤ,0
1985,7140001130057,新規,0,2023-05-09,2023-05-09,株式会社Ｇｌｏｗ,,株式会社,兵庫県,加古川市,加古川町木村５４８番地の９,,28,210,6750038,,,,,,,2023-05-09,1,,,,,グロー,0
1986,7140001130065,新規,0,2023-05-09,2023-05-09,株式会社スパーク,,株式会社,兵庫県,宝塚市,武庫川町６番２６－３２０１号,,28,214,6650844,,,,,,,2023-05-09,1,,,,,スパーク,0
1987,7140001130115,新規,0,2023-05-09,2023-05-09,株式会社新香苑,,株式会社,兵庫県,明石市,新明町９番３７号,,28,203,6730027,,,,,,,2023-05-09,1,,,,,シンコウエン,0
1991,7140003019050,新規,0,2023-05-09,2023-05-09,合同会社スカイ,,合同会社,兵庫県,神戸市北区,京地３丁目１１番地の６,,28,109,6511304,,,,,,,2023-05-09,1,,,,,スカイ,0
1992,7140005026607,新規,0,2023-05-09,2023-05-09,一般社団法人ロードスカイ,,その他の設立登記法人,兵庫県,豊岡市,日高町山本１０１番地の１２,,28,209,6695334,,,,,,,2023-05-09,1,,,,,ロードスカイ,0
1996,7170001017581,新規,0,2023-05-09,2023-05-09,株式会社ＡＬＬ　ＥＹＥＺ　ＯＮ　ＭＥ,,株式会社,和歌山県,橋本市,高野口町向島４５番地の１２,,30,203,6497206,,,,,,,2023-05-09,1,,,,,オールアイズオンミー,0
1998,7180001156107,新規,0,2023-05-09,2023-05-09,株式会社ＩＳＨＩＫＩＳＯ,,株式会社,愛知県,知多郡南知多町,大字内海字山尾５３番地の１,,23,445,4703321,,,,,,,2023-05-09,1,,,,,イシキソウ,0
1999,7180001156180,新規,0,2023-05-09,2023-05-09,株式会社ｎａｇｉ,,株式会社,愛知県,名古屋市千種区,今池３丁目３９番１１号,,23,101,4640850,,,,,,,2023-05-09,1,,,,,ナギ,0
2000,7180001156214,新規,0,2023-05-09,2023-05-09,株式会社ｅｃｈｏ,,株式会社,愛知県,名古屋市中村区,名駅４丁目２４番５号第２森ビル４０１,,23,105,4500002,,,,,,,2023-05-09,1,,,,,エコー,0
2007,7180305009472,新規,0,2023-05-09,2023-05-09,社会保険労務士法人かすがい・くらはし事務所,,その他の設立登記法人,愛知県,豊田市,上挙母３丁目２７番地１,,23,211,4710866,,,,,,,2023-05-09,1,,,,,カスガイクラハシジムショ,0
2009,7190001030376,新規,0,2023-05-09,2023-05-09,大門工業株式会社,,株式会社,三重県,鈴鹿市,平田本町２丁目１２番１３号,,24,207,5130848,,,,,,,2023-05-09,1,,,,,オオカドコウギョウ,0
2010,7190001030392,新規,0,2023-05-09,2023-05-09,株式会社大城Ｅｎｔｅｒｔａｉｎｍｅｎｔ,,株式会社,三重県,鈴鹿市,大池１丁目５番３号,,24,207,5130827,,,,,,,2023-05-09,1,,,,,オオシロエンターテイメント,0
2013,7200001041280,新規,0,2023-05-09,2023-05-09,株式会社Ｌｕｃｋ　Ａｕｔｏ,,株式会社,岐阜県,揖斐郡揖斐川町,白樫３８５番地１,,21,401,5010635,,,,,,,2023-05-09,1,,,,,ラックオート,0
2014,7220001025389,新規,0,2023-05-09,2023-05-09,株式会社ＨＩＫＥ　ＬＡＢＯＲＡＴＯＲＹ,,株式会社,石川県,金沢市,横山町１０番１８‐１号,,17,201,9200922,,,,,,,2023-05-09,1,,,,,ハイクラボラトリー,0
2023,7240001061449,新規,0,2023-05-09,2023-05-09,株式会社ＫＳ企画,,株式会社,広島県,呉市,蒲刈町宮盛２１５番地１,,34,202,7370401,,,,,,,2023-05-09,1,,,,,ケーエスキカク,0
2024,7240001061465,新規,0,2023-05-09,2023-05-09,株式会社ニサワ塗装,,株式会社,広島県,広島市安佐北区,落合２丁目３０番３３号,,34,106,7391731,,,,,,,2023-05-09,1,,,,,ニサワトソウ,0
2025,7240001061481,新規,0,2023-05-09,2023-05-09,株式会社Ｒ’ｓ　ｐａｉｎｔ,,株式会社,広島県,東広島市,黒瀬町小多田１１３１番地グレイスヴィラＢ２０４号,,34,212,7392501,,,,,,,2023-05-09,1,,,,,アールズペイント,0
2034,7260005011225,新規,0,2023-05-09,2023-05-09,倉敷中央司法書士法人,,その他の設立登記法人,岡山県,倉敷市,西中新田６１８番地２,,33,202,7100833,,,,,,,2023-05-09,1,,,,,クラシキチュウオウ,0
2035,7280001008933,新規,0,2023-05-09,2023-05-09,株式会社大田睦協会,,株式会社,島根県,出雲市,上塩冶町７０２番地２６,,32,203,6930022,,,,,,,2023-05-09,1,,,,,,0
2039,7290001101472,新規,0,2023-05-09,2023-05-09,株式会社ＡＫＩＲＡグループ,,株式会社,福岡県,福岡市博多区,冷泉町２－１２ノアーズアーク博多祇園１００２号,,40,132,8120039,,,,,,,2023-05-09,1,,,,,アキラグループ,0
2040,7290003013889,新規,0,2023-05-09,2023-05-09,合同会社ローズスピリッツ,,合同会社,福岡県,福岡市城南区,東油山３丁目３０番２２号,,40,136,8140155,,,,,,,2023-05-09,1,,,,,ローズスピリッツ,0
2042,7290801029509,新規,0,2023-05-09,2023-05-09,ＰａｉｎｔＷｏｒｋｓ株式会社,,株式会社,福岡県,直方市,大字上新入１６８７番地５,,40,204,8220033,,,,,,,2023-05-09,1,,,,,ペイントワークス,0
2043,7300003001958,新規,0,2023-05-09,2023-05-09,合同会社Ｌｉｋｅｍｅ・Ｍ,,合同会社,佐賀県,唐津市,和多田大土井１３番２５号,,41,202,8470083,,,,,,,2023-05-09,1,,,,,ライクミーエム,0
2044,7310001018400,新規,0,2023-05-09,2023-05-09,株式会社ＫＣＤ,,株式会社,長崎県,長崎市,扇町１２番７号,,42,201,8528132,,,,,,,2023-05-09,1,,,,,ケイシーディー,0
2045,7320001019744,新規,0,2023-05-09,2023-05-09,株式会社アルタイル,,株式会社,大分県,大分市,西新地１丁目１番３８号リベラル大洲９０２,,44,201,8700901,,,,,,,2023-05-09,1,,,,,アルタイル,0
2051,7330001030824,新規,0,2023-05-09,2023-05-09,株式会社松浦工業,,株式会社,熊本県,荒尾市,野原４１６番地,,43,204,8640163,,,,,,,2023-05-09,1,,,,,マツウラコウギョウ,0
2052,7330001030832,新規,0,2023-05-09,2023-05-09,ＣＯＣＵＵ株式会社,,株式会社,熊本県,熊本市中央区,上通町８番地２,,43,101,8600845,,,,,,,2023-05-09,1,,,,,コキュウ,0
2056,7350001018339,新規,0,2023-05-09,2023-05-09,ＨＡＰＰＹＷＥＡＲＳ．株式会社,,株式会社,宮崎県,都城市,上長飯町９１号１０番地,,45,202,8850042,,,,,,,2023-05-09,1,,,,,ハッピーウエアーズ,0
2061,7360003012933,新規,0,2023-05-09,2023-05-09,合同会社海心建設,,合同会社,沖縄県,中頭郡北谷町,字吉原４８－６,,47,326,9040105,,,,,,,2023-05-09,1,,,,,カイシンケンセツ,0
2062,7360003012941,新規,0,2023-05-09,2023-05-09,合同会社沖縄あちこーこー,,合同会社,沖縄県,浦添市,伊祖３丁目４番１２号伊々寿スポット２０２号室,,47,208,9012132,,,,,,,2023-05-09,1,,,,,アチコーコー,0
2064,7370001049902,新規,0,2023-05-09,2023-05-09,東北大学共創イニシアティブ株式会社,,株式会社,宮城県,仙台市青葉区,片平２丁目１番１号,,04,101,9800812,,,,,,,2023-05-09,1,,,,,トウホクダイガクキョウソウイニシアティブ,0
2065,7370001049910,新規,0,2023-05-09,2023-05-09,株式会社東北日進堂,,株式会社,宮城県,宮城郡松島町,松島字町内１１２番地,,04,401,9810213,,,,,,,2023-05-09,1,,,,,トウホクニッシンドウ,0
2066,7370001049919,新規,0,2023-05-09,2023-05-09,株式会社ｇａｒｄｅｎ,,株式会社,宮城県,名取市,杜せきのした２丁目２番地の４‐１０１,,04,207,9811227,,,,,,,2023-05-09,1,,,,,ガーデン,0
2068,7370003006117,新規,0,2023-05-09,2023-05-09,東北環境経営合同会社,,合同会社,宮城県,仙台市青葉区,みやぎ台５丁目１２番１４号,,04,101,9893214,,,,,,,2023-05-09,1,,,,,トウホクカンキョウケイエイ,0
2069,7370003006125,新規,0,2023-05-09,2023-05-09,合同会社ジャストワークス,,合同会社,宮城県,亘理郡山元町,浅生原字作田山２番地６６,,04,362,9892203,,,,,,,2023-05-09,1,,,,,ジャストワークス,0
2079,7380001033657,新規,0,2023-05-09,2023-05-09,株式会社ＤＰＣ,,株式会社,福島県,会津若松市,宝町４番２０号,,07,202,9650806,,,,,,,2023-05-09,1,,,,,ディーピーシー,0
2083,7420001018249,新規,0,2023-05-09,2023-05-09,株式会社根城塗装工業,,株式会社,青森県,八戸市,吹上２丁目２２番５４号,,02,203,0310003,,,,,,,2023-05-09,1,,,,,ネジョウトソウコウギョウ,0
2091,7460103001529,新規,0,2023-05-09,2023-05-09,合同会社Ｓｔｒｉｖｅ,,合同会社,北海道,帯広市,西十八条南３丁目２７番６号,,01,207,0800028,,,,,,,2023-05-09,1,,,,,ストライブ,0
2092,7470001019597,新規,0,2023-05-09,2023-05-09,株式会社鴻運,,株式会社,香川県,坂出市,白金町２丁目６番１８－４フロリアーナ白金Ｃ,,37,203,7620042,,,,,,,2023-05-09,1,,,,,コウウン,0
2104,8010001234992,新規,0,2023-05-09,2023-05-09,株式会社デンタルコネクト,,株式会社,東京都,中央区,東日本橋２丁目２０番３号堀津ビル２階,,13,102,1030004,,,,,,,2023-05-09,1,,,,,デンタルコネクト,0
2105,8010001235066,新規,0,2023-05-09,2023-05-09,株式会社魅せ髪,,株式会社,東京都,文京区,千駄木２丁目４６番７号,,13,105,1130022,,,,,,,2023-05-09,1,,,,,ミセガミ,0
2111,8010103002133,新規,0,2023-05-09,2023-05-09,ＹＯＹＯ合同会社,,合同会社,東京都,八王子市,絹ケ丘１丁目３５－８,,13,201,1920912,,,,,,,2023-05-09,1,,,,,ヨヨ,0
2116,8010401174145,新規,0,2023-05-09,2023-05-09,株式会社ＳＥＶＥＮ　ｔｗｏ　ＥＩＧＨＴ,,株式会社,東京都,港区,浜松町１丁目２番４号,,13,103,1050013,,,,,,,2023-05-09,1,,,,,セブントゥエイト,0
2117,8010403030049,新規,0,2023-05-09,2023-05-09,シグマ１合同会社,,合同会社,東京都,港区,元麻布３丁目１番６号,,13,103,1060046,,,,,,,2023-05-09,1,,,,,シグマイチ,0
2122,8010601063049,新規,0,2023-05-09,2023-05-09,株式会社ＮｅｘｔＣａｒｂｏｎ,,株式会社,東京都,墨田区,八広２丁目５０番８－２０１号フルリール墨田,,13,107,1310041,,,,,,,2023-05-09,1,,,,,ネクストカーボン,0
2126,8010701044196,新規,0,2023-05-09,2023-05-09,株式会社アニフィー・ジャパン,,株式会社,東京都,品川区,東品川２丁目２－４３,,13,109,1400002,,,,,,,2023-05-09,1,,,,,アニフィージャパン,0
2127,8010901053006,新規,0,2023-05-09,2023-05-09,赤兎馬ファイナンス株式会社,,株式会社,東京都,世田谷区,玉川田園調布１丁目１４番３号,,13,112,1580085,,,,,,,2023-05-09,1,,,,,セキトバファイナンス,0
2134,8011001154215,新規,0,2023-05-09,2023-05-09,株式会社ＲＥＡ,,株式会社,東京都,目黒区,下目黒４丁目１６番１号,,13,110,1530064,,,,,,,2023-05-09,1,,,,,リア,0
2135,8011001154248,新規,0,2023-05-09,2023-05-09,株式会社ｓｅｍｉ‐１１９２,,株式会社,東京都,渋谷区,桜丘町１８番４号,,13,113,1500031,,,,,,,2023-05-09,1,,,,,セミイチイチキュウニイ,0
2136,8011001154264,新規,0,2023-05-09,2023-05-09,株式会社ｙｏｍｉｃｈｉ,,株式会社,東京都,渋谷区,円山町５番４号フィールＡ渋谷９０９,,13,113,1500044,,,,,,,2023-05-09,1,,,,,ヨミチ,0
2139,8011003016776,新規,0,2023-05-09,2023-05-09,ＭＥＹ合同会社,,合同会社,東京都,渋谷区,神宮前１丁目９番８号ＫＩ－４３８ビル２Ｆ－Ｂ,,13,113,1500001,,,,,,,2023-05-09,1,,,,,メイ,0
2144,8011101102750,新規,0,2023-05-09,2023-05-09,株式会社ｎｏｉｎｄｅｘ,,株式会社,東京都,新宿区,西新宿３丁目３番１３号西新宿水間ビル６Ｆ,,13,104,1600023,,,,,,,2023-05-09,1,,,,,ノーインデックス,0
2145,8011101102767,新規,0,2023-05-09,2023-05-09,株式会社日本医療サービス,,株式会社,東京都,新宿区,新宿６丁目２８番７ＥＡＳＴＣＯＲＴ２階,,13,104,1600022,,,,,,,2023-05-09,1,,,,,ニホンイリョウサービス,0
2147,8011103013021,新規,0,2023-05-09,2023-05-09,Ｚｉｐａｎｇ　Ｐｌｕｓ合同会社,,合同会社,東京都,新宿区,下落合２丁目６番２０号,,13,104,1610033,,,,,,,2023-05-09,1,,,,,ジパングプラス,0
2148,8011105010652,新規,0,2023-05-09,2023-05-09,一般社団法人日本臨床試験倫理審査機構,,その他の設立登記法人,東京都,新宿区,新宿２丁目１２番１３号,,13,104,1600022,,,,,,,2023-05-09,1,,,,,ニホンリンショウシケンリンリシンサキコウ,0
2149,8011403003993,新規,0,2023-05-09,2023-05-09,合同会社Ｍ＆Ｍプランニング,,合同会社,東京都,板橋区,大谷口北町８５－１－５０３,,13,119,1730031,,,,,,,2023-05-09,1,,,,,エムアンドエムプランニング,0
2153,8012401040491,新規,0,2023-05-09,2023-05-09,株式会社長谷川組,,株式会社,東京都,多摩市,中沢１丁目２番地の１０コーポ美山２０２,,13,224,2060036,,,,,,,2023-05-09,1,,,,,ハセガワグミ,0
2154,8012401040500,新規,0,2023-05-09,2023-05-09,株式会社ティエム・トラスト,,株式会社,東京都,調布市,深大寺東町６丁目１７番地１７,,13,208,1820012,,,,,,,2023-05-09,1,,,,,ティエムトラスト,0
2155,8012401040509,新規,0,2023-05-09,2023-05-09,株式会社ＳＵＮ　ＣＲＥＳＴ,,株式会社,東京都,府中市,小柳町５丁目２０－２グランシア１０１,,13,206,1830013,,,,,,,2023-05-09,1,,,,,サンクレスト,0
2156,8012403005971,新規,0,2023-05-09,2023-05-09,ＲＡＴＳ合同会社,,合同会社,東京都,調布市,小島町２丁目５１番地２,,13,208,1820026,,,,,,,2023-05-09,1,,,,,ラッツ,0
2158,8012803003071,新規,0,2023-05-09,2023-05-09,合同会社Ｓ’ａｍｕｓｅｒ,,合同会社,東京都,国分寺市,西元町３丁目５番１０号スカイクレスト１０１,,13,214,1850023,,,,,,,2023-05-09,1,,,,,サミュゼ,0
2162,8020001151428,新規,0,2023-05-09,2023-05-09,株式会社ＭＫＩ,,株式会社,神奈川県,川崎市川崎区,大島３丁目１７番２号サキソウ１０４,,14,131,2100834,,,,,,,2023-05-09,1,,,,,エムケーアイ,0
2163,8020001151436,新規,0,2023-05-09,2023-05-09,株式会社Ｙｓ,,株式会社,神奈川県,川崎市高津区,諏訪１丁目１２番１号,,14,134,2130004,,,,,,,2023-05-09,1,,,,,ワイズ,0
2164,8020001151477,新規,0,2023-05-09,2023-05-09,株式会社山本塗装,,株式会社,神奈川県,横浜市泉区,和泉町３３３番地３,,14,116,2450016,,,,,,,2023-05-09,1,,,,,ヤマモトトソウ,0
2169,8020003023864,新規,0,2023-05-09,2023-05-09,合同会社Ｍｏｎｔｅｒｉｏ,,合同会社,神奈川県,横浜市港北区,大豆戸町５１１番地アールブラン大倉山４０８号室,,14,109,2220032,,,,,,,2023-05-09,1,,,,,モンテリオ,0
2170,8020005015983,新規,0,2023-05-09,2023-05-09,医療法人社団朋仁会,,その他の設立登記法人,神奈川県,横浜市都筑区,茅ケ崎中央１番２号センター南駅光ビル４階,,14,118,2240032,,,,,,,2023-05-09,1,,,,,ホウジンカイ,0
2176,8021003013070,新規,0,2023-05-09,2023-05-09,合同会社ＤＵｓｃｈｏｏｌ,,合同会社,神奈川県,逗子市,桜山６丁目３－１１,,14,208,2490005,,,,,,,2023-05-09,1,,,,,デュースクール,0
2181,8030001153737,新規,0,2023-05-09,2023-05-09,株式会社シーズユニット,,株式会社,埼玉県,草加市,松原５丁目２番６－１号,,11,221,3400041,,,,,,,2023-05-09,1,,,,,シーズユニット,0
2185,8030003021702,新規,0,2023-05-09,2023-05-09,合同会社ユーアイ空調,,合同会社,埼玉県,越谷市,北越谷１丁目２３番１２号,,11,222,3430026,,,,,,,2023-05-09,1,,,,,ユーアイクウチョウ,0
2186,8030005021238,新規,0,2023-05-09,2023-05-09,一般社団法人けやき共創パートナーズ,,その他の設立登記法人,埼玉県,熊谷市,筑波３丁目２０２番地ティアラ２１（４階）,,11,202,3600037,,,,,,,2023-05-09,1,,,,,ケヤキキョウソウパートナーズ,0
2187,8030005021270,新規,0,2023-05-09,2023-05-09,医療法人社団ＫＩＣ,,その他の設立登記法人,埼玉県,川越市,豊田町３丁目１１番地３,,11,201,3501110,,,,,,,2023-05-09,1,,,,,ケイアイシー,0
2190,8040001128218,新規,0,2023-05-09,2023-05-09,株式会社細谷商会,,株式会社,千葉県,市原市,五井６３０２番地１,,12,219,2900056,,,,,,,2023-05-09,1,,,,,ホソヤショウカイ,0
2191,8040001128250,新規,0,2023-05-09,2023-05-09,株式会社ｙｅｍｉｔ,,株式会社,千葉県,市原市,瀬又５６９番地２２３,,12,219,2900151,,,,,,,2023-05-09,1,,,,,イエミット,0
2192,8040001128291,新規,0,2023-05-09,2023-05-09,株式会社セカンドプレイス,,株式会社,千葉県,佐倉市,本町９１－１,,12,212,2850037,,,,,,,2023-05-09,1,,,,,セカンドプレイス,0
2193,8040005021988,新規,0,2023-05-09,2023-05-09,ネクストステップ協同組合,,その他の設立登記法人,千葉県,千葉市中央区,栄町３６番１０号甲南アセット千葉中央ビル８Ｆ,,12,101,2600016,,,,,,,2023-05-09,1,,,,,ネクストステップ,0
2195,8050001052788,新規,0,2023-05-09,2023-05-09,株式会社池澤,,株式会社,茨城県,下妻市,村岡１６６番地１４,,08,210,3040824,,,,,,,2023-05-09,1,,,,,イケザワ,0
2196,8050001052796,新規,0,2023-05-09,2023-05-09,株式会社ＡＪプランニング,,株式会社,茨城県,守谷市,ひがし野１丁目４番地１０,,08,224,3020131,,,,,,,2023-05-09,1,,,,,エージェープランニング,0
2202,8060001035965,新規,0,2023-05-09,2023-05-09,株式会社６Ｅ　ＭＵＳＩＣ,,株式会社,栃木県,下野市,医大前４丁目６番地７,,09,216,3290403,,,,,,,2023-05-09,1,,,,,ロクイーミュージック,0
2203,8060001035973,新規,0,2023-05-09,2023-05-09,株式会社アドベンチャーリンク,,株式会社,栃木県,宇都宮市,簗瀬町１９１０番地１－２１０号,,09,201,3210933,,,,,,,2023-05-09,1,,,,,アドベンチャーリンク,0
2205,8060003004539,新規,0,2023-05-09,2023-05-09,合同会社Ｒｅｇａｌｏ,,合同会社,栃木県,宇都宮市,峰１丁目１３番１１号カーサコリーナ１０３,,09,201,3210942,,,,,,,2023-05-09,1,,,,,レガロ,0
2206,8070001040403,新規,0,2023-05-09,2023-05-09,ＯＳ興業株式会社,,株式会社,群馬県,沼田市,柳町２５２８番地８,,10,206,3780055,,,,,,,2023-05-09,1,,,,,オーエスコウギョウ,0
2213,8080003002978,新規,0,2023-05-09,2023-05-09,合同会社岳南東陵,,合同会社,静岡県,静岡市駿河区,登呂３丁目２９番９号,,22,102,4228033,,,,,,,2023-05-09,1,,,,,ガクナントウリョウ,0
2222,8110001037502,新規,0,2023-05-09,2023-05-09,平成土質株式会社,,株式会社,新潟県,新発田市,真野原外３３６５番地,,15,206,9570232,,,,,,,2023-05-09,1,,,,,ヘイセイドシツ,0
2223,8110001037510,新規,0,2023-05-09,2023-05-09,株式会社丸山隆光園,,株式会社,新潟県,上越市,清里区武士７７５番地１,,15,222,9430515,,,,,,,2023-05-09,1,,,,,マルヤマリュウコウエン,0
2229,8120001254583,新規,0,2023-05-09,2023-05-09,株式会社トレスボ,,株式会社,大阪府,大阪市大正区,三軒家西３丁目４番１６号中山ビル３０９Ｄ,,27,108,5510001,,,,,,,2023-05-09,1,,,,,トレスボ,0
2230,8120001254641,新規,0,2023-05-09,2023-05-09,エス・ライン株式会社,,株式会社,大阪府,大阪市平野区,長吉出戸６丁目３番７号,,27,126,5470011,,,,,,,2023-05-09,1,,,,,エスライン,0
2231,8120001254658,新規,0,2023-05-09,2023-05-09,株式会社Ｌｙｃｋａ,,株式会社,大阪府,大阪市中央区,玉造２丁目１６番２５号,,27,128,5400004,,,,,,,2023-05-09,1,,,,,リッカ,0
2232,8120001254690,新規,0,2023-05-09,2023-05-09,株式会社ＲＩＡＮ,,株式会社,大阪府,寝屋川市,中木田町２０－４,,27,215,5720820,,,,,,,2023-05-09,1,,,,,リアン,0
2233,8120001254724,新規,0,2023-05-09,2023-05-09,Ｈ＆Ｎ株式会社,,株式会社,大阪府,大阪市生野区,林寺２丁目２５番２号２階,,27,116,5440023,,,,,,,2023-05-09,1,,,,,エイチアンドエヌ,0
2241,8120101067480,新規,0,2023-05-09,2023-05-09,株式会社プランニングスタジオ不動産,,株式会社,大阪府,貝塚市,澤４３８番地３,,27,208,5970062,,,,,,,2023-05-09,1,,,,,プランニングスタジオフドウサン,0
2242,8120101067489,新規,0,2023-05-09,2023-05-09,株式会社Ｒ＆Ｅ,,株式会社,大阪府,堺市中区,深井北町９６２番地２６,,27,142,5998271,,,,,,,2023-05-09,1,,,,,アールアンドイー,0
2243,8120101067497,新規,0,2023-05-09,2023-05-09,株式会社市川建設,,株式会社,大阪府,和泉市,黒鳥町２丁目４番１４号,,27,219,5940022,,,,,,,2023-05-09,1,,,,,イチカワケンセツ,0
2249,8120901047483,新規,0,2023-05-09,2023-05-09,株式会社温か,,株式会社,大阪府,箕面市,瀬川４丁目２２番３３－Ａ２号,,27,220,5620045,,,,,,,2023-05-09,1,,,,,アタタカ,0
2254,8130003008697,新規,0,2023-05-09,2023-05-09,Ａｌｌ　Ｂｉｋｅｓ　Ｊａｐａｎ合同会社,,合同会社,京都府,京都市上京区,宮垣町９１－１０２,,26,102,6020853,,,,,,,2023-05-09,1,,,,,オールバイクスジャパン,0
2269,8140001130048,新規,0,2023-05-09,2023-05-09,株式会社レッドストーン,,株式会社,兵庫県,神戸市中央区,中山手通６丁目８番７号,,28,110,6500004,,,,,,,2023-05-09,1,,,,,レッドストーン,0
2270,8140001130056,新規,0,2023-05-09,2023-05-09,株式会社西瀧電気,,株式会社,兵庫県,三田市,富士が丘２丁目１３番地６,,28,219,6691547,,,,,,,2023-05-09,1,,,,,ニシタキデンキ,0
2271,8140001130072,新規,0,2023-05-09,2023-05-09,株式会社進永,,株式会社,兵庫県,神戸市垂水区,福田４丁目２番３２－２号,,28,108,6550013,,,,,,,2023-05-09,1,,,,,シンエイ,0
2272,8140001130080,新規,0,2023-05-09,2023-05-09,株式会社フォアフロント,,株式会社,兵庫県,加古郡播磨町,南大中１丁目１０番３６号,,28,382,6750147,,,,,,,2023-05-09,1,,,,,フォアフロント,0
2273,8140001130114,新規,0,2023-05-09,2023-05-09,株式会社ＭＤＫ,,株式会社,兵庫県,西宮市,荒木町１－３５－１モレスヴィラ一号地,,28,204,6638025,,,,,,,2023-05-09,1,,,,,エムディーケー,0
2278,8150001026377,新規,0,2023-05-09,2023-05-09,株式会社ＤＡＩＭＡＲＵ,,株式会社,奈良県,大和高田市,大字奥田１０番地１,,29,202,6350052,,,,,,,2023-05-09,1,,,,,ダイマル,0
2280,8170001017580,新規,0,2023-05-09,2023-05-09,天晴急送株式会社,,株式会社,和歌山県,橋本市,高野口町向島１３０番地の１,,30,203,6497206,,,,,,,2023-05-09,1,,,,,テンセイキュウソウ,0
2284,8180001156106,新規,0,2023-05-09,2023-05-09,株式会社ｆｕｗａｒｉ,,株式会社,愛知県,江南市,上奈良町郷２３２番地,,23,217,4838258,,,,,,,2023-05-09,1,,,,,フワリ,0
2285,8180001156114,新規,0,2023-05-09,2023-05-09,株式会社ＡＯＳＥＴＳＵ,,株式会社,愛知県,尾張旭市,南原山町石原９９番地２,,23,226,4880067,,,,,,,2023-05-09,1,,,,,アオセツ,0
2286,8180001156155,新規,0,2023-05-09,2023-05-09,株式会社フォース,,株式会社,愛知県,名古屋市天白区,平針５丁目８０４番地,,23,116,4680011,,,,,,,2023-05-09,1,,,,,フォース,0
2287,8180001156205,新規,0,2023-05-09,2023-05-09,株式会社Ｆｉｒｓｔ　Ｃｏｎｔａｃｔ,,株式会社,愛知県,名古屋市中区,栄２丁目１５番４１号プレサンスロジェ栄白川公園７０１号室,,23,106,4600008,,,,,,,2023-05-09,1,,,,,ファーストコンタクト,0
2291,8180003025184,新規,0,2023-05-09,2023-05-09,ユーチ合同会社,,合同会社,愛知県,名古屋市天白区,平針２丁目１８０９番地,,23,116,4680011,,,,,,,2023-05-09,1,,,,,ユーチ,0
2293,8180301037369,新規,0,2023-05-09,2023-05-09,株式会社ベータ,,株式会社,愛知県,岡崎市,東大友町字西浦９２番地１,,23,202,4440903,,,,,,,2023-05-09,1,,,,,ベータ,0
2294,8180301037377,新規,0,2023-05-09,2023-05-09,村田産業株式会社,,株式会社,愛知県,豊橋市,西岩田６丁目５番地１１（Ｃ）,,23,201,4400831,,,,,,,2023-05-09,1,,,,,ムラタサンギョウ,0
2298,8190001030375,新規,0,2023-05-09,2023-05-09,株式会社大空創業,,株式会社,三重県,鈴鹿市,十宮２丁目７番１６号,,24,207,5130037,,,,,,,2023-05-09,1,,,,,ユタカソウギョウ,0
2299,8190001030383,新規,0,2023-05-09,2023-05-09,株式会社三井電気,,株式会社,三重県,志摩市,志摩町和具３３１４番地２,,24,215,5170703,,,,,,,2023-05-09,1,,,,,ミツイデンキ,0
2301,8210001019300,新規,0,2023-05-09,2023-05-09,株式会社ＫＵＲＯＳＡＫＩ　ＫＮＩＶＥＳ,,株式会社,福井県,越前市,池泉町第１９号１３番地の１,,18,209,9150023,,,,,,,2023-05-09,1,,,,,クロサキナイブズ,0
2302,8220001025388,新規,0,2023-05-09,2023-05-09,株式会社池田装藝室,,株式会社,石川県,金沢市,小立野３丁目１３番２０号,,17,201,9200942,,,,,,,2023-05-09,1,,,,,イケダソウゲイシツ,0
2303,8220003003508,新規,0,2023-05-09,2023-05-09,合同会社Ｙ．Ｒｏｓｓａ,,合同会社,石川県,小松市,串町セ１１６番地,,17,203,9230965,,,,,,,2023-05-09,1,,,,,ヤロッサ,0
2306,8240003006129,新規,0,2023-05-09,2023-05-09,合同会社クリエイト,,合同会社,広島県,広島市中区,西平塚町１０番１３号西平塚ビル３０３号,,34,101,7300024,,,,,,,2023-05-09,1,,,,,クリエイト,0
2307,8240003006137,新規,0,2023-05-09,2023-05-09,ＡＤＴＩＥＲ合同会社,,合同会社,広島県,広島市中区,大手町１丁目１番２０号相生橋ビル７階Ａ号室,,34,101,7300051,,,,,,,2023-05-09,1,,,,,アドティア,0
2308,8250001020089,新規,0,2023-05-09,2023-05-09,株式会社くまがいペットクリニック,,株式会社,山口県,宇部市,新天町２丁目１番１３号,,35,202,7550029,,,,,,,2023-05-09,1,,,,,クマガイペットクリニック,0
2313,8260005011224,新規,0,2023-05-09,2023-05-09,一般社団法人ｍｉｍｏｚａ,,その他の設立登記法人,岡山県,井原市,西方町９０２番地１５,,33,207,7150015,,,,,,,2023-05-09,1,,,,,ミモザ,0
2318,8290001101455,新規,0,2023-05-09,2023-05-09,株式会社Ｋ．ＣＲＡＦＴ,,株式会社,福岡県,福岡市東区,原田４丁目１５番１号,,40,131,8120063,,,,,,,2023-05-09,1,,,,,ケイクラフト,0
2324,8290805009654,新規,0,2023-05-09,2023-05-09,一般社団法人福岡県卓球協会,,その他の設立登記法人,福岡県,北九州市八幡西区,樋口町５番１０号オフィスビルＳＡＴＯ２０２,,40,109,8060048,,,,,,,2023-05-09,1,,,,,フクオカケンタッキュウキョウカイ,0
2332,8320001019735,新規,0,2023-05-09,2023-05-09,株式会社フレア,,株式会社,大分県,大分市,中島西２丁目１番２号,,44,201,8700047,,,,,,,2023-05-09,1,,,,,フレア,0
2333,8320001019743,新規,0,2023-05-09,2023-05-09,株式会社雅,,株式会社,大分県,大分市,藤の台２０番地の３,,44,201,8700957,,,,,,,2023-05-09,1,,,,,ミヤビ,0
2336,8330001030823,新規,0,2023-05-09,2023-05-09,株式会社プラムフィールド,,株式会社,熊本県,球磨郡あさぎり町,上東１７６６番地２,,43,514,8680421,,,,,,,2023-05-09,1,,,,,プラムフィールド,0
2337,8330001030831,新規,0,2023-05-09,2023-05-09,株式会社日吉こめ蔵,,株式会社,熊本県,熊本市南区,日吉１丁目７－２６,,43,104,8614109,,,,,,,2023-05-09,1,,,,,ヒヨシコメグラ,0
2340,8330003009840,新規,0,2023-05-09,2023-05-09,合同会社ソフィ,,合同会社,熊本県,熊本市中央区,上通町７番５号,,43,101,8600845,,,,,,,2023-05-09,1,,,,,ソフィ,0
2344,8340001025541,新規,0,2023-05-09,2023-05-09,株式会社田之上農産,,株式会社,鹿児島県,鹿児島市,清和１丁目１８番８号,,46,201,8910109,,,,,,,2023-05-09,1,,,,,タノウエノウサン,0
2347,8350001018338,新規,0,2023-05-09,2023-05-09,悟九ＨＤ株式会社,,株式会社,宮崎県,都城市,都北町５０７０番地,,45,202,8850004,,,,,,,2023-05-09,1,,,,,ゴキュウホールディングス,0
2348,8350005006157,新規,0,2023-05-09,2023-05-09,行政書士法人ステラ,,その他の設立登記法人,宮崎県,宮崎市,大島町馬場尻１８８７番地１５,,45,201,8800824,,,,,,,2023-05-09,1,,,,,ステラ,0
2350,8360001031967,新規,0,2023-05-09,2023-05-09,株式会社ＡＭＴＲ,,株式会社,沖縄県,浦添市,仲西２丁目３番地８号ＳｋｙＨｏｕｓｅ２０２号,,47,208,9012125,,,,,,,2023-05-09,1,,,,,エムティアール,0
2351,8360001031975,新規,0,2023-05-09,2023-05-09,株式会社ミカタ不動産,,株式会社,沖縄県,那覇市,長田２丁目１２番１７号,,47,201,9020077,,,,,,,2023-05-09,1,,,,,ミカタフドウサン,0
2354,8360003012932,新規,0,2023-05-09,2023-05-09,合同会社イサンテ,,合同会社,沖縄県,那覇市,樋川２丁目１１番１－３０１号,,47,201,9000022,,,,,,,2023-05-09,1,,,,,イサンテ,0
2355,8360003012940,新規,0,2023-05-09,2023-05-09,Ｅ．Ｙ．ＰＡＲＫ合同会社,,合同会社,沖縄県,那覇市,おもろまち４丁目１１番１－４０２号おもろシティーコートＧＩＮＯＺＡ,,47,201,9000006,,,,,,,2023-05-09,1,,,,,イーワイパーク,0
2358,8370001049918,新規,0,2023-05-09,2023-05-09,株式会社ＵＬＵ,,株式会社,宮城県,仙台市宮城野区,苦竹２丁目６番２２－１Ｆ,,04,102,9830036,,,,,,,2023-05-09,1,,,,,ウル,0
2359,8370001049926,新規,0,2023-05-09,2023-05-09,株式会社ＳＯＷＬ,,株式会社,宮城県,東松島市,牛網字駅前一丁目９番地９,,04,214,9810301,,,,,,,2023-05-09,1,,,,,ソウル,0
2374,8410001013480,新規,0,2023-05-09,2023-05-09,ＯＫＢ株式会社,,株式会社,秋田県,横手市,杉沢字南杉沢１０１番地１,,05,203,0130001,,,,,,,2023-05-09,1,,,,,オーケービー,0
2376,8420001018248,新規,0,2023-05-09,2023-05-09,株式会社ユナイトＨＤ,,株式会社,青森県,八戸市,下長２丁目１番３３号Ｂ号,,02,203,0391164,,,,,,,2023-05-09,1,,,,,ユナイトエイチディ,0
2377,8420001018256,新規,0,2023-05-09,2023-05-09,株式会社マルサンファーム,,株式会社,青森県,東津軽郡平内町,大字浜子字堀替６３番地５４,,02,301,0393331,,,,,,,2023-05-09,1,,,,,マルサンファーム,0
2383,8470001019605,新規,0,2023-05-09,2023-05-09,晴れたひ動物病院株式会社,,株式会社,香川県,高松市,多肥上町１２１５番地７,,37,201,7618076,,,,,,,2023-05-09,1,,,,,ハレタヒドウブツビョウイン,0
2387,8490001010470,新規,0,2023-05-09,2023-05-09,株式会社ＴＨＤ,,株式会社,高知県,高知市,福井町２４０９番地１２,,39,201,7800965,,,,,,,2023-05-09,1,,,,,ティーエイチディー,0
2396,9010001235049,新規,0,2023-05-09,2023-05-09,ＴＭＰ産業株式会社,,株式会社,東京都,中央区,日本橋１丁目２番１０号東洋ビルディング６階,,13,102,1030027,,,,,,,2023-05-09,1,,,,,ティーエムピーサンギョウ,0
2397,9010001235057,新規,0,2023-05-09,2023-05-09,株式会社Ｂｉｔｔｅｒ　Ｃｈｏｃｏｌａｔｅ,,株式会社,東京都,中央区,銀座１丁目２２番１１号銀座大竹ビジデンス２階,,13,102,1040061,,,,,,,2023-05-09,1,,,,,ビターチョコレート,0
2398,9010001235065,新規,0,2023-05-09,2023-05-09,ややマネジメント株式会社,,株式会社,東京都,文京区,本郷６丁目１８－１１－８０１,,13,105,1130033,,,,,,,2023-05-09,1,,,,,ヤヤマネジメント,0
2399,9010001235073,新規,0,2023-05-09,2023-05-09,Ｔｏｋｙｏ　Ｓｐｏｒｔｓ　Ｗｅｌｌｎｅｓｓ　Ｖｉｌｌａｇｅ株式会社,,株式会社,東京都,中央区,八重洲１丁目４番１６号,,13,102,1030028,,,,,,,2023-05-09,1,,,,,トウキョウスポーツウェルネスビレッジ,0
2400,9010001235098,新規,0,2023-05-09,2023-05-09,銀田製薬株式会社,,株式会社,東京都,中央区,銀座１丁目２７番８号セントラルビル７０３号,,13,102,1040061,,,,,,,2023-05-09,1,,,,,キンダセイヤク,0
2407,9010003040513,新規,0,2023-05-09,2023-05-09,合同会社渋谷神宮前ＩＯ,,合同会社,東京都,千代田区,霞が関３丁目２番５号,,13,101,1000013,,,,,,,2023-05-09,1,,,,,シブヤジングウマエアイオー,0
2410,9010005036625,新規,0,2023-05-09,2023-05-09,社会保険労務士法人シーエフジェイヒューマンリソースパートナーズ,,その他の設立登記法人,東京都,千代田区,神田神保町３丁目２番地１,,13,101,1010051,,,,,,,2023-05-09,1,,,,,シーエフジェイヒューマンリソースパートナーズ,0
2411,9010103002132,新規,0,2023-05-09,2023-05-09,盛＿合同会社,00130391,合同会社,東京都,八王子市,東町１２番１４号八王子ステーションフロント８階,,13,201,1920082,,,,,,,2023-05-09,1,,,,,,0
2414,9010401174144,新規,0,2023-05-09,2023-05-09,株式会社ＶＥＲＹ　ＯＮＥ,,株式会社,東京都,港区,南青山３丁目１－３スプライン青山東急ビル６Ｆ,,13,103,1070062,,,,,,,2023-05-09,1,,,,,ベリーワン,0
2421,9010501050385,新規,0,2023-05-09,2023-05-09,株式会社Ｈｅａｒｔ　Ｐｌａｎｅｔ,,株式会社,東京都,台東区,柳橋１丁目３１番３－１３０３号,,13,106,1110052,,,,,,,2023-05-09,1,,,,,ハートプラネット,0
2423,9010601063064,新規,0,2023-05-09,2023-05-09,株式会社葵メディカルホールディングス,,株式会社,東京都,江東区,辰巳１丁目５番１７号べルタワー３０１,,13,108,1350053,,,,,,,2023-05-09,1,,,,,アオイメディカルホールディングス,0
2425,9010701044195,新規,0,2023-05-09,2023-05-09,株式会社ハーリガー,,株式会社,東京都,品川区,東五反田２丁目１０番１号パークタワーグランスカイ２９１６室,,13,109,1410022,,,,,,,2023-05-09,1,,,,,ハーリガー,0
2429,9010801033932,新規,0,2023-05-09,2023-05-09,株式会社Ｃａｔｔｌｅｙａ,,株式会社,東京都,大田区,西蒲田３丁目５番２号グランティーヌ１０２,,13,111,1440051,,,,,,,2023-05-09,1,,,,,カトレヤ,0
2431,9010803004535,新規,0,2023-05-09,2023-05-09,合同会社ＨＫ,,合同会社,東京都,大田区,千鳥２丁目２２番１３号,,13,111,1460083,,,,,,,2023-05-09,1,,,,,エイチケー,0
2433,9010901052989,新規,0,2023-05-09,2023-05-09,ＮＥＸＵＳ株式会社,,株式会社,東京都,世田谷区,成城３丁目６番９号,,13,112,1570066,,,,,,,2023-05-09,1,,,,,ネクサス,0
2434,9010901052997,新規,0,2023-05-09,2023-05-09,ココネ株式会社,,株式会社,東京都,世田谷区,若林３丁目１番１８号,,13,112,1540023,,,,,,,2023-05-09,1,,,,,ココネ,0
2435,9010901053005,新規,0,2023-05-09,2023-05-09,株式会社ｓｕｓｕｓｕ,,株式会社,東京都,世田谷区,駒沢２丁目２番１６号真中ビル２Ｆ,,13,112,1540012,,,,,,,2023-05-09,1,,,,,ススス,0
2445,9011101102733,新規,0,2023-05-09,2023-05-09,株式会社ラゲット,,株式会社,東京都,新宿区,四谷１丁目２０番ＡＣＥビル５Ｆ,,13,104,1600004,,,,,,,2023-05-09,1,,,,,ラゲット,0
2446,9011101102758,新規,0,2023-05-09,2023-05-09,株式会社オーガニックフーズ,,株式会社,東京都,新宿区,歌舞伎町２丁目２番２１号－５１９号室,,13,104,1600021,,,,,,,2023-05-09,1,,,,,オーガニックフーズ,0
2447,9011101102774,新規,0,2023-05-09,2023-05-09,株式会社太正ＲＩＳＯＵ　ＨＯＵＳＥ不動産,,株式会社,東京都,新宿区,大久保２丁目１６番２０号,,13,104,1690072,,,,,,,2023-05-09,1,,,,,タイショウリソウハウスフドウサン,0
2450,9011103013012,新規,0,2023-05-09,2023-05-09,Ｎｅｗ　Ｓｐａｒｋ　Ｃｏｎｓｕｌｔｉｎｇ合同会社,,合同会社,東京都,新宿区,西新宿７丁目５番１３号第３工新ビル７０１号室,,13,104,1600023,,,,,,,2023-05-09,1,,,,,ニュースパークコンサルティング,0
2451,9011105010651,新規,0,2023-05-09,2023-05-09,あかり社会保険労務士法人,,その他の設立登記法人,東京都,新宿区,西新宿７丁目１７番７号廣田ビル３階,,13,104,1600023,,,,,,,2023-05-09,1,,,,,アカリ,0
2453,9011301028679,新規,0,2023-05-09,2023-05-09,株式会社ＬＵＡＮＡ,,株式会社,東京都,杉並区,阿佐谷北２丁目１３番１３号,,13,115,1660001,,,,,,,2023-05-09,1,,,,,,0
2454,9011303004744,新規,0,2023-05-09,2023-05-09,合同会社ノイエ,,合同会社,東京都,杉並区,高井戸東２丁目８番１４号,,13,115,1680072,,,,,,,2023-05-09,1,,,,,ノイエ,0
2456,9011401025097,新規,0,2023-05-09,2023-05-09,株式会社ラストワンマイル革命,,株式会社,東京都,板橋区,成増５丁目２番１２号,,13,119,1750094,,,,,,,2023-05-09,1,,,,,ラストワンマイルカクメイ,0
2463,9011801042353,新規,0,2023-05-09,2023-05-09,ＴＫトレーディング株式会社,,株式会社,東京都,葛飾区,四つ木１丁目２９番１４号,,13,122,1240011,,,,,,,2023-05-09,1,,,,,ティーケイトレーディング,0
2464,9011803005630,新規,0,2023-05-09,2023-05-09,ａｔ　Ｊｏｙｔｒａｃｔ合同会社,,合同会社,東京都,葛飾区,東立石２丁目２５番９号東立石ルートストレージ０３,,13,122,1240013,,,,,,,2023-05-09,1,,,,,アットジョイトラクト,0
2465,9012401040490,新規,0,2023-05-09,2023-05-09,ｐｉｃｔｕｒｅ株式会社,,株式会社,東京都,多摩市,関戸３丁目１４番地３４グランドコート関戸３０１,,13,224,2060011,,,,,,,2023-05-09,1,,,,,ピクチャー,0
2467,9012403005979,新規,0,2023-05-09,2023-05-09,春樹合同会社,,合同会社,東京都,調布市,国領町１丁目３番地１１－３０２,,13,208,1820022,,,,,,,2023-05-09,1,,,,,ハルキ,0
2471,9013301050712,新規,0,2023-05-09,2023-05-09,アクトクルー株式会社,,株式会社,東京都,豊島区,南大塚３丁目４３番５－８０１号,,13,116,1700005,,,,,,,2023-05-09,1,,,,,アクトクルー,0
2472,9013301050720,新規,0,2023-05-09,2023-05-09,株式会社ＺＥＲＯ,,株式会社,東京都,豊島区,池袋本町１丁目３２番３－４０２号,,13,116,1700011,,,,,,,2023-05-09,1,,,,,ゼロ,0
2475,9020001151451,新規,0,2023-05-09,2023-05-09,生き甲斐株式会社,,株式会社,神奈川県,横浜市保土ケ谷区,上菅田町４０１番地１,,14,106,2400051,,,,,,,2023-05-09,1,,,,,イキガイ,0
2480,9020003023855,新規,0,2023-05-09,2023-05-09,合同会社エルムトーア,,合同会社,神奈川県,横浜市中区,西之谷町７８番地１２,,14,104,2310844,,,,,,,2023-05-09,1,,,,,エルムトーア,0
2481,9020003023863,新規,0,2023-05-09,2023-05-09,ＲＡＩＳＥ合同会社,,合同会社,神奈川県,川崎市川崎区,藤崎３丁目６－１６,,14,131,2100804,,,,,,,2023-05-09,1,,,,,レイズ,0
2492,9030001153629,新規,0,2023-05-09,2023-05-09,ベジラボ株式会社,,株式会社,埼玉県,所沢市,大字中富９６３－２,,11,208,3590002,,,,,,,2023-05-09,1,,,,,ベジラボ,0
2493,9030001153686,新規,0,2023-05-09,2023-05-09,株式会社ＩＫＥＤＡ商事,,株式会社,埼玉県,志木市,本町５丁目１７番５－１１０１号,,11,228,3530004,,,,,,,2023-05-09,1,,,,,イケダショウジ,0
2494,9030001153703,新規,0,2023-05-09,2023-05-09,株式会社アミスターＭ．Ｔ,,株式会社,埼玉県,所沢市,東所沢１丁目１６番地の８、３階,,11,208,3590021,,,,,,,2023-05-09,1,,,,,アミスターエムティー,0
2499,9030003021718,新規,0,2023-05-09,2023-05-09,ＴＫ合同会社,,合同会社,埼玉県,戸田市,笹目２丁目２番地の３－１０１号室,,11,224,3350034,,,,,,,2023-05-09,1,,,,,ティーケー,0
2500,9030005021237,新規,0,2023-05-09,2023-05-09,医療法人Ｕｐｒｉｇｈｔ,,その他の設立登記法人,埼玉県,飯能市,大字双柳１２４８番地６,,11,209,3570021,,,,,,,2023-05-09,1,,,,,アップライト,0
2501,9030005021253,新規,0,2023-05-09,2023-05-09,医療法人社団慶優会,,その他の設立登記法人,埼玉県,越谷市,千間台西３丁目３番地３７ドラッグコスモスせんげん台店２階,,11,222,3430041,,,,,,,2023-05-09,1,,,,,ケイユウカイ,0
2502,9040001128183,新規,0,2023-05-09,2023-05-09,株式会社Ｌａｕｇｈ‐Ｏ‐Ｇｒａｍ,,株式会社,千葉県,市川市,鬼高２丁目２１番３１－５１２号,,12,203,2720015,,,,,,,2023-05-09,1,,,,,ラフォグラム,0
2503,9040001128200,新規,0,2023-05-09,2023-05-09,株式会社Ｅｃｏ　Ｐｌｕｓ,,株式会社,千葉県,長生郡長生村,七井土１４６９,,12,423,2994333,,,,,,,2023-05-09,1,,,,,エコプラス,0
2504,9040001128266,新規,0,2023-05-09,2023-05-09,Ｓ＆Ｈコンサルティングパートナーズ株式会社,,株式会社,千葉県,野田市,光葉町２丁目１６番地の１８,,12,208,2780057,,,,,,,2023-05-09,1,,,,,エスアンドエイチコンサルティングパートナーズ,0
2505,9040001128299,新規,0,2023-05-09,2023-05-09,株式会社ユニメイク,,株式会社,千葉県,柏市,十余二２５４番地９１３,,12,217,2770872,,,,,,,2023-05-09,1,,,,,ユニメイク,0
2509,9040003022442,新規,0,2023-05-09,2023-05-09,合同会社サクット,,合同会社,千葉県,市川市,大和田２丁目８番１４号,,12,203,2720025,,,,,,,2023-05-09,1,,,,,サクット,0
2512,9050003007475,新規,0,2023-05-09,2023-05-09,合同会社メディカルジロー,,合同会社,茨城県,水戸市,元吉田町２６０７番地の４,,08,201,3100836,,,,,,,2023-05-09,1,,,,,メディカルジロー,0
2515,9060003004538,新規,0,2023-05-09,2023-05-09,合同会社Ｎプランナー,,合同会社,栃木県,小山市,東城南２丁目９番地５南マンション２０３号室,,09,208,3230829,,,,,,,2023-05-09,1,,,,,エヌプランナー,0
2516,9070001040410,新規,0,2023-05-09,2023-05-09,株式会社マイネット不動産,,株式会社,群馬県,邑楽郡大泉町,東小泉２丁目９番９号,,10,524,3700513,,,,,,,2023-05-09,1,,,,,マイネットフドウサン,0
2517,9070001040427,新規,0,2023-05-09,2023-05-09,株式会社在る森のはなし,,株式会社,群馬県,吾妻郡高山村,大字尻高５５８番地２,,10,428,3770701,,,,,,,2023-05-09,1,,,,,アルモリノハナシ,0
2521,9080001025609,新規,0,2023-05-09,2023-05-09,ＷＥＬＡ株式会社,,株式会社,静岡県,静岡市駿河区,中原７１３番地,,22,102,4228058,,,,,,,2023-05-09,1,,,,,ウェラ,0
2525,9110001037501,新規,0,2023-05-09,2023-05-09,技心株式会社,,株式会社,新潟県,三条市,直江町４丁目１３番９号,,15,204,9550832,,,,,,,2023-05-09,1,,,,,ギシン,0
2526,9110001037518,新規,0,2023-05-09,2023-05-09,株式会社アトラス,,株式会社,新潟県,新潟市秋葉区,古田２丁目２０番２７号,,15,105,9560025,,,,,,,2023-05-09,1,,,,,アトラス,0
2527,9110005016947,新規,0,2023-05-09,2023-05-09,社会保険労務士法人アイビーウィル,,その他の設立登記法人,新潟県,新潟市中央区,神道寺南２丁目７番４３号,,15,103,9500986,,,,,,,2023-05-09,1,,,,,アイビーウィル,0
2537,9120001254582,新規,0,2023-05-09,2023-05-09,通標株式会社,,株式会社,大阪府,大阪市大正区,三軒家西３丁目４番１６号中山ビル４０１Ａ,,27,108,5510001,,,,,,,2023-05-09,1,,,,,ツウヒョウ,0
2538,9120001254616,新規,0,2023-05-09,2023-05-09,朴井産業株式会社,,株式会社,大阪府,門真市,北島町５番５号,,27,223,5710026,,,,,,,2023-05-09,1,,,,,ボクイサンギョウ,0
2539,9120001254624,新規,0,2023-05-09,2023-05-09,株式会社辻富,00130387,株式会社,大阪府,守口市,大日町２丁目２３番１０号,,27,209,5700003,,,,,,,2023-05-09,1,,,,,ツジトミ,0
2540,9120001254649,新規,0,2023-05-09,2023-05-09,マルカジャパン株式会社,,株式会社,大阪府,大阪市中央区,南船場４丁目１４番１号,,27,128,5420081,,,,,,,2023-05-09,1,,,,,マルカジャパン,0
2541,9120001254657,新規,0,2023-05-09,2023-05-09,株式会社クリーンエナジーラボ,,株式会社,大阪府,大阪市北区,神山町１５番１５号,,27,127,5300026,,,,,,,2023-05-09,1,,,,,クリーンエナジーラボ,0
2542,9120001254665,新規,0,2023-05-09,2023-05-09,石堂株式会社,,株式会社,大阪府,門真市,宮野町１４－１ヴィラナリー大和田２０４,,27,223,5710062,,,,,,,2023-05-09,1,,,,,セキドウ,0
2546,9120003024018,新規,0,2023-05-09,2023-05-09,合同会社三歩道,,合同会社,大阪府,大阪市都島区,都島南通２丁目１番４号１４０７号室,,27,102,5340023,,,,,,,2023-05-09,1,,,,,サンポドウ,0
2548,9120005023612,新規,0,2023-05-09,2023-05-09,一般社団法人ＥａｒｓＢｏｘ,,その他の設立登記法人,大阪府,大阪市平野区,平野上町２丁目５－２３－１０２,,27,126,5470045,,,,,,,2023-05-09,1,,,,,イアーズボックス,0
2553,9120101067496,新規,0,2023-05-09,2023-05-09,株式会社Ｎｅｘｔ　Ｐｌｕｓ,,株式会社,大阪府,堺市中区,大野芝町７５番地７,,27,142,5998233,,,,,,,2023-05-09,1,,,,,ネクストプラス,0
2554,9120103005207,新規,0,2023-05-09,2023-05-09,好天合同会社,,合同会社,大阪府,堺市南区,三原台１丁２番２－５０２号,,27,145,5900111,,,,,,,2023-05-09,1,,,,,コウテン,0
2555,9120901047499,新規,0,2023-05-09,2023-05-09,住まいのｃａｓａ株式会社,,株式会社,大阪府,茨木市,橋の内２丁目８番１３号シャトーヨシダ３０５号室,,27,211,5670805,,,,,,,2023-05-09,1,,,,,スマイノカーサ,0
2556,9122001036952,新規,0,2023-05-09,2023-05-09,株式会社新星,,株式会社,大阪府,大東市,南郷町２番２９－１０４号,,27,218,5740063,,,,,,,2023-05-09,1,,,,,シンセイ,0
2557,9130001074261,新規,0,2023-05-09,2023-05-09,株式会社京都スマホ屋さん,,株式会社,京都府,京都市下京区,鶏鉾町４９３番地ムーンバットビル７階,,26,106,6008491,,,,,,,2023-05-09,1,,,,,キョウトスマホヤサン,0
2561,9140001130039,新規,0,2023-05-09,2023-05-09,ＭＯＨＩＮＡＮＩ　ＦＡＭＩＬＹ　ＯＦＦＩＣＥ株式会社,,株式会社,兵庫県,神戸市灘区,篠原本町３丁目６番１１号１０１,,28,102,6570067,,,,,,,2023-05-09,1,,,,,モヒナニファミリーオフィス,0
2562,9140001130055,新規,0,2023-05-09,2023-05-09,レインズ株式会社,,株式会社,兵庫県,神戸市中央区,北長狭通５丁目１－２１,,28,110,6500012,,,,,,,2023-05-09,1,,,,,レインズ,0
2563,9140003019049,新規,0,2023-05-09,2023-05-09,合同会社もとまち不動産,,合同会社,兵庫県,神戸市中央区,下山手通４丁目６番１１号,,28,110,6500011,,,,,,,2023-05-09,1,,,,,モトマチフドウサン,0
2565,9140005026605,新規,0,2023-05-09,2023-05-09,一般社団法人全国現代仏教振興協会,,その他の設立登記法人,兵庫県,洲本市,五色町都志米山３６番地,,28,205,6561302,,,,,,,2023-05-09,1,,,,,ゼンコクゲンダイブッキョウシンコウキョウカイ,0
2566,9160001025014,新規,0,2023-05-09,2023-05-09,ＳＴＫ株式会社,,株式会社,滋賀県,愛知郡愛荘町,栗田２１６番地１,,25,425,5291225,,,,,,,2023-05-09,1,,,,,エスティーケイ,0
2574,9180001156105,新規,0,2023-05-09,2023-05-09,株式会社加藤技研,,株式会社,愛知県,名古屋市緑区,浦里３丁目６９番地,,23,114,4580847,,,,,,,2023-05-09,1,,,,,カトウギケン,0
2575,9180001156121,新規,0,2023-05-09,2023-05-09,Ｊｏｌｉｅｓ株式会社,,株式会社,愛知県,一宮市,今伊勢町本神戸字河原４６番地,,23,203,4910053,,,,,,,2023-05-09,1,,,,,ジョリス,0
2576,9180001156195,新規,0,2023-05-09,2023-05-09,オーララ株式会社,,株式会社,愛知県,一宮市,栄４丁目５番１１号リテイル２Ａ,,23,203,4910858,,,,,,,2023-05-09,1,,,,,オーララ,0
2579,9180003025183,新規,0,2023-05-09,2023-05-09,ミーチ合同会社,,合同会社,愛知県,名古屋市天白区,平針２丁目１８０９番地,,23,116,4680011,,,,,,,2023-05-09,1,,,,,ミーチ,0
2580,9180003025191,新規,0,2023-05-09,2023-05-09,Ｈ・Ｍ合同会社,,合同会社,愛知県,清須市,西枇杷島町古城１丁目１７番地８,,23,233,4520001,,,,,,,2023-05-09,1,,,,,エイチエム,0
2588,9210001019299,新規,0,2023-05-09,2023-05-09,株式会社忠建築,,株式会社,福井県,小浜市,中井第５０号７番地の１,,18,204,9170036,,,,,,,2023-05-09,1,,,,,タダシケンチク,0
2595,9230005009303,新規,0,2023-05-09,2023-05-09,医療法人社団有仁会,,その他の設立登記法人,富山県,富山市,神通本町１丁目７－１５,,16,201,9300008,,,,,,,2023-05-09,1,,,,,ユウジンカイ,0
2597,9240001061463,新規,0,2023-05-09,2023-05-09,七心ロジスティクス株式会社,,株式会社,広島県,広島市西区,草津本町１４番１７号,,34,104,7330865,,,,,,,2023-05-09,1,,,,,ナナシンロジスティクス,0
2599,9240003006128,新規,0,2023-05-09,2023-05-09,合同会社ＳＳＤ,,合同会社,広島県,福山市,南手城町１丁目１７番１１号,,34,207,7210963,,,,,,,2023-05-09,1,,,,,エスエスディー,0
2601,9250001020088,新規,0,2023-05-09,2023-05-09,株式会社塩道電工,,株式会社,山口県,宇部市,南浜町２丁目８番３５－１０１号,,35,202,7550063,,,,,,,2023-05-09,1,,,,,シオミチデンコウ,0
2605,9260001037932,新規,0,2023-05-09,2023-05-09,Ｒａｒａｒａ株式会社,,株式会社,岡山県,倉敷市,茶屋町早沖７９６番地,,33,202,7101102,,,,,,,2023-05-09,1,,,,,ラララ,0
2610,9280001008931,新規,0,2023-05-09,2023-05-09,ひので株式会社,,株式会社,島根県,大田市,大田町大田イ７１番地１３,,32,205,6940064,,,,,,,2023-05-09,1,,,,,ヒノデ,0
2614,9290001101421,新規,0,2023-05-09,2023-05-09,株式会社システム・ラボ,,株式会社,福岡県,福岡市南区,的場１丁目１４番１－４０１号,,40,134,8111314,,,,,,,2023-05-09,1,,,,,システムラボ,0
2615,9290001101454,新規,0,2023-05-09,2023-05-09,株式会社虹建,,株式会社,福岡県,嘉麻市,口春２３６番地１,,40,227,8200207,,,,,,,2023-05-09,1,,,,,ニジケン,0
2624,9300005007142,新規,0,2023-05-09,2023-05-09,医療法人永晴会,,その他の設立登記法人,佐賀県,鹿島市,大字納富分１３５０番地１,,41,207,8491312,,,,,,,2023-05-09,1,,,,,エイセイカイ,0
2627,9310003004561,新規,0,2023-05-09,2023-05-09,合同会社ＴＯＲＩＭＩＡ,,合同会社,長崎県,長崎市,さくらの里２丁目２５番２５号,,42,201,8512207,,,,,,,2023-05-09,1,,,,,トリミア,0
2628,9320001019742,新規,0,2023-05-09,2023-05-09,大分機電工業株式会社,,株式会社,大分県,大分市,大字政所３４２７番地の１０,,44,201,8700268,,,,,,,2023-05-09,1,,,,,,0
2629,9320001019750,新規,0,2023-05-09,2023-05-09,株式会社ＳＫ不動産,,株式会社,大分県,大分市,中島西１丁目７番１９号,,44,201,8700047,,,,,,,2023-05-09,1,,,,,エスケイフドウサン,0
2636,9330003009823,新規,0,2023-05-09,2023-05-09,合同会社ＲＥＩＭＥＩ,,合同会社,熊本県,熊本市北区,八景水谷３丁目７番４６号,,43,105,8618064,,,,,,,2023-05-09,1,,,,,レイメイ,0
2637,9330005010655,新規,0,2023-05-09,2023-05-09,一般財団法人鳴鳳堂文化基金会,,その他の設立登記法人,熊本県,阿蘇市,永草字堤１９４３番２８号,,43,214,8692231,,,,,,,2023-05-09,1,,,,,メイホウドウブンカキキンカイ,0
2639,9340001025532,新規,0,2023-05-09,2023-05-09,株式会社ＮＡＮＴＡＮ,,株式会社,鹿児島県,奄美市,名瀬朝仁新町９番地３,,46,222,8940041,,,,,,,2023-05-09,1,,,,,ナンタン,0
2645,9360001031966,新規,0,2023-05-09,2023-05-09,株式会社久貝組,,株式会社,沖縄県,南城市,佐敷字冨祖崎２３７番地２,,47,215,9011404,,,,,,,2023-05-09,1,,,,,クガイグミ,0
2646,9360001031982,新規,0,2023-05-09,2023-05-09,株式会社ここちペアリング,,株式会社,沖縄県,浦添市,城間３丁目４番８号,,47,208,9012133,,,,,,,2023-05-09,1,,,,,ココチペアリング,0
2653,9370001049909,新規,0,2023-05-09,2023-05-09,株式会社Ｎ‐ｓｙｓｔｅｍ,,株式会社,宮城県,多賀城市,新田字後１１番地の４,,04,209,9850854,,,,,,,2023-05-09,1,,,,,エヌシステム,0
2654,9370001049917,新規,0,2023-05-09,2023-05-09,ＮＨＣ東北株式会社,,株式会社,宮城県,仙台市青葉区,堤通雨宮町２番２１号クラッセ雨宮ビル４階,,04,101,9810914,,,,,,,2023-05-09,1,,,,,エヌエイチシートウホク,0
2655,9370001049925,新規,0,2023-05-09,2023-05-09,株式会社ラジテック,,株式会社,宮城県,仙台市太白区,泉崎２丁目１５－１８－１０３,,04,104,9820031,,,,,,,2023-05-09,1,,,,,ラジテック,0
2657,9400001016236,新規,0,2023-05-09,2023-05-09,株式会社プリンス,,株式会社,岩手県,下閉伊郡岩泉町,岩泉字中家２６番地１,,03,483,0270501,,,,,,,2023-05-09,1,,,,,プリンス,0
2658,9410003003792,新規,0,2023-05-09,2023-05-09,合同会社なかよつばファーム,,合同会社,秋田県,秋田市,上新城中字家ノ後２１０番地,,05,201,0100136,,,,,,,2023-05-09,1,,,,,ナカヨツバファーム,0
2659,9420003002711,新規,0,2023-05-09,2023-05-09,合同会社ロック,,合同会社,青森県,八戸市,柏崎２丁目１番１６号,,02,203,0310081,,,,,,,2023-05-09,1,,,,,ロック,0
2663,9430003015010,新規,0,2023-05-09,2023-05-09,合同会社ＨＫフロンティア,,合同会社,北海道,札幌市中央区,南十九条西１４丁目２番３５号,,01,101,0640919,,,,,,,2023-05-09,1,,,,,エイチケイフロンティア,0
2664,9440001009252,新規,0,2023-05-09,2023-05-09,３ｄａｙｓグループ株式会社,,株式会社,北海道,茅部郡森町,字駒ケ岳４５９番地９,,01,345,0492141,,,,,,,2023-05-09,1,,,,,スリーデイズグループ,0
2665,9450005004372,新規,0,2023-05-09,2023-05-09,一般社団法人ネクシスＬａｂｏ,,その他の設立登記法人,北海道,旭川市,永山四条２丁目３番１０号,,01,204,0798414,,,,,,,2023-05-09,1,,,,,ネクシスラボ,0
2670,9470001019604,新規,0,2023-05-09,2023-05-09,株式会社フーズネットワーク,,株式会社,香川県,三豊市,豊中町本山甲９６番地１,,37,208,7691506,,,,,,,2023-05-09,1,,,,,フーズネットワーク,0
2672,9490003001772,新規,0,2023-05-09,2023-05-09,合同会社ＳＡＮＰＯ,,合同会社,高知県,宿毛市,幸町５番３号,,39,208,7880003,,,,,,,2023-05-09,1,,,,,サンポ,0
2675,9500005008608,新規,0,2023-05-09,2023-05-09,特定非営利活動法人すばる,,その他の設立登記法人,愛媛県,西条市,小松町新屋敷甲３０９６番地４０ジョイおれんじ１Ｂ,,38,206,7991101,,,,,,,2023-05-09,1,,,,,スバル,0
