sequenceNumber,corporateNumber,process,correct,updateDate,changeDate,name,nameImageId,kind,prefectureName,cityName,streetNumber,addressImageId,prefectureCode,cityCode,postCode,addressOutside,addressOutsideImageId,closeDate,closeCause,successorCorporateNumber,changeCause,assignmentDate,latest,enName,enPrefectureName,enCityName,enAddressOutside,furigana,hihyoji
66,1012401024179,登記記録の閉鎖等,0,2022-07-15,2022-07-12,ひぐち企画株式会社,,株式会社,東京都,武蔵野市,吉祥寺東町３丁目４番５号,,13,203,1800002,,,2022-07-12,清算の結了等,,,2015-10-05,1,,,,,ヒグチキカク,0
71,1012701009375,登記記録の閉鎖等,0,2022-07-15,2022-07-11,株式会社ガフウ,,株式会社,東京都,東村山市,本町２丁目２０番地１４,,13,213,1890014,,,2022-07-11,清算の結了等,,,2015-10-05,1,,,,,ガフウ,0
93,1021001047424,登記記録の閉鎖等,0,2022-07-15,2022-07-06,株式会社Ｂｏｈｍ　Ｃｏｎｓｕｌｔａｎｔｓ,,株式会社,神奈川県,鎌倉市,鎌倉山２丁目１０番１８号,,14,204,2480031,,,2022-07-06,清算の結了等,,,2015-10-05,1,,,,,ボーンコンサルタンツ,0
96,1030001014912,登記記録の閉鎖等,0,2022-07-15,2022-07-01,株式会社スマイルスタッフ,,株式会社,埼玉県,川口市,飯塚１丁目２番１６号,,11,203,3320023,,,2022-07-01,合併による解散等,4030001080720,令和４年６月３０日埼玉県川口市飯塚一丁目２番１６号株式会社ＷＩＴＨ（4030001080720）に合併し解散,2015-10-05,1,,,,,スマイルスタッフ,0
101,1030003013805,登記記録の閉鎖等,0,2022-07-15,2022-07-01,合同会社ＳＢＫ,,合同会社,埼玉県,八潮市,大字二丁目１０１０番地１,,11,234,3400811,,,2022-07-01,合併による解散等,3030003010651,令和４年７月１日埼玉県八潮市大字二丁目１０１０番地１合同会社ＫＣＦ（3030003010651）に合併し解散,2019-07-16,1,,,,,エスビーケー,0
132,1080402001819,登記記録の閉鎖等,0,2022-07-15,2022-07-11,有限会社尾崎電設,,有限会社,静岡県,浜松市中区,高丘北１丁目３番２７号,,22,131,4338119,,,2022-07-11,清算の結了等,,,2015-10-05,1,,,,,オザキデンセツ,0
133,1080402013467,登記記録の閉鎖等,0,2022-07-15,2022-07-11,有限会社ほけんのいとう,,有限会社,静岡県,浜松市南区,鶴見町２２番地,,22,134,4350022,,,2022-07-11,清算の結了等,,,2015-10-05,1,,,,,ホケンノイトウ,0
148,1120001067018,登記記録の閉鎖等,0,2022-07-15,2022-06-23,株式会社タヤ工務店,,株式会社,大阪府,大阪市北区,黒崎町１３番１６号,,27,127,5300023,,,2022-06-23,清算の結了等,,,2015-10-05,1,,,,,タヤコウムテン,0
152,1120001183392,登記記録の閉鎖等,0,2022-07-15,2022-07-13,株式会社Ｒｅｄ　Ｓｐｒｉｎｇ,,株式会社,大阪府,大阪市中央区,難波千日前１４番２５号阪南ビル,,27,128,5420075,,,2022-07-13,清算の結了等,,,2015-10-05,1,,,,,レッドスプリング,0
190,1180002072548,登記記録の閉鎖等,0,2022-07-15,2022-07-08,有限会社天野新聞店,,有限会社,愛知県,尾張旭市,瀬戸川町２丁目１１５番地,,23,226,4880023,,,2022-07-08,清算の結了等,,,2015-10-05,1,,,,,アマノシンブンテン,0
223,1250005004755,登記記録の閉鎖等,0,2022-07-15,2022-07-06,農事組合法人アグリティック俵山,,その他の設立登記法人,山口県,長門市,俵山６１４番地,,35,211,7594211,,,2022-07-06,清算の結了等,,,2015-10-05,1,,,,,アグリティックタワラヤマ,0
229,1280002007188,登記記録の閉鎖等,0,2022-07-15,2022-07-12,有限会社剣の道,,有限会社,島根県,出雲市,平田町１８７５番地１５,,32,203,6910001,,,2022-07-12,清算の結了等,,,2015-10-05,1,,,,,ケンノミチ,0
239,1290002039131,登記記録の閉鎖等,0,2022-07-15,2022-07-05,有限会社小柳電設,00093350,有限会社,福岡県,太宰府市,青山１丁目２８番５号,,40,221,8180121,,,2022-07-05,清算の結了等,,,2015-10-05,1,,,,,コヤナギデンセツ,0
256,1350002013641,登記記録の閉鎖等,0,2022-07-15,2022-07-12,有限会社太平水産,,有限会社,宮崎県,延岡市,方財町２１５番地１８,,45,203,8820853,,,2022-07-12,清算の結了等,,,2015-10-05,1,,,,,タイヘイスイサン,0
263,1360002000597,登記記録の閉鎖等,0,2022-07-15,2022-06-29,内山印刷有限会社,,有限会社,沖縄県,那覇市,字小禄７９４番地,,47,201,9010152,,,2022-06-29,清算の結了等,,,2015-10-05,1,,,,,,0
267,1380001031237,登記記録の閉鎖等,0,2022-07-15,2022-07-01,株式会社巽水,,株式会社,福島県,郡山市,待池台１丁目５５番地の２５,,07,203,9630215,,,2022-07-01,清算の結了等,,,2020-09-30,1,,,,,タツミ,0
268,1380002003144,登記記録の閉鎖等,0,2022-07-15,2022-07-08,有限会社福島軽金属,,有限会社,福島県,福島市,山口字行部１番地の１,,07,201,9608202,,,2022-07-08,清算の結了等,,,2015-10-05,1,,,,,フクシマケイキンゾク,0
269,1380002010330,登記記録の閉鎖等,0,2022-07-15,2022-07-08,有限会社関根商事,,有限会社,福島県,郡山市,三穂田町鍋山字仲田屋敷２番地,,07,203,9630123,,,2022-07-08,清算の結了等,,,2015-10-05,1,,,,,セキネショウジ,0
299,1480002000619,登記記録の閉鎖等,0,2022-07-15,2022-07-12,有限会社エンブロシステムサービス,,有限会社,徳島県,徳島市,南矢三町２丁目８番２２号,,36,201,7700005,,,2022-07-12,清算の結了等,,,2015-10-05,1,,,,,エンブロシステムサービス,0
301,1490002004949,登記記録の閉鎖等,0,2022-07-15,2022-07-04,丸和住宅有限会社,,有限会社,高知県,高知市,神田３２０番地２９,,39,201,7808040,,,2022-07-04,清算の結了等,,,2015-10-05,1,,,,,マルワジュウタク,0
307,2010001047599,登記記録の閉鎖等,0,2022-07-15,2022-07-01,株式会社カービュー,,株式会社,東京都,千代田区,紀尾井町１番３号,,13,101,1020094,,,2022-07-01,合併による解散等,3010001200818,令和４年７月１日東京都千代田区紀尾井町１番３号ヤフー株式会社（3010001200818）に合併し解散,2015-10-05,1,,,,,カービュー,0
336,2010501002541,登記記録の閉鎖等,0,2022-07-15,2022-07-14,株式会社河村レザー,,株式会社,東京都,台東区,柳橋２丁目７番９号,,13,106,1110052,,,2022-07-14,清算の結了等,,,2015-10-05,1,,,,,カワムラレザー,0
367,2011502015540,登記記録の閉鎖等,0,2022-07-15,2022-07-11,有限会社井上商店藤屋,,有限会社,東京都,北区,滝野川５丁目３３番９号,,13,117,1140023,,,2022-07-11,清算の結了等,,,2015-10-05,1,,,,,イノウエショウテンフジヤ,0
394,2020002005349,登記記録の閉鎖等,0,2022-07-15,2022-07-04,有限会社池崎タップ加工所,,有限会社,神奈川県,横浜市都筑区,勝田町８６８番地,,14,118,2240034,,,2022-07-04,清算の結了等,,,2015-10-05,1,,,,,イケザキタップカコウショ,0
411,2030002004432,登記記録の閉鎖等,0,2022-07-15,2022-07-01,有限会社クワタコーポレーション,,有限会社,埼玉県,さいたま市見沼区,大字片柳１４８０番地の３,,11,104,3370024,,,2022-07-01,清算の結了等,,,2015-10-05,1,,,,,クワタコーポレーション,0
432,2080402003244,登記記録の閉鎖等,0,2022-07-15,2022-07-14,有限会社三精技研,,有限会社,静岡県,浜松市南区,下江町１３番地の８,,22,134,4300825,,,2022-07-14,清算の結了等,,,2015-10-05,1,,,,,サンセイギケン,0
441,2120001022756,登記記録の閉鎖等,0,2022-07-15,2022-07-13,株式会社小栗電気商会,,株式会社,大阪府,守口市,本町２丁目５番４４号,,27,209,5700028,,,2022-07-13,清算の結了等,,,2015-10-05,1,,,,,オグリデンキショウカイ,0
462,2120005018370,登記記録の閉鎖等,0,2022-07-15,2022-07-12,一般社団法人日本アウタービューティ協会,,その他の設立登記法人,大阪府,大阪市淀川区,西中島１丁目１１番３４号,,27,123,5320011,,,2022-07-12,清算の結了等,,,2015-12-17,1,,,,,ニホンアウタービューティキョウカイ,0
476,2130001058915,登記記録の閉鎖等,0,2022-07-15,2022-07-01,株式会社Ｄ＆Ｊリテイリング,,株式会社,京都府,京都市下京区,朱雀宝蔵町１２番地１２,,26,106,6008846,,,2022-07-01,合併による解散等,9130001058792,令和４年７月１日京都市南区吉祥院石原西町３８番地株式会社Ｄ＆Ｊ（9130001058792）に合併し解散,2016-12-22,1,,,,,ディーアンドジェイリテイリング,0
478,2130002016070,登記記録の閉鎖等,0,2022-07-15,2022-07-01,有限会社木村紅,,有限会社,京都府,京都市中京区,西洞院通二条上る薬師町６５２番地,,26,104,6040062,,,2022-07-01,清算の結了等,,,2015-10-05,1,,,,,キムラベニ,0
480,2130003002945,登記記録の閉鎖等,0,2022-07-15,2022-06-30,合同会社めぐみ,,合同会社,京都府,舞鶴市,溝尻中町２０番地の１０,,26,202,6250041,,,2022-06-30,清算の結了等,,,2015-10-05,1,,,,,メグミ,0
501,2180001143456,登記記録の閉鎖等,0,2022-07-15,2022-07-01,株式会社順道,,株式会社,愛知県,春日井市,大留町１丁目１５番地５,,23,206,4870024,,,2022-07-01,合併による解散等,1180002066319,令和４年７月１日愛知県春日井市大留町一丁目１６番地の１株式会社神領不動産（1180002066319）に合併し解散,2020-11-09,1,,,,,ジュンドウ,0
505,2180002077744,登記記録の閉鎖等,0,2022-07-15,2022-07-08,有限会社宮田商店,,有限会社,愛知県,一宮市,本町１丁目２番１０号,,23,203,4910859,,,2022-07-08,清算の結了等,,,2015-10-05,1,,,,,ミヤタショウテン,0
512,2190001013682,登記記録の閉鎖等,0,2022-07-15,2022-07-04,株式会社Ａ・Ｎコーポレーション,,株式会社,三重県,桑名市,長島町大倉１番地３８,,24,205,5111112,,,2022-07-04,清算の結了等,,,2015-10-05,1,,,,,エーエヌコーポレーション,0
522,2210002012474,登記記録の閉鎖等,0,2022-07-15,2022-07-01,有限会社オノダニサービス,,有限会社,福井県,越前市,家久町第５９号１番地の１,,18,209,9150801,,,2022-07-01,合併による解散等,3210001011518,令和４年７月１日福井県越前市家久町６３号１番地小野谷機工株式会社（3210001011518）に合併し解散,2015-10-05,1,,,,,オノダニサービス,0
536,2270002008129,登記記録の閉鎖等,0,2022-07-15,2022-07-01,有限会社櫛田建設,00125549,有限会社,鳥取県,西伯郡伯耆町,大殿１５６９番地１２,,31,390,6894121,,,2022-07-01,清算の結了等,,,2022-02-02,1,,,,,クシダケンセツ,0
538,2290001046136,登記記録の閉鎖等,0,2022-07-15,2022-07-04,株式会社アスナロ,,株式会社,福岡県,嘉麻市,山野１３００番地の３,,40,227,8200202,,,2022-07-04,清算の結了等,,,2015-10-05,1,,,,,アスナロ,0
540,2290001089416,登記記録の閉鎖等,0,2022-07-15,2022-07-07,株式会社ＣＳ　ｅｎｔｅｒｔａｉｎｍｅｎｔ,,株式会社,福岡県,那珂川市,今光６丁目２３番地株式会社愛しとーと内,,40,231,8111211,,,2022-07-07,合併による解散等,9290001019127,令和４年７月７日福岡県那珂川市今光六丁目２３番地株式会社愛しとーと（9290001019127）に合併し解散,2020-07-07,1,,,,,シーエスエンターテイメント,0
561,2340005003920,登記記録の閉鎖等,0,2022-07-15,2022-07-14,村田竹材企業組合,,その他の設立登記法人,鹿児島県,薩摩郡さつま町,虎居２２２３番地,,46,392,8951811,,,2022-07-14,清算の結了等,,,2015-10-05,1,,,,,ムラタチクザイ,0
563,2350002003006,登記記録の閉鎖等,0,2022-07-15,2022-07-12,有限会社津野ビル,,有限会社,宮崎県,宮崎市,大坪東３丁目２０番１７号,,45,201,8800934,,,2022-07-12,清算の結了等,,,2015-10-05,1,,,,,ツノビル,0
564,2370001022418,登記記録の閉鎖等,0,2022-07-15,2022-07-01,株式会社匠レストランズ,,株式会社,宮城県,仙台市青葉区,二日町１６番１号,,04,101,9800802,,,2022-07-01,合併による解散等,4370001022449,令和４年７月１日宮城県仙台市青葉区二日町１６番１号株式会社秀賀会（4370001022449）に合併し解散,2015-10-05,1,,,,,タクミレストランズ,0
578,2430001005481,登記記録の閉鎖等,0,2022-07-15,2022-06-30,株式会社建人,,株式会社,北海道,札幌市白石区,菊水六条２丁目８番１５号,,01,104,0030806,,,2022-06-30,清算の結了等,,,2015-10-05,1,,,,,ケント,0
585,2430001085433,登記記録の閉鎖等,0,2022-07-15,2022-07-01,株式会社６６８８企画,,株式会社,北海道,札幌市豊平区,水車町４丁目１番１－５０３号,,01,105,0620912,,,2022-07-01,清算の結了等,,,2021-11-24,1,,,,,ロクロクハチハチキカク,0
596,2470002017943,登記記録の閉鎖等,0,2022-07-15,2022-07-11,西部機販香川有限会社,,有限会社,香川県,さぬき市,志度２２４７番地,,37,206,7692101,,,2022-07-11,清算の結了等,,,2015-10-05,1,,,,,セイブキハンカガワ,0
606,3010001029761,登記記録の閉鎖等,0,2022-07-15,2022-06-30,株式会社マイクロ・シー・エー・デー,,株式会社,東京都,品川区,大崎１丁目２番２号,,13,109,1410032,,,2022-06-30,合併による解散等,2010701032272,令和４年６月３０日東京都品川区大崎一丁目２番２号フューチャーアーキテクト株式会社（2010701032272）に合併し解散,2015-10-05,1,,,,,マイクロシーエーデー,0
627,3010403020302,登記記録の閉鎖等,0,2022-07-15,2022-06-29,合同会社ＭＩＣＬ１,,合同会社,東京都,港区,虎ノ門３丁目１８番１２－５０２号株式会社虎ノ門会計神谷町分室内,,13,103,1050001,,,2022-06-29,清算の結了等,,,2019-03-06,1,,,,,エムアイシーエルワン,0
645,3010802001472,登記記録の閉鎖等,0,2022-07-15,2022-07-07,有限会社井上商会,,有限会社,東京都,大田区,田園調布２丁目３４番２号,,13,111,1450071,,,2022-07-07,清算の結了等,,,2015-10-05,1,,,,,イノウエショウカイ,0
650,3010903006651,登記記録の閉鎖等,0,2022-07-15,2022-07-08,合同会社ＯＺＯＺＯＺ,,合同会社,東京都,世田谷区,南烏山３丁目２３番２－４０６号,,13,112,1570062,,,2022-07-08,清算の結了等,,,2021-07-15,1,,,,,オジーオジーオジー,0
660,3011105010054,登記記録の閉鎖等,0,2022-07-15,2022-07-08,ＭＳＰ監査法人,,その他の設立登記法人,東京都,新宿区,西新宿６丁目１５番１号セントラルパークタワー・ラ・トゥール新宿３Ｆ,,13,104,1600023,,,2022-07-08,清算の結了等,,,2021-11-22,1,,,,,エムエスピー,0
666,3011301014511,登記記録の閉鎖等,0,2022-07-15,2022-07-13,株式会社みやぎ,,株式会社,東京都,杉並区,阿佐谷北３丁目３３番１９号,,13,115,1660001,,,2022-07-13,清算の結了等,,,2015-10-05,1,,,,,ミヤギ,0
669,3011403002802,登記記録の閉鎖等,0,2022-07-15,2022-07-13,合同会社心音,,合同会社,東京都,板橋区,若木２丁目９番５号,,13,119,1740065,,,2022-07-13,清算の結了等,,,2019-10-07,1,,,,,ココネ,0
693,3020001137720,登記記録の閉鎖等,0,2022-07-15,2022-07-06,しあわせの薬箱株式会社,,株式会社,神奈川県,横浜市戸塚区,平戸５丁目１８番１６号,,14,110,2440802,,,2022-07-06,清算の結了等,,,2020-09-15,1,,,,,シアワセノクスリバコ,0
701,3021001058634,登記記録の閉鎖等,0,2022-07-15,2022-07-07,株式会社内藤新聞店,,株式会社,神奈川県,足柄上郡開成町,延沢２４０番地１,,14,366,2580026,,,2022-07-07,清算の結了等,,,2016-03-01,1,,,,,ナイトウシンブンテン,0
711,3040001009380,登記記録の閉鎖等,0,2022-07-15,2022-07-07,株式会社ベンカービ,,株式会社,愛知県,名古屋市名東区,豊が丘９０６番地,,23,115,4650035,,,2022-07-07,清算の結了等,,,2015-10-05,1,,,,,ベンカービ,0
713,3040001056984,登記記録の閉鎖等,0,2022-07-15,2022-07-11,株式会社ざわざわ,,株式会社,東京都,新宿区,西新宿７丁目１番７号新宿ダイカンプラザＡ１０１８,,13,104,1600023,,,2022-07-11,清算の結了等,,,2015-10-05,1,,,,,ザワザワ,0
726,3050002020815,登記記録の閉鎖等,0,2022-07-15,2022-07-01,有限会社茨城ロードメンテナンス,,有限会社,茨城県,つくば市,吉瀬９７４番地１,,08,220,3050022,,,2022-07-01,合併による解散等,1050001012807,令和４年７月１日茨城県つくば市赤塚６２４番地５株式会社テクノエイト（1050001012807）に合併し解散,2015-10-05,1,,,,,イバラキロードメンテナンス,0
734,3080101007149,登記記録の閉鎖等,0,2022-07-15,2022-07-14,株式会社魚加代,,株式会社,静岡県,裾野市,平松４２７番地の６,,22,220,4101127,,,2022-07-14,清算の結了等,,,2015-10-05,1,,,,,ウオカヨ,0
739,3110002020825,登記記録の閉鎖等,0,2022-07-15,2022-07-08,有限会社南波商店,,有限会社,新潟県,三島郡出雲崎町,大字川西７７番地２,,15,405,9494353,,,2022-07-08,清算の結了等,,,2015-10-05,1,,,,,ナンバショウテン,0
766,3120003019931,登記記録の閉鎖等,0,2022-07-15,2022-07-11,合同会社ＸＵＡＮ　ＴＲＵＯＮＧ,,合同会社,大阪府,大阪市生野区,生野西１丁目１０番２９号,,27,116,5440024,,,2022-07-11,清算の結了等,,,2021-07-29,1,,,,,スアンチュオン,0
768,3120005017537,登記記録の閉鎖等,0,2022-07-15,2022-07-13,特定非営利活動法人サンセイント,,その他の設立登記法人,大阪府,大阪市西淀川区,中島１丁目５番７号サンハウス１Ｆ,,27,113,5550041,,,2022-07-13,清算の結了等,,,2015-10-05,1,,,,,サンセイント,0
772,3120102020261,登記記録の閉鎖等,0,2022-07-15,2022-07-11,有限会社無限,,有限会社,大阪府,河内長野市,木戸３丁目１６番２０号,,27,216,5860001,,,2022-07-11,合併による解散等,6120101035274,令和４年７月１日大阪府富田林市寿町二丁目５－４３株式会社テクノ住宅販売（6120101035274）に合併し解散,2015-10-05,1,,,,,ムゲン,0
775,3120901045046,登記記録の閉鎖等,0,2022-07-15,2022-06-30,さくら総合調査株式会社,,株式会社,大阪府,吹田市,広芝町１０番８号江坂董友ビル２Ｆ,,27,205,5640052,,,2022-06-30,清算の結了等,,,2021-10-12,1,,,,,サクラソウゴウチョウサ,0
808,3180001088923,登記記録の閉鎖等,0,2022-07-15,2022-07-04,ＭＶコミュニケーション株式会社,,株式会社,愛知県,名古屋市中区,栄１丁目２９番２９号,,23,106,4600008,,,2022-07-04,合併による解散等,1180002058357,令和４年７月１日名古屋市中区栄一丁目２９番２９号株式会社メルヴェイユ（1180002058357）に合併し解散,2015-10-05,1,,,,,エムブイコミュニケーション,0
836,3210002013728,登記記録の閉鎖等,0,2022-07-15,2022-07-01,有限会社岸田不動産,,有限会社,福井県,小浜市,北塩屋第１９号２１番地の２,,18,204,9170002,,,2022-07-01,合併による解散等,7210001013931,令和４年７月１日福井県小浜市北塩屋第２２号７番地岸田産業株式会社（7210001013931）に合併し解散,2015-10-05,1,,,,,キシダフドウサン,0
851,3290001035245,登記記録の閉鎖等,0,2022-07-15,2022-07-05,株式会社エム・ティー・トラスト,,株式会社,福岡県,福岡市南区,那の川１丁目９番１０号,,40,134,8150081,,,2022-07-05,清算の結了等,,,2015-10-05,1,,,,,エムティートラスト,0
853,3290001065283,登記記録の閉鎖等,0,2022-07-15,2022-07-05,株式会社飛鳥自動車工業,,株式会社,福岡県,糟屋郡粕屋町,大字上大隈８１０番地５,,40,349,8112301,,,2022-07-05,清算の結了等,,,2015-10-05,1,,,,,アスカジドウシャコウギョウ,0
886,3380002014791,登記記録の閉鎖等,0,2022-07-15,2022-07-06,有限会社影山組,,有限会社,福島県,田村郡三春町,字馬場２１０番地,,07,521,9637746,,,2022-07-06,清算の結了等,,,2015-10-05,1,,,,,カゲヤマグミ,0
887,3380003003380,登記記録の閉鎖等,0,2022-07-15,2022-07-06,合同会社ロングライフ,,合同会社,福島県,福島市,飯坂町字梍町２３番地の１,,07,201,9600201,,,2022-07-06,清算の結了等,,,2015-10-05,1,,,,,ロングライフ,0
890,3410001010193,登記記録の閉鎖等,0,2022-07-15,2022-07-13,株式会社秋田水産,,株式会社,岩手県,盛岡市,加賀野１丁目２番３５号,,03,201,0200807,,,2022-07-13,清算の結了等,,,2015-10-05,1,,,,,アキタスイサン,0
893,3420002019860,登記記録の閉鎖等,0,2022-07-15,2022-07-08,有限会社むつドレス,,有限会社,青森県,むつ市,山田町１５番２６号,,02,208,0350077,,,2022-07-08,清算の結了等,,,2015-10-05,1,,,,,ムツドレス,0
906,3430005004066,登記記録の閉鎖等,0,2022-07-15,2022-07-01,税理士法人幌西会計,,その他の設立登記法人,北海道,札幌市中央区,南九条西１２丁目１番５０号,,01,101,0640809,,,2022-07-01,清算の結了等,,,2015-10-05,1,,,,,コウサイカイケイ,0
907,3440001000398,登記記録の閉鎖等,0,2022-07-15,2022-07-08,片井製薬株式会社,,株式会社,北海道,函館市,赤川町５７０番地,,01,202,0410804,,,2022-07-08,清算の結了等,,,2015-10-05,1,,,,,カタイセイヤク,0
926,4010003031310,登記記録の閉鎖等,0,2022-07-15,2022-06-28,蒼穹１号合同会社,,合同会社,東京都,港区,三田５丁目１番２１号,,13,103,1080073,,,2022-06-28,清算の結了等,,,2019-12-23,1,,,,,ソウキュウイチゴウ,0
933,4010401022729,登記記録の閉鎖等,0,2022-07-15,2022-07-12,株式会社日本システムサービス,,株式会社,東京都,港区,赤坂２丁目１３番２３号,,13,103,1070052,,,2022-07-12,合併による解散等,6010601016479,令和４年７月１日東京都墨田区千歳二丁目５番４号ＳＦビルメンテナンス株式会社（6010601016479）に合併し解散,2015-10-05,1,,,,,ニホンシステムサービス,0
941,4010403020301,登記記録の閉鎖等,0,2022-07-15,2022-06-29,合同会社ＭＩＣＬ２,,合同会社,東京都,港区,虎ノ門３丁目１８番１２－５０２号株式会社虎ノ門会計神谷町分室内,,13,103,1050001,,,2022-06-29,清算の結了等,,,2019-03-06,1,,,,,エムアイシーエルツー,0
970,4011501007512,登記記録の閉鎖等,0,2022-07-15,2022-07-12,株式会社田中電設機工,,株式会社,東京都,荒川区,荒川６丁目１５番２号,,13,118,1160002,,,2022-07-12,清算の結了等,,,2015-10-05,1,,,,,タナカデンセツキコウ,0
979,4013301040429,登記記録の閉鎖等,0,2022-07-15,2022-07-11,ホップスプラス株式会社,,株式会社,東京都,豊島区,高松１丁目１０番２号ＮＨ西池袋ビル８階,,13,116,1710042,,,2022-07-11,清算の結了等,,,2017-04-26,1,,,,,ホップスプラス,0
994,4021005010458,登記記録の閉鎖等,0,2022-07-15,2022-07-07,一般社団法人アイ・ピー・エル企画,,その他の設立登記法人,神奈川県,厚木市,中町４丁目９番１７号ハラダセンタービル３Ｆ,,14,212,2430018,,,2022-07-07,清算の結了等,,,2015-11-27,1,,,,,アイピーエルキカク,0
995,4030001056794,登記記録の閉鎖等,0,2022-07-15,2022-06-30,株式会社エスケーテクノ,,株式会社,埼玉県,川越市,大字石田６５９番地,,11,201,3500837,,,2022-06-30,清算の結了等,,,2015-10-05,1,,,,,エスケーテクノ,0
1013,4040002056330,登記記録の閉鎖等,0,2022-07-15,2022-07-06,千歳工業有限会社,,有限会社,千葉県,富里市,御料６８７番地４,,12,233,2860211,,,2022-07-06,清算の結了等,,,2015-10-05,1,,,,,チトセコウギョウ,0
1023,4060002018048,登記記録の閉鎖等,0,2022-07-15,2022-07-05,有限会社紙屋呉服店,,有限会社,栃木県,芳賀郡益子町,大字七井４番地,,09,342,3214106,,,2022-07-05,清算の結了等,,,2015-10-05,1,,,,,カミヤゴフクテン,0
1032,4080102002206,登記記録の閉鎖等,0,2022-07-15,2022-07-13,有限会社高嶋石材店,00067894,有限会社,静岡県,沼津市,中瀬町１２番１号,,22,203,4100811,,,2022-07-13,清算の結了等,,,2015-10-05,1,,,,,,0
1036,4110002011006,登記記録の閉鎖等,0,2022-07-15,2022-07-08,有限会社新栄フーズ,,有限会社,新潟県,新潟市中央区,米山３丁目１番３１号パストラルハイム米山弐番館１４０５号,,15,103,9500916,,,2022-07-08,清算の結了等,,,2015-10-05,1,,,,,シンエイフーズ,0
1074,4160005004753,登記記録の閉鎖等,0,2022-07-15,2022-07-11,医療法人社団源内クリニック,,その他の設立登記法人,滋賀県,長浜市,湖北町山本字堂前４４３６番地,,25,203,5290354,,,2022-07-11,清算の結了等,,,2015-10-05,1,,,,,ゲンナイクリニック,0
1080,4180002043678,登記記録の閉鎖等,0,2022-07-15,2022-07-11,有限会社ハートレッスン,,有限会社,愛知県,名古屋市守山区,苗代２丁目８番２８号,,23,113,4630046,,,2022-07-11,清算の結了等,,,2015-10-05,1,,,,,ハートレッスン,0
1087,4190001023028,登記記録の閉鎖等,0,2022-07-15,2022-07-04,グローカル三重株式会社,,株式会社,三重県,四日市市,川島町６６１２番地２,,24,202,5120934,,,2022-07-04,合併による解散等,9190001028781,令和４年７月１日三重県四日市市川島町６６１２番地２株式会社日総（9190001028781）に合併し解散,2015-10-05,1,,,,,グローカルミエ,0
1088,4190001029289,登記記録の閉鎖等,0,2022-07-15,2022-07-06,ＡＤ　ｈｏｌｄｉｎｇｓ株式会社,,株式会社,三重県,津市,栄町３丁目１２３番地１,,24,201,5140004,,,2022-07-06,合併による解散等,9190001012868,令和４年７月１日三重県員弁郡東員町大字穴太１２７４番地の１株式会社アサヒダイテック（9190001012868）に合併し解散,2022-04-11,1,,,,,エーディーホールディングス,0
1089,4190002013655,登記記録の閉鎖等,0,2022-07-15,2022-07-05,有限会社エスティハウス,,有限会社,三重県,松阪市,駅部田町７１０番地２,,24,204,5150045,,,2022-07-05,清算の結了等,,,2015-10-05,1,,,,,エスティハウス,0
1091,4200002004009,登記記録の閉鎖等,0,2022-07-15,2022-07-13,有限会社藤村新聞店,,有限会社,岐阜県,岐阜市,雄総桜町３丁目４０番地,,21,201,5020016,,,2022-07-13,清算の結了等,,,2015-10-05,1,,,,,フジムラシンブンテン,0
1092,4210001014825,登記記録の閉鎖等,0,2022-07-15,2022-07-05,株式会社ギケン,,株式会社,福井県,坂井市,坂井町東中野第１３号６番地２０,,18,210,9190544,,,2022-07-05,清算の結了等,,,2015-10-05,1,,,,,ギケン,0
1099,4240002002256,登記記録の閉鎖等,0,2022-07-15,2022-07-11,有限会社榎崎石油店,,有限会社,広島県,広島市中区,三川町１０番１４号,,34,101,7300029,,,2022-07-11,清算の結了等,,,2015-10-05,1,,,,,エノサキセキユテン,0
1123,4330001023203,登記記録の閉鎖等,0,2022-07-15,2022-07-04,亜聖興産株式会社,,株式会社,熊本県,熊本市東区,神園２丁目１番１７号アップスクアトロＢ,,43,102,8618044,,,2022-07-04,清算の結了等,,,2016-09-08,1,,,,,アセイコウサン,0
1135,4360001021410,登記記録の閉鎖等,0,2022-07-15,2022-07-08,琉球アドヴァンス株式会社,,株式会社,沖縄県,那覇市,松島１丁目１１番１２号,,47,201,9020069,,,2022-07-08,清算の結了等,,,2016-10-12,1,,,,,リュウキュウアドヴァンス,0
1147,4410002006883,登記記録の閉鎖等,0,2022-07-15,2022-07-06,有限会社エムアンドエム,,有限会社,秋田県,由利本荘市,鳥海町小川字上根子３０番地,,05,210,0150505,,,2022-07-06,清算の結了等,,,2015-10-05,1,,,,,エムアンドエム,0
1174,4460402000531,登記記録の閉鎖等,0,2022-07-15,2022-07-13,有限会社インテリアいしざか,,有限会社,北海道,根室市,宝町３丁目５３番地,,01,223,0870005,,,2022-07-13,清算の結了等,,,2015-10-05,1,,,,,インテリアイシザカ,0
1177,4470002018015,登記記録の閉鎖等,0,2022-07-15,2022-07-11,有限会社大杉商会,,有限会社,香川県,さぬき市,津田町鶴羽７２８番地,,37,206,7692402,,,2022-07-11,清算の結了等,,,2015-10-05,1,,,,,オオスギショウカイ,0
1182,5010001188218,登記記録の閉鎖等,0,2022-07-15,2022-07-01,株式会社ＢＣＪ－２９,,株式会社,東京都,千代田区,丸の内１丁目６番５号,,13,101,1000005,,,2022-07-01,合併による解散等,6010003036704,令和４年７月１日東京都千代田区丸の内一丁目６番５号株式会社ＯＯＭインベストメンツ（6010003036704）に合併し解散,2017-12-07,1,,,,,ビーシージェイトウェンティナイン,0
1203,5010502003239,登記記録の閉鎖等,0,2022-07-15,2022-07-12,帰山商事有限会社,,有限会社,東京都,台東区,日本堤２丁目２６番１３号,,13,106,1110021,,,2022-07-12,清算の結了等,,,2015-10-05,1,,,,,キヤマショウジ,0
1205,5010602010440,登記記録の閉鎖等,0,2022-07-15,2022-07-06,有限会社吾嬬製作所,,有限会社,東京都,墨田区,八広６丁目４８番６号,,13,107,1310041,,,2022-07-06,清算の結了等,,,2015-10-05,1,,,,,アズマセイサクショ,0
1219,5011001020403,登記記録の閉鎖等,0,2022-07-15,2022-07-13,株式会社プラムナッツ,,株式会社,東京都,多摩市,唐木田１丁目４１番１５号,,13,224,2060035,,,2022-07-13,清算の結了等,,,2015-10-05,1,,,,,プラムナッツ,0
1228,5011101006896,登記記録の閉鎖等,0,2022-07-15,2022-07-11,株式会社越野,,株式会社,東京都,新宿区,東五軒町２番２－８０７号,,13,104,1620813,,,2022-07-11,清算の結了等,,,2015-10-05,1,,,,,コシノ,0
1229,5011101039054,登記記録の閉鎖等,0,2022-07-15,2022-07-06,株式会社ＡＴＯＯ,,株式会社,東京都,新宿区,北新宿１丁目１番１６号ＪＳビル,,13,104,1690074,,,2022-07-06,清算の結了等,,,2015-10-05,1,,,,,アトゥー,0
1239,5011402000747,登記記録の閉鎖等,0,2022-07-15,2022-07-13,有限会社生越塗装店,,有限会社,東京都,板橋区,幸町２０番１３号,,13,119,1730034,,,2022-07-13,清算の結了等,,,2015-10-05,1,,,,,オオゴシトソウテン,0
1262,5012703000931,登記記録の閉鎖等,0,2022-07-15,2022-07-06,ジン・スペースプラン合同会社,,合同会社,神奈川県,横浜市都筑区,中川中央１丁目２２番５号グレースコート３０２号,,14,118,2240003,,,2022-07-06,清算の結了等,,,2015-10-05,1,,,,,ジンスペースプラン,0
1266,5013301029702,登記記録の閉鎖等,0,2022-07-15,2022-07-01,株式会社アルマティック,,株式会社,宮城県,仙台市青葉区,上杉５丁目４番１０－１０１号,,04,101,9800011,,,2022-07-01,清算の結了等,,,2015-10-05,1,,,,,アルマティック,0
1281,5021001033890,登記記録の閉鎖等,0,2022-07-15,2022-07-08,中村建設株式会社,,株式会社,神奈川県,南足柄市,内山２１３４番地の１,,14,217,2500131,,,2022-07-08,清算の結了等,,,2015-10-05,1,,,,,ナカムラケンセツ,0
1286,5030001057585,登記記録の閉鎖等,0,2022-07-15,2022-07-01,株式会社青木,,株式会社,埼玉県,入間郡三芳町,大字上富１９９６番地１,,11,324,3540045,,,2022-07-01,合併による解散等,6030001045713,令和４年７月１日埼玉県新座市中野一丁目１番２８号株式会社青木商店（6030001045713）に合併し解散,2015-10-05,1,,,,,アオキ,0
1325,5120001000156,登記記録の閉鎖等,0,2022-07-15,2022-07-13,梅田金物株式会社,,株式会社,大阪府,大阪市旭区,高殿７丁目７番２３号,,27,117,5350031,,,2022-07-13,清算の結了等,,,2015-10-05,1,,,,,ウメダカナモノ,0
1358,5140001021233,登記記録の閉鎖等,0,2022-07-15,2022-07-04,株式会社山設エンジニアリング,,株式会社,兵庫県,神戸市中央区,坂口通７丁目２番２１号,,28,110,6510062,,,2022-07-04,合併による解散等,7140001011488,令和４年７月４日神戸市中央区坂口通七丁目２番２１号山本設備機工株式会社（7140001011488）に合併し解散,2015-10-05,1,,,,,ヤマセツエンジニアリング,0
1381,5180001118629,登記記録の閉鎖等,0,2022-07-15,2022-07-12,株式会社光庭インフォー名古屋,,株式会社,愛知県,名古屋市中川区,尾頭橋４丁目１３番７号,,23,110,4540012,,,2022-07-12,合併による解散等,3010801023889,令和４年７月１日東京都大田区蒲田五丁目３３番６号株式会社光庭インフォ（3010801023889）に合併し解散,2015-10-05,1,,,,,コウテイインフォーナゴヤ,0
1383,5180001133891,登記記録の閉鎖等,0,2022-07-15,2022-07-11,名古屋市場荷役発送株式会社,,株式会社,愛知県,西春日井郡豊山町,大字豊場字山方７７番地１,,23,342,4800202,,,2022-07-11,合併による解散等,4040001014421,令和４年７月１日千葉県習志野市東習志野一丁目６番１７号航空集配サービス株式会社（4040001014421）に合併し解散,2018-10-19,1,,,,,ナゴヤシジョウニヤクハッソウ,0
1398,5190001018737,登記記録の閉鎖等,0,2022-07-15,2022-07-05,株式会社ジェイ環境,,株式会社,三重県,四日市市,安島１丁目２番２７号,,24,202,5100075,,,2022-07-05,清算の結了等,,,2015-10-05,1,,,,,ジェイカンキョウ,0
1409,5240002001075,登記記録の閉鎖等,0,2022-07-15,2022-07-11,有限会社池田自動車工業,,有限会社,広島県,広島市安芸区,中野東３丁目４番３２号,,34,107,7390323,,,2022-07-11,清算の結了等,,,2015-10-05,1,,,,,イケダジドウシャコウギョウ,0
1425,5260002016971,登記記録の閉鎖等,0,2022-07-15,2022-07-13,有限会社大島倉庫,,有限会社,岡山県,倉敷市,南畝３丁目４番３０号,,33,202,7128055,,,2022-07-13,清算の結了等,,,2015-10-05,1,,,,,オオシマソウコ,0
1429,5290001053311,登記記録の閉鎖等,0,2022-07-15,2022-07-05,株式会社クロス,,株式会社,福岡県,柳川市,大和町豊原６３０番地,,40,207,8390242,,,2022-07-05,清算の結了等,,,2015-10-05,1,,,,,クロス,0
1440,5300002009302,登記記録の閉鎖等,0,2022-07-15,2022-07-08,きやま製麺有限会社,,有限会社,佐賀県,三養基郡基山町,大字長野５０６番地１,,41,341,8410202,,,2022-07-08,清算の結了等,,,2015-10-05,1,,,,,キヤマセイメン,0
1443,5320005000355,登記記録の閉鎖等,0,2022-07-15,2022-07-07,医療法人きさらぎ会,,その他の設立登記法人,大分県,大分市,松原町２丁目２番２号,,44,201,8700913,,,2022-07-07,清算の結了等,,,2015-10-05,1,,,,,キサラギカイ,0
1472,5430001014686,登記記録の閉鎖等,0,2022-07-15,2022-07-01,北園興業株式会社,,株式会社,北海道,札幌市中央区,北六条西１６丁目２番地,,01,101,0600006,,,2022-07-01,合併による解散等,3430001009325,令和４年７月１日札幌市中央区北六条西十六丁目１番地株式会社大学農園（3430001009325）に合併し解散,2015-10-05,1,,,,,ホクエンコウギョウ,0
1476,5430001073922,登記記録の閉鎖等,0,2022-07-15,2022-06-30,株式会社ピュアゴールド,,株式会社,北海道,札幌市西区,発寒四条４丁目２番８－２０３号,,01,107,0630824,,,2022-06-30,清算の結了等,,,2017-05-02,1,,,,,ピュアゴールド,0
1478,5430002009116,登記記録の閉鎖等,0,2022-07-15,2022-07-01,有限会社ジェック,,有限会社,北海道,札幌市北区,篠路七条６丁目１３番１０－３０２号,,01,102,0028027,,,2022-07-01,清算の結了等,,,2015-10-05,1,,,,,ジェック,0
1487,5480005003929,登記記録の閉鎖等,0,2022-07-15,2022-07-13,特定非営利活動法人ｍｉｎｉれすぱいと,,その他の設立登記法人,徳島県,鳴門市,撫養町斎田字東発７０番地１,,36,202,7720002,,,2022-07-13,清算の結了等,,,2015-10-05,1,,,,,ミニレスパイト,0
1520,6010502005886,登記記録の閉鎖等,0,2022-07-15,2022-07-13,有限会社住谷紙器製作所,,有限会社,東京都,台東区,今戸２丁目２３番３号,,13,106,1110024,,,2022-07-13,清算の結了等,,,2015-10-05,1,,,,,スミヤシキセイサクジョ,0
1547,6010902021054,登記記録の閉鎖等,0,2022-07-15,2022-07-11,有限会社テンプル,,有限会社,東京都,世田谷区,宇奈根１丁目３２番５号,,13,112,1570068,,,2022-07-11,清算の結了等,,,2015-10-05,1,,,,,テンプル,0
1560,6011201006829,登記記録の閉鎖等,0,2022-07-15,2022-07-04,株式会社米田ヴェスト,,株式会社,東京都,中野区,中野１丁目４４番８号,,13,114,1640001,,,2022-07-04,清算の結了等,,,2015-10-05,1,,,,,ヨネダヴェスト,0
1563,6011401017849,登記記録の閉鎖等,0,2022-07-15,2022-07-12,株式会社清洲企画,,株式会社,東京都,板橋区,栄町８番１４号,,13,119,1730015,,,2022-07-12,清算の結了等,,,2015-10-05,1,,,,,キヨスキカク,0
1572,6011602002195,登記記録の閉鎖等,0,2022-07-15,2022-07-07,有限会社オカムラ企画,,有限会社,東京都,練馬区,貫井１丁目２２番５号,,13,120,1760021,,,2022-07-07,合併による解散等,5011602008788,令和４年７月１日東京都練馬区南田中四丁目１２番７号株式会社プロダクション一家（5011602008788）に合併し解散,2015-10-05,1,,,,,オカムラキカク,0
1574,6011702001139,登記記録の閉鎖等,0,2022-07-15,2022-07-12,有限会社イチセツ,,有限会社,東京都,江戸川区,西小松川町８番２１号,,13,123,1320032,,,2022-07-12,清算の結了等,,,2015-10-05,1,,,,,イチセツ,0
1585,6013201012930,登記記録の閉鎖等,0,2022-07-15,2022-07-01,株式会社栄光舎,,株式会社,東京都,目黒区,中目黒１丁目８番８号,,13,110,1530061,,,2022-07-01,合併による解散等,6011001007804,令和４年７月１日東京都渋谷区渋谷二丁目７番７号港北メディアサービス株式会社（6011001007804）に合併し解散,2015-10-05,1,,,,,エイコウシャ,0
1586,6013201014308,登記記録の閉鎖等,0,2022-07-15,2022-07-01,東港出版印刷株式会社,,株式会社,東京都,目黒区,中目黒１丁目８番８号,,13,110,1530061,,,2022-07-01,合併による解散等,6011001007804,令和４年７月１日東京都渋谷区渋谷二丁目７番７号港北メディアサービス株式会社（6011001007804）に合併し解散,2015-10-05,1,,,,,トウコウシュッパンインサツ,0
1602,6020003001517,登記記録の閉鎖等,0,2022-07-15,2022-07-06,合資会社石川匠務所,,合資会社,神奈川県,横浜市南区,中村町５丁目３１６番地,,14,105,2320033,,,2022-07-06,清算の結了等,,,2015-10-05,1,,,,,イシカワショウムショ,0
1609,6021002028063,登記記録の閉鎖等,0,2022-07-15,2022-07-06,有限会社セキュアランス,,有限会社,神奈川県,相模原市中央区,淵野辺本町４丁目１４番６－３０６号,,14,152,2520202,,,2022-07-06,清算の結了等,,,2015-10-05,1,,,,,セキュアランス,0
1611,6030001060373,登記記録の閉鎖等,0,2022-07-15,2022-07-01,株式会社フカガワエーシーエス,,株式会社,埼玉県,本庄市,下野堂字開拓６１９番地,,11,211,3670063,,,2022-07-01,合併による解散等,8030001076970,令和４年７月１日埼玉県川口市西青木二丁目９番５号株式会社フカガワ（8030001076970）に合併し解散,2015-10-05,1,,,,,フカガワエーシーエス,0
1633,6060002012701,登記記録の閉鎖等,0,2022-07-15,2022-07-04,有限会社関谷工業,,有限会社,栃木県,さくら市,氏家２５４９番地,,09,214,3291311,,,2022-07-04,清算の結了等,,,2015-10-05,1,,,,,セキヤコウギョウ,0
1643,6080402004387,登記記録の閉鎖等,0,2022-07-15,2022-07-11,有限会社成林社,,有限会社,静岡県,浜松市中区,鴨江３丁目４４番３４号,,22,131,4328023,,,2022-07-11,清算の結了等,,,2015-10-05,1,,,,,セイリンシャ,0
1653,6110005011166,登記記録の閉鎖等,0,2022-07-15,2022-07-07,社団法人新潟県立長岡工業高等学校後援会,,その他の設立登記法人,新潟県,長岡市,幸町１丁目１３番８号長工会館新潟県立長岡工業高等学校同窓会内,,15,202,9400084,,,2022-07-07,清算の結了等,,,2015-10-05,1,,,,,ニイガタケンリツナガオカコウギョウコウトウガッコウコウエンカイ,0
1673,6120003014533,登記記録の閉鎖等,0,2022-07-15,2022-07-11,泰日ビジネスサポート合同会社,,合同会社,大阪府,大阪市西淀川区,御幣島２丁目１７番２号,,27,113,5550012,,,2022-07-11,清算の結了等,,,2018-07-23,1,,,,,タイニチビジネスサポート,0
1678,6120101028096,登記記録の閉鎖等,0,2022-07-15,2022-07-11,株式会社ＦＥＬＩＣＥ,,株式会社,大阪府,富田林市,金剛錦織台１７番１６号,,27,214,5840070,,,2022-07-11,清算の結了等,,,2015-10-05,1,,,,,フェリス,0
1694,6130001027981,登記記録の閉鎖等,0,2022-07-15,2022-07-01,株式会社八阪精工,,株式会社,京都府,京都市山科区,勧修寺東出町９０番地３,,26,110,6078216,,,2022-07-01,清算の結了等,,,2015-10-05,1,,,,,ヤサカセイコウ,0
1717,6180001011213,登記記録の閉鎖等,0,2022-07-15,2022-07-04,名鉄環境造園株式会社,,株式会社,愛知県,名古屋市瑞穂区,桃園町２番１５号,,23,108,4670855,,,2022-07-04,合併による解散等,5180001015677,令和４年７月１日名古屋市南区前浜通七丁目２８番地名鉄産業株式会社（5180001015677）に合併し解散,2015-10-05,1,,,,,メイテツカンキョウゾウエン,0
1723,6180001091560,登記記録の閉鎖等,0,2022-07-15,2022-07-08,インターファーネス工業株式会社,,株式会社,愛知県,半田市,亀崎町６丁目１４４番地,,23,205,4750023,,,2022-07-08,清算の結了等,,,2015-10-05,1,,,,,インターファーネスコウギョウ,0
1725,6180002002500,登記記録の閉鎖等,0,2022-07-15,2022-07-12,有限会社竹内新聞店,,有限会社,愛知県,名古屋市名東区,神月町１１１０番地,,23,115,4650006,,,2022-07-12,清算の結了等,,,2015-10-05,1,,,,,タケウチシンブンテン,0
1726,6180002010949,登記記録の閉鎖等,0,2022-07-15,2022-07-11,有限会社飯塚工業所,,有限会社,愛知県,名古屋市北区,浪打町１丁目４０番地,,23,103,4620041,,,2022-07-11,清算の結了等,,,2015-10-05,1,,,,,イイズカコウギョウショ,0
1729,6180302021431,登記記録の閉鎖等,0,2022-07-15,2022-07-05,有限会社イマウラ工業,,有限会社,愛知県,豊田市,竜神町飛越４２番地３,,23,211,4730907,,,2022-07-05,清算の結了等,,,2015-10-05,1,,,,,イマウラコウギョウ,0
1733,6190001016194,登記記録の閉鎖等,0,2022-07-15,2022-06-30,北勢メディカル株式会社,,株式会社,三重県,鈴鹿市,西条６丁目１０番地アインスフライハイト５階,,24,207,5130809,,,2022-06-30,清算の結了等,,,2015-10-05,1,,,,,ホクセイメディカル,0
1764,6310002015182,登記記録の閉鎖等,0,2022-07-15,2022-07-14,有限会社サンオール長崎,,有限会社,長崎県,諫早市,多良見町化屋１３４６番地５,,42,204,8590401,,,2022-07-14,清算の結了等,,,2015-10-05,1,,,,,サンオールナガサキ,0
1765,6310005002442,登記記録の閉鎖等,0,2022-07-15,2022-07-08,医療法人ちぎた歯科医院,,その他の設立登記法人,長崎県,佐世保市,日野町８４６番地１３,,42,202,8580923,,,2022-07-08,清算の結了等,,,2015-10-05,1,,,,,チギタシカイイン,0
1770,6330001024133,登記記録の閉鎖等,0,2022-07-15,2022-07-01,株式会社ヴィント・ガルテン,,株式会社,熊本県,熊本市北区,武蔵ケ丘２丁目１番３３号,,43,105,8618001,,,2022-07-01,清算の結了等,,,2017-06-01,1,,,,,ヴィントガルテン,0
1777,6380002002876,登記記録の閉鎖等,0,2022-07-15,2022-07-08,菱沼鉄工有限会社,,有限会社,福島県,福島市,飯坂町湯野字落合１４番地の２,,07,201,9600211,,,2022-07-08,清算の結了等,,,2015-10-05,1,,,,,ヒシヌマテッコウ,0
1781,6410001004977,登記記録の閉鎖等,0,2022-07-15,2022-07-06,株式会社ヴィヴァイオ,,株式会社,秋田県,由利本荘市,西目町出戸字浜山３番地４０,,05,210,0180602,,,2022-07-06,清算の結了等,,,2015-10-05,1,,,,,ヴィヴァイオ,0
1785,6420001006171,登記記録の閉鎖等,0,2022-07-15,2022-07-12,アルバック東北株式会社,,株式会社,青森県,八戸市,北インター工業団地６丁目１番１６号,,02,203,0392245,,,2022-07-12,合併による解散等,5021001007242,令和４年７月１日神奈川県茅ヶ崎市萩園２５００番地株式会社アルバック（5021001007242）に合併し解散,2015-10-05,1,,,,,アルバックトウホク,0
1806,7010003028865,登記記録の閉鎖等,0,2022-07-15,2022-07-04,合同会社Ｎｏｂｉ’ｓ,,合同会社,東京都,中央区,月島１丁目１９番４号,,13,102,1040052,,,2022-07-04,清算の結了等,,,2018-12-11,1,,,,,ノビーズ,0
1818,7010402027641,登記記録の閉鎖等,0,2022-07-15,2022-06-29,有限会社レーベル,,有限会社,東京都,港区,新橋５丁目２０番３号新橋ＳＴビル４階,,13,103,1050004,,,2022-06-29,清算の結了等,,,2015-10-05,1,,,,,レーベル,0
1827,7010802000652,登記記録の閉鎖等,0,2022-07-15,2022-07-07,有限会社あづまコーティング,,有限会社,東京都,大田区,山王４丁目１９番１３号,,13,111,1430023,,,2022-07-07,清算の結了等,,,2015-10-05,1,,,,,アヅマコーティング,0
1838,7011102001408,登記記録の閉鎖等,0,2022-07-15,2022-07-11,有限会社ウイング,,有限会社,東京都,新宿区,片町１番６号,,13,104,1600001,,,2022-07-11,清算の結了等,,,2015-10-05,1,,,,,ウイング,0
1840,7011301005564,登記記録の閉鎖等,0,2022-07-15,2022-07-12,日東商会株式会社,,株式会社,東京都,調布市,飛田給１丁目２３番地１１,,13,208,1820036,,,2022-07-12,清算の結了等,,,2015-10-05,1,,,,,ニットウショウカイ,0
1849,7011502007517,登記記録の閉鎖等,0,2022-07-15,2022-07-13,大橋運送有限会社,,有限会社,東京都,荒川区,東日暮里３丁目１４番８号,,13,118,1160014,,,2022-07-13,清算の結了等,,,2015-10-05,1,,,,,オオハシウンソウ,0
1857,7011702009569,登記記録の閉鎖等,0,2022-07-15,2022-07-13,有限会社桧商亊,,有限会社,東京都,武蔵野市,緑町２丁目３番Ｂ５－６０５号,,13,203,1800012,,,2022-07-13,清算の結了等,,,2015-10-05,1,,,,,ヒノキショウジ,0
1891,7021002069024,登記記録の閉鎖等,0,2022-07-15,2022-07-08,有限会社矢島酒店,,有限会社,神奈川県,三浦郡葉山町,堀内１０５１番地のイ号,,14,301,2400112,,,2022-07-08,清算の結了等,,,2015-10-05,1,,,,,,0
1892,7030001028436,登記記録の閉鎖等,0,2022-07-15,2022-07-04,株式会社フジホーム,,株式会社,埼玉県,所沢市,小手指町３丁目２７番５号,,11,208,3591141,,,2022-07-04,清算の結了等,,,2015-10-05,1,,,,,フジホーム,0
1908,7050001010235,登記記録の閉鎖等,0,2022-07-15,2022-07-01,株式会社安田工務店,,株式会社,茨城県,稲敷郡美浦村,大字土屋１８３４番地の８,,08,442,3000426,,,2022-07-01,清算の結了等,,,2015-10-05,1,,,,,ヤスダコウムテン,0
1924,7080402004023,登記記録の閉鎖等,0,2022-07-15,2022-07-11,有限会社スズイ,,有限会社,静岡県,浜松市北区,初生町１３４９番地の７,,22,135,4338112,,,2022-07-11,清算の結了等,,,2015-10-05,1,,,,,スズイ,0
1926,7080403000450,登記記録の閉鎖等,0,2022-07-15,2022-07-08,合資会社新大村旅館,,合資会社,静岡県,湖西市,新居町新居３３５７番地,,22,221,4310302,,,2022-07-08,清算の結了等,,,2015-10-05,1,,,,,シンオオムラリョカン,0
1927,7080403003998,登記記録の閉鎖等,0,2022-07-15,2022-07-11,合同会社かすが,,合同会社,静岡県,浜松市西区,舞阪町舞阪２０２１番地,,22,133,4310211,,,2022-07-11,清算の結了等,,,2020-03-09,1,,,,,カスガ,0
1955,7130001007289,登記記録の閉鎖等,0,2022-07-15,2022-06-30,株式会社堀亀工務店,,株式会社,京都府,京都市左京区,修学院大林町５番地の３,,26,103,6068081,,,2022-06-30,清算の結了等,,,2015-10-05,1,,,,,ホリカメコウムテン,0
1961,7130005015453,登記記録の閉鎖等,0,2022-07-15,2022-07-05,特定非営利活動法人キングコブラ会,,その他の設立登記法人,京都府,京都市右京区,嵯峨石ケ坪町１番地１６６,,26,108,6168335,,,2022-07-05,清算の結了等,,,2018-12-11,1,,,,,キングコブラカイ,0
1978,7180001100709,登記記録の閉鎖等,0,2022-07-15,2022-07-04,株式会社センナリ,,株式会社,愛知県,半田市,有楽町４丁目１６３番地,,23,205,4750837,,,2022-07-04,清算の結了等,,,2015-10-05,1,,,,,センナリ,0
1992,7180303004839,登記記録の閉鎖等,0,2022-07-15,2022-07-05,合同会社ＷＯＯＢ,,合同会社,愛知県,豊橋市,小浜町１０７番地の８,,23,201,4418067,,,2022-07-05,清算の結了等,,,2020-12-22,1,,,,,ウーブ,0
1997,7190001005295,登記記録の閉鎖等,0,2022-07-15,2022-07-01,長谷川機工株式会社,,株式会社,三重県,鈴鹿市,白子１丁目３０番２８号,,24,207,5100243,,,2022-07-01,合併による解散等,2190001026429,令和４年７月１日三重県鈴鹿市白子一丁目３０番２８号長谷川機工株式会社（2190001026429）に合併し解散,2015-10-05,1,,,,,ハセガワキコウ,0
2018,7280002001846,登記記録の閉鎖等,0,2022-07-15,2022-07-13,有限会社ビナス美容室,,有限会社,島根県,松江市,伊勢宮町５４２番地,,32,201,6900006,,,2022-07-13,清算の結了等,,,2015-10-05,1,,,,,ビナスビヨウシツ,0
2052,7380002027765,登記記録の閉鎖等,0,2022-07-15,2022-07-01,有限会社小名浜サービス,,有限会社,福島県,いわき市,平字下川原３８番地の４,,07,204,9708026,,,2022-07-01,清算の結了等,,,2015-10-05,1,,,,,オナハマサービス,0
2071,7430002050514,登記記録の閉鎖等,0,2022-07-15,2022-07-01,有限会社フェニックス,,有限会社,北海道,岩見沢市,三条東７丁目４番地５,,01,210,0680003,,,2022-07-01,合併による解散等,4430001047654,令和４年７月１日北海道岩見沢市三条東七丁目４番地５株式会社エイエスケー（4430001047654）に合併し解散,2015-10-05,1,,,,,フェニックス,0
2072,7430002056412,登記記録の閉鎖等,0,2022-07-15,2022-06-30,大恵通信建設有限会社,,有限会社,北海道,余市郡余市町,栄町４７４番地,,01,408,0460001,,,2022-06-30,清算の結了等,,,2015-10-05,1,,,,,ダイケイツウシンケンセツ,0
2086,7490005005542,登記記録の閉鎖等,0,2022-07-15,2022-05-25,大谷神社,,その他の設立登記法人,高知県,安芸郡北川村,大字久木５６１番地,,39,305,7816456,,,2022-05-25,合併による解散等,5490005005610,令和４年５月２５日高知県安芸郡北川村島１８０番地星神社（5490005005610）に合併し解散,2015-10-05,1,,,,,オオタニ,0
2104,8010401161135,登記記録の閉鎖等,0,2022-07-15,2022-06-28,株式会社Ａ－ｔｉｐ,,株式会社,東京都,港区,西麻布３丁目６番１号センチュリオンタワー８階,,13,103,1060031,,,2022-06-28,清算の結了等,,,2021-06-28,1,,,,,エーチップ,0
2115,8010601058379,登記記録の閉鎖等,0,2022-07-15,2022-07-06,株式会社ＷｈｉｔｅＭａｐ,,株式会社,神奈川県,横浜市神奈川区,栄町５－１横浜クリエーションスクエア１４階,,14,102,2210052,,,2022-07-06,清算の結了等,,,2020-11-27,1,,,,,ホワイトマップ,0
2117,8010701017598,登記記録の閉鎖等,0,2022-07-15,2022-07-13,株式会社ＳＡＫＵＲＡ,,株式会社,東京都,大田区,蒲田１丁目６番２９号,,13,111,1440052,,,2022-07-13,合併による解散等,5010701029670,令和４年６月２８日東京都品川区南品川二丁目１４番１５号株式会社ユープラント（5010701029670）に合併し解散,2015-10-05,1,,,,,,0
2146,8011801001161,登記記録の閉鎖等,0,2022-07-15,2022-07-12,株式会社技屋,,株式会社,東京都,葛飾区,鎌倉２丁目２９番１０号,,13,122,1250053,,,2022-07-12,清算の結了等,,,2015-10-05,1,,,,,ギヤ,0
2149,8012301001899,登記記録の閉鎖等,0,2022-07-15,2022-07-05,株式会社二幸商店,,株式会社,東京都,町田市,三輪緑山２丁目１１番地８,,13,209,1950055,,,2022-07-05,清算の結了等,,,2015-10-05,1,,,,,ニコウショウテン,0
2174,8030001092290,登記記録の閉鎖等,0,2022-07-15,2022-06-30,株式会社ＯＲＭ,,株式会社,埼玉県,さいたま市大宮区,高鼻町１丁目５３番地４高鼻町川鍋ビル４階,,11,103,3300803,,,2022-06-30,清算の結了等,,,2015-10-05,1,,,,,オーアールエム,0
2219,8090002007457,登記記録の閉鎖等,0,2022-07-15,2022-07-06,有限会社田中ステンレス工業,,有限会社,山梨県,南アルプス市,在家塚２６３番地,,19,208,4000221,,,2022-07-06,清算の結了等,,,2015-10-05,1,,,,,タナカステンレスコウギョウ,0
2255,8130001047664,登記記録の閉鎖等,0,2022-07-15,2022-07-01,株式会社絆,,株式会社,京都府,綾部市,桜が丘１丁目１６番地の１２,,26,203,6230008,,,2022-07-01,清算の結了等,,,2015-10-05,1,,,,,キズナ,0
2296,8190002000055,登記記録の閉鎖等,0,2022-07-15,2022-07-04,有限会社赤塚電気,,有限会社,三重県,津市,大里山室町２４番地,,24,201,5140121,,,2022-07-04,清算の結了等,,,2015-10-05,1,,,,,アカツカデンキ,0
2301,8220001016940,登記記録の閉鎖等,0,2022-07-15,2022-07-07,能登ダイヤ工業株式会社,,株式会社,石川県,珠洲市,正院町川尻鳥翅４５番地の１,,17,205,9271205,,,2022-07-07,清算の結了等,,,2015-10-05,1,,,,,ノトダイヤコウギョウ,0
2305,8220002011528,登記記録の閉鎖等,0,2022-07-15,2022-07-07,有限会社美研,,有限会社,石川県,能美市,寺井町れ１４１番地,,17,211,9231121,,,2022-07-07,清算の結了等,,,2015-10-05,1,,,,,,0
2307,8230005008735,登記記録の閉鎖等,0,2022-07-15,2022-07-06,一般社団法人Ｆｒｅｅｎａｖｉとやま,,その他の設立登記法人,富山県,富山市,田刈屋３５４番地２８,,16,201,9300897,,,2022-07-06,清算の結了等,,,2016-12-26,1,,,,,フリーナビトヤマ,0
2315,8260001033445,登記記録の閉鎖等,0,2022-07-15,2022-07-12,トルディ株式会社,,株式会社,岡山県,井原市,大江町３４５４番地２,,33,207,7150023,,,2022-07-12,清算の結了等,,,2019-08-14,1,,,,,トルディ,0
2332,8300001010984,登記記録の閉鎖等,0,2022-07-15,2022-07-07,株式会社一颯,,株式会社,佐賀県,佐賀市,水ヶ江４丁目２番２３号,,41,201,8400054,,,2022-07-07,清算の結了等,,,2017-09-05,1,,,,,イブキ,0
2362,8402703000030,登記記録の閉鎖等,0,2022-07-15,2022-07-12,合名会社中赤崎六親団,,合名会社,岩手県,大船渡市,赤崎町字後ノ入７２番地２,,03,203,0220007,,,2022-07-12,合併による解散等,7402701000710,令和４年７月１日岩手県大船渡市赤崎町字跡浜１８３番地４株式会社中赤崎振興会（7402701000710）に合併し解散,2015-10-05,1,,,,,ナカアカサキロクシンダン,0
2363,8410002010097,登記記録の閉鎖等,0,2022-07-15,2022-07-08,有限会社アグロホンゴウ,,有限会社,秋田県,能代市,竹生字笹ノ台９４０番地,,05,202,0160016,,,2022-07-08,清算の結了等,,,2015-10-05,1,,,,,アグロホンゴウ,0
2367,8420002017645,登記記録の閉鎖等,0,2022-07-15,2022-07-08,有限会社織笠建築,,有限会社,青森県,三沢市,谷地頭２丁目１３７９番地２号,,02,207,0330164,,,2022-07-08,清算の結了等,,,2015-10-05,1,,,,,オリカサケンチク,0
2386,8470001008657,登記記録の閉鎖等,0,2022-07-15,2022-07-13,株式会社Ｍ・Ｉ・Ｋ,,株式会社,香川県,丸亀市,今津町１９番地１,,37,202,7630051,,,2022-07-13,清算の結了等,,,2015-10-05,1,,,,,エムアイケイ,0
2393,8490002008687,登記記録の閉鎖等,0,2022-07-15,2022-07-06,山忠サービス有限会社,,有限会社,高知県,四万十市,中村大橋通３丁目２４番１,,39,210,7870033,,,2022-07-06,清算の結了等,,,2015-10-05,1,,,,,ヤマチュウサービス,0
2395,8500002002977,登記記録の閉鎖等,0,2022-07-15,2022-07-11,有限会社三共理科,,有限会社,愛媛県,松山市,鉄砲町２番地８,,38,201,7900827,,,2022-07-11,清算の結了等,,,2015-10-05,1,,,,,サンキョウリカ,0
2415,9010401115445,登記記録の閉鎖等,0,2022-07-15,2022-06-28,株式会社ＬＣレンディング,,株式会社,東京都,港区,虎ノ門１丁目７番１２号,,13,103,1050001,,,2022-06-28,清算の結了等,,,2015-10-05,1,,,,,エルシーレンディング,0
2428,9010601016006,登記記録の閉鎖等,0,2022-07-15,2022-07-11,エフピコみやこひも株式会社,,株式会社,東京都,新宿区,西新宿６丁目８番１号新宿オークタワー３４階,,13,104,1600023,,,2022-07-11,合併による解散等,1240001030013,令和４年７月１日広島県福山市曙町一丁目１３番１３号エフピコ商事株式会社（1240001030013）に合併し解散,2015-10-05,1,,,,,エフピコミヤコヒモ,0
2435,9010701004876,登記記録の閉鎖等,0,2022-07-15,2022-07-08,株式会社伸和,,株式会社,東京都,品川区,西大井４丁目２４番１１号,,13,109,1400015,,,2022-07-08,清算の結了等,,,2015-10-05,1,,,,,シンワ,0
2467,9011601007572,登記記録の閉鎖等,0,2022-07-15,2022-07-12,株式会社セキグチ,,株式会社,東京都,練馬区,豊玉北１丁目９番２－６０４号,,13,120,1760012,,,2022-07-12,清算の結了等,,,2015-10-05,1,,,,,セキグチ,0
2488,9013402003809,登記記録の閉鎖等,0,2022-07-15,2022-07-12,有限会社日之出屋,,有限会社,東京都,稲城市,長峰３丁目２番地杜の一番街３－９０２,,13,225,2060821,,,2022-07-12,清算の結了等,,,2015-10-05,1,,,,,ヒノデヤ,0
2508,9030002100002,登記記録の閉鎖等,0,2022-07-15,2022-06-29,有限会社アズマ建機サービス,,有限会社,埼玉県,川口市,上青木１丁目１０番４号,,11,203,3330844,,,2022-06-29,清算の結了等,,,2015-10-05,1,,,,,アズマケンキサービス,0
2536,9050003006196,登記記録の閉鎖等,0,2022-07-15,2022-07-04,琉幸商会合同会社,,合同会社,茨城県,つくば市,研究学園６丁目３２番地４,,08,220,3050817,,,2022-07-04,清算の結了等,,,2021-11-15,1,,,,,リュウコウショウカイ,0
2551,9100001009625,登記記録の閉鎖等,0,2022-07-15,2022-07-11,株式会社エイネット,,株式会社,長野県,上田市,下之郷８１３番地１５,,20,203,3861211,,,2022-07-11,合併による解散等,4011101083391,令和４年７月１日東京都新宿区西新宿三丁目２０番２号株式会社ＡＧＥＳＴ（4011101083391）に合併し解散,2015-10-05,1,,,,,エイネット,0
2552,9100001015887,登記記録の閉鎖等,0,2022-07-15,2022-07-12,エイワスペシャリティーフーズ株式会社,,株式会社,長野県,安曇野市,穂高北穂高２８４５番地７,,20,220,3998302,,,2022-07-12,合併による解散等,4010901041534,令和４年７月１日東京都世田谷区経堂一丁目５番４号エイワフードソリューション株式会社（4010901041534）に合併し解散,2015-10-05,1,,,,,エイワスペシャリティーフーズ,0
2606,9180001016671,登記記録の閉鎖等,0,2022-07-15,2022-07-07,小西鉄工株式会社,,株式会社,愛知県,名古屋市東区,筒井３丁目２８番４号,,23,102,4610003,,,2022-07-07,清算の結了等,,,2015-10-05,1,,,,,コニシテッコウショ,0
2632,9190001025944,登記記録の閉鎖等,0,2022-07-15,2022-07-05,株式会社コスモス,,株式会社,三重県,松阪市,中央町３１８番地２,,24,204,5150019,,,2022-07-05,清算の結了等,,,2018-10-18,1,,,,,コスモス,0
2646,9240001021913,登記記録の閉鎖等,0,2022-07-15,2022-07-07,株式会社ハンス,,株式会社,広島県,広島市南区,皆実町１丁目１３番２７号,,34,103,7340007,,,2022-07-07,合併による解散等,6240001000639,令和４年７月１日広島市南区皆実町一丁目１３番２７号株式会社アルツトハンス（6240001000639）に合併し解散,2015-10-05,1,,,,,ハンス,0
2650,9260001025747,登記記録の閉鎖等,0,2022-07-15,2022-07-13,株式会社ふれんど不動産,,株式会社,岡山県,都窪郡早島町,早島７０７番地１,,33,423,7010304,,,2022-07-13,清算の結了等,,,2015-10-05,1,,,,,フレンドフドウサン,0
2651,9260002025770,登記記録の閉鎖等,0,2022-07-15,2022-07-13,徳永建設有限会社,,有限会社,岡山県,井原市,上出部町６６５番地,,33,207,7150021,,,2022-07-13,清算の結了等,,,2015-10-05,1,,,,,トクナガケンセツ,0
2652,9260002027536,登記記録の閉鎖等,0,2022-07-15,2022-07-13,有限会社ウッドリサイクル栄和,,有限会社,岡山県,新見市,大佐田治部２８０６番地の２,,33,210,7193506,,,2022-07-13,清算の結了等,,,2015-10-05,1,,,,,ウッドリサイクルエイワ,0
2655,9280002006653,登記記録の閉鎖等,0,2022-07-15,2022-07-13,有限会社吉廻石油,,有限会社,島根県,出雲市,大社町菱根１２３番地,,32,203,6990733,,,2022-07-13,清算の結了等,,,2015-10-05,1,,,,,ヨシザコセキユ,0
2660,9290001088790,登記記録の閉鎖等,0,2022-07-15,2022-07-12,梅野セメント工業建材販売株式会社,,株式会社,福岡県,福岡市早良区,田村７丁目２７番８号,,40,137,8140175,,,2022-07-12,合併による解散等,1300005005657,令和４年７月１日佐賀県唐津市北波多岸山字サイコノ谷３７３番地１７株式会社唐津シービー（1300005005657）に合併し解散,2020-05-26,1,,,,,ウメノセメントコウギョウケンザイハンバイ,0
2667,9310005005401,登記記録の閉鎖等,0,2022-07-15,2022-07-11,医療法人みなと歯科医院,,その他の設立登記法人,長崎県,島原市,中組町３１４番地１,,42,203,8550822,,,2022-07-11,清算の結了等,,,2015-10-05,1,,,,,ミナトシカイイン,0
2677,9360005000661,登記記録の閉鎖等,0,2022-07-15,2022-07-08,協同組合有村総合物流,,その他の設立登記法人,沖縄県,那覇市,港町２丁目１７番１号,,47,201,9000001,,,2022-07-08,清算の結了等,,,2015-10-05,1,,,,,アリムラソウゴウブツリュウ,0
2679,9370001018153,登記記録の閉鎖等,0,2022-07-15,2022-07-01,株式会社光,,株式会社,宮城県,仙台市青葉区,米ケ袋１丁目１－１３,,04,101,9800813,,,2022-07-01,合併による解散等,4370001040236,令和４年７月１日仙台市青葉区郷六字久保３８番地の２８ダイヤモンドメディカル株式会社（4370001040236）に合併し解散,2015-10-05,1,,,,,ヒカリ,0
2684,9370005009215,登記記録の閉鎖等,0,2022-07-15,2022-07-04,特定非営利活動法人総合型地域スポーツクラブレッツいわぬまスポーツネット,,その他の設立登記法人,宮城県,岩沼市,桜２丁目８番３０号,,04,211,9892433,,,2022-07-04,清算の結了等,,,2017-04-27,1,,,,,ソウゴウガタチイキスポーツクラブレッツイワヌマスポーツネット,0
2686,9380002025734,登記記録の閉鎖等,0,2022-07-15,2022-07-08,有限会社福園新聞店,,有限会社,福島県,いわき市,小島町２丁目５番地の４,,07,204,9738411,,,2022-07-08,清算の結了等,,,2015-10-05,1,,,,,フクゾノシンブンテン,0
2695,9430002039613,登記記録の閉鎖等,0,2022-07-15,2022-07-01,有限会社黒森酒販,,有限会社,北海道,札幌市白石区,平和通４丁目南１番７号,,01,104,0030028,,,2022-07-01,合併による解散等,4430001043554,令和４年７月１日北海道千歳市錦町四丁目１番株式会社クロモリ（4430001043554）に合併し解散,2015-10-05,1,,,,,クロモリシュハン,0
2703,9440001007850,登記記録の閉鎖等,0,2022-07-15,2022-07-07,チクバホールディングス株式会社,,株式会社,北海道,函館市,湯川町２丁目６番２２号,,01,202,0420932,,,2022-07-07,合併による解散等,7440001008140,令和４年７月７日北海道函館市湯川町二丁目６番２２号竹葉新葉亭株式会社（7440001008140）に合併し解散,2016-03-08,1,,,,,チクバホールディングス,0
