sequenceNumber,corporateNumber,process,correct,updateDate,changeDate,name,nameImageId,kind,prefectureName,cityName,streetNumber,addressImageId,prefectureCode,cityCode,postCode,addressOutside,addressOutsideImageId,closeDate,closeCause,successorCorporateNumber,changeCause,assignmentDate,latest,enName,enPrefectureName,enCityName,enAddressOutside,furigana,hihyoji
8,1010001146501,登記記録の閉鎖等,0,2022-03-25,2022-03-23,コレクターズ・ジャパン株式会社,,株式会社,東京都,中央区,銀座６丁目５番１３号,,13,102,1040061,,,2022-03-23,清算の結了等,,,2015-10-05,1,,,,,コレクターズジャパン,0
44,1011001103616,登記記録の閉鎖等,0,2022-03-25,2022-03-17,株式会社Ｃｒｏｌｄ　Ｖａｌｉｅａｔ,,株式会社,東京都,港区,赤坂１丁目１番１７号,,13,103,1070052,,,2022-03-17,清算の結了等,,,2015-10-05,1,,,,,クールドバリエイト,0
75,1020001091119,登記記録の閉鎖等,0,2022-03-25,2022-03-23,株式会社アサヒリケン,,株式会社,神奈川県,横浜市瀬谷区,宮沢２丁目４７番４号,,14,114,2460038,,,2022-03-23,清算の結了等,,,2015-10-05,1,,,,,アサヒリケン,0
79,1020001129991,登記記録の閉鎖等,0,2022-03-25,2022-03-23,Ｃａｍｂｒｉｏｓ　Ｆｉｌｍ　Ｓｏｌｕｔｉｏｎｓ　Ｊａｐａｎ株式会社,,株式会社,東京都,品川区,西五反田７丁目１１番１号第五花田ビル３階,,13,109,1410031,,,2022-03-23,清算の結了等,,,2019-02-21,1,Cambrios Film Solutions Japan Corporation,Tokyo,"7-11-1, Shinagawa ku, Nishi-Gotanda",,カンブリオスフィルムソリューションジャパン,0
104,1030002081563,登記記録の閉鎖等,0,2022-03-25,2022-03-23,有限会社森口屋商店,,有限会社,埼玉県,児玉郡神川町,大字元阿保５７６番地,,11,383,3670247,,,2022-03-23,清算の結了等,,,2015-10-05,1,,,,,モリグチヤショウテン,0
115,1040002004754,登記記録の閉鎖等,0,2022-03-25,2022-03-16,有限会社桜井松商店,,有限会社,千葉県,千葉市中央区,神明町３番地２９,,12,101,2600022,,,2022-03-16,清算の結了等,,,2015-10-05,1,,,,,サクライマツショウテン,0
153,1120102020528,登記記録の閉鎖等,0,2022-03-25,2022-03-22,大和住宅管理有限会社,,有限会社,大阪府,藤井寺市,小山５丁目３番９号,,27,226,5830033,,,2022-03-22,清算の結了等,,,2015-10-05,1,,,,,ダイワジュウタクカンリ,0
161,1130005013735,登記記録の閉鎖等,0,2022-03-25,2022-03-22,京都南生コンクリート協同組合,,その他の設立登記法人,京都府,宇治市,大久保町井ノ尻３９番地３中川ビル２階,,26,204,6110033,,,2022-03-22,清算の結了等,,,2015-10-05,1,,,,,キョウトミナミナマコンクリート,0
163,1140001042852,登記記録の閉鎖等,0,2022-03-25,2022-03-22,カピル開発株式会社,,株式会社,兵庫県,加古川市,加古川町溝之口５０７番地,,28,210,6750064,,,2022-03-22,合併による解散等,6140001042600,令和４年３月２２日兵庫県加古川市加古川町溝之口５０７番地加古川再開発ビル株式会社（6140001042600）に合併し解散,2015-10-05,1,,,,,カピルカイハツ,0
178,1180001050975,登記記録の閉鎖等,0,2022-03-25,2022-03-22,株式会社プランズ,,株式会社,愛知県,名古屋市東区,泉３丁目４番１３号,,23,102,4610001,,,2022-03-22,清算の結了等,,,2015-10-05,1,,,,,プランズ,0
212,1290805007210,登記記録の閉鎖等,0,2022-03-25,2022-03-22,医療法人佐竹歯科医院,,その他の設立登記法人,福岡県,田川市,本町１番３９号,,40,206,8260022,,,2022-03-22,清算の結了等,,,2015-10-05,1,,,,,サタケシカイイン,0
216,1330002018064,登記記録の閉鎖等,0,2022-03-25,2022-03-24,有限会社ロングライフ,,有限会社,熊本県,菊池市,玉祥寺１３８番地２８,,43,210,8611322,,,2022-03-24,清算の結了等,,,2015-10-05,1,,,,,ロングライフ,0
220,1350003003410,登記記録の閉鎖等,0,2022-03-25,2022-03-22,合同会社ＨＡＰＰＹ　ＦＯＯＤＳ,,合同会社,宮崎県,日向市,大字財光寺往還町４５番地６,,45,206,8830024,,,2022-03-22,清算の結了等,,,2019-09-04,1,,,,,ハッピーフーズ,0
231,1370201002930,登記記録の閉鎖等,0,2022-03-25,2022-03-18,株式会社新建設,,株式会社,宮城県,栗原市,築館源光１０番２５号,,04,213,9872211,,,2022-03-18,清算の結了等,,,2015-10-05,1,,,,,シンケンセツ,0
236,1400002003595,登記記録の閉鎖等,0,2022-03-25,2022-03-24,有限会社よしたて事務所,,有限会社,岩手県,盛岡市,月が丘１丁目３１番９号,,03,201,0200121,,,2022-03-24,清算の結了等,,,2015-10-05,1,,,,,ヨシタテジムショ,0
245,1440002007915,登記記録の閉鎖等,0,2022-03-25,2022-03-23,有限会社丸喜運送,,有限会社,北海道,北斗市,稲里２１８番地,,01,236,0411241,,,2022-03-23,清算の結了等,,,2015-10-05,1,,,,,マルキウンソウ,0
254,2010001116065,登記記録の閉鎖等,0,2022-03-25,2022-03-18,株式会社リックデザイン,,株式会社,東京都,千代田区,神田北乗物町２番地,,13,101,1010036,,,2022-03-18,清算の結了等,,,2015-10-05,1,,,,,リックデザイン,0
256,2010001180301,登記記録の閉鎖等,0,2022-03-25,2022-03-22,株式会社ＳＬＰｌａｎｎｉｎｇ,,株式会社,東京都,国立市,谷保９４２番地の５ハイムマルセン弐番館２０２号,,13,215,1860011,,,2022-03-22,清算の結了等,,,2016-12-21,1,,,,,エスエルプランニング,0
264,2010002008625,登記記録の閉鎖等,0,2022-03-25,2022-03-22,有限会社オフィス・ナオ,,有限会社,東京都,千代田区,一番町１５番地６,,13,101,1020082,,,2022-03-22,清算の結了等,,,2015-10-05,1,,,,,オフィスナオ,0
269,2010005026129,登記記録の閉鎖等,0,2022-03-25,2022-03-23,一般社団法人サポートホールディングスＪＲＥ枕崎,,その他の設立登記法人,東京都,千代田区,丸の内３丁目１番１号東京共同会計事務所内,,13,101,1000005,,,2022-03-23,清算の結了等,,,2016-12-15,1,,,,,サポートホールディングスジェイアールイーマクラザキ,0
272,2010102002668,登記記録の閉鎖等,0,2022-03-25,2022-03-23,有限会社小林工業,,有限会社,東京都,八王子市,松木１８番地の１３,,13,201,1920362,,,2022-03-23,清算の結了等,,,2015-10-05,1,,,,,コバヤシコウギョウ,0
285,2010501031953,登記記録の閉鎖等,0,2022-03-25,2022-03-16,株式会社Ｔ・Ｍモーテ,,株式会社,埼玉県,児玉郡上里町,大字七本木５０６９,,11,385,3690306,,,2022-03-16,清算の結了等,,,2015-10-05,1,,,,,ティーエムモーテ,0
292,2010602015764,登記記録の閉鎖等,0,2022-03-25,2022-03-18,有限会社宮内薬品,,有限会社,東京都,墨田区,石原２丁目１５番１１号,,13,107,1300011,,,2022-03-18,清算の結了等,,,2015-10-05,1,,,,,ミヤウチヤクヒン,0
293,2010605002999,登記記録の閉鎖等,0,2022-03-25,2022-03-07,一般社団法人難病を考える会,,その他の設立登記法人,東京都,千代田区,神田佐久間町３丁目２７－３－２０２,,13,101,1010025,,,2022-03-07,清算の結了等,,,2015-10-05,1,,,,,ナンビョウヲカンガエルカイ,0
308,2011101033092,登記記録の閉鎖等,0,2022-03-25,2022-03-18,株式会社エヌシー・ライフ,,株式会社,東京都,新宿区,新宿１丁目２番１１号,,13,104,1600022,,,2022-03-18,清算の結了等,,,2015-10-05,1,,,,,,0
339,2013202011357,登記記録の閉鎖等,0,2022-03-25,2022-03-23,有限会社アメリカンコイン,,有限会社,東京都,中央区,銀座６丁目５番１３号,,13,102,1040061,,,2022-03-23,清算の結了等,,,2015-10-05,1,,,,,アメリカンコイン,0
342,2013302009961,登記記録の閉鎖等,0,2022-03-25,2022-03-16,有限会社カタヤマコーポレーション,,有限会社,東京都,豊島区,巣鴨２丁目１６番４号,,13,116,1700002,,,2022-03-16,清算の結了等,,,2015-10-05,1,,,,,カタヤマコーポレーション,0
387,2100002004367,登記記録の閉鎖等,0,2022-03-25,2022-03-25,有限会社フアミリア・ホームパーテイーズ,,有限会社,長野県,長野市,松岡２丁目１番２０号,,20,201,3810026,,,2022-03-25,清算の結了等,,,2015-10-05,1,,,,,フアミリアホームパーテイーズ,0
389,2100002038547,登記記録の閉鎖等,0,2022-03-25,2022-03-23,有限会社城田住建,,有限会社,長野県,下伊那郡阿南町,西条６００番地,,20,404,3991500,,,2022-03-23,清算の結了等,,,2015-10-05,1,,,,,シロタジュウケン,0
391,2110001001430,登記記録の閉鎖等,0,2022-03-25,2022-03-22,株式会社エー・スミス,,株式会社,新潟県,新潟市中央区,礎町通４ノ町２１１８番地,,15,103,9518055,,,2022-03-22,清算の結了等,,,2015-10-05,1,,,,,エースミス,0
397,2120001216663,登記記録の閉鎖等,0,2022-03-25,2022-03-23,株式会社ＡＲＬ,,株式会社,大阪府,大阪市中央区,瓦屋町２丁目１２番２号,,27,128,5420066,,,2022-03-23,清算の結了等,,,2018-10-23,1,,,,,エーアールエル,0
412,2122001033808,登記記録の閉鎖等,0,2022-03-25,2022-03-24,株式会社ＮＥＬ　ＡＧＥＮＣＹ,,株式会社,大阪府,東大阪市,柏田東町６番５－２０３号,,27,227,5770833,,,2022-03-24,清算の結了等,,,2020-07-06,1,,,,,ネルエージェンシー,0
463,2240001040845,登記記録の閉鎖等,0,2022-03-25,2022-03-24,株式会社ＹＯＳＨＩＤＡ,,株式会社,広島県,広島市佐伯区,五日市町大字石内字尾崎５０２７番１４,,34,108,7315102,,,2022-03-24,清算の結了等,,,2015-10-05,1,,,,,,0
487,2290801018334,登記記録の閉鎖等,0,2022-03-25,2022-03-17,株式会社ルージュ,,株式会社,福岡県,北九州市八幡西区,藤原１丁目８番２４－１４０２号,,40,109,8070873,,,2022-03-17,清算の結了等,,,2015-10-05,1,,,,,ルージュ,0
515,2430001036527,登記記録の閉鎖等,0,2022-03-25,2022-03-18,北洋印刷株式会社,,株式会社,北海道,札幌市厚別区,厚別南１丁目８番２８号,,01,108,0040022,,,2022-03-18,清算の結了等,,,2015-10-05,1,,,,,ホクヨウインサツ,0
524,2430002063165,登記記録の閉鎖等,0,2022-03-25,2022-03-18,有限会社朝日新聞伊達サービスセンター,,有限会社,北海道,伊達市,旭町５０番地２,,01,233,0520015,,,2022-03-18,清算の結了等,,,2015-10-05,1,,,,,アサヒシンブンダテサービスセンター,0
526,2450003001964,登記記録の閉鎖等,0,2022-03-25,2022-03-17,合同会社インターセクション,,合同会社,北海道,旭川市,宮下通９丁目５３１番地の１,,01,204,0700030,,,2022-03-17,清算の結了等,,,2020-06-23,1,,,,,インターセクション,0
530,2470002018586,登記記録の閉鎖等,0,2022-03-25,2022-03-23,有限会社引田遊園やぎランド,,有限会社,香川県,東かがわ市,引田１７６番地２,,37,207,7692901,,,2022-03-23,清算の結了等,,,2015-10-05,1,,,,,ヒケタユウエンヤギランド,0
540,3010001044307,登記記録の閉鎖等,0,2022-03-25,2022-03-17,株式会社三律物流,,株式会社,千葉県,市川市,行徳駅前１丁目９番５号,,12,203,2720133,,,2022-03-17,清算の結了等,,,2015-10-05,1,,,,,サンリツブツリュウ,0
541,3010001076878,登記記録の閉鎖等,0,2022-03-25,2022-03-22,株式会社山田商事,,株式会社,東京都,千代田区,丸の内３丁目４番１号,,13,101,1000005,,,2022-03-22,清算の結了等,,,2015-10-05,1,,,,,ヤマダショウジ,0
542,3010001111924,登記記録の閉鎖等,0,2022-03-25,2022-03-22,株式会社ジュエリーゴールド,,株式会社,東京都,中央区,築地７丁目５番３号,,13,102,1040045,,,2022-03-22,清算の結了等,,,2015-10-05,1,,,,,ジュエリーゴールド,0
561,3010005022432,登記記録の閉鎖等,0,2022-03-25,2022-03-23,一般社団法人サポートホールディングスＪＲＥ八戸高森,,その他の設立登記法人,東京都,千代田区,丸の内３丁目１番１号東京共同会計事務所内,,13,101,1000005,,,2022-03-23,清算の結了等,,,2015-10-05,1,,,,,サポートホールディングスジェイアールイーハチノヘタカモリ,0
576,3010403022190,登記記録の閉鎖等,0,2022-03-25,2022-03-16,ｉＧｏｎｅ合同会社,,合同会社,東京都,港区,芝４丁目７番６号芝ビルディング７０４,,13,103,1080014,,,2022-03-16,清算の結了等,,,2020-01-23,1,,,,,アイゴーン,0
585,3010902013665,登記記録の閉鎖等,0,2022-03-25,2022-03-24,有限会社ベスト,,有限会社,東京都,世田谷区,喜多見５丁目２１番１５号,,13,112,1570067,,,2022-03-24,清算の結了等,,,2015-10-05,1,,,,,ベスト,0
614,3013105001553,登記記録の閉鎖等,0,2022-03-25,2022-03-22,一般社団法人多摩地域活性化センター,,その他の設立登記法人,東京都,青梅市,大門１丁目５４６番地の１メゾン高野２・１０５,,13,205,1980014,,,2022-03-22,清算の結了等,,,2015-10-05,1,,,,,タマチイキカッセイカセンター,0
660,3050002024618,登記記録の閉鎖等,0,2022-03-25,2022-03-22,有限会社鈴木工務店,,有限会社,茨城県,古河市,釈迦９５番地３,,08,204,3060222,,,2022-03-22,清算の結了等,,,2015-10-05,1,,,,,スズキコウムテン,0
662,3060002012852,登記記録の閉鎖等,0,2022-03-25,2022-03-18,有限会社松崎,,有限会社,栃木県,さくら市,氏家２５１６番地,,09,214,3291311,,,2022-03-18,清算の結了等,,,2015-10-05,1,,,,,マツザキ,0
689,3100005001030,登記記録の閉鎖等,0,2022-03-25,2022-03-03,覚王院,,その他の設立登記法人,長野県,上水内郡信濃町,大字大井２０９６番地,,20,583,3891316,,,2022-03-03,合併による解散等,6100005001052,令和４年３月３日長野県上水内郡信濃町大字大井９４１番地宗教法人貞林寺（6100005001052）に合併し解散,2015-10-05,1,,,,,カクオウイン,0
697,3120001169720,登記記録の閉鎖等,0,2022-03-25,2022-03-22,株式会社ヤシマエコデザイン,,株式会社,大阪府,大阪市中央区,北浜２丁目３番９号,,27,128,5410041,,,2022-03-22,合併による解散等,7120001116058,令和４年３月２１日大阪市中央区北浜二丁目３番９号八州電工株式会社（7120001116058）に合併し解散,2015-10-05,1,,,,,ヤシマエコデザイン,0
723,3150001019154,登記記録の閉鎖等,0,2022-03-25,2022-03-24,株式会社ヨシムラ,,株式会社,奈良県,北葛城郡広陵町,大字大野３８３番地５,,29,426,6350803,,,2022-03-24,清算の結了等,,,2015-10-05,1,,,,,ヨシムラ,0
733,3190005005907,登記記録の閉鎖等,0,2022-03-25,2022-03-09,天理教大炊分教会,,その他の設立登記法人,三重県,伊賀市,炊村５１８番地の３,,24,216,5181403,,,2022-03-09,合併による解散等,7160005002746,令和４年３月７日滋賀県甲賀市水口町嶬峨１８５０番地天理教大野分教会（7160005002746）に合併し解散,2015-10-05,1,,,,,,0
737,3200002006162,登記記録の閉鎖等,0,2022-03-25,2022-03-24,愛知科学工業有限会社,,有限会社,岐阜県,岐阜市,岩田坂３丁目２番３号,,21,201,5013155,,,2022-03-24,清算の結了等,,,2015-10-05,1,,,,,,0
750,3240001048771,登記記録の閉鎖等,0,2022-03-25,2022-03-24,Ａリビング株式会社,,株式会社,広島県,広島市佐伯区,千同２丁目１番１５号第三昭八ビル２階,,34,108,7315141,,,2022-03-24,清算の結了等,,,2016-01-22,1,,,,,エイリビング,0
764,3290002030146,登記記録の閉鎖等,0,2022-03-25,2022-03-22,有限会社エフ・ケー・サービス,,有限会社,福岡県,福岡市東区,八田３丁目１３番５号,,40,131,8130031,,,2022-03-22,清算の結了等,,,2015-10-05,1,,,,,エフケーサービス,0
788,3380005006274,登記記録の閉鎖等,0,2022-03-25,2022-03-22,日本フリーメソジスト平キリスト教会,,その他の設立登記法人,福島県,いわき市,平字杉平６番２,,07,204,9708026,,,2022-03-22,清算の結了等,,,2015-10-05,1,,,,,ニホンフリーメソジストタイラキリストキョウカイ,0
789,3390002007992,登記記録の閉鎖等,0,2022-03-25,2022-03-22,有限会社松本工業,,有限会社,山形県,酒田市,東泉町３丁目１２番地の２１Ａ－１号,,06,204,9980013,,,2022-03-22,清算の結了等,,,2015-10-05,1,,,,,マツモトコウギョウ,0
793,3410005005347,登記記録の閉鎖等,0,2022-03-25,2022-03-17,特定非営利活動法人ゆめきょう,,その他の設立登記法人,秋田県,横手市,朝日が丘４丁目９番２号,,05,203,0130055,,,2022-03-17,清算の結了等,,,2015-10-05,1,,,,,ユメキョウ,0
808,4010001182403,登記記録の閉鎖等,0,2022-03-25,2022-03-23,銀座名医倶楽部株式会社,,株式会社,東京都,中央区,築地４丁目４番１５号東銀座ロイアルハイツ４０１号,,13,102,1040045,,,2022-03-23,清算の結了等,,,2017-03-29,1,,,,,ギンザメイイクラブ,0
827,4010403013387,登記記録の閉鎖等,0,2022-03-25,2022-03-17,合同会社ミスラ,,合同会社,東京都,港区,赤坂１丁目１１番４４号赤坂インターシティ６階,,13,103,1070052,,,2022-03-17,清算の結了等,,,2015-10-05,1,,,,,ミスラ,0
844,4010901018474,登記記録の閉鎖等,0,2022-03-25,2022-03-22,株式会社Ｒ．Ｄ．Ｐ,,株式会社,東京都,世田谷区,経堂５丁目２９番１８－３０１号,,13,112,1560052,,,2022-03-22,清算の結了等,,,2015-10-05,1,,,,,アールディーピー,0
848,4011001117480,登記記録の閉鎖等,0,2022-03-25,2022-03-14,株式会社Ｍｕｓｕｂｉ　Ｄｉｇｉｔａｌ　Ｃｏｎｓｕｌｔｉｎｇ,,株式会社,東京都,渋谷区,千駄ヶ谷３丁目６０番７号,,13,113,1510051,,,2022-03-14,合併による解散等,9010701030253,令和４年２月２８日東京都渋谷区千駄ヶ谷三丁目６０番７号株式会社ＰＥＣＯ（9010701030253）に合併し解散,2017-07-24,1,,,,,ムスビデジタルコンサルティング,0
883,4020001112037,登記記録の閉鎖等,0,2022-03-25,2022-02-14,株式会社ｍａｋａｎａｎｉ,,株式会社,神奈川県,大和市,渋谷６丁目１５－４ＳＨＩＢＵＹＡマルトビル１０１,,14,213,2420023,,,2022-02-14,清算の結了等,,,2015-10-05,1,,,,,マカナニ,0
887,4020002015107,登記記録の閉鎖等,0,2022-03-25,2022-03-23,有限会社奈良金子精工,,有限会社,神奈川県,横浜市青葉区,奈良５丁目４番地３,,14,117,2270038,,,2022-03-23,清算の結了等,,,2015-10-05,1,,,,,ナラカネコセイコウ,0
893,4021002012845,登記記録の閉鎖等,0,2022-03-25,2022-03-22,有限会社西田商店,,有限会社,神奈川県,茅ヶ崎市,十間坂２丁目１０番１８号,,14,207,2530045,,,2022-03-22,清算の結了等,,,2015-10-05,1,,,,,ニシダショウテン,0
896,4030001052562,登記記録の閉鎖等,0,2022-03-25,2022-03-23,株式会社スリーエーフーズ,,株式会社,埼玉県,春日部市,大枝３５６番地,,11,214,3440023,,,2022-03-23,清算の結了等,,,2015-10-05,1,,,,,スリーエーフーズ,0
915,4040005003494,登記記録の閉鎖等,0,2022-03-25,2022-03-18,特定非営利活動法人八千代オイコス,,その他の設立登記法人,千葉県,八千代市,高津８３２番地１高津団地６－１０－３０１,,12,221,2760036,,,2022-03-18,清算の結了等,,,2015-10-05,1,,,,,ヤチヨオイコス,0
926,4080002013641,登記記録の閉鎖等,0,2022-03-25,2022-03-23,有限会社心和,,有限会社,静岡県,島田市,野田１２００番地の５,,22,209,4270007,,,2022-03-23,清算の結了等,,,2015-10-05,1,,,,,シンワ,0
953,4120002047635,登記記録の閉鎖等,0,2022-03-25,2022-03-22,有限会社ライズ,,有限会社,大阪府,大阪市中央区,南本町２丁目４番１１号,,27,128,5410054,,,2022-03-22,清算の結了等,,,2015-10-05,1,,,,,,0
962,4122001012017,登記記録の閉鎖等,0,2022-03-25,2022-03-22,株式会社ＥＣチャンネル,,株式会社,大阪府,大阪市浪速区,大国３丁目９番２３号,,27,111,5560014,,,2022-03-22,清算の結了等,,,2015-10-05,1,,,,,,0
978,4130005010052,登記記録の閉鎖等,0,2022-03-25,2022-03-04,天理教夜久野分教会,,その他の設立登記法人,京都府,福知山市,夜久野町小倉１３６３番地,,26,201,6291314,,,2022-03-04,合併による解散等,9130005010287,令和４年３月４日京都府福知山市字篠尾小字高貝１０１６番地天理教生福分教会（9130005010287）に合併し解散,2015-10-05,1,,,,,テンリキョウヤクノブンキョウカイ,0
985,4140005002263,登記記録の閉鎖等,0,2022-03-25,2022-03-23,学校法人辻村学園,00041990,その他の設立登記法人,兵庫県,神戸市長田区,細田町４丁目１番２０号,,28,106,6530835,,,2022-03-23,清算の結了等,,,2015-10-05,1,,,,,ツジムラガクエン,0
989,4170001000813,登記記録の閉鎖等,0,2022-03-25,2022-03-24,紀洲モーター株式会社,,株式会社,和歌山県,和歌山市,太田１０５番地,,30,201,6408323,,,2022-03-24,清算の結了等,,,2015-10-05,1,,,,,キシュウモーター,0
996,4180001111782,登記記録の閉鎖等,0,2022-03-25,2022-03-18,株式会社ハートマッスルトレーニングジム,,株式会社,愛知県,犬山市,大字五郎丸字森上１番地２５,,23,215,4840066,,,2022-03-18,清算の結了等,,,2015-10-05,1,,,,,ハートマッスルトレーニングジム,0
1015,4200002004900,登記記録の閉鎖等,0,2022-03-25,2022-03-23,有限会社安田,,有限会社,岐阜県,岐阜市,四屋町１４番地,,21,201,5008088,,,2022-03-23,清算の結了等,,,2015-10-05,1,,,,,ヤスダ,0
1020,4250001006117,登記記録の閉鎖等,0,2022-03-25,2022-03-23,株式会社カネダ,,株式会社,山口県,下関市,長府中浜町１番９号,,35,201,7520975,,,2022-03-23,清算の結了等,,,2015-10-05,1,,,,,カネダ,0
1028,4290001043882,登記記録の閉鎖等,0,2022-03-25,2022-03-23,株式会社創活,,株式会社,福岡県,福岡市南区,大楠１丁目３番２９号,,40,134,8150082,,,2022-03-23,清算の結了等,,,2015-10-05,1,,,,,ソウカツ,0
1042,4340001022121,登記記録の閉鎖等,0,2022-03-25,2022-03-22,株式会社エンゲージメント,,株式会社,鹿児島県,鹿児島市,名山町９番１５号,,46,201,8920821,,,2022-03-22,合併による解散等,9340001006326,令和４年３月１日東京都港区芝二丁目２６番１１号ＫＱＲＭホールディングス株式会社（9340001006326）に合併し解散,2019-07-03,1,,,,,エンゲージメント,0
1075,4440001008663,登記記録の閉鎖等,0,2022-03-25,2022-03-23,株式会社Ｋｏｋｏｒｏエンタープライズ,,株式会社,北海道,北斗市,追分４丁目１１番１５号,,01,236,0490101,,,2022-03-23,清算の結了等,,,2020-03-04,1,,,,,ココロエンタープライズ,0
1079,4470005005646,登記記録の閉鎖等,0,2022-03-25,2022-03-22,特定非営利活動法人コミュニティビジネス・しおのえ,,その他の設立登記法人,香川県,高松市,塩江町安原下第２号１６４５番地,,37,201,7611502,,,2022-03-22,清算の結了等,,,2015-10-05,1,,,,,コミュニティビジネスシオノエ,0
1082,5010001006024,登記記録の閉鎖等,0,2022-03-25,2022-03-22,日本アイ・アンド・オーシー株式会社,,株式会社,東京都,文京区,本郷４丁目１２番１６－４０５号,,13,105,1130033,,,2022-03-22,清算の結了等,,,2015-10-05,1,,,,,ニホンアイアンドオーシー,0
1093,5010001206391,登記記録の閉鎖等,0,2022-03-25,2022-03-17,大和国際株式会社,,株式会社,東京都,中央区,新川１丁目２５番９号,,13,102,1040033,,,2022-03-17,清算の結了等,,,2019-12-26,1,,,,,ダイワコクサイ,0
1111,5010403010078,登記記録の閉鎖等,0,2022-03-25,2022-03-17,合同会社ナトス,,合同会社,東京都,港区,赤坂１丁目１１番４４号赤坂インターシティ６階,,13,103,1070052,,,2022-03-17,清算の結了等,,,2015-10-05,1,,,,,ナトス,0
1135,5011001066719,登記記録の閉鎖等,0,2022-03-25,2022-03-14,ヴァリオス株式会社,,株式会社,東京都,渋谷区,千駄ヶ谷１丁目３０－８,,13,113,1510051,,,2022-03-14,清算の結了等,,,2021-12-14,1,,,,,ヴァリオス,0
1170,5013201011405,登記記録の閉鎖等,0,2022-03-25,2022-03-23,株式会社古河エスアンドディ,,株式会社,東京都,千代田区,大手町２丁目６番４号,,13,101,1000004,,,2022-03-23,清算の結了等,,,2015-10-05,1,,,,,フルカワエスアンドディ,0
1185,5020003017241,登記記録の閉鎖等,0,2022-03-25,2022-03-22,合同会社４２７Ｊａｐａｎ,,合同会社,神奈川県,横浜市中区,山手町１０７番地７－３０１号,,14,104,2310862,,,2022-03-22,清算の結了等,,,2020-01-21,1,,,,,フォートゥエンティセブンジャパン,0
1186,5020005006275,登記記録の閉鎖等,0,2022-03-25,2022-03-23,ＮＰＯ法人三田教育研究所,,その他の設立登記法人,神奈川県,横浜市西区,岡野１丁目３番２号,,14,103,2200073,,,2022-03-23,清算の結了等,,,2015-10-05,1,,,,,ミタキョウイクケンキュウショ,0
1204,5030005008568,登記記録の閉鎖等,0,2022-03-25,2022-03-22,学校法人石塚学園,,その他の設立登記法人,埼玉県,川越市,大字藤間１１２６番地,,11,201,3501142,,,2022-03-22,清算の結了等,,,2015-10-05,1,,,,,イシヅカガクエン,0
1211,5040002098545,登記記録の閉鎖等,0,2022-03-25,2022-03-18,ジェイアンドビートゥレイディングインターナショナル有限会社,,有限会社,千葉県,野田市,野田５３２番地の１シティパレス野田１０４号室,,12,208,2780037,,,2022-03-18,清算の結了等,,,2015-10-05,1,,,,,ジェイアンドビートゥレイディングインターナショナル,0
1260,5130001063243,登記記録の閉鎖等,0,2022-03-25,2022-03-18,株式会社Ｂｉｇ　Ｚｅｎｓ,,株式会社,大阪府,岸和田市,荒木町２丁目１０番１６号,,27,202,5960004,,,2022-03-18,清算の結了等,,,2018-11-02,1,,,,,ビッグゼンス,0
1276,5180001081934,登記記録の閉鎖等,0,2022-03-25,2022-03-22,アートタナカ株式会社,,株式会社,愛知県,一宮市,萩原町花井方字中田島１２番地,,23,203,4910351,,,2022-03-22,清算の結了等,,,2015-10-05,1,,,,,アートタナカ,0
1278,5180001143024,登記記録の閉鎖等,0,2022-03-25,2022-03-22,株式会社Ｌｉｋｅｒｅｅ,,株式会社,愛知県,春日井市,中央台５丁目５番地１４,,23,206,4870011,,,2022-03-22,清算の結了等,,,2020-10-06,1,,,,,ライクリー,0
1282,5180303003504,登記記録の閉鎖等,0,2022-03-25,2022-03-23,合同会社ＥＫＫ,,合同会社,愛知県,豊田市,永覚町平子１３番地２,,23,211,4701205,,,2022-03-23,清算の結了等,,,2015-10-05,1,,,,,イーケーケー,0
1325,5380001016754,登記記録の閉鎖等,0,2022-03-25,2022-03-22,株式会社双葉産業廃棄物処理公社,,株式会社,福島県,双葉郡大熊町,大字小入野字東大和久１８３番地３,,07,545,9791302,,,2022-03-22,清算の結了等,,,2015-10-05,1,,,,,,0
1350,6010001080019,登記記録の閉鎖等,0,2022-03-25,2022-03-16,株式会社スマイルオフィス,,株式会社,東京都,千代田区,霞が関３丁目８番１号,,13,101,1000013,,,2022-03-16,清算の結了等,,,2015-10-05,1,,,,,スマイルオフィス,0
1357,6010001207430,登記記録の閉鎖等,0,2022-03-25,2022-03-10,株式会社メメリサーチ,,株式会社,東京都,中央区,日本橋兜町１７番２号兜町第６葉山ビル４階,,13,102,1030026,,,2022-03-10,清算の結了等,,,2020-02-12,1,,,,,メメリサーチ,0
1368,6010005022520,登記記録の閉鎖等,0,2022-03-25,2022-03-23,一般社団法人サポートホールディングスＪＲＥ和歌山岩出市,,その他の設立登記法人,東京都,千代田区,丸の内３丁目１番１号東京共同会計事務所内,,13,101,1000005,,,2022-03-23,清算の結了等,,,2015-10-05,1,,,,,サポートホールディングスジェイアールイーワカヤマイワデシ,0
1381,6010601058059,登記記録の閉鎖等,0,2022-03-25,2022-03-22,株式会社まちビズ,,株式会社,東京都,江東区,枝川１丁目９番２６号,,13,108,1350051,,,2022-03-22,清算の結了等,,,2020-09-30,1,,,,,マチビズ,0
1406,6011201006473,登記記録の閉鎖等,0,2022-03-25,2022-03-18,江和産業株式会社,,株式会社,東京都,中野区,江原町２丁目６番３－５０３号,,13,114,1650023,,,2022-03-18,清算の結了等,,,2015-10-05,1,,,,,コウワサンギョウ,0
1409,6011201013503,登記記録の閉鎖等,0,2022-03-25,2022-03-15,株式会社ロックソックス,,株式会社,東京都,中野区,弥生町６丁目１２番９号,,13,114,1640013,,,2022-03-15,清算の結了等,,,2015-10-05,1,,,,,ロックソックス,0
1413,6011301002265,登記記録の閉鎖等,0,2022-03-25,2022-03-18,株式会社建築工芸白山,,株式会社,東京都,杉並区,上荻２丁目６番２号,,13,115,1670043,,,2022-03-18,清算の結了等,,,2015-10-05,1,,,,,ケンチクコウゲイハクサン,0
1425,6012302004374,登記記録の閉鎖等,0,2022-03-25,2022-03-11,有限会社豊成工業所,,有限会社,東京都,町田市,真光寺町１２２１番地３,,13,209,1950051,,,2022-03-11,清算の結了等,,,2015-10-05,1,,,,,ホウセイコウギョウショ,0
1443,6020002058839,登記記録の閉鎖等,0,2022-03-25,2022-03-22,有限会社ルーメイツクラブ,,有限会社,神奈川県,横浜市青葉区,美しが丘西３丁目６４番２号,,14,117,2250001,,,2022-03-22,清算の結了等,,,2015-10-05,1,,,,,ルーメイツクラブ,0
1544,6230003000753,登記記録の閉鎖等,0,2022-03-25,2022-03-18,合同会社タンゴ設計,,合同会社,富山県,魚津市,上口２丁目１８番９号,,16,204,9370865,,,2022-03-18,清算の結了等,,,2015-10-05,1,,,,,タンゴセッケイ,0
1583,6370002017545,登記記録の閉鎖等,0,2022-03-25,2022-03-18,有限会社ファーストホーム仙台,,有限会社,宮城県,仙台市若林区,今泉１丁目８番５号,,04,103,9840835,,,2022-03-18,清算の結了等,,,2015-10-05,1,,,,,ファーストホームセンダイ,0
1614,7010001052108,登記記録の閉鎖等,0,2022-03-25,2022-03-17,株式会社豊国,,株式会社,東京都,中央区,銀座５丁目９番６号,,13,102,1040061,,,2022-03-17,清算の結了等,,,2015-10-05,1,,,,,トヨクニ,0
1615,7010001095726,登記記録の閉鎖等,0,2022-03-25,2022-03-23,株式会社みずほプライベートウェルスマネジメント,,株式会社,東京都,千代田区,丸の内１丁目３番３号,,13,101,1000005,,,2022-03-23,清算の結了等,,,2015-10-05,1,,,,,ミズホプライベートウェルスマネジメント,0
1619,7010001146479,登記記録の閉鎖等,0,2022-03-25,2022-03-23,株式会社シージェイファイナンス,,株式会社,東京都,中央区,銀座６丁目５番１３号,,13,102,1040061,,,2022-03-23,清算の結了等,,,2015-10-05,1,,,,,シージェイファイナンス,0
1627,7010002023438,登記記録の閉鎖等,0,2022-03-25,2022-03-23,有限会社西田商店,,有限会社,東京都,中央区,湊２丁目６番３号,,13,102,1040043,,,2022-03-23,清算の結了等,,,2015-10-05,1,,,,,ニシダショウテン,0
1631,7010005008205,登記記録の閉鎖等,0,2022-03-25,2022-03-23,特定非営利活動法人日本企業再生支援機構,,その他の設立登記法人,東京都,中央区,京橋２丁目６番１４号,,13,102,1040031,,,2022-03-23,清算の結了等,,,2015-10-05,1,,,,,ニホンキギョウサイセイシエンキコウ,0
1655,7010801009991,登記記録の閉鎖等,0,2022-03-25,2022-03-22,光写真印刷株式会社,,株式会社,東京都,大田区,下丸子２丁目２４番２６号,,13,111,1460092,,,2022-03-22,清算の結了等,,,2015-10-05,1,,,,,ヒカリシャシンインサツ,0
1661,7010902012787,登記記録の閉鎖等,0,2022-03-25,2022-03-22,有限会社フォー・シーズン,,有限会社,東京都,世田谷区,砧６丁目１４番１６号,,13,112,1570073,,,2022-03-22,清算の結了等,,,2015-10-05,1,,,,,フォーシーズン,0
1665,7011001140190,登記記録の閉鎖等,0,2022-03-25,2022-03-15,株式会社ＡＲＩＡＤ,,株式会社,東京都,渋谷区,千駄ヶ谷３丁目３番１８号,,13,113,1510051,,,2022-03-15,清算の結了等,,,2021-04-28,1,,,,,アリアド,0
1694,7020001067682,登記記録の閉鎖等,0,2022-03-25,2022-03-23,グラスマンジャパンハイボルテージ株式会社,,株式会社,神奈川県,横浜市青葉区,美しが丘５丁目２番地１７,,14,117,2250002,,,2022-03-23,清算の結了等,,,2015-10-05,1,,,,,グラスマンジャパンハイボルテージ,0
1707,7021002014806,登記記録の閉鎖等,0,2022-03-25,2022-03-22,有限会社湘栄商事,,有限会社,神奈川県,鎌倉市,小袋谷１丁目５番１８号,,14,204,2470055,,,2022-03-22,清算の結了等,,,2015-10-05,1,,,,,ショウエイショウジ,0
1722,7030002080106,登記記録の閉鎖等,0,2022-03-25,2022-03-22,有限会社青葉,,有限会社,埼玉県,川越市,脇田町３０番地６,,11,201,3501122,,,2022-03-22,清算の結了等,,,2015-10-05,1,,,,,アオバ,0
1731,7040001054126,登記記録の閉鎖等,0,2022-03-25,2022-03-18,株式会社センコー,,株式会社,千葉県,市原市,姉崎海岸１２６番地,,12,219,2990107,,,2022-03-18,清算の結了等,,,2015-10-05,1,,,,,センコー,0
1739,7050005007624,登記記録の閉鎖等,0,2022-03-25,2022-03-11,協同組合竜ヶ崎地方エルピーガス保安センター,,その他の設立登記法人,茨城県,龍ケ崎市,馴馬町２２６９番地,,08,208,3010004,,,2022-03-11,清算の結了等,,,2015-10-05,1,,,,,リュウガサキチホウエルピーガスホアンセンター,0
1755,7120001131577,登記記録の閉鎖等,0,2022-03-25,2022-03-22,株式会社Ａ．Ｐ．Ｇ,,株式会社,大阪府,大阪市東住吉区,田辺１丁目８番１１－４０７号,,27,121,5460031,,,2022-03-22,清算の結了等,,,2015-10-05,1,,,,,エーピージー,0
1756,7120001155139,登記記録の閉鎖等,0,2022-03-25,2022-03-22,アルフア商事株式会社,,株式会社,大阪府,守口市,佐太中町５丁目９番１４号,,27,209,5700002,,,2022-03-22,清算の結了等,,,2015-10-05,1,,,,,アルフアショウジ,0
1768,7122001021378,登記記録の閉鎖等,0,2022-03-25,2022-03-18,メイダイ運輸梱包株式会社,,株式会社,大阪府,柏原市,法善寺３丁目５２６番地,,27,221,5820005,,,2022-03-18,合併による解散等,6122001021271,令和４年３月１８日大阪府柏原市法善寺三丁目５２６番地明光運輸株式会社（6122001021271）に合併し解散,2015-10-05,1,,,,,メイダイウンユコンポウ,0
1779,7150001006165,登記記録の閉鎖等,0,2022-03-25,2022-03-23,株式会社讀賣奈良折込ネットワーク,,株式会社,奈良県,大和郡山市,池沢町２０３番地７,,29,203,6391032,,,2022-03-23,清算の結了等,,,2015-10-05,1,,,,,ヨミウリナラオリコミネットワーク,0
1810,7220005002442,登記記録の閉鎖等,0,2022-03-25,2022-03-22,特定非営利活動法人石川県海外青年交流協議会,,その他の設立登記法人,石川県,金沢市,平和町１丁目３番１号,,17,201,9218105,,,2022-03-22,清算の結了等,,,2015-10-05,1,,,,,イシカワケンカイガイセイネンコウリュウキョウギカイ,0
1844,7360001025053,登記記録の閉鎖等,0,2022-03-25,2022-03-02,株式会社ジョウマ石垣,,株式会社,沖縄県,那覇市,字国場１２２番地１,,47,201,9020075,,,2022-03-02,合併による解散等,5360001018050,令和４年３月１日沖縄県那覇市字国場１２２番地１株式会社ジョウマ（5360001018050）に合併し解散,2019-01-09,1,,,,,ジョウマイシガキ,0
1878,8010001146478,登記記録の閉鎖等,0,2022-03-25,2022-03-23,株式会社ロイヤルアートジャパン,,株式会社,東京都,中央区,銀座６丁目５番１３号,,13,102,1040061,,,2022-03-23,清算の結了等,,,2015-10-05,1,,,,,ロイヤルアートジャパン,0
1889,8010003034474,登記記録の閉鎖等,0,2022-03-25,2022-03-22,合同会社ｗｏｒｋｏｕｔ,,合同会社,東京都,文京区,本郷６丁目２５番１４号３Ｆ,,13,105,1130033,,,2022-03-22,清算の結了等,,,2021-04-01,1,,,,,ワークアウト,0
1892,8010005027055,登記記録の閉鎖等,0,2022-03-25,2022-03-23,一般社団法人サポートホールディングスＪＲＥ稲敷伊佐津,,その他の設立登記法人,東京都,千代田区,丸の内３丁目１番１号東京共同会計事務所内,,13,101,1000005,,,2022-03-23,清算の結了等,,,2017-07-05,1,,,,,サポートホールディングスジェイアールイーイナシキイサツ,0
1900,8010401142102,登記記録の閉鎖等,0,2022-03-25,2022-03-16,株式会社ＡＤＶＥＲＴＯＲＩＡＬ,,株式会社,東京都,港区,南青山３丁目８番７－３０２号,,13,103,1070062,,,2022-03-16,清算の結了等,,,2018-11-15,1,,,,,アドバトリアル,0
1914,8010602022978,登記記録の閉鎖等,0,2022-03-25,2022-03-22,有限会社クイック,,有限会社,東京都,江戸川区,中央１丁目２２番２２号,,13,123,1320021,,,2022-03-22,清算の結了等,,,2015-10-05,1,,,,,クイック,0
1926,8011005006973,登記記録の閉鎖等,0,2022-03-25,2022-03-02,ＮＰＯ法人Ｓａｖｅ　ｏｕｒ　Ｃｈｉｌｄｒｅｎ　Ｊａｐａｎ,,その他の設立登記法人,東京都,目黒区,青葉台４丁目７番７－４０７号青葉台マンション,,13,110,1530042,,,2022-03-02,清算の結了等,,,2016-11-14,1,,,,,セーブアワチルドレンジャパン,0
1930,8011101082745,登記記録の閉鎖等,0,2022-03-25,2022-03-22,株式会社ラヴニール目白,,株式会社,東京都,新宿区,下落合３丁目６番１３号,,13,104,1610033,,,2022-03-22,清算の結了等,,,2018-01-09,1,,,,,ラヴニールメジロ,0
1950,8013202000858,登記記録の閉鎖等,0,2022-03-25,2022-03-23,有限会社イワイプランニング,,有限会社,東京都,中央区,銀座６丁目５番１３号,,13,102,1040061,,,2022-03-23,清算の結了等,,,2015-10-05,1,,,,,イワイプランニング,0
1962,8020005004508,登記記録の閉鎖等,0,2022-03-25,2022-03-24,特定非営利活動法人ワーカーズ・コレクティブたすけあい皆人,,その他の設立登記法人,神奈川県,横浜市保土ケ谷区,峰岡町１丁目３番３号,,14,106,2400064,,,2022-03-24,清算の結了等,,,2015-10-05,1,,,,,ワーカーズコレクティブタスケアイミナト,0
1988,8040001072515,登記記録の閉鎖等,0,2022-03-25,2022-03-22,株式会社理数学社,,株式会社,千葉県,野田市,野田７８５番８号森田ビル２Ｆ,,12,208,2780037,,,2022-03-22,清算の結了等,,,2015-10-05,1,,,,,,0
1990,8040001084519,登記記録の閉鎖等,0,2022-03-25,2022-03-22,株式会社アクシズ,,株式会社,千葉県,松戸市,金ケ作１２６番地の６セントラルフィールド２０２号,,12,207,2702251,,,2022-03-22,清算の結了等,,,2015-10-05,1,,,,,アクシズ,0
1994,8040003012493,登記記録の閉鎖等,0,2022-03-25,2022-03-17,合同会社昌栄,,合同会社,千葉県,松戸市,稔台４丁目２３番２号,,12,207,2702231,,,2022-03-17,清算の結了等,,,2018-11-21,1,,,,,ショウエイ,0
2005,8070001020479,登記記録の閉鎖等,0,2022-03-25,2022-03-24,稲葉屋製茶製菓株式会社,,株式会社,群馬県,太田市,大原町１０３７番地の４１,,10,205,3792304,,,2022-03-24,清算の結了等,,,2015-10-05,1,,,,,,0
2008,8070003003093,登記記録の閉鎖等,0,2022-03-25,2022-03-23,合同会社保険と住まいのライフプラン,,合同会社,群馬県,高崎市,下豊岡町８１４番地１,,10,202,3700873,,,2022-03-23,清算の結了等,,,2018-01-18,1,,,,,ホケントスマイノライフプラン,0
2012,8080102019436,登記記録の閉鎖等,0,2022-03-25,2022-03-23,有限会社入澤保険サービス,,有限会社,静岡県,伊東市,玖須美元和田７２７番地の７５０,,22,208,4140045,,,2022-03-23,清算の結了等,,,2015-10-05,1,,,,,イリサワホケンサービス,0
2019,8100001030763,登記記録の閉鎖等,0,2022-03-25,2022-03-22,株式会社エス,,株式会社,東京都,中央区,京橋２丁目６番１４号,,13,102,1040031,,,2022-03-22,清算の結了等,,,2017-11-20,1,,,,,エス,0
2052,8120905003268,登記記録の閉鎖等,0,2022-03-25,2022-03-04,天理教上池田分教会,,その他の設立登記法人,大阪府,池田市,上池田１丁目５番１号,,27,204,5630027,,,2022-03-04,合併による解散等,3120905003545,令和４年３月４日大阪府豊能郡能勢町宿野６４５番地天理教能勢分教会（3120905003545）に合併し解散,2015-10-05,1,,,,,テンリキョウカミイケダブンキョウカイ,0
2079,8180002033626,登記記録の閉鎖等,0,2022-03-25,2022-03-23,有限会社小栗重建,,有限会社,愛知県,名古屋市守山区,小幡南２丁目７番１６号,,23,113,4630048,,,2022-03-23,清算の結了等,,,2015-10-05,1,,,,,オグリジュウケン,0
2080,8180002079124,登記記録の閉鎖等,0,2022-03-25,2022-03-22,有限会社アマゾネス,,有限会社,愛知県,一宮市,栄３丁目７番１８号,,23,203,4910858,,,2022-03-22,清算の結了等,,,2015-10-05,1,,,,,アマゾネス,0
2081,8180002082086,登記記録の閉鎖等,0,2022-03-25,2022-03-23,有限会社中島鉄工所,,有限会社,愛知県,江南市,江森町西１５４番地,,23,217,4838034,,,2022-03-23,清算の結了等,,,2015-10-05,1,,,,,ナカシマテッコウショ,0
2121,8290005010149,登記記録の閉鎖等,0,2022-03-25,2022-03-08,天理教南久留米分教会,,その他の設立登記法人,福岡県,久留米市,梅満町１０２０番地,,40,203,8300048,,,2022-03-08,合併による解散等,8290005010132,令和４年３月８日福岡県久留米市御井町２６４７番地の２２天理教梅満分教会（8290005010132）に合併し解散,2015-10-05,1,,,,,,0
2129,8330001008638,登記記録の閉鎖等,0,2022-03-25,2022-03-24,株式会社ライト,,株式会社,熊本県,熊本市中央区,新市街１３－１３フタビル３階,,43,101,8600803,,,2022-03-24,清算の結了等,,,2015-10-05,1,,,,,ライト,0
2131,8340001012481,登記記録の閉鎖等,0,2022-03-25,2022-03-24,株式会社レッドワン,,株式会社,熊本県,熊本市中央区,新市街１３－１３フタビル３階,,43,101,8600803,,,2022-03-24,清算の結了等,,,2015-10-05,1,,,,,レッドワン,0
2134,8350002005351,登記記録の閉鎖等,0,2022-03-25,2022-03-17,有限会社若草商事,,有限会社,宮崎県,宮崎市,大橋１丁目９番地,,45,201,8800022,,,2022-03-17,清算の結了等,,,2015-10-05,1,,,,,ワカクサショウジ,0
2146,8370005004043,登記記録の閉鎖等,0,2022-03-25,2022-03-22,一般社団法人まちんど・まっち社,,その他の設立登記法人,宮城県,仙台市太白区,中田４丁目１１番４６号,,04,104,9811104,,,2022-03-22,清算の結了等,,,2015-10-05,1,,,,,マチンドマッチシャ,0
2152,8380001027162,登記記録の閉鎖等,0,2022-03-25,2022-03-22,株式会社ファーストスプリング,,株式会社,福島県,双葉郡楢葉町,大字井出字堂ノ前２５番地,,07,542,9790603,,,2022-03-22,清算の結了等,,,2016-07-27,1,,,,,ファーストスプリング,0
2177,9010001070215,登記記録の閉鎖等,0,2022-03-25,2022-03-18,ツインスターテック株式会社,,株式会社,東京都,千代田区,神田美倉町１番地,,13,101,1010038,,,2022-03-18,清算の結了等,,,2015-10-05,1,,,,,ツインスターテック,0
2181,9010001146502,登記記録の閉鎖等,0,2022-03-25,2022-03-23,株式会社シージェイネット,,株式会社,東京都,中央区,銀座６丁目５番１３号,,13,102,1040061,,,2022-03-23,清算の結了等,,,2015-10-05,1,,,,,シージェイネット,0
2189,9010002019715,登記記録の閉鎖等,0,2022-03-25,2022-03-23,有限会社広友,,有限会社,東京都,中央区,湊２丁目６番３号,,13,102,1040043,,,2022-03-23,清算の結了等,,,2015-10-05,1,,,,,ヒロトモ,0
2192,9010002031348,登記記録の閉鎖等,0,2022-03-25,2022-03-22,有限会社天外天,,有限会社,東京都,文京区,千駄木３丁目３２番１１－１０３号,,13,105,1130022,,,2022-03-22,清算の結了等,,,2015-10-05,1,,,,,テンガイテン,0
2203,9010403010066,登記記録の閉鎖等,0,2022-03-25,2022-03-17,合同会社アテン,,合同会社,東京都,港区,赤坂１丁目１１番４４号赤坂インターシティ６階,,13,103,1070052,,,2022-03-17,清算の結了等,,,2015-10-05,1,,,,,アテン,0
2215,9011001130545,登記記録の閉鎖等,0,2022-03-25,2022-03-14,株式会社ビジョン・ベッツ・グループ,,株式会社,東京都,渋谷区,千駄ヶ谷３丁目６０番７号,,13,113,1510051,,,2022-03-14,合併による解散等,9010701030253,令和４年２月２８日東京都渋谷区千駄ヶ谷三丁目６０番７号株式会社ＰＥＣＯ（9010701030253）に合併し解散,2019-10-25,1,,,,,ビジョンベッツグループ,0
2229,9011101034448,登記記録の閉鎖等,0,2022-03-25,2022-03-17,ウィタンアソシエイツ株式会社,,株式会社,東京都,港区,赤坂１丁目１２番３２号アーク森ビル,,13,103,1070052,,,2022-03-17,清算の結了等,,,2015-10-05,1,,,,,ウィタンアソシエイツ,0
2237,9011501016491,登記記録の閉鎖等,0,2022-03-25,2022-03-18,株式会社クレーブラット,,株式会社,東京都,北区,赤羽１丁目６２番７－１０１号,,13,117,1150045,,,2022-03-18,清算の結了等,,,2015-10-05,1,,,,,クレーブラット,0
2244,9011601003134,登記記録の閉鎖等,0,2022-03-25,2022-03-22,下平産業株式会社,,株式会社,東京都,練馬区,高野台５丁目６番３号,,13,120,1770033,,,2022-03-22,清算の結了等,,,2015-10-05,1,,,,,シモダイラサンギョウ,0
2271,9020001083463,登記記録の閉鎖等,0,2022-03-25,2022-03-23,株式会社シンクロ,,株式会社,神奈川県,川崎市中原区,中丸子１３番地１０－３９０５,,14,133,2110012,,,2022-03-23,清算の結了等,,,2015-10-05,1,,,,,シンクロ,0
2295,9040001047573,登記記録の閉鎖等,0,2022-03-25,2022-03-18,株式会社川上製菓,,株式会社,千葉県,八街市,八街い２１４番地３,,12,230,2891143,,,2022-03-18,清算の結了等,,,2015-10-05,1,,,,,,0
2312,9050002042878,登記記録の閉鎖等,0,2022-03-25,2022-03-18,有限会社いづみ,,有限会社,茨城県,筑西市,新治２００３番地６,,08,227,3091106,,,2022-03-18,清算の結了等,,,2015-10-05,1,,,,,イヅミ,0
2323,9080101016078,登記記録の閉鎖等,0,2022-03-25,2022-03-23,株式会社ロプタ,,株式会社,静岡県,富士市,松本２９９番地の１０,,22,210,4160903,,,2022-03-23,清算の結了等,,,2015-10-05,1,,,,,ロプタ,0
2327,9090001000445,登記記録の閉鎖等,0,2022-03-25,2022-03-23,カクイシ石油株式会社,,株式会社,山梨県,甲府市,城東５丁目７番１５号,,19,201,4000861,,,2022-03-23,清算の結了等,,,2015-10-05,1,,,,,カクイシセキユ,0
2341,9120002039784,登記記録の閉鎖等,0,2022-03-25,2022-03-23,有限会社松本システムプランニング,,有限会社,大阪府,大阪市都島区,網島町１４番８－１１１１,,27,102,5340026,,,2022-03-23,清算の結了等,,,2015-10-05,1,,,,,,0
2354,9130001011669,登記記録の閉鎖等,0,2022-03-25,2022-03-23,株式会社ホテルセントノーム京都,,株式会社,京都府,京都市南区,東九条東山王町１９番地の１,,26,107,6018004,,,2022-03-23,清算の結了等,,,2015-10-05,1,,,,,ホテルセントノームキョウト,0
2364,9160001010478,登記記録の閉鎖等,0,2022-03-25,2022-03-22,株式会社塚腰運送ＯＵＭＩ,00036695,株式会社,京都府,京都市下京区,木津屋橋通大宮東入上之町４４４番地,,26,106,6008266,,,2022-03-22,合併による解散等,2130001018084,令和４年３月２１日京都市下京区木津屋橋通大宮東入上之町４４４番地株式会社塚腰運送（2130001018084）に合併し解散,2015-10-05,1,,,,,ツカゴシウンソウオウミ,0
2366,9160002006112,登記記録の閉鎖等,0,2022-03-25,2022-03-23,有限会社ＫＯＵＳＡＩ,,有限会社,滋賀県,甲賀市,信楽町長野４７９番地１５,,25,209,5291851,,,2022-03-23,清算の結了等,,,2015-10-05,1,,,,,コウサイ,0
2384,9190001025432,登記記録の閉鎖等,0,2022-03-25,2022-03-24,株式会社スリー,,株式会社,三重県,四日市市,西浦１丁目９番１４号,,24,202,5100071,,,2022-03-24,清算の結了等,,,2018-04-04,1,,,,,スリー,0
2385,9190002015077,登記記録の閉鎖等,0,2022-03-25,2022-03-22,有限会社田口新聞舗,,有限会社,三重県,多気郡多気町,相可３７２番地,,24,441,5192181,,,2022-03-22,清算の結了等,,,2015-10-05,1,,,,,タグチシンブンホ,0
2393,9240002004025,登記記録の閉鎖等,0,2022-03-25,2022-03-25,有限会社金光会計事務所,,有限会社,広島県,広島市安佐南区,山本１丁目２９番１２号,,34,105,7310137,,,2022-03-25,清算の結了等,,,2015-10-05,1,,,,,カネミツカイケイジムショ,0
2397,9270002000987,登記記録の閉鎖等,0,2022-03-25,2022-03-22,有限会社田中建機サービス,,有限会社,鳥取県,鳥取市,下味野１６８番地１,,31,201,6801165,,,2022-03-22,清算の結了等,,,2015-10-05,1,,,,,タナカケンキサービス,0
2399,9290001039447,登記記録の閉鎖等,0,2022-03-25,2022-03-22,タジマ株式会社,,株式会社,福岡県,糟屋郡粕屋町,長者原東１丁目１０番２０号,,40,349,8112317,,,2022-03-22,清算の結了等,,,2015-10-05,1,,,,,,0
2418,9340001019988,登記記録の閉鎖等,0,2022-03-25,2022-03-22,株式会社南日本アイティエー,,株式会社,鹿児島県,鹿児島市,名山町９番１５,,46,201,8920821,,,2022-03-22,合併による解散等,9340001006326,令和４年３月１日東京都港区芝二丁目２６番１１号ＫＱＲＭホールディングス株式会社（9340001006326）に合併し解散,2017-01-18,1,,,,,ミナミニホンアイティエー,0
2420,9340002024062,登記記録の閉鎖等,0,2022-03-25,2022-03-23,有限会社グリーンファーム南さつま,,有限会社,鹿児島県,南さつま市,加世田武田１６５０７番地,,46,220,8970002,,,2022-03-23,清算の結了等,,,2015-10-05,1,,,,,グリーンファームミナミサツマ,0
2441,9430001009402,登記記録の閉鎖等,0,2022-03-25,2022-03-22,大善産業株式会社,,株式会社,北海道,札幌市手稲区,曙二条４丁目３番５４号,00088233,01,109,0060832,,,2022-03-22,清算の結了等,,,2015-10-05,1,,,,,ダイゼンサンギョウ,0
