sequenceNumber,corporateNumber,process,correct,updateDate,changeDate,name,nameImageId,kind,prefectureName,cityName,streetNumber,addressImageId,prefectureCode,cityCode,postCode,addressOutside,addressOutsideImageId,closeDate,closeCause,successorCorporateNumber,changeCause,assignmentDate,latest,enName,enPrefectureName,enCityName,enAddressOutside,furigana,hihyoji
7,1010001251739,新規,0,2025-01-30,2025-01-30,ＯＧＶ国際株式会社,,株式会社,東京都,中央区,入船１丁目９番８号ピエノアーク入船,,13,102,1040042,,,,,,,2025-01-30,1,,,,,オージーブイコクサイ,0
17,1010401187797,新規,0,2025-01-30,2025-01-30,株式会社Ｇａｌｌｅｒｙ　Ｍａｉ,,株式会社,東京都,港区,三田１丁目２－２０－２０２号,,13,103,1080073,,,,,,,2025-01-30,1,,,,,ギャラリーマイ,0
18,1010401187863,新規,0,2025-01-30,2025-01-30,株式会社アルチュイスト,,株式会社,東京都,港区,赤坂６丁目７番１４－４０４号,,13,103,1070052,,,,,,,2025-01-30,1,,,,,アルチュイスト,0
19,1010401187871,新規,0,2025-01-30,2025-01-30,株式会社ステラモーション,,株式会社,東京都,港区,六本木７丁目３番２６－３０７号,,13,103,1060032,,,,,,,2025-01-30,1,,,,,ステラモーション,0
20,1010401187905,新規,0,2025-01-30,2025-01-30,Ｇｌｏｂａｌ　ＣｙｂｅｒＢｒｉｄｇｅ株式会社,,株式会社,東京都,港区,新橋４丁目１４番１号新橋ＡＵＮＢＬＤＧ４階,,13,103,1050004,,,,,,,2025-01-30,1,,,,,グローバルサイバーブリッジ,0
21,1010403034254,新規,0,2025-01-30,2025-01-30,ＢＬマネジメント合同会社,,合同会社,東京都,港区,南青山４丁目５番１９号,,13,103,1070062,,,,,,,2025-01-30,1,,,,,ビーエルマネジメント,0
22,1010405024055,新規,0,2025-01-30,2025-01-30,一般社団法人Ｎｏｖｅｌ　Ｒｅａｌｔｙ＆Ｄｅｖｅｌｏｐｍｅｎｔ,,その他の設立登記法人,東京都,港区,六本木１丁目６番１号泉ガーデンタワー１２階ＫＰＭＧ税理士法人内,,13,103,1060032,,,,,,,2025-01-30,1,,,,,ノベルリアルティアンドデベロプメント,0
25,1010501053560,新規,0,2025-01-30,2025-01-30,誠信ジャパン株式会社,,株式会社,東京都,台東区,台東１丁目２４番９号ブライト秋葉原Ｂ１Ｆ,,13,106,1100016,,,,,,,2025-01-30,1,,,,,セイシンジャパン,0
26,1010601066669,新規,0,2025-01-30,2025-01-30,株式会社タカノメ,,株式会社,東京都,江東区,有明３丁目７番２６号有明フロンティアビルＢ棟９階,,13,108,1350063,,,,,,,2025-01-30,1,,,,,,0
221,1010903009672,新規,0,2025-01-30,2025-01-30,合同会社アシスト,,合同会社,東京都,世田谷区,池尻３丁目２６番１１号アルカディア２,,13,112,1540001,,,,,,,2025-01-30,1,,,,,アシスト,0
227,1011101110421,新規,0,2025-01-30,2025-01-30,株式会社西新宿実業,,株式会社,東京都,新宿区,西新宿５丁目２５－１３,,13,104,1600023,,,,,,,2025-01-30,1,,,,,ニシシンジュクジツギョウ,0
228,1011203004595,新規,0,2025-01-30,2025-01-30,合同会社ＫａｎｄＢ,,合同会社,東京都,中野区,中央１丁目２１番１５号中野坂上ウィング４０８,,13,114,1640011,,,,,,,2025-01-30,1,,,,,ケーアンドビー,0
233,1011503006399,新規,0,2025-01-30,2025-01-30,麒之楓合同会社,,合同会社,東京都,荒川区,町屋３丁目１８番１２号ＤＮビル２１７,,13,118,1160001,,,,,,,2025-01-30,1,,,,,キノフウ,0
234,1011503006408,新規,0,2025-01-30,2025-01-30,合同会社ＴＺＭ,,合同会社,東京都,北区,神谷３丁目２４番１０－７０１号アーベントハイム神谷公園,,13,117,1150043,,,,,,,2025-01-30,1,,,,,ティーゼットエム,0
238,1011703004095,新規,0,2025-01-30,2025-01-30,合同会社マルワ,,合同会社,東京都,江戸川区,新堀２丁目１番７号,,13,123,1320001,,,,,,,2025-01-30,1,,,,,マルワ,0
346,1011801045537,新規,0,2025-01-30,2025-01-30,株式会社ソイル,,株式会社,東京都,足立区,竹の塚５丁目２０番８号パークサイド竹の塚４０４,,13,121,1210813,,,,,,,2025-01-30,1,,,,,ソイル,0
362,1012401042718,新規,0,2025-01-30,2025-01-30,株式会社ＫＶＴＣ,,株式会社,東京都,多摩市,関戸６丁目１１－９ユーカリハイツ永山２０３,,13,224,2060011,,,,,,,2025-01-30,1,,,,,ケーヴィーティーシー,0
363,1012403006943,新規,0,2025-01-30,2025-01-30,合同会社ＡＴＯＭＳ２ＢＩＴＳ,,合同会社,東京都,三鷹市,大沢３丁目３番１６号,,13,204,1810015,,,,,,,2025-01-30,1,,,,,アトムズツーピッツ,0
367,1013303007511,新規,0,2025-01-30,2025-01-30,泉合同会社,,合同会社,東京都,豊島区,巣鴨１丁目１０－１ＡＲＫＭＡＲＫ巣鴨Ｓｔａ．９０２,,13,116,1700002,,,,,,,2025-01-30,1,,,,,イズミ,0
714,1020001161004,新規,0,2025-01-30,2025-01-30,ＥｎＣｏｎｎｅｃｔ株式会社,,株式会社,神奈川県,横浜市港南区,日野８丁目１５番２３号,,14,111,2340051,,,,,,,2025-01-30,1,,,,,エンコネクト,0
741,1020003027756,新規,0,2025-01-30,2025-01-30,合同会社Ｐｏｍｅｌｏ,,合同会社,神奈川県,横浜市神奈川区,金港町５―１４クアドリフォリオ８階,,14,102,2210056,,,,,,,2025-01-30,1,,,,,ポメロ,0
746,1021001084351,新規,0,2025-01-30,2025-01-30,株式会社ＰＡＧＥ,,株式会社,神奈川県,愛甲郡愛川町,中津２９８番地の３エステートビル３０１,,14,401,2430303,,,,,,,2025-01-30,1,,,,,ペイジ,0
1138,1030001164600,新規,0,2025-01-30,2025-01-30,株式会社アルファツール,,株式会社,埼玉県,入間郡三芳町,大字藤久保１６－３７,,11,324,3540041,,,,,,,2025-01-30,1,,,,,アルファツール,0
1139,1030001164633,新規,0,2025-01-30,2025-01-30,株式会社アラスカ,,株式会社,埼玉県,さいたま市南区,南浦和２丁目２８番１３－３１２,,11,108,3360017,,,,,,,2025-01-30,1,,,,,アラスカ,0
1140,1030001164641,新規,0,2025-01-30,2025-01-30,ＹＳ医療国際株式会社,,株式会社,埼玉県,飯能市,本町１９番２号ＫＩＶ－Ｗｅｌｆａｒｅ会館飯能４号室,,11,209,3570032,,,,,,,2025-01-30,1,,,,,ワイエスイリョウコクサイ,0
1141,1030001164690,新規,0,2025-01-30,2025-01-30,株式会社ＫＩＲＥＩ,,株式会社,埼玉県,狭山市,大字下奥富９０５番地の３,,11,215,3501332,,,,,,,2025-01-30,1,,,,,キレイ,0
1170,1030003025998,新規,0,2025-01-30,2025-01-30,リンクポイントケー合同会社,,合同会社,埼玉県,東松山市,あずま町２丁目１７－４,,11,212,3550048,,,,,,,2025-01-30,1,,,,,リンクポイントケー,0
1184,1040003026748,新規,0,2025-01-30,2025-01-30,合同会社和かば,,合同会社,千葉県,千葉市稲毛区,園生町１３１２番地１ルネサンスアリーナ稲毛７０２号,,12,103,2630051,,,,,,,2025-01-30,1,,,,,ワカバ,0
1186,1050001056069,新規,0,2025-01-30,2025-01-30,Ｌｅｖｅｌ　ｕｐ株式会社,,株式会社,茨城県,稲敷郡阿見町,大字若栗１３０７－２１－７号室,,08,443,3000333,,,,,,,2025-01-30,1,,,,,レベルアップ,0
1187,1050001056077,新規,0,2025-01-30,2025-01-30,株式会社ＵＲＵＺ,,株式会社,茨城県,水戸市,平須町１番地１１３,,08,201,3100853,,,,,,,2025-01-30,1,,,,,ウルズ,0
1192,1050003008984,新規,0,2025-01-30,2025-01-30,合同会社リーンアーキテクト,,合同会社,茨城県,つくば市,研究学園５丁目１１―２―２―１００３,,08,220,3050817,,,,,,,2025-01-30,1,,,,,リーンアーキテクト,0
1194,1060001037869,新規,0,2025-01-30,2025-01-30,株式会社たかたん,,株式会社,栃木県,足利市,葉鹿町２丁目３３番地１４,,09,202,3260143,,,,,,,2025-01-30,1,,,,,タカタン,0
1201,1080401027716,新規,0,2025-01-30,2025-01-30,株式会社光成不動産,,株式会社,静岡県,浜松市浜名区,貴布祢１０９番地の４,,22,139,4340038,,,,,,,2025-01-30,1,,,,,コウセイフドウサン,0
1203,1100001038243,新規,0,2025-01-30,2025-01-30,株式会社Ｔｅｃｈ‐Ａｌｌ,,株式会社,長野県,東御市,鞍掛４７番地３,,20,219,3890502,,,,,,,2025-01-30,1,,,,,テックオール,0
1204,1100001038251,新規,0,2025-01-30,2025-01-30,株式会社ジャパンアルプスアドベンチャーズ,,株式会社,長野県,松本市,本庄１丁目１番１２号,,20,202,3900814,,,,,,,2025-01-30,1,,,,,ジャパンアルプスアドベンチャーズ,0
1216,1120001272344,新規,0,2025-01-30,2025-01-30,株式会社アクテンコーポレーション,,株式会社,大阪府,大阪市中央区,上本町西５丁目２－８－４０１号,,27,128,5420062,,,,,,,2025-01-30,1,,,,,アクテンコーポレーション,0
1217,1120001272385,新規,0,2025-01-30,2025-01-30,トージツ土地建物管理株式会社,,株式会社,大阪府,大阪市西区,北堀江１丁目９番４号東海実業ビル,,27,106,5500014,,,,,,,2025-01-30,1,,,,,トージツトチタテモノカンリ,0
1218,1120001272419,新規,0,2025-01-30,2025-01-30,株式会社ＧＲＡＮＳＴＡＲＴＳ,,株式会社,大阪府,大阪市住吉区,長居２丁目５番２５号,,27,120,5580003,,,,,,,2025-01-30,1,,,,,グランスターツ,0
1219,1120001272443,新規,0,2025-01-30,2025-01-30,株式会社Ｓ,,株式会社,大阪府,大阪市中央区,本町４丁目２番１２号,,27,128,5410053,,,,,,,2025-01-30,1,,,,,エス,0
1398,1120101070961,新規,0,2025-01-30,2025-01-30,株式会社Ｏ．Ｋ．Ｓ,,株式会社,大阪府,泉南市,信達牧野２５８番地の１（６０２）,,27,228,5900522,,,,,,,2025-01-30,1,,,,,オーケイエス,0
1409,1120105009964,新規,0,2025-01-30,2025-01-30,一般社団法人マハロ,,その他の設立登記法人,大阪府,富田林市,藤沢台７丁目６番１７号,,27,214,5840071,,,,,,,2025-01-30,1,,,,,マハロ,0
1412,1120901050353,新規,0,2025-01-30,2025-01-30,株式会社長榮,,株式会社,大阪府,茨木市,新郡山２丁目３３番１９号の８,,27,211,5670074,,,,,,,2025-01-30,1,,,,,ナガエ,0
1413,1120901050361,新規,0,2025-01-30,2025-01-30,株式会社星見堂,,株式会社,大阪府,茨木市,水尾２丁目１０番３７号,,27,211,5670891,,,,,,,2025-01-30,1,,,,,ホシミドウ,0
1415,1120905006681,新規,0,2025-01-30,2025-01-30,医療法人貴紗会,,その他の設立登記法人,大阪府,高槻市,城北町２丁目２番１６号,,27,207,5690071,,,,,,,2025-01-30,1,,,,,キサカイ,0
1419,1130001078897,新規,0,2025-01-30,2025-01-30,株式会社廣岡,,株式会社,京都府,京田辺市,松井ケ丘３丁目７番地１,,26,211,6100353,,,,,,,2025-01-30,1,,,,,ヒロオカ,0
1427,1160001026515,新規,0,2025-01-30,2025-01-30,株式会社Ｎｕｅ,,株式会社,滋賀県,大津市,北大路１丁目８－３１－２０６,,25,201,5200843,,,,,,,2025-01-30,1,,,,,ヌエ,0
1434,1180001165187,新規,0,2025-01-30,2025-01-30,株式会社シロイチ,,株式会社,愛知県,名古屋市中区,栄３丁目２番３号名古屋日興證券ビル４階,,23,106,4600008,,,,,,,2025-01-30,1,,,,,シロイチ,0
1439,1180003027930,新規,0,2025-01-30,2025-01-30,兄弟合同会社,,合同会社,愛知県,名古屋市港区,藤前１丁目１１０６番地２,,23,111,4550855,,,,,,,2025-01-30,1,,,,,キョウダイ,0
1441,1190001031966,新規,0,2025-01-30,2025-01-30,株式会社星和テクノ,,株式会社,三重県,四日市市,松本１丁目１番１４号セントラル・シティ１０５,,24,202,5100836,,,,,,,2025-01-30,1,,,,,ショウワテクノ,0
1443,1200001043398,新規,0,2025-01-30,2025-01-30,株式会社栄進警備,,株式会社,岐阜県,本巣郡北方町,高屋白木１丁目４５セラハウスＥ１０３号,,21,421,5010454,,,,,,,2025-01-30,1,,,,,エイシンケイビ,0
1445,1210003001881,新規,0,2025-01-30,2025-01-30,合同会社はちみつ,,合同会社,福井県,福井市,板垣２丁目１０５番地,,18,201,9188104,,,,,,,2025-01-30,1,,,,,ハチミツ,0
1453,1230001020725,新規,0,2025-01-30,2025-01-30,株式会社ＦＬＡＧＳ,,株式会社,富山県,高岡市,大野１０４西森ビル２階,,16,202,9330016,,,,,,,2025-01-30,1,,,,,フラグス,0
1471,1320005010218,新規,0,2025-01-30,2025-01-30,無限責任高津原負債整理組合,00137778,その他の設立登記法人,大分県,豊後大野市,犬飼町高津原,00137779,44,212,8797312,,,,,,,2025-01-30,1,,,,,コウヅハル,0
1476,1340003004731,新規,0,2025-01-30,2025-01-30,合同会社Ｐｒｉｍｅｉｒｏ,,合同会社,鹿児島県,鹿児島市,西陵１丁目２６番７号,,46,201,8900032,,,,,,,2025-01-30,1,,,,,プリメーロ,0
1479,1370001052184,新規,0,2025-01-30,2025-01-30,株式会社八音,,株式会社,宮城県,岩沼市,桑原３丁目２番１２号,,04,211,9892445,,,,,,,2025-01-30,1,,,,,ヤオト,0
1480,1370003006915,新規,0,2025-01-30,2025-01-30,合同会社Ｂｌｏｏｍ,,合同会社,宮城県,仙台市宮城野区,岩切字観音前１番地の２,,04,102,9830821,,,,,,,2025-01-30,1,,,,,ブルーム,0
1553,1410001014048,新規,0,2025-01-30,2025-01-30,株式会社ペアコンサルティング,,株式会社,秋田県,秋田市,保戸野原の町７番６８号,,05,201,0100904,,,,,,,2025-01-30,1,,,,,ペアコンサルティング,0
1567,1700150128627,新規,0,2025-01-30,2025-01-30,Ｇｅｎｅｓｉｓ　Ｄｉｇｉｔａｌ，ＬＬＣ,,外国会社等,,,,,,,,４７３０　Ｓ　Ｆｏｒｔ　Ａｐａｃｈｅ　Ｒｄ　Ｓｔｅ　３００　Ｌａｓ　Ｖｅｇａｓ，ＮＶ　８９１４７－７９４７,,,,,,2025-01-30,1,,,,,ジエネシスデジタルエルエルシー,0
1570,2010001251829,新規,0,2025-01-30,2025-01-30,株式会社Ｃｒｏｓｓ　Ｂｏｒｄｅｒ　Ａｄｖｉｓｏｒｙ,,株式会社,東京都,千代田区,二番町９－３ＴＨＥＢＡＳＥ麹町,,13,101,1020084,,,,,,,2025-01-30,1,,,,,クロスボーダーアドバイザリー,0
1571,2010001251886,新規,0,2025-01-30,2025-01-30,株式会社ＮＯＺＵ　ＹＵＳＨＩＲＯ,,株式会社,東京都,中央区,日本橋馬喰町２丁目４番６号アネックス日本橋ビル４Ｆ,,13,102,1030002,,,,,,,2025-01-30,1,,,,,ノヅユウシロウ,0
1574,2010005039460,新規,0,2025-01-30,2025-01-30,一般社団法人日本ＡＩ推進協会,,その他の設立登記法人,東京都,千代田区,神田猿楽町２丁目２番８号ＩＬＬＵＭＩＲＩＳＥ神保町６Ｆ,,13,101,1010064,,,,,,,2025-01-30,1,,,,,ニホンエーアイスイシンキョウカイ,0
1575,2010005039485,新規,0,2025-01-30,2025-01-30,一般社団法人ＫＳＦＲ１２,,その他の設立登記法人,東京都,千代田区,内幸町２丁目１番６号,,13,101,1000011,,,,,,,2025-01-30,1,,,,,ケイエスエフアールトゥエルブ,0
1576,2010005039493,新規,0,2025-01-30,2025-01-30,弁護士法人高野隆法律事務所,,その他の設立登記法人,東京都,千代田区,神田佐久間町２丁目７第６東ビル９０１,,13,101,1010025,,,,,,,2025-01-30,1,,,,,タカノタカシホウリツジムショ,0
1577,2010101016504,新規,0,2025-01-30,2025-01-30,クロノスウェア株式会社,,株式会社,東京都,八王子市,大塚６４３番１４号ニューオ　ーツカマンション１０３,,13,201,1920352,,,,,,,2025-01-30,1,,,,,,0
1578,2010103002502,新規,0,2025-01-30,2025-01-30,合同会社ミイタコウイチ,,合同会社,東京都,八王子市,本郷町１番１７号,,13,201,1920052,,,,,,,2025-01-30,1,,,,,ミイタコウイチ,0
1587,2010401187771,新規,0,2025-01-30,2025-01-30,令和承継パートナーズ株式会社,,株式会社,東京都,港区,虎ノ門１丁目２３番１号虎ノ門ヒルズ森タワー,,13,103,1050001,,,,,,,2025-01-30,1,,,,,レイワショウケイパートナーズ,0
1588,2010401187846,新規,0,2025-01-30,2025-01-30,株式会社Ｇｌｏｂａｌ　Ｃａｎｖａｓ,,株式会社,東京都,港区,南青山３丁目１番３６号青山丸竹ビル６Ｆ,,13,103,1070062,,,,,,,2025-01-30,1,,,,,グローバルキャンバス,0
1589,2010401187854,新規,0,2025-01-30,2025-01-30,株式会社ワンダートゥデイ,,株式会社,東京都,港区,南青山３丁目１番３６号青山丸竹ビル６Ｆ,,13,103,1070062,,,,,,,2025-01-30,1,,,,,ワンダートゥデイ,0
1590,2010401187862,新規,0,2025-01-30,2025-01-30,株式会社ＣＵＬＭＩＲＥ,,株式会社,東京都,港区,北青山１丁目３番１号アールキューブ青山３階,,13,103,1070061,,,,,,,2025-01-30,1,,,,,カルマイヤー,0
1591,2010401187870,新規,0,2025-01-30,2025-01-30,株式会社ＭＥＤＧＲＩＴ,,株式会社,東京都,港区,愛宕２丁目５－１愛宕グリーンヒルズＭＯＲＩタワー３４階,,13,103,1050002,,,,,,,2025-01-30,1,,,,,メドグリット,0
1592,2010401187879,新規,0,2025-01-30,2025-01-30,株式会社縁の菓,,株式会社,東京都,港区,北青山２丁目７番２４号青山光影ビル１０２号室,,13,103,1070061,,,,,,,2025-01-30,1,,,,,エンノカ,0
1593,2010401187937,新規,0,2025-01-30,2025-01-30,株式会社サクリン,,株式会社,東京都,港区,新橋４丁目１４番１号新橋ＡＵＮＢＬＤＧ４階,,13,103,1050004,,,,,,,2025-01-30,1,,,,,サクリン,0
1594,2010403034286,新規,0,2025-01-30,2025-01-30,合同会社ＺＥＵＳ　ＧＲＯＵＰ,,合同会社,東京都,港区,西麻布２丁目１７番６－３０１号,,13,103,1060031,,,,,,,2025-01-30,1,,,,,ゼウスグループ,0
1595,2010403034303,新規,0,2025-01-30,2025-01-30,Ｎｏｚｏｍｉ　ＭＬ合同会社,,合同会社,東京都,港区,六本木１丁目９番１０号アークヒルズ仙石山森タワー４０階,,13,103,1060032,,,,,,,2025-01-30,1,,,,,ノゾミエムエル,0
1599,2010501053551,新規,0,2025-01-30,2025-01-30,千雄株式会社,,株式会社,東京都,台東区,北上野２丁目２５番９号－５０８号室,,13,106,1100014,,,,,,,2025-01-30,1,,,,,センユウ,0
1600,2010503007720,新規,0,2025-01-30,2025-01-30,泓之企画合同会社,,合同会社,東京都,台東区,小島２丁目１４番６号－３０１号,,13,106,1110056,,,,,,,2025-01-30,1,,,,,フチノキカク,0
1606,2010603011358,新規,0,2025-01-30,2025-01-30,合同会社オイトマ,,合同会社,東京都,墨田区,京島３丁目２０番９号,,13,107,1310046,,,,,,,2025-01-30,1,,,,,オイトマ,0
1692,2010701047163,新規,0,2025-01-30,2025-01-30,株式会社ココママ,,株式会社,東京都,品川区,東中延１丁目１０番９号,,13,109,1420052,,,,,,,2025-01-30,1,,,,,ココママ,0
1699,2010703007545,新規,0,2025-01-30,2025-01-30,合同会社ＭＵＫ,,合同会社,東京都,品川区,旗の台６丁目７番１４号,,13,109,1420064,,,,,,,2025-01-30,1,,,,,エムユーケー,0
1702,2010803005267,新規,0,2025-01-30,2025-01-30,合同会社Ｓａｆｅ　Ｆｏｒ　Ａｌｌ,,合同会社,東京都,大田区,東嶺町４４－９ミマツスクエアガーデン１Ｆ・１０２号室,,13,111,1450074,,,,,,,2025-01-30,1,,,,,セーフフォオオール,0
1823,2010901056732,新規,0,2025-01-30,2025-01-30,株式会社Ｃｈｉｃｃｉ,,株式会社,東京都,世田谷区,三軒茶屋２丁目３８番９号プリーレＢ．Ｍ．Ｋ２０２,,13,112,1540024,,,,,,,2025-01-30,1,,,,,チッチ,0
1841,2011001167453,新規,0,2025-01-30,2025-01-30,株式会社ＤＸコンサルティング,,株式会社,東京都,渋谷区,神南１丁目１１番４号ＦＰＧリンクス神南５Ｆ,,13,113,1500041,,,,,,,2025-01-30,1,,,,,ディーエックスコンサルティング,0
1850,2011203004594,新規,0,2025-01-30,2025-01-30,ＦＤ合同会社,,合同会社,東京都,中野区,野方６丁目３１番１１号第８０オーナーズビル３０５,,13,114,1650027,,,,,,,2025-01-30,1,,,,,エフディー,0
1855,2011405002371,新規,0,2025-01-30,2025-01-30,一般社団法人あかや聖書研究会,,その他の設立登記法人,東京都,板橋区,仲町２３－１７,,13,119,1730022,,,,,,,2025-01-30,1,,,,,アカヤセイショケンキュウカイ,0
1861,2011701028013,新規,0,2025-01-30,2025-01-30,株式会社帝國興業,,株式会社,東京都,江戸川区,北小岩８丁目２５番１５号,,13,123,1330051,,,,,,,2025-01-30,1,,,,,テイコクコウギョウ,0
1976,2012701018680,新規,0,2025-01-30,2025-01-30,明亮株式会社,,株式会社,東京都,小平市,たかの台１４２１番地２１０永井マンション,,13,211,1870024,,,,,,,2025-01-30,1,,,,,メイリョウ,0
1981,2013303007510,新規,0,2025-01-30,2025-01-30,合同会社ライフエステート,,合同会社,東京都,豊島区,西池袋２丁目９番２－４０７号,,13,116,1710021,,,,,,,2025-01-30,1,,,,,ライフエステート,0
1982,2013303007519,新規,0,2025-01-30,2025-01-30,合同会社ハート,,合同会社,東京都,豊島区,池袋１丁目１６番２０号クリアスタイル池袋２０１号,,13,116,1700014,,,,,,,2025-01-30,1,,,,,ハート,0
2329,2020001160913,新規,0,2025-01-30,2025-01-30,株式会社規制班,,株式会社,神奈川県,川崎市高津区,溝口６丁目２０番１－２号,,14,134,2130001,,,,,,,2025-01-30,1,,,,,キセイハン,0
2355,2020003027714,新規,0,2025-01-30,2025-01-30,乃佑合同会社,,合同会社,神奈川県,川崎市中原区,上平間２７６番地３,,14,133,2110013,,,,,,,2025-01-30,1,,,,,ノスケ,0
2773,2030001164582,新規,0,2025-01-30,2025-01-30,株式会社深谷農園,,株式会社,埼玉県,深谷市,上敷免８８２番地１,,11,218,3660029,,,,,,,2025-01-30,1,,,,,フカヤノウエン,0
2774,2030001164616,新規,0,2025-01-30,2025-01-30,株式会社ｋｉｎａｒｅ,,株式会社,埼玉県,白岡市,小久喜１４２２－１,,11,246,3490217,,,,,,,2025-01-30,1,,,,,キナリ,0
2775,2030001164649,新規,0,2025-01-30,2025-01-30,藤原商事株式会社,,株式会社,埼玉県,さいたま市浦和区,岸町２丁目３番１３－１号ｄｕｐｌｅｘ岸町Ａ１,,11,107,3300064,,,,,,,2025-01-30,1,,,,,フジワラショウジ,0
2808,2030003025865,新規,0,2025-01-30,2025-01-30,合同会社ｆａｎ,,合同会社,埼玉県,所沢市,大字北秋津６７２番地の１－１１２,,11,208,3590038,,,,,,,2025-01-30,1,,,,,ファン,0
2809,2030003025989,新規,0,2025-01-30,2025-01-30,東昇合同会社,,合同会社,埼玉県,さいたま市浦和区,領家４丁目８－１２クラレンス浦和領家２０１号室,,11,107,3300072,,,,,,,2025-01-30,1,,,,,トウショウ,0
2823,2040003026722,新規,0,2025-01-30,2025-01-30,合同会社ｇｌｉｓｔｅｎ,,合同会社,千葉県,長生郡一宮町,一宮２１５０―１クレインヒルなぎさ１０２,,12,421,2994301,,,,,,,2025-01-30,1,,,,,グリステン,0
2824,2040005022645,新規,0,2025-01-30,2025-01-30,特定非営利活動法人子どもえんてらす,,その他の設立登記法人,千葉県,流山市,南流山４丁目４番地の２８,,12,220,2700163,,,,,,,2025-01-30,1,,,,,コドモエンテラス,0
2828,2050001056084,新規,0,2025-01-30,2025-01-30,株式会社ＧＯＡＴ,,株式会社,茨城県,鉾田市,塔ケ崎２４番地１０,,08,234,3111522,,,,,,,2025-01-30,1,,,,,ゴート,0
2846,2080405007705,新規,0,2025-01-30,2025-01-30,一般社団法人浜松イスラミックセンター,,その他の設立登記法人,静岡県,浜松市中央区,白羽町４４番地の３,,22,138,4300846,,,,,,,2025-01-30,1,,,,,ハママツイスラミックセンター,0
2847,2090003002735,新規,0,2025-01-30,2025-01-30,合同会社アシスト,,合同会社,山梨県,甲府市,飯田１丁目３－２８,,19,201,4000035,,,,,,,2025-01-30,1,,,,,アシスト,0
2865,2120001272186,新規,0,2025-01-30,2025-01-30,双葉コーポレーショングループ株式会社,,株式会社,大阪府,大阪市西区,九条南４丁目１５番２１号,,27,106,5500025,,,,,,,2025-01-30,1,,,,,フタバコーポレーショングループ,0
2866,2120001272351,新規,0,2025-01-30,2025-01-30,ＢＵＢＢＬＥＳ　ＨＡＮＤＭＡＤＥ株式会社,,株式会社,大阪府,大阪市中央区,谷町７丁目３－４新谷町第３ビル３階,,27,128,5420012,,,,,,,2025-01-30,1,,,,,バブルスハンドメイド,0
2867,2120001272376,新規,0,2025-01-30,2025-01-30,株式会社ＢＬＡＭＡＴＩＣ,,株式会社,大阪府,大阪市浪速区,下寺３丁目１番１４号エクレールタ陽ケ丘５号２１３室,,27,111,5560001,,,,,,,2025-01-30,1,,,,,ブラマティック,0
2868,2120001272426,新規,0,2025-01-30,2025-01-30,三木株式会社,,株式会社,大阪府,大阪市都島区,中野町２丁目４番７号,,27,102,5340027,,,,,,,2025-01-30,1,,,,,ミキ,0
2869,2120001272459,新規,0,2025-01-30,2025-01-30,タニホーム株式会社,,株式会社,大阪府,大阪市北区,梅田１丁目１－３大阪駅前第３ビル２９階１－１－１号室,,27,127,5300001,,,,,,,2025-01-30,1,,,,,タニホーム,0
2870,2120001272483,新規,0,2025-01-30,2025-01-30,株式会社フェローアイ,,株式会社,大阪府,大阪市北区,梅田１丁目１－３大阪駅前第３ビル２９階１－１－１号室,,27,127,5300001,,,,,,,2025-01-30,1,,,,,フェローアイ,0
2873,2120003028396,新規,0,2025-01-30,2025-01-30,合同会社レイマス,,合同会社,大阪府,大阪市中央区,南船場３丁目８番７号三栄ムアビル１３階,,27,128,5420081,,,,,,,2025-01-30,1,,,,,レイマス,0
2874,2120003028512,新規,0,2025-01-30,2025-01-30,合同会社ウィングロード,,合同会社,大阪府,大阪市天王寺区,玉造元町３番６－３０８号,,27,109,5430014,,,,,,,2025-01-30,1,,,,,ウィングロード,0
3035,2120101070960,新規,0,2025-01-30,2025-01-30,リーチコンサルティング株式会社,,株式会社,大阪府,堺市美原区,北余部４０番地５０,,27,147,5870051,,,,,,,2025-01-30,1,,,,,リーチコンサルティング,0
3036,2120101070969,新規,0,2025-01-30,2025-01-30,株式会社肉の匠テラオカ,,株式会社,大阪府,羽曳野市,野々上５丁目２番２号,,27,222,5830871,,,,,,,2025-01-30,1,,,,,ニクノタクミテラオカ,0
3040,2120103006252,新規,0,2025-01-30,2025-01-30,合同会社ロジクト,,合同会社,大阪府,泉南郡田尻町,嘉祥寺６９４番地３,,27,362,5980091,,,,,,,2025-01-30,1,,,,,ロジクト,0
3045,2120905006680,新規,0,2025-01-30,2025-01-30,医療法人泰心会,,その他の設立登記法人,大阪府,吹田市,江坂町２丁目１番４７号京阪神新江坂ビル１階,,27,205,5640063,,,,,,,2025-01-30,1,,,,,タイシンカイ,0
3054,2122001038848,新規,0,2025-01-30,2025-01-30,株式会社大阪中部販売セールスセンター,,株式会社,大阪府,東大阪市,花園本町１丁目１番４５号,,27,227,5780937,,,,,,,2025-01-30,1,,,,,オオサカチュウブハンバイセールスセンター,0
3056,2122003003107,新規,0,2025-01-30,2025-01-30,合同会社ハッピーウェイ,,合同会社,大阪府,東大阪市,中鴻池町１丁目３番７号グランドゥール鴻池１階,,27,227,5780975,,,,,,,2025-01-30,1,,,,,ハッピーウェイ,0
3058,2130003010171,新規,0,2025-01-30,2025-01-30,ＧＲＩＴ合同会社,,合同会社,京都府,京都市下京区,大黒町２２７番地第２キョートビル４０２,,26,106,6008043,,,,,,,2025-01-30,1,,,,,グリット,0
3059,2130005017280,新規,0,2025-01-30,2025-01-30,特定非営利活動法人Ｅａｒｔｈｓｅｅｄ,,その他の設立登記法人,京都府,京都市下京区,中堂寺南町１３４番地ＡＳＴＥＭ棟８階,,26,106,6008813,,,,,,,2025-01-30,1,,,,,アースシード,0
3064,2140001137206,新規,0,2025-01-30,2025-01-30,株式会社大西工務店,,株式会社,兵庫県,小野市,粟生町１５０６番地の１１３,,28,218,6751358,,,,,,,2025-01-30,1,,,,,オオニシコウムテン,0
3065,2140001137239,新規,0,2025-01-30,2025-01-30,株式会社ＣＯＣＯＲＯＭｅ,,株式会社,兵庫県,神戸市西区,井吹台東町２丁目１番地２－４０１号,,28,111,6512242,,,,,,,2025-01-30,1,,,,,ココロミ,0
3069,2160001026514,新規,0,2025-01-30,2025-01-30,株式会社シュバルフル,,株式会社,滋賀県,草津市,南笠東２丁目７番７号,,25,206,5250071,,,,,,,2025-01-30,1,,,,,シュバルフル,0
3077,2180001165178,新規,0,2025-01-30,2025-01-30,いずみトータルケア株式会社,,株式会社,愛知県,一宮市,花池４丁目１６番３号,,23,203,4910914,,,,,,,2025-01-30,1,,,,,イズミトータルケア,0
3078,2180001165194,新規,0,2025-01-30,2025-01-30,アオヤマコーポレーション株式会社,,株式会社,愛知県,名古屋市中村区,則武２丁目３４番１５号,,23,105,4530014,,,,,,,2025-01-30,1,,,,,アオヤマコーポレーション,0
3079,2180001165211,新規,0,2025-01-30,2025-01-30,株式会社Ｓｋｙｎｅｔ,,株式会社,愛知県,名古屋市緑区,鎌倉台２丁目１７１１,,23,114,4580829,,,,,,,2025-01-30,1,,,,,スカイネット,0
3081,2180003027863,新規,0,2025-01-30,2025-01-30,ＳＵＳＭＡ合同会社,,合同会社,愛知県,名古屋市中村区,則武１丁目２４１８番地２階,,23,105,4530014,,,,,,,2025-01-30,1,,,,,ススマ,0
3087,2200001043397,新規,0,2025-01-30,2025-01-30,アムリザン株式会社,,株式会社,岐阜県,岐阜市,茜部寺屋敷３丁目３０２番地７,,21,201,5008267,,,,,,,2025-01-30,1,,,,,アムリザン,0
3088,2230001020724,新規,0,2025-01-30,2025-01-30,ふくふくハーブ株式会社,,株式会社,富山県,南砺市,鍛治１７３番地１,,16,210,9391725,,,,,,,2025-01-30,1,,,,,フクフクハーブ,0
3091,2240001064464,新規,0,2025-01-30,2025-01-30,株式会社ｉｎｉｔｉｕｍ’ｓ,,株式会社,広島県,広島市中区,小町９番１３号,,34,101,7300041,,,,,,,2025-01-30,1,,,,,イニティウムス,0
3093,2240003007041,新規,0,2025-01-30,2025-01-30,合同会社セトギワ,,合同会社,広島県,広島市安芸区,船越２丁目４２番１４号,,34,107,7360081,,,,,,,2025-01-30,1,,,,,セトギワ,0
3097,2270001009136,新規,0,2025-01-30,2025-01-30,株式会社Ｎｏ　Ｌｉｍｉｔ,,株式会社,鳥取県,米子市,東福原３丁目８－１７,,31,202,6830802,,,,,,,2025-01-30,1,,,,,ノーリミット,0
3114,2310001019428,新規,0,2025-01-30,2025-01-30,ＭａｎｄＪ株式会社,,株式会社,長崎県,佐世保市,早岐１丁目１６番１９号ランドアーク早岐８０２号,,42,202,8593215,,,,,,,2025-01-30,1,,,,,エムアンドジェー,0
3118,2330003010770,新規,0,2025-01-30,2025-01-30,合同会社Ｒｅｓｉｌｉｅｎｃｅ,,合同会社,熊本県,熊本市東区,長嶺南６丁目２５番５号エコル・プレ長嶺１０３,,43,102,8618039,,,,,,,2025-01-30,1,,,,,レジリエンス,0
3125,2370001052191,新規,0,2025-01-30,2025-01-30,株式会社Ｓｔ．まざーぐーす,,株式会社,宮城県,仙台市若林区,土樋８－１１０２,,04,103,9840065,,,,,,,2025-01-30,1,,,,,セントマザーグース,0
3130,2380001034973,新規,0,2025-01-30,2025-01-30,株式会社天翔工業,,株式会社,福島県,南相馬市,原町区本陣前１丁目１８番地の２,,07,212,9750062,,,,,,,2025-01-30,1,,,,,テンショウコウギョウ,0
3131,2380001035071,新規,0,2025-01-30,2025-01-30,株式会社メディール,,株式会社,福島県,郡山市,安積荒井１丁目１０番２Ｆ,,07,203,9630117,,,,,,,2025-01-30,1,,,,,メディール,0
3132,2380003005948,新規,0,2025-01-30,2025-01-30,合同会社鈴商,,合同会社,福島県,本宮市,稲沢字根柄１０７番地１,,07,214,9691201,,,,,,,2025-01-30,1,,,,,スズショウ,0
3202,2420003003063,新規,0,2025-01-30,2025-01-30,コアプラス合同会社,,合同会社,青森県,黒石市,泉町６１,,02,204,0360374,,,,,,,2025-01-30,1,,,,,コアプラス,0
3206,2430001093576,新規,0,2025-01-30,2025-01-30,株式会社ＹＯＴＥＩ　ＧＲＯＵＰ,,株式会社,北海道,虻田郡京極町,字三崎８９番地２８,,01,399,0440121,,,,,,,2025-01-30,1,,,,,ヨウテイグループ,0
3207,2430001093584,新規,0,2025-01-30,2025-01-30,太和国際株式会社,,株式会社,北海道,札幌市中央区,北四条西１９丁目１番２号,,01,101,0600004,,,,,,,2025-01-30,1,,,,,タイワコクサイ,0
3210,2460003001030,新規,0,2025-01-30,2025-01-30,合同会社ライジングストック,,合同会社,北海道,釧路市,新栄町１４番１０号,,01,206,0850032,,,,,,,2025-01-30,1,,,,,ライジングストック,0
3212,2500005008762,新規,0,2025-01-30,2025-01-30,一般社団法人星空ＢＡＳＥ,,その他の設立登記法人,愛媛県,松山市,衣山２丁目６番５０号グレイス衣山東１０２号,,38,201,7918025,,,,,,,2025-01-30,1,,,,,ホシゾラベース,0
3213,2700150129013,新規,0,2025-01-30,2025-01-30,草花小学校保護者と教職員の会,,その他,東京都,あきる野市,草花３１３０,,13,228,1970802,,,,,,,2025-01-30,1,,,,,クサハナショウガッコウホゴシャトキョウショクインノカイ,0
3225,3010001251836,新規,0,2025-01-30,2025-01-30,株式会社マリーファーム,,株式会社,東京都,中央区,銀座１丁目２２番１１号銀座大竹ビジデンス２Ｆ,,13,102,1040061,,,,,,,2025-01-30,1,,,,,マリーファーム,0
3229,3010003046202,新規,0,2025-01-30,2025-01-30,合同会社ＫＡＳＡ,,合同会社,東京都,文京区,白山２丁目１０番１５号,,13,105,1120001,,,,,,,2025-01-30,1,,,,,カサ,0
3230,3010005039492,新規,0,2025-01-30,2025-01-30,一般社団法人ＪＡＨ　Ｔｗｏ,,その他の設立登記法人,東京都,千代田区,平河町１丁目６番１５号シルスフィア会計事務所内,,13,101,1020093,,,,,,,2025-01-30,1,,,,,ジェイエイエイチツー,0
3231,3010101016503,新規,0,2025-01-30,2025-01-30,呉家株式会社,,株式会社,東京都,八王子市,南大沢２丁目２１６番１６－２０２号,,13,201,1920364,,,,,,,2025-01-30,1,,,,,ゴカ,0
3234,3010401187746,新規,0,2025-01-30,2025-01-30,株式会社Ｂａｎｇｅｒ,,株式会社,東京都,港区,六本木４丁目８番７号六本木嶋田ビル５Ｆ,,13,103,1060032,,,,,,,2025-01-30,1,,,,,バンガー,0
3235,3010401187779,新規,0,2025-01-30,2025-01-30,株式会社白高不動産,,株式会社,東京都,港区,高輪１丁目２番１６号フラットウェル高輪６Ｃ,,13,103,1080074,,,,,,,2025-01-30,1,,,,,シラタカフドウサン,0
3236,3010401187804,新規,0,2025-01-30,2025-01-30,株式会社８１ｓｔ‐ｓｔｒｅｅｔ,,株式会社,東京都,港区,南青山２丁目１４番１３号,,13,103,1070062,,,,,,,2025-01-30,1,,,,,エイティファーストストリート,0
3237,3010401187853,新規,0,2025-01-30,2025-01-30,３３株式会社,,株式会社,東京都,港区,赤坂９丁目６番１５号ＡＲＴＲＩＰ２Ｆ,,13,103,1070052,,,,,,,2025-01-30,1,,,,,サンジュウサン,0
3239,3010403034269,新規,0,2025-01-30,2025-01-30,イートロンテクノロジーズジャパン合同会社,,合同会社,東京都,港区,西新橋１丁目１番１号ＷｅＷｏｒｋ日比谷ＦＯＲＴＴＯＷＥＲ１０階,,13,103,1050003,,,,,,,2025-01-30,1,,,,,イートロンテクノロジーズジャパン,0
3240,3010403034302,新規,0,2025-01-30,2025-01-30,合同会社Ｎｏｖｅｌ　Ｒｅａｌｔｙ＆Ｄｅｖｅｌｏｐｍｅｎｔ,,合同会社,東京都,港区,六本木１丁目６番１号泉ガーデンタワー１２階ＫＰＭＧ税理士法人内,,13,103,1060032,,,,,,,2025-01-30,1,,,,,ノベルリアルティアンドデベロプメント,0
3244,3010501053534,新規,0,2025-01-30,2025-01-30,株式会社ａｎｄ,,株式会社,東京都,台東区,台東３丁目３８番１号,,13,106,1100016,,,,,,,2025-01-30,1,,,,,アンド,0
3247,3010601066659,新規,0,2025-01-30,2025-01-30,あらなみブルーイング株式会社,,株式会社,東京都,江東区,豊洲３丁目６番８－３８１９号,,13,108,1350061,,,,,,,2025-01-30,1,,,,,アラナミブルーイング,0
3248,3010601066675,新規,0,2025-01-30,2025-01-30,ＰａｌｍＩＤ　ＪＡＰＡＮ株式会社,,株式会社,東京都,江東区,平野３丁目２番６号木場パークビル,,13,108,1350023,,,,,,,2025-01-30,1,,,,,パルムアイディージャパン,0
3334,3010801035802,新規,0,2025-01-30,2025-01-30,ＹＫＳ株式会社,,株式会社,東京都,大田区,東雪谷１丁目１３番５号,,13,111,1450065,,,,,,,2025-01-30,1,,,,,,0
3335,3010803005266,新規,0,2025-01-30,2025-01-30,合同会社ＷＫＴコンサルティング,,合同会社,東京都,大田区,西蒲田３丁目１９番１２号Ｒ・ＮＥＳＴ３０１,,13,111,1440051,,,,,,,2025-01-30,1,,,,,ダブリューケイティーコンサルティング,0
3466,3010901056731,新規,0,2025-01-30,2025-01-30,株式会社Ｍａｋｅ　Ｓｅｎｓｅ,,株式会社,東京都,世田谷区,給田５丁目６番２４－１０９号,,13,112,1570064,,,,,,,2025-01-30,1,,,,,メイクセンス,0
3480,3011401026753,新規,0,2025-01-30,2025-01-30,楽貞商事株式会社,,株式会社,東京都,板橋区,上板橋２丁目３７番９－４０３号,,13,119,1740076,,,,,,,2025-01-30,1,,,,,ラクテイショウジ,0
3596,3011801045519,新規,0,2025-01-30,2025-01-30,株式会社ＣＬＯＢＡＬ,,株式会社,東京都,葛飾区,立石５丁目１５番５－４０５号Ｄ’クラディア立石桜通り,,13,122,1240012,,,,,,,2025-01-30,1,,,,,クローバル,0
3602,3012401042716,新規,0,2025-01-30,2025-01-30,ＧＡＬＥＲＩＡ３１株式会社,,株式会社,東京都,調布市,入間町１丁目２８番地１８,,13,208,1820004,,,,,,,2025-01-30,1,,,,,ガレリアサンイチ,0
3608,3013301053704,新規,0,2025-01-30,2025-01-30,株式会社ＮｏＬｉｍｉＴｅｃｈ,,株式会社,東京都,豊島区,西池袋３丁目２１－１３ウエストパークタワー池袋１５０５,,13,116,1710021,,,,,,,2025-01-30,1,,,,,ノーリミテック,0
3943,3020001161118,新規,0,2025-01-30,2025-01-30,Ｓｈｒｐｖｉｓｏｎ　Ｊａｐａｎ株式会社,,株式会社,神奈川県,横浜市磯子区,洋光台５丁目６番２６－４０５号,,14,107,2350045,,,,,,,2025-01-30,1,,,,,,0
3970,3020003027639,新規,0,2025-01-30,2025-01-30,合同会社訪問看護こあら,,合同会社,神奈川県,横浜市南区,南太田４丁目８－１６,,14,105,2320006,,,,,,,2025-01-30,1,,,,,ホウモンカンゴコアラ,0
4402,3030001164656,新規,0,2025-01-30,2025-01-30,ＫｉｒｉＰｌａｙＰａｒｋ株式会社,,株式会社,埼玉県,久喜市,本町５丁目１０－４７－２０５,,11,232,3460005,,,,,,,2025-01-30,1,,,,,キリプレイパーク,0
4427,3030003025988,新規,0,2025-01-30,2025-01-30,合同会社フローファーム,,合同会社,埼玉県,さいたま市中央区,新中里１丁目５番２０－７０６号,,11,105,3380011,,,,,,,2025-01-30,1,,,,,フローファーム,0
4440,3050001056083,新規,0,2025-01-30,2025-01-30,ｈ．ｉｎｄｕｓｔｒｙ株式会社,,株式会社,茨城県,神栖市,神栖２丁目８番２８号,,08,232,3140143,,,,,,,2025-01-30,1,,,,,エイチインダストリー,0
4444,3060001037875,新規,0,2025-01-30,2025-01-30,株式会社サプライル,,株式会社,栃木県,小山市,大字西黒田２５６番地２,,09,208,3290203,,,,,,,2025-01-30,1,,,,,サプライル,0
4453,3080101025282,新規,0,2025-01-30,2025-01-30,株式会社ｐｌａｉｎ,,株式会社,静岡県,田方郡函南町,柏谷７４６－６,,22,325,4190112,,,,,,,2025-01-30,1,,,,,プレーン,0
4457,3080405007704,新規,0,2025-01-30,2025-01-30,一般社団法人海と日本プロジェクトｉｎ浜名湖,,その他の設立登記法人,静岡県,浜松市浜名区,三ヶ日町岡本７５４番地,,22,139,4311415,,,,,,,2025-01-30,1,,,,,ウミトニッポンプロジェクトインハマナコ,0
4458,3090003002734,新規,0,2025-01-30,2025-01-30,朧穏合同会社,,合同会社,山梨県,南都留郡富士河口湖町,小立４８９ＴＲＩＢＥハウスＡ号棟,,19,430,4010302,,,,,,,2025-01-30,1,,,,,ロウオン,0
4473,3120001272152,新規,0,2025-01-30,2025-01-30,株式会社Ｃａｒｅ　Ｏｎｅ,,株式会社,大阪府,寝屋川市,出雲町１－１３メゾン・スイートピュア４０２,,27,215,5720821,,,,,,,2025-01-30,1,,,,,ケアワン,0
4474,3120001272268,新規,0,2025-01-30,2025-01-30,株式会社ｆｏｕｎｃｅ,,株式会社,大阪府,大阪市中央区,大手通２丁目４番８号Ａｓｓｅｓｓ大手通ビル１０Ｆ,,27,128,5400021,,,,,,,2025-01-30,1,,,,,ファウンス,0
4475,3120001272326,新規,0,2025-01-30,2025-01-30,株式会社モーブエステート,,株式会社,大阪府,大阪市東淀川区,瑞光１丁目３－６,,27,114,5330005,,,,,,,2025-01-30,1,,,,,モーブエステート,0
4476,3120001272367,新規,0,2025-01-30,2025-01-30,ＳＩＮＷＨ株式会社,,株式会社,大阪府,大阪市西成区,花園北１丁目７番１４号５０６－Ａ号室,,27,122,5570016,,,,,,,2025-01-30,1,,,,,シンウェイホン,0
4477,3120001272425,新規,0,2025-01-30,2025-01-30,株式会社ＬＩＭＩＮＧ　ＪＡＰＡＮ,,株式会社,大阪府,大阪市平野区,加美鞍作１丁目１０－８,,27,126,5470004,,,,,,,2025-01-30,1,,,,,リーミンジャパン,0
4478,3120001272458,新規,0,2025-01-30,2025-01-30,株式会社ｘｉａｎ,,株式会社,大阪府,大阪市中央区,宗右衛門町５番３２号Ｆｎ三津寺ビル４階,,27,128,5420084,,,,,,,2025-01-30,1,,,,,シエン,0
4485,3120003028503,新規,0,2025-01-30,2025-01-30,啓航合同会社,,合同会社,大阪府,大阪市住之江区,安立１丁目２番１３号田中ビル４０３－Ｂ号室,,27,125,5590003,,,,,,,2025-01-30,1,,,,,ケイコウ,0
4671,3120101070968,新規,0,2025-01-30,2025-01-30,ルクストラスト株式会社,,株式会社,大阪府,富田林市,大字佐備１２６５番地６,,27,214,5840052,,,,,,,2025-01-30,1,,,,,ルクストラスト,0
4680,3130001078895,新規,0,2025-01-30,2025-01-30,宜通株式会社,,株式会社,京都府,京都市中京区,西ノ京伯楽町１４番５１号コーポ杉３０５号室,,26,104,6048452,,,,,,,2025-01-30,1,,,,,ギツウ,0
4681,3130003010179,新規,0,2025-01-30,2025-01-30,Ｔｈｅ　Ｓｔｏｒｙ　Ｄｉｇｇｅｒ合同会社,,合同会社,京都府,京都市南区,吉祥院西ノ庄渕ノ西町１４番地２,,26,107,6010000,,,,,,,2025-01-30,1,,,,,ザストーリーディガー,0
4690,3140001137246,新規,0,2025-01-30,2025-01-30,ＬＨＰ　Ｔｒａｄｉｎｇ株式会社,,株式会社,兵庫県,神戸市中央区,山本通１丁目６番２６号,,28,110,6500003,,,,,,,2025-01-30,1,,,,,エルエイチピートレーディング,0
4691,3140001137270,新規,0,2025-01-30,2025-01-30,株式会社ＯＵＧ,,株式会社,兵庫県,神戸市北区,鈴蘭台西町５丁目１６番１－２１０号,,28,109,6511114,,,,,,,2025-01-30,1,,,,,オウジー,0
4693,3140005027369,新規,0,2025-01-30,2025-01-30,一般社団法人キッズウエルネス,,その他の設立登記法人,兵庫県,尼崎市,南塚口町１丁目１２－８サウサービル４０２号,,28,202,6610012,,,,,,,2025-01-30,1,,,,,キッズウエルネス,0
4702,3180001165177,新規,0,2025-01-30,2025-01-30,株式会社古野都本店,,株式会社,愛知県,名古屋市中区,新栄１丁目１７番１９号,,23,106,4600007,,,,,,,2025-01-30,1,,,,,コノミヤホンテン,0
4703,3180001165243,新規,0,2025-01-30,2025-01-30,メリエイトコア株式会社,,株式会社,愛知県,海部郡大治町,大字西條字松下１２６番地の６,,23,424,4901144,,,,,,,2025-01-30,1,,,,,メリエイトコア,0
4710,3180301039477,新規,0,2025-01-30,2025-01-30,株式会社ＴＡＬａｂｏｒａｔｏｒｙ,,株式会社,愛知県,岡崎市,昭和町字神郷４７番地７,,23,202,4440938,,,,,,,2025-01-30,1,,,,,ティーエーラボラトリー,0
4719,3250003003641,新規,0,2025-01-30,2025-01-30,合同会社ＷＯＲＬＤ１,,合同会社,山口県,宇部市,大字際波３５５番地２４９,,35,202,7590207,,,,,,,2025-01-30,1,,,,,ワールドワン,0
4733,3290003016334,新規,0,2025-01-30,2025-01-30,合同会社遠雷,,合同会社,福岡県,福岡市中央区,白金２丁目１５番３号,,40,133,8100012,,,,,,,2025-01-30,1,,,,,エンライ,0
4734,3290803004959,新規,0,2025-01-30,2025-01-30,Ｔ．Ｔ企画合同会社,,合同会社,福岡県,北九州市八幡東区,大蔵１丁目９番２号,,40,108,8050048,,,,,,,2025-01-30,1,,,,,ティーティーキカク,0
4735,3300005007222,新規,0,2025-01-30,2025-01-30,農事組合法人サン総業,,その他の設立登記法人,佐賀県,鳥栖市,真木町１４９８番地１,,41,203,8410046,,,,,,,2025-01-30,1,,,,,サンソウギョウ,0
4743,3350001019381,新規,0,2025-01-30,2025-01-30,季季株式会社,,株式会社,宮崎県,宮崎市,東大宮４丁目２３番３７号,,45,201,8800825,,,,,,,2025-01-30,1,,,,,キキ,0
4746,3360001034735,新規,0,2025-01-30,2025-01-30,ＩＳＬＡＮＤＳＣＡＰＥ株式会社,,株式会社,沖縄県,宮古島市,平良字久貝８８４－６,,47,214,9060015,,,,,,,2025-01-30,1,,,,,アイランドスケープ,0
4747,3360003014652,新規,0,2025-01-30,2025-01-30,合同会社カフー,,合同会社,沖縄県,那覇市,田原１丁目１－５,,47,201,9010156,,,,,,,2025-01-30,1,,,,,カフー,0
4748,3370003006913,新規,0,2025-01-30,2025-01-30,合同会社ひまわり,,合同会社,宮城県,仙台市青葉区,本町１丁目５番２８号カーニープレイス仙台駅前通６０３号室,,04,101,9800014,,,,,,,2025-01-30,1,,,,,ヒマワリ,0
4749,3370003006921,新規,0,2025-01-30,2025-01-30,Ｖａｌｉｅｎｔｅｓ合同会社,,合同会社,宮城県,仙台市若林区,新寺３丁目１―５７弁慶仙台東口ビル１Ｆ２Ｆ,,04,103,9840051,,,,,,,2025-01-30,1,,,,,ヴァリエンテス,0
4827,3420003003062,新規,0,2025-01-30,2025-01-30,合同会社ＭｉｎｔＡｎｄ,,合同会社,青森県,青森市,大字石江字江渡５０－８９,,02,201,0380003,,,,,,,2025-01-30,1,,,,,ミントエンド,0
4828,3430001093559,新規,0,2025-01-30,2025-01-30,株式会社松原米穀農場,,株式会社,北海道,札幌市東区,東雁来十一条３丁目２番１号,,01,103,0070031,,,,,,,2025-01-30,1,,,,,マツバラベイコクノウジョウ,0
4829,3430001093575,新規,0,2025-01-30,2025-01-30,株式会社ｍｔｋ,,株式会社,北海道,札幌市中央区,北一条西２丁目１札幌時計台ビルＢ１Ｆ,,01,101,0600001,,,,,,,2025-01-30,1,,,,,エムティーケー,0
4843,3700150129012,新規,0,2025-01-30,2025-01-30,ｈａｎｇｚｈｏｕｙｕｎｑｕａｎｄｉａｎｚｉｓｈａｎｇｗｕｙｏｕｘｉａｎｇｏｎｇｓｉ,,外国会社等,,,,,,,,ｚｈｅｊｉａｎｇｓｈｅｎｇｈａｎｇｚｈｏｕｓｈｉｘｉｈｕｑｕｓａｎｄｕｎｚｈｅｎｇｕｄｕｎｌｕ６７３ｈａｏｒｕｉｂｏｇｕｏｊｉｋｅｊｉｄａｓｈａＢｚｕｏ３０６ｓｈｉ－２　３１００１２　ＣＮ,,,,,,2025-01-30,1,,,,,ハンゾウユンチェンデンシショウムヨウシエンゴンスー,0
4854,4010001251851,新規,0,2025-01-30,2025-01-30,株式会社ママアカ,,株式会社,東京都,中央区,銀座１丁目２２番１１号銀座大竹ビジデンス２Ｆ,,13,102,1040061,,,,,,,2025-01-30,1,,,,,ママアカ,0
4858,4010005039483,新規,0,2025-01-30,2025-01-30,名古屋ファルコン特定目的会社,,その他の設立登記法人,東京都,千代田区,霞が関３丁目２番５号,,13,101,1000013,,,,,,,2025-01-30,1,,,,,ナゴヤファルコン,0
4862,4010401187448,新規,0,2025-01-30,2025-01-30,株式会社ＪＪ,,株式会社,東京都,港区,東麻布３丁目７番１３号ＭＤ麻布,,13,103,1060044,,,,,,,2025-01-30,1,,,,,ジェイジェイ,0
4863,4010401187860,新規,0,2025-01-30,2025-01-30,株式会社Ｊｕｎｉ,,株式会社,東京都,港区,芝浦４丁目１９番１－１９１３号,,13,103,1080023,,,,,,,2025-01-30,1,,,,,ジュニ,0
4864,4010401187885,新規,0,2025-01-30,2025-01-30,株式会社東京カントリーハウス,,株式会社,東京都,港区,赤坂２丁目１３番５号赤坂會館ビル３階,,13,103,1070052,,,,,,,2025-01-30,1,,,,,トウキョウカントリーハウス,0
4865,4010401187935,新規,0,2025-01-30,2025-01-30,株式会社ＮＴＬ４０,,株式会社,東京都,港区,港南１丁目２番７０号,,13,103,1080075,,,,,,,2025-01-30,1,,,,,エヌティエルヨンジュウ,0
4869,4010403034292,新規,0,2025-01-30,2025-01-30,ＧＡＲＮＥＴ東京リビングポート合同会社,,合同会社,東京都,港区,六本木１丁目６番１号泉ガーデンタワー１２階,,13,103,1060032,,,,,,,2025-01-30,1,,,,,ガーネットトウキョウリビングポート,0
4871,4010405024052,新規,0,2025-01-30,2025-01-30,ＧＡＲＮＥＴ東京リビングポート一般社団法人,,その他の設立登記法人,東京都,港区,六本木１丁目６番１号泉ガーデンタワー１２階,,13,103,1060032,,,,,,,2025-01-30,1,,,,,ガーネットトウキョウリビングポート,0
4872,4010501053541,新規,0,2025-01-30,2025-01-30,株式会社ＫＥＲ,,株式会社,東京都,台東区,上野桜木２丁目２番４号,,13,106,1100002,,,,,,,2025-01-30,1,,,,,ケイイーアール,0
4877,4010603011356,新規,0,2025-01-30,2025-01-30,守道合同会社,,合同会社,東京都,江東区,大島４丁目１番５－３１２号,,13,108,1360072,,,,,,,2025-01-30,1,,,,,シュドウ,0
4973,4010801035801,新規,0,2025-01-30,2025-01-30,株式会社Ｎｅｘｕｓ　Ａｒｃｈｉｔｅｃｔｕｒｅ,,株式会社,東京都,大田区,大森北１丁目３２番１３－６０２号,,13,111,1430016,,,,,,,2025-01-30,1,,,,,ネクサスアーキテクチャー,0
4974,4010803005265,新規,0,2025-01-30,2025-01-30,ラビタ合同会社,,合同会社,東京都,大田区,西蒲田７丁目４番４号小山第２ビル６Ｆ,,13,111,1440051,,,,,,,2025-01-30,1,,,,,ラビタ,0
5111,4011005010839,新規,0,2025-01-30,2025-01-30,一般社団法人Ｊａｐａｎ　Ａｒｔｉｓａｎ　Ｆｏｕｎｄａｔｉｏｎ,,その他の設立登記法人,東京都,渋谷区,東２丁目２７番２号,,13,113,1500011,,,,,,,2025-01-30,1,,,,,ジャパンアルチザンファンデーション,0
5120,4011401026777,新規,0,2025-01-30,2025-01-30,株式会社ｋｉａｏｎａ,,株式会社,東京都,板橋区,向原３丁目７番５－８０１号,,13,119,1730036,,,,,,,2025-01-30,1,,,,,キアオナ,0
5229,4011801045534,新規,0,2025-01-30,2025-01-30,株式会社古賀内装,,株式会社,東京都,足立区,南花畑２丁目１３番８号,,13,121,1210062,,,,,,,2025-01-30,1,,,,,コガナイソウ,0
5238,4011803006658,新規,0,2025-01-30,2025-01-30,旭日貿易合同会社,,合同会社,東京都,葛飾区,細田１丁目２３番１２号,,13,122,1240021,,,,,,,2025-01-30,1,,,,,アサヒボウエキ,0
5239,4012801023728,新規,0,2025-01-30,2025-01-30,株式会社クリーフ,,株式会社,東京都,立川市,一番町６丁目１７番地の１エステート立川一番町２６棟２０４号,,13,202,1900033,,,,,,,2025-01-30,1,,,,,クリーフ,0
5243,4013301053694,新規,0,2025-01-30,2025-01-30,大和国際株式会社,,株式会社,東京都,豊島区,西巣鴨２丁目６－１２－５０９号室,,13,116,1700001,,,,,,,2025-01-30,1,,,,,ヤマトコクサイ,0
5245,4013303007517,新規,0,2025-01-30,2025-01-30,宏運合同会社,,合同会社,東京都,豊島区,北大塚３丁目３２－２０サンテミリオン大塚弐番館４０２号,,13,116,1700004,,,,,,,2025-01-30,1,,,,,コウウン,0
5246,4013305003687,新規,0,2025-01-30,2025-01-30,一般社団法人芝山,,その他の設立登記法人,東京都,豊島区,西池袋１丁目２３番４号,,13,116,1710021,,,,,,,2025-01-30,1,,,,,シサン,0
5609,4020001161042,新規,0,2025-01-30,2025-01-30,株式会社友信工務店,,株式会社,神奈川県,横浜市港南区,東永谷１丁目１－５林ビル２階,,14,111,2330011,,,,,,,2025-01-30,1,,,,,ユウシンコウムテン,0
5610,4020001161174,新規,0,2025-01-30,2025-01-30,株式会社祥光,,株式会社,神奈川県,横浜市港南区,大久保１丁目１５番１６号,,14,111,2330007,,,,,,,2025-01-30,1,,,,,ヨシミツ,0
5625,4020003027638,新規,0,2025-01-30,2025-01-30,合同会社ＳＡＢＡ,,合同会社,神奈川県,横浜市中区,元町４丁目１６８Ｂｉｚｃｏｍｆｏｒｔ元町ビル,,14,104,2310861,,,,,,,2025-01-30,1,,,,,サバ,0
5626,4020003027761,新規,0,2025-01-30,2025-01-30,合同会社ＭＯＯＯＮ,,合同会社,神奈川県,横浜市西区,南軽井沢５８－５ラミアール南軽井沢４０１,,14,103,2200002,,,,,,,2025-01-30,1,,,,,モーン,0
6028,4030001164572,新規,0,2025-01-30,2025-01-30,株式会社ＦＬＹＩＮＧ　ＪＡＰＡＮ,,株式会社,埼玉県,川口市,仲町１５番２１号,,11,203,3320022,,,,,,,2025-01-30,1,,,,,フライングジャパン,0
6029,4030001164614,新規,0,2025-01-30,2025-01-30,株式会社河合塗装,,株式会社,埼玉県,草加市,谷塚町１１８４番地１０－２０２号,,11,221,3400023,,,,,,,2025-01-30,1,,,,,カワイトソウ,0
6030,4030001164622,新規,0,2025-01-30,2025-01-30,株式会社ＺＥＲＯ,,株式会社,埼玉県,さいたま市桜区,栄和１丁目５番１８号,,11,106,3380823,,,,,,,2025-01-30,1,,,,,ゼロ,0
6031,4030001164639,新規,0,2025-01-30,2025-01-30,ＶＩＮＣＵＴＡＳＳ株式会社,,株式会社,埼玉県,朝霞市,西弁財１丁目１０番１６号ナウヴィレッジ朝霞台地下Ｂ,,11,227,3510021,,,,,,,2025-01-30,1,,,,,ヴィンクタス,0
6032,4030001164647,新規,0,2025-01-30,2025-01-30,ＳＯＡＬＡＢＯ株式会社,,株式会社,埼玉県,さいたま市北区,吉野町１丁目４０１番地２アルテールウエルズ１０８,,11,102,3310811,,,,,,,2025-01-30,1,,,,,ソーアラボ,0
6033,4030001164655,新規,0,2025-01-30,2025-01-30,株式会社えんむすび,,株式会社,埼玉県,さいたま市岩槻区,本町２丁目９－８,,11,110,3390057,,,,,,,2025-01-30,1,,,,,エンムスビ,0
6034,4030001164663,新規,0,2025-01-30,2025-01-30,ｓｅｌｆ　ｇｏｌｄ株式会社,,株式会社,埼玉県,川口市,三ツ和２丁目１３番地の１８フローレス壱番館２０６号,,11,203,3340011,,,,,,,2025-01-30,1,,,,,セルフゴールド,0
6035,4030001164671,新規,0,2025-01-30,2025-01-30,株式会社コネクト,,株式会社,埼玉県,川越市,大字古谷上６２番地１,,11,201,3500001,,,,,,,2025-01-30,1,,,,,コネクト,0
6079,4030003025962,新規,0,2025-01-30,2025-01-30,テラ農園合同会社,,合同会社,埼玉県,川越市,寿町１丁目２７０番地９,,11,201,3501116,,,,,,,2025-01-30,1,,,,,テラノウエン,0
6080,4030003025979,新規,0,2025-01-30,2025-01-30,合同会社ｗａｚｗａｓ,,合同会社,埼玉県,川口市,芝新町４－８ＵＲＢＡＮＦＯＲＵＭ蕨５Ｆ,,11,203,3330851,,,,,,,2025-01-30,1,,,,,ワズワズ,0
6081,4030003025995,新規,0,2025-01-30,2025-01-30,合同会社星川制作所,,合同会社,埼玉県,川口市,差間３丁目２４番３６号,,11,203,3330816,,,,,,,2025-01-30,1,,,,,ホシカワセイサクショ,0
6088,4040001136934,新規,0,2025-01-30,2025-01-30,株式会社ＭＮＭＩ,,株式会社,千葉県,市川市,幸２丁目１番２号,,12,203,2720123,,,,,,,2025-01-30,1,,,,,エムエヌエムアイ,0
6089,4040001137214,新規,0,2025-01-30,2025-01-30,株式会社ゆうせいホールディングス,,株式会社,千葉県,浦安市,北栄３丁目１７番９号,,12,227,2790002,,,,,,,2025-01-30,1,,,,,ユウセイホールディングス,0
6090,4040001137230,新規,0,2025-01-30,2025-01-30,株式会社スリーナインカンパニー,,株式会社,千葉県,松戸市,松飛台５３４番地４,,12,207,2702214,,,,,,,2025-01-30,1,,,,,スリーナインカンパニー,0
6095,4040003026720,新規,0,2025-01-30,2025-01-30,合同会社はじめの一歩,,合同会社,千葉県,松戸市,新松戸５丁目１７８番地サンライトパストラル参番街Ａ－１０４,,12,207,2700034,,,,,,,2025-01-30,1,,,,,ハジメノイッポ,0
6102,4070002037798,新規,0,2025-01-30,2025-01-30,有限会社丸丸亭,,有限会社,群馬県,利根郡みなかみ町,小日向６７０番地の３,,10,449,3791612,,,,,,,2025-01-30,1,,,,,マルマルテイ,0
6106,4100001038257,新規,0,2025-01-30,2025-01-30,株式会社リプラス,,株式会社,長野県,松本市,北深志２丁目３番３２号,,20,202,3900872,,,,,,,2025-01-30,1,,,,,リプラス,0
6111,4110003005650,新規,0,2025-01-30,2025-01-30,合同会社ユーワ,,合同会社,新潟県,佐渡市,窪田１７５,,15,224,9521325,,,,,,,2025-01-30,1,,,,,ユーワ,0
6117,4120001272300,新規,0,2025-01-30,2025-01-30,株式会社Ｓｔｅｐ　ｕｐ,,株式会社,大阪府,大阪市平野区,長吉六反３丁目３番５号,,27,126,5470012,,,,,,,2025-01-30,1,,,,,ステップアップ,0
6118,4120001272382,新規,0,2025-01-30,2025-01-30,鴻真株式会社,,株式会社,大阪府,大阪市生野区,新今里６丁目３番１０号４０６号,,27,116,5440001,,,,,,,2025-01-30,1,,,,,コウシン,0
6122,4120003028493,新規,0,2025-01-30,2025-01-30,瑞惠合同会社,,合同会社,大阪府,大阪市西成区,玉出東１丁目７番２３号２０４号室,,27,122,5570043,,,,,,,2025-01-30,1,,,,,ズイエ,0
6123,4120003028502,新規,0,2025-01-30,2025-01-30,大崎商貿合同会社,,合同会社,大阪府,大阪市住之江区,安立１丁目２番１３号田中ビル４０３－Ａ号室,,27,125,5590003,,,,,,,2025-01-30,1,,,,,オオサキショウボウ,0
6295,4120901050359,新規,0,2025-01-30,2025-01-30,株式会社谷口ペイント,,株式会社,大阪府,豊中市,上新田４丁目８番Ｃ－９０９号,,27,203,5600085,,,,,,,2025-01-30,1,,,,,タニグチペイント,0
6298,4122001038854,新規,0,2025-01-30,2025-01-30,株式会社ＡＳＣＲＥＳＴ,,株式会社,大阪府,東大阪市,東鴻池町１丁目２番３７号,,27,227,5780973,,,,,,,2025-01-30,1,,,,,アスクレスト,0
6301,4130001078903,新規,0,2025-01-30,2025-01-30,ＦｉＮＡＬＥ株式会社,,株式会社,京都府,京都市下京区,東塩小路町６００番地５２,,26,106,6008216,,,,,,,2025-01-30,1,,,,,フィナーレ,0
6302,4130003010178,新規,0,2025-01-30,2025-01-30,合同会社ＦＲＯＮＴＩＥＲ　ＬＩＮＥ,,合同会社,京都府,京都市下京区,七条通油小路東入大黒町２２７番地第２キョートビル４０２,,26,106,6008223,,,,,,,2025-01-30,1,,,,,フロンティアライン,0
6308,4140001137187,新規,0,2025-01-30,2025-01-30,株式会社ａｎｄ　Ｊ,,株式会社,兵庫県,芦屋市,東芦屋町１６番４１－３０１号,,28,206,6590095,,,,,,,2025-01-30,1,,,,,アンドジェイ,0
6309,4140001137220,新規,0,2025-01-30,2025-01-30,西米株式会社,,株式会社,兵庫県,尼崎市,名神町２丁目９番３６号３０５号室,,28,202,6610021,,,,,,,2025-01-30,1,,,,,シミ,0
6310,4140001137261,新規,0,2025-01-30,2025-01-30,株式会社樹直,,株式会社,兵庫県,神戸市中央区,北長狭通１丁目２０番１２号,,28,110,6500012,,,,,,,2025-01-30,1,,,,,ミキナオ,0
6312,4140003021579,新規,0,2025-01-30,2025-01-30,合同会社吉田興業,,合同会社,兵庫県,姫路市,飾磨区英賀保駅前町９番地,,28,201,6728091,,,,,,,2025-01-30,1,,,,,ヨシダコウギョウ,0
6313,4140003021595,新規,0,2025-01-30,2025-01-30,合同会社ＳＵＲＥ　ＣＨＯＲＤＳ,,合同会社,兵庫県,西宮市,甲子園浜田町１１番地１号,,28,204,6638167,,,,,,,2025-01-30,1,,,,,シュアコーズ,0
6314,4140003021604,新規,0,2025-01-30,2025-01-30,ｍｕｇｅｎＫＹＭ合同会社,,合同会社,兵庫県,宝塚市,中筋山手４丁目１４番２号,,28,214,6650875,,,,,,,2025-01-30,1,,,,,,0
6317,4170003002163,新規,0,2025-01-30,2025-01-30,合同会社初芽,,合同会社,和歌山県,和歌山市,井辺４２５－１２,,30,201,6408302,,,,,,,2025-01-30,1,,,,,ハジメ,0
6322,4180001165201,新規,0,2025-01-30,2025-01-30,株式会社Ｅｓｓｅｎｃｅ,,株式会社,愛知県,名古屋市西区,枇杷島２丁目１９番３７号Ｃ．ｐｅａｃｅ１９４８・３０５号室,,23,104,4510053,,,,,,,2025-01-30,1,,,,,エッセンス,0
6323,4180001165234,新規,0,2025-01-30,2025-01-30,晋影成璧山西料理株式会社,,株式会社,愛知県,名古屋市昭和区,川名町４丁目２４・１０２号室,,23,107,4660856,,,,,,,2025-01-30,1,,,,,シンエイセイヘキサンセイリョウリ,0
6326,4180003027886,新規,0,2025-01-30,2025-01-30,合同会社Ｆｏｎｏｔｅｃｈ,,合同会社,愛知県,名古屋市西区,花の木３丁目１１－６ソレイユ１０２,,23,104,4510062,,,,,,,2025-01-30,1,,,,,フォノテック,0
6327,4180003027936,新規,0,2025-01-30,2025-01-30,合同会社希風蝶,,合同会社,愛知県,春日井市,牛山町１９８８番地５０,,23,206,4860901,,,,,,,2025-01-30,1,,,,,マレカ,0
6338,4190003004926,新規,0,2025-01-30,2025-01-30,Ｈ　Ｍ　Ｍ　ＭＯＴＯＲＳ合同会社,,合同会社,三重県,四日市市,波木町字城六野１９８２番６‐１,,24,202,5100961,,,,,,,2025-01-30,1,,,,,エイチエムエムモータース,0
6342,4220001026464,新規,0,2025-01-30,2025-01-30,エトセトラワークス株式会社,,株式会社,石川県,金沢市,笠舞３丁目８番１４号（０２０６号室）,,17,201,9200965,,,,,,,2025-01-30,1,,,,,エトセトラワークス,0
6346,4240001064462,新規,0,2025-01-30,2025-01-30,株式会社アコモス,,株式会社,広島県,広島市西区,己斐本町２丁目１８－２４ブラッサム己斐本町４０１,,34,104,7330812,,,,,,,2025-01-30,1,,,,,アコモス,0
6349,4260003005041,新規,0,2025-01-30,2025-01-30,合同会社イオン生研,,合同会社,岡山県,岡山市南区,米倉１５１－７,,33,104,7000954,,,,,,,2025-01-30,1,,,,,イオンセイケン,0
6355,4290001108727,新規,0,2025-01-30,2025-01-30,マイティーストライク株式会社,,株式会社,福岡県,福岡市中央区,薬院３丁目７番３０－５０２号,,40,133,8100022,,,,,,,2025-01-30,1,,,,,マイティーストライク,0
6356,4290001108818,新規,0,2025-01-30,2025-01-30,株式会社Ｂｓ,,株式会社,福岡県,福岡市中央区,薬院４丁目１３番６１－２０７号グランドメゾン浄水ＧＣＩＩＩ,00137826,40,133,8100022,,,,,,,2025-01-30,1,,,,,ビーズ,0
6357,4290001108834,新規,0,2025-01-30,2025-01-30,Ｂｏｕｔｉｑｕｅ　Ｒｅｓｉｄｅｎｃｅ　＆　Ｃｏ．株式会社,,株式会社,福岡県,福岡市中央区,黒門７―２０,,40,133,8100055,,,,,,,2025-01-30,1,,,,,ブティックレジデンスアンドコー,0
6364,4340001027095,新規,0,2025-01-30,2025-01-30,悠陽紀株式会社,,株式会社,鹿児島県,鹿児島市,田上町４７１８番地４５,,46,201,8900035,,,,,,,2025-01-30,1,,,,,ユウハルキ,0
6365,4350003004835,新規,0,2025-01-30,2025-01-30,合同会社ＯＴＯファーム,,合同会社,宮崎県,宮崎市,高岡町浦之名４９０３番地９０,,45,201,8802323,,,,,,,2025-01-30,1,,,,,オトファーム,0
6366,4350005006284,新規,0,2025-01-30,2025-01-30,医療法人沖田眼科,,その他の設立登記法人,宮崎県,宮崎市,大島町原ノ前１４４５番地２２,,45,201,8800824,,,,,,,2025-01-30,1,,,,,オキタガンカ,0
6369,4360003014651,新規,0,2025-01-30,2025-01-30,ＲｅｎＶａｒｉｅｔｙ合同会社,,合同会社,沖縄県,中頭郡読谷村,字喜名３０７番地９吉田平家５号室,,47,324,9040302,,,,,,,2025-01-30,1,,,,,レンバラエティ,0
6427,4430001055368,新規,0,2025-01-30,2025-01-30,丸惣食品株式会社,,株式会社,北海道,日高郡新ひだか町,静内山手町４丁目４番１７号,,01,610,0560024,,,,,,,2025-01-30,1,,,,,マルソウショクヒン,0
6428,4430001093574,新規,0,2025-01-30,2025-01-30,株式会社グラティアス,,株式会社,北海道,苫小牧市,拓勇西町１丁目１番２５号,,01,213,0591302,,,,,,,2025-01-30,1,,,,,グラティアス,0
6436,4460105002305,新規,0,2025-01-30,2025-01-30,一般社団法人ａｎｄほんべつ,,その他の設立登記法人,北海道,中川郡本別町,北３丁目３番地３,,01,646,0893334,,,,,,,2025-01-30,1,,,,,アンドホンベツ,0
6440,4700150129011,新規,0,2025-01-30,2025-01-30,Ｃｈｅｎｚｈｏｕ　Ｓｈｉ　Ｈａｎｙａ　Ｍａｏｙｉ　Ｙｏｕｘｉａｎｇｏｎｇｓｉ,,外国会社等,,,,,,,,ｇｕｉｄｏｎｇｘｉａｎ　ｓｈａｔｉａｎｚｈｅｎ　ｗａｎｓｈｏｕｇｏｎｇ　ｊｕｗｅｉｈｕｉ　ｚｈｕｓｈａｎｘｉａｚｕ　１６０１ｈａｏ　４２３５００ＣＮ,,,,,,2025-01-30,1,,,,,チェンゾウシハンヤマオイヨウシエンゴンスー,0
6446,5010001251891,新規,0,2025-01-30,2025-01-30,ラピッドシリコンデザイン株式会社,,株式会社,東京都,千代田区,内神田３丁目１６番５号旭町米山ビル６階,,13,101,1010047,,,,,,,2025-01-30,1,,,,,ラピッドシリコンデザイン,0
6455,5010101016501,新規,0,2025-01-30,2025-01-30,株式会社スクープ,,株式会社,東京都,八王子市,横山町４番５－６１１号,,13,201,1920081,,,,,,,2025-01-30,1,,,,,スクープ,0
6462,5010401187876,新規,0,2025-01-30,2025-01-30,ＴＯＭＩ株式会社,,株式会社,東京都,港区,芝浦４丁目１５番１号,,13,103,1080023,,,,,,,2025-01-30,1,,,,,トミ,0
6463,5010401187934,新規,0,2025-01-30,2025-01-30,株式会社ＮＴＬ４１,,株式会社,東京都,港区,港南１丁目２番７０号,,13,103,1080075,,,,,,,2025-01-30,1,,,,,エヌティエルヨンジュウイチ,0
6465,5010403034250,新規,0,2025-01-30,2025-01-30,合同会社Ｗｏｒｔｈ,,合同会社,東京都,港区,虎ノ門１丁目１番１８号ヒューリック虎ノ門ビル９階Ｌ＆Ｐ司法書士法人内,,13,103,1050001,,,,,,,2025-01-30,1,,,,,ワース,0
6466,5010405024035,新規,0,2025-01-30,2025-01-30,一般社団法人Ｂａｒｉｊａｔ,,その他の設立登記法人,東京都,港区,虎ノ門１丁目１番１８号ヒューリック虎ノ門ビル９階Ｌ＆Ｐ司法書士法人内,,13,103,1050001,,,,,,,2025-01-30,1,,,,,バリジャット,0
6468,5010603011347,新規,0,2025-01-30,2025-01-30,ＧｌａｄＦｉｓｈ合同会社,,合同会社,東京都,墨田区,江東橋４丁目２４番７号,,13,107,1300022,,,,,,,2025-01-30,1,,,,,グラッドフィッシュ,0
6698,5011103015441,新規,0,2025-01-30,2025-01-30,衆望工程東京合同会社,,合同会社,東京都,新宿区,榎町３４番地３榎町ビル７階２７室,,13,104,1620806,,,,,,,2025-01-30,1,,,,,シュウボウコウテイトウキョウ,0
6703,5011403004607,新規,0,2025-01-30,2025-01-30,櫻井テクノロジー合同会社,,合同会社,東京都,板橋区,中板橋３番５号,,13,119,1730016,,,,,,,2025-01-30,1,,,,,サクライテクノロジー,0
6706,5011601028390,新規,0,2025-01-30,2025-01-30,株式会社ＫＵ,,株式会社,東京都,練馬区,東大泉１丁目１２－７－４１３,,13,120,1780063,,,,,,,2025-01-30,1,,,,,ケーユー,0
6818,5011803006665,新規,0,2025-01-30,2025-01-30,合同会社リニス,,合同会社,東京都,足立区,六木１丁目１７番２５－８０５号,,13,121,1210052,,,,,,,2025-01-30,1,,,,,リニス,0
7167,5020001161033,新規,0,2025-01-30,2025-01-30,株式会社阿蘓設備,,株式会社,神奈川県,横浜市泉区,岡津町２０６５番地３,,14,116,2450003,,,,,,,2025-01-30,1,,,,,アソセツビ,0
7168,5020001161181,新規,0,2025-01-30,2025-01-30,株式会社ＫＩＫＵＣＨＩエステート,,株式会社,神奈川県,横浜市南区,山王町１丁目８番地１,,14,105,2320013,,,,,,,2025-01-30,1,,,,,キクチエステート,0
7198,5020003027760,新規,0,2025-01-30,2025-01-30,ＦＥＡＲＬＥＳＳ合同会社,,合同会社,神奈川県,横浜市中区,初音町３丁目５８―１マリオン横浜２伊勢佐木北８０４,,14,104,2310053,,,,,,,2025-01-30,1,,,,,フィアレス,0
7568,5030001164638,新規,0,2025-01-30,2025-01-30,Ｒｓ‐ｈｏｍｅ株式会社,,株式会社,埼玉県,さいたま市見沼区,大字小深作２６５番地１２５,,11,104,3370005,,,,,,,2025-01-30,1,,,,,アールエスホーム,0
7569,5030001164646,新規,0,2025-01-30,2025-01-30,ＣＩＲＣＬＥ　ＢＯＮＤ株式会社,,株式会社,埼玉県,東松山市,松本町１丁目６番３号,,11,212,3550014,,,,,,,2025-01-30,1,,,,,サークルボンド,0
7597,5030003025978,新規,0,2025-01-30,2025-01-30,合同会社和多屋,,合同会社,埼玉県,朝霞市,膝折町４丁目２０－２５－５０８,,11,227,3510014,,,,,,,2025-01-30,1,,,,,ワタヤ,0
7598,5030003025986,新規,0,2025-01-30,2025-01-30,２０１７合同会社,,合同会社,埼玉県,さいたま市緑区,太田窪３丁目１５番４号,,11,109,3360936,,,,,,,2025-01-30,1,,,,,ニゼロイチナナ,0
7599,5030003025994,新規,0,2025-01-30,2025-01-30,Ｌａ　Ｃｒｅｐｅｒｉｅ　ｄｕ　Ｓｏｌｅｉｌ　Ｌｅｖａｎｔ合同会社,,合同会社,埼玉県,さいたま市緑区,美園３丁目２４番地１ウィズプラス浦和美園ウエストＢ棟３０４号室,,11,109,3360967,,,,,,,2025-01-30,1,,,,,ラクレープリーデュソレイユルヴァン,0
7600,5030003026010,新規,0,2025-01-30,2025-01-30,こども企画合同会社,,合同会社,埼玉県,川口市,飯塚１丁目２番１６号,,11,203,3320023,,,,,,,2025-01-30,1,,,,,コドモキカク,0
7607,5030005022024,新規,0,2025-01-30,2025-01-30,ＮＰＯ法人ニモカカ,,その他の設立登記法人,埼玉県,飯能市,八幡町８―２０,,11,209,3570033,,,,,,,2025-01-30,1,,,,,ニモカカ,0
7608,5040001137171,新規,0,2025-01-30,2025-01-30,株式会社ミスズ,,株式会社,千葉県,市川市,南行徳４丁目１番１号,,12,203,2720138,,,,,,,2025-01-30,1,,,,,ミスズ,0
7624,5070001042591,新規,0,2025-01-30,2025-01-30,サイノ株式会社,,株式会社,群馬県,前橋市,城東町２丁目９－１城東町貸店舗１階,,10,201,3710016,,,,,,,2025-01-30,1,,,,,サイノ,0
7632,5100001038256,新規,0,2025-01-30,2025-01-30,株式会社Ｆｅｍｌｉｎｋ,,株式会社,長野県,飯田市,上郷別府３３２４番地２３,,20,205,3950003,,,,,,,2025-01-30,1,,,,,フェムリンク,0
7634,5100003007969,新規,0,2025-01-30,2025-01-30,合同会社ＢｅｅＬＡＢ．,,合同会社,長野県,上田市,上田１８７１－８Ｍｉｌａ１０１,,20,203,3860001,,,,,,,2025-01-30,1,,,,,ビーラボ,0
7635,5110005017180,新規,0,2025-01-30,2025-01-30,ＩＴＳ事業協同組合,,その他の設立登記法人,新潟県,新潟市中央区,文京町１１番８号,,15,103,9518153,,,,,,,2025-01-30,1,,,,,アイティーエス,0
7642,5120001272324,新規,0,2025-01-30,2025-01-30,株式会社ｆａｆａ,,株式会社,大阪府,枚方市,牧野坂２－３－１１,,27,210,5730000,,,,,,,2025-01-30,1,,,,,ファファ,0
7643,5120001272332,新規,0,2025-01-30,2025-01-30,株式会社関西アセットマネジメント,,株式会社,大阪府,大阪市中央区,北浜３丁目２番２５号京阪淀屋橋ビル８階,,27,128,5410041,,,,,,,2025-01-30,1,,,,,カンサイアセットマネジメント,0
7644,5120001272365,新規,0,2025-01-30,2025-01-30,株式会社Ｍｅｔａ　Ｅａｒｔｈ　Ｈｅｒｏｅｓ,,株式会社,大阪府,大阪市北区,堂山町１番５号三共梅田ビル８Ｆ,,27,127,5300027,,,,,,,2025-01-30,1,,,,,メタアースヒーローズ,0
7645,5120001272431,新規,0,2025-01-30,2025-01-30,ネオインスパイア株式会社,,株式会社,大阪府,大阪市平野区,長吉六反３丁目１７番２５号１Ｆ－Ｂ,,27,126,5470012,,,,,,,2025-01-30,1,,,,,ネオインスパイア,0
7646,5120001272448,新規,0,2025-01-30,2025-01-30,紅鯊魚科技株式会社,,株式会社,大阪府,大阪市大正区,千島１丁目１０番１０号エスポワール４３,,27,108,5510003,,,,,,,2025-01-30,1,,,,,コウサギョカギ,0
7648,5120003028492,新規,0,2025-01-30,2025-01-30,名芸造型合同会社,,合同会社,大阪府,大阪市西成区,萩之茶屋１丁目１２番７号万葉ビル３５号室,,27,122,5570004,,,,,,,2025-01-30,1,,,,,メイゲイゾウケイ,0
7826,5120101070974,新規,0,2025-01-30,2025-01-30,株式会社Ｎａｎａ,,株式会社,大阪府,河内長野市,木戸西町２丁目１番１４号１Ｆ,,27,216,5860009,,,,,,,2025-01-30,1,,,,,ナナ,0
7834,5120105009960,新規,0,2025-01-30,2025-01-30,医療法人隆暢会,,その他の設立登記法人,大阪府,岸和田市,春木旭町９番１５号,,27,202,5960005,,,,,,,2025-01-30,1,,,,,リュウチョウカイ,0
7835,5120901050358,新規,0,2025-01-30,2025-01-30,株式会社ＫＵＲＯＫＡＷＡ,,株式会社,大阪府,高槻市,辻子１丁目６番８号,00137827,27,207,5690036,,,,,,,2025-01-30,1,,,,,クロカワ,0
7836,5120901050366,新規,0,2025-01-30,2025-01-30,株式会社ワイアンドケイラボ,,株式会社,大阪府,豊中市,春日町５丁目６番１５号,,27,203,5600052,,,,,,,2025-01-30,1,,,,,ワイアンドケイラボ,0
7837,5122001038845,新規,0,2025-01-30,2025-01-30,株式会社ミウラデンキ,,株式会社,大阪府,八尾市,沼４丁目６番地,,27,212,5810036,,,,,,,2025-01-30,1,,,,,ミウラデンキ,0
7840,5130001078902,新規,0,2025-01-30,2025-01-30,株式会社ＫＯＡＫＩ,,株式会社,京都府,京都市左京区,松ケ崎修理式町１番地３フォルム松ケ崎ノーザンレジデンス４０４,,26,103,6060964,,,,,,,2025-01-30,1,,,,,コアキ,0
7846,5140001137252,新規,0,2025-01-30,2025-01-30,株式会社コンベスト,,株式会社,兵庫県,神戸市中央区,下山手通２丁目１３－３,,28,110,6500011,,,,,,,2025-01-30,1,,,,,コンベスト,0
7848,5140003021594,新規,0,2025-01-30,2025-01-30,合同会社ＣＲＣ,,合同会社,兵庫県,尼崎市,開明町２丁目６サニーテラス開明１０２,,28,202,6600862,,,,,,,2025-01-30,1,,,,,シーアールシー,0
7849,5140003021603,新規,0,2025-01-30,2025-01-30,Ｓｕｎｓｈｉｎｅ合同会社,,合同会社,兵庫県,伊丹市,南野北１丁目３－２－１階Ｄ号室,,28,207,6640887,,,,,,,2025-01-30,1,,,,,サンシャイン,0
7850,5140005027367,新規,0,2025-01-30,2025-01-30,一般社団法人西日本ＧＸ推進連盟,,その他の設立登記法人,兵庫県,神戸市長田区,久保町５丁目１－１アスタくにづか３番館１３１号,,28,106,6530041,,,,,,,2025-01-30,1,,,,,ニシニホンジーエックススイシンレンメイ,0
7859,5180001165200,新規,0,2025-01-30,2025-01-30,川端工業株式会社,,株式会社,愛知県,名古屋市中川区,昭明町２丁目５番地の２,,23,110,4540855,,,,,,,2025-01-30,1,,,,,カワバタコウギョウ,0
7860,5180001165241,新規,0,2025-01-30,2025-01-30,株式会社ｍｏｃｈｉ,,株式会社,愛知県,名古屋市東区,泉１丁目１７番１０号（第一オレンジ久屋８Ｂ号）,,23,102,4610001,,,,,,,2025-01-30,1,,,,,モチ,0
7879,5240001064461,新規,0,2025-01-30,2025-01-30,株式会社ｂｕｄ,,株式会社,広島県,広島市中区,竹屋町１番２６号２Ｆ,,34,101,7300048,,,,,,,2025-01-30,1,,,,,バド,0
7887,5250001020983,新規,0,2025-01-30,2025-01-30,株式会社ｍｕｔｅｋｉ,,株式会社,山口県,防府市,天神１丁目１番７－７０３号,,35,206,7470034,,,,,,,2025-01-30,1,,,,,ムテキ,0
7889,5280005007644,新規,0,2025-01-30,2025-01-30,農事組合法人月和田,,その他の設立登記法人,島根県,鹿足郡吉賀町,七日市９０４番地１,,32,505,6995522,,,,,,,2025-01-30,1,,,,,ツキワダ,0
7899,5290803004957,新規,0,2025-01-30,2025-01-30,ＮＴ合同会社,,合同会社,福岡県,北九州市小倉北区,下富野５丁目５番１７号（１０１）,,40,106,8020023,,,,,,,2025-01-30,1,,,,,エヌティー,0
7900,5290805009806,新規,0,2025-01-30,2025-01-30,医療法人かたおかクリニック,,その他の設立登記法人,福岡県,行橋市,大字今井２２８４番地１,,40,213,8240018,,,,,,,2025-01-30,1,,,,,カタオカクリニック,0
7904,5330001032847,新規,0,2025-01-30,2025-01-30,株式会社Ｍｉｒａ,,株式会社,熊本県,熊本市東区,長嶺西２丁目１２番２５号,,43,102,8618037,,,,,,,2025-01-30,1,,,,,ミラ,0
7907,5330003010710,新規,0,2025-01-30,2025-01-30,合同会社Ｌｉｍ,,合同会社,熊本県,熊本市中央区,本荘４丁目８－２ＳＫビル２階,,43,101,8600811,,,,,,,2025-01-30,1,,,,,リム,0
7908,5330003010768,新規,0,2025-01-30,2025-01-30,合同会社ＫＳＭ,,合同会社,熊本県,熊本市中央区,上水前寺１丁目５番２１－１３０２号,,43,101,8620951,,,,,,,2025-01-30,1,,,,,ケイエスエム,0
7922,5380005012915,新規,0,2025-01-30,2025-01-30,一般社団法人未来ガーデン,,その他の設立登記法人,福島県,相馬市,黒木字迎畑２２２番地の３４,,07,209,9760052,,,,,,,2025-01-30,1,,,,,ミライガーデン,0
8014,5430001093573,新規,0,2025-01-30,2025-01-30,株式会社クリニクル,,株式会社,北海道,札幌市清田区,里塚緑ケ丘３丁目２１番１５号,,01,110,0040805,,,,,,,2025-01-30,1,,,,,クリニクル,0
8017,5470001020549,新規,0,2025-01-30,2025-01-30,株式会社ｓａｙｕｒｙ　ｗｅｄｄｉｎｇ,,株式会社,香川県,高松市,西の丸町１２番３号,,37,201,7600021,,,,,,,2025-01-30,1,,,,,サユリウエディング,0
8018,5470001020557,新規,0,2025-01-30,2025-01-30,ＳＫ株式会社,,株式会社,香川県,高松市,藤塚町３丁目３－６ルミナス藤塚７０１,,37,201,7600071,,,,,,,2025-01-30,1,,,,,エスケー,0
8024,5700150129010,新規,0,2025-01-30,2025-01-30,ｑｕａｎｚｈｏｕ　ｃｈｅｎｗｅｉ　ｍａｏｙｉ　ｙｏｕｘｉａｎｇｏｎｇｓｉ,,外国会社等,,,,,,,,Ｆｌｏｏｒ　２，Ｂｏｙａ　Ｂｕｉｌｄｉｎｇ，Ｎａｎｐｕ　Ｉｎｄｕｓｔｒｉａｌ　Ａｒｅａ，Ｆｅｎｇｚｅ　Ｄｉｓｔｒｉｃｔ，Ｈｕａｄａ　Ｓｔｒｅｅｔ，Ｑｕａｎｚｈｏｕ，Ｆｕｊｉａｎ　３６２０００　ＣＮ,,,,,,2025-01-30,1,,,,,ツェンゾウチェンウェイマオイヨウシエンゴンスー,0
8029,6010001251503,新規,0,2025-01-30,2025-01-30,株式会社Ｇｌｉｔｃｈ　Ｍｕｎｄｏ,,株式会社,東京都,千代田区,神田須田町１丁目７番８号ｖｏｒｔ秋葉原ｉｖ２ｆ,,13,101,1010041,,,,,,,2025-01-30,1,,,,,グリッチムンド,0
8034,6010005039481,新規,0,2025-01-30,2025-01-30,一般社団法人新島エリアマネジメント,,その他の設立登記法人,東京都,新島村,本村１丁目４番５号,,13,363,1000402,,,,,,,2025-01-30,1,,,,,ニイジマエリアマネジメント,0
8042,6010403034258,新規,0,2025-01-30,2025-01-30,ベジラボ合同会社,,合同会社,東京都,港区,南麻布１丁目１６－３－６０１,,13,103,1060047,,,,,,,2025-01-30,1,,,,,ベジラボ,0
8043,6010503007717,新規,0,2025-01-30,2025-01-30,葛生合同会社,,合同会社,東京都,台東区,柳橋１丁目２３番４号浅草橋杉浦ビル４階,,13,106,1110052,,,,,,,2025-01-30,1,,,,,クズウ,0
8045,6010601066656,新規,0,2025-01-30,2025-01-30,株式会社Ｓｔｅａｄｙ,,株式会社,東京都,江東区,東砂６丁目１８－１４－６１３,,13,108,1360074,,,,,,,2025-01-30,1,,,,,ステディ,0
8115,6010701047184,新規,0,2025-01-30,2025-01-30,株式会社メイプルリーフ,,株式会社,東京都,品川区,東大井５丁目２番１３号大井ビル５階,,13,109,1400011,,,,,,,2025-01-30,1,,,,,メイプルリーフ,0
8237,6010903009676,新規,0,2025-01-30,2025-01-30,合同会社スコップ,,合同会社,東京都,世田谷区,世田谷３丁目１１－８－１２０７,,13,112,1540017,,,,,,,2025-01-30,1,,,,,スコップ,0
8245,6011001167482,新規,0,2025-01-30,2025-01-30,株式会社アスィーナグローバル,,株式会社,東京都,渋谷区,渋谷２丁目１５番１号渋谷クロスタワー,,13,113,1500002,,,,,,,2025-01-30,1,,,,,アスィーナグローバル,0
8251,6011303005398,新規,0,2025-01-30,2025-01-30,合同会社ＤＥＡＮ,,合同会社,東京都,杉並区,阿佐谷南１丁目３０番７号,,13,115,1660004,,,,,,,2025-01-30,1,,,,,ディーン,0
8363,6011801045516,新規,0,2025-01-30,2025-01-30,天宇貿易株式会社,,株式会社,東京都,足立区,足立４丁目３３番１号ＺＫＹビル３０３号室,,13,121,1200015,,,,,,,2025-01-30,1,,,,,テンウボウエキ,0
8364,6011801045524,新規,0,2025-01-30,2025-01-30,株式会社アンタレス,,株式会社,東京都,足立区,梅田８丁目１０番１号２階,,13,121,1230851,,,,,,,2025-01-30,1,,,,,アンタレス,0
8365,6011801045532,新規,0,2025-01-30,2025-01-30,江北ゴム販売株式会社,,株式会社,東京都,足立区,堀之内１丁目１３番３４号,,13,121,1230874,,,,,,,2025-01-30,1,,,,,コウホクゴムハンバイ,0
8375,6013301053701,新規,0,2025-01-30,2025-01-30,株式会社Ｓｍａｌｌ　Ｐｏｎｄ,,株式会社,東京都,豊島区,東池袋１丁目３１番６号三昌ビル７０２,,13,116,1700013,,,,,,,2025-01-30,1,,,,,スモールポンド,0
8376,6013303007515,新規,0,2025-01-30,2025-01-30,ＢＡＲＤＡＮ合同会社,,合同会社,東京都,豊島区,西池袋３丁目１６番５号ニューベルハイツ１０２号,,13,116,1710021,,,,,,,2025-01-30,1,,,,,バルダン,0
8701,6020001161239,新規,0,2025-01-30,2025-01-30,株式会社ＲｅＳＨＡＲＫ,,株式会社,神奈川県,川崎市幸区,中幸町３丁目３１番２号,,14,132,2120012,,,,,,,2025-01-30,1,,,,,リシャーク,0
8736,6021001084363,新規,0,2025-01-30,2025-01-30,富澤ホールディングス株式会社,,株式会社,神奈川県,海老名市,中央２丁目５番２８号,,14,215,2430432,,,,,,,2025-01-30,1,,,,,トミサワホールディングス,0
8737,6021003015531,新規,0,2025-01-30,2025-01-30,ＨＡＪＡ　ＴＲＡＤＩＮＧ合同会社,,合同会社,神奈川県,厚木市,上荻野６８０番地３,,14,212,2430201,,,,,,,2025-01-30,1,,,,,ハージャトレーディング,0
9108,6030001164637,新規,0,2025-01-30,2025-01-30,ＳＨＯＫＩＲＡＫＡ　ＴＥＣＨＮＯ　ＰＲＯ株式会社,,株式会社,埼玉県,草加市,西町５６２番地３ベルソ―ナ１０７号室,,11,221,3400035,,,,,,,2025-01-30,1,,,,,ショキラカテクノプロ,0
9148,6040001137220,新規,0,2025-01-30,2025-01-30,みらい建設株式会社,,株式会社,千葉県,野田市,上花輪１３５－１,,12,208,2780033,,,,,,,2025-01-30,1,,,,,ミライケンセツ,0
9153,6060005010297,新規,0,2025-01-30,2025-01-30,特定非営利活動法人オレンジはーと,,その他の設立登記法人,栃木県,芳賀郡茂木町,大字茂木１３２０番地１,,09,343,3213531,,,,,,,2025-01-30,1,,,,,オレンジハート,0
9163,6100001038255,新規,0,2025-01-30,2025-01-30,株式会社モンストローサ,,株式会社,長野県,上高井郡小布施町,大字小布施１５２２,,20,541,3810201,,,,,,,2025-01-30,1,,,,,モンストローサ,0
9173,6120001272199,新規,0,2025-01-30,2025-01-30,沐文株式会社,,株式会社,大阪府,大阪市西成区,岸里３丁目８番４号Ｓ－ＯＮＥマンション１０２号,,27,122,5570041,,,,,,,2025-01-30,1,,,,,モクブン,0
9174,6120001272380,新規,0,2025-01-30,2025-01-30,株式会社アクト,,株式会社,大阪府,大阪市北区,梅田１丁目２番２号大阪駅前第２ビル１２－１２,,27,127,5300001,,,,,,,2025-01-30,1,,,,,アクト,0
9175,6120001272463,新規,0,2025-01-30,2025-01-30,寧擇貿易株式会社,,株式会社,大阪府,大阪市城東区,鴫野西１丁目８番３１－２０１号,,27,118,5360014,,,,,,,2025-01-30,1,,,,,ネイタクボウエキ,0
9180,6120003028491,新規,0,2025-01-30,2025-01-30,益成合同会社,,合同会社,大阪府,大阪市生野区,新今里５丁目７番６－３０４号,,27,116,5440001,,,,,,,2025-01-30,1,,,,,エキセイ,0
9371,6120101070965,新規,0,2025-01-30,2025-01-30,株式会社Ｓａｎｔｅ‐Ｂｅａｕｔｅ,,株式会社,大阪府,高石市,羽衣５丁目１３番１４号,,27,225,5920002,,,,,,,2025-01-30,1,,,,,サンテボーテ,0
9372,6120101070973,新規,0,2025-01-30,2025-01-30,株式会社ＳＨＩＮＥ　ＩＲＩＳ,,株式会社,大阪府,岸和田市,箕土路町１丁目１２番２１号,,27,202,5960801,,,,,,,2025-01-30,1,,,,,シャインイーリス,0
9380,6120103006257,新規,0,2025-01-30,2025-01-30,萬興商事合同会社,,合同会社,大阪府,岸和田市,作才町２３番地１・２－Ｃ,,27,202,5960826,,,,,,,2025-01-30,1,,,,,マンコウショウジ,0
9384,6120903005524,新規,0,2025-01-30,2025-01-30,合同会社ｂｅｌｌｅ　ｃｏｌｏｒｉｓ,,合同会社,大阪府,豊中市,東泉丘４丁目１番５－６０１号,,27,203,5610861,,,,,,,2025-01-30,1,,,,,ベルクロリ,0
9386,6120905006685,新規,0,2025-01-30,2025-01-30,一般社団法人ケーション,,その他の設立登記法人,大阪府,高槻市,栄町１丁目３番１－５０１号,,27,207,5690825,,,,,,,2025-01-30,1,,,,,ケーション,0
9388,6122001038852,新規,0,2025-01-30,2025-01-30,株式会社モノピック,,株式会社,大阪府,東大阪市,高井田中４丁目５番２９号,,27,227,5770065,,,,,,,2025-01-30,1,,,,,モノピック,0
9390,6130001078892,新規,0,2025-01-30,2025-01-30,ＡＬＬＡ株式会社,,株式会社,京都府,京都市下京区,高辻大宮町１０９コージーハイツ大宮８０３,,26,106,6008387,,,,,,,2025-01-30,1,,,,,アラ,0
9391,6130001078901,新規,0,2025-01-30,2025-01-30,株式会社ＡＹＡＹＡ,,株式会社,京都府,京都市南区,東九条明田町６番地,,26,107,6018044,,,,,,,2025-01-30,1,,,,,アヤヤ,0
9393,6130003010176,新規,0,2025-01-30,2025-01-30,合同会社ＳＴ　ＪＵＤＥ　ＣＯＭＰＡＮＹ,,合同会社,京都府,京田辺市,天王奥別所６９番地１,,26,211,6100326,,,,,,,2025-01-30,1,,,,,セントジュードカンパニー,0
9403,6140003021585,新規,0,2025-01-30,2025-01-30,Ｒａｉｓｉｎｇ　Ｓｈａｌｉｊａ合同会社,,合同会社,兵庫県,神戸市東灘区,住吉宮町６丁目１７番７－０１６号,,28,101,6580053,,,,,,,2025-01-30,1,,,,,ライジングシャリジャ,0
9405,6150001027848,新規,0,2025-01-30,2025-01-30,株式会社侑輝会,,株式会社,奈良県,五條市,居傳町４５１番地の１,,29,207,6370013,,,,,,,2025-01-30,1,,,,,ユウキカイ,0
9416,6180001165249,新規,0,2025-01-30,2025-01-30,株式会社ラーカイラム,,株式会社,愛知県,名古屋市東区,代官町３５番１６号,,23,102,4610002,,,,,,,2025-01-30,1,,,,,ラーカイラム,0
9417,6180001165257,新規,0,2025-01-30,2025-01-30,株式会社ＮＡＭＩＥ,,株式会社,愛知県,名古屋市中区,丸の内３丁目８番１４号,,23,106,4600002,,,,,,,2025-01-30,1,,,,,ナミエ,0
9422,6180003027918,新規,0,2025-01-30,2025-01-30,ランディクラウド合同会社,,合同会社,愛知県,名古屋市緑区,桶狭間上の山３２３８番地,,23,114,4580926,,,,,,,2025-01-30,1,,,,,ランディクラウド,0
9423,6180005020929,新規,0,2025-01-30,2025-01-30,一般社団法人つどう,,その他の設立登記法人,愛知県,稲沢市,日下部中町７丁目４６番地１,,23,220,4928182,,,,,,,2025-01-30,1,,,,,ツドウ,0
9429,6200005013715,新規,0,2025-01-30,2025-01-30,一般社団法人ＫＩＤＳ　ＤＥＶＥＬＯＰＭＥＮＴ　ＣＥＮＴＥＲ,,その他の設立登記法人,岐阜県,美濃加茂市,加茂川町３丁目１１番３号滝川ビル１―Ａ,,21,211,5050044,,,,,,,2025-01-30,1,,,,,ギッズデベロプメントセンター,0
9438,6260001039857,新規,0,2025-01-30,2025-01-30,株式会社ＢＥＡＵＴＹ　ＢＡＳＥ,,株式会社,岡山県,総社市,三輪１４０番地３,,33,208,7191132,,,,,,,2025-01-30,1,,,,,ビューティーベース,0
9440,6280001009338,新規,0,2025-01-30,2025-01-30,株式会社八弘園芸,,株式会社,島根県,出雲市,姫原町２３４番地,,32,203,6930061,,,,,,,2025-01-30,1,,,,,ハッコウエンゲイ,0
9445,6290801031234,新規,0,2025-01-30,2025-01-30,株式会社ファイン不動産,,株式会社,福岡県,北九州市八幡西区,本城３丁目４番１号,,40,109,8070801,,,,,,,2025-01-30,1,,,,,ファインフドウサン,0
9452,6330001032838,新規,0,2025-01-30,2025-01-30,株式会社ＭＡＥＤＡ,,株式会社,熊本県,熊本市南区,野田３丁目１３番１号,,43,104,8614114,,,,,,,2025-01-30,1,,,,,マエダ,0
9470,6370003006910,新規,0,2025-01-30,2025-01-30,合同会社かんてつ,,合同会社,宮城県,名取市,美田園４丁目８番地の４,,04,207,9811217,,,,,,,2025-01-30,1,,,,,カンテツ,0
9535,6430001093572,新規,0,2025-01-30,2025-01-30,株式会社ｗａｎ’ｓ,,株式会社,北海道,札幌市東区,北六条東５丁目１番地５グラン札幌３０１号,,01,103,0600906,,,,,,,2025-01-30,1,,,,,ワンズ,0
9556,7010001251683,新規,0,2025-01-30,2025-01-30,ＣＷＡ　Ｐｒｏｐｅｒｔｙ　Ｊａｐａｎ株式会社,,株式会社,東京都,千代田区,九段北４丁目１番９号市ヶ谷ＭＳビル６階,,13,101,1020073,,,,,,,2025-01-30,1,,,,,シーダブリューエープロパティージャパン,0
9557,7010001251840,新規,0,2025-01-30,2025-01-30,株式会社ＣＯＴＯＺＵＫＥ,,株式会社,東京都,中央区,月島３丁目８－８,,13,102,1040052,,,,,,,2025-01-30,1,,,,,コトヅケ,0
9558,7010001251849,新規,0,2025-01-30,2025-01-30,株式会社Ｂ‐Ｂｒｉｄｇｅ,,株式会社,東京都,中央区,銀座６丁目６番１号銀座風月堂ビル５Ｆ,,13,102,1040061,,,,,,,2025-01-30,1,,,,,ビーブリッジ,0
9562,7010003046173,新規,0,2025-01-30,2025-01-30,オクトプラス合同会社,,合同会社,東京都,中央区,銀座１丁目２２番１１号銀座大竹ビジデンス２Ｆ,,13,102,1040061,,,,,,,2025-01-30,1,,,,,オクトプラス,0
9563,7010005039448,新規,0,2025-01-30,2025-01-30,一般社団法人シード・カルチャー,,その他の設立登記法人,東京都,文京区,湯島３丁目１９番１１号湯島ファーストビル４階,,13,105,1130034,,,,,,,2025-01-30,1,,,,,シードカルチャー,0
9564,7010005039464,新規,0,2025-01-30,2025-01-30,一般社団法人ジユウ研究所,,その他の設立登記法人,東京都,千代田区,麹町２丁目１０番地３（エキスパートオフィス麹町）,,13,101,1020083,,,,,,,2025-01-30,1,,,,,ジユウケンキュウジョ,0
9569,7010401187809,新規,0,2025-01-30,2025-01-30,ＦｗＣ株式会社,,株式会社,東京都,港区,芝浦４丁目２０番２－３８１２号,,13,103,1080023,,,,,,,2025-01-30,1,,,,,エフダブリューシー,0
9570,7010401187858,新規,0,2025-01-30,2025-01-30,株式会社ＭＦＰ,,株式会社,東京都,港区,六本木７丁目１０番３１号Ｍ’ｓＢＵＩＬＤ３階－Ｂ,,13,103,1060032,,,,,,,2025-01-30,1,,,,,エムエフピー,0
9572,7010403034257,新規,0,2025-01-30,2025-01-30,合同会社Ｔｒｅｅ　Ｂｉｒｄ　Ｊａｐａｎ,,合同会社,東京都,港区,南青山１丁目１番１号新青山ビル東館１階,,13,103,1070062,,,,,,,2025-01-30,1,,,,,ツリーバードジャパン,0
9577,7010503007716,新規,0,2025-01-30,2025-01-30,ソルジャーワークス合同会社,,合同会社,東京都,台東区,元浅草３丁目６番２―７０３号,,13,106,1110041,,,,,,,2025-01-30,1,,,,,ソルジャーワークス,0
9581,7010601066647,新規,0,2025-01-30,2025-01-30,株式会社嘉徳アセットメント,,株式会社,東京都,江東区,森下４丁目１５番１０号,,13,108,1350004,,,,,,,2025-01-30,1,,,,,カトクアセットメント,0
9689,7010703007549,新規,0,2025-01-30,2025-01-30,ＳｃｒａｔｃｈＳｉｄｅ合同会社,,合同会社,東京都,品川区,東大井５丁目１２番１－１２０１号,,13,109,1400011,,,,,,,2025-01-30,1,,,,,スクラッチサイド,0
9822,7011001167481,新規,0,2025-01-30,2025-01-30,ブロッククラフト株式会社,,株式会社,東京都,目黒区,下目黒１丁目１番１４号コノトラビル７Ｆ,,13,110,1530064,,,,,,,2025-01-30,1,,,,,ブロッククラフト,0
9830,7011101110424,新規,0,2025-01-30,2025-01-30,タラ・リミテッド株式会社,,株式会社,東京都,新宿区,新宿１丁目２４番７－１３１３号,,13,104,1600022,,,,,,,2025-01-30,1,,,,,タラリミテッド,0
9831,7011105011313,新規,0,2025-01-30,2025-01-30,一般社団法人ＡＩＣＸ協会,,その他の設立登記法人,東京都,新宿区,西新宿３丁目３番１３号西新宿水間ビル６階,,13,104,1600023,,,,,,,2025-01-30,1,,,,,エーアイシーエックスキョウカイ,0
9934,7011801045531,新規,0,2025-01-30,2025-01-30,株式会社ＳＦＴ　ＡＷＥＳＯＭＥ,,株式会社,東京都,葛飾区,立石１丁目１４番９号,,13,122,1240012,,,,,,,2025-01-30,1,,,,,エスエフティオーサム,0
9961,7013301053700,新規,0,2025-01-30,2025-01-30,株式会社Ｔｓｕｍｕｃａ,,株式会社,東京都,豊島区,千川１丁目１７－１１,,13,116,1710041,,,,,,,2025-01-30,1,,,,,ツムカ,0
9962,7013301053709,新規,0,2025-01-30,2025-01-30,株式会社ＰＥＮＮＡ,,株式会社,東京都,豊島区,南池袋１丁目１６番１５号ダイヤゲート池袋５Ｆ,,13,116,1710022,,,,,,,2025-01-30,1,,,,,ペンナ,0
9963,7013301053725,新規,0,2025-01-30,2025-01-30,ワーズアンドレターズ株式会社,,株式会社,東京都,豊島区,雑司が谷１丁目３０番５号,,13,116,1710032,,,,,,,2025-01-30,1,,,,,ワーズアンドレターズ,0
9965,7013303007514,新規,0,2025-01-30,2025-01-30,合同会社レガーロ,,合同会社,東京都,豊島区,南長崎１丁目２番１４号石原マンション５０３号,,13,116,1710052,,,,,,,2025-01-30,1,,,,,レガーロ,0
10309,7020001161048,新規,0,2025-01-30,2025-01-30,株式会社ＨＩＲＡＮＯ,,株式会社,神奈川県,川崎市幸区,南加瀬２丁目３６番２２号,,14,132,2120055,,,,,,,2025-01-30,1,,,,,ヒラノ,0
10737,7030001164479,新規,0,2025-01-30,2025-01-30,株式会社パトラパートナーズ,,株式会社,埼玉県,さいたま市浦和区,東仲町９番１６号９０１,,11,107,3300056,,,,,,,2025-01-30,1,,,,,パトラパートナーズ,0
10738,7030001164611,新規,0,2025-01-30,2025-01-30,株式会社Ａｇｅｎｔｅｓ,,株式会社,埼玉県,さいたま市中央区,上落合４丁目４－１,,11,105,3380001,,,,,,,2025-01-30,1,,,,,アジェンテス,0
10739,7030001164628,新規,0,2025-01-30,2025-01-30,東京医薬研究院株式会社,,株式会社,埼玉県,さいたま市中央区,下落合６丁目２－５ＷＡＤＡ１１－２０２号,,11,105,3380002,,,,,,,2025-01-30,1,,,,,トウキョウイヤクケンキュウイン,0
10740,7030001164652,新規,0,2025-01-30,2025-01-30,浦和プレミアムマネジメント株式会社,,株式会社,埼玉県,さいたま市南区,別所１丁目１０番６号,,11,108,3360021,,,,,,,2025-01-30,1,,,,,ウラワプレミアムマネジメント,0
10772,7030005022022,新規,0,2025-01-30,2025-01-30,一般社団法人社会システム科学研究所,,その他の設立登記法人,埼玉県,所沢市,東所沢２丁目５６番地５ー３,,11,208,3590021,,,,,,,2025-01-30,1,,,,,シャカイシステムカガクケンキュウショ,0
10781,7040003026742,新規,0,2025-01-30,2025-01-30,合同会社グリーンポイント３,,合同会社,千葉県,市原市,山之郷飛地７７６番地４３,,12,219,2900000,,,,,,,2025-01-30,1,,,,,グリーンポイントスリー,0
10782,7040003026750,新規,0,2025-01-30,2025-01-30,アンビシャン食品合同会社,,合同会社,千葉県,佐倉市,羽鳥７５０－２,,12,212,2850833,,,,,,,2025-01-30,1,,,,,アンビシャンショクヒン,0
10784,7050001056055,新規,0,2025-01-30,2025-01-30,株式会社シャイニング,,株式会社,茨城県,取手市,宮和田１１１９番地聖レジデンス,,08,217,3001514,,,,,,,2025-01-30,1,,,,,シャイニング,0
10785,7050001056088,新規,0,2025-01-30,2025-01-30,株式会社エリシット,,株式会社,茨城県,水戸市,宮町１丁目２番４号３階,,08,201,3100015,,,,,,,2025-01-30,1,,,,,エリシット,0
10786,7050001056096,新規,0,2025-01-30,2025-01-30,ゲートウェイマネジメント株式会社,,株式会社,茨城県,取手市,青柳１丁目１番５０号,,08,217,3020006,,,,,,,2025-01-30,1,,,,,ゲートウェイマネジメント,0
10787,7050001056105,新規,0,2025-01-30,2025-01-30,株式会社いろり,,株式会社,茨城県,鹿嶋市,宮中１丁目１１番地５,,08,222,3140031,,,,,,,2025-01-30,1,,,,,イロリ,0
10804,7100005013286,新規,0,2025-01-30,2025-01-30,一般社団法人Ｅｄｕ‐ｃｏｎｎｅｃｔ円陣,,その他の設立登記法人,長野県,松本市,旭３丁目１番１号,,20,202,3900802,,,,,,,2025-01-30,1,,,,,エデュコネクトエンジン,0
10807,7110003005648,新規,0,2025-01-30,2025-01-30,合同会社Ｋｉｔ‐ＭＡＸ,,合同会社,新潟県,新潟市秋葉区,善道町１丁目６番３０号ルピナス１０２号,,15,105,9560865,,,,,,,2025-01-30,1,,,,,キットマックス,0
10808,7110005017179,新規,0,2025-01-30,2025-01-30,クラフター協同組合,,その他の設立登記法人,新潟県,南魚沼郡湯沢町,大字土樽１７８番地１スカイリゾート湯沢１３０７,00137834,15,461,9496103,,,,,,,2025-01-30,1,,,,,クラフター,0
10817,7120001271737,新規,0,2025-01-30,2025-01-30,株式会社エドマンジャッジ,,株式会社,大阪府,大阪市鶴見区,今津北３丁目９番地の２７アンプルールフェール今津１０５号,,27,124,5380041,,,,,,,2025-01-30,1,,,,,エドマンジャッジ,0
10818,7120001272198,新規,0,2025-01-30,2025-01-30,禾汐株式会社,,株式会社,大阪府,大阪市東住吉区,湯里４丁目７－１９－２０１,,27,121,5460013,,,,,,,2025-01-30,1,,,,,カシオ,0
10819,7120001272297,新規,0,2025-01-30,2025-01-30,株式会社ＹＪ,,株式会社,大阪府,大阪市中央区,南船場２丁目８番１１号,,27,128,5420081,,,,,,,2025-01-30,1,,,,,ワイジェー,0
10820,7120001272405,新規,0,2025-01-30,2025-01-30,株式会社Ｐａｗｓ＆Ｐｒｅｐ,,株式会社,大阪府,大阪市北区,梅田１丁目２番２号大阪駅前第２ビル１２－１２,,27,127,5300001,,,,,,,2025-01-30,1,,,,,ポーズアンドプレップ,0
10821,7120001272462,新規,0,2025-01-30,2025-01-30,株式会社シースリー,,株式会社,大阪府,大阪市都島区,東野田町３丁目１３番１３号,,27,102,5340024,,,,,,,2025-01-30,1,,,,,シースリー,0
10824,7120003028441,新規,0,2025-01-30,2025-01-30,合同会社ＴＥＮＫＡ,,合同会社,大阪府,大阪市淀川区,東三国２丁目１１－３０－４０４,,27,123,5320002,,,,,,,2025-01-30,1,,,,,テンカ,0
10825,7120003028508,新規,0,2025-01-30,2025-01-30,合同会社永盛,,合同会社,大阪府,大阪市生野区,勝山北５丁目２番１０号,,27,116,5440033,,,,,,,2025-01-30,1,,,,,ナガモリ,0
10827,7120005024769,新規,0,2025-01-30,2025-01-30,一般社団法人関西開発者会議,,その他の設立登記法人,大阪府,大阪市北区,梅田１丁目２番２号大阪駅前第２ビル１２－１２,,27,127,5300001,,,,,,,2025-01-30,1,,,,,カンセイカイハツシャカイギ,0
11009,7120101070956,新規,0,2025-01-30,2025-01-30,ココロネクト株式会社,,株式会社,大阪府,富田林市,本町１３番１２－２号,,27,214,5840093,,,,,,,2025-01-30,1,,,,,ココロネクト,0
11010,7120101070964,新規,0,2025-01-30,2025-01-30,株式会社ＡＫＹ．ｈｄ,,株式会社,大阪府,阪南市,桃の木台３丁目６番地の１８,,27,232,5990236,,,,,,,2025-01-30,1,,,,,エーケーワイドットホールディングス,0
11011,7120101070972,新規,0,2025-01-30,2025-01-30,株式会社Ｂｅｌｌｅ　ｖｉｅ．,,株式会社,大阪府,羽曳野市,栄町８番１０‐９０１号,,27,222,5830853,,,,,,,2025-01-30,1,,,,,ベルヴィー,0
11015,7120103006256,新規,0,2025-01-30,2025-01-30,ＳＡＫＡ合同会社,,合同会社,大阪府,藤井寺市,道明寺２丁目９番２号,,27,226,5830012,,,,,,,2025-01-30,1,,,,,サカ,0
11017,7120901050356,新規,0,2025-01-30,2025-01-30,株式会社ＫＫ,,株式会社,大阪府,池田市,豊島南２丁目２３６番地の５,,27,204,5630035,,,,,,,2025-01-30,1,,,,,ケーケー,0
11019,7120905006684,新規,0,2025-01-30,2025-01-30,一般社団法人全日本技能士アカデミー,,その他の設立登記法人,大阪府,吹田市,豊津町９番１号,,27,205,5640051,,,,,,,2025-01-30,1,,,,,ゼンニッポンギノウシアカデミー,0
11023,7130001078891,新規,0,2025-01-30,2025-01-30,株式会社ＯＳＡグループ,,株式会社,京都府,乙訓郡大山崎町,字円明寺小字夏目１９番地９,,26,303,6180091,,,,,,,2025-01-30,1,,,,,オーエスエーグループ,0
11029,7140001137259,新規,0,2025-01-30,2025-01-30,株式会社ＬｉｏＸ,,株式会社,兵庫県,神戸市西区,井吹台西町８丁目２番地の２（７１４号）,,28,111,6512243,,,,,,,2025-01-30,1,,,,,リオック,0
11034,7140003021601,新規,0,2025-01-30,2025-01-30,日本火莱宝合同会社,,合同会社,兵庫県,神戸市中央区,元町通２丁目９番１号Ｒｅ：ＺＯＮＥ神戸元町０１,,28,110,6500022,,,,,,,2025-01-30,1,,,,,ニホンカライホウ,0
11035,7140005027365,新規,0,2025-01-30,2025-01-30,特定非営利活動法人環太平洋乳幼児教育学会日本支部,,その他の設立登記法人,兵庫県,神戸市灘区,鶴甲３丁目１１番神戸大学大学院人間発達環境学研究科,,28,102,6570011,,,,,,,2025-01-30,1,,,,,カンタイヘイヨウニュウヨウジキョウイクガッカイニホンシブ,0
11037,7150001027847,新規,0,2025-01-30,2025-01-30,株式会社大樹会,,株式会社,奈良県,天理市,川原城町３６１天理市商工会別館,,29,204,6320016,,,,,,,2025-01-30,1,,,,,タイジュカイ,0
11038,7160003003390,新規,0,2025-01-30,2025-01-30,合同会社Ｓ‐ｍｅｄｉａ,,合同会社,滋賀県,近江八幡市,中村町７番地１８,,25,204,5230894,,,,,,,2025-01-30,1,,,,,エスメディア,0
11040,7180001165157,新規,0,2025-01-30,2025-01-30,ＴＤＲ株式会社,,株式会社,愛知県,名古屋市千種区,内山２丁目１３番９号,,23,101,4640075,,,,,,,2025-01-30,1,,,,,ティーディーアール,0
11046,7180301039465,新規,0,2025-01-30,2025-01-30,株式会社鷹杉工業,,株式会社,愛知県,西尾市,上永良町井ノ下３４番地１,,23,213,4450017,,,,,,,2025-01-30,1,,,,,タカスギコウギョウ,0
11051,7200001043392,新規,0,2025-01-30,2025-01-30,株式会社Ｒｉｃｃｏ,,株式会社,岐阜県,岐阜市,河渡４丁目８７番地３,,21,201,5010105,,,,,,,2025-01-30,1,,,,,リッコ,0
11054,7230005009437,新規,0,2025-01-30,2025-01-30,特定非営利活動法人こども発達支援ラボ,,その他の設立登記法人,富山県,高岡市,城東２丁目２番１１号,,16,202,9330041,,,,,,,2025-01-30,1,,,,,コドモハッタツシエンラボ,0
11069,7300003002221,新規,0,2025-01-30,2025-01-30,にじいろキッズ合同会社,,合同会社,佐賀県,神埼郡吉野ヶ里町,三津１７３６番地,,41,327,8420104,,,,,,,2025-01-30,1,,,,,ニジイロキッズ,0
11070,7330001032845,新規,0,2025-01-30,2025-01-30,株式会社Ｒ・Ａ・Ｓ,,株式会社,熊本県,上益城郡益城町,大字福原４９９番地２６,,43,443,8612211,,,,,,,2025-01-30,1,,,,,アールエーエス,0
11071,7340001027076,新規,0,2025-01-30,2025-01-30,イズミラヴ株式会社,,株式会社,鹿児島県,出水市,福ノ江町７１４番地,,46,208,8990133,,,,,,,2025-01-30,1,,,,,イズミラヴ,0
11077,7360001034731,新規,0,2025-01-30,2025-01-30,株式会社Ｌｉｎｏ,,株式会社,沖縄県,宮古島市,下地字上地１２１番,,47,214,9060304,,,,,,,2025-01-30,1,,,,,リノ,0
11081,7370001052195,新規,0,2025-01-30,2025-01-30,株式会社三信,,株式会社,宮城県,亘理郡亘理町,逢隈高屋字中野上１０８番地,00137833,04,361,9892324,,,,,,,2025-01-30,1,,,,,サンシン,0
11084,7380001035067,新規,0,2025-01-30,2025-01-30,株式会社ＴＯＧ,,株式会社,福島県,二本松市,油井字谷地２１番地,,07,210,9691404,,,,,,,2025-01-30,1,,,,,ティーオージー,0
11087,7380003005943,新規,0,2025-01-30,2025-01-30,合同会社グランサクセス,,合同会社,福島県,喜多方市,塩川町窪字舘ノ内１３９５番地１,,07,208,9693506,,,,,,,2025-01-30,1,,,,,グランサクセス,0
11149,7700150129009,新規,0,2025-01-30,2025-01-30,Ｕｎｉｖｅｒｓａｌ　Ａｕｄｉｏ，Ｉｎｃ．,,外国会社等,,,,,,,,４５８５　Ｓｃｏｔｔｓ　Ｖａｌｌｅｙ　Ｄｒ，Ｓｃｏｔｔｓ　Ｖａｌｌｅｙ，ＣＡ　９５０６６－４５１７，ＵＳＡ,,,,,,2025-01-30,1,,,,,ユニバーサルオーディオ,0
11156,8010001251848,新規,0,2025-01-30,2025-01-30,株式会社ＭｉＲ,,株式会社,東京都,中央区,銀座７丁目１３番６号サガミビル２階,,13,102,1040061,,,,,,,2025-01-30,1,,,,,ミアー,0
11157,8010001251872,新規,0,2025-01-30,2025-01-30,ＳＰＣ株式会社,,株式会社,東京都,千代田区,丸の内１丁目５番１号新丸の内ビルディング１３階１３１８区,,13,101,1000005,,,,,,,2025-01-30,1,,,,,エスピーシー,0
11158,8010001251889,新規,0,2025-01-30,2025-01-30,株式会社Ｆｏｒｚａ,,株式会社,東京都,中央区,日本橋小網町８番２号ＢＩＺＭＡＲＫＳ日本橋茅場町１階,,13,102,1030016,,,,,,,2025-01-30,1,,,,,フォルツァ,0
11164,8010003046214,新規,0,2025-01-30,2025-01-30,Ｗｅｂ３ＤＡＯ合同会社,,合同会社,東京都,中央区,日本橋２丁目１０番地５号Ｇｒａｎｂｉｚ東京日本橋６Ｆ,,13,102,1030027,,,,,,,2025-01-30,1,,,,,ウェブスリーダオ,0
11173,8010401187774,新規,0,2025-01-30,2025-01-30,Ｖｉｎｃｅｎｔ　Ｗｏｒｋｓ株式会社,,株式会社,東京都,港区,芝大門１丁目１０－１１芝大門センタービル１０Ｆ,,13,103,1050012,,,,,,,2025-01-30,1,,,,,ヴィンセントワークス,0
11174,8010401187997,新規,0,2025-01-30,2025-01-30,ＺｏｄｉａＸ株式会社,,株式会社,東京都,港区,南青山２丁目２番１５号,,13,103,1070062,,,,,,,2025-01-30,1,,,,,ゾディアクス,0
11176,8010403034306,新規,0,2025-01-30,2025-01-30,ＥＳＲ　ＬＰ合同会社,,合同会社,東京都,港区,浜松町１丁目２０番１０号ライオネス浜松町５０６号室,,13,103,1050013,,,,,,,2025-01-30,1,,,,,イーエスアールエルピー,0
11177,8010403034314,新規,0,2025-01-30,2025-01-30,合同会社ＡＳ・ＡＳ,,合同会社,東京都,港区,高輪４丁目８番２９－３０２号,,13,103,1080074,,,,,,,2025-01-30,1,,,,,アズアズ,0
11179,8010405024057,新規,0,2025-01-30,2025-01-30,ＥＳＲ　ＬＰ一般社団法人,,その他の設立登記法人,東京都,港区,浜松町１丁目２０番１０号ライオネス浜松町５０６号室,,13,103,1050013,,,,,,,2025-01-30,1,,,,,イーエスアールエルピー,0
11180,8010501053538,新規,0,2025-01-30,2025-01-30,株式会社ＳＴＹ,,株式会社,東京都,台東区,浅草橋１丁目３５番１号,,13,106,1110053,,,,,,,2025-01-30,1,,,,,エスティーワイ,0
11181,8010501053554,新規,0,2025-01-30,2025-01-30,株式会社Ｔｒｅｎｄ　Ｔｅｒｒａｃｅ,,株式会社,東京都,台東区,台東３丁目１５番４－１００３号日神デュオステージ御徒町,,13,106,1100016,,,,,,,2025-01-30,1,,,,,トレンドテラス,0
11185,8010603011360,新規,0,2025-01-30,2025-01-30,合同会社ＥＬＥＶ８,,合同会社,東京都,江東区,有明３丁目７―２６有明フロンティアビルＢ棟９階,,13,108,1350063,,,,,,,2025-01-30,1,,,,,エレベート,0
11264,8010703007548,新規,0,2025-01-30,2025-01-30,Ｕｎｂｏｕｎｄ合同会社,,合同会社,東京都,品川区,東五反田１丁目７番８－７０３号,,13,109,1410022,,,,,,,2025-01-30,1,,,,,アンバウンド,0
11266,8010705003727,新規,0,2025-01-30,2025-01-30,一般社団法人日本健康食品工業会,,その他の設立登記法人,東京都,品川区,大井１丁目４７番１号,,13,109,1400014,,,,,,,2025-01-30,1,,,,,ニホンケンコウショクヒンコウギョウカイ,0
11268,8010801035806,新規,0,2025-01-30,2025-01-30,株式会社ＧＡＬＯＡＳ,,株式会社,東京都,大田区,久が原２丁目１２番１２－３１６号,,13,111,1460085,,,,,,,2025-01-30,1,,,,,ガロアス,0
11401,8011001167497,新規,0,2025-01-30,2025-01-30,株式会社エモシス,,株式会社,東京都,渋谷区,神南１丁目１１―４ＦＰＧリンクス神南５階,,13,113,1500041,,,,,,,2025-01-30,1,,,,,エモシス,0
11403,8011003020877,新規,0,2025-01-30,2025-01-30,ＣＥＥ合同会社,,合同会社,東京都,目黒区,碑文谷４丁目２２番３号ハイヴァリー碑文谷３０４,,13,110,1520003,,,,,,,2025-01-30,1,,,,,シー,0
11406,8011101110448,新規,0,2025-01-30,2025-01-30,Ｐｅｒｆｏｒｍ株式会社,,株式会社,東京都,新宿区,西新宿７丁目１番１２号クロスオフィス新宿８０７,,13,104,1600023,,,,,,,2025-01-30,1,,,,,パフォーム,0
11408,8011103015471,新規,0,2025-01-30,2025-01-30,合同会社エスユディエー,,合同会社,東京都,新宿区,高田馬場２丁目１９－８ｍａｉｓｏｎＳＴ３０３,,13,104,1690075,,,,,,,2025-01-30,1,,,,,エスユディエー,0
11410,8011105011312,新規,0,2025-01-30,2025-01-30,一般社団法人Ｎｅｉｇｈｂｏｕｒｈｏｏｄ　Ｅｍｐｏｗｅｒｍｅｎｔ　Ｘ‐ｆｏｒｍａｔｉｏｎ　Ｔｅａｍ,,その他の設立登記法人,東京都,新宿区,弁天町２番地１６サウスライトＶ４階,,13,104,1620851,,,,,,,2025-01-30,1,,,,,ネイバーフッドエンパワーメントトランスフォーメーションチーム,0
11413,8011303005405,新規,0,2025-01-30,2025-01-30,合同会社隼,,合同会社,東京都,杉並区,西荻北３丁目４番１号日向マンション２０２,,13,115,1670042,,,,,,,2025-01-30,1,,,,,ハヤブサ,0
11519,8011801045539,新規,0,2025-01-30,2025-01-30,松本株式会社,,株式会社,東京都,足立区,梅島３丁目３０－１－１０１,,13,121,1210816,,,,,,,2025-01-30,1,,,,,マツモト,0
11528,8012403006945,新規,0,2025-01-30,2025-01-30,合同会社アンドカンパニー,,合同会社,東京都,調布市,布田１丁目２１番地２号エクセレント調布２０２号室,,13,208,1820024,,,,,,,2025-01-30,1,,,,,アンドカンパニー,0
11529,8012703003188,新規,0,2025-01-30,2025-01-30,合同会社Ｋｎｅｅ　Ｃｏｍｆｏｒｔ,,合同会社,東京都,東村山市,萩山町３丁目２８番地１－８１６,,13,213,1890012,,,,,,,2025-01-30,1,,,,,ニーコンフォート,0
11532,8013301053699,新規,0,2025-01-30,2025-01-30,道日株式会社,,株式会社,東京都,豊島区,池袋２丁目６０番７号,,13,116,1710014,,,,,,,2025-01-30,1,,,,,ドウニチ,0
11533,8013301053708,新規,0,2025-01-30,2025-01-30,株式会社ベストライフ,,株式会社,東京都,豊島区,北大塚２丁目１７－４－５０２号,,13,116,1700004,,,,,,,2025-01-30,1,,,,,ベストライフ,0
11534,8013301053724,新規,0,2025-01-30,2025-01-30,瑜＿株式会社,00137830,株式会社,東京都,豊島区,池袋２丁目５６－１ＴＯＰ池袋Ｎｏ．１の７０１,,13,116,1710014,,,,,,,2025-01-30,1,,,,,ユジン,0
11870,8020001161113,新規,0,2025-01-30,2025-01-30,株式会社Ｊａｗｓ　Ｔｒａｄｅ,,株式会社,神奈川県,川崎市川崎区,中島１丁目５番３号コーポ大常５０２,,14,131,2100806,,,,,,,2025-01-30,1,,,,,ジョーズトレード,0
11892,8020005016692,新規,0,2025-01-30,2025-01-30,医療法人社団青心会,,その他の設立登記法人,神奈川県,川崎市麻生区,万福寺１丁目８番１３号リヴェール新百合丘１階,,14,137,2150004,,,,,,,2025-01-30,1,,,,,セイシンカイ,0
11893,8021001084345,新規,0,2025-01-30,2025-01-30,株式会社Ｉｎｓｐｉｒｅ,,株式会社,神奈川県,三浦市,南下浦町松輪１５２４番地１,,14,210,2380104,,,,,,,2025-01-30,1,,,,,インスパイア,0
12271,8030001164635,新規,0,2025-01-30,2025-01-30,盛輝株式会社,,株式会社,埼玉県,川口市,西川口１丁目３０番２０号６０５号室,,11,203,3320021,,,,,,,2025-01-30,1,,,,,セイキ,0
12272,8030001164676,新規,0,2025-01-30,2025-01-30,株式会社大田不動産,,株式会社,埼玉県,さいたま市浦和区,岸町１丁目１２番１８－３号,,11,107,3300064,,,,,,,2025-01-30,1,,,,,オオタフドウサン,0
12273,8030001164684,新規,0,2025-01-30,2025-01-30,株式会社ｔｏｃａｇｅ,,株式会社,埼玉県,朝霞市,溝沼３丁目６番２２号,,11,227,3510023,,,,,,,2025-01-30,1,,,,,トカゲ,0
12307,8030003025959,新規,0,2025-01-30,2025-01-30,合同会社マネマネ,,合同会社,埼玉県,さいたま市北区,宮原町３丁目９０１番地１Ａ－２２３,,11,102,3310812,,,,,,,2025-01-30,1,,,,,マネマネ,0
12311,8030005022021,新規,0,2025-01-30,2025-01-30,一般社団法人三志会,,その他の設立登記法人,埼玉県,さいたま市大宮区,高鼻町１丁目３１番１号ＴＯＰＳ大宮２階,,11,103,3300803,,,,,,,2025-01-30,1,,,,,サンシカイ,0
12319,8040001137219,新規,0,2025-01-30,2025-01-30,株式会社ＩＮＫ電設,,株式会社,千葉県,千葉市若葉区,千城台東４丁目３１番７ー２号,,12,104,2640002,,,,,,,2025-01-30,1,,,,,アイエヌケーデンセツ,0
12329,8050001056079,新規,0,2025-01-30,2025-01-30,株式会社ディライト,,株式会社,茨城県,龍ケ崎市,佐貫町５０７番地１８,,08,208,3010033,,,,,,,2025-01-30,1,,,,,ディライト,0
12330,8050001056095,新規,0,2025-01-30,2025-01-30,株式会社ＴＯＫＹＯ　ＢＡＹ　ＬＩＮＫ,,株式会社,茨城県,常総市,向石下１０３－１,,08,211,3002742,,,,,,,2025-01-30,1,,,,,トウキョウベイリンク,0
12331,8050001056104,新規,0,2025-01-30,2025-01-30,株式会社ＬＥＡＦ,,株式会社,茨城県,水戸市,笠原町４２２番地の２２メゾン・ド・コンフォート１０５号,,08,201,3100852,,,,,,,2025-01-30,1,,,,,リーフ,0
12332,8050003008978,新規,0,2025-01-30,2025-01-30,合同会社ＡＮＴＩＱＵＥ　ＲＩＶＥＲ,,合同会社,茨城県,水戸市,新原１丁目１０－３２フォレスト新原２０５,,08,201,3100045,,,,,,,2025-01-30,1,,,,,アンティークリバー,0
12333,8060003005405,新規,0,2025-01-30,2025-01-30,合同会社ＩＢＡＳＨＯ,,合同会社,栃木県,宇都宮市,上戸祭町４８－２８,,09,201,3200051,,,,,,,2025-01-30,1,,,,,イバショ,0
12335,8080001026731,新規,0,2025-01-30,2025-01-30,株式会社えんむすび,,株式会社,静岡県,静岡市駿河区,八幡２丁目８番２５号,,22,102,4228076,,,,,,,2025-01-30,1,,,,,エンムスビ,0
12337,8090001019115,新規,0,2025-01-30,2025-01-30,株式会社望月建築塗装,,株式会社,山梨県,南アルプス市,百々１３３６番地２,,19,208,4000214,,,,,,,2025-01-30,1,,,,,モチヅキケンチクトソウ,0
12338,8090003002721,新規,0,2025-01-30,2025-01-30,合同会社菊谷,,合同会社,山梨県,富士吉田市,上吉田５丁目１２番７号,,19,202,4030005,,,,,,,2025-01-30,1,,,,,キクヤ,0
12345,8110003005647,新規,0,2025-01-30,2025-01-30,Ｒｉｍｕ　Ｍａｎａｇｅｍｅｎｔ合同会社,,合同会社,新潟県,妙高市,大字田口７３１番地,,15,217,9492106,,,,,,,2025-01-30,1,,,,,リムマネジメント,0
12354,8120001272247,新規,0,2025-01-30,2025-01-30,嘉禾株式会社,,株式会社,大阪府,大阪市浪速区,日本橋西２丁目７－３ファミール松竹１０１室,,27,111,5560004,,,,,,,2025-01-30,1,,,,,カカ,0
12355,8120001272321,新規,0,2025-01-30,2025-01-30,アドバンス・インベストメント株式会社,,株式会社,大阪府,大阪市天王寺区,上本町６丁目８－２４－６０２,,27,109,5430001,,,,,,,2025-01-30,1,,,,,アドバンスインベストメント,0
12356,8120001272362,新規,0,2025-01-30,2025-01-30,株式会社ＯＫＮ,,株式会社,大阪府,大阪市鶴見区,放出東３丁目２１－４０ローレルコート放出２０５,,27,124,5380044,,,,,,,2025-01-30,1,,,,,オーケーエヌ,0
12357,8120001272429,新規,0,2025-01-30,2025-01-30,ＫＵＢＯ株式会社,,株式会社,大阪府,大阪市都島区,東野田町１丁目１８番６－４０１号室,,27,102,5340024,,,,,,,2025-01-30,1,,,,,クボ,0
12358,8120001272445,新規,0,2025-01-30,2025-01-30,文晨株式会社,,株式会社,大阪府,大阪市西成区,萩之茶屋１丁目１２－７万葉ビル６２号,,27,122,5570004,,,,,,,2025-01-30,1,,,,,ブンシン,0
12361,8120003028498,新規,0,2025-01-30,2025-01-30,軽舟合同会社,,合同会社,大阪府,大阪市淀川区,西三国１丁目２１番４３号サンマンション４０２号,,27,123,5320006,,,,,,,2025-01-30,1,,,,,ケイシュウ,0
12362,8120003028507,新規,0,2025-01-30,2025-01-30,合同会社櫻井経営コンサルティング事務所,,合同会社,大阪府,大阪市北区,梅田１丁目２－２大阪駅前第２ビル１２－１２,,27,127,5300001,,,,,,,2025-01-30,1,,,,,サクライケイエイコンサルティングジムショ,0
12363,8120005024743,新規,0,2025-01-30,2025-01-30,ＮＰＯ法人短冊ＰＲＯＪＥＣＴ,,その他の設立登記法人,大阪府,交野市,郡津１丁目１５番６－３０５号,,27,230,5760053,,,,,,,2025-01-30,1,,,,,タンザクプロジェクト,0
12542,8120101070971,新規,0,2025-01-30,2025-01-30,株式会社大河衛生,,株式会社,大阪府,堺市美原区,太井２３０番地,,27,147,5870062,,,,,,,2025-01-30,1,,,,,タイガーエイセイ,0
12548,8120901050355,新規,0,2025-01-30,2025-01-30,株式会社Ｊｏｙｏｕｓ　Ｋｉｄｓ　Ｎｅｘｕｓ,,株式会社,大阪府,高槻市,高槻町１４番１３号,,27,207,5690803,,,,,,,2025-01-30,1,,,,,ジョイアスキッズネクサス,0
12549,8120903005530,新規,0,2025-01-30,2025-01-30,合同会社グースマイル,,合同会社,大阪府,茨木市,西福井２丁目７番４号,,27,211,5670067,,,,,,,2025-01-30,1,,,,,グースマイル,0
12550,8120905006683,新規,0,2025-01-30,2025-01-30,ＴＡＴディナスティ茨木大池管理組合法人,,その他の設立登記法人,大阪府,茨木市,大池１丁目１４番４号,,27,211,5670826,,,,,,,2025-01-30,1,,,,,ティーエイティーディナスティイバラギオオイケ,0
12555,8130003010174,新規,0,2025-01-30,2025-01-30,Ｓｔｕｄｅｎｔ　Ｃｅｎｔｒａｌ合同会社,,合同会社,京都府,京都市下京区,大黒町２２７番地第２キョートビル４０２,,26,106,6008043,,,,,,,2025-01-30,1,,,,,スチューデントセントラル,0
12573,8180001165247,新規,0,2025-01-30,2025-01-30,株式会社ＬＵＸＥ,,株式会社,愛知県,一宮市,大和町苅安賀字北川田１１６２番地３ノスタルジー弥生３０３号,,23,203,4910934,,,,,,,2025-01-30,1,,,,,リュクス,0
12577,8180003027908,新規,0,2025-01-30,2025-01-30,クアリズム合同会社,,合同会社,愛知県,名古屋市中村区,名駅４丁目２４番５号第２森ビル４０１,,23,105,4500002,,,,,,,2025-01-30,1,,,,,クアリズム,0
12578,8180003027940,新規,0,2025-01-30,2025-01-30,合同会社ＭＨキャピタル,,合同会社,愛知県,半田市,雁宿町３丁目２００番地の５,,23,205,4750918,,,,,,,2025-01-30,1,,,,,エムエイチキャピタル,0
12580,8180005020927,新規,0,2025-01-30,2025-01-30,さんだん税理士法人,,その他の設立登記法人,愛知県,日進市,赤池１丁目３００１番地,,23,230,4700125,,,,,,,2025-01-30,1,,,,,サンダン,0
12581,8180303006446,新規,0,2025-01-30,2025-01-30,合同会社ハーモニー,,合同会社,愛知県,田原市,赤羽根町中瀬古７６,,23,231,4413502,,,,,,,2025-01-30,1,,,,,ハーモニー,0
12590,8230003002368,新規,0,2025-01-30,2025-01-30,Ｃｏｕｒｉｚｅ合同会社,,合同会社,富山県,中新川郡上市町,若杉１丁目２２１,,16,322,9300314,,,,,,,2025-01-30,1,,,,,コライズ,0
12591,8230005009436,新規,0,2025-01-30,2025-01-30,一般社団法人医療福祉の会,,その他の設立登記法人,富山県,高岡市,荻布２３１番地２,,16,202,9330073,,,,,,,2025-01-30,1,,,,,イリョウフクシノカイ,0
12604,8290001108789,新規,0,2025-01-30,2025-01-30,株式会社さくらベビーサポート,,株式会社,福岡県,福岡市東区,箱崎５丁目１１－７－１２０７,,40,131,8120053,,,,,,,2025-01-30,1,,,,,サクラベビーサポート,0
12606,8290003016338,新規,0,2025-01-30,2025-01-30,スマートコア合同会社,,合同会社,福岡県,福岡市博多区,千代４丁目２９番４９号グローリー県庁前６０３,,40,132,8120044,,,,,,,2025-01-30,1,,,,,スマートコア,0
12608,8310001019430,新規,0,2025-01-30,2025-01-30,炎コーポレーション株式会社,,株式会社,長崎県,長崎市,本石灰町２－２３,,42,201,8500901,,,,,,,2025-01-30,1,,,,,ホノオコーポレーション,0
12610,8330003010740,新規,0,2025-01-30,2025-01-30,合同会社ロワイヤル,,合同会社,熊本県,熊本市北区,鶴羽田２丁目２番１０号,,43,105,8615517,,,,,,,2025-01-30,1,,,,,ロワイヤル,0
12614,8360001034730,新規,0,2025-01-30,2025-01-30,株式会社かいこう,,株式会社,沖縄県,那覇市,字安里３８１－１沖縄ゼネラルビル安里,,47,201,9020067,,,,,,,2025-01-30,1,,,,,カイコウ,0
12619,8360003014648,新規,0,2025-01-30,2025-01-30,合同会社フィールドテック沖縄,,合同会社,沖縄県,那覇市,与儀２丁目１８－１６,,47,201,9020076,,,,,,,2025-01-30,1,,,,,フィールドテックオキナワ,0
12623,8370001052194,新規,0,2025-01-30,2025-01-30,三和建設ＨＤ株式会社,,株式会社,宮城県,仙台市青葉区,西花苑１丁目１番１２号,,04,101,9820262,,,,,,,2025-01-30,1,,,,,サンワケンセツホールディングス,0
12692,8470005006599,新規,0,2025-01-30,2025-01-30,特定非営利活動法人丸亀四六会,,その他の設立登記法人,香川県,丸亀市,山北町８１１番地,,37,202,7630072,,,,,,,2025-01-30,1,,,,,マルガメヨンロクカイ,0
12700,8700150129008,新規,0,2025-01-30,2025-01-30,ライオン取引先持株会,,その他,東京都,台東区,蔵前１丁目３－２８　ライオン株式会社本社内,,13,106,1110051,,,,,,,2025-01-30,1,,,,,ライオントリヒキサキモチカブカイ,0
12706,9010001251888,新規,0,2025-01-30,2025-01-30,株式会社Ｎ４,,株式会社,東京都,中央区,銀座１丁目１２番４号Ｎ＆ＥＢＬＤ．７階,,13,102,1040061,,,,,,,2025-01-30,1,,,,,エヌフォー,0
12709,9010003046221,新規,0,2025-01-30,2025-01-30,合同会社ユウセイ,,合同会社,東京都,千代田区,丸の内１丁目８番３号,,13,101,1000005,,,,,,,2025-01-30,1,,,,,ユウセイ,0
12715,9010401187658,新規,0,2025-01-30,2025-01-30,クリードビジネスコンサルティング株式会社,,株式会社,東京都,港区,虎ノ門１丁目２３－１虎ノ門ヒルズ森タワー１９階,,13,103,1050001,,,,,,,2025-01-30,1,,,,,クリードビジネスコンサルティング,0
12716,9010401187765,新規,0,2025-01-30,2025-01-30,ゼニスベア・キャピタルパートナーズ株式会社,,株式会社,東京都,港区,西新橋１丁目２番９号日比谷セントラルビル１４階,,13,103,1050003,,,,,,,2025-01-30,1,,,,,ゼニスベアキャピタルパートナーズ,0
12717,9010401187773,新規,0,2025-01-30,2025-01-30,Ａｓｉｙ株式会社,,株式会社,東京都,港区,南青山３丁目１番３６号青山丸竹ビル６Ｆ,,13,103,1070062,,,,,,,2025-01-30,1,,,,,アシー,0
12718,9010401187848,新規,0,2025-01-30,2025-01-30,株式会社田町総合研究所,,株式会社,東京都,港区,浜松町２丁目２番１５号浜松町ダイヤビル２Ｆ,,13,103,1050013,,,,,,,2025-01-30,1,,,,,タマチソウゴウケンキュウショ,0
12719,9010401187864,新規,0,2025-01-30,2025-01-30,株式会社Ｒｉｖｉｅｒａ,,株式会社,東京都,港区,海岸２丁目５番１号ローレルタワールネ浜松町２００１号室,,13,103,1050022,,,,,,,2025-01-30,1,,,,,リビエラ,0
12720,9010401187889,新規,0,2025-01-30,2025-01-30,株式会社Ｎｏａｇｅ　Ｉｎｔｅｒｎａｔｉｏｎａｌ,,株式会社,東京都,港区,赤坂９丁目７番１号ミッドタウン・タワー７階,,13,103,1070052,,,,,,,2025-01-30,1,,,,,ノアージュインターナショナル,0
12723,9010403034214,新規,0,2025-01-30,2025-01-30,りんとみ合同会社,,合同会社,東京都,港区,南青山４丁目２４番９号エルシオン南青山２０１,,13,103,1070062,,,,,,,2025-01-30,1,,,,,リントミ,0
12726,9010501053537,新規,0,2025-01-30,2025-01-30,ＹＭ商事株式会社,,株式会社,東京都,台東区,上野５丁目１８－４ダイヤオフィスビル４Ｆ,,13,106,1100005,,,,,,,2025-01-30,1,,,,,ワイエムショウジ,0
12727,9010501053561,新規,0,2025-01-30,2025-01-30,株式会社山陽ホールディングス,,株式会社,東京都,台東区,上野桜木２丁目２４番１号,,13,106,1100002,,,,,,,2025-01-30,1,,,,,サンヨーホールディングス,0
12729,9010601066694,新規,0,2025-01-30,2025-01-30,富華国際株式会社,,株式会社,東京都,江東区,亀戸９丁目１８－１３ダイアパレス亀戸３０７,,13,108,1360071,,,,,,,2025-01-30,1,,,,,トミハナコクサイ,0
12796,9010801035805,新規,0,2025-01-30,2025-01-30,株式会社ＦｉｎａｌＣｒａｆｔｉｘ,,株式会社,東京都,大田区,東糀谷２丁目３－２ＸＥＢＥＣ大鳥居ＩＩ－１０２号室,00137825,13,111,1440033,,,,,,,2025-01-30,1,,,,,ファイナルクラフティックス,0
12926,9010901056726,新規,0,2025-01-30,2025-01-30,株式会社カスタマイズ,,株式会社,東京都,世田谷区,太子堂２丁目６番１号,,13,112,1540004,,,,,,,2025-01-30,1,,,,,カスタマイズ,0
12937,9011003020876,新規,0,2025-01-30,2025-01-30,合同会社アシスト,,合同会社,東京都,渋谷区,恵比寿西２丁目４番８号ウィンド恵比寿ビル８Ｆ,,13,113,1500021,,,,,,,2025-01-30,1,,,,,アシスト,0
12940,9011101110447,新規,0,2025-01-30,2025-01-30,ｔｏＶ株式会社,,株式会社,東京都,新宿区,西新宿３丁目３番１３号西新宿水間ビル２Ｆ,,13,104,1600023,,,,,,,2025-01-30,1,,,,,トゥーヴィー,0
12941,9011103015462,新規,0,2025-01-30,2025-01-30,合同会社ＣＪＷ,,合同会社,東京都,新宿区,西新宿３丁目３番１３号西新宿水間ビル２Ｆ,,13,104,1600023,,,,,,,2025-01-30,1,,,,,シージェイダブリュー,0
12942,9011105011311,新規,0,2025-01-30,2025-01-30,一般社団法人Ｃｌａｙｔｅａｍ,,その他の設立登記法人,東京都,新宿区,山吹町３５８番地５,,13,104,1620801,,,,,,,2025-01-30,1,,,,,クレイチーム,0
12946,9011303005404,新規,0,2025-01-30,2025-01-30,合同会社アオアクア,,合同会社,東京都,杉並区,天沼２丁目３３番２０号,,13,115,1670032,,,,,,,2025-01-30,1,,,,,アオアクア,0
12949,9011701028015,新規,0,2025-01-30,2025-01-30,ＢＥＳＴ商事株式会社,,株式会社,東京都,江戸川区,西葛西７丁目１９番１０－６０３号,,13,123,1340088,,,,,,,2025-01-30,1,,,,,ベストショウジ,0
12950,9011701028023,新規,0,2025-01-30,2025-01-30,株式会社大洋商事,,株式会社,東京都,江戸川区,北小岩５丁目２１番７号２１０号室,,13,123,1330051,,,,,,,2025-01-30,1,,,,,タイヨウショウジ,0
13042,9011801045538,新規,0,2025-01-30,2025-01-30,株式会社ＴｅｃｈＮｅｘｕｓ,,株式会社,東京都,足立区,六月２丁目１８番１７号シティハイムジュアン１０３,,13,121,1210814,,,,,,,2025-01-30,1,,,,,テックネクサス,0
13059,9013301053632,新規,0,2025-01-30,2025-01-30,株式会社Ｚｅｅｅｍａ,,株式会社,東京都,豊島区,池袋２丁目１６－１２ウオマタビル４階,,13,116,1710014,,,,,,,2025-01-30,1,,,,,ジーマ,0
13061,9013303007512,新規,0,2025-01-30,2025-01-30,合同会社Ｎａｍｅｌｅｓｓ,,合同会社,東京都,豊島区,東池袋１丁目３４－５いちご東池袋ビル６階,,13,116,1700013,,,,,,,2025-01-30,1,,,,,ネームレス,0
13062,9013303007520,新規,0,2025-01-30,2025-01-30,Ａｚａｓｕ合同会社,,合同会社,東京都,豊島区,南大塚１丁目６０番２０号,,13,116,1700005,,,,,,,2025-01-30,1,,,,,アザス,0
13396,9020001161112,新規,0,2025-01-30,2025-01-30,株式会社Ｔｕｒｔｌｅ　Ｓｅｔ,,株式会社,神奈川県,川崎市川崎区,港町４番１号コートフエリカ３０５,,14,131,2100807,,,,,,,2025-01-30,1,,,,,タートルセット,0
13416,9021001084352,新規,0,2025-01-30,2025-01-30,ＯＮＥ’Ｓ　ＰＲＯＤＵＣＴＳ株式会社,,株式会社,神奈川県,厚木市,三田南２丁目１４番６１号,,14,212,2430217,,,,,,,2025-01-30,1,,,,,ワンズプロダクツ,0
13798,9030001164584,新規,0,2025-01-30,2025-01-30,株式会社歩栄興業,,株式会社,埼玉県,越谷市,大字南荻島２７４８番地６,,11,222,3430804,,,,,,,2025-01-30,1,,,,,ホエイコウギョウ,0
13799,9030001164592,新規,0,2025-01-30,2025-01-30,グランデメルカート株式会社,,株式会社,埼玉県,春日部市,谷原新田１８１８番地２、２階,,11,214,3440035,,,,,,,2025-01-30,1,,,,,グランデメルカート,0
13800,9030001164634,新規,0,2025-01-30,2025-01-30,株式会社ジャスミン,,株式会社,埼玉県,羽生市,大字羽生１４７－１－３０１,,11,216,3480055,,,,,,,2025-01-30,1,,,,,ジャスミン,0
13801,9030001164675,新規,0,2025-01-30,2025-01-30,株式会社インスパイア,,株式会社,埼玉県,新座市,野火止５丁目２番６２号,,11,230,3520011,,,,,,,2025-01-30,1,,,,,インスパイア,0
13834,9030003025974,新規,0,2025-01-30,2025-01-30,Ｈｉｔｏｍｉ　ｅｎｔｅｒｐｒｉｓｅ合同会社,,合同会社,埼玉県,秩父市,荒川上田野１６０９－４,,11,207,3691802,,,,,,,2025-01-30,1,,,,,ヒトミエンタープライズ,0
13835,9030003025982,新規,0,2025-01-30,2025-01-30,合同会社ＳＨＡＤＥ,,合同会社,埼玉県,戸田市,大字新曽２０３０－２ＴＨＡＭＥＳＴＯＤＡ１０６,,11,224,3350021,,,,,,,2025-01-30,1,,,,,シェイド,0
13836,9030003025990,新規,0,2025-01-30,2025-01-30,合同会社プロペイント,,合同会社,埼玉県,新座市,栗原１丁目１２番４号,,11,230,3520035,,,,,,,2025-01-30,1,,,,,プロペイント,0
13844,9040001137201,新規,0,2025-01-30,2025-01-30,株式会社Ｓｋｙｗａｒｄ,,株式会社,千葉県,柏市,永楽台２丁目１番１４号ジュネパレス柏第１１２－１０１号,,12,217,2770086,,,,,,,2025-01-30,1,,,,,スカイワード,0
13847,9040003026749,新規,0,2025-01-30,2025-01-30,合同会社橋本運送,,合同会社,千葉県,千葉市美浜区,幸町１丁目１５番７号,,12,106,2610001,,,,,,,2025-01-30,1,,,,,ハシモトウンソウ,0
13852,9050001056078,新規,0,2025-01-30,2025-01-30,株式会社山大工業,,株式会社,茨城県,かすみがうら市,上佐谷２２４３番地,,08,230,3150065,,,,,,,2025-01-30,1,,,,,ヤマヒロコウギョウ,0
13854,9050003008969,新規,0,2025-01-30,2025-01-30,合同会社ｆｌｅｕｒ,,合同会社,茨城県,水戸市,双葉台４丁目５６２番地の１５,,08,201,3114145,,,,,,,2025-01-30,1,,,,,フルール,0
13865,9090001019114,新規,0,2025-01-30,2025-01-30,株式会社奏屋興業,,株式会社,山梨県,南都留郡富士河口湖町,船津３３０４番地６,,19,430,4010301,,,,,,,2025-01-30,1,,,,,カナデヤコウギョウ,0
13867,9100001038203,新規,0,2025-01-30,2025-01-30,冬日熱雪日本株式会社,,株式会社,長野県,北安曇郡白馬村,大字神城２４４１３番地,,20,485,3999211,,,,,,,2025-01-30,1,,,,,フユビネッセツニホン,0
13868,9100001038244,新規,0,2025-01-30,2025-01-30,株式会社Ｎｅｘｔ　Ｉｎｎｏｖａｔｉｏｎ,,株式会社,長野県,安曇野市,豊科高家３６４６番地３５,,20,220,3998204,,,,,,,2025-01-30,1,,,,,ネクストイノベーション,0
13869,9100001038252,新規,0,2025-01-30,2025-01-30,コスモ技研株式会社,,株式会社,長野県,駒ヶ根市,赤穂１４番地１８２３,,20,210,3994117,,,,,,,2025-01-30,1,,,,,コスモギケン,0
13871,9110001039019,新規,0,2025-01-30,2025-01-30,株式会社ＡＮＤ　ＦＩＶＥ,,株式会社,新潟県,新潟市東区,紫竹３丁目１８－６,,15,102,9500864,,,,,,,2025-01-30,1,,,,,アンドファイブ,0
13887,9120001272320,新規,0,2025-01-30,2025-01-30,株式会社ビッグ・トリー・エンタープライジズ,,株式会社,大阪府,大阪市生野区,新今里３丁目１３－１９,,27,116,5440001,,,,,,,2025-01-30,1,,,,,ビッグトリーエンタープライジズ,0
13888,9120001272460,新規,0,2025-01-30,2025-01-30,株式会社Ｈ．Ｉ．Ｄ,,株式会社,大阪府,大阪市北区,天満２丁目１２番３号ヴィレッジリバー南森町１－Ｂ号室,,27,127,5300043,,,,,,,2025-01-30,1,,,,,エイチアイディー,0
14067,9120101070962,新規,0,2025-01-30,2025-01-30,株式会社Ｒｅ　ｆａｓｈｉｏｎ,,株式会社,大阪府,和泉市,鶴山台１丁目２番１８号,,27,219,5940013,,,,,,,2025-01-30,1,,,,,リファッション,0
14074,9120105009965,新規,0,2025-01-30,2025-01-30,医療法人輝千会,,その他の設立登記法人,大阪府,岸和田市,別所町１丁目１４番２８号Ｋ・ル・フタールビル２Ｆ,,27,202,5960045,,,,,,,2025-01-30,1,,,,,キセンカイ,0
14079,9120901050354,新規,0,2025-01-30,2025-01-30,正司電気工事株式会社,,株式会社,大阪府,吹田市,末広町１２番２０－２０６号,,27,205,5640022,,,,,,,2025-01-30,1,,,,,ショウジデンキコウジ,0
14082,9130001078873,新規,0,2025-01-30,2025-01-30,株式会社ＡＺＵＭＡ　ＦＡＲＭ,,株式会社,京都府,京都市下京区,燈籠町５５９番地２・３階,,26,106,6008401,,,,,,,2025-01-30,1,,,,,アズマファーム,0
14086,9140001137208,新規,0,2025-01-30,2025-01-30,株式会社ｐｒｉｍｅ,,株式会社,兵庫県,神戸市北区,西大池１丁目８番２号,,28,109,6511201,,,,,,,2025-01-30,1,,,,,プライム,0
14087,9140001137240,新規,0,2025-01-30,2025-01-30,株式会社Ｃｏｍｒａｄｅ,,株式会社,兵庫県,神戸市須磨区,前池町４丁目３－１７－１０１,,28,107,6540011,,,,,,,2025-01-30,1,,,,,カムラッド,0
14092,9160001026516,新規,0,2025-01-30,2025-01-30,株式会社深町商事,,株式会社,滋賀県,愛知郡愛荘町,沓掛８０－１,,25,425,5291315,,,,,,,2025-01-30,1,,,,,フカマチショウジ,0
14101,9180001165089,新規,0,2025-01-30,2025-01-30,株式会社ＮＡＸＭＩＬＥ,,株式会社,愛知県,名古屋市昭和区,阿由知通１丁目１８番地の１ローレルコート吹上パークサイド１４０１号,,23,107,4660027,,,,,,,2025-01-30,1,,,,,ナックスマイル,0
14102,9180001165155,新規,0,2025-01-30,2025-01-30,株式会社ＩＤＥＡＬｓ,,株式会社,愛知県,日進市,岩崎町石兼５６番地８２８,,23,230,4700131,,,,,,,2025-01-30,1,,,,,アイディールズ,0
14103,9180001165238,新規,0,2025-01-30,2025-01-30,株式会社アールラボ,,株式会社,愛知県,名古屋市中村区,名駅４丁目２４番５号第２森ビル４０１,,23,105,4500002,,,,,,,2025-01-30,1,,,,,アールラボ,0
14106,9180003027923,新規,0,2025-01-30,2025-01-30,合同会社ドラゴン,,合同会社,愛知県,津島市,神守町字東高島３６,,23,208,4960005,,,,,,,2025-01-30,1,,,,,ドラゴン,0
14114,9200003006684,新規,0,2025-01-30,2025-01-30,合同会社Ｃａｎｎａ,,合同会社,岐阜県,岐阜市,岩田坂４丁目２２－６,,21,201,5013155,,,,,,,2025-01-30,1,,,,,カンナ,0
14119,9240001064458,新規,0,2025-01-30,2025-01-30,株式会社ＭＡＲＥ,,株式会社,広島県,広島市中区,国泰寺町２丁目２番２５－９０１号,,34,101,7300042,,,,,,,2025-01-30,1,,,,,マレ,0
14129,9290001108747,新規,0,2025-01-30,2025-01-30,株式会社Ｋｐａｎ,,株式会社,福岡県,福岡市中央区,春吉３丁目２３－２７－４０７号室,,40,133,8100003,,,,,,,2025-01-30,1,,,,,ケイパン,0
14149,9380001035057,新規,0,2025-01-30,2025-01-30,十十Ａｒｃｈｉｔｅｃｔ株式会社,,株式会社,福島県,田村市,船引町門鹿字西ノ内７番地２,,07,211,9634434,,,,,,,2025-01-30,1,,,,,ジュウトアーキテクト,0
14231,9420001018998,新規,0,2025-01-30,2025-01-30,株式会社エスタ・ファーム,,株式会社,青森県,弘前市,大字東和徳町１９番地１,,02,202,0368043,,,,,,,2025-01-30,1,,,,,エスタファーム,0
