sequenceNumber,corporateNumber,process,correct,updateDate,changeDate,name,nameImageId,kind,prefectureName,cityName,streetNumber,addressImageId,prefectureCode,cityCode,postCode,addressOutside,addressOutsideImageId,closeDate,closeCause,successorCorporateNumber,changeCause,assignmentDate,latest,enName,enPrefectureName,enCityName,enAddressOutside,furigana,hihyoji
3,1010001234132,新規,0,2023-04-05,2023-04-05,株式会社イーウェルヘルスケアサービス,,株式会社,東京都,千代田区,紀尾井町３番６号,,13,101,1020094,,,,,,,2023-04-05,1,,,,,イーウェルヘルスケアサービス,0
4,1010001234165,新規,0,2023-04-05,2023-04-05,株式会社ｄｉｍ,,株式会社,東京都,千代田区,神田和泉町１番地６－１６ヤマトビル４０５,,13,101,1010024,,,,,,,2023-04-05,1,,,,,ディム,0
11,1010401173459,新規,0,2023-04-05,2023-04-05,株式会社Ａｒａｕｃａｒｉａ,,株式会社,東京都,港区,南青山３丁目１番３６号青山丸竹ビル６Ｆ,,13,103,1070062,,,,,,,2023-04-05,1,,,,,アラウカリア,0
12,1010401173467,新規,0,2023-04-05,2023-04-05,株式会社ＴＰＰ,,株式会社,東京都,港区,芝３丁目２８番２号,,13,103,1050014,,,,,,,2023-04-05,1,,,,,ティーピーピー,0
18,1010701044062,新規,0,2023-04-05,2023-04-05,株式会社ｒｅｄｍｅ,,株式会社,東京都,品川区,上大崎３丁目１番３０－１９１１号,,13,109,1410021,,,,,,,2023-04-05,1,,,,,レッドミー,0
21,1010901052807,新規,0,2023-04-05,2023-04-05,株式会社Ｏｎｅ　ｌｏｖｅ,,株式会社,東京都,世田谷区,三軒茶屋１丁目７番７－４０６号,,13,112,1540024,,,,,,,2023-04-05,1,,,,,ワンラブ,0
24,1011001153504,新規,0,2023-04-05,2023-04-05,ＣＶＬＳ株式会社,,株式会社,東京都,渋谷区,道玄坂１丁目１０番８号渋谷道玄坂東急ビル２Ｆ－Ｃ,,13,113,1500043,,,,,,,2023-04-05,1,,,,,シビライズ,0
25,1011001153520,新規,0,2023-04-05,2023-04-05,株式会社流山開発Ｄ,,株式会社,東京都,渋谷区,神泉町８番１３号,,13,113,1500045,,,,,,,2023-04-05,1,,,,,ナガレヤマカイハツディ,0
26,1011001153529,新規,0,2023-04-05,2023-04-05,マイメタジャパン株式会社,,株式会社,東京都,渋谷区,道玄坂１丁目１２番１号,,13,113,1500043,,,,,,,2023-04-05,1,,,,,マイメタジャパン,0
29,1011101102393,新規,0,2023-04-05,2023-04-05,株式会社ａｌｉ　ｌｉｂｒｅ,,株式会社,東京都,新宿区,西新宿１丁目２６番２号新宿野村ビル３２階,,13,104,1600023,,,,,,,2023-04-05,1,,,,,アーリリーブル,0
34,1011301028587,新規,0,2023-04-05,2023-04-05,ホームテックパートナー株式会社,,株式会社,東京都,杉並区,高円寺北３丁目２３番１２号,,13,115,1660002,,,,,,,2023-04-05,1,,,,,ホームテックパートナー,0
35,1011303004710,新規,0,2023-04-05,2023-04-05,Ｋｅｎｊｉ　Ｏｋｕｂｏ，ＣＰＡ合同会社,,合同会社,東京都,杉並区,阿佐谷北２丁目９番２２号,,13,115,1660001,,,,,,,2023-04-05,1,,,,,ケンジオオクボシーピーエー,0
38,1011403003959,新規,0,2023-04-05,2023-04-05,ＭＡＫＩ‐ＫＥＹ合同会社,,合同会社,東京都,板橋区,仲宿５８－１６プラウド板橋区役所前３０３,,13,119,1730005,,,,,,,2023-04-05,1,,,,,,0
39,1011501029121,新規,0,2023-04-05,2023-04-05,馳龍国際株式会社,,株式会社,東京都,荒川区,町屋３丁目２４番２号面川ビル２０２号室,,13,118,1160001,,,,,,,2023-04-05,1,,,,,チリュウコクサイ,0
40,1011503005533,新規,0,2023-04-05,2023-04-05,合同会社フォレスト,,合同会社,東京都,荒川区,東日暮里３丁目３６番１２号,,13,118,1160014,,,,,,,2023-04-05,1,,,,,フォレスト,0
42,1011603003874,新規,0,2023-04-05,2023-04-05,Ｓｏｕｎｄ　Ｆｕｊｉ合同会社,,合同会社,東京都,練馬区,豊玉上２丁目２０番７号,,13,120,1760011,,,,,,,2023-04-05,1,,,,,サウンドフジ,0
43,1011801042170,新規,0,2023-04-05,2023-04-05,株式会社笑,,株式会社,東京都,足立区,六木４丁目６番４号,,13,121,1210052,,,,,,,2023-04-05,1,,,,,エミ,0
50,1012401040366,新規,0,2023-04-05,2023-04-05,ＥＬ経営株式会社,,株式会社,東京都,狛江市,元和泉１丁目１番２号イトーピア狛江エコルマ２－２０１号,,13,219,2010013,,,,,,,2023-04-05,1,,,,,イーエルケイエイ,0
51,1012401040374,新規,0,2023-04-05,2023-04-05,株式会社Ｌｕｋｕ　ａｎｄ　ｃｏｒｐｏｒａｔｉｏｎ,,株式会社,東京都,武蔵野市,吉祥寺南町１丁目３２－１４,,13,203,1800003,,,,,,,2023-04-05,1,,,,,ルクアンドコーポレーション,0
55,1012801022245,新規,0,2023-04-05,2023-04-05,株式会社不動,,株式会社,東京都,日野市,高幡１０２６番地の１５,,13,212,1910031,,,,,,,2023-04-05,1,,,,,フドウ,0
60,1013301050521,新規,0,2023-04-05,2023-04-05,株式会社ジャパンネクストコンサルティング,,株式会社,東京都,豊島区,東池袋５丁目７番４マーブル東池袋ビル３Ｆ,,13,116,1700013,,,,,,,2023-04-05,1,,,,,ジャパンネクストコンサルティング,0
62,1013303006570,新規,0,2023-04-05,2023-04-05,Ｃ＆Ｂ合同会社,,合同会社,東京都,豊島区,池袋２丁目１７番８号天翔池袋西口ＡＮＮＥＸビル,,13,116,1710014,,,,,,,2023-04-05,1,,,,,シーアンドビー,0
64,1020001150915,新規,0,2023-04-05,2023-04-05,株式会社ＮＥＮＧＯ不動産,,株式会社,神奈川県,川崎市高津区,溝口２丁目１５番１号,,14,134,2130001,,,,,,,2023-04-05,1,,,,,ネンゴフドウサン,0
65,1020001150931,新規,0,2023-04-05,2023-04-05,Ａ‐Ｅｉｇｈｔｉｅｓ株式会社,,株式会社,神奈川県,横浜市金沢区,福浦１丁目１１番２２号（ＹＣＢＩＧ内）,,14,108,2360004,,,,,,,2023-04-05,1,,,,,アイエイティーズ,0
66,1020001150956,新規,0,2023-04-05,2023-04-05,ワンプレイスホーム株式会社,,株式会社,神奈川県,横浜市中区,桜木町１丁目１０１番地１,,14,104,2310062,,,,,,,2023-04-05,1,,,,,ワンプレイスホーム,0
67,1020001150980,新規,0,2023-04-05,2023-04-05,Ｎｅｏｇｒａｐｈｉｘ株式会社,,株式会社,神奈川県,川崎市中原区,新丸子町７６１－５,,14,133,2110005,,,,,,,2023-04-05,1,,,,,ネオグラフィックス,0
68,1020001151005,新規,0,2023-04-05,2023-04-05,株式会社日新プラント,,株式会社,神奈川県,川崎市川崎区,浜町２丁目１３番３７－６０２号ダイアパレス川崎グリーンポート,,14,131,2100851,,,,,,,2023-04-05,1,,,,,ニッシンプラント,0
69,1020003023648,新規,0,2023-04-05,2023-04-05,Ｅ．Ｓ．合同会社,,合同会社,神奈川県,川崎市宮前区,潮見台７番１８－２号,,14,136,2160013,,,,,,,2023-04-05,1,,,,,エス,0
77,1030001153132,新規,0,2023-04-05,2023-04-05,株式会社ＣＯＭＥＴｉＦＹ,,株式会社,埼玉県,川口市,元郷４丁目１６番９号,,11,203,3320011,,,,,,,2023-04-05,1,,,,,コメティファイ,0
84,1040001127572,新規,0,2023-04-05,2023-04-05,龍璽株式会社,,株式会社,千葉県,松戸市,五香南２丁目３１番地の５,,12,207,2702212,,,,,,,2023-04-05,1,,,,,リュウジ,0
85,1040001127721,新規,0,2023-04-05,2023-04-05,与右衛門株式会社,,株式会社,千葉県,香取郡東庄町,笹川い６２２番地１,,12,349,2890601,,,,,,,2023-04-05,1,,,,,ヨエモン,0
86,1040001127762,新規,0,2023-04-05,2023-04-05,株式会社ＵＭＩ,,株式会社,千葉県,南房総市,白浜町根本１５３９－１,,12,234,2950104,,,,,,,2023-04-05,1,,,,,ウミ,0
87,1040001127795,新規,0,2023-04-05,2023-04-05,ミレーニア株式会社,,株式会社,千葉県,勝浦市,興津久保山台８５番地１２,,12,218,2995246,,,,,,,2023-04-05,1,,,,,ミレーニア,0
90,1040003022326,新規,0,2023-04-05,2023-04-05,Ｉｒｆａｎ　Ｔｒａｄｉｎｇ合同会社,,合同会社,千葉県,富里市,中沢４０２－５ハイムカトウ１階５号室,,12,233,2860222,,,,,,,2023-04-05,1,,,,,イルファントレーディング,0
92,1050001052613,新規,0,2023-04-05,2023-04-05,株式会社鈴木青果,,株式会社,茨城県,鉾田市,田崎３５８０番地３,,08,234,3111406,,,,,,,2023-04-05,1,,,,,スズキセイカ,0
93,1050003007391,新規,0,2023-04-05,2023-04-05,タイコミュージック合同会社,,合同会社,茨城県,つくば市,梶内５６８番地１,,08,220,3050064,,,,,,,2023-04-05,1,,,,,タイコミュージック,0
97,1080101023890,新規,0,2023-04-05,2023-04-05,株式会社エイト,,株式会社,静岡県,駿東郡長泉町,元長窪２７１番地の２８,,22,342,4110936,,,,,,,2023-04-05,1,,,,,エイト,0
100,1100001036271,新規,0,2023-04-05,2023-04-05,スウィートベジタブル株式会社,,株式会社,長野県,中野市,大字新保６１８番地,,20,211,3830036,,,,,,,2023-04-05,1,,,,,スウィートベジタブル,0
101,1100001036288,新規,0,2023-04-05,2023-04-05,新里塗装株式会社,,株式会社,長野県,長野市,川中島町今里７２７番地,,20,201,3812234,,,,,,,2023-04-05,1,,,,,シンザトトソウ,0
105,1110001037401,新規,0,2023-04-05,2023-04-05,イシヤマ潤滑株式会社,,株式会社,新潟県,新潟市北区,彩野２丁目２番地６,,15,101,9503377,,,,,,,2023-04-05,1,,,,,イシヤマジュンカツ,0
114,1120001253641,新規,0,2023-04-05,2023-04-05,オフィス・ブランシュ株式会社,,株式会社,大阪府,大阪市北区,梅田１丁目１１番４号大阪駅前第４ビル９階９２３－１６６２号,,27,127,5300001,,,,,,,2023-04-05,1,,,,,オフィスブランシュ,0
115,1120001253732,新規,0,2023-04-05,2023-04-05,株式会社ＥＮＣＡＮＴ,,株式会社,大阪府,大阪市中央区,南船場２丁目３番４号日宝長堀ビル３０１,,27,128,5420081,,,,,,,2023-04-05,1,,,,,エンカント,0
116,1120001253765,新規,0,2023-04-05,2023-04-05,株式会社チャロネット,,株式会社,大阪府,大阪市北区,梅田１丁目２番２号大阪駅前第２ビル１２－１２,,27,127,5300001,,,,,,,2023-04-05,1,,,,,チャロネット,0
120,1120003023753,新規,0,2023-04-05,2023-04-05,合同会社エコパワー,,合同会社,大阪府,大阪市北区,梅田１丁目１番３号大阪駅前第３ビル２４階,,27,127,5300001,,,,,,,2023-04-05,1,,,,,エコパワー,0
121,1120003023761,新規,0,2023-04-05,2023-04-05,合同会社レゼル,,合同会社,大阪府,大阪市都島区,中野町４丁目１７－１３,,27,102,5340027,,,,,,,2023-04-05,1,,,,,レゼル,0
122,1120005023553,新規,0,2023-04-05,2023-04-05,一般社団法人廣陽社,,その他の設立登記法人,大阪府,大阪市大正区,泉尾３丁目２２番２０号,,27,108,5510031,,,,,,,2023-04-05,1,,,,,コウヨウシャ,0
123,1120101067280,新規,0,2023-04-05,2023-04-05,株式会社ＣＲＩＯ,,株式会社,大阪府,藤井寺市,陵南町２－６,,27,226,5830016,,,,,,,2023-04-05,1,,,,,クリオ,0
125,1120105009709,新規,0,2023-04-05,2023-04-05,特定非営利活動法人劇団アカレンガ,,その他の設立登記法人,大阪府,富田林市,本町８番１９号,,27,214,5840093,,,,,,,2023-04-05,1,,,,,ゲキダンアカレンガ,0
126,1120901047333,新規,0,2023-04-05,2023-04-05,株式会社Ｂｅｔｔｅｒ　Ｆｕｔｕｒｅ　Ｍａｒｋｅｔｉｎｇ,,株式会社,大阪府,吹田市,豊津町１８番１３号,,27,205,5640051,,,,,,,2023-04-05,1,,,,,ベターフューチャーマーケティング,0
130,1122001036860,新規,0,2023-04-05,2023-04-05,株式会社ＫＣコネクト,,株式会社,大阪府,柏原市,清州２丁目３番３５号,,27,221,5820006,,,,,,,2023-04-05,1,,,,,ケーシーコネクト,0
133,1130001073948,新規,0,2023-04-05,2023-04-05,株式会社ＧＴ,,株式会社,京都府,京都市西京区,樫原佃３番地シャーメゾンロペ３０２,,26,111,6158186,,,,,,,2023-04-05,1,,,,,ジーティー,0
135,1130003008638,新規,0,2023-04-05,2023-04-05,Ｋｉｎｄｕｓｅ合同会社,,合同会社,京都府,京都市伏見区,深草一ノ坪町３７番地１７,,26,109,6120012,,,,,,,2023-04-05,1,,,,,カインドユース,0
140,1140001129609,新規,0,2023-04-05,2023-04-05,株式会社日豊商事,,株式会社,兵庫県,姫路市,西夢前台２丁目１５番地,,28,201,6712214,,,,,,,2023-04-05,1,,,,,ニッポウショウジ,0
144,1140005026554,新規,0,2023-04-05,2023-04-05,一般社団法人こうべ団地みらい創生機構,,その他の設立登記法人,兵庫県,神戸市中央区,中山手通２丁目１０番２－５０５号,,28,110,6500004,,,,,,,2023-04-05,1,,,,,コウベダンチミライソウセイキコウ,0
146,1150001026284,新規,0,2023-04-05,2023-04-05,株式会社ＯＫＡＭＯＴＯ,,株式会社,奈良県,香芝市,穴虫３０７３番地１１,,29,210,6390252,,,,,,,2023-04-05,1,,,,,オカモト,0
152,1180001155626,新規,0,2023-04-05,2023-04-05,株式会社ＨＯＬＬＹ・ＳＵＮＮＹＤＡＹ,,株式会社,愛知県,知多郡東浦町,大字生路字浜起２２番地グリーンハイツ生路Ｂ－１０２号,,23,442,4702104,,,,,,,2023-04-05,1,,,,,ホーリーサニーデイ,0
153,1180001155634,新規,0,2023-04-05,2023-04-05,なごや企画株式会社,,株式会社,愛知県,名古屋市千種区,今池南２５番１７号,,23,101,4640851,,,,,,,2023-04-05,1,,,,,ナゴヤキカク,0
158,1200001041138,新規,0,2023-04-05,2023-04-05,株式会社和,,株式会社,岐阜県,可児市,下恵土４０３７番地３,,21,214,5090203,,,,,,,2023-04-05,1,,,,,ナゴミ,0
159,1210001019273,新規,0,2023-04-05,2023-04-05,ｃｏｃｏｔｉｉ株式会社,,株式会社,福井県,鯖江市,中野町４９－７,,18,207,9160033,,,,,,,2023-04-05,1,,,,,ココチ,0
164,1230001019767,新規,0,2023-04-05,2023-04-05,ＲｅＳｔｏｋｅ株式会社,,株式会社,富山県,高岡市,伏木錦町１４‐１７,,16,202,9330105,,,,,,,2023-04-05,1,,,,,リストーク,0
168,1240001061289,新規,0,2023-04-05,2023-04-05,ＳＵＩＴ　ＳＴＯＭＰ株式会社,,株式会社,広島県,呉市,天応南町５番２１号,,34,202,7370874,,,,,,,2023-04-05,1,,,,,スーツストンプ,0
171,1250005008806,新規,0,2023-04-05,2023-04-05,一般社団法人いいなみ自然学校,,その他の設立登記法人,山口県,山口市,阿知須８９９１番地,,35,203,7541277,,,,,,,2023-04-05,1,,,,,イイナミシゼンガッコウ,0
172,1260001037808,新規,0,2023-04-05,2023-04-05,株式会社大晴工業,,株式会社,岡山県,玉野市,八浜町八浜１１０９番地,,33,204,7060221,,,,,,,2023-04-05,1,,,,,ダイセイコウギョウ,0
174,1260005011214,新規,0,2023-04-05,2023-04-05,一般社団法人岡山・瀬戸内腎臓病協会,,その他の設立登記法人,岡山県,倉敷市,松島５７７川崎医科大学腎臓・高血圧内科学教室内,,33,202,7010114,,,,,,,2023-04-05,1,,,,,オカヤマセトウチジンゾウビョウキョウカイ,0
180,1290001101032,新規,0,2023-04-05,2023-04-05,株式会社ＡＣＴＩＯＮ‐Ｌ,,株式会社,福岡県,福岡市早良区,高取２丁目３番１０－２号,,40,137,8140011,,,,,,,2023-04-05,1,,,,,アクションエル,0
181,1290001101040,新規,0,2023-04-05,2023-04-05,株式会社藍ホールディングス,,株式会社,福岡県,久留米市,瀬下町９３番地,,40,203,8300025,,,,,,,2023-04-05,1,,,,,アイホールディングス,0
182,1290001101057,新規,0,2023-04-05,2023-04-05,株式会社ＳＰＣ,,株式会社,福岡県,福岡市西区,下山門１丁目２０番８－２０４号,,40,135,8190052,,,,,,,2023-04-05,1,,,,,エスピーシー,0
183,1290001101065,新規,0,2023-04-05,2023-04-05,株式会社ＡＣＩＡＪＥＮＣＹ,,株式会社,福岡県,福岡市中央区,清川１丁目２番２１号ラ・ペール・モリ８０５号,,40,133,8100005,,,,,,,2023-04-05,1,,,,,エーシーアイエージェンシー,0
185,1290803004382,新規,0,2023-04-05,2023-04-05,合同会社グッドスマイル,,合同会社,福岡県,中間市,中間２丁目９番１号,,40,215,8090034,,,,,,,2023-04-05,1,,,,,グッドスマイル,0
186,1300003001947,新規,0,2023-04-05,2023-04-05,ＴＮＹ貿易合同会社,,合同会社,佐賀県,佐賀市,神野東１丁目９番２６号,,41,201,8400804,,,,,,,2023-04-05,1,,,,,ティーエヌワイボウエキ,0
187,1310001018348,新規,0,2023-04-05,2023-04-05,Ｌｉｓｔａ不動産株式会社,,株式会社,長崎県,長崎市,五島町５番３４号１－Ｂ号,,42,201,8500036,,,,,,,2023-04-05,1,,,,,リスタフドウサン,0
188,1320001019659,新規,0,2023-04-05,2023-04-05,株式会社エアテック九州,,株式会社,大分県,大分市,大字津守２１７番地の７,,44,201,8700945,,,,,,,2023-04-05,1,,,,,エアテックキュウシュウ,0
193,1330001030722,新規,0,2023-04-05,2023-04-05,株式会社コア・プログレスイノベーション,,株式会社,熊本県,熊本市中央区,平成３丁目１６番２０号,,43,101,8600833,,,,,,,2023-04-05,1,,,,,コアプログレスイノベーション,0
194,1330001030730,新規,0,2023-04-05,2023-04-05,株式会社シンコー電機,,株式会社,熊本県,菊池郡菊陽町,大字津久礼２１８８番地１,,43,404,8691101,,,,,,,2023-04-05,1,,,,,シンコーデンキ,0
198,1330003009780,新規,0,2023-04-05,2023-04-05,合同会社磯崎測量,,合同会社,熊本県,阿蘇郡小国町,大字宮原２２４２番地５,,43,424,8692501,,,,,,,2023-04-05,1,,,,,イソザキソクリョウ,0
199,1330003009789,新規,0,2023-04-05,2023-04-05,阿蘇農業男児合同会社,,合同会社,熊本県,阿蘇市,一の宮町北坂梨１４７番地１,,43,214,8692603,,,,,,,2023-04-05,1,,,,,アソノウギョウダンジ,0
203,1350005006147,新規,0,2023-04-05,2023-04-05,一般社団法人着ぐるみ協会,,その他の設立登記法人,宮崎県,宮崎市,清武町今泉甲３９３５番地８３,,45,201,8891602,,,,,,,2023-04-05,1,,,,,キグルミキョウカイ,0
205,1360001031775,新規,0,2023-04-05,2023-04-05,株式会社ＩＲ．Ｃ,,株式会社,沖縄県,中頭郡北谷町,美浜３丁目２番７号,,47,326,9040115,,,,,,,2023-04-05,1,,,,,アイアールシー,0
206,1370001049775,新規,0,2023-04-05,2023-04-05,株式会社総合美建,,株式会社,宮城県,仙台市泉区,館５丁目１９番地の１０,,04,105,9813214,,,,,,,2023-04-05,1,,,,,ソウゴウビケン,0
207,1370001049783,新規,0,2023-04-05,2023-04-05,株式会社アルティス,,株式会社,宮城県,仙台市青葉区,郷六字龍沢６３－１,,04,101,9893121,,,,,,,2023-04-05,1,,,,,アルティス,0
212,1400001016193,新規,0,2023-04-05,2023-04-05,株式会社木分協・岩手,,株式会社,岩手県,滝沢市,後２６８番地５６,,03,216,0200601,,,,,,,2023-04-05,1,,,,,モクブンキョウイワテ,0
213,1410003003775,新規,0,2023-04-05,2023-04-05,合同会社Ｖ＆Ｊ,,合同会社,秋田県,秋田市,大町５丁目１－５Ｆ１ビル,,05,201,0100921,,,,,,,2023-04-05,1,,,,,ブイアンドジェイ,0
223,1450005004371,新規,0,2023-04-05,2023-04-05,一般社団法人旭川医科大学救急医学講座同門会,,その他の設立登記法人,北海道,旭川市,緑が丘東二条１丁目１番１号,,01,204,0788802,,,,,,,2023-04-05,1,,,,,アサヒカワイカダイガクキュウキュウイガクコウザドウモンカイ,0
228,1470003002383,新規,0,2023-04-05,2023-04-05,合同会社いのうえ,,合同会社,香川県,綾歌郡綾川町,北１３７０番地,,37,387,7612306,,,,,,,2023-04-05,1,,,,,イノウエ,0
232,1500001024855,新規,0,2023-04-05,2023-04-05,株式会社ＯＫＡＺＡＫＩ,,株式会社,愛媛県,四国中央市,下柏町６７８番地３,,38,213,7990411,,,,,,,2023-04-05,1,,,,,オカザキ,0
235,1500005008598,新規,0,2023-04-05,2023-04-05,一般社団法人未来のわくわく研究所,,その他の設立登記法人,愛媛県,宇和島市,別当１丁目１番１５号,,38,203,7980086,,,,,,,2023-04-05,1,,,,,ミライノワクワクケンキュウジョ,0
238,1700150109172,新規,0,2023-04-05,2022-06-01,Ｐｌａｎｔ　Ｍ,,その他,大阪府,大阪市西成区,鶴見橋１丁目１６－３３　４Ｆ　ｐｌａｎｔ　Ｍ事務所,,27,122,5570031,,,,,,,2022-06-01,1,,,,,プラントエム,0
239,1700150115170,新規,0,2023-04-05,2023-04-05,ｚｈｉｊｉａｎｇｓｈｉｇｕａｎｇｈｕｏｓｈａｎｇｍａｏｙｏｕｘｉａｎｇｏｎｇｓｉ,,外国会社等,,,,,,,,ｍａｊｉａｄｉａｎａｏｍｅｉｈｕａｙｕａｎ４ｄｏｎｇｌ４０２ｚｈｉｊｉａｎｇｓｈｉＨｕｂｅｉ４４３２００ＣＮ,,,,,,2023-04-05,1,,,,,ジージャンシーグワンフオシャンマオヨウシエンゴンスー,0
243,2010001234172,新規,0,2023-04-05,2023-04-05,株式会社コスタウェル,,株式会社,東京都,中央区,日本橋人形町２丁目２５－１５－１０Ｆ,,13,102,1030013,,,,,,,2023-04-05,1,,,,,コスタウェル,0
244,2010001234222,新規,0,2023-04-05,2023-04-05,株式会社タダリュウ,,株式会社,東京都,中央区,銀座１丁目１２番４号,,13,102,1040061,,,,,,,2023-04-05,1,,,,,タダリュウ,0
253,2010401173400,新規,0,2023-04-05,2023-04-05,株式会社カービィ,,株式会社,東京都,港区,南青山５丁目２番１６号青山フレックスＡ,,13,103,1070062,,,,,,,2023-04-05,1,,,,,カービィ,0
255,2010405022009,新規,0,2023-04-05,2023-04-05,豊田加納特定目的会社,,その他の設立登記法人,東京都,港区,元赤坂１丁目１番８号株式会社赤坂国際会計内,,13,103,1070051,,,,,,,2023-04-05,1,,,,,トヨタカノウ,0
256,2010501050227,新規,0,2023-04-05,2023-04-05,株式会社ＧｅｅｋＨｏｏｄ,,株式会社,東京都,台東区,北上野２丁目２番１４号,,13,106,1100014,,,,,,,2023-04-05,1,,,,,ギークフッド,0
257,2010501050235,新規,0,2023-04-05,2023-04-05,株式会社ハバロッサ,,株式会社,東京都,台東区,駒形１丁目１０番４号椿やビル４Ｆ,,13,106,1110043,,,,,,,2023-04-05,1,,,,,ハバロッサ,0
259,2010603010079,新規,0,2023-04-05,2023-04-05,崎家合同会社,00129955,合同会社,東京都,江東区,東雲１丁目８番６号,,13,108,1350062,,,,,,,2023-04-05,1,,,,,ザキサンチ,0
260,2010603010087,新規,0,2023-04-05,2023-04-05,ＥＬＧ．ｓａｋｕｒａ合同会社,,合同会社,東京都,墨田区,錦糸２丁目４番６－６０１号,,13,107,1300013,,,,,,,2023-04-05,1,,,,,イーエルジーサクラ,0
265,2010701044061,新規,0,2023-04-05,2023-04-05,株式会社ＮＰＣ,,株式会社,東京都,品川区,上大崎３丁目６番４号,,13,109,1410021,,,,,,,2023-04-05,1,,,,,エヌピーシー,0
267,2010801033823,新規,0,2023-04-05,2023-04-05,株式会社コパン,,株式会社,東京都,大田区,西馬込２丁目１９番６号,,13,111,1430026,,,,,,,2023-04-05,1,,,,,コパン,0
270,2010901052789,新規,0,2023-04-05,2023-04-05,ラグランジュサポート株式会社,,株式会社,東京都,世田谷区,三軒茶屋１丁目１６番３号,,13,112,1540024,,,,,,,2023-04-05,1,,,,,ラグランジュサポート,0
278,2011001153445,新規,0,2023-04-05,2023-04-05,株式会社サニー,,株式会社,東京都,渋谷区,元代々木町４５番１－３３０号ヒューリックコート元代々木,,13,113,1510062,,,,,,,2023-04-05,1,,,,,サニー,0
279,2011001153494,新規,0,2023-04-05,2023-04-05,Ｍ．Ｃｒａｆｔｓｍａｎ　Ｊａｐａｎ株式会社,,株式会社,東京都,渋谷区,神宮前６丁目２３番４号,,13,113,1500001,,,,,,,2023-04-05,1,,,,,エムクラフトマンジャパン,0
280,2011001153503,新規,0,2023-04-05,2023-04-05,株式会社ＰＲＯＦエンターテインメント,,株式会社,東京都,渋谷区,宇田川町４１番２３－２０３号,,13,113,1500042,,,,,,,2023-04-05,1,,,,,プロフエンターテインメント,0
284,2011105010609,新規,0,2023-04-05,2023-04-05,ＫＳコンサル土地家屋調査士法人,,その他の設立登記法人,東京都,新宿区,百人町２丁目２４番６号－２０２,,13,104,1690073,,,,,,,2023-04-05,1,,,,,ケイエスコンサル,0
285,2011203004041,新規,0,2023-04-05,2023-04-05,合同会社ソリューション,,合同会社,東京都,中野区,南台４丁目３１－６－３０２号,,13,114,1640014,,,,,,,2023-04-05,1,,,,,ソリューション,0
289,2011301028594,新規,0,2023-04-05,2023-04-05,株式会社空,,株式会社,東京都,杉並区,和田２丁目４１番１４号,,13,115,1660012,,,,,,,2023-04-05,1,,,,,ソラ,0
290,2011303004718,新規,0,2023-04-05,2023-04-05,合同会社Ａｌｌｙｔｉｃｓ,,合同会社,東京都,杉並区,永福２丁目２２番１０－２０２号,,13,115,1680064,,,,,,,2023-04-05,1,,,,,アリティックス,0
291,2011401025021,新規,0,2023-04-05,2023-04-05,株式会社寿美礼屋,,株式会社,東京都,板橋区,本町２６番３号,,13,119,1730001,,,,,,,2023-04-05,1,,,,,スミレヤ,0
292,2011403003958,新規,0,2023-04-05,2023-04-05,基準合同会社,,合同会社,東京都,板橋区,大山町３３－１椎山荘２０８号室,,13,119,1730023,,,,,,,2023-04-05,1,,,,,キジュン,0
294,2011503005540,新規,0,2023-04-05,2023-04-05,合同会社Ｈ２Ｍ,,合同会社,東京都,北区,浮間２丁目２番７－６０２号,,13,117,1150051,,,,,,,2023-04-05,1,,,,,エイチツーエム,0
296,2011603003881,新規,0,2023-04-05,2023-04-05,合同会社ＳＫＹ　ＨＯＭＥ,,合同会社,東京都,練馬区,豊玉中３丁目２０番１号トーキョーベータ練馬２－２０１,,13,120,1760013,,,,,,,2023-04-05,1,,,,,スカイホーム,0
297,2011803005587,新規,0,2023-04-05,2023-04-05,ぷらっとＫ２合同会社,,合同会社,東京都,葛飾区,金町６丁目１０－１０ルックハイツ金町１０６号,,13,122,1250042,,,,,,,2023-04-05,1,,,,,プラットケイツー,0
299,2012401040373,新規,0,2023-04-05,2023-04-05,株式会社加速装置,,株式会社,東京都,武蔵野市,吉祥寺東町１丁目２０番１５号クリスタル・コートＢ１０３,,13,203,1800002,,,,,,,2023-04-05,1,,,,,カソクソウチ,0
301,2012801022244,新規,0,2023-04-05,2023-04-05,株式会社翔心興業,,株式会社,東京都,東大和市,中央１丁目５９８－１３、２Ｆ,,13,220,2070015,,,,,,,2023-04-05,1,,,,,ショウシンコウギョウ,0
305,2020001150897,新規,0,2023-04-05,2023-04-05,株式会社食材ファーム,,株式会社,神奈川県,川崎市川崎区,東扇島２４番地,,14,131,2100869,,,,,,,2023-04-05,1,,,,,ショクザイファーム,0
306,2020001151020,新規,0,2023-04-05,2023-04-05,株式会社スタージェム,,株式会社,神奈川県,横浜市港北区,下田町６丁目２３番２１号,,14,109,2230064,,,,,,,2023-04-05,1,,,,,スタージェム,0
309,2020003023639,新規,0,2023-04-05,2023-04-05,合同会社ＴＡＣ,,合同会社,神奈川県,川崎市麻生区,上麻生５丁目２１番１７号３０４号室,,14,137,2150021,,,,,,,2023-04-05,1,,,,,ティーエーシー,0
310,2020003023655,新規,0,2023-04-05,2023-04-05,合同会社ヤムラサイン,,合同会社,神奈川県,横浜市泉区,岡津町２１８４番地１１号,,14,116,2450003,,,,,,,2023-04-05,1,,,,,ヤムラサイン,0
311,2020003023663,新規,0,2023-04-05,2023-04-05,合同会社グランホープ,,合同会社,神奈川県,川崎市幸区,塚越２丁目１９９番地ナイスブライトピア新川崎７０４,,14,132,2120024,,,,,,,2023-04-05,1,,,,,グランホープ,0
320,2030003021476,新規,0,2023-04-05,2023-04-05,ＨＵＹ　ＮＡＭ合同会社,,合同会社,埼玉県,川口市,並木３丁目４番２１号パイオランドマンション７０７号室,,11,203,3320034,,,,,,,2023-04-05,1,,,,,フィナム,0
321,2030003021492,新規,0,2023-04-05,2023-04-05,合同会社ＡＮシステム開発,,合同会社,埼玉県,桶川市,朝日３丁目２６－８,,11,231,3630023,,,,,,,2023-04-05,1,,,,,エイエヌシステムカイハツ,0
324,2040001127745,新規,0,2023-04-05,2023-04-05,ＳＨＩＮＥ　ＳＴＡＲ株式会社,,株式会社,千葉県,野田市,柏寺５４番地５,,12,208,2700214,,,,,,,2023-04-05,1,,,,,シャインスター,0
325,2040001127761,新規,0,2023-04-05,2023-04-05,株式会社ＧＲ,,株式会社,千葉県,市川市,鬼高３丁目２９番１１号,,12,203,2720015,,,,,,,2023-04-05,1,,,,,ジーアール,0
326,2040001127794,新規,0,2023-04-05,2023-04-05,ＳＡＢＥＲ　ＣＨＡＮＧＥ株式会社,,株式会社,千葉県,柏市,西原５丁目１４－５０,,12,217,2770885,,,,,,,2023-04-05,1,,,,,セイバーチェンジ,0
328,2040003022317,新規,0,2023-04-05,2023-04-05,シーティーエイチ合同会社,,合同会社,千葉県,千葉市若葉区,みつわ台２丁目１６番１５－２０５号,,12,104,2640032,,,,,,,2023-04-05,1,,,,,シーティーエイチ,0
332,2050001052629,新規,0,2023-04-05,2023-04-05,ＨＩＴＷＯＲＫＳ株式会社,,株式会社,茨城県,つくば市,上岩崎８５３－６,,08,220,3001274,,,,,,,2023-04-05,1,,,,,ヒットワークス,0
334,2070001040276,新規,0,2023-04-05,2023-04-05,株式会社ＲｅＢｏｏｔ,,株式会社,群馬県,太田市,新田村田町２３２８番地３,,10,205,3700312,,,,,,,2023-04-05,1,,,,,リブート,0
336,2080001025557,新規,0,2023-04-05,2023-04-05,株式会社Ｈｉｋａｒｉ　Ｌａｂｏ,,株式会社,静岡県,静岡市葵区,北安東４丁目２５番３０号ル・ポエム１０１,,22,101,4200881,,,,,,,2023-04-05,1,,,,,ヒカリラボ,0
339,2080005007527,新規,0,2023-04-05,2023-04-05,医療法人エマージュ,,その他の設立登記法人,静岡県,静岡市葵区,瀬名１丁目１４番３号,,22,101,4200911,,,,,,,2023-04-05,1,,,,,エマージュ,0
340,2080105006321,新規,0,2023-04-05,2023-04-05,医療法人社団悠羽会,,その他の設立登記法人,静岡県,沼津市,岡宮９７３番地の５・１階,,22,203,4100011,,,,,,,2023-04-05,1,,,,,ユウワカイ,0
343,2100001036295,新規,0,2023-04-05,2023-04-05,株式会社Ｍアシスト,,株式会社,長野県,長野市,若穂川田３２２１番地７,,20,201,3810103,,,,,,,2023-04-05,1,,,,,エムアシスト,0
344,2100003006949,新規,0,2023-04-05,2023-04-05,合同会社ＦＯＲＥＳＴ　ＡＩＲ　Ｉｎｃ．,,合同会社,長野県,下高井郡山ノ内町,大字戸狩４１０番地４,,20,561,3810404,,,,,,,2023-04-05,1,,,,,フォレストエアインク,0
357,2120001253723,新規,0,2023-04-05,2023-04-05,株式会社ＳＩＮＳＥＩ,,株式会社,大阪府,大阪市住吉区,遠里小野１丁目３番６号,,27,120,5580032,,,,,,,2023-04-05,1,,,,,シンセイ,0
358,2120001253756,新規,0,2023-04-05,2023-04-05,ＡＲＴＷＯＲＫＳ株式会社,,株式会社,大阪府,大阪市平野区,瓜破３丁目３番４９号,,27,126,5470024,,,,,,,2023-04-05,1,,,,,アートワークス,0
359,2120001253772,新規,0,2023-04-05,2023-04-05,Ｊアクト株式会社,,株式会社,大阪府,大阪市北区,鶴野町１番３号,,27,127,5300014,,,,,,,2023-04-05,1,,,,,ジェイアクト,0
361,2120003023728,新規,0,2023-04-05,2023-04-05,合同会社ＺＩＺＡＩ,,合同会社,大阪府,交野市,星田８丁目４０番５号,,27,230,5760016,,,,,,,2023-04-05,1,,,,,ジザイ,0
363,2120005023552,新規,0,2023-04-05,2023-04-05,社会保険労務士法人プライムワン,,その他の設立登記法人,大阪府,大阪市中央区,安土町２丁目３番１３号大阪国際ビルディング１０階,,27,128,5410052,,,,,,,2023-04-05,1,,,,,プライムワン,0
364,2120101067255,新規,0,2023-04-05,2023-04-05,株式会社エイト,,株式会社,大阪府,松原市,大堀３丁目７番２３号,,27,217,5800006,,,,,,,2023-04-05,1,,,,,エイト,0
370,2122001036851,新規,0,2023-04-05,2023-04-05,株式会社ユーコネクション,,株式会社,大阪府,東大阪市,衣摺５丁目４番２３号,,27,227,5770827,,,,,,,2023-04-05,1,,,,,ユーコネクション,0
374,2130001074004,新規,0,2023-04-05,2023-04-05,株式会社京玄,,株式会社,京都府,八幡市,八幡五反田４－５,,26,210,6148071,,,,,,,2023-04-05,1,,,,,キョウゲン,0
375,2130001074012,新規,0,2023-04-05,2023-04-05,株式会社オーエム,,株式会社,京都府,綴喜郡宇治田原町,大字郷之口小字末田４８番地,,26,344,6100255,,,,,,,2023-04-05,1,,,,,オーエム,0
376,2130001074020,新規,0,2023-04-05,2023-04-05,株式会社ウタシカンホールディングス,,株式会社,京都府,京都市中京区,新町通三条上る町頭町１１２番地,,26,104,6048206,,,,,,,2023-04-05,1,,,,,ウタシカンホールディングス,0
377,2130001074029,新規,0,2023-04-05,2023-04-05,株式会社タグ,,株式会社,京都府,福知山市,夜久野町今西中６３９番地,,26,201,6291302,,,,,,,2023-04-05,1,,,,,タグ,0
379,2130003008629,新規,0,2023-04-05,2023-04-05,合同会社Ｅ，Ｎ，Ｄ,,合同会社,京都府,京都市右京区,西院四条畑町３０永和ビル４Ｆ西,,26,108,6150066,,,,,,,2023-04-05,1,,,,,イーエヌディー,0
381,2130005016745,新規,0,2023-04-05,2023-04-05,特定非営利活動法人フロンティアフィールド,,その他の設立登記法人,京都府,京都市下京区,柳馬場通四条下る相之町１３８番地,,26,106,6008071,,,,,,,2023-04-05,1,,,,,フロンティアフィールド,0
390,2140001129599,新規,0,2023-04-05,2023-04-05,株式会社泉建築,,株式会社,兵庫県,高砂市,中島３丁目６番１８号,,28,216,6760001,,,,,,,2023-04-05,1,,,,,イズミケンチク,0
391,2140001129624,新規,0,2023-04-05,2023-04-05,建機買取株式会社,,株式会社,兵庫県,加古川市,加古川町中津２２０番地の７,,28,210,6750068,,,,,,,2023-04-05,1,,,,,ケンキカイトリ,0
392,2140001129681,新規,0,2023-04-05,2023-04-05,アカネ・テクノロジーズ株式会社,,株式会社,兵庫県,西宮市,若松町５番３号,,28,204,6620035,,,,,,,2023-04-05,1,,,,,アカネテクノロジーズ,0
393,2140003018916,新規,0,2023-04-05,2023-04-05,福信合同会社,,合同会社,兵庫県,神戸市東灘区,向洋町中１丁目１７アジア・ワン・センター２８Ｆ－２号室,,28,101,6580032,,,,,,,2023-04-05,1,,,,,フクシン,0
395,2150001026283,新規,0,2023-04-05,2023-04-05,福井小水力発電株式会社,,株式会社,奈良県,吉野郡下市町,大字新住１１１８番地,,29,443,6380045,,,,,,,2023-04-05,1,,,,,フクイショウスイリョクハツデン,0
396,2160001024939,新規,0,2023-04-05,2023-04-05,アソビホールディングス株式会社,,株式会社,滋賀県,大津市,萱野浦２２番５５（４１１）,,25,201,5202143,,,,,,,2023-04-05,1,,,,,アソビホールディングス,0
397,2160001024955,新規,0,2023-04-05,2023-04-05,株式会社心,,株式会社,滋賀県,大津市,弥生町１５番６１－１０７号,,25,201,5200115,,,,,,,2023-04-05,1,,,,,ココロ,0
399,2160005011181,新規,0,2023-04-05,2023-04-05,一般社団法人ＪＥＴＳ　ＢＡＳＫＥＴＢＡＬＬ活動推進会,,その他の設立登記法人,滋賀県,彦根市,大藪町２４５０番地４,,25,202,5220053,,,,,,,2023-04-05,1,,,,,ジェッツバスケットボールカツドウスイシンカイ,0
407,2180001155633,新規,0,2023-04-05,2023-04-05,株式会社ｃｉｅｌ,,株式会社,愛知県,大府市,柊山町８丁目５３番地の２（５３１２ＧｒａｎｄＨｏｌｙＨｉｌｌｓ５０２号）,,23,223,4740053,,,,,,,2023-04-05,1,,,,,シエル,0
408,2180001155658,新規,0,2023-04-05,2023-04-05,シーナリー株式会社,,株式会社,愛知県,名古屋市北区,杉村１丁目２番１５号,,23,103,4620835,,,,,,,2023-04-05,1,,,,,シーナリー,0
414,2180005020156,新規,0,2023-04-05,2023-04-05,一般社団法人Ａｓｉａ　Ｃｒｉｓｉｓ　Ｍａｎａｇｅｍｅｎｔ　Ｓｅｒｖｉｃｅ,,その他の設立登記法人,愛知県,名古屋市中区,松原３丁目７番１５号,,23,106,4600017,,,,,,,2023-04-05,1,,,,,アジアクライシスマネジメントサービス,0
415,2180005020164,新規,0,2023-04-05,2023-04-05,一般社団法人名古屋大学整形外科同門会,,その他の設立登記法人,愛知県,名古屋市昭和区,鶴舞町６５番地,,23,107,4660065,,,,,,,2023-04-05,1,,,,,ナゴヤダイガクセイケイゲカドウモンカイ,0
418,2220001025336,新規,0,2023-04-05,2023-04-05,株式会社ヴィライト,,株式会社,石川県,金沢市,窪６丁目８４番地,,17,201,9218151,,,,,,,2023-04-05,1,,,,,ヴィライト,0
419,2220005008741,新規,0,2023-04-05,2023-04-05,一般社団法人北陸ガラス外装クリーニング協会,,その他の設立登記法人,石川県,小松市,城南町８８番地２,,17,203,9230941,,,,,,,2023-04-05,1,,,,,ホクリクガラスガイソウクリーニングキョウカイ,0
426,2240001061296,新規,0,2023-04-05,2023-04-05,株式会社ブルテック,,株式会社,広島県,広島市安佐南区,山本新町５丁目２５番８号,,34,105,7310139,,,,,,,2023-04-05,1,,,,,ブルテック,0
427,2240001061305,新規,0,2023-04-05,2023-04-05,株式会社真樹建設,,株式会社,広島県,広島市安佐北区,口田南２丁目１８番９号,,34,106,7391733,,,,,,,2023-04-05,1,,,,,マキケンセツ,0
431,2260001037815,新規,0,2023-04-05,2023-04-05,株式会社平田自工,,株式会社,岡山県,備前市,吉永町福満７８７番地３,,33,211,7090222,,,,,,,2023-04-05,1,,,,,ヒラタジコウ,0
440,2290001101056,新規,0,2023-04-05,2023-04-05,株式会社江口ＩＴコンサルティング,,株式会社,福岡県,福岡市西区,周船寺３丁目９番２６号,,40,135,8190373,,,,,,,2023-04-05,1,,,,,エグチアイティコンサルティング,0
441,2290001101089,新規,0,2023-04-05,2023-04-05,株式会社マックス,,株式会社,福岡県,福岡市早良区,次郎丸５丁目１３番３８－４０２号次郎丸ヴィレッタ,,40,137,8140165,,,,,,,2023-04-05,1,,,,,マックス,0
443,2290003013745,新規,0,2023-04-05,2023-04-05,合同会社Ｔ‐ｃｈ,,合同会社,福岡県,福岡市南区,野間２丁目７－１３ヴィラージュ野間１階Ｃ,,40,134,8150041,,,,,,,2023-04-05,1,,,,,ティーチ,0
446,2290805009643,新規,0,2023-04-05,2023-04-05,一般社団法人関門レジェンドプロデュース,,その他の設立登記法人,福岡県,北九州市門司区,大里戸ノ上１丁目７番１４号,,40,101,8000024,,,,,,,2023-04-05,1,,,,,カンモンレジェンドプロデュース,0
450,2320001019658,新規,0,2023-04-05,2023-04-05,株式会社Ｋ＆Ｔパートナーズ,,株式会社,大分県,佐伯市,上浦大字津井浦１３９５番地,,44,205,8792602,,,,,,,2023-04-05,1,,,,,ケイアンドティーパートナーズ,0
451,2320001019666,新規,0,2023-04-05,2023-04-05,株式会社幸正住設,,株式会社,大分県,大分市,大字光吉１３１８番地,,44,201,8701132,,,,,,,2023-04-05,1,,,,,ユキマサジュウセツ,0
452,2320003004055,新規,0,2023-04-05,2023-04-05,合同会社ＮＵ,,合同会社,大分県,大分市,金池南２丁目１０番１２－１０２号,,44,201,8700839,,,,,,,2023-04-05,1,,,,,エヌユー,0
456,2330001030721,新規,0,2023-04-05,2023-04-05,株式会社スカイ,,株式会社,熊本県,熊本市中央区,帯山２丁目１４番５５号ラフィーネ帯山４０６号,,43,101,8620924,,,,,,,2023-04-05,1,,,,,スカイ,0
461,2340003004094,新規,0,2023-04-05,2023-04-05,スタジオうさっぱ合同会社,,合同会社,鹿児島県,鹿屋市,高須町１８５４番地,,46,203,8930054,,,,,,,2023-04-05,1,,,,,,0
462,2340005009579,新規,0,2023-04-05,2023-04-05,一般社団法人ＧｒｅｅｎＳｃｈｏｏｌＹａｋｕｓｈｉｍａ,,その他の設立登記法人,鹿児島県,熊毛郡屋久島町,小瀬田８１５番地３１,,46,505,8914207,,,,,,,2023-04-05,1,,,,,グリーンスクールヤクシマ,0
465,2360001031790,新規,0,2023-04-05,2023-04-05,株式会社トータル・ハウスマネジメント,,株式会社,沖縄県,沖縄市,大里３丁目２２番２号くじらマンション５０１,,47,211,9042163,,,,,,,2023-04-05,1,,,,,トータルハウスマネジメント,0
466,2360003012847,新規,0,2023-04-05,2023-04-05,エデュケーション・アローズ合同会社,,合同会社,沖縄県,沖縄市,諸見里３丁目３４番８号,,47,211,9040032,,,,,,,2023-04-05,1,,,,,エデュケーションアローズ,0
467,2370001049790,新規,0,2023-04-05,2023-04-05,株式会社ＳｍａｒｔＴＥＣＨ　Ｌａｂ．,,株式会社,宮城県,仙台市青葉区,片平２丁目１番１号東北大学産学連携先端材料研究開発センター内,,04,101,9800812,,,,,,,2023-04-05,1,,,,,スマートテックラボ,0
476,2430005014677,新規,0,2023-04-05,2023-04-05,忍路郡漁業會,,その他の設立登記法人,北海道,小樽市,（北海道忍路郡塩谷村大字塩谷村１０５番地）,,01,203,0470000,,,,,,,2023-04-05,1,,,,,,0
477,2460001005784,新規,0,2023-04-05,2023-04-05,ｄｉｍｐａｃｔ株式会社,,株式会社,北海道,川上郡弟子屈町,中央３丁目８番地３,,01,665,0883211,,,,,,,2023-04-05,1,,,,,,0
482,2460301005138,新規,0,2023-04-05,2023-04-05,網走鉄道株式会社,,株式会社,北海道,網走市,字呼人８２０番地,,01,211,0992421,,,,,,,2023-04-05,1,,,,,アバシリテツドウ,0
485,2480001012052,新規,0,2023-04-05,2023-04-05,株式会社サウスウッド,,株式会社,徳島県,徳島市,寺島本町西１丁目５番地,,36,201,7700831,,,,,,,2023-04-05,1,,,,,サウスウッド,0
486,2480003001961,新規,0,2023-04-05,2023-04-05,アイデアジョイント合同会社,,合同会社,徳島県,徳島市,仲之町４丁目１５－４－２０４,,36,201,7700932,,,,,,,2023-04-05,1,,,,,アイデアジョイント,0
491,2500001024854,新規,0,2023-04-05,2023-04-05,株式会社Ｄｒｅａｍ　Ｄｒｉｖｅ,,株式会社,愛媛県,松山市,西垣生町１１７７番地３,,38,201,7918044,,,,,,,2023-04-05,1,,,,,ドリームドライブ,0
499,3010001234196,新規,0,2023-04-05,2023-04-05,スタジオ・ウミ株式会社,,株式会社,東京都,中央区,新川１丁目３番２１号,,13,102,1040033,,,,,,,2023-04-05,1,,,,,スタジオウミ,0
500,3010005036457,新規,0,2023-04-05,2023-04-05,ＲＢソーラーホップホールディングス一般社団法人,,その他の設立登記法人,東京都,千代田区,麹町２丁目８番地ＭＬＣ麹町ビル４階フィンポート税理士法人内,,13,101,1020083,,,,,,,2023-04-05,1,,,,,アールビーソーラーホップホールディングス,0
508,3010401173457,新規,0,2023-04-05,2023-04-05,株式会社サンコーポレーション,,株式会社,東京都,港区,白金１丁目２番１－Ｅ７０７号,,13,103,1080072,,,,,,,2023-04-05,1,,,,,サンコーポレーション,0
516,3010503006936,新規,0,2023-04-05,2023-04-05,ふねやま合同会社,,合同会社,東京都,台東区,三ノ輪１丁目６－６,,13,106,1100011,,,,,,,2023-04-05,1,,,,,フネヤマ,0
523,3011001153502,新規,0,2023-04-05,2023-04-05,株式会社東急スポーツオアシス,,株式会社,東京都,渋谷区,道玄坂１丁目１０番８号,,13,113,1500043,,,,,,,2023-04-05,1,,,,,トウキュウスポーツオアシス,0
524,3011001153519,新規,0,2023-04-05,2023-04-05,株式会社流山開発Ｃ,,株式会社,東京都,渋谷区,神泉町８番１３号,,13,113,1500045,,,,,,,2023-04-05,1,,,,,ナガレヤマカイハツシー,0
530,3011101102383,新規,0,2023-04-05,2023-04-05,株式会社ＲＣＭＣ,,株式会社,東京都,新宿区,四谷三栄町９番４号堀木ビル２Ｆ,,13,104,1600008,,,,,,,2023-04-05,1,,,,,リンク,0
534,3011501029103,新規,0,2023-04-05,2023-04-05,宇和株式会社,,株式会社,東京都,荒川区,西日暮里６丁目５２番５号西日暮里ＳＥＡビル３０１,,13,118,1160013,,,,,,,2023-04-05,1,,,,,ウワ,0
535,3011603003880,新規,0,2023-04-05,2023-04-05,合同会社ＳＨＩＩＯ,,合同会社,東京都,練馬区,豊玉中３丁目２０番１号トーキョーベータ練馬２－２０７,,13,120,1760013,,,,,,,2023-04-05,1,,,,,シイオ,0
536,3011701026123,新規,0,2023-04-05,2023-04-05,Ｍａｌｉｅ株式会社,,株式会社,東京都,江戸川区,東葛西８丁目６番１号Ｈａｌｅ　Ｍａｌｉｅ１０５,,13,123,1340084,,,,,,,2023-04-05,1,,,,,マーリエ,0
538,3012401040348,新規,0,2023-04-05,2023-04-05,株式会社アシスト,,株式会社,東京都,調布市,多摩川５丁目７番３号正丸ビル１階１０２号室,,13,208,1820025,,,,,,,2023-04-05,1,,,,,アシスト,0
539,3012801022235,新規,0,2023-04-05,2023-04-05,株式会社ＳＨＵＳＥＩ　Ｎｅｘｔ,,株式会社,東京都,国立市,中２丁目１８番地の１１,,13,215,1860004,,,,,,,2023-04-05,1,,,,,シュセイネクスト,0
540,3012801022243,新規,0,2023-04-05,2023-04-05,株式会社ＯＦＦＩＣＥ３５,,株式会社,東京都,日野市,平山１丁目１１番地の１,,13,212,1910043,,,,,,,2023-04-05,1,,,,,オフィスサーティファイブ,0
545,3013303006569,新規,0,2023-04-05,2023-04-05,ＪＣＣ合同会社,,合同会社,東京都,豊島区,南池袋２丁目４１番１２号,,13,116,1710022,,,,,,,2023-04-05,1,,,,,ジェーシーシー,0
547,3020001150905,新規,0,2023-04-05,2023-04-05,株式会社ＭＯＴＯＩ,,株式会社,神奈川県,横浜市神奈川区,羽沢町９４７番地１，３－１－３０２,,14,102,2210863,,,,,,,2023-04-05,1,,,,,モトイ,0
548,3020001150921,新規,0,2023-04-05,2023-04-05,イーエムティー販売株式会社,,株式会社,神奈川県,川崎市宮前区,土橋４丁目３番地１,,14,136,2160005,,,,,,,2023-04-05,1,,,,,イーエムティーハンバイ,0
549,3020001150938,新規,0,2023-04-05,2023-04-05,株式会社Ｃｏｌｏｒｓ,,株式会社,神奈川県,横浜市旭区,鶴ケ峰２丁目７番地１９横浜鶴ケ峰ビューハイツ３１７号,,14,112,2410022,,,,,,,2023-04-05,1,,,,,カラーズ,0
550,3020001150970,新規,0,2023-04-05,2023-04-05,ＭＩＹＡＭＡ株式会社,,株式会社,神奈川県,川崎市宮前区,神木本町４丁目１７番３号,,14,136,2160031,,,,,,,2023-04-05,1,,,,,ミヤマ,0
551,3020001151028,新規,0,2023-04-05,2023-04-05,株式会社クレアス,,株式会社,神奈川県,横浜市中区,本町２丁目２２番地,,14,104,2310005,,,,,,,2023-04-05,1,,,,,クレアス,0
553,3020005015922,新規,0,2023-04-05,2023-04-05,一般社団法人横浜ｅスポーツ協会,,その他の設立登記法人,神奈川県,横浜市中区,南仲通３丁目３５横浜エクセレントＩＩＩ１０階Ｆ,00129953,14,104,2310006,,,,,,,2023-04-05,1,,,,,,0
555,3021001078590,新規,0,2023-04-05,2023-04-05,株式会社Ｃ．Ｌ．Ｓ．,,株式会社,神奈川県,大和市,南林間１丁目８番７号,,14,213,2420006,,,,,,,2023-04-05,1,,,,,シーエルエス,0
564,3030001153163,新規,0,2023-04-05,2023-04-05,ヒープトラスト株式会社,,株式会社,埼玉県,さいたま市大宮区,桜木町２丁目５番地５,,11,103,3300854,,,,,,,2023-04-05,1,,,,,ヒープトラスト,0
568,3030003021475,新規,0,2023-04-05,2023-04-05,ＥＥＬＩＦ合同会社,,合同会社,埼玉県,朝霞市,本町３丁目７番４４号,,11,227,3510011,,,,,,,2023-04-05,1,,,,,イエリフ,0
569,3030003021483,新規,0,2023-04-05,2023-04-05,合同会社アクア,,合同会社,埼玉県,比企郡滑川町,大字山田１７１６－２,,11,341,3550802,,,,,,,2023-04-05,1,,,,,アクア,0
570,3030003021491,新規,0,2023-04-05,2023-04-05,スリーワン福祉合同会社,,合同会社,埼玉県,狭山市,狭山台１丁目２６番地の４,,11,215,3501304,,,,,,,2023-04-05,1,,,,,スリーワンフクシ,0
571,3030005021176,新規,0,2023-04-05,2023-04-05,一般社団法人Ｕｋｒａｉｎｉａｎ　Ｆｏｕｎｄａｔｉｏｎ　Ｓｕｐｐｏｒｔ,,その他の設立登記法人,埼玉県,飯能市,大字双柳９９８番地４,,11,209,3570021,,,,,,,2023-04-05,1,,,,,ウクライナファンデーションサポート,0
575,3040001127736,新規,0,2023-04-05,2023-04-05,株式会社アクシアン,,株式会社,千葉県,船橋市,習志野台２丁目１２番２５号,,12,204,2740063,,,,,,,2023-04-05,1,,,,,アクシアン,0
576,3040001127744,新規,0,2023-04-05,2023-04-05,ＨＩＦＣＯＵＮホールディングス株式会社,,株式会社,千葉県,茂原市,中の島町９４５番地,,12,210,2970034,,,,,,,2023-04-05,1,,,,,ヒフカンホールディングス,0
577,3040001127760,新規,0,2023-04-05,2023-04-05,株式会社Ａｒｋ,,株式会社,千葉県,八千代市,大和田新田１０７６番地１１２,,12,221,2760046,,,,,,,2023-04-05,1,,,,,アーク,0
578,3040001127802,新規,0,2023-04-05,2023-04-05,株式会社クリエイティブキャンプ,,株式会社,千葉県,船橋市,行田１丁目３２－１９,,12,204,2730044,,,,,,,2023-04-05,1,,,,,クリエイティブキャンプ,0
579,3040003022241,新規,0,2023-04-05,2023-04-05,ＡＲＩＮＯＣ合同会社,,合同会社,千葉県,松戸市,二十世紀が丘丸山町８１,,12,207,2710084,,,,,,,2023-04-05,1,,,,,アリノック,0
580,3040003022324,新規,0,2023-04-05,2023-04-05,合同会社アルカス,,合同会社,千葉県,野田市,木間ケ瀬７３０番地８０,,12,208,2700222,,,,,,,2023-04-05,1,,,,,アルカス,0
583,3050003007381,新規,0,2023-04-05,2023-04-05,合同会社牧塗装工業,,合同会社,茨城県,鹿嶋市,大字宮中４５６８番地８,,08,222,3140031,,,,,,,2023-04-05,1,,,,,マキトソウコウギョウ,0
585,3060005010069,新規,0,2023-04-05,2023-04-05,医療法人真晴会,,その他の設立登記法人,栃木県,真岡市,亀山３２４番地８,,09,209,3214363,,,,,,,2023-04-05,1,,,,,シンセイカイ,0
587,3070001040275,新規,0,2023-04-05,2023-04-05,株式会社イイヅカサイン,,株式会社,群馬県,高崎市,箕郷町生原４９番地７,,10,202,3703102,,,,,,,2023-04-05,1,,,,,イイヅカサイン,0
588,3070001040300,新規,0,2023-04-05,2023-04-05,株式会社ＨａＴＣＨ,,株式会社,群馬県,高崎市,京目町１５２２番地,,10,202,3700011,,,,,,,2023-04-05,1,,,,,ハッチ,0
589,3070003004889,新規,0,2023-04-05,2023-04-05,合同会社Ａｔｔｒａｃｔ,,合同会社,群馬県,高崎市,旭町２５番地山崎ビル２階,,10,202,3700052,,,,,,,2023-04-05,1,,,,,アトラクト,0
591,3080005007526,新規,0,2023-04-05,2023-04-05,フォンテ協同組合,,その他の設立登記法人,静岡県,静岡市駿河区,広野１丁目３番１号,,22,102,4210121,,,,,,,2023-04-05,1,,,,,フォンテ,0
594,3080101023897,新規,0,2023-04-05,2023-04-05,株式会社キリク,,株式会社,静岡県,富士宮市,東阿幸地１５６番地の１,,22,207,4180071,,,,,,,2023-04-05,1,,,,,キリク,0
595,3080401026410,新規,0,2023-04-05,2023-04-05,アットワンス株式会社,,株式会社,静岡県,浜松市浜北区,於呂１９９４番地の３,,22,136,4340015,,,,,,,2023-04-05,1,,,,,アットワンス,0
596,3100001036294,新規,0,2023-04-05,2023-04-05,株式会社保高組,,株式会社,長野県,松本市,横田４丁目６番１９号,,20,202,3900804,,,,,,,2023-04-05,1,,,,,ホタカグミ,0
608,3120001253680,新規,0,2023-04-05,2023-04-05,株式会社ＴＯＰエージェント,,株式会社,大阪府,大阪市中央区,博労町２丁目２－１３大阪堺筋ビル８Ｆ,,27,128,5410059,,,,,,,2023-04-05,1,,,,,トップエージェント,0
609,3120001253714,新規,0,2023-04-05,2023-04-05,株式会社ＭＫＧ,,株式会社,大阪府,門真市,新橋町２５番１５号新橋マンション１Ｆ,,27,223,5710048,,,,,,,2023-04-05,1,,,,,エムケイジー,0
610,3120001253730,新規,0,2023-04-05,2023-04-05,ウィルゴー株式会社,,株式会社,大阪府,大阪市北区,梅田１丁目２番２号大阪駅前第２ビル１２－１２,,27,127,5300001,,,,,,,2023-04-05,1,,,,,ウィルゴー,0
611,3120001253739,新規,0,2023-04-05,2023-04-05,アクア工業株式会社,,株式会社,大阪府,大阪市住吉区,山之内２丁目１１番２４号,,27,120,5580023,,,,,,,2023-04-05,1,,,,,アクアコウギョウ,0
612,3120001253747,新規,0,2023-04-05,2023-04-05,株式会社Ｇｒｉｐ,,株式会社,大阪府,大阪市西区,京町堀１丁目８番３５号四ツ橋鴻池ビル９０１,,27,106,5500003,,,,,,,2023-04-05,1,,,,,グリップ,0
616,3120101067279,新規,0,2023-04-05,2023-04-05,株式会社ＣＨＡＩＮＯＥＬＬ,,株式会社,大阪府,堺市西区,上２２０番地４,,27,144,5938311,,,,,,,2023-04-05,1,,,,,シェノエル,0
620,3120901047348,新規,0,2023-04-05,2023-04-05,株式会社ＥＳＳＥ,,株式会社,大阪府,吹田市,青山台２丁目１－１５,,27,205,5650875,,,,,,,2023-04-05,1,,,,,エッセ,0
625,3130001073987,新規,0,2023-04-05,2023-04-05,獣医療先端科学技術株式会社,,株式会社,京都府,京都市上京区,紙屋川町１０３８－２７サンライズ北野５０１号,,26,102,6028384,,,,,,,2023-04-05,1,,,,,ジュウイリョウセンタンカガクギジュツ,0
626,3130001073995,新規,0,2023-04-05,2023-04-05,株式会社シェイプ,,株式会社,京都府,京都市中京区,壬生賀陽御所町２８番地３,,26,104,6048811,,,,,,,2023-04-05,1,,,,,シェイプ,0
627,3130001074003,新規,0,2023-04-05,2023-04-05,株式会社堂本造園,,株式会社,京都府,京都市右京区,梅津後藤町１５番地７,,26,108,6150933,,,,,,,2023-04-05,1,,,,,ドウモトゾウエン,0
629,3130003008636,新規,0,2023-04-05,2023-04-05,ｅＴＥＣ合同会社,,合同会社,京都府,京都市北区,大将軍東鷹司町１２０番地,,26,101,6038333,,,,,,,2023-04-05,1,,,,,イーテック,0
638,3140001129607,新規,0,2023-04-05,2023-04-05,キイロイトリほけん株式会社,,株式会社,兵庫県,神戸市垂水区,大町５丁目１番５号,,28,108,6550014,,,,,,,2023-04-05,1,,,,,キイロイトリホケン,0
639,3140001129631,新規,0,2023-04-05,2023-04-05,ながお工建株式会社,,株式会社,兵庫県,神戸市北区,道場町日下部１５２９番地,,28,109,6511505,,,,,,,2023-04-05,1,,,,,ナガオコウケン,0
645,3140005026552,新規,0,2023-04-05,2023-04-05,アジアグローリーサポート協同組合,,その他の設立登記法人,兵庫県,尼崎市,道意町１丁目２番地の１１,,28,202,6600083,,,,,,,2023-04-05,1,,,,,アジアグローリーサポート,0
646,3140005026560,新規,0,2023-04-05,2023-04-05,医療法人瑞湊会,,その他の設立登記法人,兵庫県,芦屋市,大原町５－２２セルフリッジ芦屋１０１,,28,206,6590092,,,,,,,2023-04-05,1,,,,,ズイソウカイ,0
648,3150001026282,新規,0,2023-04-05,2023-04-05,鳥取小水力発電株式会社,,株式会社,奈良県,吉野郡下市町,大字新住１１１８番地,,29,443,6380045,,,,,,,2023-04-05,1,,,,,トットリショウスイリョクハツデン,0
653,3160001024946,新規,0,2023-04-05,2023-04-05,株式会社ＧＯＤ‐ＵＮＩＯＮ,,株式会社,滋賀県,近江八幡市,安土町東老蘇１８３７番地,,25,204,5211332,,,,,,,2023-04-05,1,,,,,ゴッドユニオン,0
654,3160003002842,新規,0,2023-04-05,2023-04-05,デザインカロン合同会社,,合同会社,滋賀県,大津市,打出浜２‐１コラボしが２１、４１３‐Ｄ１,,25,201,5200806,,,,,,,2023-04-05,1,,,,,デザインカロン,0
656,3170001017536,新規,0,2023-04-05,2023-04-05,ニューライフニューデザイン株式会社,,株式会社,和歌山県,西牟婁郡白浜町,２９２７番地の１４３５,,30,401,6492211,,,,,,,2023-04-05,1,,,,,ニューライフニューデザイン,0
658,3170005007005,新規,0,2023-04-05,2023-04-05,一般社団法人和歌山県設備設計事務所協会,,その他の設立登記法人,和歌山県,和歌山市,湊通丁北１丁目１－８和歌山県建設会館３階,,30,201,6408262,,,,,,,2023-04-05,1,,,,,ワカヤマケンセツビセッケイジムショキョウカイ,0
665,3180001155558,新規,0,2023-04-05,2023-04-05,株式会社セラフィックアンドソリッド,,株式会社,愛知県,春日井市,大手田酉町１丁目９番地１６,,23,206,4860806,,,,,,,2023-04-05,1,,,,,セラフィックアンドソリッド,0
666,3180001155616,新規,0,2023-04-05,2023-04-05,株式会社Ｏｎｅ　ｗａｙ,,株式会社,愛知県,名古屋市西区,浄心本通３丁目４５番地６猪村ビル２階,,23,104,4510073,,,,,,,2023-04-05,1,,,,,ワンウェイ,0
678,3200001041144,新規,0,2023-04-05,2023-04-05,Ｍ’ｓコンサルタント株式会社,,株式会社,岐阜県,各務原市,那加雄飛ケ丘町１７番地２０,,21,213,5040835,,,,,,,2023-04-05,1,,,,,エムズコンサルタント,0
682,3220001025335,新規,0,2023-04-05,2023-04-05,株式会社ホワイトピーク,,株式会社,石川県,白山市,桑島１０号１番地４７,,17,210,9202502,,,,,,,2023-04-05,1,,,,,ホワイトピーク,0
686,3240001061246,新規,0,2023-04-05,2023-04-05,株式会社ワンテンス,,株式会社,広島県,福山市,花園町２丁目６番２４号,,34,207,7200803,,,,,,,2023-04-05,1,,,,,ワンテンス,0
687,3240001061279,新規,0,2023-04-05,2023-04-05,株式会社ＵＰ　ＦＩＥＬＤ,,株式会社,広島県,広島市西区,庚午中３丁目１２番１５号,,34,104,7330822,,,,,,,2023-04-05,1,,,,,アップフィールド,0
688,3240001061287,新規,0,2023-04-05,2023-04-05,株式会社Ｒ’ｓ,,株式会社,広島県,広島市東区,戸坂出江２丁目８番７号２Ｆ,,34,102,7320016,,,,,,,2023-04-05,1,,,,,アールズ,0
691,3240005015553,新規,0,2023-04-05,2023-04-05,ひろしま農業協同組合,,その他の設立登記法人,広島県,東広島市,西条栄町１０番３５号,,34,212,7390015,,,,,,広島県廿日市市宮内４４７３番地の１佐伯中央農業協同組合（5240005006848）と広島県安芸郡海田町窪町８番８号安芸農業協同組合（2240005010134）と広島県呉市西中央一丁目２番２５号呉農業協同組合（1240005006430）と広島県東広島市西条栄町１０番３５号広島中央農業協同組合（9240005003718）と広島県東広島市安芸津町三津４２５８番地１芸南農業協同組合（9240005004063）と広島県三原市皆実四丁目７番２８号三原農業協同組合（9240005011910）と広島県安芸高田市吉田町常友１２１０番地広島北部農業協同組合（1240005004954）と広島県三次市十日市東三丁目１番１号三次農業協同組合（7240005004651）と広島県庄原市西本町二丁目１４番１号庄原農業協同組合（9240005005202）の合併により設立,2023-04-05,1,,,,,ヒロシマ,0
695,3260001037806,新規,0,2023-04-05,2023-04-05,株式会社モデュロ建築デザイン,,株式会社,岡山県,岡山市中区,中島７２番地２０,,33,102,7038252,,,,,,,2023-04-05,1,,,,,モデュロケンチクデザイン,0
696,3260001037814,新規,0,2023-04-05,2023-04-05,ＫＥＮＫＥＮ株式会社,,株式会社,岡山県,岡山市南区,古新田１６０６番地２,,33,104,7010203,,,,,,,2023-04-05,1,,,,,ケンケン,0
697,3260001037822,新規,0,2023-04-05,2023-04-05,ＫＵＲＡＳＵＭＵ株式会社,,株式会社,岡山県,浅口市,金光町占見１５２５番地１,,33,216,7190105,,,,,,,2023-04-05,1,,,,,クラスム,0
699,3260003004275,新規,0,2023-04-05,2023-04-05,合同会社サウ,,合同会社,岡山県,倉敷市,昭和１丁目２番３１号朝日プラザ倉敷エグゼ１４‐１１０３号,,33,202,7100057,,,,,,,2023-04-05,1,,,,,サウ,0
700,3260005011212,新規,0,2023-04-05,2023-04-05,医療法人社団廣心会,,その他の設立登記法人,岡山県,岡山市北区,西花尻１２３９番地１,,33,101,7010136,,,,,,,2023-04-05,1,,,,,コウシンカイ,0
701,3270005005551,新規,0,2023-04-05,2023-04-05,一般社団法人みんなの実家,,その他の設立登記法人,鳥取県,鳥取市,南吉方３丁目２１５番地,,31,201,6800843,,,,,,,2023-04-05,1,,,,,ミンナノジッカ,0
702,3290001100924,新規,0,2023-04-05,2023-04-05,株式会社美創,,株式会社,福岡県,福岡市東区,土井１丁目１８番３５号－１０２号,,40,131,8130032,,,,,,,2023-04-05,1,,,,,ビソウ,0
704,3290003013736,新規,0,2023-04-05,2023-04-05,合同会社九州メディカルライフ,,合同会社,福岡県,糟屋郡志免町,王子１丁目２４番１９－３０５号,,40,343,8112209,,,,,,,2023-04-05,1,,,,,キュウシュウメディカルライフ,0
705,3290003013744,新規,0,2023-04-05,2023-04-05,合同会社溝口整骨院,,合同会社,福岡県,糸島市,前原東３丁目９－２３,,40,230,8191119,,,,,,,2023-04-05,1,,,,,ミゾグチセイコツイン,0
708,3310001018338,新規,0,2023-04-05,2023-04-05,株式会社Ｆａｂｒｅｘ,,株式会社,長崎県,諫早市,若葉町１７９番地１２,,42,204,8540064,,,,,,,2023-04-05,1,,,,,ファブレックス,0
709,3310003004542,新規,0,2023-04-05,2023-04-05,合同会社ＴＣメンテナンス,,合同会社,長崎県,諫早市,小船越町８６２番地１９コーポフローリアＣ棟１０１号室,,42,204,8540062,,,,,,,2023-04-05,1,,,,,ティーシーメンテナンス,0
710,3320001019657,新規,0,2023-04-05,2023-04-05,株式会社古賀工業,,株式会社,大分県,中津市,大字湯屋３０４番地４１,,44,203,8710023,,,,,,,2023-04-05,1,,,,,コガコウギョウ,0
711,3320001019665,新規,0,2023-04-05,2023-04-05,株式会社礼大,,株式会社,大分県,別府市,富士見町１１番３３号,,44,202,8740921,,,,,,,2023-04-05,1,,,,,レイダイ,0
712,3330001030712,新規,0,2023-04-05,2023-04-05,株式会社Ｋグランド,,株式会社,熊本県,阿蘇市,一の宮町手野６１４番地４,,43,214,8692601,,,,,,,2023-04-05,1,,,,,ケーグランド,0
713,3330001030737,新規,0,2023-04-05,2023-04-05,東和ウインド株式会社,,株式会社,熊本県,熊本市中央区,本山町２８８－１,,43,101,8600822,,,,,,,2023-04-05,1,,,,,トウワウインド,0
714,3340001025455,新規,0,2023-04-05,2023-04-05,株式会社ＴＨＥ　ＦＯＯＤ　ＢＡＮＤ,,株式会社,鹿児島県,奄美市,名瀬伊津部町１０番１３号,,46,222,8940021,,,,,,,2023-04-05,1,,,,,ザフードバンド,0
715,3340001025471,新規,0,2023-04-05,2023-04-05,株式会社フィールドＢ,,株式会社,鹿児島県,出水市,野田町下名５５７０番地,,46,208,8990502,,,,,,,2023-04-05,1,,,,,フィールドビー,0
720,3360001031773,新規,0,2023-04-05,2023-04-05,ＲＡＳ株式会社,,株式会社,沖縄県,那覇市,天久１丁目１１－５ユイマールセンター銘苅２Ｆ,,47,201,9000005,,,,,,,2023-04-05,1,,,,,アールエーエス,0
724,3410001013436,新規,0,2023-04-05,2023-04-05,株式会社森風パワー,,株式会社,秋田県,能代市,河戸川字北西山４８番地１,,05,202,0160171,,,,,,,2023-04-05,1,,,,,シンプウパワー,0
730,3430001088749,新規,0,2023-04-05,2023-04-05,株式会社ワンアンドオール,,株式会社,北海道,札幌市手稲区,手稲本町五条２丁目１１番３３号,,01,109,0060025,,,,,,,2023-04-05,1,,,,,ワンアンドオール,0
736,3460103001524,新規,0,2023-04-05,2023-04-05,合同会社前田重建,,合同会社,北海道,帯広市,西二十四条南２丁目１４番地６２,,01,207,0802474,,,,,,,2023-04-05,1,,,,,マエダジュウケン,0
741,3470003002381,新規,0,2023-04-05,2023-04-05,Ｍｉｍｉ‐Ｅ合同会社,,合同会社,香川県,高松市,牟礼町牟礼７６３番地３,,37,201,7610121,,,,,,,2023-04-05,1,,,,,ミミィー,0
752,3500005008596,新規,0,2023-04-05,2023-04-05,ＮＰＯ法人愛媛ランニングアカデミー,,その他の設立登記法人,愛媛県,松山市,南白水１丁目２０番地１１,,38,201,7910114,,,,,,,2023-04-05,1,,,,,エヒメランニングアカデミー,0
753,3700150077319,新規,0,2023-04-05,2016-11-16,海老名駅東口企業送迎車両ターミナル運営協議会,,その他,神奈川県,海老名市,めぐみ町６番２号,,14,215,2430438,,,,,,,2016-11-16,1,,,,,エビナエキヒガシグチキギヨウソウゲイシヤリヨウターミナルウンエイキヨウギカイ,0
754,3700150115169,新規,0,2023-04-05,2023-04-05,Ｈａｎｇｚｈｏｕ　Ｃｈｅｅｒｆｕｌ　Ｃｒｏｓｓ－Ｂｏｒｄｅｒ　Ｅ－Ｃｏｍｍｅｒｃｅ　Ｃｏ．，Ｌｔｄ,,外国会社等,,,,,,,,Ｎｏ．１４－４　Ｔｉａｎｃｈｕａｎｇ　Ｇａｒｄｅｎ，Ｙｉｎｈｕ　Ｓｔｒｅｅｔ，Ｆｕｙａｎｇ　Ｄｉｓｔｒｉｃｔ，Ｈａｎｇｚｈｏｕ　Ｃｉｔｙ，Ｚｈｅｊｉａｎｇ,,,,,,2023-04-05,1,,,,,ハンジョウシーラークワージンディエンズーシャンウーヨウシエンゴンスー,0
759,4010005036456,新規,0,2023-04-05,2023-04-05,ＲＢソーラーディルホールディングス一般社団法人,,その他の設立登記法人,東京都,千代田区,麹町２丁目８番地ＭＬＣ麹町ビル４階フィンポート税理士法人内,,13,101,1020083,,,,,,,2023-04-05,1,,,,,アールビーソーラーディルホールディングス,0
769,4010401173456,新規,0,2023-04-05,2023-04-05,株式会社Ｒｏｃｋｙ　Ｃａｐｉｔａｌ,,株式会社,東京都,港区,南青山１丁目３‐１,,13,103,1070062,,,,,,,2023-04-05,1,,,,,ロッキーキャピタル,0
770,4010401173480,新規,0,2023-04-05,2023-04-05,ネクスピュア株式会社,,株式会社,東京都,港区,六本木６丁目１０番１号六本木ヒルズ森タワー１６階,,13,103,1060032,,,,,,,2023-04-05,1,,,,,ネクスピュア,0
771,4010401173497,新規,0,2023-04-05,2023-04-05,株式会社信邦,,株式会社,東京都,港区,東麻布３丁目２０番７号,,13,103,1060044,,,,,,,2023-04-05,1,,,,,シンポウ,0
777,4010501050225,新規,0,2023-04-05,2023-04-05,株式会社空想用品舎,,株式会社,東京都,台東区,小島２丁目９番１０号台東デザイナーズビレッジ２０６,,13,106,1110056,,,,,,,2023-04-05,1,,,,,クウソウヨウヒンシャ,0
778,4010501050241,新規,0,2023-04-05,2023-04-05,株式会社アドワーク２,,株式会社,東京都,台東区,上野３丁目４番８号,,13,106,1100005,,,,,,,2023-04-05,1,,,,,アドワークツー,0
781,4010601062863,新規,0,2023-04-05,2023-04-05,株式会社ＮＥＯ　ＬＩＮＫＡＧＥ,,株式会社,東京都,墨田区,江東橋４丁目２２番１０号深谷ビル３－Ｃ室,,13,107,1300022,,,,,,,2023-04-05,1,,,,,ネオリンケージ,0
785,4011001153518,新規,0,2023-04-05,2023-04-05,株式会社流山開発Ａ,,株式会社,東京都,渋谷区,神泉町８番１３号,,13,113,1500045,,,,,,,2023-04-05,1,,,,,ナガレヤマカイハツエー,0
786,4011003016565,新規,0,2023-04-05,2023-04-05,合同会社ｃｏｎｖｅｒｔｅｄ,,合同会社,東京都,渋谷区,神宮前６丁目２３番４号桑野ビル２階,,13,113,1500001,,,,,,,2023-04-05,1,,,,,コンバーテッド,0
787,4011003016573,新規,0,2023-04-05,2023-04-05,合同会社俵座,,合同会社,東京都,渋谷区,神宮前４丁目２６番地２８号２Ｆ,,13,113,1500001,,,,,,,2023-04-05,1,,,,,タワラザ,0
792,4011101102390,新規,0,2023-04-05,2023-04-05,株式会社コンフィデンス・プロ,,株式会社,東京都,新宿区,新宿２丁目１９番１号,,13,104,1600022,,,,,,,2023-04-05,1,,,,,コンフィデンスプロ,0
793,4011101102399,新規,0,2023-04-05,2023-04-05,レガシーフリー株式会社,,株式会社,東京都,新宿区,西新宿６丁目３番１号新宿アイランドウイング６階,,13,104,1600023,,,,,,,2023-04-05,1,,,,,レガシーフリー,0
795,4011103012893,新規,0,2023-04-05,2023-04-05,合同会社ＲＣＥ,,合同会社,東京都,新宿区,上落合２丁目７番１４号,,13,104,1610034,,,,,,,2023-04-05,1,,,,,アールシーイー,0
807,4011501029119,新規,0,2023-04-05,2023-04-05,小天株式会社,,株式会社,東京都,荒川区,東尾久２丁目２番９号三祥ビル２２１,,13,118,1160012,,,,,,,2023-04-05,1,,,,,コテン,0
808,4011801042176,新規,0,2023-04-05,2023-04-05,ネクストギアーズ琉球株式会社,,株式会社,東京都,足立区,保木間４丁目２５番４号,,13,121,1210064,,,,,,,2023-04-05,1,,,,,ネクストギアーズリュウキュウ,0
816,4013301050535,新規,0,2023-04-05,2023-04-05,株式会社ベジセンター,,株式会社,東京都,豊島区,巣鴨５丁目８番６号,,13,116,1700002,,,,,,,2023-04-05,1,,,,,ベジセンター,0
822,4020001150920,新規,0,2023-04-05,2023-04-05,ＥＮドローン株式会社,,株式会社,神奈川県,横浜市都筑区,加賀原１丁目２４番８－６０６号,,14,118,2240055,,,,,,,2023-04-05,1,,,,,イーエヌドローン,0
823,4020001150929,新規,0,2023-04-05,2023-04-05,株式会社Ｗ‐ＦＩＮＡＮＣＥ,,株式会社,神奈川県,横浜市金沢区,鳥浜町１２番５６号,,14,108,2360002,,,,,,,2023-04-05,1,,,,,ダブルファイナンス,0
824,4020001150937,新規,0,2023-04-05,2023-04-05,株式会社ミースチン,,株式会社,神奈川県,横浜市西区,浅間町１丁目４番３号ウィザードビル４０２,,14,103,2200072,,,,,,,2023-04-05,1,,,,,ミースチン,0
825,4020001150945,新規,0,2023-04-05,2023-04-05,ヴィオニア・ジャパン・セーフティ・システムス株式会社,,株式会社,神奈川県,横浜市港北区,新横浜２丁目８番地１２,,14,109,2220033,,,,,,,2023-04-05,1,,,,,ヴィオニアジャパンセーフティシステムス,0
826,4020001150986,新規,0,2023-04-05,2023-04-05,株式会社ＫＵＷＡＭＡＮ,,株式会社,神奈川県,川崎市麻生区,多摩美２丁目１５番７号１０２みすきゃんさす多摩美,,14,137,2150002,,,,,,,2023-04-05,1,,,,,クワマン,0
827,4020001151010,新規,0,2023-04-05,2023-04-05,株式会社味珠,,株式会社,神奈川県,川崎市多摩区,登戸２５４３番地１,,14,135,2140014,,,,,,,2023-04-05,1,,,,,アジタマ,0
828,4020001151019,新規,0,2023-04-05,2023-04-05,株式会社リーコーポレーション,,株式会社,神奈川県,川崎市幸区,中幸町３丁目２４番地１ナイスアーバンステイツ川崎１００８,,14,132,2120012,,,,,,,2023-04-05,1,,,,,リーコーポレーション,0
830,4020003023637,新規,0,2023-04-05,2023-04-05,ａｎｄ　Ｆ合同会社,,合同会社,神奈川県,横浜市青葉区,新石川２丁目１４番地１２ローズウッドたまプラーザ３０８,,14,117,2250003,,,,,,,2023-04-05,1,,,,,アンドエフ,0
836,4030001153138,新規,0,2023-04-05,2023-04-05,株式会社靖海,,株式会社,埼玉県,越谷市,レイクタウン７丁目２４番地１－４２６号,,11,222,3430828,,,,,,,2023-04-05,1,,,,,セイカイ,0
839,4030003021508,新規,0,2023-04-05,2023-04-05,Ｓｏａｒ合同会社,,合同会社,埼玉県,さいたま市中央区,大戸２丁目４番１１号ドゥベルメゾンＣ２０２,,11,105,3380012,,,,,,,2023-04-05,1,,,,,ソアー,0
840,4030005021191,新規,0,2023-04-05,2023-04-05,医療法人社団主仰会,,その他の設立登記法人,埼玉県,春日部市,大衾６１０番地１０,,11,214,3440116,,,,,,,2023-04-05,1,,,,,シュコウカイ,0
845,4040001127743,新規,0,2023-04-05,2023-04-05,木本板金株式会社,,株式会社,千葉県,市原市,西野谷１０７番地１５,,12,219,2900014,,,,,,,2023-04-05,1,,,,,キモトバンキン,0
846,4040001127784,新規,0,2023-04-05,2023-04-05,株式会社福野興業,,株式会社,千葉県,白井市,根７８１番地の１０,,12,232,2701431,,,,,,,2023-04-05,1,,,,,フクノコウギョウ,0
847,4040001127801,新規,0,2023-04-05,2023-04-05,株式会社ＹＨＴ３３,,株式会社,千葉県,八街市,朝日４１２－１４,,12,230,2891101,,,,,,,2023-04-05,1,,,,,ワイエイチティサンジュウサン,0
850,4050003007380,新規,0,2023-04-05,2023-04-05,合同会社メドテックコンサルティング,,合同会社,茨城県,つくば市,上ノ室１９０４－２,,08,220,3050023,,,,,,,2023-04-05,1,,,,,メドテックコンサルティング,0
853,4060005010068,新規,0,2023-04-05,2023-04-05,医療法人淳誠会,,その他の設立登記法人,栃木県,下野市,薬師寺２８６６番地１,,09,216,3290431,,,,,,,2023-04-05,1,,,,,ジュンセイカイ,0
856,4070001040274,新規,0,2023-04-05,2023-04-05,株式会社ライフコット,,株式会社,群馬県,前橋市,大手町２丁目９番１４－１１０２号ライオンズ前橋大手町,,10,201,3710026,,,,,,,2023-04-05,1,,,,,ライフコット,0
857,4070001040282,新規,0,2023-04-05,2023-04-05,株式会社船山内装,,株式会社,群馬県,太田市,新道町９５番地４２,,10,205,3730037,,,,,,,2023-04-05,1,,,,,フナヤマナイソウ,0
858,4070001040290,新規,0,2023-04-05,2023-04-05,株式会社丸神,,株式会社,群馬県,高崎市,成田町３７番地３,,10,202,3700812,,,,,,,2023-04-05,1,,,,,マルシン,0
866,4080101023888,新規,0,2023-04-05,2023-04-05,株式会社フジキカイ,,株式会社,静岡県,沼津市,西間門２６２番地の１大成ビル１０１,,22,203,4100871,,,,,,,2023-04-05,1,,,,,フジキカイ,0
867,4080405007538,新規,0,2023-04-05,2023-04-05,医療法人社団雫翔会,,その他の設立登記法人,静岡県,掛川市,杉谷南１丁目１９番地の５,,22,213,4360030,,,,,,,2023-04-05,1,,,,,レイショウカイ,0
869,4100001036269,新規,0,2023-04-05,2023-04-05,株式会社Ｌａｇｏｐｕｓ,,株式会社,長野県,伊那市,長谷中尾２５９番地１,,20,209,3960404,,,,,,,2023-04-05,1,,,,,ラゴプス,0
870,4100001036293,新規,0,2023-04-05,2023-04-05,株式会社くらし信州,,株式会社,長野県,長野市,大字鶴賀３６８番地１南部ビル２Ｄ,,20,201,3800907,,,,,,,2023-04-05,1,,,,,クラシシンシュウ,0
871,4110001037398,新規,0,2023-04-05,2023-04-05,株式会社エムルーフ,,株式会社,新潟県,南魚沼市,津久野８８３番地５,,15,226,9496771,,,,,,,2023-04-05,1,,,,,エムルーフ,0
882,4120001253696,新規,0,2023-04-05,2023-04-05,株式会社シロモト,,株式会社,大阪府,交野市,倉治８丁目３５番６号,,27,230,5760051,,,,,,,2023-04-05,1,,,,,シロモト,0
883,4120001253713,新規,0,2023-04-05,2023-04-05,ＡＬＹＣＥ株式会社,,株式会社,大阪府,大阪市北区,曾根崎新地１丁目１３番２２号,,27,127,5300002,,,,,,,2023-04-05,1,,,,,アリス,0
884,4120001253738,新規,0,2023-04-05,2023-04-05,株式会社ＵＬＴＲＥＩＡ,,株式会社,大阪府,大阪市福島区,吉野２丁目１５－３サンシャインビル１階,,27,103,5530006,,,,,,,2023-04-05,1,,,,,ウルトレイア,0
885,4120001253746,新規,0,2023-04-05,2023-04-05,森機工株式会社,,株式会社,大阪府,寝屋川市,八幡台８番１０号,,27,215,5720014,,,,,,,2023-04-05,1,,,,,モリキコウ,0
886,4120001253762,新規,0,2023-04-05,2023-04-05,Ｔｕｒｎｔ　Ｕｐ　Ｔｅｃｈｎｏｌｏｇｉｅｓ株式会社,,株式会社,大阪府,大阪市北区,梅田１丁目２番２号大阪駅前第２ビル１２－１２,,27,127,5300001,,,,,,,2023-04-05,1,,,,,ターントアップテクノロジーズ,0
888,4120003023767,新規,0,2023-04-05,2023-04-05,時光会計合同会社,,合同会社,大阪府,寝屋川市,香里西之町２２番１０－１３０１号,,27,215,5720089,,,,,,,2023-04-05,1,,,,,トキミツカイケイ,0
889,4120005023542,新規,0,2023-04-05,2023-04-05,弁理士法人石田特許事務所,,その他の設立登記法人,大阪府,大阪市中央区,和泉町１丁目３番１４号,,27,128,5400019,,,,,,,2023-04-05,1,,,,,イシダトッキョジムショ,0
890,4120005023550,新規,0,2023-04-05,2023-04-05,弁護士法人岡田・村田法律事務所,,その他の設立登記法人,大阪府,大阪市北区,西天満２丁目３番１９号神光ビル６階,,27,127,5300047,,,,,,,2023-04-05,1,,,,,オカダムラタホウリツジムショ,0
892,4120901047339,新規,0,2023-04-05,2023-04-05,株式会社エイルパーク,,株式会社,大阪府,高槻市,五領町１４‐１８,,27,207,5690016,,,,,,,2023-04-05,1,,,,,エイルパーク,0
893,4120901047363,新規,0,2023-04-05,2023-04-05,株式会社ＳＦＪＫ,,株式会社,大阪府,茨木市,神田四丁目１４番５号,,27,211,5670000,,,,,,,2023-04-05,1,,,,,エスエフジェイケイ,0
895,4122001036858,新規,0,2023-04-05,2023-04-05,株式会社イマムラ,,株式会社,大阪府,八尾市,永畑町２丁目２番２３号,,27,212,5810083,,,,,,,2023-04-05,1,,,,,イマムラ,0
899,4130001074002,新規,0,2023-04-05,2023-04-05,株式会社芳村電気,,株式会社,京都府,八幡市,八幡柿ケ谷６番地の１８,,26,210,6148055,,,,,,,2023-04-05,1,,,,,ヨシムラデンキ,0
900,4130001074010,新規,0,2023-04-05,2023-04-05,株式会社ビレッジノース,,株式会社,京都府,京都市上京区,丸太町通衣棚西入今薬屋町３２７番地の６,,26,102,6028025,,,,,,,2023-04-05,1,,,,,ビレッジノース,0
908,4140001129606,新規,0,2023-04-05,2023-04-05,株式会社ＣＩＥＬＯ,,株式会社,兵庫県,神戸市中央区,栄町通２丁目４番７号ＮＲビル５０１,,28,110,6500023,,,,,,,2023-04-05,1,,,,,シエロ,0
910,4140003018914,新規,0,2023-04-05,2023-04-05,ＭＥＲ　ＧＲＯＵＰ合同会社,,合同会社,兵庫県,神戸市兵庫区,西出町１丁目１１－５神戸ハーバーサイドＬＡＰ１階１号室,,28,105,6520822,,,,,,,2023-04-05,1,,,,,メーグループ,0
911,4140003018922,新規,0,2023-04-05,2023-04-05,ＬＩＮＫＳＣＡＰＥ　ＤＹＮＡＭＩＣ　ＪＡＰＡＮ合同会社,,合同会社,兵庫県,神戸市中央区,相生町５丁目１７番１２－６０４号,,28,110,6500025,,,,,,,2023-04-05,1,,,,,リンクスケープダイナミックジャパン,0
918,4180001155581,新規,0,2023-04-05,2023-04-05,株式会社クリーンテクノシマダ,,株式会社,愛知県,名古屋市東区,東桜２丁目１４番１０号宝東新ハイツ８０１号室,,23,102,4610005,,,,,,,2023-04-05,1,,,,,クリーンテクノシマダ,0
919,4180001155697,新規,0,2023-04-05,2023-04-05,株式会社はなぶさ工業,,株式会社,愛知県,名古屋市千種区,今池５丁目１２番１５号,,23,101,4640850,,,,,,,2023-04-05,1,,,,,ハナブサコウギョウ,0
920,4180005020170,新規,0,2023-04-05,2023-04-05,一般社団法人ポイポイバトラー協会,,その他の設立登記法人,愛知県,名古屋市西区,新道２丁目６－２６,,23,104,4510043,,,,,,,2023-04-05,1,,,,,ポイポイバトラーキョウカイ,0
922,4190001030288,新規,0,2023-04-05,2023-04-05,株式会社アイリス,,株式会社,三重県,員弁郡東員町,大字大木１３２５番地４,,24,324,5110244,,,,,,,2023-04-05,1,,,,,アイリス,0
924,4210005010085,新規,0,2023-04-05,2023-04-05,特定非営利活動法人ＮＰＯ出村みらいプロジェクト,,その他の設立登記法人,福井県,坂井市,三国町神明２丁目６番２７号,,18,210,9130047,,,,,,,2023-04-05,1,,,,,エヌピーオーデムラミライプロジェクト,0
929,4230003001992,新規,0,2023-04-05,2023-04-05,合同会社感動人生,,合同会社,富山県,魚津市,本江１丁目１３番地,,16,204,9370805,,,,,,,2023-04-05,1,,,,,カンドウジンセイ,0
932,4240001061294,新規,0,2023-04-05,2023-04-05,ＬＩＦＥ　ＧＲＯＵＰ株式会社,,株式会社,広島県,広島市西区,庚午中１丁目１３番１４号,,34,104,7330822,,,,,,,2023-04-05,1,,,,,ライフグループ,0
934,4240003006082,新規,0,2023-04-05,2023-04-05,ＡＳＴＯＯ合同会社,,合同会社,広島県,広島市安佐南区,伴南５丁目８－３５,,34,105,7313168,,,,,,,2023-04-05,1,,,,,アスト,0
935,4260001037805,新規,0,2023-04-05,2023-04-05,株式会社ＹＭＤ,,株式会社,岡山県,総社市,原１８６７番地２,,33,208,7191324,,,,,,,2023-04-05,1,,,,,ワイエムディー,0
937,4260003004274,新規,0,2023-04-05,2023-04-05,合同会社サカエ工業,,合同会社,岡山県,和気郡和気町,日室５２３番地２５,,33,346,7090421,,,,,,,2023-04-05,1,,,,,サカエコウギョウ,0
939,4280001008911,新規,0,2023-04-05,2023-04-05,株式会社ＴＳＫ農縁,,株式会社,島根県,松江市,向島町１４０番地１,,32,201,6900841,,,,,,,2023-04-05,1,,,,,ティーエスケイノウエン,0
941,4290001101054,新規,0,2023-04-05,2023-04-05,株式会社Ｍｉｃｔｅｇｓ,,株式会社,福岡県,福岡市中央区,天神２丁目２番１２号Ｔ＆Ｊビルディング７Ｆ,,40,133,8100001,,,,,,,2023-04-05,1,,,,,マイクテッグス,0
942,4290001101087,新規,0,2023-04-05,2023-04-05,株式会社ＲｆｏｒＳ,,株式会社,福岡県,福岡市博多区,博多駅東１丁目１番２５号宝ビル１００５号室,,40,132,8120013,,,,,,,2023-04-05,1,,,,,アールフォアエス,0
943,4290003013735,新規,0,2023-04-05,2023-04-05,合同会社ＵＲＡＮＵＳ,,合同会社,福岡県,福岡市中央区,春吉３丁目２１番２８号,,40,133,8100003,,,,,,,2023-04-05,1,,,,,ウラノス,0
948,4290801029429,新規,0,2023-04-05,2023-04-05,株式会社００８建築工房,,株式会社,福岡県,北九州市八幡西区,松寿山３丁目９‐２,,40,109,8070855,,,,,,,2023-04-05,1,,,,,,0
950,4310001018337,新規,0,2023-04-05,2023-04-05,株式会社浦山管工設備,,株式会社,長崎県,西海市,西彼町平山郷２３２０番地２,,42,212,8513425,,,,,,,2023-04-05,1,,,,,ウラヤマカンコウセツビ,0
959,4330001030728,新規,0,2023-04-05,2023-04-05,株式会社Ｓｉｍｐｌｅ,,株式会社,熊本県,熊本市西区,城山半田２丁目５番４号,,43,103,8600064,,,,,,,2023-04-05,1,,,,,シンプル,0
964,4340001025462,新規,0,2023-04-05,2023-04-05,株式会社ＣＯＣＯＡＮ,,株式会社,鹿児島県,鹿屋市,西原４丁目１０番３５－１号,,46,203,8930064,,,,,,,2023-04-05,1,,,,,ココアン,0
965,4340003004092,新規,0,2023-04-05,2023-04-05,合同会社ＳＯＤＡＴＥ,,合同会社,鹿児島県,鹿児島市,大竜町３番６号ＳＴビル１Ｆ,,46,201,8920805,,,,,,,2023-04-05,1,,,,,ソダテ,0
968,4360001031789,新規,0,2023-04-05,2023-04-05,株式会社Ｔ’ｓ　Ｆａｍｉｌｙ,,株式会社,沖縄県,那覇市,小禄１丁目２６番１６号サンレジデンス小禄２０２号,,47,201,9010152,,,,,,,2023-04-05,1,,,,,ティーズファミリー,0
972,4400003003055,新規,0,2023-04-05,2023-04-05,合同会社ＲＥＳＴＥＬＬＡ,,合同会社,岩手県,盛岡市,東仙北１丁目１２番１５号,,03,201,0200862,,,,,,,2023-04-05,1,,,,,リステラ,0
974,4410001013451,新規,0,2023-04-05,2023-04-05,株式会社ＡＴｃｒｅａｔｅ,,株式会社,秋田県,大館市,柄沢字柄沢７６番地,,05,204,0170804,,,,,,,2023-04-05,1,,,,,エーティークリエイト,0
975,4420001018210,新規,0,2023-04-05,2023-04-05,株式会社工藤建築,,株式会社,青森県,黒石市,大字三島字村里４番地１,,02,204,0360536,,,,,,,2023-04-05,1,,,,,クドウケンチク,0
978,4460101007365,新規,0,2023-04-05,2023-04-05,株式会社元,,株式会社,北海道,帯広市,公園東町３丁目８番地２,,01,207,0800847,,,,,,,2023-04-05,1,,,,,ゲン,0
985,4700150115168,新規,0,2023-04-05,2023-04-05,Ｓｈｅｎｚｈｅｎ　Ｘｉａｏｌｉ　Ｔｅｃｈｎｏｌｏｇｙ　Ｃｏ．，Ｌｔｄ,,外国会社等,,,,,,,,Ｂｌｏｃｋ　Ｅ，Ｅ３０２，Ｂａｏａｎ　Ｚｈｉｇｕ　＃４　Ｙｉｎｔｉａｎ　Ｒｏａｄ　Ｘｉｘｉａｎｇ，Ｂａｏａｎ　Ｓｈｅｎｚｈｅｎ　Ｇｕａｎｇｄｏｎｇ　ＣＮ　５１８０００,,,,,,2023-04-05,1,,,,,シェンジェンシーシャオリーコージーヨウシエンゴンスー,0
988,5010001234129,新規,0,2023-04-05,2023-04-05,ＳｐｒｏｕｔＢｒｉｄｇｅ株式会社,,株式会社,東京都,文京区,白山５丁目１７－２３－２０８,,13,105,1120001,,,,,,,2023-04-05,1,,,,,スプラウトブリッジ,0
989,5010001234137,新規,0,2023-04-05,2023-04-05,株式会社トライアンフ,,株式会社,東京都,千代田区,麹町３丁目２番地９,,13,101,1020083,,,,,,,2023-04-05,1,,,,,トライアンフ,0
990,5010003040211,新規,0,2023-04-05,2023-04-05,横浜明神平風力発電合同会社,,合同会社,東京都,千代田区,丸の内３丁目１番１号東京共同会計事務所内,,13,101,1000005,,,,,,,2023-04-05,1,,,,,ヨコハマミョウジンダイラフウリョクハツデン,0
992,5010005036455,新規,0,2023-04-05,2023-04-05,ＲＢソーラーチコリホールディングス一般社団法人,,その他の設立登記法人,東京都,千代田区,麹町２丁目８番地ＭＬＣ麹町ビル４階フィンポート税理士法人内,,13,101,1020083,,,,,,,2023-04-05,1,,,,,アールビーソーラーチコリホールディングス,0
1002,5010401173455,新規,0,2023-04-05,2023-04-05,ＰＯＮＯ株式会社,,株式会社,東京都,港区,六本木７丁目１０番２０号六本木レジデンス１０１,,13,103,1060032,,,,,,,2023-04-05,1,,,,,ポノ,0
1020,5011001153500,新規,0,2023-04-05,2023-04-05,株式会社Ｉ．Ｏ,,株式会社,東京都,目黒区,上目黒３丁目３番１号篠塚ビル２０１,,13,110,1530051,,,,,,,2023-04-05,1,,,,,アイオー,0
1021,5011001153517,新規,0,2023-04-05,2023-04-05,株式会社流山開発Ｂ,,株式会社,東京都,渋谷区,神泉町８番１３号,,13,113,1500045,,,,,,,2023-04-05,1,,,,,ナガレヤマカイハツビー,0
1022,5011001153533,新規,0,2023-04-05,2023-04-05,Ｃｏｎｃｉｅｒ株式会社,,株式会社,東京都,渋谷区,広尾４丁目１番１５－１４０２号,,13,113,1500012,,,,,,,2023-04-05,1,,,,,コンシェル,0
1024,5011003016572,新規,0,2023-04-05,2023-04-05,ＴＨｅｅ　Ｆｏｕｎｄａｔｉｏｎ合同会社,,合同会社,東京都,渋谷区,東２丁目２３番８号,,13,113,1500011,,,,,,,2023-04-05,1,,,,,シーファウンデーション,0
1025,5011101102373,新規,0,2023-04-05,2023-04-05,ＥＳＮ　Ｔｅｃｈｎｏｌｏｇｙ　Ｊａｐａｎ株式会社,,株式会社,東京都,新宿区,西新宿１丁目４番１１号全研プラザビル,,13,104,1600023,,,,,,,2023-04-05,1,,,,,イーエスエヌテクノロジージャパン,0
1028,5011203004047,新規,0,2023-04-05,2023-04-05,合同会社キャッツパーム,,合同会社,東京都,中野区,中央２丁目７－６,,13,114,1640011,,,,,,,2023-04-05,1,,,,,キャッツパーム,0
1030,5011301028575,新規,0,2023-04-05,2023-04-05,株式会社第一,,株式会社,東京都,杉並区,下高井戸２丁目１０番３号,,13,115,1680073,,,,,,,2023-04-05,1,,,,,ダイイチ,0
1031,5011301028600,新規,0,2023-04-05,2023-04-05,株式会社ウィズ,,株式会社,東京都,杉並区,井草２丁目２０番１０号２０１号室,,13,115,1670021,,,,,,,2023-04-05,1,,,,,ウィズ,0
1033,5011403003955,新規,0,2023-04-05,2023-04-05,合同会社どんりゅう舎ＦＡＣＴＯＲＹ,,合同会社,東京都,板橋区,南常盤台２丁目１２番７－１０４号コーラルハイツ南常盤台,,13,119,1740072,,,,,,,2023-04-05,1,,,,,ドンリュウシャファクトリー,0
1035,5011501029118,新規,0,2023-04-05,2023-04-05,日本創研生物医薬株式会社,,株式会社,東京都,荒川区,南千住３丁目２７－２浅草ビル５０８,,13,118,1160003,,,,,,,2023-04-05,1,,,,,ニホンソウケンセイブツイヤク,0
1036,5011603003879,新規,0,2023-04-05,2023-04-05,合同会社Ｑｕａｌｙ,,合同会社,東京都,練馬区,西大泉６丁目７番地２０号１０７号室,,13,120,1780065,,,,,,,2023-04-05,1,,,,,クオリー,0
1038,5011801042175,新規,0,2023-04-05,2023-04-05,株式会社風,,株式会社,東京都,足立区,谷在家３丁目１７－１２良マンション３０２,,13,121,1230863,,,,,,,2023-04-05,1,,,,,カゼ,0
1039,5011801042183,新規,0,2023-04-05,2023-04-05,株式会社橋本工業,,株式会社,東京都,葛飾区,青戸６丁目２９番３号,,13,122,1250062,,,,,,,2023-04-05,1,,,,,ハシモトコウギョウ,0
1042,5012401040362,新規,0,2023-04-05,2023-04-05,株式会社エムティ商会,,株式会社,東京都,三鷹市,井口５丁目５番３１号,,13,204,1810011,,,,,,,2023-04-05,1,,,,,エムティショウカイ,0
1043,5012401040370,新規,0,2023-04-05,2023-04-05,株式会社Ｌａｎｔｅｒｎ,,株式会社,東京都,多摩市,関戸６丁目５１番地の２,,13,224,2060011,,,,,,,2023-04-05,1,,,,,ランタン,0
1044,5012801022233,新規,0,2023-04-05,2023-04-05,株式会社ＭＡＤＥＲＡ,,株式会社,東京都,東大和市,高木２丁目２００番地,,13,220,2070005,,,,,,,2023-04-05,1,,,,,マデラ,0
1045,5012801022241,新規,0,2023-04-05,2023-04-05,サンライト防災株式会社,,株式会社,東京都,立川市,柴崎町２丁目１４－２５,,13,202,1900023,,,,,,,2023-04-05,1,,,,,サンライトボウサイ,0
1053,5013301050550,新規,0,2023-04-05,2023-04-05,シャレオツ株式会社,,株式会社,東京都,豊島区,南池袋３丁目１４番１０号－３階,,13,116,1710022,,,,,,,2023-04-05,1,,,,,シャレオツ,0
1060,5020001150928,新規,0,2023-04-05,2023-04-05,株式会社ＴＡＩＳＨＩ,,株式会社,神奈川県,横浜市鶴見区,小野町３４番地２－１０２,,14,101,2300046,,,,,,,2023-04-05,1,,,,,タイシ,0
1061,5020001150936,新規,0,2023-04-05,2023-04-05,株式会社Ｃｒｅａｔｉｖｅ　Ｔｅｎｓｉｏｎ,,株式会社,神奈川県,横浜市港北区,大倉山４丁目２１番１９号,,14,109,2220037,,,,,,,2023-04-05,1,,,,,クリエイティブテンション,0
1062,5020001150944,新規,0,2023-04-05,2023-04-05,Ｃ‐Ｄｅｓｉｇｎ株式会社,,株式会社,神奈川県,横浜市中区,長者町３丁目７番地１１デュオステージ関内ＩＩ６０６,00129952,14,104,2310033,,,,,,,2023-04-05,1,,,,,シーデザイン,0
1063,5020001150985,新規,0,2023-04-05,2023-04-05,日本漏水調査上下水道修繕センター株式会社,,株式会社,神奈川県,横浜市戸塚区,平戸町１１２０番地１,,14,110,2440803,,,,,,,2023-04-05,1,,,,,ニホンロウスイチョウサジョウゲスイドウシュウゼンセンター,0
1064,5020003023636,新規,0,2023-04-05,2023-04-05,合同会社あずきなこうめ,,合同会社,神奈川県,横浜市金沢区,六浦南１丁目６番１－３０３号,,14,108,2360038,,,,,,,2023-04-05,1,,,,,アズキナコウメ,0
1065,5020003023644,新規,0,2023-04-05,2023-04-05,ＳＡＴＯＵ合同会社,,合同会社,神奈川県,川崎市川崎区,小田５丁目１８番７号,,14,131,2100846,,,,,,,2023-04-05,1,,,,,サトウ,0
1066,5020003023669,新規,0,2023-04-05,2023-04-05,合同会社ＲＯＴＯＭ,,合同会社,神奈川県,川崎市麻生区,片平４丁目１６番１９号,,14,137,2150023,,,,,,,2023-04-05,1,,,,,ロトム,0
1067,5021003012934,新規,0,2023-04-05,2023-04-05,Ｑｕｎｏ合同会社,,合同会社,神奈川県,秦野市,堀川１２８番地の３０,,14,211,2591305,,,,,,,2023-04-05,1,,,,,クノ,0
1070,5030001153104,新規,0,2023-04-05,2023-04-05,株式会社ニコ,,株式会社,埼玉県,蕨市,錦町６丁目３番２８号,,11,223,3350005,,,,,,,2023-04-05,1,,,,,ニコ,0
1071,5030001153153,新規,0,2023-04-05,2023-04-05,株式会社スパロウ,,株式会社,埼玉県,三郷市,彦成２丁目３８番地１,,11,237,3410003,,,,,,,2023-04-05,1,,,,,スパロウ,0
1073,5030003021498,新規,0,2023-04-05,2023-04-05,合同会社ＩＺＵＭＩ,,合同会社,埼玉県,ふじみ野市,北野２丁目８番６号２,,11,245,3560007,,,,,,,2023-04-05,1,,,,,イズミ,0
1074,5030003021507,新規,0,2023-04-05,2023-04-05,合同会社歩夢,,合同会社,埼玉県,さいたま市見沼区,東大宮６丁目３１番６号クレスト東大宮２０１,,11,104,3370051,,,,,,,2023-04-05,1,,,,,アユム,0
1075,5040001127742,新規,0,2023-04-05,2023-04-05,株式会社Ｂｉｇ　ｓｈｏｔ,,株式会社,千葉県,千葉市中央区,富士見２丁目１７番１２号シャインビルＩＩ３Ｆ－Ｂ,00129956,12,101,2600015,,,,,,,2023-04-05,1,,,,,ビッグショット,0
1076,5040001127759,新規,0,2023-04-05,2023-04-05,株式会社ビルド・ワークス,,株式会社,千葉県,成田市,玉造２丁目２５－８２,,12,211,2860011,,,,,,,2023-04-05,1,,,,,ビルドワークス,0
1077,5040001127767,新規,0,2023-04-05,2023-04-05,株式会社さんわウェルフェア,,株式会社,千葉県,市原市,磯ケ谷１２２５番地１,,12,219,2900204,,,,,,,2023-04-05,1,,,,,サンワウェルフェア,0
1079,5050001052601,新規,0,2023-04-05,2023-04-05,株式会社ぬりかえる,,株式会社,茨城県,古河市,諸川６４３番地２,,08,204,3060126,,,,,,,2023-04-05,1,,,,,ヌリカエル,0
1081,5050003007396,新規,0,2023-04-05,2023-04-05,エステック合同会社,,合同会社,茨城県,日立市,中成沢町４丁目１１番２４号,,08,202,3160033,,,,,,,2023-04-05,1,,,,,エステック,0
1089,5070001040281,新規,0,2023-04-05,2023-04-05,株式会社Ａｇａｐｅ,,株式会社,群馬県,伊勢崎市,宮子町３４２７番地４,,10,204,3720801,,,,,,,2023-04-05,1,,,,,アガペー,0
1090,5070001040298,新規,0,2023-04-05,2023-04-05,株式会社Ｌｉｎｏ．ＡＣ,,株式会社,群馬県,伊勢崎市,境島村２４９５番地８,,10,204,3700134,,,,,,,2023-04-05,1,,,,,リノエーシー,0
1091,5070003004887,新規,0,2023-04-05,2023-04-05,ＡｒｓＮｏｖａ合同会社,,合同会社,群馬県,前橋市,山王町１丁目１番地２コモンヒロセ２－１３,,10,201,3792123,,,,,,,2023-04-05,1,,,,,アルスノヴァ,0
1097,5080101023887,新規,0,2023-04-05,2023-04-05,Ｈｕｍｂｌｅ　Ｈｅａｒｔ株式会社,,株式会社,静岡県,沼津市,下香貫柿原２８５１番地の１デュ・エ・マ・ファミーユ１０１,,22,203,4100822,,,,,,,2023-04-05,1,,,,,ハンブルハート,0
1099,5090001018045,新規,0,2023-04-05,2023-04-05,株式会社ＢＲＩＧＨＴ　ＤＩＡＭＯＮＤ,,株式会社,山梨県,甲府市,国母２丁目２２番１０号グランドマンション国母４０６号室,,19,201,4000043,,,,,,,2023-04-05,1,,,,,ブライトダイヤモンド,0
1100,5100001036268,新規,0,2023-04-05,2023-04-05,株式会社新星,,株式会社,長野県,松本市,大字寿小赤７７６番地１,,20,202,3990024,,,,,,,2023-04-05,1,,,,,シンセイ,0
1101,5100001036276,新規,0,2023-04-05,2023-04-05,株式会社大成ダイカスト工業,,株式会社,長野県,安曇野市,明科東川手１３２３９番地１,,20,220,3997101,,,,,,,2023-04-05,1,,,,,タイセイダイカストコウギョウ,0
1102,5100003006954,新規,0,2023-04-05,2023-04-05,合同会社ＬＬＹＬ,,合同会社,長野県,長野市,中御所２丁目２４－１９メゾンシャンドーレ１０２,,20,201,3800935,,,,,,,2023-04-05,1,,,,,エルエルワイエル,0
1113,5120001253646,新規,0,2023-04-05,2023-04-05,株式会社三善物流,,株式会社,大阪府,大阪市中央区,博労町４丁目５番６号野上ビル２０２号室,,27,128,5410059,,,,,,,2023-04-05,1,,,,,サイゼンブツリュウ,0
1114,5120001253695,新規,0,2023-04-05,2023-04-05,株式会社ｖｉｓｉｏｎ３,,株式会社,大阪府,大阪市北区,梅田１丁目２番２号大阪駅前第２ビル１２－１２,,27,127,5300001,,,,,,,2023-04-05,1,,,,,ヴィジョンスリー,0
1115,5120001253729,新規,0,2023-04-05,2023-04-05,ＥＯＧ株式会社,,株式会社,大阪府,大阪市旭区,大宮１丁目８番２３号,,27,117,5350002,,,,,,,2023-04-05,1,,,,,イーオージー,0
1116,5120001253737,新規,0,2023-04-05,2023-04-05,株式会社ＫＮプロダクション,,株式会社,大阪府,門真市,垣内町５番２２－１０１号,,27,223,5710065,,,,,,,2023-04-05,1,,,,,ケーエヌプロダクション,0
1117,5120001253803,新規,0,2023-04-05,2023-04-05,株式会社ライフアイテムサポート,,株式会社,大阪府,大阪市北区,豊崎３丁目１５－５,,27,127,5310072,,,,,,,2023-04-05,1,,,,,ライフアイテムサポート,0
1120,5120003023733,新規,0,2023-04-05,2023-04-05,合同会社中西工業,,合同会社,大阪府,大阪市中央区,瓦町４丁目３番７号ＶＯＲＴ御堂筋本町５０３号,,27,128,5410048,,,,,,,2023-04-05,1,,,,,ナカニシコウギョウ,0
1121,5120003023758,新規,0,2023-04-05,2023-04-05,合同会社Ｌｉｓｔ,,合同会社,大阪府,大阪市北区,梅田１丁目２番２号大阪駅前第２ビル１２－１２,,27,127,5300001,,,,,,,2023-04-05,1,,,,,リスト,0
1125,5120101067236,新規,0,2023-04-05,2023-04-05,株式会社Ｃｏｚｙ　ｓｐａｃｅ,,株式会社,大阪府,岸和田市,加守町４丁目１２番１８号,,27,202,5960042,,,,,,,2023-04-05,1,,,,,コージースペース,0
1126,5120101067269,新規,0,2023-04-05,2023-04-05,株式会社エバーグリーン・ウーノ,,株式会社,大阪府,和泉市,府中町３丁目７番１４号,,27,219,5940071,,,,,,,2023-04-05,1,,,,,エバーグリーンウーノ,0
1127,5120101067285,新規,0,2023-04-05,2023-04-05,株式会社石川不動産,,株式会社,大阪府,堺市中区,福田４５－１,,27,142,5998241,,,,,,,2023-04-05,1,,,,,イシカワフドウサン,0
1130,5120105009705,新規,0,2023-04-05,2023-04-05,一般社団法人つながり,,その他の設立登記法人,大阪府,泉南郡岬町,淡輪７１０番地の２,,27,366,5990301,,,,,,,2023-04-05,1,,,,,ツナガリ,0
1131,5120901047346,新規,0,2023-04-05,2023-04-05,ニシタ商事株式会社,,株式会社,大阪府,吹田市,南金田１丁目１番１号,,27,205,5640044,,,,,,,2023-04-05,1,,,,,ニシタショウジ,0
1132,5120901047362,新規,0,2023-04-05,2023-04-05,株式会社ビューティーリオン,,株式会社,大阪府,池田市,石橋１丁目１３－３,,27,204,5630032,,,,,,,2023-04-05,1,,,,,ビューティーリオン,0
1134,5122001036849,新規,0,2023-04-05,2023-04-05,株式会社岩塩工房,,株式会社,大阪府,東大阪市,若草町９番２５号,,27,227,5798056,,,,,,,2023-04-05,1,,,,,ガンエンコウボウ,0
1135,5122001036857,新規,0,2023-04-05,2023-04-05,株式会社ＺＥＲＯ　ｓｙｓｔｅｍ,,株式会社,大阪府,八尾市,陽光園１丁目９番１５号秀和レジデンス６１１号,,27,212,5810086,,,,,,,2023-04-05,1,,,,,ゼロシステム,0
1138,5130001073993,新規,0,2023-04-05,2023-04-05,ＫＯＪＩＭＡ株式会社,,株式会社,京都府,船井郡京丹波町,口八田向井３２番地,,26,407,6220223,,,,,,,2023-04-05,1,,,,,コジマ,0
1140,5130003008626,新規,0,2023-04-05,2023-04-05,Ｎ２Ｔ‐ＢＡＳＥ合同会社,,合同会社,京都府,福知山市,字堀２４４９番地の２,,26,201,6200000,,,,,,,2023-04-05,1,,,,,エヌツーティベース,0
1147,5140001129605,新規,0,2023-04-05,2023-04-05,株式会社ハークライン,,株式会社,兵庫県,三田市,天神３丁目２７－２０,,28,219,6691531,,,,,,,2023-04-05,1,,,,,ハークライン,0
1149,5140003018913,新規,0,2023-04-05,2023-04-05,合同会社山輝,,合同会社,兵庫県,神戸市北区,中里町１丁目８番地の１３２,,28,109,6511103,,,,,,,2023-04-05,1,,,,,ヤマキ,0
1159,5180001155614,新規,0,2023-04-05,2023-04-05,株式会社Ｐｕｅｒｔｏ　Ｏｒｉｅｎｔａｌ,,株式会社,愛知県,名古屋市天白区,一本松１丁目４０６番地ファミリアーレ天白植田１５０７号,,23,116,4680008,,,,,,,2023-04-05,1,,,,,プエルトオリエンタル,0
1164,5190005011804,新規,0,2023-04-05,2023-04-05,一般社団法人ゆめが丘地区住民自治協議会,,その他の設立登記法人,三重県,伊賀市,ゆめが丘６丁目６番地,,24,216,5180131,,,,,,,2023-04-05,1,,,,,ユメガオカチクジュウミンジチキョウギカイ,0
1166,5200001041142,新規,0,2023-04-05,2023-04-05,株式会社ＦＩＣ,,株式会社,岐阜県,瑞穂市,馬場４９３番地１０,,21,216,5010201,,,,,,,2023-04-05,1,,,,,エフアイシー,0
1167,5200001041150,新規,0,2023-04-05,2023-04-05,ＯＬＤ　ＲＯＯＫＩＥ株式会社,,株式会社,岐阜県,岐阜市,金宝町１丁目１番,,21,201,5008847,,,,,,,2023-04-05,1,,,,,オールドルーキー,0
1169,5220001025341,新規,0,2023-04-05,2023-04-05,株式会社ＣＡＮＶＡＳ,,株式会社,石川県,金沢市,示野町３９番地,,17,201,9200059,,,,,,,2023-04-05,1,,,,,キャンヴァス,0
1172,5230001019763,新規,0,2023-04-05,2023-04-05,株式会社ＨＩＫホールディングス,,株式会社,富山県,黒部市,田家新６０８番地,,16,207,9380045,,,,,,,2023-04-05,1,,,,,エイチアイケーホールディングス,0
1177,5240001061293,新規,0,2023-04-05,2023-04-05,株式会社ＭＴＦ,,株式会社,広島県,広島市安佐南区,西原４丁目５番３２－１０２号,,34,105,7310113,,,,,,,2023-04-05,1,,,,,エムティーエフ,0
1180,5240003006081,新規,0,2023-04-05,2023-04-05,合同会社ＫＩＮＧ,,合同会社,広島県,廿日市市,河津原６１７－４,,34,213,7380204,,,,,,,2023-04-05,1,,,,,,0
1185,5260001037787,新規,0,2023-04-05,2023-04-05,株式会社ＳＧ,,株式会社,岡山県,岡山市南区,浦安南町５７９番地,,33,104,7028024,,,,,,,2023-04-05,1,,,,,エスジー,0
1186,5260001037804,新規,0,2023-04-05,2023-04-05,株式会社浮田農産,,株式会社,岡山県,岡山市東区,豊田１７４番地,,33,103,7048162,,,,,,,2023-04-05,1,,,,,ウキタノウサン,0
1187,5260001037812,新規,0,2023-04-05,2023-04-05,株式会社Ｔ’ｓ‐ｔｅｃ,,株式会社,岡山県,赤磐市,山陽２丁目５番３号,,33,213,7090827,,,,,,,2023-04-05,1,,,,,ティーズテック,0
1193,5290001101061,新規,0,2023-04-05,2023-04-05,株式会社Ｍｅｅｔｓ,,株式会社,福岡県,福岡市中央区,渡辺通１丁目１番２号,,40,133,8100004,,,,,,,2023-04-05,1,,,,,ミーツ,0
1194,5290001101078,新規,0,2023-04-05,2023-04-05,株式会社フォルトゥナ,,株式会社,福岡県,福岡市中央区,草香江１丁目２番１５号ウェルアクセス草香江３０３,,40,133,8100045,,,,,,,2023-04-05,1,,,,,フォルトゥナ,0
1195,5290001101086,新規,0,2023-04-05,2023-04-05,プロックスサプライ株式会社,,株式会社,福岡県,福岡市西区,小戸３丁目２６番１１号,,40,135,8190001,,,,,,,2023-04-05,1,,,,,プロックスサプライ,0
1196,5290001101111,新規,0,2023-04-05,2023-04-05,株式会社カズマッスル,,株式会社,福岡県,柳川市,大和町栄９６番地１,,40,207,8390252,,,,,,,2023-04-05,1,,,,,カズマッスル,0
1206,5310001018336,新規,0,2023-04-05,2023-04-05,株式会社長崎コンピューターサポート,,株式会社,長崎県,西彼杵郡長与町,本川内郷１９２４番地,,42,307,8512122,,,,,,,2023-04-05,1,,,,,ナガサキコンピューターサポート,0
1207,5310005008671,新規,0,2023-04-05,2023-04-05,弁護士法人佐世保総合法律事務所,,その他の設立登記法人,長崎県,佐世保市,高天町６番３号,,42,202,8570802,,,,,,,2023-04-05,1,,,,,サセボソウゴウホウリツジムショ,0
1208,5320001019671,新規,0,2023-04-05,2023-04-05,株式会社アイワークス,,株式会社,大分県,大分市,大字葛木２７７番地の４,,44,201,8700133,,,,,,,2023-04-05,1,,,,,アイワークス,0
1213,5330001030727,新規,0,2023-04-05,2023-04-05,株式会社大健,,株式会社,熊本県,菊池市,泗水町吉富２８４５番地１,,43,210,8611201,,,,,,,2023-04-05,1,,,,,ダイケン,0
1214,5330001030735,新規,0,2023-04-05,2023-04-05,プライアンテック株式会社,,株式会社,熊本県,阿蘇郡西原村,大字小森２１４５－４,,43,432,8612402,,,,,,,2023-04-05,1,,,,,プライアンテック,0
1215,5340001025461,新規,0,2023-04-05,2023-04-05,株式会社折田水産,,株式会社,鹿児島県,指宿市,十二町２２８７番地１,,46,210,8910403,,,,,,,2023-04-05,1,,,,,オリタスイサン,0
1216,5340005009584,新規,0,2023-04-05,2023-04-05,一般社団法人ｓｏｌｅｉｌ,,その他の設立登記法人,鹿児島県,鹿屋市,東原町６８７４番地４,,46,203,8930021,,,,,,,2023-04-05,1,,,,,ソレイユ,0
1221,5360001031788,新規,0,2023-04-05,2023-04-05,株式会社Ｅｎｍｏｏｎ,,株式会社,沖縄県,那覇市,泊１丁目３番２号沖縄ゼネラルグループビル４階,,47,201,9000012,,,,,,,2023-04-05,1,,,,,エンムーン,0
1224,5370003006060,新規,0,2023-04-05,2023-04-05,合同会社ｐａｒａｎｇｓａｅ,,合同会社,宮城県,宮城郡利府町,菅谷台１丁目５番地５,,04,406,9810135,,,,,,,2023-04-05,1,,,,,パランセ,0
1232,5460101007364,新規,0,2023-04-05,2023-04-05,株式会社十勝ブレンド,,株式会社,北海道,帯広市,西二十五条南１丁目２番地,,01,207,0802475,,,,,,,2023-04-05,1,,,,,トカチブレンド,0
1233,5470003002388,新規,0,2023-04-05,2023-04-05,合同会社ジョワイユ,,合同会社,香川県,高松市,西の丸町１０番２１号ジョア西の丸６０１,,37,201,7600021,,,,,,,2023-04-05,1,,,,,ジョワイユ,0
1237,5500001024843,新規,0,2023-04-05,2023-04-05,株式会社オーネクスト,,株式会社,愛媛県,松山市,高井町６番地３０,,38,201,7911111,,,,,,,2023-04-05,1,,,,,オーネクスト,0
1240,5500005008594,新規,0,2023-04-05,2023-04-05,天満農事實行組合,,その他の設立登記法人,愛媛県,大洲市,田口,,38,207,7950063,,,,,,,2023-04-05,1,,,,,テンマノウギョウジッコウクミアイ,0
1241,5700150115167,新規,0,2023-04-05,2023-04-05,Ｓｈｅｎｚｈｅｎ　Ｒｕｉｎｉｎｇ　Ｅ－Ｃｏｍｍｅｒｃｅ　Ｔｅｃｈｎｏｌｏｇｙ　Ｃｏ．，Ｌｔｄ,,外国会社等,,,,,,,,Ｒｏｏｍ　３１３，Ｂｌｏｃｋ　Ｅ，Ｈｕａｆｅｎｇ　Ｚｈｉｇｕ　Ｉｎｎｏｖａｔｉｏｎ　Ｐａｒｋ　ＮＯ．４　Ｙｉｎｔｉａｎ　Ｒｏａｄ，Ｘｉｘｉａｎｇ　Ｃｏｍｍｕｎｉｔｙ，Ｂａｏａｎ　Ｄｉｓｔｒｉｃｔ　ｓｈｅｎｚｈｅｎ　ｇｕａｎｇｄｏｎｇ　ＣＨＩＮＡ　５１８０００,,,,,,2023-04-05,1,,,,,シェンジェンシールイニンディエンズーシャンウーコージーヨウシエンゴンスー,0
1247,6010001234037,新規,0,2023-04-05,2023-04-05,株式会社Ｊａｐａｎ　Ｅｘｐｅｒｔ　Ｉｎｓｉｇｈｔｓ,,株式会社,東京都,千代田区,丸の内２丁目３番２号郵船ビルディング１階,,13,101,1000005,,,,,,,2023-04-05,1,,,,,ジャパンエキスパートインサイツ,0
1248,6010001234136,新規,0,2023-04-05,2023-04-05,株式会社久森,,株式会社,東京都,中央区,日本橋箱崎町１０番２号ＡＣＮ日本橋ビル５Ｆ,,13,102,1030015,,,,,,,2023-04-05,1,,,,,ヒサモリ,0
1252,6010003040210,新規,0,2023-04-05,2023-04-05,合同会社ｂｏｉｓ,,合同会社,東京都,中央区,銀座８丁目８－７第３ソワレドビル７階,,13,102,1040061,,,,,,,2023-04-05,1,,,,,ボア,0
1253,6010003040219,新規,0,2023-04-05,2023-04-05,合同会社ＫＲＦ１０４,,合同会社,東京都,千代田区,内幸町２丁目１番６号,,13,101,1000011,,,,,,,2023-04-05,1,,,,,ケーアールエフヒャクヨン,0
1256,6010005036446,新規,0,2023-04-05,2023-04-05,一般社団法人ファレスタ・パートナーズ,,その他の設立登記法人,東京都,千代田区,神田須田町１丁目１６番地ＲＡＸＡ神田須田町４階,,13,101,1010041,,,,,,,2023-04-05,1,,,,,ファレスタパートナーズ,0
1264,6010401173479,新規,0,2023-04-05,2023-04-05,ネクストＪ株式会社,,株式会社,東京都,港区,港南２丁目１６番７号,,13,103,1080075,,,,,,,2023-04-05,1,,,,,ネクストジェイ,0
1274,6010701044066,新規,0,2023-04-05,2023-04-05,株式会社ｅｌｉｆｅ,,株式会社,東京都,品川区,西五反田３丁目１１番６号,,13,109,1410031,,,,,,,2023-04-05,1,,,,,イーライフ,0
1279,6010901052785,新規,0,2023-04-05,2023-04-05,株式会社ＥｄｕＱｕｅｓｔ,,株式会社,東京都,世田谷区,鎌田３丁目１７番１号ベルフレール玉川３０７,,13,112,1570077,,,,,,,2023-04-05,1,,,,,,0
1280,6010901052802,新規,0,2023-04-05,2023-04-05,株式会社リグス,,株式会社,東京都,世田谷区,太子堂２丁目１２番１号,,13,112,1540004,,,,,,,2023-04-05,1,,,,,リグス,0
1281,6010903008067,新規,0,2023-04-05,2023-04-05,合同会社Ｔｈｉｎｇｓ　ｉｎ　Ｌｉｆｅ,,合同会社,東京都,世田谷区,北沢２丁目２－３メルヴェーユ北沢２０１,,13,112,1550031,,,,,,,2023-04-05,1,,,,,シングスインライフ,0
1285,6011001153499,新規,0,2023-04-05,2023-04-05,共和東洋株式会社,,株式会社,東京都,目黒区,平町１丁目２０番１７号平町アビタシオン１０２,,13,110,1520032,,,,,,,2023-04-05,1,,,,,キョウワトウヨウ,0
1286,6011001153524,新規,0,2023-04-05,2023-04-05,株式会社アノテーショナル,,株式会社,東京都,渋谷区,広尾１丁目８－２－７階,,13,113,1500012,,,,,,,2023-04-05,1,,,,,アノテーショナル,0
1287,6011001153532,新規,0,2023-04-05,2023-04-05,ニニ・グループ株式会社,,株式会社,東京都,渋谷区,本町５丁目１６－１１,,13,113,1510071,,,,,,,2023-04-05,1,,,,,ニニグループ,0
1292,6011101102397,新規,0,2023-04-05,2023-04-05,株式会社ＡＴＬＡＳ,,株式会社,東京都,新宿区,新宿５丁目１１番１３号富士新宿ビル４階,,13,104,1600022,,,,,,,2023-04-05,1,,,,,アトラス,0
1294,6011203004046,新規,0,2023-04-05,2023-04-05,合同会社Ｌｕｌｕｔｙ,,合同会社,東京都,中野区,野方６丁目５１番１０号エクセル野方３０１,,13,114,1650027,,,,,,,2023-04-05,1,,,,,,0
1295,6011301028590,新規,0,2023-04-05,2023-04-05,株式会社ワンジェーキッチン,,株式会社,東京都,杉並区,清水３丁目３１番１０号,,13,115,1670033,,,,,,,2023-04-05,1,,,,,ワンジェーキッチン,0
1300,6011501029117,新規,0,2023-04-05,2023-04-05,中葵製薬株式会社,,株式会社,東京都,荒川区,南千住３丁目２７－２浅草ビル５０８,,13,118,1160003,,,,,,,2023-04-05,1,,,,,ナカアオイセイヤク,0
1301,6011602003664,新規,0,2023-04-05,2023-04-05,有限会社幸伸商事,,有限会社,東京都,練馬区,関町南１丁目７番１号,,13,120,1770053,,,,,,,2023-04-05,1,,,,,コウシンショウジ,0
1304,6011701026129,新規,0,2023-04-05,2023-04-05,株式会社エヌ・アイ・シー,,株式会社,東京都,江戸川区,西小松川町３５番２号,,13,123,1320032,,,,,,,2023-04-05,1,,,,,エヌアイシー,0
1312,6012301013376,新規,0,2023-04-05,2023-04-05,株式会社Ｂｌｕｅｒａｉｉ,,株式会社,東京都,町田市,山崎町２０５４番地４,,13,209,1950074,,,,,,,2023-04-05,1,,,,,ブルーレイ,0
1316,6012801022240,新規,0,2023-04-05,2023-04-05,ＨａｒｔＤｅｓｉｇｎ株式会社,,株式会社,東京都,立川市,高松町３丁目２９番２９号,,13,202,1900011,,,,,,,2023-04-05,1,,,,,ハートデザイン,0
1325,6020001150943,新規,0,2023-04-05,2023-04-05,株式会社フレバランス,,株式会社,神奈川県,横浜市西区,北幸２丁目１０番地２８むつみビル３Ｆ,,14,103,2200004,,,,,,,2023-04-05,1,,,,,フレバランス,0
1326,6020001150951,新規,0,2023-04-05,2023-04-05,株式会社ＴＭ　ｃｏｒｐｏｒａｔｉｏｎ,,株式会社,神奈川県,横浜市旭区,今宿２丁目１２番３号,,14,112,2410817,,,,,,,2023-04-05,1,,,,,ティーエムコーポレーション,0
1327,6020001150968,新規,0,2023-04-05,2023-04-05,株式会社ＬｅａｄＸ,,株式会社,神奈川県,川崎市中原区,下小田中２丁目３３番３３号２０３,,14,133,2110041,,,,,,,2023-04-05,1,,,,,リードエックス,0
1328,6020001151009,新規,0,2023-04-05,2023-04-05,バーディコンサルティング株式会社,,株式会社,神奈川県,横浜市西区,北幸１丁目１１番１号,,14,103,2200004,,,,,,,2023-04-05,1,,,,,バーディコンサルティング,0
1330,6020003023635,新規,0,2023-04-05,2023-04-05,ＦＥＲＮＡ合同会社,,合同会社,神奈川県,川崎市宮前区,宮前平１丁目７番地６アウラ・ディ・サノ３０２,,14,136,2160006,,,,,,,2023-04-05,1,,,,,フェレナ,0
1331,6020003023668,新規,0,2023-04-05,2023-04-05,湊興業合同会社,,合同会社,神奈川県,横浜市磯子区,岡村１丁目２８番１３－２号,,14,107,2350021,,,,,,,2023-04-05,1,,,,,ミナトコウギョウ,0
1337,6021003012941,新規,0,2023-04-05,2023-04-05,アンサンブル訪問看護ステーション合同会社,,合同会社,神奈川県,座間市,南栗原５丁目６番１８号,,14,216,2520015,,,,,,,2023-04-05,1,,,,,アンサンブルホウモンカンゴステーション,0
1341,6030001153152,新規,0,2023-04-05,2023-04-05,ｅＳｍｙ‐ｈｏｍｅ株式会社,,株式会社,埼玉県,越谷市,大字三野宮５３８,,11,222,3430036,,,,,,,2023-04-05,1,,,,,イエスマイホーム,0
1344,6030003021480,新規,0,2023-04-05,2023-04-05,合同会社森ノメディア,,合同会社,埼玉県,秩父市,荒川日野２２３番地３,,11,207,3691803,,,,,,,2023-04-05,1,,,,,モリノメディア,0
1345,6030003021506,新規,0,2023-04-05,2023-04-05,合同会社ｉｐｐｉｎｐｌｕｓ,,合同会社,埼玉県,北葛飾郡杉戸町,大字才羽５２５番地１,,11,464,3450014,,,,,,,2023-04-05,1,,,,,イッピンプラス,0
1349,6040001127741,新規,0,2023-04-05,2023-04-05,株式会社丸英,,株式会社,千葉県,千葉市中央区,弁天３丁目１２番１４号,,12,101,2600045,,,,,,,2023-04-05,1,,,,,マルエイ,0
1350,6040001127758,新規,0,2023-04-05,2023-04-05,株式会社島商車体,,株式会社,千葉県,千葉市緑区,平山町６７０番地,,12,105,2660002,,,,,,,2023-04-05,1,,,,,シマショウシャタイ,0
1351,6040001127766,新規,0,2023-04-05,2023-04-05,株式会社コレクトキャリア,,株式会社,千葉県,東金市,日吉台５丁目１６番７号,,12,213,2830803,,,,,,,2023-04-05,1,,,,,コレクトキャリア,0
1352,6040001127832,新規,0,2023-04-05,2023-04-05,株式会社デイズ,,株式会社,千葉県,習志野市,藤崎６丁目３番１７－２０４号,,12,216,2750017,,,,,,,2023-04-05,1,,,,,デイズ,0
1355,6040003022346,新規,0,2023-04-05,2023-04-05,Ｍｏｕｎｔａｉｎ　ｒａｎｇｅｓ合同会社,,合同会社,千葉県,習志野市,藤崎４丁目１６番５２号,,12,216,2750017,,,,,,,2023-04-05,1,,,,,マウンテンレンジース,0
1357,6050003007387,新規,0,2023-04-05,2023-04-05,合同会社ｐａｒｔｅｎａｉｒｅ,,合同会社,茨城県,水戸市,中原町８５番地,,08,201,3190305,,,,,,,2023-04-05,1,,,,,パルトネール,0
1360,6070001040272,新規,0,2023-04-05,2023-04-05,マイハウス株式会社,,株式会社,群馬県,桐生市,相生町５丁目３８７番地の１４２,,10,203,3760011,,,,,,,2023-04-05,1,,,,,マイハウス,0
1363,6080001025545,新規,0,2023-04-05,2023-04-05,株式会社ＫＲＦＴ設備,,株式会社,静岡県,静岡市清水区,楠２８５－９,,22,103,4240881,,,,,,,2023-04-05,1,,,,,クラフトセツビ,0
1368,6080101023886,新規,0,2023-04-05,2023-04-05,株式会社東部建商,,株式会社,静岡県,沼津市,東熊堂１５７番地の１３,,22,203,4100013,,,,,,,2023-04-05,1,,,,,トウブケンショウ,0
1369,6080102022516,新規,0,2023-04-05,2023-04-05,沼津富士商事有限会社,,有限会社,静岡県,沼津市,三枚橋三枚橋町１１８番地,,22,203,,,,,,,,2023-04-05,1,,,,,ヌマヅフジショウジ,0
1371,6080401026408,新規,0,2023-04-05,2023-04-05,ＰＧテクノリサーチ株式会社,,株式会社,静岡県,浜松市中区,板屋町１１１番地の２,,22,131,4300928,,,,,,,2023-04-05,1,,,,,ピージーテクノリサーチ,0
1372,6080405007536,新規,0,2023-04-05,2023-04-05,医療法人社団名典会,,その他の設立登記法人,静岡県,浜松市中区,千歳町９５番地の１６,,22,131,4300934,,,,,,,2023-04-05,1,,,,,メイテンカイ,0
1374,6100001036267,新規,0,2023-04-05,2023-04-05,株式会社武石電機,,株式会社,長野県,上田市,下武石１６３４番地,,20,203,3860503,,,,,,,2023-04-05,1,,,,,タケシデンキ,0
1375,6100001036275,新規,0,2023-04-05,2023-04-05,株式会社ＰＩＥＤＭＯＮＴ,,株式会社,長野県,安曇野市,穂高有明７３５０番地４６,,20,220,3998301,,,,,,,2023-04-05,1,,,,,ピエドモント,0
1376,6100001036283,新規,0,2023-04-05,2023-04-05,株式会社バートポケット,,株式会社,長野県,諏訪郡富士見町,落合４１９３番地,,20,362,3990214,,,,,,,2023-04-05,1,,,,,バートポケット,0
1385,6120001253711,新規,0,2023-04-05,2023-04-05,カラフルキッズ株式会社,,株式会社,大阪府,大阪市天王寺区,四天王寺１丁目１２－２４－３Ｆ,,27,109,5430051,,,,,,,2023-04-05,1,,,,,カラフルキッズ,0
1386,6120001253728,新規,0,2023-04-05,2023-04-05,株式会社アプリシエイト,,株式会社,大阪府,大阪市都島区,片町２丁目７番２９号１Ｆ,,27,102,5340025,,,,,,,2023-04-05,1,,,,,アプリシエイト,0
1387,6120001253752,新規,0,2023-04-05,2023-04-05,株式会社ｌｉｂｌｉｅｎ,,株式会社,大阪府,大阪市旭区,生江３丁目１２番３号,,27,117,5350004,,,,,,,2023-04-05,1,,,,,リブリアン,0
1388,6120001253769,新規,0,2023-04-05,2023-04-05,株式会社ポレックス,,株式会社,大阪府,大阪市浪速区,日本橋東２丁目４番２号ＭＯＯビル２０２室,,27,111,5560006,,,,,,,2023-04-05,1,,,,,ポレックス,0
1393,6120005023540,新規,0,2023-04-05,2023-04-05,社会保険労務士法人オフィスあゆむ,,その他の設立登記法人,大阪府,大阪市北区,芝田１丁目４番１７号,,27,127,5300012,,,,,,,2023-04-05,1,,,,,オフィスアユム,0
1394,6120101067251,新規,0,2023-04-05,2023-04-05,株式会社ＤａＭ,,株式会社,大阪府,泉大津市,東港町１５番２８号,,27,206,5950051,,,,,,,2023-04-05,1,,,,,ダム,0
1395,6120101067276,新規,0,2023-04-05,2023-04-05,株式会社維新,,株式会社,大阪府,堺市美原区,太井２４番地,,27,147,5870062,,,,,,,2023-04-05,1,,,,,イシン,0
1396,6120901047353,新規,0,2023-04-05,2023-04-05,株式会社ＳＡＭ,,株式会社,大阪府,茨木市,鮎川５丁目１０番１５号,,27,211,5670831,,,,,,,2023-04-05,1,,,,,エスエーエム,0
1397,6120903004575,新規,0,2023-04-05,2023-04-05,合同会社たかみ治療院,,合同会社,大阪府,高槻市,上本町５番４号,,27,207,5690073,,,,,,,2023-04-05,1,,,,,タカミチリョウイン,0
1401,6130001073968,新規,0,2023-04-05,2023-04-05,館閣香堂株式会社,,株式会社,京都府,京都市中京区,猪熊通姉小路下る姉猪熊町３３６番地,,26,104,6048324,,,,,,,2023-04-05,1,,,,,カンカクコウドウ,0
1402,6130001073992,新規,0,2023-04-05,2023-04-05,株式会社宇治屋,,株式会社,京都府,京都市中京区,高倉通錦小路上る貝屋町５６５番地１四条高倉スカイハイツ１００２号,,26,104,6048126,,,,,,,2023-04-05,1,,,,,ウジヤ,0
1403,6130001074000,新規,0,2023-04-05,2023-04-05,Ｊｏｌｏｄａ　Ｊａｐａｎ株式会社,,株式会社,京都府,京都市中京区,御池通東洞院東入笹屋町４３６番地永和御池ビル６０６号,,26,104,6048187,,,,,,,2023-04-05,1,,,,,ジョローダジャパン,0
1404,6130001074009,新規,0,2023-04-05,2023-04-05,株式会社ｎｉ,,株式会社,京都府,京都市中京区,壬生相合町２５番地４デイスターアベニュー１０２,,26,104,6048812,,,,,,,2023-04-05,1,,,,,エヌアイ,0
1405,6130001074025,新規,0,2023-04-05,2023-04-05,アナザーバリュー株式会社,,株式会社,京都府,京都市左京区,浄土寺西田町５８－３ハイツロワール５,,26,103,6068417,,,,,,,2023-04-05,1,,,,,アナザーバリュー,0
1406,6130003008633,新規,0,2023-04-05,2023-04-05,合同会社Ｋｕｋｕｎａ,,合同会社,京都府,京都市東山区,今熊野椥ノ森町３番地１,,26,105,6050971,,,,,,,2023-04-05,1,,,,,ククナ,0
1410,6140001129612,新規,0,2023-04-05,2023-04-05,株式会社ＫＲＭ,,株式会社,兵庫県,西宮市,殿山町１０番２３号,,28,204,6620065,,,,,,,2023-04-05,1,,,,,ケーアールエム,0
1414,6140005026541,新規,0,2023-04-05,2023-04-05,青鳥ＳＵＰＰＯＲＴ協同組合,,その他の設立登記法人,兵庫県,伊丹市,千僧２丁目１０４,,28,207,6640898,,,,,,,2023-04-05,1,,,,,セイチョウサポート,0
1415,6150001026288,新規,0,2023-04-05,2023-04-05,株式会社Ｇｏｓｅｔａｋｕ,,株式会社,奈良県,御所市,大字茅原２０９番地の１４,,29,208,6392241,,,,,,,2023-04-05,1,,,,,,0
1421,6170001017525,新規,0,2023-04-05,2023-04-05,株式会社希光庵,,株式会社,和歌山県,田辺市,新庄町６６１番地,,30,206,6460011,,,,,,,2023-04-05,1,,,,,キコウアン,0
1422,6170001017533,新規,0,2023-04-05,2023-04-05,株式会社カーリンクス,,株式会社,和歌山県,田辺市,新万１１番１９号,,30,206,6460014,,,,,,,2023-04-05,1,,,,,カーリンクス,0
1431,6180001155621,新規,0,2023-04-05,2023-04-05,株式会社徐記,,株式会社,愛知県,名古屋市中区,栄４丁目２０番１号ニュージャパンビルＢ１－１号,,23,106,4600008,,,,,,,2023-04-05,1,,,,,ジョキ,0
1436,6180003025046,新規,0,2023-04-05,2023-04-05,合同会社うさぎぐみ,,合同会社,愛知県,名古屋市熱田区,三本松町１６番１５号,,23,109,4560032,,,,,,,2023-04-05,1,,,,,ウサギグミ,0
1437,6180005020169,新規,0,2023-04-05,2023-04-05,一般社団法人愛知県ハンドボール協会,,その他の設立登記法人,愛知県,名古屋市北区,東味鋺１丁目２６０３番地,,23,103,4620013,,,,,,,2023-04-05,1,,,,,アイチケンハンドボールキョウカイ,0
1440,6190001030294,新規,0,2023-04-05,2023-04-05,株式会社Ｗｅｓｔ　Ｖｉｌｌａｇｅ,,株式会社,三重県,松阪市,久保町１８５５番地４８７,,24,204,5150044,,,,,,,2023-04-05,1,,,,,ウエストヴィレッジ,0
1442,6200001041133,新規,0,2023-04-05,2023-04-05,株式会社心晴日和屋,,株式会社,岐阜県,飛騨市,神岡町釜崎８３１番地１,,21,217,5061145,,,,,,,2023-04-05,1,,,,,コハルビヨリヤ,0
1450,6240001061301,新規,0,2023-04-05,2023-04-05,ＦＬＡＴ　ＧＲＯＵＰ株式会社,,株式会社,広島県,庄原市,川手町２７６－１,,34,210,7270005,,,,,,,2023-04-05,1,,,,,フラットグループ,0
1456,6260003004272,新規,0,2023-04-05,2023-04-05,合同会社ＷＡＴＡＹＡインダストリーズ,,合同会社,岡山県,岡山市北区,西古松２丁目２６番１６号上杉第７ビル１０２号,,33,101,7000927,,,,,,,2023-04-05,1,,,,,ワタヤインダストリーズ,0
1463,6290001101060,新規,0,2023-04-05,2023-04-05,株式会社Ｉｍｐａｒｆａｉｔ,,株式会社,福岡県,福岡市中央区,大名２丁目１番１３号４階Ａ－２号室,,40,133,8100041,,,,,,,2023-04-05,1,,,,,アンパルフェ,0
1464,6290003013725,新規,0,2023-04-05,2023-04-05,合同会社Ｋ’ｓキッチン,,合同会社,福岡県,福岡市西区,内浜２丁目１４番４号,,40,135,8190005,,,,,,,2023-04-05,1,,,,,ケイズキッチン,0
1465,6290003013733,新規,0,2023-04-05,2023-04-05,合同会社ＴＭＳ,,合同会社,福岡県,古賀市,花見南２丁目８番３号,,40,223,8113111,,,,,,,2023-04-05,1,,,,,ティーエムエス,0
1466,6290003013741,新規,0,2023-04-05,2023-04-05,ロイズベンチャーキャピタル合同会社,,合同会社,福岡県,福岡市早良区,荒江３丁目１１番１５－１３０５号,,40,137,8140021,,,,,,,2023-04-05,1,,,,,ロイズベンチャーキャピタル,0
1468,6290803004378,新規,0,2023-04-05,2023-04-05,合同会社Ｍａｋｉ’ｓ　Ｋｉｔｃｈｅｎ,,合同会社,福岡県,遠賀郡岡垣町,公園通り３丁目９番８号,,40,383,8114235,,,,,,,2023-04-05,1,,,,,マキズキッチン,0
1469,6300001013262,新規,0,2023-04-05,2023-04-05,株式会社Ｗ．Ｈ．Ｙ,,株式会社,佐賀県,佐賀市,若宮３丁目２番１０号,,41,201,8490926,,,,,,,2023-04-05,1,,,,,ワイ,0
1470,6310001018335,新規,0,2023-04-05,2023-04-05,株式会社リージョナルフーズ長崎,,株式会社,長崎県,長崎市,万才町３番５号,,42,201,8500033,,,,,,,2023-04-05,1,,,,,リージョナルフーズナガサキ,0
1472,6320001019670,新規,0,2023-04-05,2023-04-05,株式会社河野農産,,株式会社,大分県,国東市,安岐町中園１０２０番地,,44,214,8730203,,,,,,,2023-04-05,1,,,,,コウノノウサン,0
1477,6330001030718,新規,0,2023-04-05,2023-04-05,株式会社一雅,,株式会社,熊本県,熊本市東区,月出１丁目８番１１号３１１号室,,43,102,8620920,,,,,,,2023-04-05,1,,,,,イチカ,0
1480,6340001025469,新規,0,2023-04-05,2023-04-05,株式会社二階堂ファーム,,株式会社,鹿児島県,出水郡長島町,蔵之元１５８１番地２,,46,404,8991301,,,,,,,2023-04-05,1,,,,,ニカイドウファーム,0
1482,6340003004090,新規,0,2023-04-05,2023-04-05,合同会社内村組,,合同会社,鹿児島県,鹿児島市,下荒田４丁目５４番９号浜田ビル２階,,46,201,8900056,,,,,,,2023-04-05,1,,,,,ウチムラグミ,0
1484,6350001018265,新規,0,2023-04-05,2023-04-05,株式会社リノプラン,,株式会社,宮崎県,宮崎市,丸山１丁目４０番地２,,45,201,8800052,,,,,,,2023-04-05,1,,,,,リノプラン,0
1486,6360001031787,新規,0,2023-04-05,2023-04-05,株式会社Ａｓｉａｎｄ,,株式会社,沖縄県,那覇市,字大道３０番地５２,,47,201,9020066,,,,,,,2023-04-05,1,,,,,アジアンド,0
1488,6360003012835,新規,0,2023-04-05,2023-04-05,合同会社Ｂｅｔｔｅｒ　Ｗａｙ,,合同会社,沖縄県,那覇市,山下町１８番６５号,,47,201,9000027,,,,,,,2023-04-05,1,,,,,ベターウェイ,0
1489,6360003012843,新規,0,2023-04-05,2023-04-05,合同会社Ｖｉｎｃｕｌｕｍ,,合同会社,沖縄県,宮古島市,平良字久貝１０３２番地２,,47,214,9060015,,,,,,,2023-04-05,1,,,,,ウィンクルム,0
1492,6380003005432,新規,0,2023-04-05,2023-04-05,すずこういわき合同会社,,合同会社,福島県,いわき市,平沼ノ内諏訪原２丁目１０番地の９,,07,204,9700222,,,,,,,2023-04-05,1,,,,,スズコウイワキ,0
1495,6440005002751,新規,0,2023-04-05,2023-04-05,一般社団法人どうなん自転車倶楽部,,その他の設立登記法人,北海道,函館市,湯川町２丁目２２番１６号,,01,202,0420932,,,,,,,2023-04-05,1,,,,,ドウナンジテンシャクラブ,0
1499,6460003000945,新規,0,2023-04-05,2023-04-05,合同会社Ｍ’ｓプラス,,合同会社,北海道,釧路郡釧路町,曙３丁目８番地５,,01,661,0880616,,,,,,,2023-04-05,1,,,,,エムズプラス,0
1500,6460101007363,新規,0,2023-04-05,2023-04-05,株式会社高橋外構産業,00129949,株式会社,北海道,帯広市,西十五条南２丁目４番地４,,01,207,0800025,,,,,,,2023-04-05,1,,,,,タカハシガイコウサンギョウ,0
1506,6500001024850,新規,0,2023-04-05,2023-04-05,大萬株式会社,,株式会社,愛媛県,西条市,飯岡１２００番地１,,38,206,7930010,,,,,,,2023-04-05,1,,,,,ダイマン,0
1510,6500003003002,新規,0,2023-04-05,2023-04-05,合同会社Ａｕｒｏｒａ,,合同会社,愛媛県,松山市,祇園町７―５リュンヌ祇園４０２号,,38,201,7900965,,,,,,,2023-04-05,1,,,,,オーロラ,0
1511,6500003003010,新規,0,2023-04-05,2023-04-05,合同会社ＡＮＹＢＯＡＴ,,合同会社,愛媛県,松山市,立花４丁目５－３１メゾン寿１０１号,,38,201,7900966,,,,,,,2023-04-05,1,,,,,エニーボート,0
1512,6700150115166,新規,0,2023-04-05,2023-04-05,Ｓｈｅｎｚｈｅｎｄａｒａｎｘｉｎｎｅｎｇｙｕａｎｊｉｓｈｕｙｏｕｘｉａｎｇｏｎｇｓｉ,,外国会社等,,,,,,,,Ｒｏｏｍ　５０２，Ｂｕｉｌｄｉｎｇ　Ｄ１，ＴＣＬ　Ｓｃｉｅｎｃｅ　Ｐａｒｋ，Ｎｏ．１００１　Ｚｈｏｎｇｓｈａｎ　Ｇａｒｄｅｎ　Ｒｏａｄ，Ｓｈｕｇｕａｎｇ　Ｃｏｍｍｕｎｉｔｙ，Ｘｉｌｉ　Ｓｔｒｅｅｔ，Ｎａｎｓｈａｎ　Ｄｉｓｔｒｉｃｔ，Ｓｈｅｎｚｈｅｎ,,,,,,2023-04-05,1,,,,,シェンジェンダーランシンノンユエンジーシューヨウシエンゴンスー,0
1518,7010001234093,新規,0,2023-04-05,2023-04-05,Ｔｅｒｒａｓｃｏｐｅ　Ｊａｐａｎ株式会社,,株式会社,東京都,中央区,日本橋３丁目９番１号日本橋三丁目スクエア１１階,,13,102,1030027,,,,,,,2023-04-05,1,,,,,テラスコープジャパン,0
1533,7010401173453,新規,0,2023-04-05,2023-04-05,株式会社Ｍ‐ＰＲＯ,,株式会社,東京都,港区,西新橋１丁目２番９号日比谷セントラルビル１４階,,13,103,1050003,,,,,,,2023-04-05,1,,,,,エムプロ,0
1534,7010401173461,新規,0,2023-04-05,2023-04-05,株式会社アクトタイム,,株式会社,東京都,港区,白金台４丁目１６番１２号,,13,103,1080071,,,,,,,2023-04-05,1,,,,,アクトタイム,0
1535,7010401173478,新規,0,2023-04-05,2023-04-05,タコテック株式会社,,株式会社,東京都,港区,芝５丁目２９番２０号クロスオフィス三田９０９号室,,13,103,1080014,,,,,,,2023-04-05,1,,,,,タコテック,0
1536,7010401173494,新規,0,2023-04-05,2023-04-05,株式会社Ｕ１０,,株式会社,東京都,港区,三田１丁目７番１－１４１１号,,13,103,1080073,,,,,,,2023-04-05,1,,,,,ユーテン,0
1547,7010701044065,新規,0,2023-04-05,2023-04-05,株式会社トライブ,,株式会社,東京都,品川区,南品川２丁目９番２５－３０４号,,13,109,1400004,,,,,,,2023-04-05,1,,,,,トライブ,0
1548,7010705003496,新規,0,2023-04-05,2023-04-05,一般社団法人資源リバランス事業化研究会,,その他の設立登記法人,東京都,品川区,大崎３丁目１番１－２００３号,,13,109,1410032,,,,,,,2023-04-05,1,,,,,シゲンリバランスジギョウカケンキュウカイ,0
1549,7010903008066,新規,0,2023-04-05,2023-04-05,合同会社Ｍｙｒｔｉｌｌｅ,,合同会社,東京都,世田谷区,用賀４丁目２８番１－２０１号,,13,112,1580097,,,,,,,2023-04-05,1,,,,,ミルティー,0
1553,7011001153515,新規,0,2023-04-05,2023-04-05,リッチコネクション株式会社,,株式会社,東京都,渋谷区,神宮前６丁目３１番１５号,,13,113,1500001,,,,,,,2023-04-05,1,,,,,リッチコネクション,0
1557,7011003016570,新規,0,2023-04-05,2023-04-05,合同会社ＷＯＲＬＤ　ＯＦ　ＰＡＩＮ,,合同会社,東京都,渋谷区,恵比寿１丁目２１－１７－３Ｆ,,13,113,1500013,,,,,,,2023-04-05,1,,,,,ワールドオブペイン,0
1559,7011101102388,新規,0,2023-04-05,2023-04-05,株式会社ｃａｓｅ,,株式会社,東京都,新宿区,下落合２丁目１番１７－３０３号,,13,104,1610033,,,,,,,2023-04-05,1,,,,,ケース,0
1560,7011101102405,新規,0,2023-04-05,2023-04-05,ＮＡＫＡＺＡＷＡ　ＴＥＣＨ株式会社,,株式会社,東京都,新宿区,北新宿３丁目２番１６－５０５号,,13,104,1690074,,,,,,,2023-04-05,1,,,,,ナカザワテック,0
1562,7011203004045,新規,0,2023-04-05,2023-04-05,合同会社雪英,,合同会社,東京都,中野区,中野２丁目２８番１－２０３号,,13,114,1640001,,,,,,,2023-04-05,1,,,,,ユキエイ,0
1565,7011403003953,新規,0,2023-04-05,2023-04-05,Ｚｅｎｙａ合同会社,,合同会社,東京都,板橋区,桜川２丁目１５番１６号,,13,119,1740075,,,,,,,2023-04-05,1,,,,,ゼンヤ,0
1566,7011501029116,新規,0,2023-04-05,2023-04-05,東洋重機株式会社,,株式会社,東京都,荒川区,南千住３丁目２７－２浅草ビル,,13,118,1160003,,,,,,,2023-04-05,1,,,,,トウヨウジュウキ,0
1570,7011803005582,新規,0,2023-04-05,2023-04-05,リーディング合同会社,,合同会社,東京都,葛飾区,亀有３丁目１３番２号亀有鞠子ビル６階,,13,122,1250061,,,,,,,2023-04-05,1,,,,,リーディング,0
1572,7012401040328,新規,0,2023-04-05,2023-04-05,株式会社宇井建設,,株式会社,東京都,三鷹市,野崎２丁目１１－１４クラール三鷹１０１号,,13,204,1810014,,,,,,,2023-04-05,1,,,,,ウイケンセツ,0
1573,7012403005915,新規,0,2023-04-05,2023-04-05,ＩＮＤＩＧＯ合同会社,,合同会社,東京都,調布市,国領町７丁目１番地１,,13,208,1820022,,,,,,,2023-04-05,1,,,,,インディゴ,0
1583,7020001150934,新規,0,2023-04-05,2023-04-05,株式会社東呉商事,,株式会社,神奈川県,横浜市中区,山下町２２１番地１山下町ハイツ５０４号室,,14,104,2310023,,,,,,,2023-04-05,1,,,,,トウゴショウジ,0
1584,7020001150942,新規,0,2023-04-05,2023-04-05,株式会社ＭＥＤＩＣＡＤＡＴＥ　ＪＡＰＡＮ,,株式会社,神奈川県,横浜市中区,池袋５８番地３,,14,104,2310834,,,,,,,2023-04-05,1,,,,,メディカデイトジャパン,0
1585,7020001150950,新規,0,2023-04-05,2023-04-05,株式会社サーベイ・デザイン・ラボ,,株式会社,神奈川県,横浜市泉区,中田北２丁目１９番３１号,,14,116,2450012,,,,,,,2023-04-05,1,,,,,サーベイデザインラボ,0
1586,7020001150967,新規,0,2023-04-05,2023-04-05,株式会社日翔クリエイト,,株式会社,神奈川県,横浜市保土ケ谷区,上菅田町１５９０番地１ザ・ピースプレイス横浜５０４号,,14,106,2400051,,,,,,,2023-04-05,1,,,,,ニッショウクリエイト,0
1587,7020001150975,新規,0,2023-04-05,2023-04-05,株式会社産業医オフィス森田,,株式会社,神奈川県,川崎市中原区,市ノ坪４４９番地３－４５０８,,14,133,2110016,,,,,,,2023-04-05,1,,,,,サンギョウイオフィスモリタ,0
1588,7020001151008,新規,0,2023-04-05,2023-04-05,村田ポンプ株式会社,,株式会社,神奈川県,横浜市中区,末吉町４丁目８３番地４セントラル伊勢佐木西９０１号室,,14,104,2310055,,,,,,,2023-04-05,1,,,,,ムラタポンプ,0
1592,7021001078595,新規,0,2023-04-05,2023-04-05,株式会社カイシン,,株式会社,神奈川県,鎌倉市,西鎌倉４丁目１５番１７号,,14,204,2480035,,,,,,,2023-04-05,1,,,,,カイシン,0
1597,7030001153119,新規,0,2023-04-05,2023-04-05,Ａ企画株式会社,,株式会社,埼玉県,所沢市,小手指元町２丁目２８番地の２７,,11,208,3591147,,,,,,,2023-04-05,1,,,,,エーキカク,0
1598,7030001153135,新規,0,2023-04-05,2023-04-05,株式会社しまのや,,株式会社,埼玉県,さいたま市大宮区,堀の内町１丁目２３番地,,11,103,3300804,,,,,,,2023-04-05,1,,,,,シマノヤ,0
1601,7040001127740,新規,0,2023-04-05,2023-04-05,株式会社ＥＤＥＮ,,株式会社,千葉県,館山市,北条２６１７番地７０（２Ｆ）,,12,205,2940045,,,,,,,2023-04-05,1,,,,,エデン,0
1602,7040001127757,新規,0,2023-04-05,2023-04-05,株式会社アコースティックＡ２,,株式会社,千葉県,千葉市花見川区,幕張本郷１丁目３番５号,,12,102,2620033,,,,,,,2023-04-05,1,,,,,,0
1603,7040001127765,新規,0,2023-04-05,2023-04-05,株式会社ＴＩＥ　ＢＲＥＡＫ,,株式会社,千葉県,習志野市,花咲１丁目２０番３５－１号,,12,216,2750013,,,,,,,2023-04-05,1,,,,,タイブレーク,0
1604,7040001127831,新規,0,2023-04-05,2023-04-05,株式会社Ｍｕｌｔｉ　ｃｏｒｅ,,株式会社,千葉県,八千代市,大和田新田２５２－１９,,12,221,2760046,,,,,,,2023-04-05,1,,,,,マルチコア,0
1606,7040003022345,新規,0,2023-04-05,2023-04-05,合同会社Ｓｔｒｕ‐ｍｕｓｉｃａ,,合同会社,千葉県,千葉市花見川区,朝日ケ丘３丁目１５番７７号,,12,102,2620019,,,,,,,2023-04-05,1,,,,,ストゥルムジカ,0
1607,7070001040296,新規,0,2023-04-05,2023-04-05,株式会社事業承継サポートセンター,,株式会社,群馬県,高崎市,西国分町１７１番地５,,10,202,3703512,,,,,,,2023-04-05,1,,,,,ジギョウショウケイサポートセンター,0
1614,7080401026407,新規,0,2023-04-05,2023-04-05,袋井資源組合株式会社,,株式会社,静岡県,袋井市,広岡２５６４番地の１,,22,216,4370021,,,,,,,2023-04-05,1,,,,,フクロイシゲンクミアイ,0
1615,7080401026415,新規,0,2023-04-05,2023-04-05,株式会社佐鳴台計算センタートミ．,,株式会社,静岡県,浜松市中区,佐鳴台１丁目２３番１５号,,22,131,4328021,,,,,,,2023-04-05,1,,,,,サナルダイケイサンセンタートミドット,0
1616,7080405007535,新規,0,2023-04-05,2023-04-05,医療法人社団ＳＧＣ,,その他の設立登記法人,静岡県,浜松市東区,大島町３４７番地の１,,22,132,4313112,,,,,,,2023-04-05,1,,,,,エスジーシー,0
1618,7100003006960,新規,0,2023-04-05,2023-04-05,合同会社Ｄｅｆｉ,,合同会社,長野県,伊那市,富県８５８２番地６,,20,209,3960621,,,,,,,2023-04-05,1,,,,,デフィ,0
1621,7110001037404,新規,0,2023-04-05,2023-04-05,株式会社桑原商店,,株式会社,新潟県,新潟市西蒲区,漆山２５９２番地１,,15,108,9530054,,,,,,,2023-04-05,1,,,,,クワバラショウテン,0
1622,7110001037412,新規,0,2023-04-05,2023-04-05,株式会社平田工業,,株式会社,新潟県,胎内市,東牧１２０８番地２３,,15,227,9592808,,,,,,,2023-04-05,1,,,,,ヒラタコウギョウ,0
1633,7120001253693,新規,0,2023-04-05,2023-04-05,株式会社Ｕｒｕ,,株式会社,大阪府,大阪市東成区,神路２丁目９番１４号,,27,115,5370003,,,,,,,2023-04-05,1,,,,,ウル,0
1634,7120001253719,新規,0,2023-04-05,2023-04-05,株式会社ＶＩＬＬＡ,,株式会社,大阪府,大阪市城東区,成育３丁目１３番１５号,,27,118,5360007,,,,,,,2023-04-05,1,,,,,ヴィラ,0
1639,7120005023548,新規,0,2023-04-05,2023-04-05,みなと上本町税理士法人,,その他の設立登記法人,大阪府,大阪市中央区,谷町９丁目２番２７号,,27,128,5420012,,,,,,,2023-04-05,1,,,,,ミナトウエホンマチ,0
1641,7120101067242,新規,0,2023-04-05,2023-04-05,株式会社アイエス電通,,株式会社,大阪府,松原市,三宅東５丁目１３６６番地の１,,27,217,5800041,,,,,,,2023-04-05,1,,,,,アイエスデンツウ,0
1642,7120101067267,新規,0,2023-04-05,2023-04-05,株式会社グリーンハウス,,株式会社,大阪府,泉南郡岬町,孝子１０６４番地,,27,366,5990302,,,,,,,2023-04-05,1,,,,,グリーンハウス,0
1647,7120901047352,新規,0,2023-04-05,2023-04-05,ｉｔｏ‐ｈｏｍｅ　ｂｕｉｌｄ株式会社,,株式会社,大阪府,高槻市,芝生町１丁目６７番３号,,27,207,5690823,,,,,,,2023-04-05,1,,,,,イトーホームビルド,0
1653,7130001073983,新規,0,2023-04-05,2023-04-05,株式会社ｐｒｉｍｅ　ｎｕｍｂｅｒ,,株式会社,京都府,京都市南区,上鳥羽南戒光町４３番地７,,26,107,6018178,,,,,,,2023-04-05,1,,,,,プライムナンバー,0
1654,7130001074008,新規,0,2023-04-05,2023-04-05,Ｖ＆Ｖ株式会社,,株式会社,京都府,南丹市,園部町木崎町下ヲサ５番２２,,26,213,6220015,,,,,,,2023-04-05,1,,,,,ヴイアンドヴイ,0
1655,7130001074024,新規,0,2023-04-05,2023-04-05,株式会社ＡＭＰ．ＫＹＯＴＯ,,株式会社,京都府,京都市下京区,四条通烏丸東入ル長刀鉾町８京都三井ビルディング５階,,26,106,6000000,,,,,,,2023-04-05,1,,,,,アンプキョート,0
1658,7130003008616,新規,0,2023-04-05,2023-04-05,合同会社Ｈｉｇｈ　Ｆｉｖｅ,,合同会社,京都府,京都市下京区,七条通油小路東入大黒町２２７番地第２キョートビル４０２,,26,106,6008223,,,,,,,2023-04-05,1,,,,,ハイファイブ,0
1668,7140001129636,新規,0,2023-04-05,2023-04-05,株式会社電博堂,,株式会社,兵庫県,姫路市,西脇７４６番地,,28,201,6712234,,,,,,,2023-04-05,1,,,,,デンパクドウ,0
1669,7150001026287,新規,0,2023-04-05,2023-04-05,株式会社メタ・ラーニング・コンサルタント,,株式会社,奈良県,橿原市,高殿町５－２４,,29,205,6340027,,,,,,,2023-04-05,1,,,,,メタラーニングコンサルタント,0
1670,7170001017532,新規,0,2023-04-05,2023-04-05,株式会社ＡＣＣＯＲＤ,,株式会社,和歌山県,和歌山市,南出島６８番地２,,30,201,6408318,,,,,,,2023-04-05,1,,,,,アコード,0
1672,7180001155595,新規,0,2023-04-05,2023-04-05,ＧＰ　Ｊａｐａｎ株式会社,,株式会社,愛知県,名古屋市千種区,本山町４丁目５５番地美Ｓｉｌｅｎｔｍｏｔｏｙａｍａ１階,,23,101,4640036,,,,,,,2023-04-05,1,,,,,ジーピージャパン,0
1673,7180001155653,新規,0,2023-04-05,2023-04-05,株式会社ＴＯＭＥＮＯ,,株式会社,愛知県,名古屋市港区,高木町２丁目８番地の５,,23,111,4550821,,,,,,,2023-04-05,1,,,,,トメノ,0
1678,7190001030293,新規,0,2023-04-05,2023-04-05,新英工業株式会社,,株式会社,三重県,津市,安濃町内多２２８番地,,24,201,5142303,,,,,,,2023-04-05,1,,,,,シンエイコウギョウ,0
1680,7200001041140,新規,0,2023-04-05,2023-04-05,株式会社山勘陶器,,株式会社,岐阜県,多治見市,坂上町５丁目２２番地,,21,204,5070804,,,,,,,2023-04-05,1,,,,,ヤマカントウキ,0
1686,7240001061283,新規,0,2023-04-05,2023-04-05,株式会社ＫＳＣ,,株式会社,広島県,広島市佐伯区,五日市中央４丁目７番２４－１０４号,,34,108,7315128,,,,,,,2023-04-05,1,,,,,ケイエスシー,0
1692,7260001037785,新規,0,2023-04-05,2023-04-05,株式会社アイスマウンテン,,株式会社,岡山県,岡山市東区,西大寺新地１５０番地１,,33,103,7048122,,,,,,,2023-04-05,1,,,,,アイスマウンテン,0
1693,7260001037802,新規,0,2023-04-05,2023-04-05,山陽建物管理株式会社,,株式会社,岡山県,岡山市北区,東島田町１丁目４番７号,,33,101,7000983,,,,,,,2023-04-05,1,,,,,サンヨウタテモノカンリ,0
1694,7260001037810,新規,0,2023-04-05,2023-04-05,株式会社ａｌａｎｋ,,株式会社,岡山県,倉敷市,玉島乙島６３６３番地６５,,33,202,7138103,,,,,,,2023-04-05,1,,,,,アランカ,0
1695,7260003004271,新規,0,2023-04-05,2023-04-05,合同会社サムライズ,,合同会社,岡山県,岡山市東区,城東台西３丁目２番８号,,33,103,7090624,,,,,,,2023-04-05,1,,,,,サムライズ,0
1698,7290001101035,新規,0,2023-04-05,2023-04-05,株式会社テークオフ,,株式会社,福岡県,糸島市,篠原２８４－１,,40,230,8191131,,,,,,,2023-04-05,1,,,,,テークオフ,0
1699,7290001101084,新規,0,2023-04-05,2023-04-05,株式会社ＨＡＮＡ,,株式会社,福岡県,飯塚市,鯰田２５１７番地９６,,40,205,8200001,,,,,,,2023-04-05,1,,,,,ハナ,0
1703,7330001030733,新規,0,2023-04-05,2023-04-05,株式会社正建,,株式会社,熊本県,熊本市東区,戸島西１丁目２７番７号,,43,102,8618043,,,,,,,2023-04-05,1,,,,,マサケン,0
1704,7330001030741,新規,0,2023-04-05,2023-04-05,株式会社孝成技進,,株式会社,熊本県,玉名郡和水町,用木８３７番地１,,43,369,8650131,,,,,,,2023-04-05,1,,,,,コウセイギシン,0
1707,7330003009791,新規,0,2023-04-05,2023-04-05,合同会社Ｋ＆Ｙトラスト,,合同会社,熊本県,熊本市中央区,大江１丁目２２－５－９０１号,,43,101,8620971,,,,,,,2023-04-05,1,,,,,ケイアンドワイトラスト,0
1708,7340001025468,新規,0,2023-04-05,2023-04-05,鹿児島有機農場株式会社,,株式会社,鹿児島県,南九州市,頴娃町御領５３８２番地１,,46,223,8910703,,,,,,,2023-04-05,1,,,,,カゴシマユウキノウジョウ,0
1709,7340001025476,新規,0,2023-04-05,2023-04-05,株式会社ＢＵＩＬＤ,,株式会社,鹿児島県,霧島市,国分中央１丁目２５番５号センタービル１階,,46,218,8994332,,,,,,,2023-04-05,1,,,,,ビルド,0
1715,7360003012842,新規,0,2023-04-05,2023-04-05,合同会社ウェルネスファクトリー,,合同会社,沖縄県,那覇市,おもろまち４丁目１５番３－９０３号アルファステイツおもろまち,,47,201,9000006,,,,,,,2023-04-05,1,,,,,ウェルネスファクトリー,0
1724,7380001033590,新規,0,2023-04-05,2023-04-05,株式会社フルーツファーム３１０,,株式会社,福島県,福島市,笹谷字下釜２０番地,,07,201,9600241,,,,,,,2023-04-05,1,,,,,フルーツファームサトウ,0
1725,7380001033599,新規,0,2023-04-05,2023-04-05,オガスファーム株式会社,,株式会社,福島県,福島市,大町２番８号アンザイビル４階,,07,201,9608041,,,,,,,2023-04-05,1,,,,,オガスファーム,0
1727,7400003003052,新規,0,2023-04-05,2023-04-05,合同会社ミッドフィルダー,,合同会社,岩手県,盛岡市,開運橋通３番３５－７０３号,,03,201,0200026,,,,,,,2023-04-05,1,,,,,ミッドフィルダー,0
1728,7410001013449,新規,0,2023-04-05,2023-04-05,株式会社大和興業,,株式会社,秋田県,秋田市,仁井田本町６丁目１番３４－１０４号,,05,201,0101421,,,,,,,2023-04-05,1,,,,,ヤマトコウギョウ,0
1729,7410003003778,新規,0,2023-04-05,2023-04-05,合同会社ＤＯＨＡＣＨ,,合同会社,秋田県,山本郡八峰町,峰浜塙字豊後長根５６－２外,,05,349,0182503,,,,,,,2023-04-05,1,,,,,ドハチ,0
1730,7420001018208,新規,0,2023-04-05,2023-04-05,株式会社弘正工業,,株式会社,青森県,弘前市,大字和田町７番地２森岡住宅２－Ｂ号,,02,202,0368368,,,,,,,2023-04-05,1,,,,,コウセイコウギョウ,0
1740,7460101007362,新規,0,2023-04-05,2023-04-05,株式会社十勝情報システム,,株式会社,北海道,河東郡上士幌町,字上士幌東３線２４７－４,,01,633,0801408,,,,,,,2023-04-05,1,,,,,トカチジョウホウシステム,0
1749,7490003001758,新規,0,2023-04-05,2023-04-05,合同会社山の背,,合同会社,高知県,安芸市,川北甲３２７６,,39,203,7840043,,,,,,,2023-04-05,1,,,,,ヤマノセ,0
1755,7700150115165,新規,0,2023-04-05,2023-04-05,ｓｈｅｎｙａｎｇｓｈｅｎｇｌｉａｎｓｈａｎｇｍａｏｙｏｕｘｉａｎｇｏｎｇｓｉ,,外国会社等,,,,,,,,ｓｈｅｎｙａｎｇｓｈｉ　ｔｉｅｘｉｑｕｚｈｏｎｇｇｏｎｇｂｅｉｊｉｅ８ｈａｏＢｌｏｕ４０７,,,,,,2023-04-05,1,,,,,シェンヤンションリエンシャンマオヨウシエンゴンスー,0
1758,8010001234175,新規,0,2023-04-05,2023-04-05,株式会社Ｔｈｅ　Ｈｏｕｎｄ,,株式会社,東京都,中央区,銀座１丁目１２番４号Ｎ＆ＥＢＬＤ．６Ｆ,,13,102,1040061,,,,,,,2023-04-05,1,,,,,ザハウンド,0
1759,8010001234200,新規,0,2023-04-05,2023-04-05,Ｓｔｒｅａｍａｘ　Ｊａｐａｎ株式会社,,株式会社,東京都,中央区,日本橋小網町１１番５－５０１号,,13,102,1030016,,,,,,,2023-04-05,1,,,,,ストリアマックスジャパン,0
1760,8010001234217,新規,0,2023-04-05,2023-04-05,株式会社ネクサスビヨンド,,株式会社,東京都,千代田区,神田淡路町１丁目９番５号天翔オフィス御茶ノ水,,13,101,1010063,,,,,,,2023-04-05,1,,,,,ネクサスビヨンド,0
1761,8010003040209,新規,0,2023-04-05,2023-04-05,Ａ４ＪＰ　Ａｍｉ　Ｈｉｇａｓｈｉ合同会社,,合同会社,東京都,中央区,日本橋３丁目９番１号日本橋三丁目スクエア１１階,,13,102,1030027,,,,,,,2023-04-05,1,,,,,エーフォージェイピーアミヒガシ,0
1771,8010401173436,新規,0,2023-04-05,2023-04-05,ダ・ヴィンチ株式会社,,株式会社,東京都,港区,赤坂３丁目１５番４号レアルタ赤坂ビル４Ｆ,,13,103,1070052,,,,,,,2023-04-05,1,,,,,ダヴィンチ,0
1772,8010401173485,新規,0,2023-04-05,2023-04-05,ｉＬＥＸ株式会社,,株式会社,東京都,港区,海岸１丁目１４番１７－１４０２号,,13,103,1050022,,,,,,,2023-04-05,1,,,,,アイレクス,0
1773,8010401173510,新規,0,2023-04-05,2023-04-05,ＢＢＤイニシアティブ株式会社,,株式会社,東京都,港区,愛宕２丁目５番１号,,13,103,1050002,,,,,,,2023-04-05,1,,,,,ビービーディーイニシアティブ,0
1781,8010901052791,新規,0,2023-04-05,2023-04-05,株式会社夢,,株式会社,東京都,世田谷区,若林５丁目５番８号１０３,,13,112,1540023,,,,,,,2023-04-05,1,,,,,ユメ,0
1783,8010903008065,新規,0,2023-04-05,2023-04-05,合同会社Ｗｏｏｌｏｏｍｏｏ,,合同会社,東京都,世田谷区,池尻２丁目３４番１８号,,13,112,1540001,,,,,,,2023-04-05,1,,,,,ウールームー,0
1790,8011001153555,新規,0,2023-04-05,2023-04-05,株式会社サンボス,,株式会社,東京都,目黒区,中目黒１丁目３番８号渡辺ビル６階,,13,110,1530061,,,,,,,2023-04-05,1,,,,,サンボス,0
1797,8011201024548,新規,0,2023-04-05,2023-04-05,株式会社Ｍｉｒａｉｃｌｅ,,株式会社,東京都,中野区,弥生町１丁目５番１１－５０３号,,13,114,1640013,,,,,,,2023-04-05,1,,,,,ミライクル,0
1800,8011303004695,新規,0,2023-04-05,2023-04-05,Ｏｆｆｉｃｅ．２‐ＫＭ合同会社,,合同会社,東京都,杉並区,阿佐谷南１丁目４８－２４ＫＤＸレジデンス阿佐ヶ谷４０８,,13,115,1660004,,,,,,,2023-04-05,1,,,,,オフィスツーケーエム,0
1801,8011305002895,新規,0,2023-04-05,2023-04-05,浜田山壱番街商店街振興組合,,その他の設立登記法人,東京都,杉並区,浜田山３丁目３１番４号,,13,115,1680065,,,,,,,2023-04-05,1,,,,,ハマダヤマイチバンガイショウテンガイ,0
1805,8011603003876,新規,0,2023-04-05,2023-04-05,合同会社ライフサポート,,合同会社,東京都,練馬区,西大泉４丁目１９番１６－３０３号,,13,120,1780065,,,,,,,2023-04-05,1,,,,,ライフサポート,0
1806,8011701026127,新規,0,2023-04-05,2023-04-05,株式会社信和線材,,株式会社,東京都,江戸川区,平井７丁目６番７号,,13,123,1320035,,,,,,,2023-04-05,1,,,,,シンワセンザイ,0
1811,8011801042189,新規,0,2023-04-05,2023-04-05,株式会社星和,,株式会社,東京都,葛飾区,西亀有４丁目１４番１３―３０４号ソフトタウン亀有,,13,122,1250002,,,,,,,2023-04-05,1,,,,,セイワ,0
1816,8012405004848,新規,0,2023-04-05,2023-04-05,一般社団法人武蔵野ラグビースクール,,その他の設立登記法人,東京都,武蔵野市,中町１丁目２３－５,,13,203,1800006,,,,,,,2023-04-05,1,,,,,ムサシノラグビースクール,0
1817,8012805003185,新規,0,2023-04-05,2023-04-05,一般社団法人ＢＳ強化リーグ,,その他の設立登記法人,東京都,立川市,泉町９３５番地,,13,202,1900015,,,,,,,2023-04-05,1,,,,,ビーエスキョウカリーグ,0
1824,8020001150917,新規,0,2023-04-05,2023-04-05,株式会社ベルグバウム,,株式会社,神奈川県,川崎市多摩区,登戸１０１１番地,,14,135,2140014,,,,,,,2023-04-05,1,,,,,ベルグバウム,0
1825,8020001150933,新規,0,2023-04-05,2023-04-05,株式会社ビショップ,,株式会社,神奈川県,横浜市港北区,大倉山５丁目２５－１２,,14,109,2220037,,,,,,,2023-04-05,1,,,,,ビショップ,0
1826,8020001150958,新規,0,2023-04-05,2023-04-05,株式会社Ｃｏｏｌｉｄｇｅ,,株式会社,神奈川県,横浜市都筑区,牛久保２丁目８番２４号,,14,118,2240012,,,,,,,2023-04-05,1,,,,,クーリッジ,0
1827,8020001150974,新規,0,2023-04-05,2023-04-05,要ホーム株式会社,,株式会社,神奈川県,川崎市幸区,鹿島田１丁目１６番２６号,,14,132,2120058,,,,,,,2023-04-05,1,,,,,カナメホーム,0
1828,8020001151007,新規,0,2023-04-05,2023-04-05,濱貴章設計事務所株式会社,,株式会社,神奈川県,横浜市神奈川区,松見町４丁目９４４番地５２,,14,102,2210005,,,,,,,2023-04-05,1,,,,,ハマキショウセッケイジムショ,0
1833,8020003023567,新規,0,2023-04-05,2023-04-05,合同会社Ｉ．Ｄ．Ｅ,,合同会社,神奈川県,横浜市港北区,新吉田東３丁目５－９－２,,14,109,2230058,,,,,,,2023-04-05,1,,,,,アイディーイー,0
1834,8020003023641,新規,0,2023-04-05,2023-04-05,合同会社Ｍｏｔｕｓ　Ｗｏｒｋｓ,,合同会社,神奈川県,川崎市高津区,坂戸３丁目２０番３０－６０３号メゾン・ド・リヴェール,,14,134,2130012,,,,,,,2023-04-05,1,,,,,モータスワークス,0
1835,8020003023658,新規,0,2023-04-05,2023-04-05,合同会社ＯｆｆｉｃｅＲｙｕ,,合同会社,神奈川県,横浜市神奈川区,台町９－１３ルックハイツ横浜台町８０１,,14,102,2210834,,,,,,,2023-04-05,1,,,,,オフィスリュウ,0
1836,8020003023666,新規,0,2023-04-05,2023-04-05,ＯＴＯ合同会社,,合同会社,神奈川県,川崎市幸区,戸手本町１丁目１２５,,14,132,2120023,,,,,,,2023-04-05,1,,,,,オト,0
1851,8030001153150,新規,0,2023-04-05,2023-04-05,株式会社Ａ＆Ｔ,,株式会社,埼玉県,さいたま市岩槻区,大字裏慈恩寺１１２５番地１,,11,110,3390002,,,,,,,2023-04-05,1,,,,,エーアンドティー,0
1853,8030003021479,新規,0,2023-04-05,2023-04-05,合同会社アルルネ,,合同会社,埼玉県,ふじみ野市,霞ケ丘１丁目２番１２－８１１号,,11,245,3560006,,,,,,,2023-04-05,1,,,,,アルルネ,0
1854,8040001127748,新規,0,2023-04-05,2023-04-05,株式会社Ｋｅｔｏｓ,,株式会社,千葉県,千葉市花見川区,幕張町５丁目１５０番地１０,,12,102,2620032,,,,,,,2023-04-05,1,,,,,ケトス,0
1855,8040001127756,新規,0,2023-04-05,2023-04-05,株式会社栗原重機,,株式会社,千葉県,香取市,羽根川２５７番地１深谷ハイツＡ室,,12,236,2890331,,,,,,,2023-04-05,1,,,,,クリハラジュウキ,0
1856,8040001127764,新規,0,2023-04-05,2023-04-05,株式会社カワシマハウジング,,株式会社,千葉県,山武市,蓮沼イの３１６８番地１,,12,237,2891801,,,,,,,2023-04-05,1,,,,,カワシマハウジング,0
1857,8040001127772,新規,0,2023-04-05,2023-04-05,ＭＡＲＤＡＮ株式会社,,株式会社,千葉県,佐倉市,鏑木町４５－１フォレスト・Ｍ１０５,,12,212,2850025,,,,,,,2023-04-05,1,,,,,マルダン,0
1858,8040001127806,新規,0,2023-04-05,2023-04-05,株式会社林工務店,,株式会社,千葉県,木更津市,笹子７３９番地１,,12,206,2920032,,,,,,,2023-04-05,1,,,,,ハヤシコウムテン,0
1861,8050001052607,新規,0,2023-04-05,2023-04-05,株式会社Ｓｕｎｎｙ,,株式会社,茨城県,かすみがうら市,戸崎２７４８番地１,,08,230,3000136,,,,,,,2023-04-05,1,,,,,サニー,0
1866,8070003004884,新規,0,2023-04-05,2023-04-05,合同会社魚魚屋,,合同会社,群馬県,太田市,大原町１８１４番地２１,,10,205,3792304,,,,,,,2023-04-05,1,,,,,トトヤ,0
1867,8070003004892,新規,0,2023-04-05,2023-04-05,ドリームアシスト合同会社,,合同会社,群馬県,高崎市,緑町１丁目５番地５グリーングラス３０５号,,10,202,3700073,,,,,,,2023-04-05,1,,,,,ドリームアシスト,0
1871,8080001025543,新規,0,2023-04-05,2023-04-05,真祥住建株式会社,,株式会社,静岡県,榛原郡吉田町,住吉３３５１番地の５,,22,424,4210301,,,,,,,2023-04-05,1,,,,,シンショウジュウケン,0
1872,8080001025551,新規,0,2023-04-05,2023-04-05,株式会社キムラＴＥＣ,,株式会社,静岡県,静岡市清水区,七ツ新屋３４４番地の１パティオ１０１号,,22,103,4240066,,,,,,,2023-04-05,1,,,,,キムラテック,0
1876,8080103002770,新規,0,2023-04-05,2023-04-05,合同会社愛華ＪＡＰＡＮ,,合同会社,静岡県,三島市,安久６５７番地の１０,,22,206,4110815,,,,,,,2023-04-05,1,,,,,アイカジャパン,0
1880,8100001036265,新規,0,2023-04-05,2023-04-05,株式会社弥栄,,株式会社,長野県,須坂市,墨坂南１丁目１０番６号,,20,207,3820098,,,,,,,2023-04-05,1,,,,,ヤサカ,0
1883,8110001037403,新規,0,2023-04-05,2023-04-05,株式会社本間組リニューアブルパワー,,株式会社,新潟県,新潟市中央区,西湊町通３ノ町３３００番地３,,15,103,9518026,,,,,,,2023-04-05,1,,,,,ホンマグミリニューアブルパワー,0
1891,8120001253668,新規,0,2023-04-05,2023-04-05,株式会社バイオスターリング,,株式会社,大阪府,大阪市中央区,本町１丁目５番６号,,27,128,5410053,,,,,,,2023-04-05,1,,,,,バイオスターリング,0
1892,8120001253726,新規,0,2023-04-05,2023-04-05,株式会社Ｂｉｔｔａ,,株式会社,大阪府,大阪市北区,梅田１丁目２番２号大阪駅前第２ビル１２－１２,,27,127,5300001,,,,,,,2023-04-05,1,,,,,ビッタ,0
1893,8120001253742,新規,0,2023-04-05,2023-04-05,株式会社コクリエ,,株式会社,大阪府,大阪市北区,梅田１丁目１－３大阪駅前第３ビル２９階１－１－１号室,,27,127,5300001,,,,,,,2023-04-05,1,,,,,コクリエ,0
1894,8120001253750,新規,0,2023-04-05,2023-04-05,Ｙｔソリューションズ株式会社,,株式会社,大阪府,大阪市中央区,難波４丁目１－１５近鉄難波ビル１・２・３Ｆリージャス近鉄難波センター,,27,128,5420076,,,,,,,2023-04-05,1,,,,,ワイティソリューションズ,0
1895,8120001253759,新規,0,2023-04-05,2023-04-05,日本ＬＥＤサイネージ株式会社,,株式会社,大阪府,大阪市住吉区,北田辺二丁目８番２１号,,27,120,5580000,,,,,,,2023-04-05,1,,,,,ニホンエルイーディーサイネージ,0
1896,8120001253767,新規,0,2023-04-05,2023-04-05,株式会社Ｔ’ＣＲＥＷ,,株式会社,大阪府,大阪市西区,江之子島１丁目１０－１阿波座スポーツメディカルビル６階,,27,106,5500006,,,,,,,2023-04-05,1,,,,,ティークルー,0
1898,8120003023763,新規,0,2023-04-05,2023-04-05,合同会社ＩＳＬＡＮＤ,,合同会社,大阪府,門真市,三ツ島４丁目５番９号,,27,223,5710015,,,,,,,2023-04-05,1,,,,,アイランド,0
1901,8120005023547,新規,0,2023-04-05,2023-04-05,一般社団法人こどもの未知しるべ,,その他の設立登記法人,大阪府,大阪市天王寺区,石ケ辻町１８番１３号,,27,109,5430031,,,,,,,2023-04-05,1,,,,,コドモノミチシルベ,0
1906,8120101067266,新規,0,2023-04-05,2023-04-05,株式会社ラミナ動物病院,,株式会社,大阪府,堺市西区,浜寺諏訪森町西４丁３７９番地,,27,144,5928347,,,,,,,2023-04-05,1,,,,,ラミナドウブツビョウイン,0
1909,8120901047335,新規,0,2023-04-05,2023-04-05,Ａｍｂｉｔｉｏｕｓ　ＡＩ株式会社,,株式会社,大阪府,豊中市,服部豊町１丁目１２番５号桜ハイツ服部１０１号室,,27,203,5610859,,,,,,,2023-04-05,1,,,,,アンビシャスエアイ,0
1916,8130001073999,新規,0,2023-04-05,2023-04-05,株式会社Ｋ＆Ｋ設備,,株式会社,京都府,京都市伏見区,向島四ツ谷池５番地,,26,109,6128136,,,,,,,2023-04-05,1,,,,,ケイアンドケイセツビ,0
1918,8130005016731,新規,0,2023-04-05,2023-04-05,一般社団法人ひだまり,,その他の設立登記法人,京都府,京都市中京区,壬生高樋町４３番地１４,,26,104,6048824,,,,,,,2023-04-05,1,,,,,ヒダマリ,0
1922,8140001129610,新規,0,2023-04-05,2023-04-05,株式会社ハッピーアズラリー,,株式会社,兵庫県,明石市,中崎２丁目２番８－１０１号,,28,203,6730883,,,,,,,2023-04-05,1,,,,,ハッピーアズラリー,0
1923,8140001129676,新規,0,2023-04-05,2023-04-05,株式会社アールキューブ,,株式会社,兵庫県,神戸市須磨区,松風町６丁目１番２号,,28,107,6540045,,,,,,,2023-04-05,1,,,,,アールキューブ,0
1925,8140003018910,新規,0,2023-04-05,2023-04-05,ＴＩｎｋｇｒｏｕｐ合同会社,,合同会社,兵庫県,神戸市灘区,灘南通２丁目３番７号,,28,102,6570841,,,,,,,2023-04-05,1,,,,,インクグループ,0
1927,8150001026286,新規,0,2023-04-05,2023-04-05,株式会社ＹＡＭＡＴＯ　Ｃｒｅａｔｉｖｅ　Ｗｏｒｋｓ,,株式会社,奈良県,橿原市,菖蒲町１丁目５－１２,,29,205,6340042,,,,,,,2023-04-05,1,,,,,,0
1928,8150003002921,新規,0,2023-04-05,2023-04-05,合同会社ホリーホック,,合同会社,奈良県,生駒市,白庭台５丁目１２番２－７０４号,,29,209,6300136,,,,,,,2023-04-05,1,,,,,,0
1931,8160001024958,新規,0,2023-04-05,2023-04-05,株式会社セブンカラーズプラス,,株式会社,滋賀県,大津市,本堅田１丁目２６－４１,,25,201,5200242,,,,,,,2023-04-05,1,,,,,セブンカラーズプラス,0
1935,8180001155636,新規,0,2023-04-05,2023-04-05,株式会社マッスル,,株式会社,愛知県,稲沢市,六角堂西町１丁目２番地２２,,23,220,4928171,,,,,,,2023-04-05,1,,,,,マッスル,0
1936,8180001155644,新規,0,2023-04-05,2023-04-05,ザ・すまいるカンパニーホールディングス株式会社,,株式会社,愛知県,名古屋市中区,栄３丁目１８番１号ナディアパークビジネスセンタービル１３階,,23,106,4600008,,,,,,,2023-04-05,1,,,,,ザスマイルカンパニーホールディングス,0
1937,8180001155685,新規,0,2023-04-05,2023-04-05,ＦｉｎｅＰｌａｎｅｔ株式会社,,株式会社,愛知県,名古屋市中区,栄５丁目１２番３２号２Ｆ,,23,106,4600008,,,,,,,2023-04-05,1,,,,,ファインプラネット,0
1942,8190001030301,新規,0,2023-04-05,2023-04-05,株式会社ＭＡＴＳＵＢＡＲＡ,,株式会社,三重県,津市,高茶屋７丁目９－５０,,24,201,5140819,,,,,,,2023-04-05,1,,,,,マツバラ,0
1944,8200001041156,新規,0,2023-04-05,2023-04-05,株式会社トラストＯＮＥ,,株式会社,岐阜県,安八郡神戸町,大字神戸１１１２番地１,,21,381,5032305,,,,,,,2023-04-05,1,,,,,トラストワン,0
1947,8220003003490,新規,0,2023-04-05,2023-04-05,合同会社ヤマギシ,,合同会社,石川県,金沢市,直江北１丁目１２７番地１,,17,201,9208218,,,,,,,2023-04-05,1,,,,,ヤマギシ,0
1949,8230005009287,新規,0,2023-04-05,2023-04-05,特定非営利活動法人ＣｏｄｅｒＤｏｊｏ滑川,,その他の設立登記法人,富山県,滑川市,常盤町１１１７番地２,,16,206,9360027,,,,,,,2023-04-05,1,,,,,コーダードウジョウナメリカワ,0
1953,8240001061274,新規,0,2023-04-05,2023-04-05,株式会社ｇｏｉｎｇ,,株式会社,広島県,広島市東区,矢賀６丁目４番３６号,,34,102,7320042,,,,,,,2023-04-05,1,,,,,ゴーイング,0
1954,8240001061290,新規,0,2023-04-05,2023-04-05,株式会社マスダ・コーポレーション,,株式会社,広島県,広島市安佐南区,東原１丁目１６番２０号,,34,105,7310112,,,,,,,2023-04-05,1,,,,,マスダコーポレーション,0
1960,8240003006087,新規,0,2023-04-05,2023-04-05,合同会社ミトシロプラン,,合同会社,広島県,呉市,焼山政畝２丁目４番４号,,34,202,7370934,,,,,,,2023-04-05,1,,,,,ミトシロプラン,0
1971,8290001101034,新規,0,2023-04-05,2023-04-05,株式会社テイクＦルート,,株式会社,福岡県,福岡市東区,香住ヶ丘５丁目２１番３７号,,40,131,8130003,,,,,,,2023-04-05,1,,,,,テイクルート,0
1972,8290001101091,新規,0,2023-04-05,2023-04-05,株式会社ＴＯＦ,,株式会社,福岡県,福岡市南区,横手南町１７番２７－２０６号Ａｌｉｃｓｔｙｌｅアバンス井尻,,40,134,8111312,,,,,,,2023-04-05,1,,,,,ティオーエフ,0
1973,8290001101117,新規,0,2023-04-05,2023-04-05,株式会社ルーフクレスト,,株式会社,福岡県,那珂川市,大字後野８３７番地８,,40,231,8111241,,,,,,,2023-04-05,1,,,,,ルーフクレスト,0
1975,8290003013715,新規,0,2023-04-05,2023-04-05,合同会社Ｄｒａｗ,,合同会社,福岡県,福岡市中央区,平尾４丁目２－６グランドメゾン平尾プレイス３０２,,40,133,8100014,,,,,,,2023-04-05,1,,,,,ドロー,0
1976,8290003013748,新規,0,2023-04-05,2023-04-05,合同会社ＲＥＩＷＡ会計,,合同会社,福岡県,福岡市東区,社領１丁目１番２２－１６０２号,,40,131,8120068,,,,,,,2023-04-05,1,,,,,レイワカイケイ,0
1978,8290803004376,新規,0,2023-04-05,2023-04-05,ＢＬＵＥ　ＬＩＮＥ合同会社,,合同会社,福岡県,北九州市八幡西区,別所町１６‐１４‐３０２号,,40,109,8060068,,,,,,,2023-04-05,1,,,,,ブルーライン,0
1982,8320001019660,新規,0,2023-04-05,2023-04-05,株式会社ＳＥＩＥＩ,,株式会社,大分県,佐伯市,大字戸穴３２３番地７,,44,205,8761106,,,,,,,2023-04-05,1,,,,,セイエイ,0
1989,8330001030724,新規,0,2023-04-05,2023-04-05,株式会社ＫＵＲＯＧＩ,,株式会社,熊本県,菊池郡大津町,大字引水８２５番地５,,43,403,8691234,,,,,,,2023-04-05,1,,,,,クロギ,0
1990,8330001030740,新規,0,2023-04-05,2023-04-05,Ｋショップ株式会社,,株式会社,熊本県,熊本市南区,流通団地１丁目２番地２階,,43,104,8620967,,,,,,,2023-04-05,1,,,,,ケイショップ,0
1993,8330003009790,新規,0,2023-04-05,2023-04-05,合同会社万菜村,,合同会社,熊本県,熊本市北区,植木町今藤１１４０番地１,,43,105,8610104,,,,,,,2023-04-05,1,,,,,マンナムラ,0
1996,8340001025459,新規,0,2023-04-05,2023-04-05,株式会社エムズ総業,,株式会社,鹿児島県,奄美市,名瀬朝仁町１１番地１（２Ｆ）,,46,222,8940042,,,,,,,2023-04-05,1,,,,,エムズソウギョウ,0
1997,8340001025467,新規,0,2023-04-05,2023-04-05,Ｔ‐ｖｉｅｎｔｏ株式会社,,株式会社,鹿児島県,姶良市,西餅田１２５７番地２４,,46,225,8995431,,,,,,,2023-04-05,1,,,,,ティービエント,0
1998,8340001025475,新規,0,2023-04-05,2023-04-05,株式会社ＤＥＳＩＧＮ　ＯＦＦＩＣＥ　ＡＲＣＨＩＭＥＴＡ,,株式会社,鹿児島県,霧島市,隼人町内１４２９番地３０３,,46,218,8995116,,,,,,,2023-04-05,1,,,,,デザインオフィスアーキメタ,0
1999,8340003004089,新規,0,2023-04-05,2023-04-05,合同会社フォロー,,合同会社,鹿児島県,霧島市,隼人町東郷１０９７‐１,,46,218,8995115,,,,,,,2023-04-05,1,,,,,フォロー,0
2001,8350001018271,新規,0,2023-04-05,2023-04-05,株式会社ＢｅＦＰ,,株式会社,宮崎県,宮崎市,田代町２５８番地３,,45,201,8800855,,,,,,,2023-04-05,1,,,,,ビーエフピー,0
2002,8360001031793,新規,0,2023-04-05,2023-04-05,株式会社ちくいん,,株式会社,沖縄県,那覇市,繁多川１丁目２１番５号コーポ長嶺１０３,,47,201,9020071,,,,,,,2023-04-05,1,,,,,チクイン,0
2003,8370001049777,新規,0,2023-04-05,2023-04-05,株式会社赤木塗装,,株式会社,宮城県,仙台市泉区,山の寺２丁目２０番３４号,,04,105,9813103,,,,,,,2023-04-05,1,,,,,アカギトソウ,0
2010,8390001017204,新規,0,2023-04-05,2023-04-05,斗桜工業株式会社,,株式会社,山形県,天童市,柏木町１丁目２番１９号,,06,210,9940003,,,,,,,2023-04-05,1,,,,,トオウコウギョウ,0
2011,8410003003777,新規,0,2023-04-05,2023-04-05,合同会社ブリコラボ,,合同会社,秋田県,仙北郡美郷町,六郷字西高方町９９番地４,,05,434,0191404,,,,,,,2023-04-05,1,,,,,ブリコラボ,0
2013,8420003002695,新規,0,2023-04-05,2023-04-05,Ｋａｎｅｓｏ合同会社,,合同会社,青森県,南津軽郡藤崎町,大字藤崎字四本松５１番地,,02,361,0383802,,,,,,,2023-04-05,1,,,,,カネソ,0
2017,8430003014921,新規,0,2023-04-05,2023-04-05,合同会社ＳＳＳ,,合同会社,北海道,札幌市中央区,南八条西１丁目１３番地１３９Ｓ－ＦＯＲＴ中島公園２０２,,01,101,0640808,,,,,,,2023-04-05,1,,,,,トリプルエス,0
2031,8500001024857,新規,0,2023-04-05,2023-04-05,株式会社すみれ不動産,,株式会社,愛媛県,松山市,高砂町２丁目３－３梨々マンション４０１,,38,201,7900822,,,,,,,2023-04-05,1,,,,,スミレフドウサン,0
2032,8500003003009,新規,0,2023-04-05,2023-04-05,合同会社柴電,,合同会社,愛媛県,新居浜市,田の上３丁目６番２１号,,38,205,7920888,,,,,,,2023-04-05,1,,,,,シバデン,0
2033,8700150115164,新規,0,2023-04-05,2023-04-05,Ｄｅｑｉｎｇ　Ａｉｓｈｅ　Ｐｅｔ　Ｐｒｏｄｕｃｔｓ　Ｃｏ．，ｌｔｄ,,外国会社等,,,,,,,,Ｘｉｎ　Ａｎ　Ｚｈｅｎ　Ｈｏｎｇ　Ｆｅｎｇ　Ｃｕｎ，Ｄｅｑｉｎｇ　Ｃｏｕｎｔｙ，Ｈａｎｇｚｈｏｕ　Ｃｉｔｙ，Ｚｈｅｊｉａｎｇ　Ｐｒｏｖｉｎｃｅ,,,,,,2023-04-05,1,,,,,ダーチンアイショーチョンウーヨンピンヨウシエンゴンスー,0
2034,9010001234174,新規,0,2023-04-05,2023-04-05,Ｅｍｐｉｒｅ　Ｔｅｃｈｎｏｌｏｇｉｃａｌ　Ｇｒｏｕｐ　Ｌｉｍｉｔｅｄ　Ｊａｐａｎ株式会社,,株式会社,東京都,千代田区,神田須田町１丁目２番地７淡路町駅前ビル３階,,13,101,1010041,,,,,,,2023-04-05,1,,,,,エンパイアテクノロジカルグループリミテッドジャパン,0
2037,9010005036443,新規,0,2023-04-05,2023-04-05,一般社団法人横浜明神平風力発電,,その他の設立登記法人,東京都,千代田区,丸の内３丁目１番１号東京共同会計事務所内,,13,101,1000005,,,,,,,2023-04-05,1,,,,,ヨコハマミョウジンダイラフウリョクハツデン,0
2040,9010401173451,新規,0,2023-04-05,2023-04-05,株式会社ＩＥＣ,,株式会社,東京都,港区,新橋２丁目２番５号４階,,13,103,1050004,,,,,,,2023-04-05,1,,,,,アイイーシー,0
2041,9010401173476,新規,0,2023-04-05,2023-04-05,株式会社ＡＩＺ,,株式会社,東京都,港区,南青山２丁目２番１５号,,13,103,1070062,,,,,,,2023-04-05,1,,,,,アイズ,0
2042,9010401173484,新規,0,2023-04-05,2023-04-05,鶴株式会社,,株式会社,東京都,港区,白金２丁目７番３９号,,13,103,1080072,,,,,,,2023-04-05,1,,,,,ツル,0
2048,9010501050212,新規,0,2023-04-05,2023-04-05,ＢＡＹＡＮＨＡＲＡ株式会社,,株式会社,東京都,台東区,東上野１丁目１９番２－２０４号,,13,106,1100015,,,,,,,2023-04-05,1,,,,,バヤンハラ,0
2058,9010803004493,新規,0,2023-04-05,2023-04-05,合同会社Ｈａｒｍｏｎｙ,,合同会社,東京都,大田区,久が原１丁目３番２５号,,13,111,1460085,,,,,,,2023-04-05,1,,,,,ハーモニー,0
2059,9010903008031,新規,0,2023-04-05,2023-04-05,Ｏｃｅａｎｏ合同会社,,合同会社,東京都,世田谷区,奥沢５丁目１４―２８－１Ａ,,13,112,1580083,,,,,,,2023-04-05,1,,,,,オチェーアノ,0
2062,9011001153505,新規,0,2023-04-05,2023-04-05,株式会社ＩＣＴ,,株式会社,東京都,目黒区,五本木１丁目３２番２７号ヴァンベール五本木１０２,,13,110,1530053,,,,,,,2023-04-05,1,,,,,アイシーティー,0
2063,9011001153612,新規,0,2023-04-05,2023-04-05,ｇｏｏｄ　ｌｕｃｋ株式会社,,株式会社,東京都,渋谷区,道玄坂１丁目１０番８号渋谷道玄坂東急ビル２Ｆ－Ｃ,,13,113,1500043,,,,,,,2023-04-05,1,,,,,グッドラック,0
2067,9011101102378,新規,0,2023-04-05,2023-04-05,株式会社ポトリーチェ,,株式会社,東京都,新宿区,百人町１丁目４番１６号内藤ビル４０１号,,13,104,1690073,,,,,,,2023-04-05,1,,,,,ポトリーチェ,0
2068,9011103012889,新規,0,2023-04-05,2023-04-05,合同会社ＰＲＡＤＯ,,合同会社,東京都,新宿区,早稲田鶴巻町５７６番地桐生第２ビル,,13,104,1620041,,,,,,,2023-04-05,1,,,,,プラド,0
2069,9011105010610,新規,0,2023-04-05,2023-04-05,特定目的会社グローバル汐留,,その他の設立登記法人,東京都,新宿区,四谷２丁目９番地１５東京ユナイテッド綜合事務所内,,13,104,1600004,,,,,,,2023-04-05,1,,,,,グローバルシオドメ,0
2070,9011201024539,新規,0,2023-04-05,2023-04-05,ＴＭＫスピンアウト株式会社,,株式会社,東京都,中野区,弥生町４丁目４３番８号,,13,114,1640013,,,,,,,2023-04-05,1,,,,,ティーエムケースピンアウト,0
2071,9011201024547,新規,0,2023-04-05,2023-04-05,株式会社メンテル,,株式会社,東京都,中野区,中野２丁目１９－２中野第一ＯＳビル３Ｆ,,13,114,1640001,,,,,,,2023-04-05,1,,,,,メンテル,0
2074,9011701026126,新規,0,2023-04-05,2023-04-05,株式会社ＭＹＳＴＥＲＩＯＮ,,株式会社,東京都,江戸川区,南小岩７丁目２７－１３ドゥメリービル５Ｆ,,13,123,1330056,,,,,,,2023-04-05,1,,,,,ミステリオン,0
2075,9012301013381,新規,0,2023-04-05,2023-04-05,ＭＡＳＡＮＯＫ株式会社,,株式会社,東京都,町田市,成瀬台１丁目１７番地２,,13,209,1940043,,,,,,,2023-04-05,1,,,,,マサノック,0
2078,9012401040367,新規,0,2023-04-05,2023-04-05,株式会社Ａｘｉｓ,,株式会社,東京都,多摩市,関戸２丁目１７番地の２,,13,224,2060011,,,,,,,2023-04-05,1,,,,,アクシス,0
2080,9012801022246,新規,0,2023-04-05,2023-04-05,株式会社ＳＦＪ,,株式会社,東京都,昭島市,中神町１１７０番地１シティハウス中野２０１号,,13,207,1960022,,,,,,,2023-04-05,1,,,,,エスエフジェー,0
2082,9012803003046,新規,0,2023-04-05,2023-04-05,合同会社ＡＩＴＹＳ慶進,,合同会社,東京都,昭島市,中神町１１６５－９,,13,207,1960022,,,,,,,2023-04-05,1,,,,,エーアイティーズケイシン,0
2085,9013301050547,新規,0,2023-04-05,2023-04-05,ＥＳＳ株式会社,,株式会社,東京都,豊島区,西池袋３丁目２５－８福梟ビル,,13,116,1710021,,,,,,,2023-04-05,1,,,,,イーエスエス,0
2087,9020001073761,新規,0,2023-04-05,2023-04-05,ナミキ建設工業株式会社,,株式会社,神奈川県,川崎市川崎区,日進町２６番地１１トーア川崎マンション３３４,,14,131,2100024,,,,,,,2023-04-05,1,,,,,ナミキケンセツコウギョウ,0
2091,9020001150924,新規,0,2023-04-05,2023-04-05,株式会社プラスタッフ,,株式会社,神奈川県,川崎市川崎区,渡田１丁目１６番５号,,14,131,2100837,,,,,,,2023-04-05,1,,,,,プラスタッフ,0
2092,9020001150932,新規,0,2023-04-05,2023-04-05,株式会社Ｃｙｎｔｈｉａ,,株式会社,神奈川県,横浜市鶴見区,矢向３丁目３３番１８号,,14,101,2300001,,,,,,,2023-04-05,1,,,,,シンシア,0
2093,9020001150940,新規,0,2023-04-05,2023-04-05,株式会社ＴＳＯ,,株式会社,神奈川県,横浜市磯子区,洋光台２丁目１３番３－３０８号,,14,107,2350045,,,,,,,2023-04-05,1,,,,,ティーエスオー,0
2094,9020001150949,新規,0,2023-04-05,2023-04-05,玉城興業株式会社,,株式会社,神奈川県,川崎市宮前区,野川本町２丁目７－７,,14,136,2160041,,,,,,,2023-04-05,1,,,,,タマシロコウギョウ,0
2097,9021001078610,新規,0,2023-04-05,2023-04-05,ＨＯＲＩＧＵＣＨＩ　ＨＤ株式会社,,株式会社,神奈川県,足柄上郡開成町,牛島３３１番地,,14,366,2580022,,,,,,,2023-04-05,1,,,,,ホリグチエイチディー,0
2099,9030001153100,新規,0,2023-04-05,2023-04-05,株式会社アヴァンツァーレ,,株式会社,埼玉県,川口市,大字芝４７７２番地,,11,203,3330866,,,,,,,2023-04-05,1,,,,,アヴァンツァーレ,0
2100,9030001153158,新規,0,2023-04-05,2023-04-05,株式会社すずらん,,株式会社,埼玉県,川越市,的場北２丁目３番地１,,11,201,3501102,,,,,,,2023-04-05,1,,,,,スズラン,0
2107,9040001127747,新規,0,2023-04-05,2023-04-05,工藤電業株式会社,,株式会社,千葉県,柏市,新柏１丁目１６番地１２,,12,217,2770084,,,,,,,2023-04-05,1,,,,,クドウデンギョウ,0
2108,9040001127755,新規,0,2023-04-05,2023-04-05,ワイズリアルティ株式会社,,株式会社,千葉県,市川市,八幡５丁目１４番３１号,,12,203,2720021,,,,,,,2023-04-05,1,,,,,ワイズリアルティ,0
2109,9040001127771,新規,0,2023-04-05,2023-04-05,株式会社カプラス,,株式会社,千葉県,習志野市,津田沼１丁目３－１１昭和第３ビル６Ｆ,,12,216,2750016,,,,,,,2023-04-05,1,,,,,カプラス,0
2116,9070001040294,新規,0,2023-04-05,2023-04-05,株式会社大電,,株式会社,群馬県,前橋市,朝倉町１０１番地１,,10,201,3710811,,,,,,,2023-04-05,1,,,,,ダイデン,0
2118,9080001025550,新規,0,2023-04-05,2023-04-05,株式会社セルマップ,,株式会社,静岡県,静岡市駿河区,大谷８３６番地農学総合棟４階プロジェクト実験室,,22,102,4228017,,,,,,,2023-04-05,1,,,,,セルマップ,0
2129,9100003006950,新規,0,2023-04-05,2023-04-05,合同会社ＳＰＯＯＮ,,合同会社,長野県,上伊那郡中川村,片桐３９１９番地２,,20,386,3993802,,,,,,,2023-04-05,1,,,,,スプーン,0
2132,9110003005019,新規,0,2023-04-05,2023-04-05,合同会社ＦＩＴＣＨ,,合同会社,新潟県,新潟市中央区,鳥屋野４丁目１０－４７ラメゾンＳＨ３０１,,15,103,9500951,,,,,,,2023-04-05,1,,,,,フィッチ,0
2139,9120001253642,新規,0,2023-04-05,2023-04-05,株式会社イコー・ホールディングス,,株式会社,大阪府,大阪市中央区,島之内２丁目２番２号,,27,128,5420082,,,,,,,2023-04-05,1,,,,,イコーホールディングス,0
2140,9120001253659,新規,0,2023-04-05,2023-04-05,ウェル株式会社,,株式会社,大阪府,大阪市東住吉区,山坂４丁目５番１５号,,27,121,5460035,,,,,,,2023-04-05,1,,,,,ウェル,0
2141,9120001253700,新規,0,2023-04-05,2023-04-05,株式会社１０ＷＩＬＬ,,株式会社,大阪府,大阪市都島区,都島中通２丁目１番９号,,27,102,5340022,,,,,,,2023-04-05,1,,,,,テンウィル,0
2142,9120001253717,新規,0,2023-04-05,2023-04-05,株式会社ＲＯＶＥＲＳＩ,,株式会社,大阪府,大阪市中央区,南船場４丁目１０番２８号２０１,,27,128,5420081,,,,,,,2023-04-05,1,,,,,ロベルシ,0
2143,9120001253774,新規,0,2023-04-05,2023-04-05,庚雨株式会社,,株式会社,大阪府,大阪市城東区,新喜多東２丁目８番２３号１Ｆ－Ａ号室,,27,118,5360017,,,,,,,2023-04-05,1,,,,,コウウ,0
2144,9120003023606,新規,0,2023-04-05,2023-04-05,瀚海国際合同会社,,合同会社,大阪府,大阪市浪速区,恵美須西２丁目３番２１号,,27,111,5560003,,,,,,,2023-04-05,1,,,,,カンカイコクサイ,0
2145,9120003023770,新規,0,2023-04-05,2023-04-05,Ｓ．Ｄｅｓｉｇｎ．Ｌａｂｏ合同会社,,合同会社,大阪府,大阪市北区,梅田１丁目１－３大阪駅前第３ビル２９階１－１－１号室,,27,127,5300001,,,,,,,2023-04-05,1,,,,,エスデザインラボ,0
2156,9120901047334,新規,0,2023-04-05,2023-04-05,株式会社七曜,,株式会社,大阪府,吹田市,津雲台５丁目１１番３号グローバルビレッジ津雲台つくもスクエア１Ｆ,,27,205,5650862,,,,,,,2023-04-05,1,,,,,シチヨウ,0
2157,9120901047350,新規,0,2023-04-05,2023-04-05,クリアーコーポレーション株式会社,,株式会社,大阪府,吹田市,垂水町１丁目４１番１２号Ｄ－２,,27,205,5640062,,,,,,,2023-04-05,1,,,,,クリアーコーポレーション,0
2160,9120903004572,新規,0,2023-04-05,2023-04-05,合同会社Ｋ２Ｔ,,合同会社,大阪府,吹田市,千里山西４丁目３３番３２号,,27,205,5650851,,,,,,,2023-04-05,1,,,,,ケーツーティー,0
2173,9140001129601,新規,0,2023-04-05,2023-04-05,株式会社ＳＦ１,,株式会社,兵庫県,神戸市東灘区,岡本７丁目２０番７号,,28,101,6580072,,,,,,,2023-04-05,1,,,,,エスエフワン,0
2174,9140001129659,新規,0,2023-04-05,2023-04-05,ナガセミライ株式会社,,株式会社,兵庫県,たつの市,龍野町中井２３６番地,,28,229,6794124,,,,,,,2023-04-05,1,,,,,ナガセミライ,0
2175,9140001129683,新規,0,2023-04-05,2023-04-05,コンフォート株式会社,,株式会社,兵庫県,芦屋市,海洋町５番２７号,,28,206,6590035,,,,,,,2023-04-05,1,,,,,コンフォート,0
2189,9160005011183,新規,0,2023-04-05,2023-04-05,一般社団法人栗東生活支援協議会,,その他の設立登記法人,滋賀県,栗東市,安養寺１９０番地,,25,208,5203015,,,,,,,2023-04-05,1,,,,,リットウセイカツシエンキョウギカイ,0
2194,9180001155619,新規,0,2023-04-05,2023-04-05,株式会社ＵＰ１０,,株式会社,愛知県,名古屋市中村区,千原町３番５１号エムテックサンシャイン栄生ビル４Ａ,,23,105,4530011,,,,,,,2023-04-05,1,,,,,アップテン,0
2195,9180001155684,新規,0,2023-04-05,2023-04-05,株式会社みらいラボ,,株式会社,愛知県,清須市,寺野郷前５１番地２,,23,233,4520908,,,,,,,2023-04-05,1,,,,,ミライラボ,0
2196,9180001155701,新規,0,2023-04-05,2023-04-05,株式会社天翔,,株式会社,愛知県,名古屋市東区,砂田橋２丁目１番Ｄ－１００９号,,23,102,4610045,,,,,,,2023-04-05,1,,,,,テンショウ,0
2199,9180005020158,新規,0,2023-04-05,2023-04-05,一般社団法人あいち美浜町観光協会,,その他の設立登記法人,愛知県,知多郡美浜町,大字奥田字森越７０番地３名鉄知多奥田駅高架下,,23,446,4703233,,,,,,,2023-04-05,1,,,,,アイチミハマチョウカンコウキョウカイ,0
2203,9190001030291,新規,0,2023-04-05,2023-04-05,株式会社ｉｎｔｅｒｌｉｎｋ,,株式会社,三重県,鈴鹿市,白子町２９１８番地の１,,24,207,5100244,,,,,,,2023-04-05,1,,,,,インターリンク,0
2204,9210001019274,新規,0,2023-04-05,2023-04-05,株式会社ｖｉｖｉｄｃｒｅａｔｉｏｎ,,株式会社,福井県,丹生郡越前町,横山６２－２－２３,,18,423,9160125,,,,,,,2023-04-05,1,,,,,ビビッドクリエイション,0
2206,9230005009286,新規,0,2023-04-05,2023-04-05,社会保険労務士法人畠山労務管理事務所,,その他の設立登記法人,富山県,高岡市,内免２丁目６番２１号,,16,202,9330941,,,,,,,2023-04-05,1,,,,,ハタケヤマロウムカンリジムショ,0
2212,9260001037809,新規,0,2023-04-05,2023-04-05,株式会社クリエ・リビンズ,,株式会社,岡山県,倉敷市,徳芳３７７番地,,33,202,7100011,,,,,,,2023-04-05,1,,,,,クリエリビンズ,0
2213,9260001037817,新規,0,2023-04-05,2023-04-05,株式会社神逢,00129951,株式会社,岡山県,岡山市北区,奥田本町４番３号,,33,101,7000932,,,,,,,2023-04-05,1,,,,,カミアウ,0
2215,9260005011207,新規,0,2023-04-05,2023-04-05,ＳＧＲ協同組合,,その他の設立登記法人,岡山県,岡山市北区,富原３７８８番地１,,33,101,7011153,,,,,,,2023-04-05,1,,,,,エスジーアール,0
2216,9270001008750,新規,0,2023-04-05,2023-04-05,株式会社Ｂｅ．Ａｌｉｓ,,株式会社,鳥取県,米子市,新開１丁目７番２７号,,31,202,6830801,,,,,,,2023-04-05,1,,,,,ビアリス,0
2218,9290001101033,新規,0,2023-04-05,2023-04-05,株式会社Ｌｉｆｅ　Ｇｏｅｓ　Ｏｎ,,株式会社,福岡県,糟屋郡久山町,大字山田１５５０番地１０,,40,348,8112502,,,,,,,2023-04-05,1,,,,,ライフゴーズオン,0
2219,9290001101058,新規,0,2023-04-05,2023-04-05,株式会社富田商会,,株式会社,福岡県,太宰府市,水城４丁目２５番１３号,,40,221,8180131,,,,,,,2023-04-05,1,,,,,トミタショウカイ,0
2220,9290001101066,新規,0,2023-04-05,2023-04-05,株式会社ａｎｄ　Ｅ,,株式会社,福岡県,福岡市中央区,大手門２丁目１番１０－８０７号,,40,133,8100074,,,,,,,2023-04-05,1,,,,,アンドイー,0
2222,9290005018991,新規,0,2023-04-05,2023-04-05,一般社団法人日蒔野振興,,その他の設立登記法人,福岡県,福津市,福間南２丁目１番１６号,,40,224,8113212,,,,,,,2023-04-05,1,,,,,,0
2223,9290005019008,新規,0,2023-04-05,2023-04-05,医療法人癒心会,,その他の設立登記法人,福岡県,福岡市西区,内浜１丁目１番５号,,40,135,8190005,,,,,,,2023-04-05,1,,,,,ユウシンカイ,0
2233,9340001025474,新規,0,2023-04-05,2023-04-05,株式会社さくらみらい,,株式会社,鹿児島県,奄美市,名瀬幸町１４番１６号,,46,222,8940025,,,,,,,2023-04-05,1,,,,,サクラミライ,0
2239,9360001031776,新規,0,2023-04-05,2023-04-05,Ｎｅｗｅｌｌ　Ｅｎｅｒｇｙ株式会社,,株式会社,沖縄県,石垣市,字登野城９－４ＩＣＴ文化ホール５階,,47,207,9070004,,,,,,,2023-04-05,1,,,,,ニューウェルエナジー,0
2240,9360003012840,新規,0,2023-04-05,2023-04-05,合同会社アスタリスク,,合同会社,沖縄県,那覇市,泊１丁目１６番地３サンパレス泊２－Ｂ,,47,201,9000012,,,,,,,2023-04-05,1,,,,,アスタリスク,0
2250,9380001033597,新規,0,2023-04-05,2023-04-05,株式会社オオクワ,,株式会社,福島県,南相馬市,原町区北長野字南原田７６番地の５,,07,212,9750072,,,,,,,2023-04-05,1,,,,,オオクワ,0
2253,9400003003050,新規,0,2023-04-05,2023-04-05,山屋創業合同会社,,合同会社,岩手県,紫波郡紫波町,山屋字山口１０７番地,,03,321,0283531,,,,,,,2023-04-05,1,,,,,ヤマヤソウギョウ,0
2255,9410003003776,新規,0,2023-04-05,2023-04-05,合同会社Ｌｉｂｅｒｔｙ,,合同会社,秋田県,秋田市,大町５丁目１－１９ＢＢプランニングビル１Ｆ,,05,201,0100921,,,,,,,2023-04-05,1,,,,,リバティー,0
2259,9420003002694,新規,0,2023-04-05,2023-04-05,合同会社Ｆ．Ｋ．ＨｏｕｓｅＳｔｙｌｅ,,合同会社,青森県,三戸郡南部町,大字高瀬字櫓長根４４番地１,,02,445,0390507,,,,,,,2023-04-05,1,,,,,エフケーハウススタイル,0
2271,9470003002384,新規,0,2023-04-05,2023-04-05,合同会社Ｗ・Ｓ・Ｅ設計事務所,,合同会社,香川県,高松市,太田上町１３１０番地６,,37,201,7618074,,,,,,,2023-04-05,1,,,,,ダブリュエスイーセッケイジムショ,0
2273,9480001012054,新規,0,2023-04-05,2023-04-05,株式会社ＨＩアーキテクノ,,株式会社,徳島県,板野郡松茂町,中喜来字稲本９９番地１,,36,401,7710212,,,,,,,2023-04-05,1,,,,,エイチアイアーキテクノ,0
2277,9500001024856,新規,0,2023-04-05,2023-04-05,株式会社Ｋ．ＣＴＬ７,,株式会社,愛媛県,松山市,道後町１丁目１番７号－１階,,38,201,7900843,,,,,,,2023-04-05,1,,,,,ケードットシーティーエルセブン,0
2279,9700150115171,新規,0,2023-04-05,2023-04-05,Ｓｈｅｎｚｈｅｎ　Ｍｅｋｉｎ　Ｔｒａｄｉｎｇ　Ｃｏ．，Ｌｔｄ,,外国会社等,,,,,,,,Ｓｈａｊｉｎｇ　Ｓｔｒｅｅｔ，Ｂａｏａｎ　Ｄｉｓｔｒｉｃｔ，Ｒｏｏｍ　Ａ０１，５ｔｈ　Ｆｌｏｏｒ，Ｐｅｎｇｃｈｅｎｇｈｕｉｈｅ　Ｌｏｇｉｓｔｉｃｓ　Ｐａｒｋ　Ｓｈｅｎｚｈｅｎ　Ｇｕａｎｇｄｏｎｇ　５１８１０４　ＣＮ,,,,,,2023-04-05,1,,,,,シェンジェンシーメイジンマオイーヨウシエンゴンスー,0
