sequenceNumber,corporateNumber,process,correct,updateDate,changeDate,name,nameImageId,kind,prefectureName,cityName,streetNumber,addressImageId,prefectureCode,cityCode,postCode,addressOutside,addressOutsideImageId,closeDate,closeCause,successorCorporateNumber,changeCause,assignmentDate,latest,enName,enPrefectureName,enCityName,enAddressOutside,furigana,hihyoji
4,1010001200745,登記記録の閉鎖等,0,2024-01-30,2024-01-22,ラックベア株式会社,,株式会社,東京都,渋谷区,東１丁目２番２０－１４０８号,,13,113,1500011,,,2024-01-22,清算の結了等,,,2019-05-21,1,,,,,ラックベア,0
18,1010401113448,登記記録の閉鎖等,0,2024-01-30,2024-01-26,エムアセットコンサルティング株式会社,,株式会社,東京都,渋谷区,代々木２丁目２１番８－４０８号,,13,113,1510053,,,2024-01-26,清算の結了等,,,2015-10-05,1,,,,,エムアセットコンサルティング,0
31,1010603005666,登記記録の閉鎖等,0,2024-01-30,2024-01-25,合同会社プロモーター,,合同会社,東京都,墨田区,緑３丁目２０番８－８０３号,,13,107,1300021,,,2024-01-25,清算の結了等,,,2015-10-05,1,,,,,プロモーター,0
40,1010902001820,登記記録の閉鎖等,0,2024-01-30,2024-01-26,有限会社イリス,,有限会社,東京都,世田谷区,上馬５丁目２８番８号,,13,112,1540011,,,2024-01-26,清算の結了等,,,2015-10-05,1,,,,,イリス,0
43,1011001052870,登記記録の閉鎖等,0,2024-01-30,2024-01-26,株式会社ジャスティンデイビス,,株式会社,東京都,渋谷区,千駄ヶ谷２丁目９番６号,,13,113,1510051,,,2024-01-26,合併による解散等,6011002017348,令和６年１月１６日東京都港区六本木三丁目３番２３－４０３号株式会社コーニッシュ（6011002017348）に合併し解散,2015-10-05,1,,,,,ジャスティンデイビス,0
48,1011101050634,登記記録の閉鎖等,0,2024-01-30,2024-01-22,株式会社ラゾ,,株式会社,東京都,港区,白金１丁目２５番１８－６０１号,,13,103,1080072,,,2024-01-22,清算の結了等,,,2015-10-05,1,,,,,ラゾ,0
60,1011701014427,登記記録の閉鎖等,0,2024-01-30,2024-01-29,株式会社ＩＲＩＳ,,株式会社,東京都,江戸川区,松島２丁目３１番１５号,,13,123,1320031,,,2024-01-29,登記官による閉鎖,,,2015-10-05,1,,,,,,0
63,1011702004229,登記記録の閉鎖等,0,2024-01-30,2024-01-29,有限会社小杉山,,有限会社,東京都,江戸川区,北小岩７丁目１０番２号,,13,123,1330051,,,2024-01-29,登記官による閉鎖,,,2015-10-05,1,,,,,,0
65,1011702011365,登記記録の閉鎖等,0,2024-01-30,2024-01-29,有限会社宮崎製作所,,有限会社,東京都,江戸川区,小松川３丁目７番４号,,13,123,1320034,,,2024-01-29,登記官による閉鎖,,,2015-10-05,1,,,,,,0
66,1011703000581,登記記録の閉鎖等,0,2024-01-30,2024-01-29,ＸＳＯＮＩＣ合資会社,,合資会社,東京都,江戸川区,西小岩２丁目１７番４号,,13,123,1330057,,,2024-01-29,登記官による閉鎖,,,2015-10-05,1,,,,,,0
67,1011705001009,登記記録の閉鎖等,0,2024-01-30,2024-01-29,全国共同工場協同組合,,その他の設立登記法人,東京都,江戸川区,下篠崎町１３番５号,,13,123,1330064,,,2024-01-29,登記官による閉鎖,,,2015-10-05,1,,,,,,0
79,1013201017356,登記記録の閉鎖等,0,2024-01-30,2024-01-25,トライスター・アカデミー株式会社,,株式会社,東京都,世田谷区,奥沢６丁目８番２１号,,13,112,1580083,,,2024-01-25,清算の結了等,,,2015-10-05,1,,,,,トライスターアカデミー,0
82,1013301051230,登記記録の閉鎖等,0,2024-01-30,2024-01-18,株式会社Ｃｏｎｎｅｃｔ　Ｌａｂｏｒａｔｏｒｙ,,株式会社,東京都,豊島区,駒込１丁目２６番２号メゾン・ラフィーネ４０１号,,13,116,1700003,,,2024-01-18,清算の結了等,,,2023-08-21,1,,,,,コネクトラボラトリ,0
123,1050002038883,登記記録の閉鎖等,0,2024-01-30,2024-01-25,有限会社山光ワークス,,有限会社,茨城県,牛久市,上柏田４丁目２７番地１４,,08,219,3001232,,,2024-01-25,清算の結了等,,,2015-10-05,1,,,,,サンコウワークス,0
128,1070001025113,登記記録の閉鎖等,0,2024-01-30,2024-01-24,高栄外装株式会社,00025356,株式会社,群馬県,太田市,沖之郷町４９１番地,,10,205,3730804,,,2024-01-24,清算の結了等,,,2015-10-05,1,,,,,,0
144,1120001171769,登記記録の閉鎖等,0,2024-01-30,2024-01-24,株式会社プリモ,,株式会社,大阪府,大阪市北区,芝田２丁目２番１３号６０７Ｂ,,27,127,5300012,,,2024-01-24,清算の結了等,,,2015-10-05,1,,,,,プリモ,0
147,1120001240549,登記記録の閉鎖等,0,2024-01-30,2024-01-22,株式会社大阪大和賛菓,,株式会社,大阪府,大阪市天王寺区,石ケ辻町１２番３８号,00128712,27,109,5430031,,,2024-01-22,合併による解散等,3120001240670,令和６年１月１日大阪市天王寺区石ヶ辻町７番１３号株式会社袴田カンテラフーズ（3120001240670）に合併し解散,2021-09-28,1,,,,,オオサカヤマトサンカ,0
158,1120901042664,登記記録の閉鎖等,0,2024-01-30,2024-01-29,株式会社ワイエムコンサルティング,,株式会社,大阪府,箕面市,箕面８丁目１６番２５号,,27,220,5620001,,,2024-01-29,清算の結了等,,,2020-04-24,1,,,,,ワイエムコンサルティング,0
165,1122005002561,登記記録の閉鎖等,0,2024-01-30,2024-01-25,医療法人北野内科クリニック,,その他の設立登記法人,大阪府,八尾市,志紀町２丁目４６番地小枝ビルＩＩ２階,00034999,27,212,5810031,,,2024-01-25,清算の結了等,,,2015-10-05,1,,,,,キタノナイカクリニック,0
169,1130005014262,登記記録の閉鎖等,0,2024-01-30,2024-01-26,特定非営利活動法人まごころ山科,,その他の設立登記法人,京都府,京都市山科区,御陵鴨戸町３９－１－１,,26,110,6078432,,,2024-01-26,清算の結了等,,,2015-10-05,1,,,,,マゴコロヤマシナ,0
176,1140002034428,登記記録の閉鎖等,0,2024-01-30,2024-01-25,有限会社アニマルガード西日本,,有限会社,兵庫県,丹波市,氷上町清住２５３番地,,28,223,6693626,,,2024-01-25,清算の結了等,,,2015-10-05,1,,,,,アニマルガードニシニホン,0
180,1150002004776,登記記録の閉鎖等,0,2024-01-30,2024-01-23,有限会社アイコー企画,,有限会社,奈良県,大和郡山市,稗田町１番地の２９,00043408,29,203,6391108,,,2024-01-23,清算の結了等,,,2015-10-05,1,,,,,アイコーキカク,0
191,1180002012611,登記記録の閉鎖等,0,2024-01-30,2024-01-25,有限会社松浦建設,,有限会社,愛知県,名古屋市北区,駒止町１丁目８１番地,,23,103,4620059,,,2024-01-25,清算の結了等,,,2015-10-05,1,,,,,マツウラケンセツ,0
192,1180002034052,登記記録の閉鎖等,0,2024-01-30,2024-01-25,有限会社旭テック,,有限会社,愛知県,名古屋市港区,神宮寺１丁目１２７番地,,23,111,4550834,,,2024-01-25,清算の結了等,,,2015-10-05,1,,,,,アサヒテック,0
202,1220001001552,登記記録の閉鎖等,0,2024-01-30,2024-01-30,株式会社オート興産石川,,株式会社,石川県,野々市市,横宮町３番１号,,17,212,9218817,,,2024-01-30,登記官による閉鎖,,,2015-10-05,1,,,,,オートコウサンイシカワ,0
203,1220002000082,登記記録の閉鎖等,0,2024-01-30,2024-01-30,有限会社はしもと組,,有限会社,石川県,白山市,吉野エ１２３番地,,17,210,9202321,,,2024-01-30,登記官による閉鎖,,,2015-10-05,1,,,,,,0
204,1220002013035,登記記録の閉鎖等,0,2024-01-30,2024-01-30,有限会社リトルサンズ,,有限会社,石川県,加賀市,大聖寺耳聞山町１２０番地,,17,206,9220027,,,2024-01-30,登記官による閉鎖,,,2015-10-05,1,,,,,,0
205,1220005000105,登記記録の閉鎖等,0,2024-01-30,2024-01-30,社団法人石川県交通安全施設業協会,,その他の設立登記法人,石川県,金沢市,弥生２丁目１番２３号,,17,201,9218036,,,2024-01-30,登記官による閉鎖,,,2015-10-05,1,,,,,,0
206,1220005007075,登記記録の閉鎖等,0,2024-01-30,2024-01-30,特定非営利活動法人雇用創出ネットワーク,,その他の設立登記法人,石川県,かほく市,外日角ホ１３３番地１,,17,209,9291176,,,2024-01-30,登記官による閉鎖,,,2015-10-05,1,,,,,,0
210,1240001029311,登記記録の閉鎖等,0,2024-01-30,2024-01-22,Ｃ３株式会社,,株式会社,広島県,広島市佐伯区,三宅２丁目１番１号,,34,108,7315143,,,2024-01-22,清算の結了等,,,2015-10-05,1,,,,,シースリー,0
220,1260001026422,登記記録の閉鎖等,0,2024-01-30,2024-01-30,株式会社三洋ＩＣＳ,,株式会社,岡山県,岡山市北区,中山下１丁目１０番１０号,,33,101,7000821,,,2024-01-30,清算の結了等,,,2015-10-05,1,,,,,サンヨウアイシーエス,0
221,1260002002323,登記記録の閉鎖等,0,2024-01-30,2024-01-29,有限会社オノクリーニング,,有限会社,岡山県,岡山市北区,高松９２０番地の２０,,33,101,7011335,,,2024-01-29,清算の結了等,,,2015-10-05,1,,,,,オノクリーニング,0
226,1290001047928,登記記録の閉鎖等,0,2024-01-30,2024-01-25,株式会社八女鉄筋工業,,株式会社,福岡県,八女市,北田形５５８番地,,40,210,8340021,,,2024-01-25,清算の結了等,,,2015-10-05,1,,,,,ヤメテッキンコウギョウ,0
244,1350001011794,登記記録の閉鎖等,0,2024-01-30,2024-01-23,倉都クリエイション株式会社,,株式会社,宮崎県,都城市,上川東１丁目３号８番地１ミタカホーム１１番館７０３,,45,202,8850012,,,2024-01-23,清算の結了等,,,2015-10-05,1,,,,,ソウトクリエイション,0
255,1420002005400,登記記録の閉鎖等,0,2024-01-30,2024-01-30,有限会社オート・パーク,,有限会社,青森県,青森市,大字幸畑字松元８番地３,,02,201,0300943,,,2024-01-30,登記官による閉鎖,,,2015-10-05,1,,,,,,0
256,1420002009087,登記記録の閉鎖等,0,2024-01-30,2024-01-30,有限会社むらもと,,有限会社,青森県,八戸市,大字類家字縄手下４番地２１,,02,203,0310001,,,2024-01-30,登記官による閉鎖,,,2015-10-05,1,,,,,,0
257,1420005002353,登記記録の閉鎖等,0,2024-01-30,2024-01-30,特定非営利活動法人Ｕ＆Ｅコミュニケーション,,その他の設立登記法人,青森県,青森市,南佃２丁目１６番１号,,02,201,0300964,,,2024-01-30,登記官による閉鎖,,,2015-10-05,1,,,,,,0
258,1420005002650,登記記録の閉鎖等,0,2024-01-30,2024-01-30,社団法人青森県新聞協会,,その他の設立登記法人,青森県,八戸市,白銀４丁目１５番地３,,02,203,0310821,,,2024-01-30,登記官による閉鎖,,,2015-10-05,1,,,,,,0
259,1420005006577,登記記録の閉鎖等,0,2024-01-30,2024-01-30,特定非営利活動法人スワン,,その他の設立登記法人,青森県,むつ市,大字田名部字女舘川目の内栗山３４番地６９,,02,208,0350021,,,2024-01-30,登記官による閉鎖,,,2015-10-05,1,,,,,,0
294,2010403021490,登記記録の閉鎖等,0,2024-01-30,2024-01-19,合同会社ｙｏｍ,,合同会社,東京都,港区,南青山２丁目２番１５号ウィンアオヤマ９４２,,13,103,1070062,,,2024-01-19,清算の結了等,,,2019-10-08,1,,,,,ヨム,0
302,2010501043247,登記記録の閉鎖等,0,2024-01-30,2024-01-26,ＰＡＤ株式会社,,株式会社,東京都,台東区,東上野４丁目６番５号甲祐ビル２階,,13,106,1100015,,,2024-01-26,清算の結了等,,,2018-10-29,1,,,,,パド,0
314,2010703006316,登記記録の閉鎖等,0,2024-01-30,2024-01-24,合同会社ＹＳｔｏｒｙ,,合同会社,東京都,品川区,西大井６丁目１－１－２０２,,13,109,1400015,,,2024-01-24,清算の結了等,,,2022-07-20,1,,,,,ワイストーリー,0
329,2011003016526,登記記録の閉鎖等,0,2024-01-30,2024-01-22,ＲｅｉｎｅＯｎｅ合同会社,,合同会社,東京都,渋谷区,神泉町１０番１５号,,13,113,1500045,,,2024-01-22,清算の結了等,,,2023-04-03,1,,,,,レーヌワン,0
340,2011401016557,登記記録の閉鎖等,0,2024-01-30,2024-01-22,株式会社ＶＩＳＴＡ,,株式会社,東京都,渋谷区,東３丁目１４番１９号オークヒルズ３階,,13,113,1500011,,,2024-01-22,清算の結了等,,,2015-10-05,1,,,,,ビスタ,0
345,2011502012001,登記記録の閉鎖等,0,2024-01-30,2024-01-17,有限会社サービスアンカー益田,,有限会社,東京都,北区,豊島６丁目４番１３号,,13,117,1140003,,,2024-01-17,清算の結了等,,,2015-10-05,1,,,,,,0
349,2011702002033,登記記録の閉鎖等,0,2024-01-30,2024-01-29,有限会社エムイーコーポレーション,,有限会社,東京都,江戸川区,大杉４丁目９番１０号,,13,123,1320022,,,2024-01-29,登記官による閉鎖,,,2015-10-05,1,,,,,,0
350,2011702004970,登記記録の閉鎖等,0,2024-01-30,2024-01-29,有限会社佐藤製作所,,有限会社,東京都,江戸川区,南篠崎町５丁目３番５号,,13,123,1330065,,,2024-01-29,登記官による閉鎖,,,2015-10-05,1,,,,,,0
351,2011702006364,登記記録の閉鎖等,0,2024-01-30,2024-01-29,清公商事有限会社,,有限会社,東京都,江戸川区,鹿骨１丁目２６番６号,,13,123,1330073,,,2024-01-29,登記官による閉鎖,,,2015-10-05,1,,,,,,0
352,2011702007701,登記記録の閉鎖等,0,2024-01-30,2024-01-29,有限会社ティアンドジェイ,,有限会社,東京都,江戸川区,西葛西２丁目２０番１２号,,13,123,1340088,,,2024-01-29,登記官による閉鎖,,,2015-10-05,1,,,,,,0
353,2011702010093,登記記録の閉鎖等,0,2024-01-30,2024-01-29,有限会社フレア,,有限会社,東京都,江戸川区,中葛西６丁目１３番７号,,13,123,1340083,,,2024-01-29,登記官による閉鎖,,,2015-10-05,1,,,,,,0
354,2011702015480,登記記録の閉鎖等,0,2024-01-30,2024-01-29,有限会社明和興機,,有限会社,東京都,江戸川区,東葛西２丁目１８番１４号,,13,123,1340084,,,2024-01-29,登記官による閉鎖,,,2015-10-05,1,,,,,,0
357,2012402022809,登記記録の閉鎖等,0,2024-01-30,2024-01-24,有限会社コンサルティングオフィス,,有限会社,東京都,武蔵野市,中町２丁目２８番４号,,13,203,1800006,,,2024-01-24,清算の結了等,,,2015-10-05,1,,,,,コンサルティングオフィス,0
361,2013201006151,登記記録の閉鎖等,0,2024-01-30,2024-01-24,株式会社吉岡設計事務所,,株式会社,東京都,目黒区,東山３丁目９番３号,,13,110,1530043,,,2024-01-24,清算の結了等,,,2015-10-05,1,,,,,ヨシオカセッケイジムショ,0
377,2030001054437,登記記録の閉鎖等,0,2024-01-30,2024-01-25,株式会社近江屋,,株式会社,埼玉県,川越市,中台元町１丁目５番地９,,11,201,3501138,,,2024-01-25,清算の結了等,,,2015-10-05,1,,,,,,0
385,2030003009216,登記記録の閉鎖等,0,2024-01-30,2024-01-25,ＲＥＮＯＸ合同会社,,合同会社,埼玉県,川口市,戸塚東４丁目１４－３リヴィエールコートＣ２０３,,11,203,3330802,,,2024-01-25,清算の結了等,,,2016-08-15,1,,,,,,0
408,2100001007338,登記記録の閉鎖等,0,2024-01-30,2024-01-25,株式会社タカノ,,株式会社,長野県,佐久市,布施２７１０番地１,,20,217,3842203,,,2024-01-25,清算の結了等,,,2015-10-05,1,,,,,タカノ,0
414,2110005002672,登記記録の閉鎖等,0,2024-01-30,2024-01-22,特定非営利活動法人ＰＡＳＳＴＵＤＩＯ新潟スポーツクラブ,,その他の設立登記法人,新潟県,新潟市西区,内野西２丁目１７番６号,,15,107,9502151,,,2024-01-22,清算の結了等,,,2015-10-05,1,,,,,,0
423,2120003020031,登記記録の閉鎖等,0,2024-01-30,2024-01-23,美美角合同会社,,合同会社,大阪府,大阪市福島区,鷺洲５丁目１２番２１－１００６号,,27,103,5530002,,,2024-01-23,清算の結了等,,,2021-08-16,1,,,,,ミミカク,0
425,2120005021515,登記記録の閉鎖等,0,2024-01-30,2024-01-26,一般社団法人婚活ひろば,,その他の設立登記法人,大阪府,寝屋川市,高柳１丁目１１番２４号,,27,215,5720051,,,2024-01-26,清算の結了等,,,2020-03-30,1,,,,,コンカツヒロバ,0
427,2120901009605,登記記録の閉鎖等,0,2024-01-30,2024-01-29,株式会社ソウシンロジスティクス,,株式会社,大阪府,摂津市,鳥飼銘木町１８番４号,,27,224,5660063,,,2024-01-29,清算の結了等,,,2015-10-05,1,,,,,,0
446,2180001016752,登記記録の閉鎖等,0,2024-01-30,2024-01-25,株式会社三光堂,,株式会社,愛知県,名古屋市東区,矢田５丁目１番１７号,,23,102,4610040,,,2024-01-25,清算の結了等,,,2015-10-05,1,,,,,サンコウドウ,0
449,2180001097116,登記記録の閉鎖等,0,2024-01-30,2024-01-25,永和電機株式会社,,株式会社,愛知県,津島市,中之町７２番地１,,23,208,4960864,,,2024-01-25,清算の結了等,,,2015-10-05,1,,,,,エイワデンキ,0
451,2180001117492,登記記録の閉鎖等,0,2024-01-30,2024-01-25,株式会社アオキ,,株式会社,愛知県,名古屋市東区,白壁２丁目８番２０号,,23,102,4610011,,,2024-01-25,清算の結了等,,,2015-10-05,1,,,,,アオキ,0
456,2180301027037,登記記録の閉鎖等,0,2024-01-30,2023-12-28,株式会社フリーダム,,株式会社,愛知県,豊田市,渋谷町３丁目１番地２,,23,211,4710808,,,2023-12-28,清算の結了等,,,2015-10-05,1,,,,,フルーダム,0
457,2180305001087,登記記録の閉鎖等,0,2024-01-30,2024-01-17,医療法人橋本皮膚科,,その他の設立登記法人,愛知県,岡崎市,康生通南１丁目１６番地,,23,202,4440044,,,2024-01-17,清算の結了等,,,2015-10-05,1,,,,,ハシモトヒフカ,0
463,2200001007369,登記記録の閉鎖等,0,2024-01-30,2024-01-29,株式会社中清,,株式会社,岐阜県,各務原市,下中屋町１丁目１５５番地,,21,213,5040932,,,2024-01-29,清算の結了等,,,2015-10-05,1,,,,,ナカセイ,0
464,2220001000173,登記記録の閉鎖等,0,2024-01-30,2024-01-30,株式会社ヒロセ鈑金塗装,,株式会社,石川県,白山市,鶴来本町４丁目千目３５番地,,17,210,9202121,,,2024-01-30,登記官による閉鎖,,,2015-10-05,1,,,,,,0
465,2220001016574,登記記録の閉鎖等,0,2024-01-30,2024-01-30,北陸自動車工業株式会社,,株式会社,石川県,輪島市,河井町２２部３８番地,,17,204,9280001,,,2024-01-30,登記官による閉鎖,,,2015-10-05,1,,,,,,0
466,2220002005733,登記記録の閉鎖等,0,2024-01-30,2024-01-30,有限会社宮口染工,,有限会社,石川県,金沢市,油車４６番地,,17,201,9200996,,,2024-01-30,登記官による閉鎖,,,2015-10-05,1,,,,,,0
468,2220005005128,登記記録の閉鎖等,0,2024-01-30,2024-01-30,財団法人堀一善会,,その他の設立登記法人,石川県,七尾市,府中町２０１番地,,17,202,9260041,,,2024-01-30,登記官による閉鎖,,,2015-10-05,1,,,,,,0
472,2240001039367,登記記録の閉鎖等,0,2024-01-30,2024-01-22,株式会社アルファ・ジャパン,,株式会社,広島県,福山市,芦田町大字福田５７９番地６,,34,207,7201264,,,2024-01-22,清算の結了等,,,2015-10-05,1,,,,,アルファジャパン,0
478,2250002013948,登記記録の閉鎖等,0,2024-01-30,2024-01-26,豊田有限会社,,有限会社,山口県,長門市,西深川２７７４番地の４,,35,211,7594102,,,2024-01-26,清算の結了等,,,2015-10-05,1,,,,,トヨダ,0
481,2260002006521,登記記録の閉鎖等,0,2024-01-30,2024-01-29,有限会社土の子,,有限会社,岡山県,岡山市南区,福富西１丁目１８番３３号,,33,104,7028031,,,2024-01-29,清算の結了等,,,2015-10-05,1,,,,,ツチノコ,0
507,2340001002182,登記記録の閉鎖等,0,2024-01-30,2024-01-29,情報機器販売株式会社,,株式会社,鹿児島県,鹿児島市,与次郎１丁目５番３１号第１６松山ビル１階,,46,201,8900062,,,2024-01-29,清算の結了等,,,2015-10-05,1,,,,,ジョウホウキキハンバイ,0
508,2340003000663,登記記録の閉鎖等,0,2024-01-30,2024-01-26,合資会社小牧呉服店,,合資会社,鹿児島県,薩摩川内市,大小路町８番１８号,,46,215,8950076,,,2024-01-26,清算の結了等,,,2015-10-05,1,,,,,コマキゴフクテン,0
512,2390002014214,登記記録の閉鎖等,0,2024-01-30,2024-01-25,有限会社カメラゆうき,,有限会社,山形県,南陽市,赤湯９３９番地,,06,213,9992211,,,2024-01-25,清算の結了等,,,2015-10-05,1,,,,,カメラユウキ,0
516,2420001009756,登記記録の閉鎖等,0,2024-01-30,2024-01-30,三上建設株式会社,,株式会社,青森県,弘前市,大字宮地字宮本１９２番地１６,,02,202,0361341,,,2024-01-30,登記官による閉鎖,,,2015-10-05,1,,,,,,0
517,2420002001497,登記記録の閉鎖等,0,2024-01-30,2024-01-30,有限会社秀工芸,,有限会社,青森県,青森市,勝田２丁目１６番３号,,02,201,0300821,,,2024-01-30,登記官による閉鎖,,,2015-10-05,1,,,,,,0
518,2420002006595,登記記録の閉鎖等,0,2024-01-30,2024-01-30,有限会社柏リース,,有限会社,青森県,八戸市,柏崎３丁目９番１１号,,02,203,0310081,,,2024-01-30,登記官による閉鎖,,,2015-10-05,1,,,,,,0
519,2420002012288,登記記録の閉鎖等,0,2024-01-30,2024-01-30,有限会社協栄ミート,,有限会社,青森県,つがる市,柏桑野木田八幡１３５番地,,02,209,0383104,,,2024-01-30,登記官による閉鎖,,,2015-10-05,1,,,,,,0
520,2420002014029,登記記録の閉鎖等,0,2024-01-30,2024-01-30,有限会社弘前運転代行社,,有限会社,青森県,弘前市,大字禰宜町９番地５,,02,202,0368056,,,2024-01-30,登記官による閉鎖,,,2015-10-05,1,,,,,,0
521,2420002016438,登記記録の閉鎖等,0,2024-01-30,2024-01-30,有限会社漆畑工務店,,有限会社,青森県,十和田市,大字三本木字本金崎３７９番地３,,02,206,0340001,,,2024-01-30,登記官による閉鎖,,,2015-10-05,1,,,,,,0
522,2420003000928,登記記録の閉鎖等,0,2024-01-30,2024-01-30,合名会社寳屋醤油店,00087938,合名会社,青森県,上北郡野辺地町,字野辺地３４３番地１号,,02,401,0393131,,,2024-01-30,登記官による閉鎖,,,2015-10-05,1,,,,,,0
525,2430002065509,登記記録の閉鎖等,0,2024-01-30,2024-01-23,有限会社浪花茶房,,有限会社,北海道,登別市,常盤町２丁目８番地２,,01,230,0590011,,,2024-01-23,清算の結了等,,,2015-10-05,1,,,,,ナニワサボウ,0
529,2470001014322,登記記録の閉鎖等,0,2024-01-30,2024-01-26,株式会社ユナイテッドオーシャンホールディングス,,株式会社,香川県,高松市,亀井町８番地１,,37,201,7600050,,,2024-01-26,清算の結了等,,,2015-10-05,1,,,,,,0
535,2500002002909,登記記録の閉鎖等,0,2024-01-30,2024-01-29,有限会社サコウ総合警備保障,,有限会社,愛媛県,松山市,古川西２丁目３番７号,,38,201,7900944,,,2024-01-29,清算の結了等,,,2015-10-05,1,,,,,サコウソウゴウケイビホショウ,0
550,3010001202401,登記記録の閉鎖等,0,2024-01-30,2024-01-29,株式会社あじ屋,,株式会社,奈良県,奈良市,青山５丁目１番地の５８,,29,201,6308101,,,2024-01-29,清算の結了等,,,2019-07-17,1,,,,,アジヤ,0
551,3010001212318,登記記録の閉鎖等,0,2024-01-30,2024-01-26,株式会社ｓｕｋｉｌ,,株式会社,東京都,中央区,銀座１丁目２２番１１号銀座大竹ビジデンス２Ｆ,,13,102,1040061,,,2024-01-26,清算の結了等,,,2020-09-17,1,,,,,スキル,0
585,3011001107689,登記記録の閉鎖等,0,2024-01-30,2024-01-26,株式会社シャンティ,,株式会社,東京都,目黒区,自由が丘２丁目１６－１２ＬＣ１Ｆ,,13,110,1520035,,,2024-01-26,清算の結了等,,,2015-10-14,1,,,,,シャンティ,0
602,3011701002017,登記記録の閉鎖等,0,2024-01-30,2024-01-29,開成ハウジング株式会社,,株式会社,東京都,江戸川区,西小岩１丁目２２番１３号,,13,123,1330057,,,2024-01-29,登記官による閉鎖,,,2015-10-05,1,,,,,,0
603,3011701007528,登記記録の閉鎖等,0,2024-01-30,2024-01-29,株式会社丸文,,株式会社,東京都,江戸川区,西小岩５丁目１０番６号,,13,123,1330057,,,2024-01-29,登記官による閉鎖,,,2017-08-03,1,,,,,,0
604,3011701012049,登記記録の閉鎖等,0,2024-01-30,2024-01-29,株式会社東京テクノス,,株式会社,東京都,江戸川区,春江町４丁目８番６号,,13,123,1340003,,,2024-01-29,登記官による閉鎖,,,2015-10-05,1,,,,,,0
605,3011701013988,登記記録の閉鎖等,0,2024-01-30,2024-01-29,株式会社ドリームステージ,,株式会社,東京都,江戸川区,南小岩５丁目１５番２１号,,13,123,1330056,,,2024-01-29,登記官による閉鎖,,,2015-10-05,1,,,,,,0
607,3011702001141,登記記録の閉鎖等,0,2024-01-30,2024-01-29,有限会社イッシュ,,有限会社,東京都,江戸川区,春江町２丁目１７番２号,,13,123,1320003,,,2024-01-29,登記官による閉鎖,,,2015-10-05,1,,,,,,0
608,3011702001323,登記記録の閉鎖等,0,2024-01-30,2024-01-29,有限会社岩上商店,,有限会社,東京都,江戸川区,下篠崎町１１番１号,,13,123,1330064,,,2024-01-29,登記官による閉鎖,,,2015-10-05,1,,,,,,0
609,3011702009184,登記記録の閉鎖等,0,2024-01-30,2024-01-29,橋本工業有限会社,,有限会社,東京都,江戸川区,興宮町２９番２号,,13,123,1330042,,,2024-01-29,登記官による閉鎖,,,2015-10-05,1,,,,,,0
610,3011702011743,登記記録の閉鎖等,0,2024-01-30,2024-01-29,有限会社八百富,,有限会社,東京都,江戸川区,平井３丁目２３番１６号,,13,123,1320035,,,2024-01-29,登記官による閉鎖,,,2015-10-05,1,,,,,,0
611,3011702012667,登記記録の閉鎖等,0,2024-01-30,2024-01-29,有限会社ワイ・エス工業,,有限会社,東京都,江戸川区,篠崎町１丁目４４番地,,13,123,1330061,,,2024-01-29,登記官による閉鎖,,,2015-10-05,1,,,,,,0
612,3011705000017,登記記録の閉鎖等,0,2024-01-30,2024-01-29,社団法人日本経営労務協会,,その他の設立登記法人,東京都,江戸川区,平井３丁目２３番２４号,,13,123,1320035,,,2024-01-29,登記官による閉鎖,,,2015-10-05,1,,,,,,0
622,3012401033401,登記記録の閉鎖等,0,2024-01-30,2024-01-26,株式会社ハイパフォーマー,,株式会社,東京都,稲城市,平尾２丁目５１番地の６アヴァンセーヌ新百合ヶ丘１０５号,,13,225,2060823,,,2024-01-26,清算の結了等,,,2017-12-06,1,,,,,,0
626,3013405000825,登記記録の閉鎖等,0,2024-01-30,2024-01-26,一般社団法人麦とぶどう舎,,その他の設立登記法人,東京都,町田市,本町田２９７３－７マリノビル１０２,,13,209,1940032,,,2024-01-26,清算の結了等,,,2015-10-05,1,,,,,ムギトブドウシャ,0
631,3020001096909,登記記録の閉鎖等,0,2024-01-30,2024-01-25,株式会社トラストホーム,,株式会社,神奈川県,横浜市港南区,日野南５丁目２５番１４号,,14,111,2340055,,,2024-01-25,清算の結了等,,,2015-10-05,1,,,,,トラストホーム,0
644,3021002021277,登記記録の閉鎖等,0,2024-01-30,2024-01-26,有限会社昭和プリンティング,,有限会社,神奈川県,相模原市中央区,横山台２丁目９番６号,,14,152,2520241,,,2024-01-26,清算の結了等,,,2015-10-05,1,,,,,ショウワプリンティング,0
646,3030001104348,登記記録の閉鎖等,0,2024-01-30,2024-01-25,株式会社ｅ－ｔｅｃｈｎｏ,,株式会社,埼玉県,富士見市,関沢２丁目１８番地１７,,11,235,3540025,,,2024-01-25,清算の結了等,,,2015-10-05,1,,,,,,0
659,3040001010603,登記記録の閉鎖等,0,2024-01-30,2024-01-19,株式会社ノーフォール,,株式会社,千葉県,佐倉市,生谷１５１５番地１９,,12,212,2850836,,,2024-01-19,清算の結了等,,,2015-10-05,1,,,,,ノーフォール,0
677,3080103001645,登記記録の閉鎖等,0,2024-01-30,2024-01-25,合同会社ＬＵＳＩＡＳ,,合同会社,静岡県,沼津市,大岡３１３１番地の５中村マンション２０１,,22,203,4100022,,,2024-01-25,清算の結了等,,,2017-02-03,1,,,,,ルシアス,0
678,3080402009265,登記記録の閉鎖等,0,2024-01-30,2024-01-29,有限会社斉藤＿工所,00068428,有限会社,静岡県,湖西市,鷲津１０６２番地２,,22,221,4310431,,,2024-01-29,清算の結了等,,,2015-10-05,1,,,,,サイトウテッコウショ,0
680,3080405006747,登記記録の閉鎖等,0,2024-01-30,2024-01-24,ＮＰＯ法人りゅう,,その他の設立登記法人,静岡県,湖西市,古見９９６番地の１,,22,221,4310442,,,2024-01-24,清算の結了等,,,2015-10-05,1,,,,,リュウ,0
687,3120001147247,登記記録の閉鎖等,0,2024-01-30,2024-01-25,株式会社山添電機商会,,株式会社,大阪府,交野市,私部３丁目１７番１号,,27,230,5760052,,,2024-01-25,清算の結了等,,,2015-10-05,1,,,,,,0
712,3130005015060,登記記録の閉鎖等,0,2024-01-30,2024-01-25,一般社団法人渉成楽市洛座,,その他の設立登記法人,京都府,京都市南区,東九条西岩本町１６－３,,26,107,6018005,,,2024-01-25,清算の結了等,,,2017-09-08,1,,,,,ショウセイラクイチラクザ,0
716,3140001086922,登記記録の閉鎖等,0,2024-01-30,2024-01-24,Ｔ・Ｎ産業株式会社,,株式会社,兵庫県,三木市,吉川町みなぎ台２丁目８番地の３,,28,215,6731117,,,2024-01-24,清算の結了等,,,2015-10-05,1,,,,,ティエヌサンギョウ,0
725,3180001091654,登記記録の閉鎖等,0,2024-01-30,2024-01-25,株式会社共栄建材,,株式会社,愛知県,半田市,新居町１丁目４３番地,,23,205,4750039,,,2024-01-25,清算の結了等,,,2015-10-05,1,,,,,キョウエイケンザイ,0
728,3180001124315,登記記録の閉鎖等,0,2024-01-30,2024-01-23,株式会社ティラジオ,,株式会社,愛知県,名古屋市守山区,高島町３９１番地の６,,23,113,4630095,,,2024-01-23,清算の結了等,,,2016-08-02,1,,,,,ティラジオ,0
735,3190002010661,登記記録の閉鎖等,0,2024-01-30,2024-01-26,有限会社長谷川造船化工,,有限会社,三重県,鳥羽市,鳥羽１丁目２３番４号,,24,211,5170011,,,2024-01-26,清算の結了等,,,2015-10-05,1,,,,,ハセガワゾウセンカコウ,0
739,3220001003200,登記記録の閉鎖等,0,2024-01-30,2024-01-30,株式会社ジィー・プランニング,,株式会社,石川県,金沢市,鱗町８１番地１,,17,201,9200971,,,2024-01-30,登記官による閉鎖,,,2015-10-05,1,,,,,,0
740,3220001014321,登記記録の閉鎖等,0,2024-01-30,2024-01-30,株式会社オズ商会,,株式会社,石川県,金沢市,大浦町ヘ３１番地２,,17,201,9200205,,,2024-01-30,登記官による閉鎖,,,2015-10-05,1,,,,,,0
741,3220002010716,登記記録の閉鎖等,0,2024-01-30,2024-01-30,有限会社昌輝産業,,有限会社,石川県,小松市,白江町カ１３６番地３,,17,203,9230811,,,2024-01-30,登記官による閉鎖,,,2015-10-05,1,,,,,,0
742,3220002012968,登記記録の閉鎖等,0,2024-01-30,2024-01-30,有限会社やまだ,,有限会社,石川県,加賀市,大聖寺鍛治町１３番地,,17,206,9220000,,,2024-01-30,登記官による閉鎖,,,2015-10-05,1,,,,,,0
743,3220005002578,登記記録の閉鎖等,0,2024-01-30,2024-01-30,特定非営利活動法人石川県総合調査業協会,,その他の設立登記法人,石川県,金沢市,増泉３丁目７番３３号,,17,201,9218025,,,2024-01-30,登記官による閉鎖,,,2015-10-05,1,,,,,,0
744,3220005003246,登記記録の閉鎖等,0,2024-01-30,2024-01-30,特定非営利活動法人ブレインチャージいしかわ,,その他の設立登記法人,石川県,金沢市,西泉４丁目６０番地,,17,201,9218043,,,2024-01-30,登記官による閉鎖,,,2015-10-05,1,,,,,,0
745,3220005004310,登記記録の閉鎖等,0,2024-01-30,2024-01-30,特定非営利活動法人医療外治療協会大樹,,その他の設立登記法人,石川県,加賀市,伊切町に４１番地,,17,206,9220406,,,2024-01-30,登記官による閉鎖,,,2015-10-05,1,,,,,,0
746,3220005005259,登記記録の閉鎖等,0,2024-01-30,2024-01-30,特定非営利活動法人のとＮＡＩＳ,,その他の設立登記法人,石川県,七尾市,三島町７０番地の１,,17,202,9260802,,,2024-01-30,登記官による閉鎖,,,2015-10-05,1,,,,,,0
755,3260002017600,登記記録の閉鎖等,0,2024-01-30,2024-01-29,有限会社喜久味,,有限会社,岡山県,倉敷市,西阿知町１０７－１倉敷わかば法律事務所,,33,202,7100807,,,2024-01-29,清算の結了等,,,2015-10-05,1,,,,,キクミ,0
774,3350002005463,登記記録の閉鎖等,0,2024-01-30,2024-01-22,有限会社高岡プロパン商会,,有限会社,宮崎県,宮崎市,高岡町五町２３５番地,,45,201,8802322,,,2024-01-22,清算の結了等,,,2015-10-05,1,,,,,タカオカプロパンショウカイ,0
776,3360001018481,登記記録の閉鎖等,0,2024-01-30,2024-01-25,アルタ株式会社,,株式会社,沖縄県,沖縄市,知花４丁目３５番１３号,,47,211,9042143,,,2024-01-25,清算の結了等,,,2015-10-05,1,,,,,アルタ,0
785,3400002003692,登記記録の閉鎖等,0,2024-01-30,2024-01-25,有限会社和村建具,,有限会社,岩手県,盛岡市,中屋敷町７番２８号,,03,201,0200141,,,2024-01-25,清算の結了等,,,2015-10-05,1,,,,,ワムラタテグ,0
786,3420001008757,登記記録の閉鎖等,0,2024-01-30,2024-01-30,株式会社ＯＮＥｃｅｎｔ,,株式会社,青森県,五所川原市,字幾島町４８番地５,,02,205,0370057,,,2024-01-30,登記官による閉鎖,,,2015-10-05,1,,,,,,0
787,3420001010754,登記記録の閉鎖等,0,2024-01-30,2024-01-30,エヌキャピタル株式会社,,株式会社,青森県,弘前市,大字在府町１６番地２,,02,202,0368216,,,2024-01-30,登記官による閉鎖,,,2015-10-05,1,,,,,,0
788,3420001013220,登記記録の閉鎖等,0,2024-01-30,2024-01-30,株式会社Ｔ－ｃａｒｓ,,株式会社,青森県,むつ市,海老川町１５番５号,,02,208,0350054,,,2024-01-30,登記官による閉鎖,,,2015-10-05,1,,,,,,0
791,3420002016684,登記記録の閉鎖等,0,2024-01-30,2024-01-30,有限会社アイコーモーター,,有限会社,青森県,十和田市,大字大沢田字池ノ平３５番地,,02,206,0340102,,,2024-01-30,登記官による閉鎖,,,2015-10-05,1,,,,,,0
792,3420005000223,登記記録の閉鎖等,0,2024-01-30,2024-01-30,企業組合石戸商店,,その他の設立登記法人,青森県,青森市,久須志２丁目８番６号,,02,201,0380013,,,2024-01-30,登記官による閉鎖,,,2015-10-05,1,,,,,,0
793,3420005000454,登記記録の閉鎖等,0,2024-01-30,2024-01-30,社団法人青森県高齢・障害者雇用支援協会,,その他の設立登記法人,青森県,青森市,長島２丁目１０番４号,,02,201,0300861,,,2024-01-30,登記官による閉鎖,,,2015-10-05,1,,,,,,0
794,3420005000470,登記記録の閉鎖等,0,2024-01-30,2024-01-30,社団法人青森県私立専門学校各種学校協会,,その他の設立登記法人,青森県,青森市,堤町２丁目９番６号,,02,201,0300812,,,2024-01-30,登記官による閉鎖,,,2015-10-05,1,,,,,,0
850,4011001026335,登記記録の閉鎖等,0,2024-01-30,2024-01-26,株式会社プレスティージュ,,株式会社,東京都,渋谷区,上原３丁目１８番１号,,13,113,1510064,,,2024-01-26,清算の結了等,,,2015-10-05,1,,,,,プレスティージュ,0
870,4011201022613,登記記録の閉鎖等,0,2024-01-30,2024-01-29,株式会社ＨＯＭＥ　ＰＡＲＴＮＥＲＳ,,株式会社,東京都,中野区,東中野４丁目２１－１３レソルビエ東中野１０３,,13,114,1640003,,,2024-01-29,清算の結了等,,,2020-12-15,1,,,,,ホームパートナーズ,0
878,4011701005869,登記記録の閉鎖等,0,2024-01-30,2024-01-29,株式会社中川不動産,,株式会社,東京都,江戸川区,南小岩７丁目２８番１６号,,13,123,1330056,,,2024-01-29,登記官による閉鎖,,,2015-10-05,1,,,,,,0
879,4011701006231,登記記録の閉鎖等,0,2024-01-30,2024-01-29,日産プリンスサニー江戸川販売株式会社,,株式会社,東京都,江戸川区,西一之江１丁目９番８号,,13,123,1320023,,,2024-01-29,登記官による閉鎖,,,2015-10-05,1,,,,,ニッサンプリンスサニーエドガワハンバイ,0
880,4011701012700,登記記録の閉鎖等,0,2024-01-30,2024-01-29,株式会社ナステック,,株式会社,東京都,江戸川区,西葛西５丁目１０番８号,,13,123,1340088,,,2024-01-29,登記官による閉鎖,,,2015-10-05,1,,,,,,0
881,4011701014977,登記記録の閉鎖等,0,2024-01-30,2024-01-29,三営工業株式会社,,株式会社,東京都,江戸川区,松江４丁目５番６号,,13,123,1320025,,,2024-01-29,登記官による閉鎖,,,2015-10-05,1,,,,,,0
884,4011702004300,登記記録の閉鎖等,0,2024-01-30,2024-01-29,有限会社近藤設備工業所,,有限会社,東京都,江戸川区,上篠崎２丁目２番１１号,,13,123,1330054,,,2024-01-29,登記官による閉鎖,,,2015-10-05,1,,,,,,0
885,4011702008185,登記記録の閉鎖等,0,2024-01-30,2024-01-29,有限会社徳世ホームサービス,,有限会社,東京都,江戸川区,松本１丁目２２番１３号,,13,123,1330043,,,2024-01-29,登記官による閉鎖,,,2015-10-05,1,,,,,,0
886,4011702011081,登記記録の閉鎖等,0,2024-01-30,2024-01-29,有限会社丸森運送,,有限会社,東京都,江戸川区,船堀５丁目６番１０号,,13,123,1340091,,,2024-01-29,登記官による閉鎖,,,2015-10-05,1,,,,,,0
887,4011702017839,登記記録の閉鎖等,0,2024-01-30,2024-01-29,有限会社ＮＯＮｄｅｓｉｇｎ,,有限会社,東京都,江戸川区,中葛西３丁目７番１２号,,13,123,1340083,,,2024-01-29,登記官による閉鎖,,,2015-10-05,1,,,,,,0
889,4011802029098,登記記録の閉鎖等,0,2024-01-30,2024-01-22,有限会社小林功業,,有限会社,千葉県,松戸市,吉井町１２番地の１０,,12,207,2710066,,,2024-01-22,清算の結了等,,,2015-10-05,1,,,,,コバヤシコウギョウ,0
905,4020002007517,登記記録の閉鎖等,0,2024-01-30,2024-01-26,有限会社いそべ商店,,有限会社,神奈川県,横浜市金沢区,富岡東４丁目７番３３号,,14,108,2360051,,,2024-01-26,清算の結了等,,,2015-10-05,1,,,,,,0
956,4120001070720,登記記録の閉鎖等,0,2024-01-30,2024-01-25,株式会社丸十,,株式会社,大阪府,高槻市,芥川町２丁目１番７号,,27,207,5691123,,,2024-01-25,清算の結了等,,,2015-10-05,1,,,,,マルジュウ,0
978,4140001114608,登記記録の閉鎖等,0,2024-01-30,2024-01-26,株式会社美創,,株式会社,兵庫県,尼崎市,久々知西町２丁目４番１５－７１７号,,28,202,6610978,,,2024-01-26,清算の結了等,,,2019-08-16,1,,,,,ビソウ,0
981,4140002058795,登記記録の閉鎖等,0,2024-01-30,2024-01-29,有限会社西村運送,,有限会社,兵庫県,西宮市,西宮浜１丁目１１番地３,,28,204,6620934,,,2024-01-29,清算の結了等,,,2015-10-05,1,,,,,ニシムラウンソウ,0
985,4170002006446,登記記録の閉鎖等,0,2024-01-30,2024-01-29,有限会社九鬼紙業,,有限会社,和歌山県,海南市,名高５０８番地の１,,30,202,6420032,,,2024-01-29,清算の結了等,,,2015-10-05,1,,,,,クキシギョウ,0
993,4180001136788,登記記録の閉鎖等,0,2024-01-30,2024-01-23,株式会社ＣＨＩＣＯＬＡ,,株式会社,愛知県,名古屋市名東区,文教台１丁目４３１番地の２,,23,115,4650012,,,2024-01-23,清算の結了等,,,2019-06-04,1,,,,,チコーラ,0
1000,4180005016128,登記記録の閉鎖等,0,2024-01-30,2024-01-19,特定非営利活動法人ユニオン・ワーク・シヤリング,,その他の設立登記法人,愛知県,岡崎市,美合町字老婆懐２８番地４７,,23,202,4440802,,,2024-01-19,清算の結了等,,,2015-10-05,1,,,,,ユニオンワークシヤリング,0
1006,4220002009633,登記記録の閉鎖等,0,2024-01-30,2024-01-30,有限会社美栄商會,,有限会社,石川県,白山市,,,17,210,9240000,,,2024-01-30,登記官による閉鎖,,,2015-10-05,1,,,,,,1
1007,4220002015045,登記記録の閉鎖等,0,2024-01-30,2024-01-30,あん共育有限会社,,有限会社,石川県,羽咋市,島出町フ５番地,,17,207,9250051,,,2024-01-30,登記官による閉鎖,,,2015-10-05,1,,,,,,0
1008,4220005002437,登記記録の閉鎖等,0,2024-01-30,2024-01-30,特定非営利活動法人在宅医療システム研究会石川,,その他の設立登記法人,石川県,金沢市,有松２丁目４番６号有松ハイツ２階Ｄ,,17,201,9218161,,,2024-01-30,登記官による閉鎖,,,2015-10-05,1,,,,,,0
1011,4240001004352,登記記録の閉鎖等,0,2024-01-30,2024-01-22,株式会社信栄,,株式会社,広島県,広島市中区,富士見町１番１７号,,34,101,7300043,,,2024-01-22,清算の結了等,,,2015-10-05,1,,,,,シンエイ,0
1023,4290001043750,登記記録の閉鎖等,0,2024-01-30,2024-01-26,日本電力開発株式会社,,株式会社,福岡県,福岡市中央区,高砂２丁目９番１号,,40,133,8100011,,,2024-01-26,清算の結了等,,,2015-10-05,1,,,,,ニホンデンリョクカイハツ,0
1042,4330002015307,登記記録の閉鎖等,0,2024-01-30,2024-01-26,有限会社松島保険事務所,,有限会社,熊本県,熊本市東区,若葉１丁目６番６号,,43,102,8620903,,,2024-01-26,清算の結了等,,,2015-10-05,1,,,,,マツシマホケンジムショ,0
1053,4420002007575,登記記録の閉鎖等,0,2024-01-30,2024-01-30,有限会社大東宅建,,有限会社,青森県,八戸市,城下４丁目２０番１５号,,02,203,0310072,,,2024-01-30,登記官による閉鎖,,,2015-10-05,1,,,,,,0
1054,4420002014968,登記記録の閉鎖等,0,2024-01-30,2024-01-30,有限会社北斗会計,,有限会社,青森県,弘前市,大字品川町８０番地１０,,02,202,0368183,,,2024-01-30,登記官による閉鎖,,,2015-10-05,1,,,,,,0
1055,4420002016725,登記記録の閉鎖等,0,2024-01-30,2024-01-30,有限会社青興運送,,有限会社,青森県,十和田市,大字三本木字中掫４３番地１,,02,206,0340001,,,2024-01-30,登記官による閉鎖,,,2015-10-05,1,,,,,,0
1056,4420002019422,登記記録の閉鎖等,0,2024-01-30,2024-01-30,有限会社田中冷菓,,有限会社,青森県,むつ市,川内町川内２９４番地１,,02,208,0395201,,,2024-01-30,登記官による閉鎖,,,2015-10-05,1,,,,,,0
1057,4420005004818,登記記録の閉鎖等,0,2024-01-30,2024-01-30,農事組合法人陽光農産組合,,その他の設立登記法人,青森県,弘前市,大字大森字勝山１１１１番地１,,02,202,0361203,,,2024-01-30,登記官による閉鎖,,,2015-10-05,1,,,,,,0
1060,4430001088062,登記記録の閉鎖等,0,2024-01-30,2024-01-12,株式会社ＡＣＲＯＬＩＥＮＥＸ,,株式会社,北海道,札幌市白石区,本通１８丁目北１番１号,,01,104,0030027,,,2024-01-12,清算の結了等,,,2022-12-16,1,,,,,アクロリアネックス,0
1078,5010101001453,登記記録の閉鎖等,0,2024-01-30,2024-01-26,三昭建設株式会社,,株式会社,東京都,八王子市,めじろ台１丁目２３番地の１５,,13,201,1930833,,,2024-01-26,清算の結了等,,,2015-10-05,1,,,,,サンショウケンセツ,0
1089,5010601039902,登記記録の閉鎖等,0,2024-01-30,2024-01-29,株式会社ハックインターナショナル,,株式会社,東京都,江戸川区,南篠崎町４丁目３０番２０号ブルーハイツＡ－１０２,,13,123,1330065,,,2024-01-29,登記官による閉鎖,,,2015-10-05,1,,,,,,0
1095,5010903003291,登記記録の閉鎖等,0,2024-01-30,2024-01-26,ペリドットスタイル合同会社,,合同会社,東京都,世田谷区,船橋３丁目１４番１０号,,13,112,1560055,,,2024-01-26,清算の結了等,,,2016-09-15,1,,,,,ペリドットスタイル,0
1098,5011001129938,登記記録の閉鎖等,0,2024-01-30,2024-01-19,株式会社アネシス,,株式会社,東京都,渋谷区,恵比寿３丁目３４番１６号ハウスカンキ２０３,,13,113,1500013,,,2024-01-19,清算の結了等,,,2019-09-10,1,,,,,アネシス,0
1120,5011701004754,登記記録の閉鎖等,0,2024-01-30,2024-01-29,大邦コンテム株式会社,,株式会社,東京都,江戸川区,北小岩４丁目２５番１５号,,13,123,1330051,,,2024-01-29,登記官による閉鎖,,,2015-10-05,1,,,,,,0
1121,5011701007526,登記記録の閉鎖等,0,2024-01-30,2024-01-29,丸菱プラント株式会社,,株式会社,東京都,江戸川区,西小岩３丁目３２番１３号,,13,123,1330057,,,2024-01-29,登記官による閉鎖,,,2015-10-05,1,,,,,,0
1123,5011702008044,登記記録の閉鎖等,0,2024-01-30,2024-01-29,有限会社東新産業,,有限会社,東京都,江戸川区,松江５丁目２５番１２号,,13,123,1320025,,,2024-01-29,登記官による閉鎖,,,2015-10-05,1,,,,,,0
1124,5011702010850,登記記録の閉鎖等,0,2024-01-30,2024-01-29,有限会社馬目製作所,,有限会社,東京都,江戸川区,中葛西６丁目２番１２号,,13,123,1340083,,,2024-01-29,登記官による閉鎖,,,2015-10-05,1,,,,,,0
1125,5011702011188,登記記録の閉鎖等,0,2024-01-30,2024-01-29,有限会社みすずベーカリー,,有限会社,東京都,江戸川区,南小岩６丁目２７番１７号,,13,123,1330056,,,2024-01-29,登記官による閉鎖,,,2015-10-05,1,,,,,,0
1126,5011702012517,登記記録の閉鎖等,0,2024-01-30,2024-01-29,有限会社リカー・フーズオオノ,,有限会社,東京都,江戸川区,南葛西６丁目８番３号,,13,123,1340085,,,2024-01-29,登記官による閉鎖,,,2015-10-05,1,,,,,,0
1127,5011705000709,登記記録の閉鎖等,0,2024-01-30,2024-01-29,特定非営利活動法人日中情報技術交流協会,,その他の設立登記法人,東京都,江戸川区,中葛西３丁目８番１４号,00056872,13,123,1340083,,,2024-01-29,登記官による閉鎖,,,2015-10-05,1,,,,,,0
1128,5011705000857,登記記録の閉鎖等,0,2024-01-30,2024-01-29,特定非営利活動法人サンライズ,,その他の設立登記法人,東京都,江戸川区,中葛西６丁目１２番７号第３山岡マンション３０３,,13,123,1340083,,,2024-01-29,登記官による閉鎖,,,2015-10-05,1,,,,,,0
1129,5011705000989,登記記録の閉鎖等,0,2024-01-30,2024-01-29,特定非営利活動法人ＩＮＡ,,その他の設立登記法人,東京都,江戸川区,東葛西３丁目９番２７号,,13,123,1340084,,,2024-01-29,登記官による閉鎖,,,2015-10-05,1,,,,,,0
1130,5011705001005,登記記録の閉鎖等,0,2024-01-30,2024-01-29,特定非営利活動法人ｅｃｏｎｏ,,その他の設立登記法人,東京都,江戸川区,篠崎町５丁目３番１９号,,13,123,1330061,,,2024-01-29,登記官による閉鎖,,,2015-10-05,1,,,,,,0
1139,5020001019454,登記記録の閉鎖等,0,2024-01-30,2024-01-26,株式会社飯島商事,,株式会社,神奈川県,横浜市港北区,大倉山２丁目１７番１３号,,14,109,2220037,,,2024-01-26,清算の結了等,,,2015-10-05,1,,,,,,0
1151,5021002029475,登記記録の閉鎖等,0,2024-01-30,2023-12-25,有限会社石岡建業,,有限会社,神奈川県,相模原市緑区,長竹２９４４番地１,,14,151,2520154,,,2023-12-25,清算の結了等,,,2015-10-05,1,,,,,イシオカケンギョウ,0
1165,5030001147122,登記記録の閉鎖等,0,2024-01-30,2024-01-24,株式会社Ｎ－ｖｉｌｌａｇｅ,,株式会社,埼玉県,さいたま市北区,植竹町１丁目４１番地１,,11,102,3310813,,,2024-01-24,清算の結了等,,,2022-03-04,1,,,,,エヌビレッジ,0
1209,5120005016479,登記記録の閉鎖等,0,2024-01-30,2024-01-26,特定非営利活動法人ワタルスポーツクラブ,,その他の設立登記法人,大阪府,大阪市中央区,天満橋京町２－１５岡本ビル９階,,27,128,5400032,,,2024-01-26,清算の結了等,,,2015-10-05,1,,,,,ワタルスポーツ,0
1219,5130001018346,登記記録の閉鎖等,0,2024-01-30,2024-01-25,西田テント工業株式会社,,株式会社,京都府,京都市下京区,東洞院通花屋町下る富田町３７６番地,,26,106,6008186,,,2024-01-25,清算の結了等,,,2015-10-05,1,,,,,ニシダテントコウギョウ,0
1220,5130001058706,登記記録の閉鎖等,0,2024-01-30,2024-01-29,株式会社ヒロ工務,,株式会社,京都府,宇治市,菟道車田５８番地の５３,00108457,26,204,6110000,,,2024-01-29,清算の結了等,,,2016-11-18,1,,,,,ヒロコウム,0
1242,5180003021038,登記記録の閉鎖等,0,2024-01-30,2024-01-25,ハウス・パートナーズ合同会社,,合同会社,愛知県,あま市,本郷柿ノ木６５番地,,23,237,4901116,,,2024-01-25,清算の結了等,,,2020-04-13,1,,,,,ハウスパートナーズ,0
1243,5180003024503,登記記録の閉鎖等,0,2024-01-30,2024-01-24,合同会社ハルホーム,,合同会社,愛知県,大府市,北崎町３丁目２１５番地,,23,223,4740002,,,2024-01-24,清算の結了等,,,2022-11-16,1,,,,,ハルホーム,0
1245,5180301024519,登記記録の閉鎖等,0,2024-01-30,2024-01-25,株式会社ミヤビ,,株式会社,愛知県,安城市,安城町城堀２番地９,,23,212,4460026,,,2024-01-25,清算の結了等,,,2015-10-05,1,,,,,ミヤビ,0
1249,5190002020824,登記記録の閉鎖等,0,2024-01-30,2024-01-26,有限会社オフハウスデザイン,,有限会社,三重県,四日市市,大矢知町１５２８番地,,24,202,5108034,,,2024-01-26,清算の結了等,,,2015-10-05,1,,,,,オフハウスデザイン,0
1251,5200005009615,登記記録の閉鎖等,0,2024-01-30,2024-01-25,ＮＴＫセラミック労働組合,,その他の設立登記法人,岐阜県,可児市,坂戸８８４番地１,,21,214,5090241,,,2024-01-25,清算の結了等,,,2015-10-05,1,,,,,エヌティケイセラミック,0
1254,5210002013429,登記記録の閉鎖等,0,2024-01-30,2024-01-26,有限会社マルトミデザインプラント,,有限会社,福井県,鯖江市,片山町第３号１番地の２,,18,207,9161223,,,2024-01-26,清算の結了等,,,2015-10-05,1,,,,,マルトミデザインプラント,0
1255,5220001000906,登記記録の閉鎖等,0,2024-01-30,2024-01-30,石川オートサービス株式会社,,株式会社,石川県,野々市市,横宮町３番１号,,17,212,9218817,,,2024-01-30,登記官による閉鎖,,,2015-10-05,1,,,,,イシカワオートサービス,0
1256,5220001002191,登記記録の閉鎖等,0,2024-01-30,2024-01-30,株式会社金沢丸富,,株式会社,石川県,金沢市,大野町４丁目リ４６番地１,,17,201,9200331,,,2024-01-30,登記官による閉鎖,,,2015-10-05,1,,,,,,0
1258,5220002004476,登記記録の閉鎖等,0,2024-01-30,2024-01-30,有限会社ニューヤスカ,,有限会社,石川県,金沢市,諸江町３３番４２号,,17,201,9200014,,,2024-01-30,登記官による閉鎖,,,2015-10-05,1,,,,,,0
1259,5220002009401,登記記録の閉鎖等,0,2024-01-30,2024-01-30,有限会社北国千代野販売,,有限会社,石川県,白山市,千代野西１丁目１０番地５,,17,210,9240072,,,2024-01-30,登記官による閉鎖,,,2015-10-05,1,,,,,,0
1260,5220002009632,登記記録の閉鎖等,0,2024-01-30,2024-01-30,美川製菓有限会社,,有限会社,石川県,白山市,,,17,210,9240000,,,2024-01-30,登記官による閉鎖,,,2015-10-05,1,,,,,,1
1261,5220005002840,登記記録の閉鎖等,0,2024-01-30,2024-01-30,財団法人中央育英会設立準備財団,,その他の設立登記法人,石川県,白山市,村井町２番地,,17,210,9240032,,,2024-01-30,登記官による閉鎖,,,2015-10-05,1,,,,,,0
1267,5240002040742,登記記録の閉鎖等,0,2024-01-30,2024-01-22,榊原工務店有限会社,00001315,有限会社,広島県,福山市,山野町大字山野１３７番地,,34,207,7202602,,,2024-01-22,清算の結了等,,,2015-10-05,1,,,,,サカキバラコウムテン,0
1268,5250001016115,登記記録の閉鎖等,0,2024-01-30,2024-01-25,株式会社Ｌｉｖｉｎｇ　Ｌｉｆｅ,,株式会社,山口県,下関市,川中豊町１丁目３番８号,,35,201,7510853,,,2024-01-25,清算の結了等,,,2016-08-05,1,,,,,リビングライフ,0
1270,5280001000132,登記記録の閉鎖等,0,2024-01-30,2024-01-29,株式会社岡本商店,,株式会社,島根県,松江市,北堀町１９０番地,,32,201,6900888,,,2024-01-29,清算の結了等,,,2015-10-05,1,,,,,オカモトショウテン,0
1271,5290001034807,登記記録の閉鎖等,0,2024-01-30,2024-01-26,ヒューマン・ルネサンス株式会社,,株式会社,福岡県,福岡市西区,大字金武７７０番地,,40,135,8190035,,,2024-01-26,清算の結了等,,,2015-10-05,1,,,,,ヒューマンルネサンス,0
1286,5310002016611,登記記録の閉鎖等,0,2024-01-30,2024-01-25,大和建設有限会社,,有限会社,長崎県,雲仙市,千々石町己１２２１番地,,42,213,8540406,,,2024-01-25,清算の結了等,,,2015-10-05,1,,,,,ダイワケンセツ,0
1287,5320001019044,登記記録の閉鎖等,0,2024-01-30,2024-01-22,ジェイ・ウッド株式会社,,株式会社,大分県,由布市,湯布院町川西１２００番地１３５,,44,213,8795113,,,2024-01-22,合併による解散等,3320001001573,令和６年１月１日大分市大字丹生１０９３番地５株式会社フロンティア（3320001001573）に合併し解散,2022-05-09,1,,,,,ジェイウッド,0
1299,5370605000675,登記記録の閉鎖等,0,2024-01-30,2024-01-25,東北ドック鉄工事業協同組合,,その他の設立登記法人,宮城県,塩竈市,北浜４丁目１４番１号,,04,203,9850003,,,2024-01-25,清算の結了等,,,2015-10-05,1,,,,,トウホクドックテッコウ,0
1301,5390005000704,登記記録の閉鎖等,0,2024-01-30,2024-01-29,環境緑化事業協同組合,,その他の設立登記法人,山形県,山形市,嶋北１丁目２２番２５号,,06,201,9900885,,,2024-01-29,清算の結了等,,,2015-10-05,1,,,,,カンキョウリョクカ,0
1304,5420002005719,登記記録の閉鎖等,0,2024-01-30,2024-01-30,有限会社外ヶ浜生コン,,有限会社,青森県,東津軽郡外ヶ浜町,字蟹田姥ヶ沢３４番地２,,02,307,0301303,,,2024-01-30,登記官による閉鎖,,,2015-10-05,1,,,,,,0
1305,5420002008770,登記記録の閉鎖等,0,2024-01-30,2024-01-30,有限会社丸一中村商店,,有限会社,青森県,八戸市,大字湊町字久保４３番地４号,,02,203,0310812,,,2024-01-30,登記官による閉鎖,,,2015-10-05,1,,,,,,0
1306,5420002010561,登記記録の閉鎖等,0,2024-01-30,2024-01-30,有限会社中村商事,,有限会社,青森県,三戸郡五戸町,字中道２５番地１,,02,442,0391542,,,2024-01-30,登記官による閉鎖,,,2015-10-05,1,,,,,,0
1307,5420005000584,登記記録の閉鎖等,0,2024-01-30,2024-01-30,財団法人青森県手をつなぐ育成会,,その他の設立登記法人,青森県,青森市,大字野尻字今田５２番地４号,,02,201,0300122,,,2024-01-30,登記官による閉鎖,,,2015-10-05,1,,,,,,0
1308,5420005003067,登記記録の閉鎖等,0,2024-01-30,2024-01-30,医療法人誠昌会,,その他の設立登記法人,青森県,三戸郡三戸町,大字川守田字関根川原８５番地の１,,02,441,0390141,,,2024-01-30,登記官による閉鎖,,,2018-02-14,1,,,,,,0
1309,5420005004239,登記記録の閉鎖等,0,2024-01-30,2024-01-30,特定非営利活動法人わんどネット,,その他の設立登記法人,青森県,五所川原市,字栄町１８番地７３,,02,205,0370046,,,2024-01-30,登記官による閉鎖,,,2015-10-05,1,,,,,,0
1323,5480002010440,登記記録の閉鎖等,0,2024-01-30,2024-01-29,寿海運有限会社,,有限会社,徳島県,鳴門市,鳴門町高島字北３２９番地,,36,202,7720051,,,2024-01-29,清算の結了等,,,2015-10-05,1,,,,,コトブキカイウン,0
1324,5480002015241,登記記録の閉鎖等,0,2024-01-30,2024-01-26,有限会社オリーブ,,有限会社,徳島県,美馬市,脇町大字猪尻字建神社下南１６４番地１,,36,207,7793602,,,2024-01-26,清算の結了等,,,2015-10-05,1,,,,,オリーブ,0
1326,5500001020660,登記記録の閉鎖等,0,2024-01-30,2024-01-29,株式会社リチェルカ,,株式会社,愛媛県,松山市,永木町１丁目８番地８,,38,201,7900866,,,2024-01-29,清算の結了等,,,2017-06-02,1,,,,,,0
1336,6010001138139,登記記録の閉鎖等,0,2024-01-30,2024-01-19,Ｊ－ＷｅＳｃｏ株式会社,,株式会社,東京都,港区,芝公園２丁目１１番１号,,13,103,1050011,,,2024-01-19,清算の結了等,,,2015-10-05,1,,,,,ジェイウエスコ,0
1364,6010901028397,登記記録の閉鎖等,0,2024-01-30,2024-01-26,株式会社スマートオフィス総合研究所,,株式会社,神奈川県,川崎市宮前区,有馬９丁目２番３１－１０５号,,14,136,2160003,,,2024-01-26,清算の結了等,,,2015-10-05,1,,,,,スマートオフィスソウゴウケンキュウジョ,0
1366,6011001000271,登記記録の閉鎖等,0,2024-01-30,2024-01-24,株式会社藍書房,,株式会社,東京都,渋谷区,恵比寿４丁目３番５－１１０４号クレヴィア恵比寿,,13,113,1500013,,,2024-01-24,清算の結了等,,,2015-10-05,1,,,,,アイショボウ,0
1383,6011501013483,登記記録の閉鎖等,0,2024-01-30,2024-01-12,株式会社カイセイプリンティング,,株式会社,東京都,北区,浮間２丁目１５番１７号,,13,117,1150051,,,2024-01-12,清算の結了等,,,2015-10-05,1,,,,,,0
1386,6011701011502,登記記録の閉鎖等,0,2024-01-30,2024-01-29,株式会社ホークアイ,,株式会社,東京都,江戸川区,北葛西２丁目１９番４－４０８号,,13,123,1340081,,,2024-01-29,登記官による閉鎖,,,2015-10-05,1,,,,,,0
1387,6011701025816,登記記録の閉鎖等,0,2024-01-30,2023-12-27,八達嶺株式会社,,株式会社,東京都,江戸川区,南葛西５丁目１５番１０号ハビタシオン南葛西５０２,,13,123,1340085,,,2023-12-27,清算の結了等,,,2022-11-29,1,,,,,ハッタツレイ,0
1389,6011702001568,登記記録の閉鎖等,0,2024-01-30,2024-01-29,有限会社江戸川紙工,,有限会社,東京都,江戸川区,松島２丁目１９番２号,,13,123,1320031,,,2024-01-29,登記官による閉鎖,,,2015-10-05,1,,,,,,0
1390,6011702006889,登記記録の閉鎖等,0,2024-01-30,2024-01-29,有限会社大正小林建設,,有限会社,東京都,江戸川区,鹿骨１丁目５９番５号,,13,123,1330073,,,2024-01-29,登記官による閉鎖,,,2015-10-05,1,,,,,,0
1391,6011703000148,登記記録の閉鎖等,0,2024-01-30,2024-01-29,合資会社菊屋,,合資会社,東京都,江戸川区,東小岩３丁目２２番５号,,13,123,1330052,,,2024-01-29,登記官による閉鎖,,,2015-10-05,1,,,,,,0
1393,6011705000872,登記記録の閉鎖等,0,2024-01-30,2024-01-29,東京蒼浪皮革事業協同組合,,その他の設立登記法人,東京都,江戸川区,松江２丁目１番１３号,,13,123,1320025,,,2024-01-29,登記官による閉鎖,,,2015-10-05,1,,,,,,0
1397,6012401014753,登記記録の閉鎖等,0,2024-01-30,2024-01-24,株式会社リスクマネージメント,,株式会社,東京都,武蔵野市,中町２丁目２８番４号,,13,203,1800006,,,2024-01-24,清算の結了等,,,2015-10-05,1,,,,,リスクマネージメント,0
1406,6020001059788,登記記録の閉鎖等,0,2024-01-30,2024-01-26,株式会社大和屋材木店,,株式会社,神奈川県,横浜市中区,大平町１番地,,14,104,2310859,,,2024-01-26,清算の結了等,,,2015-10-05,1,,,,,ヤマトヤザイモクテン,0
1420,6030001012234,登記記録の閉鎖等,0,2024-01-30,2024-01-25,株式会社ＢＭＳ,,株式会社,埼玉県,さいたま市緑区,大字大間木１５４５番地６棟５０６号,,11,109,3360923,,,2024-01-25,清算の結了等,,,2015-10-05,1,,,,,ビーエムエス,0
1443,6050002034358,登記記録の閉鎖等,0,2024-01-30,2024-01-26,有限会社ひゅうまんホーム,,有限会社,茨城県,稲敷市,上根本３４８４番地,,08,229,3010902,,,2024-01-26,清算の結了等,,,2015-10-05,1,,,,,ヒュウマンホーム,0
1446,6060005006171,登記記録の閉鎖等,0,2024-01-30,2024-01-26,医療法人洗心,,その他の設立登記法人,栃木県,栃木市,沼和田町９番２８号,,09,203,3280042,,,2024-01-26,清算の結了等,,,2015-10-05,1,,,,,センシン,0
1448,6070002011537,登記記録の閉鎖等,0,2024-01-30,2024-01-22,有限会社白欧舎,,有限会社,群馬県,高崎市,下斎田町６３番地の４,,10,202,3700025,,,2024-01-22,清算の結了等,,,2015-10-05,1,,,,,ハクオウシャ,0
1452,6080402016515,登記記録の閉鎖等,0,2024-01-30,2024-01-24,有限会社リード,,有限会社,静岡県,浜松市天竜区,只来１５６５番地,,22,140,4313302,,,2024-01-24,清算の結了等,,,2015-10-05,1,,,,,リード,0
1453,6110001005097,登記記録の閉鎖等,0,2024-01-30,2024-01-25,株式会社北日商会,,株式会社,新潟県,新潟市東区,岡山１２９７番地,,15,102,9500821,,,2024-01-25,合併による解散等,9230001002831,令和６年１月２１日富山市問屋町二丁目９番３４号株式会社北信商会（9230001002831）に合併し解散,2015-10-05,1,,,,,ホクニチショウカイ,0
1465,6120001257662,登記記録の閉鎖等,0,2024-01-30,2024-01-22,株式会社フレスカ,,株式会社,大阪府,大阪市中央区,上汐２丁目４番６号,,27,128,5420064,,,2024-01-22,合併による解散等,3120001240670,令和６年１月１日大阪市天王寺区石ヶ辻町７番１３号株式会社袴田カンテラフーズ（3120001240670）に合併し解散,2023-09-01,1,,,,,フレスカ,0
1472,6120101002456,登記記録の閉鎖等,0,2024-01-30,2024-01-29,堺部品株式会社,,株式会社,大阪府,堺市堺区,南清水町２丁１番２３号,,27,141,5900005,,,2024-01-29,清算の結了等,,,2015-10-05,1,,,,,サカイブヒン,0
1494,6140001089022,登記記録の閉鎖等,0,2024-01-30,2024-01-29,株式会社ｂｉｓ・１０４,,株式会社,兵庫県,姫路市,飾磨区上野田６丁目９１－１０１,,28,201,6728043,,,2024-01-29,清算の結了等,,,2015-10-05,1,,,,,ビスイチマルヨン,0
1497,6140002046641,登記記録の閉鎖等,0,2024-01-30,2024-01-25,有限会社天馬,,有限会社,兵庫県,豊岡市,野田１８１番地の１,,28,209,6680014,,,2024-01-25,清算の結了等,,,2015-10-05,1,,,,,テンマ,0
1501,6160001002081,登記記録の閉鎖等,0,2024-01-30,2024-01-25,吉田紙器工業株式会社,,株式会社,滋賀県,大津市,下阪本６丁目７番３１号,,25,201,5200105,,,2024-01-25,清算の結了等,,,2015-10-05,1,,,,,ヨシダシキコウギョウ,0
1506,6180003000940,登記記録の閉鎖等,0,2024-01-30,2024-01-25,合資会社まつや呉服店,00073705,合資会社,愛知県,名古屋市昭和区,御器所４丁目２４番１４号,,23,107,4660051,,,2024-01-25,清算の結了等,,,2015-10-05,1,,,,,マツヤゴフクテン,0
1512,6220001003180,登記記録の閉鎖等,0,2024-01-30,2024-01-30,株式会社ジィ・エイチ・コーポレーション,,株式会社,石川県,金沢市,長土塀２丁目１８番３０号,,17,201,9200867,,,2024-01-30,登記官による閉鎖,,,2015-10-05,1,,,,,,0
1513,6220001017552,登記記録の閉鎖等,0,2024-01-30,2024-01-30,株式会社沢本組,,株式会社,石川県,かほく市,宇野気ニ８０番地,,17,209,9291125,,,2024-01-30,登記官による閉鎖,,,2015-10-05,1,,,,,,0
1514,6220001018311,登記記録の閉鎖等,0,2024-01-30,2024-01-30,株式会社ＤＩＣ’Ｓ,,株式会社,石川県,金沢市,片町１丁目７番２３号１０３号室,,17,201,9200981,,,2024-01-30,登記官による閉鎖,,,2015-10-05,1,,,,,,0
1515,6220002002603,登記記録の閉鎖等,0,2024-01-30,2024-01-30,有限会社小嶋建築設計室,,有限会社,石川県,金沢市,新保本２丁目４７２番地,,17,201,9218062,,,2024-01-30,登記官による閉鎖,,,2015-10-05,1,,,,,,0
1516,6220002009631,登記記録の閉鎖等,0,2024-01-30,2024-01-30,丸登水産有限会社,,有限会社,石川県,白山市,,,17,210,9240000,,,2024-01-30,登記官による閉鎖,,,2015-10-05,1,,,,,,1
1561,6390001008576,登記記録の閉鎖等,0,2024-01-30,2024-01-29,株式会社佐藤商会,,株式会社,山形県,新庄市,大字福田字福田山７１１番９３,,06,205,9960053,,,2024-01-29,清算の結了等,,,2015-10-05,1,,,,,サトウショウカイ,0
1564,6420001001791,登記記録の閉鎖等,0,2024-01-30,2024-01-30,株式会社藤川商店,,株式会社,青森県,青森市,安方２丁目１２番１７号,,02,201,0300803,,,2024-01-30,登記官による閉鎖,,,2015-10-05,1,,,,,,0
1565,6420002003507,登記記録の閉鎖等,0,2024-01-30,2024-01-30,有限会社ユウセツコンクリート,,有限会社,青森県,青森市,大字駒込字深沢５番地３３０,,02,201,0300955,,,2024-01-30,登記官による閉鎖,,,2015-10-05,1,,,,,,0
1566,6420002006088,登記記録の閉鎖等,0,2024-01-30,2024-01-30,有限会社インテリア原田,,有限会社,青森県,八戸市,湊高台２丁目１６番２９号,,02,203,0310823,,,2024-01-30,登記官による閉鎖,,,2015-10-05,1,,,,,,0
1567,6420002014215,登記記録の閉鎖等,0,2024-01-30,2024-01-30,有限会社ホームアップ,,有限会社,青森県,弘前市,大字宮園４丁目２番地６,,02,202,0368063,,,2024-01-30,登記官による閉鎖,,,2015-10-05,1,,,,,,0
1568,6420005000550,登記記録の閉鎖等,0,2024-01-30,2024-01-30,社団法人青森国際県人の会,,その他の設立登記法人,青森県,青森市,大字石江字三好１７６番地,,02,201,0380003,,,2024-01-30,登記官による閉鎖,,,2015-10-05,1,,,,,,0
1572,6430001059292,登記記録の閉鎖等,0,2024-01-30,2024-01-25,ポストホーム株式会社,,株式会社,北海道,恵庭市,漁町１０２番地１,,01,231,0611414,,,2024-01-25,合併による解散等,7430001044401,令和６年１月１日北海道恵庭市漁町１０２番地の１株式会社クリーンステップ（7430001044401）に合併し解散,2015-10-05,1,,,,,ポストホーム,0
1592,7010101014387,登記記録の閉鎖等,0,2024-01-30,2024-01-26,株式会社リーダーズ,,株式会社,東京都,八王子市,北野町５３６番地１,,13,201,1920906,,,2024-01-26,合併による解散等,4012401037319,令和６年１月２０日東京都多摩市関戸四丁目２４番地７第１６通南ビル２階株式会社ｂｅｓｔｐｌａｃｅ（4012401037319）に合併し解散,2020-10-23,1,,,,,リーダーズ,0
1629,7011101039647,登記記録の閉鎖等,0,2024-01-30,2024-01-26,株式会社リティルマーケティング研究所,,株式会社,東京都,中野区,中央２丁目４３番８号,,13,114,1640011,,,2024-01-26,清算の結了等,,,2015-10-05,1,,,,,ケンキュウジョ,0
1642,7011701009487,登記記録の閉鎖等,0,2024-01-30,2024-01-29,株式会社ヨシトレーディング,,株式会社,東京都,江戸川区,北小岩２丁目１４番２－８０３号,,13,123,1330051,,,2024-01-29,登記官による閉鎖,,,2015-10-05,1,,,,,,0
1643,7011701011286,登記記録の閉鎖等,0,2024-01-30,2024-01-29,株式会社Ｆｏｕｒ　ｌｅａｆ　ｃｌｏｖｅｒ,,株式会社,東京都,江戸川区,東葛西７丁目１３番１０号,,13,123,1340084,,,2024-01-29,登記官による閉鎖,,,2015-10-05,1,,,,,,0
1644,7011702012069,登記記録の閉鎖等,0,2024-01-30,2024-01-29,有限会社やよい商事,,有限会社,東京都,江戸川区,東葛西５丁目３８番４号,,13,123,1340084,,,2024-01-29,登記官による閉鎖,,,2015-10-05,1,,,,,,0
1645,7011702015765,登記記録の閉鎖等,0,2024-01-30,2024-01-29,有限会社秀,,有限会社,東京都,江戸川区,東葛西８丁目１番７号,,13,123,1340084,,,2024-01-29,登記官による閉鎖,,,2015-10-05,1,,,,,,0
1646,7011702017720,登記記録の閉鎖等,0,2024-01-30,2024-01-29,有限会社パシャ,,有限会社,東京都,江戸川区,松島３丁目１番１０号,,13,123,1320031,,,2024-01-29,登記官による閉鎖,,,2015-10-05,1,,,,,,0
1647,7011705000005,登記記録の閉鎖等,0,2024-01-30,2024-01-29,社団法人ゴールドベル芸術協会,,その他の設立登記法人,東京都,江戸川区,南小岩７丁目９番２号,,13,123,1330056,,,2024-01-29,登記官による閉鎖,,,2015-10-05,1,,,,,,0
1650,7012305001921,登記記録の閉鎖等,0,2024-01-30,2024-01-17,一般社団法人あいわ保証協会,,その他の設立登記法人,東京都,町田市,本町田２４２４番地１公社住宅ホ１２－１０３,,13,209,1940032,,,2024-01-17,清算の結了等,,,2020-07-06,1,,,,,アイワホショウキョウカイ,0
1672,7021001066311,登記記録の閉鎖等,0,2024-01-30,2024-01-26,株式会社湘南街づくり研究所,,株式会社,神奈川県,藤沢市,辻堂神台１丁目３番３９号,,14,205,2510041,,,2024-01-26,清算の結了等,,,2018-12-27,1,,,,,ショウナンマチヅクリケンキュウジョ,0
1674,7021005010083,登記記録の閉鎖等,0,2024-01-30,2024-01-26,ＮＰＯ法人ネパール教育支援の会ＮＥＳＡ,,その他の設立登記法人,神奈川県,足柄下郡湯河原町,吉浜１９３３番地の２９,,14,384,2590312,,,2024-01-26,清算の結了等,,,2015-10-05,1,,,,,ネパールキョウイクシエンノカイネサ,0
1676,7030001040829,登記記録の閉鎖等,0,2024-01-30,2024-01-25,株式会社共立加工,,株式会社,埼玉県,春日部市,大場５９６番地１,,11,214,3440021,,,2024-01-25,清算の結了等,,,2015-10-05,1,,,,,キョウリツカコウ,0
1678,7030001101696,登記記録の閉鎖等,0,2024-01-30,2024-01-23,アイサイン株式会社,,株式会社,埼玉県,さいたま市緑区,原山４丁目２８番１号１０５,,11,109,3360931,,,2024-01-23,清算の結了等,,,2015-10-05,1,,,,,アイサイン,0
1686,7030002112230,登記記録の閉鎖等,0,2024-01-30,2024-01-25,有限会社大新ドレス,,有限会社,埼玉県,川口市,大字赤芝新田３２１番地３,,11,203,3330824,,,2024-01-25,清算の結了等,,,2015-10-05,1,,,,,ダイシンドレス,0
1691,7040001102801,登記記録の閉鎖等,0,2024-01-30,2024-01-22,マスタッシュ株式会社,,株式会社,千葉県,千葉市若葉区,東寺山町４２３番地１,,12,104,2640035,,,2024-01-22,清算の結了等,,,2017-12-14,1,,,,,マスタッシュ,0
1692,7040001109961,登記記録の閉鎖等,0,2024-01-30,2024-01-23,株式会社和優,,株式会社,埼玉県,朝霞市,根岸台１丁目９番４０号,,11,227,3510005,,,2024-01-23,清算の結了等,,,2019-07-16,1,,,,,ワユウ,0
1701,7050001023823,登記記録の閉鎖等,0,2024-01-30,2024-01-25,株式会社吉成源次商店,,株式会社,茨城県,日立市,東町２丁目６番２号,,08,202,3170061,,,2024-01-25,清算の結了等,,,2015-10-05,1,,,,,ヨシナリゲンジショウテン,0
1705,7050001048705,登記記録の閉鎖等,0,2024-01-30,2024-01-24,Ｊ－ＰＯＷＥＲ株式会社,,株式会社,茨城県,つくば市,花室９６２番地３,,08,220,3050025,,,2024-01-24,清算の結了等,,,2021-02-04,1,,,,,ジェイパワー,0
1708,7070001012205,登記記録の閉鎖等,0,2024-01-30,2024-01-24,株式会社キャスコム,,株式会社,群馬県,富岡市,富岡１７７２番地５,,10,210,3702316,,,2024-01-24,清算の結了等,,,2015-10-05,1,,,,,,0
1724,7110001027520,登記記録の閉鎖等,0,2024-01-30,2024-01-23,佐渡急送株式会社,,株式会社,新潟県,佐渡市,両津夷２６９番地１０,,15,224,9520011,,,2024-01-23,合併による解散等,3110001027508,令和６年１月１日新潟県佐渡市吾潟１８３番地１佐渡汽船運輸株式会社（3110001027508）に合併し解散,2015-10-05,1,,,,,サドキュウソウ,0
1742,7120901044911,登記記録の閉鎖等,0,2024-01-30,2024-01-24,株式会社ＷＡＶＹ,,株式会社,大阪府,摂津市,新在家２丁目３１番１８号１階,,27,224,5660055,,,2024-01-24,清算の結了等,,,2021-09-21,1,,,,,ウェイビー,0
1746,7130001018939,登記記録の閉鎖等,0,2024-01-30,2024-01-26,株式会社丸良商店,,株式会社,京都府,京都市下京区,松原通東洞院東入本燈籠町１３番地の２,,26,106,6008086,,,2024-01-26,清算の結了等,,,2015-10-05,1,,,,,マルリョウショウテン,0
1747,7130001048060,登記記録の閉鎖等,0,2024-01-30,2024-01-25,株式会社ＳＡＲＡホールディングス,,株式会社,京都府,京都市中京区,新町通三条下る三条町３３６番地,,26,104,6048205,,,2024-01-25,合併による解散等,8130001000862,令和６年１月２５日京都市右京区山ノ内西裏町１５番地の６７株式会社さら（8130001000862）に合併し解散,2015-10-05,1,,,,,サラホールディングス,0
1752,7140001075236,登記記録の閉鎖等,0,2024-01-30,2024-01-26,日交紙管工業株式会社,,株式会社,兵庫県,西脇市,明楽寺町１１４８番地,,28,213,6770067,,,2024-01-26,清算の結了等,,,2015-10-05,1,,,,,ニッコウシカンコウギョウ,0
1758,7140003013937,登記記録の閉鎖等,0,2024-01-30,2024-01-19,ＡｓｈＧｒｅｙ合同会社,,合同会社,東京都,港区,南青山３丁目１０－４１ジュエル青山ビル２０２号室,,13,103,1070062,,,2024-01-19,清算の結了等,,,2019-05-17,1,,,,,アッシュグレイ,0
1761,7180001063609,登記記録の閉鎖等,0,2024-01-30,2024-01-25,株式会社ＫＧカンパニー,,株式会社,愛知県,名古屋市緑区,鳴海町字杜若９１番地の１,,23,114,4580801,,,2024-01-25,清算の結了等,,,2015-10-05,1,,,,,ケージーカンパニー,0
1765,7180001120104,登記記録の閉鎖等,0,2024-01-30,2024-01-24,株式会社オーソ,,株式会社,愛知県,名古屋市千種区,城木町１丁目７３番地,,23,101,4640846,,,2024-01-24,清算の結了等,,,2015-10-05,1,,,,,オーソ,0
1766,7180001147626,登記記録の閉鎖等,0,2024-01-30,2024-01-19,ＯＳＴ株式会社,,株式会社,愛知県,名古屋市千種区,小松町６丁目１１番地の３,,23,101,4640853,,,2024-01-19,清算の結了等,,,2021-09-01,1,,,,,オーエスティー,0
1767,7180002025070,登記記録の閉鎖等,0,2024-01-30,2024-01-23,有限会社ラクープ,,有限会社,愛知県,名古屋市西区,堀越３丁目２番１９号,,23,104,4510055,,,2024-01-23,清算の結了等,,,2015-10-05,1,,,,,ラクープ,0
1769,7180002028032,登記記録の閉鎖等,0,2024-01-30,2024-01-22,有限会社鈴木ビル,,有限会社,愛知県,名古屋市中村区,鳥居通５丁目４５番地,,23,105,4530044,,,2024-01-22,清算の結了等,,,2015-10-05,1,,,,,スズキビル,0
1774,7180302020275,登記記録の閉鎖等,0,2024-01-30,2024-01-24,三井鈑金工作所有限会社,,有限会社,愛知県,碧南市,天王町４丁目７番地,,23,209,4470855,,,2024-01-24,清算の結了等,,,2015-10-05,1,,,,,ミツイバンキンコウサクショ,0
1777,7220001000689,登記記録の閉鎖等,0,2024-01-30,2024-01-30,暁商事株式会社,,株式会社,石川県,金沢市,東山３丁目１６番９号,,17,201,9200831,,,2024-01-30,登記官による閉鎖,,,2015-10-05,1,,,,,,0
1778,7220001005754,登記記録の閉鎖等,0,2024-01-30,2024-01-30,株式会社エフ・ケー・エス,,株式会社,石川県,金沢市,寺中町ロ７７番地５,,17,201,9200341,,,2024-01-30,登記官による閉鎖,,,2015-10-05,1,,,,,,0
1779,7220001006620,登記記録の閉鎖等,0,2024-01-30,2024-01-30,株式会社マツダモータース石川,,株式会社,石川県,野々市市,横宮町３番１号,,17,212,9218817,,,2024-01-30,登記官による閉鎖,,,2015-10-05,1,,,,,マツダモータースイシカワ,0
1783,7220002009630,登記記録の閉鎖等,0,2024-01-30,2024-01-30,関野木材有限会社,,有限会社,石川県,白山市,,,17,210,9240000,,,2024-01-30,登記官による閉鎖,,,2015-10-05,1,,,,,,1
1788,7240003004868,登記記録の閉鎖等,0,2024-01-30,2023-12-27,合同会社ジュヌビエーヴ,,合同会社,広島県,広島市西区,高須２丁目６番３２－４０３号,,34,104,7330871,,,2023-12-27,清算の結了等,,,2020-11-18,1,,,,,ジュヌビエーヴ,0
1797,7290005018283,登記記録の閉鎖等,0,2024-01-30,2024-01-22,ＮＰＯ法人トレジャーズ,,その他の設立登記法人,福岡県,春日市,宝町１丁目１０番地９,,40,218,8160807,,,2024-01-22,清算の結了等,,,2021-07-16,1,,,,,トレジャーズ,0
1822,7420002009338,登記記録の閉鎖等,0,2024-01-30,2024-01-30,有限会社ワシントン企画,,有限会社,青森県,八戸市,下長１丁目１８番３３号,,02,203,0391164,,,2024-01-30,登記官による閉鎖,,,2015-10-05,1,,,,,,0
1823,7420002010304,登記記録の閉鎖等,0,2024-01-30,2024-01-30,有限会社浅坂建設,,有限会社,青森県,八戸市,城下２丁目２０番１号,,02,203,0310072,,,2024-01-30,登記官による閉鎖,,,2015-10-05,1,,,,,,0
1824,7420002019931,登記記録の閉鎖等,0,2024-01-30,2024-01-30,有限会社青山建築事務所,,有限会社,青森県,むつ市,海老川町３０番２０号,,02,208,0350054,,,2024-01-30,登記官による閉鎖,,,2015-10-05,1,,,,,,0
1844,8010401013501,登記記録の閉鎖等,0,2024-01-30,2024-01-22,芝鋼材株式会社,,株式会社,東京都,港区,芝５丁目３１番１５号,,13,103,1080014,,,2024-01-22,清算の結了等,,,2015-10-05,1,,,,,シバコウザイ,0
1845,8010401059172,登記記録の閉鎖等,0,2024-01-30,2024-01-19,株式会社ベラメンテ,,株式会社,東京都,港区,芝３丁目３１番２号,,13,103,1050014,,,2024-01-19,清算の結了等,,,2015-10-05,1,,,,,ベラメンテ,0
1852,8010401143109,登記記録の閉鎖等,0,2024-01-30,2024-01-09,ＤＩＨＯＣＯ　Ｊａｐａｎ株式会社,,株式会社,東京都,港区,港南２丁目１３－３４,,13,103,1080075,,,2024-01-09,合併による解散等,9010401068288,令和６年１月１日東京都港区港南二丁目１３－３４ドイグロジャパン株式会社（9010401068288）に合併し解散,2019-01-11,1,,,,,ディホコジャパン,0
1856,8010403019769,登記記録の閉鎖等,0,2024-01-30,2024-01-17,合同会社ＴＳＭ１５６,,合同会社,東京都,港区,元赤坂１丁目１番７号,,13,103,1070051,,,2024-01-17,清算の結了等,,,2018-11-30,1,,,,,ティーエスエムヒャクゴジュウロク,0
1865,8010701035534,登記記録の閉鎖等,0,2024-01-30,2024-01-12,株式会社ＳＯＲＡ,,株式会社,東京都,港区,白金台２丁目７番５号,,13,103,1080071,,,2024-01-12,合併による解散等,9010701039071,令和６年１月１日東京都港区白金台二丁目７番５号株式会社ＰＩＴ（9010701039071）に合併し解散,2018-03-19,1,,,,,ソラ,0
1866,8010701038792,登記記録の閉鎖等,0,2024-01-30,2024-01-25,株式会社ビッグハンド,,株式会社,東京都,品川区,荏原５丁目１２番１号,,13,109,1420063,,,2024-01-25,清算の結了等,,,2020-01-30,1,,,,,ビッグハンド,0
1877,8011001056452,登記記録の閉鎖等,0,2024-01-30,2024-01-26,株式会社Ｅｖｅｒｇｒｅｅｎ,,株式会社,東京都,渋谷区,千駄ヶ谷５丁目８番６号,,13,113,1510051,,,2024-01-26,清算の結了等,,,2015-10-05,1,,,,,,0
1895,8011701016730,登記記録の閉鎖等,0,2024-01-30,2024-01-29,株式会社アドビス,,株式会社,東京都,江戸川区,西小岩４丁目９番５号,,13,123,1330057,,,2024-01-29,登記官による閉鎖,,,2015-10-05,1,,,,,,0
1896,8011702010988,登記記録の閉鎖等,0,2024-01-30,2024-01-29,丸正倉庫有限会社,,有限会社,東京都,江戸川区,大杉３丁目４番１３号,,13,123,1320022,,,2024-01-29,登記官による閉鎖,,,2015-10-05,1,,,,,,0
1897,8011702012753,登記記録の閉鎖等,0,2024-01-30,2024-01-29,有限会社若木機設,,有限会社,東京都,江戸川区,鹿骨４丁目２８番１１号,,13,123,1330073,,,2024-01-29,登記官による閉鎖,,,2015-10-05,1,,,,,,0
1898,8011703000492,登記記録の閉鎖等,0,2024-01-30,2024-01-29,合資会社ケアプラン長谷川,,合資会社,東京都,江戸川区,東葛西６丁目４番１５号,,13,123,1340084,,,2024-01-29,登記官による閉鎖,,,2015-10-05,1,,,,,,0
1906,8013301045829,登記記録の閉鎖等,0,2024-01-30,2024-01-19,株式会社創森,,株式会社,大阪府,大阪市生野区,巽北１丁目１番１号,00127902,27,116,5440004,,,2024-01-19,清算の結了等,,,2020-06-25,1,,,,,ソウシン,0
1924,8030001096531,登記記録の閉鎖等,0,2024-01-30,2024-01-24,株式会社中野テクノサービス,,株式会社,埼玉県,新座市,東北１丁目１４番１号,,11,230,3520001,,,2024-01-24,清算の結了等,,,2015-10-05,1,,,,,ナカノテクノサービス,0
1926,8030001108922,登記記録の閉鎖等,0,2024-01-30,2024-01-19,株式会社Ｃｒｅａｔｅ,,株式会社,埼玉県,坂戸市,清水町４番５号,,11,239,3500222,,,2024-01-19,清算の結了等,,,2015-10-05,1,,,,,クリエイト,0
1937,8040001073463,登記記録の閉鎖等,0,2024-01-30,2024-01-22,ビジネス＆ライフサービス株式会社,,株式会社,千葉県,千葉市花見川区,幕張本郷２丁目８番２３号アミティ望月４０１号,,12,102,2620033,,,2024-01-22,清算の結了等,,,2015-10-05,1,,,,,ビジネスアンドライフサービス,0
1940,8040003015018,登記記録の閉鎖等,0,2024-01-30,2024-01-19,合同会社Ｏｎｅ　ｎｅｘｔ,,合同会社,千葉県,船橋市,本町６丁目２－１０ダイアパレスステーションプラザ船橋５１０,,12,204,2730005,,,2024-01-19,清算の結了等,,,2020-03-12,1,,,,,ワンネクスト,0
1948,8060001028052,登記記録の閉鎖等,0,2024-01-30,2024-01-26,株式会社ＹＹガレージ,,株式会社,栃木県,栃木市,薗部町３丁目４番１号,,09,203,3280074,,,2024-01-26,清算の結了等,,,2016-03-09,1,,,,,ワイワイガレージ,0
1950,8070001034520,登記記録の閉鎖等,0,2024-01-30,2024-01-25,豊和技研工業株式会社,,株式会社,群馬県,高崎市,箕郷町柏木沢１５３０番地２９,,10,202,3703101,,,2024-01-25,清算の結了等,,,2018-03-28,1,,,,,ホウワギケンコウギョウ,0
1959,8100002022702,登記記録の閉鎖等,0,2024-01-30,2024-01-24,有限会社松本フィールドリサーチ,,有限会社,長野県,松本市,大字島内３７５７番地５,,20,202,3900851,,,2024-01-24,清算の結了等,,,2015-10-05,1,,,,,マツモトフィールドリサーチ,0
1962,8120001032411,登記記録の閉鎖等,0,2024-01-30,2024-01-22,かね利興産株式会社,,株式会社,大阪府,大阪市住吉区,山之内２丁目８番１０号,,27,120,5580023,,,2024-01-22,清算の結了等,,,2015-10-05,1,,,,,カネリコウサン,0
1976,8120005020552,登記記録の閉鎖等,0,2024-01-30,2024-01-29,一般社団法人ラッキーサポート,,その他の設立登記法人,大阪府,門真市,垣内町１５番１５号,,27,223,5710065,,,2024-01-29,清算の結了等,,,2018-11-28,1,,,,,ラッキーサポート,0
1979,8120901015069,登記記録の閉鎖等,0,2024-01-30,2024-01-29,株式会社ＫＮラボラトリーズ,,株式会社,大阪府,茨木市,別院町５番７号,,27,211,5670817,,,2024-01-29,清算の結了等,,,2015-10-05,1,,,,,,0
1990,8130002028333,登記記録の閉鎖等,0,2024-01-30,2024-01-25,有限会社企画村,,有限会社,京都府,南丹市,園部町新町火打谷５番地,,26,213,6220003,,,2024-01-25,清算の結了等,,,2015-10-05,1,,,,,キカクムラ,0
1991,8130003007699,登記記録の閉鎖等,0,2024-01-30,2024-01-25,オーガストマーチ合同会社,,合同会社,京都府,京都市左京区,静市野中町２９１番地１０,,26,103,6011122,,,2024-01-25,清算の結了等,,,2022-01-20,1,,,,,オーガストマーチ,0
2000,8170001016946,登記記録の閉鎖等,0,2024-01-30,2024-01-29,株式会社Ｎａｒｙ,,株式会社,和歌山県,和歌山市,中島５８０番地２２,,30,201,6410006,,,2024-01-29,清算の結了等,,,2022-01-18,1,,,,,ナリー,0
2016,8180302000895,登記記録の閉鎖等,0,2024-01-30,2024-01-17,有限会社神谷織布工場,,有限会社,愛知県,岡崎市,昭和町字天神３５番地,,23,202,4440938,,,2024-01-17,清算の結了等,,,2015-10-05,1,,,,,カミヤショクフコウジョウ,0
2024,8220002002097,登記記録の閉鎖等,0,2024-01-30,2024-01-30,有限会社加賀路産業,,有限会社,石川県,金沢市,此花町４番１２号,,17,201,9200852,,,2024-01-30,登記官による閉鎖,,,2015-10-05,1,,,,,,0
2025,8220002006734,登記記録の閉鎖等,0,2024-01-30,2024-01-30,有限会社村田幸司友禅工房,,有限会社,石川県,金沢市,三口町火３１０番地,,17,201,9200018,,,2024-01-30,登記官による閉鎖,,,2015-10-05,1,,,,,,0
2028,8260001008884,登記記録の閉鎖等,0,2024-01-30,2024-01-29,メルサスホールディングス株式会社,,株式会社,岡山県,岡山市北区,東島田町２丁目２番１８号,,33,101,7000983,,,2024-01-29,清算の結了等,,,2015-10-05,1,,,,,メルサスホールディングス,0
2029,8260003001739,登記記録の閉鎖等,0,2024-01-30,2024-01-29,合同会社エール,,合同会社,岡山県,岡山市南区,川張１７８番地１,,33,104,7091214,,,2024-01-29,清算の結了等,,,2015-10-05,1,,,,,エール,0
2032,8290001085517,登記記録の閉鎖等,0,2024-01-30,2024-01-25,株式会社カワソク,,株式会社,福岡県,福岡市早良区,祖原２０番５号,,40,137,8140005,,,2024-01-25,清算の結了等,,,2019-06-10,1,,,,,カワソク,0
2036,8290002046220,登記記録の閉鎖等,0,2024-01-30,2024-01-17,有限会社トータルミートサービス,,有限会社,福岡県,飯塚市,伊川３０７番地の１,,40,205,8200054,,,2024-01-17,清算の結了等,,,2015-10-05,1,,,,,トータルミートサービス,0
2055,8370001040430,登記記録の閉鎖等,0,2024-01-30,2024-01-29,株式会社青葉設備,,株式会社,宮城県,仙台市青葉区,栗生１丁目５番地の２１,,04,101,9893122,,,2024-01-29,清算の結了等,,,2016-11-02,1,,,,,アオバセツビ,0
2065,8420002002837,登記記録の閉鎖等,0,2024-01-30,2024-01-30,有限会社三上モータース,,有限会社,青森県,青森市,南佃２丁目７番７号,,02,201,0300964,,,2024-01-30,登記官による閉鎖,,,2015-10-05,1,,,,,,0
2066,8420005000623,登記記録の閉鎖等,0,2024-01-30,2024-01-30,財団法人十和田博物遊苑,,その他の設立登記法人,青森県,青森市,堤町２丁目２３番７号,,02,201,0300812,,,2024-01-30,登記官による閉鎖,,,2015-10-05,1,,,,,,0
2078,9010001004750,登記記録の閉鎖等,0,2024-01-30,2024-01-24,株式会社立花,,株式会社,東京都,文京区,関口１丁目１８番６号,,13,105,1120014,,,2024-01-24,清算の結了等,,,2015-10-05,1,,,,,タチバナ,0
2096,9010101015144,登記記録の閉鎖等,0,2024-01-30,2024-01-26,株式会社マネーラボ,,株式会社,東京都,八王子市,北野町５３６番地１ブリーズコート北野３０１号,,13,201,1920906,,,2024-01-26,合併による解散等,4012401037319,令和６年１月２０日東京都多摩市関戸四丁目２４番地７第１６通南ビル２階株式会社ｂｅｓｔｐｌａｃｅ（4012401037319）に合併し解散,2022-04-19,1,,,,,マネーラボ,0
2098,9010401009572,登記記録の閉鎖等,0,2024-01-30,2024-01-22,株式会社コーケン,,株式会社,東京都,港区,芝公園２丁目９番５号,,13,103,1050011,,,2024-01-22,清算の結了等,,,2015-10-05,1,,,,,コーケン,0
2106,9010401141160,登記記録の閉鎖等,0,2024-01-30,2024-01-24,ＥＡＳＹ　ＳＰＯＲＴＳ株式会社,,株式会社,東京都,港区,北青山２丁目１１番３号Ａ－ＰＬＡＣＥ青山６Ｆ,,13,103,1070061,,,2024-01-24,合併による解散等,9010401134115,令和６年１月２３日東京都港区北青山二丁目１１番３号Ａ－Ｐｌａｃｅ青山６階ＥＡＳＹ　ＰＲＯＤＵＣＴＩＯＮ株式会社（9010401134115）に合併し解散,2018-10-03,1,,,,,イージースポーツ,0
2112,9010402003079,登記記録の閉鎖等,0,2024-01-30,2024-01-25,有限会社オフィストーチク,,有限会社,東京都,目黒区,下目黒５丁目２９番３号,,13,110,1530064,,,2024-01-25,清算の結了等,,,2015-10-05,1,,,,,オフィストーチク,0
2113,9010403021947,登記記録の閉鎖等,0,2024-01-30,2024-01-18,ギャラガー・マリン・ジャパン合同会社,,合同会社,東京都,港区,六本木１丁目６番３号泉ガーデンウイング５階,,13,103,1060032,,,2024-01-18,清算の結了等,,,2019-12-16,1,,,,,ギャラガーマリンジャパン,0
2128,9010802011128,登記記録の閉鎖等,0,2024-01-30,2024-01-26,有限会社新田,,有限会社,東京都,大田区,矢口２丁目５番１２号,,13,111,1460093,,,2024-01-26,清算の結了等,,,2015-10-05,1,,,,,ニッタ,0
2130,9010901025912,登記記録の閉鎖等,0,2024-01-30,2024-01-26,株式会社グッド,,株式会社,東京都,世田谷区,玉川４丁目１０番１５号,,13,112,1580094,,,2024-01-26,清算の結了等,,,2015-10-05,1,,,,,グッド,0
2154,9011701001673,登記記録の閉鎖等,0,2024-01-30,2024-01-29,株式会社エルファ,,株式会社,東京都,江戸川区,南葛西２丁目２番１０号,,13,123,1340085,,,2024-01-29,登記官による閉鎖,,,2015-10-05,1,,,,,,0
2155,9011701012530,登記記録の閉鎖等,0,2024-01-30,2024-01-29,株式会社総合管理サービス,,株式会社,東京都,江戸川区,北葛西２丁目２番１４号,,13,123,1340081,,,2024-01-29,登記官による閉鎖,,,2015-10-05,1,,,,,,0
2156,9011701014948,登記記録の閉鎖等,0,2024-01-30,2024-01-29,株式会社デンドロビューム,,株式会社,東京都,江戸川区,西瑞江４丁目１２番地３６,,13,123,1340015,,,2024-01-29,登記官による閉鎖,,,2015-10-05,1,,,,,,0
2157,9011702006639,登記記録の閉鎖等,0,2024-01-30,2024-01-29,有限会社曽我マニュファクチャーリングコーポレーション,,有限会社,東京都,江戸川区,松江２丁目１９番５号,,13,123,1320025,,,2024-01-29,登記官による閉鎖,,,2015-10-05,1,,,,,,0
2158,9011702015813,登記記録の閉鎖等,0,2024-01-30,2024-01-29,丸池建設興業有限会社,,有限会社,東京都,江戸川区,松島３丁目２２番５号コーポミヨシ２０５,,13,123,1320031,,,2024-01-29,登記官による閉鎖,,,2015-10-05,1,,,,,,0
2176,9020001116958,登記記録の閉鎖等,0,2024-01-30,2024-01-26,株式会社レイ,,株式会社,神奈川県,横浜市神奈川区,六角橋１丁目３２番３号國武ビル１０１号室,,14,102,2210802,,,2024-01-26,清算の結了等,,,2016-07-11,1,,,,,レイ,0
2181,9020002081532,登記記録の閉鎖等,0,2024-01-30,2024-01-26,有限会社千葉物産,,有限会社,神奈川県,川崎市川崎区,大島２丁目７番１０号,,14,131,2100834,,,2024-01-26,清算の結了等,,,2015-10-05,1,,,,,チバブッサン,0
2183,9020003022782,登記記録の閉鎖等,0,2024-01-30,2024-01-25,ｉｎｎｅｒｐｅａｃｅ　ＬＴＤ合同会社,,合同会社,神奈川県,横浜市西区,浅間町１丁目４番３号,,14,103,2200072,,,2024-01-25,清算の結了等,,,2022-11-24,1,,,,,インナーピースエルティディ,0
2186,9021001029506,登記記録の閉鎖等,0,2024-01-30,2024-01-29,株式会社山陽,,株式会社,神奈川県,座間市,小松原２丁目６５番９号,,14,216,2520002,,,2024-01-29,清算の結了等,,,2015-10-05,1,,,,,サンヨウ,0
2212,9050002032177,登記記録の閉鎖等,0,2024-01-30,2024-01-25,有限会社中野建築板金,,有限会社,茨城県,高萩市,大字秋山２７６７番地の１,,08,214,3180024,,,2024-01-25,清算の結了等,,,2015-10-05,1,,,,,ナカノケンチクバンキン,0
2249,9120902015645,登記記録の閉鎖等,0,2024-01-30,2024-01-26,有限会社ひまわり物流商会,,有限会社,大阪府,箕面市,箕面４丁目３番３１号,,27,220,5620001,,,2024-01-26,清算の結了等,,,2015-10-05,1,,,,,ヒマワリブツリュウショウカイ,0
2271,9150002009925,登記記録の閉鎖等,0,2024-01-30,2024-01-26,有限会社サンエー工業,,有限会社,奈良県,大和高田市,大字大谷７５８番地２４,,29,202,6350076,,,2024-01-26,清算の結了等,,,2015-10-05,1,,,,,サンエーコウギョウ,0
2278,9180002025481,登記記録の閉鎖等,0,2024-01-30,2024-01-25,有限会社カーショップマーク,,有限会社,愛知県,名古屋市南区,松城町１丁目３０番地１,,23,112,4570045,,,2024-01-25,清算の結了等,,,2015-10-05,1,,,,,カーショップマーク,0
2291,9200001021891,登記記録の閉鎖等,0,2024-01-30,2024-01-25,ヘイワエンタープライズ株式会社,,株式会社,岐阜県,瑞浪市,松ヶ瀬町１丁目３７番地,,21,208,5096134,,,2024-01-25,清算の結了等,,,2015-10-05,1,,,,,ヘイワエンタープライズ,0
2294,9220001013284,登記記録の閉鎖等,0,2024-01-30,2024-01-30,谷本林業株式会社,,株式会社,石川県,加賀市,熊坂町リ７１番地の１,,17,206,9220842,,,2024-01-30,登記官による閉鎖,,,2015-10-05,1,,,,,タニモトリンギョウ,0
2295,9220001014126,登記記録の閉鎖等,0,2024-01-30,2024-01-30,株式会社暫,,株式会社,石川県,加賀市,潮津町イ１番地,,17,206,9220411,,,2024-01-30,登記官による閉鎖,,,2015-10-05,1,,,,,,0
2296,9220001014539,登記記録の閉鎖等,0,2024-01-30,2024-01-30,株式会社エコ・リハウスｙｋ,,株式会社,石川県,金沢市,諸江町中丁８３番地,,17,201,9200016,,,2024-01-30,登記官による閉鎖,,,2015-10-05,1,,,,,,0
2297,9220001016254,登記記録の閉鎖等,0,2024-01-30,2024-01-30,株式会社ホクリク鋳鉄,,株式会社,石川県,羽咋市,柳田町七〇字６０番地,,17,207,9250018,,,2024-01-30,登記官による閉鎖,,,2018-09-18,1,,,,,ホクリクチュウテツ,0
2298,9220002009629,登記記録の閉鎖等,0,2024-01-30,2024-01-30,有限会社三江商店,,有限会社,石川県,白山市,,,17,210,9240000,,,2024-01-30,登記官による閉鎖,,,2015-10-05,1,,,,,,1
2299,9220002012830,登記記録の閉鎖等,0,2024-01-30,2024-01-30,有限会社ホワイトピクニック加賀,,有限会社,石川県,加賀市,大聖寺永町ハの３５番地の７,,17,206,9220024,,,2024-01-30,登記官による閉鎖,,,2015-10-05,1,,,,,,0
2300,9220005002614,登記記録の閉鎖等,0,2024-01-30,2024-01-30,特定非営利活動法人鹿の森,,その他の設立登記法人,石川県,金沢市,伏見新町３２５番地,,17,201,9218172,,,2024-01-30,登記官による閉鎖,,,2015-10-05,1,,,,,,0
2304,9240002031746,登記記録の閉鎖等,0,2024-01-30,2024-01-22,有限会社マエダオート,,有限会社,広島県,庄原市,東城町川東１１６１番地４,,34,210,7295121,,,2024-01-22,清算の結了等,,,2015-10-05,1,,,,,マエダオート,0
2309,9290001072547,登記記録の閉鎖等,0,2024-01-30,2024-01-26,株式会社Ｈｉｇｈ　Ｓｐｅｅｄ　Ｇｒｅｅｎ,,株式会社,福岡県,大野城市,川久保１丁目３番２２号,,40,219,8160905,,,2024-01-26,清算の結了等,,,2016-01-13,1,,,,,ハイスピードグリーン,0
2320,9320002001591,登記記録の閉鎖等,0,2024-01-30,2024-01-24,有限会社岡かまぼこ店,,有限会社,大分県,大分市,大手町３丁目２番５１号,,44,201,8700022,,,2024-01-24,清算の結了等,,,2015-10-05,1,,,,,,0
2331,9420001002110,登記記録の閉鎖等,0,2024-01-30,2024-01-30,山内不動産株式会社,,株式会社,青森県,青森市,大字浦町字奥野８３番地１０,,02,201,0300842,,,2024-01-30,登記官による閉鎖,,,2015-10-05,1,,,,,,0
2332,9420001002184,登記記録の閉鎖等,0,2024-01-30,2024-01-30,株式会社ユニット,,株式会社,青森県,青森市,大字後潟字大原９番地１,,02,201,0301262,,,2024-01-30,登記官による閉鎖,,,2015-10-05,1,,,,,,0
2333,9420001012563,登記記録の閉鎖等,0,2024-01-30,2024-01-30,中島林業株式会社,,株式会社,青森県,むつ市,脇野沢本村１６８番地,,02,208,0395327,,,2024-01-30,登記官による閉鎖,,,2015-10-05,1,,,,,ナカジマリンギョウ,0
2334,9420001013495,登記記録の閉鎖等,0,2024-01-30,2024-01-30,株式会社宮田青果,,株式会社,青森県,青森市,大字宮田字玉水１９２番地５,,02,201,0393505,,,2024-01-30,登記官による閉鎖,,,2015-10-05,1,,,,,,0
2337,9420002006614,登記記録の閉鎖等,0,2024-01-30,2024-01-30,有限会社迦陵頻,,有限会社,青森県,八戸市,大字市川町字北雷平１０７番地,,02,203,0392241,,,2024-01-30,登記官による閉鎖,,,2015-10-05,1,,,,,,0
2338,9420002013858,登記記録の閉鎖等,0,2024-01-30,2024-01-30,有限会社成田漆器,,有限会社,青森県,弘前市,大字神田２丁目４番地１４,,02,202,0368061,,,2024-01-30,登記官による閉鎖,,,2015-10-05,1,,,,,,0
2339,9420002015978,登記記録の閉鎖等,0,2024-01-30,2024-01-30,有限会社尾上電設,,有限会社,青森県,平川市,猿賀石林５８番地の９,,02,210,0360242,,,2024-01-30,登記官による閉鎖,,,2015-10-05,1,,,,,,0
2340,9420003001044,登記記録の閉鎖等,0,2024-01-30,2024-01-30,フォーチュン合同会社,,合同会社,青森県,十和田市,大字三本木字西小稲２００番地２８,,02,206,0340001,,,2024-01-30,登記官による閉鎖,,,2015-10-05,1,,,,,,0
2341,9420005000622,登記記録の閉鎖等,0,2024-01-30,2024-01-30,財団法人東北大学浅虫海洋生物学教育研究センター後援会,,その他の設立登記法人,青森県,青森市,大字浅虫字坂本９番地,,02,201,0393501,,,2024-01-30,登記官による閉鎖,,,2015-10-05,1,,,,,,0
2342,9420005003393,登記記録の閉鎖等,0,2024-01-30,2024-01-30,特定非営利活動法人森・川・海の環境保全ネット八戸,,その他の設立登記法人,青森県,八戸市,大字新井田字石動木平１９番地６０,,02,203,0310813,,,2024-01-30,登記官による閉鎖,,,2015-10-05,1,,,,,,0
2343,9420005004870,登記記録の閉鎖等,0,2024-01-30,2024-01-30,財団法人田中太郎五郎吉祥顕彰会,,その他の設立登記法人,青森県,弘前市,大字富田３丁目８番地,,02,202,0368186,,,2024-01-30,登記官による閉鎖,,,2015-10-05,1,,,,,,0
2344,9420005004879,登記記録の閉鎖等,0,2024-01-30,2024-01-30,社団法人弘前射撃協会,,その他の設立登記法人,青森県,弘前市,大字上鞘師町１６番地,,02,202,0368354,,,2024-01-30,登記官による閉鎖,,,2015-10-05,1,,,,,,0
2352,9470001016386,登記記録の閉鎖等,0,2024-01-30,2024-01-29,株式会社ＮＥＸＵＳ,,株式会社,香川県,高松市,香川町浅野３３３０番地,,37,201,7611703,,,2024-01-29,清算の結了等,,,2017-07-04,1,,,,,ネクサス,0
2356,9480002011451,登記記録の閉鎖等,0,2024-01-30,2024-01-29,有限会社エム．アンド．エム,,有限会社,徳島県,板野郡藍住町,勝瑞字西勝地２７８番地の１,,36,403,7711270,,,2024-01-29,清算の結了等,,,2015-10-05,1,,,,,エムアンドエム,0
