sequenceNumber,corporateNumber,process,correct,updateDate,changeDate,name,nameImageId,kind,prefectureName,cityName,streetNumber,addressImageId,prefectureCode,cityCode,postCode,addressOutside,addressOutsideImageId,closeDate,closeCause,successorCorporateNumber,changeCause,assignmentDate,latest,enName,enPrefectureName,enCityName,enAddressOutside,furigana,hihyoji
5,1010001235923,登記記録の閉鎖等,0,2024-03-11,2024-03-04,Ｂｉｚｆｏｒｃｅ株式会社,,株式会社,東京都,中央区,日本橋室町１丁目１１番１２号日本橋水野ビル７階,,13,102,1030022,,,2024-03-04,清算の結了等,,,2023-06-06,1,,,,,ビズフォース,0
11,1010002029589,登記記録の閉鎖等,0,2024-03-11,2024-03-01,有限会社コレクターズ傳,,有限会社,東京都,中央区,八重洲１丁目５番７号,,13,102,1030028,,,2024-03-01,合併による解散等,1010001060768,令和６年３月１日東京都中央区八重洲一丁目５番７号株式会社ローゼンホーフ（1010001060768）に合併し解散,2015-10-05,1,,,,,コレクターズデン,0
58,1013302014797,登記記録の閉鎖等,0,2024-03-11,2024-03-08,有限会社春駒,,有限会社,東京都,豊島区,南池袋２丁目１８番２号,,13,116,1710022,,,2024-03-08,清算の結了等,,,2015-10-05,1,,,,,,0
96,1100002004938,登記記録の閉鎖等,0,2024-03-11,2024-03-05,有限会社マルミヤ,,有限会社,長野県,長野市,松代温泉２９８番地,,20,201,3811226,,,2024-03-05,清算の結了等,,,2015-10-05,1,,,,,マルミヤ,0
98,1120001041393,登記記録の閉鎖等,0,2024-03-11,2024-03-08,入貝株式会社,,株式会社,大阪府,大阪市西区,京町堀１丁目１７番２３号,,27,106,5500003,,,2024-03-08,清算の結了等,,,2015-10-05,1,,,,,イリカイ,0
103,1120005000511,登記記録の閉鎖等,0,2024-03-11,2024-02-22,天理教室阪分教会,,その他の設立登記法人,大阪府,大阪市港区,市岡元町２丁目１番１６号,,27,107,5520002,,,2024-02-22,合併による解散等,9470005004081,令和６年２月１９日香川県観音寺市室本町３９０番地天理教高室分教会（9470005004081）に合併し解散,2015-10-05,1,,,,,テンリキョウムロサカブンキョウカイ,0
110,1140001014050,登記記録の閉鎖等,0,2024-03-11,2024-03-05,株式会社藤崎産業,,株式会社,兵庫県,神戸市兵庫区,西多聞通１丁目３番３１－１０１号,,28,105,6520035,,,2024-03-05,清算の結了等,,,2015-10-05,1,,,,,フジサキサンギョウ,0
141,1180301027392,登記記録の閉鎖等,0,2024-03-11,2024-03-05,株式会社富士綜建,,株式会社,愛知県,北名古屋市,徳重杁ノ口２３番地,,23,234,4810038,,,2024-03-05,清算の結了等,,,2015-10-05,1,,,,,フジソウケン,0
152,1240001041613,登記記録の閉鎖等,0,2024-03-11,2024-03-07,川本貿易株式会社,,株式会社,広島県,広島市西区,草津梅が台７番５号,,34,104,7330864,,,2024-03-07,清算の結了等,,,2015-10-05,1,,,,,カワモトボウエキ,0
155,1280002003542,登記記録の閉鎖等,0,2024-03-11,2024-03-08,ステンレス工房有限会社,,有限会社,島根県,松江市,西川津町１５３３番地４　４０５号,,32,201,6900823,,,2024-03-08,清算の結了等,,,2015-10-05,1,,,,,ステンレスコウボウ,0
156,1280002010225,登記記録の閉鎖等,0,2024-03-11,2024-03-07,有限会社はらだ,,有限会社,島根県,益田市,乙吉町イ３３７番地２,,32,204,6980003,,,2024-03-07,清算の結了等,,,2015-10-05,1,,,,,ハラダ,0
160,1290005018520,登記記録の閉鎖等,0,2024-03-11,2024-03-01,社会保険労務士法人ＣＨＩＫＹＵＪＩＮ,,その他の設立登記法人,福岡県,福岡市博多区,博多駅東１丁目９番１１号,,40,132,8120013,,,2024-03-01,清算の結了等,,,2022-01-14,1,,,,,チキュウジン,0
165,1320005001027,登記記録の閉鎖等,0,2024-03-11,2024-02-19,天理教昭宇分教会,,その他の設立登記法人,大分県,由布市,挾間町古野３１９番地,,44,213,8795511,,,2024-02-19,合併による解散等,8320005004907,令和６年２月５日大分県速見郡日出町３２９５番地天理教日出分教会（8320005004907）に合併し解散,2015-10-05,1,,,,,テンリキョウショウウブンキョウカイ,0
173,1380001025445,登記記録の閉鎖等,0,2024-03-11,2024-02-01,技研サービス株式会社,,株式会社,福島県,いわき市,四倉町駒込字戸沢１７番地の１,,07,204,9790227,,,2024-02-01,合併による解散等,8380001013402,令和６年２月１日福島県いわき市好間町榊小屋字迎３番地東北技研工業株式会社（8380001013402）に合併し解散,2015-10-05,1,,,,,ギケンサービス,0
196,2010005028843,登記記録の閉鎖等,0,2024-03-11,2024-03-06,一般社団法人新内,,その他の設立登記法人,東京都,千代田区,西神田２丁目３番３号,,13,101,1010065,,,2024-03-06,清算の結了等,,,2018-07-27,1,,,,,シンナイ,0
201,2010402003374,登記記録の閉鎖等,0,2024-03-11,2024-03-05,有限会社瀚建築設計事務所,,有限会社,東京都,港区,南青山６丁目３番１１号,,13,103,1070062,,,2024-03-05,清算の結了等,,,2015-10-05,1,,,,,カンケンチクセッケイジムショ,0
203,2010501016814,登記記録の閉鎖等,0,2024-03-11,2024-01-23,佐藤興業株式会社,,株式会社,東京都,台東区,台東３丁目２０番８号,,13,106,1100016,,,2024-01-23,清算の結了等,,,2015-10-05,1,,,,,,0
205,2010702008998,登記記録の閉鎖等,0,2024-03-11,2024-03-07,有限会社渡辺共栄製作所,,有限会社,東京都,品川区,大崎３丁目１５番１１号,,13,109,1410032,,,2024-03-07,清算の結了等,,,2015-10-05,1,,,,,,0
227,2012401035935,登記記録の閉鎖等,0,2024-03-11,2024-02-29,株式会社合和サービス,,株式会社,東京都,北区,神谷２丁目２４番６号１０１号室,,13,117,1150043,,,2024-02-29,清算の結了等,,,2019-11-18,1,,,,,ゴウワサービス,0
248,2030002049881,登記記録の閉鎖等,0,2024-03-11,2024-03-05,有限会社みさとやぶ,,有限会社,埼玉県,三郷市,彦川戸１丁目７１番地,,11,237,3410005,,,2024-03-05,清算の結了等,,,2015-10-05,1,,,,,ミサトヤブ,0
253,2040001051276,登記記録の閉鎖等,0,2024-03-11,2024-03-05,株式会社東京ガスベイパワー,,株式会社,千葉県,袖ケ浦市,中袖１番地１,,12,229,2990267,,,2024-03-05,清算の結了等,,,2015-10-05,1,,,,,トウキョウガスベイパワー,0
260,2040003001601,登記記録の閉鎖等,0,2024-03-11,2024-03-05,Ｂｉｚ－ＵＮＩＴＥＤ合同会社,,合同会社,千葉県,市川市,東国分２丁目１番３６－３１５号,,12,203,2720833,,,2024-03-05,清算の結了等,,,2015-10-05,1,,,,,ビズユナイテッド,0
283,2120105008684,登記記録の閉鎖等,0,2024-03-11,2024-03-08,一般社団法人福祉・後見センター,,その他の設立登記法人,大阪府,泉佐野市,上町１丁目４番２２号,,27,213,5980007,,,2024-03-08,清算の結了等,,,2017-05-18,1,,,,,フクシコウケンセンター,0
285,2120901037003,登記記録の閉鎖等,0,2024-03-11,2024-03-06,株式会社つばくらめ,,株式会社,大阪府,豊中市,蛍池東町二丁目４番３号,,27,203,5600000,,,2024-03-06,清算の結了等,,,2016-05-26,1,,,,,ツバクラメ,0
295,2140002003786,登記記録の閉鎖等,0,2024-03-11,2024-03-04,丸忠商事有限会社,,有限会社,兵庫県,神戸市灘区,神ノ木通３丁目６番２５号,,28,102,6570057,,,2024-03-04,清算の結了等,,,2015-10-05,1,,,,,,0
315,2290002048866,登記記録の閉鎖等,0,2024-03-11,2024-02-28,有限会社クニタケ,,有限会社,福岡県,久留米市,山本町豊田１６５６番地の３,,40,203,8390827,,,2024-02-28,清算の結了等,,,2015-10-05,1,,,,,クニタケ,0
318,2330001010070,登記記録の閉鎖等,0,2024-03-11,2024-03-01,株式会社キープ石油,,株式会社,熊本県,菊池市,北宮３３８番地１,,43,210,8611305,,,2024-03-01,清算の結了等,,,2015-10-05,1,,,,,キープセキユ,0
319,2350001008360,登記記録の閉鎖等,0,2024-03-11,2024-03-01,株式会社都城市建友会館,,株式会社,宮崎県,都城市,姫城町２街区２２号,,45,202,8850073,,,2024-03-01,清算の結了等,,,2015-10-05,1,,,,,ミヤコノジョウシケンユウカイカン,0
322,2360001032475,登記記録の閉鎖等,0,2024-03-11,2024-03-06,セイカスポーツ沖縄開発株式会社,,株式会社,沖縄県,沖縄市,池原２丁目１０番３５号,,47,211,9042141,,,2024-03-06,清算の結了等,,,2023-08-30,1,,,,,セイカスポーツオキナワカイハツ,0
326,2370001017095,登記記録の閉鎖等,0,2024-03-11,2024-03-06,株式会社大和田住宅仙台,,株式会社,宮城県,仙台市青葉区,立町２３番１１号高速ビル５階,,04,101,9800822,,,2024-03-06,清算の結了等,,,2015-10-05,1,,,,,,0
329,2370405000151,登記記録の閉鎖等,0,2024-03-11,2024-02-28,協同組合もくもくランド,,その他の設立登記法人,宮城県,登米市,津山町横山字細屋２６番地１,,04,212,9860402,,,2024-02-28,清算の結了等,,,2015-10-05,1,,,,,モクモクランド,0
337,2430002018177,登記記録の閉鎖等,0,2024-03-11,2024-03-07,有限会社北都産業,,有限会社,北海道,札幌市中央区,南十三条西１５丁目２番１３号,,01,101,0640913,,,2024-03-07,清算の結了等,,,2016-12-27,1,,,,,ホクトサンギョウ,0
348,2500001002380,登記記録の閉鎖等,0,2024-03-11,2024-03-04,株式会社フジデリカ・クオリティ,,株式会社,愛媛県,松山市,安城寺町５７１番地２,,38,201,7918006,,,2024-03-04,合併による解散等,9500001003505,令和６年３月１日愛媛県松山市宮西一丁目２番１号株式会社フジ（9500001003505）に合併し解散,2015-10-05,1,,,,,フジデリカクオリティ,0
349,2500002022015,登記記録の閉鎖等,0,2024-03-11,2024-03-07,有限会社愛媛グリーン開発,,有限会社,愛媛県,四国中央市,土居町浦山５３５番地３,,38,213,7990713,,,2024-03-07,清算の結了等,,,2015-10-05,1,,,,,,0
350,2500003003138,登記記録の閉鎖等,0,2024-03-11,2024-03-07,合同会社矢原企画,,合同会社,愛媛県,新居浜市,船木甲３８３４番地の３,,38,205,7920856,,,2024-03-07,清算の結了等,,,2023-11-17,1,,,,,ヤハラキカク,0
354,3010001093337,登記記録の閉鎖等,0,2024-03-11,2024-03-04,株式会社ミレニアムコミュニケーションズ,,株式会社,東京都,文京区,根津２丁目３３番１０号,,13,105,1130031,,,2024-03-04,清算の結了等,,,2015-10-05,1,,,,,ミレニアムコミュニケーションズ,0
380,3011001073592,登記記録の閉鎖等,0,2024-03-11,2024-03-06,株式会社Ａ‐ＳＴＡＲ,,株式会社,東京都,渋谷区,代々木３丁目２２番７号,,13,113,1510053,,,2024-03-06,合併による解散等,8010401073462,令和６年３月１日東京都港区麻布台一丁目３番１号株式会社ＳＨＩＦＴ（8010401073462）に合併し解散,2015-10-05,1,,,,,エースター,0
446,3080102010110,登記記録の閉鎖等,0,2024-03-11,2024-03-01,有限会社ケー・プランニング,,有限会社,静岡県,三島市,東大場１丁目１７番地の６,,22,206,4110802,,,2024-03-01,清算の結了等,,,2015-10-05,1,,,,,ケープランニング,0
453,3120001034701,登記記録の閉鎖等,0,2024-03-11,2024-03-07,関西設備サービス株式会社,,株式会社,大阪府,大阪市福島区,吉野３丁目１５番１５－１０００号,,27,103,5530006,,,2024-03-07,清算の結了等,,,2015-10-05,1,,,,,カンサイセツビサービス,0
469,3120902021095,登記記録の閉鎖等,0,2024-03-11,2024-03-05,有限会社モトキ,,有限会社,神奈川県,川崎市中原区,木月２丁目２１番４１号,,14,133,2110025,,,2024-03-05,清算の結了等,,,2015-10-05,1,,,,,モトキ,0
479,3140001075875,登記記録の閉鎖等,0,2024-03-11,2024-02-29,株式会社古家サイジング,,株式会社,兵庫県,西脇市,水尾町８０７番地の１,,28,213,6770066,,,2024-02-29,清算の結了等,,,2015-10-05,1,,,,,フルイエサイジング,0
503,3190001016536,登記記録の閉鎖等,0,2024-03-11,2024-03-07,ミリオンリース株式会社,,株式会社,三重県,四日市市,西浜田町６番１６号,,24,202,5100073,,,2024-03-07,清算の結了等,,,2024-01-25,1,,,,,ミリオンリース,0
522,3290801025957,登記記録の閉鎖等,0,2024-03-11,2024-02-29,進光株式会社,,株式会社,東京都,北区,神谷２丁目２３番１５号,,13,117,1150043,,,2024-02-29,清算の結了等,,,2019-10-10,1,,,,,シンコウ,0
529,3320005002857,登記記録の閉鎖等,0,2024-03-11,2024-02-19,天理教三日月分教会,,その他の設立登記法人,大分県,別府市,中島町２１番９号,,44,202,8740901,,,2024-02-19,合併による解散等,8320005004907,令和６年２月５日大分県速見郡日出町３２９５番地天理教日出分教会（8320005004907）に合併し解散,2015-10-05,1,,,,,テンリキョウミカヅキブンキョウカイ,0
536,3370105001655,登記記録の閉鎖等,0,2024-03-11,2024-03-05,一般社団法人共生型支援センター,,その他の設立登記法人,宮城県,角田市,岡字内越８０番地２,,04,208,9811524,,,2024-03-05,清算の結了等,,,2015-10-05,1,,,,,キョウセイガタシエンセンター,0
545,3470001000131,登記記録の閉鎖等,0,2024-03-11,2024-03-06,株式会社ツル商事,,株式会社,香川県,高松市,牟礼町大町１３８８番地３,,37,201,7610122,,,2024-03-06,清算の結了等,,,2015-10-05,1,,,,,ツルショウジ,0
559,4010001096958,登記記録の閉鎖等,0,2024-03-11,2024-03-08,株式会社ＨＯＲＩＺＯＮ,,株式会社,東京都,豊島区,高田３丁目５番５号ロイヤルパーク高田２０９号,,13,116,1710033,,,2024-03-08,清算の結了等,,,2015-10-05,1,,,,,ホライゾン,0
604,4011001121334,登記記録の閉鎖等,0,2024-03-11,2024-03-04,株式会社ムジカル,,株式会社,東京都,渋谷区,恵比寿４丁目２０番地３号恵比寿ガーデンプレイスタワー２７Ｆ,,13,113,1500013,,,2024-03-04,清算の結了等,,,2018-03-26,1,,,,,ムジカル,0
610,4011101055291,登記記録の閉鎖等,0,2024-03-11,2024-03-06,株式会社トライトラスト・パートナーズ,,株式会社,東京都,新宿区,高田馬場１丁目２５番３４号,,13,104,1690075,,,2024-03-06,清算の結了等,,,2015-10-05,1,,,,,トライトラストパートナーズ,0
629,4012302004302,登記記録の閉鎖等,0,2024-03-11,2024-03-05,有限会社ホープ・アンド・グレイス,,有限会社,東京都,町田市,鶴川４丁目４番地２０,,13,209,1950061,,,2024-03-05,清算の結了等,,,2015-10-05,1,,,,,ホープアンドグレイス,0
631,4012801019643,登記記録の閉鎖等,0,2024-03-11,2024-03-06,株式会社ダンボ,,株式会社,東京都,国分寺市,本町３丁目９番６号,,13,214,1850012,,,2024-03-06,清算の結了等,,,2019-09-12,1,,,,,ダンボ,0
637,4020001020396,登記記録の閉鎖等,0,2024-03-11,2024-02-29,株式会社三立ハウジング,,株式会社,神奈川県,横浜市港北区,綱島西１丁目２番４号,,14,109,2230053,,,2024-02-29,清算の結了等,,,2015-10-05,1,,,,,サンリツハウジング,0
647,4020003015064,登記記録の閉鎖等,0,2024-03-11,2024-03-05,合同会社レインボー,,合同会社,神奈川県,横須賀市,若松町２丁目７番藤田ビル６階,,14,201,2380007,,,2024-03-05,清算の結了等,,,2018-10-18,1,,,,,レインボー,0
663,4030005003842,登記記録の閉鎖等,0,2024-03-11,2024-02-27,天理教本原中分教会,,その他の設立登記法人,埼玉県,狭山市,狭山台１丁目１番地６,,11,215,3501304,,,2024-02-27,合併による解散等,7011405000503,令和６年２月２０日東京都板橋区徳丸三丁目３３番１８号天理教本原分教会（7011405000503）に合併し解散,2015-10-05,1,,,,,テンリキョウホンハラナカブンキョウカイ,0
669,4040002024873,登記記録の閉鎖等,0,2024-03-11,2024-03-05,有限会社福龍興業,,有限会社,千葉県,船橋市,夏見台４丁目１５番２０号,,12,204,2730866,,,2024-03-05,清算の結了等,,,2015-10-05,1,,,,,フクリュウコウギョウ,0
713,4180301036572,登記記録の閉鎖等,0,2024-03-11,2024-02-29,株式会社ＳＵＺＵＭＡＺＥ,,株式会社,愛知県,豊橋市,牟呂市場町２４番地６,,23,201,4418088,,,2024-02-29,清算の結了等,,,2022-08-26,1,,,,,スズマゼ,0
745,4380002029905,登記記録の閉鎖等,0,2024-03-11,2024-03-01,有限会社小丸自動車整備工場,,有限会社,福島県,双葉郡浪江町,大字高瀬字根木内１０３番地の１,,07,547,9791525,,,2024-03-01,清算の結了等,,,2015-10-05,1,,,,,オマルジドウシャセイビコウジョウ,0
784,5010501046833,登記記録の閉鎖等,0,2024-03-11,2024-03-05,光合ストーリー株式会社,,株式会社,東京都,台東区,上野３丁目１１番５号,,13,106,1100005,,,2024-03-05,清算の結了等,,,2021-02-18,1,,,,,コウゴウストーリー,0
786,5010603006537,登記記録の閉鎖等,0,2024-03-11,2024-02-21,ボニーコーヒー東京合同会社,,合同会社,東京都,江東区,常盤１丁目１番１号,,13,108,1350006,,,2024-02-21,清算の結了等,,,2016-11-30,1,,,,,ボニーコーヒートウキョウ,0
818,5020001012590,登記記録の閉鎖等,0,2024-03-11,2024-03-06,株式会社エスティーコーポレーション,,株式会社,神奈川県,横浜市南区,六ツ川２丁目１２２番地の１１,,14,105,2320066,,,2024-03-06,清算の結了等,,,2015-10-05,1,,,,,エスティーコーポレーション,0
821,5020005010681,登記記録の閉鎖等,0,2024-03-11,2024-03-05,特定非営利活動法人美しが丘倶楽部,,その他の設立登記法人,神奈川県,横浜市青葉区,美しが丘４丁目１番地１５,,14,117,2250002,,,2024-03-05,清算の結了等,,,2015-10-05,1,,,,,ウツクシガオカクラブ,0
824,5021001016656,登記記録の閉鎖等,0,2024-03-11,2024-03-07,株式会社ＰＲＥＳＳ　ＴＥＣ,,株式会社,神奈川県,相模原市緑区,橋本台２丁目４番１６号,,14,151,2520132,,,2024-03-07,清算の結了等,,,2015-10-05,1,,,,,プレステック,0
829,5021002033808,登記記録の閉鎖等,0,2024-03-11,2024-03-01,株式会社大相模ゴルフスポーツガーデン,,株式会社,東京都,町田市,森野１丁目３０番８号,,13,209,1940022,,,2024-03-01,合併による解散等,4010701012396,令和６年３月１日東京都町田市森野一丁目３０番８号株式会社大相模カントリークラブ（4010701012396）に合併し解散,2015-10-05,1,,,,,ダイサガミゴルフスポーツガーデン,0
830,5030001080042,登記記録の閉鎖等,0,2024-03-11,2024-03-05,株式会社ＲＵＮ企画,,株式会社,埼玉県,桶川市,鴨川１丁目１番３５号,,11,231,3630024,,,2024-03-05,清算の結了等,,,2015-10-05,1,,,,,,0
845,5040003012604,登記記録の閉鎖等,0,2024-03-11,2024-03-04,合同会社ａｎｄＨ,,合同会社,千葉県,千葉市若葉区,都賀５丁目２３番８号,,12,104,2640025,,,2024-03-04,清算の結了等,,,2018-12-13,1,,,,,アンドエイチ,0
857,5080402010238,登記記録の閉鎖等,0,2024-03-11,2024-03-07,有限会社古川建装,,有限会社,静岡県,浜松市中央区,古川町２５０番地の２,,22,138,4350032,,,2024-03-07,清算の結了等,,,2015-10-05,1,,,,,フルカワケンソウ,0
864,5110001021616,登記記録の閉鎖等,0,2024-03-11,2024-03-06,関澤木材株式会社,,株式会社,新潟県,糸魚川市,大字上覚１８番地２,,15,216,9410023,,,2024-03-06,清算の結了等,,,2015-10-05,1,,,,,セキザワモクザイ,0
866,5120001169990,登記記録の閉鎖等,0,2024-03-11,2024-03-05,Ｇｏｏｄ株式会社,,株式会社,大阪府,枚方市,香里ケ丘１丁目１４番地の２（１０－４０４）,,27,210,5730084,,,2024-03-05,清算の結了等,,,2015-10-05,1,,,,,グッド,0
892,5180301017357,登記記録の閉鎖等,0,2024-03-11,2024-03-06,株式会社衣浦グランドホテル,,株式会社,東京都,千代田区,岩本町１丁目１２番３号,,13,101,1010032,,,2024-03-06,合併による解散等,5010001128140,令和６年３月１日東京都千代田区岩本町一丁目１２番３号ポラリス・ホールディングス株式会社（5010001128140）に合併し解散,2015-10-05,1,,,,,キヌウラグランドホテル,0
893,5180301028453,登記記録の閉鎖等,0,2024-03-11,2024-03-01,株式会社ながやま運送,,株式会社,愛知県,蒲郡市,竹谷町松田１０番地５,,23,214,4430046,,,2024-03-01,合併による解散等,2180301023548,令和６年３月１日愛知県蒲郡市竹谷町松田１０番地５株式会社永山建興（2180301023548）に合併し解散,2015-10-05,1,,,,,ナガヤマウンソウ,0
895,5190002009818,登記記録の閉鎖等,0,2024-03-11,2024-03-06,有限会社南三重容器検査所,,有限会社,三重県,度会郡南伊勢町,飯満５６１番地３,,24,472,5160107,,,2024-03-06,清算の結了等,,,2015-10-05,1,,,,,ミナミミエヨウキケンサジョ,0
908,5340002027390,登記記録の閉鎖等,0,2024-03-11,2024-02-29,有限会社堀切建設,,有限会社,鹿児島県,曽於市,大隅町坂元４８１番地２,,46,217,8998422,,,2024-02-29,清算の結了等,,,2015-10-05,1,,,,,ホリキリケンセツ,0
912,5370001007234,登記記録の閉鎖等,0,2024-03-11,2024-03-04,株式会社エキュパージュ,,株式会社,宮城県,仙台市青葉区,一番町３丁目６番１３号プラザおおまちビル３階,,04,101,9800811,,,2024-03-04,清算の結了等,,,2015-10-05,1,,,,,エキュパージュ,0
927,5490002012881,登記記録の閉鎖等,0,2024-03-11,2024-03-05,有限会社中芸測量設計事務所,,有限会社,高知県,安芸郡田野町,１９１０番地,,39,303,7816410,,,2024-03-05,清算の結了等,,,2015-10-05,1,,,,,チュウゲイソクリョウセッケイジムショ,0
944,6010401104467,登記記録の閉鎖等,0,2024-03-11,2024-03-01,株式会社エッグセレント,,株式会社,栃木県,那須郡那須町,大字高久乙２９０５番地２５,,09,407,3250303,,,2024-03-01,合併による解散等,5060001033220,令和６年３月１日栃木県那須郡那須町高久乙２９０５番地２５株式会社ＧＯＯＤＮＥＷＳ（5060001033220）に合併し解散,2015-10-05,1,,,,,エッグセレント,0
955,6010403028053,登記記録の閉鎖等,0,2024-03-11,2024-03-05,合同会社ＫＡＭ,,合同会社,東京都,小金井市,緑町３丁目１０番３１号,,13,210,1840003,,,2024-03-05,清算の結了等,,,2022-08-23,1,,,,,カム,0
968,6011001072286,登記記録の閉鎖等,0,2024-03-11,2024-03-06,ビームテクノロジーズ株式会社,,株式会社,東京都,渋谷区,代々木３丁目１－１１パシフィックスクエア代々木４０９,,13,113,1510053,,,2024-03-06,合併による解散等,5011101038881,令和６年３月１日東京都新宿区西新宿七丁目２１番３号ジェット・テクノロジーズ株式会社（5011101038881）に合併し解散,2015-10-05,1,,,,,ビームテクノロジーズ,0
977,6011003017990,登記記録の閉鎖等,0,2024-03-11,2024-03-07,ＬＤＳ合同会社,,合同会社,東京都,渋谷区,神宮前１丁目５番８号,,13,113,1500001,,,2024-03-07,合併による解散等,1010601022399,令和６年３月１日東京都中央区京橋二丁目９番２号Ｌマネジメント株式会社（1010601022399）に合併し解散,2023-11-24,1,,,,,エルディーエス,0
986,6011105003435,登記記録の閉鎖等,0,2024-03-11,2024-03-07,特定非営利活動法人ＮＰＯ推進ネット,,その他の設立登記法人,東京都,世田谷区,北烏山３丁目１番１－２０５号,,13,112,1570061,,,2024-03-07,清算の結了等,,,2015-10-05,1,,,,,エヌピーオースイシンネット,0
987,6011105007997,登記記録の閉鎖等,0,2024-03-11,2024-03-06,一般社団法人シニアライフよろず相談室,,その他の設立登記法人,東京都,豊島区,東池袋３丁目１番１号,,13,116,1700013,,,2024-03-06,清算の結了等,,,2017-09-11,1,,,,,シニアライフヨロズソウダンシツ,0
991,6012302007435,登記記録の閉鎖等,0,2024-03-11,2024-03-05,有限会社大晃堂,,有限会社,東京都,町田市,南成瀬２丁目５番地１７,,13,209,1940045,,,2024-03-05,清算の結了等,,,2015-10-05,1,,,,,ダイコウドウ,0
1018,6040003006737,登記記録の閉鎖等,0,2024-03-11,2024-03-06,レスキューホーム合同会社,,合同会社,千葉県,千葉市稲毛区,長沼原町７７１番地１８,,12,103,2630001,,,2024-03-06,清算の結了等,,,2015-10-05,1,,,,,レスキューホーム,0
1042,6120003010714,登記記録の閉鎖等,0,2024-03-11,2024-03-07,サンテクニカル合同会社,,合同会社,大阪府,大阪市港区,港晴４丁目９番５号,,27,107,5520023,,,2024-03-07,清算の結了等,,,2015-10-05,1,,,,,サンテクニカル,0
1048,6120901010096,登記記録の閉鎖等,0,2024-03-11,2024-03-08,都サービス株式会社,,株式会社,大阪府,摂津市,学園町２丁目７番１０号１０１号室,,27,224,5660033,,,2024-03-08,清算の結了等,,,2015-10-05,1,,,,,ミヤコサービス,0
1057,6140001029564,登記記録の閉鎖等,0,2024-03-11,2024-03-04,株式会社山崎設計事務所,,株式会社,兵庫県,神戸市垂水区,塩屋町３丁目２０番８号,,28,108,6550872,,,2024-03-04,清算の結了等,,,2015-10-05,1,,,,,ヤマサキセッケイジムショ,0
1058,6140001047129,登記記録の閉鎖等,0,2024-03-11,2024-03-01,株式会社光彩,,株式会社,兵庫県,芦屋市,西芦屋町６番８－４号北側,00120129,28,206,6590085,,,2024-03-01,合併による解散等,4140001055785,令和６年３月１日兵庫県芦屋市西芦屋町６番８－４号北側株式会社ブレス（4140001055785）に合併し解散,2015-10-05,1,,,,,コウサイ,0
1059,6140001103889,登記記録の閉鎖等,0,2024-03-11,2024-03-04,日本麗明テック株式会社,,株式会社,兵庫県,川西市,美山台３丁目４番地の５９,,28,217,6660151,,,2024-03-04,清算の結了等,,,2016-11-01,1,,,,,ニホンレイメイテック,0
1061,6140001108491,登記記録の閉鎖等,0,2024-03-11,2024-02-27,株式会社やぶ商,,株式会社,兵庫県,尼崎市,潮江１丁目５番１－２６１０号,,28,202,6610976,,,2024-02-27,清算の結了等,,,2017-12-12,1,,,,,ヤブショウ,0
1106,6340002021608,登記記録の閉鎖等,0,2024-03-11,2024-03-06,有限会社南里,,有限会社,鹿児島県,奄美市,名瀬平松町２９５番地,,46,222,8940045,,,2024-03-06,清算の結了等,,,2015-10-05,1,,,,,ナンリ,0
1114,6380002028888,登記記録の閉鎖等,0,2024-03-11,2024-03-04,有限会社長冨新聞店,,有限会社,福島県,南相馬市,原町区栄町２丁目７２番地,,07,212,9750003,,,2024-03-04,清算の結了等,,,2015-10-05,1,,,,,ナガトミシンブンテン,0
1124,6440005000680,登記記録の閉鎖等,0,2024-03-11,2024-03-04,美原商店街振興組合,,その他の設立登記法人,北海道,函館市,美原１丁目１９番６号,,01,202,0410806,,,2024-03-04,清算の結了等,,,2015-10-05,1,,,,,ミハラ,0
1127,6500001007418,登記記録の閉鎖等,0,2024-03-11,2024-03-08,株式会社ヨントレ,,株式会社,愛媛県,松山市,白水台２丁目１３番地１,,38,201,7910113,,,2024-03-08,清算の結了等,,,2015-10-05,1,,,,,ヨントレ,0
1156,7010701014489,登記記録の閉鎖等,0,2024-03-11,2024-03-04,株式会社ジー・エー・シード,,株式会社,東京都,渋谷区,恵比寿２丁目３７番８－２０１,,13,113,1500013,,,2024-03-04,清算の結了等,,,2015-10-05,1,,,,,ジーエーシード,0
1162,7011101081491,登記記録の閉鎖等,0,2024-03-11,2024-03-07,株式会社ゆいまーる,,株式会社,東京都,新宿区,早稲田鶴巻町５２３番地ジョイフル中川４０３,,13,104,1620041,,,2024-03-07,清算の結了等,,,2017-08-18,1,,,,,ユイマール,0
1175,7012801016646,登記記録の閉鎖等,0,2024-03-11,2024-03-01,株式会社ＲＯＯＭ　ＣＲＡＦＴ,,株式会社,東京都,国分寺市,本多２丁目１番１４号,,13,214,1850011,,,2024-03-01,合併による解散等,2012401004262,令和６年３月１日東京都国分寺市本多二丁目１番１４号株式会社シノカツホーム（2012401004262）に合併し解散,2015-10-05,1,,,,,ルームクラフト,0
1182,7020001116448,登記記録の閉鎖等,0,2024-03-11,2024-03-06,株式会社ロジャーブレイン,,株式会社,神奈川県,川崎市宮前区,宮崎３丁目１０番１３号,,14,136,2160033,,,2024-03-06,清算の結了等,,,2016-06-07,1,,,,,ロジャーブレイン,0
1186,7020002003901,登記記録の閉鎖等,0,2024-03-11,2024-03-04,有限会社おごう,,有限会社,神奈川県,横浜市緑区,台村町５３０番地,,14,113,2260014,,,2024-03-04,清算の結了等,,,2015-10-05,1,,,,,オゴウ,0
1200,7030002039432,登記記録の閉鎖等,0,2024-03-11,2024-03-05,東武デンタルラボ有限会社,,有限会社,埼玉県,久喜市,栗橋東２丁目７番１号,,11,232,3491103,,,2024-03-05,清算の結了等,,,2015-10-05,1,,,,,トウブデンタルラボ,0
1226,7110001009287,登記記録の閉鎖等,0,2024-03-11,2024-03-06,株式会社プレミアリゾートオペレーションズ,,株式会社,東京都,千代田区,岩本町１丁目１２番３号,,13,101,1010032,,,2024-03-06,合併による解散等,5010001128140,令和６年３月１日東京都千代田区岩本町一丁目１２番３号ポラリス・ホールディングス株式会社（5010001128140）に合併し解散,2015-10-05,1,,,,,プレミアリゾートオペレーションズ,0
1232,7120001200126,登記記録の閉鎖等,0,2024-03-11,2024-03-07,株式会社ＡＢＣトレーディング,,株式会社,大阪府,大阪市福島区,吉野５丁目８番１４号,,27,103,5530006,,,2024-03-07,清算の結了等,,,2016-08-12,1,,,,,エービーシートレーディング,0
1233,7120001255888,登記記録の閉鎖等,0,2024-03-11,2024-03-04,西川建材株式会社,,株式会社,大阪府,枚方市,大字穂谷２１９０番地,,27,210,5730114,,,2024-03-04,清算の結了等,,,2023-06-23,1,,,,,ニシカワケンザイ,0
1236,7120002033491,登記記録の閉鎖等,0,2024-03-11,2024-03-07,有限会社アドリアチカ,,有限会社,大阪府,大阪市中央区,松屋町住吉６番２６号,,27,128,5400017,,,2024-03-07,清算の結了等,,,2015-10-05,1,,,,,アドリアチカ,0
1252,7130001039076,登記記録の閉鎖等,0,2024-03-11,2024-03-06,株式会社ＩＴＭ,,株式会社,京都府,久世郡久御山町,下津屋富ノ城７２番地,,26,322,6130035,,,2024-03-06,合併による解散等,1130001025940,令和６年３月１日京都市左京区一乗寺松原町１２番地３０株式会社アイケイエス（1130001025940）に合併し解散,2015-10-05,1,,,,,アイティーエム,0
1265,7140005006955,登記記録の閉鎖等,0,2024-03-11,2024-03-06,一雲寺,,その他の設立登記法人,兵庫県,宍粟市,山崎町船元４２番地の１,,28,227,6712542,,,2024-03-06,清算の結了等,,,2015-10-05,1,,,,,イチウンジ,0
1274,7180001029667,登記記録の閉鎖等,0,2024-03-11,2024-03-05,株式会社サンメイト,,株式会社,愛知県,名古屋市中村区,豊国通３丁目１７番地,,23,105,4530834,,,2024-03-05,清算の結了等,,,2015-10-05,1,,,,,サンメイト,0
1289,7190001021904,登記記録の閉鎖等,0,2024-03-11,2024-03-06,株式会社つ,,株式会社,千葉県,市原市,辰巳台西２丁目３番,,12,219,2900004,,,2024-03-06,清算の結了等,,,2015-10-05,1,,,,,ツ,0
1306,7350002007415,登記記録の閉鎖等,0,2024-03-11,2024-03-06,有限会社川野工作所,,有限会社,宮崎県,宮崎市,佐土原町西上那珂５９０１番地４,,45,201,8800302,,,2024-03-06,清算の結了等,,,2015-10-05,1,,,,,カワノコウサクジョ,0
1324,7430002031068,登記記録の閉鎖等,0,2024-03-11,2024-03-04,有限会社向陽事務サービス,,有限会社,北海道,札幌市北区,新琴似八条１１丁目１番２号,,01,102,0010908,,,2024-03-04,清算の結了等,,,2015-10-05,1,,,,,コウヨウジムサービス,0
1325,7430003006060,登記記録の閉鎖等,0,2024-03-11,2024-03-01,合同会社Ｆｕｔｕｒｅ　Ｄｅｓｉｇｎ,,合同会社,北海道,札幌市西区,山の手七条８丁目６番２０号,,01,107,0630007,,,2024-03-01,合併による解散等,5430003005097,令和６年３月１日札幌市西区山の手七条八丁目６番２０号合同会社Ｗｉｌｌ（5430003005097）に合併し解散,2015-10-05,1,,,,,フューチャーデザイン,0
1326,7430005010374,登記記録の閉鎖等,0,2024-03-11,2024-03-04,一般財団法人北海道ユースホステル協会,,その他の設立登記法人,北海道,札幌市豊平区,豊平六条６丁目５番３５号,,01,105,0620906,,,2024-03-04,清算の結了等,,,2015-10-05,1,,,,,ホッカイドウユースホステルキョウカイ,0
1348,8010701025345,登記記録の閉鎖等,0,2024-03-11,2024-03-06,ＬＩＮＫ－ＵＰ株式会社,,株式会社,東京都,品川区,上大崎２丁目１０番３４号,,13,109,1410021,,,2024-03-06,清算の結了等,,,2015-10-05,1,,,,,リンクアップ,0
1354,8011001033831,登記記録の閉鎖等,0,2024-03-11,2024-03-01,株式会社シャンブルドゥシャーム,,株式会社,東京都,渋谷区,元代々木町２３番８号,,13,113,1510062,,,2024-03-01,合併による解散等,5011001001436,令和６年３月１日東京都渋谷区元代々木町２３番８号株式会社アンビデックス（5011001001436）に合併し解散,2015-10-05,1,,,,,シャンブルドゥシャーム,0
1355,8011001100854,登記記録の閉鎖等,0,2024-03-11,2024-03-04,株式会社イースタンプレジャー,,株式会社,東京都,渋谷区,宇田川町２３番３号,,13,113,1500042,,,2024-03-04,清算の結了等,,,2015-10-05,1,,,,,イースタンプレジャー,0
1370,8011205002203,登記記録の閉鎖等,0,2024-03-11,2024-03-04,一般社団法人不動産コンサルティング機構,,その他の設立登記法人,東京都,国分寺市,光町１丁目３８番地３シティコープ国立１０５,,13,214,1850034,,,2024-03-04,清算の結了等,,,2017-10-26,1,,,,,フドウサンコンサルティングキコウ,0
1373,8011403003688,登記記録の閉鎖等,0,2024-03-11,2024-02-13,合同会社ＷＡ,,合同会社,東京都,板橋区,板橋１丁目１３番８号,,13,119,1730004,,,2024-02-13,清算の結了等,,,2022-06-16,1,,,,,ワ,0
1374,8011502002285,登記記録の閉鎖等,0,2024-03-11,2024-02-22,有限会社小森谷油店,,有限会社,東京都,北区,王子５丁目１５番１１号,,13,117,1140002,,,2024-02-22,清算の結了等,,,2015-10-05,1,,,,,コモリヤアブラテン,0
1378,8012305001367,登記記録の閉鎖等,0,2024-03-11,2024-03-05,医療法人社団康慈会,,その他の設立登記法人,東京都,町田市,成瀬が丘２丁目１６番地２、１階Ｂ号室,,13,209,1940011,,,2024-03-05,清算の結了等,,,2015-10-05,1,,,,,コウジカイ,0
1382,8012701010153,登記記録の閉鎖等,0,2024-03-11,2024-03-07,株式会社佐々木工務店,,株式会社,東京都,小平市,小川町１丁目９６１番地１１,,13,211,1870032,,,2024-03-07,清算の結了等,,,2015-10-05,1,,,,,ササキコウムテン,0
1384,8013101006551,登記記録の閉鎖等,0,2024-03-11,2024-03-01,株式会社ＹＳコーポレーション,,株式会社,東京都,西多摩郡瑞穂町,大字箱根ケ崎４６１番地３,,13,303,1901221,,,2024-03-01,合併による解散等,6013101005753,令和６年３月１日東京都西多摩郡瑞穂町大字箱根ケ崎４６１番地３株式会社柚木商事（6013101005753）に合併し解散,2015-10-05,1,,,,,ワイエスコーポレーション,0
1405,8021002065939,登記記録の閉鎖等,0,2024-03-11,2024-03-07,有限会社長沢製作所,,有限会社,神奈川県,横須賀市,長沢４丁目２６番１２号,,14,201,2390842,,,2024-03-07,清算の結了等,,,2015-10-05,1,,,,,ナガサワセイサクショ,0
1416,8040002071061,登記記録の閉鎖等,0,2024-03-11,2024-03-05,有限会社開発商事,,有限会社,千葉県,富津市,西川６８７番地,,12,226,2930013,,,2024-03-05,清算の結了等,,,2015-10-05,1,,,,,カイハツショウジ,0
1426,8080001016311,登記記録の閉鎖等,0,2024-03-11,2024-03-05,株式会社エバテックコーポレーション,,株式会社,静岡県,藤枝市,青南町４丁目２１番１５号,,22,214,4260063,,,2024-03-05,清算の結了等,,,2015-10-05,1,,,,,エバテックコーポレーション,0
1474,8120101045981,登記記録の閉鎖等,0,2024-03-11,2024-03-08,ジャパンアーバンシティ株式会社,,株式会社,大阪府,岸和田市,野田町３丁目６番６－１０２号,,27,202,5960076,,,2024-03-08,清算の結了等,,,2015-10-05,1,,,,,ジャパンアーバンシティ,0
1475,8120101060799,登記記録の閉鎖等,0,2024-03-11,2024-03-07,株式会社ＧＬＯＢＡＬ　ＮＥＸＴ,,株式会社,大阪府,和泉市,箕形町３丁目６番４０－３０６号,,27,219,5940042,,,2024-03-07,清算の結了等,,,2019-11-12,1,,,,,グローバルネクスト,0
1481,8140001012312,登記記録の閉鎖等,0,2024-03-11,2024-03-04,株式会社兵庫県タクシー会館,,株式会社,兵庫県,神戸市中央区,磯辺通２丁目２番１０号,,28,110,6510084,,,2024-03-04,清算の結了等,,,2015-10-05,1,,,,,ヒョウゴケンタクシーカイカン,0
1490,8170005004732,登記記録の閉鎖等,0,2024-03-11,2024-02-27,天理教東紀分教会,,その他の設立登記法人,和歌山県,橋本市,赤塚１０８番地,,30,203,6480022,,,2024-02-27,合併による解散等,1150005006844,令和６年２月２６日奈良県五條市今井町６３０番地天理教五條大教会（1150005006844）に合併し解散,2015-10-05,1,,,,,テンリキョウトウキブンキョウカイ,0
1505,8210001018608,登記記録の閉鎖等,0,2024-03-11,2024-03-01,株式会社アトライズ,,株式会社,福井県,丹生郡越前町,気比庄第３号１０番地７,,18,423,9160133,,,2024-03-01,合併による解散等,8210001017469,令和６年２月２０日福井県丹生郡越前町気比庄第３号１０番地７帝国重建株式会社（8210001017469）に合併し解散,2021-09-14,1,,,,,アトライズ,0
1507,8220002004184,登記記録の閉鎖等,0,2024-03-11,2024-03-06,有限会社トラベルシェフ,,有限会社,石川県,金沢市,笠舞２丁目２番１４号,,17,201,9200965,,,2024-03-06,清算の結了等,,,2015-10-05,1,,,,,トラベルシェフ,0
1509,8240002029329,登記記録の閉鎖等,0,2024-03-11,2024-03-08,有限会社インフィールド,,有限会社,広島県,東広島市,西条下見６丁目１０番２１号,,34,212,7390047,,,2024-03-08,清算の結了等,,,2015-10-05,1,,,,,インフィールド,0
1519,8320005006060,登記記録の閉鎖等,0,2024-03-11,2024-02-19,天理教臥牛城分教会,,その他の設立登記法人,大分県,竹田市,大字竹田２０４１番地,,44,208,8780013,,,2024-02-19,合併による解散等,8320005004907,令和６年２月５日大分県速見郡日出町３２９５番地天理教日出分教会（8320005004907）に合併し解散,2015-10-05,1,,,,,テンリキョウガギュウジョウブンキョウカイ,0
1545,9010001031497,登記記録の閉鎖等,0,2024-03-11,2024-03-06,株式会社ユーエフエフ,,株式会社,東京都,千代田区,岩本町３丁目８番４号,,13,101,1010032,,,2024-03-06,清算の結了等,,,2015-10-05,1,,,,,ユーエフエフ,0
1551,9010001218508,登記記録の閉鎖等,0,2024-03-11,2024-03-04,株式会社ＲｅａｌｄＳｏｕｒｃｉｎｇ,,株式会社,東京都,千代田区,神田小川町３丁目２８－５ａｘｌｅ御茶ノ水,,13,101,1010052,,,2024-03-04,清算の結了等,,,2021-06-01,1,,,,,リアルドソーシング,0
1564,9010402034710,登記記録の閉鎖等,0,2024-03-11,2024-03-05,有限会社ナショナルペンジャパン,,有限会社,沖縄県,うるま市,字州崎１４番地１８,,47,213,9042234,,,2024-03-05,清算の結了等,,,2015-10-05,1,,,,,ナショナルペンジャパン,0
1587,9011403003076,登記記録の閉鎖等,0,2024-03-11,2024-03-06,ｙｈ合同会社,,合同会社,東京都,墨田区,江東橋２丁目６番１０号ＹＳ第二ビル２階,,13,107,1300022,,,2024-03-06,清算の結了等,,,2020-08-06,1,,,,,ワイエイチ,0
1600,9013301020252,登記記録の閉鎖等,0,2024-03-11,2024-03-08,日本生化学株式会社,,株式会社,東京都,豊島区,西池袋１丁目２１番２号,,13,116,1710021,,,2024-03-08,清算の結了等,,,2015-10-05,1,,,,,ニホンセイカガク,0
1604,9020001020664,登記記録の閉鎖等,0,2024-03-11,2024-03-05,株式会社杉屋商事,,株式会社,神奈川県,横浜市港北区,日吉本町３丁目２２番１３号,,14,109,2230062,,,2024-03-05,清算の結了等,,,2023-08-21,1,,,,,スギヤショウジ,0
1610,9020002088404,登記記録の閉鎖等,0,2024-03-11,2024-03-01,有限会社横浜家具センター,,有限会社,神奈川県,川崎市宮前区,野川１８８,,14,136,2160001,,,2024-03-01,清算の結了等,,,2015-10-05,1,,,,,,0
1613,9021001007305,登記記録の閉鎖等,0,2024-03-11,2024-03-08,株式会社ハヤシ,,株式会社,神奈川県,茅ヶ崎市,萩園１２７０－３８６,,14,207,2530071,,,2024-03-08,清算の結了等,,,2015-10-05,1,,,,,ハヤシ,0
1616,9021001019226,登記記録の閉鎖等,0,2024-03-11,2024-03-04,厚木泉倉株式会社,,株式会社,神奈川県,厚木市,長谷６番地の２２,,14,212,2430036,,,2024-03-04,清算の結了等,,,2015-10-05,1,,,,,アツギセンソウ,0
1619,9021002045106,登記記録の閉鎖等,0,2024-03-11,2024-03-07,有限会社シーズ企画,,有限会社,神奈川県,海老名市,下今泉２丁目２番２－１２３号,,14,215,2430435,,,2024-03-07,清算の結了等,,,2015-10-05,1,,,,,シーズキカク,0
1620,9030001007850,登記記録の閉鎖等,0,2024-03-11,2024-03-05,株式会社マル・デザイン,,株式会社,埼玉県,さいたま市浦和区,北浦和２丁目１０番１号,,11,107,3300074,,,2024-03-05,清算の結了等,,,2015-10-05,1,,,,,マルデザイン,0
1644,9080401000665,登記記録の閉鎖等,0,2024-03-11,2024-03-07,株式会社海野商店,,株式会社,静岡県,浜松市中央区,助信町４番１号,,22,138,4300903,,,2024-03-07,清算の結了等,,,2015-10-05,1,,,,,ウンノショウテン,0
1674,9120001236408,登記記録の閉鎖等,0,2024-03-11,2024-03-04,大成ホールディングス株式会社,,株式会社,大阪府,大阪市中央区,東心斎橋１丁目１７番１２号,,27,128,5420083,,,2024-03-04,合併による解散等,4120001082591,令和６年３月１日大阪市中央区東心斎橋一丁目１７番１２号株式会社正和吉本（4120001082591）に合併し解散,2021-04-06,1,,,,,タイセイホールディングス,0
1689,9170002010724,登記記録の閉鎖等,0,2024-03-11,2024-03-07,有限会社吉田家,,有限会社,和歌山県,伊都郡高野町,大字高野山４０１番地,,30,344,6480211,,,2024-03-07,清算の結了等,,,2015-10-05,1,,,,,ヨシダヤ,0
1698,9180302001711,登記記録の閉鎖等,0,2024-03-11,2024-03-04,有限会社青陽,,有限会社,愛知県,岡崎市,若松東２丁目９番地１０,,23,202,4440822,,,2024-03-04,清算の結了等,,,2015-10-05,1,,,,,セイヨウ,0
1709,9240001027118,登記記録の閉鎖等,0,2024-03-11,2024-03-07,木葉水産株式会社,,株式会社,広島県,江田島市,江田島町小用１丁目９番１８号,,34,215,7372121,,,2024-03-07,清算の結了等,,,2015-10-05,1,,,,,キバスイサン,0
1710,9240001055770,登記記録の閉鎖等,0,2024-03-11,2024-03-08,株式会社Ｄｅａｒ　Ｓｔａｇｅ,,株式会社,広島県,広島市南区,皆実町５丁目６番１８号,,34,103,7340007,,,2024-03-08,清算の結了等,,,2020-03-10,1,,,,,ディアステージ,0
1719,9290002031213,登記記録の閉鎖等,0,2024-03-11,2024-03-04,有限会社サンボフーズ,,有限会社,福岡県,福岡市早良区,東入部１丁目２８番１３号,,40,137,8111102,,,2024-03-04,清算の結了等,,,2015-10-05,1,,,,,サンボフーズ,0
1725,9320005004071,登記記録の閉鎖等,0,2024-03-11,2024-02-19,天理教膳所分教会,,その他の設立登記法人,大分県,豊後高田市,臼野３７６１番地２,,44,209,8721107,,,2024-02-19,合併による解散等,8320005004907,令和６年２月５日大分県速見郡日出町３２９５番地天理教日出分教会（8320005004907）に合併し解散,2015-10-05,1,,,,,テンリキョウゼゼブンキョウカイ,0
1730,9340005001166,登記記録の閉鎖等,0,2024-03-11,2024-03-07,医療法人尚仁会,,その他の設立登記法人,鹿児島県,鹿児島市,薬師２丁目１８番１８号,,46,201,8900042,,,2024-03-07,清算の結了等,,,2015-10-05,1,,,,,ショウジンカイ,0
1731,9360001000905,登記記録の閉鎖等,0,2024-03-11,2024-02-20,株式会社広宣,,株式会社,沖縄県,那覇市,首里金城町４丁目６６番地２４,,47,201,9030815,,,2024-02-20,合併による解散等,7360001001491,令和６年２月２０日沖縄県那覇市字真地３４１番地１上間アパート１０３株式会社トモエ（7360001001491）に合併し解散,2015-10-05,1,,,,,コウセン,0
1732,9360001009112,登記記録の閉鎖等,0,2024-03-11,2024-03-04,株式会社平工務店,,株式会社,沖縄県,宜野湾市,大謝名３丁目１３番１１号,,47,205,9012225,,,2024-03-04,清算の結了等,,,2015-10-05,1,,,,,,0
1738,9370003005851,登記記録の閉鎖等,0,2024-03-11,2024-03-04,合同会社小谷野商会,,合同会社,宮城県,岩沼市,平等４丁目２番地の１５,,04,211,9892457,,,2024-03-04,清算の結了等,,,2022-10-07,1,,,,,コヤノショウカイ,0
1754,9480002001469,登記記録の閉鎖等,0,2024-03-11,2024-03-08,株式会社ＰＲＥＤＹ　ＴＨＲＥＥ,,株式会社,徳島県,徳島市,八百屋町１丁目１０番地,,36,201,7700841,,,2024-03-08,清算の結了等,,,2015-10-05,1,,,,,プレディスリー,0
1755,9500001023817,登記記録の閉鎖等,0,2024-03-11,2024-03-04,株式会社フジ・リテイリング,,株式会社,愛媛県,松山市,宮西１丁目２番１号,,38,201,7900065,,,2024-03-04,合併による解散等,9500001003505,令和６年３月１日愛媛県松山市宮西一丁目２番１号株式会社フジ（9500001003505）に合併し解散,2021-11-18,1,,,,,フジリテイリング,0
