sequenceNumber,corporateNumber,process,correct,updateDate,changeDate,name,nameImageId,kind,prefectureName,cityName,streetNumber,addressImageId,prefectureCode,cityCode,postCode,addressOutside,addressOutsideImageId,closeDate,closeCause,successorCorporateNumber,changeCause,assignmentDate,latest,enName,enPrefectureName,enCityName,enAddressOutside,furigana,hihyoji
8,1010005028489,登記記録の閉鎖等,0,2024-11-29,2024-11-25,一般社団法人リキッドアイボリー,,その他の設立登記法人,東京都,千代田区,丸の内３丁目１番１号東京共同会計事務所内,,13,101,1000005,,,2024-11-25,清算の結了等,,,2018-05-07,1,,,,,リキッドアイボリー,0
18,1010405021473,登記記録の閉鎖等,0,2024-11-29,2024-11-12,ＳＣＧ６０一般社団法人,,その他の設立登記法人,東京都,港区,虎ノ門２丁目６番１号,,13,103,1050001,,,2024-11-12,清算の結了等,,,2022-10-06,1,,,,,エスシージーシックスティ,0
34,1011001146788,登記記録の閉鎖等,0,2024-11-29,2024-11-11,Ｔｈｅｅ　Ｂｌｕｅ　Ｈｅｅｌｓ株式会社,,株式会社,東京都,目黒区,下目黒２丁目３番７号,,13,110,1530064,,,2024-11-11,清算の結了等,,,2022-04-19,1,,,,,ブルーヒールズ,0
39,1011005000223,登記記録の閉鎖等,0,2024-11-29,2024-11-22,一般財団法人自由アジア協会,,その他の設立登記法人,東京都,新宿区,高田馬場１丁目１９番７号,,13,104,1690075,,,2024-11-22,清算の結了等,,,2015-10-05,1,,,,,ジユウアジアキョウカイ,0
40,1011005003052,登記記録の閉鎖等,0,2024-11-29,2024-11-08,特定非営利活動法人日本応援協会,,その他の設立登記法人,東京都,渋谷区,渋谷１丁目２０－１１渋谷アインス１３１０,,13,113,1500002,,,2024-11-08,清算の結了等,,,2015-10-05,1,,,,,ニホンオウエンキョウカイ,0
46,1011101091967,登記記録の閉鎖等,0,2024-11-29,2024-11-22,株式会社メディシンクコンサルティング,,株式会社,東京都,新宿区,新宿１丁目２４番１１号新宿ガーデンビル４０２,,13,104,1600022,,,2024-11-22,清算の結了等,,,2020-07-28,1,,,,,メディシンクコンサルティング,0
56,1011302007945,登記記録の閉鎖等,0,2024-11-29,2024-11-25,有限会社冨司工務店,,有限会社,東京都,杉並区,高井戸西２丁目１３番６号,,13,115,1680071,,,2024-11-25,清算の結了等,,,2015-10-05,1,,,,,,0
94,1030001013955,登記記録の閉鎖等,0,2024-11-29,2024-11-26,株式会社かりばね書房,,株式会社,埼玉県,さいたま市中央区,大戸１丁目３７番９号,,11,105,3380012,,,2024-11-26,清算の結了等,,,2015-10-05,1,,,,,カリバネショボウ,0
99,1030001084294,登記記録の閉鎖等,0,2024-11-29,2024-11-26,株式会社トーワ,,株式会社,埼玉県,さいたま市岩槻区,大字鈎上６７６番地１,,11,110,3390000,,,2024-11-26,清算の結了等,,,2015-10-05,1,,,,,トーワ,0
125,1100002026115,登記記録の閉鎖等,0,2024-11-29,2024-11-21,有限会社泉旅舘,,有限会社,長野県,大町市,常盤字東原６９４５番地,,20,212,3980004,,,2024-11-21,清算の結了等,,,2015-10-05,1,,,,,イズミリョカン,0
163,1150001009033,登記記録の閉鎖等,0,2024-11-29,2024-11-26,株式会社モリノハ,,株式会社,奈良県,奈良市,紀寺町６３４番地の１,,29,201,6308306,,,2024-11-26,清算の結了等,,,2015-10-05,1,,,,,モリノハ,0
164,1150002010329,登記記録の閉鎖等,0,2024-11-29,2024-11-27,有限会社Ａ．Ｓ,,有限会社,奈良県,御所市,大字小林８３番地の１,,29,208,6392311,,,2024-11-27,清算の結了等,,,2015-10-05,1,,,,,エーエス,0
174,1180002050776,登記記録の閉鎖等,0,2024-11-29,2024-11-21,有限会社ケイ・ワイ・ティ商会,,有限会社,愛知県,名古屋市南区,東又兵ヱ町４丁目４４番地,,23,112,4570833,,,2024-11-21,清算の結了等,,,2015-10-05,1,,,,,ケイワイティショウカイ,0
181,1210005009741,登記記録の閉鎖等,0,2024-11-29,2024-11-25,一般社団法人河増町活性化委員会,,その他の設立登記法人,福井県,福井市,河増町第２５号４４番地,,18,201,9188218,,,2024-11-25,清算の結了等,,,2018-05-25,1,,,,,コウマスチョウカッセイカイインカイ,0
183,1240001042322,登記記録の閉鎖等,0,2024-11-29,2024-11-27,株式会社彩喜,,株式会社,広島県,安芸郡坂町,横浜中央１丁目６番３０号,,34,309,7314323,,,2024-11-27,清算の結了等,,,2015-10-05,1,,,,,サイキ,0
187,1240003003727,登記記録の閉鎖等,0,2024-11-29,2024-11-28,合同会社カプリス,,合同会社,広島県,三原市,幸崎能地４丁目１３番２９号,,34,204,7292252,,,2024-11-28,清算の結了等,,,2017-11-13,1,,,,,,0
188,1260001024839,登記記録の閉鎖等,0,2024-11-29,2024-11-26,株式会社ミーニュー,,株式会社,岡山県,岡山市北区,野田５丁目１番３０号清幸マンション野田５０３号室,,33,101,7000971,,,2024-11-26,清算の結了等,,,2015-10-05,1,,,,,ミーニュー,0
196,1360001027749,登記記録の閉鎖等,0,2024-11-29,2024-11-22,株式会社プレシャステクノロジーズ,,株式会社,東京都,新宿区,西新宿２丁目６番１号,,13,104,1600023,,,2024-11-22,清算の結了等,,,2020-10-08,1,,,,,プレシャステクノロジーズ,0
198,1360003007996,登記記録の閉鎖等,0,2024-11-29,2024-11-28,合同会社ＨＡＲＵ,,合同会社,沖縄県,石垣市,字大浜２３３番地２,,47,207,9070001,,,2024-11-28,清算の結了等,,,2017-01-26,1,,,,,ハル,0
199,1370001042383,登記記録の閉鎖等,0,2024-11-29,2024-11-22,株式会社グリット,,株式会社,宮城県,仙台市泉区,住吉台東１丁目１２番地の２４,,04,105,9813222,,,2024-11-22,清算の結了等,,,2017-12-05,1,,,,,グリット,0
202,1370002016097,登記記録の閉鎖等,0,2024-11-29,2024-11-22,有限会社エムイージー,,有限会社,宮城県,仙台市青葉区,みやぎ台４丁目２３番１号,,04,101,9893214,,,2024-11-22,清算の結了等,,,2015-10-05,1,,,,,エムイージー,0
203,1370201002534,登記記録の閉鎖等,0,2024-11-29,2024-11-20,高勝ハウジング株式会社,,株式会社,宮城県,大崎市,古川駅前大通４丁目４番１６号,,04,215,9896162,,,2024-11-20,清算の結了等,,,2024-10-30,1,,,,,タカカツハウジング,0
219,1460005000337,登記記録の閉鎖等,0,2024-11-29,2024-11-25,学校法人山辺学園,,その他の設立登記法人,北海道,釧路市,興津２丁目２１番３号,,01,206,0850811,,,2024-11-25,清算の結了等,,,2015-10-05,1,,,,,ヤマベガクエン,0
228,2010001131089,登記記録の閉鎖等,0,2024-11-29,2024-11-08,三豊恒産株式会社,,株式会社,東京都,中央区,京橋１丁目６番１１号,,13,102,1040031,,,2024-11-08,清算の結了等,,,2015-10-05,1,,,,,,0
236,2010101001134,登記記録の閉鎖等,0,2024-11-29,2024-11-25,京西サービス株式会社,,株式会社,東京都,八王子市,大谷町３９３番地,,13,201,1920034,,,2024-11-25,清算の結了等,,,2015-10-05,1,,,,,ケイセイサービス,0
241,2010401159110,登記記録の閉鎖等,0,2024-11-29,2024-11-14,Ｈｅｉｍａｔ株式会社,,株式会社,東京都,港区,南青山２丁目２番１５号ウィン青山９４２,,13,103,1070062,,,2024-11-14,清算の結了等,,,2021-03-29,1,,,,,ハイマート,0
243,2010401182203,登記記録の閉鎖等,0,2024-11-29,2024-11-13,株式会社Ｔ　Ｐａｒｔｎｅｒｓ,,株式会社,東京都,港区,虎ノ門４丁目１番２８号虎ノ門タワーズオフィス１７階,,13,103,1050001,,,2024-11-13,清算の結了等,,,2024-05-02,1,,,,,ティーパートナーズ,0
257,2010602008735,登記記録の閉鎖等,0,2024-11-29,2024-11-27,有限会社石原製作所,,有限会社,東京都,墨田区,東駒形３丁目５番１２号,,13,107,1300005,,,2024-11-27,清算の結了等,,,2015-10-05,1,,,,,イシハラセイサクショ,0
259,2010702009823,登記記録の閉鎖等,0,2024-11-29,2024-11-25,有限会社ターゲット・コミュニケーションズ,,有限会社,東京都,品川区,平塚１丁目２番１６－１００２号,,13,109,1420051,,,2024-11-25,清算の結了等,,,2015-10-05,1,,,,,ターゲットコミュニケーションズ,0
267,2011001095209,登記記録の閉鎖等,0,2024-11-29,2024-11-18,株式会社ＡｒｔｉｆａｃｔＬｅａｄｅｒｓ,,株式会社,東京都,渋谷区,円山町５番１８号,,13,113,1500044,,,2024-11-18,清算の結了等,,,2015-10-05,1,,,,,,0
282,2011101015850,登記記録の閉鎖等,0,2024-11-29,2024-11-22,株式会社日新商工,,株式会社,東京都,新宿区,新宿７丁目１７番１８号,,13,104,1600022,,,2024-11-22,清算の結了等,,,2015-10-05,1,,,,,ニッシンショウコウ,0
285,2011101092130,登記記録の閉鎖等,0,2024-11-29,2024-11-21,株式会社Ａｐｐｌａｕｓｅ　Ｍｅｓｓａｇｅｓ,,株式会社,東京都,新宿区,新宿４丁目１番６号,,13,104,1600022,,,2024-11-21,清算の結了等,,,2020-08-14,1,,,,,アプローズメッセージ,0
296,2011402004908,登記記録の閉鎖等,0,2024-11-29,2024-11-25,有限会社鈴木商店,,有限会社,東京都,板橋区,坂下３丁目１１番６号,,13,119,1740043,,,2024-11-25,清算の結了等,,,2015-10-05,1,,,,,スズキショウテン,0
308,2020001155137,登記記録の閉鎖等,0,2024-11-29,2024-11-19,株式会社ＴＩＡＭＡＴ,,株式会社,神奈川県,横浜市港北区,新横浜３丁目７番地１８日総第１８ビル６階,,14,109,2220033,,,2024-11-19,清算の結了等,,,2024-01-04,1,,,,,ティアマット,0
316,2021001027193,登記記録の閉鎖等,0,2024-11-29,2024-11-27,レイ電子株式会社,,株式会社,神奈川県,海老名市,河原口２丁目１１番１０号,,14,215,2430433,,,2024-11-27,清算の結了等,,,2015-10-05,1,,,,,レイデンシ,0
330,2030005014420,登記記録の閉鎖等,0,2024-11-29,2024-11-26,特定非営利活動法人持続可能な公園計画,,その他の設立登記法人,埼玉県,熊谷市,船木台５丁目１０番地３ロイヤルコリーヌＣ１０２,,11,202,3690108,,,2024-11-26,清算の結了等,,,2015-10-05,1,,,,,ジゾクカノウナコウエンケイカク,0
335,2040003017085,登記記録の閉鎖等,0,2024-11-29,2024-11-20,トロワ・リヴィエール合同会社,,合同会社,千葉県,成田市,並木町２５－３１６,,12,211,2860045,,,2024-11-20,清算の結了等,,,2021-02-25,1,,,,,トロワリヴィエール,0
336,2040003021161,登記記録の閉鎖等,0,2024-11-29,2024-11-26,合同会社ＹＳＣ,,合同会社,千葉県,柏市,逆井５丁目２番１６－１号,,12,217,2770042,,,2024-11-26,清算の結了等,,,2022-11-01,1,,,,,ワイエスシー,0
341,2050001011626,登記記録の閉鎖等,0,2024-11-29,2024-11-22,園部コンクリート工業株式会社,,株式会社,茨城県,小美玉市,小川１０２９番地,,08,236,3113423,,,2024-11-22,清算の結了等,,,2015-10-05,1,,,,,ソノベコンクリートコウギョウ,0
343,2050001028232,登記記録の閉鎖等,0,2024-11-29,2024-11-22,株式会社清友,,株式会社,茨城県,つくばみらい市,板橋１０５５番地３,,08,235,3002307,,,2024-11-22,清算の結了等,,,2015-10-05,1,,,,,セイユウ,0
344,2050001031285,登記記録の閉鎖等,0,2024-11-29,2024-11-22,株式会社石月商事,,株式会社,茨城県,取手市,井野台２丁目１７番１４号,,08,217,3020015,,,2024-11-22,清算の結了等,,,2015-10-05,1,,,,,イシヅキショウジ,0
355,2080001013891,登記記録の閉鎖等,0,2024-11-29,2024-11-26,株式会社ミキ梱包運輸,,株式会社,静岡県,牧之原市,布引原１１０８番地の１,,22,226,4210407,,,2024-11-26,清算の結了等,,,2015-10-05,1,,,,,ミキコンポウウンユ,0
362,2120001000910,登記記録の閉鎖等,0,2024-11-29,2024-11-27,株式会社西岡印刷所,,株式会社,大阪府,大阪市旭区,大宮４丁目１７番１４号,,27,117,5350002,,,2024-11-27,清算の結了等,,,2015-10-05,1,,,,,ニシオカインサツショ,0
377,2130003008447,登記記録の閉鎖等,0,2024-11-29,2024-11-27,合同会社織部,,合同会社,京都府,京都市南区,上鳥羽勧進橋町１３番地パデシオン新烏丸十条１１１号,,26,107,6018112,,,2024-11-27,清算の結了等,,,2023-01-17,1,,,,,オリベ,0
383,2150001020146,登記記録の閉鎖等,0,2024-11-29,2024-11-27,株式会社ｌｅａｄｓ,,株式会社,奈良県,大和高田市,大字神楽２５４番地６,,29,202,6350026,,,2024-11-27,清算の結了等,,,2015-10-05,1,,,,,リーズ,0
385,2160001020054,登記記録の閉鎖等,0,2024-11-29,2024-11-28,株式会社ブルーオーシャン,,株式会社,滋賀県,草津市,大路１丁目１番１号４階,,25,206,5250032,,,2024-11-28,清算の結了等,,,2017-03-01,1,,,,,ブルーオーシャン,0
386,2160001022819,登記記録の閉鎖等,0,2024-11-29,2024-11-28,株式会社マイメディカル,,株式会社,滋賀県,草津市,大路１丁目９番１－２１０１号アトラスタワー草津,,25,206,5250032,,,2024-11-28,清算の結了等,,,2020-10-13,1,,,,,マイメディカル,0
400,2180002080946,登記記録の閉鎖等,0,2024-11-29,2024-11-26,有限会社平久,,有限会社,愛知県,稲沢市,祖父江町祖父江曲１３３番地１,,23,220,4950001,,,2024-11-26,清算の結了等,,,2015-10-05,1,,,,,ヒラキュウ,0
417,2290001075928,登記記録の閉鎖等,0,2024-11-29,2024-10-28,株式会社Ｖｉｓｉｏｎａｒｙ　Ｆｏｒｃｅ,,株式会社,福岡県,那珂川市,松原７番１７－５０４号,,40,231,8111215,,,2024-10-28,清算の結了等,,,2016-12-01,1,,,,,ビジョナリーフォース,0
440,2370601000038,登記記録の閉鎖等,0,2024-11-29,2024-11-25,株式会社阿部平蒲鉾店,,株式会社,宮城県,塩竈市,本町６番５号,,04,203,9850052,,,2024-11-25,清算の結了等,,,2015-10-05,1,,,,,アベヘイカマボコテン,0
444,2420001009070,登記記録の閉鎖等,0,2024-11-29,2024-11-27,株式会社笹軽印刷,,株式会社,青森県,弘前市,大字本町７６番地２,,02,202,0368203,,,2024-11-27,清算の結了等,,,2015-10-05,1,,,,,ササケイインサツ,0
509,3011101073096,登記記録の閉鎖等,0,2024-11-29,2024-11-27,株式会社エニウェア,,株式会社,東京都,北区,赤羽台３丁目１９－１－７０１,,13,117,1150053,,,2024-11-27,清算の結了等,,,2015-10-05,1,,,,,エニウェア,0
518,3011401013628,登記記録の閉鎖等,0,2024-11-29,2024-11-25,株式会社古川建築設計事務所,,株式会社,東京都,板橋区,成増１丁目９番１５号,,13,119,1750094,,,2024-11-25,清算の結了等,,,2015-10-05,1,,,,,フルカワケンチクセッケイジムショ,0
523,3012301007587,登記記録の閉鎖等,0,2024-11-29,2024-11-18,株式会社スマートライフソリューション,,株式会社,東京都,町田市,中町１丁目５番９号Ｍ’ｓＳＱＵＡＲＥ中町２Ｆ,,13,209,1940021,,,2024-11-18,清算の結了等,,,2015-10-05,1,,,,,スマートライフソリューション,0
526,3012702000166,登記記録の閉鎖等,0,2024-11-29,2024-11-08,有限会社阿部畳店,,有限会社,東京都,小平市,小川町１丁目４２７番地７０,,13,211,1870032,,,2024-11-08,清算の結了等,,,2015-10-05,1,,,,,,0
532,3020001102146,登記記録の閉鎖等,0,2024-11-29,2024-11-19,株式会社ＲＭ．ＬＡＢ,,株式会社,神奈川県,川崎市宮前区,馬絹１丁目３６番１５号,,14,136,2160035,,,2024-11-19,清算の結了等,,,2015-10-05,1,,,,,アールエムラボ,0
535,3020001129643,登記記録の閉鎖等,0,2024-11-29,2024-11-28,株式会社成和建設,,株式会社,東京都,多摩市,連光寺１丁目２２番地１連光寺中野ビル地下１階,,13,224,2060021,,,2024-11-28,清算の結了等,,,2019-01-28,1,,,,,セイワケンセツ,0
551,3021001056290,登記記録の閉鎖等,0,2024-11-29,2024-11-26,株式会社司デザイン工房,,株式会社,神奈川県,藤沢市,湘南台１丁目４２番３号１Ｆ,,14,205,2520804,,,2024-11-26,清算の結了等,,,2015-10-05,1,,,,,ツカサデザインコウボウ,0
556,3030001036236,登記記録の閉鎖等,0,2024-11-29,2024-11-25,株式会社中村製作所,,株式会社,埼玉県,八潮市,大字木曽根６２２番地１,,11,234,3400813,,,2024-11-25,清算の結了等,,,2015-10-05,1,,,,,ナカムラセイサクショ,0
586,3060005005960,登記記録の閉鎖等,0,2024-11-29,2024-11-27,栃木県自動車運転代行サービス業協同組合,,その他の設立登記法人,栃木県,宇都宮市,白沢町４００番地１,,09,201,3291102,,,2024-11-27,清算の結了等,,,2015-10-05,1,,,,,トチギケンジドウシャウンテンダイコウサービスギョウ,0
592,3090003001752,登記記録の閉鎖等,0,2024-11-29,2024-11-25,グローバルテック合同会社,,合同会社,山梨県,中央市,西花輪３４２６番地３－１階,,19,214,4093843,,,2024-11-25,清算の結了等,,,2020-10-19,1,,,,,グローバルテック,0
598,3110002019322,登記記録の閉鎖等,0,2024-11-29,2024-11-25,有限会社梨本商店,,有限会社,新潟県,燕市,吉田学校町８番５号,,15,213,9590252,,,2024-11-25,清算の結了等,,,2015-10-05,1,,,,,ナシモトショウテン,0
599,3110002022870,登記記録の閉鎖等,0,2024-11-29,2024-11-26,有限会社しゃら,,有限会社,新潟県,上越市,大字下源入５番地８,,15,222,9420051,,,2024-11-26,清算の結了等,,,2015-10-05,1,,,,,シャラ,0
604,3120001238260,登記記録の閉鎖等,0,2024-11-29,2024-11-27,株式会社ミカゲ,,株式会社,大阪府,大阪市中央区,宗右衛門町４番６号平の家ビル４階,,27,128,5420084,,,2024-11-27,清算の結了等,,,2021-06-15,1,,,,,ミカゲ,0
610,3120901023506,登記記録の閉鎖等,0,2024-11-29,2024-11-25,協和建工株式会社,,株式会社,大阪府,豊中市,長興寺北３丁目７番３号,,27,203,5610875,,,2024-11-25,清算の結了等,,,2015-10-05,1,,,,,キョウワケンコウ,0
631,3180001078230,登記記録の閉鎖等,0,2024-11-29,2024-11-25,株式会社ダイワエクスプレス,,株式会社,愛知県,春日井市,瑞穂通１丁目４０番地３,,23,206,4860845,,,2024-11-25,清算の結了等,,,2015-10-05,1,,,,,ダイワエクスプレス,0
636,3180001139726,登記記録の閉鎖等,0,2024-11-29,2024-11-25,株式会社加寿工業,,株式会社,愛知県,名古屋市中村区,中島町１丁目４３番地,,23,105,4530022,,,2024-11-25,清算の結了等,,,2020-01-24,1,,,,,カズコウギョウ,0
646,3190001005935,登記記録の閉鎖等,0,2024-11-29,2024-11-21,株式会社アドバンスワーク,,株式会社,三重県,鈴鹿市,道伯町２１０２番地の１,,24,207,5130824,,,2024-11-21,清算の結了等,,,2015-10-05,1,,,,,アドバンスワーク,0
648,3190002005372,登記記録の閉鎖等,0,2024-11-29,2024-11-26,有限会社エコー水産,,有限会社,三重県,尾鷲市,中井町７番１２号,,24,209,5193605,,,2024-11-26,清算の結了等,,,2015-10-05,1,,,,,エコースイサン,0
663,3260002021759,登記記録の閉鎖等,0,2024-11-29,2024-11-27,有限会社安江洋瓦工業所,,有限会社,岡山県,倉敷市,連島町連島４４４０番地の１,,33,202,7128011,,,2024-11-27,清算の結了等,,,2015-10-05,1,,,,,ヤスエヨウガワラコウギョウショ,0
666,3270002004449,登記記録の閉鎖等,0,2024-11-29,2024-11-28,有限会社ひらぎ商店,,有限会社,鳥取県,八頭郡八頭町,船岡３６２番地１,,31,329,6800471,,,2024-11-28,清算の結了等,,,2015-10-05,1,,,,,ヒラギショウテン,0
672,3290001090166,登記記録の閉鎖等,0,2024-11-29,2024-10-16,株式会社Ｗｈｉｔｅ,,株式会社,福岡県,福岡市中央区,天神５丁目６番１４号リビング天神３Ｆ,,40,133,8100001,,,2024-10-16,清算の結了等,,,2020-09-16,1,,,,,ホワイト,0
683,3300001012903,登記記録の閉鎖等,0,2024-11-29,2024-11-27,株式会社ＫＫ商事,,株式会社,佐賀県,唐津市,東城内１７番２９号唐津商工共済ビル３階３号室,,41,202,8470016,,,2024-11-27,清算の結了等,,,2022-04-25,1,,,,,ケーケーショウジ,0
702,3430001091406,登記記録の閉鎖等,0,2024-11-29,2024-11-26,株式会社トレーラー５６,,株式会社,北海道,札幌市中央区,大通西１４丁目３番地２７,,01,101,0600042,,,2024-11-26,清算の結了等,,,2024-03-28,1,,,,,トレーラーゴジュウロク,0
714,4010001096355,登記記録の閉鎖等,0,2024-11-29,2024-11-18,株式会社スペースクリエイツブレーン,,株式会社,東京都,中央区,日本橋本町３丁目２番１３号,,13,102,1030023,,,2024-11-18,清算の結了等,,,2015-10-05,1,,,,,スペースクリエイツブレーン,0
727,4010003039931,登記記録の閉鎖等,0,2024-11-29,2024-11-15,マックディインキュベート合同会社,,合同会社,東京都,中央区,銀座１丁目１２－４Ｎ＆Ｅ．ＢＬＤ．６Ｆ,,13,102,1040061,,,2024-11-15,清算の結了等,,,2023-03-01,1,,,,,マックディインキュベート,0
736,4010403016142,登記記録の閉鎖等,0,2024-11-29,2024-11-18,合同会社プレエステート,,合同会社,東京都,港区,芝浦３丁目４番２号,,13,103,1080023,,,2024-11-18,合併による解散等,4011703001552,令和５年１２月３０日東京都港区芝浦三丁目４番２号合同会社シュロス（4011703001552）に合併し解散,2017-02-14,1,,,,,プレエステート,0
737,4010403018139,登記記録の閉鎖等,0,2024-11-29,2024-11-13,カナ合同会社,,合同会社,東京都,港区,六本木１丁目９番１８号アークヒルズ仙石山レジデンス５０９号,,13,103,1060032,,,2024-11-13,清算の結了等,,,2018-02-27,1,,,,,カナ,0
743,4010502005161,登記記録の閉鎖等,0,2024-11-29,2024-11-18,有限会社島谷商事,,有限会社,東京都,文京区,西片２丁目５番９号,,13,105,1130024,,,2024-11-18,清算の結了等,,,2015-10-05,1,,,,,シマタニショウジ,0
751,4010701039919,登記記録の閉鎖等,0,2024-11-29,2024-11-27,株式会社ユー,,株式会社,東京都,品川区,大崎２丁目９番２－３０１号,,13,109,1410032,,,2024-11-27,合併による解散等,8010703005031,令和６年１０月３１日神奈川県茅ヶ崎市東海岸南二丁目１１番２４－３０３号株式会社ヒュー（8010703005031）に合併し解散,2020-10-08,1,,,,,ユー,0
756,4010903002286,登記記録の閉鎖等,0,2024-11-29,2024-11-25,合同会社カピリナ,,合同会社,東京都,世田谷区,鎌田２丁目２３番１７号,,13,112,1570077,,,2024-11-25,清算の結了等,,,2015-10-05,1,,,,,,0
770,4011003005163,登記記録の閉鎖等,0,2024-11-29,2024-11-26,合同会社ベイトキッソス,,合同会社,東京都,足立区,北加平町１０番１１号,,13,121,1210056,,,2024-11-26,清算の結了等,,,2015-10-05,1,,,,,ベイトキッソス,0
773,4011101104073,登記記録の閉鎖等,0,2024-11-29,2024-11-21,三重洲株式会社,,株式会社,東京都,新宿区,新宿２丁目１２番１３号新宿アントレサロンビル２階,,13,104,1600022,,,2024-11-21,清算の結了等,,,2023-08-18,1,,,,,ミエス,0
775,4011103012183,登記記録の閉鎖等,0,2024-11-29,2024-11-25,合同会社Ｔｒｉｏｎ　Ｇａｍｅ,,合同会社,東京都,新宿区,西新宿３丁目３番１３号西新宿水間ビル６階,,13,104,1600023,,,2024-11-25,清算の結了等,,,2022-09-20,1,,,,,トリオンゲーム,0
792,4012401011307,登記記録の閉鎖等,0,2024-11-29,2024-11-28,茂建設株式会社,,株式会社,東京都,武蔵野市,関前３丁目４１番１４号,,13,203,1800014,,,2024-11-28,清算の結了等,,,2015-10-05,1,,,,,シゲルケンセツ,0
806,4013201017403,登記記録の閉鎖等,0,2024-11-29,2024-11-18,株式会社ミョンランジャパン,,株式会社,東京都,目黒区,南２丁目６番９号,,13,110,1520013,,,2024-11-18,清算の結了等,,,2015-10-05,1,,,,,ミョンランジャパン,0
845,4080401023101,登記記録の閉鎖等,0,2024-11-29,2024-11-28,株式会社縁,,株式会社,静岡県,掛川市,塩町２番地の１０,,22,213,4360076,,,2024-11-28,清算の結了等,,,2018-08-07,1,,,,,エニシ,0
848,4090002002024,登記記録の閉鎖等,0,2024-11-29,2024-11-25,有限会社中部エステート,,有限会社,山梨県,甲府市,北口１丁目９番２０号,,19,201,4000024,,,2024-11-25,清算の結了等,,,2015-10-05,1,,,,,,0
849,4090002012535,登記記録の閉鎖等,0,2024-11-29,2024-11-25,有限会社古屋電工,,有限会社,山梨県,南都留郡富士河口湖町,小立７８１番地,,19,430,4010302,,,2024-11-25,清算の結了等,,,2015-10-05,1,,,,,フルヤデンコウ,0
850,4100001008185,登記記録の閉鎖等,0,2024-11-29,2024-11-26,光伸建設株式会社,,株式会社,長野県,南佐久郡川上村,大字梓山９２番地２,,20,304,3841402,,,2024-11-26,清算の結了等,,,2015-10-05,1,,,,,コウシンケンセツ,0
851,4100001020009,登記記録の閉鎖等,0,2024-11-29,2024-11-26,株式会社ナチュラルウェーブ,,株式会社,長野県,諏訪郡下諏訪町,平沢町３１７番地,,20,361,3930062,,,2024-11-26,清算の結了等,,,2015-10-05,1,,,,,ナチュラルウェーブ,0
854,4110002020205,登記記録の閉鎖等,0,2024-11-29,2024-11-25,有限会社イガラシ製作所,,有限会社,新潟県,柏崎市,大字山澗２８３番地１,,15,205,9493726,,,2024-11-25,清算の結了等,,,2015-10-05,1,,,,,イガラシセイサクショ,0
856,4120001047462,登記記録の閉鎖等,0,2024-11-29,2024-11-28,眞鍋鉄工株式会社,,株式会社,大阪府,大阪市大正区,千島１丁目３番６号,,27,108,5510003,,,2024-11-28,清算の結了等,,,2015-10-05,1,,,,,マナベテッコウ,0
867,4120005021281,登記記録の閉鎖等,0,2024-11-29,2024-11-26,一般社団法人トータルサポートつなぐ,,その他の設立登記法人,大阪府,大阪市天王寺区,東高津町６番２１号,,27,109,5430021,,,2024-11-26,清算の結了等,,,2019-12-11,1,,,,,トータルサポートツナグ,0
870,4120902012374,登記記録の閉鎖等,0,2024-11-29,2024-11-25,有限会社ノナ,,有限会社,大阪府,高槻市,玉川２丁目５０番１４号,,27,207,5690857,,,2024-11-25,清算の結了等,,,2015-10-05,1,,,,,ノナ,0
872,4122001024400,登記記録の閉鎖等,0,2024-11-29,2024-11-27,株式会社ウメヤマ,,株式会社,大阪府,東大阪市,高井田本通４丁目５番５号,,27,227,5770066,,,2024-11-27,清算の結了等,,,2015-10-05,1,,,,,ウメヤマ,0
886,4140002070098,登記記録の閉鎖等,0,2024-11-29,2024-11-27,有限会社松秀,,有限会社,兵庫県,南あわじ市,広田広田８９２番地１,,28,224,6560122,,,2024-11-27,清算の結了等,,,2015-10-05,1,,,,,,0
905,4230001017256,登記記録の閉鎖等,0,2024-11-29,2024-11-26,株式会社村田工業,,株式会社,富山県,富山市,婦中町分田２７６番地５,,16,201,9392718,,,2024-11-26,清算の結了等,,,2018-01-15,1,,,,,ムラタコウギョウ,0
912,4260001017237,登記記録の閉鎖等,0,2024-11-29,2024-11-28,瀬戸内電設株式会社,,株式会社,岡山県,倉敷市,酒津２４６２番地１８,,33,202,7100801,,,2024-11-28,清算の結了等,,,2015-10-05,1,,,,,セトウチデンセツ,0
924,4310002001853,登記記録の閉鎖等,0,2024-11-29,2024-11-27,有限会社コックス,,有限会社,長崎県,長崎市,城栄町１８番８号,,42,201,8528034,,,2024-11-27,清算の結了等,,,2015-10-05,1,,,,,コックス,0
933,4380001006649,登記記録の閉鎖等,0,2024-11-29,2024-11-15,株式会社マップツアー,,株式会社,福島県,郡山市,南２丁目９９番地,,07,203,9630115,,,2024-11-15,清算の結了等,,,2015-10-05,1,,,,,マップツアー,0
934,4380001029204,登記記録の閉鎖等,0,2024-11-29,2024-11-20,株式会社森建材,,株式会社,福島県,大沼郡会津美里町,字大新田乙２８５４番地１,,07,447,9696200,,,2024-11-20,清算の結了等,,,2018-06-19,1,,,,,モリケンザイ,0
935,4380002032801,登記記録の閉鎖等,0,2024-11-29,2024-11-18,有限会社馬場鉄筋,,有限会社,福島県,大沼郡会津美里町,旭寺入字中谷地２９２番地,,07,447,9696223,,,2024-11-18,清算の結了等,,,2015-10-05,1,,,,,ババテッキン,0
949,4430002051523,登記記録の閉鎖等,0,2024-11-29,2024-11-27,有限会社グロー企画,,有限会社,北海道,空知郡南幌町,西町１丁目２番８号,,01,423,0690236,,,2024-11-27,清算の結了等,,,2015-10-05,1,,,,,グローキカク,0
953,4470002011762,登記記録の閉鎖等,0,2024-11-29,2024-11-27,有限会社シーアイ設計事務所,,有限会社,香川県,丸亀市,飯野町東分２３９８番地,,37,202,7630085,,,2024-11-27,清算の結了等,,,2015-10-05,1,,,,,シーアイセッケイジムショ,0
961,5010001109495,登記記録の閉鎖等,0,2024-11-29,2024-11-15,株式会社Ｍｗｅｂ,,株式会社,東京都,千代田区,東神田１丁目８番４－１００１号,,13,101,1010031,,,2024-11-15,清算の結了等,,,2015-10-05,1,,,,,エムウェブ,0
984,5010801034356,登記記録の閉鎖等,0,2024-11-29,2024-11-20,株式会社ＨｅｒｍＡｒｔｓ,,株式会社,東京都,大田区,東雪谷１丁目３２－２２,,13,111,1450065,,,2024-11-20,清算の結了等,,,2023-09-25,1,,,,,ハームアーツ,0
987,5011001057536,登記記録の閉鎖等,0,2024-11-29,2024-11-08,株式会社ビージーエムコーポレーション,,株式会社,東京都,渋谷区,恵比寿４丁目２３番７号,,13,113,1500013,,,2024-11-08,清算の結了等,,,2015-10-05,1,,,,,ビージーエムコーポレーション,0
996,5011001121390,登記記録の閉鎖等,0,2024-11-29,2024-11-18,株式会社東京ビルド,,株式会社,東京都,渋谷区,東２丁目１４番１３号,,13,113,1500011,,,2024-11-18,清算の結了等,,,2018-03-29,1,,,,,トウキョウビルド,0
1081,5070002010597,登記記録の閉鎖等,0,2024-11-29,2024-11-27,有限会社関口新建材店,,有限会社,群馬県,高崎市,上小鳥町４９０番地,,10,202,3700078,,,2024-11-27,清算の結了等,,,2015-10-05,1,,,,,セキグチシンケンザイテン,0
1085,5080401014768,登記記録の閉鎖等,0,2024-11-29,2024-11-28,マルア興運株式会社,,株式会社,静岡県,掛川市,千浜４１４４番地の１,,22,213,4371412,,,2024-11-28,清算の結了等,,,2015-10-05,1,,,,,マルアコウウン,0
1098,5120001250528,登記記録の閉鎖等,0,2024-11-29,2024-11-26,株式会社アルペックスハイユニット,,株式会社,大阪府,大阪市浪速区,日本橋５丁目９番１９号,,27,111,5560005,,,2024-11-26,清算の結了等,,,2022-11-25,1,,,,,アルペックスハイユニット,0
1108,5120901002697,登記記録の閉鎖等,0,2024-11-29,2024-11-27,株式会社山和,,株式会社,兵庫県,芦屋市,船戸町２番１号,,28,206,6590093,,,2024-11-27,清算の結了等,,,2015-10-05,1,,,,,ヤマワ,0
1111,5122002011388,登記記録の閉鎖等,0,2024-11-29,2024-11-26,有限会社大真塗装工業所,,有限会社,大阪府,大東市,新田中町２番３５号,,27,218,5740056,,,2024-11-26,清算の結了等,,,2015-10-05,1,,,,,ダイシントソウコウギョウショ,0
1131,5180301001922,登記記録の閉鎖等,0,2024-11-29,2024-11-28,フロア工業株式会社,,株式会社,愛知県,岡崎市,百々西町４番地１,,23,202,4442117,,,2024-11-28,清算の結了等,,,2015-10-05,1,,,,,フロアコウギョウ,0
1135,5180302022083,登記記録の閉鎖等,0,2024-11-29,2024-11-22,有限会社サンウッド,,有限会社,愛知県,豊田市,平戸橋町馬場瀬１９番地１,,23,211,4700331,,,2024-11-22,清算の結了等,,,2015-10-05,1,,,,,サンウッド,0
1136,5180303005079,登記記録の閉鎖等,0,2024-11-29,2024-11-25,合同会社メルヴェイユＬａｎｉ,,合同会社,愛知県,豊田市,京町６丁目１０番地１６,,23,211,4710063,,,2024-11-25,清算の結了等,,,2021-08-17,1,,,,,メルヴェイユラニ,0
1144,5240001014152,登記記録の閉鎖等,0,2024-11-29,2024-11-28,株式会社サカイ,,株式会社,広島県,広島市西区,商工センター８丁目１１番３４号,,34,104,7330833,,,2024-11-28,清算の結了等,,,2015-10-05,1,,,,,サカイ,0
1171,5380001006697,登記記録の閉鎖等,0,2024-11-29,2024-11-20,丸好宗像商店株式会社,,株式会社,福島県,郡山市,中田町高倉字中舘１４６番地,,07,203,9630713,,,2024-11-20,清算の結了等,,,2015-10-05,1,,,,,,0
1172,5400001009862,登記記録の閉鎖等,0,2024-11-29,2024-11-18,石鳥谷酒造株式会社,,株式会社,岩手県,花巻市,石鳥谷町好地第１６地割５７番地の１,,03,205,0283101,,,2024-11-18,清算の結了等,,,2015-10-05,1,,,,,イシドリヤシュゾウ,0
1179,5430003007787,登記記録の閉鎖等,0,2024-11-29,2024-11-27,合同会社ＬＥＧＥＮＤ,,合同会社,北海道,札幌市中央区,北四条西３０丁目１番１７－４０１号,,01,101,0640824,,,2024-11-27,清算の結了等,,,2016-07-27,1,,,,,,0
1180,5430005013602,登記記録の閉鎖等,0,2024-11-29,2024-11-27,一般社団法人旭観光,,その他の設立登記法人,北海道,札幌市中央区,南六条西６丁目７番地１,,01,101,0640806,,,2024-11-27,清算の結了等,,,2019-03-06,1,,,,,アサヒカンコウ,0
1181,5440001000751,登記記録の閉鎖等,0,2024-11-29,2024-11-26,空港通商株式会社,,株式会社,北海道,函館市,高松町５１１番地,,01,202,0420952,,,2024-11-26,合併による解散等,7440001001946,令和６年１１月２６日北海道函館市西桔梗町５８９番地５２株式会社不二屋本店（7440001001946）に合併し解散,2015-10-05,1,,,,,クウコウツウショウ,0
1182,5440002008793,登記記録の閉鎖等,0,2024-11-29,2024-11-22,有限会社横石農機,,有限会社,北海道,山越郡長万部町,字中ノ沢１３番地の１,,01,347,0493512,,,2024-11-22,清算の結了等,,,2015-10-05,1,,,,,ヨコイシノウキ,0
1183,5450001011277,登記記録の閉鎖等,0,2024-11-29,2024-11-27,株式会社彰貴会大町学習塾,,株式会社,北海道,旭川市,大町二条１０丁目１７３番地の４５,,01,204,0700842,,,2024-11-27,清算の結了等,,,2015-10-05,1,,,,,ショウキカイオオマチガクシュウジュク,0
1207,6010003035499,登記記録の閉鎖等,0,2024-11-29,2024-11-15,ＴＩＹＬ合同会社,,合同会社,東京都,中央区,銀座１丁目２２番１１号銀座大竹ビジデンス２階,,13,102,1040061,,,2024-11-15,清算の結了等,,,2021-08-03,1,,,,,ティーアイワイエル,0
1250,6011002019006,登記記録の閉鎖等,0,2024-11-29,2024-11-19,有限会社イースト・コスト・オフィス,,有限会社,東京都,町田市,中町２丁目５－２共栄町田ビル２０８号,,13,209,1940021,,,2024-11-19,清算の結了等,,,2015-10-05,1,,,,,,0
1255,6011101037008,登記記録の閉鎖等,0,2024-11-29,2024-11-12,東邦信用開発株式会社,,株式会社,東京都,新宿区,西新宿７丁目５番１１号,,13,104,1600023,,,2024-11-12,清算の結了等,,,2023-07-31,1,,,,,トウホウシンヨウカイハツ,0
1284,6012402016162,登記記録の閉鎖等,0,2024-11-29,2024-11-25,有限会社飯田企画,,有限会社,東京都,武蔵野市,吉祥寺南町５丁目２番２号,,13,203,1800003,,,2024-11-25,清算の結了等,,,2015-10-05,1,,,,,イイダキカク,0
1300,6020005009582,登記記録の閉鎖等,0,2024-11-29,2024-11-12,特定非営利活動法人ＮＰＯ支援全国地域活性化協議会,,その他の設立登記法人,神奈川県,横浜市港北区,師岡町５１６番地１０,,14,109,2220002,,,2024-11-12,清算の結了等,,,2015-10-05,1,,,,,エヌピーオーシエンゼンコクチイキカッセイカキョウギカイ,0
1345,6100002029113,登記記録の閉鎖等,0,2024-11-29,2024-11-25,有限会社弥生鮨,,有限会社,長野県,諏訪市,大字中洲５３０４番地３,,20,206,3920015,,,2024-11-25,清算の結了等,,,2015-10-05,1,,,,,ヤヨイズシ,0
1351,6120001214820,登記記録の閉鎖等,0,2024-11-29,2024-11-27,駐楽不動産株式会社,,株式会社,大阪府,大阪市阿倍野区,阿倍野筋３丁目１０番１号あべのベルタ２２５,,27,119,5450052,,,2024-11-27,清算の結了等,,,2018-07-24,1,,,,,,0
1377,6150001025158,登記記録の閉鎖等,0,2024-11-29,2024-11-27,株式会社ｇｅｎｇ,,株式会社,奈良県,大和高田市,大字神楽２５４番地６,,29,202,6350026,,,2024-11-27,清算の結了等,,,2021-12-08,1,,,,,ゲング,0
1383,6180001040815,登記記録の閉鎖等,0,2024-11-29,2024-11-28,株式会社マイクロシステムアシスト,,株式会社,愛知県,名古屋市東区,白壁３丁目３番１５号,,23,102,4610011,,,2024-11-28,清算の結了等,,,2015-10-05,1,,,,,マイクロシステムアシスト,0
1385,6180001070465,登記記録の閉鎖等,0,2024-11-29,2024-11-21,株式会社８ｔｈ　ｔｏｎｅ　ｃｏｍｍｕｎｉｃａｔｉｏｎｓ,,株式会社,愛知県,名古屋市東区,主税町４丁目１３番地,,23,102,4610018,,,2024-11-21,清算の結了等,,,2015-10-05,1,,,,,エイストーンコミュニケーションズ,0
1412,6280001008091,登記記録の閉鎖等,0,2024-11-29,2024-11-28,株式会社癒月,,株式会社,島根県,松江市,朝日町４７２番地２シャミネ西館１階,,32,201,6900003,,,2024-11-28,清算の結了等,,,2019-11-11,1,,,,,ユヅキ,0
1436,6390002013666,登記記録の閉鎖等,0,2024-11-29,2024-11-22,有限会社キュー・アール・二四,,有限会社,山形県,米沢市,中田町１３３６番地１,,06,202,9920011,,,2024-11-22,清算の結了等,,,2015-10-05,1,,,,,キューアールニジュウヨン,0
1442,6430001038981,登記記録の閉鎖等,0,2024-11-29,2024-11-27,株式会社札幌Ｄ－ＣＯＭ,,株式会社,北海道,札幌市東区,北四十条東３丁目２番７号,,01,103,0070840,,,2024-11-27,清算の結了等,,,2015-10-05,1,,,,,サッポロディーコム,0
1446,6460002000731,登記記録の閉鎖等,0,2024-11-29,2024-11-27,有限会社桐原新聞店,,有限会社,北海道,白糠郡白糠町,庶路２丁目６番地１５,,01,668,0880567,,,2024-11-27,清算の結了等,,,2015-10-05,1,,,,,キリハラシンブンテン,0
1453,7010001075637,登記記録の閉鎖等,0,2024-11-29,2024-11-27,アサヒフードクリエイト株式会社,,株式会社,東京都,墨田区,吾妻橋１丁目２３番１号,,13,107,1300001,,,2024-11-27,清算の結了等,,,2015-10-05,1,,,,,アサヒフードクリエイト,0
1479,7010701012955,登記記録の閉鎖等,0,2024-11-29,2024-11-18,株式会社ファーマシーエクスプレス,,株式会社,埼玉県,北葛飾郡松伏町,大字築比地７９５番地１,,11,465,3430102,,,2024-11-18,合併による解散等,6030001066965,令和６年１１月１日埼玉県北葛飾郡松伏町築比地７９５番地１株式会社ウィーズ（6030001066965）に合併し解散,2015-10-05,1,,,,,ファーマシーエクスプレス,0
1481,7010901006815,登記記録の閉鎖等,0,2024-11-29,2024-11-25,株式会社ダイシン,,株式会社,東京都,世田谷区,喜多見８丁目２３番１３号,,13,112,1570067,,,2024-11-25,清算の結了等,,,2015-10-05,1,,,,,ダイシン,0
1493,7011003014368,登記記録の閉鎖等,0,2024-11-29,2024-11-18,合同会社ｉｎｆｉｎｉｔｙ,,合同会社,東京都,渋谷区,東３丁目４－１７イーストコート広尾２０２,,13,113,1500011,,,2024-11-18,清算の結了等,,,2022-03-24,1,,,,,インフィニティ,0
1517,7011801026102,登記記録の閉鎖等,0,2024-11-29,2024-11-27,株式会社Ｓコート,,株式会社,東京都,葛飾区,東新小岩７丁目２８番７号,,13,122,1240023,,,2024-11-27,清算の結了等,,,2015-10-05,1,,,,,エスコート,0
1551,7040003005135,登記記録の閉鎖等,0,2024-11-29,2024-11-25,佐藤居宅介護合同会社,,合同会社,千葉県,船橋市,丸山２丁目２１番１１号,,12,204,2730048,,,2024-11-25,清算の結了等,,,2015-10-05,1,,,,,サトウキョタクカイゴ,0
1558,7050002006554,登記記録の閉鎖等,0,2024-11-29,2024-11-22,有限会社大隆産業,,有限会社,茨城県,那珂郡東海村,大字村松２５５３番地１,,08,341,3191112,,,2024-11-22,清算の結了等,,,2015-10-05,1,,,,,ダイリュウサンギョウ,0
1560,7050002008633,登記記録の閉鎖等,0,2024-11-29,2024-11-22,有限会社高田,,有限会社,茨城県,ひたちなか市,沢メキ１１１０番地４４,,08,221,3111211,,,2024-11-22,清算の結了等,,,2015-10-05,1,,,,,タカダ,0
1563,7050005008143,登記記録の閉鎖等,0,2024-11-29,2024-11-22,太田地方青果綜合食品協同組合,,その他の設立登記法人,茨城県,常陸太田市,山下町１１６４番地,,08,212,3130013,,,2024-11-22,清算の結了等,,,2015-10-05,1,,,,,オオタチホウセイカソウゴウショクヒン,0
1564,7060001006570,登記記録の閉鎖等,0,2024-11-29,2024-11-27,株式会社佐伯屋,,株式会社,北海道,札幌市中央区,南一条西８丁目１４－３,,01,101,0600061,,,2024-11-27,清算の結了等,,,2015-10-05,1,,,,,サエキヤ,0
1569,7070001003113,登記記録の閉鎖等,0,2024-11-29,2024-11-22,丸中銘木株式会社,,株式会社,群馬県,前橋市,北代田町７３０番地,,10,201,3710055,,,2024-11-22,清算の結了等,,,2015-10-05,1,,,,,マルナカメイキ,0
1570,7080002005479,登記記録の閉鎖等,0,2024-11-29,2024-11-26,有限会社麻里,,有限会社,静岡県,静岡市葵区,北１丁目１０番１６－２号,,22,101,4200961,,,2024-11-26,清算の結了等,,,2015-10-05,1,,,,,マリ,0
1589,7110002028930,登記記録の閉鎖等,0,2024-11-29,2024-10-23,有限会社フアクトリークロダ,,有限会社,新潟県,長岡市,呉服町１丁目３番地１４,,15,202,9400056,,,2024-10-23,清算の結了等,,,2015-10-05,1,,,,,フアクトリークロダ,0
1592,7120001249634,登記記録の閉鎖等,0,2024-11-29,2024-11-25,輝騰株式会社,,株式会社,東京都,板橋区,前野町３丁目７番６号２０２号室,,13,119,1740063,,,2024-11-25,清算の結了等,,,2022-10-19,1,,,,,キトウ,0
1598,7120003017502,登記記録の閉鎖等,0,2024-11-29,2024-11-27,合同会社コロコログラフィックス,,合同会社,大阪府,大阪市北区,松ケ枝町４番１３号ブリックスハウス天満２０５,,27,127,5300037,,,2024-11-27,清算の結了等,,,2020-05-28,1,,,,,コロコログラフィックス,0
1621,7140001109943,登記記録の閉鎖等,0,2024-11-29,2024-11-21,株式会社ＣＡＮＥＤＡ,,株式会社,兵庫県,神戸市東灘区,御影中町３丁目２番４号,,28,101,6580054,,,2024-11-21,合併による解散等,6010001241248,令和６年１１月１日東京都千代田区麹町一丁目１２番地１住友不動産ふくおか半蔵門ビル３階新日本住設ホールディングス株式会社（6010001241248）に合併し解散,2018-05-08,1,,,,,カネダ,0
1629,7170001002880,登記記録の閉鎖等,0,2024-11-29,2024-11-28,株式会社婦人服装いまぶん,,株式会社,和歌山県,和歌山市,新大工町３番地,,30,201,6408372,,,2024-11-28,清算の結了等,,,2015-10-05,1,,,,,フジンフクソウイマブン,0
1631,7180001066306,登記記録の閉鎖等,0,2024-11-29,2024-11-25,株式会社ＧＥＮＩＡＬ,,株式会社,愛知県,名古屋市中区,栄３丁目１８番１号,,23,106,4600008,,,2024-11-25,清算の結了等,,,2015-10-05,1,,,,,,0
1638,7180002090767,登記記録の閉鎖等,0,2024-11-29,2024-11-25,有限会社日化設備,,有限会社,愛知県,愛西市,日置町弐橋２０番地の３,,23,232,4960906,,,2024-11-25,清算の結了等,,,2015-10-05,1,,,,,ニッカセツビ,0
1643,7190001022737,登記記録の閉鎖等,0,2024-11-29,2024-11-26,大紀圏突入株式会社,,株式会社,三重県,度会郡大紀町,錦７８０番地６,,24,471,5192911,,,2024-11-26,清算の結了等,,,2015-10-05,1,,,,,タイキケントツニュウ,0
1645,7210001009847,登記記録の閉鎖等,0,2024-11-29,2024-11-26,株式会社富田建設,,株式会社,福井県,大野市,美川町１０番１号,,18,205,9120036,,,2024-11-26,清算の結了等,,,2015-10-05,1,,,,,トミタケンセツ,0
1646,7220002013558,登記記録の閉鎖等,0,2024-11-29,2024-11-26,有限会社ホテル京都,,有限会社,福井県,あわら市,瓜生２３－１３番地,,18,208,9190742,,,2024-11-26,清算の結了等,,,2015-10-05,1,,,,,ホテルキョウト,0
1664,7290801019237,登記記録の閉鎖等,0,2024-11-29,2024-11-27,株式会社大希建設,,株式会社,福岡県,北九州市小倉南区,横代東町２丁目１４番４０号,,40,107,8020822,,,2024-11-27,清算の結了等,,,2015-10-05,1,,,,,ダイキケンセツ,0
1673,7360003011745,登記記録の閉鎖等,0,2024-11-29,2024-11-28,合同会社ＴＪ,,合同会社,沖縄県,那覇市,松山１丁目１９－１８東和商事ビル５Ｆ,,47,201,9000032,,,2024-11-28,清算の結了等,,,2022-01-20,1,,,,,ティージェイ,0
1680,7420001005610,登記記録の閉鎖等,0,2024-11-29,2024-11-20,上沢食品工業株式会社,,株式会社,青森県,八戸市,城下４丁目１番２９号,,02,203,0310072,,,2024-11-20,清算の結了等,,,2024-09-03,1,,,,,ウエサワショクヒンコウギョウ,0
1696,8010001098249,登記記録の閉鎖等,0,2024-11-29,2024-11-18,株式会社ケイアンドエイトクリエーションセンター,,株式会社,東京都,文京区,後楽２丁目１８番９号,,13,105,1120004,,,2024-11-18,清算の結了等,,,2015-10-05,1,,,,,ケイアンドエイトクリエーションセンター,0
1707,8010102001326,登記記録の閉鎖等,0,2024-11-29,2024-11-26,有限会社エムディ建築事務所,,有限会社,東京都,八王子市,散田町２丁目６５番８号,,13,201,1930832,,,2024-11-26,清算の結了等,,,2015-10-05,1,,,,,エムディケンチクジムショ,0
1712,8010401167033,登記記録の閉鎖等,0,2024-11-29,2024-11-13,ＭＳＤ株式会社,,株式会社,東京都,港区,虎ノ門３丁目８番２１号虎ノ門３３森ビル７階,,13,103,1050001,,,2024-11-13,清算の結了等,,,2022-04-26,1,,,,,エムエスディ,0
1723,8010701026194,登記記録の閉鎖等,0,2024-11-29,2024-11-26,株式会社エーアンドアール,,株式会社,東京都,品川区,西品川２丁目１７番１４号,,13,109,1410033,,,2024-11-26,清算の結了等,,,2015-10-05,1,,,,,エーアンドアール,0
1724,8010702007706,登記記録の閉鎖等,0,2024-11-29,2024-11-27,有限会社マルケン精工,,有限会社,東京都,品川区,荏原７丁目１４番１号,,13,109,1420063,,,2024-11-27,清算の結了等,,,2015-10-05,1,,,,,マルケンセイコウ,0
1728,8010901038709,登記記録の閉鎖等,0,2024-11-29,2024-11-18,パース・アジア株式会社,,株式会社,東京都,中央区,銀座７丁目１３番６号サガミビル２階,,13,102,1040061,,,2024-11-18,清算の結了等,,,2016-08-31,1,,,,,パースアジア,0
1731,8010902012084,登記記録の閉鎖等,0,2024-11-29,2024-11-26,有限会社花丸,,有限会社,東京都,世田谷区,池尻１丁目６番８号,,13,112,1540001,,,2024-11-26,清算の結了等,,,2015-10-05,1,,,,,ハナマル,0
1734,8011001106430,登記記録の閉鎖等,0,2024-11-29,2024-11-18,株式会社ＬＯＶＥ　ＰＥＴ　ＳＴＹＬＥ,,株式会社,東京都,渋谷区,恵比寿４丁目４番２号クレスト恵比寿９０５号室,,13,113,1500013,,,2024-11-18,清算の結了等,,,2015-10-05,1,,,,,ラブペットスタイル,0
1743,8011003009012,登記記録の閉鎖等,0,2024-11-29,2024-11-08,合同会社センターフィールド,,合同会社,東京都,渋谷区,千駄ヶ谷５丁目２８番１０－４０４号,,13,113,1510051,,,2024-11-08,清算の結了等,,,2018-07-25,1,,,,,センターフィールド,0
1762,8012803001629,登記記録の閉鎖等,0,2024-11-29,2024-11-15,合同会社ＣＲＯＳＳ,,合同会社,東京都,国分寺市,南町２丁目１番２８号飯塚コーポ３０３,,13,214,1850021,,,2024-11-15,清算の結了等,,,2017-06-12,1,,,,,クロス,0
1763,8012803001686,登記記録の閉鎖等,0,2024-11-29,2024-11-15,合同会社シュアリンクキャッシュ,,合同会社,東京都,立川市,錦町１丁目１５番２０号トップ立川２１２,,13,202,1900022,,,2024-11-15,清算の結了等,,,2017-10-06,1,,,,,,0
1776,8021001046378,登記記録の閉鎖等,0,2024-11-29,2024-11-28,株式会社ネットアドベンチャー,,株式会社,神奈川県,逗子市,池子３丁目８番Ｃ－５０４号,,14,208,2490003,,,2024-11-28,清算の結了等,,,2015-10-05,1,,,,,ネットアドベンチャー,0
1794,8030002000327,登記記録の閉鎖等,0,2024-11-29,2024-11-11,有限会社足立屋金物店,,有限会社,埼玉県,さいたま市浦和区,常盤２丁目９番８号,,11,107,3300061,,,2024-11-11,清算の結了等,,,2015-10-05,1,,,,,アダチヤカナモノテン,0
1823,8110003003015,登記記録の閉鎖等,0,2024-11-29,2024-11-25,ＳＵＮＷＥＢ．ＥＣ株式会社,,株式会社,新潟県,長岡市,古正寺３丁目３１番地,,15,202,9402106,,,2024-11-25,清算の結了等,,,2015-10-05,1,,,,,サンウェブイーシー,0
1842,8120003016742,登記記録の閉鎖等,0,2024-11-29,2024-11-21,合同会社エスルート企画,,合同会社,大阪府,大阪市福島区,吉野１丁目３番１１号,,27,103,5530006,,,2024-11-21,清算の結了等,,,2019-12-23,1,,,,,エスルートキカク,0
1855,8160001022689,登記記録の閉鎖等,0,2024-11-29,2024-11-26,株式会社ＬＯＬ,,株式会社,滋賀県,大津市,粟津町９番２４号２階,,25,201,5200832,,,2024-11-26,清算の結了等,,,2020-08-12,1,,,,,エルオーエル,0
1863,8180302021033,登記記録の閉鎖等,0,2024-11-29,2024-11-22,有限会社新星事務機,,有限会社,愛知県,刈谷市,富士見町２丁目３０２番地,,23,210,4480854,,,2024-11-22,清算の結了等,,,2015-10-05,1,,,,,シンセイジムキ,0
1875,8250001014603,登記記録の閉鎖等,0,2024-11-29,2024-11-27,株式会社ＮＳＳ,,株式会社,山口県,長門市,西深川１２０９番地,,35,211,7594102,,,2024-11-27,清算の結了等,,,2015-10-05,1,,,,,エヌエスエス,0
1887,8310001010892,登記記録の閉鎖等,0,2024-11-29,2024-11-18,株式会社対翔,,株式会社,東京都,中央区,八重洲２丁目８番７号,,13,102,1040028,,,2024-11-18,清算の結了等,,,2015-10-05,1,,,,,タイショウ,0
1894,8330001016780,登記記録の閉鎖等,0,2024-11-29,2024-11-27,百飾隆商事株式会社,,株式会社,埼玉県,蕨市,塚越５丁目３７番１１号,,11,223,3350002,,,2024-11-27,清算の結了等,,,2015-10-05,1,,,,,ヒャクセイリュウショウジ,0
1895,8330002008439,登記記録の閉鎖等,0,2024-11-29,2024-11-21,有限会社林原工業,,有限会社,熊本県,熊本市東区,長嶺南３丁目２番３５号,,43,102,8618039,,,2024-11-21,清算の結了等,,,2015-10-05,1,,,,,ハヤシバラコウギョウ,0
1899,8340001018223,登記記録の閉鎖等,0,2024-11-29,2024-11-27,株式会社ハヤトテック,,株式会社,鹿児島県,姶良市,平松５９６２番地１０,,46,225,8995652,,,2024-11-27,清算の結了等,,,2015-10-05,1,,,,,ハヤトテック,0
1905,8370002009788,登記記録の閉鎖等,0,2024-11-29,2024-11-21,有限会社いのうら,,有限会社,宮城県,仙台市青葉区,上杉４丁目２番３７号,,04,101,9800011,,,2024-11-21,清算の結了等,,,2015-10-05,1,,,,,イノウラ,0
1911,8420002002754,登記記録の閉鎖等,0,2024-11-29,2024-11-27,有限会社マキタ薬局,,有限会社,青森県,五所川原市,字本町１７番地１,,02,205,0370071,,,2024-11-27,清算の結了等,,,2015-10-05,1,,,,,マキタヤッキョク,0
1923,8490001003739,登記記録の閉鎖等,0,2024-11-29,2024-11-27,株式会社フジムラ,,株式会社,高知県,高知市,役知町４番４号,,39,201,7808002,,,2024-11-27,清算の結了等,,,2015-10-05,1,,,,,フジムラ,0
1933,9010001147252,登記記録の閉鎖等,0,2024-11-29,2024-11-27,Ｋ－ＢＡＮＫ株式会社,,株式会社,東京都,荒川区,東日暮里５丁目４２番８号アトラス日暮里６０１,,13,118,1160014,,,2024-11-27,清算の結了等,,,2015-10-05,1,,,,,ケーバンク,0
1936,9010001196539,登記記録の閉鎖等,0,2024-11-29,2024-11-25,Ｓｅｌｅｃｔ　Ｗａｌｌ株式会社,,株式会社,東京都,豊島区,北大塚１丁目１９番１２号,,13,116,1700004,,,2024-11-25,清算の結了等,,,2018-11-22,1,,,,,セレクトウォール,0
1939,9010002024723,登記記録の閉鎖等,0,2024-11-29,2024-11-18,有限会社ベル・プロダクション,,有限会社,東京都,中央区,築地６丁目１５番６号,,13,102,1040045,,,2024-11-18,清算の結了等,,,2015-10-05,1,,,,,ベルプロダクション,0
1940,9010003031719,登記記録の閉鎖等,0,2024-11-29,2024-11-18,ＳＯＵ合同会社,,合同会社,東京都,中央区,銀座１丁目２２番１１号銀座大竹ビジデンス２階,,13,102,1040061,,,2024-11-18,清算の結了等,,,2020-02-28,1,,,,,ソウ,0
1947,9010401095968,登記記録の閉鎖等,0,2024-11-29,2024-11-01,インペックスババルスラル石油株式会社,,株式会社,東京都,港区,赤坂５丁目３番１号,,13,103,1070052,,,2024-11-01,清算の結了等,,,2015-10-05,1,,,,,インペックスババルスラルセキユ,0
1954,9010402000753,登記記録の閉鎖等,0,2024-11-29,2024-11-18,株式会社アハバクリエイティヴパーティー,,株式会社,東京都,渋谷区,南平台町１６番１１号ＭＦＰＲ渋谷南平台ビル８Ｆ,,13,113,1500036,,,2024-11-18,清算の結了等,,,2015-10-05,1,,,,,アハバクリエイティヴパーティー,0
1969,9010903008576,登記記録の閉鎖等,0,2024-11-29,2024-11-26,合同会社福島いわきソーラー,,合同会社,東京都,世田谷区,玉川２丁目１４番７号ツインシティーＳ３Ｆ中央ライズアクロスグループ内,,13,112,1580094,,,2024-11-26,合併による解散等,1012303001359,令和６年１１月１２日東京都町田市原町田五丁目５番１５福島ソーラーシェア発電所合同会社（1012303001359）に合併し解散,2023-11-13,1,,,,,フクシマイワキソーラー,0
1998,9011701007588,登記記録の閉鎖等,0,2024-11-29,2024-11-25,株式会社水越電工社,,株式会社,東京都,江戸川区,松本１丁目６番１３号,,13,123,1330043,,,2024-11-25,清算の結了等,,,2015-10-05,1,,,,,ミズコシデンコウシャ,0
2001,9012301010263,登記記録の閉鎖等,0,2024-11-29,2024-11-28,株式会社大進建設,,株式会社,東京都,多摩市,連光寺１丁目２２番地の１連光寺中野ビルＢ１Ｆ,,13,224,2060021,,,2024-11-28,清算の結了等,,,2015-10-05,1,,,,,ダイシンケンセツ,0
2025,9020002010177,登記記録の閉鎖等,0,2024-11-29,2024-11-19,有限会社高久工務店,,有限会社,神奈川県,横浜市磯子区,洋光台４丁目４４番２９号,,14,107,2350045,,,2024-11-19,清算の結了等,,,2015-10-05,1,,,,,タカクコウムテン,0
2027,9020005014175,登記記録の閉鎖等,0,2024-11-29,2024-11-19,一般社団法人横浜市相続相談協会,,その他の設立登記法人,神奈川県,横浜市中区,麦田町３丁目６９番地２,,14,104,2310849,,,2024-11-19,清算の結了等,,,2019-05-28,1,,,,,ヨコハマシソウゾクソウダンキョウカイ,0
2034,9030001035471,登記記録の閉鎖等,0,2024-11-29,2024-11-21,株式会社原山設計事務所,,株式会社,埼玉県,草加市,谷塚町１４４６番地１９,,11,221,3400023,,,2024-11-21,清算の結了等,,,2015-10-05,1,,,,,ハラヤマセッケイジムショ,0
2046,9030003000886,登記記録の閉鎖等,0,2024-11-29,2024-11-26,合同会社グロース,,合同会社,埼玉県,さいたま市中央区,上落合９丁目１番１号,,11,105,3380001,,,2024-11-26,清算の結了等,,,2015-10-05,1,,,,,グロース,0
2053,9040001065006,登記記録の閉鎖等,0,2024-11-29,2024-11-26,株式会社エリシオンエンタープライズ,,株式会社,千葉県,市原市,西国分寺台２丁目１７番５,,12,219,2900072,,,2024-11-26,清算の結了等,,,2015-10-05,1,,,,,エリシオンエンタープライズ,0
2071,9060002033975,登記記録の閉鎖等,0,2024-11-29,2024-11-26,有限会社エスエスコーポレーション,,有限会社,栃木県,下都賀郡壬生町,至宝２丁目９番１７号,,09,361,3210217,,,2024-11-26,清算の結了等,,,2015-10-05,1,,,,,エスエスコーポレーション,0
2075,9070002014347,登記記録の閉鎖等,0,2024-11-29,2024-11-20,有限会社山田宅地開発,,有限会社,群馬県,高崎市,倉賀野町８１９番地１０,,10,202,3701201,,,2024-11-20,清算の結了等,,,2015-10-05,1,,,,,ヤマダタクチカイハツ,0
2077,9080402003246,登記記録の閉鎖等,0,2024-11-29,2024-11-28,有限会社佐宗金網製作所,,有限会社,静岡県,浜松市中央区,千歳町８３番地,,22,138,4300934,,,2024-11-28,清算の結了等,,,2015-10-05,1,,,,,サソウカナアミセイサクショ,0
2100,9122002015419,登記記録の閉鎖等,0,2024-11-29,2024-11-28,有限会社センエイ,,有限会社,大阪府,八尾市,山本町南８丁目４番２２号,,27,212,5810013,,,2024-11-28,清算の結了等,,,2015-10-05,1,,,,,,0
2179,9440001002653,登記記録の閉鎖等,0,2024-11-29,2024-11-25,株式会社渡辺時計店,,株式会社,北海道,函館市,松風町５番１０号,,01,202,0400035,,,2024-11-25,清算の結了等,,,2015-10-05,1,,,,,ワタナベトケイテン,0
