sequenceNumber,corporateNumber,process,correct,updateDate,changeDate,name,nameImageId,kind,prefectureName,cityName,streetNumber,addressImageId,prefectureCode,cityCode,postCode,addressOutside,addressOutsideImageId,closeDate,closeCause,successorCorporateNumber,changeCause,assignmentDate,latest,enName,enPrefectureName,enCityName,enAddressOutside,furigana,hihyoji
11,1010003048803,新規,0,2025-09-19,2025-09-19,日光Ｐｌｕｓ２４合同会社７,,合同会社,東京都,千代田区,丸の内１丁目４番１号東京共同会計事務所内,,13,101,1000005,,,,,,,2025-09-19,1,,,,,ニッコウプラストゥエンティフォーナナ,0
13,1010005040683,新規,0,2025-09-19,2025-09-19,一般社団法人無形資産経営推進協会,,その他の設立登記法人,東京都,千代田区,一ツ橋１丁目１番１号株式会社毎日学術フォーラム内,,13,101,1000003,,,,,,,2025-09-19,1,,,,,ムケイシサンケイエイスイシンキョウカイ,0
17,1010401192946,新規,0,2025-09-19,2025-09-19,株式会社ビンテージ,,株式会社,東京都,港区,三田１丁目６番１０号タウンコート三田８０１,,13,103,1080073,,,,,,,2025-09-19,1,,,,,ビンテージ,0
18,1010401193184,新規,0,2025-09-19,2025-09-19,株式会社ＡＲＩ,,株式会社,東京都,港区,白金台４丁目３－２８,,13,103,1080071,,,,,,,2025-09-19,1,,,,,アリ,0
19,1010401193192,新規,0,2025-09-19,2025-09-19,株式会社ＢＢキャピタル,,株式会社,東京都,港区,虎ノ門５丁目３番２０号,,13,103,1050001,,,,,,,2025-09-19,1,,,,,ビービーキャピタル,0
20,1010401193218,新規,0,2025-09-19,2025-09-19,ＢＲＣホールディングス株式会社,,株式会社,東京都,港区,赤坂３丁目１３番６号,,13,103,1070052,,,,,,,2025-09-19,1,,,,,ビーアールシーホールディングス,0
21,1010403036028,新規,0,2025-09-19,2025-09-19,ミケーレ・ストラメッツィ建築スタジオ合同会社,,合同会社,東京都,港区,南青山２丁目２番８号ＤＦビル１０階オフィスＮｏ．１０３２Ｅ,,13,103,1070062,,,,,,,2025-09-19,1,,,,,ミケーレストラメッツィケンチクスタジオ,0
23,1010405024798,新規,0,2025-09-19,2025-09-19,ドラセナ一般社団法人,,その他の設立登記法人,東京都,港区,北青山１丁目２番３号,,13,103,1070061,,,,,,,2025-09-19,1,,,,,ドラセナ,0
25,1010501054740,新規,0,2025-09-19,2025-09-19,株式会社シュガー,,株式会社,東京都,台東区,上野７丁目２番１号,,13,106,1100005,,,,,,,2025-09-19,1,,,,,シュガー,0
26,1010501054749,新規,0,2025-09-19,2025-09-19,カッコカリ株式会社,,株式会社,東京都,台東区,東上野２丁目１３－２上野スカイビル,,13,106,1100015,,,,,,,2025-09-19,1,,,,,カッコカリ,0
32,1010703007918,新規,0,2025-09-19,2025-09-19,合同会社ｎｏｂｕｋｕｎｉ,,合同会社,東京都,品川区,大井２丁目１－２０,,13,109,1400014,,,,,,,2025-09-19,1,,,,,ノブクニ,0
35,1010803005549,新規,0,2025-09-19,2025-09-19,合同会社ＮＣｏａｃｈ,,合同会社,東京都,大田区,上池台５丁目３４番４号,,13,111,1450064,,,,,,,2025-09-19,1,,,,,エヌコーチ,0
37,1010901058102,新規,0,2025-09-19,2025-09-19,株式会社ＳＢ,,株式会社,東京都,世田谷区,野毛２丁目２０－２３－３１２,,13,112,1580092,,,,,,,2025-09-19,1,,,,,エスビー,0
46,1011001172108,新規,0,2025-09-19,2025-09-19,株式会社Ｅｌｅｖａｔｅ,,株式会社,東京都,渋谷区,神南１丁目１１番４号ＦＰＧリンクス神南５Ｆ,,13,113,1500041,,,,,,,2025-09-19,1,,,,,エレベート,0
49,1011003022319,新規,0,2025-09-19,2025-09-19,合同会社Ｐｉｌａｔｅｓ２４５,,合同会社,東京都,渋谷区,恵比寿南２丁目１２－３－２０１,,13,113,1500022,,,,,,,2025-09-19,1,,,,,ピラティスニヨンゴ,0
50,1011003022368,新規,0,2025-09-19,2025-09-19,ＩＫＵＭＡ合同会社,,合同会社,東京都,渋谷区,上原３丁目３５番１号Ｂｒｉｌｌｉａｉｓｔ代々木上原１０６,,13,113,1510064,,,,,,,2025-09-19,1,,,,,イクマ,0
51,1011003022384,新規,0,2025-09-19,2025-09-19,ＧＲ合同会社,,合同会社,東京都,渋谷区,神宮前６丁目２３番４号桑野ビル２階,,13,113,1500001,,,,,,,2025-09-19,1,,,,,ジーアール,0
52,1011003022525,新規,0,2025-09-19,2025-09-19,ＬＭＣ合同会社,,合同会社,東京都,目黒区,三田２丁目４番２４号,,13,110,1530062,,,,,,,2025-09-19,1,,,,,エルエムシー,0
55,1011101113135,新規,0,2025-09-19,2025-09-19,株式会社ＩＮＯＴＡＫＡホールディングス,,株式会社,東京都,新宿区,西新宿３丁目３番１３号西新宿水間ビル２Ｆ,,13,104,1600023,,,,,,,2025-09-19,1,,,,,イノタカホールディングス,0
56,1011101113168,新規,0,2025-09-19,2025-09-19,ヒトシナ・インターナショナル株式会社,,株式会社,東京都,新宿区,大久保２丁目２番２号８Ｂ,,13,104,1690072,,,,,,,2025-09-19,1,,,,,ヒトシナインターナショナル,0
57,1011101113201,新規,0,2025-09-19,2025-09-19,株式会社オープンミュージックジャパン,,株式会社,東京都,新宿区,新宿５丁目１８番２０号ルックハイツ新宿８０３号,,13,104,1600022,,,,,,,2025-09-19,1,,,,,オープンミュージックジャパン,0
58,1011301030907,新規,0,2025-09-19,2025-09-19,株式会社オフィスＴ,,株式会社,東京都,杉並区,堀ノ内１丁目８番３４号５１３号室,,13,115,1660013,,,,,,,2025-09-19,1,,,,,オフィスティー,0
59,1011401027365,新規,0,2025-09-19,2025-09-19,ＥＬＮＵＲ　ＰＡＲＴＮＥＲＳ株式会社,,株式会社,東京都,板橋区,常盤台４丁目３２－３－１０２ＧＯ・ＫＥＢＡＢ,,13,119,1740071,,,,,,,2025-09-19,1,,,,,エルヌルパートナーズ,0
60,1011401027415,新規,0,2025-09-19,2025-09-19,株式会社ＳＯＴ,,株式会社,東京都,板橋区,高島平９丁目１２番１４号Ｋ．Ｙビル５０３,,13,119,1750082,,,,,,,2025-09-19,1,,,,,エスオーティー,0
61,1011403004858,新規,0,2025-09-19,2025-09-19,合同会社Ｋ’２,,合同会社,東京都,板橋区,蓮根２丁目３１－７,,13,119,1740046,,,,,,,2025-09-19,1,,,,,ケイツー,0
62,1011501032579,新規,0,2025-09-19,2025-09-19,ＧＯＬＤＥＮ　ＲＯＵＴＥ株式会社,,株式会社,東京都,北区,浮間３丁目２番１－３０１号プリモハイツ,,13,117,1150051,,,,,,,2025-09-19,1,,,,,ゴールデンルート,0
67,1011701028708,新規,0,2025-09-19,2025-09-19,小沐茵子株式会社,,株式会社,東京都,江戸川区,東小岩６丁目３３番１８号ＺＫＹビル２０１号室,,13,123,1330052,,,,,,,2025-09-19,1,,,,,コモイコ,0
71,1012401043609,新規,0,2025-09-19,2025-09-19,青輝半導体株式会社,,株式会社,東京都,調布市,小島町１丁目３５番地３レジダンスオノ４０２号,,13,208,1820026,,,,,,,2025-09-19,1,,,,,セイキハンドウタイ,0
74,1012803003862,新規,0,2025-09-19,2025-09-19,ナイーブ合同会社,,合同会社,東京都,日野市,多摩平７丁目１３－３,,13,212,1910062,,,,,,,2025-09-19,1,,,,,ナイーブ,0
75,1012803003870,新規,0,2025-09-19,2025-09-19,合同会社さき企画,,合同会社,東京都,立川市,上砂町３丁目４５－１２,,13,202,1900032,,,,,,,2025-09-19,1,,,,,サキキカク,0
80,1013301054976,新規,0,2025-09-19,2025-09-19,＿林株式会社,00140708,株式会社,東京都,豊島区,南池袋１丁目９番１８号ＧＯＧＯオフィス池袋２１８号室,,13,116,1710022,,,,,,,2025-09-19,1,,,,,キンリン,0
81,1013301054992,新規,0,2025-09-19,2025-09-19,佳辰株式会社,,株式会社,東京都,豊島区,池袋１丁目１２－１ハニービーＥ室,,13,116,1700014,,,,,,,2025-09-19,1,,,,,カシン,0
91,1020001164700,新規,0,2025-09-19,2025-09-19,久米工業株式会社,,株式会社,神奈川県,川崎市幸区,小向西町４丁目１２１番地コスモ新川崎１０１,,14,132,2120004,,,,,,,2025-09-19,1,,,,,クメコウギョウ,0
92,1020001164923,新規,0,2025-09-19,2025-09-19,カカヒアカ株式会社,,株式会社,神奈川県,横浜市都筑区,高山３番７号,,14,118,2240065,,,,,,,2025-09-19,1,,,,,カカヒアカ,0
104,1030001168444,新規,0,2025-09-19,2025-09-19,株式会社ＣＰＳ,,株式会社,埼玉県,さいたま市緑区,宮本１丁目７番地２,,11,109,3360916,,,,,,,2025-09-19,1,,,,,シーピーエス,0
105,1030001168709,新規,0,2025-09-19,2025-09-19,株式会社Ｙ＆Ｍ,,株式会社,埼玉県,川口市,幸町３丁目６番２７号１Ｆ,,11,203,3320016,,,,,,,2025-09-19,1,,,,,ワイアンドエム,0
109,1030005022275,新規,0,2025-09-19,2025-09-19,一般社団法人日本ドローンアソシエイション,,その他の設立登記法人,埼玉県,ふじみ野市,西１丁目９番１７号１,,11,245,3560005,,,,,,,2025-09-19,1,,,,,ニホンドローンアソシエイション,0
115,1040001140484,新規,0,2025-09-19,2025-09-19,株式会社はれにわ,,株式会社,千葉県,千葉市中央区,道場北２丁目１８番２５号千葉パークハウス２０１,,12,101,2600006,,,,,,,2025-09-19,1,,,,,ハレニワ,0
116,1040001140526,新規,0,2025-09-19,2025-09-19,株式会社ノコノコファーム,,株式会社,千葉県,袖ケ浦市,蔵波９９５番地２８,,12,229,2990243,,,,,,,2025-09-19,1,,,,,コノコファーム,0
119,1040003028463,新規,0,2025-09-19,2025-09-19,合同会社アイビーブレーン,,合同会社,千葉県,八千代市,村上１１１３番地１、１街区１４棟３０３号,,12,221,2760028,,,,,,,2025-09-19,1,,,,,アイビーブレーン,0
120,1040003028521,新規,0,2025-09-19,2025-09-19,ＳＨＩＶＡＭ合同会社,,合同会社,千葉県,市原市,五井東３丁目４３番地６ファーストシティ君塚Ｄ－１０３,,12,219,2900055,,,,,,,2025-09-19,1,,,,,シバム,0
121,1040003028546,新規,0,2025-09-19,2025-09-19,合同会社ハイリンテック,,合同会社,千葉県,市川市,八幡２丁目９－１５ブラッサムフォーラム市川,,12,203,2720021,,,,,,,2025-09-19,1,,,,,ハイリンテック,0
127,1060001038561,新規,0,2025-09-19,2025-09-19,ＩＮＳＰＩＲＥ　ＧＬＯＢＡＬ　ＴＲＡＤＩＮＧ株式会社,,株式会社,栃木県,佐野市,富岡町１４２番地１ハイツサンロードＣ－１０１,,09,204,3270844,,,,,,,2025-09-19,1,,,,,インスパイアグローバルトレーディング,0
150,1120001279686,新規,0,2025-09-19,2025-09-19,株式会社ＢＲＩＧＨＴＰＡＴＨ,,株式会社,大阪府,大阪市中央区,北久宝寺町３丁目６－１本町南ガーデンシティ７階,,27,128,5410057,,,,,,,2025-09-19,1,,,,,ブライトパス,0
151,1120001279703,新規,0,2025-09-19,2025-09-19,株式会社Ｈｅｔｉｙ,,株式会社,大阪府,大阪市中央区,南船場３丁目２番２２号おおきに南船場ビル２０５,,27,128,5420081,,,,,,,2025-09-19,1,,,,,ヘティ,0
152,1120001279711,新規,0,2025-09-19,2025-09-19,株式会社トレードスリー,,株式会社,大阪府,大阪市北区,南森町１丁目４番１１号ローラン南森町４０３,,27,127,5300054,,,,,,,2025-09-19,1,,,,,トレードスリー,0
153,1120001279744,新規,0,2025-09-19,2025-09-19,株式会社Ｔ・Ｋパートナーズ,,株式会社,大阪府,大阪市中央区,東心斎橋１丁目３番１０号冨士通商ビル６０１号,,27,128,5420083,,,,,,,2025-09-19,1,,,,,ティーケーパートナーズ,0
154,1120001279793,新規,0,2025-09-19,2025-09-19,株式会社サウスクレスト,,株式会社,大阪府,交野市,星田北６丁目１３番地１４１３号室,,27,230,5760017,,,,,,,2025-09-19,1,,,,,サウスクレスト,0
155,1120001279819,新規,0,2025-09-19,2025-09-19,ＲＯＹＡＬ　ＷＡＹ株式会社,,株式会社,大阪府,大阪市中央区,難波１丁目９番１１号１Ｆ,,27,128,5420076,,,,,,,2025-09-19,1,,,,,ロイヤルウェイ,0
156,1120001279835,新規,0,2025-09-19,2025-09-19,株式会社寅丸タクシー,,株式会社,大阪府,大阪市大正区,小林西２丁目１０番３号,,27,108,5510013,,,,,,,2025-09-19,1,,,,,トラマルタクシー,0
157,1120001279876,新規,0,2025-09-19,2025-09-19,株式会社米増,,株式会社,大阪府,大阪市北区,大淀南１丁目９番１６号１Ｆ,,27,127,5310075,,,,,,,2025-09-19,1,,,,,ヨネマス,0
160,1120101072479,新規,0,2025-09-19,2025-09-19,Ｌホールディングス株式会社,,株式会社,大阪府,堺市北区,長曽根町１６６４番地１,,27,146,5918025,,,,,,,2025-09-19,1,,,,,エルホールディングス,0
161,1120103006724,新規,0,2025-09-19,2025-09-19,合同会社ＮＥＸＴ,,合同会社,大阪府,岸和田市,春木本町３－８－２０６,,27,202,5960034,,,,,,,2025-09-19,1,,,,,ネクスト,0
162,1120901051509,新規,0,2025-09-19,2025-09-19,ＮｅｘＴａｂｌｅ株式会社,,株式会社,大阪府,吹田市,千里山東１丁目９番２１号,,27,205,5650842,,,,,,,2025-09-19,1,,,,,ネクステーブル,0
175,1140003022588,新規,0,2025-09-19,2025-09-19,Ｋ＆Ｍ　ＳＯＬＵＴＩＯＮＳ合同会社,,合同会社,兵庫県,芦屋市,南浜町１２番１号,,28,206,6590037,,,,,,,2025-09-19,1,,,,,ケーアンドエムソリューションズ,0
176,1140003022596,新規,0,2025-09-19,2025-09-19,Ｋｅｓｈｙｅｐ合同会社,,合同会社,兵庫県,神戸市兵庫区,荒田町３丁目４番９号,,28,105,6520032,,,,,,,2025-09-19,1,,,,,ケシュイェップ,0
178,1140005027635,新規,0,2025-09-19,2025-09-19,一般社団法人Ｓａｓａｙａｍａ　Ｌｕｍｂｅｒｊａｃｋｓ,,その他の設立登記法人,兵庫県,丹波篠山市,西阪本５６４番地４,,28,221,6692728,,,,,,,2025-09-19,1,,,,,ササヤマランバージャックス,0
179,1150001028405,新規,0,2025-09-19,2025-09-19,株式会社漣,,株式会社,奈良県,奈良市,神殿町４７２番地,,29,201,6308441,,,,,,,2025-09-19,1,,,,,サザナミ,0
186,1180001168677,新規,0,2025-09-19,2025-09-19,株式会社グリーン,,株式会社,愛知県,名古屋市名東区,藤見が丘１３番地ハヤノビル１階,,23,115,4650048,,,,,,,2025-09-19,1,,,,,グリーン,0
187,1180001168685,新規,0,2025-09-19,2025-09-19,株式会社ソーシャルキャピタル,,株式会社,愛知県,名古屋市瑞穂区,汐路町２丁目１０番地４,,23,108,4670003,,,,,,,2025-09-19,1,,,,,ソーシャルキャピタル,0
188,1180001168693,新規,0,2025-09-19,2025-09-19,株式会社勝鬨,,株式会社,愛知県,名古屋市天白区,海老山町１２２０番地の１,,23,116,4680042,,,,,,,2025-09-19,1,,,,,カチドキ,0
189,1180003029043,新規,0,2025-09-19,2025-09-19,合同会社ＤＡＵＤ　ＴＲＡＤＩＮＧ,,合同会社,愛知県,清須市,清洲１８８５番地３５,,23,233,4520942,,,,,,,2025-09-19,1,,,,,ダウドトレーディング,0
190,1180003029051,新規,0,2025-09-19,2025-09-19,ＭＲＨ　ＥＮＴＥＲＰＲＩＳＥＳ合同会社,,合同会社,愛知県,名古屋市港区,東土古町１丁目１光栄荘８,,23,111,4550061,,,,,,,2025-09-19,1,,,,,エムアールエイチエンタープライズ,0
193,1180005021221,新規,0,2025-09-19,2025-09-19,医療法人ｃｏｍｍｕｎｉｔｙ　ｈｅａｌｔｈ　ｂｕｉｌｄｅｒｓ,,その他の設立登記法人,愛知県,名古屋市中村区,烏森八丁目３０６番地,,23,105,4530000,,,,,,,2025-09-19,1,,,,,コミュニティヘルスビルダーズ,0
196,1180301040214,新規,0,2025-09-19,2025-09-19,株式会社ベルエステート,,株式会社,愛知県,刈谷市,一ツ木町２丁目７番地３３,,23,210,4480003,,,,,,,2025-09-19,1,,,,,ベルエステート,0
197,1180301040230,新規,0,2025-09-19,2025-09-19,株式会社Ｍｅｔａ　Ｌｏｃａｌ,,株式会社,愛知県,豊橋市,広小路１丁目２４番地１,,23,201,4400881,,,,,,,2025-09-19,1,,,,,メタローカル,0
213,1260001040563,新規,0,2025-09-19,2025-09-19,株式会社セントリックス,,株式会社,岡山県,岡山市東区,瀬戸町瀬戸１５２－６（２Ｆ）,,33,103,7090861,,,,,,,2025-09-19,1,,,,,セントリックス,0
217,1270003001793,新規,0,2025-09-19,2025-09-19,合同会社機縁,,合同会社,鳥取県,鳥取市,雲山３５１番地,,31,201,6800862,,,,,,,2025-09-19,1,,,,,キエン,0
220,1290001111353,新規,0,2025-09-19,2025-09-19,株式会社ＬＩＴＹ,,株式会社,福岡県,福岡市東区,松島１丁目１１番１０－７０１号ナウヴィレッジ松島ＩＩ,00140704,40,131,8120062,,,,,,,2025-09-19,1,,,,,リティー,0
221,1290001111403,新規,0,2025-09-19,2025-09-19,株式会社ｃｏｃｏ,,株式会社,福岡県,福岡市中央区,荒戸２丁目４番２３－７０４号,,40,133,8100062,,,,,,,2025-09-19,1,,,,,ココ,0
222,1290001111477,新規,0,2025-09-19,2025-09-19,株式会社ここ旅,,株式会社,福岡県,福岡市中央区,警固２丁目１９番１３号,,40,133,8100023,,,,,,,2025-09-19,1,,,,,ココタビ,0
228,1330001033576,新規,0,2025-09-19,2025-09-19,東峰先進科技株式会社,,株式会社,熊本県,菊池郡菊陽町,大字津久礼字久保２６８１番地１,,43,404,8691101,,,,,,,2025-09-19,1,,,,,トウホウセンシンカギ,0
230,1330005010951,新規,0,2025-09-19,2025-09-19,一般社団法人キャリアサポートセンターひとよし,,その他の設立登記法人,熊本県,人吉市,中神町字段１９４番地,,43,203,8680085,,,,,,,2025-09-19,1,,,,,キャリアサポートセンターヒトヨシ,0
236,1360001035801,新規,0,2025-09-19,2025-09-19,株式会社リテール・マーケティング,,株式会社,沖縄県,糸満市,西崎町４丁目１８番地１,,47,210,9010306,,,,,,,2025-09-19,1,,,,,リテールマーケティング,0
251,1470001020899,新規,0,2025-09-19,2025-09-19,株式会社ユアーズ,,株式会社,香川県,観音寺市,豊浜町和田浜１５０９番地２０,,37,205,7691602,,,,,,,2025-09-19,1,,,,,ユアーズ,0
252,1480005007108,新規,0,2025-09-19,2025-09-19,労働者協同組合Ｙ＆Ｙくらぶ,,その他の設立登記法人,徳島県,阿南市,長生町北門４０－１,,36,204,7740046,,,,,,,2025-09-19,1,,,,,ワイワイクラブ,0
256,1500001026521,新規,0,2025-09-19,2025-09-19,株式会社ｃｌｏｖｅｒ,,株式会社,愛媛県,今治市,喜田村１丁目２番３１号,,38,202,7991502,,,,,,,2025-09-19,1,,,,,クローバー,0
262,1700150132307,新規,0,2025-09-19,2025-09-19,Ｍａｎｇａｌａ　Ｍｏｔｏｒｓ,,外国会社等,千葉県,千葉市若葉区,川井町１４４番地１０－１,,12,104,2650062,スリランカ民主社会主義共和国、ラスマラナ、ミリハナロード、Ｎｏ．２０３Ａ,,,,,,2025-09-19,1,,,,,マンガラモータース,0
272,2010003048802,新規,0,2025-09-19,2025-09-19,日光Ｐｌｕｓ２４合同会社６,,合同会社,東京都,千代田区,丸の内１丁目４番１号東京共同会計事務所内,,13,101,1000005,,,,,,,2025-09-19,1,,,,,ニッコウプラストゥエンティフォーロク,0
275,2010005040682,新規,0,2025-09-19,2025-09-19,一般社団法人知財・無形資産ガバナンス推進協会,,その他の設立登記法人,東京都,千代田区,一ツ橋１丁目１番１号株式会社毎日学術フォーラム内,,13,101,1000003,,,,,,,2025-09-19,1,,,,,チザイムケイシサンガバナンススイシンキョウカイ,0
278,2010101016875,新規,0,2025-09-19,2025-09-19,ＫＴエステート株式会社,,株式会社,東京都,八王子市,平岡町１５番１４号,,13,201,1920061,,,,,,,2025-09-19,1,,,,,ケーティーエステート,0
281,2010401193191,新規,0,2025-09-19,2025-09-19,株式会社ＱｕｅｓｔＨｕｂアドバイザリー,,株式会社,東京都,港区,六本木１丁目４番５号,,13,103,1060032,,,,,,,2025-09-19,1,,,,,クエストハブアドバイザリー,0
282,2010401193233,新規,0,2025-09-19,2025-09-19,楓創堂株式会社,,株式会社,東京都,港区,元麻布３丁目１０番１号ＬＵＭＩＥＣｓｕｉｔｅＡＺＡＢＵＪＵＢＡＮ２階,,13,103,1060046,,,,,,,2025-09-19,1,,,,,フウソウドウ,0
284,2010403036068,新規,0,2025-09-19,2025-09-19,合同会社スターチス,,合同会社,東京都,港区,北青山１丁目２番３号,,13,103,1070061,,,,,,,2025-09-19,1,,,,,スターチス,0
285,2010403036084,新規,0,2025-09-19,2025-09-19,Ｓｅｎｓｅ合同会社,,合同会社,東京都,港区,新橋６丁目１５―１―４０５,,13,103,1050004,,,,,,,2025-09-19,1,,,,,センス,0
287,2010405024797,新規,0,2025-09-19,2025-09-19,スターチス一般社団法人,,その他の設立登記法人,東京都,港区,北青山１丁目２番３号,,13,103,1070061,,,,,,,2025-09-19,1,,,,,スターチス,0
289,2010701048327,新規,0,2025-09-19,2025-09-19,リードライブジャパン株式会社,,株式会社,東京都,品川区,西五反田２丁目１１番１５－６０３,,13,109,1410031,,,,,,,2025-09-19,1,,,,,リードライブジャパン,0
291,2010703007917,新規,0,2025-09-19,2025-09-19,ＭＩＨＯＮＯＶＡ合同会社,,合同会社,東京都,品川区,東五反田５丁目１８番３－３０１号,,13,109,1410022,,,,,,,2025-09-19,1,,,,,ミホノバ,0
292,2010801036611,新規,0,2025-09-19,2025-09-19,ＳＱＵＩＤ株式会社,,株式会社,東京都,大田区,矢口１丁目８番２５ハイツベルグ武蔵２階２０８号室,,13,111,1460093,,,,,,,2025-09-19,1,,,,,スクイド,0
293,2010803005548,新規,0,2025-09-19,2025-09-19,有愛合同会社,,合同会社,東京都,大田区,東海３丁目７番３号東海ビル２１６号,,13,111,1430001,,,,,,,2025-09-19,1,,,,,ユウアイ,0
296,2010901058101,新規,0,2025-09-19,2025-09-19,株式会社介護施設成長研究室,,株式会社,東京都,世田谷区,北烏山８丁目１３番２５ラグーン千歳烏山３０５号,,13,112,1570061,,,,,,,2025-09-19,1,,,,,カイゴシセツセイチョウケンキュウシツ,0
299,2010903010233,新規,0,2025-09-19,2025-09-19,合同会社Ｔｈｅ　Ｓｅｃｏｎｄ　Ｓｔａｇｅ,,合同会社,東京都,世田谷区,北烏山８丁目１３番２５－６０３号,,13,112,1570061,,,,,,,2025-09-19,1,,,,,ザセカンドステージ,0
307,2011001172049,新規,0,2025-09-19,2025-09-19,株式会社ヘリオス,,株式会社,東京都,渋谷区,恵比寿１丁目６番３号,,13,113,1500013,,,,,,,2025-09-19,1,,,,,ヘリオス,0
308,2011005011161,新規,0,2025-09-19,2025-09-19,一般社団法人オフィスツチカワ,,その他の設立登記法人,東京都,目黒区,自由が丘２丁目１６番１２号ＲＪ３,,13,110,1520035,,,,,,,2025-09-19,1,,,,,オフィスツチカワ,0
310,2011101113126,新規,0,2025-09-19,2025-09-19,株式会社スエヒロ,,株式会社,東京都,新宿区,大久保１丁目１１番８号ハイム大久保Ｂ棟２０２,,13,104,1690072,,,,,,,2025-09-19,1,,,,,スエヒロ,0
311,2011101113134,新規,0,2025-09-19,2025-09-19,ＳｕｐｅｒＸ　Ｉｎｄｕｓｔｒｉｅｓ株式会社,,株式会社,東京都,新宿区,北新宿３丁目１０番１０－７１１号－Ｊ,,13,104,1690074,,,,,,,2025-09-19,1,,,,,スーパーエックスインダストリーズ,0
312,2011101113241,新規,0,2025-09-19,2025-09-19,株式会社ＡｒｃＷｅｌｌ,,株式会社,東京都,新宿区,新宿２丁目１３番１０号武蔵野ビル５Ｆ,,13,104,1600022,,,,,,,2025-09-19,1,,,,,アークウェル,0
313,2011101113258,新規,0,2025-09-19,2025-09-19,南家株式会社,,株式会社,東京都,新宿区,西新宿４丁目１４番７－５０８号,,13,104,1600023,,,,,,,2025-09-19,1,,,,,ミナミケ,0
314,2011103016368,新規,0,2025-09-19,2025-09-19,佐藤たけはる合同会社,,合同会社,東京都,新宿区,新宿２丁目１２番１３号新宿アントレサロンビル２Ｆ,,13,104,1600022,,,,,,,2025-09-19,1,,,,,サトウタケハル,0
315,2011103016384,新規,0,2025-09-19,2025-09-19,一敏合同会社,,合同会社,東京都,新宿区,百人町２丁目５番４号土屋ビル２Ｆ、ＬｉｎｋＳｐａｃｅＮ０７号室,,13,104,1690073,,,,,,,2025-09-19,1,,,,,カズトシ,0
316,2011103016442,新規,0,2025-09-19,2025-09-19,Ｗａｗａｓｕ合同会社,,合同会社,東京都,新宿区,西新宿７丁目１７番１４,,13,104,1600023,,,,,,,2025-09-19,1,,,,,ワワス,0
317,2011301030906,新規,0,2025-09-19,2025-09-19,オハナ株式会社,,株式会社,東京都,杉並区,上高井戸１丁目２３番１１号,,13,115,1680074,,,,,,,2025-09-19,1,,,,,オハナ,0
318,2011403004857,新規,0,2025-09-19,2025-09-19,合同会社Ｈ＆Ｋ,,合同会社,東京都,板橋区,高島平７丁目１４－５須田ビル１階,,13,119,1750082,,,,,,,2025-09-19,1,,,,,エイチアンドケイ,0
326,2012401043608,新規,0,2025-09-19,2025-09-19,株式会社ＹＧ,,株式会社,東京都,武蔵野市,中町１丁目３４番３号武蔵野パークマンション１０８号,,13,203,1800006,,,,,,,2025-09-19,1,,,,,ワイジー,0
334,2013301054967,新規,0,2025-09-19,2025-09-19,株式会社Ｒｅｙｕｚｕ,,株式会社,東京都,豊島区,西池袋１丁目２０番４号三宅ビル３階,,13,116,1710021,,,,,,,2025-09-19,1,,,,,リユーズ,0
335,2013303007873,新規,0,2025-09-19,2025-09-19,ＳＡＫＵＲＡ合同会社,,合同会社,東京都,豊島区,北大塚３丁目３１－３－５０３,,13,116,1700004,,,,,,,2025-09-19,1,,,,,サクラ,0
336,2013303007881,新規,0,2025-09-19,2025-09-19,合同会社Ｃｅｒｂｅｒｕｓ,,合同会社,東京都,豊島区,東池袋２丁目６２番８号ＢＩＧオフィスプラザ池袋１２０６,,13,116,1700013,,,,,,,2025-09-19,1,,,,,ケルベロス,0
345,2020003029438,新規,0,2025-09-19,2025-09-19,合同会社ＡＭＡＲＩＥＬＬＥ,,合同会社,神奈川県,横浜市鶴見区,鶴見中央２丁目７番６‐５１５号,,14,101,2300051,,,,,,,2025-09-19,1,,,,,アマリエル,0
353,2030001168674,新規,0,2025-09-19,2025-09-19,株式会社夢陽商事,,株式会社,埼玉県,川口市,芝西２丁目１３番４－１号,,11,203,3330855,,,,,,,2025-09-19,1,,,,,ユメヒショウジ,0
354,2030001168708,新規,0,2025-09-19,2025-09-19,株式会社ＦＬＩＴ,,株式会社,埼玉県,さいたま市緑区,太田窪１丁目２３番２３号,,11,109,3360936,,,,,,,2025-09-19,1,,,,,フリット,0
355,2030001168749,新規,0,2025-09-19,2025-09-19,株式会社ＣｈｏｐＣｈｏｐ,,株式会社,埼玉県,春日部市,米島２６１番地９８,,11,214,3440115,,,,,,,2025-09-19,1,,,,,チョップチョップ,0
357,2030003027647,新規,0,2025-09-19,2025-09-19,Ｐｏｗｅｒ‐Ｄｅｌ．合同会社,,合同会社,埼玉県,所沢市,北野３丁目５番地の３,,11,208,3591152,,,,,,,2025-09-19,1,,,,,パワーデル,0
360,2040001140500,新規,0,2025-09-19,2025-09-19,株式会社ＳＫＹコンサルティング,,株式会社,千葉県,流山市,西平井１丁目２７番地の１０,,12,220,2700156,,,,,,,2025-09-19,1,,,,,スカイコンサルティング,0
361,2040001140517,新規,0,2025-09-19,2025-09-19,株式会社青陽社,,株式会社,千葉県,市原市,草刈１３６３番地,,12,219,2900001,,,,,,,2025-09-19,1,,,,,セイヨウシャ,0
362,2040001140566,新規,0,2025-09-19,2025-09-19,株式会社ＦＵＳＥＭＩ,,株式会社,千葉県,長生郡一宮町,新地甲２５１２番地９２タイガーローズサーファーズイン１０１号室,,12,421,2994315,,,,,,,2025-09-19,1,,,,,フセミ,0
366,2040003028537,新規,0,2025-09-19,2025-09-19,ＡＵＴＯ　ＬＩＮＫ合同会社,,合同会社,千葉県,松戸市,幸田５丁目５６－１－２０１号,,12,207,2700001,,,,,,,2025-09-19,1,,,,,アトリンク,0
369,2050001057306,新規,0,2025-09-19,2025-09-19,株式会社ＰＵＬ‐ＰＬＡ,,株式会社,茨城県,つくば市,吾妻２丁目５番地１,,08,220,3050031,,,,,,,2025-09-19,1,,,,,プルプラ,0
370,2050003009552,新規,0,2025-09-19,2025-09-19,東邦モータース合同会社,,合同会社,茨城県,結城郡八千代町,大字菅谷８３４番地１３Ａ,,08,521,3003572,,,,,,,2025-09-19,1,,,,,トウホウモータース,0
371,2050003009593,新規,0,2025-09-19,2025-09-19,合同会社Ａｒｓｌａｎ　Ｔｒａｄｉｎｇ,,合同会社,茨城県,結城郡八千代町,大字野爪４０２－９,,08,521,3003518,,,,,,,2025-09-19,1,,,,,アルスラーントレーディング,0
373,2050005013701,新規,0,2025-09-19,2025-09-19,一般社団法人ここね,,その他の設立登記法人,茨城県,筑西市,岡芹８６５番地２,,08,227,3080051,,,,,,,2025-09-19,1,,,,,ココネ,0
376,2080103003428,新規,0,2025-09-19,2025-09-19,合同会社ＭＩＳＯ’Ｓ　Ｆａｒｍ＆Ｔａｂｌｅ,,合同会社,静岡県,富士市,久沢７０１番地の５,,22,210,4190202,,,,,,,2025-09-19,1,,,,,ミソズファームアンドテーブル,0
380,2100001038969,新規,0,2025-09-19,2025-09-19,株式会社Ｈ．Ｈ．ＯＮＥ,,株式会社,長野県,上田市,上田原７１２番地１８,,20,203,3861102,,,,,,,2025-09-19,1,,,,,エイチツーワン,0
395,2120001279727,新規,0,2025-09-19,2025-09-19,恒信株式会社,,株式会社,大阪府,大阪市平野区,西脇２丁目２－１６,,27,126,5470035,,,,,,,2025-09-19,1,,,,,コウシン,0
396,2120001279735,新規,0,2025-09-19,2025-09-19,株式会社ＴＩＡＤ,,株式会社,大阪府,大阪市西区,京町堀２丁目１番１１号,,27,106,5500003,,,,,,,2025-09-19,1,,,,,ティアド,0
397,2120001279751,新規,0,2025-09-19,2025-09-19,Ｎｏｖａｊｏｙ株式会社,,株式会社,大阪府,大阪市東淀川区,上新庄２丁目３番９号２０２号室,,27,114,5330006,,,,,,,2025-09-19,1,,,,,ノヴァジョイ,0
398,2120001279826,新規,0,2025-09-19,2025-09-19,炎龍科技株式会社,,株式会社,大阪府,大阪市中央区,北浜３丁目２番２５号,,27,128,5410041,,,,,,,2025-09-19,1,,,,,エンリュウカギ,0
399,2120001279834,新規,0,2025-09-19,2025-09-19,株式会社Ｒａｎｎｅｒ,,株式会社,大阪府,大阪市北区,池田町３番１号,,27,127,5300033,,,,,,,2025-09-19,1,,,,,ランナー,0
400,2120001279850,新規,0,2025-09-19,2025-09-19,輝陽商事株式会社,,株式会社,大阪府,大阪市北区,西天満６丁目２番１４号,,27,127,5300047,,,,,,,2025-09-19,1,,,,,キヨウショウジ,0
401,2120001279859,新規,0,2025-09-19,2025-09-19,麗昇株式会社,,株式会社,大阪府,大阪市西成区,天下茶屋北１丁目１番６－１０６号,,27,122,5570003,,,,,,,2025-09-19,1,,,,,レイショウ,0
402,2120001280032,新規,0,2025-09-19,2025-09-19,株式会社ＫＩＴＡＤＡ,,株式会社,大阪府,大阪市淀川区,田川２丁目３番１５－７０３号,,27,123,5320027,,,,,,,2025-09-19,1,,,,,キタダ,0
404,2120003030583,新規,0,2025-09-19,2025-09-19,合同会社ＮＩＣＯＺＵ,,合同会社,大阪府,大阪市北区,堂島３丁目３番２８－１５０３号,,27,127,5300003,,,,,,,2025-09-19,1,,,,,ニコズ,0
405,2120003030633,新規,0,2025-09-19,2025-09-19,合同会社ｍ　ＬＡＢＯ,,合同会社,大阪府,大阪市北区,梅田１丁目２番２号大阪駅前第２ビル１２－１２,,27,127,5300001,,,,,,,2025-09-19,1,,,,,エムラボ,0
409,2120101072478,新規,0,2025-09-19,2025-09-19,株式会社ＬＵＸＩＳ,,株式会社,大阪府,堺市西区,草部１２８４番地８,,27,144,5938312,,,,,,,2025-09-19,1,,,,,ルクシス,0
413,2120901051474,新規,0,2025-09-19,2025-09-19,株式会社英翔商事,,株式会社,大阪府,吹田市,江坂町３丁目２８番１号,,27,205,5640063,,,,,,,2025-09-19,1,,,,,エイショウショウジ,0
414,2120901051482,新規,0,2025-09-19,2025-09-19,株式会社おうちＢＯＸ,,株式会社,大阪府,豊中市,原田元町２丁目１４番１号２Ｂ,,27,203,5610808,,,,,,,2025-09-19,1,,,,,オウチボックス,0
415,2122001039631,新規,0,2025-09-19,2025-09-19,日本殷布株式会社,,株式会社,大阪府,東大阪市,源氏ケ丘１番１３－４０６号室,,27,227,5770822,,,,,,,2025-09-19,1,,,,,ニホンインフ,0
424,2140003022595,新規,0,2025-09-19,2025-09-19,合同会社Ａｕｒａ,,合同会社,兵庫県,神戸市中央区,山本通４丁目８番１２－４０３号,,28,110,6500003,,,,,,,2025-09-19,1,,,,,アウラ,0
427,2160003003602,新規,0,2025-09-19,2025-09-19,合同会社聖コーポレーション,,合同会社,滋賀県,東近江市,札の辻１丁目６番１号,00140724,25,213,5270024,,,,,,,2025-09-19,1,,,,,ヒジリコーポレーション,0
434,2180001168610,新規,0,2025-09-19,2025-09-19,株式会社はしもと園芸,,株式会社,愛知県,愛西市,小茂井町中屋敷３１番地,,23,232,4960944,,,,,,,2025-09-19,1,,,,,ハシモトエンゲイ,0
435,2180001168676,新規,0,2025-09-19,2025-09-19,Ｆａｙｙａｚ＆Ｓｏｎｓ株式会社,,株式会社,愛知県,名古屋市港区,神宮寺２丁目１０２番地（シャトービオレ１０２‐２Ｂ号）,,23,111,4550834,,,,,,,2025-09-19,1,,,,,ファヤズアンドサンズ,0
436,2180003029026,新規,0,2025-09-19,2025-09-19,合同会社ミラステ,,合同会社,愛知県,名古屋市中村区,靖国町１丁目５４番地（サンライズヤスクニ２Ｂ号）,,23,105,4530065,,,,,,,2025-09-19,1,,,,,ミラステ,0
437,2180003029042,新規,0,2025-09-19,2025-09-19,越日国際開発合同会社,,合同会社,愛知県,名古屋市中村区,大秋町３丁目４０新栄マンション,,23,105,4530042,,,,,,,2025-09-19,1,,,,,エツニチコクサイカイハツ,0
438,2180003029067,新規,0,2025-09-19,2025-09-19,合同会社ランドリーチ,,合同会社,愛知県,名古屋市千種区,竹越１丁目５番２２号－１,,23,101,4640007,,,,,,,2025-09-19,1,,,,,ランドリーチ,0
439,2180003029083,新規,0,2025-09-19,2025-09-19,Ｐｅａｋ＆Ｓｐｉｃｅ合同会社,,合同会社,愛知県,名古屋市守山区,小幡３丁目２０番３３号,,23,113,4630011,,,,,,,2025-09-19,1,,,,,ピークアンドスパイス,0
440,2180301040213,新規,0,2025-09-19,2025-09-19,株式会社ファーストウィン,,株式会社,愛知県,安城市,花ノ木町７番１６号,,23,212,4460039,,,,,,,2025-09-19,1,,,,,ファーストウィン,0
451,2220001026929,新規,0,2025-09-19,2025-09-19,株式会社Ｂｅ．カラフル,,株式会社,石川県,金沢市,此花町７番８号カーニープレイス金沢第二ビル８階,,17,201,9200852,,,,,,,2025-09-19,1,,,,,ビーカラフル,0
459,2270001009284,新規,0,2025-09-19,2025-09-19,株式会社ＳＤ　ＫＨＡＮ　ＴＲＡＤＩＮＧ,,株式会社,鳥取県,倉吉市,中河原５２３番地１５,,31,203,6820856,,,,,,,2025-09-19,1,,,,,エスディーカーントレイディング,0
467,2290001111393,新規,0,2025-09-19,2025-09-19,株式会社ｏｄｄ　ｌｉｔ　ｃｒｏｗｄ,,株式会社,福岡県,福岡市中央区,高砂２丁目６－２０高砂コーポ１Ｆ,,40,133,8100011,,,,,,,2025-09-19,1,,,,,オッドリットクラウド,0
473,2290803005157,新規,0,2025-09-19,2025-09-19,ＡＩＷＡ　ＩＮＴＥＲＮＡＴＩＯＮＡＬ合同会社,,合同会社,福岡県,行橋市,大字入覚７９９番地２,,40,213,8240077,,,,,,,2025-09-19,1,,,,,アイワインターナショナル,0
477,2300003002341,新規,0,2025-09-19,2025-09-19,合同会社Ａｘｉｏｎ,,合同会社,佐賀県,唐津市,鏡４１９０番地１パインヴィレッジＢ,,41,202,8470022,,,,,,,2025-09-19,1,,,,,アクシオン,0
486,2360001035783,新規,0,2025-09-19,2025-09-19,３９ソリューションズ株式会社,,株式会社,沖縄県,うるま市,安慶名３丁目１９０番１,,47,213,9042214,,,,,,,2025-09-19,1,,,,,サンキュウソリューションズ,0
487,2360001035791,新規,0,2025-09-19,2025-09-19,浜猫株式会社,,株式会社,沖縄県,中頭郡読谷村,字座喜味１５７番１階１０３号室,,47,324,9040301,,,,,,,2025-09-19,1,,,,,ハマネコ,0
488,2360003015247,新規,0,2025-09-19,2025-09-19,合同会社円Ｌｉｎｋ,,合同会社,沖縄県,うるま市,石川曙２丁目４番２２号,,47,213,9041107,,,,,,,2025-09-19,1,,,,,マルリンク,0
495,2380001035583,新規,0,2025-09-19,2025-09-19,株式会社むしの里,,株式会社,福島県,東白川郡矢祭町,大字小田川字弥三郎内２番地虫の里・福島奥久慈昆虫館内,,07,482,9635119,,,,,,,2025-09-19,1,,,,,ムシノサト,0
496,2390001018109,新規,0,2025-09-19,2025-09-19,株式会社ＨＡ．ＮＡ,,株式会社,山形県,上山市,長清水３丁目２番７３号,,06,207,9993232,,,,,,,2025-09-19,1,,,,,ハナ,0
507,2430003018143,新規,0,2025-09-19,2025-09-19,教育行政探究コモンズ合同会社,,合同会社,北海道,札幌市中央区,南十四条西５丁目１－３パークスクエア中島公園１２０７,,01,101,0640914,,,,,,,2025-09-19,1,,,,,キョウイクギョウセイタンキュウコモンズ,0
508,2450001014737,新規,0,2025-09-19,2025-09-19,株式会社青木表装店,,株式会社,北海道,旭川市,神居六条１０丁目３番９号エスベランサ１０２号室,,01,204,0708016,,,,,,,2025-09-19,1,,,,,アオキヒョウソウテン,0
509,2450005004461,新規,0,2025-09-19,2025-09-19,医療法人社団茉永会,,その他の設立登記法人,北海道,旭川市,永山五条１９丁目１－４０－３,,01,204,0798415,,,,,,,2025-09-19,1,,,,,マナカイ,0
516,2500003003591,新規,0,2025-09-19,2025-09-19,合同会社エンゲージ,,合同会社,愛媛県,松山市,道後多幸町５番２７号コーポ山下２０１,,38,201,7900841,,,,,,,2025-09-19,1,,,,,エンゲージ,0
523,2700150132306,新規,0,2025-09-19,2025-09-19,ＰＲＥＭＩＣＡＲ　ＩＮＴＥＲＮＡＴＩＯＮＡＬ,,外国会社等,千葉県,茂原市,東郷９０番地１東郷オフィス３,,12,210,2970017,スリランカ民主社会主義共和国、バッドゥッラ、プワックガダムッラ、マヒヤンガナロード、Ｎｏ．１６４／１,,,,,,2025-09-19,1,,,,,プレミカーインターナシヨナル,0
533,3010001258600,新規,0,2025-09-19,2025-09-19,株式会社田家,,株式会社,東京都,千代田区,東神田１丁目４番１号,,13,101,1010031,,,,,,,2025-09-19,1,,,,,タヤ,0
536,3010003048743,新規,0,2025-09-19,2025-09-19,Ｙｕａｎｏｓ合同会社,,合同会社,東京都,中央区,銀座１丁目１２－４Ｎ＆ＥＢＬＤ．７階,,13,102,1040061,,,,,,,2025-09-19,1,,,,,ユアノス,0
537,3010003048801,新規,0,2025-09-19,2025-09-19,日光Ｐｌｕｓ２４合同会社５,,合同会社,東京都,千代田区,丸の内１丁目４番１号東京共同会計事務所内,,13,101,1000005,,,,,,,2025-09-19,1,,,,,ニッコウプラストゥエンティフォーゴ,0
539,3010401193117,新規,0,2025-09-19,2025-09-19,ＮＯ　ＢＵＬＬ　ＡＩ株式会社,,株式会社,東京都,港区,赤坂３丁目１３番６号,,13,103,1070052,,,,,,,2025-09-19,1,,,,,ノーブルエーアイ,0
543,3010403036067,新規,0,2025-09-19,2025-09-19,合同会社サルビア,,合同会社,東京都,港区,北青山１丁目２番３号,,13,103,1070061,,,,,,,2025-09-19,1,,,,,サルビア,0
546,3010405024689,新規,0,2025-09-19,2025-09-19,一般財団法人鎌田記念財団,,その他の設立登記法人,東京都,港区,六本木３丁目１７番１２－８０２号,,13,103,1060032,,,,,,,2025-09-19,1,,,,,カマタキネンザイダン,0
550,3010603011803,新規,0,2025-09-19,2025-09-19,合同会社リベルタ,,合同会社,東京都,墨田区,両国１丁目１４－９－２０１,,13,107,1300026,,,,,,,2025-09-19,1,,,,,リベルタ,0
553,3010703007916,新規,0,2025-09-19,2025-09-19,Ｃ・Ｂ合同会社,,合同会社,東京都,品川区,戸越６丁目１８番５号戸越ＮＫビル３０３,,13,109,1420041,,,,,,,2025-09-19,1,,,,,シービー,0
555,3010803005547,新規,0,2025-09-19,2025-09-19,Ｓｉｄｅｋｉｃｋ合同会社,,合同会社,東京都,大田区,南馬込５丁目３番１３号,,13,111,1430025,,,,,,,2025-09-19,1,,,,,サイドキック,0
557,3010903010273,新規,0,2025-09-19,2025-09-19,ＨＡＴ＆Ｈ合同会社,,合同会社,東京都,世田谷区,若林３丁目２４番５号,,13,112,1540023,,,,,,,2025-09-19,1,,,,,エイチエーティーアンドエイチ,0
564,3011001172080,新規,0,2025-09-19,2025-09-19,株式会社Ｋａｌｏｗａｖｅ　Ｊａｐａｎ,,株式会社,東京都,渋谷区,道玄坂１丁目１０－８渋谷道玄坂東急ビル２Ｆ－Ｃ,,13,113,1500043,,,,,,,2025-09-19,1,,,,,カロウェーヴジャパン,0
565,3011001172097,新規,0,2025-09-19,2025-09-19,澤霊株式会社,,株式会社,東京都,渋谷区,神宮前１丁目２３番２８号,,13,113,1500001,,,,,,,2025-09-19,1,,,,,サワレイ,0
566,3011001172114,新規,0,2025-09-19,2025-09-19,株式会社ｏｔｔｏ,,株式会社,東京都,渋谷区,渋谷２丁目５番３号,,13,113,1500002,,,,,,,2025-09-19,1,,,,,オット,0
567,3011001172155,新規,0,2025-09-19,2025-09-19,株式会社ＧａｍｉｎｇＨｉｋａｒｉ,,株式会社,東京都,渋谷区,南平台町２－８日興パレス南平台アヅマ＃５０１,,13,113,1500036,,,,,,,2025-09-19,1,,,,,ゲーミングヒカリ,0
568,3011001172519,新規,0,2025-09-19,2025-09-19,株式会社ＬＵＤＯＡ,,株式会社,東京都,目黒区,下目黒１丁目１番１４号コノトラビル７Ｆ,,13,110,1530064,,,,,,,2025-09-19,1,,,,,ルドア,0
569,3011003022424,新規,0,2025-09-19,2025-09-19,合同会社Ｍａｒｕｃａ,,合同会社,東京都,渋谷区,神宮前６丁目２３番４号桑野ビル２階,,13,113,1500001,,,,,,,2025-09-19,1,,,,,マルーカ,0
570,3011003022531,新規,0,2025-09-19,2025-09-19,ＫＡＶＫＡ合同会社,,合同会社,東京都,渋谷区,広尾１丁目２番地１号ヒカリビル４階,,13,113,1500012,,,,,,,2025-09-19,1,,,,,カフカ,0
576,3011101113100,新規,0,2025-09-19,2025-09-19,株式会社ＳｙｖｉＸ,,株式会社,東京都,新宿区,西新宿３丁目３番１３号西新宿水間ビル２Ｆ,,13,104,1600023,,,,,,,2025-09-19,1,,,,,シヴィクス,0
577,3011101113125,新規,0,2025-09-19,2025-09-19,株式会社ｅｎ,,株式会社,東京都,新宿区,大久保１丁目１１番１号大森ビル７Ｆ,,13,104,1690072,,,,,,,2025-09-19,1,,,,,エン,0
578,3011101113133,新規,0,2025-09-19,2025-09-19,２４Ｖｉｃｔｏｒｙ株式会社,,株式会社,東京都,新宿区,余丁町６番８号,,13,104,1620055,,,,,,,2025-09-19,1,,,,,イーシッブシービクトリー,0
579,3011101113232,新規,0,2025-09-19,2025-09-19,株式会社ＶｉｓｕａＲｉｓｅ,,株式会社,東京都,新宿区,西新宿３丁目３番１３号西新宿水間ビル６階,,13,104,1600023,,,,,,,2025-09-19,1,,,,,ビジュアライズ,0
580,3011101113249,新規,0,2025-09-19,2025-09-19,ＤＩＮ　ＤＩＮ株式会社,,株式会社,東京都,新宿区,百人町１丁目１８－８大久保カドビル４０４室１１３号,,13,104,1690073,,,,,,,2025-09-19,1,,,,,ディンディン,0
581,3011103016409,新規,0,2025-09-19,2025-09-19,プレステージ合同会社,,合同会社,東京都,新宿区,下落合３丁目１０番２２号,,13,104,1610033,,,,,,,2025-09-19,1,,,,,プレステージ,0
587,3011105011580,新規,0,2025-09-19,2025-09-19,一般社団法人おそうじアカデミア,,その他の設立登記法人,東京都,新宿区,住吉町２－１０ソフィアＭ４Ｆ,,13,104,1620065,,,,,,,2025-09-19,1,,,,,オソウジアカデミア,0
594,3011403004856,新規,0,2025-09-19,2025-09-19,朗岳デザイン＆ブランディング合同会社,,合同会社,東京都,板橋区,成増２丁目１７番２０号,,13,119,1750094,,,,,,,2025-09-19,1,,,,,ロウガクデザインアンドブランディング,0
598,3011701028739,新規,0,2025-09-19,2025-09-19,株式会社昴クレスト,,株式会社,東京都,江戸川区,東葛西４丁目１番１１－６０２号,,13,123,1340084,,,,,,,2025-09-19,1,,,,,スバルクレスト,0
602,3011803007079,新規,0,2025-09-19,2025-09-19,誠和合同会社,,合同会社,東京都,葛飾区,堀切７丁目２７－７名橋ビル２１０号室,,13,122,1240006,,,,,,,2025-09-19,1,,,,,セイワ,0
604,3012803003869,新規,0,2025-09-19,2025-09-19,マルイ合同会社,,合同会社,東京都,日野市,新井２丁目１９番地の１５－１０３号室,,13,212,1910022,,,,,,,2025-09-19,1,,,,,マルイ,0
609,3013301054966,新規,0,2025-09-19,2025-09-19,光テジ株式会社,,株式会社,東京都,豊島区,巣鴨１丁目１７‐３子野ビル６０２号,,13,116,1700002,,,,,,,2025-09-19,1,,,,,ヒカリテジ,0
625,3021003016508,新規,0,2025-09-19,2025-09-19,ＤＲＥＡＭ　ＣＡＲ合同会社,,合同会社,神奈川県,厚木市,金田７８４－１５金貸家－１０１,,14,212,2430807,,,,,,,2025-09-19,1,,,,,ドリームカー,0
635,3030003027638,新規,0,2025-09-19,2025-09-19,アルファ・ストライク合同会社,,合同会社,埼玉県,さいたま市南区,別所７丁目６番８－６１０号,,11,108,3360021,,,,,,,2025-09-19,1,,,,,アルファストライク,0
637,3030005022273,新規,0,2025-09-19,2025-09-19,一般社団法人日台未来パートナーシップ協会,,その他の設立登記法人,埼玉県,所沢市,小手指町３丁目１５番地小手指ハイツＫ－４０４,,11,208,3591141,,,,,,,2025-09-19,1,,,,,ニッタイミライパートナーシップキョウカイ,0
639,3040001140524,新規,0,2025-09-19,2025-09-19,株式会社Ｉｎｓｐｉｒｏｖｉａ,,株式会社,千葉県,千葉市中央区,弁天４丁目３番１５号Ｔブレイス弁天１０１号,,12,101,2600045,,,,,,,2025-09-19,1,,,,,インスピロビア,0
641,3040003028511,新規,0,2025-09-19,2025-09-19,ＪＬＴ合同会社,,合同会社,千葉県,野田市,中野台７３２番地の１,,12,208,2780035,,,,,,,2025-09-19,1,,,,,ジェイエルティー,0
642,3040005022875,新規,0,2025-09-19,2025-09-19,野村・平野税理士法人,,その他の設立登記法人,千葉県,香取市,南原地新田３５３番地,,12,236,2890332,,,,,,,2025-09-19,1,,,,,ノムラヒラノ,0
644,3050005013700,新規,0,2025-09-19,2025-09-19,医療法人豊鞠会,,その他の設立登記法人,茨城県,つくば市,流星台３８番地３,,08,220,3050008,,,,,,,2025-09-19,1,,,,,ホウキュウカイ,0
645,3060003005748,新規,0,2025-09-19,2025-09-19,ｅｃｈｏ＆ｒｅｍｉｘ合同会社,,合同会社,栃木県,宇都宮市,上大曽町４４８番地１０,,09,201,3200013,,,,,,,2025-09-19,1,,,,,エコーアンドリミックス,0
649,3070003006101,新規,0,2025-09-19,2025-09-19,合同会社サンシード,,合同会社,群馬県,伊勢崎市,西久保町２丁目２６７－７,,10,204,3792204,,,,,,,2025-09-19,1,,,,,サンシード,0
651,3080401028175,新規,0,2025-09-19,2025-09-19,株式会社アサヒグリーン,,株式会社,静岡県,浜松市中央区,鍛冶町１番地の２,,22,138,4300933,,,,,,,2025-09-19,1,,,,,アサヒグリーン,0
654,3090001019508,新規,0,2025-09-19,2025-09-19,株式会社宝華,,株式会社,山梨県,甲府市,中小河原１丁目１２番２９号３階Ｇ号室,,19,201,4000855,,,,,,,2025-09-19,1,,,,,ホウカ,0
656,3100001038968,新規,0,2025-09-19,2025-09-19,ＧｌｏｂａｌＴｅａｍ株式会社,,株式会社,長野県,上伊那郡南箕輪村,９２１９番地,,20,385,3994511,,,,,,,2025-09-19,1,,,,,グローバルチーム,0
670,3120001279577,新規,0,2025-09-19,2025-09-19,星蘭株式会社,,株式会社,大阪府,大阪市中央区,島之内２丁目１０－１２－７０９,,27,128,5420082,,,,,,,2025-09-19,1,,,,,セイラン,0
671,3120001279610,新規,0,2025-09-19,2025-09-19,Ｕプロダクト株式会社,,株式会社,大阪府,大阪市東住吉区,照ケ丘矢田２丁目６番１６号１Ｆ－Ｄ室,,27,121,5460021,,,,,,,2025-09-19,1,,,,,ユープロダクト,0
672,3120001279701,新規,0,2025-09-19,2025-09-19,株式会社乱,,株式会社,大阪府,大阪市西淀川区,歌島１丁目１７番１０号,,27,113,5550021,,,,,,,2025-09-19,1,,,,,ラン,0
673,3120001279726,新規,0,2025-09-19,2025-09-19,株式会社ＯｒｂｉｓＰｏｒｔ,,株式会社,大阪府,大阪市住之江区,粉浜西２丁目７番１７号サニーサイドビル２０２号室,,27,125,5590007,,,,,,,2025-09-19,1,,,,,オルビスポート,0
674,3120001279750,新規,0,2025-09-19,2025-09-19,晨陽株式会社,,株式会社,大阪府,大阪市中央区,本町３丁目３－９－９Ｆ,,27,128,5410053,,,,,,,2025-09-19,1,,,,,シンヨウ,0
675,3120001279767,新規,0,2025-09-19,2025-09-19,株式会社ＬＩＦＩＸ,,株式会社,大阪府,大阪市北区,同心２丁目２番１６－５０１号,,27,127,5300035,,,,,,,2025-09-19,1,,,,,リフィックス,0
676,3120001279775,新規,0,2025-09-19,2025-09-19,杉研貿易株式会社,,株式会社,大阪府,大阪市港区,三先１丁目１２番９号,,27,107,5520016,,,,,,,2025-09-19,1,,,,,スギケンボウエキ,0
677,3120001279817,新規,0,2025-09-19,2025-09-19,一銅株式会社,,株式会社,大阪府,大阪市西成区,玉出西２丁目８－９－４０１号室,,27,122,5570045,,,,,,,2025-09-19,1,,,,,イチドウ,0
680,3120003030616,新規,0,2025-09-19,2025-09-19,嘉祥合同会社,,合同会社,大阪府,大阪市東成区,大今里２丁目６番１８号昇徳ビル１階Ｇ室,,27,115,5370012,,,,,,,2025-09-19,1,,,,,カショウ,0
681,3120003030624,新規,0,2025-09-19,2025-09-19,ｅｎＬｏｏｐ合同会社,,合同会社,大阪府,大阪市西淀川区,歌島１丁目１２番１２－５０６号,,27,113,5550021,,,,,,,2025-09-19,1,,,,,エンループ,0
683,3120101072469,新規,0,2025-09-19,2025-09-19,株式会社ＧＦＬ,,株式会社,大阪府,堺市北区,南花田町４１７－３－１Ｆ,,27,146,5918011,,,,,,,2025-09-19,1,,,,,ジーエフエル,0
684,3120101072477,新規,0,2025-09-19,2025-09-19,株式会社盛和,,株式会社,大阪府,貝塚市,水間５５７番地,,27,208,5970104,,,,,,,2025-09-19,1,,,,,セイワ,0
685,3120101072485,新規,0,2025-09-19,2025-09-19,俊郎株式会社,,株式会社,大阪府,堺市堺区,甲斐町西３丁２－３４,,27,141,5900950,,,,,,,2025-09-19,1,,,,,トシロウ,0
686,3120103006722,新規,0,2025-09-19,2025-09-19,ＭＡ　ＲＡＪＰＯＯＴ　ＴＲＡＤＩＮＧ合同会社,,合同会社,大阪府,松原市,三宅中４丁目４番７号,,27,217,5800046,,,,,,,2025-09-19,1,,,,,エムエラズプトトレーディング,0
687,3120103006730,新規,0,2025-09-19,2025-09-19,合同会社阪口,,合同会社,大阪府,堺市東区,高松５番地,,27,143,5998121,,,,,,,2025-09-19,1,,,,,サカグチ,0
692,3120901051457,新規,0,2025-09-19,2025-09-19,株式会社ゑ美術研究所,,株式会社,大阪府,吹田市,千里丘上８番６号,,27,205,5650811,,,,,,,2025-09-19,1,,,,,エビジュツケンキュウジョ,0
693,3120901051498,新規,0,2025-09-19,2025-09-19,瑞鶴貿易株式会社,,株式会社,大阪府,吹田市,広芝町７番２６号,,27,205,5640052,,,,,,,2025-09-19,1,,,,,ズイカクボウエキ,0
697,3130001080463,新規,0,2025-09-19,2025-09-19,株式会社トラストホールディングス,,株式会社,京都府,京都市伏見区,桃山福島太夫南町８９番地１,,26,109,6120062,,,,,,,2025-09-19,1,,,,,トラストホールディングス,0
698,3130001080513,新規,0,2025-09-19,2025-09-19,株式会社Ｍｉｌｌｅｓｉｍｅ　Ｔｅｒｒａｓｓｅ,,株式会社,京都府,京都市中京区,要法寺前町７０１,,26,104,6040916,,,,,,,2025-09-19,1,,,,,ミレジムテラス,0
703,3130003010773,新規,0,2025-09-19,2025-09-19,合同会社ｓｌｏｏｗｓ,,合同会社,京都府,京都市北区,大宮中林町２６番地２ジャーニ屋敷２０２,,26,101,6038404,,,,,,,2025-09-19,1,,,,,スルーズ,0
704,3130005017461,新規,0,2025-09-19,2025-09-19,一般社団法人おひとり様尊厳ある終活相談所,,その他の設立登記法人,京都府,京都市下京区,東中筋通六条下る学林町２８２番地,,26,106,6008341,,,,,,,2025-09-19,1,,,,,オヒトリサマソンゲンアルシュウカツソウダンショ,0
711,3140003022594,新規,0,2025-09-19,2025-09-19,合同会社Ｋｕｓｃｈｅｌ,,合同会社,兵庫県,姫路市,御国野町御着４１３番地５,,28,201,6710232,,,,,,,2025-09-19,1,,,,,クシェル,0
712,3140003022603,新規,0,2025-09-19,2025-09-19,合同会社ＲＩＮＡ　ＧＯＬＤ,,合同会社,兵庫県,尼崎市,汐町５４番地ヴィラ汐町Ｂ１０６,,28,202,6600866,,,,,,,2025-09-19,1,,,,,リナゴールド,0
714,3140005027633,新規,0,2025-09-19,2025-09-19,一般社団法人パフォーマンスインミュージアム実行委員会,,その他の設立登記法人,兵庫県,神戸市東灘区,鴨子ケ原２丁目４番６－２０３号,,28,101,6580064,,,,,,,2025-09-19,1,,,,,パフォーマンスインミュージアムジッコウイインカイ,0
715,3150001028403,新規,0,2025-09-19,2025-09-19,株式会社Ａ　Ｃｈａｌｌｅｎｇｅ,,株式会社,奈良県,橿原市,内膳町３丁目８－３５,,29,205,6340804,,,,,,,2025-09-19,1,,,,,エーチャレンジ,0
717,3160003003584,新規,0,2025-09-19,2025-09-19,合同会社Ｏｎ　Ｙｏｕｒ　Ｍａｒｋ,,合同会社,滋賀県,彦根市,京町３丁目３番２４号,,25,202,5220081,,,,,,,2025-09-19,1,,,,,オンユアマーク,0
725,3180001168444,新規,0,2025-09-19,2025-09-19,株式会社バーミキュラレストラン,,株式会社,愛知県,名古屋市中川区,宗円町１丁目２８番地,,23,110,4540821,,,,,,,2025-09-19,1,,,,,バーミキュラレストラン,0
726,3180001168642,新規,0,2025-09-19,2025-09-19,株式会社Ｓｈｉｎｇ　Ｏｎ,,株式会社,愛知県,名古屋市中村区,名駅３丁目４番１０号アルティメイト名駅１ｓｔ２階,,23,105,4500002,,,,,,,2025-09-19,1,,,,,シングオン,0
727,3180001168675,新規,0,2025-09-19,2025-09-19,株式会社シーマックス,,株式会社,愛知県,名古屋市中川区,馬手町１丁目１０１番地の１,,23,110,4540845,,,,,,,2025-09-19,1,,,,,シーマックス,0
728,3180001168700,新規,0,2025-09-19,2025-09-19,オーエムリンク株式会社,,株式会社,愛知県,名古屋市中区,錦３丁目１３番２５号,,23,106,4600003,,,,,,,2025-09-19,1,,,,,オーエムリンク,0
729,3180001168709,新規,0,2025-09-19,2025-09-19,株式会社ＭＪメディカルサポート,,株式会社,愛知県,名古屋市西区,上名古屋４丁目７番１２号,,23,104,4510025,,,,,,,2025-09-19,1,,,,,エムジェイメディカルサポート,0
737,3180005021228,新規,0,2025-09-19,2025-09-19,特定非営利活動法人アパ,,その他の設立登記法人,愛知県,名古屋市東区,筒井２丁目１２番４０号ウインズ車道６Ｃ,,23,102,4610003,,,,,,,2025-09-19,1,,,,,アパ,0
740,3180301040204,新規,0,2025-09-19,2025-09-19,株式会社Ｗｅｌ　Ｃｏｌｏｒ,,株式会社,愛知県,碧南市,前浜町５丁目３２番地,,23,209,4470827,,,,,,,2025-09-19,1,,,,,ウェルカラー,0
741,3190001032541,新規,0,2025-09-19,2025-09-19,興盛ネクサス株式会社,,株式会社,三重県,桑名市,長島町押付４５３番地２階,,24,205,5111113,,,,,,,2025-09-19,1,,,,,コウセイネクサス,0
742,3190003005181,新規,0,2025-09-19,2025-09-19,合同会社まはろ,,合同会社,三重県,鈴鹿市,高塚町１０８３番地の６,,24,207,5130011,,,,,,,2025-09-19,1,,,,,マハロ,0
748,3210005010227,新規,0,2025-09-19,2025-09-19,医療法人長谷川歯科医院,,その他の設立登記法人,福井県,大野市,元町７番２１号,,18,205,9120081,,,,,,,2025-09-19,1,,,,,ハセガワシカイイン,0
756,3250003003815,新規,0,2025-09-19,2025-09-19,Ｂｕｚｏｎ合同会社,,合同会社,山口県,光市,光井２丁目７番２４号,,35,210,7430011,,,,,,,2025-09-19,1,,,,,ブゾン,0
759,3260001040561,新規,0,2025-09-19,2025-09-19,Ｊａｐａｎ　Ａｒｃｓ株式会社,,株式会社,岡山県,倉敷市,西中新田２１５番地１０ビ・ボーンＢ棟１０６号室,,33,202,7100833,,,,,,,2025-09-19,1,,,,,ジャパンアークス,0
761,3260003005348,新規,0,2025-09-19,2025-09-19,合同会社インフィニティ８,,合同会社,岡山県,岡山市北区,京山１丁目２－２１,,33,101,7000015,,,,,,,2025-09-19,1,,,,,インフィニティエイト,0
765,3270005005659,新規,0,2025-09-19,2025-09-19,特定非営利活動法人鳥取盲ろう者友の会友輪,,その他の設立登記法人,鳥取県,米子市,旗ヶ崎６丁目１９－３６,,31,202,6830845,,,,,,,2025-09-19,1,,,,,トットリモウロウシャトモノカイユウリン,0
771,3290001111517,新規,0,2025-09-19,2025-09-19,株式会社グロースナレッジ,,株式会社,福岡県,福岡市南区,若久３丁目１４番２５号,,40,134,8150042,,,,,,,2025-09-19,1,,,,,グロースナレッジ,0
777,3290803005156,新規,0,2025-09-19,2025-09-19,ＢＥＳＴ合同会社,,合同会社,福岡県,北九州市小倉北区,大門２丁目１番２０号大門ビル６０４号室,,40,106,8030811,,,,,,,2025-09-19,1,,,,,ベスト,0
780,3320003004772,新規,0,2025-09-19,2025-09-19,合同会社シエロ,,合同会社,大分県,大分市,西新地１丁目１０番１号,,44,201,8700901,,,,,,,2025-09-19,1,,,,,シエロ,0
784,3330001033582,新規,0,2025-09-19,2025-09-19,株式会社ｐｏｔｅｎｔｉａｌ,,株式会社,熊本県,熊本市北区,八景水谷４丁目３番５８号,,43,105,8618064,,,,,,,2025-09-19,1,,,,,ポテンシャル,0
788,3340003004952,新規,0,2025-09-19,2025-09-19,合同会社北園商会,,合同会社,鹿児島県,いちき串木野市,湊町１４８－１,,46,219,8992101,,,,,,,2025-09-19,1,,,,,キタゾノショウカイ,0
789,3350001019737,新規,0,2025-09-19,2025-09-19,セイコー電気株式会社,,株式会社,宮崎県,宮崎市,大島町南窪８４７番地３,,45,201,8800824,,,,,,,2025-09-19,1,,,,,セイコーデンキ,0
790,3360001035758,新規,0,2025-09-19,2025-09-19,株式会社ＲＡＣＡ,,株式会社,沖縄県,那覇市,松島１丁目１３番１５号城光ヒルズ５０１,,47,201,9020069,,,,,,,2025-09-19,1,,,,,ラカ,0
791,3360003015246,新規,0,2025-09-19,2025-09-19,合同会社石原,,合同会社,沖縄県,宜野湾市,我如古２丁目２４番７－１０１号メゾン石原,,47,205,9012214,,,,,,,2025-09-19,1,,,,,イシハラ,0
798,3380001035590,新規,0,2025-09-19,2025-09-19,株式会社ワイブラン,,株式会社,福島県,喜多方市,関柴町西勝字井戸尻４８番地１,,07,208,9660014,,,,,,,2025-09-19,1,,,,,ワイブラン,0
819,3450001014736,新規,0,2025-09-19,2025-09-19,株式会社ひがしかわ企画,,株式会社,北海道,上川郡東川町,東町３丁目４番５号,,01,458,0711423,,,,,,,2025-09-19,1,,,,,ヒガシカワキカク,0
820,3480001012951,新規,0,2025-09-19,2025-09-19,株式会社勝鮎,,株式会社,徳島県,徳島市,北沖洲１丁目１４番３－１１号,,36,201,7700872,,,,,,,2025-09-19,1,,,,,カツアユ,0
821,3700150132305,新規,0,2025-09-19,2025-09-19,ＭＩＨＩＮＴＡＬＥ　ＥＮＴＥＲＰＲＩＳＥＳ,,外国会社等,神奈川県,横浜市戸塚区,舞岡町３３２０－２７,,14,110,2440813,スリランカ民主社会主義共和国、ＮＯ．１６２／１、サーキュラーロード、マラダンカダベラ,,,,,,2025-09-19,1,,,,,ミヒンタレエンタプライゼス,0
832,4010003048800,新規,0,2025-09-19,2025-09-19,日光Ｐｌｕｓ２４合同会社４,,合同会社,東京都,千代田区,丸の内１丁目４番１号東京共同会計事務所内,,13,101,1000005,,,,,,,2025-09-19,1,,,,,ニッコウプラストゥエンティフォーヨン,0
839,4010401193198,新規,0,2025-09-19,2025-09-19,株式会社ＳＡＯ融資支援センター,,株式会社,東京都,港区,赤坂２丁目１４番５号Ｄａｉｗａ赤坂ビル７階,,13,103,1070052,,,,,,,2025-09-19,1,,,,,エスエーオーユウシシエンセンター,0
840,4010401193215,新規,0,2025-09-19,2025-09-19,ＲＡＩ　Ｒｅａｌｔｙ株式会社,,株式会社,東京都,港区,元麻布３丁目１番６号,,13,103,1060046,,,,,,,2025-09-19,1,,,,,アールエーアイリアルティ,0
841,4010403036066,新規,0,2025-09-19,2025-09-19,合同会社ドラセナ,,合同会社,東京都,港区,北青山１丁目２番３号,,13,103,1070061,,,,,,,2025-09-19,1,,,,,ドラセナ,0
842,4010501054713,新規,0,2025-09-19,2025-09-19,桜光株式会社,,株式会社,東京都,台東区,上野６丁目７－１６川久保ビル８１２号室,,13,106,1100005,,,,,,,2025-09-19,1,,,,,サクラヒカリ,0
843,4010603011802,新規,0,2025-09-19,2025-09-19,合同会社トレア,,合同会社,東京都,墨田区,石原１丁目２３－５ランドフォレスト両国２階,,13,107,1300011,,,,,,,2025-09-19,1,,,,,トレア,0
847,4010803005546,新規,0,2025-09-19,2025-09-19,友成合同会社,,合同会社,東京都,大田区,東海３丁目７番３号東海ビル２０２号,,13,111,1430001,,,,,,,2025-09-19,1,,,,,ユウセイ,0
858,4011001172096,新規,0,2025-09-19,2025-09-19,ＭＡＮＹＵ株式会社,,株式会社,東京都,渋谷区,神宮前１丁目２３番２８号,,13,113,1500001,,,,,,,2025-09-19,1,,,,,マンユー,0
859,4011001172113,新規,0,2025-09-19,2025-09-19,株式会社セントラルメディカルバンク,,株式会社,東京都,渋谷区,恵比寿南１丁目１６－３恵比寿一丁目ビル３階,,13,113,1500022,,,,,,,2025-09-19,1,,,,,セントラルメディカルバンク,0
860,4011001172583,新規,0,2025-09-19,2025-09-19,株式会社ＳＩＳＡＫＵ,,株式会社,東京都,渋谷区,円山町５番３号ＭＩＥＵＸ渋谷ビル８階,,13,113,1500044,,,,,,,2025-09-19,1,,,,,シサク,0
861,4011001172600,新規,0,2025-09-19,2025-09-19,株式会社ＬＵＮＯＡ,,株式会社,東京都,渋谷区,道玄坂１丁目１９－１３トップヒル並木５階,,13,113,1500043,,,,,,,2025-09-19,1,,,,,ルノア,0
867,4011003022415,新規,0,2025-09-19,2025-09-19,合同会社ＥＤＥＮ,,合同会社,東京都,渋谷区,神宮前１丁目２３番８－６０９号ブリスベージュ神宮前,,13,113,1500001,,,,,,,2025-09-19,1,,,,,エデン,0
871,4011101113058,新規,0,2025-09-19,2025-09-19,株式会社変革,,株式会社,東京都,新宿区,新宿２丁目１２番１３号新宿アントレサロンビル２階,,13,104,1600022,,,,,,,2025-09-19,1,,,,,ヘンカク,0
872,4011101113140,新規,0,2025-09-19,2025-09-19,サイキ国際株式会社,,株式会社,東京都,新宿区,百人町１丁目１８番８号大久保カドビルＬｉｎｋＳｐａｃｅ百人町Ｃ０３,,13,104,1690073,,,,,,,2025-09-19,1,,,,,サイキコクサイ,0
873,4011101113264,新規,0,2025-09-19,2025-09-19,株式会社ゲートプロダクション,,株式会社,東京都,新宿区,西新宿３丁目７番２１号陽輪台西新宿ビル１００２号室,,13,104,1600023,,,,,,,2025-09-19,1,,,,,ゲートプロダクション,0
874,4011101113330,新規,0,2025-09-19,2025-09-19,株式会社Ｒｉｓｅ　Ｏｐｔｉｏｎ,,株式会社,東京都,新宿区,西新宿１丁目４―１１,,13,104,1600023,,,,,,,2025-09-19,1,,,,,ライズオプション,0
875,4011101113347,新規,0,2025-09-19,2025-09-19,ＦＹコンサルティング株式会社,,株式会社,東京都,新宿区,西新宿７丁目１９－７エクセリア新宿第２－２０１,,13,104,1600023,,,,,,,2025-09-19,1,,,,,エフワイコンサルティング,0
877,4011103016390,新規,0,2025-09-19,2025-09-19,一品騰達合同会社,,合同会社,東京都,新宿区,百人町２丁目５－４土屋ビル２ＦＬｉｎｋＳｐａｃｅＮ１３号室,,13,104,1690073,,,,,,,2025-09-19,1,,,,,イッピントウタツ,0
878,4011103016399,新規,0,2025-09-19,2025-09-19,合同会社りん,,合同会社,東京都,新宿区,西新宿３丁目３番１３号西新宿水間ビル２Ｆ,,13,104,1600023,,,,,,,2025-09-19,1,,,,,リン,0
879,4011203004808,新規,0,2025-09-19,2025-09-19,サステナブルドリーム合同会社,,合同会社,東京都,中野区,若宮２丁目５４－１０,,13,114,1650033,,,,,,,2025-09-19,1,,,,,サステナブルドリーム,0
880,4011301030904,新規,0,2025-09-19,2025-09-19,ａｓ建築設計株式会社,,株式会社,東京都,杉並区,天沼２丁目３９番１７号,,13,115,1670032,,,,,,,2025-09-19,1,,,,,エーエスケンチクセッケイ,0
881,4011403004855,新規,0,2025-09-19,2025-09-19,ＡＮＹ合同会社,,合同会社,東京都,板橋区,若木１丁目１５－２４つる荘２０１号,,13,119,1740065,,,,,,,2025-09-19,1,,,,,エーエンワイ,0
884,4011501032502,新規,0,2025-09-19,2025-09-19,株式会社美燈,,株式会社,東京都,荒川区,町屋８丁目１２－１３ドゥーエ２（７０２）,,13,118,1160001,,,,,,,2025-09-19,1,,,,,ビトウ,0
885,4011501032584,新規,0,2025-09-19,2025-09-19,三和株式会社,,株式会社,東京都,北区,滝野川５丁目２４番７号コーポサンライン２０１室,,13,117,1140023,,,,,,,2025-09-19,1,,,,,ミワ,0
890,4011601028986,新規,0,2025-09-19,2025-09-19,株式会社Ｈｅｒｏ　Ａｃａｄｅｍｉａ,,株式会社,東京都,練馬区,中村南２丁目１３番１５号,,13,120,1760025,,,,,,,2025-09-19,1,,,,,ヒーローアカデミア,0
892,4011801046763,新規,0,2025-09-19,2025-09-19,株式会社プログレス,,株式会社,東京都,足立区,青井３丁目４番４号,,13,121,1200012,,,,,,,2025-09-19,1,,,,,プログレス,0
899,4013301054981,新規,0,2025-09-19,2025-09-19,株式会社ＳＳＧＥエネルギー,,株式会社,東京都,豊島区,池袋本町４丁目３３番３号レイアス池袋本町１０２号室,,13,116,1700011,,,,,,,2025-09-19,1,,,,,エスエスジイエネルギー,0
904,4020001164912,新規,0,2025-09-19,2025-09-19,株式会社ＳＨＷＥ　ＴＵＮ,,株式会社,神奈川県,川崎市川崎区,渡田向町７番４－３０２号,,14,131,2100841,,,,,,,2025-09-19,1,,,,,シュエートン,0
915,4030001168598,新規,0,2025-09-19,2025-09-19,ローブリー株式会社,,株式会社,埼玉県,川口市,西川口６丁目４番６号第二荻島ビル２０５号室,,11,203,3320021,,,,,,,2025-09-19,1,,,,,ローブリー,0
918,4030003027645,新規,0,2025-09-19,2025-09-19,ＺＥＮＴＲＯ合同会社,,合同会社,埼玉県,狭山市,富士見２丁目２３番１２号,,11,215,3501306,,,,,,,2025-09-19,1,,,,,ゼントロ,0
919,4030003027661,新規,0,2025-09-19,2025-09-19,ｅｎｅｋｏ　ｓｔｕｄｉｏ合同会社,,合同会社,埼玉県,川口市,西川口１丁目３０番２０－１１０号室,,11,203,3320021,,,,,,,2025-09-19,1,,,,,エネコスタジオ,0
921,4040001140498,新規,0,2025-09-19,2025-09-19,株式会社Ｋフィールドマネジメント,,株式会社,千葉県,鎌ケ谷市,北初富７番５４号,,12,224,2730126,,,,,,,2025-09-19,1,,,,,ケーフィールドマネジメント,0
922,4040001140580,新規,0,2025-09-19,2025-09-19,ＪＡＰＡＮＪＯＵＲＮＥＹＳ株式会社,,株式会社,千葉県,松戸市,栗ケ沢７９４番地の５２－１Ｆ,,12,207,2700022,,,,,,,2025-09-19,1,,,,,ジャパンジャニーズ,0
923,4040003028543,新規,0,2025-09-19,2025-09-19,５ＬＯＧＩ合同会社,,合同会社,千葉県,市原市,椎津２７６１－５,,12,219,2990118,,,,,,,2025-09-19,1,,,,,ファイブロジ,0
925,4050001057213,新規,0,2025-09-19,2025-09-19,株式会社ジャパントランスポート,,株式会社,茨城県,坂東市,寺久１３５４番地１０,,08,228,3060656,,,,,,,2025-09-19,1,,,,,ジャパントランスポート,0
926,4050001057279,新規,0,2025-09-19,2025-09-19,株式会社Ｍｉｃｔ,,株式会社,茨城県,神栖市,若松中央４丁目６４番,,08,232,3140256,,,,,,,2025-09-19,1,,,,,ミクト,0
927,4050001057304,新規,0,2025-09-19,2025-09-19,ＢＡＫＩ株式会社,,株式会社,茨城県,稲敷郡阿見町,大字若栗１３０７－２１－１号室,,08,443,3000333,,,,,,,2025-09-19,1,,,,,バキ,0
930,4050003009567,新規,0,2025-09-19,2025-09-19,合同会社ＫＯＫＥＮ,,合同会社,茨城県,つくば市,高野台３丁目１６番６号,,08,220,3050074,,,,,,,2025-09-19,1,,,,,コケン,0
935,4080101025793,新規,0,2025-09-19,2025-09-19,株式会社手荷物預かり所,,株式会社,静岡県,熱海市,田原本町９番１号第一ビル１階,,22,205,4130011,,,,,,,2025-09-19,1,,,,,テニモツアズカリジョ,0
942,4090003002898,新規,0,2025-09-19,2025-09-19,ＲＥＮＡＴＯ合同会社,,合同会社,山梨県,笛吹市,春日居町鎮目６９７,,19,211,4060015,,,,,,,2025-09-19,1,,,,,レナト,0
943,4090005007739,新規,0,2025-09-19,2025-09-19,医療法人整花会,,その他の設立登記法人,山梨県,甲府市,城東４丁目１７番５号,,19,201,4000861,,,,,,,2025-09-19,1,,,,,セイカカイ,0
944,4100001038967,新規,0,2025-09-19,2025-09-19,株式会社極美,,株式会社,長野県,上田市,下之条１４９番地１５６,,20,203,3861101,,,,,,,2025-09-19,1,,,,,キワミ,0
955,4120001279675,新規,0,2025-09-19,2025-09-19,株式会社Ｂｌｏｏｍｅｎｔ,,株式会社,大阪府,大阪市中央区,南久宝寺町４丁目６番６－８０３号,,27,128,5410058,,,,,,,2025-09-19,1,,,,,ブルーメント,0
956,4120001279691,新規,0,2025-09-19,2025-09-19,株式会社楽生,,株式会社,大阪府,大阪市住之江区,西加賀屋４丁目３番５－１１０４号,,27,125,5590016,,,,,,,2025-09-19,1,,,,,ラクセイ,0
957,4120001279700,新規,0,2025-09-19,2025-09-19,株式会社Ｓｗａｌｅｌ　Ｂｅｌｅ,,株式会社,大阪府,大阪市此花区,四貫島１丁目２番２－１４１１号,,27,104,5540014,,,,,,,2025-09-19,1,,,,,スワエルベレ,0
958,4120001279741,新規,0,2025-09-19,2025-09-19,株式会社クルーズワークス,,株式会社,大阪府,大阪市住吉区,長居西１丁目１４番２７号,,27,120,5580002,,,,,,,2025-09-19,1,,,,,クルーズワークス,0
959,4120001279766,新規,0,2025-09-19,2025-09-19,株式会社Ｋｉｏｒａ,,株式会社,大阪府,大阪市中央区,谷町７丁目４番２２号,,27,128,5420012,,,,,,,2025-09-19,1,,,,,キオラ,0
960,4120001279774,新規,0,2025-09-19,2025-09-19,株式会社ムービング,,株式会社,大阪府,大阪市阿倍野区,文の里４丁目２２番１４号,,27,119,5450004,,,,,,,2025-09-19,1,,,,,ムービング,0
961,4120001279824,新規,0,2025-09-19,2025-09-19,ＬＯＹＡＬＦＡＭ株式会社,,株式会社,大阪府,大阪市中央区,難波千日前１２番２８号大阪難波ビル５階,,27,128,5420075,,,,,,,2025-09-19,1,,,,,ロイヤルファム,0
962,4120001279907,新規,0,2025-09-19,2025-09-19,株式会社宇田商店,,株式会社,大阪府,大阪市城東区,野江３丁目５番２７号,,27,118,5360006,,,,,,,2025-09-19,1,,,,,ウダショウテン,0
963,4120001279915,新規,0,2025-09-19,2025-09-19,奈那ＧＯ株式会社,,株式会社,大阪府,大阪市旭区,清水３丁目３０－１８コスモレジデンス千林３階,,27,117,5350021,,,,,,,2025-09-19,1,,,,,ナナゴー,0
964,4120001279980,新規,0,2025-09-19,2025-09-19,株式会社美惠,,株式会社,大阪府,大阪市中央区,玉造１丁目６番２２号アーバンコート玉造４階４１０号室,,27,128,5400004,,,,,,,2025-09-19,1,,,,,ミエ,0
967,4120003030557,新規,0,2025-09-19,2025-09-19,合同会社御殿山ネクスト,,合同会社,大阪府,枚方市,御殿山町６－９ベルフラワー御殿山１０３,,27,210,5731182,,,,,,,2025-09-19,1,,,,,コテンヤマネクスト,0
968,4120003030598,新規,0,2025-09-19,2025-09-19,ＨＢＬ合同会社,,合同会社,大阪府,大阪市港区,市岡１丁目４－３富士ビル４０８号,,27,107,5520012,,,,,,,2025-09-19,1,,,,,エイチビーエル,0
969,4120003030607,新規,0,2025-09-19,2025-09-19,合盛合同会社,,合同会社,大阪府,大阪市生野区,巽中２丁目２２－１９辰巳マンション２０６号室,,27,116,5440013,,,,,,,2025-09-19,1,,,,,ゴウセイ,0
970,4120003030615,新規,0,2025-09-19,2025-09-19,ＨＩＭＡＬ合同会社,,合同会社,大阪府,大阪市西淀川区,姫里２丁目１０番１０号,,27,113,5550025,,,,,,,2025-09-19,1,,,,,ヒマル,0
971,4120003030623,新規,0,2025-09-19,2025-09-19,Ｐａｔｈ　Ｗｏｒｋ合同会社,,合同会社,大阪府,大阪市福島区,海老江１丁目５番３０号１３２５号室,,27,103,5530001,,,,,,,2025-09-19,1,,,,,パスワーク,0
974,4120101072476,新規,0,2025-09-19,2025-09-19,株式会社萬鴻国際,,株式会社,大阪府,泉佐野市,上町２丁目６番４１－１０３号,,27,213,5980007,,,,,,,2025-09-19,1,,,,,バンコウコクサイ,0
975,4120101072484,新規,0,2025-09-19,2025-09-19,皇嘉株式会社,,株式会社,大阪府,堺市堺区,北瓦町１丁２番１５号ポピービル３０５,,27,141,5900076,,,,,,,2025-09-19,1,,,,,コウカ,0
978,4120103006721,新規,0,2025-09-19,2025-09-19,ＭＡＢＵＨＡＹ　ＦＯＯＤＳ合同会社,,合同会社,大阪府,羽曳野市,島泉２丁目５番７号－２Ｆ,,27,222,5830881,,,,,,,2025-09-19,1,,,,,マブハイフーズ,0
982,4122001039654,新規,0,2025-09-19,2025-09-19,ｎｅｅｄｅｄ株式会社,,株式会社,大阪府,八尾市,宮町３丁目２番２４号,,27,212,5810815,,,,,,,2025-09-19,1,,,,,ニーディド,0
994,4140003022593,新規,0,2025-09-19,2025-09-19,合同会社みなとワークス,,合同会社,兵庫県,神戸市北区,星和台１丁目３－３４,,28,109,6511121,,,,,,,2025-09-19,1,,,,,ミナトワークス,0
996,4140005027632,新規,0,2025-09-19,2025-09-19,一般社団法人ベイアールド・カリヨン協会,,その他の設立登記法人,兵庫県,伊丹市,荻野西１丁目５番６号,,28,207,6640031,,,,,,,2025-09-19,1,,,,,ベイアールドカリヨンキョウカイ,0
997,4160001027056,新規,0,2025-09-19,2025-09-19,株式会社ｉＶａｌｕｅ,,株式会社,滋賀県,東近江市,市子殿町１３３０番地１,,25,213,5291537,,,,,,,2025-09-19,1,,,,,アイバリュー,0
998,4160001027064,新規,0,2025-09-19,2025-09-19,株式会社レイクスＢｉｗａ,,株式会社,滋賀県,守山市,洲本町１７０５番地５,,25,207,5240103,,,,,,,2025-09-19,1,,,,,レイクスビワ,0
999,4160005011436,新規,0,2025-09-19,2025-09-19,一般社団法人東草野農業振興会,,その他の設立登記法人,滋賀県,米原市,甲津原１７５３番地,,25,214,5210301,,,,,,,2025-09-19,1,,,,,ヒガシクサノノウギョウシンコウカイ,0
1001,4170003002304,新規,0,2025-09-19,2025-09-19,ＡＱＥＥＬ　ＴＲＡＤＩＮＧ合同会社,,合同会社,和歌山県,岩出市,清水１２７番３号グリーンハイツ３－４号室,,30,209,6496227,,,,,,,2025-09-19,1,,,,,アキルトレーディング,0
1002,4180001168666,新規,0,2025-09-19,2025-09-19,株式会社Ｓｋｙ　ｕｐ,,株式会社,愛知県,名古屋市中村区,名駅４丁目２４番５号第２森ビル４０１,,23,105,4500002,,,,,,,2025-09-19,1,,,,,スカイアップ,0
1003,4180001168674,新規,0,2025-09-19,2025-09-19,株式会社ＮＡＷＡ,,株式会社,愛知県,名古屋市中区,栄１丁目２２番２号ライオンズ名古屋ビル５４７号室,,23,106,4600008,,,,,,,2025-09-19,1,,,,,ナワ,0
1006,4180003029057,新規,0,2025-09-19,2025-09-19,合同会社Ａｃｔｌｉｎｅ,,合同会社,愛知県,稲沢市,祖父江町祖父江居中１９２番地プチハウス石原２０３,,23,220,4950001,,,,,,,2025-09-19,1,,,,,アクトライン,0
1012,4190003005148,新規,0,2025-09-19,2025-09-19,合同会社Ｘｅｎｅｌ　Ｊａｐａｎ,,合同会社,三重県,四日市市,日永西３丁目１１‐２１コスモシティ日永４Ｂ,,24,202,5100891,,,,,,,2025-09-19,1,,,,,ゼネルジャパン,0
1013,4190003005180,新規,0,2025-09-19,2025-09-19,ＳＡＥＥＤ　ＫＨＡＮ　ＴＲＡＤＩＮＧ合同会社,,合同会社,三重県,鈴鹿市,東玉垣町５００番地の２０８,,24,207,5130814,,,,,,,2025-09-19,1,,,,,サイードカーントレーディング,0
1023,4260001040569,新規,0,2025-09-19,2025-09-19,株式会社ＢＵＣＣＡ,,株式会社,岡山県,岡山市中区,平井１丁目１５番６０号,,33,102,7038282,,,,,,,2025-09-19,1,,,,,ブッカ,0
1025,4260003005347,新規,0,2025-09-19,2025-09-19,合同会社Ｋ．Ｓ‐１,,合同会社,岡山県,倉敷市,川入８５６番地７２,,33,202,7100811,,,,,,,2025-09-19,1,,,,,ケイエスワン,0
1030,4290001111342,新規,0,2025-09-19,2025-09-19,株式会社ＹＵＲＡ,,株式会社,福岡県,筑紫野市,二日市中央２丁目７－８,,40,217,8180072,,,,,,,2025-09-19,1,,,,,ユラ,0
1031,4290001111359,新規,0,2025-09-19,2025-09-19,株式会社はなまる,,株式会社,福岡県,福岡市西区,室見が丘１丁目８番２号,,40,135,8190030,,,,,,,2025-09-19,1,,,,,ハナマル,0
1032,4290001111367,新規,0,2025-09-19,2025-09-19,株式会社燦コーポレーション,,株式会社,福岡県,嘉麻市,岩崎１２３１番地５,,40,227,8200205,,,,,,,2025-09-19,1,,,,,サンコーポレーション,0
1033,4290001111383,新規,0,2025-09-19,2025-09-19,株式会社Ｒｅ‐Ｌｉｆｅマネジメント,,株式会社,福岡県,久留米市,田主丸町益生田１６１５番地８,,40,203,8391213,,,,,,,2025-09-19,1,,,,,リライフマネジメント,0
1038,4290003017372,新規,0,2025-09-19,2025-09-19,やまはち合同会社,,合同会社,福岡県,春日市,星見ヶ丘５丁目１５９番地,,40,218,8160849,,,,,,,2025-09-19,1,,,,,ヤマハチ,0
1053,4370003007290,新規,0,2025-09-19,2025-09-19,合同会社ＳＫ　ＴＲＡＤＩＮＧ,,合同会社,宮城県,栗原市,金成姉歯谷地９８番地１,,04,213,9895172,,,,,,,2025-09-19,1,,,,,エスケートレーディング,0
1054,4380001035581,新規,0,2025-09-19,2025-09-19,株式会社ＧＩＧＩ,,株式会社,福島県,いわき市,中央台飯野２丁目２９番地の７,,07,204,9708044,,,,,,,2025-09-19,1,,,,,ジジ,0
1060,4430001095232,新規,0,2025-09-19,2025-09-19,株式会社笹島測地,,株式会社,北海道,札幌市北区,新琴似十一条１４丁目８番９号,,01,102,0010911,,,,,,,2025-09-19,1,,,,,ササジマソクチ,0
1063,4430005015319,新規,0,2025-09-19,2025-09-19,医療法人社団四季の会,,その他の設立登記法人,北海道,虻田郡倶知安町,北三条西２丁目１１番地２,,01,400,0440053,,,,,,,2025-09-19,1,,,,,シキノカイ,0
1068,4500001026519,新規,0,2025-09-19,2025-09-19,株式会社ＮＥＯ,,株式会社,愛媛県,松山市,東石井４丁目１０番１５－２号,,38,201,7900932,,,,,,,2025-09-19,1,,,,,ネオ,0
1070,4700150132304,新規,0,2025-09-19,2025-09-19,Ａｚｕｋｉｐａｎ　ＩＴ　Ｓｏｌｕｔｉｏｎｓ　ＬＬＣ,,外国会社等,神奈川県,横浜市磯子区,田中１丁目１１番６９号ＳＲアカデミア横浜磯子４０６号室,,14,107,2350035,アメリカ合衆国ウィスコンシン州ミルウォーキー市７９０ノース・ミルウォーキー・ストリート・スイート３０２＃５５２０４３,,,,,,2025-09-19,1,,,,,アズキパンアイテイーソリユーシヨンズエルエルシー,0
1076,5010003048799,新規,0,2025-09-19,2025-09-19,日光Ｐｌｕｓ２４合同会社３,,合同会社,東京都,千代田区,丸の内１丁目４番１号東京共同会計事務所内,,13,101,1000005,,,,,,,2025-09-19,1,,,,,ニッコウプラストゥエンティフォーサン,0
1082,5010005040671,新規,0,2025-09-19,2025-09-19,医療法人社団善用会,,その他の設立登記法人,東京都,文京区,春日１丁目１６番３０号講道館本館６階,,13,105,1120003,,,,,,,2025-09-19,1,,,,,ゼンヨウカイ,0
1083,5010101016872,新規,0,2025-09-19,2025-09-19,株式会社ＴＭＣ,,株式会社,東京都,八王子市,明神町４丁目３番８号－３階,,13,201,1920046,,,,,,,2025-09-19,1,,,,,ティーエムシー,0
1092,5010403036081,新規,0,2025-09-19,2025-09-19,ＭＡＰＳ　Ｏｓａｋａ　ＭＦ　Ｏｎｅ合同会社,,合同会社,東京都,港区,虎ノ門５丁目１番４号,,13,103,1050001,,,,,,,2025-09-19,1,,,,,マプスオオサカエムエフワン,0
1100,5010701048299,新規,0,2025-09-19,2025-09-19,株式会社ＬＡＣＯＮＴＥ,,株式会社,東京都,品川区,東大井４丁目１番１１号仙台坂アルカディア６０８,,13,109,1400011,,,,,,,2025-09-19,1,,,,,ラコンテ,0
1101,5010701048324,新規,0,2025-09-19,2025-09-19,株式会社片山宏明事務所,,株式会社,東京都,品川区,西五反田５丁目２６番３号スマータス不動前４１０,,13,109,1410031,,,,,,,2025-09-19,1,,,,,カタヤマヒロアキジムショ,0
1105,5010803005545,新規,0,2025-09-19,2025-09-19,蘇氏合同会社,,合同会社,東京都,大田区,東海３丁目７番３号東海ビル４１６号,,13,111,1430001,,,,,,,2025-09-19,1,,,,,ソシ,0
1112,5011001172491,新規,0,2025-09-19,2025-09-19,アシガルコンサルティング株式会社,,株式会社,東京都,渋谷区,道玄坂１丁目１０番８号渋谷道玄坂東急ビル２Ｆ－Ｃ,,13,113,1500043,,,,,,,2025-09-19,1,,,,,アシガルコンサルティング,0
1114,5011003022323,新規,0,2025-09-19,2025-09-19,ローカルモビリティ合同会社,,合同会社,東京都,渋谷区,恵比寿西２丁目４番８号ウィンド恵比寿ビル８Ｆ,,13,113,1500021,,,,,,,2025-09-19,1,,,,,ローカルモビリティ,0
1116,5011101112926,新規,0,2025-09-19,2025-09-19,ＴＳＵＮＡＧ　ＳＹＳＴＥＭＳ株式会社,,株式会社,東京都,新宿区,西新宿３丁目３番１３号西新宿水間ビル６階,,13,104,1600023,,,,,,,2025-09-19,1,,,,,ツナグシステムズ,0
1117,5011101113081,新規,0,2025-09-19,2025-09-19,Ｒｉｎｇｚ株式会社,,株式会社,東京都,新宿区,西新宿７丁目１９番２１号新宿ダイカンプラザシティＩ－６０５,00140723,13,104,1600023,,,,,,,2025-09-19,1,,,,,リングズ,0
1118,5011101113156,新規,0,2025-09-19,2025-09-19,株式会社Ｌｉｆｅ　Ｅｄｉｔ,,株式会社,東京都,新宿区,北新宿２丁目４番３号ＧｒａｎｄＫｎｏｌｌＫｉｙｏｋａ１０１号室,,13,104,1690074,,,,,,,2025-09-19,1,,,,,ライフエディット,0
1119,5011101113214,新規,0,2025-09-19,2025-09-19,Ｓａｖｏｒｉｑｕｅ株式会社,,株式会社,東京都,新宿区,百人町２丁目５－４土屋ビル２ＦＬｉｎｋＳｐａｃｅＳ０２号室,,13,104,1690073,,,,,,,2025-09-19,1,,,,,サヴォリック,0
1120,5011103016407,新規,0,2025-09-19,2025-09-19,ＪＹＴ　Ｄｅｓｉｇｎ合同会社,,合同会社,東京都,新宿区,榎町３４番地３榎町ビル７階－２５室,,13,104,1620806,,,,,,,2025-09-19,1,,,,,ジェイワイティーデザイン,0
1121,5011105011595,新規,0,2025-09-19,2025-09-19,一般社団法人日本ウチワサボテン協会,,その他の設立登記法人,東京都,新宿区,四谷１丁目４番地,,13,104,1600004,,,,,,,2025-09-19,1,,,,,ニホンウチワサボテンキョウカイ,0
1122,5011403004854,新規,0,2025-09-19,2025-09-19,とくだか合同会社,,合同会社,東京都,板橋区,本町３５－３－６０４朝日本町マンション,,13,119,1730001,,,,,,,2025-09-19,1,,,,,トクダカ,0
1127,5011501032583,新規,0,2025-09-19,2025-09-19,石川商会株式会社,,株式会社,東京都,北区,上十条１丁目２５番５号,,13,117,1140034,,,,,,,2025-09-19,1,,,,,イシカワショウカイ,0
1128,5011501032609,新規,0,2025-09-19,2025-09-19,ゼンオウ株式会社,,株式会社,東京都,荒川区,西日暮里１丁目６２－５－２１６,,13,118,1160013,,,,,,,2025-09-19,1,,,,,ゼンオウ,0
1129,5011601028985,新規,0,2025-09-19,2025-09-19,株式会社Ｗｅｓｔ,,株式会社,東京都,練馬区,東大泉７丁目１５番３号,,13,120,1780063,,,,,,,2025-09-19,1,,,,,ウエスト,0
1132,5011801046770,新規,0,2025-09-19,2025-09-19,株式会社Ｊ・ディスカバリー,,株式会社,東京都,葛飾区,青戸７丁目２４番５－１０１号,,13,122,1250062,,,,,,,2025-09-19,1,,,,,ジェイディスカバリー,0
1133,5011803007085,新規,0,2025-09-19,2025-09-19,ＰＶＣ合同会社,,合同会社,東京都,足立区,千住寿町６番９号２０２,,13,121,1200033,,,,,,,2025-09-19,1,,,,,ピーヴィーシー,0
1134,5012301014532,新規,0,2025-09-19,2025-09-19,Ｍ　Ｔｅｃｈｎｏｌｏｇｙ株式会社,,株式会社,東京都,町田市,大蔵町１６３２番地１・２１１号,,13,209,1950062,,,,,,,2025-09-19,1,,,,,エムテクノロジー,0
1137,5012403007335,新規,0,2025-09-19,2025-09-19,ＰＲＡＫＡＳＨ合同会社,,合同会社,東京都,調布市,多摩川７丁目２４番２５号サンライフ多摩川１０３,,13,208,1820025,,,,,,,2025-09-19,1,,,,,プラカス,0
1138,5012703003372,新規,0,2025-09-19,2025-09-19,合同会社ＳｔｅｐＥａｓｅ,,合同会社,東京都,小平市,鈴木町１丁目５３番地の３リバパークソシア２０２号,,13,211,1870011,,,,,,,2025-09-19,1,,,,,ステップイーズ,0
1143,5020001164928,新規,0,2025-09-19,2025-09-19,株式会社いきがい,,株式会社,神奈川県,川崎市中原区,丸子通１丁目６１２‐９‐１３０２,,14,133,2110006,,,,,,,2025-09-19,1,,,,,イキガイ,0
1151,5021003016547,新規,0,2025-09-19,2025-09-19,Ｔ＆Ｔ合同会社,,合同会社,神奈川県,相模原市緑区,川尻１９５８番地５,,14,151,2520111,,,,,,,2025-09-19,1,,,,,テイーアンドテイー,0
1152,5021003016563,新規,0,2025-09-19,2025-09-19,エラトキャピタル合同会社,,合同会社,神奈川県,平塚市,西八幡４丁目２－８－１,,14,203,2540073,,,,,,,2025-09-19,1,,,,,エラトキャピタル,0
1154,5021005013443,新規,0,2025-09-19,2025-09-19,行政書士法人守屋事務所,,その他の設立登記法人,神奈川県,小田原市,荻窪５３４番地の４,,14,206,2500042,,,,,,,2025-09-19,1,,,,,モリヤジムショ,0
1157,5030001168647,新規,0,2025-09-19,2025-09-19,聖日株式会社,,株式会社,埼玉県,富士見市,東みずほ台１丁目１番地１大久保ビル３０３,,11,235,3540015,,,,,,,2025-09-19,1,,,,,セイジツ,0
1158,5030001168746,新規,0,2025-09-19,2025-09-19,美菱株式会社,,株式会社,埼玉県,所沢市,大字荒幡１５８－３,,11,208,3591133,,,,,,,2025-09-19,1,,,,,ビリョウ,0
1163,5040001140563,新規,0,2025-09-19,2025-09-19,ＥＫＢｌｏｏｍ株式会社,,株式会社,千葉県,長生郡長生村,岩沼１９５番地,,12,423,2994336,,,,,,,2025-09-19,1,,,,,イーケーブルーム,0
1164,5040003028542,新規,0,2025-09-19,2025-09-19,ＬＥＧＡＣＹ合同会社,,合同会社,千葉県,佐倉市,畔田字新畑８９８番地１７,,12,212,2850835,,,,,,,2025-09-19,1,,,,,レガシー,0
1170,5050001057212,新規,0,2025-09-19,2025-09-19,株式会社メンザイエステート,,株式会社,茨城県,坂東市,寺久１３５４番地１０,,08,228,3060656,,,,,,,2025-09-19,1,,,,,メンザイエステート,0
1171,5050001057278,新規,0,2025-09-19,2025-09-19,株式会社ベルドリーム,,株式会社,茨城県,かすみがうら市,宍倉６１４７番地２０,,08,230,3000121,,,,,,,2025-09-19,1,,,,,ベルドリーム,0
1172,5050001057303,新規,0,2025-09-19,2025-09-19,＿華国際貿易株式会社,00140711,株式会社,茨城県,桜川市,真壁町桜井４３５番地１,,08,231,3004405,,,,,,,2025-09-19,1,,,,,ヨウカコクサイボウエキ,0
1187,5070003006082,新規,0,2025-09-19,2025-09-19,ＣＡＲＳＭＡＲＴ　ＬＡＮＫＡ　ＥＮＴＥＲＰＲＩＳＥＳ合同会社,,合同会社,群馬県,伊勢崎市,境東字町並２３７番地１の１,,10,204,3700123,,,,,,,2025-09-19,1,,,,,カースマートランカエンタープライゼス,0
1188,5070003006099,新規,0,2025-09-19,2025-09-19,合同会社Ｔｈａｎｈ　Ｔａｍ,,合同会社,群馬県,伊勢崎市,今泉町１丁目３０－７コスモシティ今泉３０３,,10,204,3720031,,,,,,,2025-09-19,1,,,,,タンタム,0
1189,5080101025792,新規,0,2025-09-19,2025-09-19,株式会社アサトミ不動産管理,,株式会社,静岡県,駿東郡清水町,久米田６０番地の８,,22,341,4110911,,,,,,,2025-09-19,1,,,,,アサトミフドウサンカンリ,0
1204,5120001279682,新規,0,2025-09-19,2025-09-19,株式会社クスピース,,株式会社,大阪府,大阪市中央区,博労町２丁目３番１号,,27,128,5410059,,,,,,,2025-09-19,1,,,,,クスピース,0
1205,5120001279708,新規,0,2025-09-19,2025-09-19,株式会社サクセス,,株式会社,大阪府,大阪市中央区,南船場３丁目１番１６号日宝ラッキービル４Ｆ５号室,,27,128,5420081,,,,,,,2025-09-19,1,,,,,サクセス,0
1206,5120001279716,新規,0,2025-09-19,2025-09-19,マリトレ株式会社,,株式会社,大阪府,大阪市西区,江戸堀３丁目１番２０号,,27,106,5500002,,,,,,,2025-09-19,1,,,,,マリトレ,0
1207,5120001279740,新規,0,2025-09-19,2025-09-19,株式会社Ｍａｃｏｃｏ,,株式会社,大阪府,大阪市西区,江之子島１丁目６番２号奥内第８ビル２０５号室,,27,106,5500006,,,,,,,2025-09-19,1,,,,,マココ,0
1209,5120003030614,新規,0,2025-09-19,2025-09-19,ＳＴ合同会社,,合同会社,大阪府,大阪市生野区,林寺３丁目１番３号,,27,116,5440023,,,,,,,2025-09-19,1,,,,,エスティー,0
1210,5120003030713,新規,0,2025-09-19,2025-09-19,エレクトラ合同会社,,合同会社,大阪府,大阪市東住吉区,東田辺２丁目２１ー１ハウゼンフジ１０１,,27,121,5460032,,,,,,,2025-09-19,1,,,,,エレクトラ,0
1211,5120003030738,新規,0,2025-09-19,2025-09-19,テックリンクス合同会社,,合同会社,大阪府,大阪市北区,梅田１丁目２番２号大阪駅前第２ビル１２‐１２,,27,127,5300001,,,,,,,2025-09-19,1,,,,,テックリンクス,0
1218,5120103006720,新規,0,2025-09-19,2025-09-19,合同会社コネクトワーズ,,合同会社,大阪府,堺市堺区,三国ヶ丘御幸通１０番１号三幸ビル２Ｆ・５Ｆ,,27,141,5900028,,,,,,,2025-09-19,1,,,,,コネクトワーズ,0
1220,5120901051513,新規,0,2025-09-19,2025-09-19,株式会社ｍａｎｍａｒｕ,,株式会社,大阪府,豊中市,豊南町西４丁目５番３号,,27,203,5610816,,,,,,,2025-09-19,1,,,,,マンマル,0
1233,5140001140033,新規,0,2025-09-19,2025-09-19,株式会社ＮＳＳ,,株式会社,兵庫県,神戸市垂水区,潮見が丘１丁目４番４５号,,28,108,6550005,,,,,,,2025-09-19,1,,,,,エヌエスエス,0
1234,5140001140066,新規,0,2025-09-19,2025-09-19,株式会社サンワテクノ,,株式会社,兵庫県,加古川市,加古川町中津７９３番地の６,,28,210,6750068,,,,,,,2025-09-19,1,,,,,サンワテクノ,0
1235,5140001140074,新規,0,2025-09-19,2025-09-19,ＨＡＮＧＬＯＯＳＥ株式会社,,株式会社,兵庫県,神戸市中央区,磯辺通２丁目２－１０－１００６号室,,28,110,6510084,,,,,,,2025-09-19,1,,,,,ハングルース,0
1239,5150001028401,新規,0,2025-09-19,2025-09-19,南和スチール株式会社,,株式会社,奈良県,橿原市,菖蒲町４丁目４１番１０号,,29,205,6340042,,,,,,,2025-09-19,1,,,,,ナンワスチール,0
1245,5180001168590,新規,0,2025-09-19,2025-09-19,亮株式会社,,株式会社,愛知県,名古屋市中村区,佐古前町１４番１９号ＭＳ佐古前１０１号室,,23,105,4530018,,,,,,,2025-09-19,1,,,,,マコト,0
1246,5180001168649,新規,0,2025-09-19,2025-09-19,株式会社ＡＲ　ＧＬＯＢＡＬ,,株式会社,愛知県,名古屋市港区,東土古町１丁目１,,23,111,4550061,,,,,,,2025-09-19,1,,,,,アルグローバル,0
1247,5180001168665,新規,0,2025-09-19,2025-09-19,ＡＪ　ＴＲＡＤＩＮＧ株式会社,,株式会社,愛知県,海部郡飛島村,大字新成三丁目３０番地７,,23,427,4901400,,,,,,,2025-09-19,1,,,,,エージェイトレーディング,0
1248,5180001168681,新規,0,2025-09-19,2025-09-19,株式会社岩本建設,,株式会社,愛知県,名古屋市西区,清里町４３０番地の３,,23,104,4520801,,,,,,,2025-09-19,1,,,,,イワモトケンセツ,0
1249,5180001168698,新規,0,2025-09-19,2025-09-19,株式会社結樹苑,,株式会社,愛知県,知多郡美浜町,河和台２丁目２７６番地,,23,446,4702405,,,,,,,2025-09-19,1,,,,,ユイキエン,0
1251,5180003029072,新規,0,2025-09-19,2025-09-19,ＤＥＷＡＮ　ＹＶＳ合同会社,,合同会社,愛知県,清須市,西枇杷島町辰新田３０番地,,23,233,4520052,,,,,,,2025-09-19,1,,,,,デワンワイヴィエス,0
1253,5180005021226,新規,0,2025-09-19,2025-09-19,医療法人ｆｒｉｅｎｄ　ｐａｒｋ,,その他の設立登記法人,愛知県,豊明市,栄町大根１番地１４５３,,23,229,4701166,,,,,,,2025-09-19,1,,,,,フレンドパーク,0
1256,5220003004120,新規,0,2025-09-19,2025-09-19,合同会社ふくろうのもり,,合同会社,石川県,かほく市,浜北ハ２３番地３,,17,209,9291174,,,,,,,2025-09-19,1,,,,,フクロウノモリ,0
1263,5290001111358,新規,0,2025-09-19,2025-09-19,ジートラス株式会社,,株式会社,福岡県,福岡市西区,周船寺２丁目４番２４号,,40,135,8190373,,,,,,,2025-09-19,1,,,,,ジートラス,0
1264,5290001111374,新規,0,2025-09-19,2025-09-19,モーブルホールディングス株式会社,,株式会社,福岡県,大川市,大字中古賀９５６番地１,,40,212,8310006,,,,,,,2025-09-19,1,,,,,モーブルホールディングス,0
1265,5290001111390,新規,0,2025-09-19,2025-09-19,株式会社ＣＡＳＩＷＡホールディングス,,株式会社,福岡県,久留米市,北野町中字福王１４２３番地,,40,203,8301113,,,,,,,2025-09-19,1,,,,,カシワホールディングス,0
1268,5290003017388,新規,0,2025-09-19,2025-09-19,Ｃｒｙｓｔａｌ　Ｎａｉｌｓ合同会社,,合同会社,福岡県,福岡市博多区,堅粕４丁目１番３１－６０４号,,40,132,8120043,,,,,,,2025-09-19,1,,,,,クリスタルネイル,0
1270,5300003002339,新規,0,2025-09-19,2025-09-19,合同会社Ｍ　ｃｏｒｐｏｒａｔｉｏｎ,,合同会社,佐賀県,杵島郡白石町,大字戸ケ里２３４５番地,,41,425,8491203,,,,,,,2025-09-19,1,,,,,エムコーポレーション,0
1271,5310001019788,新規,0,2025-09-19,2025-09-19,株式会社Ｌｅａ　Ｓｃｈｒｉｔｔ,,株式会社,長崎県,長崎市,大黒町１０番１０号ＫｏＫｏＲｏビル６１８０号室,,42,201,8500057,,,,,,,2025-09-19,1,,,,,レアシュリット,0
1275,5330003011221,新規,0,2025-09-19,2025-09-19,合同会社ＢＯＮＥＴ研究所,,合同会社,熊本県,熊本市西区,春日４丁目３７番３０号,,43,103,8600047,,,,,,,2025-09-19,1,,,,,ボネットケンキュウショ,0
1277,5350001019735,新規,0,2025-09-19,2025-09-19,ｎｏｏｎ株式会社,,株式会社,宮崎県,児湯郡高鍋町,大字北高鍋１１７４番地２０,,45,401,8840002,,,,,,,2025-09-19,1,,,,,ヌーン,0
1281,5360001035789,新規,0,2025-09-19,2025-09-19,株式会社イージス琉球ラボ,,株式会社,沖縄県,沖縄市,上地２丁目１－２７上翔ビル２０１,,47,211,9040031,,,,,,,2025-09-19,1,,,,,イージスリュウキュウラボ,0
1282,5360003015244,新規,0,2025-09-19,2025-09-19,合同会社バイオネクスト,,合同会社,沖縄県,宜野湾市,真志喜１丁目５番５号ＪＹＯＵＴＯＵビル１階,,47,205,9012224,,,,,,,2025-09-19,1,,,,,バイオネクスト,0
1283,5360003015252,新規,0,2025-09-19,2025-09-19,合同会社ＲＡＢＢＩＴ,,合同会社,沖縄県,宜野湾市,我如古１丁目５４番７号シャトレ我如古２０１号室,,47,205,9012214,,,,,,,2025-09-19,1,,,,,ラビット,0
1289,5380001035580,新規,0,2025-09-19,2025-09-19,株式会社Ｆａｒｍ　ＭＩＺＵＫＡＧＡＭＩ,,株式会社,福島県,喜多方市,塩川町源太屋敷字前畑１５７１番地,,07,208,9693539,,,,,,,2025-09-19,1,,,,,ファームミズカガミ,0
1291,5420001019273,新規,0,2025-09-19,2025-09-19,Ｒｏｏｔｗａｖｅ株式会社,,株式会社,青森県,八戸市,吹上３丁目９－４９,,02,203,0310003,,,,,,,2025-09-19,1,,,,,ルートウェーブ,0
1307,6010003048781,新規,0,2025-09-19,2025-09-19,ＤＯＷ合同会社,,合同会社,東京都,中央区,銀座１丁目２２番１１号,,13,102,1040061,,,,,,,2025-09-19,1,,,,,ディーオーダブリュー,0
1309,6010005040679,新規,0,2025-09-19,2025-09-19,一般社団法人国土強靭化推進協議会,,その他の設立登記法人,東京都,千代田区,内幸町２丁目２番１号日本プレスセンタービル８階,,13,101,1000011,,,,,,,2025-09-19,1,,,,,コクドキョウジンカスイシンキョウギカイ,0
1310,6010005040695,新規,0,2025-09-19,2025-09-19,一般社団法人日本ＯＯＨメジャメント協会,,その他の設立登記法人,東京都,千代田区,三番町６番地１７,,13,101,1020075,,,,,,,2025-09-19,1,,,,,ニホンオーオーエイチメジャメントキョウカイ,0
1312,6010401193130,新規,0,2025-09-19,2025-09-19,エンソー・ベンチャーズ株式会社,,株式会社,東京都,港区,芝２丁目２８番１１号芝ＭＫビル３０７,,13,103,1050014,,,,,,,2025-09-19,1,,,,,エンソーベンチャーズ,0
1313,6010401193147,新規,0,2025-09-19,2025-09-19,株式会社ＶＯＲＴＥＸ,,株式会社,東京都,港区,西麻布１丁目８番１２号ＡＲＩＳＴＯ西麻布３Ｆ,,13,103,1060031,,,,,,,2025-09-19,1,,,,,ヴォルテックス,0
1315,6010403036056,新規,0,2025-09-19,2025-09-19,Ｈａｌｌ　ｏｆ　Ｃｏｌｌｅｃｔｉｂｌｅｓ合同会社,,合同会社,東京都,港区,赤坂２丁目２１番４号,,13,103,1070052,,,,,,,2025-09-19,1,,,,,ホールオブコレクティブルス,0
1316,6010403036064,新規,0,2025-09-19,2025-09-19,トレンディ合同会社,,合同会社,東京都,港区,六本木５丁目１３番１９号ライオンズマンション六本木１０１号室,,13,103,1060032,,,,,,,2025-09-19,1,,,,,トレンディ,0
1319,6010405024802,新規,0,2025-09-19,2025-09-19,ＭＡＰＳ　Ｏｓａｋａ　ＭＦ　Ｏｎｅ一般社団法人,,その他の設立登記法人,東京都,港区,虎ノ門５丁目１番４号,,13,103,1050001,,,,,,,2025-09-19,1,,,,,マプスオオサカエムエフワン,0
1322,6010701048307,新規,0,2025-09-19,2025-09-19,ユタクト株式会社,,株式会社,東京都,品川区,南品川５丁目１１番４６,,13,109,1400004,,,,,,,2025-09-19,1,,,,,ユタクト,0
1323,6010703007913,新規,0,2025-09-19,2025-09-19,而空合同会社,,合同会社,東京都,品川区,荏原４丁目６番１１号,,13,109,1420063,,,,,,,2025-09-19,1,,,,,ジクウ,0
1331,6011001172037,新規,0,2025-09-19,2025-09-19,株式会社Ｒｉｄｅｘ,,株式会社,東京都,渋谷区,円山町５番３号ＭＩＥＵＸ渋谷ビル８階,,13,113,1500044,,,,,,,2025-09-19,1,,,,,ライデックス,0
1332,6011001172045,新規,0,2025-09-19,2025-09-19,津和国際株式会社,,株式会社,東京都,渋谷区,道玄坂１丁目２１番１号ＳＨＩＢＵＹＡＳＯＬＡＳＴＡ３階,,13,113,1500043,,,,,,,2025-09-19,1,,,,,ツワコクサイ,0
1333,6011001172111,新規,0,2025-09-19,2025-09-19,ＵＮＯＭＩ株式会社,,株式会社,東京都,渋谷区,道玄坂１丁目１０－８渋谷道玄坂東急ビル２Ｆ－Ｃ,,13,113,1500043,,,,,,,2025-09-19,1,,,,,ウノミ,0
1334,6011001172136,新規,0,2025-09-19,2025-09-19,株式会社ミリズム,,株式会社,東京都,渋谷区,代々木５丁目３８番９－４０２号,,13,113,1510053,,,,,,,2025-09-19,1,,,,,ミリズム,0
1336,6011005011174,新規,0,2025-09-19,2025-09-19,医療法人社団明和医会,,その他の設立登記法人,東京都,渋谷区,神宮前３丁目３９番５号Ｑｉｚ青山２階,,13,113,1500001,,,,,,,2025-09-19,1,,,,,メイワイカイ,0
1338,6011103016364,新規,0,2025-09-19,2025-09-19,Ｑｕａｎｔｕｍ　Ｓｏｌｉｄ　Ｒｅｓｅａｒｃｈ合同会社,,合同会社,東京都,新宿区,西新宿６丁目５番１号新宿アイランドタワー２階,,13,104,1600023,,,,,,,2025-09-19,1,,,,,カンタムソリッドリサーチ,0
1339,6011103016389,新規,0,2025-09-19,2025-09-19,合同会社ＣＲＡＦＴＳＭＡＮ,,合同会社,東京都,新宿区,西新宿７丁目１０番７号加賀谷ビル９階,,13,104,1600023,,,,,,,2025-09-19,1,,,,,クラフツマン,0
1340,6011105011594,新規,0,2025-09-19,2025-09-19,一般社団法人新宿長寿生活支援協会,,その他の設立登記法人,東京都,新宿区,大久保２丁目１１番１５号,,13,104,1690072,,,,,,,2025-09-19,1,,,,,シンジュクチョウジュセイカツシエンキョウカイ,0
1342,6011201026653,新規,0,2025-09-19,2025-09-19,フムラ株式会社,,株式会社,東京都,中野区,鷺宮３丁目２６番１５号,,13,114,1650032,,,,,,,2025-09-19,1,,,,,フムラ,0
1343,6011301030877,新規,0,2025-09-19,2025-09-19,ｏｆｆｉｃｅ　Ｊ’ｓ株式会社,,株式会社,東京都,杉並区,松庵１丁目１８番１０号,,13,115,1670054,,,,,,,2025-09-19,1,,,,,オフィスジェイズ,0
1345,6011501032582,新規,0,2025-09-19,2025-09-19,株式会社Ａｎｄｙ　Ｇｒｏｕｐ,,株式会社,東京都,北区,豊島２丁目１０番６号創益企画ビル１０３号室,,13,117,1140003,,,,,,,2025-09-19,1,,,,,アンディグループ,0
1349,6011601028984,新規,0,2025-09-19,2025-09-19,龍華株式会社,,株式会社,東京都,練馬区,春日町６丁目１６番１１号フォーチュン光が丘２７７号室,,13,120,1790074,,,,,,,2025-09-19,1,,,,,リュウカ,0
1350,6011601028992,新規,0,2025-09-19,2025-09-19,株式会社ＫＮサービス,,株式会社,東京都,練馬区,東大泉２丁目４２番８－１１０６号,,13,120,1780063,,,,,,,2025-09-19,1,,,,,ケイエヌサービス,0
1356,6012403007342,新規,0,2025-09-19,2025-09-19,パオフィス合同会社,,合同会社,東京都,調布市,布田３丁目４５―３グランメゾンＦ１０１,,13,208,1820024,,,,,,,2025-09-19,1,,,,,パオフィス,0
1359,6013301054922,新規,0,2025-09-19,2025-09-19,株式会社ＧＯＬＤＥＮ　ＭＯＵＮＴＡＩＮ,,株式会社,東京都,豊島区,池袋２丁目４番１号越路ビル２Ｆ,,13,116,1710014,,,,,,,2025-09-19,1,,,,,ゴールデンマウンテン,0
1365,6020001164919,新規,0,2025-09-19,2025-09-19,新東京株式会社,,株式会社,神奈川県,川崎市幸区,戸手４丁目９番３号弐番館１１０５号,,14,132,2120005,,,,,,,2025-09-19,1,,,,,シントウキョウ,0
1373,6021005013442,新規,0,2025-09-19,2025-09-19,司法書士法人守屋事務所,,その他の設立登記法人,神奈川県,小田原市,荻窪５３４番地の４,,14,206,2500042,,,,,,,2025-09-19,1,,,,,モリヤジムショ,0
1377,6030001168621,新規,0,2025-09-19,2025-09-19,Ｄａｉｓｕｋｉ　Ｊａｐａｎ　Ｔｏｕｒ株式会社,,株式会社,埼玉県,八潮市,大瀬３丁目３番地２１ラフィニア八潮大瀬２０５,,11,234,3400822,,,,,,,2025-09-19,1,,,,,ダイスキジャパンツアー,0
1378,6030001168704,新規,0,2025-09-19,2025-09-19,株式会社彩晴,,株式会社,埼玉県,熊谷市,三ヶ尻５４１６番地６,,11,202,3600843,,,,,,,2025-09-19,1,,,,,サイセイ,0
1379,6030001168745,新規,0,2025-09-19,2025-09-19,銘希株式会社,,株式会社,埼玉県,川口市,本前川３丁目２５－７行田ハイツ１０２,,11,203,3330849,,,,,,,2025-09-19,1,,,,,メイキ,0
1388,6040001140513,新規,0,2025-09-19,2025-09-19,株式会社ＡｎｄＲｉｓｅ,,株式会社,千葉県,千葉市中央区,末広３丁目１８番６号,,12,101,2600843,,,,,,,2025-09-19,1,,,,,アンドライズ,0
1389,6040003028525,新規,0,2025-09-19,2025-09-19,合同会社高林興業,,合同会社,千葉県,野田市,桜の里３丁目２２番地の２,,12,208,2780048,,,,,,,2025-09-19,1,,,,,タカバヤシコウギョウ,0
1390,6040003028541,新規,0,2025-09-19,2025-09-19,ＨＥＩＷＡ合同会社,,合同会社,千葉県,八街市,八街ほ２５２番地４０サニーハイム向陽１０２,,12,230,2891115,,,,,,,2025-09-19,1,,,,,ヘイワ,0
1393,6050001057211,新規,0,2025-09-19,2025-09-19,株式会社メンザイ日本不動産,,株式会社,茨城県,坂東市,菅谷４４７番地２,,08,228,3060505,,,,,,,2025-09-19,1,,,,,メンザイニホンフドウサン,0
1394,6050001057302,新規,0,2025-09-19,2025-09-19,アイエフインターナショナル株式会社,,株式会社,茨城県,常総市,本石下９番地５,,08,211,3002707,,,,,,,2025-09-19,1,,,,,アイエフインターナショナル,0
1397,6050005013697,新規,0,2025-09-19,2025-09-19,一般社団法人あなりつ福祉会,,その他の設立登記法人,茨城県,牛久市,岡見町２７３３番地１９４,,08,219,3001204,,,,,,,2025-09-19,1,,,,,アナリツフクシカイ,0
1401,6060003005761,新規,0,2025-09-19,2025-09-19,ＳＡＩ　ＳＴＡＲ　Ｉｎｔｅｒｎａｔｉｏｎａｌ合同会社,,合同会社,栃木県,塩谷郡高根沢町,大字宝積寺１０２１－６昭和ハイツＡ２階２０１号室,,09,386,3291233,,,,,,,2025-09-19,1,,,,,サイスターインターナショナル,0
1404,6080101025791,新規,0,2025-09-19,2025-09-19,ＭＡＥ　ＭＡ　ＹＡＡ株式会社,,株式会社,静岡県,富士宮市,中里東町７３６番地光山荘４６号,,22,207,4180046,,,,,,,2025-09-19,1,,,,,メッマヤ,0
1411,6100001038973,新規,0,2025-09-19,2025-09-19,株式会社さくら工務店,,株式会社,長野県,飯田市,鼎上山１７９８番地１サニーハウス鼎Ｄ棟,,20,205,3950806,,,,,,,2025-09-19,1,,,,,サクラコウムテン,0
1428,6120001279500,新規,0,2025-09-19,2025-09-19,株式会社日健エンタープライズ,,株式会社,大阪府,大阪市西区,西本町１丁目１０番３号新松岡ビル,,27,106,5500005,,,,,,,2025-09-19,1,,,,,ニッケンエンタープライズ,0
1429,6120001279673,新規,0,2025-09-19,2025-09-19,タカサン株式会社,,株式会社,大阪府,大阪市鶴見区,今津南１丁目２番３８号３０１室,,27,124,5380043,,,,,,,2025-09-19,1,,,,,タカサン,0
1430,6120001279698,新規,0,2025-09-19,2025-09-19,株式会社リヴァン,,株式会社,大阪府,門真市,月出町２０番１３号,,27,223,5710052,,,,,,,2025-09-19,1,,,,,リヴァン,0
1431,6120001279806,新規,0,2025-09-19,2025-09-19,桜華株式会社,,株式会社,大阪府,大阪市港区,田中２丁目８番６号,,27,107,5520005,,,,,,,2025-09-19,1,,,,,サクラカ,0
1435,6120003030605,新規,0,2025-09-19,2025-09-19,合同会社ＫＳＹＤ,,合同会社,大阪府,大阪市天王寺区,筆ケ崎町２－１０－４０６,,27,109,5430027,,,,,,,2025-09-19,1,,,,,ケーエスワイディー,0
1436,6120101072474,新規,0,2025-09-19,2025-09-19,株式会社幸和,,株式会社,大阪府,河内長野市,喜多町３８５番地,,27,216,5860033,,,,,,,2025-09-19,1,,,,,コウワ,0
1437,6120901051495,新規,0,2025-09-19,2025-09-19,株式会社ジーテック,,株式会社,大阪府,箕面市,粟生間谷東５丁目１８番２６号の２,,27,220,5620022,,,,,,,2025-09-19,1,,,,,ジーテック,0
1438,6120901051504,新規,0,2025-09-19,2025-09-19,株式会社ハピネスプラス,,株式会社,大阪府,吹田市,豊津町３０番１号,,27,205,5640051,,,,,,,2025-09-19,1,,,,,ハピネスプラス,0
1441,6122001039636,新規,0,2025-09-19,2025-09-19,株式会社カウカウ不動産販売,,株式会社,大阪府,東大阪市,若江東町５丁目６番２１号,,27,227,5780935,,,,,,,2025-09-19,1,,,,,カウカウフドウサンハンバイ,0
1448,6140001140057,新規,0,2025-09-19,2025-09-19,株式会社ＲＲＲ,,株式会社,兵庫県,尼崎市,善法寺町２７番３４号,,28,202,6610973,,,,,,,2025-09-19,1,,,,,トリプルアール,0
1452,6150001028367,新規,0,2025-09-19,2025-09-19,マルセイ株式会社,,株式会社,奈良県,生駒郡平群町,上庄５丁目８－８,,29,342,6360905,,,,,,,2025-09-19,1,,,,,マルセイ,0
1453,6160001027062,新規,0,2025-09-19,2025-09-19,京滋交通株式会社,,株式会社,滋賀県,大津市,一里山４丁目２６－５５サンホーム３０６号室,,25,201,5202153,,,,,,,2025-09-19,1,,,,,ケイジコウツウ,0
1454,6160003003607,新規,0,2025-09-19,2025-09-19,ＲｉＵ合同会社,,合同会社,滋賀県,栗東市,苅原９４番地１４,,25,208,5203032,,,,,,,2025-09-19,1,,,,,アールアイユー,0
1458,6180001168623,新規,0,2025-09-19,2025-09-19,株式会社９,,株式会社,愛知県,名古屋市北区,成願寺１丁目６番Ａ－３８０３号,,23,103,4620021,,,,,,,2025-09-19,1,,,,,キュウ,0
1459,6180001168656,新規,0,2025-09-19,2025-09-19,株式会社万宝商事,,株式会社,愛知県,名古屋市中村区,畑江通７丁目３６‐１アズシアビル２０１,,23,105,4530851,,,,,,,2025-09-19,1,,,,,マンホウショウジ,0
1460,6180001168664,新規,0,2025-09-19,2025-09-19,株式会社Ｆ’ＬｉＯ,,株式会社,愛知県,名古屋市中村区,名駅１丁目１番１号ＪＰタワー名古屋２１階,,23,105,4500002,,,,,,,2025-09-19,1,,,,,フィリオ,0
1461,6180001168689,新規,0,2025-09-19,2025-09-19,ｆｌｏｒｉｇｈｔ株式会社,,株式会社,愛知県,名古屋市東区,泉３丁目４番２５号,,23,102,4610001,,,,,,,2025-09-19,1,,,,,フローライト,0
1463,6180003029030,新規,0,2025-09-19,2025-09-19,サゴウ企画合同会社,,合同会社,愛知県,東海市,荒尾町寺下３番地の１,,23,222,4760003,,,,,,,2025-09-19,1,,,,,サゴウキカク,0
1464,6180003029055,新規,0,2025-09-19,2025-09-19,合同会社ＣＤＪラボ,,合同会社,愛知県,日進市,浅田町笹原４１番地６メゾン笹原ＩＩ１０５号室,00140712,23,230,4700124,,,,,,,2025-09-19,1,,,,,シーディジェイラボ,0
1465,6180003029063,新規,0,2025-09-19,2025-09-19,Ａｖｅｎｇｅ　Ｓｔｕｄｉｏ合同会社,,合同会社,愛知県,名古屋市中村区,名駅４丁目２４番５号第２森ビル４０１,,23,105,4500002,,,,,,,2025-09-19,1,,,,,アヴェンジスタジオ,0
1466,6180003029071,新規,0,2025-09-19,2025-09-19,合同会社Ｆｏｒｌｉｆｅ,,合同会社,愛知県,名古屋市中村区,名駅南３丁目１０番７号ルココン名駅南３Ｆ,,23,105,4500003,,,,,,,2025-09-19,1,,,,,フォーライフ,0
1467,6180005021225,新規,0,2025-09-19,2025-09-19,一般社団法人子育て未来支援,,その他の設立登記法人,愛知県,名古屋市中区,栄５丁目２６番３９号,,23,106,4600008,,,,,,,2025-09-19,1,,,,,コソダテミライシエン,0
1470,6190001032539,新規,0,2025-09-19,2025-09-19,中央ホールディングス株式会社,,株式会社,三重県,桑名市,大央町２５番地,,24,205,5110065,,,,,,,2025-09-19,1,,,,,チュウオウホールディングス,0
1473,6200001044251,新規,0,2025-09-19,2025-09-19,徳財貿易株式会社,,株式会社,岐阜県,大垣市,青木町１番地１,,21,202,5032202,,,,,,,2025-09-19,1,,,,,トクザイボウエキ,0
1480,6230001021090,新規,0,2025-09-19,2025-09-19,ＭＨ　ＣＯＲＰＯＲＡＴＩＯＮ株式会社,,株式会社,富山県,富山市,草島１２３番地１,,16,201,9302201,,,,,,,2025-09-19,1,,,,,エムエイチコーポレーション,0
1484,6260001040559,新規,0,2025-09-19,2025-09-19,株式会社ＲｈｉｎｏＳ,,株式会社,岡山県,岡山市北区,今８丁目１４－２８今８丁目合同ビル２Ｆ,,33,101,7000975,,,,,,,2025-09-19,1,,,,,ライノス,0
1490,6290003017379,新規,0,2025-09-19,2025-09-19,合同会社スターチャイルド,,合同会社,福岡県,福岡市中央区,平尾３丁目３０番２６－１０２号,,40,133,8100014,,,,,,,2025-09-19,1,,,,,スターチャイルド,0
1491,6290003017387,新規,0,2025-09-19,2025-09-19,合同会社Ｐａｒａｖｅｌｌｕｍ,,合同会社,福岡県,福岡市博多区,博多駅前１丁目２３番２号ＰａｒｋＦｒｏｎｔ博多駅前１丁目５Ｆ－Ｂ,,40,132,8120011,,,,,,,2025-09-19,1,,,,,パラベラム,0
1492,6290003017395,新規,0,2025-09-19,2025-09-19,合同会社あじさい,,合同会社,福岡県,みやま市,山川町尾野２１１０－２,,40,229,8350102,,,,,,,2025-09-19,1,,,,,アジサイ,0
1493,6290003017453,新規,0,2025-09-19,2025-09-19,合同会社ＥｙｅＫｅｙ,,合同会社,福岡県,朝倉郡筑前町,砥上１３３７－８,,40,447,8380223,,,,,,,2025-09-19,1,,,,,アイキー,0
1494,6290003017461,新規,0,2025-09-19,2025-09-19,ＨＧ合同会社,,合同会社,福岡県,福岡市博多区,吉塚１丁目１６番８－８０５号ライオンズマンション県庁東,,40,132,8120041,,,,,,,2025-09-19,1,,,,,エイチジー,0
1495,6290005019836,新規,0,2025-09-19,2025-09-19,特定非営利活動法人おごすぽ,,その他の設立登記法人,福岡県,小郡市,美鈴の杜３丁目１番地２サンリヤンアネックス美鈴の杜４０１号,,40,216,8380108,,,,,,,2025-09-19,1,,,,,オゴスポ,0
1498,6300001014351,新規,0,2025-09-19,2025-09-19,株式会社いろは,,株式会社,佐賀県,佐賀市,北川副町大字光法１４９０番地６,,41,201,8400012,,,,,,,2025-09-19,1,,,,,イロハ,0
1500,6300003002338,新規,0,2025-09-19,2025-09-19,合同会社ＡＬＳＨＯ,,合同会社,佐賀県,鳥栖市,江島町３２５５番地５４８,,41,203,8410073,,,,,,,2025-09-19,1,,,,,アラショウ,0
1505,6320001021346,新規,0,2025-09-19,2025-09-19,株式会社Ｏｒｉｖｅｒｔｏ,,株式会社,大分県,大分市,下郡中央２丁目１０－３５－４０５シティコート,,44,201,8700954,,,,,,,2025-09-19,1,,,,,オリヴェルト,0
1508,6330003011220,新規,0,2025-09-19,2025-09-19,合同会社ココレイ,,合同会社,熊本県,熊本市中央区,中央街４番２２号アルバ銀座通りビル２－８Ｆ,,43,101,8600802,,,,,,,2025-09-19,1,,,,,ココレイ,0
1513,6350001019734,新規,0,2025-09-19,2025-09-19,株式会社黒兵衛,,株式会社,宮崎県,宮崎市,千草町１番１号,,45,201,8800006,,,,,,,2025-09-19,1,,,,,クロベエ,0
1515,6360001035796,新規,0,2025-09-19,2025-09-19,株式会社沖縄ソーラーサポートセンター,,株式会社,沖縄県,中頭郡西原町,字小那覇５１２番地,,47,329,9030103,,,,,,,2025-09-19,1,,,,,オキナワソーラーサポートセンター,0
1516,6370001053062,新規,0,2025-09-19,2025-09-19,株式会社Ｓｈａｌｉ　Ｇｌｏｂａｌ,,株式会社,宮城県,刈田郡蔵王町,宮字井戸井４４－１４,,04,301,9890701,,,,,,,2025-09-19,1,,,,,シャリグローバル,0
1539,6460303000884,新規,0,2025-09-19,2025-09-19,合同会社田中牧場,,合同会社,北海道,常呂郡置戸町,字常盤３３７番地の９,,01,550,0991367,,,,,,,2025-09-19,1,,,,,タナカボクジョウ,0
1542,6480003002320,新規,0,2025-09-19,2025-09-19,合同会社ＡＷＡＫＥ,,合同会社,徳島県,板野郡上板町,椎本字椎ノ宮２４６番地１,,36,405,7711343,,,,,,,2025-09-19,1,,,,,アウェイク,0
1553,7010005040686,新規,0,2025-09-19,2025-09-19,一般社団法人コンゴコミュニティＯＫＡＰＩ協会,,その他の設立登記法人,東京都,文京区,白山２丁目３３番３号メゾン・ド・白山１０３,,13,105,1120001,,,,,,,2025-09-19,1,,,,,コンゴコミュニティオカピキョウカイ,0
1554,7010103002654,新規,0,2025-09-19,2025-09-19,ＢＨＯＲＯＳＡ　ＧＲＯＵＰ合同会社,,合同会社,東京都,八王子市,緑町２９－２－１０３,,13,201,1930932,,,,,,,2025-09-19,1,,,,,ボロサグループ,0
1560,7010401193195,新規,0,2025-09-19,2025-09-19,株式会社ＬＩＢ,,株式会社,東京都,港区,高輪３丁目１０番２号グラスプラス高輪,,13,103,1080074,,,,,,,2025-09-19,1,,,,,リブ,0
1562,7010403036014,新規,0,2025-09-19,2025-09-19,合同会社ＳＫＮ,,合同会社,東京都,港区,六本木１丁目９－１アークフォレストテラス６０１,,13,103,1060032,,,,,,,2025-09-19,1,,,,,エスケイエヌ,0
1563,7010403036063,新規,0,2025-09-19,2025-09-19,陽柊アセット合同会社,,合同会社,東京都,港区,芝２丁目１７番１１号,,13,103,1050014,,,,,,,2025-09-19,1,,,,,ハルヒアセット,0
1566,7010801036607,新規,0,2025-09-19,2025-09-19,株式会社拓美,,株式会社,東京都,大田区,西蒲田７丁目６０番１号,,13,111,1440051,,,,,,,2025-09-19,1,,,,,タクミ,0
1567,7010801036615,新規,0,2025-09-19,2025-09-19,住まいＲｕ不動産株式会社,,株式会社,東京都,大田区,蒲田５丁目２１番１３号ペガサスステーションプラザ蒲田Ｂ２－３５,,13,111,1440052,,,,,,,2025-09-19,1,,,,,スマイルフドウサン,0
1569,7010805003207,新規,0,2025-09-19,2025-09-19,一般社団法人なないろ,,その他の設立登記法人,東京都,大田区,大森北１丁目４番８号森央ビル４Ｆ,,13,111,1430016,,,,,,,2025-09-19,1,,,,,ナナイロ,0
1573,7011001172151,新規,0,2025-09-19,2025-09-19,株式会社Ｈｏｍｉｅｓ,,株式会社,東京都,目黒区,南３丁目２番１－７０４号エコロジー都立大学レジデンス,,13,110,1520013,,,,,,,2025-09-19,1,,,,,ホーミーズ,0
1574,7011001172580,新規,0,2025-09-19,2025-09-19,株式会社メタワン,,株式会社,東京都,渋谷区,恵比寿西２丁目４番８号ウィンド恵比寿ビル８Ｆ,,13,113,1500021,,,,,,,2025-09-19,1,,,,,メタワン,0
1577,7011101113212,新規,0,2025-09-19,2025-09-19,株式会社Ｅｖａ,,株式会社,東京都,新宿区,原町３丁目３３－２フェニックス新宿夏目坂７０２,,13,104,1620053,,,,,,,2025-09-19,1,,,,,エヴァ,0
1578,7011101113229,新規,0,2025-09-19,2025-09-19,株式会社ネクパス,,株式会社,東京都,新宿区,神楽坂６丁目８文悠ビル,,13,104,1620825,,,,,,,2025-09-19,1,,,,,ネクパス,0
1581,7011103016396,新規,0,2025-09-19,2025-09-19,ＣＮ　ＴＲＡＤＥ合同会社,,合同会社,東京都,新宿区,上落合３丁目８番２５号,,13,104,1610034,,,,,,,2025-09-19,1,,,,,シーエヌトレード,0
1582,7011103016421,新規,0,2025-09-19,2025-09-19,合同会社ミズツキ,,合同会社,東京都,新宿区,百人町２丁目５－４土屋ビル２ＦＬｉｎｋＳｐａｃｅＳ１６号室,,13,104,1690073,,,,,,,2025-09-19,1,,,,,ミズツキ,0
1588,7011703004387,新規,0,2025-09-19,2025-09-19,ＫＡＩＪアセットマネジメント合同会社,,合同会社,東京都,江戸川区,平井２丁目１６番２２－３０４号,,13,123,1320035,,,,,,,2025-09-19,1,,,,,ケイエイアイジェイアセットマネジメント,0
1591,7011801046769,新規,0,2025-09-19,2025-09-19,リョウエイ株式会社,,株式会社,東京都,葛飾区,亀有５丁目４９番７号,,13,122,1250061,,,,,,,2025-09-19,1,,,,,リョウエイ,0
1593,7011803007083,新規,0,2025-09-19,2025-09-19,ＤＫ合同会社,,合同会社,東京都,足立区,青井５丁目１８番６－２０２号,,13,121,1210012,,,,,,,2025-09-19,1,,,,,ディーケイ,0
1594,7011803007091,新規,0,2025-09-19,2025-09-19,ＧＧＭ合同会社,,合同会社,東京都,足立区,伊興４丁目７番４－４０２号,,13,121,1210823,,,,,,,2025-09-19,1,,,,,ジージーエム,0
1595,7012305002151,新規,0,2025-09-19,2025-09-19,一般社団法人ブルーストリーム,,その他の設立登記法人,東京都,町田市,本町田２５５９番地１ト５－４０１,,13,209,1940032,,,,,,,2025-09-19,1,,,,,ブルーストリーム,0
1597,7012801024260,新規,0,2025-09-19,2025-09-19,コスモシステム株式会社,,株式会社,東京都,立川市,柴崎町３丁目１２番１７号,,13,202,1900023,,,,,,,2025-09-19,1,,,,,コスモシステム,0
1598,7013301054979,新規,0,2025-09-19,2025-09-19,株式会社ＢＡＫｕ,,株式会社,東京都,豊島区,東池袋２丁目６２番８号,,13,116,1700013,,,,,,,2025-09-19,1,,,,,バク,0
1603,7020001164926,新規,0,2025-09-19,2025-09-19,株式会社Ｌｅｇａｌ　Ｉｎｓｐｉｒｅ,,株式会社,神奈川県,川崎市幸区,南加瀬３丁目２番７－２号,,14,132,2120055,,,,,,,2025-09-19,1,,,,,リーガルインスパイア,0
1606,7021005013433,新規,0,2025-09-19,2025-09-19,一般社団法人ＩＭＡ国際メダカ愛好会,,その他の設立登記法人,神奈川県,秦野市,北矢名８１番１号ソレアード１０７号室,,14,211,2570006,,,,,,,2025-09-19,1,,,,,,0
1610,7030001168703,新規,0,2025-09-19,2025-09-19,株式会社雷燕トリニティレオ,,株式会社,埼玉県,川口市,本町４丁目１番５号高橋ビル６階,00140706,11,203,3320012,,,,,,,2025-09-19,1,,,,,ライエントリニティレオ,0
1611,7030001168736,新規,0,2025-09-19,2025-09-19,嘉合商事株式会社,,株式会社,埼玉県,川口市,並木２丁目１１番９－３０１号Ａ室,,11,203,3320034,,,,,,,2025-09-19,1,,,,,カゴウショウジ,0
1614,7030003027642,新規,0,2025-09-19,2025-09-19,合同会社Ｄｅｕｘ　ｖｉｅｓ,,合同会社,埼玉県,川口市,西川口１丁目５番２０号４階Ａ‐６号室,,11,203,3320021,,,,,,,2025-09-19,1,,,,,ドゥヴィ,0
1620,7040001140545,新規,0,2025-09-19,2025-09-19,Ｌａｐｌａｃｅ株式会社,,株式会社,千葉県,木更津市,羽鳥野３丁目１－１１２,,12,206,2920819,,,,,,,2025-09-19,1,,,,,ラプラス,0
1622,7040003028540,新規,0,2025-09-19,2025-09-19,ＭＡ合同会社,,合同会社,千葉県,千葉市若葉区,上泉町６６０番地,,12,104,2650045,,,,,,,2025-09-19,1,,,,,エムエー,0
1623,7040003028557,新規,0,2025-09-19,2025-09-19,エヌディサポート合同会社,,合同会社,千葉県,千葉市稲毛区,園生町６９６番地,,12,103,2630051,,,,,,,2025-09-19,1,,,,,エヌディサポート,0
1626,7050001057210,新規,0,2025-09-19,2025-09-19,株式会社メンザイセントラルグループ,,株式会社,茨城県,坂東市,菅谷４４７番地２,,08,228,3060505,,,,,,,2025-09-19,1,,,,,メンザイセントラルグループ,0
1627,7050001057301,新規,0,2025-09-19,2025-09-19,株式会社アメナ,,株式会社,茨城県,常総市,本石下４３番地,,08,211,3002707,,,,,,,2025-09-19,1,,,,,アメナ,0
1630,7050003009589,新規,0,2025-09-19,2025-09-19,ＳＡ　ＴＲＡＤＩＮＧ合同会社,,合同会社,茨城県,坂東市,みむら６０８番地,,08,228,3060655,,,,,,,2025-09-19,1,,,,,エスエイトレイディング,0
1631,7050005013696,新規,0,2025-09-19,2025-09-19,医療法人桐雄会,,その他の設立登記法人,茨城県,つくば市,春日３丁目１番地１つくばクリニックセンタービル３階,,08,220,3050821,,,,,,,2025-09-19,1,,,,,トウユウカイ,0
1633,7060003005760,新規,0,2025-09-19,2025-09-19,ＨＡＮＡＭＩ　ＴＲＡＤＩＮＧ合同会社,,合同会社,栃木県,下都賀郡野木町,大字丸林６６７－７,,09,364,3290111,,,,,,,2025-09-19,1,,,,,ハナミトレーディング,0
1644,7100001038964,新規,0,2025-09-19,2025-09-19,株式会社リ・トリート,,株式会社,長野県,北佐久郡軽井沢町,大字発地５２２番地９３,,20,321,3890113,,,,,,,2025-09-19,1,,,,,リトリート,0
1645,7100001038972,新規,0,2025-09-19,2025-09-19,プレアフラワー株式会社,,株式会社,長野県,松本市,中央４丁目７番１７号,,20,202,3900811,,,,,,,2025-09-19,1,,,,,プレアフラワー,0
1655,7120001279623,新規,0,2025-09-19,2025-09-19,長安楽株式会社,,株式会社,大阪府,大阪市都島区,東野田町４丁目１－５吉升ビル３１２号,,27,102,5340024,,,,,,,2025-09-19,1,,,,,チョウアンラク,0
1656,7120001279689,新規,0,2025-09-19,2025-09-19,ふわくも株式会社,,株式会社,大阪府,大阪市中央区,船場中央２丁目１番４号船場センタービル４号館Ｂ１０８ＲＯＹＡＬＯＦＦＩＣＥ内,,27,128,5410055,,,,,,,2025-09-19,1,,,,,フワクモ,0
1657,7120001279722,新規,0,2025-09-19,2025-09-19,株式会社誠,,株式会社,大阪府,大阪市生野区,中川西１丁目１０番１８号,,27,116,5440032,,,,,,,2025-09-19,1,,,,,マコト,0
1658,7120001279730,新規,0,2025-09-19,2025-09-19,株式会社ＳＵＮＬＯＧＵＥ,,株式会社,大阪府,大阪市旭区,清水２丁目６番２６号,,27,117,5350021,,,,,,,2025-09-19,1,,,,,サンローグ,0
1659,7120001279739,新規,0,2025-09-19,2025-09-19,百味株式会社,,株式会社,大阪府,大阪市東住吉区,住道矢田８丁目２番１５号１０２号室,,27,121,5460022,,,,,,,2025-09-19,1,,,,,ヒャクミ,0
1660,7120001279763,新規,0,2025-09-19,2025-09-19,株式会社ツルミ,,株式会社,大阪府,大阪市城東区,関目４丁目１３番５号,,27,118,5360008,,,,,,,2025-09-19,1,,,,,ツルミ,0
1661,7120001279805,新規,0,2025-09-19,2025-09-19,株式会社ハセーラデザイン室,,株式会社,大阪府,大阪市東成区,大今里２丁目１８番９号,,27,115,5370012,,,,,,,2025-09-19,1,,,,,ハセーラデザインシツ,0
1662,7120001279961,新規,0,2025-09-19,2025-09-19,Ｃｅｎｔａｒａ　Ｉｎｔｅｒｎａｔｉｏｎａｌ　Ｍａｎａｇｅｍｅｎｔ　Ｊａｐａｎ株式会社,,株式会社,大阪府,大阪市浪速区,難波中２丁目１１番５０号,,27,111,5560011,,,,,,,2025-09-19,1,,,,,センターラインターナショナルマネジメントジャパン,0
1663,7120001280143,新規,0,2025-09-19,2025-09-19,株式会社ＡＧＲＵＭ,,株式会社,大阪府,大阪市浪速区,日本橋東３丁目７番２１－２０１号,,27,111,5560006,,,,,,,2025-09-19,1,,,,,アグラム,0
1664,7120003030612,新規,0,2025-09-19,2025-09-19,旭日貿易合同会社,,合同会社,大阪府,大阪市西淀川区,姫島２丁目４番１０号パークアベニュー２階Ａ室,,27,113,5550033,,,,,,,2025-09-19,1,,,,,キョクジツボウエキ,0
1665,7120003030620,新規,0,2025-09-19,2025-09-19,飛豹商事合同会社,,合同会社,大阪府,大阪市東成区,大今里２丁目６番１８号昇徳ビル１階Ｍ室,,27,115,5370012,,,,,,,2025-09-19,1,,,,,ヒヒョウショウジ,0
1666,7120003030629,新規,0,2025-09-19,2025-09-19,合同会社Ｒｉｎｋ　Ｓｕｎ,,合同会社,大阪府,大阪市淀川区,新高２丁目４番２９号,,27,123,5320033,,,,,,,2025-09-19,1,,,,,リンクサン,0
1672,7120101072465,新規,0,2025-09-19,2025-09-19,大成開発株式会社,,株式会社,大阪府,泉佐野市,日根野５５６９－１３,,27,213,5980021,,,,,,,2025-09-19,1,,,,,タイセイカイハツ,0
1673,7120101072481,新規,0,2025-09-19,2025-09-19,株式会社ＦＬＯＷ　ＣＡＰＩＴＡＬ,,株式会社,大阪府,堺市美原区,大饗２１０番地,,27,147,5870063,,,,,,,2025-09-19,1,,,,,フロウキャピタル,0
1676,7120103006719,新規,0,2025-09-19,2025-09-19,ＬＡＬＡ　ＴＲＡＤＩＮＧ合同会社,,合同会社,大阪府,富田林市,大字伏見堂７番地１,,27,214,5840055,,,,,,,2025-09-19,1,,,,,ララトレーディング,0
1677,7122001039643,新規,0,2025-09-19,2025-09-19,株式会社ＳＡＳ,,株式会社,大阪府,八尾市,泉町３丁目７,,27,212,5810813,,,,,,,2025-09-19,1,,,,,エスエーエス,0
1687,7140001140056,新規,0,2025-09-19,2025-09-19,株式会社Ｓｔｅｌｌａｒｉｓ　ＨＤ,,株式会社,兵庫県,姫路市,神田町２丁目９番地２,,28,201,6700991,,,,,,,2025-09-19,1,,,,,ステラリスホールディングス,0
1696,7150001028408,新規,0,2025-09-19,2025-09-19,株式会社アトリエン,,株式会社,奈良県,桜井市,大字河西２１１番地の１０,,29,206,6330051,,,,,,,2025-09-19,1,,,,,アトリエン,0
1704,7180001168589,新規,0,2025-09-19,2025-09-19,株式会社光武,,株式会社,愛知県,名古屋市中区,新栄２丁目２－７東和マンション広小路３０４,,23,106,4600007,,,,,,,2025-09-19,1,,,,,ミツタケ,0
1705,7180001168655,新規,0,2025-09-19,2025-09-19,福満東株式会社,,株式会社,愛知県,名古屋市中村区,豊国通３丁目２４,,23,105,4530834,,,,,,,2025-09-19,1,,,,,フクマントウ,0
1706,7180001168671,新規,0,2025-09-19,2025-09-19,株式会社ＢＥＬＣＲＩＳ,,株式会社,愛知県,名古屋市千種区,星が丘元町２番６号プラウド星が丘元町１１０３号,,23,101,4640802,,,,,,,2025-09-19,1,,,,,ベルクリス,0
1707,7180001168688,新規,0,2025-09-19,2025-09-19,株式会社Ｅｑｕｅｓ,,株式会社,愛知県,瀬戸市,西印所町３２番地,,23,204,4890079,,,,,,,2025-09-19,1,,,,,エクエス,0
1708,7180001168696,新規,0,2025-09-19,2025-09-19,日本ボールド株式会社,,株式会社,愛知県,名古屋市昭和区,広路町字石坂３６ー１シャト一楼蘭Ｄ３,,23,107,4660834,,,,,,,2025-09-19,1,,,,,ニホンボールド,0
1710,7180003029054,新規,0,2025-09-19,2025-09-19,合同会社潤豪,,合同会社,愛知県,知多郡阿久比町,大字植大字植向山１８番地２,,23,441,4702216,,,,,,,2025-09-19,1,,,,,ジュンゴウ,0
1712,7180303006728,新規,0,2025-09-19,2025-09-19,合同会社ＡＨＡＤ　ＴＲＡＤＩＮＧ,,合同会社,愛知県,豊橋市,東七根町字西宝地９９番地１フラワーハイツ１－１０３,,23,201,4413201,,,,,,,2025-09-19,1,,,,,アハドトレーディング,0
1714,7180305009729,新規,0,2025-09-19,2025-09-19,医療法人オルソ,,その他の設立登記法人,愛知県,豊田市,宮町５丁目５３番地,,23,211,4710043,,,,,,,2025-09-19,1,,,,,オルソ,0
1723,7220001026932,新規,0,2025-09-19,2025-09-19,株式会社グローバルヒューマンサポート,,株式会社,石川県,能美市,大浜町ウ１０７番地１,,17,211,9290122,,,,,,,2025-09-19,1,,,,,グローバルヒューマンサポート,0
1725,7230003002501,新規,0,2025-09-19,2025-09-19,Ｎｕ　Ｖａｎｉ合同会社,,合同会社,富山県,富山市,山室２５７番地１ハイツンヒダノ１０６,,16,201,9398006,,,,,,,2025-09-19,1,,,,,ヌーバニ,0
1729,7250001021336,新規,0,2025-09-19,2025-09-19,株式会社アートビルド,,株式会社,山口県,岩国市,御庄１丁目１０７番地６,,35,208,7410083,,,,,,,2025-09-19,1,,,,,アートビルド,0
1733,7260003005352,新規,0,2025-09-19,2025-09-19,ＳＢ　Ｇｌｏｂａｌ　Ｈｏｌｄｉｎｇｓ合同会社,,合同会社,岡山県,岡山市北区,原１１１５番地１サンコーポ原１０１,,33,101,7012154,,,,,,,2025-09-19,1,,,,,エスビーグローバルホールディングス,0
1737,7290001111521,新規,0,2025-09-19,2025-09-19,株式会社ＫＲｅＳＳ,,株式会社,福岡県,福岡市中央区,白金２丁目１２番１１－１４０２号,,40,133,8100012,,,,,,,2025-09-19,1,,,,,クレス,0
1739,7290003017394,新規,0,2025-09-19,2025-09-19,合同会社Ｎｅｗ　ｇａｔｅ,,合同会社,福岡県,福岡市博多区,中洲４丁目１－２４－３Ｆ,,40,132,8100801,,,,,,,2025-09-19,1,,,,,ニューゲート,0
1742,7290801031860,新規,0,2025-09-19,2025-09-19,ニニギ株式会社,,株式会社,福岡県,北九州市小倉北区,小文字１丁目１０番６号,,40,106,8020037,,,,,,,2025-09-19,1,,,,,ニニギ,0
1744,7320005010261,新規,0,2025-09-19,2025-09-19,一般社団法人大分グリーンファイターズ,,その他の設立登記法人,大分県,大分市,大字光吉１８４３番地の２３７,,44,201,8701132,,,,,,,2025-09-19,1,,,,,オオイタグリーンファイターズ,0
1749,7350001019733,新規,0,2025-09-19,2025-09-19,株式会社コネクト,,株式会社,宮崎県,都城市,乙房町１７１５番地４,,45,202,8850112,,,,,,,2025-09-19,1,,,,,コネクト,0
1750,7350005006331,新規,0,2025-09-19,2025-09-19,医療法人けやきの杜小児・矯正歯科クリニック,,その他の設立登記法人,宮崎県,都城市,郡元町３３３２番３５,,45,202,8850013,,,,,,,2025-09-19,1,,,,,ケヤキノモリショウニキョウセイシカクリニック,0
1754,7360001035795,新規,0,2025-09-19,2025-09-19,株式会社カトリ,,株式会社,沖縄県,浦添市,屋富祖２丁目１６番１０号３階,,47,208,9012127,,,,,,,2025-09-19,1,,,,,カトリ,0
1755,7360003015242,新規,0,2025-09-19,2025-09-19,合同会社大縁海,,合同会社,沖縄県,沖縄市,久保田１丁目１９番６号,,47,211,9040023,,,,,,,2025-09-19,1,,,,,ダイエンカイ,0
1763,7380003006140,新規,0,2025-09-19,2025-09-19,合同会社ケイ＆エム,,合同会社,福島県,二本松市,新座１３１番地５７,,07,210,9640882,,,,,,,2025-09-19,1,,,,,ケイアンドエム,0
1770,7430001095221,新規,0,2025-09-19,2025-09-19,ＫｅｉＫｏｕＴｅｃｈ株式会社,,株式会社,北海道,札幌市中央区,南一条西１６丁目１番地３２３春野ビル３Ｆ,,01,101,0600061,,,,,,,2025-09-19,1,,,,,ケイコウテック,0
1772,7460101007759,新規,0,2025-09-19,2025-09-19,ＮｏａｈＣｒａｆｔ株式会社,,株式会社,北海道,帯広市,白樺十六条西３丁目５番地２,,01,207,0800051,,,,,,,2025-09-19,1,,,,,,0
1773,7460303000883,新規,0,2025-09-19,2025-09-19,ＴＵＦＡＩＬ　ＴＲＡＤＩＮＧ合同会社,,合同会社,北海道,北見市,東相内町４００－１,,01,208,0990878,,,,,,,2025-09-19,1,,,,,トゥフェイルトレーディング,0
1778,7490003002046,新規,0,2025-09-19,2025-09-19,合同会社いきやすさ農園,,合同会社,高知県,安芸市,伊尾木６１４番地,,39,203,7840045,,,,,,,2025-09-19,1,,,,,イキヤスサノウエン,0
1804,8010401193145,新規,0,2025-09-19,2025-09-19,トラシスジャパン株式会社,,株式会社,東京都,港区,北青山１丁目３番３号三橋ビル３階,,13,103,1070061,,,,,,,2025-09-19,1,,,,,トラシスジャパン,0
1805,8010401193194,新規,0,2025-09-19,2025-09-19,ＨＹ株式会社,,株式会社,東京都,港区,愛宕２丁目５番１号愛宕グリーンヒルズＭＯＲＩタワー３４階,,13,103,1050002,,,,,,,2025-09-19,1,,,,,エイチワイ,0
1806,8010401193228,新規,0,2025-09-19,2025-09-19,株式会社バンガルボダイジュ,,株式会社,東京都,港区,六本木３丁目１６番１２号六本木ＫＳビル５Ｆ,,13,103,1060032,,,,,,,2025-09-19,1,,,,,バンガルボダイジュ,0
1810,8010403036046,新規,0,2025-09-19,2025-09-19,ＭｉＱ　Ｄｉｇｉｔａｌ　Ｊａｐａｎ合同会社,,合同会社,東京都,港区,赤坂１丁目１２番３２号アーク森ビル６階,,13,103,1070052,,,,,,,2025-09-19,1,,,,,エムアイキューデジタルジャパン,0
1814,8010501054734,新規,0,2025-09-19,2025-09-19,株式会社ＯＧＡ　ＢＲＯ,,株式会社,東京都,台東区,蔵前３丁目１７番３号蔵前ＳＩビル,,13,106,1110051,,,,,,,2025-09-19,1,,,,,オージーエーブロ,0
1819,8010701048214,新規,0,2025-09-19,2025-09-19,株式会社ＭｉｒａｉＱｕｅｓｔ,,株式会社,東京都,品川区,上大崎３丁目３－９秀和目黒駅前レジデンス１１０３号室,,13,109,1410021,,,,,,,2025-09-19,1,,,,,ミライクエスト,0
1820,8010701048321,新規,0,2025-09-19,2025-09-19,レストランパフューム株式会社,,株式会社,東京都,品川区,東五反田４丁目７－２９ＮＫ五反田ビル１Ｆ,,13,109,1410022,,,,,,,2025-09-19,1,,,,,レストランパフューム,0
1821,8010801036606,新規,0,2025-09-19,2025-09-19,株式会社マウ,,株式会社,東京都,大田区,下丸子３丁目１３番３号下丸子ビル３０１号室,,13,111,1460092,,,,,,,2025-09-19,1,,,,,マウ,0
1822,8010801036614,新規,0,2025-09-19,2025-09-19,ＨＲＧ　ｉｎｎｏｖａｔｉｏｎ株式会社,,株式会社,東京都,大田区,南蒲田１丁目９番１２号,,13,111,1440035,,,,,,,2025-09-19,1,,,,,エイチアールジーイノベーション,0
1824,8010803005550,新規,0,2025-09-19,2025-09-19,ＤｉａｌＵｐ合同会社,,合同会社,東京都,大田区,南千束２丁目１７番１０号クレストコート大岡山３０７,,13,111,1450063,,,,,,,2025-09-19,1,,,,,ディアルアップ,0
1827,8010901058079,新規,0,2025-09-19,2025-09-19,Ｉｌｌｕｓｉｏｎ　Ｃｌｕｂ株式会社,,株式会社,東京都,世田谷区,世田谷１丁目４１番２号,,13,112,1540017,,,,,,,2025-09-19,1,,,,,イリュージョンクラブ,0
1829,8010903010269,新規,0,2025-09-19,2025-09-19,月雨合同会社,,合同会社,東京都,世田谷区,鎌田２丁目２６番７号,,13,112,1570077,,,,,,,2025-09-19,1,,,,,ウォル,0
1836,8011001172076,新規,0,2025-09-19,2025-09-19,トモパス株式会社,,株式会社,東京都,渋谷区,道玄坂１丁目１０番８号渋谷道玄坂東急ビル２Ｆ－Ｃ,,13,113,1500043,,,,,,,2025-09-19,1,,,,,トモパス,0
1837,8011001172150,新規,0,2025-09-19,2025-09-19,ＳｙｎＴｏｐｉｃ株式会社,,株式会社,東京都,渋谷区,恵比寿１丁目１５番９号日宝恵比寿ビル４０３,,13,113,1500013,,,,,,,2025-09-19,1,,,,,シントピック,0
1838,8011001172357,新規,0,2025-09-19,2025-09-19,株式会社ｎｅｗｒｅｌ,,株式会社,東京都,渋谷区,千駄ヶ谷５丁目２１番５号,,13,113,1510051,,,,,,,2025-09-19,1,,,,,ニューレル,0
1839,8011005011172,新規,0,2025-09-19,2025-09-19,医療法人社団翔恵会,,その他の設立登記法人,東京都,渋谷区,恵比寿南２丁目１番９号朝井ビル２階,,13,113,1500022,,,,,,,2025-09-19,1,,,,,ショウケイカイ,0
1842,8011101113120,新規,0,2025-09-19,2025-09-19,エングラッド株式会社,,株式会社,東京都,新宿区,西新宿３丁目３番１３号西新宿水間ビル６階,,13,104,1600023,,,,,,,2025-09-19,1,,,,,エングラッド,0
1843,8011101113194,新規,0,2025-09-19,2025-09-19,ＫＡＭＩＦＵＪＩ株式会社,,株式会社,東京都,新宿区,北新宿４丁目１１－７ハイツ北新宿３０４,,13,104,1690074,,,,,,,2025-09-19,1,,,,,カミフジ,0
1844,8011101113211,新規,0,2025-09-19,2025-09-19,株式会社ＶＬＩＧＨＴ,,株式会社,東京都,新宿区,西新宿３丁目３番１３号西新宿水間ビル２Ｆ,,13,104,1600023,,,,,,,2025-09-19,1,,,,,ヴィライト,0
1845,8011101113260,新規,0,2025-09-19,2025-09-19,株式会社Ｄプロダクション,,株式会社,東京都,新宿区,西新宿３丁目３番１３号水間ビル６階,,13,104,1600023,,,,,,,2025-09-19,1,,,,,ディープロダクション,0
1847,8011103016338,新規,0,2025-09-19,2025-09-19,ダウォンプロパティ東京合同会社,,合同会社,東京都,新宿区,西新宿３丁目３－１３西新宿水間ビル２階,,13,104,1600023,,,,,,,2025-09-19,1,,,,,ダウォンプロパティトウキョウ,0
1859,8011701028767,新規,0,2025-09-19,2025-09-19,株式会社ＫＡＧＡＹＡＫＩ　Ｌａｂ,,株式会社,東京都,江戸川区,東葛西５丁目１３―１―１２０１,,13,123,1340084,,,,,,,2025-09-19,1,,,,,カガヤキラボ,0
1863,8012303002219,新規,0,2025-09-19,2025-09-19,ＰＲＯＰ　ＵＰ合同会社,,合同会社,東京都,町田市,つくし野１丁目１９番地９,,13,209,1940001,,,,,,,2025-09-19,1,,,,,プロップアップ,0
1864,8012401043602,新規,0,2025-09-19,2025-09-19,Ｙｕｚｕ　Ｔｒａｖｅｌ株式会社,,株式会社,東京都,府中市,宮西町２丁目８番地２号,,13,206,1830022,,,,,,,2025-09-19,1,,,,,ユズトラベル,0
1865,8012401043610,新規,0,2025-09-19,2025-09-19,株式会社ネクサス,,株式会社,東京都,小金井市,本町５丁目１８番５号真澄ビル地下１階,,13,210,1840004,,,,,,,2025-09-19,1,,,,,ネクサス,0
1866,8012403007340,新規,0,2025-09-19,2025-09-19,合同会社ｔｒｕｓｔ　ｉｎｔｅｒｎａｔｉｏｎａｌ,,合同会社,東京都,小金井市,本町４丁目５番１－５０号,,13,210,1840004,,,,,,,2025-09-19,1,,,,,トラストインターナショナル,0
1869,8013301054986,新規,0,2025-09-19,2025-09-19,株式会社カレルク,,株式会社,東京都,豊島区,池袋本町１丁目１７－４,,13,116,1700011,,,,,,,2025-09-19,1,,,,,カレルク,0
1882,8021003016511,新規,0,2025-09-19,2025-09-19,合同会社ｉｏｒｕ,,合同会社,神奈川県,茅ヶ崎市,中海岸３丁目７番３７－２号ｋｏｌｅｔ茅ヶ崎＃３,,14,207,2530055,,,,,,,2025-09-19,1,,,,,イオル,0
1886,8030001168719,新規,0,2025-09-19,2025-09-19,ＧＫトレーディング株式会社,,株式会社,埼玉県,春日部市,備後東２丁目２番１５号大熊アパートＣ－２,,11,214,3440032,,,,,,,2025-09-19,1,,,,,ジーケートレーディング,0
1896,8040001140544,新規,0,2025-09-19,2025-09-19,智宝株式会社,,株式会社,千葉県,船橋市,金杉９丁目１５－１６サクセス１番館１０３室,,12,204,2730853,,,,,,,2025-09-19,1,,,,,チホウ,0
1899,8040003028556,新規,0,2025-09-19,2025-09-19,合同会社Ｙ‐Ｔｒｉｎｉｔｙ,,合同会社,千葉県,市川市,市川南１丁目９－１３,,12,203,2720033,,,,,,,2025-09-19,1,,,,,ワイトリニティ,0
1902,8050001057267,新規,0,2025-09-19,2025-09-19,博源株式会社,,株式会社,茨城県,日立市,幸町１丁目１５番１号,,08,202,3170073,,,,,,,2025-09-19,1,,,,,ハクゲン,0
1905,8050005013695,新規,0,2025-09-19,2025-09-19,医療法人杜和会,,その他の設立登記法人,茨城県,那珂市,菅谷字杉原６７３番地１,,08,226,3110105,,,,,,,2025-09-19,1,,,,,トワカイ,0
1908,8060003005751,新規,0,2025-09-19,2025-09-19,ＡＭＤ　Ｆａｒｍ合同会社,,合同会社,栃木県,下都賀郡壬生町,大字福和田９４４番地１,,09,361,3210219,,,,,,,2025-09-19,1,,,,,エーエムデイフアーム,0
1910,8070003006088,新規,0,2025-09-19,2025-09-19,合同会社ハーベスト,,合同会社,群馬県,伊勢崎市,香林町２丁目９２６番地の１,,10,204,3792206,,,,,,,2025-09-19,1,,,,,ハーベスト,0
1911,8080001027151,新規,0,2025-09-19,2025-09-19,株式会社オーキャリア,,株式会社,静岡県,静岡市駿河区,西脇１２６番地の２,,22,102,4228044,,,,,,,2025-09-19,1,,,,,オーキャリア,0
1916,8090001019511,新規,0,2025-09-19,2025-09-19,富士山が観る夢株式会社,,株式会社,山梨県,南都留郡富士河口湖町,大嵐４２７番地３,,19,430,4010335,,,,,,,2025-09-19,1,,,,,フジサンガミルユメ,0
1930,8120001279696,新規,0,2025-09-19,2025-09-19,廣源株式会社,,株式会社,大阪府,大阪市東住吉区,住道矢田８丁目１１番８－２０３号室,,27,121,5460022,,,,,,,2025-09-19,1,,,,,コウゲン,0
1931,8120001279738,新規,0,2025-09-19,2025-09-19,株式会社Ｐｏｓｔ　Ｃｏｎｓｔｒｕｃｔｉｏｎとのま,,株式会社,大阪府,大阪市北区,西天満４丁目１番８号２階,,27,127,5300047,,,,,,,2025-09-19,1,,,,,ポストコンストラクショントノマ,0
1932,8120001279770,新規,0,2025-09-19,2025-09-19,株式会社きものイング,,株式会社,大阪府,大阪市北区,天神橋６丁目５番１１号,,27,127,5300041,,,,,,,2025-09-19,1,,,,,キモノイング,0
1933,8120001279787,新規,0,2025-09-19,2025-09-19,銘冴株式会社,,株式会社,大阪府,大阪市生野区,田島２丁目１０番１９号,,27,116,5440011,,,,,,,2025-09-19,1,,,,,メイサ,0
1934,8120001279804,新規,0,2025-09-19,2025-09-19,簡兮生活国際株式会社,,株式会社,大阪府,大阪市城東区,古市１丁目２３－２１－２０２号室,,27,118,5360001,,,,,,,2025-09-19,1,,,,,カンケイセイカツコクサイ,0
1935,8120001279829,新規,0,2025-09-19,2025-09-19,海衆株式会社,,株式会社,大阪府,大阪市中央区,南船場１丁目１６番１２号,,27,128,5420081,,,,,,,2025-09-19,1,,,,,カイシュウ,0
1936,8120001279977,新規,0,2025-09-19,2025-09-19,名達株式会社,,株式会社,大阪府,大阪市中央区,平野町１丁目８番１３号平野町八千代ビル３階,,27,128,5410046,,,,,,,2025-09-19,1,,,,,メイタツ,0
1937,8120001280027,新規,0,2025-09-19,2025-09-19,多美仕Ｄｍｉｓ株式会社,,株式会社,大阪府,大阪市東成区,大今里３丁目１５番６号ＩｍａｚａｔｏＴｏｗｅｒ２１１Ｃ,,27,115,5370012,,,,,,,2025-09-19,1,,,,,タビシドミズ,0
1939,8120003030611,新規,0,2025-09-19,2025-09-19,ＴＲＥＮＤＨＵＰ　ＳＨＯＰ合同会社,,合同会社,大阪府,大阪市西成区,天下茶屋北１丁目１－６－１０３号室,,27,122,5570003,,,,,,,2025-09-19,1,,,,,トレンドハップショップ,0
1940,8120003030628,新規,0,2025-09-19,2025-09-19,湾座合同会社,,合同会社,大阪府,大阪市中央区,平野町１丁目８番１３号平野町八千代ビル３階,,27,128,5410046,,,,,,,2025-09-19,1,,,,,ワンザ,0
1942,8120101072456,新規,0,2025-09-19,2025-09-19,祥泰株式会社,,株式会社,大阪府,堺市堺区,中瓦町１丁２－９－４０３,,27,141,5900077,,,,,,,2025-09-19,1,,,,,ショウタイ,0
1943,8120101072464,新規,0,2025-09-19,2025-09-19,株式会社ダレノカントリー,,株式会社,大阪府,和泉市,はつが野３丁目３７番５号,,27,219,5941106,,,,,,,2025-09-19,1,,,,,ダレノカントリー,0
1944,8120101072472,新規,0,2025-09-19,2025-09-19,Ｄ．Ｃ．Ａ株式会社,,株式会社,大阪府,堺市北区,金岡町３０２５－８,,27,146,5918022,,,,,,,2025-09-19,1,,,,,ディーシーエー,0
1946,8120103006718,新規,0,2025-09-19,2025-09-19,ＷＯＲＬＤ　ＷＩＤＥ　ＴＲＡＤＩＮＧ合同会社,,合同会社,大阪府,富田林市,大字伏見堂７番地１,,27,214,5840055,,,,,,,2025-09-19,1,,,,,ワールドワイドトレーディング,0
1947,8120901051535,新規,0,2025-09-19,2025-09-19,株式会社ＬＩＦＥ　ＣＯＭＰＡＮＹ,,株式会社,大阪府,高槻市,塚原２丁目１６番１２号,,27,207,5691046,,,,,,,2025-09-19,1,,,,,ライフカンパニー,0
1953,8130005017465,新規,0,2025-09-19,2025-09-19,一般社団法人頭頸部がん医療振興会,,その他の設立登記法人,京都府,京都市左京区,聖護院川原町５４,,26,103,6068397,,,,,,,2025-09-19,1,,,,,トウケイブガンイリョウシンコウカイ,0
1957,8140001140063,新規,0,2025-09-19,2025-09-19,冠徳株式会社,00140721,株式会社,兵庫県,芦屋市,月若町７番１８－６号２０３号,,28,206,6590084,,,,,,,2025-09-19,1,,,,,カントク,0
1961,8150001028407,新規,0,2025-09-19,2025-09-19,株式会社Ｐｌｕｓ,,株式会社,奈良県,北葛城郡広陵町,大字安部１５０番地１,,29,426,6350825,,,,,,,2025-09-19,1,,,,,プラス,0
1963,8170001018793,新規,0,2025-09-19,2025-09-19,和歌山金融科技投資株式会社,,株式会社,和歌山県,和歌山市,園部１６７０番地２８,,30,201,6408483,,,,,,,2025-09-19,1,,,,,ワカヤマキンユウカギトウシ,0
1968,8180001168654,新規,0,2025-09-19,2025-09-19,コンシエルトマーケティング株式会社,,株式会社,愛知県,名古屋市中村区,名駅４丁目２４番５号第２森ビル４０１,,23,105,4500002,,,,,,,2025-09-19,1,,,,,コンシエルトマーケティング,0
1969,8180001168670,新規,0,2025-09-19,2025-09-19,株式会社ＬＩＢＲＥ,,株式会社,愛知県,名古屋市守山区,大字吉根字太鼓ケ根３２１１番地の１３７,,23,113,4630004,,,,,,,2025-09-19,1,,,,,リブレ,0
1970,8180001168687,新規,0,2025-09-19,2025-09-19,ライスベア株式会社,,株式会社,愛知県,名古屋市天白区,野並１丁目２４０番地,,23,116,4680045,,,,,,,2025-09-19,1,,,,,ライスベア,0
1971,8180001168695,新規,0,2025-09-19,2025-09-19,株式会社ＤＥＮＴＡＬ　ＢＬＡＣＫＦＩＬＭ　ＪＡＰＡＮ,,株式会社,愛知県,名古屋市中川区,五月通２丁目３７番地黄金ステーションビル３階,,23,110,4540812,,,,,,,2025-09-19,1,,,,,デンタルブラックフィルムジャパン,0
1972,8180001168704,新規,0,2025-09-19,2025-09-19,株式会社Ｍ・Ｒ,,株式会社,愛知県,名古屋市中区,栄４丁目８ー１６朝香ビル２階,,23,106,4600008,,,,,,,2025-09-19,1,,,,,エムアール,0
1976,8180003029045,新規,0,2025-09-19,2025-09-19,未来人材合同会社,,合同会社,愛知県,春日井市,上条町１丁目３１タウンコート春日井１階１号室,,23,206,4860833,,,,,,,2025-09-19,1,,,,,ミライジンザイ,0
1977,8180003029078,新規,0,2025-09-19,2025-09-19,合同会社エクステンド,,合同会社,愛知県,春日井市,押沢台４丁目１０番地２６,,23,206,4870005,,,,,,,2025-09-19,1,,,,,エクステンド,0
1978,8180003029086,新規,0,2025-09-19,2025-09-19,ＡＲＪＵＮ　ＩＮＴＥＲＮＡＴＩＯＮＡＬ合同会社,,合同会社,愛知県,名古屋市中川区,豊成町１番２棟９１５号豊成団地,,23,110,4540803,,,,,,,2025-09-19,1,,,,,アルジュンインターナショナル,0
1979,8180301040232,新規,0,2025-09-19,2025-09-19,ＯＨメンテ株式会社,,株式会社,愛知県,高浜市,芳川町２丁目１１番地５３,,23,227,4441335,,,,,,,2025-09-19,1,,,,,オーエイチメンテ,0
1981,8180303006727,新規,0,2025-09-19,2025-09-19,ルルアス豊橋合同会社,,合同会社,愛知県,豊橋市,曙町字測点１０３番地の１,00140709,23,201,4418151,,,,,,,2025-09-19,1,,,,,ルルアストヨハシ,0
1982,8180305009728,新規,0,2025-09-19,2025-09-19,医療法人ＡＲＢＯＲＥＳ,,その他の設立登記法人,愛知県,刈谷市,東刈谷町２丁目１２番地８,,23,210,4480807,,,,,,,2025-09-19,1,,,,,アルボレス,0
1990,8220001026931,新規,0,2025-09-19,2025-09-19,ＡＴＨＬＥＡＤ株式会社,,株式会社,石川県,金沢市,戸板２丁目９１番地,,17,201,9200068,,,,,,,2025-09-19,1,,,,,アスリード,0
1999,8260001040557,新規,0,2025-09-19,2025-09-19,株式会社ＰＲ設備,,株式会社,岡山県,倉敷市,茶屋町１６６３番地６,,33,202,7101101,,,,,,,2025-09-19,1,,,,,ピーアールセツビ,0
2005,8290001111355,新規,0,2025-09-19,2025-09-19,株式会社みや美,,株式会社,福岡県,糟屋郡久山町,大字久原２７０９番地４７,,40,348,8112501,,,,,,,2025-09-19,1,,,,,ミヤビ,0
2006,8290003017393,新規,0,2025-09-19,2025-09-19,合同会社ｓｋｙ　ｐｉｅａ,,合同会社,福岡県,福岡市博多区,中洲４丁目１－３０－３０１,,40,132,8100801,,,,,,,2025-09-19,1,,,,,スカイピア,0
2007,8290003017410,新規,0,2025-09-19,2025-09-19,うさぎのひとやすみ合同会社,,合同会社,福岡県,福岡市西区,今宿３丁目２２番３号カサベルテワン１階テナント,,40,135,8190167,,,,,,,2025-09-19,1,,,,,ウサギノヒトヤスミ,0
2015,8340001027645,新規,0,2025-09-19,2025-09-19,株式会社サンクス,,株式会社,鹿児島県,鹿児島市,鴨池１丁目５番３号,,46,201,8900063,,,,,,,2025-09-19,1,,,,,サンクス,0
2016,8340001027661,新規,0,2025-09-19,2025-09-19,シーメン株式会社,,株式会社,鹿児島県,日置市,伊集院町寺脇８５２番地１,,46,216,8992443,,,,,,,2025-09-19,1,,,,,シーメン,0
2018,8360001035786,新規,0,2025-09-19,2025-09-19,キングランド株式会社,,株式会社,沖縄県,浦添市,屋富祖４丁目６番３号２０３号室,,47,208,9012127,,,,,,,2025-09-19,1,,,,,キングランド,0
2019,8360001035794,新規,0,2025-09-19,2025-09-19,株式会社ミートショップ琉球,,株式会社,沖縄県,那覇市,泉崎１丁目１６番１２号,,47,201,9000021,,,,,,,2025-09-19,1,,,,,ミートショップリュウキュウ,0
2022,8370001053060,新規,0,2025-09-19,2025-09-19,ＫＳ　ＴＲＡＤＩＮＧ株式会社,,株式会社,宮城県,大崎市,古川清水沢字堀場１８番地,,04,215,9896241,,,,,,,2025-09-19,1,,,,,ケーエストレーディング,0
2031,8400003003530,新規,0,2025-09-19,2025-09-19,合同会社ｍｉｔｅ　ｐｌｕｓ,,合同会社,岩手県,北上市,里分２地割２０８番地６,,03,206,0240023,,,,,,,2025-09-19,1,,,,,ミーテプラス,0
2038,8430001095253,新規,0,2025-09-19,2025-09-19,株式会社カモケン,,株式会社,北海道,札幌市白石区,北郷四条５丁目１３番２０号,,01,104,0030834,,,,,,,2025-09-19,1,,,,,カモケン,0
2041,8480001012955,新規,0,2025-09-19,2025-09-19,株式会社Ｏ‐ｋｕｎ,,株式会社,徳島県,徳島市,北矢三町１丁目３番４－７号,,36,201,7700006,,,,,,,2025-09-19,1,,,,,オークン,0
2043,8500001026523,新規,0,2025-09-19,2025-09-19,株式会社トラスル,,株式会社,愛媛県,松山市,土居田町７３９番地,,38,201,7900056,,,,,,,2025-09-19,1,,,,,トラスル,0
2069,9010003048804,新規,0,2025-09-19,2025-09-19,日光Ｐｌｕｓ２４合同会社８,,合同会社,東京都,千代田区,丸の内１丁目４番１号東京共同会計事務所内,,13,101,1000005,,,,,,,2025-09-19,1,,,,,ニッコウプラストゥエンティフォーハチ,0
2074,9010401193251,新規,0,2025-09-19,2025-09-19,株式会社ＡＰ８７,,株式会社,東京都,港区,虎ノ門４丁目１番２８号虎ノ門タワーズオフィス１７階,,13,103,1050001,,,,,,,2025-09-19,1,,,,,エーピーハチジュウナナ,0
2077,9010405024717,新規,0,2025-09-19,2025-09-19,一般社団法人柳営文化研究会,,その他の設立登記法人,東京都,港区,北青山１丁目３番１号アールキューブ青山３階,,13,103,1070061,,,,,,,2025-09-19,1,,,,,リュウエイブンカケンキュウカイ,0
2078,9010405024799,新規,0,2025-09-19,2025-09-19,サルビア一般社団法人,,その他の設立登記法人,東京都,港区,北青山１丁目２番３号,,13,103,1070061,,,,,,,2025-09-19,1,,,,,サルビア,0
2080,9010501054733,新規,0,2025-09-19,2025-09-19,インバウンドロボティクス株式会社,,株式会社,東京都,台東区,寿１丁目１２―８―６０９,,13,106,1110042,,,,,,,2025-09-19,1,,,,,インバウンドロボティクス,0
2088,9010801036613,新規,0,2025-09-19,2025-09-19,株式会社設工社,,株式会社,東京都,大田区,西糀谷４丁目１３番２号グレースハイツ１０３,,13,111,1440034,,,,,,,2025-09-19,1,,,,,セッコウシャ,0
2096,9011001172059,新規,0,2025-09-19,2025-09-19,株式会社ノーブルシャトン,,株式会社,東京都,渋谷区,代々木２丁目１８番６号,,13,113,1510053,,,,,,,2025-09-19,1,,,,,ノーブルシャトン,0
2097,9011001172067,新規,0,2025-09-19,2025-09-19,株式会社２７番,,株式会社,東京都,目黒区,下目黒２丁目１８－５ＭＦＰＲコート目黒３０５,,13,110,1530064,,,,,,,2025-09-19,1,,,,,ニジュウナナバン,0
2098,9011001172117,新規,0,2025-09-19,2025-09-19,株式会社Ｆｏｏｄｉｅ　Ｌａｂ,,株式会社,東京都,目黒区,目黒１丁目１６番１０号,,13,110,1530063,,,,,,,2025-09-19,1,,,,,フーディーラボ,0
2099,9011001172637,新規,0,2025-09-19,2025-09-19,株式会社ＭｉｎｄＦｏｃｕｓ,,株式会社,東京都,渋谷区,恵比寿西２丁目４番８号ウィンド恵比寿ビル８Ｆ,,13,113,1500021,,,,,,,2025-09-19,1,,,,,,0
2103,9011003022410,新規,0,2025-09-19,2025-09-19,ＢＡＨＬ合同会社,,合同会社,東京都,目黒区,東山３丁目６番１５号エビヤビル３０１,,13,110,1530043,,,,,,,2025-09-19,1,,,,,バハル,0
2104,9011003022419,新規,0,2025-09-19,2025-09-19,トライデム・キャピタル合同会社,,合同会社,東京都,渋谷区,神山町２０番４６－４０２号,,13,113,1500047,,,,,,,2025-09-19,1,,,,,トライデムキャピタル,0
2114,9011101113136,新規,0,2025-09-19,2025-09-19,株式会社ＩＳＤ,,株式会社,東京都,新宿区,新宿５丁目１８番９号酒井ビル３階,,13,104,1600022,,,,,,,2025-09-19,1,,,,,アイエスディ,0
2115,9011101113169,新規,0,2025-09-19,2025-09-19,コトノワホールディングス株式会社,,株式会社,東京都,新宿区,北新宿２丁目４番１３号アウルマンション１０２,,13,104,1690074,,,,,,,2025-09-19,1,,,,,コトノワホールディングス,0
2116,9011101113235,新規,0,2025-09-19,2025-09-19,株式会社喜沙,,株式会社,東京都,新宿区,大久保１丁目２番１号天翔東新宿ビル６階６０３号室,,13,104,1690072,,,,,,,2025-09-19,1,,,,,キッサ,0
2117,9011103016394,新規,0,2025-09-19,2025-09-19,合同会社キツネ計画,,合同会社,東京都,新宿区,西新宿３丁目３番１３号西新宿水間ビル６階,,13,104,1600023,,,,,,,2025-09-19,1,,,,,キツネケイカク,0
2120,9011403004859,新規,0,2025-09-19,2025-09-19,合同会社ＧＯＬＤＰＬＵＳ,,合同会社,東京都,板橋区,高島平１丁目３３－５エクセレント３０１,,13,119,1750082,,,,,,,2025-09-19,1,,,,,ゴールドプラス,0
2121,9011601028949,新規,0,2025-09-19,2025-09-19,ＭＫ　Ｐａｒｔｎｅｒｓ株式会社,,株式会社,東京都,練馬区,東大泉２丁目１－１２,,13,120,1780063,,,,,,,2025-09-19,1,,,,,エムケーパートナーズ,0
2127,9012801024259,新規,0,2025-09-19,2025-09-19,株式会社ＳＵＮＲＩＳＥ,,株式会社,東京都,東大和市,高木２丁目２０６番地の１０,,13,220,2070005,,,,,,,2025-09-19,1,,,,,サンライズ,0
2129,9013301054985,新規,0,2025-09-19,2025-09-19,株式会社ＡＳＴＥＲＲＡ　Ｃｏｒｐｏｒａｔｉｏｎ,,株式会社,東京都,豊島区,東池袋３丁目１５番５号東池袋マンション６０８,,13,116,1700013,,,,,,,2025-09-19,1,,,,,アステラコーポレーション,0
2130,9013301054993,新規,0,2025-09-19,2025-09-19,株式会社スマイルリアルティ,,株式会社,東京都,豊島区,南池袋３丁目１５－１３第二前田ビル４階,,13,116,1710022,,,,,,,2025-09-19,1,,,,,スマイルリアルティ,0
2131,9013303007883,新規,0,2025-09-19,2025-09-19,青葉合同会社,,合同会社,東京都,豊島区,上池袋４丁目５番３号,,13,116,1700012,,,,,,,2025-09-19,1,,,,,アオバ,0
2139,9020005016972,新規,0,2025-09-19,2025-09-19,一般社団法人ＴＲＩＮＩＴＹ,,その他の設立登記法人,神奈川県,横浜市緑区,十日市場町８４９番６号,,14,113,2260025,,,,,,,2025-09-19,1,,,,,トリニティ,0
2141,9021003016543,新規,0,2025-09-19,2025-09-19,合同会社Ｙ’ｓホームズ,,合同会社,神奈川県,大和市,深見西２丁目５番３０号シティテラス大和６１５号,,14,213,2420018,,,,,,,2025-09-19,1,,,,,ワイズホームズ,0
2142,9021003016551,新規,0,2025-09-19,2025-09-19,ＨＭＫ　ｉｎｆｉｎｉｔｅ合同会社,,合同会社,神奈川県,大和市,深見台４丁目１１－９ヴィラ葉靜２０１,,14,213,2420013,,,,,,,2025-09-19,1,,,,,エイチエムケインフィニット,0
2151,9030001168684,新規,0,2025-09-19,2025-09-19,株式会社栄奕,,株式会社,埼玉県,川口市,西川口３丁目１５－２４ルシエールＩＩ４０１,00140705,11,203,3320021,,,,,,,2025-09-19,1,,,,,エイエキ,0
2152,9030001168718,新規,0,2025-09-19,2025-09-19,株式会社ＡＩｔｅｇｒｉｔｙ,,株式会社,埼玉県,志木市,幸町１丁目６番１９ー４０２号,,11,228,3530005,,,,,,,2025-09-19,1,,,,,アイテグリティ,0
2157,9030003027632,新規,0,2025-09-19,2025-09-19,ＤｅｅＤｅｅ合同会社,,合同会社,埼玉県,川口市,大字安行慈林８３２番地の１９川口ビジネスセンター１Ａ号室,,11,203,3340071,,,,,,,2025-09-19,1,,,,,ディーディー,0
2163,9040001140485,新規,0,2025-09-19,2025-09-19,株式会社ＴＲＡＤＥ　ＨＯＢＢＹ　ＪＡＰＡＮ,,株式会社,千葉県,白井市,根１７５２番地の９,,12,232,2701431,,,,,,,2025-09-19,1,,,,,トレードホビージャパン,0
2164,9040001140502,新規,0,2025-09-19,2025-09-19,匯峰株式会社,,株式会社,千葉県,市川市,福栄１丁目１８－１４グローバルジャパン壱号館１０１号室,,12,203,2720137,,,,,,,2025-09-19,1,,,,,カイホウ,0
2165,9040001140527,新規,0,2025-09-19,2025-09-19,株式会社冨士本工業,,株式会社,千葉県,君津市,大和田５丁目１番地１５,,12,225,2991146,,,,,,,2025-09-19,1,,,,,フジモトコウギョウ,0
2166,9040001140568,新規,0,2025-09-19,2025-09-19,株式会社ＧＬＯＢＡＬ　ＮＩＰＰＯＮＥＰＡ　ＴＲＡＤＩＮＧ,,株式会社,千葉県,成田市,東和田３６９番地１コーポ成田２０２,,12,211,2860134,,,,,,,2025-09-19,1,,,,,グローバルニッポネパトレーディング,0
2167,9040001140576,新規,0,2025-09-19,2025-09-19,株式会社ｆ,,株式会社,千葉県,松戸市,八ケ崎６丁目３４－６３,,12,207,2700023,,,,,,,2025-09-19,1,,,,,エフ,0
2169,9040003028522,新規,0,2025-09-19,2025-09-19,合同会社長本,,合同会社,千葉県,松戸市,本町１１番地４ビューハイツ本町６０１号,,12,207,2710091,,,,,,,2025-09-19,1,,,,,ナガモト,0
2170,9040003028547,新規,0,2025-09-19,2025-09-19,合同会社はぴり,,合同会社,千葉県,千葉市中央区,中央２丁目５番１号千葉中央ツインビル２号館７階,,12,101,2600013,,,,,,,2025-09-19,1,,,,,ハピリ,0
2171,9040003028555,新規,0,2025-09-19,2025-09-19,合同会社アサノカットブース,,合同会社,千葉県,千葉市中央区,港町１番１３号,,12,101,2600831,,,,,,,2025-09-19,1,,,,,アサノカットブース,0
2172,9050001057299,新規,0,2025-09-19,2025-09-19,株式会社Ｋｏａ,,株式会社,茨城県,取手市,本郷１丁目２８番９号,,08,217,3020022,,,,,,,2025-09-19,1,,,,,コア,0
2176,9050003009546,新規,0,2025-09-19,2025-09-19,合同会社永塚モータース,,合同会社,茨城県,古河市,大山１５６９番地１３,,08,204,3060052,,,,,,,2025-09-19,1,,,,,ナガツカモータース,0
2177,9050003009587,新規,0,2025-09-19,2025-09-19,ＭＵＨＡＭＭＡＤ　ＴＲＡＤＩＮＧ合同会社,,合同会社,茨城県,常総市,古間木新田７３８番地,,08,211,3002731,,,,,,,2025-09-19,1,,,,,ムハマドトレイディング,0
2179,9050005013694,新規,0,2025-09-19,2025-09-19,医療法人ＡＬＬＩ,,その他の設立登記法人,茨城県,筑西市,玉戸字新山１０６６番地２,,08,227,3080847,,,,,,,2025-09-19,1,,,,,オールアイ,0
2186,9070003006095,新規,0,2025-09-19,2025-09-19,合同会社テラメックス戦略機構,,合同会社,群馬県,高崎市,稲荷台町３２５番地１,,10,202,3703516,,,,,,,2025-09-19,1,,,,,テラメックスセンリャクキコウ,0
2205,9120001279489,新規,0,2025-09-19,2025-09-19,株式会社スマイル・オン,,株式会社,大阪府,大阪市福島区,福島７丁目２０番１８号,,27,103,5530003,,,,,,,2025-09-19,1,,,,,スマイルオン,0
2206,9120001279737,新規,0,2025-09-19,2025-09-19,株式会社リケンテクノサービス,,株式会社,大阪府,交野市,藤が尾６丁目１２番８号,,27,230,5760022,,,,,,,2025-09-19,1,,,,,リケンテクノサービス,0
2207,9120001279836,新規,0,2025-09-19,2025-09-19,株式会社鮮粋,,株式会社,大阪府,枚方市,楠葉野田１丁目３２番４７号,,27,210,5731103,,,,,,,2025-09-19,1,,,,,センスイ,0
2208,9120001279844,新規,0,2025-09-19,2025-09-19,五堂商事株式会社,,株式会社,大阪府,大阪市天王寺区,東高津町１１番７号上本町グランディムビル７階,,27,109,5430021,,,,,,,2025-09-19,1,,,,,ゴドウショウジ,0
2209,9120001279877,新規,0,2025-09-19,2025-09-19,楽境株式会社,,株式会社,大阪府,大阪市港区,港晴３丁目７番１５号アワーハウス港晴３０２号,,27,107,5520023,,,,,,,2025-09-19,1,,,,,ラクキョウ,0
2210,9120001280042,新規,0,2025-09-19,2025-09-19,株式会社承和,,株式会社,大阪府,大阪市淀川区,三国本町１丁目１６番１１号,,27,123,5320005,,,,,,,2025-09-19,1,,,,,ジョウワ,0
2216,9120003030478,新規,0,2025-09-19,2025-09-19,合同会社ＳＲＵ　Ｃｏｍｐａｎｙ,,合同会社,大阪府,大阪市住之江区,新北島３丁目７番４５－６１０号,,27,125,5590024,,,,,,,2025-09-19,1,,,,,エスアールユーカンパニー,0
2217,9120003030503,新規,0,2025-09-19,2025-09-19,呉氏合同会社,00140725,合同会社,大阪府,大阪市生野区,巽西２丁目４番２号ＶＡＬＥＮＴＩＡＴＡＴＳＵＭＩＮＩＳＨＩ２階北,,27,116,5440012,,,,,,,2025-09-19,1,,,,,ウーシ,0
2218,9120101072471,新規,0,2025-09-19,2025-09-19,株式会社アシスト,,株式会社,大阪府,河内長野市,荘園町２１番２０号,,27,216,5860093,,,,,,,2025-09-19,1,,,,,アシスト,0
2219,9120103006725,新規,0,2025-09-19,2025-09-19,合同会社集配ネット,,合同会社,大阪府,貝塚市,清児６５４番地４５,,27,208,5970041,,,,,,,2025-09-19,1,,,,,シュウハイネット,0
2220,9120901051492,新規,0,2025-09-19,2025-09-19,株式会社Ｈａｒｕ　Ｐａｉｎｔ,,株式会社,大阪府,高槻市,芝生町２丁目５２番１２号の３,,27,207,5690823,,,,,,,2025-09-19,1,,,,,ハルペイント,0
2221,9120901051501,新規,0,2025-09-19,2025-09-19,株式会社嘉翔商事,,株式会社,大阪府,茨木市,清水１丁目３０番８号,,27,211,5670059,,,,,,,2025-09-19,1,,,,,カショウショウジ,0
2226,9130001080549,新規,0,2025-09-19,2025-09-19,株式会社Ｎｅｘｔ‐Ｃｒｅａｔｉｏｎ,,株式会社,京都府,京都市西京区,川島梅園町１１１番地２,,26,111,6158113,,,,,,,2025-09-19,1,,,,,ネクストクリエーション,0
2236,9140001140062,新規,0,2025-09-19,2025-09-19,株式会社Ｍ＆Ｙホールディングス,,株式会社,兵庫県,芦屋市,西芦屋町７番８号,00140720,28,206,6590085,,,,,,,2025-09-19,1,,,,,エムアンドワイホールディングス,0
2237,9140001140070,新規,0,2025-09-19,2025-09-19,雅建設株式会社,,株式会社,兵庫県,揖保郡太子町,鵤２４０番地ビオレ榎ノ森ＩＩＩ２０３号室,00140722,28,464,6711561,,,,,,,2025-09-19,1,,,,,ミヤビケンセツ,0
2242,9140003022589,新規,0,2025-09-19,2025-09-19,Ｏｐｔｉｍａｌ　Ｔｒａｄｉｎｇ合同会社,,合同会社,兵庫県,西宮市,青木町４番２５－３０２号,,28,204,6620862,,,,,,,2025-09-19,1,,,,,オプティマルトレーディング,0
2243,9140003022597,新規,0,2025-09-19,2025-09-19,慧途テック合同会社,,合同会社,兵庫県,神戸市中央区,二宮町４丁目２－３サンヴィラ三宮３０４号室,,28,110,6510093,,,,,,,2025-09-19,1,,,,,ケイトテック,0
2245,9150001028406,新規,0,2025-09-19,2025-09-19,ａｉｎｏｎ株式会社,,株式会社,奈良県,大和郡山市,南郡山町４６５番地１４,,29,203,6391007,,,,,,,2025-09-19,1,,,,,アイノン,0
2247,9160003003604,新規,0,2025-09-19,2025-09-19,合同会社Ｓｋｙ‐ｆｉｓｈ,,合同会社,滋賀県,長浜市,十里町２６５－２１,,25,203,5260016,,,,,,,2025-09-19,1,,,,,スカイフィッシュ,0
2248,9170001018792,新規,0,2025-09-19,2025-09-19,涵森株式会社,,株式会社,和歌山県,和歌山市,栄谷１９１番地１１,,30,201,6408441,,,,,,,2025-09-19,1,,,,,カンシン,0
2252,9180001168496,新規,0,2025-09-19,2025-09-19,株式会社岩月屋,,株式会社,愛知県,あま市,木折戸井田２３番地,,23,237,4901203,,,,,,,2025-09-19,1,,,,,イワツキヤ,0
2253,9180001168653,新規,0,2025-09-19,2025-09-19,アールスメールＪＡＰＡＮ株式会社,,株式会社,愛知県,名古屋市天白区,八事天道６０１番地,,23,116,4680061,,,,,,,2025-09-19,1,,,,,アールスメールジャパン,0
2254,9180001168678,新規,0,2025-09-19,2025-09-19,ＡＣＥ　ＡＵＴＯ株式会社,,株式会社,愛知県,弥富市,東末広３丁目１５番地１６,,23,235,4980063,,,,,,,2025-09-19,1,,,,,エースオート,0
2259,9180003029044,新規,0,2025-09-19,2025-09-19,Ｔｏｇｏ　Ｓｏｌｕｔｉｏｎｓ合同会社,,合同会社,愛知県,あま市,七宝町遠島鳥居先１８３番地１０号,,23,237,4970002,,,,,,,2025-09-19,1,,,,,トウゴウソリューション,0
2260,9180003029069,新規,0,2025-09-19,2025-09-19,合同会社アタック,,合同会社,愛知県,名古屋市天白区,元植田３丁目２１４番地ハイツ緑ケ丘１０７,,23,116,4680009,,,,,,,2025-09-19,1,,,,,アタック,0
2276,9250005009029,新規,0,2025-09-19,2025-09-19,ＢＩＺＡＲＱ社会保険労務士法人,,その他の設立登記法人,山口県,宇部市,常盤町２丁目１番２８号常盤町ビル４Ｆ,,35,202,7550031,,,,,,,2025-09-19,1,,,,,ビズアーク,0
2277,9260001040556,新規,0,2025-09-19,2025-09-19,株式会社せのお設備,,株式会社,岡山県,津山市,国分寺１２１番地７,,33,203,7080843,,,,,,,2025-09-19,1,,,,,セノオセツビ,0
2280,9290001111379,新規,0,2025-09-19,2025-09-19,株式会社ＡｉｒＢｒａｖｅ,,株式会社,福岡県,春日市,光町３丁目１６番地プレアール光町４０５号,,40,218,8160806,,,,,,,2025-09-19,1,,,,,エアブレイヴ,0
2281,9290001111395,新規,0,2025-09-19,2025-09-19,株式会社ワクナリ,,株式会社,福岡県,飯塚市,楽市１３９番地１,,40,205,8200074,,,,,,,2025-09-19,1,,,,,ワクナリ,0
2286,9330001033577,新規,0,2025-09-19,2025-09-19,凱勝未來株式会社,,株式会社,熊本県,菊池郡菊陽町,大字津久礼字久保２６８１番地１,,43,404,8691101,,,,,,,2025-09-19,1,,,,,ガイショウミライ,0
2292,9360001035793,新規,0,2025-09-19,2025-09-19,株式会社耀杰,,株式会社,沖縄県,中頭郡中城村,字南上原１０４０－１４サンステージ３０１,,47,328,9012424,,,,,,,2025-09-19,1,,,,,ヨウケツ,0
2297,9380003006139,新規,0,2025-09-19,2025-09-19,東京経済ラボ合同会社,,合同会社,福島県,いわき市,平成２丁目８番地の１３,,07,204,9738412,,,,,,,2025-09-19,1,,,,,トウキョウケイザイラボ,0
2306,9430003018095,新規,0,2025-09-19,2025-09-19,合同会社太陽商店,,合同会社,北海道,札幌市中央区,南二条西１２丁目３２３番地９号クリスタルパレス９５２０４１号,,01,101,0600062,,,,,,,2025-09-19,1,,,,,タイヨウショウテン,0
2307,9460101007757,新規,0,2025-09-19,2025-09-19,フォックスアイズ株式会社,,株式会社,北海道,中川郡豊頃町,大津元町６５番地,,01,645,0895461,,,,,,,2025-09-19,1,,,,,フォックスアイズ,0
2308,9470001020900,新規,0,2025-09-19,2025-09-19,瀬戸内金網株式会社,,株式会社,香川県,高松市,サンポート２番１号高松シンボルタワータワー棟５階Ｓｅｔｏｕｃｈｉ－ｉ－Ｂａｓｅ内,,37,201,7600019,,,,,,,2025-09-19,1,,,,,,0
2317,9500003003593,新規,0,2025-09-19,2025-09-19,ＫＯＫ合同会社,,合同会社,愛媛県,松山市,土居田町６８４番地５,,38,201,7900056,,,,,,,2025-09-19,1,,,,,ケーオーケー,0
2321,9700150132308,新規,0,2025-09-19,2025-09-19,枚方市茄子作土地区画整理組合,,その他,大阪府,枚方市,茄子作４丁目３－１０,,27,210,5730071,,,,,,,2025-09-19,1,,,,,ヒラカタシナスヅクリトチクカクセイリクミアイ,0
