sequenceNumber,corporateNumber,process,correct,updateDate,changeDate,name,nameImageId,kind,prefectureName,cityName,streetNumber,addressImageId,prefectureCode,cityCode,postCode,addressOutside,addressOutsideImageId,closeDate,closeCause,successorCorporateNumber,changeCause,assignmentDate,latest,enName,enPrefectureName,enCityName,enAddressOutside,furigana,hihyoji
2,1010001032503,登記記録の閉鎖等,0,2025-07-14,2025-06-24,株式会社ツムラコーポレーション,,株式会社,東京都,台東区,上野２丁目３番９号第一カンカンビル５Ｆ,,13,106,1100005,,,2025-06-24,清算の結了等,,,2015-10-05,1,,,,,ツムラコーポレーション,0
30,1010601029931,登記記録の閉鎖等,0,2025-07-14,2025-07-02,株式会社ルサックアダムジャパン,,株式会社,東京都,江東区,亀戸１丁目３５番１２－４０１号,,13,108,1360071,,,2025-07-02,清算の結了等,,,2015-10-05,1,,,,,,0
56,1011103013283,登記記録の閉鎖等,0,2025-07-14,2025-06-20,合同会社ネクスト,,合同会社,東京都,新宿区,西新宿７丁目５－５プラザ西新宿ＵＣＦ－４Ｆ,,13,104,1600023,,,2025-06-20,清算の結了等,,,2023-07-25,1,,,,,ネクスト,0
63,1011701024269,登記記録の閉鎖等,0,2025-07-14,2025-07-03,株式会社西村総合歯科研究所,,株式会社,東京都,江戸川区,中葛西５丁目３３番４－１８０４号,,13,123,1340083,,,2025-07-03,清算の結了等,,,2021-04-06,1,,,,,ニシムラソウゴウシカケンキュウジョ,0
68,1013301042147,登記記録の閉鎖等,0,2025-07-14,2025-06-30,悦寧株式会社,,株式会社,東京都,豊島区,東池袋３丁目１５番２号,,13,116,1700013,,,2025-06-30,合併による解散等,2011401025517,令和７年６月１５日東京都豊島区東池袋３－１５－２－７０４今雪株式会社（2011401025517）に合併し解散,2018-04-26,1,,,,,エツネイ,0
85,1030003011890,登記記録の閉鎖等,0,2025-07-14,2025-07-01,アークレス合同会社,,合同会社,埼玉県,狭山市,広瀬東２丁目２５番１１号,,11,215,3501320,,,2025-07-01,清算の結了等,,,2018-05-15,1,,,,,アークレス,0
100,1070002003076,登記記録の閉鎖等,0,2025-07-14,2025-07-01,有限会社積成工業,,有限会社,群馬県,前橋市,田口町１２１４番地１,,10,201,3710048,,,2025-07-01,清算の結了等,,,2015-10-05,1,,,,,セキセイコウギョウ,0
108,1100002010754,登記記録の閉鎖等,0,2025-07-14,2025-07-07,有限会社コバヤシホーム,,有限会社,長野県,佐久市,田口２５７７番地,,20,217,3840412,,,2025-07-07,清算の結了等,,,2015-10-05,1,,,,,コバヤシホーム,0
126,1120901045584,登記記録の閉鎖等,0,2025-07-14,2025-06-27,株式会社楽勝,,株式会社,大阪府,豊中市,上野東３丁目５－２１,,27,203,5600013,,,2025-06-27,合併による解散等,6120901038699,令和７年６月２７日大阪府豊中市桜の町三丁目３番７号株式会社優勝（6120901038699）に合併し解散,2022-02-10,1,,,,,ラクショウ,0
145,1150001021970,登記記録の閉鎖等,0,2025-07-14,2025-07-09,株式会社吟,,株式会社,奈良県,橿原市,東坊城町１０９番地の１９,,29,205,6340835,,,2025-07-09,清算の結了等,,,2017-12-06,1,,,,,ギン,0
164,1190003003559,登記記録の閉鎖等,0,2025-07-14,2025-06-30,合同会社桑名新聞販売,,合同会社,三重県,桑名市,大字東方３５３番地１,,24,205,5110811,,,2025-06-30,清算の結了等,,,2021-01-08,1,,,,,クワナシンブンハンバイ,0
165,1200001023573,登記記録の閉鎖等,0,2025-07-14,2025-07-07,株式会社みなとや,,株式会社,岐阜県,中津川市,落合８３７番地の５,,21,206,5080006,,,2025-07-07,合併による解散等,9180001022372,令和７年７月１日名古屋市熱田区桜田町１９番１８号東邦液化ガス株式会社（9180001022372）に合併し解散,2015-10-05,1,,,,,ミナトヤ,0
169,1200003004126,登記記録の閉鎖等,0,2025-07-14,2025-07-04,合同会社山の幸,,合同会社,岐阜県,羽島市,正木町曲利１３６１番地２,,21,209,5016227,,,2025-07-04,清算の結了等,,,2018-02-16,1,,,,,ヤマノサチ,0
170,1210001018696,登記記録の閉鎖等,0,2025-07-14,2025-07-08,株式会社Ａｒｂａｌｅｓｔ,,株式会社,福井県,坂井市,丸岡町北横地第１３号２２番地,,18,210,9100374,,,2025-07-08,清算の結了等,,,2021-11-10,1,,,,,アーバレスト,0
171,1210002013473,登記記録の閉鎖等,0,2025-07-14,2025-07-04,有限会社ＲＥＡＬＪＡＰＡＮ,,有限会社,福井県,鯖江市,片山町第３号１番地２,,18,207,9161223,,,2025-07-04,清算の結了等,,,2015-10-05,1,,,,,リアルジャパン,0
173,1230001001394,登記記録の閉鎖等,0,2025-07-14,2025-07-07,株式会社設備企画,,株式会社,富山県,富山市,根塚町４丁目３番地の１,,16,201,9398204,,,2025-07-07,清算の結了等,,,2015-10-05,1,,,,,セツビキカク,0
199,1290802000440,登記記録の閉鎖等,0,2025-07-14,2025-07-08,有限会社ＹＡＮＯ,,有限会社,福岡県,北九州市小倉北区,黒住町３－１１,,40,106,8020056,,,2025-07-08,清算の結了等,,,2015-10-05,1,,,,,ヤノ,0
203,1320001014981,登記記録の閉鎖等,0,2025-07-14,2025-07-01,株式会社エバーシーズ,,株式会社,大阪府,大阪市北区,芝田２丁目８－１１共栄ビル３階,,27,127,5300012,,,2025-07-01,清算の結了等,,,2016-06-08,1,,,,,エバーシーズ,0
235,1460102002970,登記記録の閉鎖等,0,2025-07-14,2025-07-08,有限会社ベスト,,有限会社,北海道,帯広市,西十二条南３４丁目３０番地３,,01,207,0800022,,,2025-07-08,清算の結了等,,,2015-10-05,1,,,,,ベスト,0
242,1480005000640,登記記録の閉鎖等,0,2025-07-14,2025-07-02,徳島市西新町一丁目商店街振興組合,,その他の設立登記法人,徳島県,徳島市,西新町１丁目１１番地,,36,201,7700902,,,2025-07-02,清算の結了等,,,2015-10-05,1,,,,,トクシマシニシシンマチイッチョウメ,0
247,2010001188939,登記記録の閉鎖等,0,2025-07-14,2025-06-23,トトノエル株式会社,,株式会社,東京都,港区,西麻布２丁目２４－７－３Ｆ,,13,103,1060031,,,2025-06-23,清算の結了等,,,2018-01-17,1,,,,,トトノエル,0
253,2010002029084,登記記録の閉鎖等,0,2025-07-14,2025-06-23,有限会社花村自動車興業,,有限会社,東京都,中央区,日本橋小伝馬町２１番１号花村ビル１階,,13,102,1030001,,,2025-06-23,清算の結了等,,,2015-10-05,1,,,,,ハナムラジドウシャコウギョウ,0
268,2010403018280,登記記録の閉鎖等,0,2025-07-14,2025-06-24,ＣＪＩＣＴメディア合同会社,,合同会社,東京都,港区,六本木６丁目１０番１号,,13,103,1060032,,,2025-06-24,清算の結了等,,,2018-03-13,1,,,,,,0
298,2011101104208,登記記録の閉鎖等,0,2025-07-14,2025-06-18,スミテクノロジー株式会社,,株式会社,東京都,新宿区,西新宿８丁目１１番１０号星野ビル３Ｆ,,13,104,1600023,,,2025-06-18,清算の結了等,,,2023-09-07,1,,,,,スミテクノロジー,0
305,2011305002959,登記記録の閉鎖等,0,2025-07-14,2025-06-30,一般社団法人みんなの伝芸,,その他の設立登記法人,東京都,杉並区,南荻窪２丁目２３番１１－２０５号,,13,115,1670052,,,2025-06-30,清算の結了等,,,2024-02-13,1,,,,,ミンナノデンゲイ,0
313,2011502001689,登記記録の閉鎖等,0,2025-07-14,2025-07-07,有限会社北村麺類店,,有限会社,東京都,北区,堀船２丁目２番１９号,,13,117,1140004,,,2025-07-07,清算の結了等,,,2015-10-05,1,,,,,キタムラメンルイテン,0
314,2011502004964,登記記録の閉鎖等,0,2025-07-14,2025-07-04,有限会社平井印刷,,有限会社,東京都,足立区,鹿浜６丁目２５番１７号ロイヤルハイツ小宮４０５,,13,121,1230864,,,2025-07-04,清算の結了等,,,2015-10-05,1,,,,,ヒライインサツ,0
317,2011803003789,登記記録の閉鎖等,0,2025-07-14,2025-07-04,合同会社ＦｉｒｓｔＳｔｅｐ,,合同会社,東京都,足立区,綾瀬３丁目１６番１３号ミ・アモール６０２,,13,121,1200005,,,2025-07-04,清算の結了等,,,2019-07-30,1,,,,,ファーストステップ,0
318,2012401002729,登記記録の閉鎖等,0,2025-07-14,2025-07-08,株式会社アーベント,,株式会社,東京都,小金井市,前原町２丁目２４番４号,,13,210,1840013,,,2025-07-08,清算の結了等,,,2015-10-05,1,,,,,アーベント,0
334,2030001072942,登記記録の閉鎖等,0,2025-07-14,2025-07-03,株式会社正雄電設,,株式会社,埼玉県,狭山市,広瀬台１丁目３５番１６号,,11,215,3501328,,,2025-07-03,清算の結了等,,,2015-10-05,1,,,,,セイユウデンセツ,0
347,2040001113150,登記記録の閉鎖等,0,2025-07-14,2025-06-25,ＤＯＬ株式会社,,株式会社,千葉県,千葉市稲毛区,穴川１丁目８番１６号,,12,103,2630024,,,2025-06-25,清算の結了等,,,2020-04-07,1,,,,,ドゥール,0
356,2070003001739,登記記録の閉鎖等,0,2025-07-14,2025-07-02,合同会社ヤマカミシステムサービス,,合同会社,群馬県,伊勢崎市,市場町１丁目１０７番地２２号,,10,204,3792211,,,2025-07-02,清算の結了等,,,2015-10-05,1,,,,,ヤマカミシステムサービス,0
374,2120001220418,登記記録の閉鎖等,0,2025-07-14,2025-06-27,Ｌｕｃｋｙ　Ｓｔａｒ株式会社,,株式会社,大阪府,大阪市浪速区,元町３丁目１０－１１北村マンション１０２,,27,111,5560016,,,2025-06-27,清算の結了等,,,2019-04-19,1,,,,,ラッキースター,0
396,2160001022273,登記記録の閉鎖等,0,2025-07-14,2025-07-01,株式会社マーズ,,株式会社,滋賀県,大津市,仰木２丁目７番１８号,,25,201,5200247,,,2025-07-01,清算の結了等,,,2020-02-07,1,,,,,マーズ,0
404,2180002026916,登記記録の閉鎖等,0,2025-07-14,2025-06-27,有限会社愛急,,有限会社,愛知県,名古屋市中区,錦２丁目８番１３号,,23,106,4600003,,,2025-06-27,清算の結了等,,,2015-10-05,1,,,,,アイキュウ,0
407,2210001012863,登記記録の閉鎖等,0,2025-07-14,2025-07-03,鯖江魚市株式会社,,株式会社,福井県,鯖江市,有定町１丁目５番１号,,18,207,9160057,,,2025-07-03,清算の結了等,,,2015-10-05,1,,,,,サバエウオイチ,0
408,2210001018209,登記記録の閉鎖等,0,2025-07-14,2025-07-11,株式会社伊自良たまご,,株式会社,福井県,福井市,大和田１丁目１０１番地福井市中央卸売市場内,,18,201,9100836,,,2025-07-11,清算の結了等,,,2020-11-09,1,,,,,イジラタマゴ,0
416,2290001044478,登記記録の閉鎖等,0,2025-07-14,2025-06-26,株式会社モットキャスト,,株式会社,福岡県,朝倉市,菩提寺字中ノ坪５７７番地１４,,40,228,8380061,,,2025-06-26,清算の結了等,,,2015-10-05,1,,,,,モットキャスト,0
424,2310002004684,登記記録の閉鎖等,0,2025-07-14,2025-07-02,有限会社ファミリーシューズ・ヤマモト,,有限会社,長崎県,長崎市,籠町５番３号,,42,201,8500905,,,2025-07-02,清算の結了等,,,2015-10-05,1,,,,,ファミリーシューズヤマモト,0
461,2480001012250,登記記録の閉鎖等,0,2025-07-14,2025-07-07,株式会社ＨＥＸ,,株式会社,徳島県,徳島市,南前川町３丁目１番地６,,36,201,7700808,,,2025-07-07,清算の結了等,,,2023-10-11,1,,,,,ヘックス,0
462,2480002009989,登記記録の閉鎖等,0,2025-07-14,2025-07-09,有限会社両橋縫製,,有限会社,徳島県,阿波市,市場町香美字原田１５２番地,,36,206,7711610,,,2025-07-09,清算の結了等,,,2015-10-05,1,,,,,リョウハシホウセイ,0
467,2500002020209,登記記録の閉鎖等,0,2025-07-14,2025-06-30,有限会社マーボ,,有限会社,愛媛県,今治市,大三島町宮浦５４０１番地,,38,202,7941304,,,2025-06-30,清算の結了等,,,2015-10-05,1,,,,,マーボ,0
480,3010101006933,登記記録の閉鎖等,0,2025-07-14,2025-07-09,株式会社ダイショウ,,株式会社,東京都,八王子市,鑓水２丁目１１４番地８,00050203,13,201,1920375,,,2025-07-09,清算の結了等,,,2015-10-05,1,,,,,,0
482,3010401012136,登記記録の閉鎖等,0,2025-07-14,2025-06-23,株式会社インデックスジャパン,,株式会社,東京都,港区,南青山６丁目９番２－３０４号,,13,103,1070062,,,2025-06-23,清算の結了等,,,2015-10-05,1,,,,,インデックスジャパン,0
507,3010601020541,登記記録の閉鎖等,0,2025-07-14,2025-07-01,ケイ・ビー株式会社,,株式会社,東京都,江東区,木場３丁目１０番５号,,13,108,1350042,,,2025-07-01,合併による解散等,9010601050418,令和７年７月１日東京都江東区木場三丁目１０番１号エス・テイ株式会社（9010601050418）に合併し解散,2015-10-05,1,,,,,ケイビー,0
515,3010601048558,登記記録の閉鎖等,0,2025-07-14,2025-07-01,株式会社東京ロードテクノ,,株式会社,東京都,江東区,新砂３丁目６番８号,,13,108,1360075,,,2025-07-01,清算の結了等,,,2015-10-05,1,,,,,トウキョウロードテクノ,0
516,3010602020920,登記記録の閉鎖等,0,2025-07-14,2025-07-02,有限会社エル・エス研究室,,有限会社,東京都,江東区,猿江１丁目２３番２号,,13,108,1350003,,,2025-07-02,清算の結了等,,,2015-10-05,1,,,,,エルエスケンキュウシツ,0
518,3010701026059,登記記録の閉鎖等,0,2025-07-14,2025-07-02,シミック株式会社,,株式会社,東京都,港区,芝浦１丁目１番１号,,13,103,1050023,,,2025-07-02,合併による解散等,7010401188518,令和７年７月１日東京都港区虎ノ門五丁目１番４号ビー・エックス・ジェイ・ディー・ツー・ホールディング株式会社（7010401188518）に合併し解散,2015-10-05,1,,,,,シミック,0
519,3010701041677,登記記録の閉鎖等,0,2025-07-14,2025-07-04,株式会社モーターガレージ,,株式会社,東京都,品川区,西五反田３丁目１１番６号,,13,109,1410031,,,2025-07-04,清算の結了等,,,2021-10-22,1,,,,,モーターガレージ,0
528,3010902003773,登記記録の閉鎖等,0,2025-07-14,2025-07-10,有限会社オリエント・ライブラリー,,有限会社,東京都,世田谷区,三宿２丁目１９番１６－１０１号,,13,112,1540005,,,2025-07-10,清算の結了等,,,2015-10-05,1,,,,,オリエントライブラリー,0
532,3011001109719,登記記録の閉鎖等,0,2025-07-14,2025-07-08,株式会社せかいの元気,,株式会社,東京都,府中市,多磨町１丁目２７番９号,,13,206,1830002,,,2025-07-08,清算の結了等,,,2016-02-29,1,,,,,セカイノゲンキ,0
542,3011101007392,登記記録の閉鎖等,0,2025-07-14,2025-06-20,株式会社棲建築事務所,,株式会社,東京都,新宿区,西新宿４丁目１８番１号,,13,104,1600023,,,2025-06-20,清算の結了等,,,2015-10-05,1,,,,,スミカケンチクジムショ,0
543,3011101037415,登記記録の閉鎖等,0,2025-07-14,2025-07-02,メジャーズ・ジャパン株式会社,,株式会社,東京都,新宿区,若葉２丁目９番地８号,,13,104,1600011,,,2025-07-02,清算の結了等,,,2015-10-05,1,,,,,メジャーズジャパン,0
545,3011101073336,登記記録の閉鎖等,0,2025-07-14,2025-06-19,ジャパン・ジェネラル・インベストメンツ株式会社,,株式会社,東京都,新宿区,新宿６丁目２４番２０号,,13,104,1600022,,,2025-06-19,清算の結了等,,,2015-10-05,1,,,,,ジャパンジェネラルインベストメンツ,0
557,3011501003041,登記記録の閉鎖等,0,2025-07-14,2025-07-07,株式会社テラモト,,株式会社,東京都,北区,赤羽１丁目６５番４－２０１号,,13,117,1150045,,,2025-07-07,清算の結了等,,,2015-10-05,1,,,,,テラモト,0
563,3011801040577,登記記録の閉鎖等,0,2025-07-14,2025-07-08,株式会社プラチナ共創研究所,,株式会社,東京都,葛飾区,亀有５丁目９番１号,,13,122,1250061,,,2025-07-08,清算の結了等,,,2022-04-13,1,,,,,プラチナキョウソウケンキュウショ,0
569,3012301009154,登記記録の閉鎖等,0,2025-07-14,2025-06-23,株式会社エクスパンダー,,株式会社,東京都,港区,西麻布４丁目１６番９号ホフ・タカミ２Ｆ,,13,103,1060031,,,2025-06-23,清算の結了等,,,2015-10-05,1,,,,,エクスパンダー,0
575,3012402020019,登記記録の閉鎖等,0,2025-07-14,2025-07-08,有限会社柳田設備,,有限会社,東京都,三鷹市,新川２丁目６番１２号,,13,204,1810004,,,2025-07-08,清算の結了等,,,2015-10-05,1,,,,,ヤナギダセツビ,0
607,3030001151472,登記記録の閉鎖等,0,2025-07-14,2025-06-30,株式会社アルバ・コリス,,株式会社,埼玉県,白岡市,新白岡３丁目４１番地ルネ・グランガーデン９１４,,11,246,3490212,,,2025-06-30,清算の結了等,,,2022-12-15,1,,,,,アルバコリス,0
613,3030002039824,登記記録の閉鎖等,0,2025-07-14,2025-07-03,有限会社マスダクリエイト,,有限会社,埼玉県,幸手市,東１丁目１２番１１号,,11,240,3400114,,,2025-07-03,清算の結了等,,,2015-10-05,1,,,,,マスダクリエイト,0
625,3050002022159,登記記録の閉鎖等,0,2025-07-14,2025-06-30,株式会社ＡＶＡＮＴＹ,,株式会社,茨城県,つくば市,豊里の杜１丁目２５－１１,,08,220,3002648,,,2025-06-30,合併による解散等,9050002021733,令和７年６月３０日茨城県つくば市豊里の杜一丁目２５－１１株式会社アリーナ（9050002021733）に合併し解散,2015-10-05,1,,,,,アヴァンティー,0
649,3100005012787,登記記録の閉鎖等,0,2025-07-14,2025-06-17,一般社団法人日本コーヒー調合師協会,,その他の設立登記法人,長野県,北佐久郡軽井沢町,大字長倉５５４３番地４,,20,321,3890111,,,2025-06-17,清算の結了等,,,2021-11-01,1,,,,,ニホンコーヒーチョウゴウシキョウカイ,0
652,3110002011254,登記記録の閉鎖等,0,2025-07-14,2025-06-25,有限会社西小針台コンタクト,,有限会社,新潟県,新潟市西区,西小針台２丁目１番３６号,,15,107,9502015,,,2025-06-25,清算の結了等,,,2015-10-05,1,,,,,ニシコバリダイコンタクト,0
657,3120001134063,登記記録の閉鎖等,0,2025-07-14,2025-07-03,株式会社三幸ファッション,,株式会社,大阪府,大阪市北区,西天満２丁目３番６号,,27,127,5300047,,,2025-07-03,清算の結了等,,,2015-10-05,1,,,,,ミユキファッション,0
672,3120901037563,登記記録の閉鎖等,0,2025-07-14,2025-07-01,スガフーズ株式会社,,株式会社,大阪府,門真市,本町４１－２１,,27,223,5710046,,,2025-07-01,清算の結了等,,,2016-10-18,1,,,,,スガフーズ,0
676,3122002014319,登記記録の閉鎖等,0,2025-07-14,2025-06-30,有限会社デンタルサークル,,有限会社,大阪府,八尾市,東山本新町５丁目６番２号,,27,212,5810866,,,2025-06-30,清算の結了等,,,2015-10-05,1,,,,,デンタルサークル,0
682,3140001067708,登記記録の閉鎖等,0,2025-07-14,2025-07-07,株式会社アドポリ,,株式会社,兵庫県,神戸市垂水区,霞ケ丘６丁目８番３４－３０５号,,28,108,6550039,,,2025-07-07,清算の結了等,,,2015-10-05,1,,,,,アドポリ,0
694,3150001019666,登記記録の閉鎖等,0,2025-07-14,2025-07-09,株式会社ＳＫＫ商事,,株式会社,奈良県,生駒市,北田原町１７８６番地１,,29,209,6300142,,,2025-07-09,清算の結了等,,,2015-10-05,1,,,,,エスケイケイショウジ,0
703,3180001098121,登記記録の閉鎖等,0,2025-07-14,2025-06-17,株式会社ウィーズ・ジョイ,,株式会社,埼玉県,北葛飾郡松伏町,大字築比地７９５番地１,,11,465,3430102,,,2025-06-17,合併による解散等,6030001066965,令和７年６月１日埼玉県北葛飾郡松伏町築比地７９５番地１株式会社ウィーズ（6030001066965）に合併し解散,2015-10-05,1,,,,,ウィーズジョイ,0
716,3180003016114,登記記録の閉鎖等,0,2025-07-14,2025-06-27,合同会社明日葉の華,,合同会社,愛知県,大府市,若草町１丁目１１１７番地,,23,223,4740022,,,2025-06-27,清算の結了等,,,2015-10-05,1,,,,,アシタバノハナ,0
725,3180305008965,登記記録の閉鎖等,0,2025-07-14,2025-06-30,社会保険労務士法人Ｏｆｆｉｃｅ　Ａｉｍ．,,その他の設立登記法人,愛知県,岡崎市,大樹寺３丁目２番地１,,23,202,4442134,,,2025-06-30,清算の結了等,,,2019-10-09,1,,,,,オフィスエイム,0
729,3200001021633,登記記録の閉鎖等,0,2025-07-14,2025-07-02,株式会社ヤマキチ企画,,株式会社,岐阜県,土岐市,土岐津町高山３２９番地の２,,21,212,5095121,,,2025-07-02,清算の結了等,,,2015-10-05,1,,,,,ヤマキチキカク,0
730,3210002000032,登記記録の閉鎖等,0,2025-07-14,2025-07-04,福井特殊硝子有限会社,,有限会社,福井県,福井市,宝永１丁目９番７号,,18,201,9100004,,,2025-07-04,清算の結了等,,,2015-10-05,1,,,,,フクイトクシュガラス,0
734,3260001009045,登記記録の閉鎖等,0,2025-07-14,2025-06-25,株式会社テゾーロ,,株式会社,岡山県,岡山市中区,海吉２１５０番地７,,33,102,7038261,,,2025-06-25,清算の結了等,,,2015-10-05,1,,,,,テゾーロ,0
741,3290001078186,登記記録の閉鎖等,0,2025-07-14,2025-06-26,株式会社ディー・エム・総合研究所,,株式会社,福岡県,福岡市早良区,室見２丁目３番２６号,,40,137,8140015,,,2025-06-26,清算の結了等,,,2017-06-12,1,,,,,ディーエムソウゴウケンキュウジョ,0
742,3290001082469,登記記録の閉鎖等,0,2025-07-14,2025-06-30,株式会社ワタツミ物産,,株式会社,福岡県,福岡市博多区,対馬小路１３番２６号,,40,132,8120020,,,2025-06-30,清算の結了等,,,2018-08-15,1,,,,,ワタツミブッサン,0
782,3490002003197,登記記録の閉鎖等,0,2025-07-14,2025-07-07,有限会社高松商品研究所,,有限会社,高知県,高知市,大谷公園町２０－１エスコートいさむＩＩ２Ｈ,00006545,39,201,7808085,,,2025-07-07,清算の結了等,,,2015-10-05,1,,,,,タカマツショウヒンケンキュウショ,0
802,4010003035105,登記記録の閉鎖等,0,2025-07-14,2025-06-17,合同会社あおい太陽光発電所,,合同会社,東京都,中央区,日本橋茅場町３丁目４番２号ＫＤＸ茅場町ビル４Ｆ,,13,102,1030025,,,2025-06-17,清算の結了等,,,2021-06-21,1,,,,,アオイタイヨウコウハツデンショ,0
805,4010401030343,登記記録の閉鎖等,0,2025-07-14,2025-07-09,株式会社ティーネットＨＰシステムズ,,株式会社,東京都,港区,芝浦１丁目１番１号,,13,103,1050023,,,2025-07-09,合併による解散等,6470001002109,令和７年７月１日香川県高松市成合町９３０番地１０株式会社ティーネットジャパン（6470001002109）に合併し解散,2015-10-05,1,,,,,ティーネットエイチピーシステムズ,0
807,4010401161948,登記記録の閉鎖等,0,2025-07-14,2025-06-23,和っしょい株式会社,,株式会社,東京都,港区,六本木４丁目５番１１号ＳＩＸ４階,,13,103,1060032,,,2025-06-23,清算の結了等,,,2021-08-10,1,,,,,ワッショイ,0
821,4010905004677,登記記録の閉鎖等,0,2025-07-14,2025-07-09,一般社団法人起業適塾,,その他の設立登記法人,東京都,世田谷区,宮坂３丁目１０番１号宮坂ビル４Ｆ,,13,112,1560051,,,2025-07-09,清算の結了等,,,2024-10-07,1,,,,,キギョウテキジュク,0
827,4011001132125,登記記録の閉鎖等,0,2025-07-14,2025-06-20,株式会社プロテクションマーケティング,,株式会社,東京都,港区,芝４丁目５番１５号クレール芝４０１号室,,13,103,1080014,,,2025-06-20,清算の結了等,,,2020-01-30,1,,,,,プロテクションマーケティング,0
841,4011401001672,登記記録の閉鎖等,0,2025-07-14,2025-07-07,株式会社共同,,株式会社,東京都,板橋区,小茂根３丁目６番２３号,,13,119,1730037,,,2025-07-07,清算の結了等,,,2015-10-05,1,,,,,キョウドウ,0
844,4011602008269,登記記録の閉鎖等,0,2025-07-14,2025-06-30,光技研有限会社,,有限会社,東京都,練馬区,桜台２丁目２３番６号,,13,120,1760002,,,2025-06-30,清算の結了等,,,2015-10-05,1,,,,,ヒカリギケン,0
848,4011801029594,登記記録の閉鎖等,0,2025-07-14,2025-07-08,株式会社サンワ商工,,株式会社,東京都,足立区,鹿浜３丁目３番１１号,,13,121,1230864,,,2025-07-08,清算の結了等,,,2015-10-05,1,,,,,サンワショウコウ,0
852,4012403002725,登記記録の閉鎖等,0,2025-07-14,2025-07-01,ドラフト・ケグ・ジャパン合同会社,,合同会社,東京都,調布市,富士見町３丁目２５番地８,,13,208,1820033,,,2025-07-01,清算の結了等,,,2016-05-12,1,,,,,ドラフトケグジャパン,0
882,4070001038079,登記記録の閉鎖等,0,2025-07-14,2025-07-01,株式会社ＷＡＶＥ′Ｓ,,株式会社,群馬県,太田市,亀岡町９６番地１５,,10,205,3700411,,,2025-07-01,清算の結了等,,,2021-06-01,1,,,,,ウエブズ,0
887,4080405003231,登記記録の閉鎖等,0,2025-07-14,2025-07-03,医療法人社団岡田クリニック,,その他の設立登記法人,静岡県,浜松市中央区,天王町１７４１番地１,,22,138,4350052,,,2025-07-03,清算の結了等,,,2015-10-05,1,,,,,オカダクリニック,0
942,4190001007609,登記記録の閉鎖等,0,2025-07-14,2025-07-01,株式会社麒麟地震研究所,,株式会社,三重県,伊勢市,吹上１丁目７番７号,,24,203,5160073,,,2025-07-01,清算の結了等,,,2015-10-05,1,,,,,キリンジシンケンキュウショ,0
948,4230001002299,登記記録の閉鎖等,0,2025-07-14,2025-07-02,株式会社カフウテイ,,株式会社,富山県,富山市,上飯野新町２丁目１００番地,,16,201,9300825,,,2025-07-02,合併による解散等,2230001001674,令和７年７月１日富山市上飯野新町二丁目１００番地株式会社タムラ設計．（2230001001674）に合併し解散,2015-10-05,1,,,,,カフウテイ,0
949,4230001014138,登記記録の閉鎖等,0,2025-07-14,2025-07-07,株式会社第一製型,,株式会社,富山県,高岡市,福岡町土屋６９２番地１,,16,202,9390142,,,2025-07-07,清算の結了等,,,2015-10-05,1,,,,,ダイイチセイケイ,0
960,4290001088903,登記記録の閉鎖等,0,2025-07-14,2025-06-26,グロウイング株式会社,,株式会社,福岡県,福岡市博多区,千代２丁目２２番８号一豊ビル２０２号室,,40,132,8120044,,,2025-06-26,清算の結了等,,,2020-05-28,1,,,,,グロウイング,0
971,4290801022276,登記記録の閉鎖等,0,2025-07-14,2025-07-10,Ｇハウス株式会社,,株式会社,福岡県,北九州市小倉北区,馬借１丁目１６番１０－７０２号,,40,106,8020077,,,2025-07-10,清算の結了等,,,2016-02-24,1,,,,,ジーハウス,0
979,4330005005767,登記記録の閉鎖等,0,2025-07-14,2025-06-18,ＮＰＯ法人宇城市環境保全隊,,その他の設立登記法人,熊本県,宇城市,松橋町久具１７２２番地,,43,213,8690532,,,2025-06-18,清算の結了等,,,2015-10-05,1,,,,,ウキシカンキョウホゼンタイ,0
982,4340001026865,登記記録の閉鎖等,0,2025-07-14,2025-06-30,出水シニアレジデンス株式会社,,株式会社,鹿児島県,出水市,大野原町２１０３番地,,46,208,8990216,,,2025-06-30,清算の結了等,,,2024-10-16,1,,,,,イズミシニアレジデンス,0
983,4340002014266,登記記録の閉鎖等,0,2025-07-14,2025-06-30,有限会社山内商事,,有限会社,鹿児島県,霧島市,国分野口東６番２０号,,46,218,8994341,,,2025-06-30,合併による解散等,6340001007401,令和７年６月３０日鹿児島県霧島市国分野口東６番２０号株式会社山昌（6340001007401）に合併し解散,2015-10-05,1,,,,,ヤマウチショウジ,0
994,4390001001509,登記記録の閉鎖等,0,2025-07-14,2025-06-30,日通山形運輸株式会社,,株式会社,山形県,山形市,流通センター４丁目６番地１１,,06,201,9900071,,,2025-06-30,清算の結了等,,,2015-10-05,1,,,,,ニッツウヤマガタウンユ,0
1000,4490001006571,登記記録の閉鎖等,0,2025-07-14,2025-07-09,株式会社ヒューネラル愛,,株式会社,高知県,香南市,野市町西野１８７８番地３,,39,211,7815232,,,2025-07-09,清算の結了等,,,2015-10-05,1,,,,,ヒューネラルアイ,0
1017,5010401059464,登記記録の閉鎖等,0,2025-07-14,2025-06-19,株式会社シーディック,,株式会社,東京都,新宿区,西新宿７丁目４番５号,,13,104,1600023,,,2025-06-19,清算の結了等,,,2015-10-05,1,,,,,シーディック,0
1020,5010401136932,登記記録の閉鎖等,0,2025-07-14,2025-06-20,Ａｍｅｒｉｃａｎ　Ｊｅｒｋｙ株式会社,,株式会社,東京都,港区,赤坂３丁目２１番５号三銀ビル４０８号室,,13,103,1070052,,,2025-06-20,清算の結了等,,,2018-03-05,1,,,,,アメリカンジャーキー,0
1024,5010403019409,登記記録の閉鎖等,0,2025-07-14,2025-06-23,合同会社オールリンク,,合同会社,東京都,港区,南青山３丁目５番２号,,13,103,1070062,,,2025-06-23,清算の結了等,,,2018-10-02,1,,,,,オールリンク,0
1035,5010901019356,登記記録の閉鎖等,0,2025-07-14,2025-07-03,ライナスデザインオフィス株式会社,,株式会社,東京都,西東京市,芝久保町１丁目２５番２６号,,13,229,1880014,,,2025-07-03,清算の結了等,,,2015-10-05,1,,,,,ライナスデザインオフィス,0
1062,5011101089470,登記記録の閉鎖等,0,2025-07-14,2025-06-18,株式会社ＴＬＣボディケアグループ,,株式会社,東京都,新宿区,西新宿８丁目１９番２号ＴＫビル４Ｆ,,13,104,1600023,,,2025-06-18,清算の結了等,,,2019-11-08,1,,,,,ティーエルシーボディケアグループ,0
1082,5012701008910,登記記録の閉鎖等,0,2025-07-14,2025-06-20,株式会社ポラリスコーポレーション,,株式会社,東京都,新宿区,新宿１丁目３０番１６号ルネ新宿御苑タワー１３０５号室,,13,104,1600022,,,2025-06-20,清算の結了等,,,2015-10-05,1,,,,,ポラリスコーポレーション,0
1084,5013202001537,登記記録の閉鎖等,0,2025-07-14,2025-06-13,有限会社岡本真直写真事務所,,有限会社,東京都,目黒区,緑が丘１丁目１３番１４号,,13,110,1520034,,,2025-06-13,清算の結了等,,,2015-10-05,1,,,,,オカモトマサナオシャシンジムショ,0
1085,5013302016848,登記記録の閉鎖等,0,2025-07-14,2025-06-30,有限会社太陽エンジニア,,有限会社,東京都,豊島区,上池袋３丁目２０番９号,,13,116,1700012,,,2025-06-30,清算の結了等,,,2015-10-05,1,,,,,タイヨウエンジニア,0
1137,5080001009672,登記記録の閉鎖等,0,2025-07-14,2025-07-01,株式会社開発紙業,,株式会社,静岡県,静岡市葵区,川合３丁目２０番４３号,,22,101,4200923,,,2025-07-01,合併による解散等,2080001006020,令和７年７月１日静岡市清水区興津中町９９０番地株式会社兼子（2080001006020）に合併し解散,2015-10-05,1,,,,,カイハツシギョウ,0
1151,5110001035244,登記記録の閉鎖等,0,2025-07-14,2025-06-17,株式会社人財計画,,株式会社,新潟県,新潟市中央区,本町通６番町１１４１－１,,15,103,9518067,,,2025-06-17,清算の結了等,,,2020-10-22,1,,,,,ジンザイケイカク,0
1152,5110002031622,登記記録の閉鎖等,0,2025-07-14,2025-06-25,有限会社佐藤撚糸,,有限会社,新潟県,見附市,嶺崎２丁目２番１５号,,15,211,9540055,,,2025-06-25,清算の結了等,,,2015-10-05,1,,,,,サトウネンシ,0
1153,5120001193603,登記記録の閉鎖等,0,2025-07-14,2025-06-30,株式会社ＳＥＩＥＩ,,株式会社,大阪府,大阪市平野区,平野南３丁目４番５－７０１号,,27,126,5470031,,,2025-06-30,清算の結了等,,,2015-10-05,1,,,,,セイエイ,0
1160,5120002064968,登記記録の閉鎖等,0,2025-07-14,2025-07-01,有限会社聖テック,,有限会社,大阪府,大阪市平野区,加美北３丁目７番４１号,,27,126,5470001,,,2025-07-01,合併による解散等,3120002047116,令和７年７月１日大阪市平野区加美北三丁目７番４１号株式会社柳金属製作所（3120002047116）に合併し解散,2015-10-05,1,,,,,ヒジリテック,0
1166,5120902021738,登記記録の閉鎖等,0,2025-07-14,2025-07-02,株式会社サンワオフィス,,株式会社,大阪府,豊中市,中桜塚２丁目１８番１１号,,27,203,5610881,,,2025-07-02,清算の結了等,,,2015-10-05,1,,,,,サンワオフィス,0
1180,5140001043517,登記記録の閉鎖等,0,2025-07-14,2025-07-07,藤原電気水道株式会社,,株式会社,兵庫県,加古川市,志方町志方町１１３２番地の１,,28,210,6750321,,,2025-07-07,清算の結了等,,,2015-10-05,1,,,,,フジワラデンキスイドウ,0
1189,5140003013889,登記記録の閉鎖等,0,2025-07-14,2025-07-07,合同会社池谷,,合同会社,兵庫県,加古川市,東神吉町神吉１３５６番地の５,,28,210,6750057,,,2025-07-07,清算の結了等,,,2019-04-26,1,,,,,イケタニ,0
1190,5140005012716,登記記録の閉鎖等,0,2025-07-14,2025-07-01,特定非営利活動法人但馬成年後見支援センターぬくもりの家,,その他の設立登記法人,兵庫県,豊岡市,日高町芝１０７番地の１,,28,209,6695362,,,2025-07-01,清算の結了等,,,2015-10-05,1,,,,,タジマセイネンコウケンシエンセンターヌクモリノイエ,0
1193,5150001001259,登記記録の閉鎖等,0,2025-07-14,2025-07-09,株式会社たかまど,,株式会社,奈良県,奈良市,大宮町６丁目５番地の３,,29,201,6308115,,,2025-07-09,清算の結了等,,,2015-10-05,1,,,,,タカマド,0
1199,5170001012188,登記記録の閉鎖等,0,2025-07-14,2025-07-08,株式会社ＡＳＫ,,株式会社,和歌山県,和歌山市,吉田５７１番地,,30,201,6408343,,,2025-07-08,合併による解散等,7010001095222,令和７年７月１日東京都千代田区丸の内一丁目８番１号丸の内トラストタワーＮ館Ａｐａｍａｎ　Ｐｒｏｐｅｒｔｙ株式会社（7010001095222）に合併し解散,2015-10-05,1,,,,,エーエスケイ,0
1213,5180003024899,登記記録の閉鎖等,0,2025-07-14,2025-06-24,Ｋａｒａｍａｎ合同会社,,合同会社,愛知県,春日井市,押沢台５丁目１６番地１グリーンヒルズ押沢２０３号,,23,206,4870005,,,2025-06-24,清算の結了等,,,2023-03-02,1,,,,,カラマン,0
1228,5200001019139,登記記録の閉鎖等,0,2025-07-14,2025-07-03,株式会社後藤建設,,株式会社,岐阜県,関市,武芸川町小知野４３６番地の１１,,21,205,5012602,,,2025-07-03,清算の結了等,,,2015-10-05,1,,,,,ゴトウケンセツ,0
1239,5230002014474,登記記録の閉鎖等,0,2025-07-14,2025-07-04,有限会社めぐみ,,有限会社,富山県,射水市,橋下条１３７４番地,,16,211,9390332,,,2025-07-04,清算の結了等,,,2015-10-05,1,,,,,メグミ,0
1241,5240001032947,登記記録の閉鎖等,0,2025-07-14,2025-07-01,広島グラスビーズ産業株式会社,,株式会社,広島県,福山市,御幸町大字上岩成７４９番地,,34,207,7200001,,,2025-07-01,合併による解散等,9240001032324,令和７年７月１日広島県福山市御幸町大字上岩成７４９番地株式会社御幸（9240001032324）に合併し解散,2015-10-05,1,,,,,ヒロシマグラスビーズサンギョウ,0
1268,5350002004042,登記記録の閉鎖等,0,2025-07-14,2025-06-30,有限会社フットアーム,,有限会社,宮崎県,宮崎市,下北方町新地８３０番地フラワーマンション神宮北１００４号,,45,201,8800035,,,2025-06-30,清算の結了等,,,2015-10-05,1,,,,,フットアーム,0
1270,5350002017119,登記記録の閉鎖等,0,2025-07-14,2025-06-30,有限会社中村水産,,有限会社,宮崎県,日南市,南郷町潟上９６番地２,,45,204,8893213,,,2025-06-30,清算の結了等,,,2015-10-05,1,,,,,ナカムラスイサン,0
1282,5390001014864,登記記録の閉鎖等,0,2025-07-14,2025-06-30,株式会社庄内運転者育成学園,,株式会社,山形県,鶴岡市,日和田町２０番４８号,,06,203,9970016,,,2025-06-30,清算の結了等,,,2017-04-12,1,,,,,ショウナイウンテンシャイクセイガクエン,0
1295,6010001092633,登記記録の閉鎖等,0,2025-07-14,2025-06-23,株式会社ディレクトリ,,株式会社,東京都,文京区,音羽１丁目１６番８－１００３号,,13,105,1120013,,,2025-06-23,清算の結了等,,,2015-10-05,1,,,,,ディレクトリ,0
1301,6010002035814,登記記録の閉鎖等,0,2025-07-14,2025-06-24,有限会社カメリア・ビジネスソリューション,,有限会社,東京都,港区,港南３丁目５番１０－２９０９号,,13,103,1080075,,,2025-06-24,清算の結了等,,,2015-10-05,1,,,,,カメリアビジネスソリューション,0
1310,6010403022436,登記記録の閉鎖等,0,2025-07-14,2025-06-23,合同会社トラストリーフ,,合同会社,東京都,港区,虎ノ門３丁目２２番１０－２０１号,,13,103,1050001,,,2025-06-23,清算の結了等,,,2020-03-02,1,,,,,トラストリーフ,0
1313,6010405005414,登記記録の閉鎖等,0,2025-07-14,2025-06-20,特定非営利活動法人海外農業開発指導機構,,その他の設立登記法人,東京都,港区,南青山２丁目２６番３５号ＫＫビル１階,,13,103,1070062,,,2025-06-20,清算の結了等,,,2015-10-05,1,,,,,カイガイノウギョウカイハツシドウキコウ,0
1315,6010502005829,登記記録の閉鎖等,0,2025-07-14,2025-06-26,有限会社鈴重バンド製作所,,有限会社,東京都,台東区,清川１丁目１番２号,,13,106,1110022,,,2025-06-26,清算の結了等,,,2015-10-05,1,,,,,スズシゲバンドセイサクショ,0
1322,6010703006428,登記記録の閉鎖等,0,2025-07-14,2025-07-04,グリーンコネクト合同会社,,合同会社,東京都,品川区,上大崎３丁目１番１号目黒セントラルスクエア１５階,,13,109,1410021,,,2025-07-04,清算の結了等,,,2022-10-24,1,,,,,グリーンコネクト,0
1324,6010901001065,登記記録の閉鎖等,0,2025-07-14,2025-07-09,株式会社石塚商店,,株式会社,東京都,世田谷区,祖師谷１丁目３６番５号,,13,112,1570072,,,2025-07-09,清算の結了等,,,2015-10-05,1,,,,,イシヅカショウテン,0
1342,6011101077631,登記記録の閉鎖等,0,2025-07-14,2025-07-07,株式会社オアシス巧房,,株式会社,東京都,北区,赤羽２丁目８番２号いさみやビル４０２,,13,117,1150045,,,2025-07-07,清算の結了等,,,2016-07-14,1,,,,,オアシスコウボウ,0
1355,6011602006130,登記記録の閉鎖等,0,2025-07-14,2025-07-01,有限会社東京グリーンテニスクラブ,,有限会社,東京都,杉並区,荻窪３丁目３２番１３号,,13,115,1670051,,,2025-07-01,合併による解散等,8011601015766,令和７年７月１日東京都杉並区荻窪三丁目３２番１３号株式会社ＴＮＫコーポレーション（8011601015766）に合併し解散,2015-10-05,1,,,,,トウキョウグリーンテニスクラブ,0
1357,6011801033594,登記記録の閉鎖等,0,2025-07-14,2025-07-08,株式会社キャットハンドサービス,,株式会社,東京都,足立区,新田３丁目３６番２－２０３号,,13,121,1230865,,,2025-07-08,清算の結了等,,,2017-07-13,1,,,,,キャットハンドサービス,0
1360,6011805002323,登記記録の閉鎖等,0,2025-07-14,2025-07-02,特定非営利活動法人柴又まちねっと,,その他の設立登記法人,東京都,葛飾区,柴又１丁目３２番２号,,13,122,1250052,,,2025-07-02,清算の結了等,,,2015-10-05,1,,,,,シバマタマチネット,0
1363,6012702002671,登記記録の閉鎖等,0,2025-07-14,2025-07-03,有限会社近藤左官工業,,有限会社,東京都,東村山市,野口町３丁目５０番地４６,,13,213,1890022,,,2025-07-03,清算の結了等,,,2015-10-05,1,,,,,コンドウサカンコウギョウ,0
1367,6013301013424,登記記録の閉鎖等,0,2025-07-14,2025-06-30,株式会社プロセス文華堂,,株式会社,東京都,豊島区,西巣鴨１丁目１９番１２号,,13,116,1700001,,,2025-06-30,清算の結了等,,,2015-10-05,1,,,,,プロセスブンカドウ,0
1377,6021003010466,登記記録の閉鎖等,0,2025-07-14,2025-06-27,合同会社カルダモン,,合同会社,神奈川県,川崎市宮前区,有馬７丁目１１番１１号２０７,,14,136,2160003,,,2025-06-27,清算の結了等,,,2021-05-12,1,,,,,カルダモン,0
1380,6030001122198,登記記録の閉鎖等,0,2025-07-14,2025-07-03,株式会社ＧＶＡＳ,,株式会社,埼玉県,新座市,大和田１丁目２５番３１号,,11,230,3520004,,,2025-07-03,清算の結了等,,,2017-09-19,1,,,,,ジーバス,0
1385,6030003015549,登記記録の閉鎖等,0,2025-07-14,2025-06-16,ＹＫＬエステート合同会社,,合同会社,埼玉県,入間郡毛呂山町,大字西大久保２５０番地１０,,11,326,3500433,,,2025-06-16,清算の結了等,,,2020-07-14,1,,,,,ワイケイエルエステート,0
1397,6060005007236,登記記録の閉鎖等,0,2025-07-14,2025-07-02,特定非営利活動法人あそ地下足袋倶楽部,,その他の設立登記法人,栃木県,佐野市,堀米町２２７番地１４,,09,204,3270843,,,2025-07-02,清算の結了等,,,2015-10-05,1,,,,,アソジカタビクラブ,0
1399,6070002014028,登記記録の閉鎖等,0,2025-07-14,2025-07-02,有限会社森自動車,,有限会社,群馬県,高崎市,東国分町１５番地の４,,10,202,3703514,,,2025-07-02,清算の結了等,,,2015-10-05,1,,,,,モリジドウシャ,0
1409,6120001052444,登記記録の閉鎖等,0,2025-07-14,2025-07-02,株式会社東伸,,株式会社,大阪府,吹田市,桃山台２丁目８番Ａ１－５０１号,,27,205,5650854,,,2025-07-02,合併による解散等,3120001058485,令和７年７月１日大阪府吹田市桃山台二丁目８番Ａ１－５０１号株式会社ＲＹＯＺＥＮ（3120001058485）に合併し解散,2015-10-05,1,,,,,トウシン,0
1425,6120101052187,登記記録の閉鎖等,0,2025-07-14,2025-07-03,株式会社エクセルツリー,,株式会社,大阪府,高石市,高師浜２丁目１１番５号,,27,225,5920004,,,2025-07-03,清算の結了等,,,2015-10-05,1,,,,,エクセルツリー,0
1433,6122002013202,登記記録の閉鎖等,0,2025-07-14,2025-06-27,有限会社植田紙工所,,有限会社,大阪府,八尾市,安中町２丁目１番６４号,,27,212,5810085,,,2025-06-27,清算の結了等,,,2015-10-05,1,,,,,ウエダシコウショ,0
1439,6140001004039,登記記録の閉鎖等,0,2025-07-14,2025-07-07,株式会社ＳＲクリーニング,,株式会社,兵庫県,神戸市灘区,味泥町８番２６号,,28,102,6570851,,,2025-07-07,清算の結了等,,,2015-10-05,1,,,,,,0
1455,6170002009166,登記記録の閉鎖等,0,2025-07-14,2025-07-08,有限会社吉田綜合保険事務所,,有限会社,和歌山県,田辺市,紺屋町５８番地の５,,30,206,6460047,,,2025-07-08,清算の結了等,,,2015-10-05,1,,,,,,0
1469,6180002009710,登記記録の閉鎖等,0,2025-07-14,2025-06-27,有限会社鈴木ボデー,,有限会社,愛知県,名古屋市瑞穂区,本願寺町１丁目２７番地,,23,108,4670814,,,2025-06-27,清算の結了等,,,2015-10-05,1,,,,,スズキボデー,0
1477,6190003002928,登記記録の閉鎖等,0,2025-07-14,2025-07-01,合同会社エトワール,,合同会社,三重県,津市,白塚町１０８０番地２１２,00113648,24,201,5140101,,,2025-07-01,清算の結了等,,,2018-06-08,1,,,,,エトワール,0
1479,6200001017570,登記記録の閉鎖等,0,2025-07-14,2025-07-03,株式会社天池モールド,,株式会社,岐阜県,加茂郡富加町,羽生１５１６番地の２,,21,502,5013303,,,2025-07-03,清算の結了等,,,2015-10-05,1,,,,,アマイケモールド,0
1480,6210002009013,登記記録の閉鎖等,0,2025-07-14,2025-07-03,有限会社キムラマシン,,有限会社,福井県,福井市,順化２丁目４番１４号,,18,201,9100023,,,2025-07-03,清算の結了等,,,2015-10-05,1,,,,,キムラマシン,0
1514,6340002001675,登記記録の閉鎖等,0,2025-07-14,2025-06-30,株式会社美味芋本舗,,株式会社,鹿児島県,鹿児島市,平川町１６１０番地１,,46,201,8910133,,,2025-06-30,清算の結了等,,,2015-10-05,1,,,,,ウマイモホンポ,0
1529,6380002026388,登記記録の閉鎖等,0,2025-07-14,2025-06-26,有限会社村山工業,,有限会社,福島県,いわき市,小名浜字吹松９番地の３,,07,204,9718101,,,2025-06-26,清算の結了等,,,2015-10-05,1,,,,,ムラヤマコウギョウ,0
1545,6450001010047,登記記録の閉鎖等,0,2025-07-14,2025-07-07,株式会社オクノ・リテール,,株式会社,北海道,旭川市,三条通７丁目４１８番地１,,01,204,0700033,,,2025-07-07,清算の結了等,,,2015-10-05,1,,,,,オクノリテール,0
1553,6480002016098,登記記録の閉鎖等,0,2025-07-14,2025-07-09,有限会社写真の多田,,有限会社,徳島県,三好郡東みよし町,西庄字川原田７番地１,,36,489,7794702,,,2025-07-09,清算の結了等,,,2015-10-05,1,,,,,シャシンノタダ,0
1574,7010401054091,登記記録の閉鎖等,0,2025-07-14,2025-06-25,三井業際ヒューマンアセット株式会社,,株式会社,東京都,港区,赤坂３丁目１１番３号,,13,103,1070052,,,2025-06-25,清算の結了等,,,2015-10-05,1,,,,,ミツイギョウサイヒューマンアセット,0
1585,7010401155682,登記記録の閉鎖等,0,2025-07-14,2025-07-02,株式会社エイト,,株式会社,東京都,江東区,深川２丁目５番１１－１２０９号,,13,108,1350033,,,2025-07-02,清算の結了等,,,2020-10-07,1,,,,,エイト,0
1603,7010703003077,登記記録の閉鎖等,0,2025-07-14,2025-06-17,グローブコネクト合同会社,,合同会社,東京都,新宿区,新宿１丁目３６－２新宿第七葉山ビル３階,,13,104,1600022,,,2025-06-17,清算の結了等,,,2016-04-18,1,,,,,グローブコネクト,0
1604,7010802010131,登記記録の閉鎖等,0,2025-07-14,2025-07-02,有限会社陶祥堂,,有限会社,東京都,大田区,多摩川２丁目１６番７－６０２号,,13,111,1460095,,,2025-07-02,清算の結了等,,,2015-10-05,1,,,,,トウショウドウ,0
1626,7011402007377,登記記録の閉鎖等,0,2025-07-14,2025-07-07,有限会社ビアデル,,有限会社,東京都,板橋区,中丸町１１番２号,,13,119,1730026,,,2025-07-07,清算の結了等,,,2015-10-05,1,,,,,ビアデル,0
1627,7011501014860,登記記録の閉鎖等,0,2025-07-14,2025-07-07,株式会社アクアジェム,,株式会社,東京都,荒川区,東尾久２丁目４９番６－５０２号,,13,118,1160012,,,2025-07-07,清算の結了等,,,2015-10-05,1,,,,,アクアジェム,0
1664,7050003002437,登記記録の閉鎖等,0,2025-07-14,2025-07-07,ボストンビジネスサービス合同会社,,合同会社,東京都,中野区,中野２丁目１９－２リードシー中野ビル３Ｆ,,13,114,1640001,,,2025-07-07,清算の結了等,,,2015-10-05,1,,,,,ボストンビジネスサービス,0
1667,7060002006388,登記記録の閉鎖等,0,2025-07-14,2025-07-02,東部建機有限会社,,有限会社,栃木県,宇都宮市,清原台１丁目４番７号,,09,201,3213223,,,2025-07-02,清算の結了等,,,2015-10-05,1,,,,,トウブケンキ,0
1668,7060002038068,登記記録の閉鎖等,0,2025-07-14,2025-07-02,有限会社サンマインド,,有限会社,栃木県,足利市,高松町５９１番地,,09,202,3260325,,,2025-07-02,清算の結了等,,,2015-10-05,1,,,,,サンマインド,0
1671,7070002033225,登記記録の閉鎖等,0,2025-07-14,2025-07-01,有限会社館東工芸,,有限会社,群馬県,館林市,東美園町２番地の４,,10,207,3740031,,,2025-07-01,清算の結了等,,,2015-10-05,1,,,,,カントウコウゲイ,0
1688,7120001232185,登記記録の閉鎖等,0,2025-07-14,2025-06-30,信和精工株式会社,,株式会社,大阪府,門真市,四宮４丁目３番１４号,,27,223,5710017,,,2025-06-30,清算の結了等,,,2020-10-02,1,,,,,,0
1720,7140002006512,登記記録の閉鎖等,0,2025-07-14,2025-07-03,有限会社福井商店,,有限会社,兵庫県,神戸市垂水区,千鳥が丘３丁目２０番３０号,,28,108,6550011,,,2025-07-03,清算の結了等,,,2015-10-05,1,,,,,フクイショウテン,0
1733,7160002014109,登記記録の閉鎖等,0,2025-07-14,2025-07-02,有限会社芳月社,,有限会社,滋賀県,守山市,今浜町２６２０番地の８２,,25,207,5240101,,,2025-07-02,清算の結了等,,,2015-10-05,1,,,,,ホウゲツシャ,0
1735,7180001108000,登記記録の閉鎖等,0,2025-07-14,2025-06-30,株式会社ＭａｃｈｉｎｅＨｅａｄ,,株式会社,愛知県,名古屋市天白区,植田西２丁目７０９番地,,23,116,4680058,,,2025-06-30,清算の結了等,,,2015-10-05,1,,,,,マシンヘッド,0
1739,7180002071115,登記記録の閉鎖等,0,2025-07-14,2025-06-30,有限会社メイコウメンテナンス,,有限会社,愛知県,小牧市,東４丁目２０２番地,,23,219,4850831,,,2025-06-30,清算の結了等,,,2015-10-05,1,,,,,メイコウメンテナンス,0
1740,7180002072451,登記記録の閉鎖等,0,2025-07-14,2025-06-27,有限会社横地自動車販売,,有限会社,愛知県,瀬戸市,川北町２丁目２０番地,,23,204,4890927,,,2025-06-27,清算の結了等,,,2015-10-05,1,,,,,ヨコチジドウシャハンバイ,0
1741,7180301024095,登記記録の閉鎖等,0,2025-07-14,2025-06-30,水谷商事株式会社,,株式会社,愛知県,新城市,字裏野１８番地１,,23,221,4411372,,,2025-06-30,清算の結了等,,,2015-10-05,1,,,,,ミズタニショウジ,0
1754,7250002016351,登記記録の閉鎖等,0,2025-07-14,2025-07-08,有限会社エス・アイプランニング,,有限会社,山口県,周南市,清水２丁目１０番１２号,,35,215,7460015,,,2025-07-08,清算の結了等,,,2015-10-05,1,,,,,エスアイプランニング,0
1757,7260002029369,登記記録の閉鎖等,0,2025-07-14,2025-06-30,有限会社細場商店,,有限会社,岡山県,津山市,京町１８番地,,33,203,7080062,,,2025-06-30,清算の結了等,,,2015-10-05,1,,,,,ホソバショウテン,0
1762,7290001052815,登記記録の閉鎖等,0,2025-07-14,2025-07-04,株式会社クラフト冨安,,株式会社,福岡県,柳川市,三橋町枝光３６９番地の６,,40,207,8320807,,,2025-07-04,清算の結了等,,,2015-10-05,1,,,,,クラフトトミヤス,0
1770,7290002008196,登記記録の閉鎖等,0,2025-07-14,2025-06-30,有限会社新開電器商店,,有限会社,福岡県,福岡市博多区,神屋町８番１５号,,40,132,8120022,,,2025-06-30,清算の結了等,,,2015-10-05,1,,,,,シンカイデンキショウテン,0
1777,7310005007069,登記記録の閉鎖等,0,2025-07-14,2025-07-03,特定非営利活動法人ほほえみ五島,,その他の設立登記法人,長崎県,五島市,三尾野３丁目６－７,,42,211,8530064,,,2025-07-03,清算の結了等,,,2015-10-05,1,,,,,ホホエミゴトウ,0
1783,7350002001566,登記記録の閉鎖等,0,2025-07-14,2025-06-30,有限会社グロリーエイト,,有限会社,宮崎県,宮崎市,丸山２丁目６７番地,,45,201,8800052,,,2025-06-30,清算の結了等,,,2015-10-05,1,,,,,グロリーエイト,0
1799,7370002003305,登記記録の閉鎖等,0,2025-07-14,2025-06-27,有限会社泰久ビル,,有限会社,宮城県,仙台市太白区,松が丘４２番６号,,04,104,9820821,,,2025-06-27,清算の結了等,,,2015-10-05,1,,,,,タイキュウビル,0
1806,7410001003458,登記記録の閉鎖等,0,2025-07-14,2025-07-04,株式会社田仲建設,,株式会社,秋田県,潟上市,昭和大久保字北野大崎道添２００番地５,,05,211,0181401,,,2025-07-04,清算の結了等,,,2015-10-05,1,,,,,タナカケンセツ,0
1813,7430001088398,登記記録の閉鎖等,0,2025-07-14,2025-07-01,株式会社スプレー,,株式会社,北海道,小樽市,銭函２丁目６番３号,,01,203,0470261,,,2025-07-01,清算の結了等,,,2023-02-21,1,,,,,,0
1827,7500003003273,登記記録の閉鎖等,0,2025-07-14,2025-06-30,ｔｉｎｙ‐ｆｒｏｎｔ合同会社,,合同会社,愛媛県,松山市,萱町３丁目２番地９ヴァレーレ萱町４０２号,,38,201,7900813,,,2025-06-30,清算の結了等,,,2024-07-03,1,,,,,タイニーフロント,0
1839,8010001244091,登記記録の閉鎖等,0,2025-07-14,2025-06-26,思い株式会社,,株式会社,東京都,台東区,台東１丁目２９番３イースタンクロスアキバ３０９号,,13,106,1100016,,,2025-06-26,清算の結了等,,,2024-04-18,1,,,,,オモイ,0
1863,8010501025669,登記記録の閉鎖等,0,2025-07-14,2025-07-09,神洲通商株式会社,,株式会社,東京都,台東区,上野７丁目７番７号,,13,106,1100005,,,2025-07-09,合併による解散等,3010401186145,令和７年７月１日東京都港区赤坂九丁目７番１号神洲通商株式会社（3010401186145）に合併し解散,2015-10-05,1,,,,,シンシユウツウシヨウ,0
1874,8011003010812,登記記録の閉鎖等,0,2025-07-14,2025-06-16,グロークス合同会社,,合同会社,東京都,目黒区,鷹番１丁目１０－１,,13,110,1520004,,,2025-06-16,清算の結了等,,,2020-01-29,1,,,,,グロークス,0
1875,8011003017386,登記記録の閉鎖等,0,2025-07-14,2025-06-16,ｌｉｍｐＩｎ株式会社,,株式会社,東京都,渋谷区,道玄坂１丁目１０番８号渋谷道玄坂東急ビル２Ｆ－Ｃ,,13,113,1500043,,,2025-06-16,清算の結了等,,,2023-08-28,1,,,,,リンプイン,0
1878,8011101055049,登記記録の閉鎖等,0,2025-07-14,2025-06-18,株式会社パレスグッド,,株式会社,東京都,新宿区,市谷田町１丁目３番地,,13,104,1620843,,,2025-06-18,清算の結了等,,,2015-10-05,1,,,,,パレスグッド,0
1889,8011302009638,登記記録の閉鎖等,0,2025-07-14,2025-07-01,有限会社ユテール,,有限会社,東京都,杉並区,久我山５丁目１７番６号,,13,115,1680082,,,2025-07-01,清算の結了等,,,2015-10-05,1,,,,,ユテール,0
1900,8013102001700,登記記録の閉鎖等,0,2025-07-14,2025-07-07,有限会社石井機械工業,,有限会社,東京都,あきる野市,渕上２８６番地１,,13,228,1970833,,,2025-07-07,清算の結了等,,,2015-10-05,1,,,,,,0
1904,8013305003584,登記記録の閉鎖等,0,2025-07-14,2025-06-30,行政書士法人ユナイテッド,,その他の設立登記法人,東京都,豊島区,西池袋２丁目３６番１０号ＡＣＮ池袋ビル１階,,13,116,1710021,,,2025-06-30,清算の結了等,,,2024-03-26,1,,,,,ユナイテッド,0
1920,8030001091152,登記記録の閉鎖等,0,2025-07-14,2025-06-17,株式会社イチワタ,,株式会社,埼玉県,秩父郡皆野町,大字皆野１１５１番地,,11,362,3691412,,,2025-06-17,合併による解散等,6030001066965,令和７年６月１日埼玉県北葛飾郡松伏町築比地７９５番地１株式会社ウィーズ（6030001066965）に合併し解散,2015-10-05,1,,,,,イチワタ,0
1927,8040001003874,登記記録の閉鎖等,0,2025-07-14,2025-06-25,株式会社総武コモンズ,,株式会社,千葉県,千葉市中央区,新宿１丁目２番４号,,12,101,2600021,,,2025-06-25,清算の結了等,,,2015-10-05,1,,,,,ソウブコモンズ,0
1929,8040001054281,登記記録の閉鎖等,0,2025-07-14,2025-06-25,日通千葉南流通サービス株式会社,,株式会社,千葉県,市原市,八幡浦１丁目２番地,,12,219,2900068,,,2025-06-25,清算の結了等,,,2015-10-05,1,,,,,ニッツウチバミナミリュウツウサービス,0
1934,8040002089723,登記記録の閉鎖等,0,2025-07-14,2025-06-25,有限会社光進建設,,有限会社,千葉県,柏市,大井２７４１番地,,12,217,2770902,,,2025-06-25,清算の結了等,,,2015-10-05,1,,,,,コウシンケンセツ,0
1938,8050005010882,登記記録の閉鎖等,0,2025-07-14,2025-07-02,特定非営利活動法人ＰＩＲＡＴＥＳ,,その他の設立登記法人,茨城県,つくば市,松代３丁目６番１３ニューマリッジ中山１０３号,,08,220,3050035,,,2025-07-02,清算の結了等,,,2015-10-05,1,,,,,パイレーツ,0
1956,8110002025183,登記記録の閉鎖等,0,2025-07-14,2025-06-26,有限会社シロキヤ,,有限会社,新潟県,妙高市,大字関山３０２８番地１,,15,217,9492235,,,2025-06-26,清算の結了等,,,2015-10-05,1,,,,,,0
1974,8122001013267,登記記録の閉鎖等,0,2025-07-14,2025-07-01,株式会社ウィルホーム,,株式会社,大阪府,東大阪市,玉串元町１丁目１１番５号,,27,227,5780933,,,2025-07-01,合併による解散等,5122001003907,令和７年７月１日大阪府東大阪市玉串元町一丁目１１番５号株式会社タツイチ（5122001003907）に合併し解散,2015-10-05,1,,,,,ウィルホーム,0
2005,8180003014121,登記記録の閉鎖等,0,2025-07-14,2025-06-23,運転代行トラスト合同会社,,合同会社,愛知県,名古屋市千種区,揚羽町１丁目５８番地の１,,23,101,4640019,,,2025-06-23,清算の結了等,,,2015-10-05,1,,,,,ウンテンダイコウトラスト,0
2011,8210001002842,登記記録の閉鎖等,0,2025-07-14,2025-07-09,林石油株式会社,,株式会社,福井県,福井市,上中町第２７号１１番地の１,,18,201,9100826,,,2025-07-09,清算の結了等,,,2015-10-05,1,,,,,,0
2021,8240005015301,登記記録の閉鎖等,0,2025-07-14,2025-07-02,一般社団法人スポーツプロモーション福山,,その他の設立登記法人,広島県,福山市,明王台３丁目７番２９号,,34,207,7200834,,,2025-07-02,清算の結了等,,,2021-12-03,1,,,,,スポーツプロモーションフクヤマ,0
2035,8290002040116,登記記録の閉鎖等,0,2025-07-14,2025-06-26,有限会社二日市コンタクトレンズ,,有限会社,福岡県,筑紫野市,二日市中央６丁目３番１０号,,40,217,8180072,,,2025-06-26,清算の結了等,,,2015-10-05,1,,,,,フツカイチコンタクトレンズ,0
2043,8330001032258,登記記録の閉鎖等,0,2025-07-14,2025-07-01,株式会社ＢＬＯＯＭ,,株式会社,熊本県,熊本市東区,長嶺南１丁目３番１３３－１号,,43,102,8618039,,,2025-07-01,清算の結了等,,,2024-07-19,1,,,,,ブルーム,0
2047,8350001016787,登記記録の閉鎖等,0,2025-07-14,2025-06-30,株式会社ひなたの宿,,株式会社,宮崎県,日南市,大字星倉２２２８番地１,,45,204,8892533,,,2025-06-30,清算の結了等,,,2020-12-15,1,,,,,ヒナタノヤド,0
2059,8390002013409,登記記録の閉鎖等,0,2025-07-14,2025-06-30,有限会社まるたけ,,有限会社,山形県,米沢市,通町３丁目８番８５号,,06,202,9920025,,,2025-06-30,清算の結了等,,,2015-10-05,1,,,,,,0
2065,8430001084454,登記記録の閉鎖等,0,2025-07-14,2025-06-30,株式会社遊久２６,,株式会社,北海道,札幌市中央区,南四条西３丁目３番地１第２Ｇビル７Ｆ,,01,101,0640804,,,2025-06-30,清算の結了等,,,2021-07-02,1,,,,,ユウクニジュウロク,0
2074,9010001070545,登記記録の閉鎖等,0,2025-07-14,2025-06-17,株式会社エトワール・リモ,,株式会社,東京都,千代田区,三番町九丁目４番,,13,101,1020075,,,2025-06-17,清算の結了等,,,2015-10-05,1,,,,,エトワールリモ,0
2076,9010001197215,登記記録の閉鎖等,0,2025-07-14,2025-06-27,株式会社ｅＮＭ,,株式会社,福岡県,福岡市中央区,舞鶴１丁目９－３朝日プラザ天神１２０４号,,40,133,8100073,,,2025-06-27,清算の結了等,,,2018-12-18,1,,,,,イーネム,0
2095,9010401149567,登記記録の閉鎖等,0,2025-07-14,2025-06-23,株式会社ＴＡＰ,,株式会社,東京都,港区,南青山２丁目１７－３・４Ｆ,,13,103,1070062,,,2025-06-23,清算の結了等,,,2019-12-04,1,,,,,タップ,0
2108,9010501044429,登記記録の閉鎖等,0,2025-07-14,2025-06-17,Ｓｏｍａｒａｚｕ株式会社,,株式会社,東京都,台東区,蔵前４丁目１４番１号ガラステーション蔵前１００１号室,,13,106,1110051,,,2025-06-17,合併による解散等,4010501047221,令和７年６月１日東京都台東区蔵前四丁目１４番１号ガラステーション蔵前１００１号室株式会社ＳｏｃｉａｌＤｉｖａ（4010501047221）に合併し解散,2019-07-31,1,,,,,ソマラズ,0
2116,9010602003135,登記記録の閉鎖等,0,2025-07-14,2025-07-02,有限会社集和ジュニア,,有限会社,東京都,江東区,南砂１丁目１４番１５号,,13,108,1360076,,,2025-07-02,清算の結了等,,,2015-10-05,1,,,,,,0
2117,9010602023694,登記記録の閉鎖等,0,2025-07-14,2025-06-30,有限会社カネサン山崎園,,有限会社,東京都,江東区,大島７丁目１２番２－１０２号,,13,108,1360072,,,2025-06-30,清算の結了等,,,2015-10-05,1,,,,,カネサンヤマザキエン,0
2135,9011101050643,登記記録の閉鎖等,0,2025-07-14,2025-06-23,株式会社Ｅｃｈｅｌｌｅ－１,,株式会社,東京都,新宿区,下宮比町２番１４号飯田橋ＫＳビル,,13,104,1620822,,,2025-06-23,清算の結了等,,,2015-10-05,1,,,,,エシェルアン,0
2138,9011101064940,登記記録の閉鎖等,0,2025-07-14,2025-07-02,株式会社ネクストソリューション,,株式会社,東京都,新宿区,西新宿７丁目１７番１４号,,13,104,1600023,,,2025-07-02,清算の結了等,,,2015-10-05,1,,,,,ネクストソリューション,0
2140,9011101093758,登記記録の閉鎖等,0,2025-07-14,2025-07-02,株式会社ＥＤＵ　ＥＸＩＭ,,株式会社,東京都,新宿区,新宿２丁目１２番１３号新宿アントレサロンビル２階,,13,104,1600022,,,2025-07-02,清算の結了等,,,2021-01-18,1,,,,,エデュエグジム,0
2152,9011401026269,登記記録の閉鎖等,0,2025-07-14,2025-07-07,ジャコール株式会社,,株式会社,東京都,板橋区,南常盤台２丁目２１番１４号スカイコートときわ台２、２０５号,,13,119,1740072,,,2025-07-07,清算の結了等,,,2024-07-19,1,,,,,ジャコール,0
2153,9011501003036,登記記録の閉鎖等,0,2025-07-14,2025-07-04,寺西商事株式会社,,株式会社,東京都,北区,赤羽２丁目３２番１号,,13,117,1150045,,,2025-07-04,清算の結了等,,,2015-10-05,1,,,,,テラニシショウジ,0
2171,9020002030951,登記記録の閉鎖等,0,2025-07-14,2025-07-04,有限会社仲福会江戸屋,,有限会社,神奈川県,横浜市南区,真金町１丁目３番地,,14,105,2320021,,,2025-07-04,清算の結了等,,,2015-10-05,1,,,,,ナカフクカイエドヤ,0
2178,9030001017940,登記記録の閉鎖等,0,2025-07-14,2025-07-03,株式会社旬菜,,株式会社,埼玉県,さいたま市岩槻区,上野５丁目１番地の６,,11,110,3390073,,,2025-07-03,清算の結了等,,,2015-10-05,1,,,,,ジュンサイ,0
2186,9030001129777,登記記録の閉鎖等,0,2025-07-14,2025-06-17,株式会社ファーストアクロス,,株式会社,埼玉県,深谷市,荒川１５９番地１,,11,218,3691245,,,2025-06-17,合併による解散等,6030001066965,令和７年６月１日埼玉県北葛飾郡松伏町築比地７９５番地１株式会社ウィーズ（6030001066965）に合併し解散,2019-03-07,1,,,,,ファーストアクロス,0
2191,9030003022385,登記記録の閉鎖等,0,2025-07-14,2025-07-01,ＮＧＳ合同会社,,合同会社,埼玉県,深谷市,上柴町東４丁目１８番地８,,11,218,3660051,,,2025-07-01,合併による解散等,9030001150551,令和７年６月３０日埼玉県川越市大字安比奈新田８番地１３アライズ株式会社（9030001150551）に合併し解散,2023-08-31,1,,,,,エヌジーエス,0
2214,9070002012904,登記記録の閉鎖等,0,2025-07-14,2025-07-02,有限会社ケイシステム,,有限会社,群馬県,高崎市,木部町３８８番地３,,10,202,3701212,,,2025-07-02,清算の結了等,,,2015-10-05,1,,,,,ケイシステム,0
2249,9120002053629,登記記録の閉鎖等,0,2025-07-14,2025-07-01,有限会社よしい,,有限会社,大阪府,大阪市福島区,吉野２丁目１０番２２号,,27,103,5530006,,,2025-07-01,清算の結了等,,,2015-10-05,1,,,,,ヨシイ,0
2263,9122001036085,登記記録の閉鎖等,0,2025-07-14,2025-07-01,株式会社翔,,株式会社,大阪府,東大阪市,菱屋西５丁目７－１４,,27,227,5770807,,,2025-07-01,清算の結了等,,,2022-07-19,1,,,,,ショウ,0
2268,9130001017055,登記記録の閉鎖等,0,2025-07-14,2025-07-03,協和綜合設備株式会社,,株式会社,京都府,京都市下京区,西七条南月讀町６１番地,,26,106,6000000,,,2025-07-03,清算の結了等,,,2015-10-05,1,,,,,キョウワソウゴウセツビ,0
2295,9200001039835,登記記録の閉鎖等,0,2025-07-14,2025-07-03,株式会社ミライ工房,,株式会社,岐阜県,岐阜市,北野東２６０番地２,,21,201,5012512,,,2025-07-03,清算の結了等,,,2022-03-07,1,,,,,ミライコウボウ,0
2296,9200002003393,登記記録の閉鎖等,0,2025-07-14,2025-07-07,有限会社中原新聞店,,有限会社,岐阜県,岐阜市,加納上本町２丁目９番地,,21,201,5008451,,,2025-07-07,清算の結了等,,,2015-10-05,1,,,,,ナカハラシンブンテン,0
2297,9210002012294,登記記録の閉鎖等,0,2025-07-14,2025-07-04,有限会社大三,,有限会社,福井県,丹生郡越前町,織田第９８号２４番地,,18,423,9160215,,,2025-07-04,清算の結了等,,,2015-10-05,1,,,,,ダイサン,0
2315,9290002005299,登記記録の閉鎖等,0,2025-07-14,2025-06-27,有限会社たたら調剤薬局,,有限会社,福岡県,福岡市東区,土井１丁目２１番１号,,40,131,8130032,,,2025-06-27,清算の結了等,,,2015-10-05,1,,,,,タタラチョウザイヤッキョク,0
2348,9450001009441,登記記録の閉鎖等,0,2025-07-14,2025-07-08,武田産業株式会社,,株式会社,北海道,紋別市,大山町１丁目４番２２号,,01,219,0940021,,,2025-07-08,清算の結了等,,,2015-10-05,1,,,,,タケダサンギョウ,0
2349,9460101000373,登記記録の閉鎖等,0,2025-07-14,2025-07-08,笠原建設株式会社,,株式会社,北海道,中川郡幕別町,緑町１２番地の８０,,01,643,0890614,,,2025-07-08,清算の結了等,,,2015-10-05,1,,,,,カサハラケンセツ,0
