sequenceNumber,corporateNumber,process,correct,updateDate,changeDate,name,nameImageId,kind,prefectureName,cityName,streetNumber,addressImageId,prefectureCode,cityCode,postCode,addressOutside,addressOutsideImageId,closeDate,closeCause,successorCorporateNumber,changeCause,assignmentDate,latest,enName,enPrefectureName,enCityName,enAddressOutside,furigana,hihyoji
2,1010001017875,登記記録の閉鎖等,0,2022-02-04,2022-02-01,サンヨー株式会社,,株式会社,東京都,千代田区,飯田橋３丁目４番５－６０３号,,13,101,1020072,,,2022-02-01,清算の結了等,,,2015-10-05,1,,,,,サンヨー,0
3,1010001018799,登記記録の閉鎖等,0,2022-02-04,2022-02-02,柴田商事株式会社,,株式会社,東京都,千代田区,神田佐久間町１丁目１４番地,,13,101,1010025,,,2022-02-02,清算の結了等,,,2015-10-05,1,,,,,シバタショウジ,0
61,1012402018956,登記記録の閉鎖等,0,2022-02-04,2022-02-01,有限会社静商事,,有限会社,東京都,三鷹市,井の頭５丁目９番２号,,13,204,1810001,,,2022-02-01,清算の結了等,,,2015-10-05,1,,,,,シズカショウジ,0
65,1012801001447,登記記録の閉鎖等,0,2022-02-04,2022-02-02,株式会社綜合企画センター一級建築士事務所,,株式会社,東京都,立川市,高松町３丁目１４番１１号マスターズオフィス立川４階,,13,202,1900011,,,2022-02-02,清算の結了等,,,2015-10-05,1,,,,,ソウゴウキカクセンターイッキュウケンチクシジムショ,0
92,1030001132912,登記記録の閉鎖等,0,2022-02-04,2022-01-12,株式会社シンエイ工業,,株式会社,埼玉県,さいたま市南区,南浦和２丁目４２番１７号,,11,108,3360017,,,2022-01-12,清算の結了等,,,2019-09-17,1,,,,,シンエイコウギョウ,0
98,1030002038365,登記記録の閉鎖等,0,2022-02-04,2022-01-31,有限会社丸紅商店,,有限会社,埼玉県,久喜市,久喜中央１丁目２番６号,,11,232,3460003,,,2022-01-31,清算の結了等,,,2015-10-05,1,,,,,マルベニショウテン,0
124,1080401020877,登記記録の閉鎖等,0,2022-02-04,2022-02-01,株式会社サウス,,株式会社,静岡県,浜松市浜北区,小松４８４番地,,22,136,4340042,,,2022-02-01,合併による解散等,7080402015458,令和４年２月１日静岡県浜松市浜北区小松４８４番地ネクサス株式会社（7080402015458）に合併し解散,2015-10-05,1,,,,,サウス,0
152,1120905003035,登記記録の閉鎖等,0,2022-02-04,2022-02-02,一般社団法人吹田にぎわい観光協会,,その他の設立登記法人,大阪府,吹田市,千里万博公園２番１号１階,,27,205,5650826,,,2022-02-02,清算の結了等,,,2015-10-05,1,,,,,スイタニギワイカンコウキョウカイ,0
156,1130002021682,登記記録の閉鎖等,0,2022-02-04,2022-02-01,有限会社サンコー出版,,有限会社,京都府,京都市東山区,問屋町通五条下る鍵屋町４９７番地３,,26,105,6050909,,,2022-02-01,清算の結了等,,,2015-10-05,1,,,,,サンコーシュッパン,0
167,1140003016458,登記記録の閉鎖等,0,2022-02-04,2022-01-31,合同会社イグニス,,合同会社,兵庫県,西宮市,北昭和町１２番地の９サニーテラスハイネ３０６,,28,204,6620833,,,2022-01-31,清算の結了等,,,2021-06-25,1,,,,,イグニス,0
175,1180001055611,登記記録の閉鎖等,0,2022-02-04,2022-02-01,株式会社日本ガス圧接,,株式会社,愛知県,名古屋市中区,千代田５丁目１２番２０号,,23,106,4600012,,,2022-02-01,清算の結了等,,,2015-10-05,1,,,,,ニホンガスアッセツ,0
236,1330001011375,登記記録の閉鎖等,0,2022-02-04,2022-02-01,株式会社悠和,,株式会社,熊本県,熊本市南区,八分字町１５９５番地４,,43,104,8615253,,,2022-02-01,合併による解散等,1330001012670,令和４年２月１日熊本市南区八分字町１５９５番地４株式会社商和（1330001012670）に合併し解散,2015-10-05,1,,,,,ユウワ,0
238,1340001011366,登記記録の閉鎖等,0,2022-02-04,2022-02-03,株式会社フォルスト,,株式会社,鹿児島県,鹿児島市,小野３丁目１８番１号,,46,201,8900021,,,2022-02-03,清算の結了等,,,2015-10-05,1,,,,,,0
252,1380003002038,登記記録の閉鎖等,0,2022-02-04,2022-01-31,合同会社ころたま,,合同会社,福島県,いわき市,平字三町目３３番地,,07,204,9708026,,,2022-01-31,清算の結了等,,,2015-10-05,1,,,,,,0
283,1500002020432,登記記録の閉鎖等,0,2022-02-04,2022-02-01,有限会社常正,,有限会社,愛媛県,今治市,別名３１７番地１５,,38,202,7940065,,,2022-02-01,清算の結了等,,,2015-10-05,1,,,,,ジョウショウ,0
286,1700150065639,登記記録の閉鎖等,0,2022-02-04,2021-05-31,いしかわうち,,その他,宮崎県,児湯郡木城町,大字石河内５３３－２,,45,404,8840104,,,2021-05-31,その他の清算の結了等,,,2015-10-09,1,,,,,イシカワウチ,0
317,2010401144748,登記記録の閉鎖等,0,2022-02-04,2022-01-18,株式会社ＡＲＣ　Ｅｎｇｉｎｅｅｒ,,株式会社,東京都,港区,南青山２丁目２番１５号ウィン青山１３０２,,13,103,1070062,,,2022-01-18,清算の結了等,,,2019-04-12,1,,,,,アークエンジニア,0
322,2010403020237,登記記録の閉鎖等,0,2022-02-04,2022-01-31,合同会社レジデンス・ファイブ,,合同会社,東京都,港区,赤坂２丁目１０番５号税理士法人赤坂国際会計事務所内,,13,103,1070052,,,2022-01-31,清算の結了等,,,2019-02-21,1,,,,,レジデンスファイブ,0
324,2010501044121,登記記録の閉鎖等,0,2022-02-04,2022-02-03,株式会社エスティーワン,,株式会社,東京都,台東区,台東２丁目２４－１０エスティビル１階,,13,106,1100016,,,2022-02-03,清算の結了等,,,2019-05-15,1,,,,,エスティーワン,0
327,2010602019690,登記記録の閉鎖等,0,2022-02-04,2022-01-27,有限会社吾嬬合成,,有限会社,東京都,墨田区,東墨田２丁目１２番１２号,,13,107,1310042,,,2022-01-27,清算の結了等,,,2015-10-05,1,,,,,アズマゴウセイ,0
344,2011101049320,登記記録の閉鎖等,0,2022-02-04,2022-01-25,田中出版株式会社,,株式会社,東京都,新宿区,高田馬場４丁目１７番１５号東陽ビルディング７０２号,,13,104,1690075,,,2022-01-25,清算の結了等,,,2015-10-05,1,,,,,タナカシュッパン,0
401,2030002008301,登記記録の閉鎖等,0,2022-02-04,2022-01-31,タック有限会社,,有限会社,埼玉県,さいたま市南区,辻３丁目７番１３号,00016046,11,108,3360026,,,2022-01-31,清算の結了等,,,2015-10-05,1,,,,,タック,0
403,2030002047753,登記記録の閉鎖等,0,2022-02-04,2022-02-01,有限会社藤原工務店,,有限会社,埼玉県,八潮市,大字南川崎３７３番地９,,11,234,3400814,,,2022-02-01,清算の結了等,,,2015-10-05,1,,,,,フジワラコウムテン,0
416,2040002038371,登記記録の閉鎖等,0,2022-02-04,2022-02-01,有限会社ビックエイト．コマ,,有限会社,千葉県,鎌ケ谷市,東鎌ケ谷３丁目２３番４５号,,12,224,2730104,,,2022-02-01,清算の結了等,,,2015-10-05,1,,,,,ビックエイトコマ,0
435,2080001019501,登記記録の閉鎖等,0,2022-02-04,2022-02-01,株式会社しらとり,,株式会社,静岡県,島田市,ばらの丘１丁目１１番地の３,,22,209,4270061,,,2022-02-01,清算の結了等,,,2015-10-05,1,,,,,シラトリ,0
441,2080005005555,登記記録の閉鎖等,0,2022-02-04,2022-02-03,特定非営利活動法人パシフィック・ドルフィン,,その他の設立登記法人,静岡県,焼津市,中里３１２番２ハイツ松風２０３号室,,22,212,4250014,,,2022-02-03,清算の結了等,,,2015-10-05,1,,,,,パシフィックドルフィン,0
453,2120001032128,登記記録の閉鎖等,0,2022-02-04,2022-01-31,株式会社池田工業,,株式会社,大阪府,堺市堺区,今池町２丁１０番２６号,,27,141,5900018,,,2022-01-31,清算の結了等,,,2015-10-05,1,,,,,イケダコウギョウ,0
474,2130002016748,登記記録の閉鎖等,0,2022-02-04,2022-02-02,有限会社タカヤマ,,有限会社,京都府,京都市中京区,御池通大宮東入三坊大宮町１５４番地,,26,104,6048316,,,2022-02-02,清算の結了等,,,2015-10-05,1,,,,,タカヤマ,0
478,2140001029188,登記記録の閉鎖等,0,2022-02-04,2022-02-02,株式会社リッチ,,株式会社,兵庫県,神戸市西区,樫野台５丁目４番地の６,,28,111,6512275,,,2022-02-02,清算の結了等,,,2015-10-05,1,,,,,リッチ,0
483,2140002033916,登記記録の閉鎖等,0,2022-02-04,2022-02-02,有限会社明興,,有限会社,兵庫県,相生市,那波大浜町４番１１号,,28,208,6780051,,,2022-02-02,清算の結了等,,,2015-10-05,1,,,,,メイコウ,0
491,2180001022395,登記記録の閉鎖等,0,2022-02-04,2022-01-31,株式会社東名,,株式会社,愛知県,名古屋市熱田区,一番１丁目２０番２３号,,23,109,4560053,,,2022-01-31,清算の結了等,,,2015-10-05,1,,,,,トウメイ,0
492,2180001028987,登記記録の閉鎖等,0,2022-02-04,2022-01-31,名和衣料株式会社,,株式会社,愛知県,名古屋市緑区,池上台１丁目５９番地の１,,23,114,4580044,,,2022-01-31,清算の結了等,,,2015-10-05,1,,,,,メイワイリョウ,0
493,2180001059470,登記記録の閉鎖等,0,2022-02-04,2022-01-28,エコバンク株式会社,,株式会社,愛知県,名古屋市名東区,よもぎ台１丁目１３０５番地,,23,115,4650091,,,2022-01-28,清算の結了等,,,2015-10-05,1,,,,,エコバンク,0
503,2180002002149,登記記録の閉鎖等,0,2022-02-04,2022-02-01,有限会社クリタ,,有限会社,愛知県,名古屋市天白区,中平２丁目１５０２番地,,23,116,4680014,,,2022-02-01,清算の結了等,,,2015-10-05,1,,,,,クリタ,0
505,2180002054272,登記記録の閉鎖等,0,2022-02-04,2022-01-28,有限会社ファーストプレイス,,有限会社,愛知県,名古屋市北区,平安２丁目２４番８６号ダイアパレス平安通１０２,,23,103,4620819,,,2022-01-28,清算の結了等,,,2015-10-05,1,,,,,ファーストプレイス,0
532,2260002031602,登記記録の閉鎖等,0,2022-02-04,2022-02-02,一伸汽船有限会社,,有限会社,岡山県,備前市,日生町寒河２７１４番地,,33,211,7013202,,,2022-02-02,清算の結了等,,,2015-10-05,1,,,,,イッシンキセン,0
533,2280002008722,登記記録の閉鎖等,0,2022-02-04,2022-02-01,有限会社山重興産,,有限会社,島根県,浜田市,長沢町１８５番地１,,32,202,6970023,,,2022-02-01,合併による解散等,9280001004443,令和４年２月１日島根県浜田市長沢町１８５番地１株式会社山重組（9280001004443）に合併し解散,2015-10-05,1,,,,,ヤマシゲコウサン,0
549,2310002001450,登記記録の閉鎖等,0,2022-02-04,2022-02-03,有限会社協西電気,,有限会社,長崎県,長崎市,滑石３丁目５２番９号,,42,201,8528061,,,2022-02-03,清算の結了等,,,2015-10-05,1,,,,,キョウセイデンキ,0
551,2330001011341,登記記録の閉鎖等,0,2022-02-04,2022-02-01,株式会社悠慎,,株式会社,熊本県,熊本市南区,八分字町１５９５番地４,,43,104,8615253,,,2022-02-01,合併による解散等,1330001012670,令和４年２月１日熊本市南区八分字町１５９５番地４株式会社商和（1330001012670）に合併し解散,2015-10-05,1,,,,,ユウシン,0
554,2330002004641,登記記録の閉鎖等,0,2022-02-04,2022-02-01,有限会社サンパワー,,有限会社,熊本県,熊本市中央区,坪井１丁目５番４号,,43,101,8600863,,,2022-02-01,合併による解散等,3330002003031,令和４年２月１日熊本市中央区坪井一丁目５番１号株式会社グッドハーベスト（3330002003031）に合併し解散,2015-10-05,1,,,,,サンパワー,0
572,2370501000773,登記記録の閉鎖等,0,2022-02-04,2022-01-28,株式会社大伸丸漁業,,株式会社,宮城県,気仙沼市,本吉町蔵内２０番地の２,,04,205,9880325,,,2022-01-28,清算の結了等,,,2015-10-05,1,,,,,ダイシンマルギョギョウ,0
596,2470005006316,登記記録の閉鎖等,0,2022-02-04,2022-01-31,ベンチャープラス税理士法人,,その他の設立登記法人,香川県,高松市,藤塚町１丁目１０番３０号,,37,201,7600071,,,2022-01-31,清算の結了等,,,2020-10-28,1,,,,,ベンチャープラス,0
602,2700150027992,登記記録の閉鎖等,0,2022-02-04,2021-10-31,兵庫県石油厚生年金基金,,その他,兵庫県,神戸市中央区,栄町通１丁目２－７,,28,110,6500023,,,2021-10-31,その他の清算の結了等,,,2015-10-09,1,,,,,ヒヨウゴケンセキユコウセイネンキンキキン,0
645,3010701036289,登記記録の閉鎖等,0,2022-02-04,2022-01-31,ＡＢＥＯ　Ｊａｐａｎ株式会社,,株式会社,東京都,港区,虎ノ門５丁目１３番１号虎ノ門４０ＭＴビル,,13,103,1050001,,,2022-01-31,清算の結了等,,,2018-08-17,1,,,,,アベオジャパン,0
659,3011001034066,登記記録の閉鎖等,0,2022-02-04,2022-01-31,バンガード・インベストメンツ・ジャパン株式会社,,株式会社,東京都,港区,虎ノ門５丁目１１番１５号虎ノ門ＫＴビル４階,,13,103,1050001,,,2022-01-31,清算の結了等,,,2015-10-05,1,,,,,バンガードインベストメンツジャパン,0
663,3011001139872,登記記録の閉鎖等,0,2022-02-04,2022-01-21,株式会社セオシア,,株式会社,東京都,渋谷区,神宮前６丁目２３番４号桑野ビル２階,,13,113,1500001,,,2022-01-21,清算の結了等,,,2021-04-21,1,,,,,セオシア,0
673,3011101076850,登記記録の閉鎖等,0,2022-02-04,2022-01-27,株式会社ライフ,,株式会社,東京都,新宿区,西新宿７丁目１５番１４号ＦＯＮＴＡＩＮＥ三須２階Ｄ号室,,13,104,1600023,,,2022-01-27,清算の結了等,,,2016-04-28,1,,,,,ライフ,0
712,3030001098326,登記記録の閉鎖等,0,2022-02-04,2022-01-12,株式会社シンワ工業,,株式会社,埼玉県,さいたま市南区,南浦和２丁目４２番１７号,,11,108,3360017,,,2022-01-12,清算の結了等,,,2015-10-05,1,,,,,シンワコウギョウ,0
713,3030001110239,登記記録の閉鎖等,0,2022-02-04,2022-02-01,株式会社ムサシコンサルティング,,株式会社,埼玉県,入間市,東藤沢４丁目１４番２７号,,11,225,3580012,,,2022-02-01,清算の結了等,,,2015-10-05,1,,,,,ムサシコンサルティング,0
718,3030002046176,登記記録の閉鎖等,0,2022-02-04,2022-01-31,有限会社幸谷建装,,有限会社,埼玉県,草加市,遊馬町７８８番地２,,11,221,3400032,,,2022-01-31,清算の結了等,,,2015-10-05,1,,,,,ユキヤケンソウ,0
721,3030005010237,登記記録の閉鎖等,0,2022-02-04,2022-02-01,医療法人社団健心会,,その他の設立登記法人,埼玉県,越谷市,東柳田町１３番２０号,,11,222,3430814,,,2022-02-01,清算の結了等,,,2015-10-05,1,,,,,ケンシンカイ,0
737,3060001019799,登記記録の閉鎖等,0,2022-02-04,2022-02-01,株式会社ＭＫサービス,,株式会社,栃木県,足利市,大前町１８４番地１,,09,202,3260845,,,2022-02-01,清算の結了等,,,2015-10-05,1,,,,,エムケイサービス,0
740,3060002031349,登記記録の閉鎖等,0,2022-02-04,2022-02-01,株式会社Ｃ＆Ｉ,,株式会社,栃木県,小山市,城山町２丁目９番１６号,,09,208,3230025,,,2022-02-01,合併による解散等,8060001014614,令和４年２月１日栃木県小山市城山町二丁目９番１６号株式会社ｉ－ＳＨＡＰＥ（8060001014614）に合併し解散,2015-10-05,1,,,,,シーアンドアイ,0
754,3120001050525,登記記録の閉鎖等,0,2022-02-04,2022-02-01,姫島運輸株式会社,,株式会社,大阪府,大阪市西淀川区,佃７丁目１番２４号,,27,113,5550001,,,2022-02-01,清算の結了等,,,2015-10-05,1,,,,,ヒメジマウンユ,0
769,3120005014690,登記記録の閉鎖等,0,2022-02-04,2022-02-02,特定非営利活動法人実の花,,その他の設立登記法人,大阪府,門真市,岸和田３丁目２５番１０号,,27,223,5710002,,,2022-02-02,清算の結了等,,,2015-10-05,1,,,,,ミノハナ,0
771,3120101048915,登記記録の閉鎖等,0,2022-02-04,2022-01-31,株式会社ＳＰＲｉ－３００,,株式会社,大阪府,泉佐野市,高松東１丁目１０番３７号泉佐野センタービルサウスコア２１－１１０２号室,,27,213,5980012,,,2022-01-31,清算の結了等,,,2015-10-05,1,,,,,エスピーアールアイサンビャク,0
786,3130005009186,登記記録の閉鎖等,0,2022-02-04,2022-02-01,キララ商店街事業協同組合,,その他の設立登記法人,京都府,京田辺市,河原食田１０－７０,,26,211,6100361,,,2022-02-01,清算の結了等,,,2015-10-05,1,,,,,キララショウテンガイ,0
791,3140001115755,登記記録の閉鎖等,0,2022-02-04,2022-02-01,関西丸善運輸株式会社,,株式会社,兵庫県,西宮市,山口町下山口１３１８番地１,,28,204,6511412,,,2022-02-01,清算の結了等,,,2019-12-06,1,,,,,カンサイマルゼンウンユ,0
807,3170001008394,登記記録の閉鎖等,0,2022-02-04,2022-02-02,株式会社西洋,,株式会社,和歌山県,紀の川市,粉河３１６７番地１４４,,30,208,6496531,,,2022-02-02,清算の結了等,,,2015-10-05,1,,,,,セイヨウ,0
808,3180001061467,登記記録の閉鎖等,0,2022-02-04,2022-01-24,伸栄ドアーサービス株式会社,,株式会社,愛知県,名古屋市守山区,大屋敷１３番３３号,,23,113,4630016,,,2022-01-24,清算の結了等,,,2015-10-05,1,,,,,シンエイドアーサービス,0
809,3180003005439,登記記録の閉鎖等,0,2022-02-04,2022-02-01,合資会社赤門堂,,合資会社,愛知県,名古屋市中区,大須３丁目１９番２号,,23,106,4600011,,,2022-02-01,清算の結了等,,,2015-10-05,1,,,,,アカモンドウ,0
834,3260001008245,登記記録の閉鎖等,0,2022-02-04,2022-02-02,株式会社夕日,,株式会社,東京都,中央区,八重洲２丁目８番７号,,13,102,1040028,,,2022-02-02,清算の結了等,,,2015-10-05,1,,,,,ユウヒ,0
872,3390001013892,登記記録の閉鎖等,0,2022-02-04,2022-01-31,シュエット株式会社,,株式会社,山形県,最上郡舟形町,堀内３４５番地,,06,363,9994604,,,2022-01-31,清算の結了等,,,2015-10-05,1,,,,,シュエット,0
883,3430001037672,登記記録の閉鎖等,0,2022-02-04,2022-02-02,株式会社ティーケーレスポンス,,株式会社,北海道,札幌市白石区,川北一条３丁目５番１１号,,01,104,0030851,,,2022-02-02,清算の結了等,,,2015-10-05,1,,,,,ティーケーレスポンス,0
914,4010001157883,登記記録の閉鎖等,0,2022-02-04,2022-02-01,株式会社ツバキスタイル,,株式会社,東京都,中央区,日本橋１丁目１６番３号,,13,102,1030027,,,2022-02-01,合併による解散等,8010001215943,令和４年２月１日東京都中央区日本橋一丁目１６番３号株式会社ツバキスタイル（8010001215943）に合併し解散,2015-10-05,1,,,,,ツバキスタイル,0
926,4010401092912,登記記録の閉鎖等,0,2022-02-04,2022-02-02,株式会社ジャパン・メディカル・バンク,,株式会社,静岡県,三島市,広小路町１１番２４号,,22,206,4110856,,,2022-02-02,合併による解散等,6080102009645,令和４年２月２日静岡県三島市広小路町１１番２４号株式会社エスエス商事（6080102009645）に合併し解散,2015-10-05,1,,,,,ジャパンメディカルバンク,0
966,4011101065596,登記記録の閉鎖等,0,2022-02-04,2022-01-31,株式会社メディアフューチャー,,株式会社,東京都,新宿区,市谷砂土原町２丁目７番地,,13,104,1620842,,,2022-01-31,清算の結了等,,,2015-10-05,1,,,,,メディアフューチャー,0
991,4013301025818,登記記録の閉鎖等,0,2022-02-04,2022-01-21,株式会社ベリーズノースウエストジャパン,,株式会社,東京都,渋谷区,東３丁目６番１８－２０４,,13,113,1500011,,,2022-01-21,清算の結了等,,,2015-10-05,1,,,,,ベリーズノースウエストジャパン,0
999,4020002002113,登記記録の閉鎖等,0,2022-02-04,2022-02-01,有限会社山崎電気商会,00010129,有限会社,神奈川県,横浜市瀬谷区,二ツ橋町３９５番地の６,,14,114,2460021,,,2022-02-01,清算の結了等,,,2015-10-05,1,,,,,ヤマザキデンキショウカイ,0
1007,4021002045077,登記記録の閉鎖等,0,2022-02-04,2022-02-02,有限会社サム工業,,有限会社,神奈川県,海老名市,国分寺台１丁目９番３号,,14,215,2430413,,,2022-02-02,清算の結了等,,,2015-10-05,1,,,,,,0
1027,4040001099396,登記記録の閉鎖等,0,2022-02-04,2022-01-25,株式会社レッドクエーサー,,株式会社,千葉県,松戸市,新松戸４丁目２０６チェリー・ヴィレッジ２０１号,,12,207,2700034,,,2022-01-25,清算の結了等,,,2017-03-21,1,,,,,レッドクエーサー,0
1056,4080402021574,登記記録の閉鎖等,0,2022-02-04,2022-02-02,有限会社松栄トータルメンテナンス,,有限会社,静岡県,袋井市,大谷９８番地,,22,216,4370006,,,2022-02-02,清算の結了等,,,2015-10-05,1,,,,,ショウエイトータルメンテナンス,0
1061,4110003001476,登記記録の閉鎖等,0,2022-02-04,2022-02-01,合資会社徳市,,合資会社,新潟県,上越市,名立区名立大町１５６６番地１,,15,222,9491602,,,2022-02-01,清算の結了等,,,2015-10-05,1,,,,,トクイチ,0
1093,4140001038138,登記記録の閉鎖等,0,2022-02-04,2022-02-01,株式会社ＩＳＴＣ,,株式会社,兵庫県,姫路市,飾磨区中島３００１番地,,28,201,6728035,,,2022-02-01,清算の結了等,,,2015-10-05,1,,,,,アイエスティーシー,0
1101,4140003004947,登記記録の閉鎖等,0,2022-02-04,2022-02-01,合資会社Ｋｉｎｇｄｏｍ　Ｉｎｃ．,,合資会社,兵庫県,神戸市中央区,加納町２丁目１３番１６－２０６号,,28,110,6500001,,,2022-02-01,清算の結了等,,,2015-10-05,1,,,,,,0
1122,4180002048297,登記記録の閉鎖等,0,2022-02-04,2022-01-31,有限会社スリーハンズ,,有限会社,愛知県,名古屋市千種区,今池３丁目８番１７号,,23,101,4640850,,,2022-01-31,清算の結了等,,,2015-10-05,1,,,,,スリーハンズ,0
1167,4340001011652,登記記録の閉鎖等,0,2022-02-04,2022-02-01,株式会社アンダーレ,,株式会社,鹿児島県,鹿児島市,東千石町１３番１４号,,46,201,8920842,,,2022-02-01,合併による解散等,1340001010434,令和４年２月１日鹿児島市金生町１番地６株式会社ウィル（1340001010434）に合併し解散,2015-10-05,1,,,,,アンダーレ,0
1170,4340002024570,登記記録の閉鎖等,0,2022-02-04,2022-02-01,有限会社川崎グリーンナーセリー,00099843,有限会社,鹿児島県,南九州市,頴娃町上別府７１８番地１,,46,223,8910705,,,2022-02-01,合併による解散等,3340001001241,令和４年２月１日鹿児島市本名町７９５番地株式会社川崎緑化センター（3340001001241）に合併し解散,2015-10-05,1,,,,,カワサキグリーンナーセリー,0
1176,4360001025519,登記記録の閉鎖等,0,2022-02-04,2022-02-01,株式会社翔南エンプレッサ,,株式会社,沖縄県,沖縄市,海邦１丁目１３番２２号Ａ－２３,,47,211,9042162,,,2022-02-01,清算の結了等,,,2019-04-18,1,,,,,ショウナンエンプレッサ,0
1182,4370005002471,登記記録の閉鎖等,0,2022-02-04,2022-01-31,特定非営利活動法人婦人科腫瘍関連支援機構,,その他の設立登記法人,宮城県,仙台市青葉区,星陵町１番１号,,04,101,9800872,,,2022-01-31,清算の結了等,,,2015-10-05,1,,,,,フジンカシュヨウカンレンシエンキコウ,0
1186,4400002002165,登記記録の閉鎖等,0,2022-02-04,2022-02-03,有限会社手づくり村菓子工房,,有限会社,岩手県,盛岡市,繋字尾入野６４番地１２,00091732,03,201,0200055,,,2022-02-03,清算の結了等,,,2015-10-05,1,,,,,テヅクリムラカシコウボウ,0
1187,4410002009291,登記記録の閉鎖等,0,2022-02-04,2022-01-31,丸喜商事有限会社,,有限会社,秋田県,北秋田市,米内沢字寺ノ下３４番地の１,,05,213,0184301,,,2022-01-31,清算の結了等,,,2015-10-05,1,,,,,マルキショウジ,0
1203,4700150027363,登記記録の閉鎖等,0,2022-02-04,2021-09-30,大住土地改良区,,その他,京都府,京田辺市,田辺８０,,26,211,6100331,,,2021-09-30,その他の清算の結了等,,,2015-10-09,1,,,,,オオスミトチカイリヨウク,0
1210,5010001088888,登記記録の閉鎖等,0,2022-02-04,2022-02-01,株式会社テラサービス,,株式会社,東京都,文京区,湯島３丁目１０番７号,,13,105,1130034,,,2022-02-01,合併による解散等,4010001088889,令和４年２月１日東京都文京区湯島三丁目１０番７号株式会社テラバイト（4010001088889）に合併し解散,2015-10-05,1,,,,,テラサービス,0
1227,5010701015167,登記記録の閉鎖等,0,2022-02-04,2022-01-31,株式会社鷹の羽エンターテインメント,,株式会社,東京都,品川区,東大井１丁目４番２９号ライオンズマンション東大井４０１,,13,109,1400011,,,2022-01-31,清算の結了等,,,2015-10-05,1,,,,,タカノハエンターテインメント,0
1247,5011501015282,登記記録の閉鎖等,0,2022-02-04,2022-01-31,株式会社ｉｎ　ｓｔｙｌｅ,,株式会社,東京都,荒川区,南千住３丁目４０番１０号,,13,118,1160003,,,2022-01-31,清算の結了等,,,2015-10-05,1,,,,,,0
1255,5011801010231,登記記録の閉鎖等,0,2022-02-04,2022-02-02,株式会社東陽堂,,株式会社,東京都,足立区,西伊興２丁目３番３０号,,13,121,1210824,,,2022-02-02,清算の結了等,,,2015-10-05,1,,,,,,0
1306,5030002072047,登記記録の閉鎖等,0,2022-02-04,2022-02-01,有限会社粟飯原製作所,,有限会社,埼玉県,川越市,大字小中居１２９２番地３,,11,201,3500022,,,2022-02-01,清算の結了等,,,2015-10-05,1,,,,,アイハラセイサクショ,0
1314,5040002018726,登記記録の閉鎖等,0,2022-02-04,2022-01-31,有限会社外山電商,,有限会社,千葉県,習志野市,花咲１丁目７番６号,,12,216,2750013,,,2022-01-31,清算の結了等,,,2015-10-05,1,,,,,トヤマデンショウ,0
1386,5180001028539,登記記録の閉鎖等,0,2022-02-04,2022-01-31,株式会社東進学園,,株式会社,愛知県,名古屋市緑区,池上台１丁目５９番地の１,,23,114,4580044,,,2022-01-31,清算の結了等,,,2015-10-05,1,,,,,トウシンガクエン,0
1428,5260001021205,登記記録の閉鎖等,0,2022-02-04,2022-02-01,株式会社ラッキープラネット,,株式会社,岡山県,津山市,上之町２９６番地の１,,33,203,7080831,,,2022-02-01,清算の結了等,,,2015-10-05,1,,,,,ラッキープラネット,0
1488,6010001019173,登記記録の閉鎖等,0,2022-02-04,2022-01-28,ジャパン・エスコンディーダ・ファイナンス株式会社,,株式会社,東京都,千代田区,丸の内２丁目３番１号,,13,101,1000005,,,2022-01-28,清算の結了等,,,2015-10-05,1,,,,,ジャパンエスコンディーダファイナンス,0
1491,6010001133296,登記記録の閉鎖等,0,2022-02-04,2022-01-31,ＡＰＬＯ株式会社,,株式会社,東京都,千代田区,丸の内３丁目１番１号国際ビル２階,,13,101,1000005,,,2022-01-31,清算の結了等,,,2015-10-05,1,,,,,エーピーエルオー,0
1494,6010005027098,登記記録の閉鎖等,0,2022-02-04,2022-01-31,一般社団法人シノン・インベストメント,,その他の設立登記法人,東京都,千代田区,紀尾井町４番３,,13,101,1020094,,,2022-01-31,清算の結了等,,,2017-07-13,1,,,,,シノンインベストメント,0
1498,6010401009988,登記記録の閉鎖等,0,2022-02-04,2022-02-01,港隆運輸株式会社,,株式会社,東京都,港区,海岸３丁目２２番３４号,,13,103,1080022,,,2022-02-01,清算の結了等,,,2015-10-05,1,,,,,コウリュウウンユ,0
1522,6010901035674,登記記録の閉鎖等,0,2022-02-04,2022-02-02,株式会社ＡＴＦ,,株式会社,東京都,世田谷区,経堂１丁目１３番５号,,13,112,1560052,,,2022-02-02,清算の結了等,,,2015-10-05,1,,,,,エーティーエフ,0
1550,6011801018851,登記記録の閉鎖等,0,2022-02-04,2022-02-03,株式会社デック建築設計,,株式会社,東京都,足立区,栗原１丁目２５番８号,,13,121,1230842,,,2022-02-03,清算の結了等,,,2015-10-05,1,,,,,デックケンチクセッケイ,0
1600,6030002095633,登記記録の閉鎖等,0,2022-02-04,2022-01-31,有限会社エーシープロジェクト,,有限会社,埼玉県,東松山市,材木町１５番５号,,11,212,3550016,,,2022-01-31,清算の結了等,,,2015-10-05,1,,,,,エーシープロジェクト,0
1619,6050002003651,登記記録の閉鎖等,0,2022-02-04,2022-01-31,有限会社石塚工務店,00022589,有限会社,茨城県,東茨城郡茨城町,大字南島田４６０番地,,08,302,3113133,,,2022-01-31,清算の結了等,,,2015-10-05,1,,,,,イシツカコウムテン,0
1623,6070002015661,登記記録の閉鎖等,0,2022-02-04,2022-02-01,有限会社森戸工業所,,有限会社,群馬県,高崎市,新町１８７１番地,,10,202,3701301,,,2022-02-01,清算の結了等,,,2015-10-05,1,,,,,モリトコウギョウショ,0
1640,6120001103882,登記記録の閉鎖等,0,2022-02-04,2022-02-01,株式会社ＳＬＥＣ,,株式会社,大阪府,大阪市北区,梅田１丁目３番１号,,27,127,5300001,,,2022-02-01,清算の結了等,,,2015-10-05,1,,,,,スレック,0
1661,6130001047212,登記記録の閉鎖等,0,2022-02-04,2022-02-01,株式会社けやき商事,,株式会社,京都府,福知山市,土師新町３丁目１０２番地の１,,26,201,6200855,,,2022-02-01,清算の結了等,,,2015-10-05,1,,,,,ケヤキショウジ,0
1729,6320005009461,登記記録の閉鎖等,0,2022-02-04,2022-02-02,ＮＰＯ法人大分障害者雇用サポートセンター,,その他の設立登記法人,大分県,別府市,大字内竈１３９３番地,,44,202,8740011,,,2022-02-02,清算の結了等,,,2017-03-10,1,,,,,オオイタショウガイシャコヨウサポートセンター,0
1741,6360003005954,登記記録の閉鎖等,0,2022-02-04,2022-01-31,合同会社琉華,,合同会社,沖縄県,浦添市,内間２丁目６番６－１０６号渚マンション,,47,208,9012121,,,2022-01-31,清算の結了等,,,2015-10-05,1,,,,,ルカ,0
1747,6380001011440,登記記録の閉鎖等,0,2022-02-04,2022-02-01,株式会社リビングワーク,,株式会社,福島県,須賀川市,前田川扇町１番地,,07,207,9620000,,,2022-02-01,清算の結了等,,,2015-10-05,1,,,,,,0
1760,6430002020971,登記記録の閉鎖等,0,2022-02-04,2022-02-01,有限会社ユウ設備企画,,有限会社,北海道,札幌市北区,西茨戸六条１丁目２番１７号,,01,102,0028036,,,2022-02-01,清算の結了等,,,2015-10-05,1,,,,,ユウセツビキカク,0
1790,7010401075237,登記記録の閉鎖等,0,2022-02-04,2022-01-31,乃木坂インベストメント株式会社,,株式会社,東京都,千代田区,神田神保町２丁目５番地,,13,101,1010051,,,2022-01-31,清算の結了等,,,2015-10-05,1,,,,,ノギザカインベストメント,0
1814,7010901038461,登記記録の閉鎖等,0,2022-02-04,2022-01-31,東京ビューティースターズ株式会社,,株式会社,東京都,中野区,若宮２丁目２９番１４号,,13,114,1650033,,,2022-01-31,清算の結了等,,,2016-07-12,1,,,,,トウキョウビューティースターズ,0
1815,7010901042447,登記記録の閉鎖等,0,2022-02-04,2022-01-27,株式会社ノート,,株式会社,東京都,新宿区,西新宿７丁目７番７号ハイライフ西新宿４１４号,,13,104,1600023,,,2022-01-27,清算の結了等,,,2018-07-17,1,,,,,ノート,0
1818,7011001008322,登記記録の閉鎖等,0,2022-02-04,2022-01-24,株式会社小松製作所,,株式会社,東京都,渋谷区,広尾５丁目１９番１８号,,13,113,1500012,,,2022-01-24,清算の結了等,,,2015-10-05,1,,,,,コマツセイサクショ,0
1821,7011002018799,登記記録の閉鎖等,0,2022-02-04,2022-01-31,有限会社ユーワイ設計事務所,,有限会社,東京都,品川区,西大井４丁目１１番３１号,,13,109,1400015,,,2022-01-31,清算の結了等,,,2015-10-05,1,,,,,ユーワイセッケイジムショ,0
1822,7011002036462,登記記録の閉鎖等,0,2022-02-04,2022-01-21,ユニコーンディ有限会社,,有限会社,東京都,渋谷区,神宮前２丁目２８番９号エルオフィス神宮前２０１,,13,113,1500001,,,2022-01-21,清算の結了等,,,2015-10-05,1,,,,,ユニコーンディ,0
1827,7011101095302,登記記録の閉鎖等,0,2022-02-04,2022-01-31,株式会社児童未来研究所,,株式会社,東京都,新宿区,高田馬場１丁目２７番３－７０４,,13,104,1690075,,,2022-01-31,清算の結了等,,,2021-06-08,1,,,,,ジドウミライケンキュウショ,0
1831,7011203002189,登記記録の閉鎖等,0,2022-02-04,2022-01-28,合同会社生活環境総研,,合同会社,東京都,中野区,上鷺宮４丁目１７－５ホワイトキャッスル上鷺宮３０７号,,13,114,1650031,,,2022-01-28,清算の結了等,,,2015-10-05,1,,,,,セイカツカンキョウソウケン,0
1843,7013301040145,登記記録の閉鎖等,0,2022-02-04,2022-01-31,株式会社前向き,,株式会社,埼玉県,戸田市,下前１丁目１１番２０－４４３号,,11,224,3350016,,,2022-01-31,清算の結了等,,,2017-02-28,1,,,,,マエムキ,0
1848,7020001119979,登記記録の閉鎖等,0,2022-02-04,2022-02-02,株式会社ヤマイチ,,株式会社,神奈川県,横浜市西区,浜松町８番２２－３０２号,,14,103,2200055,,,2022-02-02,清算の結了等,,,2017-02-15,1,,,,,ヤマイチ,0
1861,7021001024269,登記記録の閉鎖等,0,2022-02-04,2022-02-01,株式会社ヨシダ・テック,,株式会社,神奈川県,厚木市,長谷１３０３番地６,,14,212,2430036,,,2022-02-01,清算の結了等,,,2015-10-05,1,,,,,ヨシダテック,0
1870,7021002066541,登記記録の閉鎖等,0,2022-02-04,2022-02-01,有限会社藤建ホーム,,有限会社,神奈川県,横須賀市,桜が丘１丁目１０番１０号,,14,201,2390803,,,2022-02-01,清算の結了等,,,2015-10-05,1,,,,,フジケンホーム,0
1901,7040002064529,登記記録の閉鎖等,0,2022-02-04,2022-01-31,有限会社八番街,,有限会社,千葉県,八街市,八街は４番地９２,,12,230,2891107,,,2022-01-31,清算の結了等,,,2015-10-05,1,,,,,ハチバンガイ,0
1906,7050002027138,登記記録の閉鎖等,0,2022-02-04,2022-02-01,有限会社港南保険事務所,,有限会社,茨城県,神栖市,知手中央４丁目８番２２号,,08,232,3140112,,,2022-02-01,清算の結了等,,,2015-10-05,1,,,,,コウナンホケンジムショ,0
1908,7060001026271,登記記録の閉鎖等,0,2022-02-04,2022-02-01,株式会社ＡＯＩ,,株式会社,栃木県,宇都宮市,上欠町１２８７番地２２４,,09,201,3200855,,,2022-02-01,清算の結了等,,,2015-10-05,1,,,,,アオイ,0
1925,7120001039135,登記記録の閉鎖等,0,2022-02-04,2022-02-01,株式会社トップエステート,,株式会社,大阪府,大阪市浪速区,大国２丁目１番２１号,,27,111,5560014,,,2022-02-01,合併による解散等,7120001102594,令和４年２月１日大阪市浪速区敷津西二丁目１番２８号株式会社エステートドットコム（7120001102594）に合併し解散,2015-10-05,1,,,,,トップエステート,0
1933,7120001157416,登記記録の閉鎖等,0,2022-02-04,2022-02-01,株式会社光和,,株式会社,大阪府,門真市,末広町４３番１号,,27,223,5710030,,,2022-02-01,合併による解散等,7120001157333,令和４年２月１日大阪府門真市末広町４３番１号北近畿住建株式会社（7120001157333）に合併し解散,2015-10-05,1,,,,,コウワ,0
1948,7130001030530,登記記録の閉鎖等,0,2022-02-04,2022-02-01,株式会社米澤電機,,株式会社,京都府,乙訓郡大山崎町,字下植野小字宮本９番地の６,,26,303,6180081,,,2022-02-01,清算の結了等,,,2015-10-05,1,,,,,ヨネザワデンキ,0
1974,7180001087384,登記記録の閉鎖等,0,2022-02-04,2022-01-28,共和産業株式会社,,株式会社,愛知県,江南市,上奈良町瑞穂１２３番地,,23,217,4838258,,,2022-01-28,清算の結了等,,,2015-10-05,1,,,,,キョウワサンギョウ,0
1981,7180002077260,登記記録の閉鎖等,0,2022-02-04,2022-01-31,有限会社白鶴化成,00073416,有限会社,愛知県,一宮市,丹陽町重吉１１４０番地５,,23,203,4910821,,,2022-01-31,清算の結了等,,,2015-10-05,1,,,,,ハクツルカセイ,0
2015,7280001000452,登記記録の閉鎖等,0,2022-02-04,2022-02-03,株式会社竹下,,株式会社,島根県,松江市,学園南２丁目２番３,,32,201,6900826,,,2022-02-03,清算の結了等,,,2015-10-05,1,,,,,タケシタ,0
2020,7290001068794,登記記録の閉鎖等,0,2022-02-04,2022-01-31,株式会社相続の窓口,,株式会社,福岡県,福岡市博多区,博多駅前１丁目１番１号,,40,132,8120011,,,2022-01-31,合併による解散等,8290001083561,令和４年１月３１日福岡市博多区博多駅前一丁目１番１号博多新三井ビルディング８階株式会社みつ葉グループ（8290001083561）に合併し解散,2015-10-05,1,,,,,ソウゾクノマドグチ,0
2033,7290802006688,登記記録の閉鎖等,0,2022-02-04,2022-02-01,有限会社山下作業所,,有限会社,福岡県,北九州市小倉北区,神幸町７番６号,,40,106,8020038,,,2022-02-01,清算の結了等,,,2015-10-05,1,,,,,ヤマシタサギョウショ,0
2035,7310002009910,登記記録の閉鎖等,0,2022-02-04,2022-02-02,有限会社古賀クリーニング店,,有限会社,長崎県,佐世保市,早岐２丁目１６番１５号,,42,202,8593215,,,2022-02-02,清算の結了等,,,2015-10-05,1,,,,,コガクリーニングテン,0
2050,7350002013685,登記記録の閉鎖等,0,2022-02-04,2022-02-01,有限会社アイ建,,有限会社,宮崎県,都城市,上東町８街区１５号,,45,202,8850053,,,2022-02-01,清算の結了等,,,2015-10-05,1,,,,,アイケン,0
2079,7460001000855,登記記録の閉鎖等,0,2022-02-04,2022-01-31,清和産業株式会社,,株式会社,北海道,釧路市,双葉町１２番１８号,,01,206,0850006,,,2022-01-31,合併による解散等,8460001000854,令和４年１月３１日北海道釧路市双葉町１２番１８号清北産業株式会社（8460001000854）に合併し解散,2015-10-05,1,,,,,セイワサンギョウ,0
2102,8010001141297,登記記録の閉鎖等,0,2022-02-04,2022-01-28,株式会社キャラアニ,,株式会社,東京都,千代田区,富士見１丁目６番１号,,13,101,1020071,,,2022-01-28,合併による解散等,2010001163289,令和４年１月１日東京都千代田区富士見二丁目１３番３号株式会社ＫＡＤＯＫＡＷＡ（2010001163289）に合併し解散,2015-10-05,1,,,,,キャラアニ,0
2113,8010003027932,登記記録の閉鎖等,0,2022-02-04,2022-02-01,ＣＲＥＡＴＩＶＥ　ＣＯＬＬＥＣＴＩＶＥ合同会社,,合同会社,東京都,中央区,勝どき５丁目５番１４－１００２号,,13,102,1040054,,,2022-02-01,清算の結了等,,,2018-07-23,1,,,,,クリエイティブコレクティブ,0
2116,8010401076242,登記記録の閉鎖等,0,2022-02-04,2022-02-01,タカマ株式会社,,株式会社,東京都,港区,南麻布２丁目９番３号,,13,103,1060047,,,2022-02-01,合併による解散等,3010401081577,令和４年２月１日東京都港区南麻布二丁目９番３号株式会社スクール（3010401081577）に合併し解散,2015-10-05,1,,,,,タカマ,0
2118,8010401077059,登記記録の閉鎖等,0,2022-02-04,2022-01-31,Ｔｒｕｅ　Ｒｅｌｉｇｉｏｎ　Ｊａｐａｎ株式会社,,株式会社,東京都,港区,南麻布３丁目１９番２３号オーク南麻布ビル２階,,13,103,1060047,,,2022-01-31,清算の結了等,,,2015-10-05,1,,,,,トゥルーリリジョンジャパン,0
2125,8010401149345,登記記録の閉鎖等,0,2022-02-04,2022-01-31,株式会社明健,,株式会社,東京都,港区,新橋１丁目１８番１２号新橋一丁目ビル８Ｆ,,13,103,1050004,,,2022-01-31,合併による解散等,3010401134054,令和４年１月３０日東京都港区新橋一丁目１８番１２号水晶光電ジャパン株式会社（3010401134054）に合併し解散,2019-11-21,1,,,,,メイケン,0
2142,8011001045158,登記記録の閉鎖等,0,2022-02-04,2022-01-28,株式会社藍華,,株式会社,東京都,中央区,勝どき１丁目６番６－２０２号,,13,102,1040054,,,2022-01-28,清算の結了等,,,2015-10-05,1,,,,,ランホア,0
2146,8011002008279,登記記録の閉鎖等,0,2022-02-04,2022-01-21,有限会社ティー・エス・ビル,,有限会社,東京都,渋谷区,代々木１丁目２４番１０号,,13,113,1510053,,,2022-01-21,清算の結了等,,,2015-10-05,1,,,,,ティーエスビル,0
2149,8011101092034,登記記録の閉鎖等,0,2022-02-04,2022-01-28,株式会社リッチトラスト,,株式会社,東京都,新宿区,西新宿７丁目１９－９山川ビル１Ｆ,,13,104,1600023,,,2022-01-28,清算の結了等,,,2020-07-30,1,,,,,リッチトラスト,0
2154,8011201003808,登記記録の閉鎖等,0,2022-02-04,2022-01-31,株式会社陶美堂,,株式会社,東京都,中野区,東中野１丁目３５番１８号,,13,114,1640003,,,2022-01-31,清算の結了等,,,2015-10-05,1,,,,,トウビドウ,0
2160,8011802016539,登記記録の閉鎖等,0,2022-02-04,2022-02-02,有限会社トモテストテクニカル,,有限会社,東京都,足立区,江北７丁目２５番１６号,,13,121,1230872,,,2022-02-02,清算の結了等,,,2015-10-05,1,,,,,トモテストテクニカル,0
2170,8013301012903,登記記録の閉鎖等,0,2022-02-04,2022-01-31,八尾坂建設株式会社,,株式会社,東京都,豊島区,巣鴨４丁目１番１０号,,13,116,1700002,,,2022-01-31,清算の結了等,,,2015-10-05,1,,,,,ヤオサカケンセツ,0
2186,8020002010640,登記記録の閉鎖等,0,2022-02-04,2022-02-01,有限会社ホープ,,有限会社,神奈川県,横浜市磯子区,中浜町１４番３１号,,14,107,2350014,,,2022-02-01,清算の結了等,,,2015-10-05,1,,,,,ホープ,0
2201,8030001105977,登記記録の閉鎖等,0,2022-02-04,2022-02-01,株式会社Ｐｒｏｓｐｅｒ,,株式会社,埼玉県,本庄市,小島５丁目４番１１号,,11,211,3670061,,,2022-02-01,清算の結了等,,,2015-10-05,1,,,,,プロスパー,0
2212,8040001050371,登記記録の閉鎖等,0,2022-02-04,2022-01-31,株式会社いわさき,,株式会社,千葉県,木更津市,清見台１丁目１３番２号,,12,206,2920045,,,2022-01-31,清算の結了等,,,2015-10-05,1,,,,,イワサキ,0
2236,8080401024401,登記記録の閉鎖等,0,2022-02-04,2022-02-01,浜松中央新聞株式会社,,株式会社,静岡県,浜松市浜北区,小松４８４番地,,22,136,4340042,,,2022-02-01,合併による解散等,7080402015458,令和４年２月１日静岡県浜松市浜北区小松４８４番地ネクサス株式会社（7080402015458）に合併し解散,2020-07-06,1,,,,,ハママツチュウオウシンブン,0
2239,8090001002211,登記記録の閉鎖等,0,2022-02-04,2022-01-31,株式会社山梨県寢裝友の会,,株式会社,山梨県,甲府市,上石田３丁目２０番６号,,19,201,4000041,,,2022-01-31,清算の結了等,,,2015-10-05,1,,,,,ヤマナシケンシンソウトモノカイ,0
2242,8090002010675,登記記録の閉鎖等,0,2022-02-04,2022-02-01,石原電機有限会社,,有限会社,山梨県,山梨市,下神内川３８３番地,,19,205,4050017,,,2022-02-01,清算の結了等,,,2015-10-05,1,,,,,イシハラデンキ,0
2274,8120901020523,登記記録の閉鎖等,0,2022-02-04,2022-02-01,三陽建設株式会社,,株式会社,大阪府,箕面市,稲５丁目１０番２号,,27,220,5620015,,,2022-02-01,清算の結了等,,,2015-10-05,1,,,,,サンヨウケンセツ,0
2275,8120901025935,登記記録の閉鎖等,0,2022-02-04,2022-02-02,森田機械株式会社,,株式会社,大阪府,豊中市,南桜塚２丁目７番２０号,,27,203,5610882,,,2022-02-02,清算の結了等,,,2015-10-05,1,,,,,モリタキカイ,0
2291,8130005007755,登記記録の閉鎖等,0,2022-02-04,2022-02-01,中山生産森林組合,,その他の設立登記法人,京都府,船井郡京丹波町,中山中２９番地,,26,407,6291115,,,2022-02-01,清算の結了等,,,2015-10-05,1,,,,,ナカヤマ,0
2312,8180001112835,登記記録の閉鎖等,0,2022-02-04,2022-01-28,株式会社ＲＥＶＡＮＣＥ,,株式会社,愛知県,春日井市,勝川町５丁目２６番地,,23,206,4860945,,,2022-01-28,清算の結了等,,,2015-10-05,1,,,,,レヴァンス,0
2316,8180001135844,登記記録の閉鎖等,0,2022-02-04,2022-01-31,株式会社勇勢ライン,,株式会社,愛知県,弥富市,五明町築留１７７４番地５バンクビル２階北,,23,235,4980014,,,2022-01-31,清算の結了等,,,2019-03-25,1,,,,,ユウセイライン,0
2321,8180005009697,登記記録の閉鎖等,0,2022-02-04,2022-02-01,起商店街振興組合,,その他の設立登記法人,愛知県,一宮市,起字東茜屋６９番地１,,23,203,4940006,,,2022-02-01,清算の結了等,,,2015-10-05,1,,,,,オコシ,0
2328,8180302024597,登記記録の閉鎖等,0,2022-02-04,2022-02-03,有限会社山口製材,,有限会社,愛知県,豊田市,武節町古町屋１１２番地,,23,211,4412522,,,2022-02-03,清算の結了等,,,2015-10-05,1,,,,,ヤマグチセイザイ,0
2332,8200001007603,登記記録の閉鎖等,0,2022-02-04,2022-02-02,山武造園株式会社,,株式会社,岐阜県,各務原市,鵜沼各務原町６丁目１５３番地,,21,213,5090141,,,2022-02-02,清算の結了等,,,2015-10-05,1,,,,,ヤマタケゾウエン,0
2413,8700150030099,登記記録の閉鎖等,0,2022-02-04,2021-05-31,大和郡山市スカウト協議会,,その他,奈良県,大和郡山市,矢田町５７４,,29,203,6391058,,,2021-05-31,その他の清算の結了等,,,2015-10-09,1,,,,,ヤマトコオリヤマシスカウトキヨウギカイ,0
2424,9010003029432,登記記録の閉鎖等,0,2022-02-04,2022-02-01,合同会社ＳＵＤＥＳＴ,,合同会社,東京都,文京区,白山２丁目３０番７－４０１号,,13,105,1120001,,,2022-02-01,清算の結了等,,,2019-03-11,1,,,,,スイードエスト,0
2428,9010005022583,登記記録の閉鎖等,0,2022-02-04,2022-02-01,一般社団法人ストラタ・インベストメント,,その他の設立登記法人,東京都,千代田区,紀尾井町４番３,,13,101,1020094,,,2022-02-01,清算の結了等,,,2015-10-05,1,,,,,ストラタインベストメント,0
2429,9010005023788,登記記録の閉鎖等,0,2022-02-04,2022-02-01,一般社団法人ＪＰＴＳ,,その他の設立登記法人,東京都,千代田区,紀尾井町４番３,,13,101,1020094,,,2022-02-01,清算の結了等,,,2015-10-05,1,,,,,ジェイピーティーエス,0
2431,9010101012678,登記記録の閉鎖等,0,2022-02-04,2022-01-31,株式会社オーコク,,株式会社,東京都,八王子市,横川町７０２番地５０,,13,201,1930823,,,2022-01-31,清算の結了等,,,2017-01-27,1,,,,,,0
2452,9010701028958,登記記録の閉鎖等,0,2022-02-04,2022-01-27,株式会社ネクサスワン,,株式会社,東京都,新宿区,西新宿６丁目１２番１号,,13,104,1600023,,,2022-01-27,合併による解散等,1011101057803,令和４年１月１２日東京都新宿区西新宿六丁目１２番１号株式会社ケーワン・エンタープライズ（1011101057803）に合併し解散,2015-10-05,1,,,,,ネクサスワン,0
2471,9011101061194,登記記録の閉鎖等,0,2022-02-04,2022-02-02,株式会社カルティベイト,,株式会社,東京都,新宿区,西新宿１丁目３番１号,,13,104,1600023,,,2022-02-02,清算の結了等,,,2015-10-05,1,,,,,カルティベイト,0
2506,9013401001755,登記記録の閉鎖等,0,2022-02-04,2022-01-31,株式会社岩瀬商店,,株式会社,東京都,稲城市,大丸１２４番地,,13,225,2060801,,,2022-01-31,清算の結了等,,,2015-10-05,1,,,,,イワセショウテン,0
2528,9021003006296,登記記録の閉鎖等,0,2022-02-04,2022-01-31,合同会社Ｔａｋｋ,,合同会社,東京都,港区,東麻布３丁目４番１９－２０４号,,13,103,1060044,,,2022-01-31,清算の結了等,,,2016-11-07,1,,,,,タック,0
2564,9100001010797,登記記録の閉鎖等,0,2022-02-04,2022-02-02,シンエクロール株式会社,,株式会社,長野県,東御市,和４３１５番地１,,20,219,3890505,,,2022-02-02,合併による解散等,3011001003608,令和４年１月１日東京都渋谷区千駄ケ谷五丁目１７番１５号株式会社エクロール（3011001003608）に合併し解散,2015-10-05,1,,,,,シンエクロール,0
2599,9130002028794,登記記録の閉鎖等,0,2022-02-04,2022-01-28,株式会社京都国際ビジネスサポート,,株式会社,京都府,亀岡市,南つつじケ丘桜台５丁目２番１２号,,26,206,6210847,,,2022-01-28,清算の結了等,,,2015-10-05,1,,,,,キョウトコクサイビジネスサポート,0
2616,9180001014304,登記記録の閉鎖等,0,2022-02-04,2022-01-31,株式会社河村建築事務所,,株式会社,愛知県,名古屋市南区,立脇町５丁目３０番地,,23,112,4570077,,,2022-01-31,清算の結了等,,,2015-10-05,1,,,,,カワムラケンチクジムショ,0
2617,9180001032941,登記記録の閉鎖等,0,2022-02-04,2022-02-01,株式会社美浜建設,,株式会社,愛知県,名古屋市中村区,日ノ宮町３丁目９８番地の２,,23,105,4530823,,,2022-02-01,清算の結了等,,,2015-10-05,1,,,,,ミハマケンセツ,0
2634,9180002076384,登記記録の閉鎖等,0,2022-02-04,2022-01-31,有限会社西海地質,,有限会社,愛知県,一宮市,浅井町大日比野字向エ５番地の６,,23,203,4910105,,,2022-01-31,清算の結了等,,,2015-10-05,1,,,,,サイカイチシツ,0
2647,9200002008343,登記記録の閉鎖等,0,2022-02-04,2022-02-02,有限会社マーベリック鵜沼,,有限会社,岐阜県,各務原市,鵜沼朝日町３丁目２１２番地,,21,213,5090145,,,2022-02-02,清算の結了等,,,2015-10-05,1,,,,,マーベリックウヌマ,0
2648,9200002017848,登記記録の閉鎖等,0,2022-02-04,2022-02-02,有限会社奈八屋,,有限会社,岐阜県,可児市,皐ケ丘１丁目１７４番地,,21,214,5090236,,,2022-02-02,清算の結了等,,,2015-10-05,1,,,,,ナハチヤ,0
2659,9240002039632,登記記録の閉鎖等,0,2022-02-04,2022-01-31,有限会社枝広工業,,有限会社,広島県,福山市,南手城町３丁目２２番１４号,,34,207,7210963,,,2022-01-31,清算の結了等,,,2015-10-05,1,,,,,エダヒロコウギョウ,0
2667,9290001087339,登記記録の閉鎖等,0,2022-02-04,2022-02-01,丸善物流システム株式会社,,株式会社,福岡県,久留米市,善導寺町飯田８２９番地１,,40,203,8390824,,,2022-02-01,清算の結了等,,,2019-12-06,1,,,,,マルゼンブツリュウシステム,0
2679,9310001005066,登記記録の閉鎖等,0,2022-02-04,2022-02-01,株式会社ニッショウホールディングス,,株式会社,長崎県,長崎市,宝町７番３号,,42,201,8500045,,,2022-02-01,合併による解散等,8310001001669,令和４年２月１日長崎市宝町７番３号株式会社ニッショウ（8310001001669）に合併し解散,2015-10-05,1,,,,,ニッショウホールディングス,0
2680,9310001017680,登記記録の閉鎖等,0,2022-02-04,2022-02-03,株式会社栗義組,,株式会社,長崎県,長崎市,西坂町１４番３号,,42,201,8500051,,,2022-02-03,清算の結了等,,,2022-01-27,1,,,,,クリヨシグミ,0
2681,9310002003936,登記記録の閉鎖等,0,2022-02-04,2022-02-02,有限会社中尾ビル,,有限会社,長崎県,長崎市,桜町３番１２号,,42,201,8500031,,,2022-02-02,清算の結了等,,,2015-10-05,1,,,,,ナカオビル,0
2713,9430002023294,登記記録の閉鎖等,0,2022-02-04,2022-02-01,有限会社札幌サービス協会,,有限会社,北海道,札幌市豊平区,福住三条７丁目３番８号,,01,105,0620043,,,2022-02-01,清算の結了等,,,2015-10-05,1,,,,,サッポロサービスキョウカイ,0
