sequenceNumber,corporateNumber,process,correct,updateDate,changeDate,name,nameImageId,kind,prefectureName,cityName,streetNumber,addressImageId,prefectureCode,cityCode,postCode,addressOutside,addressOutsideImageId,closeDate,closeCause,successorCorporateNumber,changeCause,assignmentDate,latest,enName,enPrefectureName,enCityName,enAddressOutside,furigana,hihyoji
15,1010401158600,登記記録の閉鎖等,0,2024-12-20,2024-12-06,株式会社Ａｎｊｉｎアドバイザーズ,,株式会社,東京都,港区,白金台４丁目１５番５号,,13,103,1080071,,,2024-12-06,清算の結了等,,,2021-03-10,1,,,,,アンジンアドバイザーズ,0
25,1010502004265,登記記録の閉鎖等,0,2024-12-20,2024-12-11,有限会社佐野商店,,有限会社,東京都,台東区,松が谷３丁目３番２号,,13,106,1110036,,,2024-12-11,清算の結了等,,,2015-10-05,1,,,,,サノショウテン,0
59,1011501023776,登記記録の閉鎖等,0,2024-12-20,2024-12-16,カワタケ商事株式会社,,株式会社,東京都,北区,赤羽１丁目６１番１０－６０４号,,13,117,1150045,,,2024-12-16,清算の結了等,,,2018-06-06,1,,,,,カワタケショウジ,0
62,1011602001961,登記記録の閉鎖等,0,2024-12-20,2024-12-09,有限会社オオカワ,,有限会社,東京都,練馬区,大泉学園町５丁目１１番２６号,,13,120,1780061,,,2024-12-09,清算の結了等,,,2015-10-05,1,,,,,オオカワ,0
69,1012401032041,登記記録の閉鎖等,0,2024-12-20,2024-12-20,株式会社スパーク,,株式会社,東京都,武蔵野市,西久保２丁目１４番５号,,13,203,1800013,,,2024-12-20,清算の結了等,,,2016-11-11,1,,,,,スパーク,0
77,1013105000202,登記記録の閉鎖等,0,2024-12-20,2024-11-19,日本福音ルーテル羽村教会,,その他の設立登記法人,東京都,羽村市,羽東２丁目１６番１１号,,13,227,2050014,,,2024-11-19,合併による解散等,3011105000724,令和６年１１月６日東京都新宿区市谷砂土原町一丁目１番地日本福音ルーテル教会（3011105000724）に合併し解散,2015-10-05,1,,,,,ニホンフクインルーテルハムラキョウカイ,0
79,1020001125074,登記記録の閉鎖等,0,2024-12-20,2024-12-11,オリエントビジネス株式会社,,株式会社,東京都,大田区,西六郷３丁目１番７号,,13,111,1440056,,,2024-12-11,清算の結了等,,,2018-02-13,1,,,,,オリエントビジネス,0
84,1021001016395,登記記録の閉鎖等,0,2024-12-20,2024-12-18,株式会社コダマ製作所,,株式会社,神奈川県,相模原市緑区,吉野１５７６番地の１,,14,151,2520183,,,2024-12-18,清算の結了等,,,2015-10-05,1,,,,,コダマセイサクショ,0
91,1021002046904,登記記録の閉鎖等,0,2024-12-20,2024-12-18,有限会社芳徳商事,,有限会社,神奈川県,綾瀬市,吉岡１０１４番地,,14,218,2521124,,,2024-12-18,清算の結了等,,,2015-10-05,1,,,,,ホウトクショウジ,0
98,1030001076754,登記記録の閉鎖等,0,2024-12-20,2024-12-16,株式会社博映,,株式会社,埼玉県,川口市,西青木２丁目９番３号,,11,203,3320035,,,2024-12-16,清算の結了等,,,2015-10-05,1,,,,,ハクエイ,0
108,1030002033408,登記記録の閉鎖等,0,2024-12-20,2024-12-16,有限会社オカダ整備工場,,有限会社,埼玉県,狭山市,柏原６９６番地の２,,11,215,3501335,,,2024-12-16,清算の結了等,,,2015-10-05,1,,,,,オカダセイビコウジョウ,0
109,1030002037029,登記記録の閉鎖等,0,2024-12-20,2024-12-16,有限会社小園建築設計,,有限会社,埼玉県,狭山市,入間川３１４２番地の５３,,11,215,3501305,,,2024-12-16,清算の結了等,,,2015-10-05,1,,,,,,0
110,1030002039553,登記記録の閉鎖等,0,2024-12-20,2024-12-17,有限会社イーエス管理,,有限会社,埼玉県,幸手市,中３丁目５番１９号,,11,240,3400115,,,2024-12-17,清算の結了等,,,2015-10-05,1,,,,,イーエスカンリ,0
121,1040002097550,登記記録の閉鎖等,0,2024-12-20,2024-12-12,有限会社ファークラフト,,有限会社,千葉県,野田市,中根２５４番地の３,,12,208,2780031,,,2024-12-12,清算の結了等,,,2015-10-05,1,,,,,ファークラフト,0
124,1050001000159,登記記録の閉鎖等,0,2024-12-20,2024-12-16,株式会社茨城経営情報センター,,株式会社,茨城県,水戸市,河和田２丁目１番地の２,,08,201,3114152,,,2024-12-16,清算の結了等,,,2015-10-05,1,,,,,イバラキケイエイジョウホウセンター,0
133,1060002008919,登記記録の閉鎖等,0,2024-12-20,2024-12-16,有限会社村山商会,,有限会社,栃木県,宇都宮市,花房本町３番２号,,09,201,3200828,,,2024-12-16,清算の結了等,,,2015-10-05,1,,,,,ムラヤマショウカイ,0
144,1080101008223,登記記録の閉鎖等,0,2024-12-20,2024-12-12,駅南商事株式会社,,株式会社,静岡県,富士市,横割１丁目２０番２３号,,22,210,4160944,,,2024-12-12,清算の結了等,,,2015-10-05,1,,,,,エキナンショウジ,0
149,1100001011497,登記記録の閉鎖等,0,2024-12-20,2024-12-10,株式会社エイ・アイ・エス,,株式会社,長野県,埴科郡坂城町,大字上五明９９２番地２,,20,521,3890606,,,2024-12-10,清算の結了等,,,2015-10-05,1,,,,,エイアイエス,0
151,1100002022725,登記記録の閉鎖等,0,2024-12-20,2024-12-16,有限会社植田技研,,有限会社,長野県,松本市,大字島内８９８番地５１,,20,202,3900851,,,2024-12-16,清算の結了等,,,2015-10-05,1,,,,,ウエダギケン,0
161,1120001187336,登記記録の閉鎖等,0,2024-12-20,2024-12-18,株式会社キャリア経営パートナーズ,,株式会社,大阪府,大阪市中央区,本町橋２番２３号第７松屋ビル８２７号室,,27,128,5400029,,,2024-12-18,清算の結了等,,,2015-10-05,1,,,,,キャリアケイエイパートナーズ,0
165,1120001259044,登記記録の閉鎖等,0,2024-12-20,2024-12-18,聚星株式会社,,株式会社,大阪府,大阪市大正区,三軒家西３丁目４番１６号中山ビル１０３９,,27,108,5510001,,,2024-12-18,清算の結了等,,,2023-10-23,1,,,,,シュセイ,0
172,1120101065499,登記記録の閉鎖等,0,2024-12-20,2024-12-17,株式会社前原工務店,,株式会社,大阪府,堺市北区,中村町１２６７番地１,,27,146,5918012,,,2024-12-17,清算の結了等,,,2022-05-02,1,,,,,マエハラコウムテン,0
200,1180001071955,登記記録の閉鎖等,0,2024-12-20,2024-12-12,株式会社アカギ,,株式会社,愛知県,名古屋市中村区,千成通１丁目２０番地,,23,105,4530818,,,2024-12-12,清算の結了等,,,2015-10-05,1,,,,,アカギ,0
211,1180301002131,登記記録の閉鎖等,0,2024-12-20,2024-12-18,株式会社村瀬鉄工,,株式会社,愛知県,岡崎市,小針町字拾弐塚６４番地２,,23,202,4440907,,,2024-12-18,清算の結了等,,,2015-10-05,1,,,,,ムラセテッコウ,0
214,1180301037061,登記記録の閉鎖等,0,2024-12-20,2024-12-13,株式会社藤田,,株式会社,愛知県,安城市,朝日町１番１号英昌ビル２Ｆ,,23,212,4460031,,,2024-12-13,清算の結了等,,,2023-02-03,1,,,,,フジタ,0
226,1200002006486,登記記録の閉鎖等,0,2024-12-20,2024-12-18,有限会社田中土建,,有限会社,岐阜県,山県市,葛原１９６９番地の１,00076866,21,215,5012331,,,2024-12-18,清算の結了等,,,2015-10-05,1,,,,,タナカドケン,0
231,1220002013638,登記記録の閉鎖等,0,2024-12-20,2024-12-17,有限会社あぐり能登,,有限会社,石川県,七尾市,石崎町ヨ部１７番地２,,17,202,9260171,,,2024-12-17,清算の結了等,,,2015-10-05,1,,,,,アグリノト,0
232,1230001002608,登記記録の閉鎖等,0,2024-12-20,2024-12-17,株式会社ひゃくづか,,株式会社,富山県,富山市,向川原町４番１２号,,16,201,9300041,,,2024-12-17,清算の結了等,,,2015-10-05,1,,,,,ヒャクヅカ,0
233,1230002012449,登記記録の閉鎖等,0,2024-12-20,2024-12-17,有限会社吉川組,,有限会社,富山県,高岡市,四日市４２０番地,,16,202,9330351,,,2024-12-17,清算の結了等,,,2015-10-05,1,,,,,ヨシカワグミ,0
246,1290001025660,登記記録の閉鎖等,0,2024-12-20,2024-11-01,株式会社ライフ・モア,,株式会社,福岡県,福岡市中央区,天神３丁目１番１２号,,40,133,8100001,,,2024-11-01,合併による解散等,6290001043443,令和６年１１月１日福岡市中央区天神三丁目１番１２号株式会社シンセイ・プラスワン（6290001043443）に合併し解散,2015-10-05,1,,,,,ライフモア,0
292,1470003000420,登記記録の閉鎖等,0,2024-12-20,2024-12-16,合同会社七宝技研,,合同会社,香川県,三豊市,豊中町岡本１７５番地,,37,208,7691507,,,2024-12-16,清算の結了等,,,2015-10-05,1,,,,,シッポウギケン,0
303,2010001220668,登記記録の閉鎖等,0,2024-12-20,2024-12-09,株式会社わたあめ,,株式会社,東京都,千代田区,九段南１丁目５番６号りそな九段ビル５ＦＫＳフロア,,13,101,1020074,,,2024-12-09,清算の結了等,,,2021-08-30,1,,,,,ワタアメ,0
308,2010401105007,登記記録の閉鎖等,0,2024-12-20,2024-12-17,サイネオス・ヘルス・クリニカル株式会社,,株式会社,東京都,港区,港南１丁目２番７０号,,13,103,1080075,,,2024-12-17,合併による解散等,3010001185530,令和６年１２月１日東京都千代田区丸の内二丁目７番２号ＪＰタワーサイネオス・ヘルス・ジャパン株式会社（3010001185530）に合併し解散,2015-10-05,1,,,,,サイネオスヘルスクリニカル,0
312,2010401129864,登記記録の閉鎖等,0,2024-12-20,2024-12-05,株式会社ぶんか社グループ,,株式会社,東京都,千代田区,一番町２９番地６,,13,101,1020082,,,2024-12-05,合併による解散等,4010001089532,令和６年１２月１日東京都千代田区一番町２９番地６株式会社ぶんか社（4010001089532）に合併し解散,2017-02-24,1,,,,,ブンカシャグループ,0
314,2010401161933,登記記録の閉鎖等,0,2024-12-20,2024-12-05,株式会社Ｍｏｎｔｅｃｈａｎｃｅ,,株式会社,東京都,港区,高輪３丁目２番６号－１４０１号,,13,103,1080074,,,2024-12-05,清算の結了等,,,2021-08-06,1,,,,,モンテシャンス,0
316,2010405021464,登記記録の閉鎖等,0,2024-12-20,2024-12-06,一般社団法人ｒｅｎｇａ第０号,,その他の設立登記法人,東京都,港区,赤坂４丁目１５番１号赤坂ガーデンシティ３階,,13,103,1070052,,,2024-12-06,清算の結了等,,,2022-10-11,1,,,,,レンガダイゼロゴウ,0
328,2010603009071,登記記録の閉鎖等,0,2024-12-20,2024-12-18,合同会社華誠,,合同会社,東京都,墨田区,太平１丁目１５番３－８０３号,,13,107,1300012,,,2024-12-18,清算の結了等,,,2021-08-04,1,,,,,カセイ,0
335,2011001138009,登記記録の閉鎖等,0,2024-12-20,2024-11-29,株式会社シンスフロー,,株式会社,東京都,渋谷区,元代々木町２７番１４号,,13,113,1510062,,,2024-11-29,清算の結了等,,,2021-02-10,1,,,,,シンスフロー,0
350,2011002035477,登記記録の閉鎖等,0,2024-12-20,2024-12-05,有限会社Ｙｍプランニング,,有限会社,東京都,台東区,千束３丁目３０番地１１号,,13,106,1110031,,,2024-12-05,合併による解散等,7011002017504,令和６年１２月１日東京都台東区竜泉三丁目４番地３号株式会社ビッグスカイ（7011002017504）に合併し解散,2015-10-05,1,,,,,ワエムプランニング,0
362,2011401012250,登記記録の閉鎖等,0,2024-12-20,2024-12-12,株式会社セルリアンブルー,,株式会社,神奈川県,横浜市港北区,菊名５丁目２４番８号,,14,109,2220011,,,2024-12-12,清算の結了等,,,2015-10-05,1,,,,,セルリアンブルー,0
371,2011801035578,登記記録の閉鎖等,0,2024-12-20,2024-12-13,株式会社クオルピア,,株式会社,東京都,足立区,千住１丁目４番１号,,13,121,1200034,,,2024-12-13,清算の結了等,,,2018-12-28,1,,,,,クオルピア,0
373,2011802017055,登記記録の閉鎖等,0,2024-12-20,2024-12-16,有限会社二瓶紙器製作所,,有限会社,東京都,足立区,六木２丁目７番１４号,,13,121,1210052,,,2024-12-16,清算の結了等,,,2015-10-05,1,,,,,ニヘイシキセイサクショ,0
374,2012401035019,登記記録の閉鎖等,0,2024-12-20,2024-12-19,株式会社几帳面屋,,株式会社,東京都,武蔵野市,緑町１丁目７番２４号コーポ滝澤緑町１０２,,13,203,1800012,,,2024-12-19,清算の結了等,,,2019-03-06,1,,,,,キチョウメンヤ,0
375,2012401039432,登記記録の閉鎖等,0,2024-12-20,2024-12-11,株式会社ディーフォー,,株式会社,東京都,新宿区,西新宿５丁目２番１号,,13,104,1600023,,,2024-12-11,清算の結了等,,,2022-07-15,1,,,,,ディーフォー,0
385,2020001106528,登記記録の閉鎖等,0,2024-12-20,2024-12-03,株式会社ベルウッド,,株式会社,神奈川県,川崎市高津区,末長１３５４番地,,14,134,2130013,,,2024-12-03,清算の結了等,,,2015-10-05,1,,,,,ベルウッド,0
407,2030002006321,登記記録の閉鎖等,0,2024-12-20,2024-12-16,有限会社ジェイワイケイトータルプランニング,,有限会社,埼玉県,さいたま市南区,南本町１丁目１６番３号,,11,108,3360018,,,2024-12-16,清算の結了等,,,2015-10-05,1,,,,,ジェイワイケイトータルプランニング,0
412,2030002118406,登記記録の閉鎖等,0,2024-12-20,2024-12-16,メディアリレーションズ有限会社,,有限会社,埼玉県,深谷市,人見１３９７番地１５,,11,218,3660811,,,2024-12-16,清算の結了等,,,2015-10-05,1,,,,,メディアリレーションズ,0
416,2040001025916,登記記録の閉鎖等,0,2024-12-20,2024-12-13,株式会社和,,株式会社,千葉県,市川市,末広２丁目８番２３－３０１号,,12,203,2720121,,,2024-12-13,清算の結了等,,,2015-10-05,1,,,,,カズ,0
424,2040003004463,登記記録の閉鎖等,0,2024-12-20,2024-12-13,合資会社山六商店,,合資会社,千葉県,鴨川市,西町９５１番地,,12,223,2960043,,,2024-12-13,清算の結了等,,,2015-10-05,1,,,,,ヤマロクショウテン,0
431,2050003004727,登記記録の閉鎖等,0,2024-12-20,2024-12-17,合同会社ケアプランセンター結,,合同会社,茨城県,下妻市,宗道２０４０番地３,,08,210,3040814,,,2024-12-17,清算の結了等,,,2019-07-02,1,,,,,ケアプランセンターユイ,0
433,2060001017597,登記記録の閉鎖等,0,2024-12-20,2024-12-13,日野商事株式会社,,株式会社,栃木県,下都賀郡壬生町,大字壬生甲２２２９番地２,,09,361,3210214,,,2024-12-13,清算の結了等,,,2015-10-05,1,,,,,ヒノショウジ,0
436,2060002039079,登記記録の閉鎖等,0,2024-12-20,2024-12-17,有限会社新栄,,有限会社,栃木県,佐野市,堀米町２８１番地,,09,204,3270843,,,2024-12-17,清算の結了等,,,2015-10-05,1,,,,,シンエイ,0
445,2100002025173,登記記録の閉鎖等,0,2024-12-20,2024-12-16,有限会社ノザワ,,有限会社,長野県,塩尻市,大字大門１０７９番地１８５,,20,215,3990744,,,2024-12-16,清算の結了等,,,2015-10-05,1,,,,,ノザワ,0
448,2110001035049,登記記録の閉鎖等,0,2024-12-20,2024-12-16,株式会社ＳＨＩＮＷＡ,,株式会社,新潟県,新潟市東区,河渡２丁目３番１１号１４,,15,102,9500024,,,2024-12-16,清算の結了等,,,2020-08-05,1,,,,,シンワ,0
450,2120001056259,登記記録の閉鎖等,0,2024-12-20,2024-12-18,関企画株式会社,,株式会社,大阪府,大阪市淀川区,西中島６丁目２番３号,,27,123,5320011,,,2024-12-18,清算の結了等,,,2015-10-05,1,,,,,セキキカク,0
471,2120101037646,登記記録の閉鎖等,0,2024-12-20,2024-12-16,松本鉄工株式会社,,株式会社,大阪府,岸和田市,南上町１丁目２５番１７号,,27,202,5960078,,,2024-12-16,清算の結了等,,,2015-10-05,1,,,,,マツモトテッコウ,0
477,2120902016014,登記記録の閉鎖等,0,2024-12-20,2024-12-16,有限会社イケダ,,有限会社,大阪府,豊能郡豊能町,新光風台２丁目１０番２号,,27,321,5630105,,,2024-12-16,清算の結了等,,,2015-10-05,1,,,,,イケダ,0
486,2140002030640,登記記録の閉鎖等,0,2024-12-20,2024-12-13,有限会社共栄サービス,,有限会社,兵庫県,三木市,緑が丘町中１丁目１５番地の３５緑が丘ビル２０３号,,28,215,6730532,,,2024-12-13,清算の結了等,,,2015-10-05,1,,,,,キョウエイサービス,0
491,2180001115901,登記記録の閉鎖等,0,2024-12-20,2024-12-18,株式会社ドンカラパオ,,株式会社,愛知県,豊田市,西町４丁目２３番地１ウインズ豊田２階,,23,211,4710025,,,2024-12-18,合併による解散等,7180001044534,令和６年１２月１日名古屋市北区成願寺一丁目６番Ａ－４３０３号株式会社イノテッグ企画（7180001044534）に合併し解散,2015-10-05,1,,,,,ドンカラパオ,0
493,2180001124638,登記記録の閉鎖等,0,2024-12-20,2024-12-16,株式会社Ｈｅａｒｔ,,株式会社,愛知県,あま市,森東町長１３番７３,,23,237,4901107,,,2024-12-16,清算の結了等,,,2016-08-30,1,,,,,ハート,0
497,2180002000375,登記記録の閉鎖等,0,2024-12-20,2024-12-16,有限会社加藤鈑金,,有限会社,愛知県,名古屋市守山区,川宮町４５９番地,,23,113,4630081,,,2024-12-16,清算の結了等,,,2015-10-05,1,,,,,カトウバンキン,0
503,2180003010266,登記記録の閉鎖等,0,2024-12-20,2024-12-02,合資会社塚原製畳所,,合資会社,愛知県,小牧市,大字小牧原新田７００番地の４,,23,219,4850012,,,2024-12-02,清算の結了等,,,2015-10-05,1,,,,,ツカハラセイジョウショ,0
506,2180302023316,登記記録の閉鎖等,0,2024-12-20,2024-12-16,有限会社ブテイツク葡萄屋,,有限会社,愛知県,豊田市,栄町２丁目１７番地,,23,211,4710066,,,2024-12-16,清算の結了等,,,2015-10-05,1,,,,,ブテイツクブドウヤ,0
507,2210001010347,登記記録の閉鎖等,0,2024-12-20,2024-12-16,株式会社ＹＢＫ,,株式会社,福井県,福井市,志津が丘３丁目１５１番地１,,18,201,9103635,,,2024-12-16,清算の結了等,,,2015-10-05,1,,,,,ワイビーケー,0
517,2250002002595,登記記録の閉鎖等,0,2024-12-20,2024-12-18,有限会社河村工業,,有限会社,山口県,山口市,徳地船路２０８番の２地,,35,203,7470342,,,2024-12-18,清算の結了等,,,2015-10-05,1,,,,,カワムラコウギョウ,0
528,2330002006860,登記記録の閉鎖等,0,2024-12-20,2024-12-13,有限会社司観光,,有限会社,熊本県,熊本市南区,近見８丁目８番８９号,,43,104,8614101,,,2024-12-13,清算の結了等,,,2015-10-05,1,,,,,ツカサカンコウ,0
529,2330002027543,登記記録の閉鎖等,0,2024-12-20,2024-12-13,有限会社新光建設,,有限会社,熊本県,葦北郡芦北町,大字湯浦７６７番地１,,43,482,8695563,,,2024-12-13,清算の結了等,,,2015-10-05,1,,,,,シンコウケンセツ,0
537,2350002016024,登記記録の閉鎖等,0,2024-12-20,2024-12-19,有限会社平山生花,,有限会社,宮崎県,都城市,高城町高城２８３９番地２,,45,202,8851201,,,2024-12-19,清算の結了等,,,2015-10-05,1,,,,,ヒラヤマセイカ,0
543,2370002015544,登記記録の閉鎖等,0,2024-12-20,2024-12-13,有限会社市川企画,,有限会社,宮城県,仙台市青葉区,荒巻神明町２５番２２号,,04,101,9810965,,,2024-12-13,清算の結了等,,,2015-10-05,1,,,,,イチカワキカク,0
562,2450005004395,登記記録の閉鎖等,0,2024-12-20,2024-12-06,神樂村農業會,00133729,その他の設立登記法人,北海道,旭川市,西神楽南一条２丁目６３８番地,,01,204,0710171,,,2024-12-06,清算の結了等,,,2024-02-19,1,,,,,,0
566,2480001011252,登記記録の閉鎖等,0,2024-12-20,2024-12-17,株式会社ＳｐＬＥＤ,,株式会社,徳島県,徳島市,南常三島町２丁目１番地,,36,201,7700814,,,2024-12-17,清算の結了等,,,2021-01-28,1,,,,,スプレッド,0
580,3010001179879,登記記録の閉鎖等,0,2024-12-20,2024-12-09,株式会社ＬＡＶＩＥＲＥ,,株式会社,東京都,中央区,銀座４丁目３番２号,,13,102,1040061,,,2024-12-09,清算の結了等,,,2016-12-09,1,,,,,ラヴィエール,0
588,3010003027251,登記記録の閉鎖等,0,2024-12-20,2024-12-09,ＨＡＭ合同会社,,合同会社,東京都,千代田区,丸の内１丁目４番１号東京共同会計事務所内,,13,101,1000005,,,2024-12-09,清算の結了等,,,2018-04-03,1,,,,,エイチエーエム,0
596,3010401119187,登記記録の閉鎖等,0,2024-12-20,2024-11-29,株式会社りょうえん,,株式会社,東京都,港区,芝浦１丁目１１番１７号,,13,103,1050023,,,2024-11-29,清算の結了等,,,2015-10-05,1,,,,,リョウエン,0
608,3010601002820,登記記録の閉鎖等,0,2024-12-20,2024-12-16,島田設計株式会社,,株式会社,東京都,江東区,亀戸１丁目１１番５－７０４号,,13,108,1360071,,,2024-12-16,清算の結了等,,,2015-10-05,1,,,,,シマダセッケイ,0
611,3010602023592,登記記録の閉鎖等,0,2024-12-20,2024-12-16,鈴木産業有限会社,,有限会社,東京都,墨田区,立花６丁目６番３号,,13,107,1310043,,,2024-12-16,清算の結了等,,,2015-10-05,1,,,,,スズキサンギョウ,0
613,3010603007256,登記記録の閉鎖等,0,2024-12-20,2024-12-11,合同会社スコーピオ,,合同会社,東京都,新宿区,西新宿３丁目３番１３号西新宿水間ビル６階,,13,104,1600023,,,2024-12-11,清算の結了等,,,2018-05-21,1,,,,,スコーピオ,0
621,3011001035403,登記記録の閉鎖等,0,2024-12-20,2024-12-06,株式会社ジー・ピー・ネット,,株式会社,東京都,千代田区,丸の内２丁目４番１号,,13,101,1000005,,,2024-12-06,合併による解散等,9010001033691,令和６年１２月６日東京都千代田区丸の内二丁目４番１号ビザ・ワールドワイド・ジャパン株式会社（9010001033691）に合併し解散,2015-10-05,1,,,,,ジーピーネット,0
648,3011302008025,登記記録の閉鎖等,0,2024-12-20,2024-12-18,有限会社フライハイト,,有限会社,東京都,杉並区,高円寺南３丁目６８番１号,,13,115,1660003,,,2024-12-18,清算の結了等,,,2015-10-05,1,,,,,フラハイト,0
650,3011502015845,登記記録の閉鎖等,0,2024-12-20,2024-12-16,株式会社エヌ・ユウ・エス,,株式会社,東京都,荒川区,荒川１丁目３５－４－６階,,13,118,1160002,,,2024-12-16,清算の結了等,,,2015-10-05,1,,,,,エヌユウエス,0
661,3011805003150,登記記録の閉鎖等,0,2024-12-20,2024-12-17,一般社団法人豊樹会,,その他の設立登記法人,東京都,葛飾区,堀切４丁目７番２１号ダイヤモンドヒルズ松崎１０１,,13,122,1240006,,,2024-12-17,清算の結了等,,,2022-03-03,1,,,,,ホウジュカイ,0
668,3020001069988,登記記録の閉鎖等,0,2024-12-20,2024-12-10,株式会社ハリアンテック,,株式会社,神奈川県,川崎市中原区,新城中町６番２０号,,14,133,2110043,,,2024-12-10,清算の結了等,,,2015-10-05,1,,,,,ハリアンテック,0
671,3020002045419,登記記録の閉鎖等,0,2024-12-20,2024-12-09,有限会社宗形薬局,,有限会社,神奈川県,横浜市中区,新山下１丁目１２番２３号,,14,104,2310801,,,2024-12-09,清算の結了等,,,2015-10-05,1,,,,,ムナカタヤッキョク,0
676,3030001014357,登記記録の閉鎖等,0,2024-12-20,2024-12-16,株式会社ライフイズ,,株式会社,埼玉県,さいたま市見沼区,深作１丁目９番地５,,11,104,3370003,,,2024-12-16,清算の結了等,,,2015-10-05,1,,,,,ライフイズ,0
683,3030001122143,登記記録の閉鎖等,0,2024-12-20,2024-12-16,株式会社フロンティア・ロジカル,,株式会社,埼玉県,三郷市,花和田３１７番地４,,11,237,3410041,,,2024-12-16,清算の結了等,,,2017-09-12,1,,,,,フロンティアロジカル,0
686,3030003022358,登記記録の閉鎖等,0,2024-12-20,2024-12-17,Ａｓｃｅｎｓｏ合同会社,,合同会社,埼玉県,さいたま市緑区,東浦和２丁目１２番地６コーポレイト東浦和２号棟３０４,,11,109,3360926,,,2024-12-17,清算の結了等,,,2023-08-29,1,,,,,アセェンソン,0
690,3030005007968,登記記録の閉鎖等,0,2024-12-20,2024-11-20,特定非営利活動法人埼玉利根医療圏糖尿病ネットワーク,,その他の設立登記法人,埼玉県,幸手市,大字吉野５１７番５,,11,240,3400153,,,2024-11-20,合併による解散等,3010505002017,令和６年１１月１日東京都台東区浅草三丁目４番１号Ｋ－ｂｌｄｇ特定非営利活動法人健康増進・地域連携支援センター（3010505002017）に合併し解散,2015-10-05,1,,,,,サイタマトネイリョウケントウニョウビョウネットワーク,0
693,3040001096106,登記記録の閉鎖等,0,2024-12-20,2024-12-16,株式会社千葉ウェルディング,,株式会社,千葉県,千葉市中央区,川戸町３３４番地１,,12,101,2600802,,,2024-12-16,清算の結了等,,,2016-07-12,1,,,,,チバウエルディング,0
700,3050001020857,登記記録の閉鎖等,0,2024-12-20,2024-12-17,株式会社鹿行興業,,株式会社,茨城県,神栖市,息栖字稲荷３０３１番地の１３１,,08,232,3140133,,,2024-12-17,清算の結了等,,,2015-10-05,1,,,,,ロッコウコウギョウ,0
704,3060002024690,登記記録の閉鎖等,0,2024-12-20,2024-12-16,有限会社リモコン電機,,有限会社,栃木県,那須塩原市,弥生町２番１２号,,09,213,3250044,,,2024-12-16,清算の結了等,,,2015-10-05,1,,,,,リモコンデンキ,0
705,3070003002926,登記記録の閉鎖等,0,2024-12-20,2024-12-17,ａｒ合同会社,,合同会社,群馬県,高崎市,双葉町１０番４－１号,,10,202,3700843,,,2024-12-17,清算の結了等,,,2017-06-06,1,,,,,エーアール,0
714,3100001013863,登記記録の閉鎖等,0,2024-12-20,2024-12-13,野尻トーヨー住器株式会社,,株式会社,長野県,松本市,小屋南１丁目３番１号,,20,202,3990038,,,2024-12-13,清算の結了等,,,2015-10-05,1,,,,,ノジリトーヨージュウキ,0
720,3110005009477,登記記録の閉鎖等,0,2024-12-20,2024-12-17,特定非営利活動法人福祉研究会,,その他の設立登記法人,新潟県,上越市,春日山町３丁目１６番４４号,,15,222,9430807,,,2024-12-17,清算の結了等,,,2015-10-05,1,,,,,フクシケンキュウカイ,0
721,3120001110452,登記記録の閉鎖等,0,2024-12-20,2024-12-19,サンエイ開発株式会社,,株式会社,大阪府,大阪市中央区,南船場３丁目３番２７号,,27,128,5420081,,,2024-12-19,清算の結了等,,,2015-10-05,1,,,,,サンエイカイハツ,0
723,3120001146100,登記記録の閉鎖等,0,2024-12-20,2024-12-18,ヒューマン・スマート株式会社,,株式会社,大阪府,枚方市,楠葉花園町１１－３ファインシティくずは１８０７号,,27,210,5731121,,,2024-12-18,清算の結了等,,,2015-10-05,1,,,,,ヒューマンスマート,0
736,3120005016217,登記記録の閉鎖等,0,2024-12-20,2024-12-17,一般社団法人南港囲碁クラブ,,その他の設立登記法人,大阪府,大阪市住之江区,南港北２丁目１番１０号ＡＴＣビルＩＴＭ棟１１階,,27,125,5590034,,,2024-12-17,清算の結了等,,,2015-10-05,1,,,,,ナンコウイゴクラブ,0
746,3130005003585,登記記録の閉鎖等,0,2024-12-20,2024-12-18,京都和菓子製造協同組合,,その他の設立登記法人,京都府,京都市中京区,堺町通三条上る桝屋町６２番地黒崎税理士法人内,00136530,26,104,6048111,,,2024-12-18,清算の結了等,,,2015-10-05,1,,,,,キョウトワガシセイゾウ,0
753,3170001006407,登記記録の閉鎖等,0,2024-12-20,2024-12-16,株式会社ウインズ,,株式会社,和歌山県,海南市,阪井２８１番地３６,,30,202,6420024,,,2024-12-16,清算の結了等,,,2015-10-05,1,,,,,ウインズ,0
754,3170002000532,登記記録の閉鎖等,0,2024-12-20,2024-12-19,永和工業有限会社,,有限会社,和歌山県,和歌山市,関戸３丁目６番１５号,,30,201,6410035,,,2024-12-19,清算の結了等,,,2015-10-05,1,,,,,エイワコウギョウ,0
760,3180001079063,登記記録の閉鎖等,0,2024-12-20,2024-12-16,テーケー名古屋人形製陶株式会社,,株式会社,愛知県,瀬戸市,北松山町１丁目１０番地,,23,204,4890911,,,2024-12-16,清算の結了等,,,2015-10-05,1,,,,,テーケーナゴヤニンギョウセイトウ,0
761,3180001090532,登記記録の閉鎖等,0,2024-12-20,2024-12-16,新保険設計株式会社,,株式会社,愛知県,瀬戸市,西松山町２丁目７番地の１,,23,204,4890912,,,2024-12-16,清算の結了等,,,2015-10-05,1,,,,,シンホケンセッケイ,0
766,3180002059106,登記記録の閉鎖等,0,2024-12-20,2024-12-16,有限会社古庄技建,,有限会社,愛知県,西春日井郡豊山町,大字青山字金剛２８１番地,,23,342,4800201,,,2024-12-16,清算の結了等,,,2015-10-05,1,,,,,フルショウギケン,0
772,3180301032234,登記記録の閉鎖等,0,2024-12-20,2024-12-19,株式会社Ｉｄｅａｌ　Ｈｏｌｄｉｎｇｓ,,株式会社,愛知県,岡崎市,戸崎町字藤狭１番地９,,23,202,4440841,,,2024-12-19,清算の結了等,,,2019-01-29,1,,,,,アイディールホールディングス,0
793,3290001088623,登記記録の閉鎖等,0,2024-12-20,2024-11-19,株式会社ｆｏｏｄｒａｎｔ,,株式会社,福岡県,福岡市中央区,那の津２丁目１０番８号オフィスパレア天神北ＩＡ棟１号室,00119471,40,133,8100071,,,2024-11-19,合併による解散等,8500001006194,令和６年１０月３０日愛媛県松山市松前町二丁目２番地６グランディアパークウエスト２０４号株式会社エフ・コーポレーション（8500001006194）に合併し解散,2020-04-09,1,,,,,フードラント,0
817,3370302003248,登記記録の閉鎖等,0,2024-12-20,2024-12-12,有限会社道三商店,,有限会社,宮城県,牡鹿郡女川町,鷲神２丁目１５番地２,,04,581,9862247,,,2024-12-12,清算の結了等,,,2015-10-05,1,,,,,ドウサンショウテン,0
827,3390005009053,登記記録の閉鎖等,0,2024-12-20,2024-12-16,特定非営利活動法人なないろ,,その他の設立登記法人,山形県,酒田市,駅東２丁目７番地の１６,,06,204,9980022,,,2024-12-16,清算の結了等,,,2024-02-15,1,,,,,ナナイロ,0
854,4010001206888,登記記録の閉鎖等,0,2024-12-20,2024-12-12,株式会社オブリガート,,株式会社,東京都,千代田区,九段南１丁目５番６号りそな九段ビル５階ＫＳフロア,,13,101,1020074,,,2024-12-12,清算の結了等,,,2020-01-23,1,,,,,オブリガート,0
855,4010001207770,登記記録の閉鎖等,0,2024-12-20,2024-12-09,株式会社ＣＯＣＯテクノロジー,,株式会社,東京都,中央区,日本橋本町３丁目３－６ワカ末ビル７階,,13,102,1030023,,,2024-12-09,清算の結了等,,,2020-02-26,1,,,,,ココテクノロジー,0
857,4010003036904,登記記録の閉鎖等,0,2024-12-20,2024-12-09,ｉプロパティ８合同会社,,合同会社,東京都,千代田区,永田町２丁目１４番２号－３階スリーアイズキャピタル株式会社内,,13,101,1000014,,,2024-12-09,清算の結了等,,,2022-01-31,1,,,,,アイプロパティエイト,0
858,4010005035433,登記記録の閉鎖等,0,2024-12-20,2024-12-18,九段下ソーラーホールディングス一般社団法人,,その他の設立登記法人,東京都,千代田区,麹町２丁目８番地ＭＬＣ麹町ビル４階フィンポート税理士法人内,,13,101,1020083,,,2024-12-18,清算の結了等,,,2022-08-15,1,,,,,クダンシタソーラーホールディングス,0
880,4010802007403,登記記録の閉鎖等,0,2024-12-20,2024-12-12,有限会社ジャム設計事務所,,有限会社,東京都,大田区,鵜の木２丁目２１番４号,,13,111,1460091,,,2024-12-12,清算の結了等,,,2015-10-05,1,,,,,ジャムセッケイジムショ,0
881,4010802014853,登記記録の閉鎖等,0,2024-12-20,2024-12-10,有限会社山栄工機製作所,,有限会社,東京都,大田区,多摩川２丁目２７番８号,,13,111,1460095,,,2024-12-10,清算の結了等,,,2015-10-05,1,,,,,サンエイコウキセイサクショ,0
895,4011003014924,登記記録の閉鎖等,0,2024-12-20,2024-11-29,ＷＡＲＡＭＡ合同会社,,合同会社,東京都,渋谷区,神宮前２丁目１８番１９号ｔｈｅＦｏｌｋｓ１階,,13,113,1500001,,,2024-11-29,清算の結了等,,,2022-06-24,1,,,,,ワラマ,0
904,4011101101376,登記記録の閉鎖等,0,2024-12-20,2024-12-10,株式会社インテグリティ・ラーニング,,株式会社,東京都,新宿区,住吉町２番１８－１１０９号,,13,104,1620065,,,2024-12-10,清算の結了等,,,2023-01-11,1,,,,,インテグリティラーニング,0
910,4011302009880,登記記録の閉鎖等,0,2024-12-20,2024-12-17,有限会社和源,,有限会社,東京都,杉並区,浜田山２丁目４番１６号,,13,115,1680065,,,2024-12-17,清算の結了等,,,2015-10-05,1,,,,,ワゲン,0
924,4013401004655,登記記録の閉鎖等,0,2024-12-20,2024-12-20,株式会社オフィスブレーン,,株式会社,東京都,多摩市,鶴牧５丁目２６番地の１２,,13,224,2060034,,,2024-12-20,清算の結了等,,,2015-10-05,1,,,,,オフィスブレーン,0
927,4020001055236,登記記録の閉鎖等,0,2024-12-20,2024-12-06,富士建物株式会社,,株式会社,神奈川県,横浜市都筑区,荏田南２丁目１０番２０号,,14,118,2240007,,,2024-12-06,清算の結了等,,,2015-10-05,1,,,,,,0
929,4020001107747,登記記録の閉鎖等,0,2024-12-20,2024-12-16,株式会社スリーシステムズ,,株式会社,千葉県,鴨川市,天津８３４番地１,,12,223,2995503,,,2024-12-16,清算の結了等,,,2015-10-05,1,,,,,スリーシステムズ,0
930,4020002097665,登記記録の閉鎖等,0,2024-12-20,2024-12-09,有限会社精美堂印刷所,,有限会社,神奈川県,川崎市川崎区,浜町３丁目３番７号,,14,131,2100851,,,2024-12-09,清算の結了等,,,2015-10-05,1,,,,,,0
938,4021002029856,登記記録の閉鎖等,0,2024-12-20,2024-12-18,有限会社志村土建,,有限会社,神奈川県,相模原市緑区,牧野７７８２番地,,14,151,2520186,,,2024-12-18,清算の結了等,,,2015-10-05,1,,,,,シムラドケン,0
939,4021002062642,登記記録の閉鎖等,0,2024-12-20,2024-12-18,有限会社飯田屋商事,,有限会社,神奈川県,横須賀市,上町２丁目２５番地,,14,201,2380017,,,2024-12-18,清算の結了等,,,2015-10-05,1,,,,,イイダヤショウジ,0
949,4030002085743,登記記録の閉鎖等,0,2024-12-20,2024-12-16,有限会社協和商事,,有限会社,埼玉県,越谷市,新川町２丁目６８番地５,,11,222,3430852,,,2024-12-16,清算の結了等,,,2015-10-05,1,,,,,キョウワショウジ,0
950,4030002091023,登記記録の閉鎖等,0,2024-12-20,2024-12-17,有限会社ウオッシュマン,,有限会社,埼玉県,越谷市,大字南荻島８６０番地の２,,11,222,3430804,,,2024-12-17,清算の結了等,,,2015-10-05,1,,,,,ウオッシュマン,0
951,4030002125144,登記記録の閉鎖等,0,2024-12-20,2024-12-17,有限会社タムラ,,有限会社,埼玉県,秩父市,大字田村４０番地,,11,207,3680000,,,2024-12-17,清算の結了等,,,2022-04-05,1,,,,,タムラ,0
952,4030003013653,登記記録の閉鎖等,0,2024-12-20,2024-12-11,合同会社友佑元,,合同会社,埼玉県,上尾市,大字瓦葺２４２１番地１５,,11,219,3620022,,,2024-12-11,清算の結了等,,,2019-06-10,1,,,,,ユウユウゲン,0
977,4080002001381,登記記録の閉鎖等,0,2024-12-20,2024-12-17,有限会社かいビジネスサポート,,有限会社,静岡県,静岡市駿河区,南町６番１６－９０４号,,22,102,4228067,,,2024-12-17,清算の結了等,,,2015-10-05,1,,,,,カイビジネスサポート,0
1023,4140002024731,登記記録の閉鎖等,0,2024-12-20,2024-12-16,有限会社エムトランス,,有限会社,兵庫県,神戸市中央区,中山手通５丁目２番５－２０１号,,28,110,6500004,,,2024-12-16,清算の結了等,,,2015-10-05,1,,,,,エムトランス,0
1028,4160002007354,登記記録の閉鎖等,0,2024-12-20,2024-12-17,有限会社藤川瓦店,,有限会社,滋賀県,長浜市,湖北町八日市７７６番地,,25,203,5290331,,,2024-12-17,清算の結了等,,,2015-10-05,1,,,,,フジカワカワラテン,0
1052,4180302009131,登記記録の閉鎖等,0,2024-12-20,2024-12-17,有限会社乗松工業所,,有限会社,愛知県,豊橋市,花田一番町１２８番地,,23,201,4418013,,,2024-12-17,清算の結了等,,,2015-10-05,1,,,,,ノリマツコウギョウショ,0
1056,4200001026490,登記記録の閉鎖等,0,2024-12-20,2024-12-16,袴建設株式会社,,株式会社,岐阜県,郡上市,白鳥町向小駄良１０２６番地の２,,21,219,5015126,,,2024-12-16,清算の結了等,,,2015-10-05,1,,,,,ハカマケンセツ,0
1057,4200002002318,登記記録の閉鎖等,0,2024-12-20,2024-12-16,有限会社正栄モデル,,有限会社,岐阜県,岐阜市,北島３丁目５番３号,,21,201,5020911,,,2024-12-16,清算の結了等,,,2015-10-05,1,,,,,ショウエイモデル,0
1058,4200005007405,登記記録の閉鎖等,0,2024-12-20,2024-12-17,特定非営利活動法人虹の里,,その他の設立登記法人,岐阜県,美濃加茂市,加茂野町今泉１３８１番地３,,21,211,5050052,,,2024-12-17,清算の結了等,,,2015-10-05,1,,,,,ニジノサト,0
1061,4220002005277,登記記録の閉鎖等,0,2024-12-20,2024-12-17,本田ハウス有限会社,,有限会社,石川県,金沢市,三十苅町丙５５番地,,17,201,9218131,,,2024-12-17,清算の結了等,,,2015-10-05,1,,,,,ホンダハウス,0
1063,4240001021455,登記記録の閉鎖等,0,2024-12-20,2024-12-18,株式会社メディカルケアサポート,,株式会社,広島県,広島市安佐南区,西原１丁目１４番７号,,34,105,7310113,,,2024-12-18,清算の結了等,,,2015-10-05,1,,,,,メディカルケアサポート,0
1066,4240002034308,登記記録の閉鎖等,0,2024-12-20,2024-12-17,有限会社明窓園,,有限会社,広島県,広島市南区,段原南１丁目１８番１６号,,34,103,7320814,,,2024-12-17,清算の結了等,,,2015-10-05,1,,,,,メイソウエン,0
1067,4240005012905,登記記録の閉鎖等,0,2024-12-20,2024-12-19,一般社団法人広島まちづくり推進協議会,,その他の設立登記法人,広島県,広島市中区,大手町５丁目３番１２号,,34,101,7300051,,,2024-12-19,清算の結了等,,,2015-10-05,1,,,,,ヒロシママチヅクリスイシンキョウギカイ,0
1070,4250002016321,登記記録の閉鎖等,0,2024-12-20,2024-12-13,有限会社オフィスウィズダム,,有限会社,山口県,周南市,楠木２丁目６番１５号,,35,215,7450831,,,2024-12-13,清算の結了等,,,2015-10-05,1,,,,,オフィスウィズダム,0
1085,4310002000186,登記記録の閉鎖等,0,2024-12-20,2024-12-18,有限会社アサヒ商事,,有限会社,長崎県,長崎市,桜馬場１丁目７番２号,,42,201,8500015,,,2024-12-18,清算の結了等,,,2015-10-05,1,,,,,アサヒショウジ,0
1088,4320002001662,登記記録の閉鎖等,0,2024-12-20,2024-12-19,有限会社お茶の香炉園,,有限会社,大分県,大分市,長浜町１丁目４番４号,,44,201,8700023,,,2024-12-19,清算の結了等,,,2015-10-05,1,,,,,,0
1096,4350002005999,登記記録の閉鎖等,0,2024-12-20,2024-12-19,有限会社サクラタウン湯地,,有限会社,宮崎県,宮崎市,学園木花台桜２丁目１５番地６,,45,201,8892154,,,2024-12-19,清算の結了等,,,2015-10-05,1,,,,,サクラタウンユジ,0
1102,4370001016624,登記記録の閉鎖等,0,2024-12-20,2024-12-13,株式会社エバーグリーン,,株式会社,宮城県,仙台市宮城野区,出花２丁目８番２号,,04,102,9830012,,,2024-12-13,清算の結了等,,,2015-10-05,1,,,,,,0
1106,4380002002044,登記記録の閉鎖等,0,2024-12-20,2024-12-10,有限会社泰斗,,有限会社,福島県,福島市,陣場町９番２１号,,07,201,9608032,,,2024-12-10,清算の結了等,,,2015-10-05,1,,,,,タイト,0
1111,4430001069186,登記記録の閉鎖等,0,2024-12-20,2024-12-18,興和建設株式会社,,株式会社,北海道,札幌市白石区,北郷五条９丁目１１番１８号メモリアルハイツ北野Ａ１０２,,01,104,0030835,,,2024-12-18,清算の結了等,,,2015-10-05,1,,,,,コウワケンセツ,0
1114,4430002046184,登記記録の閉鎖等,0,2024-12-20,2024-12-17,有限会社水野運送,,有限会社,北海道,江別市,野幌屯田町１３番の２,,01,217,0690803,,,2024-12-17,清算の結了等,,,2015-10-05,1,,,,,ミズノウンソウ,0
1121,4460302004483,登記記録の閉鎖等,0,2024-12-20,2024-12-18,有限会社フジ不動産ハウス,,有限会社,北海道,網走市,字天都山３０番地の８３,,01,211,0930044,,,2024-12-18,清算の結了等,,,2015-10-05,1,,,,,,0
1126,5010001163939,登記記録の閉鎖等,0,2024-12-20,2024-12-09,株式会社ＬＵＣＥ,,株式会社,東京都,千代田区,神田三崎町２丁目１１－１３－２０２,,13,101,1010061,,,2024-12-09,清算の結了等,,,2015-10-05,1,,,,,,0
1139,5010003035839,登記記録の閉鎖等,0,2024-12-20,2024-12-09,ｉプロパティ６合同会社,,合同会社,東京都,千代田区,神田小川町３丁目２６番８号神田小川町三丁目ビル６階,,13,101,1010052,,,2024-12-09,清算の結了等,,,2021-09-14,1,,,,,アイプロパティシックス,0
1140,5010003036903,登記記録の閉鎖等,0,2024-12-20,2024-12-09,ｉプロパティ７合同会社,,合同会社,東京都,千代田区,永田町２丁目１４番２号－３階スリーアイズキャピタル株式会社内,,13,101,1000014,,,2024-12-09,清算の結了等,,,2022-01-31,1,,,,,アイプロパティセブン,0
1145,5010401135273,登記記録の閉鎖等,0,2024-12-20,2024-12-11,株式会社アジアビジネスコーポレーション,,株式会社,東京都,港区,西新橋２丁目２番２号,,13,103,1050003,,,2024-12-11,清算の結了等,,,2017-11-30,1,,,,,アジアビジネスコーポレーション,0
1148,5010403014145,登記記録の閉鎖等,0,2024-12-20,2024-12-16,ＲＯＣＩＯ　ＪＡＰＡＮ合同会社,,合同会社,東京都,港区,南青山２丁目２番１５号ウィン青山９４２,,13,103,1070062,,,2024-12-16,合併による解散等,2010903003047,令和６年１２月１日東京都中央区銀座一丁目２２番１１号銀座大竹ビジデンス２階ＫＹＯＵＳＨＡ合同会社（2010903003047）に合併し解散,2015-12-03,1,,,,,,0
1151,5010501023361,登記記録の閉鎖等,0,2024-12-20,2024-12-10,株式会社サンエイファーム,,株式会社,東京都,台東区,東上野１丁目２７番１２号,,13,106,1100015,,,2024-12-10,清算の結了等,,,2015-10-05,1,,,,,サンエイファーム,0
1175,5011101103413,登記記録の閉鎖等,0,2024-12-20,2024-12-11,株式会社Ｖａｘｉｌａ　Ｌａｂｓ,,株式会社,東京都,新宿区,西新宿３丁目３番１３号西新宿水間ビル２Ｆ,,13,104,1600023,,,2024-12-11,清算の結了等,,,2023-06-28,1,,,,,ヴァキシララボ,0
1188,5011802030105,登記記録の閉鎖等,0,2024-12-20,2024-12-16,有限会社ネオケン,,有限会社,東京都,足立区,堀之内１丁目２番７号,,13,121,1230874,,,2024-12-16,清算の結了等,,,2015-10-05,1,,,,,ネオケン,0
1189,5012301008138,登記記録の閉鎖等,0,2024-12-20,2024-12-13,株式会社ＷＩＺコンサルティング,,株式会社,東京都,町田市,高ヶ坂５丁目２番２４号,,13,209,1940014,,,2024-12-13,清算の結了等,,,2015-10-05,1,,,,,ウィズコンサルティング,0
1192,5012402005273,登記記録の閉鎖等,0,2024-12-20,2024-12-18,有限会社東京スポーツ,,有限会社,東京都,小金井市,本町３丁目１４番１０号,,13,210,1840004,,,2024-12-18,清算の結了等,,,2015-10-05,1,,,,,トウキョウスポーツ,0
1198,5020001010776,登記記録の閉鎖等,0,2024-12-20,2024-12-10,株式会社ワーク,,株式会社,神奈川県,横浜市保土ケ谷区,仏向町５１番地,,14,106,2400044,,,2024-12-10,清算の結了等,,,2015-10-05,1,,,,,ワーク,0
1202,5020002060309,登記記録の閉鎖等,0,2024-12-20,2024-12-09,有限会社ファクトリーワン,,有限会社,神奈川県,横浜市港北区,日吉３丁目１７番１７号ネオハウス日吉１０８号,,14,109,2230061,,,2024-12-09,清算の結了等,,,2015-10-05,1,,,,,ファクトリーワン,0
1203,5020003015303,登記記録の閉鎖等,0,2024-12-20,2024-12-09,合同会社チャイプール,,合同会社,神奈川県,横浜市都筑区,東山田１丁目２８番２９号,,14,118,2240023,,,2024-12-09,清算の結了等,,,2018-12-12,1,,,,,チャイプール,0
1206,5021002066799,登記記録の閉鎖等,0,2024-12-20,2024-12-18,有限会社本間商店,,有限会社,神奈川県,横須賀市,追浜町３丁目１８番地,,14,201,2370064,,,2024-12-18,清算の結了等,,,2015-10-05,1,,,,,ホンマショウテン,0
1209,5030001004975,登記記録の閉鎖等,0,2024-12-20,2024-12-17,株式会社大和総業,,株式会社,埼玉県,さいたま市南区,南浦和１丁目３番２３号,,11,108,3360017,,,2024-12-17,清算の結了等,,,2015-10-05,1,,,,,ダイワソウギョウ,0
1213,5030001088309,登記記録の閉鎖等,0,2024-12-20,2024-12-17,株式会社スペースアドバイザー,,株式会社,埼玉県,熊谷市,見晴町２２６番地２,,11,202,3600824,,,2024-12-17,清算の結了等,,,2015-10-05,1,,,,,スペースアドバイザー,0
1216,5030001118874,登記記録の閉鎖等,0,2024-12-20,2024-12-09,株式会社ｐｅｄｒｏ,,株式会社,東京都,中央区,日本橋富沢町４番１０号日本橋人形町オフィス,,13,102,1030006,,,2024-12-09,清算の結了等,,,2017-02-24,1,,,,,ペドロ,0
1232,5050001043807,登記記録の閉鎖等,0,2024-12-20,2024-12-17,株式会社ＩＧＳエンジニアリング,,株式会社,茨城県,日立市,東金沢町１丁目３番３７,,08,202,3160014,,,2024-12-17,清算の結了等,,,2017-12-22,1,,,,,アイジーエスエンジニアリング,0
1235,5050002027528,登記記録の閉鎖等,0,2024-12-20,2024-12-16,有限会社明和商事,,有限会社,茨城県,神栖市,平泉外十二入会３０番地９,,08,232,3140145,,,2024-12-16,清算の結了等,,,2015-10-05,1,,,,,メイワショウジ,0
1238,5060003001836,登記記録の閉鎖等,0,2024-12-20,2024-12-16,合同会社トゥーレック,,合同会社,栃木県,宇都宮市,富士見が丘２丁目４番２号,,09,201,3200011,,,2024-12-16,清算の結了等,,,2015-10-05,1,,,,,トゥーレック,0
1240,5070001039324,登記記録の閉鎖等,0,2024-12-20,2024-12-17,株式会社イトウ,,株式会社,群馬県,伊勢崎市,日乃出町１１４７－５２,,10,204,3720022,,,2024-12-17,清算の結了等,,,2022-06-15,1,,,,,イトウ,0
1242,5080002000829,登記記録の閉鎖等,0,2024-12-20,2024-12-17,有限会社エイ・アンド・エイ,,有限会社,静岡県,静岡市駿河区,中田３丁目１番４０号,,22,102,4228041,,,2024-12-17,清算の結了等,,,2015-10-05,1,,,,,エイアンドエイ,0
1245,5090002008598,登記記録の閉鎖等,0,2024-12-20,2024-12-16,有限会社ブックスアマノ,,有限会社,山梨県,笛吹市,石和町市部１０３８番地,,19,211,4060031,,,2024-12-16,清算の結了等,,,2015-10-05,1,,,,,ブックスアマノ,0
1248,5110005013485,登記記録の閉鎖等,0,2024-12-20,2024-12-17,湯沢寺,,その他の設立登記法人,新潟県,南魚沼郡湯沢町,大字湯沢２５７２番地,,15,461,9496101,,,2024-12-17,清算の結了等,,,2015-10-05,1,,,,,ユザワデラ,0
1250,5120001050572,登記記録の閉鎖等,0,2024-12-20,2024-12-18,株式会社フーズシヨツプ清宏,,株式会社,大阪府,大阪市西淀川区,大和田３丁目５番１３号,,27,113,5550032,,,2024-12-18,清算の結了等,,,2015-10-05,1,,,,,フーズショップキヨヒロ,0
1251,5120001061157,登記記録の閉鎖等,0,2024-12-20,2024-11-08,エイコーグループホールディングス株式会社,,株式会社,大阪府,大阪市北区,梅田１丁目１１番４－１００３号,,27,127,5300001,,,2024-11-08,合併による解散等,2120001208504,令和６年１１月８日大阪市中央区南船場二丁目５番２号エイコービル、エイコーエナジオ株式会社（2120001208504）に合併し解散,2015-10-05,1,,,,,エイコーグループホールディングス,0
1286,5160002008194,登記記録の閉鎖等,0,2024-12-20,2024-12-18,有限会社サントラベルサービス,,有限会社,滋賀県,彦根市,後三条町６２５番地３,,25,202,5220086,,,2024-12-18,清算の結了等,,,2015-10-05,1,,,,,サントラベルサービス,0
1291,5180001099778,登記記録の閉鎖等,0,2024-12-20,2024-12-16,株式会社アイサイ食品,,株式会社,愛知県,愛西市,町方町案山子８番地６,,23,232,4968014,,,2024-12-16,清算の結了等,,,2015-10-05,1,,,,,アイサイショクヒン,0
1300,5180002035682,登記記録の閉鎖等,0,2024-12-20,2024-12-16,アイチドアー設備有限会社,,有限会社,愛知県,名古屋市北区,安井１丁目１８番４号,,23,103,4620023,,,2024-12-16,清算の結了等,,,2015-10-05,1,,,,,アイチドアーセツビ,0
1303,5180005005583,登記記録の閉鎖等,0,2024-12-20,2024-11-29,特定非営利活動法人危機管理対策相談センター,,その他の設立登記法人,愛知県,名古屋市中区,丸の内２丁目１７番１２号丸の内エステートビル６階,,23,106,4600002,,,2024-11-29,清算の結了等,,,2015-10-05,1,,,,,キキカンリタイサクソウダンセンター,0
1309,5180302007002,登記記録の閉鎖等,0,2024-12-20,2024-12-16,有限会社かね一,,有限会社,愛知県,豊橋市,牟呂外神町１４番地の１,,23,201,4418092,,,2024-12-16,清算の結了等,,,2015-10-05,1,,,,,カネイチ,0
1316,5200001041753,登記記録の閉鎖等,0,2024-12-20,2024-12-16,Ｒ＆Ａ株式会社,,株式会社,岐阜県,本巣郡北方町,柱本２丁目６番地の３,,21,421,5010446,,,2024-12-16,清算の結了等,,,2023-09-26,1,,,,,アールアンドエー,0
1326,5250002010967,登記記録の閉鎖等,0,2024-12-20,2024-12-16,有限会社マツオカ車輌,,有限会社,山口県,下関市,大字勝谷９５番地,,35,201,7510801,,,2024-12-16,清算の結了等,,,2015-10-05,1,,,,,,0
1345,5290802018363,登記記録の閉鎖等,0,2024-12-20,2024-12-17,ＣＱＣキリンヤ有限会社,,有限会社,福岡県,北九州市八幡西区,陣原５丁目１番１８号,,40,109,8070821,,,2024-12-17,清算の結了等,,,2015-10-05,1,,,,,シーキューシーキリンヤ,0
1367,5380001024914,登記記録の閉鎖等,0,2024-12-20,2024-12-06,株式会社ＨＡＫＵＢＡ,,株式会社,福島県,郡山市,堤３丁目１９１番地,,07,203,9630205,,,2024-12-06,清算の結了等,,,2015-10-05,1,,,,,ハクバ,0
1386,5500001023366,登記記録の閉鎖等,0,2024-12-20,2024-12-09,株式会社ＳＴＡＴＵＳ,,株式会社,愛媛県,新居浜市,庄内町２丁目１０番１７号,,38,205,7920811,,,2024-12-09,合併による解散等,2500002015654,令和６年１２月９日愛媛県新居浜市庄内町二丁目１０番１７号株式会社プラスター技研（2500002015654）に合併し解散,2021-04-20,1,,,,,ステイタス,0
1389,6010001055219,登記記録の閉鎖等,0,2024-12-20,2024-12-09,株式会社ピーピーエス通信社,,株式会社,東京都,中央区,日本橋大伝馬町９番４号,,13,102,1030011,,,2024-12-09,清算の結了等,,,2015-10-05,1,,,,,ピーピーエスツウシンシャ,0
1398,6010005015334,登記記録の閉鎖等,0,2024-12-20,2024-12-17,一般社団法人アンカーホールディング,,その他の設立登記法人,東京都,中央区,京橋２丁目２番１号,,13,102,1040031,,,2024-12-17,清算の結了等,,,2015-10-05,1,,,,,アンカーホールディング,0
1416,6010802021518,登記記録の閉鎖等,0,2024-12-20,2024-12-12,有限会社大武運送店,,有限会社,東京都,大田区,西糀谷１丁目１９番５号,,13,111,1440034,,,2024-12-12,清算の結了等,,,2024-11-20,1,,,,,オオタケウンソウテン,0
1423,6011001160875,登記記録の閉鎖等,0,2024-12-20,2024-11-28,倭文貿易株式会社,,株式会社,東京都,渋谷区,代官山町８－７,,13,113,1500034,,,2024-11-28,清算の結了等,,,2024-03-29,1,,,,,シズボウエキ,0
1446,6011201019095,登記記録の閉鎖等,0,2024-12-20,2024-12-19,株式会社アシスト電子化センター,,株式会社,東京都,中野区,中野４丁目１０番２号,,13,114,1640001,,,2024-12-19,清算の結了等,,,2016-05-24,1,,,,,アシストデンシカセンター,0
1453,6012402023448,登記記録の閉鎖等,0,2024-12-20,2024-12-19,有限会社デュエット,,有限会社,東京都,武蔵野市,中町３丁目７番１号,,13,203,1800006,,,2024-12-19,清算の結了等,,,2015-10-05,1,,,,,デュエット,0
1454,6012801003851,登記記録の閉鎖等,0,2024-12-20,2024-12-09,フォーラムフロンティアネットワーク株式会社,,株式会社,東京都,千代田区,神田神保町２丁目４０番地５東久ビル７階,,13,101,1010051,,,2024-12-09,清算の結了等,,,2015-10-05,1,,,,,フォーラムフロンティアネットワーク,0
1459,6012801016300,登記記録の閉鎖等,0,2024-12-20,2024-12-13,ＪＶＬニューライフ株式会社,,株式会社,東京都,日野市,栄町１丁目２番１９号,,13,212,1910001,,,2024-12-13,清算の結了等,,,2015-10-05,1,,,,,ジェイブイエルニューライフ,0
1494,6030005010390,登記記録の閉鎖等,0,2024-12-20,2024-11-18,天理教入谷分教会,,その他の設立登記法人,埼玉県,北葛飾郡松伏町,大字松伏字内前野２５９３番地２,,11,465,3430111,,,2024-11-18,合併による解散等,7010605000288,令和６年１１月１４日東京都江東区門前仲町一丁目８番６号天理教仲町分教会（7010605000288）に合併し解散,2015-10-05,1,,,,,,0
1496,6040001004924,登記記録の閉鎖等,0,2024-12-20,2024-12-13,株式会社ＪＦＥ設計スタッフ,,株式会社,千葉県,千葉市中央区,川崎町１番地,,12,101,2600835,,,2024-12-13,清算の結了等,,,2015-10-05,1,,,,,ジェイエフイーセッケイスタッフ,0
1504,6040003002273,登記記録の閉鎖等,0,2024-12-20,2024-12-16,アジアンシェリー合資会社,,合資会社,千葉県,成田市,並木町３８番地６,,12,211,2860045,,,2024-12-16,清算の結了等,,,2015-10-05,1,,,,,アジアンシェリー,0
1510,6050001028872,登記記録の閉鎖等,0,2024-12-20,2024-12-16,坂野鉄工建設株式会社,,株式会社,茨城県,つくばみらい市,十和９７１番地の２,,08,235,3002455,,,2024-12-16,清算の結了等,,,2015-10-05,1,,,,,サカノテッコウケンセツ,0
1511,6050001035613,登記記録の閉鎖等,0,2024-12-20,2024-12-16,株式会社ＲＥＴＳ・ＮＥＷＩＮＧ,,株式会社,茨城県,水戸市,吉沢町２７３番地１,,08,201,3100845,,,2024-12-16,清算の結了等,,,2015-10-05,1,,,,,レッツニューイング,0
1516,6060001018559,登記記録の閉鎖等,0,2024-12-20,2024-12-17,株式会社ケーコム,,株式会社,栃木県,足利市,小俣町２６９０番地の１,,09,202,3260141,,,2024-12-17,清算の結了等,,,2015-10-05,1,,,,,ケーコム,0
1524,6080001016049,登記記録の閉鎖等,0,2024-12-20,2024-12-17,株式会社安心総業,,株式会社,静岡県,焼津市,中新田１５２８番地,,22,212,4250068,,,2024-12-17,清算の結了等,,,2015-10-05,1,,,,,アンシンソウギョウ,0
1532,6100001011121,登記記録の閉鎖等,0,2024-12-20,2024-12-16,丸子精工株式会社,,株式会社,長野県,上田市,下丸子３２８番地１,,20,203,3860406,,,2024-12-16,清算の結了等,,,2015-10-05,1,,,,,マルコセイコウ,0
1533,6100002004421,登記記録の閉鎖等,0,2024-12-20,2024-12-16,有限会社フライングスコット,,有限会社,長野県,長野市,居町２９番地,,20,201,3800901,,,2024-12-16,清算の結了等,,,2015-10-05,1,,,,,フライングスコット,0
1536,6110002021622,登記記録の閉鎖等,0,2024-12-20,2024-12-13,株式会社小口川管財,,株式会社,新潟県,村上市,小口川字笛吹川端３３０番地,,15,212,9593446,,,2024-12-13,清算の結了等,,,2015-10-05,1,,,,,コグチガワカンザイ,0
1545,6120001255402,登記記録の閉鎖等,0,2024-12-20,2024-12-17,ソランテック株式会社,,株式会社,大阪府,大阪市中央区,平野町４丁目６番１６号,,27,128,5410046,,,2024-12-17,清算の結了等,,,2023-06-02,1,,,,,ソランテック,0
1552,6130001056345,登記記録の閉鎖等,0,2024-12-20,2024-12-19,株式会社ふよこファクトリー,,株式会社,奈良県,天理市,福知堂町１４９番地１,,29,204,6320045,,,2024-12-19,清算の結了等,,,2015-11-13,1,,,,,フヨコファクトリー,0
1561,6140002039728,登記記録の閉鎖等,0,2024-12-20,2024-12-16,有限会社芦澤,00041022,有限会社,兵庫県,尼崎市,武庫之荘東１丁目２０番６号,,28,202,6610032,,,2024-12-16,清算の結了等,,,2015-10-05,1,,,,,アシザワ,0
1565,6160002000712,登記記録の閉鎖等,0,2024-12-20,2024-12-16,有限会社小林自転車商会,,有限会社,滋賀県,大津市,中央２丁目１番４号,,25,201,5200043,,,2024-12-16,清算の結了等,,,2015-10-05,1,,,,,コバヤシジテンシャショウカイ,0
1567,6170002000488,登記記録の閉鎖等,0,2024-12-20,2024-12-19,有限会社上田鉄工所,,有限会社,和歌山県,和歌山市,加納３２６番地の１４,,30,201,6408391,,,2024-12-19,清算の結了等,,,2015-10-05,1,,,,,ウエダテッコウショ,0
1577,6180002084737,登記記録の閉鎖等,0,2024-12-20,2024-12-16,有限会社共和建設工業,,有限会社,愛知県,大府市,北崎町井田６７番地,,23,223,4740001,,,2024-12-16,清算の結了等,,,2015-10-05,1,,,,,キョウワケンセツコウギョウ,0
1580,6180005009402,登記記録の閉鎖等,0,2024-12-20,2024-12-16,特定非営利活動法人犬山城下町を守る会,,その他の設立登記法人,愛知県,犬山市,大字犬山字東古券３９９番地の３,,23,215,4840083,,,2024-12-16,清算の結了等,,,2015-10-05,1,,,,,イヌヤマジョウカマチヲマモルカイ,0
1581,6180301008611,登記記録の閉鎖等,0,2024-12-20,2024-12-09,株式会社大村設計,,株式会社,愛知県,豊橋市,大村町字橋元６９番地,,23,201,4400081,,,2024-12-09,清算の結了等,,,2015-10-05,1,,,,,オオムラセッケイ,0
1590,6190002008224,登記記録の閉鎖等,0,2024-12-20,2024-12-12,有限会社井爪商店,,有限会社,三重県,伊勢市,河崎２丁目６番８号,,24,203,5160009,,,2024-12-12,清算の結了等,,,2015-10-05,1,,,,,イズメショウテン,0
1594,6200005002528,登記記録の閉鎖等,0,2024-12-20,2024-11-15,天理教名孝心分教会,,その他の設立登記法人,岐阜県,各務原市,蘇原吉新町２丁目５５番地,,21,213,5040844,,,2024-11-15,合併による解散等,2180005000810,令和６年１１月７日名古屋市千種区春岡二丁目８番１０号天理教名京大教会（2180005000810）に合併し解散,2015-10-05,1,,,,,テンリキョウメイコウシンブンキョウカイ,0
1599,6230001016561,登記記録の閉鎖等,0,2024-12-20,2024-12-18,株式会社あすなろエディケーション,,株式会社,富山県,富山市,元町１丁目１番１８号,,16,201,9300033,,,2024-12-18,清算の結了等,,,2016-07-25,1,,,,,アスナロエディケーション,0
1602,6260003002342,登記記録の閉鎖等,0,2024-12-20,2024-12-17,合同会社てらすてらす,,合同会社,岡山県,久米郡美咲町,藤原１２５番地２６,,33,666,7081534,,,2024-12-17,清算の結了等,,,2017-08-16,1,,,,,テラステラス,0
1609,6290001084529,登記記録の閉鎖等,0,2024-12-20,2024-12-02,株式会社ＮＯＩＲ,,株式会社,福岡県,福岡市中央区,平尾２丁目８番１２号４階,,40,133,8100014,,,2024-12-02,清算の結了等,,,2019-03-13,1,,,,,ノワール,0
1614,6330002010000,登記記録の閉鎖等,0,2024-12-20,2024-12-16,有限会社丸信花卉組合,,有限会社,熊本県,熊本市南区,南高江６丁目８番７号,,43,104,8614106,,,2024-12-16,清算の結了等,,,2015-10-05,1,,,,,マルシンカキクミアイ,0
1615,6330003001931,登記記録の閉鎖等,0,2024-12-20,2024-12-12,合資会社菊阿商事,,合資会社,熊本県,菊池郡大津町,大字室字新田２６１番地１１,,43,403,8691235,,,2024-12-12,清算の結了等,,,2015-10-05,1,,,,,キクアショウジ,0
1620,6360005002017,登記記録の閉鎖等,0,2024-12-20,2024-12-18,医療法人美原クリニック,,その他の設立登記法人,沖縄県,沖縄市,字松本９２２番地,,47,211,9042151,,,2024-12-18,清算の結了等,,,2015-10-05,1,,,,,ミハラクリニック,0
1627,6380001029912,登記記録の閉鎖等,0,2024-12-20,2024-12-09,株式会社１０Ｂｕｉｌｄ　Ｆａｒｍ．ＪＰ,,株式会社,福島県,双葉郡川内村,大字上川内字炭焼場５０７番地,,07,544,9791201,,,2024-12-09,清算の結了等,,,2019-04-05,1,,,,,,0
1636,6460403000231,登記記録の閉鎖等,0,2024-12-20,2024-12-17,ＨＭＣ　ＣＡＲＥ合同会社,,合同会社,北海道,根室市,光和町２丁目３４番地,,01,223,0870027,,,2024-12-17,清算の結了等,,,2019-03-15,1,,,,,エイチエムシーケア,0
1638,6470001002918,登記記録の閉鎖等,0,2024-12-20,2024-12-09,東急建販株式会社,,株式会社,香川県,高松市,松島町２丁目２０番９号,,37,201,7600068,,,2024-12-09,清算の結了等,,,2015-10-05,1,,,,,トウキュウケンパン,0
1645,7010001208873,登記記録の閉鎖等,0,2024-12-20,2024-12-02,オーナーズソリューション株式会社,,株式会社,東京都,中央区,新富１丁目９番１号新富１９１ビル２階,,13,102,1040041,,,2024-12-02,合併による解散等,4011001069689,令和６年１２月１日東京都中央区新富一丁目９番１号新富１９１ビル２階ゴールドスワンキャピタル株式会社（4011001069689）に合併し解散,2020-04-08,1,,,,,オーナーズソリューション,0
1654,7010005035934,登記記録の閉鎖等,0,2024-12-20,2024-12-17,行政書士法人アルテミス,,その他の設立登記法人,東京都,中野区,鷺宮１丁目３番１号ＮＴロイヤルマンション１Ｆ,,13,114,1650032,,,2024-12-17,清算の結了等,,,2022-12-21,1,,,,,アルテミス,0
1673,7010603004811,登記記録の閉鎖等,0,2024-12-20,2024-12-16,高柳事務所合同会社,,合同会社,東京都,江東区,海辺１７番４号,,13,108,1350012,,,2024-12-16,清算の結了等,,,2015-10-05,1,,,,,タカヤナギジムショ,0
1681,7010902006987,登記記録の閉鎖等,0,2024-12-20,2024-12-17,有限会社城南ダイヤル製作所,,有限会社,東京都,世田谷区,喜多見２丁目８番２８号,,13,112,1570067,,,2024-12-17,清算の結了等,,,2015-10-05,1,,,,,ジョウナンダイヤルセイサクジョ,0
1698,7011101093966,登記記録の閉鎖等,0,2024-12-20,2024-12-02,株式会社メタメタ,,株式会社,東京都,渋谷区,宇田川町１３番１１号,,13,113,1500042,,,2024-12-02,合併による解散等,9370001023327,令和６年１２月１日東京都渋谷区宇田川町１３番１１号株式会社クラウドエヌ（9370001023327）に合併し解散,2021-02-08,1,,,,,メタメタ,0
1699,7011101099716,登記記録の閉鎖等,0,2024-12-20,2024-12-05,スペンモ・テクノロジー・ジャパン株式会社,,株式会社,東京都,港区,北青山１丁目３番１号アールキューブ青山３階,,13,103,1070061,,,2024-12-05,清算の結了等,,,2022-08-01,1,,,,,スペンモテクノロジージャパン,0
1702,7011202004896,登記記録の閉鎖等,0,2024-12-20,2024-12-19,有限会社はら商会,,有限会社,東京都,中野区,弥生町５丁目４番１６号,,13,114,1640013,,,2024-12-19,清算の結了等,,,2015-10-05,1,,,,,ハラショウカイ,0
1705,7011501025437,登記記録の閉鎖等,0,2024-12-20,2024-12-16,株式会社アッシュ・リンクス,,株式会社,東京都,荒川区,東日暮里４丁目１９－１０第２ＣＨビル３階,,13,118,1160014,,,2024-12-16,清算の結了等,,,2019-12-23,1,,,,,アッシュリンクス,0
1706,7011501030057,登記記録の閉鎖等,0,2024-12-20,2024-12-16,株式会社Ｒｅｖｉｖｅ,,株式会社,東京都,北区,浮間１丁目１番１４号リムジンビル２０８,,13,117,1150051,,,2024-12-16,清算の結了等,,,2023-11-29,1,,,,,リバイブ,0
1709,7011502014703,登記記録の閉鎖等,0,2024-12-20,2024-12-16,有限会社ＨＩＳ,,有限会社,東京都,荒川区,町屋５丁目７番２号,,13,118,1160001,,,2024-12-16,清算の結了等,,,2015-10-05,1,,,,,ヒズ,0
1715,7012301007591,登記記録の閉鎖等,0,2024-12-20,2024-12-09,株式会社ダイ・プランニング,,株式会社,東京都,千代田区,岩本町３丁目４番９号ＨＯＰＥＣＩＴＹ秋葉原４０５,,13,101,1010032,,,2024-12-09,清算の結了等,,,2015-10-05,1,,,,,,0
1719,7012402021954,登記記録の閉鎖等,0,2024-12-20,2024-12-20,有限会社ビットコンサルティング,,有限会社,東京都,三鷹市,井の頭３丁目９番２５号,,13,204,1810001,,,2024-12-20,清算の結了等,,,2015-10-05,1,,,,,ビットコンサルティング,0
1723,7013202011798,登記記録の閉鎖等,0,2024-12-20,2024-11-28,有限会社Ｊ・Ｙ・Ｓプランニング,,有限会社,東京都,目黒区,平町１丁目１７番１２号,,13,110,1520032,,,2024-11-28,清算の結了等,,,2015-10-05,1,,,,,ジェイワイエスプランニング,0
1728,7020001144647,登記記録の閉鎖等,0,2024-12-20,2024-12-10,ＴＮＬ　Ｍｅｄｉａ株式会社,,株式会社,神奈川県,横浜市中区,相生町１丁目７番地和同ビル,,14,104,2310012,,,2024-12-10,清算の結了等,,,2022-01-06,1,,,,,ティーエヌエルメディア,0
1729,7020003022223,登記記録の閉鎖等,0,2024-12-20,2024-12-06,Ｃｏｎｔｅ　Ｍｕｓｉｃ　Ｇｒｏｕｐ合同会社,,合同会社,神奈川県,川崎市宮前区,宮崎２丁目２号７番,,14,136,2160033,,,2024-12-06,清算の結了等,,,2022-08-12,1,,,,,コンテミュージックグループ,0
1731,7021001005707,登記記録の閉鎖等,0,2024-12-20,2024-12-11,株式会社ｕＤｅｓｉｇｎ,,株式会社,東京都,新宿区,市谷仲之町２番３８号,,13,104,1620064,,,2024-12-11,清算の結了等,,,2015-10-05,1,,,,,ユーデザイン,0
1744,7030002106141,登記記録の閉鎖等,0,2024-12-20,2024-12-17,有限会社伴不動産,,有限会社,埼玉県,さいたま市緑区,東浦和４丁目１８番地１３,,11,109,3360926,,,2024-12-17,清算の結了等,,,2015-10-05,1,,,,,バンフドウサン,0
1747,7030005009408,登記記録の閉鎖等,0,2024-12-20,2024-12-16,社会福祉法人慈光会,,その他の設立登記法人,埼玉県,児玉郡神川町,大字渡瀬６５９番地１,,11,383,3670301,,,2024-12-16,清算の結了等,,,2015-10-05,1,,,,,ジコウカイ,0
1761,7060002010150,登記記録の閉鎖等,0,2024-12-20,2024-12-17,有限会社宇都宮安田保険事務所,,有限会社,栃木県,宇都宮市,松風台１１５９番地２１１,,09,201,3210413,,,2024-12-17,清算の結了等,,,2015-10-05,1,,,,,ウツノミヤヤスダホケンジムショ,0
1762,7060002022245,登記記録の閉鎖等,0,2024-12-20,2024-12-13,有限会社サンライク栃木,,有限会社,栃木県,那須塩原市,無栗屋４８５番地,,09,213,3293125,,,2024-12-13,清算の結了等,,,2015-10-05,1,,,,,サンライクトチギ,0
1769,7080101015651,登記記録の閉鎖等,0,2024-12-20,2024-12-13,株式会社パドック,,株式会社,静岡県,富士宮市,青木３２８番地の１２,,22,207,4180047,,,2024-12-13,清算の結了等,,,2015-10-05,1,,,,,,0
1781,7120001033740,登記記録の閉鎖等,0,2024-12-20,2024-12-12,株式会社松前屋Ｋｉｔｃｈｅｎ＆Ｃｏ．,,株式会社,大阪府,大阪市住吉区,万代東４丁目４番１０号,,27,120,5580056,,,2024-12-12,合併による解散等,5120001089826,令和６年１２月１２日大阪市中央区心斎橋筋二丁目８番１号株式会社松前屋（5120001089826）に合併し解散,2015-10-05,1,,,,,マツマエヤキッチンアンドコウ,0
1796,7120003018491,登記記録の閉鎖等,0,2024-12-20,2024-12-18,合同会社ＥＳＥシステム,,合同会社,大阪府,大阪市北区,中之島４丁目３番２０－２４０７号,,27,127,5300005,,,2024-12-18,清算の結了等,,,2020-12-04,1,,,,,イーエスーイーシステム,0
1799,7120005022707,登記記録の閉鎖等,0,2024-12-20,2024-11-18,税理士法人Ｂｅｓｏ,,その他の設立登記法人,大阪府,大阪市北区,曾根崎新地１丁目１３番２２号御堂筋フロンティア１階ＷｅＷｏｒｋ,,27,127,5300002,,,2024-11-18,合併による解散等,3290005017009,令和６年１１月１日福岡市中央区天神四丁目３番３０号税理士法人アーリークロス（3290005017009）に合併し解散,2022-01-17,1,,,,,ベソ,0
1807,7140003003995,登記記録の閉鎖等,0,2024-12-20,2024-12-19,合資会社大田建材,,合資会社,兵庫県,神戸市東灘区,住吉宮町６丁目１８番１０号５０１,,28,101,6580053,,,2024-12-19,清算の結了等,,,2015-10-05,1,,,,,オオタケンザイ,0
1812,7180001091155,登記記録の閉鎖等,0,2024-12-20,2024-12-16,株式会社コシノ,,株式会社,愛知県,名古屋市港区,明正１丁目２０５番地２,,23,111,4550806,,,2024-12-16,清算の結了等,,,2015-10-05,1,,,,,コシノ,0
1818,7180002029311,登記記録の閉鎖等,0,2024-12-20,2024-12-13,モロサダグリーンテック有限会社,,有限会社,愛知県,名古屋市中村区,名駅南１丁目１番１１号,,23,105,4500003,,,2024-12-13,清算の結了等,,,2015-10-05,1,,,,,モロサダグリーンテック,0
1822,7180301010979,登記記録の閉鎖等,0,2024-12-20,2024-12-17,株式会社スタイ興産,,株式会社,愛知県,蒲郡市,豊岡町藪田３１番地２,,23,214,4430011,,,2024-12-17,清算の結了等,,,2015-10-05,1,,,,,スタイコウサン,0
1824,7190002016291,登記記録の閉鎖等,0,2024-12-20,2024-12-16,有限会社一番街山城屋,,有限会社,三重県,桑名市,大字桑名字十二番４７６番地の６２,,24,205,5110009,,,2024-12-16,清算の結了等,,,2015-10-05,1,,,,,イチバンガイヤマシロヤ,0
1826,7200001008049,登記記録の閉鎖等,0,2024-12-20,2024-12-18,常富屋クリーニング株式会社,,株式会社,岐阜県,岐阜市,柳津町丸野５丁目６番地の１,,21,201,5016115,,,2024-12-18,清算の結了等,,,2015-10-05,1,,,,,,0
1831,7200002014748,登記記録の閉鎖等,0,2024-12-20,2024-12-16,有限会社海津交通,,有限会社,岐阜県,海津市,南濃町田鶴５６５番地,,21,221,5030533,,,2024-12-16,清算の結了等,,,2015-10-05,1,,,,,カイズコウツウ,0
1832,7210002007073,登記記録の閉鎖等,0,2024-12-20,2024-12-19,有限会社神戸屋,,有限会社,福井県,坂井市,三国町北本町１丁目４番４５号,,18,210,9130046,,,2024-12-19,清算の結了等,,,2015-10-05,1,,,,,コウベヤ,0
1838,7250001005124,登記記録の閉鎖等,0,2024-12-20,2024-12-06,植田商事株式会社,,株式会社,山口県,下関市,秋根西町１丁目９番２３号,,35,201,7510873,,,2024-12-06,清算の結了等,,,2015-10-05,1,,,,,ウエダショウジ,0
1867,7370002007999,登記記録の閉鎖等,0,2024-12-20,2024-12-16,有限会社武田餅店,,有限会社,宮城県,仙台市宮城野区,宮城野１丁目５番２３号,,04,102,9830045,,,2024-12-16,清算の結了等,,,2015-10-05,1,,,,,タケダモチテン,0
1868,7370103000738,登記記録の閉鎖等,0,2024-12-20,2024-12-11,合名会社小村花咲,,合名会社,宮城県,刈田郡蔵王町,大字小村崎字四方屋敷６番地,,04,301,9890841,,,2024-12-11,清算の結了等,,,2015-10-05,1,,,,,,0
1871,7380001003742,登記記録の閉鎖等,0,2024-12-20,2024-12-06,株式会社ブレラ,,株式会社,福島県,福島市,荒井字横塚３番地１９３,,07,201,9602156,,,2024-12-06,清算の結了等,,,2015-10-05,1,,,,,,0
1873,7380001012388,登記記録の閉鎖等,0,2024-12-20,2024-12-09,株式会社いいざわ,,株式会社,福島県,いわき市,小川町上平字以後内４０番地,,07,204,9793112,,,2024-12-09,清算の結了等,,,2015-10-05,1,,,,,,0
1874,7380001014938,登記記録の閉鎖等,0,2024-12-20,2024-12-09,いわき愛林株式会社,,株式会社,福島県,いわき市,好間町川中子字加賀分８０番地の５,,07,204,9708015,,,2024-12-09,清算の結了等,,,2015-10-05,1,,,,,イワキアイリン,0
1875,7380001018708,登記記録の閉鎖等,0,2024-12-20,2024-12-04,丸石商事株式会社,,株式会社,福島県,喜多方市,字三丁目４８２３番地,,07,208,9660817,,,2024-12-04,清算の結了等,,,2015-10-05,1,,,,,マルイシショウジ,0
1881,7400001008318,登記記録の閉鎖等,0,2024-12-20,2024-12-16,株式会社クリエイト北上,,株式会社,岩手県,北上市,本通り１丁目１番１３号,,03,206,0240094,,,2024-12-16,清算の結了等,,,2015-10-05,1,,,,,クリエイトキタカミ,0
1884,7420001018050,登記記録の閉鎖等,0,2024-12-20,2024-12-17,株式会社スマートほけんサービス,,株式会社,青森県,むつ市,中央２丁目３０番１９号,,02,208,0350073,,,2024-12-17,清算の結了等,,,2022-10-31,1,,,,,スマートホケンサービス,0
1888,7430005012131,登記記録の閉鎖等,0,2024-12-20,2024-12-17,一般社団法人ワインラヴァー北海道,,その他の設立登記法人,北海道,岩見沢市,一条西９丁目１番地３,,01,210,0680021,,,2024-12-17,清算の結了等,,,2015-10-05,1,,,,,ワインラヴァーホッカイドウ,0
1889,7440003001531,登記記録の閉鎖等,0,2024-12-20,2024-12-18,合同会社函館ＩＭＡＩ,,合同会社,北海道,函館市,青柳町３９番６号,,01,202,0400044,,,2024-12-18,清算の結了等,,,2023-08-03,1,,,,,イマイ,0
1893,7500001019734,登記記録の閉鎖等,0,2024-12-20,2024-12-17,株式会社ＭＯＲＩ,,株式会社,愛媛県,喜多郡内子町,内子８７３番地１４,,38,422,7913301,,,2024-12-17,清算の結了等,,,2016-04-12,1,,,,,モリ,0
1897,8010001189072,登記記録の閉鎖等,0,2024-12-20,2024-12-09,株式会社サラリ,,株式会社,東京都,千代田区,神田司町２丁目１３番地,,13,101,1010048,,,2024-12-09,清算の結了等,,,2018-01-22,1,,,,,サラリ,0
1908,8010003036322,登記記録の閉鎖等,0,2024-12-20,2024-12-09,合同会社ほうじ茶スタジオ,,合同会社,東京都,中央区,銀座１丁目２２－１１銀座大竹ビジデンス２階,,13,102,1040061,,,2024-12-09,清算の結了等,,,2021-11-19,1,,,,,ホウジチャスタジオ,0
1928,8010501034117,登記記録の閉鎖等,0,2024-12-20,2024-12-17,株式会社エルピス,,株式会社,東京都,台東区,上野５丁目２５番６号,,13,106,1100005,,,2024-12-17,合併による解散等,7010001107530,令和６年１２月３日東京都中央区日本橋三丁目１番１５号株式会社一條企画（7010001107530）に合併し解散,2015-10-05,1,,,,,エルピス,0
1939,8010803004445,登記記録の閉鎖等,0,2024-12-20,2024-12-11,合同会社諭吉,,合同会社,東京都,大田区,蒲田５丁目２０番３号,,13,111,1440052,,,2024-12-11,清算の結了等,,,2023-02-08,1,,,,,ユキチ,0
1943,8010902002283,登記記録の閉鎖等,0,2024-12-20,2024-12-16,有限会社エイチアンドエスホーム,,有限会社,東京都,世田谷区,奥沢２丁目１２番６号,,13,112,1580083,,,2024-12-16,清算の結了等,,,2015-10-05,1,,,,,エイチアンドエスホーム,0
1948,8011001124192,登記記録の閉鎖等,0,2024-12-20,2024-12-02,Ｇｒｏｗｔｈ　Ｓｗａｎ　Ｅｓｔａｔｅ株式会社,,株式会社,東京都,中央区,新富１丁目９番１号新富１９１ビル２階,,13,102,1040041,,,2024-12-02,合併による解散等,4011001069689,令和６年１２月１日東京都中央区新富一丁目９番１号新富１９１ビル２階ゴールドスワンキャピタル株式会社（4011001069689）に合併し解散,2018-09-12,1,,,,,グロウススワンエステート,0
1980,8012302002616,登記記録の閉鎖等,0,2024-12-20,2024-12-13,有限会社杉山商店,,有限会社,東京都,町田市,小山町７７２番地４,,13,209,1940212,,,2024-12-13,清算の結了等,,,2015-10-05,1,,,,,スギヤマショウテン,0
1987,8013101008259,登記記録の閉鎖等,0,2024-12-20,2024-12-17,ネットプレスト株式会社,,株式会社,東京都,青梅市,千ヶ瀬町１丁目２７番地の１８,,13,205,1980043,,,2024-12-17,清算の結了等,,,2020-01-24,1,,,,,ネットプレスト,0
1993,8020002014063,登記記録の閉鎖等,0,2024-12-20,2024-12-11,有限会社黒沼製作所,,有限会社,神奈川県,横浜市青葉区,美しが丘４丁目５２番地１１,,14,117,2250002,,,2024-12-11,清算の結了等,,,2015-10-05,1,,,,,クロヌマセイサクショ,0
1994,8020002033996,登記記録の閉鎖等,0,2024-12-20,2024-12-12,新生堂有限会社,,有限会社,神奈川県,横浜市港北区,菊名４丁目１番６号,,14,109,2220011,,,2024-12-12,清算の結了等,,,2015-10-05,1,,,,,シンセイドウ,0
2005,8030001085229,登記記録の閉鎖等,0,2024-12-20,2024-12-16,株式会社真澤工務店,00015463,株式会社,埼玉県,熊谷市,押切２５２４番地４,,11,202,3600111,,,2024-12-16,清算の結了等,,,2015-10-05,1,,,,,マザワコウムテン,0
2007,8030001123640,登記記録の閉鎖等,0,2024-12-20,2024-12-13,本和ソリューションズ株式会社,,株式会社,埼玉県,さいたま市大宮区,桜木町１丁目１１番地１５（２３０３号）,,11,103,3300854,,,2024-12-13,合併による解散等,4030001004349,令和６年１２月１３日埼玉県さいたま市大宮区桜木町四丁目４６３番地株式会社ジャスティス（4030001004349）に合併し解散,2017-12-26,1,,,,,ホンワソリューションズ,0
2013,8030002121924,登記記録の閉鎖等,0,2024-12-20,2024-12-16,小鹿野石油有限会社,,有限会社,埼玉県,秩父郡小鹿野町,小鹿野５６２番地,,11,365,3680105,,,2024-12-16,清算の結了等,,,2015-10-05,1,,,,,オガノセキユ,0
2024,8040001078099,登記記録の閉鎖等,0,2024-12-20,2024-12-13,株式会社ｒｔｉ技研,,株式会社,千葉県,千葉市美浜区,真砂４丁目４番１３棟６０２号,,12,106,2610011,,,2024-12-13,清算の結了等,,,2015-10-05,1,,,,,アールティーアイギケン,0
2027,8040001119786,登記記録の閉鎖等,0,2024-12-20,2024-12-13,株式会社Ｗｉｔｈ　Ｆａｒｍ,,株式会社,千葉県,いすみ市,須賀谷２８５７番地１,,12,238,2980106,,,2024-12-13,清算の結了等,,,2021-08-12,1,,,,,ウィズファーム,0
2031,8040002040801,登記記録の閉鎖等,0,2024-12-20,2024-12-13,有限会社釼持商店,,有限会社,千葉県,浦安市,堀江１丁目６番１号,,12,227,2790041,,,2024-12-13,清算の結了等,,,2015-10-05,1,,,,,ケンモチショウテン,0
2038,8060001014283,登記記録の閉鎖等,0,2024-12-20,2024-12-06,山栄建設株式会社,,株式会社,栃木県,小山市,大字出井２１５１番地３４,,09,208,3230808,,,2024-12-06,清算の結了等,,,2015-10-05,1,,,,,サンエイケンセツ,0
2045,8070002010586,登記記録の閉鎖等,0,2024-12-20,2024-12-17,株式会社ティーケーエンジニアリング,,株式会社,群馬県,高崎市,新保町１０６４番地２４,,10,202,3700018,,,2024-12-17,清算の結了等,,,2015-10-05,1,,,,,ティーケーエンジニアリング,0
2050,8080402005409,登記記録の閉鎖等,0,2024-12-20,2024-12-11,株式会社リアナシティ,,株式会社,東京都,新宿区,西新宿１丁目２５番１号新宿センタービル３階,,13,104,1600023,,,2024-12-11,清算の結了等,,,2015-10-05,1,,,,,リアナシティ,0
2054,8100003004798,登記記録の閉鎖等,0,2024-12-20,2024-12-17,合同会社千年志しの会,,合同会社,長野県,長野市,大字風間下河原２１８０番地１,,20,201,3810023,,,2024-12-17,清算の結了等,,,2017-10-16,1,,,,,センネンココロザシノカイ,0
2081,8122002012763,登記記録の閉鎖等,0,2024-12-20,2024-12-17,有限会社野辺建材,,有限会社,大阪府,四條畷市,砂３丁目５番１１号,,27,229,5750001,,,2024-12-17,清算の結了等,,,2015-10-05,1,,,,,ノベケンザイ,0
2088,8140002055509,登記記録の閉鎖等,0,2024-12-20,2024-12-16,有限会社アサノ・インターコム,,有限会社,兵庫県,西宮市,柳本町５番１号,,28,204,6620866,,,2024-12-16,清算の結了等,,,2015-10-05,1,,,,,アサノインターコム,0
2096,8170003002085,登記記録の閉鎖等,0,2024-12-20,2024-12-19,合同会社ＨＯＬＬＯＷ,,合同会社,和歌山県,新宮市,鴻田３丁目２番２－５０２,,30,207,6470082,,,2024-12-19,清算の結了等,,,2024-08-01,1,,,,,ホロー,0
2098,8180001005626,登記記録の閉鎖等,0,2024-12-20,2024-12-10,株式会社メイコー,,株式会社,神奈川県,横浜市都筑区,仲町台４丁目２０番２―６０１号,,14,118,2240041,,,2024-12-10,清算の結了等,,,2015-10-05,1,,,,,メイコー,0
2105,8180005009409,登記記録の閉鎖等,0,2024-12-20,2024-12-16,特定非営利活動法人犬山学術文化交流センター,,その他の設立登記法人,愛知県,犬山市,松本町４丁目２１番地,,23,215,4840086,,,2024-12-16,清算の結了等,,,2015-10-05,1,,,,,イヌヤマガクジュツブンカコウリュウセンター,0
2110,8180302006991,登記記録の閉鎖等,0,2024-12-20,2024-12-18,有限会社カトリーヌ,,有限会社,愛知県,豊橋市,下地町字五貫３８番地,,23,201,4400083,,,2024-12-18,清算の結了等,,,2015-10-05,1,,,,,カトリーヌ,0
2112,8180305009455,登記記録の閉鎖等,0,2024-12-20,2024-12-18,特定非営利活動法人ＰＣｄｏ,,その他の設立登記法人,愛知県,岡崎市,箱柳町字猫沢２３番地８,,23,202,4440001,,,2024-12-18,清算の結了等,,,2023-03-27,1,,,,,ピーシードゥ,0
2120,8220002010901,登記記録の閉鎖等,0,2024-12-20,2024-12-16,有限会社デュラン,,有限会社,石川県,小松市,今江町８丁目４８３番地,,17,203,9230964,,,2024-12-16,清算の結了等,,,2015-10-05,1,,,,,デュラン,0
2123,8240002031516,登記記録の閉鎖等,0,2024-12-20,2024-12-17,有限会社タバタ技研,,有限会社,広島県,庄原市,東本町１丁目８番１８号,,34,210,7270011,,,2024-12-17,清算の結了等,,,2015-10-05,1,,,,,タバタギケン,0
2139,8290001099962,登記記録の閉鎖等,0,2024-12-20,2024-12-02,株式会社ＴＳ,,株式会社,福岡県,久留米市,中央町１９番地１,,40,203,8300023,,,2024-12-02,合併による解散等,7290003009598,令和６年１２月１日福岡県久留米市中央町１９番地１株式会社ＣＯＬＯ（7290003009598）に合併し解散,2022-12-22,1,,,,,,0
2147,8290801015945,登記記録の閉鎖等,0,2024-12-20,2024-11-01,株式会社ＳＨＩ－ＯＮ,,株式会社,福岡県,行橋市,大字上津熊１５０番地１,,40,213,8240064,,,2024-11-01,合併による解散等,3290802022375,令和６年１１月１日福岡県行橋市大字上津熊１５０番地の１株式会社第一自動車（3290802022375）に合併し解散,2015-10-05,1,,,,,シオン,0
2150,8290802012636,登記記録の閉鎖等,0,2024-12-20,2024-12-16,有限会社サン・ビデオアート,,有限会社,福岡県,遠賀郡岡垣町,大字黒山１３１０番地,,40,383,8114212,,,2024-12-16,清算の結了等,,,2015-10-05,1,,,,,サンビデオアート,0
2162,8370001043342,登記記録の閉鎖等,0,2024-12-20,2024-12-16,株式会社サトテック,,株式会社,宮城県,仙台市青葉区,みやぎ台４丁目２番５号,,04,101,9893214,,,2024-12-16,清算の結了等,,,2018-07-27,1,,,,,サトテック,0
2165,8380002034661,登記記録の閉鎖等,0,2024-12-20,2024-12-09,有限会社岡江建設,,有限会社,福島県,喜多方市,字桜ガ丘１丁目１２７番地,,07,208,9660802,,,2024-12-09,清算の結了等,,,2015-10-05,1,,,,,オカエケンセツ,0
2168,8400002011096,登記記録の閉鎖等,0,2024-12-20,2024-12-10,有限会社岩泉霊柩社,,有限会社,岩手県,下閉伊郡岩泉町,岩泉字松橋７番地,,03,483,0270501,,,2024-12-10,清算の結了等,,,2015-10-05,1,,,,,イワイズミレイキュウシャ,0
2177,8430002066113,登記記録の閉鎖等,0,2024-12-20,2024-12-13,有限会社室蘭ランプテーション,,有限会社,北海道,室蘭市,中島町１丁目１８番１８号,,01,205,0500074,,,2024-12-13,清算の結了等,,,2015-10-05,1,,,,,,0
2180,8440005002270,登記記録の閉鎖等,0,2024-12-20,2024-12-03,一般社団法人トーラスホールディングス,,その他の設立登記法人,宮城県,白石市,大平森合字森合沖１２１番地,,04,206,9890217,,,2024-12-03,清算の結了等,,,2015-10-05,1,,,,,トーラスホールディングス,0
2182,8450001012231,登記記録の閉鎖等,0,2024-12-20,2024-12-16,株式会社丸慎,,株式会社,北海道,稚内市,緑５丁目３４番６号,,01,214,0970004,,,2024-12-16,清算の結了等,,,2017-11-10,1,,,,,マルシン,0
2196,9010001170980,登記記録の閉鎖等,0,2024-12-20,2024-12-09,株式会社モノケロウス,,株式会社,東京都,中央区,東日本橋１丁目９番２号,,13,102,1030004,,,2024-12-09,清算の結了等,,,2015-10-19,1,,,,,モノケロウス,0
2202,9010003040736,登記記録の閉鎖等,0,2024-12-20,2024-12-17,グロービ・ジャパン合同会社,,合同会社,東京都,府中市,府中町１丁目２５番地の１２,,13,206,1830055,,,2024-12-17,合併による解散等,3012401020085,令和６年１２月１７日東京都府中市府中町一丁目２５番地の１２株式会社オクトーバー・スカイ（3012401020085）に合併し解散,2023-06-07,1,,,,,グロービジャパン,0
2204,9010005000829,登記記録の閉鎖等,0,2024-12-20,2024-12-19,医療法人社団志鈴会,,その他の設立登記法人,東京都,中央区,月島４丁目５番１２号,,13,102,1040052,,,2024-12-19,清算の結了等,,,2015-10-05,1,,,,,シレイカイ,0
2205,9010401027211,登記記録の閉鎖等,0,2024-12-20,2024-12-09,株式会社ベルコム,,株式会社,東京都,千代田区,内神田１丁目９番１０号,,13,101,1010047,,,2024-12-09,清算の結了等,,,2015-10-05,1,,,,,,0
2206,9010401051723,登記記録の閉鎖等,0,2024-12-20,2024-11-29,株式会社ＡＭＬＹ　Ａｖｉａｔｉｏｎ,,株式会社,東京都,港区,芝２丁目１３番４号芝ビル,,13,103,1050014,,,2024-11-29,清算の結了等,,,2015-10-05,1,,,,,アムリイアビィアション,0
2217,9010402022863,登記記録の閉鎖等,0,2024-12-20,2024-12-02,アール・アンド・ワイアソシエーツ株式会社,,株式会社,東京都,港区,西麻布１丁目３番４号ＮＴビル,,13,103,1060031,,,2024-12-02,合併による解散等,4010401022183,令和６年１２月１日東京都港区西麻布一丁目３番４号ＮＴビル日進通商株式会社（4010401022183）に合併し解散,2015-10-05,1,,,,,アールアンドワイアソシエーツ,0
2218,9010403015016,登記記録の閉鎖等,0,2024-12-20,2024-12-02,アロア商事株式会社,,株式会社,東京都,渋谷区,渋谷３丁目２番４号,,13,113,1500002,,,2024-12-02,合併による解散等,3010401114238,令和６年１２月１日東京都渋谷区渋谷三丁目２番４号アロア殖産合同会社（3010401114238）に合併し解散,2016-07-12,1,,,,,アロアショウジ,0
2223,9010601030799,登記記録の閉鎖等,0,2024-12-20,2024-12-16,株式会社興進電化,,株式会社,東京都,江東区,青海４丁目４番１１号,,13,108,1350064,,,2024-12-16,清算の結了等,,,2015-10-05,1,,,,,コウシンデンカ,0
2224,9010601048313,登記記録の閉鎖等,0,2024-12-20,2024-12-10,株式会社ＭＡ．Ｄｒｅａｍ,,株式会社,東京都,台東区,寿１丁目１８番１号,,13,106,1110042,,,2024-12-10,清算の結了等,,,2015-10-05,1,,,,,エムエードリーム,0
2226,9010701024560,登記記録の閉鎖等,0,2024-12-20,2024-12-09,株式会社ウィンコーポレーション,,株式会社,東京都,千代田区,永田町２丁目１１番１号,,13,101,1000014,,,2024-12-09,清算の結了等,,,2015-10-05,1,,,,,ウィンコーポレーション,0
2232,9011001025134,登記記録の閉鎖等,0,2024-12-20,2024-12-12,株式会社リヨン,,株式会社,千葉県,山武市,大木７０５番地,,12,237,2891211,,,2024-12-12,清算の結了等,,,2015-10-05,1,,,,,リヨン,0
2236,9011001111727,登記記録の閉鎖等,0,2024-12-20,2024-12-02,株式会社バリューワン,,株式会社,東京都,渋谷区,東３丁目１４番１５号ＭＯビル,,13,113,1500011,,,2024-12-02,合併による解散等,4011001063485,令和６年１２月１日東京都渋谷区渋谷三丁目２８番１３号渋谷新南口ビル株式会社クラブネッツ（4011001063485）に合併し解散,2016-07-07,1,,,,,バリューワン,0
2238,9011001131816,登記記録の閉鎖等,0,2024-12-20,2024-12-11,株式会社井手下コンサルティング,,株式会社,東京都,新宿区,西新宿３丁目３番１３号西新宿水間ビル６階,,13,104,1600023,,,2024-12-11,清算の結了等,,,2020-01-20,1,,,,,イデシタコンサルティング,0
2256,9011101071623,登記記録の閉鎖等,0,2024-12-20,2024-12-11,ＮＥＳ　Ｇｌｏｂａｌ　Ｔａｌｅｎｔ株式会社,,株式会社,東京都,新宿区,住吉町７番１号福松ビル６階,,13,104,1620065,,,2024-12-11,清算の結了等,,,2015-10-05,1,,,,,エヌイーエスグローバルタレント,0
2265,9011801032908,登記記録の閉鎖等,0,2024-12-20,2024-12-18,株式会社ハイカラ,,株式会社,東京都,葛飾区,東新小岩１丁目２番１４号,,13,122,1240023,,,2024-12-18,清算の結了等,,,2017-02-14,1,,,,,,0
2272,9013102002160,登記記録の閉鎖等,0,2024-12-20,2024-12-16,有限会社田野倉石材店,,有限会社,東京都,あきる野市,横沢７３番地,,13,228,1900141,,,2024-12-16,清算の結了等,,,2015-10-05,1,,,,,タノクラセキザイテン,0
2289,9030001033698,登記記録の閉鎖等,0,2024-12-20,2024-12-17,株式会社渡辺会計,,株式会社,埼玉県,羽生市,東９丁目２番地６,,11,216,3480052,,,2024-12-17,清算の結了等,,,2015-10-05,1,,,,,ワタナベカイケイ,0
2296,9030002029729,登記記録の閉鎖等,0,2024-12-20,2024-12-17,有限会社昇竜,,有限会社,埼玉県,所沢市,大字下富１４２６番地の３４,,11,208,3590001,,,2024-12-17,清算の結了等,,,2015-10-05,1,,,,,ショウリュウ,0
2308,9040005022481,登記記録の閉鎖等,0,2024-12-20,2024-12-03,千葉県菓子工業協同組合,,その他の設立登記法人,千葉県,千葉市中央区,栄町４１番３号,,12,101,2600016,,,2024-12-03,清算の結了等,,,2024-08-30,1,,,,,チバケンカシコウギョウ,0
2314,9060005002457,登記記録の閉鎖等,0,2024-12-20,2024-12-13,協同組合無垢の会,,その他の設立登記法人,栃木県,日光市,大室２０３６番地８,,09,206,3212332,,,2024-12-13,清算の結了等,,,2015-10-05,1,,,,,ムクノカイ,0
2318,9080002000486,登記記録の閉鎖等,0,2024-12-20,2024-12-17,有限会社石川地所,,有限会社,静岡県,静岡市葵区,吉野町３番７号,,22,101,4200046,,,2024-12-17,清算の結了等,,,2015-10-05,1,,,,,イシカワジショ,0
2328,9110002009771,登記記録の閉鎖等,0,2024-12-20,2024-12-13,有限会社真島組,,有限会社,新潟県,新潟市秋葉区,草水町１丁目９番４号,,15,105,9560833,,,2024-12-13,清算の結了等,,,2015-10-05,1,,,,,,0
2329,9110003003294,登記記録の閉鎖等,0,2024-12-20,2024-12-16,合同会社ナカムラシステムサービス,,合同会社,新潟県,新潟市中央区,大島１５５番地５,,15,103,9500953,,,2024-12-16,清算の結了等,,,2016-05-02,1,,,,,ナカムラシステムサービス,0
2330,9120001035371,登記記録の閉鎖等,0,2024-12-20,2024-12-10,生和食品株式会社,,株式会社,大阪府,大阪市福島区,鷺洲２丁目９番１７号,,27,103,5530002,,,2024-12-10,清算の結了等,,,2015-10-05,1,,,,,セイワショクヒン,0
2336,9120001197757,登記記録の閉鎖等,0,2024-12-20,2024-12-13,株式会社ＬＩＢ総合開発,,株式会社,大阪府,大阪市浪速区,敷津西２丁目４番７号,,27,111,5560015,,,2024-12-13,清算の結了等,,,2016-04-26,1,,,,,エルアイビーソウゴウカイハツ,0
2351,9120105008141,登記記録の閉鎖等,0,2024-12-20,2024-12-16,一般社団法人大阪総合教育支援研究所,,その他の設立登記法人,大阪府,大阪狭山市,大野台６丁目１０番２号,,27,231,5890023,,,2024-12-16,清算の結了等,,,2015-10-05,1,,,,,オオサカソウゴウキョウイクシエンケンキュウジョ,0
2360,9120902020463,登記記録の閉鎖等,0,2024-12-20,2024-12-17,有限会社オオイケ,,有限会社,大阪府,豊中市,二葉町２丁目２番３１号,,27,203,5610825,,,2024-12-17,清算の結了等,,,2015-10-05,1,,,,,オオイケ,0
2363,9130001050790,登記記録の閉鎖等,0,2024-12-20,2024-12-18,株式会社ゲンキ・ハウス,,株式会社,京都府,京都市南区,東九条北烏丸町３８番地６,,26,107,6018017,,,2024-12-18,清算の結了等,,,2015-10-05,1,,,,,ゲンキハウス,0
2386,9180001023016,登記記録の閉鎖等,0,2024-12-20,2024-12-16,株式会社ヤマコン,,株式会社,愛知県,名古屋市熱田区,切戸町３丁目１６２番地,,23,109,4560076,,,2024-12-16,清算の結了等,,,2015-10-05,1,,,,,ヤマコン,0
2395,9180002067805,登記記録の閉鎖等,0,2024-12-20,2024-12-16,有限会社レストラン・カトー,,有限会社,愛知県,春日井市,出川町５丁目１１番地１,,23,206,4870025,,,2024-12-16,清算の結了等,,,2015-10-05,1,,,,,レストランカトー,0
2401,9180302017773,登記記録の閉鎖等,0,2024-12-20,2024-12-16,有限会社ヤマソウ,,有限会社,愛知県,刈谷市,御幸町４丁目１０１番地,,23,210,4480821,,,2024-12-16,清算の結了等,,,2015-10-05,1,,,,,ヤマソウ,0
2405,9200001008022,登記記録の閉鎖等,0,2024-12-20,2024-12-18,小出商事株式会社,,株式会社,岐阜県,岐阜市,柳津町丸野５丁目６番地の１,,21,201,5016115,,,2024-12-18,清算の結了等,,,2015-10-05,1,,,,,,0
2406,9200001024060,登記記録の閉鎖等,0,2024-12-20,2024-12-16,株式会社堀井工務店,,株式会社,岐阜県,恵那市,上矢作町７７２番地の１,,21,210,5097521,,,2024-12-16,清算の結了等,,,2015-10-05,1,,,,,ホリイコウムテン,0
2422,9240003004486,登記記録の閉鎖等,0,2024-12-20,2024-12-19,合同会社ティラ,,合同会社,広島県,広島市安芸区,矢野東５丁目１番１５号,,34,107,7360083,,,2024-12-19,清算の結了等,,,2019-12-06,1,,,,,ティラ,0
2426,9290001010556,登記記録の閉鎖等,0,2024-12-20,2024-12-03,ますみ興産株式会社,,株式会社,福岡県,福岡市中央区,大名１丁目９番４号,,40,133,8100041,,,2024-12-03,清算の結了等,,,2015-10-05,1,,,,,マスミコウサン,0
2428,9290001035165,登記記録の閉鎖等,0,2024-12-20,2024-11-01,株式会社シンセイ・プラスワン,,株式会社,福岡県,福岡市中央区,天神３丁目１番１２号,,40,133,8100001,,,2024-11-01,合併による解散等,6290001043443,令和６年１１月１日福岡市中央区天神三丁目１番１２号株式会社シンセイ・プラスワン（6290001043443）に合併し解散,2015-10-05,1,,,,,シンセイプラスワン,0
2434,9290002019902,登記記録の閉鎖等,0,2024-12-20,2024-12-10,有限会社川延,,有限会社,東京都,豊島区,南長崎６丁目１５番２－２０１号,,13,116,1710052,,,2024-12-10,清算の結了等,,,2015-10-05,1,,,,,カワノベ,0
2442,9320002014858,登記記録の閉鎖等,0,2024-12-20,2024-12-19,有限会社パーフェクトラジエーター大分,,有限会社,大分県,宇佐市,大字森山７番地の３,,44,211,8790311,,,2024-12-19,清算の結了等,,,2015-10-05,1,,,,,パーフェクトラジエーターオオイタ,0
2444,9330001022357,登記記録の閉鎖等,0,2024-12-20,2024-12-12,株式会社ウィズ,,株式会社,熊本県,熊本市中央区,下通１丁目１２番３号,,43,101,8600807,,,2024-12-12,清算の結了等,,,2015-12-18,1,,,,,ウィズ,0
2445,9330001027760,登記記録の閉鎖等,0,2024-12-20,2024-12-13,株式会社ミリオン３,,株式会社,熊本県,熊本市中央区,九品寺２丁目２番２１号,,43,101,8620976,,,2024-12-13,清算の結了等,,,2020-08-25,1,,,,,ミリオンスリー,0
2452,9370002003121,登記記録の閉鎖等,0,2024-12-20,2024-12-13,有限会社シンコウ,,有限会社,宮城県,仙台市太白区,鈎取本町２丁目４番６号,,04,104,9820805,,,2024-12-13,清算の結了等,,,2015-10-05,1,,,,,シンコウ,0
2456,9400001015502,登記記録の閉鎖等,0,2024-12-20,2024-12-16,株式会社スターデルタ,,株式会社,岩手県,盛岡市,大館町７番４７号パナハイツおおだて２０３号,,03,201,0200147,,,2024-12-16,清算の結了等,,,2021-07-02,1,,,,,スターデルタ,0
2459,9420001017471,登記記録の閉鎖等,0,2024-12-20,2024-12-18,株式会社菊研,,株式会社,青森県,下北郡大間町,大字奥戸字館ノ上５１番地２,,02,423,0394602,,,2024-12-18,清算の結了等,,,2021-06-08,1,,,,,キクケン,0
2468,9500001006235,登記記録の閉鎖等,0,2024-12-20,2024-12-17,株式会社ＭＴＳ,,株式会社,愛媛県,松山市,天山２丁目６番１２号太陽天山ビル２階,,38,201,7900951,,,2024-12-17,清算の結了等,,,2015-10-05,1,,,,,エムティーエス,0
