sequenceNumber,corporateNumber,process,correct,updateDate,changeDate,name,nameImageId,kind,prefectureName,cityName,streetNumber,addressImageId,prefectureCode,cityCode,postCode,addressOutside,addressOutsideImageId,closeDate,closeCause,successorCorporateNumber,changeCause,assignmentDate,latest,enName,enPrefectureName,enCityName,enAddressOutside,furigana,hihyoji
12,1010001252687,新規,0,2025-03-07,2025-03-07,株式会社ＡＣ‐４,,株式会社,東京都,千代田区,麹町３丁目５番地２,,13,101,1020083,,,,,,,2025-03-07,1,,,,,エーシーフォース,0
13,1010001252852,新規,0,2025-03-07,2025-03-07,株式会社ＯＨデジタルパートナーズ,,株式会社,東京都,中央区,銀座６丁目１０番１号,,13,102,1040061,,,,,,,2025-03-07,1,,,,,オーエイチデジタルパートナーズ,0
14,1010001252869,新規,0,2025-03-07,2025-03-07,エバーラスト株式会社,,株式会社,東京都,中央区,銀座７丁目１３番２１号銀座ｓｉｎｒｏｋｕｓｙｕビル２階,,13,102,1040061,,,,,,,2025-03-07,1,,,,,エバーラスト,0
15,1010001252885,新規,0,2025-03-07,2025-03-07,株式会社ラストナビ,,株式会社,東京都,千代田区,神田和泉町１番地６－１６ヤマトビル４０５,,13,101,1010024,,,,,,,2025-03-07,1,,,,,ラストナビ,0
16,1010001252919,新規,0,2025-03-07,2025-03-07,ダントー・ネオエネルギー株式会社,,株式会社,東京都,中央区,銀座１丁目８番１６号,,13,102,1040061,,,,,,,2025-03-07,1,,,,,ダントーネオエネルギー,0
19,1010003046633,新規,0,2025-03-07,2025-03-07,デネブ合同会社,,合同会社,東京都,千代田区,霞が関３丁目２番５号,,13,101,1000013,,,,,,,2025-03-07,1,,,,,デネブ,0
20,1010003046666,新規,0,2025-03-07,2025-03-07,合同会社マリ,,合同会社,東京都,文京区,湯島３丁目３４番１１－１２０６号,,13,105,1130034,,,,,,,2025-03-07,1,,,,,マリ,0
21,1010003046674,新規,0,2025-03-07,2025-03-07,合同会社Ｐｌａｙｈｏｏｄ,,合同会社,東京都,文京区,小日向２丁目１番２号,,13,105,1120006,,,,,,,2025-03-07,1,,,,,プレイフッド,0
22,1010003046682,新規,0,2025-03-07,2025-03-07,文京合同会社,,合同会社,東京都,文京区,小日向３丁目１７－１光風荘１号室,,13,105,1120006,,,,,,,2025-03-07,1,,,,,ブンキョウ,0
23,1010003046716,新規,0,2025-03-07,2025-03-07,合同会社アイエス労働衛生コンサルタント,,合同会社,東京都,中央区,銀座１丁目１２－４Ｎ＆ＥＢＬＤ．７階,,13,102,1040061,,,,,,,2025-03-07,1,,,,,アイエスロウドウエイセイコンサルタント,0
24,1010005039684,新規,0,2025-03-07,2025-03-07,一般社団法人Ｍ＆Ａファイナンシャルアドバイザー協会,,その他の設立登記法人,東京都,中央区,京橋２丁目５番１８号,,13,102,1040031,,,,,,,2025-03-07,1,,,,,エムアンドエーファイナンシャルアドバイザーキョウカイ,0
31,1010401188630,新規,0,2025-03-07,2025-03-07,ＡＬＰＨＡ　Ｃａｐｉｔａｌ株式会社,,株式会社,東京都,港区,芝大門２丁目２番２号,,13,103,1050012,,,,,,,2025-03-07,1,,,,,アルファキャピタル,0
32,1010401188696,新規,0,2025-03-07,2025-03-07,マーケティングコンサル株式会社,,株式会社,東京都,港区,高輪２丁目１３番８号トミンハイム桂坂１－２１８,,13,103,1080074,,,,,,,2025-03-07,1,,,,,マーケティングコンサル,0
33,1010401188705,新規,0,2025-03-07,2025-03-07,株式会社バイオテクノロジージャパン,,株式会社,東京都,港区,北青山１丁目３－３三橋ビル３階,,13,103,1070061,,,,,,,2025-03-07,1,,,,,バイオテクノロジージャパン,0
34,1010401188713,新規,0,2025-03-07,2025-03-07,ライフアーク株式会社,,株式会社,東京都,港区,北青山１丁目３番１号アールキューブ青山３階,,13,103,1070061,,,,,,,2025-03-07,1,,,,,ライフアーク,0
35,1010401188779,新規,0,2025-03-07,2025-03-07,株式会社カイロスファンド,,株式会社,東京都,港区,南青山２丁目２番１５号,,13,103,1070062,,,,,,,2025-03-07,1,,,,,カイロスファンド,0
43,1010501053750,新規,0,2025-03-07,2025-03-07,株式会社ブルームパス,,株式会社,東京都,台東区,元浅草３丁目３番５号,,13,106,1110041,,,,,,,2025-03-07,1,,,,,ブルームパス,0
46,1010601066900,新規,0,2025-03-07,2025-03-07,株式会社ＲＥＶＩＶＡＬ,,株式会社,東京都,墨田区,京島２丁目１１番３号京島第２ビル１階,,13,107,1310046,,,,,,,2025-03-07,1,,,,,リバイバル,0
47,1010601066909,新規,0,2025-03-07,2025-03-07,株式会社ＹＴＣらぼ,,株式会社,東京都,墨田区,江東橋４丁目２７番１４号楽天地ビル３Ｆ,,13,107,1300022,,,,,,,2025-03-07,1,,,,,ワイティーシーラボ,0
48,1010605004419,新規,0,2025-03-07,2025-03-07,医療法人社団愛美会,,その他の設立登記法人,東京都,江東区,千田２番９号ロイヤルマキシム１０１号室,,13,108,1350013,,,,,,,2025-03-07,1,,,,,エミカイ,0
60,1011001168196,新規,0,2025-03-07,2025-03-07,ＣＲＡＦＴ　ＢＥＥＦ株式会社,,株式会社,東京都,渋谷区,渋谷３丁目１５番６号並木橋ビル１０階,,13,113,1500002,,,,,,,2025-03-07,1,,,,,クラフトビーフ,0
61,1011001168205,新規,0,2025-03-07,2025-03-07,株式会社ＭＣ,,株式会社,東京都,渋谷区,鶯谷町１３番１号ラ・トゥール代官山Ｊ－２０２,,13,113,1500032,,,,,,,2025-03-07,1,,,,,エムシー,0
62,1011001168238,新規,0,2025-03-07,2025-03-07,株式会社インプレス,,株式会社,東京都,渋谷区,神南１丁目１１番４号ＦＰＧリンクス神南５階,,13,113,1500041,,,,,,,2025-03-07,1,,,,,インプレス,0
63,1011001168270,新規,0,2025-03-07,2025-03-07,株式会社ＮＧＴＧ１２,,株式会社,東京都,渋谷区,渋谷１丁目３－１８ビラ・モデルナＡ４０２,,13,113,1500002,,,,,,,2025-03-07,1,,,,,エヌジーティージーイチニ,0
70,1011003021122,新規,0,2025-03-07,2025-03-07,オフェンス合同会社,,合同会社,東京都,目黒区,下目黒１丁目１番１４号コノトラビル７Ｆ,,13,110,1530064,,,,,,,2025-03-07,1,,,,,オフェンス,0
73,1011005010890,新規,0,2025-03-07,2025-03-07,一般社団法人緑声会,,その他の設立登記法人,東京都,渋谷区,千駄ヶ谷３丁目１３番２２号,,13,113,1510051,,,,,,,2025-03-07,1,,,,,リョクセイカイ,0
75,1011101110859,新規,0,2025-03-07,2025-03-07,株式会社Ｓｏｐｈｉａ,,株式会社,東京都,新宿区,北新宿１丁目３５番１５号Ｓｉｎｃｒｅａｓｅ西新宿１０２,,13,104,1690074,,,,,,,2025-03-07,1,,,,,ソフィア,0
76,1011101110891,新規,0,2025-03-07,2025-03-07,株式会社真心,,株式会社,東京都,新宿区,北新宿３丁目１番２号,,13,104,1690074,,,,,,,2025-03-07,1,,,,,マゴコロ,0
77,1011101110909,新規,0,2025-03-07,2025-03-07,株式会社ＰｉｖｏｔＬａｂ,,株式会社,東京都,新宿区,大久保２丁目９－１５ＮＩＤＯ西早稲田４０４,,13,104,1690072,,,,,,,2025-03-07,1,,,,,ピボットラボ,0
78,1011103015619,新規,0,2025-03-07,2025-03-07,ＧＰＡ　Ｍａｎａｇｅｍｅｎｔ合同会社,,合同会社,東京都,新宿区,百人町１丁目２３－１４－２０１号,,13,104,1690073,,,,,,,2025-03-07,1,,,,,ジーピーエーマネージメント,0
79,1011203004637,新規,0,2025-03-07,2025-03-07,合同会社蓮,,合同会社,東京都,中野区,本町６丁目９番３－１０６,,13,114,1640012,,,,,,,2025-03-07,1,,,,,ハス,0
84,1011403004643,新規,0,2025-03-07,2025-03-07,合同会社Ｃ＆Ｃインベストメント,,合同会社,東京都,板橋区,南常盤台１丁目１１番６号,,13,119,1740072,,,,,,,2025-03-07,1,,,,,シーアンドシーインベストメント,0
85,1011501031779,新規,0,2025-03-07,2025-03-07,嘉辰株式会社,,株式会社,東京都,北区,中里１丁目２１番２号中里ビル１Ｆ,,13,117,1140015,,,,,,,2025-03-07,1,,,,,カシン,0
86,1011501031787,新規,0,2025-03-07,2025-03-07,株式会社Ｒｅｎａｒｄ,,株式会社,東京都,北区,滝野川６丁目３２番１４号えんぷらす滝野川３０５号,,13,117,1140023,,,,,,,2025-03-07,1,,,,,ルナール,0
96,1012401042858,新規,0,2025-03-07,2025-03-07,わ株式会社,,株式会社,東京都,調布市,深大寺元町２丁目３３－５、２Ｆ,,13,208,1820017,,,,,,,2025-03-07,1,,,,,ワ,0
98,1012403007000,新規,0,2025-03-07,2025-03-07,合同会社ハイプラス,,合同会社,東京都,調布市,菊野台３丁目１５番地２０,,13,208,1820007,,,,,,,2025-03-07,1,,,,,ハイプラス,0
99,1012405005084,新規,0,2025-03-07,2025-03-07,医療法人社団廣耀会,,その他の設立登記法人,東京都,三鷹市,下連雀６丁目２番１６号アトラス吉祥寺１階,,13,204,1810013,,,,,,,2025-03-07,1,,,,,コウヨウカイ,0
109,1020001161730,新規,0,2025-03-07,2025-03-07,株式会社ＨＯＭＩ,,株式会社,神奈川県,横浜市南区,弘明寺町２６７番地,,14,105,2320067,,,,,,,2025-03-07,1,,,,,ホーミー,0
110,1020001161739,新規,0,2025-03-07,2025-03-07,株式会社トトノエル,,株式会社,神奈川県,横浜市中区,本郷町３丁目２０２番地１小山ビル１０２,,14,104,2310843,,,,,,,2025-03-07,1,,,,,トトノエル,0
111,1020001161763,新規,0,2025-03-07,2025-03-07,株式会社ｂ．ｏｎ．ｄ,,株式会社,神奈川県,横浜市港南区,港南台３丁目１番１号,,14,111,2340054,,,,,,,2025-03-07,1,,,,,ボンド,0
114,1021001084599,新規,0,2025-03-07,2025-03-07,株式会社アンコール,,株式会社,神奈川県,伊勢原市,東大竹９８４番地の７テナリハウス１０１号,,14,214,2591133,,,,,,,2025-03-07,1,,,,,アンコール,0
115,1021001084616,新規,0,2025-03-07,2025-03-07,ＳＨＯＷＳ株式会社,,株式会社,神奈川県,茅ヶ崎市,東海岸北２丁目８番１６号,,14,207,2530053,,,,,,,2025-03-07,1,,,,,ショーズ,0
125,1030001165169,新規,0,2025-03-07,2025-03-07,株式会社まつぼっくり,,株式会社,埼玉県,さいたま市大宮区,東町１丁目１１７番地大宮ＡＴビル３０４,,11,103,3300841,,,,,,,2025-03-07,1,,,,,マツボックリ,0
129,1030003026253,新規,0,2025-03-07,2025-03-07,ばんぶりば合同会社,,合同会社,埼玉県,飯能市,大字大河原１４９番地２,,11,209,3570065,,,,,,,2025-03-07,1,,,,,バンブリバ,0
133,1040001137646,新規,0,2025-03-07,2025-03-07,株式会社ＲＳ,,株式会社,千葉県,市原市,八幡９９６番地１３クイーンズレゾン八幡宿３０２号室,,12,219,2900062,,,,,,,2025-03-07,1,,,,,アールエス,0
134,1040001137695,新規,0,2025-03-07,2025-03-07,ｒｅＰＬＡＮＴＳ株式会社,,株式会社,千葉県,我孫子市,柴崎台４丁目５番２５－３０１号,,12,222,2701176,,,,,,,2025-03-07,1,,,,,レプランツ,0
135,1040001137720,新規,0,2025-03-07,2025-03-07,株式会社Ｔ＆Ｊ．ＧＬＡＳＳ,,株式会社,千葉県,松戸市,馬橋１８９５番地の１,,12,207,2710051,,,,,,,2025-03-07,1,,,,,ティーアンドジェイドットグラス,0
136,1040001137737,新規,0,2025-03-07,2025-03-07,株式会社ポラライズ,,株式会社,千葉県,成田市,花崎町８５３番地７第２印東ビル４階,,12,211,2860033,,,,,,,2025-03-07,1,,,,,ポラライズ,0
138,1040003027028,新規,0,2025-03-07,2025-03-07,合同会社クリモ,,合同会社,千葉県,浦安市,美浜４丁目１６番１２号,,12,227,2790011,,,,,,,2025-03-07,1,,,,,クリモ,0
139,1040003027044,新規,0,2025-03-07,2025-03-07,合同会社ＲＡＤＥ　ＬＡＮＫＡ,,合同会社,千葉県,千葉市稲毛区,千草台２丁目２番３棟４０５号,,12,103,2630013,,,,,,,2025-03-07,1,,,,,ラデランカ,0
148,1070001042686,新規,0,2025-03-07,2025-03-07,株式会社フェデラル,,株式会社,群馬県,高崎市,砂賀町８２番地,,10,202,3700832,,,,,,,2025-03-07,1,,,,,フェデラル,0
149,1070001042694,新規,0,2025-03-07,2025-03-07,株式会社マニー,,株式会社,群馬県,高崎市,剣崎町１２１６番地,,10,202,3700883,,,,,,,2025-03-07,1,,,,,マニー,0
156,1080003003405,新規,0,2025-03-07,2025-03-07,合同会社ｙａｔａｇａｒａｓｕ,,合同会社,静岡県,焼津市,中新田１３９番地の２,,22,212,4250068,,,,,,,2025-03-07,1,,,,,ヤタガラス,0
160,1090001019170,新規,0,2025-03-07,2025-03-07,株式会社Ｗｉｚコンサル,,株式会社,山梨県,甲府市,湯村２丁目６番１９号,,19,201,4000073,,,,,,,2025-03-07,1,,,,,ウィズコンサル,0
163,1100001038367,新規,0,2025-03-07,2025-03-07,株式会社リーフランド,,株式会社,長野県,塩尻市,大字洗馬２３１８番地２,,20,215,3996462,,,,,,,2025-03-07,1,,,,,リーフランド,0
168,1110003005686,新規,0,2025-03-07,2025-03-07,合同会社ヒトコトコネクト,,合同会社,新潟県,新潟市中央区,営所通１番町３１６ウィンド青山３号室,,15,103,9518114,,,,,,,2025-03-07,1,,,,,ヒトコトコネクト,0
182,1120001273350,新規,0,2025-03-07,2025-03-07,株式会社Ｋ,,株式会社,大阪府,大阪市都島区,片町２丁目７番２６号１階,,27,102,5340025,,,,,,,2025-03-07,1,,,,,ケー,0
183,1120001273367,新規,0,2025-03-07,2025-03-07,株式会社ＯＵＴＩＮ　ＦＵＴＵＲＥＳ　ＪＡＰＡＮ,,株式会社,大阪府,大阪市住之江区,南港北２丁目１番１０号,,27,125,5590034,,,,,,,2025-03-07,1,,,,,アウティンフーチャーズジャパン,0
184,1120001273391,新規,0,2025-03-07,2025-03-07,安居株式会社,,株式会社,大阪府,大阪市東淀川区,豊新５丁目６番３－１０３号,,27,114,5330014,,,,,,,2025-03-07,1,,,,,アンキョ,0
185,1120001273417,新規,0,2025-03-07,2025-03-07,株式会社Ｆ＆Ｅ　Ｌａｂ,,株式会社,大阪府,寝屋川市,黒原旭町２８番１３号,,27,215,5720057,,,,,,,2025-03-07,1,,,,,エフアンドイーラボ,0
186,1120001273458,新規,0,2025-03-07,2025-03-07,株式会社ｆｌａｐｌａｎｔ,,株式会社,大阪府,大阪市西区,京町堀１丁目７番２２－６０２号,,27,106,5500003,,,,,,,2025-03-07,1,,,,,フラップラント,0
187,1120001273466,新規,0,2025-03-07,2025-03-07,大芸株式会社,,株式会社,大阪府,大阪市東成区,東小橋３丁目１４番２９号,,27,115,5370024,,,,,,,2025-03-07,1,,,,,ダイゲイ,0
188,1120001273490,新規,0,2025-03-07,2025-03-07,株式会社ヤマト,,株式会社,大阪府,大阪市中央区,常盤町２丁目１番１３号,,27,128,5400028,,,,,,,2025-03-07,1,,,,,ヤマト,0
189,1120001273499,新規,0,2025-03-07,2025-03-07,株式会社Ｔ’ｓＰＯＷＥＲ,,株式会社,大阪府,大阪市北区,西天満４丁目１１番２号アクシスライフ梅田９０７号,,27,127,5300047,,,,,,,2025-03-07,1,,,,,ティーズパワー,0
193,1120005024824,新規,0,2025-03-07,2025-03-07,一般財団法人西日本建設業サポート財団,,その他の設立登記法人,大阪府,大阪市西区,立売堀２丁目１番２号,,27,106,5500012,,,,,,,2025-03-07,1,,,,,ニシニホンケンセツギョウサポートザイダン,0
195,1120101071175,新規,0,2025-03-07,2025-03-07,株式会社ＮＫメンテ,,株式会社,大阪府,堺市堺区,賑町３丁４番３号,,27,141,5900066,,,,,,,2025-03-07,1,,,,,エヌケイメンテ,0
208,1130001079144,新規,0,2025-03-07,2025-03-07,株式会社真田商店,,株式会社,京都府,綴喜郡宇治田原町,銘城台１７番地の１５,,26,344,6100254,,,,,,,2025-03-07,1,,,,,サナダショウテン,0
209,1130001079152,新規,0,2025-03-07,2025-03-07,株式会社ＫＯＴＯ,,株式会社,京都府,京都市伏見区,竹田北三ツ杭町４０番地３０１,,26,109,6128419,,,,,,,2025-03-07,1,,,,,コト,0
213,1130005017307,新規,0,2025-03-07,2025-03-07,一般社団法人日本エンタープライズアーキテクト協会,,その他の設立登記法人,京都府,京都市西京区,山田南町３１番地１グレース桂１－Ｃ,,26,111,6158275,,,,,,,2025-03-07,1,,,,,ニホンエンタープライズアーキテクトキョウカイ,0
219,1140001137603,新規,0,2025-03-07,2025-03-07,株式会社雅装飾,,株式会社,兵庫県,神戸市西区,和井取１０番８号,,28,111,6512120,,,,,,,2025-03-07,1,,,,,ミヤビソウショク,0
220,1140001137611,新規,0,2025-03-07,2025-03-07,株式会社ＹＡＭ,,株式会社,兵庫県,姫路市,広畑区高浜町２丁目２９番地２,,28,201,6711153,,,,,,,2025-03-07,1,,,,,ワイエーエム,0
222,1140003021730,新規,0,2025-03-07,2025-03-07,合同会社デュオ・マネジメント,,合同会社,兵庫県,神戸市北区,広陵町３丁目１５４番地,,28,109,6511213,,,,,,,2025-03-07,1,,,,,デュオマネジメント,0
224,1150001027919,新規,0,2025-03-07,2025-03-07,トータルヘルスケア株式会社,,株式会社,奈良県,高市郡明日香村,大字川原４２０番地の１,,29,402,6340141,,,,,,,2025-03-07,1,,,,,トータルヘルスケア,0
229,1180001165666,新規,0,2025-03-07,2025-03-07,株式会社ＨｉｔｏＯｎｅ,,株式会社,愛知県,名古屋市南区,北内町３丁目１９番地－１０６号,,23,112,4570049,,,,,,,2025-03-07,1,,,,,ヒトワン,0
230,1180001165690,新規,0,2025-03-07,2025-03-07,志水設備機工株式会社,,株式会社,愛知県,名古屋市港区,西福田５丁目２００５,,23,111,4550874,,,,,,,2025-03-07,1,,,,,シミズセツビキコウ,0
231,1180001165699,新規,0,2025-03-07,2025-03-07,株式会社知多キャッスル,,株式会社,愛知県,名古屋市東区,葵３丁目２５番５号,,23,102,4610004,,,,,,,2025-03-07,1,,,,,チタキャッスル,0
232,1180001165716,新規,0,2025-03-07,2025-03-07,日本ペイロール株式会社,,株式会社,愛知県,名古屋市西区,牛島町５番２号,,23,104,4510046,,,,,,,2025-03-07,1,,,,,ニホンペイロール,0
233,1180001165740,新規,0,2025-03-07,2025-03-07,株式会社備長フードサービス,,株式会社,愛知県,名古屋市千種区,桜が丘３８番地,,23,101,4640025,,,,,,,2025-03-07,1,,,,,ビンチョウフードサービス,0
234,1180001165749,新規,0,2025-03-07,2025-03-07,南野未来ホールディングス株式会社,,株式会社,愛知県,名古屋市南区,南野２丁目２９９番地２,,23,112,4570068,,,,,,,2025-03-07,1,,,,,ミナミノミライホールディングス,0
235,1180001165765,新規,0,2025-03-07,2025-03-07,株式会社ＦｉｒｓｔＰｅａｋ,,株式会社,愛知県,名古屋市緑区,相川２丁目５番地,,23,114,4580011,,,,,,,2025-03-07,1,,,,,ファーストピーク,0
236,1180001165781,新規,0,2025-03-07,2025-03-07,株式会社ゼロム,,株式会社,愛知県,名古屋市天白区,八事山４２１番地,,23,116,4680077,,,,,,,2025-03-07,1,,,,,ゼロム,0
237,1180003028086,新規,0,2025-03-07,2025-03-07,フレグラントガーデン合同会社,,合同会社,愛知県,名古屋市中区,千代田４丁目１５番１４号ＣＳＰＮＡＧＯＹＡ６０５,,23,106,4600012,,,,,,,2025-03-07,1,,,,,フレグラントガーデン,0
238,1180003028094,新規,0,2025-03-07,2025-03-07,ブロービット合同会社,,合同会社,愛知県,名古屋市中村区,名駅４丁目２４番５号第２森ビル４０１,,23,105,4500002,,,,,,,2025-03-07,1,,,,,ブロービット,0
239,1180003028103,新規,0,2025-03-07,2025-03-07,合同会社ＫＤＸ,,合同会社,愛知県,名古屋市中村区,西米野町１丁目４６－３０２,,23,105,4530812,,,,,,,2025-03-07,1,,,,,ケーディーエックス,0
240,1180301039586,新規,0,2025-03-07,2025-03-07,ビーアイ株式会社,,株式会社,愛知県,刈谷市,高津波町１丁目６１０番地,,23,210,4480047,,,,,,,2025-03-07,1,,,,,ビーアイ,0
241,1180303006469,新規,0,2025-03-07,2025-03-07,合同会社ＯｎｅｍＺ,,合同会社,愛知県,刈谷市,築地町３丁目２９番地１７,,23,210,4480011,,,,,,,2025-03-07,1,,,,,オネムズ,0
243,1190003004953,新規,0,2025-03-07,2025-03-07,合同会社凪テック,,合同会社,三重県,名張市,木屋町１３８６番地５吉岡ビル２Ｆ,,24,208,5180723,,,,,,,2025-03-07,1,,,,,ナギテック,0
245,1200001043506,新規,0,2025-03-07,2025-03-07,株式会社ｓｔｅｌｌａｖｉｅ,,株式会社,岐阜県,瑞穂市,生津天王町１丁目１０２番地,,21,216,5010216,,,,,,,2025-03-07,1,,,,,ステラヴィ,0
248,1200003006717,新規,0,2025-03-07,2025-03-07,Ｌｉｆｅ　Ｕｐ　Ｌａｄｄｅｒ合同会社,,合同会社,岐阜県,多治見市,赤坂町３丁目５番地の４,,21,204,5070057,,,,,,,2025-03-07,1,,,,,ライフアップラダー,0
250,1200005013728,新規,0,2025-03-07,2025-03-07,特定非営利活動法人恵那スポーツクラブ,,その他の設立登記法人,岐阜県,恵那市,大井町１４８６番地ひばりヶ丘住宅Ｂ棟,,21,210,5097201,,,,,,,2025-03-07,1,,,,,エナスポーツクラブ,0
251,1210001020082,新規,0,2025-03-07,2025-03-07,株式会社ｌｉｂｅｒｔｙ,,株式会社,福井県,敦賀市,三島町１丁目４番２８－２号,,18,202,9140058,,,,,,,2025-03-07,1,,,,,リバティ,0
252,1220003003968,新規,0,2025-03-07,2025-03-07,合同会社Ｓ＆Ｃ　ＩＳＨＩＫＡＷＡ,,合同会社,石川県,金沢市,東蚊爪町ム９番地,,17,201,9200209,,,,,,,2025-03-07,1,,,,,エスアンドシーイシカワ,0
256,1240001064614,新規,0,2025-03-07,2025-03-07,株式会社アーキテクト建築事務所,,株式会社,広島県,広島市中区,幟町６番１０－４０２号,,34,101,7300016,,,,,,,2025-03-07,1,,,,,アーキテクトケンチクジムショ,0
259,1240003007091,新規,0,2025-03-07,2025-03-07,合同会社ルアナ・リンク,,合同会社,広島県,東広島市,高屋町高屋堀８９０番地５,,34,212,7392111,,,,,,,2025-03-07,1,,,,,ルアナリンク,0
263,1260001039985,新規,0,2025-03-07,2025-03-07,株式会社リアコ,,株式会社,岡山県,岡山市南区,新保５２９番地２,,33,104,7000945,,,,,,,2025-03-07,1,,,,,リアコ,0
265,1280003001925,新規,0,2025-03-07,2025-03-07,村尾不動産鑑定合同会社,,合同会社,島根県,江津市,都野津町１９１５番地,,32,207,6950021,,,,,,,2025-03-07,1,,,,,ムラオフドウサンカンテイ,0
273,1290001109158,新規,0,2025-03-07,2025-03-07,株式会社サン・グレイス,,株式会社,福岡県,福岡市中央区,今泉２丁目４番４８号４階,,40,133,8100021,,,,,,,2025-03-07,1,,,,,サングレイス,0
274,1290001109208,新規,0,2025-03-07,2025-03-07,株式会社ＩＴＳＵＷＡ　ｉｎｄｕｓｔｒｙ　ＪＡＰＡＮ,,株式会社,福岡県,福岡市東区,箱崎ふ頭３丁目３―１９,,40,131,8120051,,,,,,,2025-03-07,1,,,,,イツワインダストリージャパン,0
275,1290001109216,新規,0,2025-03-07,2025-03-07,株式会社みなり総研,,株式会社,福岡県,福岡市東区,香椎照葉３丁目２番１号シーマークビル２階,,40,131,8130017,,,,,,,2025-03-07,1,,,,,ミナリソウケン,0
276,1290001109224,新規,0,2025-03-07,2025-03-07,ＳＴＹＬＥ　ＣＯＲＰＯＲＡＴＩＯＮ株式会社,,株式会社,福岡県,糟屋郡新宮町,大字相島７７６番地３,,40,345,8110118,,,,,,,2025-03-07,1,,,,,スタイルコーポレーション,0
280,1290003016484,新規,0,2025-03-07,2025-03-07,合同会社ｅｏｍ,,合同会社,福岡県,福岡市博多区,那珂１丁目９番１号,00138246,40,132,8120893,,,,,,,2025-03-07,1,,,,,イーオーエム,0
281,1290003016501,新規,0,2025-03-07,2025-03-07,合同会社ＩＲＩＥ,,合同会社,福岡県,福岡市早良区,原８丁目３８－４０,,40,137,8140022,,,,,,,2025-03-07,1,,,,,アイリー,0
284,1310001019478,新規,0,2025-03-07,2025-03-07,株式会社旭産,,株式会社,長崎県,雲仙市,国見町神代辛８７３番地,,42,213,8591308,,,,,,,2025-03-07,1,,,,,キョクサン,0
286,1330001032933,新規,0,2025-03-07,2025-03-07,株式会社野田,,株式会社,熊本県,熊本市東区,小山１丁目６番５４号,,43,102,8618045,,,,,,,2025-03-07,1,,,,,ノダ,0
287,1330001032941,新規,0,2025-03-07,2025-03-07,株式会社松下技建,,株式会社,熊本県,宇城市,不知火町御領２２７番地９,,43,213,8690551,,,,,,,2025-03-07,1,,,,,マツシタギケン,0
293,1370001052325,新規,0,2025-03-07,2025-03-07,株式会社ステップＤ,,株式会社,宮城県,石巻市,蛇田字下谷地１９番地１０ニューレジデンス・クロスＭ棟,,04,202,9860861,,,,,,,2025-03-07,1,,,,,ステップディー,0
307,1440003001669,新規,0,2025-03-07,2025-03-07,合同会社ｍｙｓｉｇ,,合同会社,北海道,亀田郡七飯町,字藤城３５３番地１１,,01,337,0411103,,,,,,,2025-03-07,1,,,,,ミューシグ,0
313,1470001020602,新規,0,2025-03-07,2025-03-07,株式会社ＯＫＡＺＡＫＩ,,株式会社,香川県,綾歌郡宇多津町,浜三番丁３５－２ルベール宇多津Ｉ－２０３,,37,386,7690203,,,,,,,2025-03-07,1,,,,,オカザキ,0
314,1480001012755,新規,0,2025-03-07,2025-03-07,株式会社出羽島ごーへい,,株式会社,徳島県,海部郡牟岐町,大字牟岐浦字出羽島１４－３,,36,383,7750013,,,,,,,2025-03-07,1,,,,,デバジマゴーヘイ,0
318,1490001010980,新規,0,2025-03-07,2025-03-07,株式会社ｕｔｅｃｈｎｏｌｏｇｉｅｓ,,株式会社,高知県,高知市,福井町２４０９番地１２,,39,201,7800965,,,,,,,2025-03-07,1,,,,,ユーテクノロジーズ,0
322,1700150129468,新規,0,2025-03-07,2025-03-07,ＨＵＡＩＡＮ　ＬＯＮＧＳＨＵＯ　ＩＮＴＥＲＮＡＴＩＯＮＡＬ　ＴＲＡＤＩＮＧ　ＣＯ．，ＬＴＤ,,外国会社等,,,,,,,,Ｒｏｏｍ　１９０９，Ｆｅｎｇｈｕｉ　Ｐｌａｚａ，Ｎｏ．１　Ｈｕａｉｈａｉ　Ｅａｓｔ　Ｒｏａｄ，Ｑｉｎｇｊｉａｎｇｐｕ　Ｄｉｓｔｒｉｃｔ，Ｈｕａｉａｎ　Ｃｉｔｙ，Ｊｉａｎｇｓｕ　Ｐｒｏｖｉｎｃｅ,,,,,,2025-03-07,1,,,,,フワイアンロンシュオグオジーマオイーヨウシエンゴンスー,0
335,2010001252686,新規,0,2025-03-07,2025-03-07,株式会社ＡＣ‐３,,株式会社,東京都,千代田区,麹町３丁目５番地２,,13,101,1020083,,,,,,,2025-03-07,1,,,,,エーシーサード,0
336,2010001252851,新規,0,2025-03-07,2025-03-07,株式会社ＴＫＢＣ,,株式会社,東京都,千代田区,神田佐久間町３丁目９第３田中ビル４階４１,,13,101,1010025,,,,,,,2025-03-07,1,,,,,ティーケービーシー,0
337,2010001252868,新規,0,2025-03-07,2025-03-07,株式会社ＡＳＳＥＴ,,株式会社,東京都,中央区,銀座１丁目１２－４Ｎ＆ＥＢＬＤ．７階,,13,102,1040061,,,,,,,2025-03-07,1,,,,,アセット,0
338,2010001252884,新規,0,2025-03-07,2025-03-07,クロスハブ株式会社,,株式会社,東京都,千代田区,有楽町１丁目７番１号有楽町電気ビル,,13,101,1000006,,,,,,,2025-03-07,1,,,,,クロスハブ,0
339,2010001252983,新規,0,2025-03-07,2025-03-07,株式会社フォトロン企画,,株式会社,東京都,千代田区,神田神保町１丁目１０５番地,,13,101,1010051,,,,,,,2025-03-07,1,,,,,フォトロンキカク,0
344,2010003046657,新規,0,2025-03-07,2025-03-07,合同会社酒かす研究所,,合同会社,東京都,中央区,日本橋富沢町１１番１５号,,13,102,1030006,,,,,,,2025-03-07,1,,,,,サケカスケンキュウジョ,0
345,2010003046665,新規,0,2025-03-07,2025-03-07,合同会社かりほ,,合同会社,東京都,千代田区,丸の内１丁目４番１号東京共同会計事務所内,,13,101,1000005,,,,,,,2025-03-07,1,,,,,カリホ,0
346,2010003046673,新規,0,2025-03-07,2025-03-07,ＡＩ７合同会社,,合同会社,東京都,中央区,京橋２丁目１２番６号ＡＯＪ税理士法人内,,13,102,1040031,,,,,,,2025-03-07,1,,,,,エーアイセブン,0
347,2010003046681,新規,0,2025-03-07,2025-03-07,Ｇｌｏｂａｌ　Ｉｎｎｏｖａｔｉｏｎ　Ｄｏｊｏ　ＪＡＰＡＮ合同会社,,合同会社,東京都,千代田区,丸の内１丁目８番３号丸の内トラストタワー本館２０階,,13,101,1000005,,,,,,,2025-03-07,1,,,,,グローバルイノベーションドウジョウジャパン,0
348,2010005039700,新規,0,2025-03-07,2025-03-07,一般社団法人ケアリボン,,その他の設立登記法人,東京都,千代田区,外神田２丁目１９番１５－９０１号,,13,101,1010021,,,,,,,2025-03-07,1,,,,,ケアリボン,0
360,2010401188555,新規,0,2025-03-07,2025-03-07,株式会社ワット,,株式会社,東京都,港区,赤坂８丁目１２番２８－５０２号,,13,103,1070052,,,,,,,2025-03-07,1,,,,,ワット,0
361,2010401188670,新規,0,2025-03-07,2025-03-07,株式会社Ｂｅｌｌｅ　Ｖｉｓｉｏｎ,,株式会社,東京都,港区,元赤坂１丁目２番７号赤坂Ｋタワー４階,,13,103,1070051,,,,,,,2025-03-07,1,,,,,ベルビジョン,0
362,2010401188712,新規,0,2025-03-07,2025-03-07,株式会社瑞嘉,,株式会社,東京都,港区,港南３丁目７番１６－３１０４号,,13,103,1080075,,,,,,,2025-03-07,1,,,,,ミズカ,0
363,2010401188745,新規,0,2025-03-07,2025-03-07,株式会社アスピックス,,株式会社,東京都,港区,三田４丁目９番７号ＢＰＲレジデンス三田伊皿子坂８１３,,13,103,1080073,,,,,,,2025-03-07,1,,,,,アスピックス,0
365,2010403034559,新規,0,2025-03-07,2025-03-07,合同会社ＲＩＯ,,合同会社,東京都,港区,六本木１丁目７番１０号パークコート六本木ヒルトップ３０２,,13,103,1060032,,,,,,,2025-03-07,1,,,,,リオ,0
369,2010601066890,新規,0,2025-03-07,2025-03-07,株式会社ｏｆｆｉｃｅ　Ｋ,,株式会社,東京都,江東区,平野２丁目５番８号プレイン２５８－５０１,,13,108,1350023,,,,,,,2025-03-07,1,,,,,オフィスケー,0
370,2010601066899,新規,0,2025-03-07,2025-03-07,株式会社岩太,,株式会社,東京都,江東区,豊洲６丁目５番１号,,13,108,1350061,,,,,,,2025-03-07,1,,,,,イワタ,0
372,2010605004418,新規,0,2025-03-07,2025-03-07,医療法人社団Ｇ‐ａｉ,,その他の設立登記法人,東京都,墨田区,両国４丁目６番３号岡村Ｍ．Ｄ．Ｃビル１階,,13,107,1300026,,,,,,,2025-03-07,1,,,,,ジーエーアイ,0
374,2010901056922,新規,0,2025-03-07,2025-03-07,株式会社ウィズ,,株式会社,東京都,世田谷区,用賀４丁目３番１５号ＵＴビルディング２階,,13,112,1580097,,,,,,,2025-03-07,1,,,,,ウィズ,0
375,2010901056930,新規,0,2025-03-07,2025-03-07,株式会社ＦＡＭＣＯ,,株式会社,東京都,世田谷区,等々力７丁目２０番７号,,13,112,1580082,,,,,,,2025-03-07,1,,,,,ファムコ,0
376,2010903009762,新規,0,2025-03-07,2025-03-07,Ｔｅｃｈ　Ｎｅｘｕｓ合同会社,,合同会社,東京都,世田谷区,岡本２丁目１１－４,,13,112,1570076,,,,,,,2025-03-07,1,,,,,テックネクサス,0
386,2011001168121,新規,0,2025-03-07,2025-03-07,興業東京株式会社,,株式会社,東京都,渋谷区,代々木２丁目２３－１ニューステイトメナー７７２号室,,13,113,1510053,,,,,,,2025-03-07,1,,,,,コウギョウトウキョウ,0
387,2011001168138,新規,0,2025-03-07,2025-03-07,株式会社コメリナ,,株式会社,東京都,渋谷区,道玄坂１丁目１０番８号渋谷道玄坂東急ビル２Ｆ－Ｃ,,13,113,1500043,,,,,,,2025-03-07,1,,,,,コメリナ,0
388,2011001168195,新規,0,2025-03-07,2025-03-07,株式会社ＬｕｌｕＳｔｅｌｌａ,,株式会社,東京都,渋谷区,西原２丁目１５番２号ツインハウス０００１,,13,113,1510066,,,,,,,2025-03-07,1,,,,,ルルステラ,0
389,2011001168204,新規,0,2025-03-07,2025-03-07,株式会社ＯＴＡＫ,,株式会社,東京都,渋谷区,東１丁目１１番３号ウッドハウス５０１号室,,13,113,1500011,,,,,,,2025-03-07,1,,,,,オタク,0
390,2011001168220,新規,0,2025-03-07,2025-03-07,大翔商事株式会社,,株式会社,東京都,渋谷区,渋谷２丁目２番４号青山アルコープ６０８,,13,113,1500002,,,,,,,2025-03-07,1,,,,,ダイショウショウジ,0
391,2011001168245,新規,0,2025-03-07,2025-03-07,株式会社Ｈｙｐａｇｅ,,株式会社,東京都,渋谷区,道玄坂１丁目１０番８号渋谷道玄坂東急ビル２Ｆ－Ｃ,,13,113,1500043,,,,,,,2025-03-07,1,,,,,ハイページ,0
394,2011005010898,新規,0,2025-03-07,2025-03-07,一般社団法人関東大学女子バスケットボール連盟,,その他の設立登記法人,東京都,渋谷区,桜丘町２７番２号,,13,113,1500031,,,,,,,2025-03-07,1,,,,,カントウダイガクジョシバスケットボールレンメイ,0
395,2011005010907,新規,0,2025-03-07,2025-03-07,一般社団法人シンデレラ芸術文化振興会,,その他の設立登記法人,東京都,渋谷区,上原１丁目４番４号,,13,113,1510064,,,,,,,2025-03-07,1,,,,,,0
398,2011103015601,新規,0,2025-03-07,2025-03-07,ＮＹＬＯＮ　ＣＯＦＦＥＥ‐ＮＩＨＯＮ合同会社,,合同会社,東京都,新宿区,新宿２丁目５番３号ＡＭビル７階,,13,104,1600022,,,,,,,2025-03-07,1,,,,,ナイロンコーヒーニホン,0
400,2011203004636,新規,0,2025-03-07,2025-03-07,合同会社Ａｅｇｉｓ,,合同会社,東京都,中野区,本町６丁目９番３－１０６号,,13,114,1640012,,,,,,,2025-03-07,1,,,,,イージス,0
402,2011401026878,新規,0,2025-03-07,2025-03-07,かけや総業株式会社,,株式会社,東京都,板橋区,板橋２丁目１８番４－４０２号,,13,119,1730004,,,,,,,2025-03-07,1,,,,,カケヤソウギョウ,0
404,2011501031778,新規,0,2025-03-07,2025-03-07,株式会社Ｆｏｒｅｓｔ　Ｂｅｌｌ,,株式会社,東京都,荒川区,東日暮里３丁目９番４－５０６号,,13,118,1160014,,,,,,,2025-03-07,1,,,,,フォレストベル,0
408,2011601028476,新規,0,2025-03-07,2025-03-07,株式会社オンディーヌ・クリエイション,,株式会社,東京都,練馬区,高松３丁目２４番７号,,13,120,1790075,,,,,,,2025-03-07,1,,,,,オンディーヌクリエイション,0
411,2011701028129,新規,0,2025-03-07,2025-03-07,ＹＫ商事株式会社,,株式会社,東京都,江戸川区,北小岩５丁目８番１０号チャペルヒル３Ｆ,,13,123,1330051,,,,,,,2025-03-07,1,,,,,ワイケイショウジ,0
416,2011803006701,新規,0,2025-03-07,2025-03-07,ｂｅｔｏ合同会社,,合同会社,東京都,葛飾区,東新小岩４丁目７番２２号,,13,122,1240023,,,,,,,2025-03-07,1,,,,,ビート,0
417,2012401042816,新規,0,2025-03-07,2025-03-07,株式会社フューチャーフィールド,,株式会社,東京都,府中市,宮西町４丁目１２番地５,,13,206,1830022,,,,,,,2025-03-07,1,,,,,フューチャーフィールド,0
418,2012401042824,新規,0,2025-03-07,2025-03-07,株式会社ｈａｔｏｂａ,,株式会社,東京都,三鷹市,中原４丁目４番１２号,,13,204,1810005,,,,,,,2025-03-07,1,,,,,ハトバ,0
419,2012403007008,新規,0,2025-03-07,2025-03-07,合同会社ｅｍｅ,,合同会社,東京都,武蔵野市,境南町３丁目１０番７号石井ビル１階,,13,203,1800023,,,,,,,2025-03-07,1,,,,,エメ,0
420,2012801023812,新規,0,2025-03-07,2025-03-07,株式会社ＪＣ,,株式会社,東京都,立川市,砂川町８丁目５６番１号ラメール立川６０５,,13,202,1900031,,,,,,,2025-03-07,1,,,,,ジェイシー,0
424,2013301053886,新規,0,2025-03-07,2025-03-07,株式会社コレスポンデンス,,株式会社,東京都,豊島区,高田１丁目４０番１０号グランヴァン目白ヒルズ５０２,,13,116,1710033,,,,,,,2025-03-07,1,,,,,コレスポンデンス,0
428,2020001161713,新規,0,2025-03-07,2025-03-07,株式会社至心,,株式会社,神奈川県,横浜市西区,北幸２丁目１０番４８号むつみビル３階,,14,103,2200004,,,,,,,2025-03-07,1,,,,,シシン,0
432,2020005016723,新規,0,2025-03-07,2025-03-07,一般社団法人めぶき,,その他の設立登記法人,神奈川県,川崎市多摩区,堰１丁目１８番３０号,,14,135,2140022,,,,,,,2025-03-07,1,,,,,メブキ,0
437,2021001084615,新規,0,2025-03-07,2025-03-07,株式会社ニシ・オート・インターナショナル,,株式会社,神奈川県,藤沢市,宮原３１８８番地,,14,205,2520826,,,,,,,2025-03-07,1,,,,,ニシオートインターナショナル,0
440,2021003015667,新規,0,2025-03-07,2025-03-07,合同会社湘南電力,,合同会社,神奈川県,藤沢市,辻堂元町３丁目１５番４号さくらビル１階,,14,205,2510043,,,,,,,2025-03-07,1,,,,,ショウナンデンリョク,0
441,2021003015675,新規,0,2025-03-07,2025-03-07,ティーシートラスト合同会社,,合同会社,神奈川県,三浦郡葉山町,堀内１２００番地１６,,14,301,2400112,,,,,,,2025-03-07,1,,,,,ティーシートラスト,0
442,2021003015683,新規,0,2025-03-07,2025-03-07,合同会社ＰＩＣＯＳ,,合同会社,神奈川県,座間市,入谷西５丁目５２―７座間入谷ハイツ５１０,,14,216,2520029,,,,,,,2025-03-07,1,,,,,ピコーズ,0
454,2040001137579,新規,0,2025-03-07,2025-03-07,株式会社ＷＭ,,株式会社,千葉県,白井市,白井４１２－１－１Ｃ,,12,232,2701421,,,,,,,2025-03-07,1,,,,,ダブルエム,0
455,2040001137703,新規,0,2025-03-07,2025-03-07,株式会社ちばや,,株式会社,千葉県,市川市,稲荷木１丁目３２番７号,,12,203,2720024,,,,,,,2025-03-07,1,,,,,チバヤ,0
456,2040001137711,新規,0,2025-03-07,2025-03-07,株式会社ＣｈａｔｅａｕＭａｋｏ,,株式会社,千葉県,八街市,文違３０１番地１１９１,,12,230,2891104,,,,,,,2025-03-07,1,,,,,シャトーマコ,0
457,2040001137728,新規,0,2025-03-07,2025-03-07,株式会社ａｌｌｙｖａｌｕｅ,,株式会社,千葉県,香取市,油田８８５番地１,,12,236,2890346,,,,,,,2025-03-07,1,,,,,アライバル,0
458,2040001137736,新規,0,2025-03-07,2025-03-07,株式会社ＰＡＬＵＰ,,株式会社,千葉県,成田市,宗吾４丁目１９番７,,12,211,2860004,,,,,,,2025-03-07,1,,,,,パルアップ,0
464,2040003027035,新規,0,2025-03-07,2025-03-07,合同会社コードビジョン,,合同会社,千葉県,市川市,本北方３丁目２４番１２号,,12,203,2720816,,,,,,,2025-03-07,1,,,,,コードビジョン,0
465,2040003027043,新規,0,2025-03-07,2025-03-07,合同会社ＳＡＹＵＮＩ　ＩＮＴＥＲＮＡＴＩＯＮＡＬ,,合同会社,千葉県,千葉市若葉区,小倉町１７２７－１,,12,104,2640007,,,,,,,2025-03-07,1,,,,,サユニインターナショナル,0
466,2040005022678,新規,0,2025-03-07,2025-03-07,ＮＰＯ法人白子ＧＥＮＫＩプロジェクト,,その他の設立登記法人,千葉県,長生郡白子町,中里５１３５番地２,,12,424,2994215,,,,,,,2025-03-07,1,,,,,シラコゲンキプロジェクト,0
468,2050001056266,新規,0,2025-03-07,2025-03-07,株式会社生鮮カズ,,株式会社,茨城県,古河市,駒羽根１３９７番地２,,08,204,3060221,,,,,,,2025-03-07,1,,,,,セイセンカズ,0
470,2050003009073,新規,0,2025-03-07,2025-03-07,ＳＣＳ合同会社,,合同会社,茨城県,つくば市,みどりの中央７９番地５,,08,220,3050882,,,,,,,2025-03-07,1,,,,,エスシーエス,0
471,2050003009081,新規,0,2025-03-07,2025-03-07,合同会社ベルウッド,,合同会社,茨城県,鹿嶋市,大字荒野１５５０番地１０７,,08,222,3112221,,,,,,,2025-03-07,1,,,,,ベルウッド,0
475,2070001042702,新規,0,2025-03-07,2025-03-07,株式会社ＫＩＭＩＤＯＲＩ,,株式会社,群馬県,太田市,由良町３５６番地１,,10,205,3730036,,,,,,,2025-03-07,1,,,,,キミドリ,0
478,2080001026794,新規,0,2025-03-07,2025-03-07,株式会社山昌,,株式会社,静岡県,静岡市駿河区,稲川２丁目２番６号,,22,102,4228062,,,,,,,2025-03-07,1,,,,,ヤマショウ,0
482,2090005007682,新規,0,2025-03-07,2025-03-07,特定非営利活動法人大月ねこサポーターズ,,その他の設立登記法人,山梨県,大月市,梁川町綱の上７３３番地４,,19,206,4090503,,,,,,,2025-03-07,1,,,,,オオツキネコサポーターズ,0
485,2110001039099,新規,0,2025-03-07,2025-03-07,株式会社ＢＮＧ,,株式会社,新潟県,上越市,浦川原区長走８７９番地５,,15,222,9420331,,,,,,,2025-03-07,1,,,,,ビーエヌジー,0
488,2110003005685,新規,0,2025-03-07,2025-03-07,合同会社須貝秀昭オフィス,,合同会社,新潟県,新潟市中央区,関屋田町１丁目２３番地第３８礎アパート１階,,15,103,9518136,,,,,,,2025-03-07,1,,,,,スガイヒデアキオフィス,0
502,2120001273317,新規,0,2025-03-07,2025-03-07,コサカ電機株式会社,,株式会社,大阪府,大阪市中央区,西心斎橋２丁目１２－２２－９０６号室,,27,128,5420086,,,,,,,2025-03-07,1,,,,,コサカデンキ,0
503,2120001273408,新規,0,2025-03-07,2025-03-07,株式会社ゼスト,,株式会社,大阪府,大阪市北区,梅田２丁目５番１３号桜橋第一ビル３０４号,,27,127,5300001,,,,,,,2025-03-07,1,,,,,ゼスト,0
504,2120001273416,新規,0,2025-03-07,2025-03-07,株式会社Ｇ２,,株式会社,大阪府,大阪市浪速区,木津川２丁目１番２５号,,27,111,5560027,,,,,,,2025-03-07,1,,,,,ジーツー,0
505,2120001273424,新規,0,2025-03-07,2025-03-07,株式会社ＦｉｖｅＳｔａｒ　Ｃｒｅａｔｅ,,株式会社,大阪府,大阪市浪速区,浪速西２丁目３番２－７０５号,,27,111,5560026,,,,,,,2025-03-07,1,,,,,ファイブスタークリエイト,0
509,2120003028768,新規,0,2025-03-07,2025-03-07,合同会社ＰＩＣＫＥＬ,,合同会社,大阪府,大阪市北区,梅田１丁目１番３－Ｂ２００－７号,,27,127,5300001,,,,,,,2025-03-07,1,,,,,ピッケル,0
510,2120003028818,新規,0,2025-03-07,2025-03-07,合同会社ＢＥＡＵＴＹ＆ＳＰＡ　ＣＨＡＲＭＹ’Ｐ,,合同会社,大阪府,大阪市生野区,新今里３丁目５－１８ＳＥＩＫＡビル２Ｆ２０７号室,,27,116,5440001,,,,,,,2025-03-07,1,,,,,ビューティアンドスパチャルミーピー,0
512,2120101071190,新規,0,2025-03-07,2025-03-07,株式会社４Ｂ,,株式会社,大阪府,堺市北区,長曽根町１３０番地４２,,27,146,5918025,,,,,,,2025-03-07,1,,,,,フォービー,0
514,2122001038947,新規,0,2025-03-07,2025-03-07,株式会社ジーセカンド,,株式会社,大阪府,八尾市,植松町４丁目３番１９号,,27,212,5810084,,,,,,,2025-03-07,1,,,,,ジーセカンド,0
517,2130001079143,新規,0,2025-03-07,2025-03-07,瑞鳳堂株式会社,,株式会社,京都府,京都市山科区,大宅御所田町４８－４－３０１,,26,110,6078179,,,,,,,2025-03-07,1,,,,,ズイホウドウ,0
522,2130003010262,新規,0,2025-03-07,2025-03-07,合同会社ＢＵＺＺ,,合同会社,京都府,京田辺市,同志社山手４丁目５番地７３,,26,211,6100315,,,,,,,2025-03-07,1,,,,,バズ,0
526,2140001137560,新規,0,2025-03-07,2025-03-07,豊金属商事株式会社,,株式会社,兵庫県,川西市,けやき坂５丁目１０番地の１６,,28,217,6660145,,,,,,,2025-03-07,1,,,,,ユタカキンゾクショウジ,0
527,2140001137602,新規,0,2025-03-07,2025-03-07,株式会社ナックスエアー,,株式会社,兵庫県,三田市,下深田７４６番地４５５,,28,219,6691543,,,,,,,2025-03-07,1,,,,,ナックスエアー,0
528,2140001137635,新規,0,2025-03-07,2025-03-07,株式会社中田,,株式会社,兵庫県,西宮市,津門仁辺町１番２６－１０５号,,28,204,6638246,,,,,,,2025-03-07,1,,,,,ナカタ,0
536,2180001165681,新規,0,2025-03-07,2025-03-07,株式会社ＣＵＯＲＥＳ,,株式会社,愛知県,名古屋市天白区,池見１丁目４７番地の２（プリンセス八事２０３号）,,23,116,4680067,,,,,,,2025-03-07,1,,,,,クオレス,0
537,2180001165698,新規,0,2025-03-07,2025-03-07,株式会社一軒落着Ｐｌｕｓ,,株式会社,愛知県,北名古屋市,鹿田流６７番地１,,23,234,4810004,,,,,,,2025-03-07,1,,,,,イッケンラクチャクプラス,0
538,2180001165731,新規,0,2025-03-07,2025-03-07,株式会社荒木地所コンサルティング,,株式会社,愛知県,名古屋市千種区,今池南２９番２４号川島第一ビル３階３Ｆ号室,,23,101,4640851,,,,,,,2025-03-07,1,,,,,アラキジショコンサルティング,0
539,2180001165748,新規,0,2025-03-07,2025-03-07,株式会社トップスレンタカー,,株式会社,愛知県,長久手市,久保山１６０５番地,,23,238,4801151,,,,,,,2025-03-07,1,,,,,トップスレンタカー,0
540,2180001165772,新規,0,2025-03-07,2025-03-07,株式会社きらりＳＹＳＴＥＭ,,株式会社,愛知県,名古屋市西区,城北町２丁目９４番地の２,,23,104,4510023,,,,,,,2025-03-07,1,,,,,キラリシステム,0
542,2180003028077,新規,0,2025-03-07,2025-03-07,ヘルツデザイン合同会社,,合同会社,愛知県,名古屋市中村区,名駅４丁目２４番５号第２森ビル４０１,,23,105,4500002,,,,,,,2025-03-07,1,,,,,ヘルツデザイン,0
543,2180003028102,新規,0,2025-03-07,2025-03-07,合同会社ネクソリア,,合同会社,愛知県,名古屋市東区,泉１丁目１４番６号パークサイト泉８０３号,,23,102,4610001,,,,,,,2025-03-07,1,,,,,ネクソリア,0
544,2180005020973,新規,0,2025-03-07,2025-03-07,一般社団法人ＳＵＮＲＩＳＥ,,その他の設立登記法人,愛知県,名古屋市中区,栄３丁目４番２１号ＴＯＳＨＩＮＳＡＫＡＥビル２階,,23,106,4600008,,,,,,,2025-03-07,1,,,,,サンライズ,0
547,2180301039569,新規,0,2025-03-07,2025-03-07,株式会社クリエイティブデパートメント,,株式会社,愛知県,刈谷市,新栄町２丁目１４番地,,23,210,4480843,,,,,,,2025-03-07,1,,,,,クリエイティブデパートメント,0
548,2180301039593,新規,0,2025-03-07,2025-03-07,株式会社リトルミー,,株式会社,愛知県,豊橋市,広小路２丁目９番地の１コンチェルトタワー豊橋６０２,,23,201,4400881,,,,,,,2025-03-07,1,,,,,リトルミー,0
549,2180301039602,新規,0,2025-03-07,2025-03-07,株式会社スギサカ,,株式会社,愛知県,岡崎市,森越町字三円５０番地,,23,202,4440901,,,,,,,2025-03-07,1,,,,,スギサカ,0
552,2190001032047,新規,0,2025-03-07,2025-03-07,株式会社桃太郎設備,,株式会社,三重県,津市,藤枝町５０番地７,,24,201,5140814,,,,,,,2025-03-07,1,,,,,モモタロウセツビ,0
554,2200001043505,新規,0,2025-03-07,2025-03-07,株式会社僚翔工業,,株式会社,岐阜県,大垣市,東町２丁目９５番地４,,21,202,5030802,,,,,,,2025-03-07,1,,,,,リョウトコウギョウ,0
557,2200005013727,新規,0,2025-03-07,2025-03-07,天地之宮,,その他の設立登記法人,岐阜県,郡上市,美並町大原字湊１２４１番地１,,21,219,5014107,,,,,,,2025-03-07,1,,,,,アメツチノミヤ,0
559,2220001026516,新規,0,2025-03-07,2025-03-07,ＡＢＣ株式会社,,株式会社,石川県,河北郡内灘町,白帆台２５１５,,17,365,9200200,,,,,,,2025-03-07,1,,,,,エイビーシー,0
560,2220001026524,新規,0,2025-03-07,2025-03-07,株式会社アサノハ,,株式会社,石川県,金沢市,彦三町１丁目１３番３６号,,17,201,9200901,,,,,,,2025-03-07,1,,,,,アサノハ,0
561,2220001026532,新規,0,2025-03-07,2025-03-07,株式会社ツートップ,,株式会社,石川県,白山市,美里町４７番地,,17,210,9240820,,,,,,,2025-03-07,1,,,,,ツートップ,0
567,2240001064605,新規,0,2025-03-07,2025-03-07,株式会社多田プラント工業,,株式会社,広島県,呉市,押込１丁目１７番７号,,34,202,7370915,,,,,,,2025-03-07,1,,,,,タダプラントコウギョウ,0
568,2240001064613,新規,0,2025-03-07,2025-03-07,株式会社西の出家,,株式会社,広島県,広島市安芸区,矢野西４丁目２４番４２号,,34,107,7360085,,,,,,,2025-03-07,1,,,,,ニシノデイエ,0
570,2250001021035,新規,0,2025-03-07,2025-03-07,株式会社樹,,株式会社,山口県,防府市,勝間３丁目７番７－２号,,35,206,7470822,,,,,,,2025-03-07,1,,,,,イツキ,0
575,2260001039984,新規,0,2025-03-07,2025-03-07,株式会社樹,,株式会社,岡山県,高梁市,成羽町下原４２７番地１,,33,209,7160111,,,,,,,2025-03-07,1,,,,,イツキ,0
595,2330001032949,新規,0,2025-03-07,2025-03-07,山協株式会社,,株式会社,熊本県,山鹿市,南島１１４３番地３,,43,208,8610535,,,,,,,2025-03-07,1,,,,,サンキョウ,0
597,2340001027171,新規,0,2025-03-07,2025-03-07,株式会社Ｆａｍ,,株式会社,鹿児島県,鹿児島市,広木１丁目９番２号,,46,201,8900037,,,,,,,2025-03-07,1,,,,,ファム,0
604,2360001034777,新規,0,2025-03-07,2025-03-07,丸元産業株式会社,,株式会社,沖縄県,那覇市,久米２丁目２４番１９号ドミール久米５０２,,47,201,9000033,,,,,,,2025-03-07,1,,,,,マルゲンサンギョウ,0
606,2360003014744,新規,0,2025-03-07,2025-03-07,合同会社沖縄不動産企画,,合同会社,沖縄県,那覇市,泊３丁目１４番５号２０１,,47,201,9000012,,,,,,,2025-03-07,1,,,,,オキナワフドウサンキカク,0
625,2430001093782,新規,0,2025-03-07,2025-03-07,株式会社ＣＡＳＰＥＮ,,株式会社,北海道,虻田郡倶知安町,字山田３４番地３２,,01,400,0440081,,,,,,,2025-03-07,1,,,,,カシペン,0
630,2470003002829,新規,0,2025-03-07,2025-03-07,合同会社デジタルアセットサービス,,合同会社,香川県,さぬき市,長尾西５３番地２,,37,206,7692302,,,,,,,2025-03-07,1,,,,,デジタルアセットサービス,0
632,2480001012762,新規,0,2025-03-07,2025-03-07,株式会社新生,,株式会社,徳島県,阿南市,新野町北宮ノ久保３０番地,,36,204,7791510,,,,,,,2025-03-07,1,,,,,シンセイ,0
633,2480003002241,新規,0,2025-03-07,2025-03-07,日盛合同会社,,合同会社,徳島県,美馬市,脇町大字猪尻字東分５６番地２,,36,207,7793602,,,,,,,2025-03-07,1,,,,,ニッセイ,0
637,2500001026173,新規,0,2025-03-07,2025-03-07,株式会社たつの屋,,株式会社,愛媛県,四国中央市,三島宮川３丁目１８番９号,,38,213,7990404,,,,,,,2025-03-07,1,,,,,タツノヤ,0
639,2700150129459,新規,0,2025-03-07,2025-03-07,ｔｉａｎｊｉｎｎｉｕｍａｉｋｅｊｉｙｏｕｘｉａｎｇｏｎｇｓｉ,,外国会社等,,,,,,,,Ｈｅｄｏｎｇｑｕｃｈｕｎｈｕａｊｉｅｄａｏｘｉｎｋａｉｌｕｃｈｕａｎｇｚｈｉｄａｓｈａ　１－６０５－３６,,,,,,2025-03-07,1,,,,,ティエンジンニューマイコージーヨウシエンゴンスー,0
640,2700150129467,新規,0,2025-03-07,2025-03-07,Ｊｉｇｕａｎ（Ｘｉａｍｅｎ）Ｓｕｐｐｌｙ　Ｃｈａｉｎ　Ｃｏ．，Ｌｔｄ,,外国会社等,,,,,,,,Ｒｏｏｍ　１９０４，Ｎｏ．７５　Ｙｕｆｕ　Ｙｉｌｉ，Ｇｕａｎｋｏｕ　Ｔｏｗｎ，Ｊｉｍｅｉ　Ｄｉｓｔｒｉｃｔ，Ｘｉａｍｅｎ　Ｃｉｔｙ,,,,,,2025-03-07,1,,,,,ジーグワンシャーメンゴンインリエンヨウシエンゴンスー,0
647,3010001252842,新規,0,2025-03-07,2025-03-07,北川株式会社,,株式会社,東京都,中央区,新富１丁目６番５号フジタ新富マンション,,13,102,1040041,,,,,,,2025-03-07,1,,,,,キタガワ,0
648,3010001252859,新規,0,2025-03-07,2025-03-07,ネオラント株式会社,,株式会社,東京都,千代田区,四番町２番地１クレール東郷坂１Ｆ,,13,101,1020081,,,,,,,2025-03-07,1,,,,,ネオラント,0
649,3010001252875,新規,0,2025-03-07,2025-03-07,株式会社泰興Ｇｌｏｂａｌ,,株式会社,東京都,中央区,京橋２丁目８番１０号木下ビル６階,,13,102,1040031,,,,,,,2025-03-07,1,,,,,タイコウグローバル,0
650,3010001252925,新規,0,2025-03-07,2025-03-07,アストラパス株式会社,,株式会社,東京都,千代田区,神田三崎町３丁目４番２号,,13,101,1010061,,,,,,,2025-03-07,1,,,,,アストラパス,0
654,3010003046482,新規,0,2025-03-07,2025-03-07,合同会社Ｐｅｎｇｕｉｎ,,合同会社,東京都,千代田区,神田鍛冶町二丁目８番地３,,13,101,1000000,,,,,,,2025-03-07,1,,,,,ペンギン,0
655,3010003046664,新規,0,2025-03-07,2025-03-07,合同会社クロスシェア,,合同会社,東京都,千代田区,大手町１丁目２番１号,,13,101,1000004,,,,,,,2025-03-07,1,,,,,クロスシェア,0
656,3010003046680,新規,0,2025-03-07,2025-03-07,ＵＳ　Ｍａｒｋｅｔ　Ａｃｃｅｓｓ　Ｃｅｎｔｅｒ　ＪＡＰＡＮ合同会社,,合同会社,東京都,千代田区,丸の内１丁目８番３号丸の内トラストタワー本館２０階,,13,101,1000005,,,,,,,2025-03-07,1,,,,,ユーエスマーケットアクセスセンタージャパン,0
657,3010005039699,新規,0,2025-03-07,2025-03-07,医療法人社団ＲＳＣ,,その他の設立登記法人,東京都,千代田区,一番町６番地１ロイヤル一番町１階Ａ－１０４号室,,13,101,1020082,,,,,,,2025-03-07,1,,,,,アールエスシー,0
661,3010401188637,新規,0,2025-03-07,2025-03-07,シャングリ・ラ京都株式会社,,株式会社,東京都,港区,虎ノ門５丁目１番４号,,13,103,1050001,,,,,,,2025-03-07,1,,,,,シャングリラキョウト,0
662,3010401188686,新規,0,2025-03-07,2025-03-07,株式会社ＴＭＣｏｌｌｅｃｔｉｖｅ,,株式会社,東京都,港区,南麻布１丁目２４番６号,,13,103,1060047,,,,,,,2025-03-07,1,,,,,ティーエムコレクティブ,0
663,3010401188694,新規,0,2025-03-07,2025-03-07,株式会社Ｈ２Ｏ,,株式会社,東京都,港区,高輪４丁目１４番１－８０２号,,13,103,1080074,,,,,,,2025-03-07,1,,,,,エイチツーオー,0
664,3010401188802,新規,0,2025-03-07,2025-03-07,スプラウトアセット株式会社,,株式会社,東京都,港区,六本木３丁目７番１号,,13,103,1060032,,,,,,,2025-03-07,1,,,,,スプラウトアセット,0
665,3010403034566,新規,0,2025-03-07,2025-03-07,合同会社ＫＦＭ,,合同会社,東京都,港区,南青山３丁目１－３６青山丸竹ビル６Ｆ,,13,103,1070062,,,,,,,2025-03-07,1,,,,,ケーエフエム,0
666,3010403034590,新規,0,2025-03-07,2025-03-07,合同会社ｎｉｎｎｉｎ,,合同会社,東京都,港区,北青山１丁目３番３号三橋ビル３階,,13,103,1070061,,,,,,,2025-03-07,1,,,,,ニンニン,0
670,3010601066865,新規,0,2025-03-07,2025-03-07,ＫＡＪＩＴＯ株式会社,,株式会社,東京都,江東区,木場２丁目１９番１５号セントラルビル７階,,13,108,1350042,,,,,,,2025-03-07,1,,,,,カジト,0
671,3010701047336,新規,0,2025-03-07,2025-03-07,株式会社九星,,株式会社,東京都,品川区,旗の台６丁目２９番５号,,13,109,1420064,,,,,,,2025-03-07,1,,,,,キュウセイ,0
676,3010901056921,新規,0,2025-03-07,2025-03-07,株式会社Ｒｕｂｉｃｏｎ９,,株式会社,東京都,世田谷区,玉川４丁目２６番６号,,13,112,1580094,,,,,,,2025-03-07,1,,,,,ルビコンナイン,0
677,3010901056946,新規,0,2025-03-07,2025-03-07,株式会社ＭｉｌｌＣ,,株式会社,東京都,世田谷区,等々力２丁目１８番１５号,,13,112,1580082,,,,,,,2025-03-07,1,,,,,ミルク,0
683,3011001168244,新規,0,2025-03-07,2025-03-07,株式会社３ｗａｙｓ,,株式会社,東京都,渋谷区,恵比寿西２丁目４番８号ウィンド恵比寿ビル８Ｆ,,13,113,1500021,,,,,,,2025-03-07,1,,,,,スリーウェイズ,0
684,3011001168269,新規,0,2025-03-07,2025-03-07,株式会社ＮＧＴＧ１１,,株式会社,東京都,渋谷区,渋谷１丁目３－１８ビラ・モデルナＡ４０２,,13,113,1500002,,,,,,,2025-03-07,1,,,,,エヌジーティージーイチイチ,0
685,3011003021104,新規,0,2025-03-07,2025-03-07,合同会社ゼイン,,合同会社,東京都,渋谷区,道玄坂１丁目１０番８号渋谷道玄坂東急ビル２Ｆ－Ｃ,,13,113,1500043,,,,,,,2025-03-07,1,,,,,ゼイン,0
686,3011003021112,新規,0,2025-03-07,2025-03-07,ビブリオブッコ合同会社,,合同会社,東京都,渋谷区,神宮前６丁目２３－４桑野ビル２Ｆ,,13,113,1500001,,,,,,,2025-03-07,1,,,,,ビブリオブッコ,0
687,3011003021120,新規,0,2025-03-07,2025-03-07,合同会社ちわお,,合同会社,東京都,渋谷区,道玄坂１丁目１６－６二葉ビル８Ｂ,,13,113,1500043,,,,,,,2025-03-07,1,,,,,チワオ,0
688,3011003021137,新規,0,2025-03-07,2025-03-07,合同会社ＮｏＲｕｓｈ　Ｓｅｒｖｉｃｅ＆Ｌｉｆｅ,,合同会社,東京都,渋谷区,千駄ヶ谷３丁目７番２号２Ｆ,,13,113,1510051,,,,,,,2025-03-07,1,,,,,ノーラッシュサービスアンドライフ,0
695,3011401026885,新規,0,2025-03-07,2025-03-07,Ａｕｒｉｃ株式会社,,株式会社,東京都,板橋区,仲宿６３番地７号ＯＥＯｆｆｉｃｅＢｌｄｇ．３０３号,,13,119,1730005,,,,,,,2025-03-07,1,,,,,オリック,0
696,3011403004641,新規,0,2025-03-07,2025-03-07,合同会社双葉サービス,,合同会社,東京都,板橋区,双葉町４４番１９号,,13,119,1730011,,,,,,,2025-03-07,1,,,,,フタバサービス,0
697,3011405002379,新規,0,2025-03-07,2025-03-07,医療法人社団ＰＡＮＤＡ,,その他の設立登記法人,東京都,板橋区,板橋２丁目６７番５号アクロスキューブ板橋１Ｆ,,13,119,1730004,,,,,,,2025-03-07,1,,,,,パンダ,0
703,3011701028128,新規,0,2025-03-07,2025-03-07,株式会社ＯＮＥＴＥＮ,,株式会社,東京都,江戸川区,本一色３丁目３５番１４号,,13,123,1330044,,,,,,,2025-03-07,1,,,,,ワンテン,0
708,3011803006725,新規,0,2025-03-07,2025-03-07,合同会社メルカンテ,,合同会社,東京都,足立区,東和５丁目８番２３号,,13,121,1200003,,,,,,,2025-03-07,1,,,,,メルカンテ,0
711,3012801023803,新規,0,2025-03-07,2025-03-07,株式会社ＫＳプランニング,,株式会社,東京都,立川市,栄町５丁目３４番地の１４,,13,202,1900003,,,,,,,2025-03-07,1,,,,,ケイエスプランニング,0
719,3013301053902,新規,0,2025-03-07,2025-03-07,株式会社ＨＡＮＡＤＯ,,株式会社,東京都,豊島区,千早１丁目１９番１２－１３０１号,,13,116,1710044,,,,,,,2025-03-07,1,,,,,ハナドー,0
721,3013303007559,新規,0,2025-03-07,2025-03-07,合同会社コラム,,合同会社,東京都,豊島区,駒込１丁目１３番１４－９０２号,,13,116,1700003,,,,,,,2025-03-07,1,,,,,コラム,0
722,3013305003696,新規,0,2025-03-07,2025-03-07,行政書士法人ＩＤＯ,,その他の設立登記法人,東京都,豊島区,北大塚２丁目１１－９梟ビル３階,,13,116,1700004,,,,,,,2025-03-07,1,,,,,アイディーオー,0
724,3020001161737,新規,0,2025-03-07,2025-03-07,Ｍｏｐｌｕｓ株式会社,,株式会社,神奈川県,横浜市西区,高島１丁目１番１号,,14,103,2200011,,,,,,,2025-03-07,1,,,,,モプラス,0
725,3020001161803,新規,0,2025-03-07,2025-03-07,リアン株式会社,,株式会社,神奈川県,川崎市幸区,南加瀬５丁目１番４６号,,14,132,2120055,,,,,,,2025-03-07,1,,,,,リアン,0
731,3020005016722,新規,0,2025-03-07,2025-03-07,一般社団法人日本福祉協議会,,その他の設立登記法人,神奈川県,川崎市宮前区,馬絹１丁目１０番６号サンクタス宮崎台１０６,,14,136,2160035,,,,,,,2025-03-07,1,,,,,ニホンフクシキョウギカイ,0
735,3021001084589,新規,0,2025-03-07,2025-03-07,株式会社サングレイス,,株式会社,神奈川県,小田原市,栄町１丁目１６－４３ディーヴァン１０１,,14,206,2500011,,,,,,,2025-03-07,1,,,,,サングレイス,0
736,3021001084630,新規,0,2025-03-07,2025-03-07,株式会社リビア,,株式会社,神奈川県,大和市,西鶴間４丁目１番５号日神パレス鶴間３０２号,,14,213,2420005,,,,,,,2025-03-07,1,,,,,リビア,0
737,3021003015674,新規,0,2025-03-07,2025-03-07,合同会社西湘,,合同会社,神奈川県,中郡二宮町,百合が丘１丁目１０３番地の６,,14,342,2590133,,,,,,,2025-03-07,1,,,,,セイショウ,0
738,3021003015690,新規,0,2025-03-07,2025-03-07,合同会社ミック,,合同会社,神奈川県,相模原市南区,相模大野５丁目２６番９号カサレアＡ１０６,,14,153,2520303,,,,,,,2025-03-07,1,,,,,ミック,0
739,3021005013288,新規,0,2025-03-07,2025-03-07,一般社団法人やまとカルチャーカレッジ,,その他の設立登記法人,神奈川県,大和市,つきみ野８丁目１４－４３清光ヒルズ３０２号,,14,213,2420002,,,,,,,2025-03-07,1,,,,,ヤマトカルチャーカレッジ,0
746,3030001165076,新規,0,2025-03-07,2025-03-07,株式会社ゼロワン,,株式会社,埼玉県,飯能市,大字双柳１４８５番地１１,,11,209,3570021,,,,,,,2025-03-07,1,,,,,ゼロワン,0
759,3040001137636,新規,0,2025-03-07,2025-03-07,株式会社大寿,,株式会社,千葉県,八街市,泉台１丁目７番地１２,,12,230,2891105,,,,,,,2025-03-07,1,,,,,タイジュ,0
760,3040001137644,新規,0,2025-03-07,2025-03-07,株式会社東遥建設,,株式会社,千葉県,市原市,椎津６４５番地２,,12,219,2990118,,,,,,,2025-03-07,1,,,,,トウヨウケンセツ,0
761,3040001137652,新規,0,2025-03-07,2025-03-07,株式会社ＧＯＡＴ．Ｅ,,株式会社,千葉県,市原市,五井２２２３番地１アゾラーレ五井１０５,,12,219,2900056,,,,,,,2025-03-07,1,,,,,ゴートエンジニアリング,0
762,3040001137660,新規,0,2025-03-07,2025-03-07,株式会社アトラス,,株式会社,千葉県,市川市,原木１丁目３番１－８０２号（原木中山ファミールハイツ１号館）,,12,203,2720004,,,,,,,2025-03-07,1,,,,,アトラス,0
763,3040001137710,新規,0,2025-03-07,2025-03-07,株式会社ＷＡＶＥ＆Ｐａｒｔｎｅｒｓ,,株式会社,千葉県,浦安市,東野２丁目１４－３８,,12,227,2790042,,,,,,,2025-03-07,1,,,,,ウェーブアンドパートナーズ,0
764,3040001137727,新規,0,2025-03-07,2025-03-07,株式会社ＭＡＹＵＴＡＫＡ,,株式会社,千葉県,千葉市美浜区,中瀬１丁目３番地幕張テクノガーデンＣＢ棟３階,,12,106,2610023,,,,,,,2025-03-07,1,,,,,マユタカ,0
767,3040003027026,新規,0,2025-03-07,2025-03-07,合同会社令和企画,,合同会社,千葉県,千葉市中央区,栄町２６番８号ロイヤルハイム千葉４０３号,,12,101,2600016,,,,,,,2025-03-07,1,,,,,レイワキカク,0
768,3040003027042,新規,0,2025-03-07,2025-03-07,ＡＩ　ＪＡＰＡＮ合同会社,,合同会社,千葉県,富里市,中沢４０２番地５ハイムカトウ１０５,,12,233,2860222,,,,,,,2025-03-07,1,,,,,エーアイジャパン,0
769,3040005022677,新規,0,2025-03-07,2025-03-07,一般社団法人日本Ｐｒｏｂａｂｉｌｉｓｔｉｃ　Ｃｏｍｐｕｔｉｎｇ協会,,その他の設立登記法人,千葉県,習志野市,芝園２丁目１番１号,,12,216,2750023,,,,,,,2025-03-07,1,,,,,ニホンプロバビリスティックコンピューティングキョウカイ,0
772,3050001056281,新規,0,2025-03-07,2025-03-07,株式会社ＫＯＳＥＩ,,株式会社,茨城県,坂東市,借宿２８２番地２,,08,228,3060657,,,,,,,2025-03-07,1,,,,,コウセイ,0
775,3050003009072,新規,0,2025-03-07,2025-03-07,合同会社Ａ・Ｉ・Ｃ,,合同会社,茨城県,つくば市,花畑２丁目６番地１６,,08,220,3003261,,,,,,,2025-03-07,1,,,,,エーアイシー,0
786,3090001019169,新規,0,2025-03-07,2025-03-07,株式会社アヴニール,,株式会社,山梨県,中巨摩郡昭和町,清水新居３８０番地,,19,384,4093867,,,,,,,2025-03-07,1,,,,,アヴニール,0
788,3100001038357,新規,0,2025-03-07,2025-03-07,邑和フーズ株式会社,,株式会社,長野県,小諸市,赤坂１丁目７番１０号,,20,208,3840011,,,,,,,2025-03-07,1,,,,,オウワフーズ,0
809,3120001273480,新規,0,2025-03-07,2025-03-07,株式会社カツタ,,株式会社,大阪府,大阪市北区,中之島３丁目５番１１－１８０２号,,27,127,5300005,,,,,,,2025-03-07,1,,,,,カツタ,0
810,3120001273489,新規,0,2025-03-07,2025-03-07,株式会社ＯＮＥ　ＬＩＦＥ,,株式会社,大阪府,大阪市北区,堂島２丁目４番４号,,27,127,5300003,,,,,,,2025-03-07,1,,,,,ワンライフ,0
811,3120001273506,新規,0,2025-03-07,2025-03-07,雲礼株式会社,,株式会社,大阪府,大阪市生野区,勝山北５丁目２２番１９－２０１号,,27,116,5440033,,,,,,,2025-03-07,1,,,,,ウンレイ,0
812,3120001273522,新規,0,2025-03-07,2025-03-07,桂新創展株式会社,,株式会社,大阪府,大阪市住吉区,上住吉２丁目１６－２０，１階,,27,120,5580046,,,,,,,2025-03-07,1,,,,,ケイシンソウテン,0
814,3120003028809,新規,0,2025-03-07,2025-03-07,合同会社大天津商事,,合同会社,大阪府,大阪市西成区,山王２丁目１３番２２号津住２０２号,,27,122,5570001,,,,,,,2025-03-07,1,,,,,ダイテンシンショウジ,0
817,3120101071181,新規,0,2025-03-07,2025-03-07,株式会社泉州ホールディングス,,株式会社,大阪府,岸和田市,包近町３６０番地１,,27,202,5960101,,,,,,,2025-03-07,1,,,,,センシュウホールディングス,0
824,3130001079068,新規,0,2025-03-07,2025-03-07,大洋商事株式会社,,株式会社,京都府,京都市山科区,東野中井ノ上町３番地の１１,,26,110,6078142,,,,,,,2025-03-07,1,,,,,タイヨウショウジ,0
825,3130001079101,新規,0,2025-03-07,2025-03-07,株式会社野村工業,,株式会社,京都府,京都市山科区,西野大鳥井町３５番地３８,,26,110,6078355,,,,,,,2025-03-07,1,,,,,ノムラコウギョウ,0
830,3130003010253,新規,0,2025-03-07,2025-03-07,合同会社竜貴,,合同会社,京都府,舞鶴市,南浜町２１番地３,,26,202,6250057,,,,,,,2025-03-07,1,,,,,タツキ,0
831,3140001137626,新規,0,2025-03-07,2025-03-07,株式会社バッカス,,株式会社,兵庫県,西宮市,羽衣町５－２３バートンビル１Ｆ,,28,204,6620051,,,,,,,2025-03-07,1,,,,,バッカス,0
832,3140001137634,新規,0,2025-03-07,2025-03-07,神戸エアポートアビエーションサービス株式会社,,株式会社,兵庫県,神戸市中央区,神戸空港４番,,28,110,6500048,,,,,,,2025-03-07,1,,,,,コウベエアポートアビエーションサービス,0
833,3140001137650,新規,0,2025-03-07,2025-03-07,株式会社恵比寿不動産,,株式会社,兵庫県,小野市,垂井町５２０番地の１グランシャリオＡ棟１０２号,,28,218,6751333,,,,,,,2025-03-07,1,,,,,エビスフドウサン,0
836,3160001026587,新規,0,2025-03-07,2025-03-07,株式会社Ｋ．Ｄ．Ｌａｂｏ．,,株式会社,滋賀県,大津市,錦織１丁目１９番４６号,,25,201,5200027,,,,,,,2025-03-07,1,,,,,ケーディーラボ,0
837,3160005011379,新規,0,2025-03-07,2025-03-07,司法書士法人やまがた司法事務所,,その他の設立登記法人,滋賀県,大津市,坂本４丁目８番５１号,,25,201,5200113,,,,,,,2025-03-07,1,,,,,ヤマガタシホウジムショ,0
842,3180001165648,新規,0,2025-03-07,2025-03-07,Ｈ・Ｗｏｒｌｄ　Ｈｕｍａｎ　Ｓｕｐｐｏｒｔ株式会社,,株式会社,愛知県,名古屋市西区,赤城町４４番地,,23,104,4520813,,,,,,,2025-03-07,1,,,,,エイチワールドヒューマンサポート,0
843,3180001165689,新規,0,2025-03-07,2025-03-07,株式会社Ｂａｂｂｌｉｎｇ　Ｂａｂｙ,,株式会社,愛知県,名古屋市天白区,土原４丁目１０２番地,,23,116,4680026,,,,,,,2025-03-07,1,,,,,バブリングベビー,0
844,3180001165706,新規,0,2025-03-07,2025-03-07,株式会社ＡＳＥＡＭ,,株式会社,愛知県,名古屋市千種区,姫池通２丁目２６番地１０,,23,101,4640055,,,,,,,2025-03-07,1,,,,,エイシーム,0
845,3180001165722,新規,0,2025-03-07,2025-03-07,株式会社ｆｕｎｃｔｉｏｎ,,株式会社,愛知県,名古屋市天白区,中砂町５８９グランデ島田橋３０５,,23,116,4680065,,,,,,,2025-03-07,1,,,,,ファンクション,0
846,3180001165730,新規,0,2025-03-07,2025-03-07,株式会社ＡＣＥ総合コンサル,,株式会社,愛知県,春日井市,松河戸町２丁目１８番地７グランドゥールＨ４０３号,,23,206,4860932,,,,,,,2025-03-07,1,,,,,エーシーイーソウゴウコンサル,0
847,3180001165739,新規,0,2025-03-07,2025-03-07,株式会社備長,,株式会社,愛知県,名古屋市中区,栄３丁目６番１号,,23,106,4600008,,,,,,,2025-03-07,1,,,,,ビンチョウ,0
848,3180001165763,新規,0,2025-03-07,2025-03-07,株式会社Ｔｅａｍ　Ｔ,,株式会社,愛知県,名古屋市瑞穂区,佐渡町１丁目８番地の１,,23,108,4670016,,,,,,,2025-03-07,1,,,,,チームティー,0
850,3180003028076,新規,0,2025-03-07,2025-03-07,合同会社オークブルック,,合同会社,愛知県,名古屋市天白区,久方２丁目１５番地の４５,,23,116,4680034,,,,,,,2025-03-07,1,,,,,オークブルック,0
851,3180003028101,新規,0,2025-03-07,2025-03-07,ＡＣＯ合同会社,,合同会社,愛知県,名古屋市中村区,名駅４丁目２４番５号第２森ビル４０１,,23,105,4500002,,,,,,,2025-03-07,1,,,,,アコ,0
853,3180005020972,新規,0,2025-03-07,2025-03-07,中日本サイディング事業協同組合,,その他の設立登記法人,愛知県,名古屋市瑞穂区,弥富通三丁目１９番２号,,23,108,4670000,,,,,,,2025-03-07,1,,,,,ナカニホンサイディングジギョウ,0
854,3180301039551,新規,0,2025-03-07,2025-03-07,ユニオンビズホールディングス株式会社,,株式会社,愛知県,刈谷市,青山町１丁目１５６番地１５,,23,210,4480014,,,,,,,2025-03-07,1,,,,,ユニオンビズホールディングス,0
855,3180301039592,新規,0,2025-03-07,2025-03-07,株式会社Ｊ＆Ｖ,,株式会社,愛知県,豊田市,昭和町１丁目６番地１０,,23,211,4710078,,,,,,,2025-03-07,1,,,,,ジェイアンドブイ,0
856,3190001032046,新規,0,2025-03-07,2025-03-07,株式会社多氣ライス,,株式会社,三重県,津市,久居相川町２０６６番地,,24,201,5141103,,,,,,,2025-03-07,1,,,,,タゲライス,0
858,3220001026531,新規,0,2025-03-07,2025-03-07,センノワ株式会社,,株式会社,石川県,小松市,清六町甲１８番地１,,17,203,9230862,,,,,,,2025-03-07,1,,,,,センノワ,0
875,3290001109247,新規,0,2025-03-07,2025-03-07,東海警備保障株式会社,,株式会社,福岡県,福岡市博多区,堅粕３丁目１番１９号,,40,132,8120043,,,,,,,2025-03-07,1,,,,,トウカイケイビホショウ,0
879,3290003016508,新規,0,2025-03-07,2025-03-07,新進エネルギー合同会社,,合同会社,福岡県,福岡市中央区,六本松２丁目１２番８号ロマネスクＬ六本松６０１号室,,40,133,8100044,,,,,,,2025-03-07,1,,,,,シンシンエネルギー,0
883,3310001019476,新規,0,2025-03-07,2025-03-07,株式会社ドリームワールド,,株式会社,長崎県,南島原市,深江町乙１１４８番地６,,42,214,8591502,,,,,,,2025-03-07,1,,,,,ドリームワールド,0
887,3320001020978,新規,0,2025-03-07,2025-03-07,株式会社明拓開発,,株式会社,大分県,大分市,高松１丁目７－８サンメゾン高城１０２,,44,201,8700917,,,,,,,2025-03-07,1,,,,,メイタクカイハツ,0
889,3330003010877,新規,0,2025-03-07,2025-03-07,Ｒ‐プライス合同会社,,合同会社,熊本県,熊本市西区,横手４丁目１８番４３号,,43,103,8600046,,,,,,,2025-03-07,1,,,,,アールプライス,0
892,3350001019423,新規,0,2025-03-07,2025-03-07,一電工株式会社,,株式会社,宮崎県,日向市,大字財光寺４６２０番地５,,45,206,8830021,,,,,,,2025-03-07,1,,,,,ハジメデンコウ,0
901,3380001035137,新規,0,2025-03-07,2025-03-07,株式会社アクアレンタルコミュニケーションズ,,株式会社,福島県,福島市,永井川字古内１５番地,,07,201,9601102,,,,,,,2025-03-07,1,,,,,アクアレンタルコミュニケーションズ,0
903,3390001017893,新規,0,2025-03-07,2025-03-07,佐藤自動車株式会社,,株式会社,山形県,山形市,大字大森１６２６番地の２,,06,201,9902231,,,,,,,2025-03-07,1,,,,,サトウジドウシャ,0
907,3410001014079,新規,0,2025-03-07,2025-03-07,株式会社ＫＡＩＳＥＮ,,株式会社,秋田県,潟上市,天王字追分西４３番地１,,05,211,0100101,,,,,,,2025-03-07,1,,,,,カイセン,0
911,3430001093798,新規,0,2025-03-07,2025-03-07,株式会社ＫＧ‐ＴＥＣ,,株式会社,北海道,札幌市西区,西町南２丁目３番１５－２０５号,,01,107,0630062,,,,,,,2025-03-07,1,,,,,ケージーテック,0
912,3430001093848,新規,0,2025-03-07,2025-03-07,ゴートアセット株式会社,,株式会社,北海道,札幌市中央区,南二条西５丁目３１番地１ＲＭＢｌｄ．７０１,,01,101,0600062,,,,,,,2025-03-07,1,,,,,ゴートアセット,0
913,3460103001689,新規,0,2025-03-07,2025-03-07,合同会社ＨＢＣ,,合同会社,北海道,帯広市,東二条南１０丁目９番地３エーベル１０１,,01,207,0800802,,,,,,,2025-03-07,1,,,,,エッチビィシー,0
916,3480005007064,新規,0,2025-03-07,2025-03-07,一般社団法人グリーンアフリカ,,その他の設立登記法人,徳島県,吉野川市,山川町前川１２０番地４,,36,205,7793403,,,,,,,2025-03-07,1,,,,,グリーンアフリカ,0
926,3700150129466,新規,0,2025-03-07,2025-03-07,Ｋｒｏｓｓｌａｎ　Ｔｅｃｈｎｏｌｏｇｙ　Ｃｈｅｎｇｄｕ　Ｉｎｃ．,,外国会社等,,,,,,,,Ｎｏ．２３０９，２３ｒｄ　Ｆｌｏｏｒ，Ｂｕｉｌｄｉｎｇ　２，Ｎｏ．５３０　Ｔｉａｎｆｕ　Ａｖｅｎｕｅ　Ｍｉｄｄｌｅ　Ｓｅｃｔｉｏｎ，Ｈｉｇｈ　ｔｅｃｈ　Ｚｏｎｅ,,,,,,2025-03-07,1,,,,,チョンドウユエンテャオワンジーシンシージーシューヨウシエンゴンスー,0
930,4010001252750,新規,0,2025-03-07,2025-03-07,中本株式会社,,株式会社,東京都,千代田区,外神田５丁目４番１３－２０１号,,13,101,1010021,,,,,,,2025-03-07,1,,,,,ナカモト,0
931,4010001252775,新規,0,2025-03-07,2025-03-07,株式会社ＡＢＯＵ,,株式会社,東京都,中央区,勝どき４丁目６番２号パークタワー勝どきミッド４０８,,13,102,1040054,,,,,,,2025-03-07,1,,,,,アブー,0
932,4010001252874,新規,0,2025-03-07,2025-03-07,株式会社１９９３,,株式会社,東京都,中央区,日本橋２丁目１番１７号丹生ビル２階,,13,102,1030027,,,,,,,2025-03-07,1,,,,,イチキュウキュウサン,0
933,4010001252899,新規,0,2025-03-07,2025-03-07,マップフォワード株式会社,,株式会社,東京都,中央区,銀座１丁目１５番４号,,13,102,1040061,,,,,,,2025-03-07,1,,,,,マップフォワード,0
936,4010003046655,新規,0,2025-03-07,2025-03-07,合同会社ＫＡＺＵＮＯＫＯ,,合同会社,東京都,文京区,大塚６丁目２７番６号,,13,105,1120012,,,,,,,2025-03-07,1,,,,,カズノコ,0
937,4010003046663,新規,0,2025-03-07,2025-03-07,合同会社ブルーレジ２,,合同会社,東京都,千代田区,丸の内１丁目４番１号東京共同会計事務所内,,13,101,1000005,,,,,,,2025-03-07,1,,,,,ブルーレジツー,0
940,4010101016543,新規,0,2025-03-07,2025-03-07,株式会社ブルームラボ,,株式会社,東京都,八王子市,子安町４丁目１－５,,13,201,1920904,,,,,,,2025-03-07,1,,,,,ブルームラボ,0
941,4010101016551,新規,0,2025-03-07,2025-03-07,ＡＰＫ株式会社,,株式会社,東京都,八王子市,緑町２９番地第３緑荘Ｂ－１０２号室,,13,201,1930932,,,,,,,2025-03-07,1,,,,,エーピーケー,0
942,4010103002525,新規,0,2025-03-07,2025-03-07,合同会社アメリエ,,合同会社,東京都,八王子市,七国３丁目２１番１２号,,13,201,1920919,,,,,,,2025-03-07,1,,,,,アメリエ,0
952,4010401188677,新規,0,2025-03-07,2025-03-07,日本玖月粮倉株式会社,,株式会社,東京都,港区,海岸１丁目２番３号汐留芝離宮ビルディング２１階,,13,103,1050022,,,,,,,2025-03-07,1,,,,,ニホンキュウゲツリョウソウ,0
953,4010401188685,新規,0,2025-03-07,2025-03-07,株式会社ＮｉＤＵＳ,,株式会社,東京都,港区,西新橋３丁目２５番８号東京慈恵会医科大学先端医療情報技術研究部内,,13,103,1050003,,,,,,,2025-03-07,1,,,,,ナイダス,0
954,4010401188702,新規,0,2025-03-07,2025-03-07,株式会社Ｐｒｏｔｅｃｔ,,株式会社,東京都,港区,赤坂３丁目１４番３号渡林赤坂ビル５階,,13,103,1070052,,,,,,,2025-03-07,1,,,,,プロテクト,0
959,4010403034524,新規,0,2025-03-07,2025-03-07,合同会社Ｂｌａｎｃ,,合同会社,東京都,港区,三田４丁目１５番１－４０９号,,13,103,1080073,,,,,,,2025-03-07,1,,,,,ブラン,0
960,4010403034557,新規,0,2025-03-07,2025-03-07,合同会社ゴールデンチャイルドマネジメント,,合同会社,東京都,港区,南青山２丁目２番１５号,,13,103,1070062,,,,,,,2025-03-07,1,,,,,ゴールデンチャイルドマネジメント,0
961,4010403034573,新規,0,2025-03-07,2025-03-07,合同会社ＫＯＤＡＫＡＲＡ,,合同会社,東京都,港区,北青山２丁目７番１３号,,13,103,1070061,,,,,,,2025-03-07,1,,,,,コダカラ,0
962,4010405024119,新規,0,2025-03-07,2025-03-07,一般社団法人コレクティブインパクト研究所,,その他の設立登記法人,東京都,港区,西新橋３丁目６－１０マストライフ西新橋ビル４Ｆ,,13,103,1050003,,,,,,,2025-03-07,1,,,,,コレクティブインパクトケンキュウジョ,0
963,4010603011414,新規,0,2025-03-07,2025-03-07,Ｄｉｇｉｂｉｚ合同会社,,合同会社,東京都,江東区,亀戸５丁目３８番４－４０３号,,13,108,1360071,,,,,,,2025-03-07,1,,,,,デジビズ,0
964,4010701047351,新規,0,2025-03-07,2025-03-07,株式会社ｖｉｓｉｏｎ９,,株式会社,東京都,品川区,上大崎３丁目１番２－２８０６号ＢｒｉｌｌｉａＴｏｗｅｒｓ目黒ノースレジデンス,,13,109,1410021,,,,,,,2025-03-07,1,,,,,ビジョンナイン,0
966,4010703007601,新規,0,2025-03-07,2025-03-07,合同会社山村家,,合同会社,東京都,品川区,東中延１丁目６番６号カーサヴェルデ３０３,,13,109,1420052,,,,,,,2025-03-07,1,,,,,ヤマムラヤ,0
969,4010901056920,新規,0,2025-03-07,2025-03-07,株式会社コーポレート東京,,株式会社,東京都,世田谷区,駒沢５丁目１６番１１－３０４号,,13,112,1540012,,,,,,,2025-03-07,1,,,,,コーポレートトウキョウ,0
977,4011001168219,新規,0,2025-03-07,2025-03-07,ｋｉｎａｋｏ株式会社,,株式会社,東京都,目黒区,青葉台１丁目１６番１１号３階,,13,110,1530042,,,,,,,2025-03-07,1,,,,,キナコ,0
980,4011101110856,新規,0,2025-03-07,2025-03-07,株式会社ＫＵＲＡ,,株式会社,東京都,新宿区,中落合２丁目１６番７号コアロード目白西坂１０６,,13,104,1610032,,,,,,,2025-03-07,1,,,,,クラ,0
981,4011101110864,新規,0,2025-03-07,2025-03-07,株式会社メディカルアブロード,,株式会社,東京都,新宿区,西新宿１丁目２６番２号新宿野村ビル３２階,,13,104,1600023,,,,,,,2025-03-07,1,,,,,メディカルアブロード,0
983,4011401026884,新規,0,2025-03-07,2025-03-07,株式会社ＪＯＳＨＯ,,株式会社,東京都,板橋区,三園１丁目４４番２８号,,13,119,1750091,,,,,,,2025-03-07,1,,,,,ジョーショー,0
984,4011403004640,新規,0,2025-03-07,2025-03-07,ＢＵＤＤＹ　ＲＯＡＤ合同会社,,合同会社,東京都,板橋区,坂下３丁目２８番２７号５０６,,13,119,1740043,,,,,,,2025-03-07,1,,,,,バディロード,0
985,4011501031784,新規,0,2025-03-07,2025-03-07,株式会社サトデン,,株式会社,東京都,荒川区,町屋３丁目１４番１５号,,13,118,1160001,,,,,,,2025-03-07,1,,,,,サトデン,0
986,4011801045724,新規,0,2025-03-07,2025-03-07,株式会社ロンズエンタープライズ,,株式会社,東京都,葛飾区,奥戸９丁目１９番１５号,,13,122,1240022,,,,,,,2025-03-07,1,,,,,ロンズエンタープライズ,0
987,4011801045740,新規,0,2025-03-07,2025-03-07,株式会社候商事,,株式会社,東京都,足立区,青井２丁目２４番５－５０４号,,13,121,1200012,,,,,,,2025-03-07,1,,,,,ソウロウショウジ,0
988,4011803006724,新規,0,2025-03-07,2025-03-07,合同会社ｍｙｅｏｎｇ,,合同会社,東京都,足立区,西新井栄町１丁目１８番１－５１５号,,13,121,1230843,,,,,,,2025-03-07,1,,,,,ミョン,0
990,4012305002121,新規,0,2025-03-07,2025-03-07,医療法人社団翔令会,,その他の設立登記法人,東京都,町田市,旭町１丁目１５番２１号町田リリエンハイム１０４,,13,209,1940023,,,,,,,2025-03-07,1,,,,,ショウレイカイ,0
993,4012801023802,新規,0,2025-03-07,2025-03-07,株式会社Ｋａｕ’ｎ’ｓｅｌ,,株式会社,東京都,国分寺市,泉町１丁目５番１６号,,13,214,1850024,,,,,,,2025-03-07,1,,,,,カウンセル,0
1002,4020001161629,新規,0,2025-03-07,2025-03-07,蒙庫株式会社,,株式会社,神奈川県,横浜市神奈川区,神大寺４丁目１４番２１号３ユナイト片倉アデリーナ２０６室,,14,102,2210801,,,,,,,2025-03-07,1,,,,,モウコ,0
1003,4020001161728,新規,0,2025-03-07,2025-03-07,株式会社ＡＢＳ,,株式会社,神奈川県,川崎市川崎区,東門前２丁目５番３－３０５号,,14,131,2100812,,,,,,,2025-03-07,1,,,,,エービーエス,0
1008,4021001084605,新規,0,2025-03-07,2025-03-07,株式会社ＰＯＬ総合防災,,株式会社,神奈川県,海老名市,下今泉４丁目４番１１－３号,,14,215,2430435,,,,,,,2025-03-07,1,,,,,ピーオーエルソウゴウボウサイ,0
1009,4021001084621,新規,0,2025-03-07,2025-03-07,株式会社ＥＩＫＥＮ,,株式会社,神奈川県,相模原市緑区,大島６９２番地２,,14,151,2520135,,,,,,,2025-03-07,1,,,,,エイケン,0
1010,4021001084638,新規,0,2025-03-07,2025-03-07,株式会社帚,,株式会社,神奈川県,厚木市,下荻野１４２４番地,,14,212,2430203,,,,,,,2025-03-07,1,,,,,ソウ,0
1011,4021001084646,新規,0,2025-03-07,2025-03-07,匠心堂株式会社,,株式会社,神奈川県,鎌倉市,大船１４５４番地７,,14,204,2470056,,,,,,,2025-03-07,1,,,,,ショウシンドウ,0
1012,4021001084654,新規,0,2025-03-07,2025-03-07,株式会社Ｄ　ＮＥＸＴ,,株式会社,神奈川県,南足柄市,沼田１８番地５,,14,217,2500115,,,,,,,2025-03-07,1,,,,,ディーネクスト,0
1015,4021003015673,新規,0,2025-03-07,2025-03-07,合同会社ＢＬＡＮＣＬＡＣ,,合同会社,神奈川県,鎌倉市,今泉台７丁目５－２０,,14,204,2470053,,,,,,,2025-03-07,1,,,,,ブランクラック,0
1021,4030001165174,新規,0,2025-03-07,2025-03-07,株式会社グローバルホールディングス,,株式会社,埼玉県,本庄市,いまい台２丁目９８番地１,,11,211,3670038,,,,,,,2025-03-07,1,,,,,グローバルホールディングス,0
1023,4030003026242,新規,0,2025-03-07,2025-03-07,ＫＭＢ合同会社,,合同会社,埼玉県,草加市,吉町５丁目１０－２５,,11,221,3400017,,,,,,,2025-03-07,1,,,,,ケーエムビー,0
1027,4040001137651,新規,0,2025-03-07,2025-03-07,株式会社佑,,株式会社,千葉県,松戸市,大橋５２４番地の８,,12,207,2702224,,,,,,,2025-03-07,1,,,,,タスク,0
1028,4040001137668,新規,0,2025-03-07,2025-03-07,株式会社ブラザー工務店,,株式会社,千葉県,船橋市,宮本６丁目１１番２号,,12,204,2730003,,,,,,,2025-03-07,1,,,,,ブラザーコウムテン,0
1033,4040003027017,新規,0,2025-03-07,2025-03-07,合同会社ｍｅｇｕｍｉ‐ｎｏ‐ｋｏｋｏｒｏ,,合同会社,千葉県,千葉市花見川区,幕張町３丁目１１１０番地２,,12,102,2620032,,,,,,,2025-03-07,1,,,,,メグミノココロ,0
1034,4040005022676,新規,0,2025-03-07,2025-03-07,一般社団法人インクルーズ,,その他の設立登記法人,千葉県,大網白里市,駒込１３０２番地８,,12,239,2993235,,,,,,,2025-03-07,1,,,,,インクルーズ,0
1041,4050001056264,新規,0,2025-03-07,2025-03-07,栄友コンサルタント株式会社,,株式会社,茨城県,水戸市,渡里町２３４８番地２,,08,201,3100902,,,,,,,2025-03-07,1,,,,,エイユウコンサルタント,0
1042,4050001056289,新規,0,2025-03-07,2025-03-07,Ｈｉｒｏｖａ株式会社,,株式会社,茨城県,ひたちなか市,外野２丁目１７番１１号,,08,221,3120053,,,,,,,2025-03-07,1,,,,,ヒロヴァ,0
1044,4070001042675,新規,0,2025-03-07,2025-03-07,株式会社クリーフ,,株式会社,群馬県,太田市,東新町７７９番地３,,10,205,3730015,,,,,,,2025-03-07,1,,,,,クリーフ,0
1045,4070001042691,新規,0,2025-03-07,2025-03-07,株式会社グリーンファーム,,株式会社,群馬県,みどり市,笠懸町鹿４０９２番地１,,10,212,3792313,,,,,,,2025-03-07,1,,,,,グリーンファーム,0
1060,4080401027779,新規,0,2025-03-07,2025-03-07,株式会社プロペラ,,株式会社,静岡県,浜松市浜名区,引佐町別所４４８番地の２,,22,139,4312534,,,,,,,2025-03-07,1,,,,,プロペラ,0
1066,4090001019168,新規,0,2025-03-07,2025-03-07,ＫＧ・Ｏｎｅホールディングス株式会社,,株式会社,山梨県,甲斐市,宇津谷４７７９番地７,,19,210,4000108,,,,,,,2025-03-07,1,,,,,ケージーワンホールディングス,0
1070,4100001038356,新規,0,2025-03-07,2025-03-07,株式会社彩景ファーム,,株式会社,長野県,千曲市,大字桑原１４６２番地２,,20,218,3870024,,,,,,,2025-03-07,1,,,,,アヤケイファーム,0
1071,4100001038364,新規,0,2025-03-07,2025-03-07,株式会社グローバルオートリンク,,株式会社,長野県,諏訪市,沖田町２丁目１１４番地１,,20,206,3920013,,,,,,,2025-03-07,1,,,,,グローバルオートリンク,0
1075,4110001039097,新規,0,2025-03-07,2025-03-07,株式会社ニコッタ,,株式会社,新潟県,新潟市西蒲区,仁箇５７８番地１,,15,108,9530022,,,,,,,2025-03-07,1,,,,,ニコッタ,0
1088,4120001273406,新規,0,2025-03-07,2025-03-07,株式会社菓楽,,株式会社,大阪府,枚方市,養父丘２丁目７番２４号,,27,210,5731134,,,,,,,2025-03-07,1,,,,,カグラ,0
1089,4120001273414,新規,0,2025-03-07,2025-03-07,株式会社ウタワールド,,株式会社,大阪府,大阪市浪速区,元町１丁目１０番７－９０４号,,27,111,5560016,,,,,,,2025-03-07,1,,,,,ウタワールド,0
1090,4120001273505,新規,0,2025-03-07,2025-03-07,宇薈株式会社,,株式会社,大阪府,大阪市東住吉区,鷹合４丁目１３番２１号,,27,121,5460014,,,,,,,2025-03-07,1,,,,,ウカイ,0
1091,4120001273521,新規,0,2025-03-07,2025-03-07,株式会社花山,,株式会社,大阪府,大阪市平野区,平野西４丁目９番３２号,,27,126,5470033,,,,,,,2025-03-07,1,,,,,ハナヤマ,0
1092,4120001273554,新規,0,2025-03-07,2025-03-07,株式会社共通点,,株式会社,大阪府,大阪市北区,梅田１丁目１－３大阪駅前第３ビル２９階１－１－１号室,,27,127,5300001,,,,,,,2025-03-07,1,,,,,キョウツウテン,0
1095,4120003028816,新規,0,2025-03-07,2025-03-07,合同会社ＹＡＭＡＭＯＴＯ　ＴＲＡＶＥＬ,,合同会社,大阪府,大阪市中央区,南久宝寺町１丁目３番７－５０５号,,27,128,5410058,,,,,,,2025-03-07,1,,,,,ヤマモトトラベル,0
1097,4120101071197,新規,0,2025-03-07,2025-03-07,株式会社ＳＯＫＥＮ,,株式会社,大阪府,泉南郡熊取町,大宮３丁目７０４番地の１６,,27,361,5900450,,,,,,,2025-03-07,1,,,,,ソウケン,0
1103,4120901050532,新規,0,2025-03-07,2025-03-07,株式会社サンテック,,株式会社,大阪府,豊中市,螢池北町３丁目１５番８号,,27,203,5600031,,,,,,,2025-03-07,1,,,,,,0
1104,4120903005567,新規,0,2025-03-07,2025-03-07,ライフステージプランナーズ合同会社,,合同会社,大阪府,箕面市,萱野１丁目２３－１４,,27,220,5620014,,,,,,,2025-03-07,1,,,,,ライフステージプランナーズ,0
1105,4120903005575,新規,0,2025-03-07,2025-03-07,合同会社Ｂｕｄｄｙ,,合同会社,大阪府,茨木市,中村町１５番２７号中村ビル３階,,27,211,5670822,,,,,,,2025-03-07,1,,,,,バディ,0
1106,4122001038945,新規,0,2025-03-07,2025-03-07,株式会社ＳＫＯプランニング,,株式会社,大阪府,八尾市,沼１丁目６８番地の６５朝日プラザシティ八尾南２番館３０９号,,27,212,5810036,,,,,,,2025-03-07,1,,,,,エスケーオープランニング,0
1107,4122001038961,新規,0,2025-03-07,2025-03-07,株式会社クラヨシ,,株式会社,大阪府,東大阪市,横小路町２丁目５番５７号,,27,227,5798063,,,,,,,2025-03-07,1,,,,,クラヨシ,0
1119,4140001137633,新規,0,2025-03-07,2025-03-07,株式会社ＴＥＡＤＡ,,株式会社,兵庫県,加古川市,加古川町北在家２２１９番地の２,,28,210,6750031,,,,,,,2025-03-07,1,,,,,ティーダ,0
1120,4140001137641,新規,0,2025-03-07,2025-03-07,株式会社フジワラ建装,,株式会社,兵庫県,神戸市東灘区,御影３丁目２２番１９号,,28,101,6580047,,,,,,,2025-03-07,1,,,,,フジワラケンソウ,0
1122,4140005027392,新規,0,2025-03-07,2025-03-07,一般社団法人地域共生すまいるリンク,,その他の設立登記法人,兵庫県,神戸市垂水区,星陵台３丁目１番１号,,28,108,6550038,,,,,,,2025-03-07,1,,,,,チイキキョウセイスマイルリンク,0
1124,4150001027932,新規,0,2025-03-07,2025-03-07,株式会社ココア,,株式会社,奈良県,奈良市,橋本町３－１,,29,201,6308217,,,,,,,2025-03-07,1,,,,,ココア,0
1125,4150005009670,新規,0,2025-03-07,2025-03-07,一般社団法人Ｉｎａｋａ　ＬＡＢＳ,,その他の設立登記法人,奈良県,奈良市,三条町４７５番地,,29,201,6308244,,,,,,,2025-03-07,1,,,,,イナカラブズ,0
1127,4180001165655,新規,0,2025-03-07,2025-03-07,株式会社こらぼ,,株式会社,愛知県,名古屋市中村区,名駅４丁目２４番５号第２森ビル４０１,,23,105,4500002,,,,,,,2025-03-07,1,,,,,コラボ,0
1128,4180001165770,新規,0,2025-03-07,2025-03-07,株式会社ジョジョホールディングス,,株式会社,愛知県,名古屋市守山区,桔梗平１丁目１２０１番地,,23,113,4630814,,,,,,,2025-03-07,1,,,,,ジョジョホールディングス,0
1129,4180001165795,新規,0,2025-03-07,2025-03-07,株式会社ＬＥＡＴＨＥＲ　ＷＯＲＫＳ,,株式会社,愛知県,名古屋市中区,大須２丁目１８番３６号,,23,106,4600011,,,,,,,2025-03-07,1,,,,,レザーワークス,0
1131,4180003027993,新規,0,2025-03-07,2025-03-07,合同会社ルーチェ,,合同会社,愛知県,名古屋市名東区,貴船１丁目１１８番地２Ａ,,23,115,4650058,,,,,,,2025-03-07,1,,,,,ルーチェ,0
1134,4180301039591,新規,0,2025-03-07,2025-03-07,株式会社寿商会,,株式会社,愛知県,豊橋市,石巻萩平町字城脇５８番地の１,,23,201,4411103,,,,,,,2025-03-07,1,,,,,コトブキショウカイ,0
1140,4200003006722,新規,0,2025-03-07,2025-03-07,合同会社ワンダー,,合同会社,岐阜県,本巣市,政田１０３７番地１ブルームＢ棟１０１号,,21,218,5010471,,,,,,,2025-03-07,1,,,,,ワンダー,0
1141,4220001026522,新規,0,2025-03-07,2025-03-07,ＪＣ．Ｏｒｌａ株式会社,,株式会社,石川県,金沢市,西都１丁目２５４番地,,17,201,9208202,,,,,,,2025-03-07,1,,,,,ジェイシーオーラ,0
1151,4240003007080,新規,0,2025-03-07,2025-03-07,合同会社アスピレーション,,合同会社,広島県,広島市南区,段原南１丁目２２番５号,,34,103,7320814,,,,,,,2025-03-07,1,,,,,アスピレーション,0
1152,4240003007097,新規,0,2025-03-07,2025-03-07,合同会社ゆいはーる,,合同会社,広島県,広島市南区,西霞町１３－４,,34,103,7340044,,,,,,,2025-03-07,1,,,,,ユイハール,0
1165,4290801031335,新規,0,2025-03-07,2025-03-07,株式会社セラヴィア,,株式会社,福岡県,北九州市小倉北区,木町２丁目１２番２３号,,40,106,8030851,,,,,,,2025-03-07,1,,,,,セラヴィア,0
1172,4330001032939,新規,0,2025-03-07,2025-03-07,株式会社熊本産地開発,,株式会社,熊本県,熊本市北区,麻生田１丁目１番１２号,,43,105,8618081,,,,,,,2025-03-07,1,,,,,クマモトサンチカイハツ,0
1173,4330001032947,新規,0,2025-03-07,2025-03-07,株式会社ＯＦＧ,,株式会社,熊本県,熊本市中央区,安政町１番２０号テイコビル地下１階,,43,101,8600801,,,,,,,2025-03-07,1,,,,,オーエフジー,0
1174,4330005010882,新規,0,2025-03-07,2025-03-07,土地家屋調査士法人こうろぎ事務所,,その他の設立登記法人,熊本県,熊本市南区,田井島３丁目８番６１号,,43,104,8620965,,,,,,,2025-03-07,1,,,,,コウロギジムショ,0
1190,4430001093814,新規,0,2025-03-07,2025-03-07,株式会社北海羽田コンクリート,,株式会社,北海道,夕張郡長沼町,北町２丁目２番３号,,01,428,0691347,,,,,,,2025-03-07,1,,,,,ホッカイハネダコンクリート,0
1191,4430001093822,新規,0,2025-03-07,2025-03-07,クラウド株式会社,,株式会社,北海道,札幌市白石区,菊水七条４丁目３番１１－２号菊水７－４テラスハウス左号,,01,104,0030807,,,,,,,2025-03-07,1,,,,,クラウド,0
1195,4470001020599,新規,0,2025-03-07,2025-03-07,鼎豊国際株式会社,,株式会社,香川県,さぬき市,大川町富田中１４３０－１,,37,206,7610902,,,,,,,2025-03-07,1,,,,,テイホウコクサイ,0
1208,4500001026188,新規,0,2025-03-07,2025-03-07,上板ホールディングス株式会社,,株式会社,愛媛県,松山市,三番町４丁目１２番地１,,38,201,7900003,,,,,,,2025-03-07,1,,,,,カミイタホールディングス,0
1209,4500005008769,新規,0,2025-03-07,2025-03-07,一般社団法人銀河プロジェクト９９９,,その他の設立登記法人,愛媛県,松山市,朝生田町６丁目２番４８号,,38,201,7900952,,,,,,,2025-03-07,1,,,,,ギンガプロジェクトスリーナイン,0
1210,4700150129465,新規,0,2025-03-07,2025-03-07,ＬＩＡＮＹＵＮＧＡＮＧ　ＨＯＮＧＹＡＮＧ　ＮＥＷ　ＭＡＴＥＲＩＡＬ　ＣＯ．，ＬＴＤ,,外国会社等,,,,,,,,ｊｉａｎｇｓｕｓｈｅｎｇｌｉａｎｙｕｎｇａｎｇｓｈｉｈａｉｚｈｏｕｑｕｈｕａｇｕｏｓｈａｎｊｉｅｄａｏｗｅｎｙｕａｎｂｅｉｌｕ８８ｈａｏ,,,,,,2025-03-07,1,,,,,リエンインガンホンヤンシンツァイリャオヨウシエンゴンスー,0
1218,5010001252642,新規,0,2025-03-07,2025-03-07,株式会社かねこ,,株式会社,東京都,中央区,勝どき２丁目１３番９号,,13,102,1040054,,,,,,,2025-03-07,1,,,,,カネコ,0
1219,5010001252873,新規,0,2025-03-07,2025-03-07,株式会社Ｎｅｘｕｓ　ＦｒｏｎｔｉｅｒＴｅｃｈ,,株式会社,東京都,千代田区,大手町１丁目６番１号大手町ビル４Ｆ,,13,101,1000004,,,,,,,2025-03-07,1,,,,,ネクサスフロンティアテック,0
1220,5010001252881,新規,0,2025-03-07,2025-03-07,山佐ＫＬＭ７リース株式会社,,株式会社,東京都,千代田区,丸の内１丁目４番１号東京共同会計事務所内,,13,101,1000005,,,,,,,2025-03-07,1,,,,,ヤマサケーエルエムセブンリース,0
1221,5010001252907,新規,0,2025-03-07,2025-03-07,株式会社Ｔｈｅｏｒｙマネジメント,,株式会社,東京都,中央区,銀座３丁目７番２号オーク銀座５Ｆ,,13,102,1040061,,,,,,,2025-03-07,1,,,,,セオリーマネジメント,0
1222,5010001252923,新規,0,2025-03-07,2025-03-07,株式会社Ｊｏｙｎｔ３ｃｈ,,株式会社,東京都,千代田区,神田佐久間町２丁目１８番地１秋葉原ＳＴＮフロント１０階,,13,101,1010025,,,,,,,2025-03-07,1,,,,,ジョインテック,0
1226,5010003045986,新規,0,2025-03-07,2025-03-07,合同会社ＵＮＩＴＥ,,合同会社,東京都,中央区,銀座７丁目３１―２１銀座ｓｉｎｒｏｋｕｓｙｕビル２階,,13,102,1040061,,,,,,,2025-03-07,1,,,,,ユナイト,0
1227,5010003046605,新規,0,2025-03-07,2025-03-07,ＮＴＴグローバルデータセンターＴＣＧ‐１合同会社,,合同会社,東京都,千代田区,大手町２丁目３番１号,,13,101,1000004,,,,,,,2025-03-07,1,,,,,エヌティティグローバルデータセンターティシージーワン,0
1228,5010003046638,新規,0,2025-03-07,2025-03-07,合同会社ＳＦ２号,,合同会社,東京都,千代田区,丸の内１丁目４番１号東京共同会計事務所内,,13,101,1000005,,,,,,,2025-03-07,1,,,,,エスエフニゴウ,0
1229,5010003046662,新規,0,2025-03-07,2025-03-07,合同会社ブルーレジ１,,合同会社,東京都,千代田区,丸の内１丁目４番１号東京共同会計事務所内,,13,101,1000005,,,,,,,2025-03-07,1,,,,,ブルーレジワン,0
1230,5010005039689,新規,0,2025-03-07,2025-03-07,一般社団法人久里実験漫画工房,,その他の設立登記法人,東京都,千代田区,三番町３番地９－４０１号,,13,101,1020075,,,,,,,2025-03-07,1,,,,,クリジッケンマンガコウボウ,0
1231,5010101016550,新規,0,2025-03-07,2025-03-07,株式会社ＩＧＡ五十嵐資産管理オフィス,,株式会社,東京都,八王子市,明神町１丁目９番４－３０１号第２カミュ八王子,,13,201,1920046,,,,,,,2025-03-07,1,,,,,アイジーエーイガラシシサンカンリオフィス,0
1232,5010103002524,新規,0,2025-03-07,2025-03-07,合同会社ＡＳ　Ｂｉｌｌｙ,,合同会社,東京都,八王子市,大谷町７０番地市営住宅大谷団地２－２０１,,13,201,1920034,,,,,,,2025-03-07,1,,,,,エーエスビリー,0
1233,5010105002332,新規,0,2025-03-07,2025-03-07,医療法人社団ＬＥＧＡＭＥ,,その他の設立登記法人,東京都,八王子市,片倉町１２２１番地２６,,13,201,1920914,,,,,,,2025-03-07,1,,,,,レガーメ,0
1241,5010401188511,新規,0,2025-03-07,2025-03-07,株式会社Ｕｎｄｅｒｓｈａｆｔ,,株式会社,東京都,港区,西麻布４丁目２番６号菱和パレス西麻布６０６,,13,103,1060031,,,,,,,2025-03-07,1,,,,,アンダーシャフト,0
1242,5010401188560,新規,0,2025-03-07,2025-03-07,ＨＪ　ｃｏｍｐａｎｙ株式会社,,株式会社,東京都,港区,北青山２丁目１２番７号３階,,13,103,1070061,,,,,,,2025-03-07,1,,,,,エイチジェイカンパニー,0
1243,5010401188676,新規,0,2025-03-07,2025-03-07,株式会社メドレーウィズ,,株式会社,東京都,港区,六本木６丁目１０番１号,,13,103,1060032,,,,,,,2025-03-07,1,,,,,メドレーウィズ,0
1244,5010401188701,新規,0,2025-03-07,2025-03-07,アールサーキュレーショングループ株式会社,,株式会社,東京都,港区,北青山１丁目３番１号アールキューブ青山３階,,13,103,1070061,,,,,,,2025-03-07,1,,,,,アールサーキュレーショングループ,0
1245,5010401188783,新規,0,2025-03-07,2025-03-07,株式会社ＭＫ３号,,株式会社,東京都,港区,三田５丁目１７番１２号３０２,,13,103,1080073,,,,,,,2025-03-07,1,,,,,エムケイサンゴウ,0
1248,5010403034556,新規,0,2025-03-07,2025-03-07,合同会社インザグルーヴ,,合同会社,東京都,港区,南青山２丁目２番１５号,,13,103,1070062,,,,,,,2025-03-07,1,,,,,インザグルーヴ,0
1250,5010405024101,新規,0,2025-03-07,2025-03-07,一般社団法人適応ファイナンスコンソーシアム,,その他の設立登記法人,東京都,港区,芝５丁目７番１号,,13,103,1080014,,,,,,,2025-03-07,1,,,,,テキオウファイナンスコンソーシアム,0
1251,5010501053747,新規,0,2025-03-07,2025-03-07,株式会社ＲＥＮＯＬＡＢＯ,,株式会社,東京都,台東区,寿１丁目２１番１１号パレ・ドール浅草９０２号,,13,106,1110042,,,,,,,2025-03-07,1,,,,,リノラボ,0
1252,5010503007750,新規,0,2025-03-07,2025-03-07,合同会社蝶,,合同会社,東京都,台東区,千束４丁目５１－１２ライジングプレイス浅草弐番館１３０２,,13,106,1110031,,,,,,,2025-03-07,1,,,,,チョウ,0
1256,5010901056944,新規,0,2025-03-07,2025-03-07,株式会社ＣＳＬＡＳＨＳ,,株式会社,東京都,世田谷区,喜多見９丁目２７番８号,,13,112,1570067,,,,,,,2025-03-07,1,,,,,シースラッシュエス,0
1267,5011001168110,新規,0,2025-03-07,2025-03-07,株式会社Ｚｈｕｎａ,,株式会社,東京都,渋谷区,渋谷１丁目１番１－１１０２号,,13,113,1500002,,,,,,,2025-03-07,1,,,,,ジュナ,0
1268,5011001168192,新規,0,2025-03-07,2025-03-07,株式会社ｐｉｐｌｕｐ,,株式会社,東京都,渋谷区,本町１丁目２９番１１号プラザＵＳＡ初台１０７,,13,113,1510071,,,,,,,2025-03-07,1,,,,,ピープルアップ,0
1269,5011001168201,新規,0,2025-03-07,2025-03-07,株式会社シロップラップ,,株式会社,東京都,渋谷区,神宮前２丁目１８番２０号鹿鳴館ハイツ４０３,,13,113,1500001,,,,,,,2025-03-07,1,,,,,シロップラップ,0
1270,5011001168259,新規,0,2025-03-07,2025-03-07,Ｂａｂａ　Ｒａｍｅｎ株式会社,,株式会社,東京都,目黒区,下目黒１丁目８番１号アルコタワー７階,,13,110,1530064,,,,,,,2025-03-07,1,,,,,ババラーメン,0
1280,5011101110780,新規,0,2025-03-07,2025-03-07,ナミテクノロジー・ジャパン株式会社,,株式会社,東京都,新宿区,西新宿３丁目３番１３号西新宿水間ビル６階,,13,104,1600023,,,,,,,2025-03-07,1,,,,,ナミテクノロジージャパン,0
1281,5011101110863,新規,0,2025-03-07,2025-03-07,Ｔ２Ａ株式会社,,株式会社,東京都,新宿区,西新宿３丁目３番１３号西新宿水間ビル６階,,13,104,1600023,,,,,,,2025-03-07,1,,,,,ティーツーエー,0
1282,5011101110905,新規,0,2025-03-07,2025-03-07,ＡＳＰＥＣＴ　ＧＬＯＢＡＬ株式会社,,株式会社,東京都,新宿区,西新宿３丁目５番３－１４０２号,,13,104,1600023,,,,,,,2025-03-07,1,,,,,アスペクトグローバル,0
1284,5011103015615,新規,0,2025-03-07,2025-03-07,カンナム合同会社,,合同会社,東京都,新宿区,百人町２丁目１０番３号風月堂ビル３階,,13,104,1690073,,,,,,,2025-03-07,1,,,,,カンナム,0
1285,5011203004625,新規,0,2025-03-07,2025-03-07,合同会社ｐｈａｂｒｉｑ,,合同会社,東京都,中野区,東中野１丁目３３－１５グレーシア東中野１０９,,13,114,1640003,,,,,,,2025-03-07,1,,,,,ファブリック,0
1291,5011501031783,新規,0,2025-03-07,2025-03-07,康瀾医療サービス株式会社,,株式会社,東京都,荒川区,西日暮里２丁目１８番１０号クリオ日暮里セントラルマークス９０３,,13,118,1160013,,,,,,,2025-03-07,1,,,,,コウランイリョウサービス,0
1293,5011701028126,新規,0,2025-03-07,2025-03-07,株式会社ＲＡ,,株式会社,東京都,江戸川区,中葛西４丁目１５番６号プラザエノモトＩＩＩ３０６号室,00138248,13,123,1340083,,,,,,,2025-03-07,1,,,,,アールエー,0
1295,5011801045748,新規,0,2025-03-07,2025-03-07,株式会社海友世,,株式会社,東京都,葛飾区,新小岩２丁目１番９－９１５号シティテラス新小岩,,13,122,1240024,,,,,,,2025-03-07,1,,,,,ミュウセイ,0
1298,5012403006980,新規,0,2025-03-07,2025-03-07,合同会社サウスコア,,合同会社,東京都,狛江市,西野川２丁目２０番４号エクセル西野川２０３,,13,219,2010001,,,,,,,2025-03-07,1,,,,,サウスコア,0
1299,5012403007005,新規,0,2025-03-07,2025-03-07,合同会社ＳＴＡＣＲＰ,,合同会社,東京都,稲城市,矢野口３７５０番地の１９アート・フル矢野口駅前ビル２階,,13,225,2060812,,,,,,,2025-03-07,1,,,,,スタックリップ,0
1310,5020001161693,新規,0,2025-03-07,2025-03-07,ＭＮＣ株式会社,,株式会社,神奈川県,横浜市青葉区,榎が丘１－９－５階,,14,117,2270063,,,,,,,2025-03-07,1,,,,,エムエヌシー,0
1311,5020001161719,新規,0,2025-03-07,2025-03-07,株式会社結トータルアソシエーション,,株式会社,神奈川県,横浜市南区,高根町３丁目１７番地２８マークス横濱阪東橋１階,,14,105,2320022,,,,,,,2025-03-07,1,,,,,ユイトータルアソシエーション,0
1312,5020001161727,新規,0,2025-03-07,2025-03-07,株式会社ＡＲＴＩＥＲＥ,,株式会社,神奈川県,横浜市戸塚区,戸塚町１５４３番地２０１号室,,14,110,2440003,,,,,,,2025-03-07,1,,,,,アルティエーレ,0
1314,5020003027959,新規,0,2025-03-07,2025-03-07,ワカバ運送合同会社,,合同会社,神奈川県,横浜市旭区,若葉台４丁目１５番６０４号,,14,112,2410801,,,,,,,2025-03-07,1,,,,,ワカバウンソウ,0
1318,5021001084620,新規,0,2025-03-07,2025-03-07,株式会社ジーク,,株式会社,神奈川県,相模原市緑区,中野３６番地５,,14,151,2520157,,,,,,,2025-03-07,1,,,,,ジーク,0
1319,5021001084645,新規,0,2025-03-07,2025-03-07,株式会社芳照,,株式会社,神奈川県,海老名市,上今泉６丁目４７番４３号,,14,215,2430431,,,,,,,2025-03-07,1,,,,,ホウショウ,0
1320,5021001084653,新規,0,2025-03-07,2025-03-07,株式会社タパトプ,,株式会社,神奈川県,鎌倉市,岡本２丁目２－１ＤＩＫマンション大船５０７,,14,204,2470072,,,,,,,2025-03-07,1,,,,,タパトプ,0
1323,5021003015656,新規,0,2025-03-07,2025-03-07,合同会社ＮＳＴ,,合同会社,神奈川県,相模原市南区,相模台１丁目１番１－２０６号,,14,153,2520321,,,,,,,2025-03-07,1,,,,,エヌエスティー,0
1324,5021003015689,新規,0,2025-03-07,2025-03-07,合同会社一会,,合同会社,神奈川県,横須賀市,根岸町５丁目２１－３８奥山ビル１階右,,14,201,2390807,,,,,,,2025-03-07,1,,,,,イチエ,0
1328,5040001137709,新規,0,2025-03-07,2025-03-07,Ｒｅｏｎ株式会社,,株式会社,千葉県,浦安市,明海２丁目５番１－３２３号クオン新浦安Ｄ棟,,12,227,2790014,,,,,,,2025-03-07,1,,,,,レオン,0
1329,5040001137717,新規,0,2025-03-07,2025-03-07,株式会社コンパス,,株式会社,千葉県,千葉市美浜区,真砂４丁目１番１１号検見川浜レジデンス１３２３号,,12,106,2610011,,,,,,,2025-03-07,1,,,,,コンパス,0
1330,5040001137725,新規,0,2025-03-07,2025-03-07,株式会社保険のトビラ,,株式会社,千葉県,千葉市中央区,都町８丁目４番１号ベイコートビル２階－Ｆ,,12,101,2600001,,,,,,,2025-03-07,1,,,,,ホケンノトビラ,0
1331,5040001137733,新規,0,2025-03-07,2025-03-07,株式会社クロスロード,,株式会社,千葉県,船橋市,前原西２丁目１４番２号津田沼駅前安田ビル別館２Ｆ,,12,204,2740825,,,,,,,2025-03-07,1,,,,,クロスロード,0
1334,5040003027016,新規,0,2025-03-07,2025-03-07,合同会社Ｋａｎ,,合同会社,千葉県,浦安市,堀江１丁目１４番２７－１１１号ローズガーデン１番館,,12,227,2790041,,,,,,,2025-03-07,1,,,,,カン,0
1335,5040003027024,新規,0,2025-03-07,2025-03-07,合同会社アイサポ,,合同会社,千葉県,船橋市,夏見１丁目１番５号シャイニー船橋２０３号,,12,204,2730865,,,,,,,2025-03-07,1,,,,,アイサポ,0
1336,5040003027040,新規,0,2025-03-07,2025-03-07,合同会社梁,,合同会社,千葉県,市原市,高滝５７０番地,,12,219,2900555,,,,,,,2025-03-07,1,,,,,リョウ,0
1338,5050001056271,新規,0,2025-03-07,2025-03-07,株式会社エイジーデザイン,,株式会社,茨城県,筑西市,押尾４３番地,,08,227,3004511,,,,,,,2025-03-07,1,,,,,エイジーデザイン,0
1340,5050003009087,新規,0,2025-03-07,2025-03-07,合同会社ＨＯＰＥ‐ＡＲ,,合同会社,茨城県,水戸市,見川２丁目５７番地の１２Ｐｒｅｍｉｕｍ３０Ｄｏｏｒｓ４０７号,,08,201,3100912,,,,,,,2025-03-07,1,,,,,ホープエーアール,0
1342,5060001037997,新規,0,2025-03-07,2025-03-07,株式会社アミューズメントファクトリーＧＵＹＳ,,株式会社,栃木県,那須塩原市,鍋掛１０８８－６９３,,09,213,3250013,,,,,,,2025-03-07,1,,,,,アミューズメントファクトリーガイズ,0
1343,5070001042690,新規,0,2025-03-07,2025-03-07,株式会社ありす,,株式会社,群馬県,高崎市,飯塚町１１０番地２,,10,202,3700069,,,,,,,2025-03-07,1,,,,,アリス,0
1349,5080001026791,新規,0,2025-03-07,2025-03-07,ＡＤＮ株式会社,,株式会社,静岡県,静岡市清水区,船原１丁目２２１３－３,,22,103,4240845,,,,,,,2025-03-07,1,,,,,エーディーエヌ,0
1350,5080003003401,新規,0,2025-03-07,2025-03-07,Ｋｏｄａｗａｒｉ　Ｃｏｌｌｅｃｔｉｖｅ合同会社,,合同会社,静岡県,藤枝市,岡部町羽佐間１６２番地の３,,22,214,4211114,,,,,,,2025-03-07,1,,,,,コダワリコレクティブ,0
1353,5090001019159,新規,0,2025-03-07,2025-03-07,株式会社富士見建築,,株式会社,山梨県,南都留郡富士河口湖町,船津３５３４番地１,,19,430,4010301,,,,,,,2025-03-07,1,,,,,フジミケンチク,0
1354,5100001038355,新規,0,2025-03-07,2025-03-07,株式会社ＯｎｅＬｉｆｅ,,株式会社,長野県,北佐久郡軽井沢町,大字長倉２４８４番地１５,,20,321,3890111,,,,,,,2025-03-07,1,,,,,ワンライフ,0
1357,5100003008018,新規,0,2025-03-07,2025-03-07,合同会社Ｒｉｎ,,合同会社,長野県,北安曇郡小谷村,大字千国乙１２８４０－５鐘の鳴る丘村営住宅２０６号室,,20,486,3999422,,,,,,,2025-03-07,1,,,,,リン,0
1358,5100005013305,新規,0,2025-03-07,2025-03-07,一般社団法人大和電機ブルーレイカーズ,,その他の設立登記法人,長野県,諏訪郡下諏訪町,５１９７番地,,20,361,3930000,,,,,,,2025-03-07,1,,,,,ヤマトデンキブルーレイカーズ,0
1359,5110001039096,新規,0,2025-03-07,2025-03-07,ＥＮＪａ株式会社,,株式会社,新潟県,三条市,直江町４丁目７番４４号,,15,204,9550832,,,,,,,2025-03-07,1,,,,,エンジャ,0
1369,5120001273421,新規,0,2025-03-07,2025-03-07,株式会社Ｆｉｔ,,株式会社,大阪府,大阪市東住吉区,公園南矢田３丁目２４番２号,,27,121,5460024,,,,,,,2025-03-07,1,,,,,フィット,0
1370,5120001273479,新規,0,2025-03-07,2025-03-07,永駿株式会社,,株式会社,大阪府,大阪市中央区,南船場１丁目４番８号後藤マンション４０３号室,,27,128,5420081,,,,,,,2025-03-07,1,,,,,エイシュン,0
1371,5120001273512,新規,0,2025-03-07,2025-03-07,株式会社ＲＥＢＣＲＯ,,株式会社,大阪府,大阪市中央区,南久宝寺町１丁目９－１０日宝船場ビル７階,,27,128,5410058,,,,,,,2025-03-07,1,,,,,リブクロ,0
1373,5120003028724,新規,0,2025-03-07,2025-03-07,合同会社新明和,,合同会社,大阪府,大阪市中央区,南船場３丁目２－２２－２０５,,27,128,5420081,,,,,,,2025-03-07,1,,,,,シンメイワ,0
1374,5120003028781,新規,0,2025-03-07,2025-03-07,合同会社義和建設,,合同会社,大阪府,大阪市西区,本田４丁目９番２２－９０１号,,27,106,5500022,,,,,,,2025-03-07,1,,,,,ヨシワケンセツ,0
1375,5120003028815,新規,0,2025-03-07,2025-03-07,合同会社Ｆｒｏｎｔｉｅｒ,,合同会社,大阪府,大阪市北区,西天満６丁目９－１８－７０１,,27,127,5300047,,,,,,,2025-03-07,1,,,,,フロンティア,0
1376,5120101071205,新規,0,2025-03-07,2025-03-07,株式会社ＪＦハウジング,,株式会社,大阪府,岸和田市,東大路町２６８番地の７,,27,202,5960803,,,,,,,2025-03-07,1,,,,,ジェイエフハウジング,0
1378,5120103006308,新規,0,2025-03-07,2025-03-07,合同会社ＰＵＲＰＬＥ　ＳＴＵＤＩＯ,,合同会社,大阪府,堺市南区,新檜尾台３丁１番５－８０１号,,27,145,5900143,,,,,,,2025-03-07,1,,,,,パープルスタジオ,0
1382,5120901050531,新規,0,2025-03-07,2025-03-07,名神企業株式会社,,株式会社,大阪府,豊中市,名神口１丁目４０番地の１,,27,203,5610841,,,,,,,2025-03-07,1,,,,,メイシンキギョウ,0
1387,5122001038952,新規,0,2025-03-07,2025-03-07,旬彩株式会社,,株式会社,大阪府,東大阪市,岸田堂南町５番１２号,,27,227,5770847,,,,,,,2025-03-07,1,,,,,シュンサイ,0
1388,5122001038960,新規,0,2025-03-07,2025-03-07,株式会社丸三,,株式会社,大阪府,東大阪市,渋川町２丁目４番３８号,,27,227,5770836,,,,,,,2025-03-07,1,,,,,マルサン,0
1392,5130001079140,新規,0,2025-03-07,2025-03-07,株式会社Ｎｉｈｏｎ　Ｂｒｉｃｋｓ,,株式会社,京都府,京都市上京区,七本松通一条下る三軒町７１番地１３コーポラス北野９０８,,26,102,6028341,,,,,,,2025-03-07,1,,,,,ニホンブリックス,0
1400,5140001137624,新規,0,2025-03-07,2025-03-07,株式会社ＡＭＴ,,株式会社,兵庫県,神戸市中央区,熊内橋通７丁目１番１３－２４０２号,,28,110,6510055,,,,,,,2025-03-07,1,,,,,エーエムティー,0
1403,5150001027931,新規,0,2025-03-07,2025-03-07,株式会社Ｋ‐ＴＯＰ,,株式会社,奈良県,奈良市,三条本町９番２１号,,29,201,6308122,,,,,,,2025-03-07,1,,,,,ケートップ,0
1404,5150003003518,新規,0,2025-03-07,2025-03-07,合同会社トスプラス,,合同会社,奈良県,奈良市,朱雀３丁目１１番地１０,,29,201,6310806,,,,,,,2025-03-07,1,,,,,トスプラス,0
1409,5180001165679,新規,0,2025-03-07,2025-03-07,株式会社コアリーブル,,株式会社,愛知県,名古屋市南区,豊１丁目１３番１８号,,23,112,4570863,,,,,,,2025-03-07,1,,,,,コアリーブル,0
1410,5180001165737,新規,0,2025-03-07,2025-03-07,株式会社５ＲＫ,,株式会社,愛知県,名古屋市南区,鶴田１丁目１０番６号,,23,112,4570003,,,,,,,2025-03-07,1,,,,,ファイブアールケー,0
1411,5180001165794,新規,0,2025-03-07,2025-03-07,株式会社モッピー,,株式会社,愛知県,名古屋市緑区,乗鞍３丁目１６４番地１,,23,114,4580004,,,,,,,2025-03-07,1,,,,,モッピー,0
1414,5180003028074,新規,0,2025-03-07,2025-03-07,合同会社愛智信,,合同会社,愛知県,愛西市,渕高町蔭島１６番地３,,23,232,4968018,,,,,,,2025-03-07,1,,,,,アイチシン,0
1415,5180003028099,新規,0,2025-03-07,2025-03-07,Ｃａｓｔｉｎｇ合同会社,,合同会社,愛知県,海部郡大治町,大字北間島字藤田１０３番地の３,,23,424,4901132,,,,,,,2025-03-07,1,,,,,キャスティング,0
1421,5180301039599,新規,0,2025-03-07,2025-03-07,株式会社ＳＴＵＤＩＯ　ＭＩＳＰＡ,,株式会社,愛知県,豊田市,水源町５丁目２５番地９,,23,211,4710822,,,,,,,2025-03-07,1,,,,,スタジオミスパ,0
1422,5180303006481,新規,0,2025-03-07,2025-03-07,ＦＡＣＴＯＲＹ栄２４合同会社,,合同会社,愛知県,豊田市,栄町２丁目４番地７,,23,211,4710066,,,,,,,2025-03-07,1,,,,,ファクトリーサカエニジュウヨン,0
1423,5190001032036,新規,0,2025-03-07,2025-03-07,グリーンアップル株式会社,,株式会社,三重県,伊勢市,御薗町長屋２１８９番地,,24,203,5160804,,,,,,,2025-03-07,1,,,,,グリーンアップル,0
1425,5200003006721,新規,0,2025-03-07,2025-03-07,Ｒａｊｐｏｏｔ　Ｔｒａｄｉｎｇ合同会社,,合同会社,岐阜県,可児市,柿下字神崎野６３２番４,,21,214,5090233,,,,,,,2025-03-07,1,,,,,ラジプートトレーディング,0
1428,5210001020087,新規,0,2025-03-07,2025-03-07,矢野商事株式会社,,株式会社,福井県,大飯郡高浜町,中津海第２４号１８番地８,,18,481,9192211,,,,,,,2025-03-07,1,,,,,ヤノショウジ,0
1430,5230003002387,新規,0,2025-03-07,2025-03-07,合同会社Ｓｏｕｊｕ,,合同会社,富山県,高岡市,野村２２４番地４,,16,202,9330014,,,,,,,2025-03-07,1,,,,,ソウジュ,0
1435,5250003003664,新規,0,2025-03-07,2025-03-07,合同会社ｄｅｐａｒｋ,,合同会社,山口県,光市,中央５丁目９番１２号,,35,210,7430013,,,,,,,2025-03-07,1,,,,,ディパーク,0
1439,5280001009371,新規,0,2025-03-07,2025-03-07,株式会社美加登家,,株式会社,島根県,鹿足郡津和野町,日原２２１番地２,,32,501,6995221,,,,,,,2025-03-07,1,,,,,ミカドヤ,0
1449,5290001109154,新規,0,2025-03-07,2025-03-07,フロンティア・コーチャー株式会社,,株式会社,福岡県,福岡市中央区,天神２丁目３番１０号天神パインクレスト７１９号,,40,133,8100001,,,,,,,2025-03-07,1,,,,,フロンティアコーチャー,0
1450,5290001109237,新規,0,2025-03-07,2025-03-07,一途国際株式会社,,株式会社,福岡県,福岡市東区,和白４丁目２７－９ウィザード和白２０２号室,,40,131,8110202,,,,,,,2025-03-07,1,,,,,イチズコクサイ,0
1451,5290001109253,新規,0,2025-03-07,2025-03-07,ＴＳプランニング株式会社,,株式会社,福岡県,福岡市博多区,吉塚４丁目６番５０－２０３号,,40,132,8120041,,,,,,,2025-03-07,1,,,,,ティーエスプランニング,0
1452,5290003016489,新規,0,2025-03-07,2025-03-07,福岡光電工合同会社,,合同会社,福岡県,福岡市東区,千早５丁目３２番１０－１５１１,,40,131,8130044,,,,,,,2025-03-07,1,,,,,フクオカコウデンコウ,0
1456,5310001019482,新規,0,2025-03-07,2025-03-07,株式会社Ｋｅｅｐ　Ｆｏｒｗａｒｄ,,株式会社,長崎県,長崎市,網場町４９２番地１－３０２号,,42,201,8510123,,,,,,,2025-03-07,1,,,,,キープフォワード,0
1459,5330001032954,新規,0,2025-03-07,2025-03-07,株式会社ＲＡＩＫ,,株式会社,熊本県,熊本市中央区,中央街３番１－３０２号,,43,101,8600802,,,,,,,2025-03-07,1,,,,,ライク,0
1463,5330003010875,新規,0,2025-03-07,2025-03-07,合同会社ＴＫ製作所,,合同会社,熊本県,玉名市,富尾２９番地１,,43,206,8650062,,,,,,,2025-03-07,1,,,,,ティケイセイサクショ,0
1464,5340001027152,新規,0,2025-03-07,2025-03-07,株式会社ａｒａｔａ,,株式会社,鹿児島県,南さつま市,加世田本町４３－３,,46,220,8970006,,,,,,,2025-03-07,1,,,,,アラタ,0
1465,5340001027169,新規,0,2025-03-07,2025-03-07,大沢造園株式会社,,株式会社,鹿児島県,鹿児島市,伊敷８丁目１６番２号,,46,201,8900008,,,,,,,2025-03-07,1,,,,,オオサワゾウエン,0
1468,5340003004769,新規,0,2025-03-07,2025-03-07,合同会社いやさか,,合同会社,鹿児島県,霧島市,国分郡田８６６番地２,,46,218,8994305,,,,,,,2025-03-07,1,,,,,イヤサカ,0
1469,5340005009824,新規,0,2025-03-07,2025-03-07,医療法人ａｎｉｍｏ,,その他の設立登記法人,鹿児島県,鹿児島市,千日町１番１号センテラス天文館４階,,46,201,8920843,,,,,,,2025-03-07,1,,,,,アニモ,0
1472,5350003004859,新規,0,2025-03-07,2025-03-07,ＫＳＲ合同会社,,合同会社,宮崎県,東臼杵郡美郷町,西郷田代１２０１番地１０,,45,431,8831101,,,,,,,2025-03-07,1,,,,,ケイエスアール,0
1477,5370001052313,新規,0,2025-03-07,2025-03-07,株式会社は印魚問屋,,株式会社,宮城県,気仙沼市,赤岩牧沢１－４４,,04,205,9880171,,,,,,,2025-03-07,1,,,,,ハジルシウオドンヤ,0
1481,5400001016966,新規,0,2025-03-07,2025-03-07,株式会社リザイル,,株式会社,岩手県,盛岡市,向中野７丁目２番３０号,,03,201,0200851,,,,,,,2025-03-07,1,,,,,リザイル,0
1483,5420001019042,新規,0,2025-03-07,2025-03-07,株式会社ヨッシー,,株式会社,青森県,弘前市,大字早稲田３丁目９番地４,,02,202,0368087,,,,,,,2025-03-07,1,,,,,ヨッシー,0
1494,5700150129464,新規,0,2025-03-07,2025-03-07,ＳＨＥＮＺＨＥＮＳＨＩ　ＪＩＡＮＣＨＥＮＧＧＯＮＧＭＡＯＦＡＺＨＡＮ　ＹＯＵＸＩＡＮＧＯＮＧＳＩ,,外国会社等,,,,,,,,Ｌｏｎｇｗｕ　Ｉｎｄｕｓｔｒｉａｌ　Ｚｏｎｅ，Ｓｈａｎｇｆｅｎ　Ｃｏｍｍｕｎｉｔｙ，Ｍｉｎｚｈｉ　Ｓｔｒｅｅｔ　Ｒｏｏｍ　２０８Ａ，Ｂｕｉｌｄｉｎｇ　Ｃ，Ｎｏ．９，Ｙｕａｎｃｈｕａｎｇｙｕａｎ　Ｓｈｅｎｚｈｅｎ　Ｌｏｎｇｈｕａ　Ｄｉｓｔｒｉｃｔ　Ｇｕａｎｇｄｏｎｇ　Ｐｒｏｖｉｎｃｅ　５１８０００　ＣＮ,,,,,,2025-03-07,1,,,,,シェンジェンシージエンチョンゴンマオファージャンヨウシエンゴンスー,0
1495,6010001018167,新規,0,2025-03-07,2025-03-07,昭和スポーツ株式会社,,株式会社,東京都,千代田区,神田小川町３丁目１番地,,13,101,1010052,,,,,,,2025-03-07,1,,,,,ショウワスポーツ,0
1501,6010001252831,新規,0,2025-03-07,2025-03-07,株式会社Ｓ２Ｒ,,株式会社,東京都,千代田区,三番町９番地１麹町三番町マンション５１６,,13,101,1020075,,,,,,,2025-03-07,1,,,,,エスツーアール,0
1502,6010001252872,新規,0,2025-03-07,2025-03-07,株式会社マーチ,,株式会社,東京都,中央区,新川２丁目９番９号,,13,102,1040033,,,,,,,2025-03-07,1,,,,,マーチ,0
1503,6010001252889,新規,0,2025-03-07,2025-03-07,株式会社ＴｒｉｐｌｅＥｉｇｈｔ,,株式会社,東京都,中央区,銀座１丁目２２番１１号銀座大竹ビジデンス２Ｆ,,13,102,1040061,,,,,,,2025-03-07,1,,,,,トリプルエイト,0
1504,6010001252906,新規,0,2025-03-07,2025-03-07,株式会社ポコポコ,,株式会社,東京都,中央区,湊１丁目１２番５－７０１号,,13,102,1040043,,,,,,,2025-03-07,1,,,,,ポコポコ,0
1505,6010001252947,新規,0,2025-03-07,2025-03-07,株式会社ステッラ,,株式会社,東京都,千代田区,神田須田町２丁目２３－４小田ビル３Ｆ,,13,101,1010041,,,,,,,2025-03-07,1,,,,,ステッラ,0
1509,6010003046653,新規,0,2025-03-07,2025-03-07,合同会社デリバリードリーマーズ,,合同会社,東京都,中央区,銀座１丁目２２番１１号銀座大竹ビジデンス２Ｆ,,13,102,1040061,,,,,,,2025-03-07,1,,,,,デリバリードリーマーズ,0
1510,6010003046703,新規,0,2025-03-07,2025-03-07,中津川蓄電所合同会社,,合同会社,東京都,千代田区,麹町５丁目４番地,,13,101,1020083,,,,,,,2025-03-07,1,,,,,ナカツガワチクデンショ,0
1511,6010005039688,新規,0,2025-03-07,2025-03-07,医療法人社団まる,,その他の設立登記法人,東京都,中央区,日本橋箱崎町２５番７号ヤマキビル２階,,13,102,1030015,,,,,,,2025-03-07,1,,,,,マル,0
1513,6010105002331,新規,0,2025-03-07,2025-03-07,医療法人社団ＳＨＯ,,その他の設立登記法人,東京都,八王子市,万町１７５番地１八王子クリニックビレッジＡ棟,,13,201,1920903,,,,,,,2025-03-07,1,,,,,エスエイチオー,0
1520,6010401188477,新規,0,2025-03-07,2025-03-07,株式会社ｌｏｖｅｕｇｅ,,株式会社,東京都,港区,虎ノ門４丁目１番２８号虎ノ門タワーズオフィス１９Ｆ,,13,103,1050001,,,,,,,2025-03-07,1,,,,,ラブージュ,0
1521,6010401188634,新規,0,2025-03-07,2025-03-07,株式会社ソアフィレール,,株式会社,東京都,港区,南青山２丁目２番１５号ウィン青山９４２,,13,103,1070062,,,,,,,2025-03-07,1,,,,,ソアフィレール,0
1522,6010401188709,新規,0,2025-03-07,2025-03-07,株式会社Ｅ．Ｒ,,株式会社,東京都,港区,高輪４丁目１５番１９－４０２号,,13,103,1080074,,,,,,,2025-03-07,1,,,,,イーアール,0
1524,6010403034555,新規,0,2025-03-07,2025-03-07,合同会社ＫＡＮＧＥＮ,,合同会社,東京都,港区,南青山２丁目２番１５号,,13,103,1070062,,,,,,,2025-03-07,1,,,,,カンゲン,0
1527,6010405024166,新規,0,2025-03-07,2025-03-07,一般社団法人ＡＳＡ　ＪＳＦ,,その他の設立登記法人,東京都,港区,虎ノ門３丁目２２番１０－２０１号,,13,103,1050001,,,,,,,2025-03-07,1,,,,,エーエスエージェイエスエフ,0
1529,6010605004422,新規,0,2025-03-07,2025-03-07,医療法人社団義萌会,,その他の設立登記法人,東京都,江東区,大島７丁目１番１号ＳＴＡＮＤＺ大島２階,,13,108,1360072,,,,,,,2025-03-07,1,,,,,ギホウカイ,0
1531,6010703007608,新規,0,2025-03-07,2025-03-07,合同会社コロレアール,,合同会社,東京都,品川区,大崎１丁目１４番３－２０６号,,13,109,1410032,,,,,,,2025-03-07,1,,,,,コロレアール,0
1536,6010803005305,新規,0,2025-03-07,2025-03-07,合同会社Ｐｒｉｍａｎａｇｅ,,合同会社,東京都,大田区,田園調布１丁目１５番９号,,13,111,1450071,,,,,,,2025-03-07,1,,,,,プリマネージ,0
1537,6010901056927,新規,0,2025-03-07,2025-03-07,株式会社Ｋ,,株式会社,東京都,世田谷区,上馬５丁目３５番２５号ＪＬＢグランエクリュ三軒茶屋６０２,,13,112,1540011,,,,,,,2025-03-07,1,,,,,ケー,0
1538,6010903009759,新規,0,2025-03-07,2025-03-07,Ｋ＆Ａ合同会社,,合同会社,東京都,世田谷区,池尻４丁目２８番２１－５０５号,,13,112,1540001,,,,,,,2025-03-07,1,,,,,ケイアンドエイ,0
1543,6011001168084,新規,0,2025-03-07,2025-03-07,株式会社成,,株式会社,東京都,目黒区,上目黒２丁目６－３Ｋ＆Ｆ中目黒２階、３階、４階,,13,110,1530051,,,,,,,2025-03-07,1,,,,,ナル,0
1544,6011001168142,新規,0,2025-03-07,2025-03-07,株式会社ＫＵＳＵＢＵＲＩ,,株式会社,東京都,目黒区,五本木１丁目７番７号フェリクス五本木１０６,,13,110,1530053,,,,,,,2025-03-07,1,,,,,クスブリ,0
1545,6011001168183,新規,0,2025-03-07,2025-03-07,Ｋ‐Ｕｎｉｔ株式会社,,株式会社,東京都,渋谷区,神南１丁目１１－４ＦＰＧリンクス神南５階,,13,113,1500041,,,,,,,2025-03-07,1,,,,,ケーユニット,0
1546,6011001168191,新規,0,2025-03-07,2025-03-07,株式会社ｄｅｗ．,,株式会社,東京都,渋谷区,東３丁目２４番８号マーサ恵比寿４０１号室,,13,113,1500011,,,,,,,2025-03-07,1,,,,,デュー,0
1547,6011001168209,新規,0,2025-03-07,2025-03-07,吉澤商事株式会社,,株式会社,東京都,渋谷区,恵比寿西２丁目４番８号ウィンド恵比寿ビル８Ｆ,,13,113,1500021,,,,,,,2025-03-07,1,,,,,ヨシザワショウジ,0
1548,6011001168233,新規,0,2025-03-07,2025-03-07,株式会社Ｇａｒｙ＆Ｋｅｎｎｙ,,株式会社,東京都,目黒区,碑文谷１丁目１３番６号,,13,110,1520003,,,,,,,2025-03-07,1,,,,,ゲイリーアンドケニー,0
1549,6011001168258,新規,0,2025-03-07,2025-03-07,プライムさつきＣＣコンサルティング株式会社,,株式会社,東京都,渋谷区,渋谷３丁目２５番１０号小池ビル６Ｆ,,13,113,1500002,,,,,,,2025-03-07,1,,,,,プライムサツキシーシーコンサルティング,0
1550,6011003021092,新規,0,2025-03-07,2025-03-07,合同会社クミスクチン,,合同会社,東京都,渋谷区,渋谷２丁目１９－１５宮益坂ビルディング６０９,,13,113,1500002,,,,,,,2025-03-07,1,,,,,クミスクチン,0
1551,6011003021142,新規,0,2025-03-07,2025-03-07,立葵リサーチセンター合同会社,,合同会社,東京都,渋谷区,桜丘町２６番１号セルリアンタワー１５階,,13,113,1500031,,,,,,,2025-03-07,1,,,,,タチアオイリサーチセンター,0
1552,6011003021167,新規,0,2025-03-07,2025-03-07,サイバーグランクリュ合同会社,,合同会社,東京都,渋谷区,神南１丁目１１－４ＦＰＧリンクス神南５階,,13,113,1500041,,,,,,,2025-03-07,1,,,,,サイバーグランクリュ,0
1554,6011101110870,新規,0,2025-03-07,2025-03-07,株式会社ＶＩＳＩＯＮＡＲＹ　ＣＲＥＷＳ,,株式会社,東京都,新宿区,西新宿３丁目３番１３号西新宿水間ビル６階,,13,104,1600023,,,,,,,2025-03-07,1,,,,,ビジョナリークルーズ,0
1555,6011101110887,新規,0,2025-03-07,2025-03-07,株式会社ｍｏｄｅ　ｃｏｒｅ,,株式会社,東京都,新宿区,西新宿７丁目５番５号Ｐｌａｚａ西新宿ＵＣＦ４０６,,13,104,1600023,,,,,,,2025-03-07,1,,,,,モードコア,0
1556,6011101110895,新規,0,2025-03-07,2025-03-07,株式会社ＪＯＡＭＯＡ,,株式会社,東京都,新宿区,大久保２丁目２番１７号新宿第３アルプスマンション５０１,,13,104,1690072,,,,,,,2025-03-07,1,,,,,ジョアモア,0
1557,6011103015614,新規,0,2025-03-07,2025-03-07,合同会社ＤＡＯＮ,,合同会社,東京都,新宿区,原町３丁目３７番地安藤ビル３０３号室,,13,104,1620053,,,,,,,2025-03-07,1,,,,,ダオン,0
1560,6011301030415,新規,0,2025-03-07,2025-03-07,株式会社スペア,,株式会社,東京都,杉並区,荻窪３丁目７－５０シティテラス荻窪エアーズコート３１６,,13,115,1670051,,,,,,,2025-03-07,1,,,,,スペア,0
1562,6011501031790,新規,0,2025-03-07,2025-03-07,株式会社キズナ,,株式会社,東京都,荒川区,町屋３丁目１３番９号,,13,118,1160001,,,,,,,2025-03-07,1,,,,,キズナ,0
1564,6011601028472,新規,0,2025-03-07,2025-03-07,峰設備株式会社,,株式会社,東京都,練馬区,大泉学園町６丁目１６番１６号,,13,120,1780061,,,,,,,2025-03-07,1,,,,,ミネセツビ,0
1566,6011701028125,新規,0,2025-03-07,2025-03-07,ＯＭＳテクノ株式会社,,株式会社,東京都,江戸川区,春江町５丁目２０番地２５,,13,123,1340003,,,,,,,2025-03-07,1,,,,,オーエムエステクノ,0
1571,6012403007004,新規,0,2025-03-07,2025-03-07,合同会社Ｆｏｏｄ　Ｈｏｕｓｅ,,合同会社,東京都,府中市,白糸台３丁目１番地の１１,,13,206,1830011,,,,,,,2025-03-07,1,,,,,フードハウス,0
1572,6012405005088,新規,0,2025-03-07,2025-03-07,医療法人社団莉敬会,,その他の設立登記法人,東京都,武蔵野市,吉祥寺南町１丁目１１番２号吉祥寺ＭＤビル２階２０１号室,,13,203,1800003,,,,,,,2025-03-07,1,,,,,リケイカイ,0
1576,6013301053882,新規,0,2025-03-07,2025-03-07,株式会社ＭＥＤＩＡ　ＢＵＺＺ,,株式会社,東京都,豊島区,目白４丁目２番１２号オープンレジデンシア目白１０１,,13,116,1710031,,,,,,,2025-03-07,1,,,,,メディアバズ,0
1577,6013301053899,新規,0,2025-03-07,2025-03-07,株式会社ファンプレイス,,株式会社,東京都,豊島区,駒込１丁目４－５東俳シャトル館３０１号,,13,116,1700003,,,,,,,2025-03-07,1,,,,,ファンプレイス,0
1583,6021001084603,新規,0,2025-03-07,2025-03-07,株式会社ジェイエイ・トランスアグリビジネス,,株式会社,神奈川県,藤沢市,鵠沼松が岡１丁目５番１８号,,14,205,2510038,,,,,,,2025-03-07,1,,,,,ジェイエイトランスアグリビジネス,0
1584,6021001084636,新規,0,2025-03-07,2025-03-07,株式会社アルファグリーンＧＯＡＴＦＵＬ,,株式会社,神奈川県,厚木市,中荻野８０５番地,,14,212,2430202,,,,,,,2025-03-07,1,,,,,アルファグリーンゴートフル,0
1585,6021001084644,新規,0,2025-03-07,2025-03-07,株式会社カシワヤ,,株式会社,神奈川県,小田原市,久野９７９―３,,14,206,2500055,,,,,,,2025-03-07,1,,,,,カシワヤ,0
1586,6021003015655,新規,0,2025-03-07,2025-03-07,合同会社すずカンパニー,,合同会社,神奈川県,藤沢市,菖蒲沢１１２５番地の１クオス湘南台２－１０４号,,14,205,2520823,,,,,,,2025-03-07,1,,,,,スズカンパニー,0
1587,6021003015663,新規,0,2025-03-07,2025-03-07,カリシャースタジオ合同会社,,合同会社,神奈川県,小田原市,国府津３丁目９番８号,,14,206,2560812,,,,,,,2025-03-07,1,,,,,カリシャースタジオ,0
1588,6021003015688,新規,0,2025-03-07,2025-03-07,合同会社ｈａｒｕ,,合同会社,神奈川県,横須賀市,久里浜４丁目１５番４号,,14,201,2390831,,,,,,,2025-03-07,1,,,,,ハル,0
1599,6040001137658,新規,0,2025-03-07,2025-03-07,株式会社フローラル,,株式会社,千葉県,市川市,新田１丁目１７番２１号,,12,203,2720035,,,,,,,2025-03-07,1,,,,,フローラル,0
1600,6040001137666,新規,0,2025-03-07,2025-03-07,アイエヌサービス株式会社,,株式会社,千葉県,船橋市,習志野台２丁目７番３－１０２号,,12,204,2740063,,,,,,,2025-03-07,1,,,,,アイエヌサービス,0
1601,6040001137708,新規,0,2025-03-07,2025-03-07,株式会社サクマ電設,,株式会社,千葉県,袖ケ浦市,のぞみ野６０番地１８,,12,229,2990251,,,,,,,2025-03-07,1,,,,,サクマデンセツ,0
1602,6040001137724,新規,0,2025-03-07,2025-03-07,ＫＵＲＡ株式会社,,株式会社,千葉県,鎌ケ谷市,東初富５丁目４番４６号,,12,224,2730122,,,,,,,2025-03-07,1,,,,,クラ,0
1603,6040001137732,新規,0,2025-03-07,2025-03-07,株式会社ｓｅｋｉｍａｔｓｕ,,株式会社,千葉県,柏市,柏１丁目５番１７号２階,,12,217,2770005,,,,,,,2025-03-07,1,,,,,セキマツ,0
1604,6040003027015,新規,0,2025-03-07,2025-03-07,合同会社ＹｕＰ,,合同会社,千葉県,千葉市中央区,白旗３丁目１２番１７号,,12,101,2600841,,,,,,,2025-03-07,1,,,,,ヤップ,0
1614,6050001056270,新規,0,2025-03-07,2025-03-07,株式会社ＭＥＬ,,株式会社,茨城県,つくば市,学園の森３丁目１２番地１０－Ａ１０１,,08,220,3050816,,,,,,,2025-03-07,1,,,,,メル,0
1615,6050001056279,新規,0,2025-03-07,2025-03-07,株式会社石川オートサービス,,株式会社,茨城県,ひたちなか市,勝田本町１７番２５号,,08,221,3120026,,,,,,,2025-03-07,1,,,,,イシカワオートサービス,0
1616,6050001056295,新規,0,2025-03-07,2025-03-07,株式会社オネストウィングス,,株式会社,茨城県,ひたちなか市,大字馬渡２８９４番地７,,08,221,3120012,,,,,,,2025-03-07,1,,,,,オネストウィングス,0
1617,6050003009086,新規,0,2025-03-07,2025-03-07,Ｃｅｎｔｅｒ　ｆｉｅｌｄ合同会社,,合同会社,茨城県,つくばみらい市,高岡５８３番地６８,,08,235,3002301,,,,,,,2025-03-07,1,,,,,センターフィールド,0
1618,6050003009094,新規,0,2025-03-07,2025-03-07,合同会社Ｎ’ｓアセットマネージメント,,合同会社,茨城県,石岡市,若松１丁目７番８号,,08,205,3150018,,,,,,,2025-03-07,1,,,,,エヌズアセットマネージメント,0
1621,6080001026782,新規,0,2025-03-07,2025-03-07,株式会社トクナガコーヒーロースターズ,,株式会社,静岡県,静岡市清水区,辻４丁目８番２０号,00138243,22,103,4240806,,,,,,,2025-03-07,1,,,,,トクナガコーヒーロースターズ,0
1623,6090001019158,新規,0,2025-03-07,2025-03-07,株式会社月待ちの湯,,株式会社,山梨県,都留市,下谷３丁目２番３号,,19,204,4020051,,,,,,,2025-03-07,1,,,,,ツキマチノユ,0
1627,6100001038346,新規,0,2025-03-07,2025-03-07,株式会社シールズ,,株式会社,長野県,飯田市,桐林１８６８番地２,,20,205,3992565,,,,,,,2025-03-07,1,,,,,シールズ,0
1628,6100003008017,新規,0,2025-03-07,2025-03-07,合同会社ＬｏＫａＨｉ,,合同会社,長野県,北安曇郡白馬村,大字北城８２８番地１１２ホテルカルチャード,,20,485,3999301,,,,,,,2025-03-07,1,,,,,ロカヒ,0
1638,6120001273387,新規,0,2025-03-07,2025-03-07,ＨＡＡＫエステート株式会社,,株式会社,大阪府,大阪市平野区,瓜破西２丁目７番１２号,,27,126,5470025,,,,,,,2025-03-07,1,,,,,ハークエステート,0
1639,6120001273395,新規,0,2025-03-07,2025-03-07,大愿株式会社,,株式会社,大阪府,大阪市中央区,松屋町９番２０号ローレルステート松屋町１２０１Ｃ,,27,128,5420067,,,,,,,2025-03-07,1,,,,,ダイゲン,0
1640,6120001273404,新規,0,2025-03-07,2025-03-07,株式会社Ｓａｍｉｎ,,株式会社,大阪府,大阪市住之江区,御崎１丁目１１－１９－３１５,,27,125,5590013,,,,,,,2025-03-07,1,,,,,サミン,0
1641,6120001273494,新規,0,2025-03-07,2025-03-07,株式会社＿,00138244,株式会社,大阪府,大阪市北区,梅田１丁目１－３大阪駅前第３ビル２９階１－１－１号室,,27,127,5300001,,,,,,,2025-03-07,1,,,,,リョウ,0
1642,6120001273503,新規,0,2025-03-07,2025-03-07,Ｓｕｎｓｈｉｎｅ株式会社,,株式会社,大阪府,大阪市住吉区,万代東１丁目６番１０号ドミール万代東２０１号,,27,120,5580056,,,,,,,2025-03-07,1,,,,,サンシャイン,0
1646,6120003028806,新規,0,2025-03-07,2025-03-07,２・４・８合同会社,,合同会社,大阪府,大阪市城東区,東中浜９丁目１１番２号,,27,118,5360023,,,,,,,2025-03-07,1,,,,,ツーフォーエイト,0
1647,6120003028830,新規,0,2025-03-07,2025-03-07,合同会社ＲＯＣＫ１９６６,,合同会社,大阪府,大阪市西区,新町３丁目１番１７－１８１１号,,27,106,5500013,,,,,,,2025-03-07,1,,,,,ロックイチキュウロクロク,0
1653,6120101071204,新規,0,2025-03-07,2025-03-07,株式会社司工業,,株式会社,大阪府,高石市,西取石７丁目８番６号,,27,225,5920012,,,,,,,2025-03-07,1,,,,,ツカサコウギョウ,0
1658,6120903005573,新規,0,2025-03-07,2025-03-07,合同会社クリーンネスト,,合同会社,大阪府,豊能郡能勢町,宿野１５１－２７０,,27,322,5630341,,,,,,,2025-03-07,1,,,,,クリーンネスト,0
1665,6130001079107,新規,0,2025-03-07,2025-03-07,株式会社ＫｉＫｕ　Ｌａｂ,,株式会社,京都府,宮津市,字上世屋４８５番地,,26,205,6260227,,,,,,,2025-03-07,1,,,,,キクラボ,0
1666,6130001079131,新規,0,2025-03-07,2025-03-07,株式会社ＳＲＭ,,株式会社,京都府,向日市,寺戸町八ノ坪１２９番地プレサンスロジェ洛西口ザ・レジデンス１００１,,26,208,6170002,,,,,,,2025-03-07,1,,,,,エスアールエム,0
1673,6140001137607,新規,0,2025-03-07,2025-03-07,株式会社アルコクリエイト,,株式会社,兵庫県,宝塚市,仁川北３丁目７番３８号,,28,214,6650061,,,,,,,2025-03-07,1,,,,,アルコクリエイト,0
1674,6140001137623,新規,0,2025-03-07,2025-03-07,株式会社ＫＭＧ,,株式会社,兵庫県,川西市,湯山台１丁目１番地の８,,28,217,6660137,,,,,,,2025-03-07,1,,,,,ケーエムジー,0
1675,6140001137648,新規,0,2025-03-07,2025-03-07,株式会社大賀,,株式会社,兵庫県,神戸市須磨区,常盤町１丁目１番２０号ケイズビル４階,,28,107,6540028,,,,,,,2025-03-07,1,,,,,オオガ,0
1676,6140001137664,新規,0,2025-03-07,2025-03-07,株式会社Ａｉｎｏａ　Ｐａｒｔｎｅｒ,,株式会社,兵庫県,宝塚市,口谷西３丁目２９番地の３１,,28,214,6650813,,,,,,,2025-03-07,1,,,,,アイノアパートナー,0
1679,6150001027930,新規,0,2025-03-07,2025-03-07,株式会社Ｎｅｏ　Ｗｏｒｋｓ,,株式会社,奈良県,磯城郡田原本町,大字阪手６４３番地２,,29,363,6360247,,,,,,,2025-03-07,1,,,,,ネオワークス,0
1689,6180001165686,新規,0,2025-03-07,2025-03-07,株式会社ナガサカ,,株式会社,愛知県,知多市,岡田字馬草原１４番地の１,,23,224,4780021,,,,,,,2025-03-07,1,,,,,ナガサカ,0
1690,6180001165694,新規,0,2025-03-07,2025-03-07,株式会社ＴＫＨ,,株式会社,愛知県,名古屋市中区,丸の内３丁目８番２７号,,23,106,4600002,,,,,,,2025-03-07,1,,,,,ティーケーエイチ,0
1691,6180001165711,新規,0,2025-03-07,2025-03-07,株式会社キハ不動産,,株式会社,愛知県,名古屋市瑞穂区,松月町２丁目４４番地,,23,108,4670004,,,,,,,2025-03-07,1,,,,,キハフドウサン,0
1692,6180001165728,新規,0,2025-03-07,2025-03-07,サムコマーケティング株式会社,,株式会社,愛知県,名古屋市名東区,西里町２丁目４０番地の３,,23,115,4650084,,,,,,,2025-03-07,1,,,,,サムコマーケティング,0
1693,6180001165760,新規,0,2025-03-07,2025-03-07,ＳＵＺＵＨＩＲＯホールディングス株式会社,,株式会社,愛知県,名古屋市名東区,神里１丁目１４番地４,,23,115,4650082,,,,,,,2025-03-07,1,,,,,スズヒロホールディングス,0
1694,6180001165769,新規,0,2025-03-07,2025-03-07,アイナグループ株式会社,,株式会社,愛知県,名古屋市天白区,植田３丁目１７０１番地ワイズビル６０３号,,23,116,4680051,,,,,,,2025-03-07,1,,,,,アイナグループ,0
1695,6180001165777,新規,0,2025-03-07,2025-03-07,エルケア株式会社,,株式会社,愛知県,名古屋市瑞穂区,瑞穂通２丁目２番地の２サニーストン瑞穂２０２,,23,108,4670806,,,,,,,2025-03-07,1,,,,,エルケア,0
1698,6180003028098,新規,0,2025-03-07,2025-03-07,合同会社Ｋｏｃｓ,,合同会社,愛知県,名古屋市昭和区,御器所２丁目１３番２２号,,23,107,4660051,,,,,,,2025-03-07,1,,,,,コチ,0
1700,6180301039598,新規,0,2025-03-07,2025-03-07,株式会社ワールドサービス豊田,,株式会社,愛知県,豊田市,曙町２丁目１６番地ＢＵＬＳ１６・１０２号室,,23,211,4710835,,,,,,,2025-03-07,1,,,,,ワールドサービストヨタ,0
1701,6180303006472,新規,0,2025-03-07,2025-03-07,Ｔ・Ｔ合同会社,,合同会社,愛知県,岡崎市,井田新町４番地２４,,23,202,4440069,,,,,,,2025-03-07,1,,,,,ティティ,0
1704,6200001043501,新規,0,2025-03-07,2025-03-07,株式会社ＮＥＸＴ　ＩＮＮＯＶＡＴＩＯＮ,,株式会社,岐阜県,可児市,下恵土５６３６番地１ＡＫビル２０１,,21,214,5090203,,,,,,,2025-03-07,1,,,,,ネクストイノベーション,0
1708,6220001026529,新規,0,2025-03-07,2025-03-07,株式会社ＤＡＳＨＩ,,株式会社,石川県,野々市市,新庄２丁目２６１番地２,,17,212,9218824,,,,,,,2025-03-07,1,,,,,ダシ,0
1714,6240001064584,新規,0,2025-03-07,2025-03-07,株式会社ＳＥＴＯＵＣＨＩ　ＨＵＢ,,株式会社,広島県,三原市,港町１丁目１０番３１号Ｊパレット三原港町３Ｆ,,34,204,7230017,,,,,,,2025-03-07,1,,,,,セトウチハブ,0
1715,6240001064618,新規,0,2025-03-07,2025-03-07,株式会社ａｍｅｌａｔｅｒｉｅ,,株式会社,広島県,広島市中区,吉島町１‐２２ポレスタ吉島１階,,34,101,7300821,,,,,,,2025-03-07,1,,,,,アメラトリー,0
1716,6250001021031,新規,0,2025-03-07,2025-03-07,株式会社てつ電機,,株式会社,山口県,宇部市,昭和町２丁目３番２４号,,35,202,7550011,,,,,,,2025-03-07,1,,,,,テツデンキ,0
1732,6290001109145,新規,0,2025-03-07,2025-03-07,株式会社ライズ,,株式会社,福岡県,福岡市中央区,六本松４丁目２番６－１３２７号,,40,133,8100044,,,,,,,2025-03-07,1,,,,,ライズ,0
1733,6290001109244,新規,0,2025-03-07,2025-03-07,株式会社ドーバー商事,,株式会社,福岡県,久留米市,山川追分２丁目２番２３号,,40,203,8390814,,,,,,,2025-03-07,1,,,,,ドーバーショウジ,0
1738,6290803004980,新規,0,2025-03-07,2025-03-07,合同会社インテリア・アーチスト・ヤマダ,,合同会社,福岡県,北九州市小倉北区,中井１丁目１９－１－１０１,,40,106,8030836,,,,,,,2025-03-07,1,,,,,インテリアアーチストヤマダ,0
1740,6330001032945,新規,0,2025-03-07,2025-03-07,株式会社木下自動車,,株式会社,熊本県,上益城郡益城町,大字馬水８１７番地８,,43,443,8612232,,,,,,,2025-03-07,1,,,,,キノシタジドウシャ,0
1741,6330001032953,新規,0,2025-03-07,2025-03-07,株式会社Ｌｉａｎ,,株式会社,熊本県,熊本市中央区,帯山２丁目１番２３号パークヒル帯山Ｂ３０１,,43,101,8620924,,,,,,,2025-03-07,1,,,,,リアン,0
1745,6330003010874,新規,0,2025-03-07,2025-03-07,合同会社南九州ｒｅｖｉｖａｌ,,合同会社,熊本県,上益城郡御船町,大字滝川１３１８番地２,,43,441,8613205,,,,,,,2025-03-07,1,,,,,ミナミキュウシュウリバイバル,0
1747,6330005010880,新規,0,2025-03-07,2025-03-07,ＴＯＢＡＳＥ　Ｉｓｌａｎｄ　Ｗｏｒｋｓ協同組合,,その他の設立登記法人,熊本県,宇城市,三角町戸馳１９４５－１,,43,213,8693203,,,,,,,2025-03-07,1,,,,,トバセアイランドワークス,0
1758,6380001035134,新規,0,2025-03-07,2025-03-07,株式会社サムランド,,株式会社,福島県,南相馬市,鹿島区山下字狸内１６５番地,,07,212,9792461,,,,,,,2025-03-07,1,,,,,サムランド,0
1766,6400001016965,新規,0,2025-03-07,2025-03-07,株式会社Ｈ・Ｓ,,株式会社,岩手県,一関市,赤荻字荻野２５５番地１１,,03,209,0210041,,,,,,,2025-03-07,1,,,,,エイチエス,0
1774,6450001014551,新規,0,2025-03-07,2025-03-07,やまだ板金株式会社,,株式会社,北海道,旭川市,旭岡１丁目１２－４,,01,204,0700822,,,,,,,2025-03-07,1,,,,,ヤマダバンキン,0
1782,6500001026186,新規,0,2025-03-07,2025-03-07,株式会社星加工業,,株式会社,愛媛県,新居浜市,萩生２８２４番地の５,,38,205,7920050,,,,,,,2025-03-07,1,,,,,ホシカコウギョウ,0
1784,6700150129463,新規,0,2025-03-07,2025-03-07,ＳＨＥＮＺＨＥＮＳＨＩＴＵＯＰＵＹＩＤＩＡＮＺＩＹＯＵＸＩＡＮＧＯＮＧＳＩ,,外国会社等,,,,,,,,ＹａｎＴｉａｎＱｕ　ＹａｎＴｉａｎＪｉｅＤａｏ　ＤｏｎｇＨａｉＳｈｅＱｕ　ＨｏｎｇＡｎＥｒＪｉｅ　２　Ｈａｏ　ＹｕｅＨａｉＨｕａＹｕａｎ　２　Ｄｏｎｇ　Ａ　Ｚｕｏ　８０６　Ｓｈｅｎｚｈｅｎ　Ｇｕａｎｇｄｏｎｇ,,,,,,2025-03-07,1,,,,,シェンジェンシートゥオプーイーディエンズーヨウシエンゴンスー,0
1792,7010001252731,新規,0,2025-03-07,2025-03-07,株式会社ＴＨＲＥＥ,,株式会社,東京都,千代田区,二番町９番地３,,13,101,1020084,,,,,,,2025-03-07,1,,,,,スリー,0
1793,7010001252806,新規,0,2025-03-07,2025-03-07,株式会社ＧＢＰラボラトリーズ,,株式会社,東京都,中央区,京橋３丁目１番１号東京スクエアガーデン６階シティラボ東京内,,13,102,1040031,,,,,,,2025-03-07,1,,,,,ジービーピーラボラトリーズ,0
1794,7010001252814,新規,0,2025-03-07,2025-03-07,ＭＨＣセミテクノロジーズ株式会社,,株式会社,東京都,千代田区,丸の内１丁目５番１号,,13,101,1000005,,,,,,,2025-03-07,1,,,,,エムエイチシーセミテクノロジーズ,0
1795,7010001252855,新規,0,2025-03-07,2025-03-07,Ｄｒ．ＴＯＵＨＩ株式会社,,株式会社,東京都,千代田区,有楽町１丁目５番２号東宝日比谷プロムナードビル地下１階,,13,101,1000006,,,,,,,2025-03-07,1,,,,,ドクタートウヒ,0
1796,7010001252913,新規,0,2025-03-07,2025-03-07,株式会社ＢＣＭ３６,,株式会社,東京都,中央区,京橋２丁目２番１号,,13,102,1040031,,,,,,,2025-03-07,1,,,,,ビーシーエムサンジュウロク,0
1797,7010001252921,新規,0,2025-03-07,2025-03-07,株式会社ナルクーリア,,株式会社,東京都,中央区,銀座１丁目１２番４号Ｎ＆ＥＢＬＤ．７階,,13,102,1040061,,,,,,,2025-03-07,1,,,,,ナルクーリア,0
1803,7010003046594,新規,0,2025-03-07,2025-03-07,三石商事合同会社,,合同会社,東京都,中央区,銀座７丁目１７番１８号ジュエル銀座４０５号室,,13,102,1040061,,,,,,,2025-03-07,1,,,,,ミツイシショウジ,0
1804,7010003046693,新規,0,2025-03-07,2025-03-07,ひびきのＤＣ開発合同会社,,合同会社,東京都,千代田区,丸の内１丁目４番１号東京共同会計事務所内,,13,101,1000005,,,,,,,2025-03-07,1,,,,,ヒビキノディーシーカイハツ,0
1805,7010005039712,新規,0,2025-03-07,2025-03-07,医療法人社団啓進会,,その他の設立登記法人,東京都,千代田区,内神田２丁目１２番６号内神田ＯＳビル１Ｆ,,13,101,1010047,,,,,,,2025-03-07,1,,,,,ケイシンカイ,0
1812,7010401188674,新規,0,2025-03-07,2025-03-07,デラックス株式会社,,株式会社,東京都,港区,白金１丁目１７番１－３６０２号,,13,103,1080072,,,,,,,2025-03-07,1,,,,,デラックス,0
1813,7010401188682,新規,0,2025-03-07,2025-03-07,株式会社Ｂ＆Ｈ,,株式会社,東京都,港区,南青山３丁目１３番９号,,13,103,1070062,,,,,,,2025-03-07,1,,,,,ビーアンドエイチ,0
1814,7010401188690,新規,0,2025-03-07,2025-03-07,ＳＡＳグループ株式会社,,株式会社,東京都,港区,三田３丁目４番１０号４Ｆ,,13,103,1080073,,,,,,,2025-03-07,1,,,,,エスエーエスグループ,0
1815,7010401188699,新規,0,2025-03-07,2025-03-07,株式会社Ｌｉｇｈｔｈｏｕｓｅ,,株式会社,東京都,港区,赤坂５丁目２番３３－５０３号,,13,103,1070052,,,,,,,2025-03-07,1,,,,,ライトハウス,0
1816,7010401188732,新規,0,2025-03-07,2025-03-07,株式会社ＷＯＲＬＤ　ＥＸ,,株式会社,東京都,港区,南麻布３丁目２０番１号,,13,103,1060047,,,,,,,2025-03-07,1,,,,,ワールドイーエックス,0
1817,7010401188740,新規,0,2025-03-07,2025-03-07,株式会社ＲＢＹ,,株式会社,東京都,港区,白金６丁目２３番３号ＷＡＴＯＲＥＩ白金８０２,,13,103,1080072,,,,,,,2025-03-07,1,,,,,アールビーワイ,0
1826,7010601066886,新規,0,2025-03-07,2025-03-07,株式会社ＮＡＧＩ,,株式会社,東京都,江東区,豊洲６丁目２番２９－１００９号,,13,108,1350061,,,,,,,2025-03-07,1,,,,,ナギ,0
1828,7010701047349,新規,0,2025-03-07,2025-03-07,アタラシア株式会社,,株式会社,東京都,品川区,東大井５丁目１６番９号フィルパーク大井町駅前３Ｆ,,13,109,1400011,,,,,,,2025-03-07,1,,,,,アタラシア,0
1832,7010901056926,新規,0,2025-03-07,2025-03-07,ＶＯＩＣＥ株式会社,,株式会社,東京都,世田谷区,三軒茶屋２丁目１１番２２号,,13,112,1540024,,,,,,,2025-03-07,1,,,,,ボイス,0
1833,7010901056934,新規,0,2025-03-07,2025-03-07,株式会社ＳＹＡＳＹＡ,,株式会社,東京都,世田谷区,上馬５丁目４番１７号シンメイハウス１０３号室,,13,112,1540011,,,,,,,2025-03-07,1,,,,,シャシャ,0
1838,7011001168001,新規,0,2025-03-07,2025-03-07,株式会社ＧｏｋｕＧｏｋｕ,,株式会社,東京都,渋谷区,恵比寿３丁目９－２９シェビア恵比寿２階ＲｅｌｉｃＳＱＵＡＲＥＺＥＲＯ,,13,113,1500013,,,,,,,2025-03-07,1,,,,,ゴクゴク,0
1839,7011001168125,新規,0,2025-03-07,2025-03-07,株式会社Ｌｕｃｅ,,株式会社,東京都,渋谷区,神南１丁目１１－４ＦＰＧリンクス神南５階,,13,113,1500041,,,,,,,2025-03-07,1,,,,,ルーチェ,0
1840,7011001168158,新規,0,2025-03-07,2025-03-07,株式会社ＫＲＡ,,株式会社,東京都,渋谷区,神宮前３丁目３４番６号,,13,113,1500001,,,,,,,2025-03-07,1,,,,,ケイアールエイ,0
1841,7011001168182,新規,0,2025-03-07,2025-03-07,株式会社ＳＡＴＯＳＨＩ　ＯＴＳＵＫＩ,,株式会社,東京都,渋谷区,宇田川町７番１７,,13,113,1500042,,,,,,,2025-03-07,1,,,,,サトシオオツキ,0
1842,7011001168190,新規,0,2025-03-07,2025-03-07,株式会社アンド・ユウ,,株式会社,東京都,目黒区,中根１丁目２番１０－８０４号,,13,110,1520031,,,,,,,2025-03-07,1,,,,,アンドユウ,0
1843,7011001168199,新規,0,2025-03-07,2025-03-07,株式会社ノマドニア,,株式会社,東京都,渋谷区,渋谷２丁目１９番１５号宮益坂ビルディング６０９,,13,113,1500002,,,,,,,2025-03-07,1,,,,,ノマドニア,0
1844,7011001168240,新規,0,2025-03-07,2025-03-07,株式会社Ｐｅｏｐｌｅ　Ｓｅｅｄ,,株式会社,東京都,渋谷区,渋谷１丁目１番５号,,13,113,1500002,,,,,,,2025-03-07,1,,,,,ピープルシード,0
1845,7011003021141,新規,0,2025-03-07,2025-03-07,合同会社ＨａｐｙＴａｕｒａｎｔ,,合同会社,東京都,渋谷区,千駄ヶ谷５丁目１６番１６号フラワーマンション１００３号室,,13,113,1510051,,,,,,,2025-03-07,1,,,,,ハピトラン,0
1846,7011003021158,新規,0,2025-03-07,2025-03-07,合同会社ホワイトラテ,,合同会社,東京都,渋谷区,円山町５番５号Ｎａｖｉ渋谷Ｖ３階,,13,113,1500044,,,,,,,2025-03-07,1,,,,,ホワイトラテ,0
1852,7011101110886,新規,0,2025-03-07,2025-03-07,Ｖｅｎｔｕｒａ株式会社,,株式会社,東京都,新宿区,下落合３丁目２０番３号,,13,104,1610033,,,,,,,2025-03-07,1,,,,,ベンチュラ,0
1856,7011103015613,新規,0,2025-03-07,2025-03-07,合同会社ＬＩＧＨＴ　ＨＯＵＳＥ,,合同会社,東京都,新宿区,新宿２丁目１２番１３号アントレサロンビル２階,,13,104,1600022,,,,,,,2025-03-07,1,,,,,ライトハウス,0
1861,7011401026865,新規,0,2025-03-07,2025-03-07,辰和株式会社,,株式会社,東京都,板橋区,仲宿６３番地７号ＯＥＯｆｆｉｃｅＢｌｄｇ．３０７号,,13,119,1730005,,,,,,,2025-03-07,1,,,,,シンワ,0
1863,7011501031781,新規,0,2025-03-07,2025-03-07,Ｆｏｏｄｉｓｔ　Ｉｎｃ株式会社,,株式会社,東京都,北区,赤羽２丁目１５番５号シャインハイム１Ｆ,,13,117,1150045,,,,,,,2025-03-07,1,,,,,フーディストインク,0
1864,7011503006443,新規,0,2025-03-07,2025-03-07,合同会社ノムノム,,合同会社,東京都,荒川区,南千住４丁目７番３－３４０１号,,13,118,1160003,,,,,,,2025-03-07,1,,,,,ノムノム,0
1867,7011603004628,新規,0,2025-03-07,2025-03-07,ｅｓｃｏｎｉｄｏ　Ｔｏｋｙｏ合同会社,,合同会社,東京都,練馬区,東大泉３丁目１７番１８号,,13,120,1780063,,,,,,,2025-03-07,1,,,,,エスコニードトウキョウ,0
1871,7012401042844,新規,0,2025-03-07,2025-03-07,株式会社２‐８,,株式会社,東京都,府中市,府中町１丁目２９番地の２コーポテラス２０２,,13,206,1830055,,,,,,,2025-03-07,1,,,,,ニノハチ,0
1872,7012401042860,新規,0,2025-03-07,2025-03-07,株式会社Ｇａｂｒｉｅｌ,,株式会社,東京都,狛江市,岩戸北１丁目１６番１０号,,13,219,2010004,,,,,,,2025-03-07,1,,,,,ガブリエル,0
1874,7012405005087,新規,0,2025-03-07,2025-03-07,医療法人社団優凛会,,その他の設立登記法人,東京都,多摩市,関戸１丁目１番地５ザ・スクエア２階,,13,224,2060011,,,,,,,2025-03-07,1,,,,,ユウリンカイ,0
1875,7012801023799,新規,0,2025-03-07,2025-03-07,株式会社ＲＥＷＩＬＤ,,株式会社,東京都,国分寺市,南町３丁目４番１１号ハイネス国分寺ルミエール８０３,,13,214,1850021,,,,,,,2025-03-07,1,,,,,リワイルド,0
1876,7013303007555,新規,0,2025-03-07,2025-03-07,合同会社ＮＥＸＢＩＺ,,合同会社,東京都,豊島区,東池袋１丁目３４番５号いちご東池袋ビル６階,,13,116,1700013,,,,,,,2025-03-07,1,,,,,ネクスビズ,0
1880,7020001161691,新規,0,2025-03-07,2025-03-07,株式会社ＩＫＤ,,株式会社,神奈川県,横浜市中区,本牧大里町１５番２号,,14,104,2310823,,,,,,,2025-03-07,1,,,,,アイケーディー,0
1881,7020001161717,新規,0,2025-03-07,2025-03-07,ＴＥＡＭ株式会社,,株式会社,神奈川県,横浜市鶴見区,鶴見中央１丁目３１番２２－２５０７号,,14,101,2300051,,,,,,,2025-03-07,1,,,,,チーム,0
1883,7020003027957,新規,0,2025-03-07,2025-03-07,合同会社祐里庵,,合同会社,神奈川県,横浜市金沢区,能見台３丁目３４－１１,,14,108,2360057,,,,,,,2025-03-07,1,,,,,ユウリアン,0
1890,7021001084627,新規,0,2025-03-07,2025-03-07,株式会社Ｈａｒｖｅｓｔ,,株式会社,神奈川県,伊勢原市,岡崎５０６６番地,,14,214,2591135,,,,,,,2025-03-07,1,,,,,ハーベスト,0
1891,7021001084651,新規,0,2025-03-07,2025-03-07,株式会社ケンツプラン,,株式会社,神奈川県,横須賀市,不入斗町４丁目４５番地,,14,201,2380051,,,,,,,2025-03-07,1,,,,,ケンツプラン,0
1894,7021003015687,新規,0,2025-03-07,2025-03-07,Ｊ．Ｔ．Ａ．合同会社,,合同会社,神奈川県,大和市,中央林間２丁目１１番６号メゾンＧ３０１,,14,213,2420007,,,,,,,2025-03-07,1,,,,,ジェーティーエー,0
1898,7030001165238,新規,0,2025-03-07,2025-03-07,株式会社ＫＥＩ,,株式会社,埼玉県,越谷市,弥生町１７番２号グローリオ越谷ステーションタワー７０９号室,,11,222,3430816,,,,,,,2025-03-07,1,,,,,ケーイーアイ,0
1902,7040001137632,新規,0,2025-03-07,2025-03-07,株式会社Ａｎｇｅ,,株式会社,千葉県,我孫子市,湖北台１丁目１６番６号,,12,222,2701132,,,,,,,2025-03-07,1,,,,,,0
1903,7040001137707,新規,0,2025-03-07,2025-03-07,株式会社エバラフーズ,,株式会社,千葉県,市川市,北方３丁目１６番５号,,12,203,2720815,,,,,,,2025-03-07,1,,,,,エバラフーズ,0
1904,7040001137756,新規,0,2025-03-07,2025-03-07,ネクスリンク株式会社,,株式会社,千葉県,市川市,幸２丁目１０番９号,,12,203,2720123,,,,,,,2025-03-07,1,,,,,ネクスリンク,0
1907,7050001056261,新規,0,2025-03-07,2025-03-07,株式会社小池,,株式会社,茨城県,ひたちなか市,阿字ケ浦町１９８８番地１,,08,221,3111201,,,,,,,2025-03-07,1,,,,,コイケ,0
1908,7050001056278,新規,0,2025-03-07,2025-03-07,株式会社ＮＡＫＡＹＡＭＡ,,株式会社,茨城県,稲敷郡美浦村,大字信太２８２９番地１,,08,442,3000414,,,,,,,2025-03-07,1,,,,,ナカヤマ,0
1909,7050001056286,新規,0,2025-03-07,2025-03-07,株式会社東邦ランカ,,株式会社,茨城県,北茨城市,磯原町磯原２３３４番地５６,,08,215,3191541,,,,,,,2025-03-07,1,,,,,トウホウランカ,0
1915,7060001037995,新規,0,2025-03-07,2025-03-07,株式会社メランポジウム,,株式会社,栃木県,宇都宮市,峰４丁目２３番６号,,09,201,3210942,,,,,,,2025-03-07,1,,,,,,0
1921,7070001042689,新規,0,2025-03-07,2025-03-07,株式会社ハピネスリンク,,株式会社,群馬県,高崎市,飯塚町１０７番地,,10,202,3700069,,,,,,,2025-03-07,1,,,,,ハピネスリンク,0
1927,7080103003266,新規,0,2025-03-07,2025-03-07,ＩｎｏＫｕｍａＤｅｓｉｇｎ合同会社,,合同会社,静岡県,富士宮市,大岩１８８５番地の２,,22,207,4180013,,,,,,,2025-03-07,1,,,,,イノクマデザイン,0
1933,7090001019165,新規,0,2025-03-07,2025-03-07,株式会社フロンティアーズ,,株式会社,山梨県,笛吹市,石和町川中島１６５３番地６６,,19,211,4060024,,,,,,,2025-03-07,1,,,,,フロンティアーズ,0
1934,7100001038353,新規,0,2025-03-07,2025-03-07,株式会社菊本屋農園,,株式会社,長野県,南佐久郡南牧村,大字広瀬１９４１番地３,,20,305,3841303,,,,,,,2025-03-07,1,,,,,キクモトヤノウエン,0
1936,7100003008016,新規,0,2025-03-07,2025-03-07,合同会社Ｋａ　Ｐｉｌｉｎａ,,合同会社,長野県,大町市,常盤５８３９番地６,,20,212,3980004,,,,,,,2025-03-07,1,,,,,カピリナ,0
1946,7120001273147,新規,0,2025-03-07,2025-03-07,魚楽株式会社,,株式会社,大阪府,大阪市西成区,玉出東１丁目７番２３号２０２号室,,27,122,5570043,,,,,,,2025-03-07,1,,,,,ギョラク,0
1947,7120001273394,新規,0,2025-03-07,2025-03-07,星捷株式会社,,株式会社,大阪府,大阪市城東区,蒲生３丁目１５番１２号セザンヌ藤３０５Ｂ,,27,118,5360016,,,,,,,2025-03-07,1,,,,,セイショウ,0
1948,7120001273403,新規,0,2025-03-07,2025-03-07,香柏樹紡織株式会社,,株式会社,大阪府,大阪市天王寺区,味原町１６番３号２０３,,27,109,5430023,,,,,,,2025-03-07,1,,,,,コノテガシワボウショク,0
1949,7120001273436,新規,0,2025-03-07,2025-03-07,株式会社ＯＮ,,株式会社,大阪府,大阪市中央区,南船場３丁目４番２２号東道ビル９階,,27,128,5420081,,,,,,,2025-03-07,1,,,,,オン,0
1950,7120001273477,新規,0,2025-03-07,2025-03-07,テックケイツー株式会社,,株式会社,大阪府,大阪市生野区,巽西２丁目５－１４,00138254,27,116,5440012,,,,,,,2025-03-07,1,,,,,テックケイツー,0
1951,7120001273551,新規,0,2025-03-07,2025-03-07,株式会社アストレア,,株式会社,大阪府,大阪市北区,梅田１丁目１－３大阪駅前第３ビル２９階１－１－１号室,,27,127,5300001,,,,,,,2025-03-07,1,,,,,アストレア,0
1952,7120003028813,新規,0,2025-03-07,2025-03-07,センターエッジ合同会社,,合同会社,大阪府,大阪市北区,梅田１丁目１－３大阪駅前第３ビル２９階１－１－１号室,,27,127,5300001,,,,,,,2025-03-07,1,,,,,センターエッジ,0
1956,7120101071203,新規,0,2025-03-07,2025-03-07,株式会社Ｎ　ａｉｒｓｙｓｔｅｍ,,株式会社,大阪府,和泉市,山荘町３丁目８番２６号,,27,219,5940021,,,,,,,2025-03-07,1,,,,,エヌエアーシステム,0
1957,7120103006306,新規,0,2025-03-07,2025-03-07,Ｓ．Ｈ．Ｗ合同会社,,合同会社,大阪府,大阪狭山市,大野中９５０番地,,27,231,5890015,,,,,,,2025-03-07,1,,,,,エスエイチダブリュー,0
1958,7120103006314,新規,0,2025-03-07,2025-03-07,ＹＴＡＡ合同会社,,合同会社,大阪府,岸和田市,港緑町５番１－６０６号,,27,202,5960014,,,,,,,2025-03-07,1,,,,,ワイティエーエー,0
1959,7120901050554,新規,0,2025-03-07,2025-03-07,株式会社買取グース,,株式会社,大阪府,吹田市,豊津町１０－１１池上ビル１０１,,27,205,5640051,,,,,,,2025-03-07,1,,,,,カイトリグース,0
1961,7122001038950,新規,0,2025-03-07,2025-03-07,ＳＩＭＰＬＥ　ＦＡＣＴＯＲＹ株式会社,,株式会社,大阪府,柏原市,堂島町５番６号,,27,221,5820003,,,,,,,2025-03-07,1,,,,,シンプルファクトリー,0
1962,7122003003135,新規,0,2025-03-07,2025-03-07,ＫＯＨＫＥＮ合同会社,,合同会社,大阪府,八尾市,水越２丁目５２番地,,27,212,5810856,,,,,,,2025-03-07,1,,,,,コーケン,0
1966,7130003010258,新規,0,2025-03-07,2025-03-07,合同会社スプレッド,,合同会社,京都府,京都市左京区,田中北春菜町２４,,26,103,6068233,,,,,,,2025-03-07,1,,,,,スプレッド,0
1968,7140001137606,新規,0,2025-03-07,2025-03-07,Ａ’Ｌｉｖｅ株式会社,,株式会社,兵庫県,明石市,田町１丁目９－１６－５０２,,28,203,6730025,,,,,,,2025-03-07,1,,,,,アライブ,0
1969,7140001137622,新規,0,2025-03-07,2025-03-07,株式会社ＫＯＹＯｓｏｌｕｔｉｏｎ,,株式会社,兵庫県,朝来市,山東町大月５１４番地１,,28,225,6695153,,,,,,,2025-03-07,1,,,,,コウヨウソリュウション,0
1970,7140001137655,新規,0,2025-03-07,2025-03-07,株式会社丸ごころ,,株式会社,兵庫県,神戸市北区,花山中尾台１丁目７番地の４,,28,109,6511202,,,,,,,2025-03-07,1,,,,,マゴコロ,0
1971,7140001137671,新規,0,2025-03-07,2025-03-07,ラックヒル株式会社,,株式会社,兵庫県,西宮市,苦楽園二番町１０番３６号,,28,204,6620082,,,,,,,2025-03-07,1,,,,,ラックヒル,0
1977,7150001027905,新規,0,2025-03-07,2025-03-07,株式会社ＳＡＮＴＡ,,株式会社,奈良県,奈良市,今在家５０－１,,29,201,6300000,,,,,,,2025-03-07,1,,,,,サンタ,0
1986,7180001165685,新規,0,2025-03-07,2025-03-07,株式会社Ｌｉｔｅ,,株式会社,愛知県,名古屋市中川区,四女子町１丁目２２番地,,23,110,4540822,,,,,,,2025-03-07,1,,,,,ライト,0
1987,7180001165702,新規,0,2025-03-07,2025-03-07,株式会社Ａｔｔｒａｉｔ,,株式会社,愛知県,名古屋市中区,錦３丁目１２番１２号ハードワンビル４階Ａ号室,,23,106,4600003,,,,,,,2025-03-07,1,,,,,アトレ,0
1988,7180001165719,新規,0,2025-03-07,2025-03-07,日本芸者倶楽部株式会社,,株式会社,愛知県,名古屋市中区,丸の内３丁目１９番１４号林敬ビル５階,,23,106,4600002,,,,,,,2025-03-07,1,,,,,ニホンゲイシャクラブ,0
1989,7180001165735,新規,0,2025-03-07,2025-03-07,ＤＳＪ株式会社,,株式会社,愛知県,春日井市,大留町３丁目１４３０番地７７,,23,206,4870024,,,,,,,2025-03-07,1,,,,,ディーエスジェイ,0
1990,7180001165743,新規,0,2025-03-07,2025-03-07,株式会社中部特装,,株式会社,愛知県,東海市,名和町五番割８９番地の１,,23,222,4760002,,,,,,,2025-03-07,1,,,,,チュウブトクソウ,0
1991,7180001165768,新規,0,2025-03-07,2025-03-07,株式会社Ｂｅｔｗｅｅｎ,,株式会社,愛知県,日進市,三本木町大根６４番地１,,23,230,4700101,,,,,,,2025-03-07,1,,,,,ヴィトウィーン,0
1995,7180003028072,新規,0,2025-03-07,2025-03-07,合同会社サンライズビジョン,,合同会社,愛知県,名古屋市中区,大須３丁目３１番４２号,,23,106,4600011,,,,,,,2025-03-07,1,,,,,サンライズビジョン,0
1996,7180003028097,新規,0,2025-03-07,2025-03-07,Ｋａｆｕｕ合同会社,,合同会社,愛知県,名古屋市緑区,桶狭間巻山２１０７番地,,23,114,4580920,,,,,,,2025-03-07,1,,,,,カフウ,0
1997,7180003028106,新規,0,2025-03-07,2025-03-07,合同会社ｍａｒｕｓｈｏ　ｆｏｏｄｓ,,合同会社,愛知県,名古屋市中川区,外新町３丁目１番地の１２,,23,110,4540053,,,,,,,2025-03-07,1,,,,,マルショウフーズ,0
2006,7200001043491,新規,0,2025-03-07,2025-03-07,株式会社ユナイトオート,,株式会社,岐阜県,岐阜市,六条大溝１丁目１６番１４号,,21,201,5008357,,,,,,,2025-03-07,1,,,,,ユナイトオート,0
2007,7200001043500,新規,0,2025-03-07,2025-03-07,株式会社ＷＡＴＴコンサルティング,,株式会社,岐阜県,岐阜市,金町１丁目４番地プライム岐阜金町２０１号室,,21,201,5008842,,,,,,,2025-03-07,1,,,,,ワットコンサルティング,0
2009,7230003002385,新規,0,2025-03-07,2025-03-07,合同会社白丸,,合同会社,富山県,富山市,吉作１１１２番地９,,16,201,9300142,,,,,,,2025-03-07,1,,,,,シロマル,0
2012,7240001064600,新規,0,2025-03-07,2025-03-07,株式会社もぐ,,株式会社,広島県,尾道市,高須町３７１９番地７,,34,205,7290141,,,,,,,2025-03-07,1,,,,,モグ,0
2013,7240001064617,新規,0,2025-03-07,2025-03-07,株式会社わいわい,,株式会社,広島県,安芸郡府中町,鹿籠２丁目１２番５０号,,34,302,7350025,,,,,,,2025-03-07,1,,,,,ワイワイ,0
2016,7240005015913,新規,0,2025-03-07,2025-03-07,医療法人玉田歯科,,その他の設立登記法人,広島県,広島市南区,段原３丁目３番２７号３Ｆ,,34,103,7320811,,,,,,,2025-03-07,1,,,,,タマダシカ,0
2017,7250001021030,新規,0,2025-03-07,2025-03-07,ＹＭ＆Ｄ株式会社,,株式会社,山口県,山口市,吉敷中東４丁目１０番１号,,35,203,7530813,,,,,,,2025-03-07,1,,,,,ワイエムアンドディー,0
2036,7290001109160,新規,0,2025-03-07,2025-03-07,株式会社ＭＨＫエンタープライズ,,株式会社,福岡県,福岡市西区,大字女原４５１番地１,,40,135,8190376,,,,,,,2025-03-07,1,,,,,エムエイチケーエンタープライズ,0
2037,7290001109227,新規,0,2025-03-07,2025-03-07,株式会社友ホーム,,株式会社,福岡県,福岡市博多区,寿町３丁目３番３３－８０２号,,40,132,8120884,,,,,,,2025-03-07,1,,,,,ユウホーム,0
2046,7290801031324,新規,0,2025-03-07,2025-03-07,縁‐ｅｎ株式会社,,株式会社,福岡県,北九州市八幡西区,引野２丁目１１番２３号,,40,109,8060067,,,,,,,2025-03-07,1,,,,,エン,0
2047,7290801031332,新規,0,2025-03-07,2025-03-07,株式会社ロムハウス,,株式会社,福岡県,北九州市八幡西区,東神原町６番２－７０３号,,40,109,8060025,,,,,,,2025-03-07,1,,,,,ロムハウス,0
2048,7290801031340,新規,0,2025-03-07,2025-03-07,株式会社きららインシュアランス,,株式会社,福岡県,北九州市八幡東区,中畑２丁目２番２号,,40,108,8050024,,,,,,,2025-03-07,1,,,,,キララインシュアランス,0
2053,7330003010865,新規,0,2025-03-07,2025-03-07,合同会社丸航,,合同会社,熊本県,熊本市西区,八島町７２６－９,,43,103,8600057,,,,,,,2025-03-07,1,,,,,マルコウ,0
2063,7370001052303,新規,0,2025-03-07,2025-03-07,株式会社ｋｏｒｔｒｅｋ,,株式会社,宮城県,仙台市青葉区,中央３丁目８－５新仙台駅前ビル２Ｆ－３Ａ,,04,101,9800021,,,,,,,2025-03-07,1,,,,,コートレック,0
2064,7370001052328,新規,0,2025-03-07,2025-03-07,株式会社Ｂｌｕｅ　Ｌｉｆｅ,,株式会社,宮城県,宮城郡利府町,神谷沢字塚元６２番地,,04,406,9810121,,,,,,,2025-03-07,1,,,,,ブルーライフ,0
2065,7380001035141,新規,0,2025-03-07,2025-03-07,株式会社Ｏ．Ｌ．Ｔ,,株式会社,福島県,郡山市,香久池１丁目８－１３,,07,203,9638833,,,,,,,2025-03-07,1,,,,,オルト,0
2073,7450001014550,新規,0,2025-03-07,2025-03-07,株式会社ＧＴ,,株式会社,北海道,深川市,一已町字一已８３７１番地,,01,228,0740028,,,,,,,2025-03-07,1,,,,,ジーティー,0
2076,7500001026185,新規,0,2025-03-07,2025-03-07,株式会社ｓｔｕｄｉｏ　Ｌａｎｄ,,株式会社,愛媛県,松山市,北吉田町３６３番地１,,38,201,7918041,,,,,,,2025-03-07,1,,,,,スタジオランド,0
2078,7700150129462,新規,0,2025-03-07,2025-03-07,Ｙｉｗｕ　Ｔｏｎｇｈｅ　Ｅｃｏｍｍｅｒｃｅ　Ｃｏ．，Ｌｔｄ,,外国会社等,,,,,,,,１ｓｔ　Ｆｌｏｏｒ，Ｇｒｏｕｐ　１，Ｐｉｎｇｑｉａｏ　Ｖｉｌｌａｇｅ，Ｃｈｅｎｇｘｉ　Ｓｔｒｅｅｔ，Ｙｉｗｕ　Ｃｉｔｙ，Ｚｈｅｊｉａｎｇ　Ｐｒｏｖｉｎｃｅ,,,,,,2025-03-07,1,,,,,イーウーシートンホーディエンズーシャンウーヨウシエンゴンスー,0
2086,8010001252813,新規,0,2025-03-07,2025-03-07,Ｓｐｒｉｎｇ　Ｈｏｌｄｉｎｇｓ株式会社,,株式会社,東京都,中央区,日本橋小網町１８番１６号日本橋サマリヤシティハイツ４０５,,13,102,1030016,,,,,,,2025-03-07,1,,,,,スプリングホールディングス,0
2087,8010001252846,新規,0,2025-03-07,2025-03-07,株式会社Ｎｉｃｏ　ａｎｄ　Ｅｓｔａｔｅ,,株式会社,東京都,中央区,銀座１丁目１２番４号Ｎ＆ＥＢＬＤ．６Ｆ,,13,102,1040061,,,,,,,2025-03-07,1,,,,,ニコアンドエステート,0
2088,8010001252854,新規,0,2025-03-07,2025-03-07,株式会社ＪＦＲ＆ＫＯＭＥＨＹＯ　ＰＡＲＴＮＥＲＳ,,株式会社,東京都,千代田区,神田須田町１丁目２４番地４,,13,101,1010041,,,,,,,2025-03-07,1,,,,,ジェイエフアールアンドコメヒョウパートナーズ,0
2089,8010001252870,新規,0,2025-03-07,2025-03-07,株式会社ＴＭＴエンタープライズ,,株式会社,東京都,千代田区,九段南１丁目６番５号,,13,101,1020074,,,,,,,2025-03-07,1,,,,,ティーエムティーエンタープライズ,0
2090,8010001252879,新規,0,2025-03-07,2025-03-07,株式会社ピポリス,,株式会社,東京都,千代田区,神田和泉町１番地６－１６ヤマトビル４０５,,13,101,1010024,,,,,,,2025-03-07,1,,,,,ピポリス,0
2091,8010001252895,新規,0,2025-03-07,2025-03-07,株式会社ＢＬＵＥ　ＯＦＦＩＣＥ,,株式会社,東京都,中央区,銀座１丁目２２番１１号銀座大竹ビジデンス２Ｆ,,13,102,1040061,,,,,,,2025-03-07,1,,,,,ブルーオフィス,0
2092,8010001252912,新規,0,2025-03-07,2025-03-07,株式会社トリリバティ,,株式会社,東京都,中央区,銀座１丁目１２番４号Ｎ＆ＥＢＬＤ．６Ｆ,,13,102,1040061,,,,,,,2025-03-07,1,,,,,トリリバティ,0
2095,8010003046577,新規,0,2025-03-07,2025-03-07,合同会社Ｋａｍｏｍｅｍｏｎ,,合同会社,東京都,中央区,銀座１丁目１２番４号Ｎ＆ＥＢＬＤ．６Ｆ,,13,102,1040061,,,,,,,2025-03-07,1,,,,,カモメモン,0
2096,8010003046602,新規,0,2025-03-07,2025-03-07,松大企画合同会社,,合同会社,東京都,中央区,月島１丁目２１番９－２０３号,,13,102,1040052,,,,,,,2025-03-07,1,,,,,ショウダイキカク,0
2097,8010003046668,新規,0,2025-03-07,2025-03-07,合同会社Ｓバンク,,合同会社,東京都,千代田区,大手町１丁目２番１号,,13,101,1000004,,,,,,,2025-03-07,1,,,,,エスバンク,0
2098,8010003046676,新規,0,2025-03-07,2025-03-07,合同会社Ｂｕｔｌｅｒｓ,,合同会社,東京都,中央区,銀座１丁目１２－４Ｎ＆ＥＢＬＤ．７階,,13,102,1040061,,,,,,,2025-03-07,1,,,,,バトラーズ,0
2099,8010003046692,新規,0,2025-03-07,2025-03-07,Ｃｏｎｎｅｃｔ　Ｅｎｅｒｇｙ合同会社,,合同会社,東京都,中央区,日本橋兜町１７－２兜町第６葉山ビル４Ｆ,,13,102,1030026,,,,,,,2025-03-07,1,,,,,コネクトエネルギー,0
2107,8010401188285,新規,0,2025-03-07,2025-03-07,株式会社ＧＵＸ,,株式会社,東京都,港区,芝５丁目三十六番四号札の辻スクエア９階,,13,103,1080014,,,,,,,2025-03-07,1,,,,,ガックス,0
2108,8010401188673,新規,0,2025-03-07,2025-03-07,楽天ステイオペレーションズ株式会社,,株式会社,東京都,港区,港南２丁目１６番５号ＮＢＦ品川タワー１４階,,13,103,1080075,,,,,,,2025-03-07,1,,,,,ラクテンステイオペレーションズ,0
2109,8010401188681,新規,0,2025-03-07,2025-03-07,株式会社Ｂｒｉｃｋｓ＆ＵＫ　Ｃｏｎｓｕｌｔｉｎｇ,,株式会社,東京都,港区,港南１丁目７番１８号,,13,103,1080075,,,,,,,2025-03-07,1,,,,,ブリックスアンドユーケーコンサルティング,0
2110,8010401188707,新規,0,2025-03-07,2025-03-07,ディアスリー株式会社,,株式会社,東京都,港区,北青山１丁目３－３三橋ビル３階,,13,103,1070061,,,,,,,2025-03-07,1,,,,,ディアスリー,0
2111,8010401188715,新規,0,2025-03-07,2025-03-07,株式会社ブルームーン,,株式会社,東京都,港区,南青山６丁目１２番３－４０５号,,13,103,1070062,,,,,,,2025-03-07,1,,,,,ブルームーン,0
2115,8010501053744,新規,0,2025-03-07,2025-03-07,ＭＴリスクマネジメント株式会社,,株式会社,東京都,台東区,台東４丁目３１番１号ＡＬビル２０５,,13,106,1100016,,,,,,,2025-03-07,1,,,,,エムティーリスクマネジメント,0
2117,8010601066902,新規,0,2025-03-07,2025-03-07,株式会社ＭＡＲＵＴＳＵＧＩ,,株式会社,東京都,江東区,白河２丁目１４番２－３０７号,,13,108,1350021,,,,,,,2025-03-07,1,,,,,マルツギ,0
2118,8010605004420,新規,0,2025-03-07,2025-03-07,医療法人社団祐祥会,,その他の設立登記法人,東京都,墨田区,立川１丁目１２番１３号１階,,13,107,1300023,,,,,,,2025-03-07,1,,,,,ユウショウカイ,0
2120,8010701047348,新規,0,2025-03-07,2025-03-07,株式会社洗足ゴルフスタジオ,,株式会社,東京都,品川区,東五反田２丁目１９番２号第１２東都ビル７階,,13,109,1410022,,,,,,,2025-03-07,1,,,,,センゾクゴルフスタジオ,0
2121,8010705003735,新規,0,2025-03-07,2025-03-07,医療法人社団はなうた,,その他の設立登記法人,東京都,品川区,平塚１丁目７番７号ＭＹビル１階,,13,109,1420051,,,,,,,2025-03-07,1,,,,,ハナウタ,0
2127,8010901056933,新規,0,2025-03-07,2025-03-07,株式会社アネックスガーデン,,株式会社,東京都,世田谷区,等々力５丁目１２番２３号アネックスガーデン等々力３０５,,13,112,1580082,,,,,,,2025-03-07,1,,,,,アネックスガーデン,0
2132,8011001168116,新規,0,2025-03-07,2025-03-07,株式会社ＰＩＶＯＴＩＱ,,株式会社,東京都,渋谷区,渋谷２丁目１９－１５宮益坂ビルディング６０９,,13,113,1500002,,,,,,,2025-03-07,1,,,,,ピボティック,0
2133,8011001168198,新規,0,2025-03-07,2025-03-07,株式会社ＡｒｍａＧｅｔｄｏｎｅ,,株式会社,東京都,目黒区,平町２丁目１３番５号,,13,110,1520032,,,,,,,2025-03-07,1,,,,,アルマゲドン,0
2134,8011001168272,新規,0,2025-03-07,2025-03-07,株式会社ＮＧＴＧ１４,,株式会社,東京都,渋谷区,渋谷１丁目３－１８ビラ・モデルナＡ４０２,,13,113,1500002,,,,,,,2025-03-07,1,,,,,エヌジーティージーイチヨン,0
2135,8011001168289,新規,0,2025-03-07,2025-03-07,株式会社ＡＬＢ,,株式会社,東京都,渋谷区,上原３丁目１０番２号,,13,113,1510064,,,,,,,2025-03-07,1,,,,,エーエルビー,0
2137,8011003021099,新規,0,2025-03-07,2025-03-07,合同会社輪織,,合同会社,東京都,目黒区,下目黒１丁目１番１４号コノトラビル７Ｆ,,13,110,1530064,,,,,,,2025-03-07,1,,,,,ワオリ,0
2138,8011003021140,新規,0,2025-03-07,2025-03-07,合同会社Ｓｕｐｐａｗｔ,,合同会社,東京都,渋谷区,渋谷２丁目１９番１５号宮益坂ビルディング６０９,,13,113,1500002,,,,,,,2025-03-07,1,,,,,サポート,0
2139,8011003021149,新規,0,2025-03-07,2025-03-07,合同会社ＧＪＣＦ９,,合同会社,東京都,渋谷区,恵比寿１丁目２０番２号７０４号室嶋本公認会計士事務所気付,,13,113,1500013,,,,,,,2025-03-07,1,,,,,ジージェイシーエフナイン,0
2143,8011101110869,新規,0,2025-03-07,2025-03-07,株式会社８８ＡＵＤＩＯ,,株式会社,東京都,新宿区,西新宿３丁目３番１３号西新宿水間ビル６階,,13,104,1600023,,,,,,,2025-03-07,1,,,,,エイティエイトオーディオ,0
2144,8011101110885,新規,0,2025-03-07,2025-03-07,株式会社キャリタッグ,,株式会社,東京都,新宿区,新宿１丁目３６番２号新宿第七葉山ビル１階１０５号室,,13,104,1600022,,,,,,,2025-03-07,1,,,,,キャリタッグ,0
2145,8011101110893,新規,0,2025-03-07,2025-03-07,Ｂｕｄｄｙ株式会社,,株式会社,東京都,新宿区,新宿２丁目８－１新宿セブンビル２０５号,,13,104,1600022,,,,,,,2025-03-07,1,,,,,バディー,0
2148,8011201026172,新規,0,2025-03-07,2025-03-07,株式会社ＡＬＧ,,株式会社,東京都,中野区,弥生町１丁目３３番５－１０７号,,13,114,1640013,,,,,,,2025-03-07,1,,,,,エーエルジー,0
2153,8011603004627,新規,0,2025-03-07,2025-03-07,合同会社リーサス技研,,合同会社,東京都,練馬区,大泉学園町６丁目２８－３５,,13,120,1780061,,,,,,,2025-03-07,1,,,,,リーサスギケン,0
2154,8011705001877,新規,0,2025-03-07,2025-03-07,一般社団法人東京ピックルボール協会,,その他の設立登記法人,東京都,江戸川区,東小岩４丁目８番２５号,,13,123,1330052,,,,,,,2025-03-07,1,,,,,トウキョウピックルボールキョウカイ,0
2160,8011801045753,新規,0,2025-03-07,2025-03-07,株式会社ＣＡＴＴＬＥ,,株式会社,東京都,足立区,花畑７丁目７番４号,,13,121,1210061,,,,,,,2025-03-07,1,,,,,キャトル,0
2162,8012401042851,新規,0,2025-03-07,2025-03-07,ファイルプロジェクトホールディングス株式会社,,株式会社,東京都,多摩市,鶴牧１丁目４番地の１７いずみビル６階,,13,224,2060034,,,,,,,2025-03-07,1,,,,,ファイルプロジェクトホールディングス,0
2164,8012403006986,新規,0,2025-03-07,2025-03-07,合同会社Ｓｍｉｌｅ　Ｈａｃｋｅｒ,,合同会社,東京都,稲城市,平尾２丁目８１番地の１９,,13,225,2060823,,,,,,,2025-03-07,1,,,,,スマイルハッカー,0
2165,8012403007002,新規,0,2025-03-07,2025-03-07,ＰｉｎｎａｃｌｅＰａｒｔｎｅｒｓ合同会社,,合同会社,東京都,調布市,深大寺北町５丁目２６番３０,,13,208,1820011,,,,,,,2025-03-07,1,,,,,ピナクルパートナーズ,0
2166,8012405005086,新規,0,2025-03-07,2025-03-07,医療法人社団かもめ,,その他の設立登記法人,東京都,稲城市,平尾１丁目３３番地の３４,,13,225,2060823,,,,,,,2025-03-07,1,,,,,カモメ,0
2167,8012701018741,新規,0,2025-03-07,2025-03-07,株式会社璃羅設備,,株式会社,東京都,西東京市,泉町５丁目７番３号,,13,229,2020011,,,,,,,2025-03-07,1,,,,,リラセツビ,0
2168,8012705002452,新規,0,2025-03-07,2025-03-07,医療法人社団東村山こどもクリニック,,その他の設立登記法人,東京都,東村山市,久米川町４丁目２番地３４,,13,213,1890003,,,,,,,2025-03-07,1,,,,,ヒガシムラヤマコドモクリニック,0
2170,8013301053914,新規,0,2025-03-07,2025-03-07,和味スパイシー株式会社,,株式会社,東京都,豊島区,西池袋１丁目１８－１０ミラノビル３Ｆ,,13,116,1710021,,,,,,,2025-03-07,1,,,,,ナゴミスパイシー,0
2174,8020001161708,新規,0,2025-03-07,2025-03-07,株式会社ＲＭＣ,,株式会社,神奈川県,横浜市港北区,新吉田東６丁目３３番３７号,,14,109,2230058,,,,,,,2025-03-07,1,,,,,アールエムシー,0
2175,8020001161716,新規,0,2025-03-07,2025-03-07,株式会社Ｆロード,,株式会社,神奈川県,横浜市泉区,岡津町１５３８番地,,14,116,2450003,,,,,,,2025-03-07,1,,,,,エフロード,0
2179,8020003027964,新規,0,2025-03-07,2025-03-07,サムズアップ合同会社,,合同会社,神奈川県,横浜市戸塚区,吉田町７７８番地１０ルネ横浜戸塚２０９号,,14,110,2440817,,,,,,,2025-03-07,1,,,,,サムズアップ,0
2182,8021001084592,新規,0,2025-03-07,2025-03-07,株式会社ＤＡＳＨＩーＹＵ,,株式会社,神奈川県,相模原市南区,上鶴間本町１丁目４８番５－２０４号,,14,153,2520318,,,,,,,2025-03-07,1,,,,,ダシユ,0
2183,8021001084618,新規,0,2025-03-07,2025-03-07,株式会社ダイナリサーチラボ,,株式会社,神奈川県,相模原市中央区,相模原８丁目７番２０号ガーデンフィールドＤ２０７,,14,152,2520231,,,,,,,2025-03-07,1,,,,,ダイナリサーチラボ,0
2184,8021001084659,新規,0,2025-03-07,2025-03-07,株式会社湘南さくらエステート,,株式会社,神奈川県,藤沢市,辻堂２丁目３番１号マリス湘南４０２,,14,205,2510047,,,,,,,2025-03-07,1,,,,,ショウナンサクラエステート,0
2185,8021003015678,新規,0,2025-03-07,2025-03-07,合同会社ＫＥＣ,,合同会社,神奈川県,小田原市,酒匂４丁目５番４８号,,14,206,2560816,,,,,,,2025-03-07,1,,,,,ケーイーシー,0
2186,8021003015686,新規,0,2025-03-07,2025-03-07,合同会社ワイルロット,,合同会社,神奈川県,小田原市,国府津５丁目４番３８－８号,,14,206,2560812,,,,,,,2025-03-07,1,,,,,ワイルロット,0
2197,8030003026271,新規,0,2025-03-07,2025-03-07,合同会社トータス,,合同会社,埼玉県,所沢市,北所沢町２２４５番地の２１,,11,208,3590046,,,,,,,2025-03-07,1,,,,,トータス,0
2202,8040001137697,新規,0,2025-03-07,2025-03-07,松戸地所株式会社,,株式会社,千葉県,松戸市,新松戸４丁目２６番地ハートビル４階,,12,207,2700034,,,,,,,2025-03-07,1,,,,,マツドジショ,0
2205,8040003027046,新規,0,2025-03-07,2025-03-07,合同会社健美堂,,合同会社,千葉県,八千代市,大和田新田６５３番地３号－Ｂ２０２号室,,12,221,2760046,,,,,,,2025-03-07,1,,,,,ケンビドウ,0
2209,8050001056269,新規,0,2025-03-07,2025-03-07,株式会社エモーション,,株式会社,茨城県,古河市,上大野１５２８番地２,,08,204,3060201,,,,,,,2025-03-07,1,,,,,エモーション,0
2210,8050001056277,新規,0,2025-03-07,2025-03-07,株式会社宮本工業,,株式会社,茨城県,日立市,東滑川町１丁目１１番９号,,08,202,3170052,,,,,,,2025-03-07,1,,,,,ミヤモトコウギョウ,0
2211,8050001056285,新規,0,2025-03-07,2025-03-07,株式会社Ａ．Ｔ．Ｍ．ＴＥＣＨＮＯ,,株式会社,茨城県,下妻市,高道祖２６１２番地コーポタイセイＡ棟１０１号室,,08,210,3040031,,,,,,,2025-03-07,1,,,,,エイティエムテクノ,0
2212,8050001056293,新規,0,2025-03-07,2025-03-07,総合基礎工業株式会社,,株式会社,茨城県,神栖市,大野原２丁目１６番１２号,,08,232,3140144,,,,,,,2025-03-07,1,,,,,ソウゴウキソコウギョウ,0
2214,8050003009076,新規,0,2025-03-07,2025-03-07,合同会社ＲＯＯＴＳ,,合同会社,茨城県,水戸市,下大野町１１４０番地,,08,201,3111131,,,,,,,2025-03-07,1,,,,,ルーツ,0
2217,8070001042688,新規,0,2025-03-07,2025-03-07,株式会社結音,,株式会社,群馬県,高崎市,飯塚町７０番地１２,,10,202,3700069,,,,,,,2025-03-07,1,,,,,ユノン,0
2218,8070001042696,新規,0,2025-03-07,2025-03-07,株式会社ユニオンマネジメント,,株式会社,群馬県,高崎市,江木町９８９番地５ヤマタカプラザ１０６号,,10,202,3700046,,,,,,,2025-03-07,1,,,,,ユニオンマネジメント,0
2226,8080403005218,新規,0,2025-03-07,2025-03-07,ＳＨＡＮＵＳＨ　ＬＡＮＫＡ　ＩＮＴＥＲＮＡＴＩＯＮＡＬ合同会社,,合同会社,静岡県,御前崎市,白羽３２１６番地の１サンハイツ白羽１０３号,,22,223,4371622,,,,,,,2025-03-07,1,,,,,シャヌシュランカインターナショナル,0
2227,8080405007716,新規,0,2025-03-07,2025-03-07,一般社団法人浜松みどりのプラットホーム,,その他の設立登記法人,静岡県,浜松市浜名区,小林３２９番地,,22,139,4340031,,,,,,,2025-03-07,1,,,,,ハママツミドリノプラットホーム,0
2228,8090001019164,新規,0,2025-03-07,2025-03-07,株式会社蒼天,,株式会社,山梨県,笛吹市,春日居町桑戸５４７番地１,,19,211,4060003,,,,,,,2025-03-07,1,,,,,ソウテン,0
2230,8090003002762,新規,0,2025-03-07,2025-03-07,合同会社稜函建設,,合同会社,山梨県,甲斐市,境４６２番地２,,19,210,4000122,,,,,,,2025-03-07,1,,,,,リョウカンケンセツ,0
2232,8110003005688,新規,0,2025-03-07,2025-03-07,ＪＥＩ・ＮＥＩ合同会社,,合同会社,新潟県,柏崎市,桜木町１３番２１号,,15,205,9450073,,,,,,,2025-03-07,1,,,,,ジェイネイ,0
2245,8120001273385,新規,0,2025-03-07,2025-03-07,ＴＦＧホールディングス株式会社,,株式会社,大阪府,大阪市港区,夕凪１丁目１１番２０号,,27,107,5520004,,,,,,,2025-03-07,1,,,,,ティーエフジーホールディングス,0
2246,8120001273393,新規,0,2025-03-07,2025-03-07,華創株式会社,,株式会社,大阪府,大阪市大正区,三軒家西３丁目４番１６号中山ビル３０７Ａ,,27,108,5510001,,,,,,,2025-03-07,1,,,,,カソウ,0
2247,8120001273402,新規,0,2025-03-07,2025-03-07,神豆株式会社,,株式会社,大阪府,大阪市北区,堂山町１－５三共梅田ビル６階センターオフィス内,,27,127,5300027,,,,,,,2025-03-07,1,,,,,シントウ,0
2248,8120001273484,新規,0,2025-03-07,2025-03-07,株式会社ティティティ,,株式会社,大阪府,大阪市中央区,南船場４丁目６番１０号,,27,128,5420081,,,,,,,2025-03-07,1,,,,,ティティティ,0
2249,8120001273534,新規,0,2025-03-07,2025-03-07,株式会社ＴＧＡワークス,,株式会社,大阪府,大阪市生野区,小路１丁目９番２０号Ｋ－ＳＯＨＯ小路ＮｏｒｔｈＷｉｎｇ９号室,,27,116,5440002,,,,,,,2025-03-07,1,,,,,ティジーエーワークス,0
2251,8120003028787,新規,0,2025-03-07,2025-03-07,Ｔｒｏｌｌｅａ　Ｆｉｒｓｔ合同会社,,合同会社,大阪府,大阪市浪速区,塩草１丁目１番７８－９０６号,,27,111,5560024,,,,,,,2025-03-07,1,,,,,トロレアファースト,0
2254,8120101071193,新規,0,2025-03-07,2025-03-07,株式会社藤本建設,,株式会社,大阪府,堺市北区,長曽根町３０５１番地１１,,27,146,5918025,,,,,,,2025-03-07,1,,,,,フジモトケンセツ,0
2255,8120101071202,新規,0,2025-03-07,2025-03-07,株式会社松本清掃,,株式会社,大阪府,堺市中区,陶器北１８９５番地ハイユニメント秀栄１０３号,,27,142,5998242,,,,,,,2025-03-07,1,,,,,,0
2256,8120101071210,新規,0,2025-03-07,2025-03-07,株式会社園田断熱,,株式会社,大阪府,堺市中区,土塔町３２５４－２,,27,142,5998234,,,,,,,2025-03-07,1,,,,,ソノダダンネツ,0
2258,8120103006305,新規,0,2025-03-07,2025-03-07,合同会社Ｆｉｎｄ　Ｚｅａｌ,,合同会社,大阪府,泉大津市,北豊中町２丁目６番９号,,27,206,5950012,,,,,,,2025-03-07,1,,,,,ファインドジール,0
2259,8120903005571,新規,0,2025-03-07,2025-03-07,合同会社ピュアエンタープライズ,,合同会社,大阪府,高槻市,大蔵司２丁目３９番３号,,27,207,5691034,,,,,,,2025-03-07,1,,,,,ピュアエンタープライズ,0
2260,8122001038958,新規,0,2025-03-07,2025-03-07,株式会社道,,株式会社,大阪府,東大阪市,日下町６丁目２番１６号,,27,227,5798003,,,,,,,2025-03-07,1,,,,,ミチ,0
2266,8140001137547,新規,0,2025-03-07,2025-03-07,株式会社ピジョン・グローバル経営,,株式会社,兵庫県,西宮市,鷲林寺南町２番４０号,,28,204,6620002,,,,,,,2025-03-07,1,,,,,ピジョングローバルケイエイ,0
2267,8140001137605,新規,0,2025-03-07,2025-03-07,株式会社もふもふ,,株式会社,兵庫県,尼崎市,尾浜町２丁目２３番２０号,,28,202,6610022,,,,,,,2025-03-07,1,,,,,モフモフ,0
2268,8140001137613,新規,0,2025-03-07,2025-03-07,ソフラホールディングス株式会社,,株式会社,兵庫県,姫路市,飾磨区三宅２丁目１１番地,,28,201,6728048,,,,,,,2025-03-07,1,,,,,ソフラホールディングス,0
2269,8140001137654,新規,0,2025-03-07,2025-03-07,株式会社タロズライク,,株式会社,兵庫県,神戸市中央区,加納町４丁目９番２９号,,28,110,6500001,,,,,,,2025-03-07,1,,,,,タロズライク,0
2271,8140003021716,新規,0,2025-03-07,2025-03-07,合同会社ＬＩＢＥＲＴＡＳ,,合同会社,兵庫県,神戸市中央区,北長狭通３丁目１－１７神戸トアロード山下ビル４０１,,28,110,6500012,,,,,,,2025-03-07,1,,,,,リベルタス,0
2272,8140003021740,新規,0,2025-03-07,2025-03-07,合同会社エイアンドエムサービス,,合同会社,兵庫県,川西市,丸の内町２番１号,,28,217,6660003,,,,,,,2025-03-07,1,,,,,エイアンドエムサービス,0
2273,8140003021757,新規,0,2025-03-07,2025-03-07,ＭＩＨＯＭＯ合同会社,,合同会社,兵庫県,神戸市東灘区,本山中町２丁目６番２７号ライオンズマンション本山第２、２０４号,,28,101,6580016,,,,,,,2025-03-07,1,,,,,ミホモ,0
2279,8180001165668,新規,0,2025-03-07,2025-03-07,株式会社松崗農園,,株式会社,愛知県,弥富市,寛延３丁目５６番地,,23,235,4980043,,,,,,,2025-03-07,1,,,,,マツオカノウエン,0
2280,8180001165726,新規,0,2025-03-07,2025-03-07,株式会社Ｔｗｉｎｋｌｅ,,株式会社,愛知県,名古屋市中川区,かの里２丁目１０５番地の５,,23,110,4540957,,,,,,,2025-03-07,1,,,,,トゥインクル,0
2281,8180001165734,新規,0,2025-03-07,2025-03-07,株式会社池田屋,,株式会社,愛知県,一宮市,丹陽町九日市場字東三本松１８２８番地５,,23,203,4910824,,,,,,,2025-03-07,1,,,,,イケダヤ,0
2282,8180001165783,新規,0,2025-03-07,2025-03-07,株式会社ＧＲＦ,,株式会社,愛知県,名古屋市緑区,大高町字江明９番地の７,,23,114,4598001,,,,,,,2025-03-07,1,,,,,ジーアールエフ,0
2283,8180001165791,新規,0,2025-03-07,2025-03-07,株式会社アクトダイニング,,株式会社,愛知県,名古屋市中区,栄３丁目１３－６オー・ド・ヴィー栄２階,,23,106,4600008,,,,,,,2025-03-07,1,,,,,アクトダイニング,0
2286,8180003028105,新規,0,2025-03-07,2025-03-07,バルト合同会社,,合同会社,愛知県,名古屋市名東区,高間町４２８番地,,23,115,4650081,,,,,,,2025-03-07,1,,,,,バルト,0
2287,8180303006470,新規,0,2025-03-07,2025-03-07,こどもプロ合同会社,,合同会社,愛知県,岡崎市,藤川町字峠荒古７番地１１,,23,202,4443523,,,,,,,2025-03-07,1,,,,,コドモプロ,0
2289,8200003006719,新規,0,2025-03-07,2025-03-07,ＡＮ　ＣＨＩ合同会社,,合同会社,岐阜県,岐阜市,問屋町３丁目１番地,,21,201,5008845,,,,,,,2025-03-07,1,,,,,アンチ,0
2297,8240001064616,新規,0,2025-03-07,2025-03-07,株式会社ウイズユアプレジャー,,株式会社,広島県,三次市,十日市東４丁目１番３０号,,34,209,7280013,,,,,,,2025-03-07,1,,,,,ウイズユアプレジャー,0
2303,8260001039979,新規,0,2025-03-07,2025-03-07,センシン株式会社,,株式会社,岡山県,岡山市中区,湊２７４番地４,,33,102,7038266,,,,,,,2025-03-07,1,,,,,センシン,0
2304,8260003005087,新規,0,2025-03-07,2025-03-07,キズナＮＥＸＴ合同会社,,合同会社,岡山県,笠岡市,笠岡２４８１番地１６,,33,205,7140081,,,,,,,2025-03-07,1,,,,,キズナネクスト,0
2306,8290001109201,新規,0,2025-03-07,2025-03-07,Ｓａｌｅｓ　Ａｒｉｚ　Ｊａｐａｎ株式会社,,株式会社,福岡県,福岡市中央区,天神４丁目６－２８天神ファーストビル７階,,40,133,8100001,,,,,,,2025-03-07,1,,,,,セールスアライズジャパン,0
2307,8290001109242,新規,0,2025-03-07,2025-03-07,株式会社ＢＡＳＥＦＩＴＮＥＳＳ,,株式会社,福岡県,福岡市中央区,春吉１丁目９番１６－１０２号リフェスタ渡辺通,,40,133,8100003,,,,,,,2025-03-07,1,,,,,,0
2309,8290003016503,新規,0,2025-03-07,2025-03-07,合同会社Ｌｕｃｋｋｅｙ,,合同会社,福岡県,福岡市西区,石丸２丁目３８番１３－４０５号,,40,135,8190025,,,,,,,2025-03-07,1,,,,,ラッキー,0
2319,8330001032951,新規,0,2025-03-07,2025-03-07,株式会社Ｍ．Ｋ,,株式会社,熊本県,熊本市中央区,島崎１丁目３番５号,,43,101,8600073,,,,,,,2025-03-07,1,,,,,エムドットケイ,0
2320,8330003010880,新規,0,2025-03-07,2025-03-07,ライフスターティング合同会社,,合同会社,熊本県,宇城市,小川町新田６８５番地２,,43,213,8690633,,,,,,,2025-03-07,1,,,,,ライフスターティング,0
2321,8330005010879,新規,0,2025-03-07,2025-03-07,ＮＰＯ法人日カンボジア友好関係を促進する会,,その他の設立登記法人,熊本県,熊本市中央区,国府２丁目３番１０号エクセルハイツ国府１０４号,,43,101,8620949,,,,,,,2025-03-07,1,,,,,ニッカンボジアユウコウカンケイヲソクシンスルカイ,0
2327,8350005006289,新規,0,2025-03-07,2025-03-07,農事組合法人愛園芸,,その他の設立登記法人,宮崎県,宮崎市,佐土原町下那珂２９５４番地４１,,45,201,8800212,,,,,,,2025-03-07,1,,,,,アイエンゲイ,0
2329,8360001034879,新規,0,2025-03-07,2025-03-07,株式会社東捷,,株式会社,沖縄県,那覇市,前島３丁目２５番２号泊ポートビル５Ｆ,,47,201,9000016,,,,,,,2025-03-07,1,,,,,トウショウ,0
2331,8380003005975,新規,0,2025-03-07,2025-03-07,合同会社リリーズ,,合同会社,福島県,白河市,大信隈戸字上小屋５４番地,,07,205,9690302,,,,,,,2025-03-07,1,,,,,リリーズ,0
2333,8400003003407,新規,0,2025-03-07,2025-03-07,合同会社Ｎａｌｕ,,合同会社,岩手県,盛岡市,東仙北１丁目３番３号,,03,201,0200862,,,,,,,2025-03-07,1,,,,,ナル,0
2345,8430001093835,新規,0,2025-03-07,2025-03-07,株式会社ｓｅｖｅｎｔｙ　ｏｎｅ,,株式会社,北海道,登別市,中登別町２２０番地２０,,01,230,0590463,,,,,,,2025-03-07,1,,,,,セブンティワン,0
2356,8700150129461,新規,0,2025-03-07,2025-03-07,ｂａｏｄｉｎｇｚｈｏｎｇｒｕｉｔｕｏｄａｓｈａｎｇｍａｏｙｏｕｘｉａｎｇｏｎｇｓｉ,,外国会社等,,,,,,,,ｂａｏｄｉｎｇｓｈｉｊｉｎｇｘｉｕｑｕｈａｎｃｕｎｂｅｉｌｕｊｉｅｄａｏｂａｎｓｈｉｃｈｕｙａｎｇｇｕａｎｇｂｅｉｄａｊｉｅ１９６０ｈａｏｓｈａｎｇｙｏｎｇ,,,,,,2025-03-07,1,,,,,バオディンジョンルイトゥオダーシャンマオヨウシエンゴンスー,0
2361,9010001252820,新規,0,2025-03-07,2025-03-07,ＣｈｒｏｎｏｓＬｏｇｉｃ株式会社,,株式会社,東京都,千代田区,神田須田町１丁目７番８号ＶＯＲＴ秋葉原ＩＶ２Ｆ,00138245,13,101,1010041,,,,,,,2025-03-07,1,,,,,クロノスロジック,0
2362,9010001252845,新規,0,2025-03-07,2025-03-07,ＦＯＲＷＡＲＤ株式会社,,株式会社,東京都,中央区,銀座７丁目１３－２１銀座ｓｉｎｒｏｋｕｓｙｕビル,,13,102,1040061,,,,,,,2025-03-07,1,,,,,フォワード,0
2363,9010001252853,新規,0,2025-03-07,2025-03-07,株式会社４ＭＡ,,株式会社,東京都,中央区,日本橋本町１丁目１番５号日本橋ＴＮビル２Ｆ,,13,102,1030023,,,,,,,2025-03-07,1,,,,,フォーエムエー,0
2364,9010001252886,新規,0,2025-03-07,2025-03-07,株式会社ネクストブランディング,,株式会社,東京都,中央区,銀座１丁目１２番４号,,13,102,1040061,,,,,,,2025-03-07,1,,,,,ネクストブランディング,0
2365,9010001252911,新規,0,2025-03-07,2025-03-07,Ａｎａｅｒｇｉａ　Ｊａｐａｎ株式会社,,株式会社,東京都,千代田区,麹町４丁目１番地,,13,101,1020083,,,,,,,2025-03-07,1,,,,,アナージアジャパン,0
2367,9010003046667,新規,0,2025-03-07,2025-03-07,合同会社ＡｄｄＦｕＮ,,合同会社,東京都,中央区,銀座１丁目２２番１１号銀座大竹ビジデンス２Ｆ,,13,102,1040061,,,,,,,2025-03-07,1,,,,,アドファン,0
2368,9010003046675,新規,0,2025-03-07,2025-03-07,合同会社スリーセブン２,,合同会社,東京都,文京区,小日向２丁目１番２号,,13,105,1120006,,,,,,,2025-03-07,1,,,,,スリーセブンセカンド,0
2375,9010401188680,新規,0,2025-03-07,2025-03-07,株式会社パトラス,,株式会社,東京都,港区,港南２丁目１５番１号品川インターシティＡ棟２８階,,13,103,1080075,,,,,,,2025-03-07,1,,,,,パトラス,0
2376,9010401188689,新規,0,2025-03-07,2025-03-07,株式会社らいす,,株式会社,東京都,港区,南青山１丁目１１番３０号,,13,103,1070062,,,,,,,2025-03-07,1,,,,,ライス,0
2377,9010401188697,新規,0,2025-03-07,2025-03-07,株式会社ＪＡＮ　ＤＩＮＩＮＧ,,株式会社,東京都,港区,芝５丁目１９番６号ＢＩＡＳＴＡ・ＴＡＭＡＣＨＩ・ＭＩＴＡ３階,,13,103,1080014,,,,,,,2025-03-07,1,,,,,ジャンダイニング,0
2378,9010401188706,新規,0,2025-03-07,2025-03-07,株式会社Ｆｌｙ　Ｈｅｉｇｈｔ,,株式会社,東京都,港区,新橋４丁目１４番１号新橋ＡＵＮＢＬＤＧ４階,,13,103,1050004,,,,,,,2025-03-07,1,,,,,フライハイト,0
2379,9010401188747,新規,0,2025-03-07,2025-03-07,株式会社ＹＳストラテジックパートナーズ,,株式会社,東京都,港区,赤坂１丁目１１番１２－５０１号,,13,103,1070052,,,,,,,2025-03-07,1,,,,,ワイエスストラテジックパートナーズ,0
2383,9010403034569,新規,0,2025-03-07,2025-03-07,合同会社川合,,合同会社,東京都,港区,赤坂８丁目１２番１６号,,13,103,1070052,,,,,,,2025-03-07,1,,,,,カワイ,0
2386,9010501053743,新規,0,2025-03-07,2025-03-07,株式会社ヘルスグラッド,,株式会社,東京都,台東区,池之端３丁目１番２５－９０２号ザ・パークハウス池之端,,13,106,1100008,,,,,,,2025-03-07,1,,,,,ヘルスグラッド,0
2389,9010601066892,新規,0,2025-03-07,2025-03-07,株式会社ａｔ　ｍｏｒｅ,,株式会社,東京都,江東区,亀戸４丁目１８番５号フジノビル２Ｆ,,13,108,1360071,,,,,,,2025-03-07,1,,,,,アットモア,0
2390,9010701047347,新規,0,2025-03-07,2025-03-07,株式会社ＫＳＫ,,株式会社,東京都,品川区,八潮５丁目５番３号,,13,109,1400003,,,,,,,2025-03-07,1,,,,,ケイエスケイ,0
2394,9010703007605,新規,0,2025-03-07,2025-03-07,合同会社Ｒ＆りょう,,合同会社,東京都,品川区,東五反田１丁目６番３号いちご東五反田ビル３０２,,13,109,1410022,,,,,,,2025-03-07,1,,,,,アールアンドリョウ,0
2398,9010901056924,新規,0,2025-03-07,2025-03-07,株式会社エスウェーブ,,株式会社,東京都,世田谷区,代沢１丁目３７番１４号,,13,112,1550032,,,,,,,2025-03-07,1,,,,,エスウェーブ,0
2402,9011001168115,新規,0,2025-03-07,2025-03-07,株式会社セブンティセブン,,株式会社,東京都,渋谷区,神宮前３丁目３３番８号,,13,113,1500001,,,,,,,2025-03-07,1,,,,,セブンティセブン,0
2403,9011001168222,新規,0,2025-03-07,2025-03-07,株式会社モンシュシュ,,株式会社,東京都,渋谷区,神宮前３丁目４２番８－４０２号,,13,113,1500001,,,,,,,2025-03-07,1,,,,,モンシュシュ,0
2404,9011001168230,新規,0,2025-03-07,2025-03-07,株式会社オリンピア,,株式会社,東京都,目黒区,自由が丘１丁目１４番１号－５Ｆ,,13,110,1520035,,,,,,,2025-03-07,1,,,,,オリンピア,0
2405,9011001168271,新規,0,2025-03-07,2025-03-07,株式会社ＮＧＴＧ１３,,株式会社,東京都,渋谷区,渋谷１丁目３－１８ビラ・モデルナＡ４０２,,13,113,1500002,,,,,,,2025-03-07,1,,,,,エヌジーティージーイチサン,0
2407,9011005010917,新規,0,2025-03-07,2025-03-07,一般社団法人ツワモノ,,その他の設立登記法人,東京都,渋谷区,道玄坂１丁目１０番８号渋谷道玄坂東急ビル２Ｆ－Ｃ,,13,113,1500043,,,,,,,2025-03-07,1,,,,,ツワモノ,0
2410,9011101110892,新規,0,2025-03-07,2025-03-07,ＥＤＥＮ　ＪＡＰＡＮ株式会社,,株式会社,東京都,新宿区,新宿１丁目１８番１２－１１０１号,,13,104,1600022,,,,,,,2025-03-07,1,,,,,エデンジャパン,0
2412,9011103015628,新規,0,2025-03-07,2025-03-07,ＣｕｒｉｏＳｗｉｔｃｈ合同会社,,合同会社,東京都,新宿区,西新宿３丁目３番１３号西新宿水間ビル２Ｆ,,13,104,1600023,,,,,,,2025-03-07,1,,,,,キュリオスウィッチ,0
2414,9011203004638,新規,0,2025-03-07,2025-03-07,合同会社プラムアンドアプリコット,,合同会社,東京都,中野区,上高田３丁目２０－１３アパートメントＳＥＳＨＩＭＯ２０１,,13,114,1640002,,,,,,,2025-03-07,1,,,,,プラムアンドアプリコット,0
2415,9011401026871,新規,0,2025-03-07,2025-03-07,株式会社ｙｏｎｉｓｕｍｕ,,株式会社,東京都,板橋区,板橋２丁目５－２,,13,119,1730004,,,,,,,2025-03-07,1,,,,,ヨニスム,0
2416,9011501031796,新規,0,2025-03-07,2025-03-07,株式会社ＣＲＥＤＯ,,株式会社,東京都,荒川区,南千住３丁目２０番６号,,13,118,1160003,,,,,,,2025-03-07,1,,,,,クレド,0
2419,9011801045736,新規,0,2025-03-07,2025-03-07,ジェイ・ネクスト株式会社,,株式会社,東京都,足立区,西新井本町４丁目２番１０号－３０３室,,13,121,1230845,,,,,,,2025-03-07,1,,,,,ジェイネクスト,0
2420,9011801045744,新規,0,2025-03-07,2025-03-07,株式会社三和,,株式会社,東京都,足立区,花畑８丁目７番１号,,13,121,1210061,,,,,,,2025-03-07,1,,,,,サンワ,0
2421,9011801045760,新規,0,2025-03-07,2025-03-07,株式会社Ｋ＆Ｍ,,株式会社,東京都,葛飾区,西水元５丁目１０番２２号,,13,122,1250031,,,,,,,2025-03-07,1,,,,,ケーアンドエム,0
2424,9012401042859,新規,0,2025-03-07,2025-03-07,株式会社リノ不動産,,株式会社,東京都,武蔵野市,関前４丁目６番７号,,13,203,1800014,,,,,,,2025-03-07,1,,,,,リノフドウサン,0
2425,9012403007001,新規,0,2025-03-07,2025-03-07,日中文化研究所合同会社,,合同会社,東京都,狛江市,岩戸北２丁目１１番１５－２０６号,,13,219,2010004,,,,,,,2025-03-07,1,,,,,ニッチュウブンカケンキュウジョ,0
2426,9012405005085,新規,0,2025-03-07,2025-03-07,医療法人社団志仁会,,その他の設立登記法人,東京都,調布市,仙川町２丁目１２番地６アヴェニール仙川１－Ａ,,13,208,1820002,,,,,,,2025-03-07,1,,,,,シジンカイ,0
2428,9012703003212,新規,0,2025-03-07,2025-03-07,ＹＳセーフティー運輸安全合同会社,,合同会社,東京都,清瀬市,元町１丁目４番１－９０６号,,13,221,2040021,,,,,,,2025-03-07,1,,,,,ワイズセーフティーウンユアンゼン,0
2430,9013301053896,新規,0,2025-03-07,2025-03-07,株式会社１５,,株式会社,東京都,豊島区,池袋２丁目１０番３号第一絆ビル３階,,13,116,1710014,,,,,,,2025-03-07,1,,,,,イチゴ,0
2432,9013303007561,新規,0,2025-03-07,2025-03-07,合同会社卯ノ書房,,合同会社,東京都,豊島区,南大塚２丁目３８番１号,,13,116,1700005,,,,,,,2025-03-07,1,,,,,ウノショボウ,0
2434,9020001161772,新規,0,2025-03-07,2025-03-07,株式会社ぴいぎい,,株式会社,神奈川県,横浜市鶴見区,馬場６丁目１番１１号,,14,101,2300076,,,,,,,2025-03-07,1,,,,,ピイギイ,0
2435,9020005016725,新規,0,2025-03-07,2025-03-07,一般社団法人み空,,その他の設立登記法人,神奈川県,川崎市川崎区,中島１丁目５番３－５０３号コーポ大常,,14,131,2100806,,,,,,,2025-03-07,1,,,,,ミソラ,0
2437,9021001084591,新規,0,2025-03-07,2025-03-07,株式会社Ａｍｂｅｒ,,株式会社,神奈川県,藤沢市,鵠沼神明５丁目２―１７,,14,205,2510021,,,,,,,2025-03-07,1,,,,,アンバー,0
2441,9021003015660,新規,0,2025-03-07,2025-03-07,合同会社パララックス,,合同会社,神奈川県,鎌倉市,台１４５０－７,,14,204,2470061,,,,,,,2025-03-07,1,,,,,パララックス,0
2442,9021003015669,新規,0,2025-03-07,2025-03-07,合同会社ＹＧＴ,,合同会社,神奈川県,海老名市,大谷北２丁目２番１９－３号,,14,215,2430419,,,,,,,2025-03-07,1,,,,,ワイジーティー,0
2445,9030001165293,新規,0,2025-03-07,2025-03-07,株式会社みこと,,株式会社,埼玉県,春日部市,粕壁３丁目１０番１－１８０４号,,11,214,3440061,,,,,,,2025-03-07,1,,,,,ミコト,0
2463,9040001137663,新規,0,2025-03-07,2025-03-07,株式会社東立,,株式会社,千葉県,千葉市中央区,中央４丁目１０番８号,,12,101,2600013,,,,,,,2025-03-07,1,,,,,トウリツ,0
2464,9040003027029,新規,0,2025-03-07,2025-03-07,アトリエＶＩＳＩＯＮ合同会社,,合同会社,千葉県,柏市,若柴１７８番地４柏の葉キャンパス１４８街区２ショップ＆オフィス棟６Ｆ,,12,217,2770871,,,,,,,2025-03-07,1,,,,,アトリエビジョン,0
2465,9040003027037,新規,0,2025-03-07,2025-03-07,ＰＪＣ合同会社,,合同会社,千葉県,松戸市,秋山２丁目２番地の６,,12,207,2702223,,,,,,,2025-03-07,1,,,,,ピージェーシー,0
2468,9060003005453,新規,0,2025-03-07,2025-03-07,合同会社ＰＥＲＦＥＣＴ,,合同会社,栃木県,大田原市,末広３丁目２９９０－４秋元コーポ２０１,,09,210,3240042,,,,,,,2025-03-07,1,,,,,パーフェクト,0
2470,9070001042687,新規,0,2025-03-07,2025-03-07,株式会社ゆう,,株式会社,群馬県,高崎市,飯塚町１１０番地２,,10,202,3700069,,,,,,,2025-03-07,1,,,,,ユウ,0
2471,9080001026788,新規,0,2025-03-07,2025-03-07,株式会社ｏｎｃｅ．,,株式会社,静岡県,静岡市葵区,紺屋町１７番地の１葵タワー１階,,22,101,4200852,,,,,,,2025-03-07,1,,,,,ワンス,0
2472,9080401002356,新規,0,2025-03-07,2025-03-07,株式会社城北設計事務所,,株式会社,静岡県,浜松市中央区,城北２丁目１６番３号,,22,138,4328011,,,,,,,2025-03-07,1,,,,,ジョウホクセッケイジムショ,0
2478,9090001019163,新規,0,2025-03-07,2025-03-07,株式会社Ｍｉｅｌｉ,,株式会社,山梨県,南都留郡富士河口湖町,富士ヶ嶺１番地７４０,,19,430,4010338,,,,,,,2025-03-07,1,,,,,ミエリ,0
2479,9090001019171,新規,0,2025-03-07,2025-03-07,株式会社ｈｏｒｎ,,株式会社,山梨県,甲府市,若松町５番２号,,19,201,4000866,,,,,,,2025-03-07,1,,,,,ホルン,0
2482,9100001038368,新規,0,2025-03-07,2025-03-07,株式会社比嘉塗装工業,,株式会社,長野県,長野市,篠ノ井御幣川１１７１番地４,,20,201,3888006,,,,,,,2025-03-07,1,,,,,ヒガトソウコウギョウ,0
2483,9100001038376,新規,0,2025-03-07,2025-03-07,株式会社ＰＡＩＮＴ　Ｏｌｌｉｅ,,株式会社,長野県,松本市,横田４丁目２２番４号,,20,202,3900804,,,,,,,2025-03-07,1,,,,,ペイントオーリー,0
2484,9110003005670,新規,0,2025-03-07,2025-03-07,合同会社ＳＡＧ　Ｃｏｒｐｏｒａｔｉｏｎ,,合同会社,新潟県,新潟市南区,杉菜４―３３,,15,106,9501208,,,,,,,2025-03-07,1,,,,,エスエージーコーポレーション,0
2495,9120001273277,新規,0,2025-03-07,2025-03-07,ＧＯＲＤＩＯＮ株式会社,,株式会社,大阪府,大阪市西区,新町１丁目１４番２号－４０３号室,,27,106,5500013,,,,,,,2025-03-07,1,,,,,ゴルディオン,0
2496,9120001273343,新規,0,2025-03-07,2025-03-07,株式会社ＣＯＺＹ　ＴＥＲＡＳＵ,,株式会社,大阪府,大阪市生野区,小路東１丁目５－１７,,27,116,5440003,,,,,,,2025-03-07,1,,,,,コージーテラス,0
2497,9120001273392,新規,0,2025-03-07,2025-03-07,ソーヴァルドソン株式会社,,株式会社,大阪府,大阪市生野区,新今里３丁目４番１７号ＯＧビル２０６Ｂ,,27,116,5440001,,,,,,,2025-03-07,1,,,,,ソーヴァルドソン,0
2498,9120001273401,新規,0,2025-03-07,2025-03-07,株式会社Ｄｉｇｎｉｔｙ,,株式会社,大阪府,枚方市,走谷２丁目３１番１号,,27,210,5730063,,,,,,,2025-03-07,1,,,,,デグニティ,0
2499,9120001273418,新規,0,2025-03-07,2025-03-07,株式会社イーツーエス,,株式会社,大阪府,大阪市北区,紅梅町２番１７号第８田渕ビル,,27,127,5300038,,,,,,,2025-03-07,1,,,,,イーツーエス,0
2501,9120003028712,新規,0,2025-03-07,2025-03-07,合同会社ニンジャデザイン,,合同会社,大阪府,大阪市北区,梅田１丁目１－３大阪駅前第３ビル２９階１－１－１号室,,27,127,5300001,,,,,,,2025-03-07,1,,,,,ニンジャデザイン,0
2502,9120003028778,新規,0,2025-03-07,2025-03-07,ＶＵＯＮＧ　ＸＵＡＮ合同会社,,合同会社,大阪府,大阪市生野区,新今里１丁目１９番５号真和ハイム店舗Ｂ,,27,116,5440001,,,,,,,2025-03-07,1,,,,,ヴォンスアン,0
2503,9120003028786,新規,0,2025-03-07,2025-03-07,合同会社Ｇｅｍｉｎｅｓ　Ｂｒｉｄｇｅ,,合同会社,大阪府,大阪市浪速区,大国１丁目１０番２２号４０２,,27,111,5560014,,,,,,,2025-03-07,1,,,,,ジェミニーズブリッヂ,0
2504,9120003028803,新規,0,2025-03-07,2025-03-07,合同会社ＥＮＬＩＶＥＮ,,合同会社,大阪府,大阪市福島区,福島６丁目２４番７号尚玄ビル１階,,27,103,5530003,,,,,,,2025-03-07,1,,,,,インライヴン,0
2505,9120003028811,新規,0,2025-03-07,2025-03-07,合同会社ふたりたび,,合同会社,大阪府,大阪市北区,梅田１丁目２番２号大阪駅前ビル１２－１２,,27,127,5300001,,,,,,,2025-03-07,1,,,,,フタリタビ,0
2506,9120101071184,新規,0,2025-03-07,2025-03-07,株式会社ＦＵＫＡＩ,,株式会社,大阪府,堺市中区,深井清水町３２３４番地,,27,142,5998273,,,,,,,2025-03-07,1,,,,,フカイ,0
2507,9120101071192,新規,0,2025-03-07,2025-03-07,株式会社偉文商事,,株式会社,大阪府,堺市堺区,石津町３－７－９,,27,141,5900000,,,,,,,2025-03-07,1,,,,,イフミショウジ,0
2508,9120101071201,新規,0,2025-03-07,2025-03-07,株式会社堅新,,株式会社,大阪府,堺市東区,野尻町５４４,,27,143,5998116,,,,,,,2025-03-07,1,,,,,ケンシン,0
2509,9120103006304,新規,0,2025-03-07,2025-03-07,杉本社寺合同会社,,合同会社,大阪府,富田林市,山中田町２丁目１４番９号,,27,214,5840045,,,,,,,2025-03-07,1,,,,,スギモトシャジ,0
2510,9120901050536,新規,0,2025-03-07,2025-03-07,株式会社アシスト,,株式会社,大阪府,吹田市,清和園町１６番１号－１０１,,27,205,5640039,,,,,,,2025-03-07,1,,,,,アシスト,0
2511,9120901050552,新規,0,2025-03-07,2025-03-07,株式会社ゆうり動物病院,,株式会社,大阪府,茨木市,庄２丁目２６番１４号コーポかすみな１階１０２号,,27,211,5670806,,,,,,,2025-03-07,1,,,,,ユウリドウブツビョウイン,0
2522,9130001079145,新規,0,2025-03-07,2025-03-07,株式会社絆,,株式会社,京都府,京都市右京区,西院三蔵町４６番地６,,26,108,6150021,,,,,,,2025-03-07,1,,,,,キズナ,0
2534,9140001137604,新規,0,2025-03-07,2025-03-07,ＤＡＮＤＹ株式会社,,株式会社,兵庫県,神戸市中央区,中山手通２丁目３番２１－３０２号,,28,110,6500004,,,,,,,2025-03-07,1,,,,,ディアンドワイ,0
2537,9140003021756,新規,0,2025-03-07,2025-03-07,合同会社Ｋ‐ＭＥＣＳ,,合同会社,兵庫県,姫路市,広畑区西蒲田１５５５番地,,28,201,6711107,,,,,,,2025-03-07,1,,,,,ケイメックス,0
2539,9150001027928,新規,0,2025-03-07,2025-03-07,株式会社ＮＡＲＡ　ＮＥＸＴ　ＦＡＣＴＯＲＹ,,株式会社,奈良県,奈良市,小西町２５番地の１ファインフラッツ奈良ザ・レジデンス２１８号,,29,201,6308226,,,,,,,2025-03-07,1,,,,,ナラネクストファクトリー,0
2540,9150003003522,新規,0,2025-03-07,2025-03-07,ＴＯプロパティ合同会社,,合同会社,奈良県,奈良市,帝塚山南４丁目８番１０号,00138253,29,201,6310064,,,,,,,2025-03-07,1,,,,,ティーオープロパティ,0
2549,9180001165691,新規,0,2025-03-07,2025-03-07,Ａｍｅｒｉｃａｎ　Ｍａｎａｇｅｍｅｎｔ　Ａｄｖａｎｔａｇｅ株式会社,,株式会社,愛知県,名古屋市昭和区,檀渓通三丁目１０番地ライオンズマンション１０７,,23,107,4660000,,,,,,,2025-03-07,1,,,,,アメリカンマネッジメントアドヴァンテージ,0
2550,9180001165741,新規,0,2025-03-07,2025-03-07,Ｋ．Ｙ．Ｍ．株式会社,,株式会社,愛知県,名古屋市港区,名港１丁目８番９号丸二ビル３階,,23,111,4550037,,,,,,,2025-03-07,1,,,,,ケーワイエム,0
2551,9180001165758,新規,0,2025-03-07,2025-03-07,株式会社ＭＵＭ,,株式会社,愛知県,名古屋市中村区,名駅４丁目２４番１６号広小路ガーデンアベニュー３階・４階,,23,105,4500002,,,,,,,2025-03-07,1,,,,,エムユーエム,0
2553,9180003028079,新規,0,2025-03-07,2025-03-07,合同会社ツタエ,,合同会社,愛知県,名古屋市千種区,下方町６丁目１８番地の１,,23,101,4640096,,,,,,,2025-03-07,1,,,,,ツタエ,0
2554,9180003028087,新規,0,2025-03-07,2025-03-07,合同会社サンマルコ,,合同会社,愛知県,小牧市,大字村中１２７５番地１,,23,219,4850082,,,,,,,2025-03-07,1,,,,,サンマルコ,0
2555,9180003028104,新規,0,2025-03-07,2025-03-07,万俵商事合同会社,,合同会社,愛知県,名古屋市千種区,千種３丁目５番３号オークハウス千種２０１号,,23,101,4640858,,,,,,,2025-03-07,1,,,,,マンピョウショウジ,0
2556,9180301039570,新規,0,2025-03-07,2025-03-07,株式会社ＭＪアセットマネジメント,,株式会社,愛知県,高浜市,屋敷町４丁目８番地８,,23,227,4441331,,,,,,,2025-03-07,1,,,,,エムジェイアセットマネジメント,0
2558,9200001043507,新規,0,2025-03-07,2025-03-07,株式会社ａｔ　Ｅｗａｌｕ,,株式会社,岐阜県,岐阜市,早田東町７丁目１４番地,,21,201,5020843,,,,,,,2025-03-07,1,,,,,アットエワル,0
2560,9200005013729,新規,0,2025-03-07,2025-03-07,一般社団法人ＥＩＬ,,その他の設立登記法人,岐阜県,本巣市,根尾門脇２９０番地,,21,218,5011531,,,,,,,2025-03-07,1,,,,,エイル,0
2561,9220001026534,新規,0,2025-03-07,2025-03-07,株式会社二稜,,株式会社,石川県,河北郡津幡町,字庄リ２６番地,,17,361,9290327,,,,,,,2025-03-07,1,,,,,フタカド,0
2569,9240003007043,新規,0,2025-03-07,2025-03-07,カムナ合同会社,,合同会社,広島県,呉市,吉浦本町１丁目６番１８号,,34,202,7370861,,,,,,,2025-03-07,1,,,,,カムナ,0
2570,9250001021029,新規,0,2025-03-07,2025-03-07,大同株式会社,,株式会社,山口県,萩市,大字今古萩町５４番地,,35,204,7580021,,,,,,,2025-03-07,1,,,,,ダイドウ,0
2582,9290001109225,新規,0,2025-03-07,2025-03-07,株式会社Ｂｒａｎｃｈ,,株式会社,福岡県,筑紫野市,湯町２丁目１番１号,,40,217,8180058,,,,,,,2025-03-07,1,,,,,ブランチ,0
2583,9290001109233,新規,0,2025-03-07,2025-03-07,株式会社サワヤ筥松,,株式会社,福岡県,福岡市東区,筥松２丁目１１番５－８０２号,,40,131,8120061,,,,,,,2025-03-07,1,,,,,サワヤハコマツ,0
2584,9290001109241,新規,0,2025-03-07,2025-03-07,株式会社ｒｏｃｋ’ｓ,,株式会社,福岡県,福岡市中央区,警固１丁目４番２６－１００５号ダイアパレス警固,,40,133,8100023,,,,,,,2025-03-07,1,,,,,ロックス,0
2595,9290003016502,新規,0,2025-03-07,2025-03-07,合同会社ＦＲＥＸ,,合同会社,福岡県,福岡市中央区,福浜２丁目５－４－４１４,,40,133,8100066,,,,,,,2025-03-07,1,,,,,フレックス,0
2598,9290801031322,新規,0,2025-03-07,2025-03-07,株式会社ＡＭＯＳ,,株式会社,福岡県,北九州市小倉南区,若園２丁目２５番３号,,40,107,8020816,,,,,,,2025-03-07,1,,,,,アモス,0
2599,9290801031339,新規,0,2025-03-07,2025-03-07,株式会社ｆｉｒｓｔ,,株式会社,福岡県,行橋市,大字矢留４７４番地,,40,213,8240037,,,,,,,2025-03-07,1,,,,,ファースト,0
2600,9290803004986,新規,0,2025-03-07,2025-03-07,合同会社ＬｉｅｆｄｅＤｒａａｋ,,合同会社,福岡県,中間市,朝霧４丁目２１番１２号サクラシャルムコートＩＩ２０５号,00138251,40,215,8090021,,,,,,,2025-03-07,1,,,,,リーフデドラーク,0
2617,9370001052326,新規,0,2025-03-07,2025-03-07,株式会社ＳａｔｏＲｅｖｏ,,株式会社,宮城県,大崎市,岩出山字二ノ構４番地６,,04,215,9896436,,,,,,,2025-03-07,1,,,,,サトレボ,0
2619,9380003005974,新規,0,2025-03-07,2025-03-07,合同会社スカイウォーク,,合同会社,福島県,白河市,大信隈戸字上小屋５４番地,,07,205,9690302,,,,,,,2025-03-07,1,,,,,スカイウォーク,0
2630,9430001093792,新規,0,2025-03-07,2025-03-07,株式会社ｃｏｃｏｒｏ,,株式会社,北海道,札幌市白石区,栄通１丁目１０－２１－１０１号,,01,104,0030021,,,,,,,2025-03-07,1,,,,,ココロ,0
2645,9700150129460,新規,0,2025-03-07,2025-03-07,ｇｕａｎｇｚｈｏｕｙｕｅｌａｎｐｉｎｐａｉｇｕａｎｌｉｙｏｕｘｉａｎｇｏｎｇｓｉ,,外国会社等,,,,,,,,Ｘｉａｏｌｏｎｇ　Ｖｉｌｌａｇｅ，Ｓｈｉｑｉ　Ｔｏｗｎ，Ｐａｎｙｕ　ＤｉｓｔｒｉｃｔＲｏｏｍ　２０３，２ｎｄ　Ｆｌｏｏｒ，Ｎｏ．１８　Ｚｈｅｎｇｊｕｅ　Ｓｔｒｅｅｔ　Ｇｕａｎｇｚｈｏｕ　Ｇｕａｎｇｄｏｎｇ,,,,,,2025-03-07,1,,,,,グワンジョウユエランピンパイグワンリーヨウシエンゴンスー,0
