sequenceNumber,corporateNumber,process,correct,updateDate,changeDate,name,nameImageId,kind,prefectureName,cityName,streetNumber,addressImageId,prefectureCode,cityCode,postCode,addressOutside,addressOutsideImageId,closeDate,closeCause,successorCorporateNumber,changeCause,assignmentDate,latest,enName,enPrefectureName,enCityName,enAddressOutside,furigana,hihyoji
6,1010001251929,新規,0,2025-02-03,2025-02-03,株式会社ＫＰＭＧ　Ｆｏｒｅｎｓｉｃ＆Ｒｉｓｋ　Ａｄｖｉｓｏｒｙ,,株式会社,東京都,千代田区,大手町１丁目９番５号,,13,101,1000004,,,,,,,2025-02-03,1,,,,,ケーピーエムジーフォレンジックアンドリスクアドバイザリー,0
7,1010001251945,新規,0,2025-02-03,2025-02-03,株式会社ＤｅｖｅｌｏｐｅｒＫａｎＺＧ,,株式会社,東京都,千代田区,神田和泉町１番地６－１６ヤマトビル４０５,,13,101,1010024,,,,,,,2025-02-03,1,,,,,デベロッパーカンジツゲツ,0
8,1010001252027,新規,0,2025-02-03,2025-02-03,株式会社ペリュトン,,株式会社,東京都,千代田区,神田和泉町１番地６－１６ヤマトビル４０５,,13,101,1010024,,,,,,,2025-02-03,1,,,,,ペリュトン,0
9,1010003046187,新規,0,2025-02-03,2025-02-03,合同会社旭商会,,合同会社,東京都,中央区,日本橋室町１丁目１１番１２号日本橋水野ビル７階,,13,102,1030022,,,,,,,2025-02-03,1,,,,,アサヒショウカイ,0
10,1010003046253,新規,0,2025-02-03,2025-02-03,Ｙ＆Ｗソリューション合同会社,,合同会社,東京都,中央区,日本橋室町１丁目１１番１２号日本橋水野ビル７階,,13,102,1030022,,,,,,,2025-02-03,1,,,,,ワイアンドダブリューソリューション,0
11,1010005039429,新規,0,2025-02-03,2025-02-03,一般社団法人ＴｏｋｙｏＢａｙ共育・共生プロジェクト,,その他の設立登記法人,東京都,中央区,銀座１丁目２２番１１号銀座大竹ビジデンス２Ｆ,,13,102,1040061,,,,,,,2025-02-03,1,,,,,トウキョウベイキョウイクキョウセイプロジェクト,0
12,1010005039503,新規,0,2025-02-03,2025-02-03,一般社団法人ハウス５０,,その他の設立登記法人,東京都,千代田区,丸の内１丁目４番１号東京共同会計事務所内,,13,101,1000005,,,,,,,2025-02-03,1,,,,,ハウスゴジュウ,0
18,1010401187888,新規,0,2025-02-03,2025-02-03,株式会社Ｖｏｉｃｅ　Ｔｏｔａｌ　Ｐｒｏｍｏｔｉｏｎ,,株式会社,東京都,港区,西麻布４丁目１－１麻布霞町ビル２ＦＧＯＬＤＷＡＲＥＰＡＲＫ,,13,103,1060031,,,,,,,2025-02-03,1,,,,,ボイストータルプロモーション,0
19,1010401187896,新規,0,2025-02-03,2025-02-03,株式会社オニカナ,,株式会社,東京都,港区,南青山３丁目１番３６号青山丸竹ビル６Ｆ,,13,103,1070062,,,,,,,2025-02-03,1,,,,,オニカナ,0
21,1010403034238,新規,0,2025-02-03,2025-02-03,合同会社ＡＧＥＬ‐ＲＥＡＣＴ,,合同会社,東京都,港区,芝５丁目３６－４札の辻スクエア,,13,103,1080014,,,,,,,2025-02-03,1,,,,,エージェルリアクト,0
25,1010601066710,新規,0,2025-02-03,2025-02-03,株式会社Ｓ・Ｌｉｍｉｔ不動産,,株式会社,東京都,江東区,深川２丁目１９番２号,,13,108,1350033,,,,,,,2025-02-03,1,,,,,エスリミットフドウサン,0
34,1011001167297,新規,0,2025-02-03,2025-02-03,株式会社Ｗｏｎｄｅｒｆｕｌ　Ｌｉｆｅ,,株式会社,東京都,目黒区,目黒本町１丁目１５－２１目黒工業会館１０２,,13,110,1520002,,,,,,,2025-02-03,1,,,,,ワンダフルライフ,0
35,1011001167371,新規,0,2025-02-03,2025-02-03,株式会社Ｅｍａｎ,,株式会社,東京都,渋谷区,代々木３丁目１８番３号アレーロ代々木１０５号室,,13,113,1510053,,,,,,,2025-02-03,1,,,,,エマン,0
36,1011001167405,新規,0,2025-02-03,2025-02-03,クロスメディテック株式会社,,株式会社,東京都,渋谷区,代官山町２０番２３号フォレストゲート代官山ＭＡＩＮ棟３Ｆ,,13,113,1500034,,,,,,,2025-02-03,1,,,,,クロスメディテック,0
37,1011001167413,新規,0,2025-02-03,2025-02-03,株式会社ＬＡＴＴＥ,,株式会社,東京都,渋谷区,渋谷２丁目１９番１５号宮益坂ビルディング６０９号,,13,113,1500002,,,,,,,2025-02-03,1,,,,,ラテ,0
38,1011001167421,新規,0,2025-02-03,2025-02-03,Ｙｓｔａｒ株式会社,,株式会社,東京都,渋谷区,円山町５番５号Ｎａｖｉ渋谷Ｖ３階,,13,113,1500044,,,,,,,2025-02-03,1,,,,,ワイスター,0
39,1011001167438,新規,0,2025-02-03,2025-02-03,株式会社ＭＯＭＥＮＴ　ＬＩＮＫ,,株式会社,東京都,目黒区,大橋１丁目６番１３号,,13,110,1530044,,,,,,,2025-02-03,1,,,,,モーメントリンク,0
40,1011001167454,新規,0,2025-02-03,2025-02-03,株式会社ＲＯＵＴＥ２４６,,株式会社,東京都,渋谷区,神泉町１２番５ジェイパーク渋谷神泉６０３号,,13,113,1500045,,,,,,,2025-02-03,1,,,,,ルートニーヨンロク,0
41,1011001167487,新規,0,2025-02-03,2025-02-03,株式会社ＧＵ,,株式会社,東京都,渋谷区,渋谷３丁目６番１５号ＳＯＬＩＸＳＨＩＢＵＹＡ４Ｆ,,13,113,1500002,,,,,,,2025-02-03,1,,,,,ジーユー,0
42,1011001167504,新規,0,2025-02-03,2025-02-03,株式会社アトランティス・ジャパン,,株式会社,東京都,渋谷区,神宮前４丁目２６番２７号ルシード神宮前３階,,13,113,1500001,,,,,,,2025-02-03,1,,,,,アトランティスジャパン,0
43,1011001167520,新規,0,2025-02-03,2025-02-03,株式会社ＥＭｅｄｉｃ,,株式会社,東京都,渋谷区,道玄坂２丁目１５番１－２２５号,,13,113,1500043,,,,,,,2025-02-03,1,,,,,イーメディック,0
44,1011003020834,新規,0,2025-02-03,2025-02-03,合同会社ストークファミリー,,合同会社,東京都,渋谷区,恵比寿西２丁目８番４号ＥＸ恵比寿西ビル５階,,13,113,1500021,,,,,,,2025-02-03,1,,,,,ストークファミリー,0
45,1011003020842,新規,0,2025-02-03,2025-02-03,オコゼ合同会社,,合同会社,東京都,目黒区,下目黒３丁目１９－８センチュリーコート１０２,,13,110,1530064,,,,,,,2025-02-03,1,,,,,オコゼ,0
46,1011003020850,新規,0,2025-02-03,2025-02-03,ＮＵＭＡＣＡ合同会社,,合同会社,東京都,渋谷区,道玄坂１丁目１０番８号渋谷道玄坂東急ビル２Ｆ－Ｃ,,13,113,1500043,,,,,,,2025-02-03,1,,,,,ヌマカ,0
47,1011003020859,新規,0,2025-02-03,2025-02-03,Ｄ．Ｄ．Ｆｏｒｔｕｎａ合同会社,,合同会社,東京都,目黒区,下目黒１丁目１番１４号コノトラビル７Ｆ,,13,110,1530064,,,,,,,2025-02-03,1,,,,,ディーディーフォルトゥーナ,0
48,1011003020867,新規,0,2025-02-03,2025-02-03,合同会社いいなみ,,合同会社,東京都,渋谷区,恵比寿４丁目２２番８－２０８号アトラス恵比寿景丘,,13,113,1500013,,,,,,,2025-02-03,1,,,,,イイナミ,0
49,1011003020875,新規,0,2025-02-03,2025-02-03,合同会社ＥＸＡ,,合同会社,東京都,渋谷区,恵比寿南２丁目２８番８号レジディア恵比寿南１０５,,13,113,1500022,,,,,,,2025-02-03,1,,,,,エクサ,0
50,1011003020883,新規,0,2025-02-03,2025-02-03,Ｓｍｉｌｅｙ‐Ｓｍｉｌｅｙ合同会社,,合同会社,東京都,目黒区,目黒本町６丁目３番１６号,,13,110,1520002,,,,,,,2025-02-03,1,,,,,スマイリースマイリー,0
55,1011301030329,新規,0,2025-02-03,2025-02-03,株式会社ＲＥ５‐Ｓｙｓｔｅｍｓ,,株式会社,東京都,杉並区,今川４丁目１５番６号,,13,115,1670035,,,,,,,2025-02-03,1,,,,,リファイブシステムズ,0
66,1011601028394,新規,0,2025-02-03,2025-02-03,株式会社スリーチアーズ,,株式会社,東京都,練馬区,南田中４丁目２４番１７号,,13,120,1770035,,,,,,,2025-02-03,1,,,,,スリーチアーズ,0
67,1011603004591,新規,0,2025-02-03,2025-02-03,合同会社ルアナ,,合同会社,東京都,練馬区,大泉学園町２丁目３２－１９,,13,120,1780061,,,,,,,2025-02-03,1,,,,,ルアナ,0
68,1011701028039,新規,0,2025-02-03,2025-02-03,ユニティオ株式会社,,株式会社,東京都,江戸川区,南葛西７丁目１番７－６１６号,,13,123,1340085,,,,,,,2025-02-03,1,,,,,ユニティオ,0
83,1020001160996,新規,0,2025-02-03,2025-02-03,株式会社ＤＥＦ,,株式会社,神奈川県,川崎市宮前区,平２丁目２０－１３,,14,136,2160022,,,,,,,2025-02-03,1,,,,,ディーイーエフ,0
84,1020001161169,新規,0,2025-02-03,2025-02-03,株式会社オーガストエステート,,株式会社,神奈川県,川崎市高津区,久本２丁目７番２１号ラ・フォンテーヌ溝の口１０１,,14,134,2130011,,,,,,,2025-02-03,1,,,,,オーガストエステート,0
85,1020003027665,新規,0,2025-02-03,2025-02-03,合同会社ＡＱビューティー,,合同会社,神奈川県,川崎市中原区,井田１丁目３１番１６号カーサ元住吉３０１,,14,133,2110035,,,,,,,2025-02-03,1,,,,,エーキュービューティー,0
90,1021005013265,新規,0,2025-02-03,2025-02-03,社会保険労務士法人インセンスリーズン,,その他の設立登記法人,神奈川県,鎌倉市,台４丁目１番３０号Ｂ,,14,204,2470061,,,,,,,2025-02-03,1,,,,,インセンスリーズン,0
93,1030001164674,新規,0,2025-02-03,2025-02-03,株式会社ＰＣＲコンサルタント,,株式会社,埼玉県,狭山市,入間川１丁目１３番３８号,,11,215,3501305,,,,,,,2025-02-03,1,,,,,ピーシーアールコンサルタント,0
94,1030001164699,新規,0,2025-02-03,2025-02-03,ペトロ商事株式会社,,株式会社,埼玉県,さいたま市桜区,田島４丁目４－１１,,11,106,3380837,,,,,,,2025-02-03,1,,,,,ペトロショウジ,0
96,1030003025981,新規,0,2025-02-03,2025-02-03,合同会社ＷＡＶＥＧＲＯＵＰ,,合同会社,埼玉県,富士見市,水谷東３丁目１５番１４号,,11,235,3540013,,,,,,,2025-02-03,1,,,,,ウェイブグループ,0
97,1030003026014,新規,0,2025-02-03,2025-02-03,合同会社ケーケークリエイト,,合同会社,埼玉県,川口市,南鳩ヶ谷７丁目４０番１２号,,11,203,3340013,,,,,,,2025-02-03,1,,,,,ケーケークリエイト,0
413,1040001137191,新規,0,2025-02-03,2025-02-03,基礎産業株式会社,,株式会社,千葉県,柏市,藤ケ谷１１９７番地２,,12,217,2770931,,,,,,,2025-02-03,1,,,,,キソサンギョウ,0
437,1040003026566,新規,0,2025-02-03,2025-02-03,ＡＬＰＨＡ合同会社,,合同会社,千葉県,東金市,二之袋１番地４－２階,,12,213,2830052,,,,,,,2025-02-03,1,,,,,アルファー,0
438,1040003026723,新規,0,2025-02-03,2025-02-03,合同会社Ｄ＆ＩＲ,,合同会社,千葉県,八街市,勢田８２５番地３０,,12,230,2891132,,,,,,,2025-02-03,1,,,,,ディーアンドアイアール,0
450,1050001056110,新規,0,2025-02-03,2025-02-03,日建コンストラクト株式会社,,株式会社,茨城県,つくば市,研究学園５丁目８番地３,,08,220,3050817,,,,,,,2025-02-03,1,,,,,ニッケンコンストラクト,0
455,1060003005411,新規,0,2025-02-03,2025-02-03,合同会社明子,,合同会社,栃木県,栃木市,箱森町１８番１７号,,09,203,3280075,,,,,,,2025-02-03,1,,,,,アキコ,0
457,1060005010293,新規,0,2025-02-03,2025-02-03,農事組合法人Ｄ２５,,その他の設立登記法人,栃木県,宇都宮市,南大通り１丁目８－１４シティハイツ８０２,,09,201,3210963,,,,,,,2025-02-03,1,,,,,ディニイゴ,0
458,1070003005773,新規,0,2025-02-03,2025-02-03,合同会社Ｍ．Ｄ．Ｌ．ＡＵＴＯ　ＷＩＮＧＳ,,合同会社,群馬県,桐生市,宮前町２丁目１番１０号永寿荘３号,,10,203,3760046,,,,,,,2025-02-03,1,,,,,エムディエルオートウイングス,0
463,1080405007706,新規,0,2025-02-03,2025-02-03,一般社団法人Ｍａｎａ,,その他の設立登記法人,静岡県,磐田市,見付１２０４番地,,22,211,4380086,,,,,,,2025-02-03,1,,,,,マナ,0
465,1090003002736,新規,0,2025-02-03,2025-02-03,合同会社リセル,,合同会社,山梨県,笛吹市,石和町今井２８６－５番地,,19,211,4060042,,,,,,,2025-02-03,1,,,,,リセル,0
466,1100001038268,新規,0,2025-02-03,2025-02-03,株式会社アトリエ・ファイ,,株式会社,長野県,松本市,大字内田４４４番地７,,20,202,3990023,,,,,,,2025-02-03,1,,,,,アトリエファイ,0
484,1120001272154,新規,0,2025-02-03,2025-02-03,株式会社ＳＫＹ・ＷＡＹ,,株式会社,大阪府,交野市,私部４丁目２７番５－７号,,27,230,5760052,,,,,,,2025-02-03,1,,,,,スカイウェイ,0
485,1120001272451,新規,0,2025-02-03,2025-02-03,紛新科技株式会社,,株式会社,大阪府,大阪市西成区,花園南１丁目６番１０号花園ハイツ２０１号室,,27,122,5570015,,,,,,,2025-02-03,1,,,,,フンシンカギ,0
486,1120001272468,新規,0,2025-02-03,2025-02-03,泰昌株式会社,,株式会社,大阪府,大阪市西区,本田３丁目１番１９－５０２号,,27,106,5500022,,,,,,,2025-02-03,1,,,,,タイショウ,0
487,1120001272484,新規,0,2025-02-03,2025-02-03,京州株式会社,,株式会社,大阪府,大阪市生野区,巽南２丁目８番２９号１０１,,27,116,5440015,,,,,,,2025-02-03,1,,,,,キョウシュウ,0
488,1120001272518,新規,0,2025-02-03,2025-02-03,株式会社地球のために,,株式会社,大阪府,大阪市北区,梅田１丁目３番１号,,27,127,5300001,,,,,,,2025-02-03,1,,,,,チキュウノタメニ,0
489,1120001272526,新規,0,2025-02-03,2025-02-03,ケイアンドティホールディングス株式会社,,株式会社,大阪府,大阪市中央区,島之内１丁目２１番１９号,,27,128,5420082,,,,,,,2025-02-03,1,,,,,,0
490,1120001272550,新規,0,2025-02-03,2025-02-03,アイホープ株式会社,,株式会社,大阪府,大阪市旭区,新森４丁目２６番２７号,,27,117,5350022,,,,,,,2025-02-03,1,,,,,アイホープ,0
491,1120003028471,新規,0,2025-02-03,2025-02-03,シルベントジャパン合同会社,,合同会社,大阪府,大阪市北区,大深町３－１グランフロント大阪ナレッジキャピタルコラボオフィスｎｘ４４,,27,127,5300011,,,,,,,2025-02-03,1,,,,,シルベントジャパン,0
492,1120003028521,新規,0,2025-02-03,2025-02-03,ＲｉＡｎ合同会社,,合同会社,大阪府,大阪市東淀川区,下新庄５丁目１０番１７号シティハイツピコ５０４号室,,27,114,5330021,,,,,,,2025-02-03,1,,,,,リアン,0
493,1120101071002,新規,0,2025-02-03,2025-02-03,株式会社ＡｐｐＭａｎ,,株式会社,大阪府,河内長野市,荘園町２８－９,,27,216,5860093,,,,,,,2025-02-03,1,,,,,アップマン,0
499,1130003010180,新規,0,2025-02-03,2025-02-03,ＷＭＡＴＣＨＡ＆ＣＯ．合同会社,,合同会社,京都府,京都市下京区,大黒町２２７番地第２キョートビル４０２,,26,106,6008043,,,,,,,2025-02-03,1,,,,,ダブリューマッチャアンドコー,0
500,1130005017281,新規,0,2025-02-03,2025-02-03,医療法人のぞみ,,その他の設立登記法人,京都府,乙訓郡大山崎町,字大山崎小字高橋１０番２,,26,303,6180071,,,,,,,2025-02-03,1,,,,,ノゾミ,0
505,1150001027828,新規,0,2025-02-03,2025-02-03,株式会社エスケイローズ,,株式会社,奈良県,奈良市,中登美ヶ丘２丁目１９８４番地の１２７,,29,201,6310003,,,,,,,2025-02-03,1,,,,,エスケイローズ,0
509,1180001165245,新規,0,2025-02-03,2025-02-03,株式会社蒼,,株式会社,愛知県,名古屋市天白区,天白町大字野並字境根２００６番地の２３２,,23,116,4680037,,,,,,,2025-02-03,1,,,,,アオ,0
510,1180001165286,新規,0,2025-02-03,2025-02-03,株式会社グッドホームイノベーション,,株式会社,愛知県,名古屋市西区,大野木２丁目２３５,,23,104,4520803,,,,,,,2025-02-03,1,,,,,グッドホームイノベーション,0
515,1180301039479,新規,0,2025-02-03,2025-02-03,株式会社高柳エンタアプライズ,,株式会社,愛知県,豊橋市,西幸町字浜池３３３番地の９豊橋サイエンスコア,,23,201,4418113,,,,,,,2025-02-03,1,,,,,タカヤナギエンタアプライズ,0
516,1180301039487,新規,0,2025-02-03,2025-02-03,株式会社おおいそ屋の家,,株式会社,愛知県,碧南市,築山町１丁目５４番地,,23,209,4470849,,,,,,,2025-02-03,1,,,,,オオイソヤノイエ,0
523,1240003007042,新規,0,2025-02-03,2025-02-03,文弦食品合同会社,,合同会社,広島県,広島市中区,吉島新町２丁目２９番９号,,34,101,7300824,,,,,,,2025-02-03,1,,,,,ブンケンショクヒン,0
525,1250003003643,新規,0,2025-02-03,2025-02-03,合同会社ＡＳＫ３,,合同会社,山口県,下関市,長府浜浦西町１１番３号,,35,201,7520998,,,,,,,2025-02-03,1,,,,,アスクスリー,0
532,1260001039878,新規,0,2025-02-03,2025-02-03,ＧＩＥ　Ｈｉｒｏｋｏ　Ｋａｇｅｙａｍａ株式会社,,株式会社,岡山県,岡山市北区,本町４番１８号コア本町９０３,,33,101,7000901,,,,,,,2025-02-03,1,,,,,ジーアイイーヒロコカゲヤマ,0
540,1290001108762,新規,0,2025-02-03,2025-02-03,株式会社ディグロウ,,株式会社,福岡県,福岡市中央区,大名１丁目１番２９号,,40,133,8100041,,,,,,,2025-02-03,1,,,,,ディグロウ,0
541,1290001108779,新規,0,2025-02-03,2025-02-03,株式会社Ｕｌｔ　Ｐｒｏｊｅｃｔ,,株式会社,福岡県,福岡市南区,弥永５丁目９番１号,,40,134,8111323,,,,,,,2025-02-03,1,,,,,ウルトプロジェクト,0
544,1290003016344,新規,0,2025-02-03,2025-02-03,合同会社Ｓワークス,,合同会社,福岡県,古賀市,天神５丁目１３番１－２０３号エリア天神,,40,223,8113101,,,,,,,2025-02-03,1,,,,,エスワークス,0
545,1290003016352,新規,0,2025-02-03,2025-02-03,合同会社ＥＮ　Ｌｉｎｋｅｄ．,,合同会社,福岡県,福岡市博多区,須崎町５番９－４０１号ＥＳＰＥＲＡＮＺＡ天神ＥＡＳＴ,,40,132,8120028,,,,,,,2025-02-03,1,,,,,エンリンクド,0
546,1290005019642,新規,0,2025-02-03,2025-02-03,特定非営利活動法人イルタテエ,,その他の設立登記法人,福岡県,福岡市博多区,博多駅南３丁目１３番１７号小山ビル５０２号,,40,132,8120016,,,,,,,2025-02-03,1,,,,,イルタテエ,0
548,1290801031239,新規,0,2025-02-03,2025-02-03,株式会社Ｅ・Ｍ・Ａ企画,,株式会社,福岡県,田川市,大字夏吉１６９２－３,,40,206,8250004,,,,,,,2025-02-03,1,,,,,エマキカク,0
549,1290803004960,新規,0,2025-02-03,2025-02-03,ＷＡＳＥＥＭ　ＴＲＡＤＩＮＧ合同会社,,合同会社,福岡県,宮若市,長井鶴４３２番地１５,,40,226,8230012,,,,,,,2025-02-03,1,,,,,ワシームトレーディング,0
550,1300001014067,新規,0,2025-02-03,2025-02-03,株式会社ＭＣ,,株式会社,佐賀県,佐賀市,白山１丁目２番２１号３階,,41,201,8400826,,,,,,,2025-02-03,1,,,,,エムシー,0
556,1350003004838,新規,0,2025-02-03,2025-02-03,ＵＳ　Ｗａｔｅｒ合同会社,,合同会社,宮崎県,宮崎市,大島町原ノ島１６０７－３－Ｂ２０５,,45,201,8800824,,,,,,,2025-02-03,1,,,,,ユーエスウォーター,0
557,1360001034737,新規,0,2025-02-03,2025-02-03,株式会社よへな商会,,株式会社,沖縄県,那覇市,牧志３丁目３番７号,,47,201,9000013,,,,,,,2025-02-03,1,,,,,ヨヘナショウカイ,0
566,1370003006923,新規,0,2025-02-03,2025-02-03,ＴＡＣ合同会社,,合同会社,宮城県,仙台市青葉区,東照宮１丁目１６番１－１４０１号,,04,101,9810908,,,,,,,2025-02-03,1,,,,,タック,0
569,1400003003388,新規,0,2025-02-03,2025-02-03,ＡＢ合同会社,,合同会社,岩手県,久慈市,巽町２丁目１５番地,,03,207,0280055,,,,,,,2025-02-03,1,,,,,エービー,0
574,1430001093602,新規,0,2025-02-03,2025-02-03,株式会社プライド千歳,,株式会社,北海道,千歳市,北陽４丁目１０番２１号,,01,224,0660032,,,,,,,2025-02-03,1,,,,,プライドチトセ,0
592,2010001251894,新規,0,2025-02-03,2025-02-03,株式会社Ａスタジオ,,株式会社,東京都,文京区,小石川２丁目２０番１４号,,13,105,1120002,,,,,,,2025-02-03,1,,,,,エースタジオ,0
594,2010003046252,新規,0,2025-02-03,2025-02-03,合同会社ビズワーカーズ,,合同会社,東京都,中央区,銀座８丁目１６－１－２０５,,13,102,1040061,,,,,,,2025-02-03,1,,,,,ビズワーカーズ,0
595,2010003046269,新規,0,2025-02-03,2025-02-03,合同会社ＰｒｉｎｃｅｓｓＭｉｎｄ,,合同会社,東京都,中央区,銀座１丁目１２番４号Ｎ＆ＥＢＬＤ．６Ｆ,,13,102,1040061,,,,,,,2025-02-03,1,,,,,プリンセスマインド,0
599,2010401187739,新規,0,2025-02-03,2025-02-03,ＧＳ　Ｄｒｅａｍ　Ｔｅａｍｓ株式会社,,株式会社,東京都,港区,虎ノ門１丁目１７番１号虎ノ門ヒルズビジネスタワー１５階,,13,103,1050001,,,,,,,2025-02-03,1,,,,,ジーエスドリームチームス,0
600,2010401187796,新規,0,2025-02-03,2025-02-03,株式会社ＵＮＩ,,株式会社,東京都,港区,芝公園２丁目２番２０号２階Ａ,,13,103,1050011,,,,,,,2025-02-03,1,,,,,ユニ,0
601,2010401187821,新規,0,2025-02-03,2025-02-03,株式会社ＥＤＥＫＡ,,株式会社,東京都,港区,新橋１丁目９番１北川ビル４０１,,13,103,1050004,,,,,,,2025-02-03,1,,,,,エデカ,0
604,2010403034245,新規,0,2025-02-03,2025-02-03,スキッピングストーンホールディングス合同会社,,合同会社,東京都,港区,西新橋２丁目２０番１号４階,,13,103,1050003,,,,,,,2025-02-03,1,,,,,スキッピングストーンホールディングス,0
605,2010405023980,新規,0,2025-02-03,2025-02-03,一般社団法人日本しりとり協会,,その他の設立登記法人,東京都,港区,虎ノ門５丁目１１番１２号,,13,103,1050001,,,,,,,2025-02-03,1,,,,,ニッポンシリトリキョウカイ,0
606,2010405023989,新規,0,2025-02-03,2025-02-03,一般社団法人日本ライフサステナビリティ協会,,その他の設立登記法人,東京都,港区,新橋４丁目１４番１新橋ＡＵＮＢＬＤＧ４階,,13,103,1050004,,,,,,,2025-02-03,1,,,,,ニホンライフサステナビリティキョウカイ,0
607,2010801035811,新規,0,2025-02-03,2025-02-03,ＬＡＳＮＥ株式会社,,株式会社,東京都,大田区,田園調布２丁目２７番７号,,13,111,1450071,,,,,,,2025-02-03,1,,,,,ラスネ,0
618,2011001167057,新規,0,2025-02-03,2025-02-03,コア・クリエイティブデザイン株式会社,,株式会社,東京都,渋谷区,富ヶ谷１丁目１４番１４号スタンフォードアネックスビル３Ｆ,,13,113,1510063,,,,,,,2025-02-03,1,,,,,コアクリエイティブデザイン,0
619,2011001167131,新規,0,2025-02-03,2025-02-03,株式会社ＡｉＧＥ,,株式会社,東京都,渋谷区,道玄坂１丁目１０－８渋谷道玄坂東急ビル２Ｆ－Ｃ,,13,113,1500043,,,,,,,2025-02-03,1,,,,,エイジ,0
620,2011001167296,新規,0,2025-02-03,2025-02-03,Ｊ＆Ｊ　ＰＯＷＥＲ　ＨＯＬＤＩＮＧＳ株式会社,,株式会社,東京都,渋谷区,渋谷２丁目１９－１５宮益坂ビルディング６０９,,13,113,1500002,,,,,,,2025-02-03,1,,,,,ジェイアンドジェイパワーホールディングス,0
621,2011001167313,新規,0,2025-02-03,2025-02-03,株式会社ＯＮＵＳ,,株式会社,東京都,渋谷区,渋谷２丁目７番１４号,,13,113,1500002,,,,,,,2025-02-03,1,,,,,オーナス,0
622,2011001167354,新規,0,2025-02-03,2025-02-03,株式会社Ｎ　ｂｌａｄｅｓ,,株式会社,東京都,渋谷区,恵比寿西２丁目４番８号ウィンド恵比寿ビル８Ｆ,,13,113,1500021,,,,,,,2025-02-03,1,,,,,エヌブレイズ,0
623,2011001167370,新規,0,2025-02-03,2025-02-03,Ａｍｅｎｄｏ株式会社,,株式会社,東京都,渋谷区,道玄坂１丁目１０番８号渋谷道玄坂東急ビル２Ｆ－Ｃ,,13,113,1500043,,,,,,,2025-02-03,1,,,,,アメンド,0
624,2011001167395,新規,0,2025-02-03,2025-02-03,株式会社バンデパートナーズ,,株式会社,東京都,渋谷区,恵比寿南１丁目１番１号,,13,113,1500022,,,,,,,2025-02-03,1,,,,,バンデパートナーズ,0
625,2011001167412,新規,0,2025-02-03,2025-02-03,株式会社ＳＥＬＥＮＥ,,株式会社,東京都,渋谷区,道玄坂１丁目１０番８号渋谷道玄坂東急ビル２Ｆ－Ｃ,,13,113,1500043,,,,,,,2025-02-03,1,,,,,,0
626,2011001167420,新規,0,2025-02-03,2025-02-03,株式会社ＯＳＵＳＨＩ,,株式会社,東京都,渋谷区,渋谷２丁目１９－１５宮益坂ビルディング６０９,,13,113,1500002,,,,,,,2025-02-03,1,,,,,オスシ,0
627,2011001167429,新規,0,2025-02-03,2025-02-03,株式会社マインド＆ヘルス,,株式会社,東京都,目黒区,三田２丁目１８番１８号,,13,110,1530062,,,,,,,2025-02-03,1,,,,,マインドアンドヘルス,0
628,2011001167445,新規,0,2025-02-03,2025-02-03,株式会社ａｘｔｒｅａｍ,,株式会社,東京都,渋谷区,渋谷２丁目１９－１５宮益坂ビルディング６０９,,13,113,1500002,,,,,,,2025-02-03,1,,,,,アクストリーム,0
629,2011001167478,新規,0,2025-02-03,2025-02-03,Ｇｌｕｈｅｎ株式会社,,株式会社,東京都,渋谷区,神宮前６丁目２３番４号桑野ビル２階,,13,113,1500001,,,,,,,2025-02-03,1,,,,,グリューエン,0
630,2011001167494,新規,0,2025-02-03,2025-02-03,株式会社Ｎｏｄａｖｉｓ,,株式会社,東京都,目黒区,上目黒１丁目２６番１－２２０９号中目黒アトラスタワー,,13,110,1530051,,,,,,,2025-02-03,1,,,,,ノダヴィス,0
632,2011003020858,新規,0,2025-02-03,2025-02-03,合同会社ＴＯＲＩＭＯＣＨＩ,,合同会社,東京都,渋谷区,笹塚２丁目２５番１－３１９号,,13,113,1510073,,,,,,,2025-02-03,1,,,,,トリモチ,0
633,2011003020899,新規,0,2025-02-03,2025-02-03,ＢｅａｃｈＷｏｏｄ　Ｔｒａｄｉｎｇ合同会社,,合同会社,東京都,渋谷区,渋谷２丁目１９番１５号宮益坂ビルディング６０９,,13,113,1500002,,,,,,,2025-02-03,1,,,,,ビーチウッドトレーディング,0
635,2011005010840,新規,0,2025-02-03,2025-02-03,一般社団法人共奏共育プラットフォーム,,その他の設立登記法人,東京都,渋谷区,代々木２丁目３９番６号,,13,113,1510053,,,,,,,2025-02-03,1,,,,,キョウソウキョウイクプラットフォーム,0
636,2011005010849,新規,0,2025-02-03,2025-02-03,一般社団法人日本マッチングアプリ協会,,その他の設立登記法人,東京都,渋谷区,道玄坂１丁目１０番８号渋谷道玄坂東急ビル２Ｆ－Ｃ,,13,113,1500043,,,,,,,2025-02-03,1,,,,,ニホンマッチングアプリキョウカイ,0
640,2011101110429,新規,0,2025-02-03,2025-02-03,株式会社伝わる,,株式会社,東京都,新宿区,四谷４丁目１３－４５四谷市川ビル２０１号室,,13,104,1600004,,,,,,,2025-02-03,1,,,,,ツタワル,0
641,2011103015485,新規,0,2025-02-03,2025-02-03,エムイー合同会社,,合同会社,東京都,新宿区,西新宿４丁目２３番１２号,,13,104,1600023,,,,,,,2025-02-03,1,,,,,エムイー,0
643,2011303005410,新規,0,2025-02-03,2025-02-03,ＢｂＸ合同会社,,合同会社,東京都,杉並区,浜田山３丁目１３番１２号,,13,115,1680065,,,,,,,2025-02-03,1,,,,,ビービーエックス,0
646,2011501031646,新規,0,2025-02-03,2025-02-03,株式会社りんご,,株式会社,東京都,荒川区,荒川５丁目１１番１８号ヴィンヤード１Ｆ,,13,118,1160002,,,,,,,2025-02-03,1,,,,,リンゴ,0
654,2012401042725,新規,0,2025-02-03,2025-02-03,株式会社エイミー,,株式会社,東京都,武蔵野市,吉祥寺南町１丁目６番１５号吉祥寺コーポ１０８,,13,203,1800003,,,,,,,2025-02-03,1,,,,,エイミー,0
661,2013301053705,新規,0,2025-02-03,2025-02-03,株式会社アマテラス,,株式会社,東京都,豊島区,南長崎２丁目２番９号－１０５,,13,116,1710052,,,,,,,2025-02-03,1,,,,,アマテラス,0
667,2020001161110,新規,0,2025-02-03,2025-02-03,株式会社ＳＥＯ,,株式会社,神奈川県,横浜市戸塚区,上倉田町５３７番地３,,14,110,2440816,,,,,,,2025-02-03,1,,,,,セオ,0
668,2020001161119,新規,0,2025-02-03,2025-02-03,株式会社アフェックス,,株式会社,神奈川県,川崎市麻生区,王禅寺東３丁目３番１０－４１０号,,14,137,2150018,,,,,,,2025-02-03,1,,,,,アフェックス,0
669,2020001161127,新規,0,2025-02-03,2025-02-03,リアグランツ株式会社,,株式会社,神奈川県,横浜市青葉区,青葉台２丁目３番地３プリンス青葉台１階,,14,117,2270062,,,,,,,2025-02-03,1,,,,,リアグランツ,0
670,2020001161283,新規,0,2025-02-03,2025-02-03,株式会社Ｃａｌｍ　Ｏｃｅａｎ,,株式会社,神奈川県,川崎市麻生区,五力田３丁目４番９－６号,,14,137,2150025,,,,,,,2025-02-03,1,,,,,カームオーシャン,0
671,2020001161317,新規,0,2025-02-03,2025-02-03,株式会社ｔｕｒａｎｕｋｉ,,株式会社,神奈川県,横浜市神奈川区,金港町５－１４クアドリフォリオ８階,,14,102,2210056,,,,,,,2025-02-03,1,,,,,ツラヌキ,0
673,2020003027664,新規,0,2025-02-03,2025-02-03,Ｇｌｏｂａｌ　Ａｓｓｉｓｔ合同会社,,合同会社,神奈川県,川崎市多摩区,長尾２丁目５番１３－５号,,14,135,2140023,,,,,,,2025-02-03,1,,,,,グローバルアシスト,0
674,2020003027680,新規,0,2025-02-03,2025-02-03,合同会社テンセグリティ,,合同会社,神奈川県,横浜市瀬谷区,阿久和東４丁目２８番４５号,,14,114,2460023,,,,,,,2025-02-03,1,,,,,テンセグリティ,0
675,2020003027706,新規,0,2025-02-03,2025-02-03,アポロパレット合同会社,,合同会社,神奈川県,横浜市泉区,中田東４丁目６０番１５号,,14,116,2450013,,,,,,,2025-02-03,1,,,,,アポロパレット,0
691,2030001164698,新規,0,2025-02-03,2025-02-03,株式会社日本顔分析メイク協会Ｗｌｉｇ,,株式会社,埼玉県,川越市,清水町１番地１,,11,201,3501145,,,,,,,2025-02-03,1,,,,,ニホンカオブンセキメイクキョウカイウリグ,0
697,2030003026013,新規,0,2025-02-03,2025-02-03,スリスティバース合同会社,,合同会社,埼玉県,桶川市,若宮１丁目８番１９－２０１,,11,231,3630022,,,,,,,2025-02-03,1,,,,,スリスティバース,0
1055,2040003026763,新規,0,2025-02-03,2025-02-03,合同会社Ｗｉｔｈ‐Ｍ＆Ｔマネージャー,,合同会社,千葉県,四街道市,物井８５６－１,,12,228,2840012,,,,,,,2025-02-03,1,,,,,ウィズエムアンドティーマネージャー,0
1062,2050001056118,新規,0,2025-02-03,2025-02-03,アプロム株式会社,,株式会社,茨城県,土浦市,小松１丁目１２番３５－８１１号,,08,203,3000823,,,,,,,2025-02-03,1,,,,,アプロム,0
1067,2060005010292,新規,0,2025-02-03,2025-02-03,農事組合法人Ｄ２４,,その他の設立登記法人,栃木県,宇都宮市,南大通り１丁目８－１４シティハイツ８０２,,09,201,3210963,,,,,,,2025-02-03,1,,,,,ディニイヨン,0
1072,2070003005772,新規,0,2025-02-03,2025-02-03,利根沼田スポーツマネジメント合同会社,,合同会社,群馬県,沼田市,下之町８７１番地８,,10,206,3780044,,,,,,,2025-02-03,1,,,,,トネヌマタスポーツマネジメント,0
1074,2080003003379,新規,0,2025-02-03,2025-02-03,合同会社ＨＡＧＩＷＡＲＡ　ＴＲＥＡＤ,,合同会社,静岡県,静岡市駿河区,中島６９６番地の１４,,22,102,4228046,,,,,,,2025-02-03,1,,,,,ハギワラトレード,0
1075,2080101025275,新規,0,2025-02-03,2025-02-03,株式会社ＩＮＢ商事,,株式会社,静岡県,富士宮市,杉田９８５番地の２,,22,207,4180021,,,,,,,2025-02-03,1,,,,,アイエヌビーショウジ,0
1082,2110005017183,新規,0,2025-02-03,2025-02-03,一般社団法人Ａｃｃｅｓｓｉｂｌｅ　Ｎｉｉｇａｔａ,,その他の設立登記法人,新潟県,長岡市,平島１丁目１３７番地,,15,202,9401163,,,,,,,2025-02-03,1,,,,,アクセシブルニイガタ,0
1096,2120001272384,新規,0,2025-02-03,2025-02-03,ＴＨＥ　ＬＡＢ株式会社,,株式会社,大阪府,大阪市住之江区,北加賀屋１丁目９番２－２０２室,,27,125,5590011,,,,,,,2025-02-03,1,,,,,ザラバ,0
1097,2120001272434,新規,0,2025-02-03,2025-02-03,株式会社Ｇテック,,株式会社,大阪府,大阪市浪速区,敷津西２丁目８番１２号シャガール難波南２Ｆ,,27,111,5560015,,,,,,,2025-02-03,1,,,,,ジーテック,0
1098,2120001272450,新規,0,2025-02-03,2025-02-03,株式会社青山,,株式会社,大阪府,大阪市中央区,日本橋１丁目９番１５号ＲＩＨＩＴＯ日本橋ビル２階,,27,128,5420073,,,,,,,2025-02-03,1,,,,,アオヤマ,0
1099,2120001272500,新規,0,2025-02-03,2025-02-03,飯団株式会社,,株式会社,大阪府,大阪市天王寺区,空清町４－１１－１０５室,,27,109,5430018,,,,,,,2025-02-03,1,,,,,オニギリ,0
1100,2120001272517,新規,0,2025-02-03,2025-02-03,株式会社ＡＩフレンズ,,株式会社,大阪府,大阪市北区,梅田１丁目３番１号,,27,127,5300001,,,,,,,2025-02-03,1,,,,,エーアイフレンズ,0
1101,2120001272566,新規,0,2025-02-03,2025-02-03,＿宇株式会社,00137863,株式会社,大阪府,大阪市東淀川区,西淡路３丁目１２番３－２０７号,,27,114,5330031,,,,,,,2025-02-03,1,,,,,コウウ,0
1104,2120003028470,新規,0,2025-02-03,2025-02-03,ＫｏＳ合同会社,,合同会社,大阪府,大阪市中央区,船越町２丁目３番１１－５０１号,,27,128,5400036,,,,,,,2025-02-03,1,,,,,ケーオーエス,0
1106,2120101070993,新規,0,2025-02-03,2025-02-03,思翰貿易株式会社,,株式会社,大阪府,泉佐野市,長滝３２７２－Ｂ－１０８号,,27,213,5980034,,,,,,,2025-02-03,1,,,,,シハンボウエキ,0
1107,2120103006260,新規,0,2025-02-03,2025-02-03,合同会社Ｌｉｅｂｅ,,合同会社,大阪府,富田林市,藤沢台２丁目７－６,,27,214,5840071,,,,,,,2025-02-03,1,,,,,リーベ,0
1109,2120901050369,新規,0,2025-02-03,2025-02-03,株式会社ＰｅｔｉｔＶｅｒｔ,,株式会社,大阪府,吹田市,南吹田５丁目２７番１０号,,27,205,5640043,,,,,,,2025-02-03,1,,,,,プチベール,0
1111,2120903005528,新規,0,2025-02-03,2025-02-03,合同会社ケーアンドエヌ,,合同会社,大阪府,高槻市,北柳川町１４番１９号,,27,207,5690852,,,,,,,2025-02-03,1,,,,,ケーアンドエヌ,0
1112,2120903005536,新規,0,2025-02-03,2025-02-03,ＡＩコンサルティング合同会社,,合同会社,大阪府,吹田市,古江台５丁目１番２５－２０２号,,27,205,5650874,,,,,,,2025-02-03,1,,,,,エーアイコンサルティング,0
1116,2140001137296,新規,0,2025-02-03,2025-02-03,株式会社亀栄,,株式会社,兵庫県,川西市,西多田２丁目１０番１１号,,28,217,6660138,,,,,,,2025-02-03,1,,,,,カメエ,0
1117,2150001027851,新規,0,2025-02-03,2025-02-03,株式会社櫻井ホールディングス,,株式会社,奈良県,吉野郡吉野町,大字丹治１５番地の１,,29,441,6393114,,,,,,,2025-02-03,1,,,,,サクライホールディングス,0
1119,2170001018477,新規,0,2025-02-03,2025-02-03,株式会社米沢・小池コンサルティング,,株式会社,和歌山県,田辺市,新万１７番１号,,30,206,6460014,,,,,,,2025-02-03,1,,,,,ヨネザワコイケコンサルティング,0
1123,2180003027946,新規,0,2025-02-03,2025-02-03,鳳雛合同会社,,合同会社,愛知県,名古屋市千種区,富士見台２丁目８番地パークシティ富士見台Ｄ３０３,,23,101,4640015,,,,,,,2025-02-03,1,,,,,ホウスウ,0
1131,2210001020040,新規,0,2025-02-03,2025-02-03,株式会社ＤＭＲホールディングス,,株式会社,福井県,福井市,光陽２丁目１番１５号,,18,201,9100026,,,,,,,2025-02-03,1,,,,,ディーエムアールホールディングス,0
1134,2220001026474,新規,0,2025-02-03,2025-02-03,株式会社ＳＫＨＤ,,株式会社,石川県,小松市,土居原町５２２番地,,17,203,9230921,,,,,,,2025-02-03,1,,,,,エスケイエイチディ,0
1136,2220003003942,新規,0,2025-02-03,2025-02-03,合同会社グレイス金沢,,合同会社,石川県,金沢市,東山２丁目３番１１号,,17,201,9200831,,,,,,,2025-02-03,1,,,,,グレイスカナザワ,0
1137,2240005015884,新規,0,2025-02-03,2025-02-03,特定非営利活動法人在宅医療を支援し，高齢者の健康を取り戻す会,,その他の設立登記法人,広島県,広島市安芸区,矢野町７５２－３４番地,,34,107,7360087,,,,,,,2025-02-03,1,,,,,ザイタクイリョウヲシエンシコウレイシャノケンコウヲトリモドスカイ,0
1138,2250001020986,新規,0,2025-02-03,2025-02-03,株式会社だいまる,,株式会社,山口県,岩国市,川西２丁目７番７１号,,35,208,7410082,,,,,,,2025-02-03,1,,,,,ダイマル,0
1140,2250003003642,新規,0,2025-02-03,2025-02-03,合同会社カーファントムリース,,合同会社,山口県,宇部市,大字川上５８２番地２,,35,202,7550084,,,,,,,2025-02-03,1,,,,,カーファントムリース,0
1144,2290001108844,新規,0,2025-02-03,2025-02-03,平石不動産株式会社,,株式会社,福岡県,筑紫野市,桜台１丁目６番２２号,,40,217,8180063,,,,,,,2025-02-03,1,,,,,ヒライシフドウサン,0
1153,2370001052200,新規,0,2025-02-03,2025-02-03,株式会社鈴木工業,,株式会社,宮城県,大崎市,鹿島台木間塚字姥ケ沢２０－１,,04,215,9894102,,,,,,,2025-02-03,1,,,,,スズキコウギョウ,0
1155,2370003006922,新規,0,2025-02-03,2025-02-03,合同会社ＨＪＵ　ＩＮＴＥＲＮＡＴＩＯＮＡＬ　ＴＲＡＤＩＮＧ,,合同会社,宮城県,仙台市太白区,向山１丁目１９番２２－２０３号,,04,104,9820841,,,,,,,2025-02-03,1,,,,,エイチジェイユーインターナショナルトレーディング,0
1159,2430003017228,新規,0,2025-02-03,2025-02-03,合同会社Ｖｏｌｘ,,合同会社,北海道,札幌市中央区,南十六条西５丁目２－８,,01,101,0640916,,,,,,,2025-02-03,1,,,,,ボルクス,0
1160,2430005015147,新規,0,2025-02-03,2025-02-03,一般財団法人北ガス文化財団,,その他の設立登記法人,北海道,札幌市東区,北七条東２丁目１番１号,,01,103,0600907,,,,,,,2025-02-03,1,,,,,キタガスブンカザイダン,0
1161,2450001014514,新規,0,2025-02-03,2025-02-03,ＤＯ企画ホールディングス株式会社,,株式会社,北海道,天塩郡幌延町,字幌延２２１番地１,,01,520,0983223,,,,,,,2025-02-03,1,,,,,ドゥーキカクホールディングス,0
1176,3010001251976,新規,0,2025-02-03,2025-02-03,ＥＸ　Ｄａｔａ株式会社,,株式会社,東京都,千代田区,神田錦町１丁目４番１１号,,13,101,1010054,,,,,,,2025-02-03,1,,,,,エクスデータ,0
1183,3010003046251,新規,0,2025-02-03,2025-02-03,ＤＯＦ２号合同会社,,合同会社,東京都,千代田区,丸の内１丁目４番１号東京共同会計事務所内,,13,101,1000005,,,,,,,2025-02-03,1,,,,,ディーオーエフニゴウ,0
1184,3010003046276,新規,0,2025-02-03,2025-02-03,ＣＲＡＦＴ　ＧＲＯＵＰ合同会社,,合同会社,東京都,中央区,新富１丁目１７－４ＲＢＭ築地レジデンス６０３,,13,102,1040041,,,,,,,2025-02-03,1,,,,,クラフトグループ,0
1185,3010003046292,新規,0,2025-02-03,2025-02-03,合同会社黒髭インターナショナル,,合同会社,東京都,中央区,銀座１丁目１２番４号Ｎ＆Ｅ．ＢＬＤ．６階,,13,102,1040061,,,,,,,2025-02-03,1,,,,,クロヒゲインターナショナル,0
1193,3010401187894,新規,0,2025-02-03,2025-02-03,株式会社ＢＵＺＺＬＡＳ,,株式会社,東京都,港区,六本木７丁目７番７号トライセブン六本木８階,,13,103,1060032,,,,,,,2025-02-03,1,,,,,バズラス,0
1195,3010403034236,新規,0,2025-02-03,2025-02-03,ＡｌｚＷｅｌｌ　Ｃｏｎｓｕｌｔｉｎｇ合同会社,,合同会社,東京都,港区,北青山１丁目３番１号アールキューブ青山３階,,13,103,1070061,,,,,,,2025-02-03,1,,,,,オールイズウェルコンサルティング,0
1199,3010601066691,新規,0,2025-02-03,2025-02-03,株式会社市川住環,,株式会社,東京都,墨田区,八広２丁目２番１－１０１号,,13,107,1310041,,,,,,,2025-02-03,1,,,,,イチカワジュウカン,0
1200,3010601066700,新規,0,2025-02-03,2025-02-03,余花里株式会社,,株式会社,東京都,江東区,森下３丁目４番１４号ＴＭ森下ビル２０１,,13,108,1350004,,,,,,,2025-02-03,1,,,,,ヨカザト,0
1216,3011001167056,新規,0,2025-02-03,2025-02-03,ミレニアムテクノロジー株式会社,,株式会社,東京都,渋谷区,富ヶ谷１丁目１４番１４号スタンフォードアネックスビル４Ｆ,,13,113,1510063,,,,,,,2025-02-03,1,,,,,ミレニアムテクノロジー,0
1217,3011001167353,新規,0,2025-02-03,2025-02-03,徳領株式会社,,株式会社,東京都,渋谷区,富ヶ谷１丁目１４番１４号３階,,13,113,1510063,,,,,,,2025-02-03,1,,,,,トクリョウ,0
1218,3011001167361,新規,0,2025-02-03,2025-02-03,株式会社保助輪,,株式会社,東京都,渋谷区,渋谷２丁目１９－１５宮益坂ビルディング６０９,,13,113,1500002,,,,,,,2025-02-03,1,,,,,ホジョリン,0
1219,3011001167386,新規,0,2025-02-03,2025-02-03,株式会社Ｓ８Ｐｌｕｓ,,株式会社,東京都,渋谷区,東１丁目３２番１２号,,13,113,1500011,,,,,,,2025-02-03,1,,,,,エスエイトプラス,0
1220,3011001167394,新規,0,2025-02-03,2025-02-03,株式会社ホルツスタジオ,,株式会社,東京都,目黒区,目黒本町４丁目１７番５号,,13,110,1520002,,,,,,,2025-02-03,1,,,,,ホルツスタジオ,0
1221,3011001167403,新規,0,2025-02-03,2025-02-03,ＷａｉＷａｉ　ＡＩ株式会社,,株式会社,東京都,渋谷区,道玄坂１丁目１０番８号渋谷道玄坂東急ビル２Ｆ－Ｃ,,13,113,1500043,,,,,,,2025-02-03,1,,,,,ワイワイエーアイ,0
1222,3011001167411,新規,0,2025-02-03,2025-02-03,株式会社Ｓｏｌｄｉｅｒｓ,,株式会社,東京都,渋谷区,道玄坂１丁目１０番８号渋谷道玄坂東急ビル２Ｆ－Ｃ,,13,113,1500043,,,,,,,2025-02-03,1,,,,,ソルジャーズ,0
1223,3011001167444,新規,0,2025-02-03,2025-02-03,株式会社ＰＯＭＥＬＯ,,株式会社,東京都,渋谷区,広尾１丁目１３番１３号,,13,113,1500012,,,,,,,2025-02-03,1,,,,,ポメロ,0
1224,3011001167452,新規,0,2025-02-03,2025-02-03,キャットプロ株式会社,,株式会社,東京都,渋谷区,桜丘町２２番６号プライマル渋谷４０３,,13,113,1500031,,,,,,,2025-02-03,1,,,,,キャットプロ,0
1225,3011001167551,新規,0,2025-02-03,2025-02-03,株式会社エイジオ,,株式会社,東京都,目黒区,下目黒１丁目２番２２号,,13,110,1530064,,,,,,,2025-02-03,1,,,,,エイジオ,0
1228,3011003020849,新規,0,2025-02-03,2025-02-03,ＢＲＩＧＨＴ　ＷＡＨ合同会社,,合同会社,東京都,渋谷区,円山町５番５号Ｎａｖｉ渋谷Ｖ３階,00137864,13,113,1500044,,,,,,,2025-02-03,1,,,,,ブライトワー,0
1229,3011003020857,新規,0,2025-02-03,2025-02-03,合同会社ｓｔｉｂａｄｉｕｍ,,合同会社,東京都,渋谷区,幡ヶ谷３丁目１６番３号コーポ保科１階右,,13,113,1510072,,,,,,,2025-02-03,1,,,,,スティバディウム,0
1230,3011003020865,新規,0,2025-02-03,2025-02-03,Ｌｉｌ合同会社,,合同会社,東京都,渋谷区,道玄坂１丁目１０番８号渋谷道玄坂東急ビル２Ｆ－Ｃ,,13,113,1500043,,,,,,,2025-02-03,1,,,,,,0
1231,3011003020898,新規,0,2025-02-03,2025-02-03,ユメカナ合同会社,,合同会社,東京都,渋谷区,渋谷２丁目１９―１５宮益坂ビルディング６０９,,13,113,1500002,,,,,,,2025-02-03,1,,,,,ユメカナ,0
1240,3011101110469,新規,0,2025-02-03,2025-02-03,Ｗリアルティ株式会社,,株式会社,東京都,新宿区,高田馬場２丁目１６番２号土屋ビル４階,,13,104,1690075,,,,,,,2025-02-03,1,,,,,ダブルリアルティ,0
1246,3011501031653,新規,0,2025-02-03,2025-02-03,株式会社イノエッジ,,株式会社,東京都,荒川区,南千住６丁目４１－１０ミッドガーデンシティザ・テラス４２３号,,13,118,1160003,,,,,,,2025-02-03,1,,,,,イノエッジ,0
1247,3011703004110,新規,0,2025-02-03,2025-02-03,合同会社椛家,,合同会社,東京都,江戸川区,平井４丁目１１番１１号,,13,123,1320035,,,,,,,2025-02-03,1,,,,,モミジヤ,0
1250,3012301014245,新規,0,2025-02-03,2025-02-03,キナメリ株式会社,,株式会社,東京都,町田市,金森２丁目１８番２５号,,13,209,1940012,,,,,,,2025-02-03,1,,,,,キナメリ,0
1257,3013305003688,新規,0,2025-02-03,2025-02-03,社会保険労務士法人Ｓｐｈｅｒｅ,,その他の設立登記法人,東京都,豊島区,東池袋３丁目２０番９号,,13,116,1700013,,,,,,,2025-02-03,1,,,,,スフィア,0
1265,3020001161126,新規,0,2025-02-03,2025-02-03,レミニー株式会社,,株式会社,神奈川県,横浜市中区,本牧三之谷５番１４－３０２号,,14,104,2310824,,,,,,,2025-02-03,1,,,,,レミニー,0
1266,3020001161200,新規,0,2025-02-03,2025-02-03,株式会社オデッセイ,,株式会社,神奈川県,川崎市麻生区,千代ケ丘３丁目６番地７,,14,137,2150005,,,,,,,2025-02-03,1,,,,,オデッセイ,0
1272,3020003027671,新規,0,2025-02-03,2025-02-03,合同会社Ｐｅｎｔｈｏｕｓｅ,,合同会社,神奈川県,横浜市港南区,日野８丁目１０番５号,,14,111,2340051,,,,,,,2025-02-03,1,,,,,ペントハウス,0
1274,3020005016697,新規,0,2025-02-03,2025-02-03,一般財団法人シノアルテ財団,,その他の設立登記法人,神奈川県,横浜市西区,みなとみらい４丁目９番１－Ｂ１７０４号,,14,103,2200012,,,,,,,2025-02-03,1,,,,,シノアルテザイダン,0
1275,3021001084374,新規,0,2025-02-03,2025-02-03,株式会社Ｌｅａｐ　Ｎｏｗ,,株式会社,神奈川県,平塚市,万田１丁目５番１号,,14,203,2540913,,,,,,,2025-02-03,1,,,,,リープナウ,0
1277,3021003015534,新規,0,2025-02-03,2025-02-03,合同会社ｄｅｒｉｖｅ,,合同会社,神奈川県,藤沢市,大庭５１１７番地の７,,14,205,2510861,,,,,,,2025-02-03,1,,,,,デライブ,0
1283,3030001164689,新規,0,2025-02-03,2025-02-03,株式会社ＪＮＢ,,株式会社,埼玉県,さいたま市大宮区,宮町４丁目４花のシマムラビル３Ｆ,,11,103,3300802,,,,,,,2025-02-03,1,,,,,ジェイエヌビー,0
1284,3030001164697,新規,0,2025-02-03,2025-02-03,ＩＮＸテクノロジー株式会社,,株式会社,埼玉県,越谷市,大沢１６５６番地１０,,11,222,3430025,,,,,,,2025-02-03,1,,,,,アイエヌエクステクノロジー,0
1288,3030005022026,新規,0,2025-02-03,2025-02-03,一般社団法人ＪＬＥＲＮ,,その他の設立登記法人,埼玉県,入間郡毛呂山町,大字小田谷１２８番地５,,11,326,3500446,,,,,,,2025-02-03,1,,,,,ジェーラーン,0
1626,3040001137248,新規,0,2025-02-03,2025-02-03,８ＳＴＡＲＣＡＲ株式会社,,株式会社,千葉県,八街市,八街い１９３－４０,,12,230,2891143,,,,,,,2025-02-03,1,,,,,エイトスターカー,0
1665,3040005022652,新規,0,2025-02-03,2025-02-03,一般社団法人よもぎ,,その他の設立登記法人,千葉県,鴨川市,四方木３４５番地,,12,223,2995506,,,,,,,2025-02-03,1,,,,,ヨモギ,0
1669,3050003008990,新規,0,2025-02-03,2025-02-03,合同会社内田工業,,合同会社,茨城県,鹿嶋市,大字荒野１９４０番地２,,08,222,3112221,,,,,,,2025-02-03,1,,,,,ウチダコウギョウ,0
1678,3060005010291,新規,0,2025-02-03,2025-02-03,農事組合法人Ｄ２３,,その他の設立登記法人,栃木県,宇都宮市,南大通り１丁目８－１４シティハイツ８０２,,09,201,3210963,,,,,,,2025-02-03,1,,,,,ディニイサン,0
1682,3070003005771,新規,0,2025-02-03,2025-02-03,ＨＨ　ＪＡＰＡＮ商事合同会社,,合同会社,群馬県,伊勢崎市,東本町５９番地,,10,204,3720025,,,,,,,2025-02-03,1,,,,,エッチエッチジャパンショウジ,0
1692,3100001038217,新規,0,2025-02-03,2025-02-03,株式会社ホリウチ,,株式会社,長野県,茅野市,宮川５２５０番地,,20,214,3910013,,,,,,,2025-02-03,1,,,,,ホリウチ,0
1693,3100001038266,新規,0,2025-02-03,2025-02-03,あまらしき株式会社,,株式会社,長野県,長野市,西後町町並１５８３リプロ表参道ビル２Ｆ,,20,201,3810000,,,,,,,2025-02-03,1,,,,,アマラシキ,0
1697,3110003005651,新規,0,2025-02-03,2025-02-03,合同会社Ａｌｋｕ,,合同会社,新潟県,新潟市中央区,新和４丁目１１番１７号ライラック１０３,,15,103,9500972,,,,,,,2025-02-03,1,,,,,アルク,0
1710,3120001272375,新規,0,2025-02-03,2025-02-03,ベストセキュリティ株式会社,,株式会社,大阪府,大阪市中央区,釣鐘町２丁目１番１０号釣鐘ビル４０２号室,,27,128,5400035,,,,,,,2025-02-03,1,,,,,ベストセキュリティ,0
1711,3120001272433,新規,0,2025-02-03,2025-02-03,株式会社ジーテック,,株式会社,大阪府,大阪市浪速区,敷津西２丁目８番１２号シャガール難波南２Ｆ,,27,111,5560015,,,,,,,2025-02-03,1,,,,,ジーテック,0
1712,3120001272474,新規,0,2025-02-03,2025-02-03,ＴＹアセットマネジメント株式会社,,株式会社,大阪府,大阪市都島区,毛馬町２丁目１０番３９－３０２号,,27,102,5340001,,,,,,,2025-02-03,1,,,,,ティーワイアセットマネジメント,0
1713,3120001272482,新規,0,2025-02-03,2025-02-03,夕陽株式会社,,株式会社,大阪府,大阪市生野区,林寺５丁目７番３１号,,27,116,5440023,,,,,,,2025-02-03,1,,,,,ユウヒ,0
1714,3120001272524,新規,0,2025-02-03,2025-02-03,株式会社ＩＮＳ,,株式会社,大阪府,大阪市淀川区,東三国１丁目１５番２号１０１号室,,27,123,5320002,,,,,,,2025-02-03,1,,,,,アイエヌエス,0
1715,3120001272573,新規,0,2025-02-03,2025-02-03,株式会社Ｔａｌｏｖａｔｅ,,株式会社,大阪府,交野市,私市４丁目３９‐１８,,27,230,5760033,,,,,,,2025-02-03,1,,,,,タロベイト,0
1721,3120003028494,新規,0,2025-02-03,2025-02-03,合同会社ＧＨＳ,,合同会社,大阪府,大阪市住之江区,西住之江１丁目３－１－４０１,,27,125,5590005,,,,,,,2025-02-03,1,,,,,ジーエイチエス,0
1722,3120003028528,新規,0,2025-02-03,2025-02-03,合同会社イーストヒル,,合同会社,大阪府,大阪市西淀川区,大和田５丁目９番１９号,,27,113,5550032,,,,,,,2025-02-03,1,,,,,イーストヒル,0
1725,3120101071009,新規,0,2025-02-03,2025-02-03,株式会社信和アドバンス,,株式会社,大阪府,堺市南区,高倉台２丁１４番３７号,,27,145,5900117,,,,,,,2025-02-03,1,,,,,シンワアドバンス,0
1733,3122001038863,新規,0,2025-02-03,2025-02-03,株式会社ミマス,,株式会社,大阪府,東大阪市,足代１丁目１４番２１号,,27,227,5770841,,,,,,,2025-02-03,1,,,,,ミマス,0
1742,3140001137287,新規,0,2025-02-03,2025-02-03,株式会社匠心架装,,株式会社,兵庫県,加古川市,加古川町中津３３番地の１２,,28,210,6750068,,,,,,,2025-02-03,1,,,,,タクミカソウ,0
1743,3140001137295,新規,0,2025-02-03,2025-02-03,株式会社ビレッジ,,株式会社,兵庫県,明石市,太寺天王町２９７０番地の５,,28,203,6730841,,,,,,,2025-02-03,1,,,,,ビレッジ,0
1745,3170001018476,新規,0,2025-02-03,2025-02-03,株式会社やるでクラフト,,株式会社,和歌山県,海南市,岡田３２１番地５,,30,202,6420012,,,,,,,2025-02-03,1,,,,,ヤルデクラフト,0
1747,3180001164930,新規,0,2025-02-03,2025-02-03,ブエンスセソ株式会社,,株式会社,愛知県,江南市,松竹町高山１９２番地２,,23,217,4838352,,,,,,,2025-02-03,1,,,,,ブエンスセソ,0
1748,3180001165268,新規,0,2025-02-03,2025-02-03,Ｈａｆｉｚ　Ｔｒａｄｉｎｇ株式会社,,株式会社,愛知県,春日井市,桃山町１丁目１６８番地,,23,206,4860802,,,,,,,2025-02-03,1,,,,,ハフィズトレーディング,0
1753,3180301039485,新規,0,2025-02-03,2025-02-03,まちなか不動産株式会社,,株式会社,愛知県,豊橋市,新本町６７番地２フルタビル１Ｆ,,23,201,4400892,,,,,,,2025-02-03,1,,,,,マチナカフドウサン,0
1768,3240001064471,新規,0,2025-02-03,2025-02-03,株式会社Ｊｕｓｔ　Ｄｏ　Ｉｔ,,株式会社,広島県,広島市西区,庚午中１丁目７番２４号,,34,104,7330822,,,,,,,2025-02-03,1,,,,,ジャストドゥイット,0
1771,3260001039868,新規,0,2025-02-03,2025-02-03,株式会社アスリド,,株式会社,岡山県,岡山市中区,倉田２９６番地１３,,33,102,7038265,,,,,,,2025-02-03,1,,,,,アスリド,0
1774,3290001108769,新規,0,2025-02-03,2025-02-03,株式会社リベルテ,,株式会社,福岡県,福岡市東区,城浜団地２６番２１０号,,40,131,8130045,,,,,,,2025-02-03,1,,,,,リベルテ,0
1775,3290001108777,新規,0,2025-02-03,2025-02-03,もしもしｓｕｐｐｌｉ株式会社,,株式会社,福岡県,福岡市中央区,大名１丁目３番５号ＡＲＫＣＵＢＥＩＩ１０２号室,00137861,40,133,8100041,,,,,,,2025-02-03,1,,,,,モシモシスップリ,0
1776,3290001108802,新規,0,2025-02-03,2025-02-03,株式会社Ｔｅｌｏｓ,,株式会社,福岡県,福岡市中央区,薬院３丁目９―１ラグナガーデン薬院２０３,,40,133,8100022,,,,,,,2025-02-03,1,,,,,テロス,0
1790,3360001034743,新規,0,2025-02-03,2025-02-03,株式会社沖縄プロパティマネジメント,,株式会社,沖縄県,那覇市,牧志２丁目１７番２７－４０１号,,47,201,9000013,,,,,,,2025-02-03,1,,,,,オキナワプロパティマネジメント,0
1794,3380001035070,新規,0,2025-02-03,2025-02-03,株式会社コーストベンチャーパートナーズ,,株式会社,福島県,双葉郡楢葉町,大字山田岡字堂ノ下６－４,,07,542,9790513,,,,,,,2025-02-03,1,,,,,コーストベンチャーパートナーズ,0
1796,3390001017869,新規,0,2025-02-03,2025-02-03,株式会社山形病理研究所,,株式会社,山形県,山形市,下柳８４－２,,06,201,9902215,,,,,,,2025-02-03,1,,,,,ヤマガタビョウリケンキュウジョ,0
1804,3430005015146,新規,0,2025-02-03,2025-02-03,一般社団法人カルデラ１００年の森,,その他の設立登記法人,北海道,余市郡赤井川村,字日ノ出２５９番地２,,01,409,0460511,,,,,,,2025-02-03,1,,,,,カルデラヒャクネンノモリ,0
1805,3450001014521,新規,0,2025-02-03,2025-02-03,株式会社Ｂｅｌｌ　Ｒａｎｃｈ,,株式会社,北海道,勇払郡占冠村,字中央,,01,463,0792201,,,,,,,2025-02-03,1,,,,,ベルランチ,0
1816,4010001250333,新規,0,2025-02-03,2025-02-03,株式会社ＪＩＳＳ,,株式会社,東京都,中央区,銀座１丁目２２番１１号銀座大竹ビジデンス２Ｆ,,13,102,1040061,,,,,,,2025-02-03,1,,,,,ジェイアイエスエス,0
1817,4010001251975,新規,0,2025-02-03,2025-02-03,ＤＳＪ株式会社,,株式会社,東京都,千代田区,神田錦町１丁目４番１１号,,13,101,1010054,,,,,,,2025-02-03,1,,,,,ディーエスジェイ,0
1818,4010001252016,新規,0,2025-02-03,2025-02-03,衆陽株式会社,,株式会社,東京都,千代田区,岩本町１丁目１２番１１号５０１号Ｃ室,,13,101,1010032,,,,,,,2025-02-03,1,,,,,シュウヨウ,0
1819,4010003046192,新規,0,2025-02-03,2025-02-03,合同会社イノベイスソリューションズ,,合同会社,東京都,中央区,銀座１丁目１２番４号Ｎ＆ＥＢＬＤ．６Ｆ,,13,102,1040061,,,,,,,2025-02-03,1,,,,,イノベイスソリューションズ,0
1820,4010003046275,新規,0,2025-02-03,2025-02-03,合同会社Ｒｅｓｉｌｉｅｎｃｅ,,合同会社,東京都,千代田区,神田和泉町１番地６の１６ヤマトビル４０５,,13,101,1010024,,,,,,,2025-02-03,1,,,,,レジリエンス,0
1826,4010401187753,新規,0,2025-02-03,2025-02-03,ＪＭＡＥ株式会社,,株式会社,東京都,港区,南青山３丁目１５番９号ＭＩＮＯＷＡ表参道,,13,103,1070062,,,,,,,2025-02-03,1,,,,,ジェーエムエーイー,0
1827,4010401187836,新規,0,2025-02-03,2025-02-03,株式会社ｓｉｃａｓｉｓ,,株式会社,東京都,港区,南青山５丁目１２－２倉澤ビル５階,,13,103,1070062,,,,,,,2025-02-03,1,,,,,シカシス,0
1830,4010403034334,新規,0,2025-02-03,2025-02-03,エクセルシア合同会社,,合同会社,東京都,港区,港南４丁目２番７－８１９号,,13,103,1080075,,,,,,,2025-02-03,1,,,,,エクセルシア,0
1831,4010601066690,新規,0,2025-02-03,2025-02-03,真心十番ホールディングス株式会社,,株式会社,東京都,江東区,亀戸６丁目５３番９号,,13,108,1360071,,,,,,,2025-02-03,1,,,,,マゴコロジュウバンホールディングス,0
1832,4010601066708,新規,0,2025-02-03,2025-02-03,Ｓｋｙｐｌｕｓ株式会社,,株式会社,東京都,江東区,有明１丁目５番２－２２１７号,,13,108,1350063,,,,,,,2025-02-03,1,,,,,スカイプラス,0
1836,4010603011364,新規,0,2025-02-03,2025-02-03,ポインタージャパン合同会社,,合同会社,東京都,江東区,東陽３丁目２３番２６－４０６号,,13,108,1350016,,,,,,,2025-02-03,1,,,,,ポインタージャパン,0
1837,4010605004408,新規,0,2025-02-03,2025-02-03,特定非営利活動法人災害支援光輝,,その他の設立登記法人,東京都,墨田区,菊川３丁目１１番１０－５０３号コスモ菊川参番館,,13,107,1300024,,,,,,,2025-02-03,1,,,,,サイガイシエンコウキ,0
1841,4010801035818,新規,0,2025-02-03,2025-02-03,株式会社ＶＡＬＬＥＹＧＯＬＤ,,株式会社,東京都,大田区,北千束１丁目１９番９号,,13,111,1450062,,,,,,,2025-02-03,1,,,,,ヴァレーゴールド,0
1844,4010901056763,新規,0,2025-02-03,2025-02-03,株式会社Ｖｅｎｔｕｒｅ,,株式会社,東京都,世田谷区,上北沢３丁目２３番１７号,,13,112,1560057,,,,,,,2025-02-03,1,,,,,ベンチャー,0
1853,4011001167336,新規,0,2025-02-03,2025-02-03,株式会社ＰＯＬＡＬ,,株式会社,東京都,渋谷区,恵比寿３丁目１－４モンシャトー恵比寿５階,,13,113,1500013,,,,,,,2025-02-03,1,,,,,ポーラル,0
1854,4011001167369,新規,0,2025-02-03,2025-02-03,株式会社ＲｅｖＯｎｅ,,株式会社,東京都,渋谷区,渋谷３丁目１－９ＹＡＺＡＷＡビル３階,,13,113,1500002,,,,,,,2025-02-03,1,,,,,レブワン,0
1855,4011001167393,新規,0,2025-02-03,2025-02-03,株式会社ＧＳ,,株式会社,東京都,渋谷区,恵比寿２丁目１３－６,,13,113,1500013,,,,,,,2025-02-03,1,,,,,ジーエス,0
1856,4011001167402,新規,0,2025-02-03,2025-02-03,株式会社ｈａｓｈｔａｇｏｏｄ,,株式会社,東京都,目黒区,八雲５丁目１番５号コートアルビレオ八雲２０２,,13,110,1520023,,,,,,,2025-02-03,1,,,,,ハッシュタグッド,0
1857,4011001167410,新規,0,2025-02-03,2025-02-03,ＡＷＡＩ　Ｌａｂｏｒａｔｏｒｉｅｓ株式会社,,株式会社,東京都,渋谷区,渋谷３丁目１２番３号,,13,113,1500002,,,,,,,2025-02-03,1,,,,,アワイラボラトリーズ,0
1858,4011001167419,新規,0,2025-02-03,2025-02-03,株式会社ブローリッシュ,,株式会社,東京都,渋谷区,恵比寿１丁目２５番１２号２０１,,13,113,1500013,,,,,,,2025-02-03,1,,,,,ブローリッシュ,0
1859,4011001167427,新規,0,2025-02-03,2025-02-03,Ｔａｌｅｎｔ　Ｆｉｔ　Ｊａｐａｎ株式会社,,株式会社,東京都,渋谷区,恵比寿西１丁目３３番６号１階,,13,113,1500021,,,,,,,2025-02-03,1,,,,,,0
1860,4011001167443,新規,0,2025-02-03,2025-02-03,株式会社ＭＵＳＥ,,株式会社,東京都,渋谷区,本町４丁目２１番１号Ｍ．べルトゥール２０１,,13,113,1510071,,,,,,,2025-02-03,1,,,,,ミューズ,0
1861,4011001167451,新規,0,2025-02-03,2025-02-03,ＥＮＳＥＮＳ株式会社,,株式会社,東京都,渋谷区,恵比寿西２丁目１７番１７号Ｂ１Ｆ,,13,113,1500021,,,,,,,2025-02-03,1,,,,,,0
1862,4011001167468,新規,0,2025-02-03,2025-02-03,株式会社ＧｌｏｒｙＬｉｎｋ,,株式会社,東京都,目黒区,下目黒２丁目２１－２０シティハウス目黒ザツインＳ９０６,,13,110,1530064,,,,,,,2025-02-03,1,,,,,グローリーリンク,0
1863,4011001167476,新規,0,2025-02-03,2025-02-03,ＭＩＨアドバイザリー株式会社,,株式会社,東京都,渋谷区,恵比寿西２丁目４番８号ウィンド恵比寿ビル８Ｆ,,13,113,1500021,,,,,,,2025-02-03,1,,,,,エムアイエイチアドバイザリー,0
1864,4011001167484,新規,0,2025-02-03,2025-02-03,株式会社ＹＥＬＬ　ＷＯＲＫＳ,,株式会社,東京都,渋谷区,円山町５番５号Ｎａｖｉ渋谷Ｖ３階,,13,113,1500044,,,,,,,2025-02-03,1,,,,,エールワークス,0
1865,4011001167492,新規,0,2025-02-03,2025-02-03,株式会社ブリッジ,,株式会社,東京都,渋谷区,恵比寿西２丁目４番８号ウィンド恵比寿ビル８Ｆ,,13,113,1500021,,,,,,,2025-02-03,1,,,,,ブリッジ,0
1868,4011003020831,新規,0,2025-02-03,2025-02-03,合同会社かしかし,,合同会社,東京都,渋谷区,渋谷２丁目１９－１５宮益坂ビルディング６０９,,13,113,1500002,,,,,,,2025-02-03,1,,,,,カシカシ,0
1869,4011003020864,新規,0,2025-02-03,2025-02-03,Ｌｕｍｉｎａｒｙ合同会社,,合同会社,東京都,渋谷区,道玄坂１丁目１０番８号渋谷道玄坂東急ビル２Ｆ－Ｃ,,13,113,1500043,,,,,,,2025-02-03,1,,,,,ルミナリー,0
1870,4011003020872,新規,0,2025-02-03,2025-02-03,合同会社ＵＳ　ＥＮＴＥＲＴＡＩＮＭＥＮＴ,,合同会社,東京都,渋谷区,渋谷２丁目１９－１５宮益坂ビルディング６０９,,13,113,1500002,,,,,,,2025-02-03,1,,,,,ユーエスエンターテイメント,0
1872,4011101110476,新規,0,2025-02-03,2025-02-03,株式会社ＤＯＡ,,株式会社,東京都,新宿区,歌舞伎町１丁目１４－１ＲＳＪｓｈｉｎｊｙｕｋｕｂｌｄｇ２階,,13,104,1600021,,,,,,,2025-02-03,1,,,,,ディーオーエー,0
1873,4011101110492,新規,0,2025-02-03,2025-02-03,株式会社シンギュラリサーチ,,株式会社,東京都,新宿区,北新宿１丁目３０番３２－１０５号,,13,104,1690074,,,,,,,2025-02-03,1,,,,,シンギュラリサーチ,0
1881,4011503006413,新規,0,2025-02-03,2025-02-03,ＶＴＳ．Ｇｒｏｕｐ合同会社,,合同会社,東京都,荒川区,東尾久２丁目４１－８寿荘２０３,,13,118,1160012,,,,,,,2025-02-03,1,,,,,エスティーヴィグループ,0
1885,4011801045559,新規,0,2025-02-03,2025-02-03,株式会社ＳＡＮ‐ＭＥＥ,,株式会社,東京都,足立区,関原２丁目４９－２コーポ富士峰１Ｆ,,13,121,1230852,,,,,,,2025-02-03,1,,,,,サンーミー,0
1891,4020001161075,新規,0,2025-02-03,2025-02-03,寿未来ホールディングス株式会社,,株式会社,神奈川県,川崎市宮前区,鷺沼４丁目１６番地８ライオンズマンション鷺沼第５－３１０,,14,136,2160004,,,,,,,2025-02-03,1,,,,,コトブキミライホールディングス,0
1892,4020001161083,新規,0,2025-02-03,2025-02-03,株式会社ＭＩＴＵ,,株式会社,神奈川県,横浜市南区,八幡町４３番地マークミュー横浜阪東橋３０１号,,14,105,2320037,,,,,,,2025-02-03,1,,,,,ミツ,0
1893,4020001161100,新規,0,2025-02-03,2025-02-03,ＧＢＥ株式会社,,株式会社,神奈川県,横浜市鶴見区,馬場７丁目２５番２２号,,14,101,2300076,,,,,,,2025-02-03,1,,,,,ジービーイー,0
1894,4020001161109,新規,0,2025-02-03,2025-02-03,株式会社Ｊ‐ＣＯＮＮＥＣＴ,,株式会社,神奈川県,横浜市戸塚区,平戸町３０５番地,,14,110,2440803,,,,,,,2025-02-03,1,,,,,ジェイコネクト,0
1895,4020001161166,新規,0,2025-02-03,2025-02-03,株式会社Ｗｉｅｄｅｒ,,株式会社,神奈川県,横浜市都筑区,茅ケ崎中央２２番１号,,14,118,2240032,,,,,,,2025-02-03,1,,,,,ヴィーダー,0
1896,4020001161265,新規,0,2025-02-03,2025-02-03,ＳＡＫＡＥ　Ｉｎｓｕｒａｎｃｅ＆Ｓａｌｅｓ株式会社,,株式会社,神奈川県,横浜市港北区,新横浜１丁目１４番地２０光正第２ビル８Ｆ,,14,109,2220033,,,,,,,2025-02-03,1,,,,,サカエインシュアランスアンドセールス,0
1900,4020003027670,新規,0,2025-02-03,2025-02-03,Ｃｈｉｙｏ　Ａｋｉ　Ｉｎｔｅｒｎａｔｉｏｎａｌ合同会社,,合同会社,神奈川県,横浜市中区,尾上町４丁目５７番地横浜尾上町ビルディング８階８４３号室,,14,104,2310015,,,,,,,2025-02-03,1,,,,,チヨアキインターナショナル,0
1901,4020003027712,新規,0,2025-02-03,2025-02-03,合同会社Ａｄｖａｎｃｅ　Ｐｒｏｐｅｒｔｙ,,合同会社,神奈川県,横浜市都筑区,北山田７丁目１０番５４号,,14,118,2240021,,,,,,,2025-02-03,1,,,,,アドバンスプロパティ,0
1902,4020003027720,新規,0,2025-02-03,2025-02-03,合同会社サプラス,,合同会社,神奈川県,川崎市川崎区,大島上町１１番１１号吉沢ビル４０２,,14,131,2100836,,,,,,,2025-02-03,1,,,,,サプラス,0
1903,4020005016696,新規,0,2025-02-03,2025-02-03,一般社団法人エリー,,その他の設立登記法人,神奈川県,川崎市麻生区,早野８８－２,,14,137,2150016,,,,,,,2025-02-03,1,,,,,エリー,0
1904,4021001084365,新規,0,2025-02-03,2025-02-03,株式会社ＴＢＭ　ＣＯＮＳＵＭＥＲ　ＪＡＰＡＮ,,株式会社,神奈川県,大和市,中央林間西３丁目６－５５－２０２,,14,213,2420008,,,,,,,2025-02-03,1,,,,,テイビイエムコンシューマジャパン,0
1905,4021001084373,新規,0,2025-02-03,2025-02-03,株式会社西湘リゾラ,,株式会社,神奈川県,平塚市,出縄２０番地の４ブルーエイト１０２,,14,203,2540915,,,,,,,2025-02-03,1,,,,,セイショウリゾラ,0
1906,4021005013270,新規,0,2025-02-03,2025-02-03,一般社団法人先端技術普及推進機構,,その他の設立登記法人,神奈川県,小田原市,栄町２丁目３番１８号,,14,206,2500011,,,,,,,2025-02-03,1,,,,,センタンギジュツフキュウスイシンキコウ,0
1913,4030003026003,新規,0,2025-02-03,2025-02-03,ＴＥＡＭ　ｏｆ　ＤＲＨ合同会社,,合同会社,埼玉県,鶴ヶ島市,大字下新田６２１番地２０５ＫＩＶオフィス下新田Ｂ号室,,11,241,3502222,,,,,,,2025-02-03,1,,,,,チームオブディーアールエイチ,0
1914,4030003026011,新規,0,2025-02-03,2025-02-03,佐生合同会社,,合同会社,埼玉県,飯能市,仲町１７番２０号の２,,11,209,3570038,,,,,,,2025-02-03,1,,,,,サフ,0
2319,4060001037882,新規,0,2025-02-03,2025-02-03,株式会社ＰＬＵＳ　ＡＲＯＵＮＤ,,株式会社,栃木県,宇都宮市,西大寛２丁目１番２３号,,09,201,3200866,,,,,,,2025-02-03,1,,,,,プラスアラウンド,0
2327,4060003005409,新規,0,2025-02-03,2025-02-03,合同会社ビズワーク,,合同会社,栃木県,宇都宮市,川田町１０４８番６ハピネス川田４０１,,09,201,3210111,,,,,,,2025-02-03,1,,,,,ビズワーク,0
2328,4060005010290,新規,0,2025-02-03,2025-02-03,農事組合法人Ｄ２２,,その他の設立登記法人,栃木県,宇都宮市,南大通り１丁目８－１４シティハイツ８０２,,09,201,3210963,,,,,,,2025-02-03,1,,,,,ディニイニ,0
2332,4100003007978,新規,0,2025-02-03,2025-02-03,合同会社寿不二,,合同会社,長野県,東御市,和７０１４番地５,,20,219,3890505,,,,,,,2025-02-03,1,,,,,コトフジ,0
2342,4120001272449,新規,0,2025-02-03,2025-02-03,喬登国際株式会社,,株式会社,大阪府,大阪市西成区,萩之茶屋１丁目１２番７号万葉ビル１３０号室,,27,122,5570004,,,,,,,2025-02-03,1,,,,,キョウトウコクサイ,0
2343,4120001272531,新規,0,2025-02-03,2025-02-03,株式会社ＳＴＯＮＥ２建設,,株式会社,大阪府,大阪市港区,池島１丁目２番２１号,,27,107,5520015,,,,,,,2025-02-03,1,,,,,ストーントゥーケンセツ,0
2345,4120003028460,新規,0,2025-02-03,2025-02-03,Ｋ＆Ｐ合同会社,,合同会社,大阪府,大阪市北区,梅田１丁目２番２号大阪駅前第２ビル１２‐１２,,27,127,5300001,,,,,,,2025-02-03,1,,,,,ケーアンドピー,0
2346,4120003028510,新規,0,2025-02-03,2025-02-03,合同会社御殿山,,合同会社,大阪府,枚方市,堤町５番２－１２０１号,,27,210,5730057,,,,,,,2025-02-03,1,,,,,ゴテンヤマ,0
2347,4120003028527,新規,0,2025-02-03,2025-02-03,合同会社Ｚｅｒｏ　Ｏｎｅ,,合同会社,大阪府,大阪市浪速区,敷津西２丁目１２番６－５０２号,,27,111,5560015,,,,,,,2025-02-03,1,,,,,ゼロワン,0
2348,4120005024771,新規,0,2025-02-03,2025-02-03,医療法人孝寿会,,その他の設立登記法人,大阪府,大阪市中央区,本町３丁目１番２号イワタニ第三ビル４階,,27,128,5410053,,,,,,,2025-02-03,1,,,,,コウジュカイ,0
2350,4120901050375,新規,0,2025-02-03,2025-02-03,株式会社グランエージェント,,株式会社,大阪府,池田市,栄本町１１番２―５０１号,,27,204,5630058,,,,,,,2025-02-03,1,,,,,グランエージェント,0
2354,4120903005534,新規,0,2025-02-03,2025-02-03,合同会社ｍｉｃｏｃｏ,,合同会社,大阪府,豊能郡豊能町,光風台６丁目１１番地の９,,27,321,5630104,,,,,,,2025-02-03,1,,,,,ミココ,0
2360,4140001137245,新規,0,2025-02-03,2025-02-03,七豊工務店株式会社,,株式会社,兵庫県,神戸市東灘区,鴨子ヶ原２丁目３番地２９号２０８号室,,28,101,6580064,,,,,,,2025-02-03,1,,,,,ナナトコウムテン,0
2361,4150005009662,新規,0,2025-02-03,2025-02-03,特定非営利活動法人結の輪,,その他の設立登記法人,奈良県,奈良市,大宮町３丁目２番３９号ジャンギャバン新大宮ビル１階,,29,201,6308115,,,,,,,2025-02-03,1,,,,,ユイノワ,0
2368,4180001165283,新規,0,2025-02-03,2025-02-03,株式会社Ｇｅｎｅｒａｔｅ　Ｖｉｓｉｏｎｓ,,株式会社,愛知県,名古屋市天白区,平針２丁目８０８,,23,116,4680011,,,,,,,2025-02-03,1,,,,,ジェネレイトビジョンズ,0
2373,4200001043404,新規,0,2025-02-03,2025-02-03,株式会社ＫＫＢ,,株式会社,岐阜県,岐阜市,向陽町１８番地３（パナハイツ向陽東１０１号室）,,21,201,5008434,,,,,,,2025-02-03,1,,,,,ケイケイビー,0
2375,4240001064470,新規,0,2025-02-03,2025-02-03,株式会社ＦＨ・ＵＮＩＯＮ,,株式会社,広島県,広島市中区,西平塚町１０番３号,,34,101,7300024,,,,,,,2025-02-03,1,,,,,エフエイチユニオン,0
2377,4260001039834,新規,0,2025-02-03,2025-02-03,株式会社聖林・ＷＥＳＴ,,株式会社,岡山県,岡山市北区,駅前町１丁目１番１号,,33,101,7000023,,,,,,,2025-02-03,1,,,,,ハリウッドウエスト,0
2378,4260002020108,新規,0,2025-02-03,2025-02-03,中村織物有限会社,,有限会社,岡山県,倉敷市,児島赤崎３丁目１０番２５号,,33,202,7110931,,,,,,,2025-02-03,1,,,,,ナカムラオリモノ,0
2379,4270001009142,新規,0,2025-02-03,2025-02-03,一二三建設株式会社,,株式会社,鳥取県,鳥取市,緑ケ丘２丁目４３番地２,,31,201,6800915,,,,,,,2025-02-03,1,,,,,ヒフミケンセツ,0
2380,4270005005625,新規,0,2025-02-03,2025-02-03,一般社団法人猫じゃらし,,その他の設立登記法人,鳥取県,倉吉市,明治町１０２９番地１１,,31,203,6820887,,,,,,,2025-02-03,1,,,,,ネコジャラシ,0
2382,4290001108768,新規,0,2025-02-03,2025-02-03,ＷＩＮＧ総研株式会社,,株式会社,福岡県,福岡市中央区,地行浜２丁目２番５－２６０５号ザ・パークハウス福岡タワーズＥＡＳＴ,,40,133,8100065,,,,,,,2025-02-03,1,,,,,ウイングソウケン,0
2383,4290001108792,新規,0,2025-02-03,2025-02-03,株式会社Ｆｉｌｌ　ｕｐ,,株式会社,福岡県,福岡市中央区,六本松２丁目４番１９号,,40,133,8100044,,,,,,,2025-02-03,1,,,,,フィルアップ,0
2388,4290803004958,新規,0,2025-02-03,2025-02-03,合同会社上々大吉,,合同会社,福岡県,直方市,日吉町９番５号,,40,204,8220025,,,,,,,2025-02-03,1,,,,,ジョウジョウダイキチ,0
2390,4330003010777,新規,0,2025-02-03,2025-02-03,合同会社ＲＯＭＡＲＯ,,合同会社,熊本県,熊本市中央区,水前寺１丁目１８番２号グランパーク水前寺１Ｆ,,43,101,8620950,,,,,,,2025-02-03,1,,,,,ロマロ,0
2393,4370003006920,新規,0,2025-02-03,2025-02-03,合同会社ＨＯＰＥＷＡＹ,,合同会社,宮城県,角田市,角田字町２４０番地ファミール桜花１０２,,04,208,9811505,,,,,,,2025-02-03,1,,,,,ホープウェイ,0
2404,4470003002802,新規,0,2025-02-03,2025-02-03,合同会社チャーリーメンテナンス,,合同会社,香川県,高松市,小村町１７６番地８,,37,201,7610431,,,,,,,2025-02-03,1,,,,,チャーリーメンテナンス,0
2419,5010001251545,新規,0,2025-02-03,2025-02-03,炙享嘉合株式会社,,株式会社,東京都,千代田区,外神田６丁目９番５号,,13,101,1010021,,,,,,,2025-02-03,1,,,,,シャキョウカゴウ,0
2420,5010001251958,新規,0,2025-02-03,2025-02-03,ブレイクスルーパートナーマネジメント株式会社,,株式会社,東京都,中央区,日本橋茅場町１丁目２－１４日本ビルディング３号館３Ｆ,,13,102,1030025,,,,,,,2025-02-03,1,,,,,ブレイクスルーパートナーマネジメント,0
2425,5010003046266,新規,0,2025-02-03,2025-02-03,ＡＢＣ　ＦＡＲＭ合同会社,,合同会社,東京都,千代田区,丸の内２丁目５－２三菱ビル９Ｆ,,13,101,1000005,,,,,,,2025-02-03,1,,,,,エービーシーファーム,0
2426,5010003046274,新規,0,2025-02-03,2025-02-03,バウンスバックパートナーズ合同会社,,合同会社,東京都,中央区,銀座１丁目１２番４号Ｎ＆ＥＢＬＤ．６Ｆ,,13,102,1040061,,,,,,,2025-02-03,1,,,,,バウンスバックパートナーズ,0
2427,5010003046282,新規,0,2025-02-03,2025-02-03,合同会社麻の実企画,,合同会社,東京都,文京区,白山１丁目１６－６,,13,105,1130001,,,,,,,2025-02-03,1,,,,,アサノミキカク,0
2428,5010005039499,新規,0,2025-02-03,2025-02-03,一般社団法人葉山,,その他の設立登記法人,東京都,千代田区,霞が関３丁目２番５号,,13,101,1000013,,,,,,,2025-02-03,1,,,,,ハヤマ,0
2437,5010401187752,新規,0,2025-02-03,2025-02-03,ＣＴＪ商事株式会社,,株式会社,東京都,港区,港南２丁目４－１４－４０２,,13,103,1080075,,,,,,,2025-02-03,1,,,,,シーティージェーショウジ,0
2438,5010401188040,新規,0,2025-02-03,2025-02-03,株式会社Ａ＆Ｈ,,株式会社,東京都,港区,新橋５丁目２５番３号,,13,103,1050004,,,,,,,2025-02-03,1,,,,,エーアンドエイチ,0
2441,5010601066715,新規,0,2025-02-03,2025-02-03,株式会社ＳＨＡＲＥＳＷＥＡＴ,,株式会社,東京都,江東区,森下４丁目１８－６モンファイエ菊川４０２,,13,108,1350004,,,,,,,2025-02-03,1,,,,,シェアスウェット,0
2443,5010701047210,新規,0,2025-02-03,2025-02-03,株式会社ＵＮＩＣＯＡＣＨ,,株式会社,東京都,品川区,西品川１丁目２９番１２号ＣＳＲ品川,,13,109,1410033,,,,,,,2025-02-03,1,,,,,ユニコーチ,0
2445,5010803005272,新規,0,2025-02-03,2025-02-03,アップストリームソリューション合同会社,,合同会社,東京都,大田区,中馬込１丁目１５番８－３１０号,,13,111,1430027,,,,,,,2025-02-03,1,,,,,アップストリームソリューション,0
2460,5011001167319,新規,0,2025-02-03,2025-02-03,株式会社ＺｅＮ．,,株式会社,東京都,目黒区,鷹番３丁目９－１７ＧｒａｎｄＥｓｐｏｉｒ１０２,,13,110,1520004,,,,,,,2025-02-03,1,,,,,ゼン,0
2461,5011001167335,新規,0,2025-02-03,2025-02-03,株式会社エンライフ,,株式会社,東京都,渋谷区,神宮前３丁目２７番１５号ｆｌａｇ神宮前Ｎ３,,13,113,1500001,,,,,,,2025-02-03,1,,,,,エンライフ,0
2462,5011001167401,新規,0,2025-02-03,2025-02-03,株式会社ＴＨＸＡ,,株式会社,東京都,渋谷区,渋谷２丁目１９－１５宮益坂ビルディング６０９,,13,113,1500002,,,,,,,2025-02-03,1,,,,,テクサ,0
2463,5011001167418,新規,0,2025-02-03,2025-02-03,株式会社ＮＥＸＴ　ＩＮＮＯＶＡＴＩＯＮ,,株式会社,東京都,渋谷区,広尾５丁目１４番２号,,13,113,1500012,,,,,,,2025-02-03,1,,,,,ネクストイノベーション,0
2464,5011001167426,新規,0,2025-02-03,2025-02-03,株式会社Ｌｉｍｐｌｕｓ,,株式会社,東京都,目黒区,中目黒１丁目１番１４号レガシス代官山５０２,,13,110,1530061,,,,,,,2025-02-03,1,,,,,リムプラス,0
2465,5011001167434,新規,0,2025-02-03,2025-02-03,株式会社月の船,,株式会社,東京都,渋谷区,本町２丁目４６－１第三市田ビル１０３,,13,113,1510071,,,,,,,2025-02-03,1,,,,,ツキノフネ,0
2466,5011001167442,新規,0,2025-02-03,2025-02-03,株式会社Ｒｅｃｏｖｅｒｅｏ,,株式会社,東京都,渋谷区,道玄坂１丁目１０番８号渋谷道玄坂東急ビル２Ｆ－Ｃ,,13,113,1500043,,,,,,,2025-02-03,1,,,,,リカバリオ,0
2467,5011001167459,新規,0,2025-02-03,2025-02-03,株式会社シェルパ,,株式会社,東京都,渋谷区,恵比寿西２丁目８番４号ＥＸ恵比寿西ビル５階,,13,113,1500021,,,,,,,2025-02-03,1,,,,,シェルパ,0
2468,5011001167475,新規,0,2025-02-03,2025-02-03,ＳＧＹ株式会社,,株式会社,東京都,渋谷区,道玄坂１丁目１０番８号,,13,113,1500043,,,,,,,2025-02-03,1,,,,,エスジーワイ,0
2469,5011001167566,新規,0,2025-02-03,2025-02-03,株式会社ＰＭＯスクエア,,株式会社,東京都,渋谷区,道玄坂１丁目１０番８号渋谷道玄坂東急ビル２Ｆ‐Ｃ,,13,113,1500043,,,,,,,2025-02-03,1,,,,,ピーエムオースクエア,0
2472,5011003020839,新規,0,2025-02-03,2025-02-03,合同会社Ｂ‐ＳＴＡＹ,,合同会社,東京都,目黒区,目黒本町５丁目２９番９号,,13,110,1520002,,,,,,,2025-02-03,1,,,,,ビーステイ,0
2473,5011003020847,新規,0,2025-02-03,2025-02-03,合同会社アレクシード,,合同会社,東京都,渋谷区,道玄坂１丁目１０番８号渋谷道玄坂東急ビル２Ｆ－Ｃ,,13,113,1500043,,,,,,,2025-02-03,1,,,,,アレクシード,0
2474,5011003020863,新規,0,2025-02-03,2025-02-03,アセットブリッジ合同会社,,合同会社,東京都,目黒区,下目黒１丁目１番１４号コノトラビル７Ｆ,,13,110,1530064,,,,,,,2025-02-03,1,,,,,,0
2475,5011003020905,新規,0,2025-02-03,2025-02-03,合同会社Ｙ’ｚ　Ｏｒｔｈｏ,,合同会社,東京都,渋谷区,渋谷２丁目１９―１５宮益坂ビルディング６０９,,13,113,1500002,,,,,,,2025-02-03,1,,,,,ワイズオルソ,0
2480,5011103015490,新規,0,2025-02-03,2025-02-03,合同会社力,,合同会社,東京都,新宿区,原町１丁目３４番地１２フェリチタ牛込柳町４０１,,13,104,1620053,,,,,,,2025-02-03,1,,,,,チカラ,0
2481,5011203004600,新規,0,2025-02-03,2025-02-03,ＱＵＡＮＧ　ＳＮＥＡＫＥＲＳ合同会社,,合同会社,東京都,中野区,上高田２丁目１６－１８グレースビル２０１号室,,13,114,1640002,,,,,,,2025-02-03,1,,,,,クアンスニーカー,0
2484,5011601028399,新規,0,2025-02-03,2025-02-03,株式会社ｃｏｉａｉ,,株式会社,東京都,練馬区,関町北３丁目６－９,,13,120,1770051,,,,,,,2025-02-03,1,,,,,コイアイ,0
2486,5011701028035,新規,0,2025-02-03,2025-02-03,味博貿易株式会社,,株式会社,東京都,江戸川区,松島３丁目１５番４号,,13,123,1320031,,,,,,,2025-02-03,1,,,,,ミハクボウエキ,0
2487,5011801045509,新規,0,2025-02-03,2025-02-03,株式会社Ｍｉｃｈｔａｌｅ,,株式会社,東京都,葛飾区,新小岩２丁目１番地２３号,,13,122,1240024,,,,,,,2025-02-03,1,,,,,ミチテイル,0
2488,5011801045566,新規,0,2025-02-03,2025-02-03,株式会社リマコンサルティング,,株式会社,東京都,足立区,佐野２丁目２３番６号,,13,121,1210053,,,,,,,2025-02-03,1,,,,,リマコンサルティング,0
2493,5012801023719,新規,0,2025-02-03,2025-02-03,ＡＶＯ　Ｔｕｒｂｏｗｏｒｌｄ　Ｊａｐａｎ株式会社,,株式会社,東京都,昭島市,武蔵野２丁目１３番１３号,,13,207,1960021,,,,,,,2025-02-03,1,,,,,エーブイオーターボワールドジャパン,0
2509,5020001161082,新規,0,2025-02-03,2025-02-03,株式会社Ａ‐１ＣＲＡＦＴ,,株式会社,神奈川県,横浜市緑区,長津田みなみ台５丁目２２番地２スフマート２０２号,,14,113,2260018,,,,,,,2025-02-03,1,,,,,エイワンクラフト,0
2510,5020001161090,新規,0,2025-02-03,2025-02-03,ハウスコンシェルジュ株式会社,,株式会社,神奈川県,横浜市中区,簑沢１３－１８１,,14,104,2310856,,,,,,,2025-02-03,1,,,,,ハウスコンシェルジュ,0
2511,5020001161157,新規,0,2025-02-03,2025-02-03,株式会社Ａｉｍｅｒｉｓ,,株式会社,神奈川県,川崎市高津区,新作６丁目２番６７号ソレムＩＶＤＣ２０３,00137867,14,134,2130014,,,,,,,2025-02-03,1,,,,,エメリス,0
2512,5020001161223,新規,0,2025-02-03,2025-02-03,株式会社ＣｅｅＧｌａｓｓ,,株式会社,神奈川県,川崎市中原区,上平間１４０２番地２３,,14,133,2110013,,,,,,,2025-02-03,1,,,,,シーグラス,0
2520,5020003027661,新規,0,2025-02-03,2025-02-03,合同会社ＢＲＥＡＫ　ＦＲＥＥ,,合同会社,神奈川県,横浜市港南区,上大岡西１丁目１５番１号,,14,111,2330002,,,,,,,2025-02-03,1,,,,,ブレイクフリー,0
2523,5021001084372,新規,0,2025-02-03,2025-02-03,ＡＳＡＫＡＷＡ株式会社,,株式会社,神奈川県,小田原市,荻窪２６３番地の７,,14,206,2500042,,,,,,,2025-02-03,1,,,,,アサカワ,0
2524,5021003015540,新規,0,2025-02-03,2025-02-03,合同会社いやさかソレイユ,,合同会社,神奈川県,相模原市南区,当麻８４１－２４,,14,153,2520336,,,,,,,2025-02-03,1,,,,,イヤサカソレイユ,0
2529,5030001164670,新規,0,2025-02-03,2025-02-03,株式会社フルフィリング,,株式会社,埼玉県,越谷市,大字南荻島３８番地１７,,11,222,3430804,,,,,,,2025-02-03,1,,,,,フルフィリング,0
2530,5030001164679,新規,0,2025-02-03,2025-02-03,株式会社ＭＵＵＤＯ,,株式会社,埼玉県,蕨市,錦町１丁目１４番３号レジデンスヒルズ３０１号,,11,223,3350005,,,,,,,2025-02-03,1,,,,,ムード,0
2531,5030001164695,新規,0,2025-02-03,2025-02-03,株式会社アイエーエム,,株式会社,埼玉県,さいたま市中央区,上落合２丁目６番１－２６０５号,,11,105,3380001,,,,,,,2025-02-03,1,,,,,アイエーエム,0
2532,5030001164712,新規,0,2025-02-03,2025-02-03,株式会社ｓｏｕｔｈ,,株式会社,埼玉県,川口市,大字安行原１７８８番地の３,,11,203,3340057,,,,,,,2025-02-03,1,,,,,サウス,0
2536,5030003026002,新規,0,2025-02-03,2025-02-03,Ｃｏｏｌ　Ｓｔｏｒｅ　ＳＭＴ合同会社,,合同会社,埼玉県,入間市,豊岡１丁目３番２５号半田ビル２階ＫＩＶオフィス入間Ｆ号室,,11,225,3580003,,,,,,,2025-02-03,1,,,,,クールストアエスエムティー,0
2919,5040001137221,新規,0,2025-02-03,2025-02-03,株式会社ＴＡＴＥＮＯ,,株式会社,千葉県,我孫子市,都２１番地の３（１号）緑荘,,12,222,2701102,,,,,,,2025-02-03,1,,,,,タテノ,0
2958,5060001037881,新規,0,2025-02-03,2025-02-03,株式会社アミータ,,株式会社,栃木県,足利市,上渋垂町９３６番地,,09,202,3260335,,,,,,,2025-02-03,1,,,,,アミータ,0
2960,5060003005408,新規,0,2025-02-03,2025-02-03,ＡＪＫ　ＴＲＡＤＩＮＧ合同会社,,合同会社,栃木県,栃木市,岩船町新里１３０４番地１号室,,09,203,3280000,,,,,,,2025-02-03,1,,,,,エジェケトレーディング,0
2963,5070001042600,新規,0,2025-02-03,2025-02-03,株式会社ヤマトサイン,,株式会社,群馬県,高崎市,上里見町８４８番地１,,10,202,3703345,,,,,,,2025-02-03,1,,,,,ヤマトサイン,0
2966,5080001026742,新規,0,2025-02-03,2025-02-03,株式会社パノラマアイル,,株式会社,静岡県,静岡市葵区,常磐町１丁目７番地の８、１１０１号室,,22,101,4200034,,,,,,,2025-02-03,1,,,,,パノラマアイル,0
2971,5090001019118,新規,0,2025-02-03,2025-02-03,株式会社富士トマ,,株式会社,山梨県,富士吉田市,小明見５丁目２番１号,,19,202,4030002,,,,,,,2025-02-03,1,,,,,フジトマ,0
2990,5120001272456,新規,0,2025-02-03,2025-02-03,映澤商事株式会社,,株式会社,大阪府,大阪市中央区,安土町１丁目４番５号本町ビル３Ｆ１０,,27,128,5410052,,,,,,,2025-02-03,1,,,,,エイザワショウジ,0
2991,5120001272506,新規,0,2025-02-03,2025-02-03,株式会社嵐新,,株式会社,大阪府,大阪市平野区,喜連東５丁目１４番２４号１ＦＢ座,,27,126,5470021,,,,,,,2025-02-03,1,,,,,ランシン,0
2995,5120003028526,新規,0,2025-02-03,2025-02-03,合同会社みろく３６９,,合同会社,大阪府,大阪市都島区,東野田町４丁目２番２２－３０４,,27,102,5340024,,,,,,,2025-02-03,1,,,,,ミロクサンロクキュウ,0
3012,5130001078919,新規,0,2025-02-03,2025-02-03,日生資産管理株式会社,,株式会社,京都府,京都市北区,鷹峯木ノ畑町７７番地１,,26,101,6038447,,,,,,,2025-02-03,1,,,,,ニッセイシサンカンリ,0
3026,5180001165175,新規,0,2025-02-03,2025-02-03,株式会社Ｔｅｄ,,株式会社,愛知県,名古屋市中区,栄５丁目７番１６号リヴシティ栄１２０６号,,23,106,4600008,,,,,,,2025-02-03,1,,,,,テッド,0
3027,5180001165282,新規,0,2025-02-03,2025-02-03,セントラルエステート株式会社,,株式会社,愛知県,犬山市,大字犬山字東古券２８０番地２５,,23,215,4840083,,,,,,,2025-02-03,1,,,,,セントラルエステート,0
3038,5200005013716,新規,0,2025-02-03,2025-02-03,一般社団法人岐阜華文教育協会,,その他の設立登記法人,岐阜県,岐阜市,曙町２丁目８番地２,,21,201,5008148,,,,,,,2025-02-03,1,,,,,ギフカモンキョウイクキョウカイ,0
3041,5220001026471,新規,0,2025-02-03,2025-02-03,株式会社ＮＹホーム,,株式会社,石川県,金沢市,本江町１番１号,,17,201,9218012,,,,,,,2025-02-03,1,,,,,エヌワイホーム,0
3046,5260001039866,新規,0,2025-02-03,2025-02-03,株式会社タスクエール,,株式会社,岡山県,倉敷市,美和１丁目２番４号,,33,202,7100052,,,,,,,2025-02-03,1,,,,,タスクエール,0
3047,5260003005049,新規,0,2025-02-03,2025-02-03,合同会社Ｔｒｉｐｌｅ　Ｍ,,合同会社,岡山県,倉敷市,徳芳７５１番地,,33,202,7100011,,,,,,,2025-02-03,1,,,,,トリプルエム,0
3049,5270001009141,新規,0,2025-02-03,2025-02-03,株式会社小林園芸,,株式会社,鳥取県,米子市,福市１７１４番地１,,31,202,6830011,,,,,,,2025-02-03,1,,,,,コバヤシエンゲイ,0
3054,5290001108759,新規,0,2025-02-03,2025-02-03,株式会社ラプラス,,株式会社,福岡県,糸島市,二丈上深江９６１番地１,,40,230,8191621,,,,,,,2025-02-03,1,,,,,ラプラス,0
3055,5290001108783,新規,0,2025-02-03,2025-02-03,株式会社フランクリン,,株式会社,福岡県,糟屋郡粕屋町,仲原２丁目５－３１,,40,349,8112304,,,,,,,2025-02-03,1,,,,,フランクリン,0
3056,5290001108791,新規,0,2025-02-03,2025-02-03,株式会社ＤＴＨ２,,株式会社,福岡県,福岡市早良区,重留４丁目３番３６号,,40,137,8111101,,,,,,,2025-02-03,1,,,,,ディティエイチトゥ,0
3057,5290001108800,新規,0,2025-02-03,2025-02-03,株式会社ミマタ,,株式会社,福岡県,福岡市南区,清水３丁目２５番２１－１００１号,,40,134,8150031,,,,,,,2025-02-03,1,,,,,ミマタ,0
3058,5290001108841,新規,0,2025-02-03,2025-02-03,株式会社ユナイトシナジー,,株式会社,福岡県,飯塚市,新立岩６番３１号,,40,205,8200004,,,,,,,2025-02-03,1,,,,,ユナイトシナジー,0
3060,5290003016349,新規,0,2025-02-03,2025-02-03,合同会社Ｑ,,合同会社,福岡県,糸島市,多久４１８番７,,40,230,8191134,,,,,,,2025-02-03,1,,,,,キュー,0
3061,5290801031243,新規,0,2025-02-03,2025-02-03,株式会社ＮＥＯ　ＨＯＰＥ,,株式会社,福岡県,北九州市八幡西区,上の原２丁目２番１７－１０１号,,40,109,8070071,,,,,,,2025-02-03,1,,,,,ネオホープ,0
3063,5330001032855,新規,0,2025-02-03,2025-02-03,株式会社Ｅ．Ｉ．Ｋ,,株式会社,熊本県,熊本市中央区,水前寺１丁目１５番２号３Ｆ,,43,101,8620950,,,,,,,2025-02-03,1,,,,,イーアイケイ,0
3064,5340001027103,新規,0,2025-02-03,2025-02-03,株式会社光企画,,株式会社,鹿児島県,鹿屋市,大浦町１４０４２番地４,,46,203,8930067,,,,,,,2025-02-03,1,,,,,ヒカリキカク,0
3065,5340003004736,新規,0,2025-02-03,2025-02-03,合同会社エムタス,,合同会社,鹿児島県,鹿児島市,中山２丁目１３－５－３,,46,201,8910108,,,,,,,2025-02-03,1,,,,,エムタス,0
3066,5350005006283,新規,0,2025-02-03,2025-02-03,医療法人シゲシロ歯科医院,,その他の設立登記法人,宮崎県,都城市,早鈴町１１街区１８号,,45,202,8850055,,,,,,,2025-02-03,1,,,,,シゲシロシカイイン,0
3067,5360001034733,新規,0,2025-02-03,2025-02-03,株式会社サンミュージックオキナワ,,株式会社,沖縄県,那覇市,牧志３丁目９番１１号嘉数ビル１０１,,47,201,9000013,,,,,,,2025-02-03,1,,,,,サンミュージックオキナワ,0
3068,5360001034741,新規,0,2025-02-03,2025-02-03,株式会社Ｔｅｓｔｒａ,,株式会社,沖縄県,那覇市,牧志２丁目１７－２７－４０１,,47,201,9000013,,,,,,,2025-02-03,1,,,,,テストラ,0
3072,5370001052197,新規,0,2025-02-03,2025-02-03,株式会社Ｓ．ＴＩＬＥ,,株式会社,宮城県,仙台市青葉区,錦ケ丘４丁目１４番地の５,,04,101,9893123,,,,,,,2025-02-03,1,,,,,エスタイル,0
3075,5390005009101,新規,0,2025-02-03,2025-02-03,特定非営利活動法人こ家プロジェクト,,その他の設立登記法人,山形県,酒田市,日吉町２丁目５番２８号,,06,204,9980037,,,,,,,2025-02-03,1,,,,,コヤプロジェクト,0
3076,5400001016933,新規,0,2025-02-03,2025-02-03,株式会社ミズサキノート,,株式会社,岩手県,奥州市,江刺稲瀬字水先５９５番地２,,03,215,0231132,,,,,,,2025-02-03,1,,,,,ミズサキノート,0
3079,5410003004043,新規,0,2025-02-03,2025-02-03,合同会社西木清掃,,合同会社,秋田県,仙北市,西木町上荒井字古堀田１７６番地,,05,215,0140512,,,,,,,2025-02-03,1,,,,,ニシキセイソウ,0
3082,5420001019001,新規,0,2025-02-03,2025-02-03,株式会社ウィンズ,,株式会社,青森県,八戸市,大字新井田字館下１９番地６,,02,203,0310813,,,,,,,2025-02-03,1,,,,,ウィンズ,0
3088,5430001093598,新規,0,2025-02-03,2025-02-03,株式会社ミライフ,,株式会社,北海道,札幌市豊平区,平岸一条１０丁目４番３０号,,01,105,0620931,,,,,,,2025-02-03,1,,,,,ミライフ,0
3089,5430005015144,新規,0,2025-02-03,2025-02-03,特定非営利活動法人留寿都村総合型クラブ‐Ｒｕｓｕｔｓｕ　Ｕｎｉｔｅｄ‐,,その他の設立登記法人,北海道,虻田郡留寿都村,字留寿都１７９番地１,,01,397,0481731,,,,,,,2025-02-03,1,,,,,ルスツムラソウゴウガタクラブルスツユナイテッド,0
3103,6010001251890,新規,0,2025-02-03,2025-02-03,株式会社商環堂,,株式会社,東京都,中央区,日本橋２丁目１番３号アーバンネット日本橋二丁目ビル１０階,,13,102,1030027,,,,,,,2025-02-03,1,,,,,ショウカンドウ,0
3104,6010001251916,新規,0,2025-02-03,2025-02-03,株式会社ＫｒａｙＮｏｔｅ,,株式会社,東京都,千代田区,神田和泉町１番地６－１６ヤマトビル４０５,,13,101,1010024,,,,,,,2025-02-03,1,,,,,クライノート,0
3105,6010001251924,新規,0,2025-02-03,2025-02-03,株式会社ＫＵＳＨＩＤＡ　ＥＱＵＩＴＹ,,株式会社,東京都,中央区,銀座７丁目２番１４号第２６ポールスタービルＢ１階,,13,102,1040061,,,,,,,2025-02-03,1,,,,,クシダエクイティー,0
3106,6010001251932,新規,0,2025-02-03,2025-02-03,株式会社ＯＳＩＥ,,株式会社,東京都,中央区,銀座１丁目１２番４号Ｎ＆ＥＢＬＤ．６Ｆ,,13,102,1040061,,,,,,,2025-02-03,1,,,,,オシエ,0
3107,6010001251949,新規,0,2025-02-03,2025-02-03,株式会社Ｅｔｏｉｌｅ,,株式会社,東京都,中央区,銀座７丁目７番６号アスタープラザビルディング２階５号室,,13,102,1040061,,,,,,,2025-02-03,1,,,,,エトワール,0
3108,6010001251957,新規,0,2025-02-03,2025-02-03,番町ホールディングス株式会社,,株式会社,東京都,千代田区,二番町１番地２,,13,101,1020084,,,,,,,2025-02-03,1,,,,,バンチョウホールディングス,0
3111,6010003046281,新規,0,2025-02-03,2025-02-03,グローイングスマイル合同会社,,合同会社,東京都,中央区,銀座１丁目２２番１１号銀座大竹ビジデンス２Ｆ,,13,102,1040061,,,,,,,2025-02-03,1,,,,,グローイングスマイル,0
3115,6010401187801,新規,0,2025-02-03,2025-02-03,株式会社ＶＩＬＬＩＯＮ,,株式会社,東京都,港区,高輪１丁目４番３号レキシントンスクエア白金高輪１１０２,,13,103,1080074,,,,,,,2025-02-03,1,,,,,ヴィリオン,0
3118,6010403034217,新規,0,2025-02-03,2025-02-03,合同会社ｒｅｃｉｐｅ,,合同会社,東京都,港区,南青山３丁目１番３６号青山丸竹ビル６Ｆ,,13,103,1070062,,,,,,,2025-02-03,1,,,,,レシピ,0
3119,6010403034241,新規,0,2025-02-03,2025-02-03,マルゴー合同会社,,合同会社,東京都,港区,高輪１丁目２７－３７－５０７,,13,103,1080074,,,,,,,2025-02-03,1,,,,,マルゴー,0
3137,6011001167359,新規,0,2025-02-03,2025-02-03,安吉株式会社,,株式会社,東京都,渋谷区,富ヶ谷１丁目１４番１４号３階,,13,113,1510063,,,,,,,2025-02-03,1,,,,,ヤスヨシ,0
3138,6011001167391,新規,0,2025-02-03,2025-02-03,株式会社Ｃｏｅｒａ,,株式会社,東京都,渋谷区,渋谷２丁目１９－１５宮益坂ビルディング６０９,,13,113,1500002,,,,,,,2025-02-03,1,,,,,コエラ,0
3139,6011001167417,新規,0,2025-02-03,2025-02-03,ＹＮＨ株式会社,,株式会社,東京都,渋谷区,渋谷１丁目１番７号セントラル渋谷２４６、６０２号室,,13,113,1500002,,,,,,,2025-02-03,1,,,,,ワイエヌエイチ,0
3140,6011001167425,新規,0,2025-02-03,2025-02-03,株式会社ＡＮＹＺ,,株式会社,東京都,渋谷区,神南１丁目１１番４号ＦＰＧリンクス神南５階,,13,113,1500041,,,,,,,2025-02-03,1,,,,,エニーズ,0
3141,6011001167441,新規,0,2025-02-03,2025-02-03,株式会社ＩＮＳ,,株式会社,東京都,渋谷区,神宮前６丁目１９番１３号,,13,113,1500001,,,,,,,2025-02-03,1,,,,,アイエヌエス,0
3142,6011001167458,新規,0,2025-02-03,2025-02-03,アイワーカー株式会社,,株式会社,東京都,渋谷区,渋谷２丁目１９－１５宮益坂ビルディング６０９,,13,113,1500002,,,,,,,2025-02-03,1,,,,,アイワーカー,0
3143,6011001167532,新規,0,2025-02-03,2025-02-03,脈康株式会社,,株式会社,東京都,渋谷区,笹塚１丁目６１番８号ホテルブーゲンビリア新宿３１６号室,,13,113,1510073,,,,,,,2025-02-03,1,,,,,ミャッコウ,0
3144,6011003020838,新規,0,2025-02-03,2025-02-03,合同会社ホビーコネクト,,合同会社,東京都,渋谷区,神南１丁目１１－４ＦＰＧリンクス神南５階,,13,113,1500041,,,,,,,2025-02-03,1,,,,,ホビーコネクト,0
3145,6011003020846,新規,0,2025-02-03,2025-02-03,合同会社ルミエル,,合同会社,東京都,渋谷区,渋谷２丁目１９－１５宮益坂ビルディング６０９,,13,113,1500002,,,,,,,2025-02-03,1,,,,,ルミエル,0
3146,6011003020862,新規,0,2025-02-03,2025-02-03,合同会社ＮｅＲｉＮｅ,,合同会社,東京都,目黒区,下目黒２丁目２０番２６号,,13,110,1530064,,,,,,,2025-02-03,1,,,,,ネリネ,0
3147,6011003020870,新規,0,2025-02-03,2025-02-03,合同会社Ｒｅａｌｉｓｍａ,,合同会社,東京都,渋谷区,東２丁目１５－２ｔｒｉａｓ２１４－５０２,,13,113,1500011,,,,,,,2025-02-03,1,,,,,リアリズマ,0
3148,6011003020895,新規,0,2025-02-03,2025-02-03,ムーンロード合同会社,,合同会社,東京都,渋谷区,神宮前５丁目３６－１３,,13,113,1500001,,,,,,,2025-02-03,1,,,,,ムーンロード,0
3155,6011101110482,新規,0,2025-02-03,2025-02-03,株式会社ＩｎｔｅｇｒｉＣｏ,,株式会社,東京都,新宿区,西新宿３丁目３番１３号西新宿水間ビル６階,,13,104,1600023,,,,,,,2025-02-03,1,,,,,インテグリコ,0
3156,6011101110490,新規,0,2025-02-03,2025-02-03,ＧＢ株式会社,,株式会社,東京都,新宿区,百人町２丁目１６番２１アネックスＧＴＭ１０５号室,,13,104,1690073,,,,,,,2025-02-03,1,,,,,ジービー,0
3161,6011403004606,新規,0,2025-02-03,2025-02-03,ＳＳトレーダー合同会社,,合同会社,東京都,板橋区,高島平７丁目１９番１２－４０１号高島平ローヤルコーポ,,13,119,1750082,,,,,,,2025-02-03,1,,,,,エスエストレーダー,0
3165,6011801045540,新規,0,2025-02-03,2025-02-03,ＴＬＬ株式会社,,株式会社,東京都,足立区,千住河原町２７－８ＭｅｌｄｉａＲｅｓｉｄｅｎｔｉａｌ北千住１０３－Ｅ号室,,13,121,1200037,,,,,,,2025-02-03,1,,,,,ティーエルエル,0
3167,6012303002105,新規,0,2025-02-03,2025-02-03,合同会社ニュートリアガベ・アジア,,合同会社,東京都,町田市,つくし野４丁目１８番地４,,13,209,1940001,,,,,,,2025-02-03,1,,,,,ニュートリアガベアジア,0
3170,6012403006947,新規,0,2025-02-03,2025-02-03,合同会社クローバー,,合同会社,東京都,調布市,染地３丁目１番地７１多摩川住宅ト５－５０４号,,13,208,1820023,,,,,,,2025-02-03,1,,,,,クローバー,0
3178,6013301053726,新規,0,2025-02-03,2025-02-03,一然株式会社,,株式会社,東京都,豊島区,西巣鴨２丁目６－１２－５０７室,,13,116,1700001,,,,,,,2025-02-03,1,,,,,イチゼン,0
3179,6013301053742,新規,0,2025-02-03,2025-02-03,株式会社ロイズフードクリエイション,,株式会社,東京都,豊島区,池袋２丁目４８番１号信友山の手池袋ビル８階－Ｂ,,13,116,1710014,,,,,,,2025-02-03,1,,,,,ロイズフードクリエイション,0
3180,6013303007523,新規,0,2025-02-03,2025-02-03,合同会社ＨＯＰＥ,,合同会社,東京都,豊島区,池袋３丁目３４番７号ビジネスパーク池袋２階,,13,116,1710014,,,,,,,2025-02-03,1,,,,,ホープ,0
3186,6020001161156,新規,0,2025-02-03,2025-02-03,株式会社ＷｅｅＳＴＹＬＥ,,株式会社,神奈川県,川崎市宮前区,土橋２丁目８番地３,,14,136,2160005,,,,,,,2025-02-03,1,,,,,ウィースタイル,0
3187,6020001161164,新規,0,2025-02-03,2025-02-03,株式会社Ｏｎｅ　Ｗｉｓｈ,,株式会社,神奈川県,川崎市川崎区,小川町２番地１１,,14,131,2100023,,,,,,,2025-02-03,1,,,,,ワンウィッシュ,0
3188,6020001161214,新規,0,2025-02-03,2025-02-03,株式会社フルスペクトル,,株式会社,神奈川県,横浜市旭区,東希望が丘１７９番地２２,,14,112,2410826,,,,,,,2025-02-03,1,,,,,フルスペクトル,0
3195,6020003027636,新規,0,2025-02-03,2025-02-03,ＤＬ　ＴＥＣＨ合同会社,,合同会社,神奈川県,横浜市鶴見区,尻手３丁目７番２３号加藤運送アパートメント７号室,,14,101,2300003,,,,,,,2025-02-03,1,,,,,ディーエルテック,0
3196,6020003027669,新規,0,2025-02-03,2025-02-03,合同会社ＥＩＴＭ,,合同会社,神奈川県,川崎市多摩区,生田７丁目２７番４号,,14,135,2140038,,,,,,,2025-02-03,1,,,,,エイタム,0
3197,6020003027685,新規,0,2025-02-03,2025-02-03,合同会社京浜防災建設,,合同会社,神奈川県,横浜市西区,みなとみらい２丁目２番１号横浜ランドマークタワー２０Ｆ,,14,103,2200012,,,,,,,2025-02-03,1,,,,,ケイヒンボウサイケンセツ,0
3205,6030001164694,新規,0,2025-02-03,2025-02-03,株式会社愛奈物流,,株式会社,埼玉県,川越市,神明町３１番地２０,,11,201,3500823,,,,,,,2025-02-03,1,,,,,アイナブツリュウ,0
3206,6030001164711,新規,0,2025-02-03,2025-02-03,ＭｉｒａｉＴｈｉｎｋ株式会社,,株式会社,埼玉県,三郷市,谷口９１番地１８,,11,237,3410042,,,,,,,2025-02-03,1,,,,,ミライシンク,0
3210,6030003026001,新規,0,2025-02-03,2025-02-03,合同会社ＡＫＡＲＡＮ,,合同会社,埼玉県,さいたま市北区,本郷町６２９番地,,11,102,3310802,,,,,,,2025-02-03,1,,,,,アカラン,0
3601,6040001137245,新規,0,2025-02-03,2025-02-03,株式会社ＩＷＡＤＥＮ,,株式会社,千葉県,八千代市,緑が丘西５丁目１５番地７,,12,221,2760040,,,,,,,2025-02-03,1,,,,,イワデン,0
3602,6040001137253,新規,0,2025-02-03,2025-02-03,株式会社丁,,株式会社,千葉県,市川市,稲荷木２丁目１７番２２号,,12,203,2720024,,,,,,,2025-02-03,1,,,,,ヒノト,0
3634,6050003008988,新規,0,2025-02-03,2025-02-03,合同会社楽之者,,合同会社,茨城県,つくば市,東新井３番地４ＴＯＳビルＩＶ４階,00137859,08,220,3050033,,,,,,,2025-02-03,1,,,,,ラクノシャ,0
3640,6060005010289,新規,0,2025-02-03,2025-02-03,農事組合法人Ｄ２１,,その他の設立登記法人,栃木県,宇都宮市,南大通り１丁目８－１４シティハイツ８０２,,09,201,3210963,,,,,,,2025-02-03,1,,,,,ディニイチ,0
3642,6080005007671,新規,0,2025-02-03,2025-02-03,一般社団法人どんぐり,,その他の設立登記法人,静岡県,静岡市駿河区,池田９０１番地の４,,22,102,4228005,,,,,,,2025-02-03,1,,,,,ドングリ,0
3654,6120001272364,新規,0,2025-02-03,2025-02-03,銘岩株式会社,,株式会社,大阪府,大阪市都島区,東野田町４丁目１－５吉升ビル３０７号,,27,102,5340024,,,,,,,2025-02-03,1,,,,,メイガン,0
3655,6120001272372,新規,0,2025-02-03,2025-02-03,株式会社ＥＳＳ,,株式会社,大阪府,大阪市西区,千代崎１丁目２７番１０号,,27,106,5500023,,,,,,,2025-02-03,1,,,,,イーエスエス,0
3656,6120001272397,新規,0,2025-02-03,2025-02-03,株式会社Ｍｉｃｙａ,,株式会社,大阪府,大阪市阿倍野区,阿倍野筋４丁目１８番４－２０２号,,27,119,5450052,,,,,,,2025-02-03,1,,,,,ミキャ,0
3657,6120001272414,新規,0,2025-02-03,2025-02-03,株式会社喜楽,,株式会社,大阪府,大阪市中央区,南船場４丁目６番２２号心斎橋ＭＳビル３０２号室,,27,128,5420081,,,,,,,2025-02-03,1,,,,,キラク,0
3658,6120001272439,新規,0,2025-02-03,2025-02-03,ＬＡＬ株式会社,,株式会社,大阪府,大阪市住之江区,御崎４丁目１１番１０－５０２号,,27,125,5590013,,,,,,,2025-02-03,1,,,,,エルエーエル,0
3659,6120001272447,新規,0,2025-02-03,2025-02-03,オーズラボ株式会社,,株式会社,大阪府,大阪市北区,梅田１丁目１３－１,,27,127,5300001,,,,,,,2025-02-03,1,,,,,オーズラボ,0
3660,6120001272471,新規,0,2025-02-03,2025-02-03,ノアトレンズ株式会社,,株式会社,大阪府,大阪市中央区,南船場１丁目３番１４号,,27,128,5420081,,,,,,,2025-02-03,1,,,,,ノアトレンズ,0
3661,6120001272496,新規,0,2025-02-03,2025-02-03,株式会社帝国,,株式会社,大阪府,大阪市北区,西天満４丁目３番１１号,,27,127,5300047,,,,,,,2025-02-03,1,,,,,テイコク,0
3662,6120001272513,新規,0,2025-02-03,2025-02-03,エーケークリエイト株式会社,,株式会社,大阪府,大阪市東成区,大今里南２丁目７番４号,,27,115,5370013,,,,,,,2025-02-03,1,,,,,エーケークリエイト,0
3663,6120001272538,新規,0,2025-02-03,2025-02-03,株式会社ＡＢＡＢ,,株式会社,大阪府,大阪市北区,曾根崎新地１丁目１１番２４号ジェイ・プライド北新地ビル４０２号室,,27,127,5300002,,,,,,,2025-02-03,1,,,,,エービーエービー,0
3667,6120003028509,新規,0,2025-02-03,2025-02-03,合同会社黒豹,,合同会社,大阪府,大阪市浪速区,桜川１丁目６番２５－１２０２号,,27,111,5560022,,,,,,,2025-02-03,1,,,,,クロヒョウ,0
3668,6120101070998,新規,0,2025-02-03,2025-02-03,株式会社ソラノ,,株式会社,大阪府,堺市東区,北野田１４５番地７,,27,143,5998123,,,,,,,2025-02-03,1,,,,,ソラノ,0
3669,6120103006265,新規,0,2025-02-03,2025-02-03,合同会社うずまき,,合同会社,大阪府,泉佐野市,南中安松６８２番地の１クールメゾンＫ＆Ｙ２０３,,27,213,5980033,,,,,,,2025-02-03,1,,,,,ウズマキ,0
3670,6120901050373,新規,0,2025-02-03,2025-02-03,株式会社ＳＬコーポレーション,,株式会社,大阪府,茨木市,横江１丁目１７番６号,,27,211,5670865,,,,,,,2025-02-03,1,,,,,エスエルコーポレーション,0
3671,6120903005532,新規,0,2025-02-03,2025-02-03,合同会社ｓｏ’ｔｅｒｒａ,,合同会社,大阪府,吹田市,藤白台５丁目７番７１－８１０号,,27,205,5650873,,,,,,,2025-02-03,1,,,,,ソテラ,0
3673,6140005027366,新規,0,2025-02-03,2025-02-03,特定非営利活動法人ＡＬＰＡＣＡ,,その他の設立登記法人,兵庫県,神戸市東灘区,甲南町４丁目４番１号３Ａ号,,28,101,6580084,,,,,,,2025-02-03,1,,,,,,0
3677,6160001026519,新規,0,2025-02-03,2025-02-03,株式会社アスタリスク,,株式会社,滋賀県,守山市,金森町８６９番地２ＲＯＯＴ２Ｆ,,25,207,5240045,,,,,,,2025-02-03,1,,,,,アスタリスク,0
3685,6180001165216,新規,0,2025-02-03,2025-02-03,株式会社Ｌｕｍｏｓ,,株式会社,愛知県,長久手市,蟹原１２０４番地,,23,238,4801142,,,,,,,2025-02-03,1,,,,,ルーモス,0
3690,6180005020937,新規,0,2025-02-03,2025-02-03,特定非営利活動法人陽耀,,その他の設立登記法人,愛知県,春日井市,勝川町６丁目１２３番地,,23,206,4860945,,,,,,,2025-02-03,1,,,,,ヨウヨウ,0
3695,6210003001885,新規,0,2025-02-03,2025-02-03,甲府南ＩＣプロジェクト合同会社,,合同会社,福井県,福井市,花堂南１丁目５番１６号,,18,201,9188015,,,,,,,2025-02-03,1,,,,,コウフミナミアイシープロジェクト,0
3696,6230001020729,新規,0,2025-02-03,2025-02-03,株式会社カーネット,,株式会社,富山県,富山市,上冨居２丁目１８番３号,,16,201,9300835,,,,,,,2025-02-03,1,,,,,カーネット,0
3698,6240003007046,新規,0,2025-02-03,2025-02-03,合同会社清海広告,,合同会社,広島県,広島市中区,千田町３丁目６－９－５０４,,34,101,7300052,,,,,,,2025-02-03,1,,,,,セイカイコウコク,0
3700,6260001039865,新規,0,2025-02-03,2025-02-03,株式会社Ｏｚ,,株式会社,岡山県,倉敷市,平田４７－３－６０５,,33,202,7100003,,,,,,,2025-02-03,1,,,,,オーズ,0
3712,6290001108766,新規,0,2025-02-03,2025-02-03,株式会社Ｒａｐｐｏｒｔｓ,,株式会社,福岡県,福岡市南区,向野２丁目９番１１号大橋パークホームズ５０１号,,40,134,8150035,,,,,,,2025-02-03,1,,,,,ラポール,0
3713,6290001108774,新規,0,2025-02-03,2025-02-03,株式会社みのり,,株式会社,福岡県,八女市,高塚２４８番地１,,40,210,8340034,,,,,,,2025-02-03,1,,,,,ミノリ,0
3714,6290001108782,新規,0,2025-02-03,2025-02-03,ＡＸＩＡ株式会社,,株式会社,福岡県,福岡市東区,下原１丁目１４番２－１０１号,,40,131,8130002,,,,,,,2025-02-03,1,,,,,アクシア,0
3715,6290001108799,新規,0,2025-02-03,2025-02-03,株式会社タケシタホールディングス,,株式会社,福岡県,三潴郡大木町,大字大藪８７１番地,,40,522,8300423,,,,,,,2025-02-03,1,,,,,タケシタホールディングス,0
3716,6290001108808,新規,0,2025-02-03,2025-02-03,株式会社ＦＯＲＣＥ,,株式会社,福岡県,福岡市西区,拾六町２丁目１４番３４号,,40,135,8190041,,,,,,,2025-02-03,1,,,,,フォルス,0
3718,6290005019638,新規,0,2025-02-03,2025-02-03,医療法人なかなみ泌尿器科,,その他の設立登記法人,福岡県,久留米市,長門石３丁目６番２８号,,40,203,8300027,,,,,,,2025-02-03,1,,,,,ナカナミヒニョウキカ,0
3723,6340001027102,新規,0,2025-02-03,2025-02-03,株式会社ＺＩＦＩＳＨ,,株式会社,鹿児島県,鹿児島市,武１丁目２－１０ＪＲ鹿児島中央ビル４Ｆ,,46,201,8900045,,,,,,,2025-02-03,1,,,,,ジフィッシュ,0
3725,6340003004735,新規,0,2025-02-03,2025-02-03,合同会社昌建,,合同会社,鹿児島県,薩摩川内市,樋脇町市比野４５６１－２西和コーポ２０３,,46,215,8951203,,,,,,,2025-02-03,1,,,,,ショウケン,0
3730,6390003002346,新規,0,2025-02-03,2025-02-03,合同会社緑盛社,,合同会社,山形県,米沢市,徳町５番２５－２号,,06,202,9920047,,,,,,,2025-02-03,1,,,,,リョクセイシャ,0
3737,6430001093597,新規,0,2025-02-03,2025-02-03,株式会社白老ネイチャーオフィス,,株式会社,北海道,白老郡白老町,若草町１丁目４番１６号,,01,578,0590902,,,,,,,2025-02-03,1,,,,,シラオイネイチャーオフィス,0
3740,6450003002595,新規,0,2025-02-03,2025-02-03,合同会社Ａｌａ‐Ｔｏｏ,,合同会社,北海道,紋別郡西興部村,字上興部６１番地,,01,562,0981421,,,,,,,2025-02-03,1,,,,,アラトォ,0
3741,6470001020564,新規,0,2025-02-03,2025-02-03,株式会社ＴＡＰ,,株式会社,香川県,高松市,西宝町１丁目１７番１０－３０５号,,37,201,7600004,,,,,,,2025-02-03,1,,,,,タップ,0
3747,7010001251758,新規,0,2025-02-03,2025-02-03,ヒトヒカリ人材株式会社,,株式会社,東京都,千代田区,神田淡路町１丁目９番５号６０７号室,,13,101,1010063,,,,,,,2025-02-03,1,,,,,ヒトヒカリジンザイ,0
3748,7010001251948,新規,0,2025-02-03,2025-02-03,優麗科工業株式会社,00137858,株式会社,東京都,中央区,築地５丁目４番１９号,,13,102,1040045,,,,,,,2025-02-03,1,,,,,ユニココウギョウ,0
3749,7010001251956,新規,0,2025-02-03,2025-02-03,株式会社リップルズ,,株式会社,東京都,千代田区,内神田１丁目４－１５新誠ビル４階,,13,101,1010047,,,,,,,2025-02-03,1,,,,,リップルズ,0
3750,7010001251964,新規,0,2025-02-03,2025-02-03,株式会社Ｋコーポレーション,,株式会社,東京都,中央区,銀座１丁目２２番１１号銀座大竹ビジデンス２Ｆ,,13,102,1040061,,,,,,,2025-02-03,1,,,,,ケーコーポレーション,0
3751,7010001251989,新規,0,2025-02-03,2025-02-03,ケンテック株式会社,,株式会社,東京都,千代田区,神田錦町３丁目２１番,,13,101,1010054,,,,,,,2025-02-03,1,,,,,ケンテック,0
3753,7010003046215,新規,0,2025-02-03,2025-02-03,合同会社Ｐｒｉｍｏ,,合同会社,東京都,中央区,銀座１丁目２３番４－３０６号,,13,102,1040061,,,,,,,2025-02-03,1,,,,,プリモ,0
3754,7010003046256,新規,0,2025-02-03,2025-02-03,合同会社ＳＲＡファンド０１,,合同会社,東京都,中央区,日本橋１丁目４番１号,,13,102,1030027,,,,,,,2025-02-03,1,,,,,エスアールエーファンドゼロワン,0
3761,7010401187800,新規,0,2025-02-03,2025-02-03,ＢＵＺＺＦＡＳ株式会社,,株式会社,東京都,港区,六本木６丁目１０－１六本木ヒルズ１６階,,13,103,1060032,,,,,,,2025-02-03,1,,,,,バズファス,0
3762,7010401187841,新規,0,2025-02-03,2025-02-03,エバリンク株式会社,,株式会社,東京都,港区,赤坂２丁目１４番１１号天翔赤坂ビル４０７号室,,13,103,1070052,,,,,,,2025-02-03,1,,,,,エバリンク,0
3763,7010401187866,新規,0,2025-02-03,2025-02-03,株式会社越境社員ドットコム,,株式会社,東京都,港区,高輪１丁目２７番３７－７０５号,,13,103,1080074,,,,,,,2025-02-03,1,,,,,エッキョウシャインドットコム,0
3764,7010401187874,新規,0,2025-02-03,2025-02-03,株式会社Ｔｕｑｕｌ,,株式会社,東京都,港区,南青山３丁目１番３６号青山丸竹ビル６Ｆ,,13,103,1070062,,,,,,,2025-02-03,1,,,,,ツクル,0
3766,7010403034281,新規,0,2025-02-03,2025-02-03,合同会社Ｂｌｕｅ　Ｐｌｕｍｅｒｉａ,,合同会社,東京都,港区,南麻布４丁目９番３４－２０８号,,13,103,1060047,,,,,,,2025-02-03,1,,,,,ブループルメリア,0
3772,7010701047150,新規,0,2025-02-03,2025-02-03,ＲＹＡＮ株式会社,,株式会社,東京都,品川区,上大崎１丁目２０－１Ａ２０３,,13,109,1410021,,,,,,,2025-02-03,1,,,,,ライアン,0
3777,7011001167333,新規,0,2025-02-03,2025-02-03,ナイトてんしょん株式会社,,株式会社,東京都,渋谷区,渋谷２丁目１９－１５宮益坂ビルディング６０９,,13,113,1500002,,,,,,,2025-02-03,1,,,,,ナイトテンション,0
3778,7011001167382,新規,0,2025-02-03,2025-02-03,株式会社食品計画,,株式会社,東京都,渋谷区,道玄坂１丁目１６－６二葉ビル８Ｂ,,13,113,1500043,,,,,,,2025-02-03,1,,,,,ショクヒンケイカク,0
3779,7011001167399,新規,0,2025-02-03,2025-02-03,株式会社Ｍａｉｓｏｎ　Ｔｏｋｙｏ,,株式会社,東京都,渋谷区,代々木５丁目５７番２－３１５号ザ・パークハビオＳＯＨＯ代々木公園,,13,113,1510053,,,,,,,2025-02-03,1,,,,,メゾントウキョウ,0
3780,7011001167408,新規,0,2025-02-03,2025-02-03,ジザイ株式会社,,株式会社,東京都,渋谷区,道玄坂１丁目１０番８号渋谷道玄坂東急ビル２Ｆ－Ｃ,,13,113,1500043,,,,,,,2025-02-03,1,,,,,ジザイ,0
3781,7011001167416,新規,0,2025-02-03,2025-02-03,株式会社ネクセラ,,株式会社,東京都,渋谷区,道玄坂１丁目１０番８号渋谷道玄坂東急ビル２Ｆ－Ｃ,,13,113,1500043,,,,,,,2025-02-03,1,,,,,ネクセラ,0
3782,7011001167449,新規,0,2025-02-03,2025-02-03,株式会社ｂｅｅ　ｐｈＯ２,,株式会社,東京都,渋谷区,広尾５丁目１７番４号,,13,113,1500012,,,,,,,2025-02-03,1,,,,,ビーポース,0
3783,7011001167457,新規,0,2025-02-03,2025-02-03,Ｌｉｎｋｌｅ株式会社,,株式会社,東京都,渋谷区,道玄坂１丁目１２－１渋谷マークシティＷ２２階,,13,113,1500043,,,,,,,2025-02-03,1,,,,,リンクル,0
3784,7011003020829,新規,0,2025-02-03,2025-02-03,合同会社カラーズ,,合同会社,東京都,渋谷区,神泉町２４番１－１３０１号,,13,113,1500045,,,,,,,2025-02-03,1,,,,,カラーズ,0
3785,7011003020845,新規,0,2025-02-03,2025-02-03,ＷＩＳＴＥＲＩＡ　ＣＲＥＡＴＩＯＮ合同会社,,合同会社,東京都,渋谷区,渋谷２丁目１９－１５宮益坂ビルディング６０９,,13,113,1500002,,,,,,,2025-02-03,1,,,,,ウィステリアクリエイション,0
3786,7011003020861,新規,0,2025-02-03,2025-02-03,合同会社ＭＯＮ,,合同会社,東京都,渋谷区,本町４丁目１番１２号コーポつのはずＡ１０３,,13,113,1510071,,,,,,,2025-02-03,1,,,,,エムオーエヌ,0
3787,7011003020911,新規,0,2025-02-03,2025-02-03,ＷＯＶＥＮ合同会社,,合同会社,東京都,渋谷区,神南１丁目１１番４号ＦＰＧリンクス神南５階,,13,113,1500041,,,,,,,2025-02-03,1,,,,,ウォーヴン,0
3797,7011401026782,新規,0,2025-02-03,2025-02-03,青浦株式会社,,株式会社,東京都,板橋区,蓮根２丁目２７番１２号,,13,119,1740046,,,,,,,2025-02-03,1,,,,,セイホ,0
3806,7012303002104,新規,0,2025-02-03,2025-02-03,合同会社ＡＲＫ,,合同会社,東京都,町田市,原町田２丁目２１番２６号アプレ町田サザンコンフォート４０７,,13,209,1940013,,,,,,,2025-02-03,1,,,,,アーク,0
3807,7012801023700,新規,0,2025-02-03,2025-02-03,株式会社ＡＬＬ　ＲＩＧＨＴ,,株式会社,東京都,昭島市,玉川町１丁目１番９号タクミビル４Ｂ,,13,207,1960034,,,,,,,2025-02-03,1,,,,,オールライト,0
3811,7013301053733,新規,0,2025-02-03,2025-02-03,株式会社ラブラドライト,,株式会社,東京都,豊島区,南池袋２丁目１０番３号斎藤ビル４Ｆ,,13,116,1710022,,,,,,,2025-02-03,1,,,,,ラブラドライト,0
3819,7020001161080,新規,0,2025-02-03,2025-02-03,株式会社ＲＥＡＤＹ　ＢＥＡＴＬＥ,,株式会社,神奈川県,横浜市港北区,新横浜３丁目２３番地８－１１０５,,14,109,2220033,,,,,,,2025-02-03,1,,,,,レディビートル,0
3820,7020001161089,新規,0,2025-02-03,2025-02-03,株式会社ＤＥＦＩ,,株式会社,神奈川県,横浜市中区,立野１２番地２,,14,104,2310845,,,,,,,2025-02-03,1,,,,,ディファイ,0
3821,7020001161106,新規,0,2025-02-03,2025-02-03,株式会社木村電機,,株式会社,神奈川県,横浜市栄区,上郷町１２１４番地６８,,14,115,2470013,,,,,,,2025-02-03,1,,,,,キムラデンキ,0
3822,7020001161122,新規,0,2025-02-03,2025-02-03,株式会社Ｌ‐ＦＬＡＴ,,株式会社,神奈川県,横浜市中区,桜木町１丁目１０１番地１クロスゲート７階,,14,104,2310062,,,,,,,2025-02-03,1,,,,,エルフラット,0
3823,7020001161155,新規,0,2025-02-03,2025-02-03,株式会社ＣＨＡＨ,,株式会社,神奈川県,横浜市鶴見区,矢向１丁目１６番３３－２０９号,,14,101,2300001,,,,,,,2025-02-03,1,,,,,シーエイチエーエイチ,0
3824,7020001161196,新規,0,2025-02-03,2025-02-03,株式会社エイシアンスター保証,,株式会社,神奈川県,横浜市西区,高島２丁目６番３２号,,14,103,2200011,,,,,,,2025-02-03,1,,,,,エイシアンスターホショウ,0
3829,7020003027643,新規,0,2025-02-03,2025-02-03,合同会社ベイヨンド,,合同会社,神奈川県,横浜市戸塚区,吉田町９５４番地１２,,14,110,2440817,,,,,,,2025-02-03,1,,,,,ベイヨンド,0
3830,7020003027676,新規,0,2025-02-03,2025-02-03,合同会社実幸宝,,合同会社,神奈川県,横浜市旭区,市沢町１１３０番地１,,14,112,2410014,,,,,,,2025-02-03,1,,,,,ミノリコウポ,0
3834,7021001084354,新規,0,2025-02-03,2025-02-03,ＳＶＡＫＯＭ株式会社,,株式会社,神奈川県,秦野市,南矢名２２２３番地の４東海ビル１１３Ｂ,,14,211,2570003,,,,,,,2025-02-03,1,,,,,スヴァコム,0
3835,7021001084370,新規,0,2025-02-03,2025-02-03,株式会社ＳＵＮ,,株式会社,神奈川県,秦野市,西田原８４番地の７,,14,211,2570027,,,,,,,2025-02-03,1,,,,,サン,0
3836,7021001084379,新規,0,2025-02-03,2025-02-03,ＤＵＮＫ株式会社,,株式会社,神奈川県,相模原市南区,鵜野森３丁目１番１３－２号,,14,153,2520301,,,,,,,2025-02-03,1,,,,,ダンク,0
3840,7021003015530,新規,0,2025-02-03,2025-02-03,合同会社ＭＯＮＯ．,,合同会社,神奈川県,相模原市中央区,清新３丁目１０番６号,,14,152,2520216,,,,,,,2025-02-03,1,,,,,モノドット,0
3841,7021003015539,新規,0,2025-02-03,2025-02-03,オリーブ合同会社,,合同会社,神奈川県,鎌倉市,手広１丁目１５番１０号,,14,204,2480036,,,,,,,2025-02-03,1,,,,,オリーブ,0
3842,7021005013268,新規,0,2025-02-03,2025-02-03,一般社団法人Ｃ’ｓ　Ｐｌａｙｆｕｌ　Ｌｉｎｋ,,その他の設立登記法人,神奈川県,茅ヶ崎市,西久保５７３番地,,14,207,2530083,,,,,,,2025-02-03,1,,,,,シーズプレイフルリンク,0
3850,7030001164660,新規,0,2025-02-03,2025-02-03,株式会社都,,株式会社,埼玉県,加須市,多門寺１０７番地３,,11,210,3470012,,,,,,,2025-02-03,1,,,,,ミヤコ,0
3851,7030001164669,新規,0,2025-02-03,2025-02-03,Ｔｒｉｎｉｔｙ　ｓｔｕｄｙ株式会社,,株式会社,埼玉県,さいたま市南区,沼影１丁目１７番３９－６０７号,,11,108,3360027,,,,,,,2025-02-03,1,,,,,トリニティスタディ,0
3854,7030003026017,新規,0,2025-02-03,2025-02-03,ＡＴＣ合同会社,,合同会社,埼玉県,北本市,本町５丁目４５番地,,11,233,3640033,,,,,,,2025-02-03,1,,,,,エーティーシー,0
4206,7040001137095,新規,0,2025-02-03,2025-02-03,株式会社ＮＥＸＴＲＥＭＥ,,株式会社,千葉県,千葉市美浜区,真砂５丁目１９番４－４０８号,,12,106,2610011,,,,,,,2025-02-03,1,,,,,ネクストリーム,0
4245,7070001042598,新規,0,2025-02-03,2025-02-03,株式会社ベルズ,,株式会社,群馬県,高崎市,宮原町９番地２６,,10,202,3701202,,,,,,,2025-02-03,1,,,,,ベルズ,0
4249,7080101025287,新規,0,2025-02-03,2025-02-03,株式会社ＳＴＨビルド,,株式会社,静岡県,伊東市,玖須美元和田７０２番地の７５北條ハイツＢ２０２号,,22,208,4140045,,,,,,,2025-02-03,1,,,,,エスティーエイチビルド,0
4254,7110001039029,新規,0,2025-02-03,2025-02-03,株式会社星野三五衛門,,株式会社,新潟県,長岡市,摂田屋２丁目１０－３２,,15,202,9401105,,,,,,,2025-02-03,1,,,,,ホシノサンゴエモン,0
4261,7120001272140,新規,0,2025-02-03,2025-02-03,味彩‐ａｊｉｓａｉ株式会社,,株式会社,大阪府,大阪市浪速区,元町１丁目３番１８号,,27,111,5560016,,,,,,,2025-02-03,1,,,,,アジサイ,0
4262,7120001272470,新規,0,2025-02-03,2025-02-03,株式会社ＴＨＲＯＷ,,株式会社,大阪府,大阪市福島区,福島２丁目８番４号,,27,103,5530003,,,,,,,2025-02-03,1,,,,,スロウ,0
4263,7120001272495,新規,0,2025-02-03,2025-02-03,三生株式会社,,株式会社,大阪府,大阪市大正区,平尾２丁目７番６号,,27,108,5510012,,,,,,,2025-02-03,1,,,,,サンセイ,0
4264,7120001272504,新規,0,2025-02-03,2025-02-03,平林工業株式会社,,株式会社,大阪府,大阪市城東区,鴫野東２丁目１９番２－１２７号,,27,118,5360013,,,,,,,2025-02-03,1,,,,,ヒラバヤシコウギョウ,0
4265,7120001272512,新規,0,2025-02-03,2025-02-03,株式会社おひさま,,株式会社,大阪府,門真市,三ツ島４丁目２２番４号シャトーエレガント１０６,,27,223,5710015,,,,,,,2025-02-03,1,,,,,オヒサマ,0
4266,7120001272520,新規,0,2025-02-03,2025-02-03,株式会社ｙｕｓｈａ,,株式会社,大阪府,大阪市西区,北堀江１丁目１４番２３号グランドシーズ心斎橋６０３,,27,106,5500014,,,,,,,2025-02-03,1,,,,,ユーシャ,0
4274,7140001137291,新規,0,2025-02-03,2025-02-03,株式会社バリューサービス＆エンジニアリング,,株式会社,兵庫県,明石市,魚住町清水２１９７番地の１プレミスト明石土山１０４号,,28,203,6740074,,,,,,,2025-02-03,1,,,,,バリューサービスアンドエンジニアリング,0
4276,7170001018480,新規,0,2025-02-03,2025-02-03,株式会社ｃａｅｒｕ,,株式会社,和歌山県,和歌山市,北野１２２番地７,,30,201,6496331,,,,,,,2025-02-03,1,,,,,カエル,0
4288,7180001165289,新規,0,2025-02-03,2025-02-03,株式会社Ｎ’ｓ　ＡＬＬ,,株式会社,愛知県,名古屋市港区,甚兵衛通４丁目２７番地の３,,23,111,4550822,,,,,,,2025-02-03,1,,,,,エヌズオール,0
4294,7180005020936,新規,0,2025-02-03,2025-02-03,一般社団法人ゆうあいワンストップサービス,,その他の設立登記法人,愛知県,名古屋市中村区,太閤１丁目１９番５４号名駅たんばビル,,23,105,4530801,,,,,,,2025-02-03,1,,,,,ユウアイワンストップサービス,0
4297,7210001020044,新規,0,2025-02-03,2025-02-03,勝山デルタパワー株式会社,,株式会社,福井県,勝山市,昭和町１丁目１０番１８号,,18,206,9110802,,,,,,,2025-02-03,1,,,,,カツヤマデルタパワー,0
4303,7250003003638,新規,0,2025-02-03,2025-02-03,Ｈｉｒｏ’ｓ　Ｆａｃｔｏｒｙ合同会社,,合同会社,山口県,下関市,豊浦町大字川棚３８６４番１,,35,201,7596301,,,,,,,2025-02-03,1,,,,,ヒロズファクトリー,0
4304,7260001039864,新規,0,2025-02-03,2025-02-03,株式会社スマイライト,,株式会社,岡山県,岡山市南区,泉田５丁目８－１３,,33,104,7000944,,,,,,,2025-02-03,1,,,,,スマイライト,0
4305,7280001009345,新規,0,2025-02-03,2025-02-03,株式会社ｆａｉｒ,,株式会社,島根県,浜田市,相生町１３９９番地９,,32,202,6970034,,,,,,,2025-02-03,1,,,,,フェア,0
4307,7290001108765,新規,0,2025-02-03,2025-02-03,株式会社サンブリッサ,,株式会社,福岡県,福岡市早良区,東入部８丁目２９番５号,,40,137,8111102,,,,,,,2025-02-03,1,,,,,サンブリッサ,0
4308,7290001108807,新規,0,2025-02-03,2025-02-03,株式会社ハピネス,,株式会社,福岡県,福岡市中央区,清川１丁目７番１３－５０６号,,40,133,8100005,,,,,,,2025-02-03,1,,,,,ハピネス,0
4312,7290801031241,新規,0,2025-02-03,2025-02-03,株式会社ドリームワーク,,株式会社,福岡県,行橋市,南大橋３丁目７番２６号,,40,213,8240032,,,,,,,2025-02-03,1,,,,,ドリームワーク,0
4316,7340001027101,新規,0,2025-02-03,2025-02-03,株式会社エスレジデンス,,株式会社,鹿児島県,鹿児島市,新栄町１９番３号,,46,201,8900072,,,,,,,2025-02-03,1,,,,,エスレジデンス,0
4318,7360005007163,新規,0,2025-02-03,2025-02-03,一般社団法人わかば学童クラブ,,その他の設立登記法人,沖縄県,石垣市,字川平９９２番地,,47,207,9070453,,,,,,,2025-02-03,1,,,,,ワカバガクドウクラブ,0
4331,7450003002594,新規,0,2025-02-03,2025-02-03,合同会社はこぶね,,合同会社,北海道,旭川市,神居三条１３丁目１番５号,,01,204,0708013,,,,,,,2025-02-03,1,,,,,ハコブネ,0
4332,7470003002799,新規,0,2025-02-03,2025-02-03,合同会社サンク,,合同会社,香川県,高松市,松島町３丁目１３番１４号,,37,201,7600068,,,,,,,2025-02-03,1,,,,,サンク,0
4345,8010001251930,新規,0,2025-02-03,2025-02-03,インフォソリューションズ株式会社,,株式会社,東京都,中央区,銀座１丁目１２番４号,,13,102,1040061,,,,,,,2025-02-03,1,,,,,インフォソリューションズ,0
4346,8010001251939,新規,0,2025-02-03,2025-02-03,金源株式会社,,株式会社,東京都,千代田区,神田三崎町２丁目１０番１１号Ｐｅｇビル３Ｂ－３号室,,13,101,1010061,,,,,,,2025-02-03,1,,,,,コンゲン,0
4347,8010001251955,新規,0,2025-02-03,2025-02-03,新ＭＲＥＤ準備株式会社,,株式会社,東京都,千代田区,大手町１丁目４番２号,,13,101,1000004,,,,,,,2025-02-03,1,,,,,シンエムレッドジュンビ,0
4348,8010001251971,新規,0,2025-02-03,2025-02-03,ＡＬＬ　ＨＥＡＬＴＨ　ＣＡＲＥ株式会社,,株式会社,東京都,中央区,八丁堀３丁目１８番１０号ＳＧＡＴＥＦＩＴ８階,,13,102,1040032,,,,,,,2025-02-03,1,,,,,オールヘルスケア,0
4349,8010001252020,新規,0,2025-02-03,2025-02-03,株式会社Ｆｒｅｅｚｏ,,株式会社,東京都,文京区,向丘２丁目３－１０東大前ＨｉＲＡＫＵＧＡＴＥ,00137862,13,105,1130023,,,,,,,2025-02-03,1,,,,,フリーゾ,0
4353,8010401187857,新規,0,2025-02-03,2025-02-03,株式会社槐庵,,株式会社,東京都,港区,芝公園１丁目８番４号,,13,103,1050011,,,,,,,2025-02-03,1,,,,,エンジュアン,0
4355,8010403034272,新規,0,2025-02-03,2025-02-03,Ｏｇｒｏｗｔｈ　Ｌａｂ　Ｊａｐａｎ合同会社,,合同会社,東京都,港区,北青山１丁目３番１号アールキューブ青山３階,,13,103,1070061,,,,,,,2025-02-03,1,,,,,オグロースラボジャパン,0
4360,8010601066712,新規,0,2025-02-03,2025-02-03,ｏｆｆｉｃｅ川西株式会社,,株式会社,東京都,江東区,大島４丁目２番５号ユースクエア西大島５階,,13,108,1360072,,,,,,,2025-02-03,1,,,,,オフィスカワニシ,0
4365,8010901056719,新規,0,2025-02-03,2025-02-03,Ｇ’ｄａｙ株式会社,,株式会社,東京都,世田谷区,北沢２丁目２２番１３号ＸＡビル１０３,,13,112,1550031,,,,,,,2025-02-03,1,,,,,グッデイ,0
4374,8011001167324,新規,0,2025-02-03,2025-02-03,株式会社バース,,株式会社,東京都,目黒区,下目黒６丁目１３番８号,,13,110,1530064,,,,,,,2025-02-03,1,,,,,バース,0
4375,8011001167373,新規,0,2025-02-03,2025-02-03,株式会社ＯｎＲｏａｄ,,株式会社,東京都,渋谷区,神南１丁目１１－４ＦＰＧリンクス神南５階,,13,113,1500041,,,,,,,2025-02-03,1,,,,,オンロード,0
4376,8011001167398,新規,0,2025-02-03,2025-02-03,株式会社ＦＥＬＩＧＡＲ,,株式会社,東京都,渋谷区,恵比寿２丁目３８番１７号１２月森スタシオン２０２号室,,13,113,1500013,,,,,,,2025-02-03,1,,,,,フェリガー,0
4377,8011001167407,新規,0,2025-02-03,2025-02-03,株式会社ｈｍｃ,,株式会社,東京都,目黒区,青葉台２丁目２０番５号,,13,110,1530042,,,,,,,2025-02-03,1,,,,,エイチエムシー,0
4378,8011001167415,新規,0,2025-02-03,2025-02-03,株式会社Ｑｕｉｎ’ｓ,,株式会社,東京都,渋谷区,渋谷２丁目１９－１５宮益坂ビルディング６０９,,13,113,1500002,,,,,,,2025-02-03,1,,,,,クインズ,0
4379,8011001167431,新規,0,2025-02-03,2025-02-03,株式会社かるびスタジオ,,株式会社,東京都,目黒区,自由が丘２丁目１６－１２ＬＣ１Ｆ,,13,110,1520035,,,,,,,2025-02-03,1,,,,,カルビスタジオ,0
4380,8011001167448,新規,0,2025-02-03,2025-02-03,株式会社Ｒｏｕｔｅ　Ｂ,,株式会社,東京都,目黒区,下目黒２丁目２－２パークキューブ目黒タワー１１１,,13,110,1530064,,,,,,,2025-02-03,1,,,,,ルートビー,0
4381,8011001167464,新規,0,2025-02-03,2025-02-03,株式会社ＭＯＴＥ,,株式会社,東京都,渋谷区,神宮前６丁目２３―４桑野ビル２階,,13,113,1500001,,,,,,,2025-02-03,1,,,,,モート,0
4382,8011001167480,新規,0,2025-02-03,2025-02-03,株式会社セントラル,,株式会社,東京都,目黒区,上目黒３丁目１４番１号ＡＲＡＩＢＬＤ３０１,,13,110,1530051,,,,,,,2025-02-03,1,,,,,セントラル,0
4383,8011001167530,新規,0,2025-02-03,2025-02-03,株式会社ＦＵＺＩＮ,,株式会社,東京都,渋谷区,神宮前６丁目２３番４号桑野ビル２階,,13,113,1500001,,,,,,,2025-02-03,1,,,,,フウジン,0
4384,8011001167547,新規,0,2025-02-03,2025-02-03,株式会社メラク,,株式会社,東京都,渋谷区,恵比寿１丁目２２番１４号１Ｆ,,13,113,1500013,,,,,,,2025-02-03,1,,,,,メラク,0
4386,8011003020828,新規,0,2025-02-03,2025-02-03,合同会社ＭＯＲＥ．,,合同会社,東京都,目黒区,中目黒４丁目６－１プラウド２０３,,13,110,1530061,,,,,,,2025-02-03,1,,,,,モア,0
4387,8011003020844,新規,0,2025-02-03,2025-02-03,Ｙ＆Ｆビジネスサポート合同会社,,合同会社,東京都,渋谷区,円山町５番５号Ｎａｖｉ渋谷Ｖ３階,,13,113,1500044,,,,,,,2025-02-03,1,,,,,ワイアンドエフビジネスサポート,0
4388,8011003020869,新規,0,2025-02-03,2025-02-03,合同会社ＴＡＳＡＫＡ,,合同会社,東京都,渋谷区,恵比寿４丁目５番２８号恵比寿ガーデン４０５,,13,113,1500013,,,,,,,2025-02-03,1,,,,,タサカ,0
4389,8011003020910,新規,0,2025-02-03,2025-02-03,ＴＤＫ　Ｐａｒｔｎｅｒｓ合同会社,,合同会社,東京都,目黒区,自由が丘１丁目１８―６,,13,110,1520035,,,,,,,2025-02-03,1,,,,,ティーディーケーパートナーズ,0
4391,8011101110489,新規,0,2025-02-03,2025-02-03,株式会社ＳＴＲ,,株式会社,東京都,新宿区,西新宿３丁目９－７－１６１０,,13,104,1600023,,,,,,,2025-02-03,1,,,,,エスティーアール,0
4393,8011103015488,新規,0,2025-02-03,2025-02-03,合同会社あっとりえ,,合同会社,東京都,新宿区,西新宿３丁目３番１３号西新宿水間ビル２Ｆ,,13,104,1600023,,,,,,,2025-02-03,1,,,,,アットリエ,0
4394,8011105011320,新規,0,2025-02-03,2025-02-03,ハイネスロフティ管理組合法人,,その他の設立登記法人,東京都,新宿区,西新宿４丁目３２番４号ハイネスロフティ,,13,104,1600023,,,,,,,2025-02-03,1,,,,,ハイネスロフティ,0
4397,8011403004604,新規,0,2025-02-03,2025-02-03,合同会社Ｌｉ,,合同会社,東京都,板橋区,仲宿５９番１３－３０３号,,13,119,1730005,,,,,,,2025-02-03,1,,,,,エルアイ,0
4402,8011701028032,新規,0,2025-02-03,2025-02-03,株式会社ＮＥＯ　ＴＯＫＹＯ,,株式会社,東京都,江戸川区,平井４丁目３番１１号,,13,123,1320035,,,,,,,2025-02-03,1,,,,,ネオトウキョウ,0
4403,8011703004106,新規,0,2025-02-03,2025-02-03,アクセルビズ合同会社,,合同会社,東京都,江戸川区,西小岩１丁目２７番２９－８０４号,,13,123,1330057,,,,,,,2025-02-03,1,,,,,アクセルビズ,0
4407,8012801023732,新規,0,2025-02-03,2025-02-03,典誠不動産株式会社,,株式会社,東京都,昭島市,緑町４丁目１９番１９号,,13,207,1960004,,,,,,,2025-02-03,1,,,,,テンセイフドウサン,0
4410,8013301053682,新規,0,2025-02-03,2025-02-03,イクヨ観光株式会社,,株式会社,東京都,豊島区,西巣鴨４丁目２３番８－９０１号,,13,116,1700001,,,,,,,2025-02-03,1,,,,,イクヨカンコウ,0
4420,8020001160998,新規,0,2025-02-03,2025-02-03,横浜企画印刷株式会社,,株式会社,神奈川県,横浜市神奈川区,羽沢南４丁目１４番１５号,,14,102,2210866,,,,,,,2025-02-03,1,,,,,,0
4421,8020001161105,新規,0,2025-02-03,2025-02-03,株式会社ＭＨＢ,,株式会社,神奈川県,川崎市川崎区,小川町１７番地５エスポワール２０２号室,,14,131,2100023,,,,,,,2025-02-03,1,,,,,エムエイチビー,0
4422,8020001161138,新規,0,2025-02-03,2025-02-03,株式会社丸山ファシリティーズ,,株式会社,神奈川県,横浜市南区,六ツ川２丁目２番地１サウス・スクエア１００横浜・弘明寺２０１号,,14,105,2320066,,,,,,,2025-02-03,1,,,,,マルヤマファシリティーズ,0
4427,8020003027667,新規,0,2025-02-03,2025-02-03,合同会社ＳＨＩＦＴ,,合同会社,神奈川県,横浜市港南区,港南１丁目１４番１１号,,14,111,2330003,,,,,,,2025-02-03,1,,,,,シフト,0
4429,8020005016701,新規,0,2025-02-03,2025-02-03,医療法人社団嘉佳会,,その他の設立登記法人,神奈川県,横浜市青葉区,新石川２丁目４番地１２フォーラムたまプラーザ１階,,14,117,2250003,,,,,,,2025-02-03,1,,,,,ヨシカカイ,0
4434,8021001084361,新規,0,2025-02-03,2025-02-03,株式会社ＲＡＹ　ｐｌｕｓ,,株式会社,神奈川県,相模原市緑区,原宿１丁目１１番１８号　クオレール勇２０３,,14,151,2520102,,,,,,,2025-02-03,1,,,,,レイプラス,0
4435,8021001084378,新規,0,2025-02-03,2025-02-03,株式会社ＪＸ　Ｊａｐａｎ,,株式会社,神奈川県,茅ヶ崎市,香川１丁目１０番３－２０１号,,14,207,2530082,,,,,,,2025-02-03,1,,,,,,0
4791,8040001137227,新規,0,2025-02-03,2025-02-03,株式会社Ａ＆Ｂ,,株式会社,千葉県,柏市,柏３丁目１０番２９号－３Ｆ,,12,217,2770005,,,,,,,2025-02-03,1,,,,,エーアンドビー,0
4829,8050001056112,新規,0,2025-02-03,2025-02-03,株式会社ＰＨＯＥＮＩＸ　ＬＡＮＫＡ,,株式会社,茨城県,鉾田市,汲上４３０６番地５,,08,234,3112103,,,,,,,2025-02-03,1,,,,,フェニックスランカ,0
4830,8050001056120,新規,0,2025-02-03,2025-02-03,株式会社Ｃａｒｎａｐｌｕｓ,,株式会社,茨城県,ひたちなか市,大字市毛９６０番２号,,08,221,3120033,,,,,,,2025-02-03,1,,,,,カルナプラス,0
4835,8070001042597,新規,0,2025-02-03,2025-02-03,株式会社Ｙｏｕ　Ｐｏｉｎｔ,,株式会社,群馬県,太田市,堀口町６２０番地２,,10,205,3700414,,,,,,,2025-02-03,1,,,,,ユーポイント,0
4838,8080101025286,新規,0,2025-02-03,2025-02-03,スマート・ホーム・クリエーション株式会社,,株式会社,静岡県,富士市,今泉３丁目４番７号,,22,210,4170001,,,,,,,2025-02-03,1,,,,,スマートホームクリエーション,0
4857,8120001272379,新規,0,2025-02-03,2025-02-03,グローウィズ株式会社,,株式会社,大阪府,大阪市中央区,北久宝寺町１丁目７番６－１００１号,,27,128,5410057,,,,,,,2025-02-03,1,,,,,グローウィズ,0
4858,8120001272412,新規,0,2025-02-03,2025-02-03,西湖会株式会社,,株式会社,大阪府,大阪市西成区,萩之茶屋１丁目１２番７号万葉ビル６０号室,,27,122,5570004,,,,,,,2025-02-03,1,,,,,セイコカイ,0
4859,8120001272437,新規,0,2025-02-03,2025-02-03,株式会社ＩＭＭ,,株式会社,大阪府,大阪市中央区,西心斎橋１丁目９番１５号大京心斎橋ビル１Ｆ,,27,128,5420086,,,,,,,2025-02-03,1,,,,,アイエムエム,0
4860,8120001272486,新規,0,2025-02-03,2025-02-03,株式会社蓮華,,株式会社,大阪府,大阪市東住吉区,杭全２丁目４－１４,,27,121,5460002,,,,,,,2025-02-03,1,,,,,レンカ,0
4861,8120001272528,新規,0,2025-02-03,2025-02-03,株式会社プラスコロン,,株式会社,大阪府,大阪市北区,梅田１丁目１－３大阪駅前第３ビル２９階１－１－１号室,,27,127,5300001,,,,,,,2025-02-03,1,,,,,プラスコロン,0
4864,8120003028523,新規,0,2025-02-03,2025-02-03,合同会社ヒーゴ,,合同会社,大阪府,大阪市福島区,鷺洲３丁目６番１０－２３１０号,,27,103,5530002,,,,,,,2025-02-03,1,,,,,ヒーゴ,0
4865,8120003028531,新規,0,2025-02-03,2025-02-03,あみーご合同会社,,合同会社,大阪府,枚方市,茄子作１丁目１４番５３号,,27,210,5730071,,,,,,,2025-02-03,1,,,,,アミーゴ,0
4869,8120903005522,新規,0,2025-02-03,2025-02-03,ＥＮＩｃ合同会社,,合同会社,大阪府,茨木市,郡５丁目１３番１７号ラークヒル１０３号,,27,211,5670072,,,,,,,2025-02-03,1,,,,,エニシ,0
4881,8180001165206,新規,0,2025-02-03,2025-02-03,ＩＮＮＯＣＥＮＣＥ　ＪＡＰＡＮ　ＨＯＬＤＩＮＧＳ株式会社,,株式会社,愛知県,名古屋市名東区,一社２丁目３０番地,,23,115,4650093,,,,,,,2025-02-03,1,,,,,イノセンスジャパンホールディングス,0
4883,8180003027924,新規,0,2025-02-03,2025-02-03,合同会社紡氣,,合同会社,愛知県,清須市,清洲２２５４番地４プラッサムコート下町１０２,,23,233,4520942,,,,,,,2025-02-03,1,,,,,ツムギ,0
4888,8190001031968,新規,0,2025-02-03,2025-02-03,日進教育株式会社,,株式会社,三重県,鈴鹿市,神戸１丁目５‐１,,24,207,5130801,,,,,,,2025-02-03,1,,,,,ニッシンキョウイク,0
4889,8190005012015,新規,0,2025-02-03,2025-02-03,一般社団法人キャリアコネクト,,その他の設立登記法人,三重県,四日市市,堂ケ山町２１９４番地２,,24,202,5121115,,,,,,,2025-02-03,1,,,,,キャリアコネクト,0
4893,8220001026469,新規,0,2025-02-03,2025-02-03,株式会社フラン,,株式会社,石川県,野々市市,押野４丁目７番地２アネックス雅２０２号,,17,212,9218802,,,,,,,2025-02-03,1,,,,,フラン,0
4896,8240001064467,新規,0,2025-02-03,2025-02-03,ニュートラスト株式会社,,株式会社,広島県,福山市,千田町３丁目４番３５号,,34,207,7200017,,,,,,,2025-02-03,1,,,,,ニュートラスト,0
4899,8240003007044,新規,0,2025-02-03,2025-02-03,合同会社旭飛,,合同会社,広島県,福山市,千代田町２丁目１３番２９号三谷ハイツＣ,,34,207,7200823,,,,,,,2025-02-03,1,,,,,アサヒ,0
4900,8240005015887,新規,0,2025-02-03,2025-02-03,一般社団法人バス協調・共創プラットフォームひろしま,,その他の設立登記法人,広島県,広島市中区,国泰寺町１丁目６番３４号,,34,101,7300042,,,,,,,2025-02-03,1,,,,,バスキョウチョウキョウソウプラットフォームヒロシマ,0
4901,8260001039871,新規,0,2025-02-03,2025-02-03,株式会社ＮＥＸＴ,,株式会社,岡山県,岡山市北区,平野７６５－８,,33,101,7010151,,,,,,,2025-02-03,1,,,,,ネクスト,0
4903,8280001009344,新規,0,2025-02-03,2025-02-03,株式会社勝建,,株式会社,島根県,出雲市,知井宮町９５４番地１３,,32,203,6930033,,,,,,,2025-02-03,1,,,,,カツケン,0
4904,8290001108756,新規,0,2025-02-03,2025-02-03,株式会社Ｒｅｐａｉｒ　ｘ　Ｃｌｅａｎ,,株式会社,福岡県,福岡市中央区,桜坂１丁目６－４ポラリス桜坂１０１号室,,40,133,8100024,,,,,,,2025-02-03,1,,,,,リペアバイクリーン,0
4905,8290001108764,新規,0,2025-02-03,2025-02-03,株式会社Ｌａ　ｍａｎ　ｍａ,,株式会社,福岡県,みやま市,瀬高町下庄４８０番地３,,40,229,8350024,,,,,,,2025-02-03,1,,,,,ラマンマ,0
4906,8290001108830,新規,0,2025-02-03,2025-02-03,株式会社ＫＢＲ　ＴＲＡＤＥ,,株式会社,福岡県,福岡市東区,香椎駅前１丁目１番３号,,40,131,8130013,,,,,,,2025-02-03,1,,,,,ケービーアールトレード,0
4908,8290003016346,新規,0,2025-02-03,2025-02-03,合同会社ＮＡＢＥＳＥＮ,,合同会社,福岡県,福岡市南区,柳河内２丁目６番８１－３０２号モン・シュシュ,,40,134,8150063,,,,,,,2025-02-03,1,,,,,ナベセン,0
4920,8370005010900,新規,0,2025-02-03,2025-02-03,一般社団法人Ｔｅａｍ大川未来を拓くネットワーク,,その他の設立登記法人,宮城県,仙台市宮城野区,幸町４丁目７番地２,,04,102,9830836,,,,,,,2025-02-03,1,,,,,チームオオカワミライヲヒラクネットワーク,0
4924,8410005006621,新規,0,2025-02-03,2025-02-03,一般社団法人男鹿まち,,その他の設立登記法人,秋田県,男鹿市,船川港船川字新浜町１番２１,,05,206,0100511,,,,,,,2025-02-03,1,,,,,オガマチ,0
4928,8430001093587,新規,0,2025-02-03,2025-02-03,株式会社トラスティー,,株式会社,北海道,苫小牧市,北栄町３丁目２１番６号,,01,213,0591304,,,,,,,2025-02-03,1,,,,,トラスティー,0
4929,8430003017230,新規,0,2025-02-03,2025-02-03,合同会社ＵＴｎｅｘｔ,,合同会社,北海道,千歳市,上長都２番地１１,,01,224,0660077,,,,,,,2025-02-03,1,,,,,ユーティーネクスト,0
4932,8460001005969,新規,0,2025-02-03,2025-02-03,株式会社日興商事,,株式会社,北海道,釧路市,昭和南４丁目１４番１９号,,01,206,0840909,,,,,,,2025-02-03,1,,,,,ニッコウショウジ,0
4945,9010001251921,新規,0,2025-02-03,2025-02-03,ＴＡＭＡＧＯ株式会社,,株式会社,東京都,千代田区,丸の内３丁目１番１号,,13,101,1000005,,,,,,,2025-02-03,1,,,,,タマゴ,0
4946,9010001251954,新規,0,2025-02-03,2025-02-03,ジェイシーテック株式会社,,株式会社,東京都,千代田区,外神田６丁目８番１１号,,13,101,1010021,,,,,,,2025-02-03,1,,,,,ジェイシーテック,0
4947,9010001251970,新規,0,2025-02-03,2025-02-03,株式会社クラリティキャピタル,,株式会社,東京都,中央区,銀座６丁目６番１号銀座風月堂ビル５Ｆ,,13,102,1040061,,,,,,,2025-02-03,1,,,,,クラリティキャピタル,0
4948,9010001251979,新規,0,2025-02-03,2025-02-03,株式会社コンセンツ,,株式会社,東京都,中央区,銀座１丁目２２番１１号銀座大竹ビジデンス２Ｆ,,13,102,1040061,,,,,,,2025-02-03,1,,,,,コンセンツ,0
4949,9010001252003,新規,0,2025-02-03,2025-02-03,株式会社メリーライフ,,株式会社,東京都,中央区,日本橋室町１丁目１１番１２号日本橋水野ビル７階,,13,102,1030022,,,,,,,2025-02-03,1,,,,,メリーライフ,0
4951,9010003046270,新規,0,2025-02-03,2025-02-03,合同会社Ｂｅ　Ｖｉｖｉｄ,,合同会社,東京都,中央区,日本橋室町１丁目１１番１２号日本橋水野ビル７階,,13,102,1030022,,,,,,,2025-02-03,1,,,,,ビービビッド,0
4962,9010401187749,新規,0,2025-02-03,2025-02-03,タダ・メイシ株式会社,,株式会社,東京都,港区,新橋４丁目１４番１新橋ＡＵＮＢＬＤＧ４階,,13,103,1050004,,,,,,,2025-02-03,1,,,,,タダメイシ,0
4963,9010401187781,新規,0,2025-02-03,2025-02-03,株式会社月の浦,,株式会社,東京都,港区,芝浦３丁目７－８－８０５,,13,103,1080023,,,,,,,2025-02-03,1,,,,,ツキノウラ,0
4964,9010401187831,新規,0,2025-02-03,2025-02-03,株式会社ベジフォース,,株式会社,東京都,港区,南麻布１丁目１６－３－６０１,,13,103,1060047,,,,,,,2025-02-03,1,,,,,ベジフォース,0
4966,9010403034222,新規,0,2025-02-03,2025-02-03,合同会社Ｄｏｕｂｉｌｉｔｙ,,合同会社,東京都,港区,芝３丁目１４番５号,,13,103,1050014,,,,,,,2025-02-03,1,,,,,ダウビリティ,0
4967,9010403034288,新規,0,2025-02-03,2025-02-03,合同会社イーストブルー,,合同会社,東京都,港区,北青山２丁目１２番４２－８０２号,,13,103,1070061,,,,,,,2025-02-03,1,,,,,イーストブルー,0
4969,9010405023990,新規,0,2025-02-03,2025-02-03,スマートハイムシティあつぎの丘団地管理組合法人,,その他の設立登記法人,東京都,港区,虎ノ門２丁目１０－４,,13,103,1050001,,,,,,,2025-02-03,1,,,,,スマートハイムシティアツギノオカ,0
4972,9010601066678,新規,0,2025-02-03,2025-02-03,株式会社ＭｙＳＡＣ,,株式会社,東京都,江東区,白河３丁目６－８マキハイツ４０２,,13,108,1350021,,,,,,,2025-02-03,1,,,,,マイサク,0
4974,9010701047198,新規,0,2025-02-03,2025-02-03,ＣａｒｅｅｒＡｓｓｅｔ株式会社,,株式会社,東京都,品川区,東品川５丁目９番６－１００９号,,13,109,1400002,,,,,,,2025-02-03,1,,,,,キャリアセット,0
4981,9010901056750,新規,0,2025-02-03,2025-02-03,ＳＯＲＡＩＳＳ株式会社,,株式会社,東京都,世田谷区,玉川３丁目２０番２号マノア玉川第３ビル５０１号室,,13,112,1580094,,,,,,,2025-02-03,1,,,,,ソライス,0
4988,9011001167372,新規,0,2025-02-03,2025-02-03,尼貝株式会社,,株式会社,東京都,目黒区,柿の木坂２丁目２６番１７号１０１,,13,110,1520022,,,,,,,2025-02-03,1,,,,,ニバイ,0
4989,9011001167406,新規,0,2025-02-03,2025-02-03,ＧＭＯトラスト設立準備株式会社,,株式会社,東京都,渋谷区,道玄坂１丁目２番３号,,13,113,1500043,,,,,,,2025-02-03,1,,,,,ジーエムオートラストセツリツジュンビ,0
4990,9011001167422,新規,0,2025-02-03,2025-02-03,ＤｘＤＭｅｄ株式会社,,株式会社,東京都,渋谷区,恵比寿４丁目２０－３恵比寿ガーデンプレイスタワー１８階,,13,113,1500013,,,,,,,2025-02-03,1,,,,,ディバイディメッド,0
4991,9011001167439,新規,0,2025-02-03,2025-02-03,株式会社ＫＡＮＴＥＲＡ,,株式会社,東京都,渋谷区,神南１丁目１１－４ＦＰＧリンクス神南５階,,13,113,1500041,,,,,,,2025-02-03,1,,,,,カンテラ,0
4992,9011001167447,新規,0,2025-02-03,2025-02-03,ラボホールディングス株式会社,,株式会社,東京都,渋谷区,代々木１丁目２５番５号,,13,113,1510053,,,,,,,2025-02-03,1,,,,,ラボホールディングス,0
4993,9011001167455,新規,0,2025-02-03,2025-02-03,株式会社スマートコスメ,,株式会社,東京都,渋谷区,渋谷３丁目１７番４号アクシーズ７号館ビル９階,,13,113,1500002,,,,,,,2025-02-03,1,,,,,スマートコスメ,0
4994,9011001167471,新規,0,2025-02-03,2025-02-03,株式会社ＢＵＳ,,株式会社,東京都,目黒区,鷹番３丁目１６番１２号トーヨーハイツ３０２,,13,110,1520004,,,,,,,2025-02-03,1,,,,,バス,0
4995,9011001167496,新規,0,2025-02-03,2025-02-03,株式会社ＳＮＡＸＸＸ,,株式会社,東京都,渋谷区,道玄坂１丁目１０番８号渋谷区道玄坂東急ビル２Ｆ－Ｃ,,13,113,1500043,,,,,,,2025-02-03,1,,,,,スナックス,0
4996,9011001167505,新規,0,2025-02-03,2025-02-03,株式会社あにまる製薬,,株式会社,東京都,渋谷区,神宮前４丁目２６番２７号ルシード神宮前３階,,13,113,1500001,,,,,,,2025-02-03,1,,,,,アニマルセイヤク,0
4997,9011001167513,新規,0,2025-02-03,2025-02-03,ＬＶＬ９９Ｒｅｃｒｕｉｔｉｎｇ株式会社,,株式会社,東京都,渋谷区,桜丘町７番３号ベラコート渋谷,,13,113,1500031,,,,,,,2025-02-03,1,,,,,エルブイエルナインティナインリクルーティング,0
4998,9011003020835,新規,0,2025-02-03,2025-02-03,合同会社モデレート,,合同会社,東京都,渋谷区,道玄坂１丁目１０番８号渋谷道玄坂東急ビル２Ｆ－Ｃ,,13,113,1500043,,,,,,,2025-02-03,1,,,,,モデレート,0
4999,9011003020843,新規,0,2025-02-03,2025-02-03,ポタモス合同会社,,合同会社,東京都,渋谷区,神南１丁目１１番４号ＦＰＧリンクス神南５階,,13,113,1500041,,,,,,,2025-02-03,1,,,,,ポタモス,0
5000,9011003020868,新規,0,2025-02-03,2025-02-03,合同会社ＳＯＬＴ,,合同会社,東京都,渋谷区,代官山町２０番２３号６０８号室,,13,113,1500034,,,,,,,2025-02-03,1,,,,,ソルト,0
5004,9011101110488,新規,0,2025-02-03,2025-02-03,清佑株式会社,,株式会社,東京都,新宿区,新宿５丁目１４番１２－６０７号,,13,104,1600022,,,,,,,2025-02-03,1,,,,,セイユウ,0
5006,9011203004588,新規,0,2025-02-03,2025-02-03,合同会社ｆａ‐ｌａ,,合同会社,東京都,中野区,大和町４丁目２７番７号,,13,114,1650034,,,,,,,2025-02-03,1,,,,,ファーラ,0
5016,9011601028395,新規,0,2025-02-03,2025-02-03,リネ株式会社,,株式会社,東京都,練馬区,下石神井１丁目１番４３号ライオンズ石神井サウスマークス８０３号,,13,120,1770042,,,,,,,2025-02-03,1,,,,,リネ,0
5023,9013301053723,新規,0,2025-02-03,2025-02-03,＿株式会社,00137860,株式会社,東京都,豊島区,西巣鴨１丁目１１－１５－２０２号室,,13,116,1700001,,,,,,,2025-02-03,1,,,,,アサ,0
5031,9020001161070,新規,0,2025-02-03,2025-02-03,株式会社吉田工務店,,株式会社,神奈川県,横浜市中区,本牧元町１８番２１－１０２号,,14,104,2310822,,,,,,,2025-02-03,1,,,,,ヨシダコウムテン,0
5032,9020001161079,新規,0,2025-02-03,2025-02-03,アンティニティー株式会社,,株式会社,神奈川県,横浜市南区,井土ケ谷中町４番地,,14,105,2320052,,,,,,,2025-02-03,1,,,,,アンティニティー,0
5033,9020001161095,新規,0,2025-02-03,2025-02-03,株式会社Ｂｒｉｇｈｔ,,株式会社,神奈川県,横浜市中区,元町１丁目５４番地１リブレ元町ＩＩ２０２,00137869,14,104,2310861,,,,,,,2025-02-03,1,,,,,ブライト,0
5034,9020001161129,新規,0,2025-02-03,2025-02-03,株式会社モノクロマーケティング,,株式会社,神奈川県,横浜市神奈川区,台町１１番地３０台ビル３７,,14,102,2210834,,,,,,,2025-02-03,1,,,,,モノクロマーケティング,0
5035,9020001161310,新規,0,2025-02-03,2025-02-03,グリフィン１号株式会社,,株式会社,神奈川県,横浜市西区,高島２丁目６番３２号,,14,103,2200011,,,,,,,2025-02-03,1,,,,,グリフィンイチゴウ,0
5039,9020003027666,新規,0,2025-02-03,2025-02-03,合同会社ウィロ,,合同会社,神奈川県,横浜市西区,浅間町１丁目４番３号ウィザードビル４０２,,14,103,2200072,,,,,,,2025-02-03,1,,,,,ウィロ,0
5042,9020005016700,新規,0,2025-02-03,2025-02-03,一般社団法人ベルーガライフサポート,,その他の設立登記法人,神奈川県,横浜市旭区,さちが丘１４３番地１７ヒルサイド二俣川１０３,,14,112,2410822,,,,,,,2025-02-03,1,,,,,ベルーガライフサポート,0
5045,9021001084369,新規,0,2025-02-03,2025-02-03,ＮＯＴＢＩＺ株式会社,,株式会社,神奈川県,藤沢市,片瀬海岸２丁目２０－１２,,14,205,2510035,,,,,,,2025-02-03,1,,,,,ノットビズ,0
5049,9030001164683,新規,0,2025-02-03,2025-02-03,株式会社Ｎｅｗ　Ｒｉｖｅｒ,,株式会社,埼玉県,越谷市,越ヶ谷１丁目２番２１号,,11,222,3430813,,,,,,,2025-02-03,1,,,,,ニューリバー,0
5050,9030001164691,新規,0,2025-02-03,2025-02-03,株式会社ゲン・コーポレーション,,株式会社,埼玉県,さいたま市南区,別所２丁目３番２４号,,11,108,3360021,,,,,,,2025-02-03,1,,,,,ゲンコーポレーション,0
5054,9030003026007,新規,0,2025-02-03,2025-02-03,ＮＥ５合同会社,,合同会社,埼玉県,越谷市,大字砂原９７６,,11,222,3430803,,,,,,,2025-02-03,1,,,,,エヌイーファイブ,0
5055,9030005022020,新規,0,2025-02-03,2025-02-03,一般財団法人グローバル,,その他の設立登記法人,埼玉県,川越市,仙波町２丁目１６番地１７,,11,201,3500034,,,,,,,2025-02-03,1,,,,,グローバル,0
5427,9040001137250,新規,0,2025-02-03,2025-02-03,株式会社Ｖカレッジ,,株式会社,千葉県,松戸市,松戸１３０７－１松戸ビル１３Ｆ１３０２,,12,207,2710092,,,,,,,2025-02-03,1,,,,,ブイカレッジ,0
5462,9040003026724,新規,0,2025-02-03,2025-02-03,チャコール合同会社,,合同会社,千葉県,千葉市中央区,川戸町３７７番地２２,,12,101,2600802,,,,,,,2025-02-03,1,,,,,,0
5469,9050001056111,新規,0,2025-02-03,2025-02-03,Ｒｓ　Ｌａｎｋａ株式会社,,株式会社,茨城県,稲敷市,蒲ケ山１２３９番地４,,08,229,3000522,,,,,,,2025-02-03,1,,,,,アールエスランカ,0
5470,9050003008985,新規,0,2025-02-03,2025-02-03,ＡＭＡＮＯ　ＩＷＡＴＯ合同会社,,合同会社,茨城県,つくば市,小野崎９７３番地１,,08,220,3050034,,,,,,,2025-02-03,1,,,,,アマノイワト,0
5471,9050003008993,新規,0,2025-02-03,2025-02-03,合同会社ｆｏｒｗａｒｄ,,合同会社,茨城県,鉾田市,大蔵２６６番地４,,08,234,3112117,,,,,,,2025-02-03,1,,,,,フォワード,0
5473,9060001037878,新規,0,2025-02-03,2025-02-03,株式会社モグローカル,,株式会社,栃木県,日光市,今市字裏門１１２８番地１,,09,206,3211261,,,,,,,2025-02-03,1,,,,,モグローカル,0
5482,9070001042596,新規,0,2025-02-03,2025-02-03,株式会社ＪＩＮ　Ｃｏｒｐ．,,株式会社,群馬県,太田市,新島町８９４番地１シャインミズキ１０２号,,10,205,3730819,,,,,,,2025-02-03,1,,,,,ジンコーポレーション,0
5483,9070003005766,新規,0,2025-02-03,2025-02-03,ＤＶＨ合同会社,,合同会社,群馬県,藤岡市,立石新田２９１－１－２０３号,,10,209,3750003,,,,,,,2025-02-03,1,,,,,ディーブイエイチ,0
5485,9080101025285,新規,0,2025-02-03,2025-02-03,株式会社ブレイブス,,株式会社,静岡県,沼津市,山王台８番１１－１０５号,,22,203,4100035,,,,,,,2025-02-03,1,,,,,ブレイブス,0
5497,9120001272386,新規,0,2025-02-03,2025-02-03,株式会社ＫＫ,,株式会社,大阪府,大阪市天王寺区,伶人町２－３１ＳｔａｒＯｆｆｉｃｅ大阪天王寺北４０５号室,,27,109,5430061,,,,,,,2025-02-03,1,,,,,ケーケー,0
5498,9120001272444,新規,0,2025-02-03,2025-02-03,ＴＦＹ株式会社,,株式会社,大阪府,大阪市浪速区,元町２丁目１番１３号,,27,111,5560016,,,,,,,2025-02-03,1,,,,,ティーエフワイ,0
5499,9120001272469,新規,0,2025-02-03,2025-02-03,秦澤株式会社,,株式会社,大阪府,大阪市西区,本田３丁目１番１９－６０２号,,27,106,5500022,,,,,,,2025-02-03,1,,,,,シンタク,0
5500,9120001272477,新規,0,2025-02-03,2025-02-03,徐安嘉株式会社,,株式会社,大阪府,大阪市都島区,中野町４丁目３番６号Ｈ２Ｈ大阪桜之宮邸２Ｃ－１,,27,102,5340027,,,,,,,2025-02-03,1,,,,,ジョアンカ,0
5501,9120001272485,新規,0,2025-02-03,2025-02-03,株式会社ＭＩＺＵＨＩＨＩ,,株式会社,大阪府,大阪市北区,天満２丁目１５－８ユニオンビル,,27,127,5300043,,,,,,,2025-02-03,1,,,,,ミズヒヒ,0
5502,9120001272493,新規,0,2025-02-03,2025-02-03,株式会社星月,,株式会社,大阪府,大阪市北区,豊崎５丁目７番１５－２０８号,,27,127,5310072,,,,,,,2025-02-03,1,,,,,ホシツキ,0
5503,9120001272502,新規,0,2025-02-03,2025-02-03,株式会社朝陽,,株式会社,大阪府,大阪市平野区,長吉六反３丁目１７番２５号１Ｃ号室,,27,126,5470012,,,,,,,2025-02-03,1,,,,,アサヒ,0
5504,9120001272510,新規,0,2025-02-03,2025-02-03,株式会社フルクラム,,株式会社,大阪府,大阪市淀川区,西中島４丁目２－２１－６０６,,27,123,5320011,,,,,,,2025-02-03,1,,,,,フルクラム,0
5505,9120001272519,新規,0,2025-02-03,2025-02-03,株式会社Ｊａｐａｎ　Ａｕｔｏ　Ｔｅｃｈｎｉｃａ,,株式会社,大阪府,大阪市住吉区,苅田４丁目８番２－１２０１号,,27,120,5580011,,,,,,,2025-02-03,1,,,,,ジャパンオートテクニカ,0
5506,9120001272543,新規,0,2025-02-03,2025-02-03,株式会社ＣＨＡＩＮ,,株式会社,大阪府,大阪市西区,江戸堀１丁目２３‐１４‐２０８,,27,106,5500002,,,,,,,2025-02-03,1,,,,,チェイン,0
5509,9120003028514,新規,0,2025-02-03,2025-02-03,ｒａｊｉｋｏ合同会社,,合同会社,大阪府,大阪市中央区,島之内２丁目１０番２２－８１６号,,27,128,5420082,,,,,,,2025-02-03,1,,,,,ラジコ,0
5510,9120003028522,新規,0,2025-02-03,2025-02-03,合同会社エンライトワン,,合同会社,大阪府,大阪市北区,梅田１丁目２番２号大阪駅前第２ビル１２－１２,,27,127,5300001,,,,,,,2025-02-03,1,,,,,エンライトワン,0
5511,9120005024775,新規,0,2025-02-03,2025-02-03,弁護士法人セイカ法律事務所,,その他の設立登記法人,大阪府,大阪市北区,西天満４丁目３番４号,,27,127,5300047,,,,,,,2025-02-03,1,,,,,セイカホウリツジムショ,0
5512,9120101070995,新規,0,2025-02-03,2025-02-03,株式会社日凪Ａｕｔｏ,,株式会社,大阪府,堺市西区,鳳西町２丁３１８番地６,,27,144,5938326,,,,,,,2025-02-03,1,,,,,ヒナギオート,0
5513,9120101071003,新規,0,2025-02-03,2025-02-03,Ｆ　ＰＬＡＣＥ株式会社,,株式会社,大阪府,和泉市,伏屋町４丁目７番４号,,27,219,5940031,,,,,,,2025-02-03,1,,,,,エフプレイス,0
5514,9120103006262,新規,0,2025-02-03,2025-02-03,合同会社お家屋,,合同会社,大阪府,堺市堺区,榎元町１丁１－４,,27,141,5900027,,,,,,,2025-02-03,1,,,,,オウチヤ,0
5517,9122005003809,新規,0,2025-02-03,2025-02-03,一般社団法人華人経営者倶楽部,,その他の設立登記法人,大阪府,東大阪市,菱屋東３丁目１－１,,27,227,5780948,,,,,,,2025-02-03,1,,,,,カジンケイエイシャクラブ,0
5522,9140003021616,新規,0,2025-02-03,2025-02-03,合同会社ＪＡＲＶＩＳ,,合同会社,兵庫県,西宮市,樋之池町２８番４３－５０８号,,28,204,6620084,,,,,,,2025-02-03,1,,,,,ジャービス,0
5525,9160005011373,新規,0,2025-02-03,2025-02-03,一般社団法人Ｓａｖｅ　ｔｈｅ　Ｂｉｒｔｈｄａｙ実行委員会,,その他の設立登記法人,滋賀県,東近江市,五個荘河曲町３３０番地９,,25,213,5291411,,,,,,,2025-02-03,1,,,,,セーブザバースデージッコウイインカイ,0
5526,9170001018479,新規,0,2025-02-03,2025-02-03,葛原重機工業株式会社,,株式会社,和歌山県,橋本市,隅田町霜草１０１４番地２,,30,203,6480004,,,,,,,2025-02-03,1,,,,,カツラハラジュウキコウギョウ,0
5535,9180001165287,新規,0,2025-02-03,2025-02-03,東南グローバル株式会社,,株式会社,愛知県,名古屋市港区,高木町３丁目４１－８,,23,111,4550821,,,,,,,2025-02-03,1,,,,,トウナングローバル,0
5540,9180301039488,新規,0,2025-02-03,2025-02-03,株式会社シーラボ,,株式会社,愛知県,豊橋市,東松山町１０６番地,,23,201,4400874,,,,,,,2025-02-03,1,,,,,シーラボ,0
5543,9200001043399,新規,0,2025-02-03,2025-02-03,株式会社ＨＡＬＵ,,株式会社,岐阜県,大垣市,楽田町２丁目１０番地１ボヌールメゾン１Ｄ,,21,202,5030008,,,,,,,2025-02-03,1,,,,,ハル,0
5554,9220001026468,新規,0,2025-02-03,2025-02-03,株式会社ＡｖｖｉＯ,,株式会社,石川県,河北郡津幡町,字太田は６番地２,,17,361,9290345,,,,,,,2025-02-03,1,,,,,アヴィオ,0
5557,9240001064474,新規,0,2025-02-03,2025-02-03,株式会社丸三五代目堀田園,,株式会社,広島県,広島市中区,大手町１丁目１－２０相生橋ビル７階Ａ号室,,34,101,7300051,,,,,,,2025-02-03,1,,,,,マルサンゴダイメホッタエン,0
5558,9240005015886,新規,0,2025-02-03,2025-02-03,一般社団法人ヨコタ,,その他の設立登記法人,広島県,広島市中区,南吉島１丁目３番６号,,34,101,7300826,,,,,,,2025-02-03,1,,,,,ヨコタ,0
5559,9250001020988,新規,0,2025-02-03,2025-02-03,株式会社ｄｏｔ　Ａｔｔｒａｃｔ,,株式会社,山口県,宇部市,大字西岐波１１９２番地１１８,,35,202,7550151,,,,,,,2025-02-03,1,,,,,ドットアトラクト,0
5560,9260001039862,新規,0,2025-02-03,2025-02-03,株式会社ＭＯＲＩ　Ｔｅｃ,,株式会社,岡山県,岡山市南区,豊成１丁目１０番１６号５０４号,,33,104,7000942,,,,,,,2025-02-03,1,,,,,モリテック,0
5562,9280001009343,新規,0,2025-02-03,2025-02-03,株式会社暁月,,株式会社,島根県,出雲市,東園町４４０番地７,,32,203,6930045,,,,,,,2025-02-03,1,,,,,アカツキ,0
5567,9290001108788,新規,0,2025-02-03,2025-02-03,株式会社想手,,株式会社,福岡県,福岡市東区,馬出２丁目２０番２２－１３０２号,,40,131,8120054,,,,,,,2025-02-03,1,,,,,オモイデ,0
5568,9290001108805,新規,0,2025-02-03,2025-02-03,Ｆｏｕｒ　ｓｅａｍ株式会社,,株式会社,福岡県,太宰府市,高雄４丁目２４番４３号,,40,221,8180122,,,,,,,2025-02-03,1,,,,,フォーシーム,0
5572,9300001014068,新規,0,2025-02-03,2025-02-03,株式会社Ｎ＆Ｓ,,株式会社,佐賀県,佐賀市,唐人１丁目６番１１号,,41,201,8400813,,,,,,,2025-02-03,1,,,,,エヌアンドエス,0
5576,9320005010219,新規,0,2025-02-03,2025-02-03,グレイスチャペル大分,,その他の設立登記法人,大分県,大分市,府内町１丁目７６番地,,44,201,8700021,,,,,,,2025-02-03,1,,,,,グレイスチャペルオオイタ,0
5582,9360003014655,新規,0,2025-02-03,2025-02-03,Ｙ’ｓ工房合同会社,,合同会社,沖縄県,豊見城市,字豊見城３３番地,,47,212,9010241,,,,,,,2025-02-03,1,,,,,ワイズコウボウ,0
5595,9470001020561,新規,0,2025-02-03,2025-02-03,株式会社Ｍ＆Ｅ,,株式会社,香川県,高松市,香西東町３００番地,,37,201,7618013,,,,,,,2025-02-03,1,,,,,,0
5600,9500005008764,新規,0,2025-02-03,2025-02-03,一般社団法人Ｔａｍｅｎｉ,,その他の設立登記法人,愛媛県,松山市,堀江町９３０番地１０,,38,201,7992651,,,,,,,2025-02-03,1,,,,,タメニ,0
