sequenceNumber,corporateNumber,process,correct,updateDate,changeDate,name,nameImageId,kind,prefectureName,cityName,streetNumber,addressImageId,prefectureCode,cityCode,postCode,addressOutside,addressOutsideImageId,closeDate,closeCause,successorCorporateNumber,changeCause,assignmentDate,latest,enName,enPrefectureName,enCityName,enAddressOutside,furigana,hihyoji
10,1010001222814,新規,0,2021-12-13,2021-12-13,ＡＩ　ＨＯＮＥＹ株式会社,,株式会社,東京都,中央区,銀座６丁目１３番１６号銀座ＷａｌｌビルＵＣＦ５０１,,13,102,1040061,,,,,,,2021-12-13,1,,,,,アイハニー,0
14,1010003036543,新規,0,2021-12-13,2021-12-13,合同会社トリニティ,,合同会社,東京都,中央区,銀座７丁目２番２２号,,13,102,1040061,,,,,,,2021-12-13,1,,,,,トリニティ,0
26,1010401164144,新規,0,2021-12-13,2021-12-13,Ｚｉｌｌｎｋジャパン株式会社,,株式会社,東京都,港区,芝大門２丁目１２番１０号Ｔ＆Ｇ浜松町ビル６階,,13,103,1050012,,,,,,,2021-12-13,1,,,,,ザイリンクジャパン,0
29,1010403026689,新規,0,2021-12-13,2021-12-13,合同会社Ｂ－ＦＩＲＳＴ,,合同会社,東京都,港区,高輪１丁目２７番３７－４１８号,,13,103,1080074,,,,,,,2021-12-13,1,,,,,ビーファースト,0
35,1010501048206,新規,0,2021-12-13,2021-12-13,株式会社ＪＡＫコレクション,,株式会社,東京都,台東区,浅草５丁目２６番２号,,13,106,1110032,,,,,,,2021-12-13,1,,,,,ジェイエイケイコレクション,0
56,1011001143463,新規,0,2021-12-13,2021-12-13,株式会社ファンデーション,,株式会社,東京都,渋谷区,千駄ヶ谷３丁目３１番３号,,13,113,1510051,,,,,,,2021-12-13,1,,,,,ファンデーション,0
57,1011001144032,新規,0,2021-12-13,2021-12-13,株式会社ＣＯＣＯＬ,,株式会社,東京都,渋谷区,神宮前６丁目２３番４号桑野ビル２階,,13,113,1500001,,,,,,,2021-12-13,1,,,,,ココル,0
58,1011001144247,新規,0,2021-12-13,2021-12-13,株式会社ａｓｔｅｒｉｓｋ,,株式会社,東京都,渋谷区,富ヶ谷１丁目５３－４本橋ビル３０２,,13,113,1510063,,,,,,,2021-12-13,1,,,,,アスタリスク,0
59,1011001144453,新規,0,2021-12-13,2021-12-13,マエノリ株式会社,,株式会社,東京都,渋谷区,神宮前６丁目２３番４号桑野ビル２階,,13,113,1500001,,,,,,,2021-12-13,1,,,,,マエノリ,0
60,1011001144461,新規,0,2021-12-13,2021-12-13,株式会社Ｒｅｃｒｅａ,,株式会社,東京都,渋谷区,恵比寿１丁目１５番９号日宝恵比寿ビル４０３,,13,113,1500013,,,,,,,2021-12-13,1,,,,,リクレア,0
68,1011101097147,新規,0,2021-12-13,2021-12-13,株式会社和諧,,株式会社,東京都,新宿区,四谷坂町２番３－１０３号,,13,104,1600002,,,,,,,2021-12-13,1,,,,,ワカイ,0
74,1011301027408,新規,0,2021-12-13,2021-12-13,株式会社ベストペットセレモニー,,株式会社,東京都,杉並区,成田東４丁目３１番２号,,13,115,1660015,,,,,,,2021-12-13,1,,,,,ベストペットセレモニー,0
77,1011801040050,新規,0,2021-12-13,2021-12-13,株式会社ＢｏｕｎｃｅＢａｃｋ,,株式会社,東京都,足立区,西綾瀬２丁目２３番２５－６０３号,,13,121,1200014,,,,,,,2021-12-13,1,,,,,バウンスバック,0
85,1012701016818,新規,0,2021-12-13,2021-12-13,株式会社クラファイド,,株式会社,東京都,西東京市,芝久保町２丁目１４番３９号,,13,229,1880014,,,,,,,2021-12-13,1,,,,,クラファイド,0
86,1012801021271,新規,0,2021-12-13,2021-12-13,株式会社ナレッジクリエーション,,株式会社,東京都,国分寺市,南町３丁目７番１３号コスモ国分寺南町１０１,,13,214,1850021,,,,,,,2021-12-13,1,,,,,,0
87,1012803002658,新規,0,2021-12-13,2021-12-13,コンフォート合同会社,,合同会社,東京都,国立市,中１丁目８番地の１２－４０４号,,13,215,1860004,,,,,,,2021-12-13,1,,,,,コンフォート,0
100,1020001144306,新規,0,2021-12-13,2021-12-13,株式会社神奈川ファクトリー,,株式会社,神奈川県,横浜市西区,高島２丁目１１番２号スカイメナー横浜５１９,,14,103,2200011,,,,,,,2021-12-13,1,,,,,カナガワファクトリー,0
117,1030001145823,新規,0,2021-12-13,2021-12-13,株式会社榎工務店,,株式会社,埼玉県,さいたま市南区,大字太田窪３５１２番地１０,,11,108,3360015,,,,,,,2021-12-13,1,,,,,エノキコウムテン,0
129,1040001121344,新規,0,2021-12-13,2021-12-13,株式会社ユアシント,,株式会社,千葉県,千葉市美浜区,磯辺５丁目６番４－３０８号,,12,106,2610012,,,,,,,2021-12-13,1,,,,,ユアシント,0
133,1040003019108,新規,0,2021-12-13,2021-12-13,合同会社からくりうさぎ,,合同会社,千葉県,東金市,大沼田４４３－８,,12,213,2830051,,,,,,,2021-12-13,1,,,,,カラクリウサギ,0
141,1050003006253,新規,0,2021-12-13,2021-12-13,合同会社ゆうは,,合同会社,茨城県,取手市,双葉２丁目１５７０番地１１号,,08,217,3001501,,,,,,,2021-12-13,1,,,,,ユウハ,0
146,1070001038726,新規,0,2021-12-13,2021-12-13,株式会社白井,,株式会社,群馬県,高崎市,鶴見町１番地１,,10,202,3700848,,,,,,,2021-12-13,1,,,,,シライ,0
152,1090001017315,新規,0,2021-12-13,2021-12-13,株式会社ウッドボックスエンジニアリング,,株式会社,山梨県,大月市,御太刀１丁目１０－４千野ビル１階,,19,206,4010012,,,,,,,2021-12-13,1,,,,,ウッドボックスエンジニアリング,0
153,1100001034886,新規,0,2021-12-13,2021-12-13,株式会社ナカトミホールディングス,,株式会社,長野県,上高井郡高山村,大字高井６４４５番地２,,20,543,3820800,,,,,,,2021-12-13,1,,,,,ナカトミホールディングス,0
157,1110001036262,新規,0,2021-12-13,2021-12-13,株式会社東洋ハウス,,株式会社,新潟県,新潟市東区,中山６丁目１２番２０号,,15,102,9500861,,,,,,,2021-12-13,1,,,,,トウヨウハウス,0
173,1120101064781,新規,0,2021-12-13,2021-12-13,株式会社家入自動車,,株式会社,大阪府,岸和田市,流木町２８２番地の１,,27,202,5960835,,,,,,,2021-12-13,1,,,,,イエイリジドウシャ,0
184,1130001070664,新規,0,2021-12-13,2021-12-13,日駿株式会社,,株式会社,京都府,京都市西京区,桂芝ノ下町３番地８,,26,111,6158077,,,,,,,2021-12-13,1,,,,,ニシュン,0
185,1130001070697,新規,0,2021-12-13,2021-12-13,株式会社八百萬,,株式会社,京都府,京都市中京区,蛸薬師通烏丸西入橋弁慶町２２８番地１０１号室,,26,104,6048151,,,,,,,2021-12-13,1,,,,,ヤオヨロズ,0
201,1160001023867,新規,0,2021-12-13,2021-12-13,株式会社竹本工務店,,株式会社,滋賀県,愛知郡愛荘町,愛知川１０７５番地３,,25,425,5291331,,,,,,,2021-12-13,1,,,,,タケモトコウムテン,0
208,1180005019554,新規,0,2021-12-13,2021-12-13,医療法人錬成会,,その他の設立登記法人,愛知県,名古屋市東区,東桜１丁目１４番２５号テレピアビル２Ｆ,,23,102,4610005,,,,,,,2021-12-13,1,,,,,レンセイカイ,0
218,1200001039529,新規,0,2021-12-13,2021-12-13,株式会社ＮＧＴ,,株式会社,岐阜県,羽島郡笠松町,円城寺２８９番地,,21,303,5016035,,,,,,,2021-12-13,1,,,,,エヌジーティー,0
227,1240003005401,新規,0,2021-12-13,2021-12-13,ＳＯＬＡＲＥ合同会社,,合同会社,広島県,広島市西区,中広町３丁目２１－１－２０１号室エステートショージＮｏ．２,,34,104,7330012,,,,,,,2021-12-13,1,,,,,ソラーレ,0
233,1260001036314,新規,0,2021-12-13,2021-12-13,ハウスペイントグループ株式会社,,株式会社,岡山県,倉敷市,連島町西之浦４２６番地３,,33,202,7128001,,,,,,,2021-12-13,1,,,,,ハウスペイントグループ,0
239,1280001008583,新規,0,2021-12-13,2021-12-13,株式会社ひらぎのホールディングス,,株式会社,島根県,松江市,学園１丁目１６番６号,,32,201,6900825,,,,,,,2021-12-13,1,,,,,ヒラギノホールディングス,0
248,1290001095695,新規,0,2021-12-13,2021-12-13,株式会社ｙоｒｉｍｉｃｈｉ,,株式会社,福岡県,糟屋郡志免町,志免中央４丁目１６番１号,,40,343,8112244,,,,,,,2021-12-13,1,,,,,ヨリミチ,0
251,1290005018462,新規,0,2021-12-13,2021-12-13,医療法人天晴,,その他の設立登記法人,福岡県,福岡市西区,今宿３丁目３１番５号,,40,135,8190167,,,,,,,2021-12-13,1,,,,,テンセイ,0
265,1330001029269,新規,0,2021-12-13,2021-12-13,株式会社満福,,株式会社,熊本県,熊本市西区,八島町７２６番地９,,43,103,8600057,,,,,,,2021-12-13,1,,,,,マンプク,0
271,1360001029753,新規,0,2021-12-13,2021-12-13,株式会社レモスパ,,株式会社,沖縄県,那覇市,宇栄原１丁目１５番１号１階,,47,201,9010153,,,,,,,2021-12-13,1,,,,,レモスパ,0
298,1490003001607,新規,0,2021-12-13,2021-12-13,合同会社インドアテニスタカミ,,合同会社,高知県,高知市,北竹島町２４９番地１,,39,201,7808019,,,,,,,2021-12-13,1,,,,,インドアテニスタカミ,0
300,1700150106244,新規,0,2021-12-13,2021-12-13,原田小学校ＰＴＡ,,その他,東京都,葛飾区,東金町２丁目１６番１,,13,122,1250041,,,,,,,2021-12-13,1,,,,,ハラダショウガッコウピーティーエー,0
308,2010001223142,新規,0,2021-12-13,2021-12-13,株式会社晴れのち晴れ,,株式会社,東京都,千代田区,九段南１丁目５番６号,,13,101,1020074,,,,,,,2021-12-13,1,,,,,ハレノチハレ,0
309,2010001223159,新規,0,2021-12-13,2021-12-13,Ｎｅｍｅｓｉｓ　Ｔｅｃｈｎｏｌｏｇｉｅｓ株式会社,,株式会社,東京都,千代田区,丸の内３丁目２番２号丸の内二重橋ビル２階,,13,101,1000005,,,,,,,2021-12-13,1,,,,,ネメシステクノロジズ,0
310,2010001223209,新規,0,2021-12-13,2021-12-13,株式会社サークルエム,,株式会社,東京都,中央区,日本橋富沢町２番１８号,,13,102,1030006,,,,,,,2021-12-13,1,,,,,サークルエム,0
329,2010405020499,新規,0,2021-12-13,2021-12-13,サン共同行政書士法人,,その他の設立登記法人,東京都,港区,南青山１丁目１番１号新青山ビル東館１５階,,13,103,1070062,,,,,,,2021-12-13,1,,,,,サンキョウドウ,0
331,2010501048205,新規,0,2021-12-13,2021-12-13,株式会社江口宝飾,,株式会社,東京都,台東区,上野３丁目１９番６号,,13,106,1100005,,,,,,,2021-12-13,1,,,,,エグチホウショク,0
337,2010701041901,新規,0,2021-12-13,2021-12-13,株式会社ＩＮＳＰＩＲＡＴＩＯＮ,,株式会社,東京都,品川区,東品川２丁目５番６－２９０９号天王洲ビュータワー,,13,109,1400002,,,,,,,2021-12-13,1,,,,,インスピレーション,0
347,2010901049983,新規,0,2021-12-13,2021-12-13,株式会社Ｔ’ｓ　ｄｒｅａｍ,,株式会社,東京都,世田谷区,深沢４丁目１番２０号,,13,112,1580081,,,,,,,2021-12-13,1,,,,,ティーズドリーム,0
349,2010903007007,新規,0,2021-12-13,2021-12-13,カプリスカイ合同会社,,合同会社,東京都,世田谷区,池尻２丁目３４－１ハイツルピネス１階,,13,112,1540001,,,,,,,2021-12-13,1,,,,,カプリスカイ,0
353,2011001144469,新規,0,2021-12-13,2021-12-13,株式会社７１９,,株式会社,東京都,渋谷区,神宮前６丁目２３番４号桑野ビル２階,,13,113,1500001,,,,,,,2021-12-13,1,,,,,ナナイチキュー,0
354,2011001144477,新規,0,2021-12-13,2021-12-13,ＧｒａｆｆｉｔｉＢｕｓ株式会社,,株式会社,東京都,目黒区,目黒本町２丁目２２－１８,,13,110,1520002,,,,,,,2021-12-13,1,,,,,グラフィティバス,0
355,2011001144527,新規,0,2021-12-13,2021-12-13,株式会社ＭＩＲＡＮ,,株式会社,東京都,渋谷区,恵比寿４丁目２０番３号,,13,113,1500013,,,,,,,2021-12-13,1,,,,,ミラン,0
361,2011103011261,新規,0,2021-12-13,2021-12-13,合同会社ｃｏｐｉｉｎｃ,,合同会社,東京都,新宿区,歌舞伎町２丁目４１番３号レオ寿ビル２階Ａ,,13,104,1600021,,,,,,,2021-12-13,1,,,,,コピインク,0
372,2011701024904,新規,0,2021-12-13,2021-12-13,株式会社ＧＲＯ　ＵＰ,,株式会社,東京都,江戸川区,本一色２丁目２番１４－３０１号,,13,123,1330044,,,,,,,2021-12-13,1,,,,,グローアップ,0
381,2012401038640,新規,0,2021-12-13,2021-12-13,株式会社Ｍｉｎｄ　Ｌｅａｆ,,株式会社,東京都,府中市,白糸台５丁目６－３６－１０２,,13,206,1830011,,,,,,,2021-12-13,1,,,,,マインドリーフ,0
393,2020001144338,新規,0,2021-12-13,2021-12-13,株式会社田中自動車,,株式会社,神奈川県,横浜市泉区,和泉が丘１丁目４２番５号,,14,116,2450022,,,,,,,2021-12-13,1,,,,,タナカジドウシャ,0
399,2020003020974,新規,0,2021-12-13,2021-12-13,ＬＯＴＵＳ合同会社,,合同会社,神奈川県,横浜市旭区,鶴ケ峰本町２丁目２７番１２号,,14,112,2410021,,,,,,,2021-12-13,1,,,,,ロータス,0
405,2030001145789,新規,0,2021-12-13,2021-12-13,株式会社Ｂ＆Ｈ,,株式会社,埼玉県,蓮田市,東５丁目８番６５号蓮田マイン２階,,11,238,3490111,,,,,,,2021-12-13,1,,,,,ビーアンドエイチ,0
419,2040001121327,新規,0,2021-12-13,2021-12-13,株式会社豊翔,,株式会社,千葉県,茂原市,上永吉４８９番地,,12,210,2970036,,,,,,,2021-12-13,1,,,,,ホウショウ,0
420,2040001121343,新規,0,2021-12-13,2021-12-13,株式会社ＥＬテック,,株式会社,千葉県,八千代市,大和田新田２５７－７８,,12,221,2760046,,,,,,,2021-12-13,1,,,,,イーエルテック,0
426,2040003019098,新規,0,2021-12-13,2021-12-13,マックコーポレーション合同会社,,合同会社,千葉県,千葉市中央区,蘇我３丁目３０番５号,,12,101,2600822,,,,,,,2021-12-13,1,,,,,マックコーポレーション,0
427,2040003019107,新規,0,2021-12-13,2021-12-13,合同会社むいむい,,合同会社,千葉県,我孫子市,布佐平和台２丁目２０番１２号,,12,222,2701108,,,,,,,2021-12-13,1,,,,,ムイムイ,0
428,2040003019115,新規,0,2021-12-13,2021-12-13,ムート合同会社,,合同会社,千葉県,習志野市,津田沼７丁目１６－１０,,12,216,2750016,,,,,,,2021-12-13,1,,,,,ムート,0
431,2050001050302,新規,0,2021-12-13,2021-12-13,株式会社ＦＲ＆Ｇ,,株式会社,茨城県,那珂郡東海村,大字白方１５２－１１,,08,341,3191106,,,,,,,2021-12-13,1,,,,,エフアールアンドジー,0
433,2050003006252,新規,0,2021-12-13,2021-12-13,合同会社メビウスメディカル,,合同会社,茨城県,水戸市,宮町１丁目２番４号ＭＹＭビル３階ビズコンフォート２６号室,,08,201,3100015,,,,,,,2021-12-13,1,,,,,メビウスメディカル,0
434,2050005012983,新規,0,2021-12-13,2021-12-13,特定非営利活動法人和,,その他の設立登記法人,茨城県,水戸市,平須町１８８５番地の１,,08,201,3100853,,,,,,,2021-12-13,1,,,,,ナゴミ,0
440,2070003004329,新規,0,2021-12-13,2021-12-13,合同会社ミライメディカル,,合同会社,群馬県,前橋市,上小出町３丁目３２番地８プレアデス２０１号室,,10,201,3710037,,,,,,,2021-12-13,1,,,,,ミライメディカル,0
446,2080405007408,新規,0,2021-12-13,2021-12-13,特定非営利活動法人まつぼっくりの会,,その他の設立登記法人,静岡県,浜松市天竜区,二俣町南鹿島５８番地の１９,,22,137,4313312,,,,,,,2021-12-13,1,,,,,マツボックリノカイ,0
464,2120001242395,新規,0,2021-12-13,2021-12-13,株式会社リーガルウエスト,,株式会社,大阪府,大阪市中央区,難波２丁目３番７号,,27,128,5420076,,,,,,,2021-12-13,1,,,,,リーガルウエスト,0
465,2120001242445,新規,0,2021-12-13,2021-12-13,日本総合管財株式会社,,株式会社,大阪府,大阪市中央区,釣鐘町１丁目５番７号,,27,128,5400035,,,,,,,2021-12-13,1,,,,,ニホンソウゴウカンザイ,0
468,2120003020758,新規,0,2021-12-13,2021-12-13,合同会社サンライズ,,合同会社,大阪府,大阪市中央区,島町１丁目４番９号４０１号,,27,128,5400034,,,,,,,2021-12-13,1,,,,,サンライズ,0
470,2120005022645,新規,0,2021-12-13,2021-12-13,司法書士法人友綱法務事務所,,その他の設立登記法人,大阪府,大阪市中央区,島町１丁目４番８号カノヤビル１０階,,27,128,5400034,,,,,,,2021-12-13,1,,,,,トモツナホウムジムショ,0
474,2120101064772,新規,0,2021-12-13,2021-12-13,株式会社ＢＩＲＴＨ,,株式会社,大阪府,岸和田市,下松町８９４番地の１７,,27,202,5960823,,,,,,,2021-12-13,1,,,,,バース,0
475,2120101064780,新規,0,2021-12-13,2021-12-13,株式会社ステンレスアート・Ｇ－１,,株式会社,大阪府,堺市中区,土塔町１４４番地７,,27,142,5998234,,,,,,,2021-12-13,1,,,,,ステンレスアートジーワン,0
481,2120903003936,新規,0,2021-12-13,2021-12-13,合同会社ｗｈｉｒｌｗｉｎｄ,,合同会社,大阪府,豊中市,千里園３丁目９－１０,,27,203,5600046,,,,,,,2021-12-13,1,,,,,ワールウインド,0
482,2120903003944,新規,0,2021-12-13,2021-12-13,合同会社ｏｆｆｉｃｅ　ＴＯＫＡＳＨＩＫＩ,,合同会社,大阪府,吹田市,高浜町９番１６号,,27,205,5640026,,,,,,,2021-12-13,1,,,,,オフィストカシキ,0
487,2122003002232,新規,0,2021-12-13,2021-12-13,合同会社テトラワークス,,合同会社,大阪府,東大阪市,高井田本通２丁目５－３２,,27,227,5770066,,,,,,,2021-12-13,1,,,,,テトラワークス,0
503,2140003017091,新規,0,2021-12-13,2021-12-13,合同会社心神,,合同会社,兵庫県,加古川市,加古川町友沢４６９番地の４３,,28,210,6750035,,,,,,,2021-12-13,1,,,,,シンシン,0
524,2200005013289,新規,0,2021-12-13,2021-12-13,一般社団法人マルカ,,その他の設立登記法人,岐阜県,岐阜市,上加納山４７１７番地１０３,,21,201,5008121,,,,,,,2021-12-13,1,,,,,マルカ,0
531,2240001059043,新規,0,2021-12-13,2021-12-13,株式会社ＪＩＮ,,株式会社,広島県,福山市,南本庄町一丁目８－２,,34,207,7210000,,,,,,,2021-12-13,1,,,,,ジン,0
538,2260001036305,新規,0,2021-12-13,2021-12-13,株式会社今村商事,,株式会社,岡山県,玉野市,宇藤木４９７番地２,,33,204,7060133,,,,,,,2021-12-13,1,,,,,イマムラショウジ,0
546,2290003011922,新規,0,2021-12-13,2021-12-13,エヌツー合同会社,,合同会社,福岡県,福岡市南区,大橋２丁目２９番２８－７０３号,,40,134,8150033,,,,,,,2021-12-13,1,,,,,エヌツー,0
548,2300003001764,新規,0,2021-12-13,2021-12-13,合同会社あひる堂,,合同会社,佐賀県,佐賀市,緑小路５番１１号,,41,201,8400841,,,,,,,2021-12-13,1,,,,,アヒルドウ,0
552,2320001018783,新規,0,2021-12-13,2021-12-13,ＰＬＡＮ　Ｂ株式会社,,株式会社,大分県,大分市,大手町２丁目３番２号,,44,201,8700022,,,,,,,2021-12-13,1,,,,,プランビー,0
561,2370001047935,新規,0,2021-12-13,2021-12-13,株式会社ＫＭＤコーポレーション,,株式会社,宮城県,仙台市若林区,六丁の目西町２番２８－２１２号,,04,103,9840011,,,,,,,2021-12-13,1,,,,,ケーエムデーコーポレーション,0
586,2700150106235,新規,0,2021-12-13,2021-12-13,ＤＴＧＯ　ＣＯＲＰＯＲＡＴＩＯＮ　ＬＩＭＩＴＥＤ,,外国会社等,東京都,渋谷区,東１丁目８－３常盤松ユープレイス４０１号室,,13,113,1500011,タイ王国、バンコク、クローントエイ、プラカノン、スクンビット通り、スクンビット５０、６９５番,,,,,,2021-12-13,1,,,,,デイーテイージーオーコーポレーシヨンリミテツド,0
587,2700150106243,新規,0,2021-12-13,2021-12-13,ＥＳＥＴ　ＡＳＩＡ　ＰＴＥ．ＬＴＤ．,,外国会社等,,,,,,,,３ＡＮＳＯＮ　ＲＯＡＤ　１２－０１／０２　ＳＰＲＩＮＧＬＥＡＦ　ＴＯＷＥＲ　０７９９０９　ＳＩＮＧＡＰＯＲＥ,,,,,,2021-12-13,1,,,,,イーセツトアジアピーテイーイーエルテイーデイー,0
589,3010001223100,新規,0,2021-12-13,2021-12-13,ＧＬＡＳＳ　ＢＥＡＤ株式会社,,株式会社,東京都,千代田区,神田鍛冶町３丁目７番地２１－５０３号,,13,101,1010045,,,,,,,2021-12-13,1,,,,,ガラスビーズ,0
590,3010001223199,新規,0,2021-12-13,2021-12-13,風信株式会社,,株式会社,東京都,中央区,日本橋浜町２丁目１５番５号日本橋ＯＳＴビル,,13,102,1030007,,,,,,,2021-12-13,1,,,,,フウシン,0
601,3010403026679,新規,0,2021-12-13,2021-12-13,合同会社ティガーゲート,,合同会社,東京都,港区,三田３丁目４番３ＴＨＥＯＦＦＩＣＥ三田１０６号室,,13,103,1080073,,,,,,,2021-12-13,1,,,,,ティガーゲート,0
606,3010501048212,新規,0,2021-12-13,2021-12-13,株式会社Ｆスター販売,,株式会社,東京都,台東区,下谷２丁目１９番５号,,13,106,1100004,,,,,,,2021-12-13,1,,,,,エフスターハンバイ,0
621,3011001144451,新規,0,2021-12-13,2021-12-13,株式会社Ｗｉｔｈ　Ｅｎｔｅｒｔａｉｎｍｅｎｔ,,株式会社,東京都,渋谷区,千駄ヶ谷１丁目１１番１４号,,13,113,1510051,,,,,,,2021-12-13,1,,,,,ウィズエンターテインメント,0
622,3011001144492,新規,0,2021-12-13,2021-12-13,株式会社サルエド,,株式会社,東京都,渋谷区,円山町５番５号Ｎａｖｉ渋谷Ｖ３階,,13,113,1500044,,,,,,,2021-12-13,1,,,,,サルエド,0
624,3011003013852,新規,0,2021-12-13,2021-12-13,ＳｔａｒｓｈｏｔＰａｒｔｎｅｒｓ合同会社,,合同会社,東京都,渋谷区,代々木３丁目５５番７号,,13,113,1510053,,,,,,,2021-12-13,1,,,,,スターショットパートナーズ,0
625,3011003013860,新規,0,2021-12-13,2021-12-13,ＭＹ　ＣＨＡＰＴＥＲ合同会社,,合同会社,東京都,渋谷区,神宮前６丁目２３番４号桑野ビル２階,,13,113,1500001,,,,,,,2021-12-13,1,,,,,マイチャプター,0
631,3011101097104,新規,0,2021-12-13,2021-12-13,株式会社Ｔｅｌｌｕｓ,,株式会社,東京都,新宿区,西新宿７丁目２０番１号,,13,104,1600023,,,,,,,2021-12-13,1,,,,,テルース,0
632,3011101097145,新規,0,2021-12-13,2021-12-13,株式会社ビュリア,,株式会社,東京都,新宿区,西新宿５丁目５番１－２８０９号,,13,104,1600023,,,,,,,2021-12-13,1,,,,,ビュリア,0
633,3011101097153,新規,0,2021-12-13,2021-12-13,株式会社ＢｌｏｃｋＣｈａｉｎ,,株式会社,東京都,新宿区,西新宿１丁目２５番１号,,13,104,1600023,,,,,,,2021-12-13,1,,,,,ブロックチェーン,0
634,3011103011269,新規,0,2021-12-13,2021-12-13,ＴＩＬＡＮＪＡＬＩ合同会社,,合同会社,東京都,新宿区,高田馬場４丁目２２番５号三浦荘１０１,,13,104,1690075,,,,,,,2021-12-13,1,,,,,ティランザリ,0
656,3011701024878,新規,0,2021-12-13,2021-12-13,カイヨウ株式会社,,株式会社,東京都,江戸川区,北小岩８丁目５番８号,,13,123,1330051,,,,,,,2021-12-13,1,,,,,カイヨウ,0
660,3012801021261,新規,0,2021-12-13,2021-12-13,ビジネス・アライアンス株式会社,,株式会社,東京都,国分寺市,泉町１丁目１２番５号,,13,214,1850024,,,,,,,2021-12-13,1,,,,,ビジネスアライアンス,0
670,3013301048365,新規,0,2021-12-13,2021-12-13,株式会社ＣＣパートナーズ,,株式会社,東京都,豊島区,雑司が谷３丁目８番２号コモンシティ目白４０１号室,,13,116,1710032,,,,,,,2021-12-13,1,,,,,シーシーパートナーズ,0
684,3021003011153,新規,0,2021-12-13,2021-12-13,ＭａＣｏｌｌａｂｏ　ＬＬＣ合同会社,,合同会社,神奈川県,逗子市,逗子２丁目１０番１号,,14,208,2490006,,,,,,,2021-12-13,1,,,,,,0
691,3030001145755,新規,0,2021-12-13,2021-12-13,株式会社総務,,株式会社,埼玉県,富士見市,ふじみ野東２丁目１番地１グリーンテラスふじみ野４０６,,11,235,3540036,,,,,,,2021-12-13,1,,,,,ソウム,0
699,3030003018488,新規,0,2021-12-13,2021-12-13,合同会社ＩＥＭＯＣＨＩ,,合同会社,埼玉県,川越市,小仙波町４丁目１－２１,,11,201,3500036,,,,,,,2021-12-13,1,,,,,イエモチ,0
700,3030005020649,新規,0,2021-12-13,2021-12-13,特定非営利活動法人ＣＨＩＹＯ．ＳＵＮ,,その他の設立登記法人,埼玉県,東松山市,大字早俣４６４番地１,,11,212,3550043,,,,,,,2021-12-13,1,,,,,チヨサン,0
709,3040003019106,新規,0,2021-12-13,2021-12-13,ＴＡＫＥアセットマネジメント合同会社,,合同会社,千葉県,浦安市,舞浜２丁目３８番３号,,12,227,2790031,,,,,,,2021-12-13,1,,,,,タケアセットマネジメント,0
712,3050001050284,新規,0,2021-12-13,2021-12-13,株式会社エイチ・アンド・エス・ホールディングス,,株式会社,茨城県,坂東市,菅谷１１４５番地７,,08,228,3060505,,,,,,,2021-12-13,1,,,,,エイチアンドエスホールディングス,0
721,3080101022981,新規,0,2021-12-13,2021-12-13,株式会社ＡＳＰＩＲＩＮＧ,,株式会社,静岡県,三島市,広小路町６番２４号第３ＫＯＨＷＡビル２階,,22,206,4110856,,,,,,,2021-12-13,1,,,,,アスピーリング,0
729,3100001034892,新規,0,2021-12-13,2021-12-13,株式会社モータークラフトソメカワ,,株式会社,長野県,長野市,青木島町大塚１３２６番地４６,,20,201,3812205,,,,,,,2021-12-13,1,,,,,モータークラフトソメカワ,0
739,3120001242353,新規,0,2021-12-13,2021-12-13,Ｇｌｏｂａｌ　Ｃｉｔｉｚｅｎ株式会社,,株式会社,大阪府,大阪市城東区,新喜多１丁目９番４８号,,27,118,5360015,,,,,,,2021-12-13,1,,,,,グローバルシティズン,0
740,3120001242361,新規,0,2021-12-13,2021-12-13,株式会社フォレストール,,株式会社,大阪府,大阪市北区,中之島６丁目１番３８－２５１１号,,27,127,5300005,,,,,,,2021-12-13,1,,,,,,0
741,3120001242436,新規,0,2021-12-13,2021-12-13,Ｆｅｉｙｕ　Ｊａｐａｎ株式会社,,株式会社,大阪府,大阪市浪速区,難波中３丁目１４－１６,,27,111,5560011,,,,,,,2021-12-13,1,,,,,フェイウィジャパン,0
742,3120001242460,新規,0,2021-12-13,2021-12-13,株式会社恵成,,株式会社,大阪府,大阪市生野区,新今里４丁目１０番１０号,,27,116,5440001,,,,,,,2021-12-13,1,,,,,エナリ,0
747,3120003020757,新規,0,2021-12-13,2021-12-13,ＨＡＴ合同会社,,合同会社,大阪府,大阪市浪速区,大国１丁目８－１－１Ｆ,,27,111,5560014,,,,,,,2021-12-13,1,,,,,エイチエーティー,0
755,3120101064771,新規,0,2021-12-13,2021-12-13,株式会社スタープロジェクト,,株式会社,大阪府,高石市,綾園７丁目３－３５櫛谷ビル２Ｆ,,27,225,5920014,,,,,,,2021-12-13,1,,,,,スタープロジェクト,0
764,3130001070712,新規,0,2021-12-13,2021-12-13,株式会社ヴィ京都,,株式会社,京都府,京都市上京区,武者小路通室町西入武者小路町４３５番地,,26,102,6020933,,,,,,,2021-12-13,1,,,,,ヴィキョウト,0
790,3180301035716,新規,0,2021-12-13,2021-12-13,株式会社川松,,株式会社,愛知県,刈谷市,宝町２丁目３番地１３,,23,210,4480847,,,,,,,2021-12-13,1,,,,,カワマツ,0
795,3190001028928,新規,0,2021-12-13,2021-12-13,紀平冷熱株式会社,,株式会社,三重県,津市,安濃町草生２３７番地６４,,24,201,5142328,,,,,,,2021-12-13,1,,,,,キヒラレイネツ,0
796,3190001028936,新規,0,2021-12-13,2021-12-13,株式会社マグレブ東海,,株式会社,三重県,四日市市,大字東阿倉川８２３番地１,,24,202,5100805,,,,,,,2021-12-13,1,,,,,マグレブトウカイ,0
802,3200001039527,新規,0,2021-12-13,2021-12-13,株式会社ｎｏｓｕｋｅ,,株式会社,岐阜県,瑞穂市,森６７８番地３,,21,216,5010303,,,,,,,2021-12-13,1,,,,,ノスケ,0
809,3220001024592,新規,0,2021-12-13,2021-12-13,株式会社Ａ．Ｊ,,株式会社,石川県,金沢市,疋田１丁目２０６番地,,17,201,9200003,,,,,,,2021-12-13,1,,,,,エージェイ,0
811,3220005008617,新規,0,2021-12-13,2021-12-13,弁護士法人ＨＡＲＵＴＡ,,その他の設立登記法人,石川県,金沢市,武蔵町１番１６号,,17,201,9200855,,,,,,,2021-12-13,1,,,,,ハルタ,0
814,3240001059050,新規,0,2021-12-13,2021-12-13,株式会社ドリームイノベーション,,株式会社,広島県,広島市安佐南区,伴南４丁目８番２７号,,34,105,7313168,,,,,,,2021-12-13,1,,,,,ドリームイノベーション,0
820,3260001036312,新規,0,2021-12-13,2021-12-13,株式会社カネカ,,株式会社,岡山県,倉敷市,児島上の町２丁目２番５号,,33,202,7110907,,,,,,,2021-12-13,1,,,,,カネカ,0
832,3290001095702,新規,0,2021-12-13,2021-12-13,九州ビルド株式会社,,株式会社,福岡県,久留米市,通町６番地１８,,40,203,8300018,,,,,,,2021-12-13,1,,,,,キュウシュウビルド,0
838,3290801028051,新規,0,2021-12-13,2021-12-13,株式会社ジョイナス,,株式会社,福岡県,北九州市小倉北区,足立２丁目５番２９－２１２号,,40,106,8020042,,,,,,,2021-12-13,1,,,,,ジョイナス,0
839,3290801028068,新規,0,2021-12-13,2021-12-13,株式会社ＦＵＴＵＲＥ,,株式会社,福岡県,北九州市門司区,大里本町３丁目７番７－１６０４号,,40,101,8000063,,,,,,,2021-12-13,1,,,,,フューチャー,0
846,3320001018782,新規,0,2021-12-13,2021-12-13,ミライコンサル株式会社,,株式会社,大分県,大分市,大字八幡２番地の１,,44,201,8700100,,,,,,,2021-12-13,1,,,,,ミライコンサル,0
850,3330001029267,新規,0,2021-12-13,2021-12-13,株式会社Ｂｏｕｎｄｓ,,株式会社,熊本県,熊本市南区,近見１丁目１１番４９号,,43,104,8614101,,,,,,,2021-12-13,1,,,,,バウンズ,0
877,3430003013432,新規,0,2021-12-13,2021-12-13,ＴｉｍｅＭａｃｈｉｎｅ合同会社,,合同会社,北海道,札幌市白石区,菊水上町三条１丁目５３番地１１ブランドール２０２号,,01,104,0030813,,,,,,,2021-12-13,1,,,,,タイムマシーン,0
884,3700150007498,新規,0,2021-12-13,2015-10-09,品川区商店街連合会,,その他,東京都,品川区,西品川１丁目２８－３品川区立中小企業センター内,,13,109,1410033,,,,,,,2015-10-09,1,,,,,シナガワクシヨウテンガイレンゴウカイ,0
886,3700150106242,新規,0,2021-12-13,2021-12-13,Ｏｖｅｒｔｉｅｒ　Ｏｐｅｒａｔｉｏｎｓ,,外国会社等,,,,,,,,ｃ／ｏ　Ｓｔｕａｒｔｓ　Ｃｏｒｐｏｒａｔｅ　Ｓｅｒｖｉｃｅｓ　Ｌｉｍｉｔｅｄ，Ｐ．Ｏ．Ｂｏｘ　２５１０，Ｋｅｎｓｉｇｎｔｏｎ　Ｈｏｕｓｅ　６９　Ｄｒ．Ｒｏｙ’ｓ　Ｄｒｉｖｅ，Ｇｅｏｒｇｅ　Ｔｏｗｎ，Ｇｒａｎｄ　Ｃａｙｍａｎ　ＫＹ１－１１０４，Ｃａｙｍａｎ　Ｉｓｌａｎｄｓ,,,,,,2021-12-13,1,,,,,オーバーテイアオペレーシヨンズ,0
890,4010001223157,新規,0,2021-12-13,2021-12-13,株式会社坂本商行,,株式会社,東京都,中央区,日本橋茅場町２丁目２番１２号,,13,102,1030025,,,,,,,2021-12-13,1,,,,,サカモトショウコウ,0
891,4010001223181,新規,0,2021-12-13,2021-12-13,ＭＭ　ＳＴＥＬＬＡ株式会社,,株式会社,東京都,千代田区,大手町１丁目４番２号,,13,101,1000004,,,,,,,2021-12-13,1,,,,,エムエムステラ,0
892,4010001223198,新規,0,2021-12-13,2021-12-13,株式会社Ｐｒｏｘｙ　Ｗａｔｃｈｅｒ,,株式会社,東京都,中央区,銀座１丁目１２－４Ｎ＆Ｅ－ＢＬＤ．７階,,13,102,1040061,,,,,,,2021-12-13,1,,,,,プロキシウォッチャー,0
894,4010003036524,新規,0,2021-12-13,2021-12-13,合同会社キカクカ,,合同会社,東京都,中央区,東日本橋２丁目２８番４号日本橋ＣＥＴビル２階,,13,102,1030004,,,,,,,2021-12-13,1,,,,,キカクカ,0
897,4010103001824,新規,0,2021-12-13,2021-12-13,アヒュー合同会社,,合同会社,東京都,八王子市,谷野町２０７番地１８トリコロールピエテ２０６号,,13,201,1920016,,,,,,,2021-12-13,1,,,,,アヒュー,0
903,4010401164406,新規,0,2021-12-13,2021-12-13,株式会社リニューアブルインベストメント,,株式会社,東京都,港区,赤坂３丁目１番２号,,13,103,1070052,,,,,,,2021-12-13,1,,,,,リニューアブルインベストメント,0
905,4010405020497,新規,0,2021-12-13,2021-12-13,一般社団法人先進美容技能協会,,その他の設立登記法人,東京都,港区,新橋６丁目５番４号,,13,103,1050004,,,,,,,2021-12-13,1,,,,,センシンビヨウギノウキョウカイ,0
910,4010901049981,新規,0,2021-12-13,2021-12-13,株式会社アップストリーム,,株式会社,東京都,世田谷区,北沢１丁目１９番７号３０１,,13,112,1550031,,,,,,,2021-12-13,1,,,,,アップストリーム,0
911,4010903007005,新規,0,2021-12-13,2021-12-13,合同会社グリーンエルシー,,合同会社,東京都,世田谷区,太子堂５丁目２８番１号,,13,112,1540004,,,,,,,2021-12-13,1,,,,,グリーンエルシー,0
916,4011001144509,新規,0,2021-12-13,2021-12-13,株式会社ＹＯＳＨＩＫＯ,,株式会社,東京都,渋谷区,松濤１丁目１９番４号,,13,113,1500046,,,,,,,2021-12-13,1,,,,,ヨシコ,0
917,4011001144533,新規,0,2021-12-13,2021-12-13,株式会社Ｍ３,,株式会社,東京都,渋谷区,渋谷２丁目１９番１５号宮益坂ビルディング６０９,,13,113,1500002,,,,,,,2021-12-13,1,,,,,エムスリー,0
918,4011003013843,新規,0,2021-12-13,2021-12-13,合同会社ＳＥＮＯＴＥ,,合同会社,東京都,目黒区,碑文谷６丁目７－１,,13,110,1520003,,,,,,,2021-12-13,1,,,,,セノテ,0
919,4011005009344,新規,0,2021-12-13,2021-12-13,一般社団法人自然共生社会再生機構,,その他の設立登記法人,東京都,渋谷区,恵比寿西２丁目２０番８号パーフェクトルーム２０６,,13,113,1500021,,,,,,,2021-12-13,1,,,,,シゼンキョウセイシャカイサイセイキコウ,0
924,4011101097160,新規,0,2021-12-13,2021-12-13,アズーリ株式会社,,株式会社,東京都,新宿区,南榎町２番地３,,13,104,1620852,,,,,,,2021-12-13,1,,,,,アズーリ,0
927,4011301027413,新規,0,2021-12-13,2021-12-13,株式会社シンセリテート,,株式会社,東京都,杉並区,和泉１丁目２３番２号,,13,115,1680063,,,,,,,2021-12-13,1,,,,,シンセリテート,0
929,4011503004994,新規,0,2021-12-13,2021-12-13,関東設備合同会社,,合同会社,東京都,北区,東十条４丁目２－３－３０１,,13,117,1140001,,,,,,,2021-12-13,1,,,,,カントウセツビ,0
934,4011701024885,新規,0,2021-12-13,2021-12-13,株式会社ＳＵＮＳＨＩＮＥ,,株式会社,東京都,江戸川区,南小岩２丁目４番３９号,,13,123,1330056,,,,,,,2021-12-13,1,,,,,サンシャイン,0
950,4020001144311,新規,0,2021-12-13,2021-12-13,株式会社マークアシスト,,株式会社,神奈川県,川崎市高津区,久地１丁目２３番１０－３号,,14,134,2130032,,,,,,,2021-12-13,1,,,,,マークアシスト,0
955,4021003011169,新規,0,2021-12-13,2021-12-13,合同会社マガリナリ,,合同会社,神奈川県,小田原市,飯泉６４３番地の１ハイツ飯泉Ａ棟３０６号室,,14,206,2500863,,,,,,,2021-12-13,1,,,,,マガリナリ,0
958,4030001145746,新規,0,2021-12-13,2021-12-13,株式会社ＫＮＣ,,株式会社,埼玉県,熊谷市,上之１１００－１０３,,11,202,3600012,,,,,,,2021-12-13,1,,,,,ケーエヌシー,0
959,4030001145812,新規,0,2021-12-13,2021-12-13,吉田緑建株式会社,00125122,株式会社,埼玉県,富士見市,山室２丁目２２番２１号,,11,235,3540022,,,,,,,2021-12-13,1,,,,,ヨシダリョクケン,0
971,4040001121325,新規,0,2021-12-13,2021-12-13,株式会社ＭＡＴＯＵ,,株式会社,千葉県,柏市,柏２丁目１１番１６号,,12,217,2770005,,,,,,,2021-12-13,1,,,,,マトウ,0
973,4040003019105,新規,0,2021-12-13,2021-12-13,Ｓ．Ｍ．ＫＹＯＴＯ合同会社,,合同会社,千葉県,山武市,上横地２９９７番地２,,12,237,2891313,,,,,,,2021-12-13,1,,,,,エスエムキョウト,0
974,4050001050291,新規,0,2021-12-13,2021-12-13,株式会社ＡＪＡＢＵＬ　ＣＯＲＰＯＲＡＴＩＯＮ,,株式会社,茨城県,つくば市,北条１６７８番１,,08,220,3004231,,,,,,,2021-12-13,1,,,,,,0
979,4080101022972,新規,0,2021-12-13,2021-12-13,ＷＢＳ株式会社,,株式会社,静岡県,沼津市,大手町１丁目４番２８‐１１０８号,,22,203,4100801,,,,,,,2021-12-13,1,,,,,ダブリュビーエス,0
984,4090003001999,新規,0,2021-12-13,2021-12-13,合同会社ＮＯＡＨ,,合同会社,山梨県,富士吉田市,新西原３丁目１２番１５号,,19,202,4030017,,,,,,,2021-12-13,1,,,,,ノア,0
985,4100001034891,新規,0,2021-12-13,2021-12-13,カタバミ保険サービス株式会社,,株式会社,長野県,松本市,双葉８番１０号,,20,202,3900833,,,,,,,2021-12-13,1,,,,,カタバミホケンサービス,0
987,4110003004652,新規,0,2021-12-13,2021-12-13,コア・デバイズ合同会社,,合同会社,新潟県,新潟市中央区,上大川前通７番町１２３０番地７ストークビル鏡橋７階,,15,103,9518068,,,,,,,2021-12-13,1,,,,,コアデバイズ,0
1001,4120001242419,新規,0,2021-12-13,2021-12-13,古塘株式会社,,株式会社,大阪府,大阪市中央区,松屋町９番２０号ローレルステート松屋町４０８,,27,128,5420067,,,,,,,2021-12-13,1,,,,,コトウ,0
1002,4120003020756,新規,0,2021-12-13,2021-12-13,Ｍ＆Ｈ　ＪＡＰＡＮ合同会社,,合同会社,大阪府,大阪市北区,梅田１丁目１－３,,27,127,5300001,,,,,,,2021-12-13,1,,,,,エムアンドエイチジャパン,0
1009,4120103004477,新規,0,2021-12-13,2021-12-13,プライマリープラン合同会社,,合同会社,大阪府,堺市堺区,戎之町東４丁１番１５号,,27,141,5900945,,,,,,,2021-12-13,1,,,,,プライマリープラン,0
1023,4140001124078,新規,0,2021-12-13,2021-12-13,株式会社地方創生機構ウェストバリー,,株式会社,兵庫県,宝塚市,境野字横道山１－５,,28,214,6691222,,,,,,,2021-12-13,1,,,,,チホウソウセイキコウウェストバリー,0
1024,4140001124136,新規,0,2021-12-13,2021-12-13,株式会社ストライブジャパン,,株式会社,兵庫県,西宮市,高須町１丁目１番９－６０１号,,28,204,6638141,,,,,,,2021-12-13,1,,,,,ストライブジャパン,0
1036,4160003002445,新規,0,2021-12-13,2021-12-13,晃コンサルティング合同会社,,合同会社,滋賀県,大津市,山上町１２番１６号,,25,201,5200038,,,,,,,2021-12-13,1,,,,,アキコンサルティング,0
1038,4170003001669,新規,0,2021-12-13,2021-12-13,合同会社Ａｎｇｅｌ　Ｓｔａｒ,,合同会社,和歌山県,和歌山市,栄谷１５９番地３,,30,201,6408441,,,,,,,2021-12-13,1,,,,,エンジェルスター,0
1047,4180003023282,新規,0,2021-12-13,2021-12-13,清澄合同会社,,合同会社,愛知県,名古屋市中区,丸の内３丁目２０番２０号,,23,106,4600002,,,,,,,2021-12-13,1,,,,,キヨスミ,0
1049,4180005019551,新規,0,2021-12-13,2021-12-13,医療法人支葉会,,その他の設立登記法人,愛知県,名古屋市中川区,高畑２丁目１４番地シェルコート高畑１、２階,,23,110,4540911,,,,,,,2021-12-13,1,,,,,シヨウカイ,0
1056,4200001039526,新規,0,2021-12-13,2021-12-13,株式会社ＦＡ,,株式会社,岐阜県,安八郡神戸町,大字神戸１３８０番地の１５,,21,381,5032305,,,,,,,2021-12-13,1,,,,,エフエー,0
1057,4200003005393,新規,0,2021-12-13,2021-12-13,健康ライフサポート合同会社,,合同会社,岐阜県,中津川市,千旦林１６５８番地の４,,21,206,5099131,,,,,,,2021-12-13,1,,,,,ケンコウライフサポート,0
1075,4260001036311,新規,0,2021-12-13,2021-12-13,株式会社Ｌｙｒａ,,株式会社,岡山県,岡山市中区,下２４５‐１中区下ＫＫ店舗１０５,,33,102,7038222,,,,,,,2021-12-13,1,,,,,リラ,0
1084,4290801028067,新規,0,2021-12-13,2021-12-13,株式会社ｓｋｙ　ｈｉｇｈ,,株式会社,福岡県,北九州市小倉北区,上富野５丁目１２番１２号,,40,106,8020022,,,,,,,2021-12-13,1,,,,,スカイハイ,0
1086,4310001017628,新規,0,2021-12-13,2021-12-13,株式会社Ｃ．Ｍ．Ｔ,,株式会社,長崎県,諫早市,多良見町化屋１８４７番地,,42,204,8590401,,,,,,,2021-12-13,1,,,,,シーエムティー,0
1093,4350001017467,新規,0,2021-12-13,2021-12-13,宮崎リワード株式会社,,株式会社,宮崎県,宮崎市,松橋２丁目４番３１号宮崎県中小企業会館５階５０６号,,45,201,8800013,,,,,,,2021-12-13,1,,,,,ミヤザキリワード,0
1102,4370001047933,新規,0,2021-12-13,2021-12-13,ＩＲｃ２株式会社,,株式会社,宮城県,栗原市,築館薬師４丁目８番１５号,,04,213,9872252,,,,,,,2021-12-13,1,,,,,アイアールシートゥー,0
1103,4370001047941,新規,0,2021-12-13,2021-12-13,株式会社テクノサービス,,株式会社,宮城県,柴田郡大河原町,小山田字馬取６２番地１,,04,321,9891258,,,,,,,2021-12-13,1,,,,,,0
1115,4400001015705,新規,0,2021-12-13,2021-12-13,株式会社Ｋ－２０２１,,株式会社,岩手県,盛岡市,東見前５地割１１１番地２９,,03,201,0200832,,,,,,,2021-12-13,1,,,,,ケイニーマルニーイチ,0
1125,4460101007101,新規,0,2021-12-13,2021-12-13,株式会社アルゴハック,,株式会社,北海道,河西郡中札内村,常盤西３線２５１番地１４,,01,638,0891300,,,,,,,2021-12-13,1,,,,,アルゴハック,0
1126,4470001018866,新規,0,2021-12-13,2021-12-13,株式会社長町洗剤販売,,株式会社,香川県,高松市,国分寺町新居１４８３番地１,,37,201,7690101,,,,,,,2021-12-13,1,,,,,ナガマチセンザイハンバイ,0
1129,4700150106241,新規,0,2021-12-13,2021-12-13,Ｌｏｆｔｙ　Ｓｐｅｅｄ　Ｌｉｍｉｔｅｄ,,外国会社等,東京都,港区,赤坂６丁目１９番１９号２０３,,13,103,1070052,イギリス領バァージン諸島トルトラ島、ロードタウン、Ｊ＆Ｃビルディング３階,,,,,,2021-12-13,1,,,,,ロフテイースピードリミテツド,0
1138,5010001223148,新規,0,2021-12-13,2021-12-13,株式会社ＮＯＭ,,株式会社,東京都,千代田区,平河町１丁目６－１５ＵＳビル８Ｆ,,13,101,1020093,,,,,,,2021-12-13,1,,,,,ノム,0
1139,5010001223197,新規,0,2021-12-13,2021-12-13,株式会社ニューエステート,,株式会社,東京都,千代田区,岩本町３丁目９－３,,13,101,1010032,,,,,,,2021-12-13,1,,,,,ニューエステート,0
1143,5010003036515,新規,0,2021-12-13,2021-12-13,セイントブリーズ合同会社,,合同会社,東京都,文京区,本郷４丁目１９番１１号,,13,105,1130033,,,,,,,2021-12-13,1,,,,,セイントブリーズ,0
1144,5010003036523,新規,0,2021-12-13,2021-12-13,合同会社ｅａｓｙ,,合同会社,東京都,文京区,水道２丁目１６番１６号丸川ハイツ４０１,,13,105,1120005,,,,,,,2021-12-13,1,,,,,イージー,0
1148,5010401164149,新規,0,2021-12-13,2021-12-13,この世から孤独を無くす株式会社,,株式会社,東京都,港区,赤坂２丁目１７番５０－１５１１号,,13,103,1070052,,,,,,,2021-12-13,1,,,,,コノヨカラコドクヲナクス,0
1149,5010401164347,新規,0,2021-12-13,2021-12-13,Ｍｉｒａｋｌ株式会社,,株式会社,東京都,港区,赤坂９丁目７番１号ミッドタウンタワー１８階,,13,103,1070052,,,,,,,2021-12-13,1,,,,,ミラクル,0
1162,5010903007004,新規,0,2021-12-13,2021-12-13,合同会社クーベルチュール,,合同会社,東京都,世田谷区,玉堤１丁目１１番７－１０２号,,13,112,1580087,,,,,,,2021-12-13,1,,,,,クーベルチュール,0
1166,5011001144433,新規,0,2021-12-13,2021-12-13,クリキンディ株式会社,,株式会社,東京都,渋谷区,恵比寿南２丁目１６－１２,,13,113,1500022,,,,,,,2021-12-13,1,,,,,クリキンディ,0
1173,5011101097176,新規,0,2021-12-13,2021-12-13,レゾンデートル株式会社,,株式会社,東京都,新宿区,中井２丁目２６番２１号,,13,104,1610035,,,,,,,2021-12-13,1,,,,,レゾンデートル,0
1184,5011503005001,新規,0,2021-12-13,2021-12-13,ナマステ・インターナショナル合同会社,,合同会社,東京都,荒川区,町屋２丁目２１番２２号,,13,118,1160001,,,,,,,2021-12-13,1,,,,,ナマステインターナショナル,0
1191,5011701024901,新規,0,2021-12-13,2021-12-13,株式会社眞,,株式会社,東京都,江戸川区,一之江５丁目２５番６号平成ハイツ３０１,,13,123,1320024,,,,,,,2021-12-13,1,,,,,シン,0
1206,5013303005949,新規,0,2021-12-13,2021-12-13,Ｌａｉｔｏｎ合同会社,,合同会社,東京都,豊島区,西池袋１丁目９番８号,,13,116,1710021,,,,,,,2021-12-13,1,,,,,レトン,0
1220,5021005012379,新規,0,2021-12-13,2021-12-13,藤沢キリスト協会,,その他の設立登記法人,神奈川県,藤沢市,朝日町２０番６号,,14,205,2510054,,,,,,,2021-12-13,1,,,,,,0
1225,5030001145778,新規,0,2021-12-13,2021-12-13,株式会社アキヒエクスプレス,,株式会社,埼玉県,行田市,大字野１３３２番地,,11,206,3610026,,,,,,,2021-12-13,1,,,,,アキヒエクスプレス,0
1226,5030001145803,新規,0,2021-12-13,2021-12-13,株式会社英昇,,株式会社,埼玉県,川口市,東川口４丁目２９番３９号ラデヴィーナ東川口１０１号,,11,203,3330801,,,,,,,2021-12-13,1,,,,,エイショウ,0
1227,5030001145811,新規,0,2021-12-13,2021-12-13,株式会社Ｔ．Ｍ．Ｔ．,,株式会社,埼玉県,越谷市,南越谷１丁目３番１５号サンクレイドル新越谷５０１,,11,222,3430845,,,,,,,2021-12-13,1,,,,,ティーエムティー,0
1235,5030005020655,新規,0,2021-12-13,2021-12-13,社会保険労務士法人ＴＡＮＡＫＡコンサルティング,,その他の設立登記法人,埼玉県,狭山市,中央１丁目４４番地１９号,,11,215,3501308,,,,,,,2021-12-13,1,,,,,タナカコンサルティング,0
1241,5040001121324,新規,0,2021-12-13,2021-12-13,株式会社春,,株式会社,千葉県,船橋市,夏見６丁目７番１４号,,12,204,2730865,,,,,,,2021-12-13,1,,,,,ハル,0
1246,5040003019104,新規,0,2021-12-13,2021-12-13,合同会社バルク,,合同会社,千葉県,松戸市,根本４６１弁天会館３１１号室,,12,207,2710077,,,,,,,2021-12-13,1,,,,,バルク,0
1252,5080001024630,新規,0,2021-12-13,2021-12-13,Ｏｃｅａｎ　Ｗｉｔｎｅｓｓ株式会社,,株式会社,静岡県,静岡市葵区,紺屋町１７番地の１葵タワー１階,,22,101,4200852,,,,,,,2021-12-13,1,,,,,オーシャンウィットネス,0
1253,5080003002700,新規,0,2021-12-13,2021-12-13,かえるケア合同会社,,合同会社,静岡県,焼津市,道原１００８番地の３,,22,212,4250055,,,,,,,2021-12-13,1,,,,,カエルケア,0
1257,5080401025526,新規,0,2021-12-13,2021-12-13,株式会社Ｒｅｖｉｖｅ,,株式会社,静岡県,浜松市東区,大蒲町８２番地１－４０４,,22,132,4350014,,,,,,,2021-12-13,1,,,,,リバイブ,0
1260,5100001034890,新規,0,2021-12-13,2021-12-13,株式会社Ｄｅｆ,,株式会社,長野県,長野市,川中島町御厨６３７番地１,,20,201,3812221,,,,,,,2021-12-13,1,,,,,デフ,0
1261,5110001036259,新規,0,2021-12-13,2021-12-13,株式会社ｍａｃｈｉｎｏｋｉ,,株式会社,新潟県,燕市,花見１１５番地２,,15,213,9591280,,,,,,,2021-12-13,1,,,,,マチノキ,0
1284,5120103004476,新規,0,2021-12-13,2021-12-13,Ｆｕｊｉｎ　Ｒｉｚｉｎ合同会社,,合同会社,大阪府,泉南郡田尻町,嘉祥寺５７８番地２０,,27,362,5980091,,,,,,,2021-12-13,1,,,,,フウジンライジン,0
1298,5140003017089,新規,0,2021-12-13,2021-12-13,合同会社ＲｅＡＬＢＡ,,合同会社,兵庫県,尼崎市,善法寺町１０番３０号ロイヤルガーデン２０３,,28,202,6610973,,,,,,,2021-12-13,1,,,,,リアルバ,0
1299,5140003017097,新規,0,2021-12-13,2021-12-13,合同会社Ｒｈｏｍｂｕｓ　ｏｒｂｉｔ,,合同会社,兵庫県,神戸市東灘区,本山北町６丁目８－２６,,28,101,6580003,,,,,,,2021-12-13,1,,,,,ランバスオービット,0
1300,5160001023871,新規,0,2021-12-13,2021-12-13,株式会社ｔｅｔｏ,,株式会社,滋賀県,湖南市,菩提寺西３丁目６番８号,,25,211,5203248,,,,,,,2021-12-13,1,,,,,テト,0
1302,5170001016908,新規,0,2021-12-13,2021-12-13,サンシャイン・システムズ株式会社,,株式会社,和歌山県,和歌山市,梶取１７１番地１,,30,201,6408411,,,,,,,2021-12-13,1,,,,,サンシャインシステムズ,0
1303,5170003001668,新規,0,2021-12-13,2021-12-13,合同会社西玉農園,,合同会社,和歌山県,日高郡みなべ町,西本庄６９７番地,,30,391,6450027,,,,,,,2021-12-13,1,,,,,ニシタマノウエン,0
1312,5180001149087,新規,0,2021-12-13,2021-12-13,株式会社平倭,,株式会社,愛知県,名古屋市天白区,元八事５丁目１２７番地,,23,116,4680066,,,,,,,2021-12-13,1,,,,,ヘイワ,0
1318,5180003023281,新規,0,2021-12-13,2021-12-13,合同会社ティーク,,合同会社,愛知県,一宮市,昭和２丁目１４番３０号,,23,203,4910917,,,,,,,2021-12-13,1,,,,,ティーク,0
1323,5180303005194,新規,0,2021-12-13,2021-12-13,合同会社ＷＡ,,合同会社,愛知県,豊田市,御幸本町１丁目２１０番地,,23,211,4730901,,,,,,,2021-12-13,1,,,,,ダブルエー,0
1326,5200001039525,新規,0,2021-12-13,2021-12-13,野元工業株式会社,,株式会社,岐阜県,羽島市,福寿町平方３５３番地６,,21,209,5016257,,,,,,,2021-12-13,1,,,,,ノモトコウギョウ,0
1329,5210001018726,新規,0,2021-12-13,2021-12-13,株式会社ネクストアグリサービス,,株式会社,福井県,福井市,清水山町第５６号７３番地,,18,201,9103612,,,,,,,2021-12-13,1,,,,,ネクストアグリサービス,0
1338,5260001036310,新規,0,2021-12-13,2021-12-13,株式会社ハウスカンコー,,株式会社,岡山県,岡山市北区,今６丁目２番４１号,,33,101,7000975,,,,,,,2021-12-13,1,,,,,ハウスカンコー,0
1340,5270003001369,新規,0,2021-12-13,2021-12-13,合同会社Ｄｉｖｅ　ｔｏ　Ｂｌｕｅ,,合同会社,鳥取県,境港市,芝町２３９番地,,31,204,6840066,,,,,,,2021-12-13,1,,,,,ダイブトゥブルー,0
1341,5270003001377,新規,0,2021-12-13,2021-12-13,合同会社ＣＬＥＡＲ　ＲＩＣＨ,,合同会社,鳥取県,米子市,花園町１１９番地１,,31,202,6830836,,,,,,,2021-12-13,1,,,,,クリアリッチ,0
1342,5280003001558,新規,0,2021-12-13,2021-12-13,合同会社ライフピークス,,合同会社,島根県,浜田市,下府町３２７番地１１９,,32,202,6970006,,,,,,,2021-12-13,1,,,,,ライフピークス,0
1345,5290001095691,新規,0,2021-12-13,2021-12-13,株式会社宗電,,株式会社,福岡県,宗像市,自由ヶ丘７丁目１５番２号,,40,220,8114163,,,,,,,2021-12-13,1,,,,,ソウデン,0
1347,5290003011928,新規,0,2021-12-13,2021-12-13,合同会社城里生,,合同会社,福岡県,福岡市早良区,梅林６丁目８番１４号,,40,137,8140172,,,,,,,2021-12-13,1,,,,,キリウ,0
1352,5320001018780,新規,0,2021-12-13,2021-12-13,株式会社インテリア・ミエノ,,株式会社,大分県,大分市,金池町４丁目８番１７－９０１号,,44,201,8700026,,,,,,,2021-12-13,1,,,,,インテリアミエノ,0
1358,5360001029733,新規,0,2021-12-13,2021-12-13,株式会社Ｗｉｔｈ　Ｓｍｉｌｅ　Ｃｈｏｉｃｅ,,株式会社,沖縄県,沖縄市,東２丁目１５－５,,47,211,9042154,,,,,,,2021-12-13,1,,,,,ウィズスマイルチョイス,0
1359,5360001029758,新規,0,2021-12-13,2021-12-13,株式会社丸眞興業,,株式会社,沖縄県,中頭郡中城村,字登又２６６番地１,,47,328,9012421,,,,,,,2021-12-13,1,,,,,マルシンコウギョウ,0
1363,5360003011656,新規,0,2021-12-13,2021-12-13,合同会社メイクリバー,,合同会社,沖縄県,浦添市,字大平３７９番地２コーポ佐久川１０１,,47,208,9012113,,,,,,,2021-12-13,1,,,,,メイクリバー,0
1364,5370001047940,新規,0,2021-12-13,2021-12-13,株式会社ＭＥＴ,,株式会社,宮城県,仙台市青葉区,錦ケ丘４丁目５番地の１３,,04,101,9893123,,,,,,,2021-12-13,1,,,,,エムイーティ,0
1365,5370001047949,新規,0,2021-12-13,2021-12-13,株式会社菊池佳晴建築設計事務所,,株式会社,宮城県,仙台市青葉区,春日町４番１号,,04,101,9800821,,,,,,,2021-12-13,1,,,,,,0
1385,5460401001240,新規,0,2021-12-13,2021-12-13,株式会社ライズ,,株式会社,北海道,根室市,桂木１０８番地,,01,223,0870023,,,,,,,2021-12-13,1,,,,,ライズ,0
1386,5470003002090,新規,0,2021-12-13,2021-12-13,合同会社ＴＡＰ　ＨＯＡ　ＢＡＯ　ＮＧＯＣ,,合同会社,香川県,坂出市,元町１丁目５番１２号,,37,203,7620045,,,,,,,2021-12-13,1,,,,,タップホアバオゴック,0
1388,5490001010052,新規,0,2021-12-13,2021-12-13,知颯機器サービス株式会社,,株式会社,高知県,高知市,介良乙３６６７番地１２,,39,201,7815106,,,,,,,2021-12-13,1,,,,,チハヤキキサービス,0
1390,5500001023861,新規,0,2021-12-13,2021-12-13,株式会社ＳＯＳＨＩМ,,株式会社,愛媛県,松山市,空港通２丁目１－１５グランパル３０１,,38,201,7900054,,,,,,,2021-12-13,1,,,,,ソウシム,0
1393,5700150106240,新規,0,2021-12-13,2021-12-13,ＲＯＨＭ　ＡＮＤ　ＨＡＡＳ　ＥＬＥＣＴＲＯＮＩＣ　ＭＡＴＥＲＩＡＬＳ　ＳＩＮＧＡＰＯＲＥ　ＰＴＥ．ＬＴＤ．,,外国会社等,,,,,,,,２６０　ＯＲＣＨＡＲＤ　ＲＯＡＤ，＃１８－０１，ＴＨＥ　ＨＥＥＲＥＮ，ＳＩＮＧＡＰＯＲＥ（２３８８５５）,,,,,,2021-12-13,1,,,,,ロームアンドハースエレクトロニツクマテリアルズシンガポールピーテイイーエルテイデイ,0
1396,6010001223114,新規,0,2021-12-13,2021-12-13,株式会社ｐｉｎｅ,,株式会社,東京都,中央区,日本橋兜町１７－１日本橋ロイヤルプラザ７０６,,13,102,1030026,,,,,,,2021-12-13,1,,,,,パイン,0
1397,6010001223213,新規,0,2021-12-13,2021-12-13,株式会社アストローサ,,株式会社,東京都,中央区,銀座７丁目１３番６号サガミビル２階,,13,102,1040061,,,,,,,2021-12-13,1,,,,,アストローサ,0
1398,6010001223221,新規,0,2021-12-13,2021-12-13,株式会社リンクス,,株式会社,東京都,千代田区,飯田橋３丁目７番１３号,,13,101,1020072,,,,,,,2021-12-13,1,,,,,リンクス,0
1402,6010003036522,新規,0,2021-12-13,2021-12-13,合同会社東京資産管理,,合同会社,東京都,中央区,築地４丁目４－１４－１１０２号,,13,102,1040045,,,,,,,2021-12-13,1,,,,,トウキョウシサンカンリ,0
1414,6010403026701,新規,0,2021-12-13,2021-12-13,ＦＤＵ合同会社,,合同会社,東京都,港区,台場１丁目１－２－９１０,,13,103,1350091,,,,,,,2021-12-13,1,,,,,エフディーユー,0
1415,6010405020504,新規,0,2021-12-13,2021-12-13,一般社団法人サスティナブルデザイン協会,,その他の設立登記法人,東京都,港区,白金５丁目５番１５号,,13,103,1080072,,,,,,,2021-12-13,1,,,,,サスティナブルデザインキョウカイ,0
1426,6010801032573,新規,0,2021-12-13,2021-12-13,Ｈａｐｐｙ　Ｆｏｒｃｅ株式会社,,株式会社,東京都,大田区,西蒲田８丁目２４番１号,,13,111,1440051,,,,,,,2021-12-13,1,,,,,ハッピーフォース,0
1431,6010903007003,新規,0,2021-12-13,2021-12-13,合同会社ボードゲーム,,合同会社,東京都,世田谷区,宮坂１丁目７番７号,,13,112,1560051,,,,,,,2021-12-13,1,,,,,ボードゲーム,0
1438,6011001144382,新規,0,2021-12-13,2021-12-13,株式会社４ｋｉｚ,,株式会社,東京都,渋谷区,広尾５丁目９－３,,13,113,1500012,,,,,,,2021-12-13,1,,,,,フォーキッズ,0
1439,6011001144465,新規,0,2021-12-13,2021-12-13,株式会社ＳＴＵＤＩＯ＆ＴＨＩＮＫ,,株式会社,東京都,目黒区,柿の木坂１丁目１６番２０号柿の木坂タウンハウス２階,,13,110,1520022,,,,,,,2021-12-13,1,,,,,スタジオアンドシンク,0
1440,6011001144531,新規,0,2021-12-13,2021-12-13,株式会社メタフォル,,株式会社,東京都,渋谷区,円山町５番５号Ｎａｖｉ渋谷Ｖ４階,,13,113,1500044,,,,,,,2021-12-13,1,,,,,メタフォル,0
1442,6011301027411,新規,0,2021-12-13,2021-12-13,株式会社ゴールデンピッグ,,株式会社,東京都,杉並区,和田１丁目１３番１９－４０６号,,13,115,1660012,,,,,,,2021-12-13,1,,,,,ゴールデンピッグ,0
1450,6011703003027,新規,0,2021-12-13,2021-12-13,合同会社ＶＩＮＴＡＧＥ,,合同会社,東京都,江戸川区,南葛西６丁目５番３号,,13,123,1340085,,,,,,,2021-12-13,1,,,,,ヴィンテージ,0
1453,6011803004890,新規,0,2021-12-13,2021-12-13,合同会社造形藝術舎,,合同会社,東京都,葛飾区,青戸１丁目１９番９号田辺第二コーポ１階部分,,13,122,1250062,,,,,,,2021-12-13,1,,,,,ゾウケイゲイジュツシャ,0
1472,6020001144193,新規,0,2021-12-13,2021-12-13,株式会社ＫＡＲＡＴＴＯ,,株式会社,神奈川県,川崎市幸区,鹿島田１丁目１番５号パークタワー新川崎１０９－２,,14,132,2120058,,,,,,,2021-12-13,1,,,,,,0
1473,6020001144268,新規,0,2021-12-13,2021-12-13,株式会社ＡＩＲ,,株式会社,神奈川県,横浜市泉区,和泉中央北４丁目２３番３３号,,14,116,2450024,,,,,,,2021-12-13,1,,,,,エイアイアール,0
1474,6020001144318,新規,0,2021-12-13,2021-12-13,Ｒｉｇｈｔ　Ｈｉｇｈ　Ｃｏｎｓｕｌｔｉｎｇ株式会社,,株式会社,神奈川県,横浜市神奈川区,白幡上町１０番１４－１０２号,,14,102,2210075,,,,,,,2021-12-13,1,,,,,ライトハイコンサルティング,0
1476,6020005015300,新規,0,2021-12-13,2021-12-13,一般社団法人グローカル・ビジネス・コア,,その他の設立登記法人,神奈川県,川崎市川崎区,南渡田町１番１号京浜ビル,,14,131,2100855,,,,,,,2021-12-13,1,,,,,グローカルビジネスコア,0
1480,6021005012386,新規,0,2021-12-13,2021-12-13,医療法人Ｓｍｉｌｅ＆Ｓｈｉｎｅ,,その他の設立登記法人,神奈川県,藤沢市,藤沢５３０番地１０Ｆ．Ｓ．Ｃビル３０１号室,,14,205,2510052,,,,,,,2021-12-13,1,,,,,スマイルアンドシャイン,0
1484,6030001145802,新規,0,2021-12-13,2021-12-13,株式会社エイト,,株式会社,埼玉県,草加市,松江６丁目１番１２号,,11,221,3400013,,,,,,,2021-12-13,1,,,,,エイト,0
1500,6040003019094,新規,0,2021-12-13,2021-12-13,ロジボンドプラス合同会社,,合同会社,千葉県,流山市,東初石３丁目１１１番地の１ウッドパーク初石Ａ－５０３,,12,220,2700114,,,,,,,2021-12-13,1,,,,,ロジボンドプラス,0
1514,6080003002699,新規,0,2021-12-13,2021-12-13,Ｈａｌｃｙｏｎｓ合同会社,,合同会社,静岡県,静岡市駿河区,下川原２丁目２４番１２号コンシェールカエ２０１,,22,102,4210113,,,,,,,2021-12-13,1,,,,,ハルシオン,0
1518,6080101022979,新規,0,2021-12-13,2021-12-13,株式会社伊塗,,株式会社,静岡県,富士市,天間９４９番地の１５,,22,210,4190205,,,,,,,2021-12-13,1,,,,,イト,0
1525,6100003006318,新規,0,2021-12-13,2021-12-13,合同会社ＣＨＩＹＯＫＡ,,合同会社,長野県,松本市,庄内２丁目１－１９宏栄庄内ビル１Ｆ,,20,202,3900828,,,,,,,2021-12-13,1,,,,,チヨカ,0
1534,6120001242417,新規,0,2021-12-13,2021-12-13,任合堂株式会社,,株式会社,大阪府,大阪市中央区,松屋町９番２０号ローレルステート松屋町４０２,,27,128,5420067,,,,,,,2021-12-13,1,,,,,ジンゴウドウ,0
1542,6120101064728,新規,0,2021-12-13,2021-12-13,株式会社ＮＫＴ,,株式会社,大阪府,岸和田市,磯上町６丁目１１番２０号,,27,202,5960001,,,,,,,2021-12-13,1,,,,,エヌケイティ,0
1543,6120901045340,新規,0,2021-12-13,2021-12-13,株式会社翔陽,,株式会社,大阪府,高槻市,紺屋町９番３０号,,27,207,5690804,,,,,,,2021-12-13,1,,,,,ショウヨウ,0
1550,6130003007635,新規,0,2021-12-13,2021-12-13,合同会社紗千,,合同会社,京都府,城陽市,富野南清水８番地の１１６,,26,207,6100111,,,,,,,2021-12-13,1,,,,,サチ,0
1558,6140001124200,新規,0,2021-12-13,2021-12-13,株式会社ＨＬＧＢ　ＳＴＵＤＩＯ,,株式会社,兵庫県,姫路市,香寺町須加院３３８番地２６５,,28,201,6792132,,,,,,,2021-12-13,1,,,,,ハローグッバイスタジオ,0
1562,6140003017096,新規,0,2021-12-13,2021-12-13,鴻源福合同会社,,合同会社,兵庫県,朝来市,和田山町桑原２６番地１,,28,225,6695214,,,,,,,2021-12-13,1,,,,,コウゲンフク,0
1566,6160001023870,新規,0,2021-12-13,2021-12-13,株式会社とんかつ棹,,株式会社,滋賀県,栗東市,中沢２丁目５番２－１００３号グローバル草津,,25,208,5203025,,,,,,,2021-12-13,1,,,,,トンカツタク,0
1567,6160003002443,新規,0,2021-12-13,2021-12-13,合同会社タイムロックス,,合同会社,滋賀県,草津市,野路１丁目４番１６号ＭＮＫ３（５０２号）,,25,206,5250059,,,,,,,2021-12-13,1,,,,,タイムロックス,0
1571,6170001016907,新規,0,2021-12-13,2021-12-13,山本電工株式会社,,株式会社,和歌山県,有田郡有田川町,大字庄３４番地５０,,30,366,6430811,,,,,,,2021-12-13,1,,,,,ヤマモトデンコウ,0
1589,6180001149086,新規,0,2021-12-13,2021-12-13,株式会社三元土木,,株式会社,愛知県,春日井市,東野町７丁目７番地８,,23,206,4860817,,,,,,,2021-12-13,1,,,,,サンゲンドボク,0
1596,6180301035721,新規,0,2021-12-13,2021-12-13,株式会社共進,,株式会社,愛知県,安城市,柿碕町御用地１０６,,23,212,4460003,,,,,,,2021-12-13,1,,,,,キョウシン,0
1604,6200001039532,新規,0,2021-12-13,2021-12-13,株式会社Ｂｌａｃｋｓｍｉｔｈ　Ｊａｐａｎ,,株式会社,岐阜県,関市,山王通１丁目８番地９,,21,205,5013252,,,,,,,2021-12-13,1,,,,,ブラックスミスジャパン,0
1614,6240001059023,新規,0,2021-12-13,2021-12-13,株式会社共栄,,株式会社,広島県,福山市,千田町４丁目２３番１８号,,34,207,7200017,,,,,,,2021-12-13,1,,,,,キョウエイ,0
1621,6270001008415,新規,0,2021-12-13,2021-12-13,株式会社タスク,,株式会社,鳥取県,鳥取市,吉成南町１丁目２４番２号,,31,201,6800871,,,,,,,2021-12-13,1,,,,,タスク,0
1631,6310001017626,新規,0,2021-12-13,2021-12-13,ＹＵＴＡＫＡ工建株式会社,,株式会社,長崎県,長崎市,つつじが丘４丁目１０番２４号,,42,201,8510102,,,,,,,2021-12-13,1,,,,,ユタカコウケン,0
1636,6330003009165,新規,0,2021-12-13,2021-12-13,ＹｕＭａｉｎ合同会社,,合同会社,熊本県,熊本市中央区,南熊本１丁目９番３０号,,43,101,8600812,,,,,,,2021-12-13,1,,,,,ユマン,0
1637,6340001024330,新規,0,2021-12-13,2021-12-13,株式会社ＢＡＳＥ,,株式会社,鹿児島県,鹿児島市,東開町４番地１１２,,46,201,8910115,,,,,,,2021-12-13,1,,,,,ベース,0
1640,6360001029740,新規,0,2021-12-13,2021-12-13,農業生産法人３８５株式会社,,株式会社,沖縄県,宮古島市,城辺字友利８３番地,,47,214,9060107,,,,,,,2021-12-13,1,,,,,ノウギョウセイサンホウジンサンハチゴ,0
1641,6360001029749,新規,0,2021-12-13,2021-12-13,琉球紅型専門ブティック株式会社,,株式会社,沖縄県,宜野湾市,普天間２丁目１２番１４号,,47,205,9012202,,,,,,,2021-12-13,1,,,,,リュウキュウビンガタセンモンブティック,0
1642,6360001029757,新規,0,2021-12-13,2021-12-13,株式会社かりゆしホーム,,株式会社,沖縄県,沖縄市,園田１丁目２０番４号,,47,211,9040022,,,,,,,2021-12-13,1,,,,,カリユシホーム,0
1654,6380003005069,新規,0,2021-12-13,2021-12-13,ＣＫＩ合同会社,,合同会社,福島県,伊達市,保原町字東台後１５－３,,07,213,9600646,,,,,,,2021-12-13,1,,,,,シーケーアイ,0
1657,6390001016711,新規,0,2021-12-13,2021-12-13,株式会社ティスコファーム,,株式会社,山形県,東根市,大字泉郷１６９番地,,06,211,9993722,,,,,,,2021-12-13,1,,,,,ティスコファーム,0
1658,6400003002872,新規,0,2021-12-13,2021-12-13,合同会社ＧＬＯＢＥ,,合同会社,岩手県,盛岡市,三本柳１２地割１８番地７７,,03,201,0200831,,,,,,,2021-12-13,1,,,,,グローブ,0
1662,6430001085545,新規,0,2021-12-13,2021-12-13,株式会社ＮＩＮＡＩＴＥ,,株式会社,北海道,札幌市中央区,北一条西２６丁目３－２９ノースハイム円山公園２０２号室,,01,101,0640821,,,,,,,2021-12-13,1,,,,,ニナイテ,0
1665,6450001013553,新規,0,2021-12-13,2021-12-13,株式会社寺町工業,,株式会社,北海道,旭川市,豊岡四条１０丁目１１番１５号,,01,204,0788234,,,,,,,2021-12-13,1,,,,,テラマチコウギョウ,0
1668,6500001023869,新規,0,2021-12-13,2021-12-13,モンキーズ株式会社,,株式会社,愛媛県,松山市,一番町２丁目５番地１３,,38,201,7900001,,,,,,,2021-12-13,1,,,,,モンキーズ,0
1677,6700150106215,新規,0,2021-12-13,2021-12-13,田浦堰土地改良区,,その他,徳島県,小松島市,横須町１番１号小松島市役所内,,36,203,7730006,,,,,,,2021-12-13,1,,,,,タウラゼキトチカイリョウク,0
1700,7010403026683,新規,0,2021-12-13,2021-12-13,合同会社Ｐｒｅｓｉｎｇ　Ｓｔｙｌｅ,,合同会社,東京都,港区,東麻布１丁目２８番３号,,13,103,1060044,,,,,,,2021-12-13,1,,,,,プレジングスタイル,0
1701,7010405020503,新規,0,2021-12-13,2021-12-13,一般財団法人山本記念財団,,その他の設立登記法人,東京都,港区,六本木５丁目２－１望月ビル,,13,103,1060032,,,,,,,2021-12-13,1,,,,,ヤマモトキネンザイダン,0
1705,7010501048209,新規,0,2021-12-13,2021-12-13,株式会社Ｂｅｅ　Ｖａｌｌｅｙ,,株式会社,東京都,台東区,東上野３丁目２６番１０号,,13,106,1100015,,,,,,,2021-12-13,1,,,,,ビーバレイ,0
1706,7010503006453,新規,0,2021-12-13,2021-12-13,スマイルレーベン合同会社,,合同会社,東京都,台東区,竜泉２丁目５番８号コンフォート竜泉クボタ１０２,,13,106,1100012,,,,,,,2021-12-13,1,,,,,スマイルレーベン,0
1715,7010801032564,新規,0,2021-12-13,2021-12-13,株式会社クボイ管財,,株式会社,東京都,大田区,南馬込５丁目１４番２号,,13,111,1430025,,,,,,,2021-12-13,1,,,,,クボイカンザイ,0
1716,7010901049979,新規,0,2021-12-13,2021-12-13,株式会社宅民商事,,株式会社,東京都,世田谷区,上祖師谷１丁目２８－１３シャトレ映華１０３,,13,112,1570065,,,,,,,2021-12-13,1,,,,,タクミンショウジ,0
1725,7011001144506,新規,0,2021-12-13,2021-12-13,株式会社ｈａｌｆ　ｐｉｎｔ,,株式会社,東京都,目黒区,中央町２丁目３９番８号ガーデイニアコート２Ｂ,,13,110,1520001,,,,,,,2021-12-13,1,,,,,ハーフピント,0
1734,7011101097158,新規,0,2021-12-13,2021-12-13,ＲＥＡ株式会社,,株式会社,東京都,新宿区,新宿２丁目４番８－４０１号,,13,104,1600022,,,,,,,2021-12-13,1,,,,,アールイーエー,0
1745,7011305002797,新規,0,2021-12-13,2021-12-13,特定非営利活動法人まちのおやこテーブル,,その他の設立登記法人,東京都,杉並区,西荻北２丁目３番９号コメットビル６階,,13,115,1670042,,,,,,,2021-12-13,1,,,,,マチノオヤコテーブル,0
1746,7011705001705,新規,0,2021-12-13,2021-12-13,特定非営利活動法人アイエンス,,その他の設立登記法人,東京都,江戸川区,興宮町７番１０号,,13,123,1330042,,,,,,,2021-12-13,1,,,,,アイエンス,0
1747,7011801040061,新規,0,2021-12-13,2021-12-13,株式会社ＲＩＳＥ,,株式会社,東京都,足立区,綾瀬１丁目３１番１１号Ａ－１ビル１０１,,13,121,1200005,,,,,,,2021-12-13,1,,,,,ライズ,0
1776,7030001145776,新規,0,2021-12-13,2021-12-13,株式会社スカイブリッジ,,株式会社,埼玉県,さいたま市見沼区,東大宮５丁目３３－１４ミカミビル３Ｆ,,11,104,3370051,,,,,,,2021-12-13,1,,,,,スカイブリッジ,0
1781,7030003018443,新規,0,2021-12-13,2021-12-13,合同会社ＳＥＫ,,合同会社,埼玉県,春日部市,藤塚２５０番地３２３,,11,214,3440011,,,,,,,2021-12-13,1,,,,,エスイーケイ,0
1782,7030003018476,新規,0,2021-12-13,2021-12-13,東贏合同会社,00125123,合同会社,埼玉県,本庄市,日の出３丁目３－８,,11,211,3670022,,,,,,,2021-12-13,1,,,,,トウエイ,0
1783,7030003018484,新規,0,2021-12-13,2021-12-13,合同会社関東ロジサービス２号,,合同会社,埼玉県,坂戸市,関間１丁目１２番１号１階,,11,239,3500215,,,,,,,2021-12-13,1,,,,,カントウロジサービスニゴウ,0
1787,7040001121289,新規,0,2021-12-13,2021-12-13,株式会社３Ｍ,,株式会社,千葉県,我孫子市,新木１５６８,,12,222,2701112,,,,,,,2021-12-13,1,,,,,スリーエム,0
1788,7040001121339,新規,0,2021-12-13,2021-12-13,株式会社Ｇａｒａｇｅ　Ｈｉｒｏ,,株式会社,千葉県,松戸市,八ケ崎３丁目５０番地の６,,12,207,2700023,,,,,,,2021-12-13,1,,,,,ガレージヒロ,0
1790,7040003019110,新規,0,2021-12-13,2021-12-13,ＨＩＢＡ　ＡＵＴＯ合同会社,,合同会社,千葉県,八街市,八街ろ１８５番地１４３－３０２,,12,230,2891144,,,,,,,2021-12-13,1,,,,,ヒバオート,0
1798,7070001038729,新規,0,2021-12-13,2021-12-13,株式会社ＳＩＡＬ　ＴＲＡＤＩＮＧ,,株式会社,群馬県,太田市,岩瀬川町５５５番地４ハーモニー岩瀬川１０６号,,10,205,3730841,,,,,,,2021-12-13,1,,,,,シアルトレーディング,0
1805,7080401025524,新規,0,2021-12-13,2021-12-13,株式会社ハンドトゥハンド,,株式会社,静岡県,浜松市南区,福塚町２９１番地,00125127,22,134,4320000,,,,,,,2021-12-13,1,,,,,ハンドトゥハンド,0
1812,7100003006317,新規,0,2021-12-13,2021-12-13,合同会社ＢＬＴ,,合同会社,長野県,上田市,古里１６３９番地２２号,,20,203,3860005,,,,,,,2021-12-13,1,,,,,ビーエルティー,0
1813,7110001036265,新規,0,2021-12-13,2021-12-13,株式会社Ｍｏｌｉｃｋ,,株式会社,新潟県,新潟市中央区,天神１丁目１プラーカ３　２Ｆ,,15,103,9500917,,,,,,,2021-12-13,1,,,,,モリック,0
1824,7120001242440,新規,0,2021-12-13,2021-12-13,川田株式会社,,株式会社,大阪府,大阪市中央区,道頓堀１丁目東５－１９花昭ビル５階,,27,128,5420071,,,,,,,2021-12-13,1,,,,,カワダ,0
1825,7120001242449,新規,0,2021-12-13,2021-12-13,ろんまるたけ株式会社,,株式会社,大阪府,大阪市西区,新町３丁目６番１７－１１０２号,,27,106,5500013,,,,,,,2021-12-13,1,,,,,ロンマルタケ,0
1835,7120901045348,新規,0,2021-12-13,2021-12-13,株式会社ＭＳ設備設計,,株式会社,大阪府,高槻市,唐崎中２丁目８番２７号,,27,207,5690832,,,,,,,2021-12-13,1,,,,,エムエスセツビセッケイ,0
1841,7130005016336,新規,0,2021-12-13,2021-12-13,一般社団法人ＥＰＴ学院,,その他の設立登記法人,京都府,京都市上京区,烏丸通寺之内上る相国寺門前町６４７番地,,26,102,6020898,,,,,,,2021-12-13,1,,,,,イーピーティーガクイン,0
1852,7150001025173,新規,0,2021-12-13,2021-12-13,株式会社Ｒｅｔａｋｅ,,株式会社,奈良県,奈良市,鳥見町４丁目１番地の４,,29,201,6310065,,,,,,,2021-12-13,1,,,,,リテイク,0
1864,7180001149060,新規,0,2021-12-13,2021-12-13,株式会社ＨＯＲＩＳＨＯ,,株式会社,愛知県,春日井市,明知町３９０番地１,,23,206,4800303,,,,,,,2021-12-13,1,,,,,ホリショウ,0
1873,7190001028932,新規,0,2021-12-13,2021-12-13,プライムスタージャパン株式会社,,株式会社,三重県,松阪市,川井町２４０－１６,,24,204,5150818,,,,,,,2021-12-13,1,,,,,プライムスタージャパン,0
1879,7200001039507,新規,0,2021-12-13,2021-12-13,株式会社ロフター,,株式会社,岐阜県,各務原市,鵜沼小伊木町２丁目４７番地グランドソレイユ２０２,,21,213,5090143,,,,,,,2021-12-13,1,,,,,ロフター,0
1880,7200001039523,新規,0,2021-12-13,2021-12-13,株式会社アカギ建築,,株式会社,岐阜県,岐阜市,長良３丁目１２３番地,,21,201,5020081,,,,,,,2021-12-13,1,,,,,アカギケンチク,0
1886,7270001008414,新規,0,2021-12-13,2021-12-13,株式会社Ｏｎｅ’ｓ　Ｌｉｆｅ,,株式会社,鳥取県,米子市,皆生温泉１丁目３番８号,,31,202,6830001,,,,,,,2021-12-13,1,,,,,ワンズライフ,0
1895,7290005018457,新規,0,2021-12-13,2021-12-13,医療法人安歯会,,その他の設立登記法人,福岡県,筑紫野市,針摺西１丁目３番３９号,,40,217,8180084,,,,,,,2021-12-13,1,,,,,ヤスシカイ,0
1896,7290801028064,新規,0,2021-12-13,2021-12-13,Ｙ’ｓオフィス株式会社,,株式会社,福岡県,北九州市八幡西区,本城東２丁目１１番８号,,40,109,8070815,,,,,,,2021-12-13,1,,,,,ワイズオフィス,0
1915,7400003002871,新規,0,2021-12-13,2021-12-13,合同会社ゼブラ,,合同会社,岩手県,盛岡市,開運橋通１番２５号,,03,201,0200026,,,,,,,2021-12-13,1,,,,,ゼブラ,0
1916,7410001013036,新規,0,2021-12-13,2021-12-13,株式会社ファミループ,,株式会社,秋田県,秋田市,南通築地１番９号,,05,201,0100013,,,,,,,2021-12-13,1,,,,,ファミループ,0
1928,7500001023868,新規,0,2021-12-13,2021-12-13,いろは工務店株式会社,,株式会社,愛媛県,松山市,土居田町２０９番地５,,38,201,7900056,,,,,,,2021-12-13,1,,,,,イロハコウムテン,0
1943,7700150102865,新規,0,2021-12-13,2021-04-19,大町コミュニティセンター,,その他,富山県,魚津市,本町１丁目１－１０,,16,204,9370866,,,,,,,2021-04-19,1,,,,,オオマチコミユニテイセンター,0
1944,7700150106239,新規,0,2021-12-13,2021-12-13,Ｆｏｒｍｕｌａ　Ｏｎｅ　Ｄｉｇｉｔａｌ　Ｍｅｄｉａ　Ｌｔｄ,,外国会社等,,,,,,,,Ｎｏ．２　Ｓｔ．Ｊａｍｅｓ’ｓ　Ｍａｒｋｅｔ，Ｌｏｎｄｏｎ，ＵＫ，ＳＷ１Ｙ　４ＡＨ,,,,,,2021-12-13,1,,,,,フオーミユラワンデジタルメデイアリミテツド,0
1963,8010003036520,新規,0,2021-12-13,2021-12-13,白馬ＭＬ合同会社,,合同会社,東京都,千代田区,丸の内３丁目１番１号東京共同会計事務所内,,13,101,1000005,,,,,,,2021-12-13,1,,,,,ハクバエムエル,0
1972,8010401164410,新規,0,2021-12-13,2021-12-13,株式会社ツギツギ,,株式会社,東京都,港区,浜松町２丁目２番１５号浜松町ダイヤビル２Ｆ,,13,103,1050013,,,,,,,2021-12-13,1,,,,,ツギツギ,0
1976,8010405020502,新規,0,2021-12-13,2021-12-13,税理士法人イレブンナイン,,その他の設立登記法人,東京都,港区,六本木７丁目２１番２４号,,13,103,1060032,,,,,,,2021-12-13,1,,,,,イレブンナイン,0
1978,8010501048199,新規,0,2021-12-13,2021-12-13,ジパング株式会社,,株式会社,東京都,台東区,浅草２丁目１９番５号,,13,106,1110032,,,,,,,2021-12-13,1,,,,,ジパング,0
1986,8010901049978,新規,0,2021-12-13,2021-12-13,株式会社ＵＮＩＦＩＣ,,株式会社,東京都,世田谷区,北沢３丁目２８番１３号綾部ハイツ６号室,,13,112,1550031,,,,,,,2021-12-13,1,,,,,ユニフィク,0
1993,8011001144397,新規,0,2021-12-13,2021-12-13,株式会社ＳＰＩ,,株式会社,東京都,渋谷区,代々木２丁目２６番５－１００２号,,13,113,1510053,,,,,,,2021-12-13,1,,,,,エスピーアイ,0
1994,8011003013724,新規,0,2021-12-13,2021-12-13,合同会社ｃｒａｆｔｙ,,合同会社,東京都,渋谷区,渋谷２丁目１９－１５宮益坂ビルディング６０９,,13,113,1500002,,,,,,,2021-12-13,1,,,,,クラフティー,0
2005,8011101097157,新規,0,2021-12-13,2021-12-13,株式会社ＮＡＵＲＡ,,株式会社,東京都,新宿区,箪笥町１８番地３コスモシティ市ヶ谷３０６,,13,104,1620833,,,,,,,2021-12-13,1,,,,,ナウラ,0
2006,8011101097181,新規,0,2021-12-13,2021-12-13,株式会社ＥＤＯ　ＫＡＧＵＲＡ,,株式会社,東京都,新宿区,高田馬場１丁目３２－１０,,13,104,1690075,,,,,,,2021-12-13,1,,,,,エドカグラ,0
2022,8011801040060,新規,0,2021-12-13,2021-12-13,信拓商事株式会社,,株式会社,東京都,足立区,中央本町４丁目１５番７－１０８号,,13,121,1210011,,,,,,,2021-12-13,1,,,,,シンタクショウジ,0
2025,8013301048385,新規,0,2021-12-13,2021-12-13,富士スター株式会社,,株式会社,東京都,豊島区,東池袋１丁目１７－１１－１１０５,,13,116,1700013,,,,,,,2021-12-13,1,,,,,フジスター,0
2026,8013301048410,新規,0,2021-12-13,2021-12-13,株式会社大手町パートナーズ,,株式会社,東京都,豊島区,巣鴨１丁目２番１４号,,13,116,1700002,,,,,,,2021-12-13,1,,,,,オオテマチパートナーズ,0
2033,8020001144308,新規,0,2021-12-13,2021-12-13,株式会社ユウタク,,株式会社,神奈川県,横浜市中区,山下町２２１番地１山下町ハイツ６０３号室,,14,104,2310023,,,,,,,2021-12-13,1,,,,,ユウタク,0
2034,8020001144316,新規,0,2021-12-13,2021-12-13,株式会社ＡＸＩＳ,,株式会社,神奈川県,川崎市川崎区,中瀬３丁目１９番１４－３０６号ウェリス川崎大師,,14,131,2100818,,,,,,,2021-12-13,1,,,,,アクシス,0
2040,8021001074668,新規,0,2021-12-13,2021-12-13,株式会社あい造園,,株式会社,神奈川県,相模原市南区,鵜野森２丁目１０番１０号,,14,153,2520301,,,,,,,2021-12-13,1,,,,,アイゾウエン,0
2045,8030001145577,新規,0,2021-12-13,2021-12-13,ズミグループ株式会社,,株式会社,埼玉県,八潮市,大字南川崎２８７番地１３,,11,234,3400814,,,,,,,2021-12-13,1,,,,,ズミグループ,0
2050,8030003018475,新規,0,2021-12-13,2021-12-13,風物先生合同会社,,合同会社,埼玉県,戸田市,喜沢１丁目３２－７－３０３号室,,11,224,3350013,,,,,,,2021-12-13,1,,,,,フウブツセンセイ,0
2051,8030003018483,新規,0,2021-12-13,2021-12-13,ロジスティック開発合同会社,,合同会社,埼玉県,坂戸市,関間１丁目１２番１号２階,,11,239,3500215,,,,,,,2021-12-13,1,,,,,ロジスティックカイハツ,0
2074,8050001050288,新規,0,2021-12-13,2021-12-13,株式会社フジホーム,,株式会社,茨城県,龍ケ崎市,川原代町１０４５－１７,,08,208,3010005,,,,,,,2021-12-13,1,,,,,フジホーム,0
2091,8120001242464,新規,0,2021-12-13,2021-12-13,Ｈｅｘａｌｏｇｙ株式会社,,株式会社,大阪府,大阪市中央区,日本橋１丁目１７－１７ピカソ日本一ビル６０４,,27,128,5420073,,,,,,,2021-12-13,1,,,,,ヘキサロジー,0
2092,8120003020752,新規,0,2021-12-13,2021-12-13,ＳＮＲＹＫ合同会社,,合同会社,大阪府,大阪市東成区,大今里４丁目１－７,,27,115,5370012,,,,,,,2021-12-13,1,,,,,エスエヌアールワイケイ,0
2095,8120101064775,新規,0,2021-12-13,2021-12-13,株式会社つぼは三如,,株式会社,大阪府,堺市美原区,北余部７６番地３,,27,147,5870051,,,,,,,2021-12-13,1,,,,,ツボハサンジョ,0
2098,8120903003939,新規,0,2021-12-13,2021-12-13,合同会社Ｏｆｆｉｃｅ　ｉｚＡＹｏｉ,,合同会社,大阪府,豊中市,旭丘７番２－７０６,,27,203,5610865,,,,,,,2021-12-13,1,,,,,オフィスイザヨイ,0
2105,8122001035427,新規,0,2021-12-13,2021-12-13,株式会社Ｈ’ｓ　Ｈｏｍｅ,,株式会社,大阪府,東大阪市,本町７番６号,,27,227,5798045,,,,,,,2021-12-13,1,,,,,エイチズホーム,0
2113,8140001124157,新規,0,2021-12-13,2021-12-13,株式会社アルカ,,株式会社,兵庫県,神戸市中央区,江戸町１０４番地,,28,110,6500033,,,,,,,2021-12-13,1,,,,,アルカ,0
2114,8140001124181,新規,0,2021-12-13,2021-12-13,株式会社ハマダグループ,,株式会社,兵庫県,姫路市,網干区新在家１２６１番地の１２,,28,201,6711234,,,,,,,2021-12-13,1,,,,,ハマダグループ,0
2135,8180001149084,新規,0,2021-12-13,2021-12-13,株式会社サン・フラット,,株式会社,愛知県,名古屋市瑞穂区,松月町４丁目３１番地の１,,23,108,4670004,,,,,,,2021-12-13,1,,,,,サンフラット,0
2153,8240001059038,新規,0,2021-12-13,2021-12-13,株式会社Ｗ　ＦＩＶＥ,,株式会社,広島県,広島市東区,戸坂桜西町７番２０号,,34,102,7320006,,,,,,,2021-12-13,1,,,,,ダブルファイブ,0
2155,8240003005403,新規,0,2021-12-13,2021-12-13,合同会社ＣｏＺ,,合同会社,広島県,広島市西区,中広町１丁目７番６－３０３号,,34,104,7330012,,,,,,,2021-12-13,1,,,,,コヅ,0
2159,8250003002960,新規,0,2021-12-13,2021-12-13,合同会社みいたん,,合同会社,山口県,山陽小野田市,大字東高泊１９１５番地３７,,35,216,7560088,,,,,,,2021-12-13,1,,,,,ミイタン,0
2164,8270001008413,新規,0,2021-12-13,2021-12-13,株式会社オムロ,,株式会社,鳥取県,鳥取市,卯垣５丁目３８番地１,,31,201,6800074,,,,,,,2021-12-13,1,,,,,オムロ,0
2172,8290003011917,新規,0,2021-12-13,2021-12-13,合同会社Ｓ＆Ｌ,,合同会社,福岡県,福岡市博多区,板付２丁目１番２６号日の出ビル３０２号,,40,132,8120888,,,,,,,2021-12-13,1,,,,,エスアンドエル,0
2173,8290005018456,新規,0,2021-12-13,2021-12-13,医療法人健守会,,その他の設立登記法人,福岡県,大野城市,平野台１丁目１７番８号,,40,219,8160972,,,,,,,2021-12-13,1,,,,,ケンシュカイ,0
2183,8320001018778,新規,0,2021-12-13,2021-12-13,株式会社結福,,株式会社,大分県,由布市,湯布院町川上１６０８番地６－１階２号,,44,213,8795102,,,,,,,2021-12-13,1,,,,,ユフ,0
2204,8370003005514,新規,0,2021-12-13,2021-12-13,合同会社ｎａ．ｐｌａｎｎｉｎｇ,,合同会社,宮城県,仙台市青葉区,荒巻中央６番２５号,,04,101,9810964,,,,,,,2021-12-13,1,,,,,エヌエープランニング,0
2227,8430003013444,新規,0,2021-12-13,2021-12-13,ＲＥＰＬＵＳ合同会社,,合同会社,北海道,札幌市北区,北三十二条西５丁目３－２８ＳＡＫＵＲＡ－Ｎ３２Ｃ３号室,,01,102,0010032,,,,,,,2021-12-13,1,,,,,リプラス,0
2236,8500001023859,新規,0,2021-12-13,2021-12-13,ナランドル株式会社,,株式会社,愛媛県,今治市,玉川町長谷１０４３,,38,202,7940109,,,,,,,2021-12-13,1,,,,,ナランドル,0
2240,8700150106238,新規,0,2021-12-13,2021-12-13,ミドリ安全企業年金基金,,その他,東京都,港区,六本木３丁目１－３０ＡＢビル６Ｆ,,13,103,1060032,,,,,,,2021-12-13,1,,,,,ミドリアンゼンキギョウネンキンキキン,0
2250,9010001223152,新規,0,2021-12-13,2021-12-13,株式会社ｈａｐｏｙｏｓｈｉ,,株式会社,東京都,中央区,銀座１丁目２２－１１,,13,102,1040061,,,,,,,2021-12-13,1,,,,,ハポヨシ,0
2251,9010001223243,新規,0,2021-12-13,2021-12-13,弥生事業準備株式会社,,株式会社,東京都,千代田区,外神田４丁目１４番１号,,13,101,1010021,,,,,,,2021-12-13,1,,,,,ヤヨイジギョウジュンビ,0
2256,9010005034323,新規,0,2021-12-13,2021-12-13,一般社団法人日本がん患者フォーラム,,その他の設立登記法人,東京都,千代田区,富士見１丁目１２番１号,,13,101,1020071,,,,,,,2021-12-13,1,,,,,ニホンガンカンジャフォーラム,0
2261,9010401164384,新規,0,2021-12-13,2021-12-13,株式会社Ｌｉａ,,株式会社,東京都,港区,東麻布１丁目４番２号ＴＨＥＷＯＲＫＥＲＳ＆ＣＯ８０３,,13,103,1060044,,,,,,,2021-12-13,1,,,,,リア,0
2262,9010401164392,新規,0,2021-12-13,2021-12-13,株式会社ツナガルハシ,,株式会社,東京都,港区,新橋２丁目１２番８号ＧＥＭＳ新橋６階,,13,103,1050004,,,,,,,2021-12-13,1,,,,,ツナガルハシ,0
2264,9010403026698,新規,0,2021-12-13,2021-12-13,合同会社ＹＭＫプロパティ,,合同会社,東京都,港区,白金台３丁目２番７－１３０４号,,13,103,1080071,,,,,,,2021-12-13,1,,,,,ワイエムケイプロパティ,0
2265,9010501048215,新規,0,2021-12-13,2021-12-13,株式会社マネートピー,,株式会社,東京都,台東区,蔵前２丁目１２－５ムーム蔵前９０１,,13,106,1110051,,,,,,,2021-12-13,1,,,,,マネートピー,0
2282,9011001144446,新規,0,2021-12-13,2021-12-13,株式会社Ｉｇｎｉｔｅ,,株式会社,東京都,渋谷区,代々木２丁目２４－７,,13,113,1510053,,,,,,,2021-12-13,1,,,,,イグナイト,0
2284,9011003013847,新規,0,2021-12-13,2021-12-13,合同会社Ｍｉｆライジングス,,合同会社,東京都,目黒区,南１丁目７－１２,,13,110,1520013,,,,,,,2021-12-13,1,,,,,ミフライジングス,0
2285,9011003013855,新規,0,2021-12-13,2021-12-13,ゾタンダ合同会社,,合同会社,東京都,渋谷区,神宮前６丁目２３番４号桑野ビル２階,,13,113,1500001,,,,,,,2021-12-13,1,,,,,ゾタンダ,0
2307,9011701024872,新規,0,2021-12-13,2021-12-13,株式会社東花園,,株式会社,東京都,江戸川区,松島１丁目５番８号,,13,123,1320031,,,,,,,2021-12-13,1,,,,,トウカエン,0
2313,9012401038642,新規,0,2021-12-13,2021-12-13,株式会社シャルル,,株式会社,東京都,調布市,布田１丁目５０番地５小川ビル２０１,,13,208,1820024,,,,,,,2021-12-13,1,,,,,シャルル,0
2314,9012401038650,新規,0,2021-12-13,2021-12-13,株式会社康勝工業,,株式会社,東京都,府中市,緑町３丁目１０番地の８,,13,206,1830006,,,,,,,2021-12-13,1,,,,,コウショウコウギョウ,0
2318,9012803002659,新規,0,2021-12-13,2021-12-13,エヌビレッジ合同会社,,合同会社,東京都,日野市,豊田３丁目３４番地の４３,,13,212,1910053,,,,,,,2021-12-13,1,,,,,エヌビレッジ,0
2321,9013301048384,新規,0,2021-12-13,2021-12-13,株式会社ＭＪＢ,,株式会社,東京都,豊島区,南大塚３丁目５１－５,,13,116,1700005,,,,,,,2021-12-13,1,,,,,エムジェービー,0
2345,9030001145824,新規,0,2021-12-13,2021-12-13,株式会社ＳＡＳＡＫＩ,,株式会社,埼玉県,さいたま市岩槻区,大字掛１８５番地,,11,110,3390078,,,,,,,2021-12-13,1,,,,,ササキ,0
2346,9030003018466,新規,0,2021-12-13,2021-12-13,合同会社福良,,合同会社,埼玉県,上尾市,大字上尾下６６５番地３,,11,219,3620025,,,,,,,2021-12-13,1,,,,,フクラ,0
2347,9030003018474,新規,0,2021-12-13,2021-12-13,ＭＩＲＡＫＵ合同会社,,合同会社,埼玉県,川口市,弥平４丁目４－１１,,11,203,3320002,,,,,,,2021-12-13,1,,,,,ミラク,0
2348,9030003018482,新規,0,2021-12-13,2021-12-13,日本語ピクニック合同会社,,合同会社,埼玉県,所沢市,くすのき台１丁目１０番７号肥沼ビル３Ｆ,,11,208,3590037,,,,,,,2021-12-13,1,,,,,ニホンゴピクニック,0
2361,9040003019109,新規,0,2021-12-13,2021-12-13,合同会社グットサポート,,合同会社,千葉県,香取市,佐原ニ５８５９－３,,12,236,2870822,,,,,,,2021-12-13,1,,,,,グットサポート,0
2366,9050003006254,新規,0,2021-12-13,2021-12-13,Ｎ．Ｂ　ＩＮＴＥＲＮＡＴＩＯＮＡＬ合同会社,,合同会社,茨城県,猿島郡五霞町,大字元栗橋２３３２番地１,,08,542,3060313,,,,,,,2021-12-13,1,,,,,エヌビーインターナショナル,0
2367,9050005012985,新規,0,2021-12-13,2021-12-13,一般社団法人劇団いばらき,,その他の設立登記法人,茨城県,水戸市,常磐町１丁目３番１号常磐神社社務所内,,08,201,3100033,,,,,,,2021-12-13,1,,,,,ゲキダンイバラキ,0
2376,9080001024635,新規,0,2021-12-13,2021-12-13,株式会社平岩商店,,株式会社,静岡県,静岡市清水区,由比４２７－４,,22,103,4213103,,,,,,,2021-12-13,1,,,,,ヒライワショウテン,0
2381,9080401025530,新規,0,2021-12-13,2021-12-13,株式会社ＮＡ－１,,株式会社,静岡県,掛川市,塩町７番地の３,,22,213,4360076,,,,,,,2021-12-13,1,,,,,エヌエーワン,0
2400,9120001242455,新規,0,2021-12-13,2021-12-13,ラウレアホールディングス株式会社,,株式会社,大阪府,大阪市住吉区,苅田５丁目１３番１４号１０１号,,27,120,5580011,,,,,,,2021-12-13,1,,,,,ラウレアホールディングス,0
2409,9120101064774,新規,0,2021-12-13,2021-12-13,株式会社スバルクリエイター,,株式会社,大阪府,堺市北区,北花田町３丁１７番地２４レジデンス北花田６０２号室,,27,146,5918002,,,,,,,2021-12-13,1,,,,,スバルクリエイター,0
2412,9120905006245,新規,0,2021-12-13,2021-12-13,ＮＰＯ法人にこにこエプロン,,その他の設立登記法人,大阪府,豊中市,北桜塚２丁目２番１８号,,27,203,5600022,,,,,,,2021-12-13,1,,,,,ニコニコエプロン,0
2417,9130001070707,新規,0,2021-12-13,2021-12-13,株式会社ワイズ,,株式会社,京都府,京都市中京区,蛸薬師通高倉西入泉正寺町３２３番地松本ビル１階,,26,104,6048141,,,,,,,2021-12-13,1,,,,,ワイズ,0
2448,9180001149100,新規,0,2021-12-13,2021-12-13,株式会社クラウドナイン,,株式会社,愛知県,名古屋市緑区,野末町１０１３番地,,23,114,4580915,,,,,,,2021-12-13,1,,,,,クラウドナイン,0
2455,9180005019555,新規,0,2021-12-13,2021-12-13,医療法人城北,,その他の設立登記法人,愛知県,名古屋市北区,萩野通１丁目３７番地,,23,103,4620026,,,,,,,2021-12-13,1,,,,,ジョウホク,0
2474,9280001008584,新規,0,2021-12-13,2021-12-13,株式会社ｖｅｎ,,株式会社,島根県,松江市,浜乃木４丁目５番１号（浜乃木ビル１０５号）,,32,201,6900044,,,,,,,2021-12-13,1,,,,,ヴェン,0
2482,9290005018455,新規,0,2021-12-13,2021-12-13,医療法人やまさき小児科,,その他の設立登記法人,福岡県,福岡市早良区,重留７丁目１８番２号,,40,137,8111101,,,,,,,2021-12-13,1,,,,,ヤマサキショウニカ,0
2483,9290801028062,新規,0,2021-12-13,2021-12-13,トーヨーテック株式会社,,株式会社,福岡県,北九州市小倉北区,片野４丁目５番９号,,40,106,8020064,,,,,,,2021-12-13,1,,,,,トーヨーテック,0
2502,9340005009382,新規,0,2021-12-13,2021-12-13,一般社団法人奈良の鹿を見守る会,,その他の設立登記法人,鹿児島県,鹿児島市,清水町２９番２５－２０９号,,46,201,8920802,,,,,,,2021-12-13,1,,,,,ナラノシカヲミマモルカイ,0
2510,9370001047937,新規,0,2021-12-13,2021-12-13,七十七パートナーズ株式会社,,株式会社,宮城県,仙台市青葉区,中央３丁目３番２０号,,04,101,9800021,,,,,,,2021-12-13,1,,,,,シチジュウシチパートナーズ,0
2511,9370003005513,新規,0,2021-12-13,2021-12-13,合同会社ワイズアップジャパン,,合同会社,宮城県,東松島市,矢本字下浦２２４－５,,04,214,9810503,,,,,,,2021-12-13,1,,,,,ワイズアップジャパン,0
2533,9430003013443,新規,0,2021-12-13,2021-12-13,合同会社ＴＫアシスト,,合同会社,北海道,札幌市東区,北二十二条東３丁目１番３５号ハイテクビル・さっぽろ２０５,,01,103,0650022,,,,,,,2021-12-13,1,,,,,ティーケーアシスト,0
2541,9500001023858,新規,0,2021-12-13,2021-12-13,株式会社リノベーションフィールド,,株式会社,愛媛県,新居浜市,久保田町１丁目１番８号,,38,205,7920026,,,,,,,2021-12-13,1,,,,,リノベーションフィールド,0
2542,9500005008434,新規,0,2021-12-13,2021-12-13,一般社団法人佐田岬観光公社,,その他の設立登記法人,愛媛県,西宇和郡伊方町,三崎１７００番地１１,,38,442,7960801,,,,,,,2021-12-13,1,,,,,サダミサキカンコウコウシャ,0
2543,9700150106237,新規,0,2021-12-13,2021-12-13,ＭＡＷＩＬＭＡＤＡ　ＲＩＹＡＰＯＬＡ,,外国会社等,神奈川県,厚木市,三田南３丁目７－１エクセル三田２－２０２,,14,212,2430217,スリランカ民主社会主義共和国、キャンディ市、マービルウマダ、ナガハエラロード、４９／１号,,,,,,2021-12-13,1,,,,,マウイルマダリヤポラー,0
2544,9700150106245,新規,0,2021-12-13,2021-12-13,ＢＵＯＮＯ　ＬＡＮＫＡ　ＨＯＬＤＩＮＧＳ　ＰＲＩＶＡＴＥ　ＬＩＭＩＴＥＤ,,外国会社等,神奈川県,厚木市,妻田東１丁目１６－４２、アップルハウスＢ－２０４号,,14,212,2430813,スリランカ民主社会主義共和国、キャンディ市、アクラナ、ブルガハテナ、ウダベリケティヤ、３９８／４号,,,,,,2021-12-13,1,,,,,ブオノランカホールデイングスプライベートリミテツド,0
