sequenceNumber,corporateNumber,process,correct,updateDate,changeDate,name,nameImageId,kind,prefectureName,cityName,streetNumber,addressImageId,prefectureCode,cityCode,postCode,addressOutside,addressOutsideImageId,closeDate,closeCause,successorCorporateNumber,changeCause,assignmentDate,latest,enName,enPrefectureName,enCityName,enAddressOutside,furigana,hihyoji
17,1010001239222,新規,0,2023-10-16,2023-10-16,株式会社ゴービヨンドネクスト,,株式会社,東京都,中央区,日本橋大伝馬町１１番８号５０２,,13,102,1030011,,,,,,,2023-10-16,1,,,,,ゴービヨンドネクスト,0
18,1010001239288,新規,0,2023-10-16,2023-10-16,エティナジャパン株式会社,,株式会社,東京都,中央区,日本橋人形町１丁目１－１４人形町Ｋ・Ｉビル,,13,102,1030013,,,,,,,2023-10-16,1,,,,,エティナジャパン,0
23,1010003041931,新規,0,2023-10-16,2023-10-16,神楽坂センタープロパティ合同会社,,合同会社,東京都,千代田区,富士見１丁目３番１１号富士見デュープレックスＢ’ｓ４Ｆ,,13,101,1020071,,,,,,,2023-10-16,1,,,,,カグラザカセンタープロパティ,0
25,1010005037358,新規,0,2023-10-16,2023-10-16,ボルト一般社団法人,,その他の設立登記法人,東京都,中央区,銀座１丁目６番１１号アースタックス税理士法人内,,13,102,1040061,,,,,,,2023-10-16,1,,,,,ボルト,0
34,1010401177740,新規,0,2023-10-16,2023-10-16,Ｂ＆Ｈライフジャパン株式会社,,株式会社,東京都,港区,南青山１丁目１１番３９号,,13,103,1070062,,,,,,,2023-10-16,1,,,,,ビーアンドエイチライフジャパン,0
35,1010401177798,新規,0,2023-10-16,2023-10-16,株式会社Ｈ３,,株式会社,東京都,港区,虎ノ門１丁目２１番１０－１００５号,,13,103,1050001,,,,,,,2023-10-16,1,,,,,エイチスリー,0
36,1010401177831,新規,0,2023-10-16,2023-10-16,下村スチールプロダクツ株式会社,,株式会社,東京都,港区,白金台２丁目２６番９号,,13,103,1080071,,,,,,,2023-10-16,1,,,,,シモムラスチールプロダクツ,0
40,1010601063922,新規,0,2023-10-16,2023-10-16,徳時株式会社,,株式会社,東京都,墨田区,文花１丁目３４番１１－１０２号,,13,107,1310044,,,,,,,2023-10-16,1,,,,,トクドキ,0
41,1010601063947,新規,0,2023-10-16,2023-10-16,株式会社Ｐａｐｅｒｃｌｉｐ,,株式会社,東京都,墨田区,緑４丁目３０番３号,,13,107,1300021,,,,,,,2023-10-16,1,,,,,ペーパークリップ,0
42,1010601063963,新規,0,2023-10-16,2023-10-16,株式会社結城エンターテインメント,,株式会社,東京都,江東区,大島２丁目２８番６号,,13,108,1360072,,,,,,,2023-10-16,1,,,,,ユウキエンターテインメント,0
68,1011303004933,新規,0,2023-10-16,2023-10-16,合同会社日越社,,合同会社,東京都,杉並区,成田西２丁目３番２０号,,13,115,1660016,,,,,,,2023-10-16,1,,,,,ニチエツシャ,0
69,1011401025518,新規,0,2023-10-16,2023-10-16,阿麦斯食品株式会社,,株式会社,東京都,板橋区,常盤台２丁目５番７号峰岡ビル３０３,,13,119,1740071,,,,,,,2023-10-16,1,,,,,アモスショクヒン,0
77,1011803005885,新規,0,2023-10-16,2023-10-16,合同会社前田技術設計,,合同会社,東京都,葛飾区,新宿３丁目５番１―７１２号アデニウムザ・オアシスガーデン,,13,122,1250051,,,,,,,2023-10-16,1,,,,,マエダギジュツセッケイ,0
81,1012801022690,新規,0,2023-10-16,2023-10-16,株式会社明仁,,株式会社,東京都,立川市,西砂町６丁目８番地の１,,13,202,1900034,,,,,,,2023-10-16,1,,,,,メイジン,0
82,1012803003210,新規,0,2023-10-16,2023-10-16,合同会社Ｗ＆Ａフィットネス,,合同会社,東京都,国立市,中１丁目１６番地の７３、５０６,,13,215,1860004,,,,,,,2023-10-16,1,,,,,ダブリューアンドエーフィットネス,0
83,1012805003233,新規,0,2023-10-16,2023-10-16,医療法人社団阿部内科系診療所,,その他の設立登記法人,東京都,国立市,中１丁目１０番地の９麒麟館ガーデン１階,,13,215,1860004,,,,,,,2023-10-16,1,,,,,アベナイカケイシンリョウジョ,0
88,1013301051478,新規,0,2023-10-16,2023-10-16,青島商事株式会社,,株式会社,東京都,豊島区,北大塚１丁目２３番１０－１０１号ハイコート大塚,,13,116,1700004,,,,,,,2023-10-16,1,,,,,アオシマショウジ,0
98,1020005016146,新規,0,2023-10-16,2023-10-16,一般社団法人遊ｔｈ,,その他の設立登記法人,神奈川県,横浜市金沢区,谷津町３３９齋田ビル３階Ａ号,,14,108,2360016,,,,,,,2023-10-16,1,,,,,ユース,0
101,1021003013671,新規,0,2023-10-16,2023-10-16,合同会社アルベド,,合同会社,神奈川県,秦野市,下落合１５番地の６メゾンソフィアＡ１０３号,,14,211,2570026,,,,,,,2023-10-16,1,,,,,アルベド,0
107,1030001156408,新規,0,2023-10-16,2023-10-16,株式会社アフリンインターナショナル,,株式会社,埼玉県,比企郡ときがわ町,大字日影９８３番地４Ｂ,,11,349,3550344,,,,,,,2023-10-16,1,,,,,アフリンインターナショナル,0
114,1040001130460,新規,0,2023-10-16,2023-10-16,株式会社ＡｓＰｒｏ,,株式会社,千葉県,浦安市,高洲４丁目３番１－１６２４号プラウド新浦安,,12,227,2790023,,,,,,,2023-10-16,1,,,,,アズプロ,0
115,1040001130469,新規,0,2023-10-16,2023-10-16,株式会社ウラベ,,株式会社,千葉県,船橋市,本町１丁目４番９号,,12,204,2730005,,,,,,,2023-10-16,1,,,,,ウラベ,0
116,1040001130502,新規,0,2023-10-16,2023-10-16,カルボ株式会社,,株式会社,千葉県,千葉市花見川区,幕張町５丁目４１１番地１－４０２,,12,102,2620032,,,,,,,2023-10-16,1,,,,,カルボ,0
117,1040001130510,新規,0,2023-10-16,2023-10-16,株式会社ＯＮＥ,,株式会社,千葉県,市川市,北方町４丁目１９１０番１４号,,12,203,2720811,,,,,,,2023-10-16,1,,,,,ワン,0
118,1040001130519,新規,0,2023-10-16,2023-10-16,株式会社ＳＥＮＳＥ,,株式会社,千葉県,市川市,新田４丁目５番１７－３０１号,,12,203,2720035,,,,,,,2023-10-16,1,,,,,センス,0
119,1040003023522,新規,0,2023-10-16,2023-10-16,ＡＡＬＩＹＡ　ＴＲＡＤＩＮＧ合同会社,,合同会社,千葉県,八街市,大関２１４番地２２,,12,230,2891142,,,,,,,2023-10-16,1,,,,,アーリヤトレーディング,0
120,1040005022142,新規,0,2023-10-16,2023-10-16,ＮＰＯ法人くすはらフロンティアネット,,その他の設立登記法人,千葉県,市原市,八幡浦１丁目８番１号楠原輸送株式会社千葉支店内,,12,219,2900068,,,,,,,2023-10-16,1,,,,,クスハラフロンティアネット,0
123,1060003004768,新規,0,2023-10-16,2023-10-16,合同会社Ｈ．Ｏ,,合同会社,栃木県,鹿沼市,下材木町１３６４番地１,,09,205,3220056,,,,,,,2023-10-16,1,,,,,エイチオー,0
131,1070001040954,新規,0,2023-10-16,2023-10-16,株式会社ＦＡＭＩＬＬＥ,,株式会社,群馬県,伊勢崎市,境上渕名１１３４番地１‐１０１,,10,204,3700102,,,,,,,2023-10-16,1,,,,,ファミーユ,0
146,1080403004894,新規,0,2023-10-16,2023-10-16,合同会社ＡＢＥＲＩＯ,,合同会社,静岡県,浜松市北区,初生町６１９－８牧田ビル２階,,22,135,4338112,,,,,,,2023-10-16,1,,,,,アベリオ,0
147,1080405007573,新規,0,2023-10-16,2023-10-16,ＮＰＯ法人ＣａｎｃｅｒＷｉｔｈ,,その他の設立登記法人,静岡県,浜松市天竜区,熊２０６８番地の２、３０３,,22,137,4313641,,,,,,,2023-10-16,1,,,,,キャンサーウィズ,0
149,1100001036882,新規,0,2023-10-16,2023-10-16,ＫＰＦ株式会社,,株式会社,長野県,長野市,青木島町綱島１３５番地ロ号の１,,20,201,3812206,,,,,,,2023-10-16,1,,,,,ケーピーエフ,0
164,1120001258748,新規,0,2023-10-16,2023-10-16,良成貿易株式会社,,株式会社,大阪府,大阪市西成区,鶴見橋１丁目６－１９塩谷マンション２０３室,,27,122,5570031,,,,,,,2023-10-16,1,,,,,リョウセイボウエキ,0
165,1120001258954,新規,0,2023-10-16,2023-10-16,株式会社Ｉ　ＢＥ,,株式会社,大阪府,大阪市都島区,都島中通３丁目５番１７号ＣＯＭＰＡＳ京橋２０２,,27,102,5340022,,,,,,,2023-10-16,1,,,,,アイビー,0
168,1120003025080,新規,0,2023-10-16,2023-10-16,合同会社マイルストーン,,合同会社,大阪府,大阪市北区,梅田１丁目１－３大阪駅前第３ビル２９階１－１－１号室,,27,127,5300001,,,,,,,2023-10-16,1,,,,,マイルストーン,0
175,1122001037470,新規,0,2023-10-16,2023-10-16,今成商事株式会社,,株式会社,大阪府,東大阪市,稲田新町２丁目３０番２５号,,27,227,5770004,,,,,,,2023-10-16,1,,,,,イマナリショウジ,0
177,1130001075399,新規,0,2023-10-16,2023-10-16,株式会社Ｆｏｔ,,株式会社,京都府,京都市下京区,七条通油小路東入大黒町２２７番地第２キョートビル４０２,,26,106,6008223,,,,,,,2023-10-16,1,,,,,ホット,0
191,1140001131993,新規,0,2023-10-16,2023-10-16,シャーンス株式会社,,株式会社,兵庫県,神戸市中央区,磯上通４丁目３番１０号ＩＰＳＸＥＡＳＴ８１０号室,,28,110,6510086,,,,,,,2023-10-16,1,,,,,シャーンス,0
196,1140003019642,新規,0,2023-10-16,2023-10-16,合同会社ＺＥＲＯＺＯＮＥ,,合同会社,兵庫県,神戸市長田区,片山町４丁目２－６５,,28,106,6530805,,,,,,,2023-10-16,1,,,,,ゼロゾーン,0
198,1150001026796,新規,0,2023-10-16,2023-10-16,ＥａｒｔｈＣｒｅａｔｅ株式会社,,株式会社,奈良県,吉野郡十津川村,大字山手２４４番地の２,,29,449,6371553,,,,,,,2023-10-16,1,,,,,アースクリエイト,0
207,1180001158265,新規,0,2023-10-16,2023-10-16,株式会社ＯＮＥＢＥ,,株式会社,愛知県,名古屋市中区,丸の内２丁目１１番２９号三陽ビルディング３０１号,,23,106,4600002,,,,,,,2023-10-16,1,,,,,ワンビィ,0
208,1180001158389,新規,0,2023-10-16,2023-10-16,Ｓ＆Ｋ株式会社,,株式会社,愛知県,名古屋市千種区,高見２丁目１番２６号セントラルガーデン・レジデンスＩＩＥ－３０６号,00132258,23,101,4640073,,,,,,,2023-10-16,1,,,,,エスアンドケイ,0
209,1180001158471,新規,0,2023-10-16,2023-10-16,株式会社工務店,,株式会社,愛知県,名古屋市北区,大曽根１丁目２１番１０号オークワンビル３階,,23,103,4620825,,,,,,,2023-10-16,1,,,,,,0
210,1180001158488,新規,0,2023-10-16,2023-10-16,Ｓｕｎｎｙ　Ｌａｂ株式会社,,株式会社,愛知県,名古屋市中村区,名駅２丁目３８番２号オーキッドビル８階,,23,105,4500002,,,,,,,2023-10-16,1,,,,,サニーラボ,0
216,1180003025843,新規,0,2023-10-16,2023-10-16,合同会社ｂｌａｎｃ　ｃｏｃｏ,,合同会社,愛知県,名古屋市西区,赤城町１５８番地,,23,104,4520813,,,,,,,2023-10-16,1,,,,,ブランココ,0
217,1180003025851,新規,0,2023-10-16,2023-10-16,合同会社ｎａｎ　ｎａ,,合同会社,愛知県,犬山市,大字今井字反保２５番地,,23,215,4840005,,,,,,,2023-10-16,1,,,,,ナンナ,0
218,1180005020396,新規,0,2023-10-16,2023-10-16,一般社団法人後藤新平の風,,その他の設立登記法人,愛知県,名古屋市名東区,亀の井２丁目１６０番地,,23,115,4650094,,,,,,,2023-10-16,1,,,,,ゴトウシンペイノカゼ,0
241,1220003003605,新規,0,2023-10-16,2023-10-16,ＷＩＤＥ　ＳＨＯＡＬ合同会社,,合同会社,石川県,金沢市,北安江１丁目６番１９号,,17,201,9200022,,,,,,,2023-10-16,1,,,,,ワイドショール,0
242,1230003002093,新規,0,2023-10-16,2023-10-16,合同会社ＫａｎｄＥ,,合同会社,富山県,富山市,清水町５丁目１番９号,,16,201,9300036,,,,,,,2023-10-16,1,,,,,ケーアンドイー,0
243,1230005009343,新規,0,2023-10-16,2023-10-16,一般社団法人富山ジュニアオーケストラ,,その他の設立登記法人,富山県,富山市,桜橋通り３－１富山電気ビルディング本館２Ｆ,,16,201,9300004,,,,,,,2023-10-16,1,,,,,トヤマジュニアオーケストラ,0
263,1290001103391,新規,0,2023-10-16,2023-10-16,株式会社タカキテック,,株式会社,福岡県,福岡市東区,大字志賀島１２９８番地１７８,,40,131,8110323,,,,,,,2023-10-16,1,,,,,タカキテック,0
264,1290001103400,新規,0,2023-10-16,2023-10-16,株式会社Ｓｕｎｒｉｓｅ９,,株式会社,福岡県,久留米市,山本町豊田１６３３番地１,,40,203,8390827,,,,,,,2023-10-16,1,,,,,サンライズナイン,0
265,1290001103409,新規,0,2023-10-16,2023-10-16,株式会社エルダブ,,株式会社,福岡県,福岡市博多区,千代４丁目４番１１号４階,,40,132,8120044,,,,,,,2023-10-16,1,,,,,エルダブ,0
270,1290003014463,新規,0,2023-10-16,2023-10-16,合同会社パーフェクトプラン,,合同会社,福岡県,久留米市,御井町５８２番地,,40,203,8390851,,,,,,,2023-10-16,1,,,,,パーフェクトプラン,0
277,1330001031357,新規,0,2023-10-16,2023-10-16,新市街ＳＰＣ株式会社,,株式会社,熊本県,熊本市中央区,新市街１番２０号,,43,101,8600803,,,,,,,2023-10-16,1,,,,,シンシガイエスピーシー,0
283,1340003004285,新規,0,2023-10-16,2023-10-16,ＮＥＴ合同会社,,合同会社,鹿児島県,日置市,吹上町中原２３６６番地５,,46,216,8993301,,,,,,,2023-10-16,1,,,,,ネット,0
286,1350003004458,新規,0,2023-10-16,2023-10-16,合同会社ながや,,合同会社,宮崎県,東諸県郡国富町,大字本庄８５４番地２５,,45,382,8801101,,,,,,,2023-10-16,1,,,,,ナガヤ,0
291,1370001050493,新規,0,2023-10-16,2023-10-16,株式会社Ｌｉｎｋ,,株式会社,宮城県,宮城郡七ヶ浜町,汐見台南２丁目４番地の９,,04,404,9850822,,,,,,,2023-10-16,1,,,,,リンク,0
298,1390001017400,新規,0,2023-10-16,2023-10-16,株式会社スマイルリンク,,株式会社,山形県,鶴岡市,家中新町１５番１号,,06,203,9970036,,,,,,,2023-10-16,1,,,,,スマイルリンク,0
302,1400001016417,新規,0,2023-10-16,2023-10-16,株式会社東善中古農機,,株式会社,岩手県,紫波郡紫波町,大巻字大峯１０４番地１,,03,321,0283314,,,,,,,2023-10-16,1,,,,,ゼンゼンチュウコノウキ,0
305,1400003003157,新規,0,2023-10-16,2023-10-16,アルムダウン合同会社,,合同会社,岩手県,北上市,北鬼柳２１地割１０７番地４,,03,206,0240072,,,,,,,2023-10-16,1,,,,,アルムダウン,0
307,1410005006545,新規,0,2023-10-16,2023-10-16,農事組合法人マイファームたかはし,,その他の設立登記法人,秋田県,大仙市,太田町三本扇字篠沢９５番地４,,05,212,0191602,,,,,,,2023-10-16,1,,,,,,0
312,1460101007450,新規,0,2023-10-16,2023-10-16,株式会社あしょろ調剤薬局,,株式会社,北海道,河東郡音更町,中鈴蘭南１丁目３番地１４,,01,631,0800308,,,,,,,2023-10-16,1,,,,,アショロチョウザイヤッキョク,0
322,1700150113505,新規,0,2023-10-16,2023-10-16,Ｍｉｔｓｕｂｉｓｈｉ　Ｃｏｒｐｏｒａｔｉｏｎ　ＲｔＭ　Ｉｎｔｅｒｎａｔｉｏｎａｌ　Ｐｔｅ．Ｌｔｄ．,,外国会社等,,,,,,,,３　Ｔｅｍａｓｅｋ　Ａｖｅｎｕｅ　＃３２－０１　Ｃｅｎｔｅｎｎｉａｌ　Ｔｏｗｅｒ　Ｓｉｎｇａｐｏｒｅ　０３９１９０,,,,,,2023-10-16,1,,,,,ミツビシコーポレーシヨンアールテイーエムインターナシヨナルプライベートリミテツド,0
323,1700150121219,新規,0,2023-10-16,2023-10-16,Ｈｕｉ　Ｚｈｏｕ　Ｓｈｉ　Ｄａ　Ａｉ　Ｓｈａｎｇ　Ｍａｏ　Ｙｏｕ　Ｘｉａｎ　Ｇｏｎｇ　Ｓｉ,,外国会社等,,,,,,,,Ｒｏｏｍ　２２０２，Ｂｕｉｌｄｉｎｇ　７，Ｄｏｎｇａｎｌｉｄｏｕ　Ｇａｒｄｅｎ，Ｎｏ．１７８，Ｚｈｏｎｇｘｉｎｇ　Ｎｏｒｔｈ　Ｒｏａｄ，Ａｏｔｏｕ，ＤａＹａＷａｎ　Ｄｉｓｔｒｉｃｔ，ＨｕｉＺｈｏｕ　Ｃｉｔｙ，ＧｕａｎｇＤｏｎｇ　Ｐｒｏｖｉｎｃｅ,,,,,,2023-10-16,1,,,,,ケイシュウシタツアイショウボウユウゲンコウシ,0
337,2010001239130,新規,0,2023-10-16,2023-10-16,株式会社ＫＳＡ,,株式会社,東京都,千代田区,神田猿楽町２丁目５番２号,,13,101,1010064,,,,,,,2023-10-16,1,,,,,ケーエスエー,0
338,2010001239213,新規,0,2023-10-16,2023-10-16,株式会社Ｒｉｓｅ,,株式会社,東京都,中央区,銀座１丁目１２番４号Ｎ＆ＥＢＬＤ．６Ｆ,,13,102,1040061,,,,,,,2023-10-16,1,,,,,ライズ,0
340,2010003041955,新規,0,2023-10-16,2023-10-16,合同会社大谷企画,,合同会社,東京都,中央区,築地１丁目１２－５－３０７,,13,102,1040045,,,,,,,2023-10-16,1,,,,,オオタニキカク,0
341,2010005037373,新規,0,2023-10-16,2023-10-16,一般社団法人ＬＥＤＧＥ,,その他の設立登記法人,東京都,中央区,日本橋浜町２丁目２０番６号,,13,102,1030007,,,,,,,2023-10-16,1,,,,,レッジ,0
362,2010701044862,新規,0,2023-10-16,2023-10-16,株式会社Ｎｏｗｅｌ　Ｃｏｒｐｏｒａｔｉｏｎ,,株式会社,東京都,品川区,西五反田３丁目１６番１号,,13,109,1410031,,,,,,,2023-10-16,1,,,,,ノエルコーポレーション,0
371,2010901054001,新規,0,2023-10-16,2023-10-16,株式会社ＭＨＲ,,株式会社,東京都,世田谷区,深沢１丁目１１番８号ラヴィーニュ深沢Ｂ１,,13,112,1580081,,,,,,,2023-10-16,1,,,,,エムエイチアール,0
372,2010903008517,新規,0,2023-10-16,2023-10-16,合同会社ＹＵＮＩＣＡ,,合同会社,東京都,世田谷区,代田５丁目３３番１６号,,13,112,1550033,,,,,,,2023-10-16,1,,,,,ユニカ,0
378,2011001157405,新規,0,2023-10-16,2023-10-16,株式会社Ｌｉｂｅｒｔｙ　Ｏｗｅｎｓ,,株式会社,東京都,渋谷区,笹塚２丁目２２－３ステージファースト５０２,,13,113,1510073,,,,,,,2023-10-16,1,,,,,リバティーオーウェンス,0
379,2011001157512,新規,0,2023-10-16,2023-10-16,一布株式会社,,株式会社,東京都,渋谷区,本町１丁目６０番３－２０５号,,13,113,1510071,,,,,,,2023-10-16,1,,,,,イップ,0
380,2011001157578,新規,0,2023-10-16,2023-10-16,株式会社ｌａｌａｌａｊａｐａｎ,,株式会社,東京都,目黒区,青葉台１丁目１４－４,,13,110,1530042,,,,,,,2023-10-16,1,,,,,ラララジャパン,0
381,2011001157636,新規,0,2023-10-16,2023-10-16,株式会社ゴーズ・オン,,株式会社,東京都,渋谷区,渋谷２丁目１９番１５－６０９号宮益坂ビルディング,,13,113,1500002,,,,,,,2023-10-16,1,,,,,ゴーズオン,0
386,2011101104744,新規,0,2023-10-16,2023-10-16,Ｋ．Ｃワークス株式会社,,株式会社,東京都,新宿区,弁天町１３８,,13,104,1620851,,,,,,,2023-10-16,1,,,,,ケーシーワークス,0
387,2011101104760,新規,0,2023-10-16,2023-10-16,ＩＴＯ‐ＴＥＣＨ株式会社,,株式会社,東京都,新宿区,西新宿２丁目７番１号新宿第一生命ビルディング８Ｆ,,13,104,1600023,,,,,,,2023-10-16,1,,,,,イトーテック,0
388,2011103013605,新規,0,2023-10-16,2023-10-16,東銀座プロジェクト合同会社,,合同会社,東京都,新宿区,四谷４丁目３２番８号ＹＫＢサニービル６階,,13,104,1600004,,,,,,,2023-10-16,1,,,,,ヒガシギンザプロジェクト,0
394,2011303004932,新規,0,2023-10-16,2023-10-16,合同会社山平タイル工業,,合同会社,東京都,杉並区,西荻北３丁目１４番８号,,13,115,1670042,,,,,,,2023-10-16,1,,,,,,0
396,2011403004147,新規,0,2023-10-16,2023-10-16,Ｓｎｏｗｔｒａｃｅ合同会社,,合同会社,東京都,板橋区,清水町３８番１－８０６号,,13,119,1740053,,,,,,,2023-10-16,1,,,,,スノートゥレイス,0
400,2011801043176,新規,0,2023-10-16,2023-10-16,九鼎興和株式会社,,株式会社,東京都,足立区,小台１丁目６番５号,,13,121,1200046,,,,,,,2023-10-16,1,,,,,キュウテイコウワ,0
401,2011801043184,新規,0,2023-10-16,2023-10-16,株式会社セキュアサーキット,,株式会社,東京都,足立区,新田３丁目３７番１２－２０３号,,13,121,1230865,,,,,,,2023-10-16,1,,,,,セキュアサーキット,0
403,2012301013628,新規,0,2023-10-16,2023-10-16,株式会社Ｂｕｉｌｄ　ＵＰ,,株式会社,東京都,町田市,旭町２丁目７番８号滝の沢ハウス２０９,,13,209,1940023,,,,,,,2023-10-16,1,,,,,ビルドアップ,0
406,2012401041116,新規,0,2023-10-16,2023-10-16,株式会社ブレイブ,,株式会社,東京都,多摩市,和田１４０６番地７,,13,224,2060001,,,,,,,2023-10-16,1,,,,,ブレイブ,0
423,2020001153883,新規,0,2023-10-16,2023-10-16,株式会社スカーレット,,株式会社,神奈川県,横浜市青葉区,つつじが丘２８番地２９,,14,117,2270055,,,,,,,2023-10-16,1,,,,,スカーレット,0
424,2020001153925,新規,0,2023-10-16,2023-10-16,株式会社恒,,株式会社,神奈川県,横浜市磯子区,丸山２丁目１３番５－３号,,14,107,2350011,,,,,,,2023-10-16,1,,,,,ヒサシ,0
425,2020001154007,新規,0,2023-10-16,2023-10-16,株式会社横浜Ｃ・ユニコ,,株式会社,神奈川県,横浜市南区,浦舟町１丁目１番地,,14,105,2320024,,,,,,,2023-10-16,1,,,,,ヨコハマシーユニコ,0
430,2020003024760,新規,0,2023-10-16,2023-10-16,合同会社ユウサービス,,合同会社,神奈川県,横浜市泉区,和泉中央北４丁目３４番３０号サンカスガ１０２号,,14,116,2450024,,,,,,,2023-10-16,1,,,,,ユウサービス,0
431,2020005016145,新規,0,2023-10-16,2023-10-16,税理士法人ＴＫ　Ｐａｒｔｎｅｒｓ,,その他の設立登記法人,神奈川県,横浜市鶴見区,鶴見中央４丁目３２番１号,,14,101,2300051,,,,,,,2023-10-16,1,,,,,ティーケーパートナーズ,0
435,2021005012910,新規,0,2023-10-16,2023-10-16,一般社団法人ちよだみらい,,その他の設立登記法人,神奈川県,鎌倉市,大船１丁目１２番１０号湘南第五ビル３階,,14,204,2470056,,,,,,,2023-10-16,1,,,,,チヨダミライ,0
453,2030005021417,新規,0,2023-10-16,2023-10-16,入間豊岡住宅管理組合法人,,その他の設立登記法人,埼玉県,入間市,豊岡１丁目８番,,11,225,3580003,,,,,,,2023-10-16,1,,,,,イルマトヨオカジュウタク,0
463,2040001130419,新規,0,2023-10-16,2023-10-16,株式会社ＲＥＦＯＲＴＥ,,株式会社,千葉県,君津市,西原７９４番地２,,12,225,2920402,,,,,,,2023-10-16,1,,,,,リフォルテ,0
464,2040001130468,新規,0,2023-10-16,2023-10-16,株式会社小池興業,,株式会社,千葉県,柏市,高柳１７４２番地２０,,12,217,2770941,,,,,,,2023-10-16,1,,,,,コイケコウギョウ,0
465,2040001130476,新規,0,2023-10-16,2023-10-16,サンエーエンジニアリング株式会社,,株式会社,千葉県,船橋市,丸山２丁目１６番７号,,12,204,2730048,,,,,,,2023-10-16,1,,,,,サンエーエンジニアリング,0
466,2040001130484,新規,0,2023-10-16,2023-10-16,アクティブトレーディング株式会社,,株式会社,千葉県,船橋市,三山２丁目１２番１７号,,12,204,2740072,,,,,,,2023-10-16,1,,,,,アクティブトレーディング,0
467,2040001130492,新規,0,2023-10-16,2023-10-16,三葉商事株式会社,,株式会社,千葉県,市原市,ちはら台東９丁目１２番地２,,12,219,2900141,,,,,,,2023-10-16,1,,,,,サンヨウショウジ,0
468,2040001130501,新規,0,2023-10-16,2023-10-16,株式会社ＣＯＣＯＷＥＬＬ,,株式会社,千葉県,香取市,佐原イ３４５番地高橋ビル２階Ｇ室,,12,236,2870003,,,,,,,2023-10-16,1,,,,,ココウェル,0
469,2040001130518,新規,0,2023-10-16,2023-10-16,株式会社ｙｙｍｋ,,株式会社,千葉県,市川市,東菅野１丁目１２番１号,,12,203,2720823,,,,,,,2023-10-16,1,,,,,ワイワイエムケー,0
473,2040003023488,新規,0,2023-10-16,2023-10-16,合同会社三咲金属,,合同会社,千葉県,船橋市,大穴南１丁目２１番１１号,,12,204,2740067,,,,,,,2023-10-16,1,,,,,ミサキキンゾク,0
474,2040003023513,新規,0,2023-10-16,2023-10-16,ＹＡＲＵＫＩ　ＩＮＴＥＲＮＡＴＩＯＮＡＬ合同会社,,合同会社,千葉県,千葉市若葉区,北谷津町３０５番地２－３Ｂ,,12,104,2650067,,,,,,,2023-10-16,1,,,,,ヤルキインターナショナル,0
476,2050003007853,新規,0,2023-10-16,2023-10-16,ＪＳＢ　Ｉｎｔｅｒｎａｔｉｏｎａｌ　Ｊａｐａｎ合同会社,,合同会社,茨城県,つくば市,栗原２３４５番地,,08,220,3050001,,,,,,,2023-10-16,1,,,,,ジェイエスビーインターナショナルジャパン,0
490,2080405007589,新規,0,2023-10-16,2023-10-16,一般社団法人御前崎特定水産物採捕,,その他の設立登記法人,静岡県,御前崎市,白羽５９８番地の２,,22,223,4371622,,,,,,,2023-10-16,1,,,,,オマエザキトクテイスイサンブツサイホ,0
493,2100001036881,新規,0,2023-10-16,2023-10-16,株式会社Ｒｅｃｇｅｎｅ,,株式会社,長野県,松本市,蟻ケ崎４丁目５番５６号,,20,202,3900861,,,,,,,2023-10-16,1,,,,,レクジーン,0
494,2110001037920,新規,0,2023-10-16,2023-10-16,ハーツホーム株式会社,,株式会社,新潟県,新潟市北区,柳原２丁目９番地１７,,15,101,9503326,,,,,,,2023-10-16,1,,,,,ハーツホーム,0
505,2120001258739,新規,0,2023-10-16,2023-10-16,株式会社ニーズネクスト,,株式会社,大阪府,大阪市北区,西天満４丁目３番１９号ＡＸＩＳ西天満ビル８Ｆ,,27,127,5300047,,,,,,,2023-10-16,1,,,,,ニーズネクスト,0
506,2120001258747,新規,0,2023-10-16,2023-10-16,陽の光株式会社,,株式会社,大阪府,大阪市住吉区,遠里小野５丁目１４番２０号２０３号室,,27,120,5580032,,,,,,,2023-10-16,1,,,,,ヨウノコウ,0
510,2120003025088,新規,0,2023-10-16,2023-10-16,宏景合同会社,,合同会社,大阪府,大阪市淀川区,宮原５丁目６番３２－１０２号,,27,123,5320003,,,,,,,2023-10-16,1,,,,,コウケイ,0
516,2120901048198,新規,0,2023-10-16,2023-10-16,Ｓｅｖｅｎ　Ｅｓｔａｔｅ株式会社,,株式会社,大阪府,吹田市,内本町２丁目２１番５号,,27,205,5640032,,,,,,,2023-10-16,1,,,,,セブンエステート,0
520,2122003002694,新規,0,2023-10-16,2023-10-16,山湖合同会社,,合同会社,大阪府,東大阪市,日下町８丁目１番３号石切ｗｏｒｋｓｐａｃｅ１０１号室,,27,227,5798003,,,,,,,2023-10-16,1,,,,,サンコ,0
522,2130001075407,新規,0,2023-10-16,2023-10-16,株式会社Ｋｖｅｔｓ,,株式会社,京都府,京丹後市,久美浜町７５番地の１,,26,212,6293410,,,,,,,2023-10-16,1,,,,,ケーベッツ,0
523,2130001075431,新規,0,2023-10-16,2023-10-16,ＪｉｒｏＢａｙ　Ｆｏｒｅｓｔｒｙ株式会社,,株式会社,京都府,京都市右京区,西院西矢掛町１８番１０,,26,108,6150025,,,,,,,2023-10-16,1,,,,,ジロベイフォレストリイ,0
528,2140001131927,新規,0,2023-10-16,2023-10-16,株式会社シマラク,,株式会社,兵庫県,南あわじ市,松帆古津路５７７－１００,,28,224,6560304,,,,,,,2023-10-16,1,,,,,シマクラ,0
548,2180001158388,新規,0,2023-10-16,2023-10-16,株式会社ＴＢＫ,,株式会社,愛知県,名古屋市中村区,鴨付町１丁目６１番地２,,23,105,4530843,,,,,,,2023-10-16,1,,,,,ティービーケー,0
549,2180001158421,新規,0,2023-10-16,2023-10-16,日硫テック株式会社,,株式会社,愛知県,名古屋市西区,大野木４丁目３５８番地,,23,104,4520803,,,,,,,2023-10-16,1,,,,,ニチリュウテック,0
550,2180001158454,新規,0,2023-10-16,2023-10-16,レプトライフ株式会社,,株式会社,愛知県,名古屋市中村区,名駅３丁目４番３号アルティメイト名駅１ｓｔ２階,,23,105,4500002,,,,,,,2023-10-16,1,,,,,レプトライフ,0
551,2180001158462,新規,0,2023-10-16,2023-10-16,株式会社アルハムトレーディング,,株式会社,愛知県,弥富市,東末広７丁目２５番地,,23,235,4980063,,,,,,,2023-10-16,1,,,,,アルハムトレーディング,0
552,2180001158479,新規,0,2023-10-16,2023-10-16,株式会社ＴＭトラスト,,株式会社,愛知県,名古屋市東区,徳川町１２１７番地徳川ガーデンハウス３０１号,,23,102,4610023,,,,,,,2023-10-16,1,,,,,ティーエムトラスト,0
553,2180001158487,新規,0,2023-10-16,2023-10-16,株式会社ツクヨミ,,株式会社,愛知県,名古屋市緑区,大高町字丸ノ内７３番地の１,,23,114,4598001,,,,,,,2023-10-16,1,,,,,ツクヨミ,0
558,2200001041822,新規,0,2023-10-16,2023-10-16,太陽社電気ホールディングス株式会社,,株式会社,岐阜県,多治見市,小田町６丁目１番地,,21,204,5070023,,,,,,,2023-10-16,1,,,,,タイヨウシャデンキホールディングス,0
560,2230001020055,新規,0,2023-10-16,2023-10-16,株式会社ＫＵＭＵＫＵ,,株式会社,富山県,富山市,赤田１３７番地５７,,16,201,9398064,,,,,,,2023-10-16,1,,,,,クムク,0
561,2230003002092,新規,0,2023-10-16,2023-10-16,合同会社Ｐｕａｌａｎｉ　ｍｉｍｉ,,合同会社,富山県,高岡市,中田５２０３番地,,16,202,9391275,,,,,,,2023-10-16,1,,,,,プアラニミミ,0
571,2290001103390,新規,0,2023-10-16,2023-10-16,株式会社ＧＲＩＴ‐ＷＯＲＫ,,株式会社,福岡県,福津市,福間南５丁目５番１０号,,40,224,8113212,,,,,,,2023-10-16,1,,,,,グリットワーク,0
572,2290001103399,新規,0,2023-10-16,2023-10-16,株式会社トライアンス,,株式会社,福岡県,三井郡大刀洗町,大字高樋８９３番１,,40,503,8301221,,,,,,,2023-10-16,1,,,,,,0
582,2310001018652,新規,0,2023-10-16,2023-10-16,株式会社福満ファーム,,株式会社,長崎県,南島原市,加津佐町乙４１４３番地,,42,214,8592605,,,,,,,2023-10-16,1,,,,,,0
584,2320001020070,新規,0,2023-10-16,2023-10-16,株式会社Ｋｉｂｏｕ,,株式会社,大分県,大分市,松が丘４丁目８番１０号,,44,201,8701168,,,,,,,2023-10-16,1,,,,,,0
593,2340001025984,新規,0,2023-10-16,2023-10-16,株式会社深江建窓,,株式会社,鹿児島県,鹿児島市,広木２丁目３４番２３号,,46,201,8900037,,,,,,,2023-10-16,1,,,,,フカエケンソウ,0
597,2350005006187,新規,0,2023-10-16,2023-10-16,みつば社会保険労務士法人,,その他の設立登記法人,宮崎県,延岡市,北小路３６４８番地,,45,203,8820041,,,,,,,2023-10-16,1,,,,,ミツバ,0
601,2360003013374,新規,0,2023-10-16,2023-10-16,ＪＡＰＡＮＥＮＡ合同会社,,合同会社,沖縄県,那覇市,前島３丁目２５番２号泊ポートビル１Ｆ,,47,201,9000016,,,,,,,2023-10-16,1,,,,,ジャパニーナ,0
602,2370001050484,新規,0,2023-10-16,2023-10-16,株式会社鎌田鉄工,,株式会社,宮城県,多賀城市,桜木２丁目８番４１－１号,,04,209,9850842,,,,,,,2023-10-16,1,,,,,カマタテッコウ,0
609,2410005006544,新規,0,2023-10-16,2023-10-16,農事組合法人上川原農園,,その他の設立登記法人,秋田県,大仙市,太田町三本扇字高花３５４番地１,,05,212,0191602,,,,,,,2023-10-16,1,,,,,カミカワラノウエン,0
614,2420003002809,新規,0,2023-10-16,2023-10-16,合同会社ＥＮＯＲＭＯＵＳ,,合同会社,青森県,青森市,八重田１丁目４番１０号アシスト第１１青森マンションＢ３０１号,,02,201,0300912,,,,,,,2023-10-16,1,,,,,イノーマス,0
620,2430001090136,新規,0,2023-10-16,2023-10-16,リプランハウス株式会社,,株式会社,北海道,札幌市西区,山の手四条３丁目３番２９号,,01,107,0630004,,,,,,,2023-10-16,1,,,,,リプランハウス,0
621,2430001090185,新規,0,2023-10-16,2023-10-16,松本工業株式会社,,株式会社,北海道,石狩市,花川南二条６丁目２７４番地,,01,235,0613202,,,,,,,2023-10-16,1,,,,,マツモトコウギョウ,0
622,2430001090202,新規,0,2023-10-16,2023-10-16,Ｎｙｓ　Ｉｎｎｏｖａｔｉｏｎ株式会社,,株式会社,北海道,札幌市中央区,南十四条西１２丁目２－４０－１３０１,,01,101,0640914,,,,,,,2023-10-16,1,,,,,エヌワイエスイノベーション,0
631,2480001012259,新規,0,2023-10-16,2023-10-16,重興工業株式会社,,株式会社,徳島県,板野郡板野町,古城字若宮６１番地,,36,404,7790107,,,,,,,2023-10-16,1,,,,,ジュウコウコウギョウ,0
632,2480003002035,新規,0,2023-10-16,2023-10-16,合同会社スイリス,,合同会社,徳島県,板野郡北島町,北村字大黒６番地１,,36,402,7710201,,,,,,,2023-10-16,1,,,,,スイリス,0
636,2700150121218,新規,0,2023-10-16,2023-10-16,Ｓｈｅｎｚｈｅｎｓｈｉ　Ｙａｉｆｅｉ　Ｓｈｉｊｉ　Ｋｅｊｉ　Ｃｏ．，Ｌｔｄ．,,外国会社等,,,,,,,,５０３，Ｎｏ．４７，Ｘｉ　Ｋｅｎｇ　Ｒｏａｄ，Ｓｉｈｅ　Ｃｏｍｍｕｎｉｔｙ，Ｆｕｃｈｅｎｇ　Ｓｔｒｅｅｔ　Ｌｏｎｇｈｕａ　Ｓｈｅｎｚｈｅｎ　Ｃｈｉｎａ,,,,,,2023-10-16,1,,,,,シンセンシヤイフェイシジカギカンパニーリミテッド,0
650,3010001239286,新規,0,2023-10-16,2023-10-16,株式会社Ｅｌｅｇａｎｔ　Ｓｔｙｌｅ,,株式会社,東京都,中央区,銀座１丁目１２番４号Ｎ＆ＥＢＬＤ．６Ｆ,,13,102,1040061,,,,,,,2023-10-16,1,,,,,エレガントスタイル,0
661,3010401016954,新規,0,2023-10-16,2023-10-16,株式会社タカセ,,株式会社,東京都,港区,赤坂９丁目１番７号,,13,103,1070052,,,,,,,2023-10-16,1,,,,,,0
671,3010401177763,新規,0,2023-10-16,2023-10-16,オポスプライオリティ株式会社,,株式会社,東京都,港区,六本木３丁目１番３０号ＡＢビル１階,,13,103,1060032,,,,,,,2023-10-16,1,,,,,オポスプライオリティ,0
677,3010403031175,新規,0,2023-10-16,2023-10-16,Ｋｅｒｎｅｌ日本合同会社,,合同会社,東京都,港区,芝浦３丁目１番２１号,,13,103,1080023,,,,,,,2023-10-16,1,,,,,カーネルニホン,0
682,3010601063945,新規,0,2023-10-16,2023-10-16,騰川株式会社,,株式会社,東京都,墨田区,錦糸３丁目１４－７－２０１,,13,107,1300013,,,,,,,2023-10-16,1,,,,,トガワ,0
687,3010901053992,新規,0,2023-10-16,2023-10-16,Ｔｈｅ　Ｂｅｓｔ　Ｇｉｆｔ株式会社,,株式会社,東京都,世田谷区,玉堤２丁目９番４号,,13,112,1580087,,,,,,,2023-10-16,1,,,,,ザベストギフト,0
693,3011001157494,新規,0,2023-10-16,2023-10-16,株式会社ＶＩＶＡＮＴ,,株式会社,東京都,渋谷区,渋谷２丁目１９－１５宮益坂ビルディング６０９,,13,113,1500002,,,,,,,2023-10-16,1,,,,,ヴィヴァン,0
700,3011101104693,新規,0,2023-10-16,2023-10-16,株式会社ＤＲＡＧＯＯＮ,,株式会社,東京都,新宿区,歌舞伎町２丁目３８番２号第二メトロビル３階,,13,104,1600021,,,,,,,2023-10-16,1,,,,,ドラグーン,0
701,3011101104727,新規,0,2023-10-16,2023-10-16,株式会社ＭＵＳＥ,,株式会社,東京都,新宿区,西早稲田２丁目２１番１１号スカイコートヴァンテン３０５,,13,104,1690051,,,,,,,2023-10-16,1,,,,,ミューズ,0
702,3011101104735,新規,0,2023-10-16,2023-10-16,株式会社玉澤運動具店,,株式会社,東京都,新宿区,新宿１丁目３６番２号新宿第七葉山ビル６階,,13,104,1600022,,,,,,,2023-10-16,1,,,,,タマザワウンドウグテン,0
703,3011101104751,新規,0,2023-10-16,2023-10-16,株式会社大成,,株式会社,東京都,新宿区,歌舞伎町１丁目１３－９一丁目ビル１階,,13,104,1600021,,,,,,,2023-10-16,1,,,,,ダイセイ,0
704,3011103013587,新規,0,2023-10-16,2023-10-16,合同会社ＫＩＲＡ,,合同会社,東京都,新宿区,歌舞伎町２丁目２９番１号第３ウイザードセブンビル５階,,13,104,1600021,,,,,,,2023-10-16,1,,,,,キラ,0
707,3011301029088,新規,0,2023-10-16,2023-10-16,パーシモン計画株式会社,,株式会社,東京都,杉並区,清水３丁目３１番６－３０３号,,13,115,1670033,,,,,,,2023-10-16,1,,,,,パーシモンケイカク,0
708,3011403004146,新規,0,2023-10-16,2023-10-16,マークワイズ合同会社,,合同会社,東京都,板橋区,三園１丁目２９番２５－１０４号,,13,119,1750091,,,,,,,2023-10-16,1,,,,,マークワイズ,0
717,3012803003209,新規,0,2023-10-16,2023-10-16,ＲＳＰ合同会社,,合同会社,東京都,国分寺市,日吉町４丁目１３番地４０パレドール９１、２０２,,13,214,1850032,,,,,,,2023-10-16,1,,,,,アールエスピー,0
724,3013301051476,新規,0,2023-10-16,2023-10-16,キュア・メディカル・ジャパン株式会社,,株式会社,東京都,豊島区,南大塚２丁目３８番１号リードシー大塚ビル,,13,116,1700005,,,,,,,2023-10-16,1,,,,,キュアメディカルジャパン,0
725,3013303006833,新規,0,2023-10-16,2023-10-16,合同会社ＪＨ,,合同会社,東京都,豊島区,上池袋３丁目３３番２３－１４０３号,,13,116,1700012,,,,,,,2023-10-16,1,,,,,ジェイエイチ,0
732,3020001153899,新規,0,2023-10-16,2023-10-16,株式会社Ｌｉｍｉｔ　ＪＰ,,株式会社,神奈川県,横浜市旭区,笹野台４丁目６４番４１号,,14,112,2410816,,,,,,,2023-10-16,1,,,,,リミットジェーピー,0
733,3020001153940,新規,0,2023-10-16,2023-10-16,ホンダ興業株式会社,,株式会社,神奈川県,横浜市神奈川区,菅田町４８８番地西菅田団地７街区８号棟１０６号室,,14,102,2210864,,,,,,,2023-10-16,1,,,,,ホンダコウギョウ,0
737,3020003024743,新規,0,2023-10-16,2023-10-16,Ｔｅｓｏｒｏ　Ｉｎｖｅｓｔｍｅｎｔ合同会社,,合同会社,神奈川県,横浜市西区,北幸２丁目１０番地４８むつみビル３Ｆ,,14,103,2200004,,,,,,,2023-10-16,1,,,,,テソロインベストメント,0
738,3020005016144,新規,0,2023-10-16,2023-10-16,税理士法人ＢＡＳＥ２６９,,その他の設立登記法人,神奈川県,横浜市青葉区,青葉台２丁目１１番１号,,14,117,2270062,,,,,,,2023-10-16,1,,,,,ベイスツムグ,0
739,3021001080448,新規,0,2023-10-16,2023-10-16,株式会社ＬＨＰ,,株式会社,神奈川県,相模原市南区,東林間２丁目２１－２３－３０２,,14,153,2520311,,,,,,,2023-10-16,1,,,,,エルエイチピー,0
750,3030001156678,新規,0,2023-10-16,2023-10-16,株式会社吉田建機,,株式会社,埼玉県,三郷市,戸ケ崎３０９０番地１１４,,11,237,3410044,,,,,,,2023-10-16,1,,,,,ヨシダケンキ,0
756,3030003022762,新規,0,2023-10-16,2023-10-16,ＭＯＯＮＢＡＹ　ＣＥＹＬＯＮ合同会社,,合同会社,埼玉県,春日部市,大沼６丁目１３７－１大沼ビル１０２,,11,214,3440038,,,,,,,2023-10-16,1,,,,,ムーンベイセイロン,0
758,3030005021416,新規,0,2023-10-16,2023-10-16,特定非営利活動法人在日イラン人文化協会,,その他の設立登記法人,埼玉県,越谷市,千間台西３丁目３番地パークタウン１－４０１,,11,222,3430041,,,,,,,2023-10-16,1,,,,,ザイニチイランジンブンカキョウカイ,0
760,3040001130459,新規,0,2023-10-16,2023-10-16,株式会社ＹＯＳＨＩＤＡ,,株式会社,千葉県,佐倉市,上志津原３４５番地９,,12,212,2850844,,,,,,,2023-10-16,1,,,,,ヨシダ,0
761,3040001130467,新規,0,2023-10-16,2023-10-16,株式会社ＦＨ通信社,,株式会社,千葉県,市川市,伊勢宿１５番４－２０５号,,12,203,2720106,,,,,,,2023-10-16,1,,,,,エフエイチツウシンシャ,0
762,3040001130491,新規,0,2023-10-16,2023-10-16,株式会社ＣＲＥＥＫ　Ｌａｂ．,,株式会社,千葉県,野田市,岩名１丁目３７番地の１４,,12,208,2780055,,,,,,,2023-10-16,1,,,,,クリークラボ,0
768,3040003023529,新規,0,2023-10-16,2023-10-16,合同会社Ｔ＆Ｓ,,合同会社,千葉県,松戸市,六高台８丁目１９３番地の２３,,12,207,2702203,,,,,,,2023-10-16,1,,,,,ティーアンドエス,0
769,3040003023537,新規,0,2023-10-16,2023-10-16,Ｍｏｒｏｔｏ防災合同会社,,合同会社,千葉県,印西市,師戸１３２０－１１,,12,231,2701615,,,,,,,2023-10-16,1,,,,,モロトボウサイ,0
770,3040003023545,新規,0,2023-10-16,2023-10-16,合同会社ナカショウ,,合同会社,千葉県,市川市,二俣１丁目１１－２１サンシティーＡ１０５号,,12,203,2720001,,,,,,,2023-10-16,1,,,,,ナカショウ,0
781,3060003004766,新規,0,2023-10-16,2023-10-16,合同会社ＥＭＭＡ,,合同会社,栃木県,宇都宮市,吉野１丁目１０番４号サクラトカワト３―Ａ,,09,201,3200838,,,,,,,2023-10-16,1,,,,,エマ,0
785,3070003005128,新規,0,2023-10-16,2023-10-16,キレイズジャパン合同会社,,合同会社,群馬県,みどり市,大間々町大間々１４０９番地１８,,10,212,3760101,,,,,,,2023-10-16,1,,,,,キレイズジャパン,0
789,3080101024276,新規,0,2023-10-16,2023-10-16,株式会社スグロビＳｐｅｃｉａｌ,,株式会社,静岡県,沼津市,獅子浜２４７番地の１－２,,22,203,4100104,,,,,,,2023-10-16,1,,,,,スグロビスペシャル,0
796,3080405007588,新規,0,2023-10-16,2023-10-16,医療法人社団さくら会,,その他の設立登記法人,静岡県,浜松市浜北区,小林１２６４番地の１,,22,136,4340031,,,,,,,2023-10-16,1,,,,,サクラカイ,0
798,3100001036889,新規,0,2023-10-16,2023-10-16,株式会社龍和貿易,,株式会社,長野県,諏訪郡富士見町,富士見字根重１９８３番４,,20,362,3990211,,,,,,,2023-10-16,1,,,,,リュウワボウエキ,0
816,3120001258580,新規,0,2023-10-16,2023-10-16,株式会社ユニスト・ホールディングス,,株式会社,大阪府,大阪市西区,立売堀１丁目４番１２号,,27,106,5500012,,,,,,,2023-10-16,1,,,,,ユニストホールディングス,0
817,3120001258606,新規,0,2023-10-16,2023-10-16,金晟株式会社,,株式会社,大阪府,大阪市天王寺区,真田山町５－３６メゾンドール真田山公園１０８号,,27,109,5430015,,,,,,,2023-10-16,1,,,,,キンセイ,0
818,3120001258746,新規,0,2023-10-16,2023-10-16,Ｍｅｌｅｔｅ株式会社,,株式会社,大阪府,大阪市淀川区,田川北２丁目５－３４・Ｃ棟２０２号室,,27,123,5320021,,,,,,,2023-10-16,1,,,,,メレテ,0
819,3120001258795,新規,0,2023-10-16,2023-10-16,ｐａｃａｙａ株式会社,,株式会社,大阪府,大阪市旭区,赤川１丁目５－１３天理マンション２０４,,27,117,5350005,,,,,,,2023-10-16,1,,,,,パカヤ,0
825,3130001075422,新規,0,2023-10-16,2023-10-16,株式会社胡,,株式会社,京都府,京都市中京区,西ノ京円町２４－３,,26,104,6048463,,,,,,,2023-10-16,1,,,,,エビス,0
826,3130001075439,新規,0,2023-10-16,2023-10-16,株式会社大原アールアンドデイ,,株式会社,京都府,宇治市,槙島町目川１１８番地４,,26,204,6110000,,,,,,,2023-10-16,1,,,,,オオハラアールアンドデイ,0
827,3130003009048,新規,0,2023-10-16,2023-10-16,合同会社ヴェルサタイル,,合同会社,京都府,八幡市,男山金振１２番地３４,,26,210,6148365,,,,,,,2023-10-16,1,,,,,ヴェルサタイル,0
828,3130005016901,新規,0,2023-10-16,2023-10-16,保証責任下粟野負債整理組合,00132220,その他の設立登記法人,京都府,船井郡京丹波町,下粟野西タンボ８０番地,,26,407,6291105,,,,,,,2023-10-16,1,,,,,シモアワノフサイセイリクミアイ,0
838,3140001131975,新規,0,2023-10-16,2023-10-16,株式会社フジ建工,,株式会社,兵庫県,小野市,脇本町２４６番地の２,,28,218,6751305,,,,,,,2023-10-16,1,,,,,,0
842,3140005026767,新規,0,2023-10-16,2023-10-16,一般社団法人もうひとつの居場所,,その他の設立登記法人,兵庫県,宝塚市,安倉南１丁目２番３８－２号,,28,214,6650823,,,,,,,2023-10-16,1,,,,,モウヒトツノイバショ,0
845,3170001017833,新規,0,2023-10-16,2023-10-16,山永ホテルサービス株式会社,,株式会社,和歌山県,東牟婁郡那智勝浦町,大字天満８８０番地９,,30,421,6495331,,,,,,,2023-10-16,1,,,,,サンエイホテルサービス,0
857,3180001158437,新規,0,2023-10-16,2023-10-16,ＨＫ’ｓホールディングス株式会社,,株式会社,愛知県,名古屋市西区,名駅３丁目１０番１７号,,23,104,4510045,,,,,,,2023-10-16,1,,,,,エイチケーズホールディングス,0
858,3180001158445,新規,0,2023-10-16,2023-10-16,株式会社エースマイル,,株式会社,愛知県,海部郡蟹江町,学戸１丁目９３番地,,23,425,4970050,,,,,,,2023-10-16,1,,,,,エースマイル,0
859,3180001158453,新規,0,2023-10-16,2023-10-16,株式会社安藤建装,,株式会社,愛知県,名古屋市昭和区,御器所２丁目６番１８号クマザワビル１０２号室,,23,107,4660051,,,,,,,2023-10-16,1,,,,,アンドウケンソウ,0
860,3180001158478,新規,0,2023-10-16,2023-10-16,株式会社ＫＭＲ,,株式会社,愛知県,名古屋市瑞穂区,神前町２丁目２６番地の７,,23,108,4670832,,,,,,,2023-10-16,1,,,,,ケーエムアール,0
865,3180003025858,新規,0,2023-10-16,2023-10-16,テムレン合同会社,,合同会社,愛知県,名古屋市港区,七番町２丁目１１番地１,,23,111,4550001,,,,,,,2023-10-16,1,,,,,テムレン,0
870,3200001041821,新規,0,2023-10-16,2023-10-16,株式会社Ｇｒｏｕｎｄ　Ｌｉｎｅ,,株式会社,岐阜県,各務原市,鵜沼朝日町５丁目１７番地３,,21,213,5090145,,,,,,,2023-10-16,1,,,,,グランドライン,0
872,3220003003603,新規,0,2023-10-16,2023-10-16,合同会社ビジョン,,合同会社,石川県,加賀市,大聖寺東町３丁目１３,,17,206,9220816,,,,,,,2023-10-16,1,,,,,ビジョン,0
877,3240001062244,新規,0,2023-10-16,2023-10-16,Ｂｅ　Ｐｒｏｆｅｓｓｉｏｎａｌ株式会社,,株式会社,広島県,東広島市,西条中央２丁目７番３号,,34,212,7390025,,,,,,,2023-10-16,1,,,,,ビープロフェッショナル,0
882,3260001038399,新規,0,2023-10-16,2023-10-16,株式会社こじま不動産企画,,株式会社,岡山県,総社市,総社２丁目１４番３８号,,33,208,7191126,,,,,,,2023-10-16,1,,,,,コジマフドウサンキカク,0
883,3260001038408,新規,0,2023-10-16,2023-10-16,株式会社プロットアート,,株式会社,岡山県,岡山市北区,柳町２丁目１１番２０号,,33,101,7000904,,,,,,,2023-10-16,1,,,,,プロットアート,0
893,3320003004203,新規,0,2023-10-16,2023-10-16,合同会社ナシカ,,合同会社,大分県,中津市,大字下宮永７６番地１７,,44,203,8710029,,,,,,,2023-10-16,1,,,,,ナシカ,0
894,3330001031363,新規,0,2023-10-16,2023-10-16,株式会社Ｉ‐Ｌｉｆｅ不動産,,株式会社,熊本県,熊本市南区,良町２丁目６番１０号,,43,104,8620969,,,,,,,2023-10-16,1,,,,,アイライフフドウサン,0
902,3360003013373,新規,0,2023-10-16,2023-10-16,合同会社里のガーデン,,合同会社,沖縄県,糸満市,字大里６２３番地７,,47,210,9010325,,,,,,,2023-10-16,1,,,,,サトノガーデン,0
906,3370001050525,新規,0,2023-10-16,2023-10-16,Ｉ．ｓｔｏｒｙ株式会社,,株式会社,宮城県,仙台市若林区,椌木通６１番地の７１,,04,103,9840044,,,,,,,2023-10-16,1,,,,,アイストーリー,0
918,3380001034048,新規,0,2023-10-16,2023-10-16,株式会社Ｂｌａｎｃ,,株式会社,福島県,会津若松市,中央１丁目３番４号,,07,202,9650037,,,,,,,2023-10-16,1,,,,,ブラン,0
919,3380001034056,新規,0,2023-10-16,2023-10-16,株式会社プチグローブ,,株式会社,福島県,郡山市,字名倉２４７番地の１,,07,203,9638845,,,,,,,2023-10-16,1,,,,,プチグローブ,0
922,3380003005583,新規,0,2023-10-16,2023-10-16,合同会社エフ・トジョン,,合同会社,福島県,耶麻郡猪苗代町,大字三ツ和字長香１７４６,,07,408,9693284,,,,,,,2023-10-16,1,,,,,エフトジョン,0
923,3400001016431,新規,0,2023-10-16,2023-10-16,株式会社山佐林業,,株式会社,岩手県,下閉伊郡岩泉町,大川字上外山６９番地,,03,483,0282232,,,,,,,2023-10-16,1,,,,,ヤマサリンギョウ,0
924,3420003002808,新規,0,2023-10-16,2023-10-16,合同会社Ｎ　ＦＯＣＵＳ,,合同会社,青森県,八戸市,大字鮫町字外ノ沢５番地９,,02,203,0310841,,,,,,,2023-10-16,1,,,,,エヌフォーカス,0
927,3430001090184,新規,0,2023-10-16,2023-10-16,株式会社アシリアス,,株式会社,北海道,札幌市南区,北ノ沢２丁目９番１２号,,01,106,0050832,,,,,,,2023-10-16,1,,,,,アシリアス,0
928,3430001090201,新規,0,2023-10-16,2023-10-16,株式会社ローカルターゲット,,株式会社,北海道,札幌市北区,屯田四条７丁目９番２４号,,01,102,0020854,,,,,,,2023-10-16,1,,,,,ローカルターゲット,0
933,3430005014809,新規,0,2023-10-16,2023-10-16,一般財団法人キノルド杉本惠昭記念財団,,その他の設立登記法人,北海道,札幌市白石区,平和通１５丁目北１番２１号,,01,104,0030029,,,,,,,2023-10-16,1,,,,,キノルドスギモトヤスアキキネンザイダン,0
958,4010003041945,新規,0,2023-10-16,2023-10-16,ＣＡＲＰＥ　ＷＩＳＴＥＲＩＡ　ＪＡＰＡＮ合同会社,,合同会社,東京都,中央区,銀座１丁目２２番１１号銀座大竹ビジデンス２Ｆ,,13,102,1040061,,,,,,,2023-10-16,1,,,,,カルペウィステリアジャパン,0
978,4010501051215,新規,0,2023-10-16,2023-10-16,Ｚｉｎｎｔｅｃｈ　Ｓｏｌｕｔｉｏｎｓ株式会社,,株式会社,東京都,台東区,台東２丁目２７番３号ＮＳＫビル１０Ｆ,,13,106,1100016,,,,,,,2023-10-16,1,,,,,ジンテックソリューションズ,0
979,4010601063944,新規,0,2023-10-16,2023-10-16,ＳＦヒューマンサポート株式会社,,株式会社,東京都,墨田区,両国１丁目１７番６号,,13,107,1300026,,,,,,,2023-10-16,1,,,,,エスエフヒューマンサポート,0
980,4010601063952,新規,0,2023-10-16,2023-10-16,Ｗｉｉｋｉ‐Ｔｅｃｈ　Ｊａｐａｎ株式会社,,株式会社,東京都,江東区,深川１丁目１番２号２１号室,,13,108,1350033,,,,,,,2023-10-16,1,,,,,ウィキテックジャパン,0
981,4010601063960,新規,0,2023-10-16,2023-10-16,三瀛株式会社,,株式会社,東京都,墨田区,立花１丁目２８番４－１２０５号,,13,107,1310043,,,,,,,2023-10-16,1,,,,,ミエイ,0
986,4010703006909,新規,0,2023-10-16,2023-10-16,合同会社プルータス,,合同会社,東京都,品川区,上大崎２丁目５番２号,,13,109,1410021,,,,,,,2023-10-16,1,,,,,プルータス,0
989,4010903008515,新規,0,2023-10-16,2023-10-16,合同会社エイトグラフィックス,,合同会社,東京都,世田谷区,船橋５丁目３番８－５０３号,,13,112,1560055,,,,,,,2023-10-16,1,,,,,エイトグラフィックス,0
1003,4011001157485,新規,0,2023-10-16,2023-10-16,ＴＲＩＰＯＴ株式会社,,株式会社,東京都,渋谷区,幡ヶ谷２丁目２４番７号ＫＤＸレジデンス幡ヶ谷１３０４,,13,113,1510072,,,,,,,2023-10-16,1,,,,,トライポット,0
1004,4011001157618,新規,0,2023-10-16,2023-10-16,株式会社エスプリング,,株式会社,東京都,渋谷区,代々木３丁目３１番１２号,,13,113,1510053,,,,,,,2023-10-16,1,,,,,エスプリング,0
1005,4011003017729,新規,0,2023-10-16,2023-10-16,ＣＢＣＴ合同会社,,合同会社,東京都,目黒区,自由が丘３丁目１３番１１号,,13,110,1520035,,,,,,,2023-10-16,1,,,,,シービーシーティー,0
1013,4011101104718,新規,0,2023-10-16,2023-10-16,株式会社ワンズジェネレーション,,株式会社,東京都,新宿区,西新宿３丁目３番１３号西新宿水間ビル６階,,13,104,1600023,,,,,,,2023-10-16,1,,,,,ワンズジェネレーション,0
1018,4011301029087,新規,0,2023-10-16,2023-10-16,株式会社ＭＹＭ,,株式会社,東京都,杉並区,荻窪３丁目１０番１３号,,13,115,1670051,,,,,,,2023-10-16,1,,,,,ミーマイ,0
1020,4011401025531,新規,0,2023-10-16,2023-10-16,株式会社タングラム,,株式会社,東京都,板橋区,徳丸３丁目３７番１７号,,13,119,1750083,,,,,,,2023-10-16,1,,,,,タングラム,0
1034,4012801022688,新規,0,2023-10-16,2023-10-16,Ｖａｌｕｅ　Ｔｒｅｅ株式会社,,株式会社,東京都,国分寺市,東戸倉２丁目７番地１雅１７ワイズＭ,,13,214,1850002,,,,,,,2023-10-16,1,,,,,バリューツリー,0
1048,4020003024759,新規,0,2023-10-16,2023-10-16,合同会社ミラーマインド,,合同会社,神奈川県,横浜市西区,岡野１丁目１５－１０ＬＭＣ－Ｇビル５階,,14,103,2200073,,,,,,,2023-10-16,1,,,,,ミラーマインド,0
1053,4021003013660,新規,0,2023-10-16,2023-10-16,Ｋ．Ｎ．Ｈ．合同会社,,合同会社,神奈川県,厚木市,下川入３０１番地４コーポ入江１０１,,14,212,2430206,,,,,,,2023-10-16,1,,,,,,0
1054,4021003013677,新規,0,2023-10-16,2023-10-16,ＳＭＲＩ合同会社,,合同会社,神奈川県,大和市,南林間２丁目１１番１９号陽光ビル３階,,14,213,2420006,,,,,,,2023-10-16,1,,,,,エスエムアールアイ,0
1055,4021005012909,新規,0,2023-10-16,2023-10-16,一般社団法人シニアサポートかながわ,,その他の設立登記法人,神奈川県,厚木市,寿町２丁目１番１８号１階,,14,212,2430003,,,,,,,2023-10-16,1,,,,,シニアサポートカナガワ,0
1067,4030001156611,新規,0,2023-10-16,2023-10-16,株式会社パルクールランド,,株式会社,埼玉県,さいたま市見沼区,大字南中野６７５番地１ローテンブルク３０１号室,,11,104,3370042,,,,,,,2023-10-16,1,,,,,パルクールランド,0
1068,4030001156660,新規,0,2023-10-16,2023-10-16,アイフィールド株式会社,,株式会社,埼玉県,狭山市,大字水野１２１０番地２,,11,215,3501317,,,,,,,2023-10-16,1,,,,,アイフィールド,0
1069,4030001156685,新規,0,2023-10-16,2023-10-16,株式会社ニューワンハンドレッド,,株式会社,埼玉県,川口市,坂下町２丁目３番７号－３Ｆ,,11,203,3340003,,,,,,,2023-10-16,1,,,,,ニューワンハンドレッド,0
1082,4040001130350,新規,0,2023-10-16,2023-10-16,株式会社ルーム,,株式会社,千葉県,船橋市,本町７丁目２４番１号,,12,204,2730005,,,,,,,2023-10-16,1,,,,,ルーム,0
1083,4040001130466,新規,0,2023-10-16,2023-10-16,株式会社ワイズ,,株式会社,千葉県,船橋市,松が丘４丁目７番４－１号,,12,204,2740064,,,,,,,2023-10-16,1,,,,,ワイズ,0
1084,4040001130499,新規,0,2023-10-16,2023-10-16,株式会社ＶＩＶＡＮＴ,,株式会社,千葉県,野田市,山崎２６３７番地１東和リバーサイド野田１１１号室,,12,208,2780022,,,,,,,2023-10-16,1,,,,,ヴィヴァン,0
1085,4040001130508,新規,0,2023-10-16,2023-10-16,株式会社クークッカ,,株式会社,千葉県,千葉市中央区,栄町３０番４号,,12,101,2600016,,,,,,,2023-10-16,1,,,,,クークッカ,0
1086,4040001130516,新規,0,2023-10-16,2023-10-16,株式会社ウインドブローイング,,株式会社,千葉県,佐倉市,王子台５丁目２３番地１７,,12,212,2850837,,,,,,,2023-10-16,1,,,,,ウインドブローイング,0
1091,4040003023536,新規,0,2023-10-16,2023-10-16,ｓｈｏｉｓｍ合同会社,,合同会社,千葉県,柏市,篠籠田１３７２番地の４０,,12,217,2770862,,,,,,,2023-10-16,1,,,,,ショイズム,0
1092,4040003023544,新規,0,2023-10-16,2023-10-16,ａｉｓｌｉｎｇ合同会社,,合同会社,千葉県,市川市,国分２丁目１番２２号,,12,203,2720834,,,,,,,2023-10-16,1,,,,,アシュリン,0
1099,4060001036439,新規,0,2023-10-16,2023-10-16,株式会社Ｍｉｃｏｌｏｕｓ,,株式会社,栃木県,下都賀郡野木町,大字丸林３７５－６,,09,364,3290111,,,,,,,2023-10-16,1,,,,,ミコラス,0
1100,4060005010142,新規,0,2023-10-16,2023-10-16,特定非営利活動法人フードバンクあしかが,,その他の設立登記法人,栃木県,足利市,有楽町８３５番地,,09,202,3260801,,,,,,,2023-10-16,1,,,,,フードバンクアシカガ,0
1103,4080101024275,新規,0,2023-10-16,2023-10-16,株式会社ロードメンテック,,株式会社,静岡県,富士市,永田北町１１－１７,,22,210,4170058,,,,,,,2023-10-16,1,,,,,ロードメンテック,0
1107,4090001018376,新規,0,2023-10-16,2023-10-16,株式会社ＫＥＴＭＹ,,株式会社,山梨県,甲斐市,西八幡１５２２番地１６,,19,210,4000117,,,,,,,2023-10-16,1,,,,,ケトミイ,0
1110,4100003007227,新規,0,2023-10-16,2023-10-16,Ｉｎｖｉｓｉｂｌｅ　Ｐｅｎ合同会社,,合同会社,長野県,下高井郡山ノ内町,大字平穏１４５７番地１,,20,561,3810401,,,,,,,2023-10-16,1,,,,,インビジブルペン,0
1126,4120001258687,新規,0,2023-10-16,2023-10-16,株式会社ＷＡＮＴＥＤ,,株式会社,大阪府,大阪市西区,江戸堀１丁目４番２７号日宝江戸堀ビル３０２号,,27,106,5500002,,,,,,,2023-10-16,1,,,,,ウオンテッド,0
1127,4120001258737,新規,0,2023-10-16,2023-10-16,新上製薬株式会社,,株式会社,大阪府,大阪市生野区,新今里４丁目５番１２,,27,116,5440001,,,,,,,2023-10-16,1,,,,,シンジョウセイヤク,0
1135,4120101068375,新規,0,2023-10-16,2023-10-16,桜不動産株式会社,,株式会社,大阪府,大阪狭山市,狭山１丁目８０８番地５,,27,231,5890005,,,,,,,2023-10-16,1,,,,,サクラフドウサン,0
1140,4130001075421,新規,0,2023-10-16,2023-10-16,株式会社竜神,,株式会社,京都府,木津川市,相楽台１丁目４－２ローレルスクエア高の原プレミスト３２４,,26,214,6190223,,,,,,,2023-10-16,1,,,,,リュウジン,0
1148,4140001131966,新規,0,2023-10-16,2023-10-16,株式会社ブリック,,株式会社,兵庫県,神戸市兵庫区,大同町２丁目５番８号,,28,105,6520062,,,,,,,2023-10-16,1,,,,,ブリック,0
1149,4140001131974,新規,0,2023-10-16,2023-10-16,株式会社大暉,,株式会社,兵庫県,神戸市西区,伊川谷町有瀬９１８番地の１０,,28,111,6512113,,,,,,,2023-10-16,1,,,,,ダイキ,0
1150,4140001131982,新規,0,2023-10-16,2023-10-16,シミズ美装株式会社,,株式会社,兵庫県,神戸市東灘区,本山中町２丁目５番２９号,,28,101,6580016,,,,,,,2023-10-16,1,,,,,シミズビソウ,0
1155,4160001025423,新規,0,2023-10-16,2023-10-16,株式会社真重機,,株式会社,滋賀県,守山市,播磨田町１４８２番地１,,25,207,5240012,,,,,,,2023-10-16,1,,,,,マコトジュウキ,0
1169,4180001158411,新規,0,2023-10-16,2023-10-16,株式会社フタバ,,株式会社,愛知県,あま市,七宝町遠島新開４５番地１,,23,237,4970002,,,,,,,2023-10-16,1,,,,,フタバ,0
1170,4180001158428,新規,0,2023-10-16,2023-10-16,株式会社リテオ,,株式会社,愛知県,名古屋市緑区,滝ノ水４丁目３１０９番地の７,,23,114,4580021,,,,,,,2023-10-16,1,,,,,リテオ,0
1171,4180001158460,新規,0,2023-10-16,2023-10-16,株式会社ＯＳＮプロパティ,,株式会社,愛知県,名古屋市中村区,新富町２丁目１番２０号,,23,105,4530031,,,,,,,2023-10-16,1,,,,,オーエスエヌプロパティ,0
1172,4180001158477,新規,0,2023-10-16,2023-10-16,株式会社潤,,株式会社,愛知県,尾張旭市,城前町４丁目１０番地１８,,23,226,4880867,,,,,,,2023-10-16,1,,,,,ジュン,0
1173,4180001158485,新規,0,2023-10-16,2023-10-16,柴田ブッチャーテクノロジーズ株式会社,,株式会社,愛知県,名古屋市中区,大須１丁目２１番４９号,,23,106,4600011,,,,,,,2023-10-16,1,,,,,シバタブッチャーテクノロジーズ,0
1178,4180003025849,新規,0,2023-10-16,2023-10-16,サンヨ合同会社,,合同会社,愛知県,一宮市,浅野字南之川７番地１,,23,203,4910871,,,,,,,2023-10-16,1,,,,,サンヨ,0
1179,4180003025857,新規,0,2023-10-16,2023-10-16,合同会社ｔｏｒａｎｏｋｏｋｉｄｓ,,合同会社,愛知県,名古屋市昭和区,山脇町１丁目３番地サンマンションドゥーシェ山脇４０２号,,23,107,4660063,,,,,,,2023-10-16,1,,,,,トラノコキッズ,0
1181,4180305009525,新規,0,2023-10-16,2023-10-16,一般社団法人アライブ,,その他の設立登記法人,愛知県,豊川市,大崎町下金居場１９２番地,,23,207,4420007,,,,,,,2023-10-16,1,,,,,アライブ,0
1183,4190001030809,新規,0,2023-10-16,2023-10-16,リサーチアソシエイト株式会社,,株式会社,三重県,津市,一身田中野４２８番地３ウエストヴィレッジ２０１号,,24,201,5140112,,,,,,,2023-10-16,1,,,,,リサーチアソシエイト,0
1187,4200001041820,新規,0,2023-10-16,2023-10-16,愛来株式会社,,株式会社,岐阜県,大垣市,浅草１丁目３３４番地１コーポ向日葵ＩＩ１０３,00132259,21,202,5030947,,,,,,,2023-10-16,1,,,,,アイクル,0
1191,4210001019502,新規,0,2023-10-16,2023-10-16,今立酒造株式会社,,株式会社,福井県,福井市,西方２丁目２番１３号,,18,201,9100855,,,,,,,2023-10-16,1,,,,,イマダテシュゾウ,0
1204,4250001020340,新規,0,2023-10-16,2023-10-16,ＫＩＺＵＫＩ　ｐｌａｎｎｉｎｇ株式会社,,株式会社,山口県,山口市,宮野下１９０１番地,,35,203,7530011,,,,,,,2023-10-16,1,,,,,キズキプランニング,0
1207,4260001038407,新規,0,2023-10-16,2023-10-16,株式会社ビズフォーム,,株式会社,岡山県,岡山市北区,幸町１０番４３号６０７号,,33,101,7000903,,,,,,,2023-10-16,1,,,,,ビズフォーム,0
1210,4290001103380,新規,0,2023-10-16,2023-10-16,株式会社アマランス,,株式会社,福岡県,福岡市東区,筥松３丁目２０番２８－１１０号,,40,131,8120061,,,,,,,2023-10-16,1,,,,,アマランス,0
1222,4310001018659,新規,0,2023-10-16,2023-10-16,株式会社ＮＡＴｉＯＮ．長崎,,株式会社,長崎県,長崎市,元船町９番１８号長崎ＢｉｚＰＯＲＴ２Ｆ,,42,201,8500035,,,,,,,2023-10-16,1,,,,,ネイションナガサキ,0
1224,4320001020077,新規,0,2023-10-16,2023-10-16,株式会社Ｋ・Ｔ,,株式会社,大分県,大分市,大字森５３４番地の９,,44,201,8700128,,,,,,,2023-10-16,1,,,,,ケイティー,0
1227,4330001031362,新規,0,2023-10-16,2023-10-16,株式会社Ｒ,,株式会社,熊本県,菊池郡菊陽町,大字津久礼１９８２番地２３,,43,404,8691101,,,,,,,2023-10-16,1,,,,,アール,0
1235,4360003013380,新規,0,2023-10-16,2023-10-16,合同会社ラムリング,,合同会社,沖縄県,那覇市,牧志３丁目２２番７号,,47,201,9000013,,,,,,,2023-10-16,1,,,,,ラムリング,0
1238,4370001050524,新規,0,2023-10-16,2023-10-16,令和ライフ株式会社,,株式会社,宮城県,仙台市青葉区,一番町２丁目５番２２号ＧＣ青葉通プラザ８Ｆ,,04,101,9800811,,,,,,,2023-10-16,1,,,,,レイワライフ,0
1241,4400001016422,新規,0,2023-10-16,2023-10-16,株式会社みらいサポートコンサルティング,,株式会社,岩手県,盛岡市,長橋町３８番１８号,,03,201,0200146,,,,,,,2023-10-16,1,,,,,ミライサポートコンサルティング,0
1242,4400001016430,新規,0,2023-10-16,2023-10-16,株式会社高田エステート,,株式会社,岩手県,紫波郡矢巾町,大字高田第１３地割５３番地,,03,322,0283601,,,,,,,2023-10-16,1,,,,,タカダエステート,0
1246,4430001090209,新規,0,2023-10-16,2023-10-16,株式会社ＩＫＭ,,株式会社,北海道,札幌市豊平区,平岸三条４丁目４－６,,01,105,0620933,,,,,,,2023-10-16,1,,,,,アイケーエム,0
1250,4460001005840,新規,0,2023-10-16,2023-10-16,摩周ＦＯＲＷＡＲＤ株式会社,,株式会社,北海道,川上郡弟子屈町,湯の島２丁目８番２７号,,01,665,0883203,,,,,,,2023-10-16,1,,,,,マシュウフォワード,0
1251,4460101007448,新規,0,2023-10-16,2023-10-16,Ｗｅｌｌｂｅ　Ｆａｒｍ株式会社,,株式会社,北海道,中川郡豊頃町,統内９７９番地,,01,645,0895301,,,,,,,2023-10-16,1,,,,,ウェルビーファーム,0
1252,4480001012257,新規,0,2023-10-16,2023-10-16,株式会社ドライブケア,,株式会社,徳島県,徳島市,津田本町５丁目２－３８号,,36,201,7708003,,,,,,,2023-10-16,1,,,,,ドライブケア,0
1256,4700150119128,新規,0,2023-10-16,2023-10-16,ＪＵＳＴ　ＭＯＳＡＩＣ　ＣＯ．，ＬＩＭＩＴＥＤ,,外国会社等,,,,,,,,ＵＮＩＴ　Ａ１，９／Ｆ　ＳＩＬＶＥＲＣＯＲＰ　ＩＮＴＬ　ＴＯＷＥＲ　７０７ー７１３　ＮＡＴＨＡＮ　ＲＤ　ＭＯＮＧＫＯＫ　ＫＬ　ＨＯＮＧＫＯＮＧ,,,,,,2023-10-16,1,,,,,ジエイセドデコラテイブマテリアルスリミテツド,0
1257,4700150119136,新規,0,2023-10-16,2023-10-16,ＨａｎｇＺｈｏｕ　ＹｉＭａｎＮｉ　ＦｕＳｈｉ　ＹｏｕＸｉａｎ　Ｇｏｎｇｓｉ,,外国会社等,,,,,,,,３１４Ｓｈｉ，２　Ｚｈｕａｎｇ，ＪｉｕＨｅ　Ｌｕ　１１　Ｈａｏ　ＪｉａｎｇＧａｎ　Ｑｕ　ＨａｎｇＺｈｏｕ　Ｚｈｅｊｉａｎｇ　３１００１９　ＣＮ,,,,,,2023-10-16,1,,,,,コウシユウイワンリフクソウユウゲンゴウシ,0
1258,4700150119573,新規,0,2023-10-16,2023-10-16,ＩＭＡＸ　Ｔｈｅａｔｅｒｓ　Ｉｎｔｅｒｎａｔｉｏｎａｌ　Ｌｉｍｉｔｅｄ,,外国会社等,,,,,,,,ＴＨＩＲＤ　ＦＬＯＯＲ　Ｄ’ＯＬＩＥＲ　ＣＨＡＭＢＥＲＳ　Ｄ’ＯＬＩＥＲ　ＳＴ．ＤＵＢＬＩＮ　２　ＤＵＢＬＩＮ　２　ＩＲＥＬＡＮＤ,,,,,,2023-10-16,1,,,,,アイマツクスシアターズインターナシヨナルリミテツド,0
1259,4700150121174,新規,0,2023-10-16,2023-10-10,世界省エネルギー等ビジネス推進協議会,,その他,東京都,港区,芝浦２丁目１１－５五十嵐ビルディング５Ｆ,,13,103,1080023,,,,,,,2023-10-10,1,,,,,セカイシヨウエネルギートウビジネススイシンキヨウギカイ,0
1268,5010001239193,新規,0,2023-10-16,2023-10-16,株式会社ｈａｎａｙａｋａ,,株式会社,東京都,中央区,日本橋室町１丁目１３番１号ＤＫノア４階,,13,102,1030022,,,,,,,2023-10-16,1,,,,,ハナヤカ,0
1269,5010001239235,新規,0,2023-10-16,2023-10-16,株式会社Ｓｈｉｒｏ,,株式会社,東京都,中央区,築地４丁目４番１５－６０１号東銀座ロイアルハイツ,,13,102,1040045,,,,,,,2023-10-16,1,,,,,シロ,0
1285,5010401177704,新規,0,2023-10-16,2023-10-16,株式会社Ｔｏｍｏｉｋｉ　Ｊａｐａｎ,,株式会社,東京都,港区,三田４丁目１８番１４－１０２号,,13,103,1080073,,,,,,,2023-10-16,1,,,,,トモイキジャパン,0
1286,5010401177761,新規,0,2023-10-16,2023-10-16,株式会社Ｅｙｅ　Ｗｏｒｌｄ,,株式会社,東京都,港区,高輪１丁目１６番２１－２０２号,,13,103,1080074,,,,,,,2023-10-16,1,,,,,アイワールド,0
1287,5010401177778,新規,0,2023-10-16,2023-10-16,株式会社ＡＣＵＴＡ,,株式会社,東京都,港区,六本木７丁目１２番２号Ｒ７ビルディング,,13,103,1060032,,,,,,,2023-10-16,1,,,,,アクータ,0
1288,5010401177844,新規,0,2023-10-16,2023-10-16,株式会社コンサイス・レポーティング,,株式会社,東京都,港区,赤坂７丁目１番１号,,13,103,1070052,,,,,,,2023-10-16,1,,,,,コンサイスレポーティング,0
1293,5010501051180,新規,0,2023-10-16,2023-10-16,みどり不動産株式会社,,株式会社,東京都,台東区,東浅草２丁目２番３号,,13,106,1110025,,,,,,,2023-10-16,1,,,,,ミドリフドウサン,0
1294,5010501051197,新規,0,2023-10-16,2023-10-16,株式会社らん,,株式会社,東京都,台東区,根岸５丁目１８番１４号１０１,,13,106,1100003,,,,,,,2023-10-16,1,,,,,ラン,0
1299,5010805003068,新規,0,2023-10-16,2023-10-16,一般社団法人こどもスポーツ教育振興会,,その他の設立登記法人,東京都,大田区,北千束２丁目２０番７号ＭＡＣ千束コート４階４０７号室,,13,111,1450062,,,,,,,2023-10-16,1,,,,,コドモスポーツキョウイクシンコウカイ,0
1302,5010901053990,新規,0,2023-10-16,2023-10-16,株式会社エスラボ,,株式会社,東京都,世田谷区,深沢８丁目１０番１９号,,13,112,1580081,,,,,,,2023-10-16,1,,,,,エスラボ,0
1312,5011001157633,新規,0,2023-10-16,2023-10-16,株式会社ＴＲＫ,,株式会社,東京都,渋谷区,円山町５番１３号,,13,113,1500044,,,,,,,2023-10-16,1,,,,,ティーアールケー,0
1314,5011003017629,新規,0,2023-10-16,2023-10-16,合同会社ｅｓｅｓｙ’ｓ,,合同会社,東京都,渋谷区,道玄坂１丁目１０番８号渋谷道玄坂東急ビル２Ｆ－Ｃ,,13,113,1500043,,,,,,,2023-10-16,1,,,,,エセシズ,0
1326,5011601027178,新規,0,2023-10-16,2023-10-16,煌星株式会社,,株式会社,東京都,練馬区,関町東２丁目４番１３号ベルハイム武蔵関１０３号室,,13,120,1770052,,,,,,,2023-10-16,1,,,,,キラボシ,0
1327,5011603004092,新規,0,2023-10-16,2023-10-16,ＫＹＯＵＤＡＩ　ＬＡＮＫＡ　ＩＮＴＥＲＮＡＴＩＯＮＡＬ合同会社,,合同会社,東京都,練馬区,富士見台４丁目２４番２１号,,13,120,1770034,,,,,,,2023-10-16,1,,,,,キョウダイランカインターナショナル,0
1331,5011801043157,新規,0,2023-10-16,2023-10-16,伯龍株式会社,,株式会社,東京都,葛飾区,新小岩３丁目２９－７ＫＡＫＵＲＥ・ＯＦＦＩＣＥ新小岩３０１,,13,122,1240024,,,,,,,2023-10-16,1,,,,,ハクリュウ,0
1332,5011801043181,新規,0,2023-10-16,2023-10-16,株式会社絆コンサルティング,,株式会社,東京都,足立区,綾瀬３丁目１９番１６号松代ビル２０２,,13,121,1200005,,,,,,,2023-10-16,1,,,,,キズナコンサルティング,0
1334,5012303001891,新規,0,2023-10-16,2023-10-16,エバリンサチ合同会社,,合同会社,東京都,町田市,玉川学園２丁目５番２４号,,13,209,1940041,,,,,,,2023-10-16,1,,,,,エバリンサチ,0
1338,5012703002829,新規,0,2023-10-16,2023-10-16,合同会社豪コネクト,,合同会社,東京都,東村山市,青葉町２丁目３１番地３６号,,13,213,1890002,,,,,,,2023-10-16,1,,,,,ゴウコネクト,0
1339,5012801022687,新規,0,2023-10-16,2023-10-16,株式会社ＳｅｅＮｅｅ．,,株式会社,東京都,国分寺市,本町２丁目２番１０号,,13,214,1850012,,,,,,,2023-10-16,1,,,,,シーニー,0
1342,5013301051474,新規,0,2023-10-16,2023-10-16,株式会社日本国際医療支援センター,,株式会社,東京都,豊島区,西池袋５丁目５－２１ザ・タワーグランディア１９０７号室,,13,116,1710021,,,,,,,2023-10-16,1,,,,,ニホンコクサイイリョウシエンセンター,0
1345,5020001153922,新規,0,2023-10-16,2023-10-16,株式会社グローヴ,,株式会社,神奈川県,横浜市鶴見区,栄町通４丁目４９番地１１,,14,101,2300038,,,,,,,2023-10-16,1,,,,,グローヴ,0
1346,5020001153947,新規,0,2023-10-16,2023-10-16,株式会社Ｆｒｅｉｈｅｉｔ,,株式会社,神奈川県,横浜市港南区,港南２丁目１５－１０－４２４号室,,14,111,2330003,,,,,,,2023-10-16,1,,,,,フライハイト,0
1350,5020003024758,新規,0,2023-10-16,2023-10-16,ｂａｌｌｐｅｎｓ　ａｎｄ　ｅｔｃ合同会社,,合同会社,神奈川県,横浜市神奈川区,西神奈川１丁目７番地８ことぶきビル４－Ａ号室,,14,102,2210822,,,,,,,2023-10-16,1,,,,,ボールペンズアンドエトセトラ,0
1354,5021003013668,新規,0,2023-10-16,2023-10-16,ＫＴＳ合同会社,,合同会社,神奈川県,藤沢市,南藤沢７番２～４０８号,,14,205,2510055,,,,,,,2023-10-16,1,,,,,ケーティーエス,0
1363,5030001156593,新規,0,2023-10-16,2023-10-16,株式会社ｉｓｈｉｄａ,,株式会社,埼玉県,越谷市,大字増森１３１８番地２,,11,222,3430012,,,,,,,2023-10-16,1,,,,,イシダ,0
1371,5030005021406,新規,0,2023-10-16,2023-10-16,一般社団法人ななふく,,その他の設立登記法人,埼玉県,春日部市,小渕９９５番地１３,,11,214,3440007,,,,,,,2023-10-16,1,,,,,ナナフク,0
1378,5040001130465,新規,0,2023-10-16,2023-10-16,株式会社伸成,,株式会社,千葉県,船橋市,旭町４丁目１５番１３号,,12,204,2730041,,,,,,,2023-10-16,1,,,,,シンセイ,0
1379,5040001130473,新規,0,2023-10-16,2023-10-16,株式会社加藤企画,,株式会社,千葉県,鎌ケ谷市,中佐津間２丁目４番５号,,12,224,2730135,,,,,,,2023-10-16,1,,,,,カトウキカク,0
1386,5040003023543,新規,0,2023-10-16,2023-10-16,ＺＥＥ　ＪＡＰＡＮ合同会社,,合同会社,千葉県,大網白里市,四天木乙２３８１番地セレナ大網２００,,12,239,2993203,,,,,,,2023-10-16,1,,,,,ジージャパン,0
1389,5060001036438,新規,0,2023-10-16,2023-10-16,株式会社ＮＹＳ,,株式会社,栃木県,小山市,駅南町６丁目１９番１７号シェモアオヤマ２０１号室,,09,208,3230822,,,,,,,2023-10-16,1,,,,,エヌワイエス,0
1395,5070001040959,新規,0,2023-10-16,2023-10-16,株式会社マルベリー,,株式会社,群馬県,桐生市,広沢町３丁目４２０１番地７,,10,203,3760013,,,,,,,2023-10-16,1,,,,,マルベリー,0
1396,5070001040967,新規,0,2023-10-16,2023-10-16,株式会社永井工務店,,株式会社,群馬県,前橋市,川原町１丁目１６番地７,,10,201,3710046,,,,,,,2023-10-16,1,,,,,ナガイコウムテン,0
1397,5070003005126,新規,0,2023-10-16,2023-10-16,合同会社ワイカーズ,,合同会社,群馬県,高崎市,上佐野町１６４番地５,,10,202,3700857,,,,,,,2023-10-16,1,,,,,ワイカーズ,0
1400,5080003003070,新規,0,2023-10-16,2023-10-16,合同会社ブランチ,,合同会社,静岡県,島田市,阪本２２２８番地の１,,22,209,4270111,,,,,,,2023-10-16,1,,,,,ブランチ,0
1402,5080101024274,新規,0,2023-10-16,2023-10-16,株式会社ＮＥＥＤ　Ｕ　　ＰＬＵＳ,,株式会社,静岡県,下田市,吉佐美２６２５番地の６,,22,219,4150028,,,,,,,2023-10-16,1,,,,,ニードユープラス,0
1407,5100001036879,新規,0,2023-10-16,2023-10-16,株式会社ＫＯＢＡＫＩＮ,,株式会社,長野県,小諸市,大字御影新田２５０５番地２８,,20,208,3840808,,,,,,,2023-10-16,1,,,,,コバキン,0
1422,5120001258604,新規,0,2023-10-16,2023-10-16,楽途株式会社,,株式会社,大阪府,大阪市生野区,中川４丁目２番４号ホワイトビル４０２号室,,27,116,5440005,,,,,,,2023-10-16,1,,,,,ラクト,0
1423,5120001258810,新規,0,2023-10-16,2023-10-16,株式会社蓮屋,,株式会社,大阪府,大阪市浪速区,日本橋西１丁目４番１９号２Ｆ,,27,111,5560004,,,,,,,2023-10-16,1,,,,,ハスヤ,0
1424,5120001258835,新規,0,2023-10-16,2023-10-16,株式会社ＭＡＨＡＮＡ,,株式会社,大阪府,大阪市中央区,道頓堀１丁目１０番７号,,27,128,5420071,,,,,,,2023-10-16,1,,,,,マハナ,0
1428,5120003025069,新規,0,2023-10-16,2023-10-16,ゴマジットカフェ合同会社,,合同会社,大阪府,寝屋川市,早子町１９番６号,,27,215,5720837,,,,,,,2023-10-16,1,,,,,ゴマジットカフェ,0
1429,5120005023946,新規,0,2023-10-16,2023-10-16,一般社団法人ひとりぼっちにさせへんプロジェクト,,その他の設立登記法人,大阪府,大阪市中央区,天満橋京町１－２７ファラン天満橋５階５３号室,,27,128,5400032,,,,,,,2023-10-16,1,,,,,ヒトリボッチニサセヘンプロジェクト,0
1438,5120901048187,新規,0,2023-10-16,2023-10-16,株式会社エアサプライ,,株式会社,大阪府,豊中市,本町３丁目１番３８－２０２,,27,203,5600021,,,,,,,2023-10-16,1,,,,,エアサプライ,0
1444,5130001075404,新規,0,2023-10-16,2023-10-16,株式会社ＮＲ,,株式会社,京都府,城陽市,寺田宮ノ平３１番地の９,,26,207,6100121,,,,,,,2023-10-16,1,,,,,エヌアール,0
1445,5130001075412,新規,0,2023-10-16,2023-10-16,株式会社フリッカ,,株式会社,京都府,京都市右京区,常盤西町１８,,26,108,6168223,,,,,,,2023-10-16,1,,,,,フリッカ,0
1446,5130003009038,新規,0,2023-10-16,2023-10-16,合同会社トヨダ,,合同会社,京都府,京都市伏見区,中島外山町１１１番地,,26,109,6128455,,,,,,,2023-10-16,1,,,,,トヨダ,0
1461,5140003019671,新規,0,2023-10-16,2023-10-16,合同会社ＴＡＫＥ,,合同会社,兵庫県,伊丹市,西台１丁目１番１号伊丹阪急ビル５階,,28,207,6640858,,,,,,,2023-10-16,1,,,,,タケ,0
1464,5170001017831,新規,0,2023-10-16,2023-10-16,株式会社リアルエステート和歌山,,株式会社,和歌山県,和歌山市,栄谷２２５番地３ノーブル栄谷１０２号室,,30,201,6408441,,,,,,,2023-10-16,1,,,,,リアルエステートワカヤマ,0
1483,5180001158344,新規,0,2023-10-16,2023-10-16,聖大国際科技株式会社,,株式会社,愛知県,名古屋市中村区,名駅１丁目１番１号ＪＰタワー名古屋２１階,,23,105,4500002,,,,,,,2023-10-16,1,,,,,セイダイコクサイカギ,0
1484,5180001158402,新規,0,2023-10-16,2023-10-16,株式会社クォンタムシステム,,株式会社,愛知県,名古屋市西区,名駅２丁目３４番１７号セントラル名古屋１１０１号,,23,104,4510045,,,,,,,2023-10-16,1,,,,,クォンタムシステム,0
1485,5180001158419,新規,0,2023-10-16,2023-10-16,株式会社ＦＵＭＩＫＯＩ,,株式会社,愛知県,名古屋市中川区,戸田ゆたか１丁目３００４番地の６,,23,110,4540966,,,,,,,2023-10-16,1,,,,,フミコイ,0
1486,5180001158435,新規,0,2023-10-16,2023-10-16,ＴＫＳホールディングス株式会社,,株式会社,愛知県,北名古屋市,中之郷池田４３番地,,23,234,4810045,,,,,,,2023-10-16,1,,,,,ティーケーエスホールディングス,0
1487,5180001158468,新規,0,2023-10-16,2023-10-16,株式会社ＪＩＲＯ　ＣＯＭＰＡＮＹ,,株式会社,愛知県,名古屋市天白区,植田山５丁目１３０７番地,,23,116,4680001,,,,,,,2023-10-16,1,,,,,ジローカンパニー,0
1488,5180001158476,新規,0,2023-10-16,2023-10-16,株式会社ＤｒｅａｍｅＲ,,株式会社,愛知県,名古屋市中区,栄５丁目２１番２４号イエローハウス栄１Ｆ,,23,106,4600008,,,,,,,2023-10-16,1,,,,,ドリーマー,0
1489,5180001158484,新規,0,2023-10-16,2023-10-16,中日偉偉株式会社,,株式会社,愛知県,名古屋市中区,栄１丁目２２－２ライオンズ名古屋ビル５１０号,,23,106,4600008,,,,,,,2023-10-16,1,,,,,チュウニチイイ,0
1490,5180001158492,新規,0,2023-10-16,2023-10-16,株式会社愛知水道サービス,,株式会社,愛知県,春日井市,篠木町６丁目５番地５,,23,206,4860851,,,,,,,2023-10-16,1,,,,,アイチスイドウサービス,0
1502,5180301037917,新規,0,2023-10-16,2023-10-16,株式会社メディシュナ,,株式会社,愛知県,豊田市,十塚町３丁目５,,23,211,4710869,,,,,,,2023-10-16,1,,,,,メディシュナ,0
1505,5190001030808,新規,0,2023-10-16,2023-10-16,まるふくしあわせ堂株式会社,,株式会社,三重県,いなべ市,大安町大井田１１８１番地１,,24,214,5110274,,,,,,,2023-10-16,1,,,,,マルフクシアワセドウ,0
1514,5230001020044,新規,0,2023-10-16,2023-10-16,株式会社ホームエージェント,,株式会社,富山県,高岡市,京田８３番地ＦＡＩＶＩＳビル２Ｆ,,16,202,9330874,,,,,,,2023-10-16,1,,,,,ホームエージェント,0
1515,5240001062267,新規,0,2023-10-16,2023-10-16,株式会社Ｍａｓｔｅｒｏｆｌｉｆｅ,,株式会社,広島県,呉市,本通５丁目１１番１７号,,34,202,7370045,,,,,,,2023-10-16,1,,,,,マスターオブライフ,0
1516,5250001020348,新規,0,2023-10-16,2023-10-16,株式会社一の宮,,株式会社,山口県,下関市,楠乃３丁目１番６号,,35,201,7510804,,,,,,,2023-10-16,1,,,,,イチノミヤ,0
1523,5260001038389,新規,0,2023-10-16,2023-10-16,株式会社ＬＥＧＡＬ,,株式会社,岡山県,岡山市南区,浜野２丁目２番１５号２０１,,33,104,7000845,,,,,,,2023-10-16,1,,,,,リーガル,0
1528,5290001103330,新規,0,2023-10-16,2023-10-16,Ｂｌｕｅ　Ｓｋｙ　Ｆａｒｍ株式会社,,株式会社,福岡県,久留米市,荒木町荒木向田６３９４番地,,40,203,8300063,,,,,,,2023-10-16,1,,,,,ブルースカイファーム,0
1529,5290001103396,新規,0,2023-10-16,2023-10-16,株式会社ｙｕｍｅｒｉｃｏ,,株式会社,福岡県,福岡市城南区,堤２丁目４番１１－２０３号,,40,136,8140151,,,,,,,2023-10-16,1,,,,,ユメリコ,0
1533,5290003014484,新規,0,2023-10-16,2023-10-16,合同会社ホコロビ,,合同会社,福岡県,福岡市中央区,大宮１丁目４－１６アビターレ薬院南１１０２,,40,133,8100013,,,,,,,2023-10-16,1,,,,,ホコロビ,0
1538,5300003002033,新規,0,2023-10-16,2023-10-16,ミルキーウェイ・フィルム合同会社,,合同会社,佐賀県,鳥栖市,神辺町１４４０番地,,41,203,8410004,,,,,,,2023-10-16,1,,,,,ミルキーウェイフィルム,0
1540,5320001020076,新規,0,2023-10-16,2023-10-16,株式会社哲吏,,株式会社,大分県,大分市,高崎４丁目３番８号,,44,201,8700872,,,,,,,2023-10-16,1,,,,,サトシ,0
1545,5340001025981,新規,0,2023-10-16,2023-10-16,株式会社濱畑鐵工所,00132269,株式会社,鹿児島県,出水市,高尾野町下水流２２６７番地９,,46,208,8990405,,,,,,,2023-10-16,1,,,,,ハマバタテッコウショ,0
1550,5370001050523,新規,0,2023-10-16,2023-10-16,株式会社東北オイルサービス,,株式会社,宮城県,仙台市太白区,茂庭字人来田西１３５番地の６,,04,104,9820251,,,,,,,2023-10-16,1,,,,,トウホクオイルサービス,0
1553,5390005009035,新規,0,2023-10-16,2023-10-16,特定非営利活動法人天童地区学童保育協会,,その他の設立登記法人,山形県,天童市,老野森１丁目８番１６号,,06,210,9940013,,,,,,,2023-10-16,1,,,,,テンドウチクガクドウホイクキョウカイ,0
1559,5420001018449,新規,0,2023-10-16,2023-10-16,株式会社オリアス,,株式会社,青森県,青森市,幸畑５丁目２番１号,,02,201,0300943,,,,,,,2023-10-16,1,,,,,オリアス,0
1561,5420003002814,新規,0,2023-10-16,2023-10-16,合同会社ＩＲＯＨＡ,,合同会社,青森県,むつ市,大平町２０番１２号,,02,208,0350083,,,,,,,2023-10-16,1,,,,,イロハ,0
1563,5430001090166,新規,0,2023-10-16,2023-10-16,株式会社尚,,株式会社,北海道,北広島市,大曲光４丁目１番地１９,,01,234,0611277,,,,,,,2023-10-16,1,,,,,ナオ,0
1564,5430001090182,新規,0,2023-10-16,2023-10-16,三宝設計株式会社,,株式会社,北海道,札幌市西区,西野四条４丁目１５番１５号,,01,107,0630034,,,,,,,2023-10-16,1,,,,,サンポウセッケイ,0
1565,5430001090208,新規,0,2023-10-16,2023-10-16,株式会社祐進興業,,株式会社,北海道,札幌市白石区,米里一条４丁目７番１２－１０４号,,01,104,0030871,,,,,,,2023-10-16,1,,,,,ユウシンコウギョウ,0
1568,5430003015526,新規,0,2023-10-16,2023-10-16,合同会社キクガワデザインラボ,,合同会社,北海道,札幌市北区,北十条西４丁目１番地２３赤いマンション北大前９０５号,,01,102,0010010,,,,,,,2023-10-16,1,,,,,キクガワデザインラボ,0
1569,5460103001563,新規,0,2023-10-16,2023-10-16,合同会社黒王,,合同会社,北海道,中川郡池田町,字東台４４４番地,,01,644,0830046,,,,,,,2023-10-16,1,,,,,コクオウ,0
1571,5490001010614,新規,0,2023-10-16,2023-10-16,株式会社ＫＯＣＨＩ　ｎｏｉｅ,,株式会社,高知県,高知市,愛宕町２丁目１９番１０号ボアソルテ３０１,,39,201,7800051,,,,,,,2023-10-16,1,,,,,コウチノイエ,0
1578,5700150028831,新規,0,2023-10-16,2015-10-09,三木市ゴルフ協会,,その他,兵庫県,三木市,上の丸町１０番３０号,,28,215,6730432,,,,,,,2015-10-09,1,,,,,ミキシゴルフキヨウカイ,0
1579,5700150119127,新規,0,2023-10-16,2023-10-16,Ｓｈａｏｘｉｎｇ　ｙｕｅｃｈｅｎｇｙｉｂｅｉ　ｄｉａｎｚｉｓｈａｎｇｗｕ　ｙｏｕｘｉａｎｇｏｎｇｓｉ,,外国会社等,,,,,,,,Ｒｏｏｍ　１２０１，Ｎｏ．３　ｌｏｎｇｍａｃｈｕｎｔｉａｎ　ｍａｎｓｉｏｎ　Ｙｕｅｃｈｅｎｇ　Ｄｉｓｔｒｉｃｔ　Ｓｈａｏｘｉｎｇ　Ｚｈｅｊｉａｎｇ　３１２０００　ＣＮ,,,,,,2023-10-16,1,,,,,シヨウコウシエツジヨウノルテレコミユニケーシヨンズコウギヨウガイシヤ,0
1590,6010001239192,新規,0,2023-10-16,2023-10-16,株式会社ＧｉＲＡ,,株式会社,東京都,千代田区,六番町９番地,,13,101,1020085,,,,,,,2023-10-16,1,,,,,ジーラ,0
1596,6010101015849,新規,0,2023-10-16,2023-10-16,株式会社スケートパークスジャパン,,株式会社,東京都,八王子市,打越町３３１番地２川幡ビル１０２,,13,201,1920911,,,,,,,2023-10-16,1,,,,,スケートパークスジャパンスケートパークスジャパン,0
1603,6010401177760,新規,0,2023-10-16,2023-10-16,フロンティブインベストメント株式会社,,株式会社,東京都,港区,南青山１丁目２０番２号乃木坂ビジネスコート３０７号,,13,103,1070062,,,,,,,2023-10-16,1,,,,,フロンティブインベストメント,0
1604,6010401177810,新規,0,2023-10-16,2023-10-16,株式会社ＧＯＬＤ　ＣＡＲＥＥＲ,,株式会社,東京都,港区,北青山１丁目３番１号３０１,,13,103,1070061,,,,,,,2023-10-16,1,,,,,ゴールドキャリア,0
1605,6010401177835,新規,0,2023-10-16,2023-10-16,Ｔｒｕｓｖａｌ　Ｔｅｃｈｎｏｌｏｇｙ　Ｊａｐａｎ株式会社,,株式会社,東京都,港区,芝５丁目３０番１－５０５号,,13,103,1080014,,,,,,,2023-10-16,1,,,,,トラスバルテクノロジージャパン,0
1608,6010601063934,新規,0,2023-10-16,2023-10-16,株式会社アップス,,株式会社,東京都,江東区,深川１丁目１番２号協和ビル２階１４号室,,13,108,1350033,,,,,,,2023-10-16,1,,,,,アップス,0
1609,6010601063950,新規,0,2023-10-16,2023-10-16,株式会社エニブラ,,株式会社,東京都,墨田区,業平４丁目６番１３号,,13,107,1300002,,,,,,,2023-10-16,1,,,,,エニブラ,0
1632,6011001157491,新規,0,2023-10-16,2023-10-16,Ｖｅｒｔｅｘ　Ｉｎｎｏｖａｔｉｏｎｓ株式会社,,株式会社,東京都,渋谷区,幡ヶ谷３丁目３９番１２号渋谷ウェストビル１階,,13,113,1510072,,,,,,,2023-10-16,1,,,,,バーテックスイノベーションズ,0
1633,6011001157616,新規,0,2023-10-16,2023-10-16,エクリド株式会社,,株式会社,東京都,渋谷区,神宮前６丁目２３番４号桑野ビル２階,,13,113,1500001,,,,,,,2023-10-16,1,,,,,エクリド,0
1642,6011101104740,新規,0,2023-10-16,2023-10-16,ＳＡＥＲＯＭ　ＩＮＴＥＲＮＡＴＩＯＮＡＬ株式会社,,株式会社,東京都,新宿区,高田馬場３丁目２番１４－２０５号,,13,104,1690075,,,,,,,2023-10-16,1,,,,,セロムインターナショナル,0
1646,6011201024979,新規,0,2023-10-16,2023-10-16,株式会社ＳＣＡ,,株式会社,東京都,中野区,江古田２丁目１１番１号,,13,114,1650022,,,,,,,2023-10-16,1,,,,,エスシーエー,0
1648,6011301029069,新規,0,2023-10-16,2023-10-16,株式会社ｇｎｏｐ,,株式会社,東京都,杉並区,下高井戸３丁目２１番２９号,,13,115,1680073,,,,,,,2023-10-16,1,,,,,グノップ,0
1649,6011301029085,新規,0,2023-10-16,2023-10-16,株式会社うるおいＨＯＭＥ,,株式会社,東京都,杉並区,和泉４丁目４７番２２号,,13,115,1680063,,,,,,,2023-10-16,1,,,,,ウルオイホーム,0
1651,6011503005801,新規,0,2023-10-16,2023-10-16,ＬＡＫＨＡＭＡＲＩ合同会社,,合同会社,東京都,荒川区,西日暮里１丁目６番３号,,13,118,1160013,,,,,,,2023-10-16,1,,,,,ラカマリ,0
1655,6011801043180,新規,0,2023-10-16,2023-10-16,株式会社ＡＫＡＴＳＵＫＩ,,株式会社,東京都,葛飾区,金町６丁目１２番７号金町ヴォールト１０１,,13,122,1250042,,,,,,,2023-10-16,1,,,,,アカツキ,0
1657,6011803005889,新規,0,2023-10-16,2023-10-16,合同会社スキル,,合同会社,東京都,葛飾区,堀切５丁目２９番２３号,,13,122,1240006,,,,,,,2023-10-16,1,,,,,スキル,0
1662,6012703002828,新規,0,2023-10-16,2023-10-16,合同会社オフィスＴＡＫＡＩ,,合同会社,東京都,小平市,花小金井南町１丁目３番１－Ｇ３６８号,,13,211,1870003,,,,,,,2023-10-16,1,,,,,オフィスタカイ,0
1670,6013301051440,新規,0,2023-10-16,2023-10-16,株式会社ビジコン,,株式会社,東京都,豊島区,池袋本町４丁目４５番２号クレオ池袋本町Ｃ号,,13,116,1700011,,,,,,,2023-10-16,1,,,,,ビジコン,0
1677,6020001153913,新規,0,2023-10-16,2023-10-16,株式会社ＣＩＥＬ,,株式会社,神奈川県,横浜市西区,浅間町１丁目４番３号ウィザード３０３号室,,14,103,2200072,,,,,,,2023-10-16,1,,,,,,0
1680,6020003024740,新規,0,2023-10-16,2023-10-16,合同会社ＯＰＨＩＲ,,合同会社,神奈川県,横浜市青葉区,美しが丘３丁目５８－１８,,14,117,2250002,,,,,,,2023-10-16,1,,,,,オフィル,0
1681,6020003024773,新規,0,2023-10-16,2023-10-16,ＧＲｅ合同会社,,合同会社,神奈川県,横浜市都筑区,川和台２７番１９号ヒルズハイムＢ１階,,14,118,2240056,,,,,,,2023-10-16,1,,,,,ジーアールイー,0
1684,6021001080453,新規,0,2023-10-16,2023-10-16,株式会社ハイランドグループ,,株式会社,神奈川県,鎌倉市,浄明寺６丁目５番１７号,,14,204,2480003,,,,,,,2023-10-16,1,,,,,ハイランドグループ,0
1685,6021001080461,新規,0,2023-10-16,2023-10-16,株式会社ミズテック北海道,,株式会社,神奈川県,海老名市,下今泉１丁目２０番１８号,,14,215,2430435,,,,,,,2023-10-16,1,,,,,ミズテックホッカイドウ,0
1687,6021003013667,新規,0,2023-10-16,2023-10-16,合同会社ＢＯＢ,,合同会社,神奈川県,海老名市,下今泉１丁目２５－２９,,14,215,2430435,,,,,,,2023-10-16,1,,,,,ビーオービー,0
1688,6021003013683,新規,0,2023-10-16,2023-10-16,合同会社だだ,,合同会社,神奈川県,座間市,相武台２丁目９番２７号,,14,216,2520011,,,,,,,2023-10-16,1,,,,,ダダ,0
1695,6030001156584,新規,0,2023-10-16,2023-10-16,ＭＩＺＵＥＩ株式会社,,株式会社,埼玉県,越谷市,東越谷１０丁目１０７番地２６,,11,222,3430023,,,,,,,2023-10-16,1,,,,,ミズエイ,0
1696,6030001156592,新規,0,2023-10-16,2023-10-16,リンクマネジメント株式会社,,株式会社,埼玉県,さいたま市見沼区,春岡３丁目２７番地１８,,11,104,3370008,,,,,,,2023-10-16,1,,,,,リンクマネジメント,0
1697,6030001156667,新規,0,2023-10-16,2023-10-16,ａｎｄ　Ｎ株式会社,,株式会社,埼玉県,所沢市,大字山口２３９番地の１,,11,208,3591145,,,,,,,2023-10-16,1,,,,,アンドエヌ,0
1700,6030003022768,新規,0,2023-10-16,2023-10-16,合同会社アクア,,合同会社,埼玉県,草加市,稲荷６丁目１６番７号－７０１号室,,11,221,3400003,,,,,,,2023-10-16,1,,,,,アクア,0
1709,6040001130456,新規,0,2023-10-16,2023-10-16,株式会社関東外装,,株式会社,千葉県,松戸市,八ケ崎３丁目６９番地の３７コーポＴＯＫＩＡ棟１０２号室,,12,207,2700023,,,,,,,2023-10-16,1,,,,,カントウガイソウ,0
1710,6040001130464,新規,0,2023-10-16,2023-10-16,株式会社セテシアハーバー,,株式会社,千葉県,浦安市,猫実４丁目６番３７－２０５号,,12,227,2790004,,,,,,,2023-10-16,1,,,,,セテシアハーバー,0
1711,6040001130480,新規,0,2023-10-16,2023-10-16,株式会社ひばり,,株式会社,千葉県,野田市,宮崎８１番地の４エクセレントプレイスドリームマークス１１１１号,,12,208,2780005,,,,,,,2023-10-16,1,,,,,ヒバリ,0
1712,6040001130489,新規,0,2023-10-16,2023-10-16,株式会社Ｆｏｏｄ　Ｏｆｆｉｃｅ,,株式会社,千葉県,千葉市中央区,院内１丁目１８番１３号三矢四番館,,12,101,2600018,,,,,,,2023-10-16,1,,,,,フードオフィス,0
1715,6040003023542,新規,0,2023-10-16,2023-10-16,合同会社ＥａｇｌｅＶｉｅｗＤｅｓｉｇｎ,,合同会社,千葉県,浦安市,北栄２丁目９番地１５号,,12,227,2790002,,,,,,,2023-10-16,1,,,,,,0
1729,6080101024273,新規,0,2023-10-16,2023-10-16,株式会社日本生命科学研究所,,株式会社,静岡県,伊豆の国市,奈古谷１８５５番地の７３,,22,225,4102132,,,,,,,2023-10-16,1,,,,,ニホンセイメイカガクケンキュウジョ,0
1737,6100001036878,新規,0,2023-10-16,2023-10-16,株式会社ヒトタチ,,株式会社,長野県,安曇野市,穂高柏原１５６９番地６,,20,220,3998304,,,,,,,2023-10-16,1,,,,,ヒトタチ,0
1759,6120001258644,新規,0,2023-10-16,2023-10-16,株式会社Ｊ‐ＴＯＰ　ＧＬＯＢＡＬ,,株式会社,大阪府,大阪市中央区,南船場１丁目３番２７号ＮＩＬ南船場ビル２Ｄ,,27,128,5420081,,,,,,,2023-10-16,1,,,,,ジェイトップグローバル,0
1760,6120001258834,新規,0,2023-10-16,2023-10-16,株式会社ＹＤＲ,,株式会社,大阪府,大阪市阿倍野区,天王寺町北２丁目１番７号門ビル１階,,27,119,5450001,,,,,,,2023-10-16,1,,,,,ワイディーアール,0
1761,6120001258982,新規,0,2023-10-16,2023-10-16,株式会社晋硝,,株式会社,大阪府,大阪市淀川区,十八条３丁目１番２９－２０３号,,27,123,5320001,,,,,,,2023-10-16,1,,,,,シンショウ,0
1770,6120903004872,新規,0,2023-10-16,2023-10-16,合同会社堀口,,合同会社,大阪府,茨木市,橋の内２丁目７番１９－１０５号,,27,211,5670805,,,,,,,2023-10-16,1,,,,,ホリグチ,0
1776,6130001075403,新規,0,2023-10-16,2023-10-16,株式会社モーストスタジオ,,株式会社,京都府,京都市上京区,御所八幡町１１０番地,,26,102,6020023,,,,,,,2023-10-16,1,,,,,モーストスタジオ,0
1777,6130001075428,新規,0,2023-10-16,2023-10-16,株式会社ジンウテクノ,,株式会社,京都府,京都市南区,吉祥院石原開町４８番地１,,26,107,6018365,,,,,,,2023-10-16,1,,,,,ジンウテクノ,0
1779,6130003009037,新規,0,2023-10-16,2023-10-16,合同会社一,,合同会社,京都府,京都市右京区,嵯峨野芝野町２番地９,,26,108,6168322,,,,,,,2023-10-16,1,,,,,イチ,0
1784,6140001131964,新規,0,2023-10-16,2023-10-16,株式会社ビィフェロー,,株式会社,兵庫県,西宮市,神原１５番５５－３０３号,,28,204,6620021,,,,,,,2023-10-16,1,,,,,ビィフェロー,0
1785,6140001131997,新規,0,2023-10-16,2023-10-16,株式会社いっぽ,,株式会社,兵庫県,加古川市,平岡町高畑４６２番地の４９,,28,210,6750103,,,,,,,2023-10-16,1,,,,,イッポ,0
1788,6140003019654,新規,0,2023-10-16,2023-10-16,合同会社ＭＫ会計センター,,合同会社,兵庫県,洲本市,小路谷１２７８番３－２２２号,,28,205,6560023,,,,,,,2023-10-16,1,,,,,エムケイカイケイセンター,0
1801,6180001158368,新規,0,2023-10-16,2023-10-16,株式会社ＮｅｅｄｓＳｔｙｌｅ,,株式会社,愛知県,名古屋市中村区,名駅４丁目２４番５号,,23,105,4500002,,,,,,,2023-10-16,1,,,,,,0
1802,6180001158401,新規,0,2023-10-16,2023-10-16,株式会社３１０,,株式会社,愛知県,名古屋市港区,小碓３丁目２０８番地の１,,23,111,4550801,,,,,,,2023-10-16,1,,,,,サンイチゼロ,0
1803,6180001158418,新規,0,2023-10-16,2023-10-16,株式会社ＴＭＰ,,株式会社,愛知県,名古屋市港区,小碓４丁目１９８番地（宝マンション小碓第二８０６号）,,23,111,4550801,,,,,,,2023-10-16,1,,,,,ティーエムピー,0
1804,6180001158500,新規,0,2023-10-16,2023-10-16,株式会社Ｌ．Ｃ．Ｎｅｔ不動産,,株式会社,愛知県,名古屋市瑞穂区,柳ケ枝町２丁目４４番地,,23,108,4670825,,,,,,,2023-10-16,1,,,,,エルシーネットフドウサン,0
1808,6180003025830,新規,0,2023-10-16,2023-10-16,合同会社利休,,合同会社,愛知県,名古屋市瑞穂区,彌富通２丁目３５ｅｘｃｅｌｌｅｎｔ明正２０１号,,23,108,4670064,,,,,,,2023-10-16,1,,,,,リキュウ,0
1809,6180003025839,新規,0,2023-10-16,2023-10-16,合同会社ホクレア商事,,合同会社,愛知県,名古屋市中区,丸の内３丁目１５番３号ＴＣＦ丸の内ビル,,23,106,4600002,,,,,,,2023-10-16,1,,,,,ホクレアショウジ,0
1810,6180003025855,新規,0,2023-10-16,2023-10-16,ＧＴ合同会社,,合同会社,愛知県,名古屋市千種区,猪高町猪子石猪々道１４３－１レインボー千代田橋２０２号,,23,101,4640000,,,,,,,2023-10-16,1,,,,,ジーティー,0
1812,6190001030807,新規,0,2023-10-16,2023-10-16,株式会社ＨＭホールディングス,,株式会社,三重県,桑名市,大字蓮花寺４２５番地１,,24,205,5110854,,,,,,,2023-10-16,1,,,,,エイチエムホールディングス,0
1823,6240001062274,新規,0,2023-10-16,2023-10-16,株式会社エムコーポレーション,,株式会社,広島県,廿日市市,阿品４丁目９番１０号,,34,213,7380054,,,,,,,2023-10-16,1,,,,,エムコーポレーション,0
1830,6260001038405,新規,0,2023-10-16,2023-10-16,株式会社ＫＡＺＥ,,株式会社,岡山県,倉敷市,中庄３９２番地１,,33,202,7100016,,,,,,,2023-10-16,1,,,,,カゼ,0
1833,6290001103395,新規,0,2023-10-16,2023-10-16,株式会社みずほプランニング,,株式会社,福岡県,福岡市西区,福重４丁目９番２１号,,40,135,8190022,,,,,,,2023-10-16,1,,,,,ミズホプランニング,0
1834,6290001103404,新規,0,2023-10-16,2023-10-16,株式会社木村シーリング,,株式会社,福岡県,福岡市東区,美和台２丁目６５番１５号,,40,131,8110212,,,,,,,2023-10-16,1,,,,,キムラシーリング,0
1841,6290003014483,新規,0,2023-10-16,2023-10-16,合同会社ＲＵＡＮ,,合同会社,福岡県,糟屋郡粕屋町,内橋西２丁目２番２１号グレイス２１Ｃ－１０４号,,40,349,8112321,,,,,,,2023-10-16,1,,,,,ルアン,0
1851,6320001020067,新規,0,2023-10-16,2023-10-16,株式会社松商,,株式会社,大分県,別府市,大字鶴見３５７９番地１,,44,202,8740840,,,,,,,2023-10-16,1,,,,,マツショウ,0
1852,6320001020075,新規,0,2023-10-16,2023-10-16,株式会社Ｄ・Ｍ・Ｗ,,株式会社,大分県,大分市,古国府５丁目５番２４号コモドワイズ２０４,,44,201,8700844,,,,,,,2023-10-16,1,,,,,ディーエムダブリュー,0
1853,6330001031344,新規,0,2023-10-16,2023-10-16,株式会社Ｔ‐Ｌａｂｏ,,株式会社,熊本県,上益城郡嘉島町,大字井寺９６６,,43,442,8613103,,,,,,,2023-10-16,1,,,,,ティーラボ,0
1858,6350003004461,新規,0,2023-10-16,2023-10-16,合同会社巧味,,合同会社,宮崎県,宮崎市,大字小松３１５２番地４,,45,201,8802112,,,,,,,2023-10-16,1,,,,,タクミ,0
1859,6360001032686,新規,0,2023-10-16,2023-10-16,株式会社沖縄総合工事,,株式会社,沖縄県,那覇市,三原３丁目５番４０号,,47,201,9020063,,,,,,,2023-10-16,1,,,,,オキナワソウゴウコウジ,0
1862,6360003013370,新規,0,2023-10-16,2023-10-16,ＲＹＵＫＹＵ　ＢＲＥＥＺＥ合同会社,,合同会社,沖縄県,名護市,宮里１丁目２８番８号南西ビル２Ｆ,,47,209,9050011,,,,,,,2023-10-16,1,,,,,リュウキュウブリーズ,0
1863,6370001050522,新規,0,2023-10-16,2023-10-16,トヨゾウ・エステート・ラボ株式会社,,株式会社,宮城県,多賀城市,宮内１丁目６番１号,,04,209,9850844,,,,,,,2023-10-16,1,,,,,トヨゾウエステートラボ,0
1865,6400001016420,新規,0,2023-10-16,2023-10-16,株式会社県南土地開発,,株式会社,岩手県,奥州市,水沢東中通り２丁目３番１５号,,03,215,0230822,,,,,,,2023-10-16,1,,,,,ケンナントチカイハツ,0
1874,6420005007868,新規,0,2023-10-16,2023-10-16,一般社団法人ＳＷＥＥＴＹ,,その他の設立登記法人,青森県,八戸市,大字河原木字小田上４番地８,,02,203,0391161,,,,,,,2023-10-16,1,,,,,スウィーティー,0
1877,6430001090149,新規,0,2023-10-16,2023-10-16,株式会社Ｓｐａｃｅ　Ｇｒｏｕｐ,,株式会社,北海道,札幌市白石区,菊水六条２丁目９番９－１０６,,01,104,0030806,,,,,,,2023-10-16,1,,,,,スペースグループ,0
1878,6430001090181,新規,0,2023-10-16,2023-10-16,株式会社Ｐ‐Ｔ,,株式会社,北海道,石狩市,花川北四条２丁目１４１番地,,01,235,0613214,,,,,,,2023-10-16,1,,,,,ピーティー,0
1879,6430001090198,新規,0,2023-10-16,2023-10-16,株式会社ロコアート,,株式会社,北海道,札幌市白石区,南郷通１２丁目南６番２０号,,01,104,0030022,,,,,,,2023-10-16,1,,,,,ロコアート,0
1880,6430001090207,新規,0,2023-10-16,2023-10-16,株式会社笹本工業,,株式会社,北海道,札幌市南区,藤野三条１１丁目１８番１０号,,01,106,0612283,,,,,,,2023-10-16,1,,,,,ササモトコウギョウ,0
1881,6430003015517,新規,0,2023-10-16,2023-10-16,ソーシャルフロント合同会社,,合同会社,北海道,札幌市厚別区,厚別北二条４丁目１番２－１９０１,,01,108,0040072,,,,,,,2023-10-16,1,,,,,ソーシャルフロント,0
1889,6700150115447,新規,0,2023-10-16,2023-10-16,Ｇａｔｅｗａｙ　Ｅｎｇｉｎｅ　Ｌｅａｓｉｎｇ，ＬＬＣ,,外国会社等,,,,,,,,１８５０　ＮＷ　４９ｔｈ　Ｓｔｒｅｅｔ，Ｆｏｒｔ　Ｌａｕｄｅｒｄａｌｅ，Ｆｌｏｒｉｄａ　３３３０９，Ｕ．Ｓ．Ａ．,,,,,,2023-10-16,1,,,,,ゲートウエイエンジンリーシングエルエルシー,0
1890,6700150119126,新規,0,2023-10-16,2023-10-16,Ｓｈｅｎｚｈｅｎ　ｙｕａｎｚｈｏｎｇｇｕａｎｇ　Ｔｅｃｈｎｏｌｏｇｙ　Ｃｏ．，Ｌｔｄ,,外国会社等,,,,,,,,Ｒｏｏｍ　２０１，Ｎｏ．１１６，Ｌｉｇｕａｎｇ　Ｎｅｗ　Ｉｎｄｕｓｔｒｉａｌ　Ｚｏｎｅ　Ｌｉｇｕａｎｇ　Ｃｏｍｍｕｎｉｔｙ，Ｇｕａｎｌａｎ　Ｓｔｒｅｅｔ　Ｌｏｎｇｈｕａ　Ｄｉｓｔｒｉｃｔ　Ｓｈｅｎｚｈｅｎ　Ｇｕａｎｇｄｏｎｇ　５１８１１５　ＣＮ,,,,,,2023-10-16,1,,,,,シンセンエンチユウコウカギヨウユウゲンゴウシ,0
1891,6700150121057,新規,0,2023-10-16,2023-10-04,田名区民の会,,その他,沖縄県,島尻郡伊平屋村,字田名３４７７番地,,47,359,9050701,,,,,,,2023-10-04,1,,,,,ダナクミンノカイ,0
1892,6700150121222,新規,0,2023-10-16,2023-10-16,ｘｉｎｇ　ｗａｉ　ｄｉａｎ　ｚｉ　ｓｈａｎｇ　ｗｕ　ｓｈｅｎｚｈｅｎ　ｙｏｕ　ｘｉａｎ　ｇｏｎｇｓｉ,,外国会社等,,,,,,,,２４０５，Ｂｌｏｃｋ　Ｄ，Ｚｏｎｅ　３，Ｙｉｃｈｅｎｇ　Ｃｅｎｔｒａｌ　Ｇａｒｄｅｎ，Ｎｏ．３６３９　Ｌｏｎｇｈｕａ　Ａｖｅｎｕｅ，Ｊｉｎｇｘｉｎ　Ｃｏｍｍｕｎｉｔｙ，Ｌｏｎｇｈｕａ　Ｓｔｒｅｅｔ，Ｌｏｎｇｈｕａ　Ｄｉｓｔｒｉｃｔ，Ｓｈｅｎｚｈｅｎ,,,,,,2023-10-16,1,,,,,セイガイデンシショウムシンセンユウゲンコウシ,0
1900,7010001239266,新規,0,2023-10-16,2023-10-16,グローバルキャピタルマネージメント株式会社,,株式会社,東京都,千代田区,紀尾井町４番１号新紀尾井町ビル,,13,101,1020094,,,,,,,2023-10-16,1,,,,,グローバルキャピタルマネージメント,0
1901,7010001239274,新規,0,2023-10-16,2023-10-16,株式会社Ｒｅｎａｄｙ,,株式会社,東京都,中央区,日本橋兜町１７番１号日本橋ロイヤルプラザ７０６,,13,102,1030026,,,,,,,2023-10-16,1,,,,,レナディ,0
1922,7010401177875,新規,0,2023-10-16,2023-10-16,株式会社Ｗａｋｉｚａｓｈｉ,,株式会社,東京都,港区,虎ノ門３丁目７番５号,,13,103,1050001,,,,,,,2023-10-16,1,,,,,ワキザシ,0
1940,7010601063933,新規,0,2023-10-16,2023-10-16,株式会社東峰,,株式会社,東京都,江東区,塩浜２丁目１８番１０－８０７号,,13,108,1350043,,,,,,,2023-10-16,1,,,,,トウホウ,0
1941,7010601063958,新規,0,2023-10-16,2023-10-16,株式会社Ｋ　ｃｏｎｎｅｃｔ,,株式会社,東京都,墨田区,江東橋４丁目２２番１０号深谷ビル２Ｆ,,13,107,1300022,,,,,,,2023-10-16,1,,,,,ケイコネクト,0
1951,7011001157482,新規,0,2023-10-16,2023-10-16,株式会社ＦｕｎＺ,,株式会社,東京都,渋谷区,道玄坂１丁目１０番８号渋谷道玄坂東急ビル２Ｆ－Ｃ,,13,113,1500043,,,,,,,2023-10-16,1,,,,,ファンズ,0
1952,7011001157581,新規,0,2023-10-16,2023-10-16,株式会社カンナムホールディングス,,株式会社,東京都,渋谷区,神宮前４丁目１９番８号アロープラザ原宿２２３号室,,13,113,1500001,,,,,,,2023-10-16,1,,,,,カンナムホールディングス,0
1953,7011001157598,新規,0,2023-10-16,2023-10-16,株式会社ｕｎｉｃｏｒｎ,,株式会社,東京都,渋谷区,道玄坂１丁目２番３号渋谷フクラス１７階,,13,113,1500043,,,,,,,2023-10-16,1,,,,,ユニコーン,0
1954,7011001157615,新規,0,2023-10-16,2023-10-16,株式会社Ｓｏｍａ,,株式会社,東京都,目黒区,平町１丁目２番１５号,,13,110,1520032,,,,,,,2023-10-16,1,,,,,ソーマ,0
1958,7011003017726,新規,0,2023-10-16,2023-10-16,合同会社淡師,,合同会社,東京都,渋谷区,広尾２丁目９番３３号リンクス広尾１Ｂ,,13,113,1500012,,,,,,,2023-10-16,1,,,,,タンジ,0
1965,7011101104756,新規,0,2023-10-16,2023-10-16,株式会社ｍｏｂｏｃｏｓｓ,,株式会社,東京都,新宿区,大久保２丁目２９番９号２１７,,13,104,1690072,,,,,,,2023-10-16,1,,,,,モボコス,0
1970,7011603004090,新規,0,2023-10-16,2023-10-16,合同会社ミルキーウェル,,合同会社,東京都,練馬区,東大泉２丁目１３番６－１０３号,,13,120,1780063,,,,,,,2023-10-16,1,,,,,ミルキーウェル,0
1981,7012403006228,新規,0,2023-10-16,2023-10-16,合同会社ＮａＭＯＯＤ,,合同会社,東京都,稲城市,矢野口１０２３－１１,,13,225,2060812,,,,,,,2023-10-16,1,,,,,ナムード,0
1985,7013301051472,新規,0,2023-10-16,2023-10-16,株式会社笑認,,株式会社,東京都,豊島区,西池袋１丁目１１番１号メトロポリタンプラザビル１４階,,13,116,1710021,,,,,,,2023-10-16,1,,,,,ショウニン,0
1988,7020003024698,新規,0,2023-10-16,2023-10-16,エスワイエス合同会社,,合同会社,神奈川県,横浜市港南区,笹下１丁目５番３号,,14,111,2340052,,,,,,,2023-10-16,1,,,,,エスワイエス,0
1989,7020003024764,新規,0,2023-10-16,2023-10-16,シムロ合同会社,,合同会社,神奈川県,川崎市中原区,井田２丁目３３番２号日吉西パークホームズ弐番館８１１,,14,133,2110035,,,,,,,2023-10-16,1,,,,,シムロ,0
1996,7021003013666,新規,0,2023-10-16,2023-10-16,Ｌｉｏｕｒｕコンサルティング合同会社,,合同会社,神奈川県,藤沢市,本鵠沼５丁目１０番５号,00132260,14,205,2510028,,,,,,,2023-10-16,1,,,,,リオウルコンサルティング,0
1997,7021003013674,新規,0,2023-10-16,2023-10-16,ＩＢＡＤＡＴ　ＴＲＡＤＩＮＧ合同会社,,合同会社,神奈川県,相模原市南区,下溝１５０２番地４－１０２号室,,14,153,2520335,,,,,,,2023-10-16,1,,,,,イバダットトレーディング,0
1998,7021003013682,新規,0,2023-10-16,2023-10-16,合同会社Ｓｔａｇｅｓ,,合同会社,神奈川県,平塚市,宮松町１４番１－３１２号,,14,203,2540036,,,,,,,2023-10-16,1,,,,,,0
2002,7030001156633,新規,0,2023-10-16,2023-10-16,株式会社Ｍ＆Ｍ,,株式会社,埼玉県,入間市,大字小谷田５４番地１,,11,225,3580026,,,,,,,2023-10-16,1,,,,,エムアンドエム,0
2003,7030001156674,新規,0,2023-10-16,2023-10-16,李良済株式会社,,株式会社,埼玉県,川越市,富士見町３１－３８ウィンベルソロ川越第六・５０８号室,,11,201,3500033,,,,,,,2023-10-16,1,,,,,リリョウサイ,0
2020,7040001130447,新規,0,2023-10-16,2023-10-16,株式会社あろはす,,株式会社,千葉県,千葉市花見川区,幕張本郷２丁目６番１９号ソフトライフ幕張本郷ビル２０２,,12,102,2620033,,,,,,,2023-10-16,1,,,,,アロハス,0
2021,7040001130455,新規,0,2023-10-16,2023-10-16,株式会社ＡＩＲＩＳ,,株式会社,千葉県,船橋市,本町１丁目２３番２０号立山ビル３０２,,12,204,2730005,,,,,,,2023-10-16,1,,,,,アイリス,0
2022,7040001130471,新規,0,2023-10-16,2023-10-16,株式会社ＭＵＳＴ　ＰＲＯＤＵＣＴ,,株式会社,千葉県,松戸市,松戸新田４９０番地の１４４,,12,207,2702241,,,,,,,2023-10-16,1,,,,,マストプロダクト,0
2023,7040001130496,新規,0,2023-10-16,2023-10-16,ＵＭＩＣＯ株式会社,,株式会社,千葉県,南房総市,白浜町白浜３５５５番地１,,12,234,2950102,,,,,,,2023-10-16,1,,,,,ウミコ,0
2030,7050001053655,新規,0,2023-10-16,2023-10-16,株式会社７８ｐｒｏｊｅｃｔ,,株式会社,茨城県,龍ケ崎市,若柴町２９７４番地の３,,08,208,3010041,,,,,,,2023-10-16,1,,,,,ナナハチプロジェクト,0
2036,7070001040965,新規,0,2023-10-16,2023-10-16,ユリモアーキテクト株式会社,,株式会社,群馬県,前橋市,問屋町２丁目１４番地１１,,10,201,3710855,,,,,,,2023-10-16,1,,,,,ユリモアーキテクト,0
2037,7070001040973,新規,0,2023-10-16,2023-10-16,株式会社クロスゲート,,株式会社,群馬県,前橋市,富田町２７０９番地７,,10,201,3792161,,,,,,,2023-10-16,1,,,,,,0
2043,7070003005132,新規,0,2023-10-16,2023-10-16,きらめき合同会社,,合同会社,群馬県,高崎市,新保町１０２９番地７,,10,202,3700018,,,,,,,2023-10-16,1,,,,,キラメキ,0
2051,7110001037916,新規,0,2023-10-16,2023-10-16,株式会社三建,,株式会社,新潟県,新潟市南区,中塩俵８３番地,,15,106,9501242,,,,,,,2023-10-16,1,,,,,サンケン,0
2065,7120001258651,新規,0,2023-10-16,2023-10-16,株式会社ベイブ,,株式会社,大阪府,大阪市西区,京町堀１丁目４番９号,,27,106,5500003,,,,,,,2023-10-16,1,,,,,ベイブ,0
2066,7120001258759,新規,0,2023-10-16,2023-10-16,株式会社Ｄ．ｌａｂｏ,,株式会社,大阪府,大阪市住之江区,中加賀屋２丁目８番２０号,,27,125,5590017,,,,,,,2023-10-16,1,,,,,ディーラボ,0
2067,7120001258767,新規,0,2023-10-16,2023-10-16,和美株式会社,,株式会社,大阪府,大阪市大正区,小林東２丁目９番５号４０３号,,27,108,5510011,,,,,,,2023-10-16,1,,,,,ワビ,0
2068,7120001258791,新規,0,2023-10-16,2023-10-16,株式会社ＢＥＥＣＴＯＲＹ,,株式会社,大阪府,大阪市北区,梅田１丁目１番３号大阪駅前第３ビル２９階１－１－１号室,,27,127,5300001,,,,,,,2023-10-16,1,,,,,ビクトリー,0
2071,7120003025075,新規,0,2023-10-16,2023-10-16,合同会社ＵＰ‐ＯＮ,,合同会社,大阪府,大阪市北区,梅田１丁目１－３大阪駅前第３ビル２９階１－１－１号室,,27,127,5300001,,,,,,,2023-10-16,1,,,,,アップオン,0
2080,7130001075402,新規,0,2023-10-16,2023-10-16,錦向株式会社,,株式会社,京都府,京都市左京区,二条通川端東入ル三筋目大文字町１５８番ハイツサンフラワー１０３号室,,26,103,6060000,,,,,,,2023-10-16,1,,,,,キンコウ,0
2081,7130001075410,新規,0,2023-10-16,2023-10-16,ユウコウ株式会社,,株式会社,京都府,京都市中京区,壬生賀陽御所町２７番地４アルテハイム四条大宮１０１,,26,104,6048811,,,,,,,2023-10-16,1,,,,,,0
2082,7130001075427,新規,0,2023-10-16,2023-10-16,株式会社Ｘ企画,,株式会社,京都府,京都市東山区,八坂新池清本町３７６－４第３ＩＨビル２階,,26,105,6050000,,,,,,,2023-10-16,1,,,,,エックスキカク,0
2091,7150001026799,新規,0,2023-10-16,2023-10-16,株式会社鳥谷工業,,株式会社,奈良県,北葛城郡上牧町,大字上牧５４０番地２３,,29,424,6390214,,,,,,,2023-10-16,1,,,,,トリタニコウギョウ,0
2092,7150003003094,新規,0,2023-10-16,2023-10-16,ヒラヤマ合同会社,,合同会社,奈良県,大和郡山市,井戸野町３２０番地５,,29,203,6391104,,,,,,,2023-10-16,1,,,,,ヒラヤマ,0
2104,7180001158441,新規,0,2023-10-16,2023-10-16,小さな広報室株式会社,,株式会社,愛知県,名古屋市昭和区,花見通１丁目９４番地の１,,23,107,4660831,,,,,,,2023-10-16,1,,,,,チイサナコウホウシツ,0
2105,7180001158466,新規,0,2023-10-16,2023-10-16,株式会社ｐｏｍｏｎａ,,株式会社,愛知県,あま市,七宝町下之森郷東１６番地,,23,237,4970006,,,,,,,2023-10-16,1,,,,,ポモナ,0
2114,7180003025854,新規,0,2023-10-16,2023-10-16,ＤＥＷＡＮ　ＢＲＯＴＨＥＲＳ合同会社,,合同会社,愛知県,豊明市,沓掛町八幡前７７番５０,,23,229,4701101,,,,,,,2023-10-16,1,,,,,デワンブラザーズ,0
2133,7240001062265,新規,0,2023-10-16,2023-10-16,株式会社ＡＯ,,株式会社,広島県,広島市安佐南区,伴南１丁目３番１６号,,34,105,7313168,,,,,,,2023-10-16,1,,,,,アオ,0
2147,7290001103403,新規,0,2023-10-16,2023-10-16,ベラ・クリエート株式会社,,株式会社,福岡県,福岡市中央区,薬院３丁目１６番２７号６Ｆ,,40,133,8100022,,,,,,,2023-10-16,1,,,,,ベラクリエート,0
2149,7290003014482,新規,0,2023-10-16,2023-10-16,合同会社Ｍｏｍｅｎｔ,,合同会社,福岡県,福岡市博多区,堅粕３丁目１番５－６０７号オリエントビルＮｏ．６６ＧＵＡＲＡＮＴＥＥ２１,,40,132,8120043,,,,,,,2023-10-16,1,,,,,モーメント,0
2150,7290003014490,新規,0,2023-10-16,2023-10-16,ハートグリーン合同会社,,合同会社,福岡県,福岡市博多区,板付４丁目１２番４０号,,40,132,8120888,,,,,,,2023-10-16,1,,,,,ハートグリーン,0
2155,7320001020074,新規,0,2023-10-16,2023-10-16,株式会社えん,,株式会社,大分県,宇佐市,院内町下恵良７８９番地１,,44,211,8720481,,,,,,,2023-10-16,1,,,,,エン,0
2162,7370001050513,新規,0,2023-10-16,2023-10-16,株式会社ＩＮＯＶＥＬＬ,,株式会社,宮城県,仙台市青葉区,一番町３丁目３番１－４０７号クラックス仙台,,04,101,9800811,,,,,,,2023-10-16,1,,,,,イノベル,0
2165,7400001016411,新規,0,2023-10-16,2023-10-16,株式会社小平建築,,株式会社,岩手県,北上市,滑田１０地割６４番地２,,03,206,0240074,,,,,,,2023-10-16,1,,,,,コダイラケンチク,0
2166,7400001016428,新規,0,2023-10-16,2023-10-16,株式会社ケイエヌ電工,,株式会社,岩手県,盛岡市,渋民字愛宕１３番地,,03,201,0284132,,,,,,,2023-10-16,1,,,,,ケイエヌデンコウ,0
2172,7420001018439,新規,0,2023-10-16,2023-10-16,株式会社ＹＦＣ,,株式会社,青森県,黒石市,花園町８２,,02,204,0360371,,,,,,,2023-10-16,1,,,,,ワイエフシー,0
2173,7420001018447,新規,0,2023-10-16,2023-10-16,株式会社なみきフーズ,,株式会社,青森県,八戸市,東白山台３丁目１１番１４号,,02,203,0391111,,,,,,,2023-10-16,1,,,,,ナミキフーズ,0
2175,7420005007867,新規,0,2023-10-16,2023-10-16,一般社団法人４７共育塾弘学,,その他の設立登記法人,青森県,弘前市,大字山崎２丁目８番地１,,02,202,0368233,,,,,,,2023-10-16,1,,,,,ヨンジュウナナキョウイクジュクヒロガク,0
2178,7430001090189,新規,0,2023-10-16,2023-10-16,株式会社トラストワークライン,,株式会社,北海道,札幌市南区,藤野二条８丁目５番６号,,01,106,0612282,,,,,,,2023-10-16,1,,,,,トラストワークライン,0
2180,7430003015524,新規,0,2023-10-16,2023-10-16,合同会社ＢＩＴＴＯＬ,,合同会社,北海道,江別市,ゆめみ野東町２５番地の９,,01,217,0670065,,,,,,,2023-10-16,1,,,,,ビットル,0
2181,7430003015532,新規,0,2023-10-16,2023-10-16,合同会社光和物産,,合同会社,北海道,札幌市中央区,南四条西１丁目１番地２第８７松井ビル７階７０４,,01,101,0640804,,,,,,,2023-10-16,1,,,,,コウワブッサン,0
2190,7700150121221,新規,0,2023-10-16,2023-10-16,Ｓｈｅｎｚｈｅｎｓｈｉ　Ｈｕａｓｈａｏ　Ｔｅｃｈｎｏｌｏｇｙ　Ｃｏ．，Ｌｔｄ．,,外国会社等,,,,,,,,Ｂａｏ’ａｎ　Ｄｉｓｔｒｉｃｔ　Ｘｉｘｉａｎｇ　Ｓｔｒｅｅｔ　Ｈｅｄｏｎｇ，Ｃｏｍｍｕｎｉｔｙ　Ｂａｏ’ａｎ　８０ｔｈ，Ｈａｏｙｕｎｌａｉ，Ｓｑｕａｒｅ　Ｈｅｄｏｎｇ　Ｂｕｉｌｄｉｎｇ　Ｆ５－０１１，ｓｈｅｎｚｈｅｎ，ｇｕａｎｇｄｏｎｇ,,,,,,2023-10-16,1,,,,,シンセンシカショウカギユウゲンコウシ,0
2198,8010001239257,新規,0,2023-10-16,2023-10-16,タイガー株式会社,,株式会社,東京都,千代田区,東神田１丁目３番６号－３０１,,13,101,1010031,,,,,,,2023-10-16,1,,,,,タイガー,0
2208,8010003041925,新規,0,2023-10-16,2023-10-16,アクティブリーシング２７号合同会社,,合同会社,東京都,千代田区,麹町４丁目７番２号,,13,101,1020083,,,,,,,2023-10-16,1,,,,,アクティブリーシングニジュウナナゴウ,0
2209,8010003041933,新規,0,2023-10-16,2023-10-16,合同会社マーキュリー,,合同会社,東京都,中央区,日本橋富沢町１３番３号,,13,102,1030006,,,,,,,2023-10-16,1,,,,,マーキュリー,0
2210,8010101015847,新規,0,2023-10-16,2023-10-16,株式会社ＲＯＷＡ,,株式会社,東京都,八王子市,北野町５６５－１０シャレー北野７０３,,13,201,1920906,,,,,,,2023-10-16,1,,,,,ロワ,0
2211,8010103002199,新規,0,2023-10-16,2023-10-16,合同会社麻里,,合同会社,東京都,八王子市,八木町３番１号アクセス・サバーブ八王子６０１号,,13,201,1920055,,,,,,,2023-10-16,1,,,,,マリ,0
2225,8010401177701,新規,0,2023-10-16,2023-10-16,株式会社フロムトーキョー,,株式会社,東京都,港区,六本木７丁目６番１９号レヴェリー六本木５Ｆ,,13,103,1060032,,,,,,,2023-10-16,1,,,,,フロムトーキョー,0
2226,8010401177759,新規,0,2023-10-16,2023-10-16,Ｉｓｅｋａｉｅｄ株式会社,,株式会社,東京都,港区,西麻布２丁目５番１号６０１号室,,13,103,1060031,,,,,,,2023-10-16,1,,,,,イセカイド,0
2230,8010405022531,新規,0,2023-10-16,2023-10-16,特定非営利活動法人クリーンナップフロンティア,,その他の設立登記法人,東京都,港区,新橋６丁目５番４号ＤＩＫマンション新橋７０７,,13,103,1050004,,,,,,,2023-10-16,1,,,,,クリーンナップフロンティア,0
2232,8010503007194,新規,0,2023-10-16,2023-10-16,合同会社東京エステート,,合同会社,東京都,台東区,元浅草２丁目１１番６－１１０１号,,13,106,1110041,,,,,,,2023-10-16,1,,,,,トウキョウエステート,0
2233,8010601063924,新規,0,2023-10-16,2023-10-16,ＰＮＹＹ　ＪＡＰＡＮ株式会社,,株式会社,東京都,墨田区,文花１丁目３４番１１－２０５号,,13,107,1310044,,,,,,,2023-10-16,1,,,,,プニージャパン,0
2234,8010601063940,新規,0,2023-10-16,2023-10-16,株式会社ＹＥＺ,,株式会社,東京都,墨田区,緑２丁目８番ＤＵＰＬＥ両国１０１,,13,107,1300021,,,,,,,2023-10-16,1,,,,,ワイイーゼット,0
2235,8010601063949,新規,0,2023-10-16,2023-10-16,株式会社Ｔｏｍｏｎｉｃｓ,,株式会社,東京都,江東区,大島３丁目８番７号,,13,108,1360072,,,,,,,2023-10-16,1,,,,,トモニクス,0
2236,8010601063957,新規,0,2023-10-16,2023-10-16,株式会社ｃｒａｚｙｏｎｅｓ,,株式会社,東京都,江東区,牡丹３丁目１８番１号リバーサイドハウス２０１,,13,108,1350046,,,,,,,2023-10-16,1,,,,,クレイジーワンズ,0
2237,8010603010412,新規,0,2023-10-16,2023-10-16,合同会社ＡＷ,,合同会社,東京都,江東区,辰巳２丁目１－Ｋ８－１０３,,13,108,1350053,,,,,,,2023-10-16,1,,,,,エーダブリュー,0
2240,8010701044980,新規,0,2023-10-16,2023-10-16,株式会社秀建エステート・品川,,株式会社,東京都,品川区,南品川５丁目３番１９号,,13,109,1400004,,,,,,,2023-10-16,1,,,,,シュウケンエステートシナガワ,0
2249,8010901053906,新規,0,2023-10-16,2023-10-16,株式会社カームタイム,,株式会社,東京都,世田谷区,下馬２丁目６番８号,,13,112,1540002,,,,,,,2023-10-16,1,,,,,カームタイム,0
2256,8011001157572,新規,0,2023-10-16,2023-10-16,株式会社Ａ・Ｋコーポレーション,,株式会社,東京都,目黒区,原町２丁目１５番５号,,13,110,1520011,,,,,,,2023-10-16,1,,,,,エーケーコーポレーション,0
2267,8011301029083,新規,0,2023-10-16,2023-10-16,株式会社エイツーゼット,,株式会社,東京都,杉並区,高円寺南４丁目２番８号,,13,115,1660003,,,,,,,2023-10-16,1,,,,,エイツーゼット,0
2271,8011601027191,新規,0,2023-10-16,2023-10-16,株式会社ｓｔａｙｓｔｏｒｅ,,株式会社,東京都,練馬区,光が丘２丁目１０番５－１４０２号,,13,120,1790072,,,,,,,2023-10-16,1,,,,,ステイストア,0
2274,8012303001889,新規,0,2023-10-16,2023-10-16,合同会社ＧＲＥＫＳインターナショナル,,合同会社,東京都,町田市,南つくし野３丁目８番地１藤和シティホームズすずかけ台３０１,,13,209,1940002,,,,,,,2023-10-16,1,,,,,グレックスインターナショナル,0
2276,8012401041119,新規,0,2023-10-16,2023-10-16,株式会社ＫＡＳＵＭＩ,,株式会社,東京都,府中市,八幡町３丁目３番地の３モナークサンシティ東府中３０１,,13,206,1830016,,,,,,,2023-10-16,1,,,,,カスミ,0
2279,8012403006227,新規,0,2023-10-16,2023-10-16,合同会社ｂｒｉｄｇｅｂｏａｒｄ,,合同会社,東京都,狛江市,元和泉２丁目１９番１５号,,13,219,2010013,,,,,,,2023-10-16,1,,,,,ブリッジボード,0
2289,8020001153936,新規,0,2023-10-16,2023-10-16,ＦＰサポーターズ株式会社,,株式会社,神奈川県,横浜市南区,永田山王台１３番１７号,,14,105,2320074,,,,,,,2023-10-16,1,,,,,エフピーサポーターズ,0
2293,8020003024739,新規,0,2023-10-16,2023-10-16,合同会社Ｙ＆Ｍ,,合同会社,神奈川県,横浜市戸塚区,原宿５丁目２９番１３号,,14,110,2450063,,,,,,,2023-10-16,1,,,,,ワイアンドエム,0
2297,8021001080451,新規,0,2023-10-16,2023-10-16,こまった．ｃｏｍ株式会社,,株式会社,神奈川県,相模原市緑区,下九沢１５４番地１,,14,151,2520134,,,,,,,2023-10-16,1,,,,,コマッタドットコム,0
2300,8021003013665,新規,0,2023-10-16,2023-10-16,合同会社湘南住工,,合同会社,神奈川県,藤沢市,善行１丁目２２－５富士マンション３０５,,14,205,2510871,,,,,,,2023-10-16,1,,,,,ショウナンジュウコウ,0
2306,8030001156608,新規,0,2023-10-16,2023-10-16,趙家薬膳ＴＯＫＹＯ株式会社,,株式会社,埼玉県,川越市,大字砂新田１３７番地２４,,11,201,3501137,,,,,,,2023-10-16,1,,,,,チョウケヤクゼントウキョウ,0
2307,8030001156632,新規,0,2023-10-16,2023-10-16,株式会社ＲＭ商事,,株式会社,埼玉県,上尾市,大字領家８８番地１,,11,219,3620066,,,,,,,2023-10-16,1,,,,,アールエムショウジ,0
2308,8030001156673,新規,0,2023-10-16,2023-10-16,株式会社Ｗｏｒｋ　ｏｕｔ,,株式会社,埼玉県,春日部市,南中曽根６３７番地８アヴニール１０１号室,,11,214,3440048,,,,,,,2023-10-16,1,,,,,ワークアウト,0
2315,8030003022584,新規,0,2023-10-16,2023-10-16,合同会社ＭＪグループ,,合同会社,埼玉県,川口市,大字大竹１２４番地の３ロイヤルメゾン２０２号,,11,203,3340067,,,,,,,2023-10-16,1,,,,,エムジェイグループ,0
2316,8030003022774,新規,0,2023-10-16,2023-10-16,合同会社ＫＯＹＯＭＩ,,合同会社,埼玉県,羽生市,大字藤井上組１１７１番地１３,,11,216,3480064,,,,,,,2023-10-16,1,,,,,コヨミ,0
2317,8030005021444,新規,0,2023-10-16,2023-10-16,医療法人ホミネス,,その他の設立登記法人,埼玉県,ふじみ野市,大井武蔵野１４３７番地７,,11,245,3560054,,,,,,,2023-10-16,1,,,,,ホミネス,0
2320,8040001130454,新規,0,2023-10-16,2023-10-16,株式会社相馬,,株式会社,千葉県,市川市,相之川４丁目５番１８号渡辺ビル本館３０１号室,,12,203,2720143,,,,,,,2023-10-16,1,,,,,ソウマ,0
2321,8040001130495,新規,0,2023-10-16,2023-10-16,株式会社Ｃｏｌｏｒｓ,,株式会社,千葉県,木更津市,東太田３丁目７番５号,,12,206,2920043,,,,,,,2023-10-16,1,,,,,カラーズ,0
2322,8040001130504,新規,0,2023-10-16,2023-10-16,ＧＯＥＮ　ＣＯＭＰＡＮＹ株式会社,,株式会社,千葉県,柏市,柏２丁目７番９号グランディール柏ビル２階,,12,217,2770005,,,,,,,2023-10-16,1,,,,,ゴエンカンパニー,0
2323,8040001130512,新規,0,2023-10-16,2023-10-16,未来株式会社,,株式会社,千葉県,松戸市,古ケ崎１丁目３０６９－１リリファ松戸Ａ－１０１,,12,207,2710068,,,,,,,2023-10-16,1,,,,,ミライ,0
2324,8040001130520,新規,0,2023-10-16,2023-10-16,熊本世家株式会社,,株式会社,千葉県,船橋市,大穴南１丁目８番１－３０２号,,12,204,2740067,,,,,,,2023-10-16,1,,,,,クマモトセイカ,0
2331,8040003023540,新規,0,2023-10-16,2023-10-16,合同会社ＰＡＡ,,合同会社,千葉県,松戸市,日暮３丁目２６－３,,12,207,2702253,,,,,,,2023-10-16,1,,,,,ピーエーエー,0
2339,8070001040964,新規,0,2023-10-16,2023-10-16,株式会社由良興業,,株式会社,群馬県,太田市,由良町１４７３番地１０,,10,205,3730036,,,,,,,2023-10-16,1,,,,,ユラコウギョウ,0
2348,8100001036876,新規,0,2023-10-16,2023-10-16,株式会社導波技術研究所,,株式会社,長野県,上伊那郡箕輪町,大字中箕輪１０８７６番地１１,,20,383,3994601,,,,,,,2023-10-16,1,,,,,ドウハギジュツケンキュウショ,0
2349,8100001036884,新規,0,2023-10-16,2023-10-16,株式会社ｇｏｏｄｈｏｏｄ,,株式会社,長野県,上伊那郡辰野町,大字辰野１７０５番地１ＳＴＵＤＩＯリバー３階,,20,382,3990421,,,,,,,2023-10-16,1,,,,,グッドフッド,0
2365,8120001258659,新規,0,2023-10-16,2023-10-16,株式会社ＧＲＡＮＤＥＵＲ,,株式会社,大阪府,大阪市天王寺区,生玉町２番４－１００１号,,27,109,5430071,,,,,,,2023-10-16,1,,,,,グランドール,0
2366,8120001258683,新規,0,2023-10-16,2023-10-16,株式会社大塚機械,00132270,株式会社,大阪府,大阪市住之江区,西加賀屋２丁目１番４０号,,27,125,5590016,,,,,,,2023-10-16,1,,,,,オオツカキカイ,0
2367,8120001258766,新規,0,2023-10-16,2023-10-16,＿菰商事株式会社,00132261,株式会社,大阪府,大阪市港区,市岡３丁目１３番９号藤原文化住宅３０２号室,,27,107,5520012,,,,,,,2023-10-16,1,,,,,マコショウジ,0
2368,8120001258782,新規,0,2023-10-16,2023-10-16,陽光国際株式会社,,株式会社,大阪府,大阪市住之江区,浜口西１丁目１３－１５カトレアビル４０１号室,,27,125,5590006,,,,,,,2023-10-16,1,,,,,サンシャインインターナショナル,0
2369,8120001258808,新規,0,2023-10-16,2023-10-16,株式会社ＦＲＥＥＤＯＭ２９,,株式会社,大阪府,枚方市,津田北町２丁目２４番１３号,,27,210,5730121,,,,,,,2023-10-16,1,,,,,,0
2370,8120001258832,新規,0,2023-10-16,2023-10-16,プログレス株式会社,,株式会社,大阪府,大阪市西区,北堀江１丁目５番２号,,27,106,5500014,,,,,,,2023-10-16,1,,,,,プログレス,0
2371,8120001258980,新規,0,2023-10-16,2023-10-16,大阪中央ハイトラスト株式会社,,株式会社,大阪府,大阪市福島区,福島７丁目１５番２６号,,27,103,5530003,,,,,,,2023-10-16,1,,,,,オオサカチュウオウハイトラスト,0
2377,8120901048184,新規,0,2023-10-16,2023-10-16,株式会社サワラギ,,株式会社,大阪府,摂津市,昭和園１１番５号,,27,224,5660031,,,,,,,2023-10-16,1,,,,,サワラギ,0
2379,8122001037472,新規,0,2023-10-16,2023-10-16,イーグル株式会社,,株式会社,大阪府,東大阪市,菱屋西１丁目２２番２８号,,27,227,5770807,,,,,,,2023-10-16,1,,,,,イーグル,0
2382,8130001075376,新規,0,2023-10-16,2023-10-16,株式会社樹栄園,,株式会社,京都府,京都市伏見区,久我森の宮町１２番地１２７,,26,109,6128495,,,,,,,2023-10-16,1,,,,,ジュエイエン,0
2383,8130001075442,新規,0,2023-10-16,2023-10-16,株式会社ダイナ物流,,株式会社,京都府,舞鶴市,字佐波賀１８２,,26,202,6250134,,,,,,,2023-10-16,1,,,,,ダイナブツリュウ,0
2391,8140001131954,新規,0,2023-10-16,2023-10-16,株式会社ナノ,,株式会社,兵庫県,神戸市須磨区,大田町７丁目６番１８号,,28,107,6540024,,,,,,,2023-10-16,1,,,,,ナノ,0
2392,8140001131970,新規,0,2023-10-16,2023-10-16,株式会社アソビー,,株式会社,兵庫県,姫路市,御立中８丁目１０番２５号,,28,201,6700073,,,,,,,2023-10-16,1,,,,,アソビー,0
2396,8140003019669,新規,0,2023-10-16,2023-10-16,合同会社はやて,,合同会社,兵庫県,神戸市北区,有野町有野３６４８－１１,,28,109,6511312,,,,,,,2023-10-16,1,,,,,ハヤテ,0
2397,8140005026762,新規,0,2023-10-16,2023-10-16,一般社団法人零和国際商業創新会,,その他の設立登記法人,兵庫県,尼崎市,西難波町４丁目６番２６号,,28,202,6600893,,,,,,,2023-10-16,1,,,,,,0
2411,8180001158408,新規,0,2023-10-16,2023-10-16,株式会社メイレコーズ,,株式会社,愛知県,名古屋市昭和区,阿由知通５丁目１４番地,,23,107,4660027,,,,,,,2023-10-16,1,,,,,メイレコーズ,0
2412,8180001158440,新規,0,2023-10-16,2023-10-16,株式会社Ｄｒ．スワンラボ,,株式会社,愛知県,名古屋市熱田区,明野町１番１号,,23,109,4560071,,,,,,,2023-10-16,1,,,,,ドクタースワンラボ,0
2413,8180001158465,新規,0,2023-10-16,2023-10-16,株式会社ＳＡＩＳＯＮ,,株式会社,愛知県,名古屋市中区,丸の内３丁目１５番２１号,,23,106,4600002,,,,,,,2023-10-16,1,,,,,セゾン,0
2420,8180003025837,新規,0,2023-10-16,2023-10-16,合同会社バーサット,,合同会社,愛知県,春日井市,篠木町６丁目２４８４－２,,23,206,4860851,,,,,,,2023-10-16,1,,,,,バーサット,0
2421,8180003025845,新規,0,2023-10-16,2023-10-16,合同会社オジュタイ,,合同会社,愛知県,一宮市,東五城字備前５０番地１,,23,203,4940008,,,,,,,2023-10-16,1,,,,,オジュタイ,0
2422,8180003025853,新規,0,2023-10-16,2023-10-16,合同会社Ｋｕｍａｒｉ,,合同会社,愛知県,名古屋市中村区,則武本通２丁目７２番地の４,,23,105,4530017,,,,,,,2023-10-16,1,,,,,クマリ,0
2430,8210003001710,新規,0,2023-10-16,2023-10-16,ｓｅａｌｓセールスグループ合同会社,,合同会社,福井県,福井市,大宮２丁目１２番１５号アパガーデンコート大宮５０６,,18,201,9100016,,,,,,,2023-10-16,1,,,,,シールズセールスグループ,0
2431,8210005010115,新規,0,2023-10-16,2023-10-16,一般社団法人やましごと工房ふくい,,その他の設立登記法人,福井県,福井市,大宮５丁目１５番２５号,,18,201,9100016,,,,,,,2023-10-16,1,,,,,ヤマシゴトコウボウフクイ,0
2432,8220001025636,新規,0,2023-10-16,2023-10-16,株式会社リフレッシングハート,,株式会社,石川県,金沢市,此花町１１番２０号オンリーワンビル２０１号,,17,201,9200852,,,,,,,2023-10-16,1,,,,,リフレッシングハート,0
2434,8230001020058,新規,0,2023-10-16,2023-10-16,株式会社ネギフォトグラフィー,,株式会社,富山県,富山市,呉羽町７３５５番地２０,,16,201,9300138,,,,,,,2023-10-16,1,,,,,ネギフォトグラフィー,0
2447,8250001020353,新規,0,2023-10-16,2023-10-16,株式会社オーファイブ,,株式会社,山口県,宇部市,西平原２丁目７番１号,,35,202,7550808,,,,,,,2023-10-16,1,,,,,オーファイブ,0
2451,8270001008859,新規,0,2023-10-16,2023-10-16,株式会社ノーブルストーリー,,株式会社,鳥取県,鳥取市,用瀬町川中１８１ー１,,31,201,6891226,,,,,,,2023-10-16,1,,,,,ノーブルストーリー,0
2459,8290001103393,新規,0,2023-10-16,2023-10-16,株式会社ｒｅｆｉｎｅ　ｓｕｐｐｏｒｔ,,株式会社,福岡県,福岡市東区,香椎駅東１丁目６－５－１０４,,40,131,8130012,,,,,,,2023-10-16,1,,,,,リファインサポート,0
2460,8290001103402,新規,0,2023-10-16,2023-10-16,株式会社ボストンガレージ,,株式会社,福岡県,福岡市西区,大字飯盛４７６番地３,,40,135,8190037,,,,,,,2023-10-16,1,,,,,ボストンガレージ,0
2467,8290003014481,新規,0,2023-10-16,2023-10-16,合同会社Ｍ．Ｅ．Ｄ,,合同会社,福岡県,福岡市城南区,別府５丁目６－２３フォレックス別府１０５号,,40,136,8140104,,,,,,,2023-10-16,1,,,,,エムイーディ,0
2468,8300001013500,新規,0,2023-10-16,2023-10-16,ｉｂ　ｍａｒｉａ株式会社,,株式会社,佐賀県,武雄市,北方町大字大崎１２０４番地２,,41,206,8492204,,,,,,,2023-10-16,1,,,,,アイビーマリア,0
2485,8370001050520,新規,0,2023-10-16,2023-10-16,株式会社ＴＩＫＡＫＵ,,株式会社,宮城県,仙台市太白区,四郎丸字昭和北２１０番地の１６,,04,104,9811101,,,,,,,2023-10-16,1,,,,,チカク,0
2488,8390001017402,新規,0,2023-10-16,2023-10-16,株式会社ＷＯＷＬ,,株式会社,山形県,山形市,あこや町１丁目６番６号,,06,201,9900025,,,,,,,2023-10-16,1,,,,,ワウル,0
2494,8410001013621,新規,0,2023-10-16,2023-10-16,株式会社深川企画,,株式会社,秋田県,能代市,河戸川字大須賀５３番地３,,05,202,0160171,,,,,,,2023-10-16,1,,,,,フカガワキカク,0
2502,8430001090163,新規,0,2023-10-16,2023-10-16,株式会社奥野組,,株式会社,北海道,様似郡様似町,西町１３２番地の４,,01,608,0580032,,,,,,,2023-10-16,1,,,,,オクノグミ,0
2503,8430001090188,新規,0,2023-10-16,2023-10-16,株式会社ＬＩＢＥＲＴＥ,,株式会社,北海道,石狩郡当別町,若葉１３３１,,01,303,0610204,,,,,,,2023-10-16,1,,,,,リベルテ,0
2506,8430003015531,新規,0,2023-10-16,2023-10-16,合同会社ランスルー,,合同会社,北海道,千歳市,幸町６丁目１５番地の２,,01,224,0660063,,,,,,,2023-10-16,1,,,,,ランスルー,0
2509,8450003002395,新規,0,2023-10-16,2023-10-16,佐藤工業合同会社,,合同会社,北海道,旭川市,東鷹栖一条３丁目６３５番地の８３,,01,204,0718101,,,,,,,2023-10-16,1,,,,,サトウコウギョウ,0
2521,8700150119132,新規,0,2023-10-16,2023-10-16,ｑｕａｎｚｈｏｕｋａｄｉｆｕｓｈａｎｇｍａｏｙｏｕｘｉａｎｇｏｎｇｓｉ,,外国会社等,,,,,,,,ｊｉｎｇｊｉｊｉｓｈｕｋａｉｆａｑｕｃｈｏｎｇｒｏｎｇｊｉｅ１６４ｈａｏＡｄｏｎｇ４ｌｏｕＢｑｕ　ｑｕａｎｚｈｏｕ　ｆｕｊｉａｎｓｈｅｎｇ　３６２０００　ＣＮ,,,,,,2023-10-16,1,,,,,センシユウカーデイフボウエキユウゲンゴウシ,0
2522,8700150119140,新規,0,2023-10-16,2023-10-16,ＯＲＩＥＮＴＰＥＡＲＬ　ＵＳＡ　ＩＮＣ,,外国会社等,,,,,,,,８８２５　５３　ＡＶＥ　ＥＬＭＨＵＲＳＴ，ＮＹ　１１３７３，ＵＳ,,,,,,2023-10-16,1,,,,,オリエントパールユーエスエーカブシキガイシヤ,0
2523,8700150121220,新規,0,2023-10-16,2023-10-16,Ｇｕａｎｇｚｈｏｕ　Ｚｈｉｐｉｎ　Ｔｒａｄｉｎｇ　Ｃｏ．，Ｌｔｄ,,外国会社等,,,,,,,,Ｒｏｏｍ２１０３　１５２　Ｘｉｗａｎ　Ｒｏａｄ　Ｌｉｗａｎ　Ｄｉｓｔｒｉｃｔ　Ｇｕａｎｇｚｈｏｕ,,,,,,2023-10-16,1,,,,,コウシュウシヒンボウエキユウゲンコウシ,0
2530,9010001239280,新規,0,2023-10-16,2023-10-16,＿匯科技株式会社,00132266,株式会社,東京都,千代田区,岩本町２丁目１７番４号泰合ビルＩＩ４０５号室,00132267,13,101,1010032,,,,,,,2023-10-16,1,,,,,ビカイカギ,0
2556,9010401177733,新規,0,2023-10-16,2023-10-16,株式会社ｄｏｒｉｔｉｏｎ,,株式会社,東京都,港区,赤坂６丁目１９番７号エルスタンザ赤坂２０５,,13,103,1070052,,,,,,,2023-10-16,1,,,,,ドリション,0
2557,9010401177774,新規,0,2023-10-16,2023-10-16,株式会社ヒポクラテスアカデミー,,株式会社,東京都,港区,麻布十番１丁目１０－３モンテプラザ麻布６０２号室,,13,103,1060045,,,,,,,2023-10-16,1,,,,,,0
2558,9010401177808,新規,0,2023-10-16,2023-10-16,Ｌｏｃｕｓ　Ｒｏｂｏｔｉｃｓ　Ｃｏｒｐ　Ｊａｐａｎ株式会社,,株式会社,東京都,港区,元麻布３丁目１番６号,,13,103,1060046,,,,,,,2023-10-16,1,,,,,ローカスロボティクスコープジャパン,0
2563,9010405022588,新規,0,2023-10-16,2023-10-16,一般社団法人あさま地域活性化基金,,その他の設立登記法人,東京都,港区,虎ノ門３丁目２２番１０－２０１号,,13,103,1050001,,,,,,,2023-10-16,1,,,,,アサマチイキカッセイカキキン,0
2569,9010601063964,新規,0,2023-10-16,2023-10-16,株式会社Ｎｅｕ,,株式会社,東京都,江東区,三好１丁目４番１７号,,13,108,1350022,,,,,,,2023-10-16,1,,,,,ノイ,0
2572,9010701044963,新規,0,2023-10-16,2023-10-16,株式会社ＲＥ１,,株式会社,東京都,品川区,荏原４丁目４番７－１００５号,,13,109,1420063,,,,,,,2023-10-16,1,,,,,アールイーワン,0
2589,9011001157489,新規,0,2023-10-16,2023-10-16,株式会社ｄｅｅｒ,,株式会社,東京都,渋谷区,神宮前６丁目２３番４号桑野ビル２階,,13,113,1500001,,,,,,,2023-10-16,1,,,,,ディアー,0
2593,9011201024984,新規,0,2023-10-16,2023-10-16,株式会社ＬＣＣ,,株式会社,東京都,中野区,鷺宮５丁目１８番９号,,13,114,1650032,,,,,,,2023-10-16,1,,,,,エルシーシー,0
2596,9011301029082,新規,0,2023-10-16,2023-10-16,リビコム日興パートナーズ株式会社,,株式会社,東京都,杉並区,高円寺南４丁目２３番２号ニュー高円寺マンション４０５,,13,115,1660003,,,,,,,2023-10-16,1,,,,,リビコムニッコーパートナーズ,0
2598,9011501029865,新規,0,2023-10-16,2023-10-16,株式会社仲宗根,,株式会社,東京都,荒川区,東日暮里５丁目２５番３号大和田ビル２０１,,13,118,1160014,,,,,,,2023-10-16,1,,,,,ナカソネ,0
2609,9012403006226,新規,0,2023-10-16,2023-10-16,合同会社Ｃａｒｉｎｇ　ｗｉｔｈ　Ｐａｓｓｉｏｎ,,合同会社,東京都,三鷹市,井の頭２丁目２０番２３号,,13,204,1810001,,,,,,,2023-10-16,1,,,,,ケアリングウィズパッション,0
2615,9020001153927,新規,0,2023-10-16,2023-10-16,株式会社ＳＫＹ,,株式会社,神奈川県,川崎市多摩区,宿河原２丁目３８番４号,,14,135,2140021,,,,,,,2023-10-16,1,,,,,スカイ,0
2616,9020001153935,新規,0,2023-10-16,2023-10-16,天海商事株式会社,,株式会社,神奈川県,横浜市中区,山吹町１番地７パークノヴァ８１１,,14,104,2310038,,,,,,,2023-10-16,1,,,,,テンカイショウジ,0
2618,9020003024762,新規,0,2023-10-16,2023-10-16,合同会社Ｎ２ａｕｔｏｓｅｒｖｉｃｅ,,合同会社,神奈川県,横浜市泉区,和泉町４８７５番地１,,14,116,2450016,,,,,,,2023-10-16,1,,,,,エヌツーオートサービス,0
2623,9021003013680,新規,0,2023-10-16,2023-10-16,ＥＬＩＴＥ合同会社,,合同会社,神奈川県,愛甲郡愛川町,三増３５０番地の８－Ｂ,,14,401,2430308,,,,,,,2023-10-16,1,,,,,エリート,0
2631,9030001156631,新規,0,2023-10-16,2023-10-16,株式会社ＳＡＲＡ,,株式会社,埼玉県,さいたま市大宮区,北袋町１丁目１２０番地,,11,103,3300835,,,,,,,2023-10-16,1,,,,,サラ,0
2632,9030001156648,新規,0,2023-10-16,2023-10-16,株式会社ルミステック,,株式会社,埼玉県,川口市,末広１丁目１１番１７号ＫＡＷＡＤＡ・Ｂ／Ｕ７０４・２０１号,,11,203,3320006,,,,,,,2023-10-16,1,,,,,ルミステック,0
2641,9030003022757,新規,0,2023-10-16,2023-10-16,合同会社レバブル,,合同会社,埼玉県,吉川市,高富１丁目２０番地３マルシンコーポＢ１０２号,,11,243,3420036,,,,,,,2023-10-16,1,,,,,レバブル,0
2642,9030003022765,新規,0,2023-10-16,2023-10-16,合同会社ＧＲＡＣＥＺ,,合同会社,埼玉県,さいたま市浦和区,針ヶ谷３丁目７番２号１０３,,11,107,3300075,,,,,,,2023-10-16,1,,,,,グレーシズ,0
2643,9030003022773,新規,0,2023-10-16,2023-10-16,合同会社ＮＥＸＵＳ,,合同会社,埼玉県,さいたま市中央区,本町西１丁目１１番２３－１号デパーチェ本町西２０１号,,11,105,3380004,,,,,,,2023-10-16,1,,,,,ネクサス,0
2644,9030003022807,新規,0,2023-10-16,2023-10-16,合同会社加茂利家,,合同会社,埼玉県,越谷市,弥栄町１丁目１０５番地２７,,11,222,3430046,,,,,,,2023-10-16,1,,,,,カモリケ,0
2648,9040001130420,新規,0,2023-10-16,2023-10-16,株式会社ＳＹ　ｃｒａｆｔ,,株式会社,千葉県,千葉市花見川区,幕張本郷１丁目２６番２０号,,12,102,2620033,,,,,,,2023-10-16,1,,,,,エスワイクラフト,0
2649,9040001130461,新規,0,2023-10-16,2023-10-16,株式会社Ｇａｒｄｅｎウィズテリア,,株式会社,千葉県,大網白里市,大竹２６６番地１,,12,239,2993243,,,,,,,2023-10-16,1,,,,,ガーデンウィズテリア,0
2650,9040001130478,新規,0,2023-10-16,2023-10-16,株式会社住まいるＹ＆Ｙ,,株式会社,千葉県,浦安市,当代島２丁目５番７号,,12,227,2790001,,,,,,,2023-10-16,1,,,,,スマイルワイアンドワイ,0
2651,9040001130486,新規,0,2023-10-16,2023-10-16,株式会社ＥＧＥ,,株式会社,千葉県,柏市,北柏１丁目１番地１,,12,217,2770832,,,,,,,2023-10-16,1,,,,,イージーイー,0
2652,9040001130503,新規,0,2023-10-16,2023-10-16,祥和建工株式会社,,株式会社,千葉県,千葉市若葉区,小倉町１７３４－１８,,12,104,2640007,,,,,,,2023-10-16,1,,,,,ショウワケンコウ,0
2660,9050001053604,新規,0,2023-10-16,2023-10-16,ＱＧＮ株式会社,,株式会社,茨城県,つくば市,高見原５丁目１番地９５,,08,220,3001252,,,,,,,2023-10-16,1,,,,,キュージーエヌ,0
2664,9060003004769,新規,0,2023-10-16,2023-10-16,合同会社ＨＡＲＥ,,合同会社,栃木県,宇都宮市,日の出１丁目１１番１号ＨＩＴビルディング３－Ｇ,,09,201,3200832,,,,,,,2023-10-16,1,,,,,ハレ,0
2677,9100001036875,新規,0,2023-10-16,2023-10-16,株式会社ベバリィ,,株式会社,長野県,伊那市,山寺２５１番地,,20,209,3960023,,,,,,,2023-10-16,1,,,,,ベバリィ,0
2678,9100001036883,新規,0,2023-10-16,2023-10-16,株式会社ＣＶ,,株式会社,長野県,安曇野市,豊科田沢５４２６番地５－２Ｆ,,20,220,3998203,,,,,,,2023-10-16,1,,,,,シーブイ,0
2679,9100001036900,新規,0,2023-10-16,2023-10-16,Ｓｎｏｗｈｅｒｅ　Ｓｋｉ　Ｌｏｄｇｅ株式会社,,株式会社,長野県,北安曇郡白馬村,大字北城８２９番地７１,,20,485,3999301,,,,,,,2023-10-16,1,,,,,スノーヒアスキーロッジ,0
2684,9110001037914,新規,0,2023-10-16,2023-10-16,株式会社シンセイホールディングス,,株式会社,新潟県,新潟市秋葉区,古津１８４３番地２,,15,105,9560847,,,,,,,2023-10-16,1,,,,,シンセイホールディングス,0
2696,9120001258740,新規,0,2023-10-16,2023-10-16,株式会社楽家,,株式会社,大阪府,大阪市浪速区,桜川４丁目５番９号スケーリンホステル１Ｆ,,27,111,5560022,,,,,,,2023-10-16,1,,,,,ラクヤ,0
2697,9120001258749,新規,0,2023-10-16,2023-10-16,株式会社泰愛家,,株式会社,大阪府,大阪市平野区,平野東２丁目１１番７５号,,27,126,5470043,,,,,,,2023-10-16,1,,,,,タイアイケ,0
2698,9120001258781,新規,0,2023-10-16,2023-10-16,宝鋭株式会社,,株式会社,大阪府,大阪市中央区,内本町２丁目２－１４ＧＳハイム内本町１３０３号室,,27,128,5400026,,,,,,,2023-10-16,1,,,,,ホウエイ,0
2699,9120001258807,新規,0,2023-10-16,2023-10-16,莫想株式会社,,株式会社,大阪府,大阪市淀川区,西宮原１丁目６－６０プラザ新大阪８１６号室,,27,123,5320004,,,,,,,2023-10-16,1,,,,,バクソウ,0
2700,9120001258823,新規,0,2023-10-16,2023-10-16,宜陶株式会社,,株式会社,大阪府,大阪市東住吉区,今林２丁目１０番１４号,,27,121,5460001,,,,,,,2023-10-16,1,,,,,ギトウ,0
2711,9120003025057,新規,0,2023-10-16,2023-10-16,ジヲン広告合同会社,,合同会社,大阪府,大阪市住之江区,南港北２丁目１番１０号ＡＴＣビルＩＴＭ棟,,27,125,5590034,,,,,,,2023-10-16,1,,,,,ジヲンコウコク,0
2716,9120901048150,新規,0,2023-10-16,2023-10-16,株式会社エヴリス,,株式会社,大阪府,豊中市,刀根山１丁目５番３０号,,27,203,5600045,,,,,,,2023-10-16,1,,,,,エヴリス,0
2725,9122001037471,新規,0,2023-10-16,2023-10-16,橋本建設株式会社,,株式会社,大阪府,東大阪市,横小路町６丁目４番２６号,,27,227,5798063,,,,,,,2023-10-16,1,,,,,ハシモトケンセツ,0
2726,9122003002696,新規,0,2023-10-16,2023-10-16,オフィスＹ’ｓクリエイト合同会社,,合同会社,大阪府,東大阪市,高井田中１丁目８番３０－７０１号,,27,227,5770065,,,,,,,2023-10-16,1,,,,,オフィスワイズクリエイト,0
2730,9130001075359,新規,0,2023-10-16,2023-10-16,ｎｕｍ株式会社,,株式会社,京都府,京都市伏見区,中島秋ノ山町１２８番地,,26,109,6128462,,,,,,,2023-10-16,1,,,,,ナム,0
2736,9130003009034,新規,0,2023-10-16,2023-10-16,ｎｏｗ　ｐｒａｙｉｎｇ合同会社,,合同会社,京都府,舞鶴市,字福来９４０番地１,,26,202,6240905,,,,,,,2023-10-16,1,,,,,ナウプレイング,0
2737,9130003009042,新規,0,2023-10-16,2023-10-16,合同会社アシストライフ,,合同会社,京都府,京都市伏見区,竹田七瀬川町３６０番地７,,26,109,6128422,,,,,,,2023-10-16,1,,,,,アシストライフ,0
2752,9180001158456,新規,0,2023-10-16,2023-10-16,株式会社ワトフォード,,株式会社,愛知県,名古屋市瑞穂区,新開町１１番９号－４０３,,23,108,4670856,,,,,,,2023-10-16,1,,,,,ワトフォード,0
2753,9180001158464,新規,0,2023-10-16,2023-10-16,株式会社プリセット,,株式会社,愛知県,北名古屋市,中之郷栗島２６番地,,23,234,4810045,,,,,,,2023-10-16,1,,,,,プリセット,0
2754,9180001158472,新規,0,2023-10-16,2023-10-16,株式会社アソッカ,,株式会社,愛知県,名古屋市中村区,名駅３丁目４番１０号アルティメイト名駅１ｓｔ２階,,23,105,4500002,,,,,,,2023-10-16,1,,,,,アソッカ,0
2755,9180001158480,新規,0,2023-10-16,2023-10-16,株式会社ＦＭホールディングス,,株式会社,愛知県,豊明市,西川町長田１番地の５,,23,229,4701122,,,,,,,2023-10-16,1,,,,,エフエムホールディングス,0
2761,9180003025844,新規,0,2023-10-16,2023-10-16,合同会社絆,,合同会社,愛知県,名古屋市緑区,桶狭間南７２９番地,,23,114,4580927,,,,,,,2023-10-16,1,,,,,キズナ,0
2779,9230001020057,新規,0,2023-10-16,2023-10-16,株式会社佳誠,,株式会社,富山県,富山市,開１２番地４５,,16,201,9300944,,,,,,,2023-10-16,1,,,,,カセイ,0
2783,9240001062263,新規,0,2023-10-16,2023-10-16,プラスワンパートナーズ株式会社,,株式会社,広島県,尾道市,東御所町９番１号尾道ウォーターフロントビル３階,,34,205,7220036,,,,,,,2023-10-16,1,,,,,プラスワンパートナーズ,0
2787,9250003003363,新規,0,2023-10-16,2023-10-16,合同会社ＯＭ４,,合同会社,山口県,下関市,大字田倉２４５－３,,35,201,7510883,,,,,,,2023-10-16,1,,,,,オムフォー,0
2789,9260001038402,新規,0,2023-10-16,2023-10-16,株式会社あんくる,,株式会社,岡山県,岡山市中区,赤田１６８番地８,,33,102,7038231,,,,,,,2023-10-16,1,,,,,アンクル,0
2798,9290001103392,新規,0,2023-10-16,2023-10-16,株式会社白熊,,株式会社,福岡県,福岡市博多区,博多駅前４丁目１８番１９号博多フロントビル６０１号,,40,132,8120011,,,,,,,2023-10-16,1,,,,,シロクマ,0
2799,9290001103401,新規,0,2023-10-16,2023-10-16,株式会社昭ｔｉｍｅ　Ｃｏｍｐａｎｙ,,株式会社,福岡県,久留米市,山本町豊田１６５６番地３,,40,203,8390827,,,,,,,2023-10-16,1,,,,,ショウタイムカンパニー,0
2801,9290003014489,新規,0,2023-10-16,2023-10-16,合同会社Ｂｅ‐Ｔｈｒｅｅ,,合同会社,福岡県,福岡市東区,西戸崎５丁目８番４５号,,40,131,8110321,,,,,,,2023-10-16,1,,,,,ビースリー,0
2803,9290005019172,新規,0,2023-10-16,2023-10-16,一般社団法人こころことばアカデミー,,その他の設立登記法人,福岡県,福岡市早良区,原２丁目１０番３７－１１０９号レジデンシャル原ブランシエラノーブル・テラス,,40,137,8140022,,,,,,,2023-10-16,1,,,,,ココロコトバアカデミー,0
2805,9300001013499,新規,0,2023-10-16,2023-10-16,株式会社ＷＡＲＰ　ＤＥＳＩＧＮ　ＷＯＲＫＳ,,株式会社,佐賀県,佐賀市,赤松町６番１０号,,41,201,8400042,,,,,,,2023-10-16,1,,,,,ワープデザインワークス,0
2811,9320001020072,新規,0,2023-10-16,2023-10-16,株式会社Ｔａｉｚｅｎ,,株式会社,大分県,大分市,大字横尾３５３３番地の４,,44,201,8700126,,,,,,,2023-10-16,1,,,,,タイゼン,0
2816,9350003004459,新規,0,2023-10-16,2023-10-16,合同会社ＹＯＹＥ,,合同会社,宮崎県,都城市,郡元町４５７０－４３ＡＬＢＡ郡元１０２,,45,202,8850013,,,,,,,2023-10-16,1,,,,,ヨイエ,0
2821,9360001032667,新規,0,2023-10-16,2023-10-16,株式会社ＡＩＭ,,株式会社,沖縄県,那覇市,首里石嶺町４丁目３２９番地３・３階,,47,201,9030804,,,,,,,2023-10-16,1,,,,,アイム,0
2822,9360003013376,新規,0,2023-10-16,2023-10-16,合同会社笑明,,合同会社,沖縄県,島尻郡八重瀬町,字小城４６９番地１２,,47,362,9010415,,,,,,,2023-10-16,1,,,,,エア,0
2823,9370001050503,新規,0,2023-10-16,2023-10-16,株式会社ビー・スマート,,株式会社,宮城県,石巻市,蛇田字下谷地２３番地１１,,04,202,9860861,,,,,,,2023-10-16,1,,,,,ビースマート,0
2824,9370003006321,新規,0,2023-10-16,2023-10-16,合同会社中倉ベース,,合同会社,宮城県,仙台市若林区,中倉３丁目１２番１４号,,04,103,9840821,,,,,,,2023-10-16,1,,,,,ナカクラベース,0
2828,9390001017401,新規,0,2023-10-16,2023-10-16,株式会社ヒノデヤ,,株式会社,山形県,山形市,中桜田１丁目１０番１９号,,06,201,9902422,,,,,,,2023-10-16,1,,,,,ヒノデヤ,0
2836,9420003002810,新規,0,2023-10-16,2023-10-16,合同会社クリエイトＭ’ｓ,,合同会社,青森県,青森市,茶屋町２０番８号,,02,201,0300904,,,,,,,2023-10-16,1,,,,,クリエイトエムズ,0
2837,9430001090212,新規,0,2023-10-16,2023-10-16,ｍｓｓ株式会社,,株式会社,北海道,札幌市南区,真駒内泉町３丁目２番４号,,01,106,0050015,,,,,,,2023-10-16,1,,,,,エムエスエス,0
2839,9430003015522,新規,0,2023-10-16,2023-10-16,浜菊ファーム合同会社,,合同会社,北海道,沙流郡日高町,富川北３丁目１２番５号,,01,601,0550001,,,,,,,2023-10-16,1,,,,,ハマギクファーム,0
2840,9430005014811,新規,0,2023-10-16,2023-10-16,ワールドワン協同組合,,その他の設立登記法人,北海道,札幌市東区,東苗穂三条１丁目３番５０号Ｂ－３１８,,01,103,0070803,,,,,,,2023-10-16,1,,,,,ワールドワン,0
