sequenceNumber,corporateNumber,process,correct,updateDate,changeDate,name,nameImageId,kind,prefectureName,cityName,streetNumber,addressImageId,prefectureCode,cityCode,postCode,addressOutside,addressOutsideImageId,closeDate,closeCause,successorCorporateNumber,changeCause,assignmentDate,latest,enName,enPrefectureName,enCityName,enAddressOutside,furigana,hihyoji
9,1010001175871,登記記録の閉鎖等,0,2021-12-06,2021-12-01,株式会社ＳＡＹケアサービス,,株式会社,東京都,文京区,本駒込５丁目６７番９－７０１号,,13,105,1130021,,,2021-12-01,清算の結了等,,,2016-05-26,1,,,,,セイケアサービス,0
13,1010001182331,登記記録の閉鎖等,0,2021-12-06,2021-12-01,株式会社日経ＨＲエージェント,,株式会社,東京都,千代田区,大手町１丁目３番７号,,13,101,1000004,,,2021-12-01,合併による解散等,8010001053154,令和３年１２月１日東京都千代田区大手町一丁目３番７号株式会社日経ＨＲ（8010001053154）に合併し解散,2017-03-24,1,,,,,ニッケイエイチアールエージェント,0
16,1010001217145,登記記録の閉鎖等,0,2021-12-06,2021-12-01,株式会社ＯＮＯＤＥＲＡアドミニストレーション,,株式会社,東京都,千代田区,大手町１丁目１番３号,,13,101,1000004,,,2021-12-01,合併による解散等,6010001211366,令和３年１２月１日東京都千代田区大手町一丁目１番３号株式会社ＯＮＯＤＥＲＡマネジメント（6010001211366）に合併し解散,2021-04-07,1,,,,,オノデラアドミニストレーション,0
23,1010401148485,登記記録の閉鎖等,0,2021-12-06,2021-12-02,ＨａｎｄｙＢａｎｋ株式会社,,株式会社,東京都,港区,六本木３丁目６番９号,,13,103,1060032,,,2021-12-02,清算の結了等,,,2019-10-08,1,,,,,ハンディバンク,0
26,1010405014320,登記記録の閉鎖等,0,2021-12-06,2021-11-29,一般社団法人ＬＰＳ１,,その他の設立登記法人,東京都,港区,虎ノ門３丁目２２番１０－２０１号,,13,103,1050001,,,2021-11-29,清算の結了等,,,2015-11-12,1,,,,,エルピーエスワン,0
36,1010901006408,登記記録の閉鎖等,0,2021-12-06,2021-12-01,株式会社セキグチ,,株式会社,東京都,世田谷区,成城６丁目１５番２３号成城プラザ１Ｆ,,13,112,1570066,,,2021-12-01,合併による解散等,4010901006339,令和３年１２月１日東京都世田谷区成城六丁目１５番２３号成城プラザ１階成城補聴器株式会社（4010901006339）に合併し解散,2015-10-05,1,,,,,セキグチ,0
49,1011003009381,登記記録の閉鎖等,0,2021-12-06,2021-11-16,ＩＮＦＬＥＣＴＩＯＮ合同会社,,合同会社,東京都,渋谷区,広尾４丁目１番３０－１０２号,,13,113,1500012,,,2021-11-16,清算の結了等,,,2018-11-15,1,,,,,インフレクション,0
64,1011501021417,登記記録の閉鎖等,0,2021-12-06,2021-11-30,株式会社アクセル,,株式会社,東京都,北区,王子２丁目３０番７号,,13,117,1140002,,,2021-11-30,清算の結了等,,,2016-03-15,1,,,,,アクセル,0
82,1013102006838,登記記録の閉鎖等,0,2021-12-06,2021-12-02,有限会社三輪工務店,,有限会社,東京都,西多摩郡瑞穂町,長岡１丁目３３番地１２,,13,303,1901232,,,2021-12-02,清算の結了等,,,2015-10-05,1,,,,,,0
96,1020001119935,登記記録の閉鎖等,0,2021-12-06,2021-11-30,株式会社ねこや,,株式会社,東京都,豊島区,池袋本町４丁目３８－６大島ビル１階,,13,116,1700011,,,2021-11-30,清算の結了等,,,2017-02-14,1,,,,,ネコヤ,0
116,1030002034579,登記記録の閉鎖等,0,2021-12-06,2021-11-30,有限会社ヤマトエンジニアリング,,有限会社,埼玉県,狭山市,中央２丁目２３番２６号,,11,215,3501308,,,2021-11-30,清算の結了等,,,2015-10-05,1,,,,,ヤマトエンジニアリング,0
118,1030002089318,登記記録の閉鎖等,0,2021-12-06,2021-12-01,有限会社東都計画,,有限会社,埼玉県,越谷市,赤山本町６番地９,,11,222,3430808,,,2021-12-01,清算の結了等,,,2015-10-05,1,,,,,トウトケイカク,0
138,1060001023191,登記記録の閉鎖等,0,2021-12-06,2021-12-01,株式会社ＴＥＬＥＧＲＡＭ栃木,,株式会社,栃木県,宇都宮市,宿郷５丁目２７番１３菱電商事宇都宮ビル,,09,201,3210945,,,2021-12-01,清算の結了等,,,2015-10-05,1,,,,,テレグラムトチギ,0
143,1060005007950,登記記録の閉鎖等,0,2021-12-06,2021-12-01,特定非営利活動法人サンタの会,,その他の設立登記法人,栃木県,宇都宮市,上横田町８５３番地,,09,201,3210106,,,2021-12-01,清算の結了等,,,2015-10-05,1,,,,,サンタノカイ,0
161,1100003003567,登記記録の閉鎖等,0,2021-12-06,2021-11-30,合同会社ルミノ,,合同会社,長野県,諏訪郡下諏訪町,８９４５番地の６,,20,361,3930000,,,2021-11-30,清算の結了等,,,2015-10-05,1,,,,,ルミノ,0
172,1120001143875,登記記録の閉鎖等,0,2021-12-06,2021-12-01,株式会社マック,,株式会社,大阪府,大阪市東住吉区,鷹合２丁目７番２号,,27,121,5460014,,,2021-12-01,清算の結了等,,,2015-10-05,1,,,,,マック,0
175,1120001186115,登記記録の閉鎖等,0,2021-12-06,2021-12-01,株式会社カノン,,株式会社,大阪府,大阪市福島区,福島１丁目１番４８号,,27,103,5530003,,,2021-12-01,清算の結了等,,,2015-10-05,1,,,,,カノン,0
196,1122002005360,登記記録の閉鎖等,0,2021-12-06,2021-12-02,有限会社ワイユー,,有限会社,大阪府,東大阪市,東石切町６丁目７番７４号,,27,227,5798011,,,2021-12-02,清算の結了等,,,2015-10-05,1,,,,,ワイユー,0
216,1180001043797,登記記録の閉鎖等,0,2021-12-06,2021-12-01,株式会社食品機械開発,,株式会社,愛知県,清須市,西枇杷島町南二ツ杁２番地,,23,233,4520054,,,2021-12-01,清算の結了等,,,2015-10-05,1,,,,,ショクヒンキカイカイハツ,0
235,1220002004744,登記記録の閉鎖等,0,2021-12-06,2021-12-01,有限会社浜吉建設,,有限会社,石川県,金沢市,寺中町ホ７番地１,,17,201,9200341,,,2021-12-01,合併による解散等,2220001005387,令和３年１１月３０日石川県金沢市寺中町ホ７番地１浜田木材株式会社（2220001005387）に合併し解散,2015-10-05,1,,,,,ハマヨシケンセツ,0
245,1240005013071,登記記録の閉鎖等,0,2021-12-06,2021-12-03,一般財団法人広島カウンセリング・スクール,,その他の設立登記法人,広島県,広島市中区,土橋町６番３３号中国新聞別館５階,,34,101,7300854,,,2021-12-03,清算の結了等,,,2015-10-05,1,,,,,ヒロシマカウンセリングスクール,0
255,1290001088162,登記記録の閉鎖等,0,2021-12-06,2021-12-01,株式会社Ｈ・Ａ・Ｍ,,株式会社,福岡県,福岡市中央区,大名１丁目７－３ｍｏｄｅｒｎｐａｌａｚｚｏ大名３０２,,40,133,8100041,,,2021-12-01,合併による解散等,8290001069172,令和３年１２月１日福岡市中央区薬院四丁目１３番６３－１０１号株式会社ティーズアセット（8290001069172）に合併し解散,2020-02-26,1,,,,,エイチエーエム,0
271,1320003001144,登記記録の閉鎖等,0,2021-12-06,2021-12-01,合同会社三重酒販,,合同会社,大分県,豊後大野市,三重町赤嶺１５５２番地,,44,212,8797111,,,2021-12-01,合併による解散等,3320001002555,令和３年１２月１日大分市今津留一丁目１４番８号株式会社舞鶴酒販（3320001002555）に合併し解散,2015-10-05,1,,,,,ミエシュハン,0
275,1330005005415,登記記録の閉鎖等,0,2021-12-06,2021-12-01,農事組合法人六田酪農生産組合,,その他の設立登記法人,熊本県,熊本市南区,城南町六田９０番地,,43,104,8614237,,,2021-12-01,清算の結了等,,,2015-10-05,1,,,,,ムダラクノウセイサンクミアイ,0
311,2010001214918,登記記録の閉鎖等,0,2021-12-06,2021-12-01,株式会社ＳＰＡＬＯ,,株式会社,東京都,中央区,築地４丁目１番１７号,,13,102,1040045,,,2021-12-01,合併による解散等,3010001179458,令和３年１２月１日東京都中央区築地四丁目１番１７号株式会社ＭＪＳ　Ｆｉｎａｎｃｅ＆Ｔｅｃｈｎｏｌｏｇｙ（3010001179458）に合併し解散,2021-01-08,1,,,,,スパロ,0
316,2010002027022,登記記録の閉鎖等,0,2021-12-06,2021-12-01,有限会社東医協,,有限会社,東京都,中央区,京橋２丁目１１番８号,,13,102,1040031,,,2021-12-01,清算の結了等,,,2015-10-05,1,,,,,トウイキョウ,0
317,2010003020397,登記記録の閉鎖等,0,2021-12-06,2021-11-25,合同会社スマイル＆ドリーム,,合同会社,東京都,中央区,日本橋大伝馬町１３番７号日本橋大富ビル２Ｆ,,13,102,1030011,,,2021-11-25,清算の結了等,,,2015-10-05,1,,,,,スマイルアンドドリーム,0
334,2010501038008,登記記録の閉鎖等,0,2021-12-06,2021-12-02,株式会社ＴＭ　ｒｅｓ,,株式会社,東京都,台東区,松が谷２丁目１２番１－９０５号レガスタ浅草,,13,106,1110036,,,2021-12-02,清算の結了等,,,2015-10-05,1,,,,,ティーエムレジデンシャル,0
343,2011001005737,登記記録の閉鎖等,0,2021-12-06,2021-11-25,かねまつ管理株式会社,,株式会社,東京都,渋谷区,猿楽町１７番１６－４０２号,,13,113,1500033,,,2021-11-25,清算の結了等,,,2015-10-05,1,,,,,カネマツカンリ,0
365,2011602007586,登記記録の閉鎖等,0,2021-12-06,2021-12-02,有限会社ナガヤマランド,,有限会社,東京都,練馬区,羽沢３丁目２５番８号,,13,120,1760003,,,2021-12-02,清算の結了等,,,2015-10-05,1,,,,,ナガヤマランド,0
369,2011802006818,登記記録の閉鎖等,0,2021-12-06,2021-12-02,有限会社ブラストジャパン,,有限会社,東京都,葛飾区,新宿１丁目２２番８－１０１号,,13,122,1250051,,,2021-12-02,清算の結了等,,,2015-10-05,1,,,,,ブラストジャパン,0
377,2012402010763,登記記録の閉鎖等,0,2021-12-06,2021-12-01,有限会社川口オーガニゼーション,,有限会社,東京都,調布市,布田１丁目３０番地３,,13,208,1820024,,,2021-12-01,清算の結了等,,,2015-10-05,1,,,,,カワグチオーガニゼーション,0
393,2020002055484,登記記録の閉鎖等,0,2021-12-06,2021-12-01,有限会社カンズコーポレーション,,有限会社,神奈川県,横浜市中区,本牧原２０番２７－５１１号,,14,104,2310821,,,2021-12-01,清算の結了等,,,2015-10-05,1,,,,,カンズコーポレーション,0
398,2021001033613,登記記録の閉鎖等,0,2021-12-06,2021-11-30,株式会社スエヒロイメージング,,株式会社,神奈川県,小田原市,南鴨宮３丁目４番１８号,,14,206,2500875,,,2021-11-30,清算の結了等,,,2015-10-05,1,,,,,スエヒロイメージング,0
416,2030002054980,登記記録の閉鎖等,0,2021-12-06,2021-12-02,有限会社丸友ストアー,,有限会社,埼玉県,上尾市,愛宕１丁目２５番６号,,11,219,3620034,,,2021-12-02,清算の結了等,,,2015-10-05,1,,,,,マルトモストアー,0
417,2030002075969,登記記録の閉鎖等,0,2021-12-06,2021-11-30,有限会社資生ホーム,,有限会社,埼玉県,ふじみ野市,西２丁目１１番１３号,,11,245,3560005,,,2021-11-30,清算の結了等,,,2015-10-05,1,,,,,シセイホーム,0
421,2040001048966,登記記録の閉鎖等,0,2021-12-06,2021-11-30,株式会社小松防災,,株式会社,千葉県,四街道市,千代田５丁目１６番１１号,,12,228,2840015,,,2021-11-30,清算の結了等,,,2015-10-05,1,,,,,コマツボウサイ,0
442,2070001015716,登記記録の閉鎖等,0,2021-12-06,2021-12-01,岡田鋳造株式会社,,株式会社,群馬県,桐生市,新宿２丁目１２番１７号,,10,203,3760006,,,2021-12-01,清算の結了等,,,2015-10-05,1,,,,,オカダチュウゾウ,0
450,2100002038019,登記記録の閉鎖等,0,2021-12-06,2021-12-01,有限会社タナコウ,,有限会社,長野県,飯田市,川路８５４番地２,,20,205,3992431,,,2021-12-01,清算の結了等,,,2015-10-05,1,,,,,タナコウ,0
452,2110001016775,登記記録の閉鎖等,0,2021-12-06,2021-12-01,新潟エコエネルギー株式会社,,株式会社,新潟県,三条市,長沢１０４０番地,,15,204,9550157,,,2021-12-01,合併による解散等,4110002010395,令和３年１２月１日新潟県新潟市南区下曲通３２０番地１株式会社スーパージャングル（4110002010395）に合併し解散,2015-10-05,1,,,,,ニイガタエコエネルギー,0
478,2120903001865,登記記録の閉鎖等,0,2021-12-06,2021-12-02,合同会社Ｍ’ｓ工業,,合同会社,大阪府,豊中市,熊野町１丁目１２番３２号,,27,203,5600014,,,2021-12-02,清算の結了等,,,2016-02-17,1,,,,,エムズコウギョウ,0
484,2130002030311,登記記録の閉鎖等,0,2021-12-06,2021-11-30,有限会社協和製作所,,有限会社,京都府,八幡市,男山吉井２１番地３０,,26,210,6148363,,,2021-11-30,清算の結了等,,,2015-10-05,1,,,,,キョウワセイサクショ,0
499,2150001021540,登記記録の閉鎖等,0,2021-12-06,2021-12-02,株式会社エミテラス,,株式会社,奈良県,大和高田市,大字根成柿１８３番地１６,,29,202,6350051,,,2021-12-02,清算の結了等,,,2017-05-24,1,,,,,,0
505,2170002000665,登記記録の閉鎖等,0,2021-12-06,2021-12-03,有限会社小川青果,,有限会社,和歌山県,和歌山市,西浜１６６０番地の４０１,,30,201,6410036,,,2021-12-03,清算の結了等,,,2015-10-05,1,,,,,オガワセイカ,0
510,2180001101595,登記記録の閉鎖等,0,2021-12-06,2021-12-01,株式会社イージーエム,,株式会社,愛知県,あま市,坂牧北浦１０１番地,,23,237,4901115,,,2021-12-01,清算の結了等,,,2015-10-05,1,,,,,イージーエム,0
516,2180002053935,登記記録の閉鎖等,0,2021-12-06,2021-12-01,有限会社前田製作所,,有限会社,愛知県,名古屋市港区,八百島２丁目１７０１番地の３,,23,111,4550885,,,2021-12-01,清算の結了等,,,2015-10-05,1,,,,,マエダセイサクショ,0
518,2180002075938,登記記録の閉鎖等,0,2021-12-06,2021-12-01,有限会社オオクボ,,有限会社,愛知県,一宮市,住吉１丁目９番１９－５０３号,,23,203,4910919,,,2021-12-01,清算の結了等,,,2015-10-05,1,,,,,オオクボ,0
521,2180005006774,登記記録の閉鎖等,0,2021-12-06,2021-12-03,特定非営利活動法人名古屋臨床薬剤師研究会,,その他の設立登記法人,愛知県,名古屋市千種区,吹上１丁目２－１５サンライズ吹上ビル５Ｆ,,23,101,4640856,,,2021-12-03,清算の結了等,,,2015-10-05,1,,,,,ナゴヤリンショウヤクザイシケンキュウカイ,0
551,2250002006316,登記記録の閉鎖等,0,2021-12-06,2021-12-02,有限会社ボデーシヨツプドリーム,,有限会社,山口県,山陽小野田市,大字小野田７２５５番地,,35,216,7560817,,,2021-12-02,清算の結了等,,,2015-10-05,1,,,,,ボデーショップドリーム,0
578,2330002030753,登記記録の閉鎖等,0,2021-12-06,2021-11-30,有限会社みらい保険ジャパン,,有限会社,熊本県,人吉市,宝来町１０番地２１,,43,203,8680011,,,2021-11-30,清算の結了等,,,2015-10-05,1,,,,,,0
583,2360002017979,登記記録の閉鎖等,0,2021-12-06,2021-12-01,有限会社オ・エス・ケイ設計,,有限会社,沖縄県,中頭郡北中城村,字荻道５５４番地３－Ａ,,47,327,9012315,,,2021-12-01,清算の結了等,,,2015-10-05,1,,,,,オエスケイセッケイ,0
584,2360003003499,登記記録の閉鎖等,0,2021-12-06,2021-12-01,合資会社サミットカンパニー,,合資会社,沖縄県,浦添市,牧港１丁目６４番１９号,,47,208,9012131,,,2021-12-01,合併による解散等,3360001008796,令和３年１２月１日沖縄県浦添市牧港一丁目６４番１９号株式会社サミット商事（3360001008796）に合併し解散,2015-10-05,1,,,,,サミットカンパニー,0
585,2360003003739,登記記録の閉鎖等,0,2021-12-06,2021-11-30,町田住宅合資会社,,合資会社,沖縄県,中頭郡北谷町,字上勢頭６５１番地１,,47,326,9040101,,,2021-11-30,清算の結了等,,,2015-10-05,1,,,,,マチダジュウタク,0
592,2380001006428,登記記録の閉鎖等,0,2021-12-06,2021-11-30,株式会社フレンドリーシューズ,,株式会社,福島県,郡山市,大槻町字西ノ宮西８２番地６,,07,203,9630201,,,2021-11-30,清算の結了等,,,2015-10-05,1,,,,,フレンドリーシューズ,0
601,2400002010962,登記記録の閉鎖等,0,2021-12-06,2021-11-30,有限会社菊屋薬局,,有限会社,岩手県,下閉伊郡山田町,中央町１３番２号,,03,482,0281332,,,2021-11-30,清算の結了等,,,2015-10-05,1,,,,,キクヤヤッキョク,0
604,2420002013526,登記記録の閉鎖等,0,2021-12-06,2021-11-30,有限会社すずき和裁研究所,,有限会社,青森県,弘前市,大字徳田町２９番地３,,02,202,0368032,,,2021-11-30,清算の結了等,,,2015-10-05,1,,,,,スズキワサイケンキュウショ,0
607,2430001014631,登記記録の閉鎖等,0,2021-12-06,2021-12-01,株式会社北欧石材,,株式会社,北海道,札幌市中央区,南十一条西１丁目４番１２－３０７号,,01,101,0640811,,,2021-12-01,清算の結了等,,,2015-10-05,1,,,,,ホクオウセキザイ,0
618,2440002009869,登記記録の閉鎖等,0,2021-12-06,2021-12-02,有限会社渡辺建築,,有限会社,北海道,檜山郡江差町,字南浜町１７７番地の１,,01,361,0430063,,,2021-12-02,清算の結了等,,,2015-10-05,1,,,,,ワタナベケンチク,0
619,2450001012501,登記記録の閉鎖等,0,2021-12-06,2021-12-02,株式会社ライジング,,株式会社,北海道,旭川市,工業団地三条２丁目２番３５号,,01,204,0788273,,,2021-12-02,清算の結了等,,,2018-08-02,1,,,,,ライジング,0
653,3010601034327,登記記録の閉鎖等,0,2021-12-06,2021-12-01,ワイズテック株式会社,,株式会社,東京都,江東区,有明３丁目７番２６号,,13,108,1350063,,,2021-12-01,清算の結了等,,,2015-10-05,1,,,,,ワイズテック,0
664,3011001127919,登記記録の閉鎖等,0,2021-12-06,2021-11-24,株式会社グラット,,株式会社,東京都,渋谷区,渋谷３丁目１番９号３階,,13,113,1500002,,,2021-11-24,清算の結了等,,,2019-05-28,1,,,,,グラット,0
688,3011802025395,登記記録の閉鎖等,0,2021-12-06,2021-11-26,有限会社ナカニシ,,有限会社,東京都,葛飾区,奥戸２丁目２番７号,,13,122,1240022,,,2021-11-26,清算の結了等,,,2015-10-05,1,,,,,ナカニシ,0
691,3012803002540,登記記録の閉鎖等,0,2021-12-06,2021-12-01,合同会社ＩＤＭ,,合同会社,東京都,東大和市,向原２丁目７７８－９１,,13,220,2070013,,,2021-12-01,清算の結了等,,,2021-07-07,1,,,,,アイディーエム,0
718,3021002071215,登記記録の閉鎖等,0,2021-12-06,2021-12-01,有限会社恒心社,,有限会社,神奈川県,逗子市,逗子７丁目１２番３２号,,14,208,2490006,,,2021-12-01,清算の結了等,,,2015-10-05,1,,,,,コウシンシャ,0
723,3030001089886,登記記録の閉鎖等,0,2021-12-06,2021-12-01,株式会社町田木材,,株式会社,埼玉県,飯能市,大字下名栗１１５４番地,,11,209,3570112,,,2021-12-01,清算の結了等,,,2015-10-05,1,,,,,マチダモクザイ,0
744,3040001050194,登記記録の閉鎖等,0,2021-12-06,2021-12-02,株式会社門田建設,,株式会社,千葉県,松戸市,紙敷１５６番地の２アンビシャス東松戸ゆいの花公園２０４号,,12,207,2702221,,,2021-12-02,清算の結了等,,,2015-10-05,1,,,,,,0
745,3040001068154,登記記録の閉鎖等,0,2021-12-06,2021-12-01,アイメックジャパン株式会社,,株式会社,埼玉県,所沢市,大字日比田字向山５５２番地１,,11,208,3590015,,,2021-12-01,清算の結了等,,,2015-10-05,1,,,,,アイメックジャパン,0
755,3050001037769,登記記録の閉鎖等,0,2021-12-06,2021-12-01,株式会社タカトミ,,株式会社,茨城県,石岡市,東田中１１９２番地１,,08,205,3150034,,,2021-12-01,合併による解散等,1050001011908,令和３年１２月１日茨城県小美玉市中延１４６番地株式会社松坂屋（1050001011908）に合併し解散,2015-10-05,1,,,,,タカトミ,0
761,3060001027744,登記記録の閉鎖等,0,2021-12-06,2021-11-25,株式会社ファントム,,株式会社,栃木県,宇都宮市,東宿郷１丁目５番１７号東城ビル２Ｆ,,09,201,3210953,,,2021-11-25,合併による解散等,2060001027844,令和３年１０月３１日栃木県宇都宮市東宿郷一丁目５番１７号東城ビル２Ｆ株式会社マスタープラン（2060001027844）に合併し解散,2015-12-04,1,,,,,ファントム,0
765,3060002016952,登記記録の閉鎖等,0,2021-12-06,2021-11-30,有限会社秋山製作所,,有限会社,栃木県,真岡市,清水１３７６番地１４,,09,209,3214402,,,2021-11-30,清算の結了等,,,2015-10-05,1,,,,,アキヤマセイサクジョ,0
788,3120001069045,登記記録の閉鎖等,0,2021-12-06,2021-11-30,株式会社パブリシテイーナツク,,株式会社,大阪府,大阪市北区,天神橋２丁目５番２５号,,27,127,5300041,,,2021-11-30,清算の結了等,,,2015-10-05,1,,,,,パブリシテイーナック,0
790,3120001153253,登記記録の閉鎖等,0,2021-12-06,2021-12-01,枚方ＰＦＩ学校環境サービス株式会社,,株式会社,大阪府,枚方市,西禁野１丁目３番３５号,,27,210,5731192,,,2021-12-01,清算の結了等,,,2015-10-05,1,,,,,ヒラカタピーエフアイガッコウカンキョウサービス,0
821,3130003003174,登記記録の閉鎖等,0,2021-12-06,2021-12-01,京都環境合同会社,,合同会社,京都府,長岡京市,長岡１丁目４７番２５号,,26,209,6170823,,,2021-12-01,清算の結了等,,,2015-10-05,1,,,,,キョウトカンキョウ,0
837,3180001090524,登記記録の閉鎖等,0,2021-12-06,2021-11-29,株式会社エイゲン,,株式会社,愛知県,尾張旭市,平子町中通１３０番地２１,,23,226,4880873,,,2021-11-29,清算の結了等,,,2015-10-05,1,,,,,エイゲン,0
855,3180002040346,登記記録の閉鎖等,0,2021-12-06,2021-12-01,有限会社システムカワイ,,有限会社,愛知県,清須市,西田中白山６３番地,,23,233,4520933,,,2021-12-01,清算の結了等,,,2015-10-05,1,,,,,システムカワイ,0
857,3180003010827,登記記録の閉鎖等,0,2021-12-06,2021-12-01,合資会社松原製陶所,,合資会社,愛知県,瀬戸市,小田妻町１丁目１１８番地,,23,204,4890067,,,2021-12-01,清算の結了等,,,2015-10-05,1,,,,,マツバラセイトウジョ,0
879,3220002007043,登記記録の閉鎖等,0,2021-12-06,2021-12-02,有限会社興伸調査教育コンサルタント,,有限会社,石川県,金沢市,光が丘２丁目１１５番地,,17,201,9218142,,,2021-12-02,清算の結了等,,,2015-10-05,1,,,,,コウシンチョウサキョウイクコンサルタント,0
906,3290801006263,登記記録の閉鎖等,0,2021-12-06,2021-11-24,段谷産業株式会社,,株式会社,福岡県,北九州市小倉北区,東港２丁目５番１２号,,40,106,8030802,,,2021-11-24,清算の結了等,,,2018-06-26,1,,,,,ダンタニサンギョウ,0
937,3410002008294,登記記録の閉鎖等,0,2021-12-06,2021-11-30,有限会社虻政商事,00086710,有限会社,秋田県,大館市,字土飛山下３２番地１,,05,204,0170884,,,2021-11-30,清算の結了等,,,2015-10-05,1,,,,,アブマサショウジ,0
975,4010402027066,登記記録の閉鎖等,0,2021-12-06,2021-11-30,有限会社エアー・シルフ,,有限会社,東京都,千代田区,丸の内１丁目１番１号,,13,101,1000005,,,2021-11-30,清算の結了等,,,2015-10-05,1,,,,,エアーシルフ,0
988,4010801018450,登記記録の閉鎖等,0,2021-12-06,2021-11-30,株式会社ウェルビ,,株式会社,東京都,大田区,田園調布３丁目３７番１７号,,13,111,1450071,,,2021-11-30,清算の結了等,,,2015-10-05,1,,,,,ウェルビ,0
1010,4011101079761,登記記録の閉鎖等,0,2021-12-06,2021-11-30,ＷＩＴＨ　ＤＯＩＴ株式会社,,株式会社,埼玉県,さいたま市中央区,八王子１丁目６番１８号,,11,105,3380006,,,2021-11-30,清算の結了等,,,2017-03-06,1,,,,,ウィズドイト,0
1027,4013301040825,登記記録の閉鎖等,0,2021-12-06,2021-11-30,株式会社月曜朝イチまで,,株式会社,東京都,豊島区,北大塚２丁目１８番８号,,13,116,1700004,,,2021-11-30,清算の結了等,,,2017-07-20,1,,,,,ゲツヨウアサイチマデ,0
1058,4030002041804,登記記録の閉鎖等,0,2021-12-06,2021-11-30,有限会社太専運輸,,有限会社,埼玉県,羽生市,大字中岩瀬４３１番地３,,11,216,3480046,,,2021-11-30,清算の結了等,,,2015-10-05,1,,,,,タイセンウンユ,0
1089,4080001012454,登記記録の閉鎖等,0,2021-12-06,2021-12-01,株式会社サンド,,株式会社,静岡県,静岡市清水区,草薙１丁目２６番４７号ロイヤルシャトー草薙１０２号室,,22,103,4240886,,,2021-12-01,清算の結了等,,,2015-10-05,1,,,,,サンド,0
1102,4120001052801,登記記録の閉鎖等,0,2021-12-06,2021-11-18,株式会社ファーイースト・エンターテインメント,,株式会社,大阪府,大阪市東淀川区,豊新１丁目２１番２２号,,27,114,5330014,,,2021-11-18,清算の結了等,,,2015-10-05,1,,,,,ファーイーストエンターテインメント,0
1104,4120001117372,登記記録の閉鎖等,0,2021-12-06,2021-12-01,株式会社やすらぎ,,株式会社,大阪府,大阪市東住吉区,湯里１丁目１４番２８号,,27,121,5460013,,,2021-12-01,清算の結了等,,,2015-10-05,1,,,,,ヤスラギ,0
1109,4120001232007,登記記録の閉鎖等,0,2021-12-06,2021-12-01,ブルーベルズ株式会社,,株式会社,大阪府,大阪市西成区,天神ノ森２丁目９番１９号キングスアベニュー北畠３０１号,,27,122,5570013,,,2021-12-01,清算の結了等,,,2020-09-28,1,,,,,ブルーベルズ,0
1115,4120003015946,登記記録の閉鎖等,0,2021-12-06,2021-12-01,Ａｓｈｎａ合同会社,,合同会社,大阪府,大阪市浪速区,難波中２丁目１０番７０号,,27,111,5560011,,,2021-12-01,清算の結了等,,,2019-07-05,1,,,,,アシュナ,0
1158,4180003011031,登記記録の閉鎖等,0,2021-12-06,2021-12-01,合資会社清水陶苑製陶所,,合資会社,愛知県,尾張旭市,霞ケ丘町北１８３番地,,23,226,4880847,,,2021-12-01,清算の結了等,,,2015-10-05,1,,,,,シミズトウキセイトウショ,0
1167,4180305004014,登記記録の閉鎖等,0,2021-12-06,2021-12-03,医療法人御津クリニック,,その他の設立登記法人,愛知県,豊川市,御津町広石船津１１番地５,,23,207,4410321,,,2021-12-03,清算の結了等,,,2015-10-05,1,,,,,ミトクリニック,0
1193,4290001081305,登記記録の閉鎖等,0,2021-12-06,2021-12-01,株式会社豊華,,株式会社,福岡県,福岡市博多区,中洲４丁目７番２１号５Ｆ,,40,132,8100801,,,2021-12-01,清算の結了等,,,2018-04-25,1,,,,,トヨハナ,0
1196,4290002042735,登記記録の閉鎖等,0,2021-12-06,2021-12-01,有限会社ギャラクシー,,有限会社,福岡県,大野城市,御笠川１丁目１３番３号,,40,219,8160912,,,2021-12-01,合併による解散等,6290001041810,令和３年１２月１日福岡県大野城市御笠川一丁目１３番３号株式会社晃暉（6290001041810）に合併し解散,2015-10-05,1,,,,,ギャラクシー,0
1206,4330002024126,登記記録の閉鎖等,0,2021-12-06,2021-12-01,有限会社冨士田印刷所,,有限会社,熊本県,宇城市,小川町西北小川４０２番地,,43,213,8690622,,,2021-12-01,清算の結了等,,,2015-10-05,1,,,,,フジタインサツショ,0
1280,5010501011358,登記記録の閉鎖等,0,2021-12-06,2021-12-03,株式会社ナラ・アド,,株式会社,東京都,台東区,台東３丁目５番１０－２１０号,,13,106,1100016,,,2021-12-03,清算の結了等,,,2015-10-05,1,,,,,ナラアド,0
1288,5010901002865,登記記録の閉鎖等,0,2021-12-06,2021-12-01,株式会社上北沢自動車学校,,株式会社,東京都,世田谷区,上北沢１丁目５番１６号,,13,112,1560057,,,2021-12-01,清算の結了等,,,2015-10-05,1,,,,,カミキタザワジドウシャガッコウ,0
1295,5011001021285,登記記録の閉鎖等,0,2021-12-06,2021-11-26,ブロンドール株式会社,,株式会社,奈良県,北葛城郡広陵町,大字大塚３００番地１,,29,426,6350834,,,2021-11-26,清算の結了等,,,2015-10-05,1,,,,,ブロンドール,0
1308,5011101032926,登記記録の閉鎖等,0,2021-12-06,2021-12-01,株式会社リベロ・アンド・カンパニー,,株式会社,東京都,新宿区,弁天町８７番地,,13,104,1620851,,,2021-12-01,清算の結了等,,,2015-10-05,1,,,,,,0
1313,5011105003270,登記記録の閉鎖等,0,2021-12-06,2021-11-29,一般社団法人ＫＺ１,,その他の設立登記法人,東京都,新宿区,四谷１丁目４番地あると法律経済綜合事務所気付,,13,104,1600004,,,2021-11-29,清算の結了等,,,2015-10-05,1,,,,,ケーゼットワン,0
1338,5020001028265,登記記録の閉鎖等,0,2021-12-06,2021-12-01,ニハシ印刷株式会社,,株式会社,神奈川県,横浜市中区,宮川町１丁目１３番地,,14,104,2310065,,,2021-12-01,清算の結了等,,,2021-08-30,1,,,,,ニハシインサツ,0
1346,5020002056265,登記記録の閉鎖等,0,2021-12-06,2021-12-01,有限会社コバヤシ,,有限会社,神奈川県,横浜市緑区,上山３丁目４０番１－Ａ１０４号,,14,113,2260012,,,2021-12-01,清算の結了等,,,2015-10-05,1,,,,,コバヤシ,0
1382,5040001084307,登記記録の閉鎖等,0,2021-12-06,2021-12-01,株式会社京葉地商,,株式会社,千葉県,市川市,原木１丁目１３番１号,,12,203,2720004,,,2021-12-01,清算の結了等,,,2015-10-05,1,,,,,ケイヨウチショウ,0
1398,5070002021454,登記記録の閉鎖等,0,2021-12-06,2021-12-03,有限会社エイビイシーホーム,,有限会社,群馬県,佐波郡玉村町,大字下新田９００番地１,,10,464,3701132,,,2021-12-03,清算の結了等,,,2015-10-05,1,,,,,エイビイシーホーム,0
1446,5140002011175,登記記録の閉鎖等,0,2021-12-06,2021-12-01,黒田興産有限会社,,有限会社,兵庫県,神戸市兵庫区,七宮町１丁目５番１１号,,28,105,6520831,,,2021-12-01,合併による解散等,9140001012947,令和３年１２月１日神戸市須磨区高倉台二丁目７番１７号黒田食品株式会社（9140001012947）に合併し解散,2015-10-05,1,,,,,クロダコウサン,0
1454,5160002006578,登記記録の閉鎖等,0,2021-12-06,2021-12-03,有限会社清水仏壇店,,有限会社,滋賀県,米原市,上丹生６５３番地,,25,214,5210033,,,2021-12-03,清算の結了等,,,2015-10-05,1,,,,,シミズブツダンテン,0
1459,5170001012832,登記記録の閉鎖等,0,2021-12-06,2021-12-02,Ｎｏｘｉｌｉｚｅｒ　Ｊａｐａｎ株式会社,,株式会社,和歌山県,和歌山市,北島４０４番地８６,,30,201,6408403,,,2021-12-02,清算の結了等,,,2015-10-05,1,,,,,ノクシライザージャパン,0
1463,5180001008672,登記記録の閉鎖等,0,2021-12-06,2021-12-01,太陽通商株式会社,,株式会社,愛知県,愛知郡東郷町,大字諸輪字池上１番地１,,23,302,4700151,,,2021-12-01,合併による解散等,1180001079536,令和３年１２月１日愛知県愛知郡東郷町大字諸輪字池上１番地１株式会社ペルシード（1180001079536）に合併し解散,2015-10-05,1,,,,,タイヨウツウショウ,0
1474,5180002027770,登記記録の閉鎖等,0,2021-12-06,2021-12-01,有限会社佐々木ガレージ,,有限会社,愛知県,名古屋市西区,名駅２丁目２３番１４号,,23,104,4510045,,,2021-12-01,清算の結了等,,,2015-10-05,1,,,,,ササキガレージ,0
1489,5200001027397,登記記録の閉鎖等,0,2021-12-06,2021-12-02,株式会社山善,,株式会社,岐阜県,岐阜市,入舟町５丁目２７番地１,,21,201,5008152,,,2021-12-02,清算の結了等,,,2015-10-05,1,,,,,ヤマゼン,0
1512,5240002039545,登記記録の閉鎖等,0,2021-12-06,2021-11-30,有限会社エイユー設計,,有限会社,広島県,福山市,春日町２丁目４番３０号,,34,207,7210907,,,2021-11-30,清算の結了等,,,2015-10-05,1,,,,,エイユーセッケイ,0
1530,5290002043716,登記記録の閉鎖等,0,2021-12-06,2021-11-29,有限会社ドライブイン柳八,,有限会社,福岡県,朝倉市,山田２２７０番地,,40,228,8381306,,,2021-11-29,清算の結了等,,,2015-10-05,1,,,,,ドライブインヤナギヤ,0
1564,5420001012435,登記記録の閉鎖等,0,2021-12-06,2021-11-30,株式会社中島商店,,株式会社,青森県,むつ市,苫生町１丁目１番７号,,02,208,0350055,,,2021-11-30,清算の結了等,,,2015-10-05,1,,,,,ナカジマショウテン,0
1568,5430002004158,登記記録の閉鎖等,0,2021-12-06,2021-11-30,有限会社岡部デザイン事務所,,有限会社,北海道,札幌市中央区,南八条西２５丁目２番２２号,,01,101,0640808,,,2021-11-30,清算の結了等,,,2015-10-05,1,,,,,オカベデザインジムショ,0
1571,5450005003452,登記記録の閉鎖等,0,2021-12-06,2021-12-03,紋別地方建具家具工業協同組合,,その他の設立登記法人,北海道,紋別市,幸町７丁目１番２１号,,01,219,0940005,,,2021-12-03,清算の結了等,,,2015-10-05,1,,,,,モンベツチホウタテグカグコウギョウ,0
1579,6010001125302,登記記録の閉鎖等,0,2021-12-06,2021-12-01,株式会社タッツ・コンサルティング,,株式会社,東京都,中央区,銀座７丁目１３番５号ＮＲＥＧ銀座ビル１Ｆ,,13,102,1040061,,,2021-12-01,清算の結了等,,,2015-10-05,1,,,,,タッツコンサルティング,0
1581,6010001170199,登記記録の閉鎖等,0,2021-12-06,2021-11-30,株式会社オンワード・ジェイ・ブリッジ,,株式会社,東京都,中央区,日本橋３丁目１０番５号,,13,102,1030027,,,2021-11-30,清算の結了等,,,2015-10-05,1,,,,,オンワードジェイブリッジ,0
1592,6010101008373,登記記録の閉鎖等,0,2021-12-06,2021-12-02,やまかフードサービス株式会社,,株式会社,東京都,八王子市,三崎町三丁目８番琥珀ビル１Ｆ,,13,201,1920084,,,2021-12-02,清算の結了等,,,2015-10-05,1,,,,,,0
1594,6010401074768,登記記録の閉鎖等,0,2021-12-06,2021-12-03,ティーアンドピー株式会社,,株式会社,東京都,渋谷区,宇田川町３７番１４号,,13,113,1500042,,,2021-12-03,清算の結了等,,,2015-10-05,1,,,,,ティーアンドピー,0
1613,6010603008623,登記記録の閉鎖等,0,2021-12-06,2021-11-30,合同会社アメン・ラー,,合同会社,東京都,江東区,木場３丁目１０－１－１Ｆ,,13,108,1350042,,,2021-11-30,清算の結了等,,,2020-11-16,1,,,,,アメンラー,0
1625,6011001112182,登記記録の閉鎖等,0,2021-12-06,2021-12-02,株式会社ＡｒｏｗＺ,,株式会社,東京都,渋谷区,千駄ヶ谷２丁目１番９号,,13,113,1510051,,,2021-12-02,清算の結了等,,,2016-08-04,1,,,,,,0
1631,6011101093380,登記記録の閉鎖等,0,2021-12-06,2021-11-30,株式会社ゼロワン,,株式会社,東京都,新宿区,歌舞伎町２丁目４番１１号ノア新宿１３０７号,,13,104,1600021,,,2021-11-30,清算の結了等,,,2020-12-07,1,,,,,ゼロワン,0
1637,6011501000028,登記記録の閉鎖等,0,2021-12-06,2021-11-30,株式会社藍,,株式会社,東京都,北区,神谷３丁目１８番８号,,13,117,1150043,,,2021-11-30,清算の結了等,,,2015-10-05,1,,,,,アイ,0
1638,6011501006693,登記記録の閉鎖等,0,2021-12-06,2021-12-01,株式会社サニーボックス・インターナショナル,,株式会社,東京都,荒川区,西尾久５丁目４番１４号,,13,118,1160011,,,2021-12-01,清算の結了等,,,2015-10-05,1,,,,,サニーボックスインターナショナル,0
1650,6011802001113,登記記録の閉鎖等,0,2021-12-06,2021-12-02,有限会社江川鉄工所,,有限会社,東京都,葛飾区,東四つ木４丁目２２番９号,,13,122,1240014,,,2021-12-02,清算の結了等,,,2015-10-05,1,,,,,エガワテッコウショ,0
1658,6013202014166,登記記録の閉鎖等,0,2021-12-06,2021-11-24,有限会社サクラトゥエス,,有限会社,東京都,目黒区,下目黒１丁目３番１号,,13,110,1530064,,,2021-11-24,清算の結了等,,,2015-10-05,1,,,,,サクラトゥエス,0
1659,6013301019702,登記記録の閉鎖等,0,2021-12-06,2021-11-30,株式会社天鈴,,株式会社,東京都,豊島区,池袋１丁目７番３２号,,13,116,1700014,,,2021-11-30,清算の結了等,,,2015-10-05,1,,,,,テンスズ,0
1678,6021001020632,登記記録の閉鎖等,0,2021-12-06,2021-12-01,株式会社ワークシステム,,株式会社,神奈川県,厚木市,長谷６１４番地１,,14,212,2430036,,,2021-12-01,清算の結了等,,,2015-10-05,1,,,,,,0
1685,6021002023840,登記記録の閉鎖等,0,2021-12-06,2021-11-30,有限会社藤原クレーンサービス,,有限会社,神奈川県,相模原市中央区,陽光台２丁目７番７号,,14,152,2520226,,,2021-11-30,清算の結了等,,,2015-10-05,1,,,,,フジワラクレーンサービス,0
1701,6030002017595,登記記録の閉鎖等,0,2021-12-06,2021-11-30,有限会社ニコニコ堂スタッフ・サービス,,有限会社,埼玉県,さいたま市見沼区,東大宮４丁目１７番地１１,,11,104,3370051,,,2021-11-30,合併による解散等,4030001101451,令和３年１１月３０日埼玉県さいたま市大宮区宮町一丁目４０番地株式会社ニコニコ堂（4030001101451）に合併し解散,2015-10-05,1,,,,,ニコニコドウスタッフサービス,0
1705,6030002113948,登記記録の閉鎖等,0,2021-12-06,2021-12-02,有限会社野口木工所,,有限会社,埼玉県,熊谷市,河原町１丁目１５０番地,,11,202,3600035,,,2021-12-02,清算の結了等,,,2015-10-05,1,,,,,ノグチモッコウショ,0
1753,6120001096648,登記記録の閉鎖等,0,2021-12-06,2021-12-01,株式会社ヴェルテ,,株式会社,大阪府,大阪市中央区,船場中央１丁目４番３－１２１号,,27,128,5410055,,,2021-12-01,清算の結了等,,,2015-10-05,1,,,,,ヴェルテ,0
1777,6122001024241,登記記録の閉鎖等,0,2021-12-06,2021-12-02,オムニテック株式会社,,株式会社,奈良県,生駒市,小平尾町２２２番地３２,,29,209,6300226,,,2021-12-02,清算の結了等,,,2015-10-05,1,,,,,オムニテック,0
1788,6140001049901,登記記録の閉鎖等,0,2021-12-06,2021-11-30,橘開発株式会社,,株式会社,兵庫県,尼崎市,大庄北２丁目１４番１号,,28,202,6600063,,,2021-11-30,清算の結了等,,,2015-10-05,1,,,,,タチバナカイハツ,0
1804,6180001079886,登記記録の閉鎖等,0,2021-12-06,2021-12-01,株式会社２３,,株式会社,愛知県,瀬戸市,東山町１丁目７６番地,,23,204,4890988,,,2021-12-01,合併による解散等,7180001079150,令和３年１２月１日愛知県瀬戸市東山町一丁目７６番地日産株式会社（7180001079150）に合併し解散,2015-10-05,1,,,,,ツースリー,0
1807,6180001120278,登記記録の閉鎖等,0,2021-12-06,2021-12-01,株式会社Ｇ－トラスト,,株式会社,愛知県,春日井市,神屋町２２６８番地２,,23,206,4800304,,,2021-12-01,清算の結了等,,,2015-10-05,1,,,,,ジートラスト,0
1814,6180002018042,登記記録の閉鎖等,0,2021-12-06,2021-12-01,有限会社山王木材商会,,有限会社,愛知県,名古屋市中川区,山王１丁目４番５号,,23,110,4540011,,,2021-12-01,清算の結了等,,,2015-10-05,1,,,,,サンノウモクザイショウカイ,0
1818,6180002076734,登記記録の閉鎖等,0,2021-12-06,2021-12-01,有限会社大一電設,,有限会社,愛知県,一宮市,東出町２４番地の３,,23,203,4910056,,,2021-12-01,清算の結了等,,,2015-10-05,1,,,,,ダイイチデンセツ,0
1822,6180303003164,登記記録の閉鎖等,0,2021-12-06,2021-12-02,合資会社Ｎ＆Ｋトラスト,,合資会社,愛知県,豊橋市,石巻中山町字向イ４番地,,23,201,4411104,,,2021-12-02,清算の結了等,,,2015-10-05,1,,,,,エヌアンドケートラスト,0
1830,6220001009806,登記記録の閉鎖等,0,2021-12-06,2021-12-01,総合保安サービス株式会社,,株式会社,石川県,金沢市,直江町イ１番地１,,17,201,9208216,,,2021-12-01,清算の結了等,,,2015-10-05,1,,,,,ソウゴウホアンサービス,0
1845,6240005007960,登記記録の閉鎖等,0,2021-12-06,2021-12-01,農事組合法人福山種鶏場,,その他の設立登記法人,広島県,福山市,東深津町７丁目８番３１号,,34,207,7210974,,,2021-12-01,清算の結了等,,,2021-11-04,1,,,,,フクヤマシュケイジョウ,0
1856,6270002009750,登記記録の閉鎖等,0,2021-12-06,2021-12-01,有限会社野口建機,,有限会社,鳥取県,東伯郡琴浦町,大字八幡２２５番地１,,31,371,6892541,,,2021-12-01,合併による解散等,9270002009748,令和３年１２月１日鳥取県東伯郡琴浦町大字八幡２２５番地１株式会社野口Ｐｒｏ（9270002009748）に合併し解散,2015-10-05,1,,,,,ノグチケンキ,0
1869,6290802015467,登記記録の閉鎖等,0,2021-12-06,2021-11-29,有限会社美原薬局,,有限会社,福岡県,北九州市八幡西区,永犬丸東町３丁目１９番１２号,,40,109,8070842,,,2021-11-29,清算の結了等,,,2015-10-05,1,,,,,ミハラヤッキョク,0
1871,6290802015995,登記記録の閉鎖等,0,2021-12-06,2021-12-01,有限会社野田電機商会,,有限会社,福岡県,北九州市八幡西区,引野３丁目９番３１－２０２号,,40,109,8060067,,,2021-12-01,清算の結了等,,,2015-10-05,1,,,,,ノダデンキショウカイ,0
1881,6330001009778,登記記録の閉鎖等,0,2021-12-06,2021-12-02,株式会社ツバメガスサービス熊本,,株式会社,熊本県,菊池郡菊陽町,光の森７丁目５１番地８,,43,404,8691108,,,2021-12-02,清算の結了等,,,2015-10-05,1,,,,,ツバメガスサービスクマモト,0
1888,6340005006481,登記記録の閉鎖等,0,2021-12-06,2021-11-25,医療法人重久歯科医院,,その他の設立登記法人,鹿児島県,鹿屋市,向江町１１番１８号,,46,203,8930006,,,2021-11-25,清算の結了等,,,2015-10-05,1,,,,,シゲヒサシカイイン,0
1897,6370501000497,登記記録の閉鎖等,0,2021-12-06,2021-11-30,森博食品株式会社,,株式会社,宮城県,気仙沼市,川原崎４２番地の１,,04,205,9880824,,,2021-11-30,清算の結了等,,,2015-10-05,1,,,,,モリヒロショクヒン,0
1919,6440002002291,登記記録の閉鎖等,0,2021-12-06,2021-12-02,有限会社スパゲッティハウスパスタリア,,有限会社,北海道,函館市,本町７番２０号,,01,202,0400011,,,2021-12-02,清算の結了等,,,2015-10-05,1,,,,,スパゲッティハウスパスタリア,0
1924,6500002009297,登記記録の閉鎖等,0,2021-12-06,2021-12-03,有限会社ハウザー,,有限会社,愛媛県,松山市,東長戸１丁目１０番３８号,,38,201,7918005,,,2021-12-03,清算の結了等,,,2015-10-05,1,,,,,ハウザー,0
1928,7010001019494,登記記録の閉鎖等,0,2021-12-06,2021-12-01,株式会社ジェイ・エム・アイ,,株式会社,東京都,千代田区,神田和泉町一丁目１１番地,,13,101,1010024,,,2021-12-01,清算の結了等,,,2015-10-05,1,,,,,ジェイエムアイ,0
1946,7010401031264,登記記録の閉鎖等,0,2021-12-06,2021-11-29,株式会社ラフィーネ,,株式会社,東京都,港区,北青山３丁目１５番１３号,,13,103,1070061,,,2021-11-29,清算の結了等,,,2015-10-05,1,,,,,,0
1957,7010403009606,登記記録の閉鎖等,0,2021-12-06,2021-11-30,合同会社ＧＫ４８,,合同会社,東京都,港区,虎ノ門３丁目２２番１０－２０１号,,13,103,1050001,,,2021-11-30,清算の結了等,,,2015-10-05,1,,,,,ジーケーフォーエイト,0
1986,7011005002940,登記記録の閉鎖等,0,2021-12-06,2021-11-15,特定非営利活動法人国際環境・安全衛生ガバナンス機構,,その他の設立登記法人,東京都,渋谷区,道玄坂１丁目２１番１号ＳＨＩＢＵＹＡＳＯＬＡＳＴＡ３階,,13,113,1500043,,,2021-11-15,清算の結了等,,,2015-10-05,1,,,,,,0
2008,7011701011063,登記記録の閉鎖等,0,2021-12-06,2021-12-02,株式会社相國,,株式会社,埼玉県,越谷市,大字南荻島３５５５番２,,11,222,3430804,,,2021-12-02,清算の結了等,,,2015-10-05,1,,,,,アイコク,0
2022,7012802002744,登記記録の閉鎖等,0,2021-12-06,2021-12-03,有限会社市村タイル,,有限会社,東京都,昭島市,松原町１丁目３２番５号,,13,207,1960003,,,2021-12-03,清算の結了等,,,2015-10-05,1,,,,,イチムラタイル,0
2031,7020001116877,登記記録の閉鎖等,0,2021-12-06,2021-12-01,株式会社リヴライクフリー,,株式会社,神奈川県,横浜市金沢区,釜利谷西２丁目３４番２号,,14,108,2360046,,,2021-12-01,清算の結了等,,,2016-07-05,1,,,,,リヴライクフリー,0
2036,7020002068688,登記記録の閉鎖等,0,2021-12-06,2021-12-01,有限会社しげる工業,,有限会社,神奈川県,横浜市瀬谷区,下瀬谷１丁目２番地の６,,14,114,2460035,,,2021-12-01,清算の結了等,,,2015-10-05,1,,,,,シゲルコウギョウ,0
2040,7020005008889,登記記録の閉鎖等,0,2021-12-06,2021-12-01,東芝変電機器テクノロジー労働組合,,その他の設立登記法人,神奈川県,川崎市川崎区,浮島町２番１号、東芝労働組合浜川崎支部内,,14,131,2100862,,,2021-12-01,清算の結了等,,,2015-10-05,1,,,,,トウシバヘンデンキキテクノロジー,0
2066,7030002055396,登記記録の閉鎖等,0,2021-12-06,2021-12-02,有限会社アイデアンエンジニアリング,,有限会社,埼玉県,桶川市,末広３丁目１６番１４号,,11,231,3630012,,,2021-12-02,清算の結了等,,,2015-10-05,1,,,,,アイデアンエンジニアリング,0
2068,7030002125050,登記記録の閉鎖等,0,2021-12-06,2021-12-01,有限会社共林建設,,有限会社,埼玉県,川越市,大字藤間１７６番地,,11,201,3501142,,,2021-12-01,清算の結了等,,,2021-10-19,1,,,,,キョウリンケンセツ,0
2075,7040001085352,登記記録の閉鎖等,0,2021-12-06,2021-12-02,フィーカ株式会社,,株式会社,千葉県,船橋市,本町１丁目５番１号ｎｅｘｔ船橋２０４号,,12,204,2730005,,,2021-12-02,清算の結了等,,,2015-10-05,1,,,,,フィーカ,0
2089,7060001018418,登記記録の閉鎖等,0,2021-12-06,2021-11-26,岡田編織株式会社,,株式会社,栃木県,足利市,松田町２９１番地,,09,202,3260101,,,2021-11-26,清算の結了等,,,2015-10-05,1,,,,,オカダヘンショク,0
2100,7080001010521,登記記録の閉鎖等,0,2021-12-06,2021-12-02,株式会社昌建,,株式会社,静岡県,静岡市葵区,足久保奥組８７１番地の２,,22,101,4212125,,,2021-12-02,清算の結了等,,,2015-10-05,1,,,,,ショウケン,0
2104,7080101013168,登記記録の閉鎖等,0,2021-12-06,2021-12-01,株式会社ツバサ商店,,株式会社,静岡県,伊東市,吉田５７２番地５,,22,208,4140051,,,2021-12-01,清算の結了等,,,2015-10-05,1,,,,,ツバサショウテン,0
2120,7120001133648,登記記録の閉鎖等,0,2021-12-06,2021-11-22,株式会社ジョイント,,株式会社,大阪府,大阪市北区,堂山町１０番１５号天神ビル３階,,27,127,5300027,,,2021-11-22,合併による解散等,9120001157091,令和３年１１月２２日大阪府門真市島頭一丁目６番２６号Ｈ＆Ｉビル下島頭２－Ｂ株式会社いまむら工務店（9120001157091）に合併し解散,2015-10-05,1,,,,,ジョイント,0
2191,7180302023526,登記記録の閉鎖等,0,2021-12-06,2021-12-01,有限会社マネジメント・ヨコイ,,有限会社,愛知県,豊田市,高岡本町南２１番地６,,23,211,4730922,,,2021-12-01,清算の結了等,,,2015-10-05,1,,,,,マネジメントヨコイ,0
2202,7220001006661,登記記録の閉鎖等,0,2021-12-06,2021-12-02,株式会社マネジメントワークス,,株式会社,石川県,金沢市,竪町１６番地,,17,201,9200997,,,2021-12-02,清算の結了等,,,2015-10-05,1,,,,,マネジメントワークス,0
2207,7230001011173,登記記録の閉鎖等,0,2021-12-06,2021-12-01,株式会社和光,,株式会社,富山県,高岡市,六家１２０９番地,,16,202,9330321,,,2021-12-01,清算の結了等,,,2015-10-05,1,,,,,ワコウ,0
2214,7240002035229,登記記録の閉鎖等,0,2021-12-06,2021-11-30,有限会社ミナト物産,,有限会社,広島県,呉市,仁方皆実町１１番１０号,,34,202,7370156,,,2021-11-30,合併による解散等,7240001026336,令和３年１１月３０日広島県呉市広白岳二丁目１０番２３号株式会社智幸（7240001026336）に合併し解散,2015-10-05,1,,,,,ミナトブッサン,0
2259,7390001015076,登記記録の閉鎖等,0,2021-12-06,2021-12-01,株式会社Ｚｅｒｏ１,,株式会社,山形県,寒河江市,東新山町２２２番地の２,,06,206,9910046,,,2021-12-01,清算の結了等,,,2017-10-11,1,,,,,,0
2260,7390002011743,登記記録の閉鎖等,0,2021-12-06,2021-12-01,最上砂利有限会社,,有限会社,山形県,村山市,大字大久保甲１４９４番地,,06,208,9950111,,,2021-12-01,清算の結了等,,,2015-10-05,1,,,,,モガミジャリ,0
2296,8010002005699,登記記録の閉鎖等,0,2021-12-06,2021-11-30,有限会社町田ビル,,有限会社,東京都,文京区,白山５丁目３６番１４号,,13,105,1120001,,,2021-11-30,清算の結了等,,,2015-10-05,1,,,,,マチダビル,0
2299,8010005002280,登記記録の閉鎖等,0,2021-12-06,2021-12-02,国民民主党,,その他の設立登記法人,東京都,千代田区,永田町１丁目１１番１号三宅坂ビル,,13,101,1000014,,,2021-12-02,清算の結了等,,,2015-10-05,1,,,,,コクミンミンシュトウ,0
2302,8010401129826,登記記録の閉鎖等,0,2021-12-06,2021-11-30,株式会社Ｔａｍａｇｏ,,株式会社,東京都,中央区,東日本橋２丁目７番１号,,13,102,1030004,,,2021-11-30,合併による解散等,3010901034654,令和３年１１月３０日東京都中央区東日本橋二丁目７番１号フロンティア東日本橋５階株式会社ＢＥＬ　ＡＩＲ（3010901034654）に合併し解散,2017-02-24,1,,,,,タマゴ,0
2313,8010503005850,登記記録の閉鎖等,0,2021-12-06,2021-12-02,ジェイパケット合同会社,,合同会社,埼玉県,草加市,瀬崎６丁目８－１５,,11,221,3400022,,,2021-12-02,清算の結了等,,,2020-03-09,1,,,,,ジェイパケット,0
2318,8010701036581,登記記録の閉鎖等,0,2021-12-06,2021-12-01,株式会社ＩＴキャリアコンサルティング,,株式会社,東京都,品川区,西五反田２丁目２４番７号,,13,109,1410031,,,2021-12-01,合併による解散等,1010701021771,令和３年１２月１日東京都品川区東五反田五丁目２２番３７号株式会社クリスク（1010701021771）に合併し解散,2018-10-12,1,,,,,アイティーキャリアコンサルティング,0
2325,8010901048815,登記記録の閉鎖等,0,2021-12-06,2021-12-01,三穂ホールディングス株式会社,,株式会社,東京都,世田谷区,玉川台２丁目２２番２０号イイダアネックスＶＩＩ４０５号,00123274,13,112,1580096,,,2021-12-01,合併による解散等,9010901001194,令和３年１２月１日東京都世田谷区玉川台二丁目２２番２０号イイダアネックス７－４０５号株式会社一光（9010901001194）に合併し解散,2021-06-07,1,,,,,ミツホホールディングス,0
2366,8020001008264,登記記録の閉鎖等,0,2021-12-06,2021-12-02,ＩＢＣ株式会社,,株式会社,神奈川県,横浜市南区,永田みなみ台１番２－１００４号,,14,105,2320075,,,2021-12-02,清算の結了等,,,2015-10-05,1,,,,,アイビーシー,0
2391,8030001102132,登記記録の閉鎖等,0,2021-12-06,2021-12-01,株式会社ポートアクールジャパン,,株式会社,埼玉県,北葛飾郡杉戸町,大字下高野３１３番地１,,11,464,3450043,,,2021-12-01,合併による解散等,6030001097267,令和３年１２月１日埼玉県北葛飾郡杉戸町大字下高野３１３番地１株式会社アースブロージャパン（6030001097267）に合併し解散,2015-10-05,1,,,,,ポートアクールジャパン,0
2431,8080002004265,登記記録の閉鎖等,0,2021-12-06,2021-12-03,有限会社鳥十,,有限会社,静岡県,島田市,大井町１番の３扇マンション２０３号,,22,209,4270025,,,2021-12-03,清算の結了等,,,2015-10-05,1,,,,,トリジュウ,0
2434,8080401014567,登記記録の閉鎖等,0,2021-12-06,2021-12-01,株式会社ロイノス,,株式会社,静岡県,掛川市,長谷１丁目１６番地の１１,,22,213,4360047,,,2021-12-01,清算の結了等,,,2015-10-05,1,,,,,ロイノス,0
2466,8120901031025,登記記録の閉鎖等,0,2021-12-06,2021-12-01,三和産業株式会社,,株式会社,大阪府,箕面市,桜井３丁目１番１８号,,27,220,5620043,,,2021-12-01,清算の結了等,,,2015-10-05,1,,,,,サンワサンギョウ,0
2487,8160005009848,登記記録の閉鎖等,0,2021-12-06,2021-12-02,一般社団法人滋賀県ケータリング協会,,その他の設立登記法人,滋賀県,野洲市,南櫻１８３１番地２,,25,210,5202322,,,2021-12-02,清算の結了等,,,2015-10-05,1,,,,,シガケンケータリングキョウカイ,0
2499,8180002044350,登記記録の閉鎖等,0,2021-12-06,2021-12-02,有限会社ダイヤトニックシステム,,有限会社,愛知県,名古屋市瑞穂区,本願寺町１丁目６番地,,23,108,4670814,,,2021-12-02,清算の結了等,,,2015-10-05,1,,,,,ダイヤトニックシステム,0
2513,8220001008632,登記記録の閉鎖等,0,2021-12-06,2021-12-02,行動調査株式会社,,株式会社,石川県,金沢市,光が丘２丁目１１５番地,,17,201,9218142,,,2021-12-02,清算の結了等,,,2015-10-05,1,,,,,コウドウチョウサ,0
2522,8240001012921,登記記録の閉鎖等,0,2021-12-06,2021-11-30,株式会社カーリゾート広島,,株式会社,広島県,広島市佐伯区,八幡東４丁目２２番１７号,,34,108,7315115,,,2021-11-30,清算の結了等,,,2015-10-05,1,,,,,カーリゾートヒロシマ,0
2528,8240005002043,登記記録の閉鎖等,0,2021-12-06,2021-12-02,広島旭商店街振興組合,,その他の設立登記法人,広島県,広島市南区,旭１丁目１４番１４号,,34,103,7340036,,,2021-12-02,清算の結了等,,,2015-10-05,1,,,,,ヒロシマアサヒ,0
2536,8260005002917,登記記録の閉鎖等,0,2021-12-06,2021-12-02,特定非営利活動法人岡山県介護支援専門員協会,,その他の設立登記法人,岡山県,岡山市中区,西川原２５１－１,,33,102,7038258,,,2021-12-02,清算の結了等,,,2015-10-05,1,,,,,オカヤマケンカイゴシエンセンモンインキョウカイ,0
2544,8290002013914,登記記録の閉鎖等,0,2021-12-06,2021-11-29,有限会社アールアンドエス,,有限会社,福岡県,福岡市博多区,青木１丁目７番４３号,,40,132,8120851,,,2021-11-29,清算の結了等,,,2015-10-05,1,,,,,アールアンドエス,0
2550,8320001012748,登記記録の閉鎖等,0,2021-12-06,2021-12-02,阿部興産株式会社,,株式会社,大分県,竹田市,荻町宮平３６４９番地１,,44,208,8796123,,,2021-12-02,清算の結了等,,,2015-10-05,1,,,,,アベコウサン,0
2596,8490001009380,登記記録の閉鎖等,0,2021-12-06,2021-12-03,株式会社裕貴,,株式会社,高知県,高岡郡四万十町,仁井田７７０番地２,,39,412,7860021,,,2021-12-03,清算の結了等,,,2019-09-27,1,,,,,ユウキ,0
2597,8500002017752,登記記録の閉鎖等,0,2021-12-06,2021-12-03,有限会社伊豫エンジニアリング,,有限会社,愛媛県,今治市,徳重２７８番地８,,38,202,7940863,,,2021-12-03,清算の結了等,,,2015-10-05,1,,,,,イヨエンジニアリング,0
2636,9010701037785,登記記録の閉鎖等,0,2021-12-06,2021-11-30,株式会社ＩＴ　ＪＯＢ,,株式会社,東京都,品川区,南大井３丁目２０番５号５階,,13,109,1400013,,,2021-11-30,清算の結了等,,,2019-06-24,1,,,,,アイティージョブ,0
2669,9011101075590,登記記録の閉鎖等,0,2021-12-06,2021-11-30,フォーチュン株式会社,,株式会社,大阪府,泉佐野市,鶴原１１１３番地の２,,27,213,5980071,,,2021-11-30,清算の結了等,,,2016-01-06,1,,,,,フォーチュン,0
2690,9012301009264,登記記録の閉鎖等,0,2021-12-06,2021-12-01,株式会社楓の風横浜都筑,,株式会社,神奈川県,横浜市神奈川区,鶴屋町３丁目３２番地１３,,14,102,2210835,,,2021-12-01,合併による解散等,5012301008294,令和３年１２月１日横浜市神奈川区鶴屋町三丁目３２番地１３株式会社楓の風（5012301008294）に合併し解散,2015-10-05,1,,,,,カエデノカゼヨコハマツヅキ,0
2754,9040003012526,登記記録の閉鎖等,0,2021-12-06,2021-12-02,合同会社サニーワーク,,合同会社,千葉県,八千代市,八千代台東６丁目６番１３号,,12,221,2760032,,,2021-12-02,清算の結了等,,,2018-11-28,1,,,,,サニーワーク,0
2774,9080401014319,登記記録の閉鎖等,0,2021-12-06,2021-12-02,株式会社斉藤工務店,,株式会社,静岡県,掛川市,日坂１５３番地の１,,22,213,4360003,,,2021-12-02,清算の結了等,,,2015-10-05,1,,,,,,0
2797,9120901016289,登記記録の閉鎖等,0,2021-12-06,2021-12-01,株式会社セブンリンク,,株式会社,大阪府,茨木市,田中町１８番２３号,,27,211,5670025,,,2021-12-01,合併による解散等,6120901037131,令和３年１２月１日大阪府茨木市田中町１８番２３号株式会社七輪ホールディングス（6120901037131）に合併し解散,2015-10-05,1,,,,,セブンリンク,0
2803,9130001045667,登記記録の閉鎖等,0,2021-12-06,2021-12-01,京都旬らぼ株式会社,,株式会社,京都府,相楽郡精華町,大字下狛小字流口２２番地２,,26,366,6190245,,,2021-12-01,清算の結了等,,,2015-10-05,1,,,,,キョウトシュンラボ,0
2804,9130002034306,登記記録の閉鎖等,0,2021-12-06,2021-12-01,有限会社三鶴醤油問屋,,有限会社,京都府,舞鶴市,字浜８０１番地,,26,202,6250036,,,2021-12-01,清算の結了等,,,2015-10-05,1,,,,,サンカクショウユドンヤ,0
2810,9140001065284,登記記録の閉鎖等,0,2021-12-06,2021-12-01,信栄海運建設株式会社,,株式会社,兵庫県,姫路市,家島町真浦６０６番地,,28,201,6720101,,,2021-12-01,清算の結了等,,,2015-10-05,1,,,,,シンエイカイウンケンセツ,0
2839,9180002030366,登記記録の閉鎖等,0,2021-12-06,2021-11-29,有限会社加藤惠康設備設計,,有限会社,愛知県,名古屋市中区,千代田３丁目４番７号,,23,106,4600012,,,2021-11-29,清算の結了等,,,2015-10-05,1,,,,,カトウケイヤスセツビセッケイ,0
2851,9200002004854,登記記録の閉鎖等,0,2021-12-06,2021-12-03,有限会社もゆ,,有限会社,岐阜県,岐阜市,蔵前７丁目１０番８号,,21,201,5008233,,,2021-12-03,清算の結了等,,,2015-10-05,1,,,,,モユ,0
2852,9200002006388,登記記録の閉鎖等,0,2021-12-06,2021-12-03,有限会社加納縫製,,有限会社,岐阜県,山県市,高富２７７８番地の１６,,21,215,5012105,,,2021-12-03,清算の結了等,,,2015-10-05,1,,,,,カノウホウセイ,0
2865,9240001030179,登記記録の閉鎖等,0,2021-12-06,2021-12-01,小川建窓株式会社,,株式会社,広島県,福山市,加茂町大字下加茂１０１９番地の１,,34,207,7202412,,,2021-12-01,清算の結了等,,,2015-10-05,1,,,,,オガワケンソウ,0
2879,9280005007335,登記記録の閉鎖等,0,2021-12-06,2021-12-02,一般社団法人コンソーシアム津和野設立準備社団,,その他の設立登記法人,島根県,鹿足郡津和野町,後田ハ１２番地３,,32,501,6995605,,,2021-12-02,清算の結了等,,,2020-03-24,1,,,,,コンソーシアムツワノセツリツジュンビシャダン,0
2891,9290802007115,登記記録の閉鎖等,0,2021-12-06,2021-12-01,有限会社わたなべ産業,,有限会社,福岡県,北九州市小倉南区,葛原元町２丁目８番２３号,,40,107,8000254,,,2021-12-01,清算の結了等,,,2015-10-05,1,,,,,ワタナベサンギョウ,0
2903,9330002007729,登記記録の閉鎖等,0,2021-12-06,2021-12-01,有限会社南陽企画,,有限会社,熊本県,熊本市北区,梶尾町１１０７番地８２,,43,105,8615512,,,2021-12-01,清算の結了等,,,2015-10-05,1,,,,,ナンヨウキカク,0
2933,9420001008900,登記記録の閉鎖等,0,2021-12-06,2021-11-30,株式会社エスケイケイ総合研究所,,株式会社,青森県,弘前市,大字徳田町２９番地３,,02,202,0368032,,,2021-11-30,清算の結了等,,,2015-10-05,1,,,,,エスケイケイソウゴウケンキュウショ,0
