sequenceNumber,corporateNumber,process,correct,updateDate,changeDate,name,nameImageId,kind,prefectureName,cityName,streetNumber,addressImageId,prefectureCode,cityCode,postCode,addressOutside,addressOutsideImageId,closeDate,closeCause,successorCorporateNumber,changeCause,assignmentDate,latest,enName,enPrefectureName,enCityName,enAddressOutside,furigana,hihyoji
8,1010001225057,新規,0,2022-03-08,2022-03-08,株式会社バドラバ,,株式会社,東京都,中央区,銀座１丁目２２番１１号銀座大竹ビジデンス２階,,13,102,1040061,,,,,,,2022-03-08,1,,,,,バドラバ,0
9,1010001225073,新規,0,2022-03-08,2022-03-08,日本北川セイコー株式会社,,株式会社,東京都,中央区,日本橋蛎殻町１丁目３番５号共同ビル２階２３号,,13,102,1030014,,,,,,,2022-03-08,1,,,,,ニホンキタカワセイコー,0
12,1010003037178,新規,0,2022-03-08,2022-03-08,アスロックＨＩＭ合同会社,,合同会社,東京都,中央区,日本橋小伝馬町１４－５メローナ日本橋６０１号,,13,102,1030001,,,,,,,2022-03-08,1,,,,,アスロックエイチアイエム,0
17,1010401166009,新規,0,2022-03-08,2022-03-08,株式会社金猫工作室,,株式会社,東京都,港区,南青山２丁目１５番５号ＦＡＲＯ青山１階,,13,103,1070062,,,,,,,2022-03-08,1,,,,,カネココウサクシツ,0
18,1010401166017,新規,0,2022-03-08,2022-03-08,株式会社ＮｏｏｏＤ,,株式会社,東京都,港区,南青山２丁目２番１５号,,13,103,1070062,,,,,,,2022-03-08,1,,,,,ノード,0
19,1010401166025,新規,0,2022-03-08,2022-03-08,株式会社ハイライフ,,株式会社,東京都,港区,浜松町２丁目２番１５号浜松町ダイヤビル２Ｆ,,13,103,1050013,,,,,,,2022-03-08,1,,,,,ハイライフ,0
20,1010401166074,新規,0,2022-03-08,2022-03-08,株式会社Ｂａｎｓｏｕ不動産,,株式会社,東京都,港区,虎ノ門１丁目１番１２号－８０２,,13,103,1050001,,,,,,,2022-03-08,1,,,,,バンソウフドウサン,0
22,1010405020764,新規,0,2022-03-08,2022-03-08,医療法人社団表日会,,その他の設立登記法人,東京都,港区,北青山３丁目１０番９号川島ビル８階,,13,103,1070061,,,,,,,2022-03-08,1,,,,,ヒョウビカイ,0
33,1010703006143,新規,0,2022-03-08,2022-03-08,合同会社三鏡,,合同会社,東京都,品川区,南品川５丁目１４－１８－７０２,,13,109,1400004,,,,,,,2022-03-08,1,,,,,サンキョウ,0
37,1010901050488,新規,0,2022-03-08,2022-03-08,株式会社ＳＰＥＡ,,株式会社,東京都,世田谷区,赤堤４丁目４２番２０号,,13,112,1560044,,,,,,,2022-03-08,1,,,,,スピア,0
38,1010903007180,新規,0,2022-03-08,2022-03-08,Ｗａｌｄｋｏｎｚｅｒｔ合同会社,,合同会社,東京都,世田谷区,桜上水２丁目１３番６号,,13,112,1560045,,,,,,,2022-03-08,1,,,,,ヴァルトコンツェルト,0
39,1010903007197,新規,0,2022-03-08,2022-03-08,ＷＹＭＯＳ合同会社,,合同会社,東京都,世田谷区,成城８丁目２４番３－４０１号,,13,112,1570066,,,,,,,2022-03-08,1,,,,,ワイモス,0
40,1010905004275,新規,0,2022-03-08,2022-03-08,医療法人社団Ｕｎｉｔｅｄ　ｂｙ　ＳＳＳ,,その他の設立登記法人,東京都,世田谷区,桜丘３丁目１０番２２号メディカルヴィレッジ桜丘１階,,13,112,1560054,,,,,,,2022-03-08,1,,,,,ユナイテッドバイエスエスエス,0
48,1011001146251,新規,0,2022-03-08,2022-03-08,株式会社インテグラル,,株式会社,東京都,渋谷区,代々木１丁目３０番１４号天翔ＡＮＮＥＸビル地下一階０１０号室,,13,113,1510053,,,,,,,2022-03-08,1,,,,,インテグラル,0
59,1011301027606,新規,0,2022-03-08,2022-03-08,株式会社ＰＬＢｅ,,株式会社,東京都,杉並区,永福２丁目４２番１２号１Ｂ,,13,115,1680064,,,,,,,2022-03-08,1,,,,,ピーエルビー,0
63,1011601025771,新規,0,2022-03-08,2022-03-08,株式会社ステラ,,株式会社,東京都,練馬区,東大泉１丁目３２－２ヨシハヤビル３Ａ,,13,120,1780063,,,,,,,2022-03-08,1,,,,,ステラ,0
81,1020002008113,新規,0,2022-03-08,2022-03-08,有限会社サロンドジユリエ,,有限会社,神奈川県,横浜市金沢区,瀬戸２番５号,,14,108,2360027,,,,,,,2022-03-08,1,,,,,サロンドジュリエ,0
86,1020003021404,新規,0,2022-03-08,2022-03-08,合同会社Ｄ‐Ｚｏｔｔ,,合同会社,神奈川県,川崎市川崎区,大島１丁目２６番６－８０２号,,14,131,2100834,,,,,,,2022-03-08,1,,,,,ディーゾット,0
87,1020003021420,新規,0,2022-03-08,2022-03-08,合同会社Ｅｎｉｓｈｉ,,合同会社,神奈川県,横浜市港南区,日限山３丁目２７番１３号,,14,111,2330015,,,,,,,2022-03-08,1,,,,,エニシ,0
94,1021001075367,新規,0,2022-03-08,2022-03-08,株式会社アプローズ,,株式会社,神奈川県,藤沢市,鵠沼東８番１号,,14,205,2510026,,,,,,,2022-03-08,1,,,,,アプローズ,0
95,1021001075391,新規,0,2022-03-08,2022-03-08,株式会社オンウェイ,,株式会社,神奈川県,茅ヶ崎市,浜竹３丁目１番４８号,,14,207,2530021,,,,,,,2022-03-08,1,,,,,オンウェイ,0
100,1021003011452,新規,0,2022-03-08,2022-03-08,合同会社湘南ＴＭＲセンター,,合同会社,神奈川県,伊勢原市,上粕屋５４８番地,,14,214,2591141,,,,,,,2022-03-08,1,,,,,ショウナンティーエムアールセンター,0
107,1030001147167,新規,0,2022-03-08,2022-03-08,株式会社マルケンホーム,,株式会社,埼玉県,川口市,北園町３５番１号,,11,203,3330862,,,,,,,2022-03-08,1,,,,,マルケンホーム,0
114,1030003018977,新規,0,2022-03-08,2022-03-08,ハテナソース合同会社,,合同会社,埼玉県,所沢市,松葉町３番８号２階,,11,208,3590044,,,,,,,2022-03-08,1,,,,,ハテナソース,0
121,1040001122499,新規,0,2022-03-08,2022-03-08,株式会社共栄アプローチ,,株式会社,千葉県,市原市,今富３１４番地の３,,12,219,2900265,,,,,,,2022-03-08,1,,,,,キョウエイアプローチ,0
122,1040001122516,新規,0,2022-03-08,2022-03-08,株式会社Ｓ－ｌｉｎｅ,,株式会社,千葉県,船橋市,本中山７丁目８番１０号プランタンビル３Ａ,,12,204,2730035,,,,,,,2022-03-08,1,,,,,エスライン,0
128,1040003019603,新規,0,2022-03-08,2022-03-08,合同会社エイチストリーム,,合同会社,千葉県,松戸市,常盤平６丁目１５番地の２４,,12,207,2702261,,,,,,,2022-03-08,1,,,,,エイチストリーム,0
129,1050001050749,新規,0,2022-03-08,2022-03-08,株式会社ラバーロード,,株式会社,茨城県,坂東市,菅谷１１１３番地,,08,228,3060505,,,,,,,2022-03-08,1,,,,,ラバーロード,0
130,1050003006419,新規,0,2022-03-08,2022-03-08,合同会社インフィニット,,合同会社,茨城県,ひたちなか市,大字田彦６２１番地,,08,221,3120063,,,,,,,2022-03-08,1,,,,,インフィニット,0
131,1050005013025,新規,0,2022-03-08,2022-03-08,一般社団法人茨っ子未来応援基金,,その他の設立登記法人,茨城県,高萩市,大字安良川２７２番地１８５,,08,214,3180021,,,,,,,2022-03-08,1,,,,,イバッコミライオウエンキキン,0
136,1060003003943,新規,0,2022-03-08,2022-03-08,合同会社ＳＨＯＵＫＯＵ　ＪＡＰＡＮ,,合同会社,栃木県,足利市,小俣町１７６４－３グランルージュ１０５,,09,202,3260141,,,,,,,2022-03-08,1,,,,,ショウコウジャパン,0
140,1080403004481,新規,0,2022-03-08,2022-03-08,あいうえおプロジェクト合同会社,,合同会社,静岡県,浜松市北区,三ヶ日町都筑１９４４番地の１,,22,135,4311402,,,,,,,2022-03-08,1,,,,,アイウエオプロジェクト,0
152,1120001244260,新規,0,2022-03-08,2022-03-08,徳山製パン餅加工所株式会社,,株式会社,大阪府,大阪市生野区,桃谷４丁目６番１６号,,27,116,5440034,,,,,,,2022-03-08,1,,,,,トクヤマセイパンモチカコウジョ,0
153,1120001244310,新規,0,2022-03-08,2022-03-08,株式会社ミライノシステム,,株式会社,大阪府,大阪市福島区,福島５丁目１番１２号,,27,103,5530003,,,,,,,2022-03-08,1,,,,,ミライノシステム,0
156,1120003021138,新規,0,2022-03-08,2022-03-08,合同会社フィールドビサイド,,合同会社,大阪府,大阪市阿倍野区,播磨町１丁目２０－２３－１０３,,27,119,5450022,,,,,,,2022-03-08,1,,,,,フィールドビサイド,0
157,1120003021237,新規,0,2022-03-08,2022-03-08,合同会社グロウエントランス,,合同会社,大阪府,大阪市北区,梅田１丁目１番３号大阪駅前第３ビル２３０７,,27,127,5300001,,,,,,,2022-03-08,1,,,,,グロウエントランス,0
158,1120003021261,新規,0,2022-03-08,2022-03-08,合同会社Ｂｅｅｒ　Ｏ’Ｃｌｏｃｋ,,合同会社,大阪府,大阪市西区,江戸堀１丁目７番１３号倉庵ビル３０１号室,,27,106,5500002,,,,,,,2022-03-08,1,,,,,ビアオークロック,0
175,1130001071258,新規,0,2022-03-08,2022-03-08,株式会社高坂鶏農園,00125890,株式会社,京都府,船井郡京丹波町,下大久保畑ケセ６５－１,,26,407,6220451,,,,,,,2022-03-08,1,,,,,タカサカトリノウエン,0
176,1130001071282,新規,0,2022-03-08,2022-03-08,エタニティホールディングス株式会社,,株式会社,京都府,京都市北区,大北山原谷乾町６４番地の１,,26,101,6038487,,,,,,,2022-03-08,1,,,,,エタニティホールディングス,0
177,1130001071299,新規,0,2022-03-08,2022-03-08,京電設株式会社,,株式会社,京都府,京都市伏見区,向島吹田河原町９４－２エクセレンテ１０２,,26,109,6128124,,,,,,,2022-03-08,1,,,,,キョウデンセツ,0
180,1130005016399,新規,0,2022-03-08,2022-03-08,一般社団法人直七,,その他の設立登記法人,京都府,京都市下京区,福本町４２５,,26,106,6008320,,,,,,,2022-03-08,1,,,,,ナオシチ,0
193,1140001125112,新規,0,2022-03-08,2022-03-08,株式会社タカラ,,株式会社,兵庫県,加古川市,加古川町稲屋４４４番地４,,28,210,6750034,,,,,,,2022-03-08,1,,,,,タカラ,0
209,1180305009313,新規,0,2022-03-08,2022-03-08,医療法人ルミエール,,その他の設立登記法人,愛知県,豊田市,浄水町南平２１番１,,23,211,4700343,,,,,,,2022-03-08,1,,,,,ルミエール,0
213,1200001039842,新規,0,2022-03-08,2022-03-08,株式会社ＳＨＩＮＺＡＮ,,株式会社,岐阜県,多治見市,北丘町８丁目１番地の１５７,,21,204,5070064,,,,,,,2022-03-08,1,,,,,シンザン,0
220,1240003005541,新規,0,2022-03-08,2022-03-08,合同会社ＬＩＬＹ,,合同会社,広島県,福山市,松浜町１丁目１番１２号ゴールドパレスビル４階,,34,207,7200802,,,,,,,2022-03-08,1,,,,,リリィ,0
226,1260003003824,新規,0,2022-03-08,2022-03-08,リーフグリーン合同会社,,合同会社,岡山県,津山市,材木町６８－１８岡本ビル,,33,203,7080031,,,,,,,2022-03-08,1,,,,,リーフグリーン,0
227,1260003003832,新規,0,2022-03-08,2022-03-08,啓ルイ合同会社,,合同会社,岡山県,岡山市北区,清輝橋２丁目２－５エスプローネ清輝橋４０３号室,,33,101,7000861,,,,,,,2022-03-08,1,,,,,ケイルイ,0
236,1290001096719,新規,0,2022-03-08,2022-03-08,株式会社８７８７,,株式会社,福岡県,那珂川市,五郎丸１丁目４－１０３,,40,231,8111252,,,,,,,2022-03-08,1,,,,,ハナハナ,0
241,1290003012186,新規,0,2022-03-08,2022-03-08,合同会社オーハシ,,合同会社,福岡県,福岡市南区,塩原３丁目１８‐３荒木ハイツ１０２,,40,134,8150032,,,,,,,2022-03-08,1,,,,,オーハシ,0
242,1290003012252,新規,0,2022-03-08,2022-03-08,合同会社ＭＵＲＡＫＡＭＩ商事,,合同会社,福岡県,福岡市博多区,須崎町７番２０号,,40,132,8120028,,,,,,,2022-03-08,1,,,,,ムラカミショウジ,0
247,1290801028326,新規,0,2022-03-08,2022-03-08,株式会社Ｗｉｄｅ　Ｂｒｉｇｈｔ,,株式会社,福岡県,北九州市小倉北区,今町２丁目２番５号,,40,106,8030862,,,,,,,2022-03-08,1,,,,,ワイドブライト,0
248,1300001012822,新規,0,2022-03-08,2022-03-08,株式会社ＺＥＮ,,株式会社,佐賀県,鳥栖市,飯田町１８０４番地２Ｆ,,41,203,8410022,,,,,,,2022-03-08,1,,,,,ゼン,0
250,1310001017754,新規,0,2022-03-08,2022-03-08,ノワ株式会社,,株式会社,長崎県,長崎市,鳴見台２丁目２０番６号,,42,201,8512215,,,,,,,2022-03-08,1,,,,,ノワ,0
261,1360001030109,新規,0,2022-03-08,2022-03-08,株式会社翁コーポレーション,,株式会社,沖縄県,中頭郡西原町,字幸地１０５２番地,,47,329,9030116,,,,,,,2022-03-08,1,,,,,オキナコーポレーション,0
262,1360001030117,新規,0,2022-03-08,2022-03-08,株式会社Ｔｅｔｔｏｈ　Ｃｏｆｆｅｅ,,株式会社,沖縄県,うるま市,字栄野比７１７番地Ａ,,47,213,9042205,,,,,,,2022-03-08,1,,,,,テットコーヒー,0
263,1360003011858,新規,0,2022-03-08,2022-03-08,合同会社大城酒店,,合同会社,沖縄県,糸満市,字照屋５９１番地,,47,210,9010315,,,,,,,2022-03-08,1,,,,,オオシロサケテン,0
270,1380001032623,新規,0,2022-03-08,2022-03-08,株式会社Ｔｅｅｔｈ　ｄｅｓｉｇｎ,,株式会社,福島県,会津若松市,中島町６番８号,,07,202,9650016,,,,,,,2022-03-08,1,,,,,ティースデザイン,0
272,1410001013108,新規,0,2022-03-08,2022-03-08,株式会社あきた芸術村,,株式会社,秋田県,仙北市,田沢湖卒田字早稲田４３０番地,,05,215,0141113,,,,,,,2022-03-08,1,,,,,アキタゲイジュツムラ,0
278,1430001086151,新規,0,2022-03-08,2022-03-08,株式会社ＬＵＩ,,株式会社,北海道,札幌市豊平区,平岸三条８丁目９番２３－２１０号,,01,105,0620933,,,,,,,2022-03-08,1,,,,,エルユーアイ,0
297,2010001224966,新規,0,2022-03-08,2022-03-08,セイワ通商株式会社,,株式会社,東京都,中央区,日本橋浜町１丁目２番８号,,13,102,1030007,,,,,,,2022-03-08,1,,,,,セイワツウショウ,0
298,2010001225023,新規,0,2022-03-08,2022-03-08,株式会社エクスドリームホールディングス,,株式会社,東京都,千代田区,神田神保町１丁目１１番地１いちご神保町ビル２階,,13,101,1010051,,,,,,,2022-03-08,1,,,,,エクスドリームホールディングス,0
299,2010001225089,新規,0,2022-03-08,2022-03-08,株式会社丸吉,,株式会社,東京都,文京区,小石川２丁目２２番４号,,13,105,1120002,,,,,,,2022-03-08,1,,,,,マルキチ,0
300,2010003037128,新規,0,2022-03-08,2022-03-08,Ｍｏｊａｃ合同会社,,合同会社,東京都,千代田区,神田佐久間町１丁目８番４号アルテール秋葉原７０８,,13,101,1010025,,,,,,,2022-03-08,1,,,,,モジャック,0
301,2010003037177,新規,0,2022-03-08,2022-03-08,合同会社シェアカワサキ,,合同会社,東京都,千代田区,霞が関３丁目２番５号霞が関ビル３０階霞ヶ関国際会計事務所内,,13,101,1000013,,,,,,,2022-03-08,1,,,,,シェアカワサキ,0
308,2010401166024,新規,0,2022-03-08,2022-03-08,株式会社ＷＥＳＴ　ＵＰ　ＦＬＯＷ,,株式会社,東京都,港区,芝大門２丁目１－１８－４０３,,13,103,1050012,,,,,,,2022-03-08,1,,,,,ウェストアップフロー,0
309,2010401166032,新規,0,2022-03-08,2022-03-08,株式会社ＣＮＦ,,株式会社,東京都,港区,赤坂７丁目６番６９号－３０４,,13,103,1070052,,,,,,,2022-03-08,1,,,,,シーエヌエフ,0
310,2010401166073,新規,0,2022-03-08,2022-03-08,株式会社エムアンドエイチ,,株式会社,東京都,港区,南麻布１丁目５－１４麻布東町マンション３０８,,13,103,1060047,,,,,,,2022-03-08,1,,,,,エムアンドエイチ,0
311,2010403027232,新規,0,2022-03-08,2022-03-08,Ｅｔｈｉｃａｌ　Ｓｅｑｕｅｎｃｅ合同会社,,合同会社,東京都,港区,虎ノ門３丁目２５－５ウェリスタワー愛宕虎ノ門１２０２,,13,103,1050001,,,,,,,2022-03-08,1,,,,,エシカルシークエンス,0
313,2010501048551,新規,0,2022-03-08,2022-03-08,株式会社Ｇｒｏｗｔｈｓ,,株式会社,東京都,台東区,上野３丁目１４番２号ＵｅｎｏＹｏｕｒ２ｎｄ,,13,106,1100005,,,,,,,2022-03-08,1,,,,,グロウス,0
320,2010803004087,新規,0,2022-03-08,2022-03-08,合同会社すかい,,合同会社,東京都,大田区,大森西１丁目１９番１０号,,13,111,1430015,,,,,,,2022-03-08,1,,,,,スカイ,0
321,2010805002923,新規,0,2022-03-08,2022-03-08,一般社団法人水のもり文化プロジェクト,,その他の設立登記法人,東京都,大田区,東六郷１丁目２８番１４号ベルヴィサンハイツ４０７号,,13,111,1440046,,,,,,,2022-03-08,1,,,,,ミズノモリブンカプロジェクト,0
329,2010903007171,新規,0,2022-03-08,2022-03-08,合同会社ＯＮＥ　ＨＯＰＥ,,合同会社,東京都,世田谷区,用賀２丁目３－３ＧＣ用賀３０９,,13,112,1580097,,,,,,,2022-03-08,1,,,,,ワンホープ,0
338,2011001146151,新規,0,2022-03-08,2022-03-08,株式会社ハッピーヴィレッジ,,株式会社,東京都,渋谷区,広尾５丁目１９番１９号サンセール広尾２０１号,,13,113,1500012,,,,,,,2022-03-08,1,,,,,ハッピーヴィレッジ,0
342,2011101098061,新規,0,2022-03-08,2022-03-08,株式会社るづう,,株式会社,東京都,新宿区,神楽坂６丁目８番地,,13,104,1620825,,,,,,,2022-03-08,1,,,,,ルヅウ,0
343,2011101098094,新規,0,2022-03-08,2022-03-08,株式会社ＯｎｅＢｏｗ,,株式会社,東京都,新宿区,新宿７丁目１２番１号新宿平和ビル１階,,13,104,1600022,,,,,,,2022-03-08,1,,,,,ワンボウ,0
344,2011201023695,新規,0,2022-03-08,2022-03-08,株式会社デイアップ,,株式会社,東京都,中野区,上高田５丁目３７番５号１０１,,13,114,1640002,,,,,,,2022-03-08,1,,,,,デイアップ,0
346,2011301027613,新規,0,2022-03-08,2022-03-08,おはよう株式会社,,株式会社,東京都,杉並区,本天沼１丁目２６番８号,,13,115,1670031,,,,,,,2022-03-08,1,,,,,,0
349,2011501027826,新規,0,2022-03-08,2022-03-08,株式会社渡辺総業,,株式会社,東京都,北区,浮間２丁目９番１４号,,13,117,1150051,,,,,,,2022-03-08,1,,,,,ワタナベソウギョウ,0
350,2011503005086,新規,0,2022-03-08,2022-03-08,ＭｏｏｎＢｅｌｌ合同会社,,合同会社,東京都,北区,赤羽台３丁目１９番６号,,13,117,1150053,,,,,,,2022-03-08,1,,,,,ムーンベル,0
354,2011705001718,新規,0,2022-03-08,2022-03-08,監査法人クレア,,その他の設立登記法人,東京都,江戸川区,平井４丁目２５番３１号,,13,123,1320035,,,,,,,2022-03-08,1,,,,,クレア,0
357,2011801040421,新規,0,2022-03-08,2022-03-08,株式会社マークス,,株式会社,東京都,葛飾区,東立石３丁目３３番５号,,13,122,1240013,,,,,,,2022-03-08,1,,,,,マークス,0
364,2012401038946,新規,0,2022-03-08,2022-03-08,株式会社ＨＡＭＡ,,株式会社,東京都,稲城市,坂浜３２１６番地,,13,225,2060822,,,,,,,2022-03-08,1,,,,,ハマ,0
367,2012403005267,新規,0,2022-03-08,2022-03-08,合同会社ｅｉｇｈｔ,,合同会社,東京都,小金井市,梶野町３丁目２番７号,,13,210,1840002,,,,,,,2022-03-08,1,,,,,エイト,0
369,2013105001793,新規,0,2022-03-08,2022-03-08,医療法人社団咲心会,,その他の設立登記法人,東京都,福生市,本町９０番地１,,13,218,1970022,,,,,,,2022-03-08,1,,,,,サクシンカイ,0
387,2020001145575,新規,0,2022-03-08,2022-03-08,株式会社ＫＡＫＵＳＡＮ,,株式会社,神奈川県,川崎市幸区,新小倉２番７－１４０２号,,14,132,2120031,,,,,,,2022-03-08,1,,,,,カクサン,0
390,2020003021378,新規,0,2022-03-08,2022-03-08,合同会社キューカンバー,,合同会社,神奈川県,横浜市金沢区,大川７番５－２０２号,,14,108,2360043,,,,,,,2022-03-08,1,,,,,キューカンバー,0
391,2021001075366,新規,0,2022-03-08,2022-03-08,らしさ応援株式会社,,株式会社,神奈川県,茅ヶ崎市,赤羽根１９３番地１,,14,207,2530001,,,,,,,2022-03-08,1,,,,,ラシサオウエン,0
392,2021001075374,新規,0,2022-03-08,2022-03-08,株式会社ＡＩ　Ｅｎｔｅｒｔａｉｎｍｅｎｔ　Ｐｒｏｄｕｃｔｉｏｎ,,株式会社,神奈川県,逗子市,山の根３丁目２０番２３号,,14,208,2490002,,,,,,,2022-03-08,1,,,,,アイエンターテイメントプロダクション,0
402,2030001147026,新規,0,2022-03-08,2022-03-08,株式会社ＭＲＢ,,株式会社,埼玉県,和光市,白子２丁目３番１２－５０１号,,11,229,3510101,,,,,,,2022-03-08,1,,,,,エムアールビー,0
403,2030001147133,新規,0,2022-03-08,2022-03-08,株式会社ティーシーエス,,株式会社,埼玉県,春日部市,豊町３丁目７番地２３,,11,214,3440066,,,,,,,2022-03-08,1,,,,,ティーシーエス,0
414,2040001122531,新規,0,2022-03-08,2022-03-08,株式会社ＭＵＳＵＢＩ,,株式会社,千葉県,市川市,行徳駅前１丁目５番１－３０７号（メゾン・ド・サンク）,,12,203,2720133,,,,,,,2022-03-08,1,,,,,ムスビ,0
415,2040001122556,新規,0,2022-03-08,2022-03-08,株式会社百合,,株式会社,千葉県,鎌ケ谷市,中佐津間２丁目１５番５－３号,,12,224,2730135,,,,,,,2022-03-08,1,,,,,ユリ,0
417,2040003019627,新規,0,2022-03-08,2022-03-08,合同会社Ｒ．Ｓｈｏｗｌｙ＆Ｃｏｍｐａｎｙ,,合同会社,千葉県,船橋市,坪井東３丁目１３番３８号,,12,204,2740060,,,,,,,2022-03-08,1,,,,,アールショーリーアンドカンパニー,0
418,2040003019635,新規,0,2022-03-08,2022-03-08,合同会社松商事,,合同会社,千葉県,八千代市,大和田５５３番地６石渡荘２０３号,,12,221,2760045,,,,,,,2022-03-08,1,,,,,マツショウジ,0
420,2050001050748,新規,0,2022-03-08,2022-03-08,株式会社グローブ,,株式会社,茨城県,坂東市,長須５００９番地２,,08,228,3060645,,,,,,,2022-03-08,1,,,,,グローブ,0
421,2050001050756,新規,0,2022-03-08,2022-03-08,株式会社ＡＬＦＵＥＮ　ＩＮＴＥＲＮＡＴＩＯＮＡＬ　ＣＯＲＰＯＲＡＴＩＯＮ,,株式会社,茨城県,つくば市,二の宮１丁目２２番地１２,,08,220,3050051,,,,,,,2022-03-08,1,,,,,アルフエンインターナショナルコーポレーション,0
426,2070005009961,新規,0,2022-03-08,2022-03-08,一般社団法人コミュニティカフェｍｏｒｉｍｏｒｉ,,その他の設立登記法人,群馬県,太田市,細谷町５２番地４,,10,205,3730842,,,,,,,2022-03-08,1,,,,,コミュニティカフェモリモリ,0
430,2080103002545,新規,0,2022-03-08,2022-03-08,合同会社淺沼電気制御コンサル,,合同会社,静岡県,沼津市,大諏訪２４９番地,,22,203,4100873,,,,,,,2022-03-08,1,,,,,アサヌマデンキセイギョコンサル,0
433,2080401025669,新規,0,2022-03-08,2022-03-08,株式会社つぼみ,,株式会社,静岡県,浜松市東区,有玉北町２１－１,,22,132,4313121,,,,,,,2022-03-08,1,,,,,ツボミ,0
438,2100001035140,新規,0,2022-03-08,2022-03-08,株式会社渚ベース,,株式会社,長野県,松本市,渚４丁目１２－１９,,20,202,3900841,,,,,,,2022-03-08,1,,,,,ナギサベース,0
447,2120001244144,新規,0,2022-03-08,2022-03-08,株式会社昌和,,株式会社,大阪府,大阪市西区,南堀江１丁目１４－１７,,27,106,5500015,,,,,,,2022-03-08,1,,,,,ショウワ,0
448,2120001244152,新規,0,2022-03-08,2022-03-08,株式会社愉楽,,株式会社,大阪府,大阪市住之江区,新北島２丁目２番２９－１０７号,,27,125,5590024,,,,,,,2022-03-08,1,,,,,ユラク,0
449,2120001244235,新規,0,2022-03-08,2022-03-08,株式会社ＡＢＥ　ＳＴＹＬＥ,,株式会社,大阪府,大阪市中央区,谷町９丁目１番２２号－４０８号室,,27,128,5420012,,,,,,,2022-03-08,1,,,,,アベスタイル,0
450,2120001244251,新規,0,2022-03-08,2022-03-08,株式会社ｎｉｃｏｓ,,株式会社,大阪府,大阪市淀川区,西中島４丁目１３番２０－３０５号,,27,123,5320011,,,,,,,2022-03-08,1,,,,,ニコズ,0
451,2120001244284,新規,0,2022-03-08,2022-03-08,株式会社ウイングストレーディング,,株式会社,大阪府,大阪市西区,新町３丁目１番１７－２００３号,,27,106,5500013,,,,,,,2022-03-08,1,,,,,ウイングストレーディング,0
452,2120001244301,新規,0,2022-03-08,2022-03-08,株式会社Ｔ－Ｓアカウンティング,,株式会社,大阪府,大阪市福島区,福島７丁目１４番１８号恒和殖産福島ビル３０４号,,27,103,5530003,,,,,,,2022-03-08,1,,,,,ティーエスアカウンティング,0
456,2120003021244,新規,0,2022-03-08,2022-03-08,Ｖｉｅ’ｓ合同会社,,合同会社,大阪府,大阪市中央区,西心斎橋２丁目７番３０号,,27,128,5420086,,,,,,,2022-03-08,1,,,,,ヴィエズ,0
457,2120003021260,新規,0,2022-03-08,2022-03-08,合同会社ＲｅａＤｕｃｔｉｏｎ,,合同会社,大阪府,大阪市阿倍野区,昭和町１丁目５－２６昭和町ＥＢＩＳＵビル４Ｆ４０５,,27,119,5450011,,,,,,,2022-03-08,1,,,,,リアダクション,0
458,2120101065184,新規,0,2022-03-08,2022-03-08,株式会社ＴＡＫＡ建設,,株式会社,大阪府,和泉市,観音寺町５５４番地の１,,27,219,5940065,,,,,,,2022-03-08,1,,,,,タカケンセツ,0
460,2120901045682,新規,0,2022-03-08,2022-03-08,株式会社カーニバル大阪,,株式会社,大阪府,豊中市,服部寿町４丁目９番１９号,,27,203,5610857,,,,,,,2022-03-08,1,,,,,カーニバルオオサカ,0
467,2130001071298,新規,0,2022-03-08,2022-03-08,大器半導体株式会社,,株式会社,京都府,京都市伏見区,桃山町因幡３１番地３１,,26,109,6128007,,,,,,,2022-03-08,1,,,,,タイキハンドウタイ,0
468,2130001071307,新規,0,2022-03-08,2022-03-08,ｍａｉｋｕＨａｕｍｅａ株式会社,,株式会社,京都府,京都市左京区,下鴨北茶ノ木町１８番地の１,,26,103,6060844,,,,,,,2022-03-08,1,,,,,マイクハウメア,0
471,2130005016398,新規,0,2022-03-08,2022-03-08,一般社団法人ＹＧＨ　ＨＩＫＡＲＩ　Ｄｅｎｔａｌ　Ｃｌｉｎｉｃ,,その他の設立登記法人,京都府,京都市下京区,河原町通り四条下がる順風町３０９中村ビル８階,,26,106,6000000,,,,,,,2022-03-08,1,,,,,ワイジーエイチヒカリデンタルクリニック,0
480,2140001125128,新規,0,2022-03-08,2022-03-08,株式会社堀商店,,株式会社,兵庫県,姫路市,花田町加納原田５８８－８,,28,201,6710252,,,,,,,2022-03-08,1,,,,,ホリショウテン,0
481,2140001125152,新規,0,2022-03-08,2022-03-08,株式会社Ｈａｎｉ２,,株式会社,兵庫県,加古郡稲美町,加古７７６３番地,,28,381,6751105,,,,,,,2022-03-08,1,,,,,ハニハニ,0
484,2140003017430,新規,0,2022-03-08,2022-03-08,合同会社Ａｐｐｌｉｃａｔ,,合同会社,兵庫県,姫路市,別所町佐土４６６番地１０,,28,201,6710224,,,,,,,2022-03-08,1,,,,,アプリキャット,0
493,2160001024030,新規,0,2022-03-08,2022-03-08,株式会社坪井組,,株式会社,滋賀県,大津市,一里山２丁目１番２２－２０２号プログレスＩＩＩ番館,00125891,25,201,5202153,,,,,,,2022-03-08,1,,,,,ツボイグミ,0
501,2180001150196,新規,0,2022-03-08,2022-03-08,株式会社永空設備,,株式会社,愛知県,知多郡武豊町,字多賀１丁目３１番地２,,23,447,4702361,,,,,,,2022-03-08,1,,,,,トアセツビ,0
502,2180001150320,新規,0,2022-03-08,2022-03-08,タカシエレック株式会社,,株式会社,愛知県,名古屋市守山区,泉が丘１４０４番地,,23,113,4630804,,,,,,,2022-03-08,1,,,,,タカシエレック,0
512,2180301035989,新規,0,2022-03-08,2022-03-08,株式会社ＹＫ,,株式会社,愛知県,豊田市,西岡町長土井３７番地２,,23,211,4730936,,,,,,,2022-03-08,1,,,,,ワイケー,0
515,2180305009312,新規,0,2022-03-08,2022-03-08,社会保険労務士法人きたのまる,,その他の設立登記法人,愛知県,岡崎市,康生通西３丁目５番地,,23,202,4440059,,,,,,,2022-03-08,1,,,,,キタノマル,0
519,2200001039841,新規,0,2022-03-08,2022-03-08,株式会社協進,,株式会社,岐阜県,可児市,瀬田１７５５番地１サンローズＡ－２０３,,21,214,5090213,,,,,,,2022-03-08,1,,,,,キョウシン,0
521,2200005013306,新規,0,2022-03-08,2022-03-08,一般社団法人ａｎｃｈｏｒ,,その他の設立登記法人,岐阜県,多治見市,東山３丁目８番地の１２,,21,204,5070019,,,,,,,2022-03-08,1,,,,,アンカー,0
533,2240003005540,新規,0,2022-03-08,2022-03-08,ＭｏｒｉＫｏＮ合同会社,,合同会社,広島県,福山市,沼隈町大字下山南９４１番地,,34,207,7200403,,,,,,,2022-03-08,1,,,,,モリコン,0
540,2260003003831,新規,0,2022-03-08,2022-03-08,ＢＡＳＥ合同会社,,合同会社,岡山県,倉敷市,中央２丁目１０番４号,,33,202,7100046,,,,,,,2022-03-08,1,,,,,ベース,0
546,2290801028309,新規,0,2022-03-08,2022-03-08,株式会社誠建,,株式会社,福岡県,北九州市戸畑区,浅生２丁目１０番１８－７０３号,,40,105,8040062,,,,,,,2022-03-08,1,,,,,セイケン,0
547,2290801028325,新規,0,2022-03-08,2022-03-08,青木工務店株式会社,,株式会社,福岡県,北九州市八幡西区,浅川台３丁目１５番１０号,,40,109,8070875,,,,,,,2022-03-08,1,,,,,アオキコウムテン,0
557,2340001024540,新規,0,2022-03-08,2022-03-08,株式会社モリケン,,株式会社,鹿児島県,大島郡与論町,大字麦屋１０８１番地,,46,535,8919300,,,,,,,2022-03-08,1,,,,,モリケン,0
558,2340001024557,新規,0,2022-03-08,2022-03-08,株式会社ｅｓｐｏｉｒ．ｐｒｏ,,株式会社,鹿児島県,鹿児島市,紫原６丁目３４番２０号,,46,201,8900082,,,,,,,2022-03-08,1,,,,,エスポワールプロ,0
560,2340003003732,新規,0,2022-03-08,2022-03-08,合同会社カワバタ,,合同会社,鹿児島県,出水市,高尾野町上水流１１１３番地１,,46,208,8990406,,,,,,,2022-03-08,1,,,,,カワバタ,0
561,2360003011857,新規,0,2022-03-08,2022-03-08,合同会社Ｌｉｎｅ,,合同会社,沖縄県,豊見城市,字高嶺１７３－１番地１Ｆ,,47,212,9010213,,,,,,,2022-03-08,1,,,,,ライン,0
563,2370001048272,新規,0,2022-03-08,2022-03-08,株式会社ＳＡＴＯ十ＡＲＣＨＩＴＥＣＴＳ,,株式会社,宮城県,仙台市青葉区,上杉１丁目１番３１号ＫＨビル２０１,,04,101,9800011,,,,,,,2022-03-08,1,,,,,サトウプラスアーキテクツ,0
564,2370001048297,新規,0,2022-03-08,2022-03-08,株式会社サンコー,,株式会社,宮城県,柴田郡大河原町,字西桜町１２番地１２,,04,321,9891273,,,,,,,2022-03-08,1,,,,,サンコー,0
579,2430003013680,新規,0,2022-03-08,2022-03-08,合同会社ＳＩＲＩＵＳ　ＶＩＳＩＯＮ,,合同会社,北海道,札幌市白石区,菊水三条１丁目２番１７－１０１号,,01,104,0030803,,,,,,,2022-03-08,1,,,,,シリウスヴィジョン,0
580,2430003013689,新規,0,2022-03-08,2022-03-08,合同会社ＴＭＫ企画,,合同会社,北海道,札幌市豊平区,西岡四条４丁目１２番１号,,01,105,0620034,,,,,,,2022-03-08,1,,,,,ティーエムケーキカク,0
586,2500005008465,新規,0,2022-03-08,2022-03-08,一般社団法人愛媛イノベーションベース,,その他の設立登記法人,愛媛県,松山市,千舟町５丁目３番１７号,,38,201,7900011,,,,,,,2022-03-08,1,,,,,エヒメイノベーションベース,0
599,3010001224825,新規,0,2022-03-08,2022-03-08,株式会社エルブドール,,株式会社,東京都,千代田区,丸の内１丁目８－３丸の内トラストタワー本館２０階,,13,101,1000005,,,,,,,2022-03-08,1,,,,,エルブドール,0
600,3010001224973,新規,0,2022-03-08,2022-03-08,株式会社コラボプレイス,,株式会社,東京都,千代田区,岩本町３丁目１１番６号ＰＭＯ秋葉原２階,,13,101,1010032,,,,,,,2022-03-08,1,,,,,コラボプレイス,0
601,3010001225039,新規,0,2022-03-08,2022-03-08,ハイブリッジ株式会社,,株式会社,東京都,中央区,日本橋箱崎町１６番１号,,13,102,1030015,,,,,,,2022-03-08,1,,,,,ハイブリッジ,0
602,3010001225105,新規,0,2022-03-08,2022-03-08,Ｓａｆｅｔｙ　Ｌｉｆｅ株式会社,,株式会社,東京都,千代田区,神田須田町１丁目２４番地６ＡＣＮ神田須田町ビル３Ｆ,,13,101,1010041,,,,,,,2022-03-08,1,,,,,セーフティライフ,0
609,3010405020762,新規,0,2022-03-08,2022-03-08,監査法人ａｔＰ＆Ａ,,その他の設立登記法人,東京都,港区,白金台５丁目１５番５号トゥワインデール２階,,13,103,1080071,,,,,,,2022-03-08,1,,,,,アットピーアンドエー,0
614,3010501048550,新規,0,2022-03-08,2022-03-08,株式会社ＪＡＭソリューション,,株式会社,東京都,台東区,東上野１丁目８番２号オーイズミ東上野ビル東館９Ｆ,,13,106,1100015,,,,,,,2022-03-08,1,,,,,ジェイエーエムソリューション,0
621,3010803004086,新規,0,2022-03-08,2022-03-08,合同会社ファンガフーエル,,合同会社,東京都,大田区,上池台１丁目１５番１１号ＭＳビル２Ｆ左,,13,111,1450064,,,,,,,2022-03-08,1,,,,,ファンガフーエル,0
624,3010901050486,新規,0,2022-03-08,2022-03-08,株式会社リバイス,,株式会社,東京都,世田谷区,松原５丁目２６番１号,,13,112,1560043,,,,,,,2022-03-08,1,,,,,リバイス,0
625,3010903007212,新規,0,2022-03-08,2022-03-08,合同会社インサイト,,合同会社,東京都,世田谷区,尾山台３丁目７番２３号ロザリンデ尾山台２０８,,13,112,1580086,,,,,,,2022-03-08,1,,,,,インサイト,0
628,3011001023564,新規,0,2022-03-08,2022-03-08,株式会社ヤマソウ,,株式会社,東京都,渋谷区,広尾３丁目１番１７号,,13,113,1500012,,,,,,,2022-03-08,1,,,,,ヤマソウ,0
630,3011001146142,新規,0,2022-03-08,2022-03-08,株式会社ＨＩＴＳＵＪＩ,,株式会社,東京都,目黒区,青葉台１丁目２３番１４号斎藤ビル４０１,,13,110,1530042,,,,,,,2022-03-08,1,,,,,ヒツジ,0
633,3011003014314,新規,0,2022-03-08,2022-03-08,Ｓａｎｄｂｏｘ合同会社,,合同会社,東京都,目黒区,大橋１丁目５番１号,,13,110,1530044,,,,,,,2022-03-08,1,,,,,サンドボックス,0
636,3011005009469,新規,0,2022-03-08,2022-03-08,医療法人社団全患会,,その他の設立登記法人,東京都,目黒区,東山３丁目１２番４号ナカミ東山ビル２階,,13,110,1530043,,,,,,,2022-03-08,1,,,,,ゼンカンカイ,0
638,3011101098044,新規,0,2022-03-08,2022-03-08,株式会社テック,,株式会社,東京都,新宿区,西早稲田３丁目３１番８号,,13,104,1690051,,,,,,,2022-03-08,1,,,,,テック,0
641,3011201023694,新規,0,2022-03-08,2022-03-08,株式会社ソレイユ,,株式会社,東京都,中野区,鷺宮２丁目１０番７号,,13,114,1650032,,,,,,,2022-03-08,1,,,,,ソレイユ,0
642,3011401024071,新規,0,2022-03-08,2022-03-08,あうん株式会社,,株式会社,東京都,板橋区,上板橋３丁目２番１－１０３号,,13,119,1740076,,,,,,,2022-03-08,1,,,,,アウン,0
643,3011403003593,新規,0,2022-03-08,2022-03-08,合同会社ＭｉＫｉ,,合同会社,東京都,板橋区,板橋３丁目９番１２号,,13,119,1730004,,,,,,,2022-03-08,1,,,,,ミキ,0
651,3011801040420,新規,0,2022-03-08,2022-03-08,株式会社サプニィ,,株式会社,東京都,葛飾区,東新小岩２丁目７番５－５０２号,,13,122,1240023,,,,,,,2022-03-08,1,,,,,サプニィ,0
654,3012401038920,新規,0,2022-03-08,2022-03-08,株式会社ロジマン,,株式会社,東京都,調布市,深大寺東町４丁目２番１０号,,13,208,1820012,,,,,,,2022-03-08,1,,,,,ロジマン,0
655,3012403005266,新規,0,2022-03-08,2022-03-08,Ａｃｅｃｒｅｗ合同会社,,合同会社,東京都,府中市,白糸台２丁目２７番地の２７,,13,206,1830011,,,,,,,2022-03-08,1,,,,,エースクルー,0
656,3013105001792,新規,0,2022-03-08,2022-03-08,一般社団法人そわか,,その他の設立登記法人,東京都,西多摩郡瑞穂町,大字駒形富士山５７６番地７,,13,303,1901202,,,,,,,2022-03-08,1,,,,,ソワカ,0
659,3013303006073,新規,0,2022-03-08,2022-03-08,合同会社誉,,合同会社,東京都,豊島区,駒込６丁目３３番１１号,,13,116,1700003,,,,,,,2022-03-08,1,,,,,ホマレ,0
669,3020001145558,新規,0,2022-03-08,2022-03-08,株式会社レフィー,,株式会社,神奈川県,横浜市鶴見区,岸谷３丁目２２番５－４０４号,,14,101,2300078,,,,,,,2022-03-08,1,,,,,レフィー,0
673,3020003021427,新規,0,2022-03-08,2022-03-08,合同会社西村事務所,,合同会社,神奈川県,横浜市中区,弁天通３丁目３９番地ライオンズマンション関内第２－８０５号,,14,104,2310007,,,,,,,2022-03-08,1,,,,,ニシムラジムショ,0
679,3021005012455,新規,0,2022-03-08,2022-03-08,税理士法人メティス,,その他の設立登記法人,神奈川県,厚木市,田村町８番１０号本厚木トーセイビル４階,,14,212,2430016,,,,,,,2022-03-08,1,,,,,メティス,0
690,3030001147116,新規,0,2022-03-08,2022-03-08,ひまわり株式会社,,株式会社,埼玉県,川口市,並木３丁目３２番４号グリーンハイツ大川２０３号,,11,203,3320034,,,,,,,2022-03-08,1,,,,,ヒマワリ,0
691,3030001147124,新規,0,2022-03-08,2022-03-08,ビッググラッド株式会社,,株式会社,埼玉県,所沢市,松葉町２３番１１号,,11,208,3590044,,,,,,,2022-03-08,1,,,,,ビッググラッド,0
692,3030001147157,新規,0,2022-03-08,2022-03-08,株式会社さくらアーツ,,株式会社,埼玉県,朝霞市,溝沼６丁目１２番３１号,,11,227,3510023,,,,,,,2022-03-08,1,,,,,サクラアーツ,0
694,3030003018975,新規,0,2022-03-08,2022-03-08,合同会社まちのグループ,,合同会社,埼玉県,蕨市,北町４丁目３番１１号,,11,223,3350001,,,,,,,2022-03-08,1,,,,,マチノグループ,0
695,3030003018983,新規,0,2022-03-08,2022-03-08,合同会社ＲＡＱＦＵＬ,,合同会社,埼玉県,さいたま市大宮区,桜木町２丁目３番地大宮マルイ７階,,11,103,3300854,,,,,,,2022-03-08,1,,,,,ラクフル,0
699,3040001122530,新規,0,2022-03-08,2022-03-08,株式会社ｐｌａｎ－Ａ,,株式会社,千葉県,鎌ケ谷市,新鎌ケ谷１丁目２１番４号,,12,224,2730107,,,,,,,2022-03-08,1,,,,,プランエー,0
700,3040001122555,新規,0,2022-03-08,2022-03-08,Ｓ．Ｋ．Ｃｏｒｐｏｒａｔｉｏｎ株式会社,,株式会社,千葉県,習志野市,東習志野５丁目１７－１４,,12,216,2750001,,,,,,,2022-03-08,1,,,,,エスケーコーポレーション,0
706,3040003019618,新規,0,2022-03-08,2022-03-08,合同会社オフィス・プレジデント,,合同会社,千葉県,柏市,あけぼの４丁目３番２１号柏あけぼのビル３－Ｂ号室,,12,217,2770841,,,,,,,2022-03-08,1,,,,,オフィスプレジデント,0
707,3040003019634,新規,0,2022-03-08,2022-03-08,合同会社グウグブル,,合同会社,千葉県,成田市,囲護台２丁目９番地２（１０５）,,12,211,2860035,,,,,,,2022-03-08,1,,,,,グウグブル,0
708,3050001050730,新規,0,2022-03-08,2022-03-08,株式会社共進工業所,,株式会社,茨城県,日立市,宮田町３４７９番地２,,08,202,3170055,,,,,,,2022-03-08,1,,,,,キョウシンコウギョウショ,0
709,3050001050747,新規,0,2022-03-08,2022-03-08,株式会社つくばメディカルイメージング,,株式会社,茨城県,つくば市,竹園１丁目２番地１レーベンつくばＣＯＲＩＳ８２１号,,08,220,3050032,,,,,,,2022-03-08,1,,,,,ツクバメディカルイメージング,0
711,3050003006417,新規,0,2022-03-08,2022-03-08,Ｍｉｇｈｔｙ　Ｃｏｒｐｏｒａｔｉｏｎ合同会社,,合同会社,茨城県,取手市,新取手２丁目１６番１１号,,08,217,3020031,,,,,,,2022-03-08,1,,,,,マイティコーポレーション,0
722,3070003004410,新規,0,2022-03-08,2022-03-08,合同会社ＨａＲＹ,,合同会社,群馬県,太田市,城西町３番地８,,10,205,3730038,,,,,,,2022-03-08,1,,,,,ハリー,0
724,3080101023138,新規,0,2022-03-08,2022-03-08,株式会社Ｌａｎｄｅｘｅ,,株式会社,静岡県,富士市,青島町８４番地,,22,210,4170047,,,,,,,2022-03-08,1,,,,,ランドエグゼ,0
726,3080401025668,新規,0,2022-03-08,2022-03-08,株式会社Ｔｈｉｓ　ｉｓグループ,,株式会社,静岡県,浜松市中区,文丘町３０番２２号,,22,131,4328004,,,,,,,2022-03-08,1,,,,,ディスイズグループ,0
736,3120001244151,新規,0,2022-03-08,2022-03-08,万楽株式会社,,株式会社,大阪府,大阪市中央区,松屋町９番２０号ローレルステート松屋町８０５Ａ,,27,128,5420067,,,,,,,2022-03-08,1,,,,,マンラク,0
737,3120001244168,新規,0,2022-03-08,2022-03-08,ジェイシー株式会社,,株式会社,大阪府,大阪市城東区,今福西６丁目２番２－８１８号,,27,118,5360004,,,,,,,2022-03-08,1,,,,,ジェイシー,0
738,3120001244226,新規,0,2022-03-08,2022-03-08,株式会社Ｇｏｏｄ　Ｗａｙ,,株式会社,大阪府,大阪市中央区,心斎橋筋２丁目４番９号,,27,128,5420085,,,,,,,2022-03-08,1,,,,,グッドウェイ,0
739,3120001244234,新規,0,2022-03-08,2022-03-08,株式会社アオイ,,株式会社,大阪府,大阪市北区,本庄西１丁目１番７号,,27,127,5310073,,,,,,,2022-03-08,1,,,,,アオイ,0
740,3120001244291,新規,0,2022-03-08,2022-03-08,株式会社みかづき,,株式会社,大阪府,大阪市城東区,古市３丁目２５番１１号,,27,118,5360001,,,,,,,2022-03-08,1,,,,,ミカヅキ,0
741,3120001244309,新規,0,2022-03-08,2022-03-08,株式会社ＳＡＧ,,株式会社,大阪府,大阪市北区,神山町１番３０号エステムプラザ梅田扇町公園パークランド１００１号室,,27,127,5300026,,,,,,,2022-03-08,1,,,,,エスエージー,0
742,3120001244317,新規,0,2022-03-08,2022-03-08,株式会社ＭＨＴ,,株式会社,大阪府,大阪市生野区,勝山南４丁目８番２３号,,27,116,5440021,,,,,,,2022-03-08,1,,,,,エムエイッチティ,0
743,3120001244358,新規,0,2022-03-08,2022-03-08,株式会社スリー・セゾン,,株式会社,大阪府,大阪市北区,大淀中３丁目７番６号,,27,127,5310076,,,,,,,2022-03-08,1,,,,,スリーセゾン,0
748,3120003021235,新規,0,2022-03-08,2022-03-08,合同会社Ｔｈｒｅｅ　Ｐｅａｃｅ,,合同会社,大阪府,大阪市東住吉区,住道矢田６丁目１番２号,,27,121,5460022,,,,,,,2022-03-08,1,,,,,スリーピース,0
749,3120003021243,新規,0,2022-03-08,2022-03-08,合同会社生龍,,合同会社,大阪府,大阪市東淀川区,西淡路３丁目３番３６号,,27,114,5330031,,,,,,,2022-03-08,1,,,,,セイリュウ,0
755,3120901045707,新規,0,2022-03-08,2022-03-08,株式会社ａｉｋａ,,株式会社,大阪府,茨木市,西田中町４番３５－７０１号,,27,211,5670027,,,,,,,2022-03-08,1,,,,,アイカ,0
764,3130001071297,新規,0,2022-03-08,2022-03-08,株式会社日本ＦＩＬＭ,,株式会社,京都府,京都市中京区,錦小路通室町西入天神山町２７９番地,,26,104,6048221,,,,,,,2022-03-08,1,,,,,,0
767,3130003007803,新規,0,2022-03-08,2022-03-08,合同会社スリーナイン,,合同会社,京都府,京都市西京区,松尾東ノ口町１３３番地,,26,111,6158217,,,,,,,2022-03-08,1,,,,,スリーナイン,0
772,3140001125085,新規,0,2022-03-08,2022-03-08,株式会社ナナイモ,,株式会社,兵庫県,神戸市東灘区,御影本町２丁目１５番２２号,,28,101,6580046,,,,,,,2022-03-08,1,,,,,ナナイモ,0
773,3140001125168,新規,0,2022-03-08,2022-03-08,株式会社人成,,株式会社,兵庫県,伊丹市,大鹿４丁目７２番地７,,28,207,6640899,,,,,,,2022-03-08,1,,,,,ジンセイ,0
777,3150001025391,新規,0,2022-03-08,2022-03-08,株式会社ＴＫ空調,,株式会社,奈良県,大和高田市,中三倉堂２丁目５－２３－１,,29,202,6350045,,,,,,,2022-03-08,1,,,,,ティーケイクウチョウ,0
782,3180001150328,新規,0,2022-03-08,2022-03-08,株式会社ＬＩＦＥ’ｓ不動産,,株式会社,愛知県,名古屋市西区,栄生１丁目１６番２０号,,23,104,4510052,,,,,,,2022-03-08,1,,,,,ライフズフドウサン,0
786,3180003023589,新規,0,2022-03-08,2022-03-08,合同会社青山大岳,,合同会社,愛知県,名古屋市西区,那古野２丁目１４－１なごのキャンパス,,23,104,4510042,,,,,,,2022-03-08,1,,,,,アオヤマダイガク,0
802,3200003005477,新規,0,2022-03-08,2022-03-08,合同会社ｉ－Ａｉｒ,,合同会社,岐阜県,岐阜市,則武１０１番地１３,,21,201,5020931,,,,,,,2022-03-08,1,,,,,アイエア,0
808,3220001024733,新規,0,2022-03-08,2022-03-08,株式会社ＢｏＢｏ,,株式会社,石川県,白山市,倉光７丁目８６番地,,17,210,9240865,,,,,,,2022-03-08,1,,,,,ボボ,0
820,3240005015355,新規,0,2022-03-08,2022-03-08,医療法人ふたば会,,その他の設立登記法人,広島県,広島市東区,若草町１１番２号グランアークテラス３Ｆ,,34,102,7320053,,,,,,,2022-03-08,1,,,,,フタバカイ,0
828,3260005011047,新規,0,2022-03-08,2022-03-08,一般社団法人Ｍａｓｊｉｄ　Ｉｎｄｏｎｅｓｉａ　Ｋｕｒａｓｈｉｋｉ,,その他の設立登記法人,岡山県,倉敷市,玉島柏島６１５２番地６,,33,202,7138123,,,,,,,2022-03-08,1,,,,,マスジドインドネシアクラシキ,0
834,3290003012218,新規,0,2022-03-08,2022-03-08,合同会社ＰＯＫＡＰＯＫＡ,,合同会社,福岡県,大牟田市,大字倉永１１４番地１,,40,202,8370906,,,,,,,2022-03-08,1,,,,,ポカポカ,0
835,3290003012250,新規,0,2022-03-08,2022-03-08,サンキューホールディングス合同会社,,合同会社,福岡県,福岡市中央区,渡辺通１丁目１番１号,,40,133,8100004,,,,,,,2022-03-08,1,,,,,サンキューホールディングス,0
838,3300003001796,新規,0,2022-03-08,2022-03-08,合同会社ＺＥＡＬ．,,合同会社,佐賀県,唐津市,材木町２１００番地６,,41,202,8470061,,,,,,,2022-03-08,1,,,,,ジール,0
841,3330001029523,新規,0,2022-03-08,2022-03-08,ＮＡＭＩＣＨＩＤＯＲＩ株式会社,,株式会社,熊本県,熊本市北区,清水亀井町５０番７０号,,43,105,8618066,,,,,,,2022-03-08,1,,,,,ナミチドリ,0
842,3340003003731,新規,0,2022-03-08,2022-03-08,合同会社Ｇｙａｎ,,合同会社,鹿児島県,姶良市,平松５３５７,,46,225,8995652,,,,,,,2022-03-08,1,,,,,ギャン,0
849,3380003005113,新規,0,2022-03-08,2022-03-08,Ｍ・Ｍアグリ合同会社,,合同会社,福島県,喜多方市,塩川町中屋沢字竹屋丙４８番地６,,07,208,9693504,,,,,,,2022-03-08,1,,,,,エムエムアグリ,0
852,3420001017758,新規,0,2022-03-08,2022-03-08,株式会社Ｈｅａｒｔ＆Ｌ,,株式会社,青森県,南津軽郡田舎館村,大字大袋字樋田４２番地９,,02,367,0381131,,,,,,,2022-03-08,1,,,,,ハートアンドエル,0
853,3420005007796,新規,0,2022-03-08,2022-03-08,一般社団法人はくさんだい後見事務所,,その他の設立登記法人,青森県,八戸市,西白山台２丁目６番１号,,02,203,0391113,,,,,,,2022-03-08,1,,,,,ハクサンダイコウケンジムショ,0
856,3430001086133,新規,0,2022-03-08,2022-03-08,株式会社ラディアンス,,株式会社,北海道,札幌市南区,南沢六条４丁目７番２号,,01,106,0050826,,,,,,,2022-03-08,1,,,,,ラディアンス,0
857,3430001086166,新規,0,2022-03-08,2022-03-08,株式会社アテンドジャパン,,株式会社,北海道,札幌市手稲区,手稲前田５３９番地１５,,01,109,0060829,,,,,,,2022-03-08,1,,,,,アテンドジャパン,0
862,3490003001638,新規,0,2022-03-08,2022-03-08,ＨＢ合同会社,,合同会社,高知県,高知市,春野町芳原５７５番地,,39,201,7810311,,,,,,,2022-03-08,1,,,,,エッチビー,0
868,4010001224931,新規,0,2022-03-08,2022-03-08,ＧＩファーマシー株式会社,,株式会社,東京都,中央区,日本橋兜町２２番６号東京セントラルプレイス６階,,13,102,1030026,,,,,,,2022-03-08,1,,,,,ジーアイファーマシー,0
869,4010001224972,新規,0,2022-03-08,2022-03-08,株式会社コラボクリエイト,,株式会社,東京都,千代田区,岩本町３丁目１１番６号ＰＭＯ秋葉原２階,,13,101,1010032,,,,,,,2022-03-08,1,,,,,コラボクリエイト,0
870,4010001225021,新規,0,2022-03-08,2022-03-08,株式会社ＧＣコンサルタント,,株式会社,東京都,千代田区,神田小川町２丁目１０番地,,13,101,1010052,,,,,,,2022-03-08,1,,,,,ジーシーコンサルタント,0
871,4010001225046,新規,0,2022-03-08,2022-03-08,ファクトリーラボ株式会社,,株式会社,東京都,千代田区,神田須田町１丁目２４番地３,,13,101,1010041,,,,,,,2022-03-08,1,,,,,ファクトリーラボ,0
872,4010001225054,新規,0,2022-03-08,2022-03-08,株式会社ＺＡＩＭＵＵ,,株式会社,東京都,千代田区,丸の内１丁目１１番１号パシフィックセンチュリープレイス丸の内８階,,13,101,1000005,,,,,,,2022-03-08,1,,,,,ザイムー,0
874,4010005034708,新規,0,2022-03-08,2022-03-08,医療法人社団ＤＢＨ,,その他の設立登記法人,東京都,文京区,白山１丁目３７番３号ＥＸＡＭ白山２階,,13,105,1130001,,,,,,,2022-03-08,1,,,,,ディービーエイチ,0
882,4010401166014,新規,0,2022-03-08,2022-03-08,株式会社Ｌｉｆｅ　Ｐａｇｅ,,株式会社,東京都,港区,西麻布４丁目２０番９号ＡＺビル３階,,13,103,1060031,,,,,,,2022-03-08,1,,,,,ライフページ,0
883,4010401166022,新規,0,2022-03-08,2022-03-08,株式会社Ｊｉｇｏｗａｔｔ,,株式会社,東京都,港区,芝浦４丁目５番１３－７０２号,,13,103,1080023,,,,,,,2022-03-08,1,,,,,ジゴワット,0
884,4010401166030,新規,0,2022-03-08,2022-03-08,株式会社ＭＯＭＯＡ,,株式会社,東京都,港区,赤坂３丁目１６番５号,,13,103,1070052,,,,,,,2022-03-08,1,,,,,モモア,0
885,4010401166039,新規,0,2022-03-08,2022-03-08,株式会社Ｐｅ．Ｅｎ,,株式会社,東京都,港区,六本木４丁目３番１１号六本木ユニハウス２２３,,13,103,1060032,,,,,,,2022-03-08,1,,,,,ピエン,0
886,4010401166063,新規,0,2022-03-08,2022-03-08,株式会社スカイマーレ,,株式会社,東京都,港区,白金１丁目２５番２６号,,13,103,1080072,,,,,,,2022-03-08,1,,,,,スカイマーレ,0
887,4010403027230,新規,0,2022-03-08,2022-03-08,ＳＨＣ合同会社,,合同会社,東京都,港区,新橋３丁目１１－８,,13,103,1050004,,,,,,,2022-03-08,1,,,,,エスエイチシー,0
893,4010603009417,新規,0,2022-03-08,2022-03-08,合同会社Ｍコミュニケーションズ,,合同会社,東京都,江東区,有明１丁目３番１４,,13,108,1350063,,,,,,,2022-03-08,1,,,,,エムコミュニケーションズ,0
894,4010701042336,新規,0,2022-03-08,2022-03-08,依田株式会社,,株式会社,東京都,品川区,西五反田３丁目１０番１８－２４０４号,,13,109,1410031,,,,,,,2022-03-08,1,,,,,イテン,0
902,4011001146141,新規,0,2022-03-08,2022-03-08,ＴＳＵＮＡＧＡＲＵ株式会社,,株式会社,東京都,目黒区,自由が丘１丁目２３番２２号,,13,110,1520035,,,,,,,2022-03-08,1,,,,,ツナガル,0
908,4011103011540,新規,0,2022-03-08,2022-03-08,Ｅｄｉｆｙ　Ｆｉｎａｎｃｉａｌ　Ａｄｖｉｓｏｒｙ合同会社,,合同会社,東京都,新宿区,山吹町２９７番地６ザ・パークハウス山吹神楽坂３０７,,13,104,1620801,,,,,,,2022-03-08,1,,,,,エディファイファイナンシャルアドバイザリー,0
909,4011301027603,新規,0,2022-03-08,2022-03-08,株式会社Ｔｈｅｒｅ　Ｔｈｅｒｅ,,株式会社,東京都,杉並区,南荻窪２丁目３６番９号,,13,115,1670052,,,,,,,2022-03-08,1,,,,,ゼアゼア,0
910,4011301027611,新規,0,2022-03-08,2022-03-08,Ａ．Ｎ．Ｋｎｏｔ株式会社,,株式会社,東京都,杉並区,南荻窪２丁目１２番８号,,13,115,1670052,,,,,,,2022-03-08,1,,,,,アンノット,0
917,4012401038944,新規,0,2022-03-08,2022-03-08,株式会社アシストサービス,,株式会社,東京都,武蔵野市,吉祥寺東町２丁目３５番１０号,,13,203,1800002,,,,,,,2022-03-08,1,,,,,アシストサービス,0
919,4012403005265,新規,0,2022-03-08,2022-03-08,合同会社Ｓ．Ｔ　Ｃｒａｆｔ,,合同会社,東京都,府中市,南町６丁目２５番地の３センチュリー府中南町２０１,,13,206,1830026,,,,,,,2022-03-08,1,,,,,エスティークラフト,0
928,4020001145532,新規,0,2022-03-08,2022-03-08,株式会社ｋｉｔｔｏ．,,株式会社,神奈川県,横浜市青葉区,美しが丘１丁目１３番地１０吉村ビル１０７号,,14,117,2250002,,,,,,,2022-03-08,1,,,,,キット,0
929,4020001145573,新規,0,2022-03-08,2022-03-08,Ｔｗｏｆｏｌｄ　Ｃｏｎｓｕｌｔｉｎｇ株式会社,,株式会社,神奈川県,横浜市西区,岡野１丁目３番１４－１０２号,,14,103,2200073,,,,,,,2022-03-08,1,,,,,トゥーフォールドコンサルティング,0
940,4021001075257,新規,0,2022-03-08,2022-03-08,ＪＡＰＡＮ　ＩＮＴＥＲＮＡＴＩＯＮＡＬ株式会社,,株式会社,神奈川県,藤沢市,葛原１３４番地,,14,205,2520822,,,,,,,2022-03-08,1,,,,,ジャパンインターナショナル,0
941,4021001075348,新規,0,2022-03-08,2022-03-08,株式会社ＮｅｗＲｏｏｔｓ,,株式会社,神奈川県,鎌倉市,大町１丁目１－１４ＨＡＴＳＵ鎌倉３Ｆ,,14,204,2480007,,,,,,,2022-03-08,1,,,,,ニュールーツ,0
942,4021001075380,新規,0,2022-03-08,2022-03-08,株式会社Ｇｅｒｍｅｒ,,株式会社,神奈川県,海老名市,中央１丁目１９番２１号エクセレント海老名Ａ３０１,,14,215,2430432,,,,,,,2022-03-08,1,,,,,ジェルメ,0
944,4021003011466,新規,0,2022-03-08,2022-03-08,合同会社ＥｃｏＬｏｇ,,合同会社,神奈川県,相模原市緑区,二本松２丁目１４番２号,,14,151,2520137,,,,,,,2022-03-08,1,,,,,エコログ,0
954,4030001147057,新規,0,2022-03-08,2022-03-08,ヒロプラス株式会社,,株式会社,埼玉県,川越市,東田町１１番地２７,,11,201,3501114,,,,,,,2022-03-08,1,,,,,ヒロプラス,0
955,4030001147065,新規,0,2022-03-08,2022-03-08,株式会社ＲＨ,,株式会社,埼玉県,深谷市,東大沼９２番地４,,11,218,3660828,,,,,,,2022-03-08,1,,,,,アールエイチ,0
956,4030001147107,新規,0,2022-03-08,2022-03-08,株式会社Ｆｉｒｓｔ　Ｌｉｇｈｔ,,株式会社,埼玉県,さいたま市浦和区,北浦和３丁目２番１８号１２０８,,11,107,3300074,,,,,,,2022-03-08,1,,,,,ファーストライト,0
957,4030001147131,新規,0,2022-03-08,2022-03-08,株式会社ＲＥＢＯＲＮ,,株式会社,埼玉県,さいたま市大宮区,上小町７８７－２３,,11,103,3300855,,,,,,,2022-03-08,1,,,,,リボーン,0
958,4030001147180,新規,0,2022-03-08,2022-03-08,株式会社フロントシステム,,株式会社,埼玉県,志木市,本町５丁目２３番２４号第３本吉ビル４階,,11,228,3530004,,,,,,,2022-03-08,1,,,,,フロントシステム,0
968,4040001122538,新規,0,2022-03-08,2022-03-08,３ＣＳ　ＤＥＳＩＧＮ株式会社,,株式会社,千葉県,佐倉市,上志津１７６７番地８,,12,212,2850846,,,,,,,2022-03-08,1,,,,,スリーシーエスデザイン,0
971,4050001050746,新規,0,2022-03-08,2022-03-08,株式会社リードケア,,株式会社,茨城県,稲敷市,江戸崎甲９３４番地３,,08,229,3000504,,,,,,,2022-03-08,1,,,,,リードケア,0
972,4050003006416,新規,0,2022-03-08,2022-03-08,合同会社オリージュ,,合同会社,茨城県,守谷市,松前台２丁目２４－９（２Ｆ）,,08,224,3020102,,,,,,,2022-03-08,1,,,,,,0
988,4080401025667,新規,0,2022-03-08,2022-03-08,Ｒ＆Ｔ．Ｋ株式会社,,株式会社,静岡県,浜松市中区,広沢２丁目２０番３号,,22,131,4328013,,,,,,,2022-03-08,1,,,,,アールアンドティーケー,0
994,4100001035130,新規,0,2022-03-08,2022-03-08,株式会社Ｈａｗｋｍｏｏｎ,,株式会社,長野県,上田市,中野２０９番地７,,20,203,3861325,,,,,,,2022-03-08,1,,,,,ホークムーン,0
995,4100001035139,新規,0,2022-03-08,2022-03-08,ＭＣＳ株式会社,,株式会社,長野県,佐久市,下越１４３番地,,20,217,3840414,,,,,,,2022-03-08,1,,,,,エムシーエス,0
999,4100003006443,新規,0,2022-03-08,2022-03-08,合同会社ライトネクスト,,合同会社,長野県,東御市,常田９８番地８,,20,219,3890515,,,,,,,2022-03-08,1,,,,,ライトネクスト,0
1015,4120001244167,新規,0,2022-03-08,2022-03-08,株式会社４ｗｉｌｌ　Ｊａｐａｎ,,株式会社,大阪府,大阪市東淀川区,東中島１丁目１７番５号,,27,114,5330033,,,,,,,2022-03-08,1,,,,,フォーウィルジャパン,0
1016,4120001244225,新規,0,2022-03-08,2022-03-08,株式会社ハードル,,株式会社,大阪府,大阪市鶴見区,茨田大宮２丁目４番２３号,,27,124,5380031,,,,,,,2022-03-08,1,,,,,ハードル,0
1017,4120001244316,新規,0,2022-03-08,2022-03-08,ＨＫＩＴ商事株式会社,,株式会社,大阪府,大阪市西成区,花園北２丁目１番１４号１００４,,27,122,5570016,,,,,,,2022-03-08,1,,,,,ホキットショウジ,0
1018,4120001244349,新規,0,2022-03-08,2022-03-08,株式会社ビリーブ,,株式会社,大阪府,大阪市西区,川口２丁目７番４号,,27,106,5500021,,,,,,,2022-03-08,1,,,,,ビリーブ,0
1019,4120001244381,新規,0,2022-03-08,2022-03-08,株式会社谷山工業,,株式会社,大阪府,大阪市西成区,岸里東１丁目６番１５－１０１号,,27,122,5570042,,,,,,,2022-03-08,1,,,,,タニヤマコウギョウ,0
1020,4120003021250,新規,0,2022-03-08,2022-03-08,合同会社サムティブリッジワン,,合同会社,大阪府,大阪市淀川区,西宮原１丁目８番３９号,,27,123,5320004,,,,,,,2022-03-08,1,,,,,サムティブリッジワン,0
1022,4120005022825,新規,0,2022-03-08,2022-03-08,一般社団法人ＫＩＳＡ２隊,,その他の設立登記法人,大阪府,大阪市旭区,新森７丁目１番４号,,27,117,5350022,,,,,,,2022-03-08,1,,,,,キサツタイ,0
1024,4120103004601,新規,0,2022-03-08,2022-03-08,合同会社Ｓｕｎｓｈｉｎｅ　Ｌｉｖｅ,,合同会社,大阪府,堺市中区,深井沢町２７９－１－７０５,,27,142,5998236,,,,,,,2022-03-08,1,,,,,サンシャインライブ,0
1027,4120901045697,新規,0,2022-03-08,2022-03-08,株式会社ＮＮエージェンシー,,株式会社,大阪府,池田市,空港１丁目５番２１号,,27,204,5630034,,,,,,,2022-03-08,1,,,,,エヌエヌエージェンシー,0
1034,4130001071288,新規,0,2022-03-08,2022-03-08,株式会社ＫＹカンパニー,,株式会社,京都府,長岡京市,開田３丁目３番１４－４０７号,,26,209,6170826,,,,,,,2022-03-08,1,,,,,ケーワイカンパニー,0
1035,4130001071296,新規,0,2022-03-08,2022-03-08,株式会社ケイメディカル,,株式会社,京都府,京都市中京区,壬生森町５６－２０第２８長栄四条ＳＫハイツ３０４,,26,104,6048862,,,,,,,2022-03-08,1,,,,,ケイメディカル,0
1037,4130003007802,新規,0,2022-03-08,2022-03-08,合同会社Ｇｌｏｂａｌ　Ｅａｒｔｈ,,合同会社,京都府,京都市伏見区,御駕籠町１６０－２－１０１,,26,109,6128065,,,,,,,2022-03-08,1,,,,,,0
1049,4160005011056,新規,0,2022-03-08,2022-03-08,一般社団法人滋賀チャレンジドアスリートクラブ,,その他の設立登記法人,滋賀県,甲賀市,信楽町長野１３３７番地６,,25,209,5291851,,,,,,,2022-03-08,1,,,,,シガチャレンジドアスリートクラブ,0
1050,4170003001693,新規,0,2022-03-08,2022-03-08,ＭＥＬＯＮ合同会社,,合同会社,和歌山県,和歌山市,井辺４２９－４,,30,201,6408302,,,,,,,2022-03-08,1,,,,,メロン,0
1060,4180001150194,新規,0,2022-03-08,2022-03-08,株式会社ＴＡＰ,,株式会社,愛知県,一宮市,起字下町２１６番地５,,23,203,4940006,,,,,,,2022-03-08,1,,,,,ティーエーピー,0
1061,4180001150269,新規,0,2022-03-08,2022-03-08,株式会社空,,株式会社,愛知県,愛知郡東郷町,大字諸輪字狐坂１２番地６バンベール和合２－８０１,,23,302,4700151,,,,,,,2022-03-08,1,,,,,ソラ,0
1065,4180301036003,新規,0,2022-03-08,2022-03-08,株式会社ＲＩＮＤＡ‐ＮＯＥ,,株式会社,愛知県,安城市,桜井町新田４９番地,,23,212,4441154,,,,,,,2022-03-08,1,,,,,リンダノエ,0
1066,4190001029207,新規,0,2022-03-08,2022-03-08,株式会社ユナイトベイス,,株式会社,三重県,四日市市,城西町４番２１号,,24,202,5100829,,,,,,,2022-03-08,1,,,,,ユナイトベイス,0
1071,4210001018834,新規,0,2022-03-08,2022-03-08,宗大重建株式会社,,株式会社,福井県,三方上中郡若狭町,田上第２５号１０番地の３,,18,501,9191326,,,,,,,2022-03-08,1,,,,,ソウダイジュウケン,0
1076,4230001019260,新規,0,2022-03-08,2022-03-08,株式会社ＭＹパートナーズ,,株式会社,富山県,富山市,八人町４番１１号,,16,201,9300026,,,,,,,2022-03-08,1,,,,,エムワイパートナーズ,0
1083,4240003005514,新規,0,2022-03-08,2022-03-08,合同会社セイエン,,合同会社,広島県,福山市,春日町１丁目５－５５メゾン・ヌーベルアイ１０３,,34,207,7210907,,,,,,,2022-03-08,1,,,,,セイエン,0
1095,4290001096708,新規,0,2022-03-08,2022-03-08,株式会社Ｔｗｏ‐ｃａｌｌ,,株式会社,福岡県,福岡市南区,弥永４丁目５番１６－１０１号,,40,134,8111323,,,,,,,2022-03-08,1,,,,,ツーコール,0
1096,4290001096724,新規,0,2022-03-08,2022-03-08,株式会社エネクション,,株式会社,福岡県,福岡市東区,青葉３丁目４２－３７,,40,131,8130025,,,,,,,2022-03-08,1,,,,,エネクション,0
1097,4290001096732,新規,0,2022-03-08,2022-03-08,ＡＭＢＩ株式会社,,株式会社,福岡県,宗像市,大穂５６８番地,,40,220,8113421,,,,,,,2022-03-08,1,,,,,アンビ,0
1101,4290801028323,新規,0,2022-03-08,2022-03-08,株式会社弥栄,,株式会社,福岡県,北九州市八幡西区,池田１丁目２番５号,,40,109,8071125,,,,,,,2022-03-08,1,,,,,ヤサカ,0
1110,4350003004042,新規,0,2022-03-08,2022-03-08,合同会社山内,,合同会社,宮崎県,宮崎市,大字塩路６１５番地２,,45,201,8800122,,,,,,,2022-03-08,1,,,,,ヤマウチ,0
1113,4360001030064,新規,0,2022-03-08,2022-03-08,株式会社嘉陽硝子,,株式会社,沖縄県,うるま市,石川東山１丁目２１番地１１,,47,213,9041102,,,,,,,2022-03-08,1,,,,,カヨウガラス,0
1114,4360001030089,新規,0,2022-03-08,2022-03-08,株式会社Ｍ＆Ｒ,,株式会社,沖縄県,那覇市,金城１丁目１番地１,,47,201,9010155,,,,,,,2022-03-08,1,,,,,エムアンドアール,0
1115,4360001030097,新規,0,2022-03-08,2022-03-08,株式会社エグゼワーク,,株式会社,沖縄県,那覇市,曙３丁目７番１号真松ビル３０２号室,,47,201,9000002,,,,,,,2022-03-08,1,,,,,エグゼワーク,0
1118,4360003011855,新規,0,2022-03-08,2022-03-08,０９．ＣＲＥＡＴＥ合同会社,,合同会社,沖縄県,うるま市,字具志川３３４４－１,,47,213,9042223,,,,,,,2022-03-08,1,,,,,ナインクリエイト,0
1132,4420001017757,新規,0,2022-03-08,2022-03-08,株式会社Ｆ７,,株式会社,青森県,十和田市,西一番町２２番２０号,,02,206,0340092,,,,,,,2022-03-08,1,,,,,エフセブン,0
1136,4430001086099,新規,0,2022-03-08,2022-03-08,株式会社こ洩れび,,株式会社,北海道,苫小牧市,川沿町４丁目７番１３－１Ｃ号,,01,213,0530822,,,,,,,2022-03-08,1,,,,,コモレビ,0
1137,4430001086124,新規,0,2022-03-08,2022-03-08,株式会社Ｎａｋｋｕｎ’ｓ,,株式会社,北海道,札幌市白石区,本通１３丁目南４番１１－８０１号,,01,104,0030026,,,,,,,2022-03-08,1,,,,,ナックンズ,0
1138,4430001086157,新規,0,2022-03-08,2022-03-08,株式会社サクラリーフ,,株式会社,北海道,札幌市南区,澄川五条３丁目２番３－１０８号,,01,106,0050005,,,,,,,2022-03-08,1,,,,,サクラリーフ,0
1139,4430001086165,新規,0,2022-03-08,2022-03-08,株式会社結実,,株式会社,北海道,札幌市北区,新川四条４丁目２番３０号ピュアパレス２０２号,,01,102,0010924,,,,,,,2022-03-08,1,,,,,ユウミ,0
1143,4480001011671,新規,0,2022-03-08,2022-03-08,株式会社ＴＥＡＭ安藝,,株式会社,徳島県,徳島市,八万町下長谷１９３番地の１,,36,201,7708070,,,,,,,2022-03-08,1,,,,,チームアキ,0
1155,5010001224864,新規,0,2022-03-08,2022-03-08,株式会社ｎｅｗｔｒａｌ,,株式会社,東京都,中央区,日本橋浜町３丁目４５番３号浜町野島ビル４階,,13,102,1030007,,,,,,,2022-03-08,1,,,,,ニュートラル,0
1156,5010001224971,新規,0,2022-03-08,2022-03-08,特許トランスホールディングス株式会社,,株式会社,東京都,千代田区,飯田橋１丁目７番１０号山京別館５０１,,13,101,1020072,,,,,,,2022-03-08,1,,,,,トッキョトランスホールディングス,0
1159,5010003037174,新規,0,2022-03-08,2022-03-08,アオクシズ合同会社,,合同会社,東京都,千代田区,神田司町２丁目１３ワイムビジネスプラザ神田,,13,101,1010048,,,,,,,2022-03-08,1,,,,,アオクシズ,0
1161,5010005034698,新規,0,2022-03-08,2022-03-08,医療法人社団ＧＡＣ　ＡＹＵＭｉ,,その他の設立登記法人,東京都,中央区,銀座３丁目２番１１号ＧＩＮＺＡＳＡＬＯＮＥ５階,,13,102,1040061,,,,,,,2022-03-08,1,,,,,ジーエーシーアユミ,0
1167,5010401166038,新規,0,2022-03-08,2022-03-08,株式会社ＡＸＩＡ,,株式会社,東京都,港区,赤坂２丁目５番８号ヒューリックＪＰ赤坂ビル５０８号,,13,103,1070052,,,,,,,2022-03-08,1,,,,,アクシア,0
1168,5010401166062,新規,0,2022-03-08,2022-03-08,ネクスプロイド株式会社,,株式会社,東京都,港区,三田１－３－４０天翔オフィス麻布十番３１１,,13,103,1050000,,,,,,,2022-03-08,1,,,,,ネクスプロイド,0
1173,5010601060775,新規,0,2022-03-08,2022-03-08,株式会社ＤＳＲ,,株式会社,東京都,江東区,新砂３丁目４番３－３０３号,,13,108,1360075,,,,,,,2022-03-08,1,,,,,ディーエスアール,0
1180,5010903007210,新規,0,2022-03-08,2022-03-08,合同会社ＬＧＯ,,合同会社,東京都,世田谷区,上用賀５丁目１１番８号ピュット２９・２０１,,13,112,1580098,,,,,,,2022-03-08,1,,,,,エルジーオー,0
1190,5011001146116,新規,0,2022-03-08,2022-03-08,株式会社フィラーレ不動産,,株式会社,東京都,目黒区,洗足２丁目１７番１３号,,13,110,1520012,,,,,,,2022-03-08,1,,,,,フィラーレフドウサン,0
1191,5011001146140,新規,0,2022-03-08,2022-03-08,株式会社ｐｅａｋ,,株式会社,東京都,渋谷区,神南１丁目５－１４ラ・トゥール渋谷神南４０２,,13,113,1500041,,,,,,,2022-03-08,1,,,,,ピーク,0
1192,5011001146149,新規,0,2022-03-08,2022-03-08,株式会社シーピープラス,,株式会社,東京都,渋谷区,渋谷２丁目１６番１号,,13,113,1500002,,,,,,,2022-03-08,1,,,,,シーピープラス,0
1193,5011001146157,新規,0,2022-03-08,2022-03-08,株式会社ＡＣＱＵＡ　ＥＩＧＨＴ,,株式会社,東京都,渋谷区,本町５丁目４２－１２－５０６号,,13,113,1510071,,,,,,,2022-03-08,1,,,,,アクアエイト,0
1194,5011001146181,新規,0,2022-03-08,2022-03-08,株式会社Ｋ　ｂｏｉｓ　Ｋｉｔｃｈｅｎ,,株式会社,東京都,目黒区,中目黒３丁目１２番５号,,13,110,1530061,,,,,,,2022-03-08,1,,,,,ケイボアキッチン,0
1197,5011003014320,新規,0,2022-03-08,2022-03-08,ＧＥＮＥＲＡＴＩＶＥ　ＡＲＴ　ＳＴＵＤＩＯ合同会社,,合同会社,東京都,目黒区,八雲１丁目７番１８号シルクアパルト１Ｆ,,13,110,1520023,,,,,,,2022-03-08,1,,,,,ジェネラティブアートスタジオ,0
1208,5011101098059,新規,0,2022-03-08,2022-03-08,株式会社ハッピーバリー,,株式会社,東京都,新宿区,歌舞伎町１丁目１番７号,,13,104,1600021,,,,,,,2022-03-08,1,,,,,ハッピーバリー,0
1210,5011103011523,新規,0,2022-03-08,2022-03-08,ＡＳＩＡＢＩＺ合同会社,,合同会社,東京都,新宿区,新宿２丁目１０－７,,13,104,1600022,,,,,,,2022-03-08,1,,,,,,0
1212,5011301027602,新規,0,2022-03-08,2022-03-08,株式会社Ｇｅｎｅｒａｌ　Ｃｏｍｐａｎｙ,,株式会社,東京都,杉並区,荻窪５丁目２５番１号サザン・ハウス３０１,,13,115,1670051,,,,,,,2022-03-08,1,,,,,ジェネラルカンパニー,0
1213,5011301027610,新規,0,2022-03-08,2022-03-08,株式会社絲,,株式会社,東京都,杉並区,阿佐谷北４丁目２８番１４－１０６号阿佐谷コーポラス,,13,115,1660001,,,,,,,2022-03-08,1,,,,,イト,0
1214,5011303004327,新規,0,2022-03-08,2022-03-08,合同会社ＯｆｆｉｃｅＫ,,合同会社,東京都,杉並区,和田１丁目２９番９号,,13,115,1660012,,,,,,,2022-03-08,1,,,,,オフィスケイ,0
1223,5012405004702,新規,0,2022-03-08,2022-03-08,一般社団法人ＷＩＬＬ,,その他の設立登記法人,東京都,多摩市,鶴牧１丁目３番地８号オークハイツ多摩３０５号室,,13,224,2060034,,,,,,,2022-03-08,1,,,,,ウィル,0
1235,5020001145572,新規,0,2022-03-08,2022-03-08,株式会社かえる,,株式会社,神奈川県,横浜市神奈川区,片倉２丁目６５番４６号,,14,102,2210865,,,,,,,2022-03-08,1,,,,,カエル,0
1236,5020001145597,新規,0,2022-03-08,2022-03-08,株式会社アルベルビジョン,,株式会社,神奈川県,横浜市旭区,本宿町６１番地１９,,14,112,2410023,,,,,,,2022-03-08,1,,,,,アルベルビジョン,0
1237,5020003021417,新規,0,2022-03-08,2022-03-08,３Ｄｅｎ’ｓプロパティ合同会社,,合同会社,神奈川県,横浜市神奈川区,星野町８番３クリオレジダンス横濱ベイサイド１０１２,,14,102,2210035,,,,,,,2022-03-08,1,,,,,スリーデンズプロパティ,0
1238,5020003021425,新規,0,2022-03-08,2022-03-08,ＦＯＳＴＥＲ合同会社,,合同会社,神奈川県,川崎市多摩区,枡形５丁目２６番１－５０３号,,14,135,2140032,,,,,,,2022-03-08,1,,,,,フォスター,0
1243,5021001075347,新規,0,2022-03-08,2022-03-08,株式会社三心建設,,株式会社,神奈川県,座間市,ひばりが丘１丁目２０番２５号,,14,216,2520003,,,,,,,2022-03-08,1,,,,,サンシンケンセツ,0
1245,5021003011465,新規,0,2022-03-08,2022-03-08,Ａ－３合同会社,,合同会社,神奈川県,鎌倉市,由比ガ浜２丁目２０番３０号,,14,204,2480014,,,,,,,2022-03-08,1,,,,,エースリー,0
1253,5030001147048,新規,0,2022-03-08,2022-03-08,株式会社ＢＦＳ,,株式会社,埼玉県,さいたま市緑区,原山４丁目３番２３号,,11,109,3360931,,,,,,,2022-03-08,1,,,,,,0
1254,5030001147080,新規,0,2022-03-08,2022-03-08,株式会社ＴＲＹ,,株式会社,埼玉県,川口市,柳崎３丁目５番１１号,,11,203,3330861,,,,,,,2022-03-08,1,,,,,トライ,0
1255,5030001147147,新規,0,2022-03-08,2022-03-08,株式会社ＬＹＬ,,株式会社,埼玉県,川口市,元郷１丁目２－２３,,11,203,3320011,,,,,,,2022-03-08,1,,,,,リル,0
1256,5030001147155,新規,0,2022-03-08,2022-03-08,株式会社ＲＡＤ,,株式会社,埼玉県,所沢市,御幸町１５番５号,,11,208,3591115,,,,,,,2022-03-08,1,,,,,ラッド,0
1258,5030003019006,新規,0,2022-03-08,2022-03-08,善パートナーズ合同会社,,合同会社,埼玉県,東松山市,山崎町１６番地１３,,11,212,3550033,,,,,,,2022-03-08,1,,,,,ゼンパートナーズ,0
1271,5050003006407,新規,0,2022-03-08,2022-03-08,Ｓｕｎｓｈｉｎｅ　ｉｎｔｅｒｎａｔｉｏｎａｌ合同会社,,合同会社,茨城県,小美玉市,中野谷３１４－１,,08,236,3190111,,,,,,,2022-03-08,1,,,,,サンシャインインターナショナル,0
1273,5050005013021,新規,0,2022-03-08,2022-03-08,特定非営利活動法人ロベ基金,,その他の設立登記法人,茨城県,つくば市,島名２２９８番地（諏訪Ｃ１２街区９）Ｘ－ＳＴＡＧＥビル１階００３号,,08,220,3002655,,,,,,,2022-03-08,1,,,,,ロベキキン,0
1286,5080401025666,新規,0,2022-03-08,2022-03-08,ソルピオ株式会社,,株式会社,静岡県,掛川市,上張２０２番地,,22,213,4360022,,,,,,,2022-03-08,1,,,,,ソルピオ,0
1291,5100001035113,新規,0,2022-03-08,2022-03-08,株式会社秀健,,株式会社,長野県,長野市,篠ノ井塩崎３１０９番地,,20,201,3888014,,,,,,,2022-03-08,1,,,,,シュウケン,0
1292,5100001035138,新規,0,2022-03-08,2022-03-08,株式会社マルティプル,,株式会社,長野県,長野市,平林１丁目１０－１２平林ピュアＩ１０１,00125892,20,201,3810036,,,,,,,2022-03-08,1,,,,,マルティプル,0
1306,5120001244174,新規,0,2022-03-08,2022-03-08,神田興業株式会社,,株式会社,大阪府,大阪市西淀川区,出来島２丁目６番１４号,,27,113,5550031,,,,,,,2022-03-08,1,,,,,カンダコウギョウ,0
1307,5120001244257,新規,0,2022-03-08,2022-03-08,株式会社Ｄｏｏｇｄｅｓｉｇｎ．,,株式会社,大阪府,大阪市西区,京町堀１丁目８番３１号,,27,106,5500003,,,,,,,2022-03-08,1,,,,,ドーグデザイン,0
1308,5120001244273,新規,0,2022-03-08,2022-03-08,株式会社ＮＮＡ,,株式会社,大阪府,大阪市浪速区,元町３丁目１３番１６－５０４号,,27,111,5560016,,,,,,,2022-03-08,1,,,,,エヌエヌエー,0
1313,5120005022824,新規,0,2022-03-08,2022-03-08,一般社団法人スタートアップラボ,,その他の設立登記法人,大阪府,大阪市中央区,久太郎町３丁目４番１９号,,27,128,5410056,,,,,,,2022-03-08,1,,,,,スタートアップラボ,0
1317,5120103004600,新規,0,2022-03-08,2022-03-08,合同会社きぬさや,,合同会社,大阪府,高石市,西取石３丁目１４番２７号,,27,225,5920012,,,,,,,2022-03-08,1,,,,,キヌサヤ,0
1322,5122001035652,新規,0,2022-03-08,2022-03-08,株式会社ＪＡＭＥ,,株式会社,大阪府,東大阪市,吉田８丁目１番２９号,,27,227,5780924,,,,,,,2022-03-08,1,,,,,ジェーム,0
1326,5130001071295,新規,0,2022-03-08,2022-03-08,株式会社ＳＤ,,株式会社,京都府,京都市下京区,西境町１４９番地サザン京都駅前ビル４階,,26,106,6008218,,,,,,,2022-03-08,1,,,,,エスディー,0
1328,5130003007801,新規,0,2022-03-08,2022-03-08,合同会社ＤＲＡＭＡＴＩＣ　ＢＡＳＩＣ,,合同会社,京都府,城陽市,平川車塚８０番１－２０３号,00125894,26,207,6100101,,,,,,,2022-03-08,1,,,,,ドラマティックベーシック,0
1346,5180001150235,新規,0,2022-03-08,2022-03-08,ヤマザキホールディングス株式会社,,株式会社,愛知県,清須市,春日郷ケ島２８番地,,23,233,4520962,,,,,,,2022-03-08,1,,,,,ヤマザキホールディングス,0
1348,5180003023587,新規,0,2022-03-08,2022-03-08,ＳＢ　Ａｒｔｅｃｈ合同会社,,合同会社,愛知県,春日井市,白山町５丁目１０番地１９,,23,206,4870034,,,,,,,2022-03-08,1,,,,,エスビーアーテック,0
1363,5220001024731,新規,0,2022-03-08,2022-03-08,株式会社さくら日和,,株式会社,石川県,鳳珠郡能登町,字神和住ヒ部６番地,,17,463,9280325,,,,,,,2022-03-08,1,,,,,サクラヒヨリ,0
1369,5240001059445,新規,0,2022-03-08,2022-03-08,株式会社ＫＩ,,株式会社,広島県,広島市中区,東白島町５番３０－６０４号,,34,101,7300004,,,,,,,2022-03-08,1,,,,,キ,0
1374,5240005015353,新規,0,2022-03-08,2022-03-08,医療法人桜衣会,,その他の設立登記法人,広島県,安芸郡海田町,栄町２番４２号,,34,304,7360043,,,,,,,2022-03-08,1,,,,,オウイカイ,0
1379,5250001019448,新規,0,2022-03-08,2022-03-08,株式会社ＮＳＳ,,株式会社,山口県,山口市,江崎１３６番地４,,35,203,7540896,,,,,,,2022-03-08,1,,,,,エヌエスエス,0
1383,5270005005500,新規,0,2022-03-08,2022-03-08,ＮＰＯ法人日本スマートバブル研究会,,その他の設立登記法人,鳥取県,米子市,両三柳３２３番地１大共ビル３階,,31,202,6830853,,,,,,,2022-03-08,1,,,,,ニホンスマートバブルケンキュウカイ,0
1390,5290001096665,新規,0,2022-03-08,2022-03-08,株式会社ＢＥＥ　ｃｒｅａｔｏｒ,,株式会社,福岡県,古賀市,千鳥５丁目４番５号,,40,223,8113113,,,,,,,2022-03-08,1,,,,,ビークリエーター,0
1391,5290001096681,新規,0,2022-03-08,2022-03-08,株式会社ｕｎｉｆｕｎ,,株式会社,福岡県,福岡市城南区,別府６丁目６番２６－４１２号,,40,136,8140104,,,,,,,2022-03-08,1,,,,,ユニファン,0
1392,5290001096707,新規,0,2022-03-08,2022-03-08,株式会社Ｒ‐ｇｒｏｕｐ,,株式会社,福岡県,福岡市南区,弥永４丁目５番１６－１０１号,,40,134,8111323,,,,,,,2022-03-08,1,,,,,アールグループ,0
1393,5290001096715,新規,0,2022-03-08,2022-03-08,ジョルコアコーヒー株式会社,,株式会社,福岡県,福岡市西区,今宿３丁目２２番３号,,40,135,8190167,,,,,,,2022-03-08,1,,,,,ジョルコアコーヒー,0
1394,5290001096731,新規,0,2022-03-08,2022-03-08,ＦＤＫ株式会社,,株式会社,福岡県,嘉麻市,山野２１５７番地６,,40,227,8200202,,,,,,,2022-03-08,1,,,,,エフディーケー,0
1395,5290003012240,新規,0,2022-03-08,2022-03-08,合同会社３１５０カンパニー,,合同会社,福岡県,那珂川市,仲１丁目１２３番地エントピア那珂川３０２号,,40,231,8111253,,,,,,,2022-03-08,1,,,,,サイコウカンパニー,0
1396,5290801028322,新規,0,2022-03-08,2022-03-08,株式会社ビーライズ,,株式会社,福岡県,北九州市小倉北区,城内４番２サンパーク小倉城内イクシア７０３号,,40,106,8030813,,,,,,,2022-03-08,1,,,,,ビーライズ,0
1406,5330001029521,新規,0,2022-03-08,2022-03-08,トレンタトレ株式会社,,株式会社,熊本県,熊本市中央区,出水８丁目１５番２７号,,43,101,8620941,,,,,,,2022-03-08,1,,,,,トレンタトレ,0
1412,5360001030096,新規,0,2022-03-08,2022-03-08,株式会社舎楽,,株式会社,沖縄県,沖縄市,泡瀬２丁目３番５号,,47,211,9042172,,,,,,,2022-03-08,1,,,,,シャラク,0
1414,5360003011854,新規,0,2022-03-08,2022-03-08,ＩＭＵ　ＰＡＬＵ合同会社,,合同会社,沖縄県,中頭郡中城村,字添石浜原７２番地,,47,328,9012404,,,,,,,2022-03-08,1,,,,,インパル,0
1415,5370001048278,新規,0,2022-03-08,2022-03-08,株式会社ハウスクリーニング若柳,,株式会社,宮城県,栗原市,若柳字大林町裏１２４番地,,04,213,9895506,,,,,,,2022-03-08,1,,,,,ハウスクリーニングワカヤナギ,0
1416,5370003005616,新規,0,2022-03-08,2022-03-08,合同会社ＭＴＣ,,合同会社,宮城県,仙台市青葉区,国見１丁目１２－２,,04,101,9810943,,,,,,,2022-03-08,1,,,,,エムティーシー,0
1420,5380001032628,新規,0,2022-03-08,2022-03-08,株式会社ジュビリオーナ,,株式会社,福島県,会津若松市,町北町大字藤室字藤室４９１番地,,07,202,9650057,,,,,,,2022-03-08,1,,,,,ジュビリオーナ,0
1421,5380001032636,新規,0,2022-03-08,2022-03-08,株式会社リーフ,,株式会社,福島県,いわき市,平中神谷字後原８番地の５,,07,204,9708021,,,,,,,2022-03-08,1,,,,,リーフ,0
1425,5390003001935,新規,0,2022-03-08,2022-03-08,合同会社ｍｏｎｏｓｏｒａ,,合同会社,山形県,山形市,若宮３丁目７番２５‐９０２号ドゥペール吉原壱番館,,06,201,9902453,,,,,,,2022-03-08,1,,,,,モノソラ,0
1426,5390005008945,新規,0,2022-03-08,2022-03-08,一般社団法人ＥＣＦｏＬＡＳ,,その他の設立登記法人,山形県,最上郡金山町,大字金山２２７７番地１,,06,361,9995402,,,,,,,2022-03-08,1,,,,,エクフォラス,0
1427,5420001017764,新規,0,2022-03-08,2022-03-08,株式会社ヤマウチファーム,,株式会社,青森県,弘前市,大字独狐字松ケ沢１２番地,,02,202,0368381,,,,,,,2022-03-08,1,,,,,ヤマウチファーム,0
1430,5430001086098,新規,0,2022-03-08,2022-03-08,Ｔｈｅ　Ｕｎｉｔｅｄ　Ｈｏｌｄｉｎｇｓ株式会社,,株式会社,北海道,札幌市中央区,北五条西１１丁目１４番地,,01,101,0600005,,,,,,,2022-03-08,1,,,,,ザユナイテッドホールディングス,0
1431,5430001086156,新規,0,2022-03-08,2022-03-08,株式会社ＡＥＲＯ　ＢＬＵＥ,,株式会社,北海道,札幌市中央区,伏見３丁目１２番１４号,,01,101,0640942,,,,,,,2022-03-08,1,,,,,エアロブルー,0
1433,5450001013637,新規,0,2022-03-08,2022-03-08,株式会社ＦＴＤｌａｂ,,株式会社,北海道,上川郡東川町,東２号北３番地,,01,458,0711432,,,,,,,2022-03-08,1,,,,,エフティーディーラボ,0
1435,5460001005658,新規,0,2022-03-08,2022-03-08,株式会社丸本本間商店,,株式会社,北海道,釧路市,錦町２丁目１番地,,01,206,0850016,,,,,,,2022-03-08,1,,,,,マルホンホンマショウテン,0
1436,5460103001431,新規,0,2022-03-08,2022-03-08,合同会社ｔａｋｅ‐ｆａｃｔｏｒｙ,,合同会社,北海道,帯広市,柏林台東町５丁目１３番地,,01,207,0800055,,,,,,,2022-03-08,1,,,,,テイクファクトリー,0
1441,5480001011670,新規,0,2022-03-08,2022-03-08,株式会社ＴＦファーム,,株式会社,徳島県,三好郡東みよし町,足代１００５番地,,36,489,7712502,,,,,,,2022-03-08,1,,,,,ティーエフファーム,0
1454,6010001224979,新規,0,2022-03-08,2022-03-08,ＭＴＲホールディングス株式会社,,株式会社,東京都,千代田区,丸の内２丁目３番２号郵船ビルディング７階,,13,101,1000005,,,,,,,2022-03-08,1,,,,,エムティーアールホールディングス,0
1455,6010001224995,新規,0,2022-03-08,2022-03-08,株式会社ビルポ,,株式会社,東京都,中央区,日本橋３丁目３番５号ＮＳ日本橋ビル２階,,13,102,1030027,,,,,,,2022-03-08,1,,,,,ビルポ,0
1456,6010001225044,新規,0,2022-03-08,2022-03-08,株式会社ビッグマート,,株式会社,東京都,中央区,銀座１丁目１２番４号Ｎ＆ＥＢＬＤ．７階,,13,102,1040061,,,,,,,2022-03-08,1,,,,,ビッグマート,0
1457,6010001225060,新規,0,2022-03-08,2022-03-08,Ｄｉａｄｅｍ　Ｔｅｃｈｎｏｌｏｇｉｅｓ株式会社,,株式会社,東京都,中央区,銀座１丁目２２番１１号銀座大竹ビジデンス２階,,13,102,1040061,,,,,,,2022-03-08,1,,,,,ダイアデムテクノロジーズ,0
1458,6010003037116,新規,0,2022-03-08,2022-03-08,合同会社フードカーズクリエーション,,合同会社,東京都,千代田区,九段南１丁目５番６号りそな九段ビル５Ｆ＿ＫＳフロア,,13,101,1020074,,,,,,,2022-03-08,1,,,,,フードカーズクリエーション,0
1459,6010003037157,新規,0,2022-03-08,2022-03-08,沖縄鉱山開発合同会社,,合同会社,東京都,中央区,京橋２丁目７番１４号ビュレックス京橋７０３港総合会計事務所内,,13,102,1040031,,,,,,,2022-03-08,1,,,,,オキナワコウザンカイハツ,0
1460,6010005034706,新規,0,2022-03-08,2022-03-08,一般社団法人留寿都,,その他の設立登記法人,東京都,千代田区,永田町２丁目１１番１号山王パークタワー２１階,,13,101,1000014,,,,,,,2022-03-08,1,,,,,ルスツ,0
1463,6010401044085,新規,0,2022-03-08,2022-03-08,株式会社平出通信工業,,株式会社,東京都,港区,新橋２丁目５番６号大村ビル５階,,13,103,1050004,,,,,,,2022-03-08,1,,,,,ヒライデツウシンコウギョウ,0
1465,6010401166020,新規,0,2022-03-08,2022-03-08,ＣＰ　Ｆｉｎａｎｃｉａｌ　Ｊａｐａｎ株式会社,,株式会社,東京都,港区,南麻布３丁目１９番２３号オーク南麻布ビル２階,,13,103,1060047,,,,,,,2022-03-08,1,,,,,シーピーフィナンシャルジャパン,0
1466,6010401166037,新規,0,2022-03-08,2022-03-08,株式会社ＪＵＳＰＥＲ　ＧＲＯＵＮＤ,,株式会社,東京都,港区,赤坂２丁目５番８号ヒューリックＪＰ赤坂ビル５１７号,,13,103,1070052,,,,,,,2022-03-08,1,,,,,ジャスパーグラウンド,0
1469,6010403027229,新規,0,2022-03-08,2022-03-08,Ｇｒｅｅｎ　Ｎｅｉｇｈｂｏｒｓ合同会社,,合同会社,東京都,港区,南青山２丁目２番１５号,,13,103,1070062,,,,,,,2022-03-08,1,,,,,グリーンネイバーズ,0
1470,6010501048531,新規,0,2022-03-08,2022-03-08,株式会社ＥＶＡ,,株式会社,東京都,台東区,根岸３丁目２５番地６号,,13,106,1100003,,,,,,,2022-03-08,1,,,,,エヴァ,0
1492,6011001146057,新規,0,2022-03-08,2022-03-08,ＢｅｙｓｅｌＵＮＯ株式会社,,株式会社,東京都,渋谷区,神宮前５丁目３７番１３号,,13,113,1500001,,,,,,,2022-03-08,1,,,,,ビヨセルウノ,0
1493,6011001146239,新規,0,2022-03-08,2022-03-08,株式会社フロンティア,,株式会社,東京都,目黒区,目黒１丁目４－１６目黒Ｇビル,,13,110,1530063,,,,,,,2022-03-08,1,,,,,フロンティア,0
1497,6011103011506,新規,0,2022-03-08,2022-03-08,合同会社Ａｃｈｉｅｖｅ　Ｐｌａｎｎｉｎｇ,,合同会社,東京都,新宿区,下宮比町２番２８号,,13,104,1620822,,,,,,,2022-03-08,1,,,,,アチーブプランニング,0
1498,6011103011539,新規,0,2022-03-08,2022-03-08,合同会社ＮＡＹＵＴＡエージェント,,合同会社,東京都,新宿区,下宮比町２－２８－６１７,,13,104,1620822,,,,,,,2022-03-08,1,,,,,ナユタエージェント,0
1499,6011105010167,新規,0,2022-03-08,2022-03-08,一般社団法人ＭＯＮＡ協会日本,,その他の設立登記法人,東京都,新宿区,百人町１丁目１７番１０号常陽第２ビル３Ｆ,,13,104,1690073,,,,,,,2022-03-08,1,,,,,モナキョウカイニッポン,0
1500,6011203003766,新規,0,2022-03-08,2022-03-08,合同会社汀点,,合同会社,東京都,中野区,東中野２丁目６番１４号,,13,114,1640003,,,,,,,2022-03-08,1,,,,,テイテン,0
1502,6011301027601,新規,0,2022-03-08,2022-03-08,株式会社ディーエル,,株式会社,東京都,杉並区,上荻４丁目３０番８－１０２号,,13,115,1670043,,,,,,,2022-03-08,1,,,,,ディーエル,0
1503,6011303004326,新規,0,2022-03-08,2022-03-08,合同会社ツムナス,,合同会社,東京都,杉並区,阿佐谷北５丁目６番９号,,13,115,1660001,,,,,,,2022-03-08,1,,,,,ツムナス,0
1506,6011501027822,新規,0,2022-03-08,2022-03-08,株式会社イダダイスケスタジオ,,株式会社,東京都,荒川区,東日暮里１丁目１６番１３号神田ビル５・２０２,,13,118,1160014,,,,,,,2022-03-08,1,,,,,イダダイスケスタジオ,0
1510,6011601025783,新規,0,2022-03-08,2022-03-08,株式会社ＨａｎａｍｉＷＥＢ,,株式会社,東京都,練馬区,豊玉北５丁目２３番１３号クレール遠山ビル３階,,13,120,1760012,,,,,,,2022-03-08,1,,,,,ハナミウェブ,0
1517,6012401038926,新規,0,2022-03-08,2022-03-08,株式会社ほけんの設計,,株式会社,東京都,稲城市,矢野口２４０５番地の３,,13,225,2060812,,,,,,,2022-03-08,1,,,,,ホケンノセッケイ,0
1532,6020001145480,新規,0,2022-03-08,2022-03-08,オフイスポケツトグループ株式会社,,株式会社,神奈川県,横浜市青葉区,青葉台１丁目５番２号ライオンズマンション青葉台第５－３１４号,,14,117,2270062,,,,,,,2022-03-08,1,,,,,オフイスポケツトグループ,0
1533,6020001145571,新規,0,2022-03-08,2022-03-08,株式会社魔法のワンピース,,株式会社,神奈川県,横浜市中区,翁町１丁目５番２－３０５号,,14,104,2310028,,,,,,,2022-03-08,1,,,,,マホウノワンピース,0
1534,6020001145588,新規,0,2022-03-08,2022-03-08,ＹＵＩＧＯ株式会社,,株式会社,神奈川県,横浜市保土ケ谷区,西久保町１－４－１－５３４,,14,106,2400022,,,,,,,2022-03-08,1,,,,,ユイゴ,0
1542,6020003021408,新規,0,2022-03-08,2022-03-08,合同会社エッジワークス,,合同会社,神奈川県,川崎市宮前区,鷺沼３丁目４番地３,,14,136,2160004,,,,,,,2022-03-08,1,,,,,エッジワークス,0
1543,6020003021424,新規,0,2022-03-08,2022-03-08,合同会社ユーズフル,,合同会社,神奈川県,横浜市都筑区,北山田６丁目４４－９クラリス２０２,,14,118,2240021,,,,,,,2022-03-08,1,,,,,ユーズフル,0
1545,6021001075370,新規,0,2022-03-08,2022-03-08,株式会社ＦＵＺＩＮ・ＪＡＰＡＮ,,株式会社,神奈川県,藤沢市,藤沢１００９番地の６中島ビル３階,,14,205,2510052,,,,,,,2022-03-08,1,,,,,フージンジャパン,0
1546,6021001075395,新規,0,2022-03-08,2022-03-08,株式会社ＫＳＴ．,,株式会社,神奈川県,相模原市南区,下溝字大林２１９７番地,,14,153,2520335,,,,,,,2022-03-08,1,,,,,ケイエスティー,0
1548,6021003011464,新規,0,2022-03-08,2022-03-08,合同会社Ｌｕｃｅ,,合同会社,神奈川県,藤沢市,片瀬海岸２丁目１４番３号パレステージ片瀬江ノ島３０１,,14,205,2510035,,,,,,,2022-03-08,1,,,,,ルーチェ,0
1552,6030001147047,新規,0,2022-03-08,2022-03-08,幸陵建設株式会社,,株式会社,埼玉県,所沢市,大字荒幡２９０番地の１５,,11,208,3591133,,,,,,,2022-03-08,1,,,,,コウリョウケンセツ,0
1553,6030001147088,新規,0,2022-03-08,2022-03-08,株式会社ＮＹＳインテグラル,,株式会社,埼玉県,深谷市,国済寺４６９番地１,,11,218,3660033,,,,,,,2022-03-08,1,,,,,エヌワイエスインテグラル,0
1554,6030001147154,新規,0,2022-03-08,2022-03-08,ブリックス株式会社,,株式会社,埼玉県,蕨市,北町４丁目１０番２８号,,11,223,3350001,,,,,,,2022-03-08,1,,,,,ブリックス,0
1556,6030003018964,新規,0,2022-03-08,2022-03-08,合同会社ＦＬＴ,,合同会社,埼玉県,さいたま市北区,本郷町９９０番地５,,11,102,3310802,,,,,,,2022-03-08,1,,,,,エフエルティー,0
1557,6030003018972,新規,0,2022-03-08,2022-03-08,森田商事合同会社,,合同会社,埼玉県,所沢市,並木８丁目７番地４－４０６,,11,208,3590042,,,,,,,2022-03-08,1,,,,,モリタショウジ,0
1558,6030003018997,新規,0,2022-03-08,2022-03-08,合同会社Ｆ．Ｔ．Ｉ,,合同会社,埼玉県,蕨市,塚越１丁目２番１１号,,11,223,3350002,,,,,,,2022-03-08,1,,,,,エフティアイ,0
1568,6040001122560,新規,0,2022-03-08,2022-03-08,株式会社マップ５,,株式会社,千葉県,千葉市稲毛区,長沼原町４０１番地８,,12,103,2630001,,,,,,,2022-03-08,1,,,,,マップファイブ,0
1572,6040003019573,新規,0,2022-03-08,2022-03-08,合同会社いなレジ,,合同会社,千葉県,千葉市稲毛区,稲毛台町２－１３－２０３,,12,103,2630032,,,,,,,2022-03-08,1,,,,,イナレジ,0
1573,6050001050736,新規,0,2022-03-08,2022-03-08,ＳＡＫＵＲＡ株式会社,,株式会社,茨城県,つくば市,谷田部乙２２２６番地１棟３０１号,,08,220,3050861,,,,,,,2022-03-08,1,,,,,サクラ,0
1585,6080401025665,新規,0,2022-03-08,2022-03-08,株式会社ヒクマノ整備,,株式会社,静岡県,浜松市中区,葵東１丁目３番４３号,,22,131,4338114,,,,,,,2022-03-08,1,,,,,ヒクマノセイビ,0
1588,6080405007437,新規,0,2022-03-08,2022-03-08,ＮＰＯ法人わたぼうしグランドデザイン,,その他の設立登記法人,静岡県,浜松市西区,篠原町３９４６番地の３,,22,133,4310201,,,,,,,2022-03-08,1,,,,,ワタボウシグランドデザイン,0
1589,6090003002054,新規,0,2022-03-08,2022-03-08,合同会社まる幸,,合同会社,山梨県,中央市,布施２４９番地３,,19,214,4093841,,,,,,,2022-03-08,1,,,,,マルコウ,0
1590,6100001035137,新規,0,2022-03-08,2022-03-08,株式会社堀江勇暢建築設計,,株式会社,長野県,長野市,東鶴賀町３２番地２,,20,201,3800811,,,,,,,2022-03-08,1,,,,,ホリエタケノブケンチクセッケイ,0
1592,6100003006441,新規,0,2022-03-08,2022-03-08,合同会社ななとも農場,,合同会社,長野県,佐久市,岩村田２８６５番地３,,20,217,3850022,,,,,,,2022-03-08,1,,,,,ナナトモノウジョウ,0
1595,6110001036489,新規,0,2022-03-08,2022-03-08,株式会社マサ,,株式会社,新潟県,小千谷市,大字三仏生３５４２番地２２,,15,208,9470051,,,,,,,2022-03-08,1,,,,,マサ,0
1605,6120001244157,新規,0,2022-03-08,2022-03-08,ＮＹＣ株式会社,,株式会社,大阪府,大阪市生野区,新今里３丁目４番１７号シャトー第４今里４１１Ｂ,,27,116,5440001,,,,,,,2022-03-08,1,,,,,エヌワイシー,0
1606,6120001244215,新規,0,2022-03-08,2022-03-08,株式会社ＦＵＫＵＷＡＲＡＩ,,株式会社,大阪府,大阪市北区,豊崎４丁目６番７－２８０６,,27,127,5310072,,,,,,,2022-03-08,1,,,,,フクワライ,0
1607,6120001244272,新規,0,2022-03-08,2022-03-08,株式会社家スク,,株式会社,大阪府,大阪市旭区,太子橋３丁目２番４－３０８号,,27,117,5350001,,,,,,,2022-03-08,1,,,,,イエスク,0
1608,6120001244297,新規,0,2022-03-08,2022-03-08,株式会社グッドマイナー,,株式会社,大阪府,大阪市中央区,東心斎橋１丁目２番１－１４０８号,,27,128,5420083,,,,,,,2022-03-08,1,,,,,グッドマイナー,0
1609,6120001244306,新規,0,2022-03-08,2022-03-08,株式会社ａｉａ,,株式会社,大阪府,大阪市中央区,島之内１丁目２１番３１号３Ｆ,,27,128,5420082,,,,,,,2022-03-08,1,,,,,アイア,0
1610,6120001244314,新規,0,2022-03-08,2022-03-08,株式会社Ｂ．,,株式会社,大阪府,大阪市西区,北堀江１丁目１７番１０－７０１号,,27,106,5500014,,,,,,,2022-03-08,1,,,,,ビードット,0
1611,6120001244322,新規,0,2022-03-08,2022-03-08,株式会社中福,,株式会社,大阪府,大阪市浪速区,元町３丁目８番６号,,27,111,5560016,,,,,,,2022-03-08,1,,,,,ナカフク,0
1612,6120001244339,新規,0,2022-03-08,2022-03-08,株式会社ｔ‐ｗｉｎ,,株式会社,大阪府,大阪市中央区,北浜１丁目１番２７号,,27,128,5410041,,,,,,,2022-03-08,1,,,,,ティーウィン,0
1615,6120003021240,新規,0,2022-03-08,2022-03-08,合同会社作太郎ラボラトリー,,合同会社,大阪府,大阪市北区,紅梅町４番４号ロジュマン南森町３０２号室,,27,127,5300038,,,,,,,2022-03-08,1,,,,,サクタロウラボラトリー,0
1617,6120005022831,新規,0,2022-03-08,2022-03-08,一般社団法人ＳＡＣｈｉプロジェクト,,その他の設立登記法人,大阪府,大阪市北区,天満橋３丁目３番５号,,27,127,5300042,,,,,,,2022-03-08,1,,,,,サチプロジェクト,0
1623,6120103004599,新規,0,2022-03-08,2022-03-08,合同会社中岡企画,,合同会社,大阪府,堺市南区,高倉台２丁１７番３６号,,27,145,5900117,,,,,,,2022-03-08,1,,,,,ナカオカキカク,0
1632,6130001071237,新規,0,2022-03-08,2022-03-08,株式会社リアライズ,,株式会社,京都府,京都市山科区,椥辻東潰３１－１４,,26,110,6078163,,,,,,,2022-03-08,1,,,,,リアライズ,0
1633,6130001071286,新規,0,2022-03-08,2022-03-08,ＦＩＲＳＴ株式会社,,株式会社,京都府,京丹後市,峰山町新町１１６番地の１,,26,212,6270005,,,,,,,2022-03-08,1,,,,,ファースト,0
1636,6130003007800,新規,0,2022-03-08,2022-03-08,合同会社けんぞう,,合同会社,京都府,木津川市,相楽台９丁目７番地１７,,26,214,6190223,,,,,,,2022-03-08,1,,,,,ケンゾウ,0
1637,6130005016403,新規,0,2022-03-08,2022-03-08,特定非営利活動法人ブライトサイド,,その他の設立登記法人,京都府,京都市北区,紫野大徳寺町６７番地４,,26,101,6038231,,,,,,,2022-03-08,1,,,,,ブライトサイド,0
1645,6140001125090,新規,0,2022-03-08,2022-03-08,株式会社Ｋｏｂｅ岡本,,株式会社,兵庫県,神戸市東灘区,鴨子ケ原１丁目１２番１３号,,28,101,6580064,,,,,,,2022-03-08,1,,,,,コウベオカモト,0
1646,6140001125108,新規,0,2022-03-08,2022-03-08,株式会社平野屋,,株式会社,兵庫県,神戸市兵庫区,上三条町１－２１,,28,105,6520013,,,,,,,2022-03-08,1,,,,,ヒラノヤ,0
1647,6140001125116,新規,0,2022-03-08,2022-03-08,Ｎホールディングス株式会社,,株式会社,兵庫県,洲本市,小路谷古茂江１２７８番地４サントピアマンションユニテック１、３０３号室,,28,205,6560023,,,,,,,2022-03-08,1,,,,,エヌホールディングス,0
1652,6160003002501,新規,0,2022-03-08,2022-03-08,ＤＩＳＣＡＭ合同会社,,合同会社,滋賀県,大津市,仰木の里東８丁目５－５,,25,201,5200248,,,,,,,2022-03-08,1,,,,,ディスカム,0
1654,6170001017005,新規,0,2022-03-08,2022-03-08,勝浦水産サポートサービス株式会社,,株式会社,和歌山県,東牟婁郡那智勝浦町,大字築地１丁目１番地１５,,30,421,6495335,,,,,,,2022-03-08,1,,,,,カツウラスイサンサポートサービス,0
1662,6180005019665,新規,0,2022-03-08,2022-03-08,一般社団法人やおよろず,,その他の設立登記法人,愛知県,瀬戸市,南ケ丘町３３３番地,,23,204,4890955,,,,,,,2022-03-08,1,,,,,ヤオヨロズ,0
1677,6220005008639,新規,0,2022-03-08,2022-03-08,保証責任能瀬負債整理組合,,その他の設立登記法人,石川県,河北郡津幡町,,,17,361,9290300,,,,,,,2022-03-08,1,,,,,,0
1678,6230001019267,新規,0,2022-03-08,2022-03-08,株式会社古川保温,,株式会社,富山県,高岡市,野村１３６６番地１ハッピーハウス２０１号,,16,202,9330014,,,,,,,2022-03-08,1,,,,,フルカワホオン,0
1680,6230005009207,新規,0,2022-03-08,2022-03-08,高志協同組合,,その他の設立登記法人,富山県,富山市,綾田町１丁目３４番５号,,16,201,9300845,,,,,,,2022-03-08,1,,,,,,0
1682,6250001019447,新規,0,2022-03-08,2022-03-08,誠和船舶電装株式会社,,株式会社,山口県,下関市,伊倉新町３丁目３番１６号,,35,201,7510869,,,,,,,2022-03-08,1,,,,,セイワセンパクデンソウ,0
1692,6310001017741,新規,0,2022-03-08,2022-03-08,株式会社空,,株式会社,長崎県,佐世保市,万津町７番８号グリーンロッジ内,,42,202,8570877,,,,,,,2022-03-08,1,,,,,クウ,0
1699,6330001029520,新規,0,2022-03-08,2022-03-08,Ｍｅｒｃｈａｎｔ　ｌａｂｏｒａｔｏｒｙ株式会社,,株式会社,熊本県,熊本市東区,下江津３丁目５番２０－３０３号,,43,102,8620960,,,,,,,2022-03-08,1,,,,,マーチャントラボラトリー,0
1700,6330005010476,新規,0,2022-03-08,2022-03-08,一般社団法人肥後おおづ観光協会,,その他の設立登記法人,熊本県,菊池郡大津町,大字大津１１８９番地２,,43,403,8691233,,,,,,,2022-03-08,1,,,,,ヒゴオオヅカンコウキョウカイ,0
1703,6360001030112,新規,0,2022-03-08,2022-03-08,株式会社ＨＡＹＡＴＯ,,株式会社,沖縄県,浦添市,当山１丁目３番１８号プラネットコアうらそえ１Ｆ,,47,208,9012104,,,,,,,2022-03-08,1,,,,,ハヤト,0
1705,6360005006612,新規,0,2022-03-08,2022-03-08,行政書士法人イクソラ,,その他の設立登記法人,沖縄県,宜野湾市,大謝名２丁目１番７号,,47,205,9012225,,,,,,,2022-03-08,1,,,,,イクソラ,0
1709,6370001048277,新規,0,2022-03-08,2022-03-08,株式会社Ｋ制御,,株式会社,宮城県,気仙沼市,田中１０７番地１０,,04,205,9880052,,,,,,,2022-03-08,1,,,,,ケーセイギョ,0
1710,6370003005615,新規,0,2022-03-08,2022-03-08,合同会社ＡＩＷＡ,,合同会社,宮城県,仙台市泉区,上谷刈１丁目１番２０,,04,105,9813121,,,,,,,2022-03-08,1,,,,,アイワ,0
1715,6380001032643,新規,0,2022-03-08,2022-03-08,株式会社事業承継プランナーズ,,株式会社,福島県,郡山市,緑町１６番１号,,07,203,9638023,,,,,,,2022-03-08,1,,,,,ジギョウショウケイプランナーズ,0
1716,6380001032651,新規,0,2022-03-08,2022-03-08,株式会社Ｈ・Ｎファーム,,株式会社,福島県,郡山市,駅前２丁目３番７号,,07,203,9638002,,,,,,,2022-03-08,1,,,,,エイチエヌファーム,0
1723,6420001017763,新規,0,2022-03-08,2022-03-08,株式会社ＩＮＶＥＮＴＷＯＮＤＥＲ,,株式会社,青森県,弘前市,大字南横町１５番地,,02,202,0368026,,,,,,,2022-03-08,1,,,,,インベントワンダー,0
1724,6420003002474,新規,0,2022-03-08,2022-03-08,ＲＯＹＡＬ合同会社,,合同会社,青森県,八戸市,大字湊町字新井田道２５番地２,,02,203,0310812,,,,,,,2022-03-08,1,,,,,ロイヤル,0
1730,6430001086106,新規,0,2022-03-08,2022-03-08,田んぼや神田ファーム株式会社,,株式会社,北海道,樺戸郡新十津川町,字中央６７７番地,,01,432,0731103,,,,,,,2022-03-08,1,,,,,タンボヤカンダファーム,0
1731,6430001086163,新規,0,2022-03-08,2022-03-08,株式会社ビルドワン,,株式会社,北海道,札幌市白石区,本通１０丁目北４番１号,,01,104,0030027,,,,,,,2022-03-08,1,,,,,ビルドワン,0
1733,6430003013669,新規,0,2022-03-08,2022-03-08,合同会社Ｋ，ｓｐ,,合同会社,北海道,札幌市北区,新川一条６丁目２番１５－３０１号,,01,102,0010921,,,,,,,2022-03-08,1,,,,,ケイエスピー,0
1734,6430003013677,新規,0,2022-03-08,2022-03-08,合同会社Ｑｏｏｃｏ　Ｎｏｒｔｈ,,合同会社,北海道,札幌市北区,北二十四条西５丁目１－２０まるへいビル２階,,01,102,0010024,,,,,,,2022-03-08,1,,,,,キューコーノース,0
1735,6430003013685,新規,0,2022-03-08,2022-03-08,合同会社ＭＥＤＧＯ　ＯＮＥ,,合同会社,北海道,札幌市西区,発寒六条１４丁目１４番１７号,,01,107,0630826,,,,,,,2022-03-08,1,,,,,メドゴーワン,0
1736,6450001013636,新規,0,2022-03-08,2022-03-08,翔栄工業株式会社,,株式会社,北海道,旭川市,東光七条４丁目２番８号,,01,204,0788347,,,,,,,2022-03-08,1,,,,,ショウエイコウギョウ,0
1738,6470001018996,新規,0,2022-03-08,2022-03-08,株式会社ｐｌｅａｓｕｒｅ,,株式会社,香川県,高松市,木太町３１５２番地１０,,37,201,7600080,,,,,,,2022-03-08,1,,,,,プレジャー,0
1745,7010001224994,新規,0,2022-03-08,2022-03-08,株式会社ＧｏＨ,,株式会社,東京都,中央区,銀座１丁目２２番１１号銀座大竹ビジデンス２階,,13,102,1040061,,,,,,,2022-03-08,1,,,,,ゴー,0
1746,7010001225043,新規,0,2022-03-08,2022-03-08,株式会社Ａｉｒｇｕｍｉ,,株式会社,東京都,千代田区,大手町１丁目７番２号東京サンケイビル２７Ｆ,,13,101,1000004,,,,,,,2022-03-08,1,,,,,エアグミ,0
1747,7010001225051,新規,0,2022-03-08,2022-03-08,Ｑｕａｌｉａ株式会社,,株式会社,東京都,中央区,銀座８丁目１５番５号銀座Ｍ’ｓビル２階,,13,102,1040061,,,,,,,2022-03-08,1,,,,,クオリア,0
1749,7010003037189,新規,0,2022-03-08,2022-03-08,ＸＣ合同会社,,合同会社,東京都,千代田区,岩本町２丁目１７番４号泰合ビルＩＩ３１３号室,00125898,13,101,1010032,,,,,,,2022-03-08,1,,,,,エックスシー,0
1752,7010105002149,新規,0,2022-03-08,2022-03-08,医療法人社団慶翠会,,その他の設立登記法人,東京都,八王子市,西片倉３丁目１番４号第２みなみ野クリニックセンター４階,,13,201,1920917,,,,,,,2022-03-08,1,,,,,,0
1764,7010401166011,新規,0,2022-03-08,2022-03-08,ＦＡパートナーズネットワーク株式会社,,株式会社,東京都,港区,南青山２丁目２番１５号ウィン青山９４２,,13,103,1070062,,,,,,,2022-03-08,1,,,,,エフエーパートナーズネットワーク,0
1765,7010401166036,新規,0,2022-03-08,2022-03-08,株式会社Ｓｔａｒｔ　Ｕｐ,,株式会社,東京都,港区,赤坂２丁目５番８号ヒューリックＪＰ赤坂ビル５０３号,,13,103,1070052,,,,,,,2022-03-08,1,,,,,スタートアップ,0
1768,7010403027228,新規,0,2022-03-08,2022-03-08,ＮＥｉＲＯ合同会社,,合同会社,東京都,港区,南青山２丁目２番１５号ＷＩＮ青山５３１,,13,103,1070062,,,,,,,2022-03-08,1,,,,,ネイロ,0
1769,7010403027236,新規,0,2022-03-08,2022-03-08,合同会社メチュリアル,,合同会社,東京都,港区,三田２丁目１９番２８号バローズ三田１０１,,13,103,1080073,,,,,,,2022-03-08,1,,,,,メチュリアル,0
1770,7010403027244,新規,0,2022-03-08,2022-03-08,合同会社エクル,,合同会社,東京都,港区,南青山３丁目３－３リビエラ南青山ビルＡ,,13,103,1070062,,,,,,,2022-03-08,1,,,,,エクル,0
1776,7010703006146,新規,0,2022-03-08,2022-03-08,Ｂｅｓｔｌｉｎｅ合同会社,,合同会社,東京都,品川区,小山６丁目７－１３,,13,109,1420062,,,,,,,2022-03-08,1,,,,,ベストライン,0
1782,7010901050458,新規,0,2022-03-08,2022-03-08,東京ＣＡＹＳ株式会社,,株式会社,東京都,世田谷区,千歳台１丁目３番４号,,13,112,1570071,,,,,,,2022-03-08,1,,,,,トウキョウケイス,0
1785,7011001145990,新規,0,2022-03-08,2022-03-08,Ｓｔｉｍｕ株式会社,,株式会社,東京都,渋谷区,道玄坂１丁目１０番８号渋谷道玄坂東急ビル２Ｆ―Ｃ,,13,113,1500043,,,,,,,2022-03-08,1,,,,,スティミュ,0
1786,7011001146056,新規,0,2022-03-08,2022-03-08,ＧＦｉ株式会社,,株式会社,東京都,渋谷区,渋谷３丁目６番２号エクラート渋谷５階,,13,113,1500002,,,,,,,2022-03-08,1,,,,,ジーエフアイ,0
1787,7011001146089,新規,0,2022-03-08,2022-03-08,株式会社スレッドエッジ,,株式会社,東京都,渋谷区,神宮前６丁目２３番４号桑野ビル２階,,13,113,1500001,,,,,,,2022-03-08,1,,,,,スレッドエッジ,0
1788,7011003014319,新規,0,2022-03-08,2022-03-08,ナカキュウ合同会社,,合同会社,東京都,目黒区,碑文谷５丁目２６番１８号,,13,110,1520003,,,,,,,2022-03-08,1,,,,,ナカキュウ,0
1800,7011203003765,新規,0,2022-03-08,2022-03-08,合同会社ボ・ヌール,,合同会社,東京都,中野区,東中野１丁目５５番５号平賀ビル,,13,114,1640003,,,,,,,2022-03-08,1,,,,,ボヌール,0
1801,7011301027609,新規,0,2022-03-08,2022-03-08,株式会社テクノモルト,,株式会社,東京都,杉並区,桃井３丁目６番１号,,13,115,1670034,,,,,,,2022-03-08,1,,,,,テクノモルト,0
1803,7011303004333,新規,0,2022-03-08,2022-03-08,ＣｘＯマーケティング合同会社,,合同会社,東京都,杉並区,大宮２丁目１８番１６号,,13,115,1680061,,,,,,,2022-03-08,1,,,,,シーエックスオーマーケティング,0
1805,7011605002431,新規,0,2022-03-08,2022-03-08,医療法人社団にじいろ会,,その他の設立登記法人,東京都,練馬区,東大泉１丁目３３番１４号エンゼルビル１階,,13,120,1780063,,,,,,,2022-03-08,1,,,,,ニジイロカイ,0
1808,7011703003083,新規,0,2022-03-08,2022-03-08,レイドバック合同会社,,合同会社,東京都,江戸川区,松島２丁目３１番１０号,,13,123,1320031,,,,,,,2022-03-08,1,,,,,レイドバック,0
1809,7011803004989,新規,0,2022-03-08,2022-03-08,合同会社Ｔｒｕｓｔ　Ｗｏｒｔｈｙ　Ｊａｐａｎ,,合同会社,東京都,足立区,千住寿町３２番１号コーポ谷岡４０１,,13,121,1200033,,,,,,,2022-03-08,1,,,,,トラストウァージージャパン,0
1810,7012303001642,新規,0,2022-03-08,2022-03-08,合同会社ＳｕｎＢｏｎ,,合同会社,東京都,町田市,金森６丁目２３番１６号,,13,209,1940012,,,,,,,2022-03-08,1,,,,,サンボン,0
1811,7012403005262,新規,0,2022-03-08,2022-03-08,Ｔ＆ＳＳ合同会社,,合同会社,東京都,武蔵野市,吉祥寺本町１丁目２９番５号,,13,203,1800004,,,,,,,2022-03-08,1,,,,,ティーアンドエスエス,0
1812,7012405004709,新規,0,2022-03-08,2022-03-08,一般社団法人武蔵野介護予防研究会,,その他の設立登記法人,東京都,武蔵野市,緑町１丁目５番１５号,,13,203,1800012,,,,,,,2022-03-08,1,,,,,ムサシノカイゴヨボウケンキュウカイ,0
1815,7012803002719,新規,0,2022-03-08,2022-03-08,ＳＡＩＺＵＮＩＶＥＲＳＡＬ合同会社,,合同会社,東京都,国分寺市,本町３丁目１番１号シティタワー国分寺ザ・ツインウエストＷ２８０６,,13,214,1850012,,,,,,,2022-03-08,1,,,,,サイズニバーサル,0
1817,7013301048782,新規,0,2022-03-08,2022-03-08,株式会社Ｒｏａｄ．Ａ,,株式会社,東京都,豊島区,西池袋２丁目３１番１７－４０１号,,13,116,1710021,,,,,,,2022-03-08,1,,,,,ロードエー,0
1819,7013303006078,新規,0,2022-03-08,2022-03-08,合同会社ＫＪプロモーション,,合同会社,東京都,豊島区,西池袋１丁目１７番６号西口センタービル２階,,13,116,1710021,,,,,,,2022-03-08,1,,,,,ケイジェイプロモーション,0
1820,7013305003313,新規,0,2022-03-08,2022-03-08,医療法人社団ゆうりん,,その他の設立登記法人,東京都,豊島区,高松２丁目３７番１号権守ビル１階,,13,116,1710042,,,,,,,2022-03-08,1,,,,,ユウリン,0
1829,7020001145546,新規,0,2022-03-08,2022-03-08,株式会社ＲＩＤＥＳ,,株式会社,神奈川県,横浜市旭区,中希望が丘３３番地,,14,112,2410825,,,,,,,2022-03-08,1,,,,,ライズ,0
1830,7020001145562,新規,0,2022-03-08,2022-03-08,株式会社サンセイホールディングス,,株式会社,神奈川県,横浜市港南区,上大岡西２丁目１４番３号ベルナスＶ１０２号室,,14,111,2330002,,,,,,,2022-03-08,1,,,,,サンセイホールディングス,0
1831,7020001145570,新規,0,2022-03-08,2022-03-08,株式会社ＥＭＩＳＯＲＡ,,株式会社,神奈川県,川崎市川崎区,京町３丁目２０－１－１３０５,,14,131,2100848,,,,,,,2022-03-08,1,,,,,エミソラ,0
1837,7021001075312,新規,0,2022-03-08,2022-03-08,株式会社ＣＬＡＳＴＹ　ＡＲＰ,,株式会社,神奈川県,相模原市緑区,元橋本町１０番２８－４号,,14,151,2520142,,,,,,,2022-03-08,1,,,,,クラスティエーアールピー,0
1838,7021001075394,新規,0,2022-03-08,2022-03-08,アンプボルタジャパン株式会社,,株式会社,神奈川県,綾瀬市,吉岡東５丁目９番３２号,,14,218,2521125,,,,,,,2022-03-08,1,,,,,アンプボルタジャパン,0
1841,7021003011463,新規,0,2022-03-08,2022-03-08,合同会社ｌｉａｉｓｏｎ,,合同会社,神奈川県,小田原市,小八幡３丁目１２番２５号,,14,206,2560815,,,,,,,2022-03-08,1,,,,,リエゾン,0
1845,7030001147186,新規,0,2022-03-08,2022-03-08,株式会社ラッペル,,株式会社,埼玉県,川口市,大字安行慈林１１２８番地の１２タウンカテッジＡ号,,11,203,3340071,,,,,,,2022-03-08,1,,,,,ラッペル,0
1848,7030003018996,新規,0,2022-03-08,2022-03-08,生輝合同会社,,合同会社,埼玉県,川口市,西川口１丁目１９番８－２０３号,,11,203,3320021,,,,,,,2022-03-08,1,,,,,セイキ,0
1857,7040001122535,新規,0,2022-03-08,2022-03-08,ＮＳＴ株式会社,,株式会社,千葉県,野田市,宮崎５番地の１１,,12,208,2780005,,,,,,,2022-03-08,1,,,,,エヌエスティー,0
1858,7040001122551,新規,0,2022-03-08,2022-03-08,吉川株式会社,,株式会社,千葉県,船橋市,東中山１丁目５－１３－７東中山東郷ハウス,,12,204,2730036,,,,,,,2022-03-08,1,,,,,ヨシカワ,0
1864,7050001050751,新規,0,2022-03-08,2022-03-08,ＳＴＲ　ＴＲＡＤＩＮＧ株式会社,,株式会社,茨城県,下妻市,原字堤根１７９０番,,08,210,3040816,,,,,,,2022-03-08,1,,,,,エスティーアールトレーディング,0
1865,7050003006413,新規,0,2022-03-08,2022-03-08,ばあばの合同会社,,合同会社,茨城県,つくば市,高野台３丁目１１番地４４、１０３号,,08,220,3050074,,,,,,,2022-03-08,1,,,,,バアバノ,0
1866,7050003006421,新規,0,2022-03-08,2022-03-08,合同会社Ｃｏｌｏｒｆｕｌ,,合同会社,茨城県,守谷市,けやき台１丁目１７－５ファミリースクウェア３０１号室,,08,224,3020128,,,,,,,2022-03-08,1,,,,,カラフル,0
1870,7060001034638,新規,0,2022-03-08,2022-03-08,株式会社プラウド,,株式会社,栃木県,宇都宮市,西川田町９０３番地８,,09,201,3210151,,,,,,,2022-03-08,1,,,,,プラウド,0
1878,7070005009957,新規,0,2022-03-08,2022-03-08,税理士法人真下会計事務所,,その他の設立登記法人,群馬県,太田市,新井町５１４番地１４,,10,205,3730852,,,,,,,2022-03-08,1,,,,,マシモカイケイジムショ,0
1881,7080401025648,新規,0,2022-03-08,2022-03-08,株式会社ＬＨＩ,,株式会社,静岡県,掛川市,下俣５４７番地の１,,22,213,4360025,,,,,,,2022-03-08,1,,,,,エルエイチアイ,0
1882,7080401025664,新規,0,2022-03-08,2022-03-08,株式会社ピースフル・アイランド,,株式会社,静岡県,浜松市南区,三島町１１０２番地,,22,134,4300853,,,,,,,2022-03-08,1,,,,,ピースフルアイランド,0
1884,7080403004484,新規,0,2022-03-08,2022-03-08,ワールドロジスティックス合同会社,,合同会社,静岡県,浜松市東区,有玉南町１８６７－１,,22,132,4313122,,,,,,,2022-03-08,1,,,,,ワールドロジスティックス,0
1885,7090001017466,新規,0,2022-03-08,2022-03-08,山下工業株式会社,,株式会社,山梨県,甲斐市,長塚２２５番地２,,19,210,4000125,,,,,,,2022-03-08,1,,,,,ヤマシタコウギョウ,0
1887,7100001035136,新規,0,2022-03-08,2022-03-08,Ｈｕｎｄｒｅｄｔｈｓ株式会社,,株式会社,長野県,塩尻市,大字北小野２０５番地７,,20,215,3990651,,,,,,,2022-03-08,1,,,,,ハンドレッス,0
1890,7100003006440,新規,0,2022-03-08,2022-03-08,合同会社Ｔ－Ｃｒｅａｔｅ,,合同会社,長野県,松本市,並柳１丁目１８－２０,,20,202,3900825,,,,,,,2022-03-08,1,,,,,ティークリエイト,0
1906,7120001244239,新規,0,2022-03-08,2022-03-08,株式会社新三嬉屋,,株式会社,大阪府,大阪市平野区,平野本町１丁目１６番１２号,,27,126,5470044,,,,,,,2022-03-08,1,,,,,シンミキヤ,0
1907,7120001244247,新規,0,2022-03-08,2022-03-08,株式会社空豆,,株式会社,大阪府,大阪市港区,海岸通２丁目５番１４号,,27,107,5520022,,,,,,,2022-03-08,1,,,,,ソラマメ,0
1908,7120001244296,新規,0,2022-03-08,2022-03-08,株式会社ネイチャーゾーン,,株式会社,大阪府,大阪市東淀川区,東中島１丁目１８番２６号プレサンス新大阪ステーションフロント１５０３,,27,114,5330033,,,,,,,2022-03-08,1,,,,,ネイチャーゾーン,0
1909,7120001244305,新規,0,2022-03-08,2022-03-08,株式会社Ｓｉｎａｚｙ,,株式会社,大阪府,大阪市北区,梅田１丁目１－３大阪駅前第３ビル２９階１－１－１号室,,27,127,5300001,,,,,,,2022-03-08,1,,,,,シナジー,0
1910,7120001244321,新規,0,2022-03-08,2022-03-08,株式会社ＬＭ,,株式会社,大阪府,大阪市淀川区,三津屋北２丁目９番１６号１階,,27,123,5320032,,,,,,,2022-03-08,1,,,,,エルエム,0
1911,7120001244338,新規,0,2022-03-08,2022-03-08,ＥＥＳ株式会社,,株式会社,大阪府,大阪市福島区,大開３丁目１番４９号,,27,103,5530007,,,,,,,2022-03-08,1,,,,,イーイーエス,0
1912,7120001244346,新規,0,2022-03-08,2022-03-08,株式会社えみらいず,,株式会社,大阪府,大阪市住吉区,南住吉２丁目１４番２０号,,27,120,5580041,,,,,,,2022-03-08,1,,,,,エミライズ,0
1913,7120001244379,新規,0,2022-03-08,2022-03-08,株式会社ＲＥＪＵＳＴ,,株式会社,大阪府,大阪市中央区,日本橋２丁目１２番１４号第２昭栄３０２,,27,128,5420073,,,,,,,2022-03-08,1,,,,,リジャスト,0
1915,7120003021223,新規,0,2022-03-08,2022-03-08,合同会社ＢＲＥＥＤ,,合同会社,大阪府,大阪市中央区,安土町１丁目４番５－４０７号,,27,128,5410052,,,,,,,2022-03-08,1,,,,,ブリード,0
1924,7120901045703,新規,0,2022-03-08,2022-03-08,株式会社まごころ一章,,株式会社,大阪府,吹田市,天道町４番１６号,,27,205,5640003,,,,,,,2022-03-08,1,,,,,マゴコロイッショウ,0
1927,7130001071269,新規,0,2022-03-08,2022-03-08,株式会社Ｃｏｎｎｅｃｔ,,株式会社,京都府,京田辺市,同志社山手１丁目１２番地２,,26,211,6100315,,,,,,,2022-03-08,1,,,,,コネクト,0
1928,7130001071293,新規,0,2022-03-08,2022-03-08,前田調査アシスト株式会社,,株式会社,京都府,久世郡久御山町,市田新珠城１８２－６,,26,322,6130022,,,,,,,2022-03-08,1,,,,,マエダチョウサアシスト,0
1929,7130001071310,新規,0,2022-03-08,2022-03-08,株式会社秋本,,株式会社,京都府,京都市中京区,東洞院通錦小路上る元竹田町６３９番地１２,,26,104,6048145,,,,,,,2022-03-08,1,,,,,アキモト,0
1931,7130003007799,新規,0,2022-03-08,2022-03-08,合同会社ＰＡＣＥ＆ＳＰＡＣＥ,,合同会社,京都府,京都市北区,西賀茂大栗町５８番地,,26,101,6038828,,,,,,,2022-03-08,1,,,,,ペースアンドスペース,0
1932,7130005016402,新規,0,2022-03-08,2022-03-08,一般財団法人樫原本陣跡保存会,,その他の設立登記法人,京都府,京都市西京区,樫原下ノ町５番地,,26,111,6158177,,,,,,,2022-03-08,1,,,,,カタギハラホンジンアトホゾンカイ,0
1947,7150003002633,新規,0,2022-03-08,2022-03-08,合同会社遠敷,,合同会社,奈良県,葛城市,寺口３５４番地,,29,211,6392135,,,,,,,2022-03-08,1,,,,,オニュウ,0
1949,7160005011053,新規,0,2022-03-08,2022-03-08,近江鉄工協同組合,,その他の設立登記法人,滋賀県,湖南市,三雲字新開２８３番地５,,25,211,5203221,,,,,,,2022-03-08,1,,,,,オウミテッコウ,0
1950,7170001016996,新規,0,2022-03-08,2022-03-08,中紀建装株式会社,,株式会社,和歌山県,有田市,港町９０番地３,,30,204,6490305,,,,,,,2022-03-08,1,,,,,チュウキケンソウ,0
1953,7180001150299,新規,0,2022-03-08,2022-03-08,株式会社ＬＩＳＥＭ,,株式会社,愛知県,名古屋市名東区,上社２丁目２１８番地森本ビル１Ｆ－Ｂ,,23,115,4650025,,,,,,,2022-03-08,1,,,,,リゼム,0
1987,7270001008471,新規,0,2022-03-08,2022-03-08,田宮畳店株式会社,,株式会社,鳥取県,東伯郡琴浦町,大字赤碕１９８０番地６,,31,371,6892501,,,,,,,2022-03-08,1,,,,,タミヤタタミテン,0
1994,7290001096663,新規,0,2022-03-08,2022-03-08,株式会社仙人コーポレーション,,株式会社,福岡県,福岡市中央区,春吉３丁目１６番９号レガリータ天神ＩＩＩ１Ｆ,00125893,40,133,8100003,,,,,,,2022-03-08,1,,,,,センニンコーポレーション,0
1995,7290001096671,新規,0,2022-03-08,2022-03-08,Ｅｑｕｅｖｏ株式会社,,株式会社,福岡県,福岡市博多区,博多駅東２丁目５番１９号,,40,132,8120013,,,,,,,2022-03-08,1,,,,,エクボ,0
1996,7290001096696,新規,0,2022-03-08,2022-03-08,株式会社ＳＯＬＵＴＩＯＮ　ＡＧＥＮＴ,,株式会社,福岡県,福岡市博多区,博多駅前３丁目７番３５号博多ハイテックビル５０５,,40,132,8120011,,,,,,,2022-03-08,1,,,,,ソリューションエージェント,0
1997,7290001096713,新規,0,2022-03-08,2022-03-08,ＥＮ’ｎ株式会社,,株式会社,福岡県,小郡市,大崎６９５番地１２,,40,216,8380127,,,,,,,2022-03-08,1,,,,,エン,0
1998,7290001096721,新規,0,2022-03-08,2022-03-08,株式会社Ｒｅ　Ｂｉｒｔｈ,,株式会社,福岡県,福岡市南区,高木２丁目７番１４号,,40,134,8150004,,,,,,,2022-03-08,1,,,,,リバース,0
2001,7290801028295,新規,0,2022-03-08,2022-03-08,株式会社ライカ,,株式会社,福岡県,北九州市若松区,青葉台南２丁目４番１２号,,40,103,8080142,,,,,,,2022-03-08,1,,,,,ライカ,0
2009,7330005010475,新規,0,2022-03-08,2022-03-08,一般社団法人サポートネットきつつき,,その他の設立登記法人,熊本県,熊本市中央区,大江４丁目１２番５号,,43,101,8620971,,,,,,,2022-03-08,1,,,,,サポートネットキツツキ,0
2015,7360001030061,新規,0,2022-03-08,2022-03-08,株式会社ロキサン,,株式会社,沖縄県,宮古島市,下地字与那覇１３８２番地１２,,47,214,9060305,,,,,,,2022-03-08,1,,,,,ロキサン,0
2017,7370005010447,新規,0,2022-03-08,2022-03-08,管理組合法人ライベストコート仙台３,,その他の設立登記法人,宮城県,仙台市太白区,長町６丁目１５番２０号,,04,104,9820011,,,,,,,2022-03-08,1,,,,,ライベストコートセンダイスリー,0
2030,7390003001933,新規,0,2022-03-08,2022-03-08,合同会社むつみ,,合同会社,山形県,新庄市,大字松本２７７番地,,06,205,9960051,,,,,,,2022-03-08,1,,,,,,0
2035,7420001017762,新規,0,2022-03-08,2022-03-08,株式会社キーノデザインスタジオ,,株式会社,青森県,八戸市,大字中居林字仕替場１２番地５,,02,203,0310002,,,,,,,2022-03-08,1,,,,,キーノデザインスタジオ,0
2040,7430001086096,新規,0,2022-03-08,2022-03-08,株式会社小野左官工業,,株式会社,北海道,千歳市,文京６丁目４番地の１８,,01,224,0660052,,,,,,,2022-03-08,1,,,,,オノサカンコウギョウ,0
2041,7430001086113,新規,0,2022-03-08,2022-03-08,株式会社Ｎｉｎｏｍａｅ,,株式会社,北海道,札幌市中央区,南六条西２丁目８番地５フォレストビル６階,,01,101,0640806,,,,,,,2022-03-08,1,,,,,ニノマエ,0
2048,7470001018995,新規,0,2022-03-08,2022-03-08,明星電設株式会社,,株式会社,香川県,高松市,木太町３０４３番地２８,,37,201,7600080,,,,,,,2022-03-08,1,,,,,メイセイデンセツ,0
2049,7480001011669,新規,0,2022-03-08,2022-03-08,株式会社コウサンホールディングス,,株式会社,徳島県,徳島市,津田海岸町２番９０号,,36,201,7708001,,,,,,,2022-03-08,1,,,,,コウサンホールディングス,0
2053,7700150107113,新規,0,2022-03-08,2022-02-17,阿寒摩周国立公園広域観光協議会,,その他,北海道,川上郡弟子屈町,中央２丁目３番１号,,01,665,0883211,,,,,,,2022-02-17,1,,,,,アカンマシユウコクリツコウエンコウイキカンコウキヨウギカイ,0
2057,8010001224985,新規,0,2022-03-08,2022-03-08,株式会社リーメントフーズ,,株式会社,東京都,千代田区,麹町３丁目５番地,,13,101,1020083,,,,,,,2022-03-08,1,,,,,リーメントフーズ,0
2058,8010001224993,新規,0,2022-03-08,2022-03-08,株式会社サーチファンド・ジャパン０２,,株式会社,東京都,千代田区,丸の内１丁目８番２号,,13,101,1000005,,,,,,,2022-03-08,1,,,,,サーチファンドジャパンゼロツー,0
2059,8010001225042,新規,0,2022-03-08,2022-03-08,株式会社Ｓｔａｒｋ,,株式会社,東京都,中央区,銀座６丁目１６番１１号荏原実業第三ビル５Ｆ,,13,102,1040061,,,,,,,2022-03-08,1,,,,,スターク,0
2060,8010001225133,新規,0,2022-03-08,2022-03-08,株式会社アイキディアジャパン,,株式会社,東京都,千代田区,大手町１丁目７番２号東京サンケイビル２７階,,13,101,1000004,,,,,,,2022-03-08,1,,,,,アイキディアジャパン,0
2063,8010003037155,新規,0,2022-03-08,2022-03-08,あいプラス合同会社,,合同会社,東京都,文京区,水道１丁目２番１０－３１０号,,13,105,1120005,,,,,,,2022-03-08,1,,,,,アイプラス,0
2064,8010003037163,新規,0,2022-03-08,2022-03-08,合同会社わざおき,,合同会社,東京都,中央区,日本橋浜町３丁目２０番１１号,,13,102,1030007,,,,,,,2022-03-08,1,,,,,ワザオキ,0
2065,8010003037171,新規,0,2022-03-08,2022-03-08,合同会社ＤＵＭＦ３,,合同会社,東京都,千代田区,丸の内３丁目１番１号東京共同会計事務所内,,13,101,1000005,,,,,,,2022-03-08,1,,,,,ディーユーエムエフスリー,0
2073,8010401166019,新規,0,2022-03-08,2022-03-08,株式会社桃太郎食品,,株式会社,東京都,港区,白金３丁目３番２０号,,13,103,1080072,,,,,,,2022-03-08,1,,,,,モモタロウショクヒン,0
2074,8010401166027,新規,0,2022-03-08,2022-03-08,ユンエンタープライズ株式会社,,株式会社,東京都,港区,北青山３丁目５番９号,,13,103,1070061,,,,,,,2022-03-08,1,,,,,ユンエンタープライズ,0
2075,8010401166035,新規,0,2022-03-08,2022-03-08,株式会社ＭＩＲＩＸ,,株式会社,東京都,港区,白金３丁目１１番１７号２０６,,13,103,1080072,,,,,,,2022-03-08,1,,,,,ミリックス,0
2076,8010401166068,新規,0,2022-03-08,2022-03-08,ＳＧＦ　Ｊａｐａｎ株式会社,,株式会社,東京都,港区,西麻布４丁目１４番１４号シャンブル・ド・西麻布２０１,,13,103,1060031,,,,,,,2022-03-08,1,,,,,エスジーエフジャパン,0
2079,8010403027243,新規,0,2022-03-08,2022-03-08,合同会社ＪＡＰＡＮＩＭＥＸ,,合同会社,東京都,港区,赤坂８丁目７番１０－３０１号,,13,103,1070052,,,,,,,2022-03-08,1,,,,,ジャパニメックス,0
2081,8010601060806,新規,0,2022-03-08,2022-03-08,株式会社Ａｌｂｏｏｍ,,株式会社,東京都,江東区,亀戸４丁目４５番１６－３０３号,,13,108,1360071,,,,,,,2022-03-08,1,,,,,アルブーム,0
2092,8011001146039,新規,0,2022-03-08,2022-03-08,株式会社ネクストぴえん,,株式会社,東京都,渋谷区,富ヶ谷２丁目３０－８アーバンスクエア代々木公園１０６,,13,113,1510063,,,,,,,2022-03-08,1,,,,,ネクストピエン,0
2093,8011001146154,新規,0,2022-03-08,2022-03-08,株式会社北日本建物,,株式会社,東京都,渋谷区,千駄ヶ谷１丁目３番２３号,,13,113,1510051,,,,,,,2022-03-08,1,,,,,キタニホンタテモノ,0
2094,8011001146212,新規,0,2022-03-08,2022-03-08,サイプレスアドバイザリー株式会社,,株式会社,東京都,渋谷区,鶯谷町１４番１－５０７号,,13,113,1500032,,,,,,,2022-03-08,1,,,,,サイプレスアドバイザリー,0
2098,8011101006621,新規,0,2022-03-08,2022-03-08,株式会社鴻池管財,,株式会社,東京都,新宿区,西新宿７丁目７番２８号,,13,104,1600023,,,,,,,2022-03-08,1,,,,,コウノイケカンザイ,0
2102,8011101097842,新規,0,2022-03-08,2022-03-08,株式会社システマックス,,株式会社,東京都,新宿区,西新宿３丁目９番７－５０１号,,13,104,1600023,,,,,,,2022-03-08,1,,,,,システマックス,0
2103,8011101097941,新規,0,2022-03-08,2022-03-08,株式会社エンセンド,,株式会社,東京都,新宿区,西新宿５丁目８番２－１４０８号,,13,104,1600023,,,,,,,2022-03-08,1,,,,,エンセンド,0
2104,8011101098056,新規,0,2022-03-08,2022-03-08,株式会社コムレイド経営コンサルティングパートナー,,株式会社,東京都,新宿区,西新宿８丁目１１番１号,,13,104,1600023,,,,,,,2022-03-08,1,,,,,コムレイドケイエイコンサルティングパートナー,0
2105,8011101098097,新規,0,2022-03-08,2022-03-08,株式会社Ｆｉｎａｌ　ｓｔｅｐ,,株式会社,東京都,新宿区,西新宿５丁目５番１－５３０４号,,13,104,1600023,,,,,,,2022-03-08,1,,,,,ファイナルステップ,0
2109,8011301027608,新規,0,2022-03-08,2022-03-08,株式会社コツソメディ,,株式会社,東京都,杉並区,上高井戸２丁目１３番１７号,,13,115,1680074,,,,,,,2022-03-08,1,,,,,コツソメディ,0
2110,8011303004332,新規,0,2022-03-08,2022-03-08,合同会社リュウ,,合同会社,東京都,杉並区,高円寺南３丁目４８－５パルコーポフジ４０５,,13,115,1660003,,,,,,,2022-03-08,1,,,,,リュウ,0
2112,8011401024083,新規,0,2022-03-08,2022-03-08,株式会社都心地所,,株式会社,東京都,板橋区,中丸町１６番１３－３０１号Ｒｏｓｅｔｔａ,,13,119,1730026,,,,,,,2022-03-08,1,,,,,トシンジショ,0
2116,8011601025781,新規,0,2022-03-08,2022-03-08,株式会社エクラスハウジング,,株式会社,東京都,練馬区,豊玉北４丁目２２－３トーシンコーポ豊玉３０１号室,,13,120,1760012,,,,,,,2022-03-08,1,,,,,エクラスハウジング,0
2129,8013301048773,新規,0,2022-03-08,2022-03-08,Ｅｍｐｉｒｅ　Ｓｔａｔｅ株式会社,,株式会社,東京都,豊島区,千早２丁目２４番３号,,13,116,1710044,,,,,,,2022-03-08,1,,,,,エンパイアステイト,0
2130,8013303006069,新規,0,2022-03-08,2022-03-08,光星合同会社,,合同会社,東京都,豊島区,雑司が谷２丁目３番８号,,13,116,1710032,,,,,,,2022-03-08,1,,,,,コウセイ,0
2132,8013305003312,新規,0,2022-03-08,2022-03-08,税理士法人グスク,,その他の設立登記法人,東京都,豊島区,東池袋１丁目４６番１３号ホリグチビル８０１号,,13,116,1700013,,,,,,,2022-03-08,1,,,,,グスク,0
2136,8020001145545,新規,0,2022-03-08,2022-03-08,ラーモ・ジャパン株式会社,,株式会社,神奈川県,横浜市青葉区,黒須田２１番地１７,,14,117,2250022,,,,,,,2022-03-08,1,,,,,ラーモジャパン,0
2137,8020001145578,新規,0,2022-03-08,2022-03-08,ＹＭＦ株式会社,,株式会社,神奈川県,横浜市鶴見区,生麦３丁目３－１５正優ビル１階,,14,101,2300052,,,,,,,2022-03-08,1,,,,,ワイエムエフ,0
2138,8020001145586,新規,0,2022-03-08,2022-03-08,株式会社プラネットアクア,,株式会社,神奈川県,横浜市都筑区,勝田南２丁目６番１４号,,14,118,2240036,,,,,,,2022-03-08,1,,,,,プラネットアクア,0
2139,8020001145594,新規,0,2022-03-08,2022-03-08,株式会社インキューブ,,株式会社,神奈川県,横浜市鶴見区,尻手２丁目２番３５－５０２号,,14,101,2300003,,,,,,,2022-03-08,1,,,,,インキューブ,0
2143,8020005015406,新規,0,2022-03-08,2022-03-08,一般社団法人世代間支え合い,,その他の設立登記法人,神奈川県,横浜市都筑区,中川１丁目２番Ｄ－２０６号,,14,118,2240001,,,,,,,2022-03-08,1,,,,,,0
2145,8021001075303,新規,0,2022-03-08,2022-03-08,シーベル株式会社,,株式会社,神奈川県,三浦郡葉山町,長柄１３９４番地の６,,14,301,2400113,,,,,,,2022-03-08,1,,,,,シーベル,0
2146,8021001075385,新規,0,2022-03-08,2022-03-08,株式会社センターテイル,,株式会社,神奈川県,茅ヶ崎市,赤羽根１４２５番地５,,14,207,2530001,,,,,,,2022-03-08,1,,,,,センターテイル,0
2154,8030001147160,新規,0,2022-03-08,2022-03-08,ｅｔｕｓ株式会社,,株式会社,埼玉県,越谷市,弥栄町１丁目１９５番地８０,,11,222,3430046,,,,,,,2022-03-08,1,,,,,イータス,0
2155,8030001147177,新規,0,2022-03-08,2022-03-08,３Ｑａｍｉｇｏ株式会社,,株式会社,埼玉県,志木市,柏町６丁目４番３５号,,11,228,3530007,,,,,,,2022-03-08,1,,,,,サンキューアミーゴ,0
2163,8030003018979,新規,0,2022-03-08,2022-03-08,Ｌｉｖｉｎｇ　Ｇｅａｒ合同会社,,合同会社,埼玉県,八潮市,大字上馬場４５３番地６,,11,234,3400803,,,,,,,2022-03-08,1,,,,,リビングギア,0
2164,8030003018995,新規,0,2022-03-08,2022-03-08,合同会社ＴＯＭＩＷＡ,,合同会社,埼玉県,和光市,新倉２丁目５－１２,,11,229,3510115,,,,,,,2022-03-08,1,,,,,トミワ,0
2165,8040001122542,新規,0,2022-03-08,2022-03-08,株式会社ヒットプラス,,株式会社,千葉県,船橋市,本中山４丁目１１番４－１０３号,,12,204,2730035,,,,,,,2022-03-08,1,,,,,ヒットプラス,0
2175,8050001050750,新規,0,2022-03-08,2022-03-08,株式会社ひたちコネクト,,株式会社,茨城県,常陸大宮市,上村田４９６番地６,,08,225,3192136,,,,,,,2022-03-08,1,,,,,ヒタチコネクト,0
2176,8050003006420,新規,0,2022-03-08,2022-03-08,Ｇｒｅｅｎ　Ｈｏｐｅ　Ｇｌｏｂａｌ　Ｃｏｍｐａｎｙ合同会社,,合同会社,茨城県,つくば市,栗原２３４５番地１,,08,220,3050001,,,,,,,2022-03-08,1,,,,,グリーンホープグローバルカンパニー,0
2181,8070005009956,新規,0,2022-03-08,2022-03-08,社会保険労務士法人真下労務事務所,,その他の設立登記法人,群馬県,太田市,新井町５１４番地１４,,10,205,3730852,,,,,,,2022-03-08,1,,,,,マシモロウムジムショ,0
2184,8080105006225,新規,0,2022-03-08,2022-03-08,特定非営利活動法人窓,,その他の設立登記法人,静岡県,下田市,須崎１７４１番地の１１,,22,219,4150014,,,,,,,2022-03-08,1,,,,,マド,0
2187,8080401025663,新規,0,2022-03-08,2022-03-08,株式会社虹色,,株式会社,静岡県,浜松市中区,東伊場１丁目３６番８号,,22,131,4328036,,,,,,,2022-03-08,1,,,,,ニジイロ,0
2188,8080403004483,新規,0,2022-03-08,2022-03-08,合同会社ＬＯＩ,,合同会社,静岡県,浜松市東区,上新屋町１１０番地の１,,22,132,4350053,,,,,,,2022-03-08,1,,,,,ロイ,0
2190,8100001035135,新規,0,2022-03-08,2022-03-08,株式会社わらわ８,,株式会社,長野県,安曇野市,豊科高家５２１１番地４,,20,220,3998204,,,,,,,2022-03-08,1,,,,,ワラワエイト,0
2202,8120001244213,新規,0,2022-03-08,2022-03-08,株式会社シバヤマ,,株式会社,大阪府,門真市,三ツ島１丁目２１番１１号,,27,223,5710015,,,,,,,2022-03-08,1,,,,,シバヤマ,0
2203,8120001244270,新規,0,2022-03-08,2022-03-08,株式会社ファインモーション,,株式会社,大阪府,大阪市中央区,安土町１丁目４番９,,27,128,5410052,,,,,,,2022-03-08,1,,,,,ファインモーション,0
2204,8120001244312,新規,0,2022-03-08,2022-03-08,株式会社ファルコン,,株式会社,大阪府,大阪市西淀川区,中島１丁目６番８号,,27,113,5550041,,,,,,,2022-03-08,1,,,,,ファルコン,0
2205,8120001244320,新規,0,2022-03-08,2022-03-08,株式会社天元,,株式会社,大阪府,大阪市住吉区,長居１丁目２－２１－２Ｆ,,27,120,5580003,,,,,,,2022-03-08,1,,,,,テンゲン,0
2211,8120003021239,新規,0,2022-03-08,2022-03-08,合同会社桐,,合同会社,大阪府,大阪市中央区,博労町３丁目１番８－５０９号,,27,128,5410059,,,,,,,2022-03-08,1,,,,,キリ,0
2212,8120003021247,新規,0,2022-03-08,2022-03-08,ＯＫＯＭＥ合同会社,,合同会社,大阪府,大阪市北区,梅田１丁目１－３大阪駅前第３ビル２９階１－１－１号室,,27,127,5300001,,,,,,,2022-03-08,1,,,,,オコメ,0
2228,8130001071292,新規,0,2022-03-08,2022-03-08,ａｄｎｅｔ株式会社,,株式会社,京都府,京都市山科区,大塚北溝町３４番地２４フジワラビル２０１号室,,26,110,6078134,,,,,,,2022-03-08,1,,,,,アドネット,0
2230,8130003007798,新規,0,2022-03-08,2022-03-08,合同会社裏山開発,,合同会社,京都府,京都市東山区,今熊野泉山町１番地１０,,26,105,6050957,,,,,,,2022-03-08,1,,,,,ウラヤマカイハツ,0
2239,8150001025395,新規,0,2022-03-08,2022-03-08,株式会社雅オフィス,,株式会社,奈良県,北葛城郡上牧町,服部台１丁目１１番２６号,,29,424,6390212,,,,,,,2022-03-08,1,,,,,ミヤビオフィス,0
2242,8160001024041,新規,0,2022-03-08,2022-03-08,株式会社葵プランニング,,株式会社,滋賀県,東近江市,芝原町１２６８番地２,,25,213,5270067,,,,,,,2022-03-08,1,,,,,アオイプランニング,0
2255,8180001150240,新規,0,2022-03-08,2022-03-08,株式会社エール,,株式会社,愛知県,名古屋市中区,正木４丁目８番８号メゾン金山５１１,,23,106,4600024,,,,,,,2022-03-08,1,,,,,エール,0
2256,8180001150273,新規,0,2022-03-08,2022-03-08,株式会社Ｑｓｓ,,株式会社,愛知県,名古屋市中区,金山４丁目３番１号つちやビル５Ｆ,,23,106,4600022,,,,,,,2022-03-08,1,,,,,キューエスエス,0
2257,8180001150323,新規,0,2022-03-08,2022-03-08,株式会社シン,,株式会社,愛知県,名古屋市瑞穂区,釜塚町１丁目３１番地,,23,108,4670051,,,,,,,2022-03-08,1,,,,,シン,0
2258,8180001150331,新規,0,2022-03-08,2022-03-08,名古屋Ｒ不動産株式会社,,株式会社,愛知県,名古屋市中区,大須３丁目２番５号,,23,106,4600011,,,,,,,2022-03-08,1,,,,,ナゴヤアールフドウサン,0
2264,8200001039836,新規,0,2022-03-08,2022-03-08,株式会社ハイプレイス,,株式会社,岐阜県,各務原市,鵜沼羽場町７丁目２５６番地２,,21,213,5090135,,,,,,,2022-03-08,1,,,,,ハイプレイス,0
2278,8240003005493,新規,0,2022-03-08,2022-03-08,伝説の合同会社,,合同会社,広島県,三次市,粟屋町２７５５－１７,,34,209,7280025,,,,,,,2022-03-08,1,,,,,デンセツノ,0
2284,8260001036621,新規,0,2022-03-08,2022-03-08,株式会社ＳＯＨＡＰＩ,,株式会社,岡山県,岡山市北区,東古松４丁目４番５号,,33,101,7000921,,,,,,,2022-03-08,1,,,,,ソハピ,0
2286,8260003003834,新規,0,2022-03-08,2022-03-08,Ｌｅｅ合同会社,,合同会社,岡山県,岡山市北区,横井上１７４４番地,,33,101,7011145,,,,,,,2022-03-08,1,,,,,リー,0
2292,8290001096695,新規,0,2022-03-08,2022-03-08,株式会社スマイハーク,,株式会社,福岡県,糸島市,二丈鹿家７６２番地３３,,40,230,8191642,,,,,,,2022-03-08,1,,,,,スマイハーク,0
2293,8290001096729,新規,0,2022-03-08,2022-03-08,株式会社ｉｉＤＡＳＨ,,株式会社,福岡県,福岡市西区,愛宕４丁目２番４５－８１５号コアマンションマリナヒルズ室見,,40,135,8190015,,,,,,,2022-03-08,1,,,,,イイダッシュ,0
2294,8290003012254,新規,0,2022-03-08,2022-03-08,ＭＹＮＯ　ＦＩＥＬＤ合同会社,,合同会社,福岡県,福岡市博多区,東比恵３丁目１９番地１０－４０３号モントーレ東比恵クレア,,40,132,8120007,,,,,,,2022-03-08,1,,,,,マイノフィールド,0
2301,8320005009971,新規,0,2022-03-08,2022-03-08,一般社団法人いずみが丘夢ひろば,,その他の設立登記法人,大分県,別府市,大字亀川１７５９番地の２３,,44,202,8740000,,,,,,,2022-03-08,1,,,,,イズミガオカユメヒロバ,0
2304,8330003009279,新規,0,2022-03-08,2022-03-08,合同会社熊本アクセス,,合同会社,熊本県,上益城郡益城町,大字広崎１３５８－６,,43,443,8612236,,,,,,,2022-03-08,1,,,,,クマモトアクセス,0
2309,8360003011835,新規,0,2022-03-08,2022-03-08,合同会社ＤＵＥ,,合同会社,沖縄県,国頭郡本部町,字浜元３３５－１,,47,308,9050216,,,,,,,2022-03-08,1,,,,,ドゥエ,0
2310,8360003011851,新規,0,2022-03-08,2022-03-08,合同会社Ｌｉｖｅｒａｌ,,合同会社,沖縄県,中頭郡読谷村,字古堅６３５－４アーサーパレス３０２,,47,324,9040314,,,,,,,2022-03-08,1,,,,,リベラル,0
2314,8370001048275,新規,0,2022-03-08,2022-03-08,株式会社ＨＹＤＥ　ＯＵＴ,,株式会社,宮城県,仙台市泉区,本田町１１番１８号,,04,105,9813107,,,,,,,2022-03-08,1,,,,,ハイドアウト,0
2319,8420001017761,新規,0,2022-03-08,2022-03-08,株式会社山樹,,株式会社,青森県,八戸市,東白山台３丁目２１番２７号,,02,203,0391111,,,,,,,2022-03-08,1,,,,,ヤマキ,0
2320,8420003002472,新規,0,2022-03-08,2022-03-08,合同会社のりぷろ,,合同会社,青森県,青森市,新田２丁目３番２４号,,02,201,0380001,,,,,,,2022-03-08,1,,,,,ノリプロ,0
2322,8430001086095,新規,0,2022-03-08,2022-03-08,株式会社ＮＯＢＥＣＣｉ,,株式会社,北海道,札幌市北区,新琴似六条２丁目４番１３号,,01,102,0010906,,,,,,,2022-03-08,1,,,,,ノベッチ,0
2323,8430001086104,新規,0,2022-03-08,2022-03-08,株式会社山本農産,,株式会社,北海道,夕張郡由仁町,東三川２９５３番地,,01,427,0691142,,,,,,,2022-03-08,1,,,,,ヤマモトノウサン,0
2324,8430001086112,新規,0,2022-03-08,2022-03-08,株式会社ｗａｔｅｒｇｒｏｕｎｄ,,株式会社,北海道,札幌市中央区,南六条西４丁目４番地３ＬＣ壱番館４階,,01,101,0640806,,,,,,,2022-03-08,1,,,,,ウォーターグラウンド,0
2325,8430001086120,新規,0,2022-03-08,2022-03-08,株式会社栄孝の郷,,株式会社,北海道,札幌市北区,篠路町上篠路１１０番地１１２,,01,102,0028052,,,,,,,2022-03-08,1,,,,,エイコウノサト,0
2339,8700150106980,新規,0,2022-03-08,2022-02-08,坂井市国際交流協会,,その他,福井県,坂井市,春江町随応寺１７－１０坂井市役所春江支所３階,,18,210,9190413,,,,,,,2022-02-08,1,,,,,サカイシコクサイコウリユウキヨウカイ,0
2347,9010001224968,新規,0,2022-03-08,2022-03-08,株式会社ＧＬＯＷＩＮ　ＧＲＡＰＨＩＣ　ＳＴＵＤＩＯ,,株式会社,東京都,中央区,銀座１丁目１２番４号Ｎ＆ＥＢＬＤ．７階,,13,102,1040061,,,,,,,2022-03-08,1,,,,,グローウィングラフィックスタジオ,0
2348,9010001225009,新規,0,2022-03-08,2022-03-08,神明総合サービス株式会社,,株式会社,東京都,千代田区,外神田２丁目１２－６－１０１,,13,101,1010021,,,,,,,2022-03-08,1,,,,,シンメイソウゴウサービス,0
2349,9010001225066,新規,0,2022-03-08,2022-03-08,Ｂｉｔｒｉｓｅ　Ｊａｐａｎ株式会社,,株式会社,東京都,中央区,日本橋小網町１２番地７,,13,102,1030016,,,,,,,2022-03-08,1,,,,,ビットライズジャパン,0
2350,9010001225074,新規,0,2022-03-08,2022-03-08,メディカルライフサポート株式会社,,株式会社,東京都,中央区,銀座３丁目１２番１２号,,13,102,1040061,,,,,,,2022-03-08,1,,,,,メディカルライフサポート,0
2354,9010003037105,新規,0,2022-03-08,2022-03-08,合同会社ＭＭ企画,,合同会社,東京都,文京区,本駒込２丁目１０番９号,,13,105,1130021,,,,,,,2022-03-08,1,,,,,エムエムキカク,0
2355,9010101015094,新規,0,2022-03-08,2022-03-08,株式会社ＳＥＮＳＹＯ　ＧＬＯＲＹ,,株式会社,東京都,八王子市,左入町４２７－１,,13,201,1920012,,,,,,,2022-03-08,1,,,,,,0
2363,9010403027234,新規,0,2022-03-08,2022-03-08,合同会社一心,,合同会社,東京都,港区,南青山２丁目２番１５号,,13,103,1070062,,,,,,,2022-03-08,1,,,,,イッシン,0
2370,9010601060805,新規,0,2022-03-08,2022-03-08,株式会社Ｔｒｅｓｏｒ,,株式会社,東京都,江東区,富岡２丁目１１番１８号西村ビル４階,,13,108,1350047,,,,,,,2022-03-08,1,,,,,トレゾー,0
2371,9010603009429,新規,0,2022-03-08,2022-03-08,ゴリラジャパン合同会社,,合同会社,東京都,墨田区,向島３丁目３４番１７－１０１号,,13,107,1310033,,,,,,,2022-03-08,1,,,,,ゴリラジャパン,0
2380,9010701042348,新規,0,2022-03-08,2022-03-08,進藤グループ株式会社,,株式会社,東京都,品川区,東大井４丁目６番６号五幸ハイツ４０２,,13,109,1400011,,,,,,,2022-03-08,1,,,,,シンンドウグループ,0
2391,9011003014300,新規,0,2022-03-08,2022-03-08,トライアングル合同会社,,合同会社,東京都,渋谷区,大山町２０番２号,,13,113,1510065,,,,,,,2022-03-08,1,,,,,トライアングル,0
2394,9011101098006,新規,0,2022-03-08,2022-03-08,株式会社アレイズ,,株式会社,東京都,新宿区,西新宿７丁目７－２６ワコーレ新宿第一ビル８０１号,,13,104,1600023,,,,,,,2022-03-08,1,,,,,アレイズ,0
2395,9011101098022,新規,0,2022-03-08,2022-03-08,株式会社須藤本家酒類販売,,株式会社,東京都,新宿区,百人町２丁目１番２号,,13,104,1690073,,,,,,,2022-03-08,1,,,,,スドウホンケシュルイハンバイ,0
2397,9011103011544,新規,0,2022-03-08,2022-03-08,合同会社ウィーブトウキョウ,,合同会社,東京都,新宿区,若松町３８番２１号ＣＡＬＭ・ＡＤＯ１０１,,13,104,1620056,,,,,,,2022-03-08,1,,,,,ウィーブトウキョウ,0
2402,9011301027607,新規,0,2022-03-08,2022-03-08,株式会社蘭企画,,株式会社,東京都,杉並区,西荻北２丁目３７番３０号,,13,115,1670042,,,,,,,2022-03-08,1,,,,,ランキカク,0
2403,9011303004331,新規,0,2022-03-08,2022-03-08,スタジオシンス合同会社,,合同会社,東京都,杉並区,永福３丁目２９番２号１０１,,13,115,1680064,,,,,,,2022-03-08,1,,,,,スタジオシンス,0
2417,9011601025772,新規,0,2022-03-08,2022-03-08,栄和産業株式会社,,株式会社,東京都,練馬区,富士見台３丁目３０番２号富士見台コーポ２０２号室,,13,120,1770034,,,,,,,2022-03-08,1,,,,,エイワサンギョウ,0
2421,9011701025103,新規,0,2022-03-08,2022-03-08,株式会社ヤマエンターロジ,,株式会社,東京都,江戸川区,南小岩５丁目２１番１号エステートＴＯＫＩ１０６,,13,123,1330056,,,,,,,2022-03-08,1,,,,,ヤマエンターロジ,0
2425,9012303001640,新規,0,2022-03-08,2022-03-08,合同会社ＭＲＣ,,合同会社,東京都,町田市,原町田５丁目３番１７号７０２,,13,209,1940013,,,,,,,2022-03-08,1,,,,,エムアールシー,0
2442,9020001145552,新規,0,2022-03-08,2022-03-08,株式会社ＪＣＴ・Ｍ,,株式会社,神奈川県,横浜市保土ケ谷区,西久保町１１９番地１６,,14,106,2400022,,,,,,,2022-03-08,1,,,,,ジャンクションミュージック,0
2443,9020001145585,新規,0,2022-03-08,2022-03-08,株式会社ＳＰＲＩＮＧ,,株式会社,神奈川県,川崎市中原区,苅宿１５－１０,,14,133,2110022,,,,,,,2022-03-08,1,,,,,スプリング,0
2448,9020003021339,新規,0,2022-03-08,2022-03-08,ブラジリアン柔術空合同会社,,合同会社,神奈川県,川崎市川崎区,本町２丁目９－５,,14,131,2100001,,,,,,,2022-03-08,1,,,,,,0
2449,9020003021413,新規,0,2022-03-08,2022-03-08,合同会社ハートトゥハート,,合同会社,神奈川県,横浜市西区,平沼１丁目３３番１号日新横浜ビル５Ｆ,,14,103,2200023,,,,,,,2022-03-08,1,,,,,ハートトゥハート,0
2450,9020003021421,新規,0,2022-03-08,2022-03-08,一颯合同会社,,合同会社,神奈川県,横浜市青葉区,奈良町２５３３番地７７,,14,117,2270036,,,,,,,2022-03-08,1,,,,,イブキ,0
2453,9021001075277,新規,0,2022-03-08,2022-03-08,株式会社ＬＩＶＩＬ,,株式会社,神奈川県,相模原市南区,東林間３丁目１９番７号エクレール東林間２番館６０２号室,,14,153,2520311,,,,,,,2022-03-08,1,,,,,リビル,0
2454,9021001075351,新規,0,2022-03-08,2022-03-08,ｒｅＥＰＩ株式会社,,株式会社,神奈川県,秦野市,鶴巻北２丁目４－８－８０４号,,14,211,2570001,,,,,,,2022-03-08,1,,,,,リエピ,0
2455,9021001075368,新規,0,2022-03-08,2022-03-08,株式会社Ｂｌｕｅ　ｌａｇｏｏｎ,,株式会社,神奈川県,三浦市,三崎町諸磯浜ノ原１８９５番地９,,14,210,2380224,,,,,,,2022-03-08,1,,,,,ブルーラグーン,0
2456,9021001075376,新規,0,2022-03-08,2022-03-08,株式会社キャピタル・Ｙ・ブリッジ,,株式会社,神奈川県,鎌倉市,材木座５丁目７番２６号,,14,204,2480013,,,,,,,2022-03-08,1,,,,,キャピタルワイブリッジ,0
2468,9030001147119,新規,0,2022-03-08,2022-03-08,櫂正株式会社,,株式会社,埼玉県,所沢市,東所沢和田１丁目４番地の２５,,11,208,3590023,,,,,,,2022-03-08,1,,,,,カイセイ,0
2472,9030003018994,新規,0,2022-03-08,2022-03-08,合同会社ＫＡＭＩＧＯＥ,,合同会社,埼玉県,さいたま市西区,大字指扇領別所３３１番地１－１０５号室,,11,101,3310073,,,,,,,2022-03-08,1,,,,,カミゴエ,0
2479,9040001122368,新規,0,2022-03-08,2022-03-08,株式会社オールチャンス,,株式会社,千葉県,柏市,吉野沢８番５６－１,,12,217,2770853,,,,,,,2022-03-08,1,,,,,オールチャンス,0
2480,9040001122509,新規,0,2022-03-08,2022-03-08,株式会社オールベスト,,株式会社,千葉県,船橋市,前原西４丁目３８番６－５０７号,,12,204,2740825,,,,,,,2022-03-08,1,,,,,オールベスト,0
2481,9040001122533,新規,0,2022-03-08,2022-03-08,株式会社好誠ダクト,,株式会社,千葉県,船橋市,宮本６丁目７番１号,,12,204,2730003,,,,,,,2022-03-08,1,,,,,コウセイダクト,0
2483,9050001050733,新規,0,2022-03-08,2022-03-08,株式会社中山商店,,株式会社,茨城県,結城郡八千代町,大字仁江戸１３００番地２,,08,521,3003539,,,,,,,2022-03-08,1,,,,,ナカヤマショウテン,0
2500,9100003006439,新規,0,2022-03-08,2022-03-08,長青農園合同会社,,合同会社,長野県,飯田市,大瀬木３２１６－６,,20,205,3950157,,,,,,,2022-03-08,1,,,,,チョウセイノウエン,0
2501,9100005012831,新規,0,2022-03-08,2022-03-08,一般社団法人ローカルイノベーションイニシアチブ,,その他の設立登記法人,長野県,長野市,大字南長野字幅下６４４番地８,,20,201,3800837,,,,,,,2022-03-08,1,,,,,ローカルイノベーションイニシアチブ,0
2511,9120001244162,新規,0,2022-03-08,2022-03-08,サンレート株式会社,,株式会社,大阪府,大阪市東淀川区,東中島２丁目５番１４号松村マンション１０１号室,,27,114,5330033,,,,,,,2022-03-08,1,,,,,サンレート,0
2512,9120001244245,新規,0,2022-03-08,2022-03-08,株式会社ｆｉｖｅ,,株式会社,大阪府,大阪市西区,南堀江４丁目３番２５－４０２号,,27,106,5500015,,,,,,,2022-03-08,1,,,,,ファイブ,0
2513,9120001244253,新規,0,2022-03-08,2022-03-08,株式会社アシストビルサービス,,株式会社,大阪府,大阪市東淀川区,東中島５丁目１７番６号,,27,114,5330033,,,,,,,2022-03-08,1,,,,,アシストビルサービス,0
2514,9120001244261,新規,0,2022-03-08,2022-03-08,株式会社３８２,,株式会社,大阪府,大阪市港区,弁天４丁目１番１４号是空弁天１０６,,27,107,5520007,,,,,,,2022-03-08,1,,,,,ミヤビ,0
2515,9120001244303,新規,0,2022-03-08,2022-03-08,株式会社リノベホーム,,株式会社,大阪府,枚方市,宮之阪３丁目２７番１７号,,27,210,5730022,,,,,,,2022-03-08,1,,,,,リノベホーム,0
2516,9120001244328,新規,0,2022-03-08,2022-03-08,株式会社ガレリラ,,株式会社,大阪府,大阪市中央区,安土町１丁目７番１３号,,27,128,5410052,,,,,,,2022-03-08,1,,,,,ガレリラ,0
2524,9120003021254,新規,0,2022-03-08,2022-03-08,合同会社Ｔｉｎｋｅｒ　Ｓｔｏｎｅ　Ｔｅｃｈｎｏｌｏｇｉｅｓ,,合同会社,大阪府,大阪市淀川区,十三本町１丁目１８番８号,,27,123,5320024,,,,,,,2022-03-08,1,,,,,ティンカーストーンテクノロジーズ,0
2525,9120005022812,新規,0,2022-03-08,2022-03-08,特定非営利活動法人スミエモ,,その他の設立登記法人,大阪府,大阪市住之江区,新北島１丁目２－１オスカードリーム５階,,27,125,5590024,,,,,,,2022-03-08,1,,,,,スミエモ,0
2529,9120901045692,新規,0,2022-03-08,2022-03-08,Ｋホールディングス株式会社,,株式会社,大阪府,吹田市,山手町１丁目５番１－４１２号,,27,205,5640073,,,,,,,2022-03-08,1,,,,,ケーホールディングス,0
2531,9122001035640,新規,0,2022-03-08,2022-03-08,ＨＩＥＵ株式会社,,株式会社,大阪府,東大阪市,若江西新町１丁目１４番１７号,,27,227,5780944,,,,,,,2022-03-08,1,,,,,ヒエウ,0
2536,9130001071291,新規,0,2022-03-08,2022-03-08,株式会社財務ＯＮＥ,,株式会社,京都府,京都市中京区,中島町９０番地２－９階,,26,104,6048004,,,,,,,2022-03-08,1,,,,,ザイムワン,0
2537,9130001071309,新規,0,2022-03-08,2022-03-08,株式会社京都南丹不動産,,株式会社,京都府,南丹市,園部町美園町４号１６番地,,26,213,6220002,,,,,,,2022-03-08,1,,,,,キョウトナンタンフドウサン,0
2543,9140001125113,新規,0,2022-03-08,2022-03-08,株式会社オー・ジー・エー,,株式会社,兵庫県,神戸市中央区,中山手通２丁目４番１－１４０３号,,28,110,6500004,,,,,,,2022-03-08,1,,,,,オージーエー,0
2544,9140001125138,新規,0,2022-03-08,2022-03-08,株式会社ｃｈｅｓｔｐａｓｓ,,株式会社,兵庫県,神戸市須磨区,小寺町１丁目１－３３ラクダビルＢ棟３０５号室,,28,107,6540042,,,,,,,2022-03-08,1,,,,,チェストパス,0
2546,9150001025378,新規,0,2022-03-08,2022-03-08,株式会社ルート・ビー,,株式会社,奈良県,生駒郡斑鳩町,法隆寺東２丁目５番４０号,,29,344,6360112,,,,,,,2022-03-08,1,,,,,ルートビー,0
2549,9160001024040,新規,0,2022-03-08,2022-03-08,株式会社Ｒｙｕｓａｙ,,株式会社,滋賀県,守山市,欲賀町２０４３番地,,25,207,5240063,,,,,,,2022-03-08,1,,,,,リュウセイ,0
2558,9180001150215,新規,0,2022-03-08,2022-03-08,友力リノベーション株式会社,,株式会社,愛知県,名古屋市千種区,南明町２丁目６５番地,,23,101,4640845,,,,,,,2022-03-08,1,,,,,ユウリキリノベーション,0
2559,9180001150248,新規,0,2022-03-08,2022-03-08,株式会社ＩＬコントラクトパッケージング,,株式会社,愛知県,一宮市,三ツ井５丁目１５番１８号,,23,203,4910827,,,,,,,2022-03-08,1,,,,,アイエルコントラクトパッケージング,0
2560,9180001150322,新規,0,2022-03-08,2022-03-08,株式会社Ｋｅｅｐｓ,,株式会社,愛知県,名古屋市瑞穂区,瑞穂通１丁目２番地グレースシャイン瑞穂９０１号,,23,108,4670806,,,,,,,2022-03-08,1,,,,,キープス,0
2561,9180001150330,新規,0,2022-03-08,2022-03-08,株式会社エスハウス,,株式会社,愛知県,名古屋市港区,港栄３丁目１７番２２号,,23,111,4550015,,,,,,,2022-03-08,1,,,,,エスハウス,0
2562,9180003023559,新規,0,2022-03-08,2022-03-08,合同会社Ｉ８,,合同会社,愛知県,西春日井郡豊山町,大字豊場字冨士２４番地５,,23,342,4800202,,,,,,,2022-03-08,1,,,,,アイエイト,0
2572,9200001039843,新規,0,2022-03-08,2022-03-08,株式会社アイリス・プロジェクト,,株式会社,岐阜県,岐阜市,長良福光２６５４番地,,21,201,5020817,,,,,,,2022-03-08,1,,,,,アイリスプロジェクト,0
2583,9240001059425,新規,0,2022-03-08,2022-03-08,株式会社益広農園,,株式会社,広島県,広島市東区,戸坂出江２丁目１０番７号,,34,102,7320016,,,,,,,2022-03-08,1,,,,,マスヒロノウエン,0
2590,9250003003017,新規,0,2022-03-08,2022-03-08,合同会社グレープ,,合同会社,山口県,下関市,大字田倉１１０番地１,,35,201,7510883,,,,,,,2022-03-08,1,,,,,グレープ,0
2600,9290001096637,新規,0,2022-03-08,2022-03-08,株式会社Ｌａｎｔａｎ,,株式会社,福岡県,福岡市中央区,天神１丁目９番１７号福岡天神フコク生命ビル１５階,,40,133,8100001,,,,,,,2022-03-08,1,,,,,ランタン,0
2601,9290001096694,新規,0,2022-03-08,2022-03-08,株式会社Ｔｒｅｅ　ｏｆ　Ｂｅｇｉｎｎｉｎｇ,,株式会社,福岡県,久留米市,津福今町６１６番地１６,,40,203,8300061,,,,,,,2022-03-08,1,,,,,ツリーオブビギニング,0
2602,9290001096728,新規,0,2022-03-08,2022-03-08,株式会社ハシマノ,,株式会社,福岡県,春日市,須玖南４丁目９５番地,,40,218,8160863,,,,,,,2022-03-08,1,,,,,ハシマノ,0
2605,9290003012245,新規,0,2022-03-08,2022-03-08,合同会社Ｃａｒｒｅｒａ,,合同会社,福岡県,福岡市中央区,薬院４丁目２番２８－４０７号,,40,133,8100022,,,,,,,2022-03-08,1,,,,,カレラ,0
2606,9290003012253,新規,0,2022-03-08,2022-03-08,ＳＯＳ合同会社,,合同会社,福岡県,福岡市南区,塩原３丁目３番５号,,40,134,8150032,,,,,,,2022-03-08,1,,,,,エスオーエス,0
2610,9310001017755,新規,0,2022-03-08,2022-03-08,株式会社田崎工業,00125889,株式会社,長崎県,諫早市,幸町１７番１９号,,42,204,8540022,,,,,,,2022-03-08,1,,,,,タサキコウギョウ,0
2613,9320003003744,新規,0,2022-03-08,2022-03-08,合同会社ＡＫカンパニー,,合同会社,大分県,別府市,石垣東７丁目３番２１号,,44,202,8740919,,,,,,,2022-03-08,1,,,,,エーケーカンパニー,0
2621,9360001030101,新規,0,2022-03-08,2022-03-08,ドローンフュージョン株式会社,,株式会社,沖縄県,宜野湾市,志真志１丁目１３番１７－２０１号エスペランサ志真志,,47,205,9012213,,,,,,,2022-03-08,1,,,,,,0
2636,9380001032624,新規,0,2022-03-08,2022-03-08,株式会社ディライトホーム三柏,,株式会社,福島県,須賀川市,大町１０４番地,,07,207,9620839,,,,,,,2022-03-08,1,,,,,ディライトホームサンパク,0
2647,9420001017760,新規,0,2022-03-08,2022-03-08,五所川原工販株式会社,,株式会社,青森県,つがる市,柏鷺坂清見２４３番地５,,02,209,0383101,,,,,,,2022-03-08,1,,,,,ゴショガワラコウハン,0
2657,9430001086103,新規,0,2022-03-08,2022-03-08,ｏｎｅ　ｎｅｔ　ＩＮＳＩＤＥ　ＳＡＬＥＳ株式会社,,株式会社,北海道,札幌市中央区,大通西９丁目３番地３３,,01,101,0600042,,,,,,,2022-03-08,1,,,,,ワンネットインサイドセールス,0
2658,9430001086144,新規,0,2022-03-08,2022-03-08,株式会社ｕｎｙｂｅｘ,,株式会社,北海道,札幌市北区,北十九条西５丁目１番３０－８０２号,,01,102,0010019,,,,,,,2022-03-08,1,,,,,ユニベックス,0
2659,9430001086152,新規,0,2022-03-08,2022-03-08,株式会社ＨＯＭＥ．ｓ,,株式会社,北海道,札幌市南区,澄川四条１丁目１番５－４０５号,,01,106,0050004,,,,,,,2022-03-08,1,,,,,ホームズ,0
2660,9430001086160,新規,0,2022-03-08,2022-03-08,株式会社イロトリドリ,,株式会社,北海道,札幌市清田区,平岡公園東１丁目１番２６号,,01,110,0040882,,,,,,,2022-03-08,1,,,,,イロトリドリ,0
2662,9430003013690,新規,0,2022-03-08,2022-03-08,合同会社雅テクニカルサービス,,合同会社,北海道,札幌市清田区,平岡三条３丁目１９番１５号,,01,110,0040873,,,,,,,2022-03-08,1,,,,,ミヤビテクニカルサービス,0
2668,9470001000539,新規,0,2022-03-08,2022-03-08,出雲興産株式会社,,株式会社,香川県,高松市,室新町１１７４番地１,,37,201,7618062,,,,,,,2022-03-08,1,,,,,イズモコウサン,0
