sequenceNumber,corporateNumber,process,correct,updateDate,changeDate,name,nameImageId,kind,prefectureName,cityName,streetNumber,addressImageId,prefectureCode,cityCode,postCode,addressOutside,addressOutsideImageId,closeDate,closeCause,successorCorporateNumber,changeCause,assignmentDate,latest,enName,enPrefectureName,enCityName,enAddressOutside,furigana,hihyoji
5,1010001234636,登記記録の閉鎖等,0,2025-01-08,2024-12-19,株式会社チームエル・テクノ,,株式会社,東京都,中央区,日本橋本石町３丁目３番１０号ダイワビル９Ｆ,,13,102,1030021,,,2024-12-19,清算の結了等,,,2023-04-19,1,,,,,チームエルテクノ,0
26,1010601056505,登記記録の閉鎖等,0,2025-01-08,2024-12-18,株式会社Ｂｒｏｎｚｅｂｕｌｌ,,株式会社,東京都,千代田区,大手町１丁目７番２号大手町サンケイビル２７階,,13,101,1000004,,,2024-12-18,清算の結了等,,,2019-12-05,1,,,,,ブロンズブル,0
41,1011003013103,登記記録の閉鎖等,0,2025-01-08,2024-12-09,ライフデザイン合同会社,,合同会社,東京都,渋谷区,神宮前１丁目１番５号,,13,113,1500001,,,2024-12-09,清算の結了等,,,2021-07-26,1,,,,,ライフデザイン,0
50,1011105009362,登記記録の閉鎖等,0,2025-01-08,2024-12-13,税理士法人Ｆｒｅｎｚｙ,,その他の設立登記法人,東京都,新宿区,西新宿５丁目５番１－２９１７号,,13,104,1600023,,,2024-12-13,清算の結了等,,,2020-05-20,1,,,,,フレンジー,0
55,1011201022079,登記記録の閉鎖等,0,2025-01-08,2025-01-06,株式会社ブシロードミュージック・パブリッシング,,株式会社,東京都,中野区,中央１丁目３８番１号,,13,114,1640011,,,2025-01-06,合併による解散等,1011201016171,令和７年１月１日東京都中野区中央一丁目３８番１号株式会社ブシロードミュージック（1011201016171）に合併し解散,2020-04-09,1,,,,,ブシロードミュージックパブリッシング,0
56,1011203002310,登記記録の閉鎖等,0,2025-01-08,2025-01-06,合同会社日本キャリア・コンサルティング協会,,合同会社,東京都,中野区,本町２丁目４９番４号,,13,114,1640012,,,2025-01-06,清算の結了等,,,2016-02-19,1,,,,,ニホンキャリアコンサルティングキョウカイ,0
83,1020001120298,登記記録の閉鎖等,0,2025-01-08,2024-12-17,田園住宅株式会社,,株式会社,神奈川県,横浜市戸塚区,戸塚町４２４０番,,14,110,2440003,,,2024-12-17,清算の結了等,,,2017-03-07,1,,,,,,0
101,1021002014456,登記記録の閉鎖等,0,2025-01-08,2025-01-07,有限会社蕎谷戸,,有限会社,神奈川県,鎌倉市,玉縄２丁目４６４番地,,14,204,2470071,,,2025-01-07,清算の結了等,,,2015-10-05,1,,,,,キョウヤト,0
102,1021002029000,登記記録の閉鎖等,0,2025-01-08,2025-01-06,有限会社大光,,有限会社,神奈川県,相模原市緑区,長竹８６９番地１０,,14,151,2520154,,,2025-01-06,清算の結了等,,,2015-10-05,1,,,,,タイコウ,0
113,1030005021450,登記記録の閉鎖等,0,2025-01-08,2024-12-26,一般社団法人うま,,その他の設立登記法人,埼玉県,熊谷市,小江川２１３１番地４,,11,202,3600103,,,2024-12-26,清算の結了等,,,2023-10-30,1,,,,,ウマ,0
114,1040001054189,登記記録の閉鎖等,0,2025-01-08,2024-12-25,株式会社太陽ステップ,,株式会社,千葉県,市原市,姉崎１６８２番地１３,,12,219,2990111,,,2024-12-25,清算の結了等,,,2015-10-05,1,,,,,タイヨウステップ,0
128,1070001035847,登記記録の閉鎖等,0,2025-01-08,2025-01-06,株式会社恵果コンサルティング,,株式会社,群馬県,前橋市,大利根町１丁目３４番地５,,10,201,3710825,,,2025-01-06,清算の結了等,,,2019-06-18,1,,,,,ケイカコンサルティング,0
144,1120001131450,登記記録の閉鎖等,0,2025-01-08,2025-01-06,株式会社農商工連携推進本部,,株式会社,大阪府,大阪市北区,東天満２丁目６番５号Ｉ・Ｓ南森町ビル,,27,127,5300044,,,2025-01-06,清算の結了等,,,2015-10-05,1,,,,,ノウショウコウレンケイスイシンホンブ,0
151,1120001233197,登記記録の閉鎖等,0,2025-01-08,2024-12-25,睿錦株式会社,,株式会社,大阪府,大阪市住吉区,山之内３丁目１２番１３号エイコマンションＡ棟２３号室,,27,120,5580023,,,2024-12-25,清算の結了等,,,2020-11-27,1,,,,,ルイキン,0
157,1120003007442,登記記録の閉鎖等,0,2025-01-08,2024-12-27,ＦＩＳＴ合同会社,,合同会社,大阪府,枚方市,招提中町１丁目１５番１号,,27,210,5731152,,,2024-12-27,清算の結了等,,,2015-10-05,1,,,,,フィスト,0
158,1120003010586,登記記録の閉鎖等,0,2025-01-08,2024-12-26,ＱソーラーＡ合同会社,,合同会社,和歌山県,有田郡有田川町,大字上六川小字西上奥６４９番地２,,30,366,6430171,,,2024-12-26,合併による解散等,2040003006880,令和６年１２月２０日千葉市中央区松波二丁目４番１８号合同会社ＡＤソーラー８号（2040003006880）に合併し解散,2015-10-05,1,,,,,キューソーラーエー,0
185,1180001001103,登記記録の閉鎖等,0,2025-01-08,2024-12-25,株式会社ピクチャアズハウスエヌ・ワイ・ユウ,,株式会社,愛知県,長久手市,作田１丁目６０３番地ジーオーコーポ第一藤ヶ丘２Ａ,,23,238,4801153,,,2024-12-25,清算の結了等,,,2015-10-05,1,,,,,ピクチャアズハウスエヌワイユウ,0
201,1190003001843,登記記録の閉鎖等,0,2025-01-08,2024-12-27,合同会社まきの木,,合同会社,三重県,志摩市,阿児町国府２９９３番地１,,24,215,5170506,,,2024-12-27,清算の結了等,,,2015-10-05,1,,,,,マキノキ,0
217,1240002011680,登記記録の閉鎖等,0,2025-01-08,2025-01-06,有限会社中下設備,,有限会社,広島県,広島市佐伯区,八幡が丘２丁目１４番３０号,,34,108,7315117,,,2025-01-06,清算の結了等,,,2015-10-05,1,,,,,ナカシモセツビ,0
223,1250002003603,登記記録の閉鎖等,0,2025-01-08,2024-12-27,有限会社ユーエス,,有限会社,山口県,防府市,天神１丁目１２番４５号,,35,206,7470034,,,2024-12-27,清算の結了等,,,2015-10-05,1,,,,,ユーエス,0
238,1290002009753,登記記録の閉鎖等,0,2025-01-08,2024-12-16,有限会社ウッドプランナー,,有限会社,福岡県,福岡市中央区,桜坂１丁目１２番４０号,,40,133,8100024,,,2024-12-16,清算の結了等,,,2015-10-05,1,,,,,,0
242,1290802016981,登記記録の閉鎖等,0,2025-01-08,2025-01-06,有限会社山本機工,,有限会社,福岡県,遠賀郡遠賀町,大字虫生津５４７番地の３,,40,384,8114321,,,2025-01-06,清算の結了等,,,2015-10-05,1,,,,,ヤマモトキコウ,0
253,1330002000014,登記記録の閉鎖等,0,2025-01-08,2024-12-25,有限会社アオイ建築設計事務所,,有限会社,熊本県,熊本市東区,上南部３丁目１３番１８号,,43,102,8618010,,,2024-12-25,清算の結了等,,,2015-10-05,1,,,,,アオイケンチクセッケイジムショ,0
262,1370301002260,登記記録の閉鎖等,0,2025-01-08,2024-12-19,株式会社ニッシン,,株式会社,宮城県,石巻市,鹿妻北１丁目１番８号,,04,202,9860043,,,2024-12-19,清算の結了等,,,2015-10-05,1,,,,,ニッシン,0
272,1420001000014,登記記録の閉鎖等,0,2025-01-08,2025-01-06,株式会社みちのく銀行,,株式会社,青森県,青森市,勝田１丁目３番１号,,02,201,0300821,,,2025-01-06,合併による解散等,3420001000012,令和７年１月１日青森市橋本一丁目９番３０号株式会社青森みちのく銀行（3420001000012）に合併し解散,2015-10-05,1,,,,,ミチノクギンコウ,0
274,1430001012850,登記記録の閉鎖等,0,2025-01-08,2024-12-27,株式会社日天,,株式会社,北海道,札幌市東区,北三十五条東２３丁目５番１０号,,01,103,0070835,,,2024-12-27,清算の結了等,,,2015-10-05,1,,,,,ニッテン,0
277,1430002047722,登記記録の閉鎖等,0,2025-01-08,2024-12-25,有限会社新成建設,,有限会社,北海道,千歳市,寿３丁目９番７号,,01,224,0660023,,,2024-12-25,清算の結了等,,,2015-10-05,1,,,,,シンセイケンセツ,0
321,2010403017836,登記記録の閉鎖等,0,2025-01-08,2025-01-06,流山合同会社,,合同会社,東京都,中央区,八重洲２丁目２番１号,,13,102,1040028,,,2025-01-06,清算の結了等,,,2017-12-20,1,,,,,ナガレヤマ,0
331,2011001142266,登記記録の閉鎖等,0,2025-01-08,2024-12-04,ＯＮＸ株式会社,,株式会社,東京都,渋谷区,渋谷１丁目２番５号,,13,113,1500002,,,2024-12-04,合併による解散等,6011001146255,令和６年１２月１日東京都渋谷区渋谷一丁目２番５号ユナイテッド・リクルートメント株式会社（6011001146255）に合併し解散,2021-08-19,1,,,,,オンクス,0
348,2011105010336,登記記録の閉鎖等,0,2025-01-08,2024-12-23,一般社団法人在日本韓国人連合会,,その他の設立登記法人,東京都,新宿区,大久保２丁目１－８プラザ新大樹ビル本棟４０８,,13,104,1690072,,,2024-12-23,清算の結了等,,,2022-07-28,1,,,,,ザイニホンカンコクジンレンゴウカイ,0
367,2012702014150,登記記録の閉鎖等,0,2025-01-08,2024-12-18,有限会社タケムラ,,有限会社,東京都,西東京市,東町１丁目６番１号,,13,229,2020012,,,2024-12-18,清算の結了等,,,2015-10-05,1,,,,,タケムラ,0
396,2040001001280,登記記録の閉鎖等,0,2025-01-08,2024-12-23,株式会社尾原工業,,株式会社,千葉県,千葉市中央区,川戸町３１２番地の１６,,12,101,2600802,,,2024-12-23,清算の結了等,,,2015-10-05,1,,,,,オハラコウギョウ,0
399,2040001096899,登記記録の閉鎖等,0,2025-01-08,2024-12-25,株式会社学習エージェント,,株式会社,千葉県,松戸市,本町１４－２０第２ビューハイツ３０４,,12,207,2710091,,,2024-12-25,清算の結了等,,,2016-09-08,1,,,,,ガクシュウエージェント,0
407,2040002091825,登記記録の閉鎖等,0,2025-01-08,2024-12-25,有限会社ミレー,,有限会社,千葉県,柏市,西原４丁目１番１号,,12,217,2770885,,,2024-12-25,清算の結了等,,,2015-10-05,1,,,,,ミレー,0
416,2060001031895,登記記録の閉鎖等,0,2025-01-08,2024-12-25,株式会社トライメルキュール,,株式会社,栃木県,小山市,大字喜沢６９０番地１,,09,208,3230014,,,2024-12-25,清算の結了等,,,2019-09-13,1,,,,,トライメルキュール,0
423,2080001022851,登記記録の閉鎖等,0,2025-01-08,2024-12-26,株式会社オーバーリンク,,株式会社,静岡県,静岡市清水区,相生町７番２６号セントラルビル１階,,22,103,4240821,,,2024-12-26,清算の結了等,,,2019-05-08,1,,,,,オーバーリンク,0
425,2080401020348,登記記録の閉鎖等,0,2025-01-08,2024-12-26,株式会社応用技術研究所,,株式会社,静岡県,湖西市,鷲津３３８７番地アルカミーノ１Ｂ２,,22,221,4310431,,,2024-12-26,清算の結了等,,,2015-10-05,1,,,,,オウヨウギジュツケンキュウショ,0
429,2100001017130,登記記録の閉鎖等,0,2025-01-08,2024-12-27,市川事業株式会社,,株式会社,長野県,大町市,大町５０８８番地１,,20,212,3980002,,,2024-12-27,清算の結了等,,,2015-10-05,1,,,,,イチカワジギョウ,0
433,2100002024092,登記記録の閉鎖等,0,2025-01-08,2024-12-25,有限会社マルエー電気商会,,有限会社,長野県,安曇野市,堀金烏川２３６６番地,,20,220,3998211,,,2024-12-25,清算の結了等,,,2015-10-05,1,,,,,マルエーデンキショウカ,0
436,2110001025900,登記記録の閉鎖等,0,2025-01-08,2024-12-27,株式会社Ｆ,,株式会社,新潟県,長岡市,城内町２丁目５番地６ミヤビル１Ｆ,,15,202,9400061,,,2024-12-27,清算の結了等,,,2015-10-05,1,,,,,エフ,0
439,2110002001322,登記記録の閉鎖等,0,2025-01-08,2024-12-27,有限会社大口工務店,,有限会社,新潟県,新潟市江南区,天野１丁目１８番５３号,,15,104,9501134,,,2024-12-27,清算の結了等,,,2015-10-05,1,,,,,オオグチコウムテン,0
441,2120001006420,登記記録の閉鎖等,0,2025-01-08,2025-01-06,株式会社マツセ,,株式会社,大阪府,大阪市住吉区,東粉浜３丁目１３番９号,,27,120,5580051,,,2025-01-06,清算の結了等,,,2015-10-05,1,,,,,マツセ,0
442,2120001019298,登記記録の閉鎖等,0,2025-01-08,2025-01-06,大阪製＿株式会社,00027719,株式会社,大阪府,大阪市生野区,新今里６丁目４番１号,,27,116,5440001,,,2025-01-06,清算の結了等,,,2015-10-05,1,,,,,オオサカセイアン,0
443,2120001029735,登記記録の閉鎖等,0,2025-01-08,2025-01-06,株式会社富士屋商店,,株式会社,大阪府,大阪市港区,夕凪１丁目１５番３３号,,27,107,5520004,,,2025-01-06,清算の結了等,,,2015-10-05,1,,,,,フジヤショウテン,0
444,2120001122440,登記記録の閉鎖等,0,2025-01-08,2025-01-06,タギングテック株式会社,,株式会社,大阪府,大阪市旭区,中宮３丁目９番１０号,,27,117,5350003,,,2025-01-06,清算の結了等,,,2015-10-05,1,,,,,タギングテック,0
458,2120002052496,登記記録の閉鎖等,0,2025-01-08,2025-01-06,有限会社三友技研,,有限会社,大阪府,大阪市西成区,北津守４丁目９番１１号,,27,122,5570061,,,2025-01-06,清算の結了等,,,2015-10-05,1,,,,,サンユウギケン,0
463,2120005008248,登記記録の閉鎖等,0,2025-01-08,2025-01-06,税理士法人マネイジメント総研,,その他の設立登記法人,大阪府,大阪市中央区,本町３丁目５番２号,,27,128,5410053,,,2025-01-06,清算の結了等,,,2015-10-05,1,,,,,マネイジメントソウケン,0
480,2150001005675,登記記録の閉鎖等,0,2025-01-08,2024-12-27,株式会社キューピー堂,,株式会社,奈良県,大和郡山市,南郡山町５３９番地,,29,203,6391007,,,2024-12-27,清算の結了等,,,2015-10-05,1,,,,,キューピードウ,0
493,2180002032889,登記記録の閉鎖等,0,2025-01-08,2024-12-23,有限会社松尾積算事務所,,有限会社,愛知県,名古屋市中区,丸の内２丁目１４番１９号,,23,106,4600002,,,2024-12-23,清算の結了等,,,2015-10-05,1,,,,,マツオセキサンジムショ,0
494,2180002067101,登記記録の閉鎖等,0,2025-01-08,2024-12-23,有限会社広瀬食品,,有限会社,愛知県,春日井市,西本町１丁目１４番地の７,,23,206,4860958,,,2024-12-23,清算の結了等,,,2015-10-05,1,,,,,ヒロセショクヒン,0
527,2250001008528,登記記録の閉鎖等,0,2025-01-08,2024-12-26,株式会社健尚堂,,株式会社,山口県,山口市,元町１番２７号,,35,203,7530063,,,2024-12-26,清算の結了等,,,2015-10-05,1,,,,,ケンショウドウ,0
533,2290001052415,登記記録の閉鎖等,0,2025-01-08,2024-12-16,株式会社ＺＥＲＯ－ＯＮＥ,,株式会社,福岡県,福岡市南区,五十川２丁目３６－５エクレールマンション井尻ＩＩ－８０１号,00121676,40,134,8150001,,,2024-12-16,清算の結了等,,,2015-10-05,1,,,,,ゼロワン,0
550,2310001003398,登記記録の閉鎖等,0,2025-01-08,2025-01-06,有明興産株式会社,,株式会社,長崎県,長崎市,若葉町１３番９号,,42,201,8528137,,,2025-01-06,清算の結了等,,,2015-10-05,1,,,,,アリアケコウサン,0
558,2340002008154,登記記録の閉鎖等,0,2025-01-08,2024-12-24,有限会社福岡空調メンテナンス,,有限会社,鹿児島県,鹿児島市,与次郎２丁目４－２１アドバンス８１７号,,46,201,8900062,,,2024-12-24,清算の結了等,,,2015-10-05,1,,,,,フクオカクウチョウメンテナンス,0
569,2380005005599,登記記録の閉鎖等,0,2025-01-08,2024-12-19,特定非営利活動法人アイ・サポート,,その他の設立登記法人,福島県,石川郡玉川村,大字岩法寺字方丈１０４番地,,07,502,9636311,,,2024-12-19,清算の結了等,,,2015-10-05,1,,,,,アイサポート,0
576,2430001030050,登記記録の閉鎖等,0,2025-01-08,2025-01-06,株式会社ＨＩＭコーポレーション,,株式会社,北海道,札幌市北区,新琴似町７７３番地の７,,01,102,0010915,,,2025-01-06,合併による解散等,2430001012899,令和７年１月１日札幌市北区東茨戸一条一丁目８番５号日免オートシステム株式会社（2430001012899）に合併し解散,2015-10-05,1,,,,,ヒムコーポレーション,0
607,3010003028902,登記記録の閉鎖等,0,2025-01-08,2024-12-19,合同会社ｔｒａｎｓ．ａｎｅｔ,,合同会社,東京都,中央区,東日本橋２丁目１１番５号,,13,102,1030004,,,2024-12-19,清算の結了等,,,2018-12-14,1,,,,,トランスエーネット,0
646,3011003011765,登記記録の閉鎖等,0,2025-01-08,2024-12-05,ｏ＆ｂｅｅ合同会社,,合同会社,東京都,目黒区,青葉台３丁目１－１７－５０３,,13,110,1530042,,,2024-12-05,清算の結了等,,,2020-10-16,1,,,,,オーアンドビー,0
671,3012401037831,登記記録の閉鎖等,0,2025-01-08,2025-01-06,株式会社スタートライン・プラネット,,株式会社,東京都,三鷹市,上連雀１丁目１２番１７号,,13,204,1810012,,,2025-01-06,合併による解散等,9010101009311,令和７年１月１日東京都三鷹市上連雀一丁目１２番１７号株式会社スタートライン（9010101009311）に合併し解散,2021-05-10,1,,,,,スタートラインプラネット,0
674,3012402004054,登記記録の閉鎖等,0,2025-01-08,2024-12-25,有限会社萩原園,,有限会社,東京都,国分寺市,本多３丁目５番３６号,,13,214,1850011,,,2024-12-25,清算の結了等,,,2015-10-05,1,,,,,ハギワラエン,0
682,3021001025898,登記記録の閉鎖等,0,2025-01-08,2024-12-27,株式会社リオス,,株式会社,神奈川県,大和市,上和田１８８番地の８,,14,213,2420014,,,2024-12-27,清算の結了等,,,2015-10-05,1,,,,,リオス,0
712,3050002025491,登記記録の閉鎖等,0,2025-01-08,2024-12-18,有限会社栄光,,有限会社,茨城県,古河市,長左エ門新田９０５番地,,08,204,3060103,,,2024-12-18,合併による解散等,5050002018849,令和６年１２月１日茨城県坂東市逆井１７１８番地１３株式会社ＳＳＧホールディングス（5050002018849）に合併し解散,2015-10-05,1,,,,,エイコウ,0
716,3060001011351,登記記録の閉鎖等,0,2025-01-08,2024-12-25,黒磯印刷株式会社,,株式会社,栃木県,那須塩原市,本町３番５号,,09,213,3250056,,,2024-12-25,清算の結了等,,,2015-10-05,1,,,,,クロイソインサツ,0
720,3070001017455,登記記録の閉鎖等,0,2025-01-08,2025-01-06,株式会社アプレイザルセキ,,株式会社,群馬県,渋川市,渋川２１６８番地の２,,10,208,3770008,,,2025-01-06,清算の結了等,,,2015-10-05,1,,,,,アプレイザルセキ,0
727,3110002006923,登記記録の閉鎖等,0,2025-01-08,2024-12-26,有限会社ユニコン,,有限会社,新潟県,新潟市西区,寺尾１３番７号,,15,107,9502052,,,2024-12-26,清算の結了等,,,2015-10-05,1,,,,,ユニコン,0
745,3122001024005,登記記録の閉鎖等,0,2025-01-08,2024-12-20,アウトカム・ジャパン株式会社,,株式会社,大阪府,東大阪市,永和２丁目２番２９号永和ビル１号館３階,,27,227,5770809,,,2024-12-20,清算の結了等,,,2015-10-05,1,,,,,アウトカムジャパン,0
748,3140001013265,登記記録の閉鎖等,0,2025-01-08,2024-12-26,株式会社松建,,株式会社,兵庫県,神戸市兵庫区,中道通５丁目１番１０号,,28,105,6520801,,,2024-12-26,清算の結了等,,,2015-10-05,1,,,,,,0
766,3150003002141,登記記録の閉鎖等,0,2025-01-08,2025-01-06,日本レギュラトリーパートナーズ合同会社,,合同会社,奈良県,奈良市,神功４丁目１番８－２０１号,,29,201,6310804,,,2025-01-06,清算の結了等,,,2020-05-27,1,,,,,ニホンレギュラトリーパートナーズ,0
770,3170001012669,登記記録の閉鎖等,0,2025-01-08,2025-01-06,株式会社住宅リフォームなごみ,,株式会社,和歌山県,西牟婁郡上富田町,下鮎川１５番地,,30,404,6492108,,,2025-01-06,清算の結了等,,,2015-10-05,1,,,,,ジュウタクリフォームナゴミ,0
786,3180002070046,登記記録の閉鎖等,0,2025-01-08,2024-12-25,有限会社未来企画,,有限会社,愛知県,小牧市,応時１丁目２１３番地,,23,219,4850832,,,2024-12-25,清算の結了等,,,2015-10-05,1,,,,,ミライキカク,0
787,3180005003003,登記記録の閉鎖等,0,2025-01-08,2024-12-26,中部電力検針集金労働組合,,その他の設立登記法人,愛知県,名古屋市東区,東新町１番地中部電力株式会社内,,23,102,4610006,,,2024-12-26,清算の結了等,,,2015-10-05,1,,,,,チュウブデンリョクケンシンシュウキン,0
802,3220001018784,登記記録の閉鎖等,0,2025-01-08,2025-01-06,株式会社ＳＴＩサービス,,株式会社,石川県,金沢市,戸板１丁目７５番地,,17,201,9200068,,,2025-01-06,清算の結了等,,,2015-10-05,1,,,,,,0
803,3220001026093,登記記録の閉鎖等,0,2025-01-08,2024-12-25,株式会社ＴＯＰ‐ＮＯＴＣＨ,,株式会社,石川県,金沢市,矢木２丁目１３９番地１０１,,17,201,9218066,,,2024-12-25,清算の結了等,,,2024-07-18,1,,,,,トップノッチ,0
829,3300002000007,登記記録の閉鎖等,0,2025-01-08,2025-01-06,有限会社新星商会,,有限会社,佐賀県,佐賀市,神園２丁目８番１２号,,41,201,8400806,,,2025-01-06,清算の結了等,,,2015-10-05,1,,,,,シンセイショウカイ,0
834,3330005000141,登記記録の閉鎖等,0,2025-01-08,2024-12-18,一般財団法人熊本県健康管理協会,,その他の設立登記法人,熊本県,熊本市東区,長嶺南２丁目１番１号,,43,102,8618039,,,2024-12-18,清算の結了等,,,2015-10-05,1,,,,,クマモトケンケンコウカンリキョウカイ,0
838,3350001016668,登記記録の閉鎖等,0,2025-01-08,2024-12-25,株式会社ＴＡＩＣＨＩ,,株式会社,宮崎県,宮崎市,田野町乙１０１２５番地９,,45,201,8891702,,,2024-12-25,清算の結了等,,,2020-10-06,1,,,,,タイチ,0
842,3360001030899,登記記録の閉鎖等,0,2025-01-08,2025-01-06,株式会社高瀬,,株式会社,沖縄県,名護市,字宇茂佐１６０８番地－３０１,,47,209,9050006,,,2025-01-06,清算の結了等,,,2022-08-30,1,,,,,タカセ,0
846,3370302000906,登記記録の閉鎖等,0,2025-01-08,2024-12-25,有限会社互幸商店,,有限会社,宮城県,石巻市,駅前北通り１丁目９番３号,,04,202,9860813,,,2024-12-25,清算の結了等,,,2015-10-05,1,,,,,ゴコウショウテン,0
848,3410005006312,登記記録の閉鎖等,0,2025-01-08,2024-12-24,一般社団法人ＬＯＣＡＬ　ＫＲＡＦＴ,,その他の設立登記法人,秋田県,鹿角市,花輪字新川原４８番地,,05,209,0185201,,,2024-12-24,清算の結了等,,,2020-05-28,1,,,,,ローカルクラフト,0
852,3430001083948,登記記録の閉鎖等,0,2025-01-08,2025-01-06,株式会社オフィスラン,,株式会社,北海道,札幌市豊平区,豊平三条８丁目１－２６ヌーベルアーバンシティ２階,,01,105,0620903,,,2025-01-06,清算の結了等,,,2021-04-16,1,,,,,オフィスラン,0
861,3480005004004,登記記録の閉鎖等,0,2025-01-08,2025-01-06,特定非営利活動法人東部地域活動支援センターちゅうりっぷ,,その他の設立登記法人,徳島県,板野郡北島町,北村字三町地３４番地１,,36,402,7710201,,,2025-01-06,清算の結了等,,,2015-10-05,1,,,,,,0
864,3500002017055,登記記録の閉鎖等,0,2025-01-08,2024-12-27,有限会社美容室マリアン,,有限会社,愛媛県,新居浜市,西喜光地町８番２２号,,38,205,7920827,,,2024-12-27,清算の結了等,,,2015-10-05,1,,,,,ビヨウシツマリアン,0
872,4010001165531,登記記録の閉鎖等,0,2025-01-08,2024-12-20,Ｒｅｖａｌ　Ｊａｐａｎ株式会社,,株式会社,東京都,千代田区,丸の内２丁目１番１号明治安田生命ビル６階,,13,101,1000005,,,2024-12-20,清算の結了等,,,2015-10-05,1,,,,,レヴァルジャパン,0
879,4010005024469,登記記録の閉鎖等,0,2025-01-08,2024-12-27,一般社団法人ＲＳ高萩・つがる,,その他の設立登記法人,東京都,千代田区,飯田橋１丁目３番２号曙杉館４階ＲＳＭ清和コンサルティング株式会社内,,13,101,1020072,,,2024-12-27,清算の結了等,,,2015-10-07,1,,,,,アールエスタカハギツガル,0
883,4010401052065,登記記録の閉鎖等,0,2025-01-08,2024-12-13,株式会社ヴァナシェ,,株式会社,東京都,港区,白金１丁目２番６号,,13,103,1080072,,,2024-12-13,清算の結了等,,,2015-10-05,1,,,,,ヴァナシェ,0
891,4010403022041,登記記録の閉鎖等,0,2025-01-08,2024-12-13,ベン合同会社,,合同会社,東京都,港区,六本木１丁目６番１号泉ガーデンタワー,,13,103,1060032,,,2024-12-13,清算の結了等,,,2019-12-23,1,,,,,ベン,0
898,4010702001794,登記記録の閉鎖等,0,2025-01-08,2024-12-20,有限会社小野島商店,,有限会社,東京都,品川区,小山４丁目８番９号,,13,109,1420062,,,2024-12-20,清算の結了等,,,2015-10-05,1,,,,,オノジマショウテン,0
900,4010805001626,登記記録の閉鎖等,0,2025-01-08,2024-12-25,企業組合モアイ,,その他の設立登記法人,東京都,大田区,田園調布３丁目１番３号,,13,111,1450071,,,2024-12-25,清算の結了等,,,2015-10-05,1,,,,,モアイ,0
903,4010902017260,登記記録の閉鎖等,0,2025-01-08,2024-12-26,有限会社鳥居商事,,有限会社,東京都,世田谷区,野沢３丁目１２番１７号,,13,112,1540003,,,2024-12-26,清算の結了等,,,2015-10-05,1,,,,,トリイショウジ,0
937,4012401003989,登記記録の閉鎖等,0,2025-01-08,2024-12-23,株式会社藤田電氣商会,,株式会社,東京都,国立市,北３丁目４０番の３,,13,215,1860001,,,2024-12-23,清算の結了等,,,2015-10-05,1,,,,,フジタデンキショウカイ,0
939,4012402003880,登記記録の閉鎖等,0,2025-01-08,2024-12-25,有限会社ディージェイ,,有限会社,東京都,国分寺市,本多３丁目５番３６号,,13,214,1850011,,,2024-12-25,清算の結了等,,,2015-10-05,1,,,,,ディージェイ,0
940,4012705002225,登記記録の閉鎖等,0,2025-01-08,2024-12-18,一般社団法人日本知育ヨガ協会,,その他の設立登記法人,東京都,西東京市,東伏見２丁目４－４,,13,229,2020021,,,2024-12-18,清算の結了等,,,2020-08-11,1,,,,,ニホンチイクヨガキョウカイ,0
943,4013103000952,登記記録の閉鎖等,0,2025-01-08,2024-12-27,合同会社フジキタ,,合同会社,東京都,あきる野市,草花２１００番地４４,,13,228,1970802,,,2024-12-27,清算の結了等,,,2020-03-18,1,,,,,フジキタ,0
944,4013305001600,登記記録の閉鎖等,0,2025-01-08,2024-12-25,特定非営利活動法人医療大麻を考える会,,その他の設立登記法人,東京都,世田谷区,北沢４丁目４番８号海野ハイツ１０３,,13,112,1550031,,,2024-12-25,清算の結了等,,,2015-10-05,1,,,,,イリョウタイマヲカンガエルカイ,0
948,4020001116228,登記記録の閉鎖等,0,2025-01-08,2024-12-23,株式会社ＭＫｄｏｓ,,株式会社,神奈川県,川崎市川崎区,渡田新町３丁目６番１６号,,14,131,2100844,,,2024-12-23,清算の結了等,,,2016-05-20,1,,,,,エムケードス,0
967,4021005007537,登記記録の閉鎖等,0,2025-01-08,2025-01-06,医療法人南鐐会,,その他の設立登記法人,神奈川県,横須賀市,久里浜１丁目１１番７号,,14,201,2390831,,,2025-01-06,清算の結了等,,,2015-10-05,1,,,,,ナンリョウカイ,0
973,4040002084249,登記記録の閉鎖等,0,2025-01-08,2024-12-25,伊藤建設有限会社,,有限会社,千葉県,旭市,大塚原１１５３番地,,12,215,2892533,,,2024-12-25,清算の結了等,,,2015-10-05,1,,,,,イトウケンセツ,0
1003,4120001028181,登記記録の閉鎖等,0,2025-01-08,2025-01-06,丸大工業株式会社,,株式会社,大阪府,大阪市大正区,南恩加島５丁目８番６号,,27,108,5510021,,,2025-01-06,清算の結了等,,,2015-10-05,1,,,,,マルダイコウギョウ,0
1004,4120001040293,登記記録の閉鎖等,0,2025-01-08,2025-01-06,柳屋電機西口栄株式会社,,株式会社,大阪府,大阪市浪速区,日本橋４丁目１２番１号,,27,111,5560005,,,2025-01-06,清算の結了等,,,2015-10-05,1,,,,,ヤナギヤデンキニシグチサカエ,0
1021,4130001004181,登記記録の閉鎖等,0,2025-01-08,2025-01-06,株式会社京都書房,,株式会社,京都府,京都市伏見区,深草フチ町５番地,,26,109,6128438,,,2025-01-06,清算の結了等,,,2015-10-05,1,,,,,キョウトショボウ,0
1045,4140002040299,登記記録の閉鎖等,0,2025-01-08,2024-12-25,有限会社オカタニ興産,,有限会社,兵庫県,尼崎市,御園３丁目１４番１－２０１号,,28,202,6610984,,,2024-12-25,清算の結了等,,,2015-10-05,1,,,,,オカタニコウサン,0
1057,4180002019876,登記記録の閉鎖等,0,2025-01-08,2024-12-26,有限会社若松塗装店,,有限会社,愛知県,名古屋市中川区,江松３丁目１３２０番地,,23,110,4540954,,,2024-12-26,清算の結了等,,,2015-10-05,1,,,,,ワカマツトソウテン,0
1058,4180003022086,登記記録の閉鎖等,0,2025-01-08,2024-12-23,合同会社笑夢,,合同会社,愛知県,岩倉市,西市町無量寺３５番地１ブライトンハイツ３０１号,,23,228,4820036,,,2024-12-23,清算の結了等,,,2021-02-03,1,,,,,エム,0
1068,4210002000840,登記記録の閉鎖等,0,2025-01-08,2024-12-25,有限会社川越サービス,,有限会社,福井県,吉田郡永平寺町,松岡吉野堺第１８号２０番地,,18,322,9101127,,,2024-12-25,清算の結了等,,,2015-10-05,1,,,,,カワゴエサービス,0
1077,4240005013085,登記記録の閉鎖等,0,2025-01-08,2025-01-07,特定非営利活動法人上殿未来会議,,その他の設立登記法人,広島県,山県郡安芸太田町,大字上殿２０４番地１,,34,368,7313664,,,2025-01-07,清算の結了等,,,2015-10-05,1,,,,,カミトノミライカイギ,0
1078,4250001009342,登記記録の閉鎖等,0,2025-01-08,2025-01-06,株式会社西京システムサービス,,株式会社,山口県,周南市,平和通１丁目１０番２,,35,215,7450015,,,2025-01-06,合併による解散等,8250001008844,令和７年１月１日山口県周南市平和通一丁目１０番の２株式会社西京銀行（8250001008844）に合併し解散,2015-10-05,1,,,,,サイキョウシステムサービス,0
1079,4250001018640,登記記録の閉鎖等,0,2025-01-08,2025-01-06,株式会社朝日新聞宇部西部,,株式会社,山口県,宇部市,神原町２丁目５番１３号,,35,202,7550022,,,2025-01-06,清算の結了等,,,2021-01-05,1,,,,,アサヒシンブンウベセイブ,0
1094,4290002052230,登記記録の閉鎖等,0,2025-01-08,2024-12-16,有限会社ＴＨＲＩＶＥ,,有限会社,福岡県,久留米市,梅満町４０１番地２０,,40,203,8300048,,,2024-12-16,清算の結了等,,,2015-10-05,1,,,,,スライブ,0
1096,4290003005732,登記記録の閉鎖等,0,2025-01-08,2025-01-07,合同会社ＲＡＮコミュニケーション研究所,,合同会社,福岡県,糸島市,南風台６丁目６番２８号,,40,230,8191137,,,2025-01-07,清算の結了等,,,2015-10-05,1,,,,,,0
1099,4290802021005,登記記録の閉鎖等,0,2025-01-08,2025-01-06,有限会社九州テクノパーツ,,有限会社,福岡県,遠賀郡岡垣町,旭台５丁目４番１４－Ａ２０３号,,40,383,8114215,,,2025-01-06,清算の結了等,,,2015-10-05,1,,,,,キュウシュウテクノパーツ,0
1106,4340002001041,登記記録の閉鎖等,0,2025-01-08,2024-12-27,有限会社アプリコ,,有限会社,鹿児島県,鹿児島市,宇宿３丁目４６番１０号コーポサンコール１０１号,,46,201,8900073,,,2024-12-27,清算の結了等,,,2015-10-05,1,,,,,アプリコ,0
1111,4360001027952,登記記録の閉鎖等,0,2025-01-08,2025-01-06,ＬＹＹジャパン株式会社,,株式会社,沖縄県,国頭郡金武町,字金武４００５番地,,47,314,9041201,,,2025-01-06,清算の結了等,,,2020-11-18,1,,,,,エルワイワイジャパン,0
1119,4380002008264,登記記録の閉鎖等,0,2025-01-08,2024-12-20,有限会社エム・シー・エム,,有限会社,福島県,郡山市,大槻町字下西田９３番地１４,,07,203,9630201,,,2024-12-20,清算の結了等,,,2015-10-05,1,,,,,エムシーエム,0
1122,4380002033956,登記記録の閉鎖等,0,2025-01-08,2024-12-23,Ｋ－Ｓｔｙｌｅ　Ｄｅｓｉｇｎ株式会社,,株式会社,福島県,会津若松市,西栄町６番３７号,,07,202,9650877,,,2024-12-23,清算の結了等,,,2015-10-05,1,,,,,,0
1129,4430001029933,登記記録の閉鎖等,0,2025-01-08,2025-01-06,札幌丸水株式会社,,株式会社,北海道,札幌市中央区,北十二条西２０丁目２番１号,,01,101,0600012,,,2025-01-06,清算の結了等,,,2015-10-05,1,,,,,サッポロマルスイ,0
1163,5010403025068,登記記録の閉鎖等,0,2025-01-08,2025-01-06,ＪＤＰ３ＭＬ合同会社,,合同会社,東京都,中央区,八重洲２丁目２番１号,,13,102,1040028,,,2025-01-06,清算の結了等,,,2021-04-08,1,,,,,ジェイディーピースリーエムエル,0
1184,5011001059474,登記記録の閉鎖等,0,2025-01-08,2024-12-25,株式会社ピエナ・カーサ,,株式会社,千葉県,船橋市,習志野台２丁目３２－８,,12,204,2740063,,,2024-12-25,清算の結了等,,,2015-10-05,1,,,,,ピエナカーサ,0
1185,5011001115665,登記記録の閉鎖等,0,2025-01-08,2024-12-23,株式会社ＲＳＫ,,株式会社,東京都,新宿区,歌舞伎町１丁目１２番６号,,13,104,1600021,,,2024-12-23,清算の結了等,,,2017-04-06,1,,,,,アールエスケイ,0
1210,5011801030122,登記記録の閉鎖等,0,2025-01-08,2024-12-25,株式会社Ｂ－Ｄｅｓｉｇｎ,,株式会社,東京都,葛飾区,西水元２丁目５番１７号,,13,122,1250031,,,2024-12-25,清算の結了等,,,2015-10-05,1,,,,,ビーデザイン,0
1220,5020001047678,登記記録の閉鎖等,0,2025-01-08,2024-12-24,株式会社ミツコーポレーション,,株式会社,神奈川県,横浜市旭区,若葉台１丁目１０番,,14,112,2410801,,,2024-12-24,清算の結了等,,,2015-10-05,1,,,,,ミツコーポレーション,0
1233,5040001098620,登記記録の閉鎖等,0,2025-01-08,2024-12-25,株式会社Ｚｅｒｕｃｈ,,株式会社,千葉県,柏市,旭町２丁目１０番地の１６,,12,217,2770852,,,2024-12-25,清算の結了等,,,2017-01-31,1,,,,,,0
1240,5050001035663,登記記録の閉鎖等,0,2025-01-08,2024-12-19,ＮＢＯ商事株式会社,,株式会社,茨城県,坂東市,辺田１５１６番地,,08,228,3060632,,,2024-12-19,清算の結了等,,,2015-10-05,1,,,,,エヌビーオーショウジ,0
1244,5050002018741,登記記録の閉鎖等,0,2025-01-08,2024-12-18,有限会社英康コーポレーション,,有限会社,茨城県,坂東市,逆井１７１８番地の１１,,08,228,3060501,,,2024-12-18,合併による解散等,5050002018849,令和６年１２月１日茨城県坂東市逆井１７１８番地１３株式会社ＳＳＧホールディングス（5050002018849）に合併し解散,2015-10-05,1,,,,,エイコウコーポレーション,0
1247,5070002030356,登記記録の閉鎖等,0,2025-01-08,2024-12-24,有限会社成田製作所,,有限会社,群馬県,邑楽郡邑楽町,大字中野２７８５番地,,10,525,3700603,,,2024-12-24,清算の結了等,,,2015-10-05,1,,,,,ナリタセイサクショ,0
1299,5130001029995,登記記録の閉鎖等,0,2025-01-08,2024-12-27,株式会社共栄テックビズ,,株式会社,京都府,長岡京市,柴の里１番地の７５,,26,209,6170818,,,2024-12-27,清算の結了等,,,2015-10-05,1,,,,,キョウエイテックビズ,0
1300,5130001041216,登記記録の閉鎖等,0,2025-01-08,2025-01-06,株式会社西本,,株式会社,京都府,福知山市,鴨野町８３番２,,26,201,6200987,,,2025-01-06,清算の結了等,,,2015-10-05,1,,,,,ニシモト,0
1305,5140001072838,登記記録の閉鎖等,0,2025-01-08,2024-12-27,株式会社アイドース,,株式会社,兵庫県,西宮市,高座町１３番９号,,28,204,6620872,,,2024-12-27,清算の結了等,,,2015-10-05,1,,,,,アイドース,0
1313,5180001058503,登記記録の閉鎖等,0,2025-01-08,2024-12-23,株式会社フジサンヨーエンジニアリング,,株式会社,愛知県,名古屋市港区,東築地町６番地４０号,,23,111,4550023,,,2024-12-23,清算の結了等,,,2015-10-05,1,,,,,フジサンヨーエンジニアリング,0
1314,5180001102368,登記記録の閉鎖等,0,2025-01-08,2024-12-26,株式会社ゑんぎ,,株式会社,愛知県,豊明市,新栄町５丁目１番地１,,23,229,4701154,,,2024-12-26,清算の結了等,,,2015-10-05,1,,,,,エンギ,0
1316,5180001155936,登記記録の閉鎖等,0,2025-01-08,2024-12-24,ＩＣＴ授業方法コンサルティング株式会社,,株式会社,愛知県,長久手市,蟹原１９０１番地プレシアスシティ　ザ・シーズンズＣ棟３０１,,23,238,4801142,,,2024-12-24,清算の結了等,,,2023-04-19,1,,,,,アイシーティージュギョウホウホウ,0
1319,5180002078310,登記記録の閉鎖等,0,2025-01-08,2024-12-25,有限会社パン工房ポニー,,有限会社,愛知県,一宮市,開明字畑添７番地の１,,23,203,4940001,,,2024-12-25,清算の結了等,,,2015-10-05,1,,,,,パンコウボウポニー,0
1329,5210001012778,登記記録の閉鎖等,0,2025-01-08,2024-12-25,株式会社笠原電器商会,,株式会社,福井県,鯖江市,田村町第３号６番地,,18,207,9160087,,,2024-12-25,清算の結了等,,,2015-10-05,1,,,,,カサハラデンキショウカイ,0
1331,5220001016415,登記記録の閉鎖等,0,2025-01-08,2024-12-26,ワイズクリエイション株式会社,,株式会社,石川県,七尾市,中挟町ヨ部５８番地１,,17,202,9260036,,,2024-12-26,清算の結了等,,,2015-10-05,1,,,,,ワイズクリエイション,0
1338,5240005002038,登記記録の閉鎖等,0,2025-01-08,2025-01-07,広島市井口商店街振興組合,,その他の設立登記法人,広島県,広島市西区,井口鈴が台３丁目１７番８号３０１,,34,104,7330843,,,2025-01-07,清算の結了等,,,2015-10-05,1,,,,,ヒロシマシイノクチ,0
1340,5250001002412,登記記録の閉鎖等,0,2025-01-08,2025-01-06,株式会社防府アルミ鋳造整理会社,,株式会社,山口県,防府市,大字浜方５３４番地２０,,35,206,7470833,,,2025-01-06,清算の結了等,,,2015-10-05,1,,,,,ホウフアルミチュウゾウセイリガイシャ,0
1343,5250002006032,登記記録の閉鎖等,0,2025-01-08,2025-01-06,有限会社大久保工業,,有限会社,山口県,山陽小野田市,中川１丁目７番９号,,35,216,7560806,,,2025-01-06,清算の結了等,,,2015-10-05,1,,,,,,0
1345,5260002001701,登記記録の閉鎖等,0,2025-01-08,2025-01-07,有限会社岡山水研,,有限会社,岡山県,岡山市北区,川入７９６番地の２７,,33,101,7010161,,,2025-01-07,清算の結了等,,,2015-10-05,1,,,,,オカヤマスイケン,0
1348,5270002000438,登記記録の閉鎖等,0,2025-01-08,2025-01-06,影日燃料有限会社,,有限会社,鳥取県,鳥取市,今町１丁目１４２番地,,31,201,6800822,,,2025-01-06,清算の結了等,,,2015-10-05,1,,,,,カゲヒネンリョウ,0
1366,5310005004456,登記記録の閉鎖等,0,2025-01-08,2025-01-06,医療法人さわだ耳鼻咽喉科医院,,その他の設立登記法人,長崎県,諫早市,小船越町８３９番地４０,,42,204,8540062,,,2025-01-06,清算の結了等,,,2015-10-05,1,,,,,サワダジビインコウカイイン,0
1376,5350002013877,登記記録の閉鎖等,0,2025-01-08,2024-12-26,大野木材有限会社,,有限会社,宮崎県,都城市,年見町２９街区７号３,,45,202,8850017,,,2024-12-26,清算の結了等,,,2015-10-05,1,,,,,オオノモクザイ,0
1379,5370005003064,登記記録の閉鎖等,0,2025-01-08,2024-12-25,特定非営利活動法人ハートアンドホープ,,その他の設立登記法人,宮城県,柴田郡村田町,大字菅生字舟ケ沢３番地３,,04,322,9891301,,,2024-12-25,清算の結了等,,,2015-10-05,1,,,,,ハートアンドホープ,0
1383,5380001021011,登記記録の閉鎖等,0,2025-01-08,2024-12-11,グッドライフジャパン株式会社,,株式会社,福島県,郡山市,御前南１丁目４番地,,07,203,9630209,,,2024-12-11,清算の結了等,,,2015-10-05,1,,,,,グッドライフジャパン,0
1395,5430002038214,登記記録の閉鎖等,0,2025-01-08,2025-01-06,有限会社プリントワークス,,有限会社,北海道,札幌市西区,山の手四条９丁目３番１３号ウェリスＤ’スクエア山の手３号,,01,107,0630004,,,2025-01-06,清算の結了等,,,2015-10-05,1,,,,,プリントワークス,0
1398,5460102000434,登記記録の閉鎖等,0,2025-01-08,2024-12-26,有限会社エムエスケー,,有限会社,北海道,帯広市,西十九条南２丁目３１番３－１０号,,01,207,0802469,,,2024-12-26,清算の結了等,,,2015-10-05,1,,,,,エムエスケー,0
1405,6010001057306,登記記録の閉鎖等,0,2025-01-08,2024-12-19,株式会社丸中運動具店,,株式会社,東京都,中央区,日本橋大伝馬町１５番３号,,13,102,1030011,,,2024-12-19,清算の結了等,,,2015-10-05,1,,,,,マルナカウンドウグテン,0
1426,6010501044984,登記記録の閉鎖等,0,2025-01-08,2024-12-20,はしご株式会社,,株式会社,東京都,台東区,浅草２丁目７番１３号,,13,106,1110032,,,2024-12-20,清算の結了等,,,2019-12-09,1,,,,,ハシゴ,0
1428,6010502017130,登記記録の閉鎖等,0,2025-01-08,2024-12-24,有限会社ピカトエ,,有限会社,東京都,台東区,台東３丁目７番８号,,13,106,1100016,,,2024-12-24,清算の結了等,,,2015-10-05,1,,,,,ピカトエ,0
1431,6010601059610,登記記録の閉鎖等,0,2025-01-08,2024-12-26,日本スケディオ株式会社,,株式会社,東京都,江東区,高橋５番１－９０５号,,13,108,1350005,,,2024-12-26,清算の結了等,,,2021-07-07,1,,,,,ニホンスケディオ,0
1437,6010802007558,登記記録の閉鎖等,0,2025-01-08,2024-12-25,有限会社スカッド,,有限会社,東京都,大田区,大森南４丁目８番１３号,,13,111,1430013,,,2024-12-25,清算の結了等,,,2015-10-05,1,,,,,,0
1441,6011001150653,登記記録の閉鎖等,0,2025-01-08,2024-12-04,カソーク株式会社,,株式会社,東京都,渋谷区,渋谷１丁目２番５号,,13,113,1500002,,,2024-12-04,合併による解散等,6011001146255,令和６年１２月１日東京都渋谷区渋谷一丁目２番５号ユナイテッド・リクルートメント株式会社（6011001146255）に合併し解散,2022-11-02,1,,,,,カソーク,0
1459,6011802010394,登記記録の閉鎖等,0,2025-01-08,2024-12-25,有限会社エステック・クリエイト,,有限会社,東京都,足立区,千住柳町２４番１号,,13,121,1200032,,,2024-12-25,清算の結了等,,,2015-10-05,1,,,,,エステッククリエイト,0
1467,6012702005096,登記記録の閉鎖等,0,2025-01-08,2024-12-16,有限会社脇坂パン粉店,,有限会社,東京都,西東京市,柳沢１丁目１０番１０号,,13,229,2020022,,,2024-12-16,清算の結了等,,,2015-10-05,1,,,,,ワキサカパンコテン,0
1489,6030001000577,登記記録の閉鎖等,0,2025-01-08,2024-12-18,株式会社イー・ティー・エム,,株式会社,埼玉県,さいたま市南区,白幡３丁目９番１２号１０１２,,11,108,3360022,,,2024-12-18,清算の結了等,,,2015-10-05,1,,,,,イーティーエム,0
1506,6040002002464,登記記録の閉鎖等,0,2025-01-08,2024-12-25,小川自動車商工有限会社,,有限会社,千葉県,千葉市中央区,中央１丁目１番１号,,12,101,2600013,,,2024-12-25,清算の結了等,,,2015-10-05,1,,,,,オガワジドウシャショウコウ,0
1508,6040002082614,登記記録の閉鎖等,0,2025-01-08,2024-12-25,有限会社田辺シール工業,,有限会社,千葉県,長生郡睦沢町,上市場３２０番地の６１,,12,422,2994403,,,2024-12-25,清算の結了等,,,2015-10-05,1,,,,,タナベシールコウギョウ,0
1532,6110001015328,登記記録の閉鎖等,0,2025-01-08,2024-12-27,株式会社マルユー,,株式会社,新潟県,加茂市,幸町１丁目２番２２号,,15,209,9591313,,,2024-12-27,清算の結了等,,,2015-10-05,1,,,,,マルユー,0
1536,6120001111885,登記記録の閉鎖等,0,2025-01-08,2025-01-06,大日本電装株式会社,,株式会社,奈良県,奈良市,中登美ヶ丘２丁目１９８４番地１１６,,29,201,6310003,,,2025-01-06,清算の結了等,,,2015-10-05,1,,,,,ダイニッポンデンソウ,0
1540,6120001192942,登記記録の閉鎖等,0,2025-01-08,2024-12-26,株式会社街くる,,株式会社,兵庫県,西宮市,甲子園浦風町１３番１６号,,28,204,6638165,,,2024-12-26,清算の結了等,,,2015-10-05,1,,,,,マチクル,0
1558,6120002010178,登記記録の閉鎖等,0,2025-01-08,2025-01-06,有限会社ふな定山本,,有限会社,大阪府,大阪市生野区,林寺１丁目４番５号,,27,116,5440023,,,2025-01-06,清算の結了等,,,2015-10-05,1,,,,,フナサダヤマモト,0
1560,6120002057376,登記記録の閉鎖等,0,2025-01-08,2024-12-26,有限会社信愛,,有限会社,大阪府,大阪市生野区,鶴橋５丁目２１番２０－８０３号,,27,116,5440031,,,2024-12-26,清算の結了等,,,2015-10-05,1,,,,,シンアイ,0
1564,6120005018920,登記記録の閉鎖等,0,2025-01-08,2025-01-06,ＮＰＯ法人青空会議,,その他の設立登記法人,大阪府,大阪市阿倍野区,昭和町５丁目１１番３号,,27,119,5450011,,,2025-01-06,清算の結了等,,,2016-09-07,1,,,,,アオゾラカイギ,0
1566,6120101063548,登記記録の閉鎖等,0,2025-01-08,2024-12-27,株式会社ジャパンエコテック,,株式会社,大阪府,富田林市,中野町１丁目１４７２番１号,,27,214,5840021,,,2024-12-27,合併による解散等,2120001161678,令和６年１２月２７日大阪府富田林市中野町一丁目１４７２－１株式会社Ｐｉｅｚｅ　Ｏｎｅ（2120001161678）に合併し解散,2021-04-30,1,,,,,ジャパンエコテック,0
1590,6160001009721,登記記録の閉鎖等,0,2025-01-08,2025-01-06,株式会社あぷろす,,株式会社,滋賀県,東近江市,市子松井町８４番地,,25,213,5291532,,,2025-01-06,清算の結了等,,,2015-10-05,1,,,,,アプロス,0
1595,6180001036391,登記記録の閉鎖等,0,2025-01-08,2025-01-06,株式会社中京銀行,,株式会社,愛知県,名古屋市中区,栄３丁目３３番１３号,,23,106,4600008,,,2025-01-06,合併による解散等,8180001036373,令和７年１月１日名古屋市中区栄三丁目１４番１２号株式会社あいち銀行（8180001036373）に合併し解散,2015-10-05,1,,,,,,0
1614,6200001000808,登記記録の閉鎖等,0,2025-01-08,2025-01-06,株式会社大洞堂,,株式会社,岐阜県,岐阜市,高森町４丁目４番地,,21,201,5008171,,,2025-01-06,清算の結了等,,,2015-10-05,1,,,,,オオホラドウ,0
1628,6230003001669,登記記録の閉鎖等,0,2025-01-08,2024-12-26,合同会社珠理,,合同会社,富山県,高岡市,戸出町７丁目３番地４８,,16,202,9391104,,,2024-12-26,清算の結了等,,,2021-05-28,1,,,,,シュリ,0
1641,6250001009051,登記記録の閉鎖等,0,2025-01-08,2024-12-27,株式会社テクノ・アイ,,株式会社,山口県,周南市,野村３丁目１３番２３号,,35,215,7460022,,,2024-12-27,清算の結了等,,,2015-10-05,1,,,,,テクノアイ,0
1652,6290001011524,登記記録の閉鎖等,0,2025-01-08,2024-12-26,石田ビル株式会社,,株式会社,愛知県,名古屋市中区,丸の内１丁目１５番１８号,,23,106,4600002,,,2024-12-26,清算の結了等,,,2015-10-05,1,,,,,イシダビル,0
1654,6290001096053,登記記録の閉鎖等,0,2025-01-08,2024-12-16,フィンクラウド株式会社,,株式会社,福岡県,大野城市,下大利１丁目７－１１,,40,219,8160952,,,2024-12-16,清算の結了等,,,2022-01-13,1,,,,,フィンクラウド,0
1663,6300001006695,登記記録の閉鎖等,0,2025-01-08,2025-01-06,エィ・ティ・中九州株式会社,,株式会社,佐賀県,三養基郡みやき町,大字東尾１８８３番地,,41,346,8490113,,,2025-01-06,清算の結了等,,,2015-10-05,1,,,,,エイティナカキュウシュウ,0
1666,6320001011751,登記記録の閉鎖等,0,2025-01-08,2025-01-06,アルゴアシスト株式会社,,株式会社,大分県,大分市,牧上町１２番１３号,,44,201,8700925,,,2025-01-06,清算の結了等,,,2015-10-05,1,,,,,,0
1690,6370202004871,登記記録の閉鎖等,0,2025-01-08,2024-12-25,有限会社二階堂製作所,,有限会社,宮城県,栗原市,金成大原木平地１２５番地の２,,04,213,9895185,,,2024-12-25,清算の結了等,,,2015-10-05,1,,,,,ニカイドウセイサクショ,0
1694,6430001042884,登記記録の閉鎖等,0,2025-01-08,2024-12-27,株式会社ＳＪプランニング,,株式会社,北海道,江別市,萌えぎ野西２９番地の１５,,01,217,0670059,,,2024-12-27,清算の結了等,,,2015-10-05,1,,,,,エスジェイプランニング,0
1696,6430002032819,登記記録の閉鎖等,0,2025-01-08,2025-01-06,有限会社フジワ,,有限会社,北海道,札幌市中央区,北十一条西１７丁目３６番地１２０,,01,101,0600011,,,2025-01-06,合併による解散等,6430001012292,令和７年１月１日札幌市中央区北十一条西十七丁目３６番地１２０七欧産業株式会社（6430001012292）に合併し解散,2015-10-05,1,,,,,フジワ,0
1718,7010005024953,登記記録の閉鎖等,0,2025-01-08,2024-12-27,一般社団法人遊佐・高萩,,その他の設立登記法人,東京都,千代田区,一番町９番地８ノザワビルディング６階税理士法人シリウス内,,13,101,1020082,,,2024-12-27,清算の結了等,,,2016-02-12,1,,,,,ユサタカハギ,0
1719,7010005030803,登記記録の閉鎖等,0,2025-01-08,2025-01-06,一般社団法人ＰＬＡＵＳＵＳ,,その他の設立登記法人,東京都,文京区,本駒込１丁目２番５－１２０１号,,13,105,1130021,,,2025-01-06,清算の結了等,,,2019-09-26,1,,,,,プラウサス,0
1742,7010801001189,登記記録の閉鎖等,0,2025-01-08,2024-12-25,株式会社ウエーブ,,株式会社,東京都,大田区,大森北１丁目１１番１０－７０２号,,13,111,1430016,,,2024-12-25,清算の結了等,,,2015-10-05,1,,,,,,0
1758,7011105010455,登記記録の閉鎖等,0,2025-01-08,2024-12-23,一般財団法人国家戦略研究会,,その他の設立登記法人,東京都,新宿区,西新宿１丁目２５番１号新宿センタービル３７階,,13,104,1600023,,,2024-12-23,清算の結了等,,,2022-10-28,1,,,,,コッカセンリャクケンキュウカイ,0
1761,7011301003741,登記記録の閉鎖等,0,2025-01-08,2024-12-27,株式会社西武測量社,,株式会社,東京都,杉並区,下井草５丁目２２番１２号,,13,115,1670022,,,2024-12-27,清算の結了等,,,2015-10-05,1,,,,,セイブソクリョウシャ,0
1778,7012702000162,登記記録の閉鎖等,0,2025-01-08,2024-12-18,有限会社アベイユ,,有限会社,東京都,小平市,花小金井１丁目１３番１０号,,13,211,1870002,,,2024-12-18,清算の結了等,,,2015-10-05,1,,,,,アベイユ,0
1789,7020002050687,登記記録の閉鎖等,0,2025-01-08,2024-12-27,有限会社山本商店,,有限会社,神奈川県,横浜市保土ケ谷区,仏向町１４２２番地３５,,14,106,2400044,,,2024-12-27,清算の結了等,,,2015-10-05,1,,,,,ヤマモトショウテン,0
1799,7030002072697,登記記録の閉鎖等,0,2025-01-08,2024-12-27,有限会社小高堂,00017073,有限会社,埼玉県,川越市,連雀町１５番地５,,11,201,3500066,,,2024-12-27,清算の結了等,,,2015-10-05,1,,,,,オダカドウ,0
1802,7040001007744,登記記録の閉鎖等,0,2025-01-08,2024-12-25,株式会社友和コンサルタント,,株式会社,千葉県,千葉市中央区,祐光２丁目１２番１号,,12,101,2600007,,,2024-12-25,清算の結了等,,,2015-10-05,1,,,,,ユウワコンサルタント,0
1818,7080401014519,登記記録の閉鎖等,0,2025-01-08,2024-12-25,株式会社森の都ならここ,,株式会社,静岡県,掛川市,居尻１７９番地,,22,213,4360332,,,2024-12-25,清算の結了等,,,2015-10-05,1,,,,,モリノミヤコナラココ,0
1843,7120101002513,登記記録の閉鎖等,0,2025-01-08,2025-01-06,堺岩崎歯科器材株式会社,,株式会社,大阪府,堺市堺区,甲斐町西１丁１番３５号サンビル堺４階,,27,141,5900950,,,2025-01-06,合併による解散等,1120901022872,令和６年１２月２１日大阪府豊中市曽根東町五丁目１６番１４号岩崎歯科器材株式会社（1120901022872）に合併し解散,2015-10-05,1,,,,,サカイイワサキシカキザイ,0
1863,7150002003450,登記記録の閉鎖等,0,2025-01-08,2025-01-07,理平商事有限会社,,有限会社,奈良県,奈良市,北永井町４５０番地,,29,201,6308442,,,2025-01-07,清算の結了等,,,2015-10-05,1,,,,,リヘイショウジ,0
1865,7180001011518,登記記録の閉鎖等,0,2025-01-08,2024-12-25,株式会社雨宮ホームサービス,,株式会社,愛知県,名古屋市北区,城東町７丁目１６１番地の２,,23,103,4620831,,,2024-12-25,清算の結了等,,,2015-10-05,1,,,,,アメミヤホームサービス,0
1869,7180001138006,登記記録の閉鎖等,0,2025-01-08,2024-12-24,株式会社嶋建,,株式会社,愛知県,瀬戸市,北松山町１丁目１４５番地の３,,23,204,4890911,,,2024-12-24,清算の結了等,,,2019-09-06,1,,,,,シマケン,0
1875,7180003020913,登記記録の閉鎖等,0,2025-01-08,2024-12-23,Ａｃｅ　Ｌｉｖｅ合同会社,,合同会社,愛知県,一宮市,萩原町朝宮字栄１番地,,23,203,4910354,,,2024-12-23,清算の結了等,,,2020-03-05,1,,,,,エースライブ,0
1896,7230002002741,登記記録の閉鎖等,0,2025-01-08,2025-01-06,有限会社萩原商事,,有限会社,富山県,富山市,星井町１丁目６番４号,,16,201,9300065,,,2025-01-06,清算の結了等,,,2015-10-05,1,,,,,ハギワラショウジ,0
1898,7240001030024,登記記録の閉鎖等,0,2025-01-08,2024-12-27,株式会社オオサコ,,株式会社,広島県,福山市,赤坂町大字赤坂２９８番地の２,,34,207,7200843,,,2024-12-27,清算の結了等,,,2015-10-05,1,,,,,,0
1901,7240002036177,登記記録の閉鎖等,0,2025-01-08,2025-01-06,有限会社新栄,,有限会社,広島県,呉市,焼山南１丁目１番３２号,,34,202,7370924,,,2025-01-06,清算の結了等,,,2015-10-05,1,,,,,シンエイ,0
1906,7250003001716,登記記録の閉鎖等,0,2025-01-08,2025-01-06,合同会社内藤工業,,合同会社,山口県,山陽小野田市,大字東高泊１２７５番地１,,35,216,7560088,,,2025-01-06,清算の結了等,,,2015-10-05,1,,,,,,0
1912,7290001068539,登記記録の閉鎖等,0,2025-01-08,2024-12-16,株式会社ティーエフエス,,株式会社,福岡県,大野城市,瓦田４丁目１１番１号,,40,219,8160932,,,2024-12-16,清算の結了等,,,2015-10-05,1,,,,,ティーエフエス,0
1917,7290001095665,登記記録の閉鎖等,0,2025-01-08,2024-12-16,株式会社ＭＩＳＡＫＩ,,株式会社,福岡県,福岡市博多区,堅粕４丁目２２－１８－１０２,,40,132,8120043,,,2024-12-16,清算の結了等,,,2021-12-09,1,,,,,ミサキ,0
1944,7350001017019,登記記録の閉鎖等,0,2025-01-08,2024-12-27,株式会社みさと産地型商社,,株式会社,宮崎県,東臼杵郡美郷町,西郷田代字大久保原６２０番２,,45,431,8831101,,,2024-12-27,清算の結了等,,,2021-04-16,1,,,,,ミサトサンチガタショウシャ,0
1950,7370502000850,登記記録の閉鎖等,0,2025-01-08,2024-12-25,有限会社桝一商店,,有限会社,宮城県,気仙沼市,弁天町２丁目３９番地１,,04,205,9880036,,,2024-12-25,清算の結了等,,,2015-10-05,1,,,,,,0
1964,7470001006703,登記記録の閉鎖等,0,2025-01-08,2024-12-27,大悟商事株式会社,,株式会社,香川県,高松市,屋島西町２１０９番地２６,,37,201,7610113,,,2024-12-27,清算の結了等,,,2015-10-05,1,,,,,ダイゴショウジ,0
1965,7470001012651,登記記録の閉鎖等,0,2025-01-08,2025-01-06,株式会社アースフルコーディネーション,,株式会社,香川県,丸亀市,土器町西４丁目３６４番地マルダイビル２階,,37,202,7630081,,,2025-01-06,合併による解散等,1470002013919,令和７年１月１日香川県丸亀市土器町西四丁目３６４番地マルダイビル２階株式会社ケア・ステーション（1470002013919）に合併し解散,2015-10-05,1,,,,,アースフルコーディネーション,0
1982,8010001239926,登記記録の閉鎖等,0,2025-01-08,2024-12-27,株式会社Ｊ‐ＦＵＮ１２,,株式会社,東京都,千代田区,丸の内１丁目８番２号,,13,101,1000005,,,2024-12-27,合併による解散等,7011301006059,令和６年１２月７日東京都杉並区宮前四丁目２９番３号株式会社ファーネス（7011301006059）に合併し解散,2023-11-10,1,,,,,ジェイファントゥエルブ,0
2006,8010803002127,登記記録の閉鎖等,0,2025-01-08,2025-01-06,大田合同会社,,合同会社,北海道,札幌市東区,北八条東１１丁目１番５号,,01,103,0650008,,,2025-01-06,合併による解散等,9430001057392,令和６年１２月３１日北海道登別市上登別町９番地１登別リゾート開発株式会社（9430001057392）に合併し解散,2016-06-16,1,,,,,オオタ,0
2030,8011105002939,登記記録の閉鎖等,0,2025-01-08,2024-12-05,特定非営利活動法人障害者福祉事業協会,,その他の設立登記法人,東京都,目黒区,目黒本町１丁目１３番９号－００７,,13,110,1520002,,,2024-12-05,清算の結了等,,,2015-10-05,1,,,,,ショウガイシャフクシジギョウキョウカイ,0
2043,8011801007745,登記記録の閉鎖等,0,2025-01-08,2024-12-24,株式会社寿印刷,,株式会社,東京都,豊島区,西巣鴨１丁目５番６号,,13,116,1700001,,,2024-12-24,合併による解散等,1013301019582,令和６年１２月２４日東京都豊島区西巣鴨一丁目５番６号株式会社データプリント（1013301019582）に合併し解散,2015-10-05,1,,,,,コトブキインサツ,0
2059,8013105001400,登記記録の閉鎖等,0,2025-01-08,2024-12-27,一般社団法人さくら会,,その他の設立登記法人,東京都,西多摩郡日の出町,大字平井２９８２－２,,13,305,1900182,,,2024-12-27,清算の結了等,,,2015-10-05,1,,,,,サクラカイ,0
2064,8020002064199,登記記録の閉鎖等,0,2025-01-08,2024-12-24,有限会社メル,,有限会社,神奈川県,横浜市港北区,日吉本町５丁目１４番８号,,14,109,2230062,,,2024-12-24,清算の結了等,,,2015-10-05,1,,,,,メル,0
2073,8030001134522,登記記録の閉鎖等,0,2025-01-08,2024-12-25,Ｒｅｄ　Ｍａｒｉｎｅ株式会社,,株式会社,埼玉県,さいたま市見沼区,東大宮１丁目９１番地３シャトー東大宮１０２号,,11,104,3370051,,,2024-12-25,清算の結了等,,,2019-12-27,1,,,,,レッドマリン,0
2114,8100002012934,登記記録の閉鎖等,0,2025-01-08,2024-12-24,有限会社あさま不動産鑑定,,有限会社,長野県,北佐久郡軽井沢町,軽井沢東１８１番地,,20,321,3890104,,,2024-12-24,清算の結了等,,,2015-10-05,1,,,,,アサマフドウサンカンテイ,0
2117,8110001037667,登記記録の閉鎖等,0,2025-01-08,2024-12-26,株式会社蓑輪工業,,株式会社,新潟県,上越市,佐内町１０番１号,,15,222,9420031,,,2024-12-26,清算の結了等,,,2023-07-05,1,,,,,ミノワコウギョウ,0
2119,8120001126980,登記記録の閉鎖等,0,2025-01-08,2024-12-26,株式会社Ｆ‐ｄｏプランニング,,株式会社,兵庫県,西宮市,甲子園浦風町１３番１６号,,28,204,6638165,,,2024-12-26,清算の結了等,,,2015-10-05,1,,,,,フドープランニング,0
2133,8120001257074,登記記録の閉鎖等,0,2025-01-08,2024-12-25,華晨貿易株式会社,,株式会社,大阪府,大阪市港区,南市岡３丁目１０－２グリシーヌ弁天町７０５号室,,27,107,5520011,,,2024-12-25,清算の結了等,,,2023-08-08,1,,,,,カシンボウエキ,0
2142,8120002048076,登記記録の閉鎖等,0,2025-01-08,2024-12-25,有限会社エヌディナッツ,,有限会社,大阪府,大阪市此花区,西九条２丁目７番１８号ウエストプラザ４０５号,,27,104,5540012,,,2024-12-25,合併による解散等,3120001035773,令和６年１２月２５日大阪市福島区吉野三丁目１２番２５号三興ビル５階株式会社ティアンドエヌ（3120001035773）に合併し解散,2015-10-05,1,,,,,エヌディナッツ,0
2154,8130001014359,登記記録の閉鎖等,0,2025-01-08,2025-01-06,株式会社ケイティーエム,,株式会社,京都府,京都市伏見区,深草西浦町１丁目１５番地６,,26,109,6120029,,,2025-01-06,清算の結了等,,,2015-10-05,1,,,,,,0
2197,8210002000812,登記記録の閉鎖等,0,2025-01-08,2024-12-25,有限会社カワハラ,,有限会社,福井県,福井市,西木田３丁目２番１号,,18,201,9188004,,,2024-12-25,清算の結了等,,,2015-10-05,1,,,,,カワハラ,0
2198,8230002012599,登記記録の閉鎖等,0,2025-01-08,2024-12-27,有限会社三進産業,,有限会社,富山県,射水市,久々湊６２番地の２,,16,211,9340039,,,2024-12-27,清算の結了等,,,2015-10-05,1,,,,,サンシンサンギョウ,0
2202,8240002011220,登記記録の閉鎖等,0,2025-01-08,2025-01-06,有限会社トータル・テクニカル・サービス,,有限会社,広島県,広島市東区,牛田本町２丁目４番１６号,,34,102,7320066,,,2025-01-06,清算の結了等,,,2015-10-05,1,,,,,トータルテクニカルサービス,0
2209,8260001019592,登記記録の閉鎖等,0,2025-01-08,2024-12-26,株式会社岡山総合警備,,株式会社,岡山県,津山市,押入５８２番地１,,33,203,7081126,,,2024-12-26,清算の結了等,,,2015-10-05,1,,,,,オカヤマソウゴウケイビ,0
2214,8290001053589,登記記録の閉鎖等,0,2025-01-08,2024-12-25,北野株式会社,,株式会社,宮崎県,宮崎市,源藤町原田３４９－１,,45,201,8800927,,,2024-12-25,清算の結了等,,,2015-10-05,1,,,,,キタノ,0
2257,8420002018065,登記記録の閉鎖等,0,2025-01-08,2025-01-06,有限会社デーリー東北百石下田専売所,,有限会社,青森県,上北郡おいらせ町,下明堂２１番地２,,02,412,0392224,,,2025-01-06,清算の結了等,,,2015-10-05,1,,,,,デーリートウホクモモイシシモダセンバイショ,0
2258,8430001059555,登記記録の閉鎖等,0,2025-01-08,2025-01-06,株式会社フェリーチェ,,株式会社,北海道,札幌市中央区,北一条西３丁目３番地３３,,01,101,0600001,,,2025-01-06,清算の結了等,,,2015-10-05,1,,,,,フェリーチェ,0
2259,8430001059605,登記記録の閉鎖等,0,2025-01-08,2025-01-06,株式会社フェス,,株式会社,北海道,札幌市中央区,北一条西３丁目３番地３３,,01,101,0600001,,,2025-01-06,清算の結了等,,,2015-10-05,1,,,,,フェス,0
2265,8470001005902,登記記録の閉鎖等,0,2025-01-08,2024-12-27,浦川建材株式会社,,株式会社,香川県,高松市,屋島西町２１０９番地２６,,37,201,7610113,,,2024-12-27,清算の結了等,,,2015-10-05,1,,,,,ウラカワケンザイ,0
2266,8470001018565,登記記録の閉鎖等,0,2025-01-08,2025-01-06,株式会社学援隊,,株式会社,香川県,高松市,太田上町２０６番地１０,,37,201,7618074,,,2025-01-06,清算の結了等,,,2021-06-15,1,,,,,ガクエンタイ,0
2269,8490002011121,登記記録の閉鎖等,0,2025-01-08,2024-12-26,有限会社セレソン警備,,有限会社,高知県,須崎市,泉町６番７号,,39,206,7850017,,,2024-12-26,清算の結了等,,,2015-10-05,1,,,,,セレソンケイビ,0
2280,9010001143235,登記記録の閉鎖等,0,2025-01-08,2024-12-19,株式会社ｅｆｆｅｃｔｉｌｉｖｅ,,株式会社,東京都,中央区,日本橋小網町８番２号ＢＩＺＭＡＲＫＳ日本橋茅場町１階,,13,102,1030016,,,2024-12-19,清算の結了等,,,2015-10-05,1,,,,,エフェクティライブ,0
2284,9010001235692,登記記録の閉鎖等,0,2025-01-08,2024-12-19,株式会社ＫＩＹＯＭＩＺＵ　ＤＩＶＥ,,株式会社,東京都,千代田区,外神田５丁目１－２末広ビル４Ｆ,,13,101,1010021,,,2024-12-19,清算の結了等,,,2023-06-07,1,,,,,キヨミズダイブ,0
2303,9010405009395,登記記録の閉鎖等,0,2025-01-08,2024-12-12,特定非営利活動法人ハッピーステップス,,その他の設立登記法人,東京都,港区,西新橋１丁目２２－４ＳｐａｃｅＲ,,13,103,1050003,,,2024-12-12,清算の結了等,,,2015-10-05,1,,,,,ハッピーステップス,0
2310,9010901034962,登記記録の閉鎖等,0,2025-01-08,2024-12-26,株式会社桜想,,株式会社,東京都,世田谷区,北沢３丁目２２番３号,,13,112,1550031,,,2024-12-26,清算の結了等,,,2015-10-05,1,,,,,サクラソウ,0
2322,9011001144454,登記記録の閉鎖等,0,2025-01-08,2024-12-06,株式会社ＯＮＥ　ＭＥＤ,,株式会社,東京都,渋谷区,恵比寿西２丁目８番１１号グランベル恵比寿ＩＶ７階,00129288,13,113,1500021,,,2024-12-06,清算の結了等,,,2021-12-09,1,,,,,ワンメド,0
2342,9011802022783,登記記録の閉鎖等,0,2025-01-08,2024-12-25,有限会社中川フーズ,,有限会社,東京都,葛飾区,南水元２丁目２７番３号,,13,122,1250035,,,2024-12-25,清算の結了等,,,2015-10-05,1,,,,,ナカガワフーズ,0
2349,9012802005472,登記記録の閉鎖等,0,2025-01-08,2024-12-25,有限会社尾崎塗装,,有限会社,東京都,東大和市,高木３丁目２７９番地の１,,13,220,2070005,,,2024-12-25,清算の結了等,,,2015-10-05,1,,,,,オザキトソウ,0
2350,9013101003985,登記記録の閉鎖等,0,2025-01-08,2025-01-06,株式会社古澤,,株式会社,東京都,青梅市,西分町２丁目４９番地,,13,205,1980044,,,2025-01-06,清算の結了等,,,2015-10-05,1,,,,,フルサワ,0
2354,9020001073844,登記記録の閉鎖等,0,2025-01-08,2024-12-24,株式会社とんキユウ,,株式会社,神奈川県,川崎市川崎区,渡田１丁目１３番４号メイフェア２Ｆ,,14,131,2100837,,,2024-12-24,清算の結了等,,,2015-10-05,1,,,,,トンキユウ,0
2360,9020003011430,登記記録の閉鎖等,0,2025-01-08,2025-01-06,横浜合同会社,,合同会社,北海道,札幌市東区,北八条東１１丁目１番５号,,01,103,0650008,,,2025-01-06,合併による解散等,9430001057392,令和６年１２月３１日北海道登別市上登別町９番地１登別リゾート開発株式会社（9430001057392）に合併し解散,2016-06-15,1,,,,,ヨコハマ,0
2385,9040002065533,登記記録の閉鎖等,0,2025-01-08,2024-12-23,有限会社ミラージュ,,有限会社,千葉県,八街市,文違３０１番地３２８１ゆうとぴあ１－２０２,,12,230,2891104,,,2024-12-23,清算の結了等,,,2015-10-05,1,,,,,ミラージュ,0
2395,9060002022953,登記記録の閉鎖等,0,2025-01-08,2024-12-25,有限会社エス・ティ・ティ那須高原リゾート,,有限会社,栃木県,那須郡那須町,大字高久乙１８６１番地６,,09,407,3250303,,,2024-12-25,清算の結了等,,,2015-10-05,1,,,,,エスティティナスコウゲンリゾート,0
2409,9080403003757,登記記録の閉鎖等,0,2025-01-08,2024-12-25,合同会社池山,,合同会社,静岡県,磐田市,大原１１６４番地,,22,211,4371211,,,2024-12-25,清算の結了等,,,2018-11-28,1,,,,,イケヤマ,0
2418,9110002004500,登記記録の閉鎖等,0,2025-01-08,2024-12-25,有限会社エスオーケー,,有限会社,新潟県,新潟市東区,秋葉通２丁目２１番地３,,15,102,9500052,,,2024-12-25,清算の結了等,,,2015-10-05,1,,,,,エスオーケー,0
2425,9120001223406,登記記録の閉鎖等,0,2025-01-08,2025-01-06,白雲貿易株式会社,,株式会社,大阪府,大阪市中央区,道頓堀１丁目東６－３二ツ井戸サンハイツ１階,,27,128,5420071,,,2025-01-06,清算の結了等,,,2019-09-03,1,,,,,シラクモボウエキ,0
2493,9190001029301,登記記録の閉鎖等,0,2025-01-08,2024-12-19,伊勢志摩企画株式会社,,株式会社,三重県,志摩市,阿児町鵜方２１６４,,24,215,5170501,,,2024-12-19,清算の結了等,,,2022-04-11,1,,,,,イセシマキカク,0
2499,9220001004218,登記記録の閉鎖等,0,2025-01-08,2025-01-06,田村金物株式会社,,株式会社,石川県,野々市市,御経塚３丁目６９番地２,,17,212,9218801,,,2025-01-06,清算の結了等,,,2015-10-05,1,,,,,,0
2503,9240001010321,登記記録の閉鎖等,0,2025-01-08,2025-01-06,Ｈ＆Ｂパートナーズ株式会社,,株式会社,広島県,広島市西区,井口５丁目３１番４号,,34,104,7330842,,,2025-01-06,合併による解散等,4240001008832,令和７年１月６日広島市西区井口五丁目３１番４号株式会社白菱（4240001008832）に合併し解散,2015-10-05,1,,,,,エイチアンドビーパートナーズ,0
2519,9290001080335,登記記録の閉鎖等,0,2025-01-08,2024-12-16,株式会社ＡＬＩＶＥ,,株式会社,福岡県,糟屋郡宇美町,障子岳南２丁目２３番２号,,40,341,8112126,,,2024-12-16,清算の結了等,,,2018-01-26,1,,,,,アライブ,0
2532,9290801022346,登記記録の閉鎖等,0,2025-01-08,2024-12-27,株式会社エステート友愛,,株式会社,福岡県,北九州市小倉北区,赤坂１丁目６番１２号,,40,106,8020032,,,2024-12-27,清算の結了等,,,2016-03-18,1,,,,,エステートユウアイ,0
2537,9300002001569,登記記録の閉鎖等,0,2025-01-08,2025-01-06,有限会社大和ビル,,有限会社,佐賀県,佐賀市,中央本町３番２２号,,41,201,8400825,,,2025-01-06,清算の結了等,,,2015-10-05,1,,,,,ヤマトビル,0
2541,9320005001267,登記記録の閉鎖等,0,2025-01-08,2024-12-26,大分県管工事協同組合,,その他の設立登記法人,大分県,大分市,大州浜１丁目３番５号,,44,201,8700906,,,2024-12-26,清算の結了等,,,2015-10-05,1,,,,,オオイタケンカンコウジ,0
2551,9350005002709,登記記録の閉鎖等,0,2025-01-08,2024-12-25,特定非営利活動法人夢くらぶ,,その他の設立登記法人,宮崎県,東臼杵郡門川町,大字加草１６２９番地,,45,421,8890603,,,2024-12-25,清算の結了等,,,2015-10-05,1,,,,,ユメクラブ,0
2558,9390005008454,登記記録の閉鎖等,0,2025-01-08,2024-12-27,一般社団法人山形県空手拳法連盟,,その他の設立登記法人,山形県,山形市,木の実町９番５２－１１０２号,,06,201,9900044,,,2024-12-27,清算の結了等,,,2015-10-05,1,,,,,ヤマガタケンカラテケンポウレンメイ,0
2560,9402701000650,登記記録の閉鎖等,0,2025-01-08,2024-12-24,株式会社フレッシュクマガイ,,株式会社,岩手県,陸前高田市,気仙町字双六７４番地１０,,03,210,0292204,,,2024-12-24,清算の結了等,,,2015-10-05,1,,,,,フレッシュクマガイ,0
