sequenceNumber,corporateNumber,process,correct,updateDate,changeDate,name,nameImageId,kind,prefectureName,cityName,streetNumber,addressImageId,prefectureCode,cityCode,postCode,addressOutside,addressOutsideImageId,closeDate,closeCause,successorCorporateNumber,changeCause,assignmentDate,latest,enName,enPrefectureName,enCityName,enAddressOutside,furigana,hihyoji
19,1010003026081,登記記録の閉鎖等,0,2023-11-09,2023-11-07,合同会社オフィスハル,,合同会社,東京都,新宿区,下落合４丁目９番２９号１０２,,13,104,1610033,,,2023-11-07,清算の結了等,,,2017-09-15,1,,,,,オフィスハル,0
33,1010401157395,登記記録の閉鎖等,0,2023-11-09,2023-11-01,株式会社ｔａｉｄａ,,株式会社,東京都,北区,志茂２丁目５７－１－３０６,,13,117,1150042,,,2023-11-01,清算の結了等,,,2021-01-04,1,,,,,タイダ,0
45,1010405020789,登記記録の閉鎖等,0,2023-11-09,2023-11-02,一般社団法人Ｎａｚｕｎａ　Ｇｏｓｈｏ　Ｈｏｌｄｉｎｇｓ,,その他の設立登記法人,東京都,港区,虎ノ門５丁目１番４号,,13,103,1050001,,,2023-11-02,清算の結了等,,,2022-03-14,1,,,,,ナズナゴショホールディングス,0
50,1010505003033,登記記録の閉鎖等,0,2023-11-09,2023-11-02,一般社団法人日本インターネット被害救済機構,,その他の設立登記法人,東京都,台東区,浅草５丁目２６番２号,,13,106,1110032,,,2023-11-02,清算の結了等,,,2019-07-23,1,,,,,ニホンインターネットヒガイキュウサイキコウ,0
54,1010701012639,登記記録の閉鎖等,0,2023-11-09,2023-11-01,株式会社サイス,,株式会社,東京都,千代田区,大手町１丁目１番３号,,13,101,1000004,,,2023-11-01,合併による解散等,6010001218568,令和５年１１月１日東京都千代田区大手町一丁目１番３号株式会社ＯＮＯＤＥＲＡ　Ｃｒｅａｔｉｖｅ＆Ｔｅｃｈｎｏｌｏｇｙ（6010001218568）に合併し解散,2015-10-05,1,,,,,サイス,0
77,1011205001368,登記記録の閉鎖等,0,2023-11-09,2023-11-06,特定非営利活動法人自動化推進協会,,その他の設立登記法人,東京都,千代田区,飯田橋２丁目１１番１０号,,13,101,1020072,,,2023-11-06,清算の結了等,,,2015-10-05,1,,,,,ジドウカスイシンキョウカイ,0
82,1011702004427,登記記録の閉鎖等,0,2023-11-09,2023-11-07,有限会社小松湯,,有限会社,東京都,江戸川区,西小松川町２７番１５号,,13,123,1320032,,,2023-11-07,清算の結了等,,,2015-10-05,1,,,,,コマツユ,0
91,1013102000188,登記記録の閉鎖等,0,2023-11-09,2023-11-07,有限会社大浦メディカルサービス,,有限会社,東京都,福生市,大字福生８６７番地,,13,218,1970011,,,2023-11-07,清算の結了等,,,2015-10-05,1,,,,,,0
93,1020001072606,登記記録の閉鎖等,0,2023-11-09,2023-10-30,株式会社共栄ミート,,株式会社,神奈川県,川崎市川崎区,桜本１丁目７番４５号,,14,131,2100833,,,2023-10-30,清算の結了等,,,2015-10-05,1,,,,,,0
95,1020001083958,登記記録の閉鎖等,0,2023-11-09,2023-10-30,株式会社有馬,,株式会社,神奈川県,横浜市都筑区,東山田町３４１番地,,14,118,2240024,,,2023-10-30,清算の結了等,,,2015-10-05,1,,,,,,0
106,1030001058034,登記記録の閉鎖等,0,2023-11-09,2023-10-30,株式会社リノベイト,,株式会社,埼玉県,川越市,大字寺尾８６４番地４,,11,201,3501141,,,2023-10-30,清算の結了等,,,2015-10-05,1,,,,,リノベイト,0
121,1040001015810,登記記録の閉鎖等,0,2023-11-09,2023-11-01,株式会社キャリア・サポート・セミナー,,株式会社,千葉県,千葉市稲毛区,弥生町四丁目３７番,,12,103,2630022,,,2023-11-01,清算の結了等,,,2015-10-05,1,,,,,キャリアサポートセミナー,0
138,1080001020831,登記記録の閉鎖等,0,2023-11-09,2023-11-07,あさぎり高原製菓工房株式会社,,株式会社,静岡県,静岡市清水区,幸町５番１２号,,22,103,4240923,,,2023-11-07,清算の結了等,,,2016-03-28,1,,,,,アサギリコウゲンセイカコウボウ,0
143,1080401001943,登記記録の閉鎖等,0,2023-11-09,2023-11-08,佐宗株式会社,,株式会社,静岡県,浜松市東区,和田町７５２番地の１,,22,132,4350016,,,2023-11-08,清算の結了等,,,2015-10-05,1,,,,,サソウ,0
154,1110001027253,登記記録の閉鎖等,0,2023-11-09,2023-11-07,株式会社ホテルセブン,,株式会社,新潟県,南魚沼市,余川２８１６番地４,,15,226,9496681,,,2023-11-07,清算の結了等,,,2015-10-05,1,,,,,ホテルセブン,0
157,1120001072604,登記記録の閉鎖等,0,2023-11-09,2023-10-27,株式会社大阪東急ホテル,,株式会社,大阪府,大阪市北区,堂山町２番１号,,27,127,5300027,,,2023-10-27,清算の結了等,,,2015-10-05,1,,,,,オオサカトウキュウホテル,0
179,1120101055368,登記記録の閉鎖等,0,2023-11-09,2023-11-08,株式会社ソウセイコーポレーション,,株式会社,大阪府,堺市堺区,香ヶ丘町１丁７番１７－１０１号,,27,141,5900011,,,2023-11-08,清算の結了等,,,2016-09-09,1,,,,,ソウセイコーポレーション,0
182,1120105005534,登記記録の閉鎖等,0,2023-11-09,2023-11-08,特定非営利活動法人二剛会,,その他の設立登記法人,大阪府,南河内郡千早赤阪村,大字千早９５０番地,,27,383,5850051,,,2023-11-08,清算の結了等,,,2015-10-05,1,,,,,ニゴウカイ,0
185,1120902006024,登記記録の閉鎖等,0,2023-11-09,2023-11-01,有限会社熊谷広告,,有限会社,大阪府,高槻市,登町１８番Ｂ１３－１０３号,,27,207,5690046,,,2023-11-01,清算の結了等,,,2015-10-05,1,,,,,クマガイコウコク,0
199,1140001003978,登記記録の閉鎖等,0,2023-11-09,2023-11-07,株式会社冨士田商店,,株式会社,兵庫県,神戸市灘区,浜田町３丁目１番の１８号,,28,102,6570862,,,2023-11-07,清算の結了等,,,2015-10-05,1,,,,,フジタショウテン,0
218,1180003021116,登記記録の閉鎖等,0,2023-11-09,2023-11-02,ＭＫＧ合同会社,,合同会社,愛知県,名古屋市北区,大曽根２丁目８番１号,,23,103,4620825,,,2023-11-02,清算の結了等,,,2020-05-07,1,,,,,エムケージー,0
228,1240001048583,登記記録の閉鎖等,0,2023-11-09,2023-10-26,株式会社財産評価コンサルティング,,株式会社,広島県,広島市中区,八丁堀５番２９号,,34,101,7300013,,,2023-10-26,清算の結了等,,,2015-12-08,1,,,,,ザイサンヒョウカコンサルティング,0
229,1240001057386,登記記録の閉鎖等,0,2023-11-09,2023-11-06,株式会社コトブキ・エンジニアリング・インスティテュート,,株式会社,広島県,広島市東区,二葉の里３丁目５番７号ＧＲＡＮＯＤＥ広島３Ｆ,,34,102,7320057,,,2023-11-06,清算の結了等,,,2021-02-09,1,,,,,コトブキエンジニアリングインスティテュート,0
259,1330003009343,登記記録の閉鎖等,0,2023-11-09,2023-11-02,合同会社ＮＣＳ,,合同会社,熊本県,熊本市北区,梶尾町１７９０－６,,43,105,8615512,,,2023-11-02,清算の結了等,,,2022-04-28,1,,,,,エヌシーエス,0
263,1360001006736,登記記録の閉鎖等,0,2023-11-09,2023-11-07,株式会社友知設計,,株式会社,沖縄県,那覇市,首里石嶺町３丁目１６４番地６,,47,201,9030804,,,2023-11-07,清算の結了等,,,2015-10-05,1,,,,,トモチセッケイ,0
271,1380001020982,登記記録の閉鎖等,0,2023-11-09,2023-11-01,株式会社アシスト,,株式会社,神奈川県,横浜市鶴見区,鶴見中央１丁目１１番１号２Ｆ,,14,101,2300051,,,2023-11-01,合併による解散等,7020001017893,令和５年１１月１日横浜市鶴見区鶴見中央一丁目１１番１号２Ｆ株式会社高野工業（7020001017893）に合併し解散,2015-10-05,1,,,,,アシスト,0
283,1480002010072,登記記録の閉鎖等,0,2023-11-09,2023-11-08,有限会社中本,,有限会社,徳島県,阿波市,土成町水田字金屋２８７番地,,36,206,7711502,,,2023-11-08,清算の結了等,,,2015-10-05,1,,,,,ナカモト,0
307,2010101003411,登記記録の閉鎖等,0,2023-11-09,2023-11-02,株式会社ファド設計,,株式会社,東京都,八王子市,南陽台１丁目２８番１０号,,13,201,1920371,,,2023-11-02,清算の結了等,,,2015-10-05,1,,,,,ファドセッケイ,0
318,2010601051562,登記記録の閉鎖等,0,2023-11-09,2023-11-02,Ｌ＆Ｄアパートメント株式会社,,株式会社,東京都,江東区,住吉２丁目５番１１号,,13,108,1350002,,,2023-11-02,清算の結了等,,,2017-05-10,1,,,,,エルアンドディーアパートメント,0
322,2010901040983,登記記録の閉鎖等,0,2023-11-09,2023-11-01,株式会社トリニティー,,株式会社,東京都,世田谷区,上野毛１丁目３０番２６号,,13,112,1580093,,,2023-11-01,清算の結了等,,,2017-10-20,1,,,,,トリニティー,0
339,2011002007880,登記記録の閉鎖等,0,2023-11-09,2023-11-02,有限会社立田電機製作所,,有限会社,東京都,渋谷区,恵比寿３丁目２０番６号,,13,113,1500013,,,2023-11-02,清算の結了等,,,2015-10-05,1,,,,,タツタデンキセイサクショ,0
344,2011101084887,登記記録の閉鎖等,0,2023-11-09,2023-11-07,株式会社アルデプロ分割準備会社,,株式会社,東京都,新宿区,新宿３丁目１番２４号,,13,104,1600022,,,2023-11-07,清算の結了等,,,2018-07-26,1,,,,,アルデプロブンカツジュンビガイシャ,0
346,2011102024339,登記記録の閉鎖等,0,2023-11-09,2023-11-06,有限会社清川,,有限会社,東京都,新宿区,矢来町１１２番地,,13,104,1620805,,,2023-11-06,清算の結了等,,,2015-10-05,1,,,,,キヨカワ,0
358,2011801012684,登記記録の閉鎖等,0,2023-11-09,2023-11-02,株式会社柳屋,,株式会社,東京都,足立区,鹿浜６丁目２２番１０号,,13,121,1230864,,,2023-11-02,清算の結了等,,,2015-10-05,1,,,,,ヤナギヤ,0
363,2012302002233,登記記録の閉鎖等,0,2023-11-09,2023-11-06,有限会社サンハウジング,,有限会社,東京都,町田市,広袴２丁目１番地１９,,13,209,1950056,,,2023-11-06,清算の結了等,,,2015-10-05,1,,,,,サンハウジング,0
368,2012803002070,登記記録の閉鎖等,0,2023-11-09,2023-11-01,アベンジャーズ合同会社,,合同会社,東京都,国立市,東３丁目９番地の７０,,13,215,1860002,,,2023-11-01,清算の結了等,,,2019-07-25,1,,,,,アベンジャーズ,0
373,2013301048779,登記記録の閉鎖等,0,2023-11-09,2023-11-01,株式会社ティキシー,,株式会社,東京都,豊島区,池袋２丁目３６－１,,13,116,1710014,,,2023-11-01,清算の結了等,,,2022-03-07,1,,,,,ティキシー,0
384,2020001128588,登記記録の閉鎖等,0,2023-11-09,2023-10-26,株式会社ＰＨアウトソーシング,,株式会社,茨城県,常総市,水海道山田町４５５５,,08,211,3030031,,,2023-10-26,清算の結了等,,,2018-11-02,1,,,,,ピーエイチアウトソーシング,0
385,2020001149378,登記記録の閉鎖等,0,2023-11-09,2023-10-30,株式会社東海実業,,株式会社,神奈川県,横浜市旭区,川井本町８０－８－２０１号室,,14,112,2410803,,,2023-10-30,清算の結了等,,,2022-12-13,1,,,,,トウカイジツギョウ,0
395,2021005012316,登記記録の閉鎖等,0,2023-11-09,2023-11-06,一般社団法人和編鐘・豊かな心を育む音の協会,,その他の設立登記法人,神奈川県,相模原市南区,上鶴間６丁目１７番５号,,14,153,2520302,,,2023-11-06,清算の結了等,,,2021-10-06,1,,,,,ワヘンショウユタカナココロヲハグクムオトノキョウカイ,0
434,2050003007052,登記記録の閉鎖等,0,2023-11-09,2023-11-02,Ｌｅｔ’ｓ合同会社,,合同会社,茨城県,ひたちなか市,大字三反田３４６６－１８,,08,221,3120021,,,2023-11-02,清算の結了等,,,2022-11-29,1,,,,,レッツ,0
440,2080002007018,登記記録の閉鎖等,0,2023-11-09,2023-11-07,有限会社ニワ環境設計,,有限会社,静岡県,静岡市葵区,大岩本町１３番１０号,,22,101,4200884,,,2023-11-07,清算の結了等,,,2015-10-05,1,,,,,ニワカンキョウセッケイ,0
445,2090001001490,登記記録の閉鎖等,0,2023-11-09,2023-11-07,東日電子株式会社,,株式会社,山梨県,甲府市,金竹町６－５,,19,201,4000063,,,2023-11-07,清算の結了等,,,2015-10-05,1,,,,,トウニチデンシ,0
446,2100001004541,登記記録の閉鎖等,0,2023-11-09,2023-10-31,株式会社ヤマトクリエーション長野,,株式会社,長野県,長野市,稲田３丁目４８番１７号,,20,201,3810042,,,2023-10-31,清算の結了等,,,2015-10-05,1,,,,,ヤマトクリエーションナガノ,0
449,2110002002774,登記記録の閉鎖等,0,2023-11-09,2023-11-07,有限会社さくら自動車整備工場,,有限会社,新潟県,新潟市西区,寺尾朝日通１５番１２号,,15,107,9502051,,,2023-11-07,清算の結了等,,,2015-10-05,1,,,,,サクラジドウシャセイビコウジョウ,0
451,2110002026063,登記記録の閉鎖等,0,2023-11-09,2023-11-06,有限会社ケーズサポート,,有限会社,新潟県,十日町市,山野田３７９番地５１,,15,210,9480143,,,2023-11-06,清算の結了等,,,2015-10-05,1,,,,,ケーズサポート,0
452,2110002027193,登記記録の閉鎖等,0,2023-11-09,2023-10-30,有限会社カーサービス・マーチ,,有限会社,新潟県,長岡市,下々条町２８１４番地４,,15,202,9400011,,,2023-10-30,清算の結了等,,,2015-10-05,1,,,,,カーサービスマーチ,0
467,2120002002352,登記記録の閉鎖等,0,2023-11-09,2023-11-01,有限会社配送テクノシステム,,有限会社,大阪府,大阪市西成区,天神ノ森１丁目１５番２０号,,27,122,5570013,,,2023-11-01,清算の結了等,,,2015-10-05,1,,,,,,0
468,2120002059038,登記記録の閉鎖等,0,2023-11-09,2023-11-06,有限会社松くら,,有限会社,大阪府,大阪市東淀川区,下新庄４丁目２１番Ａ－１４０１号,,27,114,5330021,,,2023-11-06,清算の結了等,,,2015-10-05,1,,,,,マツクラ,0
476,2120101030840,登記記録の閉鎖等,0,2023-11-09,2023-11-08,株式会社幸伸,,株式会社,大阪府,富田林市,須賀１丁目１０番６号,,27,214,5840062,,,2023-11-08,清算の結了等,,,2015-10-05,1,,,,,,0
478,2120101059252,登記記録の閉鎖等,0,2023-11-09,2023-11-07,株式会社キンダーキッズ堺,,株式会社,大阪府,堺市北区,長曽根町１６３３番地１,,27,146,5918025,,,2023-11-07,合併による解散等,2120001101312,令和５年１１月１日大阪市北区池田町３番１号株式会社キンダーキッズ（2120001101312）に合併し解散,2019-01-16,1,,,,,キンダーキッズサカイ,0
480,2120102027506,登記記録の閉鎖等,0,2023-11-09,2023-11-08,川口ボンディング有限会社,,有限会社,大阪府,泉南市,信達岡中６６７番地,,27,228,5900523,,,2023-11-08,清算の結了等,,,2015-10-05,1,,,,,カワグチボンディング,0
489,2140001059516,登記記録の閉鎖等,0,2023-11-09,2023-11-06,株式会社水交社,,株式会社,兵庫県,姫路市,大黒壱丁町３９番地,,28,201,6700853,,,2023-11-06,清算の結了等,,,2015-10-05,1,,,,,スイコウシャ,0
499,2140002027918,登記記録の閉鎖等,0,2023-11-09,2023-11-01,仁友商事有限会社,,有限会社,大阪府,大阪市中央区,船場中央３丁目１番７－Ｂ１０４号,,27,128,5410055,,,2023-11-01,合併による解散等,4120001091106,令和５年１１月１日大阪市中央区船場中央三丁目１番７－Ｂ１０４号八木新株式会社（4120001091106）に合併し解散,2015-10-05,1,,,,,ジンユウショウジ,0
506,2180001056146,登記記録の閉鎖等,0,2023-11-09,2023-11-06,株式会社ディー・プロジェクト,,株式会社,愛知県,名古屋市名東区,高針２丁目２５０６番地２,,23,115,4650061,,,2023-11-06,清算の結了等,,,2015-10-05,1,,,,,ディープロジェクト,0
507,2180001063002,登記記録の閉鎖等,0,2023-11-09,2023-11-02,株式会社ウイズ,,株式会社,愛知県,名古屋市守山区,小幡中１丁目１２番１４号,,23,113,4630013,,,2023-11-02,清算の結了等,,,2015-10-05,1,,,,,ウイズ,0
521,2180002055155,登記記録の閉鎖等,0,2023-11-09,2023-10-26,オーレ有限会社,,有限会社,愛知県,名古屋市千種区,見附町３丁目３番地の１,,23,101,4640817,,,2023-10-26,清算の結了等,,,2015-10-05,1,,,,,オーレ,0
528,2180302009579,登記記録の閉鎖等,0,2023-11-09,2023-10-31,有限会社不破,,有限会社,愛知県,豊橋市,岩田町字道合８９番地の２,,23,201,4400041,,,2023-10-31,清算の結了等,,,2015-10-05,1,,,,,フワ,0
530,2200003001808,登記記録の閉鎖等,0,2023-11-09,2023-11-06,若山印刷合資会社,,合資会社,岐阜県,養老郡養老町,高田１６６番地の１,,21,341,5031314,,,2023-11-06,清算の結了等,,,2015-10-05,1,,,,,ワカヤマインサツ,0
534,2230002003728,登記記録の閉鎖等,0,2023-11-09,2023-11-06,有限会社山下ペイントサービス,,有限会社,富山県,富山市,下堀４８番地の７,,16,201,9398055,,,2023-11-06,清算の結了等,,,2015-10-05,1,,,,,ヤマシタペイントサービス,0
538,2240002027940,登記記録の閉鎖等,0,2023-11-09,2023-11-06,有限会社玉田不動産,,有限会社,広島県,東広島市,八本松南５丁目６番１号,,34,212,7390144,,,2023-11-06,清算の結了等,,,2015-10-05,1,,,,,タマダフドウサン,0
540,2240002030762,登記記録の閉鎖等,0,2023-11-09,2023-11-02,有限会社オリエントダイニング,,有限会社,広島県,三次市,十日市東６丁目１番８号,,34,209,7280013,,,2023-11-02,清算の結了等,,,2015-10-05,1,,,,,オリエントダイニング,0
550,2290001000852,登記記録の閉鎖等,0,2023-11-09,2023-10-26,株式会社エイコー食品,,株式会社,福岡県,福岡市南区,清水４丁目６番３３号,,40,134,8150031,,,2023-10-26,清算の結了等,,,2015-10-05,1,,,,,エイコーショクヒン,0
552,2290001044107,登記記録の閉鎖等,0,2023-11-09,2023-10-20,株式会社筑水建設,,株式会社,福岡県,朝倉市,上寺６４４番地,,40,228,8381313,,,2023-10-20,清算の結了等,,,2015-10-05,1,,,,,チクスイケンセツ,0
565,2300001008299,登記記録の閉鎖等,0,2023-11-09,2023-11-06,株式会社いつき,,株式会社,佐賀県,小城市,三日月町織島２２５６番地１,,41,208,8450023,,,2023-11-06,清算の結了等,,,2015-10-05,1,,,,,イツキ,0
568,2340002028391,登記記録の閉鎖等,0,2023-11-09,2023-11-07,有限会社丸山自動車,,有限会社,鹿児島県,曽於市,末吉町深川２２１６番地６,,46,217,8998606,,,2023-11-07,清算の結了等,,,2015-10-05,1,,,,,マルヤマジドウシャ,0
582,2430001088097,登記記録の閉鎖等,0,2023-11-09,2023-11-01,株式会社ＯＲＧ,,株式会社,東京都,港区,南青山２丁目２番８号ＤＦビル７階,,13,103,1070062,,,2023-11-01,合併による解散等,5430001062826,令和５年１１月１日東京都港区南青山二丁目２番８号ＤＦビル７階株式会社Ｈ２（5430001062826）に合併し解散,2022-12-26,1,,,,,オーアールジー,0
603,3010001218240,登記記録の閉鎖等,0,2023-11-09,2023-11-01,株式会社ＴＦＹホールディングス,,株式会社,東京都,千代田区,外神田２丁目４番４号第一電波ビル７階,,13,101,1010021,,,2023-11-01,清算の結了等,,,2021-05-24,1,,,,,ティーエフワイホールディングス,0
609,3010002008566,登記記録の閉鎖等,0,2023-11-09,2023-11-01,有限会社オン,,有限会社,東京都,千代田区,五番町１２番１２号,,13,101,1020076,,,2023-11-01,清算の結了等,,,2015-10-05,1,,,,,オン,0
614,3010003041260,登記記録の閉鎖等,0,2023-11-09,2023-11-01,合同会社ムラサキ,,合同会社,東京都,中央区,銀座１丁目６番１１号土志田ビルディング３Ｆ,,13,102,1040061,,,2023-11-01,合併による解散等,3010401064813,令和５年１１月１日東京都千代田区九段南二丁目３番１０号ストレージプラス株式会社（3010401064813）に合併し解散,2023-08-07,1,,,,,ムラサキ,0
621,3010101008855,登記記録の閉鎖等,0,2023-11-09,2023-10-24,株式会社編集工房キュウ,,株式会社,東京都,八王子市,鹿島７番地１,,13,201,1920353,,,2023-10-24,清算の結了等,,,2015-10-05,1,,,,,,0
624,3010401066157,登記記録の閉鎖等,0,2023-11-09,2023-11-06,プレディクト株式会社,,株式会社,東京都,港区,麻布十番１丁目３番１号,,13,103,1060045,,,2023-11-06,清算の結了等,,,2015-10-05,1,,,,,プレディクト,0
627,3010401110947,登記記録の閉鎖等,0,2023-11-09,2023-11-01,株式会社ＣＯＲＡＬ　ＮＩＮＥ,,株式会社,東京都,港区,海岸２丁目６番３０号,,13,103,1050022,,,2023-11-01,合併による解散等,1010401095686,令和５年１１月１日東京都港区海岸二丁目６番３０号株式会社スプレッドワン（1010401095686）に合併し解散,2015-10-05,1,,,,,コーラルナイン,0
645,3011001129634,登記記録の閉鎖等,0,2023-11-09,2023-11-02,株式会社Ｍｅｄｉａｔｏｒ,,株式会社,東京都,渋谷区,神宮前３丁目５番１２号,,13,113,1500001,,,2023-11-02,清算の結了等,,,2019-08-26,1,,,,,メディエーター,0
647,3011001149319,登記記録の閉鎖等,0,2023-11-09,2023-11-01,株式会社アオイ企画,,株式会社,東京都,渋谷区,神泉町１０番１５号,,13,113,1500045,,,2023-11-01,清算の結了等,,,2022-08-17,1,,,,,アオイキカク,0
652,3011003008316,登記記録の閉鎖等,0,2023-11-09,2023-11-01,サイラ合同会社,,合同会社,東京都,渋谷区,渋谷２丁目７番１３号ネオメット青山３階,,13,113,1500002,,,2023-11-01,清算の結了等,,,2017-12-07,1,,,,,サイラ,0
677,3011801036815,登記記録の閉鎖等,0,2023-11-09,2023-11-06,株式会社Ｓｅｖｅｎライナー,,株式会社,東京都,葛飾区,西新小岩３丁目１４番２８号,,13,122,1240025,,,2023-11-06,清算の結了等,,,2019-10-31,1,,,,,セブンライナー,0
690,3012403004037,登記記録の閉鎖等,0,2023-11-09,2023-11-02,合同会社みらい総合開発,,合同会社,東京都,小金井市,貫井北町１丁目２０番２号,,13,210,1840015,,,2023-11-02,清算の結了等,,,2019-09-20,1,,,,,ミライソウゴウカイハツ,0
701,3020001075053,登記記録の閉鎖等,0,2023-11-09,2023-10-30,株式会社エコー商事,,株式会社,神奈川県,川崎市中原区,新城５丁目９番２７号,,14,133,2110044,,,2023-10-30,清算の結了等,,,2015-10-05,1,,,,,エコーショウジ,0
715,3030001126929,登記記録の閉鎖等,0,2023-11-09,2023-10-31,株式会社エムワン企画,,株式会社,埼玉県,熊谷市,本町２丁目１３６番地,,11,202,3600042,,,2023-10-31,清算の結了等,,,2018-08-08,1,,,,,エムワンキカク,0
720,3030002079630,登記記録の閉鎖等,0,2023-11-09,2023-10-30,有限会社エム・クリエート,,有限会社,埼玉県,川越市,かすみ野１丁目２３番地１７,,11,201,3501174,,,2023-10-30,清算の結了等,,,2015-10-05,1,,,,,エムクリエート,0
749,3100002034859,登記記録の閉鎖等,0,2023-11-09,2023-11-01,有限会社聖皇製作所,,有限会社,長野県,上伊那郡箕輪町,大字中箕輪３３５７番地２２０,,20,383,3994601,,,2023-11-01,清算の結了等,,,2015-10-05,1,,,,,セイコウセイサクショ,0
750,3110001002106,登記記録の閉鎖等,0,2023-11-09,2023-11-06,鈴木電気株式会社,,株式会社,新潟県,新潟市中央区,白山浦２丁目１７９番地６,,15,103,9518131,,,2023-11-06,清算の結了等,,,2015-10-05,1,,,,,スズキデンキ,0
754,3110002026013,登記記録の閉鎖等,0,2023-11-09,2023-11-06,有限会社渡辺板金工業,,有限会社,新潟県,十日町市,川治４５５番地１３,,15,210,9480036,,,2023-11-06,清算の結了等,,,2015-10-05,1,,,,,ワタナベバンキンコウギョウ,0
758,3120001145746,登記記録の閉鎖等,0,2023-11-09,2023-11-02,栄宝海運株式会社,,株式会社,大阪府,大阪市西区,立売堀２丁目５番４１号,,27,106,5500012,,,2023-11-02,清算の結了等,,,2015-10-05,1,,,,,エイホウカイウン,0
771,3120003006995,登記記録の閉鎖等,0,2023-11-09,2023-11-02,合同会社ユートラスト,,合同会社,大阪府,大阪市東住吉区,田辺２丁目４番１６号,,27,121,5460031,,,2023-11-02,清算の結了等,,,2015-10-05,1,,,,,ユートラスト,0
778,3120902018224,登記記録の閉鎖等,0,2023-11-09,2023-11-02,有限会社グリーンハウス,,有限会社,大阪府,豊中市,緑丘５丁目１番３号,,27,203,5600002,,,2023-11-02,清算の結了等,,,2015-10-05,1,,,,,グリーンハウス,0
783,3130001014181,登記記録の閉鎖等,0,2023-11-09,2023-10-31,株式会社岸野義商店,,株式会社,京都府,京都市伏見区,北浜町５８３番地ＨＩＧＯＹＡ４０２号,,26,109,6128218,,,2023-10-31,清算の結了等,,,2015-10-05,1,,,,,キシノギショウテン,0
793,3140002027181,登記記録の閉鎖等,0,2023-11-09,2023-11-02,有限会社井谷,,有限会社,大阪府,大阪市此花区,梅香２丁目１番２２号,,27,104,5540013,,,2023-11-02,清算の結了等,,,2015-10-05,1,,,,,イタニ,0
796,3160003001118,登記記録の閉鎖等,0,2023-11-09,2023-11-06,イーディアイ合同会社,,合同会社,滋賀県,大津市,打出浜８番９－２０６号,,25,201,5200806,,,2023-11-06,清算の結了等,,,2015-10-05,1,,,,,イーディアイ,0
803,3180001120363,登記記録の閉鎖等,0,2023-11-09,2023-11-01,株式会社オオサキホールディングス,,株式会社,愛知県,名古屋市西区,玉池町２０３番地,,23,104,4520812,,,2023-11-01,合併による解散等,8180001024956,令和５年１１月１日名古屋市西区玉池町２０３番地オオサキメディカル株式会社（8180001024956）に合併し解散,2015-10-05,1,,,,,オオサキホールディングス,0
813,3180002083989,登記記録の閉鎖等,0,2023-11-09,2023-11-07,有限会社マナメディア,,有限会社,愛知県,半田市,花園町６丁目１５番地の６,,23,205,4750833,,,2023-11-07,清算の結了等,,,2015-10-05,1,,,,,マナメディア,0
820,3190002014035,登記記録の閉鎖等,0,2023-11-09,2023-11-06,有限会社田中電機工作所,,有限会社,三重県,松阪市,鎌田町１９２番地の５,,24,204,5150005,,,2023-11-06,清算の結了等,,,2015-10-05,1,,,,,タナカデンキコウサクショ,0
824,3200001028109,登記記録の閉鎖等,0,2023-11-09,2023-10-31,株式会社うるえ,,株式会社,埼玉県,川越市,大字南田島２０３６番地の８,,11,201,3500027,,,2023-10-31,清算の結了等,,,2015-10-05,1,,,,,ウルエ,0
828,3220002003645,登記記録の閉鎖等,0,2023-11-09,2023-11-07,有限会社タカホーム,,有限会社,石川県,金沢市,新保本５丁目８０番地,,17,201,9218062,,,2023-11-07,清算の結了等,,,2015-10-05,1,,,,,タカホーム,0
830,3230002003727,登記記録の閉鎖等,0,2023-11-09,2023-11-06,有限会社山下塗装工業,,有限会社,富山県,富山市,辰尾３０２番地,,16,201,9398172,,,2023-11-06,清算の結了等,,,2015-10-05,1,,,,,ヤマシタトソウコウギョウ,0
866,3340001008014,登記記録の閉鎖等,0,2023-11-09,2023-11-06,株式会社メリテカンパニー,,株式会社,東京都,港区,高輪１丁目２７番３７号,,13,103,1080074,,,2023-11-06,清算の結了等,,,2015-10-05,1,,,,,メリテカンパニー,0
880,3410002010003,登記記録の閉鎖等,0,2023-11-09,2023-11-01,有限会社農業生産法人オークランド,,有限会社,秋田県,鹿角市,十和田大湯字荒瀬１２番地の２,,05,209,0185421,,,2023-11-01,合併による解散等,6410001006684,令和５年１１月１日秋田県鹿角市十和田大湯字荒瀬１２番地の２八重樫建設株式会社（6410001006684）に合併し解散,2015-10-05,1,,,,,ノウギョウセイサンホウジンオークランド,0
891,3462501000099,登記記録の閉鎖等,0,2023-11-09,2023-10-31,株式会社三共工務店,,株式会社,北海道,野付郡別海町,西春別９９番地の４８,,01,691,0882576,,,2023-10-31,清算の結了等,,,2015-10-05,1,,,,,サンキョウコウムテン,0
903,4010003021435,登記記録の閉鎖等,0,2023-11-09,2023-10-31,ＳＳＪメガソーラー３９合同会社,,合同会社,岩手県,九戸郡軽米町,大字小軽米第１地割１６番地７０,,03,501,0286411,,,2023-10-31,清算の結了等,,,2015-10-05,1,,,,,エスエスジェイメガソーラーサンジュウキュウ,0
920,4010401162062,登記記録の閉鎖等,0,2023-11-09,2023-11-02,昭和電工システムサービス株式会社,,株式会社,東京都,港区,芝大門１丁目１３番９号,,13,103,1050012,,,2023-11-02,清算の結了等,,,2021-08-12,1,,,,,ショウワデンコウシステムサービス,0
929,4010402017562,登記記録の閉鎖等,0,2023-11-09,2023-11-01,有限会社オレンジの樹,,有限会社,東京都,港区,高輪２丁目１６番３６号高輪チトセハイツ３０２,,13,103,1080074,,,2023-11-01,清算の結了等,,,2015-10-05,1,,,,,オレンジノキ,0
935,4010901025272,登記記録の閉鎖等,0,2023-11-09,2023-11-06,シーキューブ株式会社,,株式会社,東京都,調布市,八雲台１丁目４番４号,,13,208,1820015,,,2023-11-06,清算の結了等,,,2015-10-05,1,,,,,シーキューブ,0
936,4010901042631,登記記録の閉鎖等,0,2023-11-09,2023-11-02,株式会社アドレナリン,,株式会社,東京都,渋谷区,渋谷３丁目１番１９号ＹＡＺＡＷＡビル３階,,13,113,1500002,,,2023-11-02,清算の結了等,,,2018-09-11,1,,,,,アドレナリン,0
962,4011802023803,登記記録の閉鎖等,0,2023-11-09,2023-11-06,有限会社Ｐ＆Ｐ,,有限会社,東京都,葛飾区,細田３丁目２９番１０号,,13,122,1240021,,,2023-11-06,清算の結了等,,,2015-10-05,1,,,,,ピーアンドピー,0
981,4020002005727,登記記録の閉鎖等,0,2023-11-09,2023-10-27,有限会社川崎クリーニング技術者紹介所,,有限会社,神奈川県,横浜市都筑区,中川８丁目３番２２号,,14,118,2240001,,,2023-10-27,清算の結了等,,,2015-10-05,1,,,,,カワサキクリーニングギジュツシャショウカイショ,0
996,4030002005619,登記記録の閉鎖等,0,2023-11-09,2023-10-31,有限会社ササキ建築構造事務所,,有限会社,埼玉県,さいたま市桜区,大字大久保領家４２２番地,,11,106,3380826,,,2023-10-31,清算の結了等,,,2015-10-05,1,,,,,ササキケンチクコウゾウジムショ,0
997,4030002038511,登記記録の閉鎖等,0,2023-11-09,2023-10-30,有限会社五十嵐商事,,有限会社,埼玉県,さいたま市北区,本郷町１６１０番地６,,11,102,3310802,,,2023-10-30,清算の結了等,,,2015-10-05,1,,,,,,0
1017,4050002034228,登記記録の閉鎖等,0,2023-11-09,2023-10-31,有限会社藤崎工務店,00023144,有限会社,茨城県,稲敷市,本新４５６番地,,08,229,3000731,,,2023-10-31,清算の結了等,,,2015-10-05,1,,,,,フジサキコウムテン,0
1027,4080405006234,登記記録の閉鎖等,0,2023-11-09,2023-11-02,一般社団法人堀出前まちづくり会,,その他の設立登記法人,静岡県,浜松市西区,雄踏町宇布見４８５２番地の１,,22,133,4310102,,,2023-11-02,清算の結了等,,,2015-10-05,1,,,,,ホリデマエマチヅクリカイ,0
1033,4100002031789,登記記録の閉鎖等,0,2023-11-09,2023-11-01,有限会社丸三浜鉄工所,,有限会社,長野県,岡谷市,湊３丁目９番２０号,,20,204,3940044,,,2023-11-01,清算の結了等,,,2015-10-05,1,,,,,マルサンハマテッコウジョ,0
1038,4110002029485,登記記録の閉鎖等,0,2023-11-09,2023-11-07,有限会社結城測量設計,,有限会社,新潟県,長岡市,加津保町２００８番地,,15,202,9400803,,,2023-11-07,清算の結了等,,,2015-10-05,1,,,,,ユウキソクリョウセッケイ,0
1039,4120001016715,登記記録の閉鎖等,0,2023-11-09,2023-11-01,株式会社秋山製作所,,株式会社,大阪府,大阪市生野区,生野西３丁目１３番１１号,,27,116,5440024,,,2023-11-01,清算の結了等,,,2015-10-05,1,,,,,アキヤマセイサクショ,0
1048,4120001227485,登記記録の閉鎖等,0,2023-11-09,2023-11-06,株式会社Ｓ・Ｏ　Ｐｌａｎ,,株式会社,大阪府,大阪市福島区,大開１丁目１３番１５号,,27,103,5530007,,,2023-11-06,清算の結了等,,,2020-03-05,1,,,,,エスオープラン,0
1068,4140002060099,登記記録の閉鎖等,0,2023-11-09,2023-11-01,株式会社プラチナハウシード,,株式会社,兵庫県,西宮市,南越木岩町１１番１１号,,28,204,6620075,,,2023-11-01,合併による解散等,6140001069065,令和５年１１月１日兵庫県西宮市戸田町４番１４号ＰＢビル２階株式会社プランニングビルド（6140001069065）に合併し解散,2015-10-05,1,,,,,プラチナハウシード,0
1070,4150003002264,登記記録の閉鎖等,0,2023-11-09,2023-11-07,合同会社Ｅ’ｍｓ,,合同会社,奈良県,香芝市,旭ケ丘３丁目１０番地５,,29,210,6390266,,,2023-11-07,合併による解散等,2120001191849,令和５年１１月１日大阪市北区万歳町３番３９－１２０９号株式会社ＰＡＬ　ＧＬＡＤ（2120001191849）に合併し解散,2020-11-12,1,,,,,エムズ,0
1077,4180001024646,登記記録の閉鎖等,0,2023-11-09,2023-11-02,足立晒株式会社,,株式会社,愛知県,名古屋市西区,江向町４丁目６２番地,,23,104,4510013,,,2023-11-02,清算の結了等,,,2015-10-05,1,,,,,アダチサラシ,0
1094,4210002007431,登記記録の閉鎖等,0,2023-11-09,2023-11-02,有限会社エーシン設備,,有限会社,福井県,坂井市,坂井町下新庄第１２号２２番地１,,18,210,9190521,,,2023-11-02,清算の結了等,,,2015-10-05,1,,,,,エーシンセツビ,0
1109,4260001023004,登記記録の閉鎖等,0,2023-11-09,2023-10-31,株式会社影山設計工匠,,株式会社,岡山県,真庭市,神代１３８８番地,,33,214,7170027,,,2023-10-31,清算の結了等,,,2015-10-05,1,,,,,カゲヤマセッケイコウショウ,0
1122,4320001002083,登記記録の閉鎖等,0,2023-11-09,2023-11-07,株式会社日商,,株式会社,大分県,大分市,萩原３丁目２３番１５号,,44,201,8700921,,,2023-11-07,清算の結了等,,,2015-10-05,1,,,,,ニッショウ,0
1156,4460301005152,登記記録の閉鎖等,0,2023-11-09,2023-11-06,株式会社ＯＮＯＴＥＲＲＡＣＥ,,株式会社,北海道,北見市,留辺蘂町栄町８４番地１,,01,208,0910033,,,2023-11-06,清算の結了等,,,2023-06-09,1,,,,,オノテラス,0
1157,4480002004088,登記記録の閉鎖等,0,2023-11-09,2023-11-08,有限会社ビイ・アイ・エス,,有限会社,徳島県,徳島市,吉野本町６丁目２１番地,,36,201,7700802,,,2023-11-08,清算の結了等,,,2015-10-05,1,,,,,ビイアイエス,0
1163,5010001108357,登記記録の閉鎖等,0,2023-11-09,2023-11-01,ダイアモンド・ガス・オペレーション株式会社,,株式会社,東京都,千代田区,丸の内２丁目３番１号,,13,101,1000005,,,2023-11-01,清算の結了等,,,2015-10-05,1,,,,,ダイアモンドガスオペレーション,0
1188,5010003022705,登記記録の閉鎖等,0,2023-11-09,2023-11-06,ＧＳＡ　ＪＰ　Ｐｒｏｊｅｃｔ１合同会社,,合同会社,東京都,港区,虎ノ門５丁目１番４号,,13,103,1050001,,,2023-11-06,清算の結了等,,,2015-11-20,1,,,,,ジーエスエージェーピープロジェクトワン,0
1200,5010401128021,登記記録の閉鎖等,0,2023-11-09,2023-11-02,株式会社Ｐｏｌａｃｏ,,株式会社,東京都,港区,南青山２丁目１５番５号,,13,103,1070062,,,2023-11-02,清算の結了等,,,2016-11-07,1,,,,,ポラコ,0
1209,5010405018763,登記記録の閉鎖等,0,2023-11-09,2023-11-02,一般社団法人Ｔｏｒｑｕａｙ,,その他の設立登記法人,東京都,港区,虎ノ門５丁目１番４号,,13,103,1050001,,,2023-11-02,清算の結了等,,,2020-05-21,1,,,,,トーキー,0
1215,5010901052480,登記記録の閉鎖等,0,2023-11-09,2023-11-01,Ｂｅｙｏｎｄ　Ｃｏｎｓｔａｎｔ株式会社,,株式会社,東京都,世田谷区,若林３丁目１番１８号,,13,112,1540023,,,2023-11-01,清算の結了等,,,2023-02-07,1,,,,,ビヨンドコンスタント,0
1230,5011103008354,登記記録の閉鎖等,0,2023-11-09,2023-11-06,ペリド合同会社,,合同会社,東京都,新宿区,高田馬場２丁目５番２４－７０４号,,13,104,1690075,,,2023-11-06,清算の結了等,,,2018-11-08,1,,,,,ペリド,0
1240,5011801022004,登記記録の閉鎖等,0,2023-11-09,2023-11-02,株式会社ｖｅｌｌｓ,,株式会社,東京都,足立区,花畑１丁目３２番７－１０２号,,13,121,1210061,,,2023-11-02,清算の結了等,,,2015-10-05,1,,,,,ベルズ,0
1257,5013401006015,登記記録の閉鎖等,0,2023-11-09,2023-11-07,株式会社山善,,株式会社,東京都,日野市,三沢１丁目１１番地の５,,13,212,1910032,,,2023-11-07,合併による解散等,6013401001205,令和５年１１月１日東京都多摩市連光寺一丁目２２番地１株式会社ジャパン・リサイクル・システム（6013401001205）に合併し解散,2015-10-05,1,,,,,ヤマゼン,0
1258,5020001023084,登記記録の閉鎖等,0,2023-11-09,2023-11-01,コロナ技研株式会社,,株式会社,神奈川県,横須賀市,太田和１丁目１９番２号,,14,201,2380311,,,2023-11-01,清算の結了等,,,2015-10-05,1,,,,,コロナギケン,0
1259,5020001041895,登記記録の閉鎖等,0,2023-11-09,2023-10-30,株式会社エルアンドイーサポートシステム,,株式会社,神奈川県,横浜市鶴見区,獅子ケ谷１丁目１０番３５号,,14,101,2300073,,,2023-10-30,清算の結了等,,,2015-10-05,1,,,,,エルアンドイーサポートシステム,0
1269,5020003011228,登記記録の閉鎖等,0,2023-11-09,2023-10-27,合同会社ケアプランうえはら,,合同会社,神奈川県,川崎市多摩区,生田２丁目５番７号,,14,135,2140038,,,2023-10-27,清算の結了等,,,2016-04-20,1,,,,,ケアプランウエハラ,0
1273,5021002053772,登記記録の閉鎖等,0,2023-11-09,2023-11-02,有限会社エム・ワイ・エム,,有限会社,神奈川県,小田原市,曽我光海２３番地１,,14,206,2500207,,,2023-11-02,清算の結了等,,,2015-10-05,1,,,,,エムワイエム,0
1294,5040002083142,登記記録の閉鎖等,0,2023-11-09,2023-10-31,有限会社田中設計事務所,,有限会社,千葉県,匝瑳市,宮本３４番地,,12,235,2892103,,,2023-10-31,清算の結了等,,,2015-10-05,1,,,,,タナカセッケイジムショ,0
1297,5050001028287,登記記録の閉鎖等,0,2023-11-09,2023-11-01,株式会社ファインサーブ,,株式会社,茨城県,取手市,宮和田９０４番地の３１,,08,217,3001514,,,2023-11-01,清算の結了等,,,2015-10-05,1,,,,,ファインサーブ,0
1302,5060002023105,登記記録の閉鎖等,0,2023-11-09,2023-11-07,有限会社田中商店,,有限会社,栃木県,那須郡那須町,大字湯本８８番地,,09,407,3250301,,,2023-11-07,清算の結了等,,,2015-10-05,1,,,,,タナカショウテン,0
1323,5120002072830,登記記録の閉鎖等,0,2023-11-09,2023-11-08,有限会社西川設備工業,,有限会社,大阪府,寝屋川市,仁和寺町２４番２２号,,27,215,5720066,,,2023-11-08,清算の結了等,,,2015-10-05,1,,,,,ニシカワセツビコウギョウ,0
1342,5130002024830,登記記録の閉鎖等,0,2023-11-09,2023-10-31,有限会社高橋ソフトウェア研究所,,有限会社,京都府,長岡京市,下海印寺西条６番地,,26,209,6170845,,,2023-10-31,清算の結了等,,,2015-10-05,1,,,,,タカハシソフトウェアケンキュウショ,0
1346,5140001025985,登記記録の閉鎖等,0,2023-11-09,2023-11-02,株式会社清玄ハウジングコンサルツ,,株式会社,兵庫県,神戸市垂水区,清玄町３１番地の１３,,28,108,6550865,,,2023-11-02,清算の結了等,,,2015-10-05,1,,,,,セイゲンハウジングコンサルツ,0
1347,5140001032437,登記記録の閉鎖等,0,2023-11-09,2023-11-06,神戸冷凍運輸株式会社,,株式会社,兵庫県,神戸市東灘区,魚崎南町５丁目６－１２－３０６,,28,101,6580025,,,2023-11-06,清算の結了等,,,2015-10-05,1,,,,,コウベレイトウウンユ,0
1348,5140001034887,登記記録の閉鎖等,0,2023-11-09,2023-11-01,株式会社三晃電機,,株式会社,兵庫県,明石市,朝霧町１丁目３０番１６号,,28,203,6730866,,,2023-11-01,清算の結了等,,,2015-10-05,1,,,,,ミコウデンキ,0
1366,5180001147776,登記記録の閉鎖等,0,2023-11-09,2023-11-02,株式会社ＷＥＬＧＲＥＥＮ,,株式会社,愛知県,知多郡阿久比町,大字卯坂字坂部１９番地,,23,441,4702212,,,2023-11-02,清算の結了等,,,2021-09-10,1,,,,,ウェルグリーン,0
1387,5220002000450,登記記録の閉鎖等,0,2023-11-09,2023-11-08,有限会社シズオ工業,,有限会社,石川県,野々市市,住吉町１７番２０号,,17,212,9218813,,,2023-11-08,清算の結了等,,,2015-10-05,1,,,,,シズオコウギョウ,0
1388,5240002032252,登記記録の閉鎖等,0,2023-11-09,2023-10-31,エスキムラ有限会社,,有限会社,広島県,呉市,阿賀北７丁目２番２１号,,34,202,7370001,,,2023-10-31,清算の結了等,,,2015-10-05,1,,,,,エスキムラ,0
1395,5260002005603,登記記録の閉鎖等,0,2023-11-09,2023-11-06,有限会社瀬戸洋書,,有限会社,岡山県,岡山市北区,今７丁目１１番１３号,,33,101,7000975,,,2023-11-06,清算の結了等,,,2015-10-05,1,,,,,セトヨウショ,0
1396,5260002017904,登記記録の閉鎖等,0,2023-11-09,2023-11-06,栗原電工有限会社,,有限会社,岡山県,倉敷市,沖新町３２番地の８,,33,202,7100837,,,2023-11-06,清算の結了等,,,2015-10-05,1,,,,,クリハラデンコウ,0
1404,5290801006550,登記記録の閉鎖等,0,2023-11-09,2023-11-07,株式会社鈴木建設,,株式会社,福岡県,北九州市戸畑区,新池３丁目８番２号,,40,105,8040082,,,2023-11-07,清算の結了等,,,2015-10-05,1,,,,,スズキケンセツ,0
1409,5340001017830,登記記録の閉鎖等,0,2023-11-09,2023-11-06,株式会社ＹＵＩ建築計画工房・鹿児島,,株式会社,鹿児島県,鹿児島市,平之町８番３８号,,46,201,8920848,,,2023-11-06,合併による解散等,1010501014414,令和５年１１月１日東京都台東区柳橋一丁目２３番４号株式会社結建築計画工房（1010501014414）に合併し解散,2015-10-05,1,,,,,,0
1412,5360003006854,登記記録の閉鎖等,0,2023-11-09,2023-11-02,合同会社Ｃｈａｏｓ,,合同会社,沖縄県,宮古島市,平良字東仲宗根３７６番地,,47,214,9060007,,,2023-11-02,清算の結了等,,,2015-10-05,1,,,,,,0
1413,5370001019007,登記記録の閉鎖等,0,2023-11-09,2023-11-06,株式会社Ｐｉｐｉｅ＆Ｌｉｌｌｙ,,株式会社,宮城県,仙台市泉区,泉中央４丁目１４－９グランビューかむり２０６,,04,105,9813133,,,2023-11-06,清算の結了等,,,2015-10-05,1,,,,,,0
1419,5380002026059,登記記録の閉鎖等,0,2023-11-09,2023-11-02,有限会社松下工務店,,有限会社,福島県,いわき市,内郷内町桜本１３５番地の１３,,07,204,9738404,,,2023-11-02,清算の結了等,,,2015-10-05,1,,,,,マツシタコウムテン,0
1422,5390002003098,登記記録の閉鎖等,0,2023-11-09,2023-11-07,有限会社レストランチロル,,有限会社,山形県,山形市,城西町２丁目９番９号,,06,201,9900832,,,2023-11-07,清算の結了等,,,2015-10-05,1,,,,,レストランチロル,0
1423,5390002009814,登記記録の閉鎖等,0,2023-11-09,2023-11-06,有限会社みどり電化チェーン鶴岡中川店,,有限会社,山形県,鶴岡市,大西町２６番３５号,,06,203,9970831,,,2023-11-06,清算の結了等,,,2015-10-05,1,,,,,ミドリデンカチェーンツルオカナカガワテン,0
1424,5400002001364,登記記録の閉鎖等,0,2023-11-09,2023-11-01,有限会社ザ・キヤラバン,,有限会社,岩手県,盛岡市,本町通３丁目２０番８号,,03,201,0200015,,,2023-11-01,清算の結了等,,,2015-10-05,1,,,,,ザキャラバン,0
1426,5410001012700,登記記録の閉鎖等,0,2023-11-09,2023-11-02,株式会社中＆徳,,株式会社,秋田県,秋田市,土崎港北３丁目１４番３２号,,05,201,0110941,,,2023-11-02,清算の結了等,,,2021-01-06,1,,,,,チュウアンドトク,0
1429,5430001005339,登記記録の閉鎖等,0,2023-11-09,2023-10-31,株式会社ケーアンドワイ技術事務所,,株式会社,北海道,札幌市西区,発寒十一条３丁目５番３号,,01,107,0630831,,,2023-10-31,清算の結了等,,,2015-10-05,1,,,,,ケーアンドワイギジュツジムショ,0
1438,5460102001829,登記記録の閉鎖等,0,2023-11-09,2023-11-06,有限会社高木自動車,,有限会社,北海道,帯広市,西十六条北１丁目２５番地１０,,01,207,0800046,,,2023-11-06,清算の結了等,,,2015-10-05,1,,,,,タカギジドウシャ,0
1439,5480001002629,登記記録の閉鎖等,0,2023-11-09,2023-11-07,株式会社松浦工業,,株式会社,徳島県,名西郡神山町,阿野字井ノ谷５３番地４,,36,342,7713202,,,2023-11-07,清算の結了等,,,2015-10-05,1,,,,,マツウラコウギョウ,0
1453,6010001199759,登記記録の閉鎖等,0,2023-11-09,2023-11-01,Ｍｅｄｉｃｈａ株式会社,,株式会社,東京都,千代田区,大手町１丁目１番１号,,13,101,1000004,,,2023-11-01,清算の結了等,,,2019-04-04,1,,,,,メディーチャ,0
1455,6010001214105,登記記録の閉鎖等,0,2023-11-09,2023-11-01,株式会社シゲルビル,,株式会社,東京都,文京区,湯島３丁目３９－５,,13,105,1130034,,,2023-11-01,合併による解散等,1010503005155,令和５年１１月１日東京都文京区湯島三丁目３９番５号ラレーブ湯島合同会社ジェイワン（1010503005155）に合併し解散,2020-12-03,1,,,,,シゲルビル,0
1463,6010003025698,登記記録の閉鎖等,0,2023-11-09,2023-11-01,ＣＲ京町家１号合同会社,,合同会社,東京都,千代田区,大手町１丁目６番１号,,13,101,1000004,,,2023-11-01,清算の結了等,,,2017-07-18,1,,,,,シーアールキョウマチヤイチゴウ,0
1464,6010003031300,登記記録の閉鎖等,0,2023-11-09,2023-11-01,ＣＲ－かりこぼうず大橋合同会社,,合同会社,東京都,千代田区,大手町１丁目６番１号,,13,101,1000004,,,2023-11-01,清算の結了等,,,2019-12-20,1,,,,,シーアールカリコボウズオオハシ,0
1465,6010005031372,登記記録の閉鎖等,0,2023-11-09,2023-11-07,一般社団法人柏の葉インベストメント,,その他の設立登記法人,東京都,千代田区,丸の内３丁目１番１号東京共同会計事務所内,,13,101,1000005,,,2023-11-07,清算の結了等,,,2020-01-31,1,,,,,カシワノハインベストメント,0
1496,6010901036879,登記記録の閉鎖等,0,2023-11-09,2023-11-02,株式会社麻川興業,,株式会社,東京都,世田谷区,東玉川１丁目３９－８,,13,112,1580084,,,2023-11-02,清算の結了等,,,2015-10-05,1,,,,,,0
1511,6011101056940,登記記録の閉鎖等,0,2023-11-09,2023-11-06,トプソン株式会社,,株式会社,東京都,多摩市,永山１丁目５番地ベルブ永山５階５０３－２号室,,13,224,2060025,,,2023-11-06,清算の結了等,,,2015-10-05,1,,,,,トプソン,0
1521,6011402008418,登記記録の閉鎖等,0,2023-11-09,2023-11-06,有限会社丸田工業,,有限会社,東京都,板橋区,小豆沢２丁目４番８－３０７号ライフコア小豆沢,,13,119,1740051,,,2023-11-06,清算の結了等,,,2015-10-05,1,,,,,マルタコウギョウ,0
1527,6011801017754,登記記録の閉鎖等,0,2023-11-09,2023-11-02,株式会社小林工務店,,株式会社,東京都,足立区,梅島２丁目１１番１５号,,13,121,1210816,,,2023-11-02,清算の結了等,,,2015-10-05,1,,,,,コバヤシコウムテン,0
1538,6012705000540,登記記録の閉鎖等,0,2023-11-09,2023-11-06,特定非営利活動法人ケアサポートファミリー,,その他の設立登記法人,東京都,東久留米市,新川町１丁目５番２号,,13,222,2030013,,,2023-11-06,清算の結了等,,,2015-10-05,1,,,,,ケアサポートファミリー,0
1549,6020001053477,登記記録の閉鎖等,0,2023-11-09,2023-10-30,株式会社アクア,,株式会社,神奈川県,横浜市西区,平沼１丁目２番２４号,,14,103,2200023,,,2023-10-30,清算の結了等,,,2015-10-05,1,,,,,アクア,0
1551,6020001117067,登記記録の閉鎖等,0,2023-11-09,2023-11-01,ＥＣＩ　ＪＡＰＡＮ株式会社,,株式会社,神奈川県,横浜市港北区,新横浜２丁目５番１５号新横浜センタービル,,14,109,2220033,,,2023-11-01,合併による解散等,6020001010379,令和５年１１月１日横浜市西区みなとみらい三丁目７番１号ＯＣＥＡＮＧＡＴＥＭＩＮＡＴＯＭＩＲＡＩケーエルエー・テンコール株式会社（6020001010379）に合併し解散,2016-07-20,1,,,,,イーシーアイジャパン,0
1552,6020001128114,登記記録の閉鎖等,0,2023-11-09,2023-10-26,株式会社イーエスエー,,株式会社,茨城県,常総市,豊岡町乙２００５,,08,211,3030041,,,2023-10-26,清算の結了等,,,2018-10-02,1,,,,,イーエスエー,0
1556,6020002059267,登記記録の閉鎖等,0,2023-11-09,2023-10-30,有限会社デザイン計画事務所,,有限会社,神奈川県,横浜市青葉区,あかね台１丁目３６番地２,,14,117,2270066,,,2023-10-30,清算の結了等,,,2015-10-05,1,,,,,,0
1562,6021001014238,登記記録の閉鎖等,0,2023-11-09,2023-11-06,山伸建設株式会社,,株式会社,青森県,五所川原市,大字小曲字沼田５５番地６,,02,205,0370076,,,2023-11-06,清算の結了等,,,2015-10-05,1,,,,,,0
1593,6050001010979,登記記録の閉鎖等,0,2023-11-09,2023-11-01,株式会社リンツーライン,,株式会社,茨城県,土浦市,中村南６丁目３番７号,,08,203,3000843,,,2023-11-01,清算の結了等,,,2015-10-05,1,,,,,リンツーライン,0
1599,6050002036783,登記記録の閉鎖等,0,2023-11-09,2023-11-02,有限会社リベットマシン商会,,有限会社,茨城県,取手市,戸頭３丁目２８番１０号,,08,217,3020034,,,2023-11-02,清算の結了等,,,2015-10-05,1,,,,,リベットマシンショウカイ,0
1600,6060001019383,登記記録の閉鎖等,0,2023-11-09,2023-11-01,和楽株式会社,,株式会社,栃木県,足利市,多田木町１３１３番地１,,09,202,3294214,,,2023-11-01,合併による解散等,9060001020545,令和５年１１月１日栃木県佐野市村上町９０３番地株式会社波里（9060001020545）に合併し解散,2015-10-05,1,,,,,ワラク,0
1607,6080402006805,登記記録の閉鎖等,0,2023-11-09,2023-11-01,有限会社ヒラマツ,,有限会社,静岡県,浜松市東区,上西町５６番地の１,,22,132,4350048,,,2023-11-01,清算の結了等,,,2015-10-05,1,,,,,ヒラマツ,0
1610,6110002008982,登記記録の閉鎖等,0,2023-11-09,2023-11-02,有限会社若井工業,,有限会社,新潟県,新潟市東区,船江町１丁目２５番１１号,,15,102,9500031,,,2023-11-02,清算の結了等,,,2015-10-05,1,,,,,ワカイコウギョウ,0
1612,6110005002933,登記記録の閉鎖等,0,2023-11-09,2023-11-01,特定非営利活動法人新潟市精神障害者団体連合会,,その他の設立登記法人,新潟県,新潟市中央区,沼垂西１丁目２番２６号,,15,103,9500076,,,2023-11-01,清算の結了等,,,2015-10-05,1,,,,,ニイガタシセイシンショウガイシャダンタイレンゴウカイ,0
1630,6120103004005,登記記録の閉鎖等,0,2023-11-09,2023-11-07,合同会社Ｅｍｍａ　ｌｉｅｔｏ,,合同会社,大阪府,松原市,天美我堂７丁目５１０番地,,27,217,5800026,,,2023-11-07,合併による解散等,2120001191849,令和５年１１月１日大阪市北区万歳町３番３９－１２０９号株式会社ＰＡＬ　ＧＬＡＤ（2120001191849）に合併し解散,2021-01-25,1,,,,,エマリエット,0
1631,6120901030557,登記記録の閉鎖等,0,2023-11-09,2023-11-06,株式会社Ｄｏｕｂｌｅ　Ｊ,,株式会社,大阪府,豊中市,中桜塚２丁目１８番２号,,27,203,5610881,,,2023-11-06,清算の結了等,,,2015-10-05,1,,,,,ダブルジェイ,0
1646,6140001032543,登記記録の閉鎖等,0,2023-11-09,2023-10-31,西村電機株式会社,,株式会社,兵庫県,神戸市兵庫区,夢野町３丁目６－１２,,28,105,6520063,,,2023-10-31,清算の結了等,,,2015-10-05,1,,,,,ニシムラデンキ,0
1664,6180001101690,登記記録の閉鎖等,0,2023-11-09,2023-11-02,株式会社東海ダイワ販売,,株式会社,愛知県,瀬戸市,五位塚町１１番地の３５９,,23,204,4890031,,,2023-11-02,清算の結了等,,,2015-10-05,1,,,,,トウカイダイワハンバイ,0
1667,6180001141381,登記記録の閉鎖等,0,2023-11-09,2023-11-06,ＪＶＣサポート株式会社,,株式会社,愛知県,あま市,坂牧大塚１１３番地３,,23,237,4901115,,,2023-11-06,清算の結了等,,,2020-05-28,1,,,,,ジェーブイシーサポート,0
1681,6180302021308,登記記録の閉鎖等,0,2023-11-09,2023-10-31,有限会社荒木金型,,有限会社,愛知県,豊田市,神池町２丁目１２３６番地６７０,,23,211,4710804,,,2023-10-31,清算の結了等,,,2015-10-05,1,,,,,アラキカナガタ,0
1684,6200002015078,登記記録の閉鎖等,0,2023-11-09,2023-11-09,有限会社ライズ,,有限会社,岐阜県,安八郡神戸町,大字瀬古１１５４番地の３８,,21,381,5032318,,,2023-11-09,清算の結了等,,,2015-10-05,1,,,,,ライズ,0
1689,6240002036698,登記記録の閉鎖等,0,2023-11-09,2023-11-07,有限会社津山化粧品店,,有限会社,広島県,廿日市市,地御前３丁目２５番２４号,,34,213,7380042,,,2023-11-07,清算の結了等,,,2015-10-05,1,,,,,ツヤマケショウヒンテン,0
1690,6250001005273,登記記録の閉鎖等,0,2023-11-09,2023-11-01,カーゴサービス下関株式会社,,株式会社,山口県,下関市,生野町２丁目６番１３号,,35,201,7510832,,,2023-11-01,合併による解散等,1250001018486,令和５年１１月１日山口県下関市東大和町一丁目８番１２号カーゴサービス株式会社（1250001018486）に合併し解散,2015-10-05,1,,,,,カーゴサービスシモノセキ,0
1695,6280001005873,登記記録の閉鎖等,0,2023-11-09,2023-11-07,株式会社優,,株式会社,島根県,出雲市,大社町修理免９番地１,,32,203,6990721,,,2023-11-07,清算の結了等,,,2015-10-05,1,,,,,ユウ,0
1696,6280002004998,登記記録の閉鎖等,0,2023-11-09,2023-11-08,有限会社ワークス６０,,有限会社,島根県,松江市,玉湯町玉造９８５番地８,,32,201,6990201,,,2023-11-08,清算の結了等,,,2015-10-05,1,,,,,ワークスロクジュウ,0
1710,6310002019919,登記記録の閉鎖等,0,2023-11-09,2023-11-08,有限会社堀内水産,,有限会社,長崎県,松浦市,鷹島町阿翁浦免６７８番地１,,42,208,8594301,,,2023-11-08,清算の結了等,,,2015-10-05,1,,,,,,0
1716,6330005007415,登記記録の閉鎖等,0,2023-11-09,2023-10-30,特定非営利活動法人福起会,,その他の設立登記法人,熊本県,熊本市北区,植木町那知２９２番地,,43,105,8610154,,,2023-10-30,清算の結了等,,,2015-10-05,1,,,,,フクキカイ,0
1738,6450001001938,登記記録の閉鎖等,0,2023-11-09,2023-11-08,鶴間建設株式会社,,株式会社,北海道,旭川市,旭町二条１丁目,,01,204,0700832,,,2023-11-08,清算の結了等,,,2015-10-05,1,,,,,ツルマケンセツ,0
1742,6480002012163,登記記録の閉鎖等,0,2023-11-09,2023-11-01,有限会社ニューパックおがた,,有限会社,徳島県,板野郡上板町,神宅字西金屋８１番地１,,36,405,7711320,,,2023-11-01,清算の結了等,,,2015-10-05,1,,,,,ニューパックオガタ,0
1745,6500001019990,登記記録の閉鎖等,0,2023-11-09,2023-11-08,株式会社総合塗装野本,,株式会社,愛媛県,松山市,今在家１丁目５番１５号,,38,201,7911106,,,2023-11-08,清算の結了等,,,2016-07-27,1,,,,,ソウゴウトソウノモト,0
1759,7010003036372,登記記録の閉鎖等,0,2023-11-09,2023-11-01,合同会社ＧｌａｄｚＦｉｌｍ,,合同会社,東京都,中央区,銀座１丁目２２番１１号銀座大竹ビジデンス２階,,13,102,1040061,,,2023-11-01,清算の結了等,,,2021-11-22,1,,,,,グラズフィルム,0
1763,7010005024607,登記記録の閉鎖等,0,2023-11-09,2023-10-26,一般社団法人シャドウボックス協会,,その他の設立登記法人,東京都,文京区,千石３丁目１７番４－５０８号,,13,105,1120011,,,2023-10-26,清算の結了等,,,2015-11-13,1,,,,,シャドウボックスキョウカイ,0
1775,7010401136732,登記記録の閉鎖等,0,2023-11-09,2023-11-06,株式会社ｎｏｂｏｔｈｅｒ,,株式会社,東京都,港区,高輪３丁目１２番８号,,13,103,1080074,,,2023-11-06,清算の結了等,,,2018-02-21,1,,,,,ノボザ,0
1778,7010401167892,登記記録の閉鎖等,0,2023-11-09,2023-11-06,株式会社Ｍａｉｓｏｎ　ｄｅ　ＨＥＲＢ,,株式会社,東京都,港区,白金台５丁目５番８号ＩＳＯＬＥＴＴＡ５Ｆ,,13,103,1080071,,,2023-11-06,清算の結了等,,,2022-06-17,1,,,,,メゾンドハーブ,0
1790,7010605001237,登記記録の閉鎖等,0,2023-11-09,2023-11-01,コーポ小名木川管理組合法人,,その他の設立登記法人,東京都,江東区,北砂１丁目１１番１号,,13,108,1360073,,,2023-11-01,清算の結了等,,,2015-10-05,1,,,,,コーポオナギガワ,0
1795,7010801021253,登記記録の閉鎖等,0,2023-11-09,2023-11-01,株式会社プレミア・ケア,,株式会社,東京都,千代田区,麹町２丁目４番地１,,13,101,1020083,,,2023-11-01,清算の結了等,,,2015-10-05,1,,,,,プレミアケア,0
1829,7011601017466,登記記録の閉鎖等,0,2023-11-09,2023-11-01,株式会社アルファ,,株式会社,東京都,練馬区,田柄４丁目４６番９号,,13,120,1790073,,,2023-11-01,清算の結了等,,,2015-10-05,1,,,,,アルファ,0
1847,7020001008728,登記記録の閉鎖等,0,2023-11-09,2023-10-30,株式会社ジオフロント,,株式会社,神奈川県,横浜市都筑区,仲町台１丁目３４番３号,,14,118,2240041,,,2023-10-30,清算の結了等,,,2015-10-05,1,,,,,ジオフロント,0
1856,7020002032611,登記記録の閉鎖等,0,2023-11-09,2023-10-30,有限会社梅林塗装工業,,有限会社,神奈川県,横浜市港北区,箕輪町２丁目１７番１号,,14,109,2230051,,,2023-10-30,清算の結了等,,,2015-10-05,1,,,,,ウメバヤシトソウコウギョウ,0
1859,7020003020532,登記記録の閉鎖等,0,2023-11-09,2023-10-30,合同会社ｕｎｉｓｏｎ,,合同会社,神奈川県,川崎市川崎区,堀之内町１０番地１６ラ・メゾン川崎参番館６０２,,14,131,2100003,,,2023-10-30,清算の結了等,,,2021-09-24,1,,,,,ユニゾン,0
1877,7030001112157,登記記録の閉鎖等,0,2023-11-09,2023-10-30,株式会社Ｌａ・Ｌｉｅｎ,,株式会社,埼玉県,さいたま市浦和区,常盤７丁目１７番１０－１０２号,,11,107,3300061,,,2023-10-30,清算の結了等,,,2016-01-08,1,,,,,ラリアン,0
1884,7030002046404,登記記録の閉鎖等,0,2023-11-09,2023-10-31,有限会社旭工業,,有限会社,埼玉県,八潮市,大字木曽根８１５番地,,11,234,3400813,,,2023-10-31,清算の結了等,,,2015-10-05,1,,,,,アサヒコウギョウ,0
1893,7040003005853,登記記録の閉鎖等,0,2023-11-09,2023-11-01,重栄機工合同会社,,合同会社,千葉県,千葉市花見川区,横戸町１５９０番地４０,,12,102,2620001,,,2023-11-01,清算の結了等,,,2015-10-05,1,,,,,ジュウエイキコウ,0
1905,7060002022170,登記記録の閉鎖等,0,2023-11-09,2023-11-06,有限会社小林精肉店,,有限会社,栃木県,那須塩原市,中央町４番７号,,09,213,3250052,,,2023-11-06,清算の結了等,,,2015-10-05,1,,,,,コバヤシセイニクテン,0
1916,7080403004732,登記記録の閉鎖等,0,2023-11-09,2023-11-06,合同会社ワールドトレード,,合同会社,静岡県,浜松市東区,薬新町１８番地の４,,22,132,4350018,,,2023-11-06,清算の結了等,,,2023-02-20,1,,,,,ワールドトレード,0
1921,7120001092398,登記記録の閉鎖等,0,2023-11-09,2023-11-01,株式会社ロイヤル・ウエスト,,株式会社,大阪府,大阪市北区,中崎西１丁目８番２４号,,27,127,5300015,,,2023-11-01,清算の結了等,,,2015-10-05,1,,,,,ロイヤルウエスト,0
1922,7120001142814,登記記録の閉鎖等,0,2023-11-09,2023-11-06,ガスナビ・インジャパン株式会社,,株式会社,大阪府,大阪市西区,南堀江４丁目３番１号,,27,106,5500015,,,2023-11-06,清算の結了等,,,2015-10-05,1,,,,,ガスナビインジャパン,0
1992,7210001000401,登記記録の閉鎖等,0,2023-11-09,2023-11-01,永平寺の里株式会社,,株式会社,福井県,吉田郡永平寺町,諏訪間１号９番地,,18,322,9101222,,,2023-11-01,合併による解散等,9210001000408,令和５年１１月１日福井県吉田郡永平寺町諏訪間第１号８番地永和建設工業株式会社（9210001000408）に合併し解散,2015-10-05,1,,,,,エイヘイジノサト,0
1993,7210001008345,登記記録の閉鎖等,0,2023-11-09,2023-11-01,株式会社永和の走る基礎屋さん,,株式会社,福井県,吉田郡永平寺町,諏訪間第１号９番地,,18,322,9101222,,,2023-11-01,合併による解散等,9210001000408,令和５年１１月１日福井県吉田郡永平寺町諏訪間第１号８番地永和建設工業株式会社（9210001000408）に合併し解散,2015-10-05,1,,,,,エイワノハシルキソヤサン,0
1997,7240001044131,登記記録の閉鎖等,0,2023-11-09,2023-11-06,株式会社ビックタイム,,株式会社,広島県,広島市中区,三川町３番１号,,34,101,7300029,,,2023-11-06,清算の結了等,,,2015-10-05,1,,,,,ビックタイム,0
1999,7240005013495,登記記録の閉鎖等,0,2023-11-09,2023-10-24,医療法人社団とよしま医院,,その他の設立登記法人,広島県,大竹市,油見３丁目１９番６号,,34,211,7390612,,,2023-10-24,清算の結了等,,,2015-10-05,1,,,,,トヨシマイイン,0
2001,7260001027902,登記記録の閉鎖等,0,2023-11-09,2023-11-07,北房アグリビジネス株式会社,,株式会社,岡山県,真庭市,下呰部５６７番地１,,33,214,7161433,,,2023-11-07,清算の結了等,,,2015-10-05,1,,,,,ホクボウアグリビジネス,0
2006,7260002029030,登記記録の閉鎖等,0,2023-11-09,2023-11-06,有限会社長江メディカル,,有限会社,岡山県,津山市,山北７６３番地の１５,,33,203,7080004,,,2023-11-06,清算の結了等,,,2015-10-05,1,,,,,ナガエメディカル,0
2009,7280002005822,登記記録の閉鎖等,0,2023-11-09,2023-11-07,有限会社ニコニコ電器,,有限会社,島根県,出雲市,高松町６７０番地４,,32,203,6930053,,,2023-11-07,清算の結了等,,,2015-10-05,1,,,,,ニコニコデンキ,0
2039,7380002010531,登記記録の閉鎖等,0,2023-11-09,2023-11-02,有限会社タカラヤ,,有限会社,福島県,郡山市,小原田３丁目１番６号,,07,203,9638835,,,2023-11-02,清算の結了等,,,2015-10-05,1,,,,,タカラヤ,0
2042,7400002012228,登記記録の閉鎖等,0,2023-11-09,2023-10-31,有限会社貝舘電器産業,,有限会社,岩手県,二戸市,堀野字大畑２７番地,,03,213,0286105,,,2023-10-31,清算の結了等,,,2015-10-05,1,,,,,カイダテデンキサンギョウ,0
2055,7430005001704,登記記録の閉鎖等,0,2023-11-09,2023-11-02,医療法人社団慶生会川村皮フ科医院,,その他の設立登記法人,北海道,札幌市北区,新琴似八条７丁目１番２号,,01,102,0010908,,,2023-11-02,清算の結了等,,,2015-10-05,1,,,,,ケイセイカイカワムラヒフカイイン,0
2084,8010401145410,登記記録の閉鎖等,0,2023-11-09,2023-11-01,株式会社Ｎｅｘｔ－Ｈ,,株式会社,東京都,港区,南青山２丁目２番８号ＤＦビル７階,,13,103,1070062,,,2023-11-01,合併による解散等,5430001062826,令和５年１１月１日東京都港区南青山二丁目２番８号ＤＦビル７階株式会社Ｈ２（5430001062826）に合併し解散,2019-05-15,1,,,,,ネクストエイチ,0
2096,8010405019180,登記記録の閉鎖等,0,2023-11-09,2023-11-06,一般社団法人ＡＺＭＦＲ,,その他の設立登記法人,東京都,港区,虎ノ門５丁目１番４号,,13,103,1050001,,,2023-11-06,清算の結了等,,,2020-10-14,1,,,,,エーゼットエムエフアール,0
2099,8010405020287,登記記録の閉鎖等,0,2023-11-09,2023-11-06,一般社団法人ＮｏＣｏｄｅ普及協会,,その他の設立登記法人,東京都,中央区,日本橋茅場町２丁目４番５号茅場町２丁目ビル８階,,13,102,1030025,,,2023-11-06,清算の結了等,,,2021-10-15,1,,,,,ノーコードフキュウキョウカイ,0
2115,8011002033467,登記記録の閉鎖等,0,2023-11-09,2023-11-02,有限会社ボンド美術,,有限会社,東京都,江戸川区,北小岩７丁目２２番２３号グリーンハイツ２０１,,13,123,1330051,,,2023-11-02,清算の結了等,,,2015-10-05,1,,,,,ボンドビジュツ,0
2134,8011703002101,登記記録の閉鎖等,0,2023-11-09,2023-11-07,利府再エネ主力発電合同会社,,合同会社,東京都,江戸川区,平井７丁目３４番４０－５０５号,,13,123,1320035,,,2023-11-07,清算の結了等,,,2018-09-21,1,,,,,リフサイエネシュリョクハツデン,0
2147,8013401005030,登記記録の閉鎖等,0,2023-11-09,2023-11-06,ＴＯＰＳＯＮ・ＰＲＯ株式会社,,株式会社,東京都,多摩市,永山１丁目５番地ベルブ永山５階５０３－２号室,,13,224,2060025,,,2023-11-06,清算の結了等,,,2015-10-05,1,,,,,,0
2150,8020001100698,登記記録の閉鎖等,0,2023-11-09,2023-11-01,ＧＲＯＷＩＮ　ＡＲＲＯＷＳ株式会社,,株式会社,神奈川県,横浜市中区,不老町１丁目１番５号横浜東芝ビル９階,,14,104,2310032,,,2023-11-01,合併による解散等,4020001057892,令和５年１１月１日横浜市中区不老町一丁目１番５号横浜東芝ビル９階株式会社Ｒｓ－ＪＡＰＡＮ（4020001057892）に合併し解散,2015-10-05,1,,,,,グローインアロウズ,0
2154,8020002108963,登記記録の閉鎖等,0,2023-11-09,2023-10-27,有限会社かね本商店,,有限会社,神奈川県,横浜市神奈川区,大口通１０番地の１,,14,102,2210002,,,2023-10-27,清算の結了等,,,2023-10-24,1,,,,,カネモトショウテン,0
2163,8021002070138,登記記録の閉鎖等,0,2023-11-09,2023-11-01,有限会社ＡＹ企画,,有限会社,神奈川県,横須賀市,太田和２丁目３番１５号,,14,201,2380311,,,2023-11-01,清算の結了等,,,2015-10-05,1,,,,,エーワイキカク,0
2165,8030001055454,登記記録の閉鎖等,0,2023-11-09,2023-10-30,株式会社ひろや,,株式会社,埼玉県,川越市,大字上戸３５６番地３,,11,201,3500816,,,2023-10-30,清算の結了等,,,2015-10-05,1,,,,,ヒロヤ,0
2193,8060002006189,登記記録の閉鎖等,0,2023-11-09,2023-11-07,有限会社デコール,,有限会社,栃木県,宇都宮市,西川田南１丁目４５番２５号,,09,201,3210155,,,2023-11-07,清算の結了等,,,2015-10-05,1,,,,,デコール,0
2207,8110001025309,登記記録の閉鎖等,0,2023-11-09,2023-11-06,株式会社梅乃屋,,株式会社,新潟県,小千谷市,城内１丁目６番９号,,15,208,9470028,,,2023-11-06,清算の結了等,,,2015-10-05,1,,,,,ウメノヤ,0
2208,8110002017577,登記記録の閉鎖等,0,2023-11-09,2023-11-07,富士工業有限会社,,有限会社,新潟県,燕市,小関１４５７番地,,15,213,9591286,,,2023-11-07,清算の結了等,,,2015-10-05,1,,,,,フジコウギョウ,0
2234,8120901040802,登記記録の閉鎖等,0,2023-11-09,2023-11-07,株式会社キンダーキッズ高槻,,株式会社,大阪府,高槻市,天神町１丁目１番１号,,27,207,5691117,,,2023-11-07,合併による解散等,2120001101312,令和５年１１月１日大阪市北区池田町３番１号株式会社キンダーキッズ（2120001101312）に合併し解散,2019-01-10,1,,,,,キンダーキッズタカツキ,0
2266,8180001066602,登記記録の閉鎖等,0,2023-11-09,2023-11-01,株式会社朝熊,,株式会社,愛知県,日進市,赤池町村東９９番１,,23,230,4700126,,,2023-11-01,清算の結了等,,,2015-10-05,1,,,,,アサクマ,0
2269,8180001116605,登記記録の閉鎖等,0,2023-11-09,2023-11-06,名古屋経理代行サービス株式会社,,株式会社,愛知県,名古屋市中村区,名駅３丁目２５番９号,,23,105,4500002,,,2023-11-06,合併による解散等,1180001089122,令和５年１１月１日名古屋市中村区名駅三丁目２５番９号株式会社洪志経営（1180001089122）に合併し解散,2015-10-05,1,,,,,ナゴヤケイリダイコウサービス,0
2279,8180005006257,登記記録の閉鎖等,0,2023-11-09,2023-11-06,特定非営利活動法人中小企業マネージャー育成塾,,その他の設立登記法人,愛知県,名古屋市南区,呼続５丁目１５番１３号,,23,112,4570014,,,2023-11-06,清算の結了等,,,2015-10-05,1,,,,,チュウショウキギョウマネージャーイクセイジュク,0
2291,8240002041548,登記記録の閉鎖等,0,2023-11-09,2023-11-01,有限会社大一食販,,有限会社,広島県,福山市,山手町５丁目３０番８号,,34,207,7200092,,,2023-11-01,清算の結了等,,,2015-10-05,1,,,,,ダイイチショクハン,0
2292,8240005005533,登記記録の閉鎖等,0,2023-11-09,2023-10-25,農事組合法人日南,,その他の設立登記法人,広島県,庄原市,西城町八鳥１０４９番地３,,34,210,7295721,,,2023-10-25,清算の結了等,,,2015-10-05,1,,,,,ヒナ,0
2298,8260002023494,登記記録の閉鎖等,0,2023-11-09,2023-11-06,有限会社魚豊,,有限会社,岡山県,総社市,真壁１８７番地１９,,33,208,7191134,,,2023-11-06,清算の結了等,,,2015-10-05,1,,,,,ウオトヨ,0
2301,8290001043045,登記記録の閉鎖等,0,2023-11-09,2023-10-26,株式会社栄全,,株式会社,福岡県,大野城市,下大利１丁目５番３号,,40,219,8160952,,,2023-10-26,清算の結了等,,,2015-10-05,1,,,,,エイゼン,0
2328,8410002008604,登記記録の閉鎖等,0,2023-11-09,2023-11-02,有限会社はなむすび,,有限会社,秋田県,大館市,字桂城４５番地,,05,204,0170893,,,2023-11-02,清算の結了等,,,2015-10-05,1,,,,,ハナムスビ,0
2342,8480002012839,登記記録の閉鎖等,0,2023-11-09,2023-11-08,有限会社かさぎ,,有限会社,徳島県,阿南市,福村町南筋１３６番地１,,36,204,7740004,,,2023-11-08,清算の結了等,,,2015-10-05,1,,,,,カサギ,0
2371,9010102001812,登記記録の閉鎖等,0,2023-11-09,2023-11-06,片倉だんご有限会社,,有限会社,東京都,八王子市,片倉町３４４番地の１６,,13,201,1920914,,,2023-11-06,清算の結了等,,,2015-10-05,1,,,,,,0
2434,9011703002100,登記記録の閉鎖等,0,2023-11-09,2023-11-07,利府グリーンエナジー合同会社,,合同会社,東京都,江戸川区,平井７丁目３４番４０－５０５号,,13,123,1320035,,,2023-11-07,清算の結了等,,,2018-09-21,1,,,,,リフグリーンエナジー,0
2445,9012801016801,登記記録の閉鎖等,0,2023-11-09,2023-11-08,株式会社サポート,,株式会社,東京都,中野区,東中野４丁目４－３山内ビル４０３号室,,13,114,1640003,,,2023-11-08,清算の結了等,,,2015-10-13,1,,,,,サポート,0
2462,9020001088306,登記記録の閉鎖等,0,2023-11-09,2023-11-01,株式会社３０７＆Ｃｏ．,,株式会社,神奈川県,横浜市泉区,中田東４丁目２１番１６号,,14,116,2450013,,,2023-11-01,合併による解散等,3010401113636,令和５年１１月１日神奈川県横浜市中区山下町３７番地８－１８１１号室株式会社１１３２＆Ｃｏ．（3010401113636）に合併し解散,2015-10-05,1,,,,,サンゼロナナアンドコ,0
2466,9020002008808,登記記録の閉鎖等,0,2023-11-09,2023-10-30,有限会社八景ランドリー,,有限会社,神奈川県,横浜市金沢区,泥亀２丁目８－１６,,14,108,2360021,,,2023-10-30,清算の結了等,,,2015-10-05,1,,,,,ハッケイランドリー,0
2484,9030001128399,登記記録の閉鎖等,0,2023-11-09,2023-10-31,株式会社テイク・エス,,株式会社,埼玉県,秩父郡長瀞町,大字長瀞５３０番地１,,11,363,3691305,,,2023-10-31,清算の結了等,,,2018-11-28,1,,,,,テイクエス,0
2486,9030001136344,登記記録の閉鎖等,0,2023-11-09,2023-10-30,株式会社ヱヴィス,,株式会社,埼玉県,幸手市,大字円藤内３８９－１,,11,240,3400104,,,2023-10-30,清算の結了等,,,2020-05-11,1,,,,,エヴィス,0
2491,9030003004846,登記記録の閉鎖等,0,2023-11-09,2023-10-31,合同会社重度訪問介護サービスつむぎ,,合同会社,埼玉県,熊谷市,中奈良１３２４番地３,,11,202,3600801,,,2023-10-31,清算の結了等,,,2015-10-05,1,,,,,ジュウドホウモンカイゴサービスツムギ,0
2504,9060002024776,登記記録の閉鎖等,0,2023-11-09,2023-11-02,有限会社キムラモータース,,有限会社,栃木県,大田原市,美原２丁目３１７４番地４９,,09,210,3240047,,,2023-11-02,清算の結了等,,,2015-10-05,1,,,,,キムラモータース,0
2505,9060002024834,登記記録の閉鎖等,0,2023-11-09,2023-11-08,マネジメントアシスタンス有限会社,,有限会社,栃木県,那須郡那須町,大字豊原乙１番地１３１０,,09,407,3293224,,,2023-11-08,清算の結了等,,,2015-10-05,1,,,,,マネジメントアシスタンス,0
2536,9120901040801,登記記録の閉鎖等,0,2023-11-09,2023-11-07,株式会社キンダーキッズ豊中,,株式会社,大阪府,豊中市,本町８丁目５番２７号,,27,203,5600021,,,2023-11-07,合併による解散等,2120001101312,令和５年１１月１日大阪市北区池田町３番１号株式会社キンダーキッズ（2120001101312）に合併し解散,2019-01-10,1,,,,,キンダーキッズトヨナカ,0
2539,9122001016970,登記記録の閉鎖等,0,2023-11-09,2023-11-01,日当化成株式会社,,株式会社,大阪府,大東市,新田境町３番４６号,,27,218,5740051,,,2023-11-01,合併による解散等,2122001023825,令和５年１１月１日大阪府大東市諸福五丁目１３番１２号株式会社インフォプロセス（2122001023825）に合併し解散,2015-10-05,1,,,,,ニットウカセイ,0
2550,9140001006874,登記記録の閉鎖等,0,2023-11-09,2023-11-08,関西油脂興業株式会社,,株式会社,兵庫県,神戸市中央区,海岸通２丁目２番３号,,28,110,6500024,,,2023-11-08,清算の結了等,,,2015-10-05,1,,,,,カンサイユシコウギョウ,0
2552,9140001057158,登記記録の閉鎖等,0,2023-11-09,2023-11-06,株式会社甲南パックサンシャイン,,株式会社,兵庫県,神戸市東灘区,向洋町東２丁目７番地の５,,28,101,6580031,,,2023-11-06,清算の結了等,,,2015-10-05,1,,,,,コウナンパックサンシャイン,0
2555,9140001073312,登記記録の閉鎖等,0,2023-11-09,2023-11-06,株式会社手束組,,株式会社,兵庫県,西宮市,山口町中野１丁目５番１１号,,28,204,6511433,,,2023-11-06,清算の結了等,,,2015-10-05,1,,,,,テヅカグミ,0
2571,9180001127741,登記記録の閉鎖等,0,2023-11-09,2023-10-31,株式会社ナカジョウ,,株式会社,愛知県,東海市,荒尾町後山９番地,,23,222,4760003,,,2023-10-31,清算の結了等,,,2017-05-11,1,,,,,ナカジョウ,0
2574,9180001135100,登記記録の閉鎖等,0,2023-11-09,2023-11-07,株式会社キンダーキッズ名古屋,,株式会社,愛知県,名古屋市昭和区,広路町字隼人５番地の１,,23,107,4660834,,,2023-11-07,合併による解散等,2120001101312,令和５年１１月１日大阪市北区池田町３番１号株式会社キンダーキッズ（2120001101312）に合併し解散,2019-01-11,1,,,,,キンダーキッズナゴヤ,0
2576,9180003013972,登記記録の閉鎖等,0,2023-11-09,2023-11-01,合同会社まかしといて,,合同会社,愛知県,名古屋市北区,山田西町２丁目９８番地,,23,103,4620814,,,2023-11-01,清算の結了等,,,2015-10-05,1,,,,,マカシトイテ,0
2584,9200002024753,登記記録の閉鎖等,0,2023-11-09,2023-11-07,有限会社エンドー,,有限会社,岐阜県,中津川市,中津川２４０７番地の１４８,,21,206,5080001,,,2023-11-07,清算の結了等,,,2015-10-05,1,,,,,エンドー,0
2589,9240001035070,登記記録の閉鎖等,0,2023-11-09,2023-11-02,ＨＡＴ株式会社,,株式会社,広島県,福山市,神村町６８９番地２,,34,207,7290112,,,2023-11-02,清算の結了等,,,2015-10-05,1,,,,,エイチエイティー,0
2602,9250002000097,登記記録の閉鎖等,0,2023-11-09,2023-11-08,有限会社アークインテリア,,有限会社,山口県,山口市,小郡下郷１４６１番地の１,,35,203,7540002,,,2023-11-08,清算の結了等,,,2015-10-05,1,,,,,アークインテリア,0
2611,9290802015225,登記記録の閉鎖等,0,2023-11-09,2023-11-07,有限会社福屋設計事務所,,有限会社,福岡県,北九州市八幡西区,陣山１丁目２番３－４０３号,,40,109,8060012,,,2023-11-07,清算の結了等,,,2015-10-05,1,,,,,フクヤセッケイジムショ,0
2614,9310002008282,登記記録の閉鎖等,0,2023-11-09,2023-11-08,有限会社満設計,,有限会社,長崎県,西彼杵郡長与町,斉藤郷８３８番地３,,42,307,8512129,,,2023-11-08,清算の結了等,,,2015-10-05,1,,,,,ミツルセッケイ,0
2617,9350001012100,登記記録の閉鎖等,0,2023-11-09,2023-10-31,株式会社高千穂シラスアグリ研究所,,株式会社,宮崎県,都城市,山田町中霧島４４８０番地１０,,45,202,8894602,,,2023-10-31,合併による解散等,8350001015748,令和５年１０月３１日宮崎県都城市山田町中霧島４４７７番地株式会社新留昌泰（8350001015748）に合併し解散,2015-10-05,1,,,,,タカチホシラスアグリケンキュウジョ,0
2635,9410001011632,登記記録の閉鎖等,0,2023-11-09,2023-11-01,株式会社八兵衛,,株式会社,秋田県,横手市,三枚橋２丁目２番１０号,,05,203,0130069,,,2023-11-01,合併による解散等,5410001008871,令和５年１１月１日秋田県横手市三枚橋二丁目２番１０号株式会社友豊自動車整備工場（5410001008871）に合併し解散,2017-08-18,1,,,,,ハチベエ,0
2636,9410002007407,登記記録の閉鎖等,0,2023-11-09,2023-11-02,有限会社長倉ゴルフパーク,,有限会社,秋田県,にかほ市,象潟町字上狐森９番地１８９,,05,214,0180103,,,2023-11-02,清算の結了等,,,2015-10-05,1,,,,,ナガクラゴルフパーク,0
