sequenceNumber,corporateNumber,process,correct,updateDate,changeDate,name,nameImageId,kind,prefectureName,cityName,streetNumber,addressImageId,prefectureCode,cityCode,postCode,addressOutside,addressOutsideImageId,closeDate,closeCause,successorCorporateNumber,changeCause,assignmentDate,latest,enName,enPrefectureName,enCityName,enAddressOutside,furigana,hihyoji
18,1010001239593,新規,0,2023-10-26,2023-10-26,株式会社銀座つかさ,,株式会社,東京都,中央区,銀座６丁目６番１９号,,13,102,1040061,,,,,,,2023-10-26,1,,,,,ギンザツカサ,0
28,1010401178103,新規,0,2023-10-26,2023-10-26,株式会社ｍａＸアドバイザリー,,株式会社,東京都,港区,浜松町１丁目１２－８横須賀第八ビル３階,,13,103,1050013,,,,,,,2023-10-26,1,,,,,マックスアドバイザリー,0
29,1010401178111,新規,0,2023-10-26,2023-10-26,株式会社Ｄ．Ｙフォト企画,,株式会社,東京都,港区,三田１丁目１１番１９号小宮ビル２Ｆ,,13,103,1080073,,,,,,,2023-10-26,1,,,,,ディーワイフォトキカク,0
30,1010401178136,新規,0,2023-10-26,2023-10-26,アトサキ株式会社,,株式会社,東京都,港区,南青山３丁目１番３６号青山丸竹ビル６Ｆ,,13,103,1070062,,,,,,,2023-10-26,1,,,,,アトサキ,0
31,1010401178160,新規,0,2023-10-26,2023-10-26,株式会社青山外苑不動産,,株式会社,東京都,港区,北青山２丁目１２番１２号ｓｕｇａｒ４階,,13,103,1070061,,,,,,,2023-10-26,1,,,,,アオヤマガイエンフドウサン,0
32,1010402009034,新規,0,2023-10-26,2023-10-26,有限会社藤伸商事,,有限会社,東京都,港区,六本木７丁目１２番９号,,13,103,1060032,,,,,,,2023-10-26,1,,,,,,0
34,1010405022604,新規,0,2023-10-26,2023-10-26,特定非営利活動法人なな色,,その他の設立登記法人,東京都,港区,西新橋３丁目５番９号ＨＯＹＯ新虎ビル５階,,13,103,1050003,,,,,,,2023-10-26,1,,,,,ナナイロ,0
38,1010601064045,新規,0,2023-10-26,2023-10-26,株式会社絆,,株式会社,東京都,江東区,森下２丁目２４番３号,,13,108,1350004,,,,,,,2023-10-26,1,,,,,キズナ,0
39,1010603010435,新規,0,2023-10-26,2023-10-26,合同会社アウンゼー,,合同会社,東京都,江東区,大島５丁目４４番１３号,,13,108,1360072,,,,,,,2023-10-26,1,,,,,アウンゼー,0
48,1011001157793,新規,0,2023-10-26,2023-10-26,Ｅｍｉｎａ株式会社,,株式会社,東京都,渋谷区,富ヶ谷２丁目１３番２１－２０５号,,13,113,1510063,,,,,,,2023-10-26,1,,,,,エミナ,0
50,1011003017764,新規,0,2023-10-26,2023-10-26,合同会社社員食堂,,合同会社,東京都,渋谷区,西原１丁目４１番３号,,13,113,1510066,,,,,,,2023-10-26,1,,,,,シャインショクドウ,0
51,1011003017772,新規,0,2023-10-26,2023-10-26,Ｇｌｏｂａｌ　Ｌｉｖｉｎｇ合同会社,,合同会社,東京都,渋谷区,道玄坂１丁目１０番８号渋谷道玄坂東急ビル２Ｆ－Ｃ,,13,113,1500043,,,,,,,2023-10-26,1,,,,,グローバルリビング,0
52,1011003017789,新規,0,2023-10-26,2023-10-26,合同会社ｂｉｇ,,合同会社,東京都,渋谷区,神宮前６丁目２３番４号桑野ビル２階,,13,113,1500001,,,,,,,2023-10-26,1,,,,,ビッグ,0
53,1011003017814,新規,0,2023-10-26,2023-10-26,ＮＯＭＵ　ＥＮＴＥＲＰＲＩＳＥ合同会社,,合同会社,東京都,渋谷区,神宮前６丁目２３番４号桑野ビル２階,,13,113,1500001,,,,,,,2023-10-26,1,,,,,ノムエンタープライズ,0
69,1011601027223,新規,0,2023-10-26,2023-10-26,株式会社蒼葵,,株式会社,東京都,練馬区,羽沢１丁目７番７号第二ゼネラルビル２Ｆ,,13,120,1760003,,,,,,,2023-10-26,1,,,,,ソウキ,0
72,1011801043235,新規,0,2023-10-26,2023-10-26,株式会社ステップウェーブ,,株式会社,東京都,足立区,梅島２丁目３８番１６号梅島ビル１階,,13,121,1210816,,,,,,,2023-10-26,1,,,,,ステップウェーブ,0
73,1011801043243,新規,0,2023-10-26,2023-10-26,株式会社ＳＥＶＥＮ　ＷＯＲＫＳ,,株式会社,東京都,足立区,佐野２丁目６番９号,,13,121,1210053,,,,,,,2023-10-26,1,,,,,セブンワークス,0
77,1011803005902,新規,0,2023-10-26,2023-10-26,ＡＫ合同会社,,合同会社,東京都,足立区,新田３丁目３６番２－１３０２号,,13,121,1230865,,,,,,,2023-10-26,1,,,,,,0
84,1012403006209,新規,0,2023-10-26,2023-10-26,ＺＯＮＮＹ合同会社,,合同会社,東京都,武蔵野市,吉祥寺南町１丁目６番１８‐７０６号ルネ吉祥寺,,13,203,1800003,,,,,,,2023-10-26,1,,,,,ゾニー,0
86,1012801022724,新規,0,2023-10-26,2023-10-26,株式会社アンカーネットカンパニー,,株式会社,東京都,国立市,北３丁目２３番の８,,13,215,1860001,,,,,,,2023-10-26,1,,,,,アンカーネットカンパニー,0
89,1013305003533,新規,0,2023-10-26,2023-10-26,医療法人社団大藏会,,その他の設立登記法人,東京都,豊島区,目白３丁目５番１２号目白コアビル１階,,13,116,1710031,,,,,,,2023-10-26,1,,,,,オオクラカイ,0
99,1021001080490,新規,0,2023-10-26,2023-10-26,株式会社ＦＪ　ＴＥＲＲＡＣＥ,,株式会社,神奈川県,三浦郡葉山町,堀内３９４番地の２１,,14,301,2400112,,,,,,,2023-10-26,1,,,,,エフジェイテラス,0
103,1021003013705,新規,0,2023-10-26,2023-10-26,合同会社ｕｃａ　ｌａｂ,,合同会社,神奈川県,海老名市,大谷北４丁目１番３５－３０１号,,14,215,2430419,,,,,,,2023-10-26,1,,,,,ユカラボ,0
112,1030001156845,新規,0,2023-10-26,2023-10-26,ポップエイト株式会社,,株式会社,埼玉県,さいたま市大宮区,大成町３丁目１４７番地２０２,,11,103,3300852,,,,,,,2023-10-26,1,,,,,ポップエイト,0
113,1030001156861,新規,0,2023-10-26,2023-10-26,株式会社ミナミワークス,,株式会社,埼玉県,和光市,南１丁目１２番７２号,,11,229,3510104,,,,,,,2023-10-26,1,,,,,ミナミワークス,0
129,1040001130626,新規,0,2023-10-26,2023-10-26,株式会社ＤＯＲＡ,,株式会社,千葉県,佐倉市,下志津原１５９－５,,12,212,2850842,,,,,,,2023-10-26,1,,,,,ドラ,0
130,1040001130675,新規,0,2023-10-26,2023-10-26,株式会社ＩＮＤＯＲＡ,,株式会社,千葉県,八街市,八街へ１９９番地１６４８,,12,230,2891113,,,,,,,2023-10-26,1,,,,,インドラ,0
131,1040001130691,新規,0,2023-10-26,2023-10-26,ＹＳＭ株式会社,,株式会社,千葉県,市原市,国分寺台中央５丁目９番地７,,12,219,2900073,,,,,,,2023-10-26,1,,,,,ワイエスエム,0
132,1040001130700,新規,0,2023-10-26,2023-10-26,株式会社エージーオー,,株式会社,千葉県,富津市,西大和田１２４６番地１０,,12,226,2930035,,,,,,,2023-10-26,1,,,,,エージーオー,0
133,1040001130709,新規,0,2023-10-26,2023-10-26,株式会社日本プラチナケア,,株式会社,千葉県,千葉市稲毛区,山王町５０番１５号,,12,103,2630002,,,,,,,2023-10-26,1,,,,,ニホンプラチナケア,0
139,1050001053702,新規,0,2023-10-26,2023-10-26,株式会社義輝塗装,,株式会社,茨城県,神栖市,神栖１丁目１８番２５号レインテッドハウスＣ－１０１,,08,232,3140143,,,,,,,2023-10-26,1,,,,,ヨシキトソウ,0
141,1050003007870,新規,0,2023-10-26,2023-10-26,合同会社綸,,合同会社,茨城県,取手市,取手２丁目１０番１５号ナガタニビル１階Ｂ室,,08,217,3020004,,,,,,,2023-10-26,1,,,,,イト,0
143,1050005013347,新規,0,2023-10-26,2023-10-26,一般社団法人ＭＦＡ‐Ｂ＆Ｓ,,その他の設立登記法人,茨城県,水戸市,宮町１丁目７番４４号ＣＯＭＢＯＸ３１０、１階,,08,201,3100015,,,,,,,2023-10-26,1,,,,,エムエフエービーアンドエス,0
150,1070001041028,新規,0,2023-10-26,2023-10-26,株式会社中川工業,,株式会社,群馬県,前橋市,西大室町１６０８番地５,,10,201,3792104,,,,,,,2023-10-26,1,,,,,ナカガワコウギョウ,0
173,1120001259135,新規,0,2023-10-26,2023-10-26,株式会社シークエンス,,株式会社,大阪府,大阪市東住吉区,南田辺５丁目１７番１５号,,27,121,5460033,,,,,,,2023-10-26,1,,,,,シークエンス,0
178,1120101068428,新規,0,2023-10-26,2023-10-26,株式会社Ｍ　ＨＯＰＥ,,株式会社,大阪府,松原市,天美東７丁目１２番５－１１０６号,,27,217,5800032,,,,,,,2023-10-26,1,,,,,エムホープ,0
179,1120101068436,新規,0,2023-10-26,2023-10-26,イーエフ株式会社,,株式会社,大阪府,堺市堺区,柏木町１丁１番１１号シャトー富士２Ｆ,,27,141,5900837,,,,,,,2023-10-26,1,,,,,イーエフ,0
180,1120103005511,新規,0,2023-10-26,2023-10-26,合同会社風,,合同会社,大阪府,堺市東区,日置荘北町３丁２７番１２号,,27,143,5998111,,,,,,,2023-10-26,1,,,,,カゼ,0
181,1120901048273,新規,0,2023-10-26,2023-10-26,株式会社Ｅｅｖｅ,,株式会社,大阪府,池田市,石橋２丁目１８－２野玉坂会館１階３号,,27,204,5630032,,,,,,,2023-10-26,1,,,,,イーヴィ,0
187,1130001075507,新規,0,2023-10-26,2023-10-26,株式会社ＭＩＹＡＢＩＹＡＫＡ,,株式会社,京都府,京都市上京区,芦山寺通千本東入三丁目戌亥町１５１番地,00132424,26,102,6020000,,,,,,,2023-10-26,1,,,,,ミヤビヤカ,0
188,1130001075556,新規,0,2023-10-26,2023-10-26,株式会社ＫＮＫ,,株式会社,京都府,京都市山科区,西野野色町１５－３５,,26,110,6078353,,,,,,,2023-10-26,1,,,,,ケーエヌケー,0
193,1140001132133,新規,0,2023-10-26,2023-10-26,株式会社篠山測量設計,,株式会社,兵庫県,丹波篠山市,西新町１７６番地１,,28,221,6692334,,,,,,,2023-10-26,1,,,,,ササヤマソクリョウセッケイ,0
194,1140001132158,新規,0,2023-10-26,2023-10-26,株式会社Ｎｅｗ　Ｓｈａｒｐ,,株式会社,兵庫県,神戸市中央区,港島９丁目１１番地の１ＳＫビル３０４号室,,28,110,6500045,,,,,,,2023-10-26,1,,,,,ニューシャープ,0
200,1140003019717,新規,0,2023-10-26,2023-10-26,合同会社ｓｔａｒｔ　ｕｐ,,合同会社,兵庫県,姫路市,豊沢町１２９番地あさひビル２階,,28,201,6700964,,,,,,,2023-10-26,1,,,,,スタートアップ,0
208,1180001158653,新規,0,2023-10-26,2023-10-26,株式会社ＦＬＥＵＲ,,株式会社,愛知県,名古屋市昭和区,花見通３丁目１６番地の１,,23,107,4660831,,,,,,,2023-10-26,1,,,,,フルール,0
212,1180301037937,新規,0,2023-10-26,2023-10-26,株式会社Ｙプロジェクト,,株式会社,愛知県,刈谷市,新富町２丁目１１番地エルグランデ刈谷セントラルコート５０２号,,23,210,4480045,,,,,,,2023-10-26,1,,,,,ワイプロジェクト,0
213,1180301037945,新規,0,2023-10-26,2023-10-26,株式会社Ｗｉｚａｒｄ,,株式会社,愛知県,西尾市,上町泡原１６番地１,,23,213,4450894,,,,,,,2023-10-26,1,,,,,ウィザード,0
214,1180303005875,新規,0,2023-10-26,2023-10-26,ｑｕｅｒｏｆｕｎｅ合同会社,,合同会社,愛知県,豊川市,中部町２丁目６番地２,,23,207,4420876,,,,,,,2023-10-26,1,,,,,クロフネ,0
237,1290001103516,新規,0,2023-10-26,2023-10-26,Ｔｅｒｍｉｎａｌ　Ｋ株式会社,,株式会社,福岡県,福岡市博多区,博多駅前１丁目２３番２号ＰａｒｋＦｒｏｎｔ博多駅前１丁目５Ｆ－Ｂ,,40,132,8120011,,,,,,,2023-10-26,1,,,,,ターミナルケー,0
245,1290803004531,新規,0,2023-10-26,2023-10-26,合同会社福岡にちりん堂,,合同会社,福岡県,北九州市戸畑区,中原東２丁目７番１７－２０８号,,40,105,8040012,,,,,,,2023-10-26,1,,,,,フクオカニチリンドウ,0
249,1310003004668,新規,0,2023-10-26,2023-10-26,合同会社中道建築,,合同会社,長崎県,長崎市,高尾町４１番７号,,42,201,8528111,,,,,,,2023-10-26,1,,,,,ナカミチケンチク,0
252,1320001020113,新規,0,2023-10-26,2023-10-26,株式会社ＣＨＩＬＬ　ＰＬＡＣＥ,,株式会社,大分県,別府市,扇山２組１,,44,202,8740849,,,,,,,2023-10-26,1,,,,,チルプレイス,0
257,1330001031398,新規,0,2023-10-26,2023-10-26,株式会社村井商店,,株式会社,熊本県,熊本市中央区,中唐人町２７,,43,101,8600028,,,,,,,2023-10-26,1,,,,,ムライショウテン,0
261,1330003010037,新規,0,2023-10-26,2023-10-26,合同会社ＳＧＲ,,合同会社,熊本県,熊本市南区,近見８丁目１３番６２－２０６号ビレッジハウス近見２号棟,,43,104,8614101,,,,,,,2023-10-26,1,,,,,エスジーアール,0
262,1330003010045,新規,0,2023-10-26,2023-10-26,合同会社ＳＭＩＬＥ,,合同会社,熊本県,熊本市中央区,八王寺町５１番１７－２０５号,,43,101,8600831,,,,,,,2023-10-26,1,,,,,スマイル,0
263,1330003010053,新規,0,2023-10-26,2023-10-26,合同会社Ａ‐２,,合同会社,熊本県,合志市,豊岡１９００番地１８８,,43,216,8611115,,,,,,,2023-10-26,1,,,,,エーツー,0
266,1360003013409,新規,0,2023-10-26,2023-10-26,Ｊ‐ＳＩＭＭコンサルティング合同会社,,合同会社,沖縄県,中頭郡中城村,字安里１１番地１,,47,328,9012407,,,,,,,2023-10-26,1,,,,,ジェイシムコンサルティング,0
282,1430003015546,新規,0,2023-10-26,2023-10-26,合同会社ままたろう,,合同会社,北海道,岩見沢市,八条西１８丁目２４番地,,01,210,0680028,,,,,,,2023-10-26,1,,,,,ママタロウ,0
283,1430003015554,新規,0,2023-10-26,2023-10-26,ＳＫＰＤ合同会社,,合同会社,北海道,虻田郡倶知安町,南四条西２丁目２番地７７,,01,400,0440034,,,,,,,2023-10-26,1,,,,,エスケーピーディー,0
284,1430003015562,新規,0,2023-10-26,2023-10-26,合同会社Ｗｉｌｌｏｗ　Ｓｗａｍｐ,,合同会社,北海道,石狩郡当別町,太美町１４９８番地５６,,01,303,0613776,,,,,,,2023-10-26,1,,,,,ウィロウスワンプ,0
289,1480001012268,新規,0,2023-10-26,2023-10-26,野口電気通信株式会社,,株式会社,徳島県,徳島市,八万町橋本２１４番地の３,,36,201,7708078,,,,,,,2023-10-26,1,,,,,ノグチデンキツウシン,0
291,1700150121433,新規,0,2023-10-26,2023-10-26,Ｇｕａｎｇｚｈｏｕ　Ａｉｋｅｓｉｎｅｎｇ　Ｄｉａｎｚｉｓｈａｎｇｗｕ　Ｙｏｕｘｉａｎｇｏｎｇｓｉ,,外国会社等,,,,,,,,Ｇｕａｎｇｚｈｏｕｓｈｉ　Ｂａｉｙｕｎｑｕ　Ｙｏｎｇｐｉｎｇｊｉｅ　Ｄｏｎｇｐｉｎｇｈｅｎｇｇａｎｇｘｉｎｚｈｏｎｇｊｉｅ　９ｈａｏ　Ａｄｏｎｇ　１２５ｓｈｉ　Ｅ０３５,,,,,,2023-10-26,1,,,,,グワンジョウアイコースーノンディエンズーシャンウーヨウシエンゴンスー,0
292,1700150121441,新規,0,2023-10-26,2023-10-26,ＳｈｅｎＺｈｅｎ　ＹｉｎｇＰａｉ　ＫｅＪｉ　ＹｏｕＸｉａｎ　ＧｏｎｇＳｉ,,外国会社等,,,,,,,,Ｒｏｏｍ４Ｇ１１８，４Ｆｌｏｏｒ　Ｅｒ　Ｈａｏ　Ｇｕａｎ　Ｈｕａ　Ｎａｎ　Ｃｈｅｎｇ，Ｎｏ．１　Ｈｕａ　Ｎａｎ　Ｄａ　Ｄａｏ，Ｐｉｎｇｈｕ，ＬｏｎｇＧａｎｇ，ＳｈｅｎＺｈｅｎ,,,,,,2023-10-26,1,,,,,シンセンエイハカギユウゲンコウシ,0
305,2010001239592,新規,0,2023-10-26,2023-10-26,株式会社ＬＡＣ,,株式会社,東京都,中央区,銀座５丁目１５－１南海東京ビルＢ１,,13,102,1040061,,,,,,,2023-10-26,1,,,,,エルエーシー,0
306,2010005037431,新規,0,2023-10-26,2023-10-26,一般社団法人ティンバー,,その他の設立登記法人,東京都,中央区,日本橋１丁目４番１号,,13,102,1030027,,,,,,,2023-10-26,1,,,,,ティンバー,0
313,2010403031093,新規,0,2023-10-26,2023-10-26,合同会社Ｆｉｌｌ　ｄｅｓｉｒｅ,,合同会社,東京都,港区,北青山１丁目３番１号アールキューブ青山３階,,13,103,1070061,,,,,,,2023-10-26,1,,,,,フィルデザイアー,0
314,2010403031242,新規,0,2023-10-26,2023-10-26,合同会社フロントリフト,,合同会社,東京都,港区,浜松町２丁目２番１５号浜松町ダイヤビル２Ｆ,,13,103,1050013,,,,,,,2023-10-26,1,,,,,フロントリフト,0
321,2010601064036,新規,0,2023-10-26,2023-10-26,株式会社リブレスト,,株式会社,東京都,江東区,豊洲５丁目１番１３－３５０２号,,13,108,1350061,,,,,,,2023-10-26,1,,,,,リブレスト,0
328,2010803004731,新規,0,2023-10-26,2023-10-26,合同会社アンビション,,合同会社,東京都,大田区,大森東１丁目１―１５ガリシア平和島７０２,,13,111,1430012,,,,,,,2023-10-26,1,,,,,アンビション,0
336,2011003017722,新規,0,2023-10-26,2023-10-26,合同会社ｓａｉ,,合同会社,東京都,目黒区,目黒１丁目３番２１－５０６号,,13,110,1530063,,,,,,,2023-10-26,1,,,,,サイ,0
339,2011403004163,新規,0,2023-10-26,2023-10-26,合同会社藤智,,合同会社,東京都,板橋区,赤塚２丁目９番１号,,13,119,1750092,,,,,,,2023-10-26,1,,,,,トウチ,0
342,2011601027230,新規,0,2023-10-26,2023-10-26,ＢＰＭＹ株式会社,,株式会社,東京都,練馬区,上石神井３丁目２８番１０号コモアルタ１０１,,13,120,1770044,,,,,,,2023-10-26,1,,,,,ビーピーエムワイ,0
344,2011701026702,新規,0,2023-10-26,2023-10-26,思武株式会社,,株式会社,東京都,江戸川区,本一色２丁目１８－２,,13,123,1330044,,,,,,,2023-10-26,1,,,,,シブ,0
347,2011801043242,新規,0,2023-10-26,2023-10-26,株式会社エイヌジョナス,,株式会社,東京都,葛飾区,東四つ木４丁目４８番１号アマンレジデンス２０１号,,13,122,1240014,,,,,,,2023-10-26,1,,,,,エイヌジョナス,0
348,2011803005901,新規,0,2023-10-26,2023-10-26,かわせみアセット合同会社,,合同会社,東京都,葛飾区,東水元５丁目４１番１３号,,13,122,1250033,,,,,,,2023-10-26,1,,,,,カワセミアセット,0
351,2013101009279,新規,0,2023-10-26,2023-10-26,ＦＡＮＧＳ　ＮＥＸＴ株式会社,,株式会社,東京都,青梅市,友田町４丁目２７８番地の２３,,13,205,1980051,,,,,,,2023-10-26,1,,,,,ファングスネクスト,0
363,2020001154072,新規,0,2023-10-26,2023-10-26,株式会社ｎｏｏｍ＆ｃｏ．,,株式会社,神奈川県,川崎市中原区,今井仲町９番３４号カーサ冨岡Ｂ１０１,,14,133,2110065,,,,,,,2023-10-26,1,,,,,ノームアンドコー,0
364,2020001154080,新規,0,2023-10-26,2023-10-26,株式会社ＥＮＩＸＩＳ,,株式会社,神奈川県,横浜市港南区,芹が谷５丁目２９番１９号,,14,111,2330006,,,,,,,2023-10-26,1,,,,,エニシス,0
365,2020001154155,新規,0,2023-10-26,2023-10-26,株式会社プロメテウス,,株式会社,神奈川県,川崎市幸区,新川崎７番７号ＫＢＩＣ本館２３３,,14,132,2120032,,,,,,,2023-10-26,1,,,,,プロメテウス,0
377,2021001080523,新規,0,2023-10-26,2023-10-26,株式会社Ｄ‐デザイン,,株式会社,神奈川県,座間市,相武台３丁目１７番５号ファミール１０１号,,14,216,2520011,,,,,,,2023-10-26,1,,,,,ディーデザイン,0
378,2021001080556,新規,0,2023-10-26,2023-10-26,株式会社ライズテック,,株式会社,神奈川県,相模原市中央区,淵野辺本町２丁目１４番２８号１０８,,14,152,2520202,,,,,,,2023-10-26,1,,,,,ライズテック,0
380,2021003013720,新規,0,2023-10-26,2023-10-26,合同会社ＡＣＴ,,合同会社,神奈川県,厚木市,飯山南５丁目１０番１９号,,14,212,2430218,,,,,,,2023-10-26,1,,,,,アクト,0
381,2021003013729,新規,0,2023-10-26,2023-10-26,合同会社ファーストＳＫＹ,,合同会社,神奈川県,平塚市,松風町２３番３１号３Ｆ,,14,203,2540812,,,,,,,2023-10-26,1,,,,,ファーストスカイ,0
385,2030001156844,新規,0,2023-10-26,2023-10-26,株式会社Ｉｎｌｉｇｈｔ,,株式会社,埼玉県,加須市,川口３丁目７－７,,11,210,3470014,,,,,,,2023-10-26,1,,,,,インライト,0
386,2030001156852,新規,0,2023-10-26,2023-10-26,ｓｏｙｏ株式会社,,株式会社,埼玉県,北本市,中央２丁目６７番地２－２Ｆ,,11,233,3640031,,,,,,,2023-10-26,1,,,,,ソヨ,0
387,2030003022862,新規,0,2023-10-26,2023-10-26,ｒｅｄ　ｖｅｉｌ合同会社,,合同会社,埼玉県,さいたま市浦和区,元町２丁目１番３号ライオンズプラザ浦和元町シティ２０２,,11,107,3300073,,,,,,,2023-10-26,1,,,,,レッドベール,0
388,2030003022870,新規,0,2023-10-26,2023-10-26,ＡＡＳＴＨＡ合同会社,,合同会社,埼玉県,八潮市,大字南後谷１２番地２メゾン・ル・シャトー１０６,,11,234,3400831,,,,,,,2023-10-26,1,,,,,アースタ,0
397,2040001130699,新規,0,2023-10-26,2023-10-26,株式会社デューマタン,,株式会社,千葉県,柏市,明原４丁目１２－２１－２Ｆ,,12,217,2770843,,,,,,,2023-10-26,1,,,,,デューマタン,0
401,2040003023629,新規,0,2023-10-26,2023-10-26,東京ビジネスリサーチ合同会社,,合同会社,千葉県,千葉市美浜区,打瀬２丁目１９番地１３－６１７,,12,106,2610013,,,,,,,2023-10-26,1,,,,,トウキョウビジネスリサーチ,0
402,2040005022174,新規,0,2023-10-26,2023-10-26,一般社団法人ジュニアユースサポート,,その他の設立登記法人,千葉県,木更津市,矢那４４９９番地１１,,12,206,2920812,,,,,,,2023-10-26,1,,,,,ジュニアユースサポート,0
404,2050001053701,新規,0,2023-10-26,2023-10-26,株式会社ファストサービス,,株式会社,茨城県,水戸市,内原町７６３番地の７,,08,201,3190315,,,,,,,2023-10-26,1,,,,,ファストサービス,0
411,2070001041019,新規,0,2023-10-26,2023-10-26,ＢＵＮＫＥＲ　ＣＯＲＰ株式会社,,株式会社,群馬県,邑楽郡大泉町,大字坂田２６１番地,,10,524,3700532,,,,,,,2023-10-26,1,,,,,,0
419,2090001018378,新規,0,2023-10-26,2023-10-26,エックスクリエイターズ株式会社,,株式会社,山梨県,中央市,山之神流通団地二丁目５番１号,,19,214,4093845,,,,,,,2023-10-26,1,,,,,エックスクリエイターズ,0
422,2100001036923,新規,0,2023-10-26,2023-10-26,ラ・メゾン・リュスティック株式会社,,株式会社,長野県,小諸市,大字森山９１４番地,,20,208,3840085,,,,,,,2023-10-26,1,,,,,ラメゾンリュスティック,0
423,2100005013084,新規,0,2023-10-26,2023-10-26,医療法人樹,,その他の設立登記法人,長野県,松本市,蟻ケ崎５丁目１番３号,,20,202,3900861,,,,,,,2023-10-26,1,,,,,イツキ,0
432,2120001259142,新規,0,2023-10-26,2023-10-26,株式会社ＳＮ商事,,株式会社,大阪府,大阪市住之江区,粉浜西２丁目３番３４号,,27,125,5590007,,,,,,,2023-10-26,1,,,,,エスエヌショウジ,0
433,2120001259225,新規,0,2023-10-26,2023-10-26,株式会社ＴＡＩＨＯ,,株式会社,大阪府,大阪市西淀川区,柏里１丁目１１番１６－５０３号,,27,113,5550022,,,,,,,2023-10-26,1,,,,,タイホウ,0
434,2120001259233,新規,0,2023-10-26,2023-10-26,株式会社Ｅｉｇｈｔ,,株式会社,大阪府,大阪市中央区,久太郎町４丁目２番１５号,,27,128,5410056,,,,,,,2023-10-26,1,,,,,エイト,0
435,2120001259266,新規,0,2023-10-26,2023-10-26,尚藝書道株式会社,,株式会社,大阪府,大阪市西区,本田３丁目１－１９－４０５,,27,106,5500022,,,,,,,2023-10-26,1,,,,,ショウゲイショドウ,0
437,2120101068435,新規,0,2023-10-26,2023-10-26,北花田津村不動産株式会社,,株式会社,大阪府,堺市北区,常磐町２丁９５番地,,27,146,5918001,,,,,,,2023-10-26,1,,,,,キタハナダツムラフドウサン,0
440,2120901048272,新規,0,2023-10-26,2023-10-26,株式会社ＡＩＩＸ,,株式会社,大阪府,豊中市,本町１丁目１０番１号,,27,203,5600021,,,,,,,2023-10-26,1,,,,,エーアイエックス,0
443,2130001075464,新規,0,2023-10-26,2023-10-26,祇園物語株式会社,,株式会社,京都府,京都市東山区,祇園町南側５７０番地１１９,,26,105,6050074,,,,,,,2023-10-26,1,,,,,ギオンモノガタリ,0
448,2140001132108,新規,0,2023-10-26,2023-10-26,石原農園株式会社,,株式会社,兵庫県,姫路市,飾東町八重畑７１２番地,,28,201,6710208,,,,,,,2023-10-26,1,,,,,イシハラノウエン,0
449,2140001132132,新規,0,2023-10-26,2023-10-26,株式会社ＮｏｖａＷｏｒｋｓ,,株式会社,兵庫県,西宮市,名塩３丁目６番２１号,,28,204,6691147,,,,,,,2023-10-26,1,,,,,ノヴァワークス,0
450,2140001132165,新規,0,2023-10-26,2023-10-26,株式会社ＳＩＴ,,株式会社,兵庫県,神戸市東灘区,鴨子ヶ原３丁目２５番４号,,28,101,6580064,,,,,,,2023-10-26,1,,,,,シット,0
458,2180001158685,新規,0,2023-10-26,2023-10-26,株式会社ＨＥＵＳＣ,,株式会社,愛知県,小牧市,大字小牧原新田１１２６番地７号,,23,219,4850012,,,,,,,2023-10-26,1,,,,,ヒュスク,0
460,2180005020404,新規,0,2023-10-26,2023-10-26,特定非営利活動法人エデン,,その他の設立登記法人,愛知県,名古屋市中区,新栄１丁目２０番８号東新コーポ６Ｆ号,,23,106,4600007,,,,,,,2023-10-26,1,,,,,エデン,0
461,2180301037928,新規,0,2023-10-26,2023-10-26,株式会社ＴＡＫＵＭＡ,,株式会社,愛知県,岡崎市,北野町字一番訳５番地１,,23,202,4440951,,,,,,,2023-10-26,1,,,,,タクマ,0
462,2180301037936,新規,0,2023-10-26,2023-10-26,遊家工房株式会社,,株式会社,愛知県,豊田市,上郷町市場１４６番地１,,23,211,4701218,,,,,,,2023-10-26,1,,,,,ユウカコウボウ,0
465,2190001030843,新規,0,2023-10-26,2023-10-26,株式会社ｔｏｎａｒｉ,,株式会社,三重県,四日市市,羽津町２２番３７号エール霞Ｂ号,,24,202,5100017,,,,,,,2023-10-26,1,,,,,トナリ,0
476,2240001062328,新規,0,2023-10-26,2023-10-26,美成商事株式会社,,株式会社,広島県,東広島市,高屋町中島１０８８－１７７,,34,212,7392125,,,,,,,2023-10-26,1,,,,,ミナリショウジ,0
487,2270001008864,新規,0,2023-10-26,2023-10-26,株式会社ｏａｓｉｓ,,株式会社,鳥取県,鳥取市,江津１２１０－１０８,,31,201,6800901,,,,,,,2023-10-26,1,,,,,オアシス,0
495,2290003014537,新規,0,2023-10-26,2023-10-26,合同会社金丸オートモバイル,,合同会社,福岡県,朝倉市,甘木１４６２番地１,,40,228,8380068,,,,,,,2023-10-26,1,,,,,カネマルオートモバイル,0
501,2330003010036,新規,0,2023-10-26,2023-10-26,合同会社ｗｉｚ,,合同会社,熊本県,熊本市東区,新生１丁目１番１７－９０１号,,43,102,8620908,,,,,,,2023-10-26,1,,,,,ウィズ,0
520,2420003002825,新規,0,2023-10-26,2023-10-26,合同会社カーリー,,合同会社,青森県,青森市,小柳４丁目８番３号県営住宅小柳団地４号棟４１１号,,02,201,0300915,,,,,,,2023-10-26,1,,,,,,0
525,2430003015561,新規,0,2023-10-26,2023-10-26,メイブリッジ合同会社,,合同会社,北海道,札幌市北区,新川二条８丁目６番８号,,01,102,0010922,,,,,,,2023-10-26,1,,,,,メイブリッジ,0
531,2480001012267,新規,0,2023-10-26,2023-10-26,株式会社タキガワ,,株式会社,徳島県,美馬市,脇町木ノ内３７７４番地１,,36,207,7793620,,,,,,,2023-10-26,1,,,,,タキガワ,0
538,2700150121432,新規,0,2023-10-26,2023-10-26,ｔａｉ　ａｎ　ｍｏ　ｘｉａｎｇ　ｊｉｎｇ　ｍａｏ　ｙｏｕ　ｘｉａｎ　ｇｏｎｇ　ｓｉ,,外国会社等,,,,,,,,Ｔａｉｓｈａｎｑｕ　ｃａｉｙｕａｎｊｉｅｄａｏｎａｉｈｅｘｉｌｕ３０ｈａｏｔｉａｎｙｕａｎｈｕａｙｕａｎ２ｈａｏｌｏｕ　２ｄａｎｙｕａｎ　２０２　Ｔａｉａｎ　Ｓｈａｎｄｏｎｇ　２７１０００　ＣＮ,,,,,,2023-10-26,1,,,,,タイアンモーシャンジンマオヨウシエンゴンスー,0
539,2700150121440,新規,0,2023-10-26,2023-10-26,ＳＨＥＮＺＨＥＮＳＨＩ　ＨＯＮＧＣＨＥＮ　ＳＨＩＹＥ　ＹＯＵＸＩＡＮＧＯＮＧＳＩ,,外国会社等,,,,,,,,２Ａ，ＪＵＴＩＡＮＬＩ　ＧＯＮＧＹＥＹＵＡＮ，ＤＩＳＩＧＯＮＧＹＥＹＵＡＮＤＩＳＩＱＩ，ＨＥＳＨＵＩＫＯＵＳＨＥＱＵ，ＧＯＮＧＭＩＮＧＪＩＥＤＡＯ，ＧＵＡＮＧＭＩＮＧＸＩＮＱＵ,,,,,,2023-10-26,1,,,,,シンセンシコウシンジツギョウユウゲンコウシ,0
540,2700150121449,新規,0,2023-10-26,2023-10-26,ｚｈｏｎｇｓｈａｎｓｈｉｗｅｎｃｈｅｎｇｓｈｕａｎｇｚｈｉｙｏｕｘｉａｎｇｏｎｇｓｉ,,外国会社等,,,,,,,,ｘｉａｚｅｃｈａｎｇｌｉｎｇｄｏｎｇｑｕ６５ｈａｏｓｈｏｕｃｅｎｇｚｈｉ１ｚｈｏｎｇｓｈａｎｓｈｉｓｈａｘｉｚｈｅｎｇｕａｎｇｄｏｎｇｓｈｅｎｇ,,,,,,2023-10-26,1,,,,,ジョンシャンシーウェンチョンシュワンジーディエンズーシャンウーヨウシエンゴンスー,0
548,3010001239542,新規,0,2023-10-26,2023-10-26,株式会社ＬＰＡ,,株式会社,東京都,中央区,日本橋室町１丁目１１番１２号日本橋水野ビル７階,,13,102,1030022,,,,,,,2023-10-26,1,,,,,エルピーエー,0
549,3010001239550,新規,0,2023-10-26,2023-10-26,株式会社ＺＥＮＳＨＩＮ,,株式会社,東京都,中央区,銀座７丁目１３番６号サガミビル２階,,13,102,1040061,,,,,,,2023-10-26,1,,,,,ゼンシン,0
550,3010001239559,新規,0,2023-10-26,2023-10-26,株式会社ＡＹＮＩＬ　ＧＲＯＵＰ,,株式会社,東京都,千代田区,大手町１丁目７番２号東京サンケイビル２７階,,13,101,1000004,,,,,,,2023-10-26,1,,,,,アイニルグループ,0
553,3010005037414,新規,0,2023-10-26,2023-10-26,特定非営利活動法人医療介護タスクシフト・シェア振興会,,その他の設立登記法人,東京都,中央区,日本橋２丁目１６番６号ＡＣＮ日本橋ＰＬＡＣＥ３Ｆ,,13,102,1030027,,,,,,,2023-10-26,1,,,,,イリョウカイゴタスクシフトシェアシンコウカイ,0
556,3010401178092,新規,0,2023-10-26,2023-10-26,株式会社多摩川インシュアランス,,株式会社,東京都,港区,芝２丁目２８番８号芝二丁目ビル１１階,,13,103,1050014,,,,,,,2023-10-26,1,,,,,タマガワインシュアランス,0
562,3010601064035,新規,0,2023-10-26,2023-10-26,株式会社ヴィクシーク,,株式会社,東京都,江東区,大島８丁目８番７号,,13,108,1360072,,,,,,,2023-10-26,1,,,,,ヴィクシーク,0
574,3011001157825,新規,0,2023-10-26,2023-10-26,株式会社ブルーミン,,株式会社,東京都,目黒区,下目黒１丁目２－１８カーサ横河５０１,,13,110,1530064,,,,,,,2023-10-26,1,,,,,ブルーミン,0
575,3011001157882,新規,0,2023-10-26,2023-10-26,株式会社日本予防歯科医学研究所,,株式会社,東京都,渋谷区,円山町５番５号Ｎａｖｉ渋谷Ｖ３階,,13,113,1500044,,,,,,,2023-10-26,1,,,,,ニホンヨボウシカイガクケンキュウジョ,0
577,3011003017779,新規,0,2023-10-26,2023-10-26,合同会社Ｅｎ,,合同会社,東京都,渋谷区,桜丘町２３番１７号シティコート桜丘４０８,,13,113,1500031,,,,,,,2023-10-26,1,,,,,エン,0
581,3011103013653,新規,0,2023-10-26,2023-10-26,合同会社Ｌｕｓｔｉｇｅ　Ｚｅｉｔ,,合同会社,東京都,新宿区,西新宿３丁目５番１２号トーカン新宿第二キャステール３１０号室,,13,104,1600023,,,,,,,2023-10-26,1,,,,,ルスティヒツァイト,0
584,3011403004162,新規,0,2023-10-26,2023-10-26,合同会社ジェイズ,,合同会社,東京都,板橋区,高島平９丁目１番５－９２８号,,13,119,1750082,,,,,,,2023-10-26,1,,,,,ジェイズ,0
589,3011503005820,新規,0,2023-10-26,2023-10-26,合同会社ＡＲＩ,,合同会社,東京都,北区,上十条３丁目１１番９号,,13,117,1140034,,,,,,,2023-10-26,1,,,,,エーアールアイ,0
591,3011701026692,新規,0,2023-10-26,2023-10-26,リウヤン食株式会社,,株式会社,東京都,江戸川区,東小松川４丁目６番１１号,,13,123,1320033,,,,,,,2023-10-26,1,,,,,リウヤンショク,0
592,3011701026701,新規,0,2023-10-26,2023-10-26,ＡＵＴＯ‐ＩＮＳＰＩＲＥＤ　ＪＡＰＡＮ株式会社,,株式会社,東京都,江戸川区,船堀６丁目２番１０号,,13,123,1340091,,,,,,,2023-10-26,1,,,,,オートインスパイアジャパン,0
596,3012403006248,新規,0,2023-10-26,2023-10-26,合同会社野川出版,,合同会社,東京都,武蔵野市,中町２丁目２０番３号７,,13,203,1800006,,,,,,,2023-10-26,1,,,,,ノガワシュッパン,0
598,3012801022730,新規,0,2023-10-26,2023-10-26,株式会社Ａｕｔｏ‐Ｂｅ,,株式会社,東京都,立川市,錦町２丁目２番１１号,,13,202,1900022,,,,,,,2023-10-26,1,,,,,オートビー,0
601,3013301051518,新規,0,2023-10-26,2023-10-26,株式会社Ｎｏｄｅｓ,,株式会社,東京都,豊島区,南大塚２丁目３８番１号リードシー大塚ビル８Ｆ,,13,116,1700005,,,,,,,2023-10-26,1,,,,,ノーヅ,0
606,3020001154071,新規,0,2023-10-26,2023-10-26,株式会社ＣＫＨ,,株式会社,神奈川県,川崎市宮前区,野川台２丁目１番１２号,,14,136,2160043,,,,,,,2023-10-26,1,,,,,シーケーエイチ,0
607,3020001154121,新規,0,2023-10-26,2023-10-26,株式会社常陸梅里,,株式会社,神奈川県,川崎市川崎区,東門前１丁目１６番７－１０５号ファミール蔭山,,14,131,2100812,,,,,,,2023-10-26,1,,,,,ヒタチバイリ,0
612,3020003024850,新規,0,2023-10-26,2023-10-26,ＢＡＳＦコーティングスジャパン合同会社,,合同会社,神奈川県,横浜市戸塚区,下倉田町２９６番地,,14,110,2440815,,,,,,,2023-10-26,1,,,,,ビーエーエスエフコーティングスジャパン,0
615,3020005016160,新規,0,2023-10-26,2023-10-26,一般社団法人老後の暮らしと不動産あんしん相談センター,,その他の設立登記法人,神奈川県,横浜市鶴見区,駒岡４丁目３５番３０号,,14,101,2300071,,,,,,,2023-10-26,1,,,,,ロウゴノクラシトフドウサンアンシンソウダンセンター,0
618,3021001080522,新規,0,2023-10-26,2023-10-26,株式会社グローイング・ライト,,株式会社,神奈川県,横須賀市,大矢部２丁目３番１５号Ａ,,14,201,2380024,,,,,,,2023-10-26,1,,,,,グローイングライト,0
619,3021001080588,新規,0,2023-10-26,2023-10-26,株式会社お部屋探しのハートサポート,,株式会社,神奈川県,相模原市中央区,相模原１丁目３番地６号相模原駅前ハイツ１階,,14,152,2520231,,,,,,,2023-10-26,1,,,,,オヘヤサガシノハートサポート,0
626,3021003013728,新規,0,2023-10-26,2023-10-26,ＹＵ‐ＭＩＮＯ合同会社,,合同会社,神奈川県,大和市,中央林間７丁目９番５－９１０号,,14,213,2420007,,,,,,,2023-10-26,1,,,,,ユーミノ,0
632,3030001156835,新規,0,2023-10-26,2023-10-26,株式会社Ｄｉ‐ＳＴＹＬＥ,,株式会社,埼玉県,幸手市,大字惣新田３８３０番地２,,11,240,3400133,,,,,,,2023-10-26,1,,,,,ディスタイル,0
633,3030001156843,新規,0,2023-10-26,2023-10-26,株式会社オレン,,株式会社,埼玉県,坂戸市,関間１丁目１０番６９号,,11,239,3500215,,,,,,,2023-10-26,1,,,,,オレン,0
634,3030001156851,新規,0,2023-10-26,2023-10-26,電通テック株式会社,,株式会社,埼玉県,秩父市,中村町３丁目３番３２号,,11,207,3680051,,,,,,,2023-10-26,1,,,,,デンツウテック,0
643,3040001130673,新規,0,2023-10-26,2023-10-26,株式会社アイラウンド,,株式会社,千葉県,成田市,芦田８９９番地３,,12,211,2860831,,,,,,,2023-10-26,1,,,,,アイラウンド,0
644,3040001130698,新規,0,2023-10-26,2023-10-26,株式会社Ｖ４Ｕ,,株式会社,千葉県,船橋市,夏見台１丁目９番２６－７０９号,,12,204,2730866,,,,,,,2023-10-26,1,,,,,ブイフォーユー,0
652,3040003023628,新規,0,2023-10-26,2023-10-26,ＳＨＩＢＡＹＡＭＡ　ＭＯＴＯＲＳ合同会社,,合同会社,千葉県,千葉市若葉区,川井町１１４番地１０－１,,12,104,2650062,,,,,,,2023-10-26,1,,,,,シバヤマモータース,0
654,3050001053683,新規,0,2023-10-26,2023-10-26,株式会社Ｖａｌｏ．,,株式会社,茨城県,水戸市,千波町７７０番地の１２,,08,201,3100851,,,,,,,2023-10-26,1,,,,,バロ,0
655,3050001053700,新規,0,2023-10-26,2023-10-26,株式会社トーハツ,,株式会社,茨城県,土浦市,田中１丁目１０番２７号,,08,203,3000048,,,,,,,2023-10-26,1,,,,,トーハツ,0
657,3050003007885,新規,0,2023-10-26,2023-10-26,合同会社Ｂｅｌｌ,,合同会社,茨城県,水戸市,柳町１丁目１２番１６号,,08,201,3100817,,,,,,,2023-10-26,1,,,,,ベル,0
658,3050003007893,新規,0,2023-10-26,2023-10-26,合同会社ｓｐｉｒａｌ　ｒｉｓｅ,,合同会社,茨城県,水戸市,黒磯町１０２番地,,08,201,3190303,,,,,,,2023-10-26,1,,,,,スパイラルライズ,0
665,3070001040993,新規,0,2023-10-26,2023-10-26,株式会社虹掛,,株式会社,群馬県,桐生市,広沢町３丁目４３４８番地の１２,,10,203,3760013,,,,,,,2023-10-26,1,,,,,ニジカケ,0
666,3070001041018,新規,0,2023-10-26,2023-10-26,株式会社ファミリーマサラ,,株式会社,群馬県,伊勢崎市,下植木町７１４番地２,,10,204,3720024,,,,,,,2023-10-26,1,,,,,ファミリーマサラ,0
668,3070005010183,新規,0,2023-10-26,2023-10-26,一般社団法人児童環境保健・総合教育開発センター,,その他の設立登記法人,群馬県,伊勢崎市,除ケ町３６６番地７,,10,204,3720832,,,,,,,2023-10-26,1,,,,,ジドウカンキョウホケンソウゴウキョウイクカイハツセンター,0
670,3080101024292,新規,0,2023-10-26,2023-10-26,楓工業株式会社,,株式会社,静岡県,富士市,今泉３８０３番地の３,,22,210,4170001,,,,,,,2023-10-26,1,,,,,カエデコウギョウ,0
672,3090001018377,新規,0,2023-10-26,2023-10-26,株式会社Ｆｉｒｓｔ,,株式会社,山梨県,甲府市,羽黒町１１０９番地８,,19,201,4000071,,,,,,,2023-10-26,1,,,,,ファースト,0
683,3120001259190,新規,0,2023-10-26,2023-10-26,株式会社リープロス,,株式会社,大阪府,大阪市北区,西天満６丁目４番１２号グラン・ビルド西天満２階,,27,127,5300047,,,,,,,2023-10-26,1,,,,,リープロス,0
684,3120001259224,新規,0,2023-10-26,2023-10-26,株式会社ＡＫ企画,,株式会社,大阪府,大阪市浪速区,元町１丁目５番７号,,27,111,5560016,,,,,,,2023-10-26,1,,,,,エーケーキカク,0
693,3120901048271,新規,0,2023-10-26,2023-10-26,株式会社大西総建,,株式会社,大阪府,吹田市,片山町１丁目６番１５号,,27,205,5640082,,,,,,,2023-10-26,1,,,,,オオニシソウケン,0
696,3130001075612,新規,0,2023-10-26,2023-10-26,株式会社明星住販,,株式会社,京都府,京都市山科区,大塚北溝町３６番地５,,26,110,6078134,,,,,,,2023-10-26,1,,,,,ミョウジョウジュウハン,0
699,3130005016918,新規,0,2023-10-26,2023-10-26,一般社団法人共創事業開発協会,,その他の設立登記法人,京都府,宇治市,五ケ庄京都大学生存圏研究所篠原研究室内,,26,204,6110011,,,,,,,2023-10-26,1,,,,,キョウソウジギョウカイハツキョウカイ,0
701,3140001132107,新規,0,2023-10-26,2023-10-26,株式会社くれないカーテン工房,,株式会社,兵庫県,伊丹市,中野東１丁目３８０番地,,28,207,6640022,,,,,,,2023-10-26,1,,,,,クレナイカーテンコウボウ,0
702,3140001132148,新規,0,2023-10-26,2023-10-26,株式会社エム,,株式会社,兵庫県,姫路市,中地６８７番地３,,28,201,6700976,,,,,,,2023-10-26,1,,,,,エム,0
708,3150003003081,新規,0,2023-10-26,2023-10-26,合同会社ｃｏｆｕｎｉａ,,合同会社,奈良県,天理市,萱生町１０２２番地,,29,204,6320042,,,,,,,2023-10-26,1,,,,,コフニア,0
712,3180001158552,新規,0,2023-10-26,2023-10-26,株式会社Ｌｉｅｎ,,株式会社,愛知県,名古屋市東区,主税町４丁目７７番地藤本ビル２０１号,,23,102,4610018,,,,,,,2023-10-26,1,,,,,リエン,0
713,3180001158651,新規,0,2023-10-26,2023-10-26,株式会社ＰＲＩＯＲＩＴＹ,,株式会社,愛知県,春日井市,熊野町６２９番地２７,,23,206,4860822,,,,,,,2023-10-26,1,,,,,プライオリティ,0
714,3180001158684,新規,0,2023-10-26,2023-10-26,ペンデクスコンサルティング株式会社,,株式会社,愛知県,名古屋市北区,若鶴町１５４番地,,23,103,4620006,,,,,,,2023-10-26,1,,,,,ペンデクスコンサルティング,0
720,3180003025908,新規,0,2023-10-26,2023-10-26,ゆかり中日合同会社,,合同会社,愛知県,名古屋市熱田区,四番１丁目１１番９号,,23,109,4560051,,,,,,,2023-10-26,1,,,,,ユカリチュウニチ,0
721,3180003025916,新規,0,2023-10-26,2023-10-26,合同会社ちゃんと,,合同会社,愛知県,名古屋市中村区,名駅４丁目２４番５号第２森ビル４０１,,23,105,4500002,,,,,,,2023-10-26,1,,,,,チャント,0
722,3180301037927,新規,0,2023-10-26,2023-10-26,株式会社Ｍ・Ｙ・ＫＯＫＯ,,株式会社,愛知県,知立市,宝１丁目６番地３,,23,225,4720056,,,,,,,2023-10-26,1,,,,,エムワイココ,0
723,3180303005873,新規,0,2023-10-26,2023-10-26,合同会社Ｉｒａｇｏ　Ｔｅｒｒａｃｅ,,合同会社,愛知県,田原市,南神戸町仲８９番地１,,23,231,4413424,,,,,,,2023-10-26,1,,,,,イラゴテラス,0
725,3190003004480,新規,0,2023-10-26,2023-10-26,合同会社ＧＲＩＪＺＥ　ＷＯＲＬＤ,,合同会社,三重県,四日市市,富田一色町２４番１３号,,24,202,5108004,,,,,,,2023-10-26,1,,,,,グレイスワールド,0
727,3200001041854,新規,0,2023-10-26,2023-10-26,株式会社寿山,,株式会社,岐阜県,土岐市,泉町定林寺３５６番地の１,,21,212,5095102,,,,,,,2023-10-26,1,,,,,ジュザン,0
730,3200003006129,新規,0,2023-10-26,2023-10-26,合同会社Ｓｍａｌｌ　Ｇｅａｒ,,合同会社,岐阜県,飛騨市,神岡町山田３６１－１,,21,217,5061156,,,,,,,2023-10-26,1,,,,,スモールギア,0
736,3220003003611,新規,0,2023-10-26,2023-10-26,合同会社フルール・ド・リス,,合同会社,石川県,金沢市,泉野町３丁目１番２９号,,17,201,9218034,,,,,,,2023-10-26,1,,,,,フルールドリス,0
741,3240001062327,新規,0,2023-10-26,2023-10-26,株式会社ＦＬＡＴ,,株式会社,広島県,広島市西区,己斐上１丁目６番８‐１０１号,,34,104,7330815,,,,,,,2023-10-26,1,,,,,フラット,0
742,3240001062335,新規,0,2023-10-26,2023-10-26,株式会社ＴＩＬ＆パートナーズ,,株式会社,広島県,広島市東区,二葉の里３丁目５－７ＧＲＡＮＯＤＥ広島３Ｆ,,34,102,7320057,,,,,,,2023-10-26,1,,,,,ティーアイエルアンドパートナーズ,0
745,3260001038432,新規,0,2023-10-26,2023-10-26,株式会社Ｓ・Ｋ・Ｙ,,株式会社,岡山県,津山市,籾保２４４番地７,,33,203,7080803,,,,,,,2023-10-26,1,,,,,エスケイワイ,0
751,3290001103514,新規,0,2023-10-26,2023-10-26,ＲＥＶＩＳＩＯＮ株式会社,,株式会社,福岡県,福岡市南区,花畑１丁目３３番３－２０１号,,40,134,8111356,,,,,,,2023-10-26,1,,,,,リビジョン,0
755,3290801029990,新規,0,2023-10-26,2023-10-26,ＭＵＳＡ　ＴＲＡＤＩＮＧ株式会社,,株式会社,福岡県,田川郡福智町,神崎１２３７番地２,,40,610,8221202,,,,,,,2023-10-26,1,,,,,ムサトレーディング,0
759,3310003004666,新規,0,2023-10-26,2023-10-26,合同会社宙ＳＯＲＡ,,合同会社,長崎県,長崎市,界２丁目７－９,,42,201,8510122,,,,,,,2023-10-26,1,,,,,ソラ,0
761,3320001020111,新規,0,2023-10-26,2023-10-26,株式会社草場電設,,株式会社,大分県,中津市,沖代町２丁目４番１２号,,44,203,8710021,,,,,,,2023-10-26,1,,,,,クサバデンセツ,0
762,3330001031396,新規,0,2023-10-26,2023-10-26,株式会社スマアプ,,株式会社,熊本県,熊本市北区,植木町宮原２０９番地１,,43,105,8610111,,,,,,,2023-10-26,1,,,,,スマアプ,0
763,3330003010035,新規,0,2023-10-26,2023-10-26,合同会社蔵辺,,合同会社,熊本県,熊本市中央区,坪井５丁目１０番９号,,43,101,8600863,,,,,,,2023-10-26,1,,,,,クラベ,0
773,3420003002824,新規,0,2023-10-26,2023-10-26,合同会社ゲンジアーキ,,合同会社,青森県,青森市,浪館前田２丁目２０番３号,,02,201,0380024,,,,,,,2023-10-26,1,,,,,ゲンジアーキ,0
779,3430001090267,新規,0,2023-10-26,2023-10-26,株式会社ＮＭＷ,,株式会社,北海道,札幌市北区,新琴似町１０１０番地４３,,01,102,0010915,,,,,,,2023-10-26,1,,,,,エヌエムダブリュー,0
780,3430001090283,新規,0,2023-10-26,2023-10-26,株式会社天晴舎,,株式会社,北海道,札幌市北区,屯田八条２丁目４番２５号テラスハウスＣ１号,,01,102,0020858,,,,,,,2023-10-26,1,,,,,アッパレヤ,0
784,3470001019865,新規,0,2023-10-26,2023-10-26,株式会社まる,,株式会社,香川県,高松市,福岡町４丁目２０番８号,,37,201,7600066,,,,,,,2023-10-26,1,,,,,マル,0
785,3480001012266,新規,0,2023-10-26,2023-10-26,幸デザインスタジオ株式会社,,株式会社,徳島県,名西郡神山町,下分字地野４９－１,,36,342,7713421,,,,,,,2023-10-26,1,,,,,ユキデザインスタジオ,0
789,3500001025265,新規,0,2023-10-26,2023-10-26,株式会社ダブルアール,,株式会社,愛媛県,松山市,二番町２丁目１－１ＮＯ．２６ミツワビル３階,,38,201,7900002,,,,,,,2023-10-26,1,,,,,ダブルアール,0
790,3700150121431,新規,0,2023-10-26,2023-10-26,ｓｈｅｎｚｈｅｎｓｈｉｈｕｉｙｕｅｄｉａｎｚｉｓｈａｎｇｗｕｙｏｕｘｉａｎｇｏｎｇｓｉ,,外国会社等,,,,,,,,ｊｕｌｉｎｇｘｉｎｃｕｎｂａｉｌｉｍｉｎｇｙｕａｎ７ｄｏｎｇ１１０３ｆｕｃｈｅｎｇｊｉｅｄａｏｊｕｔａｎｇｓｈｅｑｕＳｈｅｎｚｈｅｎｌｏｎｇｈｕａｑｕ,,,,,,2023-10-26,1,,,,,シェンジェンシーフイユエディエンズーシャンウーヨウシエンゴンスー,0
791,3700150121448,新規,0,2023-10-26,2023-10-26,Ｓｈｅｎｚｈｅｎ　Ｘｉａｏｌｅｉｇｕａ　Ｔｅｃｈｎｏｌｏｇｙ　Ｃｏ．，ＬＴＤ,,外国会社等,,,,,,,,Ｒｏｏｍ　５０８，Ｄａｗａｎｇ　Ｃｏｍｍｅｒｃｉａｌ　Ｂｕｉｌｄｉｎｇ，Ｎｏ．６６６　Ｘｉｎｔｉａｎ　Ｖｉｌｌａｇｅ，Ｄｏｎｇｈｕ　Ｓｔｒｅｅｔ，Ｌｕｏｈｕ　Ｄｉｓｔｒｉｃｔ，Ｓｈｅｎｚｈｅｎ，Ｃｈｉｎａ,,,,,,2023-10-26,1,,,,,シェンジェンシォレイグァテクノロジコリミデット,0
800,4010001239616,新規,0,2023-10-26,2023-10-26,Ｇｒａｐｈｅｎｅｘｔ　Ｊａｐａｎ株式会社,,株式会社,東京都,千代田区,丸の内１丁目８－３丸の内トラストタワー本館２０階,,13,101,1000005,,,,,,,2023-10-26,1,,,,,グラフェネクストジャパン,0
802,4010003042035,新規,0,2023-10-26,2023-10-26,合同会社真,,合同会社,東京都,文京区,西片２丁目２４－１０,,13,105,1130024,,,,,,,2023-10-26,1,,,,,シン,0
803,4010003042051,新規,0,2023-10-26,2023-10-26,Ａｖｉａｔ　Ｎｅｔｗｏｒｋｓ　Ｊａｐａｎ合同会社,,合同会社,東京都,千代田区,霞が関３丁目２番６号東京倶楽部ビルディング１１階,,13,101,1000013,,,,,,,2023-10-26,1,,,,,アヴィアットネットワークスジャパン,0
806,4010401178091,新規,0,2023-10-26,2023-10-26,翔研ジャパン株式会社,,株式会社,東京都,港区,三田１丁目２番１８号ＴＴＤビル,,13,103,1080073,,,,,,,2023-10-26,1,,,,,ショウケンジャパン,0
807,4010401178117,新規,0,2023-10-26,2023-10-26,株式会社あまたす,,株式会社,東京都,港区,六本木６丁目１０番１号六本木ヒルズ森タワー３４階,,13,103,1060032,,,,,,,2023-10-26,1,,,,,アマタス,0
808,4010401178125,新規,0,2023-10-26,2023-10-26,株式会社レガカンパニー,,株式会社,東京都,港区,高輪３丁目１１番８－９０４号,,13,103,1080074,,,,,,,2023-10-26,1,,,,,レガカンパニー,0
809,4010401178141,新規,0,2023-10-26,2023-10-26,株式会社ベリーベストＭ＆Ａアドバイザリー,,株式会社,東京都,港区,六本木１丁目８番７号ＭＦＰＲ六本木麻布台ビル１１階,,13,103,1060032,,,,,,,2023-10-26,1,,,,,ベリーベストエムアンドエーアドバイザリー,0
810,4010401178158,新規,0,2023-10-26,2023-10-26,株式会社エクセレンス・パートナーズ,,株式会社,東京都,港区,南青山３丁目１番３６号青山丸竹ビル６Ｆ,,13,103,1070062,,,,,,,2023-10-26,1,,,,,エクセレンスパートナーズ,0
814,4010403031257,新規,0,2023-10-26,2023-10-26,合同会社とは,,合同会社,東京都,港区,赤坂２丁目２１番４号,,13,103,1070052,,,,,,,2023-10-26,1,,,,,トワ,0
815,4010601064018,新規,0,2023-10-26,2023-10-26,株式会社むす美,,株式会社,東京都,江東区,南砂５丁目１８番３号,,13,108,1360076,,,,,,,2023-10-26,1,,,,,ムスビ,0
816,4010601064034,新規,0,2023-10-26,2023-10-26,株式会社Ｙ’ｓ　ｃｏｍｐａｎｙ,,株式会社,東京都,江東区,亀戸１丁目４３番７号,,13,108,1360071,,,,,,,2023-10-26,1,,,,,ワイズカンパニー,0
818,4010603010449,新規,0,2023-10-26,2023-10-26,合同会社ＴＲＹＢＡＬ,,合同会社,東京都,墨田区,錦糸２丁目８番９－７０２号榎本ビル,,13,107,1300013,,,,,,,2023-10-26,1,,,,,トライバル,0
819,4010701045041,新規,0,2023-10-26,2023-10-26,４２ブリッジ株式会社,,株式会社,東京都,品川区,東五反田２丁目１０番１－１９１４号,,13,109,1410022,,,,,,,2023-10-26,1,,,,,ブリッジ,0
827,4010901054065,新規,0,2023-10-26,2023-10-26,Ｋ‐Ａｃａｄｅｍｉａ株式会社,,株式会社,東京都,世田谷区,玉川田園調布２丁目２番３号２Ｆ,,13,112,1580085,,,,,,,2023-10-26,1,,,,,ケーアカデミア,0
828,4010901054073,新規,0,2023-10-26,2023-10-26,株式会社美和コーポレーション,,株式会社,東京都,世田谷区,奥沢１丁目１６番１号－２,,13,112,1580083,,,,,,,2023-10-26,1,,,,,ミワコーポレーション,0
831,4011001157667,新規,0,2023-10-26,2023-10-26,株式会社Ｃｏｌｈｅｒｔ,,株式会社,東京都,渋谷区,渋谷２丁目１９－１５宮益坂ビルディング６０９,,13,113,1500002,,,,,,,2023-10-26,1,,,,,コルハート,0
832,4011001157733,新規,0,2023-10-26,2023-10-26,株式会社エブラ,,株式会社,東京都,渋谷区,桜丘２１―７ライブリー渋谷桜丘５０４,,13,113,1500000,,,,,,,2023-10-26,1,,,,,エブラ,0
833,4011001157799,新規,0,2023-10-26,2023-10-26,株式会社Ｒ．Ｅ．Ｋａｎａｍａｒｕ,,株式会社,東京都,渋谷区,富ヶ谷２丁目４番２０号,,13,113,1510063,,,,,,,2023-10-26,1,,,,,アールイーカナマル,0
834,4011001157816,新規,0,2023-10-26,2023-10-26,Ｉｎｐｌａｐｏｒｔ株式会社,,株式会社,東京都,渋谷区,円山町５番５号Ｎａｖｉ渋谷Ｖ３階,,13,113,1500044,,,,,,,2023-10-26,1,,,,,インプラポート,0
835,4011001157824,新規,0,2023-10-26,2023-10-26,株式会社ケーシーソフト,,株式会社,東京都,目黒区,南２丁目８番４号,,13,110,1520013,,,,,,,2023-10-26,1,,,,,ケーシーソフト,0
836,4011001157857,新規,0,2023-10-26,2023-10-26,東京フードイノベーション株式会社,,株式会社,東京都,渋谷区,神宮前６丁目２３番４号桑野ビル２階,,13,113,1500001,,,,,,,2023-10-26,1,,,,,トウキョウフードイノベーション,0
838,4011003017778,新規,0,2023-10-26,2023-10-26,スペースＧ合同会社,,合同会社,東京都,渋谷区,円山町５番５号,,13,113,1500044,,,,,,,2023-10-26,1,,,,,スペースジー,0
847,4011101104924,新規,0,2023-10-26,2023-10-26,華居園株式会社,,株式会社,東京都,新宿区,百人町１丁目２２番３号－１００３号室,,13,104,1690073,,,,,,,2023-10-26,1,,,,,カキョエン,0
848,4011101104932,新規,0,2023-10-26,2023-10-26,株式会社セ・キララ,,株式会社,東京都,新宿区,神楽坂６丁目４６番地,,13,104,1620825,,,,,,,2023-10-26,1,,,,,セキララ,0
852,4011201025005,新規,0,2023-10-26,2023-10-26,福澤株式会社,,株式会社,東京都,中野区,南台２丁目３１番３号グレーパレス中野２０６号室,,13,114,1640014,,,,,,,2023-10-26,1,,,,,フクザワ,0
854,4011301029112,新規,0,2023-10-26,2023-10-26,株式会社ＭＧＧ,,株式会社,東京都,杉並区,西荻北４丁目２番７号アストランティア２０２,,13,115,1670042,,,,,,,2023-10-26,1,,,,,エムジージー,0
856,4011403004161,新規,0,2023-10-26,2023-10-26,合同会社純光ファインズ,,合同会社,東京都,板橋区,舟渡２丁目３４－２１－５０４ペガサスマンション浮間公園,,13,119,1740041,,,,,,,2023-10-26,1,,,,,ジュンコウファインズ,0
857,4011501029861,新規,0,2023-10-26,2023-10-26,ＬＩＮＫＩＮＧ株式会社,,株式会社,東京都,荒川区,荒川１丁目５５番４－４０８号,,13,118,1160002,,,,,,,2023-10-26,1,,,,,リンキング,0
865,4011803005890,新規,0,2023-10-26,2023-10-26,Ｔ．Ｋ．Ｅカンパニー合同会社,,合同会社,東京都,葛飾区,亀有３丁目７番１７号－Ｅ１シティハイツ亀有１Ｅ号室,,13,122,1250061,,,,,,,2023-10-26,1,,,,,ティケイイーカンパニー,0
872,4013301051533,新規,0,2023-10-26,2023-10-26,株式会社カタリスタ,,株式会社,東京都,豊島区,池袋２丁目５７－６ＭＣオフィス池袋西口２０５,,13,116,1710014,,,,,,,2023-10-26,1,,,,,カタリスタ,0
878,4020001154079,新規,0,2023-10-26,2023-10-26,ＲＡＦＥＸ株式会社,,株式会社,神奈川県,横浜市中区,池袋６１番地６９－２１２号室,,14,104,2310834,,,,,,,2023-10-26,1,,,,,ラフェックス,0
884,4021001080521,新規,0,2023-10-26,2023-10-26,株式会社ＦＡＶＥＬＡ,,株式会社,神奈川県,平塚市,万田２丁目１４番２６号,,14,203,2540913,,,,,,,2023-10-26,1,,,,,ファベーラ,0
889,4030001156859,新規,0,2023-10-26,2023-10-26,株式会社Ｓｉｎｃｅｒｉｔｙ,,株式会社,埼玉県,上尾市,小泉５丁目２１番地２０,,11,219,3620063,,,,,,,2023-10-26,1,,,,,シンセリティー,0
890,4030001156891,新規,0,2023-10-26,2023-10-26,株式会社エルブラッド,,株式会社,埼玉県,越谷市,大字大里４０番地１パークハイツ越谷Ｄ－３３２号,,11,222,3430031,,,,,,,2023-10-26,1,,,,,エルブラッド,0
898,4030003022860,新規,0,2023-10-26,2023-10-26,合同会社ＰＣＬ,,合同会社,埼玉県,川越市,霞ケ関東１丁目２０番地１９（コンシェール霞ヶ関Ｂ－２０２号室）,,11,201,3501103,,,,,,,2023-10-26,1,,,,,ピーシーエル,0
899,4030003022877,新規,0,2023-10-26,2023-10-26,合同会社ＨＫＡ,,合同会社,埼玉県,東松山市,大字石橋１６０８番地２３,,11,212,3550072,,,,,,,2023-10-26,1,,,,,エイチケーエー,0
900,4030005021448,新規,0,2023-10-26,2023-10-26,一般社団法人全日本ドッグトレーニング協会,,その他の設立登記法人,埼玉県,越谷市,川柳町１丁目２９８番地,,11,222,3430827,,,,,,,2023-10-26,1,,,,,ゼンニホンドッグトレーニングキョウカイ,0
903,4040001130697,新規,0,2023-10-26,2023-10-26,黔豊株式会社,,株式会社,千葉県,市原市,犬成１０１４－１,,12,219,2900166,,,,,,,2023-10-26,1,,,,,ケンホウ,0
906,4040003023610,新規,0,2023-10-26,2023-10-26,合同会社ＡＲＵＮＡ　ＭＯＴＯＲＳ,,合同会社,千葉県,四街道市,栗山６８５番地１,,12,228,2840027,,,,,,,2023-10-26,1,,,,,アルナモータース,0
907,4050001053690,新規,0,2023-10-26,2023-10-26,株式会社誠商事,,株式会社,茨城県,つくば市,栄３２２番地１０,,08,220,3050013,,,,,,,2023-10-26,1,,,,,マコトショウジ,0
908,4050001053699,新規,0,2023-10-26,2023-10-26,六興実業株式会社,,株式会社,茨城県,つくば市,吾妻２丁目５番地１,,08,220,3050031,,,,,,,2023-10-26,1,,,,,ロッコウジツギョウ,0
909,4050001053716,新規,0,2023-10-26,2023-10-26,株式会社ティーネットアクシア,,株式会社,茨城県,取手市,取手２丁目１５番１５－４０１号,,08,217,3020004,,,,,,,2023-10-26,1,,,,,ティーネットアクシア,0
921,4080001025943,新規,0,2023-10-26,2023-10-26,株式会社ＨＡＮＡＳＡＫＵ,,株式会社,静岡県,焼津市,岡当目３４７－１,,22,212,4250013,,,,,,,2023-10-26,1,,,,,ハナサク,0
925,4090001018392,新規,0,2023-10-26,2023-10-26,株式会社ヤドカリ,,株式会社,山梨県,南都留郡道志村,１１１５５番地２,,19,422,4020200,,,,,,,2023-10-26,1,,,,,ヤドカリ,0
926,4100001036913,新規,0,2023-10-26,2023-10-26,株式会社Ｄ．Ｉ．Ｃ．Ｐ,,株式会社,長野県,塩尻市,大字広丘高出１４８６番地１７４サンシティ高出Ｆ棟２０１号,,20,215,3990703,,,,,,,2023-10-26,1,,,,,ディーアイシーピー,0
934,4120001259124,新規,0,2023-10-26,2023-10-26,グンゲコム株式会社,,株式会社,大阪府,大阪市北区,芝田２丁目８番１１号共栄ビル３Ｆ,,27,127,5300012,,,,,,,2023-10-26,1,,,,,グンゲコム,0
935,4120001259207,新規,0,2023-10-26,2023-10-26,株式会社ＳＯＫ,,株式会社,大阪府,大阪市天王寺区,城南寺町４－１３,,27,109,5430017,,,,,,,2023-10-26,1,,,,,ソーク,0
936,4120003025169,新規,0,2023-10-26,2023-10-26,キャパット合同会社,,合同会社,大阪府,大阪市阿倍野区,松崎町３丁目３番１３－１０２号,,27,119,5450053,,,,,,,2023-10-26,1,,,,,キャパット,0
938,4120101068433,新規,0,2023-10-26,2023-10-26,株式会社鼎心堂,,株式会社,大阪府,堺市南区,赤坂台６丁７番１号,,27,145,5900144,,,,,,,2023-10-26,1,,,,,テイシンドウ,0
940,4120103005509,新規,0,2023-10-26,2023-10-26,ハーモニーハウス合同会社,,合同会社,大阪府,堺市北区,百舌鳥赤畑町１丁６番地１ヴィラ三国ヶ丘ＩＩ４１０号,00132420,27,146,5918037,,,,,,,2023-10-26,1,,,,,ハーモニーハウス,0
944,4130001075504,新規,0,2023-10-26,2023-10-26,株式会社ゼスト・コーヒーファクトリー,,株式会社,京都府,宇治市,木幡北畠３４番地の４,,26,204,6110002,,,,,,,2023-10-26,1,,,,,ゼストコーヒーファクトリー,0
945,4130003009071,新規,0,2023-10-26,2023-10-26,合同会社みやこと企画,,合同会社,京都府,京都市下京区,中堂寺南町１３４番地ＡＳＴＥＭ棟８階８Ｇ０９,,26,106,6008813,,,,,,,2023-10-26,1,,,,,ミヤコトキカク,0
949,4140001132031,新規,0,2023-10-26,2023-10-26,株式会社リフォナビ,,株式会社,兵庫県,川西市,平野３丁目２番５号,,28,217,6660121,,,,,,,2023-10-26,1,,,,,リフォナビ,0
950,4140001132114,新規,0,2023-10-26,2023-10-26,メルクリエイト株式会社,,株式会社,兵庫県,尼崎市,水堂町１丁目６番１１号４０２号,,28,202,6610026,,,,,,,2023-10-26,1,,,,,メルクリエイト,0
951,4140001132130,新規,0,2023-10-26,2023-10-26,株式会社ミヤモト電機,,株式会社,兵庫県,姫路市,白浜町神田２丁目３９番地１,,28,201,6728011,,,,,,,2023-10-26,1,,,,,,0
955,4140003019730,新規,0,2023-10-26,2023-10-26,スマイル・リンク合同会社,,合同会社,兵庫県,明石市,硯町２丁目６－２０第二永和レジデンス１０３,,28,203,6730028,,,,,,,2023-10-26,1,,,,,スマイルリンク,0
956,4140003019739,新規,0,2023-10-26,2023-10-26,合同会社ＳＯＬＵＮＡ,,合同会社,兵庫県,西宮市,甲風園１丁目５番１８号２階,,28,204,6620832,,,,,,,2023-10-26,1,,,,,ソルナ,0
957,4150001026835,新規,0,2023-10-26,2023-10-26,マスキ電気設備株式会社,,株式会社,奈良県,橿原市,土橋町２１６番地１０,,29,205,6340844,,,,,,,2023-10-26,1,,,,,マスキデンキセツビ,0
959,4170001017857,新規,0,2023-10-26,2023-10-26,株式会社愛縁産業,,株式会社,和歌山県,橋本市,神野々３１１－１,,30,203,6480086,,,,,,,2023-10-26,1,,,,,アイエンサンギョウ,0
963,4180001158634,新規,0,2023-10-26,2023-10-26,株式会社ＤｅａＬｉｖｅ,,株式会社,愛知県,名古屋市中村区,平池町４丁目６０番地１２グローバルゲート１１階,,23,105,4530872,,,,,,,2023-10-26,1,,,,,ディアライブ,0
964,4180001158659,新規,0,2023-10-26,2023-10-26,株式会社シーハート,,株式会社,愛知県,長久手市,香桶３０８番地１,,23,238,4801176,,,,,,,2023-10-26,1,,,,,シーハート,0
965,4180001158675,新規,0,2023-10-26,2023-10-26,株式会社天元,,株式会社,愛知県,名古屋市中区,栄３丁目２３－５ＡＲＲＯＷＳＡＫＡＥ　ＢＬＤ１Ｆ,,23,106,4600008,,,,,,,2023-10-26,1,,,,,テンゲン,0
967,4180003025907,新規,0,2023-10-26,2023-10-26,トロットワーク合同会社,,合同会社,愛知県,名古屋市中村区,名駅３丁目４－１０アルティメイト名駅１ｓｔ２階,,23,105,4500002,,,,,,,2023-10-26,1,,,,,トロットワーク,0
968,4180301037934,新規,0,2023-10-26,2023-10-26,にーくん株式会社,,株式会社,愛知県,豊橋市,前田南町１丁目６番地１３,,23,201,4400851,,,,,,,2023-10-26,1,,,,,ニークン,0
980,4220001025648,新規,0,2023-10-26,2023-10-26,株式会社東原スタッフ,,株式会社,石川県,野々市市,稲荷２丁目１７８番地,,17,212,9218805,,,,,,,2023-10-26,1,,,,,ヒガシハラスタッフ,0
984,4240001062326,新規,0,2023-10-26,2023-10-26,株式会社ＫＮＳ,,株式会社,広島県,広島市東区,中山新町３丁目２１番２３－２号,,34,102,7320021,,,,,,,2023-10-26,1,,,,,ケーエヌエス,0
990,4240003006388,新規,0,2023-10-26,2023-10-26,合同会社ＦＩＲＳＴ　ＳＴＥＰ　ＳＰＯＲＴＳ,,合同会社,広島県,広島市安佐南区,川内２丁目２番２１号,,34,105,7310102,,,,,,,2023-10-26,1,,,,,ファーストステップスポーツ,0
994,4260003004480,新規,0,2023-10-26,2023-10-26,合同会社クロスマネジメント,,合同会社,岡山県,倉敷市,玉島１４０６番地１１,,33,202,7138102,,,,,,,2023-10-26,1,,,,,クロスマネジメント,0
998,4290001103546,新規,0,2023-10-26,2023-10-26,久森株式会社,,株式会社,福岡県,福岡市東区,多の津１丁目１０番１号ビジネスエンジェルビル４３３室,,40,131,8130034,,,,,,,2023-10-26,1,,,,,ヒサモリ,0
1010,4330001031387,新規,0,2023-10-26,2023-10-26,ＰｈｙｔｏＭｏｌ‐Ｔｅｃｈ株式会社,,株式会社,熊本県,熊本市中央区,南熊本３丁目１４番３号くまもと大学連携インキュベータ,,43,101,8600812,,,,,,,2023-10-26,1,,,,,ファイトモルテック,0
1012,4330003010042,新規,0,2023-10-26,2023-10-26,合同会社Ｍ’ｓトレード,,合同会社,熊本県,上益城郡御船町,大字辺田見１１９番地５,,43,441,8613206,,,,,,,2023-10-26,1,,,,,エムズトレード,0
1019,4370001050573,新規,0,2023-10-26,2023-10-26,株式会社皆真工業,,株式会社,宮城県,栗原市,築館伊豆４丁目８番１２号,,04,213,9872216,,,,,,,2023-10-26,1,,,,,ミナシンコウギョウ,0
1023,4380001034096,新規,0,2023-10-26,2023-10-26,株式会社ＲＩＳＥ,,株式会社,福島県,郡山市,島１丁目６番２４号２階,,07,203,9638034,,,,,,,2023-10-26,1,,,,,ライズ,0
1032,4430001090282,新規,0,2023-10-26,2023-10-26,株式会社Ａｎｄｉ,,株式会社,北海道,札幌市厚別区,大谷地西６丁目１番２２号,,01,108,0040042,,,,,,,2023-10-26,1,,,,,アンディ,0
1039,4500003003128,新規,0,2023-10-26,2023-10-26,雄成合同会社,,合同会社,愛媛県,松山市,桑原５丁目６番９号アピアチェーレＶ１０１号,00132428,38,201,7900911,,,,,,,2023-10-26,1,,,,,ユウセイ,0
1042,4700150121422,新規,0,2023-10-26,2023-10-26,野辺土地改良区,,その他,群馬県,館林市,城町１－１,,10,207,3740018,,,,,,,2023-10-26,1,,,,,ノベトチカイリヨウク,0
1043,4700150121430,新規,0,2023-10-26,2023-10-26,ＤｏｎｇＧｕａｎＳｈｉＭｉｎｇＷｅｉＤｉａｎＺｉＳｈａｎｇＷｕＹｏｕＸｉａｎＧｏｎｇＳｉ,,外国会社等,,,,,,,,ｇｕａｎｇ　ｄｏｎｇ　ｓｈｅｎｇ　ｄｏｎｇ　ｇｕａｎ　ｓｈｉ　ｈｕ　ｍｅｎ　ｚｈｅｎ　ｘｉ　ｐａｎ　ｗｕ　ｘｉａｎｇ　１１　ｈａｏ　３０１　ｆａｎｇ,,,,,,2023-10-26,1,,,,,ドングワンシーミンウェイディエンズーシャンウーヨウシエンゴンスー,0
1044,4700150121439,新規,0,2023-10-26,2023-10-26,Ｓｈｅｎｚｈｅｎ　Ａｎｗｉｋｅ　Ｔｅｃｈｎｏｌｏｇｙ　Ｃｏ．，Ｌｔｄ．,,外国会社等,,,,,,,,Ｒｏｏｍ　４Ｇ１１１，Ｅｒ　Ｈａｏ　Ｊｉａｏ　Ｙｉ　Ｇｕａｎｇ　Ｃｈａｎｇ，Ｈｕａ　Ｎａｎ　Ｃｈ，ＳｈｅｎＺｈｅｎ，Ｇｕａｎｇｄｏｎｇ,,,,,,2023-10-26,1,,,,,シンセンアンイキカギユウゲンコウシ,0
1045,4700150121447,新規,0,2023-10-26,2023-10-26,ｚｈｏｎｇｓｈａｎｓｈｉｆａｎｈａｏｊｉａｊｕｙｏｎｇｐｉｎｙｏｕｘｉａｎｇｏｎｇｓｉ,,外国会社等,,,,,,,,ｈｏｎｇｊｉｌｕ　ｚｈｏｎｇｘｉｎｇｄａｊｉｅ　６ｈａｏ　ｓａｎｃｅｎｇｚｈｉｅｒ，ＺｈｏｎｇＳｈａｎ，ＧｕａｎｇＤｏｎｇ,,,,,,2023-10-26,1,,,,,チュウサンシボンコウカキョヨウヒンユウゲンコウシ,0
1052,5010001239557,新規,0,2023-10-26,2023-10-26,ｃｒａｆｔｓｍａｎ株式会社,,株式会社,東京都,千代田区,飯田橋２丁目１６－４九段下コート２Ｆ－２０８号室,,13,101,1020072,,,,,,,2023-10-26,1,,,,,クラフツマン,0
1053,5010001239581,新規,0,2023-10-26,2023-10-26,東京千代田開発株式会社,,株式会社,東京都,千代田区,平河町１丁目６－１３－１００１,,13,101,1020093,,,,,,,2023-10-26,1,,,,,トウキョウチヨダカイハツ,0
1056,5010003042042,新規,0,2023-10-26,2023-10-26,合同会社ＡｓｓｉｓｔＯｎ,,合同会社,東京都,千代田区,九段南３丁目５番１０号,,13,101,1020074,,,,,,,2023-10-26,1,,,,,アシストン,0
1057,5010003042059,新規,0,2023-10-26,2023-10-26,ＤＲＶＪａｐａｎ合同会社,,合同会社,東京都,中央区,日本橋室町４丁目３番９号,,13,102,1030022,,,,,,,2023-10-26,1,,,,,ディーアールヴィー,0
1059,5010005037429,新規,0,2023-10-26,2023-10-26,黒岩レジデンシャル特定目的会社,,その他の設立登記法人,東京都,千代田区,丸の内３丁目１番１号東京共同会計事務所内,,13,101,1000005,,,,,,,2023-10-26,1,,,,,クロイワレジデンシャル,0
1068,5010401178025,新規,0,2023-10-26,2023-10-26,株式会社Ｐｉｎ　Ｃｏｌｌｉｎｅ,,株式会社,東京都,港区,南青山１丁目２－６－８Ｆ,,13,103,1070062,,,,,,,2023-10-26,1,,,,,,0
1069,5010401178058,新規,0,2023-10-26,2023-10-26,株式会社レイクサイドパートナーズ,,株式会社,東京都,港区,南麻布２丁目８－５－２０４,,13,103,1060047,,,,,,,2023-10-26,1,,,,,レイクサイドパートナーズ,0
1070,5010401178124,新規,0,2023-10-26,2023-10-26,株式会社Ｐｉｙｏ,,株式会社,東京都,港区,港南５丁目１－４スカイクレストビュー東京３０２,,13,103,1080075,,,,,,,2023-10-26,1,,,,,ピヨ,0
1071,5010401178132,新規,0,2023-10-26,2023-10-26,一三八株式会社,,株式会社,東京都,港区,南青山２丁目２５番１０号エスト南青山２階,,13,103,1070062,,,,,,,2023-10-26,1,,,,,イチサンパチ,0
1072,5010405022600,新規,0,2023-10-26,2023-10-26,ＥＳＲ３９特定目的会社,,その他の設立登記法人,東京都,港区,浜松町１丁目２０番１０号ライオネス浜松町５０６号室,,13,103,1050013,,,,,,,2023-10-26,1,,,,,イーエスアールサンジュウキュウ,0
1076,5010601064041,新規,0,2023-10-26,2023-10-26,ＡＭインベストメント株式会社,,株式会社,東京都,江東区,富岡１丁目１２－８,,13,108,1350047,,,,,,,2023-10-26,1,,,,,エーエムインベストメント,0
1085,5010701045040,新規,0,2023-10-26,2023-10-26,株式会社ネオメルヴ,,株式会社,東京都,品川区,中延２丁目９番２号,,13,109,1420053,,,,,,,2023-10-26,1,,,,,ネオメルヴ,0
1086,5010803004729,新規,0,2023-10-26,2023-10-26,合同会社ＮＳ企画,,合同会社,東京都,大田区,西蒲田７丁目２７番１号シャトー蒲田１２－５階,,13,111,1440051,,,,,,,2023-10-26,1,,,,,エヌエスキカク,0
1088,5010901054089,新規,0,2023-10-26,2023-10-26,ＬＥＡＤ　ＴＨＥ　ＦＵＴＵＲＥ株式会社,,株式会社,東京都,世田谷区,南烏山６丁目１６番３号スカイコート・千歳烏山３０３号室,,13,112,1570062,,,,,,,2023-10-26,1,,,,,リードザフューチャー,0
1090,5010903008547,新規,0,2023-10-26,2023-10-26,ＴＡＭＡＷＡＲＡ合同会社,,合同会社,東京都,世田谷区,深沢３丁目２６－１５－３０４,,13,112,1580081,,,,,,,2023-10-26,1,,,,,タマワラ,0
1095,5011001157740,新規,0,2023-10-26,2023-10-26,株式会社ＲＰＭ,,株式会社,東京都,渋谷区,恵比寿西２丁目８番４号ＥＸ恵比寿西ビル５階,,13,113,1500021,,,,,,,2023-10-26,1,,,,,アールピーエム,0
1096,5011001157798,新規,0,2023-10-26,2023-10-26,株式会社フラップテック,,株式会社,東京都,渋谷区,神宮前６丁目２３番４号桑野ビル２階,,13,113,1500001,,,,,,,2023-10-26,1,,,,,フラップテック,0
1097,5011001157807,新規,0,2023-10-26,2023-10-26,株式会社Ｓｍｏｋｅ＆Ｃｈｏｃｏｌａｔｅ,,株式会社,東京都,渋谷区,本町１丁目３３－７カスタリア初台ＩＩ３０８,00132419,13,113,1510071,,,,,,,2023-10-26,1,,,,,スモークアンドチョコレート,0
1098,5011001157815,新規,0,2023-10-26,2023-10-26,株式会社ラリード,,株式会社,東京都,目黒区,中央町２丁目２５番５－１０７号イルミナーレ学大,,13,110,1520001,,,,,,,2023-10-26,1,,,,,ラリード,0
1100,5011003017777,新規,0,2023-10-26,2023-10-26,合同会社ハルイロオフィス,,合同会社,東京都,渋谷区,道玄坂１丁目１０番８号渋谷道玄坂東急ビル２Ｆ－Ｃ,,13,113,1500043,,,,,,,2023-10-26,1,,,,,ハルイロオフィス,0
1104,5011101104907,新規,0,2023-10-26,2023-10-26,株式会社好業,,株式会社,東京都,新宿区,神楽坂２丁目１３七福ビル３Ｆ３３,,13,104,1620825,,,,,,,2023-10-26,1,,,,,スキギョウ,0
1105,5011101104915,新規,0,2023-10-26,2023-10-26,株式会社Ａｕｄｉｅｎｃｅ,,株式会社,東京都,新宿区,新宿２丁目１２番１３号新宿アントレサロンビル２階,,13,104,1600022,,,,,,,2023-10-26,1,,,,,オーディエンス,0
1108,5011301029111,新規,0,2023-10-26,2023-10-26,Ｂ‐ｃｈｏｉｃｅ株式会社,,株式会社,東京都,杉並区,阿佐谷南３丁目４１番１３号,,13,115,1660004,,,,,,,2023-10-26,1,,,,,ビーチョイス,0
1109,5011301029128,新規,0,2023-10-26,2023-10-26,リソースキューブジャパン株式会社,,株式会社,東京都,杉並区,高円寺南４丁目７－３サンシャイン高円寺８０３,,13,115,1660003,,,,,,,2023-10-26,1,,,,,リソースキューブジャパン,0
1121,5011501029910,新規,0,2023-10-26,2023-10-26,嘉美技術株式会社,,株式会社,東京都,荒川区,町屋３丁目２４番２号面川ビル２０９号室,,13,118,1160001,,,,,,,2023-10-26,1,,,,,カビギジュツ,0
1122,5011503005819,新規,0,2023-10-26,2023-10-26,Ｐｉｕ　Ｉｎ　Ａｌｔｏ合同会社,,合同会社,東京都,北区,東田端２丁目１１番２号カーサ鈴木２０１号,,13,117,1140013,,,,,,,2023-10-26,1,,,,,ピュウインアルト,0
1128,5011801043231,新規,0,2023-10-26,2023-10-26,株式会社ベルコール,,株式会社,東京都,葛飾区,奥戸６丁目１９－１６－２０２サンフライト,,13,122,1240022,,,,,,,2023-10-26,1,,,,,ベルコール,0
1129,5011801043248,新規,0,2023-10-26,2023-10-26,株式会社ＭＹＫ内装,,株式会社,東京都,葛飾区,西水元２丁目１８番１９号,,13,122,1250031,,,,,,,2023-10-26,1,,,,,エムワイケーナイソウ,0
1133,5012401041105,新規,0,2023-10-26,2023-10-26,株式会社ＡＹＡ,,株式会社,東京都,三鷹市,下連雀３丁目２２番９号,,13,204,1810013,,,,,,,2023-10-26,1,,,,,エーワイエー,0
1143,5012801022729,新規,0,2023-10-26,2023-10-26,株式会社光建,,株式会社,東京都,武蔵村山市,中央１丁目１０８番地の３,,13,223,2080003,,,,,,,2023-10-26,1,,,,,コウケン,0
1148,5013303006848,新規,0,2023-10-26,2023-10-26,合同会社ダイヤモンドベイト,,合同会社,東京都,豊島区,雑司が谷１丁目１１番７号サンキハイツ１０１号,,13,116,1710032,,,,,,,2023-10-26,1,,,,,ダイヤモンドベイト,0
1154,5020001154136,新規,0,2023-10-26,2023-10-26,株式会社ケースマ,,株式会社,神奈川県,横浜市金沢区,富岡西７丁目８－３イルフィオーレ２０２,,14,108,2360052,,,,,,,2023-10-26,1,,,,,ケースマ,0
1165,5021001080520,新規,0,2023-10-26,2023-10-26,株式会社Ｆｏｒｅｓｔａ　ｄｉ　Ｐｉｎｏ,,株式会社,神奈川県,藤沢市,鵠沼桜が岡３丁目５番５号喜多屋ビル１Ｆ,00132425,14,205,2510027,,,,,,,2023-10-26,1,,,,,フォレスタディピーノ,0
1167,5021003013718,新規,0,2023-10-26,2023-10-26,アンドメタ合同会社,,合同会社,神奈川県,茅ヶ崎市,松林３丁目９番２９号リブリＳＡＩＲＩＮ２３－１０４,,14,207,2530017,,,,,,,2023-10-26,1,,,,,アンドメタ,0
1174,5030001156841,新規,0,2023-10-26,2023-10-26,株式会社ＫＲＡ,,株式会社,埼玉県,さいたま市北区,奈良町１１１番地２１,,11,102,3310822,,,,,,,2023-10-26,1,,,,,ケーアールエー,0
1176,5030003022843,新規,0,2023-10-26,2023-10-26,合同会社米ぬか姉妹,,合同会社,埼玉県,越谷市,七左町４丁目９６番地３,,11,222,3430851,,,,,,,2023-10-26,1,,,,,コメヌカシマイ,0
1177,5030003022876,新規,0,2023-10-26,2023-10-26,ＭＳＭ　Ｊａｐａｎ合同会社,,合同会社,埼玉県,熊谷市,押切７５５番地４,,11,202,3600111,,,,,,,2023-10-26,1,,,,,エムエスエムジャパン,0
1180,5040001130639,新規,0,2023-10-26,2023-10-26,株式会社航建,,株式会社,千葉県,千葉市稲毛区,小深町２６２－１１,,12,103,2630003,,,,,,,2023-10-26,1,,,,,コウケン,0
1181,5040001130688,新規,0,2023-10-26,2023-10-26,株式会社ＮＴ商事,,株式会社,千葉県,流山市,南流山１０丁目３２番地の１,,12,220,2700163,,,,,,,2023-10-26,1,,,,,エヌティーショウジ,0
1182,5040001130696,新規,0,2023-10-26,2023-10-26,株式会社Ｎａｎｏ　Ｓｐｒｉｎｇ,,株式会社,千葉県,君津市,南子安２丁目６番７号,,12,225,2991162,,,,,,,2023-10-26,1,,,,,ナノスプリング,0
1188,5050001053673,新規,0,2023-10-26,2023-10-26,株式会社ジョーキング,,株式会社,茨城県,取手市,井野台４丁目６番１５号,,08,217,3020015,,,,,,,2023-10-26,1,,,,,ジョーキング,0
1192,5070002023269,新規,0,2023-10-26,2023-10-26,有限会社久保田商店,,有限会社,群馬県,桐生市,広沢町２丁目３１２６番地ノ７,,10,203,3760013,,,,,,,2023-10-26,1,,,,,クボタショウテン,0
1194,5080403004899,新規,0,2023-10-26,2023-10-26,合同会社はちのじ,,合同会社,静岡県,掛川市,秋葉路２３番地の５,,22,213,4360041,,,,,,,2023-10-26,1,,,,,ハチノジ,0
1195,5100001036920,新規,0,2023-10-26,2023-10-26,Ｋミッション株式会社,,株式会社,長野県,千曲市,大字打沢１６５番地６,,20,218,3870014,,,,,,,2023-10-26,1,,,,,ケーミッション,0
1197,5110003005195,新規,0,2023-10-26,2023-10-26,合同会社しちく,,合同会社,新潟県,新潟市北区,東栄町２丁目３－８,,15,101,9503323,,,,,,,2023-10-26,1,,,,,シチク,0
1202,5120001259189,新規,0,2023-10-26,2023-10-26,株式会社エール,,株式会社,大阪府,大阪市北区,西天満６丁目４番１２号グラン・ビルド西天満２階,,27,127,5300047,,,,,,,2023-10-26,1,,,,,エール,0
1203,5120001259338,新規,0,2023-10-26,2023-10-26,リサラオプト株式会社,,株式会社,大阪府,大阪市西淀川区,竹島３丁目８番１８－１２０３号,,27,113,5550011,,,,,,,2023-10-26,1,,,,,リサラオプト,0
1207,5120101068432,新規,0,2023-10-26,2023-10-26,オータニ不動産販売株式会社,,株式会社,大阪府,羽曳野市,向野２１１番地,,27,222,5830883,,,,,,,2023-10-26,1,,,,,オータニフドウサンハンバイ,0
1208,5120103005490,新規,0,2023-10-26,2023-10-26,合同会社すまうん,,合同会社,大阪府,和泉市,はつが野５丁目２３番４号,,27,219,5941106,,,,,,,2023-10-26,1,,,,,スマウン,0
1213,5122001037517,新規,0,2023-10-26,2023-10-26,株式会社居住福祉研究所,,株式会社,大阪府,東大阪市,小若江３丁目６番９号,,27,227,5770818,,,,,,,2023-10-26,1,,,,,キョジュウフクシケンキュウジョ,0
1217,5130003009070,新規,0,2023-10-26,2023-10-26,合同会社パープル,,合同会社,京都府,京都市左京区,高野西開町１番地第２くめマンション３１４,,26,103,6068103,,,,,,,2023-10-26,1,,,,,パープル,0
1223,5140003019738,新規,0,2023-10-26,2023-10-26,ＣｒｙｏＳｅｎｄ合同会社,,合同会社,兵庫県,西宮市,広田町１２番２－４０７号,,28,204,6620837,,,,,,,2023-10-26,1,,,,,クライオセンド,0
1225,5150001026834,新規,0,2023-10-26,2023-10-26,株式会社三友舎,,株式会社,奈良県,橿原市,菖蒲町４丁目２６番５号,,29,205,6340042,,,,,,,2023-10-26,1,,,,,サンユウシャ,0
1232,5180001158666,新規,0,2023-10-26,2023-10-26,株式会社ｅｕｗ,,株式会社,愛知県,名古屋市中村区,名駅４丁目２４番５号第２森ビル４０１,,23,105,4500002,,,,,,,2023-10-26,1,,,,,イユー,0
1233,5180001158682,新規,0,2023-10-26,2023-10-26,株式会社Ｈｏｋｕｔｏ　Ｈｏｌｄｉｎｇｓ,,株式会社,愛知県,一宮市,富塚字山寺４７番地,,23,203,4910123,,,,,,,2023-10-26,1,,,,,ホクトホールディングス,0
1239,5180301037925,新規,0,2023-10-26,2023-10-26,株式会社まる,,株式会社,愛知県,知立市,新林町平草１番地９,,23,225,4720017,,,,,,,2023-10-26,1,,,,,マル,0
1250,5240001062325,新規,0,2023-10-26,2023-10-26,株式会社Ｋ．Ｗメンテナンス,,株式会社,広島県,福山市,柳津町１丁目５番１５－３０７号サクシード備後,,34,207,7290114,,,,,,,2023-10-26,1,,,,,ケイダブルメンテナンス,0
1251,5240001062333,新規,0,2023-10-26,2023-10-26,株式会社ＤＡＩＭＯＮ,,株式会社,広島県,安芸郡海田町,三迫１丁目２７番２２－２６号,,34,304,7360014,,,,,,,2023-10-26,1,,,,,ダイモン,0
1254,5240003006387,新規,0,2023-10-26,2023-10-26,合同会社弥杜組,,合同会社,広島県,広島市安佐南区,山本新町４丁目６番２４号,,34,105,7310139,,,,,,,2023-10-26,1,,,,,ミトグミ,0
1255,5240005015667,新規,0,2023-10-26,2023-10-26,特定非営利活動法人ガハハ塾,,その他の設立登記法人,広島県,広島市中区,江波本町１４－１５Ｋ’ｓコート２０３号,,34,101,7300833,,,,,,,2023-10-26,1,,,,,ガハハジュク,0
1257,5260001038430,新規,0,2023-10-26,2023-10-26,株式会社Ｍ．ｂｒｏｔｈｅｒ’ｓ,,株式会社,岡山県,岡山市東区,西大寺９９８番地サンビレッジ西大寺Ｄ棟１０１号室,,33,103,7048113,,,,,,,2023-10-26,1,,,,,,0
1258,5260001038447,新規,0,2023-10-26,2023-10-26,株式会社ＳＨＯＫＥＮコーポレーション,,株式会社,岡山県,笠岡市,園井２９５番地１,,33,205,7140021,,,,,,,2023-10-26,1,,,,,ショウケンコーポレーション,0
1265,5290001103529,新規,0,2023-10-26,2023-10-26,株式会社Ｆｅｌｉｃｉａｎｏ,,株式会社,福岡県,福岡市中央区,大濠２丁目３番２号,,40,133,8100052,,,,,,,2023-10-26,1,,,,,フェリシアーノ,0
1271,5310001018682,新規,0,2023-10-26,2023-10-26,株式会社トラスティ不動産販売,,株式会社,長崎県,長崎市,桶屋町２５番地６階,,42,201,8500027,,,,,,,2023-10-26,1,,,,,トラスティフドウサンハンバイ,0
1273,5330001031386,新規,0,2023-10-26,2023-10-26,株式会社Ｙｏｕ‐Ｍｏｎ,,株式会社,熊本県,山鹿市,鹿本町石渕５４４番地２,,43,208,8610311,,,,,,,2023-10-26,1,,,,,ユーモン,0
1274,5330003010033,新規,0,2023-10-26,2023-10-26,合同会社ＧＲＡＤＭＩＮ,,合同会社,熊本県,合志市,須屋２０９２番地３９,,43,216,8611102,,,,,,,2023-10-26,1,,,,,グラドミン,0
1275,5330003010041,新規,0,2023-10-26,2023-10-26,Ｙ＆Ｙ合同会社,,合同会社,熊本県,球磨郡あさぎり町,岡原北５８８番地３,,43,514,8680431,,,,,,,2023-10-26,1,,,,,ワイアンドワイ,0
1293,5380003005598,新規,0,2023-10-26,2023-10-26,合同会社ＫＳＰ,,合同会社,福島県,郡山市,若葉町２０－１ベレオ若葉町Ｉ３０２,00132414,07,203,9638011,,,,,,,2023-10-26,1,,,,,ケーエスピー,0
1298,5420001018465,新規,0,2023-10-26,2023-10-26,株式会社ライゼファーム,,株式会社,青森県,つがる市,牛潟町鷲野沢２９番地３９７,,02,209,0383305,,,,,,,2023-10-26,1,,,,,ライゼファーム,0
1307,5430001090257,新規,0,2023-10-26,2023-10-26,株式会社ホーユウ東日本,,株式会社,北海道,札幌市北区,北二十三条西３丁目１番２１号札幌北２３条ソシアルビル５階,,01,102,0010023,,,,,,,2023-10-26,1,,,,,ホーユウヒガシニホン,0
1318,5500003003127,新規,0,2023-10-26,2023-10-26,合同会社ｍｏｃｏｔｏ,,合同会社,愛媛県,松山市,西石井４丁目６－１７,,38,201,7900931,,,,,,,2023-10-26,1,,,,,,0
1320,5700150121438,新規,0,2023-10-26,2023-10-26,ＰＡＩＡＩＰ　ＴＥＣＨＮＯＬＯＧＹ　ＳＨＥＮＺＨＥＮ　ＣＯ．，ＬＴＤ,,外国会社等,,,,,,,,Ｒｍ　１７０８　Ｂｌｄｇ　１６　Ｈｕａｎｇｙｕｙｕａｎ　Ｎｏ．７　Ｆｕｔｉａｎ　Ｓｏｕｔｈ　Ｒｏａｄ，Ｆｕｔｉａｎ　Ｄｉｓｔｒｉｃｔ　Ｓｈｅｎｚｈｅｎ　５１８０００　ＣＨＩＮＡ,,,,,,2023-10-26,1,,,,,パイアイプーコージーシェンジェンヨウシエンゴンスー,0
1321,5700150121446,新規,0,2023-10-26,2023-10-26,Ｓｈｅｎｚｈｅｎ　Ｂａｉｓｈｉｙｕｅ　Ｅｌｅｃｔｒｏｎｉｃｓ　Ｃｏ．，Ｌｔｄ,,外国会社等,,,,,,,,５Ｆ，Ｂｌｏｃｋ　２４ｔｈ，ＬｏｎｇＢｉ　Ｉｎｄｕｓｔｒｉａｌ　Ｚｏｎｅ，Ｎｏ．２７　Ｄａｆａ　Ｒｏａｄ，Ｂａｎｔｉａｎ，Ｌｏｎｇｇａｎｇ，Ｓｈｅｎｚｈｅｎ，Ｇｕａｎｇｄｏｎｇ,,,,,,2023-10-26,1,,,,,シンセンシヒャクシエツデンシユウゲンコウシ,0
1322,5700150121495,新規,0,2023-10-26,2023-10-26,Ｇｕａｎｇｚｈｏｕ　Ｇｕｌｉａｎ　ＥＣｏｍｍｅｒｃｅ　Ｃｏ．，Ｌｔｄ．,,外国会社等,,,,,,,,Ｒｏｏｍ　３０３，Ｂｕｉｌｄｉｎｇ　Ａ，Ｍ３　Ｃｒｅａｔｉｖｅ　Ｐａｒｋ，Ｎｏ．１，Ｌｉａｎｂｉａｎ　１ｓｔ　Ｒｏａｄ，Ｌｉａｎｂｉａｎ，Ｈｅｌｏｎｇ　Ｓｔｒｅｅｔ，Ｂａｉｙｕｎ　ＤｉｓｔｒｉｃｔＧｕａｎｇｚｈｏｕＧｕａｎｇｄｏｎｇ,,,,,,2023-10-26,1,,,,,グワンジョウグーリエンディエンズーシャンウーヨウシエンゴンスー,0
1328,6010001239382,新規,0,2023-10-26,2023-10-26,株式会社コム・デ・シネマ・ジャポン,,株式会社,東京都,中央区,銀座６丁目１０番１号ＧＩＮＺＡＳＩＸ１３階,,13,102,1040061,,,,,,,2023-10-26,1,,,,,コムデシネマジャポン,0
1329,6010001239556,新規,0,2023-10-26,2023-10-26,株式会社ニュースタートファインフード,,株式会社,東京都,中央区,銀座７丁目１３番２０号銀座ＴＨビル９階,,13,102,1040061,,,,,,,2023-10-26,1,,,,,ニュースタートファインフード,0
1333,6010003042041,新規,0,2023-10-26,2023-10-26,合同会社ボマール,,合同会社,東京都,千代田区,丸の内１丁目７番１２号,,13,101,1000005,,,,,,,2023-10-26,1,,,,,ボマール,0
1334,6010005037428,新規,0,2023-10-26,2023-10-26,一般社団法人ツナガリ,,その他の設立登記法人,東京都,千代田区,丸の内３丁目１番１号東京共同会計事務所内,,13,101,1000005,,,,,,,2023-10-26,1,,,,,ツナガリ,0
1338,6010401178115,新規,0,2023-10-26,2023-10-26,株式会社誠旺,,株式会社,東京都,港区,赤坂２丁目８番１４－４０７号,,13,103,1070052,,,,,,,2023-10-26,1,,,,,セイオウ,0
1339,6010401178123,新規,0,2023-10-26,2023-10-26,株式会社マール,,株式会社,東京都,港区,北青山１丁目３番１号アールキューブ青山３階,,13,103,1070061,,,,,,,2023-10-26,1,,,,,,0
1340,6010401178131,新規,0,2023-10-26,2023-10-26,株式会社エレクトリック・シープ,,株式会社,東京都,港区,南青山２丁目２番１５号ウィン青山９４２,,13,103,1070062,,,,,,,2023-10-26,1,,,,,エレクトリックシープ,0
1341,6010401178156,新規,0,2023-10-26,2023-10-26,株式会社とは,,株式会社,東京都,港区,赤坂２丁目２１番４号,,13,103,1070052,,,,,,,2023-10-26,1,,,,,トワ,0
1344,6010405022599,新規,0,2023-10-26,2023-10-26,ＥＳＲ３８特定目的会社,,その他の設立登記法人,東京都,港区,浜松町１丁目２０番１０号ライオネス浜松町５０６号室,,13,103,1050013,,,,,,,2023-10-26,1,,,,,イーエスアールサンジュウハチ,0
1345,6010405022608,新規,0,2023-10-26,2023-10-26,一般社団法人アートアーカイブアソシエーション,,その他の設立登記法人,東京都,港区,芝公園１丁目７番１７号ＴＨＩＮＸ大門,,13,103,1050011,,,,,,,2023-10-26,1,,,,,アートアーカイブアソシエーション,0
1348,6010605004257,新規,0,2023-10-26,2023-10-26,一般社団法人宗仁会,,その他の設立登記法人,東京都,墨田区,両国３丁目２６－１ＥＩビル５階,,13,107,1300026,,,,,,,2023-10-26,1,,,,,ソウジンカイ,0
1352,6010701045031,新規,0,2023-10-26,2023-10-26,株式会社ＡＳＬＥＡＤ,,株式会社,東京都,品川区,南大井３丁目２８－４角田ビル２Ｆ,,13,109,1400013,,,,,,,2023-10-26,1,,,,,アスリード,0
1358,6010903008538,新規,0,2023-10-26,2023-10-26,合同会社富岡トレーディング,,合同会社,東京都,世田谷区,代沢４丁目２１番１号,,13,112,1550032,,,,,,,2023-10-26,1,,,,,トミオカトレーディング,0
1359,6010903008546,新規,0,2023-10-26,2023-10-26,浩然合同会社,,合同会社,東京都,世田谷区,太子堂２丁目１４－２１ユースフル三軒茶屋４０４号室,,13,112,1540004,,,,,,,2023-10-26,1,,,,,コウゼン,0
1362,6011001157789,新規,0,2023-10-26,2023-10-26,株式会社ＳＵＮＮＹ．Ｂｌｏｓｓｏｍ．,,株式会社,東京都,渋谷区,道玄坂１丁目１０－８渋谷道玄坂東急ビル２Ｆ－Ｃ,,13,113,1500043,,,,,,,2023-10-26,1,,,,,サニーブロッサム,0
1363,6011001157806,新規,0,2023-10-26,2023-10-26,株式会社ＮｅｗＢｅａｔ,,株式会社,東京都,渋谷区,道玄坂１丁目１０番８号渋谷道玄坂東急ビル２Ｆ－Ｃ,,13,113,1500043,,,,,,,2023-10-26,1,,,,,ニュービート,0
1364,6011001157822,新規,0,2023-10-26,2023-10-26,株式会社うさランド,,株式会社,東京都,目黒区,碑文谷５丁目２番５号Ｔ＆Ａビル５階,,13,110,1520003,,,,,,,2023-10-26,1,,,,,ウサランド,0
1365,6011001157855,新規,0,2023-10-26,2023-10-26,株式会社Ｔｏｋｙｏ　Ａｎｉｍｅ　Ａｒｔｉｆａｃｔｓ,,株式会社,東京都,渋谷区,南平台町１６番１７号,,13,113,1500036,,,,,,,2023-10-26,1,,,,,トウキョウアニメアーティファクツ,0
1368,6011003017768,新規,0,2023-10-26,2023-10-26,合同会社Ｐｉｎｏ＆Ｃｏ．,,合同会社,東京都,渋谷区,神宮前６丁目２３番４号桑野ビル２階,,13,113,1500001,,,,,,,2023-10-26,1,,,,,ピノアンドコ,0
1369,6011005010242,新規,0,2023-10-26,2023-10-26,一般社団法人ＨＵＧ　Ｊａｐａｎ,,その他の設立登記法人,東京都,渋谷区,円山町２５－４加藤ビル２階,,13,113,1500044,,,,,,,2023-10-26,1,,,,,ハグジャパン,0
1379,6011303004945,新規,0,2023-10-26,2023-10-26,Ｏｍ合同会社,,合同会社,東京都,杉並区,浜田山３丁目１８番１２－２０２号,,13,115,1680065,,,,,,,2023-10-26,1,,,,,オム,0
1385,6011503005818,新規,0,2023-10-26,2023-10-26,新東京合同会社,,合同会社,東京都,北区,浮間１丁目１番１４号リムジンビル３１０,,13,117,1150051,,,,,,,2023-10-26,1,,,,,シントウキョウ,0
1387,6011801043230,新規,0,2023-10-26,2023-10-26,嘉樹株式会社,,株式会社,東京都,足立区,保木間３丁目２８番１０－２０１号,,13,121,1210064,,,,,,,2023-10-26,1,,,,,カキ,0
1388,6011801043247,新規,0,2023-10-26,2023-10-26,株式会社金泉,,株式会社,東京都,足立区,西新井２丁目３０番１０号ＵＵコーポ２０１,,13,121,1230841,,,,,,,2023-10-26,1,,,,,キンセン,0
1389,6011803005906,新規,0,2023-10-26,2023-10-26,ｇｌｏｗｂｌａｎｃ合同会社,,合同会社,東京都,足立区,綾瀬３丁目１６番１８－１００１,,13,121,1200005,,,,,,,2023-10-26,1,,,,,グローブラン,0
1395,6012801022728,新規,0,2023-10-26,2023-10-26,禅聴者株式会社,,株式会社,東京都,立川市,錦町１丁目４番４号サニービル２階,,13,202,1900022,,,,,,,2023-10-26,1,,,,,ゼンチョウシャ,0
1396,6012805003237,新規,0,2023-10-26,2023-10-26,一般社団法人恋ヶ窪メディカル,,その他の設立登記法人,東京都,国分寺市,東恋ヶ窪５丁目１６番地５ベルフラワー恋ヶ窪１階,,13,214,1850014,,,,,,,2023-10-26,1,,,,,コイガクボメディカル,0
1407,6020001154135,新規,0,2023-10-26,2023-10-26,株式会社ナンバー８,,株式会社,神奈川県,川崎市多摩区,菅馬場２丁目７－１,,14,135,2140004,,,,,,,2023-10-26,1,,,,,ナンバーエイト,0
1409,6020003024823,新規,0,2023-10-26,2023-10-26,合同会社Ｔ・Ｊ・Ａ,,合同会社,神奈川県,横浜市旭区,東希望が丘２２３番地１４,,14,112,2410826,,,,,,,2023-10-26,1,,,,,ティージェイエイ,0
1410,6020003024872,新規,0,2023-10-26,2023-10-26,合同会社ピースフィールドコーポレーション,,合同会社,神奈川県,川崎市中原区,北谷町３８番地２川崎平間パーク・ホームズ７０１,,14,133,2110015,,,,,,,2023-10-26,1,,,,,ピースフィールドコーポレーション,0
1413,6021001080536,新規,0,2023-10-26,2023-10-26,株式会社ｋｉｎｏｉｒｏ,,株式会社,神奈川県,厚木市,下荻野１２４８番地３,,14,212,2430203,,,,,,,2023-10-26,1,,,,,キノイロ,0
1414,6021001080544,新規,0,2023-10-26,2023-10-26,株式会社ＳＩＶＡＤＯＧ,,株式会社,神奈川県,藤沢市,辻堂３丁目１９番５１号,,14,205,2510047,,,,,,,2023-10-26,1,,,,,シバドッグ,0
1415,6021001080560,新規,0,2023-10-26,2023-10-26,株式会社ａｔｔａｋａ,,株式会社,神奈川県,三浦郡葉山町,一色５６９番地の８,,14,301,2400111,,,,,,,2023-10-26,1,,,,,アッタカ,0
1421,6030001156849,新規,0,2023-10-26,2023-10-26,株式会社ＭａｎｄＭ,,株式会社,埼玉県,白岡市,白岡１０２７番地１,,11,246,3490218,,,,,,,2023-10-26,1,,,,,エムアンドエム,0
1435,6040001130679,新規,0,2023-10-26,2023-10-26,株式会社ＨＩＲＡＮＯ　Ｖｅｎｔｉｌａｔｉｏｎ,,株式会社,千葉県,君津市,上湯江６２番地１,,12,225,2991138,,,,,,,2023-10-26,1,,,,,ヒラノベントレーション,0
1436,6040001130687,新規,0,2023-10-26,2023-10-26,株式会社岡水,,株式会社,千葉県,浦安市,堀江１丁目２番１号,,12,227,2790041,,,,,,,2023-10-26,1,,,,,オカスイ,0
1437,6040001130704,新規,0,2023-10-26,2023-10-26,株式会社緒方農園,,株式会社,千葉県,香取郡東庄町,神田３番地,,12,349,2890635,,,,,,,2023-10-26,1,,,,,オガタノウエン,0
1440,6050001053656,新規,0,2023-10-26,2023-10-26,株式会社ＣｒｅｓｔＷｏｒｋ,,株式会社,茨城県,つくば市,高崎１７２０番地９,,08,220,3001245,,,,,,,2023-10-26,1,,,,,クレストワーク,0
1441,6050001053697,新規,0,2023-10-26,2023-10-26,テイルライン株式会社,,株式会社,茨城県,取手市,光風台３丁目７番１２号,,08,217,3001536,,,,,,,2023-10-26,1,,,,,テイルライン,0
1442,6050001053706,新規,0,2023-10-26,2023-10-26,株式会社アスソラ,,株式会社,茨城県,稲敷郡阿見町,大字実穀１４０７番地１８,,08,443,3001153,,,,,,,2023-10-26,1,,,,,アスソラ,0
1445,6050003007899,新規,0,2023-10-26,2023-10-26,Ｂａｊｗａ　Ｔｒａｄｉｎｇ　Ｊａｐａｎ合同会社,,合同会社,茨城県,土浦市,飯田２４３７番２,,08,203,3000802,,,,,,,2023-10-26,1,,,,,バジワトレーディングジャパン,0
1454,6100001036911,新規,0,2023-10-26,2023-10-26,株式会社ＦＥＬＬＯＷ,,株式会社,長野県,伊那市,日影１７番地１,,20,209,3960009,,,,,,,2023-10-26,1,,,,,フェロー,0
1460,6120001259056,新規,0,2023-10-26,2023-10-26,プレジオ・バイオラボ株式会社,,株式会社,大阪府,大阪市北区,梅田１丁目２番２号大阪駅前第二ビル１０階,,27,127,5300001,,,,,,,2023-10-26,1,,,,,プレジオバイオラボ,0
1461,6120001259155,新規,0,2023-10-26,2023-10-26,株式会社華桑,,株式会社,大阪府,大阪市都島区,都島北通２丁目１２番１８号２０１号室,,27,102,5340014,,,,,,,2023-10-26,1,,,,,カソウ,0
1462,6120001259196,新規,0,2023-10-26,2023-10-26,株式会社ＢＬＯＯＶＥ,,株式会社,大阪府,大阪市中央区,島之内１丁目１３番３－８０４号,,27,128,5420082,,,,,,,2023-10-26,1,,,,,ブルーブ,0
1463,6120001259213,新規,0,2023-10-26,2023-10-26,星光株式会社,,株式会社,大阪府,大阪市中央区,道頓堀１丁目東５番１０号２階,,27,128,5420071,,,,,,,2023-10-26,1,,,,,セイコウ,0
1464,6120001259238,新規,0,2023-10-26,2023-10-26,株式会社ふじのき,,株式会社,大阪府,大阪市城東区,関目３丁目８番８－３０１号,,27,118,5360008,,,,,,,2023-10-26,1,,,,,フジノキ,0
1465,6120001259270,新規,0,2023-10-26,2023-10-26,株式会社ＡＡＲＮＩＶＡＬＯ,,株式会社,大阪府,大阪市西区,北堀江３丁目１０番１７－１０１３号,,27,106,5500014,,,,,,,2023-10-26,1,,,,,アーニバロ,0
1466,6120001259304,新規,0,2023-10-26,2023-10-26,株式会社ｎｏｎｇｉｆｔｅｄ,,株式会社,大阪府,大阪市中央区,伏見町２丁目３番９号,,27,128,5410044,,,,,,,2023-10-26,1,,,,,ノンギフテッド,0
1469,6120005023945,新規,0,2023-10-26,2023-10-26,一般社団法人在阪中華経理研究会,,その他の設立登記法人,大阪府,大阪市中央区,北久宝寺町１丁目２番１号７０１,,27,128,5410057,,,,,,,2023-10-26,1,,,,,ザイハンチュウカケイリケンキュウカイ,0
1474,6130001075502,新規,0,2023-10-26,2023-10-26,株式会社小坂電気,,株式会社,京都府,京都市伏見区,日野北山２９番地,,26,109,6011401,,,,,,,2023-10-26,1,,,,,コサカデンキ,0
1479,6140001132112,新規,0,2023-10-26,2023-10-26,株式会社ＢＯＯ‐ＢＯＯ,,株式会社,兵庫県,神戸市西区,大津和２丁目８番地の３４,,28,111,6512112,,,,,,,2023-10-26,1,,,,,ブーブー,0
1480,6140001132129,新規,0,2023-10-26,2023-10-26,株式会社アールイーシー,,株式会社,兵庫県,神戸市北区,星和台２丁目４７番地の１６,,28,109,6511121,,,,,,,2023-10-26,1,,,,,アールイーシー,0
1488,6180003025913,新規,0,2023-10-26,2023-10-26,Ｓ．Ｍ．Ａ．合同会社,,合同会社,愛知県,春日井市,白山町８丁目１４番地２,,23,206,4870034,,,,,,,2023-10-26,1,,,,,エスエムエイ,0
1489,6180301037924,新規,0,2023-10-26,2023-10-26,株式会社ＮＡＬＵ,,株式会社,愛知県,豊川市,伊奈町茶屋１５番地３プラチナムＩＩ１Ｆ,00132417,23,207,4410105,,,,,,,2023-10-26,1,,,,,ナル,0
1497,6200003006126,新規,0,2023-10-26,2023-10-26,合同会社ＲＹＵＴＥＣ,,合同会社,岐阜県,安八郡安八町,南今ケ渕２１０番地２,,21,383,5030115,,,,,,,2023-10-26,1,,,,,リューテック,0
1500,6220001025654,新規,0,2023-10-26,2023-10-26,株式会社ＦＪＫ,,株式会社,石川県,金沢市,松村７丁目８９番地６,,17,201,9200348,,,,,,,2023-10-26,1,,,,,エフジェイケイ,0
1502,6230001020076,新規,0,2023-10-26,2023-10-26,株式会社ＮＫ　ＳｋｙＴｅｃｈ　Ｓｏｌｕｔｉｏｎｓ,,株式会社,富山県,高岡市,御旅屋町１０１御旅屋セリオ４Ｆ,,16,202,9330029,,,,,,,2023-10-26,1,,,,,エヌケイスカイテックソリューションズ,0
1511,6250001020371,新規,0,2023-10-26,2023-10-26,ＭＧ’ｗｏｒｋ株式会社,,株式会社,山口県,下関市,椋野町３丁目１９番１８号,,35,201,7510816,,,,,,,2023-10-26,1,,,,,エムジーワーク,0
1516,6290001103445,新規,0,2023-10-26,2023-10-26,株式会社Ｙｍｉｒ,,株式会社,福岡県,筑紫野市,岡田３丁目２番地２ソシアＩＩＩ２０１号,00132416,40,217,8180013,,,,,,,2023-10-26,1,,,,,ユミル,0
1517,6290001103486,新規,0,2023-10-26,2023-10-26,株式会社秦建装,,株式会社,福岡県,福岡市博多区,吉塚６丁目５番２１号,,40,132,8120041,,,,,,,2023-10-26,1,,,,,ハタケンソウ,0
1520,6290003014541,新規,0,2023-10-26,2023-10-26,合同会社アクロスアセットプロパティ,,合同会社,福岡県,福岡市中央区,渡辺通４丁目１番３６号４階,,40,133,8100004,,,,,,,2023-10-26,1,,,,,アクロスアセットプロパティ,0
1530,6320001020109,新規,0,2023-10-26,2023-10-26,株式会社健康ＪＡＰＡＮ,,株式会社,大分県,大分市,大字葛木６７４番地の２,,44,201,8700133,,,,,,,2023-10-26,1,,,,,ケンコウジャパン,0
1534,6330001031393,新規,0,2023-10-26,2023-10-26,株式会社Ｌｉｂａ,,株式会社,熊本県,熊本市東区,榎町３番５２号,,43,102,8620917,,,,,,,2023-10-26,1,,,,,リバ,0
1544,6360003013379,新規,0,2023-10-26,2023-10-26,ＡｇｒｉｈａｃｋＭａｎｕｆａｃｔｕｒｉｎｇ合同会社,,合同会社,沖縄県,浦添市,内間４丁目５番３７号１Ｆ,,47,208,9012121,,,,,,,2023-10-26,1,,,,,アグリハックマニュファクチャリング,0
1555,6420001018464,新規,0,2023-10-26,2023-10-26,株式会社ＳＥＫＩ建設,,株式会社,青森県,北津軽郡鶴田町,大字鶴田字小泉４６１番地１２,,02,384,0383503,,,,,,,2023-10-26,1,,,,,セキケンセツ,0
1562,6430001090248,新規,0,2023-10-26,2023-10-26,野村創建株式会社,,株式会社,北海道,札幌市東区,苗穂町３丁目４－３１ＮＡＥＢＯ　Ｎ３ＢＬＤ１Ｆ,,01,103,0650043,,,,,,,2023-10-26,1,,,,,ノムラソウケン,0
1563,6430001090280,新規,0,2023-10-26,2023-10-26,株式会社アットキャリオン,,株式会社,北海道,札幌市中央区,南三条東３丁目８番地ラフィネタワー札幌南３条２３０８号,,01,101,0600053,,,,,,,2023-10-26,1,,,,,アットキャリオン,0
1567,6450003002397,新規,0,2023-10-26,2023-10-26,合同会社Ｓｈｉｎｅｍｉ,,合同会社,北海道,勇払郡占冠村,字上トマムあるぷすペンション,,01,463,0792205,,,,,,,2023-10-26,1,,,,,,0
1570,6480001012271,新規,0,2023-10-26,2023-10-26,株式会社ドッグシリュー,,株式会社,徳島県,板野郡板野町,大寺字高樹５３番地,,36,404,7790105,,,,,,,2023-10-26,1,,,,,ドッグシリュー,0
1574,6500003003126,新規,0,2023-10-26,2023-10-26,合同会社Ｒｅ．ｃｏｖｅｒｙ,,合同会社,愛媛県,松山市,南土居町２７９番地９,,38,201,7911116,,,,,,,2023-10-26,1,,,,,リカバリー,0
1575,6700150121420,新規,0,2023-10-26,2023-10-26,Ｓｈｅｎｚｈｅｎｓｈｉ　ＬｉｎｇＪｉｕ　ｄｉａｎｚｉｓｈａｎｇｗｕｙｏｕｘｉａｎｇｏｎｇｓｉ,,外国会社等,,,,,,,,Ｓｈｅｎｚｈｅｎｓｈｉ　Ｌｏｎｇｈｕａｑｕ　Ｌｏｎｇｈｕａｊｉｅｄａｏ　Ｈｕａｌｉａｎｓｈｅｑｕ　ｊｉａｎｈｕｉｌｕ　Ｆｕｌｉａｎｇｏｎｇｙｅｑｕ１ｄｏｎｇ３０２,,,,,,2023-10-26,1,,,,,シンセンシリンジユデンシシヨウムユウゲンコウシ,0
1576,6700150121437,新規,0,2023-10-26,2023-10-26,Ｘｉｎｈｕａ　ｃｏｕｎｔｙ　Ｌｉｔｉｅ　ｅｌｅｃｔｒｏｎｉｃ　ｔｅｃｈｎｏｌｏｇｙ　Ｃｏ．，ＬＴＤ,,外国会社等,,,,,,,,Ｎｏ．０１３，Ｓｉｘｔｈ　ｖｉｌｌａｇｅｒ　Ｇｒｏｕｐ，Ｆａｎｇｚｈｕ　Ｖｉｌｌａｇｅ，Ｗｅｎｔｉａｎ　Ｔｏｗｎ，Ｘｉｎｈｕａ　Ｃｏｕｎｔｙ，Ｌｏｕｄｉ　Ｃｉｔｙ，Ｈｕｎａｎ　Ｐｒｏｖｉｎｃｅ,,,,,,2023-10-26,1,,,,,シンフワーシエンリーティエディエンズーコージーヨウシエンゴンスー,0
1577,6700150121445,新規,0,2023-10-26,2023-10-26,ＮＯＶＡ３Ｄ,,外国会社等,,,,,,,,Ａｒｅａ　４０１Ａ，Ｆａｃｔｏｒｙ　Ｂｕｉｌｄｉｎｇ２，Ｊｉｎｓｈｕｎｙｕａｎ　Ｆａｃｔｏｒｙ　Ｐｈａｓｅ２，Ｆｕｒｏｎｇｒｏａｄｎａｎ，Ｔａｎｔｏｕｓｈｅｑｕ，Ｓｏｎｇｇａｎｇ　Ｓｔｒｅｅｔ，Ｂａｏａｎｑｕ，Ｓｈｅｎｚｈｅｎｓｈｉ,,,,,,2023-10-26,1,,,,,シンセンシシダクガロボットギジュツユウゲンコウシ,0
1578,6700150121494,新規,0,2023-10-26,2023-10-26,Ｓｈａｎｇｈａｉ　Ｑｉａｏｇｅ　Ｔｅｃｈｎｏｌｏｇｙ　Ｃｏ．，Ｌｔｄ．,,外国会社等,,,,,,,,Ｒｏｏｍ　５０１，Ｎｏ．３５８　Ｌｅｄｕ　Ｒｏａｄ，Ｓｏｎｇｊｉａｎｇ　Ｄｉｓｔｒｉｃｔ　Ｓｈａｎｇｈａｉ　ＣＨＩＮＡ,,,,,,2023-10-26,1,,,,,シャンハイチャオゴーコージーヨウシエンゴンスー,0
1588,7010005037427,新規,0,2023-10-26,2023-10-26,弁護士法人ＹＡＭＡＧＵＣＨＩ＆ＰＡＲＴＮＥＲＳ,,その他の設立登記法人,東京都,千代田区,九段北４丁目３番２２号,,13,101,1020073,,,,,,,2023-10-26,1,,,,,ヤマグチアンドパートナーズ,0
1596,7010401177999,新規,0,2023-10-26,2023-10-26,株式会社ｐｏｔｅｎ,,株式会社,東京都,港区,港南２丁目１７番１号京王品川ビル２Ｆ,,13,103,1080075,,,,,,,2023-10-26,1,,,,,ポテン,0
1597,7010401178097,新規,0,2023-10-26,2023-10-26,株式会社さわやか賃貸,,株式会社,東京都,港区,芝４丁目７番６号,,13,103,1080014,,,,,,,2023-10-26,1,,,,,サワヤカチンタイ,0
1598,7010401178130,新規,0,2023-10-26,2023-10-26,株式会社コトリデザインリミテッド,,株式会社,東京都,港区,南青山３丁目１４番１４号,,13,103,1070062,,,,,,,2023-10-26,1,,,,,コトリデザインリミテッド,0
1599,7010401178155,新規,0,2023-10-26,2023-10-26,株式会社たきまる,,株式会社,東京都,港区,麻布十番１丁目８番１１号ＴＡＫＡＤＥＮ麻布十番３階,,13,103,1060045,,,,,,,2023-10-26,1,,,,,タキマル,0
1600,7010403031246,新規,0,2023-10-26,2023-10-26,ブラストプラス合同会社,,合同会社,東京都,港区,北青山１丁目３番１号アールキューブ青山３階,,13,103,1070061,,,,,,,2023-10-26,1,,,,,ブラストプラス,0
1601,7010405022607,新規,0,2023-10-26,2023-10-26,一般社団法人ＮＩＳＡコンサルタント協会,,その他の設立登記法人,東京都,港区,芝浦３丁目１７－１１天翔田町ビル８０４,,13,103,1080023,,,,,,,2023-10-26,1,,,,,ニーサコンサルタントキョウカイ,0
1607,7010703006922,新規,0,2023-10-26,2023-10-26,ｉｒｏｉｒｏｊａｐｏｎ合同会社,,合同会社,東京都,品川区,西品川１丁目２９番１２号ＣＳＲ品川,,13,109,1410033,,,,,,,2023-10-26,1,,,,,イロイロジャポン,0
1610,7010901054021,新規,0,2023-10-26,2023-10-26,株式会社ＨＡＮＡ,,株式会社,東京都,世田谷区,北沢２丁目７番２号中瀬ビル３階Ｂ号室,,13,112,1550031,,,,,,,2023-10-26,1,,,,,ハナ,0
1611,7010901054087,新規,0,2023-10-26,2023-10-26,株式会社正木組,,株式会社,東京都,世田谷区,上用賀６丁目３２番３３号,,13,112,1580098,,,,,,,2023-10-26,1,,,,,マサキグミ,0
1617,7011001157739,新規,0,2023-10-26,2023-10-26,株式会社サロン・ド・ブルーム,,株式会社,東京都,目黒区,自由が丘１丁目２６番８号キクモトビル３０６号室,,13,110,1520035,,,,,,,2023-10-26,1,,,,,サロンドブルーム,0
1618,7011001157805,新規,0,2023-10-26,2023-10-26,株式会社ＫＡＬ,,株式会社,東京都,渋谷区,道玄坂１丁目１０－８渋谷道玄坂東急ビル２Ｆ－Ｃ,,13,113,1500043,,,,,,,2023-10-26,1,,,,,ケーエーエル,0
1619,7011001157821,新規,0,2023-10-26,2023-10-26,株式会社ナオミプロダクションズ,,株式会社,東京都,渋谷区,富ヶ谷１丁目１４番１４号３階,,13,113,1510063,,,,,,,2023-10-26,1,,,,,ナオミプロダクションズ,0
1620,7011001157870,新規,0,2023-10-26,2023-10-26,株式会社アイエックス,,株式会社,東京都,目黒区,上目黒３丁目６番１５－７０４号,,13,110,1530051,,,,,,,2023-10-26,1,,,,,アイエックス,0
1621,7011001157887,新規,0,2023-10-26,2023-10-26,ＡＫエンタテインメント株式会社,,株式会社,東京都,渋谷区,恵比寿４丁目２０－３恵比寿ガーデンプレイスタワー,,13,113,1500013,,,,,,,2023-10-26,1,,,,,エイケイエンタテインメント,0
1624,7011003017775,新規,0,2023-10-26,2023-10-26,松本合同会社,,合同会社,東京都,目黒区,平町１丁目２３番１９号藤昌ハイム３０２,,13,110,1520032,,,,,,,2023-10-26,1,,,,,,0
1633,7011301029126,新規,0,2023-10-26,2023-10-26,株式会社悦洋商事,,株式会社,東京都,杉並区,梅里２丁目２５番１３－１１０７号,,13,115,1660011,,,,,,,2023-10-26,1,,,,,エツヨウショウジ,0
1638,7011401025561,新規,0,2023-10-26,2023-10-26,ＷＩＮ株式会社,,株式会社,東京都,板橋区,宮本町２２－５,,13,119,1740054,,,,,,,2023-10-26,1,,,,,ウィン,0
1639,7011501029909,新規,0,2023-10-26,2023-10-26,黒澤りき株式会社,,株式会社,東京都,荒川区,南千住３丁目２７－２浅草ビル,,13,118,1160003,,,,,,,2023-10-26,1,,,,,クロサワリキ,0
1640,7011501029917,新規,0,2023-10-26,2023-10-26,ＫＭＣ　Ｐｈｏｔｏ　Ｓｔｕｄｉｏ株式会社,,株式会社,東京都,荒川区,南千住６丁目４３番３－１３０４号,,13,118,1160003,,,,,,,2023-10-26,1,,,,,ケイエムシーフォトスタジオ,0
1648,7011803005822,新規,0,2023-10-26,2023-10-26,ＵＺＪＰ合同会社,,合同会社,東京都,足立区,古千谷本町１丁目２番１０号,,13,121,1210832,,,,,,,2023-10-26,1,,,,,ユーゼットジェーピー,0
1649,7012401041152,新規,0,2023-10-26,2023-10-26,アラクネ株式会社,,株式会社,東京都,調布市,小島町２丁目５２番地１調布住宅５１３号,,13,208,1820026,,,,,,,2023-10-26,1,,,,,アラクネ,0
1661,7020001154142,新規,0,2023-10-26,2023-10-26,株式会社松城工業,,株式会社,神奈川県,横浜市中区,長者町８丁目１２８番地ドミナスイセザキ３０５号室,,14,104,2310033,,,,,,,2023-10-26,1,,,,,マツジョウコウギョウ,0
1663,7020003024814,新規,0,2023-10-26,2023-10-26,Ｊｏｌｉｅ　ｅｔｅ合同会社,,合同会社,神奈川県,横浜市中区,弁天通３丁目４１横浜エクセレントＩＩ６０４号室,00132418,14,104,2310007,,,,,,,2023-10-26,1,,,,,ジョリーエテ,0
1664,7021001080502,新規,0,2023-10-26,2023-10-26,株式会社己龍,,株式会社,神奈川県,平塚市,田村１丁目１８番２９号,,14,203,2540013,,,,,,,2023-10-26,1,,,,,キリュウ,0
1672,7030001156889,新規,0,2023-10-26,2023-10-26,ＫＩＴ株式会社,,株式会社,埼玉県,深谷市,緑ケ丘２－４レジェン柴崎２番館３０２,,11,218,3660054,,,,,,,2023-10-26,1,,,,,ケーアイティー,0
1684,7040001130703,新規,0,2023-10-26,2023-10-26,株式会社リーブル,,株式会社,千葉県,鎌ケ谷市,初富８０１番地１２２,,12,224,2730121,,,,,,,2023-10-26,1,,,,,リーブル,0
1687,7040003023574,新規,0,2023-10-26,2023-10-26,合同会社ＣＬＯＵＤ　ＬＩＮＫ　ＳＥＲＶＩＣＥ,,合同会社,千葉県,野田市,木間ケ瀬４５５４番地,,12,208,2700222,,,,,,,2023-10-26,1,,,,,クラウドリンクサービス,0
1688,7040003023632,新規,0,2023-10-26,2023-10-26,合同会社トレアドールエンターテイメント,,合同会社,千葉県,市川市,妙典５丁目１３番３３号Ａ＆Ｙビル３Ｆ,,12,203,2720111,,,,,,,2023-10-26,1,,,,,トレアドールエンターテイメント,0
1692,7050001053696,新規,0,2023-10-26,2023-10-26,株式会社ＢＡＣＫ　ＴＡＰ,,株式会社,茨城県,つくば市,吾妻２丁目５番地１つくば市産業振興センター１Ｆ,,08,220,3050031,,,,,,,2023-10-26,1,,,,,バックタップ,0
1699,7070001041022,新規,0,2023-10-26,2023-10-26,株式会社つるや,,株式会社,群馬県,前橋市,敷島町２６５番地１ファーストビラ１０３,,10,201,3710036,,,,,,,2023-10-26,1,,,,,ツルヤ,0
1700,7070001041030,新規,0,2023-10-26,2023-10-26,株式会社ＯＩＣ,,株式会社,群馬県,前橋市,二之宮町８５２番地３,,10,201,3792117,,,,,,,2023-10-26,1,,,,,オーアイシー,0
1705,7080001025940,新規,0,2023-10-26,2023-10-26,株式会社松田モータース,,株式会社,静岡県,静岡市清水区,庵原町１４２４番地の１,,22,103,4240114,,,,,,,2023-10-26,1,,,,,マツダモータース,0
1710,7100001036910,新規,0,2023-10-26,2023-10-26,株式会社ｔｏｇｅｔｈｅｒ,,株式会社,長野県,松本市,大字岡田松岡５２１－５,,20,202,3900312,,,,,,,2023-10-26,1,,,,,トゥギャザー,0
1711,7110001037940,新規,0,2023-10-26,2023-10-26,株式会社テキザイ,,株式会社,新潟県,新潟市中央区,東大通１丁目２－５クオリスビル３階,,15,103,9500087,,,,,,,2023-10-26,1,,,,,テキザイ,0
1718,7120001259030,新規,0,2023-10-26,2023-10-26,株式会社ＫＡＲＩＮ,,株式会社,大阪府,大阪市東住吉区,照ケ丘矢田１丁目２－４,,27,121,5460021,,,,,,,2023-10-26,1,,,,,カリン,0
1719,7120001259170,新規,0,2023-10-26,2023-10-26,株式会社グランストラーダ,,株式会社,大阪府,大阪市東淀川区,上新庄２丁目２０番７号,,27,114,5330006,,,,,,,2023-10-26,1,,,,,グランストラーダ,0
1720,7120001259187,新規,0,2023-10-26,2023-10-26,株式会社さくらＣＥＮＴＥＲ,,株式会社,大阪府,大阪市西成区,萩之茶屋１丁目７番２－２０６号,,27,122,5570004,,,,,,,2023-10-26,1,,,,,サクラセンター,0
1721,7120001259195,新規,0,2023-10-26,2023-10-26,株式会社ＴｒｙＦｒｅｅｄ,,株式会社,大阪府,大阪市港区,弁天１丁目２番１号大阪ベイタワー１４Ｆ,,27,107,5520007,,,,,,,2023-10-26,1,,,,,トライフリード,0
1722,7120001259261,新規,0,2023-10-26,2023-10-26,株式会社山本電機,,株式会社,大阪府,枚方市,出口２丁目１０番１６号,,27,210,5730065,,,,,,,2023-10-26,1,,,,,ヤマモトデンキ,0
1723,7120001259278,新規,0,2023-10-26,2023-10-26,株式会社ＡＳぷらす,,株式会社,大阪府,大阪市西区,阿波座１丁目１０番２０－６０３号,,27,106,5500011,,,,,,,2023-10-26,1,,,,,アスプラス,0
1726,7120003025182,新規,0,2023-10-26,2023-10-26,Ｂ＆Ｂ　ＩＮＴＥＲＮＡＴＩＯＮＡＬ合同会社,,合同会社,大阪府,大阪市中央区,谷町２丁目８番４号２階,,27,128,5400012,,,,,,,2023-10-26,1,,,,,ビーアンドビーインターナショナル,0
1727,7120003025190,新規,0,2023-10-26,2023-10-26,合同会社ケアプロパティ,,合同会社,大阪府,枚方市,津田南町２丁目３７番２号,,27,210,5730124,,,,,,,2023-10-26,1,,,,,ケアプロパティ,0
1733,7120901048268,新規,0,2023-10-26,2023-10-26,株式会社トトノエテラス,,株式会社,大阪府,箕面市,箕面２丁目１１番４３号レストフル箕面１０１,,27,220,5620001,,,,,,,2023-10-26,1,,,,,トトノエテラス,0
1738,7130003009077,新規,0,2023-10-26,2023-10-26,合同会社リードライフ,,合同会社,京都府,京都市中京区,錦小路通高倉東入中魚屋町４９４番地甍・林治４０２号,,26,104,6048125,,,,,,,2023-10-26,1,,,,,リードライフ,0
1746,7140001132086,新規,0,2023-10-26,2023-10-26,株式会社ＳＯＬＰＨＡＳ,,株式会社,兵庫県,姫路市,西八代町７番２９号,,28,201,6700876,,,,,,,2023-10-26,1,,,,,ソルファス,0
1747,7140001132111,新規,0,2023-10-26,2023-10-26,株式会社ＳＥＮＡホールディングス,,株式会社,兵庫県,三木市,別所町巴３１番地,,28,215,6730443,,,,,,,2023-10-26,1,,,,,セナホールディングス,0
1748,7140001132128,新規,0,2023-10-26,2023-10-26,チアーズ・エンリッチ株式会社,,株式会社,兵庫県,西宮市,獅子ケ口町１番３１号,,28,204,6620026,,,,,,,2023-10-26,1,,,,,チアーズエンリッチ,0
1749,7140001132160,新規,0,2023-10-26,2023-10-26,株式会社共進会,,株式会社,兵庫県,神戸市中央区,二宮町１丁目１４番２７－８０２号,,28,110,6510093,,,,,,,2023-10-26,1,,,,,キョウシンカイ,0
1771,7180001158664,新規,0,2023-10-26,2023-10-26,株式会社ＭＲＧアセットマネジメント,,株式会社,愛知県,一宮市,島村字下老光寺１０３番地１,,23,203,4910121,,,,,,,2023-10-26,1,,,,,エムアールジーアセットマネジメント,0
1772,7180001158672,新規,0,2023-10-26,2023-10-26,株式会社ガラパゴスワークス,,株式会社,愛知県,日進市,香久山１丁目１１１６番地,,23,230,4700134,,,,,,,2023-10-26,1,,,,,ガラパゴスワークス,0
1773,7180001158689,新規,0,2023-10-26,2023-10-26,株式会社吉田商店,,株式会社,愛知県,一宮市,猿海道３丁目１２番３６号,,23,203,4910838,,,,,,,2023-10-26,1,,,,,ヨシダショウテン,0
1776,7180301037923,新規,0,2023-10-26,2023-10-26,株式会社ＥＮ　ＳＴＹＬＥ,,株式会社,愛知県,刈谷市,泉田町大木屋４４番地,,23,210,4480004,,,,,,,2023-10-26,1,,,,,エンスタイル,0
1777,7180301037931,新規,0,2023-10-26,2023-10-26,株式会社フルスリール,,株式会社,愛知県,豊川市,美園１丁目６番地２９,,23,207,4410106,,,,,,,2023-10-26,1,,,,,フルスリール,0
1778,7200001041859,新規,0,2023-10-26,2023-10-26,株式会社佐伯塗装,,株式会社,岐阜県,多治見市,赤坂町２丁目４２番地の８,,21,204,5070057,,,,,,,2023-10-26,1,,,,,サエキトソウ,0
1783,7220001025653,新規,0,2023-10-26,2023-10-26,ＯＲＥ株式会社,,株式会社,石川県,金沢市,上近江町３８番地,,17,201,9200905,,,,,,,2023-10-26,1,,,,,オーアールイー,0
1792,7240003006393,新規,0,2023-10-26,2023-10-26,Ｃ＆Ｍコンサルティング合同会社,,合同会社,広島県,広島市安佐南区,祇園３丁目３８番５号,,34,105,7310138,,,,,,,2023-10-26,1,,,,,シーアンドエムコンサルティング,0
1796,7250001020370,新規,0,2023-10-26,2023-10-26,株式会社ヤマモト,,株式会社,山口県,岩国市,藤生町２丁目１９番２－１号,,35,208,7400036,,,,,,,2023-10-26,1,,,,,ヤマモト,0
1805,7290801029995,新規,0,2023-10-26,2023-10-26,花田工業株式会社,,株式会社,福岡県,遠賀郡岡垣町,東山田１丁目１番１４号サンシャインビル２０７号,,40,383,8114220,,,,,,,2023-10-26,1,,,,,ハナダコウギョウ,0
1807,7310001018680,新規,0,2023-10-26,2023-10-26,株式会社おひさま,,株式会社,長崎県,佐世保市,天神４丁目２７番１１号,,42,202,8571174,,,,,,,2023-10-26,1,,,,,オヒサマ,0
1809,7330001031376,新規,0,2023-10-26,2023-10-26,株式会社アルファグループ,,株式会社,熊本県,熊本市中央区,新市街２－６サンタカラヤビル３階,,43,101,8600803,,,,,,,2023-10-26,1,,,,,アルファグループ,0
1810,7330001031401,新規,0,2023-10-26,2023-10-26,株式会社ソフトクリーマーズ,,株式会社,熊本県,熊本市中央区,下通１丁目１２－２７－５階,,43,101,8600807,,,,,,,2023-10-26,1,,,,,ソフトクリーマーズ,0
1815,7360001032735,新規,0,2023-10-26,2023-10-26,流星株式会社,,株式会社,沖縄県,糸満市,潮崎町４丁目８番地１１号２号室,,47,210,9010364,,,,,,,2023-10-26,1,,,,,リュウセイ,0
1829,7430001090247,新規,0,2023-10-26,2023-10-26,株式会社藤田工業,,株式会社,北海道,札幌市東区,北十一条東１６丁目１番２号モンピエース２　１０１号室,,01,103,0650011,,,,,,,2023-10-26,1,,,,,フジタコウギョウ,0
1830,7430001090271,新規,0,2023-10-26,2023-10-26,株式会社リンクモア札幌,,株式会社,北海道,札幌市西区,西野六条５丁目５番１４号,,01,107,0630036,,,,,,,2023-10-26,1,,,,,リンクモアサッポロ,0
1831,7430003015557,新規,0,2023-10-26,2023-10-26,合同会社パートナーズ,,合同会社,北海道,苫小牧市,末広町１丁目４番１９号,,01,213,0530011,,,,,,,2023-10-26,1,,,,,パートナーズ,0
1832,7430005014821,新規,0,2023-10-26,2023-10-26,一般社団法人みらいけあ,,その他の設立登記法人,北海道,札幌市中央区,北五条東３丁目１番地２０ライオンズ札幌クロスタウン１２０２号,,01,101,0600035,,,,,,,2023-10-26,1,,,,,ミライケア,0
1835,7470003002510,新規,0,2023-10-26,2023-10-26,合同会社ＩＭ,,合同会社,香川県,高松市,三条町２８０番地１,,37,201,7618072,,,,,,,2023-10-26,1,,,,,,0
1836,7480001012270,新規,0,2023-10-26,2023-10-26,株式会社政ｔｏ和,,株式会社,徳島県,徳島市,川内町鈴江北４４番地,,36,201,7710123,,,,,,,2023-10-26,1,,,,,マツリトナゴミ,0
1844,7700150121436,新規,0,2023-10-26,2023-10-26,Ｘｉｎｈｕａ　Ｃｏｕｎｔｙ　Ａｉｚｈｅｎ　ｅｌｅｃｔｒｏｎｉｃ　ｔｅｃｈｎｏｌｏｇｙ　Ｃｏ．，ＬＴＤ,,外国会社等,,,,,,,,Ｎｏ．０２５，Ｆｉｒｓｔ　Ｖｉｌｌａｇｅ　Ｍｉｎ　Ｇｒｏｕｐ，Ｌａｎｇｓｈａｎ　Ｖｉｌｌａｇｅ，Ｗｅｎｔｉａｎ　Ｔｏｗｎ，Ｘｉｎｈｕａ　Ｃｏｕｎｔｙ，Ｌｏｕｄｉ　Ｃｉｔｙ，Ｈｕｎａｎ　Ｐｒｏｖｉｎｃｅ,,,,,,2023-10-26,1,,,,,シンフワーシエンアイジェンディエンズーコージーヨウシエンゴンスー,0
1846,8010001239496,新規,0,2023-10-26,2023-10-26,ＦＧ大彊株式会社,,株式会社,東京都,千代田区,神田三崎町２丁目１０番１１号Ｐｅｇビル６Ａ－５,,13,101,1010061,,,,,,,2023-10-26,1,,,,,エフジーダイキョウ,0
1847,8010001239521,新規,0,2023-10-26,2023-10-26,株式会社Ｇ＆Ｇグローエイド,,株式会社,東京都,千代田区,神田神保町１丁目２５－４ＳＨ神田南神保町ビル３Ｆ,,13,101,1010051,,,,,,,2023-10-26,1,,,,,ジーアンドジーグローエイド,0
1848,8010001239554,新規,0,2023-10-26,2023-10-26,東京大観国際株式会社,,株式会社,東京都,千代田区,内神田１丁目１８番１１－９０４号東京ロイヤルプラザ,,13,101,1010047,,,,,,,2023-10-26,1,,,,,トウキョウダイカンコクサイ,0
1849,8010001239612,新規,0,2023-10-26,2023-10-26,株式会社ＴＩＳ,,株式会社,東京都,中央区,新川２丁目１０番１号,,13,102,1040033,,,,,,,2023-10-26,1,,,,,ティーアイエス,0
1853,8010005037384,新規,0,2023-10-26,2023-10-26,ＮＰＯ法人Ｄｅｍｏｃｒａｃｙ　Ｆｅｓｔｉｖａｌ　Ｊａｐａｎ,,その他の設立登記法人,東京都,中央区,日本橋小伝馬町６－１,,13,102,1030001,,,,,,,2023-10-26,1,,,,,デモクラシーフェスティバルジャパン,0
1854,8010005037418,新規,0,2023-10-26,2023-10-26,一般社団法人個人事業主サポート協会,,その他の設立登記法人,東京都,千代田区,神田和泉町１番地６－１６ヤマトビル４０５,,13,101,1010024,,,,,,,2023-10-26,1,,,,,コジンジギョウヌシサポートキョウカイ,0
1855,8010005037434,新規,0,2023-10-26,2023-10-26,一般社団法人ヴィレッジセブン,,その他の設立登記法人,東京都,中央区,日本橋１丁目４番１号,,13,102,1030027,,,,,,,2023-10-26,1,,,,,ヴィレッジセブン,0
1866,8010401178039,新規,0,2023-10-26,2023-10-26,Ｎ‐ＳＩＤＥ株式会社,,株式会社,東京都,港区,赤坂１丁目１１番４４号赤坂インターシティ５階Ｍａｚａｒｓ・Ｊａｐａｎ株式会社内,,13,103,1070052,,,,,,,2023-10-26,1,,,,,エヌサイド,0
1867,8010401178154,新規,0,2023-10-26,2023-10-26,ＤＵＡＬ　Ｊａｐａｎ株式会社,,株式会社,東京都,港区,六本木７丁目２１－２４,,13,103,1060032,,,,,,,2023-10-26,1,,,,,デュアルジャパン,0
1869,8010501051260,新規,0,2023-10-26,2023-10-26,株式会社レイバーワーク,,株式会社,東京都,台東区,上野３丁目２番２号アイオス秋葉原４０４号室,,13,106,1100005,,,,,,,2023-10-26,1,,,,,レイバーワーク,0
1872,8010603010445,新規,0,2023-10-26,2023-10-26,フード・ファクトリー合同会社,,合同会社,東京都,江東区,亀戸７丁目２番８号,,13,108,1360071,,,,,,,2023-10-26,1,,,,,フードファクトリー,0
1873,8010701044931,新規,0,2023-10-26,2023-10-26,株式会社ＧＯ,,株式会社,東京都,品川区,二葉２丁目２６－６シンシア西大井１０３,,13,109,1420043,,,,,,,2023-10-26,1,,,,,ジーオー,0
1878,8011001157795,新規,0,2023-10-26,2023-10-26,株式会社ＳＬＣファーム,,株式会社,東京都,渋谷区,道玄坂１丁目１０番８号渋谷道玄坂東急ビル２Ｆ－Ｃ,,13,113,1500043,,,,,,,2023-10-26,1,,,,,エスエルシーファーム,0
1879,8011001157804,新規,0,2023-10-26,2023-10-26,株式会社ＮＯＳＡＫＡ　ＣＯＭＭＵＮＩＴＹ　ＤＥＶＥＬＯＰＭＥＮＴ,,株式会社,東京都,渋谷区,恵比寿３丁目４６番７－６０８号シティハウス広尾南,,13,113,1500013,,,,,,,2023-10-26,1,,,,,ノサカコミュニティディベロップメント,0
1880,8011001157820,新規,0,2023-10-26,2023-10-26,株式会社ＭＹＴＳ,,株式会社,東京都,渋谷区,神泉町１０番１５号,,13,113,1500045,,,,,,,2023-10-26,1,,,,,エムワイティーエス,0
1881,8011001157878,新規,0,2023-10-26,2023-10-26,株式会社プレミアムストーンギャラリー,,株式会社,東京都,渋谷区,恵比寿３丁目４８番１号,,13,113,1500013,,,,,,,2023-10-26,1,,,,,プレミアムストーンギャラリー,0
1884,8011003017683,新規,0,2023-10-26,2023-10-26,Ｒｕｓｈ．Ｂ合同会社,,合同会社,東京都,渋谷区,本町２丁目１５－２－２０４,,13,113,1510071,,,,,,,2023-10-26,1,,,,,ラッシュビー,0
1885,8011003017725,新規,0,2023-10-26,2023-10-26,ＤＥＰＯ　ＰＡＲＫ合同会社,,合同会社,東京都,渋谷区,神泉町２０－２１,,13,113,1500045,,,,,,,2023-10-26,1,,,,,デポパーク,0
1891,8011301029109,新規,0,2023-10-26,2023-10-26,株式会社Ｌｉｌ’ｃｈｅｎｏｎ,,株式会社,東京都,杉並区,上高井戸１丁目８番２４号オープンレジデンシア八幡山ステーションサイド３０３,,13,115,1680074,,,,,,,2023-10-26,1,,,,,リルシェノン,0
1892,8011301029125,新規,0,2023-10-26,2023-10-26,ＮＡＫＡＮＡＫＡ株式会社,,株式会社,東京都,杉並区,堀ノ内３丁目４２番地３の２０１室レオパレス新高円寺第５,,13,115,1660013,,,,,,,2023-10-26,1,,,,,ナカナカ,0
1893,8011301029133,新規,0,2023-10-26,2023-10-26,株式会社ゲラゲッツァ,,株式会社,東京都,杉並区,阿佐谷南３丁目２番２９号,,13,115,1660004,,,,,,,2023-10-26,1,,,,,ゲラゲッツァ,0
1899,8011501029924,新規,0,2023-10-26,2023-10-26,株式会社潤商会,,株式会社,東京都,荒川区,南千住１丁目１０番３号鈴木ビル１Ｆ,,13,118,1160003,,,,,,,2023-10-26,1,,,,,ジュンショウカイ,0
1900,8011503005816,新規,0,2023-10-26,2023-10-26,白鳥旅行合同会社,,合同会社,東京都,荒川区,西日暮里６丁目１番１１号スズキビル３０１,,13,118,1160013,,,,,,,2023-10-26,1,,,,,ハクチョウトラベル,0
1905,8011701026705,新規,0,2023-10-26,2023-10-26,岩楯産業株式会社,,株式会社,東京都,江戸川区,南篠崎町３丁目１７番７号,,13,123,1330065,,,,,,,2023-10-26,1,,,,,イワダテサンギョウ,0
1908,8011801043229,新規,0,2023-10-26,2023-10-26,株式会社Ｌｉｖｅｐｏｋｅｒ,,株式会社,東京都,葛飾区,堀切３丁目５－２,,13,122,1240006,,,,,,,2023-10-26,1,,,,,ライブポーカー,0
1911,8012401041151,新規,0,2023-10-26,2023-10-26,ＣＲＡＶＥ株式会社,,株式会社,東京都,調布市,国領町６丁目９番地１グランデニケＩＩ１０６,00132415,13,208,1820022,,,,,,,2023-10-26,1,,,,,クレイヴ,0
1914,8012803003220,新規,0,2023-10-26,2023-10-26,合同会社ＳＵＫＥＤＯＮ,,合同会社,東京都,立川市,幸町５丁目１０－３幸レジデンス３０１号,,13,202,1900002,,,,,,,2023-10-26,1,,,,,スケドン,0
1924,8020001154100,新規,0,2023-10-26,2023-10-26,株式会社イーリス,,株式会社,神奈川県,川崎市高津区,子母口４６９番地,,14,134,2130023,,,,,,,2023-10-26,1,,,,,イーリス,0
1925,8020001154125,新規,0,2023-10-26,2023-10-26,インサイト・コア株式会社,,株式会社,神奈川県,横浜市南区,弘明寺町字山下２６１番地１ＯＨクレストハウス３０１,,14,105,2320067,,,,,,,2023-10-26,1,,,,,インサイトコア,0
1931,8021001080526,新規,0,2023-10-26,2023-10-26,株式会社Ｃｏｎｔｉｎｅｎｔ,,株式会社,神奈川県,藤沢市,辻堂西海岸２丁目１３番８号,,14,205,2510046,,,,,,,2023-10-26,1,,,,,コンティネント,0
1932,8021001080567,新規,0,2023-10-26,2023-10-26,ｉｋｕ株式会社,,株式会社,神奈川県,藤沢市,辻堂元町１丁目１１－３,,14,205,2510043,,,,,,,2023-10-26,1,,,,,イク,0
1942,8030001156839,新規,0,2023-10-26,2023-10-26,株式会社ＹＴＳ,,株式会社,埼玉県,さいたま市見沼区,大字小深作２３３番地２,,11,104,3370005,,,,,,,2023-10-26,1,,,,,ワイティエス,0
1949,8030003022865,新規,0,2023-10-26,2023-10-26,ＺＥＭＵ合同会社,,合同会社,埼玉県,八潮市,大字大瀬１４５４番地１,,11,234,3400822,,,,,,,2023-10-26,1,,,,,ゼム,0
1958,8040001130685,新規,0,2023-10-26,2023-10-26,株式会社ＣＲＡＦＩＸ,,株式会社,千葉県,佐倉市,春路１丁目３番地１７,,12,212,2850814,,,,,,,2023-10-26,1,,,,,クラフィックス,0
1959,8040001130702,新規,0,2023-10-26,2023-10-26,株式会社エムケープランニング,,株式会社,千葉県,白井市,冨士１５１－２－５２３,,12,232,2701432,,,,,,,2023-10-26,1,,,,,エムケープランニング,0
1961,8050001053687,新規,0,2023-10-26,2023-10-26,株式会社ＯＡＵ,,株式会社,茨城県,つくば市,みどりの南４０番地４,,08,220,3050884,,,,,,,2023-10-26,1,,,,,オーエーユー,0
1966,8070003005148,新規,0,2023-10-26,2023-10-26,合同会社リープフォワード,,合同会社,群馬県,伊勢崎市,赤堀今井町２丁目１３２７番地１,,10,204,3792215,,,,,,,2023-10-26,1,,,,,,0
1980,8120001259070,新規,0,2023-10-26,2023-10-26,株式会社ゆっくり,,株式会社,大阪府,大阪市中央区,東心斎橋２丁目６番２２号日宝パラダイスビル１０１,,27,128,5420083,,,,,,,2023-10-26,1,,,,,ユックリ,0
1981,8120001259236,新規,0,2023-10-26,2023-10-26,株式会社Ｍｓ．Ｘｐｌａｎｎｉｎｇ,,株式会社,大阪府,大阪市天王寺区,生玉寺町５番３９号,,27,109,5430073,,,,,,,2023-10-26,1,,,,,ミスエックスプランニング,0
1982,8120001259252,新規,0,2023-10-26,2023-10-26,株式会社和空ラボ,,株式会社,大阪府,大阪市北区,東天満１丁目１１番１３号,,27,127,5300044,,,,,,,2023-10-26,1,,,,,ワクウラボ,0
1983,8120001259269,新規,0,2023-10-26,2023-10-26,株式会社ｕｎｖｅｉｌ,,株式会社,大阪府,大阪市旭区,大宮２丁目１５番１４号Ｇｒａｄｉｔｏ千林大宮２０７,,27,117,5350002,,,,,,,2023-10-26,1,,,,,アンベイル,0
1989,8120103005488,新規,0,2023-10-26,2023-10-26,合同会社アルケア大阪,,合同会社,大阪府,堺市東区,日置荘田中町２６２番地２,,27,143,5998113,,,,,,,2023-10-26,1,,,,,アルケアオオサカ,0
1998,8130001075500,新規,0,2023-10-26,2023-10-26,株式会社ＭＡＳ,,株式会社,京都府,京都市南区,吉祥院八反田町１５番地の１,,26,107,6018325,,,,,,,2023-10-26,1,,,,,マス,0
1999,8130001075517,新規,0,2023-10-26,2023-10-26,株式会社Ｍ．Ｕインテリア,,株式会社,京都府,京都市山科区,東野南井ノ上町１８番地５９,,26,110,6078143,,,,,,,2023-10-26,1,,,,,エムユーインテリア,0
2005,8140001068511,新規,0,2023-10-26,2023-10-26,協和物産株式会社,,株式会社,兵庫県,西宮市,樋ノ口町１丁目４番１４号,,28,204,6638011,,,,,,,2023-10-26,1,,,,,キョウワブッサン,0
2010,8140003019727,新規,0,2023-10-26,2023-10-26,和田物産合同会社,,合同会社,兵庫県,川辺郡猪名川町,笹尾字掛谷１０－７,,28,301,6660227,,,,,,,2023-10-26,1,,,,,ワダブッサン,0
2015,8170003001938,新規,0,2023-10-26,2023-10-26,合同会社春兎ＨＡＬＵＴＯ,,合同会社,和歌山県,和歌山市,延時２５番地サーパス延時８０３号,,30,201,6408443,,,,,,,2023-10-26,1,,,,,ハルトハルト,0
2019,8180001158671,新規,0,2023-10-26,2023-10-26,名陽ホールディングス株式会社,,株式会社,愛知県,名古屋市昭和区,川原通１丁目２番地,,23,107,4660853,,,,,,,2023-10-26,1,,,,,メイヨウホールディングス,0
2024,8180301037930,新規,0,2023-10-26,2023-10-26,株式会社ＢＵＥ,,株式会社,愛知県,安城市,東栄町１丁目７番２２号,,23,212,4460007,,,,,,,2023-10-26,1,,,,,ビーユーイー,0
2025,8180301037939,新規,0,2023-10-26,2023-10-26,株式会社ＥＧＡＯ,,株式会社,愛知県,豊橋市,大村町字山所７３番地２レガーロ寿里Ａ２０２,,23,201,4400081,,,,,,,2023-10-26,1,,,,,エガオ,0
2026,8180303005877,新規,0,2023-10-26,2023-10-26,合同会社平川地所,,合同会社,愛知県,豊橋市,平川本町１丁目１２番地１,,23,201,4400038,,,,,,,2023-10-26,1,,,,,ヒラカワジショ,0
2032,8220001025652,新規,0,2023-10-26,2023-10-26,イノベシティ株式会社,,株式会社,石川県,金沢市,堀川新町５番１号,,17,201,9200849,,,,,,,2023-10-26,1,,,,,イノベシティ,0
2035,8240001062322,新規,0,2023-10-26,2023-10-26,株式会社ディーエスピー,,株式会社,広島県,東広島市,黒瀬楢原北２丁目２３番１５号,00132427,34,212,7392627,,,,,,,2023-10-26,1,,,,,ディーエスピー,0
2036,8240001062330,新規,0,2023-10-26,2023-10-26,株式会社千真,,株式会社,広島県,呉市,安浦町水尻２丁目４番３号,,34,202,7372517,,,,,,,2023-10-26,1,,,,,センシン,0
2053,8290001103534,新規,0,2023-10-26,2023-10-26,吉岡株式会社,,株式会社,福岡県,福岡市博多区,中洲２丁目７番３号リトル中洲ビル２階,,40,132,8100801,,,,,,,2023-10-26,1,,,,,ヨシオカ,0
2054,8290001103542,新規,0,2023-10-26,2023-10-26,日本浦江株式会社,,株式会社,福岡県,福岡市中央区,舞鶴２丁目３番２０－２０２号室,,40,133,8100073,,,,,,,2023-10-26,1,,,,,ニホンウラエ,0
2059,8290801029994,新規,0,2023-10-26,2023-10-26,株式会社大光,,株式会社,福岡県,北九州市若松区,本町２丁目６番２１号２Ｆ,,40,103,8080034,,,,,,,2023-10-26,1,,,,,ダイコウ,0
2064,8330001031391,新規,0,2023-10-26,2023-10-26,株式会社ＪＩＮ,,株式会社,熊本県,熊本市中央区,九品寺２丁目４番２５－４０６号,,43,101,8620976,,,,,,,2023-10-26,1,,,,,ジン,0
2065,8330001031400,新規,0,2023-10-26,2023-10-26,ＯｈＥＮ　Ｗｅｌｌｎｅｓｓ株式会社,,株式会社,熊本県,熊本市中央区,大江３丁目８－３５,,43,101,8620971,,,,,,,2023-10-26,1,,,,,オーエンウェルネス,0
2077,8370005010702,新規,0,2023-10-26,2023-10-26,一般社団法人気仙沼つばき会,,その他の設立登記法人,宮城県,気仙沼市,潮見町２丁目１００番地１,,04,205,9880031,,,,,,,2023-10-26,1,,,,,ケセンヌマツバキカイ,0
2081,8380001034084,新規,0,2023-10-26,2023-10-26,株式会社Ｂｏｎｄｓ,,株式会社,福島県,伊達市,保原町字竹内町６１番地３,,07,213,9600686,,,,,,,2023-10-26,1,,,,,ボンズ,0
2088,8430001090262,新規,0,2023-10-26,2023-10-26,株式会社かんごぷらす,,株式会社,北海道,札幌市北区,北七条西４丁目１番１号トーカン札幌第一キャステール６０７,,01,102,0600807,,,,,,,2023-10-26,1,,,,,カンゴプラス,0
2089,8430001090270,新規,0,2023-10-26,2023-10-26,株式会社ｃｏｍｍｏｎ,,株式会社,北海道,札幌市中央区,南一条西２丁目４番地１第五藤井ビルＢ１Ｆ,,01,101,0600061,,,,,,,2023-10-26,1,,,,,コモン,0
2090,8430001090279,新規,0,2023-10-26,2023-10-26,株式会社ＢＬＵＥ　ＤＩＲＥＣＴＩＯＮ,,株式会社,北海道,札幌市中央区,南二条西１０丁目１０００－２４,,01,101,0600062,,,,,,,2023-10-26,1,,,,,ブルーディレクション,0
2093,8430003015556,新規,0,2023-10-26,2023-10-26,オフィスＫＭ合同会社,,合同会社,北海道,札幌市中央区,北二条西１９丁目１－１５０２,,01,101,0600002,,,,,,,2023-10-26,1,,,,,オフィスケイエム,0
2100,8700150121419,新規,0,2023-10-26,2023-10-26,ＳｈｅｎＺｈｅｎＳｈｉ　ＪｉｎｇＺｈｏｎｇＢｏ　ＫｅＪｉＹｏｕｘｉａｎＧｏｎｇＳｉ,,外国会社等,,,,,,,,ＬｏｎｇＧａｎｇＱｕ　ＢａｎＴｉａｎＪｉｅＤａｏ　ＤａＦａＰｕＳｈｅＱｕ　ＬｉＰｕＪｉｅ　７＃　４Ｄｏｎｇ　４Ｌｏｕ　４１６　ＳｈｅｎＺｈｅｎＳｈｉ,,,,,,2023-10-26,1,,,,,シンセンシジンゾンボカギユウゲンコウシ,0
2101,8700150121435,新規,0,2023-10-26,2023-10-26,Ｘｉｎｈｕａ　Ｃｏｕｎｔｙ　Ｊｉｔｉｅ　ｅｌｅｃｔｒｏｎｉｃ　ｔｅｃｈｎｏｌｏｇｙ　Ｃｏ．，ＬＴＤ,,外国会社等,,,,,,,,Ｎｏ．００９，Ｆｉｆｔｈ　ｖｉｌｌａｇｅｒ　Ｇｒｏｕｐ，Ｐｉｎｇｓｈｕ　Ｖｉｌｌａｇｅ，Ｗｅｎｔｉａｎ　Ｔｏｗｎ，Ｘｉｎｈｕａ　Ｃｏｕｎｔｙ，Ｌｏｕｄｉ　Ｃｉｔｙ，Ｈｕｎａｎ　Ｐｒｏｖｉｎｃｅ,,,,,,2023-10-26,1,,,,,シンフワーシエンジーティエディエンズーコージーヨウシエンゴンスー,0
2102,8700150121443,新規,0,2023-10-26,2023-10-26,Ｓｈｅｎｚｈｅｎ　Ｓｍａｒｔ　Ｓｕｐｐｏｒｔｉｎｇ　Ｒｏｌｅ　Ｔｅｃｈｎｏｌｏｇｙ　Ｃｏ．，Ｌｔｄ,,外国会社等,,,,,,,,ｍａｔｉａｎｊｉｅｄａｏｊｉａｎｇｗｅｉｓｈｅｑｕｊｉａｎｇｗｅｉｘｉｎｃｕｎ４ｐａｉ１、２ｄｏｎｇ４０１Ａ４０，ｇｕａｎｇｍｉｎｇｑｕ，ｓｈｅｎｚｈｅｎｓｈｉ,,,,,,2023-10-26,1,,,,,シンセンシチエハイカクカギユウゲンコウシ,0
2109,9010003042047,新規,0,2023-10-26,2023-10-26,合同会社ティンバー,,合同会社,東京都,中央区,日本橋１丁目４番１号,,13,102,1030027,,,,,,,2023-10-26,1,,,,,ティンバー,0
2120,9010401177948,新規,0,2023-10-26,2023-10-26,株式会社Ｋ‐ｃａｒｄ,,株式会社,東京都,港区,南青山３丁目１番３６号青山丸竹ビル６Ｆ,,13,103,1070062,,,,,,,2023-10-26,1,,,,,キングカード,0
2121,9010401178062,新規,0,2023-10-26,2023-10-26,株式会社Ｗｅｒｉｓｅ,,株式会社,東京都,港区,南青山２丁目２番１５号ウイン青山５３１,,13,103,1070062,,,,,,,2023-10-26,1,,,,,ウィライズ,0
2122,9010401178095,新規,0,2023-10-26,2023-10-26,株式会社ポテトピクチャーズ,,株式会社,東京都,港区,南麻布３丁目２１番１４－６１７号,,13,103,1060047,,,,,,,2023-10-26,1,,,,,ポテトピクチャーズ,0
2123,9010401178112,新規,0,2023-10-26,2023-10-26,株式会社ＫＯＨＳＡＫＡ,,株式会社,東京都,港区,南青山６丁目１０－９レグノラフィネ南青山１２０５,,13,103,1070062,,,,,,,2023-10-26,1,,,,,コウサカ,0
2124,9010401178120,新規,0,2023-10-26,2023-10-26,ケンドール・キャピタル株式会社,,株式会社,東京都,港区,西麻布２丁目２４番１１号,,13,103,1060031,,,,,,,2023-10-26,1,,,,,ケンドールキャピタル,0
2125,9010401178129,新規,0,2023-10-26,2023-10-26,ＲＩＶＥＲＫＥＹキャピタル株式会社,,株式会社,東京都,港区,六本木３丁目１６番３５号イースト六本木５０５,,13,103,1060032,,,,,,,2023-10-26,1,,,,,リバーキーキャピタル,0
2130,9010403031244,新規,0,2023-10-26,2023-10-26,ｕｐａｌａ合同会社,,合同会社,東京都,港区,高輪３丁目１０番１５－３０２号,,13,103,1080074,,,,,,,2023-10-26,1,,,,,ウパラ,0
2131,9010405022605,新規,0,2023-10-26,2023-10-26,一般社団法人むかしばなし協会,,その他の設立登記法人,東京都,港区,赤坂３丁目１０番６号ＬｕＬｕｄＡＫＡＳＡＫＡ４０１,,13,103,1070052,,,,,,,2023-10-26,1,,,,,ムカシバナシキョウカイ,0
2136,9010601063997,新規,0,2023-10-26,2023-10-26,株式会社アデライン,,株式会社,東京都,墨田区,江東橋１丁目１４番２号渡邊ビル３０３,,13,107,1300022,,,,,,,2023-10-26,1,,,,,アデライン,0
2137,9010603010452,新規,0,2023-10-26,2023-10-26,ファイブテーブルブリューズ合同会社,,合同会社,東京都,墨田区,押上３丁目３８番７号,,13,107,1310045,,,,,,,2023-10-26,1,,,,,ファイブテーブルブリューズ,0
2144,9010901054077,新規,0,2023-10-26,2023-10-26,株式会社生き方はたらき方ラボラトリー,,株式会社,東京都,世田谷区,桜新町１丁目７番５号オークヴァレー桜新町２０４,,13,112,1540015,,,,,,,2023-10-26,1,,,,,イキカタハタラキカタラボラトリー,0
2145,9010901054093,新規,0,2023-10-26,2023-10-26,株式会社Ｒａｙｓ,,株式会社,東京都,世田谷区,上馬１丁目５－１０－１００４,,13,112,1540011,,,,,,,2023-10-26,1,,,,,レイズ,0
2153,9011005010248,新規,0,2023-10-26,2023-10-26,一般社団法人ポジティブシニア研究所,,その他の設立登記法人,東京都,目黒区,碑文谷５丁目２４番６号,,13,110,1520003,,,,,,,2023-10-26,1,,,,,ポジティブシニアケンキュウジョ,0
2157,9011201025009,新規,0,2023-10-26,2023-10-26,株式会社瑞栄,,株式会社,東京都,中野区,鷺宮４丁目２番４号テラスハウス西原Ｂ号,,13,114,1650032,,,,,,,2023-10-26,1,,,,,ミズエ,0
2160,9011303004950,新規,0,2023-10-26,2023-10-26,合同会社Ｅｎｃｈａｒｔ,,合同会社,東京都,杉並区,今川４丁目１３番１７号,,13,115,1670035,,,,,,,2023-10-26,1,,,,,エンチャート,0
2165,9011501029907,新規,0,2023-10-26,2023-10-26,鶴竹酒造株式会社,,株式会社,東京都,荒川区,南千住３丁目２７－２浅草ビル,,13,118,1160003,,,,,,,2023-10-26,1,,,,,ツルタケシュゾウ,0
2169,9011801043228,新規,0,2023-10-26,2023-10-26,アプラス博友株式会社,,株式会社,東京都,葛飾区,細田３丁目４番２号,,13,122,1240021,,,,,,,2023-10-26,1,,,,,アプラスハクユウ,0
2170,9011801043236,新規,0,2023-10-26,2023-10-26,ＩＣＩビル株式会社,,株式会社,東京都,足立区,保木間４丁目４５番１６号,,13,121,1210064,,,,,,,2023-10-26,1,,,,,アイシーアイビル,0
2171,9011801043244,新規,0,2023-10-26,2023-10-26,株式会社もしもＢＯＸ,,株式会社,東京都,足立区,本木１丁目１番１２号２Ｆ,,13,121,1230853,,,,,,,2023-10-26,1,,,,,モシモボックス,0
2173,9011803005894,新規,0,2023-10-26,2023-10-26,ＭＯＯＫＩ合同会社,,合同会社,東京都,足立区,竹の塚２丁目２９番１３－３０３号,,13,121,1210813,,,,,,,2023-10-26,1,,,,,,0
2182,9013303006852,新規,0,2023-10-26,2023-10-26,合同会社ハイミン,,合同会社,東京都,豊島区,西巣鴨１丁目１２番１－１９０２号,,13,116,1700001,,,,,,,2023-10-26,1,,,,,ハイミン,0
2185,9020001154140,新規,0,2023-10-26,2023-10-26,株式会社イブピアジェ,,株式会社,神奈川県,横浜市中区,打越４２番地３４,,14,104,2310867,,,,,,,2023-10-26,1,,,,,イブピアジェ,0
2192,9021001080517,新規,0,2023-10-26,2023-10-26,株式会社ＲＫ,,株式会社,神奈川県,大和市,中央林間４丁目２９番２２号林間中央クリニックビル３０２,,14,213,2420007,,,,,,,2023-10-26,1,,,,,アールケー,0
2193,9021001080541,新規,0,2023-10-26,2023-10-26,株式会社湘南社,,株式会社,神奈川県,鎌倉市,七里ガ浜１丁目１６番２０－４１５号,,14,204,2480026,,,,,,,2023-10-26,1,,,,,ショウナンシャ,0
2194,9021001080558,新規,0,2023-10-26,2023-10-26,ミンコス株式会社,,株式会社,神奈川県,横須賀市,ハイランド５丁目１１番７号,,14,201,2390833,,,,,,,2023-10-26,1,,,,,ミンコス,0
2195,9021001080574,新規,0,2023-10-26,2023-10-26,株式会社ＤＷ,,株式会社,神奈川県,小田原市,栢山１２７番地ＭＧＭＢＬＤＧ．ＩＩ３０２,00132429,14,206,2500852,,,,,,,2023-10-26,1,,,,,ディーダブリュー,0
2197,9021003013722,新規,0,2023-10-26,2023-10-26,合同会社ハヤブサファクトリーズ,,合同会社,神奈川県,平塚市,東八幡４丁目８番１３号,,14,203,2540016,,,,,,,2023-10-26,1,,,,,ハヤブサファクトリーズ,0
2203,9030001156846,新規,0,2023-10-26,2023-10-26,ユメホーム株式会社,,株式会社,埼玉県,越谷市,宮本町５丁目２２番地５,,11,222,3430806,,,,,,,2023-10-26,1,,,,,ユメホーム,0
2209,9030003022848,新規,0,2023-10-26,2023-10-26,合同会社ＫＭＩ,,合同会社,埼玉県,越谷市,神明町３丁目２５６番地３,,11,222,3430805,,,,,,,2023-10-26,1,,,,,ケーエムアイ,0
2210,9030003022864,新規,0,2023-10-26,2023-10-26,ＴＨＡＮＨ　ＸＵＡＮ合同会社,,合同会社,埼玉県,坂戸市,薬師町９番地２エスポワールＴＹ３０１,,11,239,3500229,,,,,,,2023-10-26,1,,,,,タインスアン,0
2220,9040001130676,新規,0,2023-10-26,2023-10-26,株式会社ＯＮＯ,,株式会社,千葉県,千葉市緑区,おゆみ野南６丁目１３番地２２,,12,105,2660033,,,,,,,2023-10-26,1,,,,,オーエヌオー,0
2221,9040001130701,新規,0,2023-10-26,2023-10-26,株式会社ＫＴＯ,,株式会社,千葉県,市原市,五井５６６６番地８,,12,219,2900056,,,,,,,2023-10-26,1,,,,,ケーティーオー,0
2228,9040005022168,新規,0,2023-10-26,2023-10-26,ＮＰＯ法人長作総合スポーツクラブ,,その他の設立登記法人,千葉県,千葉市花見川区,長作町９４４番地１,,12,102,2620044,,,,,,,2023-10-26,1,,,,,ナガサクソウゴウスポーツクラブ,0
2230,9050003007896,新規,0,2023-10-26,2023-10-26,幸友輝農園合同会社,,合同会社,茨城県,筑西市,蓮沼１５７５番地５,,08,227,3091115,,,,,,,2023-10-26,1,,,,,ユウーキノウエン,0
2235,9070001041020,新規,0,2023-10-26,2023-10-26,ＡＮＡＢＩＹＡ　ＴＲＡＤＩＮＧ株式会社,,株式会社,群馬県,北群馬郡榛東村,大字新井字今井６１番地１,,10,344,3703503,,,,,,,2023-10-26,1,,,,,,0
2238,9080001025939,新規,0,2023-10-26,2023-10-26,株式会社永井ペイント,,株式会社,静岡県,静岡市葵区,新富町５丁目１６番地の１３,,22,101,4200061,,,,,,,2023-10-26,1,,,,,ナガイペイント,0
2243,9100005013078,新規,0,2023-10-26,2023-10-26,特定非営利活動法人軽井沢町住環境サポートセンター,,その他の設立登記法人,長野県,北佐久郡軽井沢町,大字長倉１５０７番地４,,20,321,3890111,,,,,,,2023-10-26,1,,,,,カルイザワジュウカンキョウサポートセンター,0
2252,9120001259136,新規,0,2023-10-26,2023-10-26,株式会社フロンティア,,株式会社,大阪府,枚方市,長尾荒阪２丁目３２０６番地の１,,27,210,5730103,,,,,,,2023-10-26,1,,,,,フロンティア,0
2253,9120001259202,新規,0,2023-10-26,2023-10-26,株式会社沼田工業,,株式会社,大阪府,大阪市旭区,赤川２丁目１２番１９号,,27,117,5350005,,,,,,,2023-10-26,1,,,,,ヌマタコウギョウ,0
2254,9120001259235,新規,0,2023-10-26,2023-10-26,株式会社ネオンソリューションズ,,株式会社,大阪府,大阪市中央区,瓦町３丁目４番１０号日宝御堂ビル３Ｆ,,27,128,5410048,,,,,,,2023-10-26,1,,,,,ネオンソリューションズ,0
2255,9120001259268,新規,0,2023-10-26,2023-10-26,株式会社森本技建,,株式会社,大阪府,大阪市平野区,瓜破西２丁目６－１２,,27,126,5470025,,,,,,,2023-10-26,1,,,,,モリモトギケン,0
2263,9120901048282,新規,0,2023-10-26,2023-10-26,株式会社スフィカ,,株式会社,大阪府,吹田市,古江台６丁目３番１０－７０２号,,27,205,5650874,,,,,,,2023-10-26,1,,,,,スフィカ,0
2264,9122001037513,新規,0,2023-10-26,2023-10-26,株式会社Ｓｈｕ‐Ｓｈｕ,,株式会社,大阪府,東大阪市,永和２丁目１７番２０－１０３号,,27,227,5770809,,,,,,,2023-10-26,1,,,,,シューシュ,0
2270,9140003019734,新規,0,2023-10-26,2023-10-26,合同会社ＳＯＬＴＥ,,合同会社,兵庫県,神戸市兵庫区,塚本通５丁目５番４号５０１,,28,105,6520804,,,,,,,2023-10-26,1,,,,,ソルチ,0
2277,9180001158654,新規,0,2023-10-26,2023-10-26,株式会社美楽,,株式会社,愛知県,名古屋市昭和区,花見通３丁目１６番地の１,,23,107,4660831,,,,,,,2023-10-26,1,,,,,ビラク,0
2278,9180001158687,新規,0,2023-10-26,2023-10-26,株式会社ジーエスケア,,株式会社,愛知県,名古屋市中村区,名駅５丁目３１－１０リンクス名駅ビル６階,,23,105,4500002,,,,,,,2023-10-26,1,,,,,ジーエスケア,0
2279,9180001158695,新規,0,2023-10-26,2023-10-26,株式会社アゼータ,,株式会社,愛知県,名古屋市昭和区,八事富士見８０１ライオンズマンション八事ガーデン参番館１１０号,,23,107,4660812,,,,,,,2023-10-26,1,,,,,アゼータ,0
2281,9180003025919,新規,0,2023-10-26,2023-10-26,合同会社Ｂｅ　Ｌｉｆｅ,,合同会社,愛知県,名古屋市千種区,鍋屋上野町字汁谷３５２０番地の１グランドメゾン自由ケ丘テラス２－３０１号,,23,101,4640017,,,,,,,2023-10-26,1,,,,,ビーライフ,0
2289,9230001020073,新規,0,2023-10-26,2023-10-26,株式会社居酒屋金剛,,株式会社,富山県,富山市,新富町１丁目１番３号,,16,201,9300002,,,,,,,2023-10-26,1,,,,,イザカヤコンゴウ,0
2291,9240003006391,新規,0,2023-10-26,2023-10-26,合同会社マガミ,,合同会社,広島県,福山市,神辺町字西中条９８２番地２Ａ２０３,,34,207,7202103,,,,,,,2023-10-26,1,,,,,マガミ,0
2302,9290001103418,新規,0,2023-10-26,2023-10-26,株式会社ＣＬＰＬＡＮＮＩＮＧ,,株式会社,福岡県,福岡市中央区,天神２丁目２番１２号Ｔ＆Ｊビルディング７Ｆ,,40,133,8100001,,,,,,,2023-10-26,1,,,,,シーエルプランニング,0
2303,9290001103517,新規,0,2023-10-26,2023-10-26,日本ドリーム株式会社,,株式会社,福岡県,三潴郡大木町,大字大角８１３番地２,,40,522,8300403,,,,,,,2023-10-26,1,,,,,ニッポンドリーム,0
2304,9290003014530,新規,0,2023-10-26,2023-10-26,日吉ファーマシー合同会社,,合同会社,福岡県,福岡市西区,橋本２丁目５番８号,,40,135,8190031,,,,,,,2023-10-26,1,,,,,ヒヨシファーマシー,0
2308,9310001018654,新規,0,2023-10-26,2023-10-26,株式会社玄海海洋工業,,株式会社,長崎県,長崎市,城山町１７番５４号,,42,201,8528021,,,,,,,2023-10-26,1,,,,,ゲンカイカイヨウコウギョウ,0
2313,9330003010038,新規,0,2023-10-26,2023-10-26,合同会社ＢＥＡＴ＆ＴＡＬＩＺＭＡＮ,,合同会社,熊本県,熊本市中央区,白山２丁目１３番９号,,43,101,8620959,,,,,,,2023-10-26,1,,,,,ビートアンドタリズマン,0
2326,9380001034091,新規,0,2023-10-26,2023-10-26,鈴化積算株式会社,,株式会社,福島県,郡山市,清水台１丁目８－１３ライオンズマンション２１０,,07,203,9638005,,,,,,,2023-10-26,1,,,,,スズカセキサン,0
2338,9430003015555,新規,0,2023-10-26,2023-10-26,合同会社ＴＮＩ企画,,合同会社,北海道,札幌市西区,八軒十条西５丁目１番４号,,01,107,0630850,,,,,,,2023-10-26,1,,,,,ティーエヌアイキカク,0
2339,9430003015563,新規,0,2023-10-26,2023-10-26,メイクセブン合同会社,,合同会社,北海道,札幌市中央区,南十七条西９丁目１番６号パルティーレＳ１７－Ｈ号,,01,101,0640917,,,,,,,2023-10-26,1,,,,,メイクセブン,0
2344,9480001012269,新規,0,2023-10-26,2023-10-26,ＡＲＴＩＮ貿易株式会社,,株式会社,徳島県,板野郡上板町,引野字前坂口３１番地１,,36,405,7711311,,,,,,,2023-10-26,1,,,,,アーティンボウエキ,0
2353,9700150121418,新規,0,2023-10-26,2023-10-26,株式会社ＨＹＢＥＩＭ,,外国会社等,,,,,,,,韓国ソウル市川江南区テヘラン路１０８ギル４２、２階（デチ洞ＭＤＭＴｏｗｅｒ）,,,,,,2023-10-26,1,,,,,カブシキガイシヤハイブアイエム,0
2354,9700150121434,新規,0,2023-10-26,2023-10-26,ｓｈｅｎｚｈｅｎｓｈｉｙｏｕｗｅｉｑｉｎｇｃｈｕａｎｇｋｅｊｉｙｏｕｘｉａｎｇｏｎｇｓｉ,,外国会社等,,,,,,,,ｎａｎｓｈａｎｑｕｔａｏｙｕａｎｊｉｅｄａｏｐｉｎｇｓｈａｎｓｈｅｑｕ　ｚｈｕｇｕａｎｇｂｅｉｌｕ８８ｈａｏｍｉｎｇｌｉａｎｇｋｅｊｉｙｕａｎ１ｄｏｎｇ３１６　ｓｈｅｎｚｈｅｎｓｈｉ　ｇｕａｎｇｄｏｎｇｓｈｅｎｇ,,,,,,2023-10-26,1,,,,,シンセンシユウウィケイソウカギユウゲンコウシ,0
2355,9700150121442,新規,0,2023-10-26,2023-10-26,ＳｈｅｎｚｈｅｎｓｈｉＸｉｎｇｈｏｎｇ　ｄｉａｎｚｉｓｈａｎｇｗｕｙｏｕｘｉａｎｇｏｎｇｓｉ,,外国会社等,,,,,,,,Ｃ１９０１Ａ２２２Ｂｕｉｌｄｉｎｇ１，Ｓｈｅｎｚｈｅｎｓｈｉｒｕａｎｊｉａｎｃｈａｎｙｊｉｄｉ，Ｎｏ．８１　８３　８５，ｇａｏｘｉｎｎａｎｓｈｉｄａｏ，ＢｉｎｈａｉＳｈｅｑｕ，ＹｕｅｈａｉＪｉｅｄａｏ，Ｎａｎｓｈａｎ　Ｑｕ，Ｓｈｅｎｚｈｅｎ，Ｇｕａｎｇｄｏｎｇ,,,,,,2023-10-26,1,,,,,シンセンシセイコウデンシショウムユウゲンコウシ,0
2356,9700150121450,新規,0,2023-10-26,2023-10-26,ｓｈｅｎｚｈｅｎｓｈｉｈｕａｊｉａｄａｋｅｊｉｙｏｕｘｉａｎｇｏｎｇｓｉ,,外国会社等,,,,,,,,Ｇｕａｎｇｄｏｎｇ　Ｒｏｏｍ　２０１，Ｎｏ．７３，Ｔｅｎｇｌｏｎｇ　Ｉｎｄｕｓｔｒｉａｌ　Ｚｏｎｅ，Ｘｉｎｔｉａｎ　Ｃｏｍｍｕｎｉｔｙ，Ｇｕａｎｈｕ　Ｓｔｒｅｅｔ，ＬｏｎｇｈｕａＤｉｓｔ．Ｓｈｅｎｚｈｅｎ,,,,,,2023-10-26,1,,,,,シェンジェンシーフワージャーダーコージーヨウシエンゴンスー,0
