sequenceNumber,corporateNumber,process,correct,updateDate,changeDate,name,nameImageId,kind,prefectureName,cityName,streetNumber,addressImageId,prefectureCode,cityCode,postCode,addressOutside,addressOutsideImageId,closeDate,closeCause,successorCorporateNumber,changeCause,assignmentDate,latest,enName,enPrefectureName,enCityName,enAddressOutside,furigana,hihyoji
12,1010001224810,新規,0,2022-02-28,2022-02-28,株式会社ＳＯＯＭ,,株式会社,東京都,中央区,日本橋室町１丁目５番３号,,13,102,1030022,,,,,,,2022-02-28,1,,,,,スーム,0
13,1010001224843,新規,0,2022-02-28,2022-02-28,和たしたち株式会社,,株式会社,東京都,千代田区,九段南１丁目５番６号りそな九段ビル５階ＫＳフロア,,13,101,1020074,,,,,,,2022-02-28,1,,,,,ワタシタチ,0
14,1010001224901,新規,0,2022-02-28,2022-02-28,テクノプラン株式会社,,株式会社,東京都,中央区,日本橋小舟町１２番７号,,13,102,1030024,,,,,,,2022-02-28,1,,,,,テクノプラン,0
18,1010003037079,新規,0,2022-02-28,2022-02-28,アットソーラーエナジー合同会社,,合同会社,東京都,中央区,勝どき２丁目１０番１６－４１４号,,13,102,1040054,,,,,,,2022-02-28,1,,,,,アットソーラーエナジー,0
19,1010003037087,新規,0,2022-02-28,2022-02-28,合同会社Ｒｅｌｉｖｅ,,合同会社,東京都,千代田区,飯田橋１丁目８番７号有田ビル１階,,13,101,1020072,,,,,,,2022-02-28,1,,,,,リライブ,0
20,1010003037095,新規,0,2022-02-28,2022-02-28,Ｌｉｂｅｒｔａｓ合同会社,,合同会社,東京都,中央区,日本橋中洲１番１１－６０２号,,13,102,1030008,,,,,,,2022-02-28,1,,,,,リーベルタス,0
22,1010005034636,新規,0,2022-02-28,2022-02-28,一般社団法人ＣＡＬＩＣＯ　ＥＤＵＣＡＴＩＯＮ,,その他の設立登記法人,東京都,中央区,日本橋人形町３丁目３番５号,,13,102,1030013,,,,,,,2022-02-28,1,,,,,キャリコエデュケーション,0
26,1010401165778,新規,0,2022-02-28,2022-02-28,株式会社メディカルＬｉｎｋ,,株式会社,東京都,港区,海岸１丁目９番１５号スカイハウス浜離宮１５１１,,13,103,1050022,,,,,,,2022-02-28,1,,,,,メディカルリンク,0
27,1010401165828,新規,0,2022-02-28,2022-02-28,株式会社ＯＨＭＯＲＩ,,株式会社,東京都,港区,赤坂６丁目４番２２号,,13,103,1070052,,,,,,,2022-02-28,1,,,,,オオモリ,0
33,1010403027150,新規,0,2022-02-28,2022-02-28,合同会社ＬＪ,,合同会社,東京都,港区,六本木５丁目１３番１－４０２号,,13,103,1060032,,,,,,,2022-02-28,1,,,,,エルジェイ,0
34,1010403027167,新規,0,2022-02-28,2022-02-28,合同会社Ｒｅ　ｍａｋｅ,,合同会社,東京都,港区,高輪２丁目１３－１,,13,103,1080074,,,,,,,2022-02-28,1,,,,,リメイク,0
35,1010405020756,新規,0,2022-02-28,2022-02-28,尼崎２一般社団法人,,その他の設立登記法人,東京都,港区,虎ノ門３丁目２２番１０－２０１号,,13,103,1050001,,,,,,,2022-02-28,1,,,,,アマガサキツー,0
37,1010501048511,新規,0,2022-02-28,2022-02-28,スリースターズ株式会社,,株式会社,東京都,台東区,浅草橋４丁目１５番５号,,13,106,1110053,,,,,,,2022-02-28,1,,,,,スリースターズ,0
42,1010701042280,新規,0,2022-02-28,2022-02-28,株式会社Ｒｏｓｙ　ｌｕｃｅ　ｃｏ．,,株式会社,東京都,品川区,大崎２丁目９番２号,,13,109,1410032,,,,,,,2022-02-28,1,,,,,ロージールーチェシーオー,0
46,1010901050422,新規,0,2022-02-28,2022-02-28,株式会社Ｋ－ＰＲＯＧＥＴＴＯ,,株式会社,東京都,世田谷区,八幡山１丁目２２番８号,,13,112,1560056,,,,,,,2022-02-28,1,,,,,ケープロジェット,0
47,1010901050430,新規,0,2022-02-28,2022-02-28,株式会社ヨルメ,,株式会社,東京都,世田谷区,弦巻４丁目２番２１号,,13,112,1540016,,,,,,,2022-02-28,1,,,,,ヨルメ,0
48,1010905004267,新規,0,2022-02-28,2022-02-28,一般社団法人ＴＴＢジャーナル,,その他の設立登記法人,東京都,世田谷区,太子堂２丁目３６－９－２０１,,13,112,1540004,,,,,,,2022-02-28,1,,,,,ティーティービージャーナル,0
56,1011001145872,新規,0,2022-02-28,2022-02-28,株式会社カイメラ,,株式会社,東京都,渋谷区,渋谷２丁目１９番１５号,,13,113,1500002,,,,,,,2022-02-28,1,,,,,カイメラ,0
57,1011001145971,新規,0,2022-02-28,2022-02-28,株式会社ココキャリア,,株式会社,東京都,渋谷区,千駄ヶ谷３丁目１６番５号北参道ＧＡＴＥ９Ｆ,,13,113,1510051,,,,,,,2022-02-28,1,,,,,ココキャリア,0
61,1011101097857,新規,0,2022-02-28,2022-02-28,ゴリラ株式会社,,株式会社,東京都,新宿区,大久保２丁目４番１２号新宿ラムダックスビル８Ｆ,,13,104,1690072,,,,,,,2022-02-28,1,,,,,ゴリラ,0
62,1011101097907,新規,0,2022-02-28,2022-02-28,株式会社Ｙｓｏｎｓ,,株式会社,東京都,新宿区,西新宿３丁目３番１３号西新宿水間ビル６階,,13,104,1600023,,,,,,,2022-02-28,1,,,,,ワイソンズ,0
63,1011103011460,新規,0,2022-02-28,2022-02-28,合同会社Ｃ４ＳＴ,,合同会社,東京都,新宿区,西新宿３丁目３番１３号西新宿水間ビル６階,,13,104,1600023,,,,,,,2022-02-28,1,,,,,キャスト,0
64,1011103011510,新規,0,2022-02-28,2022-02-28,合同会社ＴＳＵ－ＣＲＥＡ,,合同会社,東京都,新宿区,下落合２丁目５番３号,,13,104,1610033,,,,,,,2022-02-28,1,,,,,ツクリエ,0
66,1011201023671,新規,0,2022-02-28,2022-02-28,ｉｌ　Ｃｕｏｒｅ株式会社,,株式会社,東京都,中野区,東中野３丁目１４番１５号Ｓｔｅｌｌａ落合駅前３Ｆ,,13,114,1640003,,,,,,,2022-02-28,1,,,,,イルクオーレ,0
68,1011301027589,新規,0,2022-02-28,2022-02-28,株式会社ＲｅＮｅｕｔｒａｌ,,株式会社,東京都,杉並区,南荻窪４丁目４１番６号,,13,115,1670052,,,,,,,2022-02-28,1,,,,,リニュートラル,0
69,1011301027597,新規,0,2022-02-28,2022-02-28,ＯＮＥＰＩＸＬＡＢ株式会社,,株式会社,東京都,杉並区,高円寺南４丁目４１番１０号ＵＰＢＡＳＥ高円寺,,13,115,1660003,,,,,,,2022-02-28,1,,,,,ワンピクスラボ,0
71,1011401024057,新規,0,2022-02-28,2022-02-28,株式会社コピア,,株式会社,東京都,板橋区,板橋３丁目２５番４号,,13,119,1730004,,,,,,,2022-02-28,1,,,,,コピア,0
73,1011701025077,新規,0,2022-02-28,2022-02-28,株式会社ＭＵＳＥ,,株式会社,東京都,江戸川区,中葛西１丁目１１番２号,,13,123,1340083,,,,,,,2022-02-28,1,,,,,ミューズ,0
75,1011801040380,新規,0,2022-02-28,2022-02-28,株式会社ＳＡＫＵＲＡ　ＪＡＰＡＮ,,株式会社,東京都,葛飾区,新小岩２丁目７番６－４０１号,,13,122,1240024,,,,,,,2022-02-28,1,,,,,サクラジャパン,0
78,1012401038864,新規,0,2022-02-28,2022-02-28,ＭＫ興業株式会社,,株式会社,東京都,稲城市,矢野口７９４番地原田コーポ２０１,,13,225,2060812,,,,,,,2022-02-28,1,,,,,エムケイコウギョウ,0
79,1012401038897,新規,0,2022-02-28,2022-02-28,株式会社ワイズマン,,株式会社,東京都,武蔵野市,吉祥寺北町３丁目１５番１９号ＫＥＥＮＡ２０２,,13,203,1800001,,,,,,,2022-02-28,1,,,,,ワイズマン,0
82,1012801021420,新規,0,2022-02-28,2022-02-28,株式会社英康コンサル,,株式会社,東京都,立川市,砂川町３丁目１９番地の２１,,13,202,1900031,,,,,,,2022-02-28,1,,,,,エイコウコンサル,0
84,1013101008851,新規,0,2022-02-28,2022-02-28,ＥＶＡ株式会社,,株式会社,東京都,福生市,大字福生７８８番地２５ラ・ハウス１０３号室,,13,218,1970011,,,,,,,2022-02-28,1,,,,,エバ,0
90,1013301048730,新規,0,2022-02-28,2022-02-28,株式会社ウェルクエスト,,株式会社,東京都,豊島区,南池袋１丁目１６番２０号,,13,116,1710022,,,,,,,2022-02-28,1,,,,,ウェルクエスト,0
97,1020001145329,新規,0,2022-02-28,2022-02-28,株式会社Ｍ．Ｓ．Ｔ．Ｈ,,株式会社,神奈川県,横浜市神奈川区,二本榎１番１号,,14,102,2210813,,,,,,,2022-02-28,1,,,,,エムエスティーエイチ,0
98,1020001145361,新規,0,2022-02-28,2022-02-28,株式会社ノゾミ,,株式会社,神奈川県,横浜市中区,麦田町１丁目４０番地４０３号,,14,104,2310849,,,,,,,2022-02-28,1,,,,,ノゾミ,0
99,1020001145378,新規,0,2022-02-28,2022-02-28,株式会社ワイズシンケン,,株式会社,神奈川県,横浜市南区,永田北３丁目２５番３４号,,14,105,2320071,,,,,,,2022-02-28,1,,,,,ワイズシンケン,0
100,1020001145386,新規,0,2022-02-28,2022-02-28,株式会社リゾネーター,,株式会社,神奈川県,横浜市鶴見区,佃野町２３番１３－１０９号,,14,101,2300061,,,,,,,2022-02-28,1,,,,,リゾネーター,0
101,1020003021370,新規,0,2022-02-28,2022-02-28,メディエライト合同会社,,合同会社,神奈川県,川崎市麻生区,万福寺４丁目３番７―２０３号,,14,137,2150004,,,,,,,2022-02-28,1,,,,,メディエライト,0
105,1021001075268,新規,0,2022-02-28,2022-02-28,株式会社湘南オンライン,,株式会社,神奈川県,平塚市,山下７８９番地１‐２０１,,14,203,2540911,,,,,,,2022-02-28,1,,,,,ショウナンオンライン,0
106,1021001075292,新規,0,2022-02-28,2022-02-28,株式会社上原工業,,株式会社,神奈川県,綾瀬市,早川８７９番地,,14,218,2521123,,,,,,,2022-02-28,1,,,,,ウエハラコウギョウ,0
118,1030001147002,新規,0,2022-02-28,2022-02-28,ＴＤＳ株式会社,,株式会社,埼玉県,さいたま市岩槻区,本町３丁目１２番地１１号,,11,110,3390057,,,,,,,2022-02-28,1,,,,,ティディエス,0
134,1040001122350,新規,0,2022-02-28,2022-02-28,株式会社ＬＥＯＫＥＮＴＯ,,株式会社,千葉県,夷隅郡大多喜町,大多喜６１番地１,,12,441,2980216,,,,,,,2022-02-28,1,,,,,レオケント,0
135,1040001122383,新規,0,2022-02-28,2022-02-28,株式会社外房基地,,株式会社,千葉県,茂原市,千沢９２８番地３０,,12,210,2994103,,,,,,,2022-02-28,1,,,,,ソトボウベース,0
140,1070001038973,新規,0,2022-02-28,2022-02-28,株式会社プラハナ,,株式会社,群馬県,みどり市,笠懸町阿左美３２９５番地,,10,212,3792311,,,,,,,2022-02-28,1,,,,,プラハナ,0
141,1070001038981,新規,0,2022-02-28,2022-02-28,ＴＯＫＹＯ　ＴＲＡＤＩＮＧ株式会社,,株式会社,群馬県,太田市,新井町１６６番地２エース新井２０２号室,,10,205,3730852,,,,,,,2022-02-28,1,,,,,トウキョウトレーディング,0
146,1090001017422,新規,0,2022-02-28,2022-02-28,豊栄メンテナンスカンパニー株式会社,,株式会社,山梨県,南都留郡山中湖村,平野１１７９番地の２,,19,425,4010502,,,,,,,2022-02-28,1,,,,,ホウエイメンテナンスカンパニー,0
147,1090001017430,新規,0,2022-02-28,2022-02-28,キクシマ工業株式会社,,株式会社,山梨県,甲斐市,富竹新田３８７番地３,,19,210,4000113,,,,,,,2022-02-28,1,,,,,キクシマコウギョウ,0
149,1100001035083,新規,0,2022-02-28,2022-02-28,スカイアンドハッピーウェイ株式会社,,株式会社,長野県,上田市,真田町本原４９３番地６グリーンヒルＢ１０２号,,20,203,3862202,,,,,,,2022-02-28,1,,,,,スカイアンドハッピーウェイ,0
171,1120001244046,新規,0,2022-02-28,2022-02-28,ラプラス株式会社,,株式会社,大阪府,枚方市,星丘２丁目３８番１３号,,27,210,5730013,,,,,,,2022-02-28,1,,,,,ラプラス,0
172,1120001244062,新規,0,2022-02-28,2022-02-28,株式会社スタートアップ,,株式会社,大阪府,大阪市北区,曾根崎１丁目３－６梅田レジデンスタワー１７０６号室,,27,127,5300057,,,,,,,2022-02-28,1,,,,,スタートアップ,0
173,1120001244070,新規,0,2022-02-28,2022-02-28,株式会社ブラックボウズ,,株式会社,大阪府,大阪市北区,天満２丁目１番１６号アーバンネックス天満橋１００４号,,27,127,5300043,,,,,,,2022-02-28,1,,,,,ブラックボウズ,0
174,1120001244079,新規,0,2022-02-28,2022-02-28,株式会社Ｎｕｍｂｅｒ２,,株式会社,大阪府,大阪市中央区,東心斎橋２丁目２番７号,,27,128,5420083,,,,,,,2022-02-28,1,,,,,ナンバーツー,0
176,1120003021204,新規,0,2022-02-28,2022-02-28,合同会社Ｒ,,合同会社,大阪府,大阪市浪速区,桜川２丁目１４番２０号ＺＥＵＳ月光マンション７０４,,27,111,5560022,,,,,,,2022-02-28,1,,,,,アール,0
186,1130001071191,新規,0,2022-02-28,2022-02-28,株式会社京の田舎家,,株式会社,京都府,亀岡市,余部町北町川筋１０番地６,,26,206,6210806,,,,,,,2022-02-28,1,,,,,キョウノイナカヤ,0
187,1130001071200,新規,0,2022-02-28,2022-02-28,株式会社ヒッタイト,,株式会社,京都府,木津川市,鹿背山大木谷３７番地,,26,214,6190211,,,,,,,2022-02-28,1,,,,,ヒッタイト,0
188,1130001071209,新規,0,2022-02-28,2022-02-28,大地プランニング株式会社,,株式会社,京都府,京都市下京区,高辻通油小路東入永養寺町２３０番地,00125817,26,106,6008463,,,,,,,2022-02-28,1,,,,,オオチプランニング,0
189,1130001071217,新規,0,2022-02-28,2022-02-28,株式会社本多実業,,株式会社,京都府,京都市南区,吉祥院八反田町３０番地,,26,107,6018325,,,,,,,2022-02-28,1,,,,,ホンダジツギョウ,0
190,1130001071225,新規,0,2022-02-28,2022-02-28,株式会社ＲＡＹ,,株式会社,京都府,京都市左京区,高野西開町３６洛北阪急スクエア地下１階,,26,103,6068103,,,,,,,2022-02-28,1,,,,,レイ,0
191,1130005016390,新規,0,2022-02-28,2022-02-28,一般社団法人京都安全運転サポートセンター,,その他の設立登記法人,京都府,京都市北区,大北山原谷乾町４０番地５５,,26,101,6038487,,,,,,,2022-02-28,1,,,,,キョウトアンゼンウンテンサポートセンター,0
196,1140001125046,新規,0,2022-02-28,2022-02-28,北摂ワイナリー株式会社,,株式会社,兵庫県,川西市,黒川字長谷１１０－９黒川ファーム,,28,217,6660101,,,,,,,2022-02-28,1,,,,,ホクセツワイナリー,0
207,1170001016985,新規,0,2022-02-28,2022-02-28,株式会社パルト,,株式会社,和歌山県,岩出市,山７４７番地の１１,,30,209,6496258,,,,,,,2022-02-28,1,,,,,パルト,0
218,1180001150148,新規,0,2022-02-28,2022-02-28,株式会社エコプラザ,,株式会社,愛知県,名古屋市中川区,外新町２丁目８４番地,,23,110,4540053,,,,,,,2022-02-28,1,,,,,エコプラザ,0
223,1200001039792,新規,0,2022-02-28,2022-02-28,株式会社Ｋｏｕｓｅｉ,,株式会社,岐阜県,岐阜市,北一色３丁目３番４－１０１号,,21,201,5008227,,,,,,,2022-02-28,1,,,,,コウセイ,0
227,1240003005525,新規,0,2022-02-28,2022-02-28,宏立商事合同会社,,合同会社,広島県,福山市,沼隈町大字草深１８９９番地３,,34,207,7200311,,,,,,,2022-02-28,1,,,,,コウリツショウジ,0
230,1250005008723,新規,0,2022-02-28,2022-02-28,一般社団法人ＹＭＡ山口ミュージックアカデミー,,その他の設立登記法人,山口県,山口市,小郡下郷８８９－６,,35,203,7540002,,,,,,,2022-02-28,1,,,,,ワイエムエーヤマグチミュージックアカデミー,0
233,1260003003816,新規,0,2022-02-28,2022-02-28,ヒューマンリサーチサービス合同会社,,合同会社,岡山県,倉敷市,水島北春日町７番２３号,,33,202,7128024,,,,,,,2022-02-28,1,,,,,ヒューマンリサーチサービス,0
235,1280003001586,新規,0,2022-02-28,2022-02-28,合同会社ミタ建,,合同会社,島根県,松江市,玉湯町玉造１３９３,,32,201,6990201,,,,,,,2022-02-28,1,,,,,ミタケン,0
244,1290001096537,新規,0,2022-02-28,2022-02-28,株式会社アルバ,,株式会社,福岡県,福岡市早良区,野芥３丁目２７番３０号,,40,137,8140171,,,,,,,2022-02-28,1,,,,,アルバ,0
245,1290001096545,新規,0,2022-02-28,2022-02-28,株式会社益照,,株式会社,福岡県,朝倉市,三奈木１４６３番地１,,40,228,8380023,,,,,,,2022-02-28,1,,,,,マステル,0
246,1290001096553,新規,0,2022-02-28,2022-02-28,株式会社Ｆ‐ｒｅａｃｈ　ｗｏｒｋ,,株式会社,福岡県,春日市,天神山７丁目６６番地,,40,218,8160855,,,,,,,2022-02-28,1,,,,,エフリーチワーク,0
257,1330001029475,新規,0,2022-02-28,2022-02-28,株式会社マツオカヤ,,株式会社,熊本県,熊本市中央区,新町４丁目２番地ロマネスク新町６０３号,,43,101,8600004,,,,,,,2022-02-28,1,,,,,マツオカヤ,0
260,1330003009260,新規,0,2022-02-28,2022-02-28,合同会社ツナグホテルリゾート,,合同会社,熊本県,天草市,太田町２１番地４,,43,215,8630032,,,,,,,2022-02-28,1,,,,,ツナグホテルリゾート,0
264,1360001030050,新規,0,2022-02-28,2022-02-28,株式会社ＴＯＭ,,株式会社,沖縄県,浦添市,屋富祖２丁目２９番２８号,,47,208,9012127,,,,,,,2022-02-28,1,,,,,トム,0
265,1360003011817,新規,0,2022-02-28,2022-02-28,合同会社ＴＡＷＡＴＡ,,合同会社,沖縄県,中頭郡嘉手納町,字嘉手納２６８番地,,47,325,9040203,,,,,,,2022-02-28,1,,,,,タワタ,0
277,1430001086060,新規,0,2022-02-28,2022-02-28,株式会社地球はメリー・ゴーランド,,株式会社,北海道,札幌市豊平区,平岸三条１丁目１番８号,,01,105,0620933,,,,,,,2022-02-28,1,,,,,チキュウハメリーゴーランド,0
278,1430001086069,新規,0,2022-02-28,2022-02-28,株式会社ＯＭＯｉＤ,,株式会社,北海道,札幌市中央区,宮の森一条７丁目４番２５号Ｍ－ＳＥＬＥＣＴＩＯＮ．ＳＴＥＬＬＡ．２　１０２号,,01,101,0640951,,,,,,,2022-02-28,1,,,,,オーエムーオーアイディ,0
282,1430003013649,新規,0,2022-02-28,2022-02-28,合同会社はなす,,合同会社,北海道,札幌市中央区,南五条東２丁目１１番地１シティハイツ南五条１００２号,,01,101,0600055,,,,,,,2022-02-28,1,,,,,ハナス,0
283,1430003013657,新規,0,2022-02-28,2022-02-28,Ｓｙｕｋｕｒａ合同会社,,合同会社,北海道,札幌市北区,北二十四条西４丁目４－２０石原ビル１階,,01,102,0010024,,,,,,,2022-02-28,1,,,,,シュクラ,0
284,1440003001446,新規,0,2022-02-28,2022-02-28,合同会社手刀,,合同会社,北海道,函館市,桔梗町５９番地２９３,,01,202,0410801,,,,,,,2022-02-28,1,,,,,シュトウ,0
287,1460301005048,新規,0,2022-02-28,2022-02-28,株式会社Ｒｅｅｔｈｙ,,株式会社,北海道,北見市,ひかり野７丁目４番地１,,01,208,0900810,,,,,,,2022-02-28,1,,,,,リーティ,0
289,1480005006885,新規,0,2022-02-28,2022-02-28,医療法人ＹＬＣ,,その他の設立登記法人,徳島県,徳島市,山城西３丁目２６番地,,36,201,7708054,,,,,,,2022-02-28,1,,,,,ワイエルシー,0
304,2010001224834,新規,0,2022-02-28,2022-02-28,株式会社ＰＣＰマネジメント,,株式会社,東京都,千代田区,内神田１丁目１５番５号水口ビル４階,,13,101,1010047,,,,,,,2022-02-28,1,,,,,ピーシーピーマネジメント,0
305,2010001224859,新規,0,2022-02-28,2022-02-28,紅山半導体技術株式会社,,株式会社,東京都,千代田区,神田小川町１丁目８番地３小川町北ビル４０３,,13,101,1010052,,,,,,,2022-02-28,1,,,,,コウザンハンドウタイギジュツ,0
306,2010001224891,新規,0,2022-02-28,2022-02-28,株式会社マグネクト,,株式会社,東京都,中央区,銀座１丁目２２番１１号銀座大竹ビジデンス２階,,13,102,1040061,,,,,,,2022-02-28,1,,,,,マグネクト,0
310,2010005034602,新規,0,2022-02-28,2022-02-28,一般社団法人日露チャイコフスキー・フォンメック協会,,その他の設立登記法人,東京都,千代田区,神田紺屋町４６,,13,101,1010035,,,,,,,2022-02-28,1,,,,,ニチロチャイコフスキーフォンメックキョウカイ,0
311,2010101015076,新規,0,2022-02-28,2022-02-28,株式会社ベストワンライズ,,株式会社,東京都,八王子市,千人町４丁目１２番１５号,,13,201,1930835,,,,,,,2022-02-28,1,,,,,,0
316,2010401165769,新規,0,2022-02-28,2022-02-28,ニコニコ株式会社,,株式会社,東京都,港区,芝公園２丁目１１番１号住友不動産芝公園タワー１Ｆ,,13,103,1050011,,,,,,,2022-02-28,1,,,,,ニコニコ,0
317,2010401165777,新規,0,2022-02-28,2022-02-28,株式会社３ＤＣ,,株式会社,東京都,港区,浜松町２丁目２番１５号浜松町ダイヤビル２階,,13,103,1050013,,,,,,,2022-02-28,1,,,,,スリーディーシー,0
318,2010401165819,新規,0,2022-02-28,2022-02-28,Ｍｉｎｄ　Ｒｉｖｅｒ株式会社,,株式会社,東京都,港区,南青山２丁目２番１５号ウィン青山９４２,,13,103,1070062,,,,,,,2022-02-28,1,,,,,,0
319,2010401165827,新規,0,2022-02-28,2022-02-28,株式会社Ｂ－ｓｈｅｅｐ,,株式会社,東京都,港区,白金３丁目７番１８号アポロホール・ルナハウス３０７,,13,103,1080072,,,,,,,2022-02-28,1,,,,,ビーシープ,0
320,2010401165843,新規,0,2022-02-28,2022-02-28,株式会社北東アジア環境技術研究所,,株式会社,東京都,港区,新橋１丁目５番５号国際善隣会館６階,,13,103,1050004,,,,,,,2022-02-28,1,,,,,ホクトウアジアカンキョウギジュツケンキュウジョ,0
322,2010405020747,新規,0,2022-02-28,2022-02-28,一般社団法人Ｍａｎｔｉｃ　Ｓｏｃｉｅｔｙ　ｏｆ　Ｊａｐａｎ,,その他の設立登記法人,東京都,港区,高輪１丁目１７番１３号,,13,103,1080074,,,,,,,2022-02-28,1,,,,,マンティクソサイアティオブジャパン,0
323,2010405020755,新規,0,2022-02-28,2022-02-28,一般社団法人依存症科学研究所,,その他の設立登記法人,東京都,港区,南青山２丁目２番１５号,,13,103,1070062,,,,,,,2022-02-28,1,,,,,イゾンショウカガクケンキュウジョ,0
326,2010501048519,新規,0,2022-02-28,2022-02-28,ヴァリアス・ラグジュアリー株式会社,,株式会社,東京都,台東区,台東３丁目３８番２号,,13,106,1100016,,,,,,,2022-02-28,1,,,,,ヴァリアスラグジュアリー,0
334,2010803004070,新規,0,2022-02-28,2022-02-28,石のお守り合同会社,,合同会社,東京都,大田区,田園調布本町４５番７－７０８号,,13,111,1450072,,,,,,,2022-02-28,1,,,,,イシノオマモリ,0
339,2010905004266,新規,0,2022-02-28,2022-02-28,一般財団法人ながひさ財団,,その他の設立登記法人,東京都,世田谷区,成城５丁目２番１１号,,13,112,1570066,,,,,,,2022-02-28,1,,,,,ナガヒサザイダン,0
344,2011001145847,新規,0,2022-02-28,2022-02-28,株式会社ｗｅｂＡｒｃｈ,,株式会社,東京都,渋谷区,円山町５番５号Ｎａｖｉ渋谷Ｖ３階,,13,113,1500044,,,,,,,2022-02-28,1,,,,,ウェブアーキ,0
345,2011001145946,新規,0,2022-02-28,2022-02-28,Ｇｌｏｂａｌ　Ｃａｐｉｔａｌ　Ｐａｒｔｎｅｒｓ株式会社,,株式会社,東京都,渋谷区,道玄坂１丁目１０番８号渋谷道玄坂東急ビル２Ｆ－Ｃ,,13,113,1500043,,,,,,,2022-02-28,1,,,,,グローバルキャピタルパートナーズ,0
346,2011001145954,新規,0,2022-02-28,2022-02-28,Ｈｉｍａｇｉｎｅ株式会社,,株式会社,東京都,目黒区,東山３丁目５番６号アーバンプレミア池尻大橋４０６,,13,110,1530043,,,,,,,2022-02-28,1,,,,,ヒマジン,0
347,2011001145970,新規,0,2022-02-28,2022-02-28,株式会社ＮｅｖｅｒＥｎｄｉｎｇ　Ｓｔｏｒｙ,,株式会社,東京都,渋谷区,渋谷３丁目１番９号Ｙａｚａｗａビル４階,,13,113,1500002,,,,,,,2022-02-28,1,,,,,ネバーエンディングストーリー,0
348,2011003014240,新規,0,2022-02-28,2022-02-28,ＰｒｉｍｅＴｒｅｅ合同会社,,合同会社,東京都,渋谷区,恵比寿西２丁目８番１号シャレール恵比寿９０２,,13,113,1500021,,,,,,,2022-02-28,1,,,,,プライムツリー,0
357,2011101097922,新規,0,2022-02-28,2022-02-28,株式会社Ｏｎｆｌｅｅｋ　Ｈｏｍｅ,,株式会社,東京都,新宿区,西新宿７丁目１６番１３号西新宿第二手塚ビル４Ｆ,00125815,13,104,1600023,,,,,,,2022-02-28,1,,,,,オンフリークホーム,0
362,2011103011501,新規,0,2022-02-28,2022-02-28,メタビット日本合同会社,,合同会社,東京都,新宿区,西新宿７丁目１番７号新宿ダイカンプラザＡ１０１８,,13,104,1600023,,,,,,,2022-02-28,1,,,,,メタビットニホン,0
363,2011301027588,新規,0,2022-02-28,2022-02-28,株式会社ベクタート,,株式会社,東京都,杉並区,上井草３丁目３２番５号清水ビル２Ｆ,,13,115,1670023,,,,,,,2022-02-28,1,,,,,ベクタート,0
364,2011301027596,新規,0,2022-02-28,2022-02-28,ＴＨＬ株式会社,,株式会社,東京都,杉並区,上荻４丁目１０番８号パレドール西荻窪１０２,,13,115,1670043,,,,,,,2022-02-28,1,,,,,ティーエイチエル,0
365,2011303004321,新規,0,2022-02-28,2022-02-28,合同会社虹織考房,,合同会社,東京都,杉並区,成田東２丁目２７－１２,,13,115,1660015,,,,,,,2022-02-28,1,,,,,ニジオリコウボウ,0
372,2012703002410,新規,0,2022-02-28,2022-02-28,合同会社秀島,,合同会社,東京都,清瀬市,竹丘１丁目１７－２６－６３７,,13,221,2040023,,,,,,,2022-02-28,1,,,,,ヒデシマ,0
375,2020001145377,新規,0,2022-02-28,2022-02-28,株式会社ハイゴー,,株式会社,神奈川県,川崎市川崎区,旭町２丁目１４番１５号,,14,131,2100808,,,,,,,2022-02-28,1,,,,,ハイゴー,0
376,2020001145393,新規,0,2022-02-28,2022-02-28,株式会社Ｒｅｎｏｂｅｒｔｙ,,株式会社,神奈川県,横浜市保土ケ谷区,釜台町１０番１７号１０２,,14,106,2400066,,,,,,,2022-02-28,1,,,,,リノベティ,0
377,2020001145419,新規,0,2022-02-28,2022-02-28,株式会社インディル,,株式会社,神奈川県,川崎市幸区,堀川町５８０番地ソリッドスクエア４Ｆ,,14,132,2120013,,,,,,,2022-02-28,1,,,,,インディル,0
379,2020003021320,新規,0,2022-02-28,2022-02-28,Ｒ－Ｃｌａｐ合同会社,,合同会社,神奈川県,川崎市高津区,久地１丁目１３－３４－１０２,,14,134,2130032,,,,,,,2022-02-28,1,,,,,アールクラップ,0
383,2021001075283,新規,0,2022-02-28,2022-02-28,株式会社サイクルワークスレニウム,,株式会社,神奈川県,相模原市中央区,相模原５丁目２番１号シャトーライフ相模原６０６号,,14,152,2520231,,,,,,,2022-02-28,1,,,,,サイクルワークスレニウム,0
385,2021003011435,新規,0,2022-02-28,2022-02-28,合同会社ソラモ,,合同会社,神奈川県,足柄下郡湯河原町,吉浜１８番地の４,,14,384,2590312,,,,,,,2022-02-28,1,,,,,ソラモ,0
398,2030003018877,新規,0,2022-02-28,2022-02-28,合同会社ＫＥＹ　ＶＩ,,合同会社,埼玉県,さいたま市大宮区,桜木町２丁目３番地大宮マルイ７階,,11,103,3300854,,,,,,,2022-02-28,1,,,,,ケイシックス,0
399,2030003018927,新規,0,2022-02-28,2022-02-28,合同会社ＫＯＭＩＮＯ’Ｓ,,合同会社,埼玉県,児玉郡上里町,大字神保原町２０２２－２,,11,385,3690305,,,,,,,2022-02-28,1,,,,,コミノス,0
400,2030005020732,新規,0,2022-02-28,2022-02-28,ガーデンタウン南桜井管理組合法人,,その他の設立登記法人,埼玉県,春日部市,西金野井６４番地１２,,11,214,3440112,,,,,,,2022-02-28,1,,,,,ガーデンタウンミナミサクライ,0
405,2040001122382,新規,0,2022-02-28,2022-02-28,株式会社ＨａｐｐｙＳｍｉｌｅＥａｒｔｈ,,株式会社,千葉県,長生郡白子町,剃金２４４８番地２,,12,424,2994203,,,,,,,2022-02-28,1,,,,,ハッピースマイルアース,0
408,2040003019569,新規,0,2022-02-28,2022-02-28,リスクリワード合同会社,,合同会社,千葉県,千葉市中央区,弁天１丁目１５－３,,12,101,2600045,,,,,,,2022-02-28,1,,,,,リスクリワード,0
412,2050001050698,新規,0,2022-02-28,2022-02-28,株式会社マルユウ,,株式会社,茨城県,守谷市,御所ケ丘４丁目７番地８御所ケ丘ドリームハイツ２０１,,08,224,3020119,,,,,,,2022-02-28,1,,,,,マルユウ,0
413,2060001034601,新規,0,2022-02-28,2022-02-28,ＧＲＯＷＭＯＲＥ株式会社,,株式会社,栃木県,足利市,緑町１丁目６番地７,,09,202,3260816,,,,,,,2022-02-28,1,,,,,グロウモア,0
416,2070001038980,新規,0,2022-02-28,2022-02-28,株式会社吉田商会,,株式会社,群馬県,太田市,牛沢町８８７番地８０,,10,205,3730833,,,,,,,2022-02-28,1,,,,,ヨシダショウカイ,0
419,2080403004480,新規,0,2022-02-28,2022-02-28,風しずく合同会社,,合同会社,静岡県,浜松市中区,田町３２６－２５ＫＪスクエア３Ｆ,,22,131,4300944,,,,,,,2022-02-28,1,,,,,カゼシズク,0
420,2080405007432,新規,0,2022-02-28,2022-02-28,特定非営利活動法人Ｒ,,その他の設立登記法人,静岡県,磐田市,上万能１０８番地１カーサベルデＩ－１０１,00125821,22,211,4380817,,,,,,,2022-02-28,1,,,,,アール,0
422,2100001035099,新規,0,2022-02-28,2022-02-28,株式会社ＲＯＹＡＬ　ＡＵＴＯ　ＴＲＡＤＩＮＧ,,株式会社,長野県,長野市,宮沖３２１１番地１松巳荘Ｂ－５,,20,201,3800952,,,,,,,2022-02-28,1,,,,,ロイアルオートトレーディング,0
433,2120001243864,新規,0,2022-02-28,2022-02-28,株式会社インスタイル,,株式会社,大阪府,大阪市西成区,天神ノ森１丁目１１番８号,,27,122,5570013,,,,,,,2022-02-28,1,,,,,インスタイル,0
434,2120001244020,新規,0,2022-02-28,2022-02-28,株式会社フレッシュ,,株式会社,大阪府,大阪市中央区,南船場４丁目１０番５号南船場ＳＯＨＯビル７０２,,27,128,5420081,,,,,,,2022-02-28,1,,,,,フレッシュ,0
435,2120001244037,新規,0,2022-02-28,2022-02-28,株式会社ＬｉＥａｔ,,株式会社,大阪府,大阪市西淀川区,福町２丁目１０番２５号,,27,113,5550034,,,,,,,2022-02-28,1,,,,,ライート,0
436,2120001244045,新規,0,2022-02-28,2022-02-28,株式会社ＥＤＥＮＴＡ,,株式会社,大阪府,大阪市中央区,南船場３丁目１１番１０号心斎橋大陽ビルＢ１Ｆ,,27,128,5420081,,,,,,,2022-02-28,1,,,,,エデンタ,0
437,2120001244053,新規,0,2022-02-28,2022-02-28,ＤｏＣｅｒｅｚｏ株式会社,,株式会社,大阪府,大阪市中央区,内平野町１丁目１番５号西大手前ビル１０３,,27,128,5400037,,,,,,,2022-02-28,1,,,,,ドゥセレッソ,0
438,2120001244061,新規,0,2022-02-28,2022-02-28,株式会社新生技巧,,株式会社,大阪府,大阪市淀川区,三津屋南１丁目１３番１号,,27,123,5320035,,,,,,,2022-02-28,1,,,,,シンセイギコウ,0
442,2120003021194,新規,0,2022-02-28,2022-02-28,合同会社人生バンザイ研究所,,合同会社,大阪府,大阪市北区,梅田２丁目５番１３号桜橋第一ビル３０４号,,27,127,5300001,,,,,,,2022-02-28,1,,,,,ジンセイバンザイケンキュウショ,0
445,2120101065127,新規,0,2022-02-28,2022-02-28,ＳＴＡＲＴ．ｒｅ．Ｈｏｍｅ株式会社,,株式会社,大阪府,岸和田市,土生町７丁目６番１１号,,27,202,5960825,,,,,,,2022-02-28,1,,,,,スタートリホーム,0
449,2120901045641,新規,0,2022-02-28,2022-02-28,ウィズ不動産革命株式会社,,株式会社,大阪府,茨木市,耳原２丁目２番７号,,27,211,5670006,,,,,,,2022-02-28,1,,,,,ウィズフドウサンカクメイ,0
450,2130001071208,新規,0,2022-02-28,2022-02-28,株式会社海族,,株式会社,京都府,宮津市,字江尻１０２３－１,,26,205,6292244,,,,,,,2022-02-28,1,,,,,カイゾク,0
459,2140001125020,新規,0,2022-02-28,2022-02-28,株式会社Ｈｉｂｉｋｉ,,株式会社,兵庫県,神戸市兵庫区,上沢通７丁目２番１０－１０２号,,28,105,6520046,,,,,,,2022-02-28,1,,,,,ヒビキ,0
460,2140001125053,新規,0,2022-02-28,2022-02-28,株式会社クロールアップイノベーション,,株式会社,兵庫県,加古郡播磨町,南野添３丁目６－１５白川ビルＡ号室,,28,382,6750150,,,,,,,2022-02-28,1,,,,,クロールアップイノベーション,0
464,2140003017397,新規,0,2022-02-28,2022-02-28,合同会社里山クロモジ,,合同会社,兵庫県,西脇市,水尾町２２７番地の１,,28,213,6770066,,,,,,,2022-02-28,1,,,,,サトヤマクロモジ,0
466,2150005009375,新規,0,2022-02-28,2022-02-28,特定非営利活動法人あをによし,,その他の設立登記法人,奈良県,生駒郡三郷町,立野南１丁目１２番５号,,29,343,6360822,,,,,,,2022-02-28,1,,,,,アヲニヨシ,0
473,2180001150122,新規,0,2022-02-28,2022-02-28,ＢＬＢ株式会社,,株式会社,愛知県,名古屋市東区,代官町３９番２２号太洋ビル３Ｆ３０３号,,23,102,4610002,,,,,,,2022-02-28,1,,,,,ビーエルビー,0
474,2180001150139,新規,0,2022-02-28,2022-02-28,ベストワン美装株式会社,,株式会社,愛知県,名古屋市北区,中味鋺２丁目９４９番地の２,,23,103,4620015,,,,,,,2022-02-28,1,,,,,ベストワンビソウ,0
476,2180005019652,新規,0,2022-02-28,2022-02-28,日本ケアワーカー支援協同組合,,その他の設立登記法人,愛知県,名古屋市中区,大須１丁目７番５号,,23,106,4600011,,,,,,,2022-02-28,1,,,,,ニホンケアワーカーシエン,0
496,2260001036569,新規,0,2022-02-28,2022-02-28,株式会社ビックマウンテン,,株式会社,岡山県,岡山市南区,万倍４７番地３,,33,104,7000955,,,,,,,2022-02-28,1,,,,,ビッグマウンテン,0
503,2290001096560,新規,0,2022-02-28,2022-02-28,株式会社久留米病理診断医学研究所,,株式会社,福岡県,久留米市,荘島町１０番地７,,40,203,8300042,,,,,,,2022-02-28,1,,,,,クルメビョウリシンダンイガクケンキュウショ,0
504,2290001096569,新規,0,2022-02-28,2022-02-28,株式会社リノール,,株式会社,福岡県,筑紫野市,二日市中央２丁目１０番２１－５０３号,,40,217,8180072,,,,,,,2022-02-28,1,,,,,リノール,0
505,2290003012202,新規,0,2022-02-28,2022-02-28,合同会社ＲＡＤＡ,,合同会社,福岡県,福岡市中央区,春吉２丁目２番５－１５０１号エステートモア天神スタジオ,,40,133,8100003,,,,,,,2022-02-28,1,,,,,ラーダ,0
506,2290005018577,新規,0,2022-02-28,2022-02-28,一般社団法人自走式組織協会,,その他の設立登記法人,福岡県,福岡市東区,箱崎１丁目３２番２５－８０３号,,40,131,8120053,,,,,,,2022-02-28,1,,,,,ジソウシキソシキキョウカイ,0
516,2320001018916,新規,0,2022-02-28,2022-02-28,株式会社渡部工業,,株式会社,大分県,宇佐市,院内町香下１８３５番地の４,,44,211,8720311,,,,,,,2022-02-28,1,,,,,ワタナベコウギョウ,0
517,2330003009243,新規,0,2022-02-28,2022-02-28,合同会社Ａｓｈｌｅｙ,,合同会社,熊本県,熊本市中央区,水前寺１丁目２９番８号ウッディー水前寺ＳＴ４０２,,43,101,8620950,,,,,,,2022-02-28,1,,,,,アシュリー,0
518,2340005009414,新規,0,2022-02-28,2022-02-28,一般社団法人あるじぇんと,,その他の設立登記法人,鹿児島県,鹿児島市,上福元町３７４５番地,,46,201,8910116,,,,,,,2022-02-28,1,,,,,アルジェント,0
522,2360001030041,新規,0,2022-02-28,2022-02-28,株式会社ＡＣＴ－ＯＮＥ,,株式会社,沖縄県,那覇市,識名３丁目１１番３号,,47,201,9020078,,,,,,,2022-02-28,1,,,,,アクトワン,0
528,2380003005106,新規,0,2022-02-28,2022-02-28,合同会社たのしいじかん,,合同会社,福島県,郡山市,朝日３丁目５番１８号千葉ビル１階,,07,203,9638024,,,,,,,2022-02-28,1,,,,,タノシイジカン,0
529,2390001016797,新規,0,2022-02-28,2022-02-28,株式会社ＪＩＳＵＫＥ,,株式会社,山形県,酒田市,千石町２丁目７番１６号,,06,204,9980843,,,,,,,2022-02-28,1,,,,,ジスケ,0
534,2410003003618,新規,0,2022-02-28,2022-02-28,合同会社Ｎａｔｕｒ’ｅｌｌｅ　ｂｅａｕｔｅ　Ｍａｒｉｒｅ,,合同会社,秋田県,秋田市,飯島松根西町２番３８号,,05,201,0110921,,,,,,,2022-02-28,1,,,,,ナチュレルボーテマリール,0
536,2420003002461,新規,0,2022-02-28,2022-02-28,合同会社ひだまり商店,,合同会社,青森県,十和田市,東一番町５番３０号グローバルタウンＫＩＩ３Ａ,00125820,02,206,0340012,,,,,,,2022-02-28,1,,,,,ヒダマリショウテン,0
540,2430001086068,新規,0,2022-02-28,2022-02-28,株式会社ＧＴＰ,,株式会社,北海道,札幌市豊平区,月寒東四条１６丁目１４番２２号,,01,105,0620054,,,,,,,2022-02-28,1,,,,,ジーティーピー,0
547,2480005006884,新規,0,2022-02-28,2022-02-28,医療法人妙泉会,,その他の設立登記法人,徳島県,阿南市,西路見町元村２８番地１,,36,204,7740009,,,,,,,2022-02-28,1,,,,,ミョウセンカイ,0
553,3010001224817,新規,0,2022-02-28,2022-02-28,Ａｃｅｓ株式会社,,株式会社,東京都,千代田区,神田小川町３丁目２４番地カスタリアお茶の水７０２号,,13,101,1010052,,,,,,,2022-02-28,1,,,,,エイシーズ,0
554,3010001224833,新規,0,2022-02-28,2022-02-28,株式会社グローバル・モデル・ソサイエティー,,株式会社,東京都,中央区,日本橋浜町３丁目１６番７号,,13,102,1030007,,,,,,,2022-02-28,1,,,,,グローバルモデルソサイエティー,0
555,3010001224841,新規,0,2022-02-28,2022-02-28,リスミット株式会社,,株式会社,東京都,中央区,日本橋室町１丁目２番６号日本橋大栄ビル７階,,13,102,1030022,,,,,,,2022-02-28,1,,,,,リスミット,0
559,3010003037093,新規,0,2022-02-28,2022-02-28,合同会社産業医オフィスプルメリア,,合同会社,東京都,中央区,日本橋浜町１丁目４－１１－９０１,,13,102,1030007,,,,,,,2022-02-28,1,,,,,サンギョウイオフィスプルメリア,0
560,3010005034642,新規,0,2022-02-28,2022-02-28,一般社団法人山岳ＩｏＴ推進アライアンス,,その他の設立登記法人,東京都,千代田区,神田神保町２丁目１３番地神保町藤和ビル６階１０号室,,13,101,1010051,,,,,,,2022-02-28,1,,,,,サンガクアイオーティースイシンアライアンス,0
570,3010401165818,新規,0,2022-02-28,2022-02-28,株式会社ＹＴ,,株式会社,東京都,港区,赤坂２丁目１４－１１天翔オフィス赤坂,,13,103,1070052,,,,,,,2022-02-28,1,,,,,ワイティー,0
571,3010401165850,新規,0,2022-02-28,2022-02-28,株式会社ハイパーリンクソリューション,,株式会社,東京都,港区,南麻布２丁目２－２７－４０３,,13,103,1060047,,,,,,,2022-02-28,1,,,,,ハイパーリンクソリューション,0
573,3010405020754,新規,0,2022-02-28,2022-02-28,一般社団法人国際コアエッセンスヒーリング協会,,その他の設立登記法人,東京都,港区,三田３丁目４－１７－１２０４,,13,103,1080073,,,,,,,2022-02-28,1,,,,,コクサイコアエッセンスヒーリングキョウカイ,0
578,3010701042270,新規,0,2022-02-28,2022-02-28,株式会社テラスヒ,,株式会社,東京都,品川区,上大崎１丁目１８番８号ＴＯＰ高輪台４０５,,13,109,1410021,,,,,,,2022-02-28,1,,,,,テラスヒ,0
585,3010901050420,新規,0,2022-02-28,2022-02-28,株式会社ｆｕｍｉｆｕｍｉ,,株式会社,東京都,世田谷区,桜新町１丁目３１－１８コスモスパジオ桜新町２０１号,,13,112,1540015,,,,,,,2022-02-28,1,,,,,フミフミ,0
586,3010901050437,新規,0,2022-02-28,2022-02-28,株式会社グローバルマーケットジャパン,,株式会社,東京都,世田谷区,喜多見１丁目２３番８号,,13,112,1570067,,,,,,,2022-02-28,1,,,,,グローバルマーケットジャパン,0
587,3010901050445,新規,0,2022-02-28,2022-02-28,善薬調剤株式会社,,株式会社,東京都,世田谷区,奥沢５丁目１－１１メゾンドジョワ２０２,,13,112,1580083,,,,,,,2022-02-28,1,,,,,ゼンヤクチョウザイ,0
594,3011001145961,新規,0,2022-02-28,2022-02-28,株式会社Ｙｅｎｓｔａｒ,,株式会社,東京都,目黒区,上目黒３丁目１番４号,,13,110,1530051,,,,,,,2022-02-28,1,,,,,イェンスター,0
595,3011003014231,新規,0,2022-02-28,2022-02-28,ブリコラージュ合同会社,,合同会社,東京都,渋谷区,神宮前６丁目２３番４号桑野ビル２階,,13,113,1500001,,,,,,,2022-02-28,1,,,,,ブリコラージュ,0
599,3011101097905,新規,0,2022-02-28,2022-02-28,株式会社＿源,00125816,株式会社,東京都,新宿区,早稲田町６７番地２,,13,104,1620042,,,,,,,2022-02-28,1,,,,,シンゲン,0
600,3011101097913,新規,0,2022-02-28,2022-02-28,株式会社スターホームサポート,,株式会社,東京都,新宿区,市谷柳町５０番地,,13,104,1620061,,,,,,,2022-02-28,1,,,,,スターホームサポート,0
602,3011103011500,新規,0,2022-02-28,2022-02-28,合同会社紅参堂,,合同会社,東京都,新宿区,西新宿３丁目３番１３号西新宿水間ビル６階,,13,104,1600023,,,,,,,2022-02-28,1,,,,,コウジンドウ,0
603,3011103011509,新規,0,2022-02-28,2022-02-28,トレーディングパートナーズ合同会社,,合同会社,東京都,新宿区,西新宿８丁目１１番１０号,,13,104,1600023,,,,,,,2022-02-28,1,,,,,トレーディングパートナーズ,0
604,3011105010153,新規,0,2022-02-28,2022-02-28,一般社団法人かたりすと,,その他の設立登記法人,東京都,新宿区,西新宿３丁目３番１３号,,13,104,1600023,,,,,,,2022-02-28,1,,,,,カタリスト,0
605,3011203003760,新規,0,2022-02-28,2022-02-28,モアイ合同会社,,合同会社,東京都,中野区,鷺宮６丁目３１番２０号,,13,114,1650032,,,,,,,2022-02-28,1,,,,,モアイ,0
607,3011301027587,新規,0,2022-02-28,2022-02-28,株式会社ＦＵＮＤＡＲＤ,,株式会社,東京都,杉並区,高円寺南５丁目２０番４号,,13,115,1660003,,,,,,,2022-02-28,1,,,,,ファンダード,0
608,3011303004320,新規,0,2022-02-28,2022-02-28,合同会社ｔ．ｙ－ｃｏ,,合同会社,東京都,杉並区,高円寺北２丁目２１番６号レインボービル４階,,13,115,1660002,,,,,,,2022-02-28,1,,,,,ティーワイカンパニー,0
614,3012701016948,新規,0,2022-02-28,2022-02-28,株式会社吉乃,,株式会社,東京都,西東京市,富士町４丁目１６番６号エクセル東伏見,,13,229,2020014,,,,,,,2022-02-28,1,,,,,ヨシノ,0
618,3012801021419,新規,0,2022-02-28,2022-02-28,株式会社ＤＡＲＩＡ　ＩＮＤＵＳＴＲＩＥＳ,,株式会社,東京都,昭島市,福島町３丁目２４番２７号,,13,207,1960031,,,,,,,2022-02-28,1,,,,,ダリアインダストリーズ,0
629,3020001145368,新規,0,2022-02-28,2022-02-28,株式会社クイックリアル,,株式会社,神奈川県,川崎市幸区,南加瀬１丁目７番１０－２２０号,,14,132,2120055,,,,,,,2022-02-28,1,,,,,クイックリアル,0
630,3020001145376,新規,0,2022-02-28,2022-02-28,タイレル株式会社,,株式会社,神奈川県,横浜市南区,吉野町４丁目１９番地２－２０３号,,14,105,2320014,,,,,,,2022-02-28,1,,,,,タイレル,0
631,3020001145392,新規,0,2022-02-28,2022-02-28,アクティブセミ株式会社,,株式会社,神奈川県,横浜市中区,末吉町２丁目３４番地１－７０８号室,,14,104,2310055,,,,,,,2022-02-28,1,,,,,アクティブセミ,0
632,3020001145418,新規,0,2022-02-28,2022-02-28,株式会社ｍｅｄｉｃａｌ　ｉｎｔｅｌｌｉｇｅｎｃｅ　ａｎｄ　ｔｅｃｈｎｏｌｏｇｉｅｓ,,株式会社,神奈川県,横浜市中区,本町２丁目２２番地京阪横浜ビル１０階,,14,104,2310005,,,,,,,2022-02-28,1,,,,,メディカルインテリジェンスアンドテクノロジーズ,0
637,3020003021344,新規,0,2022-02-28,2022-02-28,合同会社御成商会,,合同会社,神奈川県,横浜市青葉区,もえぎ野１４番地３３,,14,117,2270044,,,,,,,2022-02-28,1,,,,,オナリショウカイ,0
639,3021001075290,新規,0,2022-02-28,2022-02-28,株式会社ＨｉＢｉＫｉ,,株式会社,神奈川県,相模原市緑区,谷ヶ原１丁目１０番１６号,,14,151,2520113,,,,,,,2022-02-28,1,,,,,ヒビキ,0
642,3021003011434,新規,0,2022-02-28,2022-02-28,合同会社湘南木村,,合同会社,神奈川県,藤沢市,片瀬海岸２丁目１１番１０号,,14,205,2510035,,,,,,,2022-02-28,1,,,,,ショウナンキムラ,0
648,3030003018884,新規,0,2022-02-28,2022-02-28,アエル２合同会社,,合同会社,埼玉県,深谷市,東方３６４１番地２,,11,218,3660041,,,,,,,2022-02-28,1,,,,,アエルツー,0
656,3040001122340,新規,0,2022-02-28,2022-02-28,株式会社守屋鐵骨工事,,株式会社,千葉県,匝瑳市,若潮町２２番地４,,12,235,2892145,,,,,,,2022-02-28,1,,,,,モリヤテッコツコウジ,0
657,3040001122373,新規,0,2022-02-28,2022-02-28,Ａｌｌ　ｆｏｒ　Ｃａｔｓ株式会社,,株式会社,千葉県,長生郡一宮町,一宮２８４番地５,,12,421,2994301,,,,,,,2022-02-28,1,,,,,オールフォーキャッツ,0
664,3040003019535,新規,0,2022-02-28,2022-02-28,合同会社ＡＮＮＡ,,合同会社,千葉県,香取郡多古町,一鍬田４７２番地,,12,347,2892236,,,,,,,2022-02-28,1,,,,,アンナ,0
667,3050001050697,新規,0,2022-02-28,2022-02-28,株式会社ＲＥＤ　ＲＩＢＢＯＮ,,株式会社,茨城県,筑西市,下岡崎２丁目１３－３,,08,227,3080826,,,,,,,2022-02-28,1,,,,,レッドリボン,0
668,3050003006400,新規,0,2022-02-28,2022-02-28,合同会社手代木クリニックサポート,,合同会社,茨城県,つくば市,手代木１９１８番地１,,08,220,3050834,,,,,,,2022-02-28,1,,,,,テシロギクリニックサポート,0
674,3070001038971,新規,0,2022-02-28,2022-02-28,グローバルパンダ株式会社,,株式会社,群馬県,前橋市,問屋町２丁目１３番２号前橋グリーンマンション１Ｆ,,10,201,3710855,,,,,,,2022-02-28,1,,,,,グローバルパンダ,0
678,3080103002536,新規,0,2022-02-28,2022-02-28,合同会社ＮＯＳ,,合同会社,静岡県,三島市,沢地４１７番地の４,,22,206,4110043,,,,,,,2022-02-28,1,,,,,ノス,0
679,3080105006221,新規,0,2022-02-28,2022-02-28,特定非営利活動法人あおぞらビレッジ,,その他の設立登記法人,静岡県,賀茂郡河津町,田中４９０番地,,22,302,4130504,,,,,,,2022-02-28,1,,,,,アオゾラビレッジ,0
682,3090003002049,新規,0,2022-02-28,2022-02-28,ｐｉｎｐｏｉｎｔ合同会社,,合同会社,山梨県,都留市,古川渡８０９番地１,,19,204,4020004,,,,,,,2022-02-28,1,,,,,,0
684,3100001035098,新規,0,2022-02-28,2022-02-28,株式会社ＥＭＩＬＵＣＡ,,株式会社,長野県,長野市,大字東和田８４２番地ＣＯＲＥＯＦＦＩＣＥ３０１号室,,20,201,3810038,,,,,,,2022-02-28,1,,,,,エミルカ,0
689,3120001244036,新規,0,2022-02-28,2022-02-28,Ａｌａｄｄｉｎ株式会社,,株式会社,大阪府,大阪市西成区,松１丁目４番８号－１Ｆ,,27,122,5570034,,,,,,,2022-02-28,1,,,,,アラジン,0
690,3120001244060,新規,0,2022-02-28,2022-02-28,ｉｎｌｅｔ株式会社,,株式会社,大阪府,大阪市中央区,南船場４丁目８番９号,,27,128,5420081,,,,,,,2022-02-28,1,,,,,インレット,0
691,3120001244085,新規,0,2022-02-28,2022-02-28,株式会社まいど七分目,,株式会社,大阪府,大阪市阿倍野区,共立通１丁目８番７号,,27,119,5450041,,,,,,,2022-02-28,1,,,,,マイドシチブンメ,0
692,3120001244093,新規,0,2022-02-28,2022-02-28,株式会社ＳＳＷＯＲＫＳ,,株式会社,大阪府,大阪市中央区,本町橋２－２３第７松屋ビル３０３号,,27,128,5400029,,,,,,,2022-02-28,1,,,,,エスエスワークス,0
697,3120101065126,新規,0,2022-02-28,2022-02-28,株式会社福宸興業,,株式会社,大阪府,堺市南区,逆瀬川１２８０番地１４６,,27,145,5900123,,,,,,,2022-02-28,1,,,,,フクシンコウギョウ,0
706,3130001071223,新規,0,2022-02-28,2022-02-28,株式会社ｍｏｄｕｌａｒ　ｄｅｓｉｇｎ,,株式会社,京都府,亀岡市,畑野町広野閉亀２番３８,,26,206,6210262,,,,,,,2022-02-28,1,,,,,モジュラーデザイン,0
709,3130005016389,新規,0,2022-02-28,2022-02-28,一般社団法人デメテルリンクス,,その他の設立登記法人,京都府,京都市左京区,上高野小野町７番地,,26,103,6060058,,,,,,,2022-02-28,1,,,,,デメテルリンクス,0
712,3140001125003,新規,0,2022-02-28,2022-02-28,株式会社エステートワン,,株式会社,兵庫県,養父市,八鹿町八鹿１０５７番地,,28,222,6670021,,,,,,,2022-02-28,1,,,,,エステートワン,0
713,3140001125028,新規,0,2022-02-28,2022-02-28,株式会社上昇志向デザイン研究室,,株式会社,兵庫県,西宮市,中屋町１１番１２号,,28,204,6620868,,,,,,,2022-02-28,1,,,,,ジョウショウシコウデザインケンキュウシツ,0
714,3140001125052,新規,0,2022-02-28,2022-02-28,株式会社ＲＩＳＥ　ＯＮＥ,,株式会社,兵庫県,神戸市長田区,久保町５丁目１番１号アスタくにづか３番館１０９区画,,28,106,6530041,,,,,,,2022-02-28,1,,,,,ライズワン,0
722,3170001016991,新規,0,2022-02-28,2022-02-28,株式会社Ｈａｓｅｇａｗａ,,株式会社,和歌山県,海南市,船尾２５８番地,,30,202,6420001,,,,,,,2022-02-28,1,,,,,ハセガワ,0
729,3180001150105,新規,0,2022-02-28,2022-02-28,株式会社中部ギアクレーン,,株式会社,愛知県,名古屋市緑区,大高町字寅新田１１３番地,,23,114,4598001,,,,,,,2022-02-28,1,,,,,チュウブギアクレーン,0
730,3180001150138,新規,0,2022-02-28,2022-02-28,スピーダブル株式会社,,株式会社,愛知県,名古屋市北区,大曽根３丁目１０番４号,,23,103,4620825,,,,,,,2022-02-28,1,,,,,スピーダブル,0
731,3180001150146,新規,0,2022-02-28,2022-02-28,ＴＲｉＣＯＬＯＲ株式会社,,株式会社,愛知県,一宮市,南出町６７番地１,,23,203,4910906,,,,,,,2022-02-28,1,,,,,トリコロール,0
734,3180303005262,新規,0,2022-02-28,2022-02-28,合同会社ドリームワン,,合同会社,愛知県,安城市,美園町１丁目６番地４エスポワール美園１０４,,23,212,4460076,,,,,,,2022-02-28,1,,,,,,0
738,3200001039774,新規,0,2022-02-28,2022-02-28,株式会社ＦＲＫ,,株式会社,岐阜県,高山市,花里町６丁目６番地９,,21,203,5060026,,,,,,,2022-02-28,1,,,,,エフアールケー,0
739,3200001039790,新規,0,2022-02-28,2022-02-28,啓建装株式会社,,株式会社,岐阜県,岐阜市,庵町１３番地９,,21,201,5008139,,,,,,,2022-02-28,1,,,,,ハジメケンソウ,0
741,3200003005469,新規,0,2022-02-28,2022-02-28,合同会社シンセイ,,合同会社,岐阜県,安八郡神戸町,大字西保２８１番地の１,,21,381,5032323,,,,,,,2022-02-28,1,,,,,シンセイ,0
743,3220003003231,新規,0,2022-02-28,2022-02-28,合同会社ＯＴＯ,,合同会社,石川県,小松市,矢田野町５０の３９番地１,,17,203,9230342,,,,,,,2022-02-28,1,,,,,オーティーオー,0
749,3240005015339,新規,0,2022-02-28,2022-02-28,医療法人彩生会,,その他の設立登記法人,広島県,福山市,三之丸町３番３号,,34,207,7200066,,,,,,,2022-02-28,1,,,,,サイセイカイ,0
762,3290001096568,新規,0,2022-02-28,2022-02-28,株式会社信工業,,株式会社,福岡県,久留米市,三潴町草場３８９番地１,,40,203,8300105,,,,,,,2022-02-28,1,,,,,シンコウギョウ,0
763,3290001096576,新規,0,2022-02-28,2022-02-28,サイントラスト株式会社,,株式会社,福岡県,糸島市,高田２丁目６番８号,,40,230,8191102,,,,,,,2022-02-28,1,,,,,サイントラスト,0
764,3290003012201,新規,0,2022-02-28,2022-02-28,合同会社ＳｔａｒｔＵｐＣｒｅａｔｉｏｎ,,合同会社,福岡県,福岡市早良区,室住団地３棟１０４,,40,137,8140035,,,,,,,2022-02-28,1,,,,,スタートアップクリエイション,0
766,3330003009267,新規,0,2022-02-28,2022-02-28,合同会社ハッピーバーディー,,合同会社,熊本県,八代市,迎町２丁目１４号１番地,,43,202,8660055,,,,,,,2022-02-28,1,,,,,ハッピーバーディー,0
768,3340001024507,新規,0,2022-02-28,2022-02-28,株式会社たいよう,,株式会社,鹿児島県,指宿市,開聞十町２９２９番地１,,46,210,8910603,,,,,,,2022-02-28,1,,,,,タイヨウ,0
770,3340003003715,新規,0,2022-02-28,2022-02-28,合同会社虹,,合同会社,鹿児島県,姶良市,加治木町木田５２７番地３シーサイドスクエアー２０５号,,46,225,8995241,,,,,,,2022-02-28,1,,,,,ニジ,0
779,3360001030049,新規,0,2022-02-28,2022-02-28,ＮＥＷ　ＲＩＳＥ株式会社,,株式会社,沖縄県,沖縄市,古謝３丁目１７番１２号（４０６）,,47,211,9042161,,,,,,,2022-02-28,1,,,,,ニューライズ,0
783,3370001048247,新規,0,2022-02-28,2022-02-28,株式会社アセットマネジメント,,株式会社,宮城県,仙台市青葉区,一番町２丁目４番１９－１２０１号,,04,101,9800811,,,,,,,2022-02-28,1,,,,,アセットマネジメント,0
794,3390001016796,新規,0,2022-02-28,2022-02-28,株式会社ネクスト,,株式会社,山形県,酒田市,広野字末広９５番地の１３,,06,204,9980125,,,,,,,2022-02-28,1,,,,,ネクスト,0
796,3430001086026,新規,0,2022-02-28,2022-02-28,ホームステージ株式会社,,株式会社,北海道,札幌市北区,北十五条西４丁目２番２７号,,01,102,0010015,,,,,,,2022-02-28,1,,,,,ホームステージ,0
807,4010001224808,新規,0,2022-02-28,2022-02-28,ＴｈｉｓＩｓ株式会社,,株式会社,東京都,文京区,湯島３丁目６番１号全国家電会館３Ｆ,,13,105,1130034,,,,,,,2022-02-28,1,,,,,ディスイズ,0
808,4010001224824,新規,0,2022-02-28,2022-02-28,株式会社Ｔ＆Ａ　ａｄｖｉｓｏｒｙ,,株式会社,東京都,中央区,銀座１丁目２２番１１号銀座大竹ビジデンス２階,,13,102,1040061,,,,,,,2022-02-28,1,,,,,ティーアンドエーアドバイザリー,0
809,4010001224832,新規,0,2022-02-28,2022-02-28,株式会社あまみちゃんプロジェクト,,株式会社,東京都,千代田区,九段南１丁目５番６号りそな九段ビル５Ｆ．ＫＳフロア,,13,101,1020074,,,,,,,2022-02-28,1,,,,,アマミチャンプロジェクト,0
810,4010001224840,新規,0,2022-02-28,2022-02-28,株式会社匠エージェント,,株式会社,東京都,千代田区,神田司町２丁目５－１市村ビル１Ｂ号室,,13,101,1010048,,,,,,,2022-02-28,1,,,,,タクミエージェント,0
811,4010001224849,新規,0,2022-02-28,2022-02-28,ＳｅｗａＹｏｕ株式会社,,株式会社,東京都,中央区,銀座１丁目２２番１１号銀座大竹ビジデンス２階,,13,102,1040061,,,,,,,2022-02-28,1,,,,,セワユー,0
812,4010001224857,新規,0,2022-02-28,2022-02-28,ＰｒｅＭｅｄ株式会社,,株式会社,東京都,千代田区,外神田４丁目９－２,,13,101,1010021,,,,,,,2022-02-28,1,,,,,プレメド,0
814,4010003037084,新規,0,2022-02-28,2022-02-28,合同会社Ｗｈｉｔｅ　Ｃｏｍｐａｎｙ,,合同会社,東京都,文京区,白山４丁目２１番２号,,13,105,1120001,,,,,,,2022-02-28,1,,,,,ホワイトカンパニー,0
824,4010401165783,新規,0,2022-02-28,2022-02-28,ｇｆ．Ｚ株式会社,,株式会社,東京都,港区,高輪３丁目１２番８号,,13,103,1080074,,,,,,,2022-02-28,1,,,,,ジーエフドットゼット,0
825,4010401165791,新規,0,2022-02-28,2022-02-28,株式会社野口医薬製造所,,株式会社,東京都,港区,虎ノ門１丁目１２－９スズエ・アンド・スズエビル４Ｆ,,13,103,1050001,,,,,,,2022-02-28,1,,,,,ノグチイヤクセイゾウショ,0
826,4010401165817,新規,0,2022-02-28,2022-02-28,株式会社ＹＺ,,株式会社,東京都,港区,赤坂２丁目１４－１１天翔オフィス赤坂,,13,103,1070052,,,,,,,2022-02-28,1,,,,,ワイズィー,0
827,4010401165833,新規,0,2022-02-28,2022-02-28,Ｐｉｌｏｔ　Ｔｒａｄｉｎｇ株式会社,,株式会社,東京都,港区,芝浦３丁目４番２号グランパークハイツ２１０１,,13,103,1080023,,,,,,,2022-02-28,1,,,,,パイロットトレーディング,0
828,4010403027156,新規,0,2022-02-28,2022-02-28,天正恒産合同会社,,合同会社,東京都,港区,新橋６丁目５番４号２階,,13,103,1050004,,,,,,,2022-02-28,1,,,,,テンショウコウサン,0
829,4010405020761,新規,0,2022-02-28,2022-02-28,境古河ファシリティ一般社団法人,,その他の設立登記法人,東京都,港区,六本木１丁目６番１号泉ガーデンタワー,,13,103,1060032,,,,,,,2022-02-28,1,,,,,サカイコガファシリティ,0
835,4010803004069,新規,0,2022-02-28,2022-02-28,合同会社ｅｘｃｅｌｌｅｎｔ,,合同会社,東京都,大田区,東蒲田２丁目２０番３号,,13,111,1440031,,,,,,,2022-02-28,1,,,,,エクセレント,0
837,4010901050428,新規,0,2022-02-28,2022-02-28,シリウス株式会社,,株式会社,東京都,世田谷区,等々力２丁目３６番６号,,13,112,1580082,,,,,,,2022-02-28,1,,,,,シリウス,0
838,4010901050436,新規,0,2022-02-28,2022-02-28,ｃｏＲｅ株式会社,,株式会社,東京都,世田谷区,船橋４丁目２２－１７,,13,112,1560055,,,,,,,2022-02-28,1,,,,,コア,0
845,4011001145779,新規,0,2022-02-28,2022-02-28,株式会社ソトコト・シェフズラボ,,株式会社,東京都,渋谷区,桜丘町１７番６号渋谷協栄ビル５階,,13,113,1500031,,,,,,,2022-02-28,1,,,,,ソトコトシェフズラボ,0
846,4011001145861,新規,0,2022-02-28,2022-02-28,株式会社Ｈａｎｇｏｕｔ,,株式会社,東京都,目黒区,目黒２丁目２－７－４０１,,13,110,1530063,,,,,,,2022-02-28,1,,,,,ハングアウト,0
847,4011001145886,新規,0,2022-02-28,2022-02-28,株式会社ＤＥＴＥＮＴ,,株式会社,東京都,目黒区,青葉台２丁目１０番１３号,,13,110,1530042,,,,,,,2022-02-28,1,,,,,デタント,0
848,4011001145911,新規,0,2022-02-28,2022-02-28,株式会社Ｈ２システム,,株式会社,東京都,目黒区,自由が丘２丁目１６番２６号メゾンドゥジャルダン１０２,,13,110,1520035,,,,,,,2022-02-28,1,,,,,エイチツーシステム,0
849,4011001145952,新規,0,2022-02-28,2022-02-28,株式会社ＭＨＡＡ,,株式会社,東京都,目黒区,中目黒３丁目５番１１号,,13,110,1530061,,,,,,,2022-02-28,1,,,,,エムエイチエーエー,0
850,4011001145960,新規,0,2022-02-28,2022-02-28,ＳＴＡＧＳ株式会社,,株式会社,東京都,目黒区,祐天寺２丁目９番２号中西ビル２階,,13,110,1530052,,,,,,,2022-02-28,1,,,,,スタッグス,0
851,4011001145969,新規,0,2022-02-28,2022-02-28,株式会社アイヴィ,,株式会社,東京都,渋谷区,恵比寿２丁目１０番１号,,13,113,1500013,,,,,,,2022-02-28,1,,,,,アイヴィ,0
852,4011003014255,新規,0,2022-02-28,2022-02-28,グスタフデザイン合同会社,,合同会社,東京都,渋谷区,恵比寿２丁目１４番１４号北村ハイツ１Ｆ,,13,113,1500013,,,,,,,2022-02-28,1,,,,,グスタフデザイン,0
853,4011005009435,新規,0,2022-02-28,2022-02-28,一般社団法人スタートアップ協会,,その他の設立登記法人,東京都,渋谷区,道玄坂１丁目１６番６号二葉ビル３階スマートラウンド内,,13,113,1500043,,,,,,,2022-02-28,1,,,,,スタートアップキョウカイ,0
860,4011101097920,新規,0,2022-02-28,2022-02-28,株式会社ＷＡＬＫＯＮ,,株式会社,東京都,新宿区,西新宿７丁目４番４号武蔵ビル５Ｆ,,13,104,1600023,,,,,,,2022-02-28,1,,,,,ウォークオン,0
861,4011101097937,新規,0,2022-02-28,2022-02-28,サンスレッドクリエイターズ株式会社,,株式会社,東京都,新宿区,西新宿３丁目３－１３西新宿水間ビル６階,,13,104,1600023,,,,,,,2022-02-28,1,,,,,サンスレッドクリエイターズ,0
865,4011201023669,新規,0,2022-02-28,2022-02-28,株式会社セカンドスキル,,株式会社,東京都,中野区,中央１丁目２８－７－２１１,,13,114,1640011,,,,,,,2022-02-28,1,,,,,セカンドスキル,0
866,4011301027594,新規,0,2022-02-28,2022-02-28,トライベッカ株式会社,,株式会社,東京都,杉並区,井草５丁目１９番６号,,13,115,1670021,,,,,,,2022-02-28,1,,,,,トライベッカ,0
869,4011701025074,新規,0,2022-02-28,2022-02-28,株式会社プラムフィールド,,株式会社,東京都,江戸川区,松江５丁目１９番２－９０３号,,13,123,1320025,,,,,,,2022-02-28,1,,,,,プラムフィールド,0
870,4011703003078,新規,0,2022-02-28,2022-02-28,縁屋合同会社,,合同会社,東京都,江戸川区,中葛西８丁目２３－１５ヴァンクール葛西参番館９０２,,13,123,1340083,,,,,,,2022-02-28,1,,,,,エンヤ,0
871,4011801040378,新規,0,2022-02-28,2022-02-28,株式会社カラーズ,,株式会社,東京都,葛飾区,西亀有３丁目２８番６号グランドール西亀有３０２,,13,122,1250002,,,,,,,2022-02-28,1,,,,,カラーズ,0
874,4012703002409,新規,0,2022-02-28,2022-02-28,合同会社Ｂｒｉｄｇｅ,,合同会社,東京都,西東京市,東町２丁目１３番１６号,,13,229,2020012,,,,,,,2022-02-28,1,,,,,ブリッジ,0
875,4012801021418,新規,0,2022-02-28,2022-02-28,株式会社ガチンコ・フィルム,,株式会社,東京都,東大和市,桜が丘１丁目１４２５番地の３,,13,220,2070022,,,,,,,2022-02-28,1,,,,,ガチンコフィルム,0
887,4020001145391,新規,0,2022-02-28,2022-02-28,株式会社テクノロジーズ,,株式会社,神奈川県,横浜市中区,桜木町１丁目１番地７ヒューリックみなとみらい１０階,,14,104,2310062,,,,,,,2022-02-28,1,,,,,テクノロジーズ,0
889,4020003021368,新規,0,2022-02-28,2022-02-28,コロナゴ合同会社,,合同会社,神奈川県,横浜市青葉区,奈良４丁目２番地１クローバーヒルズ５１１,,14,117,2270038,,,,,,,2022-02-28,1,,,,,コロナゴ,0
892,4021001075281,新規,0,2022-02-28,2022-02-28,株式会社ＢＯＳＳ,,株式会社,神奈川県,相模原市中央区,相模原６丁目４番２０号,,14,152,2520231,,,,,,,2022-02-28,1,,,,,ボス,0
896,4021005012446,新規,0,2022-02-28,2022-02-28,一般社団法人ＴＷＹ,,その他の設立登記法人,神奈川県,相模原市南区,相模大野７丁目１８番９号,,14,153,2520303,,,,,,,2022-02-28,1,,,,,ティーダブリューワイ,0
904,4030001146991,新規,0,2022-02-28,2022-02-28,ＭＴＶ　ｃｒｅａｔｅ株式会社,,株式会社,埼玉県,北足立郡伊奈町,本町１丁目１３４番地,,11,301,3620804,,,,,,,2022-02-28,1,,,,,エムティーヴィークリエイト,0
913,4040001122372,新規,0,2022-02-28,2022-02-28,株式会社Ｍｅｔａ　ｕｎｉＶｅｒｓｅ,,株式会社,千葉県,浦安市,北栄３丁目１８番３－５０２号ボナ・フォルトゥーナ,,12,227,2790002,,,,,,,2022-02-28,1,,,,,メタユニバース,0
917,4040003019567,新規,0,2022-02-28,2022-02-28,ＲＨＥ合同会社,,合同会社,千葉県,千葉市美浜区,中瀬１丁目３番地幕張テクノガーデン,,12,106,2610023,,,,,,,2022-02-28,1,,,,,アールエイチイー,0
919,4050001050696,新規,0,2022-02-28,2022-02-28,ＡＴＨＴＡ株式会社,,株式会社,茨城県,桜川市,犬田１９２４番地３,,08,231,3091217,,,,,,,2022-02-28,1,,,,,アスタ,0
922,4050003006399,新規,0,2022-02-28,2022-02-28,ねはんドットギフト合同会社,,合同会社,茨城県,土浦市,桜ケ丘町１８番７号,,08,203,3000832,,,,,,,2022-02-28,1,,,,,ネハンドットギフト,0
931,4080403004479,新規,0,2022-02-28,2022-02-28,合同会社アルドル,,合同会社,静岡県,浜松市浜北区,宮口６０６番地の３,,22,136,4340004,,,,,,,2022-02-28,1,,,,,アルドル,0
932,4090003002048,新規,0,2022-02-28,2022-02-28,Ｆａｉｒｎｅｓｓ＆Ｃｏ．合同会社,,合同会社,山梨県,甲府市,古上条町５０２－１リサイアｗ１０４,,19,201,4000051,,,,,,,2022-02-28,1,,,,,フェアネスアンドコー,0
935,4100001035097,新規,0,2022-02-28,2022-02-28,株式会社ＷＩＺ　ＧＥＬ,,株式会社,長野県,長野市,大字東和田８４２番地ＣＯＲＥＯＦＦＩＣＥ３０１号室,,20,201,3810038,,,,,,,2022-02-28,1,,,,,ウィズジェル,0
936,4100005012828,新規,0,2022-02-28,2022-02-28,一般社団法人信州古民家再生プロジェクト,,その他の設立登記法人,長野県,須坂市,大字須坂１４５７番地９,,20,207,3820000,,,,,,,2022-02-28,1,,,,,シンシュウコミンカサイセイプロジェクト,0
947,4120001243920,新規,0,2022-02-28,2022-02-28,株式会社クリーンプラス,,株式会社,大阪府,大阪市西区,立売堀１丁目９番３５号ＨＯＴＥＬＴＨＥＲＯＣＫ８０５号,,27,106,5500012,,,,,,,2022-02-28,1,,,,,クリーンプラス,0
948,4120001244043,新規,0,2022-02-28,2022-02-28,株式会社Ｊｏｈｎ　Ｊｅｅ,,株式会社,大阪府,大阪市中央区,心斎橋筋２丁目１番７号日宝パルテノン３階１号,,27,128,5420085,,,,,,,2022-02-28,1,,,,,ジョンジー,0
949,4120001244084,新規,0,2022-02-28,2022-02-28,株式会社Ｓｈｉｎｅ　Ｇｒｏｗ,,株式会社,大阪府,大阪市西区,新町３丁目１０－２１,,27,106,5500013,,,,,,,2022-02-28,1,,,,,シャイングロウ,0
950,4120001244092,新規,0,2022-02-28,2022-02-28,株式会社ＣＯＮＴＥ一級建築士事務所,,株式会社,大阪府,大阪市西区,立売堀１丁目５－２立売堀ビルディング５９,,27,106,5500012,,,,,,,2022-02-28,1,,,,,コンテイッキュウケンチクシジムショ,0
951,4120001244101,新規,0,2022-02-28,2022-02-28,株式会社ダイブ,,株式会社,大阪府,大阪市中央区,東心斎橋１丁目４番１号オリエンタル東心斎橋ビル８０２,,27,128,5420083,,,,,,,2022-02-28,1,,,,,ダイブ,0
952,4120003021201,新規,0,2022-02-28,2022-02-28,大峰合同会社,,合同会社,大阪府,大阪市西成区,花園南１丁目７番２２号,,27,122,5570015,,,,,,,2022-02-28,1,,,,,オオミネ,0
955,4120903004049,新規,0,2022-02-28,2022-02-28,合同会社ＢＩＣＲＯＣＫ,,合同会社,大阪府,高槻市,辻子１丁目１９番１７号,00125812,27,207,5690036,,,,,,,2022-02-28,1,,,,,ビックロック,0
960,4130001071189,新規,0,2022-02-28,2022-02-28,葵の心株式会社,,株式会社,京都府,京都市中京区,烏丸通三条東入ル梅忠町２４番地三条ＣＯＨＪＵビル５階,,26,104,6040000,,,,,,,2022-02-28,1,,,,,アオイノココロ,0
961,4130001071197,新規,0,2022-02-28,2022-02-28,株式会社ＡＮＤ　ＢＥＮＪＡＭＩＮ,,株式会社,京都府,木津川市,州見台１丁目１７番地５,,26,214,6190216,,,,,,,2022-02-28,1,,,,,エンドベンジャミン,0
962,4130001071214,新規,0,2022-02-28,2022-02-28,株式会社ＳＡＡＳＨＩ－ＡＮＤ,,株式会社,京都府,京都市左京区,下鴨西半木町３３番地４,,26,103,6060827,,,,,,,2022-02-28,1,,,,,サアシアンド,0
963,4130003007777,新規,0,2022-02-28,2022-02-28,合同会社Ｋｅｉ,,合同会社,京都府,与謝郡与謝野町,字金屋１０８番地１,,26,465,6292421,,,,,,,2022-02-28,1,,,,,ケイ,0
968,4140001125027,新規,0,2022-02-28,2022-02-28,映機ジャパン株式会社,,株式会社,兵庫県,尼崎市,東園田町４丁目１６２番地１コスモフラット東園田２階２０２号,,28,202,6610953,,,,,,,2022-02-28,1,,,,,エイキジャパン,0
975,4160001024012,新規,0,2022-02-28,2022-02-28,エンゼル管理サービス株式会社,,株式会社,滋賀県,東近江市,青野町４６００番地,,25,213,5270232,,,,,,,2022-02-28,1,,,,,エンゼルカンリサービス,0
976,4160005011048,新規,0,2022-02-28,2022-02-28,一般社団法人ビワコパールサプライズ,,その他の設立登記法人,滋賀県,守山市,小島町１５８５番地６,,25,207,5240002,,,,,,,2022-02-28,1,,,,,ビワコパールサプライズ,0
985,4180001150145,新規,0,2022-02-28,2022-02-28,株式会社ＲＥＴＲＩＳＥ,,株式会社,愛知県,名古屋市天白区,中平３丁目２０２番地　２Ｆ,,23,116,4680014,,,,,,,2022-02-28,1,,,,,リトライズ,0
996,4210001018826,新規,0,2022-02-28,2022-02-28,ＦＴエステート株式会社,,株式会社,福井県,福井市,定正１丁目７１３番地,,18,201,9100126,,,,,,,2022-02-28,1,,,,,エフティーエステート,0
998,4220003003230,新規,0,2022-02-28,2022-02-28,合同会社アデイ,,合同会社,石川県,金沢市,高尾南２丁目２９番地１,,17,201,9218154,,,,,,,2022-02-28,1,,,,,アデイ,0
1006,4230003001811,新規,0,2022-02-28,2022-02-28,合同会社アグリめぐみ,,合同会社,富山県,滑川市,大窪１１６番地,,16,206,9360805,,,,,,,2022-02-28,1,,,,,アグリメグミ,0
1013,4260001036567,新規,0,2022-02-28,2022-02-28,株式会社ＴＷＥＮＴＹＦＯＵＲ,,株式会社,岡山県,岡山市北区,天瀬９番１２号,,33,101,7000833,,,,,,,2022-02-28,1,,,,,トゥエンティーフォー,0
1020,4290001096550,新規,0,2022-02-28,2022-02-28,株式会社ＺＥＣＫＡＹ,,株式会社,福岡県,太宰府市,宰府３丁目１－９,,40,221,8180117,,,,,,,2022-02-28,1,,,,,ゼッケイ,0
1021,4290001096559,新規,0,2022-02-28,2022-02-28,株式会社Ｏｎｅ＆Ｏｎｌｙ　Ｃｏｎｓｕｌｔｉｎｇ,,株式会社,福岡県,福岡市中央区,赤坂１丁目６番１０号,,40,133,8100042,,,,,,,2022-02-28,1,,,,,ワンアンドオンリーコンサルティング,0
1022,4290001096575,新規,0,2022-02-28,2022-02-28,株式会社霧島湧水ホールディングス,,株式会社,福岡県,福岡市南区,大楠１丁目３番２９号,,40,134,8150082,,,,,,,2022-02-28,1,,,,,キリシマユウスイホールディングス,0
1024,4290005018575,新規,0,2022-02-28,2022-02-28,一般社団法人エルアズハールジャパン,,その他の設立登記法人,福岡県,福岡市東区,松崎３丁目３３番３６号,,40,131,8130035,,,,,,,2022-02-28,1,,,,,エルアズハールジャパン,0
1028,4320001018922,新規,0,2022-02-28,2022-02-28,嵐設備株式会社,,株式会社,大分県,大分市,大字寒田１３６３－３,,44,201,8701123,,,,,,,2022-02-28,1,,,,,アラシセツビ,0
1029,4330001029480,新規,0,2022-02-28,2022-02-28,不動産のサルク株式会社,,株式会社,熊本県,熊本市中央区,水前寺３丁目１番３号,,43,101,8620950,,,,,,,2022-02-28,1,,,,,フドウサンノサルク,0
1036,4340001024522,新規,0,2022-02-28,2022-02-28,株式会社島のごちそう,,株式会社,鹿児島県,出水郡長島町,獅子島２１４２番地２,,46,404,8991501,,,,,,,2022-02-28,1,,,,,シマノゴチソウ,0
1037,4340003003722,新規,0,2022-02-28,2022-02-28,ＮＵＴＳＡＤＶＡＮＴＡＧＥ合同会社,,合同会社,鹿児島県,鹿児島市,西千石町１１番２１号５階,,46,201,8920847,,,,,,,2022-02-28,1,,,,,ナッツアドバンテージ,0
1038,4350001017608,新規,0,2022-02-28,2022-02-28,株式会社サイバーオン,,株式会社,宮崎県,宮崎市,橘通東１丁目４－１１アーバンキット２０５号室,,45,201,8800805,,,,,,,2022-02-28,1,,,,,サイバーオン,0
1041,4360001030048,新規,0,2022-02-28,2022-02-28,株式会社七夕,,株式会社,沖縄県,那覇市,泉崎２丁目１０３－２７比嘉ビル１Ｆ,,47,201,9000021,,,,,,,2022-02-28,1,,,,,タナバタ,0
1054,4430001086066,新規,0,2022-02-28,2022-02-28,株式会社Ｈａｐｐｙ　Ｐｏｓｉｔｉｏｎ,,株式会社,北海道,札幌市南区,北ノ沢１７２８番地４　２Ｆ,,01,106,0050832,,,,,,,2022-02-28,1,,,,,ハッピーポジション,0
1066,5010001224823,新規,0,2022-02-28,2022-02-28,株式会社ＰＨＯＳＳ,,株式会社,東京都,中央区,銀座１丁目２２番１１号銀座大竹ビジデンス２Ｆ,,13,102,1040061,,,,,,,2022-02-28,1,,,,,フォス,0
1067,5010001224856,新規,0,2022-02-28,2022-02-28,Ａ－ｍｏｂｉｌｅ株式会社,,株式会社,東京都,千代田区,平河町１丁目７番１０号,,13,101,1020093,,,,,,,2022-02-28,1,,,,,エーモバイル,0
1069,5010003037091,新規,0,2022-02-28,2022-02-28,栃木宇都宮合同会社,,合同会社,東京都,千代田区,飯田橋１丁目３番２号曙杉館４階ＲＳＭ清和コンサルティング株式会社内,,13,101,1020072,,,,,,,2022-02-28,1,,,,,トチギウツノミヤ,0
1070,5010003037100,新規,0,2022-02-28,2022-02-28,バイブルポータル合同会社,,合同会社,東京都,千代田区,岩本町２丁目１３番６号ミツボシ第３ビル４階,,13,101,1010032,,,,,,,2022-02-28,1,,,,,バイブルポータル,0
1077,5010401165650,新規,0,2022-02-28,2022-02-28,日中音楽企画株式会社,,株式会社,東京都,港区,元麻布３丁目４－４１号麻布台ナショナル５０２室,,13,103,1060046,,,,,,,2022-02-28,1,,,,,ニッチュウオンガクキカク,0
1078,5010401165700,新規,0,2022-02-28,2022-02-28,シーズ株式会社,,株式会社,東京都,港区,南青山２丁目２番１５号,,13,103,1070062,,,,,,,2022-02-28,1,,,,,シーズ,0
1079,5010401165733,新規,0,2022-02-28,2022-02-28,十番商事株式会社,,株式会社,東京都,港区,東麻布２丁目３５－１ＫＣビル６Ｆ,,13,103,1060044,,,,,,,2022-02-28,1,,,,,ジュウバンショウジ,0
1080,5010401165758,新規,0,2022-02-28,2022-02-28,Ｈｏｒｉｚｏｎ株式会社,,株式会社,東京都,港区,芝公園１丁目１－８アーデン芝公園８０４,,13,103,1050011,,,,,,,2022-02-28,1,,,,,ホライゾン,0
1081,5010401165782,新規,0,2022-02-28,2022-02-28,株式会社Ｓｏｐｈｉａ　Ｃｒｅａｔｉｖｅ,,株式会社,東京都,港区,六本木７丁目８－６－７Ｆ,,13,103,1060032,,,,,,,2022-02-28,1,,,,,ソフィアクリエイティブ,0
1082,5010401165799,新規,0,2022-02-28,2022-02-28,Ｇｒａｃｅｓ　Ｆａｍｉｌｙ株式会社,,株式会社,東京都,港区,白金３丁目１７番１号,,13,103,1080072,,,,,,,2022-02-28,1,,,,,グレイシーズファミリー,0
1083,5010401165824,新規,0,2022-02-28,2022-02-28,株式会社リアルリメイク,,株式会社,東京都,港区,港南１丁目９番３６号,,13,103,1080075,,,,,,,2022-02-28,1,,,,,リアルリメイク,0
1086,5010405020752,新規,0,2022-02-28,2022-02-28,一般社団法人ヘルスリテラシージャパン,,その他の設立登記法人,東京都,港区,赤坂９丁目７番７号１９０５,,13,103,1070052,,,,,,,2022-02-28,1,,,,,ヘルスリテラシージャパン,0
1090,5010701042285,新規,0,2022-02-28,2022-02-28,株式会社Ｍａ　Ｃｈｅｒｉｅ,,株式会社,東京都,品川区,東五反田３丁目３番１１号,,13,109,1410022,,,,,,,2022-02-28,1,,,,,マシェリ,0
1091,5010701042293,新規,0,2022-02-28,2022-02-28,株式会社ＳＵＫＩＭＡ　ＣＲＥＡＴＩＯＮ,,株式会社,東京都,品川区,北品川５丁目６番１６号御殿山ハイツ４０６,,13,109,1410001,,,,,,,2022-02-28,1,,,,,スキマクリエイション,0
1092,5010703006131,新規,0,2022-02-28,2022-02-28,合同会社蜜柑,,合同会社,東京都,品川区,小山３丁目１５番２－３８０７号,,13,109,1420062,,,,,,,2022-02-28,1,,,,,ミカン,0
1096,5010901050419,新規,0,2022-02-28,2022-02-28,株式会社ＫａｎＳｈａ　Ｃｒｅｗ,,株式会社,東京都,世田谷区,世田谷１丁目７番４号セレスト世田谷１０１,,13,112,1540017,,,,,,,2022-02-28,1,,,,,カンシャクルー,0
1097,5010901050443,新規,0,2022-02-28,2022-02-28,株式会社スイミーライフ,,株式会社,東京都,世田谷区,北沢４丁目１６番１９号,,13,112,1550031,,,,,,,2022-02-28,1,,,,,スイミーライフ,0
1098,5010903007177,新規,0,2022-02-28,2022-02-28,合同会社ｈａｔａｋｅ,,合同会社,東京都,世田谷区,深沢７丁目７－５－３０１,,13,112,1580081,,,,,,,2022-02-28,1,,,,,ハタケ,0
1101,5011001145885,新規,0,2022-02-28,2022-02-28,株式会社ブライトヴォックス,,株式会社,東京都,渋谷区,渋谷２丁目１９－１５宮益坂ビルディング６０９,,13,113,1500002,,,,,,,2022-02-28,1,,,,,ブライトヴォックス,0
1102,5011001145968,新規,0,2022-02-28,2022-02-28,株式会社Ａｔｏｍｓ,,株式会社,東京都,目黒区,鷹番３丁目１番８号,,13,110,1520004,,,,,,,2022-02-28,1,,,,,アトムズ,0
1108,5011101097928,新規,0,2022-02-28,2022-02-28,株式会社ライドウィズ,,株式会社,東京都,新宿区,四谷１丁目１０－２－２１２,,13,104,1600004,,,,,,,2022-02-28,1,,,,,ライドウィズ,0
1111,5011301027577,新規,0,2022-02-28,2022-02-28,株式会社パワーアップコンサルティング,,株式会社,東京都,杉並区,西荻北２丁目３番９号コメットビル６Ｆ,,13,115,1670042,,,,,,,2022-02-28,1,,,,,パワーアップコンサルティング,0
1112,5011301027585,新規,0,2022-02-28,2022-02-28,株式会社Ａｔｅｌｉｅｒ　Ｎｏｙｃｅ,,株式会社,東京都,杉並区,下高井戸４丁目３５番１０号,,13,115,1680073,,,,,,,2022-02-28,1,,,,,アトリエノイス,0
1125,5012401038885,新規,0,2022-02-28,2022-02-28,株式会社イブニコ,,株式会社,東京都,府中市,寿町２丁目２番地の１０ラシュレ府中６０２号,,13,206,1830056,,,,,,,2022-02-28,1,,,,,イブニコ,0
1126,5012401038893,新規,0,2022-02-28,2022-02-28,株式会社ＴＧＲ,,株式会社,東京都,多摩市,落合１丁目２番１９号フローラル上之根１０１号,,13,224,2060033,,,,,,,2022-02-28,1,,,,,ティージーアール,0
1127,5012403005248,新規,0,2022-02-28,2022-02-28,けやきマネジメント合同会社,,合同会社,東京都,武蔵野市,吉祥寺本町１丁目２２番５－３０１号サンウッド吉祥寺フラッツ,,13,203,1800004,,,,,,,2022-02-28,1,,,,,ケヤキマネジメント,0
1137,5020001145366,新規,0,2022-02-28,2022-02-28,株式会社源工業,,株式会社,神奈川県,横浜市港南区,日野中央３丁目４３番３８号洋光台ハイツ１０２号,,14,111,2340053,,,,,,,2022-02-28,1,,,,,ゲンコウギョウ,0
1138,5020001145390,新規,0,2022-02-28,2022-02-28,株式会社ＲＯＺＥＬ　ｉｄｅａ　ｆａｃｔｏｒｙ,,株式会社,神奈川県,横浜市西区,南幸２丁目９番９－６０２号,,14,103,2200005,,,,,,,2022-02-28,1,,,,,ロゼルアイデアファクトリー,0
1139,5020001145399,新規,0,2022-02-28,2022-02-28,ピーチゴルフ株式会社,,株式会社,神奈川県,川崎市高津区,下作延２丁目３－２,,14,134,2130033,,,,,,,2022-02-28,1,,,,,ピーチゴルフ,0
1140,5020001145416,新規,0,2022-02-28,2022-02-28,株式会社ごはんのこと,,株式会社,神奈川県,川崎市幸区,中幸町３丁目３１番２号,,14,132,2120012,,,,,,,2022-02-28,1,,,,,ゴハンノコト,0
1141,5020001145432,新規,0,2022-02-28,2022-02-28,株式会社ＳＥＥＫ,,株式会社,神奈川県,横浜市旭区,上川井町１７８番地４グレイスＩＩ１０５,00125822,14,112,2410802,,,,,,,2022-02-28,1,,,,,シーク,0
1142,5020001145449,新規,0,2022-02-28,2022-02-28,株式会社ａｌｌｔ,,株式会社,神奈川県,横浜市神奈川区,鶴屋町１丁目７番地５ＹＴビル１Ｆ,,14,102,2210835,,,,,,,2022-02-28,1,,,,,オルト,0
1144,5020003021367,新規,0,2022-02-28,2022-02-28,Ｃｏｈｅｒｉｘ　Ｊａｐａｎ合同会社,,合同会社,神奈川県,横浜市西区,みなとみらい４丁目４番２号横浜ブルーアベニュー１２階,,14,103,2200012,,,,,,,2022-02-28,1,,,,,コヘリックスジャパン,0
1149,5021001075264,新規,0,2022-02-28,2022-02-28,株式会社ＲａＲｅＲｉ,,株式会社,神奈川県,海老名市,中央１丁目１９番２０号,,14,215,2430432,,,,,,,2022-02-28,1,,,,,ラレリ,0
1150,5021001075280,新規,0,2022-02-28,2022-02-28,株式会社代理店,,株式会社,神奈川県,藤沢市,辻堂西海岸３丁目１番４１～３３３号,,14,205,2510046,,,,,,,2022-02-28,1,,,,,ダイリテン,0
1151,5021001075289,新規,0,2022-02-28,2022-02-28,鐘吉株式会社,,株式会社,神奈川県,相模原市中央区,南橋本２丁目１番１６号,,14,152,2520253,,,,,,,2022-02-28,1,,,,,カネヨシ,0
1158,5021003011424,新規,0,2022-02-28,2022-02-28,ＳＳマネージメント合同会社,,合同会社,神奈川県,相模原市南区,若松２丁目６－１０,,14,153,2520334,,,,,,,2022-02-28,1,,,,,エスエスマネージメント,0
1170,5030001146925,新規,0,2022-02-28,2022-02-28,株式会社ＮＡＬＵ,,株式会社,埼玉県,八潮市,大字鶴ケ曽根１４７８番地,,11,234,3400802,,,,,,,2022-02-28,1,,,,,ナル,0
1171,5030001146974,新規,0,2022-02-28,2022-02-28,ＲＯＫｉＴ　ＪＡＰＡＮ株式会社,,株式会社,埼玉県,川口市,本蓮１丁目１４番１号日の出運輸埼玉支店４Ｆ,,11,203,3340076,,,,,,,2022-02-28,1,,,,,ロキットジャパン,0
1172,5030001146990,新規,0,2022-02-28,2022-02-28,株式会社Ｒ,,株式会社,埼玉県,さいたま市緑区,原山３丁目８番１９号,,11,109,3360931,,,,,,,2022-02-28,1,,,,,アール,0
1175,5030003018890,新規,0,2022-02-28,2022-02-28,合同会社トライベスト・サン,,合同会社,埼玉県,さいたま市見沼区,春岡１丁目１９番地９,,11,104,3370008,,,,,,,2022-02-28,1,,,,,トライベストサン,0
1176,5030003018924,新規,0,2022-02-28,2022-02-28,合同会社ＯＦＦＩＣＥ　ＳＫ,,合同会社,埼玉県,狭山市,中央１丁目４６番２５号,,11,215,3501308,,,,,,,2022-02-28,1,,,,,オフィスエスケー,0
1181,5040001122347,新規,0,2022-02-28,2022-02-28,直誠工業株式会社,,株式会社,千葉県,柏市,根戸４６７番地４,,12,217,2770831,,,,,,,2022-02-28,1,,,,,ナオマサコウギョウ,0
1189,5050003006398,新規,0,2022-02-28,2022-02-28,合同会社ベリーブライト,,合同会社,茨城県,取手市,中内１０１４番地１,,08,217,3001543,,,,,,,2022-02-28,1,,,,,ベリーブライト,0
1199,5090001017435,新規,0,2022-02-28,2022-02-28,株式会社Ｋ．Ｎ．Ｋ,,株式会社,山梨県,中央市,臼井阿原８４１番地４,,19,214,4093844,,,,,,,2022-02-28,1,,,,,ケイエヌケイ,0
1200,5090003002047,新規,0,2022-02-28,2022-02-28,合同会社えせんぼう,,合同会社,山梨県,上野原市,西原４４５２,,19,212,4090141,,,,,,,2022-02-28,1,,,,,エセンボウ,0
1202,5100001035096,新規,0,2022-02-28,2022-02-28,株式会社ｓｉｚｕｒｕ　ｗｉｚ,,株式会社,長野県,長野市,大字東和田８４２番地ＣＯＲＥＯＦＦＩＣＥ３０１号室,,20,201,3810038,,,,,,,2022-02-28,1,,,,,シズルウィズ,0
1203,5100005012827,新規,0,2022-02-28,2022-02-28,一般社団法人Ｓａｎｙ　ＴＯＭＩ,,その他の設立登記法人,長野県,東御市,大日向３１９番地,,20,219,3890404,,,,,,,2022-02-28,1,,,,,サニートウミ,0
1212,5120001244059,新規,0,2022-02-28,2022-02-28,株式会社トイロエイド,,株式会社,大阪府,大阪市中央区,徳井町１丁目３番１４－８０２号,,27,128,5400025,,,,,,,2022-02-28,1,,,,,トイロエイド,0
1213,5120001244075,新規,0,2022-02-28,2022-02-28,ＦＢＳ株式会社,,株式会社,大阪府,大阪市中央区,内久宝寺町２丁目２－２２－１３０７,,27,128,5400013,,,,,,,2022-02-28,1,,,,,エフビーエス,0
1214,5120001244091,新規,0,2022-02-28,2022-02-28,株式会社寅八商会,,株式会社,大阪府,大阪市中央区,久太郎町４丁目１番３号大阪センタービル６－１７１,,27,128,5410056,,,,,,,2022-02-28,1,,,,,トラハチショウカイ,0
1215,5120001244100,新規,0,2022-02-28,2022-02-28,ＦｕｎＤｏ株式会社,,株式会社,大阪府,寝屋川市,桜木町７番５号,,27,215,5720041,,,,,,,2022-02-28,1,,,,,ファンドゥ,0
1241,5140001124985,新規,0,2022-02-28,2022-02-28,株式会社井口工業,,株式会社,兵庫県,姫路市,総社本町１６２,,28,201,6700015,,,,,,,2022-02-28,1,,,,,イグチコウギョウ,0
1242,5140001125018,新規,0,2022-02-28,2022-02-28,株式会社ｂａｒｒａｃｋ　ＤＥＣＯ　ｄｅｓｉｇｎ,,株式会社,兵庫県,神戸市兵庫区,中道通１丁目１番８号,,28,105,6520801,,,,,,,2022-02-28,1,,,,,バラックデコデザイン,0
1243,5140001125026,新規,0,2022-02-28,2022-02-28,株式会社エスト,,株式会社,兵庫県,姫路市,保城６４７番地,,28,201,6700804,,,,,,,2022-02-28,1,,,,,エスト,0
1244,5140003017394,新規,0,2022-02-28,2022-02-28,合同会社ｃｌｅＲ,,合同会社,兵庫県,神戸市長田区,西山町４丁目１３番１５号,,28,106,6530862,,,,,,,2022-02-28,1,,,,,クリアール,0
1247,5150001025365,新規,0,2022-02-28,2022-02-28,株式会社ｖｉｏｌａ,,株式会社,奈良県,奈良市,山陵町７５４番地,,29,201,6310803,,,,,,,2022-02-28,1,,,,,ビオラ,0
1260,5180001150111,新規,0,2022-02-28,2022-02-28,株式会社ｉ’ｍ,,株式会社,愛知県,名古屋市中区,上前津２丁目２番４号,,23,106,4600013,,,,,,,2022-02-28,1,,,,,アイム,0
1261,5180001150152,新規,0,2022-02-28,2022-02-28,株式会社Ｄ．ｖａｌ,,株式会社,愛知県,津島市,橋詰町２丁目１０番地,,23,208,4960825,,,,,,,2022-02-28,1,,,,,ディーバル,0
1276,5220001024707,新規,0,2022-02-28,2022-02-28,株式会社Ｎｅｘｕｓ　Ｄｅｓｉｇｎ,,株式会社,石川県,金沢市,直江北１丁目２３８番地,,17,201,9208218,,,,,,,2022-02-28,1,,,,,ネクサスデザイン,0
1277,5220003003221,新規,0,2022-02-28,2022-02-28,合同会社ＹＬＣ,,合同会社,石川県,金沢市,大友１丁目２２８番地リビングタウン弐番館・Ａ１０３号,,17,201,9208205,,,,,,,2022-02-28,1,,,,,ワイエルシー,0
1279,5230001019251,新規,0,2022-02-28,2022-02-28,株式会社ＮＯＲＯＳＨＩ　ＦＡＲＭ,,株式会社,富山県,魚津市,観音堂１７１２番地,,16,204,9370831,,,,,,,2022-02-28,1,,,,,ノロシファーム,0
1280,5230003001810,新規,0,2022-02-28,2022-02-28,ピースオブリード合同会社,,合同会社,富山県,富山市,茶屋町５８５番地２マリンパレスパートＩＩ１０３号,00125824,16,201,9300115,,,,,,,2022-02-28,1,,,,,ピースオブリード,0
1284,5240001059387,新規,0,2022-02-28,2022-02-28,株式会社西商会,,株式会社,広島県,広島市安佐北区,亀山４丁目４番１５－３０１号,,34,106,7310231,,,,,,,2022-02-28,1,,,,,ニシショウカイ,0
1292,5290001096558,新規,0,2022-02-28,2022-02-28,株式会社ｙｏｌｌｇｏ,,株式会社,福岡県,福岡市中央区,平尾３丁目２２番３号平丘ビル１階ＭＯＮＤＯ,,40,133,8100014,,,,,,,2022-02-28,1,,,,,ヨルゴ,0
1293,5290003012190,新規,0,2022-02-28,2022-02-28,合同会社Ｍａｋｏ,,合同会社,福岡県,福岡市早良区,室見１丁目２０番１６号ピュア室見１０５号室,,40,137,8140015,,,,,,,2022-02-28,1,,,,,マコ,0
1294,5290003012199,新規,0,2022-02-28,2022-02-28,Ｔ＆Ｈ合同会社,,合同会社,福岡県,福岡市東区,馬出４丁目４番２５号,,40,131,8120054,,,,,,,2022-02-28,1,,,,,ティーアンドエイチ,0
1305,5340003003721,新規,0,2022-02-28,2022-02-28,溝上笑店合同会社,,合同会社,鹿児島県,薩摩川内市,里町里９０番地,,46,215,8961101,,,,,,,2022-02-28,1,,,,,ミゾカミショウテン,0
1313,5370001048245,新規,0,2022-02-28,2022-02-28,ＡＧサイン株式会社,,株式会社,宮城県,刈田郡蔵王町,宮字西原田２３番地２,,04,301,9890701,,,,,,,2022-02-28,1,,,,,エージーサイン,0
1322,5380001032611,新規,0,2022-02-28,2022-02-28,株式会社Ｂｅｙｏｎｄ　Ｌａｂ,,株式会社,福島県,双葉郡浪江町,大字権現堂字新町２８－１,,07,547,9791521,,,,,,,2022-02-28,1,,,,,ビヨンドラボ,0
1326,5420003002467,新規,0,2022-02-28,2022-02-28,合同会社まるみ,,合同会社,青森県,八戸市,大字中居林字中居林３２番地７,,02,203,0310002,,,,,,,2022-02-28,1,,,,,マルミ,0
1350,6010001224830,新規,0,2022-02-28,2022-02-28,株式会社ＲｅｑｕａＬ,,株式会社,東京都,中央区,日本橋馬喰町２丁目４番６号４Ｆ,,13,102,1030002,,,,,,,2022-02-28,1,,,,,リコール,0
1354,6010003037099,新規,0,2022-02-28,2022-02-28,クロスマップ合同会社,,合同会社,東京都,千代田区,岩本町２丁目１３番６号ミツボシ第３ビル４階,,13,101,1010032,,,,,,,2022-02-28,1,,,,,クロスマップ,0
1356,6010401165773,新規,0,2022-02-28,2022-02-28,株式会社ＧＳＣＳ,,株式会社,東京都,港区,南青山４丁目７番２号ウンベルポルト２０１号室,,13,103,1070062,,,,,,,2022-02-28,1,,,,,ジーエスシーエス,0
1357,6010401165781,新規,0,2022-02-28,2022-02-28,株式会社アレンズミラス,,株式会社,東京都,港区,港南１丁目９番３６号,,13,103,1080075,,,,,,,2022-02-28,1,,,,,アレンズミラス,0
1358,6010401165798,新規,0,2022-02-28,2022-02-28,株式会社３６０,,株式会社,東京都,港区,南麻布３丁目２０番１号,,13,103,1060047,,,,,,,2022-02-28,1,,,,,スリーシックスティー,0
1359,6010401165823,新規,0,2022-02-28,2022-02-28,株式会社ＫＡＩＺＥＮ　ＫＥＩＫＡＫＵ,,株式会社,東京都,港区,元赤坂１丁目２－７赤坂Ｋタワー４Ｆ,,13,103,1070051,,,,,,,2022-02-28,1,,,,,カイゼンケイカク,0
1361,6010403027179,新規,0,2022-02-28,2022-02-28,Ｌｉｆｅｓｔｙｌｅ　ＰＳ１合同会社,,合同会社,東京都,港区,六本木１丁目６番１号泉ガーデンタワー,,13,103,1060032,,,,,,,2022-02-28,1,,,,,ライフスタイルビーエスワン,0
1362,6010405020743,新規,0,2022-02-28,2022-02-28,松伏町物流開発特定目的会社,,その他の設立登記法人,東京都,港区,虎ノ門３丁目２２番１０－２０１号,,13,103,1050001,,,,,,,2022-02-28,1,,,,,マツブシマチブツリュウカイハツ,0
1363,6010405020751,新規,0,2022-02-28,2022-02-28,一般社団法人ＨＤＧ３３,,その他の設立登記法人,東京都,港区,虎ノ門３丁目２２番１０－２０１号,,13,103,1050001,,,,,,,2022-02-28,1,,,,,エイチディージースリースリー,0
1367,6010501048507,新規,0,2022-02-28,2022-02-28,株式会社ＳｅｃｒｅｔＧａｒｄｅｎ,,株式会社,東京都,台東区,上野２丁目１２番１８号,,13,106,1100005,,,,,,,2022-02-28,1,,,,,シークレットガーデン,0
1369,6010701042284,新規,0,2022-02-28,2022-02-28,ＭＩＲＡＩ　ＨＯＬＤＩＮＧＳ株式会社,,株式会社,東京都,品川区,東五反田５丁目２２番３３号,,13,109,1410022,,,,,,,2022-02-28,1,,,,,ミライホールディングス,0
1371,6010801032763,新規,0,2022-02-28,2022-02-28,株式会社ＢＡＳＳＬＩＮＥ,,株式会社,東京都,大田区,西糀谷４丁目１７番８号,,13,111,1440034,,,,,,,2022-02-28,1,,,,,ベースライン,0
1374,6010901050434,新規,0,2022-02-28,2022-02-28,株式会社リノ,,株式会社,東京都,世田谷区,上馬２丁目１９番１号,,13,112,1540011,,,,,,,2022-02-28,1,,,,,リノ,0
1375,6010901050442,新規,0,2022-02-28,2022-02-28,株式会社ＹＵＩ,,株式会社,東京都,世田谷区,八幡山１丁目１番３－２０３号,,13,112,1560056,,,,,,,2022-02-28,1,,,,,ユイ,0
1376,6010903007176,新規,0,2022-02-28,2022-02-28,合同会社寺内エンタープライズ,,合同会社,東京都,世田谷区,玉川台２丁目３９番１６号,,13,112,1580096,,,,,,,2022-02-28,1,,,,,テラウチエンタープライズ,0
1377,6010903007184,新規,0,2022-02-28,2022-02-28,合同会社Ｆｕｎｄ　Ｔｒｅｅ,,合同会社,東京都,世田谷区,桜２丁目１０番６号,,13,112,1560053,,,,,,,2022-02-28,1,,,,,ファンドツリー,0
1381,6011001145967,新規,0,2022-02-28,2022-02-28,株式会社Ｋｏｇｌ,,株式会社,東京都,渋谷区,恵比寿１丁目７番１１号,,13,113,1500013,,,,,,,2022-02-28,1,,,,,コーグル,0
1382,6011003014253,新規,0,2022-02-28,2022-02-28,合同会社ＮｅｏＲｉｖ,,合同会社,東京都,渋谷区,松濤１丁目２８－２,,13,113,1500046,,,,,,,2022-02-28,1,,,,,ネオリボ,0
1384,6011101097902,新規,0,2022-02-28,2022-02-28,株式会社ＢＲＩＧＨＴ　ＩＮＤＩＶＩＤＵＡＬ,,株式会社,東京都,新宿区,西落合３丁目２１番１３号コーポマリーナ西落合１０７,,13,104,1610031,,,,,,,2022-02-28,1,,,,,ブライトインディビジュアル,0
1385,6011101097910,新規,0,2022-02-28,2022-02-28,株式会社一,,株式会社,東京都,新宿区,西新宿５丁目５番１－１４０２号,,13,104,1600023,,,,,,,2022-02-28,1,,,,,イチ,0
1386,6011101097927,新規,0,2022-02-28,2022-02-28,スキルティ株式会社,,株式会社,東京都,新宿区,西落合１丁目８番２号,,13,104,1610031,,,,,,,2022-02-28,1,,,,,スキルティ,0
1388,6011201023667,新規,0,2022-02-28,2022-02-28,株式会社Ｅｘｓｐａｃｅ,,株式会社,東京都,中野区,中野４丁目１０番１号,,13,114,1640001,,,,,,,2022-02-28,1,,,,,エクスペース,0
1390,6011301027592,新規,0,2022-02-28,2022-02-28,株式会社Ｌｅａｐ,,株式会社,東京都,杉並区,浜田山１丁目２５番１４号フローレンス浜田山１０２,,13,115,1680065,,,,,,,2022-02-28,1,,,,,リープ,0
1392,6011401024060,新規,0,2022-02-28,2022-02-28,株式会社ＳＩＮＳＥＩ,,株式会社,東京都,板橋区,赤塚５丁目２８番３０号,,13,119,1750092,,,,,,,2022-02-28,1,,,,,シンセイ,0
1393,6011403003582,新規,0,2022-02-28,2022-02-28,希望合同会社,,合同会社,東京都,板橋区,大山金井町１０番６－５０１号,,13,119,1730024,,,,,,,2022-02-28,1,,,,,キボウ,0
1401,6012401038892,新規,0,2022-02-28,2022-02-28,株式会社東方美人,,株式会社,東京都,武蔵野市,吉祥寺南町１丁目２８－４ＭＡＣ吉祥寺コート２０３号,,13,203,1800003,,,,,,,2022-02-28,1,,,,,トウホウビジン,0
1403,6012803002711,新規,0,2022-02-28,2022-02-28,スマイＭＨ合同会社,,合同会社,東京都,東大和市,立野１丁目１０３９番地の２０,,13,220,2070021,,,,,,,2022-02-28,1,,,,,スマイエムエイチ,0
1405,6013301048742,新規,0,2022-02-28,2022-02-28,東禹株式会社,,株式会社,東京都,豊島区,巣鴨３丁目３４－１０,,13,116,1700002,,,,,,,2022-02-28,1,,,,,トウウ,0
1408,6013303006046,新規,0,2022-02-28,2022-02-28,メディック合同会社,,合同会社,東京都,豊島区,東池袋１丁目３４番５号いちご東池袋ビル６階,,13,116,1700013,,,,,,,2022-02-28,1,,,,,メディック,0
1412,6020001145258,新規,0,2022-02-28,2022-02-28,株式会社ビックアール,,株式会社,神奈川県,横浜市戸塚区,下倉田町１２６吉原ビル１Ｆ,,14,110,2440815,,,,,,,2022-02-28,1,,,,,ビッグアール,0
1413,6020001145365,新規,0,2022-02-28,2022-02-28,株式会社ＭＯＦ,,株式会社,神奈川県,横浜市神奈川区,片倉２丁目５７番１０号,,14,102,2210865,,,,,,,2022-02-28,1,,,,,モフ,0
1414,6020001145373,新規,0,2022-02-28,2022-02-28,株式会社ＯｎｅＳｅｎｓｅ,,株式会社,神奈川県,横浜市泉区,中田東１丁目２２番２６号,,14,116,2450013,,,,,,,2022-02-28,1,,,,,ワンセンス,0
1415,6020001145398,新規,0,2022-02-28,2022-02-28,Ａｓｔｙｌｅ株式会社,,株式会社,神奈川県,横浜市西区,東久保町２４番７－１号,,14,103,2200062,,,,,,,2022-02-28,1,,,,,エースタイル,0
1416,6020001145407,新規,0,2022-02-28,2022-02-28,株式会社Ｈ２ＴＥＣ,,株式会社,神奈川県,横浜市鶴見区,上末吉１丁目１７番４－２０３号レオネクストベイタウン,,14,101,2300011,,,,,,,2022-02-28,1,,,,,エイチツーテック,0
1417,6020001145415,新規,0,2022-02-28,2022-02-28,株式会社ＮＥＯ　ＨＯＵＳＥ,,株式会社,神奈川県,横浜市都筑区,桜並木７－２５サンモールＢ１０１号室,,14,118,2240046,,,,,,,2022-02-28,1,,,,,ネオハウス,0
1419,6020003021374,新規,0,2022-02-28,2022-02-28,ＫＢＴ合同会社,,合同会社,神奈川県,川崎市幸区,中幸町３丁目２８エースマンション３０２,,14,132,2120012,,,,,,,2022-02-28,1,,,,,ケービーティー,0
1420,6020005015390,新規,0,2022-02-28,2022-02-28,一般社団法人ナムギャル,,その他の設立登記法人,神奈川県,川崎市幸区,堀川町７２番地２１－Ｔ１２０５,,14,132,2120013,,,,,,,2022-02-28,1,,,,,ナムギャル,0
1424,6021001075255,新規,0,2022-02-28,2022-02-28,株式会社グローバルワークス,,株式会社,神奈川県,厚木市,三田南３丁目１３番１８号,,14,212,2430217,,,,,,,2022-02-28,1,,,,,グローバルワークス,0
1427,6021003011431,新規,0,2022-02-28,2022-02-28,合同会社ｉｋａｓｕｒｐｌｉｚｅｓ,,合同会社,神奈川県,相模原市南区,上鶴間本町３丁目６－１６新原町田マンション５０５,,14,153,2520318,,,,,,,2022-02-28,1,,,,,イカサプライゼス,0
1442,6030003018931,新規,0,2022-02-28,2022-02-28,合同会社心笑,,合同会社,埼玉県,草加市,谷塚上町６５９番地７,,11,221,3400024,,,,,,,2022-02-28,1,,,,,ココエ,0
1452,6040001122346,新規,0,2022-02-28,2022-02-28,株式会社千純,,株式会社,千葉県,南房総市,千倉町瀬戸２０１２番地３,,12,234,2950004,,,,,,,2022-02-28,1,,,,,チスミ,0
1453,6040001122362,新規,0,2022-02-28,2022-02-28,株式会社雅,,株式会社,千葉県,野田市,みずき４丁目１９番地の１５９,,12,208,2780027,,,,,,,2022-02-28,1,,,,,ミヤビ,0
1454,6040001122370,新規,0,2022-02-28,2022-02-28,株式会社ＬＡＤＹ　ＤＩＬＥ＆Ｃｏ,,株式会社,千葉県,柏市,高田１０１６番地３４,,12,217,2770861,,,,,,,2022-02-28,1,,,,,レディダイルアンドシーオー,0
1460,6050003006372,新規,0,2022-02-28,2022-02-28,合同会社ＰｌｕｓＫ,,合同会社,茨城県,つくば市,二の宮３丁目２６番地１５,,08,220,3050051,,,,,,,2022-02-28,1,,,,,プラスケイ,0
1467,6080403004477,新規,0,2022-02-28,2022-02-28,合同会社Ｍｉｒｅｓｅｎｔ,,合同会社,静岡県,浜松市中区,中央１丁目１６－２３中央ビル２階,,22,131,4300929,,,,,,,2022-02-28,1,,,,,ミラセント,0
1473,6110001036464,新規,0,2022-02-28,2022-02-28,ナガオケ塗装株式会社,,株式会社,新潟県,新潟市中央区,愛宕３丁目７番地８,,15,103,9500944,,,,,,,2022-02-28,1,,,,,ナガオケトソウ,0
1485,6120001243943,新規,0,2022-02-28,2022-02-28,株式会社岡田,,株式会社,大阪府,大阪市北区,梅田１丁目２番２－１３０３号,,27,127,5300001,,,,,,,2022-02-28,1,,,,,オカダ,0
1486,6120001244041,新規,0,2022-02-28,2022-02-28,株式会社岩本ケアステーション,,株式会社,大阪府,大阪市東成区,中道３丁目８番２１号ペピイハッピープレイス,,27,115,5370025,,,,,,,2022-02-28,1,,,,,イワモトケアステーション,0
1487,6120001244082,新規,0,2022-02-28,2022-02-28,株式会社Ｒ・Ｍ,,株式会社,大阪府,大阪市北区,鶴野町４番１１号,,27,127,5300014,,,,,,,2022-02-28,1,,,,,アールエム,0
1488,6120001244090,新規,0,2022-02-28,2022-02-28,株式会社カインドオフィス,,株式会社,大阪府,枚方市,岡本町７番１号,,27,210,5730031,,,,,,,2022-02-28,1,,,,,カインドオフィス,0
1489,6120001244099,新規,0,2022-02-28,2022-02-28,株式会社インクリース,,株式会社,大阪府,大阪市東淀川区,東中島５丁目１８番１７号泉マンション４０１号,,27,114,5330033,,,,,,,2022-02-28,1,,,,,インクリース,0
1491,6120003021199,新規,0,2022-02-28,2022-02-28,リセットメント研究所合同会社,,合同会社,大阪府,大阪市城東区,関目５丁目１０－２２,,27,118,5360008,,,,,,,2022-02-28,1,,,,,リセットメントケンキュウジョ,0
1492,6120101065115,新規,0,2022-02-28,2022-02-28,カムフク株式会社,,株式会社,大阪府,富田林市,喜志町１丁目１２番１号,,27,214,5840005,,,,,,,2022-02-28,1,,,,,カムフク,0
1498,6130001071195,新規,0,2022-02-28,2022-02-28,株式会社ででんのでん,,株式会社,京都府,京都市左京区,岩倉長谷町６０８番地５,,26,103,6060026,,,,,,,2022-02-28,1,,,,,デデンノデン,0
1499,6130001071220,新規,0,2022-02-28,2022-02-28,Ｔｏｍｏ　Ｐｌａｎｚ株式会社,,株式会社,京都府,京都市下京区,中堂寺南町１３４番地ＡＳＴＥＭビル８Ｆ８Ｄ１６,,26,106,6008813,,,,,,,2022-02-28,1,,,,,トモプランズ,0
1506,6140001125017,新規,0,2022-02-28,2022-02-28,株式会社ぺスカ,,株式会社,兵庫県,加古川市,神野町石守１丁目５６番地,,28,210,6750005,,,,,,,2022-02-28,1,,,,,ペスカ,0
1507,6140001125033,新規,0,2022-02-28,2022-02-28,株式会社ＯＮＤ,,株式会社,兵庫県,神戸市灘区,大石東町５丁目９番７号,,28,102,6570043,,,,,,,2022-02-28,1,,,,,オーエヌディ,0
1508,6140001125058,新規,0,2022-02-28,2022-02-28,エイチプラスエイト株式会社,,株式会社,兵庫県,芦屋市,大桝町１番１８号,,28,206,6590066,,,,,,,2022-02-28,1,,,,,エイチプラスエイト,0
1515,6170001016989,新規,0,2022-02-28,2022-02-28,江島興産株式会社,,株式会社,和歌山県,岩出市,中島６５６番地の１６,,30,209,6496245,,,,,,,2022-02-28,1,,,,,エジマコウサン,0
1523,6180003023512,新規,0,2022-02-28,2022-02-28,Ｔ＆Ｔ　Ｖｅｒｓｐｉｅｌｉｃｈ合同会社,,合同会社,愛知県,名古屋市瑞穂区,桃園町３番１１号,,23,108,4670855,,,,,,,2022-02-28,1,,,,,テーウントテーフェアシュピーリッヒ,0
1524,6180003023529,新規,0,2022-02-28,2022-02-28,合同会社ガーベラ,,合同会社,愛知県,名古屋市中区,錦１丁目２０番１９号名神ビル（エイディシーテクノロジー株式会社内）,,23,106,4600003,,,,,,,2022-02-28,1,,,,,ガーベラ,0
1525,6180005019649,新規,0,2022-02-28,2022-02-28,特定非営利活動法人空き家等予防・利活用ワンストップ相談会の会,,その他の設立登記法人,愛知県,春日井市,妙慶町１２９番地３,,23,206,4860928,,,,,,,2022-02-28,1,,,,,アキヤナドヨボウリカツヨウワンストップソウダンカイノカイ,0
1528,6190001029130,新規,0,2022-02-28,2022-02-28,株式会社ハッピーぶらざーず,,株式会社,三重県,四日市市,鵜の森２丁目１２番１７号,,24,202,5100074,,,,,,,2022-02-28,1,,,,,ハッピーブラザーズ,0
1530,6200001039788,新規,0,2022-02-28,2022-02-28,株式会社ｒコンサルタント,,株式会社,岐阜県,各務原市,那加新加納町２１３３番地１,,21,213,5040958,,,,,,,2022-02-28,1,,,,,アールコンサルタント,0
1532,6210001018824,新規,0,2022-02-28,2022-02-28,株式会社ＲＪ．ｇａｒａｇｅ,,株式会社,福井県,福井市,下馬２丁目１１０番地,,18,201,9188112,,,,,,,2022-02-28,1,,,,,アールジェイガレージ,0
1533,6220001024706,新規,0,2022-02-28,2022-02-28,株式会社サブ設備サービス,,株式会社,石川県,白山市,福留町３１番地,,17,210,9240051,,,,,,,2022-02-28,1,,,,,サブセツビサービス,0
1534,6220003003229,新規,0,2022-02-28,2022-02-28,Ｓｅｅｄｓ合同会社,,合同会社,石川県,金沢市,米泉町１０丁目１番地１２８,,17,201,9218044,,,,,,,2022-02-28,1,,,,,シーズ,0
1539,6240001059386,新規,0,2022-02-28,2022-02-28,株式会社峰設備,,株式会社,広島県,広島市安佐南区,伴西４丁目１８番２５号,,34,105,7313169,,,,,,,2022-02-28,1,,,,,ミネセツビ,0
1543,6240003005512,新規,0,2022-02-28,2022-02-28,合同会社いい大家,,合同会社,広島県,広島市南区,本浦町５番２５号,,34,103,7340047,,,,,,,2022-02-28,1,,,,,イイオオヤ,0
1549,6260001036573,新規,0,2022-02-28,2022-02-28,菅野建築株式会社,,株式会社,岡山県,総社市,駅南２丁目１５番地３,,33,208,7191137,,,,,,,2022-02-28,1,,,,,カンノケンチク,0
1554,6290001096549,新規,0,2022-02-28,2022-02-28,株式会社ＢｅｅＳｍａｒｔ,,株式会社,福岡県,福岡市東区,原田３丁目６－３－２０５,,40,131,8120063,,,,,,,2022-02-28,1,,,,,ビースマート,0
1555,6290001096557,新規,0,2022-02-28,2022-02-28,Ｘｎｎｏｖｅ株式会社,,株式会社,福岡県,福岡市中央区,薬院４丁目１４番１－１６０８号,,40,133,8100022,,,,,,,2022-02-28,1,,,,,ノーヴ,0
1556,6290001096565,新規,0,2022-02-28,2022-02-28,株式会社フラッベンヌウィング,,株式会社,福岡県,福岡市東区,美和台１丁目２５番４号,,40,131,8110212,,,,,,,2022-02-28,1,,,,,フラッベンヌウィング,0
1557,6290003012198,新規,0,2022-02-28,2022-02-28,やんばる観光合同会社,,合同会社,福岡県,筑紫野市,大字永岡４２１番地１,,40,217,8180066,,,,,,,2022-02-28,1,,,,,ヤンバルカンコウ,0
1571,6360003011837,新規,0,2022-02-28,2022-02-28,合同会社アズー,,合同会社,沖縄県,うるま市,安慶名２丁目１０番３６号光和ビル１０３,,47,213,9042214,,,,,,,2022-02-28,1,,,,,アズー,0
1576,6370003005598,新規,0,2022-02-28,2022-02-28,合同会社ＹＵＳＨＩ,,合同会社,宮城県,仙台市青葉区,小田原７丁目５番４６号,,04,101,9800003,,,,,,,2022-02-28,1,,,,,ユーシ,0
1579,6380001032610,新規,0,2022-02-28,2022-02-28,ための株式会社,,株式会社,福島県,白河市,中田１４０番地,,07,205,9610053,,,,,,,2022-02-28,1,,,,,タメノ,0
1584,6390005008944,新規,0,2022-02-28,2022-02-28,一般社団法人トリップアラウンド推進協議会,,その他の設立登記法人,山形県,米沢市,門東町１丁目３番４６号,,06,202,9920039,,,,,,,2022-02-28,1,,,,,トリップアラウンドスイシンキョウギカイ,0
1585,6400005008216,新規,0,2022-02-28,2022-02-28,特定非営利活動法人カシオペア医療介護支援センター,,その他の設立登記法人,岩手県,二戸市,福岡字八幡下１１番地１,,03,213,0286101,,,,,,,2022-02-28,1,,,,,カシオペアイリョウカイゴシエンセンター,0
1607,7010001224821,新規,0,2022-02-28,2022-02-28,株式会社Ｏｎｅ　ｎａｔｉｏｎ,,株式会社,東京都,千代田区,九段南１丁目５番６号りそな九段ビル５Ｆ・ＫＳフロア,,13,101,1020074,,,,,,,2022-02-28,1,,,,,ワンネーション,0
1610,7010005034622,新規,0,2022-02-28,2022-02-28,一般社団法人中東欧ワイン・リカー文化協会,,その他の設立登記法人,東京都,中央区,銀座７丁目１３番６号サガミビル２階,,13,102,1040061,,,,,,,2022-02-28,1,,,,,チュウトウオウワインリカーブンカキョウカイ,0
1611,7010005034639,新規,0,2022-02-28,2022-02-28,一般社団法人栃木宇都宮,,その他の設立登記法人,東京都,千代田区,飯田橋１丁目３番２号曙杉館４階ＲＳＭ清和コンサルティング株式会社内,,13,101,1020072,,,,,,,2022-02-28,1,,,,,トチギウツノミヤ,0
1612,7010005034647,新規,0,2022-02-28,2022-02-28,一般社団法人ＮＲＴグロース１８,,その他の設立登記法人,東京都,中央区,八丁堀４丁目２番１０号ＡＯＪ税理士法人内,,13,102,1040032,,,,,,,2022-02-28,1,,,,,エヌアールティグロースエイティーン,0
1617,7010401165764,新規,0,2022-02-28,2022-02-28,株式会社ブラボークリエイティブス,,株式会社,東京都,港区,南麻布１丁目６番８号,,13,103,1060047,,,,,,,2022-02-28,1,,,,,ブラボークリエイティブス,0
1618,7010401165780,新規,0,2022-02-28,2022-02-28,株式会社ＭＹリアルター,,株式会社,東京都,港区,赤坂２丁目１４番１１号天翔赤坂ビル３０９,,13,103,1070052,,,,,,,2022-02-28,1,,,,,マイリアルター,0
1619,7010401165797,新規,0,2022-02-28,2022-02-28,株式会社宇宙アカデミーＡＳＯＢＩ,,株式会社,東京都,港区,芝浦４丁目１９番１号芝浦アイランドケープタワー４８０１号,,13,103,1080023,,,,,,,2022-02-28,1,,,,,ウチュウアカデミーアソビ,0
1620,7010401165814,新規,0,2022-02-28,2022-02-28,株式会社Ｔｅｃｈｎｏｌｏｇｙ　Ｉｎｎｏｖａｔｉｏｎ　Ｍａｎａｇｅｍｅｎｔ　Ｋｉｎｇｄｏｍ,,株式会社,東京都,港区,六本木７丁目２１番２４号,,13,103,1060032,,,,,,,2022-02-28,1,,,,,テクノロジーイノベーションマネジメントキングダム,0
1621,7010401165822,新規,0,2022-02-28,2022-02-28,株式会社もりゼミ,,株式会社,東京都,港区,赤坂２丁目５番４号赤坂室町ビル１０階,,13,103,1070052,,,,,,,2022-02-28,1,,,,,モリゼミ,0
1622,7010401165847,新規,0,2022-02-28,2022-02-28,株式会社ＳＡＫＥＢＡＲＯ,,株式会社,東京都,港区,南青山２丁目１０番８号ＭＤ青山１階,,13,103,1070062,,,,,,,2022-02-28,1,,,,,サケバロ,0
1624,7010403027178,新規,0,2022-02-28,2022-02-28,Ｌｉｆｅｓｔｙｌｅ２合同会社,,合同会社,東京都,港区,六本木１丁目６番１号泉ガーデンタワー,,13,103,1060032,,,,,,,2022-02-28,1,,,,,ライフスタイルツー,0
1627,7010405020742,新規,0,2022-02-28,2022-02-28,一般社団法人シェアリングポリティクス,,その他の設立登記法人,東京都,港区,赤坂４丁目８番１９号,,13,103,1070052,,,,,,,2022-02-28,1,,,,,シェアリングポリティクス,0
1628,7010405020750,新規,0,2022-02-28,2022-02-28,一般社団法人ＨＤＧ３２,,その他の設立登記法人,東京都,港区,虎ノ門３丁目２２番１０－２０１号,,13,103,1050001,,,,,,,2022-02-28,1,,,,,エイチディージースリーツー,0
1633,7010701042283,新規,0,2022-02-28,2022-02-28,株式会社ハッピー,,株式会社,東京都,品川区,西五反田７丁目１９－４エクレール五反田４０３,,13,109,1410031,,,,,,,2022-02-28,1,,,,,ハッピー,0
1636,7010901050425,新規,0,2022-02-28,2022-02-28,株式会社ｗａｒａｂａｒ,,株式会社,東京都,世田谷区,三軒茶屋２丁目１４－１７高橋ビル２０１,,13,112,1540024,,,,,,,2022-02-28,1,,,,,ワラバー,0
1637,7010901050433,新規,0,2022-02-28,2022-02-28,株式会社Ｇａｌｌｅｇｅ,,株式会社,東京都,世田谷区,松原２丁目１７－３０,,13,112,1560043,,,,,,,2022-02-28,1,,,,,ガレッジ,0
1641,7010903007175,新規,0,2022-02-28,2022-02-28,合同会社匠工業,,合同会社,東京都,世田谷区,鎌田２丁目２３番５－１０５号,,13,112,1570077,,,,,,,2022-02-28,1,,,,,タクミコウギョウ,0
1645,7011001145883,新規,0,2022-02-28,2022-02-28,株式会社２ＷＩＮＳ,,株式会社,東京都,渋谷区,宇田川町１－１２,,13,113,1500042,,,,,,,2022-02-28,1,,,,,ツインズ,0
1646,7011001145909,新規,0,2022-02-28,2022-02-28,株式会社ＳＰＩＲＩＴ,,株式会社,東京都,渋谷区,渋谷１丁目８番５号小山ビル４階,,13,113,1500002,,,,,,,2022-02-28,1,,,,,スピリット,0
1651,7011101097901,新規,0,2022-02-28,2022-02-28,ダイバーシステム株式会社,,株式会社,東京都,新宿区,西新宿３丁目３番１３号西新宿水間ビル６階,,13,104,1600023,,,,,,,2022-02-28,1,,,,,ダイバーシステム,0
1652,7011101097934,新規,0,2022-02-28,2022-02-28,株式会社ＩＮＤＥＥＳ,,株式会社,東京都,新宿区,信濃町３５番地信濃町煉瓦館６０５,,13,104,1600016,,,,,,,2022-02-28,1,,,,,インディーズ,0
1656,7011401024035,新規,0,2022-02-28,2022-02-28,株式会社Ｒａｉｎ　Ｃｉｔｙ　Ｓｏｕｎｄ,,株式会社,東京都,板橋区,赤塚２丁目２５番３１号,,13,119,1750092,,,,,,,2022-02-28,1,,,,,レインシティサウンド,0
1658,7012401038891,新規,0,2022-02-28,2022-02-28,株式会社Ｄｏｎ’ｚ,,株式会社,東京都,多摩市,関戸１丁目１１番３号桜ヶ丘プラザビル２Ｆ,,13,224,2060011,,,,,,,2022-02-28,1,,,,,ドンズ,0
1659,7012401038900,新規,0,2022-02-28,2022-02-28,株式会社Ｙｏｋｏｇｕｓｈｉｓｔ,,株式会社,東京都,調布市,西つつじケ丘２丁目１１番地１,,13,208,1820006,,,,,,,2022-02-28,1,,,,,ヨコグシスト,0
1660,7012403005246,新規,0,2022-02-28,2022-02-28,合同会社ｎｉｃｏ,,合同会社,東京都,武蔵野市,境１丁目５番３号ブルースカイ武蔵野,,13,203,1800022,,,,,,,2022-02-28,1,,,,,ニコ,0
1672,7020001145380,新規,0,2022-02-28,2022-02-28,株式会社ＩＮＤＩＧＯ,,株式会社,神奈川県,川崎市宮前区,犬蔵３丁目１５番３－２号,,14,136,2160011,,,,,,,2022-02-28,1,,,,,インディゴ,0
1673,7020001145389,新規,0,2022-02-28,2022-02-28,株式会社エムテック,,株式会社,神奈川県,川崎市宮前区,水沢３丁目１３番７号１０２,,14,136,2160012,,,,,,,2022-02-28,1,,,,,エムテック,0
1674,7020001145397,新規,0,2022-02-28,2022-02-28,株式会社ＬＡ　ＨＥＲＶＥ,,株式会社,神奈川県,川崎市宮前区,土橋６丁目１５番地１,,14,136,2160005,,,,,,,2022-02-28,1,,,,,ラエルヴェ,0
1675,7020001145406,新規,0,2022-02-28,2022-02-28,アステック株式会社,,株式会社,神奈川県,横浜市瀬谷区,阿久和南４丁目６番地７アクアヒルズＩ３０２号,00125814,14,114,2460026,,,,,,,2022-02-28,1,,,,,アステック,0
1676,7020001145430,新規,0,2022-02-28,2022-02-28,株式会社ナンバーワンインターナショナル,,株式会社,神奈川県,川崎市宮前区,宮崎４丁目１番地３４８,,14,136,2160033,,,,,,,2022-02-28,1,,,,,ナンバーワンインターナショナル,0
1677,7020003021365,新規,0,2022-02-28,2022-02-28,Ｓｏｌａｎ　Ｌａｂｓ　Ｊａｐａｎ合同会社,,合同会社,神奈川県,川崎市宮前区,西野川２丁目２２番３８号Ａ－スクエア１０１,,14,136,2160044,,,,,,,2022-02-28,1,,,,,ソランラボジャパン,0
1683,7021001075262,新規,0,2022-02-28,2022-02-28,株式会社はまゆう,,株式会社,神奈川県,横須賀市,池田町４丁目４番１号,,14,201,2390806,,,,,,,2022-02-28,1,,,,,ハマユウ,0
1684,7021001075279,新規,0,2022-02-28,2022-02-28,株式会社音音,,株式会社,神奈川県,平塚市,大神１７７０番地２０４,,14,203,2540012,,,,,,,2022-02-28,1,,,,,ネオン,0
1685,7021001075287,新規,0,2022-02-28,2022-02-28,ＡＳＭＡ株式会社,,株式会社,神奈川県,相模原市南区,相模大野７丁目３５－１－８１０,,14,153,2520303,,,,,,,2022-02-28,1,,,,,アスマ,0
1691,7030001146989,新規,0,2022-02-28,2022-02-28,ＯＢＯ株式会社,,株式会社,埼玉県,さいたま市大宮区,北袋町１丁目６０１番地１Ａ２１１,,11,103,3300835,,,,,,,2022-02-28,1,,,,,オービーオー,0
1692,7030001147013,新規,0,2022-02-28,2022-02-28,株式会社大誠,,株式会社,埼玉県,さいたま市南区,文蔵３丁目２７－６ＩＵＳビル３Ｆ,,11,108,3360025,,,,,,,2022-02-28,1,,,,,タイセイ,0
1700,7030003018914,新規,0,2022-02-28,2022-02-28,合同会社Ｎｙａｎ,,合同会社,埼玉県,鶴ヶ島市,大字下新田２２－１１,,11,241,3502222,,,,,,,2022-02-28,1,,,,,ニャン,0
1701,7030003018922,新規,0,2022-02-28,2022-02-28,合同会社こども未来づくり総合サポートセンターちょこ,,合同会社,埼玉県,川越市,伊勢原町１丁目２番地２０,,11,201,3501108,,,,,,,2022-02-28,1,,,,,コドモミライヅクリソウゴウサポートセンターチョコ,0
1702,7030003018930,新規,0,2022-02-28,2022-02-28,ＨａｐｐｙＦｏｒｅｖｅｒ合同会社,,合同会社,埼玉県,蕨市,中央１丁目８番１号,,11,223,3350004,,,,,,,2022-02-28,1,,,,,ハッピーフォーエバー,0
1704,7040001122378,新規,0,2022-02-28,2022-02-28,株式会社ＨＩＤＥＴＯ　ＫＩＴＡＭＵＲＡ　ＦＩＬＭＳ,,株式会社,千葉県,木更津市,東太田１丁目１番２８号,,12,206,2920043,,,,,,,2022-02-28,1,,,,,,0
1712,7040003019564,新規,0,2022-02-28,2022-02-28,合同会社クリエボ技術研究所,,合同会社,千葉県,流山市,南流山６丁目３１番地の７,,12,220,2700163,,,,,,,2022-02-28,1,,,,,クリエボギジュツケンキュウショ,0
1715,7060001034596,新規,0,2022-02-28,2022-02-28,株式会社Ｃｏｌｏｒｓ,,株式会社,栃木県,栃木市,大町１９番２０号,,09,203,3280071,,,,,,,2022-02-28,1,,,,,カラーズ,0
1716,7060003003954,新規,0,2022-02-28,2022-02-28,合同会社そらいろ,,合同会社,栃木県,小山市,西城南４丁目２５－１３,,09,208,3230820,,,,,,,2022-02-28,1,,,,,ソライロ,0
1724,7090001017433,新規,0,2022-02-28,2022-02-28,株式会社Ｎｅｘｔ　Ｓｔａｇｅ,,株式会社,山梨県,北杜市,大泉町西井出８２４０番地５０９６,,19,209,4091501,,,,,,,2022-02-28,1,,,,,ネクストステージ,0
1735,7120001244024,新規,0,2022-02-28,2022-02-28,株式会社ＺＥＲＯ　ＥＤＵＣＡＴＩＯＮ,,株式会社,大阪府,大阪市城東区,蒲生３丁目１５－２０,,27,118,5360016,,,,,,,2022-02-28,1,,,,,ゼロエデュケーション,0
1736,7120001244040,新規,0,2022-02-28,2022-02-28,ヤス・マリン・クルーズ株式会社,,株式会社,大阪府,大阪市西区,南堀江３丁目１４番１２号イイダビル２－２Ａ,,27,106,5500015,,,,,,,2022-02-28,1,,,,,ヤスマリンクルーズ,0
1737,7120001244057,新規,0,2022-02-28,2022-02-28,株式会社ＨＩＲＵＳＡフーズ,,株式会社,大阪府,大阪市旭区,赤川４丁目２３番２８号,,27,117,5350005,,,,,,,2022-02-28,1,,,,,ヒルサフーズ,0
1738,7120001244073,新規,0,2022-02-28,2022-02-28,海新商事株式会社,,株式会社,大阪府,大阪市住吉区,遠里小野３丁目４番２１号ルミエール遠里小野１０１号,,27,120,5580032,,,,,,,2022-02-28,1,,,,,カイシンショウジ,0
1742,7120003021198,新規,0,2022-02-28,2022-02-28,合同会社ドラセナ,,合同会社,大阪府,大阪市西区,南堀江４丁目１３番１９－１３０３号,,27,106,5500015,,,,,,,2022-02-28,1,,,,,ドラセナ,0
1754,7140001125040,新規,0,2022-02-28,2022-02-28,株式会社スカイスタッフエージェント,,株式会社,兵庫県,神戸市北区,藤原台北町１丁目１番４号,,28,109,6511301,,,,,,,2022-02-28,1,,,,,スカイスタッフエージェント,0
1756,7140003017392,新規,0,2022-02-28,2022-02-28,ＮＴＴ合同会社,,合同会社,兵庫県,神戸市東灘区,御影塚町４丁目１番４号シルバーハイツ御影５０７号,,28,101,6580044,,,,,,,2022-02-28,1,,,,,エヌティティ,0
1767,7180001150126,新規,0,2022-02-28,2022-02-28,株式会社アイラ,,株式会社,愛知県,一宮市,千秋町勝栗字下垂７番地５,,23,203,4910802,,,,,,,2022-02-28,1,,,,,アイラ,0
1791,7260001036572,新規,0,2022-02-28,2022-02-28,株式会社森農産,,株式会社,岡山県,瀬戸内市,長船町飯井２２７７番地１,,33,212,7014261,,,,,,,2022-02-28,1,,,,,モリノウサン,0
1801,7290001096548,新規,0,2022-02-28,2022-02-28,株式会社ＴｈｕｎｄｅｒＢｉｒｄ,,株式会社,福岡県,福岡市中央区,大手門２丁目４番３６号３０２,,40,133,8100074,,,,,,,2022-02-28,1,,,,,サンダーバード,0
1805,7290005018580,新規,0,2022-02-28,2022-02-28,一般社団法人九州沖縄グリーンプロジェクト,,その他の設立登記法人,福岡県,八女市,星野村１４２４０番地,,40,210,8340201,,,,,,,2022-02-28,1,,,,,キュウシュウオキナワグリーンプロジェクト,0
1810,7320001018894,新規,0,2022-02-28,2022-02-28,株式会社Ｒｕｃｉａ,,株式会社,大分県,津久見市,大字津久見５１１５番地の１,,44,207,8792421,,,,,,,2022-02-28,1,,,,,ルシア,0
1813,7330001029478,新規,0,2022-02-28,2022-02-28,株式会社明幸,,株式会社,熊本県,葦北郡津奈木町,大字福浜４３７６番地６（１階）,,43,484,8695605,,,,,,,2022-02-28,1,,,,,メイコウ,0
1820,7360001030053,新規,0,2022-02-28,2022-02-28,株式会社孝,,株式会社,沖縄県,島尻郡南風原町,字津嘉山１５０７番地１アルファスマート津嘉山６０２,,47,350,9011117,,,,,,,2022-02-28,1,,,,,コウ,0
1822,7360003011836,新規,0,2022-02-28,2022-02-28,Ｔｏｍａｎｄｉ合同会社,,合同会社,沖縄県,沖縄市,諸見里３丁目３３番２５号,,47,211,9040032,,,,,,,2022-02-28,1,,,,,トマンディ,0
1824,7370001048243,新規,0,2022-02-28,2022-02-28,株式会社三新工業,,株式会社,宮城県,石巻市,鹿妻南２丁目４番２１号,,04,202,9860042,,,,,,,2022-02-28,1,,,,,サンシンコウギョウ,0
1831,7390005008943,新規,0,2022-02-28,2022-02-28,農事組合法人Ｅ・Ｆ,,その他の設立登記法人,山形県,東置賜郡川西町,大字東大塚１１８２番地,,06,382,9920603,,,,,,,2022-02-28,1,,,,,イーエフ,0
1838,7430001086055,新規,0,2022-02-28,2022-02-28,株式会社ＳＯＬ,,株式会社,北海道,石狩市,花川南一条５丁目１１番地１,,01,235,0613201,,,,,,,2022-02-28,1,,,,,ソル,0
1839,7430001086071,新規,0,2022-02-28,2022-02-28,株式会社Ｉ．Ｂ,,株式会社,北海道,札幌市厚別区,青葉町１６丁目３－１サーム青葉９０６号室,,01,108,0040021,,,,,,,2022-02-28,1,,,,,アイビー,0
1849,7480001011660,新規,0,2022-02-28,2022-02-28,株式会社Ｒｅａｌｉｚｅ,,株式会社,徳島県,徳島市,国府町早淵４２５番地１,,36,201,7793125,,,,,,,2022-02-28,1,,,,,リアライズ,0
1857,8010001224382,新規,0,2022-02-28,2022-02-28,株式会社アグロスコンサルティング,,株式会社,東京都,千代田区,丸の内２丁目２番１号岸本ビルヂング６階,,13,101,1000005,,,,,,,2022-02-28,1,,,,,アグロスコンサルティング,0
1858,8010001224746,新規,0,2022-02-28,2022-02-28,株式会社イーグル２,,株式会社,東京都,千代田区,平河町２丁目４番８号,,13,101,1020093,,,,,,,2022-02-28,1,,,,,イーグルツー,0
1859,8010001224820,新規,0,2022-02-28,2022-02-28,株式会社未来デザイン,,株式会社,東京都,中央区,銀座４丁目１２番１９号,,13,102,1040061,,,,,,,2022-02-28,1,,,,,ミライデザイン,0
1860,8010001224853,新規,0,2022-02-28,2022-02-28,株式会社ＬＩＦＥ　ＳＴＵＤＹ　ＴＥＣＨＮＯＬＯＧＹ,,株式会社,東京都,中央区,銀座１丁目１２－４Ｎ＆Ｅビル７階,,13,102,1040061,,,,,,,2022-02-28,1,,,,,ライフスタディテクノロジー,0
1861,8010001224861,新規,0,2022-02-28,2022-02-28,羽田株式会社,,株式会社,東京都,中央区,東日本橋２丁目２８番５号５０８,,13,102,1030004,,,,,,,2022-02-28,1,,,,,ハダ,0
1862,8010005034646,新規,0,2022-02-28,2022-02-28,一般社団法人国際ランジェリー愛好家協会,,その他の設立登記法人,東京都,中央区,銀座１丁目２２－１１銀座大竹ビジデンス２Ｆ,,13,102,1040061,,,,,,,2022-02-28,1,,,,,コクサイランジェリーアイコウカキョウカイ,0
1870,8010401165763,新規,0,2022-02-28,2022-02-28,株式会社４Ｕ,,株式会社,東京都,港区,芝浦４丁目１２番４４号石川ビル,,13,103,1080023,,,,,,,2022-02-28,1,,,,,フォーユー,0
1871,8010401165771,新規,0,2022-02-28,2022-02-28,アマランサス株式会社,,株式会社,東京都,港区,赤坂８丁目５番４０号,,13,103,1070052,,,,,,,2022-02-28,1,,,,,アマランサス,0
1872,8010401165821,新規,0,2022-02-28,2022-02-28,株式会社ハローアセット,,株式会社,東京都,港区,芝２丁目２２番９－１２０４号,,13,103,1050014,,,,,,,2022-02-28,1,,,,,ハローアセット,0
1876,8010403027061,新規,0,2022-02-28,2022-02-28,合同会社Ｈｉｇｈ　Ｆｉｅｌｄ,,合同会社,東京都,港区,新橋２丁目２０－１５新橋駅前ビル１号館９ＦＳｅａＳｑｕａｒｅ内,,13,103,1050004,,,,,,,2022-02-28,1,,,,,ハイフィールド,0
1877,8010403027177,新規,0,2022-02-28,2022-02-28,Ｌｉｆｅｓｔｙｌｅ１合同会社,,合同会社,東京都,港区,六本木１丁目６番１号泉ガーデンタワー,,13,103,1060032,,,,,,,2022-02-28,1,,,,,ライフスタイルワン,0
1881,8010501048513,新規,0,2022-02-28,2022-02-28,Ｍａｒｓ　Ｔｅｃｈ株式会社,,株式会社,東京都,台東区,小島１丁目４－８ライオンマンション御徒町第三３０２号室,,13,106,1110056,,,,,,,2022-02-28,1,,,,,マルステック,0
1891,8010803004073,新規,0,2022-02-28,2022-02-28,合同会社ななし,,合同会社,東京都,大田区,西糀谷４丁目７番５号,,13,111,1440034,,,,,,,2022-02-28,1,,,,,ナナシ,0
1892,8010901050408,新規,0,2022-02-28,2022-02-28,株式会社ｅｍｐａ,,株式会社,東京都,世田谷区,池尻３丁目２１番１６－７０７号,,13,112,1540001,,,,,,,2022-02-28,1,,,,,エンパ,0
1893,8010901050432,新規,0,2022-02-28,2022-02-28,レスポンディオ株式会社,,株式会社,東京都,世田谷区,桜上水４丁目１番Ｈ１２０４,,13,112,1560045,,,,,,,2022-02-28,1,,,,,レスポンディオ,0
1896,8010903007174,新規,0,2022-02-28,2022-02-28,合同会社ＧｅｍＫａｍ,,合同会社,東京都,世田谷区,駒沢５丁目１７番１３号Ａ,,13,112,1540012,,,,,,,2022-02-28,1,,,,,ゲンカン,0
1904,8011001145866,新規,0,2022-02-28,2022-02-28,株式会社Ｉｎｄｕｓ,,株式会社,東京都,目黒区,八雲４丁目５番２号リストレジデンス八雲３０５,,13,110,1520023,,,,,,,2022-02-28,1,,,,,インダス,0
1910,8011101097917,新規,0,2022-02-28,2022-02-28,株式会社ＦＤＬコンサルタンツ,,株式会社,東京都,新宿区,高田馬場３丁目１番５号サンパティオ高田馬場３０９号室,,13,104,1690075,,,,,,,2022-02-28,1,,,,,エフディーエルコンサルタンツ,0
1911,8011201023665,新規,0,2022-02-28,2022-02-28,株式会社ＯＮＵＳ,,株式会社,東京都,中野区,野方５丁目３３－９コンポジット野方２０７,,13,114,1650027,,,,,,,2022-02-28,1,,,,,オンアス,0
1912,8011301027574,新規,0,2022-02-28,2022-02-28,Ｒ・Ｋ株式会社,,株式会社,東京都,杉並区,井草４丁目５番２号,,13,115,1670021,,,,,,,2022-02-28,1,,,,,アールケー,0
1922,8012401038890,新規,0,2022-02-28,2022-02-28,株式会社ヘチカン,,株式会社,東京都,三鷹市,野崎４丁目９番７号,,13,204,1810014,,,,,,,2022-02-28,1,,,,,ヘチカン,0
1923,8012401038899,新規,0,2022-02-28,2022-02-28,株式会社ｃｏｍ,,株式会社,東京都,三鷹市,下連雀７丁目７番１４－１０６号,,13,204,1810013,,,,,,,2022-02-28,1,,,,,コム,0
1924,8012403005253,新規,0,2022-02-28,2022-02-28,ＹＭＭＪ合同会社,,合同会社,東京都,稲城市,若葉台１丁目６２番地の４,,13,225,2060824,,,,,,,2022-02-28,1,,,,,ワイエムエムジェー,0
1930,8013301048732,新規,0,2022-02-28,2022-02-28,株式会社トゥワイス,,株式会社,東京都,豊島区,東池袋１丁目３４番５号いちご東池袋ビル６階,,13,116,1700013,,,,,,,2022-02-28,1,,,,,トゥワイス,0
1931,8013303006044,新規,0,2022-02-28,2022-02-28,ＭＷ　Ｅｎｔｅｒｔａｉｎｍｅｎｔ合同会社,,合同会社,東京都,豊島区,長崎６丁目２２番１２―２０１号,,13,116,1710051,,,,,,,2022-02-28,1,,,,,エムダブリューエンターテイメント,0
1938,8020001145339,新規,0,2022-02-28,2022-02-28,株式会社ＳＫＳ,,株式会社,神奈川県,横浜市港南区,笹下２丁目１９番１２号,,14,111,2340052,,,,,,,2022-02-28,1,,,,,エスケーエス,0
1939,8020001145371,新規,0,2022-02-28,2022-02-28,株式会社ティーエフティー,,株式会社,神奈川県,横浜市金沢区,六浦５丁目２６番１８号,,14,108,2360031,,,,,,,2022-02-28,1,,,,,ティーエフティー,0
1940,8020001145396,新規,0,2022-02-28,2022-02-28,株式会社ＬＡＫＯＴＡＮ,,株式会社,神奈川県,横浜市都筑区,川和台２０番２８号,,14,118,2240056,,,,,,,2022-02-28,1,,,,,ラコタン,0
1941,8020001145413,新規,0,2022-02-28,2022-02-28,株式会社Ｐｏｌｙｓｃａｐｅ,,株式会社,神奈川県,川崎市川崎区,港町５番３－１９２８号,,14,131,2100807,,,,,,,2022-02-28,1,,,,,ポリスケープ,0
1942,8020001145421,新規,0,2022-02-28,2022-02-28,ＲＣ株式会社,,株式会社,神奈川県,川崎市中原区,木月３丁目６－１５パインビレッジ３０２,,14,133,2110025,,,,,,,2022-02-28,1,,,,,アールシー,0
1945,8020003021348,新規,0,2022-02-28,2022-02-28,丹羽エンジニアリングコンサルタンシー合同会社,,合同会社,神奈川県,横浜市港北区,仲手原２丁目１７番４３号,,14,109,2220023,,,,,,,2022-02-28,1,,,,,ニワエンジニアリングコンサルタンシー,0
1946,8020003021356,新規,0,2022-02-28,2022-02-28,Ｔｓｕｔｓｕｉ合同会社,,合同会社,神奈川県,横浜市神奈川区,子安台２丁目８番３４号,,14,102,2210012,,,,,,,2022-02-28,1,,,,,ツツイ,0
1947,8020003021364,新規,0,2022-02-28,2022-02-28,合同会社２２３,,合同会社,神奈川県,横浜市都筑区,仲町台１丁目７番１２号ブリッジ弐番館４０１,,14,118,2240041,,,,,,,2022-02-28,1,,,,,ニーニーサン,0
1951,8021001075261,新規,0,2022-02-28,2022-02-28,株式会社ＢＯＮＤ,,株式会社,神奈川県,鎌倉市,西鎌倉１丁目１５番４号,,14,204,2480035,,,,,,,2022-02-28,1,,,,,ボンド,0
1952,8021001075278,新規,0,2022-02-28,2022-02-28,株式会社ＷＡＮＢ,,株式会社,神奈川県,南足柄市,塚原８６９―３,,14,217,2500117,,,,,,,2022-02-28,1,,,,,ワンビ,0
1953,8021001075294,新規,0,2022-02-28,2022-02-28,株式会社ＯｎｅＣ,,株式会社,神奈川県,藤沢市,南藤沢２３－８ＬＡＮＤＰＯＯＬＦＵＪＩＳＡＷＡ３階,,14,205,2510055,,,,,,,2022-02-28,1,,,,,ワンシー,0
1959,8021003011207,新規,0,2022-02-28,2022-02-28,合同会社ＫＲＫ,,合同会社,神奈川県,藤沢市,辻堂東海岸１丁目９番１４号,,14,205,2510045,,,,,,,2022-02-28,1,,,,,ケイアールケイ,0
1966,8030001146988,新規,0,2022-02-28,2022-02-28,株式会社新日本ネットワーク通信,,株式会社,埼玉県,川口市,戸塚１丁目４番７号,,11,203,3330811,,,,,,,2022-02-28,1,,,,,シンニホンネットワークツウシン,0
1967,8030001146996,新規,0,2022-02-28,2022-02-28,株式会社ＰＯＮＯＨＯＭＥ,,株式会社,埼玉県,川口市,中青木１丁目３番１６号,,11,203,3320032,,,,,,,2022-02-28,1,,,,,ポノホーム,0
1975,8040001122377,新規,0,2022-02-28,2022-02-28,株式会社ＳａｎＤａｉ,,株式会社,千葉県,君津市,東坂田３丁目４番１４号,,12,225,2991144,,,,,,,2022-02-28,1,,,,,サンダイ,0
1981,8050001050668,新規,0,2022-02-28,2022-02-28,あおい情報システム茨城株式会社,,株式会社,茨城県,東茨城郡大洗町,大貫町３番地の１,,08,309,3111311,,,,,,,2022-02-28,1,,,,,アオイジョウホウシステムイバラキ,0
1982,8050001050684,新規,0,2022-02-28,2022-02-28,ベンジャミンブランチ株式会社,,株式会社,茨城県,つくば市,吾妻２丁目５番地１,,08,220,3050031,,,,,,,2022-02-28,1,,,,,ベンジャミンブランチ,0
1988,8080001024784,新規,0,2022-02-28,2022-02-28,株式会社ＡＰ‐ＭＡＣ,,株式会社,静岡県,静岡市清水区,西久保４７２番地の４,,22,103,4240038,,,,,,,2022-02-28,1,,,,,エーピーマック,0
1994,8090001017432,新規,0,2022-02-28,2022-02-28,株式会社ゴールデンベリル,,株式会社,山梨県,南巨摩郡富士川町,鰍沢１１５番地３,,19,368,4000601,,,,,,,2022-02-28,1,,,,,ゴールデンベリル,0
2007,8120001244023,新規,0,2022-02-28,2022-02-28,株式会社リンク・パートナーズ,,株式会社,大阪府,大阪市西区,江之子島２丁目１番３７－２０１１号,,27,106,5500006,,,,,,,2022-02-28,1,,,,,リンクパートナーズ,0
2008,8120001244089,新規,0,2022-02-28,2022-02-28,パンクセラピー株式会社,,株式会社,大阪府,大阪市淀川区,西中島５丁目１２番１４号,,27,123,5320011,,,,,,,2022-02-28,1,,,,,パンクセラピー,0
2026,8130001071227,新規,0,2022-02-28,2022-02-28,株式会社ＪＩＬＩ,,株式会社,京都府,京都市中京区,室町通六角下る鯉山町５３０番地ゑび鈴ビル２Ｆ,,26,104,6048163,,,,,,,2022-02-28,1,,,,,ジリ,0
2046,8140001125023,新規,0,2022-02-28,2022-02-28,ｒｉｖｕｌｅｔ株式会社,,株式会社,兵庫県,神戸市東灘区,御影３丁目２番１１号－２０２２,,28,101,6580047,,,,,,,2022-02-28,1,,,,,リブレ,0
2047,8140001125031,新規,0,2022-02-28,2022-02-28,株式会社Ｐｅｏｐｌｅｗａｖｅｓ,,株式会社,兵庫県,神戸市東灘区,甲南町４丁目１３番１３－１００６号,,28,101,6580084,,,,,,,2022-02-28,1,,,,,ピープルウェーブス,0
2048,8140001125048,新規,0,2022-02-28,2022-02-28,株式会社ＳＨＩＭＩＺＵ－ＣｈｅｍＴｅｃｈ,,株式会社,兵庫県,赤穂市,松原町４番地１３,,28,212,6780228,,,,,,,2022-02-28,1,,,,,シミズケムテック,0
2049,8140001125056,新規,0,2022-02-28,2022-02-28,株式会社高倉保温工業所,00125823,株式会社,兵庫県,宝塚市,中山桜台６丁目１６番１－５０６号,,28,214,6650877,,,,,,,2022-02-28,1,,,,,タカクラホオンコウギョウショ,0
2065,8180001150117,新規,0,2022-02-28,2022-02-28,株式会社Ｌｉｎｋ,,株式会社,愛知県,名古屋市港区,油屋町４丁目１４番地の２,,23,111,4550815,,,,,,,2022-02-28,1,,,,,リンク,0
2066,8180001150125,新規,0,2022-02-28,2022-02-28,株式会社ＣｈａＲｍ,,株式会社,愛知県,名古屋市昭和区,阿由知通４丁目７番地グローバル御器所５Ｃ,,23,107,4660027,,,,,,,2022-02-28,1,,,,,チャーム,0
2073,8190001029161,新規,0,2022-02-28,2022-02-28,株式会社とあい,,株式会社,三重県,四日市市,栄町１番１１号くすの木ビル４Ｆ,,24,202,5100084,,,,,,,2022-02-28,1,,,,,トアイ,0
2078,8200001039786,新規,0,2022-02-28,2022-02-28,株式会社名城産業,,株式会社,岐阜県,土岐市,駄知町１９６８番地の１,,21,212,5095401,,,,,,,2022-02-28,1,,,,,メイジョウサンギョウ,0
2082,8220003003227,新規,0,2022-02-28,2022-02-28,ＭＵ合同会社,,合同会社,石川県,金沢市,馬替１丁目１０５‐５,,17,201,9218141,,,,,,,2022-02-28,1,,,,,エムユウ,0
2086,8240001059384,新規,0,2022-02-28,2022-02-28,株式会社富航紙業,,株式会社,広島県,東広島市,西条町御薗宇８５３９番地８,,34,212,7390024,,,,,,,2022-02-28,1,,,,,フソウシギョウ,0
2093,8260001036571,新規,0,2022-02-28,2022-02-28,株式会社サンビルド,,株式会社,岡山県,倉敷市,水島西千鳥町１番３３号,,33,202,7128065,,,,,,,2022-02-28,1,,,,,サンビルド,0
2098,8280001008643,新規,0,2022-02-28,2022-02-28,株式会社アイクリエイツ,,株式会社,島根県,出雲市,神門町３０９番地,,32,203,6930034,,,,,,,2022-02-28,1,,,,,アイクリエイツ,0
2100,8290001096547,新規,0,2022-02-28,2022-02-28,株式会社福岡ラボ,,株式会社,福岡県,福岡市博多区,諸岡５丁目２番２０号,,40,132,8120894,,,,,,,2022-02-28,1,,,,,フクオカラボ,0
2101,8290001096555,新規,0,2022-02-28,2022-02-28,株式会社理健通商,,株式会社,福岡県,福岡市西区,豊浜１丁目１３番１３号,,40,135,8190014,,,,,,,2022-02-28,1,,,,,リケンツウショウ,0
2102,8290001096563,新規,0,2022-02-28,2022-02-28,株式会社ＴＡＧＡＴＡＭＥ,,株式会社,福岡県,福岡市南区,桧原２丁目６６番３号,,40,134,8111355,,,,,,,2022-02-28,1,,,,,タガタメ,0
2104,8290003012196,新規,0,2022-02-28,2022-02-28,ネコノテ合同会社,,合同会社,福岡県,久留米市,篠山町１２番地３パーク・ノヴァ久留米中央３０５号,,40,203,8300021,,,,,,,2022-02-28,1,,,,,ネコノテ,0
2106,8290803004070,新規,0,2022-02-28,2022-02-28,合同会社心花,,合同会社,福岡県,鞍手郡鞍手町,大字永谷３３番地,,40,402,8071304,,,,,,,2022-02-28,1,,,,,ココハ,0
2117,8330005010474,新規,0,2022-02-28,2022-02-28,ＮＰＯ法人すまいる,,その他の設立登記法人,熊本県,菊池市,泗水町永１６３９番地１,,43,210,8611204,,,,,,,2022-02-28,1,,,,,スマイル,0
2120,8340003003719,新規,0,2022-02-28,2022-02-28,合同会社さわさ,,合同会社,鹿児島県,鹿屋市,寿８丁目２３番２３号,,46,203,8930014,,,,,,,2022-02-28,1,,,,,サワサ,0
2123,8360001030044,新規,0,2022-02-28,2022-02-28,株式会社富士自動車,,株式会社,沖縄県,宮古島市,平良字西里９１２番地１,,47,214,9060012,,,,,,,2022-02-28,1,,,,,フジジドウシャ,0
2143,8430001086046,新規,0,2022-02-28,2022-02-28,ファインドプロパティ株式会社,,株式会社,北海道,札幌市東区,北二十四条東１８丁目４番１号,,01,103,0650024,,,,,,,2022-02-28,1,,,,,ファインドプロパティ,0
2144,8430001086062,新規,0,2022-02-28,2022-02-28,Ｊａｐａｎ　Ｌｏｖｅ株式会社,,株式会社,北海道,札幌市北区,あいの里四条５丁目７番２６号,,01,102,0028074,,,,,,,2022-02-28,1,,,,,ジャパンラブ,0
2146,8430003013659,新規,0,2022-02-28,2022-02-28,北風ｗｏｒｋｓ合同会社,,合同会社,北海道,札幌市南区,石山東７丁目２番３７号,,01,106,0050850,,,,,,,2022-02-28,1,,,,,キタカゼワークス,0
2159,9010001224745,新規,0,2022-02-28,2022-02-28,株式会社中島コンサルタント,,株式会社,東京都,中央区,月島２丁目１０番１－２７０９号,,13,102,1040052,,,,,,,2022-02-28,1,,,,,ナカジマコンサルタント,0
2160,9010001224803,新規,0,2022-02-28,2022-02-28,ＣｏｐｕｔＡ株式会社,,株式会社,東京都,千代田区,神田佐久間河岸７８番地３柴田ビル３Ｆ,,13,101,1010026,,,,,,,2022-02-28,1,,,,,コピュタ,0
2161,9010001224844,新規,0,2022-02-28,2022-02-28,株式会社日本オッケーフーズ,,株式会社,東京都,中央区,東日本橋２丁目２８番４号日本橋ＣＥＴビル２階,,13,102,1030004,,,,,,,2022-02-28,1,,,,,ニホンオッケーフーズ,0
2162,9010001224860,新規,0,2022-02-28,2022-02-28,日本天樹株式会社,,株式会社,東京都,中央区,東日本橋２丁目２８番５号５０８,,13,102,1030004,,,,,,,2022-02-28,1,,,,,ニホンテンジュ,0
2163,9010001224902,新規,0,2022-02-28,2022-02-28,株式会社新タナチョー,,株式会社,東京都,中央区,日本橋室町３丁目２番１号,,13,102,1030022,,,,,,,2022-02-28,1,,,,,シンタナチョー,0
2164,9010005034637,新規,0,2022-02-28,2022-02-28,一般社団法人国際ストレス脳科学研究所,,その他の設立登記法人,東京都,千代田区,二番町１番地２,,13,101,1020084,,,,,,,2022-02-28,1,,,,,コクサイストレスノウカガクケンキュウショ,0
2165,9010101015078,新規,0,2022-02-28,2022-02-28,株式会社諏訪部商事,,株式会社,東京都,八王子市,散田町３丁目２０番３号,,13,201,1930832,,,,,,,2022-02-28,1,,,,,スワベショウジ,0
2174,9010401165770,新規,0,2022-02-28,2022-02-28,ワクワク株式会社,,株式会社,東京都,港区,芝公園２丁目１１番１号住友不動産芝公園タワー１Ｆ,,13,103,1050011,,,,,,,2022-02-28,1,,,,,ワクワク,0
2175,9010401165779,新規,0,2022-02-28,2022-02-28,Ａ＆Ｈマネジメント株式会社,,株式会社,東京都,港区,台場１丁目１番１－３２０７号,,13,103,1350091,,,,,,,2022-02-28,1,,,,,エーアンドエイチマネジメント,0
2176,9010401165820,新規,0,2022-02-28,2022-02-28,オンストリームジャパン株式会社,,株式会社,東京都,港区,芝１丁目７番１７号,,13,103,1050014,,,,,,,2022-02-28,1,,,,,オンストリームジャパン,0
2178,9010403027176,新規,0,2022-02-28,2022-02-28,境古河ファシリティ合同会社,,合同会社,東京都,港区,六本木１丁目６番１号泉ガーデンタワー,,13,103,1060032,,,,,,,2022-02-28,1,,,,,サカイコガファシリティ,0
2179,9010405020749,新規,0,2022-02-28,2022-02-28,一般社団法人ＨＤＧ３１,,その他の設立登記法人,東京都,港区,虎ノ門３丁目２２番１０－２０１号,,13,103,1050001,,,,,,,2022-02-28,1,,,,,エイチディージースリーワン,0
2188,9010701042281,新規,0,2022-02-28,2022-02-28,株式会社ＨＲクラス,,株式会社,東京都,品川区,西五反田１丁目１１番１号,,13,109,1410031,,,,,,,2022-02-28,1,,,,,エイチアールクラス,0
2192,9010901050423,新規,0,2022-02-28,2022-02-28,株式会社トラーム,,株式会社,東京都,世田谷区,下馬１丁目５４番１号ストリームハイツ３０１,,13,112,1540002,,,,,,,2022-02-28,1,,,,,トラーム,0
2193,9010901050431,新規,0,2022-02-28,2022-02-28,ＦｏｒＳｍｉｌｅｓ株式会社,,株式会社,東京都,世田谷区,岡本３丁目１８番１５－４０１号,,13,112,1570076,,,,,,,2022-02-28,1,,,,,フォースマイルズ,0
2197,9011001145774,新規,0,2022-02-28,2022-02-28,株式会社ＰＡＯＮ,,株式会社,東京都,渋谷区,神宮前２丁目２６番１０－３０１号,,13,113,1500001,,,,,,,2022-02-28,1,,,,,パオン,0
2198,9011001145790,新規,0,2022-02-28,2022-02-28,株式会社ＭＦＹ,,株式会社,東京都,渋谷区,広尾５丁目３番２号,,13,113,1500012,,,,,,,2022-02-28,1,,,,,エムエフワイ,0
2199,9011001145849,新規,0,2022-02-28,2022-02-28,ＡｔＤｕｓｋ株式会社,,株式会社,東京都,渋谷区,代官山町８番７号Ｄａｉｗａ代官山ビル１階,,13,113,1500034,,,,,,,2022-02-28,1,,,,,アットダスク,0
2200,9011001145873,新規,0,2022-02-28,2022-02-28,株式会社パワー,,株式会社,東京都,渋谷区,神宮前６丁目２３－４桑野ビル２Ｆ,,13,113,1500001,,,,,,,2022-02-28,1,,,,,パワー,0
2202,9011003014242,新規,0,2022-02-28,2022-02-28,合同会社ＹＭコーポレーション,,合同会社,東京都,渋谷区,恵比寿南１丁目８番３号,,13,113,1500022,,,,,,,2022-02-28,1,,,,,ワイエムコーポレーション,0
2203,9011005009422,新規,0,2022-02-28,2022-02-28,一般社団法人日本台湾まぜそば協会,,その他の設立登記法人,東京都,渋谷区,東２丁目２４－５渋谷東ビル３階,,13,113,1500011,,,,,,,2022-02-28,1,,,,,ニホンタイワンマゼソバキョウカイ,0
2204,9011101097899,新規,0,2022-02-28,2022-02-28,株式会社Ｃｏｍｐａｓｓ,,株式会社,東京都,新宿区,西新宿７丁目５番２０号,,13,104,1600023,,,,,,,2022-02-28,1,,,,,コンパス,0
2205,9011103011503,新規,0,2022-02-28,2022-02-28,合同会社Ｊ,,合同会社,東京都,新宿区,歌舞伎町１丁目１６番６号第６ポールスタービル７階７０１号室,,13,104,1600021,,,,,,,2022-02-28,1,,,,,ジェー,0
2211,9011301027524,新規,0,2022-02-28,2022-02-28,日本化粧品研究院株式会社,,株式会社,東京都,杉並区,天沼２丁目７番７号マンション大竹３０１,,13,115,1670032,,,,,,,2022-02-28,1,,,,,ニホンケショウヒンケンキュウイン,0
2217,9012401038849,新規,0,2022-02-28,2022-02-28,ララコリアインターナショナルジャパン株式会社,,株式会社,東京都,多摩市,豊ヶ丘５丁目１番地８－１０２,,13,224,2060031,,,,,,,2022-02-28,1,,,,,ララコリアインターナショナルジャパン,0
2218,9012401038898,新規,0,2022-02-28,2022-02-28,株式会社Ｍｉｎｄｉｆｙ,,株式会社,東京都,調布市,国領町４丁目３３番地２オーベルグランディオ調布国領１１４,,13,208,1820022,,,,,,,2022-02-28,1,,,,,マインディファイ,0
2219,9012401038907,新規,0,2022-02-28,2022-02-28,株式会社Ｐｒｏｔａｇｏｎｉｓｔｅ,,株式会社,東京都,調布市,菊野台１丁目２２番地４－３０１,,13,208,1820007,,,,,,,2022-02-28,1,,,,,プロタゴニスト,0
2220,9012801021421,新規,0,2022-02-28,2022-02-28,株式会社アイテック,,株式会社,東京都,日野市,神明１丁目３番地の１４コーポウエスト１０１,,13,212,1910016,,,,,,,2022-02-28,1,,,,,アイテック,0
2222,9013301048731,新規,0,2022-02-28,2022-02-28,Ｓｉｃｈ　Ｗｏｒｌｄ株式会社,,株式会社,東京都,豊島区,東池袋３丁目１５番５号,,13,116,1700013,,,,,,,2022-02-28,1,,,,,シーチワールド,0
2231,9020001145370,新規,0,2022-02-28,2022-02-28,アリス株式会社,,株式会社,神奈川県,横浜市神奈川区,金港町１番地１１－２３０５号,,14,102,2210056,,,,,,,2022-02-28,1,,,,,アリス,0
2232,9020001145379,新規,0,2022-02-28,2022-02-28,Ｒｉｇｅｌ株式会社,,株式会社,神奈川県,横浜市神奈川区,桐畑８番地３,,14,102,2210832,,,,,,,2022-02-28,1,,,,,リゲル,0
2233,9020001145412,新規,0,2022-02-28,2022-02-28,株式会社ｍａｋｅｗａｖｅｓ,,株式会社,神奈川県,横浜市港北区,新横浜２丁目３－１２新横浜スクエア１４Ｆ,,14,109,2220033,,,,,,,2022-02-28,1,,,,,メイクウェーブス,0
2234,9020001145420,新規,0,2022-02-28,2022-02-28,株式会社ＦＬＡＰ,,株式会社,神奈川県,横浜市瀬谷区,阿久和東４丁目４番地２,,14,114,2460023,,,,,,,2022-02-28,1,,,,,フラップ,0
2235,9020001145429,新規,0,2022-02-28,2022-02-28,ＬＧ株式会社,,株式会社,神奈川県,横浜市南区,永田山王台３－１６,,14,105,2320074,,,,,,,2022-02-28,1,,,,,,0
2236,9020001145437,新規,0,2022-02-28,2022-02-28,株式会社ＴＳＫ,,株式会社,神奈川県,川崎市川崎区,池上新町１丁目１番１０号ローヤルヒルズ４０３,,14,131,2100832,,,,,,,2022-02-28,1,,,,,ティーエスケー,0
2240,9020005015396,新規,0,2022-02-28,2022-02-28,一般社団法人ＡＳ‐ＳＨＯＬＩＨＩＮ　ＹＯＫＯＨＡＭＡ　ＦＯＵＮＤＡＴＩＯＮ,,その他の設立登記法人,神奈川県,横浜市緑区,霧が丘３丁目２６番地,,14,113,2260016,,,,,,,2022-02-28,1,,,,,アッソーリヒーンヨコハマファウンデーション,0
2243,9021001075285,新規,0,2022-02-28,2022-02-28,株式会社イナム,,株式会社,神奈川県,厚木市,関口４８５番地２０,,14,212,2430804,,,,,,,2022-02-28,1,,,,,イナム,0
2246,9021003011429,新規,0,2022-02-28,2022-02-28,合同会社Ｍ－ｆｌｕｖｉａ,,合同会社,神奈川県,藤沢市,鵠沼桜が岡３丁目１７番７号アクアシティ湘南２０１,,14,205,2510027,,,,,,,2022-02-28,1,,,,,エムフルービア,0
2247,9021003011437,新規,0,2022-02-28,2022-02-28,合同会社ラングザム,,合同会社,神奈川県,厚木市,毛利台２丁目２６番９号,,14,212,2430037,,,,,,,2022-02-28,1,,,,,ラングザム,0
2255,9030003018920,新規,0,2022-02-28,2022-02-28,合同会社ＲＥＥＦ,,合同会社,埼玉県,戸田市,大字新曽１５７番地８０２号,,11,224,3350021,,,,,,,2022-02-28,1,,,,,リーフ,0
2256,9030003018929,新規,0,2022-02-28,2022-02-28,合同会社Ｋｕｒｕｍａｚａｋａｓｈｉｔａ,,合同会社,埼玉県,越谷市,大字南荻島４０１６－１,,11,222,3430804,,,,,,,2022-02-28,1,,,,,クルマザカシタ,0
2260,9040001122319,新規,0,2022-02-28,2022-02-28,株式会社ＩＳＳＢＥ,,株式会社,千葉県,市川市,行徳駅前３丁目１５－１７,,12,203,2720133,,,,,,,2022-02-28,1,,,,,イズビ,0
2261,9040001122376,新規,0,2022-02-28,2022-02-28,ｈｏｓｐｉｔａｌｉｔｙ株式会社,,株式会社,千葉県,鎌ケ谷市,新鎌ケ谷１丁目１０番地２７号ＳＫビル六番館,,12,224,2730107,,,,,,,2022-02-28,1,,,,,ホスピタリティー,0
2262,9040003019562,新規,0,2022-02-28,2022-02-28,Ｆｕｎ＆Ｗｅａｌｔｈ合同会社,,合同会社,千葉県,市川市,曽谷８丁目２２番８号,,12,203,2720832,,,,,,,2022-02-28,1,,,,,ファンアンドウェルス,0
2263,9040003019570,新規,0,2022-02-28,2022-02-28,合同会社ヤオヒデ,,合同会社,千葉県,市川市,大和田２丁目１９－１４,,12,203,2720025,,,,,,,2022-02-28,1,,,,,ヤオヒデ,0
2266,9050001050691,新規,0,2022-02-28,2022-02-28,株式会社ＮＥＸＴＥＣ,,株式会社,茨城県,水戸市,住吉町１８２番地,,08,201,3100844,,,,,,,2022-02-28,1,,,,,ネクステック,0
2269,9050003006394,新規,0,2022-02-28,2022-02-28,合同会社ＴＲＮ　ＴＲＡＤＩＮＧ,,合同会社,茨城県,下妻市,田下５６４番地３,,08,210,3040812,,,,,,,2022-02-28,1,,,,,ティーアールエヌトレーディング,0
2278,9070001038982,新規,0,2022-02-28,2022-02-28,株式会社ＵＳ　ＴＲＡＤＩＮＧ,,株式会社,群馬県,前橋市,石倉町３丁目１４番地８グリーンハイツ石倉Ａ－１０５,,10,201,3710841,,,,,,,2022-02-28,1,,,,,ユーエストレーディング,0
2279,9070005009955,新規,0,2022-02-28,2022-02-28,ＮＰＯ法人つながりサポート群馬,,その他の設立登記法人,群馬県,藤岡市,本動堂４６５番地２,,10,209,3750051,,,,,,,2022-02-28,1,,,,,ツナガリサポートグンマ,0
2286,9090001017431,新規,0,2022-02-28,2022-02-28,株式会社Ｗｏｎｓｅｎｓｅ,,株式会社,山梨県,甲府市,里吉４丁目６番２６号グランヴィ南甲府１１２号,,19,201,4000822,,,,,,,2022-02-28,1,,,,,ワンセンス,0
2288,9100003006422,新規,0,2022-02-28,2022-02-28,合同会社プルグラ,,合同会社,長野県,松本市,大字岡田松岡２０４番６号,,20,202,3900312,,,,,,,2022-02-28,1,,,,,プルグラ,0
2290,9110001036461,新規,0,2022-02-28,2022-02-28,株式会社大橋,,株式会社,新潟県,長岡市,二日町３０７番地,,15,202,9400112,,,,,,,2022-02-28,1,,,,,オオハシ,0
2291,9110003004706,新規,0,2022-02-28,2022-02-28,阿賀野バイオ合同会社,,合同会社,新潟県,阿賀野市,かがやき５９１１番地２８,,15,223,9592206,,,,,,,2022-02-28,1,,,,,アガノバイオ,0
2296,9120001243940,新規,0,2022-02-28,2022-02-28,アンドエー株式会社,,株式会社,大阪府,大阪市中央区,淡路町３丁目１－１,,27,128,5410047,,,,,,,2022-02-28,1,,,,,アンドエー,0
2297,9120001244030,新規,0,2022-02-28,2022-02-28,株式会社くらの家,,株式会社,大阪府,大阪市住吉区,長居東４丁目２１番９号,,27,120,5580004,,,,,,,2022-02-28,1,,,,,クラノイエ,0
2298,9120001244047,新規,0,2022-02-28,2022-02-28,株式会社ＥＮＮＯＹＡ,,株式会社,大阪府,大阪市平野区,長吉長原西３丁目８番１号,,27,126,5470015,,,,,,,2022-02-28,1,,,,,エンノヤ,0
2299,9120001244096,新規,0,2022-02-28,2022-02-28,Ｄｇｒｏｕｐ株式会社,,株式会社,大阪府,大阪市西区,南堀江１丁目２６－１５－２８０７,,27,106,5500015,,,,,,,2022-02-28,1,,,,,ディーグループ,0
2303,9120003021196,新規,0,2022-02-28,2022-02-28,合同会社ＫＥＹＳＥＬ,,合同会社,大阪府,大阪市中央区,南本町２丁目３番１２号ＥＤＧＥ本町３階３１３,,27,128,5410054,,,,,,,2022-02-28,1,,,,,キーセル,0
2306,9120103004588,新規,0,2022-02-28,2022-02-28,合同会社ＫＳ　Ｄｒｅａｍｗｏｒｋ,,合同会社,大阪府,岸和田市,小松里町２０２４グランピア小松里２０１号,,27,202,5960821,,,,,,,2022-02-28,1,,,,,ケーエスドリームワーク,0
2313,9130001071218,新規,0,2022-02-28,2022-02-28,株式会社浅野企画,,株式会社,京都府,京都市北区,紫野南舟岡町５番地６１,,26,101,6038225,,,,,,,2022-02-28,1,,,,,アサノキカク,0
2314,9130001071226,新規,0,2022-02-28,2022-02-28,株式会社ＡＤＪＵＳＴ,,株式会社,京都府,八幡市,橋本糸ケ上５８番地の３,,26,210,6148349,,,,,,,2022-02-28,1,,,,,アジャスト,0
2325,9140001125030,新規,0,2022-02-28,2022-02-28,株式会社ＦＲＥＥ　ＯＮＥ,,株式会社,兵庫県,洲本市,本町３丁目２番３８号,,28,205,6560025,,,,,,,2022-02-28,1,,,,,フリーワン,0
2326,9140001125047,新規,0,2022-02-28,2022-02-28,株式会社ミライズ,,株式会社,兵庫県,神戸市中央区,三宮町３丁目８番１３号三澤ビルディング５階,,28,110,6500021,,,,,,,2022-02-28,1,,,,,ミライズ,0
2331,9140003017242,新規,0,2022-02-28,2022-02-28,合同会社Ｓｕｎｆｌｏｗｅｒ,,合同会社,兵庫県,宝塚市,中筋山手４丁目１４番８号,,28,214,6650875,,,,,,,2022-02-28,1,,,,,サンフラワー,0
2332,9140003017374,新規,0,2022-02-28,2022-02-28,合同会社Ａｂｉｅｓ,,合同会社,兵庫県,姫路市,北条宮の町２８７番地６,,28,201,6700948,,,,,,,2022-02-28,1,,,,,アビエス,0
2333,9140003017390,新規,0,2022-02-28,2022-02-28,介護サービスユアサイド合同会社,,合同会社,兵庫県,芦屋市,高浜町５番２－２２４号,,28,206,6590033,,,,,,,2022-02-28,1,,,,,カイゴサービスユアサイド,0
2334,9140005026051,新規,0,2022-02-28,2022-02-28,一般社団法人ソラシド,,その他の設立登記法人,兵庫県,神戸市須磨区,菅の台５丁目５番地８号棟４０５号,,28,107,6540143,,,,,,,2022-02-28,1,,,,,ソラシド,0
2337,9160003002498,新規,0,2022-02-28,2022-02-28,合同会社ＮＥＸＴ　ＤＲＥＡＭ,,合同会社,滋賀県,長浜市,宮司町１０９６番地３,,25,203,5260831,,,,,,,2022-02-28,1,,,,,ネクストドリーム,0
2342,9180001150108,新規,0,2022-02-28,2022-02-28,株式会社ＲｅＣｏｍ,,株式会社,愛知県,名古屋市北区,成願寺１丁目６番１号ザ・シーン城北アストロタワー１９０１,,23,103,4620021,,,,,,,2022-02-28,1,,,,,リーコム,0
2346,9180005019654,新規,0,2022-02-28,2022-02-28,一般社団法人ＺＥＲＯ　ｄｉｓｔａｎｃｅ,,その他の設立登記法人,愛知県,一宮市,千秋町加納馬場字高須１６番地,,23,203,4910811,,,,,,,2022-02-28,1,,,,,ゼロディスタンス,0
2347,9180301035958,新規,0,2022-02-28,2022-02-28,株式会社ＫＡＲＴＳ,,株式会社,愛知県,みよし市,みなよし台２番地１１,,23,236,4700215,,,,,,,2022-02-28,1,,,,,カーツ,0
2365,9290001096554,新規,0,2022-02-28,2022-02-28,株式会社ＺＥＲＯ,,株式会社,福岡県,糟屋郡粕屋町,仲原３丁目３番８－３０６号ラ・シルエーラ,,40,349,8112304,,,,,,,2022-02-28,1,,,,,ゼロ,0
2366,9290001096562,新規,0,2022-02-28,2022-02-28,ラストネクスト株式会社,,株式会社,福岡県,福岡市中央区,那の川２丁目７番２１号,00125813,40,133,8100015,,,,,,,2022-02-28,1,,,,,ラストネクスト,0
2367,9290001096570,新規,0,2022-02-28,2022-02-28,株式会社エムワイジー,,株式会社,福岡県,那珂川市,松木６丁目１３番２号,,40,231,8111251,,,,,,,2022-02-28,1,,,,,エムワイジー,0
2375,9290003012187,新規,0,2022-02-28,2022-02-28,アイルミナス合同会社,,合同会社,福岡県,福岡市城南区,田島２丁目１２番１６号,,40,136,8140113,,,,,,,2022-02-28,1,,,,,アイルミナス,0
2376,9290003012195,新規,0,2022-02-28,2022-02-28,合同会社えがおスポーツ,,合同会社,福岡県,福岡市城南区,南片江２丁目２４番２０号,,40,136,8140143,,,,,,,2022-02-28,1,,,,,エガオスポーツ,0
2377,9290801028285,新規,0,2022-02-28,2022-02-28,株式会社ＪＥＣ,,株式会社,福岡県,北九州市若松区,青葉台西５丁目２２番５号,,40,103,8080143,,,,,,,2022-02-28,1,,,,,ジェイイーシー,0
2381,9340001024518,新規,0,2022-02-28,2022-02-28,株式会社とみよし塗工,,株式会社,鹿児島県,鹿児島市,中山町３１７番地１４,,46,201,8910105,,,,,,,2022-02-28,1,,,,,トミヨシトコウ,0
2385,9360001030043,新規,0,2022-02-28,2022-02-28,株式会社太新沖縄,,株式会社,沖縄県,糸満市,西崎町４丁目１６番１８号,,47,210,9010306,,,,,,,2022-02-28,1,,,,,タイシンオキナワ,0
2386,9360003011834,新規,0,2022-02-28,2022-02-28,ＮａｏＤｒｅａｍ合同会社,,合同会社,沖縄県,那覇市,繁多川３丁目７番１３号,,47,201,9020071,,,,,,,2022-02-28,1,,,,,ナオドリーム,0
2391,9380003005108,新規,0,2022-02-28,2022-02-28,合同会社歩く東北研究所,,合同会社,福島県,二本松市,岳温泉１丁目１０４番地,,07,210,9640074,,,,,,,2022-02-28,1,,,,,アルクトウホクケンキュウショ,0
2394,9400001015790,新規,0,2022-02-28,2022-02-28,高宮第３産業株式会社,,株式会社,岩手県,八幡平市,松尾寄木第１地割６６７番地２,,03,214,0287302,,,,,,,2022-02-28,1,,,,,タカミヤダイサンサンギョウ,0
2402,9430001086053,新規,0,2022-02-28,2022-02-28,株式会社スタジオひつじ,,株式会社,北海道,札幌市中央区,宮の森一条５丁目１番１２号,,01,101,0640951,,,,,,,2022-02-28,1,,,,,スタジオヒツジ,0
2415,9490003001632,新規,0,2022-02-28,2022-02-28,合同会社美志,,合同会社,高知県,高知市,神田７５９番地１３,,39,201,7808040,,,,,,,2022-02-28,1,,,,,,0
2417,9500001024022,新規,0,2022-02-28,2022-02-28,森永シート株式会社,,株式会社,愛媛県,松山市,南吉田町３６２番地５,,38,201,7918042,,,,,,,2022-02-28,1,,,,,モリナガシート,0
