sequenceNumber,corporateNumber,process,correct,updateDate,changeDate,name,nameImageId,kind,prefectureName,cityName,streetNumber,addressImageId,prefectureCode,cityCode,postCode,addressOutside,addressOutsideImageId,closeDate,closeCause,successorCorporateNumber,changeCause,assignmentDate,latest,enName,enPrefectureName,enCityName,enAddressOutside,furigana,hihyoji
5,1010001202097,登記記録の閉鎖等,0,2024-04-03,2024-03-25,株式会社ＷＸＡコンサルティング,,株式会社,東京都,渋谷区,恵比寿４丁目２０番４号,,13,113,1500013,,,2024-03-25,合併による解散等,3010001196882,令和６年２月２９日東京都渋谷区恵比寿四丁目２０番４号株式会社Ｗｅｌｌｎｅｓｓ　Ｘ　Ａｓｉａ（3010001196882）に合併し解散,2019-07-03,1,,,,,ダブルエックスエーコンサルティング,0
14,1010401119057,登記記録の閉鎖等,0,2024-04-03,2024-03-22,Ｒａｍｅｎ　Ｈｅｒｏ　Ｊａｐａｎ株式会社,,株式会社,東京都,港区,新橋１丁目１８番２号,,13,103,1050004,,,2024-03-22,清算の結了等,,,2015-10-05,1,,,,,ラーメンヒーロージャパン,0
20,1010403013571,登記記録の閉鎖等,0,2024-04-03,2024-03-28,茂原太陽光発電合同会社,,合同会社,東京都,千代田区,神田猿楽町１丁目５番１号,,13,101,1010064,,,2024-03-28,清算の結了等,,,2015-10-05,1,,,,,モバラタイヨウコウハツデン,0
59,1011802027179,登記記録の閉鎖等,0,2024-04-03,2024-04-01,有限会社エス・ピー防災,,有限会社,東京都,葛飾区,鎌倉２丁目５番９号,,13,122,1250053,,,2024-04-01,清算の結了等,,,2015-10-05,1,,,,,エスピーボウサイ,0
62,1012402020045,登記記録の閉鎖等,0,2024-04-03,2024-03-27,有限会社エム,,有限会社,東京都,武蔵野市,吉祥寺本町３丁目２４番３号ユニーブル吉祥寺３０５,,13,203,1800004,,,2024-03-27,清算の結了等,,,2015-10-05,1,,,,,エム,0
105,1050001009159,登記記録の閉鎖等,0,2024-04-03,2024-03-27,株式会社サクランボかわかみ,,株式会社,東京都,千代田区,丸の内２丁目２番１号岸本ビル８１５区,,13,101,1000005,,,2024-03-27,清算の結了等,,,2015-10-05,1,,,,,サクランボカワカミ,0
121,1070001012425,登記記録の閉鎖等,0,2024-04-03,2024-03-29,坂本産業株式会社,,株式会社,群馬県,藤岡市,中１５５番地８,,10,209,3750005,,,2024-03-29,清算の結了等,,,2015-10-05,1,,,,,サカモトサンギョウ,0
125,1070002002409,登記記録の閉鎖等,0,2024-04-03,2024-04-01,有限会社里見板金錺工業所,,有限会社,群馬県,前橋市,文京町３丁目２８番１３号,,10,201,3710801,,,2024-04-01,清算の結了等,,,2015-10-05,1,,,,,サトミバンキンカザリコウギョウショ,0
127,1070002036753,登記記録の閉鎖等,0,2024-04-03,2024-03-28,富貴堂製菓有限会社,,有限会社,東京都,練馬区,石神井町８丁目２２－１５,,13,120,1770041,,,2024-03-28,清算の結了等,,,2015-10-05,1,,,,,フキドウセイカ,0
139,1100002017428,登記記録の閉鎖等,0,2024-04-03,2024-03-26,有限会社池田薬局,,有限会社,長野県,下高井郡野沢温泉村,大字豊郷９５１８番地２,,20,563,3892502,,,2024-03-26,清算の結了等,,,2015-10-05,1,,,,,イケダヤッキョク,0
154,1120902000621,登記記録の閉鎖等,0,2024-04-03,2024-04-01,ケーエスケー企画有限会社,,有限会社,大阪府,茨木市,星見町７番１５号,,27,211,5670843,,,2024-04-01,清算の結了等,,,2015-10-05,1,,,,,ケーエスケーキカク,0
155,1120902005141,登記記録の閉鎖等,0,2024-04-03,2024-03-28,アルジェント有限会社,,有限会社,大阪府,大阪市西区,西本町１丁目１３番３７号,,27,106,5500005,,,2024-03-28,清算の結了等,,,2015-10-05,1,,,,,アルジェント,0
169,1140001104504,登記記録の閉鎖等,0,2024-04-03,2024-03-29,陸網技研工業株式会社,,株式会社,兵庫県,丹波市,氷上町桟敷４８９番地１,,28,223,6693652,,,2024-03-29,清算の結了等,,,2016-12-27,1,,,,,リクモウギケンコウギョウ,0
189,1220001011460,登記記録の閉鎖等,0,2024-04-03,2024-04-01,株式会社ダイヤモンドドアー,,株式会社,石川県,野々市市,堀内５丁目７５番地,,17,212,9218844,,,2024-04-01,清算の結了等,,,2015-10-05,1,,,,,ダイヤモンドドアー,0
194,1250002019698,登記記録の閉鎖等,0,2024-04-03,2024-04-01,山陽ビルト有限会社,,有限会社,山口県,柳井市,柳井５６３５番地の１,,35,212,7420021,,,2024-04-01,清算の結了等,,,2015-10-05,1,,,,,サンヨウビルト,0
221,1360003008565,登記記録の閉鎖等,0,2024-04-03,2024-04-01,合同会社勝丸,,合同会社,沖縄県,那覇市,山下町２４番２９号,,47,201,9000027,,,2024-04-01,清算の結了等,,,2017-12-26,1,,,,,カツマル,0
225,1370002002147,登記記録の閉鎖等,0,2024-04-03,2024-03-28,有限会社東北技術サービス,,有限会社,宮城県,仙台市泉区,南光台５丁目１６番５号,,04,105,9818003,,,2024-03-28,清算の結了等,,,2015-10-05,1,,,,,トウホクギジュツサービス,0
241,1480002010650,登記記録の閉鎖等,0,2024-04-03,2024-04-01,有限会社藤進,,有限会社,徳島県,鳴門市,鳴門町高島字北５５３番地,,36,202,7720051,,,2024-04-01,清算の結了等,,,2015-10-05,1,,,,,トウシン,0
289,2011003001949,登記記録の閉鎖等,0,2024-04-03,2024-03-26,合同会社シブヤ,,合同会社,東京都,渋谷区,恵比寿西２丁目１７番２０号,,13,113,1500021,,,2024-03-26,清算の結了等,,,2015-10-05,1,,,,,シブヤ,0
293,2011101088013,登記記録の閉鎖等,0,2024-04-03,2024-03-29,株式会社ｉｎｃｅｎｓｅ,,株式会社,神奈川県,川崎市多摩区,宿河原２丁目１１番４号ハイツオオヌキ１０１,,14,135,2140021,,,2024-03-29,清算の結了等,,,2019-06-13,1,,,,,インセンス,0
295,2011201018002,登記記録の閉鎖等,0,2024-04-03,2024-04-01,ＴＪＪ株式会社,,株式会社,東京都,中野区,本町３丁目８番３号,,13,114,1640012,,,2024-04-01,清算の結了等,,,2015-10-05,1,,,,,ティージェイジェイ,0
323,2021001028877,登記記録の閉鎖等,0,2024-04-03,2024-04-02,株式会社ミサワツーリスト,,株式会社,神奈川県,海老名市,国分寺台３丁目１２番１６号,,14,215,2430413,,,2024-04-02,清算の結了等,,,2015-10-05,1,,,,,ミサワツーリスト,0
370,2110001005183,登記記録の閉鎖等,0,2024-04-03,2024-03-29,堀正建設株式会社,,株式会社,新潟県,新潟市中央区,南出来島１丁目１６番３号,,15,103,9500963,,,2024-03-29,清算の結了等,,,2015-10-05,1,,,,,ホリショウケンセツ,0
389,2130001004381,登記記録の閉鎖等,0,2024-04-03,2024-04-01,株式会社上野富三商店,,株式会社,京都府,京都市北区,平野上八丁柳町３４番地,,26,101,6038353,,,2024-04-01,清算の結了等,,,2015-10-05,1,,,,,ウエノトミゾウショウテン,0
395,2130001056101,登記記録の閉鎖等,0,2024-04-03,2024-04-01,株式会社Ｓｉｒｉｕｓ,,株式会社,京都府,福知山市,土師新町３丁目４８番地,,26,201,6200855,,,2024-04-01,清算の結了等,,,2015-10-05,1,,,,,,0
402,2140001086667,登記記録の閉鎖等,0,2024-04-03,2024-03-29,株式会社モバイルクレーンサポート,,株式会社,兵庫県,三木市,別所町興治１０７番地,,28,215,6730442,,,2024-03-29,清算の結了等,,,2015-10-05,1,,,,,モバイルクレーンサポート,0
409,2150002011895,登記記録の閉鎖等,0,2024-04-03,2024-03-29,有限会社ダイヤハウス,,有限会社,奈良県,天理市,南六条町元六条方１４９番地１,,29,204,6320098,,,2024-03-29,清算の結了等,,,2024-02-15,1,,,,,ダイヤハウス,0
429,2220001007706,登記記録の閉鎖等,0,2024-04-03,2024-03-29,ノト産業株式会社,,株式会社,石川県,金沢市,高岡町４番２１号,,17,201,9200864,,,2024-03-29,清算の結了等,,,2015-10-05,1,,,,,ノトサンギョウ,0
441,2250002008989,登記記録の閉鎖等,0,2024-04-03,2024-04-01,有限会社ゴトウ設備,,有限会社,山口県,下関市,古屋町２丁目３番２２号,,35,201,7510847,,,2024-04-01,清算の結了等,,,2015-10-05,1,,,,,ゴトウセツビ,0
449,2290003013118,登記記録の閉鎖等,0,2024-04-03,2024-03-19,Ｄ＆Ｐ合同会社,,合同会社,福岡県,福岡市中央区,清川３丁目１２－１福岡リバーキャッスル２１６号,,40,133,8100005,,,2024-03-19,清算の結了等,,,2022-10-31,1,,,,,ディーアンドピー,0
467,2340005007789,登記記録の閉鎖等,0,2024-04-03,2024-04-01,一般社団法人南日本福祉・就労支援協会,,その他の設立登記法人,鹿児島県,鹿児島市,下荒田２丁目７番１４号久木留ビル１Ｆ,,46,201,8900056,,,2024-04-01,清算の結了等,,,2015-10-05,1,,,,,ミナミニホンフクシシュウロウシエンキョウカイ,0
472,2360002012261,登記記録の閉鎖等,0,2024-04-03,2024-04-01,有限会社ピー・ケイ・シー薬局,,有限会社,沖縄県,沖縄市,知花５丁目１３番２８号,,47,211,9042143,,,2024-04-01,合併による解散等,5360001008027,令和６年４月１日沖縄県沖縄市字登川４４８番地１株式会社薬正堂（5360001008027）に合併し解散,2015-10-05,1,,,,,ピーケイシーヤッキョク,0
476,2390001006237,登記記録の閉鎖等,0,2024-04-03,2024-03-27,酒田チップ工業株式会社,,株式会社,山形県,酒田市,北浜町１番１号,,06,204,9980072,,,2024-03-27,清算の結了等,,,2015-10-05,1,,,,,サカタチップコウギョウ,0
480,2410005003715,登記記録の閉鎖等,0,2024-04-03,2024-03-27,二ツ井町小繋生産森林組合,,その他の設立登記法人,秋田県,能代市,二ツ井町小繋字神明社下２２番地,00087187,05,202,0183102,,,2024-03-27,清算の結了等,,,2015-10-05,1,,,,,フタツイマチコツナギ,0
488,2460102002648,登記記録の閉鎖等,0,2024-04-03,2024-03-29,有限会社ノムラビル管理,,有限会社,北海道,河西郡芽室町,西七条６丁目１番地１,,01,637,0820037,,,2024-03-29,清算の結了等,,,2015-10-05,1,,,,,ノムラビルカンリ,0
502,3010001198078,登記記録の閉鎖等,0,2024-04-03,2024-03-27,Ｃｅｒｅｓ株式会社,,株式会社,東京都,千代田区,永田町２丁目１４番２号山王グランドビル３階スリーアイズキャピタル株式会社内,,13,101,1000014,,,2024-03-27,清算の結了等,,,2019-01-25,1,,,,,セレス,0
512,3010003017013,登記記録の閉鎖等,0,2024-04-03,2024-03-27,合同会社リックスレリア,,合同会社,東京都,中央区,日本橋１丁目４番１号日本橋一丁目ビルディング,,13,102,1030027,,,2024-03-27,清算の結了等,,,2015-10-05,1,,,,,リックスレリア,0
525,3010403013693,登記記録の閉鎖等,0,2024-04-03,2024-03-28,茂原太陽光事業所合同会社,,合同会社,東京都,千代田区,神田猿楽町１丁目５番１号,,13,101,1010064,,,2024-03-28,清算の結了等,,,2015-10-05,1,,,,,モバラタイヨウコウジギョウショ,0
526,3010403013751,登記記録の閉鎖等,0,2024-04-03,2024-03-28,Ｂｌｕｅ　Ｐｌａｎｅｔ０７合同会社,,合同会社,東京都,千代田区,神田猿楽町１丁目５番１号,,13,101,1010064,,,2024-03-28,清算の結了等,,,2015-10-05,1,,,,,ブループラネットゼロナナ,0
540,3011101009414,登記記録の閉鎖等,0,2024-04-03,2024-03-28,住宅サービス株式会社,,株式会社,東京都,新宿区,新宿３丁目２４番１号三井住友銀行新宿ビル６階,,13,104,1600022,,,2024-03-28,清算の結了等,,,2016-04-18,1,,,,,ジュウタクサービス,0
554,3011305001613,登記記録の閉鎖等,0,2024-04-03,2024-03-28,特定非営利活動法人互楽会,,その他の設立登記法人,東京都,杉並区,和泉４丁目３０番１４号,,13,115,1680063,,,2024-03-28,清算の結了等,,,2015-10-05,1,,,,,ゴラクカイ,0
566,3011802019141,登記記録の閉鎖等,0,2024-04-03,2024-03-28,有限会社三田商店,,有限会社,東京都,足立区,東和４丁目１６番３号,,13,121,1200003,,,2024-03-28,清算の結了等,,,2015-10-05,1,,,,,,0
579,3021001022482,登記記録の閉鎖等,0,2024-04-03,2024-04-01,郡司住宅産業株式会社,,株式会社,神奈川県,秦野市,今泉２０９１番地の１,,14,211,2570014,,,2024-04-01,清算の結了等,,,2015-10-05,1,,,,,グンジジュウタクサンギョウ,0
580,3021001034627,登記記録の閉鎖等,0,2024-04-03,2024-04-01,株式会社鍼灸小田原治療室,,株式会社,神奈川県,小田原市,板橋８６番地６,,14,206,2500034,,,2024-04-01,清算の結了等,,,2015-10-05,1,,,,,シンキュウオダワラチリョウシツ,0
589,3030002041656,登記記録の閉鎖等,0,2024-04-03,2024-03-28,有限会社川辺鐵工,,有限会社,埼玉県,羽生市,大字中岩瀬１２７７番地１,,11,216,3480046,,,2024-03-28,清算の結了等,,,2015-10-05,1,,,,,カワベテッコウ,0
622,3100002001041,登記記録の閉鎖等,0,2024-04-03,2024-03-27,有限会社オフィスエヌエムエス,,有限会社,長野県,長野市,大字西尾張部１０３１番地９,,20,201,3810031,,,2024-03-27,清算の結了等,,,2015-10-05,1,,,,,オフィスエヌエムエス,0
629,3120001211382,登記記録の閉鎖等,0,2024-04-03,2024-03-29,株式会社ｒ－ｃｏｒｐｏｒａｔｉｏｎ,,株式会社,大阪府,大阪市東住吉区,山坂５丁目１２番２号,,27,121,5460035,,,2024-03-29,清算の結了等,,,2018-02-16,1,,,,,アールコーポレーション,0
648,3130001019899,登記記録の閉鎖等,0,2024-04-03,2024-04-02,株式会社以和貴,,株式会社,京都府,京都市中京区,室町通蛸薬師下る山伏山町５４０番地,00035729,26,104,6048156,,,2024-04-02,清算の結了等,,,2015-10-05,1,,,,,イワキ,0
653,3140001021045,登記記録の閉鎖等,0,2024-04-03,2024-04-01,株式会社オクムラ,,株式会社,兵庫県,芦屋市,楠町１０番２－３０６号,,28,206,6590015,,,2024-04-01,清算の結了等,,,2015-10-05,1,,,,,オクムラ,0
674,3180005007565,登記記録の閉鎖等,0,2024-04-03,2024-03-29,特定非営利活動法人おたすけ,,その他の設立登記法人,愛知県,北名古屋市,鹿田１７５１番地２グリーンシティＢ－９０２,,23,234,4810004,,,2024-03-29,清算の結了等,,,2015-10-05,1,,,,,オタスケ,0
675,3180302010123,登記記録の閉鎖等,0,2024-04-03,2024-03-27,有限会社ミヤ,,有限会社,愛知県,豊橋市,栄町３７番地,,23,201,4400042,,,2024-03-27,清算の結了等,,,2015-10-05,1,,,,,ミヤ,0
677,3200001031780,登記記録の閉鎖等,0,2024-04-03,2024-04-01,株式会社アイエス,,株式会社,岐阜県,各務原市,蘇原旭町２丁目３５番地,,21,213,5040824,,,2024-04-01,清算の結了等,,,2015-10-05,1,,,,,アイエス,0
693,3240005002758,登記記録の閉鎖等,0,2024-04-03,2024-04-01,特定非営利活動法人中国・地域づくりハウス,,その他の設立登記法人,広島県,広島市中区,基町５番４４号,,34,101,7300011,,,2024-04-01,清算の結了等,,,2015-10-05,1,,,,,チュウゴクチイキヅクリハウス,0
695,3260002011743,登記記録の閉鎖等,0,2024-04-03,2024-04-01,有限会社グッドパートナー,,有限会社,岡山県,岡山市中区,江並３７５番地の１,,33,102,7028004,,,2024-04-01,清算の結了等,,,2015-10-05,1,,,,,グッドパートナー,0
697,3280005000155,登記記録の閉鎖等,0,2024-04-03,2024-04-01,一般社団法人島根県物産協会,,その他の設立登記法人,島根県,松江市,殿町１９１番地,,32,201,6900887,,,2024-04-01,合併による解散等,6280005007544,令和６年４月１日島根県松江市殿町１９１番地一般財団法人島根県物産協会（6280005007544）に合併し解散,2015-10-05,1,,,,,シマネケンブッサンキョウカイ,0
742,3460303000391,登記記録の閉鎖等,0,2024-04-03,2024-04-01,合同会社ＷＥＢ　ＬＥＡＰ,,合同会社,北海道,網走市,台町３丁目４番２４号,,01,211,0930031,,,2024-04-01,清算の結了等,,,2015-10-05,1,,,,,,0
749,3700150110269,削除,,2024-04-03,,,,,,,,,,,,,,,,,,,,,,,,,
750,4010001050502,登記記録の閉鎖等,0,2024-04-03,2024-03-28,築食株式会社,,株式会社,東京都,中央区,新川１丁目１７番２５号,,13,102,1040033,,,2024-03-28,清算の結了等,,,2015-10-05,1,,,,,ツキショク,0
751,4010001131830,登記記録の閉鎖等,0,2024-04-03,2024-03-28,株式会社サムシングフォーユー,,株式会社,埼玉県,ふじみ野市,上福岡１丁目１０番２号,,11,245,3560004,,,2024-03-28,清算の結了等,,,2015-10-05,1,,,,,サムシングフォーユー,0
754,4010001200536,登記記録の閉鎖等,0,2024-04-03,2024-03-27,ＩＴｂｏｏｋ　Ｃａｐｉｔａｌ株式会社,,株式会社,東京都,中央区,日本橋茅場町２丁目８番４号,,13,102,1030025,,,2024-03-27,清算の結了等,,,2019-05-09,1,,,,,アイティブックキャピタル,0
774,4010403013750,登記記録の閉鎖等,0,2024-04-03,2024-03-28,Ｂｌｕｅ　Ｐｌａｎｅｔ０８合同会社,,合同会社,東京都,千代田区,神田猿楽町１丁目５番１号,,13,101,1010064,,,2024-03-28,清算の結了等,,,2015-10-05,1,,,,,ブループラネットゼロハチ,0
779,4010603009053,登記記録の閉鎖等,0,2024-04-03,2024-03-29,合同会社ＢＥＬＬ,,合同会社,東京都,江東区,南砂５丁目１７番１号グランヴァリエ五色月１０２,,13,108,1360076,,,2024-03-29,清算の結了等,,,2021-07-20,1,,,,,ベル,0
783,4010701001102,登記記録の閉鎖等,0,2024-04-03,2024-03-27,株式会社イワノ,,株式会社,東京都,千代田区,丸の内１丁目８番２号,,13,101,1000005,,,2024-03-27,清算の結了等,,,2015-10-05,1,,,,,イワノ,0
807,4011801017137,登記記録の閉鎖等,0,2024-04-03,2024-04-01,株式会社菱亜,,株式会社,東京都,葛飾区,東金町７丁目５番４号２０２号室,,13,122,1250041,,,2024-04-01,合併による解散等,7011801002284,令和６年４月１日東京都葛飾区東金町七丁目５番４号２０２号室株式会社白木屋（7011801002284）に合併し解散,2015-10-05,1,,,,,リョウア,0
808,4011801024876,登記記録の閉鎖等,0,2024-04-03,2024-04-02,森下や株式会社,,株式会社,東京都,足立区,東和４丁目１番２２号,,13,121,1200003,,,2024-04-02,清算の結了等,,,2015-10-05,1,,,,,モリシタヤ,0
843,4070001028435,登記記録の閉鎖等,0,2024-04-03,2024-03-29,株式会社アクアサポート,,株式会社,群馬県,前橋市,田口町１９３番地,,10,201,3710048,,,2024-03-29,清算の結了等,,,2015-10-05,1,,,,,アクアサポート,0
878,4130001026655,登記記録の閉鎖等,0,2024-04-03,2024-04-01,吉忠フロンティア株式会社,,株式会社,京都府,京都市中京区,御池通高倉西入綿屋町５２５番地,,26,104,6048181,,,2024-04-01,合併による解散等,6130001028096,令和６年４月１日京都市中京区御池通高倉西入綿屋町５２５番地吉忠ファッション株式会社（6130001028096）に合併し解散,2015-10-05,1,,,,,ヨシチュウフロンティア,0
904,4180001112533,登記記録の閉鎖等,0,2024-04-03,2024-03-27,株式会社アセンド,,株式会社,愛知県,名古屋市天白区,横町６１２番地,,23,116,4680054,,,2024-03-27,清算の結了等,,,2015-10-05,1,,,,,アセンド,0
905,4180001133942,登記記録の閉鎖等,0,2024-04-03,2024-03-27,リシェルホーム株式会社,,株式会社,愛知県,名古屋市緑区,鳴海町字前之輪２２２番地の２,,23,114,4580834,,,2024-03-27,清算の結了等,,,2018-10-09,1,,,,,リシェルホーム,0
916,4200001012771,登記記録の閉鎖等,0,2024-04-03,2024-04-01,株式会社のぞみ,,株式会社,岐阜県,岐阜市,茜部中島１丁目３８番地の２,,21,201,5008269,,,2024-04-01,合併による解散等,7200001035844,令和６年４月１日岐阜市金町七丁目１０番地株式会社Ｙｏｕ　Ｍｏｒｅ　Ｓｍｉｌｅ（7200001035844）に合併し解散,2015-10-05,1,,,,,ノゾミ,0
927,4240001009657,登記記録の閉鎖等,0,2024-04-03,2024-04-01,広島輸送株式会社,,株式会社,広島県,広島市南区,宇品海岸３丁目１３番２８号,,34,103,7340011,,,2024-04-01,合併による解散等,3240001009162,令和６年４月１日広島市南区宇品海岸三丁目１３番２８号株式会社カイソー（3240001009162）に合併し解散,2015-10-05,1,,,,,ヒロシマユソウ,0
947,4310001010161,登記記録の閉鎖等,0,2024-04-03,2024-03-29,株式会社山下愛敬堂,,株式会社,長崎県,壱岐市,石田町石田西触１０６９番地,,42,210,8115215,,,2024-03-29,清算の結了等,,,2015-10-05,1,,,,,ヤマシタアイケイドウ,0
959,4360002011708,登記記録の閉鎖等,0,2024-04-03,2024-03-25,有限会社工営電設工業,,有限会社,沖縄県,沖縄市,海邦２丁目２２番１５号,,47,211,9042162,,,2024-03-25,清算の結了等,,,2015-10-05,1,,,,,コウエイデンセツコウギョウ,0
960,4360003005989,登記記録の閉鎖等,0,2024-04-03,2024-04-01,合同会社保険薬局きずな,,合同会社,沖縄県,沖縄市,字登川４４８番地１,,47,211,9042142,,,2024-04-01,合併による解散等,5360001008027,令和６年４月１日沖縄県沖縄市字登川４４８番地１株式会社薬正堂（5360001008027）に合併し解散,2015-10-05,1,,,,,ホケンヤッキョクキズナ,0
994,5010101011155,登記記録の閉鎖等,0,2024-04-03,2024-03-27,株式会社ヨスガ,,株式会社,東京都,中野区,本町２丁目１番３号,,13,114,1640012,,,2024-03-27,合併による解散等,4010101010323,令和６年３月２５日東京都中野区本町二丁目１番３号株式会社ファーストクラス（4010101010323）に合併し解散,2015-10-05,1,,,,,ヨスガ,0
996,5010401077953,登記記録の閉鎖等,0,2024-04-03,2024-03-27,株式会社ボニータプロフェッショナル,,株式会社,東京都,港区,西新橋３丁目２３番６号,,13,103,1050003,,,2024-03-27,清算の結了等,,,2015-10-05,1,,,,,ボニータプロフェッショナル,0
1006,5010501032775,登記記録の閉鎖等,0,2024-04-03,2024-03-25,株式会社ビュークイル,,株式会社,東京都,台東区,池之端１丁目６番１７号,,13,106,1100008,,,2024-03-25,清算の結了等,,,2015-10-05,1,,,,,ビュークイル,0
1015,5010902025915,登記記録の閉鎖等,0,2024-04-03,2024-04-01,有限会社ハイパワーエンターテイメント,,有限会社,東京都,世田谷区,大原１丁目５９番７号原ビル４０２,,13,112,1560041,,,2024-04-01,清算の結了等,,,2015-10-05,1,,,,,,0
1020,5011001145101,登記記録の閉鎖等,0,2024-04-03,2024-03-27,成田フードコンサルティング株式会社,,株式会社,東京都,目黒区,碑文谷４丁目４番１５号,,13,110,1520003,,,2024-03-27,清算の結了等,,,2022-01-17,1,,,,,ナリタフードコンサルティング,0
1026,5011003015178,登記記録の閉鎖等,0,2024-04-03,2024-03-27,ダイヤモンドダリア合同会社,,合同会社,東京都,渋谷区,渋谷３丁目１－９,,13,113,1500002,,,2024-03-27,清算の結了等,,,2022-08-10,1,,,,,ダイヤモンドダリア,0
1050,5011802008968,登記記録の閉鎖等,0,2024-04-03,2024-03-28,有限会社アールエスアール,,有限会社,東京都,足立区,大谷田３丁目９番５号１Ｆ,,13,121,1200001,,,2024-03-28,清算の結了等,,,2015-10-05,1,,,,,アールエスアール,0
1063,5020001126589,登記記録の閉鎖等,0,2024-04-03,2024-03-25,安倍技研株式会社,,株式会社,神奈川県,川崎市中原区,下新城１丁目１番２０号,,14,133,2110042,,,2024-03-25,清算の結了等,,,2018-06-06,1,,,,,アベギケン,0
1067,5020005007967,登記記録の閉鎖等,0,2024-04-03,2024-03-28,不二サッシ協同組合,,その他の設立登記法人,神奈川県,川崎市幸区,鹿島田１丁目１番２号新川崎三井ビルディング,,14,132,2120058,,,2024-03-28,清算の結了等,,,2015-10-05,1,,,,,フジサッシ,0
1074,5030002000214,登記記録の閉鎖等,0,2024-04-03,2024-03-29,有限会社秋元ホーム,,有限会社,埼玉県,さいたま市南区,内谷２丁目２番９号,,11,108,3360034,,,2024-03-29,清算の結了等,,,2024-01-31,1,,,,,アキモトホーム,0
1085,5040001095106,登記記録の閉鎖等,0,2024-04-03,2024-03-28,株式会社きのこ,,株式会社,千葉県,松戸市,五香六実２７０番地の１０９ブルーハイツ２０２,,12,207,2702211,,,2024-03-28,清算の結了等,,,2016-05-09,1,,,,,キノコ,0
1090,5050002035183,登記記録の閉鎖等,0,2024-04-03,2024-04-01,フューテック有限会社,,有限会社,茨城県,常陸太田市,山下町３８６９番地の２,,08,212,3130013,,,2024-04-01,清算の結了等,,,2015-10-05,1,,,,,フューテック,0
1101,5080102012303,登記記録の閉鎖等,0,2024-04-03,2024-04-01,有限会社富岡保温,,有限会社,静岡県,駿東郡長泉町,中土狩５５７番地の５２,,22,342,4110942,,,2024-04-01,清算の結了等,,,2015-10-05,1,,,,,トミオカホオン,0
1110,5120001130829,登記記録の閉鎖等,0,2024-04-03,2024-03-28,株式会社澪ＳＥＶＥＮ,,株式会社,大阪府,大阪市中央区,南本町２丁目４番３号丸全ビル２０３,,27,128,5410054,,,2024-03-28,清算の結了等,,,2015-10-05,1,,,,,レイセブン,0
1111,5120001180659,登記記録の閉鎖等,0,2024-04-03,2024-03-29,株式会社ＭＩＹＡＸ,,株式会社,大阪府,枚方市,春日北町２丁目７番１号,,27,210,5730137,,,2024-03-29,清算の結了等,,,2015-10-05,1,,,,,ミヤックス,0
1144,5160005009363,登記記録の閉鎖等,0,2024-04-03,2024-03-27,特定非営利活動法人いちご,,その他の設立登記法人,滋賀県,野洲市,竹生２１１２番地,,25,210,5202363,,,2024-03-27,清算の結了等,,,2015-10-05,1,,,,,イチゴ,0
1154,5180002038363,登記記録の閉鎖等,0,2024-04-03,2024-03-27,有限会社ダイユーグローバルオート,,有限会社,愛知県,名古屋市中川区,法華２丁目４３番地,,23,110,4540933,,,2024-03-27,清算の結了等,,,2015-10-05,1,,,,,ダイユーグローバルオート,0
1157,5180002086924,登記記録の閉鎖等,0,2024-04-03,2024-03-27,有限会社谷新聞店,,有限会社,愛知県,知多郡阿久比町,大字福住字高根台１８番地の５,,23,441,4702202,,,2024-03-27,合併による解散等,8180001094768,令和６年２月２６日愛知県知多市にしの台一丁目２３０９番地の１１株式会社中日ピーアール（8180001094768）に合併し解散,2015-10-05,1,,,,,タニシンブンテン,0
1159,5180301013918,登記記録の閉鎖等,0,2024-04-03,2024-03-27,久保田工業株式会社,,株式会社,愛知県,刈谷市,高松町４丁目６２番地,,23,210,4480853,,,2024-03-27,清算の結了等,,,2015-10-05,1,,,,,クボタコウギョウ,0
1161,5180301027018,登記記録の閉鎖等,0,2024-04-03,2024-03-27,株式会社くろやなぎ不動産,,株式会社,愛知県,岡崎市,牧御堂町字油田１９番地,,23,202,4440205,,,2024-03-27,清算の結了等,,,2015-10-05,1,,,,,クロヤナギフドウサン,0
1165,5190002017936,登記記録の閉鎖等,0,2024-04-03,2024-03-29,有限会社旭産業,,有限会社,三重県,いなべ市,大安町宇賀字御畑２３８番地の１,,24,214,5110286,,,2024-03-29,清算の結了等,,,2015-10-05,1,,,,,アサヒサンギョウ,0
1172,5220001005624,登記記録の閉鎖等,0,2024-04-03,2024-04-01,福根水産株式会社,,株式会社,石川県,金沢市,西念４丁目７番１号,,17,201,9200024,,,2024-04-01,清算の結了等,,,2015-10-05,1,,,,,フクネスイサン,0
1182,5250001009192,登記記録の閉鎖等,0,2024-04-03,2024-04-01,稗田商事株式会社,00002458,株式会社,山口県,周南市,千代田町６番１３号,,35,215,7450044,,,2024-04-01,清算の結了等,,,2015-10-05,1,,,,,ヒエダショウジ,0
1203,5330005000230,登記記録の閉鎖等,0,2024-04-03,2024-03-27,一般財団法人ロータリー寿崎奨学会,,その他の設立登記法人,熊本県,熊本市中央区,上通町２－１ホテル日航熊本内,,43,101,8600845,,,2024-03-27,清算の結了等,,,2015-10-05,1,,,,,ロータリースザキショウガクカイ,0
1212,5360002010452,登記記録の閉鎖等,0,2024-04-03,2024-04-02,有限会社神谷工務店,,有限会社,沖縄県,島尻郡南風原町,字津嘉山７０３番地１,,47,350,9011117,,,2024-04-02,清算の結了等,,,2015-10-05,1,,,,,カミヤコウムテン,0
1222,5430001064070,登記記録の閉鎖等,0,2024-04-03,2024-03-28,株式会社スクエア・システム,,株式会社,北海道,札幌市中央区,北一条西１３丁目４番地,,01,101,0600001,,,2024-03-28,清算の結了等,,,2015-10-05,1,,,,,スクエアシステム,0
1223,5430001088722,登記記録の閉鎖等,0,2024-04-03,2024-03-25,ミネラルプラネット株式会社,,株式会社,北海道,札幌市中央区,南一条西１６丁目１番地３２３春野ビル３Ｆ,,01,101,0600061,,,2024-03-25,清算の結了等,,,2023-03-29,1,,,,,ミネラルプラネット,0
1225,5430002035277,登記記録の閉鎖等,0,2024-04-03,2024-04-01,有限会社サンコー美建,,有限会社,北海道,札幌市北区,篠路二条３丁目６番７号,,01,102,0028022,,,2024-04-01,清算の結了等,,,2015-10-05,1,,,,,サンコービケン,0
1227,5430002054203,登記記録の閉鎖等,0,2024-04-03,2024-03-26,有限会社北一,,有限会社,北海道,小樽市,緑３丁目１２番５号,,01,203,0470034,,,2024-03-26,合併による解散等,4430001049873,令和６年３月２５日北海道小樽市花園一丁目６番１０号株式会社北一硝子（4430001049873）に合併し解散,2015-10-05,1,,,,,キタイチ,0
1243,6010001045896,登記記録の閉鎖等,0,2024-04-03,2024-03-27,ＮＴ八重洲株式会社,,株式会社,東京都,千代田区,霞が関１丁目４番１号,,13,101,1000013,,,2024-03-27,清算の結了等,,,2015-10-05,1,,,,,エヌティーヤエス,0
1244,6010001069879,登記記録の閉鎖等,0,2024-04-03,2024-03-28,アイエス情報システム株式会社,,株式会社,東京都,中央区,新川２丁目２７－１,,13,102,1040033,,,2024-03-28,清算の結了等,,,2015-10-05,1,,,,,アイエスジョウホウシステム,0
1247,6010001213214,登記記録の閉鎖等,0,2024-04-03,2024-03-26,ＡＲ風力発電株式会社,,株式会社,東京都,千代田区,紀尾井町１番３号東京ガーデンテラス紀尾井町紀尾井タワー,,13,101,1020094,,,2024-03-26,清算の結了等,,,2020-10-22,1,,,,,エーアールフウリョクハツデン,0
1252,6010005025449,登記記録の閉鎖等,0,2024-04-03,2024-03-26,ＲＰＪ名古屋錦一般社団法人,,その他の設立登記法人,東京都,渋谷区,広尾３丁目４－１３－３０２,,13,113,1500012,,,2024-03-26,清算の結了等,,,2016-06-20,1,,,,,アールピージェイナゴヤニシキ,0
1259,6010402032205,登記記録の閉鎖等,0,2024-04-03,2024-03-26,有限会社わ,,有限会社,東京都,東久留米市,学園町２丁目１７番７号,,13,222,2030021,,,2024-03-26,清算の結了等,,,2015-10-05,1,,,,,ワ,0
1260,6010403013749,登記記録の閉鎖等,0,2024-04-03,2024-03-28,Ｂｌｕｅ　Ｐｌａｎｅｔ０９合同会社,,合同会社,東京都,千代田区,神田猿楽町１丁目５番１号,,13,101,1010064,,,2024-03-28,清算の結了等,,,2015-10-05,1,,,,,ブループラネットゼロキュウ,0
1271,6010603007831,登記記録の閉鎖等,0,2024-04-03,2024-04-01,合同会社りだんインターナショナル,,合同会社,東京都,墨田区,江東橋２丁目６番９号ＨＢ錦糸町ビル６階,,13,107,1300022,,,2024-04-01,清算の結了等,,,2019-06-03,1,,,,,リダンインターナショナル,0
1298,6011302004137,登記記録の閉鎖等,0,2024-04-03,2024-03-28,有限会社サンケンクリエイト,,有限会社,東京都,杉並区,下高井戸５丁目３番１９号,,13,115,1680073,,,2024-03-28,清算の結了等,,,2015-10-05,1,,,,,サンケンクリエイト,0
1303,6011801017952,登記記録の閉鎖等,0,2024-04-03,2024-03-29,株式会社シャナン,,株式会社,東京都,葛飾区,四つ木４丁目１２番２２－４０９号,,13,122,1240011,,,2024-03-29,清算の結了等,,,2015-10-05,1,,,,,シャナン,0
1332,6040002063119,登記記録の閉鎖等,0,2024-04-03,2024-03-28,有限会社榮幸建設,,有限会社,千葉県,八街市,八街い６５番地４３,,12,230,2891143,,,2024-03-28,清算の結了等,,,2015-10-05,1,,,,,エイコウケンセツ,0
1357,6080401004058,登記記録の閉鎖等,0,2024-04-03,2024-03-29,株式会社浜松コトブキ会,,株式会社,静岡県,浜松市中央区,元魚町１２番地,,22,138,4328026,,,2024-03-29,清算の結了等,,,2015-10-05,1,,,,,ハママツコトブキカイ,0
1368,6120002013346,登記記録の閉鎖等,0,2024-04-03,2024-03-29,有限会社常盤商会,,有限会社,大阪府,大阪市天王寺区,堂ケ芝２丁目１４番２３号,,27,109,5430033,,,2024-03-29,清算の結了等,,,2015-10-05,1,,,,,トキワショウカイ,0
1384,6130001059331,登記記録の閉鎖等,0,2024-04-03,2024-04-01,株式会社ＴＡＫＡＭＯＴＯ,,株式会社,京都府,京都市西京区,大原野上里勝山町６番地１８,,26,111,6101125,,,2024-04-01,清算の結了等,,,2017-03-06,1,,,,,,0
1388,6140003008517,登記記録の閉鎖等,0,2024-04-03,2024-03-27,洲本運送合同会社,,合同会社,兵庫県,洲本市,塩屋１丁目１番５号,,28,205,6560021,,,2024-03-27,清算の結了等,,,2015-10-05,1,,,,,スモトウンソウ,0
1396,6180001080729,登記記録の閉鎖等,0,2024-04-03,2024-04-01,犬山ガスサービス株式会社,,株式会社,愛知県,犬山市,大字犬山字中野２番地,,23,215,4840081,,,2024-04-01,合併による解散等,9180001022372,令和６年４月１日名古屋市熱田区桜田町１９番１８号東邦液化ガス株式会社（9180001022372）に合併し解散,2015-10-05,1,,,,,イヌヤマガスサービス,0
1403,6180302012703,登記記録の閉鎖等,0,2024-04-03,2024-03-25,有限会社安藤合成,,有限会社,愛知県,豊川市,東曙町２４２番地,00074998,23,207,4420011,,,2024-03-25,清算の結了等,,,2015-10-05,1,,,,,アンドウゴウセイ,0
1412,6200001028840,登記記録の閉鎖等,0,2024-04-03,2024-04-01,島工業株式会社,,株式会社,岐阜県,岐阜市,黒野３６７番地６,,21,201,5011131,,,2024-04-01,合併による解散等,5200001002532,令和６年４月１日岐阜市黒野３６７番地６島工業サービス株式会社（5200001002532）に合併し解散,2015-10-05,1,,,,,シマコウギョウ,0
1418,6220005001560,登記記録の閉鎖等,0,2024-04-03,2024-03-29,石川県保険薬局協同組合,,その他の設立登記法人,石川県,金沢市,広岡町イ２５番地１０,,17,201,9200032,,,2024-03-29,清算の結了等,,,2015-10-05,1,,,,,,0
1421,6230002003022,登記記録の閉鎖等,0,2024-04-03,2024-04-01,有限会社富士プリント社,,有限会社,富山県,富山市,愛宕町２丁目１番１１号,,16,201,9300091,,,2024-04-01,清算の結了等,,,2015-10-05,1,,,,,フジプリントシャ,0
1449,6320001015521,登記記録の閉鎖等,0,2024-04-03,2024-04-01,株式会社聖真工業,,株式会社,大分県,大分市,大在中央２丁目２番３号,,44,201,8700251,,,2024-04-01,清算の結了等,,,2017-03-16,1,,,,,,0
1466,6390002012354,登記記録の閉鎖等,0,2024-04-03,2024-04-01,有限会社ホンダ日塔モータース,,有限会社,山形県,東根市,一本木２丁目２番１４号,,06,211,9993717,,,2024-04-01,合併による解散等,6390001004575,令和６年４月１日山形県天童市大字山元９６３番地の１株式会社ホンダオート天童（6390001004575）に合併し解散,2015-10-05,1,,,,,ホンダニットウモータース,0
1468,6400501001046,登記記録の閉鎖等,0,2024-04-03,2024-03-28,株式会社及集,,株式会社,岩手県,一関市,大手町３番５号,,03,209,0210884,,,2024-03-28,清算の結了等,,,2015-10-05,1,,,,,,0
1500,7010401109754,登記記録の閉鎖等,0,2024-04-03,2024-04-01,三菱ＵＦＪフィナンシャルパートナーズ株式会社,,株式会社,東京都,港区,芝２丁目４番３号,,13,103,1050014,,,2024-04-01,合併による解散等,5010001008846,令和６年４月１日東京都千代田区丸の内二丁目７番１号株式会社三菱ＵＦＪ銀行（5010001008846）に合併し解散,2015-10-05,1,,,,,ミツビシユーエフジェイフィナンシャルパートナーズ,0
1519,7011001124400,登記記録の閉鎖等,0,2024-04-03,2024-04-01,株式会社ファイブバック,,株式会社,東京都,渋谷区,神宮前６丁目２３番４号桑野ビル２階,,13,113,1500001,,,2024-04-01,清算の結了等,,,2018-09-28,1,,,,,ファイブバック,0
1547,7011801009296,登記記録の閉鎖等,0,2024-04-03,2024-03-28,大建機械株式会社,,株式会社,東京都,足立区,伊興４丁目１５番８号,,13,121,1210823,,,2024-03-28,清算の結了等,,,2015-10-05,1,,,,,ダイケンキカイ,0
1557,7020001144622,登記記録の閉鎖等,0,2024-04-03,2024-04-01,株式会社ＦＣ空調,,株式会社,神奈川県,鎌倉市,長谷５丁目７番１１号第１萬屋グリーンハイツ１０１,,14,204,2480016,,,2024-04-01,清算の結了等,,,2022-01-11,1,,,,,エフシークウチョウ,0
1569,7021001055735,登記記録の閉鎖等,0,2024-04-03,2024-04-01,株式会社寿山,,株式会社,神奈川県,大和市,上和田４４０－１２,,14,213,2420014,,,2024-04-01,清算の結了等,,,2015-10-05,1,,,,,,0
1570,7021001069603,登記記録の閉鎖等,0,2024-04-03,2024-04-01,Ｕ’ｓ株式会社,,株式会社,神奈川県,逗子市,池子２丁目１９番１１１５号,,14,208,2490003,,,2024-04-01,清算の結了等,,,2020-03-27,1,,,,,ユーズ,0
1580,7030001083720,登記記録の閉鎖等,0,2024-04-03,2024-03-28,株式会社いきいき,,株式会社,東京都,足立区,入谷８丁目６番１４号,,13,121,1210836,,,2024-03-28,清算の結了等,,,2015-10-05,1,,,,,イキイキ,0
1588,7030002006143,登記記録の閉鎖等,0,2024-04-03,2024-03-29,有限会社三信商会,,有限会社,埼玉県,さいたま市西区,大字佐知川７９番地２,,11,101,3310064,,,2024-03-29,清算の結了等,,,2015-10-05,1,,,,,,0
1603,7050002003618,登記記録の閉鎖等,0,2024-04-03,2024-04-01,浅野運輸有限会社,,有限会社,茨城県,東茨城郡茨城町,大字上石崎１５７番地の１,,08,302,3113122,,,2024-04-01,清算の結了等,,,2015-10-05,1,,,,,,0
1611,7070003002831,登記記録の閉鎖等,0,2024-04-03,2024-03-29,合同会社ナラティブ,,合同会社,群馬県,北群馬郡榛東村,大字山子田８８２番地,,10,344,3703502,,,2024-03-29,清算の結了等,,,2017-02-10,1,,,,,ナラティブ,0
1612,7080001008235,登記記録の閉鎖等,0,2024-04-03,2024-03-28,株式会社新日本トラベル,,株式会社,静岡県,静岡市清水区,蜂ヶ谷南町７番５号,,22,103,4240004,,,2024-03-28,清算の結了等,,,2015-10-05,1,,,,,シンニホントラベル,0
1615,7080101005561,登記記録の閉鎖等,0,2024-04-03,2024-04-01,国土振興株式会社,,株式会社,静岡県,三島市,佐野見晴台１丁目２０番地の１,,22,206,4110041,,,2024-04-01,清算の結了等,,,2015-10-05,1,,,,,コクドシンコウ,0
1623,7100001026795,登記記録の閉鎖等,0,2024-04-03,2024-03-26,株式会社ゆとりの空間,,株式会社,長野県,松本市,城東２丁目６番１７号ハイツリラ１０３号,,20,202,3900807,,,2024-03-26,合併による解散等,6100001016789,令和６年３月２６日長野県塩尻市広丘高出２００７－５株式会社ソーシャル・ネットワーク（6100001016789）に合併し解散,2015-10-05,1,,,,,ユトリノクウカン,0
1628,7120001043715,登記記録の閉鎖等,0,2024-04-03,2024-03-27,株式会社サンノルド,,株式会社,大阪府,大阪市西区,北堀江１丁目２１番１２号,,27,106,5500014,,,2024-03-27,清算の結了等,,,2015-10-05,1,,,,,サンノルド,0
1629,7120001079156,登記記録の閉鎖等,0,2024-04-03,2024-03-29,株式会社高津紙工社,,株式会社,大阪府,大阪市中央区,（大阪市南区道頓堀一丁目東５番２０号）,,27,128,5390000,,,2024-03-29,清算の結了等,,,2015-10-05,1,,,,,タカツシコウシャ,1
1638,7120102005762,登記記録の閉鎖等,0,2024-04-03,2024-03-28,有限会社ヘレネ,,有限会社,大阪府,堺市東区,中茶屋４５番地の１１,,27,143,5998128,,,2024-03-28,清算の結了等,,,2015-10-05,1,,,,,ヘレネ,0
1671,7180005018781,登記記録の閉鎖等,0,2024-04-03,2024-04-01,一般社団法人東海学生サポートＳＥＥＤ,,その他の設立登記法人,愛知県,名古屋市中区,栄１丁目２３番２９号サンハイツ伏見２Ｆ,,23,106,4600008,,,2024-04-01,清算の結了等,,,2020-04-22,1,,,,,トウカイガクセイサポートシード,0
1673,7180301025770,登記記録の閉鎖等,0,2024-04-03,2024-04-01,三河開発株式会社,,株式会社,愛知県,西尾市,一色町生田竹生新田３番地２４,,23,213,4440412,,,2024-04-01,清算の結了等,,,2015-10-05,1,,,,,ミカワカイハツ,0
1689,7270002005897,登記記録の閉鎖等,0,2024-04-03,2024-03-28,有限会社壽,,有限会社,鳥取県,米子市,美吉２３１番地３,,31,202,6830034,,,2024-03-28,清算の結了等,,,2015-10-05,1,,,,,コトブキ,0
1693,7290805007824,登記記録の閉鎖等,0,2024-04-03,2024-03-22,特定非営利活動法人こどもネットワークココ田川,,その他の設立登記法人,福岡県,田川市,大字伊田２２８６番地１０,,40,206,8250002,,,2024-03-22,清算の結了等,,,2015-10-05,1,,,,,コドモネットワークココタガワ,0
1695,7310001017261,登記記録の閉鎖等,0,2024-04-03,2024-04-01,株式会社ｊｙｌａｂｏ,,株式会社,長崎県,諫早市,栄町１番１－１００５号,,42,204,8540013,,,2024-04-01,清算の結了等,,,2021-05-13,1,,,,,ジェイワイラボ,0
1701,7360001028873,登記記録の閉鎖等,0,2024-04-03,2024-04-01,株式会社太財商事,,株式会社,沖縄県,那覇市,久茂地２丁目１４番１２号,,47,201,9000015,,,2024-04-01,清算の結了等,,,2021-06-04,1,,,,,タイザイショウジ,0
1703,7360002013998,登記記録の閉鎖等,0,2024-04-03,2024-04-01,株式会社ちばり,,株式会社,沖縄県,沖縄市,知花６丁目３８番５号,,47,211,9042143,,,2024-04-01,合併による解散等,5360001008027,令和６年４月１日沖縄県沖縄市字登川４４８番地１株式会社薬正堂（5360001008027）に合併し解散,2015-10-05,1,,,,,チバリ,0
1708,7430001068904,登記記録の閉鎖等,0,2024-04-03,2024-03-29,株式会社ＪＡＰＡＮＭＩＲＡＩ,,株式会社,北海道,札幌市豊平区,西岡四条１丁目６番１３号,,01,105,0620034,,,2024-03-29,清算の結了等,,,2015-10-05,1,,,,,ジャパンミライ,0
1711,7430002004817,登記記録の閉鎖等,0,2024-04-03,2024-03-29,有限会社加藤総業,,有限会社,北海道,札幌市白石区,菊水九条１丁目１番３２号,,01,104,0030809,,,2024-03-29,清算の結了等,,,2015-10-05,1,,,,,カトウソウギョウ,0
1716,7440001006301,登記記録の閉鎖等,0,2024-04-03,2024-03-29,株式会社オフィス・プロハーツ,,株式会社,北海道,二海郡八雲町,内浦町１４８番地の４,,01,346,0493104,,,2024-03-29,清算の結了等,,,2015-10-05,1,,,,,オフィスプロハーツ,0
1737,8010001055489,登記記録の閉鎖等,0,2024-04-03,2024-03-27,富士フイルムビジネスサプライ株式会社,,株式会社,東京都,港区,西麻布２丁目２６番３０号,,13,103,1060031,,,2024-03-27,清算の結了等,,,2015-10-05,1,,,,,フジフイルムビジネスサプライ,0
1739,8010001140407,登記記録の閉鎖等,0,2024-04-03,2024-03-28,ＫＡＴＡＯＫＡトレーディング株式会社,,株式会社,埼玉県,さいたま市大宮区,吉敷町３丁目２５番地２,,11,103,3300843,,,2024-03-28,清算の結了等,,,2015-10-05,1,,,,,カタオカトレーディング,0
1744,8010002019344,登記記録の閉鎖等,0,2024-04-03,2024-03-27,有限会社グレープ,,有限会社,東京都,中央区,日本橋小伝馬町１７番１７号,,13,102,1030001,,,2024-03-27,清算の結了等,,,2015-10-05,1,,,,,グレープ,0
1746,8010003038814,登記記録の閉鎖等,0,2024-04-03,2024-03-27,Ｆｏｎｄ合同会社,,合同会社,東京都,中央区,入船２丁目１０番９―２０８号,,13,102,1040042,,,2024-03-27,清算の結了等,,,2022-10-14,1,,,,,フォン,0
1749,8010005034010,登記記録の閉鎖等,0,2024-04-03,2024-03-27,一般社団法人ヘリコプター投資協会,,その他の設立登記法人,東京都,港区,西新橋３丁目２５番３１号愛宕山ＰＲＥＸ３階,,13,103,1050003,,,2024-03-27,清算の結了等,,,2021-09-27,1,,,,,ヘリコプタートウシキョウカイ,0
1754,8010401123374,登記記録の閉鎖等,0,2024-04-03,2024-03-27,株式会社日本オークション協会,,株式会社,東京都,港区,浜松町２丁目１－５,,13,103,1050013,,,2024-03-27,清算の結了等,,,2016-02-29,1,,,,,ニホンオークションキョウカイ,0
1759,8010403016502,登記記録の閉鎖等,0,2024-04-03,2024-03-27,Ｊパートナーズ合同会社,,合同会社,東京都,港区,六本木３丁目７番１－３６０１号,,13,103,1060032,,,2024-03-27,清算の結了等,,,2017-05-09,1,,,,,ジェイパートナーズ,0
1772,8011001129563,登記記録の閉鎖等,0,2024-04-03,2024-03-26,日本ＥＣワークス株式会社,,株式会社,東京都,渋谷区,宇田川町１９番５号ＹＡＭＡＴＥｍａｎｓｉｏｎ１００６,,13,113,1500042,,,2024-03-26,清算の結了等,,,2019-08-21,1,,,,,ニッポンイーシーワークス,0
1802,8011701024832,登記記録の閉鎖等,0,2024-04-03,2024-03-29,徳興株式会社,,株式会社,東京都,葛飾区,東新小岩７丁目１５番１４号ファミールボーン２１、４０２,,13,122,1240023,,,2024-03-29,清算の結了等,,,2021-11-11,1,,,,,トクコウ,0
1810,8012302001270,登記記録の閉鎖等,0,2024-04-03,2024-04-01,有限会社河原本店,,有限会社,東京都,町田市,原町田４丁目６番８号,,13,209,1940013,,,2024-04-01,清算の結了等,,,2015-10-05,1,,,,,カワハラホンテン,0
1812,8012302002384,登記記録の閉鎖等,0,2024-04-03,2024-04-01,有限会社伸和ハウジング,,有限会社,東京都,町田市,玉川学園１丁目８番１２号,,13,209,1940041,,,2024-04-01,清算の結了等,,,2015-10-05,1,,,,,シンワハウジング,0
1815,8013101004571,登記記録の閉鎖等,0,2024-04-03,2024-04-01,株式会社ＶＩＣインターナショナル,,株式会社,東京都,西多摩郡瑞穂町,長岡２丁目１番地２,,13,303,1901232,,,2024-04-01,清算の結了等,,,2015-10-05,1,,,,,,0
1818,8020001023379,登記記録の閉鎖等,0,2024-04-03,2024-03-29,十字屋家電株式会社,,株式会社,神奈川県,横浜市神奈川区,大口通１７番地３,,14,102,2210002,,,2024-03-29,清算の結了等,,,2015-10-05,1,,,,,ジュウジヤカデン,0
1823,8020001096053,登記記録の閉鎖等,0,2024-04-03,2024-03-29,株式会社ラヴァンス,,株式会社,神奈川県,横浜市鶴見区,岸谷４丁目１４番９号,,14,101,2300078,,,2024-03-29,清算の結了等,,,2015-10-05,1,,,,,ラヴァンス,0
1824,8020001103263,登記記録の閉鎖等,0,2024-04-03,2024-03-28,株式会社ＥＬＤ,,株式会社,神奈川県,横浜市都筑区,東山田３丁目１７番７－３０７号,,14,118,2240023,,,2024-03-28,清算の結了等,,,2015-10-05,1,,,,,イーエルディー,0
1825,8020001111209,登記記録の閉鎖等,0,2024-04-03,2024-03-29,株式会社ファイブオーファイブ,,株式会社,神奈川県,川崎市幸区,南幸町３丁目１４３番地８,,14,132,2120016,,,2024-03-29,清算の結了等,,,2015-10-05,1,,,,,ファイブオーファイブ,0
1832,8020002081104,登記記録の閉鎖等,0,2024-04-03,2024-04-01,有限会社シマダモールド,,有限会社,神奈川県,川崎市幸区,戸手本町２丁目１８３番地,,14,132,2120023,,,2024-04-01,清算の結了等,,,2015-10-05,1,,,,,シマダモールド,0
1848,8030001089320,登記記録の閉鎖等,0,2024-04-03,2024-03-27,株式会社エイブル,,株式会社,東京都,台東区,東上野３丁目１０番１０号,,13,106,1100015,,,2024-03-27,合併による解散等,5380001017554,令和６年３月２０日東京都中央区日本橋茅場町一丁目６番１７号株式会社ダイエー（5380001017554）に合併し解散,2015-10-05,1,,,,,,0
1855,8030002053440,登記記録の閉鎖等,0,2024-04-03,2024-03-29,有限会社オリンピアスポーツクラブ,,有限会社,埼玉県,上尾市,愛宕２丁目１５番２５号,,11,219,3620034,,,2024-03-29,清算の結了等,,,2015-10-05,1,,,,,オリンピアスポーツクラブ,0
1863,8050005002129,登記記録の閉鎖等,0,2024-04-03,2024-04-01,大洗常澄ガス協同組合,,その他の設立登記法人,茨城県,水戸市,栗崎町１８３９番地の１,,08,201,3111133,,,2024-04-01,清算の結了等,,,2015-10-05,1,,,,,オオアライツネズミガス,0
1877,8080102017951,登記記録の閉鎖等,0,2024-04-03,2024-03-29,有限会社熱海調理士紹介所,,有限会社,静岡県,熱海市,渚町１１番２号,,22,205,4130014,,,2024-03-29,清算の結了等,,,2015-10-05,1,,,,,アタミチョウリシショウカイジョ,0
1881,8080402008931,登記記録の閉鎖等,0,2024-04-03,2024-03-29,有限会社渡辺鉄工所,,有限会社,静岡県,浜松市中央区,植松町１４７０番地の１４,,22,138,4300803,,,2024-03-29,清算の結了等,,,2015-10-05,1,,,,,ワタナベテッコウジョ,0
1882,8110001015400,登記記録の閉鎖等,0,2024-04-03,2024-03-29,株式会社ヤマヨ土田製瓦工場,,株式会社,新潟県,南蒲原郡田上町,大字川船河６２７番地１,,15,361,9591513,,,2024-03-29,清算の結了等,,,2015-10-05,1,,,,,ヤマヨツチダセイガコウジョウ,0
1885,8120001105943,登記記録の閉鎖等,0,2024-04-03,2024-03-28,株式会社トラストサービス,,株式会社,大阪府,大阪市旭区,中宮３丁目１０番１１号,,27,117,5350003,,,2024-03-28,清算の結了等,,,2015-10-05,1,,,,,トラストサービス,0
1893,8120105007805,登記記録の閉鎖等,0,2024-04-03,2024-04-01,ＮＰＯ法人あおぞらこころ,,その他の設立登記法人,大阪府,堺市堺区,中三国ヶ丘町６丁５番１５号,,27,141,5900022,,,2024-04-01,清算の結了等,,,2015-10-05,1,,,,,アオゾラココロ,0
1923,8190002019855,登記記録の閉鎖等,0,2024-04-03,2024-03-29,菊池興業有限会社,,有限会社,三重県,三重郡川越町,大字南福崎１９１番地の５,,24,344,5108124,,,2024-03-29,清算の結了等,,,2015-10-05,1,,,,,キクチコウギョウ,0
1927,8200005001148,登記記録の閉鎖等,0,2024-04-03,2024-04-01,株式会社丸杉美濃加茂工場,,株式会社,岐阜県,美濃加茂市,蜂屋町下蜂屋伊瀬入会１６番地の５,,21,211,5050000,,,2024-04-01,合併による解散等,9200001004995,令和６年４月１日岐阜市金町八丁目１番地フロンティア丸杉ビル株式会社丸杉（9200001004995）に合併し解散,2015-10-05,1,,,,,マルスギミノカモコウジョウ,0
1948,8290001007264,登記記録の閉鎖等,0,2024-04-03,2024-03-19,クルージングマップ株式会社,,株式会社,福岡県,福岡市中央区,白金２丁目２番１４号,,40,133,8100012,,,2024-03-19,清算の結了等,,,2015-10-05,1,,,,,クルージングマップ,0
1965,8360001020202,登記記録の閉鎖等,0,2024-04-03,2024-03-25,株式会社海楽天,,株式会社,沖縄県,那覇市,古波蔵２丁目１２番２２号Ａ－２,,47,201,9000024,,,2024-03-25,合併による解散等,9360001022338,令和６年３月２３日沖縄県那覇市古波蔵二丁目１２番２２号Ａ－１株式会社琉球海宝（9360001022338）に合併し解散,2015-12-09,1,,,,,カイラクテン,0
1983,8500001022506,登記記録の閉鎖等,0,2024-04-03,2024-04-01,株式会社サイドワーク,,株式会社,愛媛県,四国中央市,土居町蕪崎２４６０番地２,,38,213,7990724,,,2024-04-01,清算の結了等,,,2020-02-05,1,,,,,サイドワーク,0
1985,9010001068944,登記記録の閉鎖等,0,2024-04-03,2024-03-28,株式会社エコ・サイエンス,,株式会社,東京都,中央区,日本橋兜町１１番７号,,13,102,1030026,,,2024-03-28,清算の結了等,,,2015-10-05,1,,,,,エコサイエンス,0
1986,9010001072772,登記記録の閉鎖等,0,2024-04-03,2024-04-01,丸紅ペーパーリサイクル株式会社,,株式会社,東京都,千代田区,大手町１丁目４番２号,,13,101,1000004,,,2024-04-01,合併による解散等,8010401090367,令和６年４月１日東京都千代田区大手町一丁目４番２号丸紅フォレストリンクス株式会社（8010401090367）に合併し解散,2015-10-05,1,,,,,マルベニペーパーリサイクル,0
1995,9010003036040,登記記録の閉鎖等,0,2024-04-03,2024-03-27,合同会社ＬＢＩファンド,,合同会社,東京都,港区,西新橋３丁目２５番３１号愛宕山ＰＲＥＸ３階,,13,103,1050003,,,2024-03-27,清算の結了等,,,2021-10-18,1,,,,,エルビーアイファンド,0
1996,9010401024373,登記記録の閉鎖等,0,2024-04-03,2024-03-26,株式会社ハミングトラベル,,株式会社,東京都,渋谷区,松濤１丁目２９番１０号,,13,113,1500046,,,2024-03-26,清算の結了等,,,2015-10-05,1,,,,,ハミングトラベル,0
2000,9010401170770,登記記録の閉鎖等,0,2024-04-03,2024-03-27,青山ＰＪ株式会社,,株式会社,東京都,渋谷区,恵比寿４丁目２０番３号,,13,113,1500013,,,2024-03-27,清算の結了等,,,2022-11-14,1,,,,,アオヤマピージェイ,0
2005,9010403013572,登記記録の閉鎖等,0,2024-04-03,2024-03-28,Ｂｌｕｅ　Ｐｌａｎｅｔ０４合同会社,,合同会社,東京都,千代田区,神田猿楽町１丁目５番１号,,13,101,1010064,,,2024-03-28,清算の結了等,,,2015-10-05,1,,,,,ブループラネットゼロヨン,0
2076,9030001027460,登記記録の閉鎖等,0,2024-04-03,2024-03-29,武蔵エナジックセンター株式会社,,株式会社,埼玉県,入間市,大字上藤沢７４４番地１,,11,225,3580013,,,2024-03-29,清算の結了等,,,2015-10-05,1,,,,,ムサシエナジックセンター,0
2083,9040001052326,登記記録の閉鎖等,0,2024-04-03,2024-03-28,株式会社ＪＩＵ－ＫＩＤＤ,,株式会社,千葉県,東金市,求名１番地,,12,213,2830002,,,2024-03-28,清算の結了等,,,2015-10-05,1,,,,,ジェイアイユーキッド,0
2084,9040001065848,登記記録の閉鎖等,0,2024-04-03,2024-03-28,善伸産業株式会社,,株式会社,千葉県,柏市,あかね町４番６号,,12,217,2770027,,,2024-03-28,清算の結了等,,,2015-10-05,1,,,,,ゼンシンサンギョウ,0
2090,9040002036724,登記記録の閉鎖等,0,2024-04-03,2024-03-29,有限会社マルシゲインテリア,,有限会社,千葉県,市川市,塩焼５丁目１番１７号,,12,203,2720114,,,2024-03-29,清算の結了等,,,2015-10-05,1,,,,,マルシゲインテリア,0
2099,9060001019802,登記記録の閉鎖等,0,2024-04-03,2024-03-28,Ｏｎｃｅ　Ｍｏｒｅ株式会社,,株式会社,群馬県,邑楽郡大泉町,大字古海３５２番地の３,,10,524,3700524,,,2024-03-28,清算の結了等,,,2015-10-05,1,,,,,ワンスモア,0
2103,9060002007005,登記記録の閉鎖等,0,2024-04-03,2024-04-01,有限会社日興商事,,有限会社,栃木県,宇都宮市,宝木町２丁目７９５番地６,,09,201,3200061,,,2024-04-01,清算の結了等,,,2015-10-05,1,,,,,ニッコウショウジ,0
2108,9060002033455,登記記録の閉鎖等,0,2024-04-03,2024-03-26,有限会社細金精機製作所,,有限会社,栃木県,栃木市,西方町本郷８５４番地,,09,203,3220603,,,2024-03-26,清算の結了等,,,2015-10-05,1,,,,,ホソガネセイサクショ,0
2113,9070002010949,登記記録の閉鎖等,0,2024-04-03,2024-04-01,有限会社タジマデンタルスタジオ,,有限会社,群馬県,高崎市,井野町４７番地１９,,10,202,3700004,,,2024-04-01,清算の結了等,,,2015-10-05,1,,,,,タジマデンタルスタジオ,0
2143,9120005018042,登記記録の閉鎖等,0,2024-04-03,2024-04-01,一般社団法人高齢者トータルサポート・あんしん,,その他の設立登記法人,大阪府,大阪市中央区,安堂寺町１丁目３－６大阪上町ビル１０Ｆ,,27,128,5420061,,,2024-04-01,清算の結了等,,,2015-10-05,1,,,,,コウレイシャトータルサポートアンシン,0
2174,9180001130183,登記記録の閉鎖等,0,2024-04-03,2024-03-27,あい美す東海株式会社,,株式会社,愛知県,名古屋市中区,丸の内３丁目７番９号,,23,106,4600002,,,2024-03-27,清算の結了等,,,2017-11-20,1,,,,,アイビストウカイ,0
2179,9180002024293,登記記録の閉鎖等,0,2024-04-03,2024-03-28,有限会社長谷川商店,,有限会社,愛知県,名古屋市西区,市場木町２４５番地,,23,104,4520805,,,2024-03-28,清算の結了等,,,2015-10-05,1,,,,,ハセガワショウテン,0
2221,9290801019581,登記記録の閉鎖等,0,2024-04-03,2024-03-27,株式会社苅田町農業公社,,株式会社,福岡県,京都郡苅田町,大字鋤崎４８１番地１,,40,621,8000332,,,2024-03-27,清算の結了等,,,2015-10-05,1,,,,,カンダマチノウギョウコウシャ,0
2231,9330002027999,登記記録の閉鎖等,0,2024-04-03,2024-03-29,有限会社山崎青果,00097980,有限会社,熊本県,水俣市,古賀町２丁目５番４８号,,43,205,8670066,,,2024-03-29,清算の結了等,,,2015-10-05,1,,,,,ヤマサキセイカ,0
2232,9330005004005,登記記録の閉鎖等,0,2024-04-03,2024-03-26,龍専寺,,その他の設立登記法人,熊本県,上益城郡山都町,馬見原８４９番地,,43,447,8613901,,,2024-03-26,清算の結了等,,,2015-10-05,1,,,,,リュウセンジ,0
2233,9340001013586,登記記録の閉鎖等,0,2024-04-03,2024-04-01,株式会社アイゲート,,株式会社,鹿児島県,鹿児島市,下荒田２丁目７番１４号,,46,201,8900056,,,2024-04-01,清算の結了等,,,2015-10-05,1,,,,,アイゲート,0
2244,9360002011876,登記記録の閉鎖等,0,2024-04-03,2024-04-01,株式会社すみれ薬局,,株式会社,沖縄県,沖縄市,高原５丁目１７番１号,,47,211,9042171,,,2024-04-01,合併による解散等,5360001008027,令和６年４月１日沖縄県沖縄市字登川４４８番地１株式会社薬正堂（5360001008027）に合併し解散,2015-10-05,1,,,,,スミレヤッキョク,0
2251,9390002013754,登記記録の閉鎖等,0,2024-04-03,2024-03-29,有限会社アネスティ,,有限会社,山形県,東置賜郡高畠町,福沢南１９番地の４,,06,381,9992175,,,2024-03-29,清算の結了等,,,2015-10-05,1,,,,,アネスティ,0
2261,9460002002428,登記記録の閉鎖等,0,2024-04-03,2024-03-29,有限会社フアミリークリーニング,,有限会社,北海道,釧路市,武佐１丁目１番９号,,01,206,0850806,,,2024-03-29,清算の結了等,,,2015-10-05,1,,,,,フアミリークリーニング,0
2271,9500001010195,登記記録の閉鎖等,0,2024-04-03,2024-03-29,株式会社大正堂,,株式会社,愛媛県,新居浜市,船木甲２１０３番地,,38,205,7920856,,,2024-03-29,清算の結了等,,,2015-10-05,1,,,,,タイショウドウ,0
2273,9500002023618,登記記録の閉鎖等,0,2024-04-03,2024-03-29,有限会社南海電工,,有限会社,愛媛県,北宇和郡鬼北町,大字芝２７２番地,,38,488,7981355,,,2024-03-29,清算の結了等,,,2015-10-05,1,,,,,ナンカイデンコウ,0
