sequenceNumber,corporateNumber,process,correct,updateDate,changeDate,name,nameImageId,kind,prefectureName,cityName,streetNumber,addressImageId,prefectureCode,cityCode,postCode,addressOutside,addressOutsideImageId,closeDate,closeCause,successorCorporateNumber,changeCause,assignmentDate,latest,enName,enPrefectureName,enCityName,enAddressOutside,furigana,hihyoji
6,1010001241087,新規,0,2023-12-25,2023-12-25,ストラーダＡＩＤＸ株式会社,,株式会社,東京都,中央区,日本橋蛎殻町２丁目１１番２号,,13,102,1030014,,,,,,,2023-12-25,1,,,,,ストラーダエーアイディーエックス,0
13,1010401179340,新規,0,2023-12-25,2023-12-25,株式会社ＶＡＮＪＵＳ,,株式会社,東京都,港区,芝４丁目６番４号パンセビル３０２号,,13,103,1080014,,,,,,,2023-12-25,1,,,,,バンジャス,0
14,1010401179365,新規,0,2023-12-25,2023-12-25,株式会社Ｏ‐ｐｒｉｄｅ．,,株式会社,東京都,港区,赤坂３丁目８番１７号ＰＡＮＪＡＰＡＮＢＬＤＧ５Ｆ,,13,103,1070052,,,,,,,2023-12-25,1,,,,,オープライド,0
15,1010401179381,新規,0,2023-12-25,2023-12-25,株式会社セカンドキャリア,,株式会社,東京都,港区,白金５丁目６番１４号,,13,103,1080072,,,,,,,2023-12-25,1,,,,,セカンドキャリア,0
16,1010401179415,新規,0,2023-12-25,2023-12-25,誠為旅行株式会社,,株式会社,東京都,港区,東新橋１丁目１０番１号－３７０６号室,,13,103,1050021,,,,,,,2023-12-25,1,,,,,セイイリョコウ,0
18,1010403031648,新規,0,2023-12-25,2023-12-25,合同会社Ｒａｌｅｉｇｈ,,合同会社,東京都,港区,六本木７丁目１２番２号Ｒ７ビルディング,,13,103,1060032,,,,,,,2023-12-25,1,,,,,ローリー,0
21,1010501051548,新規,0,2023-12-25,2023-12-25,日播雲渓株式会社,,株式会社,東京都,台東区,台東１丁目２４番９号ブライト秋葉原Ｂ１Ｆ,,13,106,1100016,,,,,,,2023-12-25,1,,,,,ニチハンウンケイ,0
23,1010601064383,新規,0,2023-12-25,2023-12-25,株式会社Ｓｅｅｄｌｉｎｇｓ,,株式会社,東京都,墨田区,押上３丁目４１番１１号,,13,107,1310045,,,,,,,2023-12-25,1,,,,,シードリングス,0
39,1011001159006,新規,0,2023-12-25,2023-12-25,株式会社ＵＮＤＥＲＲＩＶＥＲ,,株式会社,東京都,渋谷区,神宮前２丁目２４番６号第２里見ビル１階,,13,113,1500001,,,,,,,2023-12-25,1,,,,,アンダーリバー,0
40,1011001159030,新規,0,2023-12-25,2023-12-25,株式会社ＧｒｏｗｔｈＨｕｂ,,株式会社,東京都,渋谷区,道玄坂１丁目１０番８号渋谷道玄坂東急ビル２Ｆ－Ｃ,,13,113,1500043,,,,,,,2023-12-25,1,,,,,グロースハブ,0
41,1011001159039,新規,0,2023-12-25,2023-12-25,ＡｎｙＫｅｅｅｅｙ株式会社,,株式会社,東京都,渋谷区,渋谷２丁目２４－１２スクランブルスクエア３９階,,13,113,1500002,,,,,,,2023-12-25,1,,,,,エニィキー,0
42,1011003018176,新規,0,2023-12-25,2023-12-25,ＭＯＴＨＥ合同会社,,合同会社,東京都,渋谷区,代々木４丁目３番８号,,13,113,1510053,,,,,,,2023-12-25,1,,,,,モース,0
46,1011101105628,新規,0,2023-12-25,2023-12-25,株式会社あお,,株式会社,東京都,新宿区,西新宿３丁目３番１３号西新宿水間ビル６階,,13,104,1600023,,,,,,,2023-12-25,1,,,,,アオ,0
48,1011103013903,新規,0,2023-12-25,2023-12-25,合同会社ＭＩＲＥＩ,,合同会社,東京都,新宿区,大京町３１－４－６０７,,13,104,1600015,,,,,,,2023-12-25,1,,,,,ミレイ,0
53,1011301029263,新規,0,2023-12-25,2023-12-25,株式会社トップ・ノッチ,,株式会社,東京都,杉並区,下高井戸４丁目３４番１０号,,13,115,1680073,,,,,,,2023-12-25,1,,,,,トップノッチ,0
55,1011403004214,新規,0,2023-12-25,2023-12-25,開縁合同会社,,合同会社,東京都,板橋区,小豆沢３丁目９番１－４０６号,,13,119,1740051,,,,,,,2023-12-25,1,,,,,カイエン,0
57,1011501030153,新規,0,2023-12-25,2023-12-25,株式会社ジキルコレクション,,株式会社,東京都,荒川区,町屋８丁目１４番１３－３０２号,,13,118,1160001,,,,,,,2023-12-25,1,,,,,ジキルコレクション,0
58,1011503005905,新規,0,2023-12-25,2023-12-25,ベキジャパン合同会社,,合同会社,東京都,北区,浮間３丁目１番３－３０５号,,13,117,1150051,,,,,,,2023-12-25,1,,,,,ベキジャパン,0
65,1013301051817,新規,0,2023-12-25,2023-12-25,株式会社アッシュ,,株式会社,東京都,豊島区,東池袋３丁目２１番２１－２０１１号,,13,116,1700013,,,,,,,2023-12-25,1,,,,,アッシュ,0
69,1020001155030,新規,0,2023-12-25,2023-12-25,株式会社ＹＵＭＥＫＵＲＵ,,株式会社,神奈川県,横浜市鶴見区,鶴見中央３丁目１５番４２－４０２号,,14,101,2300051,,,,,,,2023-12-25,1,,,,,ユメクル,0
70,1020001155071,新規,0,2023-12-25,2023-12-25,輝エステート株式会社,,株式会社,神奈川県,川崎市川崎区,桜本２丁目４番１０－２階,,14,131,2100833,,,,,,,2023-12-25,1,,,,,ヒカリエステート,0
75,1020003025223,新規,0,2023-12-25,2023-12-25,合同会社山手進研,,合同会社,神奈川県,横浜市磯子区,下町１３番３－４０５号,,14,107,2350004,,,,,,,2023-12-25,1,,,,,ヤマテシンケン,0
76,1020003025248,新規,0,2023-12-25,2023-12-25,合同会社クアルコンプス,,合同会社,神奈川県,川崎市幸区,新塚越１－２サウザンドシティ１－３９０８,,14,132,2120027,,,,,,,2023-12-25,1,,,,,クアルコンプス,0
87,1030001157819,新規,0,2023-12-25,2023-12-25,ＡＮＳＷＥＲ・ＪＡＰＡＮ株式会社,,株式会社,埼玉県,三郷市,高州２丁目３６３番地,,11,237,3410037,,,,,,,2023-12-25,1,,,,,アンサージャパン,0
88,1030001157851,新規,0,2023-12-25,2023-12-25,株式会社ファイブフォーティ,,株式会社,埼玉県,比企郡小川町,大字青山７８１番地５,,11,343,3550324,,,,,,,2023-12-25,1,,,,,ファイブフォーティ,0
89,1030001157876,新規,0,2023-12-25,2023-12-25,株式会社Ｙ,,株式会社,埼玉県,加須市,下三俣２００番地１,,11,210,3470007,,,,,,,2023-12-25,1,,,,,ワイ,0
94,1030003023309,新規,0,2023-12-25,2023-12-25,ＡＲＩＥＳ合同会社,,合同会社,埼玉県,川口市,差間３丁目２９番３１―５号,,11,203,3330816,,,,,,,2023-12-25,1,,,,,アリエス,0
99,1040001131475,新規,0,2023-12-25,2023-12-25,株式会社野本工業,,株式会社,千葉県,印旛郡酒々井町,上本佐倉１２５番地１（ヴァンヴェールＩ２０２）,00133098,12,322,2850925,,,,,,,2023-12-25,1,,,,,ノモトコウギョウ,0
100,1040001131500,新規,0,2023-12-25,2023-12-25,株式会社Ｅｆ　ｗｏｒｋｓ,,株式会社,千葉県,千葉市稲毛区,轟町１丁目１１番２号,,12,103,2630021,,,,,,,2023-12-25,1,,,,,エフワークス,0
102,1040003023943,新規,0,2023-12-25,2023-12-25,優志合同会社,,合同会社,千葉県,市川市,本北方２丁目２５番１７号,,12,203,2720816,,,,,,,2023-12-25,1,,,,,ユウシ,0
103,1040003023984,新規,0,2023-12-25,2023-12-25,ノビノビ合同会社,,合同会社,千葉県,船橋市,二子町５８０番地１コーラルハイツ３１号,,12,204,2730034,,,,,,,2023-12-25,1,,,,,ノビノビ,0
104,1050001053999,新規,0,2023-12-25,2023-12-25,株式会社ＴＳＵＫＡＳＡ　ＧＲＯＵＰ,,株式会社,茨城県,日立市,久慈町１丁目７番１２号,,08,202,3191222,,,,,,,2023-12-25,1,,,,,ツカサグループ,0
105,1050001054015,新規,0,2023-12-25,2023-12-25,株式会社かぶとの警備保障,,株式会社,茨城県,水戸市,柵町２丁目８番２８号,,08,201,3100802,,,,,,,2023-12-25,1,,,,,カブトノケイビホショウ,0
106,1050001054023,新規,0,2023-12-25,2023-12-25,ＢｒｅｗＴｅｃｈ　Ｓｕｐｐｏｒｔｓ株式会社,,株式会社,茨城県,石岡市,東光台５丁目１番１４号,,08,205,3150033,,,,,,,2023-12-25,1,,,,,ブリューテックサポート,0
107,1050003008027,新規,0,2023-12-25,2023-12-25,ＰＨＵＣ　ＨＩＥＵ合同会社,,合同会社,茨城県,坂東市,中里９７３番地３,,08,228,3060634,,,,,,,2023-12-25,1,,,,,フックヒェウ,0
114,1060003004850,新規,0,2023-12-25,2023-12-25,合同会社ＳＵＮ,,合同会社,栃木県,小山市,大字羽川３８６番２,,09,208,3230012,,,,,,,2023-12-25,1,,,,,サン,0
122,1090003002447,新規,0,2023-12-25,2023-12-25,合同会社ＴＲＥＡＮＴ,,合同会社,山梨県,北杜市,大泉町西井出８２４０－４００,,19,209,4091501,,,,,,,2023-12-25,1,,,,,トレント,0
136,1120001260885,新規,0,2023-12-25,2023-12-25,株式会社福龍,,株式会社,大阪府,大阪市大正区,南恩加島２丁目９番２１号,,27,108,5510021,,,,,,,2023-12-25,1,,,,,フクリュウ,0
137,1120001260902,新規,0,2023-12-25,2023-12-25,株式会社ＤＮＳ,,株式会社,大阪府,大阪市中央区,南船場４丁目９番１２号朝日プラザ心斎橋北２０７,,27,128,5420081,,,,,,,2023-12-25,1,,,,,ディーエヌエス,0
138,1120001260935,新規,0,2023-12-25,2023-12-25,株式会社サイコロ企画,,株式会社,大阪府,大阪市北区,小松原町１番４号,,27,127,5300018,,,,,,,2023-12-25,1,,,,,サイコロキカク,0
141,1120003025551,新規,0,2023-12-25,2023-12-25,合同会社Ｆ．Ｒ工業,,合同会社,大阪府,大阪市西淀川区,御幣島６丁目１１番４６－２０８号,,27,113,5550012,,,,,,,2023-12-25,1,,,,,エフアールコウギョウ,0
154,1120903004976,新規,0,2023-12-25,2023-12-25,合同会社ｔｗｉｎｓ,,合同会社,大阪府,池田市,豊島北２丁目７番１６－１号,,27,204,5630036,,,,,,,2023-12-25,1,,,,,ツインズ,0
155,1130001075928,新規,0,2023-12-25,2023-12-25,株式会社朋,,株式会社,京都府,京都市中京区,亀屋町３７５－１－３０７,,26,104,6048253,,,,,,,2023-12-25,1,,,,,トモ,0
156,1130001075977,新規,0,2023-12-25,2023-12-25,株式会社美夢．ｐｌａｎ,,株式会社,京都府,京都市右京区,嵯峨中又町２－５１,,26,108,6168347,,,,,,,2023-12-25,1,,,,,ミユプラン,0
157,1130001075993,新規,0,2023-12-25,2023-12-25,株式会社ｍｉｃｏｒａ,,株式会社,京都府,京都市中京区,東洞院通六角下る御射山町２７３番地プラウド京都東洞院５０６,,26,104,6048147,,,,,,,2023-12-25,1,,,,,マイコラ,0
158,1130001076001,新規,0,2023-12-25,2023-12-25,株式会社ココカラミライ,,株式会社,京都府,向日市,森本町東ノ口１２番地２、２階,,26,208,6170003,,,,,,,2023-12-25,1,,,,,ココカラミライ,0
159,1130003009207,新規,0,2023-12-25,2023-12-25,ＫＡＫＯＪＰ合同会社,,合同会社,京都府,京田辺市,興戸地蔵谷１０５番地１３,,26,211,6100332,,,,,,,2023-12-25,1,,,,,カコジェイピー,0
164,1140001132760,新規,0,2023-12-25,2023-12-25,株式会社東幹,,株式会社,兵庫県,尼崎市,西難波町１丁目５番７号川島マンション１Ｄ号,,28,202,6600893,,,,,,,2023-12-25,1,,,,,トウカン,0
167,1140003019683,新規,0,2023-12-25,2023-12-25,ＱＡＺ合同会社,,合同会社,兵庫県,神戸市東灘区,魚崎中町２丁目１０番２８号,,28,101,6580083,,,,,,,2023-12-25,1,,,,,キューエーゼット,0
187,1180001159486,新規,0,2023-12-25,2023-12-25,株式会社ＴＹＭＧ,,株式会社,愛知県,名古屋市瑞穂区,下山町１丁目８４番地の４,,23,108,4670049,,,,,,,2023-12-25,1,,,,,ティーワイエムジー,0
188,1180001159511,新規,0,2023-12-25,2023-12-25,株式会社ｂｙｅｏｌ,,株式会社,愛知県,名古屋市中区,丸の内２丁目１５番２０号,,23,106,4600002,,,,,,,2023-12-25,1,,,,,ビョル,0
197,1180301038159,新規,0,2023-12-25,2023-12-25,株式会社エピックライフ,,株式会社,愛知県,豊田市,東山町６丁目１５０１番地２３,,23,211,4710014,,,,,,,2023-12-25,1,,,,,エピックライフ,0
202,1200001042012,新規,0,2023-12-25,2023-12-25,Ｂｅｉｎｇ株式会社,,株式会社,岐阜県,岐阜市,今嶺２丁目６番１０号,,21,201,5008388,,,,,,,2023-12-25,1,,,,,ビーイング,0
204,1200003006188,新規,0,2023-12-25,2023-12-25,合同会社パーパス,,合同会社,岐阜県,恵那市,大井町１７６３番地１４,,21,210,5097201,,,,,,,2023-12-25,1,,,,,パーパス,0
207,1220003003646,新規,0,2023-12-25,2023-12-25,合同会社アイリスリリー,,合同会社,石川県,金沢市,泉野町５丁目４番７号,,17,201,9218034,,,,,,,2023-12-25,1,,,,,アイリスリリー,0
208,1230005009351,新規,0,2023-12-25,2023-12-25,一般社団法人とまりぎラボ,,その他の設立登記法人,富山県,射水市,堀内２４７－１,,16,211,9390253,,,,,,,2023-12-25,1,,,,,トマリギラボ,0
209,1240001062592,新規,0,2023-12-25,2023-12-25,株式会社ハートントン,,株式会社,広島県,広島市安佐南区,長束５丁目２５番３０－１０２号,,34,105,7310135,,,,,,,2023-12-25,1,,,,,,0
212,1260001038599,新規,0,2023-12-25,2023-12-25,ＳＨＩＯＮ　ＬＡＮＫＡ株式会社,,株式会社,岡山県,総社市,南溝手３７３番地,,33,208,7191113,,,,,,,2023-12-25,1,,,,,シオンランカ,0
232,1290001104183,新規,0,2023-12-25,2023-12-25,株式会社金平,,株式会社,福岡県,福岡市城南区,東油山１丁目１２番７号,,40,136,8140155,,,,,,,2023-12-25,1,,,,,カネヒラ,0
243,1290801030158,新規,0,2023-12-25,2023-12-25,フジトラッシュ株式会社,,株式会社,福岡県,鞍手郡小竹町,大字御徳１３５番地７５,,40,401,8201101,,,,,,,2023-12-25,1,,,,,フジトラッシュ,0
265,1360001032971,新規,0,2023-12-25,2023-12-25,株式会社ミッショニング,,株式会社,沖縄県,国頭郡恩納村,字名嘉真１７６５番地２０,,47,311,9040401,,,,,,,2023-12-25,1,,,,,ミッショニング,0
270,1370001050766,新規,0,2023-12-25,2023-12-25,株式会社ＫＵＳＡＫＡ,,株式会社,宮城県,名取市,大手町４丁目１８番地の７,,04,207,9811232,,,,,,,2023-12-25,1,,,,,クサカ,0
271,1370005010733,新規,0,2023-12-25,2023-12-25,特定非営利活動法人まるっと栗原,,その他の設立登記法人,宮城県,栗原市,若柳字川北元町８６,,04,213,9895501,,,,,,,2023-12-25,1,,,,,マルットクリハラ,0
275,1380005012778,新規,0,2023-12-25,2023-12-25,特定非営利活動法人たなぐら里山板橋キビタキの森,,その他の設立登記法人,福島県,東白川郡棚倉町,大字板橋字東坪２３番地,,07,481,9636113,,,,,,,2023-12-25,1,,,,,タナグラサトヤマイタバシキビタキノモリ,0
278,1420001018519,新規,0,2023-12-25,2023-12-25,なんぶ看護介護株式会社,,株式会社,青森県,三戸郡南部町,大字剣吉字岩ノ下４番地１,,02,445,0390612,,,,,,,2023-12-25,1,,,,,ナンブカンゴカイゴ,0
282,1430001090707,新規,0,2023-12-25,2023-12-25,Ｌｉｆｅ　Ａｄｍｉｎ株式会社,,株式会社,北海道,札幌市西区,山の手二条１２丁目８番２３号,,01,107,0630002,,,,,,,2023-12-25,1,,,,,ライフアドミン,0
284,1430003015785,新規,0,2023-12-25,2023-12-25,合同会社セクターエイト,,合同会社,北海道,札幌市手稲区,手稲山口７００－１,,01,109,0060860,,,,,,,2023-12-25,1,,,,,セクターエイト,0
285,1440001009367,新規,0,2023-12-25,2023-12-25,株式会社ビーコネクト,,株式会社,北海道,二海郡八雲町,熊石相沼町２０３番地,,01,346,0430332,,,,,,,2023-12-25,1,,,,,ビーコネクト,0
290,1700150122118,新規,0,2023-12-25,2023-12-25,Ｇｕａｎｇｚｈｏｕ　Ｈｕａｄｉｑｉｃｈｅｙｏｎｇｐｉｎ　ｙｏｕｘｉａｎｇｏｎｇｓｉ,,外国会社等,,,,,,,,Ｇｕａｎｇｚｈｏｕｓｈｉｂａｉｙｕｎｑｕｊｕｎｈｅｊｉｅ　ｑｉｎｇｈｕｓｕｙｕａｎｚｈｕａｎｇＳａｎｈｅｎｇｌｕ１ｈａｏｙｉｄｏｎｇ２ｌｏｕ２０１,,,,,,2023-12-25,1,,,,,グワーンジヨウホワデイーチイチヨーアヨーンピンヨウシエンゴーンスー,0
291,1700150123066,新規,0,2023-12-25,2023-12-25,Ｈｕｎａｎ　Ｌａｉｃｈｅｎｇ　ｅｌｅｃｔｒｏｎｉｃ　Ｔｅｃｈｎｏｌｏｇｙ　Ｃｏ．，ＬＴＤ,,外国会社等,,,,,,,,Ｎｏ．０４６，Ｓｅｃｏｎｄ　ｖｉｌｌａｇｅｒ　Ｇｒｏｕｐ，Ｐｉｎｇｓｈｕ　Ｖｉｌｌａｇｅ，Ｗｅｎｔｉａｎ　Ｔｏｗｎ，Ｘｉｎｈｕａ　Ｃｏｕｎｔｙ，Ｌｏｕｄｉ　Ｃｉｔｙ，Ｈｕｎａｎ　Ｐｒｏｖｉｎｃｅ,,,,,,2023-12-25,1,,,,,フーナンシヨンライチヨンデイエンズーコージーヨウシエンゴンスー,0
292,1700150123074,新規,0,2023-12-25,2023-12-25,Ｃｈａｎｇｓｈｕ　Ｃｈａｏｎａｎ　Ｂａｎｇ　Ｃｌｏｔｈｉｎｇ　Ｃｏ．，Ｌｔｄ．,,外国会社等,,,,,,,,ｃｈａｎｇｓｈｕｓｈｉ　ｑｉｎｃｈｕａｎｊｉｅｄａｏ　ｍｅｎｇｌａｎｂｅｉｌｕ８ｈａｏ２０３－３　２１５５００　ＣＮ,,,,,,2023-12-25,1,,,,,チャンシューツアオナンバンクロウジングカンパニーリミテッド,0
293,1700150123082,新規,0,2023-12-25,2023-12-25,ｓｈｅｎ　ｚｈｅｎ　ｓｈｉ　ｌｉ　ｈａｉ　ｋｅ　ｊｉ　ｙｏｕ　ｘｉａｎ　ｇｏｎｇ　ｓｉ,,外国会社等,,,,,,,,Ｒｏｏｍ　５０８，Ｍａｏｙｅ　Ｃａｌｌｉｇｒａｐｈｙ　ａｎｄ　Ｐａｉｎｔｉｎｇ，Ｐｌａｚａ，Ｎｏ．２４５　Ｂｕｓｈ，Ｓｈｅｎｚｈｅｎ　Ｃｉｔｙ，Ｇｕａｎｇｄｏｎｇ　Ｐｒｏｖｉｎｃｅ,,,,,,2023-12-25,1,,,,,シンセンシレイカイカギユウゲンコウシ,0
298,2010001241029,新規,0,2023-12-25,2023-12-25,ＳＡＮＫＯ株式会社,,株式会社,東京都,文京区,白山１丁目６番４号文京ＶｅｎｔｕｒｅＢａｓｅ２０１,,13,105,1130001,,,,,,,2023-12-25,1,,,,,サンコ,0
299,2010001241053,新規,0,2023-12-25,2023-12-25,株式会社広葉社,,株式会社,東京都,中央区,月島２丁目７番６号,,13,102,1040052,,,,,,,2023-12-25,1,,,,,コウヨウシャ,0
300,2010001241086,新規,0,2023-12-25,2023-12-25,株式会社プラウド,,株式会社,東京都,中央区,日本橋富沢町７番１６号ＴＨＥＧＡＴＥ日本橋人形町４階,,13,102,1030006,,,,,,,2023-12-25,1,,,,,プラウド,0
304,2010003042524,新規,0,2023-12-25,2023-12-25,Ｐａｎｏｒａｍａ　Ａｄｖｉｓｏｒｓ合同会社,,合同会社,東京都,千代田区,丸の内３丁目２番３号,,13,101,1000005,,,,,,,2023-12-25,1,,,,,パノラマアドバイザーズ,0
309,2010401179364,新規,0,2023-12-25,2023-12-25,株式会社美容師ギルドジャパン,,株式会社,東京都,港区,赤坂３丁目８番１７号ＰＡＮＪＡＰＡＮＢＬＤＧ５Ｆ,,13,103,1070052,,,,,,,2023-12-25,1,,,,,ビヨウシギルドジャパン,0
310,2010401179372,新規,0,2023-12-25,2023-12-25,株式会社アスタラビスタ,,株式会社,東京都,港区,南青山２丁目２番１５号ウィン青山９４２,,13,103,1070062,,,,,,,2023-12-25,1,,,,,アスタラビスタ,0
311,2010401179397,新規,0,2023-12-25,2023-12-25,ＫＣＡＰＢＯ５株式会社,,株式会社,東京都,港区,南青山３丁目１０番４３号,,13,103,1070062,,,,,,,2023-12-25,1,,,,,ケーシーエーピービーオーファイブ,0
312,2010401179406,新規,0,2023-12-25,2023-12-25,株式会社Ａｎｄｒｅｓ,,株式会社,東京都,港区,赤坂４丁目５番１９号,,13,103,1070052,,,,,,,2023-12-25,1,,,,,アンドレス,0
315,2010403031655,新規,0,2023-12-25,2023-12-25,合同会社Ｓｐｏｋａｎｅ,,合同会社,東京都,港区,虎ノ門１丁目１番１８号ヒューリック虎ノ門ビル９階Ｌ＆Ｐ司法書士法人内,,13,103,1050001,,,,,,,2023-12-25,1,,,,,スポーカン,0
316,2010601064382,新規,0,2023-12-25,2023-12-25,Ｈ株式会社,,株式会社,東京都,江東区,豊洲５丁目５番１号,,13,108,1350061,,,,,,,2023-12-25,1,,,,,エイチ,0
317,2010701045308,新規,0,2023-12-25,2023-12-25,株式会社思いやり,,株式会社,東京都,品川区,東五反田１丁目２５番１８－９０２号,,13,109,1410022,,,,,,,2023-12-25,1,,,,,オモイヤリ,0
319,2010803004797,新規,0,2023-12-25,2023-12-25,合同会社トライアングル,,合同会社,東京都,大田区,中央５丁目１１－１－２４,,13,111,1430024,,,,,,,2023-12-25,1,,,,,トライアングル,0
325,2010901054406,新規,0,2023-12-25,2023-12-25,株式会社Ａ．Ｈ．Ｋ,,株式会社,東京都,世田谷区,野沢４丁目２１番１４号,,13,112,1540003,,,,,,,2023-12-25,1,,,,,エーエイチケイ,0
342,2011203004256,新規,0,2023-12-25,2023-12-25,合同会社オモチもちもち,,合同会社,東京都,中野区,中央５丁目３９番１４－１０１号,,13,114,1640011,,,,,,,2023-12-25,1,,,,,オモチモチモチ,0
343,2011203004264,新規,0,2023-12-25,2023-12-25,合同会社参和商会,,合同会社,東京都,中野区,中央２丁目３０－９,,13,114,1640011,,,,,,,2023-12-25,1,,,,,サンワショウカイ,0
348,2011801043556,新規,0,2023-12-25,2023-12-25,株式会社広田ソフトビニール工房,,株式会社,東京都,葛飾区,堀切２丁目６５番２５号１階,,13,122,1240006,,,,,,,2023-12-25,1,,,,,ヒロタソフトビニールコウボウ,0
349,2011801043572,新規,0,2023-12-25,2023-12-25,株式会社モントレ・ジュール,,株式会社,東京都,葛飾区,堀切８丁目３番１－２０３号,,13,122,1240006,,,,,,,2023-12-25,1,,,,,モントレジュール,0
351,2012801022863,新規,0,2023-12-25,2023-12-25,株式会社ボナンザ,,株式会社,東京都,国分寺市,新町１丁目１７番地１８,,13,214,1850004,,,,,,,2023-12-25,1,,,,,ボナンザ,0
352,2012803003267,新規,0,2023-12-25,2023-12-25,合同会社モノヅクリアーツ,,合同会社,東京都,武蔵村山市,中原３丁目３０番地の２４,,13,223,2080035,,,,,,,2023-12-25,1,,,,,モノヅクリアーツ,0
364,2020001155021,新規,0,2023-12-25,2023-12-25,株式会社スーパーサブ,,株式会社,神奈川県,川崎市中原区,下小田中１丁目５－７ノーブル中原３０８,,14,133,2110041,,,,,,,2023-12-25,1,,,,,スーパーサブ,0
374,2021001081050,新規,0,2023-12-25,2023-12-25,株式会社ＬＯＧＬＥＥ,,株式会社,神奈川県,大和市,下鶴間３２８番地２４,,14,213,2420001,,,,,,,2023-12-25,1,,,,,ログリー,0
377,2021003013935,新規,0,2023-12-25,2023-12-25,ＲＩＤＨＡ　ＥＮＴＥＲＰＲＩＳＥＳ合同会社,,合同会社,神奈川県,厚木市,愛名１０２７番地－１１１,,14,212,2430038,,,,,,,2023-12-25,1,,,,,リダエンタープライセス,0
378,2021003013943,新規,0,2023-12-25,2023-12-25,富士産業合同会社,,合同会社,神奈川県,平塚市,南金目３４９番地１,,14,203,2591201,,,,,,,2023-12-25,1,,,,,フジサンギョウ,0
386,2030001157850,新規,0,2023-12-25,2023-12-25,株式会社旅路,,株式会社,埼玉県,戸田市,美女木東１丁目４番地の３１,,11,224,3350032,,,,,,,2023-12-25,1,,,,,タビジ,0
387,2030001157875,新規,0,2023-12-25,2023-12-25,株式会社ＴＲＵＳＴ,,株式会社,埼玉県,川越市,大字扇河岸１０５番地６扇河岸ビル２０１号室,,11,201,3501134,,,,,,,2023-12-25,1,,,,,トラスト,0
392,2030003023290,新規,0,2023-12-25,2023-12-25,電空プロテック合同会社,,合同会社,埼玉県,新座市,畑中２丁目３番２５号,,11,230,3520012,,,,,,,2023-12-25,1,,,,,デンクウプロテック,0
398,2040001131482,新規,0,2023-12-25,2023-12-25,株式会社シルフカンパニー,,株式会社,千葉県,松戸市,東松戸３丁目２番地の１アルフレンテ１１１０号,,12,207,2702225,,,,,,,2023-12-25,1,,,,,シルフカンパニー,0
399,2040001131499,新規,0,2023-12-25,2023-12-25,株式会社Ｄｒｅｄｇｅ,,株式会社,千葉県,袖ケ浦市,蔵波３００１番地８１,,12,229,2990243,,,,,,,2023-12-25,1,,,,,ドレッジ,0
403,2050001053965,新規,0,2023-12-25,2023-12-25,株式会社大八商事,,株式会社,茨城県,常総市,新石下３７６２番地５,,08,211,3002706,,,,,,,2023-12-25,1,,,,,ダイハチショウジ,0
404,2050001054014,新規,0,2023-12-25,2023-12-25,株式会社エアータイト,,株式会社,茨城県,水戸市,城南３丁目１６－１０,,08,201,3100803,,,,,,,2023-12-25,1,,,,,エアータイト,0
405,2050001054022,新規,0,2023-12-25,2023-12-25,株式会社ＲＩＶＡＧＥ,,株式会社,茨城県,つくば市,松代１丁目１４番地１１サンヒルズ松代２０２号,,08,220,3050035,,,,,,,2023-12-25,1,,,,,リヴァージュ,0
406,2050003008034,新規,0,2023-12-25,2023-12-25,合同会社ラビット,,合同会社,茨城県,常総市,向石下１１９－１９,,08,211,3002742,,,,,,,2023-12-25,1,,,,,,0
408,2060001036655,新規,0,2023-12-25,2023-12-25,株式会社遊心,,株式会社,栃木県,小山市,大字粟宮２２８番地１,,09,208,3290201,,,,,,,2023-12-25,1,,,,,ユウシン,0
411,2070001041217,新規,0,2023-12-25,2023-12-25,株式会社エバードリーム,,株式会社,群馬県,伊勢崎市,北千木町１４３２番地３,,10,204,3720032,,,,,,,2023-12-25,1,,,,,エバードリーム,0
415,2080001026043,新規,0,2023-12-25,2023-12-25,株式会社ＡＬＬ　ＢＬＵＥ,,株式会社,静岡県,牧之原市,勝俣１８２８番地,,22,226,4210414,,,,,,,2023-12-25,1,,,,,オールブルー,0
416,2080001026051,新規,0,2023-12-25,2023-12-25,株式会社まほろば,,株式会社,静岡県,静岡市葵区,人宿町２丁目５－６,,22,101,4200037,,,,,,,2023-12-25,1,,,,,マホロバ,0
417,2080101024418,新規,0,2023-12-25,2023-12-25,株式会社ハングアウト,,株式会社,静岡県,沼津市,大諏訪５２９番地の１,,22,203,4100873,,,,,,,2023-12-25,1,,,,,ハングアウト,0
434,2120001260876,新規,0,2023-12-25,2023-12-25,株式会社ニッキ,,株式会社,大阪府,大阪市西区,立売堀１丁目８番６号星和シティビル本町西１０１,,27,106,5500012,,,,,,,2023-12-25,1,,,,,ニッキ,0
435,2120001260884,新規,0,2023-12-25,2023-12-25,株式会社ライトアングル,,株式会社,大阪府,大阪市住吉区,東粉浜３丁目２－１１,,27,120,5580051,,,,,,,2023-12-25,1,,,,,ライトアングル,0
436,2120001260901,新規,0,2023-12-25,2023-12-25,株式会社サンマネライズ,,株式会社,大阪府,大阪市浪速区,桜川１丁目２－４ＺＥＮ６０１号,,27,111,5560022,,,,,,,2023-12-25,1,,,,,サンマネライズ,0
437,2120001260942,新規,0,2023-12-25,2023-12-25,ＳＵＮＮＹ　ＩＮＴＥＲＮＡＴＩＯＮＡＬ株式会社,,株式会社,大阪府,大阪市浪速区,浪速東３丁目９番５号,,27,111,5560025,,,,,,,2023-12-25,1,,,,,サニーインターナショナル,0
446,2120903004959,新規,0,2023-12-25,2023-12-25,合同会社ピースフルドッグ,,合同会社,大阪府,吹田市,山田西１丁目３２―６―２,,27,205,5650824,,,,,,,2023-12-25,1,,,,,ピースフルドッグ,0
447,2120903004975,新規,0,2023-12-25,2023-12-25,合同会社Ｋ‐ｓｔｙｌｅ,,合同会社,大阪府,豊中市,服部本町４丁目２番２７号,,27,203,5610852,,,,,,,2023-12-25,1,,,,,ケースタイル,0
448,2122003002760,新規,0,2023-12-25,2023-12-25,合同会社アドバンスシステムズ,,合同会社,大阪府,八尾市,渋川町６丁目１番２８号,,27,212,5810075,,,,,,,2023-12-25,1,,,,,アドバンスシステムズ,0
452,2130001075976,新規,0,2023-12-25,2023-12-25,京都栄養株式会社,,株式会社,京都府,相楽郡精華町,大字下狛小字西川原７２番地１,,26,366,6190245,,,,,,,2023-12-25,1,,,,,キョウトエイヨウ,0
453,2130001075984,新規,0,2023-12-25,2023-12-25,株式会社ＵＰ’ｓＧａｒｄｅｎ,,株式会社,京都府,京都市左京区,上高野車地町１５４番地,,26,103,6060053,,,,,,,2023-12-25,1,,,,,アップズガーデン,0
454,2130001075992,新規,0,2023-12-25,2023-12-25,株式会社Ｗｉｓｔｅｒｉａ　Ｐａｄｄｙ　ｆｉｅｌｄ,,株式会社,京都府,京都市下京区,麩屋町通五条上る下鱗形町５４０番地３,,26,106,6008059,,,,,,,2023-12-25,1,,,,,ウィステリアパディフィールド,0
455,2130001076009,新規,0,2023-12-25,2023-12-25,星海株式会社,,株式会社,京都府,京都市下京区,七条通猪熊東入西八百屋町１５２民宿らんたん１０２号室,,26,106,6008269,,,,,,,2023-12-25,1,,,,,セイカイ,0
456,2130003009197,新規,0,2023-12-25,2023-12-25,なぐ合同会社,,合同会社,京都府,与謝郡与謝野町,字岩滝３６０番地４,,26,465,6292262,,,,,,,2023-12-25,1,,,,,ナグ,0
462,2140003019955,新規,0,2023-12-25,2023-12-25,合同会社ＴＨＥＴＡ,,合同会社,兵庫県,神戸市須磨区,須磨浦通４丁目６番４号,,28,107,6540055,,,,,,,2023-12-25,1,,,,,シータ,0
465,2140005026859,新規,0,2023-12-25,2023-12-25,医療法人社団たにぐち内科クリニック,,その他の設立登記法人,兵庫県,川西市,栄町２０番１号ベルフローラ・かわにしＷＥＳＴ棟１階,,28,217,6660033,,,,,,,2023-12-25,1,,,,,タニグチナイカクリニック,0
471,2160001025581,新規,0,2023-12-25,2023-12-25,株式会社フタバ,,株式会社,滋賀県,草津市,上笠４丁目２２番３３号,,25,206,5250028,,,,,,,2023-12-25,1,,,,,フタバ,0
480,2180001159460,新規,0,2023-12-25,2023-12-25,ライフシーズ株式会社,,株式会社,愛知県,春日井市,関田町２丁目１６３番地１,,23,206,4860855,,,,,,,2023-12-25,1,,,,,ライフシーズ,0
481,2180001159519,新規,0,2023-12-25,2023-12-25,ＬＤＸ株式会社,,株式会社,愛知県,名古屋市守山区,小幡南２丁目１４番１７号グランコンフォール１０１号,,23,113,4630048,,,,,,,2023-12-25,1,,,,,エルディーエックス,0
487,2200001042003,新規,0,2023-12-25,2023-12-25,株式会社Ｇｉｆｕ　ＢｉｏＰｈａｒｍａ,,株式会社,岐阜県,岐阜市,柳戸１番地１岐阜大学学術研究・産学官連携推進本部棟内,,21,201,5011112,,,,,,,2023-12-25,1,,,,,ギフバイオファーマ,0
488,2200001042011,新規,0,2023-12-25,2023-12-25,株式会社Ｇｅｎｅｒａｌ　Ｅｙｅ,,株式会社,岐阜県,各務原市,那加新加納町１８８４番地３,,21,213,5040958,,,,,,,2023-12-25,1,,,,,ジェネラルアイ,0
494,2240001062583,新規,0,2023-12-25,2023-12-25,株式会社すずか,,株式会社,広島県,三原市,西宮２丁目１番２４号,,34,204,7230064,,,,,,,2023-12-25,1,,,,,スズカ,0
497,2240003006464,新規,0,2023-12-25,2023-12-25,合同会社Ｗｉｔｈ,,合同会社,広島県,府中市,栗柄町３１０６番地２,,34,208,7260023,,,,,,,2023-12-25,1,,,,,ウィズ,0
504,2270001008897,新規,0,2023-12-25,2023-12-25,Ｃ．Ｃ．株式会社,,株式会社,鳥取県,米子市,夜見町３０６６番地３２,,31,202,6830851,,,,,,,2023-12-25,1,,,,,シーシー,0
519,2290003014768,新規,0,2023-12-25,2023-12-25,合同会社アルティメイトトレード,,合同会社,福岡県,宗像市,大井南３番１号,,40,220,8113440,,,,,,,2023-12-25,1,,,,,,0
520,2290805009692,新規,0,2023-12-25,2023-12-25,一般社団法人光星会,,その他の設立登記法人,福岡県,中間市,東中間１丁目３番７号,,40,215,8090019,,,,,,,2023-12-25,1,,,,,コウセイカイ,0
526,2340001026149,新規,0,2023-12-25,2023-12-25,株式会社大福,,株式会社,鹿児島県,薩摩川内市,入来町浦之名７６８７番地１,,46,215,8951402,,,,,,,2023-12-25,1,,,,,ダイフク,0
528,2340005009686,新規,0,2023-12-25,2023-12-25,特定非営利活動法人スマイルファクトリー,,その他の設立登記法人,鹿児島県,垂水市,上町１１５番地,,46,214,8912122,,,,,,,2023-12-25,1,,,,,スマイルファクトリー,0
535,2360001032987,新規,0,2023-12-25,2023-12-25,株式会社Ａ．ｕ　ｃｏｍｐａｎｙ,,株式会社,沖縄県,糸満市,字武富２３７番地Ｇ－１,,47,210,9010311,,,,,,,2023-12-25,1,,,,,エーユーカンパニー,0
536,2360001032995,新規,0,2023-12-25,2023-12-25,株式会社沖縄文化日中経済交流中心,,株式会社,沖縄県,中頭郡北谷町,北前１丁目１１番１０号,,47,326,9040117,,,,,,,2023-12-25,1,,,,,オキナワブンカニッチュウケイザイコウリュウチュウシン,0
538,2360005006962,新規,0,2023-12-25,2023-12-25,一般社団法人豊崎サポート,,その他の設立登記法人,沖縄県,那覇市,字仲井真２２３番地グランドハイム仲井真台１１６,,47,201,9020074,,,,,,,2023-12-25,1,,,,,トヨサキサポート,0
553,2420001018526,新規,0,2023-12-25,2023-12-25,グッドリブ株式会社,,株式会社,青森県,五所川原市,大字金山字盛山９４番地４,,02,205,0370011,,,,,,,2023-12-25,1,,,,,グッドリブ,0
562,2430003015751,新規,0,2023-12-25,2023-12-25,合同会社ＩＲＥＮＫＡ,,合同会社,北海道,岩見沢市,幌向南四条１丁目２５４‐１１６,,01,210,0690374,,,,,,,2023-12-25,1,,,,,イレンカ,0
563,2430003015792,新規,0,2023-12-25,2023-12-25,合同会社ＳｕｐｐｏｒｔＬｉｓｔ,,合同会社,北海道,札幌市中央区,南六条西１２丁目７６１－１７,,01,101,0640806,,,,,,,2023-12-25,1,,,,,サポートリスト,0
574,2700150123065,新規,0,2023-12-25,2023-12-25,Ｓｈｅｎｚｈｅｎ　Ｙｉｔｉａｎ　Ｇｌｏｂａｌ　Ｔｅｃｈｎｏｌｏｇｙ　Ｃｏ．，Ｌｔｄ,,外国会社等,,,,,,,,Ｒｏｏｍ　４０２，Ｂｕｉｌｄｉｎｇ　Ｂ，Ｓｍａｒｔ　Ｖａｌｌｅｙ　Ｉｎｎｏｖａｔｉｏｎ　Ｐａｒｋ，Ｎｏ．８　Ｃｈａｎｇｆａ　Ｍｉｄｄｌｅ　Ｒｏａｄ，Ｂａｎｔｉａｎ　Ｓｔｒｅｅｔ，Ｌｏｎｇｇａｎｇ　Ｄｉｓｔｒｉｃｔ，Ｓｈｅｎｚｈｅｎ，Ｇｕａｎｇｄｏｎｇ，Ｃｈｉｎａ,,,,,,2023-12-25,1,,,,,シエンジエンシーイーテイエンフアンチユーコージーヨウシエンゾーレンゴンスー,0
575,2700150123073,新規,0,2023-12-25,2023-12-25,ＧｕａｎｇＺｈｏｕＧｕＤｅＷａｎｇＬｕｏＫｅＪｉ　ＹｏｕＸｉａｎＧｏｎｇＳｉ,,外国会社等,,,,,,,,２００９　Ｂ５４２　２８３－２　ＴｏｎｇｓｈａＲｏａｄ　ＴｏｎｇｈｅＳｔｒｅｅｔ　ＢａｉｙｕｎＤｉｓｔｒｉｃｔ　Ｇｕａｎｇｚｈｏｕ　５１０５４０　ＣＮ,,,,,,2023-12-25,1,,,,,コウシュウグデワンロカギヨウシェンゴンスー,0
576,2700150123081,新規,0,2023-12-25,2023-12-25,ＧｕａｎｇＺｈｏｕ　ＸｉｎｇＦａｎｇ　ＤｉａｎＺｉＳｈａｎｇＷｕ　ＹｏｕＸｉａｎＧｏｎｇＳｉ,,外国会社等,,,,,,,,Ｔｉａｎ　Ｈｅ　Ｑｕ　Ｃｅｎ　Ｃｕｎ　Ｓｏｎｇ　Ｇａｎｇ　Ｄａ　Ｄａｏ　６　Ｈａｏ，Ｃ８９５　Ｓｈｉ，Ｇｕａｎｇ　Ｚｈｏｕ，Ｇｕａｎｇ　Ｄｏｎｇ,,,,,,2023-12-25,1,,,,,コウシュウセイホウデンシショウムユウゲンコウシ,0
586,3010001241085,新規,0,2023-12-25,2023-12-25,新秀株式会社,,株式会社,東京都,中央区,日本橋人形町２丁目３４－５ＳＡＮＯＳ日本橋ビル６Ｂ,,13,102,1030013,,,,,,,2023-12-25,1,,,,,シンシュウ,0
590,3010003042531,新規,0,2023-12-25,2023-12-25,合同会社ＣｌｉｎｉｃｉＮ,,合同会社,東京都,中央区,日本橋２丁目２番３号ＲＩＳＨＥビルＵＣＦ４０２,,13,102,1030027,,,,,,,2023-12-25,1,,,,,クリニックイン,0
597,3010401179339,新規,0,2023-12-25,2023-12-25,株式会社ＭＹＬＩＦＥ,,株式会社,東京都,港区,赤坂５丁目２番３３号,,13,103,1070052,,,,,,,2023-12-25,1,,,,,マイライフ,0
600,3010403031613,新規,0,2023-12-25,2023-12-25,合同会社ハーベスト,,合同会社,東京都,港区,三田１丁目１１番１８号,,13,103,1080073,,,,,,,2023-12-25,1,,,,,ハーベスト,0
601,3010403031654,新規,0,2023-12-25,2023-12-25,合同会社Ｍａｃｂｅｔｈ,,合同会社,東京都,港区,虎ノ門１丁目１番１８号ヒューリック虎ノ門ビル９階Ｌ＆Ｐ司法書士法人内,,13,103,1050001,,,,,,,2023-12-25,1,,,,,マクベス,0
604,3010601064373,新規,0,2023-12-25,2023-12-25,三生株式会社,,株式会社,東京都,墨田区,文花１丁目３４番１１－４１３号,,13,107,1310044,,,,,,,2023-12-25,1,,,,,サンセイ,0
605,3010601064381,新規,0,2023-12-25,2023-12-25,株式会社天工成,,株式会社,東京都,江東区,東砂６丁目１９番３号,,13,108,1360074,,,,,,,2023-12-25,1,,,,,テンコウセイ,0
609,3010603010540,新規,0,2023-12-25,2023-12-25,合同会社ＥＢＣ,,合同会社,東京都,江東区,猿江２丁目１番７－８０２号,,13,108,1350003,,,,,,,2023-12-25,1,,,,,イービーシー,0
610,3010603010549,新規,0,2023-12-25,2023-12-25,ハヤシマル合同会社,,合同会社,東京都,墨田区,墨田３丁目１２番１３号,,13,107,1310031,,,,,,,2023-12-25,1,,,,,ハヤシマル,0
614,3010701045315,新規,0,2023-12-25,2023-12-25,川橋株式会社,,株式会社,東京都,品川区,南品川６丁目１２番８号ＭＡＮ大井町３０４,,13,109,1400004,,,,,,,2023-12-25,1,,,,,カワハシ,0
615,3010701045323,新規,0,2023-12-25,2023-12-25,Ｃｏｎｔｉｎｕｅｓ株式会社,,株式会社,東京都,品川区,西品川２丁目１９番８号グランドステージ戸越公園弐番館４０５,,13,109,1410033,,,,,,,2023-12-25,1,,,,,コンティニューズ,0
619,3010901054405,新規,0,2023-12-25,2023-12-25,ＴｗｉｎＳｅｎｓｅ株式会社,,株式会社,東京都,世田谷区,成城４丁目３３番１,,13,112,1570066,,,,,,,2023-12-25,1,,,,,ツインセンス,0
620,3010901054413,新規,0,2023-12-25,2023-12-25,株式会社セカンド,,株式会社,東京都,世田谷区,新町２丁目２７番１号,,13,112,1540014,,,,,,,2023-12-25,1,,,,,セカンド,0
622,3010905004562,新規,0,2023-12-25,2023-12-25,一般社団法人シニア総合パートナー,,その他の設立登記法人,東京都,世田谷区,太子堂４丁目２７番２号２階,,13,112,1540004,,,,,,,2023-12-25,1,,,,,シニアソウゴウパートナー,0
624,3011001157627,新規,0,2023-12-25,2023-12-25,株式会社サイコキャラメル,,株式会社,東京都,渋谷区,千駄ヶ谷３丁目１３番８号,,13,113,1510051,,,,,,,2023-12-25,1,,,,,サイコキャラメル,0
625,3011001159037,新規,0,2023-12-25,2023-12-25,株式会社スプライス,,株式会社,東京都,目黒区,平町２丁目１８番２号,,13,110,1520032,,,,,,,2023-12-25,1,,,,,スプライス,0
626,3011001159045,新規,0,2023-12-25,2023-12-25,ＭＳ‐ＨＤ株式会社,,株式会社,東京都,渋谷区,広尾５丁目８番１４号,,13,113,1500012,,,,,,,2023-12-25,1,,,,,エムエスエイチディー,0
631,3011203004255,新規,0,2023-12-25,2023-12-25,合同会社Ｍ‐ＳＫＹ,,合同会社,東京都,中野区,新井２丁目８番１２号,,13,114,1650026,,,,,,,2023-12-25,1,,,,,エムスカイ,0
633,3011405002271,新規,0,2023-12-25,2023-12-25,一般社団法人禅活,,その他の設立登記法人,東京都,板橋区,南常盤台１丁目１１－６レフア南常盤台１０１号室,,13,119,1740072,,,,,,,2023-12-25,1,,,,,ゼンカツ,0
636,3011601027403,新規,0,2023-12-25,2023-12-25,株式会社チトラン,,株式会社,東京都,練馬区,貫井４丁目４５－２,,13,120,1760021,,,,,,,2023-12-25,1,,,,,チトラン,0
641,3011801043530,新規,0,2023-12-25,2023-12-25,盛和鴻株式会社,,株式会社,東京都,足立区,鹿浜４丁目２７番７号,,13,121,1230864,,,,,,,2023-12-25,1,,,,,セイワコウ,0
642,3011801043563,新規,0,2023-12-25,2023-12-25,君和嘉業株式会社,,株式会社,東京都,葛飾区,東金町３丁目１７番１０号ＫＢＳ・Ｃ－６号,,13,122,1250041,,,,,,,2023-12-25,1,,,,,キミワカギョウ,0
643,3011801043571,新規,0,2023-12-25,2023-12-25,株式会社ＮＥＯ,,株式会社,東京都,足立区,中央本町４丁目１９番１７－５０６号,,13,121,1210011,,,,,,,2023-12-25,1,,,,,ネオ,0
645,3011803006015,新規,0,2023-12-25,2023-12-25,合同会社Ｓｈｉｒｏ．Ｋｕｒｏ．Ｍｉｉ,,合同会社,東京都,足立区,中央本町１丁目１番２０号第２大関ビル３０１,,13,121,1200011,,,,,,,2023-12-25,1,,,,,シロドットクロドットミー,0
662,3020001155020,新規,0,2023-12-25,2023-12-25,株式会社Ｆｕｔｕｒｅ,,株式会社,神奈川県,横浜市神奈川区,三枚町５３９番地２３,,14,102,2210862,,,,,,,2023-12-25,1,,,,,フューチャー,0
667,3021001081033,新規,0,2023-12-25,2023-12-25,源の本株式会社,,株式会社,神奈川県,相模原市中央区,相模原４丁目１０－４－１００４号,,14,152,2520231,,,,,,,2023-12-25,1,,,,,ゲンノモト,0
668,3021001081041,新規,0,2023-12-25,2023-12-25,株式会社アイシーエスコンピュートジャパン,,株式会社,神奈川県,横須賀市,浦賀５丁目１８番４号浦賀ハイム１Ｆ店舗,,14,201,2390822,,,,,,,2023-12-25,1,,,,,アイシーエスコンピュートジャパン,0
669,3021001081058,新規,0,2023-12-25,2023-12-25,株式会社本田興業,,株式会社,神奈川県,相模原市中央区,相生４丁目１３番１－３０２号,,14,152,2520235,,,,,,,2023-12-25,1,,,,,ホンダコウギョウ,0
682,3030001157874,新規,0,2023-12-25,2023-12-25,ＦＳＶＡＰ　Ｊａｐａｎ株式会社,,株式会社,埼玉県,さいたま市中央区,新都心７番地２,,11,105,3300081,,,,,,,2023-12-25,1,,,,,エフエスヴィエーピージャパン,0
683,3030001157882,新規,0,2023-12-25,2023-12-25,株式会社ｍａｇｏｋｏｒｏ,,株式会社,埼玉県,川越市,大字砂新田３７４番地１２,,11,201,3501137,,,,,,,2023-12-25,1,,,,,マゴコロ,0
689,3040001131481,新規,0,2023-12-25,2023-12-25,株式会社縁尋,,株式会社,千葉県,松戸市,栗ケ沢７６９番地の１５８,,12,207,2700022,,,,,,,2023-12-25,1,,,,,エンジン,0
690,3040001131507,新規,0,2023-12-25,2023-12-25,ＫＢＣ株式会社,,株式会社,千葉県,船橋市,馬込町７１９番地３,,12,204,2730851,,,,,,,2023-12-25,1,,,,,ケイビーシー,0
691,3040003023990,新規,0,2023-12-25,2023-12-25,ジー．トレーディングアンドコンサルティング合同会社,,合同会社,千葉県,柏市,北柏３丁目１３－４－２０２,,12,217,2770832,,,,,,,2023-12-25,1,,,,,ジートレーディングアンドコンサルティング,0
694,3050001054005,新規,0,2023-12-25,2023-12-25,ベルエナジー株式会社,,株式会社,茨城県,つくば市,吾妻１丁目１０番１号,,08,220,3050031,,,,,,,2023-12-25,1,,,,,ベルエナジー,0
695,3050001054021,新規,0,2023-12-25,2023-12-25,ケントホーム株式会社,,株式会社,茨城県,取手市,双葉３丁目４番１２号,,08,217,3001501,,,,,,,2023-12-25,1,,,,,ケントホーム,0
700,3050003008025,新規,0,2023-12-25,2023-12-25,ＳＢ合同会社,,合同会社,茨城県,取手市,野々井７１７番地４,,08,217,3020032,,,,,,,2023-12-25,1,,,,,,0
701,3050003008033,新規,0,2023-12-25,2023-12-25,ヴォルファートゾーン合同会社,,合同会社,茨城県,つくば市,みどりの東２７番地２３,,08,220,3050883,,,,,,,2023-12-25,1,,,,,ヴォルファートゾーン,0
704,3080001026050,新規,0,2023-12-25,2023-12-25,株式会社ドリーム,,株式会社,静岡県,静岡市清水区,永楽町１５番２７号,,22,103,4240043,,,,,,,2023-12-25,1,,,,,ドリーム,0
720,3110003005247,新規,0,2023-12-25,2023-12-25,バランストータル合同会社,,合同会社,新潟県,糸魚川市,大字小見２０２９番地,,15,216,9491335,,,,,,,2023-12-25,1,,,,,バランストータル,0
733,3120001260867,新規,0,2023-12-25,2023-12-25,株式会社ＤＡＷＮ,,株式会社,大阪府,大阪市西区,北堀江１丁目１７－１１－４Ｆ,,27,106,5500014,,,,,,,2023-12-25,1,,,,,ドーン,0
734,3120001260883,新規,0,2023-12-25,2023-12-25,株式会社トリニティー,,株式会社,大阪府,大阪市東住吉区,山坂１丁目９番２３号,,27,121,5460035,,,,,,,2023-12-25,1,,,,,トリニティー,0
735,3120001260891,新規,0,2023-12-25,2023-12-25,株式会社Ｄｏ　Ｎｅｘｔ,,株式会社,大阪府,大阪市中央区,南本町４丁目５番７号東亜ビル５階,,27,128,5410054,,,,,,,2023-12-25,1,,,,,ドゥネクスト,0
738,3120003025574,新規,0,2023-12-25,2023-12-25,Ｅ．Ｔｉｍｅ合同会社,,合同会社,大阪府,大阪市西区,北堀江４丁目２番２７－４０５号,,27,106,5500014,,,,,,,2023-12-25,1,,,,,イータイム,0
739,3120101068748,新規,0,2023-12-25,2023-12-25,株式会社ＢＮＢ,,株式会社,大阪府,堺市堺区,山本町２丁５７番地７５,,27,141,5900983,,,,,,,2023-12-25,1,,,,,ビーエヌビー,0
740,3120101068756,新規,0,2023-12-25,2023-12-25,株式会社Ｒ‐ｕｐ,,株式会社,大阪府,泉大津市,森町１丁目１３番５－１０５号,,27,206,5950005,,,,,,,2023-12-25,1,,,,,アールアップ,0
742,3120103005583,新規,0,2023-12-25,2023-12-25,百捷合同会社,,合同会社,大阪府,堺市北区,中百舌鳥町６丁１０００番,,27,146,5918023,,,,,,,2023-12-25,1,,,,,ヒャクショウ,0
745,3120901048536,新規,0,2023-12-25,2023-12-25,エムイー株式会社,,株式会社,大阪府,豊中市,新千里南町３丁目６番１－７１７号,,27,203,5600084,,,,,,,2023-12-25,1,,,,,エムイー,0
751,3130001075934,新規,0,2023-12-25,2023-12-25,株式会社ｈｉｎａ,,株式会社,京都府,京都市東山区,本町新６丁目２０９番地２,,26,105,6050989,,,,,,,2023-12-25,1,,,,,ヒナ,0
752,3130001075983,新規,0,2023-12-25,2023-12-25,株式会社ユナイテッドタクミ,,株式会社,京都府,京都市東山区,大和大路通四条下る二丁目亀井町４７番地,,26,105,6050000,,,,,,,2023-12-25,1,,,,,ユナイテッドタクミ,0
753,3130003009213,新規,0,2023-12-25,2023-12-25,合同会社樫田商事,,合同会社,京都府,京都市山科区,北花山大林町１４番地１メゾンドメルヴェーユ京都２０３号室,,26,110,6078482,,,,,,,2023-12-25,1,,,,,カシダショウジ,0
754,3130005016959,新規,0,2023-12-25,2023-12-25,一般社団法人アースポイント,,その他の設立登記法人,京都府,京都市山科区,東野竹田１１番地２,,26,110,6078151,,,,,,,2023-12-25,1,,,,,アースポイント,0
762,3140003019954,新規,0,2023-12-25,2023-12-25,Ｒｅ‐Ｓｔｙｌｅ合同会社,,合同会社,兵庫県,神戸市灘区,摩耶海岸通１丁目３番２１－１０４号,,28,102,6570855,,,,,,,2023-12-25,1,,,,,リスタイル,0
763,3140003019970,新規,0,2023-12-25,2023-12-25,ＰＵＹＯＬ合同会社,,合同会社,兵庫県,丹波篠山市,河原町１８６,,28,221,6692325,,,,,,,2023-12-25,1,,,,,プジョル,0
765,3140005026858,新規,0,2023-12-25,2023-12-25,医療法人慶和会,,その他の設立登記法人,兵庫県,明石市,明南町１丁目２番６号,,28,203,6730001,,,,,,,2023-12-25,1,,,,,ケイワカイ,0
770,3160003003072,新規,0,2023-12-25,2023-12-25,合同会社ＲＴＬ,,合同会社,滋賀県,愛知郡愛荘町,豊満１２６８番地２３,,25,425,5291321,,,,,,,2023-12-25,1,,,,,アールティーエル,0
778,3180001159518,新規,0,2023-12-25,2023-12-25,ランジャトレーディング株式会社,,株式会社,愛知県,豊明市,沓掛町勅使１番地２２,,23,229,4701102,,,,,,,2023-12-25,1,,,,,ランジャトレーディング,0
784,3200001042002,新規,0,2023-12-25,2023-12-25,株式会社大晃ホールディングス,,株式会社,岐阜県,安八郡輪之内町,中郷新田２６２１番地の１,,21,382,5030212,,,,,,,2023-12-25,1,,,,,ダイコウホールディングス,0
785,3200001042010,新規,0,2023-12-25,2023-12-25,ｉｖｉ株式会社,,株式会社,岐阜県,中津川市,茄子川５００番地の１,,21,206,5099132,,,,,,,2023-12-25,1,,,,,アイヴィー,0
791,3240001062590,新規,0,2023-12-25,2023-12-25,三山産業株式会社,,株式会社,広島県,広島市南区,段原南１丁目１５番６号,,34,103,7320814,,,,,,,2023-12-25,1,,,,,ミヤマサンギョウ,0
792,3240003006463,新規,0,2023-12-25,2023-12-25,合同会社アキテック,,合同会社,広島県,広島市東区,戸坂千足１丁目７番２２号,,34,102,7320009,,,,,,,2023-12-25,1,,,,,アキテック,0
793,3250001020449,新規,0,2023-12-25,2023-12-25,株式会社ラポール,,株式会社,山口県,山口市,平井１番地８,,35,203,7530831,,,,,,,2023-12-25,1,,,,,ラポール,0
795,3260001038606,新規,0,2023-12-25,2023-12-25,株式会社よかろう,,株式会社,岡山県,倉敷市,水島西栄町４番１３号,,33,202,7128034,,,,,,,2023-12-25,1,,,,,ヨカロウ,0
806,3290001104173,新規,0,2023-12-25,2023-12-25,株式会社幸甚,,株式会社,福岡県,大野城市,畑ケ坂１丁目８番１２号カルムコーノ１０２号,,40,219,8160982,,,,,,,2023-12-25,1,,,,,,0
811,3290005019228,新規,0,2023-12-25,2023-12-25,ＮＰＯ法人こどもまんなか,,その他の設立登記法人,福岡県,嘉麻市,口春４８２番地６,,40,227,8200207,,,,,,,2023-12-25,1,,,,,コドモマンマカ,0
818,3310005008731,新規,0,2023-12-25,2023-12-25,一般社団法人日本無人機協会,,その他の設立登記法人,長崎県,長崎市,琴海戸根町１１７９番地　２Ｆ,,42,201,8513103,,,,,,,2023-12-25,1,,,,,ニホンムジンキキョウカイ,0
823,3340001026164,新規,0,2023-12-25,2023-12-25,株式会社高,,株式会社,鹿児島県,鹿児島市,原良５丁目６番２４号,,46,201,8900026,,,,,,,2023-12-25,1,,,,,タカシ,0
825,3360005006961,新規,0,2023-12-25,2023-12-25,一般社団法人ゆいゴルフ,,その他の設立登記法人,沖縄県,沖縄市,胡屋３丁目６－２８,,47,211,9040021,,,,,,,2023-12-25,1,,,,,ユイゴルフ,0
833,3380005012776,新規,0,2023-12-25,2023-12-25,一般社団法人Ｃｒｏｓｓ　Ｊａｐａｎふくしま支援協会,,その他の設立登記法人,福島県,田村市,大越町上大越字鷹待田１３１－２,,07,211,9634111,,,,,,,2023-12-25,1,,,,,クロスジャパンフクシマシエンキョウカイ,0
841,3430003015750,新規,0,2023-12-25,2023-12-25,ＥｌｅｖａｔｅＳ合同会社,,合同会社,北海道,札幌市中央区,南五条西１５丁目２―３リズム医大前５０３号室,,01,101,0640805,,,,,,,2023-12-25,1,,,,,エレベイツ,0
842,3430003015791,新規,0,2023-12-25,2023-12-25,合同会社クルーライズ,,合同会社,北海道,札幌市中央区,南十一条西７丁目２番２１号,,01,101,0640811,,,,,,,2023-12-25,1,,,,,クルーライズ,0
847,3500001025380,新規,0,2023-12-25,2023-12-25,株式会社丹下興業,,株式会社,愛媛県,松山市,和泉北１丁目１２番１６号,,38,201,7900038,,,,,,,2023-12-25,1,,,,,タンゲコウギョウ,0
849,3500003003161,新規,0,2023-12-25,2023-12-25,ベクターエネルギー久万高原バイオマス合同会社,,合同会社,愛媛県,上浮穴郡久万高原町,久万２７６番地１,,38,386,7911201,,,,,,,2023-12-25,1,,,,,ベクターエネルギークマコウゲンバイオマス,0
850,3700150123064,新規,0,2023-12-25,2023-12-25,ｓｕｚｈｏｕｇｕａｎｌｕｏｗａｎｇｌｕｏｋｅｊｉｙｏｕｘｉａｎｇｏｎｇｓｉ,,外国会社等,,,,,,,,ｚｈｏｎｇｇｕｏｊｉａｎｇｓｕ　ｗｕｚｈｏｎｇｊｉｎｇｊｉｋａｉｆａｑｕｇｕｏｘｉａｎｇｊｉｅｄａｏｄｕｓｈｕｗａｎｙａｙｕａｎ２６ｚｈｕａｎｇ１０　６ｓｈｉ（ｆｅｉｄｕｌｉｚｈｕｚｈａｉ）,,,,,,2023-12-25,1,,,,,スージヨウグワンルオワンルオコージーヨウシエンゴンスー,0
851,3700150123072,新規,0,2023-12-25,2023-12-25,Ｓｈｅｎｚｈｅｎ　Ｐｉｎｓｈａｎｇｈｕｉ　Ｉｎｔｅｒｎａｔｉｏｎａｌ　Ｔｒａｄｅ　Ｃｏ．，Ｌｔｄ．,,外国会社等,,,,,,,,ＢａｎｔｉａｎＣｏｍｍｕｎｉｔｙ　ＢａｎｔｉａｎＳｔｒｅｅｔ　ＬｏｎｇｇａｎｇＤｉｓｔｒｉｃｔ　３Ｆ　３２２　３０１０ＢａｎｘｕｅｇａｎｇＡｖｅｎｕｅ　Ｓｈｅｎｚｈｅｎ　Ｇｕａｎｇｄｏｎｇ　５１８１２９　ＣＮ,,,,,,2023-12-25,1,,,,,シンセンピンシャンフィインターナショナルトレードカンパニーリミテッド,0
852,3700150123080,新規,0,2023-12-25,2023-12-25,ｄｏｎｇｇｕａｎｓｈｉｊｉｕｌｏｎｇｄｉａｎｚｉｋｅｊｉｙｏｕｘｉａｎｇｏｎｇｓｉ,,外国会社等,,,,,,,,ｇｕａｎｇｄｏｎｇｓｈｅｎｇ，ｄｏｎｇｇｕａｎｓｈｉ，ｑｉｎｇｘｉｚｈｅｎ，ｑｉｎｇｘｉｄｏｎｇｆｅｎｇｘｉｌｕ２ｈａｏ１ｈａｏｌｏｕ４０１ｓｈｉ,,,,,,2023-12-25,1,,,,,トウカンシキュウリュウデンシカギユウゲンコウシ,0
867,4010001241002,新規,0,2023-12-25,2023-12-25,株式会社Ｃｏｍｐａｔｈ,,株式会社,東京都,中央区,銀座１丁目１２番４号,,13,102,1040061,,,,,,,2023-12-25,1,,,,,コンパス,0
868,4010001241027,新規,0,2023-12-25,2023-12-25,株式会社エンライト,,株式会社,東京都,文京区,本郷１丁目３４番１－３０１号,,13,105,1130033,,,,,,,2023-12-25,1,,,,,エンライト,0
869,4010001241035,新規,0,2023-12-25,2023-12-25,株式会社ナレッジベース,,株式会社,東京都,中央区,日本橋室町１丁目１１番１２号日本橋水野ビル７階,,13,102,1030022,,,,,,,2023-12-25,1,,,,,ナレッジベース,0
872,4010003042522,新規,0,2023-12-25,2023-12-25,合同会社ＣＨｕｂ・Ｐ,,合同会社,東京都,千代田区,九段南１丁目５－６りそな九段ビル５Ｆ、ＫＳフロア,,13,101,1020074,,,,,,,2023-12-25,1,,,,,シーハブピー,0
879,4010401179346,新規,0,2023-12-25,2023-12-25,株式会社ｈｙｍｙ,,株式会社,東京都,港区,南青山５丁目１０番５号,,13,103,1070062,,,,,,,2023-12-25,1,,,,,ヒュミ,0
880,4010401179370,新規,0,2023-12-25,2023-12-25,株式会社ＡＯＮＥＴ,,株式会社,東京都,港区,西新橋１丁目１８番１５号厚川ビル３Ｆ,,13,103,1050003,,,,,,,2023-12-25,1,,,,,エイオウネット,0
881,4010403031629,新規,0,2023-12-25,2023-12-25,合同会社ＺＡＩＮＡ,,合同会社,東京都,港区,芝浦３丁目１７番１１号,,13,103,1080023,,,,,,,2023-12-25,1,,,,,ザイナ,0
883,4010405022816,新規,0,2023-12-25,2023-12-25,一般社団法人Ｐｒａｐｉｒｏｏｎ,,その他の設立登記法人,東京都,港区,虎ノ門１丁目１番１８号ヒューリック虎ノ門ビル９階Ｌ＆Ｐ司法書士法人内,,13,103,1050001,,,,,,,2023-12-25,1,,,,,プラピルーン,0
885,4010601064389,新規,0,2023-12-25,2023-12-25,株式会社関谷,,株式会社,東京都,墨田区,墨田４丁目２８番１３号,,13,107,1310031,,,,,,,2023-12-25,1,,,,,セキヤ,0
887,4010801034646,新規,0,2023-12-25,2023-12-25,株式会社ピスカ,,株式会社,東京都,大田区,南雪谷２丁目１０番１４－２０１号,,13,111,1450066,,,,,,,2023-12-25,1,,,,,ピスカ,0
889,4010901054412,新規,0,2023-12-25,2023-12-25,サミットホーム株式会社,,株式会社,東京都,世田谷区,成城３丁目２１番１６号,,13,112,1570066,,,,,,,2023-12-25,1,,,,,サミットホーム,0
890,4010905004561,新規,0,2023-12-25,2023-12-25,一般社団法人マター・オブ・トラスト・ジャパン,,その他の設立登記法人,東京都,世田谷区,瀬田２丁目１２番１５号,,13,112,1580095,,,,,,,2023-12-25,1,,,,,マターオブトラストジャパン,0
898,4011001158979,新規,0,2023-12-25,2023-12-25,ａｎｄａｎｄ株式会社,,株式会社,東京都,目黒区,中町１丁目２７番８号,,13,110,1530065,,,,,,,2023-12-25,1,,,,,アンドアンド,0
899,4011001159044,新規,0,2023-12-25,2023-12-25,歩宇宙株式会社,,株式会社,東京都,目黒区,青葉台４丁目４番１２号,,13,110,1530042,,,,,,,2023-12-25,1,,,,,アユムソラ,0
900,4011003018108,新規,0,2023-12-25,2023-12-25,合同会社ＫＹＵＵ　ＴＥＣＨＮＯＬＯＧＹ,,合同会社,東京都,渋谷区,渋谷２丁目１９－１５宮益坂ビルディング６０９,,13,113,1500002,,,,,,,2023-12-25,1,,,,,キューテクノロジー,0
901,4011003018165,新規,0,2023-12-25,2023-12-25,合同会社ローリー,,合同会社,東京都,渋谷区,大山町２５番１２－１０９号パークコート渋谷大山町ザプラネ悠邸,,13,113,1510065,,,,,,,2023-12-25,1,,,,,ローリー,0
909,4011203004262,新規,0,2023-12-25,2023-12-25,Ｈｉｇｈｅｓｔ　Ｖａｌｕｅ合同会社,,合同会社,東京都,中野区,中野５丁目５１番１６－７０２号,,13,114,1640001,,,,,,,2023-12-25,1,,,,,ハイエストバリュー,0
910,4011303005012,新規,0,2023-12-25,2023-12-25,合同会社アナザーセルフ,,合同会社,東京都,杉並区,西荻南４丁目７－５,,13,115,1670053,,,,,,,2023-12-25,1,,,,,アナザーセルフ,0
928,4013305003555,新規,0,2023-12-25,2023-12-25,一般社団法人アジア現代芸術教育促進会,,その他の設立登記法人,東京都,豊島区,北大塚３丁目２４番６号江戸屋ビル３－２０１号室,,13,116,1700004,,,,,,,2023-12-25,1,,,,,アジアゲンダイゲイジュツキョウイクソクシンカイ,0
932,4020001154946,新規,0,2023-12-25,2023-12-25,ＡＨＡＭＥＤ　ＩＮＴＥＲＮＡＴＩＯＮＡＬ株式会社,,株式会社,神奈川県,横浜市都筑区,南山田町４２６０番地みずほ荘１０１号室,,14,118,2240026,,,,,,,2023-12-25,1,,,,,アマダインターナショナル,0
933,4020001155036,新規,0,2023-12-25,2023-12-25,株式会社エルライト,,株式会社,神奈川県,横浜市西区,浅間町１丁目４番３号ウィザードビル４０２,,14,103,2200072,,,,,,,2023-12-25,1,,,,,エルライト,0
937,4020003025237,新規,0,2023-12-25,2023-12-25,合同会社豆蔵と小麦,,合同会社,神奈川県,横浜市金沢区,鳥浜町１番地１,,14,108,2360002,,,,,,,2023-12-25,1,,,,,マメゾウトコムギ,0
938,4020003025253,新規,0,2023-12-25,2023-12-25,合同会社Ｅｔｏｉｌｅ,,合同会社,神奈川県,横浜市西区,浅間町１丁目４番３号ウィザードビル４０２,,14,103,2200072,,,,,,,2023-12-25,1,,,,,エトワール,0
943,4021001081032,新規,0,2023-12-25,2023-12-25,株式会社ホームテック,,株式会社,神奈川県,相模原市南区,相模台４丁目１２番１２号,,14,153,2520321,,,,,,,2023-12-25,1,,,,,ホームテック,0
944,4021001081040,新規,0,2023-12-25,2023-12-25,株式会社Ｎｅｅｄｓ　Ｇｏｌｆ,,株式会社,神奈川県,秦野市,南矢名１８４１番地の２２,,14,211,2570003,,,,,,,2023-12-25,1,,,,,ニーズゴルフ,0
945,4021001081049,新規,0,2023-12-25,2023-12-25,あつぎ不動産株式会社,,株式会社,神奈川県,厚木市,金田７７４番地１,,14,212,2430807,,,,,,,2023-12-25,1,,,,,アツギフドウサン,0
946,4021001081057,新規,0,2023-12-25,2023-12-25,アトラステクノス株式会社,,株式会社,神奈川県,厚木市,岡田４丁目２２番１４号,,14,212,2430021,,,,,,,2023-12-25,1,,,,,アトラステクノス,0
947,4021001081065,新規,0,2023-12-25,2023-12-25,Ａｎｃｈｏｒ　Ｋｏｎｓｕｌｔｉｎｇ　Ｊａｐａｎ株式会社,,株式会社,神奈川県,座間市,相模が丘３丁目７１番２号,,14,216,2520001,,,,,,,2023-12-25,1,,,,,アンカーコンサルティングジャパン,0
955,4030001157849,新規,0,2023-12-25,2023-12-25,ＡＫＴマリン株式会社,,株式会社,埼玉県,さいたま市北区,宮原町３丁目５８６番地,,11,102,3310812,,,,,,,2023-12-25,1,,,,,エーケーティーマリン,0
956,4030001157873,新規,0,2023-12-25,2023-12-25,株式会社ＨＴＭエージェント,,株式会社,埼玉県,所沢市,南住吉３番１７号,,11,208,3591125,,,,,,,2023-12-25,1,,,,,エイチティーエムエージェント,0
958,4030003023289,新規,0,2023-12-25,2023-12-25,合同会社Ｃｈｅｅｒ,,合同会社,埼玉県,さいたま市西区,大字指扇３６１９番地１センチュリー西大宮４０６号室,,11,101,3310047,,,,,,,2023-12-25,1,,,,,チア,0
961,4040001131472,新規,0,2023-12-25,2023-12-25,株式会社Ｎａｔｕｒｅ　Ｌｉｎｋ,,株式会社,千葉県,白井市,復２２８番地,,12,232,2701422,,,,,,,2023-12-25,1,,,,,ネイチャーリンク,0
962,4040001131480,新規,0,2023-12-25,2023-12-25,株式会社ＴＳＢ,,株式会社,千葉県,木更津市,千束台２丁目１１番地７,,12,206,2920808,,,,,,,2023-12-25,1,,,,,ティーエスビー,0
963,4040001131497,新規,0,2023-12-25,2023-12-25,株式会社Ｐａｐ,,株式会社,千葉県,勝浦市,墨名６３８－１７,,12,218,2995225,,,,,,,2023-12-25,1,,,,,パップ,0
973,4050001054012,新規,0,2023-12-25,2023-12-25,３Ｖ　Ｌｏｇｉｓｔｉｃｓ株式会社,,株式会社,茨城県,坂東市,寺久１３５４番地１１,,08,228,3060656,,,,,,,2023-12-25,1,,,,,スリーブイロジスティックス,0
976,4050005013369,新規,0,2023-12-25,2023-12-25,一般社団法人地域医療の未来パートナー,,その他の設立登記法人,茨城県,水戸市,元吉田町１２４９番地３３,,08,201,3100836,,,,,,,2023-12-25,1,,,,,,0
989,4100003007326,新規,0,2023-12-25,2023-12-25,けろウェイ合同会社,,合同会社,長野県,松本市,大手２丁目２番１０号グランドメゾン松本六九２０３号,,20,202,3900874,,,,,,,2023-12-25,1,,,,,ケロウェイ,0
990,4110003005246,新規,0,2023-12-25,2023-12-25,エイスパシフィックジャパン合同会社,,合同会社,新潟県,長岡市,神田町１丁目２番地１８,,15,202,9400052,,,,,,,2023-12-25,1,,,,,エイスパシフィックジャパン,0
991,4110005017033,新規,0,2023-12-25,2023-12-25,一般社団法人日本精細化工産業協会,,その他の設立登記法人,新潟県,新潟市南区,杉菜４番１５号,,15,106,9501208,,,,,,,2023-12-25,1,,,,,ニホンセイサイカコウサンギョウキョウカイ,0
1001,4120001260791,新規,0,2023-12-25,2023-12-25,千洛株式会社,,株式会社,大阪府,大阪市城東区,野江３丁目２７番７号野江１番館４０３号室,,27,118,5360006,,,,,,,2023-12-25,1,,,,,センラク,0
1002,4120001260866,新規,0,2023-12-25,2023-12-25,株式会社Ｐｉｌｉｎａ,,株式会社,大阪府,大阪市東淀川区,小松１丁目１４番２号シャトー亜寿香１階,,27,114,5330004,,,,,,,2023-12-25,1,,,,,ピリナ,0
1003,4120001260890,新規,0,2023-12-25,2023-12-25,株式会社もち,,株式会社,大阪府,大阪市阿倍野区,晴明通３番１－３０１号,,27,119,5450032,,,,,,,2023-12-25,1,,,,,モチ,0
1004,4120001260916,新規,0,2023-12-25,2023-12-25,株式会社Ｇ．Ｓａｌｌｉｅｒ,,株式会社,大阪府,大阪市西区,西本町１丁目１２－１９,,27,106,5500005,,,,,,,2023-12-25,1,,,,,ジーサリエ,0
1005,4120001260924,新規,0,2023-12-25,2023-12-25,株式会社リバールド,,株式会社,大阪府,守口市,八雲北町２丁目１０番１７号,,27,209,5700008,,,,,,,2023-12-25,1,,,,,リバールド,0
1009,4120101068755,新規,0,2023-12-25,2023-12-25,１８．４４‐ｏｎｅ株式会社,,株式会社,大阪府,泉佐野市,葵町２丁目３－６１９５,,27,213,5980014,,,,,,,2023-12-25,1,,,,,ジュウハチテンヨンヨンワン,0
1012,4130001075982,新規,0,2023-12-25,2023-12-25,株式会社企て研究所,,株式会社,京都府,京都市上京区,千本通鞍馬口下る閻魔前町１０番地１,,26,102,6028307,,,,,,,2023-12-25,1,,,,,クワダテケンキュウショ,0
1022,4160001025588,新規,0,2023-12-25,2023-12-25,株式会社ｂｅｅｅｔａ,,株式会社,滋賀県,湖南市,下田３７７２番地一瀬荘３号,,25,211,5203201,,,,,,,2023-12-25,1,,,,,ベータ,0
1034,4180001159491,新規,0,2023-12-25,2023-12-25,株式会社水谷総本店,,株式会社,愛知県,名古屋市千種区,西山元町２丁目６０番地,,23,101,4640063,,,,,,,2023-12-25,1,,,,,ミズタニソウホンテン,0
1035,4180001159517,新規,0,2023-12-25,2023-12-25,株式会社オフィス・フォーＮＡＧＯＹＡ,,株式会社,愛知県,名古屋市西区,名駅１丁目１番１７号名駅ダイヤメイテツビル１１階,,23,104,4510045,,,,,,,2023-12-25,1,,,,,オフィスフォーナゴヤ,0
1047,4210001019584,新規,0,2023-12-25,2023-12-25,福井資源化工ホールディングス株式会社,,株式会社,福井県,坂井市,三国町黒目２２字下本割５０番２２,,18,210,9130037,,,,,,,2023-12-25,1,,,,,フクイシゲンカコウホールディングス,0
1051,4250001020448,新規,0,2023-12-25,2023-12-25,株式会社アレン,,株式会社,山口県,防府市,国分寺町４番２０－１号,,35,206,7470021,,,,,,,2023-12-25,1,,,,,アレン,0
1062,4290001104156,新規,0,2023-12-25,2023-12-25,株式会社ｍ＆ｍ,,株式会社,福岡県,久留米市,御井旗崎５丁目２番５号,,40,203,8390841,,,,,,,2023-12-25,1,,,,,エムアンドエム,0
1070,4330001031593,新規,0,2023-12-25,2023-12-25,株式会社クライアントリード,,株式会社,熊本県,熊本市東区,御領３丁目１５番２９号,,43,102,8618035,,,,,,,2023-12-25,1,,,,,クライアントリード,0
1073,4340001026155,新規,0,2023-12-25,2023-12-25,株式会社ビーエンネ,,株式会社,鹿児島県,熊毛郡屋久島町,安房２４０５番地１０６,,46,505,8914311,,,,,,,2023-12-25,1,,,,,ビーエンネ,0
1077,4360001032985,新規,0,2023-12-25,2023-12-25,第一サポート株式会社,,株式会社,沖縄県,那覇市,天久２丁目２１番２３号マンション和３０８,,47,201,9000005,,,,,,,2023-12-25,1,,,,,ダイイチサポート,0
1080,4370005010739,新規,0,2023-12-25,2023-12-25,一般社団法人仙南外遊び会,,その他の設立登記法人,宮城県,仙台市太白区,柳生２丁目３０番地の１４チサンマンション第５南仙台６０７,,04,104,9811106,,,,,,,2023-12-25,1,,,,,センナンソトアソビカイ,0
1084,4380005012783,新規,0,2023-12-25,2023-12-25,ＮＰＯ法人ｌｉｆｅ　ｉｓ　ｍｉｎｅ,,その他の設立登記法人,福島県,須賀川市,あおば町５１９番地,,07,207,9620811,,,,,,,2023-12-25,1,,,,,ライフイズマイン,0
1086,4390003002182,新規,0,2023-12-25,2023-12-25,中央不動産販売合同会社,,合同会社,山形県,酒田市,中央西町１番１８号,,06,204,9980034,,,,,,,2023-12-25,1,,,,,チュウオウフドウサンハンバイ,0
1089,4420003002856,新規,0,2023-12-25,2023-12-25,ｌｉｆｅ　ｔｉｍｅ’ｓ合同会社,,合同会社,青森県,八戸市,西白山台４丁目９番１号,,02,203,0391113,,,,,,,2023-12-25,1,,,,,ライフタイムズ,0
1097,4430001090704,新規,0,2023-12-25,2023-12-25,株式会社Ｈａｎｎｉｖ,,株式会社,北海道,札幌市南区,南三十七条西１１丁目８番１－５０１号,,01,106,0050037,,,,,,,2023-12-25,1,,,,,ハニブ,0
1100,4430003015758,新規,0,2023-12-25,2023-12-25,合同会社Ｃａｆｕ,,合同会社,北海道,札幌市北区,あいの里三条４丁目１０－１５,,01,102,0028073,,,,,,,2023-12-25,1,,,,,カフー,0
1101,4430003015774,新規,0,2023-12-25,2023-12-25,合同会社富菜牧場,,合同会社,北海道,浦河郡浦河町,字杵臼５８９番地の４,,01,607,0570172,,,,,,,2023-12-25,1,,,,,トミナボクジョウ,0
1102,4430003015790,新規,0,2023-12-25,2023-12-25,ＤＥＬＴＡ合同会社,,合同会社,北海道,滝川市,花月町１丁目４番４号メゾネット滝川１－Ａ号室,,01,225,0730036,,,,,,,2023-12-25,1,,,,,デルタ,0
1104,4490005006915,新規,0,2023-12-25,2023-12-25,医療法人緑智会,,その他の設立登記法人,高知県,高知市,朝倉本町１丁目９番４０号,,39,201,7808073,,,,,,,2023-12-25,1,,,,,リョクチカイ,0
1106,4500003003160,新規,0,2023-12-25,2023-12-25,合同会社大平建築工房,,合同会社,愛媛県,宇和島市,津島町北灘甲１９４１番地１,00133095,38,203,7983361,,,,,,,2023-12-25,1,,,,,オオヒラケンチクコウボウ,0
1107,4700150123063,新規,0,2023-12-25,2023-12-25,Ｎａｎｎｉｎｇ　Ｋａｉｇｕａｎｇ　Ｅｕｒｏｐｅａｎ　ｔｒａｄｅ　Ｃｏ．，ＬＴＤ,,外国会社等,,,,,,,,Ｕｎｉｔ　１，１７０７，Ｂｕｉｌｄｉｎｇ　４，Ｄａｄｕ　Ｈｕａｙｕａｎ，６１　Ｐｉｎｇｌｅ　Ａｖｅｎｕｅ，Ｎａｎｎｉｎｇ　Ａｒｅａ，Ｃｈｉｎａ　（Ｇｕａｎｇｘｉ）　Ｐｉｌｏｔ　Ｆｒｅｅ　Ｔｒａｄｅ　Ｚｏｎｅ,,,,,,2023-12-25,1,,,,,ナンニンシーカイグワンオウマオイーヨウシエンゴンスー,0
1108,4700150123071,新規,0,2023-12-25,2023-12-25,ｊｉｎｈｕａｓｈｉｘｉａｎｇｌｕｗａｎｇｌｕｏｋｅｊｉ　ｙｏｕｘｉａｎｇｏｎｇｓｉ,,外国会社等,,,,,,,,ｚｈｅｊｉａｎｇｓｈｅｎｇｊｉｎｈｕａｓｈｉｊｉｎｄｏｎｇｑｕｘｉｅｔａｎｇｂａｎｓｈｉｃｈｕｓｈａｎｇｍｉｎｇｔａｎｇｃｕｎａｎｊｕｘｉａｏｑｕ７ｚｈｕａｎｇ５ｄａｎｙｕａｎ２ｌｏｕ　３２０１５　ＣＮ,,,,,,2023-12-25,1,,,,,キンカシシャンルワンロカギヨウシェンゴンスー,0
1130,5010401179353,新規,0,2023-12-25,2023-12-25,株式会社アシスト,,株式会社,東京都,港区,北青山３丁目１５番１３－５０３号,,13,103,1070061,,,,,,,2023-12-25,1,,,,,アシスト,0
1133,5010403031644,新規,0,2023-12-25,2023-12-25,合同会社Ｋ２,,合同会社,東京都,港区,南青山２丁目２番１５号,,13,103,1070062,,,,,,,2023-12-25,1,,,,,ケイツー,0
1136,5010405022815,新規,0,2023-12-25,2023-12-25,一般社団法人Ｍａｒｉａ,,その他の設立登記法人,東京都,港区,虎ノ門１丁目１番１８号ヒューリック虎ノ門ビル９階Ｌ＆Ｐ司法書士法人内,,13,103,1050001,,,,,,,2023-12-25,1,,,,,マリア,0
1137,5010603010522,新規,0,2023-12-25,2023-12-25,合同会社Ｐｅｃｈｅ＆Ｍｏｉｓ,,合同会社,東京都,江東区,亀戸３丁目２３番８号アトリオ亀戸３０２,,13,108,1360071,,,,,,,2023-12-25,1,,,,,ペッシュアンドモア,0
1139,5010803004794,新規,0,2023-12-25,2023-12-25,合同会社万明,,合同会社,東京都,大田区,上池台１丁目１番６号,,13,111,1450064,,,,,,,2023-12-25,1,,,,,バンメイ,0
1150,5011101105582,新規,0,2023-12-25,2023-12-25,Ａｃｈｉｅｖｅ　Ｇｏａｌｓ株式会社,,株式会社,東京都,新宿区,新宿５丁目２－１０新宿ロードビル１階,,13,104,1600022,,,,,,,2023-12-25,1,,,,,アチーブゴールズ,0
1156,5011701026880,新規,0,2023-12-25,2023-12-25,ＳｈｒｉＫｒｉｓｈｎａ　Ｅｎｔｅｒｐｒｉｓｅｓ株式会社,,株式会社,東京都,江戸川区,西葛西５丁目８番７－５０１号,,13,123,1340088,,,,,,,2023-12-25,1,,,,,シュリクリシュナエンタプライズ,0
1158,5011803006013,新規,0,2023-12-25,2023-12-25,エフ・エム・ピー合同会社,,合同会社,東京都,足立区,西新井１丁目１８－５,,13,121,1230841,,,,,,,2023-12-25,1,,,,,エフエムピー,0
1159,5012401041360,新規,0,2023-12-25,2023-12-25,株式会社ＴＡＩＹＯＨ,,株式会社,東京都,武蔵野市,吉祥寺本町２丁目３１番６号,,13,203,1800004,,,,,,,2023-12-25,1,,,,,タイヨー,0
1166,5013303006930,新規,0,2023-12-25,2023-12-25,合同会社ＪＯＩＮＴ,,合同会社,東京都,豊島区,千早２丁目２０番５号アルビレオ３０２号,,13,116,1710044,,,,,,,2023-12-25,1,,,,,ジョイント,0
1182,5021001081048,新規,0,2023-12-25,2023-12-25,株式会社ＹＫＭ,,株式会社,神奈川県,小田原市,栄町１丁目４番２号第１２松本ビル５階,,14,206,2500011,,,,,,,2023-12-25,1,,,,,ワイケイエム,0
1194,5030001157848,新規,0,2023-12-25,2023-12-25,株式会社ＳＫＨ,,株式会社,埼玉県,越谷市,レイクタウン９丁目２９番地７,,11,222,3430828,,,,,,,2023-12-25,1,,,,,エスケーエイチ,0
1195,5030001157856,新規,0,2023-12-25,2023-12-25,日本物産開発株式会社,,株式会社,埼玉県,八潮市,大字柳之宮１９６番地１０,,11,234,3400832,,,,,,,2023-12-25,1,,,,,ニホンブッサンカイハツ,0
1196,5030001157872,新規,0,2023-12-25,2023-12-25,株式会社ＳＨ　ＩＮＴＥＲＮＡＴＩＯＮＡＬ,,株式会社,埼玉県,羽生市,南５丁目２３番地４ハイツＢ＆Ｌ２０１号室,,11,216,3480053,,,,,,,2023-12-25,1,,,,,エスエイチインターナショナル,0
1202,5040001131505,新規,0,2023-12-25,2023-12-25,株式会社ＴＫコンサルティング,,株式会社,千葉県,柏市,柏１丁目１－１０ＫＡＳＨＩ－ＷＯＲＫビル,,12,217,2770005,,,,,,,2023-12-25,1,,,,,ティーケーコンサルティング,0
1207,5050003008023,新規,0,2023-12-25,2023-12-25,円相ランカ合同会社,,合同会社,茨城県,稲敷郡美浦村,大字土屋３１２６番地１１,,08,442,3000426,,,,,,,2023-12-25,1,,,,,エンソウランカ,0
1208,5050003008031,新規,0,2023-12-25,2023-12-25,インサイテリア合同会社,,合同会社,茨城県,水戸市,千波町７３６旭スカイハイツ３０２号室,,08,201,3100851,,,,,,,2023-12-25,1,,,,,インサイテリア,0
1221,5080405007603,新規,0,2023-12-25,2023-12-25,一般社団法人ミツバンエイ,,その他の設立登記法人,静岡県,浜松市西区,篠原町２０６１２番地,,22,133,4310201,,,,,,,2023-12-25,1,,,,,ミツバンエイ,0
1228,5110003005245,新規,0,2023-12-25,2023-12-25,ＭＯＵＮＴＡＩＮ　ＣＯＮＮＥＣＴＩＯＮ合同会社,,合同会社,新潟県,南魚沼郡湯沢町,大字湯沢６８０番地３０,,15,461,9496101,,,,,,,2023-12-25,1,,,,,マウンテンコネクション,0
1244,5120001260725,新規,0,2023-12-25,2023-12-25,株式会社ヴァンボッシュ,,株式会社,大阪府,大阪市北区,堂島１丁目３番２８号堂島センター,,27,127,5300003,,,,,,,2023-12-25,1,,,,,ヴァンボッシュ,0
1245,5120001260790,新規,0,2023-12-25,2023-12-25,樂思普奥控股株式会社,,株式会社,大阪府,大阪市城東区,野江３丁目２７番７号野江１番館４０２号,,27,118,5360006,,,,,,,2023-12-25,1,,,,,ロスプオウコウグ,0
1246,5120001260873,新規,0,2023-12-25,2023-12-25,株式会社ダイワ,,株式会社,大阪府,大阪市北区,西天満５丁目９番１０号古河梅ヶ枝ビル３０１号室,,27,127,5300047,,,,,,,2023-12-25,1,,,,,ダイワ,0
1247,5120001260881,新規,0,2023-12-25,2023-12-25,株式会社ＷＯＲＬＤ　ＳＴＡＧＥ,,株式会社,大阪府,大阪市西成区,天下茶屋北１丁目６番１４号,,27,122,5570003,,,,,,,2023-12-25,1,,,,,ワールドステージ,0
1248,5120001260898,新規,0,2023-12-25,2023-12-25,株式会社ｂｉｇｍｅ,,株式会社,大阪府,大阪市西区,北堀江３丁目１０番１７－８０７号,,27,106,5500014,,,,,,,2023-12-25,1,,,,,ビグミー,0
1249,5120001260907,新規,0,2023-12-25,2023-12-25,Ａｎｄ　Ｍｏｒｅ株式会社,,株式会社,大阪府,大阪市生野区,巽南４丁目６－８,00133108,27,116,5440015,,,,,,,2023-12-25,1,,,,,アンドモア,0
1250,5120001260915,新規,0,2023-12-25,2023-12-25,株式会社ＹＡＭＡＳＨＯ,,株式会社,大阪府,大阪市中央区,高津３丁目１４番１１－２１０２号,,27,128,5420072,,,,,,,2023-12-25,1,,,,,ヤマショウ,0
1251,5120001260931,新規,0,2023-12-25,2023-12-25,株式会社Ｄ．ＬＡＢＯ,,株式会社,大阪府,大阪市阿倍野区,阪南町２丁目１番１５－８０３号,,27,119,5450021,,,,,,,2023-12-25,1,,,,,ディーラボ,0
1252,5120001260997,新規,0,2023-12-25,2023-12-25,株式会社Ｂｉｎａｒｉｔｙ　Ｂｒｉｄｇｅ,,株式会社,大阪府,大阪市北区,角田町８番４７号阪急グランドビル２６階,,27,127,5300017,,,,,,,2023-12-25,1,,,,,バイナリティブリッジ,0
1259,5120101068762,新規,0,2023-12-25,2023-12-25,宇恒国際株式会社,,株式会社,大阪府,堺市堺区,霞ヶ丘町３丁２番２８号,,27,141,5900812,,,,,,,2023-12-25,1,,,,,ウコウコクサイ,0
1261,5120901048534,新規,0,2023-12-25,2023-12-25,ＳＫＹグループ株式会社,,株式会社,大阪府,豊中市,東豊中町４丁目３番５０－４０５号,,27,203,5600003,,,,,,,2023-12-25,1,,,,,スカイグループ,0
1262,5120903004980,新規,0,2023-12-25,2023-12-25,ＫＪＩ合同会社,,合同会社,大阪府,豊中市,城山町２丁目９番１０号,,27,203,5610803,,,,,,,2023-12-25,1,,,,,ケイジェイアイ,0
1270,5130001075981,新規,0,2023-12-25,2023-12-25,Ｙｏｕ‐Ａ株式会社,,株式会社,京都府,京都市下京区,上柳町３３１番地タカノハスクエア３４５,,26,106,6008099,,,,,,,2023-12-25,1,,,,,ユーエー,0
1271,5130001075998,新規,0,2023-12-25,2023-12-25,株式会社文身,,株式会社,京都府,京都市西京区,上桂前川町２１０番地上桂くめマンション４０５,,26,111,6158211,,,,,,,2023-12-25,1,,,,,ブンシン,0
1273,5130005016957,新規,0,2023-12-25,2023-12-25,一般財団法人イシダメディカル財団,,その他の設立登記法人,京都府,京都市左京区,聖護院山王町４４番地,,26,103,6068392,,,,,,,2023-12-25,1,,,,,イシダメディカルザイダン,0
1293,5180001159490,新規,0,2023-12-25,2023-12-25,株式会社島メディカル,,株式会社,愛知県,名古屋市東区,出来町２丁目８番８号,,23,102,4610032,,,,,,,2023-12-25,1,,,,,シマメディカル,0
1294,5180001159540,新規,0,2023-12-25,2023-12-25,株式会社江南リペアハウス,,株式会社,愛知県,江南市,高屋町花戸１１３番地,,23,217,4838046,,,,,,,2023-12-25,1,,,,,コウナンリペアハウス,0
1296,5180003026144,新規,0,2023-12-25,2023-12-25,合同会社ピークハント,,合同会社,愛知県,一宮市,今伊勢町馬寄字下河原８番地１１,,23,203,4910051,,,,,,,2023-12-25,1,,,,,ピークハント,0
1297,5180005020475,新規,0,2023-12-25,2023-12-25,医療法人優笑会,,その他の設立登記法人,愛知県,名古屋市天白区,相川２丁目５１番地,,23,116,4680836,,,,,,,2023-12-25,1,,,,,ユウショウカイ,0
1299,5180301038163,新規,0,2023-12-25,2023-12-25,株式会社Ｌｙｎｋ,,株式会社,愛知県,岡崎市,上地３丁目１番地８,,23,202,4440823,,,,,,,2023-12-25,1,,,,,リンク,0
1312,5220001025746,新規,0,2023-12-25,2023-12-25,Ｌａｕｇｈ　Ｌｉｆｅ株式会社,,株式会社,石川県,金沢市,馬替３丁目２９７番地２,,17,201,9218141,,,,,,,2023-12-25,1,,,,,ラフライフ,0
1317,5240001062589,新規,0,2023-12-25,2023-12-25,株式会社テクノフロンティア,,株式会社,広島県,広島市中区,千田町３丁目７番７３－４１０号,,34,101,7300052,,,,,,,2023-12-25,1,,,,,テクノフロンティア,0
1318,5240001062597,新規,0,2023-12-25,2023-12-25,株式会社幸和,,株式会社,広島県,広島市安佐南区,安東５丁目２１番１２号,,34,105,7310153,,,,,,,2023-12-25,1,,,,,コウワ,0
1324,5270001008894,新規,0,2023-12-25,2023-12-25,株式会社茶樹,,株式会社,鳥取県,鳥取市,上味野１５番地,,31,201,6801167,,,,,,,2023-12-25,1,,,,,チャジュ,0
1338,5300001013569,新規,0,2023-12-25,2023-12-25,株式会社中村商店,,株式会社,佐賀県,神埼郡吉野ヶ里町,石動３５１８番地,,41,327,8420102,,,,,,,2023-12-25,1,,,,,ナカムラショウテン,0
1339,5310001018765,新規,0,2023-12-25,2023-12-25,株式会社Ｐｒｏｃｅｅｄ,,株式会社,長崎県,長崎市,北陽町３８番１３号,,42,201,8528064,,,,,,,2023-12-25,1,,,,,プロシード,0
1340,5320001020200,新規,0,2023-12-25,2023-12-25,株式会社ＢＡＵＬＥＴＴＯ,,株式会社,大分県,大分市,生石２丁目５０番１,,44,201,8700003,,,,,,,2023-12-25,1,,,,,,0
1346,5360001032976,新規,0,2023-12-25,2023-12-25,株式会社Ｂｅｌｉｅｍｙｓ,,株式会社,沖縄県,中頭郡読谷村,字比謝１３０－１７,,47,324,9040311,,,,,,,2023-12-25,1,,,,,ビリーミーズ,0
1347,5360001032992,新規,0,2023-12-25,2023-12-25,Ｂ＆Ｔ商事株式会社,,株式会社,沖縄県,中頭郡西原町,上原２丁目２９番１１号スリークロック４－Ｄ号,,47,329,9030125,,,,,,,2023-12-25,1,,,,,ビーアンドティーショウジ,0
1348,5360001033000,新規,0,2023-12-25,2023-12-25,株式会社デフラグ沖縄,,株式会社,沖縄県,国頭郡国頭村,字鏡地７０番地２２,,47,301,9051416,,,,,,,2023-12-25,1,,,,,デフラグオキナワ,0
1350,5370001050770,新規,0,2023-12-25,2023-12-25,ＨＵＥ　ＤＥＳＩＧＮＳ株式会社,,株式会社,宮城県,仙台市太白区,鈎取４丁目８番２１号,,04,104,9820804,,,,,,,2023-12-25,1,,,,,ヒューデザインズ,0
1355,5390003002181,新規,0,2023-12-25,2023-12-25,合同会社高橋,,合同会社,山形県,新庄市,若葉町７番３１号,,06,205,9960025,,,,,,,2023-12-25,1,,,,,タカハシ,0
1357,5410001013673,新規,0,2023-12-25,2023-12-25,ＯＧＵＲＡ株式会社,,株式会社,秋田県,大館市,比内町扇田字倉下３番地,,05,204,0185701,,,,,,,2023-12-25,1,,,,,オグラ,0
1360,5420001018523,新規,0,2023-12-25,2023-12-25,株式会社テイ・エム・コンサル,,株式会社,青森県,十和田市,西二十一番町５２番２０－１０号,,02,206,0340095,,,,,,,2023-12-25,1,,,,,テイエムコンサル,0
1362,5420003002847,新規,0,2023-12-25,2023-12-25,合同会社ＳＷＥＤＥＮＢＯＲＹ,,合同会社,青森県,弘前市,大字大富町７―２５―２０―１０２,,02,202,0368175,,,,,,,2023-12-25,1,,,,,スウェーデンボリー,0
1372,5430005014856,新規,0,2023-12-25,2023-12-25,一般社団法人ホームホスピスばらのおうち,,その他の設立登記法人,北海道,札幌市中央区,南一条西１６丁目１番地３２３春野ビル３Ｆ,,01,101,0600061,,,,,,,2023-12-25,1,,,,,ホームホスピスバラノオウチ,0
1373,5440003001566,新規,0,2023-12-25,2023-12-25,合同会社ＮＵＲＳＥ　ＩＳＭ,,合同会社,北海道,函館市,昭和２丁目２２番６号,,01,202,0410812,,,,,,,2023-12-25,1,,,,,ナースイズム,0
1379,5500001025379,新規,0,2023-12-25,2023-12-25,株式会社トランクリード,,株式会社,愛媛県,松山市,東雲町４番６号Ｍａｙｆａｉｒ東雲Ｐｒｅｍｉｕｍ１Ｆ,,38,201,7900803,,,,,,,2023-12-25,1,,,,,トランクリード,0
1382,5700150016910,新規,0,2023-12-25,2015-10-09,埼玉県電気工事工業組合志木支部,,その他,埼玉県,朝霞市,北原２丁目９番地１７号,,11,227,3510036,,,,,,,2015-10-09,1,,,,,サイタマケンデンキコウジコウギヨウクミアイシキシブ,0
1383,5700150122312,新規,0,2023-12-25,2023-11-27,セザール安針塚管理組合,,その他,神奈川県,横須賀市,長浦町２丁目６１番４号,,14,201,2370072,,,,,,,2023-11-27,1,,,,,セザールアンジンヅカカンリクミアイ,0
1384,5700150122931,新規,0,2023-12-25,2023-12-21,サイトウマコトの世界,,その他,大阪府,豊中市,刀根山６丁目６－２６,,27,203,5600045,,,,,,,2023-12-21,1,,,,,サイトウマコトノセカイ,0
1385,5700150123062,新規,0,2023-12-25,2023-12-25,Ｈｕｎａｎ　Ｍａｄｏｎｇ　Ｎｅｔｗｏｒｋ　Ｔｅｃｈｎｏｌｏｇｙ　Ｃｏ，，ＬＴＤ,,外国会社等,,,,,,,,Ｒｏｏｍ　１３４６，Ｒｏｏｍ　１２，１３ｔｈ　Ｆｌｏｏｒ，Ｆｉｌｍ　ａｎｄ　Ｔｅｌｅｖｉｓｉｏｎ　Ｉｎｔｅｒｎａｔｉｏｎａｌ　Ｂｕｓｉｎｅｓｓ　Ｃｅｎｔｅｒ　Ｂｕｉｌｄｉｎｇ，Ｄｉｄｏｕｚｈｏｎｇ　Ｒｏａｄ，Ｌｅｎｇｓｈｕｉｊｉａｎｇ　Ｓｔｒｅｅｔ，Ｌｅｎｇｓｈｕｉｊｉａｎｇ　Ｃｉｔｙ,,,,,,2023-12-25,1,,,,,フーナンシヨンマードンワンルオコージーヨウシエンゴンスー,0
1386,5700150123070,新規,0,2023-12-25,2023-12-25,ＰＩＭＡＸ　ＩＮＮＯＶＡＴＩＯＮ（ＨＯＮＧ　ＫＯＮＧ）ＣＯ．，ＬＩＭＩＴＥＤ,,外国会社等,,,,,,,,ＦＬＡＴ／ＲＭ４０１　４／Ｆ　ＷＡＮＣＨＡＩ　ＣＥＮＴＲＡＬ　ＢＵＩＬＤＩＮＧ　８９　ＬＯＣＫＨＡＲＴ　ＲＯＡＤ　ＷＡＮ　ＣＨＡＩ　ＨＫ　９９９０７７,,,,,,2023-12-25,1,,,,,ピマックスイノベイションホンコンカンパニーリミテッド,0
1387,5700150123079,新規,0,2023-12-25,2023-12-25,ＤａｎＹａｎｇＳｈｉＨｕａＮａｎＳｈｅｎｇＹａｎＪｉｎｇＹｏｕＸｉａｎＧｏｎｇＳｉ,,外国会社等,,,,,,,,ｊｉａｎｇｓｕｓｈｅｎｇｄａｎｙａｎｇｓｈｉｄｏｎｇｆａｎｇｆｕｗｕｚｏｎｇｈｕｉ８ｄｏｎｇ２ｄａｎｙｕａｎ６０１,,,,,,2023-12-25,1,,,,,タンヨウシカナンショウメガネユウゲンコウシ,0
1395,6010001241082,新規,0,2023-12-25,2023-12-25,株式会社ＮＥＭＯ　ＣＯＭＭＥＲＣＥ　ＪＡＰＡＮ,,株式会社,東京都,千代田区,二番町１０－２４Ａ・Ｉ二番町ビル２階,,13,101,1020084,,,,,,,2023-12-25,1,,,,,ネモコマースジャパン,0
1400,6010003042495,新規,0,2023-12-25,2023-12-25,合同会社Ｔ．Ｏ．,,合同会社,東京都,中央区,銀座１丁目１２番４号Ｎ＆ＥＢＬＤ．６Ｆ,,13,102,1040061,,,,,,,2023-12-25,1,,,,,ティーオー,0
1408,6010401179369,新規,0,2023-12-25,2023-12-25,株式会社エン・ステレオ,,株式会社,東京都,港区,赤坂９丁目６番２９号,,13,103,1070052,,,,,,,2023-12-25,1,,,,,エンステレオ,0
1409,6010401179385,新規,0,2023-12-25,2023-12-25,マイスカイ株式会社,,株式会社,東京都,港区,北青山１丁目３番１号アールキューブ青山３階,,13,103,1070061,,,,,,,2023-12-25,1,,,,,マイスカイ,0
1412,6010601064379,新規,0,2023-12-25,2023-12-25,ケイエムトラスト株式会社,,株式会社,東京都,江東区,亀戸３丁目９番１－６０１号,,13,108,1360071,,,,,,,2023-12-25,1,,,,,ケイエムトラスト,0
1413,6010601064387,新規,0,2023-12-25,2023-12-25,株式会社合興,,株式会社,東京都,墨田区,向島４丁目１－１－３１２,,13,107,1310033,,,,,,,2023-12-25,1,,,,,ゴウコウ,0
1414,6010603010546,新規,0,2023-12-25,2023-12-25,とぅるーらいと合同会社,,合同会社,東京都,墨田区,文花１丁目１８番１３号,,13,107,1310044,,,,,,,2023-12-25,1,,,,,トゥルーライト,0
1419,6010701045304,新規,0,2023-12-25,2023-12-25,株式会社ショウジ工務店,,株式会社,東京都,品川区,西大井６丁目１５番６号,,13,109,1400015,,,,,,,2023-12-25,1,,,,,ショウジコウムテン,0
1420,6010701045320,新規,0,2023-12-25,2023-12-25,株式会社Ｓｔｙｌｏ,,株式会社,東京都,品川区,北品川６丁目２番１２号,,13,109,1410001,,,,,,,2023-12-25,1,,,,,スタイロ,0
1425,6010801034644,新規,0,2023-12-25,2023-12-25,株式会社東京ＶＩＴＡ,,株式会社,東京都,大田区,東六郷２丁目２０番１－４０２号,,13,111,1440046,,,,,,,2023-12-25,1,,,,,トウキョウヴィータ,0
1435,6011001158993,新規,0,2023-12-25,2023-12-25,株式会社ＢｕｎＢｕｎ,,株式会社,東京都,渋谷区,道玄坂１丁目１０番８号渋谷道玄坂東急ビル２Ｆ－Ｃ,,13,113,1500043,,,,,,,2023-12-25,1,,,,,ブンブン,0
1436,6011001159034,新規,0,2023-12-25,2023-12-25,株式会社二十世紀,,株式会社,東京都,渋谷区,神宮前２丁目６番１０号,,13,113,1500001,,,,,,,2023-12-25,1,,,,,ニジュッセイキ,0
1437,6011001159059,新規,0,2023-12-25,2023-12-25,株式会社ｍｏｎｎｉｎ,,株式会社,東京都,渋谷区,道玄坂１丁目１０番８号渋谷道玄坂東急ビル２Ｆ－Ｃ,,13,113,1500043,,,,,,,2023-12-25,1,,,,,モンニン,0
1443,6011003018188,新規,0,2023-12-25,2023-12-25,合同会社ＡＤＬＩＮＫ,,合同会社,東京都,渋谷区,道玄坂１丁目１０番８号渋谷道玄坂東急ビル２Ｆ－Ｃ,,13,113,1500043,,,,,,,2023-12-25,1,,,,,アドリンク,0
1449,6011101105615,新規,0,2023-12-25,2023-12-25,ｙｕｌｅ株式会社,,株式会社,東京都,新宿区,西新宿６丁目５番１号新宿アイランドタワー２階,,13,104,1600023,,,,,,,2023-12-25,1,,,,,ユール,0
1452,6011201025135,新規,0,2023-12-25,2023-12-25,株式会社ＰＡＬ,,株式会社,東京都,中野区,中野５丁目２４番１４号ＡＬＴＡＮＡ中野７０５号室,,13,114,1640001,,,,,,,2023-12-25,1,,,,,パル,0
1454,6011301029267,新規,0,2023-12-25,2023-12-25,五和フラーレン株式会社,,株式会社,東京都,杉並区,堀ノ内１丁目６－４清水ビル１階,,13,115,1660013,,,,,,,2023-12-25,1,,,,,イツワフラーレン,0
1459,6011801043569,新規,0,2023-12-25,2023-12-25,株式会社ＢＬＵＥ　ＰＬＡＮＥＴ,,株式会社,東京都,葛飾区,西亀有３丁目３９番１３号,,13,122,1250002,,,,,,,2023-12-25,1,,,,,ブループラネット,0
1460,6011801043577,新規,0,2023-12-25,2023-12-25,株式会社ビルドレイル,,株式会社,東京都,葛飾区,東金町１丁目３番１－５１２号,,13,122,1250041,,,,,,,2023-12-25,1,,,,,ビルドレイル,0
1481,6020001155026,新規,0,2023-12-25,2023-12-25,株式会社Ｍａｋｅ　Ｉｔ,,株式会社,神奈川県,川崎市中原区,小杉町２丁目２２７番地４オフィスム武蔵小杉３０３号室,,14,133,2110063,,,,,,,2023-12-25,1,,,,,メイクイット,0
1490,6021001081039,新規,0,2023-12-25,2023-12-25,Ｆｉｒｓｔ　Ｐｅｎｇｕｉｎ株式会社,,株式会社,神奈川県,藤沢市,鵠沼東６番１－２１２号,00133094,14,205,2510026,,,,,,,2023-12-25,1,,,,,ファーストペンギン,0
1491,6021001081047,新規,0,2023-12-25,2023-12-25,株式会社ＡＶＡＮＴＩＡ,,株式会社,神奈川県,平塚市,山下３丁目２２番４０号,,14,203,2540911,,,,,,,2023-12-25,1,,,,,アヴァンティア,0
1492,6021001081055,新規,0,2023-12-25,2023-12-25,株式会社エムズユー,,株式会社,神奈川県,相模原市中央区,横山３丁目２５番４２号,,14,152,2520242,,,,,,,2023-12-25,1,,,,,エムズユー,0
1498,6030001157871,新規,0,2023-12-25,2023-12-25,株式会社ｅｎｔｏｎｅ,,株式会社,埼玉県,久喜市,鷲宮中央２丁目５－１２（２Ｆ）,,11,232,3400216,,,,,,,2023-12-25,1,,,,,エントーン,0
1513,6040001131454,新規,0,2023-12-25,2023-12-25,株式会社Ａｌｌ　ｓｔａｒｓ,,株式会社,千葉県,千葉市中央区,星久喜町１１５７－４８－２０３,,12,101,2600808,,,,,,,2023-12-25,1,,,,,オールスターズ,0
1514,6040001131487,新規,0,2023-12-25,2023-12-25,株式会社ＫＵＤＯＳ,,株式会社,千葉県,市川市,東菅野１丁目２９番８号,,12,203,2720823,,,,,,,2023-12-25,1,,,,,クドス,0
1515,6040001131495,新規,0,2023-12-25,2023-12-25,株式会社Ｏｐｔ　Ｌａｂｏ,,株式会社,千葉県,千葉市若葉区,都賀４丁目８番１８－２０７号,,12,104,2640025,,,,,,,2023-12-25,1,,,,,オプトラボ,0
1516,6040001131504,新規,0,2023-12-25,2023-12-25,株式会社ｏｆｆｉｃｅ　Ｕ,,株式会社,千葉県,袖ケ浦市,袖ケ浦駅前１丁目２番地１１リンクトーア２０３号,,12,229,2990269,,,,,,,2023-12-25,1,,,,,オフィスユー,0
1517,6040005022229,新規,0,2023-12-25,2023-12-25,一般社団法人いちかわ未来の学校,,その他の設立登記法人,千葉県,市川市,八幡３丁目７－２ｃｏ，ｄｏ本八幡,,12,203,2720021,,,,,,,2023-12-25,1,,,,,イチカワミライノガッコウ,0
1519,6050001054027,新規,0,2023-12-25,2023-12-25,株式会社Ｅｍｐｏｗｅｒ　Ｅａｓｅ　Ｃｒｅａｔｉｏｎｓ,,株式会社,茨城県,つくば市,天久保４丁目７番地７コーポサクラ２－Ａ号,,08,220,3050005,,,,,,,2023-12-25,1,,,,,エンパワーイーズクリエイションズ,0
1520,6050003008022,新規,0,2023-12-25,2023-12-25,ＳＧＫ　ＥＮＴＥＲＰＲＩＳＥＳ合同会社,,合同会社,茨城県,筑西市,倉持１１２０番地２１,,08,227,3004515,,,,,,,2023-12-25,1,,,,,エスジーケーエンタープライセズ,0
1521,6050005013367,新規,0,2023-12-25,2023-12-25,特定非営利活動法人コネクタウン,,その他の設立登記法人,茨城県,龍ケ崎市,若柴町２１２１番２６号,,08,208,3010041,,,,,,,2023-12-25,1,,,,,コネクタウン,0
1527,6070001041213,新規,0,2023-12-25,2023-12-25,株式会社Ａｏ　ｃｒｏｗｄ,,株式会社,群馬県,高崎市,江木町１００８番地３,,10,202,3700046,,,,,,,2023-12-25,1,,,,,アオクラウド,0
1528,6070001041221,新規,0,2023-12-25,2023-12-25,株式会社ＭＩＮＡＫＡＭＩ　ＶＩＬＬＡＧＥ,,株式会社,群馬県,利根郡みなかみ町,湯原６３２番地,,10,449,3791617,,,,,,,2023-12-25,1,,,,,ミナカミヴィレッジ,0
1531,6080001026048,新規,0,2023-12-25,2023-12-25,山川株式会社,,株式会社,静岡県,静岡市駿河区,中野新田５７番地の１１５第３コスモビル２階,,22,102,4228051,,,,,,,2023-12-25,1,,,,,ヤマカワ,0
1534,6080405007602,新規,0,2023-12-25,2023-12-25,精進寺,,その他の設立登記法人,静岡県,浜松市西区,大久保町６０４４番地１,,22,133,4328006,,,,,,,2023-12-25,1,,,,,ショウジンジ,0
1546,6120001260880,新規,0,2023-12-25,2023-12-25,ＲＡＮＤＳ株式会社,,株式会社,大阪府,大阪市中央区,谷町２丁目３番４号－５０１,,27,128,5400012,,,,,,,2023-12-25,1,,,,,ランズ,0
1547,6120001260889,新規,0,2023-12-25,2023-12-25,株式会社Ｓｅｐｔ,,株式会社,大阪府,大阪市中央区,南船場３丁目７番２７号ＮＬＣ心斎橋８Ｆ,,27,128,5420081,,,,,,,2023-12-25,1,,,,,セプト,0
1548,6120001260897,新規,0,2023-12-25,2023-12-25,株式会社アゴラ,,株式会社,大阪府,大阪市阿倍野区,阪南町１丁目５０－１６－３０１,,27,119,5450021,,,,,,,2023-12-25,1,,,,,アゴラ,0
1554,6120903004971,新規,0,2023-12-25,2023-12-25,Ａｒｍｏｎｉａ合同会社,,合同会社,大阪府,吹田市,江坂町１丁目１２－１－６Ｅ,,27,205,5640063,,,,,,,2023-12-25,1,,,,,アルモニア,0
1561,6130001075972,新規,0,2023-12-25,2023-12-25,株式会社想尽運輸,,株式会社,京都府,八幡市,上津屋八王子１２４番地１１,,26,210,6148174,,,,,,,2023-12-25,1,,,,,ソウツウンユ,0
1562,6130003009210,新規,0,2023-12-25,2023-12-25,合同会社ＢＥＹＯＮＤ,,合同会社,京都府,京都市左京区,田中馬場町２５番地市営住宅１３棟７０８号,,26,103,6068206,,,,,,,2023-12-25,1,,,,,ビヨンド,0
1566,6140001132797,新規,0,2023-12-25,2023-12-25,株式会社Ｓｈｅｌｌｆｉｓｈ明石,,株式会社,兵庫県,明石市,魚住町中尾３６番地,,28,203,6740082,,,,,,,2023-12-25,1,,,,,シェルフィッシュアカシ,0
1577,6180001159473,新規,0,2023-12-25,2023-12-25,株式会社トレステッレ,,株式会社,愛知県,名古屋市昭和区,阿由知通１丁目３番地４,,23,107,4660027,,,,,,,2023-12-25,1,,,,,トレステッレ,0
1580,6180005020441,新規,0,2023-12-25,2023-12-25,特定非営利活動法人ゆりまーる,,その他の設立登記法人,愛知県,一宮市,時之島字下途７番地２,,23,203,4910002,,,,,,,2023-12-25,1,,,,,ユリマール,0
1589,6180301038162,新規,0,2023-12-25,2023-12-25,株式会社Ｒｉｒｅ　ｂｅｅ,,株式会社,愛知県,岡崎市,柱町字堤畔１８番地リバーサイド柱２Ｆ,,23,202,4440834,,,,,,,2023-12-25,1,,,,,リルビー,0
1594,6200001042008,新規,0,2023-12-25,2023-12-25,株式会社えぬえいあい,,株式会社,岐阜県,美濃市,米長町２６５６番地３２号,,21,207,5013701,,,,,,,2023-12-25,1,,,,,エヌエイアイ,0
1597,6210005010125,新規,0,2023-12-25,2023-12-25,一般社団法人福井県キッチンカー協会,,その他の設立登記法人,福井県,福井市,西開発４丁目２２１番地２,,18,201,9100843,,,,,,,2023-12-25,1,,,,,フクイケンキッチンカーキョウカイ,0
1602,6240001062555,新規,0,2023-12-25,2023-12-25,株式会社ＴＯＴＯＮＯ‐Ｕ,,株式会社,広島県,広島市西区,己斐上２丁目３７番２８号,,34,104,7330815,,,,,,,2023-12-25,1,,,,,トトノウ,0
1625,6310001018764,新規,0,2023-12-25,2023-12-25,株式会社熊粋,,株式会社,長崎県,雲仙市,小浜町マリーナ９番地,,42,213,8540517,,,,,,,2023-12-25,1,,,,,ユウスイ,0
1631,6320005010122,新規,0,2023-12-25,2023-12-25,医療法人高翔,,その他の設立登記法人,大分県,大分市,下郡北３丁目２６番７号,,44,201,8700952,,,,,,,2023-12-25,1,,,,,コウショウ,0
1632,6330001031600,新規,0,2023-12-25,2023-12-25,株式会社ＮＳ７０,,株式会社,熊本県,熊本市中央区,本山町２０３番地３ＵＲＢＡＮＩＳＴ本山６０５,,43,101,8600822,,,,,,,2023-12-25,1,,,,,エヌエスナナゼロ,0
1637,6360001032983,新規,0,2023-12-25,2023-12-25,株式会社水レンジャー,,株式会社,沖縄県,中頭郡北中城村,字大城６５番地２Ｆ,,47,327,9012314,,,,,,,2023-12-25,1,,,,,スイレンジャー,0
1639,6360003013569,新規,0,2023-12-25,2023-12-25,Ａｗｏｂ　ｐｒｏｊｅｃｔ合同会社,,合同会社,沖縄県,中頭郡読谷村,字伊良皆４９０番地１,,47,324,9040303,,,,,,,2023-12-25,1,,,,,アウォブプロジェクト,0
1640,6360005006959,新規,0,2023-12-25,2023-12-25,一般社団法人越来共有会,,その他の設立登記法人,沖縄県,沖縄市,越来２丁目１８番１号（越来自治公民館内）,,47,211,9040001,,,,,,,2023-12-25,1,,,,,ゴエクキョウユウカイ,0
1644,6370005010737,新規,0,2023-12-25,2023-12-25,一般社団法人ｍａｎａｃｏ,,その他の設立登記法人,宮城県,仙台市青葉区,赤坂１丁目１１番地の１,,04,101,9893211,,,,,,,2023-12-25,1,,,,,マナコ,0
1656,6430001090719,新規,0,2023-12-25,2023-12-25,株式会社ノースフィールド,,株式会社,北海道,札幌市西区,八軒二条東３丁目１番１４号,,01,107,0630862,,,,,,,2023-12-25,1,,,,,ノースフィールド,0
1664,6500001025378,新規,0,2023-12-25,2023-12-25,株式会社ＪＡＲＶＩＳ,,株式会社,愛媛県,新居浜市,新須賀町２丁目５番１１号ベルオーヴＶＩＩＩＡ１０６号,00133096,38,205,7920802,,,,,,,2023-12-25,1,,,,,ジャービス,0
1666,6700150123061,新規,0,2023-12-25,2023-12-25,Ｈｕｎａｎ　Ｓｈｕｏ　Ｅｕｒｏｐｅａｎ　ｅ－ｃｏｍｍｅｒｃｅ　Ｃｏ．，ＬＴＤ,,外国会社等,,,,,,,,Ｎｏ．０３３，Ｇｒｏｕｐ　１，Ｍａｏｔｉａｎ　Ｖｉｌｌａｇｅ，Ｗｅｎｔｉａｎ　Ｔｏｗｎ，Ｘｉｎｈｕａ　Ｃｏｕｎｔｙ，Ｌｏｕｄｉ　Ｃｉｔｙ，Ｈｕｎａｎ　Ｐｒｏｖｉｎｃｅ,,,,,,2023-12-25,1,,,,,フーナンシヨンシユオオウデイエンズーシヤンウーヨウシエンゴンスー,0
1667,6700150123078,新規,0,2023-12-25,2023-12-25,Ｌｅｏｗｉｎ　ＧｍｂＨ,,外国会社等,,,,,,,,Ａｌｔｅ　Ｓｔｒａｆｅ　１２，７４６１３　Ｏｈｒｉｎｇｅｎ　ＤＥ,,,,,,2023-12-25,1,,,,,レオウィン,0
1678,7010001240983,新規,0,2023-12-25,2023-12-25,株式会社ＨＴＯ,,株式会社,東京都,中央区,銀座６丁目４番１７号出井ビル２階,,13,102,1040061,,,,,,,2023-12-25,1,,,,,エイチティーオー,0
1679,7010001241008,新規,0,2023-12-25,2023-12-25,株式会社ＭＯＯＤ,,株式会社,東京都,中央区,銀座２丁目１１番８号ラウンドクロス銀座二丁目,,13,102,1040061,,,,,,,2023-12-25,1,,,,,ムード,0
1680,7010001241032,新規,0,2023-12-25,2023-12-25,株式会社メディテック,,株式会社,東京都,中央区,勝どき２丁目８－１２,,13,102,1040054,,,,,,,2023-12-25,1,,,,,メディテック,0
1681,7010001241049,新規,0,2023-12-25,2023-12-25,昊天株式会社,,株式会社,東京都,千代田区,神田三崎町２丁目１０番１１号４Ａ－４,,13,101,1010061,,,,,,,2023-12-25,1,,,,,コウテン,0
1683,7010003042528,新規,0,2023-12-25,2023-12-25,合同会社ｅｗｅ,,合同会社,東京都,千代田区,丸の内１丁目８番２号鉄鋼ビルディング４Ｆ,,13,101,1000005,,,,,,,2023-12-25,1,,,,,ユー,0
1693,7010401179319,新規,0,2023-12-25,2023-12-25,株式会社ＧＥＮＥＳＩＳ,,株式会社,東京都,港区,六本木３丁目１０番９号＿川誠志堂ビル４階,00133107,13,103,1060032,,,,,,,2023-12-25,1,,,,,ジェネシス,0
1694,7010401179351,新規,0,2023-12-25,2023-12-25,株式会社ｃｌｏｕｔ,,株式会社,東京都,港区,南青山３丁目１番３６号青山丸竹ビル６Ｆ,,13,103,1070062,,,,,,,2023-12-25,1,,,,,クラウト,0
1695,7010403031543,新規,0,2023-12-25,2023-12-25,合同会社ＨｉｖｅＭｉｎｄｓ,,合同会社,東京都,港区,南青山２丁目２番１５号,,13,103,1070062,,,,,,,2023-12-25,1,,,,,ハイブマインズ,0
1696,7010403031642,新規,0,2023-12-25,2023-12-25,合同会社ＧＥＴＴＥＮ,,合同会社,東京都,港区,南麻布５丁目２番４０号日興パレス南麻布２１０号,,13,103,1060047,,,,,,,2023-12-25,1,,,,,ゲッテン,0
1697,7010601064386,新規,0,2023-12-25,2023-12-25,華璽株式会社,00133100,株式会社,東京都,江東区,大島６丁目１２番３号熊本ビル１Ｆ,,13,108,1360072,,,,,,,2023-12-25,1,,,,,カシ,0
1702,7010901054401,新規,0,2023-12-25,2023-12-25,株式会社ジクトログ,,株式会社,東京都,世田谷区,池尻３丁目２１番１６号アトラス池尻レジデンス２１０,,13,112,1540001,,,,,,,2023-12-25,1,,,,,ジクトログ,0
1703,7010903008677,新規,0,2023-12-25,2023-12-25,合同会社Ｄｒ．Ｂｅａｕｔｙ　Ｓｃｉｅｎｃｅ,,合同会社,東京都,世田谷区,等々力７丁目１８－２１,,13,112,1580082,,,,,,,2023-12-25,1,,,,,ドクタービューティーサイエンス,0
1715,7011001158811,新規,0,2023-12-25,2023-12-25,株式会社すず,,株式会社,東京都,渋谷区,東１丁目１３番１－７０９号,,13,113,1500011,,,,,,,2023-12-25,1,,,,,スズ,0
1716,7011003018170,新規,0,2023-12-25,2023-12-25,合同会社Ｓｔａｒｌｉｔ　Ｐｏｉｎｔ,,合同会社,東京都,渋谷区,道玄坂１丁目１０番８号渋谷道玄坂東急ビル２Ｆ－Ｃ,,13,113,1500043,,,,,,,2023-12-25,1,,,,,スターリットポイント,0
1718,7011005010316,新規,0,2023-12-25,2023-12-25,オーシャン国際税理士法人,,その他の設立登記法人,東京都,目黒区,目黒１丁目２４番１８号福山ビル８階,,13,110,1530063,,,,,,,2023-12-25,1,,,,,オーシャンコクサイ,0
1719,7011101105622,新規,0,2023-12-25,2023-12-25,富士品株式会社,,株式会社,東京都,新宿区,新宿５丁目１４番１２号天翔オフィス新宿三丁目３０６,,13,104,1600022,,,,,,,2023-12-25,1,,,,,フジシナ,0
1720,7011101105630,新規,0,2023-12-25,2023-12-25,ＭＩＳＴＵＫＩ株式会社,,株式会社,東京都,新宿区,四谷三栄町１２番４４号東洋四谷ビルＢ１－１１,,13,104,1600008,,,,,,,2023-12-25,1,,,,,ミツキ,0
1721,7011201025134,新規,0,2023-12-25,2023-12-25,株式会社ＳＨＥＲＡＴＯＮ,,株式会社,東京都,中野区,中央５丁目２７番１９号エイアイハイム２０３,,13,114,1640011,,,,,,,2023-12-25,1,,,,,シェラトン,0
1725,7011401025710,新規,0,2023-12-25,2023-12-25,方舟株式会社,,株式会社,東京都,板橋区,徳丸１丁目１７番２号ＸＯ財託第三ビル３０２室,,13,119,1750083,,,,,,,2023-12-25,1,,,,,ハコブネ,0
1726,7011401025727,新規,0,2023-12-25,2023-12-25,株式会社ＬＧＨ,,株式会社,東京都,板橋区,大山町４番９号,,13,119,1730023,,,,,,,2023-12-25,1,,,,,エルジーエイチ,0
1728,7011603004181,新規,0,2023-12-25,2023-12-25,合同会社Ｚ８ｅｎｔｅｒｔａｉｎｍｅｎｔ,,合同会社,東京都,練馬区,東大泉６丁目４６番１８号,,13,120,1780063,,,,,,,2023-12-25,1,,,,,ゼットエイトエンターテイメント,0
1729,7011701026879,新規,0,2023-12-25,2023-12-25,株式会社ＳＡＬｉＲＥ,,株式会社,東京都,江戸川区,篠崎町２丁目５９番１０－４０１号,,13,123,1330061,,,,,,,2023-12-25,1,,,,,サリーレ,0
1735,7011803006011,新規,0,2023-12-25,2023-12-25,佳禾合同会社,,合同会社,東京都,足立区,栗原１丁目２１－２－３０２号,,13,121,1230842,,,,,,,2023-12-25,1,,,,,カカ,0
1737,7012801022859,新規,0,2023-12-25,2023-12-25,株式会社ｔｏ．ＨＡＣＫ,,株式会社,東京都,立川市,高松町３丁目１５番２１号セントオハナ立川１階,,13,202,1900011,,,,,,,2023-12-25,1,,,,,ティーオードットハック,0
1742,7020001155009,新規,0,2023-12-25,2023-12-25,ＦｒａｎｋｌｉｎＷＨ　ＪＡＰＡＮ株式会社,,株式会社,神奈川県,横浜市磯子区,磯子台２１番１１号,,14,107,2350019,,,,,,,2023-12-25,1,,,,,フランクリンダブリュエッチジャパン,0
1743,7020001155033,新規,0,2023-12-25,2023-12-25,株式会社リンクビー,,株式会社,神奈川県,横浜市泉区,和泉町７３５４番地１１,,14,116,2450016,,,,,,,2023-12-25,1,,,,,リンクビー,0
1750,7021001081038,新規,0,2023-12-25,2023-12-25,株式会社バズファクトリー,,株式会社,神奈川県,大和市,南林間６丁目１番１７号,,14,213,2420006,,,,,,,2023-12-25,1,,,,,バズファクトリー,0
1751,7021001081070,新規,0,2023-12-25,2023-12-25,株式会社アークスファーマシー,,株式会社,神奈川県,中郡大磯町,国府本郷１１１７―６,,14,341,2590111,,,,,,,2023-12-25,1,,,,,アークスファーマシー,0
1753,7021003013939,新規,0,2023-12-25,2023-12-25,合同会社ＨｅｍｉｎｇＡｒｔｓ＆Ａｒｔｉｓｔｓ,,合同会社,神奈川県,三浦郡葉山町,下山口１４９９番地,,14,301,2400116,,,,,,,2023-12-25,1,,,,,ヘミングアーツアンドアーティスツ,0
1754,7021003013947,新規,0,2023-12-25,2023-12-25,合同会社エピプランニング,,合同会社,神奈川県,逗子市,山の根１丁目７―６ファミール逗子３０４,,14,208,2490002,,,,,,,2023-12-25,1,,,,,エピプランニング,0
1762,7030001157862,新規,0,2023-12-25,2023-12-25,Ｋ２マネジメント株式会社,,株式会社,埼玉県,さいたま市見沼区,大字中川６５１番地９,,11,104,3370043,,,,,,,2023-12-25,1,,,,,ケーツーマネジメント,0
1763,7030001157887,新規,0,2023-12-25,2023-12-25,株式会社ＲＯＪＢＩＮ,,株式会社,埼玉県,川口市,戸塚東４丁目２６番２４号リノヴァーレ２０４,,11,203,3330802,,,,,,,2023-12-25,1,,,,,ロジビン,0
1764,7030003023261,新規,0,2023-12-25,2023-12-25,Ｂａｎｋ　ｏｆ　ＡＩ合同会社,,合同会社,埼玉県,南埼玉郡宮代町,大字東粂原４３３番地５,,11,442,3450832,,,,,,,2023-12-25,1,,,,,バンクオブエーアイ,0
1765,7040001131503,新規,0,2023-12-25,2023-12-25,株式会社ｉｓｏｌａ,,株式会社,千葉県,千葉市中央区,富士見２丁目９番２８号第一山崎ビル３階,,12,101,2600015,,,,,,,2023-12-25,1,,,,,イゾラ,0
1769,7040003023979,新規,0,2023-12-25,2023-12-25,オズワークス合同会社,,合同会社,千葉県,船橋市,南本町２９番１９号,,12,204,2730004,,,,,,,2023-12-25,1,,,,,オズワークス,0
1770,7050001054026,新規,0,2023-12-25,2023-12-25,株式会社ファシリティ,,株式会社,茨城県,つくばみらい市,谷井田１３１２番地６,,08,235,3002337,,,,,,,2023-12-25,1,,,,,ファシリティ,0
1778,7070003005207,新規,0,2023-12-25,2023-12-25,アルファーシード合同会社,,合同会社,群馬県,渋川市,金井２３３２番地５,,10,208,3770027,,,,,,,2023-12-25,1,,,,,アルファーシード,0
1780,7080101024421,新規,0,2023-12-25,2023-12-25,株式会社うさぎ,,株式会社,静岡県,富士市,横割本町２番９号,,22,210,4160923,,,,,,,2023-12-25,1,,,,,ウサギ,0
1782,7100003007323,新規,0,2023-12-25,2023-12-25,合同会社ＪＡＤＯＯＮ　ＴＲＡＤＩＮＧ,,合同会社,長野県,長野市,篠ノ井小松原２３０１番地１,,20,201,3812235,,,,,,,2023-12-25,1,,,,,ジャドゥーントレーディング,0
1785,7110001038055,新規,0,2023-12-25,2023-12-25,株式会社エムジーコンサルティング,,株式会社,新潟県,三条市,月岡２７８３番地１,,15,204,9550803,,,,,,,2023-12-25,1,,,,,エムジーコンサルティング,0
1798,7120001260806,新規,0,2023-12-25,2023-12-25,株式会社肉文銭,,株式会社,大阪府,大阪市西成区,松１丁目５番２－１０１号,,27,122,5570034,,,,,,,2023-12-25,1,,,,,ニクモンセン,0
1799,7120001260822,新規,0,2023-12-25,2023-12-25,株式会社ＡＩＲ　ＦＬＯＷＳ,,株式会社,大阪府,大阪市東住吉区,今川８丁目２番６号Ｄ－ｒｏｏｍ今川Ｃ棟３０１号,,27,121,5460003,,,,,,,2023-12-25,1,,,,,エアーフローズ,0
1800,7120001260847,新規,0,2023-12-25,2023-12-25,カマナホーム株式会社,,株式会社,大阪府,大阪市中央区,谷町２丁目３－１第２ターネンビルディング５階,,27,128,5400012,,,,,,,2023-12-25,1,,,,,カマナホーム,0
1801,7120001260896,新規,0,2023-12-25,2023-12-25,株式会社ｓｃｅｎｅ．革新,,株式会社,大阪府,大阪市北区,中津４丁目４番２０号,,27,127,5310071,,,,,,,2023-12-25,1,,,,,シーンドットカクシン,0
1812,7120901048524,新規,0,2023-12-25,2023-12-25,リセット株式会社,,株式会社,大阪府,豊中市,西泉丘２丁目２５番地の１（２１０号）,,27,203,5610862,,,,,,,2023-12-25,1,,,,,リセット,0
1813,7120901048540,新規,0,2023-12-25,2023-12-25,株式会社ＣｏｄｅＷｉｔｈ,,株式会社,大阪府,豊中市,東泉丘２丁目１４－２０－４０６,,27,203,5610861,,,,,,,2023-12-25,1,,,,,コードウィズ,0
1814,7120905006544,新規,0,2023-12-25,2023-12-25,一般社団法人三博会,,その他の設立登記法人,大阪府,豊中市,玉井町１丁目２番１号豊中駅前ビルディング３階,,27,203,5600026,,,,,,,2023-12-25,1,,,,,ミヒロカイ,0
1815,7130001075988,新規,0,2023-12-25,2023-12-25,ＫＹＯＲＹＯホールディングス株式会社,,株式会社,京都府,綾部市,上杉町井ノ迫１０番地,,26,203,6230102,,,,,,,2023-12-25,1,,,,,キョウリョウホールディングス,0
1822,7140001132755,新規,0,2023-12-25,2023-12-25,株式会社メディアジャパン,,株式会社,兵庫県,尼崎市,稲葉荘２丁目１５番５号稲葉ＴＭハイツ３０５号,,28,202,6600064,,,,,,,2023-12-25,1,,,,,メディアジャパン,0
1823,7140001132805,新規,0,2023-12-25,2023-12-25,森源商事株式会社,,株式会社,兵庫県,神戸市中央区,元町通６丁目６番１６号元町ＭＧレヂデンス３,,28,110,6500022,,,,,,,2023-12-25,1,,,,,シンゲンショウジ,0
1826,7140003019959,新規,0,2023-12-25,2023-12-25,合同会社エムテット,,合同会社,兵庫県,姫路市,庄田１４５番地,,28,201,6700951,,,,,,,2023-12-25,1,,,,,エムテット,0
1843,7180001159464,新規,0,2023-12-25,2023-12-25,魚太郎４株式会社,,株式会社,愛知県,知多郡美浜町,大字豊丘字原子３２番地の１,,23,446,4702414,,,,,,,2023-12-25,1,,,,,ウタロウヨン,0
1845,7180005020465,新規,0,2023-12-25,2023-12-25,一般社団法人ナルド基金,,その他の設立登記法人,愛知県,名古屋市中区,金山４丁目５番１６号,,23,106,4600022,,,,,,,2023-12-25,1,,,,,ナルドキキン,0
1849,7180303005952,新規,0,2023-12-25,2023-12-25,ＡＭＡＺＩＮＧ　ＷＯＲＬＤ合同会社,,合同会社,愛知県,岡崎市,六名３丁目３番地３８,,23,202,4440856,,,,,,,2023-12-25,1,,,,,アメイジングワールド,0
1856,7240001062595,新規,0,2023-12-25,2023-12-25,株式会社タクト,,株式会社,広島県,広島市中区,光南２丁目３番５－３１１号,,34,101,7300825,,,,,,,2023-12-25,1,,,,,タクト,0
1869,7290001104120,新規,0,2023-12-25,2023-12-25,株式会社ＥｎｅｒｇｙＡｒｔｓ,,株式会社,福岡県,福岡市博多区,奈良屋町１４番１８号,,40,132,8120023,,,,,,,2023-12-25,1,,,,,,0
1874,7290005019232,新規,0,2023-12-25,2023-12-25,医療法人ＰＬＥＡＳＡＮＴ,,その他の設立登記法人,福岡県,福岡市中央区,大手門３丁目７番１７号東洋マンション西公園１Ｆ,,40,133,8100074,,,,,,,2023-12-25,1,,,,,プリーザント,0
1880,7320005010121,新規,0,2023-12-25,2023-12-25,特定非営利活動法人大分和み会,,その他の設立登記法人,大分県,大分市,大字国分字下河原１９０５番地１,,44,201,8700864,,,,,,,2023-12-25,1,,,,,オオイタナゴミカイ,0
1881,7340001026160,新規,0,2023-12-25,2023-12-25,Ａｍｉｅｒｅ株式会社,,株式会社,鹿児島県,出水市,上知識町５４０番地,,46,208,8990212,,,,,,,2023-12-25,1,,,,,アミエール,0
1886,7360001032974,新規,0,2023-12-25,2023-12-25,株式会社デイドリーム,,株式会社,沖縄県,糸満市,潮崎町３丁目１６番地の１５,,47,210,9010364,,,,,,,2023-12-25,1,,,,,デイドリーム,0
1887,7360001032982,新規,0,2023-12-25,2023-12-25,株式会社伊禮,00133097,株式会社,沖縄県,中頭郡読谷村,字大木７８番地２,,47,324,9040316,,,,,,,2023-12-25,1,,,,,イレイ,0
1890,7360003013568,新規,0,2023-12-25,2023-12-25,クロスケイ合同会社,,合同会社,沖縄県,うるま市,与那城平安座８２６７番地,,47,213,9042426,,,,,,,2023-12-25,1,,,,,クロスケイ,0
1891,7360003013576,新規,0,2023-12-25,2023-12-25,Ｎａｃｈｉｂａ合同会社,,合同会社,沖縄県,中頭郡読谷村,字宇座１８６１番地,,47,324,9040328,,,,,,,2023-12-25,1,,,,,ナチバ,0
1892,7370001050760,新規,0,2023-12-25,2023-12-25,株式会社恵工務店,,株式会社,宮城県,仙台市太白区,茂庭字町北３９番地,,04,104,9820251,,,,,,,2023-12-25,1,,,,,メグミコウムテン,0
1906,7410001013671,新規,0,2023-12-25,2023-12-25,株式会社ホシフル,,株式会社,秋田県,湯沢市,元清水３丁目３番２９号,,05,207,0120032,,,,,,,2023-12-25,1,,,,,ホシフル,0
1908,7420003002853,新規,0,2023-12-25,2023-12-25,合同会社スカイウイング,,合同会社,青森県,八戸市,旭ケ丘２丁目１番地５７,,02,203,0310824,,,,,,,2023-12-25,1,,,,,スカイウイング,0
1926,7480001012329,新規,0,2023-12-25,2023-12-25,株式会社森邸,,株式会社,徳島県,美馬市,脇町大字脇町１０８番地,,36,207,7793610,,,,,,,2023-12-25,1,,,,,モリテイ,0
1929,7490001010661,新規,0,2023-12-25,2023-12-25,株式会社Ｄ’ｚ工房,,株式会社,高知県,香美市,土佐山田町宝町２丁目１３番１８号,,39,212,7820034,,,,,,,2023-12-25,1,,,,,ディーズコウボウ,0
1933,7700150123060,新規,0,2023-12-25,2023-12-25,Ｈｕｎａｎ　Ｇｅｆｕ　ｅ－ｃｏｍｍｅｒｃｅ　Ｃｏ．，ＬＴＤ,,外国会社等,,,,,,,,Ｒｏｏｍ　１３５０，Ｒｏｏｍ　４，１３ｔｈ　Ｆｌｏｏｒ，Ｆｉｌｍ　ａｎｄ　Ｔｅｌｅｖｉｓｉｏｎ　Ｉｎｔｅｒｎａｔｉｏｎａｌ　Ｂｕｓｉｎｅｓｓ　Ｃｅｎｔｅｒ　Ｂｕｉｌｄｉｎｇ，Ｄｉｄｏｕｚｈｏｎｇ　Ｒｏａｄ，ＬｅｎｇｓｈｕｉｊｉａｎｇＳｔｒｅｅｔ，Ｌｏｕｄｉ　Ｃｉｔｙ，Ｈｕｎａｎ　Ｐｒｏｖｉｎｃｅ,,,,,,2023-12-25,1,,,,,フーナンシヨンゴーフーデイエンズーシヤンウーヨウシエンゴンスー,0
1934,7700150123069,新規,0,2023-12-25,2023-12-25,Ｓｈａｎｇｈａｉ　Ｍｅｉｐｅｎｇｘｉ　Ｔｅｃｈｎｏｌｏｇｙ　Ｃｏ．，Ｌｔｄ,,外国会社等,,,,,,,,９１２Ｊ　ＹｅｃｈｅｎｇＲｏａｄ　ＪｉａｄｉｎｇＩｎｄｕｓｔｒｉａｌＺｏｎｅ　Ｓｈａｎｇｈａｉ　２０１８００　ＣＮ,,,,,,2023-12-25,1,,,,,シャンハイメイポンシテクノロジーカンパニーリミテッド,0
1935,7700150123077,新規,0,2023-12-25,2023-12-25,Ｓｈｅｎｚｈｅｎ　ｙｏｕｎｕｏｏｕ　ｔｅｃｈｎｏｌｏｇｙ　ｃｏ．，ｌｔｄ,,外国会社等,,,,,,,,１３０９　Ｂｕｉｌｄｉｎｇ１　ＥｖｅｒＭｅｔｒｏｐｏｌｉｓＰｌａｚａ　Ｎｏ．１５ＨｕａｎＣｈｅｎｇＳｏｕｔｈＲｏａｄ　Ｍａ’ａｎＴａｎｇＣｏｍｍｕｎｉｔｙ　ＢａｎｔｉａｎＳｔｒｅｅｔ　ＬｏｎｇｇａｎｇＤｉｓｔｒｉｃｔ　Ｓｈｅｎｚｈｅｎ　５１８０００　ＣＮ,,,,,,2023-12-25,1,,,,,シンセンヨーノーオテクノロジーカンパニーリミテッド,0
1944,8010001241056,新規,0,2023-12-25,2023-12-25,ラナバハル株式会社,,株式会社,東京都,千代田区,東神田１丁目２－２－２０５,,13,101,1010031,,,,,,,2023-12-25,1,,,,,ラナバハル,0
1949,8010003042502,新規,0,2023-12-25,2023-12-25,合同会社シーエスエム,,合同会社,東京都,中央区,築地４丁目３番４号リッツ銀座ビル６階,,13,102,1040045,,,,,,,2023-12-25,1,,,,,シーエスエム,0
1950,8010003042535,新規,0,2023-12-25,2023-12-25,鴻日合同会社,,合同会社,東京都,千代田区,神田三崎町２丁目１０番１１号６Ａ－８,,13,101,1010061,,,,,,,2023-12-25,1,,,,,コウニチ,0
1954,8010401179326,新規,0,2023-12-25,2023-12-25,株式会社ＫＡＩＳＨＩＮＧＥＫＩ,,株式会社,東京都,港区,浜松町２丁目２番１５号浜松町ダイヤビル２Ｆ,,13,103,1050013,,,,,,,2023-12-25,1,,,,,カイシンゲキ,0
1955,8010401179334,新規,0,2023-12-25,2023-12-25,ネオジウム株式会社,,株式会社,東京都,港区,虎ノ門４丁目１番１号神谷町トラストタワー,,13,103,1050001,,,,,,,2023-12-25,1,,,,,ネオジウム,0
1956,8010401179359,新規,0,2023-12-25,2023-12-25,株式会社ｍｏｏｎ　ｂｏｗ,,株式会社,東京都,港区,赤坂８丁目１２番１９号ゼ・ブレデュー２０２,,13,103,1070052,,,,,,,2023-12-25,1,,,,,ムーンボウ,0
1957,8010401179400,新規,0,2023-12-25,2023-12-25,株式会社楠陽社,,株式会社,東京都,港区,赤坂２丁目１４番１１号天翔赤坂ビル６０４,,13,103,1070052,,,,,,,2023-12-25,1,,,,,ナンヨウシャ,0
1963,8010801034642,新規,0,2023-12-25,2023-12-25,ＫＭＳ　ＩＮＴＥＲＮＡＴＩＯＮＡＬ株式会社,,株式会社,東京都,大田区,西蒲田８丁目２番１号西蒲田スカイハイツ１１１,,13,111,1440051,,,,,,,2023-12-25,1,,,,,ケイエムエスインターナショナル,0
1969,8010901054409,新規,0,2023-12-25,2023-12-25,株式会社Ｒｅｖａｎｃｅ　ＢＬＤ,,株式会社,東京都,世田谷区,鎌田３丁目１２番１６号,,13,112,1570077,,,,,,,2023-12-25,1,,,,,レバンスビルド,0
1974,8011001158983,新規,0,2023-12-25,2023-12-25,株式会社プロプラス,,株式会社,東京都,目黒区,東山１丁目１番６号リアン風見２０１,,13,110,1530043,,,,,,,2023-12-25,1,,,,,プロプラス,0
1976,8011101105563,新規,0,2023-12-25,2023-12-25,株式会社ファイブスタースタジオ,,株式会社,東京都,新宿区,下落合１丁目４番１８号彰文ビル２階,,13,104,1610033,,,,,,,2023-12-25,1,,,,,ファイブスタースタジオ,0
1981,8011105010891,新規,0,2023-12-25,2023-12-25,一般財団法人早稲田教育研究所,,その他の設立登記法人,東京都,新宿区,馬場下町５番地１,,13,104,1620045,,,,,,,2023-12-25,1,,,,,ワセダキョウイクケンキュウジョ,0
1982,8011201025133,新規,0,2023-12-25,2023-12-25,株式会社ＳＥＮＫＵ,,株式会社,東京都,中野区,弥生町５丁目１３番１号エスティメゾン中野富士見町１０５,,13,114,1640013,,,,,,,2023-12-25,1,,,,,センク,0
1989,8011303004992,新規,0,2023-12-25,2023-12-25,合同会社Ｄｉｐｌｏｍａｃｙ,,合同会社,東京都,杉並区,今川１丁目７番２７号,,13,115,1670035,,,,,,,2023-12-25,1,,,,,ディプロマシー,0
1990,8011303005009,新規,0,2023-12-25,2023-12-25,トアルド合同会社,,合同会社,東京都,杉並区,桃井３丁目６番１－１２０８号,,13,115,1670034,,,,,,,2023-12-25,1,,,,,トアルド,0
1995,8011601027407,新規,0,2023-12-25,2023-12-25,株式会社ムツビ,,株式会社,東京都,練馬区,上石神井２丁目３７番３５号ＳＴＳハイム２０１,,13,120,1770044,,,,,,,2023-12-25,1,,,,,ムツビ,0
2005,8011801043567,新規,0,2023-12-25,2023-12-25,高昇株式会社,,株式会社,東京都,葛飾区,東新小岩２丁目２８番１号,,13,122,1240023,,,,,,,2023-12-25,1,,,,,コウショウ,0
2013,8020001155057,新規,0,2023-12-25,2023-12-25,株式会社カワセキ,,株式会社,神奈川県,川崎市宮前区,土橋５丁目５－３ＣｏｌｌｉｎａＣａｓａ３０５,,14,136,2160005,,,,,,,2023-12-25,1,,,,,カワセキ,0
2021,8021001081037,新規,0,2023-12-25,2023-12-25,株式会社Ｋ２グループ,,株式会社,神奈川県,横須賀市,米が浜通１丁目３番地玉屋ビル４Ｆ,,14,201,2380011,,,,,,,2023-12-25,1,,,,,ケーツーグループ,0
2022,8021001081053,新規,0,2023-12-25,2023-12-25,株式会社サスセス,,株式会社,神奈川県,逗子市,小坪５丁目２３番４－４１０２号,,14,208,2490008,,,,,,,2023-12-25,1,,,,,サスセス,0
2023,8021001081061,新規,0,2023-12-25,2023-12-25,株式会社Ｆｏｒｃｅ,,株式会社,神奈川県,相模原市南区,下溝４７１番地３－１０１,,14,153,2520335,,,,,,,2023-12-25,1,,,,,フォース,0
2028,8021003013946,新規,0,2023-12-25,2023-12-25,合同会社ｓｙｓｔｅｍｏｐｔｉｍｉｚａｔｉｏｎ,,合同会社,神奈川県,平塚市,南豊田５２４―５,,14,203,2540084,,,,,,,2023-12-25,1,,,,,システムオプティミゼイション,0
2029,8021005012979,新規,0,2023-12-25,2023-12-25,一般社団法人モノジェニックの会,,その他の設立登記法人,神奈川県,茅ヶ崎市,西久保７６８番地,,14,207,2530083,,,,,,,2023-12-25,1,,,,,モノジェニックノカイ,0
2038,8030001157878,新規,0,2023-12-25,2023-12-25,ｈｏｒｓｅ＆ｈｏｒｓｅ株式会社,,株式会社,埼玉県,戸田市,大字新曽１５２８番地の１,,11,224,3350021,,,,,,,2023-12-25,1,,,,,ホースアンドホース,0
2042,8030003023285,新規,0,2023-12-25,2023-12-25,合同会社クレンドリー,,合同会社,埼玉県,所沢市,小手指町１丁目１８番地の１３,,11,208,3591141,,,,,,,2023-12-25,1,,,,,クレンドリー,0
2047,8040001131469,新規,0,2023-12-25,2023-12-25,株式会社ほのか,,株式会社,千葉県,銚子市,本城町２丁目３７番地１７,,12,202,2880831,,,,,,,2023-12-25,1,,,,,ホノカ,0
2048,8040001131502,新規,0,2023-12-25,2023-12-25,ＧＬＧＣ株式会社,,株式会社,千葉県,流山市,大字中野久木字田苗下５５番１Ａ１,,12,220,2700116,,,,,,,2023-12-25,1,,,,,グロギク,0
2061,8050003008012,新規,0,2023-12-25,2023-12-25,ＫＩＡＲＡ　ＴＲＡＤＩＮＧＳ合同会社,,合同会社,茨城県,筑西市,海老ヶ島１１２３番地３,,08,227,3004517,,,,,,,2023-12-25,1,,,,,キアラトレーディング,0
2062,8050003008020,新規,0,2023-12-25,2023-12-25,Ｕ．Ｓ　ＴＲＡＤＩＮＧ合同会社,,合同会社,茨城県,下妻市,桐ケ瀬３２５番地３,,08,210,3040073,,,,,,,2023-12-25,1,,,,,ユーエストレーディング,0
2063,8050003008029,新規,0,2023-12-25,2023-12-25,合同会社ＫＫ．ＦＡＲＭ,,合同会社,茨城県,水戸市,木葉下町４０８番地,,08,201,3114165,,,,,,,2023-12-25,1,,,,,ケーケーファーム,0
2064,8060001036658,新規,0,2023-12-25,2023-12-25,株式会社アオハーツ,,株式会社,栃木県,那須塩原市,中塩原５６０－３,,09,213,3292924,,,,,,,2023-12-25,1,,,,,アオハーツ,0
2068,8070001041211,新規,0,2023-12-25,2023-12-25,大島コーポレーション株式会社,,株式会社,群馬県,前橋市,天川大島町１４３０番地１,,10,201,3792154,,,,,,,2023-12-25,1,,,,,オオシマコーポレーション,0
2078,8110003005242,新規,0,2023-12-25,2023-12-25,合同会社パ,,合同会社,新潟県,佐渡市,新穂青木６６８―２,,15,224,9520102,,,,,,,2023-12-25,1,,,,,パ,0
2086,8120001260870,新規,0,2023-12-25,2023-12-25,春日エステート株式会社,,株式会社,大阪府,大阪市生野区,中川１丁目７番１４号,,27,116,5440005,,,,,,,2023-12-25,1,,,,,カスガエステート,0
2087,8120001260879,新規,0,2023-12-25,2023-12-25,株式会社Ｏ’Ｚライフコンサルティング,,株式会社,大阪府,門真市,本町９－１６－５０３,,27,223,5710046,,,,,,,2023-12-25,1,,,,,オージーライフコンサルティング,0
2088,8120001260887,新規,0,2023-12-25,2023-12-25,株式会社ＰＲＯＥＮＳ,,株式会社,大阪府,大阪市中央区,南船場３丁目７番２９号,,27,128,5420081,,,,,,,2023-12-25,1,,,,,プロエンス,0
2089,8120001260895,新規,0,2023-12-25,2023-12-25,株式会社鳳凰メディカル,,株式会社,大阪府,大阪市北区,角田町８番４７号阪急グランドビル２０Ｆ,,27,127,5300017,,,,,,,2023-12-25,1,,,,,ホウオウメディカル,0
2094,8120101068727,新規,0,2023-12-25,2023-12-25,日昇株式会社,,株式会社,大阪府,富田林市,津々山台１丁目１４番６－４０３号,,27,214,5840086,,,,,,,2023-12-25,1,,,,,ニッショウ,0
2095,8120101068768,新規,0,2023-12-25,2023-12-25,好和株式会社,,株式会社,大阪府,泉佐野市,鶴原２丁目６番２４号,,27,213,5980071,,,,,,,2023-12-25,1,,,,,コウワ,0
2096,8120103005595,新規,0,2023-12-25,2023-12-25,合同会社ティーグリーン,,合同会社,大阪府,羽曳野市,古市１丁目１－５,,27,222,5830852,,,,,,,2023-12-25,1,,,,,ティーグリーン,0
2103,8130001075979,新規,0,2023-12-25,2023-12-25,株式会社かわむら,,株式会社,京都府,京都市右京区,西院清水町１４７番地２,,26,108,6150052,,,,,,,2023-12-25,1,,,,,カワムラ,0
2104,8130001075995,新規,0,2023-12-25,2023-12-25,株式会社巳成,,株式会社,京都府,京都市下京区,万寿寺通烏丸西入御供石町３４１番地１,,26,106,6008429,,,,,,,2023-12-25,1,,,,,ミナリ,0
2105,8130001076003,新規,0,2023-12-25,2023-12-25,株式会社ＨＯＺＵＢＡＧ,,株式会社,京都府,亀岡市,千歳町毘沙門向畑３５番地,,26,206,6210004,,,,,,,2023-12-25,1,,,,,ホズバッグ,0
2114,8140003019966,新規,0,2023-12-25,2023-12-25,ひだまり合同会社,,合同会社,兵庫県,加古川市,加古川町稲屋４５４番地の１ヴァールハイマート１０１号室,,28,210,6750034,,,,,,,2023-12-25,1,,,,,ヒダマリ,0
2117,8160001025584,新規,0,2023-12-25,2023-12-25,株式会社Ｍｐｌｕｓ,,株式会社,滋賀県,栗東市,井上４９６番地１,,25,208,5203006,,,,,,,2023-12-25,1,,,,,エムプラス,0
2118,8170005007058,新規,0,2023-12-25,2023-12-25,一般社団法人こころの寺子屋協会,,その他の設立登記法人,和歌山県,伊都郡高野町,大字高野山２６３番地,,30,344,6480211,,,,,,,2023-12-25,1,,,,,ココロノテラコヤキョウカイ,0
2134,8180001159471,新規,0,2023-12-25,2023-12-25,株式会社Ｓ．ＯＹＡＮ,,株式会社,愛知県,津島市,神守町字中田面１５番地１,,23,208,4960005,,,,,,,2023-12-25,1,,,,,エスオーヤン,0
2135,8180001159496,新規,0,2023-12-25,2023-12-25,まつな不動産株式会社,,株式会社,愛知県,名古屋市名東区,牧の原３丁目１０６番地,,23,115,4650072,,,,,,,2023-12-25,1,,,,,マツナフドウサン,0
2136,8180001159505,新規,0,2023-12-25,2023-12-25,Ｆａｉｒ株式会社,,株式会社,愛知県,名古屋市中川区,篠原橋通２丁目２４番地ＳＴ昭和橋１階,,23,110,4540839,,,,,,,2023-12-25,1,,,,,フェア,0
2137,8180001159513,新規,0,2023-12-25,2023-12-25,株式会社壱名,,株式会社,愛知県,小牧市,小牧１丁目１３０番地,,23,219,4850041,,,,,,,2023-12-25,1,,,,,イチメ,0
2138,8180001159521,新規,0,2023-12-25,2023-12-25,蟹江ファーム株式会社,,株式会社,愛知県,海部郡蟹江町,今西２丁目１５３番地,,23,425,4970037,,,,,,,2023-12-25,1,,,,,カニエファーム,0
2142,8180003026166,新規,0,2023-12-25,2023-12-25,合同会社Ｅｓｐｅｒａｎｃｅ,,合同会社,愛知県,名古屋市中村区,太閤１丁目１１番１６号ノーサレンダー３１９号,,23,105,4530801,,,,,,,2023-12-25,1,,,,,エスペランス,0
2157,8250001020444,新規,0,2023-12-25,2023-12-25,こどま株式会社,,株式会社,山口県,岩国市,錦町広瀬６５６５番地,,35,208,7400724,,,,,,,2023-12-25,1,,,,,コドマ,0
2158,8260001038601,新規,0,2023-12-25,2023-12-25,株式会社一家に一升,,株式会社,岡山県,岡山市北区,内山下１丁目３－３プランドール内山下Ｂ－０１,,33,101,7000824,,,,,,,2023-12-25,1,,,,,イッカニイッショウ,0
2168,8290001104169,新規,0,2023-12-25,2023-12-25,株式会社龍華設備工業,,株式会社,福岡県,福岡市早良区,重留７丁目７番１６号,,40,137,8111101,,,,,,,2023-12-25,1,,,,,,0
2172,8290003014779,新規,0,2023-12-25,2023-12-25,トーキーズ合同会社,,合同会社,福岡県,福岡市南区,曰佐４丁目１０番２５号,,40,134,8111313,,,,,,,2023-12-25,1,,,,,トーキーズ,0
2173,8290003014795,新規,0,2023-12-25,2023-12-25,合同会社ｐｒｏｊｅｃｔＭ,,合同会社,福岡県,福岡市博多区,博多駅中央街８－１ＪＲＪＰ博多ビル３階,,40,132,8120012,,,,,,,2023-12-25,1,,,,,プロジェクトエム,0
2174,8290005019231,新規,0,2023-12-25,2023-12-25,医療法人八心会,,その他の設立登記法人,福岡県,古賀市,美郷２０３,,40,223,8113119,,,,,,,2023-12-25,1,,,,,ハッシンカイ,0
2177,8300001013566,新規,0,2023-12-25,2023-12-25,タイヤ電池ジャパン株式会社,,株式会社,佐賀県,三養基郡みやき町,大字市武８７５番地,,41,346,8401106,,,,,,,2023-12-25,1,,,,,タイヤデンチジャパン,0
2179,8310001018762,新規,0,2023-12-25,2023-12-25,株式会社長崎新聞グローバル,,株式会社,長崎県,長崎市,茂里町３番１号,,42,201,8528104,,,,,,,2023-12-25,1,,,,,ナガサキシンブングローバル,0
2190,8360001032981,新規,0,2023-12-25,2023-12-25,ＬＩＦＳＴＯＲＩＡ株式会社,,株式会社,沖縄県,石垣市,字宮良２２番地４,,47,207,9070243,,,,,,,2023-12-25,1,,,,,リフストリア,0
2195,8360003013567,新規,0,2023-12-25,2023-12-25,合同会社ＳＢＤ,,合同会社,沖縄県,宜野湾市,大山４丁目４番２４号,,47,205,9012223,,,,,,,2023-12-25,1,,,,,エスビーディー,0
2196,8360003013575,新規,0,2023-12-25,2023-12-25,合同会社れもん＆げんき,,合同会社,沖縄県,那覇市,首里崎山町１丁目７５番地１,,47,201,9030814,,,,,,,2023-12-25,1,,,,,レモンアンドゲンキ,0
2209,8390005009049,新規,0,2023-12-25,2023-12-25,一般社団法人庄内田川建設発生土リサイクル協会,,その他の設立登記法人,山形県,鶴岡市,矢馳甲３３番地,,06,203,9970855,,,,,,,2023-12-25,1,,,,,ショウナイタガワケンセツハッセイドリサイクルキョウカイ,0
2219,8430001090717,新規,0,2023-12-25,2023-12-25,株式会社リツネクストリンク,,株式会社,北海道,札幌市西区,山の手三条６丁目１番１０号２Ｆ,,01,107,0630003,,,,,,,2023-12-25,1,,,,,リツネクストリンク,0
2226,8480001012328,新規,0,2023-12-25,2023-12-25,美馬チエル株式会社,,株式会社,徳島県,美馬市,脇町大字脇町１０８番地,,36,207,7793610,,,,,,,2023-12-25,1,,,,,ミマチエル,0
2230,8700150123076,新規,0,2023-12-25,2023-12-25,ｓｈｅｎｚｈｅｎｎｉｋｏｕｗｅｉｋｅｊｉ　ｙｏｕｘｉａｎｇｏｎｇｓｉ,,外国会社等,,,,,,,,Ｌｏｎｇｈｕａｄｉｓｔｒｉｃｔ　Ｌｏｎｇｈｕａｓｔｒｅｅｔ　ＪｉｎｇｌｏｎｇＣｏｍｍｕｎｉｔｙ　ＬｏｎｇｆａＲｏａｄＮｏ．２１５　ＤａｘｉｎｇａｒｄｅｎＢｌｏｃｋ９Ｒｏｏｍ１０１　Ｓｈｅｎｚｈｅｎ　５１８０００　ＣＮ,,,,,,2023-12-25,1,,,,,シンセンニコウウェカギヨウシェンゴンスー,0
2241,9010001241071,新規,0,2023-12-25,2023-12-25,ａｎｄ　ｍｏｉ．株式会社,,株式会社,東京都,中央区,銀座１丁目２２番１１号銀座大竹ビジデンス２Ｆ,,13,102,1040061,,,,,,,2023-12-25,1,,,,,アンドモア,0
2248,9010401179325,新規,0,2023-12-25,2023-12-25,ルルコスジャパン株式会社,,株式会社,東京都,港区,新橋５丁目１２‐１１天翔新橋五丁目ビル１０階１００２号室,,13,103,1050004,,,,,,,2023-12-25,1,,,,,ルルコスジャパン,0
2249,9010401179416,新規,0,2023-12-25,2023-12-25,株式会社Ｗｉｎｄｙ　ｄａｙ,,株式会社,東京都,港区,赤坂２丁目１３－１４福富ビル１階,,13,103,1070052,,,,,,,2023-12-25,1,,,,,ウィンディーデイ,0
2254,9010403031632,新規,0,2023-12-25,2023-12-25,ＰｉＮｅ合同会社,,合同会社,東京都,港区,東麻布２丁目３３－１０,,13,103,1060044,,,,,,,2023-12-25,1,,,,,パイン,0
2259,9010701045318,新規,0,2023-12-25,2023-12-25,誠義株式会社,,株式会社,東京都,品川区,東大井２丁目２３番１号名人亭ビル２階,,13,109,1400011,,,,,,,2023-12-25,1,,,,,セイギ,0
2261,9010703006994,新規,0,2023-12-25,2023-12-25,合同会社ブリッジ４,,合同会社,東京都,品川区,上大崎１丁目３番１１号,,13,109,1410021,,,,,,,2023-12-25,1,,,,,ブリッジフォー,0
2265,9010903008683,新規,0,2023-12-25,2023-12-25,合同会社ウィッチ,,合同会社,東京都,世田谷区,玉堤１丁目２６番２３号リムテラス尾山台１０３,,13,112,1580087,,,,,,,2023-12-25,1,,,,,ウィッチ,0
2269,9011001159064,新規,0,2023-12-25,2023-12-25,株式会社ＨＳＣ,,株式会社,東京都,渋谷区,神宮前６丁目２５番８神宮前コーポラス６０４号,,13,113,1500001,,,,,,,2023-12-25,1,,,,,エイチエスシー,0
2270,9011003018177,新規,0,2023-12-25,2023-12-25,ＢＬＵＥ　ＳＫＩＥＳ合同会社,,合同会社,東京都,渋谷区,代々木４丁目３番８号,,13,113,1510053,,,,,,,2023-12-25,1,,,,,ブルースカイズ,0
2277,9011203004266,新規,0,2023-12-25,2023-12-25,ハヤサカワークス合同会社,,合同会社,東京都,中野区,弥生町２丁目２０番８‐９０１号,,13,114,1640013,,,,,,,2023-12-25,1,,,,,ハヤサカワークス,0
2278,9011301029272,新規,0,2023-12-25,2023-12-25,株式会社ＺＩｇ,,株式会社,東京都,杉並区,下高井戸４丁目１９－１５,,13,115,1680073,,,,,,,2023-12-25,1,,,,,ジグ,0
2279,9011401025725,新規,0,2023-12-25,2023-12-25,株式会社格致時代,,株式会社,東京都,板橋区,小茂根１丁目２５－１６,,13,119,1730037,,,,,,,2023-12-25,1,,,,,カクチジダイ,0
2286,9011801043533,新規,0,2023-12-25,2023-12-25,飛鳥古物株式会社,,株式会社,東京都,足立区,神明３丁目２７番２３号,,13,121,1210051,,,,,,,2023-12-25,1,,,,,アスカコブツ,0
2287,9011801043574,新規,0,2023-12-25,2023-12-25,フラワーズ・アカウンティングサービス株式会社,,株式会社,東京都,葛飾区,亀有１丁目２２番２１号,,13,122,1250061,,,,,,,2023-12-25,1,,,,,フラワーズアカウンティングサービス,0
2288,9011801043582,新規,0,2023-12-25,2023-12-25,株式会社すいてっく,,株式会社,東京都,足立区,中川５丁目１３番３‐４０１号,,13,121,1200002,,,,,,,2023-12-25,1,,,,,スイテック,0
2294,9013301051801,新規,0,2023-12-25,2023-12-25,寸間ＳＵＮＮＯＭＡ株式会社,,株式会社,東京都,豊島区,目白２丁目５番２２－４０３号,,13,116,1710031,,,,,,,2023-12-25,1,,,,,スンノマスンノマ,0
2296,9013303006927,新規,0,2023-12-25,2023-12-25,楽進合同会社,,合同会社,東京都,豊島区,巣鴨４丁目２４番３号,,13,116,1700002,,,,,,,2023-12-25,1,,,,,ラクシン,0
2312,9021001081036,新規,0,2023-12-25,2023-12-25,株式会社９‐ＣＯＲＡＬ,,株式会社,神奈川県,伊勢原市,粟窪１００１番地の８,,14,214,2591113,,,,,,,2023-12-25,1,,,,,ナインコーラル,0
2313,9021001081044,新規,0,2023-12-25,2023-12-25,株式会社Ｗｅｅｄ,,株式会社,神奈川県,相模原市南区,東大沼４丁目１８番５８号,,14,153,2520333,,,,,,,2023-12-25,1,,,,,ウィード,0
2314,9021001081052,新規,0,2023-12-25,2023-12-25,株式会社Ａｉｍ,,株式会社,神奈川県,平塚市,田村４丁目９番８号,,14,203,2540013,,,,,,,2023-12-25,1,,,,,エイム,0
2315,9021001081060,新規,0,2023-12-25,2023-12-25,株式会社３６５．ｗｏｒｋ,,株式会社,神奈川県,綾瀬市,落合北３丁目１１５３番地１８,,14,218,2521116,,,,,,,2023-12-25,1,,,,,サンロクゴワーク,0
2317,9021003013945,新規,0,2023-12-25,2023-12-25,合同会社ＡＩＫＯ,,合同会社,神奈川県,伊勢原市,東成瀬２１―６,,14,214,2591117,,,,,,,2023-12-25,1,,,,,アイコ,0
2318,9021005012978,新規,0,2023-12-25,2023-12-25,ＮＰＯ法人現場伴走改善クラブ,,その他の設立登記法人,神奈川県,平塚市,纒３１１番地の６０,,14,203,2540901,,,,,,,2023-12-25,1,,,,,ゲンババンソウカイゼンクラブ,0
2323,9030001157885,新規,0,2023-12-25,2023-12-25,盛峰株式会社,,株式会社,埼玉県,川口市,西川口１丁目３０番２０－１０１号,,11,203,3320021,,,,,,,2023-12-25,1,,,,,セイホウ,0
2329,9030003023301,新規,0,2023-12-25,2023-12-25,合同会社トラスト,,合同会社,埼玉県,新座市,野寺４丁目１－１７,,11,230,3520034,,,,,,,2023-12-25,1,,,,,トラスト,0
2333,9040003023977,新規,0,2023-12-25,2023-12-25,合同会社ＷＮ,,合同会社,千葉県,木更津市,畑沢南６丁目５番７号,,12,206,2920826,,,,,,,2023-12-25,1,,,,,ダブリューエヌ,0
2334,9040003023985,新規,0,2023-12-25,2023-12-25,合同会社ｕｃｈｉｋｅｎ,,合同会社,千葉県,船橋市,前原西７丁目１６‐１５金子ハイツＢ１０１号室,,12,204,2740825,,,,,,,2023-12-25,1,,,,,ウチケン,0
2336,9050001054016,新規,0,2023-12-25,2023-12-25,株式会社大高薬局,00133099,株式会社,茨城県,北茨城市,大津町２６９７番地の１,,08,215,3191702,,,,,,,2023-12-25,1,,,,,オオタカヤッキョク,0
2337,9050001054024,新規,0,2023-12-25,2023-12-25,株式会社ＷＡＬＬ　ＯＵＴ,,株式会社,茨城県,つくばみらい市,伊奈東８４番地３０,,08,235,3002308,,,,,,,2023-12-25,1,,,,,ウォールアウト,0
2339,9050003008028,新規,0,2023-12-25,2023-12-25,合同会社藤井,,合同会社,茨城県,水戸市,笠原町１６５２番地の１３,,08,201,3100852,,,,,,,2023-12-25,1,,,,,フジイ,0
2350,9090001018479,新規,0,2023-12-25,2023-12-25,株式会社ピアノフォルテ山梨,,株式会社,山梨県,中央市,山之神３６２６番地１８,,19,214,4093845,,,,,,,2023-12-25,1,,,,,ピアノフォルテヤマナシ,0
2351,9100001037064,新規,0,2023-12-25,2023-12-25,株式会社エムユート,,株式会社,長野県,長野市,大字稲葉南俣２４１９－２２－Ｂ棟,,20,201,3800917,,,,,,,2023-12-25,1,,,,,エムユート,0
2354,9100003007321,新規,0,2023-12-25,2023-12-25,合同会社松観堂,,合同会社,長野県,松本市,大字新村１２０７,,20,202,3901241,,,,,,,2023-12-25,1,,,,,ショウカンドウ,0
2378,9120001260861,新規,0,2023-12-25,2023-12-25,株式会社ｐｒｏｍｅｓａ,,株式会社,大阪府,大阪市西成区,花園南１丁目３番１２号,,27,122,5570015,,,,,,,2023-12-25,1,,,,,プロメッサ,0
2379,9120001260886,新規,0,2023-12-25,2023-12-25,株式会社スリーノックス,,株式会社,大阪府,大阪市住之江区,粉浜１丁目１５番１８－７０５号,,27,125,5590001,,,,,,,2023-12-25,1,,,,,スリーノックス,0
2380,9120001260894,新規,0,2023-12-25,2023-12-25,株式会社ゴリケン,,株式会社,大阪府,枚方市,香里ケ丘２丁目４番地の１（６－７０１）,,27,210,5730084,,,,,,,2023-12-25,1,,,,,ゴリケン,0
2386,9120003025569,新規,0,2023-12-25,2023-12-25,合同会社ＬＵＧ製作所,,合同会社,大阪府,門真市,岸和田３丁目３０番２７号,,27,223,5710002,,,,,,,2023-12-25,1,,,,,ラグセイサクジョ,0
2389,9120101068767,新規,0,2023-12-25,2023-12-25,株式会社ＦＩＬＯ,,株式会社,大阪府,堺市西区,上５６４番地５プレサンスロジェ鳳公園６０５号,,27,144,5938311,,,,,,,2023-12-25,1,,,,,フィーロ,0
2394,9120901048530,新規,0,2023-12-25,2023-12-25,エムジオット株式会社,,株式会社,大阪府,豊中市,新千里東町１丁目４番１号阪急千里中央ビル８階,,27,203,5600082,,,,,,,2023-12-25,1,,,,,エムジオット,0
2395,9120903004969,新規,0,2023-12-25,2023-12-25,合同会社中利,,合同会社,大阪府,豊中市,庄内栄町４丁目１４番２１号,,27,203,5610834,,,,,,,2023-12-25,1,,,,,ナカトシ,0
2396,9120903004977,新規,0,2023-12-25,2023-12-25,合同会社ＣＳトレード,,合同会社,大阪府,吹田市,春日１丁目７－２２シティパレス緑地公園２０２,,27,205,5650853,,,,,,,2023-12-25,1,,,,,シーエストレード,0
2401,9130001075994,新規,0,2023-12-25,2023-12-25,株式会社ＴＡＭＵＲＡ,,株式会社,京都府,長岡京市,井ノ内下印田１番地３２,,26,209,6170813,,,,,,,2023-12-25,1,,,,,タムラ,0
2402,9130003009199,新規,0,2023-12-25,2023-12-25,リリシャンス合同会社,,合同会社,京都府,城陽市,寺田袋尻４４－１３－２０３,,26,207,6100121,,,,,,,2023-12-25,1,,,,,リリシャンス,0
2409,9140001132778,新規,0,2023-12-25,2023-12-25,株式会社ＹＡＭＡＴＯ,,株式会社,兵庫県,尼崎市,南塚口町１丁目６番４－２０５号,,28,202,6610012,,,,,,,2023-12-25,1,,,,,ヤマト,0
2410,9140001132803,新規,0,2023-12-25,2023-12-25,株式会社ともに,,株式会社,兵庫県,神戸市中央区,中山手通１丁目２２番２３号,,28,110,6500004,,,,,,,2023-12-25,1,,,,,トモニ,0
2412,9150001026962,新規,0,2023-12-25,2023-12-25,株式会社ＲＩＴＡＨＥＡＲＴ,,株式会社,奈良県,奈良市,学園大和町４丁目７０番地,,29,201,6310041,,,,,,,2023-12-25,1,,,,,リタハート,0
2413,9160001025583,新規,0,2023-12-25,2023-12-25,株式会社風エナジー,,株式会社,滋賀県,東近江市,小脇町１９７２番地,,25,213,5270091,,,,,,,2023-12-25,1,,,,,カゼエナジー,0
2422,9180001159454,新規,0,2023-12-25,2023-12-25,株式会社デイライト,,株式会社,愛知県,名古屋市中区,丸の内２丁目９番２４号,,23,106,4600002,,,,,,,2023-12-25,1,,,,,デイライト,0
2423,9180001159479,新規,0,2023-12-25,2023-12-25,ＭＳＴ　ＣＲＥＡＴＥ株式会社,,株式会社,愛知県,名古屋市中区,栄３丁目１５番３３号栄ガスビル１３階,,23,106,4600008,,,,,,,2023-12-25,1,,,,,エムエスティークリエイト,0
2424,9180001159504,新規,0,2023-12-25,2023-12-25,株式会社コール,,株式会社,愛知県,名古屋市天白区,植田山３丁目１１０３番地１０５,,23,116,4680001,,,,,,,2023-12-25,1,,,,,コール,0
2427,9180003026140,新規,0,2023-12-25,2023-12-25,合同会社ＭＡＫＡＮＡ,,合同会社,愛知県,小牧市,大字間々原新田９２４番地５,,23,219,4850016,,,,,,,2023-12-25,1,,,,,マカナ,0
2434,9220001025742,新規,0,2023-12-25,2023-12-25,株式会社日建プラス,,株式会社,石川県,金沢市,千木町ル２９番地２,,17,201,9200001,,,,,,,2023-12-25,1,,,,,ニッケンプラス,0
2435,9220003003647,新規,0,2023-12-25,2023-12-25,合同会社ブンリ,,合同会社,石川県,金沢市,寺町５丁目４番１４号,,17,201,9218033,,,,,,,2023-12-25,1,,,,,ブンリ,0
2441,9240001062585,新規,0,2023-12-25,2023-12-25,株式会社ＧＬ,,株式会社,広島県,福山市,神辺町字上御領１８１番地７,,34,207,7202111,,,,,,,2023-12-25,1,,,,,ジーエル,0
2442,9240001062593,新規,0,2023-12-25,2023-12-25,株式会社ＳＫＹ　ＭＥＤＩＣＡＬ　ＪＡＰＡＮ,,株式会社,広島県,広島市南区,大須賀町２０番１３号,,34,103,7320821,,,,,,,2023-12-25,1,,,,,スカイメディカルジャパン,0
2449,9260001038600,新規,0,2023-12-25,2023-12-25,Ｒ．Ｅ設備株式会社,,株式会社,岡山県,津山市,平福３１５番地１,,33,203,7080872,,,,,,,2023-12-25,1,,,,,アールイーセツビ,0
2465,9290001104168,新規,0,2023-12-25,2023-12-25,ナインスターホールディングス株式会社,,株式会社,福岡県,糸島市,波多江字中川原１００番地,,40,230,8191104,,,,,,,2023-12-25,1,,,,,ナインスターホールディングス,0
2473,9290003014786,新規,0,2023-12-25,2023-12-25,合同会社宰府ＦＯＯＤＳ,,合同会社,福岡県,太宰府市,観世音寺６丁目９－１７,,40,221,8180101,,,,,,,2023-12-25,1,,,,,サイフフーズ,0
2475,9290801030159,新規,0,2023-12-25,2023-12-25,株式会社農事開発,,株式会社,福岡県,田川市,大字猪国１２１３番地,,40,206,8260045,,,,,,,2023-12-25,1,,,,,ノウジカイハツ,0
2476,9290803004573,新規,0,2023-12-25,2023-12-25,合同会社リハプロ,,合同会社,福岡県,北九州市小倉北区,愛宕２丁目３番１４－７０１号,,40,106,8030828,,,,,,,2023-12-25,1,,,,,リハプロ,0
2477,9300001013565,新規,0,2023-12-25,2023-12-25,ｉＬＥＴＴＥＲ株式会社,,株式会社,佐賀県,神埼郡吉野ヶ里町,吉田１９４８番地８７,,41,327,8420031,,,,,,,2023-12-25,1,,,,,アイレター,0
2478,9310001018761,新規,0,2023-12-25,2023-12-25,株式会社長崎産業,,株式会社,長崎県,佐世保市,天神４丁目１２番４号,,42,202,8571174,,,,,,,2023-12-25,1,,,,,ナガサキサンギョウ,0
2485,9330001031597,新規,0,2023-12-25,2023-12-25,株式会社オオトリ企画,,株式会社,熊本県,上益城郡甲佐町,大字田口４２４６番地２,,43,444,8614616,,,,,,,2023-12-25,1,,,,,オオトリキカク,0
2500,9360001032997,新規,0,2023-12-25,2023-12-25,沖縄コーヒー畑株式会社,,株式会社,沖縄県,中頭郡読谷村,字楚辺２１６１番地１－２階,,47,324,9040304,,,,,,,2023-12-25,1,,,,,オキナワコーヒーハタケ,0
2502,9360003013574,新規,0,2023-12-25,2023-12-25,合同会社人塵製作所,,合同会社,沖縄県,那覇市,安謝２丁目１６番３０号ｓｕｍｉｃａＡ．Ｐ４０２,,47,201,9000003,,,,,,,2023-12-25,1,,,,,ヒトバシラセイサクジョ,0
2507,9370001050750,新規,0,2023-12-25,2023-12-25,株式会社ＭＩＲＡＩＺＵＭＩ,,株式会社,宮城県,多賀城市,高橋２丁目２番１５号,,04,209,9850853,,,,,,,2023-12-25,1,,,,,ミライズミ,0
2519,9430003015778,新規,0,2023-12-25,2023-12-25,合同会社Ｒサポート,,合同会社,北海道,札幌市北区,あいの里二条５丁目７番１１号,,01,102,0028072,,,,,,,2023-12-25,1,,,,,アールサポート,0
2522,9440001009368,新規,0,2023-12-25,2023-12-25,グッドライフサポートヤンマー株式会社,,株式会社,北海道,亀田郡七飯町,大川３丁目２１番８号,,01,337,0411122,,,,,,,2023-12-25,1,,,,,グッドライフサポートヤンマー,0
2528,9450005004389,新規,0,2023-12-25,2023-12-25,農事組合法人多寄コントラクター,,その他の設立登記法人,北海道,士別市,多寄町三十八線西２４番地,,01,220,0980475,,,,,,,2023-12-25,1,,,,,,0
2529,9460001005852,新規,0,2023-12-25,2023-12-25,株式会社シュエット,,株式会社,北海道,釧路郡釧路町,東陽西３丁目１番地１０,,01,661,0880627,,,,,,,2023-12-25,1,,,,,シュエット,0
2536,9480003002061,新規,0,2023-12-25,2023-12-25,合同会社山茶花,,合同会社,徳島県,徳島市,中昭和町２丁目４０番地の２サーパス中昭和２０１号,,36,201,7700943,,,,,,,2023-12-25,1,,,,,サザンカ,0
2545,9700150123067,新規,0,2023-12-25,2023-12-25,Ｚｈａｎｇｚｈｏｕ　Ｂｅｉｑｕ　Ｔｒａｄｉｎｇ　ＣＯ，．ＬＴＤ,,外国会社等,,,,,,,,Ｒｏｏｍ　２０３，Ｂｕｉｄｌｉｎｇ　７，Ｊｉａｎｙｕａｎ　Ｓｏｕｔｈ　Ｇｒａｒｄｅｎ，Ｎｏ．５６　Ｊｉａｎｙｕａｎ　Ｓｏｕｔｈ　Ｒｄ，Ｘｉａｎｇｃｈｅｎｇ　Ｄｉｓｔｒｉｃｔ，Ｚｈａｎｇｚｈｏｕ　Ｃｉｔｙ，Ｆｕｊｉａｎ　Ｐｒｏｖｉｎｃｅ,,,,,,2023-12-25,1,,,,,ジヤンジヨウシーベイチーマオイーヨウシエンゴンスー,0
2546,9700150123075,新規,0,2023-12-25,2023-12-25,ｈａｉｎａｎｍｕｔｕｏｍａｏｙｉ　ｙｏｕｘｉａｎｇｏｎｇｓｉ,,外国会社等,,,,,,,,ｊｉａｎｇｎａｎｓｈａｎｇｙｅｄａｓｈａ１００５ｓｈｉ　ｈａｉｋｏｕｓｈｉｌｏｎｇｈｕａｑｕｙｉｌｏｎｇｈｅｎｇｌｕ１ｈａｏ　ｈａｉｎａｎｓｈｅｎｇ　５７０１０２　ＣＮ,,,,,,2023-12-25,1,,,,,ハイナンムトマオイヨウシェンゴンスー,0
2547,9700150123083,新規,0,2023-12-25,2023-12-25,Ｃｈｏｎｇｑｉｎｇｃｈｅｙａｎｄｉａｎｚｉｓｈａｎｇｗｕｙｏｕｘｉａｎｇｏｎｇｓｉ,,外国会社等,,,,,,,,ｃｈｏｎｇｑｉｎｇ，ｃｈｏｎｇｑｉｎｇｓｈｉｊｉｕｌｏｎｇｐｏｑｕｓｈｉｐｉｎｇｑｉａｏｊｉｅｄａｏｓｈｉｐｉｎｇｑｉａｏｈｅｎｇｊｉｅｔｅ１１ｈａｏ,,,,,,2023-12-25,1,,,,,ジュウケイテツケンデンシショウムユウゲンコウシ,0
