sequenceNumber,corporateNumber,process,correct,updateDate,changeDate,name,nameImageId,kind,prefectureName,cityName,streetNumber,addressImageId,prefectureCode,cityCode,postCode,addressOutside,addressOutsideImageId,closeDate,closeCause,successorCorporateNumber,changeCause,assignmentDate,latest,enName,enPrefectureName,enCityName,enAddressOutside,furigana,hihyoji
5,1010001231071,登記記録の閉鎖等,0,2026-02-02,2026-01-09,株式会社ＭＩＮＡＭＯＴＯＨＩＫＡＲＵ,,株式会社,東京都,千代田区,九段南１丁目５番６号りそな九段ビル５階ＫＳフロア,,13,101,1020074,,,2026-01-09,清算の結了等,,,2022-11-25,1,,,,,ミナモトヒカル,0
20,1010401155242,登記記録の閉鎖等,0,2026-02-02,2026-01-06,株式会社ＭＥＴＡＬＴＲＵＳＴ,,株式会社,東京都,港区,新橋６丁目５番４号－３１４,,13,103,1050004,,,2026-01-06,清算の結了等,,,2020-09-29,1,,,,,メタルトラスト,0
22,1010401169969,登記記録の閉鎖等,0,2026-02-02,2026-01-07,株式会社世界旅行社,,株式会社,東京都,港区,芝５丁目３６番４号札の辻スクエア９階,,13,103,1080014,,,2026-01-07,清算の結了等,,,2022-10-04,1,,,,,セカイリョコウシャ,0
34,1010602017654,登記記録の閉鎖等,0,2026-02-02,2026-01-22,有限会社和田製本丁合所,,有限会社,東京都,江東区,平野１丁目１１番１２号,,13,108,1350023,,,2026-01-22,清算の結了等,,,2015-10-05,1,,,,,ワダセイホンチョウアイショ,0
35,1010603010121,登記記録の閉鎖等,0,2026-02-02,2026-01-27,グリード合同会社,,合同会社,北海道,札幌市中央区,北五条西８丁目１番地１ラ・トゥール札幌伊藤ガーデン９１２号,,01,101,0600005,,,2026-01-27,清算の結了等,,,2023-04-27,1,,,,,グリード,0
53,1011101092949,登記記録の閉鎖等,0,2026-02-02,2026-01-06,ＣＯＩＮＳ株式会社,,株式会社,東京都,新宿区,若葉２丁目１１番地３－８０４,,13,104,1600011,,,2026-01-06,清算の結了等,,,2020-10-27,1,,,,,コインズ,0
55,1011101106023,登記記録の閉鎖等,0,2026-02-02,2026-01-06,光耀サイバーテック株式会社,,株式会社,東京都,新宿区,西新宿７丁目５番５号Ｐｌａｚａ西新宿ＵＣＦ４階,,13,104,1600023,,,2026-01-06,清算の結了等,,,2024-01-31,1,,,,,コウヨウサイバーテック,0
64,1011401016640,登記記録の閉鎖等,0,2026-02-02,2026-01-29,株式会社松木桜商事,,株式会社,東京都,板橋区,舟渡１丁目１８番８－１０２号,,13,119,1740041,,,2026-01-29,清算の結了等,,,2015-10-05,1,,,,,マツキサクラショウジ,0
67,1011502004098,登記記録の閉鎖等,0,2026-02-02,2026-01-26,東洋通信サービス有限会社,,有限会社,埼玉県,久喜市,桜田３丁目２番２－３－３０４,,11,232,3400203,,,2026-01-26,清算の結了等,,,2015-10-05,1,,,,,トウヨウツウシンサービス,0
79,1013201012563,登記記録の閉鎖等,0,2026-02-02,2026-01-08,株式会社ＨＣＣ,,株式会社,東京都,目黒区,八雲３丁目１６番１７号フラット栗山２０２,,13,110,1520023,,,2026-01-08,清算の結了等,,,2015-10-05,1,,,,,エイチシーシー,0
81,1013402001126,登記記録の閉鎖等,0,2026-02-02,2026-01-29,有限会社日興美装,,有限会社,東京都,日野市,大字日野６２２番地,,13,212,1910012,,,2026-01-29,清算の結了等,,,2015-10-05,1,,,,,ニッコウビソウ,0
87,1020001157241,登記記録の閉鎖等,0,2026-02-02,2026-01-22,株式会社ＧＲＩＺＺＬＬＹ．ＤＥＳＩＧＮ,,株式会社,神奈川県,横浜市西区,浅間町１丁目４番３号ウィザードビル４０２,,14,103,2200072,,,2026-01-22,清算の結了等,,,2024-05-16,1,,,,,グリズリーデザイン,0
96,1021001030909,登記記録の閉鎖等,0,2026-02-02,2026-01-27,株式会社ログプラス,,株式会社,山梨県,南都留郡山中湖村,平野５０８番地の１７８,,19,425,4010502,,,2026-01-27,登記官による閉鎖,,,2015-10-05,1,,,,,,0
103,1030002100777,登記記録の閉鎖等,0,2026-02-02,2026-01-26,有限会社宇山機工,,有限会社,埼玉県,川口市,長蔵２丁目２４番３号,,11,203,3330807,,,2026-01-26,清算の結了等,,,2015-10-05,1,,,,,ウヤマキコウ,0
106,1040001118588,登記記録の閉鎖等,0,2026-02-02,2026-01-09,株式会社ＳＩＶＡクリエイション,,株式会社,千葉県,松戸市,八ケ崎１丁目３９－２,,12,207,2700023,,,2026-01-09,清算の結了等,,,2021-05-26,1,,,,,シヴァクリエイション,0
111,1040002009308,登記記録の閉鎖等,0,2026-02-02,2026-01-14,有限会社初沢商事,,有限会社,千葉県,千葉市花見川区,検見川町３丁目３１６番地２２,,12,102,2620023,,,2026-01-14,清算の結了等,,,2015-10-05,1,,,,,ハツザワショウジ,0
122,1090001000015,登記記録の閉鎖等,0,2026-02-02,2026-01-27,株式会社アース測量,,株式会社,山梨県,甲府市,青葉町９番３０号,,19,201,4000828,,,2026-01-27,登記官による閉鎖,,,2015-10-05,1,,,,,,0
123,1090001000097,登記記録の閉鎖等,0,2026-02-02,2026-01-27,株式会社アポロサービスセンター,,株式会社,山梨県,中巨摩郡昭和町,清水新居４６１番地,,19,384,4093867,,,2026-01-27,登記官による閉鎖,,,2015-10-05,1,,,,,,0
124,1090001000171,登記記録の閉鎖等,0,2026-02-02,2026-01-27,株式会社板谷産業,,株式会社,山梨県,甲府市,丸の内２丁目２番２号,,19,201,4000031,,,2026-01-27,登記官による閉鎖,,,2015-10-05,1,,,,,,0
125,1090001000320,登記記録の閉鎖等,0,2026-02-02,2026-01-27,株式会社オー・エッチ・シー,,株式会社,山梨県,甲府市,池田２丁目１５番２８号,,19,201,4000062,,,2026-01-27,登記官による閉鎖,,,2015-10-05,1,,,,,,0
126,1090001000601,登記記録の閉鎖等,0,2026-02-02,2026-01-27,株式会社ケイエス自工,,株式会社,山梨県,甲府市,国母８丁目２３番４号,,19,201,4000043,,,2026-01-27,登記官による閉鎖,,,2015-10-05,1,,,,,,0
127,1090001000650,登記記録の閉鎖等,0,2026-02-02,2026-01-27,甲府新都市開発株式会社,,株式会社,山梨県,甲府市,国母５丁目８番１号,,19,201,4000043,,,2026-01-27,登記官による閉鎖,,,2015-10-05,1,,,,,,0
128,1090001000923,登記記録の閉鎖等,0,2026-02-02,2026-01-27,佐々木商事株式会社,,株式会社,山梨県,甲府市,平瀬町３２１１番地,,19,201,4000083,,,2026-01-27,登記官による閉鎖,,,2015-10-05,1,,,,,,0
129,1090001000956,登記記録の閉鎖等,0,2026-02-02,2026-01-27,株式会社三雄,,株式会社,山梨県,甲府市,下石田２丁目１０番４号,,19,201,4000046,,,2026-01-27,登記官による閉鎖,,,2015-10-05,1,,,,,,0
130,1090001001054,登記記録の閉鎖等,0,2026-02-02,2026-01-27,新日本商事株式会社,,株式会社,山梨県,甲府市,大里町１０７８番地の１,,19,201,4000053,,,2026-01-27,登記官による閉鎖,,,2015-10-05,1,,,,,,0
131,1090001001203,登記記録の閉鎖等,0,2026-02-02,2026-01-27,千食山梨株式会社,,株式会社,山梨県,甲府市,向町７１８番地の１,,19,201,4000813,,,2026-01-27,登記官による閉鎖,,,2015-10-05,1,,,,,,0
132,1090001001228,登記記録の閉鎖等,0,2026-02-02,2026-01-27,創都環境株式会社,,株式会社,山梨県,甲府市,丸の内３丁目３３番７号,,19,201,4000031,,,2026-01-27,登記官による閉鎖,,,2015-10-05,1,,,,,,0
133,1090001001459,登記記録の閉鎖等,0,2026-02-02,2026-01-27,株式会社テクノ・インターナショナル,,株式会社,山梨県,甲府市,朝日１丁目１番１号,,19,201,4000025,,,2026-01-27,登記官による閉鎖,,,2015-10-05,1,,,,,,0
134,1090001001467,登記記録の閉鎖等,0,2026-02-02,2026-01-27,株式会社テヅカ商会,,株式会社,山梨県,甲府市,下石田２丁目２０番１０号,,19,201,4000046,,,2026-01-27,登記官による閉鎖,,,2015-10-05,1,,,,,,0
135,1090001001491,登記記録の閉鎖等,0,2026-02-02,2026-01-27,株式会社東邦,00068687,株式会社,山梨県,甲府市,里吉２丁目１３番２３号,,19,201,4000822,,,2026-01-27,登記官による閉鎖,,,2015-10-05,1,,,,,,0
136,1090001001525,登記記録の閉鎖等,0,2026-02-02,2026-01-27,トップクォリティー株式会社,,株式会社,山梨県,甲府市,上阿原町４５３番地１,,19,201,4000814,,,2026-01-27,登記官による閉鎖,,,2015-10-05,1,,,,,,0
137,1090001001707,登記記録の閉鎖等,0,2026-02-02,2026-01-27,株式会社ハイウッド二十一,,株式会社,山梨県,甲府市,朝気２丁目４番１５号,,19,201,4000862,,,2026-01-27,登記官による閉鎖,,,2015-10-05,1,,,,,,0
138,1090001001756,登記記録の閉鎖等,0,2026-02-02,2026-01-27,株式会社パール・フォー,,株式会社,山梨県,甲府市,和戸町３３７番地,,19,201,4000812,,,2026-01-27,登記官による閉鎖,,,2015-10-05,1,,,,,,0
139,1090001001764,登記記録の閉鎖等,0,2026-02-02,2026-01-27,原メリヤス工業株式会社,,株式会社,山梨県,甲府市,太田町９番１８号,,19,201,4000865,,,2026-01-27,登記官による閉鎖,,,2015-10-05,1,,,,,,0
140,1090001002052,登記記録の閉鎖等,0,2026-02-02,2026-01-27,株式会社マルケン,,株式会社,山梨県,甲府市,中央２丁目５番２１号,,19,201,4000032,,,2026-01-27,登記官による閉鎖,,,2015-10-05,1,,,,,,0
141,1090001002102,登記記録の閉鎖等,0,2026-02-02,2026-01-27,みたけ森林株式会社,,株式会社,山梨県,甲府市,美咲１丁目９番８号,,19,201,4000007,,,2026-01-27,登記官による閉鎖,,,2015-10-05,1,,,,,,0
142,1090001002259,登記記録の閉鎖等,0,2026-02-02,2026-01-27,山梨食肉株式会社,,株式会社,山梨県,甲府市,国母６丁目４番４号,,19,201,4000043,,,2026-01-27,登記官による閉鎖,,,2015-10-05,1,,,,,,0
143,1090001002382,登記記録の閉鎖等,0,2026-02-02,2026-01-27,山田興業株式会社,,株式会社,山梨県,甲府市,相生２丁目３番１６号,,19,201,4000858,,,2026-01-27,登記官による閉鎖,,,2015-10-05,1,,,,,,0
144,1090001002399,登記記録の閉鎖等,0,2026-02-02,2026-01-27,株式会社山本建設,,株式会社,山梨県,甲府市,徳行１丁目１３番８号,,19,201,4000047,,,2026-01-27,登記官による閉鎖,,,2015-10-05,1,,,,,,0
145,1090001002515,登記記録の閉鎖等,0,2026-02-02,2026-01-27,株式会社ワイジーエヌ山梨ギフトネットワーク,,株式会社,山梨県,甲府市,新田町１０番１３号,,19,201,4000066,,,2026-01-27,登記官による閉鎖,,,2015-10-05,1,,,,,,0
146,1090001002614,登記記録の閉鎖等,0,2026-02-02,2026-01-27,株式会社サンリ営繕,,株式会社,山梨県,甲斐市,富竹新田３２４番地１１,,19,210,4000113,,,2026-01-27,登記官による閉鎖,,,2015-10-05,1,,,,,,0
147,1090001002663,登記記録の閉鎖等,0,2026-02-02,2026-01-27,東和工業株式会社,,株式会社,山梨県,甲斐市,万才６１番地,,19,210,4000114,,,2026-01-27,登記官による閉鎖,,,2015-10-05,1,,,,,,0
148,1090001003174,登記記録の閉鎖等,0,2026-02-02,2026-01-27,フロンヴィルホームズ甲府株式会社,,株式会社,山梨県,中巨摩郡昭和町,紙漉阿原２６２７番地１,,19,384,4093861,,,2026-01-27,登記官による閉鎖,,,2015-10-05,1,,,,,,0
149,1090001003331,登記記録の閉鎖等,0,2026-02-02,2026-01-27,株式会社国際,,株式会社,山梨県,甲府市,富竹１丁目１２番１３号,,19,201,4000049,,,2026-01-27,登記官による閉鎖,,,2015-10-05,1,,,,,,0
150,1090001003587,登記記録の閉鎖等,0,2026-02-02,2026-01-27,株式会社グッド・ドギー,,株式会社,山梨県,中巨摩郡昭和町,西条１９７５番１号,,19,384,4093866,,,2026-01-27,登記官による閉鎖,,,2015-10-05,1,,,,,,0
151,1090001004156,登記記録の閉鎖等,0,2026-02-02,2026-01-27,昇仙峡ガーデンリゾート株式会社,,株式会社,山梨県,甲斐市,亀沢６９４９番地１０２,,19,210,4001113,,,2026-01-27,登記官による閉鎖,,,2015-10-05,1,,,,,,0
152,1090001004866,登記記録の閉鎖等,0,2026-02-02,2026-01-27,株式会社ゴールドフォー,,株式会社,山梨県,南アルプス市,野牛島２２０３番地,,19,208,4000205,,,2026-01-27,登記官による閉鎖,,,2015-10-05,1,,,,,,0
153,1090001005955,登記記録の閉鎖等,0,2026-02-02,2026-01-27,加々美興業株式会社,,株式会社,山梨県,笛吹市,境川町藤垈１１２番地,,19,211,4060853,,,2026-01-27,登記官による閉鎖,,,2015-10-05,1,,,,,,0
154,1090001006160,登記記録の閉鎖等,0,2026-02-02,2026-01-27,ベルフーズ流通株式会社,,株式会社,山梨県,笛吹市,一宮町地蔵堂３８７番地,,19,211,4050055,,,2026-01-27,登記官による閉鎖,,,2015-10-05,1,,,,,,0
155,1090001006276,登記記録の閉鎖等,0,2026-02-02,2026-01-27,タチバナ観光株式会社,,株式会社,山梨県,笛吹市,八代町高家字桜坪１７５７番地１,,19,211,4060831,,,2026-01-27,登記官による閉鎖,,,2015-10-05,1,,,,,,0
156,1090001007902,登記記録の閉鎖等,0,2026-02-02,2026-01-27,株式会社協栄化工,00068743,株式会社,山梨県,大月市,七保町葛野２０２８番地,,19,206,4090623,,,2026-01-27,登記官による閉鎖,,,2015-10-05,1,,,,,,0
157,1090001007968,登記記録の閉鎖等,0,2026-02-02,2026-01-27,大征企業株式会社,,株式会社,山梨県,大月市,御太刀１丁目８番１４号,,19,206,4010012,,,2026-01-27,登記官による閉鎖,,,2015-10-05,1,,,,,,0
158,1090001008181,登記記録の閉鎖等,0,2026-02-02,2026-01-27,株式会社山崎製作所,,株式会社,山梨県,上野原市,鶴島７３７番地,,19,212,4090114,,,2026-01-27,登記官による閉鎖,,,2015-10-05,1,,,,,,0
159,1090001008272,登記記録の閉鎖等,0,2026-02-02,2026-01-27,株式会社ジー・ランド,,株式会社,山梨県,上野原市,秋山６８１０番地１,,19,212,4010201,,,2026-01-27,登記官による閉鎖,,,2015-10-05,1,,,,,,0
160,1090001008479,登記記録の閉鎖等,0,2026-02-02,2026-01-27,ビジネスサプライソフト株式会社,,株式会社,山梨県,都留市,鹿留字こし２０５４番地１,,19,204,4020032,,,2026-01-27,登記官による閉鎖,,,2015-10-05,1,,,,,,0
161,1090001008512,登記記録の閉鎖等,0,2026-02-02,2026-01-27,宝光工機株式会社,,株式会社,山梨県,都留市,夏狩２１８５番地の１,,19,204,4020035,,,2026-01-27,登記官による閉鎖,,,2015-10-05,1,,,,,,0
162,1090001008875,登記記録の閉鎖等,0,2026-02-02,2026-01-27,カントリーウインド株式会社,,株式会社,山梨県,山梨市,牧丘町西保中１８９１番地,,19,205,4040005,,,2026-01-27,登記官による閉鎖,,,2015-10-05,1,,,,,,0
163,1090001009007,登記記録の閉鎖等,0,2026-02-02,2026-01-27,松久山梨株式会社,,株式会社,山梨県,山梨市,東１７２番地,,19,205,4050002,,,2026-01-27,登記官による閉鎖,,,2015-10-05,1,,,,,,0
164,1090001009163,登記記録の閉鎖等,0,2026-02-02,2026-01-27,富士発酵工業株式会社,,株式会社,山梨県,甲州市,塩山下塩後５４７番地１,,19,213,4040044,,,2026-01-27,登記官による閉鎖,,,2015-10-05,1,,,,,,0
165,1090001009584,登記記録の閉鎖等,0,2026-02-02,2026-01-27,大森建設株式会社,,株式会社,山梨県,富士吉田市,竜ケ丘１丁目５番１号,,19,202,4030014,,,2026-01-27,登記官による閉鎖,,,2015-10-05,1,,,,,,0
166,1090001009733,登記記録の閉鎖等,0,2026-02-02,2026-01-27,株式会社コスモ企画,,株式会社,山梨県,南都留郡忍野村,内野４２６９番地,,19,424,4010512,,,2026-01-27,登記官による閉鎖,,,2015-10-05,1,,,,,,0
167,1090001010096,登記記録の閉鎖等,0,2026-02-02,2026-01-27,株式会社福進,,株式会社,山梨県,南都留郡忍野村,内野３８５番地,,19,424,4010512,,,2026-01-27,登記官による閉鎖,,,2015-10-05,1,,,,,,0
168,1090001010105,登記記録の閉鎖等,0,2026-02-02,2026-01-27,富士商工警備株式会社,,株式会社,山梨県,富士吉田市,上吉田２４６２番地の２,,19,202,4030005,,,2026-01-27,登記官による閉鎖,,,2015-10-05,1,,,,,,0
169,1090001010212,登記記録の閉鎖等,0,2026-02-02,2026-01-27,株式会社モデーム,,株式会社,山梨県,富士吉田市,松山８８０番地の１和光ビル,,19,202,4030016,,,2026-01-27,登記官による閉鎖,,,2015-10-05,1,,,,,,0
170,1090001010278,登記記録の閉鎖等,0,2026-02-02,2026-01-27,株式会社れいめい堂,,株式会社,山梨県,富士吉田市,新西原４丁目１３番２号,,19,202,4030017,,,2026-01-27,登記官による閉鎖,,,2015-10-05,1,,,,,,0
171,1090001010501,登記記録の閉鎖等,0,2026-02-02,2026-01-27,桂土木工業株式会社,,株式会社,山梨県,南都留郡西桂町,小沼２０６１番地,,19,423,4030022,,,2026-01-27,登記官による閉鎖,,,2015-10-05,1,,,,,カツラドボクコウギョウ,0
172,1090001010583,登記記録の閉鎖等,0,2026-02-02,2026-01-27,株式会社西山建材重機,,株式会社,山梨県,富士吉田市,上吉田４３０５番地の７,,19,202,4030005,,,2026-01-27,登記官による閉鎖,,,2015-10-05,1,,,,,,0
173,1090001011103,登記記録の閉鎖等,0,2026-02-02,2026-01-27,株式会社サカエ,,株式会社,山梨県,韮崎市,栄１丁目１１番３０号,,19,207,4070025,,,2026-01-27,登記官による閉鎖,,,2015-10-05,1,,,,,,0
174,1090001011144,登記記録の閉鎖等,0,2026-02-02,2026-01-27,成島土建株式会社,,株式会社,山梨県,韮崎市,藤井町北下條１１１９番地の３,,19,207,4070003,,,2026-01-27,登記官による閉鎖,,,2015-10-05,1,,,,,,0
175,1090001011350,登記記録の閉鎖等,0,2026-02-02,2026-01-27,株式会社ヘリオス,,株式会社,山梨県,北杜市,高根町清里３５４５番地１８９,,19,209,4070301,,,2026-01-27,登記官による閉鎖,,,2015-10-05,1,,,,,,0
176,1090001012043,登記記録の閉鎖等,0,2026-02-02,2026-01-27,田中建設株式会社,,株式会社,山梨県,南巨摩郡身延町,手打沢１０１３番地の１,,19,365,4093302,,,2026-01-27,登記官による閉鎖,,,2015-10-05,1,,,,,,0
177,1090001012167,登記記録の閉鎖等,0,2026-02-02,2026-01-27,株式会社山梨健康食品,,株式会社,山梨県,南巨摩郡富士川町,天神中条１１２６番地,,19,368,4000500,,,2026-01-27,登記官による閉鎖,,,2015-10-05,1,,,,,,0
179,1090002000484,登記記録の閉鎖等,0,2026-02-02,2026-01-27,有限会社エムディーエンタープライズ,,有限会社,山梨県,甲府市,相生２丁目１０番５号,,19,201,4000858,,,2026-01-27,登記官による閉鎖,,,2015-10-05,1,,,,,,0
180,1090002001623,登記記録の閉鎖等,0,2026-02-02,2026-01-27,有限会社シャークス・フィールド宝飾,,有限会社,山梨県,甲府市,善光寺２丁目１１番９号,,19,201,4000806,,,2026-01-27,登記官による閉鎖,,,2015-10-05,1,,,,,,0
181,1090002001920,登記記録の閉鎖等,0,2026-02-02,2026-01-27,有限会社タケイ宝石,,有限会社,山梨県,甲府市,北新２丁目３番８号,,19,201,4000005,,,2026-01-27,登記官による閉鎖,,,2015-10-05,1,,,,,,0
182,1090002004031,登記記録の閉鎖等,0,2026-02-02,2026-01-27,有限会社エム精工,,有限会社,山梨県,甲斐市,島上条１２９１番地,,19,210,4000123,,,2026-01-27,登記官による閉鎖,,,2015-10-05,1,,,,,,0
183,1090002014971,登記記録の閉鎖等,0,2026-02-02,2026-01-27,有限会社東栄商事,,有限会社,山梨県,西八代郡市川三郷町,高田１７９番地の１,,19,346,4093606,,,2026-01-27,登記官による閉鎖,,,2015-10-05,1,,,,,,0
184,1090005000597,登記記録の閉鎖等,0,2026-02-02,2026-01-27,スポーツ施設・遊具クリニック協同組合,,その他の設立登記法人,山梨県,甲府市,国母５丁目１番３号,,19,201,4000043,,,2026-01-27,登記官による閉鎖,,,2015-10-05,1,,,,,,0
185,1090005001166,登記記録の閉鎖等,0,2026-02-02,2026-01-27,玉穂商業開発協同組合,,その他の設立登記法人,山梨県,中央市,若宮５１－４番地,,19,214,4093803,,,2026-01-27,登記官による閉鎖,,,2015-10-05,1,,,,,,0
199,1120003026211,登記記録の閉鎖等,0,2026-02-02,2026-01-13,合同会社Ｌｕｎｏｎ,,合同会社,大阪府,大阪市西区,新町１丁目２１－８－４０４号,,27,106,5500013,,,2026-01-13,清算の結了等,,,2024-03-26,1,,,,,ルノン,0
208,1140001085249,登記記録の閉鎖等,0,2026-02-02,2026-01-28,株式会社ゑびす亭,,株式会社,兵庫県,淡路市,浜１番地の７,,28,226,6562304,,,2026-01-28,清算の結了等,,,2015-10-05,1,,,,,エビステイ,0
216,1140005027536,登記記録の閉鎖等,0,2026-02-02,2026-01-30,特定非営利活動法人ＧＲＯＷＩＮＧ　ＵＰ,,その他の設立登記法人,兵庫県,神戸市中央区,山本通５丁目３番地の６,,28,110,6500003,,,2026-01-30,清算の結了等,,,2025-06-11,1,,,,,グローイングアップ,0
223,1180001129794,登記記録の閉鎖等,0,2026-02-02,2026-01-29,シンケン株式会社,,株式会社,愛知県,清須市,阿原池之表１５３番地,,23,233,4520901,,,2026-01-29,清算の結了等,,,2017-10-19,1,,,,,シンケン,0
224,1180001163273,登記記録の閉鎖等,0,2026-02-02,2026-01-28,株式会社尾張旭警備,,株式会社,愛知県,尾張旭市,東栄町１丁目７番地１８ピアプラザ横山ビルＩＩＩ３Ａ号室,00136915,23,226,4880011,,,2026-01-28,清算の結了等,,,2024-09-18,1,,,,,オワリアサヒケイビ,0
227,1180003010432,登記記録の閉鎖等,0,2026-02-02,2026-01-30,合同会社Ｊマートカンパニー,,合同会社,愛知県,春日井市,上条町２丁目１７２番地,,23,206,4860833,,,2026-01-30,清算の結了等,,,2015-10-05,1,,,,,ジェイマートカンパニー,0
230,1180301003658,登記記録の閉鎖等,0,2026-02-02,2026-01-28,正和電機株式会社,,株式会社,愛知県,岡崎市,葵町６番地３,,23,202,4440913,,,2026-01-28,清算の結了等,,,2015-10-05,1,,,,,セイワデンキ,0
232,1180302014150,登記記録の閉鎖等,0,2026-02-02,2026-01-27,有限会社ヤマトストアー,,有限会社,愛知県,豊川市,本野町東浦９番地,,23,207,4420062,,,2026-01-27,清算の結了等,,,2015-10-05,1,,,,,ヤマトストアー,0
235,1190003004945,登記記録の閉鎖等,0,2026-02-02,2026-01-29,合同会社ニコニコエンジニアリング,,合同会社,三重県,四日市市,三滝台３丁目１０番地１０,,24,202,5120933,,,2026-01-29,清算の結了等,,,2025-02-21,1,,,,,ニコニコエンジニアリング,0
243,1240001006814,登記記録の閉鎖等,0,2026-02-02,2026-01-20,株式会社中国木材新聞社,,株式会社,広島県,広島市南区,段原日出町２４番１６号,,34,103,7320812,,,2026-01-20,登記官による閉鎖,,,2015-10-05,1,,,,,,0
245,1260001026380,登記記録の閉鎖等,0,2026-02-02,2026-01-27,朝日岡山中央販売株式会社,,株式会社,岡山県,岡山市北区,柳町１丁目１３番１６号,,33,101,7000904,,,2026-01-27,清算の結了等,,,2015-10-05,1,,,,,アサヒオカヤマチュウオウハンバイ,0
246,1260001038970,登記記録の閉鎖等,0,2026-02-02,2026-01-30,株式会社ボブソンニューヨークスターズ,,株式会社,岡山県,岡山市北区,平野９７８番地,,33,101,7010151,,,2026-01-30,清算の結了等,,,2024-04-16,1,,,,,ボブソンニューヨークスターズ,0
250,1290001044850,登記記録の閉鎖等,0,2026-02-02,2026-01-20,株式会社Ａｃｏｒｎ,,株式会社,福岡県,福岡市南区,高宮１丁目２番２２－１００１号,,40,134,8150083,,,2026-01-20,清算の結了等,,,2015-10-05,1,,,,,エイコーン,0
264,1300003001105,登記記録の閉鎖等,0,2026-02-02,2026-01-30,さつき合同会社,,合同会社,佐賀県,藤津郡太良町,大字多良７２３４番地３,,41,441,8491602,,,2026-01-30,清算の結了等,,,2015-10-05,1,,,,,サツキ,0
280,1390001013721,登記記録の閉鎖等,0,2026-02-02,2026-01-29,株式会社イノウエ,,株式会社,山形県,天童市,柏木町３丁目２番５号１０１,,06,210,9940003,,,2026-01-29,清算の結了等,,,2015-10-05,1,,,,,イノウエ,0
282,1430002040207,登記記録の閉鎖等,0,2026-02-02,2026-01-28,有限会社中川,,有限会社,北海道,札幌市北区,新琴似一条４丁目８番２０号,,01,102,0010901,,,2026-01-28,清算の結了等,,,2015-10-05,1,,,,,ナカガワ,0
287,1500001017628,登記記録の閉鎖等,0,2026-02-02,2026-01-30,栄和技建株式会社,,株式会社,愛媛県,四国中央市,下柏町９０１番地１,,38,213,7990411,,,2026-01-30,清算の結了等,,,2015-10-05,1,,,,,エイワギケン,0
292,2010001074478,登記記録の閉鎖等,0,2026-02-02,2026-01-29,ガラヒ産業株式会社,,株式会社,東京都,中央区,日本橋蛎殼町一丁目５番６号,,13,102,1030000,,,2026-01-29,登記官による閉鎖,,,2015-10-05,1,,,,,ガラヒサンギョウ,0
303,2010003036443,登記記録の閉鎖等,0,2026-02-02,2026-01-08,オックスブリッジパートナーズ合同会社,,合同会社,東京都,文京区,春日２丁目１１番１３－４０４号,,13,105,1120003,,,2026-01-08,清算の結了等,,,2021-11-30,1,,,,,オックスブリッジパートナーズ,0
307,2010005032325,登記記録の閉鎖等,0,2026-02-02,2026-01-29,一般社団法人ワーケーション協会,,その他の設立登記法人,東京都,千代田区,神田司町２丁目１６番地佐一第二ビル４階,,13,101,1010048,,,2026-01-29,清算の結了等,,,2020-09-29,1,,,,,ワーケーションキョウカイ,0
325,2010901001226,登記記録の閉鎖等,0,2026-02-02,2026-01-29,株式会社一本商店,,株式会社,東京都,世田谷区,桜丘５丁目１７番１７号,,13,112,1560054,,,2026-01-29,清算の結了等,,,2015-10-05,1,,,,,ヒトモトショウテン,0
345,2011101007740,登記記録の閉鎖等,0,2026-02-02,2026-01-28,三青興業株式会社,,株式会社,東京都,新宿区,西新宿１丁目１４番６号,,13,104,1600023,,,2026-01-28,合併による解散等,5011001000082,令和７年１２月２６日東京都渋谷区神南一丁目２１番３号青井不動産株式会社（5011001000082）に合併し解散,2015-10-05,1,,,,,サンセイコウギョウ,0
362,2011501027306,登記記録の閉鎖等,0,2026-02-02,2026-01-28,ＮＥＰＡＬ　ＭＡＲＴ株式会社,,株式会社,東京都,北区,田端新町２丁目２０－６島宗ビル１０１号,,13,117,1140012,,,2026-01-28,清算の結了等,,,2021-09-13,1,,,,,ネパールマート,0
378,2020002062068,登記記録の閉鎖等,0,2026-02-02,2026-01-27,有限会社平井ガラス加工所,,有限会社,神奈川県,横浜市港北区,新吉田東８丁目５０番１１号,,14,109,2230058,,,2026-01-27,清算の結了等,,,2015-10-05,1,,,,,ヒライガラスカコウジョ,0
381,2021001078492,登記記録の閉鎖等,0,2026-02-02,2026-01-13,株式会社Ｕｎｎｅｏｎ,,株式会社,神奈川県,鎌倉市,由比ガ浜２丁目２番３７号,,14,204,2480014,,,2026-01-13,合併による解散等,8020001032470,令和７年１２月３１日神奈川県鎌倉市由比ガ浜二丁目２番３７号株式会社テラ（8020001032470）に合併し解散,2023-03-22,1,,,,,アンネオン,0
384,2021002070597,登記記録の閉鎖等,0,2026-02-02,2026-01-13,有限会社フィールドオート,,有限会社,神奈川県,横須賀市,佐原５丁目２０番８号,,14,201,2390835,,,2026-01-13,清算の結了等,,,2015-10-05,1,,,,,フィールドオート,0
385,2030001026361,登記記録の閉鎖等,0,2026-02-02,2026-01-27,株式会社島崎建設,,株式会社,埼玉県,狭山市,大字北入曽２４２番地,,11,215,3501315,,,2026-01-27,清算の結了等,,,2015-10-05,1,,,,,シマザキケンセツ,0
398,2060001023967,登記記録の閉鎖等,0,2026-02-02,2026-01-27,株式会社ＴＦＰ,,株式会社,茨城県,牛久市,さくら台３丁目２９－１８,,08,219,3001217,,,2026-01-27,清算の結了等,,,2015-10-05,1,,,,,ティーエフピー,0
406,2080402003467,登記記録の閉鎖等,0,2026-02-02,2026-01-30,有限会社ジェイウッド,,有限会社,静岡県,浜松市中央区,市野町１４１８番地の１,,22,138,4350051,,,2026-01-30,清算の結了等,,,2015-10-05,1,,,,,,0
407,2090001000220,登記記録の閉鎖等,0,2026-02-02,2026-01-27,株式会社ヴォイス,,株式会社,山梨県,甲府市,太田町９番１８号,,19,201,4000865,,,2026-01-27,登記官による閉鎖,,,2015-10-05,1,,,,,,0
408,2090001000294,登記記録の閉鎖等,0,2026-02-02,2026-01-27,株式会社エフイーエヌコーポレーション,,株式会社,山梨県,甲府市,徳行３丁目９番１号,,19,201,4000047,,,2026-01-27,登記官による閉鎖,,,2015-10-05,1,,,,,,0
409,2090001000344,登記記録の閉鎖等,0,2026-02-02,2026-01-27,株式会社オカノフーズ,,株式会社,山梨県,甲府市,飯田４丁目３番８号,,19,201,4000035,,,2026-01-27,登記官による閉鎖,,,2015-10-05,1,,,,,,0
410,2090001000393,登記記録の閉鎖等,0,2026-02-02,2026-01-27,株式会社小野建築研究所,,株式会社,山梨県,甲府市,武田２丁目１番８号,,19,201,4000016,,,2026-01-27,登記官による閉鎖,,,2015-10-05,1,,,,,,0
411,2090001000402,登記記録の閉鎖等,0,2026-02-02,2026-01-27,株式会社小畑工業,,株式会社,山梨県,甲府市,国母３丁目５番２０号,,19,201,4000043,,,2026-01-27,登記官による閉鎖,,,2015-10-05,1,,,,,,0
412,2090001000484,登記記録の閉鎖等,0,2026-02-02,2026-01-27,株式会社テクノバンク,,株式会社,山梨県,甲府市,丸の内３丁目３２番９号,,19,201,4000031,,,2026-01-27,登記官による閉鎖,,,2015-10-05,1,,,,,,0
413,2090001000567,登記記録の閉鎖等,0,2026-02-02,2026-01-27,窪田建設株式会社,,株式会社,山梨県,甲府市,緑が丘２丁目７番１５号,,19,201,4000008,,,2026-01-27,登記官による閉鎖,,,2015-10-05,1,,,,,,0
414,2090001000699,登記記録の閉鎖等,0,2026-02-02,2026-01-27,幸栄開発株式会社,,株式会社,山梨県,甲府市,上石田３丁目５番８号,,19,201,4000041,,,2026-01-27,登記官による閉鎖,,,2015-10-05,1,,,,,,0
415,2090001000872,登記記録の閉鎖等,0,2026-02-02,2026-01-27,山甲建設株式会社,,株式会社,山梨県,甲府市,山宮町３１１６番地,,19,201,4000075,,,2026-01-27,登記官による閉鎖,,,2015-10-05,1,,,,,,0
416,2090001000880,登記記録の閉鎖等,0,2026-02-02,2026-01-27,サンク株式会社,,株式会社,山梨県,甲府市,西高橋町２７４番地,,19,201,4000826,,,2026-01-27,登記官による閉鎖,,,2015-10-05,1,,,,,,0
417,2090001001193,登記記録の閉鎖等,0,2026-02-02,2026-01-27,株式会社西武ハウジング,,株式会社,山梨県,甲府市,下飯田２丁目３番３号,,19,201,4000064,,,2026-01-27,登記官による閉鎖,,,2015-10-05,1,,,,,,0
418,2090001001219,登記記録の閉鎖等,0,2026-02-02,2026-01-27,総合建設佐野株式会社,,株式会社,山梨県,甲府市,下飯田１丁目４番１１号,,19,201,4000064,,,2026-01-27,登記官による閉鎖,,,2015-10-05,1,,,,,,0
419,2090001001227,登記記録の閉鎖等,0,2026-02-02,2026-01-27,株式会社惣宣,,株式会社,山梨県,甲府市,高畑２丁目１８番４号,,19,201,4000042,,,2026-01-27,登記官による閉鎖,,,2015-10-05,1,,,,,,0
420,2090001001433,登記記録の閉鎖等,0,2026-02-02,2026-01-27,積み木観光株式会社,,株式会社,山梨県,甲府市,中央１丁目５番６号,,19,201,4000032,,,2026-01-27,登記官による閉鎖,,,2015-10-05,1,,,,,,0
421,2090001001680,登記記録の閉鎖等,0,2026-02-02,2026-01-27,株式会社ニットー・エコロジー,,株式会社,山梨県,甲府市,東光寺町２１１３番地３１,,19,201,4000808,,,2026-01-27,登記官による閉鎖,,,2015-10-05,1,,,,,,0
422,2090001001722,登記記録の閉鎖等,0,2026-02-02,2026-01-27,株式会社ハーバル・コンチェルト,,株式会社,山梨県,甲府市,青沼３丁目８番１１号,,19,201,4000867,,,2026-01-27,登記官による閉鎖,,,2015-10-05,1,,,,,,0
423,2090001001854,登記記録の閉鎖等,0,2026-02-02,2026-01-27,株式会社藤双,,株式会社,山梨県,甲府市,小瀬町５６０番地,,19,201,4000836,,,2026-01-27,登記官による閉鎖,,,2015-10-05,1,,,,,,0
424,2090001001912,登記記録の閉鎖等,0,2026-02-02,2026-01-27,株式会社フルヤ内装,,株式会社,山梨県,甲府市,大里町１０９４番地,,19,201,4000053,,,2026-01-27,登記官による閉鎖,,,2015-10-05,1,,,,,,0
425,2090001002010,登記記録の閉鎖等,0,2026-02-02,2026-01-27,株式会社マツイ,,株式会社,山梨県,甲府市,小瀬町３３４番地の１,,19,201,4000836,,,2026-01-27,登記官による閉鎖,,,2015-10-05,1,,,,,,0
426,2090001002266,登記記録の閉鎖等,0,2026-02-02,2026-01-27,扶桑興業株式会社,,株式会社,山梨県,甲府市,伊勢３丁目１２番２５号,,19,201,4000856,,,2026-01-27,登記官による閉鎖,,,2015-10-05,1,,,,,,0
427,2090001002423,登記記録の閉鎖等,0,2026-02-02,2026-01-27,ユニオン出版株式会社,,株式会社,山梨県,甲府市,上石田４丁目１７番１９号,,19,201,4000041,,,2026-01-27,登記官による閉鎖,,,2015-10-05,1,,,,,,0
428,2090001002778,登記記録の閉鎖等,0,2026-02-02,2026-01-27,株式会社片山石材,,株式会社,山梨県,甲斐市,島上条１７８６番地２,,19,210,4000123,,,2026-01-27,登記官による閉鎖,,,2015-10-05,1,,,,,,0
429,2090001003082,登記記録の閉鎖等,0,2026-02-02,2026-01-27,株式会社ゲット,,株式会社,山梨県,中巨摩郡昭和町,清水新居４６６番地,,19,384,4093867,,,2026-01-27,登記官による閉鎖,,,2015-10-05,1,,,,,,0
430,2090001003140,登記記録の閉鎖等,0,2026-02-02,2026-01-27,株式会社ナカコー,,株式会社,山梨県,中巨摩郡昭和町,築地新居３４２番地５,,19,384,4093853,,,2026-01-27,登記官による閉鎖,,,2015-10-05,1,,,,,,0
431,2090001003215,登記記録の閉鎖等,0,2026-02-02,2026-01-27,株式会社ワカツキ販売,,株式会社,山梨県,中巨摩郡昭和町,西条３７１７番地,,19,384,4093866,,,2026-01-27,登記官による閉鎖,,,2015-10-05,1,,,,,,0
432,2090001003272,登記記録の閉鎖等,0,2026-02-02,2026-01-27,株式会社ジェムシック,,株式会社,山梨県,甲府市,相生１丁目２番２３号,,19,201,4000858,,,2026-01-27,登記官による閉鎖,,,2015-10-05,1,,,,,,0
433,2090001003330,登記記録の閉鎖等,0,2026-02-02,2026-01-27,山梨調質木材株式会社,,株式会社,山梨県,甲府市,湯村１丁目２番１０号,,19,201,4000073,,,2026-01-27,登記官による閉鎖,,,2015-10-05,1,,,,,,0
434,2090001003347,登記記録の閉鎖等,0,2026-02-02,2026-01-27,株式会社中部建設,,株式会社,山梨県,甲斐市,竜王新町２２８番地１,,19,210,4000111,,,2026-01-27,登記官による閉鎖,,,2015-10-05,1,,,,,,0
435,2090001003363,登記記録の閉鎖等,0,2026-02-02,2026-01-27,株式会社イー・イー・サービス,,株式会社,山梨県,甲府市,後屋町２２３番地の４,,19,201,4000045,,,2026-01-27,登記官による閉鎖,,,2015-10-05,1,,,,,,0
436,2090001004436,登記記録の閉鎖等,0,2026-02-02,2026-01-27,株式会社おくやま,,株式会社,山梨県,甲府市,国母２丁目１４番７号,,19,201,4000043,,,2026-01-27,登記官による閉鎖,,,2015-10-05,1,,,,,,0
437,2090001004551,登記記録の閉鎖等,0,2026-02-02,2026-01-27,株式会社恵比寿急送,,株式会社,山梨県,甲斐市,岩森３９５番地１,,19,210,4000106,,,2026-01-27,登記官による閉鎖,,,2015-10-05,1,,,,,,0
438,2090001004576,登記記録の閉鎖等,0,2026-02-02,2026-01-27,達産業株式会社,,株式会社,山梨県,甲斐市,竜地２５１７番地２,,19,210,4000100,,,2026-01-27,登記官による閉鎖,,,2015-10-05,1,,,,,,0
439,2090001004849,登記記録の閉鎖等,0,2026-02-02,2026-01-27,甲南化学株式会社,,株式会社,山梨県,南アルプス市,西南湖１１７５番地,,19,208,4000411,,,2026-01-27,登記官による閉鎖,,,2015-10-05,1,,,,,,0
440,2090001004931,登記記録の閉鎖等,0,2026-02-02,2026-01-27,清水組土木株式会社,,株式会社,山梨県,南アルプス市,芦安芦倉サガ畑１６８０番地,,19,208,4000241,,,2026-01-27,登記官による閉鎖,,,2015-10-05,1,,,,,,0
441,2090001005046,登記記録の閉鎖等,0,2026-02-02,2026-01-27,株式会社マルコ,,株式会社,山梨県,南アルプス市,飯野４２９６番地,,19,208,4000222,,,2026-01-27,登記官による閉鎖,,,2015-10-05,1,,,,,,0
442,2090001005070,登記記録の閉鎖等,0,2026-02-02,2026-01-27,株式会社名工,,株式会社,山梨県,南アルプス市,桃園４１８番地,,19,208,4000301,,,2026-01-27,登記官による閉鎖,,,2015-10-05,1,,,,,,0
443,2090001006028,登記記録の閉鎖等,0,2026-02-02,2026-01-27,株式会社サンフジミ,,株式会社,山梨県,笛吹市,石和町今井３番地,,19,211,4060042,,,2026-01-27,登記官による閉鎖,,,2015-10-05,1,,,,,,0
444,2090001006036,登記記録の閉鎖等,0,2026-02-02,2026-01-27,新建工業株式会社,,株式会社,山梨県,笛吹市,御坂町成田３３４番地３,,19,211,4060801,,,2026-01-27,登記官による閉鎖,,,2015-10-05,1,,,,,,0
445,2090001006069,登記記録の閉鎖等,0,2026-02-02,2026-01-27,大昇建業株式会社,,株式会社,山梨県,笛吹市,八代町竹居１９２８番地,,19,211,4060832,,,2026-01-27,登記官による閉鎖,,,2015-10-05,1,,,,,,0
446,2090001006093,登記記録の閉鎖等,0,2026-02-02,2026-01-27,ニッケン工業株式会社,,株式会社,山梨県,笛吹市,石和町井戸字豊岡２８１番地の２,,19,211,4060045,,,2026-01-27,登記官による閉鎖,,,2015-10-05,1,,,,,,0
447,2090001006580,登記記録の閉鎖等,0,2026-02-02,2026-01-27,株式会社エスジャパン,,株式会社,山梨県,甲斐市,岩森１７６２番地８,,19,210,4000106,,,2026-01-27,登記官による閉鎖,,,2015-10-05,1,,,,,,0
448,2090001006845,登記記録の閉鎖等,0,2026-02-02,2026-01-27,ＲＪＣ株式会社,,株式会社,山梨県,笛吹市,石和町広瀬６２３番地２２,,19,211,4060035,,,2026-01-27,登記官による閉鎖,,,2015-10-05,1,,,,,,0
449,2090001007117,登記記録の閉鎖等,0,2026-02-02,2026-01-27,株式会社祥和,,株式会社,山梨県,甲府市,中央１丁目２０番１７号,,19,201,4000032,,,2026-01-27,登記官による閉鎖,,,2015-10-05,1,,,,,,0
450,2090001007884,登記記録の閉鎖等,0,2026-02-02,2026-01-27,大月興産株式会社,,株式会社,山梨県,大月市,大月２丁目１９番２号,,19,206,4010013,,,2026-01-27,登記官による閉鎖,,,2015-10-05,1,,,,,,0
451,2090001007901,登記記録の閉鎖等,0,2026-02-02,2026-01-27,株式会社かんきょう,,株式会社,山梨県,大月市,梁川町綱の上５２４番地の１,,19,206,4090503,,,2026-01-27,登記官による閉鎖,,,2015-10-05,1,,,,,,0
452,2090001008024,登記記録の閉鎖等,0,2026-02-02,2026-01-27,ミノル商事株式会社,,株式会社,山梨県,大月市,御太刀１丁目１番７号,,19,206,4010012,,,2026-01-27,登記官による閉鎖,,,2015-10-05,1,,,,,,0
453,2090001008040,登記記録の閉鎖等,0,2026-02-02,2026-01-27,山梨中央緑化株式会社,,株式会社,山梨県,大月市,賑岡町ゆりケ丘７番地５,,19,206,4010003,,,2026-01-27,登記官による閉鎖,,,2015-10-05,1,,,,,,0
454,2090001008065,登記記録の閉鎖等,0,2026-02-02,2026-01-27,株式会社飯島建業,,株式会社,山梨県,上野原市,新田１２４６番地,,19,212,4090113,,,2026-01-27,登記官による閉鎖,,,2015-10-05,1,,,,,,0
455,2090001008379,登記記録の閉鎖等,0,2026-02-02,2026-01-27,株式会社三光会鶴寿園,,株式会社,山梨県,都留市,小野字中尾１５１２番地,,19,204,4020024,,,2026-01-27,登記官による閉鎖,,,2015-10-05,1,,,,,,0
456,2090001008420,登記記録の閉鎖等,0,2026-02-02,2026-01-27,大栄工業株式会社,,株式会社,山梨県,都留市,法能３７３番地の７,,19,204,4020025,,,2026-01-27,登記官による閉鎖,,,2015-10-05,1,,,,,,0
457,2090001008528,登記記録の閉鎖等,0,2026-02-02,2026-01-27,三鈴建設株式会社,,株式会社,山梨県,都留市,十日市場１５１１番地１,,19,204,4020031,,,2026-01-27,登記官による閉鎖,,,2015-10-05,1,,,,,,0
458,2090001009534,登記記録の閉鎖等,0,2026-02-02,2026-01-27,天野建設工業株式会社,,株式会社,山梨県,富士吉田市,上吉田１３１８番地８,,19,202,4030005,,,2026-01-27,登記官による閉鎖,,,2015-10-05,1,,,,,,0
459,2090001009550,登記記録の閉鎖等,0,2026-02-02,2026-01-27,アサヒルーフ工業株式会社,,株式会社,山梨県,南都留郡富士河口湖町,小立４０８０番地,,19,430,4010302,,,2026-01-27,登記官による閉鎖,,,2015-10-05,1,,,,,,0
460,2090001009567,登記記録の閉鎖等,0,2026-02-02,2026-01-27,いっこう株式会社,,株式会社,山梨県,富士吉田市,小明見４００５番地,,19,202,4030002,,,2026-01-27,登記官による閉鎖,,,2015-10-05,1,,,,,,0
461,2090001009575,登記記録の閉鎖等,0,2026-02-02,2026-01-27,株式会社エス・テイ・ケイ,,株式会社,山梨県,富士吉田市,小明見１４７７番地,,19,202,4030002,,,2026-01-27,登記官による閉鎖,,,2015-10-05,1,,,,,,0
462,2090001009617,登記記録の閉鎖等,0,2026-02-02,2026-01-27,株式会社オーバルスリー,,株式会社,山梨県,南都留郡富士河口湖町,大石２６９番地,,19,430,4010305,,,2026-01-27,登記官による閉鎖,,,2015-10-05,1,,,,,,0
463,2090001009633,登記記録の閉鎖等,0,2026-02-02,2026-01-27,カイキ織物株式会社,,株式会社,山梨県,富士吉田市,上暮地２丁目３番１号,,19,202,4030001,,,2026-01-27,登記官による閉鎖,,,2015-10-05,1,,,,,,0
464,2090001009682,登記記録の閉鎖等,0,2026-02-02,2026-01-27,株式会社クリスタルジャパン,,株式会社,山梨県,富士吉田市,小明見２３８４番地,,19,202,4030002,,,2026-01-27,登記官による閉鎖,,,2015-10-05,1,,,,,,0
465,2090001009708,登記記録の閉鎖等,0,2026-02-02,2026-01-27,小林商事株式会社,,株式会社,山梨県,南都留郡富士河口湖町,勝山１１７５番地１,,19,430,4010310,,,2026-01-27,登記官による閉鎖,,,2015-10-05,1,,,,,,0
466,2090001009848,登記記録の閉鎖等,0,2026-02-02,2026-01-27,太洋商事株式会社,,株式会社,山梨県,南都留郡富士河口湖町,船津９８番地の１,,19,430,4010301,,,2026-01-27,登記官による閉鎖,,,2015-10-05,1,,,,,,0
467,2090001009872,登記記録の閉鎖等,0,2026-02-02,2026-01-27,株式会社司建設,,株式会社,山梨県,南都留郡忍野村,忍草９００番地の１００,,19,424,4010511,,,2026-01-27,登記官による閉鎖,,,2015-10-05,1,,,,,,0
468,2090001009914,登記記録の閉鎖等,0,2026-02-02,2026-01-27,西東京開発株式会社,,株式会社,山梨県,南都留郡山中湖村,山中５７５番地,,19,425,4010501,,,2026-01-27,登記官による閉鎖,,,2015-10-05,1,,,,,,0
469,2090001010120,登記記録の閉鎖等,0,2026-02-02,2026-01-27,株式会社富士勝物産,,株式会社,山梨県,富士吉田市,下吉田３丁目１９番１号,,19,202,4030004,,,2026-01-27,登記官による閉鎖,,,2015-10-05,1,,,,,,0
470,2090001010236,登記記録の閉鎖等,0,2026-02-02,2026-01-27,山梨ウオーターメンテナンス株式会社,,株式会社,山梨県,南都留郡富士河口湖町,河口８２５番地,,19,430,4010304,,,2026-01-27,登記官による閉鎖,,,2015-10-05,1,,,,,,0
471,2090001010269,登記記録の閉鎖等,0,2026-02-02,2026-01-27,株式会社吉沢工業,,株式会社,山梨県,富士吉田市,大明見１５９番地,,19,202,4030003,,,2026-01-27,登記官による閉鎖,,,2015-10-05,1,,,,,,0
472,2090001010343,登記記録の閉鎖等,0,2026-02-02,2026-01-27,株式会社プライム,,株式会社,山梨県,南都留郡鳴沢村,３１４７番地,,19,429,4010320,,,2026-01-27,登記官による閉鎖,,,2015-10-05,1,,,,,,0
473,2090001010558,登記記録の閉鎖等,0,2026-02-02,2026-01-27,株式会社富士ガリバー王国,,株式会社,山梨県,南都留郡富士河口湖町,富士ヶ嶺２番地４,,19,430,4010338,,,2026-01-27,登記官による閉鎖,,,2015-10-05,1,,,,,,0
474,2090001011036,登記記録の閉鎖等,0,2026-02-02,2026-01-27,大原不動産株式会社,,株式会社,山梨県,韮崎市,藤井町駒井３１６３番地１,,19,207,4070001,,,2026-01-27,登記官による閉鎖,,,2015-10-05,1,,,,,,0
475,2090001012100,登記記録の閉鎖等,0,2026-02-02,2026-01-27,株式会社芳進堂,,株式会社,山梨県,西八代郡市川三郷町,高田２４５３番地,,19,346,4093606,,,2026-01-27,登記官による閉鎖,,,2015-10-05,1,,,,,,0
476,2090002003734,登記記録の閉鎖等,0,2026-02-02,2026-01-27,有限会社清水興業,,有限会社,山梨県,甲斐市,篠原３００８番地１,,19,210,4000115,,,2026-01-27,登記官による閉鎖,,,2015-10-05,1,,,,,,0
477,2090002005383,登記記録の閉鎖等,0,2026-02-02,2026-01-27,有限会社ティーエムエンタープライズ,,有限会社,山梨県,中巨摩郡昭和町,河西５番地常永土地区画整理地内４６街区１４画地,,19,384,4093851,,,2026-01-27,登記官による閉鎖,,,2015-10-05,1,,,,,,0
479,2090002011150,登記記録の閉鎖等,0,2026-02-02,2026-01-27,有限会社Ｅｎｚａｎ動物病院,,有限会社,山梨県,甲州市,塩山上於曽１７６１番地４,,19,213,4040042,,,2026-01-27,登記官による閉鎖,,,2015-10-05,1,,,,,,0
480,2090002012735,登記記録の閉鎖等,0,2026-02-02,2026-01-27,有限会社みどりホーム,,有限会社,山梨県,富士吉田市,新西原４丁目７番３０号,,19,202,4030017,,,2026-01-27,登記官による閉鎖,,,2015-10-05,1,,,,,,0
481,2090005000588,登記記録の閉鎖等,0,2026-02-02,2026-01-27,協同組合コウフシティジュエリーセンター,,その他の設立登記法人,山梨県,甲府市,宮原町８２番地１,,19,201,4000058,,,2026-01-27,登記官による閉鎖,,,2015-10-05,1,,,,,,0
482,2090005000596,登記記録の閉鎖等,0,2026-02-02,2026-01-27,塩部ショッピングセンター事業協同組合,,その他の設立登記法人,山梨県,甲府市,塩部４丁目８番１２号,,19,201,4000026,,,2026-01-27,登記官による閉鎖,,,2015-10-05,1,,,,,,0
486,2110001001752,登記記録の閉鎖等,0,2026-02-02,2026-01-29,株式会社クリーン,,株式会社,新潟県,新潟市江南区,山二ツ３７５番地１,,15,104,9500922,,,2026-01-29,清算の結了等,,,2015-10-05,1,,,,,クリーン,0
491,2110002032788,登記記録の閉鎖等,0,2026-02-02,2026-01-27,有限会社金荷屋家具店,,有限会社,新潟県,南魚沼郡湯沢町,湯沢３丁目２番地１３,,15,461,9496101,,,2026-01-27,清算の結了等,,,2015-10-05,1,,,,,カネニヤカグテン,0
496,2120001218932,登記記録の閉鎖等,0,2026-02-02,2026-01-28,ここむ株式会社,,株式会社,大阪府,大阪市中央区,南新町２丁目２番１０号,,27,128,5400024,,,2026-01-28,合併による解散等,8013201007846,令和８年１月１日東京都目黒区上目黒二丁目１番１号株式会社アドバンテッジリスクマネジメント（8013201007846）に合併し解散,2019-02-13,1,,,,,ココム,0
515,2130002001428,登記記録の閉鎖等,0,2026-02-02,2026-01-27,有限会社フジタ住宅,,有限会社,京都府,京都市右京区,嵯峨新宮町５６番地の４,,26,108,6168355,,,2026-01-27,清算の結了等,,,2015-10-05,1,,,,,フジタジュウタク,0
524,2140005025729,登記記録の閉鎖等,0,2026-02-02,2026-01-27,特定非営利活動法人日本私の新聞会議,,その他の設立登記法人,兵庫県,神戸市垂水区,千鳥が丘１丁目６番７号,,28,108,6550011,,,2026-01-27,清算の結了等,,,2021-07-06,1,,,,,ニッポンワタシノシンブンカイギ,0
540,2190001020695,登記記録の閉鎖等,0,2026-02-02,2026-01-30,大吉総業株式会社,,株式会社,三重県,志摩市,阿児町国府１１１５番地８７,,24,215,5170506,,,2026-01-30,清算の結了等,,,2015-10-05,1,,,,,ダイキチソウギョウ,0
562,2290002050517,登記記録の閉鎖等,0,2026-02-02,2026-01-20,有限会社山口印刷所,,有限会社,福岡県,久留米市,城島町城島２０５番地の１,,40,203,8300207,,,2026-01-20,清算の結了等,,,2015-10-05,1,,,,,ヤマグチインサツジョ,0
578,2360003013589,登記記録の閉鎖等,0,2026-02-02,2026-01-28,カーツコーポレーション合同会社,,合同会社,沖縄県,名護市,字我部９６番地,,47,209,9051633,,,2026-01-28,清算の結了等,,,2024-01-09,1,,,,,カーツコーポレーション,0
580,2370002011642,登記記録の閉鎖等,0,2026-02-02,2026-01-28,有限会社シティ・サーブ,,有限会社,宮城県,仙台市青葉区,花京院１丁目１番５２－３０１号,,04,101,9800013,,,2026-01-28,清算の結了等,,,2015-10-05,1,,,,,シティサーブ,0
582,2370202000255,登記記録の閉鎖等,0,2026-02-02,2026-01-28,有限会社カドワキ,,有限会社,宮城県,大崎市,古川諏訪２丁目９番２３号,,04,215,9896175,,,2026-01-28,清算の結了等,,,2015-10-05,1,,,,,カドワキ,0
583,2370402000286,登記記録の閉鎖等,0,2026-02-02,2026-01-29,有限会社トライ,,有限会社,宮城県,登米市,米山町西野字片平小路１３０番地,,04,212,9870321,,,2026-01-29,清算の結了等,,,2015-10-05,1,,,,,トライ,0
585,2380001030898,登記記録の閉鎖等,0,2026-02-02,2026-01-28,ＣＣＳ株式会社,,株式会社,福島県,福島市,八木田字中島３８番地の１,,07,201,9608164,,,2026-01-28,清算の結了等,,,2020-05-01,1,,,,,シーシーエス,0
596,2490002011515,登記記録の閉鎖等,0,2026-02-02,2026-01-29,有限会社別役塗装工業,,有限会社,高知県,香南市,野市町西野１２０７番地２,,39,211,7815232,,,2026-01-29,清算の結了等,,,2015-10-05,1,,,,,ベッチャクトソウコウギョウ,0
604,3010001207631,登記記録の閉鎖等,0,2026-02-02,2026-01-28,株式会社ＳＡＳＡＹＡホールディングス,,株式会社,大阪府,大阪市西区,北堀江１丁目８番１４号,,27,106,5500014,,,2026-01-28,合併による解散等,8010001257936,令和８年１月１日東京都千代田区丸の内一丁目６番１号株式会社ＳＡＳＡＹＡホールディングス（8010001257936）に合併し解散,2020-02-20,1,,,,,ササヤホールディングス,0
614,3010403027586,登記記録の閉鎖等,0,2026-02-02,2026-01-07,Ａｌｆａ合同会社,,合同会社,東京都,港区,虎ノ門３丁目２２番１０－２０１号,,13,103,1050001,,,2026-01-07,清算の結了等,,,2022-04-28,1,,,,,アルファ,0
622,3010705001545,登記記録の閉鎖等,0,2026-02-02,2026-01-29,特定非営利活動法人美術ファンクラブ,,その他の設立登記法人,東京都,世田谷区,上祖師谷４丁目３８番３号（株）テモアン内,,13,112,1570065,,,2026-01-29,清算の結了等,,,2015-10-05,1,,,,,ビジュツファンクラブ,0
638,3011505002072,登記記録の閉鎖等,0,2026-02-02,2026-01-29,一般社団法人医療・介護の質システム研究所,,その他の設立登記法人,東京都,中央区,銀座３丁目９番１９号吉澤ビル７Ｆ,,13,102,1040061,,,2026-01-29,清算の結了等,,,2017-05-09,1,,,,,イリョウカイゴノシツシステムケンキュウショ,0
643,3011703002122,登記記録の閉鎖等,0,2026-02-02,2026-01-26,合同会社太陽のめぐみ,,合同会社,東京都,江戸川区,西葛西３丁目１４番６－７０５号,,13,123,1340088,,,2026-01-26,清算の結了等,,,2018-10-26,1,,,,,タイヨウノメグミ,0
650,3020001131616,登記記録の閉鎖等,0,2026-02-02,2026-01-20,株式会社ＰｕｒｐｌｅＬａｂｅｌ,,株式会社,神奈川県,横浜市神奈川区,大口仲町２０８番地５の２０４,,14,102,2210003,,,2026-01-20,清算の結了等,,,2019-06-13,1,,,,,パープルレーベル,0
653,3020002043208,登記記録の閉鎖等,0,2026-02-02,2026-01-21,有限会社白塗装,,有限会社,神奈川県,横浜市中区,千代崎町４丁目１００番地,,14,104,2310864,,,2026-01-21,清算の結了等,,,2015-10-05,1,,,,,シロトソウ,0
654,3020002053685,登記記録の閉鎖等,0,2026-02-02,2026-01-22,有限会社裕工業,,有限会社,神奈川県,横浜市鶴見区,上末吉４丁目２番４号,,14,101,2300011,,,2026-01-22,清算の結了等,,,2015-10-05,1,,,,,ユウコウギョウ,0
671,3030001082949,登記記録の閉鎖等,0,2026-02-02,2026-01-27,フジワ産業株式会社,,株式会社,埼玉県,川口市,大字新堀３４０番地１,,11,203,3340061,,,2026-01-27,清算の結了等,,,2015-10-05,1,,,,,フジワサンギョウ,0
676,3030002042407,登記記録の閉鎖等,0,2026-02-02,2026-01-26,有限会社アライ,,有限会社,埼玉県,加須市,砂原４６２番地３,,11,210,3491155,,,2026-01-26,清算の結了等,,,2015-10-05,1,,,,,アライ,0
690,3090001000277,登記記録の閉鎖等,0,2026-02-02,2026-01-27,株式会社エステート成光,,株式会社,山梨県,甲府市,上石田４丁目１８番６号,,19,201,4000041,,,2026-01-27,登記官による閉鎖,,,2015-10-05,1,,,,,,0
691,3090001000467,登記記録の閉鎖等,0,2026-02-02,2026-01-27,関東テレコム株式会社,,株式会社,山梨県,甲府市,下飯田４丁目１０番２２号,,19,201,4000064,,,2026-01-27,登記官による閉鎖,,,2015-10-05,1,,,,,,0
692,3090001000574,登記記録の閉鎖等,0,2026-02-02,2026-01-27,グラン株式会社,,株式会社,山梨県,甲府市,千塚３丁目６番１１号,,19,201,4000074,,,2026-01-27,登記官による閉鎖,,,2015-10-05,1,,,,,,0
693,3090001000624,登記記録の閉鎖等,0,2026-02-02,2026-01-27,株式会社甲府小泉,,株式会社,山梨県,甲府市,中央４丁目５番１５号,,19,201,4000032,,,2026-01-27,登記官による閉鎖,,,2015-10-05,1,,,,,,0
694,3090001000789,登記記録の閉鎖等,0,2026-02-02,2026-01-27,株式会社コスモホームコンポーネント山梨,,株式会社,山梨県,甲府市,和戸町１０１４番地,,19,201,4000812,,,2026-01-27,登記官による閉鎖,,,2015-10-05,1,,,,,,0
695,3090001001093,登記記録の閉鎖等,0,2026-02-02,2026-01-27,株式会社住託地情報センター,,株式会社,山梨県,甲府市,横根町４８６番地１,,19,201,4000802,,,2026-01-27,登記官による閉鎖,,,2015-10-05,1,,,,,,0
696,3090001001102,登記記録の閉鎖等,0,2026-02-02,2026-01-27,株式会社ジュエリーエース,,株式会社,山梨県,甲府市,中小河原町１５６番地２５,,19,201,4000854,,,2026-01-27,登記官による閉鎖,,,2015-10-05,1,,,,,,0
697,3090001001143,登記記録の閉鎖等,0,2026-02-02,2026-01-27,株式会社ジョワイエサトー,,株式会社,山梨県,甲府市,千塚２丁目１番３８号,,19,201,4000074,,,2026-01-27,登記官による閉鎖,,,2015-10-05,1,,,,,,0
698,3090001001300,登記記録の閉鎖等,0,2026-02-02,2026-01-27,株式会社ダイヤモンドファイナンス,,株式会社,山梨県,甲府市,酒折２丁目２番７号の１,,19,201,4000805,,,2026-01-27,登記官による閉鎖,,,2015-10-05,1,,,,,,0
699,3090001001440,登記記録の閉鎖等,0,2026-02-02,2026-01-27,株式会社テイー・アンド・シー,,株式会社,山梨県,甲府市,大和町７番２号,,19,201,4000072,,,2026-01-27,登記官による閉鎖,,,2015-10-05,1,,,,,,0
700,3090001001886,登記記録の閉鎖等,0,2026-02-02,2026-01-27,ブラジル農産開発株式会社,,株式会社,山梨県,甲府市,羽黒町９５８番地,,19,201,4000071,,,2026-01-27,登記官による閉鎖,,,2015-10-05,1,,,,,,0
701,3090001001977,登記記録の閉鎖等,0,2026-02-02,2026-01-27,株式会社細田工業,,株式会社,山梨県,甲府市,湯村３丁目４番３０－Ｂ２０２号,,19,201,4000073,,,2026-01-27,登記官による閉鎖,,,2015-10-05,1,,,,,,0
702,3090001002100,登記記録の閉鎖等,0,2026-02-02,2026-01-27,株式会社ミックインターナショナル,,株式会社,山梨県,甲府市,青沼２丁目１８番１１号,,19,201,4000867,,,2026-01-27,登記官による閉鎖,,,2015-10-05,1,,,,,,0
703,3090001002595,登記記録の閉鎖等,0,2026-02-02,2026-01-27,株式会社甲陽熱学,,株式会社,山梨県,甲斐市,竜王２８０５番地６,,19,210,4000118,,,2026-01-27,登記官による閉鎖,,,2015-10-05,1,,,,,,0
704,3090001002819,登記記録の閉鎖等,0,2026-02-02,2026-01-27,株式会社マーズ,,株式会社,山梨県,甲斐市,西八幡２８６３番地１,,19,210,4000117,,,2026-01-27,登記官による閉鎖,,,2015-10-05,1,,,,,,0
705,3090001003148,登記記録の閉鎖等,0,2026-02-02,2026-01-27,株式会社日本プロバイダ,,株式会社,山梨県,中巨摩郡昭和町,西条２２７２番地１,,19,384,4093866,,,2026-01-27,登記官による閉鎖,,,2015-10-05,1,,,,,,0
706,3090001003156,登記記録の閉鎖等,0,2026-02-02,2026-01-27,株式会社ヒロズコーポレーション,,株式会社,山梨県,中巨摩郡昭和町,西条３８００番地,,19,384,4093866,,,2026-01-27,登記官による閉鎖,,,2015-10-05,1,,,,,,0
707,3090001003305,登記記録の閉鎖等,0,2026-02-02,2026-01-27,株式会社商興,,株式会社,山梨県,甲府市,上今井町６６６番地,,19,201,4000845,,,2026-01-27,登記官による閉鎖,,,2015-10-05,1,,,,,,0
708,3090001003321,登記記録の閉鎖等,0,2026-02-02,2026-01-27,株式会社中央クリーンセンター,,株式会社,山梨県,甲府市,北口１丁目２３番３号ラブリーハイツ甲府７０３,,19,201,4000024,,,2026-01-27,登記官による閉鎖,,,2015-10-05,1,,,,,,0
709,3090001003461,登記記録の閉鎖等,0,2026-02-02,2026-01-27,株式会社サイナップ,,株式会社,山梨県,甲斐市,篠原１３４０番地７,,19,210,4000115,,,2026-01-27,登記官による閉鎖,,,2015-10-05,1,,,,,,0
710,3090001003544,登記記録の閉鎖等,0,2026-02-02,2026-01-27,株式会社ワークスジャパン,,株式会社,山梨県,甲府市,上今井町２６５番地５,,19,201,4000845,,,2026-01-27,登記官による閉鎖,,,2015-10-05,1,,,,,,0
711,3090001003552,登記記録の閉鎖等,0,2026-02-02,2026-01-27,株式会社情報システム・コミュニケーションズ,,株式会社,山梨県,甲斐市,竜王１１７６番地４,,19,210,4000118,,,2026-01-27,登記官による閉鎖,,,2015-10-05,1,,,,,,0
712,3090001003577,登記記録の閉鎖等,0,2026-02-02,2026-01-27,株式会社エコプラン,,株式会社,山梨県,甲府市,富士見１丁目２番５号,,19,201,4000027,,,2026-01-27,登記官による閉鎖,,,2015-10-05,1,,,,,,0
713,3090001004765,登記記録の閉鎖等,0,2026-02-02,2026-01-27,株式会社ウチダ店装,,株式会社,山梨県,南アルプス市,飯野３６６５番地,,19,208,4000222,,,2026-01-27,登記官による閉鎖,,,2015-10-05,1,,,,,,0
714,3090001004880,登記記録の閉鎖等,0,2026-02-02,2026-01-27,株式会社サンシャイン,,株式会社,山梨県,南アルプス市,小笠原３１７番地,,19,208,4000306,,,2026-01-27,登記官による閉鎖,,,2015-10-05,1,,,,,,0
715,3090001005037,登記記録の閉鎖等,0,2026-02-02,2026-01-27,株式会社北栄興業,,株式会社,山梨県,南アルプス市,藤田１６１７番地,,19,208,4000334,,,2026-01-27,登記官による閉鎖,,,2015-10-05,1,,,,,,0
716,3090001005053,登記記録の閉鎖等,0,2026-02-02,2026-01-27,株式会社丸京,,株式会社,山梨県,南アルプス市,落合１４６番地２,,19,208,4000423,,,2026-01-27,登記官による閉鎖,,,2015-10-05,1,,,,,,0
717,3090001005400,登記記録の閉鎖等,0,2026-02-02,2026-01-27,株式会社ケイ・エフ・ビー,,株式会社,山梨県,甲府市,徳行３丁目１番２５号,,19,201,4000047,,,2026-01-27,登記官による閉鎖,,,2015-10-05,1,,,,,,0
718,3090001005739,登記記録の閉鎖等,0,2026-02-02,2026-01-27,国母不動産株式会社,,株式会社,山梨県,甲府市,塩部１丁目９番１０号,,19,201,4000026,,,2026-01-27,登記官による閉鎖,,,2015-10-05,1,,,,,,0
719,3090001005929,登記記録の閉鎖等,0,2026-02-02,2026-01-27,株式会社歌子,,株式会社,山梨県,笛吹市,御坂町二之宮２７５１番地の１,,19,211,4060807,,,2026-01-27,登記官による閉鎖,,,2015-10-05,1,,,,,,0
720,3090001006290,登記記録の閉鎖等,0,2026-02-02,2026-01-27,株式会社こさぬき,,株式会社,山梨県,笛吹市,境川町三椚１００３番地１,,19,211,4060846,,,2026-01-27,登記官による閉鎖,,,2015-10-05,1,,,,,,0
721,3090001007941,登記記録の閉鎖等,0,2026-02-02,2026-01-27,澁谷産業株式会社,00068747,株式会社,山梨県,大月市,大月１丁目１７番２７号,,19,206,4010013,,,2026-01-27,登記官による閉鎖,,,2015-10-05,1,,,,,,0
722,3090001008048,登記記録の閉鎖等,0,2026-02-02,2026-01-27,株式会社ワールドテレコム,,株式会社,山梨県,大月市,梁川町綱の上１１１４番地,,19,206,4090503,,,2026-01-27,登記官による閉鎖,,,2015-10-05,1,,,,,,0
723,3090001008865,登記記録の閉鎖等,0,2026-02-02,2026-01-27,おおとやフルーツガーデン株式会社,,株式会社,山梨県,山梨市,下栗原１３０９番地,,19,205,4050023,,,2026-01-27,登記官による閉鎖,,,2015-10-05,1,,,,,,0
724,3090001009145,登記記録の閉鎖等,0,2026-02-02,2026-01-27,株式会社ドリーム,,株式会社,山梨県,甲州市,塩山小屋敷１６４７番地１,,19,213,4040053,,,2026-01-27,登記官による閉鎖,,,2015-10-05,1,,,,,,0
725,3090001009517,登記記録の閉鎖等,0,2026-02-02,2026-01-27,新屋興業株式会社,,株式会社,山梨県,富士吉田市,新屋１６４番地３,,19,202,4030006,,,2026-01-27,登記官による閉鎖,,,2015-10-05,1,,,,,,0
726,3090001009525,登記記録の閉鎖等,0,2026-02-02,2026-01-27,天野自工株式会社,,株式会社,山梨県,南都留郡山中湖村,山中８６５番地,,19,425,4010501,,,2026-01-27,登記官による閉鎖,,,2015-10-05,1,,,,,,0
727,3090001009797,登記記録の閉鎖等,0,2026-02-02,2026-01-27,株式会社ジェーピーエス,,株式会社,山梨県,南都留郡忍野村,忍草３２６５番地の１,,19,424,4010511,,,2026-01-27,登記官による閉鎖,,,2015-10-05,1,,,,,,0
728,3090001009863,登記記録の閉鎖等,0,2026-02-02,2026-01-27,株式会社田中建設工業,,株式会社,山梨県,南都留郡富士河口湖町,小立４０８０番地,,19,430,4010302,,,2026-01-27,登記官による閉鎖,,,2015-10-05,1,,,,,,0
729,3090001009905,登記記録の閉鎖等,0,2026-02-02,2026-01-27,中村撚糸株式会社,,株式会社,山梨県,富士吉田市,上吉田２丁目１１番２号,,19,202,4030005,,,2026-01-27,登記官による閉鎖,,,2015-10-05,1,,,,,,0
730,3090001010557,登記記録の閉鎖等,0,2026-02-02,2026-01-27,株式会社日本ボブスレーランド,,株式会社,山梨県,南都留郡富士河口湖町,富士ヶ嶺３００番地１,,19,430,4010338,,,2026-01-27,登記官による閉鎖,,,2015-10-05,1,,,,,,0
731,3090001011010,登記記録の閉鎖等,0,2026-02-02,2026-01-27,株式会社亜光,,株式会社,山梨県,北杜市,武川町三吹１６４２番地１,,19,209,4080301,,,2026-01-27,登記官による閉鎖,,,2015-10-05,1,,,,,,0
732,3090001011101,登記記録の閉鎖等,0,2026-02-02,2026-01-27,株式会社山州住建,,株式会社,山梨県,北杜市,長坂町小荒間２０１３番４,,19,209,4080031,,,2026-01-27,登記官による閉鎖,,,2015-10-05,1,,,,,,0
733,3090001011209,登記記録の閉鎖等,0,2026-02-02,2026-01-27,株式会社南清里グリ一ンライフ,,株式会社,山梨県,北杜市,須玉町若神子３５４２番地,,19,209,4080112,,,2026-01-27,登記官による閉鎖,,,2015-10-05,1,,,,,,0
734,3090001011381,登記記録の閉鎖等,0,2026-02-02,2026-01-27,株式会社童里夢,,株式会社,山梨県,韮崎市,清哲町折居１３３２番地の３,,19,207,4070054,,,2026-01-27,登記官による閉鎖,,,2015-10-05,1,,,,,,0
735,3090001011638,登記記録の閉鎖等,0,2026-02-02,2026-01-27,株式会社大硝,,株式会社,山梨県,北杜市,白州町白須１６０１番地５７,,19,209,4080315,,,2026-01-27,登記官による閉鎖,,,2015-10-05,1,,,,,,0
736,3090001012289,登記記録の閉鎖等,0,2026-02-02,2026-01-27,株式会社ハウディ,,株式会社,山梨県,南巨摩郡身延町,丸滝２０８番地,,19,365,4092411,,,2026-01-27,登記官による閉鎖,,,2015-10-05,1,,,,,,0
737,3090002003774,登記記録の閉鎖等,0,2026-02-02,2026-01-27,有限会社セントラル・タオルサービス,,有限会社,山梨県,甲斐市,玉川８６６番地,,19,210,4000116,,,2026-01-27,登記官による閉鎖,,,2015-10-05,1,,,,,,0
738,3090002005597,登記記録の閉鎖等,0,2026-02-02,2026-01-27,有限会社リエコーポレーション,,有限会社,山梨県,甲府市,大里町３２７８番地の８,,19,201,4000053,,,2026-01-27,登記官による閉鎖,,,2015-10-05,1,,,,,,0
739,3090002005639,登記記録の閉鎖等,0,2026-02-02,2026-01-27,有限会社小池建材,,有限会社,山梨県,甲斐市,西八幡４２８５番地１,,19,210,4000117,,,2026-01-27,登記官による閉鎖,,,2015-10-05,1,,,,,,0
740,3090002007214,登記記録の閉鎖等,0,2026-02-02,2026-01-27,有限会社金丸鉄工所,,有限会社,山梨県,南アルプス市,飯野３０２０番地２,,19,208,4000222,,,2026-01-27,清算の結了等,,,2015-10-05,1,,,,,カネマルテッコウジョ,0
741,3090002007560,登記記録の閉鎖等,0,2026-02-02,2026-01-27,有限会社庭粋,,有限会社,山梨県,甲府市,中畑町９１５番地,,19,201,4001505,,,2026-01-27,登記官による閉鎖,,,2015-10-05,1,,,,,,0
742,3090005001131,登記記録の閉鎖等,0,2026-02-02,2026-01-27,ＮＥＣコンピュータテクノ労働組合,,その他の設立登記法人,山梨県,甲府市,大津町１０８８番地３ＮＥＣコンピュータテクノ株式会社社内,,19,201,4000055,,,2026-01-27,登記官による閉鎖,,,2015-10-05,1,,,,,,0
743,3090005002162,登記記録の閉鎖等,0,2026-02-02,2026-01-27,甲府家具商業協同組合,,その他の設立登記法人,山梨県,甲府市,朝気１丁目２番６３号,,19,201,4000862,,,2026-01-27,登記官による閉鎖,,,2015-10-05,1,,,,,,0
772,3140001022308,登記記録の閉鎖等,0,2026-02-02,2026-01-27,株式会社チャレンジ,,株式会社,兵庫県,神戸市北区,鳴子１丁目６番地の６,,28,109,6511133,,,2026-01-27,清算の結了等,,,2015-10-05,1,,,,,チャレンジ,0
779,3180001021025,登記記録の閉鎖等,0,2026-02-02,2026-01-28,宮田塗料株式会社,,株式会社,愛知県,弥富市,東末広９丁目４０－１,,23,235,4980063,,,2026-01-28,合併による解散等,5122001008501,令和８年１月１日大阪府東大阪市高井田本通二丁目８番４号ＯＲＳコジマ株式会社（5122001008501）に合併し解散,2015-10-05,1,,,,,,0
784,3180001062291,登記記録の閉鎖等,0,2026-02-02,2026-01-27,株式会社ビーンズ,,株式会社,愛知県,名古屋市西区,平出町２８４番地,,23,104,4520832,,,2026-01-27,清算の結了等,,,2015-10-05,1,,,,,,0
785,3180001078395,登記記録の閉鎖等,0,2026-02-02,2026-01-28,Ｂ・Ｐ保険センター株式会社,,株式会社,愛知県,春日井市,杁ケ島町１３番地１４,,23,206,4860921,,,2026-01-28,清算の結了等,,,2015-10-05,1,,,,,ビーピーホケンセンター,0
795,3190001015942,登記記録の閉鎖等,0,2026-02-02,2026-01-30,株式会社服部食品,00075738,株式会社,三重県,四日市市,東坂部町１２６２番地,,24,202,5120904,,,2026-01-30,清算の結了等,,,2015-10-05,1,,,,,,0
801,3240001012315,登記記録の閉鎖等,0,2026-02-02,2026-01-20,寄木自動車株式会社,,株式会社,広島県,広島市安佐南区,沼田町大字大塚２１６５番地,,34,105,7313162,,,2026-01-20,登記官による閉鎖,,,2015-10-05,1,,,,,,0
802,3240001039804,登記記録の閉鎖等,0,2026-02-02,2026-01-20,株式会社松野,,株式会社,広島県,三原市,東町３９３番地の１,,34,204,7230011,,,2026-01-20,登記官による閉鎖,,,2015-10-05,1,,,,,,0
804,3250001004955,登記記録の閉鎖等,0,2026-02-02,2026-01-29,株式会社ベーカリーメルシー,,株式会社,山口県,宇部市,新天町２丁目４番２２号,,35,202,7550029,,,2026-01-29,清算の結了等,,,2015-10-05,1,,,,,,0
814,3290001091783,登記記録の閉鎖等,0,2026-02-02,2026-01-22,株式会社ゆず＆ＷＯＲＬＤ,,株式会社,福岡県,福岡市東区,舞松原５丁目８番３号,,40,131,8130042,,,2026-01-22,清算の結了等,,,2021-01-27,1,,,,,ユズアンドワールド,0
833,3310002014930,登記記録の閉鎖等,0,2026-02-02,2026-01-29,有限会社諫早電業社,,有限会社,長崎県,諫早市,正久寺町１５０番地,,42,204,8590302,,,2026-01-29,清算の結了等,,,2015-10-05,1,,,,,イサハヤデンギョウシャ,0
839,3330003010737,登記記録の閉鎖等,0,2026-02-02,2026-01-27,合同会社亀栄商店,,合同会社,熊本県,熊本市中央区,神水１丁目３８番３５号鎌田ビル１０３号,,43,101,8620954,,,2026-01-27,清算の結了等,,,2025-01-20,1,,,,,カメエイショウテン,0
840,3340002027087,登記記録の閉鎖等,0,2026-02-02,2026-01-27,有限会社児島工業,,有限会社,鹿児島県,鹿屋市,西原１丁目１１番３号,,46,203,8930064,,,2026-01-27,清算の結了等,,,2015-10-05,1,,,,,コジマコウギョウ,0
844,3360002019198,登記記録の閉鎖等,0,2026-02-02,2026-01-27,株式会社日新コーポレーション,,株式会社,沖縄県,浦添市,牧港４丁目２１番２－１号,,47,208,9012131,,,2026-01-27,清算の結了等,,,2015-10-05,1,,,,,ニッシンコーポレーション,0
846,3370002015411,登記記録の閉鎖等,0,2026-02-02,2026-01-30,有限会社五康,,有限会社,宮城県,仙台市泉区,長命ケ丘４丁目２６番地の９,,04,105,9813212,,,2026-01-30,清算の結了等,,,2015-10-05,1,,,,,ゴコウ,0
852,3430002056969,登記記録の閉鎖等,0,2026-02-02,2026-01-27,有限会社倶知安自動車美装,,有限会社,北海道,虻田郡倶知安町,北七条東１丁目７番地１４,,01,400,0440007,,,2026-01-27,清算の結了等,,,2015-10-05,1,,,,,クッチャンジドウシャビソウ,0
853,3450001008044,登記記録の閉鎖等,0,2026-02-02,2026-01-26,開洋水産株式会社,,株式会社,北海道,稚内市,声問４丁目１７番５号,,01,214,0986642,,,2026-01-26,清算の結了等,,,2015-10-05,1,,,,,カイヨウスイサン,0
856,3480002014625,登記記録の閉鎖等,0,2026-02-02,2026-01-30,有限会社オプトナカムラ,,有限会社,徳島県,美馬市,脇町別所２８００番地,,36,207,7793620,,,2026-01-30,清算の結了等,,,2015-10-05,1,,,,,オプトナカムラ,0
863,4010003025683,登記記録の閉鎖等,0,2026-02-02,2026-01-08,大阪プロパティー合同会社,,合同会社,東京都,千代田区,丸の内１丁目１１番１号,,13,101,1000005,,,2026-01-08,清算の結了等,,,2017-07-13,1,,,,,オオサカプロパティー,0
870,4010403018758,登記記録の閉鎖等,0,2026-02-02,2026-01-07,ＲＥ９合同会社,,合同会社,東京都,港区,芝浦１丁目６番４１号,,13,103,1050023,,,2026-01-07,清算の結了等,,,2018-06-13,1,,,,,アールイーナイン,0
881,4010802004771,登記記録の閉鎖等,0,2026-02-02,2026-01-21,有限会社京浜プリントセンター,,有限会社,東京都,大田区,萩中１丁目１番２号,,13,111,1440047,,,2026-01-21,清算の結了等,,,2015-10-05,1,,,,,ケイヒンプリントセンター,0
905,4011602012072,登記記録の閉鎖等,0,2026-02-02,2026-01-26,有限会社ペリアンダー,,有限会社,東京都,練馬区,練馬３丁目１５番４号,,13,120,1760001,,,2026-01-26,清算の結了等,,,2015-10-05,1,,,,,ペリアンダー,0
906,4011703004183,登記記録の閉鎖等,0,2026-02-02,2026-01-26,Ｓｏａｒ　Ｓｔａｒ合同会社,,合同会社,東京都,江戸川区,西小岩５丁目１３番１３号小出マンション１０９号室,,13,123,1330057,,,2026-01-26,清算の結了等,,,2025-04-08,1,,,,,ソアスター,0
932,4030002100122,登記記録の閉鎖等,0,2026-02-02,2026-01-27,有限会社天野屋,,有限会社,埼玉県,川口市,栄町３丁目５番１号,,11,203,3320017,,,2026-01-27,清算の結了等,,,2015-10-05,1,,,,,アマノヤ,0
934,4030002107902,登記記録の閉鎖等,0,2026-02-02,2026-01-27,有限会社山金,,有限会社,埼玉県,川口市,弥平１丁目１２番１８号,,11,203,3320002,,,2026-01-27,清算の結了等,,,2015-10-05,1,,,,,ヤマキン,0
936,4030005020664,登記記録の閉鎖等,0,2026-02-02,2026-01-27,オーベル川口管理組合法人,,その他の設立登記法人,埼玉県,川口市,幸町２丁目１２番２４号,,11,203,3320016,,,2026-01-27,清算の結了等,,,2021-12-21,1,,,,,オーベルカワグチ,0
937,4040001049054,登記記録の閉鎖等,0,2026-02-02,2026-01-07,株式会社副島設計,,株式会社,千葉県,印旛郡酒々井町,本佐倉２６３番地１７４,,12,322,2850926,,,2026-01-07,清算の結了等,,,2015-10-05,1,,,,,ソエジマセッケイ,0
943,4050001002978,登記記録の閉鎖等,0,2026-02-02,2026-01-28,株式会社三興,,株式会社,茨城県,水戸市,内原町１２０３番地の５,,08,201,3190315,,,2026-01-28,清算の結了等,,,2015-10-05,1,,,,,サンコウ,0
955,4090001000029,登記記録の閉鎖等,0,2026-02-02,2026-01-27,株式会社アーバン恒産,,株式会社,山梨県,甲府市,富士見１丁目３番３４号,,19,201,4000027,,,2026-01-27,登記官による閉鎖,,,2015-10-05,1,,,,,,0
956,4090001000202,登記記録の閉鎖等,0,2026-02-02,2026-01-27,今井造園土木株式会社,,株式会社,山梨県,甲府市,里吉１丁目６番２４号,,19,201,4000822,,,2026-01-27,登記官による閉鎖,,,2015-10-05,1,,,,,,0
957,4090001000251,登記記録の閉鎖等,0,2026-02-02,2026-01-27,株式会社エース科学,,株式会社,山梨県,甲府市,羽黒町１０１番地,,19,201,4000071,,,2026-01-27,登記官による閉鎖,,,2015-10-05,1,,,,,,0
958,4090001000458,登記記録の閉鎖等,0,2026-02-02,2026-01-27,河西ガラス株式会社,,株式会社,山梨県,甲府市,国玉町８３６番地,,19,201,4000815,,,2026-01-27,登記官による閉鎖,,,2015-10-05,1,,,,,,0
959,4090001000549,登記記録の閉鎖等,0,2026-02-02,2026-01-27,株式会社金鈴堂,,株式会社,山梨県,甲府市,中央４丁目４番２８号,,19,201,4000032,,,2026-01-27,登記官による閉鎖,,,2015-10-05,1,,,,,,0
960,4090001000607,登記記録の閉鎖等,0,2026-02-02,2026-01-27,株式会社ナインテンスタッフ,,株式会社,山梨県,甲府市,横根町４５１番地１,,19,201,4000802,,,2026-01-27,登記官による閉鎖,,,2015-10-05,1,,,,,,0
961,4090001000615,登記記録の閉鎖等,0,2026-02-02,2026-01-27,株式会社ケンテック,,株式会社,山梨県,甲府市,丸の内１丁目１４番３号,,19,201,4000031,,,2026-01-27,登記官による閉鎖,,,2015-10-05,1,,,,,,0
962,4090001000805,登記記録の閉鎖等,0,2026-02-02,2026-01-27,株式会社コバヤシ・ジュエリー・クラフト,,株式会社,山梨県,甲府市,中央５丁目１番１５号,,19,201,4000032,,,2026-01-27,登記官による閉鎖,,,2015-10-05,1,,,,,,0
963,4090001000870,登記記録の閉鎖等,0,2026-02-02,2026-01-27,株式会社山耕商事,,株式会社,山梨県,甲府市,朝気３丁目１７番２号,,19,201,4000862,,,2026-01-27,登記官による閉鎖,,,2015-10-05,1,,,,,,0
964,4090001001084,登記記録の閉鎖等,0,2026-02-02,2026-01-27,株式会社商永商会,,株式会社,山梨県,甲府市,住吉４丁目２３番６号,,19,201,4000851,,,2026-01-27,登記官による閉鎖,,,2015-10-05,1,,,,,,0
965,4090001001134,登記記録の閉鎖等,0,2026-02-02,2026-01-27,株式会社ジャッスル,,株式会社,山梨県,甲府市,相生１丁目１５番３号,,19,201,4000858,,,2026-01-27,登記官による閉鎖,,,2015-10-05,1,,,,,,0
966,4090001001150,登記記録の閉鎖等,0,2026-02-02,2026-01-27,白壁ハウス工業株式会社,,株式会社,山梨県,甲府市,相生３丁目１７番２号,,19,201,4000858,,,2026-01-27,登記官による閉鎖,,,2015-10-05,1,,,,,シラカベハウスコウギョウ,0
967,4090001001167,登記記録の閉鎖等,0,2026-02-02,2026-01-27,株式会社鈴宝商事,,株式会社,山梨県,甲府市,川田町アリア１０３,,19,201,4000811,,,2026-01-27,登記官による閉鎖,,,2015-10-05,1,,,,,,0
968,4090001001308,登記記録の閉鎖等,0,2026-02-02,2026-01-27,大和プラント株式会社,,株式会社,山梨県,甲府市,蓬沢１丁目１６番３７号,,19,201,4000827,,,2026-01-27,登記官による閉鎖,,,2015-10-05,1,,,,,,0
969,4090001001357,登記記録の閉鎖等,0,2026-02-02,2026-01-27,株式会社瀧澤,,株式会社,山梨県,甲府市,中央５丁目４番６号,,19,201,4000032,,,2026-01-27,登記官による閉鎖,,,2015-10-05,1,,,,,,0
970,4090001001381,登記記録の閉鎖等,0,2026-02-02,2026-01-27,中央ウインド株式会社,,株式会社,山梨県,甲府市,城東４丁目１７番２０号,,19,201,4000861,,,2026-01-27,登記官による閉鎖,,,2015-10-05,1,,,,,チュウオウウインド,0
971,4090001001423,登記記録の閉鎖等,0,2026-02-02,2026-01-27,塚原産業株式会社,,株式会社,山梨県,甲府市,国母５丁目６番２６号,,19,201,4000043,,,2026-01-27,登記官による閉鎖,,,2015-10-05,1,,,,,,0
972,4090001001547,登記記録の閉鎖等,0,2026-02-02,2026-01-27,東和レジスター販売株式会社甲府店,,株式会社,山梨県,甲府市,下石田２丁目１６番２４号,,19,201,4000046,,,2026-01-27,登記官による閉鎖,,,2015-10-05,1,,,,,,0
973,4090001001646,登記記録の閉鎖等,0,2026-02-02,2026-01-27,日本シビルエンジニアリング株式会社,,株式会社,山梨県,甲府市,湯村１丁目１２番３号,,19,201,4000073,,,2026-01-27,登記官による閉鎖,,,2015-10-05,1,,,,,,0
974,4090001001695,登記記録の閉鎖等,0,2026-02-02,2026-01-27,株式会社ネームインネットワークグループ,,株式会社,山梨県,甲府市,徳行５丁目１２番１５号,,19,201,4000047,,,2026-01-27,登記官による閉鎖,,,2015-10-05,1,,,,,,0
975,4090001001885,登記記録の閉鎖等,0,2026-02-02,2026-01-27,フジ屋株式会社,,株式会社,山梨県,甲府市,丸の内３丁目２６番１号,,19,201,4000031,,,2026-01-27,登記官による閉鎖,,,2015-10-05,1,,,,,,0
976,4090001002009,登記記録の閉鎖等,0,2026-02-02,2026-01-27,株式会社マトイ,,株式会社,山梨県,甲府市,上今井町７６０番地,,19,201,4000845,,,2026-01-27,登記官による閉鎖,,,2015-10-05,1,,,,,,0
977,4090001002479,登記記録の閉鎖等,0,2026-02-02,2026-01-27,リンキィジェムスジャパン株式会社,,株式会社,山梨県,甲府市,上石田２丁目１番５号,,19,201,4000041,,,2026-01-27,登記官による閉鎖,,,2015-10-05,1,,,,,,0
978,4090001002611,登記記録の閉鎖等,0,2026-02-02,2026-01-27,株式会社サンユー電子,,株式会社,山梨県,甲斐市,玉川８６６番地,,19,210,4000116,,,2026-01-27,登記官による閉鎖,,,2015-10-05,1,,,,,,0
979,4090001002719,登記記録の閉鎖等,0,2026-02-02,2026-01-27,株式会社ポステム販売,,株式会社,山梨県,甲斐市,竜王新町３２０番地,,19,210,4000111,,,2026-01-27,登記官による閉鎖,,,2015-10-05,1,,,,,,0
980,4090001002776,登記記録の閉鎖等,0,2026-02-02,2026-01-27,株式会社ヴィレッジ明野,,株式会社,山梨県,甲斐市,長塚２４３番地１,,19,210,4000125,,,2026-01-27,登記官による閉鎖,,,2015-10-05,1,,,,,,0
981,4090001002891,登記記録の閉鎖等,0,2026-02-02,2026-01-27,株式会社ディア,,株式会社,山梨県,甲府市,宮原町２２６番地２,,19,201,4000058,,,2026-01-27,登記官による閉鎖,,,2015-10-05,1,,,,,,0
982,4090001003080,登記記録の閉鎖等,0,2026-02-02,2026-01-27,株式会社クラウン,,株式会社,山梨県,中巨摩郡昭和町,西条３７１７番地,,19,384,4093866,,,2026-01-27,登記官による閉鎖,,,2015-10-05,1,,,,,,0
983,4090001003238,登記記録の閉鎖等,0,2026-02-02,2026-01-27,日本ディサポート株式会社,,株式会社,山梨県,甲府市,国母７丁目９番２３号,,19,201,4000043,,,2026-01-27,登記官による閉鎖,,,2015-10-05,1,,,,,,0
984,4090001003353,登記記録の閉鎖等,0,2026-02-02,2026-01-27,株式会社ティーアンドエス,,株式会社,山梨県,甲府市,下鍛冶屋町５０９番地１,,19,201,4000835,,,2026-01-27,登記官による閉鎖,,,2015-10-05,1,,,,,,0
985,4090001003452,登記記録の閉鎖等,0,2026-02-02,2026-01-27,株式会社チタンゴールド,,株式会社,山梨県,甲斐市,西八幡１５５５番地１０,,19,210,4000117,,,2026-01-27,登記官による閉鎖,,,2015-10-05,1,,,,,,0
986,4090001003460,登記記録の閉鎖等,0,2026-02-02,2026-01-27,株式会社イングジャパン,,株式会社,山梨県,中巨摩郡昭和町,飯喰４１５番地の１,,19,384,4093852,,,2026-01-27,登記官による閉鎖,,,2015-10-05,1,,,,,,0
987,4090001004814,登記記録の閉鎖等,0,2026-02-02,2026-01-27,株式会社金鶏舎,,株式会社,山梨県,南アルプス市,山寺２０番地１,,19,208,4000308,,,2026-01-27,登記官による閉鎖,,,2015-10-05,1,,,,,,0
988,4090001006075,登記記録の閉鎖等,0,2026-02-02,2026-01-27,株式会社竹村芸能,,株式会社,山梨県,笛吹市,石和町中川５０３０番地,,19,211,4060026,,,2026-01-27,登記官による閉鎖,,,2015-10-05,1,,,,,,0
989,4090001006133,登記記録の閉鎖等,0,2026-02-02,2026-01-27,株式会社早川組,,株式会社,山梨県,笛吹市,八代町南１１６５番地の１,,19,211,4060822,,,2026-01-27,登記官による閉鎖,,,2015-10-05,1,,,,,,0
990,4090001006141,登記記録の閉鎖等,0,2026-02-02,2026-01-27,フジミ技建株式会社,,株式会社,山梨県,笛吹市,石和町東高橋１９２番地,,19,211,4060041,,,2026-01-27,登記官による閉鎖,,,2015-10-05,1,,,,,,0
991,4090001006273,登記記録の閉鎖等,0,2026-02-02,2026-01-27,株式会社新鮮市場,,株式会社,山梨県,笛吹市,一宮町田中４７０番地の４,,19,211,4050078,,,2026-01-27,登記官による閉鎖,,,2015-10-05,1,,,,,,0
992,4090001006331,登記記録の閉鎖等,0,2026-02-02,2026-01-27,株式会社アール・ワイ,,株式会社,山梨県,笛吹市,春日居町寺本１７６番地,,19,211,4060013,,,2026-01-27,登記官による閉鎖,,,2015-10-05,1,,,,,,0
993,4090001007981,登記記録の閉鎖等,0,2026-02-02,2026-01-27,大月富士見開発株式会社,,株式会社,山梨県,大月市,大月町真木３８４５番地,,19,206,4010016,,,2026-01-27,登記官による閉鎖,,,2015-10-05,1,,,,,,0
994,4090001008468,登記記録の閉鎖等,0,2026-02-02,2026-01-27,株式会社ニーズ,,株式会社,山梨県,都留市,川茂９０５番地,,19,204,4020003,,,2026-01-27,登記官による閉鎖,,,2015-10-05,1,,,,,,0
995,4090001008492,登記記録の閉鎖等,0,2026-02-02,2026-01-27,富士光建設産業株式会社,,株式会社,山梨県,都留市,大幡字つるき４６１５番地３,,19,204,4020045,,,2026-01-27,登記官による閉鎖,,,2015-10-05,1,,,,,,0
996,4090001008534,登記記録の閉鎖等,0,2026-02-02,2026-01-27,株式会社ユナイト,00068766,株式会社,山梨県,都留市,つる４丁目７番２７号,,19,204,4020056,,,2026-01-27,登記官による閉鎖,,,2015-10-05,1,,,,,,0
997,4090001008542,登記記録の閉鎖等,0,2026-02-02,2026-01-27,株式会社渡邊製作所,00068768,株式会社,山梨県,都留市,大幡３７７９番地の１,,19,204,4020045,,,2026-01-27,登記官による閉鎖,,,2015-10-05,1,,,,,,0
998,4090001008914,登記記録の閉鎖等,0,2026-02-02,2026-01-27,市民交通株式会社,,株式会社,山梨県,山梨市,北６０番地２,,19,205,4050041,,,2026-01-27,登記官による閉鎖,,,2015-10-05,1,,,,,,0
999,4090001009136,登記記録の閉鎖等,0,2026-02-02,2026-01-27,株式会社中部環境開発,,株式会社,山梨県,甲州市,塩山上萩原２６０９番地１,,19,213,4040022,,,2026-01-27,登記官による閉鎖,,,2015-10-05,1,,,,,,0
1000,4090001009755,登記記録の閉鎖等,0,2026-02-02,2026-01-27,株式会社サンライズ,,株式会社,山梨県,南都留郡山中湖村,山中８６５番地２５４,,19,425,4010501,,,2026-01-27,登記官による閉鎖,,,2015-10-05,1,,,,,,0
1001,4090001009821,登記記録の閉鎖等,0,2026-02-02,2026-01-27,株式会社そのだスポーツ,,株式会社,山梨県,富士吉田市,下吉田１４４６番地,,19,202,4030004,,,2026-01-27,登記官による閉鎖,,,2015-10-05,1,,,,,,0
1002,4090001010341,登記記録の閉鎖等,0,2026-02-02,2026-01-27,清水ハウジング株式会社,,株式会社,山梨県,南都留郡山中湖村,山中１４５１番地,,19,425,4010501,,,2026-01-27,登記官による閉鎖,,,2015-10-05,1,,,,,,0
1003,4090001010556,登記記録の閉鎖等,0,2026-02-02,2026-01-27,日本ガーデン・バルーン観光株式会社,,株式会社,山梨県,南都留郡富士河口湖町,富士ヶ嶺３００番地１,,19,430,4010338,,,2026-01-27,登記官による閉鎖,,,2015-10-05,1,,,,,,0
1004,4090001011042,登記記録の閉鎖等,0,2026-02-02,2026-01-27,株式会社上村商店,,株式会社,山梨県,北杜市,須玉町大豆生田５９７番地１,,19,209,4080115,,,2026-01-27,登記官による閉鎖,,,2015-10-05,1,,,,,,0
1005,4090001011100,登記記録の閉鎖等,0,2026-02-02,2026-01-27,サンマックス株式会社,,株式会社,山梨県,北杜市,明野町小笠原１４７９番地１,,19,209,4080202,,,2026-01-27,登記官による閉鎖,,,2015-10-05,1,,,,,,0
1006,4090001011959,登記記録の閉鎖等,0,2026-02-02,2026-01-27,株式会社協和,,株式会社,山梨県,南巨摩郡身延町,西島１５４７番地,,19,365,4092500,,,2026-01-27,登記官による閉鎖,,,2015-10-05,1,,,,,,0
1007,4090001012115,登記記録の閉鎖等,0,2026-02-02,2026-01-27,丸吾工業株式会社,,株式会社,山梨県,南巨摩郡身延町,常葉７２２番地,,19,365,4092936,,,2026-01-27,登記官による閉鎖,,,2015-10-05,1,,,,,,0
1008,4090001012296,登記記録の閉鎖等,0,2026-02-02,2026-01-27,株式会社フドーリバー,,株式会社,山梨県,南巨摩郡身延町,丸滝５５３番地,,19,365,4092411,,,2026-01-27,登記官による閉鎖,,,2015-10-05,1,,,,,,0
1009,4090001014706,登記記録の閉鎖等,0,2026-02-02,2026-01-27,株式会社ベスト,,株式会社,山梨県,北杜市,長坂町塚川２１２６番地,,19,209,4080022,,,2026-01-27,清算の結了等,,,2016-07-13,1,,,,,ベスト,0
1010,4090002010002,登記記録の閉鎖等,0,2026-02-02,2026-01-27,有限会社巧嘉測量,,有限会社,山梨県,上野原市,秋山１２９５２番地,,19,212,4010201,,,2026-01-27,登記官による閉鎖,,,2015-10-05,1,,,,,,0
1011,4090005004166,登記記録の閉鎖等,0,2026-02-02,2026-01-27,船津商業協同組合,,その他の設立登記法人,山梨県,南都留郡富士河口湖町,船津３８６０番地,,19,430,4010301,,,2026-01-27,登記官による閉鎖,,,2015-10-05,1,,,,,,0
1022,4120002040920,登記記録の閉鎖等,0,2026-02-02,2026-01-29,有限会社サンネット製作所,,有限会社,大阪府,大阪市此花区,春日出中２丁目５番１９号,,27,104,5540022,,,2026-01-29,清算の結了等,,,2015-10-05,1,,,,,,0
1031,4150001021035,登記記録の閉鎖等,0,2026-02-02,2026-01-30,リアルハウジング株式会社,,株式会社,奈良県,香芝市,畑３丁目７２８番地２,,29,210,6390245,,,2026-01-30,清算の結了等,,,2016-10-14,1,,,,,リアルハウジング,0
1033,4180001067141,登記記録の閉鎖等,0,2026-02-02,2026-01-27,ナシオ工業株式会社,,株式会社,愛知県,日進市,赤池町箕ノ手２番地４８３,,23,230,4700126,,,2026-01-27,清算の結了等,,,2015-10-05,1,,,,,ナシオコウギョウ,0
1036,4180001150566,登記記録の閉鎖等,0,2026-02-02,2026-01-30,株式会社企画センター正方成,,株式会社,愛知県,名古屋市守山区,花咲台２丁目１０４番,,23,113,4630808,,,2026-01-30,清算の結了等,,,2022-03-29,1,,,,,キカクセンターセイホウセイ,0
1054,4230001018873,登記記録の閉鎖等,0,2026-02-02,2026-01-29,株式会社スフレ,,株式会社,富山県,富山市,二口町２丁目４番地９,,16,201,9398211,,,2026-01-29,清算の結了等,,,2021-06-18,1,,,,,スフレ,0
1055,4240001039753,登記記録の閉鎖等,0,2026-02-02,2026-01-20,株式会社平川物産,,株式会社,広島県,三原市,古浜町２７番地の１２,,34,204,7230013,,,2026-01-20,登記官による閉鎖,,,2015-10-05,1,,,,,,0
1071,4290001110682,登記記録の閉鎖等,0,2026-02-02,2026-01-20,瑞景株式会社,,株式会社,福岡県,福岡市中央区,大名２丁目９番３５号トウセン天神ビル９Ｆ,,40,133,8100041,,,2026-01-20,清算の結了等,,,2025-07-14,1,,,,,ズイケイ,0
1077,4290802015329,登記記録の閉鎖等,0,2026-02-02,2026-01-21,有限会社ボルト,,有限会社,福岡県,北九州市八幡西区,鳴水町７番１８号,,40,109,8060052,,,2026-01-21,清算の結了等,,,2015-10-05,1,,,,,ボルト,0
1092,4370001052421,登記記録の閉鎖等,0,2026-02-02,2026-01-27,Ｐ工業株式会社,,株式会社,宮城県,仙台市若林区,種次字中斎１１９番地,,04,103,9840844,,,2026-01-27,清算の結了等,,,2025-04-04,1,,,,,ピーコウギョウ,0
1097,4380001030186,登記記録の閉鎖等,0,2026-02-02,2026-01-28,株式会社祐真荷役,,株式会社,福島県,福島市,山口字新林１番地２,,07,201,9608202,,,2026-01-28,清算の結了等,,,2019-07-16,1,,,,,,0
1102,4410005002351,登記記録の閉鎖等,0,2026-02-02,2026-01-30,特定非営利活動法人国際知的所有権監理保護機構秋田,,その他の設立登記法人,秋田県,由利本荘市,上横町１７番地,,05,210,0150806,,,2026-01-30,登記官による閉鎖,,,2015-10-05,1,,,,,,0
1111,4450001012301,登記記録の閉鎖等,0,2026-02-02,2026-01-26,株式会社幌延林業,,株式会社,北海道,天塩郡幌延町,五条南２丁目１番地６０,,01,520,0983215,,,2026-01-26,清算の結了等,,,2018-01-10,1,,,,,ホロノベリンギョウ,0
1116,4500002014844,登記記録の閉鎖等,0,2026-02-02,2026-01-29,有限会社河原津農園,,有限会社,愛媛県,西条市,河原津甲２３２番地,,38,206,7991303,,,2026-01-29,清算の結了等,,,2015-10-05,1,,,,,カワラヅノウエン,0
1124,5010002015817,登記記録の閉鎖等,0,2026-02-02,2026-01-08,有限会社エディション・シナプス,,有限会社,東京都,千代田区,永田町２丁目１７番５号,,13,101,1000014,,,2026-01-08,清算の結了等,,,2015-10-05,1,,,,,エディションシナプス,0
1135,5010401155164,登記記録の閉鎖等,0,2026-02-02,2026-01-21,Ｒｅａｌｅｙｅｓ　Ｊａｐａｎ株式会社,,株式会社,神奈川県,横浜市中区,住吉町２丁目２２松栄関内ビル２Ｆ,,14,104,2310013,,,2026-01-21,清算の結了等,,,2020-09-11,1,,,,,リアルアイズジャパン,0
1147,5010901039197,登記記録の閉鎖等,0,2026-02-02,2026-01-21,株式会社バズ,,株式会社,福岡県,福岡市中央区,平和３丁目１２番１１号,,40,133,8100016,,,2026-01-21,清算の結了等,,,2016-12-07,1,,,,,バズ,0
1178,5013201011611,登記記録の閉鎖等,0,2026-02-02,2026-01-07,ヴィデンダムプロダクションソリューションズ株式会社,,株式会社,東京都,港区,港南２丁目１６番１号品川イーストワンタワー８階,,13,103,1080075,,,2026-01-07,合併による解散等,9010401062431,令和８年１月１日東京都港区港南二丁目１６番１号品川イーストワンタワー８階ヴィデンダム株式会社（9010401062431）に合併し解散,2015-10-05,1,,,,,ヴィデンダムプロダクションソリューションズ,0
1199,5030001055110,登記記録の閉鎖等,0,2026-02-02,2026-01-26,株式会社武豊,,株式会社,埼玉県,川越市,脇田本町１０番地１４（アクエス川越イストワール１３０４号室）,,11,201,3501123,,,2026-01-26,清算の結了等,,,2015-10-05,1,,,,,タケトヨ,0
1208,5040001024452,登記記録の閉鎖等,0,2026-02-02,2026-01-06,渡辺商事株式会社,,株式会社,千葉県,八千代市,萱田町７７５番地１３,,12,221,2760044,,,2026-01-06,清算の結了等,,,2015-10-05,1,,,,,ワタナベショウジ,0
1219,5040002094899,登記記録の閉鎖等,0,2026-02-02,2026-01-06,有限会社秦森,,有限会社,千葉県,柏市,藤ケ谷５４４番地１,,12,217,2770931,,,2026-01-06,清算の結了等,,,2015-10-05,1,,,,,ハタモリ,0
1226,5070002003683,登記記録の閉鎖等,0,2026-02-02,2026-01-28,有限会社ティー・ピー・オ・フレックス,,有限会社,群馬県,前橋市,下増田町１００１番地５,,10,201,3792113,,,2026-01-28,合併による解散等,9010001054085,令和８年１月１日東京都中央区日本橋堀留町二丁目２番６号株式会社則武好雅堂（9010001054085）に合併し解散,2015-10-05,1,,,,,ティーピーオフレックス,0
1231,5080102001339,登記記録の閉鎖等,0,2026-02-02,2026-01-08,株式会社五和鉄工所,,株式会社,東京都,千代田区,丸の内３丁目４番１号,,13,101,1000005,,,2026-01-08,清算の結了等,,,2015-10-05,1,,,,,イツワテッコウジョ,0
1232,5080401018604,登記記録の閉鎖等,0,2026-02-02,2026-01-30,株式会社東海技建ＴＳ,,株式会社,静岡県,浜松市中央区,城北３丁目１番６号,,22,138,4328011,,,2026-01-30,清算の結了等,,,2015-10-05,1,,,,,,0
1234,5090001000011,登記記録の閉鎖等,0,2026-02-02,2026-01-27,株式会社青木造園,,株式会社,山梨県,甲府市,朝気３丁目４番１６号,,19,201,4000862,,,2026-01-27,登記官による閉鎖,,,2015-10-05,1,,,,,,0
1235,5090001000069,登記記録の閉鎖等,0,2026-02-02,2026-01-27,株式会社アズテック,,株式会社,山梨県,甲府市,富士見２丁目１番１４号,,19,201,4000027,,,2026-01-27,登記官による閉鎖,,,2015-10-05,1,,,,,,0
1236,5090001000242,登記記録の閉鎖等,0,2026-02-02,2026-01-27,株式会社ウチヤマ,,株式会社,山梨県,甲府市,後屋町２２３番地の４,,19,201,4000045,,,2026-01-27,登記官による閉鎖,,,2015-10-05,1,,,,,,0
1237,5090001000523,登記記録の閉鎖等,0,2026-02-02,2026-01-27,共栄サービス株式会社,,株式会社,山梨県,甲府市,岩窪町６０８番地,,19,201,4000013,,,2026-01-27,登記官による閉鎖,,,2015-10-05,1,,,,,,0
1238,5090001000762,登記記録の閉鎖等,0,2026-02-02,2026-01-27,株式会社ゴールドギャラリー藤,,株式会社,山梨県,甲府市,青沼２丁目１４番４号,,19,201,4000867,,,2026-01-27,登記官による閉鎖,,,2015-10-05,1,,,,,,0
1239,5090001000952,登記記録の閉鎖等,0,2026-02-02,2026-01-27,株式会社サンパイシステムサービス,,株式会社,山梨県,甲府市,酒折３丁目１１番７号,,19,201,4000805,,,2026-01-27,登記官による閉鎖,,,2015-10-05,1,,,,,,0
1240,5090001001059,登記記録の閉鎖等,0,2026-02-02,2026-01-27,株式会社篠原薬品,,株式会社,山梨県,甲府市,長松寺町７番８号,,19,201,4000067,,,2026-01-27,登記官による閉鎖,,,2015-10-05,1,,,,,,0
1241,5090001001249,登記記録の閉鎖等,0,2026-02-02,2026-01-27,株式会社大希,,株式会社,山梨県,甲府市,塩部４丁目１０番２５号,,19,201,4000026,,,2026-01-27,登記官による閉鎖,,,2015-10-05,1,,,,,,0
1242,5090001001265,登記記録の閉鎖等,0,2026-02-02,2026-01-27,株式会社第三中日観光,,株式会社,山梨県,甲府市,中央１丁目６番８号中央ビル３階,,19,201,4000032,,,2026-01-27,登記官による閉鎖,,,2015-10-05,1,,,,,,0
1243,5090001001323,登記記録の閉鎖等,0,2026-02-02,2026-01-27,武田システム株式会社,,株式会社,山梨県,甲府市,徳行３丁目９番３４号,,19,201,4000047,,,2026-01-27,登記官による閉鎖,,,2015-10-05,1,,,,,,0
1244,5090001001604,登記記録の閉鎖等,0,2026-02-02,2026-01-27,日本エクセル販売株式会社,,株式会社,山梨県,甲府市,青沼２丁目６番１８号１０１,,19,201,4000867,,,2026-01-27,登記官による閉鎖,,,2015-10-05,1,,,,,,0
1245,5090001001629,登記記録の閉鎖等,0,2026-02-02,2026-01-27,株式会社ニーズ,,株式会社,山梨県,甲府市,古上条町３９１番地１,,19,201,4000051,,,2026-01-27,登記官による閉鎖,,,2015-10-05,1,,,,,,0
1246,5090001001785,登記記録の閉鎖等,0,2026-02-02,2026-01-27,株式会社ビューポイント,,株式会社,山梨県,甲府市,徳行５丁目１２番１５号,,19,201,4000047,,,2026-01-27,登記官による閉鎖,,,2015-10-05,1,,,,,,0
1247,5090001001835,登記記録の閉鎖等,0,2026-02-02,2026-01-27,株式会社ファースト工芸,,株式会社,山梨県,甲府市,城東２丁目１７番２１号,,19,201,4000861,,,2026-01-27,登記官による閉鎖,,,2015-10-05,1,,,,,,0
1248,5090001002049,登記記録の閉鎖等,0,2026-02-02,2026-01-27,株式会社マルシンニツト,,株式会社,山梨県,甲府市,上石田２丁目３０番３号,,19,201,4000041,,,2026-01-27,登記官による閉鎖,,,2015-10-05,1,,,,,,0
1249,5090001002065,登記記録の閉鎖等,0,2026-02-02,2026-01-27,株式会社丸善白木屋,,株式会社,山梨県,甲府市,丸の内１丁目８番１２号,,19,201,4000031,,,2026-01-27,登記官による閉鎖,,,2015-10-05,1,,,,,,0
1250,5090001002478,登記記録の閉鎖等,0,2026-02-02,2026-01-27,株式会社リンク,,株式会社,山梨県,甲府市,増坪町８２３番地,,19,201,4000832,,,2026-01-27,登記官による閉鎖,,,2015-10-05,1,,,,,,0
1251,5090001002494,登記記録の閉鎖等,0,2026-02-02,2026-01-27,株式会社レガート,,株式会社,山梨県,甲府市,北新２丁目１５番８号,,19,201,4000005,,,2026-01-27,登記官による閉鎖,,,2015-10-05,1,,,,,,0
1252,5090001002503,登記記録の閉鎖等,0,2026-02-02,2026-01-27,ロイヤル電子株式会社,,株式会社,山梨県,甲府市,貢川２丁目８番１１号,,19,201,4000065,,,2026-01-27,登記官による閉鎖,,,2015-10-05,1,,,,,,0
1253,5090001002833,登記記録の閉鎖等,0,2026-02-02,2026-01-27,山梨物産株式会社,,株式会社,山梨県,甲斐市,中下条２１７番地の１,,19,210,4000124,,,2026-01-27,登記官による閉鎖,,,2015-10-05,1,,,,,,0
1254,5090001002841,登記記録の閉鎖等,0,2026-02-02,2026-01-27,株式会社アルプス酒販,,株式会社,山梨県,中央市,山之神１１２２番地,,19,214,4093845,,,2026-01-27,登記官による閉鎖,,,2015-10-05,1,,,,,,0
1255,5090001003146,登記記録の閉鎖等,0,2026-02-02,2026-01-27,株式会社日本ジュエリー工房,,株式会社,山梨県,中巨摩郡昭和町,清水新居１２３６番２,,19,384,4093867,,,2026-01-27,登記官による閉鎖,,,2015-10-05,1,,,,,,0
1256,5090001003253,登記記録の閉鎖等,0,2026-02-02,2026-01-27,株式会社トリプルエー,,株式会社,山梨県,甲府市,美咲１丁目１４番１２号,,19,201,4000007,,,2026-01-27,登記官による閉鎖,,,2015-10-05,1,,,,,,0
1257,5090001003360,登記記録の閉鎖等,0,2026-02-02,2026-01-27,株式会社エーワン商事,,株式会社,山梨県,甲府市,城東３丁目１７番１１号,,19,201,4000861,,,2026-01-27,登記官による閉鎖,,,2015-10-05,1,,,,,,0
1258,5090001003435,登記記録の閉鎖等,0,2026-02-02,2026-01-27,株式会社ケイ・ケイ・インベストメント,,株式会社,山梨県,甲府市,丸の内２丁目２８番１６号秋山ビル２－Ａ,,19,201,4000031,,,2026-01-27,登記官による閉鎖,,,2015-10-05,1,,,,,,0
1259,5090001003501,登記記録の閉鎖等,0,2026-02-02,2026-01-27,株式会社南関東開発,,株式会社,山梨県,甲府市,小瀬町１３１９番地１,,19,201,4000836,,,2026-01-27,登記官による閉鎖,,,2015-10-05,1,,,,,,0
1260,5090001003567,登記記録の閉鎖等,0,2026-02-02,2026-01-27,海友物産株式会社,,株式会社,山梨県,中巨摩郡昭和町,西条１６３１番地,,19,384,4093866,,,2026-01-27,登記官による閉鎖,,,2015-10-05,1,,,,,,0
1261,5090001004862,登記記録の閉鎖等,0,2026-02-02,2026-01-27,巨摩不動産株式会社,,株式会社,山梨県,南アルプス市,小笠原１６５４番地,,19,208,4000306,,,2026-01-27,登記官による閉鎖,,,2015-10-05,1,,,,,,0
1262,5090001004904,登記記録の閉鎖等,0,2026-02-02,2026-01-27,株式会社白根染工,,株式会社,山梨県,南アルプス市,下今諏訪３９９番地,,19,208,4000212,,,2026-01-27,登記官による閉鎖,,,2015-10-05,1,,,,,,0
1263,5090001005118,登記記録の閉鎖等,0,2026-02-02,2026-01-27,株式会社カタダ,,株式会社,山梨県,中央市,浅利２３８８番地,,19,214,4001514,,,2026-01-27,登記官による閉鎖,,,2015-10-05,1,,,,,,0
1264,5090001006017,登記記録の閉鎖等,0,2026-02-02,2026-01-27,株式会社斎藤エンジニア,,株式会社,山梨県,笛吹市,八代町北１６６０番地,,19,211,4060821,,,2026-01-27,登記官による閉鎖,,,2015-10-05,1,,,,,,0
1265,5090001006685,登記記録の閉鎖等,0,2026-02-02,2026-01-27,株式会社薄葉企画,,株式会社,山梨県,中央市,木原７５８番地３１,,19,214,4001511,,,2026-01-27,登記官による閉鎖,,,2015-10-05,1,,,,,,0
1266,5090001007254,登記記録の閉鎖等,0,2026-02-02,2026-01-27,株式会社サムウェル,,株式会社,山梨県,甲府市,里吉１丁目１１番２０号タウンハイツ甲府ＩＩ２１１号,00068730,19,201,4000822,,,2026-01-27,登記官による閉鎖,,,2015-10-05,1,,,,,,0
1267,5090001007956,登記記録の閉鎖等,0,2026-02-02,2026-01-27,株式会社ソノパック,,株式会社,山梨県,大月市,大月町真木２３８１番地,,19,206,4010016,,,2026-01-27,登記官による閉鎖,,,2015-10-05,1,,,,,,0
1268,5090001007980,登記記録の閉鎖等,0,2026-02-02,2026-01-27,鳥沢秋山建設株式会社,,株式会社,山梨県,大月市,富浜町鳥沢２６１４番地の１０,,19,206,4090502,,,2026-01-27,登記官による閉鎖,,,2015-10-05,1,,,,,,0
1269,5090001008046,登記記録の閉鎖等,0,2026-02-02,2026-01-27,株式会社渡辺電化センター,00068758,株式会社,山梨県,大月市,大月１丁目１１番１９号,,19,206,4010013,,,2026-01-27,登記官による閉鎖,,,2015-10-05,1,,,,,,0
1270,5090001008095,登記記録の閉鎖等,0,2026-02-02,2026-01-27,株式会社甲斐機構,,株式会社,山梨県,上野原市,四方津２２８３番地,,19,212,4090121,,,2026-01-27,登記官による閉鎖,,,2015-10-05,1,,,,,,0
1271,5090001008509,登記記録の閉鎖等,0,2026-02-02,2026-01-27,株式会社望川館,,株式会社,山梨県,南都留郡道志村,７７５０番地,,19,422,4020200,,,2026-01-27,登記官による閉鎖,,,2015-10-05,1,,,,,,0
1272,5090001008541,登記記録の閉鎖等,0,2026-02-02,2026-01-27,渡邉電気工事株式会社,00068767,株式会社,山梨県,都留市,田野倉１２８８番地３,,19,204,4020001,,,2026-01-27,登記官による閉鎖,,,2015-10-05,1,,,,,,0
1273,5090001008847,登記記録の閉鎖等,0,2026-02-02,2026-01-27,株式会社アークロイヤル,,株式会社,山梨県,山梨市,大野１９８７番地,,19,205,4050016,,,2026-01-27,登記官による閉鎖,,,2015-10-05,1,,,,,,0
1274,5090001008896,登記記録の閉鎖等,0,2026-02-02,2026-01-27,株式会社コンピューターシステム,,株式会社,山梨県,山梨市,上神内川１１３６番地,,19,205,4050018,,,2026-01-27,登記官による閉鎖,,,2015-10-05,1,,,,,,0
1275,5090001009548,登記記録の閉鎖等,0,2026-02-02,2026-01-27,株式会社アヴァンティ,,株式会社,山梨県,富士吉田市,緑ケ丘２丁目４番２３号,,19,202,4030013,,,2026-01-27,登記官による閉鎖,,,2015-10-05,1,,,,,,0
1276,5090001009630,登記記録の閉鎖等,0,2026-02-02,2026-01-27,柏木商事株式会社,,株式会社,山梨県,南都留郡富士河口湖町,船津６７１３番地,,19,430,4010301,,,2026-01-27,登記官による閉鎖,,,2015-10-05,1,,,,,,0
1277,5090001009688,登記記録の閉鎖等,0,2026-02-02,2026-01-27,株式会社グローバルテニスソサイエティジャパン,,株式会社,山梨県,南都留郡山中湖村,山中３５２番１,,19,425,4010501,,,2026-01-27,登記官による閉鎖,,,2015-10-05,1,,,,,,0
1278,5090001009738,登記記録の閉鎖等,0,2026-02-02,2026-01-27,甲陽商事株式会社,,株式会社,山梨県,南都留郡山中湖村,山中３４番地,,19,425,4010501,,,2026-01-27,登記官による閉鎖,,,2015-10-05,1,,,,,,0
1279,5090001009878,登記記録の閉鎖等,0,2026-02-02,2026-01-27,株式会社ディオール,,株式会社,山梨県,富士吉田市,上吉田３０３１番地の１,,19,202,4030005,,,2026-01-27,登記官による閉鎖,,,2015-10-05,1,,,,,,0
1280,5090001009886,登記記録の閉鎖等,0,2026-02-02,2026-01-27,株式会社遠山土建,,株式会社,山梨県,富士吉田市,上暮地７丁目２番７号,,19,202,4030001,,,2026-01-27,登記官による閉鎖,,,2015-10-05,1,,,,,,0
1281,5090001009993,登記記録の閉鎖等,0,2026-02-02,2026-01-27,富士不動産株式会社,,株式会社,山梨県,南都留郡富士河口湖町,船津字地蔵丸尾５１６５番地７,,19,430,4010301,,,2026-01-27,登記官による閉鎖,,,2015-10-05,1,,,,,,0
1282,5090001010002,登記記録の閉鎖等,0,2026-02-02,2026-01-27,富士恒産株式会社,,株式会社,山梨県,富士吉田市,上吉田７丁目１番１４号,,19,202,4030005,,,2026-01-27,登記官による閉鎖,,,2015-10-05,1,,,,,,0
1283,5090001010349,登記記録の閉鎖等,0,2026-02-02,2026-01-27,株式会社ピーグレス,,株式会社,山梨県,南都留郡山中湖村,旭ヶ丘５０６－４０４,,19,425,4010500,,,2026-01-27,登記官による閉鎖,,,2015-10-05,1,,,,,,0
1284,5090001011033,登記記録の閉鎖等,0,2026-02-02,2026-01-27,株式会社小澤喜之輔商店,,株式会社,山梨県,韮崎市,中央町１番１４号,,19,207,4070023,,,2026-01-27,登記官による閉鎖,,,2015-10-05,1,,,,,,0
1285,5090001011108,登記記録の閉鎖等,0,2026-02-02,2026-01-27,信用工業株式会社,,株式会社,山梨県,韮崎市,大草町若尾３３３番地,,19,207,4070037,,,2026-01-27,登記官による閉鎖,,,2015-10-05,1,,,,,,0
1286,5090001011140,登記記録の閉鎖等,0,2026-02-02,2026-01-27,東和エンジニアリング株式会社,,株式会社,山梨県,北杜市,須玉町穴平１６９７番地,,19,209,4080111,,,2026-01-27,登記官による閉鎖,,,2015-10-05,1,,,,,,0
1287,5090001011306,登記記録の閉鎖等,0,2026-02-02,2026-01-27,信和建設株式会社,,株式会社,山梨県,北杜市,長坂町大八田１７３２番地１,,19,209,4080034,,,2026-01-27,登記官による閉鎖,,,2015-10-05,1,,,,,,0
1288,5090002002642,登記記録の閉鎖等,0,2026-02-02,2026-01-27,有限会社ファースト設備図工,,有限会社,山梨県,甲府市,里吉１丁目７番３８号,,19,201,4000822,,,2026-01-27,登記官による閉鎖,,,2015-10-05,1,,,,,,0
1289,5090002003335,登記記録の閉鎖等,0,2026-02-02,2026-01-27,有限会社ユーエス教育センター,,有限会社,山梨県,甲斐市,篠原７９８番地３,,19,210,4000115,,,2026-01-27,登記官による閉鎖,,,2015-10-05,1,,,,,,0
1290,5090002007864,登記記録の閉鎖等,0,2026-02-02,2026-01-27,有限会社ラメール,,有限会社,山梨県,南アルプス市,桃園１３３２番地６,,19,208,4000301,,,2026-01-27,登記官による閉鎖,,,2015-10-05,1,,,,,,0
1291,5090002013846,登記記録の閉鎖等,0,2026-02-02,2026-01-27,有限会社ビルダーズハウス,,有限会社,山梨県,北杜市,白州町鳥原３０番地,,19,209,4080316,,,2026-01-27,登記官による閉鎖,,,2015-10-05,1,,,,,,0
1292,5090002015561,登記記録の閉鎖等,0,2026-02-02,2026-01-27,有限会社佐野設工,,有限会社,山梨県,甲府市,寿町１４番１３号,,19,201,4000033,,,2026-01-27,登記官による閉鎖,,,2015-10-05,1,,,,,,0
1293,5090005000486,登記記録の閉鎖等,0,2026-02-02,2026-01-27,山梨県ニット工業組合,,その他の設立登記法人,山梨県,南アルプス市,荊沢１１１８番地,,19,208,4000422,,,2026-01-27,登記官による閉鎖,,,2015-10-05,1,,,,,,0
1294,5090005005618,登記記録の閉鎖等,0,2026-02-02,2026-01-27,市川大門町商業協同組合,,その他の設立登記法人,山梨県,西八代郡市川三郷町,市川大門９１５番地,,19,346,4093601,,,2026-01-27,登記官による閉鎖,,,2015-10-05,1,,,,,,0
1297,5110001012466,登記記録の閉鎖等,0,2026-02-02,2026-01-29,石山商事株式会社,,株式会社,新潟県,新発田市,大栄町４丁目３番２８号,,15,206,9570056,,,2026-01-29,清算の結了等,,,2015-10-05,1,,,,,イシヤマショウジ,0
1299,5110001034452,登記記録の閉鎖等,0,2026-02-02,2026-01-28,スイートポーク・ラボ株式会社,,株式会社,新潟県,新潟市中央区,竜が島１丁目５番１号,,15,103,9500072,,,2026-01-28,清算の結了等,,,2019-12-03,1,,,,,スイートポークラボ,0
1304,5120001130036,登記記録の閉鎖等,0,2026-02-02,2026-01-28,株式会社ＯＲＳ,,株式会社,兵庫県,川西市,久代３丁目６番１号プロロジスパーク川西,,28,217,6660024,,,2026-01-28,合併による解散等,1122001028973,令和８年１月１日東京都文京区小石川二丁目２２番２号楽天ブックスネットワーク株式会社（1122001028973）に合併し解散,2015-10-05,1,,,,,オーアールエス,0
1318,5130001014551,登記記録の閉鎖等,0,2026-02-02,2026-01-28,三昌株式会社,,株式会社,京都府,京都市伏見区,新町７丁目４６３番地２,,26,109,6128081,,,2026-01-28,清算の結了等,,,2015-10-05,1,,,,,サンショウ,0
1320,5140001037931,登記記録の閉鎖等,0,2026-02-02,2026-01-07,ＰｌｅａｓｕｒｅＯｒｃｈｅｓｔｒａ株式会社,,株式会社,東京都,港区,麻布十番１丁目３番９号ＴＢＣ麻布７階７０１号室,,13,103,1060045,,,2026-01-07,清算の結了等,,,2015-10-05,1,,,,,プレジャーオーケストラ,0
1339,5180002090579,登記記録の閉鎖等,0,2026-02-02,2026-01-28,有限会社惟信組,,有限会社,愛知県,弥富市,馬ケ地２丁目１２２番地,,23,235,4901412,,,2026-01-28,清算の結了等,,,2015-10-05,1,,,,,イシングミ,0
1346,5190002017069,登記記録の閉鎖等,0,2026-02-02,2026-01-29,有限会社フジワラ,,有限会社,三重県,桑名市,南魚町５０番地,,24,205,5110088,,,2026-01-29,清算の結了等,,,2015-10-05,1,,,,,フジワラ,0
1352,5230005000728,登記記録の閉鎖等,0,2026-02-02,2026-01-29,富山駅周辺開発協同組合,,その他の設立登記法人,富山県,富山市,総曲輪２丁目１番３号,,16,201,9300083,,,2026-01-29,清算の結了等,,,2015-10-05,1,,,,,トヤマエキシュウヘンカイハツ,0
1353,5240001030777,登記記録の閉鎖等,0,2026-02-02,2026-01-30,三美商事株式会社,,株式会社,広島県,福山市,三吉町４丁目１番１号,,34,207,7200031,,,2026-01-30,清算の結了等,,,2015-10-05,1,,,,,ミツビショウジ,0
1354,5240001031206,登記記録の閉鎖等,0,2026-02-02,2026-01-20,大陽新聞印刷株式会社,,株式会社,広島県,福山市,西神島町３７３番地の１,,34,207,7210000,,,2026-01-20,登記官による閉鎖,,,2015-10-05,1,,,,,,1
1389,5370001041084,登記記録の閉鎖等,0,2026-02-02,2026-01-27,株式会社リール,,株式会社,宮城県,仙台市太白区,長町南３丁目８番２８号,,04,104,9820012,,,2026-01-27,清算の結了等,,,2017-03-08,1,,,,,リール,0
1391,5380002014195,登記記録の閉鎖等,0,2026-02-02,2026-01-28,有限会社ヒグチ運輸,,有限会社,福島県,郡山市,逢瀬町多田野字河田堀４１番地の１,00083640,07,203,9630213,,,2026-01-28,清算の結了等,,,2015-10-05,1,,,,,,0
1392,5380003000582,登記記録の閉鎖等,0,2026-02-02,2026-01-23,合資会社ＦＰかだん,,合資会社,福島県,郡山市,大槻町字南八耕地１９番地２－３０８,,07,203,9630201,,,2026-01-23,清算の結了等,,,2015-10-05,1,,,,,エフピーカダン,0
1396,5420002013580,登記記録の閉鎖等,0,2026-02-02,2026-01-13,有限会社相馬商店,,有限会社,青森県,平川市,猿賀石林９８番地１,,02,210,0360242,,,2026-01-13,合併による解散等,4420001013797,令和８年１月１日青森県北津軽郡板柳町大字大俵字富永３２番２アグロ・青森株式会社（4420001013797）に合併し解散,2015-10-05,1,,,,,ソウマショウテン,0
1398,5430001054484,登記記録の閉鎖等,0,2026-02-02,2026-01-28,株式会社テーオーシー,,株式会社,北海道,苫小牧市,新中野町３丁目１２番１４号,,01,213,0530006,,,2026-01-28,清算の結了等,,,2015-10-05,1,,,,,テーオーシー,0
1405,5470002005912,登記記録の閉鎖等,0,2026-02-02,2026-01-23,有限会社藤原ファニチャー,,有限会社,香川県,高松市,屋島西町１９４６番地６,,37,201,7610113,,,2026-01-23,清算の結了等,,,2015-10-05,1,,,,,フジワラファニチャー,0
1407,5480002011067,登記記録の閉鎖等,0,2026-02-02,2026-01-30,有限会社江上電機商会,,有限会社,徳島県,板野郡北島町,鯛浜字原８６番地の２,,36,402,7710204,,,2026-01-30,清算の結了等,,,2015-10-05,1,,,,,エガミデンキショウカイ,0
1411,6010001098374,登記記録の閉鎖等,0,2026-02-02,2026-01-08,株式会社由紀ＦＣ,,株式会社,東京都,渋谷区,神宮前２丁目２番３９号,,13,113,1500001,,,2026-01-08,清算の結了等,,,2015-10-05,1,,,,,ユキエフシー,0
1422,6010002017861,登記記録の閉鎖等,0,2026-02-02,2026-01-22,有限会社エステイケイ,,有限会社,東京都,墨田区,菊川３丁目６番６－９０５号,,13,107,1300024,,,2026-01-22,清算の結了等,,,2015-10-05,1,,,,,エスティケイ,0
1431,6010405021163,登記記録の閉鎖等,0,2026-02-02,2026-01-06,ＲＢソーラーケープホールディングス一般社団法人,,その他の設立登記法人,東京都,港区,虎ノ門３丁目２２番１０－２０１号,,13,103,1050001,,,2026-01-06,清算の結了等,,,2022-07-06,1,,,,,アールビーソーラーケープホールディングス,0
1435,6010502012247,登記記録の閉鎖等,0,2026-02-02,2026-01-20,有限会社米澤貴金属彫刻所,,有限会社,東京都,台東区,竜泉１丁目９番１号,,13,106,1100012,,,2026-01-20,清算の結了等,,,2015-10-05,1,,,,,ヨネザワキキンゾクチョウコクショ,0
1436,6010503004433,登記記録の閉鎖等,0,2026-02-02,2026-01-20,朝雪合同会社,,合同会社,東京都,台東区,台東１丁目２９番３号イースタンクロスアキバ３階,,13,106,1100016,,,2026-01-20,清算の結了等,,,2015-10-05,1,,,,,アサユキ,0
1452,6011001154431,登記記録の閉鎖等,0,2026-02-02,2026-01-06,Ｄｉｒｔｙ４株式会社,,株式会社,東京都,港区,三田２丁目４番３号ＴＨＥＣＯＮＯＥ三田綱町２０１,,13,103,1080073,,,2026-01-06,清算の結了等,,,2023-05-16,1,,,,,ダーティーフォー,0
1463,6011105000416,登記記録の閉鎖等,0,2026-02-02,2026-01-28,公益社団法人医療・病院管理研究協会,,その他の設立登記法人,東京都,新宿区,新宿１丁目２９番８号,,13,104,1600022,,,2026-01-28,清算の結了等,,,2015-10-05,1,,,,,イリョウビョウインカンリケンキュウキョウカイ,0
1465,6011501031428,登記記録の閉鎖等,0,2026-02-02,2026-01-29,株式会社ＢＥＴ,,株式会社,東京都,北区,王子５丁目１番１－１１２９号,,13,117,1140002,,,2026-01-29,清算の結了等,,,2024-12-04,1,,,,,ビーイーティー,0
1466,6011602022400,登記記録の閉鎖等,0,2026-02-02,2026-01-28,有限会社高橋デザインオフィス,00056344,有限会社,東京都,練馬区,南田中３丁目２８番１２号,,13,120,1770035,,,2026-01-28,清算の結了等,,,2015-10-05,1,,,,,タカハシデザインオフィス,0
1477,6013301024776,登記記録の閉鎖等,0,2026-02-02,2026-01-28,株式会社イシン・イケブクロ・オペレーションズ,,株式会社,東京都,豊島区,東池袋１丁目３９番４号,,13,116,1700013,,,2026-01-28,合併による解散等,4010401116076,令和８年１月１日東京都文京区本郷一丁目２５番２７号株式会社イシン・スイドウバシ・オペレーションズ（4010401116076）に合併し解散,2015-10-05,1,,,,,イシンイケブクロオペレーションズ,0
1485,6020002032843,登記記録の閉鎖等,0,2026-02-02,2026-01-21,有限会社オフィース・ティー,,有限会社,神奈川県,横浜市港北区,大倉山５丁目３６番２４号,,14,109,2220037,,,2026-01-21,清算の結了等,,,2015-10-05,1,,,,,オフィースティー,0
1486,6020003017835,登記記録の閉鎖等,0,2026-02-02,2026-01-13,合同会社コードネームズ,,合同会社,神奈川県,横浜市保土ケ谷区,東川島町３５－４６,,14,106,2400041,,,2026-01-13,清算の結了等,,,2020-05-11,1,,,,,コードネームズ,0
1515,6040001111687,登記記録の閉鎖等,0,2026-02-02,2026-01-06,株式会社ナックス,,株式会社,千葉県,市川市,塩浜２丁目３３番１号,,12,203,2720127,,,2026-01-06,清算の結了等,,,2019-12-04,1,,,,,ナックス,0
1530,6080102020420,登記記録の閉鎖等,0,2026-02-02,2026-01-28,有限会社フローラ,,有限会社,静岡県,伊東市,湯川４０９番地の１,,22,208,4140002,,,2026-01-28,清算の結了等,,,2015-10-05,1,,,,,フローラ,0
1532,6090001000225,登記記録の閉鎖等,0,2026-02-02,2026-01-27,上田工業株式会社,,株式会社,山梨県,甲府市,貢川本町１８番１４号,,19,201,4000048,,,2026-01-27,登記官による閉鎖,,,2015-10-05,1,,,,,,0
1533,6090001000290,登記記録の閉鎖等,0,2026-02-02,2026-01-27,株式会社エヌエフシステム,,株式会社,山梨県,甲府市,岩窪町１１９番地３,,19,201,4000013,,,2026-01-27,登記官による閉鎖,,,2015-10-05,1,,,,,,0
1534,6090001000539,登記記録の閉鎖等,0,2026-02-02,2026-01-27,株式会社キョウワ,,株式会社,山梨県,甲府市,大手３丁目１番１号,,19,201,4000015,,,2026-01-27,登記官による閉鎖,,,2015-10-05,1,,,,,,0
1535,6090001000712,登記記録の閉鎖等,0,2026-02-02,2026-01-27,株式会社甲信,,株式会社,山梨県,甲府市,城東３丁目１番１４号,,19,201,4000861,,,2026-01-27,登記官による閉鎖,,,2015-10-05,1,,,,,,0
1536,6090001000885,登記記録の閉鎖等,0,2026-02-02,2026-01-27,株式会社榊原,00068682,株式会社,山梨県,甲府市,青沼１丁目１４番１２号,,19,201,4000867,,,2026-01-27,登記官による閉鎖,,,2015-10-05,1,,,,,,0
1537,6090001000919,登記記録の閉鎖等,0,2026-02-02,2026-01-27,佐々木食品株式会社,,株式会社,山梨県,甲府市,平瀬町３２１１番地,,19,201,4000083,,,2026-01-27,登記官による閉鎖,,,2015-10-05,1,,,,,,0
1538,6090001000935,登記記録の閉鎖等,0,2026-02-02,2026-01-27,株式会社佐渡町駐車場,,株式会社,山梨県,甲府市,相生２丁目１５番１号,,19,201,4000858,,,2026-01-27,登記官による閉鎖,,,2015-10-05,1,,,,,,0
1539,6090001001025,登記記録の閉鎖等,0,2026-02-02,2026-01-27,株式会社シンキング,,株式会社,山梨県,甲府市,酒折町１３３７番地５３,,19,201,4000804,,,2026-01-27,登記官による閉鎖,,,2015-10-05,1,,,,,,0
1540,6090001001421,登記記録の閉鎖等,0,2026-02-02,2026-01-27,司工業株式会社,,株式会社,山梨県,甲府市,徳行４丁目９番１５号,,19,201,4000047,,,2026-01-27,登記官による閉鎖,,,2015-10-05,1,,,,,,0
1541,6090001001479,登記記録の閉鎖等,0,2026-02-02,2026-01-27,株式会社トーコー,,株式会社,山梨県,甲府市,東光寺町２１１３番地３１,,19,201,4000808,,,2026-01-27,登記官による閉鎖,,,2015-10-05,1,,,,,,0
1542,6090001001487,登記記録の閉鎖等,0,2026-02-02,2026-01-27,東京ユニツク株式会社,,株式会社,山梨県,甲府市,徳行２丁目９番２４号,,19,201,4000047,,,2026-01-27,登記官による閉鎖,,,2015-10-05,1,,,,,,0
1543,6090001001545,登記記録の閉鎖等,0,2026-02-02,2026-01-27,トラベル・エース株式会社,,株式会社,山梨県,甲府市,下飯田２丁目３番２０号,,19,201,4000064,,,2026-01-27,登記官による閉鎖,,,2015-10-05,1,,,,,,0
1544,6090001001669,登記記録の閉鎖等,0,2026-02-02,2026-01-27,株式会社日建機械,,株式会社,山梨県,甲府市,下石田２丁目２５番１３号,,19,201,4000046,,,2026-01-27,登記官による閉鎖,,,2015-10-05,1,,,,,,0
1545,6090001001842,登記記録の閉鎖等,0,2026-02-02,2026-01-27,フカサワ産業株式会社,,株式会社,山梨県,甲府市,増坪町７４番地,,19,201,4000832,,,2026-01-27,登記官による閉鎖,,,2015-10-05,1,,,,,,0
1546,6090001001859,登記記録の閉鎖等,0,2026-02-02,2026-01-27,株式会社フジクローラ,,株式会社,山梨県,甲府市,中小河原町４８３番地,,19,201,4000854,,,2026-01-27,登記官による閉鎖,,,2015-10-05,1,,,,,,0
1547,6090001001958,登記記録の閉鎖等,0,2026-02-02,2026-01-27,宝栄興業株式会社,,株式会社,山梨県,甲府市,伊勢４丁目２６番９号,,19,201,4000856,,,2026-01-27,登記官による閉鎖,,,2015-10-05,1,,,,,,0
1548,6090001002147,登記記録の閉鎖等,0,2026-02-02,2026-01-27,明治開発株式会社,,株式会社,山梨県,甲府市,中央４丁目３番２号,,19,201,4000032,,,2026-01-27,登記官による閉鎖,,,2015-10-05,1,,,,,,0
1549,6090001002361,登記記録の閉鎖等,0,2026-02-02,2026-01-27,株式会社山貴商事,,株式会社,山梨県,甲府市,国母１丁目２２番４号,,19,201,4000043,,,2026-01-27,登記官による閉鎖,,,2015-10-05,1,,,,,,0
1550,6090001002642,登記記録の閉鎖等,0,2026-02-02,2026-01-27,太陽電器株式会社,,株式会社,山梨県,甲府市,中央２丁目５番２７号サンパーラー中央,,19,201,4000032,,,2026-01-27,登記官による閉鎖,,,2015-10-05,1,,,,,,0
1551,6090001002741,登記記録の閉鎖等,0,2026-02-02,2026-01-27,株式会社山梨工業,,株式会社,山梨県,甲斐市,篠原８０３番地,,19,210,4000115,,,2026-01-27,登記官による閉鎖,,,2015-10-05,1,,,,,,0
1552,6090001002849,登記記録の閉鎖等,0,2026-02-02,2026-01-27,栄進商事株式会社,,株式会社,山梨県,中央市,山之神流通団地三丁目４の２,,19,214,4093845,,,2026-01-27,登記官による閉鎖,,,2015-10-05,1,,,,,,0
1553,6090001003079,登記記録の閉鎖等,0,2026-02-02,2026-01-27,株式会社クリエート宅間,,株式会社,山梨県,中巨摩郡昭和町,清水新居９２２番地の３,,19,384,4093867,,,2026-01-27,登記官による閉鎖,,,2015-10-05,1,,,,,,0
1554,6090001003335,登記記録の閉鎖等,0,2026-02-02,2026-01-27,株式会社サン・アクア甲府,,株式会社,山梨県,甲府市,池田１丁目１１番２７号,,19,201,4000062,,,2026-01-27,登記官による閉鎖,,,2015-10-05,1,,,,,,0
1555,6090001003376,登記記録の閉鎖等,0,2026-02-02,2026-01-27,株式会社カタヤマトレーディング,,株式会社,山梨県,中巨摩郡昭和町,飯喰１３０４番地１,,19,384,4093852,,,2026-01-27,登記官による閉鎖,,,2015-10-05,1,,,,,,0
1556,6090001003483,登記記録の閉鎖等,0,2026-02-02,2026-01-27,株式会社コスモウエィブ山梨,,株式会社,山梨県,甲府市,下石田２丁目１５番４号,,19,201,4000046,,,2026-01-27,登記官による閉鎖,,,2015-10-05,1,,,,,,0
1557,6090001003500,登記記録の閉鎖等,0,2026-02-02,2026-01-27,株式会社未来社,,株式会社,山梨県,甲斐市,島上条１２７８番地４,,19,210,4000123,,,2026-01-27,登記官による閉鎖,,,2015-10-05,1,,,,,,0
1558,6090001003517,登記記録の閉鎖等,0,2026-02-02,2026-01-27,株式会社テンプランニング,,株式会社,山梨県,甲府市,酒折２丁目２番７号,,19,201,4000805,,,2026-01-27,登記官による閉鎖,,,2015-10-05,1,,,,,,0
1559,6090001004325,登記記録の閉鎖等,0,2026-02-02,2026-01-27,株式会社ナプラ,,株式会社,山梨県,中央市,山之神３６３２番地８,,19,214,4093845,,,2026-01-27,登記官による閉鎖,,,2015-10-05,1,,,,,,0
1560,6090001004911,登記記録の閉鎖等,0,2026-02-02,2026-01-27,白根実業株式会社,,株式会社,山梨県,南アルプス市,上今諏訪１５８９番地,,19,208,4000211,,,2026-01-27,登記官による閉鎖,,,2015-10-05,1,,,,,,0
1561,6090001004993,登記記録の閉鎖等,0,2026-02-02,2026-01-27,株式会社日建,,株式会社,山梨県,南アルプス市,下宮地１８３番地,,19,208,4000405,,,2026-01-27,登記官による閉鎖,,,2015-10-05,1,,,,,,0
1562,6090001005034,登記記録の閉鎖等,0,2026-02-02,2026-01-27,株式会社細倉建設,,株式会社,山梨県,南アルプス市,清水１０１番地,,19,208,4000417,,,2026-01-27,登記官による閉鎖,,,2015-10-05,1,,,,,,0
1563,6090001005067,登記記録の閉鎖等,0,2026-02-02,2026-01-27,村松工業株式会社,,株式会社,山梨県,南アルプス市,東南湖１２５番地,,19,208,4000412,,,2026-01-27,登記官による閉鎖,,,2015-10-05,1,,,,,,0
1564,6090001005133,登記記録の閉鎖等,0,2026-02-02,2026-01-27,第一製作所株式会社,,株式会社,山梨県,甲府市,白井町１３９８番地,,19,201,4001502,,,2026-01-27,登記官による閉鎖,,,2015-10-05,1,,,,,,0
1565,6090001006098,登記記録の閉鎖等,0,2026-02-02,2026-01-27,株式会社ニッセイフジミ,,株式会社,山梨県,笛吹市,八代町南４７２３番地１,,19,211,4060822,,,2026-01-27,登記官による閉鎖,,,2015-10-05,1,,,,,,0
1566,6090001007996,登記記録の閉鎖等,0,2026-02-02,2026-01-27,株式会社日本タフ,,株式会社,山梨県,大月市,大月町真木２０６２番地,,19,206,4010016,,,2026-01-27,登記官による閉鎖,,,2015-10-05,1,,,,,,0
1567,6090001008342,登記記録の閉鎖等,0,2026-02-02,2026-01-27,協和住販株式会社,,株式会社,山梨県,都留市,中央２丁目６番１６号,,19,204,4020052,,,2026-01-27,登記官による閉鎖,,,2015-10-05,1,,,,,,0
1568,6090001008937,登記記録の閉鎖等,0,2026-02-02,2026-01-27,株式会社中野興業,,株式会社,山梨県,山梨市,牧丘町杣口１５４１番地,,19,205,4040002,,,2026-01-27,登記官による閉鎖,,,2015-10-05,1,,,,,,0
1569,6090001009150,登記記録の閉鎖等,0,2026-02-02,2026-01-27,株式会社ナレッヂサービス,,株式会社,山梨県,甲州市,塩山赤尾６３２番地７,,19,213,4040033,,,2026-01-27,登記官による閉鎖,,,2015-10-05,1,,,,,,0
1570,6090001009258,登記記録の閉鎖等,0,2026-02-02,2026-01-27,山梨クリーン環境株式会社,,株式会社,山梨県,甲州市,勝沼町山坂下７３９番地の１,,19,213,4091306,,,2026-01-27,登記官による閉鎖,,,2015-10-05,1,,,,,,0
1571,6090001009605,登記記録の閉鎖等,0,2026-02-02,2026-01-27,株式会社小山田工業,,株式会社,山梨県,南都留郡富士河口湖町,船津２５１６番地の１１,,19,430,4010301,,,2026-01-27,登記官による閉鎖,,,2015-10-05,1,,,,,,0
1572,6090001009737,登記記録の閉鎖等,0,2026-02-02,2026-01-27,株式会社コスモプラスチック,,株式会社,山梨県,富士吉田市,新倉１６０８番地の１,,19,202,4030011,,,2026-01-27,登記官による閉鎖,,,2015-10-05,1,,,,,,0
1573,6090001009761,登記記録の閉鎖等,0,2026-02-02,2026-01-27,株式会社真田,,株式会社,山梨県,南都留郡山中湖村,平野５０８番地の１５５,,19,425,4010502,,,2026-01-27,登記官による閉鎖,,,2015-10-05,1,,,,,,0
1574,6090001009869,登記記録の閉鎖等,0,2026-02-02,2026-01-27,中央商事株式会社,,株式会社,山梨県,富士吉田市,下吉田２２６０番地,,19,202,4030004,,,2026-01-27,登記官による閉鎖,,,2015-10-05,1,,,,,,0
1575,6090001009927,登記記録の閉鎖等,0,2026-02-02,2026-01-27,株式会社ニッセイバンテック,,株式会社,山梨県,南都留郡鳴沢村,８５２９番地２８９,,19,429,4010320,,,2026-01-27,登記官による閉鎖,,,2015-10-05,1,,,,,,0
1576,6090001009968,登記記録の閉鎖等,0,2026-02-02,2026-01-27,株式会社東レジャー開発,,株式会社,山梨県,南都留郡忍野村,忍草４９０番地,,19,424,4010511,,,2026-01-27,登記官による閉鎖,,,2015-10-05,1,,,,,,0
1577,6090001009976,登記記録の閉鎖等,0,2026-02-02,2026-01-27,株式会社ピイ・アンド・デイ,,株式会社,山梨県,富士吉田市,竜ケ丘２丁目７番２８号,,19,202,4030014,,,2026-01-27,登記官による閉鎖,,,2015-10-05,1,,,,,,0
1578,6090001010067,登記記録の閉鎖等,0,2026-02-02,2026-01-27,富士忍野開発株式会社,,株式会社,山梨県,南都留郡忍野村,忍草９２５番地の１,,19,424,4010511,,,2026-01-27,登記官による閉鎖,,,2015-10-05,1,,,,,,0
1579,6090001011098,登記記録の閉鎖等,0,2026-02-02,2026-01-27,三和工業株式会社,,株式会社,山梨県,韮崎市,穂坂町三ツ澤２６３３番地,,19,207,4070174,,,2026-01-27,登記官による閉鎖,,,2015-10-05,1,,,,,,0
1580,6090001011180,登記記録の閉鎖等,0,2026-02-02,2026-01-27,株式会社広島,,株式会社,山梨県,韮崎市,中央町８番２０号,,19,207,4070023,,,2026-01-27,登記官による閉鎖,,,2015-10-05,1,,,,,,0
1581,6090001011643,登記記録の閉鎖等,0,2026-02-02,2026-01-27,中込建機株式会社,,株式会社,山梨県,韮崎市,若宮１丁目５番５号,,19,207,4070015,,,2026-01-27,登記官による閉鎖,,,2015-10-05,1,,,,,,0
1582,6090001011973,登記記録の閉鎖等,0,2026-02-02,2026-01-27,近藤建材株式会社,,株式会社,山梨県,南巨摩郡身延町,一色１００番地,,19,365,4092937,,,2026-01-27,登記官による閉鎖,,,2015-10-05,1,,,,,,0
1583,6090001012162,登記記録の閉鎖等,0,2026-02-02,2026-01-27,株式会社東陽,,株式会社,山梨県,南巨摩郡富士川町,舂米１２３６番地,,19,368,4000515,,,2026-01-27,登記官による閉鎖,,,2015-10-05,1,,,,,,0
1584,6090001012294,登記記録の閉鎖等,0,2026-02-02,2026-01-27,株式会社ふじや,,株式会社,山梨県,南巨摩郡身延町,丸滝５５３番地,,19,365,4092411,,,2026-01-27,登記官による閉鎖,,,2015-10-05,1,,,,,,0
1585,6090002000125,登記記録の閉鎖等,0,2026-02-02,2026-01-27,有限会社麻生工業,,有限会社,山梨県,甲斐市,篠原３９２番地１,,19,210,4000115,,,2026-01-27,登記官による閉鎖,,,2015-10-05,1,,,,,,0
1587,6090002005330,登記記録の閉鎖等,0,2026-02-02,2026-01-27,有限会社みらい,,有限会社,山梨県,中央市,東花輪２０９３番地Ａ棟,,19,214,4093842,,,2026-01-27,登記官による閉鎖,,,2015-10-05,1,,,,,,0
1588,6090002007013,登記記録の閉鎖等,0,2026-02-02,2026-01-27,有限会社韓一ジュエリー,,有限会社,山梨県,甲府市,向町４３４番地１,,19,201,4000813,,,2026-01-27,登記官による閉鎖,,,2015-10-05,1,,,,,,0
1589,6090002010000,登記記録の閉鎖等,0,2026-02-02,2026-01-27,有限会社熊井工務店,,有限会社,山梨県,上野原市,秋山９４２８番地,,19,212,4010201,,,2026-01-27,登記官による閉鎖,,,2015-10-05,1,,,,,,0
1590,6090002012104,登記記録の閉鎖等,0,2026-02-02,2026-01-27,有限会社自然楽,,有限会社,山梨県,南都留郡富士河口湖町,大石２１２３番地の８７,,19,430,4010305,,,2026-01-27,登記官による閉鎖,,,2015-10-05,1,,,,,,0
1598,6120001180278,登記記録の閉鎖等,0,2026-02-02,2026-01-29,株式会社インソムニア,,株式会社,大阪府,大阪市中央区,島之内１丁目４番３２号ホワイティ島之内５０３,,27,128,5420082,,,2026-01-29,清算の結了等,,,2015-10-05,1,,,,,インソムニア,0
1600,6120001256268,登記記録の閉鎖等,0,2026-02-02,2026-01-29,ＪＭＣ　Ｄａｔａ株式会社,,株式会社,大阪府,大阪市北区,大深町４番２０号グランフロント大阪タワーＡ２９階,,27,127,5300011,,,2026-01-29,清算の結了等,,,2023-07-11,1,,,,,ジェイエムシーデータ,0
1621,6140002001992,登記記録の閉鎖等,0,2026-02-02,2026-01-28,有限会社得寿堂,,有限会社,兵庫県,芦屋市,茶屋之町５番６－１０１号,,28,206,6590067,,,2026-01-28,清算の結了等,,,2015-10-05,1,,,,,トクジュドウ,0
1625,6160003002740,登記記録の閉鎖等,0,2026-02-02,2026-01-21,合同会社ウエストフロンティア,,合同会社,滋賀県,甲賀市,甲南町希望ケ丘本町５丁目８５７番地３６４,,25,209,5203332,,,2026-01-21,清算の結了等,,,2022-11-18,1,,,,,ウエストフロンティア,0
1634,6220001013048,登記記録の閉鎖等,0,2026-02-02,2026-01-29,株式会社稲熊組,,株式会社,石川県,加賀市,片山津町湖城２丁目１８番地,,17,206,9220414,,,2026-01-29,登記官による閉鎖,,,2015-10-05,1,,,,,,0
1652,6300001008056,登記記録の閉鎖等,0,2026-02-02,2026-01-29,株式会社九州村本舗,,株式会社,佐賀県,小城市,牛津町牛津１１番地６,,41,208,8490303,,,2026-01-29,清算の結了等,,,2015-10-05,1,,,,,キュウシュウムラホンポ,0
1663,6340001016823,登記記録の閉鎖等,0,2026-02-02,2026-01-29,株式会社地域彩生,,株式会社,鹿児島県,鹿児島市,星ヶ峯３丁目２９番８号,,46,201,8910102,,,2026-01-29,清算の結了等,,,2015-10-05,1,,,,,チイキサイセイ,0
1668,6360001015567,登記記録の閉鎖等,0,2026-02-02,2026-01-23,株式会社琉球機能診断センター,,株式会社,沖縄県,中頭郡西原町,字上原２０７号,,47,329,9030125,,,2026-01-23,清算の結了等,,,2015-10-05,1,,,,,リュウキュウキノウシンダンセンター,0
1672,6370002002506,登記記録の閉鎖等,0,2026-02-02,2026-01-29,有限会社大久保会計事務所,,有限会社,宮城県,仙台市太白区,長町南４丁目２５番３号,,04,104,9820012,,,2026-01-29,清算の結了等,,,2015-10-05,1,,,,,オオクボカイケイジムショ,0
1677,6400001007741,登記記録の閉鎖等,0,2026-02-02,2026-01-26,株式会社玉川商事,,株式会社,岩手県,二戸市,石切所字前田７３番地の１の２,,03,213,0286103,,,2026-01-26,清算の結了等,,,2015-10-05,1,,,,,タマカワショウジ,0
1679,6430001039988,登記記録の閉鎖等,0,2026-02-02,2026-01-27,株式会社クラブルートピア,,株式会社,北海道,札幌市中央区,北四条西１７丁目１番地６,,01,101,0600004,,,2026-01-27,清算の結了等,,,2015-10-05,1,,,,,クラブルートピア,0
1687,6500002022770,登記記録の閉鎖等,0,2026-02-02,2026-01-30,有限会社四国サービス,,有限会社,愛媛県,宇和島市,光満甲２３１番地１,,38,203,7980021,,,2026-01-30,清算の結了等,,,2015-10-05,1,,,,,シコクサービス,0
1698,7010002003679,登記記録の閉鎖等,0,2026-02-02,2026-01-05,有限会社高須印刷所,00049653,有限会社,東京都,文京区,関口１丁目３４番１２号,,13,105,1120014,,,2026-01-05,清算の結了等,,,2015-10-05,1,,,,,タカスインサツショ,0
1732,7011003011076,登記記録の閉鎖等,0,2026-02-02,2026-01-28,合同会社ｋｉｉｒｏ,,合同会社,静岡県,静岡市清水区,由比北田１０４,,22,103,4213104,,,2026-01-28,清算の結了等,,,2020-04-09,1,,,,,キイロ,0
1747,7013401002144,登記記録の閉鎖等,0,2026-02-02,2026-01-30,株式会社八雲,,株式会社,東京都,稲城市,平尾１１８５番地,,13,225,2060823,,,2026-01-30,登記官による閉鎖,,,2015-10-05,1,,,,,,0
1766,7030001032322,登記記録の閉鎖等,0,2026-02-02,2026-01-27,株式会社渡辺電気,,株式会社,埼玉県,久喜市,上早見３７番地１,,11,232,3460021,,,2026-01-27,清算の結了等,,,2015-10-05,1,,,,,ワタナベデンキ,0
1771,7030002012331,登記記録の閉鎖等,0,2026-02-02,2026-01-21,有限会社本郷工芸,,有限会社,埼玉県,さいたま市北区,今羽町１１４番地コスモ大宮ガーデンシティ４０８号,,11,102,3310801,,,2026-01-21,清算の結了等,,,2015-10-05,1,,,,,ホンゴウコウゲイ,0
1773,7030002119779,登記記録の閉鎖等,0,2026-02-02,2026-01-26,有限会社ビィピーエー,,有限会社,埼玉県,飯能市,大字阿須３６２番地,,11,209,3570046,,,2026-01-26,清算の結了等,,,2015-10-05,1,,,,,ビィピーエー,0
1807,7090001000141,登記記録の閉鎖等,0,2026-02-02,2026-01-27,株式会社石川,,株式会社,山梨県,甲府市,緑が丘１丁目１番２３号,,19,201,4000008,,,2026-01-27,登記官による閉鎖,,,2015-10-05,1,,,,,,0
1808,7090001000224,登記記録の閉鎖等,0,2026-02-02,2026-01-27,株式会社ウエストワン,,株式会社,山梨県,甲府市,住吉４丁目６番１８号,,19,201,4000851,,,2026-01-27,登記官による閉鎖,,,2015-10-05,1,,,,,,0
1809,7090001000298,登記記録の閉鎖等,0,2026-02-02,2026-01-27,株式会社エビス,,株式会社,山梨県,甲府市,徳行４丁目１４番１３号,,19,201,4000047,,,2026-01-27,登記官による閉鎖,,,2015-10-05,1,,,,,,0
1810,7090001000389,登記記録の閉鎖等,0,2026-02-02,2026-01-27,株式会社オノ,,株式会社,山梨県,甲府市,朝気３丁目１８番４号,,19,201,4000862,,,2026-01-27,登記官による閉鎖,,,2015-10-05,1,,,,,,0
1811,7090001000447,登記記録の閉鎖等,0,2026-02-02,2026-01-27,加賀工業株式会社,,株式会社,山梨県,甲府市,青沼１丁目５番７号,,19,201,4000867,,,2026-01-27,登記官による閉鎖,,,2015-10-05,1,,,,,,0
1812,7090001000463,登記記録の閉鎖等,0,2026-02-02,2026-01-27,株式会社関東アサヒ,,株式会社,山梨県,甲府市,宝１丁目１８番地１,,19,201,4000034,,,2026-01-27,登記官による閉鎖,,,2015-10-05,1,,,,,,0
1813,7090001000604,登記記録の閉鎖等,0,2026-02-02,2026-01-27,株式会社ビリオンジャパン,,株式会社,山梨県,中巨摩郡昭和町,西条４３３４番地,,19,384,4093866,,,2026-01-27,登記官による閉鎖,,,2015-10-05,1,,,,,,0
1814,7090001001172,登記記録の閉鎖等,0,2026-02-02,2026-01-27,スタート株式会社,,株式会社,山梨県,甲府市,上石田２丁目１番５号１－３０７,,19,201,4000041,,,2026-01-27,登記官による閉鎖,,,2015-10-05,1,,,,,,0
1815,7090001001412,登記記録の閉鎖等,0,2026-02-02,2026-01-27,朝陽貿易株式会社,,株式会社,山梨県,甲府市,湯村３丁目２３番２－１０４号,,19,201,4000073,,,2026-01-27,登記官による閉鎖,,,2015-10-05,1,,,,,,0
1816,7090001001445,登記記録の閉鎖等,0,2026-02-02,2026-01-27,株式会社ティ・エム・ストーン,,株式会社,山梨県,甲府市,下石田２丁目１５番１８号,,19,201,4000046,,,2026-01-27,登記官による閉鎖,,,2015-10-05,1,,,,,,0
1817,7090001001726,登記記録の閉鎖等,0,2026-02-02,2026-01-27,株式会社八晃不動産,,株式会社,山梨県,甲府市,丸の内１丁目１６番１０号,,19,201,4000031,,,2026-01-27,登記官による閉鎖,,,2015-10-05,1,,,,,,0
1818,7090001001932,登記記録の閉鎖等,0,2026-02-02,2026-01-27,富士商工リース株式会社,,株式会社,山梨県,甲府市,富竹２丁目４９４番地,,19,201,4000049,,,2026-01-27,登記官による閉鎖,,,2015-10-05,1,,,,,,0
1819,7090001002039,登記記録の閉鎖等,0,2026-02-02,2026-01-27,株式会社丸善,,株式会社,山梨県,甲府市,青葉町１１番３４号,,19,201,4000828,,,2026-01-27,登記官による閉鎖,,,2015-10-05,1,,,,,,0
1820,7090001002229,登記記録の閉鎖等,0,2026-02-02,2026-01-27,株式会社山梨生活科学研究所,,株式会社,山梨県,甲府市,相生２丁目４番１４号,,19,201,4000858,,,2026-01-27,登記官による閉鎖,,,2015-10-05,1,,,,,,0
1821,7090001002294,登記記録の閉鎖等,0,2026-02-02,2026-01-27,株式会社山梨トラベル,,株式会社,山梨県,甲府市,武田３丁目２番１８号,,19,201,4000016,,,2026-01-27,登記官による閉鎖,,,2015-10-05,1,,,,,,0
1822,7090001002377,登記記録の閉鎖等,0,2026-02-02,2026-01-27,株式会社山全,,株式会社,山梨県,甲府市,下飯田１丁目１１番１０号,,19,201,4000064,,,2026-01-27,登記官による閉鎖,,,2015-10-05,1,,,,,,0
1823,7090001002393,登記記録の閉鎖等,0,2026-02-02,2026-01-27,山菱工業株式会社,,株式会社,山梨県,甲府市,上今井町１２６番地の３,,19,201,4000845,,,2026-01-27,登記官による閉鎖,,,2015-10-05,1,,,,,,0
1824,7090001002674,登記記録の閉鎖等,0,2026-02-02,2026-01-27,日建住宅株式会社,,株式会社,山梨県,甲斐市,富竹新田３２４番地１,,19,210,4000113,,,2026-01-27,登記官による閉鎖,,,2015-10-05,1,,,,,,0
1825,7090001002682,登記記録の閉鎖等,0,2026-02-02,2026-01-27,株式会社西野電機工業,,株式会社,山梨県,甲斐市,竜王新町５番地の１,,19,210,4000111,,,2026-01-27,登記官による閉鎖,,,2015-10-05,1,,,,,,0
1826,7090001002781,登記記録の閉鎖等,0,2026-02-02,2026-01-27,株式会社クローズドシステムテクニカルクエスト,,株式会社,山梨県,甲斐市,大下条１０７９番地４,,19,210,4000126,,,2026-01-27,登記官による閉鎖,,,2015-10-05,1,,,,,,0
1827,7090001003350,登記記録の閉鎖等,0,2026-02-02,2026-01-27,株式会社オックス,,株式会社,山梨県,甲府市,山宮町３１９６番地の８,,19,201,4000075,,,2026-01-27,登記官による閉鎖,,,2015-10-05,1,,,,,,0
1828,7090001003375,登記記録の閉鎖等,0,2026-02-02,2026-01-27,アルファ・プロジェクト株式会社,,株式会社,山梨県,甲府市,和戸町９２０番地５－１０５号,,19,201,4000812,,,2026-01-27,登記官による閉鎖,,,2015-10-05,1,,,,,,0
1829,7090001003441,登記記録の閉鎖等,0,2026-02-02,2026-01-27,明和エコシステム株式会社,,株式会社,山梨県,甲府市,池田２丁目８番２１号,,19,201,4000062,,,2026-01-27,登記官による閉鎖,,,2015-10-05,1,,,,,,0
1830,7090001003458,登記記録の閉鎖等,0,2026-02-02,2026-01-27,株式会社エム・イー・システム,,株式会社,山梨県,中央市,中楯１１７３番地１,,19,214,4093801,,,2026-01-27,登記官による閉鎖,,,2015-10-05,1,,,,,,0
1831,7090001003516,登記記録の閉鎖等,0,2026-02-02,2026-01-27,日本プラネッツ株式会社,,株式会社,山梨県,甲府市,中央３丁目１０番２２号エル・ヴィーナ中央２０１号,,19,201,4000032,,,2026-01-27,登記官による閉鎖,,,2015-10-05,1,,,,,,0
1832,7090001004902,登記記録の閉鎖等,0,2026-02-02,2026-01-27,株式会社尚徳,,株式会社,山梨県,南アルプス市,十日市場９０５番地の１,,19,208,4000336,,,2026-01-27,登記官による閉鎖,,,2015-10-05,1,,,,,,0
1833,7090001005909,登記記録の閉鎖等,0,2026-02-02,2026-01-27,アピオ美石株式会社,,株式会社,山梨県,笛吹市,石和町広瀬１３７４番地２３,,19,211,4060035,,,2026-01-27,登記官による閉鎖,,,2015-10-05,1,,,,,,0
1834,7090001006023,登記記録の閉鎖等,0,2026-02-02,2026-01-27,三和産業株式会社,,株式会社,山梨県,笛吹市,八代町米倉１７２２番地６,,19,211,4060835,,,2026-01-27,登記官による閉鎖,,,2015-10-05,1,,,,,,0
1835,7090001006080,登記記録の閉鎖等,0,2026-02-02,2026-01-27,株式会社なかむら食品,,株式会社,山梨県,笛吹市,御坂町成田２７７４番地,,19,211,4060801,,,2026-01-27,登記官による閉鎖,,,2015-10-05,1,,,,,,0
1836,7090001006213,登記記録の閉鎖等,0,2026-02-02,2026-01-27,大和産商株式会社,,株式会社,山梨県,笛吹市,八代町竹居１９２８番地,,19,211,4060832,,,2026-01-27,登記官による閉鎖,,,2015-10-05,1,,,,,,0
1837,7090001006270,登記記録の閉鎖等,0,2026-02-02,2026-01-27,株式会社共栄建設工業,,株式会社,山梨県,笛吹市,御坂町成田２１２４番地２,,19,211,4060801,,,2026-01-27,登記官による閉鎖,,,2015-10-05,1,,,,,,0
1838,7090001006279,登記記録の閉鎖等,0,2026-02-02,2026-01-27,株式会社日本環境リバース,,株式会社,山梨県,笛吹市,石和町市部６０８番地,,19,211,4060031,,,2026-01-27,登記官による閉鎖,,,2015-10-05,1,,,,,,0
1839,7090001007896,登記記録の閉鎖等,0,2026-02-02,2026-01-27,株式会社長田工務店,,株式会社,山梨県,大月市,駒橋１丁目９番１０号,,19,206,4010011,,,2026-01-27,登記官による閉鎖,,,2015-10-05,1,,,,,,0
1840,7090001008044,登記記録の閉鎖等,0,2026-02-02,2026-01-27,ユニオン機材株式会社,,株式会社,山梨県,大月市,御太刀２丁目４番２５号,,19,206,4010012,,,2026-01-27,登記官による閉鎖,,,2015-10-05,1,,,,,,0
1841,7090001008390,登記記録の閉鎖等,0,2026-02-02,2026-01-27,株式会社シムラ,,株式会社,山梨県,都留市,四日市場２１６番地,,19,204,4020005,,,2026-01-27,登記官による閉鎖,,,2015-10-05,1,,,,,,0
1842,7090001008416,登記記録の閉鎖等,0,2026-02-02,2026-01-27,高部織物株式会社,,株式会社,山梨県,都留市,中央３丁目１番２５号,,19,204,4020052,,,2026-01-27,登記官による閉鎖,,,2015-10-05,1,,,,,,0
1843,7090001008440,登記記録の閉鎖等,0,2026-02-02,2026-01-27,株式会社都留造園土木,,株式会社,山梨県,都留市,桂町９６２番地の３,,19,204,4020034,,,2026-01-27,登記官による閉鎖,,,2015-10-05,1,,,,,,0
1844,7090001008886,登記記録の閉鎖等,0,2026-02-02,2026-01-27,峽東産業株式会社,,株式会社,山梨県,山梨市,下石森７５７番地,,19,205,4050015,,,2026-01-27,登記官による閉鎖,,,2015-10-05,1,,,,,,0
1846,7090001009595,登記記録の閉鎖等,0,2026-02-02,2026-01-27,株式会社織田壱,,株式会社,山梨県,富士吉田市,松山５丁目１４番２２号,,19,202,4030016,,,2026-01-27,登記官による閉鎖,,,2015-10-05,1,,,,,,0
1847,7090001009769,登記記録の閉鎖等,0,2026-02-02,2026-01-27,株式会社坂本メリヤス,,株式会社,山梨県,富士吉田市,下吉田８７９番地,,19,202,4030004,,,2026-01-27,登記官による閉鎖,,,2015-10-05,1,,,,,,0
1848,7090001009802,登記記録の閉鎖等,0,2026-02-02,2026-01-27,株式会社シノハラエーアンドピー,,株式会社,山梨県,富士吉田市,竜ケ丘３丁目１２番４号,,19,202,4030014,,,2026-01-27,登記官による閉鎖,,,2015-10-05,1,,,,,,0
1849,7090001009950,登記記録の閉鎖等,0,2026-02-02,2026-01-27,株式会社花藤,,株式会社,山梨県,富士吉田市,上吉田８４０番地１０,,19,202,4030005,,,2026-01-27,登記官による閉鎖,,,2015-10-05,1,,,,,,0
1850,7090001010025,登記記録の閉鎖等,0,2026-02-02,2026-01-27,株式会社富士ラクター,,株式会社,山梨県,富士吉田市,下吉田２３６６番地の１,,19,202,4030004,,,2026-01-27,登記官による閉鎖,,,2015-10-05,1,,,,,,0
1851,7090001010165,登記記録の閉鎖等,0,2026-02-02,2026-01-27,マルシン水産株式会社,,株式会社,山梨県,富士吉田市,上吉田３６８１番地,,19,202,4030005,,,2026-01-27,登記官による閉鎖,,,2015-10-05,1,,,,,,0
1852,7090001010520,登記記録の閉鎖等,0,2026-02-02,2026-01-26,株式会社プリンスビラ,,株式会社,山梨県,南都留郡西桂町,小沼１６８９番地,,19,423,4030022,,,2026-01-26,清算の結了等,,,2015-10-05,1,,,,,プリンスビラ,0
1853,7090001010561,登記記録の閉鎖等,0,2026-02-02,2026-01-27,株式会社本栖高原ホテル,,株式会社,山梨県,南都留郡富士河口湖町,富士ヶ嶺１３０６番地,,19,430,4010338,,,2026-01-27,登記官による閉鎖,,,2015-10-05,1,,,,,,0
1854,7090001011023,登記記録の閉鎖等,0,2026-02-02,2026-01-27,株式会社イー・シー・ジィー企画,,株式会社,山梨県,北杜市,白州町横手１６３９番地,,19,209,4080313,,,2026-01-27,登記官による閉鎖,,,2015-10-05,1,,,,,,0
1855,7090001011080,登記記録の閉鎖等,0,2026-02-02,2026-01-27,株式会社甲陽精工,,株式会社,山梨県,韮崎市,旭町上條南割３３１４番地２５４,,19,207,4070046,,,2026-01-27,登記官による閉鎖,,,2015-10-05,1,,,,,コウヨウセイコウ,0
1856,7090001011089,登記記録の閉鎖等,0,2026-02-02,2026-01-27,株式会社甲信越パネル,,株式会社,山梨県,北杜市,明野町浅尾５２５９番地８７７,,19,209,4080201,,,2026-01-27,登記官による閉鎖,,,2015-10-05,1,,,,,,0
1857,7090001011171,登記記録の閉鎖等,0,2026-02-02,2026-01-27,白州ブロック株式会社,,株式会社,山梨県,北杜市,白州町白須７４５８番地１０８,,19,209,4080315,,,2026-01-27,登記官による閉鎖,,,2015-10-05,1,,,,,,0
1858,7090001011361,登記記録の閉鎖等,0,2026-02-02,2026-01-27,株式会社ワケベ食品,,株式会社,山梨県,北杜市,高根町下黒沢３０５２番地,,19,209,4080000,,,2026-01-27,登記官による閉鎖,,,2015-10-05,1,,,,,,0
1859,7090001011980,登記記録の閉鎖等,0,2026-02-02,2026-01-27,コマツ建材株式会社,,株式会社,山梨県,南巨摩郡身延町,下田原１６１４番地の４,,19,365,4093305,,,2026-01-27,登記官による閉鎖,,,2015-10-05,1,,,,,,0
1860,7090001012046,登記記録の閉鎖等,0,2026-02-02,2026-01-27,タマヤシステム株式会社,,株式会社,山梨県,南巨摩郡早川町,赤沢２８９番地１,,19,364,4092733,,,2026-01-27,登記官による閉鎖,,,2015-10-05,1,,,,,,0
1861,7090001012277,登記記録の閉鎖等,0,2026-02-02,2026-01-27,天創フーズ株式会社,,株式会社,山梨県,南巨摩郡南部町,南部９３４２番地の５,,19,366,4092212,,,2026-01-27,登記官による閉鎖,,,2015-10-05,1,,,,,,0
1862,7090002001163,登記記録の閉鎖等,0,2026-02-02,2026-01-27,有限会社国母薬局,,有限会社,山梨県,甲府市,国母１丁目７番１１号,,19,201,4000043,,,2026-01-27,登記官による閉鎖,,,2015-10-05,1,,,,,,0
1863,7090002007004,登記記録の閉鎖等,0,2026-02-02,2026-01-27,有限会社ひのもとタクシー,,有限会社,山梨県,甲斐市,龍地５８８０番地５,,19,210,4000104,,,2026-01-27,登記官による閉鎖,,,2015-10-05,1,,,,,,0
1864,7090002012012,登記記録の閉鎖等,0,2026-02-02,2026-01-27,有限会社小針建工,,有限会社,山梨県,南都留郡鳴沢村,５６６３番地２,,19,429,4010320,,,2026-01-27,登記官による閉鎖,,,2015-10-05,1,,,,,,0
1865,7090005005095,登記記録の閉鎖等,0,2026-02-02,2026-01-27,一般社団法人日本インプラント普及協会,,その他の設立登記法人,山梨県,北杜市,小淵沢町４１８番地１,,19,209,4080044,,,2026-01-27,登記官による閉鎖,,,2015-10-05,1,,,,,,0
1868,7100002021481,登記記録の閉鎖等,0,2026-02-02,2026-01-29,有限会社クリーニング昭和塩尻,,有限会社,長野県,松本市,元町１丁目１番２８号,,20,202,3900803,,,2026-01-29,清算の結了等,,,2015-10-05,1,,,,,クリーニングショウワシオジリ,0
1884,7122001022789,登記記録の閉鎖等,0,2026-02-02,2026-01-23,橋本鉄工株式会社,,株式会社,大阪府,八尾市,太田新町８丁目６９番地,,27,212,5810039,,,2026-01-23,清算の結了等,,,2015-10-05,1,,,,,ハシモトテッコウ,0
1890,7160001007286,登記記録の閉鎖等,0,2026-02-02,2026-01-28,株式会社日本ウッド,,株式会社,滋賀県,長浜市,湖北町伊部５７６番地,,25,203,5290313,,,2026-01-28,清算の結了等,,,2015-10-05,1,,,,,ニホンウッド,0
1898,7180002040895,登記記録の閉鎖等,0,2026-02-02,2026-01-28,有限会社川端製作所,,有限会社,愛知県,北名古屋市,法成寺法師堂７７番地,,23,234,4810039,,,2026-01-28,清算の結了等,,,2015-10-05,1,,,,,カワバタセイサクショ,0
1899,7180003002548,登記記録の閉鎖等,0,2026-02-02,2026-01-29,合資会社小谷漆店,,合資会社,愛知県,名古屋市中川区,山王３丁目１５番３０号,,23,110,4540011,,,2026-01-29,清算の結了等,,,2015-10-05,1,,,,,コタニウルシテン,0
1900,7180003023676,登記記録の閉鎖等,0,2026-02-02,2026-01-29,合同会社ＯＧＳ,,合同会社,愛知県,名古屋市中村区,二瀬町１００番地二瀬マンション１０３,,23,105,4530837,,,2026-01-29,清算の結了等,,,2022-04-01,1,,,,,オージーエス,0
1904,7180301038822,登記記録の閉鎖等,0,2026-02-02,2026-01-26,株式会社震興東川,,株式会社,愛知県,西尾市,山下町泡原１７番地２御幸ＮＹモール１０５,,23,213,4450877,,,2026-01-26,清算の結了等,,,2024-07-11,1,,,,,シンコウトウセン,0
1912,7230002011354,登記記録の閉鎖等,0,2026-02-02,2026-01-28,有限会社セイコ,,有限会社,富山県,高岡市,南幸町７番４号,,16,202,9330933,,,2026-01-28,清算の結了等,,,2015-10-05,1,,,,,セイコ,0
1913,7240001012055,登記記録の閉鎖等,0,2026-02-02,2026-01-29,株式会社山本運送,,株式会社,広島県,広島市南区,出島２丁目２１番５９号,,34,103,7340013,,,2026-01-29,清算の結了等,,,2015-10-05,1,,,,,ヤマモトウンソウ,0
1915,7240002032655,登記記録の閉鎖等,0,2026-02-02,2026-01-28,有限会社呉青写真工業社,,有限会社,広島県,呉市,本町６番１４号,,34,202,7370032,,,2026-01-28,清算の結了等,,,2015-10-05,1,,,,,,0
1919,7250002001832,登記記録の閉鎖等,0,2026-02-02,2026-01-29,有限会社わたや不動産,,有限会社,山口県,山口市,小郡下郷８１５番地６（コーポビル１Ｆ）,,35,203,7540002,,,2026-01-29,清算の結了等,,,2015-10-05,1,,,,,ワタヤフドウサン,0
1931,7290002047062,登記記録の閉鎖等,0,2026-02-02,2026-01-20,有限会社大藪運送,,有限会社,福岡県,筑後市,大字山ノ井４１９番地の１,,40,211,8330031,,,2026-01-20,清算の結了等,,,2015-10-05,1,,,,,オオヤブウンソウ,0
1944,7340002014230,登記記録の閉鎖等,0,2026-02-02,2026-01-27,有限会社村田酒店,,有限会社,鹿児島県,霧島市,国分上小川８２９番地７,,46,218,8994316,,,2026-01-27,清算の結了等,,,2015-10-05,1,,,,,ムラタサケテン,0
1953,7380002003493,登記記録の閉鎖等,0,2026-02-02,2026-01-28,有限会社まるこうさとう,,有限会社,福島県,福島市,大笹生字座頭石２９番地の１,,07,201,9600251,,,2026-01-28,清算の結了等,,,2015-10-05,1,,,,,,0
1956,7380002036221,登記記録の閉鎖等,0,2026-02-02,2026-01-20,有限会社ワコー,,有限会社,福島県,岩瀬郡鏡石町,大字鏡田字不時沼１２０番地,,07,342,9690401,,,2026-01-20,登記官による閉鎖,,,2017-10-10,1,,,,,ワコー,0
1959,7410001003160,登記記録の閉鎖等,0,2026-02-02,2026-01-30,株式会社アクティブ・エンタープライズ,,株式会社,宮城県,仙台市太白区,柳生４丁目６番地の１４,,04,104,9811106,,,2026-01-30,清算の結了等,,,2015-10-05,1,,,,,,0
1960,7430001010270,登記記録の閉鎖等,0,2026-02-02,2026-01-30,株式会社Ｎｅｅｄｓ,,株式会社,北海道,札幌市白石区,川北２３０１番地１,,01,104,0030859,,,2026-01-30,清算の結了等,,,2015-10-05,1,,,,,ニーズ,0
1962,7460102003030,登記記録の閉鎖等,0,2026-02-02,2026-01-26,有限会社北勝重機産業,,有限会社,北海道,帯広市,西二十条南５丁目７番７号,,01,207,0802470,,,2026-01-26,清算の結了等,,,2015-10-05,1,,,,,ホクショウジュウキサンギョウ,0
1989,8010401185745,登記記録の閉鎖等,0,2026-02-02,2025-12-25,株式会社Ｓｈａｒｅ　ＴＯＮ,,株式会社,東京都,港区,南青山２丁目２－１５ウィン青山５０３号室,,13,103,1070062,,,2025-12-25,清算の結了等,,,2024-10-17,1,,,,,シェアトン,0
1993,8010405018562,登記記録の閉鎖等,0,2026-02-02,2026-01-06,渋谷東ホールディング２一般社団法人,,その他の設立登記法人,東京都,港区,虎ノ門３丁目２２番１０－２０１号,,13,103,1050001,,,2026-01-06,清算の結了等,,,2020-03-04,1,,,,,シブヤヒガシホールディングツー,0
2009,8011001135355,登記記録の閉鎖等,0,2026-02-02,2026-01-06,株式会社色,,株式会社,東京都,渋谷区,富ヶ谷２丁目１３番２１号ＬＵＣＥＲＩＡ＃ＯＢ,,13,113,1510063,,,2026-01-06,清算の結了等,,,2020-08-19,1,,,,,シキ,0
2015,8011003012528,登記記録の閉鎖等,0,2026-02-02,2026-01-07,ガウディ合同会社,,合同会社,東京都,渋谷区,代官山町２０番９号,,13,113,1500034,,,2026-01-07,清算の結了等,,,2021-04-05,1,,,,,ガウディ,0
2070,8050001032708,登記記録の閉鎖等,0,2026-02-02,2026-01-27,結城信販株式会社,,株式会社,茨城県,結城市,大字結城５３１番地,,08,207,3070001,,,2026-01-27,清算の結了等,,,2015-10-05,1,,,,,ユウキシンパン,0
2072,8050005010445,登記記録の閉鎖等,0,2026-02-02,2026-01-27,協同組合結城専門店会,,その他の設立登記法人,茨城県,結城市,大字結城５３１番地の６,,08,207,3070001,,,2026-01-27,清算の結了等,,,2015-10-05,1,,,,,ユウキセンモンテンカイ,0
2075,8080102016986,登記記録の閉鎖等,0,2026-02-02,2026-01-28,有限会社都築保険事務所,,有限会社,静岡県,富士宮市,小泉２２２７番地の５２,,22,207,4180022,,,2026-01-28,清算の結了等,,,2015-10-05,1,,,,,ツヅキホケンジムショ,0
2077,8090001000099,登記記録の閉鎖等,0,2026-02-02,2026-01-27,株式会社アポロコーポレーション,,株式会社,山梨県,中巨摩郡昭和町,清水新居４６１番地,,19,384,4093867,,,2026-01-27,登記官による閉鎖,,,2015-10-05,1,,,,,,0
2078,8090001000264,登記記録の閉鎖等,0,2026-02-02,2026-01-27,株式会社エコークロス,,株式会社,山梨県,甲府市,平瀬町２４８４番地,,19,201,4000083,,,2026-01-27,登記官による閉鎖,,,2015-10-05,1,,,,,,0
2079,8090001000272,登記記録の閉鎖等,0,2026-02-02,2026-01-27,株式会社エスキス,,株式会社,山梨県,甲府市,古上条町４９２番地１,,19,201,4000051,,,2026-01-27,登記官による閉鎖,,,2015-10-05,1,,,,,,0
2080,8090001000479,登記記録の閉鎖等,0,2026-02-02,2026-01-27,株式会社金丸工務店,,株式会社,山梨県,甲府市,上今井町２６５番地６,,19,201,4000845,,,2026-01-27,登記官による閉鎖,,,2015-10-05,1,,,,,,0
2081,8090001000652,登記記録の閉鎖等,0,2026-02-02,2026-01-27,株式会社甲府駿木,,株式会社,山梨県,甲府市,青葉町５番２０号,,19,201,4000828,,,2026-01-27,登記官による閉鎖,,,2015-10-05,1,,,,,,0
2082,8090001000801,登記記録の閉鎖等,0,2026-02-02,2026-01-27,小林鉄機工業株式会社,,株式会社,山梨県,甲府市,里吉３丁目１０番３号,,19,201,4000822,,,2026-01-27,登記官による閉鎖,,,2015-10-05,1,,,,,,0
2083,8090001000999,登記記録の閉鎖等,0,2026-02-02,2026-01-27,株式会社ジーシー,,株式会社,山梨県,甲府市,大里町３２９２番地１７,,19,201,4000053,,,2026-01-27,登記官による閉鎖,,,2015-10-05,1,,,,,,0
2084,8090001001064,登記記録の閉鎖等,0,2026-02-02,2026-01-27,株式会社柴田電化センター,,株式会社,山梨県,甲府市,小瀬町６４２番地,,19,201,4000836,,,2026-01-27,登記官による閉鎖,,,2015-10-05,1,,,,,,0
2085,8090001001155,登記記録の閉鎖等,0,2026-02-02,2026-01-27,株式会社情報山梨,,株式会社,山梨県,甲府市,大津町１３６７番地,,19,201,4000055,,,2026-01-27,登記官による閉鎖,,,2015-10-05,1,,,,,,0
2086,8090001001188,登記記録の閉鎖等,0,2026-02-02,2026-01-27,株式会社西都物産,,株式会社,山梨県,甲府市,荒川１丁目１１番１７号,,19,201,4000061,,,2026-01-27,登記官による閉鎖,,,2015-10-05,1,,,,,,0
2087,8090001001221,登記記録の閉鎖等,0,2026-02-02,2026-01-27,綜和電気工業株式会社,,株式会社,山梨県,甲府市,貢川２丁目１６番２号,,19,201,4000065,,,2026-01-27,登記官による閉鎖,,,2015-10-05,1,,,,,,0
2088,8090001001254,登記記録の閉鎖等,0,2026-02-02,2026-01-27,株式会社大京開発,,株式会社,山梨県,甲府市,中小河原１丁目１２番２９号,,19,201,4000855,,,2026-01-27,登記官による閉鎖,,,2015-10-05,1,,,,,,0
2089,8090001001709,登記記録の閉鎖等,0,2026-02-02,2026-01-27,株式会社埴原工務店,,株式会社,山梨県,甲府市,美咲１丁目１番８号,,19,201,4000007,,,2026-01-27,登記官による閉鎖,,,2015-10-05,1,,,,,,0
2090,8090001001816,登記記録の閉鎖等,0,2026-02-02,2026-01-27,株式会社フォーサイト,,株式会社,山梨県,甲府市,朝気３丁目１８番４号,,19,201,4000862,,,2026-01-27,登記官による閉鎖,,,2015-10-05,1,,,,,,0
2091,8090001001832,登記記録の閉鎖等,0,2026-02-02,2026-01-27,フイーメ物産株式会社,,株式会社,山梨県,甲府市,朝日４丁目７番１１号,,19,201,4000025,,,2026-01-27,登記官による閉鎖,,,2015-10-05,1,,,,,,0
2092,8090001001881,登記記録の閉鎖等,0,2026-02-02,2026-01-27,舟場建設株式会社,,株式会社,山梨県,甲府市,新田町１１番２号,,19,201,4000066,,,2026-01-27,登記官による閉鎖,,,2015-10-05,1,,,,,,0
2093,8090001001980,登記記録の閉鎖等,0,2026-02-02,2026-01-27,株式会社北海建設鉄筋工業,,株式会社,山梨県,甲府市,和戸町９１８番地の３,,19,201,4000812,,,2026-01-27,登記官による閉鎖,,,2015-10-05,1,,,,,,0
2094,8090001002442,登記記録の閉鎖等,0,2026-02-02,2026-01-27,株式会社吉田工業,,株式会社,山梨県,甲府市,富士見２丁目５番３２号,,19,201,4000027,,,2026-01-27,登記官による閉鎖,,,2015-10-05,1,,,,,,0
2095,8090001002525,登記記録の閉鎖等,0,2026-02-02,2026-01-27,株式会社ワコー,,株式会社,山梨県,甲府市,住吉４丁目１０番１０号,,19,201,4000851,,,2026-01-27,登記官による閉鎖,,,2015-10-05,1,,,,,,0
2096,8090001002839,登記記録の閉鎖等,0,2026-02-02,2026-01-27,株式会社旭トランスポート,,株式会社,山梨県,中央市,山之神３６２９番３号,,19,214,4093845,,,2026-01-27,登記官による閉鎖,,,2015-10-05,1,,,,,,0
2097,8090001002970,登記記録の閉鎖等,0,2026-02-02,2026-01-27,玉穂興業株式会社,,株式会社,山梨県,笛吹市,石和町東高橋２３３番地,,19,211,4060041,,,2026-01-27,登記官による閉鎖,,,2015-10-05,1,,,,,,0
2098,8090001003259,登記記録の閉鎖等,0,2026-02-02,2026-01-27,株式会社山之神,,株式会社,山梨県,中央市,山之神３６１６番地４,,19,214,4093845,,,2026-01-27,登記官による閉鎖,,,2015-10-05,1,,,,,,0
2099,8090001003366,登記記録の閉鎖等,0,2026-02-02,2026-01-27,株式会社ウインディール夢工場,,株式会社,山梨県,甲府市,善光寺３丁目３４番２７号,,19,201,4000806,,,2026-01-27,登記官による閉鎖,,,2015-10-05,1,,,,,,0
2100,8090001003382,登記記録の閉鎖等,0,2026-02-02,2026-01-27,フジビジネスサテライト株式会社,,株式会社,山梨県,甲斐市,篠原２７３番地５,,19,210,4000115,,,2026-01-27,登記官による閉鎖,,,2015-10-05,1,,,,,,0
2101,8090001003523,登記記録の閉鎖等,0,2026-02-02,2026-01-27,トライスター株式会社,,株式会社,山梨県,甲府市,中央５丁目７番２７号オークラマンション３０５,,19,201,4000032,,,2026-01-27,登記官による閉鎖,,,2015-10-05,1,,,,,,0
2102,8090001004570,登記記録の閉鎖等,0,2026-02-02,2026-01-27,株式会社仙宗,,株式会社,山梨県,甲斐市,宇津谷４５４２番地,,19,210,4000108,,,2026-01-27,登記官による閉鎖,,,2015-10-05,1,,,,,,0
2103,8090001005016,登記記録の閉鎖等,0,2026-02-02,2026-01-27,株式会社ひまわりねっと,,株式会社,山梨県,南アルプス市,百々３０１３番地１,,19,208,4000214,,,2026-01-27,登記官による閉鎖,,,2015-10-05,1,,,,,,0
2104,8090001006105,登記記録の閉鎖等,0,2026-02-02,2026-01-27,千代田産業株式会社,,株式会社,山梨県,笛吹市,石和町唐柏７４５番地の１,,19,211,4060034,,,2026-01-27,登記官による閉鎖,,,2015-10-05,1,,,,,,0
2105,8090001006154,登記記録の閉鎖等,0,2026-02-02,2026-01-27,株式会社富士見コーポレーション,,株式会社,山梨県,笛吹市,石和町今井２６番地,,19,211,4060042,,,2026-01-27,登記官による閉鎖,,,2015-10-05,1,,,,,,0
2106,8090001006212,登記記録の閉鎖等,0,2026-02-02,2026-01-27,山梨旅行株式会社,,株式会社,山梨県,笛吹市,石和町窪中島１２９番地１,,19,211,4060036,,,2026-01-27,登記官による閉鎖,,,2015-10-05,1,,,,,,0
2107,8090001006286,登記記録の閉鎖等,0,2026-02-02,2026-01-27,丸十産業株式会社,,株式会社,山梨県,笛吹市,御坂町成田２４４３,,19,211,4060801,,,2026-01-27,登記官による閉鎖,,,2015-10-05,1,,,,,,0
2108,8090001006352,登記記録の閉鎖等,0,2026-02-02,2026-01-27,株式会社ニッソウケン,,株式会社,山梨県,笛吹市,春日居町下岩下１１８番地,,19,211,4060001,,,2026-01-27,登記官による閉鎖,,,2015-10-05,1,,,,,,0
2109,8090001007862,登記記録の閉鎖等,0,2026-02-02,2026-01-27,株式会社アクト,,株式会社,山梨県,大月市,猿橋町藤崎１２５番地８,,19,206,4090612,,,2026-01-27,登記官による閉鎖,,,2015-10-05,1,,,,,,0
2110,8090001007895,登記記録の閉鎖等,0,2026-02-02,2026-01-27,株式会社大月安全管理センター,,株式会社,山梨県,大月市,七保町葛野１９４７番地,,19,206,4090623,,,2026-01-27,登記官による閉鎖,,,2015-10-05,1,,,,,,0
2111,8090001007953,登記記録の閉鎖等,0,2026-02-02,2026-01-27,株式会社スズキリビング,,株式会社,山梨県,大月市,猿橋町殿上１７４番地,,19,206,4090617,,,2026-01-27,登記官による閉鎖,,,2015-10-05,1,,,,,,0
2112,8090001008448,登記記録の閉鎖等,0,2026-02-02,2026-01-27,道志建設株式会社,,株式会社,山梨県,南都留郡道志村,７４０７番地の１,,19,422,4020200,,,2026-01-27,登記官による閉鎖,,,2015-10-05,1,,,,,,0
2113,8090001008522,登記記録の閉鎖等,0,2026-02-02,2026-01-27,株式会社マコト住設,,株式会社,山梨県,都留市,四日市場２１６番地,,19,204,4020005,,,2026-01-27,登記官による閉鎖,,,2015-10-05,1,,,,,,0
2114,8090001008910,登記記録の閉鎖等,0,2026-02-02,2026-01-27,株式会社三恵,,株式会社,山梨県,山梨市,三富川浦１１３９番地,,19,205,4040201,,,2026-01-27,登記官による閉鎖,,,2015-10-05,1,,,,,,0
2115,8090001008927,登記記録の閉鎖等,0,2026-02-02,2026-01-27,株式会社鋳造,,株式会社,山梨県,山梨市,七日市場６１７番地,,19,205,4050007,,,2026-01-27,登記官による閉鎖,,,2015-10-05,1,,,,,,0
2116,8090001008943,登記記録の閉鎖等,0,2026-02-02,2026-01-27,株式会社パナランド,,株式会社,山梨県,甲府市,横根町８番地,,19,201,4000802,,,2026-01-27,登記官による閉鎖,,,2015-10-05,1,,,,,,0
2117,8090001009735,登記記録の閉鎖等,0,2026-02-02,2026-01-27,株式会社コスモ精機,,株式会社,山梨県,南都留郡富士河口湖町,勝山３４８３番地,,19,430,4010310,,,2026-01-27,登記官による閉鎖,,,2015-10-05,1,,,,,,0
2118,8090001009909,登記記録の閉鎖等,0,2026-02-02,2026-01-27,株式会社なるみ産業,,株式会社,山梨県,南都留郡忍野村,内野３０２番地,,19,424,4010512,,,2026-01-27,登記官による閉鎖,,,2015-10-05,1,,,,,,0
2119,8090001009941,登記記録の閉鎖等,0,2026-02-02,2026-01-27,羽田生コン株式会社,,株式会社,山梨県,南都留郡富士河口湖町,小立５０２８番地,,19,430,4010302,,,2026-01-27,登記官による閉鎖,,,2015-10-05,1,,,,,,0
2120,8090001010081,登記記録の閉鎖等,0,2026-02-02,2026-01-27,株式会社富士レンタリース,,株式会社,山梨県,富士吉田市,上吉田２丁目７番２号,,19,202,4030005,,,2026-01-27,登記官による閉鎖,,,2015-10-05,1,,,,,,0
2121,8090001010263,登記記録の閉鎖等,0,2026-02-02,2026-01-27,吉田塗装株式会社,,株式会社,山梨県,富士吉田市,大明見４８１番地,,19,202,4030003,,,2026-01-27,登記官による閉鎖,,,2015-10-05,1,,,,,,0
2122,8090001010503,登記記録の閉鎖等,0,2026-02-02,2026-01-27,小山産業株式会社,,株式会社,山梨県,南都留郡西桂町,小沼１９２２番地,,19,423,4030022,,,2026-01-27,登記官による閉鎖,,,2015-10-05,1,,,,,,0
2123,8090001010560,登記記録の閉鎖等,0,2026-02-02,2026-01-27,株式会社富士マナファーム,,株式会社,山梨県,南都留郡富士河口湖町,富士ヶ嶺３００番地１,,19,430,4010338,,,2026-01-27,登記官による閉鎖,,,2015-10-05,1,,,,,,0
2124,8090001011179,登記記録の閉鎖等,0,2026-02-02,2026-01-27,株式会社光の楽園,,株式会社,山梨県,北杜市,明野町浅尾字浅尾原５２６０番地２,,19,209,4080201,,,2026-01-27,登記官による閉鎖,,,2015-10-05,1,,,,,,0
2125,8090001011245,登記記録の閉鎖等,0,2026-02-02,2026-01-27,株式会社アルプス,,株式会社,山梨県,北杜市,大泉町谷戸２０１２番地,,19,209,4091502,,,2026-01-27,登記官による閉鎖,,,2015-10-05,1,,,,,,0
2126,8090001011393,登記記録の閉鎖等,0,2026-02-02,2026-01-27,株式会社ピー・エス・エム,,株式会社,山梨県,北杜市,白州町鳥原２９１３番地２２８,,19,209,4080316,,,2026-01-27,登記官による閉鎖,,,2015-10-05,1,,,,,,0
2127,8090001012061,登記記録の閉鎖等,0,2026-02-02,2026-01-27,常葉工業株式会社,,株式会社,山梨県,南巨摩郡身延町,常葉６２７番地の１,,19,365,4092936,,,2026-01-27,登記官による閉鎖,,,2015-10-05,1,,,,,,0
2128,8090001012160,登記記録の閉鎖等,0,2026-02-02,2026-01-27,株式会社山梨クリーン・リサイクルセンター,,株式会社,山梨県,西八代郡市川三郷町,上野字一條林３０８０番地７,,19,346,4093612,,,2026-01-27,登記官による閉鎖,,,2015-10-05,1,,,,,,0
2129,8090001012227,登記記録の閉鎖等,0,2026-02-02,2026-01-27,株式会社望月工業,,株式会社,山梨県,南巨摩郡早川町,京ケ島７０６番地,,19,364,4092715,,,2026-01-27,登記官による閉鎖,,,2015-10-05,1,,,,,,0
2130,8090005002785,登記記録の閉鎖等,0,2026-02-02,2026-01-27,一般社団法人水再生研究所,,その他の設立登記法人,山梨県,甲府市,徳行４丁目１４番２２号,,19,201,4000047,,,2026-01-27,登記官による閉鎖,,,2015-10-05,1,,,,,,0
2131,8090005005904,登記記録の閉鎖等,0,2026-02-02,2026-01-27,身延ショッピングセンター事業協同組合,,その他の設立登記法人,山梨県,南巨摩郡身延町,丸滝５５７番地,,19,365,4092411,,,2026-01-27,登記官による閉鎖,,,2015-10-05,1,,,,,,0
2134,8100005011388,登記記録の閉鎖等,0,2026-02-02,2026-01-27,ＮＰＯ法人Ｌ＆Ａ経営労務開発ながの,,その他の設立登記法人,長野県,長野市,里島８番地２,,20,201,3812223,,,2026-01-27,清算の結了等,,,2015-10-05,1,,,,,エルアンドエイケイエイロウムカイハツナガノ,0
2136,8120001078173,登記記録の閉鎖等,0,2026-02-02,2026-01-30,共進トラベル株式会社,,株式会社,大阪府,大阪市中央区,北浜３丁目５番１９－８０８号淀屋橋ホワイトビル,,27,128,5410041,,,2026-01-30,清算の結了等,,,2015-10-05,1,,,,,キョウシントラベル,0
2137,8120001083982,登記記録の閉鎖等,0,2026-02-02,2026-01-30,竹島繊維株式会社,,株式会社,大阪府,大阪市中央区,船場中央２丁目３番６－Ｂ１５２号,,27,128,5410055,,,2026-01-30,清算の結了等,,,2015-10-05,1,,,,,タケシマセンイ,0
2145,8120003023417,登記記録の閉鎖等,0,2026-02-02,2026-01-29,フレッシュタロ合同会社,,合同会社,大阪府,大阪市平野区,平野市町１丁目１番９号１０２号室,,27,126,5470042,,,2026-01-29,清算の結了等,,,2023-02-13,1,,,,,フレッシュタロ,0
2151,8120101043713,登記記録の閉鎖等,0,2026-02-02,2026-01-28,株式会社ダイエイリフォーム,,株式会社,大阪府,堺市中区,小阪３４１番地辰己マンション１０１号,,27,142,5998276,,,2026-01-28,清算の結了等,,,2015-10-05,1,,,,,ダイエイリフォーム,0
2161,8130002021783,登記記録の閉鎖等,0,2026-02-02,2026-01-28,有限会社Ｋ－ウッズ,,有限会社,京都府,京都市南区,久世上久世町５４２番地パークテラス桂川６３３号室,,26,107,6018212,,,2026-01-28,清算の結了等,,,2015-10-05,1,,,,,ケーウッズ,0
2163,8140001041303,登記記録の閉鎖等,0,2026-02-02,2026-01-28,富士綿業株式会社,,株式会社,兵庫県,丹波市,氷上町市辺４５３番地の１,,28,223,6693461,,,2026-01-28,清算の結了等,,,2015-10-05,1,,,,,フジメンギョウ,0
2184,8230002011502,登記記録の閉鎖等,0,2026-02-02,2026-01-28,有限会社田中製作所,,有限会社,富山県,高岡市,能町東３１番地,,16,202,9330004,,,2026-01-28,清算の結了等,,,2015-10-05,1,,,,,タナカセイサクショ,0
2215,8360001019095,登記記録の閉鎖等,0,2026-02-02,2026-01-30,株式会社ＧＯＡ　Ｉｎｔｅｒｎａｔｉｏｎａｌ,,株式会社,三重県,名張市,新田字出山１１７２番地２１,,24,208,5180611,,,2026-01-30,清算の結了等,,,2015-10-05,1,,,,,ゴアインターナショナル,0
2223,8370002019878,登記記録の閉鎖等,0,2026-02-02,2026-01-29,有限会社浅勝建設,,有限会社,宮城県,黒川郡大和町,宮床字上綱木１番地の４,,04,421,9813624,,,2026-01-29,清算の結了等,,,2015-10-05,1,,,,,アサカツケンセツ,0
2226,8380001024713,登記記録の閉鎖等,0,2026-02-02,2026-01-28,株式会社トライベスト,,株式会社,福島県,いわき市,四倉町字梅ケ丘１７５番地の１,,07,204,9790201,,,2026-01-28,清算の結了等,,,2015-10-05,1,,,,,トライベスト,0
2227,8380002014878,登記記録の閉鎖等,0,2026-02-02,2026-01-28,有限会社クオリティー・ホーム,,有限会社,福島県,田村郡三春町,大字斎藤字戸ノ内１５７番地,,07,521,9637723,,,2026-01-28,清算の結了等,,,2015-10-05,1,,,,,クオリティーホーム,0
2228,8390001012353,登記記録の閉鎖等,0,2026-02-02,2026-01-29,東北重研工業株式会社,,株式会社,山形県,寒河江市,中央工業団地１５６番地の８,,06,206,9910061,,,2026-01-29,清算の結了等,,,2015-10-05,1,,,,,トウホクジュウケンコウギョウ,0
2232,8430002013486,登記記録の閉鎖等,0,2026-02-02,2026-01-29,有限会社ＳＫ工芸,,有限会社,北海道,札幌市北区,屯田六条２丁目２番２０号,,01,102,0020856,,,2026-01-29,清算の結了等,,,2015-10-05,1,,,,,,0
2238,8500002004528,登記記録の閉鎖等,0,2026-02-02,2026-01-29,有限会社ティーアンドティーカンパニー,,有限会社,愛媛県,松山市,南堀端町６番地２３,,38,201,7900006,,,2026-01-29,清算の結了等,,,2015-10-05,1,,,,,ティーアンドティーカンパニー,0
2242,9010001072203,登記記録の閉鎖等,0,2026-02-02,2026-01-08,株式会社齋藤商会,,株式会社,東京都,中央区,銀座４丁目１４番３号,,13,102,1040061,,,2026-01-08,清算の結了等,,,2015-10-05,1,,,,,サイトウショウカイ,0
2244,9010001181862,登記記録の閉鎖等,0,2026-02-02,2025-11-07,株式会社ＮＡＨＯＫＯ,,株式会社,東京都,千代田区,平河町２丁目７番１０号,,13,101,1020093,,,2025-11-07,合併による解散等,9010001228738,令和７年１１月１日東京都千代田区麹町二丁目１４番地サンホールディングス株式会社（9010001228738）に合併し解散,2017-03-07,1,,,,,ナホコ,0
2257,9010005033283,登記記録の閉鎖等,0,2026-02-02,2026-01-30,一般社団法人ＡＭ　ａｌｐｈａ　Ｔｈｒｅｅ,,その他の設立登記法人,東京都,千代田区,丸の内１丁目４番１号東京共同会計事務所内,,13,101,1000005,,,2026-01-30,清算の結了等,,,2021-04-26,1,,,,,エーエムアルファスリー,0
2264,9010405018561,登記記録の閉鎖等,0,2026-02-02,2026-01-06,渋谷東ホールディング１一般社団法人,,その他の設立登記法人,東京都,港区,虎ノ門３丁目２２番１０－２０１号,,13,103,1050001,,,2026-01-06,清算の結了等,,,2020-03-04,1,,,,,シブヤヒガシホールディングワン,0
2275,9011001131956,登記記録の閉鎖等,0,2026-02-02,2026-01-28,サンジク株式会社,,株式会社,東京都,立川市,柴崎町３丁目８－５立川ＮＸビル５Ｆ,,13,202,1900023,,,2026-01-28,清算の結了等,,,2020-01-24,1,,,,,サンジク,0
2302,9011802018162,登記記録の閉鎖等,0,2026-02-02,2026-01-28,有限会社フロント企画,,有限会社,東京都,板橋区,大谷口１丁目５３番１３ヴィラサカイＩＩＩ１０２号,00117221,13,119,1730035,,,2026-01-28,清算の結了等,,,2015-10-05,1,,,,,,0
2303,9012301012268,登記記録の閉鎖等,0,2026-02-02,2026-01-29,株式会社ポッケラン,,株式会社,東京都,町田市,成瀬３丁目２－１,,13,209,1940044,,,2026-01-29,清算の結了等,,,2020-09-17,1,,,,,ポッケラン,0
2313,9020002017362,登記記録の閉鎖等,0,2026-02-02,2026-01-27,有限会社冨士硝子工業所,,有限会社,神奈川県,横浜市西区,浜松町７番１７号,,14,103,2200055,,,2026-01-27,清算の結了等,,,2015-10-05,1,,,,,フジガラスコウギョウショ,0
2328,9030001154800,登記記録の閉鎖等,0,2026-02-02,2026-01-23,株式会社Ｎｏｖｕｍ　Ｌａｒｍｅ,,株式会社,埼玉県,川口市,西川口３丁目１番１４－８０２号,,11,203,3320021,,,2026-01-23,合併による解散等,7030001040432,令和８年１月２３日埼玉県草加市青柳一丁目６番３９号株式会社シーワン（7030001040432）に合併し解散,2023-07-12,1,,,,,ノウムラルム,0
2332,9030002028870,登記記録の閉鎖等,0,2026-02-02,2026-01-27,有限会社河野瓦工業所,,有限会社,埼玉県,所沢市,三ケ島３丁目８７８番地の２,,11,208,3591164,,,2026-01-27,清算の結了等,,,2015-10-05,1,,,,,カワノカワラコウギョウショ,0
2334,9030002059197,登記記録の閉鎖等,0,2026-02-02,2026-01-26,有限会社丸茂,,有限会社,埼玉県,朝霞市,浜崎４丁目１３番１号,,11,227,3510033,,,2026-01-26,清算の結了等,,,2015-10-05,1,,,,,マルシゲ,0
2340,9040002037573,登記記録の閉鎖等,0,2026-02-02,2026-01-06,有限会社石井商店,,有限会社,千葉県,鎌ケ谷市,粟野１５３番地,,12,224,2730132,,,2026-01-06,清算の結了等,,,2015-10-05,1,,,,,イシイショウテン,0
2346,9070001005644,登記記録の閉鎖等,0,2026-02-02,2026-01-28,株式会社ファイナリスト,,株式会社,群馬県,高崎市,東町１５８番地２０,,10,202,3700045,,,2026-01-28,清算の結了等,,,2015-10-05,1,,,,,ファイナリスト,0
2347,9070001023992,登記記録の閉鎖等,0,2026-02-02,2026-01-28,株式会社八洲,,株式会社,群馬県,吾妻郡東吾妻町,大字原町４０９番地１,,10,429,3770801,,,2026-01-28,清算の結了等,,,2015-10-05,1,,,,,ヤシマ,0
2355,9090001000032,登記記録の閉鎖等,0,2026-02-02,2026-01-27,株式会社アーマン,,株式会社,山梨県,甲府市,城東４丁目２番２５号,,19,201,4000861,,,2026-01-27,登記官による閉鎖,,,2015-10-05,1,,,,,,0
2356,9090001000123,登記記録の閉鎖等,0,2026-02-02,2026-01-27,株式会社アルファートロン,,株式会社,山梨県,甲府市,和戸町３５３番地の１６,,19,201,4000812,,,2026-01-27,登記官による閉鎖,,,2015-10-05,1,,,,,,0
2357,9090001000148,登記記録の閉鎖等,0,2026-02-02,2026-01-27,石川ニット株式会社,,株式会社,山梨県,甲府市,武田２丁目９番６号,,19,201,4000016,,,2026-01-27,登記官による閉鎖,,,2015-10-05,1,,,,,,0
2358,9090001000305,登記記録の閉鎖等,0,2026-02-02,2026-01-27,株式会社エム・シーコンサルタント,,株式会社,山梨県,甲府市,伊勢２丁目５番１２号,,19,201,4000856,,,2026-01-27,登記官による閉鎖,,,2015-10-05,1,,,,,,0
2359,9090001000619,登記記録の閉鎖等,0,2026-02-02,2026-01-27,甲府鋼材株式会社,,株式会社,山梨県,甲府市,青葉町１１番１２号,,19,201,4000828,,,2026-01-27,登記官による閉鎖,,,2015-10-05,1,,,,,,0
2360,9090001000668,登記記録の閉鎖等,0,2026-02-02,2026-01-27,株式会社甲府トラベル,,株式会社,山梨県,甲府市,丸の内２丁目８番３号,,19,201,4000031,,,2026-01-27,登記官による閉鎖,,,2015-10-05,1,,,,,,0
2361,9090001000783,登記記録の閉鎖等,0,2026-02-02,2026-01-27,株式会社五星観業,,株式会社,山梨県,甲府市,山宮町３００番地の５,,19,201,4000075,,,2026-01-27,登記官による閉鎖,,,2015-10-05,1,,,,,,0
2362,9090001000924,登記記録の閉鎖等,0,2026-02-02,2026-01-27,株式会社サンシティー,,株式会社,山梨県,甲府市,丸の内２丁目１０番１４号,,19,201,4000031,,,2026-01-27,登記官による閉鎖,,,2015-10-05,1,,,,,,0
2363,9090001001286,登記記録の閉鎖等,0,2026-02-02,2026-01-27,株式会社タイムズ,,株式会社,山梨県,甲府市,中央４丁目８番５号,,19,201,4000032,,,2026-01-27,登記官による閉鎖,,,2015-10-05,1,,,,,,0
2364,9090001001377,登記記録の閉鎖等,0,2026-02-02,2026-01-27,田村洋服株式会社,,株式会社,山梨県,甲府市,中央１丁目１番１７号,,19,201,4000032,,,2026-01-27,登記官による閉鎖,,,2015-10-05,1,,,,,,0
2365,9090001001690,登記記録の閉鎖等,0,2026-02-02,2026-01-27,株式会社ヌース・アート・クリエイション,,株式会社,山梨県,甲府市,中小河原町５０５番地－２,,19,201,4000854,,,2026-01-27,登記官による閉鎖,,,2015-10-05,1,,,,,,0
2366,9090001001757,登記記録の閉鎖等,0,2026-02-02,2026-01-27,株式会社パラトピア,,株式会社,山梨県,甲府市,朝日３丁目３番９号,,19,201,4000025,,,2026-01-27,登記官による閉鎖,,,2015-10-05,1,,,,,,0
2367,9090001001848,登記記録の閉鎖等,0,2026-02-02,2026-01-27,株式会社フカヤマ,,株式会社,山梨県,甲府市,相生１丁目７番１７号,,19,201,4000858,,,2026-01-27,登記官による閉鎖,,,2015-10-05,1,,,,,,0
2368,9090001001996,登記記録の閉鎖等,0,2026-02-02,2026-01-27,株式会社マエダ,,株式会社,山梨県,甲府市,屋形２丁目１番７号,,19,201,4000017,,,2026-01-27,登記官による閉鎖,,,2015-10-05,1,,,,,,0
2369,9090001002193,登記記録の閉鎖等,0,2026-02-02,2026-01-27,山梨インターネット株式会社,,株式会社,山梨県,甲府市,丸の内２丁目１６番６号,,19,201,4000031,,,2026-01-27,登記官による閉鎖,,,2015-10-05,1,,,,,,0
2370,9090001002276,登記記録の閉鎖等,0,2026-02-02,2026-01-27,山梨土地開発株式会社,,株式会社,山梨県,甲府市,朝日４丁目７番１１号,,19,201,4000025,,,2026-01-27,登記官による閉鎖,,,2015-10-05,1,,,,,,0
2371,9090001002565,登記記録の閉鎖等,0,2026-02-02,2026-01-27,株式会社エスト,,株式会社,山梨県,甲斐市,西八幡３４７５番地５,,19,210,4000117,,,2026-01-27,登記官による閉鎖,,,2015-10-05,1,,,,,,0
2372,9090001002631,登記記録の閉鎖等,0,2026-02-02,2026-01-27,セイコー環境株式会社,,株式会社,山梨県,甲斐市,富竹新田１０３５番地の１２,,19,210,4000113,,,2026-01-27,登記官による閉鎖,,,2015-10-05,1,,,,,,0
2373,9090001002689,登記記録の閉鎖等,0,2026-02-02,2026-01-27,株式会社ハイロンインターナショナル,,株式会社,山梨県,甲斐市,竜王新町２３２０番地１,,19,210,4000111,,,2026-01-27,登記官による閉鎖,,,2015-10-05,1,,,,,,0
2374,9090001003126,登記記録の閉鎖等,0,2026-02-02,2026-01-27,株式会社大貴,,株式会社,山梨県,中巨摩郡昭和町,築地新居８５２番地２,,19,384,4093853,,,2026-01-27,登記官による閉鎖,,,2015-10-05,1,,,,,,0
2375,9090001003464,登記記録の閉鎖等,0,2026-02-02,2026-01-27,株式会社ライズ,,株式会社,山梨県,甲府市,湯村２丁目６番１８号小林－１,,19,201,4000073,,,2026-01-27,登記官による閉鎖,,,2015-10-05,1,,,,,,0
2376,9090001003472,登記記録の閉鎖等,0,2026-02-02,2026-01-27,株式会社光秀物産,,株式会社,山梨県,甲府市,山宮町３３５９番地の３９,,19,201,4000075,,,2026-01-27,登記官による閉鎖,,,2015-10-05,1,,,,,,0
2377,9090001005923,登記記録の閉鎖等,0,2026-02-02,2026-01-27,株式会社石和観光開発,,株式会社,山梨県,笛吹市,一宮町竹原田１６７９番地１,,19,211,4050076,,,2026-01-27,登記官による閉鎖,,,2015-10-05,1,,,,,,0
2378,9090001006285,登記記録の閉鎖等,0,2026-02-02,2026-01-27,ジョイワン株式会社,,株式会社,山梨県,笛吹市,石和町四日市場１６５３番地１,,19,211,4060032,,,2026-01-27,登記官による閉鎖,,,2015-10-05,1,,,,,,0
2379,9090001007861,登記記録の閉鎖等,0,2026-02-02,2026-01-27,株式会社アクエリアン・ハウス,,株式会社,山梨県,大月市,梁川町綱の上１１１４番地,,19,206,4090503,,,2026-01-27,登記官による閉鎖,,,2015-10-05,1,,,,,,0
2380,9090001007894,登記記録の閉鎖等,0,2026-02-02,2026-01-27,大月真木産業株式会社,,株式会社,山梨県,大月市,大月町真木３９４２番地,,19,206,4010016,,,2026-01-27,登記官による閉鎖,,,2015-10-05,1,,,,,,0
2381,9090001008100,登記記録の閉鎖等,0,2026-02-02,2026-01-27,株式会社喜和創建,,株式会社,山梨県,上野原市,上野原１６５４番地１,,19,212,4090112,,,2026-01-27,登記官による閉鎖,,,2015-10-05,1,,,,,,0
2382,9090001008521,登記記録の閉鎖等,0,2026-02-02,2026-01-27,株式会社増寿多屋,,株式会社,山梨県,都留市,つる１丁目１番２５号,,19,204,4020056,,,2026-01-27,登記官による閉鎖,,,2015-10-05,1,,,,,,0
2383,9090001008926,登記記録の閉鎖等,0,2026-02-02,2026-01-27,千代田金属工業株式会社,,株式会社,山梨県,山梨市,正徳寺４９０番地,,19,205,4050032,,,2026-01-27,登記官による閉鎖,,,2015-10-05,1,,,,,,0
2384,9090001009081,登記記録の閉鎖等,0,2026-02-02,2026-01-27,環境科学開発株式会社,,株式会社,山梨県,甲州市,塩山西広門田１２３番地７,,19,213,4040037,,,2026-01-27,登記官による閉鎖,,,2015-10-05,1,,,,,,0
2385,9090001009544,登記記録の閉鎖等,0,2026-02-02,2026-01-27,株式会社アール・エヌ・ディー,,株式会社,山梨県,南都留郡鳴沢村,５６０８番地,,19,429,4010320,,,2026-01-27,登記官による閉鎖,,,2015-10-05,1,,,,,,0
2386,9090001009742,登記記録の閉鎖等,0,2026-02-02,2026-01-27,株式会社三和渡辺,,株式会社,山梨県,富士吉田市,新倉２２０番地,,19,202,4030011,,,2026-01-27,登記官による閉鎖,,,2015-10-05,1,,,,,,0
2387,9090001009750,登記記録の閉鎖等,0,2026-02-02,2026-01-27,山和自動車株式会社,,株式会社,山梨県,南都留郡山中湖村,山中１４番地の１,,19,425,4010501,,,2026-01-27,登記官による閉鎖,,,2015-10-05,1,,,,,,0
2388,9090001009890,登記記録の閉鎖等,0,2026-02-02,2026-01-27,クラシナ株式会社,,株式会社,山梨県,富士吉田市,上吉田２丁目６番１８号,,19,202,4030005,,,2026-01-27,登記官による閉鎖,,,2015-10-05,1,,,,,,0
2389,9090001010155,登記記録の閉鎖等,0,2026-02-02,2026-01-27,株式会社マウントフジファッション商事,,株式会社,山梨県,南都留郡富士河口湖町,勝山１８７番地,,19,430,4010310,,,2026-01-27,登記官による閉鎖,,,2015-10-05,1,,,,,,0
2390,9090001010221,登記記録の閉鎖等,0,2026-02-02,2026-01-27,株式会社山中湖サービスセンター,,株式会社,山梨県,南都留郡山中湖村,平野５０６番地,,19,425,4010502,,,2026-01-27,登記官による閉鎖,,,2015-10-05,1,,,,,ヤマナカコサービスセンター,0
2391,9090001010519,登記記録の閉鎖等,0,2026-02-02,2026-01-27,富士フォレスト株式会社,,株式会社,山梨県,南都留郡西桂町,小沼２７１７番地の４,,19,423,4030022,,,2026-01-27,登記官による閉鎖,,,2015-10-05,1,,,,,,0
2392,9090001011302,登記記録の閉鎖等,0,2026-02-02,2026-01-27,株式会社ジェイ,,株式会社,山梨県,北杜市,高根町清里３５４５番地４１６,,19,209,4070301,,,2026-01-27,登記官による閉鎖,,,2015-10-05,1,,,,,,0
2393,9090001011335,登記記録の閉鎖等,0,2026-02-02,2026-01-27,八高工業株式会社,,株式会社,山梨県,北杜市,長坂町中丸３２７３番地２,,19,209,4080036,,,2026-01-27,登記官による閉鎖,,,2015-10-05,1,,,,,,0
2394,9090001011368,登記記録の閉鎖等,0,2026-02-02,2026-01-27,山梨エネルギー販売株式会社,,株式会社,山梨県,北杜市,長坂町長坂上条２５３３番地,,19,209,4080021,,,2026-01-27,登記官による閉鎖,,,2015-10-05,1,,,,,,0
2395,9090001011384,登記記録の閉鎖等,0,2026-02-02,2026-01-27,エムアンドイー株式会社,,株式会社,山梨県,北杜市,須玉町小倉２５７７番地,,19,209,4080104,,,2026-01-27,登記官による閉鎖,,,2015-10-05,1,,,,,,0
2396,9090001012102,登記記録の閉鎖等,0,2026-02-02,2026-01-27,堀内測量設計株式会社,,株式会社,山梨県,南巨摩郡身延町,常葉３８７８番地,,19,365,4092936,,,2026-01-27,登記官による閉鎖,,,2015-10-05,1,,,,,,0
2397,9090001012184,登記記録の閉鎖等,0,2026-02-02,2026-01-27,株式会社美光社,,株式会社,山梨県,西八代郡市川三郷町,大塚４３７９番地,,19,346,4093611,,,2026-01-27,登記官による閉鎖,,,2015-10-05,1,,,,,,0
2398,9090002003380,登記記録の閉鎖等,0,2026-02-02,2026-01-27,有限会社芳野ビル,,有限会社,山梨県,甲府市,中央１丁目６番４号,,19,201,4000032,,,2026-01-27,登記官による閉鎖,,,2015-10-05,1,,,,,,0
2399,9090002004296,登記記録の閉鎖等,0,2026-02-02,2026-01-27,ウェーブエンジニアリング有限会社,,有限会社,山梨県,中央市,極楽寺３６３番地,,19,214,4093811,,,2026-01-27,登記官による閉鎖,,,2015-10-05,1,,,,,,0
2400,9090002004627,登記記録の閉鎖等,0,2026-02-02,2026-01-27,有限会社新栄商会,,有限会社,山梨県,中巨摩郡昭和町,押越７０５番地,,19,384,4093864,,,2026-01-27,登記官による閉鎖,,,2015-10-05,1,,,,,,0
2402,9090002012225,登記記録の閉鎖等,0,2026-02-02,2026-01-27,有限会社大英工業,,有限会社,山梨県,南都留郡忍野村,忍草２２２１番地の２,,19,424,4010511,,,2026-01-27,登記官による閉鎖,,,2015-10-05,1,,,,,,0
2403,9090002012489,登記記録の閉鎖等,0,2026-02-02,2026-01-27,有限会社星野酒店,,有限会社,山梨県,南都留郡富士河口湖町,船津３６３２番地の６,,19,430,4010301,,,2026-01-27,登記官による閉鎖,,,2015-10-05,1,,,,,,0
2404,9090003000716,登記記録の閉鎖等,0,2026-02-02,2026-01-27,メイフラワーズ合同会社,,合同会社,山梨県,南アルプス市,沢登６７２番地,,19,208,4000302,,,2026-01-27,登記官による閉鎖,,,2015-10-05,1,,,,,,0
2407,9100002014946,登記記録の閉鎖等,0,2026-02-02,2026-01-28,有限会社山崎園,,有限会社,長野県,上田市,常田２丁目１９番７号,,20,203,3860018,,,2026-01-28,清算の結了等,,,2015-10-05,1,,,,,ヤマザキエン,0
2419,9120102017483,登記記録の閉鎖等,0,2026-02-02,2026-01-26,有限会社ワッキーメディカル,,有限会社,大阪府,富田林市,小金台１丁目１５番３号,,27,214,5840083,,,2026-01-26,清算の結了等,,,2015-10-05,1,,,,,ワッキーメディカル,0
2429,9140001035213,登記記録の閉鎖等,0,2026-02-02,2026-01-26,トップソーイング株式会社,,株式会社,兵庫県,神戸市西区,伊川谷町潤和１３１０番地の７,,28,111,6512124,,,2026-01-26,清算の結了等,,,2015-10-05,1,,,,,トップソーイング,0
2432,9140001081793,登記記録の閉鎖等,0,2026-02-02,2026-01-28,株式会社テクノリサーチ,,株式会社,兵庫県,宝塚市,平井５丁目６番４号,,28,214,6650816,,,2026-01-28,清算の結了等,,,2015-10-05,1,,,,,テクノリサーチ,0
2437,9140002057611,登記記録の閉鎖等,0,2026-02-02,2026-01-28,有限会社ビューティサプライ,,有限会社,兵庫県,西宮市,門戸荘１８番６８－４０４号,,28,204,6620825,,,2026-01-28,清算の結了等,,,2015-10-05,1,,,,,ビューティサプライ,0
2439,9150001026302,登記記録の閉鎖等,0,2026-02-02,2026-01-30,株式会社奈良恋,,株式会社,奈良県,大和高田市,大字市場５１１番地１７,,29,202,6350074,,,2026-01-30,清算の結了等,,,2023-04-12,1,,,,,ナラコイ,0
2451,9220001005067,登記記録の閉鎖等,0,2026-02-02,2026-01-29,日本健医器株式会社,,株式会社,石川県,金沢市,長坂町丑１５番地,,17,201,9218114,,,2026-01-29,登記官による閉鎖,,,2015-10-05,1,,,,,,0
2455,9240002001229,登記記録の閉鎖等,0,2026-02-02,2026-01-29,有限会社石原工務店,,有限会社,広島県,広島市佐伯区,利松３丁目３１番２０号,,34,108,7315106,,,2026-01-29,清算の結了等,,,2015-10-05,1,,,,,イシハラコウムテン,0
2462,9290001107451,登記記録の閉鎖等,0,2026-02-02,2026-01-22,江橋株式会社,,株式会社,福岡県,福岡市博多区,博多駅中央街５－１１,,40,132,8120012,,,2026-01-22,清算の結了等,,,2024-10-04,1,,,,,エハシ,0
2493,9390002007970,登記記録の閉鎖等,0,2026-02-02,2026-01-29,有限会社マルタマ商事,,有限会社,山形県,酒田市,みずほ１丁目２０番５,,06,204,9980853,,,2026-01-29,清算の結了等,,,2015-10-05,1,,,,,マルタマショウジ,0
