sequenceNumber,corporateNumber,process,correct,updateDate,changeDate,name,nameImageId,kind,prefectureName,cityName,streetNumber,addressImageId,prefectureCode,cityCode,postCode,addressOutside,addressOutsideImageId,closeDate,closeCause,successorCorporateNumber,changeCause,assignmentDate,latest,enName,enPrefectureName,enCityName,enAddressOutside,furigana,hihyoji
8,1010003043721,登記記録の閉鎖等,0,2024-12-19,2024-12-16,合同会社ＦＤ,,合同会社,東京都,千代田区,丸の内１丁目６番１号,,13,101,1000005,,,2024-12-16,合併による解散等,3011801011504,令和６年１１月３０日東京都足立区中央本町四丁目２３番１９号株式会社ＦＪＤＮ（3011801011504）に合併し解散,2024-05-14,1,,,,,エフディー,0
11,1010401052431,登記記録の閉鎖等,0,2024-12-19,2024-12-04,株式会社オオコシセキュリティコンサルタンツ,,株式会社,東京都,港区,芝公園３丁目４番３０号,,13,103,1050011,,,2024-12-04,清算の結了等,,,2015-10-05,1,,,,,オオコシセイキュリティコンサルタンツ,0
13,1010401157404,登記記録の閉鎖等,0,2024-12-19,2024-12-09,株式会社ＴＲＩＰＢＯＯＫ,,株式会社,東京都,港区,台場１丁目１番２号,,13,103,1350091,,,2024-12-09,清算の結了等,,,2021-01-05,1,,,,,トリップブック,0
34,1010701036233,登記記録の閉鎖等,0,2024-12-19,2024-12-11,株式会社戸越防犯,,株式会社,東京都,品川区,戸越３丁目７番１３号,,13,109,1420041,,,2024-12-11,清算の結了等,,,2018-08-08,1,,,,,トゴシボウハン,0
38,1010802010896,登記記録の閉鎖等,0,2024-12-19,2024-12-11,有限会社中島都心建設,,有限会社,東京都,大田区,蒲田１丁目３番７号,,13,111,1440052,,,2024-12-11,清算の結了等,,,2015-10-05,1,,,,,ナカジマトシンケンセツ,0
61,1011401023785,登記記録の閉鎖等,0,2024-12-19,2024-12-12,株式会社ＳＴＡＲＭＩＲＩＳＥ,,株式会社,東京都,板橋区,赤塚３丁目２９番９号アジュール成増２０８,,13,119,1750092,,,2024-12-12,清算の結了等,,,2021-10-27,1,,,,,スターミライズ,0
75,1013301028427,登記記録の閉鎖等,0,2024-12-19,2024-12-12,株式会社Ｍａｐエデュケーション,,株式会社,東京都,足立区,伊興１丁目２４番２５号,,13,121,1210823,,,2024-12-12,清算の結了等,,,2015-10-05,1,,,,,マップエデュケーション,0
77,1013401004848,登記記録の閉鎖等,0,2024-12-19,2024-12-17,和田食品株式会社,,株式会社,東京都,八王子市,東町１０番３号,,13,201,1920082,,,2024-12-17,合併による解散等,9010101004139,令和６年１２月１７日東京都八王子市東町１０番３号株式会社ヴァリアント（9010101004139）に合併し解散,2015-10-05,1,,,,,ワダショクヒン,0
81,1020001119687,登記記録の閉鎖等,0,2024-12-19,2024-12-06,株式会社アグロス,,株式会社,神奈川県,横浜市緑区,東本郷４丁目９番１２号スーベニールコリンヌ２０１号室,,14,113,2260002,,,2024-12-06,清算の結了等,,,2017-01-31,1,,,,,アグロス,0
95,1040001061516,登記記録の閉鎖等,0,2024-12-19,2024-12-13,株式会社大木工房,,株式会社,千葉県,千葉市花見川区,幕張本郷４丁目７番１７－１０２号,,12,102,2620033,,,2024-12-13,清算の結了等,,,2015-10-05,1,,,,,オオキコウボウ,0
118,1110002024976,登記記録の閉鎖等,0,2024-12-19,2024-12-13,有限会社樗沢産業,,有限会社,新潟県,妙高市,大字長沢３０６６番地,,15,217,9440345,,,2024-12-13,清算の結了等,,,2015-10-05,1,,,,,ブナザワサンギョウ,0
123,1120001234071,登記記録の閉鎖等,0,2024-12-19,2024-12-11,株式会社ｋｏｓｈｉｎホールディングス,,株式会社,大阪府,大阪市阿倍野区,昭和町５丁目５番３０号５階,,27,119,5450011,,,2024-12-11,合併による解散等,5120101032082,令和６年１２月６日大阪府羽曳野市向野三丁目２２９番地の１株式会社幸新陸送（5120101032082）に合併し解散,2020-12-23,1,,,,,コウシンホールディングス,0
137,1120901031114,登記記録の閉鎖等,0,2024-12-19,2024-12-17,株式会社有伸,,株式会社,京都府,京都市北区,小山東大野町３９番地１,,26,101,6038162,,,2024-12-17,清算の結了等,,,2015-10-05,1,,,,,ユウシン,0
141,1122001028841,登記記録の閉鎖等,0,2024-12-19,2024-12-18,株式会社ミライテック,,株式会社,大阪府,東大阪市,荒本北１丁目２番３６－２０４号,,27,227,5770011,,,2024-12-18,清算の結了等,,,2015-10-05,1,,,,,ミライテック,0
149,1180001040662,登記記録の閉鎖等,0,2024-12-19,2024-12-12,丸外株式会社,,株式会社,愛知県,尾張旭市,長坂町南山２８７４番地１２２,,23,226,4880821,,,2024-12-12,清算の結了等,,,2015-10-05,1,,,,,マルトノ,0
158,1180301026106,登記記録の閉鎖等,0,2024-12-19,2024-12-16,株式会社イトウ商会,,株式会社,愛知県,西尾市,東幡豆町越田１１４番地１,,23,213,4440701,,,2024-12-16,清算の結了等,,,2015-10-05,1,,,,,イトウショウカイ,0
165,1190001029894,登記記録の閉鎖等,0,2024-12-19,2024-12-17,株式会社ＰＥＡＣＥ,,株式会社,三重県,南牟婁郡紀宝町,井田２２９７番地１,,24,562,5195711,,,2024-12-17,清算の結了等,,,2022-11-07,1,,,,,ピース,0
172,1210001001719,登記記録の閉鎖等,0,2024-12-19,2024-12-16,株式会社シーアイピーテキスタイル,,株式会社,福井県,福井市,布施田町第１８号１２番地,,18,201,9103104,,,2024-12-16,清算の結了等,,,2015-10-05,1,,,,,シーアイピーテキスタイル,0
189,1290801027798,登記記録の閉鎖等,0,2024-12-19,2024-12-16,株式会社キフネエステートサービス,,株式会社,福岡県,北九州市若松区,大字安瀬５７番地の１,,40,103,8080022,,,2024-12-16,清算の結了等,,,2021-09-15,1,,,,,キフネエステートサービス,0
199,1320202000673,登記記録の閉鎖等,0,2024-12-19,2024-12-17,有限会社津久見木材センター,,有限会社,大分県,津久見市,新町１２番８号,,44,207,8792451,,,2024-12-17,清算の結了等,,,2015-10-05,1,,,,,,0
201,1330002002539,登記記録の閉鎖等,0,2024-12-19,2024-12-13,有限会社生蕎麦井上,,有限会社,熊本県,熊本市南区,野田２丁目２９番５９号,,43,104,8614114,,,2024-12-13,清算の結了等,,,2015-10-05,1,,,,,キソバイノウエ,0
207,1360001023483,登記記録の閉鎖等,0,2024-12-19,2024-12-11,株式会社ヒガニューリース運輸,,株式会社,沖縄県,うるま市,石川東恩納１４３１番地２１,,47,213,9041111,,,2024-12-11,合併による解散等,6360001020088,令和６年１２月１日沖縄県うるま市石川東恩納１４３１番地２１日伸株式会社（6360001020088）に合併し解散,2018-02-07,1,,,,,ヒガニューリースウンユ,0
208,1370002009357,登記記録の閉鎖等,0,2024-12-19,2024-12-17,有限会社アクトグリーン,,有限会社,宮城県,仙台市青葉区,貝ケ森３丁目１５番２号,,04,101,9810942,,,2024-12-17,清算の結了等,,,2015-10-05,1,,,,,アクトグリーン,0
214,1380005006631,登記記録の閉鎖等,0,2024-12-19,2024-12-06,医療法人よこぎ内科胃腸科クリニック,,その他の設立登記法人,福島県,いわき市,勿来町窪田町通４丁目８番地,,07,204,9790141,,,2024-12-06,清算の結了等,,,2015-10-05,1,,,,,ヨコギナイカイチョウカクリニック,0
215,1390001013688,登記記録の閉鎖等,0,2024-12-19,2024-12-16,株式会社Ｐｈｙｓｉｃａｌ　Ｃｏｎｄｉｔｉｏｎ　Ｙａｍａｇａｔａ,,株式会社,山形県,山形市,宮町４丁目２１番２７号,,06,201,9900057,,,2024-12-16,清算の結了等,,,2015-10-05,1,,,,,フィジカルコンディションヤマガタ,0
216,1390002008035,登記記録の閉鎖等,0,2024-12-19,2024-12-16,有限会社メビウス,,有限会社,山形県,酒田市,若竹町１丁目１１番２号,,06,204,9980834,,,2024-12-16,清算の結了等,,,2015-10-05,1,,,,,メビウス,0
219,1430001020861,登記記録の閉鎖等,0,2024-12-19,2024-12-16,日本総合建設株式会社,,株式会社,北海道,札幌市清田区,清田二条２丁目５番１０号,,01,110,0040842,,,2024-12-16,清算の結了等,,,2015-10-05,1,,,,,ニホンソウゴウケンセツ,0
223,1430002061384,登記記録の閉鎖等,0,2024-12-19,2024-12-17,有限会社オートフレンド静内,,有限会社,北海道,日高郡新ひだか町,静内中野町３丁目４７番地の１９,,01,610,0560006,,,2024-12-17,清算の結了等,,,2015-10-05,1,,,,,オートフレンドシズナイ,0
235,2010001154791,登記記録の閉鎖等,0,2024-12-19,2024-10-01,株式会社ＵＡＣＪ鋳鍛,,株式会社,東京都,千代田区,大手町１丁目７番２号,,13,101,1000004,,,2024-10-01,合併による解散等,9010001098116,令和６年１０月１日東京都千代田区大手町一丁目７番２号株式会社ＵＡＣＪ（9010001098116）に合併し解散,2015-10-05,1,,,,,ユーエーシージェイチュウタン,0
245,2010101011298,登記記録の閉鎖等,0,2024-12-19,2024-12-17,株式会社スタジオＫＡＩＭＵ,,株式会社,東京都,杉並区,南荻窪４丁目３５番２０号ゼネラルビル３階,,13,115,1670052,,,2024-12-17,清算の結了等,,,2015-10-05,1,,,,,スタジオカイム,0
260,2010501043338,登記記録の閉鎖等,0,2024-12-19,2024-12-16,竹園株式会社,,株式会社,東京都,台東区,東上野１丁目８－２オーイズミ東上野ビル東館９階,,13,106,1100015,,,2024-12-16,清算の結了等,,,2018-11-16,1,,,,,タケゾノ,0
268,2010902020365,登記記録の閉鎖等,0,2024-12-19,2024-12-16,有限会社鳳書房,,有限会社,東京都,世田谷区,千歳台１丁目３０番１３号,,13,112,1570071,,,2024-12-16,清算の結了等,,,2015-10-05,1,,,,,オオトリショボウ,0
286,2011505001447,登記記録の閉鎖等,0,2024-12-19,2024-12-17,一般社団法人生活習慣病コーディネーター協会,,その他の設立登記法人,東京都,文京区,本郷４丁目２４番７号,,13,105,1130033,,,2024-12-17,清算の結了等,,,2015-10-05,1,,,,,セイカツシュウカンビョウコーディネーターキョウカイ,0
289,2011602001589,登記記録の閉鎖等,0,2024-12-19,2024-12-10,有限会社エスピー,,有限会社,東京都,練馬区,早宮１丁目３４番１０号,,13,120,1790085,,,2024-12-10,清算の結了等,,,2015-10-05,1,,,,,エスピー,0
290,2011602024020,登記記録の閉鎖等,0,2024-12-19,2024-12-09,有限会社新穀屋米穀店,,有限会社,東京都,練馬区,田柄２丁目３２番１７号,,13,120,1790073,,,2024-12-09,清算の結了等,,,2015-10-05,1,,,,,シンコクヤベイコクテン,0
291,2011701014434,登記記録の閉鎖等,0,2024-12-19,2024-12-11,パートナーハウス株式会社,,株式会社,東京都,葛飾区,金町１丁目２３番１５号エピソード金町１０１号室,,13,122,1250042,,,2024-12-11,清算の結了等,,,2015-10-05,1,,,,,パートナーハウス,0
302,2012801016139,登記記録の閉鎖等,0,2024-12-19,2024-12-11,株式会社Ａｖａｎｔｉｅ,,株式会社,東京都,立川市,幸町４丁目４８番地の９,,13,202,1900002,,,2024-12-11,清算の結了等,,,2015-10-05,1,,,,,アヴァンティ,0
321,2021002049039,登記記録の閉鎖等,0,2024-12-19,2024-12-12,有限会社ＢＢＳアカギ,,有限会社,神奈川県,綾瀬市,寺尾釜田２丁目４－２８,,14,218,2521135,,,2024-12-12,清算の結了等,,,2015-10-05,1,,,,,ビービーエスアカギ,0
322,2030001019885,登記記録の閉鎖等,0,2024-12-19,2024-12-16,株式会社大前,,株式会社,埼玉県,さいたま市浦和区,常盤１丁目１番１１－１３０６号,,11,107,3300061,,,2024-12-16,清算の結了等,,,2015-10-05,1,,,,,オオマエ,0
331,2040001002774,登記記録の閉鎖等,0,2024-12-19,2024-12-12,里見興業株式会社,,株式会社,千葉県,千葉市花見川区,作新台４丁目１４番１１号,,12,102,2620045,,,2024-12-12,清算の結了等,,,2015-10-05,1,,,,,サトミコウギョウ,0
335,2040002053429,登記記録の閉鎖等,0,2024-12-19,2024-12-12,有限会社アドバンス,,有限会社,千葉県,松戸市,松戸１２２８番地の１松戸ステーションビル５階１８号,,12,207,2710092,,,2024-12-12,清算の結了等,,,2015-10-05,1,,,,,アドバンス,0
336,2040002064723,登記記録の閉鎖等,0,2024-12-19,2024-12-12,株式会社アスク,,株式会社,千葉県,四街道市,鹿放ケ丘４９３番地１０,,12,228,2840008,,,2024-12-12,清算の結了等,,,2015-10-05,1,,,,,アスク,0
346,2070005003221,登記記録の閉鎖等,0,2024-12-19,2024-12-13,安中電気工事協同組合,,その他の設立登記法人,群馬県,安中市,高別当１９６番地の１,,10,211,3790132,,,2024-12-13,清算の結了等,,,2015-10-05,1,,,,,アンナカデンキコウジ,0
348,2080003003164,登記記録の閉鎖等,0,2024-12-19,2024-12-11,ｍｏｉｍｏｉ合同会社,,合同会社,静岡県,静岡市駿河区,西脇１１番地の１－２階,,22,102,4228044,,,2024-12-11,清算の結了等,,,2024-04-01,1,,,,,モイモイ,0
356,2100002019183,登記記録の閉鎖等,0,2024-12-19,2024-12-12,有限会社生金本店,,有限会社,東京都,世田谷区,上馬５丁目２０番１５－４１３号,,13,112,1540011,,,2024-12-12,清算の結了等,,,2015-10-05,1,,,,,イッキンホンテン,0
373,2120002033463,登記記録の閉鎖等,0,2024-12-19,2024-12-18,有限会社朝日食堂,,有限会社,大阪府,大阪市中央区,日本橋１丁目１６番２号,,27,128,5420073,,,2024-12-18,清算の結了等,,,2015-10-05,1,,,,,アサヒショクドウ,0
384,2140001009231,登記記録の閉鎖等,0,2024-12-19,2024-12-12,株式会社タックギケン,,株式会社,兵庫県,神戸市中央区,元町通２丁目３番２号,,28,110,6500022,,,2024-12-12,合併による解散等,6140001009203,令和６年１２月１日神戸市中央区元町通二丁目３番２号株式会社たくみ商会（6140001009203）に合併し解散,2015-10-05,1,,,,,タックギケン,0
385,2140001055878,登記記録の閉鎖等,0,2024-12-19,2024-12-10,株式会社キヅキハウス,,株式会社,兵庫県,豊岡市,寿町７番１３号,,28,209,6680024,,,2024-12-10,合併による解散等,8140001055872,令和６年１２月１０日兵庫県豊岡市元町１１番２１号株式会社キヅキ商会（8140001055872）に合併し解散,2015-10-05,1,,,,,キヅキハウス,0
387,2140001104726,登記記録の閉鎖等,0,2024-12-19,2024-12-16,株式会社Ｄｅａｒ　Ｃｏｌｌｅｃｔｉｏｎ,,株式会社,大阪府,大阪市福島区,大開１丁目５番２９号,,27,103,5530007,,,2024-12-16,清算の結了等,,,2017-01-17,1,,,,,ディアコレクション,0
392,2140002033783,登記記録の閉鎖等,0,2024-12-19,2024-12-13,有限会社コスメティックハウスハシモト,,有限会社,兵庫県,相生市,旭３丁目１０番３号,,28,208,6780031,,,2024-12-13,清算の結了等,,,2015-10-05,1,,,,,コスメティックハウスハシモト,0
410,2180302015437,登記記録の閉鎖等,0,2024-12-19,2024-12-13,有限会社三港鉄工所,,有限会社,愛知県,蒲郡市,形原町港町１３３番地の３,,23,214,4430104,,,2024-12-13,清算の結了等,,,2015-10-05,1,,,,,サンコウテッコウジョ,0
421,2220001022498,登記記録の閉鎖等,0,2024-12-19,2024-12-16,株式会社インフィニティ,,株式会社,石川県,金沢市,金石下寺町２番１２号,,17,201,9200315,,,2024-12-16,清算の結了等,,,2018-09-28,1,,,,,,0
422,2230002009072,登記記録の閉鎖等,0,2024-12-19,2024-12-17,有限会社水井海産,,有限会社,富山県,滑川市,常盤町７０７番地２,,16,206,9360027,,,2024-12-17,清算の結了等,,,2015-10-05,1,,,,,ミズイカイサン,0
426,2250001019467,登記記録の閉鎖等,0,2024-12-19,2024-12-16,株式会社周南開発工業,,株式会社,山口県,周南市,野上町２丁目１６番地,,35,215,7450042,,,2024-12-16,清算の結了等,,,2022-03-25,1,,,,,シュウナンカイハツコウギョウ,0
432,2280002001116,登記記録の閉鎖等,0,2024-12-19,2024-12-18,有限会社しようえい,,有限会社,島根県,松江市,浜佐田町９６５番地,,32,201,6900855,,,2024-12-18,清算の結了等,,,2015-10-05,1,,,,,シヨウエイ,0
447,2340001005945,登記記録の閉鎖等,0,2024-12-19,2024-12-17,株式会社スイク,,株式会社,鹿児島県,鹿児島市,下伊敷２丁目２３番２３号,,46,201,8900005,,,2024-12-17,清算の結了等,,,2015-10-05,1,,,,,スイク,0
460,2390002011954,登記記録の閉鎖等,0,2024-12-19,2024-12-16,有限会社寺崎工務店,,有限会社,山形県,北村山郡大石田町,大字横山４９９番地,,06,341,9994121,,,2024-12-16,清算の結了等,,,2015-10-05,1,,,,,テラサキコウムテン,0
466,2420005007509,登記記録の閉鎖等,0,2024-12-19,2024-12-12,特定非営利活動法人まごころ,,その他の設立登記法人,青森県,青森市,千刈１丁目２６番３号,,02,201,0380015,,,2024-12-12,清算の結了等,,,2017-08-23,1,,,,,マゴコロ,0
470,2430001051897,登記記録の閉鎖等,0,2024-12-19,2024-12-16,オーエムフーズ株式会社,,株式会社,北海道,虻田郡倶知安町,南八条東１丁目１番地,,01,400,0440022,,,2024-12-16,清算の結了等,,,2015-10-05,1,,,,,オーエムフーズ,0
477,2480001002227,登記記録の閉鎖等,0,2024-12-19,2024-12-18,株式会社前田兄弟,,株式会社,徳島県,徳島市,一番町３丁目１０番地,,36,201,7700833,,,2024-12-18,清算の結了等,,,2015-10-05,1,,,,,マエダキョウダイ,0
487,3010001178121,登記記録の閉鎖等,0,2024-12-19,2024-12-05,わいち株式会社,,株式会社,東京都,文京区,音羽２丁目８番２号,,13,105,1120013,,,2024-12-05,清算の結了等,,,2016-09-06,1,,,,,ワイチ,0
490,3010001229551,登記記録の閉鎖等,0,2024-12-19,2024-12-16,株式会社ＹＳＫ１２,,株式会社,東京都,千代田区,麹町２丁目６番地５,,13,101,1020083,,,2024-12-16,合併による解散等,5260001022723,令和６年１２月１日岡山県真庭市久世１７３４番地山陽精機株式会社（5260001022723）に合併し解散,2022-09-16,1,,,,,ワイエスケイジュウニ,0
497,3010101011289,登記記録の閉鎖等,0,2024-12-19,2024-12-17,株式会社縁力,,株式会社,東京都,八王子市,七国５丁目３０－８リトルシャイン１０２,,13,201,1920919,,,2024-12-17,清算の結了等,,,2015-10-05,1,,,,,エンリキ,0
500,3010401130945,登記記録の閉鎖等,0,2024-12-19,2024-12-02,４５Ｒ－Ｊ株式会社,,株式会社,東京都,港区,南青山７丁目２番１号,,13,103,1070062,,,2024-12-02,合併による解散等,2010401025972,令和６年１２月１日東京都港区南青山七丁目２番１号フオーテイフアイブ・アールピーエムスタジオ株式会社（2010401025972）に合併し解散,2017-04-18,1,,,,,フォーティーファイブアールジェイ,0
527,3011502008295,登記記録の閉鎖等,0,2024-12-19,2024-12-10,有限会社ＫＡコンサルティング,,有限会社,東京都,新宿区,新宿３丁目１番２４号,,13,104,1600022,,,2024-12-10,清算の結了等,,,2015-10-05,1,,,,,ケーエーコンサルティング,0
531,3011801033738,登記記録の閉鎖等,0,2024-12-19,2024-12-16,株式会社光鮫,,株式会社,東京都,足立区,西保木間１丁目１７番１５号,,13,121,1210812,,,2024-12-16,清算の結了等,,,2017-08-14,1,,,,,,0
557,3020003008837,登記記録の閉鎖等,0,2024-12-19,2024-12-10,アイタムサポート合同会社,,合同会社,神奈川県,横浜市西区,老松町１４番地１,,14,103,2200032,,,2024-12-10,清算の結了等,,,2015-10-05,1,,,,,アイタムサポート,0
583,3050001040145,登記記録の閉鎖等,0,2024-12-19,2024-12-13,株式会社ＷＰＧ,,株式会社,茨城県,北茨城市,磯原町磯原４丁目８０番地１０１,,08,215,3191541,,,2024-12-13,清算の結了等,,,2015-11-30,1,,,,,ダブリューピージィ,0
585,3050002039211,登記記録の閉鎖等,0,2024-12-19,2024-12-13,有限会社ＨＩＧＨ　ＴＡＩＬ,,有限会社,茨城県,牛久市,ひたち野西３丁目３８番地１（２－１２０４）,,08,219,3001206,,,2024-12-13,清算の結了等,,,2015-10-05,1,,,,,ハイテイル,0
592,3060002003975,登記記録の閉鎖等,0,2024-12-19,2024-12-13,有限会社小森製作所,,有限会社,栃木県,宇都宮市,駒生町１３５９番地,,09,201,3200065,,,2024-12-13,清算の結了等,,,2015-10-05,1,,,,,コモリセイサクジョ,0
602,3100001023020,登記記録の閉鎖等,0,2024-12-19,2024-12-16,大島建設株式会社,,株式会社,長野県,下伊那郡松川町,元大島６８０番地,,20,402,3993303,,,2024-12-16,清算の結了等,,,2015-10-05,1,,,,,オオシマケンセツ,0
606,3110001034082,登記記録の閉鎖等,0,2024-12-19,2024-12-13,株式会社トラストネット,,株式会社,新潟県,南蒲原郡田上町,大字石田新田３０５番地１,,15,361,9591521,,,2024-12-13,清算の結了等,,,2019-06-07,1,,,,,トラストネット,0
622,3120901001775,登記記録の閉鎖等,0,2024-12-19,2024-12-13,株式会社央安,,株式会社,大阪府,茨木市,宮島１丁目１番１号,,27,211,5670853,,,2024-12-13,清算の結了等,,,2015-10-05,1,,,,,ヒサヤス,0
624,3122001025060,登記記録の閉鎖等,0,2024-12-19,2024-12-16,株式会社ジラフインターナショナル,,株式会社,大阪府,大阪市中央区,南本町２丁目１番１号,,27,128,5410054,,,2024-12-16,清算の結了等,,,2015-10-05,1,,,,,ジラフインターナショナル,0
626,3130001013893,登記記録の閉鎖等,0,2024-12-19,2024-12-19,ウインダム株式会社,,株式会社,京都府,京都市伏見区,深草中ノ郷山町１１５番地２,,26,109,6120818,,,2024-12-19,清算の結了等,,,2015-10-05,1,,,,,ウインダム,0
642,3160002007999,登記記録の閉鎖等,0,2024-12-19,2024-12-17,有限会社川部バルブ工業,,有限会社,滋賀県,彦根市,平田町７６７番地の４,,25,202,5220041,,,2024-12-17,清算の結了等,,,2015-10-05,1,,,,,カワベバルブコウギョウ,0
645,3180001008699,登記記録の閉鎖等,0,2024-12-19,2024-12-17,株式会社タカミ,,株式会社,愛知県,名古屋市昭和区,福江３丁目４番１８号,,23,107,4660059,,,2024-12-17,清算の結了等,,,2015-10-05,1,,,,,タカミ,0
647,3180001126749,登記記録の閉鎖等,0,2024-12-19,2024-12-13,株式会社豊玉商事,,株式会社,愛知県,名古屋市天白区,八事山４４３番地,,23,116,4680077,,,2024-12-13,清算の結了等,,,2017-03-01,1,,,,,トヨタマショウジ,0
649,3180003023606,登記記録の閉鎖等,0,2024-12-19,2024-12-12,合同会社シャクヤク,,合同会社,愛知県,名古屋市中区,栄１丁目１２番６号（秋月ハイツ１００５号）,,23,106,4600008,,,2024-12-12,清算の結了等,,,2022-03-16,1,,,,,シャクヤク,0
654,3180302021541,登記記録の閉鎖等,0,2024-12-19,2024-12-12,有限会社エスケー,,有限会社,愛知県,豊田市,美里３丁目１４番地１５,,23,211,4710805,,,2024-12-12,清算の結了等,,,2015-10-05,1,,,,,エスケー,0
656,3190001022674,登記記録の閉鎖等,0,2024-12-19,2024-12-17,ティエムティ株式会社,,株式会社,三重県,四日市市,山田町８００番,,24,202,5121111,,,2024-12-17,清算の結了等,,,2015-10-05,1,,,,,ティエムティ,0
661,3210001014801,登記記録の閉鎖等,0,2024-12-19,2024-12-16,株式会社ヤマヤ,,株式会社,福井県,福井市,二の宮５丁目１４番１３号,,18,201,9100015,,,2024-12-16,清算の結了等,,,2015-10-05,1,,,,,ヤマヤ,0
669,3240002000129,登記記録の閉鎖等,0,2024-12-19,2024-12-17,有限会社アイ・エム・エンジニアリング,,有限会社,広島県,広島市安佐北区,落合南４丁目８－１３,,34,106,7391732,,,2024-12-17,清算の結了等,,,2015-10-05,1,,,,,,0
670,3240002004971,登記記録の閉鎖等,0,2024-12-19,2024-12-16,有限会社國田産業,,有限会社,広島県,広島市安佐南区,伴東５丁目２２番３５号,,34,105,7313164,,,2024-12-16,清算の結了等,,,2015-10-05,1,,,,,クニタサンギョウ,0
673,3260002032608,登記記録の閉鎖等,0,2024-12-19,2024-12-16,有限会社陽だまり,,有限会社,岡山県,玉野市,田井４丁目１５番２６号,,33,204,7060001,,,2024-12-16,清算の結了等,,,2015-10-05,1,,,,,ヒダマリ,0
686,3290801002634,登記記録の閉鎖等,0,2024-12-19,2024-12-17,東洋ケミカル株式会社,,株式会社,福岡県,北九州市小倉北区,井堀３丁目７番２８号トーケミビル２階,,40,106,8030835,,,2024-12-17,清算の結了等,,,2015-10-05,1,,,,,トウヨウケミカル,0
702,3380001020700,登記記録の閉鎖等,0,2024-12-19,2024-12-06,ジーエフ通信株式会社,,株式会社,福島県,南会津郡南会津町,宮床字上田１１２番地３,,07,368,9670622,,,2024-12-06,清算の結了等,,,2015-10-05,1,,,,,ジーエフツウシン,0
705,3430001004607,登記記録の閉鎖等,0,2024-12-19,2024-12-17,株式会社共伸,,株式会社,北海道,札幌市北区,北八条西６丁目６番地２,,01,102,0600808,,,2024-12-17,清算の結了等,,,2015-10-05,1,,,,,キョウシン,0
706,3430001036484,登記記録の閉鎖等,0,2024-12-19,2024-12-16,株式会社フォロー,,株式会社,北海道,札幌市西区,西野四条５丁目６番２５号,,01,107,0630034,,,2024-12-16,清算の結了等,,,2015-10-05,1,,,,,フォロー,0
711,3430003015073,登記記録の閉鎖等,0,2024-12-19,2024-12-13,クリーンＳＴＡＹ合同会社,,合同会社,北海道,札幌市北区,新琴似七条２丁目１－３５,,01,102,0010907,,,2024-12-13,清算の結了等,,,2023-05-23,1,,,,,クリーンステイ,0
714,3460402000383,登記記録の閉鎖等,0,2024-12-19,2024-12-16,有限会社宮田建設,,有限会社,北海道,根室市,花園町３丁目２番地,,01,223,0870045,,,2024-12-16,清算の結了等,,,2015-10-05,1,,,,,ミヤタケンセツ,0
717,3500001012032,登記記録の閉鎖等,0,2024-12-19,2024-12-16,智秀産業株式会社,,株式会社,愛媛県,今治市,高橋甲３２４番地２,,38,202,7940066,,,2024-12-16,清算の結了等,,,2015-10-05,1,,,,,チシュウサンギョウ,0
731,4010401096574,登記記録の閉鎖等,0,2024-12-19,2024-12-16,ビスタマックス・ファンド・アドバイザーズ株式会社,,株式会社,東京都,世田谷区,上野毛４丁目３番３号,,13,112,1580093,,,2024-12-16,清算の結了等,,,2015-10-05,1,,,,,ビスタマックスファンドアドバイザーズ,0
771,4011402005524,登記記録の閉鎖等,0,2024-12-19,2024-12-12,有限会社竹折礦業所,,有限会社,東京都,板橋区,前野町３丁目４９番５号,,13,119,1740063,,,2024-12-12,清算の結了等,,,2015-10-05,1,,,,,タケオリコウギョウショ,0
785,4012402013418,登記記録の閉鎖等,0,2024-12-19,2024-12-17,有限会社菅沼製作所,,有限会社,東京都,狛江市,中和泉１丁目１５番３号,,13,219,2010012,,,2024-12-17,清算の結了等,,,2015-10-05,1,,,,,スガヌマセイサクショ,0
807,4021001000669,登記記録の閉鎖等,0,2024-12-19,2024-12-18,株式会社コアデザイン,,株式会社,神奈川県,藤沢市,鵠沼神明５丁目４番１４号,,14,205,2510021,,,2024-12-18,清算の結了等,,,2015-10-05,1,,,,,コアデザイン,0
819,4040001004463,登記記録の閉鎖等,0,2024-12-19,2024-12-12,株式会社中央コンサルティング,,株式会社,千葉県,千葉市中央区,中央３丁目１５番３号,,12,101,2600013,,,2024-12-12,清算の結了等,,,2015-10-05,1,,,,,チュウオウコンサルティング,0
826,4040002101350,登記記録の閉鎖等,0,2024-12-19,2024-12-12,有限会社トミ・テック,,有限会社,千葉県,安房郡鋸南町,中佐久間２４５３番地,,12,463,2992114,,,2024-12-12,清算の結了等,,,2015-10-05,1,,,,,トミテック,0
841,4090001007866,登記記録の閉鎖等,0,2024-12-19,2024-12-13,株式会社アイ・フーズ,,株式会社,山梨県,大月市,御太刀２丁目８番５号,,19,206,4010012,,,2024-12-13,清算の結了等,,,2015-10-05,1,,,,,アイフーズ,0
847,4110002029493,登記記録の閉鎖等,0,2024-12-19,2024-12-13,有限会社ユートピアリース,,有限会社,新潟県,長岡市,川崎５丁目３８５１番地,,15,202,9400864,,,2024-12-13,清算の結了等,,,2015-10-05,1,,,,,ユートピアリース,0
851,4120001129814,登記記録の閉鎖等,0,2024-12-19,2024-12-16,株式会社アーバンプレイス,,株式会社,大阪府,池田市,神田２丁目６番１８号,,27,204,5630043,,,2024-12-16,清算の結了等,,,2015-10-05,1,,,,,アーバンプレイス,0
854,4120001134649,登記記録の閉鎖等,0,2024-12-19,2024-12-13,株式会社ＣＨＬ　ＪＡＰＡＮ,,株式会社,大阪府,大阪市生野区,中川３丁目３番１１－１１０４号,,27,116,5440005,,,2024-12-13,清算の結了等,,,2015-10-05,1,,,,,シーエイチエルジャパン,0
865,4122001025398,登記記録の閉鎖等,0,2024-12-19,2024-12-18,株式会社グラインド,,株式会社,大阪府,大東市,新田北町２番２２号,,27,218,5740052,,,2024-12-18,清算の結了等,,,2015-10-05,1,,,,,グラインド,0
876,4150001010764,登記記録の閉鎖等,0,2024-12-19,2024-12-17,奈良金属株式会社,,株式会社,奈良県,橿原市,縄手町２０５番地の８,,29,205,6340073,,,2024-12-17,清算の結了等,,,2015-10-05,1,,,,,ナラキンゾク,0
877,4160001004055,登記記録の閉鎖等,0,2024-12-19,2024-12-17,株式会社目片工務店,,株式会社,滋賀県,大津市,北大路１丁目７番１５号,,25,201,5200843,,,2024-12-17,清算の結了等,,,2015-10-05,1,,,,,メカタコウムテン,0
879,4160005009348,登記記録の閉鎖等,0,2024-12-19,2024-12-13,特定非営利活動法人ｓｔａｎｄ．,,その他の設立登記法人,滋賀県,守山市,今市町７３番地３,,25,207,5240011,,,2024-12-13,清算の結了等,,,2015-10-05,1,,,,,スタンド,0
884,4180002026550,登記記録の閉鎖等,0,2024-12-19,2024-12-11,マサノリ商事有限会社,,有限会社,愛知県,名古屋市緑区,鳴海町字丸内２７番地,,23,114,4580801,,,2024-12-11,清算の結了等,,,2015-10-05,1,,,,,マサノリショウジ,0
889,4220001020392,登記記録の閉鎖等,0,2024-12-19,2024-12-16,株式会社フランクフーズ金沢,,株式会社,石川県,金沢市,二口町ニ１７番地１,,17,201,9200051,,,2024-12-16,清算の結了等,,,2015-10-05,1,,,,,,0
911,4310002003684,登記記録の閉鎖等,0,2024-12-19,2024-12-13,有限会社長崎北コンタクトレンズセンター,,有限会社,長崎県,長崎市,若葉町１４番１０号,,42,201,8528137,,,2024-12-13,清算の結了等,,,2015-10-05,1,,,,,ナガサキキタコンタクトレンズセンター,0
912,4310002007792,登記記録の閉鎖等,0,2024-12-19,2024-12-16,有限会社ＭＳＥ,,有限会社,長崎県,長崎市,清水町１１番１２号,,42,201,8528041,,,2024-12-16,清算の結了等,,,2015-10-05,1,,,,,エムエスイー,0
913,4310005002345,登記記録の閉鎖等,0,2024-12-19,2024-12-13,大崎ハマチ養殖漁業生産組合,,その他の設立登記法人,長崎県,佐世保市,大潟町５８３番地,,42,202,8580926,,,2024-12-13,清算の結了等,,,2015-10-05,1,,,,,オオサキハマチヨウショク,0
914,4330002007700,登記記録の閉鎖等,0,2024-12-19,2024-12-13,有限会社南州産業,,有限会社,熊本県,熊本市中央区,渡鹿１丁目１７番１号,,43,101,8620970,,,2024-12-13,清算の結了等,,,2015-10-05,1,,,,,ナンシュウサンギョウ,0
924,4370401000616,登記記録の閉鎖等,0,2024-12-19,2024-12-11,株式会社とよま交通,,株式会社,宮城県,登米市,登米町寺池九日町４４番地,,04,212,9870702,,,2024-12-11,清算の結了等,,,2015-10-05,1,,,,,トヨマコウツウ,0
926,4380002007506,登記記録の閉鎖等,0,2024-12-19,2024-12-05,有限会社安積住設,,有限会社,福島県,郡山市,安積町日出山２丁目２２番地の１,,07,203,9630101,,,2024-12-05,清算の結了等,,,2015-10-05,1,,,,,アサカジュウセツ,0
928,4380003001986,登記記録の閉鎖等,0,2024-12-19,2024-12-09,合同会社シルクローズ,,合同会社,福島県,会津若松市,中央２丁目２番１１号,,07,202,9650037,,,2024-12-09,清算の結了等,,,2015-10-05,1,,,,,シルクローズ,0
929,4380005006034,登記記録の閉鎖等,0,2024-12-19,2024-12-09,クレハエンジニアリング協同組合,,その他の設立登記法人,福島県,いわき市,錦町落合１３５番地,,07,204,9748232,,,2024-12-09,清算の結了等,,,2015-10-05,1,,,,,クレハエンジニアリング,0
937,4430005013446,登記記録の閉鎖等,0,2024-12-19,2024-12-17,一般社団法人北海道ファンド,,その他の設立登記法人,北海道,札幌市中央区,北四条西７丁目５番緑苑第二ビル１２０８号,,01,101,0600004,,,2024-12-17,清算の結了等,,,2018-07-06,1,,,,,ホッカイドウファンド,0
948,5010002023126,登記記録の閉鎖等,0,2024-12-19,2024-12-06,有限会社トータル保険サービス,,有限会社,東京都,中央区,日本橋蛎殻町１丁目１１番３号,,13,102,1030014,,,2024-12-06,清算の結了等,,,2015-10-05,1,,,,,トータルホケンサービス,0
949,5010003027811,登記記録の閉鎖等,0,2024-12-19,2024-12-06,合同会社Ｋ－ＦＯＸ,,合同会社,東京都,中央区,日本橋１丁目４番１号,,13,102,1030027,,,2024-12-06,清算の結了等,,,2018-07-03,1,,,,,ケーフォックス,0
956,5010401001665,登記記録の閉鎖等,0,2024-12-19,2024-12-04,株式会社アドバート,,株式会社,東京都,港区,高輪３丁目５番２３号,,13,103,1080074,,,2024-12-04,清算の結了等,,,2015-10-05,1,,,,,アドバート,0
960,5010401118237,登記記録の閉鎖等,0,2024-12-19,2024-12-06,株式会社Ｖｕｎｇｌｅ,,株式会社,東京都,中央区,築地５丁目４番１９号,,13,102,1040045,,,2024-12-06,清算の結了等,,,2015-10-05,1,,,,,バングル,0
963,5010401127907,登記記録の閉鎖等,0,2024-12-19,2024-12-04,株式会社リアル,,株式会社,東京都,港区,新橋１丁目５番５号,,13,103,1050004,,,2024-12-04,清算の結了等,,,2016-10-31,1,,,,,リアル,0
996,5011401004047,登記記録の閉鎖等,0,2024-12-19,2024-12-10,株式会社巽プレス,,株式会社,東京都,板橋区,前野町６丁目８番１０号,,13,119,1740063,,,2024-12-10,清算の結了等,,,2015-10-05,1,,,,,タツミプレス,0
1001,5011402018509,登記記録の閉鎖等,0,2024-12-19,2024-12-10,家鴨家企画有限会社,,有限会社,東京都,板橋区,成増１丁目２９番１５号,,13,119,1750094,,,2024-12-10,清算の結了等,,,2015-10-05,1,,,,,アヒルヤキカク,0
1005,5011601024002,登記記録の閉鎖等,0,2024-12-19,2024-12-05,ＨＵ－ＭＵＳ株式会社,,株式会社,東京都,練馬区,練馬１丁目２０番８号日建練馬ビル２Ｆ,,13,120,1760001,,,2024-12-05,清算の結了等,,,2020-02-20,1,,,,,ヒューマス,0
1009,5011702009521,登記記録の閉鎖等,0,2024-12-19,2024-12-13,有限会社ビジーフォーオフィス,,有限会社,東京都,江戸川区,西一之江４丁目１５番２１号,,13,123,1320023,,,2024-12-13,清算の結了等,,,2015-10-05,1,,,,,ビジーフォーオフィス,0
1017,5020001019405,登記記録の閉鎖等,0,2024-12-19,2024-11-25,株式会社朝日プラスチツク,,株式会社,神奈川県,横浜市港北区,新吉田町４００８番地１,,14,109,2230056,,,2024-11-25,清算の結了等,,,2024-10-04,1,,,,,アサヒプラスチック,0
1025,5020001149813,登記記録の閉鎖等,0,2024-12-19,2024-12-05,株式会社Ｃｌｏｕｄ　Ｎａｖｉｇａｔｏｒ,,株式会社,神奈川県,横浜市青葉区,美しが丘西２丁目４６－１６,,14,117,2250001,,,2024-12-05,清算の結了等,,,2023-01-13,1,,,,,クラウドナビゲーター,0
1031,5020003024510,登記記録の閉鎖等,0,2024-12-19,2024-12-10,合同会社みけ,,合同会社,神奈川県,横浜市神奈川区,羽沢町５８７－１０,,14,102,2210863,,,2024-12-10,清算の結了等,,,2023-09-04,1,,,,,ミケ,0
1036,5021002017760,登記記録の閉鎖等,0,2024-12-19,2024-12-16,有限会社イイヌマ,,有限会社,神奈川県,相模原市中央区,青葉１丁目８番５号,,14,152,2520224,,,2024-12-16,清算の結了等,,,2015-10-05,1,,,,,イイヌマ,0
1039,5021002066345,登記記録の閉鎖等,0,2024-12-19,2024-12-17,有限会社引田書店,,有限会社,神奈川県,横須賀市,久里浜４丁目５番３号,,14,201,2390831,,,2024-12-17,清算の結了等,,,2015-10-05,1,,,,,ヒキタショテン,0
1043,5030001038437,登記記録の閉鎖等,0,2024-12-19,2024-12-17,ケア・ライフ株式会社,,株式会社,埼玉県,八潮市,大字八條１２２０番地,,11,234,3400801,,,2024-12-17,清算の結了等,,,2015-10-05,1,,,,,ケアライフ,0
1046,5040001047206,登記記録の閉鎖等,0,2024-12-19,2024-12-12,株式会社グリーンシャワー,,株式会社,千葉県,四街道市,鹿放ケ丘４３５番地１,,12,228,2840008,,,2024-12-12,清算の結了等,,,2015-10-05,1,,,,,グリーンシャワー,0
1050,5040001090387,登記記録の閉鎖等,0,2024-12-19,2024-12-12,株式会社崎山建設,,株式会社,千葉県,市川市,大野町１丁目５７番地の１６,,12,203,2720805,,,2024-12-12,清算の結了等,,,2015-10-05,1,,,,,サキヤマケンセツ,0
1057,5050001005600,登記記録の閉鎖等,0,2024-12-19,2024-12-13,株式会社大寿,,株式会社,茨城県,水戸市,文京２丁目５番１２号,,08,201,3100056,,,2024-12-13,清算の結了等,,,2015-10-05,1,,,,,ダイジュ,0
1078,5120002015211,登記記録の閉鎖等,0,2024-12-19,2024-12-16,有限会社アイ・イー・シー,,有限会社,大阪府,大阪市港区,磯路２丁目１２番１－７１６号,,27,107,5520003,,,2024-12-16,清算の結了等,,,2015-10-05,1,,,,,アイイーシー,0
1097,5170002006569,登記記録の閉鎖等,0,2024-12-19,2024-12-17,有限会社ハウズ,,有限会社,和歌山県,海南市,日方９８２番地,,30,202,6420002,,,2024-12-17,清算の結了等,,,2015-10-05,1,,,,,ハウズ,0
1112,5210001017595,登記記録の閉鎖等,0,2024-12-19,2024-12-16,オリエンタル株式会社,,株式会社,福井県,福井市,問屋町１丁目１６０番地レクタスビル１階Ｂ号室,,18,201,9188231,,,2024-12-16,清算の結了等,,,2019-06-20,1,,,,,オリエンタル,0
1114,5230001015465,登記記録の閉鎖等,0,2024-12-19,2024-12-13,となみ野セントラルツアー株式会社,,株式会社,富山県,砺波市,宮沢町３番１１号,,16,208,9391388,,,2024-12-13,清算の結了等,,,2015-10-05,1,,,,,トナミノセントラルツアー,0
1117,5240001025224,登記記録の閉鎖等,0,2024-12-19,2024-12-16,株式会社アシスト,,株式会社,広島県,三次市,三次町１３５４番地,,34,209,7280021,,,2024-12-16,清算の結了等,,,2015-10-05,1,,,,,アシスト,0
1119,5240003003244,登記記録の閉鎖等,0,2024-12-19,2024-11-27,合同会社スマイルパートナーズ,,合同会社,広島県,福山市,久松台２丁目２８番３号,,34,207,7200083,,,2024-11-27,清算の結了等,,,2016-04-08,1,,,,,スマイルパートナーズ,0
1129,5290002049639,登記記録の閉鎖等,0,2024-12-19,2024-11-25,有限会社中村宗平商店,,有限会社,福岡県,久留米市,本町１８番地の１６,,40,203,8300044,,,2024-11-25,清算の結了等,,,2015-10-05,1,,,,,ナカムラソウヘイショウテン,0
1131,5290003014749,登記記録の閉鎖等,0,2024-12-19,2024-11-22,合同会社緒方,,合同会社,福岡県,糟屋郡新宮町,花立花２丁目５番１号,,40,345,8110103,,,2024-11-22,清算の結了等,,,2023-12-15,1,,,,,オガタ,0
1139,5330002014002,登記記録の閉鎖等,0,2024-12-19,2024-12-13,有限会社三浦総合保険事務所,,有限会社,熊本県,熊本市東区,東町４丁目１７番３－３０４号,,43,102,8620901,,,2024-12-13,清算の結了等,,,2015-10-05,1,,,,,ミウラソウゴウホケンジムショ,0
1164,6010001037646,登記記録の閉鎖等,0,2024-12-19,2024-12-09,株式会社ウエダコーポレーシヨン,,株式会社,神奈川県,横浜市青葉区,美しが丘西３丁目５７番地１,,14,117,2250001,,,2024-12-09,清算の結了等,,,2015-10-05,1,,,,,ウエダコーポレーション,0
1168,6010003042909,登記記録の閉鎖等,0,2024-12-19,2024-12-06,合同会社シルバーウォッチ,,合同会社,東京都,千代田区,丸の内３丁目１番１号東京共同会計事務所内,,13,101,1000005,,,2024-12-06,清算の結了等,,,2024-02-09,1,,,,,シルバーウォッチ,0
1185,6010502016784,登記記録の閉鎖等,0,2024-12-19,2024-12-11,有限会社プレジール,,有限会社,千葉県,松戸市,古ケ崎３丁目３４３８番地の１０,,12,207,2710068,,,2024-12-11,清算の結了等,,,2015-10-05,1,,,,,プレジール,0
1189,6010603007996,登記記録の閉鎖等,0,2024-12-19,2024-12-10,合同会社ＤＯＬＣＥ,,合同会社,東京都,江東区,豊洲５丁目６番２９－８２１号,,13,108,1350061,,,2024-12-10,清算の結了等,,,2019-10-02,1,,,,,ドルチェ,0
1192,6010702009547,登記記録の閉鎖等,0,2024-12-19,2024-12-11,有限会社三貴,,有限会社,東京都,品川区,西五反田５丁目１１番１１号,,13,109,1410031,,,2024-12-11,清算の結了等,,,2015-10-05,1,,,,,サンキ,0
1193,6010802007814,登記記録の閉鎖等,0,2024-12-19,2024-12-11,有限会社スパック,,有限会社,東京都,大田区,中央４丁目２０番３号,,13,111,1430024,,,2024-12-11,清算の結了等,,,2015-10-05,1,,,,,スパック,0
1194,6010901016014,登記記録の閉鎖等,0,2024-12-19,2024-12-16,株式会社代官山４２９８,,株式会社,東京都,世田谷区,成城７丁目２１番２号,,13,112,1570066,,,2024-12-16,清算の結了等,,,2015-10-05,1,,,,,ダイカンヤマヨンニイキュウハチ,0
1215,6011103007883,登記記録の閉鎖等,0,2024-12-19,2024-12-13,合同会社住空研,,合同会社,東京都,新宿区,新宿５丁目１１番３０号新宿第五葉山ビル３階,,13,104,1600022,,,2024-12-13,合併による解散等,1010403018637,令和６年１２月１日東京都港区芝五丁目２７番３号ＭＢＣ－Ｂ－６４号合同会社ヒラメキ（1010403018637）に合併し解散,2018-05-09,1,,,,,ジュウクウケン,0
1217,6011401021710,登記記録の閉鎖等,0,2024-12-19,2024-12-10,株式会社ＳＨＣ,,株式会社,東京都,板橋区,仲町４１番４パーソネージュ中板橋１０３,,13,119,1730022,,,2024-12-10,清算の結了等,,,2019-03-28,1,,,,,エスエイチシー,0
1223,6011502007154,登記記録の閉鎖等,0,2024-12-19,2024-12-13,有限会社岩波製作所,,有限会社,東京都,荒川区,南千住８丁目６番１－１２１０号,,13,118,1160003,,,2024-12-13,清算の結了等,,,2015-10-05,1,,,,,イワナミセイサクショ,0
1251,6021001072789,登記記録の閉鎖等,0,2024-12-19,2024-12-18,株式会社フィールドフロンティア,,株式会社,神奈川県,藤沢市,辻堂元町６丁目８番１０号,,14,205,2510043,,,2024-12-18,清算の結了等,,,2021-04-28,1,,,,,フィールドフロンティア,0
1254,6021002053854,登記記録の閉鎖等,0,2024-12-19,2024-12-13,株式会社友栄,,株式会社,神奈川県,小田原市,風祭１２２番地,,14,206,2500032,,,2024-12-13,合併による解散等,3010401181294,令和６年１１月２９日東京都港区北青山二丁目１２番４号坂本ビル３階株式会社友栄（3010401181294）に合併し解散,2015-10-05,1,,,,,トモエイ,0
1259,6040001025029,登記記録の閉鎖等,0,2024-12-19,2024-12-12,株式会社サウスオーシャンズ,,株式会社,千葉県,千葉市美浜区,ひび野１丁目９番,,12,106,2610021,,,2024-12-12,清算の結了等,,,2015-10-05,1,,,,,サウスオーシャンズ,0
1264,6040002052014,登記記録の閉鎖等,0,2024-12-19,2024-12-12,有限会社中野屋豆腐店,,有限会社,千葉県,流山市,加６丁目１３２５番地,,12,220,2700176,,,2024-12-12,清算の結了等,,,2024-10-16,1,,,,,ナカノヤトウフテン,0
1271,6060001010400,登記記録の閉鎖等,0,2024-12-19,2024-12-13,駒場鉄工株式会社,,株式会社,栃木県,鹿沼市,樅山町４２５番地３,,09,205,3220046,,,2024-12-13,清算の結了等,,,2015-10-05,1,,,,,コマバテッコウ,0
1273,6060002012313,登記記録の閉鎖等,0,2024-12-19,2024-12-13,有限会社永田呉服店,,有限会社,栃木県,塩谷郡高根沢町,大字宝積寺２３８３番地２６,,09,386,3291233,,,2024-12-13,清算の結了等,,,2015-10-05,1,,,,,ナガタゴフクテン,0
1282,6080002014316,登記記録の閉鎖等,0,2024-12-19,2024-12-16,有限会社千頭木材,,有限会社,静岡県,榛原郡川根本町,千頭９８５番地の４,,22,429,4280411,,,2024-12-16,清算の結了等,,,2016-03-11,1,,,,,センズモクザイ,0
1287,6080402020938,登記記録の閉鎖等,0,2024-12-19,2024-12-13,有限会社遠山システム,,有限会社,静岡県,磐田市,豊田西之島１９３番地,,22,211,4380835,,,2024-12-13,清算の結了等,,,2015-10-05,1,,,,,トオヤマシステム,0
1294,6110002017166,登記記録の閉鎖等,0,2024-12-19,2024-12-13,有限会社サンクス,,有限会社,新潟県,三条市,東裏館２丁目２２番５号,,15,204,9550081,,,2024-12-13,清算の結了等,,,2015-10-05,1,,,,,サンクス,0
1301,6120001190517,登記記録の閉鎖等,0,2024-12-19,2024-12-16,株式会社カスタマーサポート,,株式会社,大阪府,大阪市北区,梅田１丁目１－３大阪駅前第３ビル５階,,27,127,5300001,,,2024-12-16,清算の結了等,,,2015-10-05,1,,,,,カスタマーサポート,0
1302,6120001201356,登記記録の閉鎖等,0,2024-12-19,2024-12-16,ＩＭＰＡＣＴ　ＰＥＲＦＯＲＭＡＮＣＥ株式会社,,株式会社,大阪府,大阪市都島区,都島本通２丁目１１番１３号エルプラド楠風１００３号,,27,102,5340021,,,2024-12-16,清算の結了等,,,2016-10-20,1,,,,,インパクトパフォーマンス,0
1309,6120003025613,登記記録の閉鎖等,0,2024-12-19,2024-12-02,合同会社アフェール,,合同会社,大阪府,大阪市生野区,鶴橋１丁目５番３号,,27,116,5440031,,,2024-12-02,清算の結了等,,,2024-01-05,1,,,,,アフェール,0
1314,6120901010419,登記記録の閉鎖等,0,2024-12-19,2024-12-16,株式会社岩幸組,,株式会社,大阪府,高槻市,大字萩谷１４番地の４,,27,207,5691054,,,2024-12-16,清算の結了等,,,2015-10-05,1,,,,,イワコウグミ,0
1323,6140001072770,登記記録の閉鎖等,0,2024-12-19,2024-12-13,日本化成株式会社,,株式会社,兵庫県,西宮市,今津山中町１０番２２号,,28,204,6638211,,,2024-12-13,清算の結了等,,,2015-10-05,1,,,,,ニホンカセイ,0
1347,6180301009023,登記記録の閉鎖等,0,2024-12-19,2024-12-13,株式会社あさひ,,株式会社,愛知県,豊橋市,向山台町１６番地１,,23,201,4400865,,,2024-12-13,清算の結了等,,,2015-10-05,1,,,,,アサヒ,0
1351,6180302020482,登記記録の閉鎖等,0,2024-12-19,2024-12-13,有限会社新丸,,有限会社,愛知県,高浜市,碧海町３丁目１番地２４,,23,227,4441324,,,2024-12-13,清算の結了等,,,2015-10-05,1,,,,,シンマル,0
1353,6180303005037,登記記録の閉鎖等,0,2024-12-19,2024-12-16,ＤａｍｏｎＢｒｏｔｈｅｒｓ合同会社,,合同会社,愛知県,岡崎市,北本郷町字野添１６‐１コンフォール野添Ｂ‐１４,,23,202,4440944,,,2024-12-16,清算の結了等,,,2021-07-01,1,,,,,デイモンブラザーズ,0
1357,6220001023385,登記記録の閉鎖等,0,2024-12-19,2024-12-17,株式会社ＫＵコープ,,株式会社,石川県,金沢市,角間町ヌ７番地,,17,201,9201164,,,2024-12-17,清算の結了等,,,2020-02-19,1,,,,,ケーユーコープ,0
1361,6240002043067,登記記録の閉鎖等,0,2024-12-19,2024-12-16,有限会社松井工業,,有限会社,広島県,福山市,新浜町１丁目５番３１号,,34,207,7210951,,,2024-12-16,清算の結了等,,,2015-10-05,1,,,,,マツイコウギョウ,0
1365,6260001002922,登記記録の閉鎖等,0,2024-12-19,2024-12-13,株式会社ザ・サード,,株式会社,岡山県,岡山市北区,表町３丁目１４番１号,,33,101,7000822,,,2024-12-13,清算の結了等,,,2015-10-05,1,,,,,ザサード,0
1366,6260001034676,登記記録の閉鎖等,0,2024-12-19,2024-12-16,福山商事株式会社,,株式会社,岡山県,岡山市南区,藤田１４３８番地の１,,33,104,7010221,,,2024-12-16,清算の結了等,,,2020-09-03,1,,,,,フクヤマショウジ,0
1367,6270003000304,登記記録の閉鎖等,0,2024-12-19,2024-12-18,グレイス合同会社,,合同会社,鳥取県,米子市,上福原６丁目４番１７号,,31,202,6830004,,,2024-12-18,清算の結了等,,,2015-10-05,1,,,,,グレイス,0
1371,6290001076708,登記記録の閉鎖等,0,2024-12-19,2024-11-26,株式会社エイチケーエー,,株式会社,福岡県,福岡市中央区,天神４丁目６－２８天神ファーストビル７階,,40,133,8100001,,,2024-11-26,清算の結了等,,,2017-02-10,1,,,,,エイチケーエー,0
1386,6330001013557,登記記録の閉鎖等,0,2024-12-19,2024-12-16,興人機工株式会社,,株式会社,熊本県,八代市,興国町１番１号,,43,202,8660881,,,2024-12-16,合併による解散等,1010001147706,令和６年１２月１日東京都港区芝公園二丁目６番１５号興人フィルム＆ケミカルズ株式会社（1010001147706）に合併し解散,2015-10-05,1,,,,,コウジンキコウ,0
1398,6390001004708,登記記録の閉鎖等,0,2024-12-19,2024-12-16,株式会社阿部鯉屋,,株式会社,山形県,上山市,松山１丁目２番１９号,,06,207,9993146,,,2024-12-16,清算の結了等,,,2015-10-05,1,,,,,アベコイヤ,0
1406,6430001075100,登記記録の閉鎖等,0,2024-12-19,2024-12-11,株式会社ＬＮＪ札幌,,株式会社,北海道,札幌市中央区,大通西８丁目２番地６ＬＮＪ札幌大通公園ビル,,01,101,0600042,,,2024-12-11,合併による解散等,4430001020074,令和６年１２月２日札幌市中央区大通西八丁目２番地６札幌通運株式会社（4430001020074）に合併し解散,2017-10-05,1,,,,,エルエヌジェイサッポロ,0
1407,6430001078301,登記記録の閉鎖等,0,2024-12-19,2024-12-16,コロッケ株式会社,,株式会社,北海道,札幌市中央区,北七条西１８丁目１番地３,,01,101,0600007,,,2024-12-16,清算の結了等,,,2019-02-07,1,,,,,コロッケ,0
1413,6470002011562,登記記録の閉鎖等,0,2024-12-19,2024-12-16,有限会社岸本釣具商会,,有限会社,香川県,丸亀市,福島町５４番地,,37,202,7630044,,,2024-12-16,清算の結了等,,,2015-10-05,1,,,,,キシモトツリグショウカイ,0
1419,7010001106739,登記記録の閉鎖等,0,2024-12-19,2024-12-04,株式会社エム・ジェイ企画,,株式会社,東京都,千代田区,神田松永町１７アサヒＫビル,,13,101,1010023,,,2024-12-04,清算の結了等,,,2015-10-05,1,,,,,エムジェイキカク,0
1430,7010005037237,登記記録の閉鎖等,0,2024-12-19,2024-12-16,ＭＥ物流開発一般社団法人,,その他の設立登記法人,東京都,中央区,日本橋１丁目４番１号日本橋一丁目ビルディング,,13,102,1030027,,,2024-12-16,清算の結了等,,,2023-09-07,1,,,,,エムイーブツリュウカイハツ,0
1433,7010401071186,登記記録の閉鎖等,0,2024-12-19,2024-12-13,Ｃｌｉｎ－Ｔｒｕｓｔ株式会社,,株式会社,東京都,港区,港南４丁目６番４－３８０４号,,13,103,1080075,,,2024-12-13,合併による解散等,3010003042606,令和６年１２月１日東京都中央区銀座一丁目１２番４号Ｎ＆ＥＢＬＤ．６ＦＣｌｉｎ‐Ｔｒｕｓｔ合同会社（3010003042606）に合併し解散,2015-10-05,1,,,,,クリントラスト,0
1434,7010401142391,登記記録の閉鎖等,0,2024-12-19,2024-12-04,富比士株式会社,,株式会社,東京都,港区,三田１丁目２番１８号ＴＴＤビル,,13,103,1080073,,,2024-12-04,清算の結了等,,,2018-12-04,1,,,,,フウヒシ,0
1435,7010401156854,登記記録の閉鎖等,0,2024-12-19,2024-12-04,株式会社ＩＮＦＬＵＥＮＣＥＲ　ＢＡＮＫ,,株式会社,東京都,港区,赤坂４丁目１５番１号,,13,103,1070052,,,2024-12-04,合併による解散等,5010401101135,令和６年１２月１日東京都港区赤坂四丁目１５番１号株式会社イニシャル（5010401101135）に合併し解散,2020-12-04,1,,,,,インフルエンサーバンク,0
1436,7010401178948,登記記録の閉鎖等,0,2024-12-19,2024-12-04,株式会社Ｄｙｎａ‐ｐｒｏ,,株式会社,東京都,港区,六本木７丁目５番９号,,13,103,1060032,,,2024-12-04,清算の結了等,,,2023-12-11,1,,,,,ダイナプロ,0
1464,7011101025416,登記記録の閉鎖等,0,2024-12-19,2024-12-10,株式会社シジシー・ショップ,,株式会社,東京都,新宿区,大久保２丁目１番１号,,13,104,1690072,,,2024-12-10,清算の結了等,,,2015-10-05,1,,,,,シジシーショップ,0
1473,7011601007517,登記記録の閉鎖等,0,2024-12-19,2024-12-09,株式会社和田測量設計事務所,,株式会社,東京都,練馬区,大泉学園町１丁目１番５号,,13,120,1780061,,,2024-12-09,清算の結了等,,,2015-10-05,1,,,,,ワダソクリョウセッケイジムショ,0
1476,7011701004835,登記記録の閉鎖等,0,2024-12-19,2024-12-13,高木炭酸株式会社,,株式会社,東京都,江戸川区,平井６丁目５番１８号,,13,123,1320035,,,2024-12-13,清算の結了等,,,2015-10-05,1,,,,,タカギタンサン,0
1481,7011702002359,登記記録の閉鎖等,0,2024-12-19,2024-12-16,有限会社大橋鈑金,,有限会社,東京都,江戸川区,上一色３丁目８番５号,,13,123,1330041,,,2024-12-16,清算の結了等,,,2015-10-05,1,,,,,オオハシバンキン,0
1485,7012701017637,登記記録の閉鎖等,0,2024-12-19,2024-12-13,株式会社ディーシーアイホールディングス,,株式会社,岡山県,赤磐市,桜が丘西１０丁目２７番９号,,33,213,7090802,,,2024-12-13,合併による解散等,9010001110367,令和６年１２月１日東京都千代田区神田東紺屋町３１番地株式会社ディーシーアイ（9010001110367）に合併し解散,2023-05-08,1,,,,,ディーシーアイホールディングス,0
1515,7040001134679,登記記録の閉鎖等,0,2024-12-19,2024-12-16,ＴＴ株式会社,,株式会社,千葉県,船橋市,習志野台８丁目５４番１－３１３号,,12,204,2740063,,,2024-12-16,合併による解散等,2010001247521,令和６年１２月１日東京都千代田区大手町一丁目６番１号ウイニングサポート株式会社（2010001247521）に合併し解散,2024-07-25,1,,,,,ティーティー,0
1520,7040002026710,登記記録の閉鎖等,0,2024-12-19,2024-12-11,株式会社ユーデン,,株式会社,千葉県,船橋市,湊町３丁目９番１５号,,12,204,2730011,,,2024-12-11,清算の結了等,,,2015-10-05,1,,,,,ユーデン,0
1521,7040002093833,登記記録の閉鎖等,0,2024-12-19,2024-12-13,有限会社ヴィーナス,,有限会社,千葉県,柏市,十余二２４９番地の３１２,,12,217,2770872,,,2024-12-13,清算の結了等,,,2015-10-05,1,,,,,ヴィーナス,0
1538,7080402018329,登記記録の閉鎖等,0,2024-12-19,2024-12-16,有限会社リード,,有限会社,静岡県,掛川市,高瀬２７番地の１,,22,213,4371401,,,2024-12-16,清算の結了等,,,2015-10-05,1,,,,,リード,0
1545,7120001036660,登記記録の閉鎖等,0,2024-12-19,2024-12-16,株式会社元正石田商店,,株式会社,大阪府,大阪市福島区,野田１丁目１番８６号大阪市中央卸売市場内,,27,103,5530005,,,2024-12-16,清算の結了等,,,2015-10-05,1,,,,,モトショウイシダショウテン,0
1556,7120002032304,登記記録の閉鎖等,0,2024-12-19,2024-12-17,有限会社万来社,,有限会社,大阪府,大阪市北区,梅田１丁目２番２－１２００号,,27,127,5300001,,,2024-12-17,清算の結了等,,,2015-10-05,1,,,,,バンライシャ,0
1558,7120002081160,登記記録の閉鎖等,0,2024-12-19,2024-12-16,有限会社アミテック,,有限会社,大阪府,守口市,寺方錦通１丁目１０番２７号,,27,209,5700042,,,2024-12-16,清算の結了等,,,2015-10-05,1,,,,,,0
1563,7120901025093,登記記録の閉鎖等,0,2024-12-19,2024-12-13,ＮＫ精工株式会社,,株式会社,大阪府,豊中市,東豊中町６丁目６番１６－１０２号,,27,203,5600003,,,2024-12-13,清算の結了等,,,2015-10-05,1,,,,,エヌケーセイコウ,0
1564,7122001009448,登記記録の閉鎖等,0,2024-12-19,2024-12-17,株式会社ジェーシーシー・クロレラ,,株式会社,大阪府,東大阪市,古箕輪１丁目１６番２号,,27,227,5780915,,,2024-12-17,清算の結了等,,,2015-10-05,1,,,,,ジェーシーシークロレラ,0
1576,7140005011724,登記記録の閉鎖等,0,2024-12-19,2024-12-18,特定非営利活動法人　兵庫間伐サポートサービス,,その他の設立登記法人,兵庫県,姫路市,大津区長松１３５番地８,,28,201,6711144,,,2024-12-18,清算の結了等,,,2015-10-05,1,,,,,ヒョウゴカンバツサポートサービス,0
1585,7180301036529,登記記録の閉鎖等,0,2024-12-19,2024-12-12,株式会社ふじまる弁当,,株式会社,愛知県,安城市,御幸本町８番１号,,23,212,4460032,,,2024-12-12,清算の結了等,,,2022-08-15,1,,,,,フジマルベントウ,0
1599,7240001016808,登記記録の閉鎖等,0,2024-12-19,2024-12-17,株式会社ライフ・ビート,,株式会社,広島県,広島市西区,三篠町３丁目２５番２号ＭＳビル３０２号,,34,104,7330003,,,2024-12-17,清算の結了等,,,2015-10-05,1,,,,,ライフビート,0
1610,7290003006868,登記記録の閉鎖等,0,2024-12-19,2024-11-28,合同会社イーグル１,,合同会社,福岡県,福岡市中央区,舞鶴２丁目２番１１号４Ｆ,,40,133,8100073,,,2024-11-28,清算の結了等,,,2016-12-09,1,,,,,イーグルワン,0
1619,7310002015974,登記記録の閉鎖等,0,2024-12-19,2024-12-12,まる九産業有限会社,,有限会社,長崎県,諫早市,森山町慶師野１１１７番地,,42,204,8540202,,,2024-12-12,清算の結了等,,,2015-10-05,1,,,,,マルキュウサンギョウ,0
1624,7330002010214,登記記録の閉鎖等,0,2024-12-19,2024-12-16,有限会社光永フーズサービス,,有限会社,熊本県,熊本市中央区,神水１丁目１５番２７号,,43,101,8620954,,,2024-12-16,清算の結了等,,,2015-10-05,1,,,,,ミツナガフーズサービス,0
1630,7430001010584,登記記録の閉鎖等,0,2024-12-19,2024-12-16,株式会社ツカダ,,株式会社,北海道,札幌市手稲区,前田十条１５丁目９番２１号,,01,109,0060820,,,2024-12-16,清算の結了等,,,2015-10-05,1,,,,,ツカダ,0
1635,7430002044813,登記記録の閉鎖等,0,2024-12-19,2024-12-17,有限会社キタヒロ商会,,有限会社,北海道,北広島市,新富町西４丁目５番地１５,,01,234,0611127,,,2024-12-17,清算の結了等,,,2015-10-05,1,,,,,キタヒロショウカイ,0
1640,7500001023141,登記記録の閉鎖等,0,2024-12-19,2024-11-14,株式会社ハイナス・アンリミテッド,,株式会社,東京都,渋谷区,渋谷２丁目１９番１５号,,13,113,1500002,,,2024-11-14,清算の結了等,,,2021-01-13,1,,,,,ハイナスアンリミテッド,0
1645,8010001225389,登記記録の閉鎖等,0,2024-12-19,2024-12-16,株式会社フジダンホールディングス,,株式会社,東京都,中央区,日本橋大伝馬町１番８号,,13,102,1030011,,,2024-12-16,合併による解散等,3011801011504,令和６年１１月３０日東京都足立区中央本町四丁目２３番１９号株式会社ＦＪＤＮ（3011801011504）に合併し解散,2022-03-23,1,,,,,フジダンホールディングス,0
1654,8010401118804,登記記録の閉鎖等,0,2024-12-19,2024-12-04,株式会社ＮｅｗｓＴＶ,,株式会社,東京都,港区,赤坂１丁目１２番３２号,,13,103,1070052,,,2024-12-04,合併による解散等,6010401027065,令和６年１２月１日東京都港区赤坂四丁目１５番１号株式会社ベクトル（6010401027065）に合併し解散,2015-10-05,1,,,,,ニュースティービー,0
1662,8010402036757,登記記録の閉鎖等,0,2024-12-19,2024-12-04,有限会社アルバ,,有限会社,東京都,港区,赤坂３丁目２１番１４号,,13,103,1070052,,,2024-12-04,清算の結了等,,,2015-10-05,1,,,,,,0
1673,8010602029528,登記記録の閉鎖等,0,2024-12-19,2024-12-16,有限会社アール・オレイユ,,有限会社,東京都,江東区,古石場２丁目５番１０－３０１号,,13,108,1350045,,,2024-12-16,清算の結了等,,,2015-10-05,1,,,,,アールオレイユ,0
1704,8011801000246,登記記録の閉鎖等,0,2024-12-19,2024-12-13,ミヨシファクトリー株式会社,,株式会社,東京都,葛飾区,小菅２丁目８番３４号,,13,122,1240001,,,2024-12-13,清算の結了等,,,2015-10-05,1,,,,,ミヨシファクトリー,0
1706,8011802026760,登記記録の閉鎖等,0,2024-12-19,2024-12-06,有限会社西新井運送,,有限会社,東京都,足立区,古千谷本町１丁目４番１１号,,13,121,1210832,,,2024-12-06,清算の結了等,,,2015-10-05,1,,,,,,0
1713,8020001107289,登記記録の閉鎖等,0,2024-12-19,2024-12-06,Ｋｉｎｏｘｚ１株式会社,,株式会社,神奈川県,横浜市中区,本牧大里町４番１号,,14,104,2310823,,,2024-12-06,清算の結了等,,,2015-10-05,1,,,,,キノックスゼットワン,0
1716,8020002009047,登記記録の閉鎖等,0,2024-12-19,2024-12-10,有限会社マルベニ水産,,有限会社,神奈川県,横浜市金沢区,大道１丁目５８番９号,,14,108,2360035,,,2024-12-10,清算の結了等,,,2015-10-05,1,,,,,マルベニスイサン,0
1725,8021002025868,登記記録の閉鎖等,0,2024-12-19,2024-12-17,有限会社レオックスジャパン,,有限会社,神奈川県,相模原市南区,大野台３丁目２０番７号,,14,153,2520331,,,2024-12-17,清算の結了等,,,2015-10-05,1,,,,,レオックスジャパン,0
1728,8030001002976,登記記録の閉鎖等,0,2024-12-19,2024-12-16,株式会社埼玉交通旅行センター,,株式会社,埼玉県,さいたま市浦和区,皇山町４１番１７号,,11,107,3300045,,,2024-12-16,清算の結了等,,,2015-10-05,1,,,,,サイタマコウツウリョコウセンター,0
1736,8040001051097,登記記録の閉鎖等,0,2024-12-19,2024-12-13,株式会社サンユー総建,,株式会社,千葉県,木更津市,矢那４０１７番地４,,12,206,2920812,,,2024-12-13,清算の結了等,,,2015-10-05,1,,,,,サンユーソウケン,0
1740,8040002036485,登記記録の閉鎖等,0,2024-12-19,2024-12-12,有限会社ポイズ,,有限会社,千葉県,市川市,中山４丁目７番１２号,,12,203,2720813,,,2024-12-12,清算の結了等,,,2015-10-05,1,,,,,ポイズ,0
1742,8050002036245,登記記録の閉鎖等,0,2024-12-19,2024-12-12,有限会社岡田製靴,,有限会社,茨城県,取手市,桑原１０１６番地の３,,08,217,3020017,,,2024-12-12,清算の結了等,,,2015-10-05,1,,,,,オカダセイカ,0
1743,8060001021560,登記記録の閉鎖等,0,2024-12-19,2024-12-13,株式会社平成コーポレーション,,株式会社,栃木県,小山市,大字小山３番地５,,09,208,3230825,,,2024-12-13,清算の結了等,,,2015-10-05,1,,,,,ヘイセイコーポレーション,0
1744,8070001026641,登記記録の閉鎖等,0,2024-12-19,2024-12-16,株式会社百草,,株式会社,群馬県,邑楽郡邑楽町,大字明野６番地６,,10,525,3700602,,,2024-12-16,清算の結了等,,,2015-10-05,1,,,,,モモゾウ,0
1745,8070001030057,登記記録の閉鎖等,0,2024-12-19,2024-12-16,ＮＵＭＡＴＡ　ＮＥＸＴ　Ｅｘｃｅｌｌｅｎｔ　Ｔｅｃｈｎｏｌｏｇｉｅｓ株式会社,,株式会社,群馬県,沼田市,西倉内町６８１番地７,,10,206,3780042,,,2024-12-16,清算の結了等,,,2015-10-05,1,,,,,ヌマタネクストエクセレントテクノロジーズ,0
1754,8120001117096,登記記録の閉鎖等,0,2024-12-19,2024-12-13,株式会社ＫＳＫアナリティクス,,株式会社,大阪府,大阪市西区,江戸堀１丁目１８番３５号,,27,106,5500002,,,2024-12-13,合併による解散等,3013301014722,令和６年１２月１日東京都中央区京橋二丁目２番１号アルテアエンジニアリング株式会社（3013301014722）に合併し解散,2015-10-05,1,,,,,ケーエスケーアナリティクス,0
1755,8120001124084,登記記録の閉鎖等,0,2024-12-19,2024-12-16,株式会社マルコポーロ,,株式会社,大阪府,大阪市中央区,久太郎町１丁目８番９号,,27,128,5410056,,,2024-12-16,清算の結了等,,,2015-10-05,1,,,,,マルコポーロ,0
1786,8160001014331,登記記録の閉鎖等,0,2024-12-19,2024-12-17,株式会社エフレスコネット,,株式会社,滋賀県,草津市,西渋川２丁目１１番地５６号６０８レックスアルティ草津,,25,206,5250025,,,2024-12-17,清算の結了等,,,2015-10-05,1,,,,,エフレスコネット,0
1787,8180001021581,登記記録の閉鎖等,0,2024-12-19,2024-12-13,株式会社栄食,,株式会社,愛知県,名古屋市熱田区,千代田町１７番８号,,23,109,4560073,,,2024-12-13,清算の結了等,,,2015-10-05,1,,,,,エイショク,0
1792,8180002060521,登記記録の閉鎖等,0,2024-12-19,2024-12-12,有限会社Ｐａｌｍ　Ｔｒｅｅ,,有限会社,愛知県,名古屋市名東区,上社５丁目３１３番地,,23,115,4650025,,,2024-12-12,清算の結了等,,,2015-10-05,1,,,,,パルムツリー,0
1794,8180003024748,登記記録の閉鎖等,0,2024-12-19,2024-12-17,合同会社Ｕｎｉｃｏ,,合同会社,愛知県,清須市,助七２丁目１１４－２クイーンリバーベル２０２号室,,23,233,4520903,,,2024-12-17,清算の結了等,,,2023-01-25,1,,,,,ユニコ,0
1802,8200001038466,登記記録の閉鎖等,0,2024-12-19,2024-12-17,株式会社ＳＡＮＤＯＳ,,株式会社,岐阜県,岐阜市,八幡町３７番地３,,21,201,5008838,,,2024-12-17,清算の結了等,,,2021-04-02,1,,,,,サンドス,0
1818,8260001037181,登記記録の閉鎖等,0,2024-12-19,2024-12-13,しょうおう高原牧場株式会社,,株式会社,岡山県,勝田郡勝央町,植月中９０４番地,,33,622,7094335,,,2024-12-13,合併による解散等,1240005004673,令和６年１２月１日広島県三次市三和町羽出庭１０４２９番地１みよし高原牧場株式会社（1240005004673）に合併し解散,2022-08-29,1,,,,,ショウオウコウゲンボクジョウ,0
1837,8340001023264,登記記録の閉鎖等,0,2024-12-19,2024-12-16,株式会社Ｋａｎｏｙａ　Ｐｌｕｓ,,株式会社,鹿児島県,鹿屋市,下堀町２９３２番地７,,46,203,8930047,,,2024-12-16,清算の結了等,,,2020-11-12,1,,,,,カノヤプラス,0
1847,8390002003112,登記記録の閉鎖等,0,2024-12-19,2024-12-16,渡辺工業有限会社,,有限会社,山形県,山形市,城西町４丁目１９番地１５号,,06,201,9900832,,,2024-12-16,清算の結了等,,,2015-10-05,1,,,,,ワタナベコウギョウ,0
1849,8400002012961,登記記録の閉鎖等,0,2024-12-19,2024-12-11,有限会社夏井商店,,有限会社,岩手県,久慈市,夏井町夏井第１地割３６番地２,,03,207,0280001,,,2024-12-11,清算の結了等,,,2015-10-05,1,,,,,ナツイショウテン,0
1854,8430001025895,登記記録の閉鎖等,0,2024-12-19,2024-12-11,株式会社ＬＮＪロジスティックス,,株式会社,北海道,札幌市中央区,大通西８丁目２番地６ＬＮＪ札幌大通公園ビル,,01,101,0600042,,,2024-12-11,合併による解散等,4430001020074,令和６年１２月２日札幌市中央区大通西八丁目２番地６札幌通運株式会社（4430001020074）に合併し解散,2015-10-05,1,,,,,エルエヌジェイロジスティックス,0
1857,8430003006927,登記記録の閉鎖等,0,2024-12-19,2024-12-13,合同会社ＳＯＭＡ不動産管理,,合同会社,北海道,札幌市清田区,真栄五条２丁目２番２６号,,01,110,0040835,,,2024-12-13,清算の結了等,,,2015-10-05,1,,,,,ソウマフドウサンカンリ,0
1862,9010001021300,登記記録の閉鎖等,0,2024-12-19,2024-12-06,株式会社ソクラテス,,株式会社,東京都,千代田区,一番町２,,13,101,1020082,,,2024-12-06,清算の結了等,,,2015-10-05,1,,,,,ソクラテス,0
1878,9010401101379,登記記録の閉鎖等,0,2024-12-19,2024-12-04,株式会社Ｓｔａｒｂａｎｋ,,株式会社,東京都,港区,赤坂４丁目１５番１号,,13,103,1070052,,,2024-12-04,合併による解散等,5010401101135,令和６年１２月１日東京都港区赤坂四丁目１５番１号株式会社イニシャル（5010401101135）に合併し解散,2015-10-05,1,,,,,スターバンク,0
1884,9010403029305,登記記録の閉鎖等,0,2024-12-19,2024-12-04,Ｐｏｗｅｒｌｅｄｇｅｒ合同会社,,合同会社,東京都,港区,虎ノ門４丁目３番１号,,13,103,1050001,,,2024-12-04,清算の結了等,,,2023-01-17,1,,,,,パワーレジャー,0
1897,9010901050522,登記記録の閉鎖等,0,2024-12-19,2024-12-16,株式会社ウィンクルム,,株式会社,茨城県,水戸市,元吉田町１３７８番地の４,,08,201,3100836,,,2024-12-16,清算の結了等,,,2022-03-17,1,,,,,ウィンクルム,0
1911,9011401002591,登記記録の閉鎖等,0,2024-12-19,2024-12-11,佐藤光學工業株式会社,,株式会社,東京都,板橋区,坂下２丁目１５番２４号,,13,119,1740043,,,2024-12-11,清算の結了等,,,2015-10-05,1,,,,,サトウコウガクコウギョウ,0
1915,9011403002648,登記記録の閉鎖等,0,2024-12-19,2024-12-09,合同会社Ｗｉｎｎｉｎｇ　Ｃｏａｃｈ,,合同会社,東京都,板橋区,大谷口北町４０番６号,,13,119,1730031,,,2024-12-09,清算の結了等,,,2019-04-03,1,,,,,,0
1931,9013105000376,登記記録の閉鎖等,0,2024-12-19,2024-12-12,レクセルプラザ小作管理組合法人,,その他の設立登記法人,東京都,羽村市,小作台１丁目１３番地１,,13,227,2050001,,,2024-12-12,清算の結了等,,,2015-10-05,1,,,,,レクセルプラザオザク,0
1937,9020001149248,登記記録の閉鎖等,0,2024-12-19,2024-12-17,株式会社エヌエスケア東京,,株式会社,東京都,調布市,若葉町２丁目１４番地１,,13,208,1820003,,,2024-12-17,合併による解散等,6010001227008,令和６年１２月１日東京都千代田区霞が関三丁目２番１号ＫＣ‐Ｗｅｌｆａｒｅ株式会社（6010001227008）に合併し解散,2022-12-06,1,,,,,エヌエスケアトウキョウ,0
1953,9030001003073,登記記録の閉鎖等,0,2024-12-19,2024-12-16,株式会社埼交運転代行,,株式会社,埼玉県,さいたま市南区,鹿手袋２丁目１３番１号,,11,108,3360031,,,2024-12-16,清算の結了等,,,2015-10-05,1,,,,,サイコウウンテンダイコウ,0
1966,9050001014911,登記記録の閉鎖等,0,2024-12-19,2024-12-12,株式会社利幸企画,,株式会社,茨城県,坂東市,中里９７３番地,,08,228,3060634,,,2024-12-12,清算の結了等,,,2015-10-05,1,,,,,リコウキカク,0
1968,9050001033060,登記記録の閉鎖等,0,2024-12-19,2024-12-13,株式会社ナカヤデリフーズ,,株式会社,茨城県,筑西市,横塚３０３番地,,08,227,3091116,,,2024-12-13,清算の結了等,,,2015-10-05,1,,,,,ナカヤデリフーズ,0
1972,9050001053026,登記記録の閉鎖等,0,2024-12-19,2024-12-12,株式会社ａｓｓｉｓｔ,,株式会社,茨城県,牛久市,ひたち野東３丁目２８番地２０,,08,219,3001207,,,2024-12-12,清算の結了等,,,2023-06-22,1,,,,,アシスト,0
1976,9050002016997,登記記録の閉鎖等,0,2024-12-19,2024-12-13,有限会社さくらや,,有限会社,茨城県,下妻市,下妻丁２１２番地,,08,210,3040068,,,2024-12-13,清算の結了等,,,2015-10-05,1,,,,,サクラヤ,0
1977,9060001024439,登記記録の閉鎖等,0,2024-12-19,2024-12-16,株式会社トーコー,,株式会社,栃木県,小山市,大字千駄塚３５１番地,,09,208,3290202,,,2024-12-16,合併による解散等,2010501015452,令和６年１２月１日東京都千代田区丸の内一丁目５番１号新丸の内ビルディング１３階１３１８区アークキャピタルマネジメント株式会社（2010501015452）に合併し解散,2015-10-05,1,,,,,トーコー,0
1983,9070002014058,登記記録の閉鎖等,0,2024-12-19,2024-12-17,有限会社青柳工業,,有限会社,群馬県,高崎市,箕郷町下芝６１２番地１,,10,202,3703103,,,2024-12-17,清算の結了等,,,2015-10-05,1,,,,,アオヤギコウギョウ,0
1987,9090005001638,登記記録の閉鎖等,0,2024-12-19,2024-12-13,特定非営利活動法人テクてく・ｔａｋｅ,,その他の設立登記法人,山梨県,甲府市,宮原町１１０番地１１号,,19,201,4000058,,,2024-12-13,清算の結了等,,,2015-10-05,1,,,,,テクテクテクテイク,0
1996,9120001145906,登記記録の閉鎖等,0,2024-12-19,2024-12-16,株式会社ワイエス商会,,株式会社,大阪府,大阪市福島区,玉川４丁目１１番１５－１２０５号,,27,103,5530004,,,2024-12-16,清算の結了等,,,2015-10-05,1,,,,,ワイエスショウカイ,0
1999,9120001229592,登記記録の閉鎖等,0,2024-12-19,2024-12-16,株式会社アームボースト,,株式会社,大阪府,大阪市中央区,道頓堀１丁目東５番の２６号,,27,128,5420071,,,2024-12-16,清算の結了等,,,2020-06-11,1,,,,,アームボースト,0
2004,9120003012336,登記記録の閉鎖等,0,2024-12-19,2024-12-16,ＳＩＧＮ合同会社,,合同会社,大阪府,大阪市北区,西天満４丁目７番１３号,,27,127,5300047,,,2024-12-16,清算の結了等,,,2017-01-06,1,,,,,,0
2006,9120003023969,登記記録の閉鎖等,0,2024-12-19,2024-12-16,合同会社ステップアップ,,合同会社,大阪府,大阪市西成区,津守１丁目４番１１号津守第一マンション４０２号,,27,122,5570062,,,2024-12-16,清算の結了等,,,2023-05-01,1,,,,,ステップアップ,0
2013,9130001001091,登記記録の閉鎖等,0,2024-12-19,2024-12-17,株式会社セガワ,,株式会社,京都府,京都市伏見区,竹田田中宮町７１番地エンブレム城南宮３０２号室,,26,109,6128444,,,2024-12-17,清算の結了等,,,2015-10-05,1,,,,,セガワ,0
2014,9130003008408,登記記録の閉鎖等,0,2024-12-19,2024-12-18,センターウエスト合同会社,,合同会社,京都府,宇治市,木幡南山８０－７００,,26,204,6110002,,,2024-12-18,清算の結了等,,,2023-01-04,1,,,,,センターウエスト,0
2032,9180002061411,登記記録の閉鎖等,0,2024-12-19,2024-12-12,有限会社森川設計,,有限会社,愛知県,名古屋市天白区,原１丁目８１１番地,,23,116,4680015,,,2024-12-12,清算の結了等,,,2015-10-05,1,,,,,モリカワセッケイ,0
2033,9180002079651,登記記録の閉鎖等,0,2024-12-19,2024-12-11,有限会社オーケーライフサービス,,有限会社,愛知県,一宮市,浜町６丁目２１番地,,23,203,4910034,,,2024-12-11,清算の結了等,,,2015-10-05,1,,,,,オーケーライフサービス,0
2054,9230002009149,登記記録の閉鎖等,0,2024-12-19,2024-12-17,三越商事有限会社,,有限会社,富山県,滑川市,大浦８０３番地,,16,206,9360811,,,2024-12-17,清算の結了等,,,2015-10-05,1,,,,,サンエツショウジ,0
2059,9250005004351,登記記録の閉鎖等,0,2024-12-19,2024-12-11,山口県輸出バンブーブラインド販売協同組合,,その他の設立登記法人,山口県,萩市,大字山田４７０５番地の１,,35,204,7580063,,,2024-12-11,清算の結了等,,,2015-10-05,1,,,,,ヤマグチケンユシュツバンブーブラインドハンバイ,0
2067,9290002003559,登記記録の閉鎖等,0,2024-12-19,2024-12-06,有限会社平成ネット化工,,有限会社,福岡県,福岡市南区,大池１丁目２９番８号,,40,134,8150073,,,2024-12-06,清算の結了等,,,2015-10-05,1,,,,,ヘイセイネットカコウ,0
2071,9290801026818,登記記録の閉鎖等,0,2024-12-19,2024-12-13,株式会社ＲＯＣＫＳＴＯＮＥ,,株式会社,福岡県,京都郡苅田町,鳥越町１番地４６,,40,621,8000304,,,2024-12-13,清算の結了等,,,2020-09-17,1,,,,,ロックストーン,0
2077,9310005001367,登記記録の閉鎖等,0,2024-12-19,2024-12-13,医療法人山本眼科医院,,その他の設立登記法人,長崎県,長崎市,若葉町１４番９号,,42,201,8528137,,,2024-12-13,清算の結了等,,,2015-10-05,1,,,,,ヤマモトガンカイイン,0
2111,9470005003133,登記記録の閉鎖等,0,2024-12-19,2024-12-16,香川県自動車リサイクル協同組合,,その他の設立登記法人,香川県,丸亀市,飯野町西分甲５７８番地の１１,,37,202,7630086,,,2024-12-16,清算の結了等,,,2015-10-05,1,,,,,カガワケンジドウシャリサイクル,0
2112,9480002003985,登記記録の閉鎖等,0,2024-12-19,2024-12-16,有限会社芳徳,,有限会社,徳島県,徳島市,中央通３丁目１３番地の２,,36,201,7700936,,,2024-12-16,清算の結了等,,,2015-10-05,1,,,,,ホウトク,0
