sequenceNumber,corporateNumber,process,correct,updateDate,changeDate,name,nameImageId,kind,prefectureName,cityName,streetNumber,addressImageId,prefectureCode,cityCode,postCode,addressOutside,addressOutsideImageId,closeDate,closeCause,successorCorporateNumber,changeCause,assignmentDate,latest,enName,enPrefectureName,enCityName,enAddressOutside,furigana,hihyoji
35,1010701035219,登記記録の閉鎖等,0,2025-10-28,2025-10-24,株式会社ＢＬＡＳＴ,,株式会社,東京都,世田谷区,千歳台１丁目１番１４号,,13,112,1570071,,,2025-10-24,清算の結了等,,,2018-01-23,1,,,,,ブラスト,0
36,1010702001756,登記記録の閉鎖等,0,2025-10-28,2025-10-23,有限会社岡部紙器製作所,,有限会社,東京都,江戸川区,西小岩３丁目７番１０号,,13,123,1330057,,,2025-10-23,清算の結了等,,,2015-10-05,1,,,,,オカベシキセイサクショ,0
49,1011101056937,登記記録の閉鎖等,0,2025-10-28,2025-10-06,株式会社金融リテラシー研究所,,株式会社,東京都,渋谷区,渋谷１丁目１２番２号,,13,113,1500002,,,2025-10-06,合併による解散等,6011101042924,令和７年９月３０日東京都渋谷区渋谷一丁目１２番２号株式会社エディト（6011101042924）に合併し解散,2015-10-05,1,,,,,キンユウリテラシーケンキュウジョ,0
56,1011201024018,登記記録の閉鎖等,0,2025-10-28,2025-10-14,株式会社ジェットアンドリー,,株式会社,神奈川県,横浜市青葉区,美しが丘５丁目２８番地７平野ビル３－５１１号,,14,117,2250002,,,2025-10-14,清算の結了等,,,2022-08-05,1,,,,,ジェットアンドリー,0
65,1012401031919,登記記録の閉鎖等,0,2025-10-28,2025-10-21,Ｒ　ＧＡＵＴＡＭ株式会社,,株式会社,東京都,多摩市,関戸２丁目３３番地５ラサール聖蹟５の２０２,,13,224,2060011,,,2025-10-21,清算の結了等,,,2016-10-07,1,,,,,アールゴータム,0
83,1020002035891,登記記録の閉鎖等,0,2025-10-28,2025-10-14,有限会社松屋不動産,,有限会社,神奈川県,横浜市港北区,新羽町１９５９番地,,14,109,2230057,,,2025-10-14,清算の結了等,,,2015-10-05,1,,,,,マツヤフドウサン,0
86,1021001032319,登記記録の閉鎖等,0,2025-10-28,2025-10-08,株式会社伊東屋百貨店,,株式会社,神奈川県,小田原市,本町２丁目１番２号,,14,206,2500012,,,2025-10-08,清算の結了等,,,2015-10-05,1,,,,,イトウヤヒャッカテン,0
87,1021001073552,登記記録の閉鎖等,0,2025-10-28,2025-10-07,株式会社Ｆｌａｔ　ｍａｋｅ,,株式会社,神奈川県,横須賀市,佐島の丘２丁目１３番１７号,,14,201,2400108,,,2025-10-07,清算の結了等,,,2021-08-03,1,,,,,フラットメイク,0
102,1030002036922,登記記録の閉鎖等,0,2025-10-28,2025-10-17,有限会社創和興業,,有限会社,埼玉県,入間市,大字新光４６５番地２７,,11,225,3580055,,,2025-10-17,清算の結了等,,,2015-10-05,1,,,,,ソウワコウギョウ,0
122,1070001001709,登記記録の閉鎖等,0,2025-10-28,2025-10-22,昭和木材株式会社,,株式会社,群馬県,前橋市,六供町３丁目１９番地１,,10,201,3710804,,,2025-10-22,清算の結了等,,,2015-10-05,1,,,,,ショウワモクザイ,0
123,1070001023249,登記記録の閉鎖等,0,2025-10-28,2025-10-22,上越クリスタル硝子株式会社,,株式会社,群馬県,利根郡みなかみ町,後閑７３７番地１,,10,449,3791305,,,2025-10-22,清算の結了等,,,2015-10-05,1,,,,,,0
129,1080101005724,登記記録の閉鎖等,0,2025-10-28,2025-10-23,信和企画株式会社,,株式会社,静岡県,三島市,長伏１２０番地の５,,22,206,4110824,,,2025-10-23,清算の結了等,,,2015-10-05,1,,,,,シンワキカク,0
133,1080403000365,登記記録の閉鎖等,0,2025-10-28,2025-10-17,株式会社中松商店,,株式会社,静岡県,浜松市中央区,木戸町６番１７号,,22,138,4300806,,,2025-10-17,清算の結了等,,,2015-10-05,1,,,,,ナカマツショウテン,0
146,1120001261867,登記記録の閉鎖等,0,2025-10-28,2025-10-23,株式会社ｉｄｅａ,,株式会社,大阪府,大阪市東成区,大今里南４丁目９番６－３０９号,,27,115,5370013,,,2025-10-23,清算の結了等,,,2024-02-01,1,,,,,アイデア,0
148,1120001267534,登記記録の閉鎖等,0,2025-10-28,2025-10-23,株式会社Ｆｕｔｏｍａｋｉ,,株式会社,大阪府,交野市,私部４丁目７６番１１号,,27,230,5760052,,,2025-10-23,清算の結了等,,,2024-08-07,1,,,,,フトマキ,0
158,1120005013372,登記記録の閉鎖等,0,2025-10-28,2025-10-23,医療法人いかい耳鼻咽喉科,,その他の設立登記法人,大阪府,交野市,森北１丁目２２番６号磐船合同ビル６階,,27,230,5760036,,,2025-10-23,清算の結了等,,,2015-10-05,1,,,,,イカイジビインコウカ,0
167,1120905003002,登記記録の閉鎖等,0,2025-10-28,2025-10-07,特定非営利活動法人ぱちんこ情熱リーグ,,その他の設立登記法人,福島県,郡山市,新屋敷２丁目１３６番,,07,203,9638045,,,2025-10-07,清算の結了等,,,2015-10-05,1,,,,,パチンコジョウネツリーグ,0
173,1130002017499,登記記録の閉鎖等,0,2025-10-28,2025-10-24,有限会社晦庵河道屋,00037536,有限会社,京都府,京都市中京区,麩屋町通三条上る下白山町２９５番地,,26,104,6048085,,,2025-10-24,清算の結了等,,,2015-10-05,1,,,,,ミソカアンカワミチヤ,0
174,1130003009487,登記記録の閉鎖等,0,2025-10-28,2025-10-20,合同会社示現,,合同会社,京都府,京都市下京区,七条通油小路東入大黒町２２７番地第２キョートビル４０２,,26,106,6008223,,,2025-10-20,清算の結了等,,,2024-04-23,1,,,,,ジゲン,0
181,1140002029213,登記記録の閉鎖等,0,2025-10-28,2025-10-20,有限会社ツゲ園,,有限会社,兵庫県,明石市,大久保町高丘５丁目５番地の１２,,28,203,6740057,,,2025-10-20,清算の結了等,,,2015-10-05,1,,,,,ツゲエン,0
193,1180001136881,登記記録の閉鎖等,0,2025-10-28,2025-10-23,愛岐物流株式会社,,株式会社,岐阜県,可児市,今渡１５９６番地２アルカンシエル２０２,,21,214,5090207,,,2025-10-23,清算の結了等,,,2019-06-06,1,,,,,アイギブツリュウ,0
204,1200001013731,登記記録の閉鎖等,0,2025-10-28,2025-10-24,株式会社シャルスポ・ササキ,,株式会社,岐阜県,大垣市,鶴見町１６６番地２,,21,202,5030805,,,2025-10-24,清算の結了等,,,2015-10-05,1,,,,,シャルスポササキ,0
209,1230001011518,登記記録の閉鎖等,0,2025-10-28,2025-10-21,上田子開発株式会社,,株式会社,富山県,氷見市,上田子７３番地,,16,205,9350035,,,2025-10-21,清算の結了等,,,2015-10-05,1,,,,,カミタコカイハツ,0
232,1290005014560,登記記録の閉鎖等,0,2025-10-28,2025-10-01,アネーラ税理士法人,,その他の設立登記法人,福岡県,福岡市中央区,天神４丁目４番１１号,,40,133,8100001,,,2025-10-01,合併による解散等,4290005005301,令和７年１０月１日福岡市中央区大名二丁目６番５０号福岡大名ガーデンシティアネーラ税理士法人（4290005005301）に合併し解散,2015-10-05,1,,,,,アネーラ,0
239,1310001012318,登記記録の閉鎖等,0,2025-10-28,2025-10-24,株式会社イズモ,,株式会社,長崎県,長崎市,上田町７番９号,,42,201,8500923,,,2025-10-24,清算の結了等,,,2015-10-05,1,,,,,イズモ,0
250,1350002007206,登記記録の閉鎖等,0,2025-10-28,2025-10-23,有限会社補聴器センター南九州,,有限会社,宮崎県,東諸県郡国富町,大字本庄６９６５番地,,45,382,8801101,,,2025-10-23,清算の結了等,,,2015-10-05,1,,,,,ホチョウキセンターミナミキュウシュウ,0
255,1380005011689,登記記録の閉鎖等,0,2025-10-28,2025-10-14,特定非営利活動法人江湖村,,その他の設立登記法人,福島県,郡山市,湖南町舟津字江湖山５６９０番１,,07,203,9631411,,,2025-10-14,清算の結了等,,,2016-07-08,1,,,,,エコムラ,0
256,1380005012373,登記記録の閉鎖等,0,2025-10-28,2025-10-15,税理士法人今井会計事務所,,その他の設立登記法人,福島県,福島市,八木田字榎内１９番地の３,,07,201,9608164,,,2025-10-15,清算の結了等,,,2020-12-10,1,,,,,イマイカイケイジムショ,0
263,1410001004032,登記記録の閉鎖等,0,2025-10-28,2025-10-22,株式会社男鹿オート,,株式会社,秋田県,男鹿市,船越字内子２９４番地１６２２,,05,206,0100341,,,2025-10-22,合併による解散等,6400601000286,令和７年１０月１日岩手県奥州市水沢佐倉河字沼田６９番地株式会社ホンダ四輪販売中央東北（6400601000286）に合併し解散,2015-10-05,1,,,,,オガオート,0
265,1420001014121,登記記録の閉鎖等,0,2025-10-28,2025-10-15,トーシャドー株式会社,,株式会社,青森県,青森市,勝田２丁目７番３号,,02,201,0300821,,,2025-10-15,清算の結了等,,,2015-10-05,1,,,,,トーシャドー,0
312,2010901024730,登記記録の閉鎖等,0,2025-10-28,2025-09-26,株式会社ペスカインターナショナル,,株式会社,東京都,渋谷区,神宮前５丁目５０番６号,,13,113,1500001,,,2025-09-26,合併による解散等,2010901021538,令和７年１０月１日東京都渋谷区神宮前五丁目５０番６号株式会社ペスカ（2010901021538）に合併し解散,2015-10-05,1,,,,,ペスカインターナショナル,0
319,2011001129362,登記記録の閉鎖等,0,2025-10-28,2025-10-10,Ｐ・Ｏ・Ｄ株式会社,,株式会社,神奈川県,横浜市港北区,新横浜３丁目７番地１８号,,14,109,2220033,,,2025-10-10,清算の結了等,,,2019-08-06,1,,,,,ピーオーディ,0
341,2012401005021,登記記録の閉鎖等,0,2025-10-28,2025-10-06,株式会社美光写苑,,株式会社,東京都,千代田区,神田紺屋町１１番地,,13,101,1010035,,,2025-10-06,清算の結了等,,,2015-10-05,1,,,,,ビコウシャエン,0
346,2012801008433,登記記録の閉鎖等,0,2025-10-28,2025-10-17,マックスアルファ株式会社,,株式会社,東京都,立川市,曙町２丁目３４番６号,00111072,13,202,1900012,,,2025-10-17,清算の結了等,,,2015-10-05,1,,,,,マックスアルファ,0
358,2020001130429,登記記録の閉鎖等,0,2025-10-28,2025-10-14,株式会社かなでのわ,,株式会社,神奈川県,横浜市金沢区,柴町３６５番地１シーブリーズ金沢５棟２０１号,,14,108,2360012,,,2025-10-14,清算の結了等,,,2019-03-26,1,,,,,カナデノワ,0
370,2021003005107,登記記録の閉鎖等,0,2025-10-28,2025-10-07,合同会社シゲル研究所,,合同会社,神奈川県,鎌倉市,玉縄１丁目１番地５－５０１号室,,14,204,2470071,,,2025-10-07,清算の結了等,,,2015-10-05,1,,,,,シゲルケンキュウジョ,0
374,2030001081951,登記記録の閉鎖等,0,2025-10-28,2025-10-17,岡村企画製版株式会社,,株式会社,埼玉県,川口市,芝４丁目２４番７号,,11,203,3330866,,,2025-10-17,清算の結了等,,,2015-10-05,1,,,,,オカムラキカクセイハン,0
387,2040001094201,登記記録の閉鎖等,0,2025-10-28,2025-09-26,キャロット＆ベジタブル株式会社,,株式会社,千葉県,富里市,十倉５８７番３０,,12,233,2860212,,,2025-09-26,清算の結了等,,,2016-02-24,1,,,,,,0
406,2080105005323,登記記録の閉鎖等,0,2025-10-28,2025-10-21,企業組合であい村蔵ら,,その他の設立登記法人,静岡県,賀茂郡松崎町,松崎３１９番地の１,,22,305,4103611,,,2025-10-21,清算の結了等,,,2015-10-05,1,,,,,デアイムラクララ,0
410,2100005012879,登記記録の閉鎖等,0,2025-10-28,2025-10-20,一般社団法人ワナワーク,,その他の設立登記法人,長野県,上水内郡信濃町,大字野尻２９５５,,20,583,3891303,,,2025-10-20,清算の結了等,,,2022-05-23,1,,,,,ワナワーク,0
415,2120001037647,登記記録の閉鎖等,0,2025-10-28,2025-10-23,株式会社オムコーポレーション,,株式会社,大阪府,大阪市住之江区,平林北２丁目５番３５号,,27,125,5590026,,,2025-10-23,清算の結了等,,,2015-10-05,1,,,,,オムコーポレーション,0
425,2120002038140,登記記録の閉鎖等,0,2025-10-28,2025-10-22,有限会社ビリオンダラー総合企画,,有限会社,大阪府,大阪市中央区,谷町８丁目１番４３－１３０２号,,27,128,5420012,,,2025-10-22,清算の結了等,,,2015-10-05,1,,,,,ビリオンダラーソウゴウキカク,0
429,2120102013514,登記記録の閉鎖等,0,2025-10-28,2025-10-14,有限会社ＡＣＴ,,有限会社,大阪府,堺市南区,晴美台３丁１１番３号,,27,145,5900113,,,2025-10-14,清算の結了等,,,2015-10-05,1,,,,,アクト,0
441,2140002055695,登記記録の閉鎖等,0,2025-10-28,2025-10-20,有限会社井本ウォーターテクニカル,,有限会社,兵庫県,西宮市,甲子園口北町６番２２号,,28,204,6638112,,,2025-10-20,清算の結了等,,,2015-10-05,1,,,,,イモトウォーターテクニカル,0
466,2230002007951,登記記録の閉鎖等,0,2025-10-28,2025-10-22,有限会社石田屋,,有限会社,富山県,黒部市,三日市３０８５番地,,16,207,9380031,,,2025-10-22,清算の結了等,,,2015-10-05,1,,,,,イシダヤ,0
488,2290005019666,登記記録の閉鎖等,0,2025-10-28,2025-10-01,エヴァーラスティング協同組合,,その他の設立登記法人,福岡県,糸島市,神在西２丁目１２番１号,,40,230,8191148,,,2025-10-01,清算の結了等,,,2025-03-03,1,,,,,エヴァーラスティング,0
491,2300002010304,登記記録の閉鎖等,0,2025-10-28,2025-10-24,有限会社ケイズ・ガーデン,,有限会社,佐賀県,唐津市,町田３丁目１４番３０号,,41,202,8470821,,,2025-10-24,清算の結了等,,,2015-10-05,1,,,,,ケイズガーデン,0
511,2380005012728,登記記録の閉鎖等,0,2025-10-28,2025-10-08,ＮＰＯ法人かたつ夢里,,その他の設立登記法人,福島県,西白河郡西郷村,大字小田倉字小田倉原９番地２,,07,461,9618061,,,2025-10-08,清算の結了等,,,2023-07-14,1,,,,,カタツムリ,0
516,2420001016265,登記記録の閉鎖等,0,2025-10-28,2025-10-15,ＡＳＭ株式会社,,株式会社,青森県,弘前市,大字新寺町３４番地７０,,02,202,0368214,,,2025-10-15,清算の結了等,,,2018-07-10,1,,,,,エーエスエム,0
518,2430001017353,登記記録の閉鎖等,0,2025-10-28,2025-10-15,株式会社やまさわ澤出組,,株式会社,北海道,札幌市東区,北二十二条東６丁目１番２２号,,01,103,0650022,,,2025-10-15,清算の結了等,,,2022-11-17,1,,,,,ヤマサワサワデグミ,0
521,2430002022930,登記記録の閉鎖等,0,2025-10-28,2025-10-14,有限会社北海道スタイル・リアルエステート,,有限会社,北海道,札幌市中央区,南二十四条西１１丁目２番３３号ローサイド２４,,01,101,0640924,,,2025-10-14,清算の結了等,,,2015-10-05,1,,,,,ホッカイドウスタイルリアルエステート,0
531,3010001148990,登記記録の閉鎖等,0,2025-10-28,2025-09-30,株式会社ＺＥＮ,,株式会社,東京都,港区,虎ノ門３丁目１４番１－１２０３号,,13,103,1050001,,,2025-09-30,清算の結了等,,,2015-10-05,1,,,,,,0
537,3010003041104,登記記録の閉鎖等,0,2025-10-28,2025-10-09,合同会社エニシオ名駅,,合同会社,東京都,千代田区,丸の内１丁目４番１号東京共同会計事務所内,,13,101,1000005,,,2025-10-09,清算の結了等,,,2023-07-13,1,,,,,エニシオメイエキ,0
549,3010503005756,登記記録の閉鎖等,0,2025-10-28,2025-10-20,合同会社Ｃｏｎｎｅｃｔ　ＭＪ,,合同会社,東京都,台東区,下谷１丁目１１番１５号,,13,106,1100004,,,2025-10-20,清算の結了等,,,2019-11-18,1,,,,,コネクトエムジェイ,0
574,3011101079242,登記記録の閉鎖等,0,2025-10-28,2025-10-24,東京ビッグハウスコミュニティ株式会社,,株式会社,大阪府,大阪市西区,西本町１丁目４番１号オリックス本町ビル,,27,106,5500005,,,2025-10-24,合併による解散等,7010001095222,令和７年１０月１日東京都千代田区丸の内一丁目８番１号丸の内トラストタワーＮ館Ａｐａｍａｎ　Ｐｒｏｐｅｒｔｙ株式会社（7010001095222）に合併し解散,2017-01-16,1,,,,,トウキョウビッグハウスコミュニティ,0
596,3011801011223,登記記録の閉鎖等,0,2025-10-28,2025-10-23,株式会社花喜三商店,,株式会社,東京都,葛飾区,立石８丁目６番１号アルファホームズ立石３０１号,,13,122,1240012,,,2025-10-23,清算の結了等,,,2015-10-05,1,,,,,ハナキサ,0
613,3020001109389,登記記録の閉鎖等,0,2025-10-28,2025-10-14,株式会社ワールド,,株式会社,神奈川県,横浜市鶴見区,仲通２丁目６２番地９－１Ｆ,,14,101,2300042,,,2025-10-14,清算の結了等,,,2015-10-05,1,,,,,ワールド,0
617,3020001154039,登記記録の閉鎖等,0,2025-10-28,2025-10-20,ＫＩＲＡＲＩ　Ｐｈａｒｍａｃｙ株式会社,,株式会社,東京都,中央区,日本橋蛎殻町１丁目６－９ＴＱ蛎殻町３階,,13,102,1030014,,,2025-10-20,合併による解散等,6030001066965,令和７年９月１日大阪府茨木市西駅前町１３番２５号株式会社ウィーズ（6030001066965）に合併し解散,2023-10-23,1,,,,,キラリファーマシー,0
652,3030002115922,登記記録の閉鎖等,0,2025-10-28,2025-10-08,内藤設備工業有限会社,,有限会社,埼玉県,大里郡寄居町,大字富田３９４４番地２,,11,408,3691216,,,2025-10-08,清算の結了等,,,2015-10-05,1,,,,,ナイトウセツビコウギョウ,0
659,3040001136869,登記記録の閉鎖等,0,2025-10-28,2025-09-29,ＭＡ建設株式会社,,株式会社,千葉県,市川市,柏井町２丁目１４４１番地２,,12,203,2720802,,,2025-09-29,清算の結了等,,,2025-01-10,1,,,,,エムエーケンセツ,0
685,3080105005636,登記記録の閉鎖等,0,2025-10-28,2025-10-23,裾野市環境緑花事業協同組合,,その他の設立登記法人,静岡県,裾野市,須山１６１７番地,,22,220,4101231,,,2025-10-23,清算の結了等,,,2016-04-20,1,,,,,スソノシカンキョウリョクカ,0
692,3110003003671,登記記録の閉鎖等,0,2025-10-28,2025-10-21,合同会社ＫＡＯＯ,,合同会社,新潟県,新潟市西区,鳥原２５９３番地の２,,15,107,9501115,,,2025-10-21,清算の結了等,,,2018-04-17,1,,,,,カオー,0
694,3120001190032,登記記録の閉鎖等,0,2025-10-28,2025-10-16,株式会社ＳＩＳ,,株式会社,大阪府,枚方市,牧野本町１丁目２２番１９－２０２号,,27,210,5731144,,,2025-10-16,清算の結了等,,,2015-10-05,1,,,,,エスアイエス,0
697,3120001259216,登記記録の閉鎖等,0,2025-10-28,2025-10-22,浩川商貿株式会社,,株式会社,大阪府,大阪市大正区,三軒家西３丁目４番１６号中山ビル１０４３,,27,108,5510001,,,2025-10-22,清算の結了等,,,2023-10-27,1,,,,,ヒロカワショウボウ,0
707,3120005021381,登記記録の閉鎖等,0,2025-10-28,2025-10-23,一般社団法人片付けのプロ育成協会,,その他の設立登記法人,大阪府,大阪市東住吉区,中野１丁目５番１６－７０１号,,27,121,5460012,,,2025-10-23,清算の結了等,,,2020-01-24,1,,,,,カタヅケノプロイクセイキョウカイ,0
718,3130001018190,登記記録の閉鎖等,0,2025-10-28,2025-10-16,東洋精工株式会社,,株式会社,京都府,京都市下京区,西七条御所ノ内本町８番地,,26,106,6000000,,,2025-10-16,清算の結了等,,,2015-10-05,1,,,,,トウヨウセイコウ,0
730,3140002007332,登記記録の閉鎖等,0,2025-10-28,2025-10-21,有限会社新興工作所,,有限会社,兵庫県,神戸市須磨区,大手町７丁目３番３号,,28,107,6540013,,,2025-10-21,清算の結了等,,,2015-10-05,1,,,,,シンコウコウサクジョ,0
745,3180002074625,登記記録の閉鎖等,0,2025-10-28,2025-10-17,有限会社井上組,,有限会社,愛知県,丹羽郡大口町,中小口２丁目２３５番地,,23,361,4800142,,,2025-10-17,清算の結了等,,,2015-10-05,1,,,,,イノウエグミ,0
749,3190002013796,登記記録の閉鎖等,0,2025-10-28,2025-10-17,北村設備有限会社,,有限会社,三重県,松阪市,田村町２９７番地,,24,204,5150055,,,2025-10-17,清算の結了等,,,2015-10-05,1,,,,,キタムラセツビ,0
756,3210001009289,登記記録の閉鎖等,0,2025-10-28,2025-10-23,株式会社松木屋,,株式会社,福井県,福井市,日之出５丁目１６番１４号,,18,201,9100859,,,2025-10-23,清算の結了等,,,2015-10-05,1,,,,,マツキヤ,0
764,3230002013098,登記記録の閉鎖等,0,2025-10-28,2025-10-21,有限会社フリスコ,,有限会社,富山県,氷見市,上田子１５番地の１,,16,205,9350035,,,2025-10-21,清算の結了等,,,2015-10-05,1,,,,,フリスコ,0
779,3290801012939,登記記録の閉鎖等,0,2025-10-28,2025-10-20,株式会社佳音,,株式会社,福岡県,北九州市八幡西区,熊西２丁目１番１０号,,40,109,8060031,,,2025-10-20,清算の結了等,,,2015-10-05,1,,,,,カノン,0
784,3330002001019,登記記録の閉鎖等,0,2025-10-28,2025-10-20,有限会社岩山建材店,,有限会社,熊本県,熊本市南区,御幸西２丁目２番１５号,,43,104,8614171,,,2025-10-20,清算の結了等,,,2015-10-05,1,,,,,,0
795,3390002007142,登記記録の閉鎖等,0,2025-10-28,2025-10-15,小倉丹蔵のタネ有限会社,,有限会社,山形県,酒田市,御成町６番１８号,,06,204,9980024,,,2025-10-15,清算の結了等,,,2015-10-05,1,,,,,オグラタンゾウノタネ,0
802,3430001090481,登記記録の閉鎖等,0,2025-10-28,2025-10-27,Ｅ介護サービス株式会社,,株式会社,北海道,札幌市南区,藤野一条６丁目３番１２号,,01,106,0612281,,,2025-10-27,清算の結了等,,,2023-11-20,1,,,,,イーカイゴサービス,0
814,3490002002496,登記記録の閉鎖等,0,2025-10-28,2025-10-23,有限会社昭和設計,,有限会社,高知県,高知市,朝倉己８４３番地２９,,39,201,7808066,,,2025-10-23,清算の結了等,,,2015-10-05,1,,,,,ショウワセッケイ,0
820,4010001231754,登記記録の閉鎖等,0,2025-10-28,2025-10-16,Ｐａｒｔｎｅｒ　Ｖａｌｕｅ　Ｃｏｎｓｕｌｔｉｎｇ株式会社,,株式会社,東京都,中央区,新川１丁目１０番１４－２０２号,,13,102,1040033,,,2025-10-16,清算の結了等,,,2022-12-22,1,,,,,パートナーバリューコンサルティング,0
827,4010005028701,登記記録の閉鎖等,0,2025-10-28,2025-10-24,一般社団法人日本ソーシャルインベスター協会,,その他の設立登記法人,東京都,文京区,小石川１丁目２２番９号５階,,13,105,1120002,,,2025-10-24,清算の結了等,,,2018-06-27,1,,,,,ニホンソーシャルインベスターキョウカイ,0
828,4010005034162,登記記録の閉鎖等,0,2025-10-28,2025-10-23,ラベンダー一般社団法人,,その他の設立登記法人,東京都,中央区,銀座１丁目６番１１号アースタックス税理士法人内,,13,102,1040061,,,2025-10-23,清算の結了等,,,2021-11-02,1,,,,,ラベンダー,0
837,4010601009550,登記記録の閉鎖等,0,2025-10-28,2025-10-16,株式会社オレンジ,,株式会社,東京都,墨田区,本所２丁目１９番９号,,13,107,1300004,,,2025-10-16,清算の結了等,,,2015-10-05,1,,,,,オレンジ,0
853,4011001022672,登記記録の閉鎖等,0,2025-10-28,2025-09-26,株式会社メディアアーツ東京,,株式会社,東京都,渋谷区,神南１丁目８番１１号,,13,113,1500041,,,2025-09-26,清算の結了等,,,2015-10-05,1,,,,,メディアアーツトウキョウ,0
857,4011003013001,登記記録の閉鎖等,0,2025-10-28,2025-09-26,スポーツマーケティングエージェンシー合同会社,,合同会社,東京都,渋谷区,神宮前６丁目２３番４号桑野ビル２階,,13,113,1500001,,,2025-09-26,清算の結了等,,,2021-07-06,1,,,,,スポーツマーケティングエージェンシー,0
860,4011005009443,登記記録の閉鎖等,0,2025-10-28,2025-09-26,一般社団法人ＳＴＬＦ基金,,その他の設立登記法人,東京都,目黒区,目黒２丁目１０番８号第２アトモスフィア青山ビル６階,,13,110,1530063,,,2025-09-26,清算の結了等,,,2022-02-16,1,,,,,エスティーエルエフキキン,0
892,4020001075820,登記記録の閉鎖等,0,2025-10-28,2025-10-20,株式会社トラスト,,株式会社,埼玉県,さいたま市浦和区,仲町４丁目１３番１２－４号,,11,107,3300062,,,2025-10-20,清算の結了等,,,2015-10-05,1,,,,,トラスト,0
899,4020001154970,登記記録の閉鎖等,0,2025-10-28,2025-10-14,株式会社エスケー不動産,,株式会社,神奈川県,横浜市鶴見区,東寺尾４丁目１番１号,,14,101,2300077,,,2025-10-14,清算の結了等,,,2023-12-19,1,,,,,エスケーフドウサン,0
918,4030001074029,登記記録の閉鎖等,0,2025-10-28,2025-10-20,株式会社大川機工,,株式会社,埼玉県,川口市,弥平３丁目８番１３号,,11,203,3320002,,,2025-10-20,清算の結了等,,,2015-10-05,1,,,,,オオカワキコウ,0
924,4030001109610,登記記録の閉鎖等,0,2025-10-28,2025-10-17,株式会社フォルテシモ,,株式会社,埼玉県,所沢市,東所沢和田２丁目１７番１０号メゾンドール東所沢１０１,,11,208,3590023,,,2025-10-17,清算の結了等,,,2015-10-05,1,,,,,フォルテシモ,0
947,4070001020763,登記記録の閉鎖等,0,2025-10-28,2025-10-23,タカテック株式会社,,株式会社,群馬県,太田市,南矢島町３７８番地,,10,205,3730861,,,2025-10-23,清算の結了等,,,2015-10-05,1,,,,,タカテック,0
952,4100001033191,登記記録の閉鎖等,0,2025-10-28,2025-10-24,株式会社リーフ,,株式会社,長野県,長野市,大字屋島２３２０番地,,20,201,3810021,,,2025-10-24,清算の結了等,,,2020-05-15,1,,,,,リーフ,0
985,4130001016251,登記記録の閉鎖等,0,2025-10-28,2025-10-24,京都ネット株式会社,,株式会社,京都府,京都市伏見区,桃山町西尾１番地３８,,26,109,6128003,,,2025-10-24,清算の結了等,,,2015-10-05,1,,,,,キョウトネット,0
990,4140001088174,登記記録の閉鎖等,0,2025-10-28,2025-10-22,株式会社スマイル,,株式会社,兵庫県,芦屋市,平田町６番２０号１０１号,,28,206,6590074,,,2025-10-22,清算の結了等,,,2015-10-05,1,,,,,,0
993,4140001115985,登記記録の閉鎖等,0,2025-10-28,2025-10-14,株式会社調剤経営研究所,,株式会社,神奈川県,川崎市宮前区,犬蔵２丁目３番４７－２号,,14,136,2160011,,,2025-10-14,清算の結了等,,,2020-01-06,1,,,,,チョウザイケイエイケンキュウジョ,0
998,4140002051362,登記記録の閉鎖等,0,2025-10-28,2025-10-21,有限会社山池組,,有限会社,兵庫県,姫路市,下手野３丁目７番１４号,,28,201,6700063,,,2025-10-21,清算の結了等,,,2015-10-05,1,,,,,ヤマイケグミ,0
1000,4140002065560,登記記録の閉鎖等,0,2025-10-28,2025-10-20,有限会社アフター・モーション,,有限会社,兵庫県,伊丹市,藤ノ木３丁目７番１－１０１８号,,28,207,6640847,,,2025-10-20,清算の結了等,,,2015-10-05,1,,,,,アフターモーション,0
1001,4140003013642,登記記録の閉鎖等,0,2025-10-28,2025-10-14,合同会社リトルフィート,,合同会社,兵庫県,三田市,つつじが丘北３丁目４番地１,,28,219,6691348,,,2025-10-14,清算の結了等,,,2019-01-31,1,,,,,リトルフィート,0
1009,4180001025553,登記記録の閉鎖等,0,2025-10-28,2025-10-16,株式会社三洲,,株式会社,愛知県,名古屋市西区,花の木３丁目１番７号,,23,104,4510062,,,2025-10-16,清算の結了等,,,2015-10-05,1,,,,,,0
1010,4180001081126,登記記録の閉鎖等,0,2025-10-28,2025-10-17,株式会社わい．加藤建築設計事務所,,株式会社,愛知県,犬山市,大字犬山字末友２８番地,,23,215,4840081,,,2025-10-17,清算の結了等,,,2015-10-05,1,,,,,ワイカトウケンチクセッケイジムショ,0
1016,4180002050906,登記記録の閉鎖等,0,2025-10-28,2025-10-17,有限会社天白保険サービス,,有限会社,愛知県,名古屋市天白区,一つ山３丁目２０番地の７,,23,116,4680033,,,2025-10-17,清算の結了等,,,2015-10-05,1,,,,,テンパクホケンサービス,0
1017,4180002062059,登記記録の閉鎖等,0,2025-10-28,2025-10-17,有限会社深谷自動車,,有限会社,愛知県,愛知郡東郷町,大字諸輪字北山７９番地の１,,23,302,4700151,,,2025-10-17,清算の結了等,,,2015-10-05,1,,,,,フカヤジドウシャ,0
1029,4200002023462,登記記録の閉鎖等,0,2025-10-28,2025-10-22,有限会社長淵製作所,,有限会社,岐阜県,中津川市,苗木４４７８番地の５４５,,21,206,5080101,,,2025-10-22,清算の結了等,,,2015-10-05,1,,,,,,0
1044,4260001019794,登記記録の閉鎖等,0,2025-10-28,2025-10-22,株式会社三共住宅工業,,株式会社,岡山県,津山市,小田中１４４０番地,,33,203,7080006,,,2025-10-22,清算の結了等,,,2015-10-05,1,,,,,サンキョウジュウタクコウギョウ,0
1047,4280002007813,登記記録の閉鎖等,0,2025-10-28,2025-10-24,有限会社無我,,有限会社,島根県,大田市,久利町松代９番地,,32,205,6940025,,,2025-10-24,清算の結了等,,,2015-10-05,1,,,,,ムガ,0
1053,4290801017631,登記記録の閉鎖等,0,2025-10-28,2025-10-24,株式会社リプリアンクム,,株式会社,福岡県,北九州市小倉南区,上貫１丁目１０番２２号,,40,107,8000244,,,2025-10-24,清算の結了等,,,2015-10-05,1,,,,,リプリアンクム,0
1069,4370201003471,登記記録の閉鎖等,0,2025-10-28,2025-10-10,株式会社ＡＭＳ,,株式会社,宮城県,大崎市,古川新田字川原前２９７,,04,215,9896226,,,2025-10-10,清算の結了等,,,2015-10-05,1,,,,,アムス,0
1070,4380002010195,登記記録の閉鎖等,0,2025-10-28,2025-10-10,有限会社鈴木本店,,有限会社,福島県,郡山市,清水台１丁目１番５号,,07,203,9638005,,,2025-10-10,清算の結了等,,,2015-10-05,1,,,,,スズキホンテン,0
1072,4390002005252,登記記録の閉鎖等,0,2025-10-28,2025-10-23,有限会社伊藤木工,,有限会社,山形県,山形市,大字風間１３５６番地,,06,201,9902221,,,2025-10-23,清算の結了等,,,2015-10-05,1,,,,,イトウモッコウ,0
1077,4420001018441,登記記録の閉鎖等,0,2025-10-28,2025-10-10,デルタプラン株式会社,,株式会社,青森県,つがる市,豊富町屏風山１番地７３０,,02,209,0383302,,,2025-10-10,清算の結了等,,,2023-10-12,1,,,,,デルタプラン,0
1081,4430001047794,登記記録の閉鎖等,0,2025-10-28,2025-10-27,株式会社インテリア工房えのもと,,株式会社,北海道,美唄市,字美唄１７１８番地１,,01,215,0720000,,,2025-10-27,清算の結了等,,,2015-10-05,1,,,,,インテリアコウボウエノモト,0
1095,4470002011275,登記記録の閉鎖等,0,2025-10-28,2025-10-22,有限会社アキタ,,有限会社,香川県,丸亀市,富屋町７０番地１３,,37,202,7630021,,,2025-10-22,清算の結了等,,,2015-10-05,1,,,,,アキタ,0
1099,4500001020645,登記記録の閉鎖等,0,2025-10-28,2025-10-24,アピアランスサポート株式会社,,株式会社,愛媛県,松山市,祓川２丁目１０番１６号,,38,201,7918066,,,2025-10-24,清算の結了等,,,2017-05-29,1,,,,,,0
1100,4500005008703,登記記録の閉鎖等,0,2025-10-28,2025-10-27,ＮＰＯ法人だんだんのわ,,その他の設立登記法人,愛媛県,松山市,平井町甲３６０７番地７,,38,201,7910243,,,2025-10-27,清算の結了等,,,2024-04-25,1,,,,,ダンダンノワ,0
1119,5010401081484,登記記録の閉鎖等,0,2025-10-28,2025-09-30,株式会社インテグリティ,,株式会社,東京都,港区,三田３丁目４番３号ＲＩＰＬ９－９Ｆ,,13,103,1080073,,,2025-09-30,清算の結了等,,,2015-10-05,1,,,,,インテグリティ,0
1133,5010401171764,登記記録の閉鎖等,0,2025-10-28,2025-09-30,株式会社ＢＬＵＥ,,株式会社,東京都,港区,南青山６丁目５番５５号,,13,103,1070062,,,2025-09-30,清算の結了等,,,2023-01-11,1,,,,,ブルー,0
1140,5010405019398,登記記録の閉鎖等,0,2025-10-28,2025-10-22,東陽オフィス一般社団法人,,その他の設立登記法人,東京都,中央区,日本橋３丁目９番１号日本橋三丁目スクエア１１階,,13,102,1030027,,,2025-10-22,清算の結了等,,,2021-01-15,1,,,,,トウヨウオフィス,0
1144,5010701041956,登記記録の閉鎖等,0,2025-10-28,2025-10-20,株式会社Ｔｉｎｙ　Ｔａｂｌｅ,,株式会社,東京都,品川区,豊町１丁目７番５号プラムアーク戸越１Ｆ,,13,109,1420042,,,2025-10-20,清算の結了等,,,2021-12-21,1,,,,,タイニーテーブル,0
1149,5011001144854,登記記録の閉鎖等,0,2025-10-28,2025-09-22,株式会社コトイク,,株式会社,東京都,渋谷区,渋谷２丁目１９－１５宮益坂ビルディング６０９,,13,113,1500002,,,2025-09-22,清算の結了等,,,2022-01-06,1,,,,,コトイク,0
1168,5011103003446,登記記録の閉鎖等,0,2025-10-28,2025-09-29,合同会社総合設計,,合同会社,東京都,新宿区,四谷１丁目７番,,13,104,1600004,,,2025-09-29,清算の結了等,,,2015-10-05,1,,,,,ソウゴウセッケイ,0
1192,5020001047323,登記記録の閉鎖等,0,2025-10-28,2025-10-09,大勝建設株式会社,,株式会社,神奈川県,横浜市鶴見区,馬場４丁目２１番２８号,,14,101,2300076,,,2025-10-09,清算の結了等,,,2015-10-05,1,,,,,ダイカツケンセツ,0
1205,5021001045060,登記記録の閉鎖等,0,2025-10-28,2025-10-06,株式会社ＨＯＴ　ＣＯＣＯ,,株式会社,神奈川県,鎌倉市,材木座６丁目７番１４号シーサイドテラスＩ－Ｅ,00012650,14,204,2480013,,,2025-10-06,清算の結了等,,,2015-10-05,1,,,,,ホットココ,0
1209,5021002044747,登記記録の閉鎖等,0,2025-10-28,2025-10-08,有限会社荻商,,有限会社,神奈川県,海老名市,国分寺台１丁目１９番２７号,,14,215,2430413,,,2025-10-08,清算の結了等,,,2015-10-05,1,,,,,オギショウ,0
1224,5040001046190,登記記録の閉鎖等,0,2025-10-28,2025-09-25,チーボ・ジュヌイーノ株式会社,,株式会社,千葉県,白井市,七次台３丁目３０番３号,,12,232,2701436,,,2025-09-25,清算の結了等,,,2015-10-05,1,,,,,チーボジュヌイーノ,0
1237,5060002031735,登記記録の閉鎖等,0,2025-10-28,2025-10-24,有限会社太田屋,,有限会社,栃木県,栃木市,皆川城内町１７６８番地,,09,203,3280067,,,2025-10-24,清算の結了等,,,2015-10-05,1,,,,,オオタヤ,0
1245,5080102002254,登記記録の閉鎖等,0,2025-10-28,2025-10-23,有限会社田代水産,,有限会社,静岡県,沼津市,蛇松町１２番地の２,,22,203,4100842,,,2025-10-23,清算の結了等,,,2015-10-05,1,,,,,タシロスイサン,0
1270,5120002078084,登記記録の閉鎖等,0,2025-10-28,2025-10-23,有限会社エスケイディ,,有限会社,大阪府,守口市,外島町３番７号,,27,209,5700096,,,2025-10-23,清算の結了等,,,2015-10-05,1,,,,,エスケイディ,0
1278,5120101021291,登記記録の閉鎖等,0,2025-10-28,2025-10-24,株式会社ジェイケイホーム,,株式会社,大阪府,大阪市西区,西本町１丁目４番１号オリックス本町ビル,,27,106,5500005,,,2025-10-24,合併による解散等,7010001095222,令和７年１０月１日東京都千代田区丸の内一丁目８番１号丸の内トラストタワーＮ館Ａｐａｍａｎ　Ｐｒｏｐｅｒｔｙ株式会社（7010001095222）に合併し解散,2015-10-05,1,,,,,ジェイケイホーム,0
1282,5120101039631,登記記録の閉鎖等,0,2025-10-28,2025-10-16,株式会社窪堀商店,,株式会社,大阪府,泉佐野市,上町３丁目６番３４号,,27,213,5980007,,,2025-10-16,清算の結了等,,,2015-10-05,1,,,,,クボホリショウテン,0
1283,5120101044788,登記記録の閉鎖等,0,2025-10-28,2025-10-16,株式会社丸大リハウス,,株式会社,大阪府,阪南市,舞１丁目３５番２０号,,27,232,5990224,,,2025-10-16,清算の結了等,,,2015-10-05,1,,,,,マルダイリハウス,0
1286,5120902013297,登記記録の閉鎖等,0,2025-10-28,2025-10-07,有限会社丹久,,有限会社,大阪府,摂津市,正雀本町１丁目２０番２３号,,27,224,5660024,,,2025-10-07,清算の結了等,,,2015-10-05,1,,,,,タンキュウ,0
1300,5140002004939,登記記録の閉鎖等,0,2025-10-28,2025-10-21,有限会社東播外柵センター,,有限会社,兵庫県,神戸市西区,桜が丘西町４丁目２番地の１,,28,111,6512227,,,2025-10-21,清算の結了等,,,2015-10-05,1,,,,,トウバンガイサク,0
1302,5150001015630,登記記録の閉鎖等,0,2025-10-28,2025-10-23,株式会社山野,,株式会社,奈良県,御所市,大字竹田１８番地１,,29,208,6392206,,,2025-10-23,清算の結了等,,,2015-10-05,1,,,,,ヤマノ,0
1308,5180001071209,登記記録の閉鎖等,0,2025-10-28,2025-10-20,株式会社アズセンス,,株式会社,愛知県,豊橋市,池見町１３５番地１,,23,201,4400827,,,2025-10-20,清算の結了等,,,2015-10-05,1,,,,,アズセンス,0
1335,5250001005035,登記記録の閉鎖等,0,2025-10-28,2025-10-24,株式会社アサヒ,,株式会社,山口県,下関市,彦島迫町１丁目１０番１１号,,35,201,7500092,,,2025-10-24,清算の結了等,,,2015-10-05,1,,,,,アサヒ,0
1342,5260002019116,登記記録の閉鎖等,0,2025-10-28,2025-10-08,有限会社瀬戸内レジャー開発,,有限会社,岡山県,倉敷市,水島東栄町１－１１,,33,202,7128033,,,2025-10-08,合併による解散等,6260002017787,令和７年１０月１日岡山県倉敷市水島東栄町１－１１株式会社倉敷レジャー開発（6260002017787）に合併し解散,2015-10-05,1,,,,,セトウチレジャーカイハツ,0
1346,5290001004000,登記記録の閉鎖等,0,2025-10-28,2025-09-30,富士電子株式会社,,株式会社,福岡県,福岡市東区,塩浜１丁目１７番５５号,,40,131,8110203,,,2025-09-30,清算の結了等,,,2015-10-05,1,,,,,フジデンシ,0
1350,5290001084199,登記記録の閉鎖等,0,2025-10-28,2025-09-30,株式会社ＳＴＥＰ　ＬＩＦＥ,,株式会社,福岡県,福岡市博多区,美野島１丁目７番１２－２０５号,,40,132,8120017,,,2025-09-30,清算の結了等,,,2019-02-13,1,,,,,ステップライフ,0
1358,5290801014850,登記記録の閉鎖等,0,2025-10-28,2025-10-24,アイ工業株式会社,,株式会社,福岡県,直方市,大字頓野８７１番地１,,40,204,8220002,,,2025-10-24,清算の結了等,,,2015-10-05,1,,,,,アイコウギョウ,0
1387,5430002020188,登記記録の閉鎖等,0,2025-10-28,2025-10-17,有限会社森商事,,有限会社,北海道,札幌市白石区,北郷二条３丁目４番２２号,,01,104,0030832,,,2025-10-17,清算の結了等,,,2015-10-05,1,,,,,モリショウジ,0
1401,6010001029932,登記記録の閉鎖等,0,2025-10-28,2025-10-08,マリン興産株式会社,,株式会社,東京都,千代田区,神田司町２丁目１９番５号,,13,101,1010048,,,2025-10-08,清算の結了等,,,2015-10-05,1,,,,,マリンコウサン,0
1407,6010001230721,登記記録の閉鎖等,0,2025-10-28,2025-10-15,株式会社エムサーキュラーリソーシーズ,,株式会社,東京都,千代田区,大手町１丁目４番２号,,13,101,1000004,,,2025-10-15,清算の結了等,,,2022-11-09,1,,,,,エムサーキュラーリソーシーズ,0
1419,6010401127204,登記記録の閉鎖等,0,2025-10-28,2025-10-17,トラストグリーンパワー株式会社,,株式会社,埼玉県,三郷市,早稲田２丁目３番地１、１Ｆ,,11,237,3410018,,,2025-10-17,清算の結了等,,,2016-09-26,1,,,,,トラストグリーンパワー,0
1420,6010401148489,登記記録の閉鎖等,0,2025-10-28,2025-09-30,株式会社ウィ・キャンメディカル,,株式会社,東京都,港区,新橋６丁目９番２号,,13,103,1050004,,,2025-09-30,合併による解散等,3010001112162,令和７年９月３０日東京都港区新橋六丁目９番２号株式会社ウィ・キャン（3010001112162）に合併し解散,2019-10-04,1,,,,,ウィキャンメディカル,0
1421,6010401185697,登記記録の閉鎖等,0,2025-10-28,2025-09-30,株式会社ＸＹＺ,,株式会社,東京都,港区,北青山３丁目９－１０北青山ビル２Ｆ,,13,103,1070061,,,2025-09-30,清算の結了等,,,2024-10-16,1,,,,,エックスワイジー,0
1426,6010405022211,登記記録の閉鎖等,0,2025-10-28,2025-09-30,一般社団法人サンライズ２,,その他の設立登記法人,東京都,港区,赤坂７丁目６番１５号,,13,103,1070052,,,2025-09-30,清算の結了等,,,2023-06-09,1,,,,,サンライズツー,0
1431,6010702015223,登記記録の閉鎖等,0,2025-10-28,2025-10-24,持株会承継機構有限会社,,有限会社,東京都,杉並区,下高井戸３丁目２０番１８号,,13,115,1680073,,,2025-10-24,清算の結了等,,,2015-10-05,1,,,,,モチカブカイショウケイキコウ,0
1434,6010901030015,登記記録の閉鎖等,0,2025-10-28,2025-10-24,株式会社自然の恵み,,株式会社,東京都,世田谷区,用賀２丁目９番２号,,13,112,1580097,,,2025-10-24,清算の結了等,,,2015-10-05,1,,,,,シゼンノメグミ,0
1439,6011001052230,登記記録の閉鎖等,0,2025-10-28,2025-09-29,株式会社ビジネス・ソフト・デザイン,,株式会社,東京都,渋谷区,広尾３丁目２番１－９０２号,,13,113,1500012,,,2025-09-29,清算の結了等,,,2015-10-05,1,,,,,ビジネスソフトデザイン,0
1443,6011001149019,登記記録の閉鎖等,0,2025-10-28,2025-10-02,ｂｅＦｒｉｅｎｄｚ株式会社,,株式会社,東京都,港区,北青山３丁目５番２５号Ｋ’ｓＢＬＤＧ３Ｆ,,13,103,1070061,,,2025-10-02,清算の結了等,,,2022-08-03,1,,,,,ビーフレンズ,0
1450,6011003014212,登記記録の閉鎖等,0,2025-10-28,2025-09-26,合同会社ＳＴＬＦ,,合同会社,東京都,目黒区,目黒２丁目１０番８号第２アトモスフィア青山ビル６階,,13,110,1530063,,,2025-09-26,清算の結了等,,,2022-02-16,1,,,,,エスティエルエフ,0
1451,6011003021885,登記記録の閉鎖等,0,2025-10-28,2025-10-23,ＦＭＴ合同会社,,合同会社,東京都,渋谷区,神宮前１丁目５番８号,,13,113,1500001,,,2025-10-23,合併による解散等,2020001043507,令和７年９月２日横浜市中区桜木町一丁目１番地Ｆマネジメント株式会社（2020001043507）に合併し解散,2025-07-03,1,,,,,エフエムティ,0
1459,6011101092655,登記記録の閉鎖等,0,2025-10-28,2025-10-16,株式会社国華リード,,株式会社,東京都,台東区,根岸２丁目１－９小島ビル,,13,106,1100003,,,2025-10-16,清算の結了等,,,2020-09-30,1,,,,,コッカリード,0
1465,6011103008717,登記記録の閉鎖等,0,2025-10-28,2025-10-15,合同会社ブラインドライターズ,,合同会社,東京都,新宿区,新宿４丁目３番地１５レイフラット新宿Ｂ棟３Ｆ,,13,104,1600022,,,2025-10-15,清算の結了等,,,2019-04-11,1,,,,,ブラインドライターズ,0
1480,6011801044261,登記記録の閉鎖等,0,2025-10-28,2025-10-24,深海株式会社,,株式会社,東京都,足立区,竹の塚５丁目３６番１８－２０５号,,13,121,1210813,,,2025-10-24,清算の結了等,,,2024-05-22,1,,,,,シンカイ,0
1481,6012301011479,登記記録の閉鎖等,0,2025-10-28,2025-10-17,ＨａｃｋＴｅｃｈｎｏｌｏｇｉｅｓ株式会社,,株式会社,東京都,町田市,原町田４丁目１１－１３天野ビル４Ｆ,,13,209,1940013,,,2025-10-17,清算の結了等,,,2018-08-15,1,,,,,ハックテクノロジーズ,0
1492,6020001088523,登記記録の閉鎖等,0,2025-10-28,2025-10-14,株式会社有吉,,株式会社,神奈川県,横浜市青葉区,もみの木台６番地８－１０１,,14,117,2250026,,,2025-10-14,清算の結了等,,,2015-10-05,1,,,,,,0
1493,6020001095560,登記記録の閉鎖等,0,2025-10-28,2025-10-14,ＰｒｉｍｅＨｏｐｅｓ株式会社,,株式会社,神奈川県,横浜市瀬谷区,瀬谷４丁目３９番地１７,,14,114,2460031,,,2025-10-14,清算の結了等,,,2015-10-05,1,,,,,プライムホープス,0
1494,6020001116325,登記記録の閉鎖等,0,2025-10-28,2025-10-16,株式会社Ｎ・Ｄ・Ｓ,,株式会社,神奈川県,横浜市戸塚区,汲沢８丁目３３番４号,,14,110,2450061,,,2025-10-16,清算の結了等,,,2016-05-26,1,,,,,エヌディーエス,0
1508,6030001053138,登記記録の閉鎖等,0,2025-10-28,2025-10-17,株式会社Ｉ．Ｓ．Ｔ,,株式会社,埼玉県,春日部市,上蛭田４４４番地９,,11,214,3440046,,,2025-10-17,清算の結了等,,,2015-10-05,1,,,,,アイエスティー,0
1510,6030001097176,登記記録の閉鎖等,0,2025-10-28,2025-10-17,株式会社Ｒ‐ＨＯＵＳＩＮＧ,,株式会社,埼玉県,入間市,大字下藤沢１３１２－６－１０－２Ｆ,,11,225,3580011,,,2025-10-17,清算の結了等,,,2015-10-05,1,,,,,アールハウジング,0
1522,6040001086599,登記記録の閉鎖等,0,2025-10-28,2025-09-29,バスティル株式会社,,株式会社,千葉県,我孫子市,新木野３丁目３１番１１号,,12,222,2701114,,,2025-09-29,清算の結了等,,,2015-10-05,1,,,,,バスティル,0
1525,6040001115721,登記記録の閉鎖等,0,2025-10-28,2025-10-16,ＣＡＮＰ株式会社,,株式会社,神奈川県,川崎市川崎区,大島３丁目３８番９号,,14,131,2100834,,,2025-10-16,清算の結了等,,,2020-11-02,1,,,,,キャンプ,0
1526,6040002053739,登記記録の閉鎖等,0,2025-10-28,2025-10-01,有限会社ｙｙｎｅｔ,,有限会社,千葉県,松戸市,西馬橋広手町１１番地の３,,12,207,2710048,,,2025-10-01,清算の結了等,,,2015-10-05,1,,,,,ワイワイネット,0
1536,6070001004608,登記記録の閉鎖等,0,2025-10-28,2025-10-22,ウイーグル株式会社,,株式会社,群馬県,前橋市,西大室町１３２２番地２,,10,201,3792104,,,2025-10-22,清算の結了等,,,2015-10-05,1,,,,,ウイーグル,0
1545,6100001025492,登記記録の閉鎖等,0,2025-10-28,2025-10-23,ＡＷ・ウォーター株式会社,,株式会社,長野県,大町市,大町３５００番地１,,20,212,3980002,,,2025-10-23,合併による解散等,7011001007976,令和７年１０月１日東京都品川区東品川四丁目１３番１４号ゴールドパック株式会社（7011001007976）に合併し解散,2015-10-05,1,,,,,エイダブリューウオーター,0
1561,6120001129044,登記記録の閉鎖等,0,2025-10-28,2025-10-21,Ｒｅｕｌａｎｄ　Ｊａｐａｎ株式会社,,株式会社,新潟県,新潟市江南区,大渕２６２９番地９,,15,104,9500105,,,2025-10-21,清算の結了等,,,2015-10-05,1,,,,,ルーランドジャパン,0
1576,6120002008552,登記記録の閉鎖等,0,2025-10-28,2025-10-15,有限会社野方,,有限会社,大阪府,大阪市城東区,関目４丁目１４番９－３５１号,,27,118,5360008,,,2025-10-15,清算の結了等,,,2015-10-05,1,,,,,ノガタ,0
1577,6120002045959,登記記録の閉鎖等,0,2025-10-28,2025-10-23,シンプルウィッシュ有限会社,,有限会社,大阪府,大阪市旭区,千林２丁目１５番２３号,,27,117,5350012,,,2025-10-23,清算の結了等,,,2015-10-05,1,,,,,シンプルウィッシュ,0
1599,6180001025865,登記記録の閉鎖等,0,2025-10-28,2025-10-17,株式会社スタジオ・アート,,株式会社,愛知県,名古屋市西区,名駅１丁目１番１６号,,23,104,4510045,,,2025-10-17,清算の結了等,,,2015-10-05,1,,,,,スタジオアート,0
1600,6180001107003,登記記録の閉鎖等,0,2025-10-28,2025-10-16,株式会社パーツ・ランド,,株式会社,愛知県,小牧市,小針２丁目４９５番地,,23,219,4850037,,,2025-10-16,清算の結了等,,,2015-10-05,1,,,,,パーツランド,0
1608,6180005016357,登記記録の閉鎖等,0,2025-10-28,2025-10-24,特定非営利活動法人スポーツＭＡＮＡＢＩ,,その他の設立登記法人,愛知県,春日井市,勝川町６丁目１４０番地王子不動産ビル７階,,23,206,4860945,,,2025-10-24,清算の結了等,,,2015-10-05,1,,,,,スポーツマナビ,0
1622,6230001001761,登記記録の閉鎖等,0,2025-10-28,2025-10-20,株式会社テイ・アール・エス,,株式会社,富山県,富山市,公文名１６番地の２７,,16,201,9398002,,,2025-10-20,清算の結了等,,,2015-10-05,1,,,,,テイアールエス,0
1623,6230001010705,登記記録の閉鎖等,0,2025-10-28,2025-10-20,株式会社畑山商事,,株式会社,富山県,高岡市,笹川２７５０番地,,16,202,9330344,,,2025-10-20,清算の結了等,,,2015-10-05,1,,,,,ハタヤマショウジ,0
1636,6260001038017,登記記録の閉鎖等,0,2025-10-28,2025-10-17,株式会社アンク,,株式会社,岡山県,岡山市北区,柳町１丁目１４番７号やよいビル３Ｆ,,33,101,7000904,,,2025-10-17,清算の結了等,,,2023-06-06,1,,,,,アンク,0
1648,6290801002160,登記記録の閉鎖等,0,2025-10-28,2025-04-15,株式会社辰己商会,,株式会社,福岡県,北九州市小倉北区,青葉２丁目５番１６号,,40,106,8030822,,,2025-04-15,清算の結了等,,,2015-10-05,1,,,,,タツミショウカイ,0
1650,6290802000774,登記記録の閉鎖等,0,2025-10-28,2025-10-27,有限会社采原電気,,有限会社,福岡県,北九州市小倉南区,中吉田３丁目１０番７号,,40,107,8000204,,,2025-10-27,清算の結了等,,,2015-10-05,1,,,,,ウネハラデンキ,0
1654,6310002017286,登記記録の閉鎖等,0,2025-10-28,2025-10-24,秀住建有限会社,,有限会社,長崎県,大村市,坂口町１１２２番地１,,42,205,8560028,,,2025-10-24,清算の結了等,,,2015-10-05,1,,,,,,0
1657,6330001028514,登記記録の閉鎖等,0,2025-10-28,2025-10-17,株式会社神崎伐業,,株式会社,熊本県,球磨郡湯前町,３２６６番地３,,43,506,8680600,,,2025-10-17,清算の結了等,,,2021-04-22,1,,,,,カンザキバツギョウ,0
1664,6380002027205,登記記録の閉鎖等,0,2025-10-28,2025-10-15,有限会社いわき水産振興,,有限会社,福島県,いわき市,小名浜字芳浜１１番地の５９,,07,204,9718101,,,2025-10-15,清算の結了等,,,2015-10-05,1,,,,,イワキスイサンシンコウ,0
1669,6420002019536,登記記録の閉鎖等,0,2025-10-28,2025-10-15,有限会社太田建材,,有限会社,青森県,むつ市,大字田名部字斗南岡２９番地１７８,,02,208,0350021,,,2025-10-15,清算の結了等,,,2015-10-05,1,,,,,オオタケンザイ,0
1670,6430001019809,登記記録の閉鎖等,0,2025-10-28,2025-10-16,札幌企業開発株式会社,,株式会社,北海道,札幌市東区,東苗穂一条１丁目１番３９号,,01,103,0070801,,,2025-10-16,清算の結了等,,,2015-10-05,1,,,,,サッポロキギョウカイハツ,0
1671,6430001056538,登記記録の閉鎖等,0,2025-10-28,2025-10-16,株式会社池田,,株式会社,北海道,室蘭市,中島町２丁目１２番２１号,,01,205,0500074,,,2025-10-16,清算の結了等,,,2015-10-05,1,,,,,イケダ,0
1672,6430002023140,登記記録の閉鎖等,0,2025-10-28,2025-10-24,有限会社札幌キーセンター,,有限会社,北海道,札幌市東区,北八条東８丁目１番１号,,01,103,0650008,,,2025-10-24,清算の結了等,,,2015-10-05,1,,,,,,0
1679,6500003003118,登記記録の閉鎖等,0,2025-10-28,2025-10-27,ＪＵＧＥＭ合同会社,,合同会社,愛媛県,松山市,朝美１丁目５番１２号フライブルグＩＴ４０２号,,38,201,7918023,,,2025-10-27,清算の結了等,,,2023-10-10,1,,,,,ジュゲム,0
1684,7010001025253,登記記録の閉鎖等,0,2025-10-28,2025-10-23,キャメロンジャパン株式会社,,株式会社,東京都,中央区,日本橋３丁目３番９号,,13,102,1030027,,,2025-10-23,合併による解散等,3021001012649,令和７年１０月１日神奈川県相模原市中央区淵野辺二丁目２番１号シュルンベルジェ株式会社（3021001012649）に合併し解散,2015-10-05,1,,,,,キャメロンジャパン,0
1685,7010001081841,登記記録の閉鎖等,0,2025-10-28,2025-10-14,スノーマジックエンターテイメントジャパン株式会社,,株式会社,東京都,千代田区,永田町２丁目１０番２号,,13,101,1000014,,,2025-10-14,清算の結了等,,,2015-10-05,1,,,,,スノーマジックエンターテイメントジャパン,0
1686,7010001117133,登記記録の閉鎖等,0,2025-10-28,2025-10-22,株式会社快適環境,,株式会社,東京都,板橋区,大山金井町３７番７－２０３号,,13,119,1730024,,,2025-10-22,清算の結了等,,,2015-10-05,1,,,,,カイテキカンキョウ,0
1699,7010005034291,登記記録の閉鎖等,0,2025-10-28,2025-10-23,福崎ロジ一般社団法人,,その他の設立登記法人,東京都,中央区,銀座１丁目６番１１号アースタックス税理士法人内,,13,102,1040061,,,2025-10-23,清算の結了等,,,2021-12-06,1,,,,,フクザキロジ,0
1702,7010401085921,登記記録の閉鎖等,0,2025-10-28,2025-10-01,株式会社Ｇｏｉｎｇ,,株式会社,東京都,港区,虎ノ門５丁目３番１号,,13,103,1050001,,,2025-10-01,合併による解散等,2010401060301,令和７年１０月１日東京都港区虎ノ門四丁目２番３号株式会社ジーヤマ（2010401060301）に合併し解散,2015-10-05,1,,,,,ゴーイング,0
1736,7011101048193,登記記録の閉鎖等,0,2025-10-28,2025-09-30,株式会社Ｄｏｇｅｔｈａ,,株式会社,東京都,新宿区,西新宿７丁目２２－３－１０３,,13,104,1600023,,,2025-09-30,清算の結了等,,,2015-10-05,1,,,,,ドウゲザ,0
1739,7011101100771,登記記録の閉鎖等,0,2025-10-28,2025-09-29,株式会社アミティエ,,株式会社,東京都,新宿区,西新宿２丁目４番１号,,13,104,1600023,,,2025-09-29,清算の結了等,,,2022-11-15,1,,,,,アミティエ,0
1747,7011401020620,登記記録の閉鎖等,0,2025-10-28,2025-10-08,株式会社常磐木,,株式会社,神奈川県,逗子市,小坪５丁目２３番１０号リビエラ逗子マリーナ本館４１９号室,,14,208,2490008,,,2025-10-08,清算の結了等,,,2017-10-24,1,,,,,トキワギ,0
1753,7011801045399,登記記録の閉鎖等,0,2025-10-28,2025-10-22,ＬＩＶＥ株式会社,,株式会社,東京都,足立区,関原３丁目３０番１５号,,13,121,1230852,,,2025-10-22,清算の結了等,,,2025-01-10,1,,,,,リヴ,0
1758,7011805002644,登記記録の閉鎖等,0,2025-10-28,2025-10-20,一般社団法人東京通訳・翻訳協会,,その他の設立登記法人,東京都,足立区,古千谷本町２丁目１番２５－２０５号,,13,121,1210832,,,2025-10-20,清算の結了等,,,2017-01-27,1,,,,,トウキョウツウヤクホンヤクキョウカイ,0
1762,7012801023634,登記記録の閉鎖等,0,2025-10-28,2025-10-16,株式会社Ｃｏｓｍｉｃ,,株式会社,東京都,立川市,柴崎町１丁目１５番２５号１０２ベルフォーレ諏訪１０２号室,,13,202,1900023,,,2025-10-16,清算の結了等,,,2024-12-16,1,,,,,コスミック,0
1764,7013401000767,登記記録の閉鎖等,0,2025-10-28,2025-10-15,株式会社モリワ,,株式会社,東京都,日野市,程久保３丁目１８番地の２８,,13,212,1910042,,,2025-10-15,清算の結了等,,,2015-10-05,1,,,,,モリワ,0
1775,7020002033956,登記記録の閉鎖等,0,2025-10-28,2025-10-14,有限会社仁愛会デンタル・ラボ,,有限会社,神奈川県,横浜市港北区,綱島台２６番１１号２０１,,14,109,2230054,,,2025-10-14,清算の結了等,,,2015-10-05,1,,,,,ジンアイカイデンタルラボ,0
1799,7040002094146,登記記録の閉鎖等,0,2025-10-28,2025-09-29,有限会社ラール,,有限会社,千葉県,柏市,中央町３番３０号ニチメン柏ハイツ７０７号,,12,217,2770021,,,2025-09-29,清算の結了等,,,2015-10-05,1,,,,,ラール,0
1806,7070001022939,登記記録の閉鎖等,0,2025-10-28,2025-10-22,株式会社ファン・ライフカンパニー,,株式会社,群馬県,沼田市,白沢町上古語父１３６５番地１,,10,206,3780126,,,2025-10-22,合併による解散等,8070001023481,令和７年１０月１日群馬県沼田市白沢町上古語父１３６５番地１株式会社沼田アルミ（8070001023481）に合併し解散,2015-10-05,1,,,,,ファンライフカンパニー,0
1812,7080002016600,登記記録の閉鎖等,0,2025-10-28,2025-10-22,有限会社萩原工業所,,有限会社,静岡県,焼津市,中島１０２７番地,,22,212,4210214,,,2025-10-22,清算の結了等,,,2015-10-05,1,,,,,ハギワラコウギョウショ,0
1819,7100002020673,登記記録の閉鎖等,0,2025-10-28,2025-10-22,有限会社田中自動車工場,,有限会社,長野県,松本市,波田１９０９番地６２,,20,202,3901401,,,2025-10-22,合併による解散等,8100001014700,令和７年１０月１日長野県松本市波田１９０９番地６２株式会社田中自動車（8100001014700）に合併し解散,2015-10-05,1,,,,,タナカジドウシャコウジョウ,0
1845,7122001028464,登記記録の閉鎖等,0,2025-10-28,2025-10-24,アークル株式会社,,株式会社,大阪府,八尾市,南植松町２丁目１番地の１,,27,212,5810091,,,2025-10-24,清算の結了等,,,2015-10-05,1,,,,,アークル,0
1862,7160002008969,登記記録の閉鎖等,0,2025-10-28,2025-10-22,有限会社ライフリビング,,有限会社,滋賀県,愛知郡愛荘町,東円堂９６２番地１,,25,425,5291325,,,2025-10-22,清算の結了等,,,2015-10-05,1,,,,,ライフリビング,0
1872,7180001115129,登記記録の閉鎖等,0,2025-10-28,2025-10-16,株式会社イーテック,,株式会社,愛知県,清須市,春日江先２６番地１,,23,233,4520962,,,2025-10-16,清算の結了等,,,2015-10-05,1,,,,,イーテック,0
1873,7180001159992,登記記録の閉鎖等,0,2025-10-28,2025-10-17,株式会社ＭＩＮＡＭＩ,,株式会社,愛知県,名古屋市千種区,下方町６丁目３番地の２,,23,101,4640096,,,2025-10-17,清算の結了等,,,2024-01-31,1,,,,,ミナミ,0
1878,7180002000817,登記記録の閉鎖等,0,2025-10-28,2025-10-16,有限会社鈴木商店,,有限会社,愛知県,名古屋市守山区,森孝３丁目１０２９番地,,23,113,4630035,,,2025-10-16,清算の結了等,,,2015-10-05,1,,,,,スズキショウテン,0
1880,7180002089751,登記記録の閉鎖等,0,2025-10-28,2025-10-16,株式会社櫻井ホールディングス,,株式会社,愛知県,海部郡蟹江町,城３丁目４８３番地,,23,425,4970040,,,2025-10-16,清算の結了等,,,2015-10-05,1,,,,,サクライホールディングス,0
1894,7240001045369,登記記録の閉鎖等,0,2025-10-28,2025-10-24,株式会社セカンドオピニオン,,株式会社,広島県,東広島市,河内町上河内１４５番地１,,34,212,7392203,,,2025-10-24,清算の結了等,,,2015-10-05,1,,,,,セカンドオピニオン,0
1899,7250001018233,登記記録の閉鎖等,0,2025-10-28,2025-10-23,株式会社竜伸電工,,株式会社,山口県,下関市,長府豊城町５番３９号,,35,201,7520943,,,2025-10-23,清算の結了等,,,2020-04-06,1,,,,,リュウシンデンコウ,0
1902,7260005002629,登記記録の閉鎖等,0,2025-10-28,2025-10-16,農事組合法人サンイレブン,,その他の設立登記法人,岡山県,加賀郡吉備中央町,上竹１７４０番地,,33,681,7161131,,,2025-10-16,清算の結了等,,,2015-10-05,1,,,,,,0
1910,7290002027221,登記記録の閉鎖等,0,2025-10-28,2025-10-20,有限会社ショウシン福岡,,有限会社,福岡県,北九州市小倉南区,中曽根１丁目１３番１１－５０２号,,40,107,8000222,,,2025-10-20,清算の結了等,,,2015-10-05,1,,,,,ショウシンフクオカ,0
1917,7320001009101,登記記録の閉鎖等,0,2025-10-28,2025-10-22,豊國工業株式会社,,株式会社,大分県,佐伯市,東浜１番６号,,44,205,8760821,,,2025-10-22,合併による解散等,8010001196507,令和７年１０月１日東京都千代田区有楽町一丁目１番３号興人ライフサイエンス株式会社（8010001196507）に合併し解散,2015-10-05,1,,,,,ホウコクコウギョウ,0
1954,7480002004878,登記記録の閉鎖等,0,2025-10-28,2025-10-27,有限会社名東タクシー,,有限会社,徳島県,徳島市,名東町３丁目４７４番地,,36,201,7700047,,,2025-10-27,清算の結了等,,,2015-10-05,1,,,,,ミョウドウタクシー,0
1965,8010003031406,登記記録の閉鎖等,0,2025-10-28,2025-10-14,合同会社ＪＲＰＦ御徒町,,合同会社,東京都,千代田区,丸の内１丁目４番１号東京共同会計事務所内,,13,101,1000005,,,2025-10-14,清算の結了等,,,2020-01-09,1,,,,,ジェイアールピーエフオカチマチ,0
1966,8010003042881,登記記録の閉鎖等,0,2025-10-28,2025-10-10,ソーラーマタイ合同会社,,合同会社,東京都,中央区,八丁堀４丁目２番１０号ＡＯＪ税理士法人内,,13,102,1040032,,,2025-10-10,清算の結了等,,,2024-02-07,1,,,,,ソーラーマタイ,0
1968,8010005017353,登記記録の閉鎖等,0,2025-10-28,2025-10-24,公益財団法人交通協力会,,その他の設立登記法人,東京都,千代田区,丸の内３丁目４番１号新国際ビル９階,,13,101,1000005,,,2025-10-24,清算の結了等,,,2015-10-05,1,,,,,コウツウキョウリョクカイ,0
1970,8010005031305,登記記録の閉鎖等,0,2025-10-28,2025-10-24,一般社団法人ＣＬＦ１,,その他の設立登記法人,東京都,中央区,日本橋１丁目４番１号日本橋一丁目ビルディング,,13,102,1030027,,,2025-10-24,清算の結了等,,,2020-01-15,1,,,,,シーエルエフワン,0
1971,8010005035487,登記記録の閉鎖等,0,2025-10-28,2025-10-22,ジャパン・ロジスティクス１一般社団法人,,その他の設立登記法人,東京都,中央区,日本橋１丁目４番１号日本橋一丁目ビルディング,,13,102,1030027,,,2025-10-22,清算の結了等,,,2022-08-26,1,,,,,ジャパンロジスティクスワン,0
1976,8010401046443,登記記録の閉鎖等,0,2025-10-28,2025-10-01,ランクセス・ソリューションズ・ジャパン株式会社,,株式会社,東京都,千代田区,丸の内１丁目６番５号,,13,101,1000005,,,2025-10-01,合併による解散等,4010001091843,令和７年１０月１日東京都千代田区丸の内一丁目６番５号ランクセス株式会社（4010001091843）に合併し解散,2015-10-05,1,,,,,ランクセスソリューションズジャパン,0
1984,8010405018109,登記記録の閉鎖等,0,2025-10-28,2025-09-30,一般社団法人星読みセラピスト協会,,その他の設立登記法人,東京都,港区,浜松町２丁目２－１５浜松町ダイヤビル２Ｆ,,13,103,1050013,,,2025-09-30,清算の結了等,,,2019-10-03,1,,,,,ホシヨミセラピストキョウカイ,0
1996,8010702006765,登記記録の閉鎖等,0,2025-10-28,2025-10-20,有限会社ひまわり薬局,,有限会社,東京都,品川区,中延４丁目４番６号,,13,109,1420053,,,2025-10-20,清算の結了等,,,2015-10-05,1,,,,,ヒマワリヤッキョク,0
2001,8010901028825,登記記録の閉鎖等,0,2025-10-28,2025-10-24,株式会社太洋製作所,,株式会社,東京都,世田谷区,玉川１丁目１５番２－１５０３号,,13,112,1580094,,,2025-10-24,清算の結了等,,,2015-10-05,1,,,,,タイヨウセイサクショ,0
2015,8011101065972,登記記録の閉鎖等,0,2025-10-28,2025-09-25,株式会社ヤマシン,,株式会社,東京都,新宿区,左門町３番地４,,13,104,1600017,,,2025-09-25,清算の結了等,,,2015-10-05,1,,,,,ヤマシン,0
2021,8011701021714,登記記録の閉鎖等,0,2025-10-28,2025-10-20,株式会社宝,,株式会社,東京都,江戸川区,東小岩６丁目４番６号嶋村マンション１０３,,13,123,1330052,,,2025-10-20,清算の結了等,,,2018-05-02,1,,,,,タカラ,0
2023,8011702014601,登記記録の閉鎖等,0,2025-10-28,2025-10-16,有限会社マニッシュコーポレーション,,有限会社,東京都,江戸川区,清新町１丁目２番２－５０４号,,13,123,1340087,,,2025-10-16,清算の結了等,,,2015-10-05,1,,,,,マニッシュコーポレーション,0
2025,8012401029709,登記記録の閉鎖等,0,2025-10-28,2025-10-20,調布まちなかエネルギー株式会社,,株式会社,東京都,調布市,布田１丁目４６番地１調布ＫＳビル４階,,13,208,1820024,,,2025-10-20,清算の結了等,,,2015-10-05,1,,,,,チョウフマチナカエネルギー,0
2036,8013401005897,登記記録の閉鎖等,0,2025-10-28,2025-10-20,株式会社プロテクト・ビルディング,,株式会社,東京都,稲城市,坂浜３８０番地,,13,225,2060822,,,2025-10-20,清算の結了等,,,2015-10-05,1,,,,,プロテクトビルディング,0
2038,8020001060182,登記記録の閉鎖等,0,2025-10-28,2025-10-14,株式会社ＲＳＫ,,株式会社,神奈川県,横浜市鶴見区,生麦３丁目１６番３１－３１０号,,14,101,2300052,,,2025-10-14,清算の結了等,,,2015-10-05,1,,,,,アールエスケー,0
2041,8020001082425,登記記録の閉鎖等,0,2025-10-28,2025-10-10,マイクロシステム株式会社,,株式会社,神奈川県,川崎市多摩区,菅北浦５丁目７番５１号,,14,135,2140008,,,2025-10-10,清算の結了等,,,2015-10-05,1,,,,,,0
2042,8020001092746,登記記録の閉鎖等,0,2025-10-28,2025-10-14,株式会社バリライフ,,株式会社,神奈川県,横浜市中区,本牧元町３６番１４号,,14,104,2310822,,,2025-10-14,清算の結了等,,,2015-10-05,1,,,,,バリライフ,0
2048,8020002032676,登記記録の閉鎖等,0,2025-10-28,2025-10-14,有限会社栄光加工,,有限会社,神奈川県,横浜市港北区,篠原西町２０番１１号,,14,109,2220025,,,2025-10-14,清算の結了等,,,2015-10-05,1,,,,,エイコウカコウ,0
2050,8020002040613,登記記録の閉鎖等,0,2025-10-28,2025-10-14,有限会社シンコウ建設,,有限会社,神奈川県,横浜市緑区,北八朔町１４６８番地３,,14,113,2260021,,,2025-10-14,清算の結了等,,,2015-10-05,1,,,,,シンコウケンセツ,0
2052,8020002092183,登記記録の閉鎖等,0,2025-10-28,2025-10-10,有限会社サトージェー・エッチ・エス,,有限会社,神奈川県,川崎市麻生区,高石３丁目１３番１号,,14,137,2150003,,,2025-10-10,清算の結了等,,,2015-10-05,1,,,,,サトージェーエッチエス,0
2061,8021001077282,登記記録の閉鎖等,0,2025-10-28,2025-10-06,ひよこふどうさん株式会社,,株式会社,神奈川県,相模原市中央区,中央４丁目５番７号スウィートリー中央１Ｆ,,14,152,2520239,,,2025-10-06,清算の結了等,,,2022-10-25,1,,,,,ヒヨコフドウサン,0
2062,8021001079659,登記記録の閉鎖等,0,2025-10-28,2025-10-08,ＴＨＥ　ＳＴＡＮＤＡＲＤ株式会社,,株式会社,神奈川県,中郡大磯町,東町３丁目１３番３号,,14,341,2550002,,,2025-10-08,清算の結了等,,,2023-07-19,1,,,,,ザスタンダード,0
2064,8021002004368,登記記録の閉鎖等,0,2025-10-28,2025-10-07,有限会社フルール,,有限会社,神奈川県,藤沢市,本鵠沼１丁目１２番３７号フォックス鵠沼１０２,00126046,14,205,2510028,,,2025-10-07,清算の結了等,,,2015-10-05,1,,,,,フルール,0
2065,8021002048992,登記記録の閉鎖等,0,2025-10-28,2025-10-06,有限会社ハッピークリーン,,有限会社,神奈川県,座間市,座間１丁目３３９４番地の２３,,14,216,2520027,,,2025-10-06,清算の結了等,,,2015-10-05,1,,,,,ハッピークリーン,0
2077,8030001032635,登記記録の閉鎖等,0,2025-10-28,2025-10-20,野本建設株式会社,,株式会社,埼玉県,加須市,土手２丁目１４番３２号,,11,210,3470056,,,2025-10-20,清算の結了等,,,2015-10-05,1,,,,,ノモトケンセツ,0
2095,8040001037492,登記記録の閉鎖等,0,2025-10-28,2025-09-26,株式会社桜井電気商会,,株式会社,千葉県,松戸市,根本４６４番地,,12,207,2710077,,,2025-09-26,清算の結了等,,,2015-10-05,1,,,,,サクライデンキショウカイ,0
2096,8040001039010,登記記録の閉鎖等,0,2025-10-28,2025-09-29,アスワンホーム株式会社,,株式会社,千葉県,流山市,南流山２丁目２２番地８,,12,220,2700163,,,2025-09-29,清算の結了等,,,2015-10-05,1,,,,,アスワンホーム,0
2098,8040001050454,登記記録の閉鎖等,0,2025-10-28,2025-10-21,かずさファシリティサービス株式会社,,株式会社,千葉県,木更津市,かずさ鎌足２丁目３番地９,,12,206,2920818,,,2025-10-21,合併による解散等,5010001016816,令和７年１０月１日東京都千代田区神田駿河台三丁目３番地４三幸株式会社（5010001016816）に合併し解散,2015-10-05,1,,,,,カズサファシリティサービス,0
2099,8040001051270,登記記録の閉鎖等,0,2025-10-28,2025-09-25,アザレ南関東販売株式会社,,株式会社,千葉県,木更津市,かずさ鎌足２丁目３番地９,,12,206,2920818,,,2025-09-25,清算の結了等,,,2015-10-05,1,,,,,アザレミナミカントウハンバイ,0
2102,8040002051047,登記記録の閉鎖等,0,2025-10-28,2025-09-25,有限会社いずみ建設,,有限会社,千葉県,流山市,南流山６丁目１６番地８,,12,220,2700163,,,2025-09-25,清算の結了等,,,2015-10-05,1,,,,,イズミケンセツ,0
2108,8050001020282,登記記録の閉鎖等,0,2025-10-28,2025-10-22,株式会社ＮＳロジ鹿島,,株式会社,茨城県,鹿嶋市,平井東４丁目６番地１,,08,222,3140018,,,2025-10-22,合併による解散等,7010601024943,令和７年１０月１日東京都中央区日本橋茅場町一丁目１０番５号株式会社ＮＳロジ東日本（7010601024943）に合併し解散,2015-10-05,1,,,,,エヌエスロジカシマ,0
2110,8050002015356,登記記録の閉鎖等,0,2025-10-28,2025-10-17,有限会社正栄建設,,有限会社,茨城県,石岡市,総社１丁目１０番５１号,,08,205,3150016,,,2025-10-17,清算の結了等,,,2015-10-05,1,,,,,ショウエイケンセツ,0
2112,8060002029470,登記記録の閉鎖等,0,2025-10-28,2025-10-24,有限会社茂呂製作所,,有限会社,栃木県,小山市,大字下国府塚３４６番地８,,09,208,3230065,,,2025-10-24,清算の結了等,,,2015-10-05,1,,,,,モロセイサクジョ,0
2118,8070002032036,登記記録の閉鎖等,0,2025-10-28,2025-10-23,有限会社ザ型屋ドットコム,,有限会社,群馬県,太田市,新島町２６９番地の７,,10,205,3730819,,,2025-10-23,清算の結了等,,,2015-10-05,1,,,,,,0
2121,8080101005635,登記記録の閉鎖等,0,2025-10-28,2025-10-23,佐藤測量設計株式会社,,株式会社,静岡県,三島市,谷田押切１２７４番地の１２,,22,206,4110801,,,2025-10-23,清算の結了等,,,2015-10-05,1,,,,,サトウソクリョウセッケイ,0
2143,8120001261910,登記記録の閉鎖等,0,2025-10-28,2025-10-23,株式会社ｎｅｗ　ｏｌｄ,,株式会社,大阪府,大阪市東成区,大今里南４丁目９番６－３０９号,,27,115,5370013,,,2025-10-23,清算の結了等,,,2024-02-02,1,,,,,ニューオールド,0
2160,8120101060733,登記記録の閉鎖等,0,2025-10-28,2025-10-23,株式会社ナイスフィット,,株式会社,大阪府,大阪市浪速区,元町１丁目９番１８－９０１号,,27,111,5560016,,,2025-10-23,清算の結了等,,,2019-10-31,1,,,,,ナイスフィット,0
2161,8122001020387,登記記録の閉鎖等,0,2025-10-28,2025-10-24,株式会社ヤマサン,,株式会社,大阪府,八尾市,山賀町６丁目５３番地の１,,27,212,5810812,,,2025-10-24,清算の結了等,,,2015-10-05,1,,,,,ヤマサン,0
2163,8130001038754,登記記録の閉鎖等,0,2025-10-28,2025-10-23,株式会社新店,,株式会社,京都府,京田辺市,水取浄楽３８番地１,,26,211,6100323,,,2025-10-23,清算の結了等,,,2015-10-05,1,,,,,シンミセ,0
2173,8140002041806,登記記録の閉鎖等,0,2025-10-28,2025-10-23,有限会社トキワ薬局,,有限会社,大阪府,大阪市西淀川区,佃５丁目１２番２－４０４号,,27,113,5550001,,,2025-10-23,清算の結了等,,,2015-10-05,1,,,,,トキワヤッキョク,0
2174,8140003005207,登記記録の閉鎖等,0,2025-10-28,2025-10-17,ＡＬＳＹ－ＯＮＥ合同会社,,合同会社,兵庫県,神戸市兵庫区,和田宮通３丁目２番２４号,,28,105,6520863,,,2025-10-17,清算の結了等,,,2015-10-05,1,,,,,アルシオーネ,0
2175,8160001008226,登記記録の閉鎖等,0,2025-10-28,2025-10-23,株式会社共立,,株式会社,滋賀県,彦根市,南川瀬町６４０番地の７,,25,202,5220222,,,2025-10-23,清算の結了等,,,2015-10-05,1,,,,,キョウリツ,0
2180,8180001123601,登記記録の閉鎖等,0,2025-10-28,2025-10-16,株式会社ガレージコア,,株式会社,愛知県,日進市,折戸町鎌ケ寿１４番地１,,23,230,4700115,,,2025-10-16,清算の結了等,,,2016-06-08,1,,,,,ガレージコア,0
2193,8190001011284,登記記録の閉鎖等,0,2025-10-28,2025-10-22,株式会社加藤製麺所,,株式会社,三重県,松阪市,和屋町３２８番地の７,,24,204,5150025,,,2025-10-22,清算の結了等,,,2015-10-05,1,,,,,カトウセイメンジョ,0
2196,8210001000326,登記記録の閉鎖等,0,2025-10-28,2025-10-27,株式会社安部書店,,株式会社,福井県,福井市,大手２丁目１２番４号,,18,201,9100005,,,2025-10-27,清算の結了等,,,2015-10-05,1,,,,,アベショテン,0
2203,8240001052273,登記記録の閉鎖等,0,2025-10-28,2025-10-24,株式会社ｆｕｌｕ－Ｇ,,株式会社,広島県,広島市安佐南区,大町西３丁目１８番８号,,34,105,7310125,,,2025-10-24,清算の結了等,,,2018-01-25,1,,,,,フルーグ,0
2209,8240002048130,登記記録の閉鎖等,0,2025-10-28,2025-10-22,有限会社サイン工房,,有限会社,広島県,安芸郡海田町,南大正町５番３－１号,,34,304,7360042,,,2025-10-22,清算の結了等,,,2015-10-05,1,,,,,サインコウボウ,0
2210,8250001000363,登記記録の閉鎖等,0,2025-10-28,2025-10-24,株式会社高村商店,,株式会社,山口県,山口市,道場門前１丁目１番２３号,,35,203,7530047,,,2025-10-24,清算の結了等,,,2015-10-05,1,,,,,タカムラショウテン,0
2216,8290001059636,登記記録の閉鎖等,0,2025-10-28,2025-09-30,株式会社ＭＳＴ,,株式会社,福岡県,福岡市中央区,大手門３丁目１４番２７号ラフォーレ大濠パークアベニュー６０４,,40,133,8100074,,,2025-09-30,清算の結了等,,,2015-10-05,1,,,,,エムエスティ,0
2226,8290005009348,登記記録の閉鎖等,0,2025-10-28,2025-09-30,薬王寺,,その他の設立登記法人,福岡県,八女市,黒木町本分４５６７番地の１,,40,210,8341213,,,2025-09-30,清算の結了等,,,2015-10-05,1,,,,,ヤクオウジ,0
2236,8340001008174,登記記録の閉鎖等,0,2025-10-28,2025-10-21,株式会社国分機工,,株式会社,鹿児島県,霧島市,隼人町住吉５４８番地１５,,46,218,8995101,,,2025-10-21,清算の結了等,,,2015-10-05,1,,,,,コクブキコウ,0
2237,8340003004394,登記記録の閉鎖等,0,2025-10-28,2025-10-20,合同会社中ちゃんファーム,,合同会社,鹿児島県,霧島市,隼人町小田７０－２,,46,218,8995105,,,2025-10-20,清算の結了等,,,2024-03-06,1,,,,,ナカチャンファーム,0
2248,8400002002649,登記記録の閉鎖等,0,2025-10-28,2025-10-14,有限会社ヒカリ商店,,有限会社,岩手県,盛岡市,上堂３丁目２番１号,,03,201,0200125,,,2025-10-14,清算の結了等,,,2015-10-05,1,,,,,ヒカリショウテン,0
2250,8430001047353,登記記録の閉鎖等,0,2025-10-28,2025-10-21,丸三三田青果株式会社,,株式会社,北海道,夕張郡栗山町,字継立１８５番地の３,,01,429,0680353,,,2025-10-21,清算の結了等,,,2015-10-05,1,,,,,マルサンミタセイカ,0
2255,8430002042824,登記記録の閉鎖等,0,2025-10-28,2025-10-21,有限会社ＷＡＴ工業,,有限会社,北海道,札幌市手稲区,富丘二条６丁目２番２０－２０５号,,01,109,0060012,,,2025-10-21,清算の結了等,,,2015-10-05,1,,,,,ワットコウギョウ,0
2262,8460302000974,登記記録の閉鎖等,0,2025-10-28,2025-10-27,有限会社ためくにドラッグアクセス,,有限会社,北海道,北見市,春光町２丁目１３９番地の２６,,01,208,0900801,,,2025-10-27,清算の結了等,,,2015-10-05,1,,,,,タメクニドラッグアクセス,0
2273,9010002004337,登記記録の閉鎖等,0,2025-10-28,2025-10-10,トライズ・インベストメント有限会社,,有限会社,東京都,文京区,向丘１丁目１０番２－７０１号,,13,105,1130023,,,2025-10-10,清算の結了等,,,2015-10-05,1,,,,,トライズインベストメント,0
2274,9010002024905,登記記録の閉鎖等,0,2025-10-28,2025-10-08,有限会社ほのぼの亭,,有限会社,東京都,中央区,日本橋馬喰町１丁目１３番７号,,13,102,1030002,,,2025-10-08,清算の結了等,,,2015-10-05,1,,,,,ホノボノテイ,0
2278,9010401081290,登記記録の閉鎖等,0,2025-10-28,2025-09-30,株式会社レイナカンパニー,,株式会社,東京都,港区,南青山２丁目２－１５ウィン青山７１５号,,13,103,1070062,,,2025-09-30,清算の結了等,,,2015-10-05,1,,,,,レイナカンパニー,0
2282,9010401124264,登記記録の閉鎖等,0,2025-10-28,2025-10-15,ＰＲＯＤＥＴＥＣ　ＪＡＰＡＮ株式会社,,株式会社,東京都,墨田区,緑１丁目２２番８号,,13,107,1300021,,,2025-10-15,清算の結了等,,,2016-04-19,1,,,,,プロデテックジャパン,0
2292,9010703004528,登記記録の閉鎖等,0,2025-10-28,2025-10-20,合同会社ｒｅｄ　ｗｉｎｇ,,合同会社,東京都,品川区,上大崎３丁目６番１号,,13,109,1410021,,,2025-10-20,清算の結了等,,,2018-11-02,1,,,,,レッドウィング,0
2315,9011101016719,登記記録の閉鎖等,0,2025-10-28,2025-10-24,株式会社日本不動産学院,,株式会社,東京都,新宿区,西新宿７丁目２番６号,,13,104,1600023,,,2025-10-24,清算の結了等,,,2015-10-05,1,,,,,,0
2325,9011505001606,登記記録の閉鎖等,0,2025-10-28,2025-10-01,ダンススクール協同組合連合会,,その他の設立登記法人,福岡県,福岡市中央区,薬院２丁目２番２４号,,40,133,8100022,,,2025-10-01,清算の結了等,,,2015-10-05,1,,,,,ダンススクール,0
2335,9012405001324,登記記録の閉鎖等,0,2025-10-28,2025-10-14,特定非営利活動法人ジャパン・カインドネス協会,,その他の設立登記法人,東京都,国立市,中１丁目１８番地の４１栄ビル３０１号,,13,215,1860004,,,2025-10-14,清算の結了等,,,2015-10-05,1,,,,,ジャパンカインドネスキョウカイ,0
2338,9012802001942,登記記録の閉鎖等,0,2025-10-28,2025-10-14,有限会社北峯商店,,有限会社,東京都,立川市,錦町１丁目３番２９号鴨志田ビル２Ｆ,,13,202,1900022,,,2025-10-14,清算の結了等,,,2015-10-05,1,,,,,キタミネショウテン,0
2341,9013101001543,登記記録の閉鎖等,0,2025-10-28,2025-10-27,株式会社マーバラス,,株式会社,東京都,西多摩郡瑞穂町,南平１丁目４番地２２,,13,303,1901224,,,2025-10-27,清算の結了等,,,2015-10-05,1,,,,,マーバラス,0
2342,9013202002556,登記記録の閉鎖等,0,2025-10-28,2025-09-26,小暮徹事務所有限会社,00052992,有限会社,東京都,渋谷区,神宮前６丁目２５番地８神宮前コーポラス,,13,113,1500001,,,2025-09-26,清算の結了等,,,2015-10-05,1,,,,,コグレトオルジムショ,0
2343,9013202006722,登記記録の閉鎖等,0,2025-10-28,2025-09-25,有限会社横尾,,有限会社,東京都,目黒区,鷹番２丁目２１番１０－４０１号,,13,110,1520004,,,2025-09-25,清算の結了等,,,2015-10-05,1,,,,,ヨコオ,0
2378,9030002033805,登記記録の閉鎖等,0,2025-10-28,2025-10-16,有限会社島田工業,,有限会社,埼玉県,狭山市,広瀬東４丁目３８番１２号,,11,215,3501320,,,2025-10-16,清算の結了等,,,2015-10-05,1,,,,,シマダコウギョウ,0
2399,9080102020871,登記記録の閉鎖等,0,2025-10-28,2025-10-21,和泉陸運有限会社,,有限会社,静岡県,下田市,加増野１１０番地の１,,22,219,4130713,,,2025-10-21,清算の結了等,,,2015-10-05,1,,,,,イズミリクウン,0
2409,9110002010820,登記記録の閉鎖等,0,2025-10-28,2025-10-21,有限会社比企保険事務所,,有限会社,新潟県,新潟市北区,柳原１丁目８番３号,,15,101,9503326,,,2025-10-21,清算の結了等,,,2015-10-05,1,,,,,ヒキホケンジムショ,0
2412,9120001112609,登記記録の閉鎖等,0,2025-10-28,2025-10-16,ＳＥＩＷＡ株式会社,,株式会社,大阪府,大阪市浪速区,日本橋西２丁目８番３号,,27,111,5560004,,,2025-10-16,清算の結了等,,,2015-10-05,1,,,,,,0
2425,9120002007774,登記記録の閉鎖等,0,2025-10-28,2025-10-23,エヌティダブルクラフト有限会社,,有限会社,大阪府,大阪市城東区,鴫野西２丁目５番５－１００６号,,27,118,5360014,,,2025-10-23,清算の結了等,,,2015-10-05,1,,,,,エヌティダブルクラフト,0
2426,9120002021874,登記記録の閉鎖等,0,2025-10-28,2025-10-24,有限会社コァー設備企画,,有限会社,大阪府,大阪市西区,京町堀２丁目１３番９号,,27,106,5500003,,,2025-10-24,清算の結了等,,,2015-10-05,1,,,,,コァーセツビキカク,0
2441,9130002009778,登記記録の閉鎖等,0,2025-10-28,2025-10-23,有限会社木村丑之助牛乳販賣所,,有限会社,京都府,京都市東山区,本町２１丁目４８４番地,,26,105,6050981,,,2025-10-23,清算の結了等,,,2015-10-05,1,,,,,キムラウシノスケギュウニュウハンバイショ,0
2444,9140001074558,登記記録の閉鎖等,0,2025-10-28,2025-10-21,株式会社スマートジェネシス,,株式会社,兵庫県,西宮市,甲子園口３丁目２７番３号,,28,204,6638113,,,2025-10-21,清算の結了等,,,2015-10-05,1,,,,,スマートジェネシス,0
2445,9140001083988,登記記録の閉鎖等,0,2025-10-28,2025-10-20,株式会社岩月商事,,株式会社,兵庫県,宝塚市,すみれガ丘２丁目１番１－１５０２号,,28,214,6650847,,,2025-10-20,清算の結了等,,,2015-10-05,1,,,,,イワツキショウジ,0
2472,9190002018055,登記記録の閉鎖等,0,2025-10-28,2025-10-22,有限会社ヤマグチ製作所,,有限会社,三重県,いなべ市,藤原町西野尻１５２６番地１,,24,214,5110516,,,2025-10-22,清算の結了等,,,2015-10-05,1,,,,,ヤマグチセイサクショ,0
2480,9240001025559,登記記録の閉鎖等,0,2025-10-28,2025-10-21,株式会社エム・シー・エス,,株式会社,広島県,呉市,清水２丁目１２番３３号,,34,202,7370022,,,2025-10-21,清算の結了等,,,2015-10-05,1,,,,,,0
2485,9240002051711,登記記録の閉鎖等,0,2025-10-28,2025-10-21,有限会社山口建設,,有限会社,広島県,尾道市,向東町１１９０６番地の１,,34,205,7220062,,,2025-10-21,清算の結了等,,,2015-10-05,1,,,,,ヤマグチケンセツ,0
2514,9400002010857,登記記録の閉鎖等,0,2025-10-28,2025-10-23,有限会社安見葬祭神仏具本店,,有限会社,岩手県,宮古市,沢田１番２号,,03,202,0270088,,,2025-10-23,清算の結了等,,,2015-10-05,1,,,,,ヤスミソウサイシンブツグホンテン,0
2518,9420002010104,登記記録の閉鎖等,0,2025-10-28,2025-10-14,有限会社大坊木材,,有限会社,青森県,三戸郡田子町,大字山口字道前沢４番地４,,02,443,0390317,,,2025-10-14,清算の結了等,,,2015-10-05,1,,,,,ダイボウモクザイ,0
2519,9420003002455,登記記録の閉鎖等,0,2025-10-28,2025-10-16,舘合同会社,,合同会社,青森県,八戸市,大字田面木字松長根４番地１,,02,203,0391104,,,2025-10-16,清算の結了等,,,2022-02-17,1,,,,,ダテ,0
2527,9470002006139,登記記録の閉鎖等,0,2025-10-28,2025-10-24,有限会社蓬来商店,00005332,有限会社,香川県,高松市,木太町２６２３番地３,,37,201,7600080,,,2025-10-24,清算の結了等,,,2015-10-05,1,,,,,ホウライショウテン,0
