sequenceNumber,corporateNumber,process,correct,updateDate,changeDate,name,nameImageId,kind,prefectureName,cityName,streetNumber,addressImageId,prefectureCode,cityCode,postCode,addressOutside,addressOutsideImageId,closeDate,closeCause,successorCorporateNumber,changeCause,assignmentDate,latest,enName,enPrefectureName,enCityName,enAddressOutside,furigana,hihyoji
77,1020001110811,登記記録の閉鎖等,0,2021-09-03,2021-08-31,株式会社ケアルラ,,株式会社,神奈川県,横浜市港南区,上大岡西１丁目１８番５－２３０４号,,14,111,2330002,,,2021-08-31,合併による解散等,7020001087672,令和３年８月３１日横浜市金沢区福浦二丁目９番地５株式会社アンテックス（7020001087672）に合併し解散,2015-10-05,1,,,,,ケアルラ,0
105,1030002090663,登記記録の閉鎖等,0,2021-09-03,2021-07-28,有限会社メディカルリサーチ,,有限会社,埼玉県,吉川市,大字川藤字川岸２０４番２,,11,243,3420005,,,2021-07-28,清算の結了等,,,2015-10-05,1,,,,,メディカルリサーチ,0
119,1050002032036,登記記録の閉鎖等,0,2021-09-03,2021-08-31,有限会社大内インダストリー,,有限会社,茨城県,高萩市,大字下手綱２０２８番地７,,08,214,3180003,,,2021-08-31,清算の結了等,,,2015-10-05,1,,,,,オオウチインダストリー,0
126,1060003001179,登記記録の閉鎖等,0,2021-09-03,2021-08-26,アド・イン合資会社,,合資会社,栃木県,佐野市,植下町４７０番地４,,09,204,3270835,,,2021-08-26,清算の結了等,,,2015-10-05,1,,,,,,0
136,1100001032213,登記記録の閉鎖等,0,2021-09-03,2021-08-30,サン・オタリ株式会社,,株式会社,長野県,茅野市,豊平１５２６番地１,,20,214,3910213,,,2021-08-30,清算の結了等,,,2019-05-22,1,,,,,サンオタリ,0
145,1120001005167,登記記録の閉鎖等,0,2021-09-03,2021-08-20,株式会社国政商店,,株式会社,大阪府,大阪市阿倍野区,阪南町２丁目１１番１９号,,27,119,5450021,,,2021-08-20,清算の結了等,,,2015-10-05,1,,,,,クニマサショウテン,0
191,1140001011097,登記記録の閉鎖等,0,2021-09-03,2021-09-01,三木建設株式会社,,株式会社,兵庫県,神戸市中央区,琴ノ緒町４丁目５番１６号,,28,110,6510094,,,2021-09-01,清算の結了等,,,2015-10-05,1,,,,,ミキケンセツ,0
204,1160001014032,登記記録の閉鎖等,0,2021-09-03,2021-08-31,株式会社関西トラベル,,株式会社,滋賀県,甲賀市,甲南町寺庄７２３番地,,25,209,5203301,,,2021-08-31,清算の結了等,,,2015-10-05,1,,,,,カンサイトラベル,0
221,1180003016834,登記記録の閉鎖等,0,2021-09-03,2021-08-31,合同会社Ｌｅａｐ,,合同会社,愛知県,名古屋市瑞穂区,下坂町１丁目３３番地ミズホビル１階,,23,108,4670827,,,2021-08-31,清算の結了等,,,2016-01-14,1,,,,,リープ,0
249,1240002048814,登記記録の閉鎖等,0,2021-09-03,2021-08-31,有限会社瀬戸路,,有限会社,広島県,広島市中区,幟町２番１９号,,34,101,7300016,,,2021-08-31,清算の結了等,,,2015-10-05,1,,,,,セトジ,0
259,1260005002270,登記記録の閉鎖等,0,2021-09-03,2021-08-31,中部建設事業協同組合,,その他の設立登記法人,岡山県,岡山市中区,関５３７番地,,33,102,7038232,,,2021-08-31,清算の結了等,,,2015-10-05,1,,,,,チュウブケンセツ,0
271,1300002005313,登記記録の閉鎖等,0,2021-09-03,2021-09-01,有限会社長太呂,,有限会社,佐賀県,佐賀市,大和町大字尼寺２４６５番地３,,41,201,8400201,,,2021-09-01,清算の結了等,,,2015-10-05,1,,,,,チョウタロ,0
344,1500002017585,登記記録の閉鎖等,0,2021-09-03,2021-09-01,真鉄汽船有限会社,,有限会社,愛媛県,今治市,鯉池町３丁目３番４８号,,38,202,7940059,,,2021-09-01,清算の結了等,,,2015-10-05,1,,,,,シンテツキセン,0
389,2011001138520,登記記録の閉鎖等,0,2021-09-03,2021-08-20,株式会社モデロ・ジャパン,,株式会社,東京都,渋谷区,千駄ヶ谷３丁目５９番４号,,13,113,1510051,,,2021-08-20,清算の結了等,,,2021-02-17,1,,,,,モデロジャパン,0
435,2020001129875,登記記録の閉鎖等,0,2021-09-03,2021-09-01,株式会社童夢・ホテルマネジメント,,株式会社,神奈川県,横浜市神奈川区,沢渡３番地４横浜西口ＫＳビルアネックス,,14,102,2210844,,,2021-09-01,合併による解散等,6013301005413,令和３年９月１日横浜市神奈川区沢渡３番地４横浜西口ＫＳビルアネックス島倉商事株式会社（6013301005413）に合併し解散,2019-02-08,1,,,,,ドウムホテルマネジメント,0
458,2030001096917,登記記録の閉鎖等,0,2021-09-03,2021-08-27,株式会社スマイルガーデン,,株式会社,埼玉県,さいたま市浦和区,仲町１丁目１２番１号,,11,107,3300062,,,2021-08-27,清算の結了等,,,2015-10-05,1,,,,,スマイルガーデン,0
476,2050005009187,登記記録の閉鎖等,0,2021-09-03,2021-08-30,特定非営利活動法人子ども劇場茨城,00023799,その他の設立登記法人,茨城県,牛久市,岡見町２７９２番地の２０,,08,219,3001204,,,2021-08-30,清算の結了等,,,2015-10-05,1,,,,,コドモゲキジョウイバラキ,0
485,2080402020124,登記記録の閉鎖等,0,2021-09-03,2021-08-31,有限会社黒川鑑定事務所,,有限会社,静岡県,磐田市,長森２９８番地の１,,22,211,4380836,,,2021-08-31,清算の結了等,,,2015-10-05,1,,,,,クロカワカンテイジムショ,0
487,2100001022345,登記記録の閉鎖等,0,2021-09-03,2021-09-01,飯田砂利株式会社,,株式会社,長野県,飯田市,松尾清水８６０２番地,,20,205,3950824,,,2021-09-01,合併による解散等,6100001022366,令和３年９月１日長野県飯田市松尾清水８６６２番地１飯田生コン株式会社（6100001022366）に合併し解散,2015-10-05,1,,,,,イイダジャリ,0
502,2120002062132,登記記録の閉鎖等,0,2021-09-03,2021-08-26,兄弟実業有限会社,,有限会社,大阪府,大阪市浪速区,大国１丁目７番２１号華菱ビル,,27,111,5560014,,,2021-08-26,清算の結了等,,,2015-10-05,1,,,,,キョウダイジツギョウ,0
507,2120101041771,登記記録の閉鎖等,0,2021-09-03,2021-09-01,日本観光案内株式会社,,株式会社,大阪府,和泉市,鶴山台１丁目４番８号,,27,219,5940013,,,2021-09-01,清算の結了等,,,2015-10-05,1,,,,,ニホンカンコウアンナイ,0
511,2120901018267,登記記録の閉鎖等,0,2021-09-03,2021-08-26,株式会社おおたに,,株式会社,大阪府,大阪市淀川区,西中島３丁目７番８号－７０２,,27,123,5320011,,,2021-08-26,清算の結了等,,,2015-10-05,1,,,,,オオタニ,0
568,2240001045423,登記記録の閉鎖等,0,2021-09-03,2021-08-31,呉エイチ・アンド・テイ株式会社,,株式会社,広島県,広島市中区,八丁堀３番３３号,,34,101,7300013,,,2021-08-31,清算の結了等,,,2015-10-05,1,,,,,クレエイチアンドテイ,0
581,2240002034202,登記記録の閉鎖等,0,2021-09-03,2021-09-01,有限会社道中塗装店,,有限会社,広島県,呉市,吉浦東本町２丁目１３番１７号,,34,202,7370852,,,2021-09-01,清算の結了等,,,2015-10-05,1,,,,,ミチナカトソウテン,0
589,2250003000540,登記記録の閉鎖等,0,2021-09-03,2021-08-30,植田合名会社,,合名会社,山口県,下関市,彦島弟子待町１丁目１番１０号,,35,201,7500076,,,2021-08-30,清算の結了等,,,2015-10-05,1,,,,,ウエダ,0
597,2270002008525,登記記録の閉鎖等,0,2021-09-03,2021-08-31,有限会社かなお,,有限会社,鳥取県,西伯郡大山町,大山４０番地１１,,31,386,6893318,,,2021-08-31,清算の結了等,,,2015-10-05,1,,,,,カナオ,0
660,2430002048488,登記記録の閉鎖等,0,2021-09-03,2021-08-23,有限会社渡部パネル,,有限会社,北海道,恵庭市,黄金中央２丁目１０番地の１２,,01,231,0611449,,,2021-08-23,清算の結了等,,,2015-10-05,1,,,,,ワタナベパネル,0
663,2450002012046,登記記録の閉鎖等,0,2021-09-03,2021-09-02,有限会社ラモードモア,,有限会社,北海道,留萌市,開運町２丁目２８番地,,01,212,0770042,,,2021-09-02,清算の結了等,,,2015-10-05,1,,,,,ラモードモア,0
666,2470002012201,登記記録の閉鎖等,0,2021-09-03,2021-08-31,有限会社舞台進行,,有限会社,香川県,丸亀市,福島町５４番地の８,,37,202,7630044,,,2021-08-31,清算の結了等,,,2015-10-05,1,,,,,ブタイシンコウ,0
673,2500002018681,登記記録の閉鎖等,0,2021-09-03,2021-08-31,有限会社丁子屋制服部,,有限会社,愛媛県,今治市,本町２丁目１番地２６,,38,202,7940018,,,2021-08-31,清算の結了等,,,2015-10-05,1,,,,,チョウジヤセイフクブ,0
693,3010405016876,登記記録の閉鎖等,0,2021-09-03,2021-08-26,一般社団法人全国不動産ネットワーク協会,,その他の設立登記法人,東京都,港区,浜松町１丁目２８番１３号,,13,103,1050013,,,2021-08-26,清算の結了等,,,2018-07-18,1,,,,,ゼンコクフドウサンネットワークキョウカイ,0
707,3010901042707,登記記録の閉鎖等,0,2021-09-03,2021-08-31,株式会社ニュース,,株式会社,東京都,世田谷区,下馬６丁目１５番１３号,,13,112,1540002,,,2021-08-31,清算の結了等,,,2018-09-06,1,,,,,ニュース,0
726,3011202005147,登記記録の閉鎖等,0,2021-09-03,2021-08-30,有限会社ふかみ,,有限会社,東京都,中野区,上高田１丁目２７番１号,,13,114,1640002,,,2021-08-30,清算の結了等,,,2015-10-05,1,,,,,フカミ,0
746,3012702005009,登記記録の閉鎖等,0,2021-09-03,2021-08-31,有限会社モトスポーツノジマ,,有限会社,東京都,西東京市,ひばりが丘北２丁目７番１９号,,13,229,2020002,,,2021-08-31,清算の結了等,,,2015-10-05,1,,,,,モトスポーツノジマ,0
793,3040002068145,登記記録の閉鎖等,0,2021-09-03,2021-08-27,アイティーエンジニアリング有限会社,,有限会社,千葉県,木更津市,祇園４７４番地８,00020571,12,206,2920052,,,2021-08-27,清算の結了等,,,2015-10-05,1,,,,,アイティーエンジニアリング,0
795,3050001002681,登記記録の閉鎖等,0,2021-09-03,2021-08-31,東洋開発株式会社,,株式会社,茨城県,水戸市,双葉台４丁目５９８番地１,,08,201,3114145,,,2021-08-31,清算の結了等,,,2015-10-05,1,,,,,トウヨウカイハツ,0
802,3060002030672,登記記録の閉鎖等,0,2021-09-03,2021-08-25,有限会社瀧沢不動産,,有限会社,栃木県,下野市,石橋３２５番地,,09,216,3290511,,,2021-08-25,清算の結了等,,,2015-10-05,1,,,,,タキザワフドウサン,0
826,3120001091874,登記記録の閉鎖等,0,2021-09-03,2021-08-26,吉見製薬株式会社,,株式会社,大阪府,大阪市中央区,船越町２丁目１番１７号,,27,128,5400036,,,2021-08-26,清算の結了等,,,2015-10-05,1,,,,,ヨシミセイヤク,0
846,3120005017834,登記記録の閉鎖等,0,2021-09-03,2021-08-31,一般社団法人健康介護コンシェルジュ協会,,その他の設立登記法人,大阪府,大阪市阿倍野区,阿倍野筋１丁目７番２０－１３１２号,,27,119,5450052,,,2021-08-31,清算の結了等,,,2015-10-05,1,,,,,ケンコウカイゴコンシャルジュキョウカイ,0
848,3120101040054,登記記録の閉鎖等,0,2021-09-03,2021-09-01,ニューテックエンジニア株式会社,,株式会社,大阪府,泉佐野市,りんくう往来南３番地７,,27,213,5980047,,,2021-09-01,清算の結了等,,,2015-10-05,1,,,,,ニューテックエンジニア,0
855,3122001025606,登記記録の閉鎖等,0,2021-09-03,2021-09-01,株式会社プリントプロ,,株式会社,大阪府,東大阪市,御厨東１丁目４番３６号,,27,227,5770033,,,2021-09-01,清算の結了等,,,2015-10-05,1,,,,,,0
859,3130001047017,登記記録の閉鎖等,0,2021-09-03,2021-08-31,Ｓ・Ｓ・Ｃ株式会社,,株式会社,京都府,京都市伏見区,上板橋町５１３,,26,109,6128316,,,2021-08-31,清算の結了等,,,2015-10-05,1,,,,,エスエスシー,0
867,3140001006756,登記記録の閉鎖等,0,2021-09-03,2021-09-01,オリオン交易株式会社,,株式会社,兵庫県,神戸市中央区,京町６７番地,,28,110,6500034,,,2021-09-01,清算の結了等,,,2015-10-05,1,,,,,オリオンコウエキ,0
882,3170002010077,登記記録の閉鎖等,0,2021-09-03,2021-09-01,有限会社ニッセー,,有限会社,和歌山県,御坊市,湯川町小松原２９２番地,,30,205,6440012,,,2021-09-01,清算の結了等,,,2015-10-05,1,,,,,,0
905,3190005008570,登記記録の閉鎖等,0,2021-09-03,2021-08-31,医療法人石川内科医院,,その他の設立登記法人,三重県,四日市市,天カ須賀５丁目１番１０－３号,,24,202,5108001,,,2021-08-31,清算の結了等,,,2015-10-05,1,,,,,イシカワナイカイイン,0
915,3220001001807,登記記録の閉鎖等,0,2021-09-03,2021-09-01,カンダ印刷株式会社,,株式会社,石川県,金沢市,桂町イ５４番地１,,17,201,9200334,,,2021-09-01,合併による解散等,4220001000782,令和３年９月１日石川県金沢市浅野本町ロ１６１番地安達写真印刷株式会社（4220001000782）に合併し解散,2015-10-05,1,,,,,カンダインサツ,0
919,3230005006017,登記記録の閉鎖等,0,2021-09-03,2021-09-01,協同組合ＥＬＤ,,その他の設立登記法人,富山県,高岡市,佐野１１６９番地,,16,202,9330826,,,2021-09-01,清算の結了等,,,2015-10-05,1,,,,,イーエルディー,0
928,3240002022008,登記記録の閉鎖等,0,2021-09-03,2021-08-31,有限会社出原商店,,有限会社,広島県,広島市東区,山根町２６番２８号,,34,102,7320048,,,2021-08-31,清算の結了等,,,2015-10-05,1,,,,,イデハラショウテン,0
943,3280005004180,登記記録の閉鎖等,0,2021-09-03,2021-09-01,小坂生産森林組合,,その他の設立登記法人,島根県,浜田市,弥栄町小坂２０４番地内１,,32,202,6971202,,,2021-09-01,清算の結了等,,,2015-10-05,1,,,,,オサカ,0
945,3290001036499,登記記録の閉鎖等,0,2021-09-03,2021-08-16,株式会社東進,,株式会社,福岡県,福津市,若木台２丁目４番地の１０,,40,224,8113221,,,2021-08-16,清算の結了等,,,2015-10-05,1,,,,,トウシン,0
965,3340003003178,登記記録の閉鎖等,0,2021-09-03,2021-08-31,合同会社田頭ＦＰ事務所,,合同会社,鹿児島県,鹿児島市,東千石町５－１２キューブビル４０７,,46,201,8920842,,,2021-08-31,清算の結了等,,,2020-08-27,1,,,,,タガシラエフピージムショ,0
972,3360003008530,登記記録の閉鎖等,0,2021-09-03,2021-08-30,合同会社Ｔｈｉｎｋｅｒ,,合同会社,沖縄県,南城市,大里字古堅１２０６番地１１フォレスト大里１１０号室,,47,215,9011207,,,2021-08-30,清算の結了等,,,2017-12-05,1,,,,,シンカー,0
981,3380002014585,登記記録の閉鎖等,0,2021-09-03,2021-08-30,有限会社リバー企画,,有限会社,福島県,郡山市,富田町字下亀田１番地の４２,,07,203,9638041,,,2021-08-30,清算の結了等,,,2015-10-05,1,,,,,リバーキカク,0
991,3430001061276,登記記録の閉鎖等,0,2021-09-03,2021-08-26,株式会社宝福重機工業,,株式会社,北海道,古平郡古平町,大字浜町３６番地,,01,406,0460121,,,2021-08-26,清算の結了等,,,2015-10-05,1,,,,,ホウフクジュウキコウギョウ,0
997,3450001001288,登記記録の閉鎖等,0,2021-09-03,2021-09-01,株式会社サンケイ杉浦商事,,株式会社,北海道,旭川市,東五条４丁目１番２１号,,01,204,0700025,,,2021-09-01,清算の結了等,,,2015-10-05,1,,,,,サンケイスギウラショウジ,0
1002,3460305001677,登記記録の閉鎖等,0,2021-09-03,2021-09-02,大空総合管理協同組合,,その他の設立登記法人,北海道,網走郡大空町,女満別西三条２丁目１番１３号,,01,564,0992323,,,2021-09-02,清算の結了等,,,2015-10-05,1,,,,,オオゾラソウゴウカンリ,0
1026,4010102007252,登記記録の閉鎖等,0,2021-09-03,2021-08-31,有限会社ヨコセ自動車,,有限会社,東京都,八王子市,子安町１丁目３２番８号,,13,201,1920904,,,2021-08-31,清算の結了等,,,2015-10-05,1,,,,,ヨコセジドウシャ,0
1037,4010501045324,登記記録の閉鎖等,0,2021-09-03,2021-08-30,ＴＫＳＪＰ２株式会社,,株式会社,東京都,台東区,西浅草３丁目７番２号,,13,106,1110035,,,2021-08-30,合併による解散等,1011801018030,令和３年８月２０日東京都中央区日本橋本町三丁目３番６号株式会社ハリズリー（1011801018030）に合併し解散,2020-02-19,1,,,,,ティーケーエスジェイピーツー,0
1040,4010601033344,登記記録の閉鎖等,0,2021-09-03,2021-08-17,株式会社ＳＨＩＮＥ,,株式会社,東京都,江東区,猿江２丁目１６番２３号,,13,108,1350003,,,2021-08-17,清算の結了等,,,2015-10-05,1,,,,,シャイン,0
1068,4011501022073,登記記録の閉鎖等,0,2021-09-03,2021-08-26,株式会社Ｗａｓｈｏｋｕｊｏｂ,,株式会社,東京都,新宿区,新宿２丁目８番１号新宿セブンビル６０４,,13,104,1600022,,,2021-08-26,清算の結了等,,,2016-11-04,1,,,,,ワショクジョブ,0
1078,4012801002450,登記記録の閉鎖等,0,2021-09-03,2021-08-25,西川コンクリート株式会社,,株式会社,東京都,昭島市,玉川町５丁目１６番１９号,,13,207,1960034,,,2021-08-25,清算の結了等,,,2015-10-05,1,,,,,,0
1088,4021001011121,登記記録の閉鎖等,0,2021-09-03,2021-08-31,アサダエンジニアリング株式会社,,株式会社,神奈川県,相模原市南区,若松５丁目２０番３６号,,14,153,2520334,,,2021-08-31,清算の結了等,,,2015-10-05,1,,,,,アサダエンジニアリング,0
1098,4021005004971,登記記録の閉鎖等,0,2021-09-03,2021-08-31,海老名市商店連合協同組合,,その他の設立登記法人,神奈川県,海老名市,めぐみ町６番２号,,14,215,2430438,,,2021-08-31,清算の結了等,,,2015-10-05,1,,,,,エビナシショウテンレンゴウ,0
1099,4030001007814,登記記録の閉鎖等,0,2021-09-03,2021-08-25,株式会社リブラ,,株式会社,埼玉県,さいたま市浦和区,岸町５丁目２番２号,,11,107,3300064,,,2021-08-25,清算の結了等,,,2015-10-05,1,,,,,リブラ,0
1102,4030001035344,登記記録の閉鎖等,0,2021-09-03,2021-08-26,株式会社トーヨー工機,,株式会社,埼玉県,草加市,稲荷３丁目２６番９号,,11,221,3400003,,,2021-08-26,清算の結了等,,,2015-10-05,1,,,,,トーヨーコウキ,0
1103,4030001119816,登記記録の閉鎖等,0,2021-09-03,2021-08-25,株式会社ニーコウ,,株式会社,埼玉県,さいたま市北区,日進町３丁目９８－３ベルピア日進第２－１０５号室,,11,102,3310823,,,2021-08-25,清算の結了等,,,2017-04-19,1,,,,,ニーコウ,0
1113,4040001011658,登記記録の閉鎖等,0,2021-09-03,2021-08-26,株式会社あさひふれんど千葉,,株式会社,千葉県,千葉市中央区,院内１丁目５番６号,,12,101,2600018,,,2021-08-26,清算の結了等,,,2015-10-05,1,,,,,アサヒフレンドチバ,0
1133,4080401010256,登記記録の閉鎖等,0,2021-09-03,2021-09-02,中部ウエツクス株式会社,,株式会社,静岡県,浜松市東区,上石田町１１２７番地の５,,22,132,4350001,,,2021-09-02,清算の結了等,,,2015-10-05,1,,,,,,0
1138,4110002006988,登記記録の閉鎖等,0,2021-09-03,2021-08-31,有限会社ヨシナガ工業,,有限会社,新潟県,新潟市西区,寺尾西５丁目１９番３２号,,15,107,9502064,,,2021-08-31,清算の結了等,,,2015-10-05,1,,,,,ヨシナガコウギョウ,0
1140,4120001046547,登記記録の閉鎖等,0,2021-09-03,2021-08-30,株式会社柏興,,株式会社,大阪府,大阪市西区,南堀江３丁目８番３号,,27,106,5500015,,,2021-08-30,清算の結了等,,,2015-10-05,1,,,,,ハッコウ,0
1145,4120001061653,登記記録の閉鎖等,0,2021-09-03,2021-08-27,株式会社岡田工務店,,株式会社,大阪府,大阪市北区,本庄東１丁目２２番１号,,27,127,5310074,,,2021-08-27,清算の結了等,,,2015-10-05,1,,,,,オカダコウムテン,0
1148,4120001091254,登記記録の閉鎖等,0,2021-09-03,2021-08-31,株式会社山一,,株式会社,大阪府,大阪市中央区,上町１丁目２２番１０号,,27,128,5400005,,,2021-08-31,清算の結了等,,,2015-10-05,1,,,,,ヤマイチ,0
1170,4120101032678,登記記録の閉鎖等,0,2021-09-03,2021-09-01,株式会社伊藤商店,,株式会社,大阪府,藤井寺市,国府１丁目２番５４号,,27,226,5830006,,,2021-09-01,清算の結了等,,,2015-10-05,1,,,,,イトウショウテン,0
1252,4290001055044,登記記録の閉鎖等,0,2021-09-03,2021-08-18,株式会社ファイブエレメンツ,,株式会社,福岡県,大野城市,中央１丁目９番１０号,,40,219,8160942,,,2021-08-18,清算の結了等,,,2015-10-05,1,,,,,ファイブエレメンツ,0
1316,4430002018258,登記記録の閉鎖等,0,2021-09-03,2021-08-25,有限会社北武建企,,有限会社,北海道,札幌市中央区,南五条西１丁目１番地２３北一ビル,,01,101,0640805,,,2021-08-25,清算の結了等,,,2015-10-05,1,,,,,ホクブケンキ,0
1327,4500002013821,登記記録の閉鎖等,0,2021-09-03,2021-08-31,奥嶋設備有限会社,,有限会社,愛媛県,八幡浜市,１４６９番地１０,,38,204,7960088,,,2021-08-31,清算の結了等,,,2015-10-05,1,,,,,オクシマセツビ,0
1352,5010403013428,登記記録の閉鎖等,0,2021-09-03,2021-08-26,合同会社アルカディア・ファンディング,,合同会社,東京都,港区,虎ノ門３丁目２２番１０－２０１号,,13,103,1050001,,,2021-08-26,清算の結了等,,,2015-10-05,1,,,,,アルカディアファンディング,0
1357,5010601051411,登記記録の閉鎖等,0,2021-09-03,2021-08-17,株式会社ＴＲＩ,,株式会社,東京都,江東区,豊洲２丁目５番１号,,13,108,1350061,,,2021-08-17,清算の結了等,,,2017-04-27,1,,,,,ティーアールアイ,0
1374,5011101053550,登記記録の閉鎖等,0,2021-09-03,2021-08-27,クリアアンサー株式会社,,株式会社,東京都,新宿区,住吉町１番１６号ＩＳＥビル５階,,13,104,1620065,,,2021-08-27,清算の結了等,,,2015-10-05,1,,,,,クリアアンサー,0
1429,5040002006565,登記記録の閉鎖等,0,2021-09-03,2021-08-31,有限会社それいゆ,,有限会社,千葉県,千葉市中央区,栄町３２番地８,,12,101,2600016,,,2021-08-31,清算の結了等,,,2015-10-05,1,,,,,ソレイユ,0
1430,5040003009022,登記記録の閉鎖等,0,2021-09-03,2021-08-30,株式会社アシスト,,株式会社,東京都,渋谷区,渋谷３丁目２８番１５号渋谷Ｓ野口ビル１０Ｆ,,13,113,1500002,,,2021-08-30,合併による解散等,6010601057366,令和３年８月１日東京都墨田区千歳二丁目３番８－３０７号プラウドフラット森下ＩＩＩ株式会社アシスト（6010601057366）に合併し解散,2016-09-06,1,,,,,アシスト,0
1441,5080401003465,登記記録の閉鎖等,0,2021-09-03,2021-09-02,東海リネンサービス株式会社,,株式会社,静岡県,浜松市東区,上石田町１１２７番地の２,,22,132,4350001,,,2021-09-02,清算の結了等,,,2015-10-05,1,,,,,トウカイリネンサービス,0
1458,5120001219382,登記記録の閉鎖等,0,2021-09-03,2021-08-31,ゑ美寿開発株式会社,,株式会社,大阪府,大阪市中央区,南船場４丁目３番２号,,27,128,5420081,,,2021-08-31,清算の結了等,,,2019-03-12,1,,,,,エビスカイハツ,0
1475,5122001014730,登記記録の閉鎖等,0,2021-09-03,2021-09-01,株式会社シィーテック,,株式会社,大阪府,東大阪市,宝持２丁目３番６号,,27,227,5770805,,,2021-09-01,合併による解散等,7122001028844,令和３年９月１日大阪府東大阪市宝持二丁目３番６号株式会社ケイ・アイ・エスホールディングス（7122001028844）に合併し解散,2015-10-05,1,,,,,シィーテック,0
1516,5180005017629,登記記録の閉鎖等,0,2021-09-03,2021-08-30,ＳＭＧ税理士法人,,その他の設立登記法人,愛知県,名古屋市中村区,名駅南１丁目２４番３０号名古屋三井ビル本館,,23,105,4500003,,,2021-08-30,清算の結了等,,,2018-01-18,1,,,,,エスエムジー,0
1541,5240002052787,登記記録の閉鎖等,0,2021-09-03,2021-08-31,有限会社松井洋服店,,有限会社,広島県,世羅郡世羅町,大字西上原５９０番地の５,,34,462,7221121,,,2021-08-31,清算の結了等,,,2015-10-05,1,,,,,マツイヨウフクテン,0
1567,5290001086253,登記記録の閉鎖等,0,2021-09-03,2021-08-13,ＨＵＲＡＭＡ株式会社,,株式会社,福岡県,糸島市,志摩新町２１番地１,,40,230,8191333,,,2021-08-13,清算の結了等,,,2019-08-21,1,,,,,ヒューラマ,0
1571,5290002052907,登記記録の閉鎖等,0,2021-09-03,2021-08-13,有限会社東すし,,有限会社,福岡県,大川市,大字榎津３１５番地の１２,,40,212,8310004,,,2021-08-13,清算の結了等,,,2015-10-05,1,,,,,アズマスシ,0
1572,5290005006018,登記記録の閉鎖等,0,2021-09-03,2021-08-25,一般社団法人生活幸学,,その他の設立登記法人,福岡県,宗像市,神湊６５１番２－３１１,,40,220,8113501,,,2021-08-25,清算の結了等,,,2015-10-05,1,,,,,セイカツコウガク,0
1579,5310002008328,登記記録の閉鎖等,0,2021-09-03,2021-09-01,有限会社リカーユニット,,有限会社,長崎県,西彼杵郡長与町,岡郷１４７４番地１５,,42,307,8512121,,,2021-09-01,合併による解散等,7310002008326,令和３年９月１日長崎県西彼杵郡長与町岡郷１４７４番地１５株式会社リカーズたがみ（7310002008326）に合併し解散,2015-10-05,1,,,,,リカーユニット,0
1589,5350001012120,登記記録の閉鎖等,0,2021-09-03,2021-09-01,株式会社ぽけっと,,株式会社,宮崎県,宮崎市,大字新名爪８番地８８,,45,201,8800124,,,2021-09-01,清算の結了等,,,2015-10-05,1,,,,,ポケット,0
1607,5380002030300,登記記録の閉鎖等,0,2021-09-03,2021-08-30,有限会社浪江農機,,有限会社,福島県,双葉郡浪江町,大字権現堂字石井前３４番地,,07,547,9791521,,,2021-08-30,清算の結了等,,,2015-10-05,1,,,,,ナミエノウキ,0
1620,5400002009374,登記記録の閉鎖等,0,2021-09-03,2021-09-01,有限会社ジョイクック,,有限会社,岩手県,北上市,藤沢１７地割１２６番地５,,03,206,0240013,,,2021-09-01,清算の結了等,,,2015-10-05,1,,,,,ジョイクック,0
1623,5430001046143,登記記録の閉鎖等,0,2021-09-03,2021-08-25,株式会社モーリス,,株式会社,北海道,札幌市西区,発寒十五条１４丁目３番４１号,,01,107,0630835,,,2021-08-25,合併による解散等,4430001029388,令和３年８月１日札幌市東区東雁来十三条四丁目１番１号北海道ベンディング株式会社（4430001029388）に合併し解散,2015-10-05,1,,,,,モーリス,0
1633,5450001009437,登記記録の閉鎖等,0,2021-09-03,2021-09-01,株式会社創ソウ・コーポレーシヨン,,株式会社,北海道,紋別市,落石町４丁目１０番１５号,,01,219,0940007,,,2021-09-01,合併による解散等,1450001009382,令和３年９月１日北海道紋別市幸町三丁目２番３３号株式会社かつい（1450001009382）に合併し解散,2015-10-05,1,,,,,ソウソウコーポレーション,0
1667,6010401028443,登記記録の閉鎖等,0,2021-09-03,2021-08-26,株式会社マコトビルサービス,,株式会社,東京都,港区,虎ノ門１丁目４番４号,,13,103,1050001,,,2021-08-26,清算の結了等,,,2015-10-05,1,,,,,マコトビルサービス,0
1671,6010401145420,登記記録の閉鎖等,0,2021-09-03,2021-08-25,ＣＬＩＣＫＳＯＦＴＷＡＲＥ　ＪＡＰＡＮ株式会社,,株式会社,東京都,港区,赤坂２丁目２３番１号アークヒルズ・フロントタワーＩｎＣｏｎｔｒｏｌ内,,13,103,1070052,,,2021-08-25,清算の結了等,,,2019-05-15,1,,,,,クリックソフトウェアジャパン,0
1704,6011105001356,登記記録の閉鎖等,0,2021-09-03,2021-08-20,協同組合東京雑誌リサイクルセンター,,その他の設立登記法人,東京都,新宿区,東五軒町６番２４号,,13,104,1620813,,,2021-08-20,清算の結了等,,,2015-10-05,1,,,,,トウキョウザッシリサイクルセンター,0
1718,6011801017837,登記記録の閉鎖等,0,2021-09-03,2021-09-02,株式会社ニック,,株式会社,東京都,足立区,綾瀬１丁目２１番８号,,13,121,1200005,,,2021-09-02,清算の結了等,,,2015-10-05,1,,,,,,0
1726,6011803001789,登記記録の閉鎖等,0,2021-09-03,2021-08-30,盛隆合同会社,,合同会社,東京都,豊島区,池袋１丁目１４番７号西山荘２０２室,,13,116,1700014,,,2021-08-30,清算の結了等,,,2015-10-05,1,,,,,セイリュウ,0
1735,6012402007871,登記記録の閉鎖等,0,2021-09-03,2021-08-25,有限会社フィール,,有限会社,東京都,国分寺市,北町５丁目８番地３９,,13,214,1850001,,,2021-08-25,清算の結了等,,,2015-10-05,1,,,,,フィール,0
1742,6013301000091,登記記録の閉鎖等,0,2021-09-03,2021-08-30,相川設備工業株式会社,,株式会社,東京都,豊島区,要町３丁目３２番２号,,13,116,1710043,,,2021-08-30,清算の結了等,,,2015-10-05,1,,,,,アイカワセツビコウギョウ,0
1744,6013301027184,登記記録の閉鎖等,0,2021-09-03,2021-08-30,株式会社インフォメーションガイド,,株式会社,東京都,豊島区,東池袋１丁目３９番１５号,,13,116,1700013,,,2021-08-30,清算の結了等,,,2015-10-05,1,,,,,インフォメーションガイド,0
1761,6030001082376,登記記録の閉鎖等,0,2021-09-03,2021-08-25,信和エンジニアリング株式会社,,株式会社,埼玉県,川口市,本町４丁目１番８号川口センタービル１３階,,11,203,3320012,,,2021-08-25,清算の結了等,,,2015-10-05,1,,,,,シンワエンジニアリング,0
1764,6030005015704,登記記録の閉鎖等,0,2021-09-03,2021-08-25,特定非営利活動法人ハヤト,,その他の設立登記法人,神奈川県,相模原市南区,上鶴間４丁目３０番３４号,,14,153,2520302,,,2021-08-25,清算の結了等,,,2015-10-05,1,,,,,ハヤト,0
1765,6040001001392,登記記録の閉鎖等,0,2021-09-03,2021-08-30,笠川工業株式会社,,株式会社,千葉県,千葉市稲毛区,園生町７４５番地,,12,103,2630051,,,2021-08-30,清算の結了等,,,2015-10-05,1,,,,,カサガワコウギョウ,0
1773,6040002080691,登記記録の閉鎖等,0,2021-09-03,2021-08-26,有限会社赤木工業,,有限会社,千葉県,茂原市,七渡２５５０番地４,,12,210,2970001,,,2021-08-26,清算の結了等,,,2015-10-05,1,,,,,アカギコウギョウ,0
1785,6080402008487,登記記録の閉鎖等,0,2021-09-03,2021-09-01,有限会社ヤマサ技工,,有限会社,静岡県,浜松市南区,高塚町１３４３番地の１,,22,134,4328065,,,2021-09-01,清算の結了等,,,2015-10-05,1,,,,,ヤマサギコウ,0
1786,6090002009430,登記記録の閉鎖等,0,2021-09-03,2021-08-27,有限会社大嶺荘,,有限会社,山梨県,北都留郡小菅村,４２５５番地,,19,442,4090211,,,2021-08-27,清算の結了等,,,2015-10-05,1,,,,,タイレイソウ,0
1795,6120001068309,登記記録の閉鎖等,0,2021-09-03,2021-08-26,株式会社名畑商店,,株式会社,大阪府,大阪市北区,大淀中３丁目７番１８号,,27,127,5310076,,,2021-08-26,清算の結了等,,,2015-10-05,1,,,,,ナバタショウテン,0
1798,6120001122305,登記記録の閉鎖等,0,2021-09-03,2021-08-30,株式会社オーテック,,株式会社,大阪府,大阪市生野区,中川４丁目１２番１８号,,27,116,5440005,,,2021-08-30,清算の結了等,,,2015-10-05,1,,,,,オーテック,0
1809,6120003016975,登記記録の閉鎖等,0,2021-09-03,2021-08-30,リリーフ合同会社,,合同会社,大阪府,寝屋川市,三井南町３０番４－１５０２号,,27,215,5720019,,,2021-08-30,清算の結了等,,,2020-02-14,1,,,,,リリーフ,0
1820,6120901011251,登記記録の閉鎖等,0,2021-09-03,2021-08-31,株式会社彈建設,,株式会社,大阪府,高槻市,氷室町３丁目３３番１号,,27,207,5691141,,,2021-08-31,清算の結了等,,,2015-10-05,1,,,,,ダンケンセツ,0
1845,6180001143659,登記記録の閉鎖等,0,2021-09-03,2021-08-31,テクノサポート株式会社,,株式会社,愛知県,春日井市,出川町７丁目１０番地１８,,23,206,4870025,,,2021-08-31,清算の結了等,,,2020-11-19,1,,,,,テクノサポート,0
1855,6180301022587,登記記録の閉鎖等,0,2021-09-03,2021-09-01,平坂ベリーズ株式会社,,株式会社,愛知県,西尾市,羽塚町新坂１５番地１,,23,213,4440316,,,2021-09-01,清算の結了等,,,2015-10-05,1,,,,,ヘイサカベリーズ,0
1864,6190002021012,登記記録の閉鎖等,0,2021-09-03,2021-08-31,有限会社中部加工所,,有限会社,三重県,三重郡菰野町,大字菰野５０２４番地１,,24,341,5101233,,,2021-08-31,清算の結了等,,,2015-10-05,1,,,,,チュウブカコウショ,0
1865,6200001023296,登記記録の閉鎖等,0,2021-09-03,2021-09-01,株式会社大樋,00076680,株式会社,岐阜県,中津川市,西宮町５番３８号,,21,206,5080042,,,2021-09-01,清算の結了等,,,2015-10-05,1,,,,,オオドイ,0
1873,6210001016720,登記記録の閉鎖等,0,2021-09-03,2021-08-31,株式会社リンク,,株式会社,福井県,敦賀市,公文名５７号１４番地の１０,,18,202,9140131,,,2021-08-31,清算の結了等,,,2017-04-18,1,,,,,リンク,0
1890,6250001014415,登記記録の閉鎖等,0,2021-09-03,2021-09-01,株式会社さくら工務店,,株式会社,山口県,周南市,大字徳山５８２７番地の１,,35,215,7450851,,,2021-09-01,清算の結了等,,,2015-10-05,1,,,,,サクラコウムテン,0
1905,6290005017716,登記記録の閉鎖等,0,2021-09-03,2021-08-27,税理士法人松下・吉田総合会計事務所,,その他の設立登記法人,福岡県,福岡市中央区,大名２丁目９番２９号第２プリンスビル８０９号,,40,133,8100041,,,2021-08-27,清算の結了等,,,2020-04-03,1,,,,,マツシタヨシダソウゴウカイケイジムショ,0
1908,6300005003318,登記記録の閉鎖等,0,2021-09-03,2021-08-31,株式会社山内陶業,,株式会社,佐賀県,武雄市,山内町大字宮野２６３３６番地３,,41,206,8492305,,,2021-08-31,清算の結了等,,,2015-10-05,1,,,,,ヤマウチトウギョウ,0
1926,6360005004070,登記記録の閉鎖等,0,2021-09-03,2021-08-30,一般社団法人市民介護相談員なは,,その他の設立登記法人,沖縄県,那覇市,小禄５丁目１７番地３号,,47,201,9010152,,,2021-08-30,清算の結了等,,,2015-10-05,1,,,,,シミンカイゴソウダンインナハ,0
1935,6370502000728,登記記録の閉鎖等,0,2021-09-03,2021-08-24,有限会社ヌーベル・ヴァーグ,,有限会社,宮城県,気仙沼市,南町４丁目２番１３号,,04,205,9880017,,,2021-08-24,清算の結了等,,,2015-10-05,1,,,,,ヌーベルヴァーグ,0
1945,6410003003011,登記記録の閉鎖等,0,2021-09-03,2021-08-30,ヴィクトワール森屋合同会社,,合同会社,秋田県,横手市,神明町３－２８,,05,203,0130046,,,2021-08-30,清算の結了等,,,2016-06-29,1,,,,,ヴィクトワールモリヤ,0
1970,6480003001132,登記記録の閉鎖等,0,2021-09-03,2021-08-30,合同会社そら,,合同会社,徳島県,小松島市,立江町字青森４１番地１３,,36,203,7730017,,,2021-08-30,清算の結了等,,,2017-08-21,1,,,,,ソラ,0
1990,7010401122749,登記記録の閉鎖等,0,2021-09-03,2021-08-02,株式会社アール・エージェント,,株式会社,長崎県,長崎市,清水町１１番５号ＡＴビル２０８号室,,42,201,8528041,,,2021-08-02,清算の結了等,,,2016-01-26,1,,,,,アールエージェント,0
2006,7010802007895,登記記録の閉鎖等,0,2021-09-03,2021-08-26,有限会社精華,,有限会社,東京都,大田区,蒲田２丁目７番１５号,,13,111,1440052,,,2021-08-26,清算の結了等,,,2015-10-05,1,,,,,セイカ,0
2043,7012801003768,登記記録の閉鎖等,0,2021-09-03,2021-08-23,株式会社コバリエージェンス,,株式会社,東京都,東大和市,向原６丁目９４４番地１３,,13,220,2070013,,,2021-08-23,清算の結了等,,,2015-10-05,1,,,,,コバリエージェンス,0
2052,7020001058780,登記記録の閉鎖等,0,2021-09-03,2021-09-01,株式会社ザ・ブライズルーム,,株式会社,神奈川県,横浜市鶴見区,豊岡町２０番１１号,,14,101,2300062,,,2021-09-01,合併による解散等,3020001018078,令和３年９月１日横浜市鶴見区豊岡町２０番１１号株式会社ツルミ美容院（3020001018078）に合併し解散,2015-10-05,1,,,,,ザブライズルーム,0
2059,7020002015005,登記記録の閉鎖等,0,2021-09-03,2021-08-31,有限会社新田塗装店,,有限会社,神奈川県,横浜市青葉区,荏田町６８６番地,,14,117,2250013,,,2021-08-31,清算の結了等,,,2015-10-05,1,,,,,ニッタトソウテン,0
2068,7030001063342,登記記録の閉鎖等,0,2021-09-03,2021-08-25,株式会社イロミツ,,株式会社,埼玉県,さいたま市見沼区,大字御蔵５７９番地２,,11,104,3370033,,,2021-08-25,清算の結了等,,,2015-10-05,1,,,,,イロミツ,0
2100,7080102002203,登記記録の閉鎖等,0,2021-09-03,2021-08-31,有限会社高嶋工機,,有限会社,静岡県,沼津市,沼北町１丁目３番６号,,22,203,4100058,,,2021-08-31,清算の結了等,,,2015-10-05,1,,,,,タカシマコウキ,0
2109,7110001005294,登記記録の閉鎖等,0,2021-09-03,2021-08-31,株式会社丸今石油,,株式会社,新潟県,新潟市中央区,女池南１丁目１番１６号ＦＫビル,,15,103,9500948,,,2021-08-31,合併による解散等,8110001001334,令和３年８月３１日新潟県新潟市中央区女池南一丁目１番１６号ＦＫビル株式会社今井石産（8110001001334）に合併し解散,2015-10-05,1,,,,,マルイマセキユ,0
2114,7120001038839,登記記録の閉鎖等,0,2021-09-03,2021-08-27,谷口興産株式会社,,株式会社,大阪府,大阪市浪速区,日本橋東１丁目１番１５号,,27,111,5560006,,,2021-08-27,清算の結了等,,,2015-10-05,1,,,,,,0
2120,7120001158364,登記記録の閉鎖等,0,2021-09-03,2021-08-30,株式会社吉野,,株式会社,大阪府,守口市,大日東町４番Ａ－２００１号,,27,209,5700016,,,2021-08-30,清算の結了等,,,2015-10-05,1,,,,,ヨシノ,0
2150,7122002004720,登記記録の閉鎖等,0,2021-09-03,2021-08-27,有限会社万太,,有限会社,大阪府,東大阪市,東山町４番５号,,27,227,5798027,,,2021-08-27,清算の結了等,,,2015-10-05,1,,,,,マンタ,0
2161,7130005013044,登記記録の閉鎖等,0,2021-09-03,2021-09-01,特定非営利活動法人淀駅周辺地域の将来を考える会,,その他の設立登記法人,京都府,京都市伏見区,淀本町１６７番地,,26,109,6130903,,,2021-09-01,清算の結了等,,,2015-10-05,1,,,,,ヨドエキシュウヘンチイキノショウライヲカンガエルカイ,0
2163,7140001022824,登記記録の閉鎖等,0,2021-09-03,2021-09-01,株式会社トカミ・テーブル・クリエイツ,,株式会社,兵庫県,神戸市中央区,京町６７番地ＯＴＣ神戸ビル２階「カルタ」内,,28,110,6500034,,,2021-09-01,清算の結了等,,,2015-10-05,1,,,,,トカミテーブルクリエイツ,0
2182,7180001079522,登記記録の閉鎖等,0,2021-09-03,2021-08-30,株式会社コトブキフード,,株式会社,愛知県,尾張旭市,城前町茅ケ池４５６２番地の１９,,23,226,4880000,,,2021-08-30,清算の結了等,,,2015-10-05,1,,,,,コトブキフード,0
2211,7230005003217,登記記録の閉鎖等,0,2021-09-03,2021-09-01,協同組合栄翔,,その他の設立登記法人,富山県,富山市,黒瀬２４０番地３６,,16,201,9398213,,,2021-09-01,清算の結了等,,,2015-10-05,1,,,,,エイショウ,0
2226,7260002012762,登記記録の閉鎖等,0,2021-09-03,2021-09-01,有限会社パロス,,有限会社,岡山県,岡山市北区,内山下１丁目３番９号,,33,101,7000824,,,2021-09-01,合併による解散等,8260002013074,令和３年９月１日岡山市北区内山下一丁目３番９号株式会社サンク・ユー（8260002013074）に合併し解散,2015-10-05,1,,,,,パロス,0
2268,7410005000170,登記記録の閉鎖等,0,2021-09-03,2021-08-31,日通秋田輸送事業協同組合,,その他の設立登記法人,秋田県,秋田市,土崎港穀保町１３０番３８,,05,201,0110944,,,2021-08-31,清算の結了等,,,2015-10-05,1,,,,,ニッツウアキタユソウ,0
2284,7460402000165,登記記録の閉鎖等,0,2021-09-03,2021-09-01,有限会社新光電気商会,,有限会社,北海道,根室市,宝林町１丁目２５番地,,01,223,0870024,,,2021-09-01,清算の結了等,,,2015-10-05,1,,,,,シンコウデンキショウカイ,0
2307,8010401155541,登記記録の閉鎖等,0,2021-09-03,2021-08-24,株式会社天道商会,,株式会社,東京都,港区,三田２丁目８－１２三田マンション３０４号,,13,103,1080073,,,2021-08-24,清算の結了等,,,2020-10-05,1,,,,,テンドウショウカイ,0
2325,8010802004735,登記記録の閉鎖等,0,2021-09-03,2021-08-27,有限会社くりっぷ,,有限会社,東京都,大田区,池上７丁目１番７－８０１号,,13,111,1460082,,,2021-08-27,清算の結了等,,,2015-10-05,1,,,,,クリップ,0
2350,8011702008636,登記記録の閉鎖等,0,2021-09-03,2021-08-31,有限会社仲谷製作所,,有限会社,東京都,江戸川区,平井２丁目５番８号,,13,123,1320035,,,2021-08-31,清算の結了等,,,2015-10-05,1,,,,,ナカヤセイサクショ,0
2386,8030001080213,登記記録の閉鎖等,0,2021-09-03,2021-08-25,株式会社メディカル企画,,株式会社,埼玉県,川口市,栄町２丁目５番１７号,,11,203,3320017,,,2021-08-25,清算の結了等,,,2015-10-05,1,,,,,メディカルキカク,0
2387,8030001096127,登記記録の閉鎖等,0,2021-09-03,2021-08-25,株式会社ビストロカタオカ,,株式会社,埼玉県,鶴ヶ島市,松ヶ丘１丁目１５番５号,,11,241,3502205,,,2021-08-25,清算の結了等,,,2015-10-05,1,,,,,ビストロカタオカ,0
2411,8040002043374,登記記録の閉鎖等,0,2021-09-03,2021-08-26,有限会社鹿島防水,,有限会社,千葉県,浦安市,東野２丁目４番３－１１２号,,12,227,2790042,,,2021-08-26,清算の結了等,,,2015-10-05,1,,,,,カシマボウスイ,0
2426,8080402015614,登記記録の閉鎖等,0,2021-09-03,2021-09-02,有限会社水口織物,,有限会社,静岡県,浜松市浜北区,尾野２２４８番地の１,,22,136,4340002,,,2021-09-02,清算の結了等,,,2015-10-05,1,,,,,,0
2475,8140001109991,登記記録の閉鎖等,0,2021-09-03,2021-08-30,小野ファーム株式会社,,株式会社,兵庫県,小野市,万勝寺町１０９４番地２,,28,218,6751311,,,2021-08-30,清算の結了等,,,2018-05-08,1,,,,,オノファーム,0
2485,8140002059360,登記記録の閉鎖等,0,2021-09-03,2021-08-31,有限会社分尾キャンピング・ベース,,有限会社,兵庫県,西宮市,山口町上山口４丁目６番４０号,,28,204,6511421,,,2021-08-31,清算の結了等,,,2015-10-05,1,,,,,ブンオキャンピングベース,0
2528,8190002012249,登記記録の閉鎖等,0,2021-09-03,2021-09-01,德本製菓有限会社,00075981,有限会社,三重県,伊賀市,上野万町２３１３番地の１,,24,216,5180855,,,2021-09-01,清算の結了等,,,2015-10-05,1,,,,,トクモトセイカ,0
2529,8190005004549,登記記録の閉鎖等,0,2021-09-03,2021-08-10,朝日・ライズ協同組合,,その他の設立登記法人,三重県,鈴鹿市,桜島町７丁目２番地の１２,,24,207,5130817,,,2021-08-10,清算の結了等,,,2015-10-05,1,,,,,アサヒライズ,0
2532,8200002002826,登記記録の閉鎖等,0,2021-09-03,2021-09-01,有限会社高橋精工,,有限会社,岐阜県,岐阜市,南柿ケ瀬１４番地,,21,201,5011134,,,2021-09-01,清算の結了等,,,2015-10-05,1,,,,,タカハシセイコウ,0
2534,8200002020299,登記記録の閉鎖等,0,2021-09-03,2021-09-02,有限会社寝具の綿久,,有限会社,岐阜県,多治見市,小路町４番地,,21,204,5070847,,,2021-09-02,清算の結了等,,,2015-10-05,1,,,,,シングノワタヒサ,0
2542,8240001031632,登記記録の閉鎖等,0,2021-09-03,2021-09-01,ニットサプライ株式会社,,株式会社,広島県,福山市,三吉町南２丁目６番３１号,,34,207,7200032,,,2021-09-01,合併による解散等,3240001031620,令和３年９月１日広島県福山市曙町一丁目１０番１０号日塗株式会社（3240001031620）に合併し解散,2015-10-05,1,,,,,ニットサプライ,0
2543,8240001039782,登記記録の閉鎖等,0,2021-09-03,2021-08-30,株式会社宝洋水産,,株式会社,広島県,三原市,糸崎７丁目１１番１６号,,34,204,7290324,,,2021-08-30,清算の結了等,,,2015-10-05,1,,,,,ホウヨウスイサン,0
2550,8260001004875,登記記録の閉鎖等,0,2021-09-03,2021-09-01,株式会社ナカ産業,,株式会社,岡山県,岡山市北区,野田３丁目１番５号,,33,101,7000971,,,2021-09-01,合併による解散等,4260001004235,令和３年９月１日岡山市北区野田三丁目１番５号中国衛材株式会社（4260001004235）に合併し解散,2015-10-05,1,,,,,ナカサンギョウ,0
2551,8260001013075,登記記録の閉鎖等,0,2021-09-03,2021-09-01,株式会社くらしきコンサート,,株式会社,岡山県,倉敷市,阿知２丁目２５番３３号,,33,202,7100055,,,2021-09-01,清算の結了等,,,2015-10-05,1,,,,,クラシキコンサート,0
2572,8290802007099,登記記録の閉鎖等,0,2021-09-03,2021-08-31,有限会社ワイズ,,有限会社,福岡県,北九州市小倉南区,大字朽網３９１４番７５,,40,107,8000231,,,2021-08-31,合併による解散等,8290801003859,令和３年８月３１日北九州市小倉南区大字朽網３９１４番７５株式会社陽和（8290801003859）に合併し解散,2015-10-05,1,,,,,ワイズ,0
2587,8330001007111,登記記録の閉鎖等,0,2021-09-03,2021-09-01,株式会社アサヒ管理,,株式会社,熊本県,熊本市中央区,水前寺１丁目１０番１２号,,43,101,8620950,,,2021-09-01,清算の結了等,,,2015-10-05,1,,,,,アサヒカンリ,0
2612,8360005000415,登記記録の閉鎖等,0,2021-09-03,2021-08-24,医療法人芙蓉会,,その他の設立登記法人,沖縄県,那覇市,寄宮１丁目９番２４号,,47,201,9020064,,,2021-08-24,清算の結了等,,,2015-10-05,1,,,,,フヨウカイ,0
2624,8400001013738,登記記録の閉鎖等,0,2021-09-03,2021-09-01,株式会社アグウェル,,株式会社,岩手県,滝沢市,葉の木沢山５５５－５,,03,216,0200625,,,2021-09-01,合併による解散等,1400001000536,令和３年９月１日岩手県滝沢市葉の木沢山５５５－５株式会社スタディア（1400001000536）に合併し解散,2017-06-12,1,,,,,アグウェル,0
2643,8430002044465,登記記録の閉鎖等,0,2021-09-03,2021-08-27,有限会社中嶋設備設計事務所,,有限会社,北海道,北広島市,大曲南ヶ丘３丁目２５番地４,,01,234,0611275,,,2021-08-27,清算の結了等,,,2015-10-05,1,,,,,ナカジマセツビセッケイジムショ,0
2658,8500001000049,登記記録の閉鎖等,0,2021-09-03,2021-09-01,うづまき商事株式会社,,株式会社,愛媛県,松山市,八反地甲４０番地,,38,201,7992424,,,2021-09-01,清算の結了等,,,2015-10-05,1,,,,,,0
2675,9010003030043,登記記録の閉鎖等,0,2021-09-03,2021-08-30,合同会社バーベナ,,合同会社,東京都,中央区,日本橋１丁目４番１号日本橋一丁目ビルディング,,13,102,1030027,,,2021-08-30,清算の結了等,,,2019-06-18,1,,,,,バーベナ,0
2676,9010005030867,登記記録の閉鎖等,0,2021-09-03,2021-08-27,一般社団法人彩,,その他の設立登記法人,東京都,中央区,日本橋１丁目４番１号日本橋一丁目ビルディング,,13,102,1030027,,,2021-08-27,清算の結了等,,,2019-10-07,1,,,,,サイ,0
2688,9010601009819,登記記録の閉鎖等,0,2021-09-03,2021-08-18,株式会社一高プラスチック,00051475,株式会社,東京都,墨田区,東向島６丁目４８番１３号,,13,107,1310032,,,2021-08-18,清算の結了等,,,2015-10-05,1,,,,,イチコウプラスチック,0
2689,9010603008521,登記記録の閉鎖等,0,2021-09-03,2021-08-18,合同会社ジェイコブマネジメント,,合同会社,東京都,江東区,豊洲５丁目５－２５－３１４,,13,108,1350061,,,2021-08-18,清算の結了等,,,2020-09-04,1,,,,,ジェイコブマネジメント,0
2710,9011102029686,登記記録の閉鎖等,0,2021-09-03,2021-08-26,有限会社Ｕｐ＆Ｏｕｔ,,有限会社,東京都,新宿区,新宿１丁目２４番１－８０７号,,13,104,1600022,,,2021-08-26,清算の結了等,,,2015-10-05,1,,,,,,0
2721,9011702001656,登記記録の閉鎖等,0,2021-09-03,2021-08-31,永久産業有限会社,,有限会社,東京都,江戸川区,東小岩６丁目１３番１０号,,13,123,1330052,,,2021-08-31,清算の結了等,,,2015-10-05,1,,,,,エイキュウサンギョウ,0
2728,9012805001469,登記記録の閉鎖等,0,2021-09-03,2021-08-18,一般社団法人家族えんまん相続協会,,その他の設立登記法人,東京都,国立市,中１丁目９番地の４一橋ハイム４０１,,13,215,1860004,,,2021-08-18,清算の結了等,,,2015-10-05,1,,,,,カゾクエンマンソウゾクキョウカイ,0
2731,9013301025152,登記記録の閉鎖等,0,2021-09-03,2021-08-30,株式会社グローウェルス,,株式会社,東京都,豊島区,南池袋３丁目１８番４８号,,13,116,1710022,,,2021-08-30,清算の結了等,,,2015-10-05,1,,,,,グローウェルス,0
2743,9020003012643,登記記録の閉鎖等,0,2021-09-03,2021-08-31,合同会社グリシニアス,,合同会社,神奈川県,横浜市中区,初音町３丁目６１番地１－４０３号室,,14,104,2310053,,,2021-08-31,清算の結了等,,,2017-04-21,1,,,,,グリシニアス,0
2752,9030001048473,登記記録の閉鎖等,0,2021-09-03,2021-08-24,浜田機械製造株式会社,,株式会社,埼玉県,和光市,本町３１番１２－３１７号ＣＩハイツ,,11,229,3510114,,,2021-08-24,清算の結了等,,,2015-10-05,1,,,,,ハマタキカイセイゾウ,0
2770,9040001109662,登記記録の閉鎖等,0,2021-09-03,2021-08-31,三宙企画株式会社,,株式会社,千葉県,千葉市中央区,弁天２丁目１０番１２号ＴＨハイム２０８号室,,12,101,2600045,,,2021-08-31,清算の結了等,,,2019-06-20,1,,,,,ミソラキカク,0
2771,9040001112237,登記記録の閉鎖等,0,2021-09-03,2021-08-27,ＳＲＣコンサルティング株式会社,,株式会社,千葉県,千葉市花見川区,幕張本郷２丁目３番２号,,12,102,2620033,,,2021-08-27,清算の結了等,,,2020-01-22,1,,,,,エスアールシーコンサルティング,0
2776,9040002050155,登記記録の閉鎖等,0,2021-09-03,2021-08-26,有限会社フレンドリー,,有限会社,千葉県,松戸市,松戸新田１１６番地６号,,12,207,2702241,,,2021-08-26,清算の結了等,,,2015-10-05,1,,,,,フレンドリー,0
2803,9100005001495,登記記録の閉鎖等,0,2021-09-03,2021-09-01,信濃食品株式会社,,株式会社,長野県,千曲市,大字八幡４６０１番地１,,20,218,3870023,,,2021-09-01,合併による解散等,5100001000975,令和３年９月１日長野県千曲市八幡４６０１番地１光葉スチール株式会社（5100001000975）に合併し解散,2015-10-05,1,,,,,シナノショクヒン,0
2809,9120001095993,登記記録の閉鎖等,0,2021-09-03,2021-08-24,アイ・ティ・ジェイ株式会社,,株式会社,大阪府,大阪市西区,立売堀５丁目２番７号,,27,106,5500012,,,2021-08-24,清算の結了等,,,2015-10-05,1,,,,,アイティジェイ,0
2836,9140001001900,登記記録の閉鎖等,0,2021-09-03,2021-08-31,株式会社ダイナテック,,株式会社,兵庫県,神戸市東灘区,向洋町中１丁目１４番地,,28,101,6580032,,,2021-08-31,清算の結了等,,,2015-10-05,1,,,,,ダイナテック,0
2838,9140001069748,登記記録の閉鎖等,0,2021-09-03,2021-09-01,ニッコウ産業株式会社,,株式会社,兵庫県,西宮市,柏堂西町１３番２３号,,28,204,6620098,,,2021-09-01,清算の結了等,,,2015-10-05,1,,,,,ニッコウサンギョウ,0
2892,9240002032397,登記記録の閉鎖等,0,2021-09-03,2021-08-31,有限会社オリエンタルマリン,,有限会社,広島県,呉市,阿賀北４丁目４番２２号,,34,202,7370001,,,2021-08-31,清算の結了等,,,2015-10-05,1,,,,,オリエンタルマリン,0
2893,9240002039582,登記記録の閉鎖等,0,2021-09-03,2021-08-30,有限会社栄光,,有限会社,広島県,福山市,南手城町４丁目１０７４番地,,34,207,7210963,,,2021-08-30,清算の結了等,,,2015-10-05,1,,,,,,0
2903,9260001003372,登記記録の閉鎖等,0,2021-09-03,2021-09-01,株式会社ユナイティヴ,,株式会社,岡山県,岡山市北区,平和町７番１６号２Ｆ,,33,101,7000827,,,2021-09-01,合併による解散等,2260001015382,令和３年９月１日岡山市南区大福９０８番地３株式会社アートコーポレーション（2260001015382）に合併し解散,2015-10-05,1,,,,,ユナイティヴ,0
2916,9280005007161,登記記録の閉鎖等,0,2021-09-03,2021-09-01,ウッズ・マン・ハーモニー協同組合,,その他の設立登記法人,島根県,益田市,美都町都茂１０７６番地,,32,204,6980203,,,2021-09-01,清算の結了等,,,2017-01-30,1,,,,,ウッズマンハーモニー,0
2953,9350005000027,登記記録の閉鎖等,0,2021-09-03,2021-08-31,公益財団法人宮崎県環境整備公社,,その他の設立登記法人,宮崎県,宮崎市,大字大瀬町字倉谷６１７６番１,,45,201,8800045,,,2021-08-31,清算の結了等,,,2015-10-05,1,,,,,ミヤザキケンカンキョウセイビコウシャ,0
2975,9420002006135,登記記録の閉鎖等,0,2021-09-03,2021-08-31,有限会社石徳,,有限会社,青森県,八戸市,大字長苗代字元木１６番地２,,02,203,0391103,,,2021-08-31,清算の結了等,,,2015-10-05,1,,,,,イシトク,0
2977,9430001031141,登記記録の閉鎖等,0,2021-09-03,2021-08-25,スカイヨーク株式会社,,株式会社,北海道,札幌市中央区,北五条西１２丁目２番地ベルックス北５ビルＡ館４階,,01,101,0600005,,,2021-08-25,清算の結了等,,,2015-10-05,1,,,,,スカイヨーク,0
2983,9440002004938,登記記録の閉鎖等,0,2021-09-03,2021-09-01,有限会社矢野燃料,,有限会社,北海道,松前郡福島町,字福島２７１番地の５９,,01,332,0491312,,,2021-09-01,清算の結了等,,,2015-10-05,1,,,,,ヤノネンリョウ,0
