sequenceNumber,corporateNumber,process,correct,updateDate,changeDate,name,nameImageId,kind,prefectureName,cityName,streetNumber,addressImageId,prefectureCode,cityCode,postCode,addressOutside,addressOutsideImageId,closeDate,closeCause,successorCorporateNumber,changeCause,assignmentDate,latest,enName,enPrefectureName,enCityName,enAddressOutside,furigana,hihyoji
9,1010001244346,新規,0,2024-04-30,2024-04-30,株式会社ファーマインド大分農園,,株式会社,東京都,千代田区,神田和泉町１番地,,13,101,1010024,,,,,,,2024-04-30,1,,,,,ファーマインドオオイタノウエン,0
10,1010001244387,新規,0,2024-04-30,2024-04-30,株式会社ＰＡＲＱＵＥ,,株式会社,東京都,中央区,銀座１丁目１４番１４号銀座中公ビル２階,,13,102,1040061,,,,,,,2024-04-30,1,,,,,パルケ,0
11,1010001244461,新規,0,2024-04-30,2024-04-30,株式会社Ｂｅａｔ　Ｉ,,株式会社,東京都,千代田区,神田神保町１丁目５６番地２パークアクシス神保町３０５号,,13,101,1010051,,,,,,,2024-04-30,1,,,,,ビートアイ,0
18,1010003043614,新規,0,2024-04-30,2024-04-30,イントラスト合同会社,,合同会社,東京都,中央区,銀座１丁目１２番４号Ｎ＆ＥＢＬＤ．７階,,13,102,1040061,,,,,,,2024-04-30,1,,,,,イントラスト,0
21,1010101016117,新規,0,2024-04-30,2024-04-30,株式会社山栄,,株式会社,東京都,八王子市,宇津木町９１５番地２３,,13,201,1920024,,,,,,,2024-04-30,1,,,,,サンエイ,0
27,1010401182047,新規,0,2024-04-30,2024-04-30,株式会社ＨＩＧホールディングス,,株式会社,東京都,港区,赤坂３丁目９番２号,,13,103,1070052,,,,,,,2024-04-30,1,,,,,エイチアイジーホールディングス,0
28,1010403032506,新規,0,2024-04-30,2024-04-30,ＧＶＳＪ０６合同会社,,合同会社,東京都,港区,六本木３丁目１６番２６号,,13,103,1060032,,,,,,,2024-04-30,1,,,,,ジーブイエスジェイゼロシックス,0
29,1010403032514,新規,0,2024-04-30,2024-04-30,ＳＢＫ合同会社,,合同会社,東京都,港区,芝浦４丁目２２番１－３１０６号,,13,103,1080023,,,,,,,2024-04-30,1,,,,,エスビーケー,0
30,1010403032522,新規,0,2024-04-30,2024-04-30,３００合同会社,,合同会社,東京都,港区,浜松町１丁目２０番１０号ライオネス浜松町５０６号室,,13,103,1050013,,,,,,,2024-04-30,1,,,,,サンビャク,0
31,1010405023206,新規,0,2024-04-30,2024-04-30,一般社団法人ＧＲｅＣ,,その他の設立登記法人,東京都,港区,西新橋１丁目２番９号メンターキャピタル税理士法人内,,13,103,1050003,,,,,,,2024-04-30,1,,,,,ジーアールイーシー,0
40,1010903009012,新規,0,2024-04-30,2024-04-30,合同会社Ｔｓｕｙａ‐ｎｉｉ,,合同会社,東京都,世田谷区,代田２丁目２６－１５ハウスロード２－Ｂ,,13,112,1550033,,,,,,,2024-04-30,1,,,,,ツヤニィ,0
49,1011001161465,新規,0,2024-04-30,2024-04-30,株式会社タテヨコナナメ,,株式会社,東京都,渋谷区,道玄坂１丁目１０番８号渋谷道玄坂東急ビル２Ｆ‐Ｃ,,13,113,1500043,,,,,,,2024-04-30,1,,,,,タテヨコナナメ,0
50,1011001161655,新規,0,2024-04-30,2024-04-30,株式会社マージナイズ,,株式会社,東京都,渋谷区,渋谷２丁目１９－１５宮益坂ビルディング６０９,,13,113,1500002,,,,,,,2024-04-30,1,,,,,マージナイズ,0
61,1011501030599,新規,0,2024-04-30,2024-04-30,鵬翼システム株式会社,,株式会社,東京都,荒川区,東日暮里３丁目２７番５号ＢＨビル７階,,13,118,1160014,,,,,,,2024-04-30,1,,,,,ホウヨクシステム,0
62,1011501030608,新規,0,2024-04-30,2024-04-30,瑞安株式会社,,株式会社,東京都,荒川区,東尾久２丁目２番９号三祥ビル２０２,,13,118,1160012,,,,,,,2024-04-30,1,,,,,ズイアン,0
66,1011701027247,新規,0,2024-04-30,2024-04-30,株式会社明加,,株式会社,東京都,江戸川区,南篠崎町４丁目１番１３号２階,,13,123,1330065,,,,,,,2024-04-30,1,,,,,メイカ,0
67,1011801044159,新規,0,2024-04-30,2024-04-30,株式会社新塗,,株式会社,東京都,足立区,入谷９丁目１４番１７号,,13,121,1210836,,,,,,,2024-04-30,1,,,,,シント,0
68,1011803006207,新規,0,2024-04-30,2024-04-30,合同会社Ｋｎａｃｋ,,合同会社,東京都,葛飾区,東新小岩２丁目２２番６－６０１号ラプレミアビラージュ,,13,122,1240023,,,,,,,2024-04-30,1,,,,,ナック,0
71,1012301013884,新規,0,2024-04-30,2024-04-30,株式会社麗和建設,,株式会社,東京都,町田市,忠生２丁目５１番地１３,,13,209,1940035,,,,,,,2024-04-30,1,,,,,レイワケンセツ,0
77,1012701018228,新規,0,2024-04-30,2024-04-30,株式会社ルミネス,,株式会社,東京都,西東京市,ひばりが丘北３丁目５番６号,,13,229,2020002,,,,,,,2024-04-30,1,,,,,ルミネス,0
78,1012801023136,新規,0,2024-04-30,2024-04-30,株式会社ＴＵＫＡＳＡ,,株式会社,東京都,立川市,一番町２丁目３番地の２グリーンサイド一番１０２号,,13,202,1900033,,,,,,,2024-04-30,1,,,,,ツカサ,0
100,1020001156912,新規,0,2024-04-30,2024-04-30,株式会社ＺＥＲＯ　ＤＲＩＶＥ,,株式会社,神奈川県,川崎市宮前区,初山２丁目２３番２９－４１３号,,14,136,2160026,,,,,,,2024-04-30,1,,,,,ゼロドライブ,0
101,1020001156945,新規,0,2024-04-30,2024-04-30,株式会社杉屋商事,,株式会社,神奈川県,横浜市港北区,日吉２丁目１番５号,,14,109,2230061,,,,,,,2024-04-30,1,,,,,スギヤショウジ,0
102,1020001156961,新規,0,2024-04-30,2024-04-30,株式会社モリズドア,,株式会社,神奈川県,横浜市戸塚区,汲沢町５１０番地６８,,14,110,2450062,,,,,,,2024-04-30,1,,,,,モリズドア,0
103,1020001157002,新規,0,2024-04-30,2024-04-30,森ヘルスケア・サポート株式会社,,株式会社,神奈川県,横浜市磯子区,磯子７丁目１５番２－３１２号,,14,107,2350016,,,,,,,2024-04-30,1,,,,,モリヘルスケアサポート,0
107,1020003025999,新規,0,2024-04-30,2024-04-30,Ｑｒｉｓｉｓ．合同会社,,合同会社,神奈川県,横浜市中区,末広町２丁目４－１０ポルト関内４０２,,14,104,2310046,,,,,,,2024-04-30,1,,,,,キュリシス,0
108,1020003026015,新規,0,2024-04-30,2024-04-30,ＩＲトラスト合同会社,,合同会社,神奈川県,川崎市多摩区,登戸３２９２番地メゾンドピアル１０２,,14,135,2140014,,,,,,,2024-04-30,1,,,,,アイアールトラスト,0
109,1020003026023,新規,0,2024-04-30,2024-04-30,ｅｘｔｅｎｄ合同会社,,合同会社,神奈川県,横浜市鶴見区,東寺尾５丁目９－１７ＳＲＡｃａｄｅｍｉａ横浜３３０,,14,101,2300077,,,,,,,2024-04-30,1,,,,,エクステンド,0
111,1021001082082,新規,0,2024-04-30,2024-04-30,株式会社３８５,,株式会社,神奈川県,高座郡寒川町,一之宮５丁目４番８号ライオンズマンション寒川２－１００１,,14,321,2530111,,,,,,,2024-04-30,1,,,,,サンハチゴ,0
118,1030001160054,新規,0,2024-04-30,2024-04-30,株式会社オーア,,株式会社,埼玉県,川越市,新富町１丁目１８－２,,11,201,3500043,,,,,,,2024-04-30,1,,,,,オーア,0
119,1030001160087,新規,0,2024-04-30,2024-04-30,株式会社セレクト,,株式会社,埼玉県,久喜市,南栗橋８丁目１番地２４,,11,232,3491117,,,,,,,2024-04-30,1,,,,,セレクト,0
121,1030003024182,新規,0,2024-04-30,2024-04-30,合同会社アユス,,合同会社,埼玉県,鶴ヶ島市,大字上広谷１３２－９かすみコーポ２０２,,11,241,3502203,,,,,,,2024-04-30,1,,,,,アユス,0
127,1040001133348,新規,0,2024-04-30,2024-04-30,株式会社淺田興業,,株式会社,千葉県,流山市,加５丁目１６８３番地の２,,12,220,2700176,,,,,,,2024-04-30,1,,,,,アサダコウギョウ,0
128,1040001133372,新規,0,2024-04-30,2024-04-30,瑞江国際株式会社,,株式会社,千葉県,野田市,山崎２６０５番地コーポ福伸６７号室,,12,208,2780022,,,,,,,2024-04-30,1,,,,,ミズエコクサイ,0
132,1040003024883,新規,0,2024-04-30,2024-04-30,合同会社Ｎａｓｔｙ,,合同会社,千葉県,千葉市若葉区,加曽利町９２４‐１バードネイチャーＤ‐２０１,,12,104,2640017,,,,,,,2024-04-30,1,,,,,ナスティ,0
134,1050003008324,新規,0,2024-04-30,2024-04-30,Ａｂｕ　Ｚａｒ　Ｔｒａｄｉｎｇ合同会社,,合同会社,茨城県,古河市,尾崎２７７４番地２,,08,204,3060101,,,,,,,2024-04-30,1,,,,,アブザールトレーディング,0
149,1070001041688,新規,0,2024-04-30,2024-04-30,株式会社Ｔ．Ｒ,,株式会社,群馬県,高崎市,吉井町長根１３０１番地８,,10,202,3702127,,,,,,,2024-04-30,1,,,,,ティーアール,0
152,1080001026267,新規,0,2024-04-30,2024-04-30,株式会社ＳＨＡＲＫ,,株式会社,静岡県,焼津市,駅北４丁目４番６号,,22,212,4250028,,,,,,,2024-04-30,1,,,,,シャーク,0
157,1100001037410,新規,0,2024-04-30,2024-04-30,株式会社Ｄｉｃｅ,,株式会社,長野県,諏訪市,大手１丁目７番２号,,20,206,3920026,,,,,,,2024-04-30,1,,,,,ダイス,0
176,1120001264192,新規,0,2024-04-30,2024-04-30,株式会社レゼル,,株式会社,大阪府,大阪市浪速区,大国１丁目２番２号,,27,111,5560014,,,,,,,2024-04-30,1,,,,,レゼル,0
177,1120001264408,新規,0,2024-04-30,2024-04-30,株式会社ＰＥＴＡ　ＧＬＯＢＡＬ,,株式会社,大阪府,大阪市中央区,平野町１丁目６番６号,,27,128,5410046,,,,,,,2024-04-30,1,,,,,ペタグローバル,0
178,1120001264416,新規,0,2024-04-30,2024-04-30,株式会社Ｇａｍｉｆｙ,,株式会社,大阪府,大阪市西区,阿波座２丁目２番２０号オフィスポート本町ＷＥＳＴ２階Ｇ号室,,27,106,5500011,,,,,,,2024-04-30,1,,,,,ゲミファイ,0
194,1130001076918,新規,0,2024-04-30,2024-04-30,株式会社ＴＳＵＮＡＧＵ,,株式会社,京都府,京都市山科区,東野百拍子町１３－２６,,26,110,6078153,,,,,,,2024-04-30,1,,,,,ツナグ,0
195,1130001076926,新規,0,2024-04-30,2024-04-30,みんなの助手席株式会社,,株式会社,京都府,京都市左京区,田中西樋ノ口町２番地２１,,26,103,6068221,,,,,,,2024-04-30,1,,,,,ミンナノジョシュセキ,0
196,1130001076942,新規,0,2024-04-30,2024-04-30,株式会社陽あたりホーム,,株式会社,京都府,宇治市,小倉町蓮池１６６番地の６,,26,204,6110042,,,,,,,2024-04-30,1,,,,,ヒアタリホーム,0
197,1130001076950,新規,0,2024-04-30,2024-04-30,ＧＩＧ株式会社,,株式会社,京都府,京都市伏見区,深草野田町８－３丸喜ビル２階,,26,109,6120024,,,,,,,2024-04-30,1,,,,,ジーアイジー,0
204,1140003020492,新規,0,2024-04-30,2024-04-30,合同会社ヒロフク,,合同会社,兵庫県,神戸市東灘区,御影山手３丁目１４番７号エリーナ御影山手Ｇ号,,28,101,6580065,,,,,,,2024-04-30,1,,,,,ヒロフク,0
205,1150003003240,新規,0,2024-04-30,2024-04-30,合同会社Ｃｒｅａｔｉｖｅ　Ｌｉｆｅ,,合同会社,奈良県,香芝市,関屋１４０５番地１,,29,210,6390255,,,,,,,2024-04-30,1,,,,,クリエイティブライフ,0
215,1180001161161,新規,0,2024-04-30,2024-04-30,株式会社ドア・マド未来計画,,株式会社,愛知県,名古屋市緑区,相原郷２丁目１９０９番地,,23,114,4580033,,,,,,,2024-04-30,1,,,,,ドアマドミライケイカク,0
219,1180003026684,新規,0,2024-04-30,2024-04-30,コア・コンサルティング合同会社,,合同会社,愛知県,名古屋市港区,港栄２丁目１５番９号,,23,111,4550015,,,,,,,2024-04-30,1,,,,,コアコンサルティング,0
223,1180301038588,新規,0,2024-04-30,2024-04-30,株式会社張森,,株式会社,愛知県,豊田市,大林町１１丁目７番地１１,,23,211,4730902,,,,,,,2024-04-30,1,,,,,チャンセン,0
224,1180301038596,新規,0,2024-04-30,2024-04-30,株式会社アース,,株式会社,愛知県,岡崎市,大平町字天神前８番地１,,23,202,4440007,,,,,,,2024-04-30,1,,,,,アース,0
229,1200001042441,新規,0,2024-04-30,2024-04-30,株式会社ＦｉｎｄＣｒｅｓｔ,,株式会社,岐阜県,大垣市,禾森町６丁目１３番地ヨシムラビル１階,,21,202,5030852,,,,,,,2024-04-30,1,,,,,ファインドクレスト,0
237,1240001063145,新規,0,2024-04-30,2024-04-30,株式会社ＭＯＮＯＤＵＫＵＲＩ　ＳＰＲＥＡＤ広島,,株式会社,広島県,広島市中区,昭和町３番２６号,,34,101,7300046,,,,,,,2024-04-30,1,,,,,モノヅクリスプレッドヒロシマ,0
239,1260001039011,新規,0,2024-04-30,2024-04-30,美咲興業株式会社,,株式会社,岡山県,瀬戸内市,長船町八日市５０６番１,,33,212,7014272,,,,,,,2024-04-30,1,,,,,ミサキコウギョウ,0
240,1280003001834,新規,0,2024-04-30,2024-04-30,合同会社しあわせぞうさん,,合同会社,島根県,出雲市,大社町遙堪６６３番地２５,,32,203,6990731,,,,,,,2024-04-30,1,,,,,シアワセゾウサン,0
246,1290003015255,新規,0,2024-04-30,2024-04-30,合同会社福岡創生,,合同会社,福岡県,福岡市博多区,祇園町１番２０号スタービル,,40,132,8120038,,,,,,,2024-04-30,1,,,,,フクオカソウセイ,0
257,1330001032000,新規,0,2024-04-30,2024-04-30,高田養鶏場株式会社,,株式会社,熊本県,球磨郡あさぎり町,上東６３３番地,,43,514,8680421,,,,,,,2024-04-30,1,,,,,タカダヨウケイジョウ,0
259,1330003010334,新規,0,2024-04-30,2024-04-30,合同会社球磨ファーム６,,合同会社,熊本県,人吉市,上青井町１８０番地２４,,43,203,8680005,,,,,,,2024-04-30,1,,,,,クマファームシックス,0
265,1360001033581,新規,0,2024-04-30,2024-04-30,株式会社ＲＡＮＣＥ　ＡＵＴＯ,,株式会社,沖縄県,豊見城市,字翁長８５５番地５,,47,212,9010223,,,,,,,2024-04-30,1,,,,,ランスオート,0
267,1370001051236,新規,0,2024-04-30,2024-04-30,株式会社エンリッチオーシャンワークス,,株式会社,宮城県,気仙沼市,三作浜８１－１,,04,205,9880631,,,,,,,2024-04-30,1,,,,,エンリッチオーシャンワークス,0
269,1370002037267,新規,0,2024-04-30,2024-04-30,有限会社鈴木製氷,,有限会社,宮城県,仙台市青葉区,中江１丁目１６番６号,,04,101,9800001,,,,,,,2024-04-30,1,,,,,スズキセイヒョウ,0
276,1400003003256,新規,0,2024-04-30,2024-04-30,合同会社ｅｔｅｒｎａｌ　Ｗｉｎｄ,,合同会社,岩手県,盛岡市,永井２１地割１番地２７,,03,201,0200834,,,,,,,2024-04-30,1,,,,,エターナルウィンド,0
286,1430001091663,新規,0,2024-04-30,2024-04-30,株式会社ベースラインテクノロジー,,株式会社,北海道,札幌市南区,真駒内南町４丁目２‐５ライオンズマンション第３　３０９号室,,01,106,0050016,,,,,,,2024-04-30,1,,,,,ベースラインテクノロジー,0
287,1430001091671,新規,0,2024-04-30,2024-04-30,株式会社ローク,,株式会社,北海道,札幌市西区,西野三条３丁目７番２号,,01,107,0630033,,,,,,,2024-04-30,1,,,,,ローク,0
288,1430001091696,新規,0,2024-04-30,2024-04-30,株式会社ＷＩＳＨ,,株式会社,北海道,江別市,見晴台１１番地１１,,01,217,0670042,,,,,,,2024-04-30,1,,,,,ウィッシュ,0
292,1430003016271,新規,0,2024-04-30,2024-04-30,合同会社興辰,,合同会社,北海道,岩見沢市,大和四条７丁目３１－３ケーズコートＩＩＩ,00134578,01,210,0680854,,,,,,,2024-04-30,1,,,,,コウシン,0
296,1470001020172,新規,0,2024-04-30,2024-04-30,株式会社凜漆工芸,,株式会社,香川県,高松市,東山崎町３５２番地６,,37,201,7610312,,,,,,,2024-04-30,1,,,,,リンウルシコウゲイ,0
299,1490003001887,新規,0,2024-04-30,2024-04-30,合同会社いとなみ舎,,合同会社,高知県,土佐清水市,津呂２６番地１,,39,209,7870313,,,,,,,2024-04-30,1,,,,,イトナミシャ,0
304,1700150123909,新規,0,2024-04-30,2024-04-30,Ｎｏｋｉａ　Ｓｏｌｕｔｉｏｎｓ　ａｎｄ　Ｎｅｔｗｏｒｋｓ　Ｏｙ,,外国会社等,,,,,,,,Ｋａｒａｋａａｒｉ　７　０２６１０　Ｅｓｐｏｏ　Ｆｉｎｌａｎｄ,,,,,,2024-04-30,1,,,,,ノキアソリユーシヨンズアンドネツトワークスオーワイ,0
305,1700150123941,新規,0,2024-04-30,2024-04-30,ａｒｇｅｎｘ　ＢＶ,,外国会社等,,,,,,,,Ｉｎｄｕｓｔｒｉｅｐａｒｋ－Ｚｗｉｊｎａａｒｄｅ　７，９０５２　Ｚｗｉｊｎａａｒｄｅ，Ｂｅｌｇｉｕｍ,,,,,,2024-04-30,1,,,,,アルジエニクスビーブイ,0
320,2010001244171,新規,0,2024-04-30,2024-04-30,株式会社Ｇｅｔ　Ｖｉｅｗ,,株式会社,東京都,中央区,銀座１丁目１２－４,,13,102,1040061,,,,,,,2024-04-30,1,,,,,ゲットビュー,0
323,2010103002353,新規,0,2024-04-30,2024-04-30,ライトアロー合同会社,,合同会社,東京都,八王子市,上壱分方町２２６－３,,13,201,1930811,,,,,,,2024-04-30,1,,,,,ライトアロー,0
327,2010401182013,新規,0,2024-04-30,2024-04-30,ＳＡＫＥｈｕｂ株式会社,,株式会社,東京都,港区,北青山１丁目３番１号アールキューブ青山３階,,13,103,1070061,,,,,,,2024-04-30,1,,,,,サケハブ,0
331,2010403032488,新規,0,2024-04-30,2024-04-30,ＡＮＯＮ合同会社,,合同会社,東京都,港区,六本木７丁目１５番１３号１００２室,,13,103,1060032,,,,,,,2024-04-30,1,,,,,アノン,0
332,2010403032505,新規,0,2024-04-30,2024-04-30,ＧＶＳＪ０５合同会社,,合同会社,東京都,港区,六本木３丁目１６番２６号,,13,103,1060032,,,,,,,2024-04-30,1,,,,,ジーブイエスジェイゼロファイブ,0
333,2010403032513,新規,0,2024-04-30,2024-04-30,合同会社ベアラウンド,,合同会社,東京都,港区,北青山１丁目３番１号アールキューブ青山３階,,13,103,1070061,,,,,,,2024-04-30,1,,,,,ベアラウンド,0
337,2010603010797,新規,0,2024-04-30,2024-04-30,合同会社Ｂｌｏｏｄｙ　Ｍｏｏｎ,,合同会社,東京都,江東区,門前仲町２丁目２番４号,,13,108,1350048,,,,,,,2024-04-30,1,,,,,ブラッディムーン,0
352,2010901055164,新規,0,2024-04-30,2024-04-30,株式会社おきなや,,株式会社,東京都,世田谷区,世田谷４丁目３番１８号,,13,112,1540017,,,,,,,2024-04-30,1,,,,,オキナヤ,0
355,2011001161596,新規,0,2024-04-30,2024-04-30,ＳｍａｒｔＣｌｉｃｋ株式会社,,株式会社,東京都,渋谷区,代々木２丁目３２番２号セブンスターハイツ代々木２０８,,13,113,1510053,,,,,,,2024-04-30,1,,,,,スマートクリック,0
356,2011001161621,新規,0,2024-04-30,2024-04-30,株式会社Ｃｅｎｔｅｎａｒｉａｎ,,株式会社,東京都,目黒区,上目黒１丁目８番１０ー７０６号,,13,110,1530051,,,,,,,2024-04-30,1,,,,,センテナリアン,0
357,2011001161638,新規,0,2024-04-30,2024-04-30,株式会社ｓｅｉＡ,,株式会社,東京都,渋谷区,桜丘町２３番１７号シティコート桜丘４０８,,13,113,1500031,,,,,,,2024-04-30,1,,,,,セイエイ,0
358,2011001161662,新規,0,2024-04-30,2024-04-30,株式会社ＰｒｅｓｉｎｇＩＣ,,株式会社,東京都,渋谷区,神南１丁目１０番５号ラヴィスタ５Ｆ,,13,113,1500041,,,,,,,2024-04-30,1,,,,,プレジングアイシー,0
361,2011101106996,新規,0,2024-04-30,2024-04-30,ＦＵＧＯ　ＦＡＭＩＬＹ株式会社,,株式会社,東京都,新宿区,大久保１丁目１５－９グローリア初穂新宿ＩＩＩ３０３号,00134571,13,104,1690072,,,,,,,2024-04-30,1,,,,,フゴファミリ,0
362,2011101107160,新規,0,2024-04-30,2024-04-30,株式会社ｕｎｉｉｉ,,株式会社,東京都,新宿区,西新宿３丁目３番１３号西新宿水間ビル２Ｆ,,13,104,1600023,,,,,,,2024-04-30,1,,,,,ウニー,0
374,2011801044158,新規,0,2024-04-30,2024-04-30,株式会社Ｙｕｍｅａｃｉ,,株式会社,東京都,葛飾区,西亀有４丁目１９－５,,13,122,1250002,,,,,,,2024-04-30,1,,,,,ユメアシ,0
379,2012701018227,新規,0,2024-04-30,2024-04-30,スマートリンク株式会社,,株式会社,東京都,西東京市,中町６丁目６－７,,13,229,2020013,,,,,,,2024-04-30,1,,,,,スマートリンク,0
381,2012703002971,新規,0,2024-04-30,2024-04-30,合同会社リイズ,,合同会社,東京都,西東京市,谷戸町３丁目１０番３号ヒバリーヒルズ２０２号,,13,229,1880001,,,,,,,2024-04-30,1,,,,,リイズ,0
384,2013301052442,新規,0,2024-04-30,2024-04-30,株式会社ＵＮ,,株式会社,東京都,豊島区,南池袋３丁目１５番１０号,,13,116,1710022,,,,,,,2024-04-30,1,,,,,ウン,0
385,2013301052450,新規,0,2024-04-30,2024-04-30,株式会社ルネサンス,,株式会社,東京都,豊島区,上池袋１丁目９番８号,,13,116,1700012,,,,,,,2024-04-30,1,,,,,ルネサンス,0
395,2020001156804,新規,0,2024-04-30,2024-04-30,株式会社バツイチ,,株式会社,神奈川県,横浜市中区,長者町６丁目１１１番地横浜エクセレントＶＩＩＩ４０２号,00134567,14,104,2310033,,,,,,,2024-04-30,1,,,,,バツイチ,0
396,2020001156894,新規,0,2024-04-30,2024-04-30,株式会社上地工業,,株式会社,神奈川県,横浜市鶴見区,平安町２丁目２８番地１ヨコハマアイランドガーデン１０２２,,14,101,2300031,,,,,,,2024-04-30,1,,,,,ウエチコウギョウ,0
397,2020001156911,新規,0,2024-04-30,2024-04-30,Ｓａｋｕｒａ　Ｒｉｓｉｎｇ　Ｓｕｎ株式会社,,株式会社,神奈川県,横浜市港北区,下田町５丁目２１番１７－１号,,14,109,2230064,,,,,,,2024-04-30,1,,,,,サクラライジングサン,0
398,2020001156928,新規,0,2024-04-30,2024-04-30,株式会社ハピクリエイト,,株式会社,神奈川県,横浜市中区,本町４丁目４１番地Ｄ’グラフォート横浜１７０２号室,,14,104,2310005,,,,,,,2024-04-30,1,,,,,ハピクリエイト,0
399,2020001156952,新規,0,2024-04-30,2024-04-30,Ｅ旅行株式会社,,株式会社,神奈川県,川崎市川崎区,観音２丁目２１番２－３号,,14,131,2100831,,,,,,,2024-04-30,1,,,,,イーリョコウ,0
400,2020001156960,新規,0,2024-04-30,2024-04-30,株式会社Ｄｕｅｓｋ,,株式会社,神奈川県,横浜市港北区,下田町３丁目１９－１１,,14,109,2230064,,,,,,,2024-04-30,1,,,,,デュスク,0
401,2020001157001,新規,0,2024-04-30,2024-04-30,株式会社Ｗｉｓｔｅｒｉａｓ,,株式会社,神奈川県,横浜市都筑区,中川中央１丁目２２番１６号,,14,118,2240003,,,,,,,2024-04-30,1,,,,,ウィステリアス,0
423,2030001160045,新規,0,2024-04-30,2024-04-30,株式会社ダイカツ,,株式会社,埼玉県,さいたま市南区,松本４丁目６番５号,,11,108,3360035,,,,,,,2024-04-30,1,,,,,ダイカツ,0
424,2030001160086,新規,0,2024-04-30,2024-04-30,株式会社一京コンサルティング,,株式会社,埼玉県,富士見市,ふじみ野西２丁目１番地１アイムふじみ野タワー東館２１０８,,11,235,3540035,,,,,,,2024-04-30,1,,,,,イッケイコンサルティング,0
425,2030001160094,新規,0,2024-04-30,2024-04-30,株式会社ユスマイ,,株式会社,埼玉県,蕨市,中央３丁目２２番１５号金沢ビル２階,,11,223,3350004,,,,,,,2024-04-30,1,,,,,ユスマイ,0
429,2030003024181,新規,0,2024-04-30,2024-04-30,合同会社海彩水産,,合同会社,埼玉県,狭山市,大字東三ツ木７番地の１,,11,215,3501302,,,,,,,2024-04-30,1,,,,,ウミイロスイサン,0
435,2040001133330,新規,0,2024-04-30,2024-04-30,ＢＤ　Ｆｕｎｄ株式会社,,株式会社,千葉県,市川市,市川３丁目３６番８号,,12,203,2720034,,,,,,,2024-04-30,1,,,,,ビーディーファンド,0
438,2050001054690,新規,0,2024-04-30,2024-04-30,株式会社Ｍ＆Ｍ,,株式会社,茨城県,神栖市,平泉９０３番地１７８プリムヴェールＩ２０１,00134580,08,232,3140146,,,,,,,2024-04-30,1,,,,,エムアンドエム,0
439,2050001054699,新規,0,2024-04-30,2024-04-30,株式会社いばらき畑,,株式会社,茨城県,かすみがうら市,坂２７３０番地,,08,230,3000214,,,,,,,2024-04-30,1,,,,,イバラキバタケ,0
454,2100001037392,新規,0,2024-04-30,2024-04-30,株式会社ＭＩＫＯＴＯ,,株式会社,長野県,飯田市,鼎上山１７９０番地,,20,205,3950806,,,,,,,2024-04-30,1,,,,,ミコト,0
470,2120001264423,新規,0,2024-04-30,2024-04-30,ムーラン株式会社,,株式会社,大阪府,大阪市港区,八幡屋３丁目８番１６号,,27,107,5520014,,,,,,,2024-04-30,1,,,,,ムーラン,0
471,2120001264431,新規,0,2024-04-30,2024-04-30,未来貿易株式会社,,株式会社,大阪府,大阪市生野区,新今里５丁目４－６－１０３,,27,116,5440001,,,,,,,2024-04-30,1,,,,,ミライボウエキ,0
472,2120001264456,新規,0,2024-04-30,2024-04-30,朋友電設株式会社,,株式会社,大阪府,大阪市北区,菅栄町２番３号,,27,127,5300031,,,,,,,2024-04-30,1,,,,,ホウユウデンセツ,0
473,2120001264489,新規,0,2024-04-30,2024-04-30,株式会社Ｂｌｕｅ　Ｗｉｎｇ,,株式会社,大阪府,大阪市中央区,南船場２丁目１１番３０－４０１号,,27,128,5420081,,,,,,,2024-04-30,1,,,,,ブルーウイング,0
474,2120001264522,新規,0,2024-04-30,2024-04-30,株式会社ＮＡＭＢＡ,,株式会社,大阪府,大阪市中央区,城見２丁目１番６１号,,27,128,5400001,,,,,,,2024-04-30,1,,,,,ナンバ,0
477,2120003026474,新規,0,2024-04-30,2024-04-30,金猫合同会社,,合同会社,大阪府,大阪市此花区,西九条１丁目５番１１号,,27,104,5540012,,,,,,,2024-04-30,1,,,,,キンネコ,0
481,2120101069490,新規,0,2024-04-30,2024-04-30,株式会社ふぁーむｃｏ,,株式会社,大阪府,堺市中区,陶器北１７２５－６,,27,142,5998242,,,,,,,2024-04-30,1,,,,,ファームシーオー,0
483,2120103005799,新規,0,2024-04-30,2024-04-30,合同会社ＪＡＤＥ　ＣＯＭＰＡＮＹ,,合同会社,大阪府,羽曳野市,恵我之荘５丁目５番５号テラスハウスＡ,,27,222,5830886,,,,,,,2024-04-30,1,,,,,ジェイドカンパニー,0
484,2120105009848,新規,0,2024-04-30,2024-04-30,特定非営利活動法人スマイル,,その他の設立登記法人,大阪府,堺市西区,下田町３３－３,,27,144,5938329,,,,,,,2024-04-30,1,,,,,スマイル,0
488,2130003009511,新規,0,2024-04-30,2024-04-30,合同会社ｃｙｂｅｒ　ｅａｇｌｅ,,合同会社,京都府,舞鶴市,字余部下１１８３－５アピスカワイ４０５号室,,26,202,6250087,,,,,,,2024-04-30,1,,,,,サイバーイーグル,0
491,2140001134153,新規,0,2024-04-30,2024-04-30,株式会社スラッシュ,,株式会社,兵庫県,神戸市東灘区,森北町６丁目６－８ユニオンハイツ１０３,,28,101,6580001,,,,,,,2024-04-30,1,,,,,スラッシュ,0
492,2140001134236,新規,0,2024-04-30,2024-04-30,ＲＯＡＲ　Ｐａｒｔｎｅｒｓ株式会社,,株式会社,兵庫県,神戸市東灘区,住吉宮町６丁目２－７リアージュ御影１０２,,28,101,6580053,,,,,,,2024-04-30,1,,,,,ロアーパートナーズ,0
493,2140001134252,新規,0,2024-04-30,2024-04-30,株式会社Ｋｙｌｅ,,株式会社,兵庫県,神戸市東灘区,深江浜町１番１神戸市中央卸売市場東部市場内,,28,101,6580023,,,,,,,2024-04-30,1,,,,,カイル,0
501,2140005027064,新規,0,2024-04-30,2024-04-30,一般社団法人兵庫県中小企業家同友会,,その他の設立登記法人,兵庫県,神戸市中央区,御幸通６丁目１番２０号５階,,28,110,6510087,,,,,,,2024-04-30,1,,,,,ヒョウゴケンチュウショウキギョウカドウユウカイ,0
503,2160001025879,新規,0,2024-04-30,2024-04-30,株式会社愛古商事,,株式会社,滋賀県,愛知郡愛荘町,愛知川４９８番地４,,25,425,5291331,,,,,,,2024-04-30,1,,,,,アイコショウジ,0
506,2180001161152,新規,0,2024-04-30,2024-04-30,株式会社フリーリスク,,株式会社,愛知県,名古屋市中区,栄４丁目１３番１９号ＴＫビル,,23,106,4600008,,,,,,,2024-04-30,1,,,,,フリーリスク,0
507,2180001161169,新規,0,2024-04-30,2024-04-30,株式会社瀬戸サンショク,,株式会社,愛知県,瀬戸市,緑町１丁目８番地,,23,204,4890875,,,,,,,2024-04-30,1,,,,,セトサンショク,0
515,2180301038587,新規,0,2024-04-30,2024-04-30,株式会社Ｍａｓｔ　Ｈｏｌｄｉｎｇｓ,,株式会社,愛知県,豊橋市,前芝町字西青１番地１,,23,201,4410152,,,,,,,2024-04-30,1,,,,,マストホールディングス,0
516,2180301038595,新規,0,2024-04-30,2024-04-30,株式会社元気,,株式会社,愛知県,豊橋市,多米西町１丁目２３番地１、２階,,23,201,4400026,,,,,,,2024-04-30,1,,,,,ゲンキ,0
527,2250001020623,新規,0,2024-04-30,2024-04-30,株式会社Ｙｕｍｅｋａ　Ｇｌｏｂａｌ,,株式会社,山口県,岩国市,周東町下久原９１番地３,,35,208,7420417,,,,,,,2024-04-30,1,,,,,ユメカグローバル,0
528,2260001039010,新規,0,2024-04-30,2024-04-30,九電ホールディング株式会社,,株式会社,岡山県,岡山市北区,本町６番３６号,,33,101,7000901,,,,,,,2024-04-30,1,,,,,キュウデンホールディング,0
535,2290001105528,新規,0,2024-04-30,2024-04-30,株式会社ＡＮＰ,,株式会社,福岡県,福岡市早良区,野芥７丁目９番２１号,,40,137,8140171,,,,,,,2024-04-30,1,,,,,アンプ,0
540,2290805009742,新規,0,2024-04-30,2024-04-30,医療法人ＤｒｅａｍＣｒｅａｔｅ,,その他の設立登記法人,福岡県,北九州市小倉北区,足立３丁目３番２４号,,40,106,8020042,,,,,,,2024-04-30,1,,,,,ドリームクリエイト,0
542,2330003010333,新規,0,2024-04-30,2024-04-30,合同会社球磨ファーム５,,合同会社,熊本県,人吉市,上青井町１８０番地２４,,43,203,8680005,,,,,,,2024-04-30,1,,,,,クマファームファイブ,0
545,2360001033498,新規,0,2024-04-30,2024-04-30,株式会社農業生産法人パインバンブー観光農園,,株式会社,沖縄県,石垣市,字桃里伊野田１６５番地８２０,,47,207,9070241,,,,,,,2024-04-30,1,,,,,ノウギョウセイサンホウジンパインバンブーカンコウノウエン,0
546,2360001033572,新規,0,2024-04-30,2024-04-30,株式会社サンフィールド,,株式会社,沖縄県,那覇市,松川３丁目２１番３３号,,47,201,9020062,,,,,,,2024-04-30,1,,,,,サンフィールド,0
553,2380005012827,新規,0,2024-04-30,2024-04-30,浪江町商工事業協同組合,,その他の設立登記法人,福島県,双葉郡浪江町,大字幾世橋字芋頭４番地の２,,07,547,9791513,,,,,,,2024-04-30,1,,,,,ナミエマチショウコウ,0
557,2390003002242,新規,0,2024-04-30,2024-04-30,合同会社エスアイサービス,,合同会社,山形県,山形市,大字吉野宿５８番地,,06,201,9900883,,,,,,,2024-04-30,1,,,,,エスアイサービス,0
564,2430001091646,新規,0,2024-04-30,2024-04-30,株式会社学習デザイン研究所,,株式会社,北海道,札幌市中央区,南十三条西５丁目１番１２号,,01,101,0640913,,,,,,,2024-04-30,1,,,,,ガクシュウデザインケンキュウジョ,0
565,2430001091662,新規,0,2024-04-30,2024-04-30,イトの風株式会社,,株式会社,北海道,札幌市西区,西野六条４丁目５番１７号,,01,107,0630036,,,,,,,2024-04-30,1,,,,,イトノカゼ,0
566,2430001091670,新規,0,2024-04-30,2024-04-30,株式会社Ｎａｇｉプロモーション,,株式会社,北海道,札幌市豊平区,水車町５丁目５番１８－４０３号,,01,105,0620912,,,,,,,2024-04-30,1,,,,,ナギプロモーション,0
567,2430001091679,新規,0,2024-04-30,2024-04-30,株式会社ＭＥＬＢＥＣ,,株式会社,北海道,札幌市中央区,北四条西４丁目１番地加森ビル３四階,,01,101,0600004,,,,,,,2024-04-30,1,,,,,メルベック,0
568,2430001091687,新規,0,2024-04-30,2024-04-30,株式会社笹川家,,株式会社,北海道,札幌市中央区,北八条西１９丁目３５番地７１コローレ８１９－３０１号,,01,101,0600008,,,,,,,2024-04-30,1,,,,,ササカワケ,0
573,2490003001886,新規,0,2024-04-30,2024-04-30,合同会社くるくる,,合同会社,高知県,香南市,野市町西野３６９－４５,,39,211,7815232,,,,,,,2024-04-30,1,,,,,クルクル,0
577,2700150125169,新規,0,2024-04-30,2024-04-30,Ｈｏｎｇ　Ｋｏｎｇ　Ｓａｐｐｈｏ　Ａｎｄ　Ｇｏｄｓ　Ｇｒｏｕｐ　Ｃｏ．，Ｌｉｍｉｔｅｄ,,外国会社等,,,,,,,,ＲＭ４，１６／Ｆ，ＨＯ　ＫＩＮＧ　ＣＯＭＭ　ＣＴＲ，２－１６　ＦＡＹＵＥＮ　ＳＴ，ＭＯＮＧＫＯＫ　ＫＯＷＬＯＯＮ，ＨＯＮＧ　ＫＯＮＧ,,,,,,2024-04-30,1,,,,,ホンコンサッフォーアンドゴッズグループカンパニーリミテッド,0
591,3010001244393,新規,0,2024-04-30,2024-04-30,株式会社Ｏｎｅ‐ｏｎ‐Ｏｎｅ　Ｅｓｔａｔｅ,,株式会社,東京都,中央区,晴海３丁目１３番１－４９１０号,,13,102,1040053,,,,,,,2024-04-30,1,,,,,ワンオンワンエステート,0
592,3010001244443,新規,0,2024-04-30,2024-04-30,株式会社ＫＳＴ１１,,株式会社,東京都,千代田区,内幸町２丁目１番６号,,13,101,1000011,,,,,,,2024-04-30,1,,,,,ケイエスティーイレブン,0
595,3010005038214,新規,0,2024-04-30,2024-04-30,一般社団法人日本不動産取引ＣＳＲ評価機構,,その他の設立登記法人,東京都,中央区,日本橋堀留町１丁目１１番４号日本橋吉泉第二ビル５Ｆ,,13,102,1030012,,,,,,,2024-04-30,1,,,,,ニホンフドウサントリヒキシーエスアールヒョウカキコウ,0
602,3010401182128,新規,0,2024-04-30,2024-04-30,ポッシブルエンターテイメント株式会社,,株式会社,東京都,港区,六本木２丁目２番２号イトーピア六本木４０４,,13,103,1060032,,,,,,,2024-04-30,1,,,,,ポッシブルエンターテイメント,0
603,3010403032504,新規,0,2024-04-30,2024-04-30,ＧＶＳＪ０４合同会社,,合同会社,東京都,港区,六本木３丁目１６番２６号,,13,103,1060032,,,,,,,2024-04-30,1,,,,,ジーブイエスジェイゼロフォー,0
609,3010601065082,新規,0,2024-04-30,2024-04-30,株式会社ＭＵＲＡＣＯ,,株式会社,東京都,墨田区,業平５丁目９番６号,,13,107,1300002,,,,,,,2024-04-30,1,,,,,ムラコ,0
623,3010901055163,新規,0,2024-04-30,2024-04-30,株式会社翔向運送,,株式会社,東京都,世田谷区,世田谷１丁目１６番１４号,,13,112,1540017,,,,,,,2024-04-30,1,,,,,カナタウンソウ,0
635,3011101107143,新規,0,2024-04-30,2024-04-30,日東建設株式会社,,株式会社,東京都,新宿区,西新宿７丁目９番６号寿ビル,,13,104,1600023,,,,,,,2024-04-30,1,,,,,ニットウケンセツ,0
636,3011201025435,新規,0,2024-04-30,2024-04-30,株式会社Ｅｎｇｅｌｓ,,株式会社,東京都,中野区,中央１丁目３５－１毛利ビル４Ｆ,,13,114,1640011,,,,,,,2024-04-30,1,,,,,エンゲルス,0
640,3011301029617,新規,0,2024-04-30,2024-04-30,ＫＳ　Ｍｅｄｉｃａｌ　Ｐｌａｎｎｉｎｇ株式会社,,株式会社,東京都,杉並区,本天沼２丁目１番１４号,,13,115,1670031,,,,,,,2024-04-30,1,,,,,ケイエスメディカルプランニング,0
643,3011403004369,新規,0,2024-04-30,2024-04-30,Ｓｐｅｓ合同会社,,合同会社,東京都,板橋区,氷川町１番１２号,,13,119,1730013,,,,,,,2024-04-30,1,,,,,スペース,0
644,3011501030606,新規,0,2024-04-30,2024-04-30,勝嘉株式会社,,株式会社,東京都,荒川区,南千住２丁目１６番９－５０３号,,13,118,1160003,,,,,,,2024-04-30,1,,,,,カツヨシ,0
645,3011503006042,新規,0,2024-04-30,2024-04-30,合同会社ＮＯＴＩＣＥ,,合同会社,東京都,北区,桐ケ丘２丁目１１番３８号,,13,117,1150054,,,,,,,2024-04-30,1,,,,,ノーティス,0
646,3011505002626,新規,0,2024-04-30,2024-04-30,一般社団法人賢寿医療,,その他の設立登記法人,東京都,荒川区,東日暮里６丁目６０番５号ＣＯＣＯＳＰＡＣＥ日暮里６階,,13,118,1160014,,,,,,,2024-04-30,1,,,,,ケンジュイリョウ,0
650,3011801044149,新規,0,2024-04-30,2024-04-30,株式会社ピーシーズ商会,,株式会社,東京都,葛飾区,堀切２丁目６５番１９号,,13,122,1240006,,,,,,,2024-04-30,1,,,,,ピーシーズショウカイ,0
651,3011801044157,新規,0,2024-04-30,2024-04-30,株式会社千秋,,株式会社,東京都,葛飾区,東堀切３丁目３１番８号,,13,122,1240004,,,,,,,2024-04-30,1,,,,,センシュウ,0
666,3020001156927,新規,0,2024-04-30,2024-04-30,株式会社安永ペイント,,株式会社,神奈川県,川崎市中原区,小杉町１丁目５２９番地２、５０２,,14,133,2110063,,,,,,,2024-04-30,1,,,,,ヤスナガペイント,0
678,3020003026013,新規,0,2024-04-30,2024-04-30,ＴＨエンターテイメント合同会社,,合同会社,神奈川県,横浜市中区,曙町１丁目５－４,,14,104,2310057,,,,,,,2024-04-30,1,,,,,ティーエイチエンターテイメント,0
679,3020003026021,新規,0,2024-04-30,2024-04-30,Ｗｉｌｌ　ｂｅ合同会社,,合同会社,神奈川県,横浜市都筑区,川和町１２０９番地４,,14,118,2240057,,,,,,,2024-04-30,1,,,,,ウイルビー,0
680,3020003026046,新規,0,2024-04-30,2024-04-30,合同会社ｗｏｕｓｅ　ｗｏｕｓｅ,,合同会社,神奈川県,川崎市宮前区,野川台３丁目５番２号,,14,136,2160043,,,,,,,2024-04-30,1,,,,,ワーズワース,0
684,3021003014453,新規,0,2024-04-30,2024-04-30,合同会社プチ・カグヤ,,合同会社,神奈川県,相模原市南区,上鶴間本町３丁目１４番２５号ルミエールＫ４０２,,14,153,2520318,,,,,,,2024-04-30,1,,,,,プチカグヤ,0
691,3030001160044,新規,0,2024-04-30,2024-04-30,株式会社Ｅ‐ｓｔｙｌｅ,,株式会社,埼玉県,さいたま市緑区,東浦和４丁目１番地２４－２０２,,11,109,3360926,,,,,,,2024-04-30,1,,,,,イースタイル,0
692,3030001160077,新規,0,2024-04-30,2024-04-30,株式会社ミスターセラミック,,株式会社,埼玉県,春日部市,大場９２０番地１ダイアパレス武里ウイステリア,,11,214,3440021,,,,,,,2024-04-30,1,,,,,ミスターセラミック,0
693,3030001160093,新規,0,2024-04-30,2024-04-30,株式会社リトルウエスト,,株式会社,埼玉県,さいたま市南区,別所７丁目２番１－６０８号,,11,108,3360021,,,,,,,2024-04-30,1,,,,,リトルウエスト,0
701,3040001133379,新規,0,2024-04-30,2024-04-30,株式会社Ｉ・Ｆコンサルティング,,株式会社,千葉県,習志野市,本大久保３丁目８番２６号,,12,216,2750012,,,,,,,2024-04-30,1,,,,,アイエフコンサルティング,0
708,3050003008330,新規,0,2024-04-30,2024-04-30,ＧＡＭＡＧＥ　ＥＮＴＥＲＰＲＩＳＥＳ合同会社,,合同会社,茨城県,龍ケ崎市,４８５７－８ハイネスパーク１０３,,08,208,3010000,,,,,,,2024-04-30,1,,,,,ガマゲエンタープライズ,0
712,3100003007517,新規,0,2024-04-30,2024-04-30,成＿合同会社,00134573,合同会社,長野県,上伊那郡宮田村,９１番地６,,20,388,3994301,,,,,,,2024-04-30,1,,,,,セイキン,0
721,3120001264307,新規,0,2024-04-30,2024-04-30,Ｅｍｅｒａｌｄ株式会社,,株式会社,大阪府,大阪市港区,田中１丁目１３－５,,27,107,5520005,,,,,,,2024-04-30,1,,,,,エムラルド,0
722,3120001264406,新規,0,2024-04-30,2024-04-30,株式会社Ｇａｒｄｅｎ皓,,株式会社,大阪府,枚方市,養父丘２丁目３番１５号,,27,210,5731134,,,,,,,2024-04-30,1,,,,,ガーデンコウ,0
723,3120001264447,新規,0,2024-04-30,2024-04-30,嵩寧株式会社,,株式会社,大阪府,大阪市港区,市岡元町３丁目１３番５－４０１号,,27,107,5520002,,,,,,,2024-04-30,1,,,,,タカネ,0
724,3120001264463,新規,0,2024-04-30,2024-04-30,康藍株式会社,,株式会社,大阪府,大阪市大正区,三軒家西３丁目４番１６号中山ビル３０７Ｂ,,27,108,5510001,,,,,,,2024-04-30,1,,,,,コウラン,0
725,3120001264587,新規,0,2024-04-30,2024-04-30,共栄株式会社,,株式会社,大阪府,大阪市東住吉区,住道矢田３丁目３番１７号,,27,121,5460022,,,,,,,2024-04-30,1,,,,,キョウエイ,0
732,3120903005147,新規,0,2024-04-30,2024-04-30,イデアマネージメント合同会社,,合同会社,大阪府,高槻市,大手町３番３４号,,27,207,5690078,,,,,,,2024-04-30,1,,,,,イデアマネージメント,0
734,3122001038046,新規,0,2024-04-30,2024-04-30,株式会社ＵＬＴ,,株式会社,大阪府,東大阪市,山手町３－１５,,27,227,5798022,,,,,,,2024-04-30,1,,,,,ユーエルティー,0
737,3130001076874,新規,0,2024-04-30,2024-04-30,ＤＴＦ株式会社,,株式会社,京都府,京都市下京区,深草町５８６－１ＡＤＣＯＭビル４階,,26,106,6008408,,,,,,,2024-04-30,1,,,,,ディーティーエフ,0
739,3130005017081,新規,0,2024-04-30,2024-04-30,特定非営利活動法人約束の虹,,その他の設立登記法人,京都府,京都市伏見区,中島外山町１７番地,,26,109,6128455,,,,,,,2024-04-30,1,,,,,ヤクソクノニジ,0
747,3140001134210,新規,0,2024-04-30,2024-04-30,株式会社ナガタ,,株式会社,兵庫県,神戸市須磨区,白川台６丁目４番４４号,,28,107,6540103,,,,,,,2024-04-30,1,,,,,ナガタ,0
748,3140001134219,新規,0,2024-04-30,2024-04-30,株式会社ＮＥＬ　ｉｎｎｏｖａｔｉｏｎ,,株式会社,兵庫県,神戸市須磨区,飛松町２丁目１－１７,,28,107,6540012,,,,,,,2024-04-30,1,,,,,ネルイノベーション,0
749,3140001134227,新規,0,2024-04-30,2024-04-30,株式会社Ｌｉｅｎ,,株式会社,兵庫県,尼崎市,武庫川町４丁目１７－１－１０３,,28,202,6600084,,,,,,,2024-04-30,1,,,,,リアン,0
750,3140001134251,新規,0,2024-04-30,2024-04-30,株式会社サンピーク,,株式会社,兵庫県,明石市,大久保町江井島７５３番地の１,,28,203,6740064,,,,,,,2024-04-30,1,,,,,サンピーク,0
755,3140003020499,新規,0,2024-04-30,2024-04-30,ＷＥＮＱＩ　ＪＡＰＡＮ合同会社,,合同会社,兵庫県,神戸市東灘区,御影山手１丁目１６番４号,,28,101,6580065,,,,,,,2024-04-30,1,,,,,ウェンチージャパン,0
768,3180003026690,新規,0,2024-04-30,2024-04-30,合同会社ＦＵＪＩコンサルティング,,合同会社,愛知県,一宮市,木曽川町門間字下流３５５３番地,,23,203,4930002,,,,,,,2024-04-30,1,,,,,フジコンサルティング,0
772,3180301038578,新規,0,2024-04-30,2024-04-30,株式会社グラシオン仁大,,株式会社,愛知県,岡崎市,戸崎町字榎ケ坪２６グラシオン仁大７０２,,23,202,4440840,,,,,,,2024-04-30,1,,,,,グラシオンジンダイ,0
773,3180301038586,新規,0,2024-04-30,2024-04-30,株式会社弘伸ホールディングス,,株式会社,愛知県,刈谷市,東新町５丁目２０９番地,,23,210,4480031,,,,,,,2024-04-30,1,,,,,コウシンホールディングス,0
774,3180301038594,新規,0,2024-04-30,2024-04-30,株式会社Ｋ．Ｉ．Ｅ,,株式会社,愛知県,西尾市,吉良町岡山若宮前２０番地１,,23,213,4440531,,,,,,,2024-04-30,1,,,,,ケイアイイー,0
782,3200001042448,新規,0,2024-04-30,2024-04-30,株式会社福富,,株式会社,岐阜県,岐阜市,安食１２２８番地５,,21,201,5011109,,,,,,,2024-04-30,1,,,,,フクトミ,0
785,3210001019742,新規,0,2024-04-30,2024-04-30,株式会社わかさ園,,株式会社,福井県,三方上中郡若狭町,新道第７７号１６番地の１,,18,501,9191531,,,,,,,2024-04-30,1,,,,,ワカサエン,0
795,3260003004663,新規,0,2024-04-30,2024-04-30,合同会社綾なす織りなす編社,,合同会社,岡山県,岡山市北区,丸の内１丁目１番５号,,33,101,7000823,,,,,,,2024-04-30,1,,,,,アヤナスオリナスヘンシャ,0
799,3290001105543,新規,0,2024-04-30,2024-04-30,株式会社ナインステーツパートナーズ,,株式会社,福岡県,福岡市中央区,大名２丁目１０番１号,,40,133,8100041,,,,,,,2024-04-30,1,,,,,ナインステーツパートナーズ,0
800,3290001105642,新規,0,2024-04-30,2024-04-30,Ｔｒｉｌｌｉｏｎｓ　Ｊａｐａｎ株式会社,,株式会社,福岡県,福岡市中央区,荒戸２丁目４番３号,,40,133,8100062,,,,,,,2024-04-30,1,,,,,トリリオンズジャパン,0
814,3330003010332,新規,0,2024-04-30,2024-04-30,合同会社球磨ファーム２,,合同会社,熊本県,人吉市,上青井町１８０番地２４,,43,203,8680005,,,,,,,2024-04-30,1,,,,,クマファームツー,0
819,3360001033571,新規,0,2024-04-30,2024-04-30,Ｓａｙａ’ｓ　ｈｏｕｓｅ株式会社,,株式会社,沖縄県,中頭郡北谷町,字港１１番地２１ＳｅａｓｉｄｅＴｅｒｒａｃｅＭｉｎａｔｏ２０２,,47,326,9040114,,,,,,,2024-04-30,1,,,,,サヤズハウス,0
823,3370003006590,新規,0,2024-04-30,2024-04-30,藤商事合同会社,,合同会社,宮城県,仙台市宮城野区,燕沢東３丁目１５番１２号,,04,102,9830822,,,,,,,2024-04-30,1,,,,,フジショウジ,0
828,3380001034493,新規,0,2024-04-30,2024-04-30,福昇建設株式会社,,株式会社,福島県,郡山市,島２丁目３８番１６号新さくらビル２０２号,,07,203,9638034,,,,,,,2024-04-30,1,,,,,フクショウケンセツ,0
831,3380003005749,新規,0,2024-04-30,2024-04-30,合同会社ふっくら,,合同会社,福島県,須賀川市,本町６４番地７,,07,207,9620832,,,,,,,2024-04-30,1,,,,,フックラ,0
832,3380005012826,新規,0,2024-04-30,2024-04-30,一般社団法人よりそう相続サロン,,その他の設立登記法人,福島県,福島市,栄町６番６号福島セントランドビル１階,,07,201,9608031,,,,,,,2024-04-30,1,,,,,ヨリソウソウゾクサロン,0
847,3430001091678,新規,0,2024-04-30,2024-04-30,株式会社臣一,,株式会社,北海道,北広島市,希望ヶ丘２丁目１番地５９,,01,234,0611261,,,,,,,2024-04-30,1,,,,,タカイチ,0
848,3460103001615,新規,0,2024-04-30,2024-04-30,合同会社もり,,合同会社,北海道,帯広市,西十五条南１１丁目１番地５７,,01,207,0800025,,,,,,,2024-04-30,1,,,,,モリ,0
851,3490001010756,新規,0,2024-04-30,2024-04-30,株式会社ＳＱＵＡＤ　ＯＮＥ,,株式会社,高知県,高知市,塚ノ原３８９番地３,,39,201,7800952,,,,,,,2024-04-30,1,,,,,スクワッドワン,0
852,3500001025587,新規,0,2024-04-30,2024-04-30,株式会社山瀬鮮魚,,株式会社,愛媛県,宇和島市,保手１丁目３番６号,,38,203,7980088,,,,,,,2024-04-30,1,,,,,ヤマセセンギョ,0
857,3500005008704,新規,0,2024-04-30,2024-04-30,一般社団法人四国ピックルボール協会,,その他の設立登記法人,愛媛県,松山市,和泉南６丁目４番２６号,,38,201,7900941,,,,,,,2024-04-30,1,,,,,シコクピックルボールキョウカイ,0
858,3700150125168,新規,0,2024-04-30,2024-04-30,ｓｈｅｎｚｈｅｎｓｈｉｊｉｎｐａｉｚｈｕａｎｇｓｈｉｙｏｕｘｉａｎｇｇｏｎｇｓｉ,,外国会社等,,,,,,,,Ｓｈｅｎｚｈｅｎｓｈｉｂａｏａｎｑｕｓｏｎｇｇａｎｇｊｉｅｄａｏｈｏｎｇｘｉｎｇｓｈｅｑｕｈａｏｙｏｎｇｘｉｎｑｕ１３５ｈａｏ　１０１－１０２,,,,,,2024-04-30,1,,,,,シェンジェンシジンパイジュアンシヨウシエンゴンスー,0
865,4010001244269,新規,0,2024-04-30,2024-04-30,株式会社スタンダードセールス,,株式会社,東京都,中央区,晴海２丁目３番３０－３４０５ザパークハウス晴海タワーズクロノレジデンス,,13,102,1040053,,,,,,,2024-04-30,1,,,,,スタンダードセールス,0
866,4010001244335,新規,0,2024-04-30,2024-04-30,株式会社Ａｉｃｕｒｉｏｎ,,株式会社,東京都,文京区,本郷６丁目２５番１４号,,13,105,1130033,,,,,,,2024-04-30,1,,,,,アイキュリオン,0
867,4010001244368,新規,0,2024-04-30,2024-04-30,株式会社ヒューマンリンク,,株式会社,東京都,中央区,銀座１丁目２２番１１号銀座大竹ビジデンス２階,,13,102,1040061,,,,,,,2024-04-30,1,,,,,ヒューマンリンク,0
870,4010003043363,新規,0,2024-04-30,2024-04-30,合同会社アトリエソウラン,,合同会社,東京都,中央区,入船２丁目２番３―５０３号,,13,102,1040042,,,,,,,2024-04-30,1,,,,,アトリエソウラン,0
871,4010003043603,新規,0,2024-04-30,2024-04-30,デロイトトーマツファミリーオフィスサービス合同会社,,合同会社,東京都,千代田区,丸の内３丁目３番１号新東京ビル,,13,101,1000005,,,,,,,2024-04-30,1,,,,,デロイトトーマツファミリーオフィスサービス,0
873,4010005038246,新規,0,2024-04-30,2024-04-30,一般社団法人ＮＵＴＨ,,その他の設立登記法人,東京都,中央区,八丁堀４丁目２番１０号ＡＯＪ税理士法人内,,13,102,1040032,,,,,,,2024-04-30,1,,,,,ヌース,0
876,4010101016114,新規,0,2024-04-30,2024-04-30,株式会社Ｌｉｎｋｖｅｌｌ,,株式会社,東京都,八王子市,打越町２０１４番地８シティハウス八王子北野ステーションコート１４０２号,,13,201,1920911,,,,,,,2024-04-30,1,,,,,リンクヴェル,0
882,4010401182052,新規,0,2024-04-30,2024-04-30,ＬＩＭＥＬＩＧＨＴ株式会社,,株式会社,東京都,港区,六本木３丁目４番２４号六本木足立ビル１０１,,13,103,1060032,,,,,,,2024-04-30,1,,,,,ライムライト,0
883,4010401182093,新規,0,2024-04-30,2024-04-30,ｈｉｒｏ　ｓｔａｇｅ株式会社,,株式会社,東京都,港区,新橋２丁目５番５号,,13,103,1050004,,,,,,,2024-04-30,1,,,,,ヒロステージ,0
884,4010401182127,新規,0,2024-04-30,2024-04-30,株式会社ｍｉｇｎｏｎ,,株式会社,東京都,港区,白金６丁目２３番３－４０２号,,13,103,1080072,,,,,,,2024-04-30,1,,,,,ミノン,0
886,4010403032503,新規,0,2024-04-30,2024-04-30,ＧＶＳＪ０３合同会社,,合同会社,東京都,港区,六本木３丁目１６番２６号,,13,103,1060032,,,,,,,2024-04-30,1,,,,,ジーブイエスジェイゼロスリー,0
889,4010601065098,新規,0,2024-04-30,2024-04-30,株式会社ハラダダイニング,,株式会社,東京都,江東区,南砂５丁目１３番２３号,,13,108,1360076,,,,,,,2024-04-30,1,,,,,ハラダダイニング,0
902,4010901055162,新規,0,2024-04-30,2024-04-30,株式会社ＳＫＹ,,株式会社,東京都,世田谷区,三宿１丁目１番３号－７０２,,13,112,1540005,,,,,,,2024-04-30,1,,,,,スカイ,0
903,4010903009001,新規,0,2024-04-30,2024-04-30,合同会社ｎｋ．,,合同会社,東京都,世田谷区,等々力３丁目３３番２５号,,13,112,1580082,,,,,,,2024-04-30,1,,,,,エヌケー,0
907,4011001161644,新規,0,2024-04-30,2024-04-30,志能美クリエイティブ株式会社,,株式会社,東京都,渋谷区,渋谷２丁目１９－１５宮益坂ビルディング６０９,,13,113,1500002,,,,,,,2024-04-30,1,,,,,シノビクリエイティブ,0
913,4011101107068,新規,0,2024-04-30,2024-04-30,イエン・カーン・インベストメント株式会社,,株式会社,東京都,新宿区,新宿１丁目１５番６号,,13,104,1600022,,,,,,,2024-04-30,1,,,,,イエンカーンインベストメント,0
914,4011101107126,新規,0,2024-04-30,2024-04-30,株式会社Ｗｅａｌｔｈ　Ａｄｖｅｒｔ,,株式会社,東京都,新宿区,富久町１５番１－３３２０号,,13,104,1620067,,,,,,,2024-04-30,1,,,,,ウェルスアドバード,0
915,4011101107150,新規,0,2024-04-30,2024-04-30,新＿房産株式会社,00134572,株式会社,東京都,新宿区,百人町３丁目５番３号,,13,104,1690073,,,,,,,2024-04-30,1,,,,,シンシンボウサン,0
917,4011301029616,新規,0,2024-04-30,2024-04-30,Ｎフロンティア株式会社,,株式会社,東京都,杉並区,堀ノ内２丁目１５番１７号,,13,115,1660013,,,,,,,2024-04-30,1,,,,,エヌフロンティア,0
918,4011301029624,新規,0,2024-04-30,2024-04-30,株式会社マジでうまい,,株式会社,東京都,杉並区,下井草１丁目２９番４号大熊レヂデンス２０２,,13,115,1670022,,,,,,,2024-04-30,1,,,,,マジデウマイ,0
921,4011401026026,新規,0,2024-04-30,2024-04-30,株式会社サン・バディーズ,,株式会社,東京都,板橋区,高島平３丁目１０番１４－４０４号,,13,119,1750082,,,,,,,2024-04-30,1,,,,,サンバディーズ,0
922,4011403004368,新規,0,2024-04-30,2024-04-30,合同会社メゾンＴ．Ｍ．Ｓ．Ｋ,,合同会社,東京都,板橋区,若木３丁目９番８号,,13,119,1740065,,,,,,,2024-04-30,1,,,,,メゾンティーエムエスケー,0
934,4012801023133,新規,0,2024-04-30,2024-04-30,Ａ＆Ｌ株式会社,,株式会社,東京都,国立市,東３丁目２９番地の１５,,13,215,1860002,,,,,,,2024-04-30,1,,,,,エーアンドエル,0
935,4013101009401,新規,0,2024-04-30,2024-04-30,株式会社テック,,株式会社,東京都,青梅市,成木２丁目１２８番地の１,,13,205,1980001,,,,,,,2024-04-30,1,,,,,テック,0
940,4013303007120,新規,0,2024-04-30,2024-04-30,Ｍａｘｔｉｅ合同会社,,合同会社,東京都,豊島区,目白４丁目３１番地２５号,,13,116,1710031,,,,,,,2024-04-30,1,,,,,マックスタイ,0
942,4020001156975,新規,0,2024-04-30,2024-04-30,ネクストエネルギー株式会社,,株式会社,神奈川県,横浜市保土ケ谷区,岩井町５０長谷川ビル２０３,,14,106,2400023,,,,,,,2024-04-30,1,,,,,ネクストエネルギー,0
943,4020001156983,新規,0,2024-04-30,2024-04-30,旬香株式会社,,株式会社,神奈川県,横浜市中区,長者町５丁目７５－１－５１４,,14,104,2310033,,,,,,,2024-04-30,1,,,,,シュンコウ,0
954,4020005016390,新規,0,2024-04-30,2024-04-30,特定非営利活動法人ＨｐＲｕｎ,,その他の設立登記法人,神奈川県,横浜市旭区,金が谷１丁目６番７－４号,,14,112,2410812,,,,,,,2024-04-30,1,,,,,エイチピーラン,0
957,4021003014386,新規,0,2024-04-30,2024-04-30,合同会社ＢｅａｕｔｙＨａｃｋ,,合同会社,神奈川県,秦野市,北矢名４９番１号プラザＯＮＥ１階,,14,211,2570006,,,,,,,2024-04-30,1,,,,,ビューティハック,0
970,4030001159960,新規,0,2024-04-30,2024-04-30,今日社株式会社,,株式会社,埼玉県,幸手市,北１丁目２６番７号,,11,240,3400111,,,,,,,2024-04-30,1,,,,,キョウシャ,0
971,4030001160076,新規,0,2024-04-30,2024-04-30,株式会社Ｙ＆Ｋ,,株式会社,埼玉県,春日部市,上大増新田５３１番地５,,11,214,3440037,,,,,,,2024-04-30,1,,,,,ワイアンドケイ,0
975,4030002125466,新規,0,2024-04-30,2024-04-30,有限会社原口工務店,,有限会社,埼玉県,桶川市,北１丁目１７番１６号,,11,231,3630011,,,,,,,2024-04-30,1,,,,,ハラグチコウムテン,0
978,4030003024130,新規,0,2024-04-30,2024-04-30,合同会社綴,,合同会社,埼玉県,春日部市,中央６丁目１番地２０号エース春日部中央ビル３階,,11,214,3440067,,,,,,,2024-04-30,1,,,,,ツヅリ,0
979,4030003024171,新規,0,2024-04-30,2024-04-30,合同会社大斗,,合同会社,埼玉県,富士見市,鶴瀬東２丁目１７番３３号,,11,235,3540024,,,,,,,2024-04-30,1,,,,,ハルト,0
982,4040001133337,新規,0,2024-04-30,2024-04-30,株式会社エスピー・コーポレーションズ,,株式会社,千葉県,柏市,増尾台２丁目１６番１号,,12,217,2770052,,,,,,,2024-04-30,1,,,,,エスピーコーポレーションズ,0
983,4040001133353,新規,0,2024-04-30,2024-04-30,ＯｎｅＡｒｔ株式会社,,株式会社,千葉県,船橋市,高野台５丁目２０番２２号,,12,204,2740801,,,,,,,2024-04-30,1,,,,,ワンアート,0
988,4050001054689,新規,0,2024-04-30,2024-04-30,株式会社ＮＯ．ＤＩＳＴＡＮＣＥ,,株式会社,茨城県,神栖市,平泉９０３番地１７８プリムヴェールＩ２０１,00134579,08,232,3140146,,,,,,,2024-04-30,1,,,,,ノーディスタンス,0
998,4080003003187,新規,0,2024-04-30,2024-04-30,合同会社アベイル,,合同会社,静岡県,静岡市駿河区,下川原２丁目２８番３２－２号,,22,102,4210113,,,,,,,2024-04-30,1,,,,,,0
1011,4120001264454,新規,0,2024-04-30,2024-04-30,株式会社大林キャピタル,,株式会社,大阪府,大阪市中央区,平野町３丁目４番２号，ＮＳビル５階,,27,128,5410046,,,,,,,2024-04-30,1,,,,,オオバヤシキャピタル,0
1012,4120001264462,新規,0,2024-04-30,2024-04-30,信索株式会社,,株式会社,大阪府,大阪市大正区,三軒家西３丁目４番１６号中山ビル１００２,,27,108,5510001,,,,,,,2024-04-30,1,,,,,シンソ,0
1013,4120001264470,新規,0,2024-04-30,2024-04-30,日本成成株式会社,,株式会社,大阪府,大阪市淀川区,西宮原２丁目６番１６号新大阪コーポビアネーズ１１３９号室,,27,123,5320004,,,,,,,2024-04-30,1,,,,,ニホンセイセイ,0
1014,4120001264504,新規,0,2024-04-30,2024-04-30,エックスサーバーレジストリ株式会社,,株式会社,大阪府,大阪市北区,大深町４番２０号グランフロント大阪タワーＡ,,27,127,5300011,,,,,,,2024-04-30,1,,,,,エックスサーバーレジストリ,0
1015,4120001264512,新規,0,2024-04-30,2024-04-30,株式会社凛,,株式会社,大阪府,大阪市都島区,東野田町２丁目９番２３号,,27,102,5340024,,,,,,,2024-04-30,1,,,,,リン,0
1018,4120003026456,新規,0,2024-04-30,2024-04-30,坂野商店合同会社,,合同会社,大阪府,大阪市福島区,鷺洲４丁目２番１０－５０３号,,27,103,5530002,,,,,,,2024-04-30,1,,,,,サカノショウテン,0
1022,4120901049112,新規,0,2024-04-30,2024-04-30,株式会社ヒトフル,,株式会社,大阪府,箕面市,彩都粟生南４丁目１番５－１０５号,,27,220,5620028,,,,,,,2024-04-30,1,,,,,ヒトフル,0
1029,4130001076923,新規,0,2024-04-30,2024-04-30,ＹＬＭ株式会社,,株式会社,京都府,京都市上京区,千本通丸太町上る小山町８７７－２,,26,102,6028157,,,,,,,2024-04-30,1,,,,,ワイエルエム,0
1030,4130001076948,新規,0,2024-04-30,2024-04-30,株式会社ＯＮＥ,,株式会社,京都府,京都市下京区,深草町５８５番地１シャトーレスト２０１,,26,106,6008408,,,,,,,2024-04-30,1,,,,,ワン,0
1033,4140001134184,新規,0,2024-04-30,2024-04-30,株式会社ＹＵＫＵＹＯ,,株式会社,兵庫県,尼崎市,栗山町１丁目２３番３２－１０２号,,28,202,6610013,,,,,,,2024-04-30,1,,,,,ユクヨ,0
1034,4140001134259,新規,0,2024-04-30,2024-04-30,株式会社ＡＲＩＴＡ,,株式会社,兵庫県,神戸市須磨区,菅の台５丁目３番地,,28,107,6540143,,,,,,,2024-04-30,1,,,,,アリタ,0
1036,4140003020507,新規,0,2024-04-30,2024-04-30,合同会社ＲＳＫ,,合同会社,兵庫県,神戸市東灘区,住吉東町４丁目８番１１－９０２号,,28,101,6580052,,,,,,,2024-04-30,1,,,,,アールエスケー,0
1040,4160001025877,新規,0,2024-04-30,2024-04-30,株式会社近江フィンテック,,株式会社,滋賀県,米原市,米原西２９番地スカイビル４階,,25,214,5210015,,,,,,,2024-04-30,1,,,,,オウミフィンテック,0
1047,4180003026698,新規,0,2024-04-30,2024-04-30,合同会社ＳＫ興業,,合同会社,愛知県,名古屋市北区,福徳町２丁目２番地,,23,103,4620052,,,,,,,2024-04-30,1,,,,,エスケーコウギョウ,0
1051,4180301038585,新規,0,2024-04-30,2024-04-30,株式会社ＮＧＦＰＤＣ,,株式会社,愛知県,豊田市,八草町大田１１９０番地２,,23,211,4700356,,,,,,,2024-04-30,1,,,,,エヌジーエフピーディーシー,0
1052,4180301038593,新規,0,2024-04-30,2024-04-30,株式会社ＮＡＲＵ．ｅｓｔｈｅｔｉｃ,,株式会社,愛知県,額田郡幸田町,大字大草字大正３番地５,,23,501,4440103,,,,,,,2024-04-30,1,,,,,ナルエステティック,0
1059,4210001019741,新規,0,2024-04-30,2024-04-30,株式会社ＢＩＧ　ＢＯＳＳ　ＪＡＰＡＮ,,株式会社,福井県,福井市,開発３丁目２５０９番地,,18,201,9100842,,,,,,,2024-04-30,1,,,,,ビッグボスジャパン,0
1070,4260001039009,新規,0,2024-04-30,2024-04-30,九電株式会社,,株式会社,岡山県,岡山市北区,本町６番３６号,,33,101,7000901,,,,,,,2024-04-30,1,,,,,キュウデン,0
1073,4280001009166,新規,0,2024-04-30,2024-04-30,株式会社ビッグスカイイノベーション,,株式会社,島根県,浜田市,黒川町１２０番地１,,32,202,6970024,,,,,,,2024-04-30,1,,,,,ビッグスカイイノベーション,0
1077,4290001105518,新規,0,2024-04-30,2024-04-30,株式会社ＳＫコーポレーション,,株式会社,福岡県,福岡市東区,多の津４丁目７番２３－３０８号,,40,131,8130034,,,,,,,2024-04-30,1,,,,,エスケイコーポレーション,0
1084,4310005008763,新規,0,2024-04-30,2024-04-30,一般社団法人大村純忠まちねこ隊,,その他の設立登記法人,長崎県,大村市,中里町１１４８番地３,,42,205,8560842,,,,,,,2024-04-30,1,,,,,オオムラスミタダマチネコタイ,0
1088,4330003010331,新規,0,2024-04-30,2024-04-30,合同会社球磨ファーム１,,合同会社,熊本県,人吉市,上青井町１８０番地２４,,43,203,8680005,,,,,,,2024-04-30,1,,,,,クマファームワン,0
1093,4360003013934,新規,0,2024-04-30,2024-04-30,ＳＥＶＥＮ　ＲＥＮＴ　Ａ　ＣＡＲ合同会社,,合同会社,沖縄県,うるま市,字塩屋５３番地マンション２０２０・１０６号室,,47,213,9042231,,,,,,,2024-04-30,1,,,,,セブンレンタカー,0
1095,4370001051233,新規,0,2024-04-30,2024-04-30,和神株式会社,,株式会社,宮城県,仙台市青葉区,北根３丁目５番２号,,04,101,9810902,,,,,,,2024-04-30,1,,,,,ワジン,0
1096,4370001051241,新規,0,2024-04-30,2024-04-30,ＲＡＩＳＥ株式会社,,株式会社,宮城県,仙台市青葉区,中央２丁目２番１０号,,04,101,9800021,,,,,,,2024-04-30,1,,,,,レイズ,0
1098,4380001034492,新規,0,2024-04-30,2024-04-30,ひかり建機株式会社,,株式会社,福島県,伊達市,梁川町青葉町１１４番地９,,07,213,9600756,,,,,,,2024-04-30,1,,,,,ヒカリケンキ,0
1109,4430001091669,新規,0,2024-04-30,2024-04-30,株式会社ＯＵＲ‐Ａパートナーズ,,株式会社,北海道,札幌市西区,西町北２０丁目５番８号ニッセ西町３Ｆ,,01,107,0630061,,,,,,,2024-04-30,1,,,,,アウアエーパートナーズ,0
1110,4430001091693,新規,0,2024-04-30,2024-04-30,ＬＥＲＲＹ株式会社,,株式会社,北海道,札幌市中央区,北二条東３丁目２番地６,,01,101,0600032,,,,,,,2024-04-30,1,,,,,レリー,0
1113,4430005014923,新規,0,2024-04-30,2024-04-30,一般社団法人Ｍｉｍｏｓａ　Ｅｍｐｏｗｅｒｍｅｎｔ,,その他の設立登記法人,北海道,札幌市南区,澄川五条１１丁目１３番２６号,,01,106,0050005,,,,,,,2024-04-30,1,,,,,ミモザエンパワーメント,0
1122,4700150125167,新規,0,2024-04-30,2024-04-30,ｓｈｅｎｚｈｅｎｊｕｎｘｉａｏｓｈｉｙｅｙｏｕｘｉａｎｇｏｎｇｓｉ,,外国会社等,,,,,,,,Ａ６０６，Ｂｕｉｌｄｉｎｇ　Ａ，Ｆｉｓｈｅｒｙ　Ｃｏｍｍｕｎｉｔｙ，Ｍｉｎｇｙｏｕ　Ｐｕｒｃｈａｓｉｎｇ　Ｃｅｎｔｅｒ，ＸｉｘｉａｎｇＳｔｒｅｅｔ，Ｂａｏａｎ　Ｄｉｓｔｒｉｃｔ，Ｓｈｅｎｚｈｅｎ，Ｇｕａｎｇｄｏｎｇ，Ｃｈｉｎａ，５１８０００,,,,,,2024-04-30,1,,,,,シェンジェンジュンシァオシーイエヨウシェンゴンスー,0
1135,5010001243856,新規,0,2024-04-30,2024-04-30,日本ＨＹＤＲＥＸＩＡ株式会社,,株式会社,東京都,千代田区,神田小川町３丁目７番５号,,13,101,1010052,,,,,,,2024-04-30,1,,,,,ニホンハイデレクシア,0
1136,5010001244334,新規,0,2024-04-30,2024-04-30,株式会社ＪＩＮＧＳ,,株式会社,東京都,文京区,本郷６丁目２５番１４号,,13,105,1130033,,,,,,,2024-04-30,1,,,,,ジングス,0
1137,5010001244400,新規,0,2024-04-30,2024-04-30,株式会社ｍｏｖｉｎｇ,,株式会社,東京都,千代田区,九段南１丁目５番６号りそな九段ビル５ＦＫＳフロア,,13,101,1020074,,,,,,,2024-04-30,1,,,,,ムービング,0
1138,5010001244441,新規,0,2024-04-30,2024-04-30,株式会社ＤＡＹ　ＯＮＥ　ＰＩＦ,,株式会社,東京都,千代田区,二番町１番地２番町ハイム８２４,,13,101,1020084,,,,,,,2024-04-30,1,,,,,デイワンピーアイエフ,0
1139,5010001244474,新規,0,2024-04-30,2024-04-30,株式会社ＡＬＩＶＥ,,株式会社,東京都,中央区,八丁堀４丁目１番３号４階,,13,102,1040032,,,,,,,2024-04-30,1,,,,,アライブ,0
1142,5010003043610,新規,0,2024-04-30,2024-04-30,ＳＭＣ４Ｆ合同会社,,合同会社,東京都,中央区,銀座１丁目１２番４号Ｎ＆Ｅ．ＢＬＤ．６Ｆ,,13,102,1040061,,,,,,,2024-04-30,1,,,,,エスエムシーヨンエフ,0
1148,5010401182010,新規,0,2024-04-30,2024-04-30,株式会社ＳＳＺ,,株式会社,東京都,港区,南青山６丁目２番２－１０５号,,13,103,1070062,,,,,,,2024-04-30,1,,,,,エスエスゼット,0
1149,5010403032502,新規,0,2024-04-30,2024-04-30,ＧＶＳＪ０２合同会社,,合同会社,東京都,港区,六本木３丁目１６番２６号,,13,103,1060032,,,,,,,2024-04-30,1,,,,,ジーブイエスジェイゼロツー,0
1150,5010403032510,新規,0,2024-04-30,2024-04-30,ＧＶＳＪ１０合同会社,,合同会社,東京都,港区,六本木３丁目１６番２６号,,13,103,1060032,,,,,,,2024-04-30,1,,,,,ジーブイエスジェイテン,0
1151,5010403032519,新規,0,2024-04-30,2024-04-30,ＨＴＫパートナーズ合同会社,,合同会社,東京都,港区,六本木１丁目９番１０号アークヒルズ仙石山森タワー４０階,,13,103,1060032,,,,,,,2024-04-30,1,,,,,エイチティーケーパートナーズ,0
1155,5010503007429,新規,0,2024-04-30,2024-04-30,合同会社ｄｉｖｅｒｓｅ,,合同会社,東京都,台東区,根岸１丁目５番１６号,,13,106,1100003,,,,,,,2024-04-30,1,,,,,ダイバース,0
1156,5010603010794,新規,0,2024-04-30,2024-04-30,合同会社マヌル電電,,合同会社,東京都,江東区,永代２丁目３３番９－３０２号,,13,108,1350034,,,,,,,2024-04-30,1,,,,,マヌルデンデン,0
1164,5010903009000,新規,0,2024-04-30,2024-04-30,ＭＴＡＭ合同会社,,合同会社,東京都,世田谷区,上馬４丁目１２番２１号,,13,112,1540011,,,,,,,2024-04-30,1,,,,,エムタム,0
1171,5011001161610,新規,0,2024-04-30,2024-04-30,ネクスト株式会社,,株式会社,東京都,渋谷区,松濤１丁目２８番２号,,13,113,1500046,,,,,,,2024-04-30,1,,,,,ネクスト,0
1172,5011001161627,新規,0,2024-04-30,2024-04-30,株式会社Ｓｕｓｐｏｗ　Ｃｏｎｓｕｌｔｉｎｇ,,株式会社,東京都,渋谷区,富ヶ谷１丁目１４番１４号３階・４階,,13,113,1510063,,,,,,,2024-04-30,1,,,,,サスポウコンサルティング,0
1173,5011001161676,新規,0,2024-04-30,2024-04-30,株式会社ＳｍａｒｔＣｏｏｋｉｅ,,株式会社,東京都,渋谷区,代々木３丁目３１番５号アルカサール３階,,13,113,1510053,,,,,,,2024-04-30,1,,,,,スマートクッキー,0
1174,5011001161767,新規,0,2024-04-30,2024-04-30,Ｅｔｏｉｌｕｍ株式会社,,株式会社,東京都,目黒区,上目黒１丁目１４－６メゾンベルウッド１階店舗区画,,13,110,1530051,,,,,,,2024-04-30,1,,,,,エトワルム,0
1175,5011003019039,新規,0,2024-04-30,2024-04-30,Ｐｕｎｋｔｕｒｅ合同会社,,合同会社,東京都,目黒区,碑文谷３丁目８番３号,,13,110,1520003,,,,,,,2024-04-30,1,,,,,パンクチャー,0
1176,5011003019047,新規,0,2024-04-30,2024-04-30,合同会社Ｄ社,,合同会社,東京都,目黒区,上目黒３丁目２８番３号コート金井Ｄ号室,,13,110,1530051,,,,,,,2024-04-30,1,,,,,ディーシャ,0
1177,5011003019055,新規,0,2024-04-30,2024-04-30,合同会社Ｃｏｐａｃｅｔｉｃ,,合同会社,東京都,渋谷区,恵比寿１丁目１５番９号日宝恵比寿ビル４０３,,13,113,1500013,,,,,,,2024-04-30,1,,,,,コパセティック,0
1179,5011101107141,新規,0,2024-04-30,2024-04-30,ＪＤ　Ｃａｐｉｔａｌ株式会社,,株式会社,東京都,新宿区,市谷本村町７番４－３２０１号ザ・センター東京,,13,104,1620845,,,,,,,2024-04-30,1,,,,,ジェーディーキャピタル,0
1180,5011101107158,新規,0,2024-04-30,2024-04-30,株式会社ＨＡＫＵＴＯクリーニング,,株式会社,東京都,新宿区,百人町１丁目２２番１７号,,13,104,1690073,,,,,,,2024-04-30,1,,,,,ハクトクリーニング,0
1189,5011801044139,新規,0,2024-04-30,2024-04-30,株式会社スポーツメンタルウェルネス東京,,株式会社,東京都,足立区,足立１丁目１２‐１２足立メディカルモール９階,,13,121,1200015,,,,,,,2024-04-30,1,,,,,スポーツメンタルウェルネストウキョウ,0
1191,5011803006211,新規,0,2024-04-30,2024-04-30,ミャンマービジネスハブ合同会社,,合同会社,東京都,葛飾区,亀有３丁目４９番地６号トクサンビル２階,,13,122,1250061,,,,,,,2024-04-30,1,,,,,ミャンマービジネスハブ,0
1208,5013301052431,新規,0,2024-04-30,2024-04-30,唯二株式会社,,株式会社,東京都,豊島区,巣鴨４丁目２６－３ＢＥＤ＆ＤＥＳＫ１０２,,13,116,1700002,,,,,,,2024-04-30,1,,,,,ユイニ,0
1210,5013303007128,新規,0,2024-04-30,2024-04-30,盛和合同会社,,合同会社,東京都,豊島区,西池袋５丁目８番９号藤和池袋コープ１０２,,13,116,1710021,,,,,,,2024-04-30,1,,,,,セイワ,0
1220,5020001156925,新規,0,2024-04-30,2024-04-30,株式会社Ｈｉｃｋ,,株式会社,神奈川県,横浜市保土ケ谷区,常盤台２９－２５ＨＤ－Ｂ２０５号室,,14,106,2400067,,,,,,,2024-04-30,1,,,,,ヒック,0
1221,5020001156941,新規,0,2024-04-30,2024-04-30,Ｄ．Ｗ三木株式会社,,株式会社,神奈川県,横浜市鶴見区,東寺尾１丁目７－１０、２０４号室,,14,101,2300077,,,,,,,2024-04-30,1,,,,,ディーダブリューミキ,0
1222,5020001156958,新規,0,2024-04-30,2024-04-30,ＭＥＩＫＯ技研工業株式会社,,株式会社,神奈川県,横浜市神奈川区,新浦島町１丁目１番３２号アクアリアタワー横浜１６階,,14,102,2210031,,,,,,,2024-04-30,1,,,,,メイコウギケンコウギョウ,0
1223,5020001156974,新規,0,2024-04-30,2024-04-30,株式会社Ｗｉｔｈ　ｙｏｕｒ　Ｌｉｆｅ　Ｍａｐ,,株式会社,神奈川県,横浜市港南区,日野南６丁目９番８号,,14,111,2340055,,,,,,,2024-04-30,1,,,,,ウィズユアライフマップ,0
1224,5020001157089,新規,0,2024-04-30,2024-04-30,ＧＬＯＢＡＬ　ＦＬＹ株式会社,,株式会社,神奈川県,川崎市中原区,上小田中１丁目８番３５‐１号,,14,133,2110053,,,,,,,2024-04-30,1,,,,,グローバルフライ,0
1231,5021001082062,新規,0,2024-04-30,2024-04-30,株式会社三井商會,,株式会社,神奈川県,茅ヶ崎市,東海岸南６丁目４番３７－Ｂ－２１１号パシフィックガーデン茅ヶ崎,,14,207,2530054,,,,,,,2024-04-30,1,,,,,ミツイショウカイ,0
1235,5021003014443,新規,0,2024-04-30,2024-04-30,合同会社大樹,,合同会社,神奈川県,大和市,中央４丁目４番５号麻布貿易ビル５Ｆ,,14,213,2420021,,,,,,,2024-04-30,1,,,,,タイジュ,0
1241,5030003024179,新規,0,2024-04-30,2024-04-30,合同会社Ｍ２ＵＰ,,合同会社,埼玉県,和光市,白子３丁目３６番８号,,11,229,3510101,,,,,,,2024-04-30,1,,,,,エムツーアップ,0
1242,5030003024187,新規,0,2024-04-30,2024-04-30,ゲレル合同会社,,合同会社,埼玉県,越谷市,大字平方１８９２番地１５,,11,222,3430002,,,,,,,2024-04-30,1,,,,,ゲレル,0
1243,5030003024195,新規,0,2024-04-30,2024-04-30,合同会社奈良ロイヤルグループ,,合同会社,埼玉県,川口市,大字小谷場１１９５番地の１ヒルズハピネス１０３号,,11,203,3330857,,,,,,,2024-04-30,1,,,,,ナラロイヤルグループ,0
1248,5040001133336,新規,0,2024-04-30,2024-04-30,和彦株式会社,,株式会社,千葉県,木更津市,金田東６丁目４番地１４,,12,206,2920009,,,,,,,2024-04-30,1,,,,,カズヒコ,0
1262,5070001041684,新規,0,2024-04-30,2024-04-30,株式会社Ｍｙｆａｃｔｏｒｙ,,株式会社,群馬県,利根郡みなかみ町,月夜野３２７３番地２,,10,449,3791313,,,,,,,2024-04-30,1,,,,,マイファクトリー,0
1265,5070005010264,新規,0,2024-04-30,2024-04-30,特定非営利活動法人つながるん場,,その他の設立登記法人,群馬県,安中市,板鼻６４４番地７,,10,211,3790111,,,,,,,2024-04-30,1,,,,,ツナガルンバ,0
1267,5080001026271,新規,0,2024-04-30,2024-04-30,静岡リフォーム株式会社,,株式会社,静岡県,焼津市,大住４１番地の６,,22,212,4250072,,,,,,,2024-04-30,1,,,,,,0
1268,5080003003186,新規,0,2024-04-30,2024-04-30,合同会社サウス,,合同会社,静岡県,静岡市駿河区,中島４６番地の２５６,,22,102,4228046,,,,,,,2024-04-30,1,,,,,,0
1289,5120001264412,新規,0,2024-04-30,2024-04-30,Ｓｔｅｌｌａ　Ｃａｒｄｓ株式会社,,株式会社,大阪府,大阪市西区,本田４丁目９－２３、１００８号,,27,106,5500022,,,,,,,2024-04-30,1,,,,,ステラカードズ,0
1290,5120001264461,新規,0,2024-04-30,2024-04-30,株式会社Ｈａｒｒｙ＆Ｌｉｎ,,株式会社,大阪府,大阪市生野区,巽中１丁目２１番３号博文ビル４０１Ａ,00134569,27,116,5440013,,,,,,,2024-04-30,1,,,,,ハリーアンドリン,0
1291,5120001264486,新規,0,2024-04-30,2024-04-30,嘉喜株式会社,,株式会社,大阪府,大阪市西淀川区,中島１丁目１８番３１号２Ａ室,,27,113,5550041,,,,,,,2024-04-30,1,,,,,カキ,0
1292,5120001264503,新規,0,2024-04-30,2024-04-30,株式会社ｌｉｆｅ　ｉｓ　ａｒｔ,,株式会社,大阪府,大阪市浪速区,元町１丁目１１－８サキモトビル８０１－２,,27,111,5560016,,,,,,,2024-04-30,1,,,,,ライフイズアート,0
1293,5120001264552,新規,0,2024-04-30,2024-04-30,株式会社Ｅｍｐｔｙ　Ｂｏｘ,,株式会社,大阪府,大阪市旭区,大宮１丁目７番２５号,,27,117,5350002,,,,,,,2024-04-30,1,,,,,エンプティボックス,0
1294,5120001264585,新規,0,2024-04-30,2024-04-30,中山キャピタル株式会社,,株式会社,大阪府,大阪市東淀川区,東淡路４丁目３３番２８号,,27,114,5330023,,,,,,,2024-04-30,1,,,,,ナカヤマキャピタル,0
1300,5120003026455,新規,0,2024-04-30,2024-04-30,合同会社Ｍ．Ｋ興産,,合同会社,大阪府,大阪市北区,天神橋４丁目３番１７号,,27,127,5300041,,,,,,,2024-04-30,1,,,,,エムケーコウサン,0
1301,5120003026496,新規,0,2024-04-30,2024-04-30,合同会社ファミーユ,,合同会社,大阪府,大阪市北区,梅田１丁目２‐２大阪駅前第２ビル１２‐１２,,27,127,5300001,,,,,,,2024-04-30,1,,,,,ファミーユ,0
1302,5120003026505,新規,0,2024-04-30,2024-04-30,合同会社ＨｏｐＳｔｅｐ,,合同会社,大阪府,大阪市港区,夕凪２丁目１８番５５－３０３号,,27,107,5520004,,,,,,,2024-04-30,1,,,,,ホップステップ,0
1305,5120901049111,新規,0,2024-04-30,2024-04-30,株式会社のせ乃,,株式会社,大阪府,豊能郡能勢町,下田尻１３５０番地,,27,322,5630123,,,,,,,2024-04-30,1,,,,,ノセノ,0
1314,5140001134241,新規,0,2024-04-30,2024-04-30,株式会社Ｋｉｒａｒａ,,株式会社,兵庫県,淡路市,久留麻５６番地７,,28,226,6562311,,,,,,,2024-04-30,1,,,,,キララ,0
1316,5140003020497,新規,0,2024-04-30,2024-04-30,Ｌｏｕ’ｓ　ｆｏｒｅｓｔ合同会社,,合同会社,兵庫県,神戸市東灘区,住吉本町１丁目１８番２２号住吉アーバンライフ６０６,,28,101,6580051,,,,,,,2024-04-30,1,,,,,ルーズフォレスト,0
1317,5140003020506,新規,0,2024-04-30,2024-04-30,合同会社Ｃｏｒｅ　ｌｉｎｅ,,合同会社,兵庫県,宝塚市,伊孑志１丁目４番３６－１号,,28,214,6650033,,,,,,,2024-04-30,1,,,,,コアライン,0
1324,5180001161166,新規,0,2024-04-30,2024-04-30,株式会社セレンディップ,,株式会社,愛知県,丹羽郡大口町,河北２丁目１０４番地,,23,361,4800121,,,,,,,2024-04-30,1,,,,,セレンディップ,0
1328,5180003026672,新規,0,2024-04-30,2024-04-30,ＲＩＦＩＲＵ合同会社,,合同会社,愛知県,名古屋市中村区,名駅３丁目４－１０アルティメイト名駅１ｓｔ２階リフィル,,23,105,4500002,,,,,,,2024-04-30,1,,,,,リフィル,0
1330,5180301038576,新規,0,2024-04-30,2024-04-30,株式会社惠實由,,株式会社,愛知県,豊田市,上原町西山１６番地,,23,211,4700341,,,,,,,2024-04-30,1,,,,,エミユウ,0
1331,5180301038592,新規,0,2024-04-30,2024-04-30,株式会社ユーアイ電設,,株式会社,愛知県,豊橋市,忠興２丁目１６番地２,,23,201,4400004,,,,,,,2024-04-30,1,,,,,ユーアイデンセツ,0
1337,5200001042446,新規,0,2024-04-30,2024-04-30,三甲パレットレンタル株式会社,,株式会社,岐阜県,瑞穂市,本田４７４番地の１,,21,216,5010236,,,,,,,2024-04-30,1,,,,,サンコウパレットレンタル,0
1342,5260001039008,新規,0,2024-04-30,2024-04-30,株式会社Ａ・Ｋ,,株式会社,岡山県,岡山市中区,藤崎７３番地５,,33,102,7028006,,,,,,,2024-04-30,1,,,,,エイケイ,0
1346,5290001105509,新規,0,2024-04-30,2024-04-30,株式会社ＷＯＮＤＥＲＦＵＬ　ＴＯＭ,,株式会社,福岡県,福岡市中央区,渡辺通３丁目９－２２アビターレ南天神９０２号室,,40,133,8100004,,,,,,,2024-04-30,1,,,,,ワンダフルトム,0
1347,5290001105525,新規,0,2024-04-30,2024-04-30,株式会社ｔｉｌｗｅｌｍ,,株式会社,福岡県,大牟田市,大字白銀７７０番地１,,40,202,8370912,,,,,,,2024-04-30,1,,,,,ティルウェルム,0
1348,5290001105533,新規,0,2024-04-30,2024-04-30,株式会社双興,,株式会社,福岡県,福岡市中央区,平尾２丁目９番１７号,,40,133,8100014,,,,,,,2024-04-30,1,,,,,ソウコウ,0
1349,5290001105541,新規,0,2024-04-30,2024-04-30,株式会社ＳＴＡＲ　ＰＲＯＤＵＣＴＩＯＮ,,株式会社,福岡県,大牟田市,新地町８番地５,,40,202,8360032,,,,,,,2024-04-30,1,,,,,スタープロダクション,0
1352,5290801030526,新規,0,2024-04-30,2024-04-30,株式会社三船,,株式会社,福岡県,中間市,岩瀬西町１３番７号,,40,215,8090041,,,,,,,2024-04-30,1,,,,,ミフネ,0
1354,5300003002116,新規,0,2024-04-30,2024-04-30,ＥＳＵ　ＵＮＩＶＥＲＳＥ合同会社,,合同会社,佐賀県,佐賀市,諸富町大字為重３７４番地５,,41,201,8402102,,,,,,,2024-04-30,1,,,,,エスユニバース,0
1357,5340003004455,新規,0,2024-04-30,2024-04-30,合同会社プリメーラ,,合同会社,鹿児島県,鹿児島市,宇宿３丁目５８番５号,,46,201,8900073,,,,,,,2024-04-30,1,,,,,プリメーラ,0
1362,5370001051240,新規,0,2024-04-30,2024-04-30,株式会社小林アルミ,,株式会社,宮城県,白石市,小原字中田３７番地１,,04,206,9890233,,,,,,,2024-04-30,1,,,,,コバヤシアルミ,0
1363,5380001034491,新規,0,2024-04-30,2024-04-30,株式会社第二十一観音丸,,株式会社,福島県,相馬市,尾浜字二合田２１番地,,07,209,9760022,,,,,,,2024-04-30,1,,,,,ダイニジュウイチカンノンマル,0
1369,5380003005747,新規,0,2024-04-30,2024-04-30,合同会社ヴィル・エッジ,,合同会社,福島県,西白河郡泉崎村,大字泉崎字十軒前２番地６０,,07,464,9690101,,,,,,,2024-04-30,1,,,,,ヴィルエッジ,0
1370,5390001017594,新規,0,2024-04-30,2024-04-30,株式会社ＡＭＧアセットオフィス,,株式会社,山形県,山形市,薬師町１丁目１６番１号,,06,201,9900053,,,,,,,2024-04-30,1,,,,,エイエムジーアセットオフィス,0
1374,5430001091643,新規,0,2024-04-30,2024-04-30,幌泉殖産株式会社,00134523,株式会社,北海道,幌泉郡えりも町,字本町２４７番地,,01,609,0580204,,,,,,,2024-04-30,1,,,,,ホロイズミショクサン,0
1375,5430001091668,新規,0,2024-04-30,2024-04-30,株式会社Ｓｅｃｏｎｄ,,株式会社,北海道,札幌市中央区,南五条西１５丁目２－３リズム医大前５０３号室,,01,101,0640805,,,,,,,2024-04-30,1,,,,,セコンド,0
1376,5430001091684,新規,0,2024-04-30,2024-04-30,Ｔｋ　Ｈａｔｃｈ株式会社,,株式会社,北海道,札幌市西区,八軒八条東２丁目４番１６号,,01,107,0630868,,,,,,,2024-04-30,1,,,,,ティーケーハッチ,0
1377,5430001091701,新規,0,2024-04-30,2024-04-30,株式会社ＳＹＤＯＭ,,株式会社,北海道,札幌市中央区,北九条西２０丁目１－５－３０３,,01,101,0600009,,,,,,,2024-04-30,1,,,,,シドム,0
1381,5430005014971,新規,0,2024-04-30,2024-04-30,農事組合法人斎藤農園,,その他の設立登記法人,北海道,札幌市北区,北二十五条西１３丁目６番５号,,01,102,0010025,,,,,,,2024-04-30,1,,,,,サイトウノウエン,0
1397,6010001244390,新規,0,2024-04-30,2024-04-30,ジャパンクオリティソリューション株式会社,,株式会社,東京都,中央区,晴海２丁目３－３０－１７０７,,13,102,1040053,,,,,,,2024-04-30,1,,,,,ジャパンクオリティソリューション,0
1398,6010001244432,新規,0,2024-04-30,2024-04-30,株式会社ＰＥＮＴＡＳ　ＦＩＶＥ,,株式会社,東京都,中央区,日本橋蛎殻町２丁目１１番６号,,13,102,1030014,,,,,,,2024-04-30,1,,,,,ペンタスファイブ,0
1399,6010001244473,新規,0,2024-04-30,2024-04-30,株式会社Ｊａｎｕｌｕｓ,,株式会社,東京都,中央区,銀座１丁目１２－４Ｎ＆ＥＢＬＤ．７階,,13,102,1040061,,,,,,,2024-04-30,1,,,,,ヤヌス,0
1407,6010003043618,新規,0,2024-04-30,2024-04-30,潤華合同会社,,合同会社,東京都,中央区,日本橋浜町２丁目３７番４号,,13,102,1030007,,,,,,,2024-04-30,1,,,,,ジュンカ,0
1415,6010401182050,新規,0,2024-04-30,2024-04-30,株式会社ＳＴＵＤＩＯ　ＵＮＤＵＬＡＴＩＯＮ,,株式会社,東京都,港区,浜松町１丁目１８番１３号高桑ビル３階,,13,103,1050013,,,,,,,2024-04-30,1,,,,,スタジオアンデュレーション,0
1416,6010401182109,新規,0,2024-04-30,2024-04-30,株式会社トレンド・クリエイツ,,株式会社,東京都,港区,東麻布２丁目２４番１号ＨＥＲＥＮＣＩＡ２Ｆ,,13,103,1060044,,,,,,,2024-04-30,1,,,,,トレンドクリエイツ,0
1419,6010403032492,新規,0,2024-04-30,2024-04-30,合同会社ヴィーナス,,合同会社,東京都,港区,三田３丁目１番１４号ＭＡ２１－６０１号,,13,103,1080073,,,,,,,2024-04-30,1,,,,,ヴィーナス,0
1420,6010403032501,新規,0,2024-04-30,2024-04-30,ＧＶＳＪ０１合同会社,,合同会社,東京都,港区,六本木３丁目１６番２６号,,13,103,1060032,,,,,,,2024-04-30,1,,,,,ジーブイエスジェイゼロワン,0
1424,6010501052186,新規,0,2024-04-30,2024-04-30,Ｇｒａｃｅ　Ｆａｓｈｉｏｎ株式会社,,株式会社,東京都,台東区,日本堤１丁目２番３号信知ビル１Ｆ,,13,106,1110021,,,,,,,2024-04-30,1,,,,,グレースファッション,0
1428,6010701045907,新規,0,2024-04-30,2024-04-30,株式会社内山企画,,株式会社,東京都,品川区,西五反田７丁目１番９号,,13,109,1410031,,,,,,,2024-04-30,1,,,,,ウチヤマキカク,0
1433,6010901055144,新規,0,2024-04-30,2024-04-30,株式会社ＡＦＮＯＲＭＡＬ,,株式会社,東京都,世田谷区,太子堂１丁目１２番２７－１００５号コンフォ－トテラス,,13,112,1540004,,,,,,,2024-04-30,1,,,,,アフノーマル,0
1434,6010901055169,新規,0,2024-04-30,2024-04-30,株式会社ＷＹＩＮ　ＤＥＳＩＧＮ,,株式会社,東京都,世田谷区,経堂３丁目２３番８号,,13,112,1560052,,,,,,,2024-04-30,1,,,,,ウィンデザイン,0
1439,6011001161403,新規,0,2024-04-30,2024-04-30,株式会社ＫＩＴＡＫＥＮ,,株式会社,東京都,目黒区,祐天寺２丁目１２－１１－５０１,,13,110,1530052,,,,,,,2024-04-30,1,,,,,キタケン,0
1440,6011001161601,新規,0,2024-04-30,2024-04-30,株式会社琅邸,,株式会社,東京都,目黒区,洗足２丁目１８番３号ジョイフル目黒洗足４０８号,,13,110,1520012,,,,,,,2024-04-30,1,,,,,ロウテイ,0
1441,6011001161626,新規,0,2024-04-30,2024-04-30,威森株式会社,,株式会社,東京都,渋谷区,富ヶ谷１丁目１４番１４号スタンフォードアネックスビル３Ｆ,,13,113,1510063,,,,,,,2024-04-30,1,,,,,イシン,0
1442,6011001161683,新規,0,2024-04-30,2024-04-30,日本買取センター株式会社,,株式会社,東京都,渋谷区,渋谷２丁目１９番１５号宮益坂ビルディング６０９,,13,113,1500002,,,,,,,2024-04-30,1,,,,,ニホンカイトリセンター,0
1451,6011101107132,新規,0,2024-04-30,2024-04-30,株式会社ｉ‐ｒｉｅ,,株式会社,東京都,新宿区,西新宿１丁目１８－６須田ビル７階,,13,104,1600023,,,,,,,2024-04-30,1,,,,,アイリー,0
1452,6011103014376,新規,0,2024-04-30,2024-04-30,合同会社はいびすかす,,合同会社,東京都,新宿区,百人町１丁目５番１３－１０５号,,13,104,1690073,,,,,,,2024-04-30,1,,,,,ハイビスカス,0
1459,6011301029606,新規,0,2024-04-30,2024-04-30,株式会社Ｌｉｎｋ　ｕｐ,,株式会社,東京都,杉並区,久我山４丁目１７番６号,,13,115,1680082,,,,,,,2024-04-30,1,,,,,リンクアップ,0
1462,6011501030603,新規,0,2024-04-30,2024-04-30,ＡＸＬ株式会社,,株式会社,東京都,荒川区,東尾久６丁目１２番６号,,13,118,1160012,,,,,,,2024-04-30,1,,,,,アクセル,0
1463,6011501030611,新規,0,2024-04-30,2024-04-30,壹企株式会社,,株式会社,東京都,北区,中里１丁目２１番２号中里ビル１Ｆ,,13,117,1140015,,,,,,,2024-04-30,1,,,,,イッキ,0
1467,6011601027714,新規,0,2024-04-30,2024-04-30,ＪＮ株式会社,,株式会社,東京都,練馬区,光が丘１丁目３番７１９号,,13,120,1790072,,,,,,,2024-04-30,1,,,,,ジェーエヌ,0
1470,6011801044154,新規,0,2024-04-30,2024-04-30,雅川株式会社,,株式会社,東京都,葛飾区,東新小岩２丁目２８番１号,,13,122,1240023,,,,,,,2024-04-30,1,,,,,カガワ,0
1474,6012403006542,新規,0,2024-04-30,2024-04-30,Ｐｒｉａｇｅ合同会社,,合同会社,東京都,武蔵野市,吉祥寺南町１丁目４‐１井の頭ビル９０１,,13,203,1800003,,,,,,,2024-04-30,1,,,,,プリアージュ,0
1476,6012701018231,新規,0,2024-04-30,2024-04-30,株式会社Ｓｔａｒｔｒｉｂｅ,,株式会社,東京都,小平市,上水南町１丁目１２番１８号,,13,211,1870021,,,,,,,2024-04-30,1,,,,,スタートライブ,0
1479,6013301052455,新規,0,2024-04-30,2024-04-30,株式会社鰐梨,,株式会社,東京都,豊島区,巣鴨２丁目３番１０号清水ビル地下１階,,13,116,1700002,,,,,,,2024-04-30,1,,,,,ワニナシ,0
1481,6013303007119,新規,0,2024-04-30,2024-04-30,合同会社英傑,,合同会社,東京都,豊島区,南大塚１丁目６０番２０号,,13,116,1700005,,,,,,,2024-04-30,1,,,,,エイケツ,0
1482,6013303007127,新規,0,2024-04-30,2024-04-30,合同会社Ｇｒａｃｅ　Ｔａｘ,,合同会社,東京都,豊島区,駒込４丁目９番３８号,,13,116,1700003,,,,,,,2024-04-30,1,,,,,グレースタックス,0
1495,6020001156924,新規,0,2024-04-30,2024-04-30,ＹＹ国際貿易株式会社,,株式会社,神奈川県,横浜市神奈川区,台町８番地１４ベイシティ滝川５０９号室,,14,102,2210834,,,,,,,2024-04-30,1,,,,,ワイワイコクサイボウエキ,0
1496,6020001156940,新規,0,2024-04-30,2024-04-30,株式会社Ｅｎ　ｂｅａｕｔｅ,,株式会社,神奈川県,川崎市川崎区,桜本２丁目４４番１号,,14,131,2100833,,,,,,,2024-04-30,1,,,,,アンボーテ,0
1497,6020001156965,新規,0,2024-04-30,2024-04-30,株式会社ｆｒｅｅｄｏｍ,,株式会社,神奈川県,横浜市旭区,善部町５３番地１５ステラーロ希望が丘２０３,,14,112,2410823,,,,,,,2024-04-30,1,,,,,フリーダム,0
1498,6020001157006,新規,0,2024-04-30,2024-04-30,株式会社ＰＯＴＳ,,株式会社,神奈川県,川崎市高津区,下作延４丁目４－６セントポーリア２０２,,14,134,2130033,,,,,,,2024-04-30,1,,,,,ポトス,0
1499,6020001157014,新規,0,2024-04-30,2024-04-30,株式会社みぼしパートナーズ,,株式会社,神奈川県,横浜市青葉区,松風台１４番地７９ブライシス青葉台４０６号,,14,117,2270067,,,,,,,2024-04-30,1,,,,,ミボシパートナーズ,0
1500,6020001157030,新規,0,2024-04-30,2024-04-30,株式会社Ｏｗｌ,,株式会社,神奈川県,横浜市旭区,西川島町１０３番地８,,14,112,2410012,,,,,,,2024-04-30,1,,,,,アウル,0
1506,6020003025986,新規,0,2024-04-30,2024-04-30,港南不動産Ｒ＆Ｃ合同会社,,合同会社,神奈川県,横浜市西区,北幸２丁目１０番４８号むつみビル３階,,14,103,2200004,,,,,,,2024-04-30,1,,,,,コウナンフドウサンアールアンドシー,0
1507,6020003026019,新規,0,2024-04-30,2024-04-30,合同会社ＪＡＴＥＣ協伸,,合同会社,神奈川県,横浜市鶴見区,鶴見中央４丁目３６番４号,,14,101,2300051,,,,,,,2024-04-30,1,,,,,ジャテックキョウシン,0
1508,6020003026027,新規,0,2024-04-30,2024-04-30,ＤＥＳＡＦＩＯ合同会社,,合同会社,神奈川県,川崎市高津区,溝口４丁目１０番２号ＪＩＫＯＨ２０３,,14,134,2130001,,,,,,,2024-04-30,1,,,,,デサフィオ,0
1509,6020005016389,新規,0,2024-04-30,2024-04-30,一般社団法人みらいＤＸアカデミー,,その他の設立登記法人,神奈川県,横浜市西区,みなとみらい２丁目３番１号クイーンズタワーＡ棟,,14,103,2200012,,,,,,,2024-04-30,1,,,,,ミライディーエックスアカデミー,0
1514,6030001159975,新規,0,2024-04-30,2024-04-30,株式会社Ｆ＆Ｓ,,株式会社,埼玉県,さいたま市大宮区,大成町１丁目５５４番地３号,,11,103,3300852,,,,,,,2024-04-30,1,,,,,エフアンドエス,0
1515,6030001160033,新規,0,2024-04-30,2024-04-30,株式会社さくらフーズ,,株式会社,埼玉県,蕨市,中央４丁目２５番１４号,,11,223,3350004,,,,,,,2024-04-30,1,,,,,サクラフーズ,0
1516,6030001160058,新規,0,2024-04-30,2024-04-30,株式会社ＰＲＯ‐ＮＥＴＨ,,株式会社,埼玉県,比企郡小川町,大字中爪９９２番地６,,11,343,3550314,,,,,,,2024-04-30,1,,,,,プロネス,0
1517,6030001160066,新規,0,2024-04-30,2024-04-30,株式会社コウズ,,株式会社,埼玉県,さいたま市緑区,大字中野田９５９番地３,,11,109,3360972,,,,,,,2024-04-30,1,,,,,コウズ,0
1518,6030001160090,新規,0,2024-04-30,2024-04-30,株式会社蒼ばら,,株式会社,埼玉県,秩父市,野坂町２丁目１２番４４号,,11,207,3680033,,,,,,,2024-04-30,1,,,,,アオイバラ,0
1519,6030001160099,新規,0,2024-04-30,2024-04-30,アットスタイル株式会社,,株式会社,埼玉県,さいたま市岩槻区,本町５丁目５番２－１号,,11,110,3390057,,,,,,,2024-04-30,1,,,,,アットスタイル,0
1531,6040001133351,新規,0,2024-04-30,2024-04-30,株式会社Ｓ・ＬＯＯＰ,,株式会社,千葉県,流山市,おおたかの森西４丁目１７６番地の３９,,12,220,2700128,,,,,,,2024-04-30,1,,,,,エスループ,0
1533,6040005022377,新規,0,2024-04-30,2024-04-30,医療法人社団一真会,,その他の設立登記法人,千葉県,浦安市,北栄１丁目１５番２７号熊川ビル１８、３階,,12,227,2790002,,,,,,,2024-04-30,1,,,,,イッシンカイ,0
1534,6050001054670,新規,0,2024-04-30,2024-04-30,成駿昇株式会社,,株式会社,茨城県,桜川市,真壁町塙世４２２番地１６,,08,231,3004423,,,,,,,2024-04-30,1,,,,,セイシュンショウ,0
1535,6050001054687,新規,0,2024-04-30,2024-04-30,株式会社雄和サービス・したまち,,株式会社,茨城県,鹿嶋市,大字宮中８５０番地２,,08,222,3140031,,,,,,,2024-04-30,1,,,,,ユウワサービスシタマチ,0
1536,6070001041683,新規,0,2024-04-30,2024-04-30,株式会社和喜,,株式会社,群馬県,高崎市,倉賀野町３３９番地３,,10,202,3701201,,,,,,,2024-04-30,1,,,,,ワキ,0
1537,6070001041691,新規,0,2024-04-30,2024-04-30,株式会社ガスパール相談室,,株式会社,群馬県,高崎市,貝沢町２３番地１,,10,202,3700042,,,,,,,2024-04-30,1,,,,,ガスパールソウダンシツ,0
1554,6100001037397,新規,0,2024-04-30,2024-04-30,ｔｏｒｉ株式会社,,株式会社,長野県,安曇野市,明科中川手１３１０番地２,,20,220,3997102,,,,,,,2024-04-30,1,,,,,トリ,0
1555,6100001037406,新規,0,2024-04-30,2024-04-30,株式会社ｒｅ　ｓｏｕ,,株式会社,長野県,松本市,野溝東１丁目７番５号,,20,202,3990034,,,,,,,2024-04-30,1,,,,,リソウ,0
1565,6120001264155,新規,0,2024-04-30,2024-04-30,株式会社港電気計測,,株式会社,大阪府,大阪市港区,市岡元町１丁目５番２１号,,27,107,5520002,,,,,,,2024-04-30,1,,,,,ミナトデンキケイソク,0
1566,6120001264320,新規,0,2024-04-30,2024-04-30,大坂薬局株式会社,,株式会社,大阪府,大阪市中央区,道頓堀１丁目３－１５東山ビル４階,,27,128,5420071,,,,,,,2024-04-30,1,,,,,オオサカヤッキョク,0
1567,6120001264386,新規,0,2024-04-30,2024-04-30,匯桐株式会社,,株式会社,大阪府,大阪市西成区,花園北２丁目７－１１－１０２,,27,122,5570016,,,,,,,2024-04-30,1,,,,,カイトウ,0
1568,6120001264460,新規,0,2024-04-30,2024-04-30,禾航株式会社,,株式会社,大阪府,大阪市中央区,松屋町９番２０号ローレルステート松屋町５０６Ａ,,27,128,5420067,,,,,,,2024-04-30,1,,,,,ワコウ,0
1569,6120001264469,新規,0,2024-04-30,2024-04-30,有漢堂株式会社,,株式会社,大阪府,大阪市住吉区,東粉浜１丁目４番２７号,,27,120,5580051,,,,,,,2024-04-30,1,,,,,ウカンドウ,0
1570,6120001264543,新規,0,2024-04-30,2024-04-30,株式会社ＩＴ,,株式会社,大阪府,大阪市淀川区,西中島５丁目１２番８号,,27,123,5320011,,,,,,,2024-04-30,1,,,,,アイティ,0
1581,6130001076938,新規,0,2024-04-30,2024-04-30,小全株式会社,,株式会社,京都府,南丹市,園部町小山西町大垣内１８番地,,26,213,6220043,,,,,,,2024-04-30,1,,,,,ショウゼン,0
1586,6140001134224,新規,0,2024-04-30,2024-04-30,株式会社義電設,,株式会社,兵庫県,尼崎市,南武庫之荘８丁目２０番１号,,28,202,6610033,,,,,,,2024-04-30,1,,,,,ヨシデンセツ,0
1587,6140001134249,新規,0,2024-04-30,2024-04-30,株式会社島谷商事,,株式会社,兵庫県,加古川市,加古川町篠原町１６番地の１０,,28,210,6750065,,,,,,,2024-04-30,1,,,,,シマタニショウジ,0
1593,6150003003236,新規,0,2024-04-30,2024-04-30,ドルチェ合同会社,,合同会社,奈良県,大和郡山市,下三橋町５４２－２５,,29,203,6391101,,,,,,,2024-04-30,1,,,,,ドルチェ,0
1598,6180001161272,新規,0,2024-04-30,2024-04-30,株式会社どんぐり・エステートグループ,,株式会社,愛知県,名古屋市中区,丸の内３丁目２１番２１号丸の内東桜ビル７０４号室,,23,106,4600002,,,,,,,2024-04-30,1,,,,,ドングリエステートグループ,0
1606,6180301038583,新規,0,2024-04-30,2024-04-30,株式会社ＭＡＹＵＫＩ　ＩＮＴＥＲＮＡＴＩＯＮＡＬ,,株式会社,愛知県,豊田市,丸山町６丁目３番地,,23,211,4710832,,,,,,,2024-04-30,1,,,,,マユキインターナショナル,0
1609,6180303006101,新規,0,2024-04-30,2024-04-30,合同会社ワイズワン名古屋天白,,合同会社,愛知県,蒲郡市,宝町３番１２号,,23,214,4430044,,,,,,,2024-04-30,1,,,,,ワイズワンナゴヤテンパク,0
1613,6200001042429,新規,0,2024-04-30,2024-04-30,株式会社Ｓｕｇａｒ　ｒｏｃｋ,,株式会社,岐阜県,岐阜市,上大久和町４番地ルミエールオオクワ２Ｆ・Ｂ,,21,201,5008026,,,,,,,2024-04-30,1,,,,,シュガーロック,0
1614,6200001042453,新規,0,2024-04-30,2024-04-30,株式会社Ａｒｃｔ’４　Ｆｉｌｍ,,株式会社,岐阜県,安八郡神戸町,大字八条９－３,,21,381,5032324,,,,,,,2024-04-30,1,,,,,アークトフォーフィルム,0
1628,6260001039007,新規,0,2024-04-30,2024-04-30,株式会社ねこの森,,株式会社,岡山県,岡山市北区,奥田２丁目３番２号リュクス奥田,,33,101,7000933,,,,,,,2024-04-30,1,,,,,ネコノモリ,0
1630,6260003004660,新規,0,2024-04-30,2024-04-30,合同会社テミス,,合同会社,岡山県,岡山市南区,福富西２丁目２３番４３号１５０３号,,33,104,7028031,,,,,,,2024-04-30,1,,,,,テミス,0
1634,6290001105524,新規,0,2024-04-30,2024-04-30,株式会社オフィスＭ２,,株式会社,福岡県,春日市,須玖南４丁目１０５番地,,40,218,8160863,,,,,,,2024-04-30,1,,,,,オフィスエムツー,0
1635,6290001105540,新規,0,2024-04-30,2024-04-30,株式会社豊英警備,,株式会社,福岡県,飯塚市,大日寺１４０２番地１,,40,205,8200046,,,,,,,2024-04-30,1,,,,,ホウエイケイビ,0
1636,6290001105648,新規,0,2024-04-30,2024-04-30,株式会社ｈａｃｈｉ,,株式会社,福岡県,糟屋郡志免町,南里２丁目２９番１３－１０３号,,40,343,8112207,,,,,,,2024-04-30,1,,,,,ハチ,0
1637,6290003015143,新規,0,2024-04-30,2024-04-30,合同会社リアン,,合同会社,福岡県,福岡市早良区,四箇田団地５１番５０２号,,40,137,8140176,,,,,,,2024-04-30,1,,,,,,0
1638,6290003015218,新規,0,2024-04-30,2024-04-30,合同会社Ｖａｌｕｅ,,合同会社,福岡県,福岡市博多区,博多駅前１丁目２３番２号ＰａｒｋＦｒｏｎｔ博多駅前１丁目５Ｆ－Ｂ,,40,132,8120011,,,,,,,2024-04-30,1,,,,,バリュー,0
1670,6380001034490,新規,0,2024-04-30,2024-04-30,株式会社ＤＡＲＵＭＡ,,株式会社,福島県,郡山市,横塚５丁目１１番４号,,07,203,9638803,,,,,,,2024-04-30,1,,,,,ダルマ,0
1674,6390001017593,新規,0,2024-04-30,2024-04-30,株式会社ＳＨＵＫＡＮ,,株式会社,山形県,山形市,大字長谷堂字隔間馬２９０６番１,,06,201,9902363,,,,,,,2024-04-30,1,,,,,シュカン,0
1675,6400001016643,新規,0,2024-04-30,2024-04-30,株式会社うなぎ料理多賀,,株式会社,岩手県,盛岡市,大通３丁目２番２１号,,03,201,0200022,,,,,,,2024-04-30,1,,,,,ウナギリョウリタガ,0
1684,6430001091667,新規,0,2024-04-30,2024-04-30,株式会社下村建築,,株式会社,北海道,登別市,若山町１丁目１２番地２９,,01,230,0590026,,,,,,,2024-04-30,1,,,,,シモムラケンチク,0
1685,6430001091675,新規,0,2024-04-30,2024-04-30,株式会社ＦＰコンシェル,,株式会社,北海道,札幌市中央区,宮の森三条１０丁目３番３号,,01,101,0640953,,,,,,,2024-04-30,1,,,,,エフピーコンシェル,0
1690,6450001014304,新規,0,2024-04-30,2024-04-30,ＡＬＥＥ北海道株式会社,,株式会社,北海道,旭川市,神居町台場６２番地,,01,204,0708022,,,,,,,2024-04-30,1,,,,,アリーホッカイドウ,0
1696,6480003002122,新規,0,2024-04-30,2024-04-30,ＡＴＩＦ　ＭＯＴＯＲＳ合同会社,,合同会社,徳島県,徳島市,名東町２丁目３２４番地の１６,,36,201,7700047,,,,,,,2024-04-30,1,,,,,アティフモータース,0
1713,7010001244340,新規,0,2024-04-30,2024-04-30,株式会社ＴＥＰＰＡＮ．Ｂｒｏｓ,,株式会社,東京都,中央区,月島１丁目２０番１－１０９号,,13,102,1040052,,,,,,,2024-04-30,1,,,,,テッパンブラザーズ,0
1714,7010001244398,新規,0,2024-04-30,2024-04-30,株式会社プランタン,,株式会社,東京都,千代田区,外神田３丁目６番４号第一勧業信用組合秋葉原ビル５階,,13,101,1010021,,,,,,,2024-04-30,1,,,,,プランタン,0
1715,7010001244423,新規,0,2024-04-30,2024-04-30,株式会社千歳,,株式会社,東京都,千代田区,富士見２丁目２－９富士見ＯＳビル２階,,13,101,1020071,,,,,,,2024-04-30,1,,,,,チトセ,0
1720,7010003043609,新規,0,2024-04-30,2024-04-30,合同会社ケアプラス,,合同会社,東京都,中央区,湊１丁目３番地２号αスタイルビル３Ｆ,,13,102,1040043,,,,,,,2024-04-30,1,,,,,ケアプラス,0
1729,7010401182058,新規,0,2024-04-30,2024-04-30,株式会社ＢＥＳＭＯテクノロジーズ,,株式会社,東京都,港区,東新橋１丁目２番５号,,13,103,1050021,,,,,,,2024-04-30,1,,,,,ベスモテクノロジーズ,0
1730,7010403032500,新規,0,2024-04-30,2024-04-30,合同会社ＧＲｅＣ,,合同会社,東京都,港区,西新橋１丁目２番９号メンターキャピタル税理士法人内,,13,103,1050003,,,,,,,2024-04-30,1,,,,,ジーアールイーシー,0
1731,7010403032509,新規,0,2024-04-30,2024-04-30,ＧＶＳＪ０９合同会社,,合同会社,東京都,港区,六本木３丁目１６番２６号,,13,103,1060032,,,,,,,2024-04-30,1,,,,,ジーブイエスジェイゼロナイン,0
1733,7010501052169,新規,0,2024-04-30,2024-04-30,祈テクノロジー株式会社,,株式会社,東京都,台東区,柳橋２丁目２１番４－７０２号,,13,106,1110052,,,,,,,2024-04-30,1,,,,,イノリテクノロジー,0
1736,7010601065087,新規,0,2024-04-30,2024-04-30,株式会社メゾンコスメ,,株式会社,東京都,江東区,富岡１丁目２６番１７号,,13,108,1350047,,,,,,,2024-04-30,1,,,,,メゾンコスメ,0
1745,7010901055168,新規,0,2024-04-30,2024-04-30,ＡＩＶＡＬＩＸ株式会社,,株式会社,東京都,世田谷区,太子堂４丁目１番１号,,13,112,1540004,,,,,,,2024-04-30,1,,,,,アイヴァリックス,0
1750,7011001161609,新規,0,2024-04-30,2024-04-30,株式会社ＯＬＡＸ,,株式会社,東京都,渋谷区,神山町２０番１６号,,13,113,1500047,,,,,,,2024-04-30,1,,,,,オーラックス,0
1751,7011001161625,新規,0,2024-04-30,2024-04-30,日本銓＿テクノロジー株式会社,00134568,株式会社,東京都,渋谷区,富ヶ谷１丁目１４番１４号スタンフォードアネックスビル３Ｆ,,13,113,1510063,,,,,,,2024-04-30,1,,,,,ニホンセンシンテクノロジー,0
1752,7011001161674,新規,0,2024-04-30,2024-04-30,株式会社ブラン,,株式会社,東京都,渋谷区,道玄坂１丁目１０番８号渋谷道玄坂東急ビル２Ｆ－Ｃ,,13,113,1500043,,,,,,,2024-04-30,1,,,,,ブラン,0
1753,7011001161690,新規,0,2024-04-30,2024-04-30,ｍａｍｏ　ａｎｄ　ｐａｒｔｎｅｒｓ株式会社,,株式会社,東京都,渋谷区,道玄坂１丁目１０番８号渋谷道玄坂東急ビル２Ｆ－Ｃ,,13,113,1500043,,,,,,,2024-04-30,1,,,,,マモアンドパートナーズ,0
1761,7011101107156,新規,0,2024-04-30,2024-04-30,株式会社安発,,株式会社,東京都,新宿区,百人町３丁目１－４－１１０５,,13,104,1690073,,,,,,,2024-04-30,1,,,,,アンハツ,0
1762,7011103014359,新規,0,2024-04-30,2024-04-30,合同会社飛躍,,合同会社,東京都,新宿区,西新宿５丁目２番１号シティータワー新宿１１１４,,13,104,1600023,,,,,,,2024-04-30,1,,,,,ヒヤク,0
1763,7011201025407,新規,0,2024-04-30,2024-04-30,株式会社誠和貿易,,株式会社,東京都,中野区,本町４丁目３０－１２ＩＴＫ鍋横７０１,,13,114,1640012,,,,,,,2024-04-30,1,,,,,セイワボウエキ,0
1764,7011301029613,新規,0,2024-04-30,2024-04-30,吉利株式会社,,株式会社,東京都,杉並区,天沼３丁目２６番５－２０２号,,13,115,1670032,,,,,,,2024-04-30,1,,,,,ジーリー,0
1769,7011801044145,新規,0,2024-04-30,2024-04-30,肇商事株式会社,,株式会社,東京都,足立区,梅島２丁目３８番７号リエス梅島１０１,,13,121,1210816,,,,,,,2024-04-30,1,,,,,ハジメショウジ,0
1774,7012801023130,新規,0,2024-04-30,2024-04-30,ホットマン株式会社,,株式会社,東京都,立川市,栄町６丁目１番地,,13,202,1900003,,,,,,,2024-04-30,1,,,,,ホットマン,0
1775,7012801023147,新規,0,2024-04-30,2024-04-30,働き方開放区株式会社,,株式会社,東京都,立川市,上砂町３丁目１９番地の４けやき壱番館１０１,,13,202,1900032,,,,,,,2024-04-30,1,,,,,ハタラキカタカイホウク,0
1777,7013301052446,新規,0,2024-04-30,2024-04-30,株式会社カラワル,,株式会社,東京都,豊島区,千川２丁目１１番１７号,,13,116,1710041,,,,,,,2024-04-30,1,,,,,カラワル,0
1778,7013301052454,新規,0,2024-04-30,2024-04-30,株式会社ｔｅｒｒｏｉｒ,,株式会社,東京都,豊島区,東池袋１丁目３２－４藤原ビル４階Ｃ号室,,13,116,1700013,,,,,,,2024-04-30,1,,,,,テロワール,0
1779,7013303007118,新規,0,2024-04-30,2024-04-30,合同会社ＧＡＲＡＧＥ,,合同会社,東京都,豊島区,千早１丁目２７番９号,,13,116,1710044,,,,,,,2024-04-30,1,,,,,ガレージ,0
1789,7020001157021,新規,0,2024-04-30,2024-04-30,株式会社ＳＴＵＤＩＵＳ,,株式会社,神奈川県,横浜市金沢区,瀬戸２２－２横浜市立大学金沢八景キャンパス文科系研究棟３０９号室,,14,108,2360027,,,,,,,2024-04-30,1,,,,,ステューディアス,0
1792,7020005016396,新規,0,2024-04-30,2024-04-30,一般社団法人ＯＵＲＳ,,その他の設立登記法人,神奈川県,川崎市川崎区,駅前本町１１番地２川崎フロンティアビル４階,,14,131,2100007,,,,,,,2024-04-30,1,,,,,アワーズ,0
1799,7030001160049,新規,0,2024-04-30,2024-04-30,株式会社ＬＩＢＥＬＯＡ,,株式会社,埼玉県,三郷市,高州１丁目３２３番地８,,11,237,3410037,,,,,,,2024-04-30,1,,,,,リベロア,0
1800,7030001160065,新規,0,2024-04-30,2024-04-30,株式会社ＭＥＤＩ　ＡＬＰＨＡ　ＰＬＵＳ,,株式会社,埼玉県,戸田市,川岸１丁目３番２５－３０３号,,11,224,3350015,,,,,,,2024-04-30,1,,,,,メディアルファプラス,0
1801,7030001160107,新規,0,2024-04-30,2024-04-30,株式会社高橋農産,,株式会社,埼玉県,加須市,旗井１２３２,,11,210,3491132,,,,,,,2024-04-30,1,,,,,タカハシノウサン,0
1804,7030003024177,新規,0,2024-04-30,2024-04-30,合同会社ネクサススペース,,合同会社,埼玉県,さいたま市大宮区,桜木町２丁目３番地大宮マルイ７階,,11,103,3300854,,,,,,,2024-04-30,1,,,,,ネクサススペース,0
1805,7030003024193,新規,0,2024-04-30,2024-04-30,合同会社愛別離苦,,合同会社,埼玉県,川口市,飯原町１０番２４号,,11,203,3320024,,,,,,,2024-04-30,1,,,,,アイベツリク,0
1806,7030003024202,新規,0,2024-04-30,2024-04-30,錫安合同会社,,合同会社,埼玉県,川口市,川口１丁目３番１－２０６号ライオンズマンション川口第５,,11,203,3320015,,,,,,,2024-04-30,1,,,,,シオン,0
1811,7040003024878,新規,0,2024-04-30,2024-04-30,合同会社ｂｙｌｓ,,合同会社,千葉県,柏市,豊四季９４５－５９６,,12,217,2770863,,,,,,,2024-04-30,1,,,,,バイルス,0
1817,7050003008327,新規,0,2024-04-30,2024-04-30,ＮＵＳＨＡＮ合同会社,,合同会社,茨城県,稲敷市,沼田２７１３番地１０２,,08,229,3000506,,,,,,,2024-04-30,1,,,,,ヌシャン,0
1818,7050005013440,新規,0,2024-04-30,2024-04-30,一般社団法人くらしとこころの相談室,,その他の設立登記法人,茨城県,水戸市,堀町９６２番地,,08,201,3100903,,,,,,,2024-04-30,1,,,,,クラシトココロノソウダンシツ,0
1829,7100001037405,新規,0,2024-04-30,2024-04-30,ヒカル株式会社,,株式会社,長野県,北安曇郡白馬村,大字北城８３０－９２,,20,485,3999301,,,,,,,2024-04-30,1,,,,,ヒカル,0
1830,7100001037413,新規,0,2024-04-30,2024-04-30,くるまる株式会社,,株式会社,長野県,長野市,青木島町大塚３５５番地４,,20,201,3812205,,,,,,,2024-04-30,1,,,,,クルマル,0
1841,7120001264402,新規,0,2024-04-30,2024-04-30,アル一株式会社,,株式会社,大阪府,大阪市西区,北堀江１丁目６－５大倫ビル５階Ｆ,,27,106,5500014,,,,,,,2024-04-30,1,,,,,アルイチ,0
1842,7120001264419,新規,0,2024-04-30,2024-04-30,株式会社Ｔｒｅｎｄ　ｓｈｉｐ,,株式会社,大阪府,大阪市北区,中之島６丁目１番３８号２３１３,,27,127,5300005,,,,,,,2024-04-30,1,,,,,トレンドシップ,0
1843,7120001264501,新規,0,2024-04-30,2024-04-30,ティーダ株式会社,,株式会社,大阪府,大阪市此花区,島屋６丁目２番１４－３１０号,,27,104,5540024,,,,,,,2024-04-30,1,,,,,ティーダ,0
1847,7120003026429,新規,0,2024-04-30,2024-04-30,ミラコライフ合同会社,,合同会社,大阪府,大阪市北区,大淀南３丁目１３番１１－４０６号,,27,127,5310075,,,,,,,2024-04-30,1,,,,,ミラコライフ,0
1848,7120003026461,新規,0,2024-04-30,2024-04-30,合同会社ＢＡＳＵ　ＬＩＬＡ,,合同会社,大阪府,大阪市東淀川区,小松４丁目２－２３中嶋ハイツ３０１号室,,27,114,5330004,,,,,,,2024-04-30,1,,,,,バスリラ,0
1851,7120903005151,新規,0,2024-04-30,2024-04-30,合同会社ｍｉｎｋ,,合同会社,大阪府,吹田市,原町４丁目２２番地ダイアパレス吹田２番館２０２号,,27,205,5640004,,,,,,,2024-04-30,1,,,,,ミンク,0
1852,7120905006602,新規,0,2024-04-30,2024-04-30,ＮＰＯ法人がん対策研究会,,その他の設立登記法人,大阪府,豊中市,寺内２丁目１３番２５号,,27,203,5610872,,,,,,,2024-04-30,1,,,,,ガンタイサクケンキュウカイ,0
1859,7140001134173,新規,0,2024-04-30,2024-04-30,イースト・エイド株式会社,,株式会社,兵庫県,三木市,与呂木６８３－３７４,,28,215,6730422,,,,,,,2024-04-30,1,,,,,イーストエイド,0
1860,7140001134207,新規,0,2024-04-30,2024-04-30,株式会社ヴィヴロスＲ＆Ｓｐｒｏ,,株式会社,兵庫県,神戸市東灘区,深江本町３丁目１番１０号イルマーレ壱番館２０３,,28,101,6580021,,,,,,,2024-04-30,1,,,,,ヴィヴロスアールアンドエスプロ,0
1861,7140001134231,新規,0,2024-04-30,2024-04-30,ＳＳアグリ株式会社,,株式会社,兵庫県,神戸市東灘区,魚崎北町６丁目３番５号,,28,101,6580082,,,,,,,2024-04-30,1,,,,,エスエスアグリ,0
1865,7140003020504,新規,0,2024-04-30,2024-04-30,合同会社ＲａｂｂｉｔＳｔｏｒｉｅｓ,,合同会社,兵庫県,神戸市西区,春日台２丁目９－３０,,28,111,6512276,,,,,,,2024-04-30,1,,,,,ラビットストーリーズ,0
1871,7160001025874,新規,0,2024-04-30,2024-04-30,ブリスエステート株式会社,,株式会社,滋賀県,野洲市,南桜１９２８番地２,,25,210,5202300,,,,,,,2024-04-30,1,,,,,ブリスエステート,0
1879,7180001161189,新規,0,2024-04-30,2024-04-30,株式会社ガーネット,,株式会社,愛知県,春日井市,松河戸町６丁目１１番地１２,,23,206,4860932,,,,,,,2024-04-30,1,,,,,ガーネット,0
1884,7180003026687,新規,0,2024-04-30,2024-04-30,合同会社名古屋ブリッジセンター,,合同会社,愛知県,名古屋市瑞穂区,瑞穂通３丁目２４,,23,108,4670806,,,,,,,2024-04-30,1,,,,,ナゴヤブリッジセンター,0
1896,7180303006100,新規,0,2024-04-30,2024-04-30,合同会社ＡＫ企画,,合同会社,愛知県,豊橋市,吾妻町１８１,,23,201,4400045,,,,,,,2024-04-30,1,,,,,エイケイキカク,0
1917,7290801030524,新規,0,2024-04-30,2024-04-30,株式会社Ｒ＆Ｍ,,株式会社,福岡県,北九州市小倉北区,上富野４丁目１２番２３号,,40,106,8020022,,,,,,,2024-04-30,1,,,,,アールアンドエム,0
1921,7310003004786,新規,0,2024-04-30,2024-04-30,合同会社ＮＯＤＯＧ　ＮＯＬＩＦＥ　ＮＡＧＡＳＡＫＩ,,合同会社,長崎県,長崎市,橋口町５番２５号,,42,201,8528114,,,,,,,2024-04-30,1,,,,,ノードッグノーライフナガサキ,0
1925,7340001026458,新規,0,2024-04-30,2024-04-30,株式会社ｏｆｆｉｃｅ　ｆｕｋｕｓｈｉｇｅ,,株式会社,鹿児島県,霧島市,隼人町内山田２丁目１４番１８号,,46,218,8995106,,,,,,,2024-04-30,1,,,,,オフィスフクシゲ,0
1926,7340003004453,新規,0,2024-04-30,2024-04-30,合同会社陽だまりＲｏｏｍ,,合同会社,鹿児島県,いちき串木野市,大里４６９６番地,,46,219,8992103,,,,,,,2024-04-30,1,,,,,ヒダマリルーム,0
1936,7390001017592,新規,0,2024-04-30,2024-04-30,株式会社左官ワタナベ,,株式会社,山形県,東田川郡三川町,大字猪子字地神木８１番地,,06,426,9971316,,,,,,,2024-04-30,1,,,,,サカンワタナベ,0
1939,7400001016642,新規,0,2024-04-30,2024-04-30,株式会社アイリミテ,,株式会社,岩手県,大船渡市,大船渡町字明神前２０番地１６,,03,203,0220002,,,,,,,2024-04-30,1,,,,,アイリミテ,0
1944,7430001091666,新規,0,2024-04-30,2024-04-30,株式会社トップスタッフ,,株式会社,北海道,札幌市白石区,川北２２６７番地５６,,01,104,0030859,,,,,,,2024-04-30,1,,,,,トップスタッフ,0
1945,7430001091674,新規,0,2024-04-30,2024-04-30,株式会社Ｓｅｒｐｅｎｔｅ,,株式会社,北海道,札幌市中央区,南十八条西１４丁目１番２０－２０２号,,01,101,0640918,,,,,,,2024-04-30,1,,,,,セルペンテ,0
1946,7430001091690,新規,0,2024-04-30,2024-04-30,株式会社フジグリーン,,株式会社,北海道,札幌市北区,新琴似六条１丁目５番地１４号,,01,102,0010906,,,,,,,2024-04-30,1,,,,,フジグリーン,0
1949,7430003016274,新規,0,2024-04-30,2024-04-30,Ｐｒｉｍｅｕｒｓ＆Ｃｏ合同会社,,合同会社,北海道,札幌市南区,北ノ沢１８６８番地２,,01,106,0050832,,,,,,,2024-04-30,1,,,,,プリムールアンドコー,0
1957,7500001025591,新規,0,2024-04-30,2024-04-30,株式会社Ｓｉｇｎ　Ｈｏｌｄｉｎｇｓ,,株式会社,愛媛県,松山市,一番町２丁目１番地１飛鳥ビル２階,,38,201,7900001,,,,,,,2024-04-30,1,,,,,サインホールディングス,0
1960,7500005008700,新規,0,2024-04-30,2024-04-30,医療法人相原歯科医院,,その他の設立登記法人,愛媛県,松山市,南高井町１６９８番地１,,38,201,7911112,,,,,,,2024-04-30,1,,,,,アイバラシカイイン,0
1971,8010001244430,新規,0,2024-04-30,2024-04-30,Ｒａｂｅ株式会社,,株式会社,東京都,千代田区,九段南４丁目６番１九段シルバーパレス２０４ＲＯＹＡＬＯＦＦＩＣＥ内,,13,101,1020074,,,,,,,2024-04-30,1,,,,,レイブ,0
1972,8010001244463,新規,0,2024-04-30,2024-04-30,株式会社メリード,,株式会社,東京都,千代田区,神田和泉町１番地６－１６ヤマトビル４０５,,13,101,1010024,,,,,,,2024-04-30,1,,,,,メリード,0
1988,8010401182098,新規,0,2024-04-30,2024-04-30,株式会社Ｓｙｎａｐｓｅ,,株式会社,東京都,港区,虎ノ門１丁目１６番６号虎ノ門Ｒａｐｐｏｒｔビル,,13,103,1050001,,,,,,,2024-04-30,1,,,,,シナプス,0
1989,8010403032474,新規,0,2024-04-30,2024-04-30,ルスツヒルズ１号合同会社,,合同会社,東京都,港区,六本木１丁目３番４０－１３０１号,,13,103,1060032,,,,,,,2024-04-30,1,,,,,ルスツヒルズイチゴウ,0
1990,8010403032508,新規,0,2024-04-30,2024-04-30,ＧＶＳＪ０８合同会社,,合同会社,東京都,港区,六本木３丁目１６番２６号,,13,103,1060032,,,,,,,2024-04-30,1,,,,,ジーブイエスジェイゼロエイト,0
1991,8010405023208,新規,0,2024-04-30,2024-04-30,３００一般社団法人,,その他の設立登記法人,東京都,港区,浜松町１丁目２０番１０号ライオネス浜松町５０６号室,,13,103,1050013,,,,,,,2024-04-30,1,,,,,サンビャク,0
1994,8010601065078,新規,0,2024-04-30,2024-04-30,株式会社魚桂商店,,株式会社,東京都,墨田区,東駒形３丁目１８番８号,,13,107,1300005,,,,,,,2024-04-30,1,,,,,ウオケイショウテン,0
1995,8010601065086,新規,0,2024-04-30,2024-04-30,ＯｖｅｒＣｒａｆｔ株式会社,,株式会社,東京都,江東区,新木場３丁目６番６号,,13,108,1360082,,,,,,,2024-04-30,1,,,,,オーバークラフト,0
1996,8010601065094,新規,0,2024-04-30,2024-04-30,株式会社オリエントクリスタル,,株式会社,東京都,江東区,亀戸１丁目２７番９－６０２号ローヤルマンション亀戸,,13,108,1360071,,,,,,,2024-04-30,1,,,,,オリエントクリスタル,0
2006,8010901055150,新規,0,2024-04-30,2024-04-30,株式会社サニープロモーション,,株式会社,東京都,世田谷区,太子堂２丁目９番地２５号,,13,112,1540004,,,,,,,2024-04-30,1,,,,,サニープロモーション,0
2007,8010901055167,新規,0,2024-04-30,2024-04-30,ＩＤＥＡＬ　ＳＴＵＤＩＯ株式会社,,株式会社,東京都,世田谷区,下馬６丁目５３番５号クレール下馬２０２,,13,112,1540002,,,,,,,2024-04-30,1,,,,,イデアルスタジオ,0
2011,8011001161681,新規,0,2024-04-30,2024-04-30,株式会社ＭＡＧＩＣＡ,,株式会社,東京都,渋谷区,恵比寿４丁目２０番３号恵比寿ガーデンプレイスタワー２７階,,13,113,1500013,,,,,,,2024-04-30,1,,,,,マジカ,0
2012,8011003019036,新規,0,2024-04-30,2024-04-30,合同会社ＣＯＬ,,合同会社,東京都,渋谷区,東３丁目７番１３号森陽館３０２,,13,113,1500011,,,,,,,2024-04-30,1,,,,,コル,0
2017,8011301029612,新規,0,2024-04-30,2024-04-30,品川服飾企画株式会社,,株式会社,東京都,杉並区,和泉２丁目１３番５－４０２号和泉台マンション,,13,115,1680063,,,,,,,2024-04-30,1,,,,,シナガワフクショクキカク,0
2019,8011501030601,新規,0,2024-04-30,2024-04-30,寶興株式会社,,株式会社,東京都,荒川区,東尾久２丁目２番９号三祥ビル２３４,,13,118,1160012,,,,,,,2024-04-30,1,,,,,ホウキョウ,0
2027,8011801044136,新規,0,2024-04-30,2024-04-30,株式会社ふぁんふぁん,,株式会社,東京都,足立区,保塚町１２－１７－１０５,,13,121,1210072,,,,,,,2024-04-30,1,,,,,ファンファン,0
2034,8013301052437,新規,0,2024-04-30,2024-04-30,ネームリバー株式会社,,株式会社,東京都,豊島区,雑司が谷３丁目３番２５－１０８号,,13,116,1710032,,,,,,,2024-04-30,1,,,,,ネームリバー,0
2036,8013303007117,新規,0,2024-04-30,2024-04-30,合同会社ＳｕｎｎｙＴｅｃｈ,,合同会社,東京都,豊島区,南大塚２丁目１１－１０ミモザビル３階,,13,116,1700005,,,,,,,2024-04-30,1,,,,,サニーテック,0
2045,8020001156897,新規,0,2024-04-30,2024-04-30,株式会社キャッチアップウィズレイジー,,株式会社,神奈川県,横浜市保土ケ谷区,帷子町２丁目９９番地２ヴィラ・ソレイユ４０３号,,14,106,2400013,,,,,,,2024-04-30,1,,,,,キャッチアップウィズレイジー,0
2046,8020001156963,新規,0,2024-04-30,2024-04-30,ＭＲＢ．ＪＰ株式会社,,株式会社,神奈川県,川崎市川崎区,南町９番地９川崎南町ビル４０３,,14,131,2100015,,,,,,,2024-04-30,1,,,,,エムアールビードットジェーピー,0
2047,8020001157004,新規,0,2024-04-30,2024-04-30,株式会社武川組,,株式会社,神奈川県,横浜市港南区,上大岡西２丁目４番１９号,,14,111,2330002,,,,,,,2024-04-30,1,,,,,タケカワグミ,0
2055,8020003026017,新規,0,2024-04-30,2024-04-30,合同会社はるか商事,,合同会社,神奈川県,川崎市中原区,新丸子町６４８番地５,,14,133,2110005,,,,,,,2024-04-30,1,,,,,ハルカショウジ,0
2056,8020003026025,新規,0,2024-04-30,2024-04-30,合同会社Ｄ．Ｇｒａｃｉａｓ,,合同会社,神奈川県,川崎市多摩区,南生田７丁目１６－１８,,14,135,2140036,,,,,,,2024-04-30,1,,,,,ディーグラシャス,0
2057,8020005016395,新規,0,2024-04-30,2024-04-30,一般社団法人Ｓｕｎｎｙ　Ｓｉｄｅ,,その他の設立登記法人,神奈川県,横浜市鶴見区,矢向３丁目１９－２５,,14,101,2300001,,,,,,,2024-04-30,1,,,,,サニーサイド,0
2069,8030001160048,新規,0,2024-04-30,2024-04-30,すいすい不動産株式会社,,株式会社,埼玉県,白岡市,白岡１８９０番地５号東プラハイツ２０２号室,,11,246,3490218,,,,,,,2024-04-30,1,,,,,スイスイフドウサン,0
2070,8030001160064,新規,0,2024-04-30,2024-04-30,株式会社ｇｏｏｄ２ｇｏ,,株式会社,埼玉県,北葛飾郡松伏町,大字松伏２３３６,,11,465,3430111,,,,,,,2024-04-30,1,,,,,グッドトゥゴー,0
2071,8030001160072,新規,0,2024-04-30,2024-04-30,株式会社Ｌｙｎｘ,,株式会社,埼玉県,和光市,丸山台１丁目４番３－５０２号,,11,229,3510112,,,,,,,2024-04-30,1,,,,,リンクス,0
2072,8030001160097,新規,0,2024-04-30,2024-04-30,株式会社カラカゼ,,株式会社,埼玉県,さいたま市大宮区,上小町２２５番地８,,11,103,3300855,,,,,,,2024-04-30,1,,,,,カラカゼ,0
2074,8030003024201,新規,0,2024-04-30,2024-04-30,合同会社盛源,,合同会社,埼玉県,行田市,中央１１－１,,11,206,3610078,,,,,,,2024-04-30,1,,,,,セイゲン,0
2083,8040005022375,新規,0,2024-04-30,2024-04-30,一般社団法人アートオブダイアログ,,その他の設立登記法人,千葉県,木更津市,東太田１丁目１番２８号,,12,206,2920043,,,,,,,2024-04-30,1,,,,,アートオブダイアログ,0
2084,8050001054685,新規,0,2024-04-30,2024-04-30,鹿嶋ベース株式会社,,株式会社,茨城県,鹿嶋市,大字宮中８９７番地２,,08,222,3140031,,,,,,,2024-04-30,1,,,,,カシマベース,0
2085,8050003008326,新規,0,2024-04-30,2024-04-30,ａｇｒｕｍｅ合同会社,,合同会社,茨城県,北相馬郡利根町,大字押付新田９０７,,08,564,3001634,,,,,,,2024-04-30,1,,,,,アグリューム,0
2090,8070003005395,新規,0,2024-04-30,2024-04-30,合同会社ＬＩＢ,,合同会社,群馬県,前橋市,西片貝町１丁目３０３番地１０号,,10,201,3710013,,,,,,,2024-04-30,1,,,,,リブ,0
2095,8090001018678,新規,0,2024-04-30,2024-04-30,株式会社いさ,,株式会社,山梨県,南都留郡富士河口湖町,船津７８８番地１,,19,430,4010301,,,,,,,2024-04-30,1,,,,,イサ,0
2098,8100001037404,新規,0,2024-04-30,2024-04-30,株式会社イナデビ,,株式会社,長野県,長野市,大字鶴賀上千歳町１３２４－６第一レジャーアイランド１－Ｂ,,20,201,3800821,,,,,,,2024-04-30,1,,,,,イナデビ,0
2105,8120001264459,新規,0,2024-04-30,2024-04-30,株式会社ラクドウ,,株式会社,大阪府,大阪市北区,曾根崎２丁目１５番３１号ラ・トゥール大阪梅田４２０７号,,27,127,5300057,,,,,,,2024-04-30,1,,,,,ラクドウ,0
2106,8120001264467,新規,0,2024-04-30,2024-04-30,陸篠株式会社,,株式会社,大阪府,大阪市東淀川区,東中島１丁目１７番１号ステュディオ新大阪１１１０号室,,27,114,5330033,,,,,,,2024-04-30,1,,,,,リクシノ,0
2107,8120001264483,新規,0,2024-04-30,2024-04-30,金石投資株式会社,,株式会社,大阪府,大阪市淀川区,塚本４丁目１７番１２－３０４号,,27,123,5320026,,,,,,,2024-04-30,1,,,,,キンセキトウシ,0
2108,8120001264509,新規,0,2024-04-30,2024-04-30,錦程株式会社,,株式会社,大阪府,大阪市城東区,関目５丁目１９番９号関目花博公館４０２Ｂ,,27,118,5360008,,,,,,,2024-04-30,1,,,,,キンテイ,0
2109,8120001264517,新規,0,2024-04-30,2024-04-30,宏路株式会社,,株式会社,大阪府,大阪市阿倍野区,阿倍野筋４丁目１４番２号,,27,119,5450052,,,,,,,2024-04-30,1,,,,,コウロ,0
2115,8120003026485,新規,0,2024-04-30,2024-04-30,合同会社ブレーントラスト総合管理,,合同会社,大阪府,大阪市阿倍野区,阿倍野筋５丁目９番２１号,,27,119,5450052,,,,,,,2024-04-30,1,,,,,ブレーントラストソウゴウカンリ,0
2121,8120903005142,新規,0,2024-04-30,2024-04-30,合同会社山崎会計社,,合同会社,大阪府,吹田市,江の木町１７番２０号パルムハウス江坂２０７号Ｂ号室,,27,205,5640053,,,,,,,2024-04-30,1,,,,,ヤマサキカイケイシャ,0
2129,8140001134230,新規,0,2024-04-30,2024-04-30,ＪａｙＫホールディングス株式会社,,株式会社,兵庫県,芦屋市,大原町２８番１３号,,28,206,6590092,,,,,,,2024-04-30,1,,,,,ジェイケイホールディングス,0
2130,8140001134239,新規,0,2024-04-30,2024-04-30,エスペランサ株式会社,,株式会社,兵庫県,神戸市中央区,元町通６丁目８番３－４０４号,,28,110,6500022,,,,,,,2024-04-30,1,,,,,エスペランサ,0
2134,8140003020503,新規,0,2024-04-30,2024-04-30,尚宜商事合同会社,,合同会社,兵庫県,神戸市中央区,御幸通３丁目２番４－１００７号,,28,110,6510087,,,,,,,2024-04-30,1,,,,,ナオギショウジ,0
2135,8140005027067,新規,0,2024-04-30,2024-04-30,特定非営利活動法人ＦＩＮＥＵＰ,,その他の設立登記法人,兵庫県,神戸市北区,藤原台中町２丁目１３番１５号,,28,109,6511302,,,,,,,2024-04-30,1,,,,,ファインアップ,0
2139,8160003003175,新規,0,2024-04-30,2024-04-30,合同会社ＭＲＨ,,合同会社,滋賀県,大津市,青山８丁目１８番１１号,,25,201,5202101,,,,,,,2024-04-30,1,,,,,エムアールエイチ,0
2149,8180001161171,新規,0,2024-04-30,2024-04-30,株式会社ＳＭＴエデュケーション,,株式会社,愛知県,名古屋市北区,如意１丁目１４２番地,,23,103,4620007,,,,,,,2024-04-30,1,,,,,エスエムティーエデュケーション,0
2170,8220003003739,新規,0,2024-04-30,2024-04-30,合同会社Ｅｖａ　Ｐｌａｎｎｉｎｇ,,合同会社,石川県,野々市市,押野２丁目３番地１０３号,,17,212,9218802,,,,,,,2024-04-30,1,,,,,イブプランニング,0
2174,8250003003488,新規,0,2024-04-30,2024-04-30,合同会社ＮＡＴＯＮＯ,,合同会社,山口県,防府市,戎町１丁目８番地８号２階東室,,35,206,7470036,,,,,,,2024-04-30,1,,,,,ナトノ,0
2177,8260003004667,新規,0,2024-04-30,2024-04-30,合同会社インテグラル,,合同会社,岡山県,倉敷市,中庄７４９－５,,33,202,7100016,,,,,,,2024-04-30,1,,,,,インテグラル,0
2185,8290001105539,新規,0,2024-04-30,2024-04-30,株式会社森のお菓子屋さん,,株式会社,福岡県,福岡市博多区,博多駅東３丁目９番７号,,40,132,8120013,,,,,,,2024-04-30,1,,,,,モリノオカシヤサン,0
2191,8310003004785,新規,0,2024-04-30,2024-04-30,クリスタルライン合同会社,,合同会社,長崎県,諫早市,多良見町野副２０７番地１,,42,204,8590413,,,,,,,2024-04-30,1,,,,,クリスタルライン,0
2192,8320001020420,新規,0,2024-04-30,2024-04-30,株式会社Ｍｉｙａｍｏｔｏ　Ｇｒｏｕｐ,,株式会社,大分県,宇佐市,大字石田１２０番地の１６,,44,211,8790444,,,,,,,2024-04-30,1,,,,,ミヤモトグループ,0
2193,8320001020429,新規,0,2024-04-30,2024-04-30,株式会社ＫＯＫＯ　ｆｏｒｅｓｔ,,株式会社,大分県,玖珠郡九重町,大字町田１３９４番地の２,,44,461,8794723,,,,,,,2024-04-30,1,,,,,ココフォレスト,0
2194,8320001020437,新規,0,2024-04-30,2024-04-30,感謝株式会社,,株式会社,大分県,由布市,湯布院町川南１１１８－２,,44,213,8795103,,,,,,,2024-04-30,1,,,,,カンシャ,0
2195,8320003004347,新規,0,2024-04-30,2024-04-30,合同会社ｓｐｉｃｅ．ｃｏｍｐａｎｙ,,合同会社,大分県,別府市,大字南立石２１４５番地の５０,,44,202,8740000,,,,,,,2024-04-30,1,,,,,スパイスカンパニー,0
2196,8320005010153,新規,0,2024-04-30,2024-04-30,特定非営利活動法人Ｂｒｕｓｈ‐ｕｐ‐Ｌｉｆｅ,,その他の設立登記法人,大分県,大分市,三ケ田町１丁目３番７－１Ｂ号ユフビル,,44,201,8700888,,,,,,,2024-04-30,1,,,,,,0
2197,8330003010328,新規,0,2024-04-30,2024-04-30,合同会社たけした,,合同会社,熊本県,熊本市中央区,細工町３丁目５番地,,43,101,8600041,,,,,,,2024-04-30,1,,,,,タケシタ,0
2198,8330003010336,新規,0,2024-04-30,2024-04-30,合同会社球磨ファーム１５,,合同会社,熊本県,人吉市,上青井町１８０番地２４,,43,203,8680005,,,,,,,2024-04-30,1,,,,,クマファームフィフティーン,0
2199,8340001026457,新規,0,2024-04-30,2024-04-30,株式会社ＨａｐｐｙＬｉｆｅ　Ｖａｌｕｅ,,株式会社,鹿児島県,霧島市,国分野口東６番１１号４Ｆ,,46,218,8994341,,,,,,,2024-04-30,1,,,,,ハッピーライフバリュー,0
2207,8360001033575,新規,0,2024-04-30,2024-04-30,ＥＥ教育コンサルティング株式会社,,株式会社,沖縄県,那覇市,牧志３丁目１３番１号シルバーマンション２０３号室,,47,201,9000013,,,,,,,2024-04-30,1,,,,,イーイーキョウイクコンサルティング,0
2208,8360003013922,新規,0,2024-04-30,2024-04-30,沖縄イシン合同会社,,合同会社,沖縄県,那覇市,前島３丁目２５番２号,,47,201,9000016,,,,,,,2024-04-30,1,,,,,オキナワイシン,0
2211,8370003006586,新規,0,2024-04-30,2024-04-30,合同会社ＪＮＴ,,合同会社,宮城県,仙台市青葉区,二日町１８番１４号ＳＫＹ二日町３０１,,04,101,9800802,,,,,,,2024-04-30,1,,,,,ジェーエヌティー,0
2215,8380001034489,新規,0,2024-04-30,2024-04-30,アムリタライフエステート株式会社,,株式会社,福島県,郡山市,鶴見坦１丁目８番３号,,07,203,9638861,,,,,,,2024-04-30,1,,,,,アムリタライフエステート,0
2220,8400001016641,新規,0,2024-04-30,2024-04-30,株式会社エスペリ,,株式会社,岩手県,滝沢市,笹森９６番地,,03,216,0200600,,,,,,,2024-04-30,1,,,,,エスペリ,0
2229,8430001091657,新規,0,2024-04-30,2024-04-30,株式会社Ｄｉｇｉｔａｌ　Ｃｒｅａｔｉｖｅ　Ｌａｂ．,,株式会社,北海道,札幌市北区,北二十一条西１１丁目北海道大学フード＆メディカルイノベーション国際拠点内ＨＸ内,,01,102,0010021,,,,,,,2024-04-30,1,,,,,デジタルクリエイティブラボ,0
2234,8430003016257,新規,0,2024-04-30,2024-04-30,合同会社ＳＡＳＵＫＥ　ＷＯＲＫＳ,,合同会社,北海道,札幌市中央区,南二条西１２丁目３２４‐４ネスト南２条７０８号室,,01,101,0600062,,,,,,,2024-04-30,1,,,,,サスケワークス,0
2235,8430003016265,新規,0,2024-04-30,2024-04-30,合同会社ＬＩＧ．,,合同会社,北海道,札幌市中央区,北三条西２０丁目２番１６号北３条ＭＭビル１０１,,01,101,0640823,,,,,,,2024-04-30,1,,,,,エルアイジー,0
2240,8460001005894,新規,0,2024-04-30,2024-04-30,株式会社トラストワン,,株式会社,北海道,釧路市,昭和中央３丁目３３番２７号,,01,206,0840910,,,,,,,2024-04-30,1,,,,,トラストワン,0
2245,8500001025590,新規,0,2024-04-30,2024-04-30,株式会社Ｌｏｃｏｆｒａｎｋ,,株式会社,愛媛県,松山市,森松町５１０番地４,,38,201,7911113,,,,,,,2024-04-30,1,,,,,ロコフランク,0
2252,8700150125171,新規,0,2024-04-30,2024-04-30,５２ＴＯＹＳ（ＨＫ）Ｃｏ．，Ｌｉｍｉｔｅｄ,,外国会社等,,,,,,,,ＲＯＯＭ　４，１６／Ｆ，ＨＯ　ＫＩＮＧ　ＣＯＭＭＥＲＣＩＡＬ　ＣＥＮＴＲＥ，２－１６　ＦＡＹＵＥＮ　ＳＴＲＥＥＴ，ＭＯＮＧＫＯＫ　ＫＯＷＬＯＯＮ，ＨＯＮＧ　ＫＯＮＧ,,,,,,2024-04-30,1,,,,,ファイブトゥトイズエイチケーカンパニーリミテッド,0
2260,9010001244388,新規,0,2024-04-30,2024-04-30,ジャパンクオリティテクノロジーズ株式会社,,株式会社,東京都,中央区,晴海２丁目３－３０－１７０７,,13,102,1040053,,,,,,,2024-04-30,1,,,,,ジャパンクオリティテクノロジーズ,0
2261,9010001244413,新規,0,2024-04-30,2024-04-30,株式会社ＣＲＥ総合研究所,,株式会社,東京都,千代田区,神田佐久間町１丁目８番４号アルテール秋葉原７０８,,13,101,1010025,,,,,,,2024-04-30,1,,,,,シーアールイーソウゴウケンキュウジョ,0
2262,9010001244446,新規,0,2024-04-30,2024-04-30,株式会社ＫＳＦＲ１２,,株式会社,東京都,千代田区,内幸町２丁目１番６号,,13,101,1000011,,,,,,,2024-04-30,1,,,,,ケイエスエフアールトゥエルブ,0
2273,9010403032507,新規,0,2024-04-30,2024-04-30,ＧＶＳＪ０７合同会社,,合同会社,東京都,港区,六本木３丁目１６番２６号,,13,103,1060032,,,,,,,2024-04-30,1,,,,,ジーブイエスジェイゼロセブン,0
2283,9010603010808,新規,0,2024-04-30,2024-04-30,合同会社Ａｔｅｌｉｅｒ　Ａｒｓ,,合同会社,東京都,墨田区,業平１丁目７番９号ＰＬＡＴ２９５,,13,107,1300002,,,,,,,2024-04-30,1,,,,,アトリエアルス,0
2291,9010901055166,新規,0,2024-04-30,2024-04-30,株式会社ｍｅｌｅ,,株式会社,東京都,世田谷区,羽根木１丁目２番２号太田ビル１０５,,13,112,1560042,,,,,,,2024-04-30,1,,,,,メレ,0
2292,9010903009005,新規,0,2024-04-30,2024-04-30,合同会社ＬｕｘＶｅｎｔｕｒｅ　Ｔｒａｖｅｌ,,合同会社,東京都,世田谷区,下馬６丁目２７－１,,13,112,1540002,,,,,,,2024-04-30,1,,,,,ルクスベンチャートラベル,0
2295,9011001161540,新規,0,2024-04-30,2024-04-30,ＵＰＣ　Ｒｅｎｅｗａｂｌｅｓ　Ｊａｐａｎ株式会社,,株式会社,東京都,渋谷区,神南１丁目２３番１４－２０１号,,13,113,1500041,,,,,,,2024-04-30,1,,,,,ユーピーシーリニューアブルズジャパン,0
2296,9011001161664,新規,0,2024-04-30,2024-04-30,株式会社Ａ１５１,,株式会社,東京都,渋谷区,円山町５番５号Ｎａｖｉ渋谷Ｖ３階,,13,113,1500044,,,,,,,2024-04-30,1,,,,,エーイチゴーイチ,0
2297,9011001161689,新規,0,2024-04-30,2024-04-30,ＴＨＥ‐Ｏ株式会社,,株式会社,東京都,渋谷区,道玄坂１丁目１０番８号渋谷道玄坂東急ビル２Ｆ－Ｃ,,13,113,1500043,,,,,,,2024-04-30,1,,,,,ジオ,0
2298,9011003019043,新規,0,2024-04-30,2024-04-30,合同会社ＫＡＩＺＥＮ,,合同会社,東京都,渋谷区,代々木２丁目３６番６号ギークハウス,,13,113,1510053,,,,,,,2024-04-30,1,,,,,カイゼン,0
2302,9011101107113,新規,0,2024-04-30,2024-04-30,株式会社ｄｏｂｌｅ,,株式会社,東京都,新宿区,新宿１丁目３６番２号,,13,104,1600022,,,,,,,2024-04-30,1,,,,,ドブレ,0
2303,9011103014365,新規,0,2024-04-30,2024-04-30,ＡＭ合同会社,,合同会社,東京都,新宿区,富久町１番１２号ＥＤＩＴ新宿富久町３０３,,13,104,1620067,,,,,,,2024-04-30,1,,,,,エーエム,0
2304,9011103014373,新規,0,2024-04-30,2024-04-30,合同会社Ａｎｄ　Ｃｏ．,,合同会社,東京都,新宿区,南元町９－７ライオンズ外苑の杜７０１,,13,104,1600012,,,,,,,2024-04-30,1,,,,,アンドコー,0
2309,9011501030600,新規,0,2024-04-30,2024-04-30,クイックサービス株式会社,,株式会社,東京都,荒川区,東日暮里５丁目５２番６号,,13,118,1160014,,,,,,,2024-04-30,1,,,,,クイックサービス,0
2310,9011503006045,新規,0,2024-04-30,2024-04-30,新平商事合同会社,,合同会社,東京都,北区,滝野川６丁目９番５号,,13,117,1140023,,,,,,,2024-04-30,1,,,,,シンペイショウジ,0
2314,9011801044151,新規,0,2024-04-30,2024-04-30,株式会社キーマークス,,株式会社,東京都,足立区,小台２丁目３４－３,,13,121,1200046,,,,,,,2024-04-30,1,,,,,キーマークス,0
2315,9011803006208,新規,0,2024-04-30,2024-04-30,合同会社Ｑｕａｎｔｅｎｏｌｏｇｙ,,合同会社,東京都,葛飾区,東新小岩３丁目２－１１,,13,122,1240023,,,,,,,2024-04-30,1,,,,,クアンテノロジー,0
2319,9012701018229,新規,0,2024-04-30,2024-04-30,株式会社ＫＭ企画,,株式会社,東京都,西東京市,泉町６丁目１５番２３号グレースハイツ泉１０２号,,13,229,2020011,,,,,,,2024-04-30,1,,,,,ケーエムキカク,0
2320,9012703002973,新規,0,2024-04-30,2024-04-30,合同会社ＲＥＬＩＮＥ,,合同会社,東京都,東村山市,野口町１丁目２０－５さくらレジデンス２０１,,13,213,1890022,,,,,,,2024-04-30,1,,,,,リライン,0
2326,9013301052428,新規,0,2024-04-30,2024-04-30,紅日株式会社,,株式会社,東京都,豊島区,西池袋５丁目２６－１６ＣＨＩＢＡビル４１８室,,13,116,1710021,,,,,,,2024-04-30,1,,,,,コウヒ,0
2327,9013301052444,新規,0,2024-04-30,2024-04-30,株式会社ＡＴＯＭ,,株式会社,東京都,豊島区,東池袋１丁目３４番５号いちご東池袋ビル６階,,13,116,1700013,,,,,,,2024-04-30,1,,,,,アトム,0
2328,9013301052452,新規,0,2024-04-30,2024-04-30,株式会社令和ファクター,,株式会社,東京都,豊島区,西池袋２丁目１番１０号,,13,116,1710021,,,,,,,2024-04-30,1,,,,,レイワファクター,0
2329,9013303007116,新規,0,2024-04-30,2024-04-30,合同会社旭日,,合同会社,東京都,豊島区,西池袋５丁目２６－１６ＣＨＩＢＡビル４１４号室,,13,116,1710021,,,,,,,2024-04-30,1,,,,,キョクジツ,0
2338,9020001156896,新規,0,2024-04-30,2024-04-30,株式会社世悦,,株式会社,神奈川県,川崎市川崎区,渡田３丁目１２番９－１号,,14,131,2100837,,,,,,,2024-04-30,1,,,,,セイエツ,0
2339,9020001156938,新規,0,2024-04-30,2024-04-30,ＩＴＡＮＯＫＯ株式会社,,株式会社,神奈川県,川崎市中原区,北谷町９５番地１－１１９,,14,133,2110015,,,,,,,2024-04-30,1,,,,,イタノコ,0
2340,9020001156962,新規,0,2024-04-30,2024-04-30,ＨＡＱＵＥ．ＪＰ株式会社,,株式会社,神奈川県,川崎市川崎区,浜町１丁目６番１号ＫＳビル３０２号室,,14,131,2100851,,,,,,,2024-04-30,1,,,,,ハックドットジェーピー,0
2341,9020001157003,新規,0,2024-04-30,2024-04-30,株式会社ＳＧＣ,,株式会社,神奈川県,横浜市中区,相生町１丁目１７番地１パークビュー横浜１１０１,,14,104,2310012,,,,,,,2024-04-30,1,,,,,エスジーシー,0
2349,9020003026024,新規,0,2024-04-30,2024-04-30,合同会社テネ・ルーチェ,,合同会社,神奈川県,横浜市保土ケ谷区,新桜ケ丘１丁目３３番２８号,,14,106,2400036,,,,,,,2024-04-30,1,,,,,テネルーチェ,0
2352,9021001082109,新規,0,2024-04-30,2024-04-30,株式会社Ｒ＆Ａｓｓｏｃｉａｔｅｓ,,株式会社,神奈川県,藤沢市,亀井野２２１２－１２,,14,205,2520813,,,,,,,2024-04-30,1,,,,,アールアンドアソシエイツ,0
2357,9030001160047,新規,0,2024-04-30,2024-04-30,華徳商事株式会社,,株式会社,埼玉県,所沢市,東所沢和田３丁目１１－３４光プラザ４０６,,11,208,3590023,,,,,,,2024-04-30,1,,,,,カトクショウジ,0
2358,9030001160063,新規,0,2024-04-30,2024-04-30,吉岡株式会社,,株式会社,埼玉県,三郷市,三郷２丁目５番地１ローズハイム加藤４０５号,,11,237,3410024,,,,,,,2024-04-30,1,,,,,ヨシオカ,0
2359,9030001160071,新規,0,2024-04-30,2024-04-30,東村商事株式会社,,株式会社,埼玉県,越谷市,大字南荻島８７８番地,,11,222,3430804,,,,,,,2024-04-30,1,,,,,トウムラショウジ,0
2362,9030003024183,新規,0,2024-04-30,2024-04-30,合同会社ｃｅｌｅｓｔｅ,,合同会社,埼玉県,所沢市,大字牛沼２３７番地の１７,,11,208,3590026,,,,,,,2024-04-30,1,,,,,セレスト,0
2363,9030005021674,新規,0,2024-04-30,2024-04-30,一般社団法人日本学術教育機構,,その他の設立登記法人,埼玉県,さいたま市緑区,大字大間木１６６８番地５,,11,109,3360923,,,,,,,2024-04-30,1,,,,,ニホンガクジュツキョウイクキコウ,0
2372,9040003024868,新規,0,2024-04-30,2024-04-30,Ｈａｐｐｙエンターテインメント合同会社,,合同会社,千葉県,船橋市,本町６丁目２番１０－９１２号ダイアパレスステーションプラザ船橋,,12,204,2730005,,,,,,,2024-04-30,1,,,,,ハッピーエンターテインメント,0
2374,9040005022374,新規,0,2024-04-30,2024-04-30,一般社団法人ドゥマイベスト,,その他の設立登記法人,千葉県,船橋市,本中山６丁目１番２１－６０４号,,12,204,2730035,,,,,,,2024-04-30,1,,,,,ドゥマイベスト,0
2376,9050001054701,新規,0,2024-04-30,2024-04-30,フライハイト株式会社,,株式会社,茨城県,水戸市,堀町２０６５番地１０３号室,,08,201,3100903,,,,,,,2024-04-30,1,,,,,フライハイト,0
2381,9060001037044,新規,0,2024-04-30,2024-04-30,株式会社紅谷,,株式会社,栃木県,真岡市,並木町２丁目２０番地１５,,09,209,3214361,,,,,,,2024-04-30,1,,,,,ベニヤ,0
2385,9060003005057,新規,0,2024-04-30,2024-04-30,合同会社ＫＯＭＡ,,合同会社,栃木県,鹿沼市,上殿町８３７－１１,,09,205,3220045,,,,,,,2024-04-30,1,,,,,コマ,0
2389,9070003005394,新規,0,2024-04-30,2024-04-30,合同会社ＬＡＮＤ,,合同会社,群馬県,館林市,緑町１丁目１８番１８号,,10,207,3740025,,,,,,,2024-04-30,1,,,,,ランド,0
2390,9070005010269,新規,0,2024-04-30,2024-04-30,特定非営利活動法人アニー,,その他の設立登記法人,群馬県,前橋市,問屋町２丁目１４番地１,,10,201,3710855,,,,,,,2024-04-30,1,,,,,アニー,0
2392,9080001026268,新規,0,2024-04-30,2024-04-30,株式会社Ｙｓ,,株式会社,静岡県,静岡市駿河区,有東１丁目１４番２３－２０８号,,22,102,4228032,,,,,,,2024-04-30,1,,,,,ワイズ,0
2393,9100001037403,新規,0,2024-04-30,2024-04-30,株式会社ｉｂ,,株式会社,長野県,長野市,大字鶴賀上千歳町１３４７サンマルタンコーポ２０５号,,20,201,3800821,,,,,,,2024-04-30,1,,,,,イヴ,0
2406,9120001264409,新規,0,2024-04-30,2024-04-30,株式会社ジラーチ,,株式会社,大阪府,大阪市淀川区,宮原２丁目１２番１４－３１７号,,27,123,5320003,,,,,,,2024-04-30,1,,,,,ジラーチ,0
2407,9120001264482,新規,0,2024-04-30,2024-04-30,金珠株式会社,,株式会社,大阪府,大阪市住之江区,粉浜西３丁目２番１９号,,27,125,5590007,,,,,,,2024-04-30,1,,,,,キンシュ,0
2408,9120001264499,新規,0,2024-04-30,2024-04-30,ケイトブレスクリエイティブ株式会社,,株式会社,大阪府,大阪市天王寺区,堂ケ芝２丁目６番２号,,27,109,5430033,,,,,,,2024-04-30,1,,,,,ケイトブレスクリエイティブ,0
2409,9120001264516,新規,0,2024-04-30,2024-04-30,嘉信達株式会社,,株式会社,大阪府,大阪市東淀川区,東中島１丁目１７番５号,,27,114,5330033,,,,,,,2024-04-30,1,,,,,カシンダツ,0
2411,9120003026468,新規,0,2024-04-30,2024-04-30,ＨＡＬ経営コンサルティング合同会社,,合同会社,大阪府,枚方市,香里ケ丘５丁目５番地の１６,,27,210,5730084,,,,,,,2024-04-30,1,,,,,ハルケイエイコンサルティング,0
2413,9120103005801,新規,0,2024-04-30,2024-04-30,Ｂｌｏｓｓｏｍ合同会社,,合同会社,大阪府,堺市北区,百舌鳥本町１丁９３番地２,,27,146,5918036,,,,,,,2024-04-30,1,,,,,ブロッサム,0
2423,9140001134213,新規,0,2024-04-30,2024-04-30,株式会社トーアエステート,,株式会社,兵庫県,神戸市中央区,元町通７丁目３番２号,,28,110,6500022,,,,,,,2024-04-30,1,,,,,トーアエステート,0
2424,9140001134254,新規,0,2024-04-30,2024-04-30,株式会社明揚,,株式会社,兵庫県,神戸市中央区,山本通４丁目２３－１０、１Ｆ,,28,110,6500003,,,,,,,2024-04-30,1,,,,,メイヨウ,0
2426,9140005027066,新規,0,2024-04-30,2024-04-30,一般社団法人Ｔ＆Ｙ,,その他の設立登記法人,兵庫県,加古川市,尾上町池田１６９９－２,,28,210,6750023,,,,,,,2024-04-30,1,,,,,ティーアンドワイ,0
2435,9180001161179,新規,0,2024-04-30,2024-04-30,株式会社Ｈａｋｕ楽,,株式会社,愛知県,名古屋市中村区,名駅３丁目４番地１０アルティメイト名駅１ｓｔ２階,,23,105,4500002,,,,,,,2024-04-30,1,,,,,ハクラ,0
2441,9180003026685,新規,0,2024-04-30,2024-04-30,合同会社あま未来の学校,,合同会社,愛知県,あま市,七宝町安松西高御堂２５０３,,23,237,4970011,,,,,,,2024-04-30,1,,,,,アマミライノガッコウ,0
2444,9180303006098,新規,0,2024-04-30,2024-04-30,合同会社ＥＰ３,,合同会社,愛知県,豊田市,小坂本町１丁目４番地８ｃｅｌｌ８０１号室,,23,211,4710034,,,,,,,2024-04-30,1,,,,,イーピースリー,0
2462,9260003004666,新規,0,2024-04-30,2024-04-30,合同会社ＵＳＡＧＩ,,合同会社,岡山県,倉敷市,連島町鶴新田７３３番地６,,33,202,7128006,,,,,,,2024-04-30,1,,,,,ウサギ,0
2470,9290003015215,新規,0,2024-04-30,2024-04-30,合同会社ＣＯＣＯケア,,合同会社,福岡県,福岡市西区,福重３丁目２６番９号,,40,135,8190022,,,,,,,2024-04-30,1,,,,,ココケア,0
2482,9330003010335,新規,0,2024-04-30,2024-04-30,合同会社球磨ファーム８,,合同会社,熊本県,人吉市,上青井町１８０番地２４,,43,203,8680005,,,,,,,2024-04-30,1,,,,,クマファームエイト,0
2483,9340001026456,新規,0,2024-04-30,2024-04-30,株式会社大隅フルーツ,,株式会社,鹿児島県,肝属郡南大隅町,根占川北１２８２番地１,,46,491,8932501,,,,,,,2024-04-30,1,,,,,オオスミフルーツ,0
2484,9340001026464,新規,0,2024-04-30,2024-04-30,株式会社エフ土砂開発,,株式会社,鹿児島県,鹿児島市,春山町２１１９番地,,46,201,8992704,,,,,,,2024-04-30,1,,,,,エフドシャカイハツ,0
2495,9360001033574,新規,0,2024-04-30,2024-04-30,キキキ株式会社,,株式会社,沖縄県,名護市,字我部祖河１１４９－２,,47,209,9051155,,,,,,,2024-04-30,1,,,,,キキキ,0
2497,9360003013938,新規,0,2024-04-30,2024-04-30,合同会社Ｍ　ＤＥＳＩＧＮ　ＬＡＢＯ,,合同会社,沖縄県,那覇市,前島３丁目２５番２号泊ポートビル１Ｆ,,47,201,9000016,,,,,,,2024-04-30,1,,,,,エムデザインラボ,0
2500,9410003003917,新規,0,2024-04-30,2024-04-30,合同会社２ＮＥＥＴ,,合同会社,秋田県,秋田市,仁井田本町３丁目２４－４２,,05,201,0101421,,,,,,,2024-04-30,1,,,,,ツーニート,0
2504,9430001091664,新規,0,2024-04-30,2024-04-30,兆森株式会社,,株式会社,北海道,札幌市西区,八軒十条東１丁目１番８号フォーレスト八軒１０７,,01,107,0630870,,,,,,,2024-04-30,1,,,,,チョウモリ,0
2505,9430001091672,新規,0,2024-04-30,2024-04-30,株式会社Ｆｉｌｍｉｉ,,株式会社,北海道,札幌市中央区,北一条西３丁目３ばらと北一条ビル９Ｆ－５１,,01,101,0600001,,,,,,,2024-04-30,1,,,,,フィルミー,0
2506,9430001091689,新規,0,2024-04-30,2024-04-30,日本ペット後見協会株式会社,,株式会社,北海道,札幌市南区,澄川三条６丁目３番３号,,01,106,0050003,,,,,,,2024-04-30,1,,,,,ニホンペットコウケンキョウカイ,0
2507,9430003016272,新規,0,2024-04-30,2024-04-30,合同会社ｅｉｊｉｉｎｇ,,合同会社,北海道,札幌市中央区,宮の森四条５丁目１番１３号ヴィラ宮の森８号,,01,101,0640954,,,,,,,2024-04-30,1,,,,,エイジング,0
2510,9450001014301,新規,0,2024-04-30,2024-04-30,株式会社クレアスモリモト,,株式会社,北海道,空知郡上富良野町,西町４丁目,,01,460,0710546,,,,,,,2024-04-30,1,,,,,クレアスモリモト,0
2519,9700150125170,新規,0,2024-04-30,2024-04-30,Ｓｈａｎｇ　Ｈａｉ　Ｃｈｉ　Ｌｅ　Ｓｈａｎｇ　Ｍａｏ　Ｙｏｕ　Ｘｉａｎ　Ｇｏｎｇ　Ｓｉ,,外国会社等,,,,,,,,Ｓｈａｎｇ　Ｈａｉ　Ｓｈｉ　Ｍｉｎ　Ｈａｎｇ　Ｑｕ　Ｙｕａｎ　Ｊｉａｎｇ　Ｌｕ　５５００　Ｈａｏ　Ｄｉ　１　Ｚｈｕａｎｇ　Ｂ９４５　Ｓｈｉ，Ｍｉｎｈａｎｇ，Ｓｈａｎｇｈａｉ，２０１１１１,,,,,,2024-04-30,1,,,,,シャンハイチーラシャンマオヨウシエンゴンスー,0
