sequenceNumber,corporateNumber,process,correct,updateDate,changeDate,name,nameImageId,kind,prefectureName,cityName,streetNumber,addressImageId,prefectureCode,cityCode,postCode,addressOutside,addressOutsideImageId,closeDate,closeCause,successorCorporateNumber,changeCause,assignmentDate,latest,enName,enPrefectureName,enCityName,enAddressOutside,furigana,hihyoji
7,1010001239940,新規,0,2023-11-13,2023-11-13,ＪＰＡ第３００号株式会社,,株式会社,東京都,千代田区,霞が関３丁目２番１号,,13,101,1000013,,,,,,,2023-11-13,1,,,,,ジェイピーエーダイサンビャクゴウ,0
8,1010001239949,新規,0,2023-11-13,2023-11-13,ＪＰＡ第３０９号株式会社,,株式会社,東京都,千代田区,霞が関３丁目２番１号,,13,101,1000013,,,,,,,2023-11-13,1,,,,,ジェイピーエーダイサンビャクキュウゴウ,0
9,1010001239957,新規,0,2023-11-13,2023-11-13,株式会社メイセイキャピタルジャパン,,株式会社,東京都,中央区,日本橋室町１丁目１１番１２号日本橋水野ビル７階,,13,102,1030022,,,,,,,2023-11-13,1,,,,,メイセイキャピタルジャパン,0
10,1010001240023,新規,0,2023-11-13,2023-11-13,株式会社友潤,,株式会社,東京都,千代田区,神田三崎町２丁目１０番１１号ｐｅｇビル５Ａ－７,,13,101,1010061,,,,,,,2023-11-13,1,,,,,ユウジュン,0
13,1010003042194,新規,0,2023-11-13,2023-11-13,ＴＢＫコンサルイノベーション合同会社,,合同会社,東京都,千代田区,岩本町３丁目１番５号スミトー神田岩本町ビル８Ｆ,,13,101,1010032,,,,,,,2023-11-13,1,,,,,ティビィケィコンサルイノベーション,0
29,1010401177716,新規,0,2023-11-13,2023-11-13,株式会社のーぼーだー,,株式会社,東京都,港区,新橋５丁目１７番１－１２０４号,,13,103,1050004,,,,,,,2023-11-13,1,,,,,ノーボーダー,0
31,1010401178433,新規,0,2023-11-13,2023-11-13,全通株式会社,,株式会社,東京都,港区,南青山３丁目４番２－２０２号,,13,103,1070062,,,,,,,2023-11-13,1,,,,,ゼンツウ,0
35,1010403031334,新規,0,2023-11-13,2023-11-13,合同会社ＴＡＩＺＯ,,合同会社,東京都,港区,赤坂４丁目８番１９号赤坂フロントタウン３階,,13,103,1070052,,,,,,,2023-11-13,1,,,,,タイゾー,0
48,1010801034509,新規,0,2023-11-13,2023-11-13,株式会社ころる,,株式会社,東京都,大田区,下丸子１丁目１９－１３,,13,111,1460092,,,,,,,2023-11-13,1,,,,,コロル,0
49,1010803004749,新規,0,2023-11-13,2023-11-13,合同会社ｃｙｂｅｒ　ｒｏｃｋ,,合同会社,東京都,大田区,山王１丁目３－１ザ・山王タワー５０４,,13,111,1430023,,,,,,,2023-11-13,1,,,,,サイバーロック,0
56,1010901054142,新規,0,2023-11-13,2023-11-13,株式会社ＡＲＭＳ,,株式会社,東京都,世田谷区,代沢５丁目８－１５山口ビル２Ｆ,,13,112,1550032,,,,,,,2023-11-13,1,,,,,アームズ,0
57,1010901054175,新規,0,2023-11-13,2023-11-13,ゼログラム株式会社,,株式会社,東京都,世田谷区,船橋３丁目６番１１号千歳コーポ１０２,,13,112,1560055,,,,,,,2023-11-13,1,,,,,ゼログラム,0
68,1011001158024,新規,0,2023-11-13,2023-11-13,トレンディランド株式会社,,株式会社,東京都,渋谷区,宇田川町２番１－３１３Ｇ,,13,113,1500042,,,,,,,2023-11-13,1,,,,,トレンディランド,0
69,1011001158107,新規,0,2023-11-13,2023-11-13,株式会社ＨＯＳＨＩＮＯ,,株式会社,東京都,渋谷区,富ヶ谷１丁目１４－１４スタンフォードアネックスビル３Ｆ・４Ｆ,,13,113,1510063,,,,,,,2023-11-13,1,,,,,ホシノ,0
70,1011001158131,新規,0,2023-11-13,2023-11-13,株式会社ＷＡＬＬＴＥＣＨ,,株式会社,東京都,渋谷区,神宮前３丁目１８番２０号,,13,113,1500001,,,,,,,2023-11-13,1,,,,,ウォールテック,0
71,1011001158189,新規,0,2023-11-13,2023-11-13,プール・モア・クリエイション株式会社,,株式会社,東京都,渋谷区,千駄ヶ谷１丁目２８－８ニュー千駄ヶ谷マンション,,13,113,1510051,,,,,,,2023-11-13,1,,,,,プールモアクリエイション,0
72,1011001158214,新規,0,2023-11-13,2023-11-13,株式会社ＶＩＶＡ,,株式会社,東京都,目黒区,東山３丁目４番８ー２０１号,,13,110,1530043,,,,,,,2023-11-13,1,,,,,ビバ,0
74,1011003017896,新規,0,2023-11-13,2023-11-13,合同会社ミノラスコンサルティング,,合同会社,東京都,目黒区,上目黒３丁目４２番７－２０５号,,13,110,1530051,,,,,,,2023-11-13,1,,,,,ミノラスコンサルティング,0
75,1011003017913,新規,0,2023-11-13,2023-11-13,合同会社ＲＯＡＣ,,合同会社,東京都,渋谷区,代々木２丁目３６－１１－１０２,,13,113,1510053,,,,,,,2023-11-13,1,,,,,ロアツク,0
80,1011101105099,新規,0,2023-11-13,2023-11-13,株式会社フェリス不動産,,株式会社,東京都,新宿区,西新宿６丁目１２－７,,13,104,1600023,,,,,,,2023-11-13,1,,,,,フェリスフドウサン,0
81,1011101105108,新規,0,2023-11-13,2023-11-13,直方株式会社,,株式会社,東京都,新宿区,早稲田鶴巻町５３８番地１９リンクス早稲田ビル５０８,,13,104,1620041,,,,,,,2023-11-13,1,,,,,チョクホウ,0
82,1011101105116,新規,0,2023-11-13,2023-11-13,株式会社キュウライズ,,株式会社,東京都,新宿区,新宿２丁目１１－７－５Ｆ,,13,104,1600022,,,,,,,2023-11-13,1,,,,,キュウライズ,0
84,1011105010857,新規,0,2023-11-13,2023-11-13,一般社団法人青少年を守る父母の連絡協議会,,その他の設立登記法人,東京都,新宿区,歌舞伎町２丁目４２番３号,,13,104,1600021,,,,,,,2023-11-13,1,,,,,セイショウネンヲマモルフボノレンラクキョウギカイ,0
85,1011203004224,新規,0,2023-11-13,2023-11-13,Ｍｏｚｌｙ合同会社,,合同会社,東京都,中野区,松が丘１丁目２２番２０号,,13,114,1650024,,,,,,,2023-11-13,1,,,,,モズリー,0
90,1011501029971,新規,0,2023-11-13,2023-11-13,健の道株式会社,,株式会社,東京都,荒川区,町屋３丁目２４番２号面川ビル３１１号室,,13,118,1160001,,,,,,,2023-11-13,1,,,,,ケンノミチ,0
95,1011803005935,新規,0,2023-11-13,2023-11-13,合同会社芳重,,合同会社,東京都,足立区,竹の塚４丁目１３番５号,,13,121,1210813,,,,,,,2023-11-13,1,,,,,ホウジュウ,0
100,1012803003235,新規,0,2023-11-13,2023-11-13,Ｌｏｖｅｌａｃｅ合同会社,,合同会社,東京都,国分寺市,西恋ヶ窪３丁目６番地４５,,13,214,1850013,,,,,,,2023-11-13,1,,,,,ラブレース,0
117,1020001154412,新規,0,2023-11-13,2023-11-13,株式会社エステック,,株式会社,神奈川県,横浜市磯子区,中原１丁目１番３１－７０４号,,14,107,2350036,,,,,,,2023-11-13,1,,,,,エステック,0
118,1020001154437,新規,0,2023-11-13,2023-11-13,株式会社エヌアールエス,,株式会社,神奈川県,横浜市神奈川区,三枚町１９７番地１シティハイム片倉町１０５号,,14,102,2210862,,,,,,,2023-11-13,1,,,,,エヌアールエス,0
119,1020001154445,新規,0,2023-11-13,2023-11-13,安聞自動車システム株式会社,,株式会社,神奈川県,横浜市中区,本牧町２丁目４３７番地,,14,104,2310806,,,,,,,2023-11-13,1,,,,,アンブンジドウシャシステム,0
127,1020003024976,新規,0,2023-11-13,2023-11-13,ＡＲＴ　Ｃｏｎｎｅｃｔｉｏｎ合同会社,,合同会社,神奈川県,横浜市神奈川区,金港町７番地３金港ビル７階,,14,102,2210056,,,,,,,2023-11-13,1,,,,,アートコネクション,0
128,1020003024984,新規,0,2023-11-13,2023-11-13,合同会社Ｌｏｕｎｇｅ,,合同会社,神奈川県,川崎市高津区,新作３丁目３番１６－２号,,14,134,2130014,,,,,,,2023-11-13,1,,,,,ラウンジ,0
137,1021001080714,新規,0,2023-11-13,2023-11-13,ＮＥＸＴＴＡＯ　ＪＡＰＡＮ株式会社,,株式会社,神奈川県,藤沢市,鵠沼松が岡５丁目５番７号,,14,205,2510038,,,,,,,2023-11-13,1,,,,,,0
139,1021003013787,新規,0,2023-11-13,2023-11-13,合同会社Ｃｏｎｎｅｃｔ　Ｓｔａｔｉｏｎ,,合同会社,神奈川県,厚木市,船子１１３６番地１,,14,212,2430034,,,,,,,2023-11-13,1,,,,,コネクトステーション,0
140,1021003013804,新規,0,2023-11-13,2023-11-13,合同会社Ｌｉｂｅｌｉｅｎ,,合同会社,神奈川県,相模原市南区,相模台２丁目２－２ガーデンビルＩＩ３階フェルゴ内,00132613,14,153,2520321,,,,,,,2023-11-13,1,,,,,リベリアン,0
141,1021005012936,新規,0,2023-11-13,2023-11-13,社会保険労務士法人内野労務管理事務所,,その他の設立登記法人,神奈川県,藤沢市,本町１丁目１２番２４号,,14,205,2510053,,,,,,,2023-11-13,1,,,,,,0
145,1030001157117,新規,0,2023-11-13,2023-11-13,株式会社奏建,,株式会社,埼玉県,さいたま市西区,大字二ツ宮７５４番地７,,11,101,3310065,,,,,,,2023-11-13,1,,,,,ソウケン,0
146,1030001157125,新規,0,2023-11-13,2023-11-13,株式会社工事らぼ,,株式会社,埼玉県,戸田市,中町２丁目１番２０号,,11,224,3350012,,,,,,,2023-11-13,1,,,,,コウジラボ,0
147,1030001157141,新規,0,2023-11-13,2023-11-13,株式会社ＭＭＤ　ＴＲＡＤＩＮＧ,,株式会社,埼玉県,加須市,礼羽３３５番地１－西１,,11,210,3470044,,,,,,,2023-11-13,1,,,,,エムエムディトレーディング,0
148,1030003022987,新規,0,2023-11-13,2023-11-13,合同会社中西ＢＳ,,合同会社,埼玉県,さいたま市桜区,中島１丁目３５番２０－２０４号,,11,106,3380822,,,,,,,2023-11-13,1,,,,,ナカニシビーエス,0
159,1040003023712,新規,0,2023-11-13,2023-11-13,合同会社ＣｈａｎｇｅＬｅａｐ,,合同会社,千葉県,市川市,新井１丁目１９番地３２－３１０号（グラン・シャトー）,,12,203,2720144,,,,,,,2023-11-13,1,,,,,チェンジリープ,0
160,1050001053818,新規,0,2023-11-13,2023-11-13,株式会社カーピットミヤモト,,株式会社,茨城県,稲敷市,浮島５３１９番地１,,08,229,3000641,,,,,,,2023-11-13,1,,,,,カーピットミヤモト,0
188,1120001259614,新規,0,2023-11-13,2023-11-13,建盟株式会社,,株式会社,大阪府,大阪市西成区,太子２丁目４番１号,,27,122,5570002,,,,,,,2023-11-13,1,,,,,ケンメイ,0
189,1120001259746,新規,0,2023-11-13,2023-11-13,株式会社Ｌｉｂｅｒｔｙ,,株式会社,大阪府,大阪市北区,浮田２丁目２番３６－２０４号,,27,127,5300021,,,,,,,2023-11-13,1,,,,,リバティ,0
190,1120001259787,新規,0,2023-11-13,2023-11-13,途柚国際株式会社,,株式会社,大阪府,大阪市西成区,津守３丁目５番５０号,,27,122,5570062,,,,,,,2023-11-13,1,,,,,トユコクサイ,0
196,1120003025295,新規,0,2023-11-13,2023-11-13,１７ＭＡＲＴ合同会社,,合同会社,大阪府,大阪市生野区,桃谷１丁目１０番１７号,,27,116,5440034,,,,,,,2023-11-13,1,,,,,イチナナマート,0
197,1120005023982,新規,0,2023-11-13,2023-11-13,ＡＬＬ協同組合,,その他の設立登記法人,大阪府,大阪市港区,弁天６丁目３番６号,,27,107,5520007,,,,,,,2023-11-13,1,,,,,オール,0
199,1120901048348,新規,0,2023-11-13,2023-11-13,株式会社ＳＥＳ,,株式会社,大阪府,吹田市,山田東２丁目１０番２０－３０４号,,27,205,5650821,,,,,,,2023-11-13,1,,,,,エスイーエス,0
204,1122001037561,新規,0,2023-11-13,2023-11-13,株式会社Ｍｕｌｂｅｒｒｙ,,株式会社,大阪府,東大阪市,吉田７丁目３番２９号,,27,227,5780924,,,,,,,2023-11-13,1,,,,,マルベリー,0
209,1130001075671,新規,0,2023-11-13,2023-11-13,株式会社ダブルムーン,,株式会社,京都府,京都市伏見区,桃山町大島３２番地の２６,,26,109,6128006,,,,,,,2023-11-13,1,,,,,ダブルムーン,0
210,1130001075696,新規,0,2023-11-13,2023-11-13,株式会社Ｐ＆Ｎ,,株式会社,京都府,京都市中京区,壬生坊城町６６番地３シェモワ３０－５Ｅ,,26,104,6048804,,,,,,,2023-11-13,1,,,,,ピーアンドエヌ,0
211,1130001075721,新規,0,2023-11-13,2023-11-13,三日月ジュエリー株式会社,,株式会社,京都府,京都市東山区,渋谷通東大路東入三丁目上馬町５４０番地,,26,105,6050000,,,,,,,2023-11-13,1,,,,,ミカヅキジュエリー,0
213,1130003009017,新規,0,2023-11-13,2023-11-13,合同会社サファイア,,合同会社,京都府,京都市下京区,二ノ宮町通正面下る上二之宮町３９２番地レジデンス２５－３０５号室,,26,106,6008131,,,,,,,2023-11-13,1,,,,,サファイア,0
226,1140003019808,新規,0,2023-11-13,2023-11-13,合同会社樹,,合同会社,兵庫県,芦屋市,春日町１０番８－４０３号,,28,206,6590021,,,,,,,2023-11-13,1,,,,,イツキ,0
232,1170003001944,新規,0,2023-11-13,2023-11-13,大勝合名会社,,合名会社,和歌山県,和歌山市,北町２０番地,,30,201,6408038,,,,,,,2023-11-13,1,,,,,ダイショウ,0
239,1180003025975,新規,0,2023-11-13,2023-11-13,合同会社ｃａｒｎａｔｉｏｎ,,合同会社,愛知県,名古屋市南区,呼続５丁目１３番２７号,,23,112,4570014,,,,,,,2023-11-13,1,,,,,カーネーション,0
240,1180003025983,新規,0,2023-11-13,2023-11-13,合同会社ＤＥＳＩＧＮ　ＰＬＵＳ,,合同会社,愛知県,清須市,西枇杷島町北二ツ杁１２３番地,,23,233,4520055,,,,,,,2023-11-13,1,,,,,デザインプラス,0
245,1200003006147,新規,0,2023-11-13,2023-11-13,合同会社エムズサポート,,合同会社,岐阜県,岐阜市,鹿島町１丁目１番地,,21,201,5008323,,,,,,,2023-11-13,1,,,,,エムズサポート,0
260,1240003006416,新規,0,2023-11-13,2023-11-13,合同会社未来,,合同会社,広島県,福山市,西深津町３丁目８番２４－２０３号,,34,207,7210975,,,,,,,2023-11-13,1,,,,,ミライ,0
262,1250001020392,新規,0,2023-11-13,2023-11-13,株式会社ＴＲＹＧＥＮ,,株式会社,山口県,山口市,秋穂西３２７３番地１,,35,203,7541102,,,,,,,2023-11-13,1,,,,,トライゲン,0
264,1260001038483,新規,0,2023-11-13,2023-11-13,株式会社ＷＩＬＬ,,株式会社,岡山県,岡山市北区,十日市中町１２番１８号,,33,101,7000855,,,,,,,2023-11-13,1,,,,,ウィル,0
276,1290001103714,新規,0,2023-11-13,2023-11-13,株式会社ジジ,,株式会社,福岡県,福岡市中央区,天神２丁目３番１０号,,40,133,8100001,,,,,,,2023-11-13,1,,,,,ジジ,0
277,1290001103730,新規,0,2023-11-13,2023-11-13,株式会社ＳＯＬＶ,,株式会社,福岡県,福岡市博多区,博多駅前２丁目１９番１７号トーカン博多第５ビル３１２号室,,40,132,8120011,,,,,,,2023-11-13,1,,,,,ソルブ,0
278,1290001103739,新規,0,2023-11-13,2023-11-13,株式会社エレナ,,株式会社,福岡県,福岡市中央区,小笹２丁目７番１１－４０１号,,40,133,8100033,,,,,,,2023-11-13,1,,,,,エレナ,0
279,1290001103747,新規,0,2023-11-13,2023-11-13,株式会社ＡｎｄＬｉｌｙ,,株式会社,福岡県,福岡市中央区,高砂１丁目８番８－５０１号,,40,133,8100011,,,,,,,2023-11-13,1,,,,,アンドリリー,0
287,1290801030042,新規,0,2023-11-13,2023-11-13,株式会社Ｚｅｒｏ‐Ｏｎｅ,,株式会社,福岡県,北九州市八幡西区,三ケ森２丁目１－４－８０１,,40,109,8070843,,,,,,,2023-11-13,1,,,,,ゼロワン,0
290,1300003002045,新規,0,2023-11-13,2023-11-13,合同会社結,,合同会社,佐賀県,佐賀市,大和町大字松瀬２５８４番地,,41,201,8400204,,,,,,,2023-11-13,1,,,,,ユイ,0
293,1320001020146,新規,0,2023-11-13,2023-11-13,ＳｔｏｃｋＯｎｅ株式会社,,株式会社,大分県,大分市,大字上宗方１６６３番１プロスペリタ宗方４０１,,44,201,8701152,,,,,,,2023-11-13,1,,,,,ストックワン,0
296,1340001026067,新規,0,2023-11-13,2023-11-13,株式会社サンパール物流,,株式会社,鹿児島県,鹿児島市,住吉町１３番６号３階,,46,201,8920823,,,,,,,2023-11-13,1,,,,,サンパールブツリュウ,0
304,1360003013474,新規,0,2023-11-13,2023-11-13,合同会社Ｔ‐ＰＬＡＮ,,合同会社,沖縄県,糸満市,字糸満２０３４番地,,47,210,9010361,,,,,,,2023-11-13,1,,,,,ティープラン,0
314,1390003002160,新規,0,2023-11-13,2023-11-13,合同会社ＴＡＲＴＡＮ,,合同会社,山形県,鶴岡市,藤島字村前２８,,06,203,9997601,,,,,,,2023-11-13,1,,,,,タータン,0
318,1410001013644,新規,0,2023-11-13,2023-11-13,株式会社スフィーダ,,株式会社,秋田県,秋田市,手形字山崎１６９番地１,,05,201,0100851,,,,,,,2023-11-13,1,,,,,スフィーダ,0
321,1430001090426,新規,0,2023-11-13,2023-11-13,株式会社小野,,株式会社,北海道,札幌市中央区,南一条西１丁目１６番地４,,01,101,0600061,,,,,,,2023-11-13,1,,,,,オノ,0
326,1470003002516,新規,0,2023-11-13,2023-11-13,合同会社３Ｓ,,合同会社,香川県,高松市,新田町乙２３番地２８,,37,201,7610103,,,,,,,2023-11-13,1,,,,,スリーエス,0
330,1500001025300,新規,0,2023-11-13,2023-11-13,株式会社海榮ＴＲＡＤＩＮＧ,,株式会社,愛媛県,宇和島市,高串１番耕地１３０１番地１,,38,203,7980020,,,,,,,2023-11-13,1,,,,,カイエイトレーディング,0
332,1700150122010,新規,0,2023-11-13,2023-11-13,ＳＭＡＲＴ　ＹＥＡＲ　ＩＮＴＥＲＮＡＴＩＯＮＡＬ　ＬＩＭＩＴＥＤ,,外国会社等,,,,,,,,ＦＬＡＴ／ＲＭ　Ａ　１２／Ｆ　ＺＪ　３００，３００　ＬＯＣＫＨＡＲＴ　ＲＯＡＤ，ＷＡＮ　ＣＨＡＩ，ＨＯＮＧ　ＫＯＮＧ,,,,,,2023-11-13,1,,,,,スマートイヤーインターナシヨナルリミテツド,0
342,2010001239948,新規,0,2023-11-13,2023-11-13,ＪＰＡ第３０８号株式会社,,株式会社,東京都,千代田区,霞が関３丁目２番１号,,13,101,1000013,,,,,,,2023-11-13,1,,,,,ジェイピーエーダイサンビャクハチゴウ,0
344,2010003042193,新規,0,2023-11-13,2023-11-13,ＡＧＳ合同会社,,合同会社,東京都,千代田区,神田和泉町一丁目６番地２号神田ビル２０２号室,,13,101,1010024,,,,,,,2023-11-13,1,,,,,エージーエス,0
345,2010105002236,新規,0,2023-11-13,2023-11-13,ＮＰＯ法人結の学び舎いちえ,,その他の設立登記法人,東京都,八王子市,小比企町２３２７番地３,,13,201,1930934,,,,,,,2023-11-13,1,,,,,ユイノマナビヤイチエ,0
358,2010501051217,新規,0,2023-11-13,2023-11-13,釆虹橋株式会社,,株式会社,東京都,台東区,上野６丁目７－１６川久保ビル５１３号,,13,106,1100005,,,,,,,2023-11-13,1,,,,,サイコウバシ,0
362,2010601064127,新規,0,2023-11-13,2023-11-13,株式会社柳田電設,,株式会社,東京都,墨田区,緑４丁目４番４号,,13,107,1300021,,,,,,,2023-11-13,1,,,,,ヤナギダデンセツ,0
388,2011001157966,新規,0,2023-11-13,2023-11-13,株式会社ＮＥＯ,,株式会社,東京都,渋谷区,神南１丁目１３－４,,13,113,1500041,,,,,,,2023-11-13,1,,,,,ネオ,0
389,2011001158097,新規,0,2023-11-13,2023-11-13,株式会社秘密厨房,,株式会社,東京都,渋谷区,恵比寿西２丁目８番４号ＥＸ恵比寿西ビル５階,,13,113,1500021,,,,,,,2023-11-13,1,,,,,ヒミツチュウボウ,0
390,2011001158188,新規,0,2023-11-13,2023-11-13,株式会社ディケイター,,株式会社,東京都,渋谷区,宇田川町２番１－２０６号,,13,113,1500042,,,,,,,2023-11-13,1,,,,,ディケイター,0
391,2011001158196,新規,0,2023-11-13,2023-11-13,株式会社Ｇｉｆｔｅｒ,,株式会社,東京都,渋谷区,神泉町１１－８カネヨシビル４階,,13,113,1500045,,,,,,,2023-11-13,1,,,,,ギフター,0
392,2011003017870,新規,0,2023-11-13,2023-11-13,合同会社ＴＢＯ,,合同会社,東京都,渋谷区,渋谷２丁目１９－１５宮益坂ビルディング６０９,,13,113,1500002,,,,,,,2023-11-13,1,,,,,ティビーオー,0
393,2011003017920,新規,0,2023-11-13,2023-11-13,ＡＥＬＬＥ　ＨＡＩＲ合同会社,,合同会社,東京都,渋谷区,神宮前３丁目４２番２号ＶＯＲＴ外苑前ＩＩＩ２階Ａ区画,00132616,13,113,1500001,,,,,,,2023-11-13,1,,,,,アエルヘアー,0
394,2011003017929,新規,0,2023-11-13,2023-11-13,台湾ＣＰ貿易合同会社,,合同会社,東京都,渋谷区,笹塚２丁目４１－１７－１０２室,,13,113,1510073,,,,,,,2023-11-13,1,,,,,タイワンシーピーボウエキ,0
410,2011301029155,新規,0,2023-11-13,2023-11-13,ＮｉｃｈｅＩｎｄｕｓｔｒｙ株式会社,,株式会社,東京都,杉並区,和田１丁目２８番７号,,13,115,1660012,,,,,,,2023-11-13,1,,,,,ニッチインダストリー,0
411,2011303004957,新規,0,2023-11-13,2023-11-13,合同会社エスアール,,合同会社,東京都,杉並区,高井戸東３丁目１０番２６号,,13,115,1680072,,,,,,,2023-11-13,1,,,,,エスアール,0
415,2011403004171,新規,0,2023-11-13,2023-11-13,バイオエナジーラボ合同会社,,合同会社,東京都,板橋区,南常盤台１丁目１１番６号,,13,119,1740072,,,,,,,2023-11-13,1,,,,,バイオエナジーラボ,0
418,2011501029979,新規,0,2023-11-13,2023-11-13,株式会社ＳＫＨ,,株式会社,東京都,荒川区,南千住５丁目４３番７－４０１号,,13,118,1160003,,,,,,,2023-11-13,1,,,,,エスケーエイチ,0
422,2011701026743,新規,0,2023-11-13,2023-11-13,株式会社江田水産,,株式会社,東京都,江戸川区,西葛西８丁目１１番２号１０１,,13,123,1340088,,,,,,,2023-11-13,1,,,,,エダスイサン,0
425,2011803005934,新規,0,2023-11-13,2023-11-13,合同会社太花,,合同会社,東京都,足立区,興野２丁目１６番２号‐１階,,13,121,1230844,,,,,,,2023-11-13,1,,,,,タイカ,0
430,2013301051584,新規,0,2023-11-13,2023-11-13,株式会社ＳＰＦＳ,,株式会社,東京都,豊島区,東池袋３丁目７番９号ＡＳＯＮＥ東池袋ビル３階,,13,116,1700013,,,,,,,2023-11-13,1,,,,,エスピーエフズ,0
443,2020001154246,新規,0,2023-11-13,2023-11-13,株式会社ＦＫ街づくり工房,,株式会社,神奈川県,川崎市麻生区,向原３丁目１５番地２１号,,14,137,2150007,,,,,,,2023-11-13,1,,,,,エフケイマチヅクリコウボウ,0
444,2020001154436,新規,0,2023-11-13,2023-11-13,株式会社ＳＴＡＲＫ,,株式会社,神奈川県,川崎市高津区,蟹ケ谷３０８番地６７,,14,134,2130025,,,,,,,2023-11-13,1,,,,,,0
445,2020001154452,新規,0,2023-11-13,2023-11-13,株式会社ヤカマス商事,,株式会社,神奈川県,川崎市宮前区,野川本町１丁目２８番２７号,,14,136,2160041,,,,,,,2023-11-13,1,,,,,ヤカマスショウジ,0
446,2020001154477,新規,0,2023-11-13,2023-11-13,株式会社なでし子,,株式会社,神奈川県,横浜市西区,岡野１丁目１番５号カーサアストレア１１０３,,14,103,2200073,,,,,,,2023-11-13,1,,,,,ナデシコ,0
455,2021001080696,新規,0,2023-11-13,2023-11-13,株式会社ｋａｔｓｕｍｉ,,株式会社,神奈川県,藤沢市,片瀬４丁目８番１３号－３,,14,205,2510032,,,,,,,2023-11-13,1,,,,,カツミ,0
456,2021001080713,新規,0,2023-11-13,2023-11-13,株式会社ＩＪＳ２５,,株式会社,神奈川県,相模原市中央区,淵野辺３丁目１５番１号,,14,152,2520206,,,,,,,2023-11-13,1,,,,,アイジェーエストウェンティファイブ,0
467,2030001156992,新規,0,2023-11-13,2023-11-13,株式会社ＡＳＡＨＩ,,株式会社,埼玉県,さいたま市緑区,原山１丁目２７番１３－５号,,11,109,3360931,,,,,,,2023-11-13,1,,,,,アサヒ,0
471,2030003022920,新規,0,2023-11-13,2023-11-13,合同会社鳳,,合同会社,埼玉県,さいたま市大宮区,桜木町４丁目１８２－１,,11,103,3300854,,,,,,,2023-11-13,1,,,,,フウカ,0
472,2030003022978,新規,0,2023-11-13,2023-11-13,森川禾商事合同会社,,合同会社,埼玉県,蕨市,北町２丁目９番２２号,,11,223,3350001,,,,,,,2023-11-13,1,,,,,モリカワノギショウジ,0
473,2030003022986,新規,0,2023-11-13,2023-11-13,合同会社ピースフル,,合同会社,埼玉県,八潮市,大字大瀬１４６１－６,,11,234,3400822,,,,,,,2023-11-13,1,,,,,ピースフル,0
489,2040001130897,新規,0,2023-11-13,2023-11-13,株式会社ラスコージャパン,,株式会社,千葉県,館山市,北条２８６８番地,,12,205,2940045,,,,,,,2023-11-13,1,,,,,ラスコージャパン,0
490,2040001130922,新規,0,2023-11-13,2023-11-13,ＷＯＮＤＥＲＦＵＬ　ＪＡＰＡＮ株式会社,,株式会社,千葉県,成田市,吉岡９９１番地１２,,12,211,2870225,,,,,,,2023-11-13,1,,,,,ワンダフルジャパン,0
517,2110005017019,新規,0,2023-11-13,2023-11-13,特定非営利活動法人こどもみらい食堂,,その他の設立登記法人,新潟県,長岡市,学校町１丁目１０番３１号,,15,202,9400041,,,,,,,2023-11-13,1,,,,,コドモミライショクドウ,0
525,2120001259729,新規,0,2023-11-13,2023-11-13,ワールドワン株式会社,,株式会社,大阪府,大阪市生野区,鶴橋４丁目１２番１７号,,27,116,5440031,,,,,,,2023-11-13,1,,,,,ワールドワン,0
526,2120003025328,新規,0,2023-11-13,2023-11-13,合同会社結屋,,合同会社,大阪府,寝屋川市,下木田町１６番１８－４０６号,,27,215,5720823,,,,,,,2023-11-13,1,,,,,ムスビヤ,0
533,2130001075654,新規,0,2023-11-13,2023-11-13,キャニオンバイシクルズ・ジャパン株式会社,,株式会社,京都府,京都市南区,久世上久世町５００番地１０４,,26,107,6018212,,,,,,,2023-11-13,1,,,,,キャニオンバイシクルズジャパン,0
534,2130001075704,新規,0,2023-11-13,2023-11-13,株式会社ＪａｖａＷｏｒｋｓ,,株式会社,京都府,京都市山科区,西野離宮町３１番地１３ＢＥＬＩＳＴＡ京都山科１２８号,,26,110,6078345,,,,,,,2023-11-13,1,,,,,ジャバワークス,0
547,2140001132314,新規,0,2023-11-13,2023-11-13,株式会社アメマイネ,,株式会社,兵庫県,神戸市中央区,磯辺通１丁目１番１８－７０７号室,,28,110,6510084,,,,,,,2023-11-13,1,,,,,アメマイネ,0
550,2160001025499,新規,0,2023-11-13,2023-11-13,株式会社ＨＫＲ,,株式会社,滋賀県,高島市,新旭町熊野本１丁目１７番地１３,,25,212,5201532,,,,,,,2023-11-13,1,,,,,エイチケーアール,0
555,2180001033186,新規,0,2023-11-13,2023-11-13,株式会社矢澤業務店,,株式会社,愛知県,名古屋市中村区,太閤通７丁目１番地,,23,105,4530811,,,,,,,2023-11-13,1,,,,,ヤザワギョウムテン,0
564,2180001158891,新規,0,2023-11-13,2023-11-13,株式会社ヴィ企画,,株式会社,愛知県,名古屋市北区,成願寺１丁目６番Ａ－３４０５号,,23,103,4620021,,,,,,,2023-11-13,1,,,,,ヴィキカク,0
573,2200001041896,新規,0,2023-11-13,2023-11-13,株式会社ＩＤＣ,,株式会社,岐阜県,羽島郡笠松町,長池３３７番地の１,,21,303,5016063,,,,,,,2023-11-13,1,,,,,アイディーシー,0
574,2200003006154,新規,0,2023-11-13,2023-11-13,合同会社吉田,00132621,合同会社,岐阜県,羽島市,江吉良町江西１丁目２９番地１,,21,209,5016237,,,,,,,2023-11-13,1,,,,,ヨシダ,0
575,2200005013537,新規,0,2023-11-13,2023-11-13,一般社団法人こどもスポーツアカデミー,,その他の設立登記法人,岐阜県,瑞穂市,別府６２０番地３グランドステージミズタ２Ｆ,,21,216,5010222,,,,,,,2023-11-13,1,,,,,コドモスポーツアカデミー,0
602,2290001103705,新規,0,2023-11-13,2023-11-13,東亜実業株式会社,,株式会社,福岡県,福岡市西区,拾六町１丁目２番２９号,,40,135,8190041,,,,,,,2023-11-13,1,,,,,トウアジツギョウ,0
603,2290001103713,新規,0,2023-11-13,2023-11-13,月義株式会社,,株式会社,福岡県,福岡市博多区,千代１丁目１２番２号フィオーレコート吉塚１０３号室,,40,132,8120044,,,,,,,2023-11-13,1,,,,,ゲツギ,0
604,2290001103721,新規,0,2023-11-13,2023-11-13,株式会社ＷＹ,,株式会社,福岡県,春日市,須玖北５丁目１７８番地３Ｆ,,40,218,8160864,,,,,,,2023-11-13,1,,,,,ダブリューワイ,0
605,2290001103738,新規,0,2023-11-13,2023-11-13,株式会社ふみ建築ｄｅｓｉｇｎ,,株式会社,福岡県,福岡市早良区,飯倉７丁目２８番１０号,,40,137,8140161,,,,,,,2023-11-13,1,,,,,フミケンチクデザイン,0
606,2290001103746,新規,0,2023-11-13,2023-11-13,株式会社北原設備,,株式会社,福岡県,那珂川市,大字別所３７９番地３,,40,231,8111245,,,,,,,2023-11-13,1,,,,,キタハラセツビ,0
608,2290801030041,新規,0,2023-11-13,2023-11-13,株式会社匡工業,,株式会社,福岡県,中間市,浄花町４番１７号,,40,215,8090038,,,,,,,2023-11-13,1,,,,,マサコウギョウ,0
613,2320001020145,新規,0,2023-11-13,2023-11-13,株式会社ＡｎＩｏｕｉＳ,,株式会社,大分県,大分市,東大道２丁目４番５号－１００８号,,44,201,8700823,,,,,,,2023-11-13,1,,,,,エンルイス,0
618,2340005009678,新規,0,2023-11-13,2023-11-13,一般社団法人鹿児島県しらすうなぎ採捕取扱者協議会,,その他の設立登記法人,鹿児島県,鹿児島市,鴨池新町１０番１号,,46,201,8900064,,,,,,,2023-11-13,1,,,,,カゴシマケンシラスウナギサイホトリアツカイシャキョウギカイ,0
632,2430001090400,新規,0,2023-11-13,2023-11-13,ＧＯ株式会社,,株式会社,北海道,岩見沢市,志文本町四条４丁目１番１７号,,01,210,0680844,,,,,,,2023-11-13,1,,,,,ゴー,0
634,2430003015636,新規,0,2023-11-13,2023-11-13,合同会社オラプ,,合同会社,北海道,札幌市豊平区,福住二条３丁目４番１－６０４号,,01,105,0620042,,,,,,,2023-11-13,1,,,,,オラプ,0
636,2470003002515,新規,0,2023-11-13,2023-11-13,ＳＨ２２合同会社,,合同会社,香川県,高松市,屋島中町４７５番地１,,37,201,7610112,,,,,,,2023-11-13,1,,,,,エスエイチニジュウニ,0
646,3010001239716,新規,0,2023-11-13,2023-11-13,株式会社ハグティービー,,株式会社,東京都,中央区,八重洲２丁目１－１ＹＡＮＭＡＲ＿ＴＯＫＹＯ１２階,,13,102,1040028,,,,,,,2023-11-13,1,,,,,ハグティービー,0
647,3010001239930,新規,0,2023-11-13,2023-11-13,七福荘ホテル管理株式会社,,株式会社,東京都,中央区,日本橋兜町１７－１－７１０号室,,13,102,1030026,,,,,,,2023-11-13,1,,,,,シチフクソウホテルカンリ,0
648,3010001239939,新規,0,2023-11-13,2023-11-13,ＪＰＡ第２９９号株式会社,,株式会社,東京都,千代田区,霞が関３丁目２番１号,,13,101,1000013,,,,,,,2023-11-13,1,,,,,ジェイピーエーダイニヒャクキュウジュウキュウゴウ,0
649,3010001239996,新規,0,2023-11-13,2023-11-13,株式会社ＲＥＲＩＳＥ,,株式会社,東京都,千代田区,神田駿河台２丁目１番１９号アルベルゴ御茶ノ水２０４号室,,13,101,1010062,,,,,,,2023-11-13,1,,,,,リライズ,0
652,3010003042192,新規,0,2023-11-13,2023-11-13,友光国際合同会社,,合同会社,東京都,千代田区,飯田橋２丁目１６－４九段下コート２Ｆ－２１４号室,,13,101,1020072,,,,,,,2023-11-13,1,,,,,ユウコウコクサイ,0
655,3010101015884,新規,0,2023-11-13,2023-11-13,株式会社大吟,,株式会社,東京都,八王子市,堀之内３丁目５番地１－２０６号,,13,201,1920355,,,,,,,2023-11-13,1,,,,,ダイギン,0
656,3010103002253,新規,0,2023-11-13,2023-11-13,合同会社ソルテサポート,,合同会社,東京都,八王子市,川口町１１４６番地１,,13,201,1930801,,,,,,,2023-11-13,1,,,,,ソルテサポート,0
660,3010401178480,新規,0,2023-11-13,2023-11-13,未来宣伝株式会社,,株式会社,東京都,港区,新橋５丁目１２－１１－５０３号室,,13,103,1050004,,,,,,,2023-11-13,1,,,,,ミライセンデン,0
682,3011001158170,新規,0,2023-11-13,2023-11-13,株式会社ＲｅＣＡＲＬ,,株式会社,東京都,渋谷区,道玄坂１丁目１０番８号渋谷道玄坂東急２Ｆ－Ｃ,,13,113,1500043,,,,,,,2023-11-13,1,,,,,リカール,0
684,3011003017911,新規,0,2023-11-13,2023-11-13,合同会社ＳＥＬＬＥＢＲＯ,,合同会社,東京都,渋谷区,恵比寿西２丁目４番８号ウィンド恵比寿ビル８Ｆ,,13,113,1500021,,,,,,,2023-11-13,1,,,,,セレブロ,0
688,3011301029154,新規,0,2023-11-13,2023-11-13,Ｇｏｏｄ　ｍａｎａｇｅｍｅｎｔ株式会社,,株式会社,東京都,杉並区,大宮２丁目２４番１２号,,13,115,1680061,,,,,,,2023-11-13,1,,,,,グッドマネージメント,0
689,3011303004956,新規,0,2023-11-13,2023-11-13,合同会社ミントクリーンスタッフ,,合同会社,東京都,杉並区,井草３丁目２４番１５号,,13,115,1670021,,,,,,,2023-11-13,1,,,,,ミントクリーンスタッフ,0
691,3011403004170,新規,0,2023-11-13,2023-11-13,錦溢合同会社,,合同会社,東京都,板橋区,仲宿６４番９号,,13,119,1730005,,,,,,,2023-11-13,1,,,,,キンイツ,0
696,3011701026750,新規,0,2023-11-13,2023-11-13,株式会社ＬｏｄｇｅＧｅｅｋ,,株式会社,東京都,江戸川区,西葛西２丁目２２番４５レジデントプレイス西葛西－５４２室,,13,123,1340088,,,,,,,2023-11-13,1,,,,,ロッジギーク,0
700,3012801022747,新規,0,2023-11-13,2023-11-13,株式会社ＹＯＬＯ,,株式会社,東京都,国分寺市,西町２丁目１７番７６号,,13,214,1850035,,,,,,,2023-11-13,1,,,,,ヨロ,0
711,3020001154237,新規,0,2023-11-13,2023-11-13,株式会社ＶａｎｉｌｌａＥｓｓｅｎｃｅ,,株式会社,神奈川県,横浜市港北区,日吉７丁目３－１０ハイツ井上３１０,,14,109,2230061,,,,,,,2023-11-13,1,,,,,ヴァニラエッセンス,0
722,3021001080712,新規,0,2023-11-13,2023-11-13,株式会社フラットウェル,,株式会社,神奈川県,鎌倉市,十二所９６７番地５３,,14,204,2480001,,,,,,,2023-11-13,1,,,,,フラットウエル,0
726,3021003013793,新規,0,2023-11-13,2023-11-13,ＭＯＲＯ合同会社,,合同会社,神奈川県,藤沢市,鵠沼海岸７丁目５番９号,00132622,14,205,2510037,,,,,,,2023-11-13,1,,,,,モロ,0
731,3030001157008,新規,0,2023-11-13,2023-11-13,株式会社ユーケン工業,,株式会社,埼玉県,桶川市,坂田西３丁目７番地の４,,11,231,3630018,,,,,,,2023-11-13,1,,,,,ユーケンコウギョウ,0
737,3030003022977,新規,0,2023-11-13,2023-11-13,合同会社ＨＹコンサルタント,,合同会社,埼玉県,さいたま市西区,西大宮３丁目３９番地１２,,11,101,3310078,,,,,,,2023-11-13,1,,,,,エイチワイコンサルタント,0
738,3030005021465,新規,0,2023-11-13,2023-11-13,一般社団法人ハッピー犬屋敷,,その他の設立登記法人,埼玉県,入間市,大字下藤沢１０９５番地８,,11,225,3580011,,,,,,,2023-11-13,1,,,,,ハッピーイヌヤシキ,0
756,3070001041067,新規,0,2023-11-13,2023-11-13,株式会社ＥＮＥＳＹＳ,,株式会社,群馬県,伊勢崎市,連取町３０９９番地１０メルヴェーユＥ,,10,204,3720812,,,,,,,2023-11-13,1,,,,,,0
774,3120001259819,新規,0,2023-11-13,2023-11-13,株式会社匙デザインカンパニー,,株式会社,大阪府,大阪市鶴見区,放出東３丁目２１－４０ローレルコート放出２０５,,27,124,5380044,,,,,,,2023-11-13,1,,,,,サジデザインカンパニー,0
776,3120003025293,新規,0,2023-11-13,2023-11-13,合同会社オニキス,,合同会社,大阪府,大阪市西淀川区,姫島２丁目１４番１２号,,27,113,5550033,,,,,,,2023-11-13,1,,,,,オニキス,0
777,3120003025302,新規,0,2023-11-13,2023-11-13,ＭＫＪＡＰＡＮ合同会社,,合同会社,大阪府,大阪市淀川区,加島２丁目５番１３号,,27,123,5320031,,,,,,,2023-11-13,1,,,,,エムケージャパン,0
778,3120003025343,新規,0,2023-11-13,2023-11-13,フィデシアコンサルティング合同会社,,合同会社,大阪府,大阪市中央区,大手前１丁目７番３１号ＯＭＭ１階サービスオフィスＷ,,27,128,5400008,,,,,,,2023-11-13,1,,,,,フィデシアコンサルティング,0
790,3130003009130,新規,0,2023-11-13,2023-11-13,脇野整骨院合同会社,,合同会社,京都府,京都市左京区,一乗寺里ノ前町１０８番地２,,26,103,6068117,,,,,,,2023-11-13,1,,,,,ワキノセイコツイン,0
794,3140001132247,新規,0,2023-11-13,2023-11-13,株式会社フルリノ,,株式会社,兵庫県,神戸市中央区,浪花町５６ＫｉＰ内,,28,110,6500035,,,,,,,2023-11-13,1,,,,,フルリノ,0
810,3180301038017,新規,0,2023-11-13,2023-11-13,株式会社Ｔ・ＷＯＲＫＳ,,株式会社,愛知県,西尾市,米津町川向１４番地１,,23,213,4450802,,,,,,,2023-11-13,1,,,,,テーワークス,0
811,3180303005898,新規,0,2023-11-13,2023-11-13,Ｍａｒｕｍｅｎ　Ｒ＆Ｅ合同会社,,合同会社,愛知県,豊田市,花園町前田１４番地１０,,23,211,4730924,,,,,,,2023-11-13,1,,,,,マルメンアンドイー,0
813,3200001041895,新規,0,2023-11-13,2023-11-13,株式会社キララトレーディング,,株式会社,岐阜県,岐阜市,柳津町上佐波２丁目８４番地,,21,201,5016121,,,,,,,2023-11-13,1,,,,,キララトレーディング,0
817,3230003002109,新規,0,2023-11-13,2023-11-13,合同会社ＴＫサービス,,合同会社,富山県,富山市,太田２１４６番地Ｇｒａｉｎ－Ｃ・１０１号,,16,201,9398048,,,,,,,2023-11-13,1,,,,,ティーケーサービス,0
823,3240003006414,新規,0,2023-11-13,2023-11-13,合同会社フジムラ企画,,合同会社,広島県,東広島市,黒瀬町市飯田１４４－３２,,34,212,7392626,,,,,,,2023-11-13,1,,,,,フジムラキカク,0
830,3290001103695,新規,0,2023-11-13,2023-11-13,ｅｖｅｒｙｏｎｅ’ｓ株式会社,,株式会社,福岡県,福岡市博多区,美野島３丁目４番４号,,40,132,8120017,,,,,,,2023-11-13,1,,,,,エブリワンズ,0
831,3290001103704,新規,0,2023-11-13,2023-11-13,株式会社Ｊｏｕｒｎｅｙｍａｔｅ,,株式会社,福岡県,福岡市中央区,白金１丁目８－３ロマネスク白金第２－３０５号,,40,133,8100012,,,,,,,2023-11-13,1,,,,,,0
834,3290003014602,新規,0,2023-11-13,2023-11-13,ＣＴ合同会社,,合同会社,福岡県,糟屋郡志免町,志免２丁目２６番１６号,,40,343,8112202,,,,,,,2023-11-13,1,,,,,シティ,0
835,3290801030040,新規,0,2023-11-13,2023-11-13,ＴＡＤ　Ｈｏｍｅｓ株式会社,,株式会社,福岡県,北九州市小倉南区,八重洲町７番１５号１階,,40,107,8020831,,,,,,,2023-11-13,1,,,,,ティーエーディーホームズ,0
838,3320001020144,新規,0,2023-11-13,2023-11-13,株式会社ＫＳＲ,,株式会社,大分県,別府市,大字鶴見２８２５番地の１,,44,202,8740840,,,,,,,2023-11-13,1,,,,,ケーエスアール,0
843,3340005009677,新規,0,2023-11-13,2023-11-13,一般社団法人大隅横川駅保存活用実行委員会,,その他の設立登記法人,鹿児島県,霧島市,横川町中ノ３９番地１,,46,218,8996303,,,,,,,2023-11-13,1,,,,,オオスミヨコガワエキホゾンカツヨウジッコウイインカイ,0
847,3360001032813,新規,0,2023-11-13,2023-11-13,ＴＲＡ株式会社,,株式会社,沖縄県,那覇市,首里崎山町１丁目５番地,,47,201,9030814,,,,,,,2023-11-13,1,,,,,ティーアールエー,0
854,3380003005617,新規,0,2023-11-13,2023-11-13,合同会社ＫＥＮＢＯＷ,,合同会社,福島県,福島市,永井川字宮ノ下１４番地の１,,07,201,9601102,,,,,,,2023-11-13,1,,,,,ケンボウ,0
857,3390003002159,新規,0,2023-11-13,2023-11-13,Ｄ‐ｓｅｒｖｉｃｅ合同会社,,合同会社,山形県,東村山郡山辺町,大字山辺４５４１番地１５,,06,301,9900301,,,,,,,2023-11-13,1,,,,,ディーサービス,0
864,3410001013642,新規,0,2023-11-13,2023-11-13,株式会社ＦＲＥＡＫＹ,,株式会社,秋田県,大館市,御成町２丁目５番５号,,05,204,0170044,,,,,,,2023-11-13,1,,,,,フリーキー,0
867,3430003015635,新規,0,2023-11-13,2023-11-13,湧くＷＡＫＵ合同会社,,合同会社,北海道,札幌市北区,北十五条西５丁目１－７,,01,102,0010015,,,,,,,2023-11-13,1,,,,,ワクワク,0
868,3450001014141,新規,0,2023-11-13,2023-11-13,株式会社Ｔｗｏ　Ｃａｒｓ,,株式会社,北海道,旭川市,東光九条１０丁目４番１号,,01,204,0788349,,,,,,,2023-11-13,1,,,,,,0
874,3700150122009,新規,0,2023-11-13,2023-11-13,ＴＧＦ　Ｇｒｏｕｐ　Ｃｏ．，Ｌｔｄ,,外国会社等,,,,,,,,Ｇ　Ｆｌｏｏｒ，Ｂｕｉｌｄｉｎｇ　Ａ，２０１３　Ｃｕｌｔｕｒａｌ　Ｃｒｅａｔｉｖｅ　Ｉｎｄｕｓｔｒｉａｌ　Ｐａｒｋ，Ｎｏ．１０８　ＬｉＪｉａ　Ｒｏａｄ，ＨｅｎｇＧａｎｇ，ＬｏｎｇＧａｎｇ　Ｄｉｓｔｒｉｃｔ，Ｓｈｅｎｚｈｅｎ，Ｇｕａｎｇｄｏｎｇ，Ｃｈｉｎａ,,,,,,2023-11-13,1,,,,,テイージーエフグループカンパニーリミテツド,0
886,4010001239938,新規,0,2023-11-13,2023-11-13,ＪＰＡ第２９８号株式会社,,株式会社,東京都,千代田区,霞が関３丁目２番１号,,13,101,1000013,,,,,,,2023-11-13,1,,,,,ジェイピーエーダイニヒャクキュウジュウハチゴウ,0
887,4010001239995,新規,0,2023-11-13,2023-11-13,株式会社文記,,株式会社,東京都,中央区,銀座４丁目１３番８号岩藤ビル５階,,13,102,1040061,,,,,,,2023-11-13,1,,,,,ブンキ,0
891,4010003042200,新規,0,2023-11-13,2023-11-13,合同会社うぐいす,,合同会社,東京都,千代田区,丸の内３丁目１番１号東京共同会計事務所内,,13,101,1000005,,,,,,,2023-11-13,1,,,,,ウグイス,0
893,4010005037495,新規,0,2023-11-13,2023-11-13,一般社団法人トリニティノルウェー,,その他の設立登記法人,東京都,中央区,日本橋１丁目４番１号,,13,102,1030027,,,,,,,2023-11-13,1,,,,,トリニティノルウェー,0
894,4010005037512,新規,0,2023-11-13,2023-11-13,一般社団法人はるかぜ,,その他の設立登記法人,東京都,千代田区,丸の内３丁目１番１号東京共同会計事務所内,,13,101,1000005,,,,,,,2023-11-13,1,,,,,ハルカゼ,0
895,4010105002234,新規,0,2023-11-13,2023-11-13,一般社団法人マザーズギフト,,その他の設立登記法人,東京都,八王子市,長房町４５０番地１１２,,13,201,1930824,,,,,,,2023-11-13,1,,,,,マザーズギフト,0
906,4010401178455,新規,0,2023-11-13,2023-11-13,株式会社ＡＬＡＫＥＡ,,株式会社,東京都,港区,芝浦３丁目１４番５号,,13,103,1080023,,,,,,,2023-11-13,1,,,,,アラケア,0
915,4010501051297,新規,0,2023-11-13,2023-11-13,ＢＨＣロジ株式会社,,株式会社,東京都,台東区,上野５丁目１１番３号,,13,106,1100005,,,,,,,2023-11-13,1,,,,,ビーエイチシーロジ,0
916,4010501051339,新規,0,2023-11-13,2023-11-13,Ｓｕｎｎｙ　Ｓｏｌｕｔｉｏｎｓ　Ｊａｐａｎ株式会社,,株式会社,東京都,台東区,台東４丁目１９－５ヴィラルヴェロ６Ｆ,,13,106,1100016,,,,,,,2023-11-13,1,,,,,サニーソリューションズジャパン,0
919,4010601064109,新規,0,2023-11-13,2023-11-13,株式会社ＳＵＩＭ,,株式会社,東京都,江東区,大島２丁目３番１７号,,13,108,1360072,,,,,,,2023-11-13,1,,,,,スイム,0
920,4010601064125,新規,0,2023-11-13,2023-11-13,日森商事株式会社,,株式会社,東京都,墨田区,本所３丁目４－１０－５０１,,13,107,1300004,,,,,,,2023-11-13,1,,,,,ニチモリショウジ,0
927,4010903008580,新規,0,2023-11-13,2023-11-13,Ｌ．Ｏ．Ｍオペレーションズ合同会社,,合同会社,東京都,世田谷区,桜丘４丁目１８番２７－３０５号,,13,112,1560054,,,,,,,2023-11-13,1,,,,,エルオーエムオペレーションズ,0
935,4011001158129,新規,0,2023-11-13,2023-11-13,株式会社ＬＩＮＸ,,株式会社,東京都,渋谷区,代々木２丁目３９番２,,13,113,1510053,,,,,,,2023-11-13,1,,,,,リンクス,0
936,4011001158203,新規,0,2023-11-13,2023-11-13,株式会社斗成,,株式会社,東京都,渋谷区,恵比寿３丁目３９番５号メゾン・ド・ボネール白金２０６,,13,113,1500013,,,,,,,2023-11-13,1,,,,,トウセイ,0
937,4011003017902,新規,0,2023-11-13,2023-11-13,Ｌｅａｒｎｉｎｇ‐Ｃｈａｎｇｅ合同会社,,合同会社,東京都,渋谷区,桜丘町７番３号ベラコート渋谷２０３,,13,113,1500031,,,,,,,2023-11-13,1,,,,,ラーニングチェンジ,0
938,4011003017919,新規,0,2023-11-13,2023-11-13,合同会社ＰＲＯＣＥＥＤ,,合同会社,東京都,目黒区,下目黒２丁目８番２－８１０号ハイネス目黒,,13,110,1530064,,,,,,,2023-11-13,1,,,,,プロシード,0
954,4011401025597,新規,0,2023-11-13,2023-11-13,鼎杰株式会社,,株式会社,東京都,板橋区,大山東町３１番１号第２山田ビル３０２,,13,119,1730014,,,,,,,2023-11-13,1,,,,,テイケツ,0
957,4011503005836,新規,0,2023-11-13,2023-11-13,合同会社ＦＩＸ,,合同会社,東京都,北区,志茂４丁目７番３号,,13,117,1150042,,,,,,,2023-11-13,1,,,,,フィックス,0
958,4011801043348,新規,0,2023-11-13,2023-11-13,谷栄商事株式会社,,株式会社,東京都,足立区,谷在家１丁目４番８号,,13,121,1230863,,,,,,,2023-11-13,1,,,,,タニエイショウジ,0
960,4012401041205,新規,0,2023-11-13,2023-11-13,株式会社リペアクラフト,,株式会社,東京都,三鷹市,北野１丁目１番４０号,,13,204,1810003,,,,,,,2023-11-13,1,,,,,リペアクラフト,0
984,4020001154450,新規,0,2023-11-13,2023-11-13,株式会社一,,株式会社,神奈川県,横浜市南区,大岡３丁目４７番５号,,14,105,2320061,,,,,,,2023-11-13,1,,,,,ハジメ,0
989,4020003024973,新規,0,2023-11-13,2023-11-13,Ａｎａｎｄａｈ　Ａｙｕｒｖｅｄａ合同会社,,合同会社,神奈川県,川崎市川崎区,駅前本町１８番１号メルスサイト－７０２,,14,131,2100007,,,,,,,2023-11-13,1,,,,,アーナンダアーユルヴェーダ,0
995,4021001080694,新規,0,2023-11-13,2023-11-13,株式会社Ｋａｎｏａ,,株式会社,神奈川県,高座郡寒川町,一之宮１丁目３番１８－２号,,14,321,2530111,,,,,,,2023-11-13,1,,,,,カノア,0
996,4021003013066,新規,0,2023-11-13,2023-11-13,合同会社Ｍｙ　Ｓｔｏｒｉｏｕｓ,,合同会社,神奈川県,海老名市,国分寺台１丁目２２－２５－２,,14,215,2430413,,,,,,,2023-11-13,1,,,,,マイストーリアウス,0
997,4021003013792,新規,0,2023-11-13,2023-11-13,合同会社ＭＩＮ,,合同会社,神奈川県,茅ヶ崎市,菱沼２丁目６番２２号,,14,207,2530011,,,,,,,2023-11-13,1,,,,,ミン,0
1005,4030001157106,新規,0,2023-11-13,2023-11-13,株式会社ＹＧ関東,,株式会社,埼玉県,さいたま市南区,大字大谷口５２４０番地７,,11,108,3360042,,,,,,,2023-11-13,1,,,,,ワイジカントウ,0
1020,4040001130887,新規,0,2023-11-13,2023-11-13,株式会社音,,株式会社,千葉県,柏市,若柴２２６番地４１中央１４４街区１－１階,,12,217,2770871,,,,,,,2023-11-13,1,,,,,オン,0
1021,4040001130895,新規,0,2023-11-13,2023-11-13,株式会社琥珀,,株式会社,千葉県,千葉市中央区,富士見１丁目１０番６号カネナカ第３ビル４Ｆ,,12,101,2600015,,,,,,,2023-11-13,1,,,,,コハク,0
1024,4040003023718,新規,0,2023-11-13,2023-11-13,ｍｏｒｉｎａｇａ合同会社,,合同会社,千葉県,柏市,柏６丁目５番３５－２号,,12,217,2770005,,,,,,,2023-11-13,1,,,,,モリナガ,0
1029,4060001036538,新規,0,2023-11-13,2023-11-13,株式会社ＰＡＸＯＶＡ,,株式会社,栃木県,下都賀郡野木町,大字南赤塚８３０番地１２,,09,364,3290112,,,,,,,2023-11-13,1,,,,,パクソヴァ,0
1030,4070001041066,新規,0,2023-11-13,2023-11-13,株式会社ＥＮＶＩＧＯ,,株式会社,群馬県,前橋市,田口町１２０５番地１０９,,10,201,3710048,,,,,,,2023-11-13,1,,,,,エンヴィーゴ,0
1036,4080401026839,新規,0,2023-11-13,2023-11-13,株式会社Ｆｏｕｒ　Ｌｉｖｅｓ　ａｎｄ　Ｓｔｕｄｉｏ,,株式会社,静岡県,浜松市西区,雄踏町宇布見１６６１番地の３,,22,133,4310102,,,,,,,2023-11-13,1,,,,,フォーライブスアンドスタジオ,0
1041,4110001037968,新規,0,2023-11-13,2023-11-13,株式会社ピックラック,,株式会社,新潟県,南魚沼市,海士ケ島新田３０１番地２,,15,226,9497256,,,,,,,2023-11-13,1,,,,,ピックラック,0
1045,4110003005213,新規,0,2023-11-13,2023-11-13,合同会社ＮＳＫ,,合同会社,新潟県,新潟市西区,寺尾台３丁目２番８号アパルト寺尾台３０１,,15,107,9502063,,,,,,,2023-11-13,1,,,,,エヌエスケイ,0
1058,4120001259693,新規,0,2023-11-13,2023-11-13,Ｇｅｍｉｎｉ株式会社,,株式会社,大阪府,大阪市東住吉区,湯里５丁目１６番地５号３Ｆ－Ａ,,27,121,5460013,,,,,,,2023-11-13,1,,,,,ゲミニ,0
1059,4120001259751,新規,0,2023-11-13,2023-11-13,アクア少短サービス株式会社,,株式会社,大阪府,大阪市淀川区,東三国２丁目３７番１０号,,27,123,5320002,,,,,,,2023-11-13,1,,,,,アクアショウタンサービス,0
1060,4120001259768,新規,0,2023-11-13,2023-11-13,大阪ＨＯＰＥ株式会社,,株式会社,大阪府,大阪市淀川区,西中島５丁目８番２９－９０９室,,27,123,5320011,,,,,,,2023-11-13,1,,,,,オオサカホープ,0
1063,4120101068524,新規,0,2023-11-13,2023-11-13,株式会社一清,,株式会社,大阪府,堺市北区,長曽根町５７９番地,,27,146,5918025,,,,,,,2023-11-13,1,,,,,イッセイ,0
1069,4130001075685,新規,0,2023-11-13,2023-11-13,株式会社Ａ’ｓＷＩＮＧ,,株式会社,京都府,京都市中京区,裏寺町通六角下る裏寺町５９５番地グランレ・ジェイド京都河原町６０７,,26,104,6048041,,,,,,,2023-11-13,1,,,,,エースウイング,0
1070,4130001075693,新規,0,2023-11-13,2023-11-13,株式会社Ｒｏｏｔｓ,,株式会社,京都府,向日市,寺戸町二枚田１２番地の８,,26,208,6170002,,,,,,,2023-11-13,1,,,,,ルーツ,0
1074,4140001132287,新規,0,2023-11-13,2023-11-13,株式会社たむら不動産,,株式会社,兵庫県,伊丹市,西台３丁目８番５号ＶＩＶＥＲ西台２０２号,,28,207,6640858,,,,,,,2023-11-13,1,,,,,タムラフドウサン,0
1075,4150001026884,新規,0,2023-11-13,2023-11-13,株式会社Ｃｏｃｏｎｐｅｎｔｅ,,株式会社,奈良県,磯城郡田原本町,大字新木１－６３,,29,363,6360347,,,,,,,2023-11-13,1,,,,,ココンペンテ,0
1078,4160003003030,新規,0,2023-11-13,2023-11-13,合同会社もりコンサルティング,,合同会社,滋賀県,近江八幡市,池田町４丁目３番地,,25,204,5230877,,,,,,,2023-11-13,1,,,,,モリコンサルティング,0
1085,4180001158881,新規,0,2023-11-13,2023-11-13,株式会社ＳＫＳ,,株式会社,愛知県,名古屋市中区,栄２丁目２番１号広小路伏見中駒ビル２Ｆ－９,,23,106,4600008,,,,,,,2023-11-13,1,,,,,エスケイエス,0
1089,4180003025948,新規,0,2023-11-13,2023-11-13,合同会社ＳＵＮＮＹ,,合同会社,愛知県,名古屋市千種区,新池町３丁目４番地４０１号,,23,101,4640027,,,,,,,2023-11-13,1,,,,,サニー,0
1090,4180003025989,新規,0,2023-11-13,2023-11-13,ｂｌｕｅ合同会社,,合同会社,愛知県,名古屋市守山区,廿軒家８－７サンシャイン守山２－Ａ,,23,113,4630065,,,,,,,2023-11-13,1,,,,,ブルー,0
1093,4180303005897,新規,0,2023-11-13,2023-11-13,Ｅｌｅｖｅｎ　Ｃａｐｉｔａｌ合同会社,,合同会社,愛知県,岡崎市,六供町字１丁目５６番地１,,23,202,4440072,,,,,,,2023-11-13,1,,,,,イレブンキャピタル,0
1096,4230003002108,新規,0,2023-11-13,2023-11-13,合同会社ＨＩＬＬ,,合同会社,富山県,滑川市,上島１２７番地２,,16,206,9360852,,,,,,,2023-11-13,1,,,,,ヒル,0
1100,4240001062417,新規,0,2023-11-13,2023-11-13,株式会社ｎａｎｋｉｎ,,株式会社,広島県,東広島市,豊栄町乃美３４４９番地,,34,212,7392311,,,,,,,2023-11-13,1,,,,,ナンキン,0
1101,4240003006413,新規,0,2023-11-13,2023-11-13,合同会社ＭａＳＳｉＦ,,合同会社,広島県,広島市中区,大手町１丁目１番２６号大手町第一ビル３０５,,34,101,7300051,,,,,,,2023-11-13,1,,,,,マシーフ,0
1107,4260003004497,新規,0,2023-11-13,2023-11-13,エイム合同会社,,合同会社,岡山県,岡山市南区,泉田１丁目６番３号－１３０５,,33,104,7000944,,,,,,,2023-11-13,1,,,,,エイム,0
1117,4290001103703,新規,0,2023-11-13,2023-11-13,株式会社Ａｒｌｙ＆Ｈｏｌｙ　ｇｅｎｕｉｎｅ　ｗｏｒｋｓ,,株式会社,福岡県,大野城市,つつじケ丘２丁目１９番３号,,40,219,8160962,,,,,,,2023-11-13,1,,,,,アーリーアンドホーリージェニュインワークス,0
1119,4290005019193,新規,0,2023-11-13,2023-11-13,一般社団法人ネイバーリンク,,その他の設立登記法人,福岡県,福岡市城南区,田島２丁目２４番１１号,,40,136,8140113,,,,,,,2023-11-13,1,,,,,ネイバーリンク,0
1121,4320001020143,新規,0,2023-11-13,2023-11-13,株式会社新田,,株式会社,大分県,大分市,古国府３丁目２番４号,,44,201,8700844,,,,,,,2023-11-13,1,,,,,ニッタ,0
1124,4330001031445,新規,0,2023-11-13,2023-11-13,名水みなみあそ株式会社,,株式会社,熊本県,阿蘇郡南阿蘇村,大字白川４５８番地１,,43,433,8691502,,,,,,,2023-11-13,1,,,,,メイスイミナミアソ,0
1126,4340005009676,新規,0,2023-11-13,2023-11-13,特定非営利活動法人あいがと,,その他の設立登記法人,鹿児島県,霧島市,隼人町小田２８９,,46,218,8995105,,,,,,,2023-11-13,1,,,,,アイガト,0
1129,4360001032804,新規,0,2023-11-13,2023-11-13,株式会社グッドハイＲｅｂｏｒｎ,,株式会社,沖縄県,島尻郡八重瀬町,字伊覇２５４番地３メゾンあらかき２－１Ｆ店舗,,47,362,9010405,,,,,,,2023-11-13,1,,,,,グッドハイリボーン,0
1130,4360001032812,新規,0,2023-11-13,2023-11-13,株式会社スマイト,,株式会社,沖縄県,豊見城市,字我那覇８７番地６,,47,212,9010231,,,,,,,2023-11-13,1,,,,,スマイト,0
1132,4370003006375,新規,0,2023-11-13,2023-11-13,Ｂｅｌｌｅ　ｌｕｎｅ合同会社,,合同会社,宮城県,仙台市若林区,新弓ノ町４１番地５号,,04,103,9840803,,,,,,,2023-11-13,1,,,,,ベルリュンヌ,0
1134,4380003005608,新規,0,2023-11-13,2023-11-13,合同会社南相馬補聴器センター,,合同会社,福島県,南相馬市,原町区錦町１丁目２５番地,,07,212,9750031,,,,,,,2023-11-13,1,,,,,ミナミソウマホチョウキセンター,0
1135,4380005012767,新規,0,2023-11-13,2023-11-13,農事組合法人ＭＮＲファーム,,その他の設立登記法人,福島県,田村市,滝根町広瀬字三十八１０９番地１,,07,211,9633603,,,,,,,2023-11-13,1,,,,,エムエヌアールファーム,0
1146,4430003015634,新規,0,2023-11-13,2023-11-13,合同会社ＬＵＸ,,合同会社,北海道,札幌市東区,北十二条東１３丁目２－６Ｂｕｏｎａ　Ｆｏｒｔｕｎａ１０３,,01,103,0650012,,,,,,,2023-11-13,1,,,,,ルークス,0
1165,5010001239937,新規,0,2023-11-13,2023-11-13,ＪＰＡ第２９７号株式会社,,株式会社,東京都,千代田区,霞が関３丁目２番１号,,13,101,1000013,,,,,,,2023-11-13,1,,,,,ジェイピーエーダイニヒャクキュウジュウナナゴウ,0
1166,5010001239994,新規,0,2023-11-13,2023-11-13,株式会社ＭＩＲＡＩＭＯ　ＣＲＥＡＴＥＳ,,株式会社,東京都,中央区,銀座６丁目１３番１６号銀座ＷａｌｌビルＵＣＦ５０１,,13,102,1040061,,,,,,,2023-11-13,1,,,,,ミライモクリエイツ,0
1167,5010001240003,新規,0,2023-11-13,2023-11-13,アナクル・システムズ株式会社,,株式会社,東京都,千代田区,丸の内１丁目９番２号グラントウキョウサウスタワー１１階,,13,101,1000005,,,,,,,2023-11-13,1,,,,,アナクルシステムズ,0
1169,5010003042190,新規,0,2023-11-13,2023-11-13,合同会社ｍｏＥｎａ’ｓ,,合同会社,東京都,千代田区,神田三崎町３丁目２番１７号小澤ビル１Ｆ,,13,101,1010061,,,,,,,2023-11-13,1,,,,,モエナズ,0
1177,5010501051321,新規,0,2023-11-13,2023-11-13,Ａｍｕ株式会社,,株式会社,東京都,台東区,上野６丁目１番６号御徒町グリーンハイツ１００５号,,13,106,1100005,,,,,,,2023-11-13,1,,,,,アム,0
1195,5011001158103,新規,0,2023-11-13,2023-11-13,株式会社世良,,株式会社,東京都,目黒区,目黒本町６丁目１７－２６,,13,110,1520002,,,,,,,2023-11-13,1,,,,,セラ,0
1196,5011001158136,新規,0,2023-11-13,2023-11-13,ａｎｔｏ株式会社,,株式会社,東京都,渋谷区,道玄坂１丁目１０番８号渋谷道玄坂東急ビル２Ｆ－Ｃ,,13,113,1500043,,,,,,,2023-11-13,1,,,,,アント,0
1197,5011001158144,新規,0,2023-11-13,2023-11-13,株式会社ブエノスディアス,,株式会社,東京都,渋谷区,東２丁目２０－１３シャトレー渋谷４０７,,13,113,1500011,,,,,,,2023-11-13,1,,,,,ブエノスディアス,0
1198,5011001158152,新規,0,2023-11-13,2023-11-13,Ｋｉｂｉ株式会社,,株式会社,東京都,渋谷区,道玄坂１丁目１０番８号渋谷道玄坂東急ビル２Ｆ－Ｃ,,13,113,1500043,,,,,,,2023-11-13,1,,,,,キビ,0
1199,5011001158177,新規,0,2023-11-13,2023-11-13,乳酸堂株式会社,,株式会社,東京都,渋谷区,広尾５丁目１４番２号,,13,113,1500012,,,,,,,2023-11-13,1,,,,,ニュウサンドウ,0
1200,5011001158193,新規,0,2023-11-13,2023-11-13,株式会社ラフロット,,株式会社,東京都,渋谷区,渋谷２丁目２番１７号トランスワークス青山,,13,113,1500002,,,,,,,2023-11-13,1,,,,,ラフロット,0
1202,5011003017868,新規,0,2023-11-13,2023-11-13,合同会社Ｇｅｎ＆Ａｓｓｏｃｉａｔｅｓ,,合同会社,東京都,目黒区,八雲２丁目１０－５,,13,110,1520023,,,,,,,2023-11-13,1,,,,,ゲンアンドアソシエーツ,0
1203,5011003017876,新規,0,2023-11-13,2023-11-13,合同会社Ｖｉａｉ,,合同会社,東京都,目黒区,下目黒３丁目６番２－３０２号アクロス目黒,,13,110,1530064,,,,,,,2023-11-13,1,,,,,ビアイ,0
1204,5011003017901,新規,0,2023-11-13,2023-11-13,Ａｓｔｒａｎｃｅ合同会社,,合同会社,東京都,渋谷区,恵比寿西２丁目８番５号エビスＳ＆Ｓウエスト３Ｆ,,13,113,1500021,,,,,,,2023-11-13,1,,,,,アストランス,0
1205,5011003017918,新規,0,2023-11-13,2023-11-13,合同会社ヴァン・デスポワール,,合同会社,東京都,渋谷区,笹塚２丁目４１番２－２０３号,,13,113,1510073,,,,,,,2023-11-13,1,,,,,バンデスポワール,0
1215,5011301029152,新規,0,2023-11-13,2023-11-13,株式会社ＡｉｒｙＣｒｏｓｓ,,株式会社,東京都,杉並区,上荻２丁目１９番４号,,13,115,1670043,,,,,,,2023-11-13,1,,,,,エアリークロス,0
1216,5011301029160,新規,0,2023-11-13,2023-11-13,株式会社ファーママーケティング研究所,,株式会社,東京都,杉並区,浜田山１丁目２８番１０号,,13,115,1680065,,,,,,,2023-11-13,1,,,,,ファーママーケティングケンキュウショ,0
1217,5011301029169,新規,0,2023-11-13,2023-11-13,株式会社Ｇｒａｎｄｉｅｒ,,株式会社,東京都,杉並区,今川１丁目５番６－１０３号,,13,115,1670035,,,,,,,2023-11-13,1,,,,,グランディエ,0
1219,5011401025605,新規,0,2023-11-13,2023-11-13,株式会社ＰＥＴＴＳ,,株式会社,東京都,板橋区,稲荷台２９番８号,,13,119,1730002,,,,,,,2023-11-13,1,,,,,ペッツ,0
1222,5011503005835,新規,0,2023-11-13,2023-11-13,合同会社水木,,合同会社,東京都,北区,浮間１丁目７番２３号兆豊浮間ビル２０２号室,,13,117,1150051,,,,,,,2023-11-13,1,,,,,スイモク,0
1225,5011703003647,新規,0,2023-11-13,2023-11-13,キセン設備合同会社,,合同会社,東京都,江戸川区,松島３丁目４２番１１号大野荘１０２号,,13,123,1320031,,,,,,,2023-11-13,1,,,,,キセンセツビ,0
1228,5011801043355,新規,0,2023-11-13,2023-11-13,株式会社元気サポート,,株式会社,東京都,足立区,辰沼２丁目９番１４号,,13,121,1210054,,,,,,,2023-11-13,1,,,,,ゲンキサポート,0
1240,5020001154301,新規,0,2023-11-13,2023-11-13,オルビ株式会社,,株式会社,神奈川県,横浜市中区,元町４丁目１７２クリオ横濱元町通り４０５,,14,104,2310861,,,,,,,2023-11-13,1,,,,,オルビ,0
1241,5020001154482,新規,0,2023-11-13,2023-11-13,株式会社ＭＩＲＡＩＥ,,株式会社,神奈川県,横浜市中区,本牧荒井１７０番地２８,,14,104,2310826,,,,,,,2023-11-13,1,,,,,ミライエ,0
1250,5020003024972,新規,0,2023-11-13,2023-11-13,合同会社ＴＲＭコンサルティング,,合同会社,神奈川県,横浜市鶴見区,鶴見１丁目６－１４プラウド横濱鶴見二見台１１１号室,,14,101,2300063,,,,,,,2023-11-13,1,,,,,ティーアールエムコンサルティング,0
1254,5020005016175,新規,0,2023-11-13,2023-11-13,一般社団法人日本リビングラボネットワーク,,その他の設立登記法人,神奈川県,横浜市都筑区,大棚西３番６－３０６号,,14,118,2240028,,,,,,,2023-11-13,1,,,,,ニホンリビングラボネットワーク,0
1265,5030001157121,新規,0,2023-11-13,2023-11-13,株式会社ＯＮＩ,,株式会社,埼玉県,草加市,花栗１丁目２３番２号メゾン・ラ・ネージュ１Ｆ,,11,221,3400044,,,,,,,2023-11-13,1,,,,,オーエヌアイ,0
1275,5040001130886,新規,0,2023-11-13,2023-11-13,株式会社藍,,株式会社,千葉県,柏市,若柴２２６番地４１中央１４４街区１－１階,,12,217,2770871,,,,,,,2023-11-13,1,,,,,アイ,0
1277,5040003023709,新規,0,2023-11-13,2023-11-13,ＫＴビジネスサポート合同会社,,合同会社,千葉県,千葉市中央区,新千葉１丁目７－２ペリエ＋ｐｌｕｓビルビズコンフォート千葉西口３４号,,12,101,2600031,,,,,,,2023-11-13,1,,,,,ケーティービジネスサポート,0
1281,5050001053814,新規,0,2023-11-13,2023-11-13,株式会社アントル・ノ・ドワ,,株式会社,茨城県,つくば市,松野木１８８番地２６,,08,220,3050056,,,,,,,2023-11-13,1,,,,,アントルノドワ,0
1283,5050003007941,新規,0,2023-11-13,2023-11-13,ＨＡＣＨＩ合同会社,,合同会社,茨城県,稲敷郡美浦村,大字土屋３１２６番地３５２,,08,442,3000426,,,,,,,2023-11-13,1,,,,,ハチ,0
1285,5060001036537,新規,0,2023-11-13,2023-11-13,足利ハイトラスト株式会社,,株式会社,栃木県,足利市,野田町８２６番地１,,09,202,3260322,,,,,,,2023-11-13,1,,,,,アシカガハイトラスト,0
1299,5100003007250,新規,0,2023-11-13,2023-11-13,合同会社スズムシ,,合同会社,長野県,北安曇郡小谷村,大字千国乙１２５７９,,20,486,3999422,,,,,,,2023-11-13,1,,,,,スズムシ,0
1308,5120001259692,新規,0,2023-11-13,2023-11-13,松那株式会社,,株式会社,大阪府,大阪市東住吉区,東田辺３丁目１－１－１Ｆ－Ａ,,27,121,5460032,,,,,,,2023-11-13,1,,,,,マツナ,0
1314,5120003025325,新規,0,2023-11-13,2023-11-13,合同会社龍輝,,合同会社,大阪府,大阪市城東区,関目２丁目１番１４号,,27,118,5360008,,,,,,,2023-11-13,1,,,,,リュウキ,0
1317,5120105009787,新規,0,2023-11-13,2023-11-13,一般社団法人ＯＳＡＫＡゼロカーボン・スマートシティ・ファウンデーション,,その他の設立登記法人,大阪府,岸和田市,地蔵浜町１１番地の１,,27,202,5960015,,,,,,,2023-11-13,1,,,,,オオサカゼロカーボンスマートシティファウンデーション,0
1320,5120901048352,新規,0,2023-11-13,2023-11-13,Ｊ＆Ｆ株式会社,,株式会社,大阪府,高槻市,天神町１丁目１３番６－２０１号,,27,207,5691117,,,,,,,2023-11-13,1,,,,,ジェイアンドエフ,0
1330,5130001075643,新規,0,2023-11-13,2023-11-13,株式会社ＳＯＱ,,株式会社,京都府,長岡京市,馬場川原１７番地１１（１－１０３）プレサンスロジェ長岡京,,26,209,6170828,,,,,,,2023-11-13,1,,,,,ソウキュウ,0
1331,5130001075651,新規,0,2023-11-13,2023-11-13,株式会社Ｒｅｙ,,株式会社,京都府,久世郡久御山町,佐古外屋敷１７１,,26,322,6130031,,,,,,,2023-11-13,1,,,,,レイ,0
1332,5130001075692,新規,0,2023-11-13,2023-11-13,株式会社そうすけ,,株式会社,京都府,京都市東山区,五条橋東６丁目５４１番地２,,26,105,6050846,,,,,,,2023-11-13,1,,,,,ソウスケ,0
1339,5140003019804,新規,0,2023-11-13,2023-11-13,真愛合同会社,,合同会社,兵庫県,尼崎市,崇徳院１丁目１９番地の６,,28,202,6600071,,,,,,,2023-11-13,1,,,,,シンアイ,0
1347,5180003025947,新規,0,2023-11-13,2023-11-13,合同会社ＳＵＮ,,合同会社,愛知県,名古屋市千種区,新池町３丁目４番地４０１号,,23,101,4640027,,,,,,,2023-11-13,1,,,,,サン,0
1348,5180301038015,新規,0,2023-11-13,2023-11-13,豊昇ホーム株式会社,,株式会社,愛知県,豊田市,東梅坪町１０丁目５番地８,,23,211,4710071,,,,,,,2023-11-13,1,,,,,ホウショウホーム,0
1351,5180303005896,新規,0,2023-11-13,2023-11-13,合同会社スモールビジネス,,合同会社,愛知県,豊橋市,柱四番町７５番地の２,,23,201,4418051,,,,,,,2023-11-13,1,,,,,スモールビジネス,0
1352,5200001041893,新規,0,2023-11-13,2023-11-13,株式会社プロテックス,,株式会社,岐阜県,岐阜市,城田寺６８４番地６０,,21,201,5020859,,,,,,,2023-11-13,1,,,,,プロテックス,0
1361,5280002007184,新規,0,2023-11-13,2023-11-13,有限会社土江電器商会,,有限会社,島根県,出雲市,平田町１０７７番地,,32,203,6910001,,,,,,,2023-11-13,1,,,,,ツチエデンキショウカイ,0
1370,5290001103719,新規,0,2023-11-13,2023-11-13,株式会社ファースト・イノベーション,,株式会社,福岡県,福岡市東区,香椎照葉３丁目２番７－２２０５号,,40,131,8130017,,,,,,,2023-11-13,1,,,,,ファーストイノベーション,0
1371,5290001103735,新規,0,2023-11-13,2023-11-13,エムロード株式会社,,株式会社,福岡県,福岡市中央区,平尾４丁目１２番４号,,40,133,8100014,,,,,,,2023-11-13,1,,,,,エムロード,0
1372,5290002056635,新規,0,2023-11-13,2023-11-13,有限会社佐藤左官工業,,有限会社,福岡県,うきは市,浮羽町西隈上５７２番地の５,,40,225,8391404,,,,,,,2023-11-13,1,,,,,サトウサカンコウギョウ,0
1379,5290801030030,新規,0,2023-11-13,2023-11-13,株式会社リトルモモ,,株式会社,福岡県,北九州市小倉南区,志井１丁目５番７号,,40,107,8020985,,,,,,,2023-11-13,1,,,,,リトルモモ,0
1380,5290803004544,新規,0,2023-11-13,2023-11-13,合同会社東昇,,合同会社,福岡県,北九州市小倉北区,片野３丁目１１番１－３０１号,,40,106,8020064,,,,,,,2023-11-13,1,,,,,トウショウ,0
1398,5390001017421,新規,0,2023-11-13,2023-11-13,株式会社ナスケン,,株式会社,山形県,山形市,大字中野５６７番地２,,06,201,9900892,,,,,,,2023-11-13,1,,,,,ナスケン,0
1403,5430003015583,新規,0,2023-11-13,2023-11-13,合同会社ＴＳＵＫＵＲＵ,,合同会社,北海道,苫小牧市,字錦岡４９５番地の１２９６,,01,213,0591275,,,,,,,2023-11-13,1,,,,,ツクル,0
1404,5430003015617,新規,0,2023-11-13,2023-11-13,合同会社道央,,合同会社,北海道,恵庭市,漁町１１０,,01,231,0611414,,,,,,,2023-11-13,1,,,,,ドウオウ,0
1410,5500001025305,新規,0,2023-11-13,2023-11-13,池田総建株式会社,,株式会社,愛媛県,松山市,北斎院町６７３番地２,,38,201,7918031,,,,,,,2023-11-13,1,,,,,イケダソウケン,0
1412,5500005008652,新規,0,2023-11-13,2023-11-13,一般社団法人愛媛県ひきこもり・不登校支援及び就労支援協議会,,その他の設立登記法人,愛媛県,松山市,一番町２丁目５－３０一番町ＳＡＯＲＩビル３Ｆ,,38,201,7900001,,,,,,,2023-11-13,1,,,,,エヒメケンヒキコモリフトウコウシエンオヨビシュウロウシエンキョウギカイ,0
1413,5700150122015,新規,0,2023-11-13,2023-11-13,Ｓｗｉｒｅ　Ｓｈｉｐｐｉｎｇ　Ｐｔｅ．Ｌｔｄ．,,外国会社等,東京都,港区,芝公園１丁目３番１号,,13,103,1050011,シンガポール共和国ビーチロード３００、ザ・コンコース＃２７－０１,,,,,,2023-11-13,1,,,,,スワイヤーシツピングプライベートリミテツド,0
1424,6010001239936,新規,0,2023-11-13,2023-11-13,ＪＰＡ第２９６号株式会社,,株式会社,東京都,千代田区,霞が関３丁目２番１号,,13,101,1000013,,,,,,,2023-11-13,1,,,,,ジェイピーエーダイニヒャクキュウジュウロクゴウ,0
1425,6010001239944,新規,0,2023-11-13,2023-11-13,ＪＰＡ第３０４号株式会社,,株式会社,東京都,千代田区,霞が関３丁目２番１号,,13,101,1000013,,,,,,,2023-11-13,1,,,,,ジェイピーエーダイサンビャクヨンゴウ,0
1438,6010401178429,新規,0,2023-11-13,2023-11-13,ハレノオト株式会社,,株式会社,東京都,港区,赤坂９丁目６番３５号,,13,103,1070052,,,,,,,2023-11-13,1,,,,,ハレノオト,0
1444,6010403031321,新規,0,2023-11-13,2023-11-13,ＣＯＤＥ合同会社,,合同会社,東京都,港区,六本木７丁目２番１号,,13,103,1060032,,,,,,,2023-11-13,1,,,,,コード,0
1445,6010403031338,新規,0,2023-11-13,2023-11-13,合同会社プラティア,,合同会社,東京都,港区,南青山３丁目１番３６号青山丸竹ビル６Ｆ,,13,103,1070062,,,,,,,2023-11-13,1,,,,,プラティア,0
1447,6010601064131,新規,0,2023-11-13,2023-11-13,ハッコーサービス株式会社,,株式会社,東京都,墨田区,亀沢２丁目８番１４－３０１号,,13,107,1300014,,,,,,,2023-11-13,1,,,,,ハッコーサービス,0
1454,6011001158110,新規,0,2023-11-13,2023-11-13,株式会社ｎｉｎａＩＴｅ,,株式会社,東京都,渋谷区,道玄坂１丁目１０番８号渋谷道玄坂東急ビル２Ｆ－Ｃ,,13,113,1500043,,,,,,,2023-11-13,1,,,,,ニナイテ,0
1455,6011001158135,新規,0,2023-11-13,2023-11-13,株式会社Ｓｔｅｐ　Ｈａｎｄｓ,,株式会社,東京都,渋谷区,渋谷２丁目１９－１５宮益坂ビルディング６０９,,13,113,1500002,,,,,,,2023-11-13,1,,,,,ステップハンズ,0
1456,6011001158143,新規,0,2023-11-13,2023-11-13,株式会社ＫＥＳＳＥＮ,,株式会社,東京都,渋谷区,道玄坂１丁目１０番８号渋谷道玄坂東急ビル２Ｆ－Ｃ,,13,113,1500043,,,,,,,2023-11-13,1,,,,,ケッセン,0
1457,6011001158151,新規,0,2023-11-13,2023-11-13,株式会社Ａｒｓｔｒｕｃｔ,,株式会社,東京都,渋谷区,道玄坂１丁目１０番８号渋谷道玄坂東急ビル２Ｆ－Ｃ,,13,113,1500043,,,,,,,2023-11-13,1,,,,,アルストラクト,0
1458,6011001158176,新規,0,2023-11-13,2023-11-13,株式会社ＰＬＵＳＮＥＥＤ,,株式会社,東京都,渋谷区,渋谷２丁目１９－１５宮益坂ビルディング６０９,,13,113,1500002,,,,,,,2023-11-13,1,,,,,プラスニード,0
1463,6011003017875,新規,0,2023-11-13,2023-11-13,合同会社ワインのそだてや,,合同会社,東京都,渋谷区,道玄坂１丁目１０番８号渋谷道玄坂東急ビル２Ｆ－Ｃ,,13,113,1500043,,,,,,,2023-11-13,1,,,,,ワインノソダテヤ,0
1465,6011101105094,新規,0,2023-11-13,2023-11-13,シーバーズ株式会社,,株式会社,東京都,新宿区,西新宿３丁目３番１３号西新宿水間ビル２Ｆ,,13,104,1600023,,,,,,,2023-11-13,1,,,,,シーバーズ,0
1483,6011303004961,新規,0,2023-11-13,2023-11-13,合同会社センス,,合同会社,東京都,杉並区,松庵１丁目１４番１５－３０２号,,13,115,1670054,,,,,,,2023-11-13,1,,,,,センス,0
1485,6011401025604,新規,0,2023-11-13,2023-11-13,株式会社アジテ,,株式会社,東京都,板橋区,蓮根２丁目２７－１２－２Ｆ－３９,,13,119,1740046,,,,,,,2023-11-13,1,,,,,アジテ,0
1486,6011501029983,新規,0,2023-11-13,2023-11-13,株式会社ＵＳＧ,,株式会社,東京都,北区,志茂１丁目２７番１２号２０１号室,,13,117,1150042,,,,,,,2023-11-13,1,,,,,ユーエスジー,0
1488,6011701026756,新規,0,2023-11-13,2023-11-13,株式会社エムケイパイルアップ,,株式会社,東京都,江戸川区,本一色３丁目３４番１７号,,13,123,1330044,,,,,,,2023-11-13,1,,,,,エムケイパイルアップ,0
1489,6011701026764,新規,0,2023-11-13,2023-11-13,株式会社村田建設,,株式会社,東京都,江戸川区,北小岩３丁目１１番地７号パストラルミキ２Ｄ号室,,13,123,1330051,,,,,,,2023-11-13,1,,,,,ムラタケンセツ,0
1492,6011801043338,新規,0,2023-11-13,2023-11-13,株式会社高禾,,株式会社,東京都,足立区,千住緑町１丁目２１番１０号ジャパンステイ千住３０４号室,,13,121,1200044,,,,,,,2023-11-13,1,,,,,コウカ,0
1493,6012403006261,新規,0,2023-11-13,2023-11-13,合同会社ＵＮＤＩＸ,,合同会社,東京都,狛江市,猪方２丁目３番１３号,,13,219,2010015,,,,,,,2023-11-13,1,,,,,アンディクス,0
1495,6012801022760,新規,0,2023-11-13,2023-11-13,株式会社ＥＣＬＡＴ,,株式会社,東京都,立川市,錦町１丁目２番８号,,13,202,1900022,,,,,,,2023-11-13,1,,,,,エクラ,0
1513,6020001154449,新規,0,2023-11-13,2023-11-13,株式会社芳華十方,,株式会社,神奈川県,横浜市都筑区,佐江戸町１７０７－１,,14,118,2240054,,,,,,,2023-11-13,1,,,,,ホウカトウホウ,0
1514,6020001154457,新規,0,2023-11-13,2023-11-13,株式会社拓奏,,株式会社,神奈川県,横浜市港南区,上永谷３丁目１３番９号,,14,111,2330012,,,,,,,2023-11-13,1,,,,,タクソウ,0
1526,6020003024971,新規,0,2023-11-13,2023-11-13,合同会社メイクイットワーク,,合同会社,神奈川県,横浜市神奈川区,金港町７番地３金港ビル７階Ｏｐｅｎｏｆｆｉｃｅ７１７,,14,102,2210056,,,,,,,2023-11-13,1,,,,,メイクイットワーク,0
1527,6020005016174,新規,0,2023-11-13,2023-11-13,行政書士法人ひわたし事務所,,その他の設立登記法人,神奈川県,横浜市西区,南幸２丁目２０番１２号タイヨウビル３０１,,14,103,2200005,,,,,,,2023-11-13,1,,,,,ヒワタシジムショ,0
1530,6021001080726,新規,0,2023-11-13,2023-11-13,株式会社ＨＯＯＤ　ＣＲＥＷ,,株式会社,神奈川県,厚木市,三田３丁目１０番６号,,14,212,2430211,,,,,,,2023-11-13,1,,,,,フットクルー,0
1531,6021003013790,新規,0,2023-11-13,2023-11-13,ＺＡＡＤ　ＭＯＴＯＲＳ合同会社,,合同会社,神奈川県,綾瀬市,大上６丁目７－１６ミオンさがみ野Ａ棟２０１号室,,14,218,2521104,,,,,,,2023-11-13,1,,,,,ザードモータス,0
1537,6030001157104,新規,0,2023-11-13,2023-11-13,株式会社さんぷく,,株式会社,埼玉県,所沢市,三ケ島１丁目２１５番地の４,,11,208,3591164,,,,,,,2023-11-13,1,,,,,サンプク,0
1538,6030001157120,新規,0,2023-11-13,2023-11-13,株式会社ＧＵＬ　ＣＯＲＰＯＲＡＴＩＯＮ,,株式会社,埼玉県,羽生市,中央２丁目７番２５号,,11,216,3480058,,,,,,,2023-11-13,1,,,,,グルコーポレーション,0
1545,6030003022974,新規,0,2023-11-13,2023-11-13,合同会社爪切りの店大沢,,合同会社,埼玉県,越谷市,東越谷８丁目２０番地１４,,11,222,3430023,,,,,,,2023-11-13,1,,,,,ツメキリノミセオオサワ,0
1546,6030003022982,新規,0,2023-11-13,2023-11-13,合同会社サクラロジスティクス,,合同会社,埼玉県,北葛飾郡松伏町,田中３丁目２２－１４,,11,465,3430117,,,,,,,2023-11-13,1,,,,,サクラロジスティクス,0
1547,6030003022990,新規,0,2023-11-13,2023-11-13,スマートソリューションズ合同会社,,合同会社,埼玉県,川口市,朝日３丁目１４－２３,,11,203,3320001,,,,,,,2023-11-13,1,,,,,スマートソリューションズ,0
1554,6040001130893,新規,0,2023-11-13,2023-11-13,株式会社ＤＡＩＫＩエンタープライズ,,株式会社,千葉県,成田市,大清水２３１番地１,,12,211,2860122,,,,,,,2023-11-13,1,,,,,ダイキエンタープライズ,0
1561,6040003023708,新規,0,2023-11-13,2023-11-13,合同会社ＭＵＲＰＨ,,合同会社,千葉県,市川市,北方１丁目１４番２２号,,12,203,2720815,,,,,,,2023-11-13,1,,,,,マーフ,0
1566,6050001053813,新規,0,2023-11-13,2023-11-13,ａｒｃａｎａ株式会社,,株式会社,茨城県,笠間市,泉１０９８番地４,,08,216,3190209,,,,,,,2023-11-13,1,,,,,アルカナ,0
1569,6050003007924,新規,0,2023-11-13,2023-11-13,ＥＴＥＲＮＡＬ　ＶＯＲＴＥＸ合同会社,,合同会社,茨城県,牛久市,久野町１４７８番地１,,08,219,3001288,,,,,,,2023-11-13,1,,,,,,0
1571,6060003004805,新規,0,2023-11-13,2023-11-13,Ａａｍｉｒ　Ｔｒａｄｉｎｇ合同会社,,合同会社,栃木県,佐野市,若松町５９８－１城北ハイツＡ－２０１,,09,204,3270846,,,,,,,2023-11-13,1,,,,,アーミルトレーディング,0
1573,6080001025974,新規,0,2023-11-13,2023-11-13,株式会社ユイネス,,株式会社,静岡県,静岡市清水区,草薙３丁目１１－１富士印房事務所２Ｆ,,22,103,4240886,,,,,,,2023-11-13,1,,,,,ユイネス,0
1576,6080403004907,新規,0,2023-11-13,2023-11-13,合同会社世界農業,,合同会社,静岡県,浜松市南区,西島町２４３番地,,22,134,4300837,,,,,,,2023-11-13,1,,,,,セカイノウギョウ,0
1581,6110003005211,新規,0,2023-11-13,2023-11-13,合同会社ｂｅ　ｍｏｖｅｄ,,合同会社,新潟県,長岡市,大手通２丁目２－６、Ｂ１Ｆ,,15,202,9400062,,,,,,,2023-11-13,1,,,,,ビームーブド,0
1584,6120001259691,新規,0,2023-11-13,2023-11-13,株式会社宇宸商事,,株式会社,大阪府,大阪市東住吉区,矢田１丁目２６－７・４０３号室,,27,121,5460023,,,,,,,2023-11-13,1,,,,,ウシンショウジ,0
1585,6120001259717,新規,0,2023-11-13,2023-11-13,株式会社サンスイ建装,,株式会社,大阪府,大阪市生野区,勝山北５丁目２１－２,,27,116,5440033,,,,,,,2023-11-13,1,,,,,サンスイケンソウ,0
1586,6120001259741,新規,0,2023-11-13,2023-11-13,和警備保障株式会社,,株式会社,大阪府,大阪市北区,茶屋町１６番１号,,27,127,5300013,,,,,,,2023-11-13,1,,,,,カズケイビホショウ,0
1589,6120101068530,新規,0,2023-11-13,2023-11-13,株式会社エムテック,,株式会社,大阪府,富田林市,大字嬉８２３－３,,27,214,5840056,,,,,,,2023-11-13,1,,,,,エムテック,0
1590,6120105009786,新規,0,2023-11-13,2023-11-13,一般社団法人はやなり書芸学舎,,その他の設立登記法人,大阪府,阪南市,鳥取中４６３－６,,27,232,5990211,,,,,,,2023-11-13,1,,,,,ハヤナリショゲイガクシャ,0
1593,6120901048343,新規,0,2023-11-13,2023-11-13,株式会社英祥会アイデイ,,株式会社,大阪府,豊中市,上野西１丁目７－１１－１階,,27,203,5600011,,,,,,,2023-11-13,1,,,,,エイショウカイアイデイ,0
1594,6122001037557,新規,0,2023-11-13,2023-11-13,株式会社来輝工業,,株式会社,大阪府,八尾市,東山本町１丁目１１番１３号,,27,212,5810847,,,,,,,2023-11-13,1,,,,,ライキコウギョウ,0
1600,6130001075691,新規,0,2023-11-13,2023-11-13,南庭株式会社,,株式会社,京都府,京都市東山区,新橋通大和大路東入二丁目橋本町３８２番地３－４Ｆ,,26,105,6050000,,,,,,,2023-11-13,1,,,,,ナンテイ,0
1602,6130003009136,新規,0,2023-11-13,2023-11-13,合同会社庵子,,合同会社,京都府,京都市右京区,花園一条田町９－１３,,26,108,6168024,,,,,,,2023-11-13,1,,,,,アンコ,0
1608,6140001132302,新規,0,2023-11-13,2023-11-13,株式会社リエゾン,,株式会社,兵庫県,西宮市,荒木町１番３５－２,,28,204,6638025,,,,,,,2023-11-13,1,,,,,リエゾン,0
1609,6140001132310,新規,0,2023-11-13,2023-11-13,株式会社フィールドマスター,,株式会社,兵庫県,神戸市西区,伊川谷町潤和１７９７番地の３８,,28,111,6512124,,,,,,,2023-11-13,1,,,,,フィールドマスター,0
1611,6140003019753,新規,0,2023-11-13,2023-11-13,合同会社ＫＧＳ,,合同会社,兵庫県,宝塚市,逆瀬台４丁目５番９号,,28,214,6650024,,,,,,,2023-11-13,1,,,,,ケイジーエス,0
1612,6140003019803,新規,0,2023-11-13,2023-11-13,合同会社ＫＯＴＯＢＵＫＩ,,合同会社,兵庫県,西宮市,城ケ堀町７番２５－２号,,28,204,6620856,,,,,,,2023-11-13,1,,,,,コトブキ,0
1614,6160003003037,新規,0,2023-11-13,2023-11-13,Ｒｏａｍ合同会社,,合同会社,滋賀県,長浜市,八幡東町９９番地１ＣＥＰビル２階１号,,25,203,5260031,,,,,,,2023-11-13,1,,,,,ロアム,0
1620,6180001158871,新規,0,2023-11-13,2023-11-13,日本技研株式会社,,株式会社,愛知県,名古屋市熱田区,大宝１丁目１４番１‐１００１号,,23,109,4560062,,,,,,,2023-11-13,1,,,,,ニホンギケン,0
1621,6180301038014,新規,0,2023-11-13,2023-11-13,ＣＴＦ株式会社,,株式会社,愛知県,豊橋市,大岩町字車田３１番地９,,23,201,4413147,,,,,,,2023-11-13,1,,,,,シーティーエフ,0
1624,6200003006150,新規,0,2023-11-13,2023-11-13,Ｒｉｙａａｎ　Ｔｒａｄｉｎｇ合同会社,,合同会社,岐阜県,不破郡垂井町,宮代５５５番地１,,21,361,5032124,,,,,,,2023-11-13,1,,,,,リヤーントレーディング,0
1645,6290001103643,新規,0,2023-11-13,2023-11-13,ＬＵＣＫ　ＷＯＲＫＳ株式会社,,株式会社,福岡県,八女市,蒲原９３３番地１,,40,210,8340064,,,,,,,2023-11-13,1,,,,,ラックワークス,0
1646,6290001103718,新規,0,2023-11-13,2023-11-13,Ｖａｌｏ株式会社,,株式会社,福岡県,福岡市中央区,港２丁目３番１０号,,40,133,8100075,,,,,,,2023-11-13,1,,,,,ヴァロ,0
1647,6290001103726,新規,0,2023-11-13,2023-11-13,株式会社Ｙ＆Ｒ,,株式会社,福岡県,福岡市博多区,諸岡３丁目１１番４号,,40,132,8120894,,,,,,,2023-11-13,1,,,,,ワイアンドアール,0
1651,6290003014599,新規,0,2023-11-13,2023-11-13,虎兄弟合同会社,,合同会社,福岡県,福岡市博多区,中洲３丁目７－１０若松ビル３階,,40,132,8100801,,,,,,,2023-11-13,1,,,,,トラキョウダイ,0
1652,6290005019191,新規,0,2023-11-13,2023-11-13,一般社団法人シニアアテンダント協会,,その他の設立登記法人,福岡県,福岡市中央区,天神３丁目４番５号１０階,,40,133,8100001,,,,,,,2023-11-13,1,,,,,シニアアテンダントキョウカイ,0
1658,6320001020141,新規,0,2023-11-13,2023-11-13,株式会社ｏｕｓｈｉｎ,,株式会社,大分県,大分市,大字志村４０８番地の１リヴェールしむら４０６,,44,201,8700261,,,,,,,2023-11-13,1,,,,,オウシン,0
1662,6340001026070,新規,0,2023-11-13,2023-11-13,株式会社ワン・フラット,,株式会社,鹿児島県,鹿児島市,田上台１丁目１９番３７号,,46,201,8900036,,,,,,,2023-11-13,1,,,,,ワンフラット,0
1666,6360001032810,新規,0,2023-11-13,2023-11-13,株式会社リンクエンド,,株式会社,沖縄県,那覇市,安里２丁目６番２４－５１２号,,47,201,9020067,,,,,,,2023-11-13,1,,,,,リンクエンド,0
1668,6360003013478,新規,0,2023-11-13,2023-11-13,合同会社やすらぎ,,合同会社,沖縄県,中頭郡読谷村,字大木９２番地２,,47,324,9040316,,,,,,,2023-11-13,1,,,,,ヤスラギ,0
1678,6430001090388,新規,0,2023-11-13,2023-11-13,ＦＵＴＵＲＥ　ＦＬＩＧＨＴグループ株式会社,,株式会社,北海道,札幌市中央区,北四条西６丁目１番地,,01,101,0600004,,,,,,,2023-11-13,1,,,,,フューチャーフライトグループ,0
1679,6430001090413,新規,0,2023-11-13,2023-11-13,Ｃａｍｐｕｓ　Ｈａｋｕｂａ株式会社,,株式会社,北海道,虻田郡倶知安町,ニセコひらふ四条１丁目１番３４号,,01,400,0440087,,,,,,,2023-11-13,1,,,,,キャンパスハクバ,0
1682,6430005014830,新規,0,2023-11-13,2023-11-13,一般社団法人北海道ゴルフ支援機構,,その他の設立登記法人,北海道,恵庭市,盤尻５３番地２,,01,231,0611422,,,,,,,2023-11-13,1,,,,,ホッカイドウゴルフシエンキコウ,0
1683,6450001014139,新規,0,2023-11-13,2023-11-13,株式会社ラフィール,,株式会社,北海道,旭川市,永山六条４丁目１０番１０号,,01,204,0798416,,,,,,,2023-11-13,1,,,,,ラフィール,0
1692,6500001025304,新規,0,2023-11-13,2023-11-13,株式会社愛媛種苗造林,,株式会社,愛媛県,松山市,中野町甲１４６番地１,,38,201,7911121,,,,,,,2023-11-13,1,,,,,エヒメシュビョウゾウリン,0
1696,6700150122014,新規,0,2023-11-13,2023-11-13,ＴＨＡＳＥＥＭ＆ＳＯＮＳ　ＰＲＩＶＡＴＥ　ＬＩＭＩＴＥＤ,,外国会社等,千葉県,山武市,上横地４１４４－９６,,12,237,2891313,スリランカ民主社会主義共和国、アクラナ、ワラガスヒンナ．２４９／３．,,,,,,2023-11-13,1,,,,,タシムアントサンスプライベツトリミテツド,0
1715,7010001239737,新規,0,2023-11-13,2023-11-13,コネクテッド株式会社,,株式会社,東京都,千代田区,神田紺屋町１１番地２,,13,101,1010035,,,,,,,2023-11-13,1,,,,,コネクテッド,0
1716,7010001239935,新規,0,2023-11-13,2023-11-13,ＪＰＡ第２９５号株式会社,,株式会社,東京都,千代田区,霞が関３丁目２番１号,,13,101,1000013,,,,,,,2023-11-13,1,,,,,ジェイピーエーダイニヒャクキュウジュウゴゴウ,0
1717,7010001239943,新規,0,2023-11-13,2023-11-13,ＪＰＡ第３０３号株式会社,,株式会社,東京都,千代田区,霞が関３丁目２番１号,,13,101,1000013,,,,,,,2023-11-13,1,,,,,ジェイピーエーダイサンビャクサンゴウ,0
1725,7010401178452,新規,0,2023-11-13,2023-11-13,株式会社ａｉｒａｍ,,株式会社,東京都,港区,南青山３丁目１番３６号青山丸竹ビル６Ｆ,,13,103,1070062,,,,,,,2023-11-13,1,,,,,エアエム,0
1726,7010401178460,新規,0,2023-11-13,2023-11-13,株式会社Ｍ‐ＣＲＯＷＮ,,株式会社,東京都,港区,新橋１丁目５番９号ＴＳビル７階,,13,103,1050004,,,,,,,2023-11-13,1,,,,,エムクラウン,0
1733,7010403031337,新規,0,2023-11-13,2023-11-13,合同会社ワイザー,,合同会社,東京都,港区,北青山１丁目３－１アールキューブ青山３階,,13,103,1070061,,,,,,,2023-11-13,1,,,,,ワイザー,0
1743,7010801034511,新規,0,2023-11-13,2023-11-13,株式会社持立会計,,株式会社,東京都,大田区,西糀谷３丁目３６番８号滑川ビル３階,,13,111,1440034,,,,,,,2023-11-13,1,,,,,モチダテカイケイ,0
1744,7010903008578,新規,0,2023-11-13,2023-11-13,合同会社ネクストワン,,合同会社,東京都,世田谷区,深沢１丁目２４番１７号,,13,112,1580081,,,,,,,2023-11-13,1,,,,,ネクストワン,0
1752,7011001158076,新規,0,2023-11-13,2023-11-13,株式会社トライテック,,株式会社,東京都,渋谷区,幡ヶ谷２丁目２０－８アルム幡ヶ谷４０２,,13,113,1510072,,,,,,,2023-11-13,1,,,,,トライテック,0
1753,7011001158233,新規,0,2023-11-13,2023-11-13,株式会社ストライプ,,株式会社,東京都,渋谷区,代々木２丁目２３番１の１０７,,13,113,1510053,,,,,,,2023-11-13,1,,,,,ストライプ,0
1754,7011003017882,新規,0,2023-11-13,2023-11-13,合同会社ＣｏＬｕｃｋ,,合同会社,東京都,渋谷区,桜丘町１６－８アトラス桜丘ビル３０２,,13,113,1500031,,,,,,,2023-11-13,1,,,,,コラク,0
1755,7011003017899,新規,0,2023-11-13,2023-11-13,合同会社ステイメン,,合同会社,東京都,目黒区,上目黒２丁目４３－９－４０２,,13,110,1530051,,,,,,,2023-11-13,1,,,,,ステイメン,0
1759,7011101105102,新規,0,2023-11-13,2023-11-13,株式会社ＧＫ,,株式会社,東京都,新宿区,新宿６丁目２７番２９－３００１号,,13,104,1600022,,,,,,,2023-11-13,1,,,,,ジーケー,0
1763,7011301029159,新規,0,2023-11-13,2023-11-13,株式会社Ｂｕｌｂ　ＨＤ,,株式会社,東京都,杉並区,阿佐谷南２丁目１４番４号あ－２ビル,,13,115,1660004,,,,,,,2023-11-13,1,,,,,バルブホールディングス,0
1764,7011301029167,新規,0,2023-11-13,2023-11-13,株式会社ＬＩＭ,,株式会社,東京都,杉並区,永福２丁目３３番６号,,13,115,1680064,,,,,,,2023-11-13,1,,,,,リム,0
1765,7011303004960,新規,0,2023-11-13,2023-11-13,合同会社アプローチ,,合同会社,東京都,杉並区,松庵１丁目１４番１５－３０２号,,13,115,1670054,,,,,,,2023-11-13,1,,,,,アプローチ,0
1812,7020001154274,新規,0,2023-11-13,2023-11-13,株式会社エスティーム,,株式会社,神奈川県,横浜市都筑区,見花山４番８６号,,14,118,2240066,,,,,,,2023-11-13,1,,,,,エスティーム,0
1813,7020001154423,新規,0,2023-11-13,2023-11-13,株式会社ベストショット,,株式会社,神奈川県,横浜市戸塚区,小雀町１５２１番地８,,14,110,2440004,,,,,,,2023-11-13,1,,,,,ベストショット,0
1814,7020001154448,新規,0,2023-11-13,2023-11-13,株式会社ＭＴＲ,,株式会社,神奈川県,横浜市西区,西平沼町４番１－Ｅ６０４号,,14,103,2200024,,,,,,,2023-11-13,1,,,,,エムティアール,0
1823,7020003024970,新規,0,2023-11-13,2023-11-13,ＴＡＳＦＩ　ＩＮＴＥＲＮＡＴＩＯＮＡＬ合同会社,,合同会社,神奈川県,横浜市鶴見区,東寺尾２丁目８番２７号ラテール東寺尾ＩＩ－２０１,00132615,14,101,2300077,,,,,,,2023-11-13,1,,,,,タスフィインターナショナル,0
1828,7021001080709,新規,0,2023-11-13,2023-11-13,株式会社ＲＯＧＵＥ,,株式会社,神奈川県,平塚市,御殿３丁目３－６,,14,203,2540061,,,,,,,2023-11-13,1,,,,,ローグ,0
1832,7021003013798,新規,0,2023-11-13,2023-11-13,Ｔｓｕｂａｓａ　Ｔｅｃｈｎｏｌｏｇｉｅｓ合同会社,,合同会社,神奈川県,逗子市,池子３丁目２１番７号,,14,208,2490003,,,,,,,2023-11-13,1,,,,,ツバサテクノロジーズ,0
1841,7030001156922,新規,0,2023-11-13,2023-11-13,株式会社ＫＩＮＧＳＷＥＬＬ　ＪＡＰＡＮ,,株式会社,埼玉県,川口市,大字安行領根岸９１７－３－３Ｆ,,11,203,3330834,,,,,,,2023-11-13,1,,,,,キングスウェルジャパン,0
1842,7030001157103,新規,0,2023-11-13,2023-11-13,株式会社ＹＳＰ,,株式会社,埼玉県,川口市,大字安行領家１１３番地の１０,,11,203,3340058,,,,,,,2023-11-13,1,,,,,ワイエスピー,0
1850,7040001130901,新規,0,2023-11-13,2023-11-13,株式会社貴光ワークス,,株式会社,千葉県,柏市,大室８２９－３,,12,217,2770813,,,,,,,2023-11-13,1,,,,,キコウワークス,0
1855,7040005022194,新規,0,2023-11-13,2023-11-13,一般社団法人フリーランス互助会,,その他の設立登記法人,千葉県,市川市,大野町３丁目１５０番地グランドゥール市川大野Ａ棟１０７号,,12,203,2720805,,,,,,,2023-11-13,1,,,,,フリーランスゴジョカイ,0
1860,7050001053820,新規,0,2023-11-13,2023-11-13,株式会社オオスガファーム,,株式会社,茨城県,ひたちなか市,小谷金１１０５５番地,,08,221,3111253,,,,,,,2023-11-13,1,,,,,オオスガファーム,0
1869,7060003004804,新規,0,2023-11-13,2023-11-13,ＫＤＣ合同会社,,合同会社,栃木県,宇都宮市,駅前通り３丁目１番１６号,,09,201,3210964,,,,,,,2023-11-13,1,,,,,ケーディーシー,0
1874,7080001025973,新規,0,2023-11-13,2023-11-13,フジエダ勝手にプロデュース株式会社,,株式会社,静岡県,藤枝市,青葉町４丁目３－２ライフガーデン１０２,,22,214,4260066,,,,,,,2023-11-13,1,,,,,フジエダカッテニプロデュース,0
1875,7080003003093,新規,0,2023-11-13,2023-11-13,合同会社ＲＡＳＨＩＫＵ,,合同会社,静岡県,静岡市葵区,東千代田２丁目１８番３－９号,,22,101,4200801,,,,,,,2023-11-13,1,,,,,ラシク,0
1878,7080403004906,新規,0,2023-11-13,2023-11-13,合同会社ＫＭＫ,,合同会社,静岡県,浜松市中区,和合北４丁目２番２２号,,22,131,4338127,,,,,,,2023-11-13,1,,,,,ケーエムケー,0
1882,7110003005210,新規,0,2023-11-13,2023-11-13,合同会社扇食品,,合同会社,新潟県,新潟市東区,大形本町６丁目１９番３６号,,15,102,9500813,,,,,,,2023-11-13,1,,,,,オウギショクヒン,0
1889,7120001259690,新規,0,2023-11-13,2023-11-13,烽＿株式会社,00132611,株式会社,大阪府,大阪市淀川区,田川北２丁目５－３４・Ｂ棟２０１号室,,27,123,5320021,,,,,,,2023-11-13,1,,,,,ホウヨウ,0
1890,7120001259765,新規,0,2023-11-13,2023-11-13,東亜株式会社,,株式会社,大阪府,大阪市生野区,巽北１丁目９番１８号,,27,116,5440004,,,,,,,2023-11-13,1,,,,,トウア,0
1893,7120003025315,新規,0,2023-11-13,2023-11-13,ＭＥＭＢＥＲＳＨＩＰ　ＳＡＬＯＮ　ＭＩＹＵＫＩ合同会社,,合同会社,大阪府,大阪市中央区,南船場２丁目１１番１３号,,27,128,5420081,,,,,,,2023-11-13,1,,,,,メンバーシップサロンミユキ,0
1910,7130003009110,新規,0,2023-11-13,2023-11-13,合同会社ｐｕｌｃｈｒａ,,合同会社,京都府,京都市西京区,桂池尻町１２９番地ラ・ビルヌーヴ桂２０２,,26,111,6158081,,,,,,,2023-11-13,1,,,,,プルクラ,0
1917,7150001026865,新規,0,2023-11-13,2023-11-13,株式会社Ｓ＆Ｃ,,株式会社,奈良県,吉野郡大淀町,大字北六田５２番地１２,,29,442,6393124,,,,,,,2023-11-13,1,,,,,エスアンドシー,0
1919,7160003003036,新規,0,2023-11-13,2023-11-13,合同会社まむはーと,,合同会社,滋賀県,草津市,東矢倉２丁目１３－１,,25,206,5250054,,,,,,,2023-11-13,1,,,,,マムハート,0
1930,7180001158920,新規,0,2023-11-13,2023-11-13,株式会社Ｇｏ,,株式会社,愛知県,名古屋市中区,大須３丁目３２番１１号,,23,106,4600011,,,,,,,2023-11-13,1,,,,,ゴー,0
1935,7180003025978,新規,0,2023-11-13,2023-11-13,合同会社ＴＩｎｎｏｖａｔｉｏｎ,,合同会社,愛知県,春日井市,神屋町１３９８番地８１,,23,206,4800304,,,,,,,2023-11-13,1,,,,,ティーイノベーション,0
1936,7180003025986,新規,0,2023-11-13,2023-11-13,合同会社クリエイティブワークス,,合同会社,愛知県,名古屋市北区,清水４丁目１５番１号,,23,103,4620844,,,,,,,2023-11-13,1,,,,,クリエイティブワークス,0
1940,7180301038013,新規,0,2023-11-13,2023-11-13,株式会社スギヤマ自動車,,株式会社,愛知県,西尾市,米津町野寺道１番地１,,23,213,4450802,,,,,,,2023-11-13,1,,,,,スギヤマジドウシャ,0
1956,7240001062414,新規,0,2023-11-13,2023-11-13,株式会社あおばメモリアル上安会館,,株式会社,広島県,広島市安佐南区,上安２丁目３３番５号,,34,105,7310154,,,,,,,2023-11-13,1,,,,,アオバメモリアルカミヤスカイカン,0
1960,7240003006410,新規,0,2023-11-13,2023-11-13,合同会社彩り,,合同会社,広島県,福山市,清水ケ丘１９番１０号,,34,207,7200025,,,,,,,2023-11-13,1,,,,,イロドリ,0
1961,7240005015681,新規,0,2023-11-13,2023-11-13,一般社団法人ナチュラルハーブ．協会,,その他の設立登記法人,広島県,広島市中区,大手町１丁目１－２０相生橋ビル７階Ａ号室,,34,101,7300051,,,,,,,2023-11-13,1,,,,,ナチュラルハーブキョウカイ,0
1964,7250003003381,新規,0,2023-11-13,2023-11-13,合同会社美来,,合同会社,山口県,下松市,大字河内１７１４番地５,,35,207,7440061,,,,,,,2023-11-13,1,,,,,ミライ,0
1982,7290001103683,新規,0,2023-11-13,2023-11-13,ＷＥＳ株式会社,,株式会社,福岡県,福岡市南区,屋形原１丁目５番１号,,40,134,8111351,,,,,,,2023-11-13,1,,,,,ウェス,0
1983,7290001103725,新規,0,2023-11-13,2023-11-13,株式会社生恒,,株式会社,福岡県,福岡市早良区,百道２丁目８番２１号,,40,137,8140006,,,,,,,2023-11-13,1,,,,,セイコウ,0
1986,7290005019190,新規,0,2023-11-13,2023-11-13,一般社団法人サムライアート,,その他の設立登記法人,福岡県,福岡市南区,長住４丁目９番８号,,40,134,8111362,,,,,,,2023-11-13,1,,,,,サムライアート,0
1990,7290801030037,新規,0,2023-11-13,2023-11-13,株式会社ＵＮＩ　ＳＡＩＬ,,株式会社,福岡県,北九州市小倉北区,木町１丁目９番７－１３０６号,,40,106,8030851,,,,,,,2023-11-13,1,,,,,ユニセイル,0
1994,7310005008728,新規,0,2023-11-13,2023-11-13,特定非営利活動法人神道無念流練兵館流儀,,その他の設立登記法人,長崎県,大村市,諏訪２丁目７３番地３,,42,205,8560024,,,,,,,2023-11-13,1,,,,,シンドウムネンリュウレンペイカンリュウギ,0
1996,7320001020140,新規,0,2023-11-13,2023-11-13,株式会社ＣＩＶＩＬ．ＢＥ　ＴＥＬＥＣＯＭ,,株式会社,大分県,大分市,大字荏隈字庄ノ原１８４９番４１,,44,201,8700889,,,,,,,2023-11-13,1,,,,,シビルビーテレコム,0
2011,7380001034119,新規,0,2023-11-13,2023-11-13,株式会社平和園,,株式会社,福島県,福島市,在庭坂字石方原３１番地の１,,07,201,9602262,,,,,,,2023-11-13,1,,,,,ヘイワエン,0
2018,7390003002163,新規,0,2023-11-13,2023-11-13,合同会社りぶあっぷ,,合同会社,山形県,米沢市,大字南原石垣町２８０５,,06,202,9921453,,,,,,,2023-11-13,1,,,,,リブアップ,0
2024,7430001090395,新規,0,2023-11-13,2023-11-13,株式会社アオイ,,株式会社,北海道,沙流郡日高町,富川南４丁目４番６号,,01,601,0550006,,,,,,,2023-11-13,1,,,,,アオイ,0
2025,7430001090420,新規,0,2023-11-13,2023-11-13,株式会社雪旅,,株式会社,北海道,札幌市中央区,南三条東４丁目３番地１３ラ・クラッセ札幌シティイースト３０１号,,01,101,0600053,,,,,,,2023-11-13,1,,,,,ユキタビ,0
2026,7430001090429,新規,0,2023-11-13,2023-11-13,株式会社ＮＦａｃｔｏｒｙ,,株式会社,北海道,札幌市白石区,東札幌五条３丁目２番３２－９０１号,,01,104,0030005,,,,,,,2023-11-13,1,,,,,エヌファクトリー,0
2031,7430003015631,新規,0,2023-11-13,2023-11-13,合同会社ＡＯ‐Ｒｅｎｅｗａｂｌｅ,,合同会社,北海道,札幌市中央区,双子山２丁目３番３０号,,01,101,0640946,,,,,,,2023-11-13,1,,,,,エーオーリニューアブル,0
2035,7480001012287,新規,0,2023-11-13,2023-11-13,Ｈｅｍｐ　ｌｉｆｅ　ｆａｃｔｏｒｙ株式会社,,株式会社,徳島県,徳島市,応神町古川字戎子野８２番地９－１０４号,,36,201,7711151,,,,,,,2023-11-13,1,,,,,ヘンプライフファクトリー,0
2036,7700150122013,新規,0,2023-11-13,2023-11-13,ＡＺＲＩＮ　ＭＯＴＯＲＳ,,外国会社等,千葉県,山武市,雨坪６５－１０５,,12,237,2891213,スリランカ民主社会主義共和国、トリンコマルリ、ムトゥル、ベティコロロード、Ｎｏ．２６４,,,,,,2023-11-13,1,,,,,アズリンモーター,0
2045,8010001239942,新規,0,2023-11-13,2023-11-13,ＪＰＡ第３０２号株式会社,,株式会社,東京都,千代田区,霞が関３丁目２番１号,,13,101,1000013,,,,,,,2023-11-13,1,,,,,ジェイピーエーダイサンビャクニゴウ,0
2049,8010003042213,新規,0,2023-11-13,2023-11-13,ＷｈｉｔｅＳｕｎｒｉｓｅ合同会社,,合同会社,東京都,中央区,銀座１丁目２２番１１号銀座大竹ビジデンス２Ｆ,,13,102,1040061,,,,,,,2023-11-13,1,,,,,ホワイトサンライズ,0
2052,8010005037500,新規,0,2023-11-13,2023-11-13,一般社団法人蓬莱,,その他の設立登記法人,東京都,中央区,日本橋室町２丁目３番１号,,13,102,1030022,,,,,,,2023-11-13,1,,,,,ホウライ,0
2063,8010401178419,新規,0,2023-11-13,2023-11-13,株式会社カナエル,,株式会社,東京都,港区,東麻布１丁目８番４－４０３号,,13,103,1060044,,,,,,,2023-11-13,1,,,,,カナエル,0
2064,8010401178451,新規,0,2023-11-13,2023-11-13,株式会社ｉＶｏｘ,,株式会社,東京都,港区,六本木４丁目２番４５号高會堂ビル２階,,13,103,1060032,,,,,,,2023-11-13,1,,,,,アイヴォックス,0
2068,8010405022705,新規,0,2023-11-13,2023-11-13,広島観音ロジスティクス一般社団法人,,その他の設立登記法人,東京都,港区,六本木１丁目６番１号泉ガーデンタワー,,13,103,1060032,,,,,,,2023-11-13,1,,,,,ヒロシマカンオンロジスティクス,0
2071,8010501051343,新規,0,2023-11-13,2023-11-13,株式会社加貝時代,,株式会社,東京都,台東区,松が谷２丁目２７番９－７０２,,13,106,1110036,,,,,,,2023-11-13,1,,,,,カカイジダイ,0
2084,8011001158100,新規,0,2023-11-13,2023-11-13,株式会社ＵｐＮｅｘｔ,,株式会社,東京都,渋谷区,神泉町１０番１５号アネックス神泉３０１,,13,113,1500045,,,,,,,2023-11-13,1,,,,,アップネクスト,0
2085,8011001158109,新規,0,2023-11-13,2023-11-13,株式会社１ＤＥＲ,,株式会社,東京都,目黒区,五本木３丁目３２－２,,13,110,1530053,,,,,,,2023-11-13,1,,,,,ワンダー,0
2086,8011001158166,新規,0,2023-11-13,2023-11-13,ＰＨＯＥＮＩＸ　ＷＥＳＴ　ＣＯＡＳＴ株式会社,,株式会社,東京都,渋谷区,恵比寿３丁目５番２０号,,13,113,1500013,,,,,,,2023-11-13,1,,,,,フェニックスウエストコースト,0
2090,8011101105118,新規,0,2023-11-13,2023-11-13,株式会社ＧｏｏｄＦｕｎｃｔｉｏｎ,,株式会社,東京都,新宿区,西新宿３丁目３番１３号西新宿水間ビル２Ｆ,,13,104,1600023,,,,,,,2023-11-13,1,,,,,グッドファンクション,0
2092,8011301029158,新規,0,2023-11-13,2023-11-13,株式会社ＴＡＢＥＬＩ,,株式会社,東京都,杉並区,上井草３丁目３１番１５号鈴木ビル１Ｆ－Ｅ,,13,115,1670023,,,,,,,2023-11-13,1,,,,,タベリ,0
2099,8011701026762,新規,0,2023-11-13,2023-11-13,今典株式会社,,株式会社,東京都,江戸川区,本一色２丁目１８－２,,13,123,1330044,,,,,,,2023-11-13,1,,,,,コンテン,0
2111,8012403006268,新規,0,2023-11-13,2023-11-13,合同会社ｎａｇｉ,,合同会社,東京都,三鷹市,井口３丁目１９番２３号稲田荘２０１,,13,204,1810011,,,,,,,2023-11-13,1,,,,,ナギ,0
2129,8020003024945,新規,0,2023-11-13,2023-11-13,ＳＹＰ合同会社,,合同会社,神奈川県,横浜市神奈川区,神大寺４丁目１３－５,,14,102,2210801,,,,,,,2023-11-13,1,,,,,,0
2130,8020003024994,新規,0,2023-11-13,2023-11-13,欣栄合同会社,,合同会社,神奈川県,横浜市磯子区,岡村４丁目１５－１１１,,14,107,2350021,,,,,,,2023-11-13,1,,,,,キンエイ,0
2136,8021001080699,新規,0,2023-11-13,2023-11-13,株式会社ロボティズム,,株式会社,神奈川県,横須賀市,馬堀町１丁目２１番１５号湘南ハウス１０１,,14,201,2390802,,,,,,,2023-11-13,1,,,,,ロボティズム,0
2138,8021003013789,新規,0,2023-11-13,2023-11-13,合同会社ＷＳサービス,,合同会社,神奈川県,厚木市,中町４丁目１４番地１号サクセス本厚木ビル５階＆６階,,14,212,2430018,,,,,,,2023-11-13,1,,,,,ダブリューエスサービス,0
2146,8030001157135,新規,0,2023-11-13,2023-11-13,株式会社コラボネクスト,,株式会社,埼玉県,さいたま市緑区,原山１丁目２６番７号,,11,109,3360931,,,,,,,2023-11-13,1,,,,,コラボネクスト,0
2149,8030005021469,新規,0,2023-11-13,2023-11-13,一般社団法人かおる,,その他の設立登記法人,埼玉県,狭山市,柏原２０２番地の１シャーメゾンあい２０１,,11,215,3501335,,,,,,,2023-11-13,1,,,,,カオル,0
2156,8040003023739,新規,0,2023-11-13,2023-11-13,ネオキャピタル合同会社,,合同会社,千葉県,千葉市美浜区,打瀬２丁目１４パティオス１１番街５３２号室,,12,106,2610013,,,,,,,2023-11-13,1,,,,,ネオキャピタル,0
2160,8050003007939,新規,0,2023-11-13,2023-11-13,ＴＲＵＳＴ　ＬＡＮＫＡ　ＩＮＴＥＲＮＡＴＩＯＮＡＬ合同会社,,合同会社,茨城県,稲敷郡美浦村,大字谷中４７２番地２－１号棟,,08,442,3000417,,,,,,,2023-11-13,1,,,,,トラストランカインターナショナル,0
2167,8080001025972,新規,0,2023-11-13,2023-11-13,ＭｏｕｎｔａｉＮ株式会社,,株式会社,静岡県,牧之原市,勝間３３５番地,,22,226,4210402,,,,,,,2023-11-13,1,,,,,マウンテン,0
2171,8080401026843,新規,0,2023-11-13,2023-11-13,株式会社なるゆう,,株式会社,静岡県,浜松市北区,三方原町９４０番地の８,,22,135,4338105,,,,,,,2023-11-13,1,,,,,ナルユウ,0
2173,8100001036967,新規,0,2023-11-13,2023-11-13,コユコタ株式会社,,株式会社,長野県,北佐久郡軽井沢町,軽井沢東３０番地１３,,20,321,3890104,,,,,,,2023-11-13,1,,,,,コユコタ,0
2185,8120001259698,新規,0,2023-11-13,2023-11-13,千里之行建設株式会社,,株式会社,大阪府,大阪市生野区,中川４丁目２番４号ホワイトビル３０５号,,27,116,5440005,,,,,,,2023-11-13,1,,,,,センリノコウケンセツ,0
2186,8120001259764,新規,0,2023-11-13,2023-11-13,三佑株式会社,,株式会社,大阪府,大阪市住吉区,遠里小野６丁目１７番１８－４０４号,,27,120,5580032,,,,,,,2023-11-13,1,,,,,サンユウ,0
2188,8120003025314,新規,0,2023-11-13,2023-11-13,合同会社ｋａｔａｙｕ,,合同会社,大阪府,大阪市此花区,梅香１丁目１５番２０－２０１号,,27,104,5540013,,,,,,,2023-11-13,1,,,,,カタユ,0
2189,8120003025322,新規,0,2023-11-13,2023-11-13,合同会社Ｃｈａｒｍｅ　Ｓａｌｏｎ,,合同会社,大阪府,大阪市此花区,高見１丁目７番１５－１９０１号,,27,104,5540001,,,,,,,2023-11-13,1,,,,,チャームサロン,0
2195,8130001075665,新規,0,2023-11-13,2023-11-13,ＡＣＷ株式会社,,株式会社,京都府,京都市西京区,川島竹園町１２番地２,,26,111,6158112,,,,,,,2023-11-13,1,,,,,エーシーダブル,0
2196,8130001075681,新規,0,2023-11-13,2023-11-13,森田建築鉄工株式会社,,株式会社,京都府,八幡市,八幡園内３１番地の４,,26,210,6148038,,,,,,,2023-11-13,1,,,,,モリタケンチクテッコウ,0
2197,8130001075698,新規,0,2023-11-13,2023-11-13,株式会社Ｋ．Ｋカンパニー,,株式会社,京都府,京都市右京区,嵯峨梅ノ木町６番地２９,,26,108,6168344,,,,,,,2023-11-13,1,,,,,ケーケーカンパニー,0
2198,8130001075707,新規,0,2023-11-13,2023-11-13,平安土地興業株式会社,,株式会社,京都府,京都市左京区,二条通川端東入大菊町９６番地,,26,103,6068376,,,,,,,2023-11-13,1,,,,,ヘイアントチコウギョウ,0
2199,8130001075715,新規,0,2023-11-13,2023-11-13,ディエチミーラ株式会社,,株式会社,京都府,京都市伏見区,深草藪之内町３０番地１９,,26,109,6120882,,,,,,,2023-11-13,1,,,,,ディエチミーラ,0
2203,8140001132309,新規,0,2023-11-13,2023-11-13,邁滋得工業株式会社,,株式会社,兵庫県,芦屋市,東山町２６番２４号１Ｆ,,28,206,6590091,,,,,,,2023-11-13,1,,,,,マイシトクコウギョウ,0
2206,8140003019792,新規,0,2023-11-13,2023-11-13,合同会社あすなろ福祉デザイン,,合同会社,兵庫県,加東市,家原１３番地１１リープラス滝野社３０１号,,28,228,6731451,,,,,,,2023-11-13,1,,,,,,0
2207,8140003019801,新規,0,2023-11-13,2023-11-13,ＬＪ国際合同会社,,合同会社,兵庫県,西宮市,段上町８丁目９番２３号,,28,204,6638006,,,,,,,2023-11-13,1,,,,,エルジーコクサイ,0
2215,8160003003035,新規,0,2023-11-13,2023-11-13,合同会社こなんウルトラ脱炭素推進機構,,合同会社,滋賀県,湖南市,中央１丁目１番地１湖南市商工会内,,25,211,5203234,,,,,,,2023-11-13,1,,,,,コナンウルトラダツタンソスイシンキコウ,0
2227,8200001041890,新規,0,2023-11-13,2023-11-13,株式会社ゴケイ物流,,株式会社,岐阜県,羽島市,正木町不破一色３４８番地４,,21,209,5016228,,,,,,,2023-11-13,1,,,,,ゴケイブツリュウ,0
2234,8230003002104,新規,0,2023-11-13,2023-11-13,合同会社湊の街,,合同会社,富山県,高岡市,伏木一宮２丁目４番３３号,,16,202,9330116,,,,,,,2023-11-13,1,,,,,ミナトノマチ,0
2238,8260001038485,新規,0,2023-11-13,2023-11-13,Ｐ・Ｏ・Ｐサポート株式会社,,株式会社,岡山県,岡山市南区,浦安南町２２０番１,,33,104,7028024,,,,,,,2023-11-13,1,,,,,ピーオーピーサポート,0
2242,8290001103641,新規,0,2023-11-13,2023-11-13,株式会社エコスコ,,株式会社,福岡県,筑後市,大字馬間田４８８番地２,,40,211,8330023,,,,,,,2023-11-13,1,,,,,エコスコ,0
2243,8290001103674,新規,0,2023-11-13,2023-11-13,株式会社ＴＫコーポレーション,,株式会社,福岡県,福岡市早良区,高取２丁目２－１４タワーズ藤崎３－Ｃ,,40,137,8140011,,,,,,,2023-11-13,1,,,,,ティーケイコーポレーション,0
2244,8290001103724,新規,0,2023-11-13,2023-11-13,サンライズ食品株式会社,,株式会社,福岡県,八女市,高塚１９５－５,,40,210,8340034,,,,,,,2023-11-13,1,,,,,サンライズショクヒン,0
2245,8290001103732,新規,0,2023-11-13,2023-11-13,株式会社ルーセンス,,株式会社,福岡県,筑紫野市,塔原東２丁目６番１２－２０１号,,40,217,8180059,,,,,,,2023-11-13,1,,,,,ルーセンス,0
2250,8290003014606,新規,0,2023-11-13,2023-11-13,合同会社ＣＤＬ,,合同会社,福岡県,飯塚市,忠隈２４９番地５－Ｂ,,40,205,8200071,,,,,,,2023-11-13,1,,,,,シーディーエル,0
2260,8340001026077,新規,0,2023-11-13,2023-11-13,株式会社ピアブルーム鹿児島,,株式会社,鹿児島県,鹿児島市,宇宿９丁目３８番２号,,46,201,8900073,,,,,,,2023-11-13,1,,,,,ピアブルームカゴシマ,0
2265,8360001032791,新規,0,2023-11-13,2023-11-13,株式会社一生,,株式会社,沖縄県,国頭郡今帰仁村,字崎山１３３０番地１メゾンヒーロー２－２号室,,47,306,9050422,,,,,,,2023-11-13,1,,,,,イッショウ,0
2266,8360001032809,新規,0,2023-11-13,2023-11-13,株式会社ミツイシ防災設備,,株式会社,沖縄県,石垣市,浜崎町２丁目２番１４号浅野アパート１０２号室,,47,207,9070013,,,,,,,2023-11-13,1,,,,,ミツイシボウサイセツビ,0
2279,8420001018479,新規,0,2023-11-13,2023-11-13,株式会社ＯＮＥ　ＳＣＥＮＥ,,株式会社,青森県,青森市,中佃２丁目１９番２５号,,02,201,0300963,,,,,,,2023-11-13,1,,,,,ワンシーン,0
2281,8430001090378,新規,0,2023-11-13,2023-11-13,輪ｏｎ株式会社,,株式会社,北海道,札幌市北区,北七条西４丁目１番１号トーカン札幌第一キャステール６０７,,01,102,0600807,,,,,,,2023-11-13,1,,,,,ワオン,0
2287,8440001009344,新規,0,2023-11-13,2023-11-13,株式会社食道園,,株式会社,北海道,北斗市,七重浜２丁目３６番２３号,,01,236,0490111,,,,,,,2023-11-13,1,,,,,ショクドウエン,0
2291,8470001019893,新規,0,2023-11-13,2023-11-13,株式会社Ｂ．Ｂ．Ｌ,,株式会社,香川県,高松市,番町１丁目２番地１２源芳ビル１階,,37,201,7600017,,,,,,,2023-11-13,1,,,,,ビービーエル,0
2293,8700150122012,新規,0,2023-11-13,2023-11-13,ＰｗＣ　Ｈｏｌｄｉｎｇｓ　ＵＳ　Ｎｏ．６　ＬＬＣ,,外国会社等,,,,,,,,３４１１　Ｓｉｌｖｅｒｓｉｄｅ　Ｒｏａｄ，Ｔａｔｎａｌｌ　Ｂｕｉｌｄｉｎｇ　＃１０４，Ｗｉｌｍｉｎｇｔｏｎ，ＤＥ　１９８１０,,,,,,2023-11-13,1,,,,,ピーダブリユーシーホールデイングスユーエスナンバーシツクスエルエルシー,0
2300,9010001239941,新規,0,2023-11-13,2023-11-13,ＪＰＡ第３０１号株式会社,,株式会社,東京都,千代田区,霞が関３丁目２番１号,,13,101,1000013,,,,,,,2023-11-13,1,,,,,ジェイピーエーダイサンビャクイチゴウ,0
2301,9010001239990,新規,0,2023-11-13,2023-11-13,株式会社大力,,株式会社,東京都,文京区,向丘１丁目１６番１３号２０５室,,13,105,1130023,,,,,,,2023-11-13,1,,,,,ダイリキ,0
2303,9010003042154,新規,0,2023-11-13,2023-11-13,アストロ・シックスティーン合同会社,,合同会社,東京都,中央区,銀座１丁目６番１１号土志田ビルディング３Ｆ,,13,102,1040061,,,,,,,2023-11-13,1,,,,,アストロシックスティーン,0
2304,9010003042179,新規,0,2023-11-13,2023-11-13,Ｓｉｂｙｌ　Ｔｅｃｈｎｏｌｏｇｉｅｓ合同会社,,合同会社,東京都,中央区,銀座１丁目１２番４号Ｎ＆ＥＢＬＤ．６Ｆ,,13,102,1040061,,,,,,,2023-11-13,1,,,,,シビュラテクノロジーズ,0
2305,9010005037391,新規,0,2023-11-13,2023-11-13,一般社団法人ロイヤルヘルスリソース,,その他の設立登記法人,東京都,文京区,小石川１丁目９番１４－２００７号,,13,105,1120002,,,,,,,2023-11-13,1,,,,,ロイヤルヘルスリソース,0
2312,9010401178426,新規,0,2023-11-13,2023-11-13,株式会社ｍａｍａｍｕ,,株式会社,東京都,港区,三田３丁目７番１５－８０２号,,13,103,1080073,,,,,,,2023-11-13,1,,,,,ママム,0
2313,9010401178434,新規,0,2023-11-13,2023-11-13,株式会社白馬の風,,株式会社,東京都,港区,北青山１丁目３番１号アールキューブ青山３階,,13,103,1070061,,,,,,,2023-11-13,1,,,,,ハクバノカゼ,0
2319,9010403031335,新規,0,2023-11-13,2023-11-13,リアルアバター合同会社,,合同会社,東京都,港区,北青山３丁目３番７号,,13,103,1070061,,,,,,,2023-11-13,1,,,,,リアルアバター,0
2320,9010405022687,新規,0,2023-11-13,2023-11-13,一般社団法人ＭＯＭ,,その他の設立登記法人,東京都,港区,南麻布３丁目２１番１７号,,13,103,1060047,,,,,,,2023-11-13,1,,,,,エムオーエム,0
2321,9010405022704,新規,0,2023-11-13,2023-11-13,つくば谷田部ロジスティクス一般社団法人,,その他の設立登記法人,東京都,港区,六本木１丁目６番１号泉ガーデンタワー,,13,103,1060032,,,,,,,2023-11-13,1,,,,,ツクバヤタベロジスティクス,0
2324,9010601064120,新規,0,2023-11-13,2023-11-13,株式会社ＨＩＫＥ,,株式会社,東京都,江東区,東陽２丁目２番１４－１２１１号,,13,108,1350016,,,,,,,2023-11-13,1,,,,,ハイク,0
2327,9010801034501,新規,0,2023-11-13,2023-11-13,株式会社ＡＦＴ　ＪＡＰＡＮ,,株式会社,東京都,大田区,山王３丁目１番１１号Ａ．Ｉ．ビル３Ｆ,,13,111,1430023,,,,,,,2023-11-13,1,,,,,エーエフティージャパン,0
2328,9010901054176,新規,0,2023-11-13,2023-11-13,株式会社ＳＯＬ,,株式会社,東京都,世田谷区,奥沢１丁目９－９,,13,112,1580083,,,,,,,2023-11-13,1,,,,,ソル,0
2329,9010903008576,新規,0,2023-11-13,2023-11-13,合同会社福島いわきソーラー,,合同会社,東京都,世田谷区,玉川２丁目１４番７号ツインシティーＳ３Ｆ中央ライズアクロスグループ内,,13,112,1580094,,,,,,,2023-11-13,1,,,,,フクシマイワキソーラー,0
2338,9011001158108,新規,0,2023-11-13,2023-11-13,株式会社ＮＯＫＯＳ,,株式会社,東京都,渋谷区,神宮前６丁目２３番４号桑野ビル２階,,13,113,1500001,,,,,,,2023-11-13,1,,,,,ノコス,0
2339,9011001158207,新規,0,2023-11-13,2023-11-13,株式会社ＵＮＩＴＥ　ＮＥＯ,,株式会社,東京都,渋谷区,広尾１丁目１０番６号プロスペクト・グラーサ広尾５０９,,13,113,1500012,,,,,,,2023-11-13,1,,,,,ユナイトネオ,0
2340,9011001158231,新規,0,2023-11-13,2023-11-13,株式会社ＤｏＲＩＶＥ,,株式会社,東京都,渋谷区,道玄坂１丁目１０番８号,,13,113,1500043,,,,,,,2023-11-13,1,,,,,ドライブ,0
2341,9011003017823,新規,0,2023-11-13,2023-11-13,合同会社ナイアード,,合同会社,東京都,目黒区,自由が丘１丁目２１－７ガーデンビュー自由が丘３０２号室,,13,110,1520035,,,,,,,2023-11-13,1,,,,,ナイアード,0
2342,9011003017872,新規,0,2023-11-13,2023-11-13,合同会社Ｓｅｅｅｅｋ,,合同会社,東京都,渋谷区,渋谷２丁目１９－１５宮益坂ビルディング６０９,,13,113,1500002,,,,,,,2023-11-13,1,,,,,シーク,0
2343,9011003017880,新規,0,2023-11-13,2023-11-13,ＥＳＰＲＩＴ　ＯＲＩＥＮＴＡＬ合同会社,,合同会社,東京都,目黒区,大岡山１丁目１２番１１号アイ・フラット４０１,,13,110,1520033,,,,,,,2023-11-13,1,,,,,エスプリオリエンタル,0
2344,9011003017914,新規,0,2023-11-13,2023-11-13,ユニキューブ合同会社,,合同会社,東京都,渋谷区,道玄坂１丁目１０番８号渋谷道玄坂東急ビル２Ｆ－Ｃ,,13,113,1500043,,,,,,,2023-11-13,1,,,,,ユニキューブ,0
2350,9011101105091,新規,0,2023-11-13,2023-11-13,日陽貿易株式会社,,株式会社,東京都,新宿区,北新宿４丁目３３－１０－１０１,,13,104,1690074,,,,,,,2023-11-13,1,,,,,ニチヨウボウエキ,0
2353,9011103013730,新規,0,2023-11-13,2023-11-13,合同会社ＴＯＭＵ,,合同会社,東京都,新宿区,天神町１４神楽坂藤井ビル６Ｆ,,13,104,1620808,,,,,,,2023-11-13,1,,,,,トム,0
2363,9011501029980,新規,0,2023-11-13,2023-11-13,クラクモ株式会社,,株式会社,東京都,荒川区,町屋１丁目３－１２－２０４,,13,118,1160001,,,,,,,2023-11-13,1,,,,,クラクモ,0
2366,9011605002553,新規,0,2023-11-13,2023-11-13,一般社団法人Ｂｅ　Ｐｒｏｕｄ,,その他の設立登記法人,東京都,練馬区,南大泉５丁目２５番３９－３０２号,,13,120,1780064,,,,,,,2023-11-13,1,,,,,ビープラウド,0
2400,9020001154462,新規,0,2023-11-13,2023-11-13,株式会社フェリーチェ,,株式会社,神奈川県,横浜市港北区,日吉１丁目１２番１９号,,14,109,2230061,,,,,,,2023-11-13,1,,,,,フェリーチェ,0
2408,9020003024977,新規,0,2023-11-13,2023-11-13,リビネスト合同会社,,合同会社,神奈川県,横浜市緑区,長津田町２３０６－２－２０２,,14,113,2260026,,,,,,,2023-11-13,1,,,,,リビネスト,0
2416,9021001080707,新規,0,2023-11-13,2023-11-13,株式会社ｅｌｔｕｅ,,株式会社,神奈川県,鎌倉市,坂ノ下３２番８号,,14,204,2480021,,,,,,,2023-11-13,1,,,,,エルテュー,0
2417,9021001080715,新規,0,2023-11-13,2023-11-13,株式会社ＣＷ,,株式会社,神奈川県,座間市,座間１丁目３３６４番地の１１,,14,216,2520027,,,,,,,2023-11-13,1,,,,,シーダブリュー,0
2420,9021003013796,新規,0,2023-11-13,2023-11-13,合同会社ＡＹＡＹＡＹ,,合同会社,神奈川県,相模原市緑区,小渕２１７９番地４,,14,151,2520184,,,,,,,2023-11-13,1,,,,,アイアイアイ,0
2421,9021005012937,新規,0,2023-11-13,2023-11-13,一般社団法人ＰＦＦ　ＪＡＰＡＮ,,その他の設立登記法人,神奈川県,小田原市,鴨宮４６７番地の１７,,14,206,2500874,,,,,,,2023-11-13,1,,,,,ピーエフエフジャパン,0
2427,9030001157043,新規,0,2023-11-13,2023-11-13,株式会社伸羽,,株式会社,埼玉県,川越市,岸町３丁目１２番地４８,,11,201,3501131,,,,,,,2023-11-13,1,,,,,シンワ,0
2428,9030001157134,新規,0,2023-11-13,2023-11-13,環亜国際ホールディングス株式会社,,株式会社,埼玉県,所沢市,大字上安松５８４番地の５,,11,208,3590025,,,,,,,2023-11-13,1,,,,,カンカコクサイホールディングス,0
2433,9030003022988,新規,0,2023-11-13,2023-11-13,合同会社Ｌｉｅｎ,,合同会社,埼玉県,川口市,並木３丁目１８番３号小坂マンション３０３号,,11,203,3320034,,,,,,,2023-11-13,1,,,,,リアン,0
2437,9040001130890,新規,0,2023-11-13,2023-11-13,株式会社ＮＤＭ　ＡＵＴＯ,,株式会社,千葉県,君津市,外箕輪３丁目３番１０号,,12,225,2991173,,,,,,,2023-11-13,1,,,,,エヌディーエムオート,0
2443,9050003007913,新規,0,2023-11-13,2023-11-13,合同会社斯斯然然,,合同会社,茨城県,神栖市,矢田部９７７３―６,,08,232,3140341,,,,,,,2023-11-13,1,,,,,カクカクシカジカ,0
2444,9050003007938,新規,0,2023-11-13,2023-11-13,合同会社ＣＥＹＬＯＮ　ＴＡＳＴＥ,,合同会社,茨城県,筑西市,二木成１５１０番地,,08,227,3080841,,,,,,,2023-11-13,1,,,,,セイロンテイスト,0
2446,9060005010154,新規,0,2023-11-13,2023-11-13,特定非営利活動法人にじのね,,その他の設立登記法人,栃木県,佐野市,富岡町２４１番地３ロイヤルガーデンＤ１０１,,09,204,3270844,,,,,,,2023-11-13,1,,,,,ニジノネ,0
2450,9080003003091,新規,0,2023-11-13,2023-11-13,合同会社スリール,,合同会社,静岡県,静岡市駿河区,下川原２丁目３２－１４、２Ｆ,,22,102,4210113,,,,,,,2023-11-13,1,,,,,スリール,0
2452,9080101024337,新規,0,2023-11-13,2023-11-13,株式会社宮澤工務店,,株式会社,静岡県,三島市,三ツ谷新田６１番地の１,,22,206,4110013,,,,,,,2023-11-13,1,,,,,ミヤザワコウムテン,0
2461,9120001259689,新規,0,2023-11-13,2023-11-13,錦盛商社株式会社,,株式会社,大阪府,大阪市東成区,大今里西１丁目２４番２０号４０３室,,27,115,5370014,,,,,,,2023-11-13,1,,,,,キンセイショウシャ,0
2462,9120001259763,新規,0,2023-11-13,2023-11-13,株式会社ファイティー,,株式会社,大阪府,大阪市中央区,千日前１丁目５－１９寿楽ビル５０２,,27,128,5420074,,,,,,,2023-11-13,1,,,,,ファイティー,0
2476,9140003019742,新規,0,2023-11-13,2023-11-13,合同会社ＬＦＨ,,合同会社,兵庫県,伊丹市,中野北２丁目１１番地１４－１,,28,207,6640029,,,,,,,2023-11-13,1,,,,,エルエフエチ,0
2477,9140005026794,新規,0,2023-11-13,2023-11-13,一般社団法人サロンウーマン,,その他の設立登記法人,兵庫県,西宮市,西宮浜４丁目１４番３－１３０５号,,28,204,6620934,,,,,,,2023-11-13,1,,,,,サロンウーマン,0
2479,9160003003034,新規,0,2023-11-13,2023-11-13,名称未設定合同会社,,合同会社,滋賀県,長浜市,余呉町小谷３３６,,25,203,5290534,,,,,,,2023-11-13,1,,,,,メイショウミセッテイ,0
2480,9170003001945,新規,0,2023-11-13,2023-11-13,合同会社ｓｈｉｋｕｍｉ,,合同会社,和歌山県,和歌山市,園部１４１１－１,,30,201,6408483,,,,,,,2023-11-13,1,,,,,シクミ,0
2487,9180001158885,新規,0,2023-11-13,2023-11-13,株式会社Ｋ’ｓ,,株式会社,愛知県,一宮市,小信中島字南平口７６番地１ザ・ウィングＥ－３号,,23,203,4940007,,,,,,,2023-11-13,1,,,,,ケイズ,0
2490,9180003025984,新規,0,2023-11-13,2023-11-13,合同会社リトルビーイング,,合同会社,愛知県,名古屋市西区,又穂町５丁目１８番地の８,,23,104,4510014,,,,,,,2023-11-13,1,,,,,リトルビーイング,0
2493,9200001041898,新規,0,2023-11-13,2023-11-13,株式会社甚平,,株式会社,岐阜県,各務原市,那加巾下町２４番地３,,21,213,5040839,,,,,,,2023-11-13,1,,,,,ジンベエ,0
2494,9200003006148,新規,0,2023-11-13,2023-11-13,合同会社Ｒｉｃｃａ,,合同会社,岐阜県,岐阜市,殿町３丁目３番地,,21,201,5008116,,,,,,,2023-11-13,1,,,,,リッカ,0
2502,9240001062412,新規,0,2023-11-13,2023-11-13,株式会社ｍｉｉｔｅ　ｃａｒｅ,,株式会社,広島県,安芸郡熊野町,貴船８番９号,,34,307,7314227,,,,,,,2023-11-13,1,,,,,ミーテケア,0
2503,9240001062420,新規,0,2023-11-13,2023-11-13,株式会社恵光,,株式会社,広島県,東広島市,河内町中河内４２７番地１０,,34,212,7392201,,,,,,,2023-11-13,1,,,,,エイコウ,0
2508,9240003006417,新規,0,2023-11-13,2023-11-13,合同会社Ｇｅｍ　Ｍｉｎｔ,,合同会社,広島県,広島市佐伯区,坪井１丁目３０番８－２０３号,,34,108,7315142,,,,,,,2023-11-13,1,,,,,ジェムミント,0
2520,9290001103649,新規,0,2023-11-13,2023-11-13,Ｂｏｏｚｅｒ　Ｉｎｔｅｌｌｉｇｅｎｃｅ株式会社,,株式会社,福岡県,福岡市博多区,博多駅前１丁目２３番２号ＰａｒｋＦｒｏｎｔ博多駅前１丁目５Ｆ－Ｂ,,40,132,8120011,,,,,,,2023-11-13,1,,,,,ブーザーインテリジェンス,0
2521,9290001103715,新規,0,2023-11-13,2023-11-13,株式会社ムトウ,,株式会社,福岡県,福岡市中央区,渡辺通２丁目１－２７ミスモ天神３０７,,40,133,8100004,,,,,,,2023-11-13,1,,,,,ムトウ,0
2526,9290005019189,新規,0,2023-11-13,2023-11-13,特定非営利活動法人みつば,,その他の設立登記法人,福岡県,福岡市博多区,那珂２丁目１６番４号,,40,132,8120893,,,,,,,2023-11-13,1,,,,,,0
2527,9290801030035,新規,0,2023-11-13,2023-11-13,株式会社こどもデザイン,,株式会社,福岡県,北九州市若松区,高須西２丁目１番３６号,,40,103,8080146,,,,,,,2023-11-13,1,,,,,コドモデザイン,0
2534,9330003010046,新規,0,2023-11-13,2023-11-13,球磨風力発電合同会社,,合同会社,熊本県,球磨郡球磨村,大字一勝地４２０番地５,,43,513,8696403,,,,,,,2023-11-13,1,,,,,クマフウリョクハツデン,0
2537,9340001026076,新規,0,2023-11-13,2023-11-13,株式会社ヨツモト事務所,,株式会社,鹿児島県,鹿児島市,谷山中央２丁目４４０６番地５,,46,201,8910141,,,,,,,2023-11-13,1,,,,,ヨツモトジムショ,0
2550,9360003013475,新規,0,2023-11-13,2023-11-13,合同会社Ｄｉｅｎａ　Ａｍｏｕｒ,,合同会社,沖縄県,国頭郡今帰仁村,字今泊４０５番地栄荘２０２号室,,47,306,9050428,,,,,,,2023-11-13,1,,,,,ディーナアムール,0
2558,9380001034125,新規,0,2023-11-13,2023-11-13,株式会社シェリーライン,,株式会社,福島県,郡山市,大町２丁目１２番１号大野マンション６０３号,,07,203,9638001,,,,,,,2023-11-13,1,,,,,シェリーライン,0
2560,9390003002161,新規,0,2023-11-13,2023-11-13,合同会社グリーンコネクト,,合同会社,山形県,山形市,あずま町３番４２号,,06,201,9902491,,,,,,,2023-11-13,1,,,,,グリーンコネクト,0
2565,9410001013645,新規,0,2023-11-13,2023-11-13,株式会社ジャパン・パックライス男鹿,,株式会社,秋田県,男鹿市,野石字牛沢３２番地,,05,206,0100401,,,,,,,2023-11-13,1,,,,,ジャパンパックライスオガ,0
2566,9430001090352,新規,0,2023-11-13,2023-11-13,株式会社ユート,,株式会社,北海道,札幌市北区,太平五条１丁目２番１０号,,01,102,0028005,,,,,,,2023-11-13,1,,,,,ユート,0
2567,9430001090419,新規,0,2023-11-13,2023-11-13,グリットアイエフ株式会社,,株式会社,北海道,札幌市豊平区,福住一条１丁目２番１６号,,01,105,0620041,,,,,,,2023-11-13,1,,,,,グリットアイエフ,0
2569,9450003002403,新規,0,2023-11-13,2023-11-13,合同会社ｍｙｗａｙ,,合同会社,北海道,空知郡中富良野町,字中富良野西１線北十六号,,01,461,0710705,,,,,,,2023-11-13,1,,,,,マイウェイ,0
2573,9700150122011,新規,0,2023-11-13,2023-11-13,ＰｗＣ　Ｈｏｌｄｉｎｇｓ　ＵＳ　Ｎｏ．４　ＬＬＣ,,外国会社等,,,,,,,,３４１１　Ｓｉｌｖｅｒｓｉｄｅ　Ｒｏａｄ，Ｔａｔｎａｌｌ　Ｂｕｉｌｄｉｎｇ　＃１０４，Ｗｉｌｍｉｎｇｔｏｎ，ＤＥ　１９８１０,,,,,,2023-11-13,1,,,,,ピーダブリユーシーホールデイングスユーエスナンバーフオーエルエルシー,0
