sequenceNumber,corporateNumber,process,correct,updateDate,changeDate,name,nameImageId,kind,prefectureName,cityName,streetNumber,addressImageId,prefectureCode,cityCode,postCode,addressOutside,addressOutsideImageId,closeDate,closeCause,successorCorporateNumber,changeCause,assignmentDate,latest,enName,enPrefectureName,enCityName,enAddressOutside,furigana,hihyoji
3,1010001257810,新規,0,2025-09-02,2025-09-02,株式会社善信,,株式会社,東京都,中央区,湊３丁目６番２号レゾンアレグレ４０１号室,,13,102,1040043,,,,,,,2025-09-02,1,,,,,ゼンシン,0
4,1010001258032,新規,0,2025-09-02,2025-09-02,Ｍａｒａｉｓｔ株式会社,,株式会社,東京都,中央区,銀座１丁目１２－４Ｎ＆ＥＢＬＤ．７階,,13,102,1040061,,,,,,,2025-09-02,1,,,,,マレイ,0
5,1010001258107,新規,0,2025-09-02,2025-09-02,株式会社スナテクエンターテインメント,,株式会社,東京都,千代田区,麹町３丁目５番地１７,,13,101,1020083,,,,,,,2025-09-02,1,,,,,スナテクエンターテインメント,0
8,1010003048415,新規,0,2025-09-02,2025-09-02,合同会社Ｋｏａ　Ｐｒｏｊｅｃｔｓ２,,合同会社,東京都,中央区,新川１丁目１７番１８号,,13,102,1040033,,,,,,,2025-09-02,1,,,,,コアプロジェクツツー,0
9,1010003048563,新規,0,2025-09-02,2025-09-02,ＳＵＮＭＯＯＮ合同会社,,合同会社,東京都,中央区,勝どき６丁目３番２－２９２１号,,13,102,1040054,,,,,,,2025-09-02,1,,,,,サンムーン,0
10,1010003048571,新規,0,2025-09-02,2025-09-02,ころころふろう合同会社,,合同会社,東京都,文京区,本駒込６丁目４番地２５－６０１号,,13,105,1130021,,,,,,,2025-09-02,1,,,,,コロコロフロウ,0
11,1010005040584,新規,0,2025-09-02,2025-09-02,一般社団法人カラフルバード,,その他の設立登記法人,東京都,千代田区,麹町３丁目５番地４麹町インテリジェントビルＢ－１,,13,101,1020083,,,,,,,2025-09-02,1,,,,,カラフルバード,0
17,1010401192764,新規,0,2025-09-02,2025-09-02,Ｈｕｕｕｍｏ株式会社,,株式会社,東京都,港区,北青山１丁目４番１－８０２号,,13,103,1070061,,,,,,,2025-09-02,1,,,,,フウーモ,0
21,1010501054641,新規,0,2025-09-02,2025-09-02,泰易株式会社,,株式会社,東京都,台東区,元浅草１丁目２番１号フラワービル３０２,,13,106,1110041,,,,,,,2025-09-02,1,,,,,タイイ,0
24,1010601067898,新規,0,2025-09-02,2025-09-02,株式会社天士力東京再生医療センター,,株式会社,東京都,江東区,有明３丁目７番２６号有明フロンティアビルＢ棟９階,,13,108,1350063,,,,,,,2025-09-02,1,,,,,テンシリキトウキョウサイセイイリョウセンター,0
26,1010603011763,新規,0,2025-09-02,2025-09-02,滝山川合同会社,,合同会社,東京都,墨田区,横川３丁目６番７号２－Ｃ室,,13,107,1300003,,,,,,,2025-09-02,1,,,,,タキサンセン,0
27,1010605004492,新規,0,2025-09-02,2025-09-02,一般社団法人英語教育研究所ＥＬＬＩ,,その他の設立登記法人,東京都,江東区,大島６丁目１２番３号熊谷ビル２０１,,13,108,1360072,,,,,,,2025-09-02,1,,,,,エイゴキョウイクケンキュウジョイーライ,0
29,1010701048220,新規,0,2025-09-02,2025-09-02,ＯＪＭホールディングス株式会社,,株式会社,東京都,品川区,南大井３丁目１２番４号,,13,109,1400013,,,,,,,2025-09-02,1,,,,,オージェイエムホールディングス,0
30,1010701048245,新規,0,2025-09-02,2025-09-02,オオイスマート株式会社,,株式会社,東京都,品川区,大井２丁目３番４号ハイツ大竹２０２,,13,109,1400014,,,,,,,2025-09-02,1,,,,,オオイスマート,0
38,1011001171605,新規,0,2025-09-02,2025-09-02,星耀株式会社,,株式会社,東京都,渋谷区,桜丘町４番１４号ＶＯＲＴ渋谷桜丘５Ｆ,,13,113,1500031,,,,,,,2025-09-02,1,,,,,セイヨウ,0
39,1011001171712,新規,0,2025-09-02,2025-09-02,Ｃａｒｉｓ東京株式会社,,株式会社,東京都,渋谷区,道玄坂１丁目１０番８号渋谷道玄坂東急ビル２Ｆ－Ｃ,,13,113,1500043,,,,,,,2025-09-02,1,,,,,カリストウキョウ,0
40,1011003022277,新規,0,2025-09-02,2025-09-02,合同会社ひと夏の冒険出版,,合同会社,東京都,渋谷区,道玄坂１丁目１０番８号渋谷道玄坂東急ビル２Ｆ－Ｃ,,13,113,1500043,,,,,,,2025-09-02,1,,,,,ヒトナツノボウケンシュッパン,0
41,1011003022285,新規,0,2025-09-02,2025-09-02,合同会社ＩＴＪＡＰＡＮ,,合同会社,東京都,渋谷区,道玄坂１丁目１０番８号渋谷道玄坂東急ビル２Ｆ－Ｃ,,13,113,1500043,,,,,,,2025-09-02,1,,,,,アイティージャパン,0
42,1011101112905,新規,0,2025-09-02,2025-09-02,ＧＭＡＸ　ＧＬＯＢＡＬ　ＪＡＰＡＮ株式会社,,株式会社,東京都,新宿区,新宿５丁目１８番２０号ルックハイツ新宿８０３号,,13,104,1600022,,,,,,,2025-09-02,1,,,,,ジーマックスグローバルジャパン,0
43,1011101112979,新規,0,2025-09-02,2025-09-02,Ｍａｔｅｒｉａｌｉｎｋｓ株式会社,,株式会社,東京都,新宿区,市谷本村町２番２１号市ヶ谷キャナルコート４階,,13,104,1620845,,,,,,,2025-09-02,1,,,,,マテリアリンクス,0
44,1011101112995,新規,0,2025-09-02,2025-09-02,歓顔株式会社,,株式会社,東京都,新宿区,百人町１丁目１８－８大久保カドビルＬｉｎｋＳｐａｃｅ百人町Ｄ０７,,13,104,1690073,,,,,,,2025-09-02,1,,,,,カンガン,0
46,1011205002705,新規,0,2025-09-02,2025-09-02,医療法人社団佳悠会,,その他の設立登記法人,東京都,中野区,中央２丁目５９番１８号ジャロックビル１階,,13,114,1640011,,,,,,,2025-09-02,1,,,,,カユウカイ,0
48,1011301030840,新規,0,2025-09-02,2025-09-02,ＢＭＮ株式会社,,株式会社,東京都,杉並区,高円寺北２丁目２０番１号,,13,115,1660002,,,,,,,2025-09-02,1,,,,,,0
53,1011701028674,新規,0,2025-09-02,2025-09-02,株式会社ｉ‐Ｍａｒｋｅｔｉｎｇ,,株式会社,東京都,江戸川区,中葛西５丁目４１番１０号,,13,123,1340083,,,,,,,2025-09-02,1,,,,,アイマーケティング,0
57,1011801046659,新規,0,2025-09-02,2025-09-02,ＣＲａｘｉＳホールディングス株式会社,,株式会社,東京都,足立区,神明２丁目７番１２号,,13,121,1210051,,,,,,,2025-09-02,1,,,,,クラクシスホールディングス,0
58,1011801046667,新規,0,2025-09-02,2025-09-02,株式会社Ｆｕ‐ｒｏ　Ｂａｉｓｉｎ,,株式会社,東京都,葛飾区,東金町３丁目１６番１号３Ｆ,,13,122,1250041,,,,,,,2025-09-02,1,,,,,フーロベイシン,0
60,1012701019044,新規,0,2025-09-02,2025-09-02,株式会社優,,株式会社,東京都,東村山市,栄町２丁目２２番地１第２池田ビル３階,,13,213,1890013,,,,,,,2025-09-02,1,,,,,ユウ,0
62,1012801024209,新規,0,2025-09-02,2025-09-02,株式会社エルトリプル,,株式会社,東京都,国立市,谷保５０６５番地の１,,13,215,1860011,,,,,,,2025-09-02,1,,,,,エルトリプル,0
63,1012803003846,新規,0,2025-09-02,2025-09-02,ピカード・プロダクション合同会社,,合同会社,東京都,日野市,日野台１丁目１９番地の３,,13,212,1910003,,,,,,,2025-09-02,1,,,,,ピカードプロダクション,0
68,1020001164601,新規,0,2025-09-02,2025-09-02,株式会社ＥＮ,,株式会社,神奈川県,川崎市宮前区,西野川２丁目３７番８号,,14,136,2160044,,,,,,,2025-09-02,1,,,,,エン,0
69,1020001164626,新規,0,2025-09-02,2025-09-02,株式会社ライフスタイル,,株式会社,神奈川県,横浜市中区,赤門町１丁目７番地１，２０５号,,14,104,2310051,,,,,,,2025-09-02,1,,,,,ライフスタイル,0
73,1021001086208,新規,0,2025-09-02,2025-09-02,ティーケークラフト株式会社,,株式会社,神奈川県,小田原市,板橋２７６番地１３,,14,206,2500034,,,,,,,2025-09-02,1,,,,,ティーケークラフト,0
81,1030001168378,新規,0,2025-09-02,2025-09-02,株式会社トライ,,株式会社,埼玉県,越谷市,東町２丁目２６６番地５６,,11,222,3430826,,,,,,,2025-09-02,1,,,,,トライ,0
82,1030001168403,新規,0,2025-09-02,2025-09-02,ＪＢＡ株式会社,,株式会社,埼玉県,越谷市,東越谷８丁目１５番地６アクシスビル３Ｆ,,11,222,3430023,,,,,,,2025-09-02,1,,,,,ジェイビーエー,0
85,1030003027474,新規,0,2025-09-02,2025-09-02,アビアント合同会社,,合同会社,埼玉県,本庄市,小島南３丁目４番地２０号,,11,211,3670062,,,,,,,2025-09-02,1,,,,,アビアント,0
90,1040001140237,新規,0,2025-09-02,2025-09-02,株式会社Ｒ＆Ｋ,,株式会社,千葉県,松戸市,小金きよしケ丘２丁目２番地の１０,,12,207,2700013,,,,,,,2025-09-02,1,,,,,アールアンドケイ,0
91,1040001140294,新規,0,2025-09-02,2025-09-02,株式会社リカオンプレイ,,株式会社,千葉県,成田市,西三里塚１番地１２７,,12,211,2860115,,,,,,,2025-09-02,1,,,,,リカオンプレイ,0
101,1070005010425,新規,0,2025-09-02,2025-09-02,ＮＰＯ法人ｃｏｃｏｋａｒａ,,その他の設立登記法人,群馬県,前橋市,古市町５６３番地５三協ハイツ２０１号室,,10,201,3710844,,,,,,,2025-09-02,1,,,,,,0
108,1090003002884,新規,0,2025-09-02,2025-09-02,合同会社ｈａｓｈｉｂｉｔｏ,,合同会社,山梨県,南都留郡山中湖村,山中１２５番地デザイン事務所はしびと,,19,425,4010501,,,,,,,2025-09-02,1,,,,,ハシビト,0
115,1120001279208,新規,0,2025-09-02,2025-09-02,ＨＢパートナーズ株式会社,,株式会社,大阪府,大阪市福島区,鷺洲３丁目１番１７－１５０２号,,27,103,5530002,,,,,,,2025-09-02,1,,,,,エイチビーパートナーズ,0
116,1120001279471,新規,0,2025-09-02,2025-09-02,株式会社リックスマイル,,株式会社,大阪府,大阪市鶴見区,焼野１丁目南２番２３－６０２号,,27,124,5380037,,,,,,,2025-09-02,1,,,,,リックスマイル,0
119,1120005025137,新規,0,2025-09-02,2025-09-02,ＢＨＧ協同組合,,その他の設立登記法人,大阪府,大阪市北区,西天満１丁目９－１３,,27,127,5300047,,,,,,,2025-09-02,1,,,,,ビーエイチジー,0
126,1130003010726,新規,0,2025-09-02,2025-09-02,一三子合同会社,,合同会社,京都府,京都市中京区,東堀川通丸太町下る七町目１０番地カストルム二条２－Ａ,,26,104,6040076,,,,,,,2025-09-02,1,,,,,ヒミコ,0
128,1140001139822,新規,0,2025-09-02,2025-09-02,トーテックホールディングス株式会社,,株式会社,兵庫県,神戸市兵庫区,駅前通５丁目１番１８号,,28,105,6520898,,,,,,,2025-09-02,1,,,,,トーテックホールディングス,0
131,1150001028371,新規,0,2025-09-02,2025-09-02,日盛株式会社,,株式会社,奈良県,奈良市,西登美ヶ丘８丁目１７番１０号,,29,201,6310006,,,,,,,2025-09-02,1,,,,,ニチセイ,0
134,1170001018775,新規,0,2025-09-02,2025-09-02,株式会社カシキ設備,,株式会社,和歌山県,田辺市,高雄２丁目３４番７号,,30,206,6460028,,,,,,,2025-09-02,1,,,,,カシキセツビ,0
135,1180001015937,新規,0,2025-09-02,2025-09-02,愛林株式会社,,株式会社,愛知県,名古屋市東区,東桜１丁目１０番３７号,,23,102,4610005,,,,,,,2025-09-02,1,,,,,アイリン,0
138,1180001168405,新規,0,2025-09-02,2025-09-02,株式会社アールプラス,,株式会社,愛知県,名古屋市緑区,鳴海町字薬師山１番地の１９,,23,114,4580846,,,,,,,2025-09-02,1,,,,,アールプラス,0
141,1180005021205,新規,0,2025-09-02,2025-09-02,一般社団法人中部アジアフェス実行委員会,,その他の設立登記法人,愛知県,名古屋市港区,金城ふ頭２丁目７－１,,23,111,4550848,,,,,,,2025-09-02,1,,,,,チュウブアジアフェスジッコウイインカイ,0
144,1180301040148,新規,0,2025-09-02,2025-09-02,株式会社ａｌｏｎｇｓｉｄｅ,,株式会社,愛知県,豊橋市,大岩町字西郷内４４番地,,23,201,4413143,,,,,,,2025-09-02,1,,,,,アロングサイド,0
146,1190001032493,新規,0,2025-09-02,2025-09-02,株式会社Ｌａｕｇｈｔｅｒ＆Ｃｏ．,,株式会社,三重県,伊勢市,西豊浜町１４１,,24,203,5150505,,,,,,,2025-09-02,1,,,,,ラフターアンドカンパニー,0
147,1210001020297,新規,0,2025-09-02,2025-09-02,株式会社椎くら,,株式会社,福井県,福井市,玄正島町第１号３２番地,,18,201,9100822,,,,,,,2025-09-02,1,,,,,シイクラ,0
150,1240001065439,新規,0,2025-09-02,2025-09-02,株式会社Ｐｒｏｍｅｔ,,株式会社,広島県,広島市西区,南観音町１２番２号,,34,104,7330034,,,,,,,2025-09-02,1,,,,,プロメット,0
155,1260001040472,新規,0,2025-09-02,2025-09-02,広宇株式会社,,株式会社,岡山県,岡山市北区,内山下２丁目３－１５ローズガーデン内山下３Ｆ階３Ｅ号室,,33,101,7000824,,,,,,,2025-09-02,1,,,,,ヒロウ,0
162,1290001111279,新規,0,2025-09-02,2025-09-02,八雲結株式会社,,株式会社,福岡県,福岡市博多区,下呉服町６番３－２０３号クリオラベルヴィ呉服町イースト,,40,132,8120034,,,,,,,2025-09-02,1,,,,,ヤクモユイ,0
163,1290001111320,新規,0,2025-09-02,2025-09-02,Ｕｐｓｔａｇｅ株式会社,,株式会社,福岡県,福岡市中央区,天神１丁目１１番１号７階,,40,133,8100001,,,,,,,2025-09-02,1,,,,,アップステージ,0
167,1290805009859,新規,0,2025-09-02,2025-09-02,一般社団法人ヴィレッジ,,その他の設立登記法人,福岡県,北九州市小倉南区,葛原本町３丁目６番１３号,,40,107,8000253,,,,,,,2025-09-02,1,,,,,ヴィレッジ,0
169,1310001019775,新規,0,2025-09-02,2025-09-02,株式会社長崎いけどき,,株式会社,長崎県,東彼杵郡東彼杵町,彼杵宿郷１０２番地,,42,321,8593807,,,,,,,2025-09-02,1,,,,,ナガサキイケドキ,0
173,1330001033535,新規,0,2025-09-02,2025-09-02,株式会社ＺＥＮ,,株式会社,熊本県,熊本市中央区,水前寺１丁目５番１号Ｒテナントビル４Ｆ,,43,101,8620950,,,,,,,2025-09-02,1,,,,,ゼン,0
177,1360003015207,新規,0,2025-09-02,2025-09-02,波比嘉合同会社,,合同会社,沖縄県,名護市,城２丁目１３番１号,,47,209,9050013,,,,,,,2025-09-02,1,,,,,ナミヒガ,0
184,1390001018092,新規,0,2025-09-02,2025-09-02,ＳＡＴＯ建築株式会社,,株式会社,山形県,東置賜郡川西町,大字黒川１０９７番地,,06,382,9990131,,,,,,,2025-09-02,1,,,,,サトーケンチク,0
190,1430003018053,新規,0,2025-09-02,2025-09-02,合同会社Ｐｅｎｓｅｅｓ２０２５,,合同会社,北海道,札幌市中央区,南六条西４丁目５－３３Ｇ４ビル２階,,01,101,0640806,,,,,,,2025-09-02,1,,,,,パンセニーゼロニーゴー,0
193,1500001026488,新規,0,2025-09-02,2025-09-02,株式会社Ｅｌｅ,,株式会社,愛媛県,松山市,小坂５丁目１１番１８号,,38,201,7900963,,,,,,,2025-09-02,1,,,,,イーエルイー,0
197,1700150132059,新規,0,2025-09-02,2025-09-02,ｚｈｅｎｇｚｈｏｕｃｉｂａｓｈａｎｇｍａｏｙｏｕｘｉａｎｇｏｎｇｓｉ,,外国会社等,,,,,,,,Ｒｏｏｍ　１６１９，１６ｔｈ　Ｆｌｏｏｒ，Ｂｕｉｌｄｉｎｇ　Ｎｏ．８，Ｚｏｎｅ　Ｃ，Ｓｈｅｎｇｌｏｎｇ　Ｉｎｔｅｒｎａｔｉｏｎａｌ，Ｃｏｍｐｏｕｎｄ　Ｎｏ．６８，Ｚｈｅｎｇｔｏｎｇ　Ｒｏａｄ，Ｅｒｑｉ　Ｄｉｓｔｒｉｃｔ，Ｚｈｅｎｇｚｈｏｕ　Ｃｉｔｙ，Ｈｅｎａｎ　Ｐｒｏｖｉｎｃｅ,,,,,,2025-09-02,1,,,,,ジェンジョウチバシャンマオユウゲンコウシ,0
198,1700150132067,新規,0,2025-09-02,2025-09-02,ＰＵＲＰＬＥ　ＣＩＴＹ　ＬＩＭＩＴＥＤ,,外国会社等,,,,,,,,トルトラ島ロードタウン、オフショア・インコーポレーション・センター、Ｐ．Ｏ．Ｂｏｘ　９５７,,,,,,2025-09-02,1,,,,,パープルシテイリミテツド,0
199,1700150132075,新規,0,2025-09-02,2025-09-02,萬在工業股斌有限公司,00140492,外国会社等,,,,,,,,台湾台南市関廟区中山路二段２６０号,,,,,,2025-09-02,1,,,,,バンザイコウギヨウコフンユウゲンコウシ,0
211,2010001257504,新規,0,2025-09-02,2025-09-02,株式会社Ｌｉｎｋ‐Ｕ　Ｐｒｏｄｕｃｔｓ,,株式会社,東京都,千代田区,外神田２丁目２番３号,,13,101,1010021,,,,,,,2025-09-02,1,,,,,リンクユープロダクツ,0
212,2010001258072,新規,0,2025-09-02,2025-09-02,株式会社唯一無二,,株式会社,東京都,中央区,日本橋小伝馬町１７－９さとうビルＢ館４Ｆ,,13,102,1030001,,,,,,,2025-09-02,1,,,,,ユイイツムニ,0
213,2010001258097,新規,0,2025-09-02,2025-09-02,ＢＦパワー株式会社,,株式会社,東京都,中央区,八重洲２丁目１１－２城辺橋ビル８ＦＡ号室,,13,102,1040028,,,,,,,2025-09-02,1,,,,,ビーエフパワー,0
214,2010001258114,新規,0,2025-09-02,2025-09-02,株式会社ＡｏｈａｒｕＮＥＸＴ,,株式会社,東京都,中央区,日本橋箱崎町１－２,,13,102,1030015,,,,,,,2025-09-02,1,,,,,アオハルネクスト,0
227,2010401192755,新規,0,2025-09-02,2025-09-02,株式会社Ｗｉｌｌ　Ｓｐａｒｋｓ,,株式会社,東京都,港区,北青山１丁目３―３三橋ビル３階,,13,103,1070061,,,,,,,2025-09-02,1,,,,,ウィルスパークス,0
230,2010403035870,新規,0,2025-09-02,2025-09-02,グリティクス合同会社,,合同会社,東京都,港区,南青山３丁目１番３６号青山丸竹ビル６Ｆ,,13,103,1070062,,,,,,,2025-09-02,1,,,,,グリティクス,0
231,2010403035937,新規,0,2025-09-02,2025-09-02,Ｓａｎ　Ｓｐａｃｅ　Ｊａｐａｎ合同会社,,合同会社,東京都,港区,西新橋３丁目５番２号,,13,103,1050003,,,,,,,2025-09-02,1,,,,,サンスペースジャパン,0
233,2010501054649,新規,0,2025-09-02,2025-09-02,夢とチョーク株式会社,,株式会社,東京都,台東区,鳥越２丁目９番２号坂倉ビル４０２,,13,106,1110054,,,,,,,2025-09-02,1,,,,,ユメトチョーク,0
236,2010901058010,新規,0,2025-09-02,2025-09-02,株式会社ｍｅｄｓｕｋｅ,,株式会社,東京都,世田谷区,池尻３丁目１１番７号テラスレイクマウント４０５,,13,112,1540001,,,,,,,2025-09-02,1,,,,,メドスケ,0
238,2011001171703,新規,0,2025-09-02,2025-09-02,株式会社アピリッツ・ファンカルチャーパートナー,,株式会社,東京都,渋谷区,渋谷２丁目１６番１号,,13,113,1500002,,,,,,,2025-09-02,1,,,,,アピリッツファンカルチャーパートナー,0
239,2011001171711,新規,0,2025-09-02,2025-09-02,株式会社ＯＢＥ,,株式会社,東京都,渋谷区,円山町５番３号ＭＩＥＵＸ渋谷ビル８階,,13,113,1500044,,,,,,,2025-09-02,1,,,,,オービーイー,0
240,2011001171736,新規,0,2025-09-02,2025-09-02,株式会社ＧＲＡＩＮ　ＨＯＰ　ＰＩＸＥＬＳ,,株式会社,東京都,目黒区,洗足１丁目２８番地３号,,13,110,1520012,,,,,,,2025-09-02,1,,,,,グレインホップピクセルズ,0
241,2011001172255,新規,0,2025-09-02,2025-09-02,株式会社ＭｙＢｏｔｔｌｅ,,株式会社,東京都,渋谷区,東１丁目２９番３号渋谷ブリッジＢ－５,,13,113,1500011,,,,,,,2025-09-02,1,,,,,マイボトル,0
243,2011003022284,新規,0,2025-09-02,2025-09-02,Ｖｉｖｉｄ合同会社,,合同会社,東京都,渋谷区,神南１丁目１１－４ＦＰＧリンクス神南５階,,13,113,1500041,,,,,,,2025-09-02,1,,,,,ビビット,0
244,2011101112821,新規,0,2025-09-02,2025-09-02,Ｏｘｆｏｒｄ　ＷＭ　ｆｉｎａｎｃｉａｌ　ｓｅｒｖｉｃｅ株式会社,,株式会社,東京都,新宿区,市谷長延寺町６,,13,104,1620847,,,,,,,2025-09-02,1,,,,,オックスフォードダブリューエムファイナンシャルサービス,0
245,2011101112904,新規,0,2025-09-02,2025-09-02,株式会社ＴＥＴＲＡ,,株式会社,東京都,新宿区,西新宿３丁目３－１３西新宿水間ビル２Ｆ,,13,104,1600023,,,,,,,2025-09-02,1,,,,,テトラ,0
246,2011101112994,新規,0,2025-09-02,2025-09-02,Ｔ＆Ｍ　Ｈｏｌｄｉｎｇｓ　Ｊａｐａｎ株式会社,,株式会社,東京都,新宿区,西新宿１丁目２６番２号新宿野村ビル３２階,,13,104,1600023,,,,,,,2025-09-02,1,,,,,ティーアンドエムホールディングスジャパン,0
247,2011101113002,新規,0,2025-09-02,2025-09-02,ＡＯＳＵ　ＬＩＦＥ株式会社,,株式会社,東京都,新宿区,高田馬場３丁目５－６、１階,,13,104,1690075,,,,,,,2025-09-02,1,,,,,アオスライフ,0
249,2011103016269,新規,0,2025-09-02,2025-09-02,一幸合同会社,,合同会社,東京都,新宿区,早稲田鶴巻町５７７番地江川ビル一階,,13,104,1620041,,,,,,,2025-09-02,1,,,,,イチコー,0
251,2011201026608,新規,0,2025-09-02,2025-09-02,株式会社クラフトホールディングス,,株式会社,東京都,中野区,若宮１丁目２１番４号,,13,114,1650033,,,,,,,2025-09-02,1,,,,,クラフトホールディングス,0
252,2011303005690,新規,0,2025-09-02,2025-09-02,ＨＡＬＥ企画合同会社,,合同会社,東京都,杉並区,永福４丁目１４番８号,,13,115,1680064,,,,,,,2025-09-02,1,,,,,ハレキカク,0
254,2011401027364,新規,0,2025-09-02,2025-09-02,株式会社ゼロテック,,株式会社,東京都,板橋区,栄町３２－５－１０Ｆ,,13,119,1730015,,,,,,,2025-09-02,1,,,,,ゼロテック,0
255,2011403004816,新規,0,2025-09-02,2025-09-02,鼎昇合同会社,,合同会社,東京都,板橋区,高島平１丁目４４－１３モンシェール西台４０３号室,,13,119,1750082,,,,,,,2025-09-02,1,,,,,テイショウ,0
256,2011601028939,新規,0,2025-09-02,2025-09-02,有樂株式会社,,株式会社,東京都,練馬区,東大泉７丁目３４－２８コーポ堀２０３,,13,120,1780063,,,,,,,2025-09-02,1,,,,,ユウラク,0
257,2011603004822,新規,0,2025-09-02,2025-09-02,Ｌａ　Ｈａｖａｎａ　Ｔｏｋｙｏ合同会社,,合同会社,東京都,練馬区,北町３丁目１－１９練馬アパートメント２０３号室,,13,120,1790081,,,,,,,2025-09-02,1,,,,,ラアバナトウキョウ,0
259,2011801046625,新規,0,2025-09-02,2025-09-02,佳徳オークション国際株式会社,,株式会社,東京都,足立区,皿沼３丁目１７－５,,13,121,1230862,,,,,,,2025-09-02,1,,,,,カトクオークションコクサイ,0
260,2011803007047,新規,0,2025-09-02,2025-09-02,合同会社海苔巻家,,合同会社,東京都,葛飾区,新小岩２丁目７番１６号,,13,122,1240024,,,,,,,2025-09-02,1,,,,,ノリマキヤ,0
261,2012401043533,新規,0,2025-09-02,2025-09-02,株式会社Ｌｉｃｈｔ　Ｊａｐａｎ,,株式会社,東京都,三鷹市,北野３丁目７番３３号,,13,204,1810003,,,,,,,2025-09-02,1,,,,,リヒトジャパン,0
262,2012401043541,新規,0,2025-09-02,2025-09-02,株式会社セブンアンドアイ,,株式会社,東京都,府中市,小柳町４丁目９番地の３９,,13,206,1830013,,,,,,,2025-09-02,1,,,,,セブンアンドアイ,0
267,2013303007840,新規,0,2025-09-02,2025-09-02,合同会社Ｓｔａｒ‐ＳＮＯＷ,,合同会社,東京都,豊島区,東池袋１丁目２７－５,,13,116,1700013,,,,,,,2025-09-02,1,,,,,スタースノウ,0
271,2020001164591,新規,0,2025-09-02,2025-09-02,薫ホールディングス株式会社,,株式会社,神奈川県,横浜市港南区,上大岡東１丁目３５番８号,,14,111,2330001,,,,,,,2025-09-02,1,,,,,カオルホールディングス,0
272,2020001164666,新規,0,2025-09-02,2025-09-02,株式会社スチュワード・パートナーズ,,株式会社,神奈川県,横浜市港北区,箕輪町２丁目７番３６－６２８号,,14,109,2230051,,,,,,,2025-09-02,1,,,,,スチュワードパートナーズ,0
277,2020003029207,新規,0,2025-09-02,2025-09-02,合同会社ＫＨＯＩ　ＶＡＮ,,合同会社,神奈川県,川崎市川崎区,渡田向町７－４マルトミ渡田向町１０３号室,,14,131,2100841,,,,,,,2025-09-02,1,,,,,コイバン,0
278,2020003029264,新規,0,2025-09-02,2025-09-02,Ｈ．Ｅ．Ｓ．Ｙ合同会社,,合同会社,神奈川県,川崎市川崎区,宮本町４番地１１,,14,131,2100004,,,,,,,2025-09-02,1,,,,,,0
288,2030001168369,新規,0,2025-09-02,2025-09-02,株式会社ＫＭＣ,,株式会社,埼玉県,春日部市,大衾４９６番地１３６,,11,214,3440116,,,,,,,2025-09-02,1,,,,,ケイエムシー,0
289,2030001168385,新規,0,2025-09-02,2025-09-02,株式会社ＧＮＤ　Ｊａｐａｎ,,株式会社,埼玉県,戸田市,中町２丁目２番１号,,11,224,3350012,,,,,,,2025-09-02,1,,,,,ジーエヌディージャパン,0
297,2040001140244,新規,0,2025-09-02,2025-09-02,ｔｈｅ　ｆｌａｇ株式会社,,株式会社,千葉県,船橋市,印内２丁目１０番２６－３１０号,,12,204,2730039,,,,,,,2025-09-02,1,,,,,ザフラッグ,0
316,2080101025762,新規,0,2025-09-02,2025-09-02,株式会社伊豆の国テクノロジー,,株式会社,静岡県,伊豆の国市,三福１１９番地の１,,22,225,4102321,,,,,,,2025-09-02,1,,,,,イズノクニテクノロジー,0
320,2080403005339,新規,0,2025-09-02,2025-09-02,合同会社ＫＯＯＫＩ,,合同会社,静岡県,浜松市中央区,龍禅寺町１８４番地の１,,22,138,4300924,,,,,,,2025-09-02,1,,,,,コーキ,0
322,2100001038903,新規,0,2025-09-02,2025-09-02,株式会社エレ,,株式会社,長野県,茅野市,豊平字東嶽４７３４いずみ平１０－１４－５,,20,214,3910213,,,,,,,2025-09-02,1,,,,,エレ,0
324,2110001039529,新規,0,2025-09-02,2025-09-02,株式会社大野庵,,株式会社,新潟県,糸魚川市,大字山寺８２５番地,,15,216,9490543,,,,,,,2025-09-02,1,,,,,オオノアン,0
336,2120001279009,新規,0,2025-09-02,2025-09-02,Ｓａｉｎｔ　ＹＩ．Ｊｅｗｅｒｙ株式会社,,株式会社,大阪府,大阪市中央区,千日前１丁目５－１９寿楽ビル９０１号,,27,128,5420074,,,,,,,2025-09-02,1,,,,,セイントイージュエリー,0
337,2120001279248,新規,0,2025-09-02,2025-09-02,株式会社ケージーワークス,,株式会社,大阪府,大阪市西成区,橘３丁目１１番２１号,,27,122,5570051,,,,,,,2025-09-02,1,,,,,ケージーワークス,0
341,2120003030377,新規,0,2025-09-02,2025-09-02,合同会社アウトスパイス,,合同会社,大阪府,大阪市天王寺区,寺田町２丁目５－１,,27,109,5430045,,,,,,,2025-09-02,1,,,,,アウトスパイス,0
342,2120005025144,新規,0,2025-09-02,2025-09-02,一般社団法人飯嶋ます子財産管理,,その他の設立登記法人,大阪府,大阪市城東区,放出西１丁目２番５９－１０５号,,27,118,5360011,,,,,,,2025-09-02,1,,,,,イイジママスコザイサンカンリ,0
348,2122001039598,新規,0,2025-09-02,2025-09-02,株式会社サクシード,,株式会社,大阪府,東大阪市,大蓮南５丁目９番２８号,00140497,27,227,5770825,,,,,,,2025-09-02,1,,,,,サクシード,0
349,2122003003305,新規,0,2025-09-02,2025-09-02,合同会社和みケア,,合同会社,大阪府,東大阪市,島之内２丁目８番９－７０１号,,27,227,5780981,,,,,,,2025-09-02,1,,,,,ナゴミケア,0
351,2130001080407,新規,0,2025-09-02,2025-09-02,千代田商事株式会社,,株式会社,京都府,京都市中京区,西ノ京内畑町１６番地２３,,26,104,6048417,,,,,,,2025-09-02,1,,,,,チヨダショウジ,0
352,2130001080464,新規,0,2025-09-02,2025-09-02,株式会社よつば,,株式会社,京都府,長岡京市,今里４丁目１５番８号,,26,209,6170814,,,,,,,2025-09-02,1,,,,,ヨツバ,0
353,2130003010709,新規,0,2025-09-02,2025-09-02,合同会社ＯＮＥＴＥＣ,,合同会社,京都府,長岡京市,井ノ内下印田１２－６,,26,209,6170813,,,,,,,2025-09-02,1,,,,,ワンテック,0
358,2150001028370,新規,0,2025-09-02,2025-09-02,株式会社Ｏｃｔａｇｏｎ　Ｆｉｎａｎｃｅ　ＯＮＥ,,株式会社,奈良県,生駒市,北新町９番１２－６０１号,,29,209,6300245,,,,,,,2025-09-02,1,,,,,オクタゴンファイナンスワン,0
372,2180001168420,新規,0,2025-09-02,2025-09-02,株式会社ＯＮＥ・ＡＣＥ,,株式会社,愛知県,名古屋市港区,十一屋２丁目２８４－１サニープレイス十一屋Ｆ棟３０３,,23,111,4550831,,,,,,,2025-09-02,1,,,,,ワンエース,0
377,2180301040147,新規,0,2025-09-02,2025-09-02,株式会社ＦＰオフィス小嶌,,株式会社,愛知県,蒲郡市,形原町北古城４５番地,,23,214,4430104,,,,,,,2025-09-02,1,,,,,エフピーオフィスコジマ,0
381,2190003005158,新規,0,2025-09-02,2025-09-02,合同会社青葉商事,,合同会社,三重県,四日市市,小生町２２９番地４３,,24,202,5120932,,,,,,,2025-09-02,1,,,,,アオバショウジ,0
392,2260001040505,新規,0,2025-09-02,2025-09-02,株式会社Ｍｅｄｉｃａｌ　Ｄｏｃｔｏｒ,,株式会社,岡山県,岡山市北区,下石井２丁目７番２１号,,33,101,7000907,,,,,,,2025-09-02,1,,,,,メディカルドクター,0
397,2290001111303,新規,0,2025-09-02,2025-09-02,株式会社ｈｉｔｏｔｅｍａ,,株式会社,福岡県,福岡市早良区,飯倉３丁目４０番２４号,,40,137,8140161,,,,,,,2025-09-02,1,,,,,ヒトテマ,0
400,2290005019823,新規,0,2025-09-02,2025-09-02,一般社団法人日本神社復興振興協会,,その他の設立登記法人,福岡県,宗像市,田久６丁目９番７－１０５号,,40,220,8114175,,,,,,,2025-09-02,1,,,,,ニホンジンジャフッコウシンコウキョウカイ,0
401,2290801031816,新規,0,2025-09-02,2025-09-02,株式会社縁,,株式会社,福岡県,北九州市八幡西区,力丸町３番２－３０８号山内ヴィラージュ千代ケ崎,,40,109,8070802,,,,,,,2025-09-02,1,,,,,エニシ,0
402,2290805009858,新規,0,2025-09-02,2025-09-02,一般財団法人高野ナフコ記念財団,00140485,その他の設立登記法人,福岡県,北九州市小倉北区,魚町２丁目６番１０号,,40,106,8020006,,,,,,,2025-09-02,1,,,,,タカノナフコキネンザイダン,0
403,2300003002333,新規,0,2025-09-02,2025-09-02,合同会社徳光加与子事務所,00140495,合同会社,佐賀県,佐賀市,川副町大字犬井道１２１３番地,,41,201,8402212,,,,,,,2025-09-02,1,,,,,トクミツカヨコジムショ,0
407,2310001019774,新規,0,2025-09-02,2025-09-02,平田電設株式会社,,株式会社,長崎県,西彼杵郡時津町,左底郷１１５０番地４,,42,308,8512106,,,,,,,2025-09-02,1,,,,,ヒラタデンセツ,0
408,2320003004757,新規,0,2025-09-02,2025-09-02,合同会社ＬＩＮＥＳ,,合同会社,大分県,大分市,三佐２丁目４番２６－１０５号,,44,201,8700108,,,,,,,2025-09-02,1,,,,,ラインズ,0
410,2340001027618,新規,0,2025-09-02,2025-09-02,姶良中央開発株式会社,,株式会社,鹿児島県,姶良市,西姶良１丁目２３番１２号,,46,225,8995656,,,,,,,2025-09-02,1,,,,,アイラチュウオウカイハツ,0
411,2340005009901,新規,0,2025-09-02,2025-09-02,一般財団法人錦江湾天狗温泉,,その他の設立登記法人,鹿児島県,鹿児島市,古里町１０７６番地１,,46,201,8911544,,,,,,,2025-09-02,1,,,,,キンコウワンテングオンセン,0
414,2360001035726,新規,0,2025-09-02,2025-09-02,株式会社ＥＧ企画,,株式会社,沖縄県,沖縄市,古謝津嘉山町２８番５号プレイズハイム３Ｆ,,47,211,9042166,,,,,,,2025-09-02,1,,,,,イージーキカク,0
415,2360003015206,新規,0,2025-09-02,2025-09-02,合同会社オフィスＮ,,合同会社,沖縄県,那覇市,小禄５丁目８番３号サンハイム上原１０５,,47,201,9010152,,,,,,,2025-09-02,1,,,,,オフィスエヌ,0
417,2400001017158,新規,0,2025-09-02,2025-09-02,株式会社ＧｒｏｗＰｏｉｎｔ,,株式会社,岩手県,盛岡市,境田町６番４５号,,03,201,0200041,,,,,,,2025-09-02,1,,,,,グローポイント,0
436,2500001026487,新規,0,2025-09-02,2025-09-02,ＳＵＮＦＩＥＬＤ株式会社,,株式会社,愛媛県,松山市,北斎院町６３６番地１６－２Ｆ,,38,201,7918031,,,,,,,2025-09-02,1,,,,,サンフィールド,0
437,2500003003583,新規,0,2025-09-02,2025-09-02,合同会社ＳＲ内装,,合同会社,愛媛県,松山市,久保４４５番地２,,38,201,7992462,,,,,,,2025-09-02,1,,,,,エスアールナイソウ,0
438,2700150132058,新規,0,2025-09-02,2025-09-02,Ｚｕｏｄｉａｎ　Ｈｅａｌｔｈ　Ｔｅｃｈｎｏｌｏｇｙ（Ｈｅｎａｎ）Ｃｏ．，Ｌｔｄ．,,外国会社等,,,,,,,,Ｒｏｏｍ　１０６，Ｂｕｉｌｄｉｎｇ　２，Ｈｕａｆｅｎｇ　Ｅ－Ｃｏｍｍｅｒｃｅ　Ｉｎｄｕｓｔｒｉａｌ　Ｐａｒｋ，Ｉｎｔｅｒｓｅｃｔｉｏｎ　ｏｆ　Ｈａｎｆｅｎｇ　Ｒｏａｄ　ａｎｄ　Ｂｏｘｕｅ　Ｒｏａｄ，Ｚｈｅｎｇｄｏｎｇ　Ｎｅｗ　Ｄｉｓｔｒｉｃｔ，Ｚｈｅｎｇｚｈｏｕ，Ｈｅｎａｎ　Ｐｒｏｖｉｎｃｅ，Ｃｈｉｎａ,,,,,,2025-09-02,1,,,,,ズオディエンヘルステクノロジーホーナンカンパニーリミテッド,0
439,2700150132066,新規,0,2025-09-02,2025-09-02,ＢＥ　ＣＯＯＬ　ＥＮＧＩＮＥＥＲＩＮＧ,,外国会社等,京都府,京都市伏見区,深草西浦町２丁目８７－５,,26,109,6120029,Ｎｏ１５／１５，ｈｅｎａｍｕｌｌａ　ｌａｎｅ，ｃｏｌｏｍｂｏ１５，Ｓｒｉ　Ｌａｎｋａ,,,,,,2025-09-02,1,,,,,ビークールエンジニアリング,0
442,3010001258030,新規,0,2025-09-02,2025-09-02,Ｌｉｆｅ　Ｂｒｉｄｇｅ株式会社,,株式会社,東京都,文京区,湯島２丁目２－１６－４０６,,13,105,1130034,,,,,,,2025-09-02,1,,,,,ライフブリッジ,0
444,3010003048537,新規,0,2025-09-02,2025-09-02,富士グローバル合同会社,,合同会社,東京都,中央区,新川２丁目２１－１６グランドハイツ八丁堀３０６,,13,102,1040033,,,,,,,2025-09-02,1,,,,,フジグローバル,0
447,3010005040599,新規,0,2025-09-02,2025-09-02,一般社団法人発電所格付認証機構,,その他の設立登記法人,東京都,中央区,新川１丁目６番１２号,,13,102,1040033,,,,,,,2025-09-02,1,,,,,ハツデンショカクヅケニンショウキコウ,0
448,3010101016841,新規,0,2025-09-02,2025-09-02,株式会社村忠,,株式会社,東京都,八王子市,尾崎町４８番地４－Ａ号室,,13,201,1920025,,,,,,,2025-09-02,1,,,,,ムラチュウ,0
455,3010401192795,新規,0,2025-09-02,2025-09-02,Ｐａｒｔｉｃｌｅ　ｄｅｓｉｇｎ株式会社,,株式会社,東京都,港区,北青山１丁目３－３三橋ビル３階,,13,103,1070061,,,,,,,2025-09-02,1,,,,,パーティクルデザイン,0
459,3010403035936,新規,0,2025-09-02,2025-09-02,合同会社ななな,,合同会社,東京都,港区,北青山１丁目３－３三橋ビル３階,,13,103,1070061,,,,,,,2025-09-02,1,,,,,ナナナ,0
466,3010503007975,新規,0,2025-09-02,2025-09-02,ＹＫ　ＤＲＥＡＭＳ合同会社,,合同会社,東京都,台東区,台東４丁目２９番１０号,,13,106,1100016,,,,,,,2025-09-02,1,,,,,ワイケードリームズ,0
468,3010601067871,新規,0,2025-09-02,2025-09-02,創結株式会社,,株式会社,東京都,江東区,深川２丁目２番３号１階,,13,108,1350033,,,,,,,2025-09-02,1,,,,,ソウケツ,0
469,3010701048243,新規,0,2025-09-02,2025-09-02,株式会社ｋｕｇｕ,,株式会社,東京都,品川区,西中延２丁目１６番４号,,13,109,1420054,,,,,,,2025-09-02,1,,,,,クグ,0
470,3010803005522,新規,0,2025-09-02,2025-09-02,欣欣合同会社,,合同会社,東京都,大田区,矢口１丁目１６－１９コスモビルＩＩ３０７,00140484,13,111,1460093,,,,,,,2025-09-02,1,,,,,シンシン,0
471,3010905004827,新規,0,2025-09-02,2025-09-02,医療法人社団峰水会,,その他の設立登記法人,東京都,世田谷区,奥沢３丁目３５番５号,,13,112,1580083,,,,,,,2025-09-02,1,,,,,ホウスイカイ,0
476,3011001171652,新規,0,2025-09-02,2025-09-02,Ｂｅｒｒｙ８株式会社,,株式会社,東京都,渋谷区,道玄坂１丁目１０番８号渋谷道玄坂東急ビル２Ｆ－Ｃ,,13,113,1500043,,,,,,,2025-09-02,1,,,,,ベリーエイト,0
477,3011001171710,新規,0,2025-09-02,2025-09-02,株式会社ＡＷＢＹ,,株式会社,東京都,渋谷区,神宮前４丁目２６番２８号ヘームル原宿２Ｆ,,13,113,1500001,,,,,,,2025-09-02,1,,,,,エーダブルビーワイ,0
478,3011001171743,新規,0,2025-09-02,2025-09-02,株式会社ＨＣＬ,,株式会社,東京都,渋谷区,道玄坂１丁目１２－１渋谷マークシティＷ２２Ｆ,,13,113,1500043,,,,,,,2025-09-02,1,,,,,エイチシーエル,0
479,3011001171768,新規,0,2025-09-02,2025-09-02,株式会社ＲｔｏＳ,,株式会社,東京都,渋谷区,渋谷１丁目８番１３－９０１号,,13,113,1500002,,,,,,,2025-09-02,1,,,,,アールトゥーエス,0
481,3011003022440,新規,0,2025-09-02,2025-09-02,Ｖｉｓｔａ　Ｂａｓｅ合同会社,,合同会社,東京都,目黒区,中目黒４丁目６番１－１１０４号プラウド中目黒,,13,110,1530061,,,,,,,2025-09-02,1,,,,,ビスタベース,0
482,3011005011136,新規,0,2025-09-02,2025-09-02,一般社団法人ジャパンサステナブルファッションアライアンス,,その他の設立登記法人,東京都,渋谷区,神宮前６丁目２３番４号桑野ビル２階,,13,113,1500001,,,,,,,2025-09-02,1,,,,,ジャパンサステナブルファッションアライアンス,0
483,3011101112837,新規,0,2025-09-02,2025-09-02,株式会社ＺＯＣ,,株式会社,東京都,新宿区,西新宿７丁目６－５グローリア初穂生沼ビル７０２,,13,104,1600023,,,,,,,2025-09-02,1,,,,,ゾック,0
484,3011103016318,新規,0,2025-09-02,2025-09-02,合同会社ＴＳＵＭＵＧＩ,,合同会社,東京都,新宿区,西新宿３丁目３番１３号西新宿水間ビル２Ｆ,,13,104,1600023,,,,,,,2025-09-02,1,,,,,ツムギ,0
486,3011501032494,新規,0,2025-09-02,2025-09-02,株式会社せん,,株式会社,東京都,荒川区,南千住５丁目３５番９号,,13,118,1160003,,,,,,,2025-09-02,1,,,,,セン,0
491,3011803007046,新規,0,2025-09-02,2025-09-02,合同会社みらい廃棄物研究所,,合同会社,東京都,葛飾区,東水元５丁目２番３号,,13,122,1250033,,,,,,,2025-09-02,1,,,,,ミライハイキブツケンキュウジョ,0
493,3012801024207,新規,0,2025-09-02,2025-09-02,株式会社新盛開発,,株式会社,東京都,日野市,三沢４丁目１０番地の１７－６０５号,,13,212,1910032,,,,,,,2025-09-02,1,,,,,シンセイカイハツ,0
502,3020001164599,新規,0,2025-09-02,2025-09-02,株式会社アーク,,株式会社,神奈川県,横浜市鶴見区,平安町１丁目４０番地２１,,14,101,2300031,,,,,,,2025-09-02,1,,,,,アーク,0
503,3020001164624,新規,0,2025-09-02,2025-09-02,ミルモ株式会社,,株式会社,神奈川県,横浜市港南区,上大岡西１丁目１３番１５号１０２,,14,111,2330002,,,,,,,2025-09-02,1,,,,,ミルモ,0
504,3020001164640,新規,0,2025-09-02,2025-09-02,株式会社次郎作,,株式会社,神奈川県,横浜市鶴見区,小野町１４番地３１７,,14,101,2300046,,,,,,,2025-09-02,1,,,,,ジロウサク,0
505,3020001164657,新規,0,2025-09-02,2025-09-02,株式会社ＭＫＧ,,株式会社,神奈川県,横浜市青葉区,寺家町１６８,,14,117,2270031,,,,,,,2025-09-02,1,,,,,エムケージー,0
508,3020003029180,新規,0,2025-09-02,2025-09-02,合同会社ワタソフトウェアジャパン,,合同会社,神奈川県,横浜市西区,北幸１丁目１１番１号水信ビル７階,,14,103,2200004,,,,,,,2025-09-02,1,,,,,ワタソフトウェアジャパン,0
509,3020003029189,新規,0,2025-09-02,2025-09-02,合同会社Ｂｉｉ,,合同会社,神奈川県,横浜市西区,北幸２丁目１０－４８むつみビル３階,,14,103,2200004,,,,,,,2025-09-02,1,,,,,ビー,0
510,3020003029271,新規,0,2025-09-02,2025-09-02,合同会社リアレアデュオ,,合同会社,神奈川県,横浜市鶴見区,東寺尾東台二丁目１５番・アビタ東寺尾２０２,,14,101,2300018,,,,,,,2025-09-02,1,,,,,リアレアデュオ,0
516,3021003016482,新規,0,2025-09-02,2025-09-02,エンライティア合同会社,,合同会社,神奈川県,藤沢市,鵠沼桜が岡１丁目４－１,,14,205,2510027,,,,,,,2025-09-02,1,,,,,エンライティア,0
517,3021003016499,新規,0,2025-09-02,2025-09-02,合同会社ＭＯＳＴ,,合同会社,神奈川県,厚木市,毛利台２丁目７番６号,,14,212,2430037,,,,,,,2025-09-02,1,,,,,モスト,0
521,3030001168376,新規,0,2025-09-02,2025-09-02,株式会社白石設備,,株式会社,埼玉県,北足立郡伊奈町,中央１丁目６４番地,,11,301,3620809,,,,,,,2025-09-02,1,,,,,シライシセツビ,0
522,3030001168392,新規,0,2025-09-02,2025-09-02,ＰＯＰＵＬＡＲ　ＭＩ　ＪＡＰＡＮ株式会社,,株式会社,埼玉県,川口市,芝新町４番８号,,11,203,3330851,,,,,,,2025-09-02,1,,,,,ポピュラーミージャパン,0
525,3030003027489,新規,0,2025-09-02,2025-09-02,合同会社伸研,,合同会社,埼玉県,上尾市,小泉５丁目１４－１３－２０１,,11,219,3620063,,,,,,,2025-09-02,1,,,,,シンケン,0
530,3040001140243,新規,0,2025-09-02,2025-09-02,株式会社こむたん,,株式会社,千葉県,市原市,千種２丁目９番地１０,,12,219,2990109,,,,,,,2025-09-02,1,,,,,コムタン,0
531,3040001140292,新規,0,2025-09-02,2025-09-02,株式会社トレオン,,株式会社,千葉県,船橋市,前貝塚町６１９番地,,12,204,2730042,,,,,,,2025-09-02,1,,,,,トレオン,0
532,3040003028387,新規,0,2025-09-02,2025-09-02,ＣＨＩ　ＬＩＮＨ　ＭＡＲＴ合同会社,,合同会社,千葉県,柏市,泉町１２番１０号ジュネパレス塚本２０６号,,12,217,2770022,,,,,,,2025-09-02,1,,,,,チリンマート,0
537,3070001043294,新規,0,2025-09-02,2025-09-02,株式会社ココル,,株式会社,群馬県,甘楽郡甘楽町,大字福島２８番地４,,10,384,3702212,,,,,,,2025-09-02,1,,,,,ココル,0
540,3080101025753,新規,0,2025-09-02,2025-09-02,オーチャード株式会社,,株式会社,静岡県,駿東郡清水町,新宿７１番地,,22,341,4110901,,,,,,,2025-09-02,1,,,,,オーチャード,0
543,3110001039528,新規,0,2025-09-02,2025-09-02,株式会社越後屋,,株式会社,新潟県,上越市,中郷区松崎４６５番地３,,15,222,9492311,,,,,,,2025-09-02,1,,,,,エチゴヤ,0
547,3120001279008,新規,0,2025-09-02,2025-09-02,恒久保株式会社,,株式会社,大阪府,大阪市東住吉区,照ケ丘矢田１丁目４－１７－２０１号室,,27,121,5460021,,,,,,,2025-09-02,1,,,,,コウキュウホ,0
548,3120001279081,新規,0,2025-09-02,2025-09-02,株式会社ノアリエ,,株式会社,大阪府,大阪市北区,梅田１丁目１－３大阪駅前第３ビル２９階１－１－１号室,,27,127,5300001,,,,,,,2025-09-02,1,,,,,ノアリエ,0
549,3120001279180,新規,0,2025-09-02,2025-09-02,Ｃｏｒｎｅｉｌｌｅ株式会社,,株式会社,大阪府,大阪市淀川区,十三本町１丁目９番２０号４０７号室,,27,123,5320024,,,,,,,2025-09-02,1,,,,,コルネイユ,0
550,3120001279206,新規,0,2025-09-02,2025-09-02,真統会株式会社,,株式会社,大阪府,大阪市西淀川区,百島１丁目３番１１号,,27,113,5550044,,,,,,,2025-09-02,1,,,,,シントウカイ,0
551,3120001279230,新規,0,2025-09-02,2025-09-02,トリニティフーズ株式会社,,株式会社,大阪府,枚方市,香里園桜木町５１番１５－１０１号,,27,210,5730088,,,,,,,2025-09-02,1,,,,,トリニティフーズ,0
552,3120001279255,新規,0,2025-09-02,2025-09-02,新瑞基株式会社,,株式会社,大阪府,大阪市北区,本庄東３丁目３番７号マンション淀２０３Ｃ,,27,127,5310074,,,,,,,2025-09-02,1,,,,,シンズイキ,0
556,3120003030401,新規,0,2025-09-02,2025-09-02,森通合同会社,,合同会社,大阪府,大阪市淀川区,十三本町１丁目１８－８北野ルーエ１００４,,27,123,5320024,,,,,,,2025-09-02,1,,,,,モリツウ,0
557,3120003030434,新規,0,2025-09-02,2025-09-02,合同会社つながり,,合同会社,大阪府,大阪市城東区,鴫野東２丁目２０番３号,,27,118,5360013,,,,,,,2025-09-02,1,,,,,ツナガリ,0
570,3130001080397,新規,0,2025-09-02,2025-09-02,株式会社ＡＩ就活,,株式会社,京都府,京都市左京区,田中門前町２８番地２０,,26,103,6068225,,,,,,,2025-09-02,1,,,,,エーアイシュウカツ,0
590,3180003028943,新規,0,2025-09-02,2025-09-02,合同会社Ｃｒｅｖｉｏ,,合同会社,愛知県,日進市,赤池１丁目１３１１番地スカイハウス１０１,,23,230,4700125,,,,,,,2025-09-02,1,,,,,クレビオ,0
592,3180301040138,新規,0,2025-09-02,2025-09-02,株式会社グラス,,株式会社,愛知県,額田郡幸田町,大字横落字北門５４番地１アーバン北門,,23,501,4440114,,,,,,,2025-09-02,1,,,,,グラス,0
593,3180301040146,新規,0,2025-09-02,2025-09-02,株式会社やまねアグリファーム,,株式会社,愛知県,新城市,作手田原字帯月３４番地,,23,221,4411422,,,,,,,2025-09-02,1,,,,,ヤマネアグリファーム,0
594,3180303006707,新規,0,2025-09-02,2025-09-02,合同会社Ｔホールディングス,,合同会社,愛知県,豊田市,貞宝町貞宝８番地,,23,211,4710059,,,,,,,2025-09-02,1,,,,,ティーホールディングス,0
595,3190001032491,新規,0,2025-09-02,2025-09-02,ハマダホールディングス株式会社,,株式会社,三重県,北牟婁郡紀北町,相賀１６０３番地の１,,24,543,5193406,,,,,,,2025-09-02,1,,,,,ハマダホールディングス,0
602,3250001021307,新規,0,2025-09-02,2025-09-02,株式会社ネットワーク未来,,株式会社,山口県,下関市,東向山町２番９－５０５号第１エステイトビル,,35,201,7500048,,,,,,,2025-09-02,1,,,,,ネットワークミライ,0
603,3250001021315,新規,0,2025-09-02,2025-09-02,ＣＨＡＣＨＡＤＯ株式会社,,株式会社,山口県,周南市,二番町２丁目９番１号,,35,215,7450002,,,,,,,2025-09-02,1,,,,,チャチャドゥ,0
604,3250003003807,新規,0,2025-09-02,2025-09-02,合同会社飛翔,,合同会社,山口県,山口市,熊野町４番２７号ナイトステータスビル１階５号,,35,203,7530077,,,,,,,2025-09-02,1,,,,,ヒショウ,0
608,3260003005323,新規,0,2025-09-02,2025-09-02,合同会社平野聡研究室,,合同会社,岡山県,倉敷市,有城７８７岡山学院大学Ａ４０５室,,33,202,7100031,,,,,,,2025-09-02,1,,,,,ヒラノサトシケンキュウシツ,0
609,3270001009275,新規,0,2025-09-02,2025-09-02,株式会社キョウエイホールディングス,,株式会社,鳥取県,鳥取市,気高町北浜１丁目５３番地,,31,201,6890334,,,,,,,2025-09-02,1,,,,,キョウエイホールディングス,0
615,3290001111236,新規,0,2025-09-02,2025-09-02,徳真株式会社,,株式会社,福岡県,福岡市南区,野多目６丁目１２番４２号１階,,40,134,8111347,,,,,,,2025-09-02,1,,,,,トクシン,0
616,3290001111269,新規,0,2025-09-02,2025-09-02,株式会社ＮＡＫＡ　ＲＯＯＴＳ,,株式会社,福岡県,那珂川市,仲１丁目１１番地１０２号,,40,231,8111253,,,,,,,2025-09-02,1,,,,,ナカルーツ,0
622,3290003017299,新規,0,2025-09-02,2025-09-02,合同会社Ｓｔｅｐ　Ｃｒａｆｔ,,合同会社,福岡県,福岡市博多区,博多駅前１丁目２３番２号ＰａｒｋＦｒｏｎｔ博多駅前１丁目５Ｆ－Ｂ,,40,132,8120011,,,,,,,2025-09-02,1,,,,,ステップクラフト,0
625,3300001014338,新規,0,2025-09-02,2025-09-02,株式会社ＪＡＦＡＮ,,株式会社,佐賀県,佐賀市,神野西１丁目３番２０号コーポクィーン２０１,,41,201,8400805,,,,,,,2025-09-02,1,,,,,ジャファン,0
630,3320003004756,新規,0,2025-09-02,2025-09-02,合同会社希倖会,,合同会社,大分県,大分市,大字中判田２１８９番地,,44,201,8701113,,,,,,,2025-09-02,1,,,,,キコウカイ,0
631,3320005010257,新規,0,2025-09-02,2025-09-02,一般社団法人ハイタッチ大分,,その他の設立登記法人,大分県,大分市,王子南町７番１４号,,44,201,8700007,,,,,,,2025-09-02,1,,,,,ハイタッチオオイタ,0
633,3330001033533,新規,0,2025-09-02,2025-09-02,ササキホールディングス株式会社,,株式会社,熊本県,天草市,久玉町１９５１番地８,,43,215,8631902,,,,,,,2025-09-02,1,,,,,ササキホールディングス,0
634,3330001033558,新規,0,2025-09-02,2025-09-02,株式会社プラウド,,株式会社,熊本県,合志市,御代志５０２番地１,,43,216,8611104,,,,,,,2025-09-02,1,,,,,プラウド,0
639,3360001035717,新規,0,2025-09-02,2025-09-02,株式会社フレンズハウス,,株式会社,沖縄県,沖縄市,高原４丁目１３番１号,,47,211,9042171,,,,,,,2025-09-02,1,,,,,フレンズハウス,0
642,3370001052983,新規,0,2025-09-02,2025-09-02,株式会社ＡＮＣＵＲＲＹ,,株式会社,宮城県,仙台市宮城野区,鶴ケ谷５丁目１１番地の６,,04,102,9830824,,,,,,,2025-09-02,1,,,,,アンカリー,0
654,3430001095134,新規,0,2025-09-02,2025-09-02,株式会社ＢＹＳ,,株式会社,北海道,札幌市白石区,菊水三条１丁目１番２０号ＧＡＴＥ６３　１階,,01,104,0030803,,,,,,,2025-09-02,1,,,,,ビーワイエス,0
667,3500001026486,新規,0,2025-09-02,2025-09-02,ＲＡＤＩＡ　ＬＡＮＣＥ　Ｃｉｅｌ株式会社,,株式会社,愛媛県,松山市,湊町４丁目２番地１,,38,201,7900012,,,,,,,2025-09-02,1,,,,,ラディアランシェル,0
670,3700150132057,新規,0,2025-09-02,2025-09-02,ＩＭ　Ｂｌｅｓｓｅｄ　ＧｍｂＨ,,外国会社等,,,,,,,,Ｈａｕｐｔｓｔｒ．２８　１５８０６　Ｚｏｓｓｅｎ　Ｇｅｒｍａｎｙ,,,,,,2025-09-02,1,,,,,イムブレストゲゼルシャフトミットベシュレンクターハフトゥング,0
671,3700150132065,新規,0,2025-09-02,2025-09-02,深セン市飛欧国際貨物代理有限公司,,外国会社等,,,,,,,,中華人民共和国深セン市宝安区福永街道白石厦社区永安坊東工業区Ｃ６棟１０１,,,,,,2025-09-02,1,,,,,シンセンシフエイオーコクサイカモツダイリユウゲンコウシ,0
672,3700150132081,新規,0,2025-09-02,2025-09-02,ＢＬＡＺＥ　ＭＯＴＯＲ　ＶＥＨＩＣＬＥＳ＆ＳＰＡＲＥ　ＰＡＲＴＳ,,外国会社等,千葉県,山武市,大木６５０番地９オフィス５,,12,237,2891211,スリランカ民主社会主義共和国、キャンディ、アクラナ、マルワナヒンナロード、Ｎｏ．９７／Ｂ,,,,,,2025-09-02,1,,,,,ブレイズモーターヴエイクルズアンドスペアパーツ,0
685,4010005040598,新規,0,2025-09-02,2025-09-02,一般社団法人日本ラグジュアリーホテルソムリエ検定協会,,その他の設立登記法人,東京都,中央区,銀座１丁目１２番４号Ｎ＆ＥＢＬＤ．６Ｆ,,13,102,1040061,,,,,,,2025-09-02,1,,,,,ニホンラジュグアリーホテルソムリエケンテイキョウカイ,0
689,4010103002640,新規,0,2025-09-02,2025-09-02,ＡＲＡＢＥＳＣ合同会社,,合同会社,東京都,八王子市,東中野２０００－４テラスＫ＆Ｋ２０１,,13,201,1920351,,,,,,,2025-09-02,1,,,,,アラベスク,0
700,4010401192729,新規,0,2025-09-02,2025-09-02,株式会社ＮＧＩホールディングス,,株式会社,東京都,港区,赤坂５丁目４番１５号ＡＲＡプレイス赤坂６階,,13,103,1070052,,,,,,,2025-09-02,1,,,,,エヌジーアイホールディングス,0
711,4010801036535,新規,0,2025-09-02,2025-09-02,株式会社驤貴,,株式会社,東京都,大田区,西六郷１丁目３０番１６号,,13,111,1440056,,,,,,,2025-09-02,1,,,,,ショウキ,0
712,4010801036543,新規,0,2025-09-02,2025-09-02,Ｙ＆Ｒ株式会社,,株式会社,東京都,大田区,南蒲田１丁目２６番１３－１００３号,,13,111,1440035,,,,,,,2025-09-02,1,,,,,ワイアンドアール,0
723,4011001171742,新規,0,2025-09-02,2025-09-02,株式会社スマッチプラス,,株式会社,東京都,渋谷区,恵比寿西２丁目４番８号ウィンド恵比寿ビル８Ｆ,,13,113,1500021,,,,,,,2025-09-02,1,,,,,スマッチプラス,0
724,4011001172261,新規,0,2025-09-02,2025-09-02,株式会社ユメニウム,,株式会社,東京都,目黒区,下目黒１丁目１番１４号コノトラビル７Ｆ,,13,110,1530064,,,,,,,2025-09-02,1,,,,,ユメニウム,0
726,4011003022282,新規,0,2025-09-02,2025-09-02,合同会社ＮａｍｉｚｉＷｏｒｋｓ,,合同会社,東京都,渋谷区,恵比寿西２丁目８－４ＥＸ恵比寿西ビル５Ｆ,,13,113,1500021,,,,,,,2025-09-02,1,,,,,ナミジワークス,0
728,4011101112794,新規,0,2025-09-02,2025-09-02,雅匯堂株式会社,,株式会社,東京都,新宿区,西新宿８丁目１２番１号サンパレス新宿４０３,,13,104,1600023,,,,,,,2025-09-02,1,,,,,ガカイドウ,0
729,4011101112943,新規,0,2025-09-02,2025-09-02,優嘉株式会社,,株式会社,東京都,新宿区,西早稲田３丁目７－１１ハラダ面影橋マンション８０２号,,13,104,1690051,,,,,,,2025-09-02,1,,,,,ユカ,0
730,4011101112951,新規,0,2025-09-02,2025-09-02,株式会社つながりワークス,,株式会社,東京都,新宿区,西新宿３丁目３番１３号西新宿水間ビル６階,,13,104,1600023,,,,,,,2025-09-02,1,,,,,ツナガリワークス,0
731,4011101113009,新規,0,2025-09-02,2025-09-02,日本和木貿易株式会社,,株式会社,東京都,新宿区,西新宿４丁目３１番３号１１０４号室,,13,104,1600023,,,,,,,2025-09-02,1,,,,,ニホンワキボウエキ,0
732,4011103016267,新規,0,2025-09-02,2025-09-02,合同会社プクリポ,,合同会社,東京都,新宿区,西新宿８丁目８番６号ＬＵビル３０１,,13,104,1600023,,,,,,,2025-09-02,1,,,,,プクリポ,0
734,4011201026606,新規,0,2025-09-02,2025-09-02,株式会社１０５,,株式会社,東京都,中野区,上鷺宮５丁目１８番３号,,13,114,1650031,,,,,,,2025-09-02,1,,,,,イチマルゴ,0
735,4011205002702,新規,0,2025-09-02,2025-09-02,一般社団法人世界温暖化防止協議会,,その他の設立登記法人,東京都,中野区,弥生町１丁目３８番１２号,,13,114,1640013,,,,,,,2025-09-02,1,,,,,セカイオンダンカボウシキョウギカイ,0
740,4011401027321,新規,0,2025-09-02,2025-09-02,飛鳥株式会社,,株式会社,東京都,板橋区,西台１丁目１番１４号,,13,119,1740045,,,,,,,2025-09-02,1,,,,,アスカ,0
741,4011501032519,新規,0,2025-09-02,2025-09-02,Ｔａｉｌｍａｔｅ株式会社,,株式会社,東京都,北区,豊島２丁目１０番６号３０２室,,13,117,1140003,,,,,,,2025-09-02,1,,,,,テイルメイト,0
745,4011801046656,新規,0,2025-09-02,2025-09-02,株式会社青信,,株式会社,東京都,葛飾区,新小岩１丁目３５番１０号新小岩不二ビル３０５,,13,122,1240024,,,,,,,2025-09-02,1,,,,,セイシン,0
758,4020001164598,新規,0,2025-09-02,2025-09-02,株式会社城所ホーム,,株式会社,神奈川県,横浜市都筑区,川和町１４２５番地,,14,118,2240057,,,,,,,2025-09-02,1,,,,,キドコロホーム,0
759,4020001164623,新規,0,2025-09-02,2025-09-02,ＳＬＣ株式会社,,株式会社,神奈川県,横浜市中区,弁天通６丁目７４番地東急ドエル・アルス桜木町博物館通り８０１号室,,14,104,2310007,,,,,,,2025-09-02,1,,,,,エスエルシ,0
760,4020001164648,新規,0,2025-09-02,2025-09-02,株式会社光縁,,株式会社,神奈川県,横浜市西区,北幸１丁目１１番１号水信ビル７階,,14,103,2200004,,,,,,,2025-09-02,1,,,,,コウエン,0
763,4021001086205,新規,0,2025-09-02,2025-09-02,株式会社浜島総合研究所,,株式会社,神奈川県,鎌倉市,腰越１丁目１番２１号２０３号室,,14,204,2480033,,,,,,,2025-09-02,1,,,,,ハマジマソウゴウケンキュウジョ,0
764,4021001086213,新規,0,2025-09-02,2025-09-02,株式会社山本建築,,株式会社,神奈川県,足柄下郡湯河原町,吉浜１０６２番地,,14,384,2590312,,,,,,,2025-09-02,1,,,,,ヤマモトケンチク,0
766,4021005013428,新規,0,2025-09-02,2025-09-02,一般財団法人丸一・フレッド記念財団,,その他の設立登記法人,神奈川県,藤沢市,葛原２５０７番地,,14,205,2520822,,,,,,,2025-09-02,1,,,,,マルイチフレッドキネンザイダン,0
773,4030001168301,新規,0,2025-09-02,2025-09-02,ＦＬＸ株式会社,,株式会社,埼玉県,川口市,南町２丁目６番５４号,,11,203,3320026,,,,,,,2025-09-02,1,,,,,フレックス,0
774,4030001168342,新規,0,2025-09-02,2025-09-02,株式会社グローリー,,株式会社,埼玉県,春日部市,豊町５丁目２番８号,,11,214,3440066,,,,,,,2025-09-02,1,,,,,グローリー,0
783,4040001140242,新規,0,2025-09-02,2025-09-02,株式会社Ｐｒｅｍｉｕｍ　Ｌａｎｇｕａｇｅ　Ｃａｐｉｔａｌ,,株式会社,千葉県,千葉市稲毛区,稲毛東１丁目２番１号レジデンシャルコート稲毛Ｂ－４２１号,,12,103,2630031,,,,,,,2025-09-02,1,,,,,プレミアムラングエイジキャピタル,0
786,4040003028378,新規,0,2025-09-02,2025-09-02,合同会社ＹａＴ,,合同会社,千葉県,船橋市,印内３丁目３番１１号,,12,204,2730039,,,,,,,2025-09-02,1,,,,,ヤット,0
792,4080001027114,新規,0,2025-09-02,2025-09-02,オールドア・メンテナンス株式会社,,株式会社,静岡県,静岡市駿河区,東新田１丁目１４番２５号,,22,102,4210112,,,,,,,2025-09-02,1,,,,,オールドアメンテナンス,0
793,4080003003542,新規,0,2025-09-02,2025-09-02,合同会社ＫＢカンパニー,,合同会社,静岡県,静岡市葵区,昭和町４番地８瑠漫館３階,,22,101,4200033,,,,,,,2025-09-02,1,,,,,ケービーカンパニー,0
797,4100001038892,新規,0,2025-09-02,2025-09-02,株式会社アンダーフォレスト,,株式会社,長野県,北佐久郡軽井沢町,大字発地１２７４番地１９号,,20,321,3890113,,,,,,,2025-09-02,1,,,,,アンダーフォレスト,0
798,4100001038901,新規,0,2025-09-02,2025-09-02,株式会社奥上高地リゾート,,株式会社,長野県,松本市,安曇４２９３番地２,,20,202,3901520,,,,,,,2025-09-02,1,,,,,オクカミコウチリゾート,0
800,4110001039527,新規,0,2025-09-02,2025-09-02,株式会社ゆきいろ,,株式会社,新潟県,南魚沼市,石打２３２１番地２２,,15,226,9496372,,,,,,,2025-09-02,1,,,,,ユキイロ,0
812,4120001279163,新規,0,2025-09-02,2025-09-02,御翠株式会社,,株式会社,大阪府,大阪市北区,梅田１丁目１－３大阪駅前第３ビル２９階１－１－１号室,,27,127,5300001,,,,,,,2025-09-02,1,,,,,ユツイ,0
813,4120001279205,新規,0,2025-09-02,2025-09-02,株式会社ＬＡＬＡ　ＰＥＡＣＥ,,株式会社,大阪府,大阪市平野区,加美東２丁目２番２１号,,27,126,5470002,,,,,,,2025-09-02,1,,,,,ララピース,0
814,4120001279254,新規,0,2025-09-02,2025-09-02,株式会社インテリアＳＵＮ,,株式会社,大阪府,大阪市淀川区,東三国６丁目２１番３号,,27,123,5320002,,,,,,,2025-09-02,1,,,,,インテリアサン,0
815,4120001279270,新規,0,2025-09-02,2025-09-02,株式会社ＨＩＲＯＷエンターテイメント,,株式会社,大阪府,大阪市浪速区,元町１丁目５番１５号,,27,111,5560016,,,,,,,2025-09-02,1,,,,,ヒロエンターテイメント,0
829,4140001139844,新規,0,2025-09-02,2025-09-02,株式会社ＬＫ．,,株式会社,兵庫県,姫路市,広畑区長町１丁目２９番地,,28,201,6711125,,,,,,,2025-09-02,1,,,,,エルケー,0
830,4140001139852,新規,0,2025-09-02,2025-09-02,株式会社神永エンジニアリング,,株式会社,兵庫県,川辺郡猪名川町,つつじが丘１丁目２５番１９,,28,301,6660245,,,,,,,2025-09-02,1,,,,,シンエイエンジニアリング,0
831,4140003022511,新規,0,2025-09-02,2025-09-02,合同会社ｔｅｎ,,合同会社,兵庫県,芦屋市,朝日ケ丘町４－３０－３０８,,28,206,6590012,,,,,,,2025-09-02,1,,,,,テン,0
838,4180001168427,新規,0,2025-09-02,2025-09-02,株式会社ＧＳ財託,,株式会社,愛知県,名古屋市中区,栄２丁目１番１２号ダイアパレス伏見９０５号,,23,106,4600008,,,,,,,2025-09-02,1,,,,,ジーエスザイタク,0
844,4180003028959,新規,0,2025-09-02,2025-09-02,エコスプラス合同会社,,合同会社,愛知県,名古屋市昭和区,恵方町２丁目３６番地,,23,107,4660037,,,,,,,2025-09-02,1,,,,,エコスプラス,0
848,4180303006697,新規,0,2025-09-02,2025-09-02,５５９ファーム合同会社,,合同会社,愛知県,豊田市,余平町地見平１３番地,,23,211,4442842,,,,,,,2025-09-02,1,,,,,ゴコクファーム,0
849,4180305009723,新規,0,2025-09-02,2025-09-02,一般社団法人ぱずる,,その他の設立登記法人,愛知県,西尾市,米津町北浦３２番地６,,23,213,4450802,,,,,,,2025-09-02,1,,,,,パズル,0
856,4220001026902,新規,0,2025-09-02,2025-09-02,株式会社きのえ技研,,株式会社,石川県,金沢市,米泉町４丁目８１番地３ＨＳＫビル２Ｆ,,17,201,9218044,,,,,,,2025-09-02,1,,,,,キノエギケン,0
861,4250001021306,新規,0,2025-09-02,2025-09-02,株式会社ｙｕｋｉ,,株式会社,山口県,柳井市,余田１４８５番地３７,,35,212,7420034,,,,,,,2025-09-02,1,,,,,ユウキ,0
864,4270001009274,新規,0,2025-09-02,2025-09-02,株式会社ゆめロード,,株式会社,鳥取県,鳥取市,立川町１丁目４８番地,,31,201,6800061,,,,,,,2025-09-02,1,,,,,ユメロード,0
867,4290001111268,新規,0,2025-09-02,2025-09-02,株式会社ラムセレクション,,株式会社,福岡県,福岡市博多区,中洲２丁目６番２３号,,40,132,8100801,,,,,,,2025-09-02,1,,,,,ラムセレクション,0
868,4290001111276,新規,0,2025-09-02,2025-09-02,ＣＴＣＳｅｍｉｃｏｎ株式会社,,株式会社,福岡県,福岡市博多区,博多駅前１丁目１３番１号,,40,132,8120011,,,,,,,2025-09-02,1,,,,,シーティーシーセミコン,0
869,4290001111284,新規,0,2025-09-02,2025-09-02,株式会社アール,,株式会社,福岡県,三井郡大刀洗町,大字今５６７番地７,,40,503,8301223,,,,,,,2025-09-02,1,,,,,アール,0
870,4290001111301,新規,0,2025-09-02,2025-09-02,株式会社テンジンビルディング,,株式会社,福岡県,福岡市中央区,天神４丁目５番１０号チサンマンション第二天神８０３号,,40,133,8100001,,,,,,,2025-09-02,1,,,,,テンジンビルディング,0
883,4340001027616,新規,0,2025-09-02,2025-09-02,Ｖｉｖｉｄ　Ｆａｃｔｏｒｙ株式会社,,株式会社,鹿児島県,大島郡徳之島町,花徳３０１３番地,,46,530,8917425,,,,,,,2025-09-02,1,,,,,ヴィヴィッドファクトリー,0
887,4360001035716,新規,0,2025-09-02,2025-09-02,株式会社ＹＦ沖縄,,株式会社,沖縄県,うるま市,字江洲４９１番地１,,47,213,9042244,,,,,,,2025-09-02,1,,,,,ワイエフオキナワ,0
888,4360003015187,新規,0,2025-09-02,2025-09-02,合同会社ＲＥＶＯ０９８,,合同会社,沖縄県,那覇市,長田２丁目５－３１－１０５,,47,201,9020077,,,,,,,2025-09-02,1,,,,,レボオキナワ,0
891,4370001052982,新規,0,2025-09-02,2025-09-02,株式会社ＳＰプロジェクト,,株式会社,宮城県,仙台市宮城野区,岩切３丁目２４番６０号シャーメゾンＭＩＲＡＩ－１０１,,04,102,9830821,,,,,,,2025-09-02,1,,,,,エスピープロジェクト,0
892,4370001052990,新規,0,2025-09-02,2025-09-02,株式会社ＢＮＢ,,株式会社,宮城県,富谷市,成田５丁目１５番地１２,,04,216,9813341,,,,,,,2025-09-02,1,,,,,ビーエヌビー,0
895,4380001035549,新規,0,2025-09-02,2025-09-02,ＳＡＩグループ株式会社,,株式会社,福島県,会津若松市,北会津町柏原６６０番地,,07,202,9696182,,,,,,,2025-09-02,1,,,,,サイグループ,0
899,4430001095174,新規,0,2025-09-02,2025-09-02,株式会社Ｎｅｗ　Ｓｗａｍｐ,,株式会社,北海道,札幌市西区,西野七条４丁目１番２６号,,01,107,0630037,,,,,,,2025-09-02,1,,,,,ニュースワンプ,0
900,4430003018059,新規,0,2025-09-02,2025-09-02,合同会社一,,合同会社,北海道,札幌市北区,屯田四条４丁目６番１７号,,01,102,0020854,,,,,,,2025-09-02,1,,,,,イチ,0
901,4430005015293,新規,0,2025-09-02,2025-09-02,特定非営利活動法人白石つばめ塾,,その他の設立登記法人,北海道,札幌市白石区,菊水上町一条２丁目４６番地６３グローリーアンザイ４０１号,,01,104,0030811,,,,,,,2025-09-02,1,,,,,シロイシツバメジュク,0
903,4470001020871,新規,0,2025-09-02,2025-09-02,株式会社ユイロ,,株式会社,香川県,高松市,西の丸町１４－２０－１９０３,,37,201,7600021,,,,,,,2025-09-02,1,,,,,,0
906,4470003002967,新規,0,2025-09-02,2025-09-02,合同会社ＮＯＺＡＫＩ,,合同会社,香川県,高松市,伏石町２０８１番地１伏石パークアベニュー６０１,,37,201,7618071,,,,,,,2025-09-02,1,,,,,,0
908,4500001026485,新規,0,2025-09-02,2025-09-02,株式会社えひめ農園,,株式会社,愛媛県,松山市,旭町４８番地４,,38,201,7900876,,,,,,,2025-09-02,1,,,,,エヒメノウエン,0
909,4700150132072,新規,0,2025-09-02,2025-09-02,ＺＥＥＮＡ　ＡＵＴＯ　ＴＲＡＤＩＮＧ　ＣＯＭＰＡＮＹ　ＰＶＴ　ＬＴＤ,,外国会社等,千葉県,夷隅郡大多喜町,下大多喜３２４５番地１Ｂ,,12,441,2980202,スリランカ民主社会主義共和国、アクラナ、デマタガステンナ、Ｎｏ．９９／４,,,,,,2025-09-02,1,,,,,ジーナオートトレーデイングカンパニープライベートリミデツト,0
910,4700150132080,新規,0,2025-09-02,2025-09-02,ＫＡＮＤＹ　ＬＡＮＫＡ　ＴＲＡＤＥＲＳ,,外国会社等,茨城県,古河市,長左エ門新田字北山９６６－２４－Ａ,,08,204,3060103,スリランカ民主社会主義共和国、カトゥガストタ、クルネーガラロードＮｏ．２１１,,,,,,2025-09-02,1,,,,,キヤンデイランカトレーダーズ,0
922,5010005040597,新規,0,2025-09-02,2025-09-02,一般社団法人応用命理学協会,,その他の設立登記法人,東京都,中央区,銀座１丁目１９番１４号銀座ＯＮＥビル６階,,13,102,1040061,,,,,,,2025-09-02,1,,,,,オウヨウメイリガクキョウカイ,0
933,5010401192769,新規,0,2025-09-02,2025-09-02,株式会社計画,,株式会社,東京都,港区,北青山３丁目８番１８号ラ・キアラ表参道３階,,13,103,1070061,,,,,,,2025-09-02,1,,,,,ケイカク,0
934,5010401192777,新規,0,2025-09-02,2025-09-02,知識衛星ジャパン株式会社,,株式会社,東京都,港区,六本木６丁目１－２０六本木電気ビル７階,,13,103,1060032,,,,,,,2025-09-02,1,,,,,チシキエイセイジャパン,0
943,5010901058008,新規,0,2025-09-02,2025-09-02,株式会社結いコーポレーション,,株式会社,東京都,世田谷区,上用賀５丁目２６番１２号,,13,112,1580098,,,,,,,2025-09-02,1,,,,,ユイコーポレーション,0
945,5010903010230,新規,0,2025-09-02,2025-09-02,Ｆｉｌａｔｏ合同会社,,合同会社,東京都,世田谷区,上馬１丁目１５－１０オリエント三軒茶屋ハウス３０４,,13,112,1540011,,,,,,,2025-09-02,1,,,,,フィラート,0
952,5011001171691,新規,0,2025-09-02,2025-09-02,株式会社ウィビッドポテンシャル,,株式会社,東京都,渋谷区,恵比寿西１丁目３３番６号ＪＰｎｏｉｅ恵比寿西１Ｆ,,13,113,1500021,,,,,,,2025-09-02,1,,,,,ウィビッドポテンシャル,0
953,5011001171741,新規,0,2025-09-02,2025-09-02,株式会社ヤマリト,,株式会社,東京都,渋谷区,神泉町１０番１５号アネックス神泉３０１,,13,113,1500045,,,,,,,2025-09-02,1,,,,,ヤマリト,0
954,5011003022273,新規,0,2025-09-02,2025-09-02,スタジオシドリー合同会社,,合同会社,東京都,目黒区,自由が丘２丁目１６番１２号ＲＪ３,,13,110,1520035,,,,,,,2025-09-02,1,,,,,スタジオシドリー,0
955,5011003022281,新規,0,2025-09-02,2025-09-02,サンライズ合同会社,,合同会社,東京都,渋谷区,笹塚３丁目２４番２４号エレガンス笹塚２０５号室,00140482,13,113,1510073,,,,,,,2025-09-02,1,,,,,サンライズ,0
956,5011003022298,新規,0,2025-09-02,2025-09-02,合同会社Ｆａｎｄｒａ,,合同会社,東京都,目黒区,自由が丘２丁目１６番１２号ＲＪ３,,13,110,1520035,,,,,,,2025-09-02,1,,,,,ファンドラ,0
958,5011101112802,新規,0,2025-09-02,2025-09-02,株式会社モグモグ,,株式会社,東京都,新宿区,西新宿３丁目５－１２トーカン新宿第２キャステール２０９号室,,13,104,1600023,,,,,,,2025-09-02,1,,,,,モグモグ,0
959,5011101113016,新規,0,2025-09-02,2025-09-02,株式会社オム,,株式会社,東京都,新宿区,新宿５丁目１４番１２号,,13,104,1600022,,,,,,,2025-09-02,1,,,,,オム,0
960,5011103016290,新規,0,2025-09-02,2025-09-02,合同会社Ｔｅｎｒｅｃｈ,,合同会社,東京都,新宿区,西新宿３丁目３番１３号西新宿水間ビル２Ｆ,,13,104,1600023,,,,,,,2025-09-02,1,,,,,テンレッチ,0
961,5011103016324,新規,0,2025-09-02,2025-09-02,合同会社ＴＥＮＧＯＫＵ　ＣＲＥＡＴＩＯＮＳ,,合同会社,東京都,新宿区,西新宿７丁目５－５ＰＬＡＺＡ西新宿ＵＣＦ４０６,,13,104,1600023,,,,,,,2025-09-02,1,,,,,テンゴククリエーション,0
963,5011201026605,新規,0,2025-09-02,2025-09-02,雲尚喜株式会社,,株式会社,東京都,中野区,弥生町３丁目５番１８号グレースＦ．Ｂ０７,,13,114,1640013,,,,,,,2025-09-02,1,,,,,,0
964,5011301030845,新規,0,2025-09-02,2025-09-02,タルハ株式会社,,株式会社,東京都,杉並区,高円寺南２丁目４５番６号,,13,115,1660003,,,,,,,2025-09-02,1,,,,,タルハ,0
968,5011601028936,新規,0,2025-09-02,2025-09-02,株式会社ＫＯＨトレーディング,,株式会社,東京都,練馬区,上石神井３丁目２９－７上石神井グレイスハイム３０４号,,13,120,1770044,,,,,,,2025-09-02,1,,,,,ケーオーエイチトレーディング,0
971,5011801046671,新規,0,2025-09-02,2025-09-02,株式会社ＡＬＫ,,株式会社,東京都,足立区,千住龍田町２０番６号,,13,121,1200042,,,,,,,2025-09-02,1,,,,,アルク,0
973,5012401043547,新規,0,2025-09-02,2025-09-02,株式会社トラストワン,,株式会社,東京都,府中市,四谷３丁目６４番地の７９セラ１０１号室,,13,206,1830035,,,,,,,2025-09-02,1,,,,,トラストワン,0
975,5012403007319,新規,0,2025-09-02,2025-09-02,ブリモア合同会社,,合同会社,東京都,稲城市,平尾３丁目７―５―４９―３０６,,13,225,2060823,,,,,,,2025-09-02,1,,,,,ブリモア,0
976,5012801024213,新規,0,2025-09-02,2025-09-02,株式会社結,,株式会社,東京都,国分寺市,東元町２丁目８番８号クナークＫ・Ｍ１０２,,13,214,1850022,,,,,,,2025-09-02,1,,,,,ムスビ,0
977,5012805003361,新規,0,2025-09-02,2025-09-02,医療法人社団健向会,,その他の設立登記法人,東京都,日野市,西平山１丁目２６番地の１７,,13,212,1910055,,,,,,,2025-09-02,1,,,,,ケンコウカイ,0
983,5020001164531,新規,0,2025-09-02,2025-09-02,株式会社ＡＮＹ,,株式会社,神奈川県,横浜市青葉区,美しが丘西２丁目４７番３１号,,14,117,2250001,,,,,,,2025-09-02,1,,,,,エニー,0
984,5020001164589,新規,0,2025-09-02,2025-09-02,株式会社Ｆｏｒ　Ｓｏｍｅｏｎｅ,,株式会社,神奈川県,横浜市金沢区,柴町３９１番地マリンシティ金沢文庫Ｆ棟３０５号,,14,108,2360012,,,,,,,2025-09-02,1,,,,,フォーサムワン,0
985,5020001164597,新規,0,2025-09-02,2025-09-02,株式会社慶應技研,,株式会社,神奈川県,川崎市高津区,溝口１丁目９‐７長谷川ビル５０５,,14,134,2130001,,,,,,,2025-09-02,1,,,,,ケイオウギケン,0
986,5020001164655,新規,0,2025-09-02,2025-09-02,株式会社ＰＬＣｓ,,株式会社,神奈川県,横浜市都筑区,茅ケ崎南５丁目１番４０号,,14,118,2240037,,,,,,,2025-09-02,1,,,,,ピーエルシーズ,0
988,5020003029253,新規,0,2025-09-02,2025-09-02,典菁国際文化交流合同会社,,合同会社,神奈川県,横浜市港北区,新横浜２丁目５－１４－３２３ＷｉｓｅＮｅｘｔ新横浜ビル,,14,109,2220033,,,,,,,2025-09-02,1,,,,,テンセイコクサイブンカコウリュウ,0
989,5020003029261,新規,0,2025-09-02,2025-09-02,合同会社カピリナリンク,,合同会社,神奈川県,横浜市鶴見区,平安町１丁目２９－１プラウド横浜鶴見市場７０５,,14,101,2300031,,,,,,,2025-09-02,1,,,,,カピリナリンク,0
1005,5030001168358,新規,0,2025-09-02,2025-09-02,株式会社司工業,,株式会社,埼玉県,所沢市,宮本町１丁目１１番１５号,,11,208,3591143,,,,,,,2025-09-02,1,,,,,ツカサコウギョウ,0
1006,5030001168366,新規,0,2025-09-02,2025-09-02,株式会社ＩＳＴ,,株式会社,埼玉県,川口市,領家３丁目２２番１０－２０２号,,11,203,3320004,,,,,,,2025-09-02,1,,,,,イスト,0
1007,5030001168399,新規,0,2025-09-02,2025-09-02,日成商事株式会社,,株式会社,埼玉県,三郷市,戸ケ崎１丁目２６３番地４,,11,237,3410044,,,,,,,2025-09-02,1,,,,,ニッセイショウジ,0
1008,5030001168408,新規,0,2025-09-02,2025-09-02,株式会社フードコネクション,,株式会社,埼玉県,入間郡毛呂山町,大字市場１番地１,,11,326,3500434,,,,,,,2025-09-02,1,,,,,フードコネクション,0
1021,5040001140217,新規,0,2025-09-02,2025-09-02,株式会社ＩＷＡＥＲＵ,,株式会社,千葉県,松戸市,中和倉１８４番地の２ベルレージュ１０１号,,12,207,2700025,,,,,,,2025-09-02,1,,,,,イワエル,0
1022,5040001140266,新規,0,2025-09-02,2025-09-02,株式会社連盛,,株式会社,千葉県,八千代市,大和田新田８２２番地１,,12,221,2760046,,,,,,,2025-09-02,1,,,,,レンセイ,0
1023,5040001140290,新規,0,2025-09-02,2025-09-02,ＳｐａｃｅＮＥＴ株式会社,,株式会社,千葉県,鎌ケ谷市,新鎌ケ谷３丁目６－４,,12,224,2730107,,,,,,,2025-09-02,1,,,,,スペースネット,0
1024,5040001140308,新規,0,2025-09-02,2025-09-02,株式会社Ｒｅ‐ｔｅｃｈ,,株式会社,千葉県,柏市,高田１０７５番地１９,,12,217,2770861,,,,,,,2025-09-02,1,,,,,リーテック,0
1025,5040003028402,新規,0,2025-09-02,2025-09-02,合同会社アクションプラン,,合同会社,千葉県,千葉市花見川区,幕張本郷３丁目２１番１７号リブリ・アイリス幕張本郷２０５号,,12,102,2620033,,,,,,,2025-09-02,1,,,,,アクションプラン,0
1026,5040003028419,新規,0,2025-09-02,2025-09-02,Ｃ・Ｋ・Ｔ・Ｙ合同会社,,合同会社,千葉県,四街道市,鷹の台４丁目１８番１号,,12,228,2840033,,,,,,,2025-09-02,1,,,,,シーケーティーワイ,0
1036,5070001043292,新規,0,2025-09-02,2025-09-02,株式会社Ｉ＆Ｉ,,株式会社,群馬県,高崎市,大八木町１９７５番地１,,10,202,3700072,,,,,,,2025-09-02,1,,,,,アイアンドアイ,0
1037,5070003006066,新規,0,2025-09-02,2025-09-02,ＤＶＬ合同会社,,合同会社,群馬県,伊勢崎市,馬見塚町９４３番地１,,10,204,3720842,,,,,,,2025-09-02,1,,,,,ディヴィエル,0
1063,5120001279204,新規,0,2025-09-02,2025-09-02,株式会社アイエス人材紹介センター,,株式会社,大阪府,大阪市城東区,鴫野東３丁目５番１３号,,27,118,5360013,,,,,,,2025-09-02,1,,,,,アイエスジンザイショウカイセンター,0
1064,5120001279220,新規,0,2025-09-02,2025-09-02,晋福株式会社,,株式会社,大阪府,大阪市東淀川区,大桐３丁目６－２１－１０３号,,27,114,5330011,,,,,,,2025-09-02,1,,,,,シンフク,0
1073,5120003030440,新規,0,2025-09-02,2025-09-02,ニューライフ合同会社,,合同会社,大阪府,大阪市中央区,島之内１丁目７番２３号三和第二ビル３０２,,27,128,5420082,,,,,,,2025-09-02,1,,,,,ニューライフ,0
1074,5120003030449,新規,0,2025-09-02,2025-09-02,関西電力サイラスワンＴＫＹ１合同会社,,合同会社,大阪府,大阪市北区,中之島３丁目６番１６号,,27,127,5300005,,,,,,,2025-09-02,1,,,,,カンサイデンリョクサイラスワンティーケーワイワン,0
1075,5120005025141,新規,0,2025-09-02,2025-09-02,一般社団法人生駒くろんどパーク,,その他の設立登記法人,大阪府,大阪市旭区,赤川１丁目１０番２１号,,27,117,5350005,,,,,,,2025-09-02,1,,,,,イコマクロンドパーク,0
1077,5120901019907,新規,0,2025-09-02,2025-09-02,富士興産株式会社,,株式会社,大阪府,池田市,満寿美町１番１１号,,27,204,5630041,,,,,,,2025-09-02,1,,,,,フジコウサン,0
1086,5130001080387,新規,0,2025-09-02,2025-09-02,ａｒａｎｙａ管理サービス株式会社,,株式会社,京都府,京都市右京区,山ノ内北ノ口町１９番地１－２階,,26,108,6150094,,,,,,,2025-09-02,1,,,,,アランヤカンリサービス,0
1089,5140001139843,新規,0,2025-09-02,2025-09-02,株式会社キャリア・エクサイシー,,株式会社,兵庫県,神戸市須磨区,妙法寺字ぬめり石１番１－２１０,,28,107,6540121,,,,,,,2025-09-02,1,,,,,キャリアエクサイシー,0
1093,5150001028368,新規,0,2025-09-02,2025-09-02,株式会社Ａｎａｃｈｒｏｎ,,株式会社,奈良県,奈良市,神殿町５１２番１,,29,201,6308441,,,,,,,2025-09-02,1,,,,,アナクロン,0
1094,5160005011435,新規,0,2025-09-02,2025-09-02,一般社団法人ファンファーレ,,その他の設立登記法人,滋賀県,甲賀市,信楽町５２９番地,,25,209,5280000,,,,,,,2025-09-02,1,,,,,ファンファーレ,0
1104,5180001168343,新規,0,2025-09-02,2025-09-02,三佳株式会社,,株式会社,愛知県,名古屋市港区,宝神１丁目６５番地の２東明ビル２階,,23,111,4550832,,,,,,,2025-09-02,1,,,,,サンカ,0
1105,5180001168418,新規,0,2025-09-02,2025-09-02,ＲＫＲ　Ｍｅｄｉｃａｌ　Ｂｅａｕｔｙ株式会社,,株式会社,愛知県,江南市,松竹町東瀬古２６４番地２,,23,217,4838359,,,,,,,2025-09-02,1,,,,,アールケイアールメディカルビューティー,0
1106,5180001168426,新規,0,2025-09-02,2025-09-02,ｔｅｔｏｔｅ株式会社,,株式会社,愛知県,名古屋市名東区,文教台１丁目３０８番地クレール文教１０１号,,23,115,4650012,,,,,,,2025-09-02,1,,,,,テトテ,0
1107,5180001168434,新規,0,2025-09-02,2025-09-02,株式会社ＧＥＡＲＧＬＯＶＥＳ,,株式会社,愛知県,名古屋市天白区,島田２丁目９０５番地エスペランサ２Ａ,,23,116,4680056,,,,,,,2025-09-02,1,,,,,ギアグローブス,0
1120,5190001032498,新規,0,2025-09-02,2025-09-02,元株式会社,,株式会社,三重県,津市,柳山津興３１９番地２８,,24,201,5140803,,,,,,,2025-09-02,1,,,,,ハジメ,0
1121,5200003006993,新規,0,2025-09-02,2025-09-02,合同会社青藍社,,合同会社,岐阜県,山県市,高富１６２４番地３,,21,215,5012105,,,,,,,2025-09-02,1,,,,,セイランシャ,0
1124,5220001026901,新規,0,2025-09-02,2025-09-02,ユーズ株式会社,,株式会社,石川県,河北郡内灘町,字向粟崎３丁目１０３番地吉野アパート５号,,17,365,9200274,,,,,,,2025-09-02,1,,,,,ユーズ,0
1135,5250001021305,新規,0,2025-09-02,2025-09-02,ワタナベ工業株式会社,,株式会社,山口県,下関市,長府新四王司町８番１９号,,35,201,7520941,,,,,,,2025-09-02,1,,,,,ワタナベコウギョウ,0
1137,5260005011516,新規,0,2025-09-02,2025-09-02,一般社団法人Ｌｕｍｉｎｏｕｓ,,その他の設立登記法人,岡山県,倉敷市,真備町妹１４７２番地１,,33,202,7101303,,,,,,,2025-09-02,1,,,,,ルミナス,0
1138,5270001009273,新規,0,2025-09-02,2025-09-02,株式会社彩ノ稀,,株式会社,鳥取県,境港市,三軒屋町４３４６番地,,31,204,6840064,,,,,,,2025-09-02,1,,,,,アヤノキ,0
1147,5290001111317,新規,0,2025-09-02,2025-09-02,株式会社成協,,株式会社,福岡県,糸島市,高田３丁目１番６号,,40,230,8191102,,,,,,,2025-09-02,1,,,,,セイキョウ,0
1151,5300001014336,新規,0,2025-09-02,2025-09-02,株式会社Ｍａｒｉｒｉｓ,,株式会社,佐賀県,鳥栖市,あさひ新町８２１番地１７,,41,203,8410068,,,,,,,2025-09-02,1,,,,,マリリス,0
1154,5310003005076,新規,0,2025-09-02,2025-09-02,Ｃｏｌｅｔｔｅ合同会社,,合同会社,長崎県,佐世保市,浜田町２番２７号トーカンマンション８０２号,,42,202,8570051,,,,,,,2025-09-02,1,,,,,コレット,0
1160,5350003005015,新規,0,2025-09-02,2025-09-02,合同会社ＫＢＦ,,合同会社,宮崎県,宮崎市,中央通２－２５中めがねセンタービル２階,,45,201,8800002,,,,,,,2025-09-02,1,,,,,ケイビーエフ,0
1161,5360005007280,新規,0,2025-09-02,2025-09-02,一般社団法人ＴＯＲＩＯＳ琉球,,その他の設立登記法人,沖縄県,宜野湾市,大謝名３丁目７番９号,,47,205,9012225,,,,,,,2025-09-02,1,,,,,トリオスリュウキュウ,0
1174,5430001095149,新規,0,2025-09-02,2025-09-02,たくみ電設株式会社,,株式会社,北海道,石狩市,花川南二条１丁目２５番地１,,01,235,0613202,,,,,,,2025-09-02,1,,,,,タクミデンセツ,0
1175,5430001095173,新規,0,2025-09-02,2025-09-02,株式会社ＣＳＢ,,株式会社,北海道,札幌市清田区,真栄二条１丁目６番１－１０１号,,01,110,0040832,,,,,,,2025-09-02,1,,,,,シーエスビー,0
1180,5470001001739,新規,0,2025-09-02,2025-09-02,株式会社サンビルド,,株式会社,香川県,高松市,栗林町１丁目１３番２４号,,37,201,7600073,,,,,,,2025-09-02,1,,,,,サンビルド,0
1181,5470001020879,新規,0,2025-09-02,2025-09-02,株式会社マナック,,株式会社,香川県,丸亀市,魚屋町１２番地１アルファスマート丸亀駅ＩＩ９０６号,00140494,37,202,7630006,,,,,,,2025-09-02,1,,,,,マナック,0
1183,5500003003580,新規,0,2025-09-02,2025-09-02,合同会社ｎａｇｏｍｉ,,合同会社,愛媛県,伊予市,灘町１番地８,,38,210,7993114,,,,,,,2025-09-02,1,,,,,ナゴミ,0
1185,5700150132063,新規,0,2025-09-02,2025-09-02,ＦｏｒｗａｒｄＣａｐｉｔａｌ　Ｐａｒｔｎｅｒｓ　Ｃｏ．Ｌｔｄ,,外国会社等,,,,,,,,Ｒｏｏｍ３０１－３０２，３／Ｆ．，ＰｅｔｅｒＢｌｄｇ．，５８－６２Ｑｕｅｅｎ’ｓＲｏａｄＣｅｎｔｒａｌ，ＨｏｎｇＫｏｎｇ,,,,,,2025-09-02,1,,,,,フオワードキヤピタルパートナー,0
1186,5700150132071,新規,0,2025-09-02,2025-09-02,ＤＮＸ　Ｓｅｅｄ，ＬＬＣ,,外国会社等,,,,,,,,５５　Ｅａｓｔ　３ｒｄ　Ａｖｅｎｕｅ　Ｓａｎ　Ｍａｔｅｏ，Ｃａｌｉｆｏｒｎｉａ　９４４０１,,,,,,2025-09-02,1,,,,,デイーエヌエツクスシードエルエルシー,0
1196,6010001258093,新規,0,2025-09-02,2025-09-02,株式会社Ｈｉｂａｎａ,,株式会社,東京都,中央区,銀座１丁目２２番１１号銀座大竹ビジデンス２階,,13,102,1040061,,,,,,,2025-09-02,1,,,,,ヒバナ,0
1210,6010401192776,新規,0,2025-09-02,2025-09-02,株式会社ｉＣｒｏｓ,,株式会社,東京都,港区,赤坂２丁目２１番５号ＡＢＣ・Ｄ－８５号,,13,103,1070052,,,,,,,2025-09-02,1,,,,,アイクロス,0
1211,6010401192784,新規,0,2025-09-02,2025-09-02,株式会社ＦＰマネジメント,,株式会社,東京都,港区,虎ノ門１丁目２番８号,,13,103,1050001,,,,,,,2025-09-02,1,,,,,エフピーマネジメント,0
1212,6010401192792,新規,0,2025-09-02,2025-09-02,株式会社Ｋ＆Ｋ　Ｂｒｏｔｈｅｒｓ,,株式会社,東京都,港区,虎ノ門４丁目３番２０号神谷町ＭＴビル１４Ｆ,,13,103,1050001,,,,,,,2025-09-02,1,,,,,ケーアンドケーブラザーズ,0
1213,6010405024637,新規,0,2025-09-02,2025-09-02,特定目的会社ＴＳＭＺ１１,,その他の設立登記法人,東京都,港区,元赤坂１丁目１番７号,,13,103,1070051,,,,,,,2025-09-02,1,,,,,ティーエスエムゼットイレブン,0
1215,6010601067877,新規,0,2025-09-02,2025-09-02,株式会社ＭＯＮＯＭＯＮＯ,,株式会社,東京都,墨田区,江東橋４丁目２７番１４号楽天地ビル３Ｆ,,13,107,1300022,,,,,,,2025-09-02,1,,,,,モノモノ,0
1216,6010603011759,新規,0,2025-09-02,2025-09-02,合同会社ＥＬパートナーズ,,合同会社,東京都,墨田区,石原２丁目１５番５－２０１号ｂ’ＣＡＳＡ墨田両国,,13,107,1300011,,,,,,,2025-09-02,1,,,,,イーエルパートナーズ,0
1218,6010801036541,新規,0,2025-09-02,2025-09-02,株式会社ヤブキ,,株式会社,東京都,大田区,大森南３丁目３２－１,,13,111,1430013,,,,,,,2025-09-02,1,,,,,ヤブキ,0
1220,6010901058007,新規,0,2025-09-02,2025-09-02,株式会社ＡＹＮＥ,,株式会社,東京都,世田谷区,北沢２丁目１３番１４号関根ビル２Ｆ,,13,112,1550031,,,,,,,2025-09-02,1,,,,,アイン,0
1226,6011001171708,新規,0,2025-09-02,2025-09-02,株式会社セキタツ,,株式会社,東京都,渋谷区,大山町７番５号中田Ｂ,,13,113,1510065,,,,,,,2025-09-02,1,,,,,セキタツ,0
1227,6011001171740,新規,0,2025-09-02,2025-09-02,Ｓｔｒｉｖｅ　Ｗｏｒｋｓ株式会社,,株式会社,東京都,渋谷区,神南１丁目１１番４号ＦＰＧリンクス神南５階,,13,113,1500041,,,,,,,2025-09-02,1,,,,,ストライブワークス,0
1228,6011003022272,新規,0,2025-09-02,2025-09-02,合同会社みのりて,,合同会社,東京都,渋谷区,道玄坂１丁目１８－８渋谷道玄坂東急ビル２Ｆ－Ｃ,,13,113,1500043,,,,,,,2025-09-02,1,,,,,ミノリテ,0
1235,6011101112842,新規,0,2025-09-02,2025-09-02,ｓａｋｕｍａ株式会社,,株式会社,東京都,新宿区,新宿１丁目３６－２新宿第七葉山ビル３Ｆ,,13,104,1600022,,,,,,,2025-09-02,1,,,,,サクマ,0
1236,6011103016323,新規,0,2025-09-02,2025-09-02,合同会社ＷｏｒｌｄＥｎｄＢａｂｙ,,合同会社,東京都,新宿区,西新宿３丁目３番１３号西新宿水間ビル２Ｆ,,13,104,1600023,,,,,,,2025-09-02,1,,,,,ワールドエンドベイビー,0
1237,6011201026604,新規,0,2025-09-02,2025-09-02,Ｍａｒｓｔａ株式会社,,株式会社,東京都,中野区,中野５丁目６７番７号プラザ中野８０１,,13,114,1640001,,,,,,,2025-09-02,1,,,,,マースタ,0
1240,6011503006667,新規,0,2025-09-02,2025-09-02,合同会社シニチ,,合同会社,東京都,荒川区,荒川６丁目４番９号クリエート町屋５０４,,13,118,1160002,,,,,,,2025-09-02,1,,,,,シニチ,0
1244,6011702008480,新規,0,2025-09-02,2025-09-02,有限会社長島設備工業,,有限会社,東京都,江戸川区,北篠崎１丁目４番２３号,,13,123,1330053,,,,,,,2025-09-02,1,,,,,ナガシマセツビコウギョウ,0
1245,6011703004363,新規,0,2025-09-02,2025-09-02,合同会社ＡｒｏｔＴ,,合同会社,東京都,江戸川区,小松川３丁目１０番３－８０１号,,13,123,1320034,,,,,,,2025-09-02,1,,,,,アロット,0
1251,6012703003363,新規,0,2025-09-02,2025-09-02,合同会社東源,,合同会社,東京都,東村山市,美住町２丁目２５番地８３－１Ｆ,,13,213,1890023,,,,,,,2025-09-02,1,,,,,トウゲン,0
1258,6013301054848,新規,0,2025-09-02,2025-09-02,レイシンクジャパン株式会社,,株式会社,東京都,豊島区,上池袋４丁目１１－１６ノックスドールビル４階,,13,116,1700012,,,,,,,2025-09-02,1,,,,,レイシンクジャパン,0
1260,6013303007845,新規,0,2025-09-02,2025-09-02,ＢＥＳＴ　ＮＯＯＤＬＥ合同会社,,合同会社,東京都,豊島区,駒込３丁目４番１号,,13,116,1700003,,,,,,,2025-09-02,1,,,,,ベストヌードル,0
1264,6020003029277,新規,0,2025-09-02,2025-09-02,合同会社Ｒｕｌａｚ,,合同会社,神奈川県,横浜市金沢区,富岡東１丁目２３番１－９号,,14,108,2360051,,,,,,,2025-09-02,1,,,,,ルーラーズ,0
1273,6021001086203,新規,0,2025-09-02,2025-09-02,株式会社ＴＲＵＳＴ,,株式会社,神奈川県,藤沢市,石川４丁目２９番地の７ヴェルドミール２０１,,14,205,2520815,,,,,,,2025-09-02,1,,,,,トラスト,0
1274,6021003016488,新規,0,2025-09-02,2025-09-02,合同会社ステイブル,,合同会社,神奈川県,藤沢市,鵠沼石上１丁目７番８号,,14,205,2510025,,,,,,,2025-09-02,1,,,,,ステイブル,0
1275,6030001168357,新規,0,2025-09-02,2025-09-02,株式会社ＭＫ産業,,株式会社,埼玉県,加須市,外田ケ谷８５８番地１,,11,210,3470126,,,,,,,2025-09-02,1,,,,,エムケーサンギョウ,0
1276,6030001168373,新規,0,2025-09-02,2025-09-02,株式会社ＺＯＮＩＱ,,株式会社,埼玉県,飯能市,大字下赤工３１２番地２,,11,209,3570126,,,,,,,2025-09-02,1,,,,,ゾニック,0
1277,6030001168381,新規,0,2025-09-02,2025-09-02,株式会社由還,,株式会社,埼玉県,上尾市,大字平塚２４４４番地８２,,11,219,3620011,,,,,,,2025-09-02,1,,,,,ユエ,0
1280,6030003027503,新規,0,2025-09-02,2025-09-02,合同会社境野コンサルティング,,合同会社,埼玉県,さいたま市見沼区,大字風渡野３３０番地２６,,11,104,3370017,,,,,,,2025-09-02,1,,,,,サカイノコンサルティング,0
1281,6030005022254,新規,0,2025-09-02,2025-09-02,特定非営利活動法人Ｓａｉｃａ,,その他の設立登記法人,埼玉県,さいたま市緑区,松木２丁目２４－１,,11,109,3360918,,,,,,,2025-09-02,1,,,,,サイカ,0
1283,6040001140249,新規,0,2025-09-02,2025-09-02,Ｅｍｂｒａｃｅ　ｔｈｅ　ｅａｒｔｈ株式会社,,株式会社,千葉県,船橋市,薬円台５丁目４番５号グランドセラーコート４０４,,12,204,2740077,,,,,,,2025-09-02,1,,,,,エンブレイスザアース,0
1287,6040003028418,新規,0,2025-09-02,2025-09-02,Ｓ・Ｋ・Ｔ・Ｙ合同会社,,合同会社,千葉県,四街道市,鷹の台４丁目１８番１号,,12,228,2840033,,,,,,,2025-09-02,1,,,,,エスケーティーワイ,0
1288,6050003009499,新規,0,2025-09-02,2025-09-02,ＮＯＶＡ合同会社,,合同会社,茨城県,小美玉市,世楽３２４番地３,,08,236,3113401,,,,,,,2025-09-02,1,,,,,ノヴァ,0
1289,6050003009540,新規,0,2025-09-02,2025-09-02,合同会社みたけあら,,合同会社,茨城県,つくば市,竹園３丁目３６番地１９,,08,220,3050032,,,,,,,2025-09-02,1,,,,,ミタケアラ,0
1294,6060001038540,新規,0,2025-09-02,2025-09-02,株式会社ＳＵＲＰＲＩＣＥ,,株式会社,栃木県,芳賀郡芳賀町,大字八ツ木８２３番地,,09,345,3213306,,,,,,,2025-09-02,1,,,,,サプライス,0
1296,6070001043309,新規,0,2025-09-02,2025-09-02,株式会社ＢＢハルナ,,株式会社,群馬県,高崎市,高浜町１５５８番地,,10,202,3703333,,,,,,,2025-09-02,1,,,,,,0
1297,6080401028148,新規,0,2025-09-02,2025-09-02,株式会社権田組,,株式会社,静岡県,浜松市中央区,泉４丁目８番１７号,,22,138,4338124,,,,,,,2025-09-02,1,,,,,ゴンダグミ,0
1303,6100001038874,新規,0,2025-09-02,2025-09-02,ＨＡＣＨＩ　ＬＯＯＰ株式会社,,株式会社,長野県,上伊那郡中川村,大草４０７４番地,,20,386,3993801,,,,,,,2025-09-02,1,,,,,ハチループ,0
1309,6120001279211,新規,0,2025-09-02,2025-09-02,株式会社ＡＫＩＳＰＯＴ,,株式会社,大阪府,大阪市中央区,道修町４丁目１－１武田御堂筋ビル２Ｆ,,27,128,5410045,,,,,,,2025-09-02,1,,,,,アキスポット,0
1310,6120001279228,新規,0,2025-09-02,2025-09-02,ＡＭＡＮＯ　ｃｏｃｏ株式会社,,株式会社,大阪府,大阪市西区,九条２丁目３番１８号,,27,106,5500027,,,,,,,2025-09-02,1,,,,,アマノココ,0
1311,6120001279285,新規,0,2025-09-02,2025-09-02,株式会社ホープ編集室,,株式会社,大阪府,大阪市北区,天神橋１丁目１１番１４号天神ビル２０１号室,,27,127,5300041,,,,,,,2025-09-02,1,,,,,ホープヘンシュウシツ,0
1315,6120003030415,新規,0,2025-09-02,2025-09-02,合同会社アヴァロングループ,,合同会社,大阪府,大阪市浪速区,恵美須西２丁目１４－１２，１００２室,,27,111,5560003,,,,,,,2025-09-02,1,,,,,アヴァロングループ,0
1319,6120103006661,新規,0,2025-09-02,2025-09-02,ＰｏｎｏＲｘ合同会社,,合同会社,大阪府,堺市東区,野尻町１９２－５６,,27,143,5998116,,,,,,,2025-09-02,1,,,,,,0
1322,6122001039594,新規,0,2025-09-02,2025-09-02,株式会社ＴＡＭＡＴＡ,,株式会社,大阪府,大東市,住道２丁目７番１２号ツインフラッツ３０３号,,27,218,5740026,,,,,,,2025-09-02,1,,,,,タマタ,0
1329,6130005017450,新規,0,2025-09-02,2025-09-02,一般社団法人京都ヒューマノイドアソシエーション,,その他の設立登記法人,京都府,京都市中京区,河原町通御池下る下丸屋町３９０番地２,,26,104,6048006,,,,,,,2025-09-02,1,,,,,キョウトヒューマノイドアソシエーション,0
1338,6140003022518,新規,0,2025-09-02,2025-09-02,合同会社ＮＵＴＩＡ１３５,,合同会社,兵庫県,神戸市垂水区,狩口台７丁目１５－１,,28,108,6550049,,,,,,,2025-09-02,1,,,,,ヌチアイチサンゴ,0
1340,6150005009719,新規,0,2025-09-02,2025-09-02,一般社団法人奈良県産業共励会,,その他の設立登記法人,奈良県,奈良市,今辻子町４９番地１,00140486,29,201,6308243,,,,,,,2025-09-02,1,,,,,ナラケンサンギョウキョウレイカイ,0
1349,6180001168409,新規,0,2025-09-02,2025-09-02,ＶＥＲＡリアルエステート株式会社,,株式会社,愛知県,名古屋市守山区,西城２丁目２８番１１号,,23,113,4630084,,,,,,,2025-09-02,1,,,,,ヴェラリアルエステート,0
1350,6180001168417,新規,0,2025-09-02,2025-09-02,株式会社ＳＴＲ,,株式会社,愛知県,名古屋市昭和区,荒田町１丁目２５番地の２（ヴィヴァンテール１０２号）,,23,107,4660844,,,,,,,2025-09-02,1,,,,,エスティアール,0
1351,6180001168433,新規,0,2025-09-02,2025-09-02,株式会社ＴＨ,,株式会社,愛知県,名古屋市港区,東茶屋１丁目６１６番地,,23,111,4550851,,,,,,,2025-09-02,1,,,,,ティーエイチ,0
1356,6180003028965,新規,0,2025-09-02,2025-09-02,Ｍｅｄ７Ｊａｐａｎ合同会社,,合同会社,愛知県,名古屋市東区,白壁１丁目５８番地２Ｆ,,23,102,4610011,,,,,,,2025-09-02,1,,,,,メッドセブンジャパン,0
1359,6180301040143,新規,0,2025-09-02,2025-09-02,株式会社フルール,,株式会社,愛知県,豊橋市,住吉町３０番地１,,23,201,4400052,,,,,,,2025-09-02,1,,,,,フルール,0
1364,6190001032489,新規,0,2025-09-02,2025-09-02,株式会社森田ホールディングス,,株式会社,三重県,津市,安濃町安濃２０１９番地８,,24,201,5142302,,,,,,,2025-09-02,1,,,,,モリタホールディングス,0
1365,6190003005154,新規,0,2025-09-02,2025-09-02,ＡＲＡＸＸ合同会社,,合同会社,三重県,桑名市,長島町葭ケ須７１４番地１７,,24,205,5111124,,,,,,,2025-09-02,1,,,,,アラクス,0
1366,6200001044185,新規,0,2025-09-02,2025-09-02,株式会社まるわ建築,,株式会社,岐阜県,瑞浪市,学園台２丁目１２番地の１３,,21,208,5096106,,,,,,,2025-09-02,1,,,,,マルワケンチク,0
1371,6220003004111,新規,0,2025-09-02,2025-09-02,バのドーム合同会社,,合同会社,石川県,七尾市,松百町ヌ部１０７番地,,17,202,9260841,,,,,,,2025-09-02,1,,,,,バノドーム,0
1377,6250001021312,新規,0,2025-09-02,2025-09-02,株式会社オケズチャレンジ,,株式会社,山口県,周南市,新田２丁目１番１３号,,35,215,7460043,,,,,,,2025-09-02,1,,,,,オケズチャレンジ,0
1378,6250003003804,新規,0,2025-09-02,2025-09-02,Ｉ　Ｗｉｓｈ合同会社,,合同会社,山口県,下関市,長府才川２丁目１９番１６号アクティフ長府Ｉ１０１,00140483,35,201,7520928,,,,,,,2025-09-02,1,,,,,アイウイッシュ,0
1384,6290001111282,新規,0,2025-09-02,2025-09-02,株式会社リリーフィールド,,株式会社,福岡県,福岡市中央区,天神１丁目９番１７号福岡天神フコク生命ビル１５階,,40,133,8100001,,,,,,,2025-09-02,1,,,,,リリーフィールド,0
1385,6290001111316,新規,0,2025-09-02,2025-09-02,ユウコウ金属株式会社,,株式会社,福岡県,福岡市東区,青葉１丁目１４番１２号,,40,131,8130025,,,,,,,2025-09-02,1,,,,,ユウコウキンゾク,0
1387,6290803005145,新規,0,2025-09-02,2025-09-02,合同会社Ａｍｉｔｙ,,合同会社,福岡県,北九州市若松区,高須西２丁目５－２５－２０２,,40,103,8080146,,,,,,,2025-09-02,1,,,,,アミティ,0
1388,6310001019770,新規,0,2025-09-02,2025-09-02,株式会社高尾自動車整備工場,,株式会社,長崎県,東彼杵郡波佐見町,川内郷９番地３,,42,323,8593721,,,,,,,2025-09-02,1,,,,,タカオジドウシャセイビコウジョウ,0
1401,6360001035697,新規,0,2025-09-02,2025-09-02,株式会社ＨＩＮＡＴＡ,,株式会社,沖縄県,那覇市,松尾２丁目１番９号,,47,201,9000014,,,,,,,2025-09-02,1,,,,,ヒナタ,0
1404,6370001052989,新規,0,2025-09-02,2025-09-02,株式会社サティオン,,株式会社,宮城県,仙台市泉区,南光台１丁目６３番８号,,04,105,9818003,,,,,,,2025-09-02,1,,,,,サティオン,0
1420,6430001095131,新規,0,2025-09-02,2025-09-02,株式会社アンバー,,株式会社,北海道,札幌市西区,八軒九条東１丁目２番７－２号,,01,107,0630869,,,,,,,2025-09-02,1,,,,,アンバー,0
1421,6430001095164,新規,0,2025-09-02,2025-09-02,株式会社ＵＮＡＰＩＳ,,株式会社,北海道,札幌市厚別区,厚別南３丁目４‐７,,01,108,0040022,,,,,,,2025-09-02,1,,,,,ユナピス,0
1422,6430001095172,新規,0,2025-09-02,2025-09-02,株式会社オートガレージケイズ,,株式会社,北海道,札幌市白石区,東米里２０２８番地,,01,104,0030876,,,,,,,2025-09-02,1,,,,,オートガレージケイズ,0
1431,6700150132070,新規,0,2025-09-02,2025-09-02,ＤＮＸ　ＩＩＩ，ＬＬＣ,,外国会社等,,,,,,,,５５　Ｅａｓｔ　３ｒｄ　Ａｖｅｎｕｅ　Ｓａｎ　Ｍａｔｅｏ，ＣＡ　９４４０１,,,,,,2025-09-02,1,,,,,デイーエヌエツクススリーエルエルシー,0
1432,6700150132079,新規,0,2025-09-02,2025-09-02,安徳隆企業　股分有限公司,,外国会社等,,,,,,,,台湾　台北市中山区中山北路二段１６２號十二樓,,,,,,2025-09-02,1,,,,,アンドロンキギヨウ,0
1439,7010001258068,新規,0,2025-09-02,2025-09-02,株式会社ひかり結び,,株式会社,東京都,中央区,銀座７丁目１３番２０号銀座ＴＨビル９階,,13,102,1040061,,,,,,,2025-09-02,1,,,,,ヒカリムスビ,0
1440,7010001258092,新規,0,2025-09-02,2025-09-02,トップコンサルティング株式会社,,株式会社,東京都,中央区,晴海５丁目５－２－７０８,,13,102,1040053,,,,,,,2025-09-02,1,,,,,トップコンサルティング,0
1458,7010403035957,新規,0,2025-09-02,2025-09-02,Ｃｒｅａｔｉｖｅ　Ｊｏｕｒｎｅｙ合同会社,,合同会社,東京都,港区,北青山１丁目３－３三橋ビル３階,,13,103,1070061,,,,,,,2025-09-02,1,,,,,クリエイティブジャーニー,0
1462,7010501054644,新規,0,2025-09-02,2025-09-02,ＳＩＳＩ　Ｉｎｎｏｖａｔｉｏｎｓ株式会社,,株式会社,東京都,台東区,浅草橋５丁目２０番８号,,13,106,1110053,,,,,,,2025-09-02,1,,,,,シシイノベーションズ,0
1463,7010601067876,新規,0,2025-09-02,2025-09-02,株式会社Ｃｒｏｓｓ　Ｄｅｓｉｇｎ,,株式会社,東京都,墨田区,千歳３丁目９番９号,,13,107,1300025,,,,,,,2025-09-02,1,,,,,クロスデザイン,0
1465,7010801036532,新規,0,2025-09-02,2025-09-02,株式会社ＮＰＣ,,株式会社,東京都,大田区,南六郷１丁目２５番３号永山和俊方,,13,111,1440045,,,,,,,2025-09-02,1,,,,,エヌピーシー,0
1466,7010901058006,新規,0,2025-09-02,2025-09-02,聖株式会社,,株式会社,東京都,世田谷区,太子堂４丁目１８番１５号マガザン三軒茶屋２・３階３,,13,112,1540004,,,,,,,2025-09-02,1,,,,,キヨ,0
1467,7010903010229,新規,0,2025-09-02,2025-09-02,ＲＪ合同会社,,合同会社,東京都,世田谷区,岡本２丁目１６番５－２０２号,,13,112,1570076,,,,,,,2025-09-02,1,,,,,アールジェイ,0
1471,7011001171847,新規,0,2025-09-02,2025-09-02,ＢＮＮ　ＷＯＲＫＳ株式会社,,株式会社,東京都,渋谷区,千駄ヶ谷２丁目３番５号リリーハイツ２０７,,13,113,1510051,,,,,,,2025-09-02,1,,,,,ビーエヌエヌワークス,0
1472,7011003022429,新規,0,2025-09-02,2025-09-02,合同会社Ｂｒｉｇｈｔ,,合同会社,東京都,目黒区,下目黒１丁目１番１４号コノトラビル７Ｆ,,13,110,1530064,,,,,,,2025-09-02,1,,,,,ブライト,0
1478,7011101112908,新規,0,2025-09-02,2025-09-02,株式会社サラ,,株式会社,東京都,新宿区,百人町１丁目３番２８号,,13,104,1690073,,,,,,,2025-09-02,1,,,,,サラ,0
1479,7011101112916,新規,0,2025-09-02,2025-09-02,株式会社Ｂ‐Ｗｉｎｇ,,株式会社,東京都,新宿区,山吹町３３７番地１０エスエイビル３Ｆ,,13,104,1620801,,,,,,,2025-09-02,1,,,,,ビーウィング,0
1480,7011101113006,新規,0,2025-09-02,2025-09-02,株式会社ＳＨＩＮＫＡＩ,,株式会社,東京都,新宿区,西新宿３丁目３番１３号西新宿水間ビル２Ｆ,,13,104,1600023,,,,,,,2025-09-02,1,,,,,シンカイ,0
1481,7011101113022,新規,0,2025-09-02,2025-09-02,株式会社ＮＡＫＡＹＡＭＡ光学,,株式会社,東京都,新宿区,高田馬場３丁目１４番１２号佐成屋ビル３階,,13,104,1690075,,,,,,,2025-09-02,1,,,,,ナカヤマコウガク,0
1482,7011103016264,新規,0,2025-09-02,2025-09-02,ＡＢ　ｓｔｕｄｉｏ合同会社,,合同会社,東京都,新宿区,四谷三栄町１１－１６,,13,104,1600008,,,,,,,2025-09-02,1,,,,,エービースタジオ,0
1483,7011103016314,新規,0,2025-09-02,2025-09-02,合同会社アルク,,合同会社,東京都,新宿区,新宿５丁目１８番２０号ルックハイツ新宿８０３号,,13,104,1600022,,,,,,,2025-09-02,1,,,,,アルク,0
1485,7011301030843,新規,0,2025-09-02,2025-09-02,ＷＯＲＬＤＬＩＮＸ株式会社,,株式会社,東京都,杉並区,梅里１丁目２２－２６－２０２号室,,13,115,1660011,,,,,,,2025-09-02,1,,,,,ワールドリンクス,0
1493,7012703003354,新規,0,2025-09-02,2025-09-02,Ｌｕｍｉｎｏｕｓ合同会社,,合同会社,東京都,西東京市,富士町４丁目１８番１５号第２鳥丸ビル３０１号,,13,229,2020014,,,,,,,2025-09-02,1,,,,,ルミナス,0
1495,7012803003849,新規,0,2025-09-02,2025-09-02,Ａｍｂｉｔｉｏｎ　Ｗｏｒｋｓ合同会社,,合同会社,東京都,国立市,西２丁目２４番地の３９,,13,215,1860005,,,,,,,2025-09-02,1,,,,,アンビションワークス,0
1501,7020001164604,新規,0,2025-09-02,2025-09-02,株式会社琥珀,,株式会社,神奈川県,横浜市神奈川区,大口通８－３,,14,102,2210002,,,,,,,2025-09-02,1,,,,,コハク,0
1502,7020001164620,新規,0,2025-09-02,2025-09-02,西川農機株式会社,,株式会社,神奈川県,川崎市宮前区,犬蔵１丁目２２番２９号,,14,136,2160011,,,,,,,2025-09-02,1,,,,,ニシカワノウキ,0
1503,7020001164645,新規,0,2025-09-02,2025-09-02,トレード株式会社,,株式会社,神奈川県,川崎市幸区,古市場１丁目８番地２,,14,132,2120052,,,,,,,2025-09-02,1,,,,,トレード,0
1504,7020001164661,新規,0,2025-09-02,2025-09-02,ケンコー株式会社,,株式会社,神奈川県,横浜市中区,不老町１丁目１番地５横浜東芝ビル８Ｆ,,14,104,2310032,,,,,,,2025-09-02,1,,,,,ケンコー,0
1506,7020003029292,新規,0,2025-09-02,2025-09-02,アルバトロス合同会社,,合同会社,神奈川県,横浜市神奈川区,西寺尾２丁目３０番７号,,14,102,2210001,,,,,,,2025-09-02,1,,,,,アルバトロス,0
1514,7021001086193,新規,0,2025-09-02,2025-09-02,株式会社ＳＡＳＡＮ,,株式会社,神奈川県,大和市,西鶴間４丁目１６番２０号,,14,213,2420005,,,,,,,2025-09-02,1,,,,,ササン,0
1515,7021005013425,新規,0,2025-09-02,2025-09-02,一般社団法人整形外傷イシュー研究会,,その他の設立登記法人,神奈川県,藤沢市,大鋸１０２４番地の１３,,14,205,2510002,,,,,,,2025-09-02,1,,,,,セイケイガイショウイシューケンキュウカイ,0
1523,7030001168364,新規,0,2025-09-02,2025-09-02,株式会社ＳＧＴホールディングス,,株式会社,埼玉県,北葛飾郡杉戸町,内田２丁目８番１６号,,11,464,3450035,,,,,,,2025-09-02,1,,,,,エスジーティーホールディングス,0
1524,7030001168372,新規,0,2025-09-02,2025-09-02,株式会社ＯＹＡＫＡＴＡＭＡＮＧＲＯＵＰ,,株式会社,埼玉県,桶川市,大字上日出谷１２６９番地の１４５,,11,231,3630026,,,,,,,2025-09-02,1,,,,,オヤカタマングループ,0
1525,7030001168406,新規,0,2025-09-02,2025-09-02,株式会社栄景,,株式会社,埼玉県,川口市,大字峯字後１５０８番地３,,11,203,3340056,,,,,,,2025-09-02,1,,,,,エイケイ,0
1528,7030003027502,新規,0,2025-09-02,2025-09-02,合同会社匠ホーム,,合同会社,埼玉県,上尾市,東町２丁目６番１３－３２,,11,219,3620031,,,,,,,2025-09-02,1,,,,,タクミホーム,0
1529,7030003027510,新規,0,2025-09-02,2025-09-02,Ｘ‐ＴＡＧ　ＭＯＴＯＲＳ合同会社,,合同会社,埼玉県,越谷市,大字小曽川１０２２－２,,11,222,3430802,,,,,,,2025-09-02,1,,,,,エックスタグモータース,0
1533,7040001140272,新規,0,2025-09-02,2025-09-02,潤和商事株式会社,,株式会社,千葉県,千葉市若葉区,西都賀３丁目１１番２号,,12,104,2640026,,,,,,,2025-09-02,1,,,,,ジュンワショウジ,0
1534,7040001140289,新規,0,2025-09-02,2025-09-02,株式会社寅正,,株式会社,千葉県,柏市,青葉台２丁目２５番１３号グリーンヒルＩＩ－２０３号,00140496,12,217,2770055,,,,,,,2025-09-02,1,,,,,トラマサ,0
1535,7040001140306,新規,0,2025-09-02,2025-09-02,株式会社ブランディスタ,,株式会社,千葉県,佐倉市,城内町３３番地３ハイツ鷹匠１０２,,12,212,2850017,,,,,,,2025-09-02,1,,,,,ブランディスタ,0
1536,7040001140330,新規,0,2025-09-02,2025-09-02,株式会社ａｒｉｋａｎｏ　ｄｅｓｉｇｎ　ａｒｃｈｉｔｅｃｔｓ,,株式会社,千葉県,松戸市,紙敷１０６３－１,,12,207,2702221,,,,,,,2025-09-02,1,,,,,アリカノデザインアーキテクツ,0
1539,7040003028367,新規,0,2025-09-02,2025-09-02,合同会社ホームデリバリー,,合同会社,千葉県,八街市,榎戸９１９番地１４,,12,230,2891106,,,,,,,2025-09-02,1,,,,,ホームデリバリー,0
1540,7040003028383,新規,0,2025-09-02,2025-09-02,合同会社ＴＲＩＸ５,,合同会社,千葉県,松戸市,東平賀５７５番地の１エクセレントシティ北小金１０５号,,12,207,2700003,,,,,,,2025-09-02,1,,,,,トリックス,0
1541,7040003028417,新規,0,2025-09-02,2025-09-02,Ｄ・Ｋ・Ｔ・Ｙ合同会社,,合同会社,千葉県,四街道市,鷹の台４丁目１８番１号,,12,228,2840033,,,,,,,2025-09-02,1,,,,,ディーケーティーワイ,0
1543,7050001057202,新規,0,2025-09-02,2025-09-02,株式会社ＮｅｐｈｒｏＩｎｓｉｇｈｔ　Ｍ,,株式会社,茨城県,つくば市,研究学園４丁目３４番地２ウエリスつくば研究学園レジデンス２６０１号,,08,220,3050817,,,,,,,2025-09-02,1,,,,,ネフロインサイトエム,0
1552,7080101025758,新規,0,2025-09-02,2025-09-02,株式会社エヌ・ケー・ケー,,株式会社,静岡県,三島市,加茂５６番地の５,,22,206,4110023,,,,,,,2025-09-02,1,,,,,エヌケーケー,0
1554,7080103003415,新規,0,2025-09-02,2025-09-02,合同会社鬼原創建,,合同会社,静岡県,沼津市,沢田町１－３牧原ビル２０１,,22,203,4100052,,,,,,,2025-09-02,1,,,,,キハラソウケン,0
1555,7080401028147,新規,0,2025-09-02,2025-09-02,株式会社Ｍｏｒｅ　ａｎｄ　Ｂｅｔｔｅｒ,,株式会社,静岡県,浜松市中央区,篠原町２１７２３番地の１,,22,138,4310201,,,,,,,2025-09-02,1,,,,,モアアンドベター,0
1563,7120001279219,新規,0,2025-09-02,2025-09-02,森泉株式会社,,株式会社,大阪府,大阪市西成区,千本北２丁目３２番２２号,,27,122,5570053,,,,,,,2025-09-02,1,,,,,モリイズミ,0
1564,7120001279292,新規,0,2025-09-02,2025-09-02,ＫＡＭＩＴＯ株式会社,,株式会社,大阪府,大阪市天王寺区,夕陽丘町４番２－３号,,27,109,5430075,,,,,,,2025-09-02,1,,,,,カミト,0
1565,7120001279334,新規,0,2025-09-02,2025-09-02,株式会社Ｃｏｍｅ‐ｏｎ．Ｓｔｕｄｉｏ,,株式会社,大阪府,大阪市北区,梅田１丁目２番２号大阪駅前第２ビル１２－１２,,27,127,5300001,,,,,,,2025-09-02,1,,,,,カムオンスタジオ,0
1567,7120003030422,新規,0,2025-09-02,2025-09-02,合同会社Ｖｅｘｔ,,合同会社,大阪府,大阪市中央区,日本橋１丁目２４番６号４０１,,27,128,5420073,,,,,,,2025-09-02,1,,,,,ヴェクスト,0
1568,7120003030488,新規,0,2025-09-02,2025-09-02,合同会社ｈｉｍａｋａｉ　ｅｓｔａｔｅ,,合同会社,大阪府,大阪市淀川区,野中北１丁目６‐３９‐１４０６,,27,123,5320034,,,,,,,2025-09-02,1,,,,,ヒマカイエステート,0
1572,7120103006669,新規,0,2025-09-02,2025-09-02,合同会社ＧＯＫＵ　Ｓｔｕｄｉｏ,,合同会社,大阪府,堺市堺区,榎元町３―４―２４―１,,27,141,5900000,,,,,,,2025-09-02,1,,,,,ゴクスタジオ,0
1579,7122003003300,新規,0,2025-09-02,2025-09-02,合同会社スタートアップ,,合同会社,大阪府,東大阪市,金岡４丁目１３番３号,,27,227,5770823,,,,,,,2025-09-02,1,,,,,スタートアップ,0
1584,7130001080419,新規,0,2025-09-02,2025-09-02,株式会社Ｈｉｎａｒｉ,,株式会社,京都府,京都市北区,紫竹上梅ノ木町２３番地,,26,101,6038179,,,,,,,2025-09-02,1,,,,,ヒナリ,0
1588,7140003022509,新規,0,2025-09-02,2025-09-02,合同会社テイクオン,,合同会社,兵庫県,姫路市,城北新町１丁目１５番３７号,,28,201,6700883,,,,,,,2025-09-02,1,,,,,テイクオン,0
1596,7170003002284,新規,0,2025-09-02,2025-09-02,九屹合同会社,,合同会社,和歌山県,田辺市,東陽１４番Ａ－７０９号,,30,206,6460029,,,,,,,2025-09-02,1,,,,,クゴチ,0
1603,7180001168399,新規,0,2025-09-02,2025-09-02,株式会社ＹＮＵＫ,,株式会社,愛知県,名古屋市昭和区,鶴舞２丁目１６番１３号,,23,107,4660064,,,,,,,2025-09-02,1,,,,,ワイエヌユーケイ,0
1609,7180303006711,新規,0,2025-09-02,2025-09-02,合同会社ＪＡＰＡＮ４ＹＯＵ,,合同会社,愛知県,西尾市,吉良町上横須賀元屋敷４３番地３,,23,213,4440521,,,,,,,2025-09-02,1,,,,,ジャパンフォーユー,0
1610,7190001032488,新規,0,2025-09-02,2025-09-02,株式会社ＯＣＨＴＡ,,株式会社,三重県,津市,白山町八対野１２５番地４,,24,201,5152615,,,,,,,2025-09-02,1,,,,,オクタ,0
1613,7220001026899,新規,0,2025-09-02,2025-09-02,株式会社ＨＫＴ　ＳＴＵＤＩＯ,,株式会社,石川県,金沢市,池田町三番丁２７番地,,17,201,9200985,,,,,,,2025-09-02,1,,,,,エイチケーティースタジオ,0
1616,7240003007383,新規,0,2025-09-02,2025-09-02,合同会社Ｋ＆Ａコンサルティング,,合同会社,広島県,廿日市市,佐方３丁目１２番３５号,,34,213,7380001,,,,,,,2025-09-02,1,,,,,ケーアンドエーコンサルティング,0
1618,7250001021311,新規,0,2025-09-02,2025-09-02,テラスヒ株式会社,,株式会社,山口県,周南市,銀南街２５番地,,35,215,7450031,,,,,,,2025-09-02,1,,,,,テラスヒ,0
1619,7270003001788,新規,0,2025-09-02,2025-09-02,合同会社スライビング,,合同会社,鳥取県,鳥取市,松並町２丁目１６０番地城北ビル２１０号室,,31,201,6800801,,,,,,,2025-09-02,1,,,,,スライビング,0
1623,7290001111265,新規,0,2025-09-02,2025-09-02,株式会社小川,,株式会社,福岡県,福岡市東区,香椎照葉７丁目４番３９号,,40,131,8130017,,,,,,,2025-09-02,1,,,,,オガワ,0
1627,7290003017345,新規,0,2025-09-02,2025-09-02,さくら不動産合同会社,,合同会社,福岡県,飯塚市,新飯塚６番地４,,40,205,8200005,,,,,,,2025-09-02,1,,,,,サクラフドウサン,0
1628,7290005019819,新規,0,2025-09-02,2025-09-02,行政書士法人松尾和博事務所,,その他の設立登記法人,福岡県,福岡市博多区,博多駅前２丁目１０番１２－３１６号ハイラーク博多駅前,,40,132,8120011,,,,,,,2025-09-02,1,,,,,マツオカズヒロジムショ,0
1630,7310003005074,新規,0,2025-09-02,2025-09-02,合同会社あたみ,,合同会社,長崎県,長崎市,さくらの里２丁目２２番１９号,,42,201,8512207,,,,,,,2025-09-02,1,,,,,アタミ,0
1632,7330001033538,新規,0,2025-09-02,2025-09-02,株式会社ワタナベデザイン,,株式会社,熊本県,天草市,本渡町広瀬２２９番地７,,43,215,8630001,,,,,,,2025-09-02,1,,,,,ワタナベデザイン,0
1635,7360001035696,新規,0,2025-09-02,2025-09-02,株式会社言味堂,,株式会社,沖縄県,那覇市,前島２丁目２３番地５号メゾンハピネス３Ｂ号室,,47,201,9000016,,,,,,,2025-09-02,1,,,,,ゲンミドウ,0
1638,7360005007279,新規,0,2025-09-02,2025-09-02,一般社団法人Ｆｌｏｗｅｒ　Ｒａｂｂｉｔ,,その他の設立登記法人,沖縄県,国頭郡金武町,字金武６１６３番地１,,47,314,9041201,,,,,,,2025-09-02,1,,,,,フラワーラビット,0
1639,7370001052996,新規,0,2025-09-02,2025-09-02,株式会社ＡｔｏＺ,,株式会社,宮城県,大崎市,古川福沼３丁目４－３,,04,215,9896105,,,,,,,2025-09-02,1,,,,,エートゥゼット,0
1642,7380001035546,新規,0,2025-09-02,2025-09-02,株式会社ふくぎん地域活性化投資,,株式会社,福島県,福島市,万世町２番５号,,07,201,9608033,,,,,,,2025-09-02,1,,,,,フクギンチイキカッセイカトウシ,0
1647,7430001095163,新規,0,2025-09-02,2025-09-02,株式会社レオアースワン,,株式会社,北海道,苫小牧市,大町１丁目２番６号,,01,213,0530024,,,,,,,2025-09-02,1,,,,,レオアースワン,0
1654,7480001012931,新規,0,2025-09-02,2025-09-02,株式会社ＬＩＦＥ体操クラブ,,株式会社,徳島県,鳴門市,鳴門町高島字北５３４番地,,36,202,7720051,,,,,,,2025-09-02,1,,,,,ライフタイソウクラブ,0
1658,7500001026490,新規,0,2025-09-02,2025-09-02,株式会社弓削水産,,株式会社,愛媛県,越智郡上島町,弓削日比１２２８,,38,356,7942511,,,,,,,2025-09-02,1,,,,,ユゲスイサン,0
1660,7700150132078,新規,0,2025-09-02,2025-09-02,東日物業創建發展有限公司,,外国会社等,,,,,,,,中華人民共和国香港特別行政区九龍長沙灣道７７８－７８４號香港中心２７樓２７０１－０５室,,,,,,2025-09-02,1,,,,,トウニチブツギヨウソウケンハツテンユウゲンコウシ,0
1677,8010005040594,新規,0,2025-09-02,2025-09-02,一般財団法人国分記念財団,,その他の設立登記法人,東京都,中央区,日本橋１丁目１番１号,,13,102,1030027,,,,,,,2025-09-02,1,,,,,コクブキネンザイダン,0
1678,8010005040603,新規,0,2025-09-02,2025-09-02,一般社団法人オーナーシップ・ワークス・ジャパン,,その他の設立登記法人,東京都,千代田区,丸の内２丁目１番１号,,13,101,1000005,,,,,,,2025-09-02,1,,,,,オーナーシップワークスジャパン,0
1693,8010405024643,新規,0,2025-09-02,2025-09-02,一般社団法人日本先進医療・教育推進機構,,その他の設立登記法人,東京都,港区,浜松町１丁目２７番４号神丸ビル５Ｆ,,13,103,1050013,,,,,,,2025-09-02,1,,,,,ニホンセンシンイリョウキョウイクスイシンキコウ,0
1694,8010405024734,新規,0,2025-09-02,2025-09-02,医療法人社団Ｇｌｅａｍ,,その他の設立登記法人,東京都,港区,白金台３丁目１５番２号マスレンビル２階,,13,103,1080071,,,,,,,2025-09-02,1,,,,,グリーム,0
1697,8010501054643,新規,0,2025-09-02,2025-09-02,九花株式会社,,株式会社,東京都,台東区,上野２丁目１－１０,,13,106,1100005,,,,,,,2025-09-02,1,,,,,キュウバナ,0
1699,8010601067850,新規,0,2025-09-02,2025-09-02,株式会社長期修繕計画研究所,,株式会社,東京都,江東区,塩浜１丁目５番３０－５０７号,,13,108,1350043,,,,,,,2025-09-02,1,,,,,チョウキシュウゼンケイカクケンキュウジョ,0
1701,8010701048239,新規,0,2025-09-02,2025-09-02,株式会社８ｓｅｃ,,株式会社,東京都,品川区,西中延１丁目２番２８号,,13,109,1420054,,,,,,,2025-09-02,1,,,,,エイトセック,0
1702,8010801036531,新規,0,2025-09-02,2025-09-02,株式会社エイト,,株式会社,東京都,大田区,中央７丁目５番６号山本ビル１Ｆ,,13,111,1430024,,,,,,,2025-09-02,1,,,,,エイト,0
1709,8011001171722,新規,0,2025-09-02,2025-09-02,ぷちぷち株式会社,,株式会社,東京都,渋谷区,神南１丁目１１－４ＦＰＧリンクス神南５階,,13,113,1500041,,,,,,,2025-09-02,1,,,,,プチプチ,0
1710,8011001171730,新規,0,2025-09-02,2025-09-02,株式会社ＤａｉＬＹ　ＵＰ,,株式会社,東京都,渋谷区,桜丘町１８－４二宮ビル１Ｆ－８８,,13,113,1500031,,,,,,,2025-09-02,1,,,,,デイリーアップ,0
1711,8011001171739,新規,0,2025-09-02,2025-09-02,株式会社セノビット,,株式会社,東京都,渋谷区,東１丁目２６番２０号,,13,113,1500011,,,,,,,2025-09-02,1,,,,,セノビット,0
1713,8011101112824,新規,0,2025-09-02,2025-09-02,株式会社ｃａｎｏ,,株式会社,東京都,新宿区,舟町七丁目４６番２０１号,,13,104,1600006,,,,,,,2025-09-02,1,,,,,カーニョ,0
1714,8011101112840,新規,0,2025-09-02,2025-09-02,株式会社Ｇｌｅａｍ,,株式会社,東京都,新宿区,西新宿８丁目１４番２７－８０２号パークタワー西新宿エムズポート,,13,104,1600023,,,,,,,2025-09-02,1,,,,,グリーム,0
1715,8011101112964,新規,0,2025-09-02,2025-09-02,ＢＡＲ　ＭＡ　ＳＯ株式会社,,株式会社,東京都,新宿区,高田馬場２丁目１９番７号タックイレブンビル９０４号,,13,104,1690075,,,,,,,2025-09-02,1,,,,,バマソ,0
1716,8011103016313,新規,0,2025-09-02,2025-09-02,Ｌｉｂｒａｒｉｅ　Ｍｅｄｉａ　Ｍａｎａｇｅｍｅｎｔ合同会社,,合同会社,東京都,新宿区,西新宿８丁目１１番１０号,,13,104,1600023,,,,,,,2025-09-02,1,,,,,ライブラリーメディアマネジメント,0
1721,8011501032507,新規,0,2025-09-02,2025-09-02,ビルコンホールディングス株式会社,,株式会社,東京都,北区,田端２丁目３番１８号,,13,117,1140014,,,,,,,2025-09-02,1,,,,,ビルコンホールディングス,0
1724,8011801046660,新規,0,2025-09-02,2025-09-02,小満家株式会社,,株式会社,東京都,足立区,東綾瀬２丁目３番５号７０１号室,,13,121,1200004,,,,,,,2025-09-02,1,,,,,ショウマンケ,0
1729,8012403007316,新規,0,2025-09-02,2025-09-02,合同会社ジョワドヴィーヴル,,合同会社,東京都,府中市,住吉町１丁目２３番地の３プランドール住吉２０９,,13,206,1830034,,,,,,,2025-09-02,1,,,,,ジョワドヴィーヴル,0
1731,8012703003361,新規,0,2025-09-02,2025-09-02,合同会社ｄｏｔＪｏｉｎ,,合同会社,東京都,東久留米市,南沢４丁目９―４３,,13,222,2030023,,,,,,,2025-09-02,1,,,,,ドットジョイン,0
1734,8020001164594,新規,0,2025-09-02,2025-09-02,ＵｔｏＣａｐ株式会社,,株式会社,神奈川県,横浜市青葉区,元石川町３７１３番地１０,,14,117,2250004,,,,,,,2025-09-02,1,,,,,ユートゥーキャップ,0
1737,8020003029226,新規,0,2025-09-02,2025-09-02,Ｐｏｓｔｅｒａｒｙ合同会社,,合同会社,神奈川県,横浜市中区,尾上町４丁目５７横浜尾上町ビルディング８階,,14,104,2310015,,,,,,,2025-09-02,1,,,,,ポストロリー,0
1749,8030001168339,新規,0,2025-09-02,2025-09-02,株式会社アリ,,株式会社,埼玉県,川口市,上青木１丁目２０番１８号,,11,203,3330844,,,,,,,2025-09-02,1,,,,,アリ,0
1750,8030001168363,新規,0,2025-09-02,2025-09-02,株式会社豊岡智之,,株式会社,埼玉県,越谷市,大字向畑７４３番地６,,11,222,3430007,,,,,,,2025-09-02,1,,,,,トヨオカトモユキ,0
1751,8030001168371,新規,0,2025-09-02,2025-09-02,株式会社エコカク,,株式会社,埼玉県,越谷市,大字上間久里１０５１番地２三井千間台ハイツ４１５号,,11,222,3430043,,,,,,,2025-09-02,1,,,,,エコカク,0
1752,8030001168396,新規,0,2025-09-02,2025-09-02,株式会社金子ファーム,,株式会社,埼玉県,川越市,仙波町４丁目５番地３,,11,201,3500034,,,,,,,2025-09-02,1,,,,,カネコファーム,0
1753,8030001168405,新規,0,2025-09-02,2025-09-02,株式会社ＲＡＩＮ　ＴＩＭＥ,,株式会社,埼玉県,蕨市,中央２丁目５－１８蕨パークホームズ９０５号室,,11,223,3350004,,,,,,,2025-09-02,1,,,,,レインタイム,0
1754,8030001168421,新規,0,2025-09-02,2025-09-02,旭和株式会社,,株式会社,埼玉県,川口市,上青木２丁目１３番１７－３号,,11,203,3330844,,,,,,,2025-09-02,1,,,,,キョクワ,0
1755,8030001168446,新規,0,2025-09-02,2025-09-02,株式会社ＴＨＥ　Ｃｗｏｒｋｓ,,株式会社,埼玉県,ふじみ野市,上福岡１丁目４－３ユーコート上福岡１０１号室,,11,245,3560004,,,,,,,2025-09-02,1,,,,,ザシーワークス,0
1763,8040001140321,新規,0,2025-09-02,2025-09-02,株式会社スクエアーワン,,株式会社,千葉県,柏市,松葉町４丁目１０番地,,12,217,2770827,,,,,,,2025-09-02,1,,,,,スクエアーワン,0
1765,8040003028382,新規,0,2025-09-02,2025-09-02,合同会社ホランジュ,,合同会社,千葉県,流山市,鰭ケ崎４３３番地,,12,220,2700161,,,,,,,2025-09-02,1,,,,,ホランジュ,0
1772,8070001043298,新規,0,2025-09-02,2025-09-02,株式会社０２７,,株式会社,群馬県,高崎市,倉賀野町４６７８－３・２Ｆ,,10,202,3701201,,,,,,,2025-09-02,1,,,,,,0
1773,8070003006063,新規,0,2025-09-02,2025-09-02,合同会社ＢＴＳ,,合同会社,群馬県,前橋市,千代田町５丁目１３番地９,,10,201,3710022,,,,,,,2025-09-02,1,,,,,ビーティーエス,0
1775,8080003003539,新規,0,2025-09-02,2025-09-02,合同会社静岡書籍通信販売,,合同会社,静岡県,牧之原市,細江１３８８－１,,22,226,4210421,,,,,,,2025-09-02,1,,,,,シズオカショセキツウシンハンバイ,0
1779,8100001038906,新規,0,2025-09-02,2025-09-02,株式会社Ｊｏｂ‐Ｑｕａｌｉｔｙ,,株式会社,長野県,佐久市,中込２３３６－１ワークテラス佐久,,20,217,3850051,,,,,,,2025-09-02,1,,,,,ジョブクオリティ,0
1795,8120001278632,新規,0,2025-09-02,2025-09-02,Ｌｕｎａ株式会社,,株式会社,大阪府,大阪市北区,兎我野町１３－６東梅田皆楽ビル２０１号,,27,127,5300056,,,,,,,2025-09-02,1,,,,,ルナ,0
1796,8120001279176,新規,0,2025-09-02,2025-09-02,株式会社ブライト,,株式会社,大阪府,門真市,柳田町８番３号,,27,223,5710038,,,,,,,2025-09-02,1,,,,,ブライト,0
1803,8120003030421,新規,0,2025-09-02,2025-09-02,合同会社ＭＯ,,合同会社,大阪府,大阪市浪速区,元町１丁目２番９号タナカビル３Ｆ－Ａ号,,27,111,5560016,,,,,,,2025-09-02,1,,,,,エムオー,0
1804,8120003030520,新規,0,2025-09-02,2025-09-02,合同会社ＨＳＴ,,合同会社,大阪府,大阪市住吉区,我孫子東２丁目２番１４号,,27,120,5580013,,,,,,,2025-09-02,1,,,,,エイチエスティ,0
1811,8122001039601,新規,0,2025-09-02,2025-09-02,株式会社関西ハウスメンテナンス,,株式会社,大阪府,八尾市,植松町８丁目１番２２号,,27,212,5810084,,,,,,,2025-09-02,1,,,,,カンサイハウスメンテナンス,0
1822,8140001139816,新規,0,2025-09-02,2025-09-02,さくら綜合サービス株式会社,,株式会社,兵庫県,西宮市,名塩赤坂１５番２９号,,28,204,6691149,,,,,,,2025-09-02,1,,,,,サクラソウゴウサービス,0
1823,8140001139824,新規,0,2025-09-02,2025-09-02,株式会社くにうみ,,株式会社,兵庫県,神戸市中央区,磯辺通１丁目１番１８号カサベラ国際プラザビル７０７,,28,110,6510084,,,,,,,2025-09-02,1,,,,,クニウミ,0
1824,8140001139865,新規,0,2025-09-02,2025-09-02,株式会社ＳＢＩ,,株式会社,兵庫県,姫路市,四郷町山脇５６１－１,,28,201,6710248,,,,,,,2025-09-02,1,,,,,エスビーアイ,0
1826,8140003022516,新規,0,2025-09-02,2025-09-02,合同会社ＲｅｌａｔｉｏｎＬａｐｉｎ,,合同会社,兵庫県,神戸市中央区,磯辺通１丁目１番１８号カサベラ国際プラザビル７０７号室,,28,110,6510084,,,,,,,2025-09-02,1,,,,,リレーションラパン,0
1829,8150003003688,新規,0,2025-09-02,2025-09-02,合同会社ＡＳＴ,,合同会社,奈良県,大和郡山市,小泉町５４８－２,,29,203,6391042,,,,,,,2025-09-02,1,,,,,アスト,0
1831,8170001018769,新規,0,2025-09-02,2025-09-02,しらまグリーンエナジー株式会社,,株式会社,和歌山県,日高郡日高川町,大字平川字小山１１３６番地２,,30,392,6491311,,,,,,,2025-09-02,1,,,,,シラマグリーンエナジー,0
1842,8180001168365,新規,0,2025-09-02,2025-09-02,ベストパートナー株式会社,,株式会社,愛知県,犬山市,大字犬山字寺下５７番地１,,23,215,4840081,,,,,,,2025-09-02,1,,,,,ベストパートナー,0
1843,8180001168373,新規,0,2025-09-02,2025-09-02,株式会社ヴィヴァーチェ,,株式会社,愛知県,愛西市,町方町地官９２番地１,,23,232,4968014,,,,,,,2025-09-02,1,,,,,ヴィヴァーチェ,0
1846,8180003028955,新規,0,2025-09-02,2025-09-02,合同会社Ｇ・Ｅ・Ｃ,,合同会社,愛知県,春日井市,牛山町１７８―３,,23,206,4860901,,,,,,,2025-09-02,1,,,,,ジーイーシー,0
1848,8190001032495,新規,0,2025-09-02,2025-09-02,株式会社Ｌｉｂｅｒｔｙ,,株式会社,三重県,四日市市,波木が丘町３１番地１５,,24,202,5100962,,,,,,,2025-09-02,1,,,,,リバティ,0
1853,8200003006999,新規,0,2025-09-02,2025-09-02,千隆美装合同会社,,合同会社,岐阜県,各務原市,鵜沼三ツ池町１丁目１２８番地藤和シティコープ各務原２０５号,,21,213,5090146,,,,,,,2025-09-02,1,,,,,センリュウビソウ,0
1854,8200003007007,新規,0,2025-09-02,2025-09-02,オオタカンテイ合同会社,,合同会社,岐阜県,各務原市,那加信長町２丁目１３番地,,21,213,5040909,,,,,,,2025-09-02,1,,,,,オオタカンテイ,0
1858,8230001021056,新規,0,2025-09-02,2025-09-02,株式会社リミナルポータル,,株式会社,富山県,富山市,稲荷町２丁目２番１６号,,16,201,9300012,,,,,,,2025-09-02,1,,,,,リミナルポータル,0
1859,8240003007382,新規,0,2025-09-02,2025-09-02,合同会社ｓｉｌｅｎｔ,,合同会社,広島県,福山市,木之庄町１丁目４番３７号,,34,207,7200082,,,,,,,2025-09-02,1,,,,,サイレント,0
1868,8290001111306,新規,0,2025-09-02,2025-09-02,ＦＵＢＬＥＶ　Ｇｒｏｕｐ株式会社,,株式会社,福岡県,福岡市博多区,博多駅前１丁目２３番２号ＰａｒｋＦｒｏｎｔ博多駅前一丁目５Ｆ－Ｂ,,40,132,8120011,,,,,,,2025-09-02,1,,,,,ファブレヴグループ,0
1869,8290801031819,新規,0,2025-09-02,2025-09-02,株式会社リペア住設,,株式会社,福岡県,鞍手郡鞍手町,大字中山３９２３番地４６５,,40,402,8071312,,,,,,,2025-09-02,1,,,,,リペアジュウセツ,0
1872,8330003011193,新規,0,2025-09-02,2025-09-02,合同会社バケーション,,合同会社,熊本県,熊本市南区,出仲間１丁目６番５号,,43,104,8620963,,,,,,,2025-09-02,1,,,,,バケーション,0
1877,8350002019054,新規,0,2025-09-02,2025-09-02,有限会社銀鏡川淡水漁業,,有限会社,宮崎県,西都市,大字銀鏡６９０番地,,45,208,8811232,,,,,,,2025-09-02,1,,,,,シロミガワタンスイギョギョウ,0
1880,8360003015200,新規,0,2025-09-02,2025-09-02,合同会社アップスタイル,,合同会社,沖縄県,那覇市,安里２丁目７番１８－７０５号Ｙ’ｓＥＣ安里国際通り,,47,201,9020067,,,,,,,2025-09-02,1,,,,,アップスタイル,0
1884,8380001035545,新規,0,2025-09-02,2025-09-02,株式会社さくらの杜,,株式会社,福島県,石川郡石川町,字鹿ノ坂２８４番地,,07,501,9637862,,,,,,,2025-09-02,1,,,,,サクラノモリ,0
1891,8410003004148,新規,0,2025-09-02,2025-09-02,Ｓｈａｒｅ　Ｆｏｒｅｓｔ合同会社,,合同会社,秋田県,南秋田郡五城目町,字下タ町１７番地４,,05,361,0181706,,,,,,,2025-09-02,1,,,,,シェアフォレスト,0
1898,8430003018030,新規,0,2025-09-02,2025-09-02,合同会社ｌａｕｌｅａ,,合同会社,北海道,札幌市白石区,東札幌五条３丁目２－２０－１０２,,01,104,0030005,,,,,,,2025-09-02,1,,,,,ラウレア,0
1909,8700150132060,新規,0,2025-09-02,2025-09-02,ＩＭＰＡＬＡ　ＭＯＴＯＲ　ＭＡＲＴ,,外国会社等,千葉県,山武市,大木６５０番地９オフィス４,,12,237,2891211,スリランカ民主社会主義共和国、クリヤピティヤ、ビギンヘルロード、Ｎｏ．１４０／１,,,,,,2025-09-02,1,,,,,インパラモーターマート,0
1910,8700150132069,新規,0,2025-09-02,2025-09-02,Ｃｈａｒｔｍｅｔｒｉｃ，Ｉｎｃ,,外国会社等,,,,,,,,７２　Ｅ　３ｒｄ　Ａｖｅ　Ｓａｎ　Ｍａｔｅｏ，ＣＡ　９４４０１,,,,,,2025-09-02,1,,,,,チヤートメトリツクインク,0
1911,8700150132077,新規,0,2025-09-02,2025-09-02,ＣＲＥＡＴＩＶＥ　ＩＮＦＩＮＩＴＹ　ＬＩＭＩＴＥＤ,,外国会社等,,,,,,,,Ｍａｎｄａｒ　Ｈｏｕｓｅ，３ｒｄ　Ｆｌｏｏｒ，Ｊｏｈｎｓｏｎ’ｓ　Ｇｈｕｔ，Ｔｏｒｔｏｌａ，Ｂｒｉｔｉｓｈ　Ｖｉｒｇｉｎ　Ｉｓｌａｎｄｓ,,,,,,2025-09-02,1,,,,,クリエイテイブインフイニテイリミテツド,0
1919,9010001258058,新規,0,2025-09-02,2025-09-02,Ｐｌｕｓ　Ｉｎｓｉｇｈｔ株式会社,,株式会社,東京都,千代田区,神田和泉町１番地６－１６ヤマトビル４０５,,13,101,1010024,,,,,,,2025-09-02,1,,,,,プラスインサイト,0
1925,9010401192617,新規,0,2025-09-02,2025-09-02,株式会社アルゴベア,,株式会社,東京都,港区,北青山１丁目３番１号アールキューブ青山３階,,13,103,1070061,,,,,,,2025-09-02,1,,,,,アルゴベア,0
1926,9010401192749,新規,0,2025-09-02,2025-09-02,ＰＡＴＩＯＬＡ株式会社,,株式会社,東京都,港区,北青山１丁目３－３三橋ビル３階,,13,103,1070061,,,,,,,2025-09-02,1,,,,,パティオラ,0
1935,9010601067866,新規,0,2025-09-02,2025-09-02,株式会社Ｏｌｉｖｅコンサルティング,,株式会社,東京都,江東区,豊洲２丁目２番３１号,,13,108,1350061,,,,,,,2025-09-02,1,,,,,オリーブコンサルティング,0
1940,9010603011756,新規,0,2025-09-02,2025-09-02,ＰＡＮ　ＭＯＨ　ＭＯＨ合同会社,,合同会社,東京都,江東区,亀戸７丁目５０番２－アーテプルミエ４０４号,,13,108,1360071,,,,,,,2025-09-02,1,,,,,パンモモ,0
1942,9010701048238,新規,0,2025-09-02,2025-09-02,東京信友株式会社,,株式会社,東京都,品川区,西五反田２丁目１５－２－７０３号室,,13,109,1410031,,,,,,,2025-09-02,1,,,,,トウキョウシンユウ,0
1943,9010801036539,新規,0,2025-09-02,2025-09-02,林建設株式会社,,株式会社,東京都,大田区,蒲田５丁目２１番１３号,,13,111,1440052,,,,,,,2025-09-02,1,,,,,ハヤシケンセツ,0
1958,9011001171696,新規,0,2025-09-02,2025-09-02,株式会社Ａｒｆｉｎｏ,,株式会社,東京都,渋谷区,渋谷２丁目１９番１５号宮益坂ビルディング６０９,,13,113,1500002,,,,,,,2025-09-02,1,,,,,アルフィーノ,0
1959,9011001171705,新規,0,2025-09-02,2025-09-02,Ｓｅｓｓｉｏｎコンサルティング株式会社,,株式会社,東京都,渋谷区,道玄坂１丁目１６番６号二葉ビル８ｂ,,13,113,1500043,,,,,,,2025-09-02,1,,,,,セッションコンサルティング,0
1960,9011001171713,新規,0,2025-09-02,2025-09-02,株式会社鼓舞,,株式会社,東京都,目黒区,大橋１丁目５番１－１５０２号,,13,110,1530044,,,,,,,2025-09-02,1,,,,,コブ,0
1961,9011003022278,新規,0,2025-09-02,2025-09-02,ＹＰＣ合同会社,,合同会社,東京都,渋谷区,大山町２０番１１－１０２号,,13,113,1510065,,,,,,,2025-09-02,1,,,,,ワイピーシー,0
1962,9011101112955,新規,0,2025-09-02,2025-09-02,株式会社高六商事,00140493,株式会社,東京都,新宿区,高田馬場３丁目１番５号サンパティオ高田馬場３０９号室,,13,104,1690075,,,,,,,2025-09-02,1,,,,,タカロクショウジ,0
1963,9011101113012,新規,0,2025-09-02,2025-09-02,フォー・ディー・コーポレーション株式会社,,株式会社,東京都,新宿区,新宿３丁目１７番５号,,13,104,1600022,,,,,,,2025-09-02,1,,,,,フォーディーコーポレーション,0
1964,9011103016295,新規,0,2025-09-02,2025-09-02,合同会社ＶＩＴＯＺ,,合同会社,東京都,新宿区,下落合１丁目３－６ハイシティ高田馬場２１３,,13,104,1610033,,,,,,,2025-09-02,1,,,,,ヴィトズ,0
1967,9011301030841,新規,0,2025-09-02,2025-09-02,株式会社ＫＯＫＯＤＡＫＥ,,株式会社,東京都,杉並区,南荻窪４丁目６番２号,,13,115,1670052,,,,,,,2025-09-02,1,,,,,ココダケ,0
1971,9011601028932,新規,0,2025-09-02,2025-09-02,株式会社Ｓｕｒｒｅｙ,,株式会社,東京都,練馬区,早宮３丁目９番３号,,13,120,1790085,,,,,,,2025-09-02,1,,,,,サリー,0
1974,9011701028675,新規,0,2025-09-02,2025-09-02,株式会社光吾設備,,株式会社,東京都,江戸川区,本一色１丁目２７番１５号,,13,123,1330044,,,,,,,2025-09-02,1,,,,,コウゴセツビ,0
1979,9012701019045,新規,0,2025-09-02,2025-09-02,株式会社Ａ．Ｋ．Ｓ．,,株式会社,東京都,清瀬市,元町１丁目１４番２２－２０２号スカイマンション,,13,221,2040021,,,,,,,2025-09-02,1,,,,,エイケイエス,0
1985,9020001164619,新規,0,2025-09-02,2025-09-02,株式会社田中,,株式会社,神奈川県,横浜市都筑区,見花山３１番４号,,14,118,2240066,,,,,,,2025-09-02,1,,,,,タナカ,0
1988,9020003029274,新規,0,2025-09-02,2025-09-02,Ｆｕｎｏｖａｔｅ　Ｔｅｃｈｎｏｌｏｇｙ合同会社,,合同会社,神奈川県,横浜市神奈川区,神奈川２丁目１９番地７－７０４,,14,102,2210045,,,,,,,2025-09-02,1,,,,,ファノベートテクノロジー,0
1989,9020005016956,新規,0,2025-09-02,2025-09-02,税理士法人伊澤会計,,その他の設立登記法人,神奈川県,川崎市麻生区,万福寺１丁目１５番１号シャトーコア２階Ｂ号室,,14,137,2150004,,,,,,,2025-09-02,1,,,,,イサワカイケイ,0
1994,9021003016452,新規,0,2025-09-02,2025-09-02,合同会社グミ,,合同会社,神奈川県,三浦市,南下浦町上宮田３２０２番地１４リステージ三浦海岸８０３,,14,210,2380101,,,,,,,2025-09-02,1,,,,,グミ,0
1995,9021003016485,新規,0,2025-09-02,2025-09-02,合同会社ＳｔａｙＴｕｎｅ,,合同会社,神奈川県,厚木市,栄町２丁目２番３０－１１０号,,14,212,2430017,,,,,,,2025-09-02,1,,,,,ステイチューン,0
1996,9021005013423,新規,0,2025-09-02,2025-09-02,一般社団法人グッティグループ,,その他の設立登記法人,神奈川県,大和市,中央４丁目１番２４号セントラルフォートビル４０２,,14,213,2420021,,,,,,,2025-09-02,1,,,,,グッティグループ,0
2007,9030001168370,新規,0,2025-09-02,2025-09-02,株式会社ＮＭＳ,,株式会社,埼玉県,ふじみ野市,上福岡１丁目６番２３号ＭＤビル４０４,,11,245,3560004,,,,,,,2025-09-02,1,,,,,エヌエムエス,0
2008,9030001168404,新規,0,2025-09-02,2025-09-02,アジャズジャパン株式会社,,株式会社,埼玉県,草加市,草加２丁目１３番２１－７号,,11,221,3400043,,,,,,,2025-09-02,1,,,,,アジャズジャパン,0
2017,9040001140254,新規,0,2025-09-02,2025-09-02,株式会社Ｌｕｍｉｎｏｕｓ,,株式会社,千葉県,千葉市美浜区,打瀬１丁目２番地２セントラルパーク・イーストＧ棟８０１号,,12,106,2610013,,,,,,,2025-09-02,1,,,,,ルミナス,0
2018,9040001140262,新規,0,2025-09-02,2025-09-02,株式会社ＴＲＩＤＥ,,株式会社,千葉県,我孫子市,岡発戸９１３番地の７,,12,222,2701137,,,,,,,2025-09-02,1,,,,,トライド,0
2028,9060001038538,新規,0,2025-09-02,2025-09-02,株式会社オーロラジャパン,,株式会社,栃木県,宇都宮市,松原２丁目５番２８号,,09,201,3200041,,,,,,,2025-09-02,1,,,,,オーロラジャパン,0
2030,9070001043289,新規,0,2025-09-02,2025-09-02,株式会社Ｅｆｆｏｎ,,株式会社,群馬県,渋川市,赤城町溝呂木５１５番地７,,10,208,3791115,,,,,,,2025-09-02,1,,,,,エフォン,0
2032,9070005010426,新規,0,2025-09-02,2025-09-02,特定非営利活動法人太陽の色,,その他の設立登記法人,群馬県,伊勢崎市,大手町８番地１７,,10,204,3720048,,,,,,,2025-09-02,1,,,,,,0
2034,9080001027118,新規,0,2025-09-02,2025-09-02,株式会社静康,,株式会社,静岡県,静岡市葵区,七間町５番地の１チサンマンション七間町,,22,101,4200035,,,,,,,2025-09-02,1,,,,,セイコウ,0
2035,9080005007719,新規,0,2025-09-02,2025-09-02,特定非営利活動法人ＵＬＴＩＭＡＴＥＳ,,その他の設立登記法人,静岡県,藤枝市,高洲１丁目３番２０号,,22,214,4260046,,,,,,,2025-09-02,1,,,,,アルティメッツ,0
2036,9080101025756,新規,0,2025-09-02,2025-09-02,株式会社大成エステート,,株式会社,静岡県,沼津市,岡宮１０１２番地の１,,22,203,4100011,,,,,,,2025-09-02,1,,,,,タイセイエステート,0
2037,9080101025764,新規,0,2025-09-02,2025-09-02,株式会社伊豆将,,株式会社,静岡県,伊東市,岡１３４７番地の７４,,22,208,4140055,,,,,,,2025-09-02,1,,,,,イズマサ,0
2039,9080401028153,新規,0,2025-09-02,2025-09-02,株式会社ａｓｃ,,株式会社,静岡県,浜松市中央区,鍛冶町１４０番地Ｃビル４Ｆ,,22,138,4300933,,,,,,,2025-09-02,1,,,,,エーエスシー,0
2040,9080403005340,新規,0,2025-09-02,2025-09-02,松幸合同会社,,合同会社,静岡県,浜松市中央区,西ケ崎町１６８３番地,,22,138,4313115,,,,,,,2025-09-02,1,,,,,マツコウ,0
2042,9090003002885,新規,0,2025-09-02,2025-09-02,ＩＭエンジェルズ合同会社,,合同会社,山梨県,北杜市,高根町清里３５４５番地７６９,,19,209,4070301,,,,,,,2025-09-02,1,,,,,,0
2043,9100002039407,新規,0,2025-09-02,2025-09-02,有限会社原田屋土木工業,,有限会社,長野県,上高井郡小布施町,大字押羽４１４番地,,20,541,3810207,,,,,,,2025-09-02,1,,,,,ハラタヤドボクコウギョウ,0
2053,9120001279200,新規,0,2025-09-02,2025-09-02,阪雅株式会社,,株式会社,大阪府,大阪市住之江区,御崎１丁目１１番１９－３０８号,,27,125,5590013,,,,,,,2025-09-02,1,,,,,ハンガ,0
2054,9120001279209,新規,0,2025-09-02,2025-09-02,澤煕株式会社,,株式会社,大阪府,大阪市淀川区,木川東２丁目１５－１３－３０５号室,,27,123,5320012,,,,,,,2025-09-02,1,,,,,サワキ,0
2055,9120001279233,新規,0,2025-09-02,2025-09-02,株式会社木場防水工業,,株式会社,大阪府,枚方市,交北１丁目５番２０－２０１号,,27,210,5731161,,,,,,,2025-09-02,1,,,,,コバボウスイコウギョウ,0
2061,9120005025138,新規,0,2025-09-02,2025-09-02,シオン司法書士法人,,その他の設立登記法人,大阪府,枚方市,新町１丁目９番１１号,,27,210,5731191,,,,,,,2025-09-02,1,,,,,シオン,0
2069,9130001080425,新規,0,2025-09-02,2025-09-02,株式会社Ｂｅｌｌｅｓｉａ,,株式会社,京都府,亀岡市,保津町下大年４－１,,26,206,6210005,,,,,,,2025-09-02,1,,,,,ベルシア,0
2076,9140003022507,新規,0,2025-09-02,2025-09-02,合同会社森永計算所,,合同会社,兵庫県,伊丹市,稲野町６丁目６７番地１,,28,207,6640861,,,,,,,2025-09-02,1,,,,,モリナガケイサンショ,0
2084,9180001168422,新規,0,2025-09-02,2025-09-02,株式会社シェーヌ,,株式会社,愛知県,知多郡武豊町,字天神前１丁目１１６番地,,23,447,4702327,,,,,,,2025-09-02,1,,,,,シェーヌ,0
2090,9180003028962,新規,0,2025-09-02,2025-09-02,エムティーエス合同会社,,合同会社,愛知県,名古屋市中村区,名駅４丁目２４番５号第２森ビル４０１,,23,105,4500002,,,,,,,2025-09-02,1,,,,,エムティーエス,0
2091,9180301040149,新規,0,2025-09-02,2025-09-02,株式会社Ｓ‐ＵＮＩＴＥ,,株式会社,愛知県,豊田市,志賀町高洞１１番地４６,,23,211,4710802,,,,,,,2025-09-02,1,,,,,エスユナイト,0
2095,9190001032494,新規,0,2025-09-02,2025-09-02,株式会社松田設備,,株式会社,三重県,四日市市,伊坂台１丁目２５５番地１,,24,202,5128066,,,,,,,2025-09-02,1,,,,,マツダセツビ,0
2101,9220001026897,新規,0,2025-09-02,2025-09-02,株式会社木地屋,,株式会社,石川県,輪島市,三井町内屋ハゼノキ７５番地,,17,204,9292374,,,,,,,2025-09-02,1,,,,,キジヤ,0
2103,9230003002490,新規,0,2025-09-02,2025-09-02,合同会社茶寮和香,,合同会社,富山県,高岡市,金屋本町２番２６号,,16,202,9330945,,,,,,,2025-09-02,1,,,,,サリョウニコカ,0
2107,9270001009278,新規,0,2025-09-02,2025-09-02,株式会社Ｅａｒｔｈｌａｂｏ,,株式会社,鳥取県,鳥取市,河原町布袋５１８番地３,,31,201,6801202,,,,,,,2025-09-02,1,,,,,アースラボ,0
2114,9290001111247,新規,0,2025-09-02,2025-09-02,株式会社Ｘ,,株式会社,福岡県,久留米市,合川町１１４番地１サクセス７５Ａ号室,,40,203,8390861,,,,,,,2025-09-02,1,,,,,,0
2115,9290001111296,新規,0,2025-09-02,2025-09-02,ダブルプラス株式会社,,株式会社,福岡県,福岡市西区,姪浜駅南４丁目１６番２１号,,40,135,8190006,,,,,,,2025-09-02,1,,,,,ダブルプラス,0
2116,9290001111338,新規,0,2025-09-02,2025-09-02,株式会社Ｔｏｉｓｈｉ,,株式会社,福岡県,福岡市早良区,東入部２丁目８番４号,,40,137,8111102,,,,,,,2025-09-02,1,,,,,トイシ,0
2117,9290001111354,新規,0,2025-09-02,2025-09-02,Ａｍｂｅｒ　Ｓｔｕｄｉｏ株式会社,,株式会社,福岡県,福岡市南区,多賀１丁目４－２５多賀荘２０３号室,,40,134,8150072,,,,,,,2025-09-02,1,,,,,アンバースタジオ,0
2118,9290003017335,新規,0,2025-09-02,2025-09-02,善念合同会社,,合同会社,福岡県,福岡市東区,箱崎４丁目２５番１０号アメニティライフ４０２号室,,40,131,8120053,,,,,,,2025-09-02,1,,,,,ゼンネン,0
2133,9360001035694,新規,0,2025-09-02,2025-09-02,株式会社アイランドアース,,株式会社,沖縄県,那覇市,久米２丁目３－１５ＪＲ九州那覇ビル５階,,47,201,9000033,,,,,,,2025-09-02,1,,,,,アイランドアース,0
2134,9360003015216,新規,0,2025-09-02,2025-09-02,合同会社ＥＫ１０３,,合同会社,沖縄県,浦添市,伊祖１丁目１２番６号,,47,208,9012132,,,,,,,2025-09-02,1,,,,,イーケイイチマルサン,0
2136,9370001052986,新規,0,2025-09-02,2025-09-02,株式会社丸岡,,株式会社,宮城県,大崎市,古川下中目字町浦１７番地３,,04,215,9896123,,,,,,,2025-09-02,1,,,,,マルオカ,0
2142,9400005008510,新規,0,2025-09-02,2025-09-02,一般社団法人ｍａｄｅ　ｉｎ　ｍｏｒｉｏｋａ,,その他の設立登記法人,岩手県,盛岡市,北飯岡１丁目２番１０号,,03,201,0200857,,,,,,,2025-09-02,1,,,,,メイドインモリオカ,0
2149,9700150132068,新規,0,2025-09-02,2025-09-02,詠盛投資股斌有限公司,00140491,外国会社等,,,,,,,,臺北市中山區南京東路２段２０６號７樓,,,,,,2025-09-02,1,,,,,エイセイトウシカブシキガイシヤ,0
2150,9700150132076,新規,0,2025-09-02,2025-09-02,Ｆｉｒｓｔｇｏｌｄ　Ｂｕｓｉｎｅｓｓ　Ｌｉｍｉｔｅｄ,,外国会社等,,,,,,,,２６３　Ｍａｉｎ　Ｓｔｒｅｅｔ，Ｐ．Ｏ　Ｂｏｘ　２１９６　Ｒｏａｄ　Ｔｏｗｎ，Ｔｏｒｔｏｌａ，ＢＶＩ,,,,,,2025-09-02,1,,,,,フアーストゴールドビジネスリミテツド,0
