sequenceNumber,corporateNumber,process,correct,updateDate,changeDate,name,nameImageId,kind,prefectureName,cityName,streetNumber,addressImageId,prefectureCode,cityCode,postCode,addressOutside,addressOutsideImageId,closeDate,closeCause,successorCorporateNumber,changeCause,assignmentDate,latest,enName,enPrefectureName,enCityName,enAddressOutside,furigana,hihyoji
3,1010001233159,新規,0,2023-02-21,2023-02-21,株式会社ＡＬＦＩＴ,,株式会社,東京都,中央区,日本橋大伝馬町１番３号ＡｓｋａＶ日本橋７Ｆ,,13,102,1030011,,,,,,,2023-02-21,1,,,,,アルフィット,0
4,1010001233167,新規,0,2023-02-21,2023-02-21,株式会社平河町オートリースベータ,,株式会社,東京都,千代田区,平河町１丁目６番１５号株式会社シルスフィア会計事務所内,,13,101,1020093,,,,,,,2023-02-21,1,,,,,ヒラカワチョウオートリースベータ,0
7,1010003039884,新規,0,2023-02-21,2023-02-21,合同会社ｃｉｒｃｌｅ,,合同会社,東京都,中央区,日本橋浜町３丁目２４番２号,,13,102,1030007,,,,,,,2023-02-21,1,,,,,サークル,0
15,1010401172642,新規,0,2023-02-21,2023-02-21,株式会社ｉＮｅｔＰｒｏ,,株式会社,東京都,港区,浜松町２丁目２番１５号浜松町ダイヤビル２Ｆ,,13,103,1050013,,,,,,,2023-02-21,1,,,,,アイネットプロ,0
16,1010401172700,新規,0,2023-02-21,2023-02-21,株式会社ｉｋｉ,,株式会社,東京都,港区,南青山７丁目１０番６号,,13,103,1070062,,,,,,,2023-02-21,1,,,,,アイケーアイ,0
18,1010403029551,新規,0,2023-02-21,2023-02-21,合同会社セブンライフ,,合同会社,東京都,港区,芝５丁目２４番５号下澤ビル３階,,13,103,1080014,,,,,,,2023-02-21,1,,,,,セブンライフ,0
23,1010703006564,新規,0,2023-02-21,2023-02-21,ｂｉｔｔｅｒ　ｇｒｏｕｐ合同会社,,合同会社,東京都,品川区,東五反田２丁目２番２号松楽ビル８階,,13,109,1410022,,,,,,,2023-02-21,1,,,,,ビターグループ,0
35,1011001152679,新規,0,2023-02-21,2023-02-21,内田塾株式会社,,株式会社,東京都,渋谷区,神宮前４丁目９－１３ミナガワビレッジＩＩ,00129516,13,113,1500001,,,,,,,2023-02-21,1,,,,,ウチダジュク,0
40,1011101101890,新規,0,2023-02-21,2023-02-21,Ｂｅｓｔ　ＡＩ株式会社,,株式会社,東京都,新宿区,西早稲田１丁目２２番３号,,13,104,1690051,,,,,,,2023-02-21,1,,,,,ベストアイ,0
41,1011103012731,新規,0,2023-02-21,2023-02-21,合同会社ＦＲＥＥ　ＴＨＬＯＷ,,合同会社,東京都,新宿区,歌舞伎町２丁目３９番２号三幸ビルＢ館４階Ｄ室,,13,104,1600021,,,,,,,2023-02-21,1,,,,,フリースロー,0
49,1011801041965,新規,0,2023-02-21,2023-02-21,株式会社エブリシング,,株式会社,東京都,足立区,西新井３丁目４番２２－１Ｆ,,13,121,1230841,,,,,,,2023-02-21,1,,,,,エブリシング,0
51,1012803003012,新規,0,2023-02-21,2023-02-21,合同会社サインシステム,,合同会社,東京都,国立市,富士見台３丁目１５番地の８オーベル国立さくら通り２０９,,13,215,1860003,,,,,,,2023-02-21,1,,,,,サインシステム,0
52,1012805003175,新規,0,2023-02-21,2023-02-21,ＮＰＯ法人エヌレーシングクラブ,,その他の設立登記法人,東京都,武蔵村山市,学園１丁目１１４番地の１５,,13,223,2080011,,,,,,,2023-02-21,1,,,,,エヌレーシングクラブ,0
58,1020001150345,新規,0,2023-02-21,2023-02-21,株式会社ｄｏ　ｆｏｒ　ｆｕｎ,,株式会社,神奈川県,川崎市川崎区,宮本町６番地１２ＧＳ川崎ビル２階,,14,131,2100004,,,,,,,2023-02-21,1,,,,,ドゥフォーファン,0
59,1020001150361,新規,0,2023-02-21,2023-02-21,ソーニョプランニング株式会社,,株式会社,神奈川県,横浜市西区,北幸１丁目１１番１号水信ビル７階,,14,103,2200004,,,,,,,2023-02-21,1,,,,,ソーニョプランニング,0
63,1020003023367,新規,0,2023-02-21,2023-02-21,合同会社大川断熱,,合同会社,神奈川県,横浜市磯子区,磯子３丁目４番３２号,,14,107,2350016,,,,,,,2023-02-21,1,,,,,オオカワダンネツ,0
64,1020003023375,新規,0,2023-02-21,2023-02-21,合同会社熊倉工務店,,合同会社,神奈川県,横浜市都筑区,荏田南４丁目１５番５０－１０４号,,14,118,2240007,,,,,,,2023-02-21,1,,,,,クマクラコウムテン,0
66,1021001078254,新規,0,2023-02-21,2023-02-21,株式会社小谷戸,,株式会社,神奈川県,横須賀市,池上７丁目２番１４号,,14,201,2380035,,,,,,,2023-02-21,1,,,,,コヤト,0
67,1021003012789,新規,0,2023-02-21,2023-02-21,合同会社Ｒｅｌａｔｅｄ,,合同会社,神奈川県,逗子市,桜山８丁目１番４５号,,14,208,2490005,,,,,,,2023-02-21,1,,,,,リレイテッド,0
75,1030001152489,新規,0,2023-02-21,2023-02-21,株式会社信栄首都圏営業所,,株式会社,埼玉県,草加市,青柳７丁目６４番５３号,,11,221,3400002,,,,,,,2023-02-21,1,,,,,シンエイシュトケンエイギョウショ,0
81,1040001127151,新規,0,2023-02-21,2023-02-21,株式会社Ｔｈｅｔａ,,株式会社,千葉県,松戸市,小金原７丁目１番地小金原団地８棟５０２号,,12,207,2700021,,,,,,,2023-02-21,1,,,,,シータ,0
82,1040001127176,新規,0,2023-02-21,2023-02-21,株式会社ベルケア,,株式会社,千葉県,木更津市,畑沢南６丁目９番地１シティハイム畑沢南Ｂ１０１,,12,206,2920826,,,,,,,2023-02-21,1,,,,,ベルケア,0
92,1050001052431,新規,0,2023-02-21,2023-02-21,ｔｒｉｐｌｅ・Ｅ株式会社,,株式会社,茨城県,神栖市,知手中央５丁目１１番１９号ロイヤルウイング神栖Ｂ－３,,08,232,3140112,,,,,,,2023-02-21,1,,,,,トリプルイー,0
94,1050003007251,新規,0,2023-02-21,2023-02-21,合同会社ＳＲＤ　ＩＮＴＥＲＮＡＴＩＯＮＡＬ,,合同会社,茨城県,龍ケ崎市,野原町６１番地３ロイヤル・コート野原１０６号室,,08,208,3010831,,,,,,,2023-02-21,1,,,,,エスアールディーインターナショナル,0
96,1070001040145,新規,0,2023-02-21,2023-02-21,株式会社群馬ホース,,株式会社,群馬県,太田市,熊野町３８番２４号,,10,205,3730025,,,,,,,2023-02-21,1,,,,,グンマホース,0
116,1120001252676,新規,0,2023-02-21,2023-02-21,株式会社Ｎｏａｈ’ｓ　Ａｒｋ,,株式会社,大阪府,大阪市中央区,東心斎橋１丁目１５番１１号サザンクロスビル５Ａ,,27,128,5420083,,,,,,,2023-02-21,1,,,,,ノアズアーク,0
117,1120001252684,新規,0,2023-02-21,2023-02-21,東医国際株式会社,,株式会社,大阪府,大阪市西区,靱本町１丁目４番１７号ＡＣＮ信濃橋ビル１階,,27,106,5500004,,,,,,,2023-02-21,1,,,,,トウイコクサイ,0
121,1120003023480,新規,0,2023-02-21,2023-02-21,プラス合同会社,,合同会社,大阪府,枚方市,津田駅前２丁目８番５０－４０２号,,27,210,5730125,,,,,,,2023-02-21,1,,,,,プラス,0
124,1120101067009,新規,0,2023-02-21,2023-02-21,ＡＳＧＡＲＤ株式会社,,株式会社,大阪府,岸和田市,磯上町１丁目１２番３号,,27,202,5960001,,,,,,,2023-02-21,1,,,,,アスガルド,0
126,1120103005073,新規,0,2023-02-21,2023-02-21,合同会社Ｔ‐ｓｔｕｄｉｏ,,合同会社,大阪府,南河内郡太子町,大字春日１５５７番地の１８,,27,381,5830991,,,,,,,2023-02-21,1,,,,,ティースタジオ,0
128,1122001036712,新規,0,2023-02-21,2023-02-21,グローバルシステムサービス株式会社,,株式会社,大阪府,東大阪市,大蓮北１丁目１番２７号,,27,227,5770826,,,,,,,2023-02-21,1,,,,,グローバルシステムサービス,0
129,1122003002506,新規,0,2023-02-21,2023-02-21,合同会社おおたはら,,合同会社,大阪府,東大阪市,菱屋西１丁目３－６,,27,227,5770807,,,,,,,2023-02-21,1,,,,,オオタハラ,0
140,1140001129195,新規,0,2023-02-21,2023-02-21,株式会社ＨＴＡ,,株式会社,兵庫県,神戸市西区,学園東町８丁目２番地の２－８０１号,,28,111,6512102,,,,,,,2023-02-21,1,,,,,エイチティエー,0
141,1140001129204,新規,0,2023-02-21,2023-02-21,ＭＴ株式会社,,株式会社,兵庫県,南あわじ市,榎列大榎列甲４１番地３,,28,224,6560426,,,,,,,2023-02-21,1,,,,,エムティー,0
142,1140003018743,新規,0,2023-02-21,2023-02-21,合同会社コーベベットサービス,,合同会社,兵庫県,神戸市長田区,西山町１丁目２－１８,,28,106,6530862,,,,,,,2023-02-21,1,,,,,コーベベットサービス,0
144,1140005026488,新規,0,2023-02-21,2023-02-21,一般社団法人たみき園,,その他の設立登記法人,兵庫県,洲本市,桑間４１８番地１,,28,205,6560014,,,,,,,2023-02-21,1,,,,,タミキエン,0
147,1160001024849,新規,0,2023-02-21,2023-02-21,株式会社生々堂エステート,,株式会社,滋賀県,草津市,西大路町１１番１０号,,25,206,5250037,,,,,,,2023-02-21,1,,,,,セイセイドウエステート,0
152,1180001155056,新規,0,2023-02-21,2023-02-21,株式会社トランキーロ,,株式会社,愛知県,名古屋市瑞穂区,仁所町２丁目８番地,,23,108,4670053,,,,,,,2023-02-21,1,,,,,トランキーロ,0
157,1200001040981,新規,0,2023-02-21,2023-02-21,株式会社Ｈａｐｐｉｅｓｔ,,株式会社,岐阜県,関市,段下１５０番地１,,21,205,5013255,,,,,,,2023-02-21,1,,,,,ハピエスト,0
158,1200003005859,新規,0,2023-02-21,2023-02-21,ムートラ合同会社,,合同会社,岐阜県,各務原市,鵜沼東町６丁目７６－１ハイシンフォニー２階,,21,213,5090126,,,,,,,2023-02-21,1,,,,,ムートラ,0
163,1240001061116,新規,0,2023-02-21,2023-02-21,株式会社ｈｉｔｏｔｏｓｅ　ｄｅｓｉｇｎ,,株式会社,広島県,広島市中区,中町１番２９－１２０２号,,34,101,7300037,,,,,,,2023-02-21,1,,,,,ヒトトセデザイン,0
166,1260001037659,新規,0,2023-02-21,2023-02-21,株式会社ニチナ,,株式会社,岡山県,岡山市北区,撫川１０８３番地６,,33,101,7010164,,,,,,,2023-02-21,1,,,,,ニチナ,0
170,1290001100612,新規,0,2023-02-21,2023-02-21,株式会社ＭＵＳＵＫＡＮＡ,,株式会社,福岡県,春日市,弥生３丁目１番地,,40,218,8160862,,,,,,,2023-02-21,1,,,,,ムスカナ,0
171,1290001100620,新規,0,2023-02-21,2023-02-21,株式会社ＴＨＲＯＵＧＨ　ＴＨＥ　ＮＥＶＥＲ,,株式会社,福岡県,福岡市早良区,飯倉３丁目１５番７号,,40,137,8140161,,,,,,,2023-02-21,1,,,,,スルーザネバー,0
173,1290003013556,新規,0,2023-02-21,2023-02-21,Ｎｏｖｕｓホーム合同会社,,合同会社,福岡県,福岡市東区,箱崎１丁目４－３３－８０２号ハイネスエミュ２１,,40,131,8120053,,,,,,,2023-02-21,1,,,,,ノーバスホーム,0
177,1330001030607,新規,0,2023-02-21,2023-02-21,株式会社あさぎりエナジー,,株式会社,熊本県,球磨郡あさぎり町,上東１２３１番地,,43,514,8680421,,,,,,,2023-02-21,1,,,,,アサギリエナジー,0
182,1360001031593,新規,0,2023-02-21,2023-02-21,株式会社Ａ４ＷＥＤＤＩＮＧ,,株式会社,沖縄県,国頭郡恩納村,字恩納６１３１クレアシオン１０２,,47,311,9040411,,,,,,,2023-02-21,1,,,,,エーヨンウェディング,0
183,1360003012740,新規,0,2023-02-21,2023-02-21,ＭＥＧ・ＳＴＹＬＥ合同会社,,合同会社,沖縄県,浦添市,仲間２丁目２番１号銘苅アパート１０２,,47,208,9012103,,,,,,,2023-02-21,1,,,,,メグスタイル,0
186,1370001049627,新規,0,2023-02-21,2023-02-21,株式会社ＫＨＳ,,株式会社,宮城県,仙台市若林区,荒町１２１－１プラチナスイート五橋駅ガーデンコート１２０１,,04,103,9840073,,,,,,,2023-02-21,1,,,,,ケーエイチエス,0
189,1380001033497,新規,0,2023-02-21,2023-02-21,株式会社ｇｒｉｔ．Ｉｎｃ．,,株式会社,福島県,郡山市,堂前町３番２５号田中ビル１Ｆ,,07,203,9638877,,,,,,,2023-02-21,1,,,,,グリットインク,0
191,1380005012679,新規,0,2023-02-21,2023-02-21,特定非営利活動法人小さな拠点おおか,,その他の設立登記法人,福島県,いわき市,川前町下桶売字矢田谷地１４６番地,,07,204,9793202,,,,,,,2023-02-21,1,,,,,チイサナキョテンオオカ,0
195,1420003002669,新規,0,2023-02-21,2023-02-21,合同会社Ｓ．ＮＡＫＡＮＯ,,合同会社,青森県,青森市,大字三内字沢部２７７番地１４,,02,201,0380031,,,,,,,2023-02-21,1,,,,,エスドットナカノ,0
203,1430001088478,新規,0,2023-02-21,2023-02-21,株式会社Ｌｉｌｌｙ’ｓ　ｐｌａｎｅｔｓ,,株式会社,北海道,札幌市中央区,南一条西１１丁目３２７番地１２センターパーキングビル３Ｆ,,01,101,0600061,,,,,,,2023-02-21,1,,,,,リリーズプラネッツ,0
207,1480003001938,新規,0,2023-02-21,2023-02-21,Ｍ‐ｃｒｅａｓ合同会社,,合同会社,徳島県,板野郡北島町,鯛浜字外野２０－１６,,36,402,7710204,,,,,,,2023-02-21,1,,,,,エムクレアス,0
211,1700150114429,新規,0,2023-02-21,2023-02-21,ＵＡＢ　Ｎｏｒｄｃｕｒｒｅｎｔ,,外国会社等,,,,,,,,Ｓａｖａｎｏｒｉｕ　ｐｒ．　６１，Ｖｉｌｎｉｕｓ，Ｌｉｔｈｕａｎｉａ,,,,,,2023-02-21,1,,,,,ユーエービーノードカレント,0
219,2010001233075,新規,0,2023-02-21,2023-02-21,株式会社ボン・ボヤージュ,,株式会社,東京都,中央区,銀座１丁目２２番１１号銀座大竹ビジデンス２階,,13,102,1040061,,,,,,,2023-02-21,1,,,,,ボンボヤージュ,0
220,2010001233133,新規,0,2023-02-21,2023-02-21,株式会社フイオン,,株式会社,東京都,千代田区,岩本町１丁目４番５号,,13,101,1010032,,,,,,,2023-02-21,1,,,,,フイオン,0
221,2010001233166,新規,0,2023-02-21,2023-02-21,株式会社ＡＫＡＲＩ,,株式会社,東京都,千代田区,一番町６番地相模屋本社ビル７Ｆ,,13,101,1020082,,,,,,,2023-02-21,1,,,,,アカリ,0
222,2010001233190,新規,0,2023-02-21,2023-02-21,源しょく株式会社,,株式会社,東京都,千代田区,霞が関３丁目２番５号,,13,101,1000013,,,,,,,2023-02-21,1,,,,,ゲンショク,0
226,2010003039842,新規,0,2023-02-21,2023-02-21,合同会社ＴＩＧＥＲ　ＰＩＴ,,合同会社,東京都,千代田区,外神田６丁目１１番１０号西岡第二ビル２Ｆ・Ｂ室,,13,101,1010021,,,,,,,2023-02-21,1,,,,,タイガーピット,0
227,2010003039867,新規,0,2023-02-21,2023-02-21,ＰＡＲＦＵＭ　ＩＮＣＥＮＳＥ合同会社,,合同会社,東京都,中央区,銀座１丁目２２番１１号銀座大竹ビジデンス２Ｆ,,13,102,1040061,,,,,,,2023-02-21,1,,,,,パルファムインセンス,0
228,2010003039883,新規,0,2023-02-21,2023-02-21,合同会社ＴＯＤＡＹ,,合同会社,東京都,中央区,日本橋浜町３丁目２４番２号,,13,102,1030007,,,,,,,2023-02-21,1,,,,,トゥデイ,0
229,2010005036193,新規,0,2023-02-21,2023-02-21,一般社団法人Ｌｉｖｉｎｇ　Ｌａｂ　ｆｏｒ　ｉｎｃｌｕｓｉｖｅ,,その他の設立登記法人,東京都,中央区,日本橋蛎殻町１丁目２番５号,,13,102,1030014,,,,,,,2023-02-21,1,,,,,リビングラボフォーインクルーシブ,0
230,2010005036276,新規,0,2023-02-21,2023-02-21,一般社団法人ＥＶ充電インフラ,,その他の設立登記法人,東京都,千代田区,丸の内３丁目１番１号東京共同会計事務所内,,13,101,1000005,,,,,,,2023-02-21,1,,,,,イーブイジュウデンインフラ,0
237,2010401172633,新規,0,2023-02-21,2023-02-21,ＳＵＩＴ‐Ｃｏｎｓｕｌｔｉｎｇ株式会社,,株式会社,東京都,港区,芝大門１丁目３番１０号,,13,103,1050012,,,,,,,2023-02-21,1,,,,,スーツコンサルティング,0
238,2010401172641,新規,0,2023-02-21,2023-02-21,株式会社ＵＥ,,株式会社,東京都,港区,西麻布２丁目２番２号,,13,103,1060031,,,,,,,2023-02-21,1,,,,,ユーイー,0
239,2010401172674,新規,0,2023-02-21,2023-02-21,Ｌｉｔｈｅｌｉ　Ｊａｐａｎ株式会社,,株式会社,東京都,港区,南青山４丁目１７番１３号２０６室,,13,103,1070062,,,,,,,2023-02-21,1,,,,,リスリジャパン,0
248,2010601062634,新規,0,2023-02-21,2023-02-21,株式会社筧商事,,株式会社,東京都,墨田区,京島１丁目１番１－２０２号,,13,107,1310046,,,,,,,2023-02-21,1,,,,,カケイショウジ,0
253,2010801033708,新規,0,2023-02-21,2023-02-21,株式会社野谷組,,株式会社,東京都,大田区,西糀谷２丁目２２－２３Ｃｅｒｉｓｉｅｒ１０１号室,,13,111,1440034,,,,,,,2023-02-21,1,,,,,,0
258,2010903007980,新規,0,2023-02-21,2023-02-21,合同会社そうだんや,,合同会社,東京都,世田谷区,用賀４丁目１３番２号メゾンド・シルベスト４０６号,,13,112,1580097,,,,,,,2023-02-21,1,,,,,ソウダンヤ,0
262,2011001152686,新規,0,2023-02-21,2023-02-21,株式会社ゆみ不動産,,株式会社,東京都,渋谷区,恵比寿３丁目９番３号ＰＥＡＲＬＥＢＩＳ２０１,,13,113,1500013,,,,,,,2023-02-21,1,,,,,ユミフドウサン,0
266,2011103012722,新規,0,2023-02-21,2023-02-21,Ｆｏｏｄ　Ｃｈａｒｉ合同会社,,合同会社,東京都,新宿区,西新宿３丁目３番１３号西新宿水間ビル２Ｆ,,13,104,1600023,,,,,,,2023-02-21,1,,,,,フードチャリ,0
267,2011201024438,新規,0,2023-02-21,2023-02-21,株式会社新日本プロモーション,,株式会社,東京都,中野区,野方６丁目３番４号水口ビル３階,,13,114,1650027,,,,,,,2023-02-21,1,,,,,シンニホンプロモーション,0
272,2011701026025,新規,0,2023-02-21,2023-02-21,株式会社エーライト,,株式会社,東京都,江戸川区,松本１丁目１３番１４号,,13,123,1330043,,,,,,,2023-02-21,1,,,,,エーライト,0
275,2012805003174,新規,0,2023-02-21,2023-02-21,一般社団法人医歯介連協会,,その他の設立登記法人,東京都,立川市,曙町２丁目５番１８号東財曙町ビル１０階,,13,202,1900012,,,,,,,2023-02-21,1,,,,,イシカイレンキョウカイ,0
277,2013303006504,新規,0,2023-02-21,2023-02-21,合同会社Ｙ７,,合同会社,東京都,豊島区,駒込７丁目１３－１１グランシャトレ駒込３０３,,13,116,1700003,,,,,,,2023-02-21,1,,,,,ワイナナ,0
283,2020001150352,新規,0,2023-02-21,2023-02-21,株式会社Ｋ‐ｓｔｙｌｅ,,株式会社,神奈川県,川崎市幸区,南加瀬５丁目２番４１号,,14,132,2120055,,,,,,,2023-02-21,1,,,,,ケースタイル,0
284,2020001150360,新規,0,2023-02-21,2023-02-21,株式会社マックスＫ,,株式会社,神奈川県,川崎市高津区,千年２１１番地４,,14,134,2130022,,,,,,,2023-02-21,1,,,,,マックスケイ,0
285,2020001150369,新規,0,2023-02-21,2023-02-21,クリーンアップ株式会社,,株式会社,神奈川県,横浜市港北区,新羽町２２８８番地１７,,14,109,2230057,,,,,,,2023-02-21,1,,,,,クリーンアップ,0
298,2030001152513,新規,0,2023-02-21,2023-02-21,株式会社Ａｎｄ　Ｍｏｒｅ,,株式会社,埼玉県,川口市,朝日６丁目１８番７号,,11,203,3320001,,,,,,,2023-02-21,1,,,,,アンドモア,0
301,2030003021212,新規,0,2023-02-21,2023-02-21,合同会社アシスト,,合同会社,埼玉県,飯能市,大字岩沢１０７番地ハイツ岩沢１０２,,11,209,3570023,,,,,,,2023-02-21,1,,,,,アシスト,0
302,2030003021220,新規,0,2023-02-21,2023-02-21,イートレード合同会社,,合同会社,埼玉県,深谷市,菅沼５８７－８,,11,218,3691104,,,,,,,2023-02-21,1,,,,,イートレード,0
304,2040001127159,新規,0,2023-02-21,2023-02-21,Ｅａｓｙ　ＥＣ株式会社,,株式会社,千葉県,柏市,根戸４１０番地３キャッスル北柏４０９号,,12,217,2770831,,,,,,,2023-02-21,1,,,,,イージーイーシー,0
309,2040003021987,新規,0,2023-02-21,2023-02-21,合同会社ア・プラン,,合同会社,千葉県,印西市,小林大門下３丁目１４番地１０,,12,231,2701316,,,,,,,2023-02-21,1,,,,,アプラン,0
310,2040003022011,新規,0,2023-02-21,2023-02-21,ＴＬＬ総業合同会社,,合同会社,千葉県,千葉市緑区,あすみが丘８丁目３番地１リップルＢ１０２号,,12,105,2670066,,,,,,,2023-02-21,1,,,,,ティーエルエルソウギョウ,0
312,2050001052430,新規,0,2023-02-21,2023-02-21,咲陽防災株式会社,,株式会社,茨城県,東茨城郡城里町,大字石塚８０８番地の９８,,08,310,3114303,,,,,,,2023-02-21,1,,,,,ショウヨウボウサイ,0
317,2050003007250,新規,0,2023-02-21,2023-02-21,興成商事合同会社,,合同会社,茨城県,石岡市,山崎字陣場２２６７番３３山崎高野戸建,,08,205,3150125,,,,,,,2023-02-21,1,,,,,コウセイショウジ,0
319,2060001035715,新規,0,2023-02-21,2023-02-21,株式会社一番星,,株式会社,栃木県,宇都宮市,大和１丁目８番２１号,,09,201,3210162,,,,,,,2023-02-21,1,,,,,イチバンボシ,0
323,2070001040144,新規,0,2023-02-21,2023-02-21,株式会社金万,,株式会社,群馬県,桐生市,境野町５丁目３１８番地,,10,203,3760002,,,,,,,2023-02-21,1,,,,,カネマン,0
330,2100001036147,新規,0,2023-02-21,2023-02-21,ＨｏｐｅＸ株式会社,,株式会社,長野県,千曲市,大字桜堂３８２－４,,20,218,3870012,,,,,,,2023-02-21,1,,,,,ホープエックス,0
344,2120001252650,新規,0,2023-02-21,2023-02-21,ＳＫ工業株式会社,,株式会社,大阪府,大阪市西区,北堀江１丁目９－４－５０４,,27,106,5500014,,,,,,,2023-02-21,1,,,,,エスケーコウギョウ,0
347,2120101067016,新規,0,2023-02-21,2023-02-21,株式会社三友商事,,株式会社,大阪府,泉大津市,東豊中町２丁目４番２７号,,27,206,5950021,,,,,,,2023-02-21,1,,,,,サンユウショウジ,0
350,2120103005089,新規,0,2023-02-21,2023-02-21,合同会社Ｏ・グリーン企画,,合同会社,大阪府,南河内郡千早赤阪村,大字千早１０８７－１,,27,383,5850051,,,,,,,2023-02-21,1,,,,,オーグリーンキカク,0
352,2120901047167,新規,0,2023-02-21,2023-02-21,ＡＧＲＥＥ株式会社,,株式会社,大阪府,吹田市,長野東２６番１号千里ディアヒルズ６１６,,27,205,5650816,,,,,,,2023-02-21,1,,,,,アグリー,0
357,2122001036711,新規,0,2023-02-21,2023-02-21,株式会社アクセント,,株式会社,大阪府,大東市,扇町１２番７０３号,,27,218,5740033,,,,,,,2023-02-21,1,,,,,アクセント,0
364,2130001073716,新規,0,2023-02-21,2023-02-21,株式会社ＭＫディライト,,株式会社,京都府,福知山市,字堀３３８７番地の１０１,,26,201,6200000,,,,,,,2023-02-21,1,,,,,エムケイディライト,0
366,2130003008538,新規,0,2023-02-21,2023-02-21,合同会社自営制作,,合同会社,京都府,京都市上京区,紙屋川町８５４コーポラス梅香３０３,,26,102,6028384,,,,,,,2023-02-21,1,,,,,ジエイセイサク,0
369,2140001129178,新規,0,2023-02-21,2023-02-21,Ｓｕｎ　Ｌａｐｉｎ’ｓ株式会社,,株式会社,兵庫県,宝塚市,雲雀丘１丁目７番１９号,,28,214,6650805,,,,,,,2023-02-21,1,,,,,サンラパンズ,0
370,2140001129186,新規,0,2023-02-21,2023-02-21,株式会社ライフコンクリート,,株式会社,兵庫県,伊丹市,森本８丁目９６番地１,,28,207,6640842,,,,,,,2023-02-21,1,,,,,ライフコンクリート,0
371,2140001129203,新規,0,2023-02-21,2023-02-21,株式会社Ｎ,,株式会社,兵庫県,神戸市灘区,篠原中町５丁目７－１６六甲ガーデンズ３０２号室,,28,102,6570066,,,,,,,2023-02-21,1,,,,,エヌ,0
372,2140003018742,新規,0,2023-02-21,2023-02-21,ウェルインサイド合同会社,,合同会社,兵庫県,神戸市中央区,小野浜町５－５３,,28,110,6510082,,,,,,,2023-02-21,1,,,,,ウェルインサイド,0
375,2150001026176,新規,0,2023-02-21,2023-02-21,ＮＡＲＡ　ＰＩＳＴＯＮ　ＲＩＮＧ株式会社,,株式会社,奈良県,磯城郡田原本町,４９３－４０１,,29,363,6360300,,,,,,,2023-02-21,1,,,,,ナラピストンリング,0
377,2160001024848,新規,0,2023-02-21,2023-02-21,株式会社エクシト,,株式会社,滋賀県,大津市,中央４丁目５番１０イーグルコートアネックス大津なぎさ公園前４０３号,,25,201,5200043,,,,,,,2023-02-21,1,,,,,エクシト,0
382,2180001155039,新規,0,2023-02-21,2023-02-21,株式会社ソテルＩＴ企画,,株式会社,愛知県,名古屋市東区,東大曽根町２９番１１号共栄ビル東棟７Ｆ,,23,102,4610022,,,,,,,2023-02-21,1,,,,,ソテルアイティキカク,0
392,2200005013446,新規,0,2023-02-21,2023-02-21,一般社団法人オルタス山県,,その他の設立登記法人,岐阜県,山県市,高木１０６５番地３,,21,215,5012113,,,,,,,2023-02-21,1,,,,,オルタスヤマガタ,0
407,2310001018280,新規,0,2023-02-21,2023-02-21,伊豫テック株式会社,,株式会社,長崎県,長崎市,豊洋台１丁目１５番１号,,42,201,8512216,,,,,,,2023-02-21,1,,,,,イヨテック,0
413,2360001031584,新規,0,2023-02-21,2023-02-21,株式会社Ｋ．Ｊ,,株式会社,沖縄県,那覇市,銘苅２丁目７－５フローリド新都心４０１,,47,201,9000004,,,,,,,2023-02-21,1,,,,,ケイジェー,0
414,2360003012748,新規,0,2023-02-21,2023-02-21,ＵＩＡＲＢ合同会社,,合同会社,沖縄県,那覇市,牧志２丁目１７―２７―４０１,,47,201,9000013,,,,,,,2023-02-21,1,,,,,ウイアーブ,0
416,2370001049626,新規,0,2023-02-21,2023-02-21,コウケン工業株式会社,,株式会社,宮城県,仙台市宮城野区,栄２丁目１０－３７マルセンビル２０６,,04,102,9830011,,,,,,,2023-02-21,1,,,,,コウケンコウギョウ,0
425,2430001088469,新規,0,2023-02-21,2023-02-21,株式会社清志堂,,株式会社,北海道,札幌市南区,川沿十三条３丁目２番２１号,,01,106,0050813,,,,,,,2023-02-21,1,,,,,セイシドウ,0
426,2430003014753,新規,0,2023-02-21,2023-02-21,合同会社富澤農場,,合同会社,北海道,岩見沢市,北村美唄達布７２９番地１２,,01,210,0681214,,,,,,,2023-02-21,1,,,,,トミザワノウジョウ,0
429,2500001024771,新規,0,2023-02-21,2023-02-21,ＲＡＩＥＩＪＡＰＡＮ株式会社,,株式会社,愛媛県,西条市,三芳２１５１番地,,38,206,7991301,,,,,,,2023-02-21,1,,,,,ライエイジャパン,0
431,2700150016079,新規,0,2023-02-21,2015-10-09,袖ヶ浦公園管理組合,,その他,千葉県,袖ケ浦市,飯富２３６０,,12,229,2990256,,,,,,,2015-10-09,1,,,,,ソデガウラコウエンカンリクミアイ,0
433,2700150110014,新規,0,2023-02-21,2022-06-17,水俣地域森林管理システム推進協議会,,その他,熊本県,水俣市,中鶴５３９番地,,43,205,8670014,,,,,,,2022-06-17,1,,,,,ミナマタチイキシンリンカンリシステムスイシンキヨウギカイ,0
434,2700150114436,新規,0,2023-02-21,2023-02-21,ＤＡＹ　ＢＲＩＧＨＴ　ＬＩＭＩＴＥＤ,,外国会社等,,,,,,,,８／Ｆ，Ｌｅｅ　Ｋｕｍ　Ｋｅｅ　Ｃｅｎｔｒａｌ，５４－５８，Ｄｅｓ　Ｖｏｅｕｘ　Ｒｏａｄ，Ｃｅｎｔｒａｌ，Ｈｏｎｇ　Ｋｏｎｇ,,,,,,2023-02-21,1,,,,,デイブライトリミテツド,0
444,3010001233000,新規,0,2023-02-21,2023-02-21,株式会社キャットバンク,,株式会社,東京都,中央区,銀座１丁目２２番１１号銀座大竹ビジデンス２Ｆ,,13,102,1040061,,,,,,,2023-02-21,1,,,,,キャットバンク,0
445,3010001233124,新規,0,2023-02-21,2023-02-21,株式会社ｅｆｆｉｒｅｅ,,株式会社,東京都,文京区,小石川１丁目５－１,,13,105,1120002,,,,,,,2023-02-21,1,,,,,エフィリー,0
446,3010001233132,新規,0,2023-02-21,2023-02-21,Ｌｙｏｄｓｔｅｃｈ株式会社,,株式会社,東京都,千代田区,六番町１５番２号鳳翔ビル３階,,13,101,1020085,,,,,,,2023-02-21,1,,,,,ライオズテック,0
447,3010001233157,新規,0,2023-02-21,2023-02-21,フォルテスジャパン販売株式会社,,株式会社,東京都,千代田区,神田三崎町２丁目２０番７号水道橋西口会館,,13,101,1010061,,,,,,,2023-02-21,1,,,,,フォルテスジャパンハンバイ,0
449,3010003039874,新規,0,2023-02-21,2023-02-21,東神奈川環境不動産プロジェクト合同会社,,合同会社,東京都,中央区,日本橋３丁目１番８号,,13,102,1030027,,,,,,,2023-02-21,1,,,,,ヒガシカナガワカンキョウフドウサンプロジェクト,0
451,3010005036275,新規,0,2023-02-21,2023-02-21,一般社団法人ＮＸ　Ｉ,,その他の設立登記法人,東京都,千代田区,丸の内３丁目１番１号東京共同会計事務所内,,13,101,1000005,,,,,,,2023-02-21,1,,,,,エヌエックスワン,0
459,3010401172624,新規,0,2023-02-21,2023-02-21,株式会社ヴィラフルー,,株式会社,東京都,港区,南青山３丁目１２番１２号南青山３１２ビル６０４,,13,103,1070062,,,,,,,2023-02-21,1,,,,,ヴィラフルー,0
460,3010401172640,新規,0,2023-02-21,2023-02-21,株式会社Ｋａｉｓｕ,,株式会社,東京都,港区,赤坂６丁目１３番５号,,13,103,1070052,,,,,,,2023-02-21,1,,,,,カイス,0
464,3010403029533,新規,0,2023-02-21,2023-02-21,風合同会社,,合同会社,東京都,港区,虎ノ門１丁目１６番６号虎ノ門ＲＡＰＯ－ＴＯビルＵＣＦ７階,,13,103,1050001,,,,,,,2023-02-21,1,,,,,カゼ,0
465,3010403029574,新規,0,2023-02-21,2023-02-21,合同会社舞菊,,合同会社,東京都,港区,白金４丁目１３番１０－２０１号,,13,103,1080072,,,,,,,2023-02-21,1,,,,,マイギク,0
466,3010403029582,新規,0,2023-02-21,2023-02-21,ＢＹＡＲＴ合同会社,,合同会社,東京都,港区,南青山３丁目１番３６号青山丸竹ビル６Ｆ,,13,103,1070062,,,,,,,2023-02-21,1,,,,,バイアート,0
470,3010601062641,新規,0,2023-02-21,2023-02-21,株式会社ＩＩＫ,,株式会社,東京都,墨田区,墨田２丁目４１－１５エンゼルスタシア墨田３０３,,13,107,1310031,,,,,,,2023-02-21,1,,,,,アイアイケイ,0
471,3010603010012,新規,0,2023-02-21,2023-02-21,合同会社オフィス・レニア,,合同会社,東京都,江東区,東陽６丁目５番５号東陽六丁目ハイツ３０２号,,13,108,1350016,,,,,,,2023-02-21,1,,,,,オフィスレニア,0
478,3010903007971,新規,0,2023-02-21,2023-02-21,合同会社オホズマート,,合同会社,東京都,世田谷区,豪徳寺１丁目４５－１ＷＯＨＯＳＭＡＲＴ,,13,112,1540021,,,,,,,2023-02-21,1,,,,,オホズマート,0
484,3011101101897,新規,0,2023-02-21,2023-02-21,株式会社ＴＩＡＲＡ,,株式会社,東京都,新宿区,新宿５丁目１８番１１号,,13,104,1600022,,,,,,,2023-02-21,1,,,,,ティアラ,0
485,3011101101906,新規,0,2023-02-21,2023-02-21,ｔｏｙ　ｃｏｃｏ株式会社,,株式会社,東京都,新宿区,若松町２８－３－８０３,,13,104,1620056,,,,,,,2023-02-21,1,,,,,トイココ,0
486,3011101101914,新規,0,2023-02-21,2023-02-21,海月店舗什器株式会社,,株式会社,東京都,新宿区,西新宿７丁目１７番７号廣田ビル５０２号室,,13,104,1600023,,,,,,,2023-02-21,1,,,,,ウミツキテンポジュウキ,0
488,3011103012721,新規,0,2023-02-21,2023-02-21,ＬＳ合同会社,,合同会社,東京都,新宿区,大久保１丁目１７番３号,,13,104,1690072,,,,,,,2023-02-21,1,,,,,エルエス,0
491,3011403003916,新規,0,2023-02-21,2023-02-21,合同会社Ａｖａｎｃｅ,,合同会社,東京都,板橋区,南常盤台１丁目１１－６レフア南常盤台１０１号室,,13,119,1740072,,,,,,,2023-02-21,1,,,,,アヴァンセ,0
493,3011601026603,新規,0,2023-02-21,2023-02-21,Ｎａｓｃｅｎｔ株式会社,,株式会社,東京都,練馬区,光が丘１丁目２番５１３号,,13,120,1790072,,,,,,,2023-02-21,1,,,,,ナセント,0
498,3011801041963,新規,0,2023-02-21,2023-02-21,株式会社スリーリンクス,,株式会社,東京都,足立区,綾瀬３丁目６番１４－６０２号,,13,121,1200005,,,,,,,2023-02-21,1,,,,,スリーリンクス,0
504,3013301050362,新規,0,2023-02-21,2023-02-21,キーポイントグループ株式会社,,株式会社,東京都,豊島区,池袋２丁目２２番１号,,13,116,1710014,,,,,,,2023-02-21,1,,,,,キーポイントグループ,0
511,3020001150327,新規,0,2023-02-21,2023-02-21,キンセイホールディングス株式会社,,株式会社,神奈川県,横浜市南区,中里１丁目１２番１２号,,14,105,2320063,,,,,,,2023-02-21,1,,,,,キンセイホールディングス,0
515,3021001078269,新規,0,2023-02-21,2023-02-21,株式会社エル・エム・ジー,,株式会社,神奈川県,相模原市南区,麻溝台６丁目１６番１５号,,14,153,2520328,,,,,,,2023-02-21,1,,,,,エルエムジー,0
516,3021003012787,新規,0,2023-02-21,2023-02-21,合同会社アルルカン,,合同会社,神奈川県,藤沢市,藤が岡３丁目１３－１８,,14,205,2510004,,,,,,,2023-02-21,1,,,,,アルルカン,0
521,3030003021186,新規,0,2023-02-21,2023-02-21,ＣＴ合同会社,,合同会社,埼玉県,朝霞市,岡３丁目２番２０号バレンティア１０２,,11,227,3510007,,,,,,,2023-02-21,1,,,,,シーティー,0
522,3030003021228,新規,0,2023-02-21,2023-02-21,合同会社ｎｋｃ,,合同会社,埼玉県,所沢市,くすのき台３丁目１０番地の１・４０２,,11,208,3590037,,,,,,,2023-02-21,1,,,,,エヌケーシー,0
526,3040001127166,新規,0,2023-02-21,2023-02-21,ブルーフォーム株式会社,,株式会社,千葉県,千葉市緑区,おゆみ野南６丁目１１番地２４,,12,105,2660033,,,,,,,2023-02-21,1,,,,,ブルーフォーム,0
544,3100001036170,新規,0,2023-02-21,2023-02-21,ゼンノジャパン株式会社,,株式会社,長野県,松本市,芳野１５番６号,,20,202,3990002,,,,,,,2023-02-21,1,,,,,ゼンノジャパン,0
557,3120001252625,新規,0,2023-02-21,2023-02-21,株式会社盤石,,株式会社,大阪府,大阪市中央区,島之内１丁目１６－３,,27,128,5420082,,,,,,,2023-02-21,1,,,,,バンジャク,0
558,3120001252658,新規,0,2023-02-21,2023-02-21,株式会社白馬,,株式会社,大阪府,大阪市淀川区,木川西２丁目２番２０号マッセ新大阪レジデンス５号館６１１号室,,27,123,5320013,,,,,,,2023-02-21,1,,,,,ハクバ,0
563,3120003023487,新規,0,2023-02-21,2023-02-21,珈琲で繋がる合同会社,,合同会社,大阪府,大阪市生野区,新今里４丁目４番１２号,,27,116,5440001,,,,,,,2023-02-21,1,,,,,コーヒーデツナガル,0
564,3120101067015,新規,0,2023-02-21,2023-02-21,株式会社ＫＳタクト,,株式会社,大阪府,堺市北区,常磐町３丁１８番地１,,27,146,5918001,,,,,,,2023-02-21,1,,,,,ケーエスタクト,0
566,3120901047166,新規,0,2023-02-21,2023-02-21,株式会社リバイブ,,株式会社,大阪府,摂津市,別府１丁目２番４－５０７号,,27,224,5660046,,,,,,,2023-02-21,1,,,,,リバイブ,0
569,3130001073707,新規,0,2023-02-21,2023-02-21,株式会社ＬＩＮＫ,,株式会社,京都府,福知山市,問屋町４２番地,,26,201,6200057,,,,,,,2023-02-21,1,,,,,リンク,0
570,3130001073723,新規,0,2023-02-21,2023-02-21,ａｒｃｈｉ‐ｄｏｋｉ株式会社,,株式会社,京都府,京都市左京区,二条通川端東入３筋目大文字町１５８－２０３,,26,103,6068382,,,,,,,2023-02-21,1,,,,,アキドキ,0
576,3140003018733,新規,0,2023-02-21,2023-02-21,ＫＣＣケイトキャンベルキャピタル合同会社,,合同会社,兵庫県,西宮市,樋之池町８番１４号,,28,204,6620084,,,,,,,2023-02-21,1,,,,,ケーシーシーケイトキャンベルキャピタル,0
589,3200003005857,新規,0,2023-02-21,2023-02-21,合同会社ＩＫＵＴＯ,,合同会社,岐阜県,飛騨市,古川町上町３２８番地３,,21,217,5094254,,,,,,,2023-02-21,1,,,,,イクト,0
591,3230003001969,新規,0,2023-02-21,2023-02-21,合同会社クローバー,,合同会社,富山県,富山市,黒崎３１１－４,,16,201,9398214,,,,,,,2023-02-21,1,,,,,クローバー,0
598,3260001037657,新規,0,2023-02-21,2023-02-21,松下実業株式会社,,株式会社,岡山県,総社市,中央１丁目１２番３６号,,33,208,7191131,,,,,,,2023-02-21,1,,,,,マツシタジツギョウ,0
609,3290001100585,新規,0,2023-02-21,2023-02-21,株式会社いろとりどり,,株式会社,福岡県,筑後市,大字熊野１７４－１０,,40,211,8330055,,,,,,,2023-02-21,1,,,,,イロトリドリ,0
610,3290001100619,新規,0,2023-02-21,2023-02-21,株式会社再エネ企画,,株式会社,福岡県,福岡市博多区,博多駅前２丁目１９番１７号トーカン博多第５ビル３１２号室,,40,132,8120011,,,,,,,2023-02-21,1,,,,,サイエネキカク,0
612,3290005018956,新規,0,2023-02-21,2023-02-21,一般社団法人ｐｏｐｏｌａｂ,,その他の設立登記法人,福岡県,福岡市南区,井尻２丁目３４番１０－１０１号,,40,134,8111302,,,,,,,2023-02-21,1,,,,,ポポラボ,0
616,3320001019582,新規,0,2023-02-21,2023-02-21,建築屋さとう株式会社,,株式会社,大分県,大分市,明野北４丁目１番３号,,44,201,8700165,,,,,,,2023-02-21,1,,,,,ケンチクヤサトウ,0
623,3340003004052,新規,0,2023-02-21,2023-02-21,メディソレイユ合同会社,,合同会社,鹿児島県,鹿屋市,寿６丁目９番５号,,46,203,8930014,,,,,,,2023-02-21,1,,,,,メディソレイユ,0
638,3420001018161,新規,0,2023-02-21,2023-02-21,株式会社リモットさん,,株式会社,青森県,八戸市,桜ケ丘４丁目２３－３,,02,203,0310834,,,,,,,2023-02-21,1,,,,,リモットサン,0
639,3420003002667,新規,0,2023-02-21,2023-02-21,合同会社フォロカル,,合同会社,青森県,弘前市,大字浜の町東３丁目３番地７,,02,202,0368323,,,,,,,2023-02-21,1,,,,,フォロカル,0
641,3430001088427,新規,0,2023-02-21,2023-02-21,株式会社ＤＲ,,株式会社,北海道,札幌市東区,北七条東５丁目８番３８－９０８号,,01,103,0600907,,,,,,,2023-02-21,1,,,,,ディーアール,0
642,3430003014744,新規,0,2023-02-21,2023-02-21,合同会社一乃ツアー,,合同会社,北海道,札幌市中央区,北二条東１丁目２－１０日宝北二条ビル３階,,01,101,0600032,,,,,,,2023-02-21,1,,,,,イチノツアー,0
643,3430003014752,新規,0,2023-02-21,2023-02-21,合同会社Ｄｉｍｏｒｃａ,,合同会社,北海道,札幌市白石区,川下一条９丁目２番１１号,,01,104,0030861,,,,,,,2023-02-21,1,,,,,ディモルカ,0
650,4010001233148,新規,0,2023-02-21,2023-02-21,株式会社Ｐｏｐｏｋｉｉ,,株式会社,東京都,千代田区,丸の内１丁目６－５丸の内北口ビルディング９ＦＷｅＷｏｒｋ丸の内北口,,13,101,1000005,,,,,,,2023-02-21,1,,,,,ポポキ,0
651,4010001233164,新規,0,2023-02-21,2023-02-21,ＴＮＥＳ株式会社,,株式会社,東京都,中央区,日本橋蛎殻町１丁目６番４号第３カネタツビル２階,,13,102,1030014,,,,,,,2023-02-21,1,,,,,ティーエヌイーエス,0
652,4010001233172,新規,0,2023-02-21,2023-02-21,株式会社ＡＴＥ,,株式会社,東京都,中央区,築地５丁目４番１９－２０１号ジュウエル浜離宮,,13,102,1040045,,,,,,,2023-02-21,1,,,,,エーティーイー,0
653,4010001233197,新規,0,2023-02-21,2023-02-21,ＣＮＯ株式会社,,株式会社,東京都,文京区,湯島３丁目２１番１７－２０３号,,13,105,1130034,,,,,,,2023-02-21,1,,,,,シーエヌオー,0
657,4010003039873,新規,0,2023-02-21,2023-02-21,ｌｏｑａｌｉｓ合同会社,,合同会社,東京都,中央区,銀座１丁目１２番４号Ｎ＆ＥＢＬＤ．６Ｆ,,13,102,1040061,,,,,,,2023-02-21,1,,,,,ロカリス,0
664,4010401172664,新規,0,2023-02-21,2023-02-21,株式会社Ｂｅ　ｈｏｎｅｓｔ,,株式会社,東京都,港区,浜松町２丁目２番１５号浜松町ダイヤビル２Ｆ,,13,103,1050013,,,,,,,2023-02-21,1,,,,,ビーオネスト,0
673,4010405021842,新規,0,2023-02-21,2023-02-21,一般社団法人Ｂｕｎｋａ,,その他の設立登記法人,東京都,港区,虎ノ門３丁目２２番１０－２０１号,,13,103,1050001,,,,,,,2023-02-21,1,,,,,ブンカ,0
689,4011001152692,新規,0,2023-02-21,2023-02-21,株式会社ＡＧＥＮＴ　ＳＵＣＣＥＳＳ,,株式会社,東京都,渋谷区,恵比寿３丁目７－２,,13,113,1500013,,,,,,,2023-02-21,1,,,,,エージェントサクセス,0
691,4011101101814,新規,0,2023-02-21,2023-02-21,株式会社シャンメイク,,株式会社,東京都,新宿区,歌舞伎町２丁目２２番１３号ＡＤビル５階Ｃ室,,13,104,1600021,,,,,,,2023-02-21,1,,,,,シャンメイク,0
692,4011101101839,新規,0,2023-02-21,2023-02-21,株式会社Ｈｏｔａｋｏｕ,,株式会社,東京都,新宿区,西新宿３丁目３番１３号西新宿水間ビル６階,,13,104,1600023,,,,,,,2023-02-21,1,,,,,ホタコウ,0
693,4011101101913,新規,0,2023-02-21,2023-02-21,株式会社アステリア,,株式会社,東京都,新宿区,西新宿３丁目３番１３号西新宿水間ビル２Ｆ,,13,104,1600023,,,,,,,2023-02-21,1,,,,,アステリア,0
694,4011103012729,新規,0,2023-02-21,2023-02-21,合同会社エターナル,,合同会社,東京都,新宿区,西新宿３丁目３番１３号西新宿水間ビル６階,,13,104,1600023,,,,,,,2023-02-21,1,,,,,エターナル,0
696,4011303004674,新規,0,2023-02-21,2023-02-21,ライクユー合同会社,,合同会社,東京都,杉並区,上井草３丁目２３番１２号,,13,115,1670023,,,,,,,2023-02-21,1,,,,,ライクユー,0
699,4011601026602,新規,0,2023-02-21,2023-02-21,株式会社スリーウェイアソシエーション,,株式会社,東京都,練馬区,向山２丁目２０番８号,,13,120,1760022,,,,,,,2023-02-21,1,,,,,スリーウェイアソシエーション,0
704,4011801041970,新規,0,2023-02-21,2023-02-21,株式会社葛飾Ｇａｒａｇｅ,,株式会社,東京都,葛飾区,西水元２丁目１２番１８号,,13,122,1250031,,,,,,,2023-02-21,1,,,,,カツシカガレージ,0
713,4013301050361,新規,0,2023-02-21,2023-02-21,株式会社ＬＡｚｚｙ　Ｊａｐａｎ,,株式会社,東京都,豊島区,南長崎２丁目１番４号,,13,116,1710052,,,,,,,2023-02-21,1,,,,,ラジージャパン,0
714,4013303006502,新規,0,2023-02-21,2023-02-21,合同会社Ｏｂｊｅｃｔｉｆ,,合同会社,東京都,豊島区,北大塚２丁目１９番７号レピュア大塚１００３号,,13,116,1700004,,,,,,,2023-02-21,1,,,,,オブジェクティフ,0
722,4020003023372,新規,0,2023-02-21,2023-02-21,合同会社ＢＯＮＥＳ,,合同会社,神奈川県,横浜市中区,福富町東通４１番地２階,,14,104,2310044,,,,,,,2023-02-21,1,,,,,ボンズ,0
723,4020003023380,新規,0,2023-02-21,2023-02-21,合同会社ＦｒｅｅＣｒｏｗ,,合同会社,神奈川県,横浜市西区,浅間町１丁目４番３号ウィザードビル４０２,,14,103,2200072,,,,,,,2023-02-21,1,,,,,フリークロウ,0
737,4030001152478,新規,0,2023-02-21,2023-02-21,株式会社ｅｌｎｏ,,株式会社,埼玉県,和光市,下新倉４丁目１０番８０号,,11,229,3510111,,,,,,,2023-02-21,1,,,,,エルノ,0
738,4030001152486,新規,0,2023-02-21,2023-02-21,株式会社アシストエイト,,株式会社,埼玉県,和光市,下新倉５丁目１３番３４号,,11,229,3510111,,,,,,,2023-02-21,1,,,,,アシストエイト,0
739,4030001152511,新規,0,2023-02-21,2023-02-21,株式会社エムアイ,,株式会社,埼玉県,さいたま市見沼区,東大宮５丁目３５番地１８,,11,104,3370051,,,,,,,2023-02-21,1,,,,,エムアイ,0
744,4030003021219,新規,0,2023-02-21,2023-02-21,大博合同会社,,合同会社,埼玉県,越谷市,大字大林２５３番３５メゾンドミール２０２号室,,11,222,3430021,,,,,,,2023-02-21,1,,,,,ダイハク,0
753,4050001052429,新規,0,2023-02-21,2023-02-21,株式会社塚本ホールディングス,,株式会社,茨城県,土浦市,中貫２３６３番地,,08,203,3000005,,,,,,,2023-02-21,1,,,,,ツカモトホールディングス,0
759,4060003004435,新規,0,2023-02-21,2023-02-21,合同会社ひなてん,,合同会社,栃木県,宇都宮市,さつき１丁目１３－１８,,09,201,3210141,,,,,,,2023-02-21,1,,,,,ヒナテン,0
762,4070001040142,新規,0,2023-02-21,2023-02-21,株式会社ＡＬ　ＩＮＴＩＫＨＡＢ　ＴＲＡＤＩＮＧ,,株式会社,群馬県,邑楽郡邑楽町,大字赤堀４０３５番地２階－６,,10,525,3700614,,,,,,,2023-02-21,1,,,,,アルインタハーブトレーディング,0
778,4120103005087,新規,0,2023-02-21,2023-02-21,合同会社ＨＩＲＯ　ＩＭＰＯＲＴ　ＧＲＯＵＰ,,合同会社,大阪府,和泉市,国分町１５８３番地の２４,,27,219,5941114,,,,,,,2023-02-21,1,,,,,ヒロインポートグループ,0
783,4120901047157,新規,0,2023-02-21,2023-02-21,株式会社ミラニカ,,株式会社,大阪府,高槻市,庄所町２番９号,,27,207,5690064,,,,,,,2023-02-21,1,,,,,ミラニカ,0
790,4130001073706,新規,0,2023-02-21,2023-02-21,株式会社カードックオクムラサービスセンター,,株式会社,京都府,南丹市,園部町南大谷外鳥居２７番地,,26,213,6220059,,,,,,,2023-02-21,1,,,,,カードックオクムラサービスセンター,0
801,4140001129184,新規,0,2023-02-21,2023-02-21,株式会社海音堂,,株式会社,兵庫県,神戸市西区,桜が丘中町３丁目２番地の３タウンセンタージョイフル２階,,28,111,6512226,,,,,,,2023-02-21,1,,,,,カイオンドウ,0
802,4140001129192,新規,0,2023-02-21,2023-02-21,株式会社ＰＲＯＳ８,,株式会社,兵庫県,西宮市,神園町１５番２２号,,28,204,6620027,,,,,,,2023-02-21,1,,,,,プロスエイト,0
806,4140003018740,新規,0,2023-02-21,2023-02-21,合同会社アリア,,合同会社,兵庫県,西宮市,瓦林町２７番２号,,28,204,6638107,,,,,,,2023-02-21,1,,,,,アリア,0
816,4180003024875,新規,0,2023-02-21,2023-02-21,合同会社ＡＲＥＬ,,合同会社,愛知県,一宮市,平島２丁目６番３６号,,23,203,4910833,,,,,,,2023-02-21,1,,,,,アレル,0
817,4180301037125,新規,0,2023-02-21,2023-02-21,株式会社Ｐｉｎｅｓｕｐ,,株式会社,愛知県,田原市,相川町数原５６－４,,23,231,4413418,,,,,,,2023-02-21,1,,,,,パインズアップ,0
819,4190003004240,新規,0,2023-02-21,2023-02-21,ＮＢＭ合同会社,,合同会社,三重県,四日市市,別名６丁目２番２号,,24,202,5100007,,,,,,,2023-02-21,1,,,,,エヌビーエム,0
820,4200001040979,新規,0,2023-02-21,2023-02-21,Ｅｎｊｏｙ　Ｏｎｅ　Ｓｅｌｆ株式会社,,株式会社,岐阜県,岐阜市,太郎丸２１６２番地７０,,21,201,5012577,,,,,,,2023-02-21,1,,,,,エンジョイワンセルフ,0
821,4200003005848,新規,0,2023-02-21,2023-02-21,合同会社ｋａｅｄｅ,,合同会社,岐阜県,岐阜市,岩田東２丁目３８４番地,,21,201,5013154,,,,,,,2023-02-21,1,,,,,カエデ,0
824,4220001025284,新規,0,2023-02-21,2023-02-21,株式会社パートナーズ,,株式会社,石川県,金沢市,古府１丁目４３番地２,,17,201,9200362,,,,,,,2023-02-21,1,,,,,パートナーズ,0
825,4240001061113,新規,0,2023-02-21,2023-02-21,株式会社ハマダシャッター,,株式会社,広島県,福山市,瀬戸町大字長和１０番地１,,34,207,7200836,,,,,,,2023-02-21,1,,,,,ハマダシャッター,0
829,4250001019969,新規,0,2023-02-21,2023-02-21,龍＿苑株式会社,00129511,株式会社,山口県,下関市,武久町２丁目１番９号,,35,201,7510833,,,,,,,2023-02-21,1,,,,,リュウキンエン,0
832,4260003004209,新規,0,2023-02-21,2023-02-21,合同会社コロレ,,合同会社,岡山県,岡山市北区,富田５０８番地６,,33,101,7000936,,,,,,,2023-02-21,1,,,,,コロレ,0
836,4290001100626,新規,0,2023-02-21,2023-02-21,株式会社カムラッド,,株式会社,福岡県,福岡市東区,唐原３丁目１３番１０号,,40,131,8130001,,,,,,,2023-02-21,1,,,,,カムラッド,0
837,4290001100634,新規,0,2023-02-21,2023-02-21,株式会社ＳＫＹ　ＴＯＵＣＨ,,株式会社,福岡県,福岡市南区,塩原３丁目３番５号こじまコーポ２０１号,,40,134,8150032,,,,,,,2023-02-21,1,,,,,スカイタッチ,0
846,4290803004347,新規,0,2023-02-21,2023-02-21,合同会社ＭＯＫ,,合同会社,福岡県,北九州市小倉南区,田原新町１丁目３‐３‐４０３,,40,107,8000226,,,,,,,2023-02-21,1,,,,,エムオーケー,0
852,4350001018192,新規,0,2023-02-21,2023-02-21,スペックフィールド株式会社,,株式会社,宮崎県,東諸県郡国富町,大字竹田１５３６番地４,,45,382,8801107,,,,,,,2023-02-21,1,,,,,スペックフィールド,0
855,4360001031599,新規,0,2023-02-21,2023-02-21,株式会社聖浩,,株式会社,沖縄県,那覇市,高良３丁目７－７,,47,201,9010145,,,,,,,2023-02-21,1,,,,,セイコウ,0
856,4360003012738,新規,0,2023-02-21,2023-02-21,浩克小屋合同会社,,合同会社,沖縄県,国頭郡今帰仁村,字諸志２０３１番地１８１,,47,306,9050426,,,,,,,2023-02-21,1,,,,,ホクコヤ,0
857,4370001049608,新規,0,2023-02-21,2023-02-21,日本昭可貿易株式会社,,株式会社,宮城県,名取市,名取が丘３丁目２４番６号,,04,207,9811235,,,,,,,2023-02-21,1,,,,,ニホンショウカボウエキ,0
866,4390001017166,新規,0,2023-02-21,2023-02-21,株式会社観松館,,株式会社,山形県,最上郡最上町,大字大堀９８７番地,,06,362,9996211,,,,,,,2023-02-21,1,,,,,カンショウカン,0
869,4430001088467,新規,0,2023-02-21,2023-02-21,株式会社ｅｎ,,株式会社,北海道,札幌市中央区,北三条西１２丁目２番地１－６０８号,,01,101,0600003,,,,,,,2023-02-21,1,,,,,エン,0
871,4430003014751,新規,0,2023-02-21,2023-02-21,合同会社北海道ビジネスマネジメント,,合同会社,北海道,札幌市東区,東苗穂十四条２丁目２番３２号,,01,103,0070814,,,,,,,2023-02-21,1,,,,,ホッカイドウビジネスマネジメント,0
878,4470003002348,新規,0,2023-02-21,2023-02-21,合同会社オオタニ,,合同会社,香川県,丸亀市,飯山町川原６９２番地３,,37,202,7620082,,,,,,,2023-02-21,1,,,,,オオタニ,0
880,4490003001744,新規,0,2023-02-21,2023-02-21,合同会社エターナル,,合同会社,高知県,高知市,塩田町４番４号佐藤コーポ１０１,,39,201,7800065,,,,,,,2023-02-21,1,,,,,エターナル,0
889,5010003039872,新規,0,2023-02-21,2023-02-21,合同会社Ｌｉｎｏ,,合同会社,東京都,中央区,銀座１丁目９番１２号西山興業東銀座ビル４Ｆ,,13,102,1040061,,,,,,,2023-02-21,1,,,,,リノ,0
902,5010401172622,新規,0,2023-02-21,2023-02-21,株式会社ＯＮＥ,,株式会社,東京都,港区,虎ノ門３丁目７番２０号虎ノ門星野ビル,,13,103,1050001,,,,,,,2023-02-21,1,,,,,ワン,0
903,5010401172630,新規,0,2023-02-21,2023-02-21,株式会社ファイブ,,株式会社,東京都,港区,浜松町２丁目２番１５号浜松町ダイヤビル２Ｆ,,13,103,1050013,,,,,,,2023-02-21,1,,,,,ファイブ,0
904,5010401172639,新規,0,2023-02-21,2023-02-21,株式会社ＡＤＤＩＮ,,株式会社,東京都,港区,浜松町２丁目２番１５号浜松町ダイヤビル２Ｆ,,13,103,1050013,,,,,,,2023-02-21,1,,,,,アドイン,0
905,5010401172663,新規,0,2023-02-21,2023-02-21,株式会社ＢＬＡＣＫ　ＢＡＲ,,株式会社,東京都,港区,南青山５丁目１５番９号,,13,103,1070062,,,,,,,2023-02-21,1,,,,,ブラックバー,0
907,5010403029580,新規,0,2023-02-21,2023-02-21,ＵＩ　Ｔａｔｓｕｍｉ　ＭＬ合同会社,,合同会社,東京都,港区,元赤坂１丁目１番７号,,13,103,1070051,,,,,,,2023-02-21,1,,,,,ユーアイタツミエムエル,0
914,5010901052555,新規,0,2023-02-21,2023-02-21,株式会社ファルコン,,株式会社,東京都,世田谷区,下馬６丁目２１番５号,,13,112,1540002,,,,,,,2023-02-21,1,,,,,ファルコン,0
926,5011101101887,新規,0,2023-02-21,2023-02-21,株式会社アセットインフィニティ,,株式会社,東京都,新宿区,歌舞伎町２丁目３１－１１第２モナミビル５階,,13,104,1600021,,,,,,,2023-02-21,1,,,,,アセットインフィニティ,0
931,5011201024435,新規,0,2023-02-21,2023-02-21,超楽長寿株式会社,,株式会社,東京都,中野区,新井１丁目２４－４井上ビル,,13,114,1650026,,,,,,,2023-02-21,1,,,,,チョウラクチョウジュ,0
933,5011301028468,新規,0,2023-02-21,2023-02-21,はてなベース株式会社,,株式会社,東京都,杉並区,高円寺北４丁目２４－６,,13,115,1660002,,,,,,,2023-02-21,1,,,,,ハテナベース,0
935,5011401024912,新規,0,2023-02-21,2023-02-21,十勝酒造株式会社,,株式会社,東京都,板橋区,板橋１丁目８番４号,,13,119,1730004,,,,,,,2023-02-21,1,,,,,トカチシュゾウ,0
936,5011403003914,新規,0,2023-02-21,2023-02-21,ＩＮＤＯ　ＩＮＦＯＴＥＣＨ合同会社,,合同会社,東京都,板橋区,大山東町５９－１０－３Ｆ,,13,119,1730014,,,,,,,2023-02-21,1,,,,,インドインフォテック,0
938,5011701026014,新規,0,2023-02-21,2023-02-21,壹嵐株式会社,,株式会社,東京都,江戸川区,平井７丁目２０番１３－３０１,,13,123,1320035,,,,,,,2023-02-21,1,,,,,イチラン,0
941,5011801041961,新規,0,2023-02-21,2023-02-21,株式会社プロデュースエージェント,,株式会社,東京都,葛飾区,東四つ木４丁目３２番２号,,13,122,1240014,,,,,,,2023-02-21,1,,,,,プロデュースエージェント,0
944,5012303001784,新規,0,2023-02-21,2023-02-21,合同会社ＰＯＫＯ,,合同会社,東京都,町田市,能ヶ谷４丁目１７番１４号,,13,209,1950053,,,,,,,2023-02-21,1,,,,,ポコ,0
949,5012403005842,新規,0,2023-02-21,2023-02-21,Ｓｍｉｔｅ合同会社,,合同会社,東京都,三鷹市,上連雀４丁目１番２－４０２号,,13,204,1810012,,,,,,,2023-02-21,1,,,,,スマイト,0
959,5020001150085,新規,0,2023-02-21,2023-02-21,Ｆｏｒｃｅ株式会社,,株式会社,神奈川県,川崎市高津区,坂戸３丁目１６－１,,14,134,2130012,,,,,,,2023-02-21,1,,,,,フォース,0
960,5020001150275,新規,0,2023-02-21,2023-02-21,株式会社ＴＷＯＨ,,株式会社,神奈川県,横浜市泉区,上飯田町４９９番地１,,14,116,2450018,,,,,,,2023-02-21,1,,,,,ツーエイチ,0
961,5020001150358,新規,0,2023-02-21,2023-02-21,株式会社ユーティライズ,,株式会社,神奈川県,横浜市神奈川区,片倉５丁目３９番９－３号,,14,102,2210865,,,,,,,2023-02-21,1,,,,,ユーティライズ,0
964,5020003023248,新規,0,2023-02-21,2023-02-21,合同会社周防,,合同会社,神奈川県,川崎市宮前区,馬絹６丁目１７－１５ディアコート宮崎台Ａ３０７,,14,136,2160035,,,,,,,2023-02-21,1,,,,,スホウ,0
965,5020003023330,新規,0,2023-02-21,2023-02-21,合同会社シエル,,合同会社,神奈川県,横浜市南区,西中町１丁目３番地５ポルトボヌール黄金町２０２,,14,105,2320003,,,,,,,2023-02-21,1,,,,,シエル,0
966,5020003023339,新規,0,2023-02-21,2023-02-21,Ｆｕｎｃｔｅｒｙ合同会社,,合同会社,神奈川県,横浜市神奈川区,沢渡２１番地１９グリーンメゾン沢渡２０８号,,14,102,2210844,,,,,,,2023-02-21,1,,,,,ファンクテリー,0
968,5021001078250,新規,0,2023-02-21,2023-02-21,株式会社ＡＰＯＬＬＯ,,株式会社,神奈川県,海老名市,杉久保北４丁目３番１１号,,14,215,2430410,,,,,,,2023-02-21,1,,,,,アポロ,0
977,5030001152485,新規,0,2023-02-21,2023-02-21,株式会社Ｐｒｏｎｇ,,株式会社,埼玉県,さいたま市中央区,本町東５丁目１９－３,,11,105,3380003,,,,,,,2023-02-21,1,,,,,プロング,0
978,5030001152493,新規,0,2023-02-21,2023-02-21,三景株式会社,,株式会社,埼玉県,川口市,西川口４丁目９番１１－３２６号,,11,203,3320021,,,,,,,2023-02-21,1,,,,,サンケイ,0
981,5030003021192,新規,0,2023-02-21,2023-02-21,合同会社ＣＳＰ,,合同会社,埼玉県,さいたま市浦和区,本太４丁目８－１１－５０５,,11,107,3300052,,,,,,,2023-02-21,1,,,,,シーエスピー,0
987,5040001127148,新規,0,2023-02-21,2023-02-21,株式会社島田商事,,株式会社,千葉県,八街市,沖１０１５－３,,12,230,2891126,,,,,,,2023-02-21,1,,,,,シマダショウジ,0
988,5040001127189,新規,0,2023-02-21,2023-02-21,株式会社ＹＵＫＡＲＩ　ＪＡＰＡＮ,,株式会社,千葉県,匝瑳市,上谷中２２７０番地１１,,12,235,2892114,,,,,,,2023-02-21,1,,,,,ユカリジャパン,0
992,5040003021992,新規,0,2023-02-21,2023-02-21,合同会社ＳＥＱＵＥＮＣＥ,,合同会社,千葉県,船橋市,夏見台１丁目２０番１４棟,,12,204,2730866,,,,,,,2023-02-21,1,,,,,シークエンス,0
996,5050003007256,新規,0,2023-02-21,2023-02-21,Ａ＆Ａ　ＥＮＴＥＲＰＲＩＳＥ合同会社,,合同会社,茨城県,下妻市,下妻戊２３９番地１小嶋アパート２階２０１号,,08,210,3040062,,,,,,,2023-02-21,1,,,,,エーアンドエーエンタープライズ,0
998,5060001035704,新規,0,2023-02-21,2023-02-21,株式会社ウェルフェア,,株式会社,栃木県,那須塩原市,若草町１１７番地１８９,,09,213,3250032,,,,,,,2023-02-21,1,,,,,ウェルフェア,0
1005,5080401026326,新規,0,2023-02-21,2023-02-21,株式会社未来総研,,株式会社,静岡県,浜松市南区,寺脇町９３４番地の１,,22,134,4300841,,,,,,,2023-02-21,1,,,,,ミライソウケン,0
1006,5080403004734,新規,0,2023-02-21,2023-02-21,合同会社愛でる,,合同会社,静岡県,浜松市中区,和合町３－２１グランデール和合１０１,,22,131,4338125,,,,,,,2023-02-21,1,,,,,メデル,0
1009,5100001036160,新規,0,2023-02-21,2023-02-21,甲信ホールディングス株式会社,,株式会社,長野県,塩尻市,大字広丘野村九里巾２５１番地８,,20,215,3990702,,,,,,,2023-02-21,1,,,,,コウシンホールディングス,0
1011,5110001037307,新規,0,2023-02-21,2023-02-21,昇建株式会社,,株式会社,新潟県,新潟市東区,錦町２番１７号１４,,15,102,9500062,,,,,,,2023-02-21,1,,,,,ショウケン,0
1025,5120001252631,新規,0,2023-02-21,2023-02-21,株式会社ＡＬＬ　ＢＬＵＥ,,株式会社,大阪府,大阪市北区,堂島１丁目３番３９号,,27,127,5300003,,,,,,,2023-02-21,1,,,,,オールブルー,0
1026,5120001252656,新規,0,2023-02-21,2023-02-21,道生株式会社,,株式会社,大阪府,大阪市西成区,松３丁目１２－２－２０２,,27,122,5570034,,,,,,,2023-02-21,1,,,,,ドウセイ,0
1030,5120101066997,新規,0,2023-02-21,2023-02-21,ＹＴＤｏｏｒｓ株式会社,,株式会社,大阪府,高石市,高師浜４丁目３番４号,,27,225,5920004,,,,,,,2023-02-21,1,,,,,ワイティードアーズ,0
1031,5120101067013,新規,0,2023-02-21,2023-02-21,株式会社ラナンキュラス,,株式会社,大阪府,堺市北区,金岡町１４２３－３－１３２５,,27,146,5918022,,,,,,,2023-02-21,1,,,,,ラナンキュラス,0
1032,5120103005086,新規,0,2023-02-21,2023-02-21,合同会社ストリーム,,合同会社,大阪府,堺市東区,草尾２９９番地１５,,27,143,5998127,,,,,,,2023-02-21,1,,,,,ストリーム,0
1036,5130003008543,新規,0,2023-02-21,2023-02-21,創剤リサーチテック合同会社,,合同会社,京都府,京都市西京区,大枝北沓掛町３丁目１５番地６,,26,111,6101101,,,,,,,2023-02-21,1,,,,,ソウザイリサーチテック,0
1040,5140001129209,新規,0,2023-02-21,2023-02-21,株式会社ＳＡＩ　Ｊａｐａｎ,,株式会社,兵庫県,芦屋市,涼風町６番３号,,28,206,6590036,,,,,,,2023-02-21,1,,,,,エスエイアイジャパン,0
1057,5180001155011,新規,0,2023-02-21,2023-02-21,株式会社ＬＯＫＡＨＩ,,株式会社,愛知県,一宮市,若竹４丁目３番５号Ａ１０１号,,23,203,4910832,,,,,,,2023-02-21,1,,,,,ロカヒ,0
1058,5180001155060,新規,0,2023-02-21,2023-02-21,株式会社フォーピース,,株式会社,愛知県,北名古屋市,六ツ師南屋敷７６７番地,,23,234,4810001,,,,,,,2023-02-21,1,,,,,フォーピース,0
1065,5180301037124,新規,0,2023-02-21,2023-02-21,株式会社ＡＣＴ．１,,株式会社,愛知県,刈谷市,桜町１丁目７番地丸四ビル２Ｆ,,23,210,4480028,,,,,,,2023-02-21,1,,,,,アクトワン,0
1071,5200003005855,新規,0,2023-02-21,2023-02-21,合同会社ＭａｉｓｏｎＭｕｒｏｍｕｒａ,,合同会社,岐阜県,安八郡安八町,南今ケ渕５２３－１,,21,383,5030115,,,,,,,2023-02-21,1,,,,,メゾンムロムラ,0
1076,5250001019968,新規,0,2023-02-21,2023-02-21,グッドスマイルズ株式会社,,株式会社,山口県,山口市,桜畠２丁目９番３２号,,35,203,7530021,,,,,,,2023-02-21,1,,,,,グッドスマイルズ,0
1077,5250003003227,新規,0,2023-02-21,2023-02-21,合同会社Ｆ．Ｌ．Ｔ,,合同会社,山口県,防府市,中央町６番３７－２０２,,35,206,7470802,,,,,,,2023-02-21,1,,,,,エフエルティー,0
1078,5270005005541,新規,0,2023-02-21,2023-02-21,農事組合法人ふくのかみ,,その他の設立登記法人,鳥取県,日野郡日南町,神福１３１８番地,,31,401,6895672,,,,,,,2023-02-21,1,,,,,フクノカミ,0
1084,5290001100625,新規,0,2023-02-21,2023-02-21,株式会社緑水環境技研,,株式会社,福岡県,久留米市,大善寺町夜明１２２７番地３,,40,203,8300074,,,,,,,2023-02-21,1,,,,,リョクスイカンキョウギケン,0
1085,5290001100633,新規,0,2023-02-21,2023-02-21,株式会社ＵＤＣ,,株式会社,福岡県,福岡市博多区,諸岡３丁目１２番５号,,40,132,8120894,,,,,,,2023-02-21,1,,,,,ユーディーシー,0
1095,5340003004050,新規,0,2023-02-21,2023-02-21,合同会社ＰＥＡＣＥ,,合同会社,鹿児島県,鹿屋市,札元２丁目３８１６番地７リースランド札元Ｂ棟１０２号,,46,203,8930013,,,,,,,2023-02-21,1,,,,,ピース,0
1097,5360001031581,新規,0,2023-02-21,2023-02-21,アイランドスペース沖縄株式会社,,株式会社,沖縄県,島尻郡南大東村,字池之沢３６６－１,,47,357,9013806,,,,,,,2023-02-21,1,,,,,,0
1098,5370001049631,新規,0,2023-02-21,2023-02-21,株式会社コヤマ菓子店,,株式会社,宮城県,気仙沼市,魚市場前１番３１号,,04,205,9880037,,,,,,,2023-02-21,1,,,,,コヤマカシテン,0
1100,5390001017165,新規,0,2023-02-21,2023-02-21,株式会社山形毛利金融,,株式会社,山形県,村山市,楯岡新町２丁目１１番１７号,,06,208,9950033,,,,,,,2023-02-21,1,,,,,ヤマガタモウリキンユウ,0
1103,5400001016157,新規,0,2023-02-21,2023-02-21,株式会社エヌネット盛岡,,株式会社,岩手県,盛岡市,大通２丁目７番２６号杉山ビル５階,,03,201,0200022,,,,,,,2023-02-21,1,,,,,エヌネットモリオカ,0
1110,5430001088474,新規,0,2023-02-21,2023-02-21,健康生活素材株式会社,,株式会社,北海道,札幌市中央区,南四条西１０丁目１００４番地１南４条ユニハウス９１０,,01,101,0640804,,,,,,,2023-02-21,1,,,,,ケンコウセイカツソザイ,0
1115,5430003014759,新規,0,2023-02-21,2023-02-21,サムス合同会社,,合同会社,北海道,札幌市手稲区,明日風１丁目１０番２２号,,01,109,0060861,,,,,,,2023-02-21,1,,,,,サムス,0
1119,5490003001743,新規,0,2023-02-21,2023-02-21,合同会社美里葬祭,,合同会社,高知県,高岡郡檮原町,檮原１６２９番地２,,39,405,7850600,,,,,,,2023-02-21,1,,,,,ミサトソウサイ,0
1128,6010001233063,新規,0,2023-02-21,2023-02-21,株式会社Ｕｎｉｃｈｘｉａ　Ｃｏｒｐｏｒａｔｉｏｎ,,株式会社,東京都,中央区,銀座１丁目２２番１１号銀座大竹ビジデンス２Ｆ,,13,102,1040061,,,,,,,2023-02-21,1,,,,,ユニクシアコーポレーション,0
1129,6010001233121,新規,0,2023-02-21,2023-02-21,ディアコンサルティング株式会社,,株式会社,東京都,文京区,本郷４丁目１６番６号文京区本郷四丁目ビル天翔オフィス後楽園２階２１２号室,,13,105,1130033,,,,,,,2023-02-21,1,,,,,ディアコンサルティング,0
1130,6010001233154,新規,0,2023-02-21,2023-02-21,株式会社ＭＩＬＡＩＴ,,株式会社,東京都,中央区,築地２丁目５番６号,,13,102,1040045,,,,,,,2023-02-21,1,,,,,ミライト,0
1131,6010001233162,新規,0,2023-02-21,2023-02-21,琉球アジア人材ホールディングス株式会社,,株式会社,東京都,中央区,銀座６丁目６番１号銀座風月堂ビル５階,,13,102,1040061,,,,,,,2023-02-21,1,,,,,リュウキュウアジアジンザイホールディングス,0
1132,6010001233229,新規,0,2023-02-21,2023-02-21,株式会社ファースト,,株式会社,東京都,千代田区,霞が関３丁目６－１５,,13,101,1000013,,,,,,,2023-02-21,1,,,,,ファースト,0
1134,6010003039855,新規,0,2023-02-21,2023-02-21,ジャパクル合同会社,,合同会社,東京都,中央区,銀座１丁目２２番１１号銀座大竹ビジデンス２Ｆ,,13,102,1040061,,,,,,,2023-02-21,1,,,,,ジャパクル,0
1135,6010003039863,新規,0,2023-02-21,2023-02-21,Ｓｔａｒ合同会社,,合同会社,東京都,千代田区,丸の内３丁目１番１号東京共同会計事務所内,,13,101,1000005,,,,,,,2023-02-21,1,,,,,スター,0
1136,6010003039871,新規,0,2023-02-21,2023-02-21,Ｍｏｍｅｎｔ　Ｌａｂ合同会社,,合同会社,東京都,中央区,日本橋２丁目１番３号,,13,102,1030027,,,,,,,2023-02-21,1,,,,,モーメントラボ,0
1138,6010005036256,新規,0,2023-02-21,2023-02-21,一般社団法人コンプライアンス・アンド・キャパシティ・スキル・インターナショナル・アジア太平洋,,その他の設立登記法人,東京都,千代田区,九段南１丁目５番６号りそな九段ビル５Ｆ・ＫＳフロア,,13,101,1020074,,,,,,,2023-02-21,1,,,,,コンプライアンスアンドキャパシティスキルインターナショナルアジアタイヘイヨウ,0
1150,6010401172638,新規,0,2023-02-21,2023-02-21,株式会社大分地所,,株式会社,東京都,港区,元赤坂１丁目１番７号,,13,103,1070051,,,,,,,2023-02-21,1,,,,,オオイタジショ,0
1151,6010401172646,新規,0,2023-02-21,2023-02-21,元杉株式会社,,株式会社,東京都,港区,三田１丁目２番１８号ＴＴＤビル,,13,103,1080073,,,,,,,2023-02-21,1,,,,,モトスギ,0
1152,6010401172662,新規,0,2023-02-21,2023-02-21,株式会社ＹＴＧ,,株式会社,東京都,港区,愛宕１丁目１－１,,13,103,1050002,,,,,,,2023-02-21,1,,,,,ワイティージー,0
1153,6010401172670,新規,0,2023-02-21,2023-02-21,ＢＰインベストメント株式会社,,株式会社,東京都,港区,北青山２丁目５番１号,,13,103,1070061,,,,,,,2023-02-21,1,,,,,ビーピーインベストメント,0
1154,6010403029506,新規,0,2023-02-21,2023-02-21,合同会社姶良ソーラー６９,,合同会社,東京都,港区,浜松町１丁目２番１２号,,13,103,1050013,,,,,,,2023-02-21,1,,,,,アイラソーラーロクジュウキュウ,0
1155,6010403029571,新規,0,2023-02-21,2023-02-21,合同会社Ｔａｎｔｉｅｍｅ,,合同会社,東京都,港区,虎ノ門３丁目２２番１０－２０１号,,13,103,1050001,,,,,,,2023-02-21,1,,,,,タンティエーム,0
1158,6010501050033,新規,0,2023-02-21,2023-02-21,株式会社ＣＯＯＬ　ＦＩＴＮＥＳＳ,,株式会社,東京都,台東区,上野５丁目１３番４号２０１,,13,106,1100005,,,,,,,2023-02-21,1,,,,,クールフィットネス,0
1162,6010601062630,新規,0,2023-02-21,2023-02-21,株式会社ＳＩＲＯ,,株式会社,東京都,江東区,有明３丁目５番７号ＴＯＣ有明イーストタワー７階,,13,108,1350063,,,,,,,2023-02-21,1,,,,,シロ,0
1175,6011001152674,新規,0,2023-02-21,2023-02-21,ユニヴアーサル観光株式会社,,株式会社,東京都,渋谷区,千駄ヶ谷３丁目７番地秀和第二神宮レジデンス,,13,113,1510051,,,,,,,2023-02-21,1,,,,,ユニヴアーサルカンコウ,0
1176,6011001152690,新規,0,2023-02-21,2023-02-21,ＡＩＤ　Ｈｅａｌｔｈ　Ｃａｒｅ　Ｊａｐａｎ株式会社,,株式会社,東京都,渋谷区,東３丁目２５番３号ライオンズプラザ恵比寿４１３号室,,13,113,1500011,,,,,,,2023-02-21,1,,,,,エーアイディーヘルスケアジャパン,0
1185,6011003016316,新規,0,2023-02-21,2023-02-21,ＢＲＡＩＮＩＡＣ合同会社,,合同会社,東京都,渋谷区,千駄ヶ谷５丁目２番１０号,,13,113,1510051,,,,,,,2023-02-21,1,,,,,ブレイニアック,0
1187,6011101101886,新規,0,2023-02-21,2023-02-21,佳奉株式会社,,株式会社,東京都,新宿区,中井１丁目７－１０,,13,104,1610035,,,,,,,2023-02-21,1,,,,,カホウ,0
1191,6011201024442,新規,0,2023-02-21,2023-02-21,株式会社ＲｅｌｕｃｅＣｏｎｓｕｌｔｉｎｇ,,株式会社,東京都,中野区,弥生町６丁目６番１７－８０１号,,13,114,1640013,,,,,,,2023-02-21,1,,,,,リルーチェコンサルティング,0
1194,6011301028475,新規,0,2023-02-21,2023-02-21,株式会社荻窪,,株式会社,東京都,杉並区,天沼３丁目１０番１６号,,13,115,1670032,,,,,,,2023-02-21,1,,,,,オギクボ,0
1197,6011601026591,新規,0,2023-02-21,2023-02-21,株式会社ちきゅう,,株式会社,東京都,練馬区,上石神井３丁目３７－１コモドカリーノｓ,,13,120,1770044,,,,,,,2023-02-21,1,,,,,チキュウ,0
1200,6011803005534,新規,0,2023-02-21,2023-02-21,イテリア合同会社,,合同会社,東京都,足立区,扇１丁目２２番２６号,,13,121,1230873,,,,,,,2023-02-21,1,,,,,イテリア,0
1216,6020001150308,新規,0,2023-02-21,2023-02-21,株式会社Ｆｕ,,株式会社,神奈川県,横浜市緑区,十日市場町１２５８番地十日市場ヒルタウン１４－７号棟１００２号,,14,113,2260025,,,,,,,2023-02-21,1,,,,,フウ,0
1218,6020003023370,新規,0,2023-02-21,2023-02-21,合同会社サウスローレルアベニュー,,合同会社,神奈川県,横浜市青葉区,松風台３４番地１４,,14,117,2270067,,,,,,,2023-02-21,1,,,,,サウスローレルアベニュー,0
1219,6020003023379,新規,0,2023-02-21,2023-02-21,合同会社エブリ,,合同会社,神奈川県,横浜市泉区,和泉町７０９２－２クレール虹１０４,,14,116,2450016,,,,,,,2023-02-21,1,,,,,エブリ,0
1221,6021001078266,新規,0,2023-02-21,2023-02-21,株式会社Ｍ’ｓ　Ｇｒｏｕｐ,,株式会社,神奈川県,平塚市,西真土３丁目２０番３６号,,14,203,2540019,,,,,,,2023-02-21,1,,,,,エムズグループ,0
1224,6021003012652,新規,0,2023-02-21,2023-02-21,合同会社ＮＤＣ　ＰＲＯＪＥＣＴ,,合同会社,神奈川県,厚木市,妻田東２丁目１２―５,,14,212,2430813,,,,,,,2023-02-21,1,,,,,エヌディーシープロジェクト,0
1225,6021003012792,新規,0,2023-02-21,2023-02-21,Ｔｒｅａｓｕｒｙ合同会社,,合同会社,神奈川県,相模原市南区,御園１丁目２１番１４号,,14,153,2520317,,,,,,,2023-02-21,1,,,,,トレジャリー,0
1228,6030001152468,新規,0,2023-02-21,2023-02-21,朝益貿易株式会社,,株式会社,埼玉県,川口市,西川口１丁目３０番２０号３Ｆ,,11,203,3320021,,,,,,,2023-02-21,1,,,,,チョウイーマオーイー,0
1229,6030001152492,新規,0,2023-02-21,2023-02-21,株式会社アールエイト,,株式会社,埼玉県,さいたま市南区,別所２丁目７－２,,11,108,3360021,,,,,,,2023-02-21,1,,,,,アールエイト,0
1234,6030003021167,新規,0,2023-02-21,2023-02-21,合同会社ＳＤパートナーズ,,合同会社,埼玉県,さいたま市中央区,上落合６丁目１１－１、Ａ２１５,,11,105,3380001,,,,,,,2023-02-21,1,,,,,エスディパートナーズ,0
1235,6030003021217,新規,0,2023-02-21,2023-02-21,合同会社Ｎ．Ｐ．Ｍ．,,合同会社,埼玉県,川越市,西小仙波町２丁目１８番地４,,11,201,3500035,,,,,,,2023-02-21,1,,,,,エヌピーエム,0
1239,6040001127130,新規,0,2023-02-21,2023-02-21,株式会社Ｅ‐ｍａｎａｇｅｍｅｎｔ,,株式会社,千葉県,市川市,八幡１丁目４番２５号,,12,203,2720021,,,,,,,2023-02-21,1,,,,,イーマネジメント,0
1241,6040003022008,新規,0,2023-02-21,2023-02-21,Ｐｈｙｓｉｃｉａｎｓ　Ｗｅｌｌｎｅｓｓ　Ｐｒｏｄｕｃｔｓ　Ｊａｐａｎ合同会社,,合同会社,千葉県,印西市,吉高１８８６番地４７,,12,231,2701603,,,,,,,2023-02-21,1,,,,,フィジィシャンズウェルネスプロダクツジャパン,0
1245,6050001052427,新規,0,2023-02-21,2023-02-21,境町Ｅエージェント株式会社,,株式会社,茨城県,猿島郡境町,大字長井戸２４８番地１,,08,546,3060404,,,,,,,2023-02-21,1,,,,,サカイマチイーエージェント,0
1246,6050001052435,新規,0,2023-02-21,2023-02-21,株式会社ｆｏｒｍｅ,,株式会社,茨城県,結城市,大字上山川２７６番地,,08,207,3070021,,,,,,,2023-02-21,1,,,,,フォーム,0
1249,6050003007247,新規,0,2023-02-21,2023-02-21,Ｖｉｊａｙａ　ｒｅｓｔａｕｒａｎｔ＆ｓｐｉｃｅ合同会社,,合同会社,茨城県,結城市,大字大木１９１７番地秋田住宅南２階南側,,08,207,3070031,,,,,,,2023-02-21,1,,,,,ヴィジャヤレストランアンドスパイス,0
1261,6110001037306,新規,0,2023-02-21,2023-02-21,株式会社せきかわ,,株式会社,新潟県,燕市,吉田鴻巣５７０番地３,,15,213,9590261,,,,,,,2023-02-21,1,,,,,セキカワ,0
1275,6120001252639,新規,0,2023-02-21,2023-02-21,日産設計監理株式会社,,株式会社,大阪府,大阪市淀川区,木川東３丁目４番９号,,27,123,5320012,,,,,,,2023-02-21,1,,,,,ニッサンセッケイカンリ,0
1276,6120001252663,新規,0,2023-02-21,2023-02-21,株式会社ｅｌａｍａｒｃｈ,,株式会社,大阪府,大阪市住吉区,墨江４丁目３番１６号,,27,120,5580043,,,,,,,2023-02-21,1,,,,,エラマーチ,0
1280,6120101067012,新規,0,2023-02-21,2023-02-21,安泰株式会社,,株式会社,大阪府,堺市中区,平井８５１番地１５,,27,142,5998251,,,,,,,2023-02-21,1,,,,,アンタイ,0
1285,6122001036716,新規,0,2023-02-21,2023-02-21,株式会社ピュア,,株式会社,大阪府,東大阪市,新庄３丁目１８番１７号,,27,227,5780963,,,,,,,2023-02-21,1,,,,,ピュア,0
1288,6130001073720,新規,0,2023-02-21,2023-02-21,株式会社ＳＯＬ,,株式会社,京都府,京都市左京区,松ケ崎修理式町３番地８,,26,103,6060964,,,,,,,2023-02-21,1,,,,,ソル,0
1289,6130003008542,新規,0,2023-02-21,2023-02-21,Ｐｏｉｅｓｉｓ　Ｌａｂｓ合同会社,,合同会社,京都府,京都市下京区,寺町通五条上る西橋詰町７６２番地,,26,106,6008029,,,,,,,2023-02-21,1,,,,,ポイエーシスラボ,0
1290,6130005016700,新規,0,2023-02-21,2023-02-21,一般社団法人フクシア,,その他の設立登記法人,京都府,亀岡市,千代川町小川２丁目８番１５－３００１号,,26,206,6210041,,,,,,,2023-02-21,1,,,,,フクシア,0
1300,6160001024836,新規,0,2023-02-21,2023-02-21,株式会社Ｃ’ｅｓｔ　Ｌａ　Ｖｉｅ,,株式会社,滋賀県,栗東市,中沢３丁目１６番２０号,,25,208,5203025,,,,,,,2023-02-21,1,,,,,セラヴィ,0
1308,6180001154788,新規,0,2023-02-21,2023-02-21,株式会社ＢＡＬＳＡ,,株式会社,愛知県,名古屋市中川区,荒江町２５番１５号,,23,110,4540032,,,,,,,2023-02-21,1,,,,,バルサ,0
1313,6180005020094,新規,0,2023-02-21,2023-02-21,中部ナイス国際交流事業協同組合,,その他の設立登記法人,愛知県,稲沢市,国府宮４丁目６番８号,,23,220,4928137,,,,,,,2023-02-21,1,,,,,チュウブナイスコクサイコウリュウ,0
1315,6180301037115,新規,0,2023-02-21,2023-02-21,株式会社フォルトゥーナ,,株式会社,愛知県,豊橋市,野依町字向河原２番地の３４,,23,201,4418124,,,,,,,2023-02-21,1,,,,,フォルトゥーナ,0
1316,6180301037123,新規,0,2023-02-21,2023-02-21,株式会社やはた資格,,株式会社,愛知県,刈谷市,恩田町３丁目１５７番地２,,23,210,4480013,,,,,,,2023-02-21,1,,,,,ヤハタシカク,0
1317,6180305009449,新規,0,2023-02-21,2023-02-21,一般社団法人神は愛,,その他の設立登記法人,愛知県,安城市,篠目町古林田半９８地番１,,23,212,4460073,,,,,,,2023-02-21,1,,,,,カミハアイ,0
1318,6190001030179,新規,0,2023-02-21,2023-02-21,株式会社駒田自工,,株式会社,三重県,津市,神納町１５番１１号,,24,201,5140052,,,,,,,2023-02-21,1,,,,,コマダジコウ,0
1322,6200001040985,新規,0,2023-02-21,2023-02-21,株式会社Ｌｉｅｎ　ｄｕ　ｃｏｅｕｒ　Ｆｅｒｍｉｅｒ,,株式会社,岐阜県,各務原市,前渡東町８丁目２６５番地,,21,213,5040922,,,,,,,2023-02-21,1,,,,,リアンドゥクールフェルミエ,0
1323,6220001025282,新規,0,2023-02-21,2023-02-21,株式会社邑人,,株式会社,石川県,河北郡津幡町,字北中条ナ５７番地,,17,361,9290342,,,,,,,2023-02-21,1,,,,,オーリー,0
1324,6230001019721,新規,0,2023-02-21,2023-02-21,株式会社Ｔ‐ｗｅｌｄ,,株式会社,富山県,富山市,水落１丁目２０番地２２,,16,201,9318301,,,,,,,2023-02-21,1,,,,,ティーウェルド,0
1332,6290001100616,新規,0,2023-02-21,2023-02-21,株式会社ｆｕｎｔｏｌｅｒｎ,,株式会社,福岡県,久留米市,梅満町１１２７番地３新生マンション花畑西１３０６号,,40,203,8300048,,,,,,,2023-02-21,1,,,,,ファントラン,0
1333,6290001100632,新規,0,2023-02-21,2023-02-21,株式会社デザインマーケット,,株式会社,福岡県,福岡市博多区,博多駅南４丁目１１番２８号大島ビル１０６－２,,40,132,8120016,,,,,,,2023-02-21,1,,,,,デザインマーケット,0
1342,6340001025386,新規,0,2023-02-21,2023-02-21,株式会社アグリーンなんぐう,,株式会社,鹿児島県,肝属郡南大隅町,根占川北１７２９番地,,46,491,8932501,,,,,,,2023-02-21,1,,,,,アグリーンナングウ,0
1343,6360001031589,新規,0,2023-02-21,2023-02-21,ＰｌａｎＣ株式会社,,株式会社,沖縄県,中頭郡北谷町,字宮城２番地１６４,,47,326,9040113,,,,,,,2023-02-21,1,,,,,プランシー,0
1344,6360001031597,新規,0,2023-02-21,2023-02-21,美らシイタケ株式会社,,株式会社,沖縄県,国頭郡恩納村,字名嘉真６０番地,,47,311,9040401,,,,,,,2023-02-21,1,,,,,チュラシイタケ,0
1345,6360003012744,新規,0,2023-02-21,2023-02-21,合同会社島商事,,合同会社,沖縄県,南城市,大里字大城１８２０番地７,,47,215,9011203,,,,,,,2023-02-21,1,,,,,シマショウジ,0
1348,6390001017164,新規,0,2023-02-21,2023-02-21,吉祥李株式会社,,株式会社,山形県,山形市,十日町２丁目４番３０号,,06,201,9900031,,,,,,,2023-02-21,1,,,,,キチジョウリ,0
1350,6390005008993,新規,0,2023-02-21,2023-02-21,一般社団法人福祉やまがた,,その他の設立登記法人,山形県,山形市,山家町２丁目７番１７号,,06,201,9900063,,,,,,,2023-02-21,1,,,,,フクシヤマガタ,0
1359,6420003002664,新規,0,2023-02-21,2023-02-21,合同会社ＴＵＮＡ,,合同会社,青森県,青森市,本町１丁目４番１６号青森グリーンパークホテル１Ｆ,,02,201,0300802,,,,,,,2023-02-21,1,,,,,ツナ,0
1364,6430001088473,新規,0,2023-02-21,2023-02-21,株式会社ＩｎｎｏｖａｔｉｏｎＢＡＳＥ北海道,,株式会社,北海道,札幌市中央区,大通西３丁目６号北海道新聞本社ビル２Ｆ　ＳＡＰＰＯＲＯ　Ｉｎｃｕｂａｔｉｏｎ　Ｈｕｂ　ＤＲＩＶＥ,,01,101,0600042,,,,,,,2023-02-21,1,,,,,イノベーションベースホッカイドウ,0
1369,6430005014640,新規,0,2023-02-21,2023-02-21,一般社団法人北海道食と文化研究所,,その他の設立登記法人,北海道,札幌市中央区,南三条西４丁目２１番地６南三西四ビル９階,,01,101,0600063,,,,,,,2023-02-21,1,,,,,ホッカイドウショクトブンカケンキュウショ,0
1371,6450001013909,新規,0,2023-02-21,2023-02-21,株式会社ＣＳＴ,,株式会社,北海道,旭川市,神楽岡八条６丁目３番１８号,,01,204,0788318,,,,,,,2023-02-21,1,,,,,シーエスティー,0
1375,6700150050181,新規,0,2023-02-21,2015-10-09,九頭竜フェスティバル実行委員会,,その他,福井県,吉田郡永平寺町,松岡春日１丁目４,,18,322,9101133,,,,,,,2015-10-09,1,,,,,クズリユウフエステイバルジツコウイインカイ,0
1382,7010001233153,新規,0,2023-02-21,2023-02-21,チャンステクノス株式会社,,株式会社,東京都,千代田区,神田神保町１丁目１４番３号ＭＴ－Ｏ神保町１１Ｆ,,13,101,1010051,,,,,,,2023-02-21,1,,,,,チャンステクノス,0
1383,7010001233161,新規,0,2023-02-21,2023-02-21,株式会社Ｕｎｉ　Ｊａｐａｎ,,株式会社,東京都,中央区,銀座１丁目１５番７号ＭＡＣ銀座ビル３階,,13,102,1040061,,,,,,,2023-02-21,1,,,,,ユニジャパン,0
1384,7010001233236,新規,0,2023-02-21,2023-02-21,株式会社ＵＭＡＮ,,株式会社,東京都,中央区,銀座１丁目２２番１１号銀座大竹ビジデンス２Ｆ,,13,102,1040061,,,,,,,2023-02-21,1,,,,,ウーマン,0
1397,7010403029521,新規,0,2023-02-21,2023-02-21,Ｇｌｏｂａｌ　Ｐｒｏｃｅｓｓｉｎｇ　Ｓｅｒｖｉｃｅｓ合同会社,,合同会社,東京都,港区,西新橋３丁目２４番８号山内ビル３階,,13,103,1050003,,,,,,,2023-02-21,1,,,,,グローバルプロセッシングサービシズ,0
1398,7010403029570,新規,0,2023-02-21,2023-02-21,合同会社Ｎｕｃｃｉｏ,,合同会社,東京都,港区,虎ノ門３丁目２２番１０－２０１号,,13,103,1050001,,,,,,,2023-02-21,1,,,,,ヌッチョ,0
1400,7010405021823,新規,0,2023-02-21,2023-02-21,ＭＦＪＰＮ５特定目的会社,,その他の設立登記法人,東京都,港区,虎ノ門３丁目２２番１０－２０１号,,13,103,1050001,,,,,,,2023-02-21,1,,,,,エムエフジェイピーエヌファイブ,0
1403,7010601062638,新規,0,2023-02-21,2023-02-21,Ｆｉｒｓｔ　Ｐｉｎ株式会社,,株式会社,東京都,江東区,有明３丁目７－１１有明パークビル２０Ｆ,,13,108,1350063,,,,,,,2023-02-21,1,,,,,ファーストピン,0
1412,7010903007992,新規,0,2023-02-21,2023-02-21,ＭＨ合同会社,,合同会社,東京都,世田谷区,千歳台５丁目２番５号３階３０１,,13,112,1570071,,,,,,,2023-02-21,1,,,,,エムエイチ,0
1419,7011503005486,新規,0,2023-02-21,2023-02-21,合同会社ＷＩＮＮＹ,,合同会社,東京都,北区,滝野川６丁目６３番９号第一大橋ビル２階,,13,117,1140023,,,,,,,2023-02-21,1,,,,,ウィニー,0
1423,7011803005533,新規,0,2023-02-21,2023-02-21,合同会社トイプー,,合同会社,東京都,足立区,梅田２丁目９－４,,13,121,1230851,,,,,,,2023-02-21,1,,,,,トイプー,0
1426,7012403005840,新規,0,2023-02-21,2023-02-21,合同会社ＰＵＥＮＴＥＳ,,合同会社,東京都,小金井市,前原町４丁目２０番４号,,13,210,1840013,,,,,,,2023-02-21,1,,,,,プエンテス,0
1427,7012405004832,新規,0,2023-02-21,2023-02-21,一般社団法人日本標準必須特許サポートセンター,,その他の設立登記法人,東京都,武蔵野市,吉祥寺本町１丁目１０番３１号,,13,203,1800004,,,,,,,2023-02-21,1,,,,,ニホンヒョウジュンヒッストッキョサポートセンター,0
1434,7020001150356,新規,0,2023-02-21,2023-02-21,あいあーる株式会社,,株式会社,神奈川県,横浜市中区,野毛町２丁目７１番地６・２階,,14,104,2310064,,,,,,,2023-02-21,1,,,,,アイアール,0
1440,7021001078265,新規,0,2023-02-21,2023-02-21,株式会社アイキューアシスト,,株式会社,神奈川県,綾瀬市,大上５丁目１１番１１号,,14,218,2521104,,,,,,,2023-02-21,1,,,,,アイキューアシスト,0
1442,7021003012783,新規,0,2023-02-21,2023-02-21,合同会社Ｙａｔｔａｒ,,合同会社,神奈川県,座間市,相模が丘６丁目２５‐１‐２１３,,14,216,2520001,,,,,,,2023-02-21,1,,,,,ヤッター,0
1449,7030001152467,新規,0,2023-02-21,2023-02-21,株式会社誠企画,,株式会社,埼玉県,さいたま市大宮区,桜木町４丁目３０５番地第５メゾン稲垣２０１,,11,103,3300854,,,,,,,2023-02-21,1,,,,,マコトキカク,0
1450,7030001152483,新規,0,2023-02-21,2023-02-21,株式会社松本,,株式会社,埼玉県,新座市,野寺４丁目１２番１９号,,11,230,3520034,,,,,,,2023-02-21,1,,,,,マツモト,0
1451,7030001152500,新規,0,2023-02-21,2023-02-21,スター建装株式会社,,株式会社,埼玉県,川口市,芝中田１丁目２２番２２号,,11,203,3330847,,,,,,,2023-02-21,1,,,,,スターケンソウ,0
1465,7040003022007,新規,0,2023-02-21,2023-02-21,たこみんＦＭ合同会社,,合同会社,千葉県,香取郡多古町,多古１１０１番１号ＧＲＩＤビル２階,,12,347,2892241,,,,,,,2023-02-21,1,,,,,タコミンエフエム,0
1469,7050003007246,新規,0,2023-02-21,2023-02-21,ＴＡＨＡ　ＴＲＡＤＩＮＧ合同会社,,合同会社,茨城県,猿島郡境町,２２６５番地栄井貸家（桜下一号）４号室,,08,546,3060433,,,,,,,2023-02-21,1,,,,,タハトレーディング,0
1470,7050003007254,新規,0,2023-02-21,2023-02-21,合同会社尚栄住設,,合同会社,茨城県,取手市,青柳３９２番地３－４０５号,,08,217,3020006,,,,,,,2023-02-21,1,,,,,ショウエイジュウセツ,0
1481,7090003002251,新規,0,2023-02-21,2023-02-21,合同会社ＥＶＥＲ　ＲＯＯＴＳ,,合同会社,山梨県,甲府市,蓬沢１丁目４番２５号古谷ハイツ１０１,,19,201,4000827,,,,,,,2023-02-21,1,,,,,エバールーツ,0
1494,7120001252308,新規,0,2023-02-21,2023-02-21,リレーションシップ＆ヒューマンリソース株式会社,,株式会社,大阪府,大阪市淀川区,宮原２丁目１４番２７号新大阪クリエイトビル３０２号室,,27,123,5320003,,,,,,,2023-02-21,1,,,,,リレーマンシップアンドヒューマンリソース,0
1498,7120003023467,新規,0,2023-02-21,2023-02-21,ＫＩＭＩ　ＳＴＵＤＩＯ合同会社,,合同会社,大阪府,大阪市生野区,新今里３丁目８番１７号ラ・フォンテ今里４０５号室,,27,116,5440001,,,,,,,2023-02-21,1,,,,,,0
1499,7120003023475,新規,0,2023-02-21,2023-02-21,国際物流パートナーズ合同会社,,合同会社,大阪府,大阪市天王寺区,生玉町９番１６号サメジマビル３階,,27,109,5430071,,,,,,,2023-02-21,1,,,,,コクサイブツリュウパートナーズ,0
1501,7120005023481,新規,0,2023-02-21,2023-02-21,大阪基督教生命堂,,その他の設立登記法人,大阪府,大阪市都島区,都島本通４丁目２２番３３号,,27,102,5340021,,,,,,,2023-02-21,1,,,,,オオサカキリストキョウセイメイドウ,0
1503,7120101067011,新規,0,2023-02-21,2023-02-21,大信マネジメント株式会社,,株式会社,大阪府,高石市,西取石８丁目７番１号,,27,225,5920012,,,,,,,2023-02-21,1,,,,,ダイシンマネジメント,0
1505,7120901047154,新規,0,2023-02-21,2023-02-21,イハヴィール株式会社,,株式会社,大阪府,豊中市,新千里北町３丁目４番３－５０７号,,27,203,5600081,,,,,,,2023-02-21,1,,,,,イハヴィール,0
1511,7130003008541,新規,0,2023-02-21,2023-02-21,プレイラボ合同会社,,合同会社,京都府,宇治市,槇島町落合７７番地－１０１号,,26,204,6110041,,,,,,,2023-02-21,1,,,,,プレイラボ,0
1515,7140001129157,新規,0,2023-02-21,2023-02-21,株式会社Ｃｕｂｅｃ,,株式会社,兵庫県,神戸市東灘区,向洋町中３丁目１番地の１０・２番館３１２号,,28,101,6580032,,,,,,,2023-02-21,1,,,,,キューベック,0
1520,7180001155067,新規,0,2023-02-21,2023-02-21,株式会社ＯｍｉＩＳ,,株式会社,愛知県,名古屋市守山区,町南２１番１７号,,23,113,4630066,,,,,,,2023-02-21,1,,,,,オミイズ,0
1523,7180301037114,新規,0,2023-02-21,2023-02-21,株式会社Ｍ＆Ｈ,,株式会社,愛知県,安城市,高棚町蛭田５２番地２,,23,212,4460053,,,,,,,2023-02-21,1,,,,,エムアンドエイチ,0
1524,7190001030178,新規,0,2023-02-21,2023-02-21,株式会社ＶＳＨＫ,,株式会社,三重県,鈴鹿市,東玉垣町２８５０番地の１０,,24,207,5130814,,,,,,,2023-02-21,1,,,,,ブイエスエイチケイ,0
1533,7260003004206,新規,0,2023-02-21,2023-02-21,合同会社アーク住建,,合同会社,岡山県,岡山市北区,野田２丁目２番２５－３０７,,33,101,7000971,,,,,,,2023-02-21,1,,,,,,0
1541,7290001100623,新規,0,2023-02-21,2023-02-21,九建株式会社,,株式会社,福岡県,福岡市南区,長住１丁目５番５１－３号ｍｓ０５,,40,134,8111362,,,,,,,2023-02-21,1,,,,,キュウケン,0
1542,7290001100631,新規,0,2023-02-21,2023-02-21,株式会社ハイブリッド,,株式会社,福岡県,福岡市博多区,博多駅南４丁目１１番２８号大島ビル１０６－２,,40,132,8120016,,,,,,,2023-02-21,1,,,,,ハイブリッド,0
1548,7290801029293,新規,0,2023-02-21,2023-02-21,株式会社東野ビルディング,,株式会社,福岡県,北九州市門司区,原町別院１２番１９号,,40,101,8000037,,,,,,,2023-02-21,1,,,,,トウノビルディング,0
1554,7320001019579,新規,0,2023-02-21,2023-02-21,株式会社ＰＳＤＭホールディングス,,株式会社,大分県,別府市,大字平道９８８番地の１,,44,202,8740000,,,,,,,2023-02-21,1,,,,,パズダムホールディングス,0
1566,7360001031596,新規,0,2023-02-21,2023-02-21,ＴＬＣ株式会社,,株式会社,沖縄県,那覇市,首里平良町１丁目３５番地１ＩｎｓｉｄｅＷｈｉｌｅ３０１,,47,201,9030803,,,,,,,2023-02-21,1,,,,,ティーエルシー,0
1568,7360003012743,新規,0,2023-02-21,2023-02-21,合同会社パッショーネ,,合同会社,沖縄県,中頭郡西原町,字翁長４８５番地の９,,47,329,9030117,,,,,,,2023-02-21,1,,,,,パッショーネ,0
1574,7380001033500,新規,0,2023-02-21,2023-02-21,株式会社ＣＲＡＳＯＬ,,株式会社,福島県,郡山市,鳴神３丁目２５番地３ユニティー鳴神１階１０１号室,,07,203,9630207,,,,,,,2023-02-21,1,,,,,クラソル,0
1582,7430001088398,新規,0,2023-02-21,2023-02-21,株式会社スプレー,,株式会社,北海道,小樽市,銭函２丁目６番３号,,01,203,0470261,,,,,,,2023-02-21,1,,,,,スプレー,0
1583,7430001088472,新規,0,2023-02-21,2023-02-21,株式会社Ｎｏｒｔｈ　Ｐｏｗｅｒｓ２１,,株式会社,北海道,札幌市白石区,北郷四条２丁目４番２０号,,01,104,0030834,,,,,,,2023-02-21,1,,,,,ノースパワーズニジュウイチ,0
1584,7450001013908,新規,0,2023-02-21,2023-02-21,株式会社ＲＥＤ　ＢＡＳＥ,,株式会社,北海道,上川郡東神楽町,南二条西２丁目２番１２号,,01,453,0711503,,,,,,,2023-02-21,1,,,,,レッドベース,0
1590,7480003001940,新規,0,2023-02-21,2023-02-21,合同会社Ｇｒｅｅｎ　Ｒｉｖｅｒ,,合同会社,徳島県,板野郡藍住町,矢上字原２６３番地の６１,,36,403,7711251,,,,,,,2023-02-21,1,,,,,グリーンリバー,0
1592,7490005006887,新規,0,2023-02-21,2023-02-21,農事組合法人上長谷営農組合,,その他の設立登記法人,高知県,幡多郡三原村,大字上長谷５２番地４,,39,427,7870805,,,,,,,2023-02-21,1,,,,,カミナガタニエイノウクミアイ,0
1593,7700150038102,新規,0,2023-02-21,2015-10-09,いわき市遠野オ－トキャンプ場管理運営委員会,,その他,福島県,いわき市,遠野町入遠野字越台９７－１,,07,204,9720251,,,,,,,2015-10-09,1,,,,,イワキシトオノオートキヤンプジヨウカンリウンエイイインカイ,0
1595,7700150114448,新規,0,2023-02-21,2023-02-21,ＬＡＮＧＵＡＧＥ　ＰＲＯ　ＡＳＩＡ　ＣＯＭＰＡＮＹ　ＬＩＭＩＴＥＤ,,外国会社等,,,,,,,,ＦＬＡＴ／ＲＭ　０６　２３／Ｆ　ＰＲＯＳＰＥＲ　ＣＯＭＭＥＲＣＩＡＬ　ＢＵＩＬＤＩＮＧ　９　ＹＩＮ　ＣＨＯＮＧ　ＳＴＲＥＥＴ　ＭＯＮＧＫＯＫ　ＫＬ,,,,,,2023-02-21,1,,,,,ランゲツジプロアジアカンパニーリミテツド,0
1600,8010001233020,新規,0,2023-02-21,2023-02-21,コネクター・パーソネル株式会社,,株式会社,東京都,千代田区,東神田１丁目１５番９号,,13,101,1010031,,,,,,,2023-02-21,1,,,,,コネクターパーソネル,0
1601,8010001233111,新規,0,2023-02-21,2023-02-21,株式会社Ｂｏｎｄ,,株式会社,東京都,中央区,銀座８丁目４番２７号,,13,102,1040061,,,,,,,2023-02-21,1,,,,,ボンド,0
1602,8010001233169,新規,0,2023-02-21,2023-02-21,株式会社Ｔｏｍｏｎｉｉｌｅ,,株式会社,東京都,中央区,銀座１丁目２２番１１号銀座大竹ビジデンス２Ｆ,,13,102,1040061,,,,,,,2023-02-21,1,,,,,トモニール,0
1609,8010003039861,新規,0,2023-02-21,2023-02-21,エネグローバル太陽光１号合同会社,,合同会社,東京都,千代田区,一ツ橋２丁目６番３号アクシスインベストメントアドバイザーズ株式会社内,,13,101,1010003,,,,,,,2023-02-21,1,,,,,エネグローバルタイヨウコウイチゴウ,0
1613,8010101015525,新規,0,2023-02-21,2023-02-21,株式会社愛され商店街,,株式会社,東京都,八王子市,散田町４丁目１１番１２号散田ビル１０２,,13,201,1930832,,,,,,,2023-02-21,1,,,,,アイサレショウテンガイ,0
1614,8010101015533,新規,0,2023-02-21,2023-02-21,株式会社ミュー,,株式会社,東京都,八王子市,東町１２番１６号岡崎ビル２Ｆ,,13,201,1920082,,,,,,,2023-02-21,1,,,,,ミュー,0
1618,8010401172677,新規,0,2023-02-21,2023-02-21,株式会社ＬｏｇＡｓｓｅｔ,,株式会社,東京都,港区,北青山３丁目６番２３号,,13,103,1070061,,,,,,,2023-02-21,1,,,,,ログアセット,0
1624,8010405021806,新規,0,2023-02-21,2023-02-21,一般社団法人日本セミパーソナルトレーニング協会,,その他の設立登記法人,東京都,港区,東麻布３丁目７番１１号,,13,103,1060044,,,,,,,2023-02-21,1,,,,,ニホンセミパーソナルトレーニングキョウカイ,0
1627,8010503006898,新規,0,2023-02-21,2023-02-21,タフト合同会社,,合同会社,東京都,台東区,池之端１丁目４－２８ライオンズプラザ池之端１３０４号室,,13,106,1100008,,,,,,,2023-02-21,1,,,,,タフト,0
1638,8010903007983,新規,0,2023-02-21,2023-02-21,センスオブワンダー合同会社,,合同会社,東京都,世田谷区,奥沢２丁目４０－３ファミグリア自由が丘２０１,,13,112,1580083,,,,,,,2023-02-21,1,,,,,,0
1643,8011003016314,新規,0,2023-02-21,2023-02-21,合同会社Ｔｓｕｎａ．Ｇ,,合同会社,東京都,渋谷区,神宮前６丁目２３番４号桑野ビル２階,,13,113,1500001,,,,,,,2023-02-21,1,,,,,ツナグ,0
1649,8011101101901,新規,0,2023-02-21,2023-02-21,ＧＬＤ商事株式会社,,株式会社,東京都,新宿区,西新宿３丁目３番１３号西新宿水間ビル２Ｆ,,13,104,1600023,,,,,,,2023-02-21,1,,,,,ジーエルディーショウジ,0
1650,8011103012717,新規,0,2023-02-21,2023-02-21,弘然合同会社,,合同会社,東京都,新宿区,榎町３４－３榎町ビル７階０５号室,,13,104,1620806,,,,,,,2023-02-21,1,,,,,コウゼン,0
1652,8011201024440,新規,0,2023-02-21,2023-02-21,Ｇｉｖｉｎｇｂａｃｋコンサルティング株式会社,,株式会社,東京都,中野区,本町３丁目３２－８ルーブル新中野２０２,,13,114,1640012,,,,,,,2023-02-21,1,,,,,ギビングバックコンサルティング,0
1653,8011301028473,新規,0,2023-02-21,2023-02-21,ソワニエール株式会社,,株式会社,東京都,杉並区,上高井戸１丁目３２－５７,,13,115,1680074,,,,,,,2023-02-21,1,,,,,ソワニエール,0
1664,8012701017487,新規,0,2023-02-21,2023-02-21,株式会社桔梗屋,,株式会社,東京都,東村山市,栄町２丁目３０番地３３,,13,213,1890013,,,,,,,2023-02-21,1,,,,,キキョウヤ,0
1665,8012801022156,新規,0,2023-02-21,2023-02-21,株式会社多摩漏水調査,,株式会社,東京都,立川市,緑町７番地の２サンクタス立川Ｔ１・９１８号,,13,202,1900014,,,,,,,2023-02-21,1,,,,,タマロウスイチョウサ,0
1666,8012803003014,新規,0,2023-02-21,2023-02-21,合同会社オールイン,,合同会社,東京都,国分寺市,西町５丁目２９番地２,,13,214,1850035,,,,,,,2023-02-21,1,,,,,オールイン,0
1668,8013303006498,新規,0,2023-02-21,2023-02-21,合同会社ＶＩＴＡＮＯＶＡ　ＩＮＮＯＶＡＴＩＯＮ,,合同会社,東京都,豊島区,池袋３丁目４９番５－１３号,,13,116,1710014,,,,,,,2023-02-21,1,,,,,ビタノバイノベーション,0
1672,8020001150363,新規,0,2023-02-21,2023-02-21,株式会社サピエンス,,株式会社,神奈川県,川崎市多摩区,中野島６丁目１－１８ナオ秀ハイツ１０５,,14,135,2140012,,,,,,,2023-02-21,1,,,,,サピエンス,0
1673,8020001150371,新規,0,2023-02-21,2023-02-21,株式会社リーミー,,株式会社,神奈川県,川崎市中原区,木月３丁目１０番８号３０３,,14,133,2110025,,,,,,,2023-02-21,1,,,,,リーミー,0
1675,8020003023377,新規,0,2023-02-21,2023-02-21,アーカム合同会社,,合同会社,神奈川県,横浜市西区,浅間町１丁目４番３号ウィザードビル４０２,,14,103,2200072,,,,,,,2023-02-21,1,,,,,アーカム,0
1676,8021001001531,新規,0,2023-02-21,2023-02-21,東洋地所株式会社,,株式会社,神奈川県,藤沢市,南藤沢１６番１０－１０１号,,14,205,2510055,,,,,,,2023-02-21,1,,,,,トウヨウジショ,0
1678,8021001078207,新規,0,2023-02-21,2023-02-21,開花株式会社,,株式会社,神奈川県,茅ヶ崎市,東海岸南２丁目６番８号－３０１号室,,14,207,2530054,,,,,,,2023-02-21,1,,,,,カイカ,0
1679,8021001078256,新規,0,2023-02-21,2023-02-21,株式会社Ｚｅｒｏ　Ｏｎｅ　Ｉｎｎｏｖａｔｉｏｎ,,株式会社,神奈川県,大和市,渋谷７丁目２３番地１５センチュリープラザＢ,,14,213,2420023,,,,,,,2023-02-21,1,,,,,ゼロワンイノベーション,0
1689,8030001152466,新規,0,2023-02-21,2023-02-21,株式会社サイエンス・ワン,,株式会社,埼玉県,川口市,東領家４丁目１０番１３号,,11,203,3320003,,,,,,,2023-02-21,1,,,,,サイエンスワン,0
1690,8030001152482,新規,0,2023-02-21,2023-02-21,ＡＭＹＺ株式会社,,株式会社,埼玉県,三郷市,前間４６３－６,,11,237,3410015,,,,,,,2023-02-21,1,,,,,アミーズ,0
1691,8030001152508,新規,0,2023-02-21,2023-02-21,Ｅｄｅｎｈａｌｌ株式会社,,株式会社,埼玉県,所沢市,東所沢２丁目５４番地の１,,11,208,3590021,,,,,,,2023-02-21,1,,,,,イーデンフォール,0
1692,8030003021223,新規,0,2023-02-21,2023-02-21,本橋製菓販売合同会社,,合同会社,埼玉県,川越市,砂新田５丁目２４－１５,,11,201,3501137,,,,,,,2023-02-21,1,,,,,モトハシセイカハンバイ,0
1706,8040003021973,新規,0,2023-02-21,2023-02-21,合同会社Ｌｉｆ,,合同会社,千葉県,松戸市,八ケ崎５丁目２１番地の７,,12,207,2700023,,,,,,,2023-02-21,1,,,,,リーフ,0
1707,8040003022006,新規,0,2023-02-21,2023-02-21,竹内合同会社,,合同会社,千葉県,浦安市,入船３丁目６７番７号,,12,227,2790012,,,,,,,2023-02-21,1,,,,,タケウチ,0
1711,8060001035701,新規,0,2023-02-21,2023-02-21,ＮＡＤＥＥＭ　ＩＮＴＥＲＮＡＴＩＯＮＡＬ株式会社,,株式会社,栃木県,小山市,大字神鳥谷９３４番地７エメラルドガーデン小山３０６号,,09,208,3230827,,,,,,,2023-02-21,1,,,,,ナディームインターナショナル,0
1713,8070003004835,新規,0,2023-02-21,2023-02-21,両毛土地建物合同会社,,合同会社,群馬県,太田市,由良町５１０番地３,,10,205,3730036,,,,,,,2023-02-21,1,,,,,リョウモウトチタテモノ,0
1742,8120001252629,新規,0,2023-02-21,2023-02-21,高暉株式会社,,株式会社,大阪府,大阪市淀川区,田川北２丁目５－３４・Ａ棟２０２号室,,27,123,5320021,,,,,,,2023-02-21,1,,,,,コウキ,0
1743,8120001252661,新規,0,2023-02-21,2023-02-21,株式会社ＫｏＭｏＮｏ商店,,株式会社,大阪府,大阪市阿倍野区,播磨町１丁目２番２１号,,27,119,5450022,,,,,,,2023-02-21,1,,,,,コモノショウテン,0
1744,8120001252686,新規,0,2023-02-21,2023-02-21,株式会社マール,,株式会社,大阪府,大阪市住之江区,安立１丁目１０番３７号,,27,125,5590003,,,,,,,2023-02-21,1,,,,,マール,0
1754,8120901047153,新規,0,2023-02-21,2023-02-21,株式会社伊藤装業,,株式会社,大阪府,摂津市,東別府４丁目１４番３号,,27,224,5660042,,,,,,,2023-02-21,1,,,,,イトウソウギョウ,0
1755,8120901047161,新規,0,2023-02-21,2023-02-21,ｓｉｓｕ　ｍａｒｋｅｔ株式会社,,株式会社,大阪府,三島郡島本町,百山１４－２,,27,301,6180021,,,,,,,2023-02-21,1,,,,,シスマーケット,0
1756,8120903004508,新規,0,2023-02-21,2023-02-21,合同会社みのり鍼灸整骨院,,合同会社,大阪府,池田市,石橋１丁目９－６－１０１,,27,204,5630032,,,,,,,2023-02-21,1,,,,,ミノリハリキュウセイコツイン,0
1758,8130001073710,新規,0,2023-02-21,2023-02-21,株式会社ＪＡＰＡＮ　ＲＥＳＯＵＲＣＥ　ＧＲＯＵＰ,,株式会社,京都府,八幡市,橋本狩尾１番地の４１２,,26,210,6148322,,,,,,,2023-02-21,1,,,,,ジャパンリソースグループ,0
1761,8140001129214,新規,0,2023-02-21,2023-02-21,Ｏｎｅ‐ｓｔｏｒｙ株式会社,,株式会社,兵庫県,神戸市垂水区,福田１丁目２番２４－３０８号,,28,108,6550013,,,,,,,2023-02-21,1,,,,,ワンストーリー,0
1771,8180001155058,新規,0,2023-02-21,2023-02-21,株式会社東郷発電所,,株式会社,愛知県,知多郡南知多町,大字片名字田尻１番地９,,23,445,4703502,,,,,,,2023-02-21,1,,,,,トウゴウハツデンショ,0
1773,8180003024863,新規,0,2023-02-21,2023-02-21,ＢＳ合同会社,,合同会社,愛知県,名古屋市千種区,今池３丁目１３番５号第２７プロスパー今池１０２号,,23,101,4640850,,,,,,,2023-02-21,1,,,,,ビーエス,0
1777,8180301037113,新規,0,2023-02-21,2023-02-21,株式会社大内保温,,株式会社,愛知県,豊田市,朝日ケ丘１丁目３１番地１ハートピア２２、１０１号,,23,211,4710858,,,,,,,2023-02-21,1,,,,,オオウチホオン,0
1778,8180301037121,新規,0,2023-02-21,2023-02-21,豊田産業株式会社,,株式会社,愛知県,豊田市,御船町山ノ神５６番地１８７,,23,211,4700371,,,,,,,2023-02-21,1,,,,,トヨタサンギョウ,0
1780,8190001030177,新規,0,2023-02-21,2023-02-21,株式会社三重メディカル,,株式会社,三重県,四日市市,笹川３丁目２３１番地,,24,202,5100944,,,,,,,2023-02-21,1,,,,,ミエメディカル,0
1782,8200003005860,新規,0,2023-02-21,2023-02-21,瑞穂電機合同会社,,合同会社,岐阜県,瑞穂市,穂積６１１番地６,,21,216,5010223,,,,,,,2023-02-21,1,,,,,ミズホデンキ,0
1788,8240001061118,新規,0,2023-02-21,2023-02-21,株式会社ミライズ,,株式会社,広島県,広島市安佐南区,大塚西６丁目１２番１号Ａシティプラザ２階,,34,105,7313167,,,,,,,2023-02-21,1,,,,,ミライズ,0
1805,8290003013558,新規,0,2023-02-21,2023-02-21,星屹合同会社,,合同会社,福岡県,福岡市早良区,百道２丁目８－２１フォーラム藤崎１０２号室,,40,137,8140006,,,,,,,2023-02-21,1,,,,,セイキツ,0
1810,8300003001940,新規,0,2023-02-21,2023-02-21,合同会社ファラオ,,合同会社,佐賀県,佐賀市,鍋島３丁目６番８号Ｅ‐ＦＬＡＴ‐ＳＥＣＯＮＤ２０７号,,41,201,8490937,,,,,,,2023-02-21,1,,,,,ファラオ,0
1811,8320001019578,新規,0,2023-02-21,2023-02-21,株式会社エコツーライト九州,,株式会社,大分県,豊後大野市,三重町赤嶺１１５１番地６,,44,212,8797111,,,,,,,2023-02-21,1,,,,,エコツーライトキュウシュウ,0
1812,8330001030617,新規,0,2023-02-21,2023-02-21,メタリアライズ株式会社,,株式会社,熊本県,熊本市中央区,保田窪２丁目４番１７－３１２号サーパス保田窪,,43,101,8620926,,,,,,,2023-02-21,1,,,,,メタリアライズ,0
1813,8340001025376,新規,0,2023-02-21,2023-02-21,株式会社ネクサスエステート,,株式会社,鹿児島県,鹿児島市,樋之口町１１番２４号２階Ｃ号室,,46,201,8920845,,,,,,,2023-02-21,1,,,,,ネクサスエステート,0
1816,8360001031595,新規,0,2023-02-21,2023-02-21,株式会社沖縄モビリティアシスト協会,,株式会社,沖縄県,浦添市,仲西２丁目１番１３号１Ｆ,,47,208,9012125,,,,,,,2023-02-21,1,,,,,オキナワモビリティアシストキョウカイ,0
1820,8370001049620,新規,0,2023-02-21,2023-02-21,株式会社ＱｕｅｅｅｎＢ,,株式会社,宮城県,仙台市青葉区,荒巻字青葉４６８－１東北大学マテリアル・イノベーション・センター青葉山ガレージ,,04,101,9800845,,,,,,,2023-02-21,1,,,,,クイーンビー,0
1831,8430001088471,新規,0,2023-02-21,2023-02-21,株式会社ユニクエスト,,株式会社,北海道,札幌市西区,発寒四条３丁目４番３号,,01,107,0630824,,,,,,,2023-02-21,1,,,,,ユニクエスト,0
1833,8430003014748,新規,0,2023-02-21,2023-02-21,合同会社ワンハート,,合同会社,北海道,札幌市中央区,北三条西２７丁目１番７－１１０３号,,01,101,0640823,,,,,,,2023-02-21,1,,,,,ワンハート,0
1838,8460101007337,新規,0,2023-02-21,2023-02-21,株式会社藤徳産業,,株式会社,北海道,帯広市,清川町東２線８０番地１,,01,207,0802104,,,,,,,2023-02-21,1,,,,,フジトクサンギョウ,0
1840,8470001019480,新規,0,2023-02-21,2023-02-21,株式会社岡田建工,,株式会社,香川県,高松市,三谷町８５８番地１,,37,201,7610450,,,,,,,2023-02-21,1,,,,,オカダケンコウ,0
1851,9010001233060,新規,0,2023-02-21,2023-02-21,ＭＪ商事株式会社,,株式会社,東京都,千代田区,岩本町２丁目１９－９マルエイビルディング８Ｆ,,13,101,1010032,,,,,,,2023-02-21,1,,,,,エムジェイショウジ,0
1852,9010001233102,新規,0,2023-02-21,2023-02-21,ＮｅｗＢｅ株式会社,,株式会社,東京都,中央区,銀座７丁目１３番２１号銀座ｓｉｎｒｏｋｕｓｙｕビル２階,,13,102,1040061,,,,,,,2023-02-21,1,,,,,ニュービー,0
1853,9010001233135,新規,0,2023-02-21,2023-02-21,株式会社森林再生,,株式会社,東京都,千代田区,神田三崎町２丁目２０番７号水道橋西口会館,,13,101,1010061,,,,,,,2023-02-21,1,,,,,シンリンサイセイ,0
1868,9010401172569,新規,0,2023-02-21,2023-02-21,株式会社ＪＡＹＮＡ,,株式会社,東京都,港区,北青山３丁目６番７号青山パラシオタワー１１階,,13,103,1070061,,,,,,,2023-02-21,1,,,,,ジェイナ,0
1869,9010401172643,新規,0,2023-02-21,2023-02-21,株式会社Ｄｅｃｅｎｔｉｅｒ,,株式会社,東京都,港区,南青山４丁目１８－１１フォレストヒルズイーストウィング２Ｆ,,13,103,1070062,,,,,,,2023-02-21,1,,,,,ディセンティア,0
1870,9010401172676,新規,0,2023-02-21,2023-02-21,株式会社ツーエイト,,株式会社,東京都,港区,三田４丁目１０－２－１０１,,13,103,1080073,,,,,,,2023-02-21,1,,,,,ツーエイト,0
1874,9010403029577,新規,0,2023-02-21,2023-02-21,合同会社Ｎｕｌｌ,,合同会社,東京都,港区,南青山７丁目６番２－３０５号,,13,103,1070062,,,,,,,2023-02-21,1,,,,,ヌル,0
1875,9010403029602,新規,0,2023-02-21,2023-02-21,合同会社ＹＣＨ１２,,合同会社,東京都,港区,南青山２丁目２番１５－８２５号,,13,103,1070062,,,,,,,2023-02-21,1,,,,,ワイシーエイチトゥエルブ,0
1876,9010405021821,新規,0,2023-02-21,2023-02-21,一般社団法人忠州会,,その他の設立登記法人,東京都,港区,北青山１丁目４番３号,,13,103,1070061,,,,,,,2023-02-21,1,,,,,チュウシュウカイ,0
1877,9010601062636,新規,0,2023-02-21,2023-02-21,株式会社青海,,株式会社,東京都,墨田区,立花５丁目５０番２８－６１１号,,13,107,1310043,,,,,,,2023-02-21,1,,,,,アオミ,0
1879,9010603010023,新規,0,2023-02-21,2023-02-21,ファットフィールド合同会社,,合同会社,東京都,江東区,南砂１丁目５－３０ウインザーハイム南砂６１８,,13,108,1360076,,,,,,,2023-02-21,1,,,,,ファットフィールド,0
1880,9010803004452,新規,0,2023-02-21,2023-02-21,稲坂商事合同会社,,合同会社,東京都,大田区,南六郷２丁目２番１－１１０号,,13,111,1440045,,,,,,,2023-02-21,1,,,,,イナサカショウジ,0
1886,9011001152721,新規,0,2023-02-21,2023-02-21,株式会社スポーツイメージバンク,,株式会社,東京都,渋谷区,神宮前５丁目４２番１７号,,13,113,1500001,,,,,,,2023-02-21,1,,,,,スポーツイメージバンク,0
1890,9011103012724,新規,0,2023-02-21,2023-02-21,Ｄｉｇｉｔａｌ　Ｎａｔｉｖｅ合同会社,,合同会社,東京都,新宿区,西新宿３丁目３番１３号西新宿水間ビル６階,,13,104,1600023,,,,,,,2023-02-21,1,,,,,デジタルネイティブ,0
1892,9011301028480,新規,0,2023-02-21,2023-02-21,株式会社ｐｉｘｅｌｌｅｎｔ,,株式会社,東京都,杉並区,高円寺北４丁目２９－２秀和高円寺レジデンス６２０,,13,115,1660002,,,,,,,2023-02-21,1,,,,,ピクセレント,0
1894,9011501028982,新規,0,2023-02-21,2023-02-21,株式会社ＨＡＲＥ,,株式会社,東京都,北区,赤羽１丁目６６番５－３０２号,,13,117,1150045,,,,,,,2023-02-21,1,,,,,ハレ,0
1904,9012403005839,新規,0,2023-02-21,2023-02-21,Ｍａｄｄｉｘ　Ａｎａｌｙｔｉｃｓ合同会社,,合同会社,東京都,三鷹市,新川５丁目１２番１号,,13,204,1810004,,,,,,,2023-02-21,1,,,,,マデックスアナリティックス,0
1907,9012801022155,新規,0,2023-02-21,2023-02-21,株式会社未来サポーター,,株式会社,東京都,立川市,富士見町６丁目４０番１７号,,13,202,1900013,,,,,,,2023-02-21,1,,,,,ミライサポーター,0
1908,9012803003013,新規,0,2023-02-21,2023-02-21,合同会社ＢＭコンサルティング,,合同会社,東京都,東大和市,中央１丁目１０番地の２,,13,220,2070015,,,,,,,2023-02-21,1,,,,,ビーエムコンサルティング,0
1915,9020001150338,新規,0,2023-02-21,2023-02-21,ＵＮＣＨＡＩＮ株式会社,,株式会社,神奈川県,川崎市中原区,市ノ坪４４９番地３,,14,133,2110016,,,,,,,2023-02-21,1,,,,,アンチェイン,0
1916,9020001150354,新規,0,2023-02-21,2023-02-21,株式会社ＫＡＮＭＵＲＵ,,株式会社,神奈川県,川崎市高津区,末長１丁目５２番４３号,,14,134,2130013,,,,,,,2023-02-21,1,,,,,カンムル,0
1918,9020003023335,新規,0,2023-02-21,2023-02-21,合同会社エム,,合同会社,神奈川県,横浜市西区,北幸２丁目１０番地２８むつみビル３Ｆ,,14,103,2200004,,,,,,,2023-02-21,1,,,,,エム,0
1919,9020003023368,新規,0,2023-02-21,2023-02-21,合同会社ＫＥＮＳＥＩ,,合同会社,神奈川県,川崎市川崎区,境町１番１４号,,14,131,2100838,,,,,,,2023-02-21,1,,,,,ケンセイ,0
1921,9021001078255,新規,0,2023-02-21,2023-02-21,株式会社アズポート,,株式会社,神奈川県,藤沢市,南藤沢９番９－２０５号,,14,205,2510055,,,,,,,2023-02-21,1,,,,,アズポート,0
1922,9021003012765,新規,0,2023-02-21,2023-02-21,合同会社ｎｏｖａ　ｔｅｒｒａ,,合同会社,神奈川県,鎌倉市,笹目町９番２１号,,14,204,2480015,,,,,,,2023-02-21,1,,,,,ノヴァテッラ,0
1932,9030001152481,新規,0,2023-02-21,2023-02-21,株式会社木蓮,,株式会社,埼玉県,さいたま市浦和区,上木崎８丁目１３番６号,,11,107,3300071,,,,,,,2023-02-21,1,,,,,モクレン,0
1938,9030003021148,新規,0,2023-02-21,2023-02-21,合同会社マイセレ,,合同会社,埼玉県,川口市,芝新町１７－２４ステイツ蕨,,11,203,3330851,,,,,,,2023-02-21,1,,,,,マイセレ,0
1955,9050003007252,新規,0,2023-02-21,2023-02-21,合同会社ＳＥＭＩＮＩ　ＨＯＬＤＩＮＧＳ,,合同会社,茨城県,つくば市,安食１４８４番地１３,,08,220,3004205,,,,,,,2023-02-21,1,,,,,セミニホールディングス,0
1956,9050005013208,新規,0,2023-02-21,2023-02-21,無限責任佐竹村猪ノ手負債整理組合,,その他の設立登記法人,茨城県,常陸太田市,天神林町１３５０番地,,08,212,3130049,,,,,,,2023-02-21,1,,,,,ムゲンセキニンサタケムライノテ,0
1959,9060001035709,新規,0,2023-02-21,2023-02-21,株式会社ＡＬＩ　ＴＲＡＤＩＮＧ,,株式会社,栃木県,小山市,若木町１丁目９番３１号大和パークパートＩＩ－２０６,00129515,09,208,3230028,,,,,,,2023-02-21,1,,,,,アリトレーディング,0
1963,9080401026330,新規,0,2023-02-21,2023-02-21,進取園芸株式会社,,株式会社,静岡県,浜松市西区,和光町６,,22,133,4311101,,,,,,,2023-02-21,1,,,,,シンシュエンゲイ,0
1980,9120001252537,新規,0,2023-02-21,2023-02-21,すみれ株式会社,,株式会社,大阪府,大阪市浪速区,難波中２丁目１０番７０号なんばパークスタワー１９階,,27,111,5560011,,,,,,,2023-02-21,1,,,,,スミレ,0
1981,9120001252628,新規,0,2023-02-21,2023-02-21,株式会社トーヨーホールディングス,,株式会社,大阪府,大阪市北区,梅田２丁目５番４号,,27,127,5300001,,,,,,,2023-02-21,1,,,,,トーヨーホールディングス,0
1982,9120001252660,新規,0,2023-02-21,2023-02-21,株式会社Ｅｉｒｅｎｅ,,株式会社,大阪府,大阪市西成区,長橋２丁目６－２９,,27,122,5570025,,,,,,,2023-02-21,1,,,,,エイレネ,0
1984,9120003023432,新規,0,2023-02-21,2023-02-21,合同会社ドラゴン,,合同会社,大阪府,大阪市西成区,天下茶屋北２丁目５番８号,,27,122,5570003,,,,,,,2023-02-21,1,,,,,ドラゴン,0
1985,9120003023473,新規,0,2023-02-21,2023-02-21,合同会社伊勢,,合同会社,大阪府,大阪市中央区,宗右衛門町２番１３号,,27,128,5420084,,,,,,,2023-02-21,1,,,,,イセ,0
1988,9120101067018,新規,0,2023-02-21,2023-02-21,株式会社ビギニンググラノーラ,,株式会社,大阪府,堺市堺区,翁橋町１丁１０番１２－１００７号,,27,141,5900061,,,,,,,2023-02-21,1,,,,,ビギニンググラノーラ,0
1991,9120105009692,新規,0,2023-02-21,2023-02-21,一般社団法人Ｔｈｉｎｋ　ＦＯＯＤ　ａｎｄ　ＪＡＰＡＮ,,その他の設立登記法人,大阪府,羽曳野市,羽曳が丘西３丁目７番４７号,,27,222,5830865,,,,,,,2023-02-21,1,,,,,シンクフードアンドジャパン,0
1993,9120901047160,新規,0,2023-02-21,2023-02-21,ＮｅｘｔＳＴＡＧＥ株式会社,,株式会社,大阪府,吹田市,千里山松が丘４番１８号,,27,205,5650843,,,,,,,2023-02-21,1,,,,,ネクストステージ,0
1998,9130001073701,新規,0,2023-02-21,2023-02-21,Ｐｏｌａｃｅ株式会社,,株式会社,京都府,京都市下京区,七条通油小路東入大黒町２２７番地第２キョートビル４０２,,26,106,6008223,,,,,,,2023-02-21,1,,,,,ポラス,0
2003,9130005016706,新規,0,2023-02-21,2023-02-21,一般社団法人つなぎ,,その他の設立登記法人,京都府,京都市伏見区,伯耆町１５番地,,26,109,6128055,,,,,,,2023-02-21,1,,,,,ツナギ,0
2004,9140001129171,新規,0,2023-02-21,2023-02-21,株式会社アグリテック,,株式会社,兵庫県,芦屋市,上宮川町１番２０号,,28,206,6590061,,,,,,,2023-02-21,1,,,,,アグリテック,0
2005,9140001129205,新規,0,2023-02-21,2023-02-21,エムクリエイティブ株式会社,,株式会社,兵庫県,高砂市,西畑３丁目２番２号,,28,216,6760025,,,,,,,2023-02-21,1,,,,,エムクリエイティブ,0
2006,9140001129221,新規,0,2023-02-21,2023-02-21,株式会社新納管財,,株式会社,兵庫県,明石市,東人丸町２９番１８号,,28,203,6730876,,,,,,,2023-02-21,1,,,,,ニイノカンザイ,0
2014,9180001155040,新規,0,2023-02-21,2023-02-21,株式会社Ｌｉｌｙ．ｂｌａｎｃ,,株式会社,愛知県,名古屋市中区,千代田３丁目１５番２８号（サンクレーア鶴舞公園１３０２号）,,23,106,4600012,,,,,,,2023-02-21,1,,,,,リリーブラン,0
2015,9180001155049,新規,0,2023-02-21,2023-02-21,株式会社スカイニープランニング,,株式会社,愛知県,名古屋市中村区,名駅４丁目２４番５号第２森ビル４０１,,23,105,4500002,,,,,,,2023-02-21,1,,,,,スカイニープランニング,0
2022,9180005020109,新規,0,2023-02-21,2023-02-21,一般社団法人アイビス名古屋相談支援事務所,,その他の設立登記法人,愛知県,名古屋市中区,新栄３丁目１４番６号三旺マンション第２新栄,,23,106,4600007,,,,,,,2023-02-21,1,,,,,アイビスナゴヤソウダンシエンジムショ,0
2023,9180301037112,新規,0,2023-02-21,2023-02-21,株式会社ｉＷＯＲＬＤ,,株式会社,愛知県,西尾市,住崎２丁目１７番地,,23,213,4450879,,,,,,,2023-02-21,1,,,,,アイワールド,0
2028,9200005013448,新規,0,2023-02-21,2023-02-21,一般社団法人山県ツアーズ,,その他の設立登記法人,岐阜県,山県市,神崎１３４番地２,,21,215,5012301,,,,,,,2023-02-21,1,,,,,ヤマガタツアーズ,0
2039,9240001061117,新規,0,2023-02-21,2023-02-21,株式会社グロース,,株式会社,広島県,広島市佐伯区,三宅３丁目２番２１－１０３号,,34,108,7315143,,,,,,,2023-02-21,1,,,,,グロース,0
2054,9290003013549,新規,0,2023-02-21,2023-02-21,ＳＩＭｅｖｅｒｙ合同会社,,合同会社,福岡県,大野城市,下大利１丁目１３番８号２Ｆ,,40,219,8160952,,,,,,,2023-02-21,1,,,,,シムエブリー,0
2057,9310003004520,新規,0,2023-02-21,2023-02-21,合同会社鶴丸デザイン,,合同会社,長崎県,西彼杵郡長与町,高田郷２２６４番７,,42,307,8512127,,,,,,,2023-02-21,1,,,,,ツルマルデザイン,0
2061,9330003009732,新規,0,2023-02-21,2023-02-21,合同会社シダーワークス,,合同会社,熊本県,熊本市中央区,京町１丁目７番３２号,,43,101,8600078,,,,,,,2023-02-21,1,,,,,シダーワークス,0
2066,9350001018188,新規,0,2023-02-21,2023-02-21,株式会社三陽不動産,,株式会社,宮崎県,都城市,牟田町３０街区２４号,,45,202,8850079,,,,,,,2023-02-21,1,,,,,,0
2069,9370001010234,新規,0,2023-02-21,2023-02-21,株式会社北栄商事,,株式会社,宮城県,仙台市青葉区,昭和町３番５５号,,04,101,9810913,,,,,,,2023-02-21,1,,,,,,0
2074,9380001033498,新規,0,2023-02-21,2023-02-21,ルーク不動産株式会社,,株式会社,福島県,いわき市,泉ケ丘３丁目６番地の１２,,07,204,9718171,,,,,,,2023-02-21,1,,,,,ルークフドウサン,0
2075,9380003005396,新規,0,2023-02-21,2023-02-21,流星エンジニアリング合同会社,,合同会社,福島県,郡山市,八山田西３丁目１０２番地,,07,203,9638053,,,,,,,2023-02-21,1,,,,,リュウセイエンジニアリング,0
2086,9410005006505,新規,0,2023-02-21,2023-02-21,農事組合法人ライスフィールドよしだ,,その他の設立登記法人,秋田県,秋田市,金足吉田字深田１３９番地,,05,201,0100122,,,,,,,2023-02-21,1,,,,,ライスフィールドヨシダ,0
2094,9430001088470,新規,0,2023-02-21,2023-02-21,ＥＮＶ株式会社,,株式会社,北海道,札幌市南区,藤野６２４,,01,106,0612271,,,,,,,2023-02-21,1,,,,,イーエヌブイ,0
