sequenceNumber,corporateNumber,process,correct,updateDate,changeDate,name,nameImageId,kind,prefectureName,cityName,streetNumber,addressImageId,prefectureCode,cityCode,postCode,addressOutside,addressOutsideImageId,closeDate,closeCause,successorCorporateNumber,changeCause,assignmentDate,latest,enName,enPrefectureName,enCityName,enAddressOutside,furigana,hihyoji
9,1010001258016,新規,0,2025-09-01,2025-09-01,ＴＯＳＨＩｚ株式会社,,株式会社,東京都,中央区,銀座１丁目１２－４Ｎ＆ＥＢＬＤ．７階,,13,102,1040061,,,,,,,2025-09-01,1,,,,,トシズ,0
10,1010001258049,新規,0,2025-09-01,2025-09-01,株式会社Ｋｏｂａｔｏｍｏ,,株式会社,東京都,中央区,銀座６丁目１３番７号新保ビル６０１,,13,102,1040061,,,,,,,2025-09-01,1,,,,,コバトモ,0
11,1010001258065,新規,0,2025-09-01,2025-09-01,株式会社オリパ万博,,株式会社,東京都,千代田区,神田須田町１丁目７番８号ＶＯＲＴ秋葉原ＩＶ２Ｆ,00140478,13,101,1010041,,,,,,,2025-09-01,1,,,,,オリパバンパク,0
12,1010001258081,新規,0,2025-09-01,2025-09-01,株式会社丸の内ＵＮＩＴＥ,,株式会社,東京都,千代田区,丸の内１丁目９番２号グラントウキョウサウスタワー９階,,13,101,1000005,,,,,,,2025-09-01,1,,,,,マルノウチユナイト,0
17,1010003048555,新規,0,2025-09-01,2025-09-01,合同会社ＤＲＥＡＭ,,合同会社,東京都,文京区,湯島１丁目１１番８－７０１号マンションオカ,,13,105,1130034,,,,,,,2025-09-01,1,,,,,ドリーム,0
27,1010403035913,新規,0,2025-09-01,2025-09-01,ｆｒｏｎｔＬｉｎｅ合同会社,,合同会社,東京都,港区,南青山３丁目１番３６号青山丸竹ビル６Ｆ,,13,103,1070062,,,,,,,2025-09-01,1,,,,,フロントライン,0
36,1010601067881,新規,0,2025-09-01,2025-09-01,株式会社ＳＴＯＲＹＦＡＲＭ,,株式会社,東京都,江東区,東陽２丁目４番２８－７０５号,,13,108,1350016,,,,,,,2025-09-01,1,,,,,ストーリーファーム,0
40,1010901058003,新規,0,2025-09-01,2025-09-01,ＭＥＩＳＨＩＫＩ株式会社,,株式会社,東京都,世田谷区,豪徳寺１丁目４６番１５号Ｂ１１８号室,,13,112,1540021,,,,,,,2025-09-01,1,,,,,メイシキ,0
41,1010903010226,新規,0,2025-09-01,2025-09-01,合同会社フィオーレ,,合同会社,東京都,世田谷区,玉川台２丁目８番７号,,13,112,1580096,,,,,,,2025-09-01,1,,,,,フィオーレ,0
46,1011001171670,新規,0,2025-09-01,2025-09-01,株式会社ＬＹＮ　ＪＡＰＡＮ,,株式会社,東京都,渋谷区,道玄坂１丁目１０番８号渋谷道玄坂東急ビル２Ｆ－Ｃ,,13,113,1500043,,,,,,,2025-09-01,1,,,,,エルワイエヌジャパン,0
47,1011001171729,新規,0,2025-09-01,2025-09-01,株式会社Ｃｒｅｗｖｉａ,,株式会社,東京都,渋谷区,恵比寿４丁目１０番１３１３号１０１,,13,113,1500013,,,,,,,2025-09-01,1,,,,,クルーヴィア,0
48,1011001171737,新規,0,2025-09-01,2025-09-01,株式会社ソリッド,,株式会社,東京都,目黒区,五本木３丁目２６番１号,,13,110,1530053,,,,,,,2025-09-01,1,,,,,ソリッド,0
51,1011003022260,新規,0,2025-09-01,2025-09-01,合同会社ＧＬＩＣＩＮＡ,,合同会社,東京都,渋谷区,道玄坂１丁目１０番８号渋谷道玄坂東急ビル２Ｆ－Ｃ,,13,113,1500043,,,,,,,2025-09-01,1,,,,,グリシナ,0
52,1011003022269,新規,0,2025-09-01,2025-09-01,合同会社Ｍｕ’ｓ,,合同会社,東京都,渋谷区,道玄坂１丁目１０番８号渋谷道玄坂東急ビル２Ｆ－Ｃ,,13,113,1500043,,,,,,,2025-09-01,1,,,,,ミューズ,0
56,1011101112855,新規,0,2025-09-01,2025-09-01,Ｒ＆Ｒ　Ｐａｒｔｎｅｒｓ株式会社,,株式会社,東京都,新宿区,中井２丁目２４番１０号,,13,104,1610035,,,,,,,2025-09-01,1,,,,,レアルパートナーズ,0
57,1011201026600,新規,0,2025-09-01,2025-09-01,株式会社ＮＴ企画,,株式会社,東京都,中野区,中央３丁目４５番４号,,13,114,1640011,,,,,,,2025-09-01,1,,,,,エヌティーキカク,0
60,1011501032505,新規,0,2025-09-01,2025-09-01,株式会社ミライダイキチ,,株式会社,東京都,北区,赤羽西６丁目１０番６‐３０３号,,13,117,1150055,,,,,,,2025-09-01,1,,,,,ミライダイキチ,0
63,1012301014511,新規,0,2025-09-01,2025-09-01,株式会社Ｓｐａｒｋｌｅ　Ｏｎ,,株式会社,東京都,町田市,能ヶ谷７丁目４６番４号,,13,209,1950053,,,,,,,2025-09-01,1,,,,,スパークルオン,0
67,1012405005150,新規,0,2025-09-01,2025-09-01,一般社団法人アスリートキャンプ,,その他の設立登記法人,東京都,小金井市,梶野町１丁目２番３６号,,13,210,1840002,,,,,,,2025-09-01,1,,,,,アスリートキャンプ,0
77,1020001164592,新規,0,2025-09-01,2025-09-01,株式会社ＢＴＮ,,株式会社,神奈川県,横浜市中区,弁天通３丁目３９番ライオンズマンション関内第弐,,14,104,2310007,,,,,,,2025-09-01,1,,,,,ビィーティーエヌ,0
78,1020001164618,新規,0,2025-09-01,2025-09-01,ホワイト防災設備株式会社,,株式会社,神奈川県,川崎市宮前区,西野川３丁目５番１２号,,14,136,2160044,,,,,,,2025-09-01,1,,,,,ホワイトボウサイセツビ,0
81,1020003029240,新規,0,2025-09-01,2025-09-01,ＡｓｔａｒｉＫｓ　ＷＯＲＫＳ合同会社,,合同会社,神奈川県,横浜市中区,柏葉１０番地ラピス山手２０１号室,,14,104,2310866,,,,,,,2025-09-01,1,,,,,アスタリクスワークス,0
84,1021001086158,新規,0,2025-09-01,2025-09-01,イーペインターズ株式会社,,株式会社,神奈川県,高座郡寒川町,倉見５３６番地,,14,321,2530101,,,,,,,2025-09-01,1,,,,,イーペインターズ,0
89,1021003016476,新規,0,2025-09-01,2025-09-01,リヴァンス合同会社,,合同会社,神奈川県,藤沢市,辻堂１丁目１２番５３号,,14,205,2510047,,,,,,,2025-09-01,1,,,,,リヴァンス,0
90,1021003016492,新規,0,2025-09-01,2025-09-01,合同会社センセナ,,合同会社,神奈川県,小田原市,本町１丁目５－４,,14,206,2500012,,,,,,,2025-09-01,1,,,,,センセナ,0
100,1040001140253,新規,0,2025-09-01,2025-09-01,株式会社サウス・イースト・アジア教育コンサルティング,,株式会社,千葉県,松戸市,稔台３丁目５３番地の６こだま荘１０２号,,12,207,2702231,,,,,,,2025-09-01,1,,,,,サウスイーストアジアキョウイクコンサルティング,0
101,1040001140261,新規,0,2025-09-01,2025-09-01,株式会社アジア貿易,,株式会社,千葉県,船橋市,二和西５丁目１８,,12,204,2740806,,,,,,,2025-09-01,1,,,,,アジアボウエキ,0
106,1050001057174,新規,0,2025-09-01,2025-09-01,和田ジャパン株式会社,,株式会社,茨城県,猿島郡境町,大字伏木８２７番地,,08,546,3060416,,,,,,,2025-09-01,1,,,,,ワダジャパン,0
113,1060003005717,新規,0,2025-09-01,2025-09-01,合同会社つるぎ,,合同会社,栃木県,矢板市,中９７２番地５,,09,211,3292135,,,,,,,2025-09-01,1,,,,,ツルギ,0
116,1080005007718,新規,0,2025-09-01,2025-09-01,一般社団法人藤色の風,,その他の設立登記法人,静岡県,藤枝市,駅前１丁目３－１北島新聞堂ビル２Ｆ,,22,214,4260034,,,,,,,2025-09-01,1,,,,,フジイロノカゼ,0
119,1080405007755,新規,0,2025-09-01,2025-09-01,一般社団法人日本福祉支援センター,,その他の設立登記法人,静岡県,磐田市,城之崎１丁目１０番地１０号,,22,211,4380084,,,,,,,2025-09-01,1,,,,,ニホンフクシシエンセンター,0
142,1120001279190,新規,0,2025-09-01,2025-09-01,木子鶴商事株式会社,,株式会社,大阪府,大阪市東成区,大今里２丁目６番１８号昇徳ビル１階Ｉ室,,27,115,5370012,,,,,,,2025-09-01,1,,,,,モクシカクショウジ,0
143,1120001279199,新規,0,2025-09-01,2025-09-01,熙悦国際株式会社,,株式会社,大阪府,大阪市東淀川区,大隅１丁目１番１９号プレアール大隅２０５号,,27,114,5330015,,,,,,,2025-09-01,1,,,,,キエツコクサイ,0
144,1120001279216,新規,0,2025-09-01,2025-09-01,株式会社Ｍｉｒａｉ　Ｃｌａｓｓ,,株式会社,大阪府,大阪市浪速区,敷津西１丁目９番２８－５０１号,,27,111,5560015,,,,,,,2025-09-01,1,,,,,ミライクラス,0
147,1120005025129,新規,0,2025-09-01,2025-09-01,行政書士法人ＭＩＴ国際総合法務事務所,,その他の設立登記法人,大阪府,大阪市浪速区,恵美須西１丁目３－３恵美須ビル２Ｆ,,27,111,5560003,,,,,,,2025-09-01,1,,,,,ミットコクサイソウゴウホウムジムショ,0
149,1120101072347,新規,0,2025-09-01,2025-09-01,株式会社エバーハッピー,,株式会社,大阪府,堺市南区,豊田１１８５番地６－Ｆ号,,27,145,5900106,,,,,,,2025-09-01,1,,,,,エバーハッピー,0
150,1120101072355,新規,0,2025-09-01,2025-09-01,ＱＢＣ　Ｌａｂ株式会社,,株式会社,大阪府,泉佐野市,貝田１－９－１５,,27,213,5980000,,,,,,,2025-09-01,1,,,,,キュービーシーラボ,0
151,1120103006666,新規,0,2025-09-01,2025-09-01,合同会社ねこや,,合同会社,大阪府,富田林市,須賀１丁目９番３２号,,27,214,5840062,,,,,,,2025-09-01,1,,,,,ネコヤ,0
152,1120901051442,新規,0,2025-09-01,2025-09-01,株式会社住管舎,,株式会社,大阪府,池田市,住吉１丁目１１番８号,,27,204,5630033,,,,,,,2025-09-01,1,,,,,ジュウカンシャ,0
153,1120901051450,新規,0,2025-09-01,2025-09-01,株式会社オプトラスト,,株式会社,大阪府,豊中市,小曽根４丁目２０番１９号,,27,203,5610813,,,,,,,2025-09-01,1,,,,,オプトラスト,0
155,1120903005834,新規,0,2025-09-01,2025-09-01,ＴＵＭＩ合同会社,,合同会社,大阪府,高槻市,淀の原町１１番４号,,27,207,5690001,,,,,,,2025-09-01,1,,,,,トゥミ,0
157,1130003010718,新規,0,2025-09-01,2025-09-01,ＧＵＤ合同会社,,合同会社,京都府,京都市中京区,錦小路通室町西入天神山町２８０番地石勘ビル４Ｆ－Ｃ２１,,26,104,6048221,,,,,,,2025-09-01,1,,,,,グッド,0
159,1150001028363,新規,0,2025-09-01,2025-09-01,株式会社美心都,,株式会社,奈良県,大和高田市,旭北町７番７－５号,,29,202,6350036,,,,,,,2025-09-01,1,,,,,ミコト,0
167,1180001168363,新規,0,2025-09-01,2025-09-01,Ａｌａｄｄｉｎ株式会社,,株式会社,愛知県,名古屋市東区,泉２丁目７－１３－７０２,,23,102,4610001,,,,,,,2025-09-01,1,,,,,アラジン,0
168,1180001168388,新規,0,2025-09-01,2025-09-01,株式会社ＯＦＦＩＣＥ‐ＹＭＴ,,株式会社,愛知県,名古屋市中区,大須１丁目６番２０号,,23,106,4600011,,,,,,,2025-09-01,1,,,,,オフィスワイエムティ,0
169,1180001168396,新規,0,2025-09-01,2025-09-01,Ｓ＆Ｋホールディングス株式会社,,株式会社,愛知県,名古屋市名東区,高柳町２１９番地,,23,115,4650034,,,,,,,2025-09-01,1,,,,,エスアンドケーホールディングス,0
175,1180003028912,新規,0,2025-09-01,2025-09-01,ＪｉｎＢｅａｕｔｙ合同会社,,合同会社,愛知県,名古屋市港区,明正２丁目－２７９エシール明正３０１号,,23,111,4550806,,,,,,,2025-09-01,1,,,,,ジンビューティー,0
176,1180003028953,新規,0,2025-09-01,2025-09-01,合同会社銀橋インターナショナル,,合同会社,愛知県,一宮市,今伊勢町宮後字下芋島５４番地２,,23,203,4910057,,,,,,,2025-09-01,1,,,,,ギンキョウインターナショナル,0
180,1200001044173,新規,0,2025-09-01,2025-09-01,株式会社Ｇｙｔホールディングス,,株式会社,岐阜県,岐阜市,茜部菱野２丁目４２番地の１,,21,201,5008268,,,,,,,2025-09-01,1,,,,,ジーワイティホールディングス,0
192,1260003005325,新規,0,2025-09-01,2025-09-01,合同会社繭多真,,合同会社,岡山県,岡山市中区,関１６９番地２８,,33,102,7038232,,,,,,,2025-09-01,1,,,,,マユタマ,0
196,1290001111221,新規,0,2025-09-01,2025-09-01,株式会社ＧＥＮＮＯＵ,,株式会社,福岡県,福岡市東区,香椎駅東３丁目３０番３号,,40,131,8130012,,,,,,,2025-09-01,1,,,,,ゲンノウ,0
197,1290001111262,新規,0,2025-09-01,2025-09-01,ヒューリデザイン株式会社,,株式会社,福岡県,福岡市中央区,草香江１丁目８番３２－４１１号,,40,133,8100045,,,,,,,2025-09-01,1,,,,,ヒューリデザイン,0
199,1290003017326,新規,0,2025-09-01,2025-09-01,合同会社ｊｏｉａｓ,,合同会社,福岡県,太宰府市,青山２丁目２４番１号ガーデン青山ＩＩＡ館,00140468,40,221,8180121,,,,,,,2025-09-01,1,,,,,ジョイアス,0
202,1320001021301,新規,0,2025-09-01,2025-09-01,株式会社マルケイ,,株式会社,大分県,佐伯市,蒲江大字西野浦４７３番地１,,44,205,8762302,,,,,,,2025-09-01,1,,,,,マルケイ,0
203,1330001033527,新規,0,2025-09-01,2025-09-01,株式会社Ｒ‐Ｔｒｕｓｔ,,株式会社,熊本県,熊本市中央区,出水４丁目２５番２２号,,43,101,8620941,,,,,,,2025-09-01,1,,,,,アールトラスト,0
212,1360001035702,新規,0,2025-09-01,2025-09-01,うちなー地所株式会社,,株式会社,沖縄県,那覇市,松尾１丁目１０番２４号ホークシティ那覇ビル５０７,,47,201,9000014,,,,,,,2025-09-01,1,,,,,ウチナージショ,0
213,1360001035710,新規,0,2025-09-01,2025-09-01,株式会社つなぎや,,株式会社,沖縄県,宜野湾市,宜野湾３丁目４番１２号,,47,205,9012211,,,,,,,2025-09-01,1,,,,,ツナギヤ,0
216,1370001052985,新規,0,2025-09-01,2025-09-01,株式会社Ａｘｅｎａ,,株式会社,宮城県,登米市,迫町佐沼字西佐沼１８２番地６,,04,212,9870511,,,,,,,2025-09-01,1,,,,,アゼナ,0
226,1410003004146,新規,0,2025-09-01,2025-09-01,合同会社ＰＯＰＵＫＥＴＷＩＴＡ,,合同会社,秋田県,鹿角市,八幡平字黒沢４１番地,,05,209,0185141,,,,,,,2025-09-01,1,,,,,ポプケトゥイタ,0
235,1430001095094,新規,0,2025-09-01,2025-09-01,株式会社ＳＡＩＴＯ,,株式会社,北海道,札幌市西区,山の手六条３丁目２番４号,,01,107,0630006,,,,,,,2025-09-01,1,,,,,サイトウ,0
241,1500003003576,新規,0,2025-09-01,2025-09-01,Ｕｍｉ　Ｃｈｉ合同会社,,合同会社,愛媛県,今治市,大三島町宮浦４３６６,,38,202,7941304,,,,,,,2025-09-01,1,,,,,ウミチ,0
247,2010001257867,新規,0,2025-09-01,2025-09-01,株式会社ＲＤＰＳ,,株式会社,東京都,千代田区,麹町２丁目１０番地３,,13,101,1020083,,,,,,,2025-09-01,1,,,,,レドパス,0
248,2010001258007,新規,0,2025-09-01,2025-09-01,株式会社銘創科技,,株式会社,東京都,文京区,向丘２丁目１６番２号５階,,13,105,1130023,,,,,,,2025-09-01,1,,,,,メイソウカギ,0
249,2010001258064,新規,0,2025-09-01,2025-09-01,ＧＩＣ株式会社,,株式会社,東京都,文京区,本郷５丁目９番５号菊坂回廊２０１,,13,105,1130033,,,,,,,2025-09-01,1,,,,,ジーアイシー,0
250,2010001258080,新規,0,2025-09-01,2025-09-01,モキュラ株式会社,,株式会社,東京都,千代田区,九段南１丁目５－６りそな銀行九段ビル５ＦＫＳフロア,,13,101,1020074,,,,,,,2025-09-01,1,,,,,モキュラ,0
251,2010003048554,新規,0,2025-09-01,2025-09-01,合同会社ＫＡＭＡＤＯ,,合同会社,東京都,千代田区,霞が関３丁目２番６号東京倶楽部ビルディング１１階,,13,101,1000013,,,,,,,2025-09-01,1,,,,,カマド,0
257,2010403035945,新規,0,2025-09-01,2025-09-01,Ｓｉｎｋａ合同会社,,合同会社,東京都,港区,北青山１丁目３－３三橋ビル３階,,13,103,1070061,,,,,,,2025-09-01,1,,,,,シンカ,0
268,2010603011762,新規,0,2025-09-01,2025-09-01,ＨａｂｉＲｉｓｅ合同会社,,合同会社,東京都,江東区,潮見２丁目８－１４－１４１８,,13,108,1350052,,,,,,,2025-09-01,1,,,,,ハビライズ,0
272,2010703007875,新規,0,2025-09-01,2025-09-01,合同会社Ｈ,,合同会社,東京都,品川区,東品川４丁目１１番３６―２５０６号,,13,109,1400002,,,,,,,2025-09-01,1,,,,,アッシュ,0
273,2010703007891,新規,0,2025-09-01,2025-09-01,合同会社Ｂ’ＤＨエディケーション,,合同会社,東京都,品川区,北品川２丁目３番４－１００３号,,13,109,1400001,,,,,,,2025-09-01,1,,,,,ビーディーエイチエディケーション,0
286,2011003022061,新規,0,2025-09-01,2025-09-01,合同会社ＲＲＣＰ,,合同会社,東京都,渋谷区,本町５丁目４２番１２号サンバレー渋谷４０７号,,13,113,1510071,,,,,,,2025-09-01,1,,,,,アールアールシーピー,0
287,2011003022276,新規,0,2025-09-01,2025-09-01,合同会社Ａｆｆｅｃｔ,,合同会社,東京都,目黒区,駒場２丁目１番７－５０２号駒場パークサイドヒルズ,,13,110,1530041,,,,,,,2025-09-01,1,,,,,アフェクト,0
288,2011003022441,新規,0,2025-09-01,2025-09-01,合同会社妄想図書室,,合同会社,東京都,渋谷区,広尾５丁目１８番２号,,13,113,1500012,,,,,,,2025-09-01,1,,,,,モウソウトショシツ,0
290,2011101112648,新規,0,2025-09-01,2025-09-01,創智薈株式会社,,株式会社,東京都,新宿区,高田馬場１丁目２５－３４,,13,104,1690075,,,,,,,2025-09-01,1,,,,,ソウチカイ,0
291,2011101112887,新規,0,2025-09-01,2025-09-01,株式会社ＣＨＡＮＡ,,株式会社,東京都,新宿区,西新宿３丁目３番１３号西新宿水間ビル２Ｆ,,13,104,1600023,,,,,,,2025-09-01,1,,,,,チャーナ,0
292,2011101112895,新規,0,2025-09-01,2025-09-01,株式会社ＴＨＥ　ＬＩＶＥ　ＬＡＢＥＬ,,株式会社,東京都,新宿区,戸山１丁目５番８－４０３号,,13,104,1620052,,,,,,,2025-09-01,1,,,,,ザライブレーベル,0
293,2011103016285,新規,0,2025-09-01,2025-09-01,合同会社珍,,合同会社,東京都,新宿区,歌舞伎町２丁目１９－７新田中ビル１階,,13,104,1600021,,,,,,,2025-09-01,1,,,,,チン,0
312,2020001164617,新規,0,2025-09-01,2025-09-01,株式会社ＭＴ,,株式会社,神奈川県,横浜市鶴見区,梶山２丁目３０番１２号,,14,101,2300072,,,,,,,2025-09-01,1,,,,,エムティー,0
313,2020001164633,新規,0,2025-09-01,2025-09-01,ジョブスエージェント株式会社,,株式会社,神奈川県,横浜市中区,扇町３丁目８番１１号ヤマザキ・シー・エービル２階,,14,104,2310027,,,,,,,2025-09-01,1,,,,,ジョブスエージェント,0
319,2021003016491,新規,0,2025-09-01,2025-09-01,エバーグリーンマネジメント合同会社,,合同会社,神奈川県,鎌倉市,長谷１丁目７番地１７号,,14,204,2480016,,,,,,,2025-09-01,1,,,,,エバーグリーンマネジメント,0
328,2030003027515,新規,0,2025-09-01,2025-09-01,クリエイティブセンタージャパン合同会社,,合同会社,埼玉県,川口市,桜町１丁目３番２６号マジィスティック２０２号,,11,203,3340001,,,,,,,2025-09-01,1,,,,,クリエイティブセンタージャパン,0
332,2040001140236,新規,0,2025-09-01,2025-09-01,幕一株式会社,,株式会社,千葉県,松戸市,稔台５丁目１２番地の１ＤＰＬ松戸ＩＩ１０６号室,00140469,12,207,2702231,,,,,,,2025-09-01,1,,,,,マクイチ,0
340,2080403005330,新規,0,2025-09-01,2025-09-01,勇琳合同会社,,合同会社,静岡県,浜松市中央区,砂山町３５５番地４ハマキョウレックス浜松駅南ビル４階Ｓ０７号室,,22,138,4300926,,,,,,,2025-09-01,1,,,,,ユウリン,0
357,2120001279198,新規,0,2025-09-01,2025-09-01,星智科株式会社,,株式会社,大阪府,大阪市生野区,田島６丁目２番２８－３０１号,,27,116,5440011,,,,,,,2025-09-01,1,,,,,セイチカ,0
358,2120001279223,新規,0,2025-09-01,2025-09-01,株式会社ワイズべース,,株式会社,大阪府,大阪市東成区,東小橋３丁目１番２０号プレミアコート５０１号,,27,115,5370024,,,,,,,2025-09-01,1,,,,,ワイズベース,0
359,2120001279256,新規,0,2025-09-01,2025-09-01,株式会社グロウホールディングス,,株式会社,大阪府,大阪市中央区,南本町４丁目２番２１号,,27,128,5410054,,,,,,,2025-09-01,1,,,,,グロウホールディングス,0
363,2120003030261,新規,0,2025-09-01,2025-09-01,合同会社デジラボ,,合同会社,大阪府,大阪市北区,梅田２丁目５番１３号桜橋第一ビル３０４号,,27,127,5300001,,,,,,,2025-09-01,1,,,,,デジラボ,0
364,2120003030419,新規,0,2025-09-01,2025-09-01,ＫＡＲＩＮ合同会社,,合同会社,大阪府,大阪市東成区,大今里２丁目２２番２０号,,27,115,5370012,,,,,,,2025-09-01,1,,,,,カリン,0
365,2120003030435,新規,0,2025-09-01,2025-09-01,港日商事合同会社,,合同会社,大阪府,大阪市淀川区,西中島５丁目８番２９－７１３号,,27,123,5320011,,,,,,,2025-09-01,1,,,,,コンニチショウジ,0
366,2120101072346,新規,0,2025-09-01,2025-09-01,株式会社ＵＫＩ,,株式会社,大阪府,堺市中区,陶器北１６９１番地１（２１４号）,,27,142,5998242,,,,,,,2025-09-01,1,,,,,ユーケイアイ,0
378,2140001139813,新規,0,2025-09-01,2025-09-01,Ｇｒａｔｅｆｕｌ　Ｌｉｎｋ株式会社,,株式会社,兵庫県,伊丹市,船原１丁目３番２２号,,28,207,6640896,,,,,,,2025-09-01,1,,,,,グレイトフルリンク,0
379,2140001139821,新規,0,2025-09-01,2025-09-01,株式会社ＡＬＲＤ,,株式会社,兵庫県,神戸市西区,岩岡町岩岡２６７１番地の１,,28,111,6512401,,,,,,,2025-09-01,1,,,,,オルド,0
389,2180001168379,新規,0,2025-09-01,2025-09-01,株式会社ＴＳ・グローバルソース,,株式会社,愛知県,名古屋市熱田区,旗屋２丁目１０番９号（アベニュー神宮３０３号）,,23,109,4560027,,,,,,,2025-09-01,1,,,,,ティエスグローバルソース,0
390,2180001168387,新規,0,2025-09-01,2025-09-01,株式会社すぱいん,,株式会社,愛知県,北名古屋市,鹿田東海１２８番地４,,23,234,4810004,,,,,,,2025-09-01,1,,,,,スパイン,0
400,2180301040139,新規,0,2025-09-01,2025-09-01,株式会社エスプラン,,株式会社,愛知県,豊川市,伊奈町新町畑１０３番地１,,23,207,4410105,,,,,,,2025-09-01,1,,,,,エスプラン,0
406,2210001020296,新規,0,2025-09-01,2025-09-01,天瑞株式会社,,株式会社,福井県,あわら市,下金屋第３１号４７番地１３,,18,208,9190727,,,,,,,2025-09-01,1,,,,,テンズイ,0
410,2220001026895,新規,0,2025-09-01,2025-09-01,株式会社Ａｍｙ,,株式会社,石川県,金沢市,粟崎町４丁目７８番地１２,,17,201,9200226,,,,,,,2025-09-01,1,,,,,アミー,0
411,2230001021053,新規,0,2025-09-01,2025-09-01,ＢＧＡ株式会社,,株式会社,富山県,射水市,寺塚原２１番地,,16,211,9340056,,,,,,,2025-09-01,1,,,,,ビージーエー,0
416,2250001021308,新規,0,2025-09-01,2025-09-01,株式会社Ｃｏｒａｌ　Ｃｒｅｓｔ,,株式会社,山口県,宇部市,大字東岐波４３７１番地１２,,35,202,7550241,,,,,,,2025-09-01,1,,,,,コーラルクレスト,0
421,2260003005324,新規,0,2025-09-01,2025-09-01,合同会社ガジュマルパートナーズ,,合同会社,岡山県,岡山市中区,小橋町１丁目３－１１－５,,33,102,7038293,,,,,,,2025-09-01,1,,,,,ガジュマルパートナーズ,0
425,2290001111237,新規,0,2025-09-01,2025-09-01,株式会社メガグッズ,,株式会社,福岡県,福岡市中央区,平尾１丁目１１番６号３階,,40,133,8100014,,,,,,,2025-09-01,1,,,,,メガグッズ,0
426,2290001111286,新規,0,2025-09-01,2025-09-01,ＩＰＬａｂ株式会社,,株式会社,福岡県,糸島市,志摩野北１４９７番地４６,,40,230,8191303,,,,,,,2025-09-01,1,,,,,アイピーラボ,0
429,2290003017291,新規,0,2025-09-01,2025-09-01,合同会社３,,合同会社,福岡県,福岡市中央区,今泉２丁目３番４１－７１２号コモダス天神,,40,133,8100021,,,,,,,2025-09-01,1,,,,,サン,0
430,2290003017300,新規,0,2025-09-01,2025-09-01,ＮＨＫ合同会社,,合同会社,福岡県,久留米市,天神町１４０番地３富久ビル５０２号,,40,203,8300033,,,,,,,2025-09-01,1,,,,,エヌエイチケー,0
432,2290801031808,新規,0,2025-09-01,2025-09-01,株式会社ＭＭＡ,,株式会社,福岡県,北九州市小倉南区,横代北町５丁目８番２７号,,40,107,8020821,,,,,,,2025-09-01,1,,,,,エムエムエー,0
442,2360001035684,新規,0,2025-09-01,2025-09-01,株式会社ＣＬ　Ｃｏｒｐ．,,株式会社,沖縄県,中頭郡読谷村,字大木２７１番地トリイハイツＢ２Ｂ,,47,324,9040316,,,,,,,2025-09-01,1,,,,,シーエルコープ,0
443,2360001035692,新規,0,2025-09-01,2025-09-01,株式会社エブリー企画,,株式会社,沖縄県,豊見城市,字与根５－７,,47,212,9010224,,,,,,,2025-09-01,1,,,,,エブリーキカク,0
444,2360001035701,新規,0,2025-09-01,2025-09-01,蒼希株式会社,,株式会社,沖縄県,那覇市,久茂地１丁目１番１号９階,,47,201,9000015,,,,,,,2025-09-01,1,,,,,ソウキ,0
446,2370001052984,新規,0,2025-09-01,2025-09-01,株式会社リノア工業,,株式会社,宮城県,岩沼市,桑原２丁目３番７２号クラヴィエＴＥ２０１号,,04,211,9892445,,,,,,,2025-09-01,1,,,,,リノアコウギョウ,0
466,3010001257750,新規,0,2025-09-01,2025-09-01,株式会社三成,,株式会社,東京都,中央区,日本橋３丁目２番１４号新槇町ビル別館第一２階,,13,102,1030027,,,,,,,2025-09-01,1,,,,,ミツナリ,0
467,3010001257973,新規,0,2025-09-01,2025-09-01,株式会社Ｎ　ＬＩＶＥ,,株式会社,東京都,千代田区,内神田１丁目９番１２号６階,,13,101,1010047,,,,,,,2025-09-01,1,,,,,エヌライブ,0
468,3010001258014,新規,0,2025-09-01,2025-09-01,株式会社エンタパレット,,株式会社,東京都,千代田区,神田神保町１丁目３７番４号,,13,101,1010051,,,,,,,2025-09-01,1,,,,,エンタパレット,0
469,3010001258047,新規,0,2025-09-01,2025-09-01,株式会社Ｖｉｓｔａ　Ｉｎｓｉｇｈｔ,,株式会社,東京都,千代田区,大手町１丁目６－１大手町ビル１Ｆ－３Ｆ・Ｓｐａｃｅｓ大手町,,13,101,1000004,,,,,,,2025-09-01,1,,,,,ヴィスタインサイト,0
470,3010001258063,新規,0,2025-09-01,2025-09-01,株式会社Ｃａｔ’ｓ　Ｗｈｉｓｋｅｒｓ,,株式会社,東京都,中央区,銀座１丁目２２－１１銀座大竹ビジデンス２Ｆ,,13,102,1040061,,,,,,,2025-09-01,1,,,,,キャッツウィスカーズ,0
471,3010001258096,新規,0,2025-09-01,2025-09-01,株式会社キャッスル,,株式会社,東京都,中央区,銀座１丁目１２番４号Ｎ＆ＥＢＬＤ．６Ｆ,,13,102,1040061,,,,,,,2025-09-01,1,,,,,キャッスル,0
472,3010001258113,新規,0,2025-09-01,2025-09-01,株式会社ココデザイン,,株式会社,東京都,中央区,築地６丁目２２番４号東都水ビル７階Ｄ,,13,102,1040045,,,,,,,2025-09-01,1,,,,,ココデザイン,0
476,3010003048561,新規,0,2025-09-01,2025-09-01,合同会社ｓａｙｕｒｉ,,合同会社,東京都,中央区,銀座１丁目１２番４号Ｎ＆ＥＢＬＤ．６Ｆ,,13,102,1040061,,,,,,,2025-09-01,1,,,,,サユリ,0
482,3010401192754,新規,0,2025-09-01,2025-09-01,株式会社エスエーエス,,株式会社,東京都,港区,東新橋１丁目５番２号,,13,103,1050021,,,,,,,2025-09-01,1,,,,,エスエーエス,0
498,3010603011761,新規,0,2025-09-01,2025-09-01,合同会社Ｅｎｅｒｉｓ,,合同会社,東京都,江東区,東雲１丁目９番３１－４５０７号,,13,108,1350062,,,,,,,2025-09-01,1,,,,,エナリス,0
500,3010701048235,新規,0,2025-09-01,2025-09-01,株式会社ジ・オー・ジャパン,,株式会社,東京都,品川区,大崎３丁目５－２エステージ大崎６Ｆ,,13,109,1410032,,,,,,,2025-09-01,1,,,,,ジオージャパン,0
501,3010801036536,新規,0,2025-09-01,2025-09-01,株式会社Ｏ２Ｓ,,株式会社,東京都,大田区,２－５－１３大森北口ビル５Ｆ,,13,111,1440000,,,,,,,2025-09-01,1,,,,,オーツーエス,0
506,3010903010224,新規,0,2025-09-01,2025-09-01,ＡＴＨＹ　Ｃａｐｉｔａｌ合同会社,,合同会社,東京都,世田谷区,南烏山５丁目５番１３号,,13,112,1570062,,,,,,,2025-09-01,1,,,,,アシーキャピタル,0
509,3011001171677,新規,0,2025-09-01,2025-09-01,株式会社ＵＳＥ,,株式会社,東京都,渋谷区,南平台町５番１２号シルフィード南平台２０４,,13,113,1500036,,,,,,,2025-09-01,1,,,,,ユーエスイー,0
510,3011001171719,新規,0,2025-09-01,2025-09-01,ニカ・ベオグラード株式会社,,株式会社,東京都,渋谷区,恵比寿西１丁目３６番２号ＴＨＥＣＯＮＯＥ＜代官山＞１０２,,13,113,1500021,,,,,,,2025-09-01,1,,,,,ニカベオグラード,0
511,3011001171751,新規,0,2025-09-01,2025-09-01,うごくまち株式会社,,株式会社,東京都,渋谷区,千駄ヶ谷４丁目１１番８号,,13,113,1510051,,,,,,,2025-09-01,1,,,,,ウゴクマチ,0
512,3011001172221,新規,0,2025-09-01,2025-09-01,株式会社金宝堂スポーツ,,株式会社,東京都,渋谷区,道玄坂２丁目２５番１２号道玄坂通４階,,13,113,1500043,,,,,,,2025-09-01,1,,,,,キンポウドウスポーツ,0
514,3011003022242,新規,0,2025-09-01,2025-09-01,合同会社ＲＥＤ,,合同会社,東京都,渋谷区,恵比寿西２丁目４番８号ウィンド恵比寿ビル８Ｆ,,13,113,1500021,,,,,,,2025-09-01,1,,,,,レッド,0
515,3011003022259,新規,0,2025-09-01,2025-09-01,合同会社デイリフト,,合同会社,東京都,渋谷区,円山町５番３号ＭＩＥＵＸ渋谷ビル８階,,13,113,1500044,,,,,,,2025-09-01,1,,,,,デイリフト,0
516,3011003022275,新規,0,2025-09-01,2025-09-01,合同会社Ｒ＆Ｔ創企画,,合同会社,東京都,目黒区,東山２丁目２１番１２－２０８号Ｂｒｉｌｌｉａ目黒東山,,13,110,1530043,,,,,,,2025-09-01,1,,,,,アールアンドティーソウキカク,0
517,3011003022283,新規,0,2025-09-01,2025-09-01,合同会社ｉｍ　Ｇｅｉｓｔ,,合同会社,東京都,渋谷区,千駄ヶ谷５丁目２７番３号,,13,113,1510051,,,,,,,2025-09-01,1,,,,,イムガイスト,0
524,3011301030839,新規,0,2025-09-01,2025-09-01,株式会社ルセリ,,株式会社,東京都,杉並区,高円寺南５丁目９番２０号,,13,115,1660003,,,,,,,2025-09-01,1,,,,,ルセリ,0
531,3011701028680,新規,0,2025-09-01,2025-09-01,アシスト株式会社,,株式会社,東京都,江戸川区,中央１丁目４２番１号,,13,123,1320021,,,,,,,2025-09-01,1,,,,,アシスト,0
543,3013301054850,新規,0,2025-09-01,2025-09-01,株式会社Ｕｎａｒｉ,,株式会社,東京都,豊島区,東池袋２丁目６２番８号ＢＩＧオフィスプラザ池袋１２０６,,13,116,1700013,,,,,,,2025-09-01,1,,,,,ウナリ,0
552,3020001164302,新規,0,2025-09-01,2025-09-01,株式会社トピカ,,株式会社,神奈川県,川崎市川崎区,大島５丁目２番１３号,,14,131,2100834,,,,,,,2025-09-01,1,,,,,トピカ,0
556,3020003029247,新規,0,2025-09-01,2025-09-01,ハーバーブルーム合同会社,,合同会社,神奈川県,横浜市港北区,日吉本町４丁目２３番１５号,,14,109,2230062,,,,,,,2025-09-01,1,,,,,ハーバーブルーム,0
559,3021001086180,新規,0,2025-09-01,2025-09-01,ＦＬＵＲＮＡコンサルティング株式会社,,株式会社,神奈川県,藤沢市,藤沢５４５番地の３４シティインデックス藤沢１３０１,,14,205,2510052,,,,,,,2025-09-01,1,,,,,フルナコンサルティング,0
560,3021001086189,新規,0,2025-09-01,2025-09-01,株式会社ＳＡＬＶＡＤＯＲ,,株式会社,神奈川県,横須賀市,日の出町１丁目９番地３クリオ横須賀海岸通り３０６,,14,201,2380006,,,,,,,2025-09-01,1,,,,,サルバドール,0
569,3030003027497,新規,0,2025-09-01,2025-09-01,合同会社鉄腕,,合同会社,埼玉県,さいたま市大宮区,仲町１丁目７４高野ビル２階,,11,103,3300845,,,,,,,2025-09-01,1,,,,,テツワン,0
571,3040001140268,新規,0,2025-09-01,2025-09-01,株式会社Ｙ　ＳＴＹＬＥ,,株式会社,千葉県,我孫子市,我孫子２丁目６エールの丘１２０７,,12,222,2701166,,,,,,,2025-09-01,1,,,,,ワイスタイル,0
572,3040005022859,新規,0,2025-09-01,2025-09-01,特定非営利活動法人ふれあい自然楽校,,その他の設立登記法人,千葉県,柏市,根戸３０８番地１,,12,217,2770831,,,,,,,2025-09-01,1,,,,,フレアイシゼンガッコウ,0
576,3050001057180,新規,0,2025-09-01,2025-09-01,Ａｕｘ　Ｃｈａｍｐｓ　ｒｉｄｉｎｇ　Ｔｅａｍ株式会社,,株式会社,茨城県,常総市,内守谷町きぬの里２丁目１４番地１５,,08,211,3030046,,,,,,,2025-09-01,1,,,,,オーシャンライディングチーム,0
577,3050001057189,新規,0,2025-09-01,2025-09-01,Ｏ’ｓ　Ｈｏｍｅ株式会社,,株式会社,茨城県,つくば市,上横場２５２０番地５０,,08,220,3050854,,,,,,,2025-09-01,1,,,,,オズホーム,0
588,3060003005707,新規,0,2025-09-01,2025-09-01,合同会社未央産業,,合同会社,栃木県,日光市,鬼怒川温泉大原１０６０番地２５,,09,206,3212522,,,,,,,2025-09-01,1,,,,,ミオサンギョウ,0
591,3080001027115,新規,0,2025-09-01,2025-09-01,株式会社瞬,,株式会社,静岡県,静岡市葵区,有永町２２番６０号,,22,101,4200969,,,,,,,2025-09-01,1,,,,,シュン,0
597,3110001039494,新規,0,2025-09-01,2025-09-01,株式会社ホークス,,株式会社,新潟県,上越市,三和区水科３９０番地,,15,222,9430233,,,,,,,2025-09-01,1,,,,,ホークス,0
610,3120001279148,新規,0,2025-09-01,2025-09-01,周宝玉株式会社,,株式会社,大阪府,大阪市東成区,大今里西３丁目１４－１６－４０１号室,,27,115,5370014,,,,,,,2025-09-01,1,,,,,シュウホウギョク,0
611,3120001279189,新規,0,2025-09-01,2025-09-01,株式会社エース,,株式会社,大阪府,大阪市東淀川区,下新庄５丁目２番１５号,,27,114,5330021,,,,,,,2025-09-01,1,,,,,エース,0
615,3120003030418,新規,0,2025-09-01,2025-09-01,ＯＲＡ合同会社,,合同会社,大阪府,大阪市中央区,南船場３丁目５番２５号４Ａ,,27,128,5420081,,,,,,,2025-09-01,1,,,,,オーアールエー,0
616,3120003030426,新規,0,2025-09-01,2025-09-01,４ｄＰｏｃｋｅｔ合同会社,,合同会社,大阪府,交野市,寺２丁目３番４号,,27,230,5760063,,,,,,,2025-09-01,1,,,,,フォーディーポケット,0
618,3120005025135,新規,0,2025-09-01,2025-09-01,一般社団法人１００年企業研究会,,その他の設立登記法人,大阪府,大阪市中央区,内本町２丁目４番１２号,,27,128,5400026,,,,,,,2025-09-01,1,,,,,ヒャクネンキギョウケンキュウカイ,0
619,3120103006664,新規,0,2025-09-01,2025-09-01,Ｔ＆Ｍａｇｏｋｏｒｏ合同会社,,合同会社,大阪府,泉佐野市,中町３丁目２番１５－２０３号,,27,213,5980013,,,,,,,2025-09-01,1,,,,,ティーアンドマゴコロ,0
624,3120901051440,新規,0,2025-09-01,2025-09-01,株式会社エイデン,,株式会社,大阪府,高槻市,竹の内町１１番１２号,,27,207,5690043,,,,,,,2025-09-01,1,,,,,エイデン,0
625,3120901051449,新規,0,2025-09-01,2025-09-01,Ａｃｅ株式会社,,株式会社,大阪府,豊中市,螢池北町２丁目２番１４号,,27,203,5600031,,,,,,,2025-09-01,1,,,,,エース,0
626,3120903005832,新規,0,2025-09-01,2025-09-01,合同会社ｗｏｏｄ　ｐｌｕｓ　ｏｒａｎｇｅ,,合同会社,大阪府,豊中市,上野東３丁目１５番１９,,27,203,5600013,,,,,,,2025-09-01,1,,,,,ウッドプラスオレンジ,0
637,3140001139820,新規,0,2025-09-01,2025-09-01,株式会社ＭＭＳｉｘ,,株式会社,兵庫県,西宮市,今津出在家町９番２０号,,28,204,6638227,,,,,,,2025-09-01,1,,,,,エムエムシックス,0
640,3140003022504,新規,0,2025-09-01,2025-09-01,ＳＯＲＡ合同会社,,合同会社,兵庫県,尼崎市,戸ノ内町６丁目１番１０－２号,,28,202,6610961,,,,,,,2025-09-01,1,,,,,ソラ,0
651,3180001168394,新規,0,2025-09-01,2025-09-01,株式会社Ｙ‐ＧＡＴＥ　ＨＯＬＤＩＮＧＳ,,株式会社,愛知県,海部郡蟹江町,城３丁目１５６番地,,23,425,4970040,,,,,,,2025-09-01,1,,,,,ワイゲイトホールディングス,0
653,3180003028951,新規,0,2025-09-01,2025-09-01,合同会社オオカミワークス,,合同会社,愛知県,名古屋市西区,名駅２丁目２９－２８グランデール名古屋１０４号室,,23,104,4510045,,,,,,,2025-09-01,1,,,,,オオカミワークス,0
658,3210001020295,新規,0,2025-09-01,2025-09-01,株式会社Ｂｅｅ　Ｌｕｃｋ,,株式会社,福井県,福井市,和田中２丁目７２９番地,,18,201,9188236,,,,,,,2025-09-01,1,,,,,ビーラック,0
669,3260001040470,新規,0,2025-09-01,2025-09-01,ａｄｊｕｓｔ　ａｃｔ株式会社,,株式会社,岡山県,倉敷市,安江４３８－１－１２０３,,33,202,7100825,,,,,,,2025-09-01,1,,,,,アジャストアクト,0
670,3260001040479,新規,0,2025-09-01,2025-09-01,株式会社グレープフルーツ,,株式会社,岡山県,岡山市北区,中山下１丁目１１番１５号新田第１ビル４０２,,33,101,7000821,,,,,,,2025-09-01,1,,,,,グレープフルーツ,0
671,3260001040495,新規,0,2025-09-01,2025-09-01,株式会社ＡＳＡＨＩ　ＲＩＳＥ　ＣＡＲＥ,,株式会社,岡山県,岡山市北区,今６丁目７番１号,,33,101,7000975,,,,,,,2025-09-01,1,,,,,アサヒライズケア,0
683,3290001111211,新規,0,2025-09-01,2025-09-01,ＡＳＡＨＩホールディングス株式会社,,株式会社,福岡県,福岡市南区,長住２丁目１５番４号,,40,134,8111362,,,,,,,2025-09-01,1,,,,,アサヒホールディングス,0
684,3290001111277,新規,0,2025-09-01,2025-09-01,株式会社松本設備工業,,株式会社,福岡県,福岡市南区,野多目１丁目６番１６－４号ライフモア野多目,,40,134,8111347,,,,,,,2025-09-01,1,,,,,マツモトセツビコウギョウ,0
685,3290001111343,新規,0,2025-09-01,2025-09-01,株式会社ミライ・ムスビ,,株式会社,福岡県,福岡市博多区,博多駅前１丁目２３番２号ＰａｒｋＦｒｏｎｔ博多駅前１丁目５Ｆ－Ｂ,,40,132,8120011,,,,,,,2025-09-01,1,,,,,ミライムスビ,0
690,3290003017308,新規,0,2025-09-01,2025-09-01,合同会社紺碧,,合同会社,福岡県,久留米市,国分町２２５番６号,,40,203,8390863,,,,,,,2025-09-01,1,,,,,コンペキ,0
691,3290003017316,新規,0,2025-09-01,2025-09-01,合同会社ＳｙｎｃＢａｓｅ,,合同会社,福岡県,福岡市中央区,平尾１丁目８番２０－９０１号,,40,133,8100014,,,,,,,2025-09-01,1,,,,,シンクベース,0
692,3290005019822,新規,0,2025-09-01,2025-09-01,一般社団法人街と劇場,,その他の設立登記法人,福岡県,福岡市中央区,大手門３丁目１２番１２号ＢＬＤＧ６４－３階,,40,133,8100074,,,,,,,2025-09-01,1,,,,,,0
699,3320001021299,新規,0,2025-09-01,2025-09-01,株式会社Ａｓｏｕホールディングス,,株式会社,大分県,別府市,山の手町３番１２号,,44,202,8740828,,,,,,,2025-09-01,1,,,,,アソウホールディングス,0
700,3320001021308,新規,0,2025-09-01,2025-09-01,株式会社ＳＨＩＭＯＴＯ,,株式会社,大分県,臼杵市,大字井村２０３３番地の１,,44,206,8750083,,,,,,,2025-09-01,1,,,,,シモト,0
710,3340001027617,新規,0,2025-09-01,2025-09-01,ＡＩＣ株式会社,,株式会社,鹿児島県,霧島市,国分向花町１７番３６号,,46,218,8994353,,,,,,,2025-09-01,1,,,,,エーアイシー,0
711,3340003004936,新規,0,2025-09-01,2025-09-01,ｉｓｈｉｇａｋｉ合同会社,,合同会社,鹿児島県,薩摩郡さつま町,柏原２７００番地４,,46,392,8952104,,,,,,,2025-09-01,1,,,,,イシガキ,0
717,3390005009128,新規,0,2025-09-01,2025-09-01,一般社団法人つながる村山研究会,,その他の設立登記法人,山形県,村山市,大字白鳥１１５２番地１,,06,208,9950202,,,,,,,2025-09-01,1,,,,,,0
720,3400005008508,新規,0,2025-09-01,2025-09-01,特定非営利活動法人イクルバ,,その他の設立登記法人,岩手県,宮古市,津軽石第６地割２番地１９,,03,202,0270203,,,,,,,2025-09-01,1,,,,,イクルバ,0
728,3490001011151,新規,0,2025-09-01,2025-09-01,株式会社高知ＭＳＪ,,株式会社,高知県,高知市,長浜６５９０番地１５,,39,201,7810270,,,,,,,2025-09-01,1,,,,,コウチエムエスジェイ,0
737,4010001258021,新規,0,2025-09-01,2025-09-01,株式会社永盛,,株式会社,東京都,千代田区,神田平河町１番地第３東ビル６ＦイーオフィスＡＫＩＢＡ３番館１２号室,,13,101,1010027,,,,,,,2025-09-01,1,,,,,エイセイ,0
738,4010001258054,新規,0,2025-09-01,2025-09-01,ＭＯコンサルティング株式会社,,株式会社,東京都,中央区,日本橋室町１丁目１１番１２号日本橋水野ビル７階,,13,102,1030022,,,,,,,2025-09-01,1,,,,,エムオーコンサルティング,0
739,4010001258079,新規,0,2025-09-01,2025-09-01,株式会社Ｐｅｎｇｕｉｎ,,株式会社,東京都,中央区,銀座７丁目１１番３号矢島ビル３Ｆ,,13,102,1040061,,,,,,,2025-09-01,1,,,,,ペンギン,0
740,4010001258095,新規,0,2025-09-01,2025-09-01,Ａｂｅｒｃｒｏｍｂｉｅ＆Ｋｅｎｔ　Ｊａｐａｎ株式会社,,株式会社,東京都,中央区,日本橋３丁目９番１号日本橋三丁目スクエア１１階,,13,102,1030027,,,,,,,2025-09-01,1,,,,,アバクロンビーアンドケントジャパン,0
741,4010001258120,新規,0,2025-09-01,2025-09-01,株式会社今日学,,株式会社,東京都,中央区,入船２丁目３番７号築地エー・アイ・ユービル５階,,13,102,1040042,,,,,,,2025-09-01,1,,,,,キョウガク,0
744,4010003048494,新規,0,2025-09-01,2025-09-01,合同会社Ｓｕｍｕファンド１号,,合同会社,東京都,中央区,銀座４丁目６番１号三幸アセットマネジメント株式会社内,,13,102,1040061,,,,,,,2025-09-01,1,,,,,スムファンドイチゴウ,0
745,4010003048552,新規,0,2025-09-01,2025-09-01,スノーリンク合同会社,,合同会社,東京都,中央区,勝どき４丁目６番２－４３１１号,,13,102,1040054,,,,,,,2025-09-01,1,,,,,スノーリンク,0
746,4010003048560,新規,0,2025-09-01,2025-09-01,合同会社セントエム,,合同会社,東京都,千代田区,六番町６番地２０－２０６,,13,101,1020085,,,,,,,2025-09-01,1,,,,,,0
758,4010401192753,新規,0,2025-09-01,2025-09-01,株式会社Ｍｅｄｉｃａｌ　Ｗｅｌｌｆｌｏｗ,,株式会社,東京都,港区,西新橋３丁目１４番８号パークリュクス虎ノ門１７０２,,13,103,1050003,,,,,,,2025-09-01,1,,,,,メディカルウェルフロー,0
772,4010601067862,新規,0,2025-09-01,2025-09-01,隆威株式会社,,株式会社,東京都,江東区,東陽２丁目３番１－４１０号,,13,108,1350016,,,,,,,2025-09-01,1,,,,,リュウイ,0
773,4010601067887,新規,0,2025-09-01,2025-09-01,株式会社コウセイ,,株式会社,東京都,墨田区,東駒形３丁目４番８－８０１号,,13,107,1300005,,,,,,,2025-09-01,1,,,,,コウセイ,0
777,4010701048234,新規,0,2025-09-01,2025-09-01,ＳＲ　ｒｅａｌ　ｅｓｔａｔｅ株式会社,,株式会社,東京都,品川区,東五反田５丁目２２番３７号オフィスサークルＮ五反田９０４号室,,13,109,1410022,,,,,,,2025-09-01,1,,,,,エスアールリアルエステート,0
781,4010901057984,新規,0,2025-09-01,2025-09-01,幸風株式会社,,株式会社,東京都,世田谷区,北沢２丁目２８番１３号,,13,112,1550031,,,,,,,2025-09-01,1,,,,,コウフウ,0
784,4011001171536,新規,0,2025-09-01,2025-09-01,ＳＴＡＲＴ　ＵＰ　ＳＡＬＯＮ株式会社,,株式会社,東京都,渋谷区,南平台町６－１６スタイリオ渋谷南平台５０６,,13,113,1500036,,,,,,,2025-09-01,1,,,,,スタートアップサロン,0
785,4011001171734,新規,0,2025-09-01,2025-09-01,株式会社Ｎｅｘｕｒｉｕｍ,,株式会社,東京都,渋谷区,代々木２丁目１９番１２号唐沢第２ビル２階,,13,113,1510053,,,,,,,2025-09-01,1,,,,,ネクサリウム,0
786,4011003022258,新規,0,2025-09-01,2025-09-01,合同会社７１,,合同会社,東京都,渋谷区,上原３丁目４０－４,,13,113,1510064,,,,,,,2025-09-01,1,,,,,ナナイチ,0
787,4011003022308,新規,0,2025-09-01,2025-09-01,合同会社ＭＹ　Ｊｕｌｉ,,合同会社,東京都,渋谷区,道玄坂１丁目１０番８号渋谷道玄坂東急ビル２Ｆ－Ｃ,,13,113,1500043,,,,,,,2025-09-01,1,,,,,マイジュリ,0
788,4011005011143,新規,0,2025-09-01,2025-09-01,一般社団法人データマネタイゼーション協会,,その他の設立登記法人,東京都,渋谷区,道玄坂１丁目１０番８号渋谷道玄坂東急ビル２Ｆ－Ｃ,,13,113,1500043,,,,,,,2025-09-01,1,,,,,データマネタイゼーションキョウカイ,0
790,4011103016259,新規,0,2025-09-01,2025-09-01,合同会社ＦＩＬＬＥＲＡ,,合同会社,東京都,新宿区,西新宿３丁目３－１３西新宿水間ビル６階,,13,104,1600023,,,,,,,2025-09-01,1,,,,,フィルエラ,0
792,4011105011547,新規,0,2025-09-01,2025-09-01,一般財団法人アニコム健康寿命延伸財団,,その他の設立登記法人,東京都,新宿区,西新宿８丁目１７番１号住友不動産新宿グランドタワー３９階,,13,104,1600023,,,,,,,2025-09-01,1,,,,,アニコムケンコウジュミョウエンシンザイダン,0
793,4011501032510,新規,0,2025-09-01,2025-09-01,ケーエスプランニング株式会社,,株式会社,東京都,北区,岸町１丁目９番１２号,,13,117,1140021,,,,,,,2025-09-01,1,,,,,ケーエスプランニング,0
800,4012403007311,新規,0,2025-09-01,2025-09-01,ＲＥＤ　ＤＥＥＲ　ＳＴＵＤＩＯ合同会社,,合同会社,東京都,武蔵野市,吉祥寺東町１丁目５－１３インウイ吉祥寺４０２号室,,13,203,1800002,,,,,,,2025-09-01,1,,,,,レッドディアスタジオ,0
801,4012801024206,新規,0,2025-09-01,2025-09-01,ＬｉｎｋＴａｃｈ株式会社,,株式会社,東京都,国立市,東１丁目１５－１１、４４８ビル３Ｆ,,13,215,1860002,,,,,,,2025-09-01,1,,,,,リンクタック,0
802,4012803003851,新規,0,2025-09-01,2025-09-01,合同会社楽家,,合同会社,東京都,立川市,西砂町５丁目３９番地の１５,,13,202,1900034,,,,,,,2025-09-01,1,,,,,ラクヤ,0
805,4013301054783,新規,0,2025-09-01,2025-09-01,アルカージナ株式会社,,株式会社,東京都,豊島区,高田２丁目１８番２７号,,13,116,1710033,,,,,,,2025-09-01,1,,,,,アルカージナ,0
813,4020001164615,新規,0,2025-09-01,2025-09-01,株式会社Ｉｔｓｅｌｆ,,株式会社,神奈川県,横浜市西区,北幸２丁目１０番４８号むつみビル３階,,14,103,2200004,,,,,,,2025-09-01,1,,,,,イッツセルフ,0
814,4020001164631,新規,0,2025-09-01,2025-09-01,株式会社ＮＫ　ＣＯＮＳＵＬＴＩＮＧ,,株式会社,神奈川県,横浜市南区,通町３丁目６１番地１,,14,105,2320056,,,,,,,2025-09-01,1,,,,,エヌケイコンサルティング,0
816,4020003029262,新規,0,2025-09-01,2025-09-01,禅合同会社,,合同会社,神奈川県,川崎市多摩区,登戸８０７番地１４,,14,135,2140014,,,,,,,2025-09-01,1,,,,,ゼン,0
817,4030001168409,新規,0,2025-09-01,2025-09-01,株式会社ウィンケレ,,株式会社,埼玉県,三郷市,早稲田３丁目３１番地２１号,,11,237,3410018,,,,,,,2025-09-01,1,,,,,ウィンケレ,0
822,4030003027455,新規,0,2025-09-01,2025-09-01,合同会社ロッドビジョン,,合同会社,埼玉県,さいたま市岩槻区,宮町２丁目１６番３３号,,11,110,3390065,,,,,,,2025-09-01,1,,,,,ロッドビジョン,0
830,4040001140259,新規,0,2025-09-01,2025-09-01,クラヤかかりつけ薬局株式会社,,株式会社,千葉県,白井市,白井４０５番地,,12,232,2701421,,,,,,,2025-09-01,1,,,,,クラヤカカリツケヤッキョク,0
831,4040001140283,新規,0,2025-09-01,2025-09-01,ＳＫエンジニアリング株式会社,,株式会社,千葉県,松戸市,本町１５番地の１パークホームズ松戸駅前レジデンス１２０６号,,12,207,2710091,,,,,,,2025-09-01,1,,,,,エスケイエンジニアリング,0
835,4040005022858,新規,0,2025-09-01,2025-09-01,ＮＰＯ法人ヒゴロカラ,,その他の設立登記法人,千葉県,千葉市若葉区,御成台３丁目２２番地６,,12,104,2650077,,,,,,,2025-09-01,1,,,,,ヒゴロカラ,0
838,4050001057196,新規,0,2025-09-01,2025-09-01,株式会社Ｆｏｒ　ｕｓ　ｌｉｎｋ　ｂａｓｅ,,株式会社,茨城県,東茨城郡大洗町,大貫町１６８３番地の２,,08,309,3111311,,,,,,,2025-09-01,1,,,,,フォーアスリンクベース,0
844,4050003009526,新規,0,2025-09-01,2025-09-01,おおもり合同会社,,合同会社,茨城県,北茨城市,磯原町磯原３丁目６０番地２,,08,215,3191541,,,,,,,2025-09-01,1,,,,,オオモリ,0
847,4060001038534,新規,0,2025-09-01,2025-09-01,株式会社菅谷ホールディングス,,株式会社,栃木県,真岡市,下籠谷２６２番地１,,09,209,3214415,,,,,,,2025-09-01,1,,,,,スガヤホールディングス,0
857,4080401028141,新規,0,2025-09-01,2025-09-01,株式会社Ｍｅｉｓｈｉｎ,,株式会社,静岡県,浜松市浜名区,三ヶ日町日比沢５４７番地の１１８,,22,139,4311422,,,,,,,2025-09-01,1,,,,,メイシン,0
863,4110001039493,新規,0,2025-09-01,2025-09-01,株式会社グローバル,,株式会社,新潟県,上越市,大字土橋１５２５番地１コーポすずらん１０３号,,15,222,9430821,,,,,,,2025-09-01,1,,,,,グローバル,0
866,4110005017264,新規,0,2025-09-01,2025-09-01,一般社団法人ゆうきの里亀貝,,その他の設立登記法人,新潟県,新潟市西区,坂井東４丁目６番３８号３,,15,107,9502041,,,,,,,2025-09-01,1,,,,,ユウキノサトカメガイ,0
875,4120001279188,新規,0,2025-09-01,2025-09-01,四季風華株式会社,,株式会社,大阪府,大阪市中央区,久太郎町２丁目１－４－３９０４号,,27,128,5410056,,,,,,,2025-09-01,1,,,,,シキフウカ,0
880,4120003030425,新規,0,2025-09-01,2025-09-01,ＮＩＴＹＡ合同会社,,合同会社,大阪府,大阪市淀川区,東三国４丁目１６番１０号,,27,123,5320002,,,,,,,2025-09-01,1,,,,,ニティヤ,0
889,4130001080388,新規,0,2025-09-01,2025-09-01,開心会株式会社,,株式会社,京都府,京都市右京区,山ノ内北ノ口町１９番地１－２階,,26,108,6150094,,,,,,,2025-09-01,1,,,,,カイシンカイ,0
890,4130001080396,新規,0,2025-09-01,2025-09-01,３Ｂｉｔ　ＷＯＲＫＳ株式会社,,株式会社,京都府,京都市伏見区,醍醐中山町２３番地の２ラウンドコート京都醍醐３０７号,,26,109,6011373,,,,,,,2025-09-01,1,,,,,スリービットワークス,0
891,4130001080462,新規,0,2025-09-01,2025-09-01,株式会社メイキ,,株式会社,京都府,京都市伏見区,問屋町７５０番地,,26,109,6128359,,,,,,,2025-09-01,1,,,,,メイキ,0
892,4140001139778,新規,0,2025-09-01,2025-09-01,ヒューまっぷ株式会社,,株式会社,兵庫県,神戸市灘区,篠原中町２丁目２－１５,,28,102,6570066,,,,,,,2025-09-01,1,,,,,ヒューマップ,0
894,4140003022503,新規,0,2025-09-01,2025-09-01,合同会社ａｎｄ　ｍｉｓｃ,,合同会社,兵庫県,姫路市,三条町１丁目４９番地,,28,201,6700953,,,,,,,2025-09-01,1,,,,,アンドミスク,0
895,4140005027616,新規,0,2025-09-01,2025-09-01,一般社団法人日本プロパークゴルフ協会,,その他の設立登記法人,兵庫県,神崎郡市川町,西田中１５番地,,28,442,6792313,,,,,,,2025-09-01,1,,,,,ニホンプロパークゴルフキョウカイ,0
898,4160001027015,新規,0,2025-09-01,2025-09-01,芳洲国際キャピタル株式会社,,株式会社,滋賀県,大津市,萱野浦６－１,,25,201,5202143,,,,,,,2025-09-01,1,,,,,ホウシュウコクサイキャピタル,0
899,4160001027023,新規,0,2025-09-01,2025-09-01,株式会社Ｎｅｗ　ｆｉｖｅ,,株式会社,滋賀県,彦根市,正法寺町１１０番地８７,,25,202,5220024,,,,,,,2025-09-01,1,,,,,ニューファイブ,0
909,4180001168369,新規,0,2025-09-01,2025-09-01,太平洋住宅株式会社,,株式会社,愛知県,名古屋市緑区,南大高３丁目１２０６番地,,23,114,4598016,,,,,,,2025-09-01,1,,,,,タイヘイヨウジュウタク,0
910,4180001168377,新規,0,2025-09-01,2025-09-01,株式会社ＴＲＺ,,株式会社,愛知県,一宮市,多加木４丁目１７番２５号,,23,203,4910837,,,,,,,2025-09-01,1,,,,,ティーアールゼット,0
911,4180001168385,新規,0,2025-09-01,2025-09-01,株式会社ＲＡＳＥＮ,,株式会社,愛知県,春日井市,東野町１０丁目１１番地６,,23,206,4860817,,,,,,,2025-09-01,1,,,,,ラセン,0
912,4180001168410,新規,0,2025-09-01,2025-09-01,株式会社やたけ,,株式会社,愛知県,長久手市,原邸１００６番地,,23,238,4801163,,,,,,,2025-09-01,1,,,,,ヤタケ,0
913,4180001168419,新規,0,2025-09-01,2025-09-01,株式会社丸愛,,株式会社,愛知県,名古屋市中区,新栄２丁目２－１９新栄グリーンハイツ５０２,,23,106,4600007,,,,,,,2025-09-01,1,,,,,マルアイ,0
922,4180301040145,新規,0,2025-09-01,2025-09-01,株式会社クラフト,,株式会社,愛知県,新城市,野田字皆津２２番地１,,23,221,4411343,,,,,,,2025-09-01,1,,,,,クラフト,0
923,4180301040153,新規,0,2025-09-01,2025-09-01,ロータス警備株式会社,,株式会社,愛知県,安城市,大山町１丁目１２番地２５安城第２２東海ビル３０２号室,,23,212,4460042,,,,,,,2025-09-01,1,,,,,ロータスケイビ,0
926,4200003007002,新規,0,2025-09-01,2025-09-01,合同会社スズキユイコ,,合同会社,岐阜県,中津川市,川上１６０５番地,,21,206,5099201,,,,,,,2025-09-01,1,,,,,スズキユイコ,0
938,4260003005322,新規,0,2025-09-01,2025-09-01,合同会社きゅー,,合同会社,岡山県,岡山市東区,可知２丁目２番４０号,,33,103,7048173,,,,,,,2025-09-01,1,,,,,キュー,0
940,4260005011517,新規,0,2025-09-01,2025-09-01,ＮＰＯ法人アンレーヴ倉敷,,その他の設立登記法人,岡山県,倉敷市,連島町鶴新田１０３０番地１２,,33,202,7128006,,,,,,,2025-09-01,1,,,,,アンレーヴクラシキ,0
947,4290001111202,新規,0,2025-09-01,2025-09-01,啓辰株式会社,,株式会社,福岡県,福岡市東区,和白東１丁目３－１０マイカル和白２０２号室,,40,131,8110214,,,,,,,2025-09-01,1,,,,,,0
948,4290001111219,新規,0,2025-09-01,2025-09-01,バランスセラ株式会社,,株式会社,福岡県,糟屋郡新宮町,大字原上１７２０番地２,,40,345,8110101,,,,,,,2025-09-01,1,,,,,バランスセラ,0
950,4290003017315,新規,0,2025-09-01,2025-09-01,グレイス合同会社,,合同会社,福岡県,福岡市博多区,吉塚６丁目１０－４６,,40,132,8120041,,,,,,,2025-09-01,1,,,,,グレイス,0
951,4290005019821,新規,0,2025-09-01,2025-09-01,社会保険労務士法人彩,,その他の設立登記法人,福岡県,福岡市中央区,平尾２丁目５番１６号オネスティ平尾９０７号,,40,133,8100014,,,,,,,2025-09-01,1,,,,,イロドリ,0
954,4290801031814,新規,0,2025-09-01,2025-09-01,株式会社Ｔａｃｔ＆Ａｃｈｉｅｖｅ,,株式会社,福岡県,北九州市門司区,田野浦３丁目５番１３号,,40,101,8010803,,,,,,,2025-09-01,1,,,,,タクトアンドアチーブ,0
955,4320001021298,新規,0,2025-09-01,2025-09-01,株式会社弘中建設,,株式会社,大分県,別府市,山の手町７番１１号カーサラッフィナート２０２号,,44,202,8740828,,,,,,,2025-09-01,1,,,,,ヒロナカケンセツ,0
956,4320003004755,新規,0,2025-09-01,2025-09-01,神愛農園合同会社,00140470,合同会社,大分県,杵築市,大字八坂２９１４番地,,44,210,8730015,,,,,,,2025-09-01,1,,,,,シンアイノウエン,0
959,4330003011189,新規,0,2025-09-01,2025-09-01,合同会社Ｓ．Ｋ．マネジメントオフィス,,合同会社,熊本県,熊本市東区,小峯２丁目２番６１号,,43,102,8620933,,,,,,,2025-09-01,1,,,,,エスケイマネジメントオフィス,0
967,4350001019711,新規,0,2025-09-01,2025-09-01,ひなた農園株式会社,,株式会社,宮崎県,小林市,細野２９５２番地１,,45,205,8860004,,,,,,,2025-09-01,1,,,,,ヒナタノウエン,0
972,4370001052974,新規,0,2025-09-01,2025-09-01,株式会社Ａｒｃｈ,,株式会社,宮城県,宮城郡利府町,加瀬字野中沢１２１番地１１,,04,406,9810111,,,,,,,2025-09-01,1,,,,,アーチ,0
988,4460103001738,新規,0,2025-09-01,2025-09-01,音更介護サービス合同会社,,合同会社,北海道,河東郡音更町,東通１２丁目４番地１７,,01,631,0800106,,,,,,,2025-09-01,1,,,,,オトフケカイゴサービス,0
990,4490003002040,新規,0,2025-09-01,2025-09-01,合同会社ＡｃｅＣｒｅｗ,,合同会社,高知県,高知市,竹島町１番地５アマンドビル１階南店舗,,39,201,7808018,,,,,,,2025-09-01,1,,,,,エースクルー,0
997,5010001258078,新規,0,2025-09-01,2025-09-01,株式会社Ｓｏｕｌ８Ｇｒａｃｅ,,株式会社,東京都,中央区,銀座１丁目２２番１１号銀座大竹ビジデンス２階,,13,102,1040061,,,,,,,2025-09-01,1,,,,,ソウルエイトグレース,0
998,5010001258094,新規,0,2025-09-01,2025-09-01,エアフォルグ株式会社,,株式会社,東京都,千代田区,神田駿河台１丁目７番地,,13,101,1010062,,,,,,,2025-09-01,1,,,,,エアフォルグ,0
999,5010001258103,新規,0,2025-09-01,2025-09-01,株式会社スタイル・アール,,株式会社,東京都,中央区,明石町１番２９－２１３号,,13,102,1040044,,,,,,,2025-09-01,1,,,,,スタイルアール,0
1000,5010001258111,新規,0,2025-09-01,2025-09-01,ＮｅｂｕｌａＨｏｒｉｚｏｎ　Ｈｏｌｄｉｎｇｓ株式会社,,株式会社,東京都,千代田区,丸の内１丁目９番２号グラントウキョウサウスタワー１１階,,13,101,1000005,,,,,,,2025-09-01,1,,,,,ネビュラホライズンホールディングス,0
1001,5010001258128,新規,0,2025-09-01,2025-09-01,株式会社画土,,株式会社,東京都,千代田区,神田和泉町１番地９の１９,,13,101,1010024,,,,,,,2025-09-01,1,,,,,ガット,0
1018,5010701048233,新規,0,2025-09-01,2025-09-01,株式会社Ｒｉｏ,,株式会社,東京都,品川区,東大井５丁目１５番１５号安藤ビル４Ｆ,,13,109,1400011,,,,,,,2025-09-01,1,,,,,リオ,0
1019,5010703007889,新規,0,2025-09-01,2025-09-01,合同会社Ｑ＆Ｘ,,合同会社,東京都,品川区,南大井３丁目４番５－５０３号,,13,109,1400013,,,,,,,2025-09-01,1,,,,,キュウアンドエックス,0
1030,5011001171709,新規,0,2025-09-01,2025-09-01,株式会社ＮＤＤ総合研究所,,株式会社,東京都,渋谷区,恵比寿西２丁目４番８号ウィンド恵比寿ビル８Ｆ,,13,113,1500021,,,,,,,2025-09-01,1,,,,,エヌディーディーソウゴウケンキュウショ,0
1031,5011001171717,新規,0,2025-09-01,2025-09-01,Ｋ＆Ｍ　Ｔｒａｄｅｍａｒｋ　Ｍａｎａｇｅｍｅｎｔ株式会社,,株式会社,東京都,渋谷区,神宮前３丁目２２番９号,,13,113,1500001,,,,,,,2025-09-01,1,,,,,ケイアンドエムトレードマークマネジメント,0
1032,5011001171758,新規,0,2025-09-01,2025-09-01,株式会社Ｋ‐ＤＲＥＡＭ,,株式会社,東京都,目黒区,東山３丁目７番１号,,13,110,1530043,,,,,,,2025-09-01,1,,,,,,0
1033,5011003022265,新規,0,2025-09-01,2025-09-01,合同会社ｗａｕｌｋ,,合同会社,東京都,目黒区,鷹番２丁目１９番１７号城南鷹番ビル３Ｆ,,13,110,1520004,,,,,,,2025-09-01,1,,,,,ウォーク,0
1034,5011003022406,新規,0,2025-09-01,2025-09-01,タケデータ・アナリティクス合同会社,,合同会社,東京都,目黒区,柿の木坂２丁目８番７号,,13,110,1520022,,,,,,,2025-09-01,1,,,,,タケデータアナリティクス,0
1035,5011005011134,新規,0,2025-09-01,2025-09-01,一般社団法人つなぐことば,,その他の設立登記法人,東京都,渋谷区,渋谷２丁目１９－１５宮益坂ビルディング６０９,,13,113,1500002,,,,,,,2025-09-01,1,,,,,ツナグコトバ,0
1036,5011101112918,新規,0,2025-09-01,2025-09-01,ＴＯＥＩエステート株式会社,,株式会社,東京都,新宿区,中里町２９番地３菱秀神楽坂ビル１階,,13,104,1620804,,,,,,,2025-09-01,1,,,,,トエイエステート,0
1039,5011201026596,新規,0,2025-09-01,2025-09-01,ＲｉｓｅＭｉｎｄ株式会社,,株式会社,東京都,中野区,上鷺宮２丁目７番２号,,13,114,1650031,,,,,,,2025-09-01,1,,,,,ライズマインド,0
1041,5011303005688,新規,0,2025-09-01,2025-09-01,合同会社ＭＫＳＷ,,合同会社,東京都,杉並区,高円寺南３丁目３６番１２号,,13,115,1660003,,,,,,,2025-09-01,1,,,,,エムケーエスダブル,0
1042,5011401027361,新規,0,2025-09-01,2025-09-01,株式会社宇野葬儀社,,株式会社,東京都,板橋区,大谷口上町６７番１号,,13,119,1730032,,,,,,,2025-09-01,1,,,,,ウノソウギシャ,0
1049,5012301014516,新規,0,2025-09-01,2025-09-01,ゲラーズＭ株式会社,,株式会社,東京都,町田市,南町田２丁目６番５号１Ｆ,,13,209,1940005,,,,,,,2025-09-01,1,,,,,ゲラーズエム,0
1051,5012401043539,新規,0,2025-09-01,2025-09-01,株式会社ＭＩＴＡＭＡ,,株式会社,東京都,三鷹市,中原３丁目１０番２７号三鷹ＨＬＤＧＳビル,,13,204,1810005,,,,,,,2025-09-01,1,,,,,ミタマ,0
1053,5012801024205,新規,0,2025-09-01,2025-09-01,株式会社スカットリンク,,株式会社,東京都,東大和市,上北台１丁目８８６番地の８,,13,220,2070023,,,,,,,2025-09-01,1,,,,,スカットリンク,0
1054,5012803003850,新規,0,2025-09-01,2025-09-01,合同会社Ｌｅｉｍａｎａ,,合同会社,東京都,国分寺市,日吉町４丁目７番地３７,,13,214,1850032,,,,,,,2025-09-01,1,,,,,レイマナ,0
1072,5020003029179,新規,0,2025-09-01,2025-09-01,合同会社リゾラ総合企画,,合同会社,神奈川県,横浜市港南区,上永谷４丁目１８－１９Ｙ２０２,,14,111,2330012,,,,,,,2025-09-01,1,,,,,リゾラソウゴウキカク,0
1073,5020003029278,新規,0,2025-09-01,2025-09-01,合同会社一番星,,合同会社,神奈川県,横浜市鶴見区,潮田町１丁目１５－４０１,,14,101,2300041,,,,,,,2025-09-01,1,,,,,イチバンボシ,0
1074,5020003029294,新規,0,2025-09-01,2025-09-01,合同会社ラボオン,,合同会社,神奈川県,川崎市麻生区,片平２丁目２４番１‐７１０号,,14,137,2150023,,,,,,,2025-09-01,1,,,,,ラボオン,0
1077,5021001086195,新規,0,2025-09-01,2025-09-01,株式会社タクトルーフ,,株式会社,神奈川県,座間市,相武台２丁目１８番１６号,,14,216,2520011,,,,,,,2025-09-01,1,,,,,タクトルーフ,0
1078,5021001086212,新規,0,2025-09-01,2025-09-01,株式会社ウェスティーアセット,,株式会社,神奈川県,藤沢市,遠藤６７０４番地の２,,14,205,2520816,,,,,,,2025-09-01,1,,,,,ウェスティーアセット,0
1079,5021003016480,新規,0,2025-09-01,2025-09-01,Ｅｕｒｏｔｅｃｈ　Ｊａｐａｎ合同会社,,合同会社,神奈川県,鎌倉市,腰越１丁目５番１５号,,14,204,2480033,,,,,,,2025-09-01,1,,,,,ユーロテックジャパン,0
1097,5040001140233,新規,0,2025-09-01,2025-09-01,株式会社ＲＥＡＣＴ,,株式会社,千葉県,野田市,清水公園東１丁目３番地の１,,12,208,2780047,,,,,,,2025-09-01,1,,,,,リアクト,0
1098,5040001140274,新規,0,2025-09-01,2025-09-01,株式会社Ｒｅ　ｓｕｐｐｏｒｔ,,株式会社,千葉県,君津市,三田２３７番地,,12,225,2920403,,,,,,,2025-09-01,1,,,,,リサポート,0
1100,5040003028393,新規,0,2025-09-01,2025-09-01,合同会社ジェミニ,,合同会社,千葉県,成田市,江弁須２７７－４０,,12,211,2860047,,,,,,,2025-09-01,1,,,,,ジェミニ,0
1105,5050003009517,新規,0,2025-09-01,2025-09-01,合同会社ＲＡＮＡＳＩＮＧＨＥ　ＩＮＴＥＲＮＡＴＩＯＮＡＬ,,合同会社,茨城県,下妻市,堀篭１３０８番地１,,08,210,3040033,,,,,,,2025-09-01,1,,,,,ラナシンハインターナショナル,0
1112,5080001027113,新規,0,2025-09-01,2025-09-01,株式会社華,,株式会社,静岡県,静岡市清水区,巴町１２－３シティコーポ新清水５０３室,,22,103,4240829,,,,,,,2025-09-01,1,,,,,ハナ,0
1114,5080003003541,新規,0,2025-09-01,2025-09-01,合同会社厨房プランニング,,合同会社,静岡県,藤枝市,高洲６７番地の８,,22,214,4260046,,,,,,,2025-09-01,1,,,,,チュウボウプランニング,0
1118,5100003008356,新規,0,2025-09-01,2025-09-01,合同会社Ｌｉｆｏｒｉａ,,合同会社,長野県,安曇野市,豊科高家５７８８－２,,20,220,3998204,,,,,,,2025-09-01,1,,,,,リフォリア,0
1120,5110005017263,新規,0,2025-09-01,2025-09-01,社会保険労務士法人たまき事務所,,その他の設立登記法人,新潟県,新潟市中央区,西大畑町５６８番地,,15,103,9518104,,,,,,,2025-09-01,1,,,,,タマキジムショ,0
1133,5120001279179,新規,0,2025-09-01,2025-09-01,静美商事株式会社,,株式会社,大阪府,大阪市住之江区,粉浜３丁目９－２３,,27,125,5590001,,,,,,,2025-09-01,1,,,,,セイビショウジ,0
1134,5120001279187,新規,0,2025-09-01,2025-09-01,株式会社ＲＩＮＱＵＥ,,株式会社,大阪府,大阪市中央区,瓦屋町２丁目１３番１６－７０９号,,27,128,5420066,,,,,,,2025-09-01,1,,,,,リンク,0
1135,5120001279195,新規,0,2025-09-01,2025-09-01,株式会社カケル,,株式会社,大阪府,大阪市北区,梅田１丁目１－３大阪駅前第３ビル２９階１－１－１号室,,27,127,5300001,,,,,,,2025-09-01,1,,,,,カケル,0
1136,5120001279237,新規,0,2025-09-01,2025-09-01,株式会社モビリティサポートサービス,,株式会社,大阪府,大阪市福島区,福島４丁目２番７６号,,27,103,5530003,,,,,,,2025-09-01,1,,,,,モビリティサポートサービス,0
1137,5120001279245,新規,0,2025-09-01,2025-09-01,株式会社ピノミ,,株式会社,大阪府,大阪市北区,大淀南２丁目２番９号グランドメゾン新梅田タワーザ・クラブレジデンス１４１９,,27,127,5310075,,,,,,,2025-09-01,1,,,,,ピノミ,0
1138,5120001279261,新規,0,2025-09-01,2025-09-01,株式会社ライトフードリンク,,株式会社,大阪府,大阪市都島区,高倉町２丁目４番１２号,,27,102,5340011,,,,,,,2025-09-01,1,,,,,ライトフードリンク,0
1143,5120003030408,新規,0,2025-09-01,2025-09-01,合同会社Ｌｕｃｅ,,合同会社,大阪府,大阪市北区,梅田１丁目２番２号大阪駅前第２ビル１２－１２,,27,127,5300001,,,,,,,2025-09-01,1,,,,,ルーチェ,0
1144,5120003030416,新規,0,2025-09-01,2025-09-01,合同会社エンリンク,,合同会社,大阪府,大阪市東住吉区,今川６丁目３番３２号,,27,121,5460003,,,,,,,2025-09-01,1,,,,,エンリンク,0
1145,5120003030424,新規,0,2025-09-01,2025-09-01,ＥＬＧ　Ｔｅｃｈ合同会社,,合同会社,大阪府,大阪市生野区,生野東３丁目６番２９号,,27,116,5440025,,,,,,,2025-09-01,1,,,,,イーエルジーテック,0
1146,5120003030432,新規,0,2025-09-01,2025-09-01,合同会社Ｄｒｅａｍ,,合同会社,大阪府,枚方市,走谷２丁目４番１３号,,27,210,5730063,,,,,,,2025-09-01,1,,,,,ドリーム,0
1160,5130001080395,新規,0,2025-09-01,2025-09-01,ＫＡＮＴＡＬ株式会社,,株式会社,京都府,京都市北区,衣笠赤阪町１番地１１４－１Ａ,,26,101,6038486,,,,,,,2025-09-01,1,,,,,カンタル,0
1163,5140001139819,新規,0,2025-09-01,2025-09-01,株式会社隆盛,,株式会社,兵庫県,三田市,上相野５５５番地１,,28,219,6691346,,,,,,,2025-09-01,1,,,,,リュウセイ,0
1164,5140001139835,新規,0,2025-09-01,2025-09-01,株式会社ＢＯＲＤＥＲ,,株式会社,兵庫県,尼崎市,南武庫之荘４丁目２０番３１号,,28,202,6610033,,,,,,,2025-09-01,1,,,,,ボーダー,0
1171,5180001168376,新規,0,2025-09-01,2025-09-01,株式会社志高会,00140467,株式会社,愛知県,名古屋市千種区,末盛通２丁目１２番１号,,23,101,4640821,,,,,,,2025-09-01,1,,,,,シコウカイ,0
1172,5180001168384,新規,0,2025-09-01,2025-09-01,新井工業株式会社,,株式会社,愛知県,名古屋市緑区,大高町字二番割５６番地,,23,114,4598001,,,,,,,2025-09-01,1,,,,,アライコウギョウ,0
1173,5180001168392,新規,0,2025-09-01,2025-09-01,株式会社ＧＯＭＡ,,株式会社,愛知県,名古屋市中区,栄３丁目２番３号名古屋日興證券ビル４階,,23,106,4600008,,,,,,,2025-09-01,1,,,,,ゴマ,0
1179,5180003028909,新規,0,2025-09-01,2025-09-01,ＪＯＹ‐Ｃｏｎｎｅｃｔ合同会社,,合同会社,愛知県,名古屋市天白区,高坂町１４８番地,,23,116,4680025,,,,,,,2025-09-01,1,,,,,ジョイーコネクト,0
1183,5180301040144,新規,0,2025-09-01,2025-09-01,株式会社善盛,,株式会社,愛知県,豊橋市,西浜町１０番地１０,,23,201,4410156,,,,,,,2025-09-01,1,,,,,ゼンセイ,0
1188,5200001044186,新規,0,2025-09-01,2025-09-01,株式会社ＡＣＴ,,株式会社,岐阜県,可児市,川合２７９３番地２２４,,21,214,5090201,,,,,,,2025-09-01,1,,,,,アクト,0
1198,5240001065435,新規,0,2025-09-01,2025-09-01,株式会社白皇,,株式会社,広島県,竹原市,中央１丁目４番４号,,34,203,7250026,,,,,,,2025-09-01,1,,,,,ハクオウ,0
1208,5290001111259,新規,0,2025-09-01,2025-09-01,株式会社ＫＭ,,株式会社,福岡県,福岡市博多区,博多駅南４丁目１２－３ルノアス博多５０３,,40,132,8120016,,,,,,,2025-09-01,1,,,,,ケイエム,0
1209,5290003017297,新規,0,2025-09-01,2025-09-01,ＳｕｎｓｈｉｎｅＰｒｏｐｅｒｔｙ合同会社,,合同会社,福岡県,福岡市中央区,天神４丁目５－１０チサンマンション第二天神３０６号,,40,133,8100001,,,,,,,2025-09-01,1,,,,,サンシャインプロパティ,0
1210,5290003017339,新規,0,2025-09-01,2025-09-01,合同会社Ｃｒｅｓｔ　Ｖｏｌｔａｒ,,合同会社,福岡県,うきは市,吉井町千年３０１番地１ダンケプロスト１０６号,,40,225,8391304,,,,,,,2025-09-01,1,,,,,クレストボルター,0
1218,5320001021297,新規,0,2025-09-01,2025-09-01,株式会社ＡＫワークス,,株式会社,大分県,宇佐市,大字城井１８３２番地の７,,44,211,8790442,,,,,,,2025-09-01,1,,,,,エーケーワークス,0
1220,5330001033523,新規,0,2025-09-01,2025-09-01,株式会社ケアメイト,,株式会社,熊本県,人吉市,下原田町字瓜生田３０１番地,,43,203,8680086,,,,,,,2025-09-01,1,,,,,ケアメイト,0
1225,5340001027615,新規,0,2025-09-01,2025-09-01,株式会社ＭＲＴｇｕａｒｄ,,株式会社,鹿児島県,鹿児島市,光山１丁目２２番８号,,46,201,8910151,,,,,,,2025-09-01,1,,,,,エムアールティガード,0
1235,5420003003176,新規,0,2025-09-01,2025-09-01,合同会社サンリョウサービス,,合同会社,青森県,弘前市,大字城東中央２丁目４番地２ブルーグラス・フォート０２０２号,,02,202,0368093,,,,,,,2025-09-01,1,,,,,サンリョウサービス,0
1243,5450001014718,新規,0,2025-09-01,2025-09-01,株式会社共進,,株式会社,北海道,旭川市,新星町４丁目９番１２号,,01,204,0700014,,,,,,,2025-09-01,1,,,,,キョウシン,0
1249,6010001258052,新規,0,2025-09-01,2025-09-01,ＮＣＣＡＰ１‐５株式会社,,株式会社,東京都,千代田区,大手町１丁目３番１号,,13,101,1000004,,,,,,,2025-09-01,1,,,,,エヌシーキャップイチノゴ,0
1250,6010001258069,新規,0,2025-09-01,2025-09-01,株式会社うぶけや,,株式会社,東京都,中央区,日本橋人形町３丁目９番２号,,13,102,1030013,,,,,,,2025-09-01,1,,,,,ウブケヤ,0
1251,6010001258077,新規,0,2025-09-01,2025-09-01,株式会社ＳａＣｕＲａ　Ｄｉｎｉｎｇ,,株式会社,東京都,千代田区,丸の内１丁目６番５号丸の内北口ビルディング９Ｆ,,13,101,1000005,,,,,,,2025-09-01,1,,,,,サクラダイニング,0
1252,6010001258127,新規,0,2025-09-01,2025-09-01,Ｇｌｕｅｆｉ株式会社,,株式会社,東京都,中央区,日本橋室町４丁目３番９号,,13,102,1030022,,,,,,,2025-09-01,1,,,,,グルーファイ,0
1253,6010001258143,新規,0,2025-09-01,2025-09-01,株式会社ＳＹＮＣＳ　ＡＧＥＮＴ,,株式会社,東京都,中央区,銀座１丁目１２番４号Ｎ＆ＥＢＬＤ．６Ｆ,,13,102,1040061,,,,,,,2025-09-01,1,,,,,シンクスエージェント,0
1254,6010003048476,新規,0,2025-09-01,2025-09-01,合同会社アクアビット,,合同会社,東京都,千代田区,九段北１丁目９番５号朝日九段マンション５０３,,13,101,1020073,,,,,,,2025-09-01,1,,,,,アクアビット,0
1255,6010003048526,新規,0,2025-09-01,2025-09-01,合同会社ＩＤＥＮＴＩ,,合同会社,東京都,中央区,銀座１丁目２２番１１号銀座大竹ビジデンス２Ｆ,,13,102,1040061,,,,,,,2025-09-01,1,,,,,アイデンティ,0
1256,6010003048567,新規,0,2025-09-01,2025-09-01,合同会社ＬＳＴホテルマネジメント,,合同会社,東京都,中央区,日本橋１丁目４番１号日本橋一丁目ビルディング,,13,102,1030027,,,,,,,2025-09-01,1,,,,,エルエスティーホテルマネジメント,0
1287,6011001171674,新規,0,2025-09-01,2025-09-01,株式会社アニメーションドリーム,,株式会社,東京都,渋谷区,富ヶ谷１丁目３番４号,,13,113,1510063,,,,,,,2025-09-01,1,,,,,アニメーションドリーム,0
1294,6011003022280,新規,0,2025-09-01,2025-09-01,トライデント・キャピタル合同会社,,合同会社,東京都,目黒区,自由が丘２丁目２２番１６号,,13,110,1520035,,,,,,,2025-09-01,1,,,,,トライデントキャピタル,0
1298,6011103016273,新規,0,2025-09-01,2025-09-01,ＴＲＳＴＭｉｉ合同会社,,合同会社,東京都,新宿区,中落合２丁目７－１０ＡＺｓｍａｒｔ目白御留山４０４,,13,104,1610032,,,,,,,2025-09-01,1,,,,,トラストミー,0
1304,6011301030761,新規,0,2025-09-01,2025-09-01,株式会社コウジ不動産,,株式会社,東京都,杉並区,荻窪２丁目４２－３０,,13,115,1670051,,,,,,,2025-09-01,1,,,,,,0
1305,6011301030836,新規,0,2025-09-01,2025-09-01,アイグレーデンタルサービス株式会社,,株式会社,東京都,杉並区,西荻南１丁目１５番２２号,,13,115,1670053,,,,,,,2025-09-01,1,,,,,アイグレーデンタルサービス,0
1307,6011601028951,新規,0,2025-09-01,2025-09-01,株式会社ミチルカ,,株式会社,東京都,練馬区,富士見台４丁目２５－４,,13,120,1770034,,,,,,,2025-09-01,1,,,,,ミチルカ,0
1314,6012303002212,新規,0,2025-09-01,2025-09-01,合同会社ｐｉｑｕｅ,,合同会社,東京都,町田市,中町２丁目１２番１７号グランドソレーユ３０２,,13,209,1940021,,,,,,,2025-09-01,1,,,,,ピケ,0
1315,6012405005154,新規,0,2025-09-01,2025-09-01,特定非営利活動法人吹奏楽振興会音の輪,,その他の設立登記法人,東京都,府中市,是政５丁目１９番地の１府中多摩川通り住宅２－７０４,,13,206,1830014,,,,,,,2025-09-01,1,,,,,スイソウガクシンコウカイオトノワ,0
1326,6020001164555,新規,0,2025-09-01,2025-09-01,シリウスブルーム株式会社,,株式会社,神奈川県,横浜市港南区,日限山２丁目１番３９号,,14,111,2330015,,,,,,,2025-09-01,1,,,,,シリウスブルーム,0
1331,6021001086153,新規,0,2025-09-01,2025-09-01,株式会社Ｓａｌａｒｉｓ　Ｊａｐａｎ,,株式会社,神奈川県,藤沢市,片瀬海岸２丁目２０－１２ＯＨＡＮＡｔｅｒｒａｃｅ２Ｆ,,14,205,2510035,,,,,,,2025-09-01,1,,,,,サラリスジャパン,0
1332,6021001086161,新規,0,2025-09-01,2025-09-01,Ｓｙｎｋ株式会社,,株式会社,神奈川県,鎌倉市,笹目町４番３号,,14,204,2480015,,,,,,,2025-09-01,1,,,,,シンク,0
1333,6021001086186,新規,0,2025-09-01,2025-09-01,株式会社Ａｒｓａｌ　Ａｕｔｏ,,株式会社,神奈川県,相模原市南区,麻溝台７丁目６番１号,,14,153,2520328,,,,,,,2025-09-01,1,,,,,アルサルオート,0
1336,6021003016496,新規,0,2025-09-01,2025-09-01,合同会社ＲＩＫ,,合同会社,神奈川県,綾瀬市,大上７丁目１２番４号,,14,218,2521104,,,,,,,2025-09-01,1,,,,,リク,0
1347,6030003027494,新規,0,2025-09-01,2025-09-01,Ｋ２Ｌｉｎｅ合同会社,,合同会社,埼玉県,八潮市,大字南後谷４７番地５,,11,234,3400831,,,,,,,2025-09-01,1,,,,,ケーツーライン,0
1353,6040001140273,新規,0,2025-09-01,2025-09-01,株式会社アボロン,,株式会社,千葉県,流山市,大字東深井４５１－５１アリエーテ１０５,,12,220,2700101,,,,,,,2025-09-01,1,,,,,アボロン,0
1366,6070003006049,新規,0,2025-09-01,2025-09-01,はるかＬＬＣ合同会社,,合同会社,群馬県,伊勢崎市,東小保方町３１２６－７,,10,204,3792234,,,,,,,2025-09-01,1,,,,,,0
1367,6080001027112,新規,0,2025-09-01,2025-09-01,株式会社円泉屋,,株式会社,静岡県,藤枝市,北方３７９番地の６,,22,214,4260212,,,,,,,2025-09-01,1,,,,,エンセンヤ,0
1371,6100001038899,新規,0,2025-09-01,2025-09-01,エムケー興産株式会社,,株式会社,長野県,千曲市,大字雨宮１８２５番地,,20,218,3870001,,,,,,,2025-09-01,1,,,,,エムケーコウサン,0
1374,6110001039533,新規,0,2025-09-01,2025-09-01,エムデプト株式会社,,株式会社,新潟県,三条市,上須頃２２３９番地７,,15,204,9550091,,,,,,,2025-09-01,1,,,,,エムデプト,0
1382,6120001279161,新規,0,2025-09-01,2025-09-01,株式会社ｈｅｌｌｏ,,株式会社,大阪府,大阪市大正区,南恩加島３丁目１７番２５－４０１号,,27,108,5510021,,,,,,,2025-09-01,1,,,,,ハロー,0
1383,6120001279178,新規,0,2025-09-01,2025-09-01,株式会社ＲＥ　ＦＩＲＥ,,株式会社,大阪府,大阪市北区,梅田１丁目２番２号大阪駅前第２ビル１２－１２,,27,127,5300001,,,,,,,2025-09-01,1,,,,,リファイヤー,0
1384,6120001279186,新規,0,2025-09-01,2025-09-01,株式会社ジャパンコミュニケーションズ,,株式会社,大阪府,大阪市北区,西天満５丁目１０番１２号ＫＷＩビル４０２,,27,127,5300047,,,,,,,2025-09-01,1,,,,,ジャパンコミュニケーションズ,0
1385,6120001279236,新規,0,2025-09-01,2025-09-01,株式会社セーフアップ,,株式会社,大阪府,大阪市北区,梅田１丁目１－３大阪駅前第３ビル２９階１－１－１号,,27,127,5300001,,,,,,,2025-09-01,1,,,,,セーフアップ,0
1386,6120001279260,新規,0,2025-09-01,2025-09-01,株式会社ＫＯＹＡＭＡ,,株式会社,大阪府,大阪市城東区,諏訪４丁目２４番３－１０１号,,27,118,5360021,,,,,,,2025-09-01,1,,,,,コヤマ,0
1391,6120003030423,新規,0,2025-09-01,2025-09-01,合同会社Ａｎａｙａｎ,,合同会社,大阪府,大阪市東成区,深江北２丁目４番２０号,,27,115,5370001,,,,,,,2025-09-01,1,,,,,アナヤン,0
1394,6120105010059,新規,0,2025-09-01,2025-09-01,特定非営利活動法人伴創社,,その他の設立登記法人,大阪府,泉佐野市,大西２丁目５番６号,,27,213,5980043,,,,,,,2025-09-01,1,,,,,バンソウシャ,0
1402,6120901051438,新規,0,2025-09-01,2025-09-01,株式会社サード,,株式会社,大阪府,豊中市,石橋麻田町５番２４－３０３号,,27,203,5600042,,,,,,,2025-09-01,1,,,,,サード,0
1405,6122001039586,新規,0,2025-09-01,2025-09-01,株式会社河内,,株式会社,大阪府,柏原市,清州１丁目１番２６号,,27,221,5820006,,,,,,,2025-09-01,1,,,,,カワチ,0
1408,6130001080386,新規,0,2025-09-01,2025-09-01,株式会社茜蕾商事,,株式会社,京都府,京都市右京区,太秦安井辰巳町２－３０世古マンション１０６号,,26,108,6168072,,,,,,,2025-09-01,1,,,,,アカネライショウジ,0
1409,6130001080394,新規,0,2025-09-01,2025-09-01,天馬サービス株式会社,,株式会社,京都府,京都市中京区,西ノ京勧学院町６番地８,,26,104,6048413,,,,,,,2025-09-01,1,,,,,テンマサービス,0
1419,6140001139826,新規,0,2025-09-01,2025-09-01,株式会社西風建業,,株式会社,兵庫県,尼崎市,水堂町１丁目３番２０－６５５号,,28,202,6610026,,,,,,,2025-09-01,1,,,,,セイフウケンギョウ,0
1422,6140005027614,新規,0,2025-09-01,2025-09-01,一般社団法人西脇家守舎,,その他の設立登記法人,兵庫県,西脇市,西脇１２番地の１７,,28,213,6770015,,,,,,,2025-09-01,1,,,,,ニシワキヤモリシャ,0
1425,6170003002285,新規,0,2025-09-01,2025-09-01,すまいるメンテナンス合同会社,,合同会社,和歌山県,岩出市,波分２２０番地の１２,,30,209,6496241,,,,,,,2025-09-01,1,,,,,スマイルメンテナンス,0
1436,6180001168350,新規,0,2025-09-01,2025-09-01,ＯＹＢ　Ｃｏｎｓｕｌｔｉｎｇ株式会社,,株式会社,愛知県,名古屋市中区,丸の内３丁目７番２６号ＡＣＡビル５階,,23,106,4600002,,,,,,,2025-09-01,1,,,,,オーワイビーコンサルティング,0
1437,6180001168367,新規,0,2025-09-01,2025-09-01,株式会社ＯＫＭ,,株式会社,愛知県,名古屋市西区,新福寺町１丁目７番地ジュネス２１・２０９号,,23,104,4510083,,,,,,,2025-09-01,1,,,,,オーケーエム,0
1438,6180001168375,新規,0,2025-09-01,2025-09-01,株式会社ｇｏｃ,,株式会社,愛知県,名古屋市東区,徳川１丁目９０１番地,,23,102,4610025,,,,,,,2025-09-01,1,,,,,ジーオーシー,0
1439,6180001168391,新規,0,2025-09-01,2025-09-01,株式会社マッシュプロデュース,,株式会社,愛知県,名古屋市中村区,名駅５丁目１６番１７号,,23,105,4500002,,,,,,,2025-09-01,1,,,,,マッシュプロデュース,0
1440,6180001168425,新規,0,2025-09-01,2025-09-01,株式会社ＳＵＫ,,株式会社,愛知県,名古屋市中村区,名駅南２丁目７番８号,,23,105,4500003,,,,,,,2025-09-01,1,,,,,エスユーケー,0
1444,6200001044177,新規,0,2025-09-01,2025-09-01,株式会社富基商事,,株式会社,岐阜県,瑞穂市,野白新田４１６番地２,,21,216,5010231,,,,,,,2025-09-01,1,,,,,トミキショウジ,0
1445,6220001026891,新規,0,2025-09-01,2025-09-01,フレイムテクノロジーズ株式会社,,株式会社,石川県,金沢市,四十万４丁目１２６番地,,17,201,9218135,,,,,,,2025-09-01,1,,,,,フレイムテクノロジーズ,0
1453,6260001040427,新規,0,2025-09-01,2025-09-01,株式会社翠静,,株式会社,岡山県,岡山市南区,藤田１６９番地,,33,104,7010221,,,,,,,2025-09-01,1,,,,,スイセイ,0
1460,6260005011515,新規,0,2025-09-01,2025-09-01,一般社団法人日本環境創生協会,,その他の設立登記法人,岡山県,岡山市南区,妹尾８７１番地５,,33,104,7010205,,,,,,,2025-09-01,1,,,,,ニホンカンキョウソウセイキョウカイ,0
1469,6290001111233,新規,0,2025-09-01,2025-09-01,Ｂｌｏｓｓｏｍ不動産株式会社,,株式会社,福岡県,福岡市東区,馬出３丁目１０番１－４０３号,,40,131,8120054,,,,,,,2025-09-01,1,,,,,ブロッサムフドウサン,0
1470,6290003017288,新規,0,2025-09-01,2025-09-01,合同会社梅原商事,,合同会社,福岡県,福岡市博多区,吉塚１丁目３６－１０アトラクティ吉塚２－１０３,,40,132,8120041,,,,,,,2025-09-01,1,,,,,ウメハラショウジ,0
1471,6290003017296,新規,0,2025-09-01,2025-09-01,君利通合同会社,,合同会社,福岡県,福岡市中央区,天神５丁目９－２ファミール天神４０３号室,,40,133,8100001,,,,,,,2025-09-01,1,,,,,キミリツ,0
1475,6290801031812,新規,0,2025-09-01,2025-09-01,株式会社フナツ,,株式会社,福岡県,中間市,小田ヶ浦２丁目２７番２１号,,40,215,8090031,,,,,,,2025-09-01,1,,,,,フナツ,0
1476,6300001014335,新規,0,2025-09-01,2025-09-01,株式会社ＷＡＯ,,株式会社,佐賀県,小城市,小城町１８３番地１３,,41,208,8450001,,,,,,,2025-09-01,1,,,,,ダブルエーオー,0
1478,6310005008869,新規,0,2025-09-01,2025-09-01,一般社団法人ラポール,,その他の設立登記法人,長崎県,平戸市,岩の上町３７８番地３,,42,207,8595121,,,,,,,2025-09-01,1,,,,,ラポール,0
1479,6320001021296,新規,0,2025-09-01,2025-09-01,株式会社丸タ,,株式会社,大分県,大分市,大字森町５９７番地の１,,44,201,8700127,,,,,,,2025-09-01,1,,,,,マルタ,0
1512,7010001258010,新規,0,2025-09-01,2025-09-01,株式会社コーヒー豆屋,,株式会社,東京都,中央区,銀座６丁目１２番１３号,,13,102,1040061,,,,,,,2025-09-01,1,,,,,コーヒーマメヤ,0
1513,7010001258027,新規,0,2025-09-01,2025-09-01,ブリング株式会社,,株式会社,東京都,千代田区,神田須田町１丁目６番地２４－７０２号,,13,101,1010041,,,,,,,2025-09-01,1,,,,,ブリング,0
1514,7010001258076,新規,0,2025-09-01,2025-09-01,株式会社ＡＶＡ　ＵＳＡ,,株式会社,東京都,中央区,日本橋１丁目２番１０号東洋ビル３階５階６階,,13,102,1030027,,,,,,,2025-09-01,1,,,,,アヴァユーエスエー,0
1516,7010003048541,新規,0,2025-09-01,2025-09-01,Ｅｘｃｅｌ　Ｃｏｎｎｅｃｔ合同会社,,合同会社,東京都,中央区,日本橋室町１丁目１１番１２号日本橋水野ビル７階,,13,102,1030022,,,,,,,2025-09-01,1,,,,,エクセルコネクト,0
1517,7010003048558,新規,0,2025-09-01,2025-09-01,合同会社デジタル社会研究所,,合同会社,東京都,中央区,日本橋室町１丁目１１番１２号日本橋水野ビル７階,,13,102,1030022,,,,,,,2025-09-01,1,,,,,デジタルシャカイケンキュウショ,0
1518,7010003048582,新規,0,2025-09-01,2025-09-01,ペル・アスペラ合同会社,,合同会社,東京都,中央区,銀座１丁目１２番４号Ｎ＆Ｅ・ＢＬＤ．６Ｆ,,13,102,1040061,,,,,,,2025-09-01,1,,,,,ペルアスペラ,0
1527,7010401192759,新規,0,2025-09-01,2025-09-01,株式会社Ｆｏｏｄ　Ｐｌａｎｎｉｎｇ．ｔ,,株式会社,東京都,港区,芝５丁目２９番２０号,,13,103,1080014,,,,,,,2025-09-01,1,,,,,フードプランニングティー,0
1532,7010403035932,新規,0,2025-09-01,2025-09-01,マイクロオフィス合同会社,,合同会社,東京都,港区,虎ノ門１丁目１６番６号虎ノ門ＲＡＰＯ－ＴＯビルＵＣＦ７０３,,13,103,1050001,,,,,,,2025-09-01,1,,,,,マイクロオフィス,0
1543,7010601067892,新規,0,2025-09-01,2025-09-01,ブレス株式会社,,株式会社,東京都,江東区,豊洲３丁目４番２－２００３号,,13,108,1350061,,,,,,,2025-09-01,1,,,,,ブレス,0
1547,7010703007887,新規,0,2025-09-01,2025-09-01,合同会社ｂｅａｕｔｙ　ｃｏｎｎｅｃｔ,,合同会社,東京都,品川区,東品川４丁目５番８－１１１２号,,13,109,1400002,,,,,,,2025-09-01,1,,,,,ビューティーコネクト,0
1558,7011001171715,新規,0,2025-09-01,2025-09-01,株式会社ｆｌａｒｅｈｏｌｉｃ,,株式会社,東京都,渋谷区,恵比寿３丁目２２番２０号ゼプト恵比寿＃０３号室,,13,113,1500013,,,,,,,2025-09-01,1,,,,,フレアホリック,0
1559,7011001172242,新規,0,2025-09-01,2025-09-01,株式会社藤本壽一事務所,,株式会社,東京都,目黒区,自由が丘３丁目１番１９－６０２号,,13,110,1520035,,,,,,,2025-09-01,1,,,,,フジモトジュイチジムショ,0
1561,7011003022379,新規,0,2025-09-01,2025-09-01,Ｋｉｖｏ合同会社,,合同会社,東京都,渋谷区,道玄坂１丁目１０番８号渋谷道玄坂東急ビル二階Ｃ号室,,13,113,1500043,,,,,,,2025-09-01,1,,,,,キーヴォ,0
1565,7011101112809,新規,0,2025-09-01,2025-09-01,株式会社東邦商会,,株式会社,東京都,新宿区,市谷左内町２９－３ＴＥＲＲＡＣＥＨＩＬＬＩＣＨＩＧＡＹＡ２階,,13,104,1620846,,,,,,,2025-09-01,1,,,,,トウホウショウカイ,0
1566,7011101112899,新規,0,2025-09-01,2025-09-01,株式会社アイテック,,株式会社,東京都,新宿区,西新宿３丁目３番１３号西新宿水間ビル２階,,13,104,1600023,,,,,,,2025-09-01,1,,,,,アイテック,0
1567,7011103016272,新規,0,2025-09-01,2025-09-01,合同会社ポル・アーキ,,合同会社,東京都,新宿区,矢来町３８番地２ベッラヴォーチェ３０３,,13,104,1620805,,,,,,,2025-09-01,1,,,,,ポルアーキ,0
1577,7011803007050,新規,0,2025-09-01,2025-09-01,ＳＡＩＮＵＵ合同会社,,合同会社,東京都,足立区,西新井２丁目４番６号ＡｎｄＰｌｕｓ西新井ビル１０３号,,13,121,1230841,,,,,,,2025-09-01,1,,,,,セイヌー,0
1578,7012301014514,新規,0,2025-09-01,2025-09-01,株式会社全日電工サービス,,株式会社,東京都,町田市,原町田４丁目１１番１３号天野ビル４階,,13,209,1940013,,,,,,,2025-09-01,1,,,,,ゼンニチデンコウサービス,0
1580,7012303002211,新規,0,2025-09-01,2025-09-01,合同会社パビトラ,,合同会社,東京都,町田市,原町田６丁目２３番７号渡辺ビル１Ｆ,,13,209,1940013,,,,,,,2025-09-01,1,,,,,パビトラ,0
1582,7012405005153,新規,0,2025-09-01,2025-09-01,一般社団法人東京城西個人タクシー協会,,その他の設立登記法人,東京都,武蔵野市,境南町２丁目２８番２４－２０２号ロザージュ武蔵野,,13,203,1800023,,,,,,,2025-09-01,1,,,,,トウキョウジョウサイコジンタクシーキョウカイ,0
1584,7013101009786,新規,0,2025-09-01,2025-09-01,株式会社徹匠,,株式会社,東京都,青梅市,新町９丁目２０４１番地の１１,,13,205,1980024,,,,,,,2025-09-01,1,,,,,テツショウ,0
1590,7020001164463,新規,0,2025-09-01,2025-09-01,株式会社Ｌｏｏｌｙｓ,,株式会社,神奈川県,横浜市都筑区,中川１丁目１１番地２５号,,14,118,2240001,,,,,,,2025-09-01,1,,,,,ルーリーズ,0
1591,7020001164471,新規,0,2025-09-01,2025-09-01,株式会社ＵＮＰＬＡＣＥＤ,,株式会社,神奈川県,横浜市都筑区,東方町１２４０番地１４,,14,118,2240045,,,,,,,2025-09-01,1,,,,,アンプレイスド,0
1592,7020001164595,新規,0,2025-09-01,2025-09-01,株式会社ミチノミライ,,株式会社,神奈川県,横浜市鶴見区,東寺尾２丁目５番２３号,,14,101,2300077,,,,,,,2025-09-01,1,,,,,ミチノミライ,0
1593,7020001164629,新規,0,2025-09-01,2025-09-01,株式会社ソルヴェリスタ,,株式会社,神奈川県,横浜市保土ケ谷区,和田２丁目５－１７,,14,106,2400065,,,,,,,2025-09-01,1,,,,,ソルヴェリスタ,0
1595,7020003029243,新規,0,2025-09-01,2025-09-01,合同会社Ｈｉｋａｒｉ　Ｓｔｕｄｉｏ,,合同会社,神奈川県,横浜市磯子区,磯子６丁目３０－３,,14,107,2350016,,,,,,,2025-09-01,1,,,,,ヒカリスタジオ,0
1596,7020005016966,新規,0,2025-09-01,2025-09-01,特定非営利活動法人ミニカワサキ,,その他の設立登記法人,神奈川県,川崎市中原区,下小田中３丁目２１番３－１号,,14,133,2110041,,,,,,,2025-09-01,1,,,,,ミニカワサキ,0
1600,7021001086152,新規,0,2025-09-01,2025-09-01,株式会社わいわい童カンパニー,,株式会社,神奈川県,鎌倉市,由比ガ浜３丁目１１番２１号,,14,204,2480014,,,,,,,2025-09-01,1,,,,,ワイワイワラシカンパニー,0
1601,7021001086160,新規,0,2025-09-01,2025-09-01,株式会社ＦＯＲＡＧＥ,,株式会社,神奈川県,鎌倉市,材木座６丁目６番１６号,,14,204,2480013,,,,,,,2025-09-01,1,,,,,フォレッジ,0
1605,7021003016479,新規,0,2025-09-01,2025-09-01,合同会社Ｌｅｇａｃｙ,,合同会社,神奈川県,横須賀市,汐入町４丁目５１番地,,14,201,2380042,,,,,,,2025-09-01,1,,,,,レガシー,0
1611,7030003027493,新規,0,2025-09-01,2025-09-01,ＨＢＷ合同会社,,合同会社,埼玉県,さいたま市浦和区,北浦和３丁目１９番６－３号,,11,107,3300074,,,,,,,2025-09-01,1,,,,,エイチビーダブリュー,0
1613,7040001140256,新規,0,2025-09-01,2025-09-01,株式会社エコテック,,株式会社,千葉県,柏市,今谷上町４１番地１３０,,12,217,2770074,,,,,,,2025-09-01,1,,,,,エコテック,0
1614,7040001140280,新規,0,2025-09-01,2025-09-01,株式会社Ｓ・Ｔ健相,,株式会社,千葉県,千葉市花見川区,幕張町５丁目１８０番地３,,12,102,2620032,,,,,,,2025-09-01,1,,,,,エスティーケンソウ,0
1620,7050001057193,新規,0,2025-09-01,2025-09-01,トモヱサステナファーム株式会社,,株式会社,茨城県,古河市,下辺見１９５５番地,,08,204,3060235,,,,,,,2025-09-01,1,,,,,トモヱサステナファーム,0
1649,7120001279185,新規,0,2025-09-01,2025-09-01,株式会社ゆとりあるオルヴァンス,,株式会社,大阪府,大阪市北区,梅田１丁目２番２号大阪駅前第２ビル１２－１２,,27,127,5300001,,,,,,,2025-09-01,1,,,,,ユトリアルオルヴァンス,0
1650,7120001279227,新規,0,2025-09-01,2025-09-01,株式会社Ｈ．Ｓ,,株式会社,大阪府,枚方市,津田元町３丁目９番９号,,27,210,5730127,,,,,,,2025-09-01,1,,,,,エイチエス,0
1654,7120005025123,新規,0,2025-09-01,2025-09-01,一般社団法人スーパーキャンプ,,その他の設立登記法人,大阪府,大阪市中央区,徳井町１丁目４番３号,,27,128,5400025,,,,,,,2025-09-01,1,,,,,スーパーキャンプ,0
1656,7120103006660,新規,0,2025-09-01,2025-09-01,合同会社Ｊｉｎｎ　Ｐｒｏｊｅｃｔ,,合同会社,大阪府,松原市,天美東９丁目１４－２,,27,217,5800032,,,,,,,2025-09-01,1,,,,,ジンプロジェクト,0
1657,7120105010058,新規,0,2025-09-01,2025-09-01,一般社団法人日本皮革保護コーティング協会,,その他の設立登記法人,大阪府,堺市堺区,錦之町東２丁１－７,,27,141,5900932,,,,,,,2025-09-01,1,,,,,ニホンヒカクホゴコーティングキョウカイ,0
1660,7120901051429,新規,0,2025-09-01,2025-09-01,楽田株式会社,,株式会社,大阪府,吹田市,江坂町５丁目１１番１０号サンシャイン緑地公園１０６号室,,27,205,5640063,,,,,,,2025-09-01,1,,,,,ラクデン,0
1667,7140001139800,新規,0,2025-09-01,2025-09-01,株式会社ＨｅａｒｔＬｉｎｋ,,株式会社,兵庫県,西宮市,池田町９－２０ブリックコート西宮６Ｆ,,28,204,6620911,,,,,,,2025-09-01,1,,,,,ハートリンク,0
1668,7140001139817,新規,0,2025-09-01,2025-09-01,株式会社Ｌｉｅｎ,,株式会社,兵庫県,西宮市,丸橋町４番２号メゾン西宮３Ｃ－２,,28,204,6620831,,,,,,,2025-09-01,1,,,,,リアン,0
1669,7140001139825,新規,0,2025-09-01,2025-09-01,株式会社Ｓｉｓｓｅｌ,,株式会社,兵庫県,西宮市,一ケ谷町２番３７号,,28,204,6620873,,,,,,,2025-09-01,1,,,,,シセル,0
1677,7150001028366,新規,0,2025-09-01,2025-09-01,株式会社ＹＭコーポレーション,,株式会社,奈良県,御所市,大字多田１５４番地の１,,29,208,6392323,,,,,,,2025-09-01,1,,,,,ワイエムコーポレーション,0
1679,7160001027020,新規,0,2025-09-01,2025-09-01,株式会社空,,株式会社,滋賀県,草津市,草津２丁目５－１２－５０４,,25,206,5250034,,,,,,,2025-09-01,1,,,,,ソラ,0
1688,7180001168366,新規,0,2025-09-01,2025-09-01,ＴＡＲＳＯ株式会社,,株式会社,愛知県,名古屋市中区,大須２丁目２５－１２－２０３,,23,106,4600011,,,,,,,2025-09-01,1,,,,,タルソ,0
1689,7180001168374,新規,0,2025-09-01,2025-09-01,株式会社デントレストレーション,,株式会社,愛知県,豊明市,沓掛町小廻間１６番地４２,,23,229,4701103,,,,,,,2025-09-01,1,,,,,デントレストレーション,0
1690,7180001168382,新規,0,2025-09-01,2025-09-01,株式会社ＦＵＪＩＫＥＮ,,株式会社,愛知県,名古屋市北区,龍ノ口町３丁目１７番地の３,,23,103,4620869,,,,,,,2025-09-01,1,,,,,フジケン,0
1691,7180001168408,新規,0,2025-09-01,2025-09-01,ＳＵＮＲＥＶ株式会社,,株式会社,愛知県,名古屋市東区,矢田２丁目２番１５号,,23,102,4610040,,,,,,,2025-09-01,1,,,,,サンレブ,0
1701,7180301040142,新規,0,2025-09-01,2025-09-01,株式会社ＳＣＭ,,株式会社,愛知県,豊橋市,東雲町１５７番地２,,23,201,4400051,,,,,,,2025-09-01,1,,,,,エスシーエム,0
1707,7200001044176,新規,0,2025-09-01,2025-09-01,ＭＤ物流株式会社,,株式会社,岐阜県,多治見市,上山町１丁目１０３番地,,21,204,5070022,,,,,,,2025-09-01,1,,,,,エムディーブツリュウ,0
1716,7240005015979,新規,0,2025-09-01,2025-09-01,一般社団法人毛利の里再生の風,,その他の設立登記法人,広島県,安芸高田市,吉田町常友６６９番地,,34,214,7310521,,,,,,,2025-09-01,1,,,,,モウリノサトサイセイノカゼ,0
1718,7260001040491,新規,0,2025-09-01,2025-09-01,株式会社Ｇｅｋｉｌｉｎｋｓ,,株式会社,岡山県,岡山市北区,南方５丁目６―５,,33,101,7000807,,,,,,,2025-09-01,1,,,,,ゲキリンクス,0
1727,7290001111307,新規,0,2025-09-01,2025-09-01,株式会社メディカル・ファイン,,株式会社,福岡県,福岡市早良区,高取２丁目５番１４－４０５号,,40,137,8140011,,,,,,,2025-09-01,1,,,,,メディカルファイン,0
1728,7290001111331,新規,0,2025-09-01,2025-09-01,株式会社スリーサイズペイメント,,株式会社,福岡県,福岡市南区,平和２丁目１５番１５号,,40,134,8150071,,,,,,,2025-09-01,1,,,,,,0
1730,7290003017320,新規,0,2025-09-01,2025-09-01,合同会社キマルス,,合同会社,福岡県,糟屋郡久山町,大字猪野７８８－６,,40,348,8112503,,,,,,,2025-09-01,1,,,,,キマルス,0
1735,7360001035713,新規,0,2025-09-01,2025-09-01,株式会社のぼり,,株式会社,沖縄県,沖縄市,松本７丁目１４番１５号,,47,211,9042151,,,,,,,2025-09-01,1,,,,,ノボリ,0
1743,7420005007966,新規,0,2025-09-01,2025-09-01,一般社団法人三沢あおぞら公益協会,,その他の設立登記法人,青森県,三沢市,南町２丁目３１番地３８５１号,,02,207,0330036,,,,,,,2025-09-01,1,,,,,ミサワアオゾラコウエキキョウカイ,0
1747,7430001095114,新規,0,2025-09-01,2025-09-01,株式会社Ａ‐Ｌｉｎｋｓ,,株式会社,北海道,江別市,大麻東町１３－６７,,01,217,0690852,,,,,,,2025-09-01,1,,,,,エーリンクス,0
1751,7480003002311,新規,0,2025-09-01,2025-09-01,合同会社延愛,,合同会社,徳島県,名西郡石井町,高川原字加茂野３４番地２,,36,341,7793224,,,,,,,2025-09-01,1,,,,,ノア,0
1752,7500001026482,新規,0,2025-09-01,2025-09-01,伊千空エンターテイメント株式会社,,株式会社,愛媛県,松山市,末広町１１番地２伊千景館,,38,201,7900023,,,,,,,2025-09-01,1,,,,,イチゾラエンターテイメント,0
1754,7500003003579,新規,0,2025-09-01,2025-09-01,合同会社池田ファーム,,合同会社,愛媛県,西宇和郡伊方町,九町１番耕地１４４８番地,,38,442,7960421,,,,,,,2025-09-01,1,,,,,イケダファーム,0
1763,8010001258075,新規,0,2025-09-01,2025-09-01,Ｔｒｉａｎｃｅ株式会社,,株式会社,東京都,千代田区,飯田橋２丁目１番４号,,13,101,1020072,,,,,,,2025-09-01,1,,,,,トライアンス,0
1764,8010001258083,新規,0,2025-09-01,2025-09-01,アヤオーガニゼーション株式会社,,株式会社,東京都,中央区,銀座１丁目１４－４,,13,102,1040061,,,,,,,2025-09-01,1,,,,,アヤオーガニゼーション,0
1765,8010001258091,新規,0,2025-09-01,2025-09-01,株式会社ＧＲＯＵＰＥＲ,,株式会社,東京都,中央区,銀座７丁目５番１６号秀芳ビル４階,,13,102,1040061,,,,,,,2025-09-01,1,,,,,グルーパー,0
1766,8010001258141,新規,0,2025-09-01,2025-09-01,ＫＩＳ株式会社,,株式会社,東京都,中央区,日本橋兜町５番１号兜町第一平和ビル３Ｆ,,13,102,1030026,,,,,,,2025-09-01,1,,,,,ケーアイエス,0
1769,8010003048466,新規,0,2025-09-01,2025-09-01,ＫＴＢ合同会社,,合同会社,東京都,千代田区,神田和泉町１番地６－１６ヤマトビル４０５,,13,101,1010024,,,,,,,2025-09-01,1,,,,,ケーティービー,0
1770,8010003048565,新規,0,2025-09-01,2025-09-01,カーディナルキャピタル合同会社,,合同会社,東京都,文京区,小日向１丁目１８番３１号,,13,105,1120006,,,,,,,2025-09-01,1,,,,,カーディナルキャピタル,0
1793,8010601067859,新規,0,2025-09-01,2025-09-01,株式会社Ｒｕｂａｎ,,株式会社,東京都,江東区,青海２丁目７番４号ｔｈｅＳＯＨＯ８０３,,13,108,1350064,,,,,,,2025-09-01,1,,,,,リュバン,0
1794,8010601067875,新規,0,2025-09-01,2025-09-01,株式会社メタタグワークス,,株式会社,東京都,江東区,東陽２丁目３番１６－３０１号,,13,108,1350016,,,,,,,2025-09-01,1,,,,,メタタグワークス,0
1797,8010701048230,新規,0,2025-09-01,2025-09-01,株式会社Ｐｒｏｓｐｅｃｔ　Ｒｏａｄ　Ｉｎｖｅｓｔｍｅｎｔｓ,,株式会社,東京都,品川区,大崎２丁目９番１－２４１１号,,13,109,1410032,,,,,,,2025-09-01,1,,,,,プロスペクトロードインベストメンツ,0
1803,8010903010228,新規,0,2025-09-01,2025-09-01,合同会社ＬＵＮＡＶＯ,,合同会社,東京都,世田谷区,給田４丁目２５－２３,,13,112,1570064,,,,,,,2025-09-01,1,,,,,ルナボ,0
1810,8011001171680,新規,0,2025-09-01,2025-09-01,株式会社ＭＩＧＮＯＮ,,株式会社,東京都,渋谷区,恵比寿西１丁目２９番５号カプリ代官山２０３,,13,113,1500021,,,,,,,2025-09-01,1,,,,,ミニョン,0
1811,8011001171697,新規,0,2025-09-01,2025-09-01,株式会社Ｈａｙａｂｕｓａ　Ｅｘｐｅｄｉｔｉｏｎｓ,,株式会社,東京都,渋谷区,渋谷３丁目５番１号,,13,113,1500002,,,,,,,2025-09-01,1,,,,,ハヤブサエクスペディションズ,0
1812,8011001171714,新規,0,2025-09-01,2025-09-01,株式会社ｏｔｔｏホールディングス,,株式会社,東京都,渋谷区,笹塚２丁目７番９号,,13,113,1510073,,,,,,,2025-09-01,1,,,,,オットーホールディングス,0
1820,8011101112881,新規,0,2025-09-01,2025-09-01,Ｊ＆Ｃ株式会社,,株式会社,東京都,新宿区,市谷砂土原町３丁目４番地１いづみハイツ市ヶ谷６１３,,13,104,1620842,,,,,,,2025-09-01,1,,,,,ジェイアンドシー,0
1822,8011201026602,新規,0,2025-09-01,2025-09-01,株式会社ベストエステート,,株式会社,東京都,中野区,本町６丁目４４番３号,,13,114,1640012,,,,,,,2025-09-01,1,,,,,ベストエステート,0
1826,8011301030842,新規,0,2025-09-01,2025-09-01,株式会社維新サービス,,株式会社,東京都,杉並区,和田３丁目３０番１０－７０５号アルス東高円寺,,13,115,1660012,,,,,,,2025-09-01,1,,,,,イシンサービス,0
1827,8011303005677,新規,0,2025-09-01,2025-09-01,ＭＡＧＩＣＡＮＴ合同会社,,合同会社,東京都,杉並区,高円寺南５丁目２１番１２号ＧｒａｎＤｕｏＫｏｅｎｊｉ１０４,,13,115,1660003,,,,,,,2025-09-01,1,,,,,マジカント,0
1828,8011303005693,新規,0,2025-09-01,2025-09-01,合同会社Ｎｅｓｔｒｉｕｍ,,合同会社,東京都,杉並区,高円寺北４丁目２番１３号,,13,115,1660002,,,,,,,2025-09-01,1,,,,,ネストリウム,0
1832,8011701028668,新規,0,2025-09-01,2025-09-01,株式会社ＶＩＲＥＯＮ,,株式会社,東京都,江戸川区,中央２丁目２－１５－１０５,,13,123,1320021,,,,,,,2025-09-01,1,,,,,ヴィレオン,0
1833,8011703004345,新規,0,2025-09-01,2025-09-01,エトワールビューティー合同会社,,合同会社,東京都,江戸川区,中葛西５丁目２－２９ＯＦＦＩＣＥＢＬＤＧ４０２号室,,13,123,1340083,,,,,,,2025-09-01,1,,,,,エトワールビューティー,0
1838,8012403007308,新規,0,2025-09-01,2025-09-01,合同会社Ｒｙｔｍ,,合同会社,東京都,調布市,緑ケ丘２丁目６７番地１ＦＥＬＩＣＥ緑ヶ丘Ａ－０１,,13,208,1820001,,,,,,,2025-09-01,1,,,,,リズム,0
1839,8012405005152,新規,0,2025-09-01,2025-09-01,医療法人社団向日会,,その他の設立登記法人,東京都,調布市,下石原２丁目７番地７ライトハイム１階,,13,208,1820034,,,,,,,2025-09-01,1,,,,,ヒナタカイ,0
1840,8012803003848,新規,0,2025-09-01,2025-09-01,湯田舞台装飾合同会社,,合同会社,東京都,国立市,中１丁目２番３４－２０２号,,13,215,1860004,,,,,,,2025-09-01,1,,,,,ユダブタイソウショク,0
1843,8013303007769,新規,0,2025-09-01,2025-09-01,合同会社エンリッチ・ジャパン,,合同会社,東京都,豊島区,西池袋４丁目１６番４号‐４０９,,13,116,1710021,,,,,,,2025-09-01,1,,,,,エンリッチジャパン,0
1848,8020003029283,新規,0,2025-09-01,2025-09-01,合同会社ハレア,,合同会社,神奈川県,横浜市南区,三春台１１４番１１号キャッスルマンション横浜三春台３０４,,14,105,2320002,,,,,,,2025-09-01,1,,,,,ハレア,0
1862,8040001140255,新規,0,2025-09-01,2025-09-01,ＧＡＭＭＩＲＡＩ株式会社,,株式会社,千葉県,千葉市美浜区,幸町１丁目１８番地８号,,12,106,2610001,,,,,,,2025-09-01,1,,,,,ガムミライ,0
1870,8050001057192,新規,0,2025-09-01,2025-09-01,日照東勝株式会社,,株式会社,茨城県,取手市,戸頭７３５－５,,08,217,3020034,,,,,,,2025-09-01,1,,,,,ニッショウトウショウ,0
1880,8090003002886,新規,0,2025-09-01,2025-09-01,ｋｅｎ’ｓ　ｃｒｅａｔｉｖｅ合同会社,,合同会社,山梨県,北杜市,小淵沢町上笹尾３０８７番地１おおたきの里Ｄ,,19,209,4080041,,,,,,,2025-09-01,1,,,,,ケンズクリエイティブ,0
1897,8120001279192,新規,0,2025-09-01,2025-09-01,株式会社パーソナルジムマーケティング,,株式会社,大阪府,大阪市北区,梅田１丁目２番２号大阪駅前第２ビル１２－１２,,27,127,5300001,,,,,,,2025-09-01,1,,,,,パーソナルジムマーケティング,0
1898,8120001279201,新規,0,2025-09-01,2025-09-01,セイシンワキチ株式会社,,株式会社,大阪府,大阪市西成区,南津守７丁目１番１６号－２０３室,,27,122,5570063,,,,,,,2025-09-01,1,,,,,セイシンワキチ,0
1899,8120001279242,新規,0,2025-09-01,2025-09-01,Ｒｏｙａｌ　ｆｒｏｎｔ株式会社,,株式会社,大阪府,大阪市中央区,安土町１丁目７番１３号,,27,128,5410052,,,,,,,2025-09-01,1,,,,,ロイヤルフロント,0
1901,8120003030339,新規,0,2025-09-01,2025-09-01,合同会社あかまん,,合同会社,大阪府,大阪市生野区,舎利寺１丁目６－４,,27,116,5440022,,,,,,,2025-09-01,1,,,,,アカマン,0
1902,8120003030413,新規,0,2025-09-01,2025-09-01,合同会社ｍａｋ,,合同会社,大阪府,大阪市住吉区,長居３丁目１３－８,,27,120,5580003,,,,,,,2025-09-01,1,,,,,マック,0
1905,8120105010057,新規,0,2025-09-01,2025-09-01,一般社団法人Ｗｏｒｌｄ　Ｗｉｄｅ　Ｒｅｌａｔｉｏｎｓ,,その他の設立登記法人,大阪府,泉佐野市,市場西２丁目５番８－２０１号,,27,213,5980006,,,,,,,2025-09-01,1,,,,,ワールドワイドリレーションズ,0
1906,8120901051436,新規,0,2025-09-01,2025-09-01,株式会社ＡＯアドバイザリー,,株式会社,大阪府,豊中市,螢池中町２丁目３番１－８１７号,,27,203,5600033,,,,,,,2025-09-01,1,,,,,エーオーアドバイザリー,0
1907,8120901051444,新規,0,2025-09-01,2025-09-01,株式会社刀心建,,株式会社,大阪府,茨木市,園田町８番１９号,,27,211,5670825,,,,,,,2025-09-01,1,,,,,トウシンケン,0
1910,8122001039592,新規,0,2025-09-01,2025-09-01,株式会社Ｒ．Ｔ．Ｆ,,株式会社,大阪府,東大阪市,俊徳町２丁目８番２６号,,27,227,5770831,,,,,,,2025-09-01,1,,,,,アールティーエフ,0
1912,8130003010752,新規,0,2025-09-01,2025-09-01,ＯＷＬｌｉｎｅ合同会社,,合同会社,京都府,京都市右京区,太秦下角田町１２－１レスタージュ京都４１０,,26,108,6168111,,,,,,,2025-09-01,1,,,,,オウルライン,0
1913,8140001139832,新規,0,2025-09-01,2025-09-01,株式会社ＳＯＷＧＥＮ,,株式会社,兵庫県,姫路市,阿保甲７８番地３,,28,201,6700944,,,,,,,2025-09-01,1,,,,,ソウゲン,0
1921,8180001168381,新規,0,2025-09-01,2025-09-01,ＭＧＲ　ＷＯＲＫＳ株式会社,,株式会社,愛知県,名古屋市西区,中小田井１丁目６６番地の３,,23,104,4520822,,,,,,,2025-09-01,1,,,,,エムジーアールワークス,0
1922,8180001168398,新規,0,2025-09-01,2025-09-01,株式会社ＨＴ,,株式会社,愛知県,名古屋市中村区,名駅３丁目４番１０号アルティメイト名駅１ｓｔ２階,,23,105,4500002,,,,,,,2025-09-01,1,,,,,エイチティー,0
1923,8180003028947,新規,0,2025-09-01,2025-09-01,合同会社華麗,,合同会社,愛知県,名古屋市千種区,汁谷町１９番地（新汁谷荘１０３号）,,23,101,4640013,,,,,,,2025-09-01,1,,,,,カレイ,0
1924,8180005021207,新規,0,2025-09-01,2025-09-01,一般社団法人ＳＡＶＥ　ＮＥＫＯＧＵＭＡＲＩＡ,,その他の設立登記法人,愛知県,名古屋市千種区,下方町７丁目３３番地の４,,23,101,4640096,,,,,,,2025-09-01,1,,,,,セーブネコグマリア,0
1928,8180301040141,新規,0,2025-09-01,2025-09-01,Ｒ＆Ｍ株式会社,,株式会社,愛知県,知立市,広見１丁目５２番地２,,23,225,4720044,,,,,,,2025-09-01,1,,,,,アールアンドエム,0
1939,8240005015978,新規,0,2025-09-01,2025-09-01,一般社団法人くれ・昭和みらい共創,,その他の設立登記法人,広島県,呉市,焼山中央２丁目８番１２号,,34,202,7370935,,,,,,,2025-09-01,1,,,,,クレショウワミライキョウソウ,0
1943,8260005011513,新規,0,2025-09-01,2025-09-01,一般社団法人ニカ．,,その他の設立登記法人,岡山県,井原市,井原町１９７番地３,,33,207,7150019,,,,,,,2025-09-01,1,,,,,ニカ,0
1946,8290001111181,新規,0,2025-09-01,2025-09-01,株式会社グラングリッド,,株式会社,福岡県,福岡市博多区,博多駅東２丁目５番２１号,,40,132,8120013,,,,,,,2025-09-01,1,,,,,グラングリッド,0
1947,8290001111207,新規,0,2025-09-01,2025-09-01,熊本北千資産株式会社,,株式会社,福岡県,福岡市東区,香椎１丁目１０番５号メゾン・ド・香椎参道２０５号室,,40,131,8130011,,,,,,,2025-09-01,1,,,,,クマモトホクセンシサン,0
1948,8290001111248,新規,0,2025-09-01,2025-09-01,株式会社新誠,,株式会社,福岡県,飯塚市,佐與２５８４番地４,,40,205,8201113,,,,,,,2025-09-01,1,,,,,シンセイ,0
1949,8290001111289,新規,0,2025-09-01,2025-09-01,株式会社ＣｏＬａｂｏ‐Ｂａｓｅ,,株式会社,福岡県,久留米市,宮ノ陣１丁目８番１５号,,40,203,8390801,,,,,,,2025-09-01,1,,,,,コラボベース,0
1950,8290003017311,新規,0,2025-09-01,2025-09-01,合同会社ＯＮＥ　ＳＡＩＬ,,合同会社,福岡県,福岡市博多区,博多駅前１丁目２３番２号ＰａｒｋＦｒｏｎｔ博多駅前１丁目５Ｆ－Ｂ,,40,132,8120011,,,,,,,2025-09-01,1,,,,,ワンセイル,0
1955,8320001021303,新規,0,2025-09-01,2025-09-01,グリーンＡＫＥＮＯ株式会社,,株式会社,大分県,大分市,大字下判田３５７９番地の１,,44,201,8701112,,,,,,,2025-09-01,1,,,,,グリーンアケノ,0
1970,8370001052987,新規,0,2025-09-01,2025-09-01,小野製作所株式会社,,株式会社,宮城県,角田市,藤田字荒井４２番地２,,04,208,9811501,,,,,,,2025-09-01,1,,,,,オノセイサクショ,0
1989,9010001257885,新規,0,2025-09-01,2025-09-01,株式会社ＧＲＯＷＶＩＡ,,株式会社,東京都,中央区,銀座１丁目２２番１１号銀座大竹ビジデンス２Ｆ,,13,102,1040061,,,,,,,2025-09-01,1,,,,,グロウビア,0
1990,9010001258009,新規,0,2025-09-01,2025-09-01,株式会社情報ナビ,,株式会社,東京都,千代田区,麹町２丁目７番３号半蔵門ウッドフィールド４階,,13,101,1020083,,,,,,,2025-09-01,1,,,,,ジョウホウナビ,0
1991,9010001258066,新規,0,2025-09-01,2025-09-01,株式会社ＶｉｓｉＷｏｒｋｓ,,株式会社,東京都,文京区,湯島３丁目４０番１号,,13,105,1130034,,,,,,,2025-09-01,1,,,,,ビジワークス,0
1992,9010001258074,新規,0,2025-09-01,2025-09-01,ＳＵＮＲＩＳＥ　ＣＯＤＥ　ＬＡＢＯ株式会社,,株式会社,東京都,中央区,銀座１丁目１２番４号Ｎ＆ＥＢＬＤ．６Ｆ,,13,102,1040061,,,,,,,2025-09-01,1,,,,,サンライズコードラボ,0
1993,9010001258090,新規,0,2025-09-01,2025-09-01,株式会社オリーブオライブ,,株式会社,東京都,千代田区,九段北１丁目５番９号,,13,101,1020073,,,,,,,2025-09-01,1,,,,,オリーブオライブ,0
1996,9010003048564,新規,0,2025-09-01,2025-09-01,あいりひあコンサルティング合同会社,,合同会社,東京都,中央区,銀座１丁目１２番４号Ｎ＆ＥＢＬＤ．６Ｆ,,13,102,1040061,,,,,,,2025-09-01,1,,,,,アイリヒアコンサルティング,0
2005,9010401192757,新規,0,2025-09-01,2025-09-01,株式会社Ａｒｉａ,,株式会社,東京都,港区,白金６丁目１６番２５号グランドメゾン白金の杜ザ・タワー１７１２号室,,13,103,1080072,,,,,,,2025-09-01,1,,,,,アリア,0
2017,9010603011764,新規,0,2025-09-01,2025-09-01,嘉＿合同会社,00140479,合同会社,東京都,江東区,木場５丁目１番５号メイプルハイム木場Ｂ１２２号室,,13,108,1350042,,,,,,,2025-09-01,1,,,,,ジャーチイ,0
2020,9010901057996,新規,0,2025-09-01,2025-09-01,株式会社ＩＫＩＴＳＵＫＥ,,株式会社,東京都,世田谷区,赤堤４丁目３７番１０号ドムール５、１階,,13,112,1560044,,,,,,,2025-09-01,1,,,,,イキツケ,0
2021,9010901058004,新規,0,2025-09-01,2025-09-01,株式会社ＮＯＲＴＨ　ＶＩＬＬＡＧＥ下北沢,,株式会社,東京都,世田谷区,北沢２丁目１４番８号春日ビル２階,,13,112,1550031,,,,,,,2025-09-01,1,,,,,ノースビレッジシモキタザワ,0
2024,9011001171721,新規,0,2025-09-01,2025-09-01,株式会社ビーアール,,株式会社,東京都,目黒区,三田２丁目３番２０号,,13,110,1530062,,,,,,,2025-09-01,1,,,,,ビーアール,0
2025,9011003022294,新規,0,2025-09-01,2025-09-01,合同会社箱根仙石原,,合同会社,東京都,渋谷区,千駄ヶ谷４丁目２５番２号株式会社フジタ内,,13,113,1510051,,,,,,,2025-09-01,1,,,,,ハコネセンゴクハラ,0
2042,9011703004360,新規,0,2025-09-01,2025-09-01,合同会社ＬｉｆｅＤｅｓｉｇｎ,,合同会社,東京都,江戸川区,東葛西５丁目３０番１７－６０３号,,13,123,1340084,,,,,,,2025-09-01,1,,,,,ライフデザイン,0
2045,9012405005151,新規,0,2025-09-01,2025-09-01,医療法人社団結輝会,,その他の設立登記法人,東京都,多摩市,一ノ宮４丁目１番地の２１みずほビル２階２０１号室,,13,224,2060002,,,,,,,2025-09-01,1,,,,,ユウキカイ,0
2046,9012801024201,新規,0,2025-09-01,2025-09-01,ＦＯＨホールディングス株式会社,,株式会社,東京都,立川市,柴崎町３丁目７番１６号,,13,202,1900023,,,,,,,2025-09-01,1,,,,,エフオーエイチホールディングス,0
2053,9020001164585,新規,0,2025-09-01,2025-09-01,日本データ分析センター株式会社,,株式会社,神奈川県,横浜市中区,山下町２番地産業貿易センタービル９Ｆ,,14,104,2310023,,,,,,,2025-09-01,1,,,,,ニホンデータブンセキセンター,0
2059,9021001086142,新規,0,2025-09-01,2025-09-01,Ｒａｄｉｌｉａ株式会社,,株式会社,神奈川県,大和市,南林間５丁目７番１５号,,14,213,2420006,,,,,,,2025-09-01,1,,,,,ラディリア,0
2060,9021003016493,新規,0,2025-09-01,2025-09-01,合同会社ジェミニ,,合同会社,神奈川県,藤沢市,円行２丁目３番地の１９ラ・グラシューズ湘南３０１号室,,14,205,2520805,,,,,,,2025-09-01,1,,,,,ジェミニ,0
2066,9040001140287,新規,0,2025-09-01,2025-09-01,株式会社宅,,株式会社,千葉県,松戸市,高塚新田５８７番地の７６,,12,207,2702222,,,,,,,2025-09-01,1,,,,,タク,0
2072,9040003028357,新規,0,2025-09-01,2025-09-01,Ｃｈｉｌｄｈｏｏｄ合同会社,,合同会社,千葉県,松戸市,竹ケ花３８レジオン松戸３０３,,12,207,2710072,,,,,,,2025-09-01,1,,,,,チャイルドフッド,0
2073,9040003028373,新規,0,2025-09-01,2025-09-01,津田合同会社,,合同会社,千葉県,船橋市,海神６丁目２番６４号,,12,204,2730021,,,,,,,2025-09-01,1,,,,,ツダ,0
2083,9100001038905,新規,0,2025-09-01,2025-09-01,株式会社Ｍａｒｕｎ,,株式会社,長野県,長野市,平林１丁目２０番２０,,20,201,3810036,,,,,,,2025-09-01,1,,,,,マルン,0
2084,9100003008360,新規,0,2025-09-01,2025-09-01,合同会社Ｎｏｕｆ,,合同会社,長野県,佐久市,望月１９１０番地１４,,20,217,3842202,,,,,,,2025-09-01,1,,,,,ノウフ,0
2105,9120001279241,新規,0,2025-09-01,2025-09-01,株式会社ティーアイサポート,,株式会社,大阪府,大阪市都島区,内代町４丁目３番２７号,,27,102,5340013,,,,,,,2025-09-01,1,,,,,ティーアイサポート,0
2106,9120001279266,新規,0,2025-09-01,2025-09-01,株式会社セカブレ,,株式会社,大阪府,寝屋川市,御幸東町３番１１－１２号,,27,215,5720055,,,,,,,2025-09-01,1,,,,,セカブレ,0
2109,9120003030420,新規,0,2025-09-01,2025-09-01,ナミグループカンパニー合同会社,,合同会社,大阪府,大阪市中央区,瓦屋町１丁目７－２２アストロヴィラ松屋町４０６,,27,128,5420066,,,,,,,2025-09-01,1,,,,,ナミグループカンパニー,0
2110,9120003030429,新規,0,2025-09-01,2025-09-01,合同会社ウェルフェア鶴見３ケアーセンター,,合同会社,大阪府,大阪市城東区,今福東３丁目６番１１号,,27,118,5360002,,,,,,,2025-09-01,1,,,,,ウェルフェアツルミサンケアーセンター,0
2111,9120101072348,新規,0,2025-09-01,2025-09-01,株式会社Ａｚｕｍａ建築設計事務所,,株式会社,大阪府,泉佐野市,羽倉崎２丁目２番３号１階,,27,213,5980046,,,,,,,2025-09-01,1,,,,,アズマケンチクセッケイジムショ,0
2112,9120105010056,新規,0,2025-09-01,2025-09-01,一般社団法人やまと,,その他の設立登記法人,大阪府,泉大津市,曽根町１丁目７番２１－１号,,27,206,5950011,,,,,,,2025-09-01,1,,,,,ヤマト,0
2117,9120901051435,新規,0,2025-09-01,2025-09-01,株式会社ＵＥＳＨＩＮ,,株式会社,大阪府,吹田市,山田東４丁目４１番３－１１１５号,,27,205,5650821,,,,,,,2025-09-01,1,,,,,ウエシン,0
2118,9120901051443,新規,0,2025-09-01,2025-09-01,株式会社ＬＩＮＤＦＩＥＬＤ,,株式会社,大阪府,吹田市,千里山西４丁目３４番１－３０２号,,27,205,5650851,,,,,,,2025-09-01,1,,,,,リンドフィールド,0
2120,9122003003298,新規,0,2025-09-01,2025-09-01,合同会社ＹＴハピネス,,合同会社,大阪府,東大阪市,菱江３丁目１６－６－６０１,,27,227,5780984,,,,,,,2025-09-01,1,,,,,ワイティハピネス,0
2123,9130001080375,新規,0,2025-09-01,2025-09-01,株式会社きかい,,株式会社,京都府,宮津市,字万年１０６１番地の１,,26,205,6260008,,,,,,,2025-09-01,1,,,,,キカイ,0
2131,9140001139815,新規,0,2025-09-01,2025-09-01,株式会社あやたか,,株式会社,兵庫県,神戸市東灘区,御影２丁目５番１１号１０１号室,,28,101,6580047,,,,,,,2025-09-01,1,,,,,アヤタカ,0
2134,9140003022498,新規,0,2025-09-01,2025-09-01,合同会社ＭＥＲＲＹ　ＰＩＮＫ,,合同会社,兵庫県,尼崎市,潮江１丁目３番１２－１３１５号,,28,202,6610976,,,,,,,2025-09-01,1,,,,,メリーピンク,0
2138,9150001028364,新規,0,2025-09-01,2025-09-01,株式会社ＲＭｋ,,株式会社,奈良県,香芝市,逢坂２丁目６８３－３シティライフ香芝１１１号室,00140466,29,210,6390251,,,,,,,2025-09-01,1,,,,,アールエムケイ,0
2140,9160001027019,新規,0,2025-09-01,2025-09-01,光建株式会社,,株式会社,滋賀県,守山市,守山６丁目８－３７,,25,207,5240022,,,,,,,2025-09-01,1,,,,,コウケン,0
2148,9180001168372,新規,0,2025-09-01,2025-09-01,株式会社ＧＥＭＭＥＳ＆ＣＯ．,,株式会社,愛知県,名古屋市東区,徳川１丁目９０１番地,,23,102,4610025,,,,,,,2025-09-01,1,,,,,ジェムスアンドコー,0
2149,9180001168380,新規,0,2025-09-01,2025-09-01,株式会社轍,,株式会社,愛知県,名古屋市千種区,今池３丁目４番１８号パートナーズ今池７０１号,,23,101,4640850,,,,,,,2025-09-01,1,,,,,ワダチ,0
2150,9180001168414,新規,0,2025-09-01,2025-09-01,ＭＥＩＨＯ建物管理株式会社,,株式会社,愛知県,名古屋市中区,栄１丁目１８番２２号グランコート白川公園１２０２号,,23,106,4600008,,,,,,,2025-09-01,1,,,,,メイホータテモノカンリ,0
2154,9180003028954,新規,0,2025-09-01,2025-09-01,合同会社Ｔｏｐｏｐａ,,合同会社,愛知県,名古屋市中村区,名駅４丁目２４番５号第２森ビル４０１,,23,105,4500002,,,,,,,2025-09-01,1,,,,,トポパ,0
2155,9180005021206,新規,0,2025-09-01,2025-09-01,一般社団法人むすびめワークス,,その他の設立登記法人,愛知県,名古屋市中区,栄２丁目２‐１広小路伏見中駒ビル５Ｆ１５号,,23,106,4600008,,,,,,,2025-09-01,1,,,,,ムスビメワークス,0
2157,9180301040140,新規,0,2025-09-01,2025-09-01,株式会社ＩＺＵＭＯアセットマネジメント,,株式会社,愛知県,豊田市,小坂本町２丁目４３番地１,,23,211,4710034,,,,,,,2025-09-01,1,,,,,イズモアセットマネジメント,0
2161,9210003001949,新規,0,2025-09-01,2025-09-01,合同会社Ｃ‐ＥＹＥ,,合同会社,福井県,南条郡南越前町,上野２４－８－１,,18,404,9190204,,,,,,,2025-09-01,1,,,,,カーボンアイ,0
2169,9230001021055,新規,0,2025-09-01,2025-09-01,株式会社ＢＡＲＣＯ,,株式会社,富山県,射水市,八幡町１丁目２１番８号,,16,211,9340025,,,,,,,2025-09-01,1,,,,,バルコ,0
2170,9240001065423,新規,0,2025-09-01,2025-09-01,株式会社オオシタ木型製作所,,株式会社,広島県,広島市安佐北区,三入南２丁目１９番４号,,34,106,7310213,,,,,,,2025-09-01,1,,,,,オオシタキガタセイサクショ,0
2171,9240001065431,新規,0,2025-09-01,2025-09-01,株式会社福吉,,株式会社,広島県,福山市,駅家町大字法成寺１４番地１ヴェネットケイＤ１０１,,34,207,7202413,,,,,,,2025-09-01,1,,,,,フクキチ,0
2185,9290001111206,新規,0,2025-09-01,2025-09-01,株式会社Ｙｕｎａｚｉａ,,株式会社,福岡県,福岡市中央区,天神４丁目６－２８いちご天神ノースビル７階,,40,133,8100001,,,,,,,2025-09-01,1,,,,,ユナジア,0
2186,9290001111263,新規,0,2025-09-01,2025-09-01,株式会社ＭＹＫＨ,,株式会社,福岡県,福岡市中央区,天神３丁目１６番１９号,,40,133,8100001,,,,,,,2025-09-01,1,,,,,マイカ,0
2188,9290003017293,新規,0,2025-09-01,2025-09-01,Ｔａｋ合同会社,,合同会社,福岡県,福岡市東区,香椎照葉４丁目２－５プライムメゾンセントラルパーク６０７号,,40,131,8130017,,,,,,,2025-09-01,1,,,,,タック,0
2189,9290003017310,新規,0,2025-09-01,2025-09-01,合同会社すたっしゅ,,合同会社,福岡県,福岡市早良区,田村７丁目１３番２０号ロジュマン・倫央Ｃ,,40,137,8140175,,,,,,,2025-09-01,1,,,,,スタッシュ,0
2195,9320001021302,新規,0,2025-09-01,2025-09-01,長田商家株式会社,,株式会社,大分県,別府市,田の湯町１４番２０号メイゾン青山１０５号,,44,202,8740909,,,,,,,2025-09-01,1,,,,,オサダショウカ,0
2206,9380003006122,新規,0,2025-09-01,2025-09-01,合同会社北都不動産,,合同会社,福島県,二本松市,油井字石倉８３番地１１,,07,210,9691404,,,,,,,2025-09-01,1,,,,,ホクトフドウサン,0
2207,9380005013001,新規,0,2025-09-01,2025-09-01,一般社団法人地域共生文化舎,,その他の設立登記法人,福島県,会津若松市,材木町１丁目５番６１号,,07,202,9650853,,,,,,,2025-09-01,1,,,,,チイキキョウセイブンカシャ,0
2209,9410003004147,新規,0,2025-09-01,2025-09-01,アクアルーチェ合同会社,,合同会社,秋田県,秋田市,八橋大沼町５番２７号,,05,201,0100963,,,,,,,2025-09-01,1,,,,,,0
