sequenceNumber,corporateNumber,process,correct,updateDate,changeDate,name,nameImageId,kind,prefectureName,cityName,streetNumber,addressImageId,prefectureCode,cityCode,postCode,addressOutside,addressOutsideImageId,closeDate,closeCause,successorCorporateNumber,changeCause,assignmentDate,latest,enName,enPrefectureName,enCityName,enAddressOutside,furigana,hihyoji
10,1010003041774,新規,0,2023-09-27,2023-09-27,合同会社ＣｙｂｅｒＳｕｒｇｅ,,合同会社,東京都,中央区,銀座１丁目１２－４Ｎ＆ＥＢＬＤ．７階,,13,102,1040061,,,,,,,2023-09-27,1,,,,,サイバーサージ,0
19,1010401177344,新規,0,2023-09-27,2023-09-27,株式会社ｆａｃｅ　ｔｈｅ　ｃｏｓｍｏｓ,,株式会社,東京都,港区,南青山２丁目２番１５号ウィン青山１２１４号,,13,103,1070062,,,,,,,2023-09-27,1,,,,,フェイスザコスモス,0
20,1010401177385,新規,0,2023-09-27,2023-09-27,天盛株式会社,,株式会社,東京都,港区,赤坂２丁目８番１４－４０７号,,13,103,1070052,,,,,,,2023-09-27,1,,,,,テンセイ,0
22,1010501051102,新規,0,2023-09-27,2023-09-27,株式会社グローバル・フード・スタイル,,株式会社,東京都,台東区,元浅草３丁目１８番１０号,,13,106,1110041,,,,,,,2023-09-27,1,,,,,グローバルフードスタイル,0
23,1010501051119,新規,0,2023-09-27,2023-09-27,株式会社ＸＥＮＯＮ,,株式会社,東京都,台東区,上野５丁目４番９号,,13,106,1100005,,,,,,,2023-09-27,1,,,,,キセノン,0
24,1010503007168,新規,0,2023-09-27,2023-09-27,合同会社イッチ,,合同会社,東京都,台東区,根岸１丁目５番１６号ライオンズマンション鶯谷第３－３０６号,,13,106,1100003,,,,,,,2023-09-27,1,,,,,イッチ,0
29,1010701044888,新規,0,2023-09-27,2023-09-27,株式会社ウィルゴー,,株式会社,東京都,品川区,西品川３丁目１６番４５号－２０１号,,13,109,1410033,,,,,,,2023-09-27,1,,,,,ウィルゴー,0
30,1010801034368,新規,0,2023-09-27,2023-09-27,株式会社ハヴァナイスデイ,,株式会社,東京都,大田区,田園調布２丁目５番１号サウンドプルーフ田園調布１０１,,13,111,1450071,,,,,,,2023-09-27,1,,,,,ハヴァナイスデイ,0
31,1010803004699,新規,0,2023-09-27,2023-09-27,合同会社Ｅｎｄｅｌｅａ,,合同会社,東京都,大田区,山王１丁目１２番４号ＶＩＮＧＴＥＴＵＮ２０５,,13,111,1430023,,,,,,,2023-09-27,1,,,,,エンデリー,0
32,1010901053870,新規,0,2023-09-27,2023-09-27,株式会社Ｎｕｄｇｅ,,株式会社,東京都,世田谷区,若林１丁目９番２０号,,13,112,1540023,,,,,,,2023-09-27,1,,,,,ナッジ,0
41,1011001157117,新規,0,2023-09-27,2023-09-27,株式会社ＬｕｄｉｃＣｕｂｅ,,株式会社,東京都,渋谷区,道玄坂１丁目１０番８号渋谷道玄坂東急ビル２Ｆ－Ｃ,,13,113,1500043,,,,,,,2023-09-27,1,,,,,ルーディックキューブ,0
42,1011001157158,新規,0,2023-09-27,2023-09-27,株式会社クリグミ,,株式会社,東京都,渋谷区,神泉町１０番１５号アネックス神泉３０１,,13,113,1500045,,,,,,,2023-09-27,1,,,,,クリグミ,0
43,1011001157166,新規,0,2023-09-27,2023-09-27,株式会社ＨＡＬＬ　ＯＦ　ＦＡＭＥ,,株式会社,東京都,渋谷区,千駄ヶ谷２丁目１０番６号,,13,113,1510051,,,,,,,2023-09-27,1,,,,,ホールオブフェイム,0
52,1011101104472,新規,0,2023-09-27,2023-09-27,株式会社ポケットスタジオ,,株式会社,東京都,新宿区,北新宿３丁目２１番２号ＬＵＺ３２１－１０１号,,13,104,1690074,,,,,,,2023-09-27,1,,,,,ポケットスタジオ,0
53,1011101104497,新規,0,2023-09-27,2023-09-27,賓悦軒株式会社,,株式会社,東京都,新宿区,西新宿８丁目１２番１号サンパレス新宿１２０９号,,13,104,1600023,,,,,,,2023-09-27,1,,,,,ヒンエツケン,0
54,1011101104506,新規,0,2023-09-27,2023-09-27,株式会社ストーリーパークジャパン,,株式会社,東京都,新宿区,大久保１丁目１５番１５号,,13,104,1690072,,,,,,,2023-09-27,1,,,,,ストーリーパークジャパン,0
55,1011103013523,新規,0,2023-09-27,2023-09-27,ＭＫ＆ＭＫアジアンフード合同会社,,合同会社,東京都,新宿区,大久保２丁目２２番２２号１０１,,13,104,1690072,,,,,,,2023-09-27,1,,,,,エムケーアンドエムケーアジアンフード,0
59,1011203004182,新規,0,2023-09-27,2023-09-27,合同会社天羽企画,,合同会社,東京都,中野区,中野５丁目５６番１０号第９８東京ビル３Ｆ,,13,114,1640001,,,,,,,2023-09-27,1,,,,,,0
60,1011205002572,新規,0,2023-09-27,2023-09-27,一般社団法人日本ＷＥＢマーケティング協会,,その他の設立登記法人,東京都,中野区,白鷺２丁目１３番１－１１０号,,13,114,1650035,,,,,,,2023-09-27,1,,,,,,0
63,1011403004123,新規,0,2023-09-27,2023-09-27,鴻逸兄弟合同会社,,合同会社,東京都,板橋区,中台３丁目１９－５－２０２号室,,13,119,1740064,,,,,,,2023-09-27,1,,,,,コウイツキョウダイ,0
67,1011803005852,新規,0,2023-09-27,2023-09-27,合同会社マーシャル,,合同会社,東京都,足立区,古千谷本町１丁目３番１５号共栄第３ハイツ２０２,,13,121,1210832,,,,,,,2023-09-27,1,,,,,マーシャル,0
69,1012403006191,新規,0,2023-09-27,2023-09-27,ＣＯＮＮＥＣＴ合同会社,,合同会社,東京都,三鷹市,下連雀２丁目１５番３号,,13,204,1810013,,,,,,,2023-09-27,1,,,,,コネクト,0
71,1012701017857,新規,0,2023-09-27,2023-09-27,株式会社Ｍｉｃｏ,,株式会社,東京都,東久留米市,本町１丁目１番２６号メゾン東久留米２０７号,,13,222,2030053,,,,,,,2023-09-27,1,,,,,ミコ,0
79,1020001153579,新規,0,2023-09-27,2023-09-27,株式会社スキマ,,株式会社,神奈川県,川崎市宮前区,東有馬１丁目４番地２５ガーデンヒルズ１０３号,,14,136,2160002,,,,,,,2023-09-27,1,,,,,スキマ,0
80,1020001153661,新規,0,2023-09-27,2023-09-27,株式会社Ｋシステム,,株式会社,神奈川県,横浜市緑区,長津田町３２０４番地サングレイス長津田７０３号,,14,113,2260026,,,,,,,2023-09-27,1,,,,,ケイシステム,0
85,1021001080268,新規,0,2023-09-27,2023-09-27,株式会社サクセス,,株式会社,神奈川県,藤沢市,用田２１３５番地の５４,,14,205,2520821,,,,,,,2023-09-27,1,,,,,サクセス,0
87,1030001156003,新規,0,2023-09-27,2023-09-27,ドットワン株式会社,,株式会社,埼玉県,上尾市,柏座２丁目１０番１８号オークビィレッジ１０２,,11,219,3620075,,,,,,,2023-09-27,1,,,,,ドットワン,0
88,1030001156275,新規,0,2023-09-27,2023-09-27,株式会社桜空,,株式会社,埼玉県,新座市,片山３丁目６番１７－７号,,11,230,3520025,,,,,,,2023-09-27,1,,,,,オウゾラ,0
89,1030001156283,新規,0,2023-09-27,2023-09-27,株式会社ネイバー,,株式会社,埼玉県,春日部市,備後西２丁目１１番３９号,,11,214,3440033,,,,,,,2023-09-27,1,,,,,ネイバー,0
93,1030003022616,新規,0,2023-09-27,2023-09-27,合同会社ＭＭＮパートナーズ,,合同会社,埼玉県,鶴ヶ島市,大字藤金８４６番地５,,11,241,3502206,,,,,,,2023-09-27,1,,,,,エムエムエヌパートナーズ,0
94,1030003022640,新規,0,2023-09-27,2023-09-27,ひの合同会社,,合同会社,埼玉県,草加市,旭町６丁目１４番６号,,11,221,3400053,,,,,,,2023-09-27,1,,,,,ヒノ,0
98,1040001130205,新規,0,2023-09-27,2023-09-27,株式会社ＳＡＶＡＲＡＮＩ,,株式会社,千葉県,松戸市,二ツ木１９０１センチュリー馬橋,,12,207,2700027,,,,,,,2023-09-27,1,,,,,サヴァラニ,0
101,1040003023381,新規,0,2023-09-27,2023-09-27,クレアケア合同会社,,合同会社,千葉県,松戸市,小金上総町２０－１８－２０３,,12,207,2700015,,,,,,,2023-09-27,1,,,,,クレアケア,0
102,1040003023423,新規,0,2023-09-27,2023-09-27,合同会社デージー,,合同会社,千葉県,鎌ケ谷市,北初富１番１３－５号,,12,224,2730126,,,,,,,2023-09-27,1,,,,,デージー,0
104,1050001053446,新規,0,2023-09-27,2023-09-27,トラストリンク株式会社,,株式会社,茨城県,つくば市,吾妻１丁目５番７号ダイワロイネットホテルつくばビル２Ｆ,,08,220,3050031,,,,,,,2023-09-27,1,,,,,トラストリンク,0
105,1050001053529,新規,0,2023-09-27,2023-09-27,株式会社ＹＯＵ,,株式会社,茨城県,北茨城市,磯原町磯原２丁目５９番地,,08,215,3191541,,,,,,,2023-09-27,1,,,,,ユウ,0
108,1050003007813,新規,0,2023-09-27,2023-09-27,ＳＳインターナショナル合同会社,,合同会社,茨城県,筑西市,門井１９８５－３コーポひまわりＢ,,08,227,3091107,,,,,,,2023-09-27,1,,,,,エスエスインターナショナル,0
133,1120001258244,新規,0,2023-09-27,2023-09-27,株式会社Ｒｏｏｔ,,株式会社,大阪府,大阪市北区,豊崎３丁目１６番１６－７０４号,,27,127,5310072,,,,,,,2023-09-27,1,,,,,ルート,0
134,1120001258277,新規,0,2023-09-27,2023-09-27,株式会社ＲＵＳ,,株式会社,大阪府,大阪市北区,梅田１丁目２番２号大阪駅前第２ビル１２－１２,,27,127,5300001,,,,,,,2023-09-27,1,,,,,ルース,0
135,1120001258293,新規,0,2023-09-27,2023-09-27,株式会社ＢＩＧ　ＢＥＡＲＳ,,株式会社,大阪府,大阪市阿倍野区,晴明通１４番１５号,,27,119,5450032,,,,,,,2023-09-27,1,,,,,ビッグベアーズ,0
136,1120001258302,新規,0,2023-09-27,2023-09-27,億帆株式会社,,株式会社,大阪府,大阪市東成区,深江北３丁目４番２１号エクラ深江橋５１１Ａ,,27,115,5370001,,,,,,,2023-09-27,1,,,,,オクハン,0
137,1120001258310,新規,0,2023-09-27,2023-09-27,Ｒｏｏｔｉ株式会社,,株式会社,大阪府,交野市,藤が尾６丁目１３－２,,27,230,5760022,,,,,,,2023-09-27,1,,,,,ルートアイ,0
138,1120001258376,新規,0,2023-09-27,2023-09-27,株式会社ＯＮＥ’Ｓ　ＨＯＭＥ,,株式会社,大阪府,大阪市浪速区,日本橋４丁目９番１号,,27,111,5560005,,,,,,,2023-09-27,1,,,,,ワンズホーム,0
147,1120005023883,新規,0,2023-09-27,2023-09-27,一般社団法人パールホワイトニング,,その他の設立登記法人,大阪府,大阪市西区,土佐堀１丁目１番３０号,,27,106,5500001,,,,,,,2023-09-27,1,,,,,パールホワイトニング,0
151,1120101068262,新規,0,2023-09-27,2023-09-27,太陽商事株式会社,,株式会社,大阪府,松原市,北新町６丁目１８番７号,,27,217,5800025,,,,,,,2023-09-27,1,,,,,タイヨウショウジ,0
152,1120103005437,新規,0,2023-09-27,2023-09-27,新日本大阪ボクシングジム合同会社,,合同会社,大阪府,河内長野市,原町６丁目９―１６レジャーセンターＴＥＮ５階,,27,216,5860021,,,,,,,2023-09-27,1,,,,,シンニッポンオオサカボクシングジム,0
153,1120103005461,新規,0,2023-09-27,2023-09-27,合同会社メルシー,,合同会社,大阪府,泉大津市,春日町９番１号ネオメゾン春日町２０３号,,27,206,5950061,,,,,,,2023-09-27,1,,,,,メルシー,0
154,1120105009766,新規,0,2023-09-27,2023-09-27,一般社団法人桂,,その他の設立登記法人,大阪府,堺市西区,鳳西町２丁８２－６,,27,144,5938326,,,,,,,2023-09-27,1,,,,,カツラ,0
163,1130001075259,新規,0,2023-09-27,2023-09-27,株式会社福栄,,株式会社,京都府,京都市上京区,新町通寺之内上る三丁目大心院町１４番地,,26,102,6020000,,,,,,,2023-09-27,1,,,,,フクエイ,0
164,1130001075283,新規,0,2023-09-27,2023-09-27,株式会社シマクリエイティブハウス,,株式会社,京都府,舞鶴市,字倉谷１０３３番地,,26,202,6240906,,,,,,,2023-09-27,1,,,,,シマクリエイティブハウス,0
165,1130001075291,新規,0,2023-09-27,2023-09-27,株式会社うえやま,,株式会社,京都府,京都市伏見区,石田大受町３１番地３５４,,26,109,6011431,,,,,,,2023-09-27,1,,,,,ウエヤマ,0
167,1130003009009,新規,0,2023-09-27,2023-09-27,合同会社太陽,,合同会社,京都府,宇治市,広野町尖山２番地の１２,,26,204,6110031,,,,,,,2023-09-27,1,,,,,タイヨウ,0
180,1180001158117,新規,0,2023-09-27,2023-09-27,株式会社ハインツＨＤ,,株式会社,愛知県,春日井市,鳥居松町２丁目９９番地,,23,206,4860844,,,,,,,2023-09-27,1,,,,,ハインツエイチディ,0
181,1180001158182,新規,0,2023-09-27,2023-09-27,株式会社ニチイ,,株式会社,愛知県,小牧市,大字岩崎１３４５番地４７,,23,219,4850011,,,,,,,2023-09-27,1,,,,,ニチイ,0
185,1180301037846,新規,0,2023-09-27,2023-09-27,株式会社ネクサスライフ,,株式会社,愛知県,額田郡幸田町,大字野場字西脇２５番地,,23,501,4440128,,,,,,,2023-09-27,1,,,,,ネクサスライフ,0
195,1230001020031,新規,0,2023-09-27,2023-09-27,株式会社悠,,株式会社,富山県,富山市,婦中町西ヶ丘１番地２３４,,16,201,9392719,,,,,,,2023-09-27,1,,,,,ユウ,0
197,1240001062171,新規,0,2023-09-27,2023-09-27,株式会社ふいるむ屋,,株式会社,広島県,広島市佐伯区,五日市中央４丁目１６番７－３０４号,,34,108,7315128,,,,,,,2023-09-27,1,,,,,フイルムヤ,0
204,1290001103152,新規,0,2023-09-27,2023-09-27,株式会社クロス,,株式会社,福岡県,福岡市博多区,博多駅前１丁目２３番２号ＰａｒｋＦｒｏｎｔ博多駅前一丁目５Ｆ－Ｂ,,40,132,8120011,,,,,,,2023-09-27,1,,,,,クロス,0
206,1290801029893,新規,0,2023-09-27,2023-09-27,ＹＫソリューション株式会社,,株式会社,福岡県,北九州市小倉北区,浅野２丁目９番８号,,40,106,8020001,,,,,,,2023-09-27,1,,,,,ワイケーソリューション,0
208,1290803004507,新規,0,2023-09-27,2023-09-27,ライフ・エンジニア合同会社,,合同会社,福岡県,北九州市小倉南区,朽網西２丁目２９番３１号,,40,107,8000233,,,,,,,2023-09-27,1,,,,,ライフエンジニア,0
211,1320001020022,新規,0,2023-09-27,2023-09-27,株式会社ワン・ポリシー,,株式会社,大分県,大分市,新町８番１０―１００６号,,44,201,8700028,,,,,,,2023-09-27,1,,,,,ワンポリシー,0
212,1330001031282,新規,0,2023-09-27,2023-09-27,熊本システムメンテナンス株式会社,,株式会社,熊本県,上益城郡甲佐町,大字府領２１８２番地４２,,43,444,8614615,,,,,,,2023-09-27,1,,,,,クマモトシステムメンテナンス,0
215,1350001018583,新規,0,2023-09-27,2023-09-27,株式会社ウィズダム,,株式会社,宮崎県,都城市,南横市町３９０８番地８,,45,202,8850092,,,,,,,2023-09-27,1,,,,,ウィズダム,0
223,1370001050452,新規,0,2023-09-27,2023-09-27,株式会社仙進,,株式会社,宮城県,仙台市青葉区,台原６丁目５番１ー１０１,,04,101,9810911,,,,,,,2023-09-27,1,,,,,センシン,0
239,1430001090046,新規,0,2023-09-27,2023-09-27,新栄冷暖株式会社,,株式会社,北海道,札幌市清田区,真栄四条４丁目１１番１４号,,01,110,0040834,,,,,,,2023-09-27,1,,,,,シンエイレイダン,0
240,1430001090062,新規,0,2023-09-27,2023-09-27,株式会社シロクロ,,株式会社,北海道,札幌市中央区,北八条西１６丁目１番地１クリーンリバー桑園４０４号,,01,101,0600008,,,,,,,2023-09-27,1,,,,,シロクロ,0
243,1430003015471,新規,0,2023-09-27,2023-09-27,合同会社アルチワークス,,合同会社,北海道,札幌市豊平区,美園十条４丁目１番２６－２０１号,,01,105,0620010,,,,,,,2023-09-27,1,,,,,アルチワークス,0
245,1460003000966,新規,0,2023-09-27,2023-09-27,合同会社ライト,,合同会社,北海道,釧路市,材木町８番７号,,01,206,0850815,,,,,,,2023-09-27,1,,,,,ライト,0
247,1480001012227,新規,0,2023-09-27,2023-09-27,ＯＴＯ電気設備株式会社,,株式会社,徳島県,徳島市,名東町３丁目４４番地の１,,36,201,7700047,,,,,,,2023-09-27,1,,,,,オーティーオーデンキセツビ,0
251,1700150118256,新規,0,2023-09-27,2023-09-27,ＺＨＥＪＩＡＮＧ　ＲＥＬＥＣＹ　ＩＮＴＥＲＮＡＴＩＯＮＡＬ　ＣＯ．，ＬＴＤ,,外国会社等,,,,,,,,ｓｈａｎｇ　ｃｈｅｎｇ　ｑｕ　ｓｉ　ｊｉ　ｑｉｎｇ　ｊｉｅ　ｄａｏ　ｌａｉ　ｆｕ　ｓｈｉ　ｚｈｏｎｇ　ｘｉｎ　１ｚｈｕａｎｇ　１００５Ｂｚｈｅ　ｊｉａｎｇ　ｒｕｉ　ｌｅ　ｘｉ　ｍａｏ　ｙｉ　ｙｏｕ　ｘｉａｎ　ｇｏｎｇ　ｓｉ　ｈａｎｇ　ｚｈｏｕ　ｓｈｉ　ｚｈｅ　ｊｉａｎｇ　ｓｈｅｎｇ,,,,,,2023-09-27,1,,,,,ゼジャンリレシーインターナショナルカンパニーリミテッド,0
252,1700150120757,新規,0,2023-09-27,2023-09-27,Ｚｉｂｏ　Ｚｉｙａ　Ｔｒａｄｉｎｇ　Ｃｏ．，Ｌｔｄ．,,外国会社等,,,,,,,,ＳｈａｎＤｏｎｇＳｈｅｎｇ　ＺｉＢｏＳｈｉ　ＺｈａｎｇＤｉａｎＱｕ　ＬｉｕＱｕａｎＬｕ　７１Ｈａｏ　ＳｈａｎｇＣｈｅｎｇＤａＳｈａ　５４７Ｓｈｉ,,,,,,2023-09-27,1,,,,,ズーボーズーヤーシャンマオヨウシエンゴンスー,0
253,1700150120765,新規,0,2023-09-27,2023-09-27,ＤＡＮＤＥＬＩＯＮ　ＩＮＴＥＲＮＡＴＩＯＮＡＬ　ＩＮＣ．,,外国会社等,,,,,,,,１７８７０　ＣＡＳＴＬＥＴＯＮ　ＳＴ　ＳＴＥ　２２５，ＣＩＴＹ　ＯＦ　ＩＮＤＵＳＴＲＹ，ＣＡ　９１７４８,,,,,,2023-09-27,1,,,,,ダンディライオンインターナショナルインク,0
254,1700150120773,新規,0,2023-09-27,2023-09-27,ＷＩＬＬＩＡＭ　Ｄ．ＷＯＯＤ　Ｐ．Ｃ．,,外国会社等,,,,,,,,２　Ｈｏｕｓｔｏｎ　Ｃｅｎｔｅｒ，９０９　Ｆａｎｎｉｎ，Ｓｕｉｔｅ　２０００，Ｈｏｕｓｔｏｎ，ＴＸ　７７０１０―１０２８　ＵＳＡ,,,,,,2023-09-27,1,,,,,ウイリアムデイーウツドピーシー,0
264,2010001238735,新規,0,2023-09-27,2023-09-27,ＧｉｍｍｉｃｋＦａｃｔｏｒｙ株式会社,,株式会社,東京都,千代田区,九段南１丁目５番６号りそな九段ビル５ＦＫＳフロア,,13,101,1020074,,,,,,,2023-09-27,1,,,,,ギミックファクトリー,0
275,2010401177327,新規,0,2023-09-27,2023-09-27,株式会社Ｏ‐Ｓ．ＴＲＡＤＩＮＧ　ＣＯＭＰＡＮＹ,,株式会社,東京都,港区,芝３丁目６番１０号,,13,103,1050014,,,,,,,2023-09-27,1,,,,,オーエストレーディングカンパニー,0
276,2010401177384,新規,0,2023-09-27,2023-09-27,マイギ株式会社,,株式会社,東京都,港区,赤坂２丁目８番１４－４０７号,,13,103,1070052,,,,,,,2023-09-27,1,,,,,マイギ,0
282,2010601063855,新規,0,2023-09-27,2023-09-27,株式会社あめとゆき,,株式会社,東京都,墨田区,八広６丁目１番１－１１０４号,,13,107,1310041,,,,,,,2023-09-27,1,,,,,アメトユキ,0
300,2011001157066,新規,0,2023-09-27,2023-09-27,株式会社ＲＩＫＹＵ,,株式会社,東京都,渋谷区,道玄坂１丁目１０番８号渋谷道玄坂東急ビル２Ｆ－Ｃ,,13,113,1500043,,,,,,,2023-09-27,1,,,,,リキュウ,0
303,2011101104496,新規,0,2023-09-27,2023-09-27,ＫＡＩＳＨＩＮ株式会社,,株式会社,東京都,新宿区,大久保３丁目８番１－２０１４号,,13,104,1690072,,,,,,,2023-09-27,1,,,,,カイシン,0
304,2011101104505,新規,0,2023-09-27,2023-09-27,ＥｖｅｒＨＤ株式会社,,株式会社,東京都,新宿区,新宿２丁目１２番１３号新宿アントレサロンビル２Ｆ,,13,104,1600022,,,,,,,2023-09-27,1,,,,,エバーホールディングス,0
308,2011401025483,新規,0,2023-09-27,2023-09-27,株式会社リバティワン,,株式会社,東京都,板橋区,蓮沼町７９－１１,,13,119,1740052,,,,,,,2023-09-27,1,,,,,リバティワン,0
314,2011601027148,新規,0,2023-09-27,2023-09-27,株式会社ビージム,,株式会社,東京都,練馬区,南大泉５丁目３１番４０号,,13,120,1780064,,,,,,,2023-09-27,1,,,,,ビージム,0
318,2011803005843,新規,0,2023-09-27,2023-09-27,フロントライン合同会社,,合同会社,東京都,足立区,西綾瀬４丁目３番２６号リブ綾瀬１０４号,,13,121,1200014,,,,,,,2023-09-27,1,,,,,フロントライン,0
326,2013301051394,新規,0,2023-09-27,2023-09-27,株式会社Ｄ＆Ｗパートナーズ,,株式会社,東京都,豊島区,東池袋３丁目１１番７号,,13,116,1700013,,,,,,,2023-09-27,1,,,,,ディーアンドダブリューパートナーズ,0
332,2020001153578,新規,0,2023-09-27,2023-09-27,株式会社ニュートリップ,,株式会社,神奈川県,横浜市南区,真金町１丁目１１番地３ジュネス伊勢佐木３０３号,,14,105,2320021,,,,,,,2023-09-27,1,,,,,ニュートリップ,0
333,2020001153644,新規,0,2023-09-27,2023-09-27,株式会社Ｔ．Ｈ　Ｓａｆａｒｉ　Ｅｓｔａｔｅ,,株式会社,神奈川県,横浜市港北区,鳥山町５２９－１２加瀬ビル９８・３階,,14,109,2220035,,,,,,,2023-09-27,1,,,,,ティーエイチサファリエステート,0
334,2020001153652,新規,0,2023-09-27,2023-09-27,株式会社ＳＲＨ,,株式会社,神奈川県,川崎市麻生区,百合丘３丁目２４番地４１,,14,137,2150011,,,,,,,2023-09-27,1,,,,,エスアールエイチ,0
337,2020003024661,新規,0,2023-09-27,2023-09-27,合同会社ｓｕｎ　ａｎｄ　ｆａｖｏｒ,,合同会社,神奈川県,横浜市中区,新山下３丁目１５－８－４０２,,14,104,2310801,,,,,,,2023-09-27,1,,,,,サンアンドフェイバー,0
350,2030001155887,新規,0,2023-09-27,2023-09-27,株式会社優輝建設,,株式会社,埼玉県,八潮市,大字大曽根２３０番地１モリタハイツ１０２,,11,234,3400834,,,,,,,2023-09-27,1,,,,,ユウキケンセツ,0
351,2030001155994,新規,0,2023-09-27,2023-09-27,ＣＲＡＦＴＣＯＤＥ株式会社,,株式会社,埼玉県,坂戸市,山田町１０番３２号,,11,239,3500224,,,,,,,2023-09-27,1,,,,,クラフトコード,0
352,2030001156076,新規,0,2023-09-27,2023-09-27,レブラス株式会社,,株式会社,埼玉県,越谷市,大字下間久里７０８番地１グリーンハイムフクダ１０２,,11,222,3430045,,,,,,,2023-09-27,1,,,,,レブラス,0
353,2030001156225,新規,0,2023-09-27,2023-09-27,株式会社ｑｂ,,株式会社,埼玉県,川口市,前川２丁目４４番７号,,11,203,3330842,,,,,,,2023-09-27,1,,,,,キュービー,0
354,2030001156282,新規,0,2023-09-27,2023-09-27,株式会社マイアート,,株式会社,埼玉県,川越市,豊田本３丁目１８番地３,,11,201,3501118,,,,,,,2023-09-27,1,,,,,マイアート,0
355,2030001156290,新規,0,2023-09-27,2023-09-27,株式会社リアン・フォー,,株式会社,埼玉県,さいたま市浦和区,東仲町１１番１８号,,11,107,3300056,,,,,,,2023-09-27,1,,,,,リアンフォー,0
356,2030001156299,新規,0,2023-09-27,2023-09-27,株式会社アメリ,,株式会社,埼玉県,さいたま市岩槻区,宮町２丁目３番７号,,11,110,3390065,,,,,,,2023-09-27,1,,,,,アメリ,0
357,2030003022532,新規,0,2023-09-27,2023-09-27,シルフ・デザインスタジオ合同会社,,合同会社,埼玉県,新座市,野火止４丁目１６－３,,11,230,3520011,,,,,,,2023-09-27,1,,,,,シルフデザインスタジオ,0
363,2040001130204,新規,0,2023-09-27,2023-09-27,株式会社ＴＨＲＥＥＳＩＸ９,,株式会社,千葉県,野田市,三ツ堀字稲荷前９９１－１,,12,208,2780011,,,,,,,2023-09-27,1,,,,,スリーシックスナイン,0
364,2040001130261,新規,0,2023-09-27,2023-09-27,株式会社まるひ,,株式会社,千葉県,君津市,大山野４９７番地,,12,225,2991123,,,,,,,2023-09-27,1,,,,,マルヒ,0
369,2050001053528,新規,0,2023-09-27,2023-09-27,株式会社ビオトポス建築計画,,株式会社,茨城県,守谷市,松ケ丘３丁目１番地１０,,08,224,3020127,,,,,,,2023-09-27,1,,,,,ビオトポスケンチクケイカク,0
378,2070001040895,新規,0,2023-09-27,2023-09-27,ジャパンストロベリー株式会社,,株式会社,群馬県,高崎市,栄町３－１１,,10,202,3700841,,,,,,,2023-09-27,1,,,,,ジャパンストロベリー,0
379,2070001040904,新規,0,2023-09-27,2023-09-27,株式会社一上,,株式会社,群馬県,伊勢崎市,堤下町４０番地２,,10,204,3720004,,,,,,,2023-09-27,1,,,,,イチノカミ,0
383,2100003007195,新規,0,2023-09-27,2023-09-27,合同会社イリス,,合同会社,長野県,上田市,天神３丁目２３番１３号,,20,203,3860025,,,,,,,2023-09-27,1,,,,,イリス,0
394,2120001258202,新規,0,2023-09-27,2023-09-27,ＣＲＡＷＦＩＳＨ　ＢＲＥＷＩＮＧ株式会社,,株式会社,大阪府,大阪市西区,南堀江２丁目１２番２９号,,27,106,5500015,,,,,,,2023-09-27,1,,,,,クロウフィッシュブリューイング,0
395,2120001258251,新規,0,2023-09-27,2023-09-27,株式会社カークハム,,株式会社,大阪府,大阪市中央区,松屋町９番２０号ローレルステート松屋町９０２Ｂ,,27,128,5420067,,,,,,,2023-09-27,1,,,,,カークハム,0
396,2120001258292,新規,0,2023-09-27,2023-09-27,株式会社ＹＭＦ,,株式会社,大阪府,大阪市東淀川区,東中島１丁目２０番１９－２０１号,,27,114,5330033,,,,,,,2023-09-27,1,,,,,ワイエムエフ,0
397,2120001258301,新規,0,2023-09-27,2023-09-27,欣達株式会社,,株式会社,大阪府,大阪市大正区,三軒家西３丁目４番１６号中山ビル１００８,,27,108,5510001,,,,,,,2023-09-27,1,,,,,キンタツ,0
398,2120001258334,新規,0,2023-09-27,2023-09-27,株式会社ＮＡＮＡ,,株式会社,大阪府,大阪市淀川区,西宮原１丁目４番２５号,,27,123,5320004,,,,,,,2023-09-27,1,,,,,ナナ,0
399,2120001258350,新規,0,2023-09-27,2023-09-27,株式会社ｙｕＥＮ,,株式会社,大阪府,大阪市東成区,深江南２丁目２０番１１－６０２号,,27,115,5370002,,,,,,,2023-09-27,1,,,,,ユエン,0
400,2120001258359,新規,0,2023-09-27,2023-09-27,株式会社ｐｕｒｅ,,株式会社,大阪府,守口市,東町２丁目３番１０号,,27,209,5700013,,,,,,,2023-09-27,1,,,,,ピュア,0
401,2120001258375,新規,0,2023-09-27,2023-09-27,永利株式会社,,株式会社,大阪府,大阪市生野区,中川２丁目１６番１６号,,27,116,5440005,,,,,,,2023-09-27,1,,,,,エイリ,0
408,2120003024957,新規,0,2023-09-27,2023-09-27,合同会社Ｐｌｕｓ１Ｍａｎａｇｅｍｅｎｔ,,合同会社,大阪府,大阪市中央区,農人橋１丁目４番３１号ＡＸＩＳ谷町ビル３Ｄ,,27,128,5400011,,,,,,,2023-09-27,1,,,,,プラスワンマネジメント,0
409,2120005023899,新規,0,2023-09-27,2023-09-27,税理士法人見浪白木会計事務所,,その他の設立登記法人,大阪府,大阪市都島区,東野田町１丁目２１番１４号,,27,102,5340024,,,,,,,2023-09-27,1,,,,,ミナミシラキカイケイジムショ,0
412,2120901048099,新規,0,2023-09-27,2023-09-27,ＣＡＲ　ＲＥＸ株式会社,,株式会社,大阪府,吹田市,千里山西２丁目１番４０－６１１号,,27,205,5650851,,,,,,,2023-09-27,1,,,,,カーレックス,0
414,2122001037404,新規,0,2023-09-27,2023-09-27,株式会社ＥＥＣ,,株式会社,大阪府,大東市,御領１丁目３－４,,27,218,5740064,,,,,,,2023-09-27,1,,,,,イーイーシー,0
416,2130001075290,新規,0,2023-09-27,2023-09-27,ＴＧ　Ｇｒｏｕｐ株式会社,,株式会社,京都府,京都市北区,上賀茂北山２０８番２６,,26,101,6030000,,,,,,,2023-09-27,1,,,,,ティージーグループ,0
417,2130001075299,新規,0,2023-09-27,2023-09-27,株式会社ＭＹＳ,,株式会社,京都府,京都市南区,久世上久世町３６０番地（７０２号室）,,26,107,6018212,,,,,,,2023-09-27,1,,,,,エムワイエス,0
418,2130003009008,新規,0,2023-09-27,2023-09-27,Ｅｌｉｔｅ　Ｃａｒｅ合同会社,,合同会社,京都府,京都市下京区,不明門通七条上る粉川町２３７番地２－４Ｆ,,26,106,6008149,,,,,,,2023-09-27,1,,,,,エリートケア,0
423,2140001131729,新規,0,2023-09-27,2023-09-27,株式会社スーパー赤だるま,,株式会社,兵庫県,神戸市中央区,栄町通２丁目１０番１０号６階,,28,110,6500023,,,,,,,2023-09-27,1,,,,,スーパーアカダルマ,0
430,2150005009508,新規,0,2023-09-27,2023-09-27,一般社団法人Ｎｏｎｎａ　Ｎｏｎｎａ,,その他の設立登記法人,奈良県,天理市,福住町３８６０番地,,29,204,6320122,,,,,,,2023-09-27,1,,,,,ノンナノンナ,0
434,2180001158207,新規,0,2023-09-27,2023-09-27,株式会社ｂｌｕｅｊｅｔ,,株式会社,愛知県,名古屋市中区,丸の内２丁目９番４０号,,23,106,4600002,,,,,,,2023-09-27,1,,,,,ブルージェット,0
436,2180301037845,新規,0,2023-09-27,2023-09-27,株式会社Ｆｉｌａｒｅ,,株式会社,愛知県,豊川市,光明町２丁目３４番地の４,,23,207,4420884,,,,,,,2023-09-27,1,,,,,フィラーレ,0
438,2180303005841,新規,0,2023-09-27,2023-09-27,合同会社なかや会計,,合同会社,愛知県,田原市,東赤石４丁目１０番地,,23,231,4413416,,,,,,,2023-09-27,1,,,,,ナカヤカイケイ,0
450,2230003002084,新規,0,2023-09-27,2023-09-27,合同会社畑山工業,,合同会社,富山県,高岡市,伏木一宮１丁目１番２２号,,16,202,9330116,,,,,,,2023-09-27,1,,,,,ハタヤマコウギョウ,0
466,2290001103143,新規,0,2023-09-27,2023-09-27,宇華環境株式会社,,株式会社,福岡県,福岡市中央区,今川１丁目２番１２－１０１号室,,40,133,8100054,,,,,,,2023-09-27,1,,,,,ウカカンキョウ,0
467,2290001103151,新規,0,2023-09-27,2023-09-27,株式会社Ｒｅｐｏｓ,,株式会社,福岡県,飯塚市,鯰田２２７７番地８,,40,205,8200001,,,,,,,2023-09-27,1,,,,,ルポ,0
468,2290003014405,新規,0,2023-09-27,2023-09-27,ＭＡＪ合同会社,,合同会社,福岡県,福岡市西区,福重４丁目１８番１－５０５号ラピス姪浜,,40,135,8190022,,,,,,,2023-09-27,1,,,,,エムエージェー,0
474,2300001013480,新規,0,2023-09-27,2023-09-27,株式会社ＳＡＧＡ　ＢＵＺＺ,,株式会社,佐賀県,佐賀市,天神２丁目２番４１号（３階）,,41,201,8400815,,,,,,,2023-09-27,1,,,,,サガバズ,0
479,2320001020021,新規,0,2023-09-27,2023-09-27,Ｒｅｎｏ　Ｈｏｍｅ株式会社,,株式会社,大分県,大分市,大手町２丁目３番２３号,,44,201,8700022,,,,,,,2023-09-27,1,,,,,リノホーム,0
481,2330003009994,新規,0,2023-09-27,2023-09-27,トラクション合同会社,,合同会社,熊本県,熊本市中央区,水前寺３丁目１－５シティライフ水前寺駅前南５０２,,43,101,8620950,,,,,,,2023-09-27,1,,,,,トラクション,0
483,2350001018582,新規,0,2023-09-27,2023-09-27,株式会社バイオス,,株式会社,宮崎県,都城市,都島町３５９３番地１,,45,202,8850083,,,,,,,2023-09-27,1,,,,,バイオス,0
485,2360001032590,新規,0,2023-09-27,2023-09-27,株式会社ファインライフ,,株式会社,沖縄県,宮古島市,城辺字新城９１３番地,,47,214,9060102,,,,,,,2023-09-27,1,,,,,ファインライフ,0
487,2360003013218,新規,0,2023-09-27,2023-09-27,合同会社Ｍｏｒｒｙ,,合同会社,沖縄県,糸満市,字大里２０８５番地３,,47,210,9010325,,,,,,,2023-09-27,1,,,,,モリー,0
493,2370001050451,新規,0,2023-09-27,2023-09-27,東北あぷらす株式会社,,株式会社,宮城県,仙台市青葉区,中央４丁目８番１７号小林ビル１Ｆ,,04,101,9800021,,,,,,,2023-09-27,1,,,,,トウホクアプラス,0
495,2370003006303,新規,0,2023-09-27,2023-09-27,合同会社ライフライズ,,合同会社,宮城県,名取市,美田園７丁目８－５,,04,207,9811217,,,,,,,2023-09-27,1,,,,,ライフライズ,0
501,2420001018419,新規,0,2023-09-27,2023-09-27,株式会社Ｍ’ｓ　ｃｏｍｐａｎｙ,,株式会社,青森県,青森市,桂木３丁目２６番地２－１０６号,,02,201,0300844,,,,,,,2023-09-27,1,,,,,エムズカンパニー,0
507,2430001090045,新規,0,2023-09-27,2023-09-27,株式会社未来工房,,株式会社,北海道,札幌市白石区,菊水元町八条３丁目２番２号,,01,104,0030828,,,,,,,2023-09-27,1,,,,,ミライコウボウ,0
509,2460001005834,新規,0,2023-09-27,2023-09-27,株式会社アミカル,,株式会社,北海道,釧路市,鳥取北３丁目９番１５号,,01,206,0840907,,,,,,,2023-09-27,1,,,,,アミカル,0
510,2460103001558,新規,0,2023-09-27,2023-09-27,合同会社エアリー,,合同会社,北海道,上川郡清水町,南八条１０丁目１６番地,,01,636,0890116,,,,,,,2023-09-27,1,,,,,エアリー,0
525,2700150117703,新規,0,2023-09-27,2023-09-27,Ｆａｉｒ　Ｄｅａｌ　Ｅｎｔｅｒｐｒｉｓｅ　Ｃｏ．，ＰＴＥ．ＬＴＤ．,,外国会社等,,,,,,,,５００８　ＡＮＧ　ＭＯ　ＫＩＯ　ＡＶＥＮＵＥ　５　＃０６－０６　ＴＥＣＨＰＬＡＣＥ　ＩＩ　ＳＩＮＧＡＰＯＲＥ　ＳＩＮＧＡＰＯＲＥ　５６９８７４　ＳＧ,00131969,,,,,2023-09-27,1,,,,,フエアデイールエンタープライズカンパニープライベートリミテツド,0
526,2700150120756,新規,0,2023-09-27,2023-09-27,ＸｉｎＸｉａｎｇＳｈｉＳｉＺａｏＳａＳｈａｎｇＭａｏＹｏｕＸｉａｎＧｏｎｇＳｉ,,外国会社等,,,,,,,,ＷｅｉＢｉｎＱｕ　ＨｕａＧｏｎｇＬｕ　ＪｉｅＦａｎｇＬｕ　ＨｕａＦｅｉＣｈａｎｇ　ＤｏｎｇＬｉｎＸｉａｎｇＮａｎ　５００ＭｉＬｕＮａ　Ｄｉ４Ｊｉａｎ　ＭｅｎＭｉａｎＦａｎｇ，ＸｉｎＸｉａｎｇ，ＨｅＮａｎ　４５３０００　ＣＮ,,,,,,2023-09-27,1,,,,,シンシャンシースーザオサーシャンマオヨウシエンゴンスー,0
527,2700150120764,新規,0,2023-09-27,2023-09-27,Ｓｈｅｎｙａｎｇ　Ｙａｌｅ　Ｔｒａｄｉｎｇ　Ｃｏ．，Ｌｔｄ,,外国会社等,,,,,,,,Ｇｕａｎｇｄａｄａｓｈａ　１８０５，ｂｅｉｚｈａｎＲＯＡＤ７７－１，ＳｈｅｎｈｅＤｉｓｔｒｉｃｔ，ｓｈｅｎｙａｎｇＣｉｔｙ,,,,,,2023-09-27,1,,,,,シェンヤンヤーラーシャンウーズーシンヨウシエンゴンスー,0
528,2700150120772,新規,0,2023-09-27,2023-09-27,ＳＵＺＵＫＩ　ＤＩＧＩＴＡＬ　ＰＲＩＶＡＴＥ　ＬＩＭＩＴＥＤ,,外国会社等,,,,,,,,１，Ｎｅｌｓｏｎ　Ｍａｎｄｅｌａ　Ｍａｒｇ，Ｎｅｗ　Ｄｅｌｈｉ，Ｉｎｄｉａ,,,,,,2023-09-27,1,,,,,スズキデジタルプライベートリミテツド,0
529,2700150120780,新規,0,2023-09-27,2023-09-27,認可地縁団体　東浦賀和光台自治会,,その他,神奈川県,横須賀市,東浦賀２丁目３１－２,,14,201,2390821,,,,,,,2023-09-27,1,,,,,ニンカチエンダンタイヒガシウラガワコウダイジチカイ,0
542,3010001238742,新規,0,2023-09-27,2023-09-27,株式会社Ｍ＆Ａ　Ｐｒｏｆｅｓｓｉｏｎａｌ,,株式会社,東京都,千代田区,大手町１丁目５番１号,,13,101,1000004,,,,,,,2023-09-27,1,,,,,エムアンドエープロフェッショナル,0
546,3010005037315,新規,0,2023-09-27,2023-09-27,一般社団法人東京リライフ,,その他の設立登記法人,東京都,中央区,銀座８丁目１７番５号ＴＨＥＨＵＢ銀座ＯＣＴ１階,,13,102,1040061,,,,,,,2023-09-27,1,,,,,トウキョウリライフ,0
554,3010403030994,新規,0,2023-09-27,2023-09-27,Ｂｒａｎｄｖｉｌｌｅ合同会社,,合同会社,東京都,港区,赤坂２丁目１４番５号Ｄａｉｗａ赤坂ビル４階,,13,103,1070052,,,,,,,2023-09-27,1,,,,,ブランドビル,0
555,3010403031019,新規,0,2023-09-27,2023-09-27,合同会社アカラ経営総合研究所,,合同会社,東京都,港区,南青山２丁目２番１５号,,13,103,1070062,,,,,,,2023-09-27,1,,,,,アカラケイエイソウゴウケンキュウジョ,0
558,3010501051100,新規,0,2023-09-27,2023-09-27,株式会社ＡＤＶＥＮＴＵＲＥ　ＫＩＮＧ,,株式会社,東京都,台東区,東上野４丁目８番１号ＴＩＸＴＯＷＥＲＵＥＮＯ８Ｆ,,13,106,1100015,,,,,,,2023-09-27,1,,,,,アドベンチャーキング,0
566,3010701044894,新規,0,2023-09-27,2023-09-27,Ｃｈａｎｇｅ　Ｇｒｏｕｐ株式会社,,株式会社,東京都,品川区,西五反田２丁目１９番１２号,,13,109,1410031,,,,,,,2023-09-27,1,,,,,チェンジグループ,0
569,3010703006884,新規,0,2023-09-27,2023-09-27,合同会社ワイズ,,合同会社,東京都,品川区,南品川２丁目４番７号アサミビル１２階,,13,109,1400004,,,,,,,2023-09-27,1,,,,,ワイズ,0
586,3010903008458,新規,0,2023-09-27,2023-09-27,合同会社Ｌｉｖｉｎｇ　Ｇｒｏｏｖｅ,,合同会社,東京都,世田谷区,喜多見９丁目１２－１５,,13,112,1570067,,,,,,,2023-09-27,1,,,,,,0
592,3011001157073,新規,0,2023-09-27,2023-09-27,株式会社Ｐｒｏｄｕｃｔｉｏｎ　Ｇｏｇｅｕｍ,,株式会社,東京都,渋谷区,南平台町１６番２８号,,13,113,1500036,,,,,,,2023-09-27,1,,,,,プロダクションゴグム,0
593,3011001157197,新規,0,2023-09-27,2023-09-27,ＦＡＳＴ株式会社,,株式会社,東京都,渋谷区,恵比寿南１丁目９番４号,,13,113,1500022,,,,,,,2023-09-27,1,,,,,ファスト,0
595,3011003017548,新規,0,2023-09-27,2023-09-27,Ｗ４Ｊ合同会社,,合同会社,東京都,渋谷区,道玄坂１丁目１０番８号渋谷道玄坂東急ビル２Ｆ―Ｃ,,13,113,1500043,,,,,,,2023-09-27,1,,,,,ダブリューフォージェイ,0
596,3011003017597,新規,0,2023-09-27,2023-09-27,合同会社１８００,,合同会社,東京都,目黒区,大橋１丁目１番８号－２階,,13,110,1530044,,,,,,,2023-09-27,1,,,,,センハッピャク,0
597,3011003017622,新規,0,2023-09-27,2023-09-27,合同会社テストオウル,,合同会社,東京都,渋谷区,道玄坂１丁目１０番８号渋谷道玄坂東急ビル２Ｆ－Ｃ,,13,113,1500043,,,,,,,2023-09-27,1,,,,,テストオウル,0
603,3011101104487,新規,0,2023-09-27,2023-09-27,ＦＳホールディングス株式会社,,株式会社,東京都,新宿区,西新宿３丁目２番４号ＪＲＥ西新宿テラス６Ｆ,,13,104,1600023,,,,,,,2023-09-27,1,,,,,エフエスホールディングス,0
604,3011101104504,新規,0,2023-09-27,2023-09-27,株式会社オフィス・アンディ,,株式会社,東京都,新宿区,荒木町２２番地５０－１４０３号,,13,104,1600007,,,,,,,2023-09-27,1,,,,,オフィスアンディ,0
605,3011101104512,新規,0,2023-09-27,2023-09-27,株式会社Ｌｅｔ’ｓＢＪＪ,,株式会社,東京都,新宿区,西新宿３丁目３番１３号西新宿水間ビル２Ｆ,,13,104,1600023,,,,,,,2023-09-27,1,,,,,レッツビージェージェー,0
606,3011103013513,新規,0,2023-09-27,2023-09-27,Ｐ．Ａ．Ｓ合同会社,,合同会社,東京都,新宿区,西新宿３丁目３番１３号西新宿水間ビル６階,,13,104,1600023,,,,,,,2023-09-27,1,,,,,ピーエーエス,0
607,3011103013521,新規,0,2023-09-27,2023-09-27,合同会社中小企業事業支援,,合同会社,東京都,新宿区,払方町９－９ＡＲＫＨＯＵＳＥ市ヶ谷払方町２０１,,13,104,1620841,,,,,,,2023-09-27,1,,,,,チュウショウキギョウジギョウシエン,0
615,3011601027147,新規,0,2023-09-27,2023-09-27,株式会社デラゴナ,,株式会社,東京都,練馬区,下石神井４丁目１２番３３号,,13,120,1770042,,,,,,,2023-09-27,1,,,,,デラゴナ,0
617,3011803005850,新規,0,2023-09-27,2023-09-27,合同会社イチオシ,,合同会社,東京都,葛飾区,亀有３丁目４９番１－２０６号,,13,122,1250061,,,,,,,2023-09-27,1,,,,,イチオシ,0
618,3012303001877,新規,0,2023-09-27,2023-09-27,合同会社和田商事,,合同会社,東京都,町田市,成瀬６丁目１６番１５号,,13,209,1940044,,,,,,,2023-09-27,1,,,,,ワダショウジ,0
620,3012401041032,新規,0,2023-09-27,2023-09-27,株式会社ＴＡＣＫＴ,,株式会社,東京都,三鷹市,井口１丁目１７番３０号,,13,204,1810011,,,,,,,2023-09-27,1,,,,,タクト,0
624,3013103001266,新規,0,2023-09-27,2023-09-27,合同会社わいわい,,合同会社,東京都,あきる野市,留原８４５番地１,,13,228,1900152,,,,,,,2023-09-27,1,,,,,ワイワイ,0
625,3013301051393,新規,0,2023-09-27,2023-09-27,株式会社Ｄ＆Ｄパートナーズ,,株式会社,東京都,豊島区,東池袋３丁目１１番７号,,13,116,1700013,,,,,,,2023-09-27,1,,,,,ディーアンドディーパートナーズ,0
639,3021003013604,新規,0,2023-09-27,2023-09-27,合同会社ラックメン,,合同会社,神奈川県,大和市,中央林間西６丁目９番５号中央林間レジデンスハウスウエスト４０５号,,14,213,2420008,,,,,,,2023-09-27,1,,,,,ラックメン,0
643,3030001156182,新規,0,2023-09-27,2023-09-27,株式会社布袋,,株式会社,埼玉県,川口市,幸町３丁目８番４６ー８０５号コスモ川口幸町,,11,203,3320016,,,,,,,2023-09-27,1,,,,,ホテイ,0
644,3030001156257,新規,0,2023-09-27,2023-09-27,株式会社Ｂ．Ｎ．１,,株式会社,埼玉県,三郷市,早稲田５丁目６番地６７,,11,237,3410018,,,,,,,2023-09-27,1,,,,,ビーエヌワン,0
646,3030003022639,新規,0,2023-09-27,2023-09-27,合同会社ＫＵＭＡＣｅｅＳ,,合同会社,埼玉県,朝霞市,三原２丁目３番７号,,11,227,3510025,,,,,,,2023-09-27,1,,,,,クマシーズ,0
652,3040001130236,新規,0,2023-09-27,2023-09-27,株式会社ｃａｌｉｃｏ,,株式会社,千葉県,浦安市,日の出５丁目６番１－１１０１号,,12,227,2790013,,,,,,,2023-09-27,1,,,,,キャリコ,0
664,3050001053493,新規,0,2023-09-27,2023-09-27,ＳＡＧＡ　ＴＲＡＤＩＮＧ株式会社,,株式会社,茨城県,筑西市,藤ケ谷２０９１番地ロマ１０９号,,08,227,3080112,,,,,,,2023-09-27,1,,,,,サガトレーディング,0
672,3070001040903,新規,0,2023-09-27,2023-09-27,株式会社茂木,,株式会社,群馬県,太田市,藪塚町９２５番地２,,10,205,3792301,,,,,,,2023-09-27,1,,,,,モギ,0
699,3120001258242,新規,0,2023-09-27,2023-09-27,恒品工程材料株式会社,,株式会社,大阪府,大阪市中央区,松屋町９番２０号ローレルステート松屋町５０６Ｂ,,27,128,5420067,,,,,,,2023-09-27,1,,,,,コウヒンコウテイザイリョウ,0
700,3120001258250,新規,0,2023-09-27,2023-09-27,株式会社ヨシインコーポレーション,,株式会社,大阪府,大阪市大正区,三軒家西３丁目４番１６号中山ビル１０２８,,27,108,5510001,,,,,,,2023-09-27,1,,,,,ヨシインコーポレーション,0
701,3120001258275,新規,0,2023-09-27,2023-09-27,楓之思株式会社,,株式会社,大阪府,大阪市住吉区,苅田１０丁目７番２４号,,27,120,5580011,,,,,,,2023-09-27,1,,,,,カエデノオモイ,0
702,3120001258300,新規,0,2023-09-27,2023-09-27,株式会社ポケシー,,株式会社,大阪府,寝屋川市,点野３丁目２２－１１,,27,215,5720077,,,,,,,2023-09-27,1,,,,,ポケシー,0
703,3120001258317,新規,0,2023-09-27,2023-09-27,株式会社ＫＹＵＴＴ,,株式会社,大阪府,大阪市北区,中崎２丁目８番１３号香門ハイツ１０２,,27,127,5300016,,,,,,,2023-09-27,1,,,,,キュット,0
704,3120001258325,新規,0,2023-09-27,2023-09-27,株式会社ＪＰアセット,,株式会社,大阪府,大阪市西区,江戸堀１丁目９番１６－２０１号,,27,106,5500002,,,,,,,2023-09-27,1,,,,,ジェイピーアセット,0
705,3120001258341,新規,0,2023-09-27,2023-09-27,株式会社リズム,,株式会社,大阪府,大阪市天王寺区,勝山４丁目９番１４号,,27,109,5430043,,,,,,,2023-09-27,1,,,,,リズム,0
706,3120001258374,新規,0,2023-09-27,2023-09-27,株式会社Ｖｅｎｔｏｒｅｘ,,株式会社,大阪府,大阪市北区,梅田１丁目２番２号大阪駅前第２ビル１２－１２,,27,127,5300001,,,,,,,2023-09-27,1,,,,,ベントレックス,0
707,3120001258390,新規,0,2023-09-27,2023-09-27,株式会社ＴＨＩＲＤ,,株式会社,大阪府,大阪市東成区,深江北１丁目１番１１－３０１号,,27,115,5370001,,,,,,,2023-09-27,1,,,,,サード,0
708,3120001258399,新規,0,2023-09-27,2023-09-27,株式会社ＭＩＬＬＩＯＮ　ＧＡＭＥ,,株式会社,大阪府,大阪市中央区,道頓堀２丁目３番２９号ニュージャパン角ビル４階,,27,128,5420071,,,,,,,2023-09-27,1,,,,,ミリオンゲーム,0
709,3120003024956,新規,0,2023-09-27,2023-09-27,合同会社西田,,合同会社,大阪府,大阪市西区,北堀江１丁目１７番１５号,,27,106,5500014,,,,,,,2023-09-27,1,,,,,ニシダ,0
711,3120103005451,新規,0,2023-09-27,2023-09-27,合同会社Ｓｔａｙ　Ｇｏｌｄ,,合同会社,大阪府,堺市堺区,今池町４丁１番１３号１０２号,,27,141,5900018,,,,,,,2023-09-27,1,,,,,ステイゴールド,0
713,3130001075249,新規,0,2023-09-27,2023-09-27,株式会社磐石クリエーション,,株式会社,京都府,京都市下京区,玉津島町２９４,,26,106,6008427,,,,,,,2023-09-27,1,,,,,バンセキクリエーション,0
716,3140001131744,新規,0,2023-09-27,2023-09-27,株式会社ｆｅｓｔｏｒｉａ,,株式会社,兵庫県,姫路市,香寺町犬飼４４１番地３,,28,201,6792131,,,,,,,2023-09-27,1,,,,,フェストリア,0
717,3140001131752,新規,0,2023-09-27,2023-09-27,株式会社ＹＫＦ,,株式会社,兵庫県,明石市,朝霧町１丁目２５番１１号,,28,203,6730866,,,,,,,2023-09-27,1,,,,,ワイケイエフ,0
720,3140003019590,新規,0,2023-09-27,2023-09-27,合同会社千理,,合同会社,兵庫県,加西市,北条町栗田６４番地の１,,28,220,6752302,,,,,,,2023-09-27,1,,,,,センリ,0
721,3140003019599,新規,0,2023-09-27,2023-09-27,合同会社アズ,,合同会社,兵庫県,伊丹市,梅ノ木２丁目１１番１３号プラティ梅ノ木１０１号室,,28,207,6640856,,,,,,,2023-09-27,1,,,,,アズ,0
723,3150005009507,新規,0,2023-09-27,2023-09-27,特定非営利活動法人Ｇｏｌｄｅｎｓｈｉｐ,,その他の設立登記法人,奈良県,奈良市,百楽園１丁目９－５７,,29,201,6310024,,,,,,,2023-09-27,1,,,,,ゴールデンシップ,0
734,3180301037844,新規,0,2023-09-27,2023-09-27,ＣＨＡＣＨＡ株式会社,,株式会社,愛知県,刈谷市,桜町１丁目４６番地４二光実業ビル２階,,23,210,4480028,,,,,,,2023-09-27,1,,,,,チャチャ,0
735,3180301037852,新規,0,2023-09-27,2023-09-27,株式会社ＡＣＥ,,株式会社,愛知県,豊橋市,岩屋町字岩屋下４７番地３７,,23,201,4400842,,,,,,,2023-09-27,1,,,,,エース,0
744,3260001038341,新規,0,2023-09-27,2023-09-27,株式会社リヒト,,株式会社,岡山県,倉敷市,浜町１丁目１４番２３号,,33,202,7100062,,,,,,,2023-09-27,1,,,,,リヒト,0
750,3290001103159,新規,0,2023-09-27,2023-09-27,株式会社マウントクック,,株式会社,福岡県,福岡市中央区,平尾２丁目４番２号１階,,40,133,8100014,,,,,,,2023-09-27,1,,,,,マウントクック,0
756,3290003014404,新規,0,2023-09-27,2023-09-27,Ｌｅｌａｎｄ　Ａｖｅｎｕｅ合同会社,,合同会社,福岡県,福岡市中央区,今泉２丁目４－６５－６０２,,40,133,8100021,,,,,,,2023-09-27,1,,,,,リーランドアベニュー,0
758,3290801029900,新規,0,2023-09-27,2023-09-27,株式会社ワークス,,株式会社,福岡県,直方市,大字畑３００番地３,,40,204,8220004,,,,,,,2023-09-27,1,,,,,ワークス,0
764,3350001018581,新規,0,2023-09-27,2023-09-27,カミヤテック株式会社,,株式会社,宮崎県,宮崎市,吉村町境目甲１５１３番地１Ｖａｌｏ吉村１０２号,,45,201,8800841,,,,,,,2023-09-27,1,,,,,カミヤテック,0
783,3430001090044,新規,0,2023-09-27,2023-09-27,株式会社ＭＳ,,株式会社,北海道,札幌市手稲区,曙十一条１丁目９番２０号,,01,109,0060841,,,,,,,2023-09-27,1,,,,,エムエス,0
784,3430001090052,新規,0,2023-09-27,2023-09-27,株式会社ＣＥＢ,,株式会社,北海道,千歳市,文京４丁目８番地の２,,01,224,0660052,,,,,,,2023-09-27,1,,,,,シーイービー,0
785,3430001090060,新規,0,2023-09-27,2023-09-27,株式会社札幌ＫＴＢ,,株式会社,北海道,札幌市北区,麻生町４丁目１２番１３号２階,,01,102,0010045,,,,,,,2023-09-27,1,,,,,サッポロケーティービー,0
788,3700150120755,新規,0,2023-09-27,2023-09-27,ＤＯＮＧＧＵＡＮＳＨＩＨＯＮＧＨＵＡＪＩＡＪＵＹＯＮＧＰＩＮＹＯＵＸｌＡＮＧＯＮＧＳＩ,,外国会社等,,,,,,,,ＧＵＡＮＧ　ＤＯＮＧ　ＳＨＥＮＧ　ＤＯＮＧ　ＧＵＡＮ　ＳＨＩ　ＮＡＮ　ＣＨＥＮＧ　ＪＩＥ　ＤＡＯ　ＳＡＮ　ＹＵＡＮ　ＬＵ　７　ＨＡＯ　ＳＡＮ　ＹＵＡＮ　ＬＩ　ＧＯＮＧ　ＹＵ　３　ＤＯＮＧ　４０２　ＳＨＩ,,,,,,2023-09-27,1,,,,,ドングワンシーホンフワージャージーヨンピンヨウシエンゴンスー,0
789,3700150120763,新規,0,2023-09-27,2023-09-27,Ｒｕｉａｎｓｈｉｈａｎｓｅｎｋｅｊｉｙｏｕｘｉａｎｇｏｎｇｓｉ,,外国会社等,,,,,,,,Ｚｈｅｊｉａｎｇｓｈｅｎｇ　Ｗｅｎｚｈｏｕｓｈｉ　Ｒｕｉａｎｓｈｉ　Ｔａｎｇｘｉａｚｈｅｎ　Ｂａｏｔｉａｎｘｉｎｆａｎｇｃｕｎ　Ｊｉｎｔａｎｄｏｎｇｌｕ４１ｈａｏ,,,,,,2023-09-27,1,,,,,ルイアンシーハンセンコージーヨウシエンゴンスー,0
790,3700150120771,新規,0,2023-09-27,2023-09-27,ＨＡＮＧＺＨＯＵＬＡＩＱＵＥＥＲＷＡＮＧＬＵＯＫＥＪＩ,,外国会社等,,,,,,,,Ｒｏｏｍ　３０６－１，ＢｕｉＩｄｉｎｇ２，Ｎｏ．１０　Ｌｉａｎｓｈｅｎｇ，Ｗｕｃｈａｎｇ　Ｈａｎｇｚｈｏｕ　Ｙｕｈａｎｇ　Ｚｈｅｊｉａｎ　ＣＮ,,,,,,2023-09-27,1,,,,,ハンジヨウライチユエオアワンルオコアジ,0
802,4010001238741,新規,0,2023-09-27,2023-09-27,株式会社銀座Ｐｉｌｉｎａ,,株式会社,東京都,中央区,銀座５丁目１５番１号南海東京ビルディング地下１階,,13,102,1040061,,,,,,,2023-09-27,1,,,,,ギンザピリナ,0
805,4010003041771,新規,0,2023-09-27,2023-09-27,ビー・エックス・ジェイ・エー・ツー・ホールディング合同会社,,合同会社,東京都,千代田区,丸の内３丁目１番１号東京共同会計事務所内,,13,101,1000005,,,,,,,2023-09-27,1,,,,,ビーエックスジェイエーツーホールディング,0
815,4010401177317,新規,0,2023-09-27,2023-09-27,陰山商事株式会社,,株式会社,東京都,港区,西麻布３丁目１７－３２,,13,103,1060031,,,,,,,2023-09-27,1,,,,,カゲヤマショウジ,0
816,4010401177333,新規,0,2023-09-27,2023-09-27,株式会社ジャパンリーシング,,株式会社,東京都,港区,北青山２丁目１２番８号,,13,103,1070061,,,,,,,2023-09-27,1,,,,,ジャパンリーシング,0
817,4010401177366,新規,0,2023-09-27,2023-09-27,株式会社ＮＩＫＥ,,株式会社,東京都,港区,赤坂４丁目５番２１－５１６号,,13,103,1070052,,,,,,,2023-09-27,1,,,,,ニケ,0
818,4010401177382,新規,0,2023-09-27,2023-09-27,株式会社ｋｏｋｏｒｏｍｉｔａｓｕ,,株式会社,東京都,港区,麻布台３丁目３番１７ＣＭビル３階,,13,103,1060041,,,,,,,2023-09-27,1,,,,,ココロミタス,0
820,4010403031050,新規,0,2023-09-27,2023-09-27,アークシティ合同会社,,合同会社,東京都,港区,南青山２丁目１５番２０－５０３号,,13,103,1070062,,,,,,,2023-09-27,1,,,,,アークシティ,0
825,4010601063837,新規,0,2023-09-27,2023-09-27,株式会社ＴｅｃｈＳｅｎｓｅ,,株式会社,東京都,江東区,亀戸６丁目４０番２６号１Ｆ,,13,108,1360071,,,,,,,2023-09-27,1,,,,,テックセンス,0
827,4010701044893,新規,0,2023-09-27,2023-09-27,ネットマン株式会社,,株式会社,東京都,品川区,西大井４丁目２１番１０－４１６号,,13,109,1400015,,,,,,,2023-09-27,1,,,,,ネットマン,0
829,4010703006883,新規,0,2023-09-27,2023-09-27,ザーベスティ合同会社,,合同会社,東京都,品川区,北品川２丁目９番１３号バウハウス北品川,,13,109,1400001,,,,,,,2023-09-27,1,,,,,ザーベスティ,0
832,4010801034365,新規,0,2023-09-27,2023-09-27,株式会社真里亜,,株式会社,東京都,大田区,西蒲田７丁目５７番１－７１０号,,13,111,1440051,,,,,,,2023-09-27,1,,,,,マリア,0
835,4010901053901,新規,0,2023-09-27,2023-09-27,ＪＡＭ株式会社,,株式会社,東京都,世田谷区,下馬１丁目５４番１３－５０５号,,13,112,1540002,,,,,,,2023-09-27,1,,,,,ジャム,0
839,4011001157188,新規,0,2023-09-27,2023-09-27,アワクラム株式会社,,株式会社,東京都,目黒区,緑が丘１丁目７番１３－４０３号,,13,110,1520034,,,,,,,2023-09-27,1,,,,,アワクラム,0
840,4011001157213,新規,0,2023-09-27,2023-09-27,アムグループ株式会社,,株式会社,東京都,渋谷区,広尾２丁目３番２３号,,13,113,1500012,,,,,,,2023-09-27,1,,,,,アムグループ,0
842,4011003017621,新規,0,2023-09-27,2023-09-27,合同会社ＲＨＳＹ,,合同会社,東京都,渋谷区,渋谷２丁目１９番１５号宮益坂ビルディング６０９,,13,113,1500002,,,,,,,2023-09-27,1,,,,,アールエイチエスワイ,0
852,4011101104486,新規,0,2023-09-27,2023-09-27,株式会社Ｓ　ｏｆ　Ｔ,,株式会社,東京都,新宿区,百人町１丁目２２番７－３０４号,,13,104,1690073,,,,,,,2023-09-27,1,,,,,エスオブティー,0
853,4011101104511,新規,0,2023-09-27,2023-09-27,株式会社Ｎｉｃｅｂｕｉｌｄジャパン,,株式会社,東京都,新宿区,西新宿３丁目３番１３号西新宿水間ビル６階,,13,104,1600023,,,,,,,2023-09-27,1,,,,,ナイスビルドジャパン,0
855,4011103013520,新規,0,2023-09-27,2023-09-27,陶パンチ合同会社,,合同会社,東京都,新宿区,西新宿３丁目３番１３号西新宿水間ビル２Ｆ,,13,104,1600023,,,,,,,2023-09-27,1,,,,,トウパンチ,0
862,4011403004129,新規,0,2023-09-27,2023-09-27,Ｉ’ｌｌ合同会社,,合同会社,東京都,板橋区,蓮根３丁目２１番９号,,13,119,1740046,,,,,,,2023-09-27,1,,,,,アイル,0
868,4011603004069,新規,0,2023-09-27,2023-09-27,合同会社ＧＯＲＩＴＡ,,合同会社,東京都,練馬区,田柄４丁目４４番２２号フローラ・光が丘１０１,,13,120,1790073,,,,,,,2023-09-27,1,,,,,ゴリタ,0
870,4011701026618,新規,0,2023-09-27,2023-09-27,株式会社ＥＳＰＯＩＲ,,株式会社,東京都,江戸川区,東小松川４丁目３０番１０号,,13,123,1320033,,,,,,,2023-09-27,1,,,,,エスポワール,0
875,4012301013601,新規,0,2023-09-27,2023-09-27,株式会社Ｆｒｅｅ　Ｓｔｙｌｅ,,株式会社,東京都,町田市,三輪町１５６７番地１クラヴィエＭ２０２,,13,209,1950054,,,,,,,2023-09-27,1,,,,,フリースタイル,0
876,4012401041031,新規,0,2023-09-27,2023-09-27,日本新大陸支払技術株式会社,,株式会社,東京都,調布市,仙川町１丁目１４番地３５レモンビル２０１,,13,208,1820002,,,,,,,2023-09-27,1,,,,,ニホンシンタイリクシハライギジュツ,0
878,4012803003190,新規,0,2023-09-27,2023-09-27,合同会社ＩＭＡＺＡ,,合同会社,東京都,立川市,西砂町５丁目５０番地の１６,,13,202,1900034,,,,,,,2023-09-27,1,,,,,イマザ,0
879,4013301051392,新規,0,2023-09-27,2023-09-27,株式会社Ｄ＆Ｔパートナーズ,,株式会社,東京都,豊島区,東池袋３丁目１１番７号,,13,116,1700013,,,,,,,2023-09-27,1,,,,,ディーアンドティーパートナーズ,0
887,4020001153618,新規,0,2023-09-27,2023-09-27,株式会社Ｍ・Ｋ・Ｐ,,株式会社,神奈川県,横浜市神奈川区,羽沢南２丁目９－６ドルチェファミール１０２,,14,102,2210866,,,,,,,2023-09-27,1,,,,,エムケーピー,0
888,4020001153642,新規,0,2023-09-27,2023-09-27,Ｍａｉｓｏｎ　ｄｅ　ｓｔａｙ株式会社,,株式会社,神奈川県,横浜市中区,山下町２７番地プロシード山下公園ザ・タワー０４１１号室,,14,104,2310023,,,,,,,2023-09-27,1,,,,,メゾンドゥステイ,0
889,4020001153659,新規,0,2023-09-27,2023-09-27,ＲＯＳＨＩ　Ｊａｐａｎ株式会社,,株式会社,神奈川県,横浜市西区,浅間町１丁目４番３号ウィザードビル４０２,,14,103,2200072,,,,,,,2023-09-27,1,,,,,ローシジャパン,0
892,4021001080273,新規,0,2023-09-27,2023-09-27,株式会社エースファシリティマネジメント,,株式会社,神奈川県,相模原市南区,大野台２丁目１８番１３,,14,153,2520331,,,,,,,2023-09-27,1,,,,,エースファシリティマネジメント,0
893,4021001080281,新規,0,2023-09-27,2023-09-27,株式会社ＳＦＳ,,株式会社,神奈川県,藤沢市,天神町１丁目１９番地の２４,,14,205,2520814,,,,,,,2023-09-27,1,,,,,エスエフエス,0
899,4021003013611,新規,0,2023-09-27,2023-09-27,合同会社ノルホ,,合同会社,神奈川県,伊勢原市,上粕屋５０３番地の２７,,14,214,2591141,,,,,,,2023-09-27,1,,,,,ノルホ,0
905,4030001155885,新規,0,2023-09-27,2023-09-27,株式会社清風舎,,株式会社,埼玉県,さいたま市浦和区,本太５丁目４番１５号,,11,107,3300052,,,,,,,2023-09-27,1,,,,,セイフウシャ,0
906,4030001155951,新規,0,2023-09-27,2023-09-27,株式会社ＨＡＳ,,株式会社,埼玉県,鴻巣市,箕田１５０番地,,11,217,3650062,,,,,,,2023-09-27,1,,,,,ハス,0
907,4030001155984,新規,0,2023-09-27,2023-09-27,朝日春城Ｇｒｏｕｐ株式会社,,株式会社,埼玉県,新座市,東３丁目１２番３１－１１号,,11,230,3520002,,,,,,,2023-09-27,1,,,,,アサヒハルシログループ,0
908,4030001156009,新規,0,2023-09-27,2023-09-27,株式会社ＷａｔａｎａｂｅＬａｕｎｄｒｙＲｅｓｏｒｔ,,株式会社,埼玉県,さいたま市浦和区,瀬ヶ崎２丁目２－８ロマネスクＫＥＮ,,11,107,3300044,,,,,,,2023-09-27,1,,,,,ワタナベランドリーリゾート,0
909,4030001156280,新規,0,2023-09-27,2023-09-27,株式会社ＦＯＬＫＡ,,株式会社,埼玉県,上尾市,大字原市４３６２番地２５,,11,219,3620021,,,,,,,2023-09-27,1,,,,,フォルカ,0
910,4030001156322,新規,0,2023-09-27,2023-09-27,Ａ＆Ｓ　ＪＡＮ　ＴＲＡＤＩＮＧ株式会社,,株式会社,埼玉県,羽生市,東８丁目９番地６イエローハウスＢ,,11,216,3480052,,,,,,,2023-09-27,1,,,,,エーアンドエスジャントレーディング,0
913,4030003022472,新規,0,2023-09-27,2023-09-27,合同会社美蘭,,合同会社,埼玉県,さいたま市大宮区,仲町２丁目３ドミノスペースビル３Ｆ,,11,103,3300845,,,,,,,2023-09-27,1,,,,,ビラン,0
914,4030003022506,新規,0,2023-09-27,2023-09-27,Ｋ＆Ｐ合同会社,,合同会社,埼玉県,飯能市,美杉台２丁目２番地１レーベンリヴァーレ美杉台グローブヒルズ４１３号,,11,209,3570041,,,,,,,2023-09-27,1,,,,,ケーアンドピー,0
915,4030003022522,新規,0,2023-09-27,2023-09-27,合同会社たなべ,,合同会社,埼玉県,川口市,栄町３丁目１１番７号,,11,203,3320017,,,,,,,2023-09-27,1,,,,,タナベ,0
916,4030003022530,新規,0,2023-09-27,2023-09-27,合同会社愛誠サービス,,合同会社,埼玉県,さいたま市南区,辻８丁目２２－１３－１,00132056,11,108,3360026,,,,,,,2023-09-27,1,,,,,アイセイサービス,0
917,4030003022646,新規,0,2023-09-27,2023-09-27,ビッグフードサービス合同会社,,合同会社,埼玉県,深谷市,大谷１２１３番地６,,11,218,3660814,,,,,,,2023-09-27,1,,,,,ビッグフードサービス,0
919,4030005021398,新規,0,2023-09-27,2023-09-27,ＴＫＳ税理士法人,,その他の設立登記法人,埼玉県,川口市,戸塚２丁目２６番９号ベル・マルシェ２０３,,11,203,3330811,,,,,,,2023-09-27,1,,,,,ティーケーエス,0
925,4040001130185,新規,0,2023-09-27,2023-09-27,株式会社ＳＯＲＡ,,株式会社,千葉県,市原市,潤井戸１９７９番地の８４,,12,219,2900171,,,,,,,2023-09-27,1,,,,,ソラ,0
926,4040001130219,新規,0,2023-09-27,2023-09-27,株式会社月治,,株式会社,千葉県,市川市,南行徳３丁目１７番７号,,12,203,2720138,,,,,,,2023-09-27,1,,,,,ツキハル,0
927,4040001130235,新規,0,2023-09-27,2023-09-27,株式会社ＬＥＩ,,株式会社,千葉県,千葉市緑区,あすみが丘７丁目５３番地４,,12,105,2670066,,,,,,,2023-09-27,1,,,,,エルイーアイ,0
928,4040001130251,新規,0,2023-09-27,2023-09-27,株式会社ＴＲＥＡ,,株式会社,千葉県,千葉市美浜区,ひび野２丁目１０番１号,,12,106,2610021,,,,,,,2023-09-27,1,,,,,トレア,0
937,4050001053451,新規,0,2023-09-27,2023-09-27,株式会社Ｎｅｆｅｒ,,株式会社,茨城県,神栖市,筒井１６６５－２中ビル１０３,,08,232,3140132,,,,,,,2023-09-27,1,,,,,ネフェル,0
938,4050001053542,新規,0,2023-09-27,2023-09-27,株式会社ＪＮＳ,,株式会社,茨城県,取手市,新町２丁目２番８－８０３号,,08,217,3020024,,,,,,,2023-09-27,1,,,,,ジェイエヌエス,0
939,4050001053550,新規,0,2023-09-27,2023-09-27,株式会社ＭＦＴＥＣ,,株式会社,茨城県,日立市,川尻町３丁目４１番６号,,08,202,3191411,,,,,,,2023-09-27,1,,,,,エムエフテック,0
942,4050003007819,新規,0,2023-09-27,2023-09-27,合同会社グレイシア不動産,,合同会社,茨城県,日立市,西成沢町１丁目３番３号,,08,202,3160032,,,,,,,2023-09-27,1,,,,,グレイシアフドウサン,0
949,4070003005110,新規,0,2023-09-27,2023-09-27,合同会社ベアーズ,,合同会社,群馬県,太田市,龍舞町３９５６番地９,,10,205,3730806,,,,,,,2023-09-27,1,,,,,ベアーズ,0
960,4110001037860,新規,0,2023-09-27,2023-09-27,にいがたのタクシー株式会社キャブネットワーク,,株式会社,新潟県,五泉市,赤海８７３番地１,,15,218,9591821,,,,,,,2023-09-27,1,,,,,ニイガタノタクシーキャブネットワーク,0
967,4120001258258,新規,0,2023-09-27,2023-09-27,新一天株式会社,,株式会社,大阪府,大阪市西成区,花園南１丁目７番２１号５０２Ｃ,,27,122,5570015,,,,,,,2023-09-27,1,,,,,シンイッテン,0
968,4120001258290,新規,0,2023-09-27,2023-09-27,株式会社ｅｍｏｚｏ,,株式会社,大阪府,大阪市北区,梅田１丁目２番２号大阪駅前第２ビル１２－１２,,27,127,5300001,,,,,,,2023-09-27,1,,,,,エモゾー,0
969,4120001258332,新規,0,2023-09-27,2023-09-27,株式会社ＳＵＭ,,株式会社,大阪府,大阪市中央区,北久宝寺町１丁目６番１１号,,27,128,5410057,,,,,,,2023-09-27,1,,,,,サム,0
970,4120001258349,新規,0,2023-09-27,2023-09-27,株式会社えん・とらすと,,株式会社,大阪府,大阪市西区,西本町１丁目３番１５号大阪建大ビル６階,,27,106,5500005,,,,,,,2023-09-27,1,,,,,エントラスト,0
971,4120001258357,新規,0,2023-09-27,2023-09-27,社会課題解決型へデザインする株式会社,,株式会社,大阪府,大阪市淀川区,宮原２丁目１４番２７号新大阪クリエイトビル３０２号室,,27,123,5320003,,,,,,,2023-09-27,1,,,,,シャカイカダイカイケツガタヘデザインスル,0
974,4120003024947,新規,0,2023-09-27,2023-09-27,合同会社泰念,,合同会社,大阪府,大阪市中央区,糸屋町１丁目２番１１－９０８号,,27,128,5400022,,,,,,,2023-09-27,1,,,,,タイネン,0
975,4120003024971,新規,0,2023-09-27,2023-09-27,合同会社プレヴィナージュ,,合同会社,大阪府,守口市,桜町５番９号（３０１）,,27,209,5700027,,,,,,,2023-09-27,1,,,,,プレヴィナージュ,0
978,4120901048089,新規,0,2023-09-27,2023-09-27,株式会社パディーマーシュ,,株式会社,大阪府,吹田市,垂水町１丁目５２番４号,,27,205,5640062,,,,,,,2023-09-27,1,,,,,パディーマーシュ,0
981,4130001075272,新規,0,2023-09-27,2023-09-27,株式会社Ｈｉｄｅｎ,,株式会社,京都府,京都市中京区,扇屋町６６４番地１,,26,104,6040824,,,,,,,2023-09-27,1,,,,,ヒデン,0
982,4130001075280,新規,0,2023-09-27,2023-09-27,株式会社Ｒａｉｓｅ,,株式会社,京都府,京都市中京区,壬生辻町４１番地２９,00132057,26,104,6048822,,,,,,,2023-09-27,1,,,,,レイズ,0
983,4130001075289,新規,0,2023-09-27,2023-09-27,株式会社ミマテックインターナショナル,,株式会社,京都府,京都市左京区,吉田神楽岡町７６番地,,26,103,6068311,,,,,,,2023-09-27,1,,,,,ミマテックインターナショナル,0
985,4130003009006,新規,0,2023-09-27,2023-09-27,ＫＡＳＨＩＭＡ合同会社,,合同会社,京都府,京都市右京区,西院月双町１０５番地グリシーヌ京都西京極２０５,,26,108,6150054,,,,,,,2023-09-27,1,,,,,カシマ,0
990,4140001131140,新規,0,2023-09-27,2023-09-27,株式会社ＳＯＳＨＩ,,株式会社,兵庫県,西宮市,上ケ原三番町５－５４,,28,204,6620893,,,,,,,2023-09-27,1,,,,,ソウシ,0
991,4140001131768,新規,0,2023-09-27,2023-09-27,株式会社ＹＡＳＨＩＯ　ＧＯＬＤ,,株式会社,兵庫県,姫路市,高尾町８２番地１ワコーレ姫路ゲートプレイス９０２号,,28,201,6700915,,,,,,,2023-09-27,1,,,,,ヤシオゴールド,0
992,4140003019598,新規,0,2023-09-27,2023-09-27,合同会社ＴＲＩＮＩＴＹ,,合同会社,兵庫県,神戸市東灘区,本庄町２丁目１３－２２,,28,101,6580012,,,,,,,2023-09-27,1,,,,,トリニティー,0
993,4160001025357,新規,0,2023-09-27,2023-09-27,株式会社レスト,,株式会社,滋賀県,大津市,御幸町３番１－４０１号,,25,201,5200057,,,,,,,2023-09-27,1,,,,,レスト,0
996,4170001017799,新規,0,2023-09-27,2023-09-27,大希商事株式会社,,株式会社,和歌山県,和歌山市,黒田１７９番地４ラフォーレ黒田１０３号,,30,201,6408341,,,,,,,2023-09-27,1,,,,,ダイキショウジ,0
999,4170003001925,新規,0,2023-09-27,2023-09-27,合同会社ＡＲＡＭ,,合同会社,和歌山県,田辺市,下万呂９－１２,,30,206,6460004,,,,,,,2023-09-27,1,,,,,エイラム,0
1011,4180001158155,新規,0,2023-09-27,2023-09-27,株式会社Ｃｒｏｓｓ　Ｐａｔｈ　Ｖｉｓｉｏｎ,,株式会社,愛知県,半田市,青山２丁目２５番地の３青山ビル１Ｆ,,23,205,4750836,,,,,,,2023-09-27,1,,,,,クロスパスビジョン,0
1016,4180301037835,新規,0,2023-09-27,2023-09-27,株式会社Ｂｌａｃｋ　Ｐｉｔ,,株式会社,愛知県,高浜市,向山町１丁目６番地３４,,23,227,4441313,,,,,,,2023-09-27,1,,,,,ブラックピット,0
1017,4180301037851,新規,0,2023-09-27,2023-09-27,株式会社ＫＩＮＧ．８９,,株式会社,愛知県,豊橋市,岩屋町字岩屋下４７番地３７,,23,201,4400842,,,,,,,2023-09-27,1,,,,,キングハチキュー,0
1021,4200001041754,新規,0,2023-09-27,2023-09-27,メイホク株式会社,,株式会社,岐阜県,美濃加茂市,蜂屋台１丁目８番地１,,21,211,5050039,,,,,,,2023-09-27,1,,,,,メイホク,0
1022,4210001019477,新規,0,2023-09-27,2023-09-27,株式会社Ｆｏｒ　Ｕ’ｔｈ,,株式会社,福井県,敦賀市,莇生野１０３号１番地の２（萩野町）,,18,202,9140141,,,,,,,2023-09-27,1,,,,,フォーユース,0
1025,4260001038340,新規,0,2023-09-27,2023-09-27,日の出株式会社,,株式会社,岡山県,岡山市東区,瀬戸町万富２５番地１,,33,103,7090841,,,,,,,2023-09-27,1,,,,,ヒノデ,0
1027,4290001103083,新規,0,2023-09-27,2023-09-27,株式会社Ｒｅｄ　Ｆｉｒｅ,,株式会社,福岡県,福岡市中央区,天神２丁目３番１０号天神パインクレスト７１９号,,40,133,8100001,,,,,,,2023-09-27,1,,,,,レッドファイア,0
1028,4290001103125,新規,0,2023-09-27,2023-09-27,Ｓｉｐｆｆｅｅ　Ｊａｐａｎ株式会社,,株式会社,福岡県,福岡市中央区,赤坂１丁目１４番２２号センチュリー赤坂門ビル４Ｆ,,40,133,8100042,,,,,,,2023-09-27,1,,,,,シップフィージャパン,0
1029,4290001103141,新規,0,2023-09-27,2023-09-27,株式会社ＰＩＮＯＫＩＯ,,株式会社,福岡県,福岡市城南区,東油山４丁目１番１１号,,40,136,8140155,,,,,,,2023-09-27,1,,,,,ピノキオ,0
1034,4300001013479,新規,0,2023-09-27,2023-09-27,株式会社Ｓａｇａ．Ｆａｓｔ．Ｃｏｍｍｕｎｅ,,株式会社,佐賀県,佐賀市,田代１丁目７番７－１０３号,,41,201,8400051,,,,,,,2023-09-27,1,,,,,サガファーストコミューン,0
1037,4330003009992,新規,0,2023-09-27,2023-09-27,明幸エレテック合同会社,,合同会社,熊本県,熊本市北区,植木町山本８８５番地,,43,105,8610101,,,,,,,2023-09-27,1,,,,,メイコウエレテック,0
1041,4350001018580,新規,0,2023-09-27,2023-09-27,株式会社ＴＲＩＮＩＴＹ,,株式会社,宮崎県,都城市,南横市町４０４３番地５,,45,202,8850092,,,,,,,2023-09-27,1,,,,,トリニティ,0
1049,4380001034006,新規,0,2023-09-27,2023-09-27,株式会社テクノ設備,,株式会社,福島県,いわき市,泉玉露６丁目１８番地の４ＧＳハイツ１０２,,07,204,9718172,,,,,,,2023-09-27,1,,,,,テクノセツビ,0
1054,4420001018417,新規,0,2023-09-27,2023-09-27,田中建築板金株式会社,,株式会社,青森県,東津軽郡外ヶ浜町,字蟹田高銅屋５８番地２,,02,307,0301303,,,,,,,2023-09-27,1,,,,,タナカケンチクバンキン,0
1055,4420003002798,新規,0,2023-09-27,2023-09-27,合同会社アシスト,,合同会社,青森県,三沢市,大字三沢字早稲田２９８番地１２３号,,02,207,0330022,,,,,,,2023-09-27,1,,,,,アシスト,0
1058,4430001090043,新規,0,2023-09-27,2023-09-27,株式会社Ｓｍａｒｔ　Ｈｏｍｅｓ　Ｊａｐａｎ,,株式会社,北海道,虻田郡喜茂別町,字喜茂別７０番地,,01,398,0440201,,,,,,,2023-09-27,1,,,,,スマートホームスジャパン,0
1059,4430001090051,新規,0,2023-09-27,2023-09-27,株式会社Ｊ．Ａ．ＰａｉｎｔＣｒｅａｔｅＷｏｒｋｓ,,株式会社,北海道,苫小牧市,青葉町２丁目４番１６号,,01,213,0530807,,,,,,,2023-09-27,1,,,,,ジェイエーペイントクリエイトワークス,0
1064,4490001010598,新規,0,2023-09-27,2023-09-27,株式会社伊藤機工,,株式会社,高知県,高知市,一宮西町３丁目２番３０号カームホーム吉岡３０３,,39,201,7818136,,,,,,,2023-09-27,1,,,,,イトウキコウ,0
1069,4700150120754,新規,0,2023-09-27,2023-09-27,ＨｏｎｇＫｏｎｇ　ＪｉａＹａｎｇ　Ｅ－ｃｏｍｍｅｒｃｅ　Ｃｏｍｐａｎｙ　Ｌｉｍｉｔｅｄ,,外国会社等,,,,,,,,１２／Ｆ．，Ｓａｎ　Ｔｏｉ　Ｂｕｉｌｄｉｎｇ，１３７－１３９　Ｃｏｎｎａｕｇｈｔ　Ｒｏａｄ　Ｃｅｎｔｒａｌ　Ｈｏｎｇ　Ｋｏｎｇ　９９９０７７　ＨＫ,,,,,,2023-09-27,1,,,,,シァンガンジャアヤンディエンズーシャンウヨウシェンゴンスー,0
1070,4700150120762,新規,0,2023-09-27,2023-09-27,ＨＯＮＧ　ＫＯＮＧ　ＭＡＹＳＥＥ　ＴＲＡＤＩＮＧ　ＣＯ．，ＬＩＭＩＴＥＤ,,外国会社等,,,,,,,,ＦＬＡＴ／ＲＭ　１３０３　１３／Ｆ　ＣＨＥＯＮＧ　ＴＡＩ　ＣＯＭＭＥＲＣＩＡＬ　ＢＵＩＬＤＩＮＧ　ＮＯ　２８７－２８９　ＲＥＣＬＡＭＡＴＩＯＮ　ＳＴＲＥＥＴ　ＫＬ,,,,,,2023-09-27,1,,,,,シャンガンメイスーマオイーヨウシエンゴンスー,0
1071,4700150120770,新規,0,2023-09-27,2023-09-27,Ｓｈｅｎｚｈｅｎ　Ｎｅｏｎ　Ｅｘｐｒｅｓｓ　Ｓｕｐｐｌｙ　Ｃｈａｉｎ　Ｃｏ．，Ｌｔｄ,,外国会社等,,,,,,,,Ｒ１００６，Ｎ２６，Ｙａｙｕａｎ　Ｒｏａｄ，Ｗｕｈｅ　Ｃｏｍｍｕｎｉｔｙ，Ｂａｎｔｉａｎ　Ｓｔｒｅｅｔ，Ｌｏｎｇｇａｎｇ　Ｄｉｓｔｒｉｃｔ，Ｓｈｅｎｚｈｅｎ，Ｃｈｉｎａ,,,,,,2023-09-27,1,,,,,シエンチエンネオンエクスプレスサプライチエーンカンパニーリミテツド,0
1072,4700150120779,新規,0,2023-09-27,2023-09-27,Ｓｈｅｎｚｈｅｎ　Ｚｈｉｑｕｃｈｕａｎｇ　Ｔｅｃｈｎｏｌｏｇｙ　Ｃｏ．，Ｌｔｄ．,,外国会社等,,,,,,,,Ｎｏ．１３７　Ｘｕｅｇａｎｇ　Ｓｏｕｔｈ　Ｒｏａｄ，Ｂａｎｔｉａｎ　Ｓｔｒｅｅｔ，Ｌｏｎｇｇａｎｇ　Ｄｉｓｔｒｉｃｔ　Ｆｉｆｔｈ　Ｆｌｏｏｒ　Ｃ５０７－０１　ｓｈｅｎｚｈｅｎｓｈｉ　ｇｕａｎｇｄｏｎｇ　５１８１２９　ＣＮ,,,,,,2023-09-27,1,,,,,シエンジエンシージーチーチユワンコージーヨウシエンゴンスー,0
1079,5010001238757,新規,0,2023-09-27,2023-09-27,株式会社ネコラボ,,株式会社,東京都,千代田区,九段南１丁目５番６号りそな九段ビル５階ＫＳフロア,,13,101,1020074,,,,,,,2023-09-27,1,,,,,ネコラボ,0
1080,5010003041770,新規,0,2023-09-27,2023-09-27,ビー・エックス・ジェイ・エー・ワン・ホールディング合同会社,,合同会社,東京都,千代田区,丸の内３丁目１番１号東京共同会計事務所内,,13,101,1000005,,,,,,,2023-09-27,1,,,,,ビーエックスジェイエーワンホールディング,0
1090,5010401177308,新規,0,2023-09-27,2023-09-27,株式会社Ｓｕｐｅｒｇｏｏｄ,,株式会社,東京都,港区,南青山３丁目１番３６号青山丸竹ビル,,13,103,1070062,,,,,,,2023-09-27,1,,,,,スーパーグッド,0
1091,5010401177332,新規,0,2023-09-27,2023-09-27,株式会社ＦＲＭＲ　ＪＡＰＡＮ,,株式会社,東京都,港区,港南２丁目１７番１号京王品川ビル２階,,13,103,1080075,,,,,,,2023-09-27,1,,,,,エフアールエムアールジャパン,0
1092,5010401177357,新規,0,2023-09-27,2023-09-27,至誠株式会社,,株式会社,東京都,港区,三田１丁目３番４０号天翔オフィス麻布十番４０８号室,,13,103,1080073,,,,,,,2023-09-27,1,,,,,シセイ,0
1093,5010401177365,新規,0,2023-09-27,2023-09-27,ヨコトラ株式会社,,株式会社,東京都,港区,虎ノ門３丁目１９番１５号,,13,103,1050001,,,,,,,2023-09-27,1,,,,,ヨコトラ,0
1094,5010401177407,新規,0,2023-09-27,2023-09-27,Ｓｉｍｓ　Ｌｉｆｅｃｙｃｌｅ　Ｓｅｒｖｉｃｅｓ　Ｊａｐａｎ株式会社,,株式会社,東京都,港区,西新橋３丁目２４番８号山内ビルディング３階,,13,103,1050003,,,,,,,2023-09-27,1,,,,,シムズライフサイクルサービシズジャパン,0
1100,5010501051098,新規,0,2023-09-27,2023-09-27,株式会社文雨商会,,株式会社,東京都,台東区,台東２丁目３０番１１号ＧＲＥＷ秋葉原ビル４Ｆ,,13,106,1100016,,,,,,,2023-09-27,1,,,,,フミアメショウカイ,0
1103,5010601063836,新規,0,2023-09-27,2023-09-27,株式会社ＡＤＤＧＲＩＤ,,株式会社,東京都,江東区,有明３丁目７番２６号有明フロンティアビルＢ棟９階,,13,108,1350063,,,,,,,2023-09-27,1,,,,,アドグリッド,0
1104,5010601063844,新規,0,2023-09-27,2023-09-27,和漢セルフメディケーション株式会社,,株式会社,東京都,墨田区,両国２丁目１４番８号,,13,107,1300026,,,,,,,2023-09-27,1,,,,,ワカンセルフメディケーション,0
1105,5010601063852,新規,0,2023-09-27,2023-09-27,株式会社ティーアンダー,,株式会社,東京都,江東区,北砂３丁目４番５－２０４号,,13,108,1360073,,,,,,,2023-09-27,1,,,,,ティーアンダー,0
1119,5010901053883,新規,0,2023-09-27,2023-09-27,株式会社Ｒｏｕｔｅ,,株式会社,東京都,世田谷区,三軒茶屋１丁目１７－４３０３号室,,13,112,1540024,,,,,,,2023-09-27,1,,,,,,0
1120,5010901053891,新規,0,2023-09-27,2023-09-27,株式会社ＳＨＯＷ　ＧＯＬＦ　ＪＡＰＡＮ,,株式会社,東京都,世田谷区,奥沢２丁目１６番１３号,,13,112,1580083,,,,,,,2023-09-27,1,,,,,ショーゴルフジャパン,0
1129,5011001157138,新規,0,2023-09-27,2023-09-27,株式会社ｔｏｒｉ,,株式会社,東京都,渋谷区,桜丘町２２番２０号シャトーポレール渋谷３０１号室,,13,113,1500031,,,,,,,2023-09-27,1,,,,,,0
1130,5011001157187,新規,0,2023-09-27,2023-09-27,株式会社Ｋ．Ａ　Ｒｅａｌ　Ｅｓｔａｔｅ　Ｍａｎａｇｅｍｅｎｔ,,株式会社,東京都,渋谷区,渋谷２丁目５番１２－５０４号,,13,113,1500002,,,,,,,2023-09-27,1,,,,,ケーエーリアルエステートマネージメント,0
1131,5011001157195,新規,0,2023-09-27,2023-09-27,株式会社ＭＹカンパニー,,株式会社,東京都,渋谷区,神宮前４丁目１８番１７－３０３号,,13,113,1500001,,,,,,,2023-09-27,1,,,,,マイカンパニー,0
1132,5011003017595,新規,0,2023-09-27,2023-09-27,合同会社伊豆味機構,,合同会社,東京都,目黒区,中目黒１丁目７番１１－１０５号ＥＸＡＭＮＡＫＡＭＥＧＵＲＯＩＩ,00132052,13,110,1530061,,,,,,,2023-09-27,1,,,,,イズミキコウ,0
1133,5011003017604,新規,0,2023-09-27,2023-09-27,合同会社ＢＹ　ＭＥＤＩＡ,,合同会社,東京都,目黒区,下目黒１丁目４－４－１１３,,13,110,1530064,,,,,,,2023-09-27,1,,,,,ビーワイメディア,0
1143,5011101104469,新規,0,2023-09-27,2023-09-27,株式会社ＹＧＭＤ,,株式会社,東京都,新宿区,大久保３丁目８－３,,13,104,1690072,,,,,,,2023-09-27,1,,,,,ワイジーエムディー,0
1144,5011101104502,新規,0,2023-09-27,2023-09-27,株式会社チャイナパック,,株式会社,東京都,新宿区,新小川町７－２５シャンブル小川町３０１,,13,104,1620814,,,,,,,2023-09-27,1,,,,,チャイナパック,0
1146,5011103013503,新規,0,2023-09-27,2023-09-27,秘密結社石のスープ合同会社,,合同会社,東京都,新宿区,市谷仲之町２－１０合羽坂テラス４号室,,13,104,1620064,,,,,,,2023-09-27,1,,,,,ヒミツケッシャイシノスープ,0
1147,5011105010795,新規,0,2023-09-27,2023-09-27,一般社団法人日本人材サポート協会,,その他の設立登記法人,東京都,新宿区,新宿４丁目３番１５号レイフラット新宿Ｂ棟３Ｆ,,13,104,1600022,,,,,,,2023-09-27,1,,,,,ニホンジンザイサポートキョウカイ,0
1149,5011301029037,新規,0,2023-09-27,2023-09-27,株式会社ＷＩＮＷＩＬＬ,,株式会社,東京都,杉並区,南荻窪３丁目２９番２４号,,13,115,1670052,,,,,,,2023-09-27,1,,,,,ウィンウィル,0
1151,5011401025480,新規,0,2023-09-27,2023-09-27,ＵＴＪＡＰＡＮ株式会社,,株式会社,東京都,板橋区,徳丸６丁目１３－１２ライフピアメモリー２０１号,,13,119,1750083,,,,,,,2023-09-27,1,,,,,ユティジャパン,0
1173,5020001153666,新規,0,2023-09-27,2023-09-27,株式会社今井バンク,,株式会社,神奈川県,川崎市中原区,小杉町３丁目１５０１－２－９０８,,14,133,2110063,,,,,,,2023-09-27,1,,,,,イマイバンク,0
1176,5020003024659,新規,0,2023-09-27,2023-09-27,合同会社Ｗｉｔｈ　Ｃｏｒｐｏｒａｔｉｏｎ,,合同会社,神奈川県,横浜市港北区,新横浜１丁目２２番地２クリオ新横浜ザ・イースト６０１,,14,109,2220033,,,,,,,2023-09-27,1,,,,,ウィズコーポレーション,0
1185,5030001155876,新規,0,2023-09-27,2023-09-27,古挽測量設計株式会社,,株式会社,埼玉県,川口市,大字東本郷１７５０番地の５,,11,203,3340063,,,,,,,2023-09-27,1,,,,,コビキソクリョウセッケイ,0
1186,5030001156206,新規,0,2023-09-27,2023-09-27,株式会社景際国際,,株式会社,埼玉県,川口市,大字安行領家７１５番地の５,,11,203,3340058,,,,,,,2023-09-27,1,,,,,ケイサイコクサイ,0
1187,5030001156296,新規,0,2023-09-27,2023-09-27,株式会社いんねん,,株式会社,埼玉県,草加市,青柳２丁目１３番９号コーポ篠宮２０２号室,,11,221,3400002,,,,,,,2023-09-27,1,,,,,インネン,0
1188,5030001156305,新規,0,2023-09-27,2023-09-27,株式会社ＹＳＫツアー,,株式会社,埼玉県,川口市,差間２丁目２３番４号サシマビル３Ｆ,,11,203,3330816,,,,,,,2023-09-27,1,,,,,ワイエスケイツアー,0
1192,5030003022653,新規,0,2023-09-27,2023-09-27,合同会社ケイプロダクツ,,合同会社,埼玉県,川越市,脇田本町６番地３１,,11,201,3501123,,,,,,,2023-09-27,1,,,,,ケイプロダクツ,0
1197,5040001130218,新規,0,2023-09-27,2023-09-27,ＺＡＭ　ＺＡＭ　ＭＯＴＯＲＳ株式会社,,株式会社,千葉県,野田市,岡田５７４番地９３,,12,208,2700223,,,,,,,2023-09-27,1,,,,,ザムザムモーターズ,0
1198,5040001130226,新規,0,2023-09-27,2023-09-27,株式会社大縁慈,,株式会社,千葉県,市川市,行徳駅前２丁目１３番１４号,,12,203,2720133,,,,,,,2023-09-27,1,,,,,ダイエンジ,0
1199,5040001130242,新規,0,2023-09-27,2023-09-27,グレイトフル株式会社,,株式会社,千葉県,千葉市若葉区,大広町７６３番地８,,12,104,2650064,,,,,,,2023-09-27,1,,,,,グレイトフル,0
1205,5040003023394,新規,0,2023-09-27,2023-09-27,合同会社ＡＮＤＰＩＸ,,合同会社,千葉県,船橋市,海神２丁目１９番１３号プレジール１０１号,,12,204,2730021,,,,,,,2023-09-27,1,,,,,アンドピクス,0
1206,5040003023403,新規,0,2023-09-27,2023-09-27,合同会社Ｊ．ＣＯＮＮＥＣＴ,,合同会社,千葉県,成田市,吉岡１２０４番地１,,12,211,2870225,,,,,,,2023-09-27,1,,,,,ジェイコネクト,0
1212,5060003004731,新規,0,2023-09-27,2023-09-27,ＡＭＺ合同会社,,合同会社,栃木県,下野市,医大前３丁目２－２小泉ビル２階２０１号室,,09,216,3290403,,,,,,,2023-09-27,1,,,,,アムズ,0
1219,5090001018326,新規,0,2023-09-27,2023-09-27,株式会社川口建築,,株式会社,山梨県,甲斐市,富竹新田１６２９番地１,,19,210,4000113,,,,,,,2023-09-27,1,,,,,カワグチケンチク,0
1222,5100001036796,新規,0,2023-09-27,2023-09-27,Ｘ‐Ｔｅｃｈ　ｐａｒｔｎｅｒ株式会社,,株式会社,長野県,松本市,梓川倭１１番地１,,20,202,3901701,,,,,,,2023-09-27,1,,,,,クロステックパートナー,0
1232,5120001258257,新規,0,2023-09-27,2023-09-27,阪達株式会社,,株式会社,大阪府,大阪市生野区,巽北１丁目１番１号２Ｆ－Ｄ,00132050,27,116,5440004,,,,,,,2023-09-27,1,,,,,ハンタツ,0
1233,5120001258307,新規,0,2023-09-27,2023-09-27,大謙株式会社,,株式会社,大阪府,大阪市淀川区,木川西２丁目２６番１５号巴第一マンション２０３号室,,27,123,5320013,,,,,,,2023-09-27,1,,,,,ダイケン,0
1234,5120001258323,新規,0,2023-09-27,2023-09-27,株式会社ＲＭ,,株式会社,大阪府,枚方市,招提平野町１１番８号,,27,210,5731135,,,,,,,2023-09-27,1,,,,,アールエム,0
1235,5120001258380,新規,0,2023-09-27,2023-09-27,Ｈｏｐｅ株式会社,,株式会社,大阪府,大阪市阿倍野区,阿倍野筋３丁目１２番２－３０１号,,27,119,5450052,,,,,,,2023-09-27,1,,,,,ホープ,0
1239,5120003024954,新規,0,2023-09-27,2023-09-27,エルビーエス合同会社,,合同会社,大阪府,大阪市福島区,野田３丁目１６－１,,27,103,5530005,,,,,,,2023-09-27,1,,,,,エルビーエス,0
1240,5120003024962,新規,0,2023-09-27,2023-09-27,ＰＨＵ　ＳＥＩＫＯＵ合同会社,,合同会社,大阪府,大阪市天王寺区,味原本町１０番１２号４０２号室,,27,109,5430022,,,,,,,2023-09-27,1,,,,,フーセイコウ,0
1242,5120005023888,新規,0,2023-09-27,2023-09-27,一般社団法人平野区薬剤師会,,その他の設立登記法人,大阪府,大阪市平野区,平野本町２丁目１０番４号,,27,126,5470044,,,,,,,2023-09-27,1,,,,,ヒラノクヤクザイシカイ,0
1246,5120101068267,新規,0,2023-09-27,2023-09-27,Ｂａｔｅａｕ株式会社,,株式会社,大阪府,泉大津市,東雲町１３番２８－５０６号,,27,206,5950026,,,,,,,2023-09-27,1,,,,,バトー,0
1250,5120901048088,新規,0,2023-09-27,2023-09-27,ＧＨＥＲＡＲＤＩＮＩ　ＪＡＰＡＮ株式会社,,株式会社,大阪府,箕面市,船場東２丁目１番１３号,,27,220,5620035,,,,,,,2023-09-27,1,,,,,ゲラルディーニジャパン,0
1257,5130001075263,新規,0,2023-09-27,2023-09-27,和京スマイ株式会社,,株式会社,京都府,京都市西京区,川島莚田町９番地３ＳＨＡＲＥＤＥＰＡＲＴＭＥＮＴ,,26,111,6158105,,,,,,,2023-09-27,1,,,,,ワキョウスマイ,0
1258,5130003009005,新規,0,2023-09-27,2023-09-27,Ｆｒｉｄａｙ　Ｎｉｇｈｔ　Ｐｌａｎ合同会社,,合同会社,京都府,京都市伏見区,桃山南大島町７１－３１,,26,109,6128017,,,,,,,2023-09-27,1,,,,,,0
1266,5140001131734,新規,0,2023-09-27,2023-09-27,株式会社フォレストヴァレー,,株式会社,兵庫県,姫路市,飾磨区妻鹿１５３０番地５,,28,201,6728031,,,,,,,2023-09-27,1,,,,,フォレストヴァレー,0
1271,5160001025364,新規,0,2023-09-27,2023-09-27,ライトニング株式会社,,株式会社,滋賀県,草津市,矢橋町１０５番地１カーサ・ソラッツオ弐番館３０３号室,,25,206,5250066,,,,,,,2023-09-27,1,,,,,ライトニング,0
1276,5180001158138,新規,0,2023-09-27,2023-09-27,株式会社青弘地所,,株式会社,愛知県,名古屋市瑞穂区,白砂町３丁目４８番地８,,23,108,4670056,,,,,,,2023-09-27,1,,,,,セイコウジショ,0
1277,5180001158179,新規,0,2023-09-27,2023-09-27,新東栄株式会社,,株式会社,愛知県,北名古屋市,片場八瀬の木１９番地,,23,234,4810002,,,,,,,2023-09-27,1,,,,,シントウエイ,0
1281,5180301037850,新規,0,2023-09-27,2023-09-27,株式会社間瀬工業,,株式会社,愛知県,刈谷市,小垣江町御茶屋下６１番地１,,23,210,4480813,,,,,,,2023-09-27,1,,,,,マセコウギョウ,0
1285,5180303005847,新規,0,2023-09-27,2023-09-27,合同会社ＴＯＰ,,合同会社,愛知県,豊橋市,岩屋町字岩屋２１番地３,,23,201,4400842,,,,,,,2023-09-27,1,,,,,,0
1296,5250001020298,新規,0,2023-09-27,2023-09-27,カイノ株式会社,,株式会社,山口県,下松市,南花岡４丁目１番１３号,,35,207,7440027,,,,,,,2023-09-27,1,,,,,カイノ,0
1309,5290001103140,新規,0,2023-09-27,2023-09-27,株式会社はぐくみケア,,株式会社,福岡県,筑紫野市,岡田１丁目９番地１,,40,217,8180013,,,,,,,2023-09-27,1,,,,,ハグクミケア,0
1310,5290001103157,新規,0,2023-09-27,2023-09-27,株式会社Ｂｉｌａｂｏｗ,,株式会社,福岡県,福岡市東区,西戸崎６丁目１番３号,,40,131,8110321,,,,,,,2023-09-27,1,,,,,ビラボー,0
1311,5290801029898,新規,0,2023-09-27,2023-09-27,株式会社ノーメイビー,,株式会社,福岡県,北九州市戸畑区,浅生２丁目４－２０－１００４,,40,105,8040062,,,,,,,2023-09-27,1,,,,,ノーメイビー,0
1317,5330003009991,新規,0,2023-09-27,2023-09-27,合同会社ＦＲｅｅ,,合同会社,熊本県,熊本市南区,出仲間６丁目１２番１号,,43,104,8620963,,,,,,,2023-09-27,1,,,,,フリー,0
1318,5330005010700,新規,0,2023-09-27,2023-09-27,一般社団法人感動人間力経営塾,,その他の設立登記法人,熊本県,熊本市東区,三郎２丁目２１番１８号,,43,102,8620922,,,,,,,2023-09-27,1,,,,,カンドウニンゲンリョクケイエイジュク,0
1320,5340001025924,新規,0,2023-09-27,2023-09-27,株式会社知也理,,株式会社,鹿児島県,奄美市,名瀬入舟町２番１０号（２階）,,46,222,8940034,,,,,,,2023-09-27,1,,,,,チヤリ,0
1321,5360001032588,新規,0,2023-09-27,2023-09-27,ＴＲＣ　Ｇｒｏｕｐ　Ｏｋｉｎａｗａ株式会社,,株式会社,沖縄県,浦添市,仲西１丁目３番地２５－５階５０２の６,,47,208,9012125,,,,,,,2023-09-27,1,,,,,ティーアールシーグループオキナワ,0
1322,5360003013322,新規,0,2023-09-27,2023-09-27,合同会社ＲＩＮＧ,,合同会社,沖縄県,那覇市,牧志２丁目１７－２７－４０１,,47,201,9000013,,,,,,,2023-09-27,1,,,,,リング,0
1327,5430001090042,新規,0,2023-09-27,2023-09-27,Ｙ＆Ｓ金盛株式会社,,株式会社,北海道,苫小牧市,あけぼの町３丁目３番１６号,,01,213,0530056,,,,,,,2023-09-27,1,,,,,ワイアンドエスカネモリ,0
1328,5430001090050,新規,0,2023-09-27,2023-09-27,株式会社プラウド,,株式会社,北海道,札幌市厚別区,厚別東一条６丁目１番１号吉村マンション１０５,,01,108,0040001,,,,,,,2023-09-27,1,,,,,プラウド,0
1333,5470003002495,新規,0,2023-09-27,2023-09-27,まるぶん合同会社,,合同会社,香川県,高松市,瓦町２丁目７番地１５植村ビル１階,,37,201,7600052,,,,,,,2023-09-27,1,,,,,マルブン,0
1339,5700150120761,新規,0,2023-09-27,2023-09-27,Ｒｅｂｕｆｆ　Ｃｏｒｐ．,,外国会社等,,,,,,,,１３７２７　ＳＷ　１５２　Ｓｔｒｅｅｔ，＃７６２　ＭＩＡＭＩ　ＦＬ　３３１７７　ＵＳ,,,,,,2023-09-27,1,,,,,レバーフコーポレーション,0
1340,5700150120778,新規,0,2023-09-27,2023-09-27,Ｊｉａｎｇｘｉ　Ｙｕｒｅｎ　Ｅｌｅｃｔｒｏｎｉｃｓ　Ｃｏ．，Ｌｔｄ．,,外国会社等,,,,,,,,Ｒｏｏｍ　７０３，Ｚｈｏｎｇｙａｎｇ　Ｂｕｉｌｄｉｎｇ，Ｎｏ．９２６　Ｆｅｎｇｈｕａｎｇ　Ｍｉｄｄｌｅ　Ａｖｅｎｕｅ，Ｈｏｎｇｇｕｔａｎ　Ｄｉｓｔｒｉｃｔ，Ｎａｎｃｈａｎｇ，Ｊｉａｎｇｘｉ,,,,,,2023-09-27,1,,,,,ジヤンシーイーレンデイエンズーヨウシエンゴンスー,0
1345,6010001238748,新規,0,2023-09-27,2023-09-27,株式会社ＲＥＢＯＲＮ,,株式会社,東京都,中央区,築地２丁目２－８,,13,102,1040045,,,,,,,2023-09-27,1,,,,,リボーン,0
1346,6010001238780,新規,0,2023-09-27,2023-09-27,株式会社ジャパニス,,株式会社,東京都,千代田区,神田神保町１丁目２６番地ＣＫ１２６－４０２号,,13,101,1010051,,,,,,,2023-09-27,1,,,,,ジャパニス,0
1347,6010001238806,新規,0,2023-09-27,2023-09-27,ＥＮＤＬＥＳＳ株式会社,,株式会社,東京都,千代田区,岩本町２丁目８番５号ビジュピコ第３ビル,,13,101,1010032,,,,,,,2023-09-27,1,,,,,エンドレス,0
1358,6010401177257,新規,0,2023-09-27,2023-09-27,ソルビファイ株式会社,,株式会社,東京都,港区,南青山３丁目１番３６号青山丸竹ビル６Ｆ,,13,103,1070062,,,,,,,2023-09-27,1,,,,,ソルビファイ,0
1359,6010401177331,新規,0,2023-09-27,2023-09-27,Ｓｔｅｌｌａウェルスマネジメント株式会社,,株式会社,東京都,港区,芝大門２丁目５番５－１４０７号,,13,103,1050012,,,,,,,2023-09-27,1,,,,,ステラウェルスマネジメント,0
1362,6010501051122,新規,0,2023-09-27,2023-09-27,江南株式会社,,株式会社,東京都,台東区,東上野３丁目１３－５深谷ビル６Ｆ,,13,106,1100015,,,,,,,2023-09-27,1,,,,,コウナン,0
1363,6010601063835,新規,0,2023-09-27,2023-09-27,南砂商事株式会社,,株式会社,東京都,江東区,南砂２丁目３番２－１２３２号,,13,108,1360076,,,,,,,2023-09-27,1,,,,,ミナミスナショウジ,0
1364,6010601063843,新規,0,2023-09-27,2023-09-27,株式会社ワンロー,,株式会社,東京都,江東区,毛利１丁目１７番５号,,13,108,1350001,,,,,,,2023-09-27,1,,,,,ワンロー,0
1365,6010601063851,新規,0,2023-09-27,2023-09-27,株式会社ｎａｎａｂｉｔ,,株式会社,東京都,江東区,亀戸７丁目６３－３－２１４,,13,108,1360071,,,,,,,2023-09-27,1,,,,,ナナビット,0
1367,6010705003539,新規,0,2023-09-27,2023-09-27,一般社団法人ホリスティック・アユシュ実践協会,,その他の設立登記法人,東京都,品川区,北品川１丁目２２番１７号ニックハイム北品川１０１,,13,109,1400001,,,,,,,2023-09-27,1,,,,,ホリスティックアユシュジッセンキョウカイ,0
1375,6010901053890,新規,0,2023-09-27,2023-09-27,株式会社ＧＷＯ,,株式会社,東京都,世田谷区,駒沢４丁目１番２１号,,13,112,1540012,,,,,,,2023-09-27,1,,,,,ジーダブルオー,0
1378,6011003017628,新規,0,2023-09-27,2023-09-27,合同会社Ｎｅｘｔ,,合同会社,東京都,目黒区,青葉台４丁目３番１４号,,13,110,1530042,,,,,,,2023-09-27,1,,,,,ネクスト,0
1380,6011101104484,新規,0,2023-09-27,2023-09-27,株式会社ＫＧＰ,,株式会社,東京都,新宿区,新宿１丁目３５番１３号スカイパーク御苑６０２,,13,104,1600022,,,,,,,2023-09-27,1,,,,,ケージーピー,0
1381,6011101104518,新規,0,2023-09-27,2023-09-27,Ｌａｂｉ株式会社,,株式会社,東京都,新宿区,百人町２丁目２５－８大久保ハウス３０３,,13,104,1690073,,,,,,,2023-09-27,1,,,,,ラビ,0
1383,6011103013519,新規,0,2023-09-27,2023-09-27,合同会社グランブリッジ,,合同会社,東京都,新宿区,西新宿３丁目３番１３号西新宿水間ビル６階,,13,104,1600023,,,,,,,2023-09-27,1,,,,,グランブリッジ,0
1388,6011403004127,新規,0,2023-09-27,2023-09-27,合同会社ＳＭＫ,,合同会社,東京都,板橋区,徳丸３丁目１５番１４号２Ｆ,,13,119,1750083,,,,,,,2023-09-27,1,,,,,エスエムケイ,0
1390,6011603004067,新規,0,2023-09-27,2023-09-27,合同会社ＵＮＯ,,合同会社,東京都,練馬区,田柄２丁目３８－３６,,13,120,1790073,,,,,,,2023-09-27,1,,,,,ユーエヌオー,0
1392,6012305002061,新規,0,2023-09-27,2023-09-27,一般社団法人ＲＤ通信ＡＩ今・未来活性会,,その他の設立登記法人,東京都,町田市,中町２丁目７番１５号中町ハイム１Ｂ,,13,209,1940021,,,,,,,2023-09-27,1,,,,,アールディーツーシンエーアイイマミライカッセイカイ,0
1403,6020001153640,新規,0,2023-09-27,2023-09-27,３ＤＮａｋａｎｏ株式会社,,株式会社,神奈川県,横浜市金沢区,能見台東４番１－１７０７号,,14,108,2360058,,,,,,,2023-09-27,1,,,,,スリーディーナカノ,0
1404,6020001153665,新規,0,2023-09-27,2023-09-27,株式会社横浜ＢＡＳＥ,,株式会社,神奈川県,横浜市港北区,菊名３丁目２番３５号,,14,109,2220011,,,,,,,2023-09-27,1,,,,,ヨコハマベース,0
1409,6020003024658,新規,0,2023-09-27,2023-09-27,合同会社タリオ,,合同会社,神奈川県,川崎市宮前区,有馬９丁目１４番２号,,14,136,2160003,,,,,,,2023-09-27,1,,,,,タリオ,0
1410,6020003024666,新規,0,2023-09-27,2023-09-27,ダールベック合同会社,,合同会社,神奈川県,横浜市中区,石川町５丁目２２０横浜山手ガーデニア５０５,,14,104,2310868,,,,,,,2023-09-27,1,,,,,ダールベック,0
1421,6030001155875,新規,0,2023-09-27,2023-09-27,株式会社ＭＥＷ,,株式会社,埼玉県,富士見市,羽沢１丁目２８番３１号,,11,235,3540033,,,,,,,2023-09-27,1,,,,,ミュー,0
1422,6030001155925,新規,0,2023-09-27,2023-09-27,株式会社Ｓｅａ　Ｄｒｉｖｅ,,株式会社,埼玉県,戸田市,大字新曽７４－２,,11,224,3350021,,,,,,,2023-09-27,1,,,,,シードライブ,0
1423,6030001156246,新規,0,2023-09-27,2023-09-27,株式会社Ｌｅａ　Ｌｅａ,,株式会社,埼玉県,川越市,大字下小坂５３６番地１３,,11,201,3500812,,,,,,,2023-09-27,1,,,,,リアリア,0
1424,6030001156270,新規,0,2023-09-27,2023-09-27,株式会社桐石,,株式会社,埼玉県,さいたま市緑区,松木３丁目７番地３６,,11,109,3360918,,,,,,,2023-09-27,1,,,,,キリイシ,0
1425,6030001156304,新規,0,2023-09-27,2023-09-27,株式会社國安空調,,株式会社,埼玉県,戸田市,南町１１番２０－２０７号,,11,224,3350025,,,,,,,2023-09-27,1,,,,,クニヤスクウチョウ,0
1426,6030001156320,新規,0,2023-09-27,2023-09-27,株式会社涼翔,,株式会社,埼玉県,戸田市,美女木１丁目１１番地の１錦ビル３０３号室,,11,224,3350031,,,,,,,2023-09-27,1,,,,,スズショウ,0
1430,6030003022628,新規,0,2023-09-27,2023-09-27,ｃａｒａｔ合同会社,,合同会社,埼玉県,さいたま市大宮区,桜木町１丁目３７８番地,,11,103,3300854,,,,,,,2023-09-27,1,,,,,カラット,0
1431,6030003022644,新規,0,2023-09-27,2023-09-27,合同会社ＳｔａｒＬｉｇｈｔ,,合同会社,埼玉県,ふじみ野市,桜ケ丘３丁目３９番２５号,,11,245,3560059,,,,,,,2023-09-27,1,,,,,スターライト,0
1434,6040001130217,新規,0,2023-09-27,2023-09-27,株式会社テクノＡＩ,,株式会社,千葉県,木更津市,祇園２丁目３１－３７,00132047,12,206,2920052,,,,,,,2023-09-27,1,,,,,テクノエーアイ,0
1435,6040001130225,新規,0,2023-09-27,2023-09-27,株式会社ロアジ,,株式会社,千葉県,市原市,飯沼８２７番地１,,12,219,2900037,,,,,,,2023-09-27,1,,,,,ロアジ,0
1436,6040001130241,新規,0,2023-09-27,2023-09-27,株式会社ロクセンテラス,,株式会社,千葉県,流山市,おおたかの森北１丁目２番地の３,,12,220,2700119,,,,,,,2023-09-27,1,,,,,ロクセンテラス,0
1446,6050003007809,新規,0,2023-09-27,2023-09-27,合同会社ＡＭＩＲＡＨ　ＴＲＡＤＩＮＧ,,合同会社,茨城県,取手市,配松４７８番地１広健ヴィレッジ２０２号室,,08,217,3001541,,,,,,,2023-09-27,1,,,,,アミラトレーディング,0
1449,6060001036370,新規,0,2023-09-27,2023-09-27,ＫＲＩＳＨＮＡ　ＩＮＴＥＲＮＡＴＩＯＮＡＬ株式会社,,株式会社,栃木県,小山市,駅東通り１丁目４０番１号ベルディマンションＩＩ－１０５号,00132046,09,208,3230022,,,,,,,2023-09-27,1,,,,,クリシュナインターナショナル,0
1450,6060001036379,新規,0,2023-09-27,2023-09-27,株式会社北窓の光,,株式会社,栃木県,那須塩原市,大原間西２丁目８番地１－４０３,,09,213,3293157,,,,,,,2023-09-27,1,,,,,キタマドノヒカリ,0
1452,6060003004730,新規,0,2023-09-27,2023-09-27,合同会社Ｕｎｉｔｅ　ｗｏｒｋｓ　ｄｅｓｉｇｎ,,合同会社,栃木県,佐野市,大橋町３２１４番地３,,09,204,3270003,,,,,,,2023-09-27,1,,,,,ユナイトワークスデザイン,0
1458,6080101024240,新規,0,2023-09-27,2023-09-27,岩瀬社寺建築株式会社,,株式会社,静岡県,富士宮市,小泉１２８６番地の３,,22,207,4180022,,,,,,,2023-09-27,1,,,,,イワセシャジケンチク,0
1459,6080401026754,新規,0,2023-09-27,2023-09-27,株式会社ＰＬＵＳＴ,,株式会社,静岡県,浜松市東区,大瀬町１５９３番地,,22,132,4313113,,,,,,,2023-09-27,1,,,,,プラスト,0
1461,6090001018341,新規,0,2023-09-27,2023-09-27,シードリーム株式会社,,株式会社,山梨県,富士吉田市,上吉田東８丁目１１番１２号,,19,202,4030032,,,,,,,2023-09-27,1,,,,,シードリーム,0
1464,6100001036812,新規,0,2023-09-27,2023-09-27,株式会社ＴＯＦＴＯＭＡ,,株式会社,長野県,長野市,吉田１丁目１８番２４号,,20,201,3810043,,,,,,,2023-09-27,1,,,,,トフトマ,0
1479,6120001258248,新規,0,2023-09-27,2023-09-27,卓悦株式会社,,株式会社,大阪府,大阪市大正区,三軒家西３丁目４番１６号中山ビル１０３２,,27,108,5510001,,,,,,,2023-09-27,1,,,,,タクエツ,0
1480,6120001258256,新規,0,2023-09-27,2023-09-27,＿欧亜株式会社,00132048,株式会社,大阪府,大阪市淀川区,田川北２丁目５－３４・Ｃ棟１０２号室,,27,123,5320021,,,,,,,2023-09-27,1,,,,,イクオウア,0
1481,6120001258339,新規,0,2023-09-27,2023-09-27,株式会社てぃーだ,,株式会社,大阪府,大阪市中央区,安堂寺町２丁目６番１４号,,27,128,5420061,,,,,,,2023-09-27,1,,,,,ティーダ,0
1482,6120001258355,新規,0,2023-09-27,2023-09-27,株式会社ＰＡＳＳ,,株式会社,大阪府,大阪市旭区,千林２丁目１６番５号,,27,117,5350012,,,,,,,2023-09-27,1,,,,,パス,0
1483,6120001258371,新規,0,2023-09-27,2023-09-27,株式会社アシストプライム,,株式会社,大阪府,大阪市淀川区,宮原２丁目１１番５号,,27,123,5320003,,,,,,,2023-09-27,1,,,,,アシストプライム,0
1486,6120101068266,新規,0,2023-09-27,2023-09-27,株式会社タブリス,,株式会社,大阪府,松原市,西野々２丁目９番２２号,,27,217,5800004,,,,,,,2023-09-27,1,,,,,タブリス,0
1490,6122001037409,新規,0,2023-09-27,2023-09-27,株式会社ＡＰリンクス,,株式会社,大阪府,八尾市,久宝園１丁目５２－２０１,,27,212,5810817,,,,,,,2023-09-27,1,,,,,エーピーリンクス,0
1493,6130001075262,新規,0,2023-09-27,2023-09-27,花輝き株式会社,,株式会社,京都府,京都市左京区,一乗寺西杉ノ宮町５５若竹荘１８号室,,26,103,6068112,,,,,,,2023-09-27,1,,,,,ハナカガヤキ,0
1494,6130001075279,新規,0,2023-09-27,2023-09-27,日進株式会社,,株式会社,京都府,京都市山科区,西野山階町４５番地３－Ｂ２０１号,,26,110,6078346,,,,,,,2023-09-27,1,,,,,ニッシン,0
1495,6130001075353,新規,0,2023-09-27,2023-09-27,株式会社Ｂｕｎｄｌｅ　ｕｐ,,株式会社,京都府,宇治市,木幡内畑２３番地の３１,,26,204,6110002,,,,,,,2023-09-27,1,,,,,バンドルアップ,0
1506,6140001131766,新規,0,2023-09-27,2023-09-27,株式会社ＴＥＲＲＡＳ,,株式会社,兵庫県,神戸市中央区,元町通６丁目７番１号３階,,28,110,6500022,,,,,,,2023-09-27,1,,,,,テラス,0
1515,6180001158153,新規,0,2023-09-27,2023-09-27,株式会社ＳＥＶＥＮ　ＦＩＳＨＥＲＳ,,株式会社,愛知県,清須市,西枇杷島町古城２丁目１０番地１３,,23,233,4520001,,,,,,,2023-09-27,1,,,,,セブンフィッシャーズ,0
1516,6180001158178,新規,0,2023-09-27,2023-09-27,中央ペーパーロジ株式会社,,株式会社,愛知県,名古屋市中区,丸の内２丁目１番３６号,,23,106,4600002,,,,,,,2023-09-27,1,,,,,チュウオウペーパーロジ,0
1517,6180001158203,新規,0,2023-09-27,2023-09-27,アイブレ株式会社,,株式会社,愛知県,名古屋市中村区,松重町４番５１号ＫＡＫＯビル４Ｃ,,23,105,4500004,,,,,,,2023-09-27,1,,,,,アイブレ,0
1524,6180003025756,新規,0,2023-09-27,2023-09-27,合同会社シティ開発,,合同会社,愛知県,犬山市,大字五郎丸字郷瀬川３５番地１,,23,215,4840066,,,,,,,2023-09-27,1,,,,,シティカイハツ,0
1525,6180003025780,新規,0,2023-09-27,2023-09-27,ＧＪ合同会社,,合同会社,愛知県,瀬戸市,東松山町３０５番地の２,,23,204,4890069,,,,,,,2023-09-27,1,,,,,ジージェイ,0
1528,6180301037841,新規,0,2023-09-27,2023-09-27,株式会社メタ,,株式会社,愛知県,豊橋市,多米中町２丁目１番地６,,23,201,4400027,,,,,,,2023-09-27,1,,,,,メタ,0
1539,6250003003358,新規,0,2023-09-27,2023-09-27,合同会社未来へつなぐ育成会つむぎ,,合同会社,山口県,山陽小野田市,大字山川１３７１番地１０,,35,216,7570004,,,,,,,2023-09-27,1,,,,,ミライヘツナグイクセイカイツムギ,0
1540,6260001038347,新規,0,2023-09-27,2023-09-27,株式会社ＵＰ,,株式会社,岡山県,倉敷市,西富井６８６番地９,,33,202,7100845,,,,,,,2023-09-27,1,,,,,アップ,0
1549,6290001103156,新規,0,2023-09-27,2023-09-27,株式会社ＯＮＥＣＬＩＣ,,株式会社,福岡県,福岡市南区,曰佐２丁目１９－３６,,40,134,8111313,,,,,,,2023-09-27,1,,,,,ワンクリック,0
1552,6290801029897,新規,0,2023-09-27,2023-09-27,セイブ総合株式会社,,株式会社,福岡県,北九州市小倉南区,東貫２丁目１２番４５号,,40,107,8000224,,,,,,,2023-09-27,1,,,,,セイブソウゴウ,0
1553,6290801029906,新規,0,2023-09-27,2023-09-27,フロントＲ株式会社,,株式会社,福岡県,宮若市,宮田２４１番地３５,,40,226,8230011,,,,,,,2023-09-27,1,,,,,フロントアール,0
1555,6290803004510,新規,0,2023-09-27,2023-09-27,瀬戸口建工合同会社,,合同会社,福岡県,北九州市小倉南区,湯川新町３丁目８番１２号,,40,107,8000256,,,,,,,2023-09-27,1,,,,,セトグチケンコウ,0
1558,6310005008712,新規,0,2023-09-27,2023-09-27,行政書士法人井手法務事務所,,その他の設立登記法人,長崎県,佐世保市,木場田町８－１０,,42,202,8570041,,,,,,,2023-09-27,1,,,,,イデホウムジムショ,0
1561,6330003009990,新規,0,2023-09-27,2023-09-27,合同会社本田商店,,合同会社,熊本県,菊池市,隈府７６８番地,,43,210,8611331,,,,,,,2023-09-27,1,,,,,ホンダショウテン,0
1564,6330005010699,新規,0,2023-09-27,2023-09-27,一般社団法人あそ未来計画,,その他の設立登記法人,熊本県,阿蘇郡南阿蘇村,大字河陰３９５５番地６,,43,433,8691411,,,,,,,2023-09-27,1,,,,,アソミライケイカク,0
1565,6340001025915,新規,0,2023-09-27,2023-09-27,株式会社藤田興業,,株式会社,鹿児島県,志布志市,志布志町安楽８０１番地１８,,46,221,8997104,,,,,,,2023-09-27,1,,,,,フジタコウギョウ,0
1569,6350001018579,新規,0,2023-09-27,2023-09-27,株式会社ＹＡＭＡＤＡ,,株式会社,宮崎県,延岡市,石田町３２５０番地１,,45,203,8890501,,,,,,,2023-09-27,1,,,,,ヤマダ,0
1571,6360001032595,新規,0,2023-09-27,2023-09-27,株式会社晴れる屋商店,,株式会社,沖縄県,宮古島市,平良字下里１１５９番地５コーポ恵１０６,,47,214,9060013,,,,,,,2023-09-27,1,,,,,ハレルヤショウテン,0
1573,6360003013305,新規,0,2023-09-27,2023-09-27,合同会社そら,,合同会社,沖縄県,国頭郡宜野座村,字惣慶１７７１－７,,47,313,9041303,,,,,,,2023-09-27,1,,,,,ソラ,0
1590,6430001090058,新規,0,2023-09-27,2023-09-27,東昇株式会社,,株式会社,北海道,苫小牧市,拓勇東町１丁目２８－２３,,01,213,0591303,,,,,,,2023-09-27,1,,,,,トウショウ,0
1593,6430003015467,新規,0,2023-09-27,2023-09-27,藤繁商会合同会社,,合同会社,北海道,札幌市手稲区,新発寒五条６丁目１４番１号,,01,109,0060805,,,,,,,2023-09-27,1,,,,,トウハンショウカイ,0
1602,6700150117699,新規,0,2023-09-27,2023-09-27,Ｄｏｎｇｇｕａｎｓｈｉｈａｏｒｅｎｄｉａｎｚｉｋｅｊｉｙｏｕｘｉａｎｇｏｎｇｓｉ,,外国会社等,,,,,,,,ｃｈａｎｇｐｉｎｇｚｈｅｎｑｉａｏｚｉｃｕｎｔａｎｇｊｉａｏｌｕ２４ｈａｏ　ｙｕａｎｃｈｕａｎｇｄｏｎｇｌｉｃｈａｎｙｅｙｕａｎＢｄｏｎｇ３ｌｏｕ３１４　ｄｏｎｇｇｕａｎｓｈｉ　ｇｕａｎｇｄｏｎｇｓｈｅｎｇ　５２３５７０　ＣＮ,,,,,,2023-09-27,1,,,,,ドングアンシハオレンデイアンジケジヨウシアンゴンス,0
1603,6700150120760,新規,0,2023-09-27,2023-09-27,ｚｈｏｎｇｓｈａｎｓｈｉｆｕｌｉｈｏｕｃａｉｎｖｈｕａｎｇｈｕａｚｈｕａｎｇｐｉｎｙｏｕｘｉａｎｇｏｎｇｓｉ,,外国会社等,,,,,,,,ｘｉｎｇｈｕｉｙｕｎｊｉｎｈｕａｙｕａｎｔｉａｎｈｕｉｘｉｎｇｙｕａｎ９ｚｈｕａｎｇ１８９ｋａ　ｎａｎｑｕｒｉｈｕａｌｕ３６ｈａｏ　ｚｈｏｎｇｓｈａｎｓｈｉ　ｇｕａｎｇｄｏｎｇｓｎｅｎｇ　５２８４００　ＣＮ,,,,,,2023-09-27,1,,,,,ジョンシャンシーフーリーホウツァイジュワンフワージュワンピンヨウシエンゴンスー,0
1604,6700150120769,新規,0,2023-09-27,2023-09-27,全国小売酒販青年協議会,,その他,東京都,目黒区,中目黒２丁目１番２７号全国小売酒販組合中央会内,,13,110,1530061,,,,,,,2023-09-27,1,,,,,ゼンコクコウリシュハンセイネンキョウギカイ,0
1605,6700150120777,新規,0,2023-09-27,2023-09-27,ｂａｉｓｅｓｈｉｊｉｎｓｈｅｎｓｈａｎｇｍａｏ,,外国会社等,,,,,,,,ｙｏｕｊｉａｎｇｑｕｃｈｅｎｇｄｏｎｇｌｕｈｅｄｏｎｇｓｈａｎｇｙｅｂｕｘｉｎｇｊｉｅＡ－４ｈａｏｂａｉｓｅｇｕａｎｇｘｉＣＮ,,,,,,2023-09-27,1,,,,,バイソアシジンシエンシヤンマオ,0
1612,7010001238623,新規,0,2023-09-27,2023-09-27,株式会社クロニクルホールディングス,,株式会社,東京都,千代田区,神田佐久間町２丁目１番地,,13,101,1010025,,,,,,,2023-09-27,1,,,,,クロニクルホールディングス,0
1613,7010001238747,新規,0,2023-09-27,2023-09-27,花ノ世株式会社,,株式会社,東京都,千代田区,神田三崎町２丁目１２番９－５０３号,,13,101,1010061,,,,,,,2023-09-27,1,,,,,ハナノヨ,0
1614,7010001238755,新規,0,2023-09-27,2023-09-27,株式会社ラテイル,,株式会社,東京都,中央区,日本橋室町１丁目１１番１２号日本橋水野ビル７階,,13,102,1030022,,,,,,,2023-09-27,1,,,,,ラテイル,0
1615,7010001238763,新規,0,2023-09-27,2023-09-27,株式会社リモデル,,株式会社,東京都,千代田区,内幸町２丁目２番１号,,13,101,1000011,,,,,,,2023-09-27,1,,,,,リモデル,0
1616,7010001238788,新規,0,2023-09-27,2023-09-27,株式会社ＫＩＴＡＩ　ｍｅｄｉｃａｌ,,株式会社,東京都,千代田区,丸の内１丁目１１番１号,,13,101,1000005,,,,,,,2023-09-27,1,,,,,キタイメディカル,0
1617,7010001238813,新規,0,2023-09-27,2023-09-27,株式会社あるく,,株式会社,東京都,千代田区,神田和泉町１番地６－１６ヤマトビル４０５,,13,101,1010024,,,,,,,2023-09-27,1,,,,,アルク,0
1624,7010101015831,新規,0,2023-09-27,2023-09-27,株式会社Ｋｅｅｐ　Ｔｉｍｅ,,株式会社,東京都,八王子市,松木３１番地１３,,13,201,1920362,,,,,,,2023-09-27,1,,,,,キープタイム,0
1630,7010403030891,新規,0,2023-09-27,2023-09-27,合同会社Ｏｗｅｎ,,合同会社,東京都,港区,東麻布１丁目１８番９グランシティ麻布２０２号室,,13,103,1060044,,,,,,,2023-09-27,1,,,,,オーエン,0
1633,7010501051113,新規,0,2023-09-27,2023-09-27,横山建設株式会社,,株式会社,東京都,台東区,上野１丁目４番８号上野横山ビル,,13,106,1100005,,,,,,,2023-09-27,1,,,,,ヨコヤマケンセツ,0
1634,7010501051121,新規,0,2023-09-27,2023-09-27,郁金香蕉株式会社,,株式会社,東京都,台東区,駒形１丁目２番１－７０２号ＰｒｉｍｅＢｌｉｓｓ浅草蔵前,,13,106,1110043,,,,,,,2023-09-27,1,,,,,イクキンコウショ,0
1639,7010603010371,新規,0,2023-09-27,2023-09-27,恵比寿水産合同会社,,合同会社,東京都,江東区,塩浜１丁目５番３０－７０４号,,13,108,1350043,,,,,,,2023-09-27,1,,,,,エビススイサン,0
1644,7011001157169,新規,0,2023-09-27,2023-09-27,株式会社インプルーブ,,株式会社,東京都,渋谷区,神宮前６丁目２３番４号桑野ビル２階,,13,113,1500001,,,,,,,2023-09-27,1,,,,,インプルーブ,0
1645,7011001157193,新規,0,2023-09-27,2023-09-27,株式会社ＸＩＮＮ,,株式会社,東京都,渋谷区,松濤１丁目２１番１号,,13,113,1500046,,,,,,,2023-09-27,1,,,,,シン,0
1646,7011001157202,新規,0,2023-09-27,2023-09-27,株式会社ＳＵＳＨＩ,,株式会社,東京都,渋谷区,恵比寿南１丁目１０番７－１１０８号,,13,113,1500022,,,,,,,2023-09-27,1,,,,,スシ,0
1647,7011003017536,新規,0,2023-09-27,2023-09-27,Ｄｒシリウス合同会社,,合同会社,東京都,目黒区,三田２丁目１０－３,,13,110,1530062,,,,,,,2023-09-27,1,,,,,ドクターシリウス,0
1648,7011003017585,新規,0,2023-09-27,2023-09-27,合同会社ＴＤＮＳ,,合同会社,東京都,渋谷区,神宮前１丁目４番２０号パークコート神宮前５２８,,13,113,1500001,,,,,,,2023-09-27,1,,,,,ティーディーエヌエス,0
1649,7011005010225,新規,0,2023-09-27,2023-09-27,一般社団法人地方ＷＥＢ３連携協会,,その他の設立登記法人,東京都,渋谷区,道玄坂１丁目１０番８号渋谷道玄坂東急ビル２Ｆ－Ｃ,,13,113,1500043,,,,,,,2023-09-27,1,,,,,チホウウェブスリーレンケイキョウカイ,0
1654,7011101104483,新規,0,2023-09-27,2023-09-27,株式会社ＥＭＡＮＯＮ,,株式会社,東京都,新宿区,新宿７丁目９－２メゾンベール１０１,,13,104,1600022,,,,,,,2023-09-27,1,,,,,エマノン,0
1655,7011101104491,新規,0,2023-09-27,2023-09-27,株式会社ハビタポート,,株式会社,東京都,新宿区,富久町４０番１０号,,13,104,1620067,,,,,,,2023-09-27,1,,,,,ハビタポート,0
1656,7011101104500,新規,0,2023-09-27,2023-09-27,株式会社ＴＡＮＵＫＩ　ＦＡＣＴＯＲＹ,,株式会社,東京都,新宿区,西新宿３丁目３番１３号西新宿水間ビル６階,,13,104,1600023,,,,,,,2023-09-27,1,,,,,タヌキファクトリー,0
1657,7011101104509,新規,0,2023-09-27,2023-09-27,Ａｃｔｉｖｅ　Ｃａｒｅｅｒ　Ｓｕｐｐｏｒｔ株式会社,,株式会社,東京都,新宿区,百人町１丁目４番１６号内藤ビル４０２,,13,104,1690073,,,,,,,2023-09-27,1,,,,,アクティブキャリアサポート,0
1658,7011101104517,新規,0,2023-09-27,2023-09-27,株式会社ＴＲホールディングス,,株式会社,東京都,新宿区,大久保２丁目４番１５号サンライズ新宿５階,,13,104,1690072,,,,,,,2023-09-27,1,,,,,ティーアールホールディングス,0
1659,7011103013518,新規,0,2023-09-27,2023-09-27,ＨＩＪＩＲＩ合同会社,,合同会社,東京都,新宿区,舟町３番地１,,13,104,1600006,,,,,,,2023-09-27,1,,,,,ヒジリ,0
1660,7011103013526,新規,0,2023-09-27,2023-09-27,怡裕合同会社,,合同会社,東京都,新宿区,榎町３４－３榎町ビル５階－１０室,,13,104,1620806,,,,,,,2023-09-27,1,,,,,イユウ,0
1672,7011401025470,新規,0,2023-09-27,2023-09-27,ＤＡＩＫＥＮ株式会社,,株式会社,東京都,板橋区,高島平１丁目６８番８号サンスカイハイツ３０３,,13,119,1750082,,,,,,,2023-09-27,1,,,,,ダイケン,0
1674,7011503005767,新規,0,2023-09-27,2023-09-27,財宝合同会社,,合同会社,東京都,荒川区,荒川１丁目５１番６号,,13,118,1160002,,,,,,,2023-09-27,1,,,,,ザイホウ,0
1675,7011601027143,新規,0,2023-09-27,2023-09-27,ワールドキッチン株式会社,,株式会社,東京都,練馬区,石神井台５丁目１５番３号,,13,120,1770045,,,,,,,2023-09-27,1,,,,,ワールドキッチン,0
1676,7011603004066,新規,0,2023-09-27,2023-09-27,イコ合同会社,,合同会社,東京都,練馬区,高野台２丁目２４番２６号ＧＲＯＷＳ練馬高野台１０５,,13,120,1770033,,,,,,,2023-09-27,1,,,,,イコ,0
1680,7013101009241,新規,0,2023-09-27,2023-09-27,ｒａｄｉｏ２３４株式会社,,株式会社,東京都,福生市,本町６３番地２,,13,218,1970022,,,,,,,2023-09-27,1,,,,,,0
1686,7013303006805,新規,0,2023-09-27,2023-09-27,ＧＲＥ合同会社,,合同会社,東京都,豊島区,南池袋１丁目６番２号,,13,116,1710022,,,,,,,2023-09-27,1,,,,,ジーアールイー,0
1694,7020001153648,新規,0,2023-09-27,2023-09-27,株式会社三島,,株式会社,神奈川県,横浜市磯子区,氷取沢町１５０番地４－１４棟４０１号,,14,107,2350043,,,,,,,2023-09-27,1,,,,,ミシマ,0
1695,7020001153656,新規,0,2023-09-27,2023-09-27,Ａｉ‐ＰＬＵＳ株式会社,,株式会社,神奈川県,横浜市都筑区,中川５丁目１２番７号,,14,118,2240001,,,,,,,2023-09-27,1,,,,,アイプラス,0
1696,7020001153664,新規,0,2023-09-27,2023-09-27,株式会社Ｃｒｙｓｔａｌ　ｆｏｒｅｓｔ,,株式会社,神奈川県,横浜市神奈川区,星野町８番地３クリオレジダンス横濱ベイサイド７１５号,,14,102,2210035,,,,,,,2023-09-27,1,,,,,クリスタルフォレスト,0
1700,7020003024665,新規,0,2023-09-27,2023-09-27,ココノ合同会社,,合同会社,神奈川県,横浜市泉区,岡津町１３４８番地１５,,14,116,2450003,,,,,,,2023-09-27,1,,,,,ココノ,0
1702,7021001080246,新規,0,2023-09-27,2023-09-27,ロングホンジャパン株式会社,,株式会社,神奈川県,厚木市,中町３丁目９番１５号厚木ＪＣビル５Ｆ－Ａ－１,,14,212,2430018,,,,,,,2023-09-27,1,,,,,ロングホンジャパン,0
1704,7021003013600,新規,0,2023-09-27,2023-09-27,ＩＮＦＩＮＩＴＩ合同会社,,合同会社,神奈川県,相模原市南区,双葉１丁目１３－２１,,14,153,2520316,,,,,,,2023-09-27,1,,,,,インフィニティ,0
1709,7030001155882,新規,0,2023-09-27,2023-09-27,株式会社ＪＰＦ,,株式会社,埼玉県,さいたま市大宮区,桜木町２丁目１９４,,11,103,3300854,,,,,,,2023-09-27,1,,,,,ジェーピーエフ,0
1710,7030001156022,新規,0,2023-09-27,2023-09-27,株式会社ウインドパス,,株式会社,埼玉県,所沢市,大字荒幡９７８番地の５,,11,208,3591133,,,,,,,2023-09-27,1,,,,,ウインドパス,0
1711,7030001156030,新規,0,2023-09-27,2023-09-27,株式会社ドットｈａｃｋ,,株式会社,埼玉県,さいたま市大宮区,三橋１丁目１１２９－５サンブリッジ番館３１号室,,11,103,3300856,,,,,,,2023-09-27,1,,,,,ドットハック,0
1712,7030001156253,新規,0,2023-09-27,2023-09-27,株式会社ライジング,,株式会社,埼玉県,川越市,かし野台１丁目１３番地３５,,11,201,3501179,,,,,,,2023-09-27,1,,,,,ライジング,0
1713,7030001156261,新規,0,2023-09-27,2023-09-27,株式会社ルークス,,株式会社,埼玉県,鴻巣市,生出塚１丁目１０番６号,,11,217,3650033,,,,,,,2023-09-27,1,,,,,ルークス,0
1714,7030001156278,新規,0,2023-09-27,2023-09-27,Ｚ・Ｎ　ＣＯＲＰＯＲＡＴＩＯＮ株式会社,,株式会社,埼玉県,久喜市,栗橋東２丁目１３番３０－２号サンハイツ１０２,,11,232,3491103,,,,,,,2023-09-27,1,,,,,ゼッドエヌコーポレーション,0
1715,7030001156303,新規,0,2023-09-27,2023-09-27,旭日株式会社,,株式会社,埼玉県,八潮市,大字西袋６７６番地２２－１０１号室,,11,234,3400833,,,,,,,2023-09-27,1,,,,,アサヒ,0
1720,7030003022528,新規,0,2023-09-27,2023-09-27,ｗｏｏｄｆｉｅｌｄ合同会社,,合同会社,埼玉県,さいたま市大宮区,櫛引町１丁目３２４番地２－３１５,,11,103,3300851,,,,,,,2023-09-27,1,,,,,ウッドフィールド,0
1721,7030003022643,新規,0,2023-09-27,2023-09-27,合同会社ｓｔａｒａ　ｌｉｎｋ,,合同会社,埼玉県,越谷市,大字袋山１３４７－５,,11,222,3430032,,,,,,,2023-09-27,1,,,,,スタラリンク,0
1726,7040001130208,新規,0,2023-09-27,2023-09-27,株式会社ＦＩＮＤ　ＣＬＡＳＳ,,株式会社,千葉県,市原市,飯沼７７１番地１４,,12,219,2900037,,,,,,,2023-09-27,1,,,,,ファインドクラス,0
1727,7040001130216,新規,0,2023-09-27,2023-09-27,株式会社紡ぎ舎,,株式会社,千葉県,習志野市,東習志野２丁目１８番５５－６１２号室,,12,216,2750001,,,,,,,2023-09-27,1,,,,,ツムギヤ,0
1728,7040001130232,新規,0,2023-09-27,2023-09-27,ブルーアース株式会社,,株式会社,千葉県,千葉市花見川区,花見川４－９－４１２,,12,102,2620046,,,,,,,2023-09-27,1,,,,,ブルーアース,0
1729,7040001130298,新規,0,2023-09-27,2023-09-27,株式会社皆瀬工業,,株式会社,千葉県,富里市,七栄７７８番地９,,12,233,2860221,,,,,,,2023-09-27,1,,,,,ミナセコウギョウ,0
1731,7040005022129,新規,0,2023-09-27,2023-09-27,一般社団法人ＬｅａＬｅａ,,その他の設立登記法人,千葉県,柏市,豊四季６４５番地の８,,12,217,2770863,,,,,,,2023-09-27,1,,,,,レアレア,0
1736,7050001053523,新規,0,2023-09-27,2023-09-27,がんばろう日本株式会社,,株式会社,茨城県,筑西市,黒子７６番地６,,08,227,3080102,,,,,,,2023-09-27,1,,,,,ガンバロウニッポン,0
1737,7050001053531,新規,0,2023-09-27,2023-09-27,株式会社一武工業,,株式会社,茨城県,神栖市,横瀬９００番地１２,,08,232,3140113,,,,,,,2023-09-27,1,,,,,イチブコウギョウ,0
1738,7050003007808,新規,0,2023-09-27,2023-09-27,ＡＭＩＲ　ＫＨＡＮ　ＴＲＡＤＩＮＧ合同会社,,合同会社,茨城県,坂東市,駒跿９５０番地３４,,08,228,3060653,,,,,,,2023-09-27,1,,,,,アミールカーントレーディング,0
1740,7060001036378,新規,0,2023-09-27,2023-09-27,瀬下自動車株式会社,,株式会社,栃木県,栃木市,大皆川町４１５,,09,203,3280068,,,,,,,2023-09-27,1,,,,,セシタジドウシャ,0
1746,7080001025874,新規,0,2023-09-27,2023-09-27,望電株式会社,,株式会社,静岡県,藤枝市,谷稲葉１３９番地の１,,22,214,4260083,,,,,,,2023-09-27,1,,,,,モチデン,0
1753,7080401026753,新規,0,2023-09-27,2023-09-27,株式会社ＢＩＲＤＴＯＮＥ,,株式会社,静岡県,浜松市中区,板屋町１０２－１５,,22,131,4300928,,,,,,,2023-09-27,1,,,,,バードトーン,0
1756,7100001036811,新規,0,2023-09-27,2023-09-27,株式会社ＥＬＥＴＥＣＴ,,株式会社,長野県,小諸市,甲１６４９番地１３,,20,208,3840801,,,,,,,2023-09-27,1,,,,,エレテクト,0
1759,7110001037866,新規,0,2023-09-27,2023-09-27,株式会社ひとりあそび,,株式会社,新潟県,南魚沼市,六日町４７９番地久保田ビル１Ｆ,,15,226,9496680,,,,,,,2023-09-27,1,,,,,ヒトリアソビ,0
1776,7120001258305,新規,0,2023-09-27,2023-09-27,株式会社日鋼,,株式会社,大阪府,大阪市中央区,久太郎町４丁目２番９号,,27,128,5410056,,,,,,,2023-09-27,1,,,,,ニッコウ,0
1777,7120001258313,新規,0,2023-09-27,2023-09-27,ＮＡＮＯ　ＳＴＡＲＴ株式会社,,株式会社,大阪府,大阪市浪速区,敷津西１丁目６番２２－７０１号,,27,111,5560015,,,,,,,2023-09-27,1,,,,,ナノスタート,0
1778,7120001258338,新規,0,2023-09-27,2023-09-27,ＹＩＲ株式会社,,株式会社,大阪府,枚方市,東山２丁目４１番地の３１,,27,210,5731114,,,,,,,2023-09-27,1,,,,,ワイアイアール,0
1779,7120001258346,新規,0,2023-09-27,2023-09-27,ＮＧＩ株式会社,,株式会社,大阪府,大阪市中央区,南本町２丁目４－１６本町デビスビル６階０９号,,27,128,5410054,,,,,,,2023-09-27,1,,,,,エヌジーアイ,0
1780,7120001258362,新規,0,2023-09-27,2023-09-27,株式会社Ｐａｎｉｓｓｉｍｏ,,株式会社,大阪府,大阪市東成区,中道４丁目５番１４－１０５号,,27,115,5370025,,,,,,,2023-09-27,1,,,,,パニッシモ,0
1781,7120001258370,新規,0,2023-09-27,2023-09-27,株式会社志庵,,株式会社,大阪府,大阪市北区,中津３丁目７番５６－１３０２号,,27,127,5310071,,,,,,,2023-09-27,1,,,,,シアン,0
1790,7120101068265,新規,0,2023-09-27,2023-09-27,株式会社ＭＧ　ｓｔｏｃｋ　ｉｎｖｅｓｔｍｅｎｔ,,株式会社,大阪府,堺市南区,槇塚台２丁１番３号,,27,145,5900114,,,,,,,2023-09-27,1,,,,,エムジーストックインベストメント,0
1792,7120901048086,新規,0,2023-09-27,2023-09-27,Ｔｏｒｉｓｈｉｍａ‐ＡＥＳＳＥＡＬ　Ｊａｐａｎ株式会社,,株式会社,大阪府,高槻市,宮田町１丁目１番８号,,27,207,5691142,,,,,,,2023-09-27,1,,,,,トリシマエーイーエスシールジャパン,0
1793,7120901048094,新規,0,2023-09-27,2023-09-27,株式会社アリスト,,株式会社,大阪府,吹田市,千里山竹園１丁目６番３－５１２,,27,205,5650852,,,,,,,2023-09-27,1,,,,,アリスト,0
1796,7130001075278,新規,0,2023-09-27,2023-09-27,彦根相互トラック株式会社,,株式会社,京都府,京都市左京区,下鴨北園町９４番地４,,26,103,6060831,,,,,,,2023-09-27,1,,,,,ヒコネソウゴトラック,0
1797,7130001075286,新規,0,2023-09-27,2023-09-27,株式会社Ｍ＆Ｂ企画,,株式会社,京都府,京都市北区,紫野下築山町７５番地,,26,101,6038222,,,,,,,2023-09-27,1,,,,,エムアンドビーキカク,0
1801,7140001131749,新規,0,2023-09-27,2023-09-27,誠怡商事株式会社,,株式会社,兵庫県,西宮市,津田町２番２９号,,28,204,6620853,,,,,,,2023-09-27,1,,,,,セイイショウジ,0
1805,7170001017796,新規,0,2023-09-27,2023-09-27,ＡＭＯＲＥ株式会社,,株式会社,和歌山県,田辺市,あけぼの３７番１７号２Ｆ,,30,206,6460021,,,,,,,2023-09-27,1,,,,,アモレ,0
1815,7180301037840,新規,0,2023-09-27,2023-09-27,株式会社荒川工業,,株式会社,愛知県,豊橋市,西幸町字古並１番地１９,,23,201,4418113,,,,,,,2023-09-27,1,,,,,アラカワコウギョウ,0
1816,7180301037849,新規,0,2023-09-27,2023-09-27,株式会社ＮＰ総合サービス,,株式会社,愛知県,高浜市,芳川町３丁目８番地３２,,23,227,4441335,,,,,,,2023-09-27,1,,,,,エヌピーソウゴウサービス,0
1817,7180303005845,新規,0,2023-09-27,2023-09-27,合同会社ＬＵＣＩＡ,,合同会社,愛知県,岡崎市,城北町六丁目１４番地スカイコートマーヴィアイ２０１,,23,202,4440064,,,,,,,2023-09-27,1,,,,,ルシア,0
1840,7290001103147,新規,0,2023-09-27,2023-09-27,株式会社Ｇｅｎｅｒａｌ,,株式会社,福岡県,糸島市,波多江駅北４丁目５番１１号,,40,230,8191107,,,,,,,2023-09-27,1,,,,,ジェネラル,0
1845,7290801029896,新規,0,2023-09-27,2023-09-27,株式会社宮崎建設,00132049,株式会社,福岡県,直方市,大字直方２６７番地１,,40,204,8220016,,,,,,,2023-09-27,1,,,,,ミヤザキケンセツ,0
1846,7310005008711,新規,0,2023-09-27,2023-09-27,一般社団法人地域インバウンド振興協会,,その他の設立登記法人,長崎県,佐世保市,俵町６番２１号,,42,202,8570016,,,,,,,2023-09-27,1,,,,,チイキインバウンドシンコウキョウカイ,0
1849,7340003004263,新規,0,2023-09-27,2023-09-27,合同会社平田,,合同会社,鹿児島県,鹿児島市,宇宿７丁目６番１８号エスポワール１０１号,,46,201,8900073,,,,,,,2023-09-27,1,,,,,ヒラタ,0
1851,7360001032594,新規,0,2023-09-27,2023-09-27,株式会社船道土木,,株式会社,沖縄県,石垣市,字真栄里１６３番地１０,,47,207,9070002,,,,,,,2023-09-27,1,,,,,フナミチドボク,0
1852,7380001034003,新規,0,2023-09-27,2023-09-27,株式会社ドリーム・ワーク,,株式会社,福島県,福島市,大町５番１５号,,07,201,9608041,,,,,,,2023-09-27,1,,,,,ドリームワーク,0
1858,7430001090032,新規,0,2023-09-27,2023-09-27,株式会社エイト,,株式会社,北海道,札幌市西区,二十四軒四条５丁目５番１号,,01,107,0630804,,,,,,,2023-09-27,1,,,,,エイト,0
1859,7430001090049,新規,0,2023-09-27,2023-09-27,ＮｅｘｔＬｉｆｅ株式会社,,株式会社,北海道,石狩市,花川北二条６丁目２０１番地,,01,235,0613212,,,,,,,2023-09-27,1,,,,,ネクストライフ,0
1860,7430001090057,新規,0,2023-09-27,2023-09-27,株式会社ライブコード,,株式会社,北海道,札幌市中央区,大通西２２丁目１番２３号,,01,101,0640820,,,,,,,2023-09-27,1,,,,,ライブコード,0
1861,7430001090065,新規,0,2023-09-27,2023-09-27,株式会社Ｎａｎａｉｒｏ,,株式会社,北海道,札幌市中央区,南一条西１６丁目１番地３２３春野ビル３Ｆ,,01,101,0600061,,,,,,,2023-09-27,1,,,,,ナナイロ,0
1864,7430003015474,新規,0,2023-09-27,2023-09-27,合同会社あかよこ,,合同会社,北海道,札幌市南区,澄川五条６丁目４－１０パークハイム澄川南３０３,,01,106,0050005,,,,,,,2023-09-27,1,,,,,アカヨコ,0
1869,7500001025212,新規,0,2023-09-27,2023-09-27,株式会社ナノリューション,,株式会社,愛媛県,伊予郡松前町,大字筒井２０３番地,,38,401,7913120,,,,,,,2023-09-27,1,,,,,ナノリューション,0
1871,7700150120776,新規,0,2023-09-27,2023-09-27,Ｇｕａｎｇｚｈｏｕ　Ｗａｎｈａｉｚｈｉｘｉｎｇ　Ｉｎｔｅｒｎａｔｉｏｎａｌ　Ｆｒｅｉｇｈｔ　Ｆｏｒｗａｒｄｉｎｇ　Ｃｏ．，Ｌｔｄ．,,外国会社等,,,,,,,,Ｒｏｏｍ　１０１，Ｎｏ．６０，Ｈｕａｎｇｓｈｉ　Ｗｅｓｔ　Ｒｏａｄ，Ｂａｉｙｕｎ　Ｄｉｓｔｒｉｃｔ，Ｇｕａｎｇｚｈｏｕ．Ｃｈｉｎａ,,,,,,2023-09-27,1,,,,,カントンワンハイツーシングインターナシヨナルフレイトフオワーデイングカンパニーリミテツド,0
1873,8010001238622,新規,0,2023-09-27,2023-09-27,株式会社ユーフォニー,,株式会社,東京都,千代田区,神田佐久間町２丁目１番地,,13,101,1010025,,,,,,,2023-09-27,1,,,,,ユーフォニー,0
1874,8010001238762,新規,0,2023-09-27,2023-09-27,ＧＣＬ　Ｔｅｃｈｎｏｌｏｇｙ　Ｎｉｈｏｎ株式会社,,株式会社,東京都,千代田区,内幸町２丁目１番１号,,13,101,1000011,,,,,,,2023-09-27,1,,,,,ジーシーエルテクノロジーニホン,0
1875,8010001238779,新規,0,2023-09-27,2023-09-27,株式会社ＳＤネクスト,,株式会社,東京都,千代田区,九段南４丁目８番３５号,,13,101,1020074,,,,,,,2023-09-27,1,,,,,エスディネクスト,0
1893,8010401177321,新規,0,2023-09-27,2023-09-27,株式会社亜門,,株式会社,東京都,港区,南青山６丁目１２番３号南青山ユニハイツ８０６,,13,103,1070062,,,,,,,2023-09-27,1,,,,,アモン,0
1894,8010401177338,新規,0,2023-09-27,2023-09-27,Ａｒｔｅｌｌｉ　Ｍｅｔａｖｅｒｓｅ　Ｊａｐａｎ　Ｌｉｍｉｔｅｄ株式会社,,株式会社,東京都,港区,元麻布３丁目１番６号,,13,103,1060046,,,,,,,2023-09-27,1,,,,,アーテッリメタヴァースジャパンリミテッド,0
1895,8010401177362,新規,0,2023-09-27,2023-09-27,アドウーノ株式会社,,株式会社,東京都,港区,西新橋１丁目１９番６号,,13,103,1050003,,,,,,,2023-09-27,1,,,,,アドウーノ,0
1896,8010401177379,新規,0,2023-09-27,2023-09-27,株式会社音葉,,株式会社,東京都,港区,南麻布４丁目１１番２号,,13,103,1060047,,,,,,,2023-09-27,1,,,,,オトハ,0
1902,8010601063841,新規,0,2023-09-27,2023-09-27,真鍋工業株式会社,,株式会社,東京都,江東区,南砂５丁目１６番４－５０２号,,13,108,1360076,,,,,,,2023-09-27,1,,,,,マナベコウギョウ,0
1903,8010603010379,新規,0,2023-09-27,2023-09-27,ＣＵＯＲＥ合同会社,,合同会社,東京都,墨田区,立川１丁目１３番１１－７０２号,,13,107,1300023,,,,,,,2023-09-27,1,,,,,クオーレ,0
1912,8011003017601,新規,0,2023-09-27,2023-09-27,合同会社オノ・アンド・カンパニー,,合同会社,東京都,渋谷区,道玄坂１丁目１０番８号渋谷道玄坂東急ビル２Ｆ－Ｃ,,13,113,1500043,,,,,,,2023-09-27,1,,,,,オノアンドカンパニー,0
1917,8011101104466,新規,0,2023-09-27,2023-09-27,エムピーエフエージェンシー株式会社,,株式会社,東京都,新宿区,西新宿６丁目１２番４号,,13,104,1600023,,,,,,,2023-09-27,1,,,,,エムピーエフエージェンシー,0
1918,8011101104508,新規,0,2023-09-27,2023-09-27,ルネッサンスアート株式会社,,株式会社,東京都,新宿区,左門町１番地５,,13,104,1600017,,,,,,,2023-09-27,1,,,,,ルネッサンスアート,0
1921,8011305002937,新規,0,2023-09-27,2023-09-27,ＮＰＯ法人災害時警友活動支援ネットワーク,,その他の設立登記法人,東京都,杉並区,梅里２丁目４０番２４号,,13,115,1660011,,,,,,,2023-09-27,1,,,,,サイガイジケイユウカツドウシエンネットワーク,0
1928,8011703003603,新規,0,2023-09-27,2023-09-27,合同会社Ｒｅａｒｎ,,合同会社,東京都,江戸川区,清新町２丁目４番１１－２０８号,,13,123,1340087,,,,,,,2023-09-27,1,,,,,ラーン,0
1939,8011803005854,新規,0,2023-09-27,2023-09-27,合同会社Ｍｏｎｔａｇｅ,,合同会社,東京都,足立区,南花畑５丁目３番１５号,,13,121,1210062,,,,,,,2023-09-27,1,,,,,モンタージュ,0
1948,8020001153589,新規,0,2023-09-27,2023-09-27,角田塗装株式会社,,株式会社,神奈川県,横浜市栄区,鍛冶ケ谷１丁目１９番４号,,14,115,2470009,,,,,,,2023-09-27,1,,,,,ツノダトソウ,0
1953,8020003024656,新規,0,2023-09-27,2023-09-27,Ｃｈｉｌｄ‐Ｌｉｆｅｓ合同会社,,合同会社,神奈川県,川崎市川崎区,駅前本町１１番地２川崎フロンティアビル４階アントレサロン内,,14,131,2100007,,,,,,,2023-09-27,1,,,,,チャイルドライフェス,0
1954,8020005016131,新規,0,2023-09-27,2023-09-27,一般社団法人全国個人事業主連合会,,その他の設立登記法人,神奈川県,横浜市西区,北幸１丁目１番８号エキニア横浜５０３,,14,103,2200004,,,,,,,2023-09-27,1,,,,,ゼンコクコジンジギョウヌシレンゴウカイ,0
1971,8030001156021,新規,0,2023-09-27,2023-09-27,株式会社ジョイボックス,,株式会社,埼玉県,さいたま市南区,文蔵３丁目２８番地６号１０２号棟２０２室,,11,108,3360025,,,,,,,2023-09-27,1,,,,,ジョイボックス,0
1972,8030001156260,新規,0,2023-09-27,2023-09-27,株式会社スタジオバード,,株式会社,埼玉県,蕨市,中央２丁目１番２２号,,11,223,3350004,,,,,,,2023-09-27,1,,,,,スタジオバード,0
1979,8040003023391,新規,0,2023-09-27,2023-09-27,ＮＥＴＨＵ　ＥＮＴＥＲＰＲＩＳＥＳ合同会社,,合同会社,千葉県,山武市,横田５２１番地１,,12,237,2891226,,,,,,,2023-09-27,1,,,,,ネトゥエンタープライズ,0
1980,8040003023400,新規,0,2023-09-27,2023-09-27,ＲＳＧ合同会社,,合同会社,千葉県,大網白里市,南横川３１４６－５,,12,239,2993223,,,,,,,2023-09-27,1,,,,,レッドサンズグループ,0
1981,8040003023409,新規,0,2023-09-27,2023-09-27,合同会社ＴＯＴＡＬ　ＰＡＩＮＴ,,合同会社,千葉県,千葉市若葉区,千城台西３番地９・３棟４０２号,,12,104,2640000,,,,,,,2023-09-27,1,,,,,トータルペイント,0
1984,8050001053522,新規,0,2023-09-27,2023-09-27,Ｄ．Ｋ．ＩＮＴＥＲＮＡＴＩＯＮＡＬ株式会社,,株式会社,茨城県,下妻市,皆葉４８１番地１,,08,210,3040822,,,,,,,2023-09-27,1,,,,,ディーケーインターナショナル,0
1985,8050001053530,新規,0,2023-09-27,2023-09-27,株式会社アラキマーブル,,株式会社,茨城県,筑西市,横島８９５番地３,,08,227,3080802,,,,,,,2023-09-27,1,,,,,アラキマーブル,0
1986,8050001053547,新規,0,2023-09-27,2023-09-27,三九産業株式会社,,株式会社,茨城県,常総市,豊岡町丙２９９３番地の４,,08,211,3030041,,,,,,,2023-09-27,1,,,,,サンキュウサンギョウ,0
1995,8080101024239,新規,0,2023-09-27,2023-09-27,株式会社ブライトホーム,,株式会社,静岡県,沼津市,大岡２８９３番地の４３,,22,203,4100022,,,,,,,2023-09-27,1,,,,,ブライトホーム,0
2004,8120001258287,新規,0,2023-09-27,2023-09-27,株式会社Ｆｏｌｌｏｗ　Ｓｈｉｐ,,株式会社,大阪府,大阪市北区,梅田１丁目２番２号大阪駅前第２ビル１２－１２,,27,127,5300001,,,,,,,2023-09-27,1,,,,,フォローシップ,0
2005,8120001258295,新規,0,2023-09-27,2023-09-27,ＴＥＴＥ株式会社,,株式会社,大阪府,大阪市東住吉区,北田辺６丁目１１番８号,,27,121,5460044,,,,,,,2023-09-27,1,,,,,テテ,0
2006,8120001258337,新規,0,2023-09-27,2023-09-27,株式会社ＳＡＲ,,株式会社,大阪府,大阪市中央区,日本橋１丁目２２－７ＴＬＲレジデンス難波東７０５号室,,27,128,5420073,,,,,,,2023-09-27,1,,,,,エスエーアール,0
2007,8120001258353,新規,0,2023-09-27,2023-09-27,ＫＲＫ株式会社,,株式会社,大阪府,大阪市東成区,東今里３丁目８番１１号,,27,115,5370011,,,,,,,2023-09-27,1,,,,,ケーアールケー,0
2008,8120001258361,新規,0,2023-09-27,2023-09-27,株式会社エスペランサ,,株式会社,大阪府,寝屋川市,池田本町３０番３号,,27,215,5720030,,,,,,,2023-09-27,1,,,,,エスペランサ,0
2012,8120003024951,新規,0,2023-09-27,2023-09-27,合同会社プリンセスコレクション,,合同会社,大阪府,大阪市北区,兎我野町１５－１９川奈ビル,,27,127,5300056,,,,,,,2023-09-27,1,,,,,プリンセスコレクション,0
2013,8120003024968,新規,0,2023-09-27,2023-09-27,合同会社ｓｕｎｌｉｎｋ,,合同会社,大阪府,大阪市北区,梅田１丁目１－３大阪駅前第３ビル２９階１－１－１号室,,27,127,5300001,,,,,,,2023-09-27,1,,,,,サンリンク,0
2014,8120003024976,新規,0,2023-09-27,2023-09-27,合同会社ｉｔｏ,,合同会社,大阪府,大阪市阿倍野区,阿倍野筋３丁目１０－１あべのベルタ２０８号,,27,119,5450052,,,,,,,2023-09-27,1,,,,,アイティオ,0
2020,8122001037398,新規,0,2023-09-27,2023-09-27,株式会社山崎家,,株式会社,大阪府,八尾市,春日町４丁目５番２２号,,27,212,5810061,,,,,,,2023-09-27,1,,,,,ヤマサキケ,0
2023,8130001075269,新規,0,2023-09-27,2023-09-27,株式会社美乃史,,株式会社,京都府,京都市東山区,祇園町南側５７０番地１２２,,26,105,6050074,,,,,,,2023-09-27,1,,,,,ミノフミ,0
2048,8180001158176,新規,0,2023-09-27,2023-09-27,株式会社スカイコンサルティング,,株式会社,愛知県,名古屋市千種区,覚王山通９丁目２１番地２和田ビル２階,,23,101,4640841,,,,,,,2023-09-27,1,,,,,スカイコンサルティング,0
2049,8180001158184,新規,0,2023-09-27,2023-09-27,株式会社Ａ．Ｓ．Ｍ．ｉｎｓｐｅｃｔｉｏｎ,,株式会社,愛知県,尾張旭市,白鳳町２丁目５５番地,,23,226,4880858,,,,,,,2023-09-27,1,,,,,エーエスエムインスペクション,0
2053,8180003025795,新規,0,2023-09-27,2023-09-27,ＰＬＵＳ　ＵＬＴＲＡ合同会社,,合同会社,愛知県,名古屋市中村区,名駅南２丁目７番６７号（パークアクシス名駅南１３０４号）,,23,105,4500003,,,,,,,2023-09-27,1,,,,,プルスウルトラ,0
2056,8180301037831,新規,0,2023-09-27,2023-09-27,株式会社ＢＯＯＳＴ,,株式会社,愛知県,みよし市,三好丘１丁目１３番地３,,23,236,4700202,,,,,,,2023-09-27,1,,,,,ブースト,0
2058,8180303005844,新規,0,2023-09-27,2023-09-27,合同会社Ｒ,,合同会社,愛知県,豊橋市,岩屋町字岩屋下２１番地３,,23,201,4400842,,,,,,,2023-09-27,1,,,,,アール,0
2068,8230001020033,新規,0,2023-09-27,2023-09-27,東和株式会社,,株式会社,富山県,富山市,五福３７３４番地３,,16,201,9300887,,,,,,,2023-09-27,1,,,,,トウワ,0
2069,8240001062165,新規,0,2023-09-27,2023-09-27,津村産業株式会社,,株式会社,広島県,広島市安佐南区,長楽寺１丁目８６番２２号,,34,105,7310143,,,,,,,2023-09-27,1,,,,,ツムラサンギョウ,0
2074,8270003001564,新規,0,2023-09-27,2023-09-27,合同会社マルチワークス,,合同会社,鳥取県,鳥取市,緑ケ丘１丁目８３５番地１３,,31,201,6800915,,,,,,,2023-09-27,1,,,,,マルチワークス,0
2078,8290001103162,新規,0,2023-09-27,2023-09-27,株式会社Ｎ．Ｙ,,株式会社,福岡県,福岡市中央区,今泉１丁目２番２０号,,40,133,8100021,,,,,,,2023-09-27,1,,,,,エヌワイ,0
2079,8290003014408,新規,0,2023-09-27,2023-09-27,合同会社エピセ,,合同会社,福岡県,久留米市,西町８０２番地１２,,40,203,8300038,,,,,,,2023-09-27,1,,,,,エピセ,0
2084,8330003009989,新規,0,2023-09-27,2023-09-27,合同会社心創,,合同会社,熊本県,熊本市東区,水源２丁目２５番１２号,,43,102,8620907,,,,,,,2023-09-27,1,,,,,シンソウ,0
2097,8380001034010,新規,0,2023-09-27,2023-09-27,株式会社不動産や１番地,,株式会社,福島県,郡山市,並木２丁目１８番地の９,,07,203,9638026,,,,,,,2023-09-27,1,,,,,フドウサンヤイチバンチ,0
2099,8390005009032,新規,0,2023-09-27,2023-09-27,一般社団法人ガジュマルの木,,その他の設立登記法人,山形県,米沢市,福田町１丁目１番１４２号,,06,202,9920033,,,,,,,2023-09-27,1,,,,,ガジュマルノキ,0
2100,8400001016393,新規,0,2023-09-27,2023-09-27,ＴＯＭＩ株式会社,,株式会社,岩手県,一関市,萩荘字下中田６０番地アレグリアス７０２,,03,209,0210902,,,,,,,2023-09-27,1,,,,,トミ,0
2108,8430001090048,新規,0,2023-09-27,2023-09-27,住まいる株式会社,,株式会社,北海道,札幌市中央区,南九条西４丁目７番１－７２０号,,01,101,0640809,,,,,,,2023-09-27,1,,,,,スマイル,0
2109,8430001090056,新規,0,2023-09-27,2023-09-27,株式会社Ｅｚｏ　Ｄｅｖｅｌｏｐｍｅｎｔ　Ｃｏｍｍｉｓｓｉｏｎ,,株式会社,北海道,札幌市中央区,北三条東１１丁目３３８番地Ａ２４０８,,01,101,0600033,,,,,,,2023-09-27,1,,,,,エゾデベロップメントコミッション,0
2110,8430001090064,新規,0,2023-09-27,2023-09-27,株式会社永悳,,株式会社,北海道,小樽市,勝納町８番４６号,,01,203,0470005,,,,,,,2023-09-27,1,,,,,エイトク,0
2114,8430003015473,新規,0,2023-09-27,2023-09-27,合同会社Ｂｒｉｌｌｉａｎｔ　Ｊａｐａｎ,,合同会社,北海道,札幌市北区,北二十六条西１４丁目１番１０号,,01,102,0010026,,,,,,,2023-09-27,1,,,,,ブリリアントジャパン,0
2115,8440001009328,新規,0,2023-09-27,2023-09-27,株式会社Ｋ‐ＯＦＦＩＣＥ,,株式会社,北海道,函館市,神山１丁目２６番５号,,01,202,0410832,,,,,,,2023-09-27,1,,,,,ケーオフィス,0
2119,8470001019828,新規,0,2023-09-27,2023-09-27,坂口電水サービス株式会社,,株式会社,香川県,高松市,円座町１９３６番地,,37,201,7618044,,,,,,,2023-09-27,1,,,,,サカグチデンスイサービス,0
2124,8700150120759,新規,0,2023-09-27,2023-09-27,ｎａｎｎｉｎｇｒｕｉｘｉｘｉａｎｇｆｅｉｄｉａｎｚｉｓｈａｎｇｗｕｙｏｕｘｉａｎｇｏｎｇｓｉ,,外国会社等,,,,,,,,ｎａｎｎｉｎｇｓｈｉｗｕｍｉｎｇｑｕｂｉａｏｙｉｎｇｓｈｅｑｕｂｉａｏｙｉｎｇｘｉｎｑｕｗｅｉｙｉｌｕ１ｈａｏｈｅｎｇｔａｉｌｉｙｕａｎ５ｄｏｎｇｂｉｎｇｄａｎｙｕａｎ１３０１ｈａｏｆａｎｇ,,,,,,2023-09-27,1,,,,,ナンニンルイシーシャンフェイディエンズーシャンウーヨウシエンゴンスー,0
2125,8700150120767,新規,0,2023-09-27,2023-09-27,Ｙｉｗｕ　Ｌｕｏｆｕ　Ｅｌｅｃｔｒｏｎｉｃ　Ｂｕｓｉｎｅｓｓ　Ｃｏｍｐａｎｙ　Ｌｉｍｉｔｅｄ,,外国会社等,,,,,,,,Ｂｅｉｙｕａｎ　ｊｉｅｄａｏ　ｃｈｕｎｈｕａ　ｌｕ　５８８　ｈａｏＣ１－７０７　Ｙｉｗｕ　Ｚｈｅｊｉａｎｇ,,,,,,2023-09-27,1,,,,,イーウールオフーディエンズーシャンウーヨウシエンゴンスー,0
2126,8700150120775,新規,0,2023-09-27,2023-09-27,ＣＨＲＩＳＴＯＰＨＥＲ　ＤＲＹＭＡＬＬＡ　ＰＣ,,外国会社等,,,,,,,,４０１　Ｃｏｎｇｒｅｓｓ　Ａｖｅｎｕｅ，Ｓｕｉｔｅ　１７００，Ａｕｓｔｉｎ，ＴＸ　７８７０１－３７９７，ＵＳＡ,,,,,,2023-09-27,1,,,,,クリストフアードライマラピーシー,0
2131,9010001238729,新規,0,2023-09-27,2023-09-27,株式会社ＭＤＸ総合研究所,,株式会社,東京都,中央区,銀座１丁目１２番４号Ｎ＆ＥＢＬＤ．６Ｆ,,13,102,1040061,,,,,,,2023-09-27,1,,,,,エムディーエックスソウゴウケンキュウジョ,0
2137,9010401177304,新規,0,2023-09-27,2023-09-27,株式会社ランタン,,株式会社,東京都,港区,港南１丁目９番３６号アレア品川１３階,,13,103,1080075,,,,,,,2023-09-27,1,,,,,ランタン,0
2144,9010503007169,新規,0,2023-09-27,2023-09-27,合同会社元嶋商会,,合同会社,東京都,台東区,鳥越１丁目２１番６号,,13,106,1110054,,,,,,,2023-09-27,1,,,,,モトジマショウカイ,0
2155,9010903008469,新規,0,2023-09-27,2023-09-27,合同会社ＩＴＭ,,合同会社,東京都,世田谷区,喜多見７丁目１８番１２号,,13,112,1570067,,,,,,,2023-09-27,1,,,,,アイティーエム,0
2158,9011001156929,新規,0,2023-09-27,2023-09-27,株式会社ガジェピクセル,,株式会社,東京都,渋谷区,渋谷２丁目１９－１５宮益坂ビルディング６０９,,13,113,1500002,,,,,,,2023-09-27,1,,,,,ガジェピクセル,0
2159,9011001157118,新規,0,2023-09-27,2023-09-27,株式会社ＭｅｌｌｏｗＹｅｌｌｏｗＬａｂ,,株式会社,東京都,渋谷区,千駄ヶ谷４丁目２７番１号ソフィエ北参道３０２号室,,13,113,1510051,,,,,,,2023-09-27,1,,,,,メローイエローラボ,0
2160,9011001157167,新規,0,2023-09-27,2023-09-27,Ｘ＆Ｃｏ．株式会社,,株式会社,東京都,渋谷区,神泉町１０番１５号Ａｎｎｅｘ神泉１００１,,13,113,1500045,,,,,,,2023-09-27,1,,,,,エックスアンドコー,0
2164,9011103013524,新規,0,2023-09-27,2023-09-27,合同会社ＹＭＴ,,合同会社,東京都,新宿区,原町３丁目２１番地１,,13,104,1620053,,,,,,,2023-09-27,1,,,,,ワイエムティ,0
2167,9011401025477,新規,0,2023-09-27,2023-09-27,五木株式会社,,株式会社,東京都,板橋区,上板橋３丁目１１番１１－３０２号,,13,119,1740076,,,,,,,2023-09-27,1,,,,,イツキ,0
2173,9011701026613,新規,0,2023-09-27,2023-09-27,七賢株式会社,,株式会社,東京都,江戸川区,松江２丁目１－１３－３０１号室,,13,123,1320025,,,,,,,2023-09-27,1,,,,,シチケン,0
2174,9011703003602,新規,0,2023-09-27,2023-09-27,ＬＩＮＨ　ＴＵＮＧ合同会社,,合同会社,東京都,江戸川区,大杉４丁目１３番２号２０２,,13,123,1320022,,,,,,,2023-09-27,1,,,,,リントウン,0
2177,9011803005853,新規,0,2023-09-27,2023-09-27,合同会社ｏｆｆｉｃｅ　ＡＩ,,合同会社,東京都,足立区,加賀２丁目６－１７,,13,121,1230861,,,,,,,2023-09-27,1,,,,,オフィスエーアイ,0
2181,9012801022650,新規,0,2023-09-27,2023-09-27,株式会社ＢＴＣ,,株式会社,東京都,立川市,一番町１丁目４１番地１１,,13,202,1900033,,,,,,,2023-09-27,1,,,,,ビーティーシー,0
2194,9020001153654,新規,0,2023-09-27,2023-09-27,株式会社ＯＮＥ‐ｏｎ‐ＯＮＥ,,株式会社,神奈川県,川崎市幸区,南幸町２丁目７９番地２イエリ川崎３０１,,14,132,2120016,,,,,,,2023-09-27,1,,,,,ワンオンワン,0
2201,9020005016130,新規,0,2023-09-27,2023-09-27,一般社団法人実りの森,,その他の設立登記法人,神奈川県,川崎市中原区,丸子通２丁目６７６番１０‐１３０２,,14,133,2110006,,,,,,,2023-09-27,1,,,,,ミノリノモリ,0
2206,9021001080252,新規,0,2023-09-27,2023-09-27,株式会社エムモット,,株式会社,神奈川県,大和市,上草柳９４番地３コンフォート緑野１０５号,,14,213,2420029,,,,,,,2023-09-27,1,,,,,エムモット,0
2207,9021001080269,新規,0,2023-09-27,2023-09-27,株式会社仁コーポレーション,,株式会社,神奈川県,茅ヶ崎市,菱沼３丁目１６番２２号,,14,207,2530011,,,,,,,2023-09-27,1,,,,,ジンコーポレーション,0
2216,9030001155880,新規,0,2023-09-27,2023-09-27,株式会社おとなり,,株式会社,埼玉県,川越市,久保町５－７,,11,201,3500055,,,,,,,2023-09-27,1,,,,,オトナリ,0
2217,9030001156235,新規,0,2023-09-27,2023-09-27,株式会社菅谷建設,,株式会社,埼玉県,所沢市,上新井５丁目１９番地の１－１０３,,11,208,3591142,,,,,,,2023-09-27,1,,,,,スガヤケンセツ,0
2218,9030001156243,新規,0,2023-09-27,2023-09-27,岩井産業株式会社,,株式会社,埼玉県,さいたま市大宮区,宮町１丁目９６番地,,11,103,3300802,,,,,,,2023-09-27,1,,,,,イワイサンギョウ,0
2219,9030001156251,新規,0,2023-09-27,2023-09-27,株式会社ルアン,,株式会社,埼玉県,熊谷市,原島９０５番地２,,11,202,3600811,,,,,,,2023-09-27,1,,,,,ルアン,0
2220,9030001156326,新規,0,2023-09-27,2023-09-27,株式会社ＫＩＺＥＮ,,株式会社,埼玉県,蕨市,中央２丁目３７番１４号,,11,223,3350004,,,,,,,2023-09-27,1,,,,,キゼン,0
2221,9030003022468,新規,0,2023-09-27,2023-09-27,ＲＹＯＳＥＩ　ＷＯＲＬＤ合同会社,,合同会社,埼玉県,さいたま市緑区,東大門２丁目２２－１アトーレ東大門３０２号室,,11,109,3360964,,,,,,,2023-09-27,1,,,,,リョーセイワールド,0
2222,9030003022501,新規,0,2023-09-27,2023-09-27,合同会社保育室黒ひげ先生,,合同会社,埼玉県,熊谷市,久下１２３６－１０,,11,202,3600026,,,,,,,2023-09-27,1,,,,,ホイクシツクロヒゲセンセイ,0
2223,9030003022633,新規,0,2023-09-27,2023-09-27,合同会社敬ａｉ,,合同会社,埼玉県,さいたま市岩槻区,加倉１丁目６番２５号,,11,110,3390056,,,,,,,2023-09-27,1,,,,,ケイアイ,0
2224,9030003022674,新規,0,2023-09-27,2023-09-27,ＭＡＮＡＲＵＰＡ　Ｐ合同会社,,合同会社,埼玉県,蕨市,南町１丁目９番１１号南荘２０１号,,11,223,3350003,,,,,,,2023-09-27,1,,,,,マナルパビ,0
2228,9040001129974,新規,0,2023-09-27,2023-09-27,株式会社鈴木興業,,株式会社,千葉県,千葉市稲毛区,園生町３４８番地７７,,12,103,2630051,,,,,,,2023-09-27,1,,,,,スズキコウギョウ,0
2235,9040003023390,新規,0,2023-09-27,2023-09-27,合同会社ＦＩＴアソシエイツ,,合同会社,千葉県,野田市,山崎１５６４番地の２１,,12,208,2780022,,,,,,,2023-09-27,1,,,,,フイットアソシエイツ,0
2236,9040003023399,新規,0,2023-09-27,2023-09-27,合同会社ＮＹＡＴ,,合同会社,千葉県,流山市,市野谷２０４番地の１２（運Ａ３－１街区３－２）,,12,220,2700137,,,,,,,2023-09-27,1,,,,,エヌワイエーティー,0
2238,9050001053538,新規,0,2023-09-27,2023-09-27,株式会社Ｌｏｇ,,株式会社,茨城県,北茨城市,磯原町豊田１２３５番地１,,08,215,3191543,,,,,,,2023-09-27,1,,,,,ログ,0
2239,9050001053546,新規,0,2023-09-27,2023-09-27,株式会社ｖｉｓｏｒｅ,,株式会社,茨城県,取手市,藤代５２７番地１６,,08,217,3001512,,,,,,,2023-09-27,1,,,,,ヴィソール,0
2243,9060003004728,新規,0,2023-09-27,2023-09-27,十八屋合同会社,,合同会社,栃木県,宇都宮市,若松原１丁目１１番２９号,,09,201,3210139,,,,,,,2023-09-27,1,,,,,ジュウハチヤ,0
2246,9070001040897,新規,0,2023-09-27,2023-09-27,Ｒ＆Ｍ株式会社,,株式会社,群馬県,前橋市,富田町１４８６番地３,,10,201,3792161,,,,,,,2023-09-27,1,,,,,アールアンドエム,0
2256,9110005016996,新規,0,2023-09-27,2023-09-27,農事組合法人にいがたアグリｎｅｔ,,その他の設立登記法人,新潟県,新潟市北区,葛塚３３４６,,15,101,9503321,,,,,,,2023-09-27,1,,,,,ニイガタアグリネット,0
2263,9120001258245,新規,0,2023-09-27,2023-09-27,株式会社Ｅｔｅｒｎｉｔｙ,,株式会社,大阪府,大阪市北区,豊崎３丁目１６番１６－８０６号,,27,127,5310072,,,,,,,2023-09-27,1,,,,,エターニティ,0
2264,9120001258261,新規,0,2023-09-27,2023-09-27,株式会社Ｒａｙ’ｓ,,株式会社,大阪府,大阪市鶴見区,安田２丁目２番６２号,,27,124,5380032,,,,,,,2023-09-27,1,,,,,レイズ,0
2265,9120001258286,新規,0,2023-09-27,2023-09-27,株式会社エヌ・ディ・ケイシステム,,株式会社,大阪府,大阪市都島区,中野町３丁目３番９号,,27,102,5340027,,,,,,,2023-09-27,1,,,,,エヌディケイシステム,0
2266,9120001258311,新規,0,2023-09-27,2023-09-27,Ｚ＆Ｊ株式会社,,株式会社,大阪府,大阪市中央区,内久宝寺町３丁目１番１４－２０１号,,27,128,5400013,,,,,,,2023-09-27,1,,,,,ゼットアンドジェイ,0
2267,9120001258344,新規,0,2023-09-27,2023-09-27,吉乃住建株式会社,,株式会社,大阪府,大阪市中央区,南本町１丁目４－６アーカス南本町９Ｆ,,27,128,5410054,,,,,,,2023-09-27,1,,,,,ヨシノジュウケン,0
2268,9120001258352,新規,0,2023-09-27,2023-09-27,株式会社Ｂｒｉｇｈｔｉｕｍ,,株式会社,大阪府,大阪市中央区,南船場３丁目７番２７号４－Ｆ,,27,128,5420081,,,,,,,2023-09-27,1,,,,,ブライティウム,0
2271,9120003024967,新規,0,2023-09-27,2023-09-27,ＳＫＴ合同会社,,合同会社,大阪府,大阪市天王寺区,東高津町１２番７－１９０５号,,27,109,5430021,,,,,,,2023-09-27,1,,,,,エスケーティー,0
2272,9120005023901,新規,0,2023-09-27,2023-09-27,一般社団法人凰仁会,,その他の設立登記法人,大阪府,大阪市北区,梅田１丁目２番２号大阪駅前第二ビル２階,,27,127,5300001,,,,,,,2023-09-27,1,,,,,コウジンカイ,0
2275,9120101068263,新規,0,2023-09-27,2023-09-27,三石リース株式会社,,株式会社,大阪府,堺市堺区,築港南町１番地１番,,27,141,5900987,,,,,,,2023-09-27,1,,,,,ミツイシリース,0
2277,9120103005454,新規,0,2023-09-27,2023-09-27,合同会社西村,,合同会社,大阪府,堺市中区,深井中町１９３７番地１１,,27,142,5998272,,,,,,,2023-09-27,1,,,,,ニシムラ,0
2279,9122001037406,新規,0,2023-09-27,2023-09-27,ｒｅｎａｔｕｓ株式会社,,株式会社,大阪府,四條畷市,南野２丁目１４番１５号,,27,229,5750021,,,,,,,2023-09-27,1,,,,,レナトス,0
2283,9130001075284,新規,0,2023-09-27,2023-09-27,株式会社ボヌール,,株式会社,京都府,京都市東山区,古門前通大和大路東入二丁目三吉町３３４番地ＳＲＳＸビル６階,,26,105,6050000,,,,,,,2023-09-27,1,,,,,ボヌール,0
2289,9140001131747,新規,0,2023-09-27,2023-09-27,株式会社ＴＯＬＩＮＫ,,株式会社,兵庫県,神戸市東灘区,西岡本２丁目２６－１パークスクエア岡本４３１号,,28,101,6580073,,,,,,,2023-09-27,1,,,,,トリンク,0
2294,9170003001929,新規,0,2023-09-27,2023-09-27,合同会社はな,,合同会社,和歌山県,橋本市,紀見３９７番地の１５,,30,203,6480052,,,,,,,2023-09-27,1,,,,,ハナ,0
2300,9180303005843,新規,0,2023-09-27,2023-09-27,合同会社ＬｉＮＫ,,合同会社,愛知県,豊橋市,岩屋町字岩屋２１番地３,,23,201,4400842,,,,,,,2023-09-27,1,,,,,,0
2305,9230001020032,新規,0,2023-09-27,2023-09-27,株式会社ＳＭＩＬＥ　ＩＮＴＥＲＮＡＴＩＯＮＡＬ,,株式会社,富山県,射水市,中央町１６番１４号兆鳥ビル３Ｆ,,16,211,9340012,,,,,,,2023-09-27,1,,,,,スマイルインターナショナル,0
2306,9240003006334,新規,0,2023-09-27,2023-09-27,合同会社ＨＯＰＰＩＮＧ,,合同会社,広島県,尾道市,土堂２丁目３－２３,,34,205,7220035,,,,,,,2023-09-27,1,,,,,ホッピング,0
2314,9290001103112,新規,0,2023-09-27,2023-09-27,ＪＢＩ株式会社,,株式会社,福岡県,糸島市,志登３０５番地３,,40,230,8191106,,,,,,,2023-09-27,1,,,,,ジェイビーアイ,0
2315,9290001103161,新規,0,2023-09-27,2023-09-27,株式会社ＴＩＤＥ,,株式会社,福岡県,福岡市博多区,上川端町１０番５号,,40,132,8120026,,,,,,,2023-09-27,1,,,,,タイド,0
2320,9290003014159,新規,0,2023-09-27,2023-09-27,合同会社ＨＯＰ,,合同会社,福岡県,福岡市博多区,築港本町９番５ＶＡＬＥＮＴＩＡ天神東５０２号,,40,132,8120021,,,,,,,2023-09-27,1,,,,,ホップ,0
2321,9290003014398,新規,0,2023-09-27,2023-09-27,合同会社直,,合同会社,福岡県,飯塚市,鯰田２５２５番地２６４,,40,205,8200001,,,,,,,2023-09-27,1,,,,,スナオ,0
2322,9290003014407,新規,0,2023-09-27,2023-09-27,合同会社横塚建設,,合同会社,福岡県,福岡市博多区,下川端町１０番１６号アメックス博多ベルテックステージ,,40,132,8120027,,,,,,,2023-09-27,1,,,,,ヨコツカケンセツ,0
2323,9290801029894,新規,0,2023-09-27,2023-09-27,株式会社ウェル・ネス,,株式会社,福岡県,北九州市小倉北区,金鶏町１２番９号,,40,106,8030843,,,,,,,2023-09-27,1,,,,,ウェルネス,0
2326,9310003004644,新規,0,2023-09-27,2023-09-27,合同会社フリージエン,,合同会社,長崎県,南島原市,深江町戊２９８６－３７,,42,214,8591505,,,,,,,2023-09-27,1,,,,,フリージエン,0
2334,9350001018584,新規,0,2023-09-27,2023-09-27,ｗｅｌｌｂｅｉｎｇ‐ｗｏｒｋｓ株式会社,,株式会社,宮崎県,日向市,大字財光寺９３８番地２,,45,206,8830021,,,,,,,2023-09-27,1,,,,,ウェルビーイングワークス,0
2335,9350003004442,新規,0,2023-09-27,2023-09-27,合同会社Ｓｔｕｄｉｏ　Ｔｒｉｐｒｏ　Ｓ,,合同会社,宮崎県,児湯郡木城町,大字椎木１７６９番地２,,45,404,8840102,,,,,,,2023-09-27,1,,,,,スタジオトリプルエス,0
2346,9400001016392,新規,0,2023-09-27,2023-09-27,株式会社ニコベース,,株式会社,岩手県,二戸市,石切所字荷渡１０番地４,,03,213,0286103,,,,,,,2023-09-27,1,,,,,ニコベース,0
2350,9430001090055,新規,0,2023-09-27,2023-09-27,株式会社真匠,,株式会社,北海道,札幌市東区,北四十条東１４丁目４番１２号クルーズハウス栄町２０２号,,01,103,0070840,,,,,,,2023-09-27,1,,,,,シンショウ,0
2352,9430003015480,新規,0,2023-09-27,2023-09-27,合同会社Ｄ’エージェント,,合同会社,北海道,札幌市南区,定山渓西二丁目４５番３号－５０５号室,,01,106,0612301,,,,,,,2023-09-27,1,,,,,ディエージェント,0
2363,9700150120758,新規,0,2023-09-27,2023-09-27,ｓｈｅｎｚｈｅｎｓｈｉ　ｓｉｚｅｔｏｎｇｍａｏｙｉｙｏｕｘｉａｎｇｏｎｇｓｉ,,外国会社等,,,,,,,,ｌｏｎｇｇａｎｇｑｕ　ｌｏｎｇｇａｎｇｊｉｅｄａｏ　ｎａｎｌｉａｎｓｈｅｑｕ　ｙｉｎｚｈｕｌｕ１９ｈａｏ　ＣｄｏｎｇＣ１０１　ｓｈｅｎｚｈｅｎｓｈｉ　５１８０００　ＣＮ,,,,,,2023-09-27,1,,,,,シェンジェンシースーゾートンマオイーヨウシエンゴンスー,0
2364,9700150120766,新規,0,2023-09-27,2023-09-27,ＤｏｎｇＧｕａｎＳｈｉＳｈｉＬｏｎｇＭａｏＹＴＹｏｕＸｉａｎＧｏｎｇＳｉ,,外国会社等,,,,,,,,ｇｕａｎｇ　ｄｏｎｇ　ｓｈｅｎｇ　ｄｏｎｇ　ｇｕａｎ　ｓｈｉ　ｈｕ　ｍｅｎ　ｚｈｅｎ　ｎａｎ　ｚｈａ　ｐｉｎｇ　ｇａｎｇ　ｊｉｕ　ｘｉａｎｇ　１３　ｈａｏ　３０１　ｆａｎｇ,,,,,,2023-09-27,1,,,,,ドングワンシーシーロンマオイーヨウシエンゴンスー,0
2365,9700150120774,新規,0,2023-09-27,2023-09-27,ＳＴＥＶＥＮ　ＴＥＰＥＲＡ，ＰＣ,,外国会社等,,,,,,,,３８１４　Ｓｙｃａｍｏｒｅ　Ｄｒｉｖｅ　Ａｕｓｔｉｎ，Ｔｅｘａｓ　７８７２２，ＵＳＡ,,,,,,2023-09-27,1,,,,,ステイーブンテペラピーシー,0
