sequenceNumber,corporateNumber,process,correct,updateDate,changeDate,name,nameImageId,kind,prefectureName,cityName,streetNumber,addressImageId,prefectureCode,cityCode,postCode,addressOutside,addressOutsideImageId,closeDate,closeCause,successorCorporateNumber,changeCause,assignmentDate,latest,enName,enPrefectureName,enCityName,enAddressOutside,furigana,hihyoji
8,1010001240592,新規,0,2023-12-12,2023-12-12,株式会社パラテク,,株式会社,東京都,中央区,築地６丁目１７番４号,,13,102,1040045,,,,,,,2023-12-12,1,,,,,パラテク,0
9,1010001240618,新規,0,2023-12-12,2023-12-12,株式会社ＮＥＸＵＳ,,株式会社,東京都,中央区,銀座１丁目２２－１１銀座大竹ビジデンス２Ｆ,,13,102,1040061,,,,,,,2023-12-12,1,,,,,ネクサス,0
10,1010001240626,新規,0,2023-12-12,2023-12-12,株式会社ｄｄｏｔ,,株式会社,東京都,文京区,本郷６丁目２５番１４号,,13,105,1130033,,,,,,,2023-12-12,1,,,,,ディードット,0
11,1010001240683,新規,0,2023-12-12,2023-12-12,ボタニーバイオテクノロジージャパン株式会社,,株式会社,東京都,中央区,日本橋３丁目３番１１号,,13,102,1030027,,,,,,,2023-12-12,1,,,,,ボタニーバイオテクノロジージャパン,0
12,1010001240766,新規,0,2023-12-12,2023-12-12,チェンジ・ベター・ワールド株式会社,,株式会社,東京都,中央区,日本橋室町１丁目１１番１２号,,13,102,1030022,,,,,,,2023-12-12,1,,,,,チェンジベターワールド,0
14,1010003042426,新規,0,2023-12-12,2023-12-12,もふで合同会社,,合同会社,東京都,中央区,日本橋室町１丁目１１番１２号日本橋水野ビル７階,,13,102,1030022,,,,,,,2023-12-12,1,,,,,モフデ,0
15,1010003042434,新規,0,2023-12-12,2023-12-12,合同会社ＺＥＨＰＪ９,,合同会社,東京都,中央区,銀座４丁目６番１号三幸アセットマネジメント株式会社内,,13,102,1040061,,,,,,,2023-12-12,1,,,,,ゼッチピージェーナイン,0
16,1010005037622,新規,0,2023-12-12,2023-12-12,一般社団法人みくまり,,その他の設立登記法人,東京都,千代田区,神田神保町１丁目１番地１７,,13,101,1010051,,,,,,,2023-12-12,1,,,,,ミクマリ,0
22,1010401178945,新規,0,2023-12-12,2023-12-12,株式会社Ｂｕｍｂｌｅｂｅｅ,,株式会社,東京都,港区,北青山２丁目７－１３プラセオ青山ビル３階,,13,103,1070061,,,,,,,2023-12-12,1,,,,,バンブルビー,0
23,1010401179019,新規,0,2023-12-12,2023-12-12,Ｒｉｏｇｍａ株式会社,,株式会社,東京都,港区,北青山１丁目３番１号アールキューブ青山３階,,13,103,1070061,,,,,,,2023-12-12,1,,,,,リオグマ,0
24,1010401179043,新規,0,2023-12-12,2023-12-12,株式会社ファルソナイン,,株式会社,東京都,港区,南青山３丁目１番３６号青山丸竹ビル６Ｆ,,13,103,1070062,,,,,,,2023-12-12,1,,,,,ファルソナイン,0
25,1010401179051,新規,0,2023-12-12,2023-12-12,株式会社ＬＩＢＲＥ,,株式会社,東京都,港区,六本木３丁目８番１２号イーストビル地下１階,,13,103,1060032,,,,,,,2023-12-12,1,,,,,リブレ,0
26,1010401179076,新規,0,2023-12-12,2023-12-12,株式会社Ｐｅｒｅｎ　ｓｅｒｖｉｃｅｓ,,株式会社,東京都,港区,北青山１丁目３番１号アールキューブ青山３階,,13,103,1070061,,,,,,,2023-12-12,1,,,,,ペレンサービスィズ,0
27,1010401179084,新規,0,2023-12-12,2023-12-12,ＬＳ‐ＳＨＩＰ第５４号株式会社,,株式会社,東京都,港区,六本木１丁目６番１号,,13,103,1060032,,,,,,,2023-12-12,1,,,,,エルエスシップダイゴジュウヨンゴウ,0
28,1010401179092,新規,0,2023-12-12,2023-12-12,株式会社サクサクライター,,株式会社,東京都,港区,南青山３丁目１番３６号青山丸竹ビル６Ｆ,,13,103,1070062,,,,,,,2023-12-12,1,,,,,サクサクライター,0
30,1010403031540,新規,0,2023-12-12,2023-12-12,合同会社Ｄチーム,,合同会社,東京都,港区,北青山１丁目３番１号アールキューブ青山３階,,13,103,1070061,,,,,,,2023-12-12,1,,,,,ディーチーム,0
31,1010403031557,新規,0,2023-12-12,2023-12-12,合同会社リードトップアセット,,合同会社,東京都,港区,新橋５丁目１２番１１号,,13,103,1050004,,,,,,,2023-12-12,1,,,,,リードトップアセット,0
39,1010903008641,新規,0,2023-12-12,2023-12-12,合同会社ＹＭ,,合同会社,東京都,世田谷区,奥沢５丁目２８番１－４０８号,,13,112,1580083,,,,,,,2023-12-12,1,,,,,ワイエム,0
47,1011001158718,新規,0,2023-12-12,2023-12-12,株式会社ＭＲＲ,,株式会社,東京都,渋谷区,恵比寿１丁目２０番４号,,13,113,1500013,,,,,,,2023-12-12,1,,,,,エムアールアール,0
48,1011001158750,新規,0,2023-12-12,2023-12-12,ＲＵＩＶＯＳ　Ｔｅｃｈｎｏｌｏｇｉｅｓ株式会社,,株式会社,東京都,渋谷区,渋谷２丁目１９－１５宮益坂ビルディング６０９,,13,113,1500002,,,,,,,2023-12-12,1,,,,,ルイボステクノロジーズ,0
51,1011101105355,新規,0,2023-12-12,2023-12-12,株式会社Ｇ．Ｏ．Ａ．Ｔ,,株式会社,東京都,新宿区,市谷田町２丁目３８番地３シティ市ヶ谷Ｂ１－Ｃ,,13,104,1620843,,,,,,,2023-12-12,1,,,,,ゴート,0
52,1011101105396,新規,0,2023-12-12,2023-12-12,株式会社Ｇｒａｂ,,株式会社,東京都,新宿区,下落合４丁目４番２２号オトメヤマヒルズ１,,13,104,1610033,,,,,,,2023-12-12,1,,,,,グラブ,0
53,1011101105462,新規,0,2023-12-12,2023-12-12,株式会社島脇幕府,,株式会社,東京都,新宿区,歌舞伎町２丁目７番１２号ＪＫ－ＢＬＤ２０３,,13,104,1600021,,,,,,,2023-12-12,1,,,,,シマワキバクフ,0
54,1011201025098,新規,0,2023-12-12,2023-12-12,株式会社Ｃｅｌｌｎｏｖａ,,株式会社,東京都,中野区,大和町３丁目７番３号,,13,114,1650034,,,,,,,2023-12-12,1,,,,,セルノバ,0
60,1011603004162,新規,0,2023-12-12,2023-12-12,合同会社Ｎアイシー,,合同会社,東京都,練馬区,石神井町３丁目２５番４－５０９号,,13,120,1770041,,,,,,,2023-12-12,1,,,,,エヌアイシー,0
68,1012403006316,新規,0,2023-12-12,2023-12-12,Ｒｕｂｉｏ　Ｍｏｎｏｃｏａｔ　Ｊａｐａｎ合同会社,,合同会社,東京都,三鷹市,井の頭２丁目３０番７号,,13,204,1810001,,,,,,,2023-12-12,1,,,,,ルビオモノコートジャパン,0
80,1020001154809,新規,0,2023-12-12,2023-12-12,株式会社横浜建設,,株式会社,神奈川県,横浜市西区,みなとみらい４丁目４番２号横浜ブルーアベニュー１２Ｆ,,14,103,2200012,,,,,,,2023-12-12,1,,,,,ヨコハマケンセツ,0
81,1020001154866,新規,0,2023-12-12,2023-12-12,株式会社ＣＣライナー,,株式会社,神奈川県,川崎市幸区,東古市場２７番地・３０１,,14,132,2120051,,,,,,,2023-12-12,1,,,,,シーシーライナー,0
85,1021001080937,新規,0,2023-12-12,2023-12-12,平塚内装株式会社,,株式会社,神奈川県,平塚市,八千代町１９番２６号ロワ・グランデ３０２号,,14,203,2540032,,,,,,,2023-12-12,1,,,,,ヒラツカナイソウ,0
86,1021001080953,新規,0,2023-12-12,2023-12-12,株式会社ＴＹＫＮ,,株式会社,神奈川県,相模原市南区,相南４丁目８番３号,,14,153,2520312,,,,,,,2023-12-12,1,,,,,ティーワイケーエヌ,0
91,1021003013894,新規,0,2023-12-12,2023-12-12,ＨＯＧＩＡ合同会社,,合同会社,神奈川県,藤沢市,大鋸１２２６番地,,14,205,2510002,,,,,,,2023-12-12,1,,,,,ホージャ,0
92,1021003013903,新規,0,2023-12-12,2023-12-12,グランエイト合同会社,,合同会社,神奈川県,平塚市,横内３２３４―２,,14,203,2540002,,,,,,,2023-12-12,1,,,,,グランエイト,0
99,1030001157620,新規,0,2023-12-12,2023-12-12,株式会社ミノヤシステムソリューションズ,,株式会社,埼玉県,戸田市,本町４丁目４－６ＴＢＣ,,11,224,3350023,,,,,,,2023-12-12,1,,,,,ミノヤシステムソリューションズ,0
106,1030003023192,新規,0,2023-12-12,2023-12-12,合同会社法印堂,,合同会社,埼玉県,春日部市,米島８４番地２,,11,214,3440115,,,,,,,2023-12-12,1,,,,,ホウインドウ,0
113,1040001131260,新規,0,2023-12-12,2023-12-12,ＳＩＮＣＥＲＩＴＹ株式会社,,株式会社,千葉県,我孫子市,緑２丁目１１番５８号,,12,222,2701153,,,,,,,2023-12-12,1,,,,,シンセリティ,0
114,1040001131343,新規,0,2023-12-12,2023-12-12,ヤチフォルニア農園公国株式会社,,株式会社,千葉県,船橋市,習志野台５丁目２８番８号,,12,204,2740063,,,,,,,2023-12-12,1,,,,,ヤチフォルニアノウエンコウコク,0
119,1050001053941,新規,0,2023-12-12,2023-12-12,大和田住設株式会社,,株式会社,茨城県,石岡市,北府中３丁目４番７号,,08,205,3150012,,,,,,,2023-12-12,1,,,,,オオワダジュウセツ,0
120,1050003008002,新規,0,2023-12-12,2023-12-12,合同会社堀江ＩＴ工房,,合同会社,茨城県,古河市,古河５５４番地３,,08,204,3060016,,,,,,,2023-12-12,1,,,,,ホリエアイティーコウボウ,0
121,1050005013363,新規,0,2023-12-12,2023-12-12,一般社団法人伸弘会,,その他の設立登記法人,茨城県,つくば市,妻木１４２４番地,,08,220,3050028,,,,,,,2023-12-12,1,,,,,シンコウカイ,0
122,1060001036623,新規,0,2023-12-12,2023-12-12,株式会社良美,,株式会社,栃木県,宇都宮市,中今泉４丁目２７番１５号,,09,201,3210968,,,,,,,2023-12-12,1,,,,,ヨシミ,0
130,1080001026028,新規,0,2023-12-12,2023-12-12,株式会社ベストチョイス,,株式会社,静岡県,焼津市,石脇下１３３２番地,,22,212,4250016,,,,,,,2023-12-12,1,,,,,ベストチョイス,0
134,1100003007304,新規,0,2023-12-12,2023-12-12,合同会社プリマヴィスタ,,合同会社,長野県,北佐久郡御代田町,大字馬瀬口１５０８番地１５オネスト１０１号,,20,323,3890207,,,,,,,2023-12-12,1,,,,,プリマヴィスタ,0
135,1110001038028,新規,0,2023-12-12,2023-12-12,クラスト株式会社,,株式会社,新潟県,新潟市東区,竹尾６６３番地１１,,15,102,9500862,,,,,,,2023-12-12,1,,,,,クラスト,0
151,1120001260530,新規,0,2023-12-12,2023-12-12,株式会社ｃｉｅｌ,,株式会社,大阪府,寝屋川市,堀溝１丁目２２番１２号ガレージハウス堀溝４号室,,27,215,5720814,,,,,,,2023-12-12,1,,,,,シエル,0
152,1120001260539,新規,0,2023-12-12,2023-12-12,株式会社エムプラス,,株式会社,大阪府,大阪市東住吉区,南田辺５丁目１２番４号,,27,121,5460033,,,,,,,2023-12-12,1,,,,,エムプラス,0
165,1120101068691,新規,0,2023-12-12,2023-12-12,株式会社Ｔｒｕｓｔ　Ｉｎｓｐｅｃｔ,,株式会社,大阪府,泉佐野市,高松西２丁目２４０５－１６,,27,213,5980016,,,,,,,2023-12-12,1,,,,,トラストインスペクト,0
166,1120901048430,新規,0,2023-12-12,2023-12-12,株式会社ＳＨＩＭＡＲＩ,,株式会社,大阪府,高槻市,日吉台一番町１８番１３号の１,,27,207,5691022,,,,,,,2023-12-12,1,,,,,シマリ,0
184,1140001132637,新規,0,2023-12-12,2023-12-12,株式会社８ｒｉｓｉｎｇ,,株式会社,兵庫県,美方郡新温泉町,湯１２６０番地２階,,28,586,6696821,,,,,,,2023-12-12,1,,,,,エイトライジング,0
187,1140003019907,新規,0,2023-12-12,2023-12-12,合同会社相互開発,,合同会社,兵庫県,西宮市,神原１５番１０号,,28,204,6620021,,,,,,,2023-12-12,1,,,,,ソウゴカイハツ,0
195,1170001017918,新規,0,2023-12-12,2023-12-12,株式会社美山亭,,株式会社,和歌山県,東牟婁郡串本町,鬮野川１５９５番地７,,30,428,6493511,,,,,,,2023-12-12,1,,,,,ミヤマテイ,0
196,1170001017926,新規,0,2023-12-12,2023-12-12,ＳＫ地所株式会社,,株式会社,和歌山県,和歌山市,友田町３丁目１６番地（１００１号）,,30,201,6408342,,,,,,,2023-12-12,1,,,,,エスケーチショ,0
202,1180001159296,新規,0,2023-12-12,2023-12-12,株式会社イノウエワークス,,株式会社,愛知県,春日井市,勝川町７丁目３７番地ネクシティパレッタ１ＦＲｏｏｍ８,,23,206,4860945,,,,,,,2023-12-12,1,,,,,イノウエワークス,0
211,1180303005925,新規,0,2023-12-12,2023-12-12,ゴールデンジャパン合同会社,,合同会社,愛知県,豊田市,若林東町赤池５６番地１４,,23,211,4730914,,,,,,,2023-12-12,1,,,,,ゴールデンジャパン,0
212,1180303005933,新規,0,2023-12-12,2023-12-12,合同会社スリール,,合同会社,愛知県,岡崎市,本宿町字八反１６番地１,,23,202,4443505,,,,,,,2023-12-12,1,,,,,スリール,0
214,1190001030943,新規,0,2023-12-12,2023-12-12,アースプロテクト株式会社,,株式会社,三重県,名張市,梅が丘南１番町１９０番地,,24,208,5180741,,,,,,,2023-12-12,1,,,,,アースプロテクト,0
215,1190001030951,新規,0,2023-12-12,2023-12-12,株式会社ＳＨＩＮ,,株式会社,三重県,伊賀市,阿保１２１０番地１,,24,216,5180226,,,,,,,2023-12-12,1,,,,,シン,0
219,1200001041955,新規,0,2023-12-12,2023-12-12,株式会社ＣＦレンタリース,,株式会社,岐阜県,岐阜市,春近古市場南１０２番地１,,21,201,5012525,,,,,,,2023-12-12,1,,,,,シーエフレンタリース,0
220,1200001041963,新規,0,2023-12-12,2023-12-12,株式会社ＨＩ　ＭＡＤＥ,,株式会社,岐阜県,大垣市,昼飯町３７２番地８,,21,202,5032216,,,,,,,2023-12-12,1,,,,,ハイメイド,0
225,1220001025725,新規,0,2023-12-12,2023-12-12,富商ホールディングス株式会社,,株式会社,石川県,金沢市,増泉１丁目１９番５‐３号,,17,201,9218025,,,,,,,2023-12-12,1,,,,,トミショーホールディングス,0
226,1220003003638,新規,0,2023-12-12,2023-12-12,合同会社ＲＹＵＩ　Ｊａｐｏｎ,,合同会社,石川県,七尾市,田鶴浜町元字川尻タ３３番地５,,17,202,9292121,,,,,,,2023-12-12,1,,,,,リュイジャポン,0
232,1240001062519,新規,0,2023-12-12,2023-12-12,株式会社ＴＨＡＭ,,株式会社,広島県,広島市安佐南区,東原３丁目１８番６号,,34,105,7310112,,,,,,,2023-12-12,1,,,,,サム,0
233,1240001062527,新規,0,2023-12-12,2023-12-12,株式会社ＰＢＳ,,株式会社,広島県,東広島市,西条町助実１８３７番地ニューロータス１０５号,,34,212,7390021,,,,,,,2023-12-12,1,,,,,ピービーエス,0
245,1260003004517,新規,0,2023-12-12,2023-12-12,合同会社颯翔,,合同会社,岡山県,浅口市,金光町占見新田３１８番地ニューステーション１０３,,33,216,7190104,,,,,,,2023-12-12,1,,,,,ハヤガケ,0
246,1290001103994,新規,0,2023-12-12,2023-12-12,株式会社ＬｉｆｅＳｔｏｒｙ,,株式会社,福岡県,福岡市博多区,住吉２丁目１６番１－４０６号,,40,132,8120018,,,,,,,2023-12-12,1,,,,,ライフストーリー,0
247,1290001104010,新規,0,2023-12-12,2023-12-12,株式会社福岡ＴＡＩＴＯ通商,,株式会社,福岡県,福岡市西区,石丸４丁目７番３７－２０５号,,40,135,8190025,,,,,,,2023-12-12,1,,,,,フクオカタイトーツウショウ,0
248,1290001104027,新規,0,2023-12-12,2023-12-12,株式会社アスマイルエージェント,,株式会社,福岡県,福岡市南区,井尻３丁目１０番１６号,,40,134,8111302,,,,,,,2023-12-12,1,,,,,アスマイルエージェント,0
250,1290003014728,新規,0,2023-12-12,2023-12-12,合同会社ＯＹＡＳＡＩ　ＭＦＡ,,合同会社,福岡県,久留米市,北野町大城７９６番地５,,40,203,8301104,,,,,,,2023-12-12,1,,,,,オヤサイマフィア,0
254,1290801030117,新規,0,2023-12-12,2023-12-12,株式会社花田建設,,株式会社,福岡県,北九州市八幡西区,馬場山東１丁目１番２４号,,40,109,8071131,,,,,,,2023-12-12,1,,,,,ハナダケンセツ,0
255,1290801030133,新規,0,2023-12-12,2023-12-12,中山工業株式会社,,株式会社,福岡県,直方市,大字上頓野２１９７番地５,,40,204,8220003,,,,,,,2023-12-12,1,,,,,ナカヤマコウギョウ,0
258,1310001018744,新規,0,2023-12-12,2023-12-12,株式会社有心会,,株式会社,長崎県,南島原市,有家町山川１番地９,,42,214,8592202,,,,,,,2023-12-12,1,,,,,ユウシンカイ,0
261,1330001031563,新規,0,2023-12-12,2023-12-12,株式会社ＢＥＲＲＹ,,株式会社,熊本県,菊池郡菊陽町,光の森４丁目１番地１７,,43,404,8691108,,,,,,,2023-12-12,1,,,,,ベリー,0
263,1340001026125,新規,0,2023-12-12,2023-12-12,株式会社プロピカ,,株式会社,鹿児島県,鹿児島市,上荒田町２番２５号２０３号室,,46,201,8900055,,,,,,,2023-12-12,1,,,,,プロピカ,0
264,1340003004327,新規,0,2023-12-12,2023-12-12,合同会社カエデヤ,,合同会社,鹿児島県,鹿児島市,城西１丁目３番１５－５０１号,,46,201,8900041,,,,,,,2023-12-12,1,,,,,,0
265,1350001018708,新規,0,2023-12-12,2023-12-12,株式会社河信工業,,株式会社,宮崎県,宮崎市,高岡町浦之名２０５２番地１,,45,201,8802323,,,,,,,2023-12-12,1,,,,,カワシンコウギョウ,0
269,1360001032922,新規,0,2023-12-12,2023-12-12,ステラヘルスジャパン株式会社,,株式会社,沖縄県,那覇市,天久２丁目３１番１６号サンセットパレス新都心３０３号,,47,201,9000005,,,,,,,2023-12-12,1,,,,,ステラヘルスジャパン,0
275,1380003005635,新規,0,2023-12-12,2023-12-12,合同会社ＴＡＭＵＲＡ,,合同会社,福島県,いわき市,平上荒川字長尾７４番地の８アドレスいわき中央ビル１階１３２号室,,07,204,9708034,,,,,,,2023-12-12,1,,,,,タムラ,0
276,1390001017441,新規,0,2023-12-12,2023-12-12,ＨＡＰ株式会社,,株式会社,山形県,山形市,小白川町３丁目７番３１号,,06,201,9900021,,,,,,,2023-12-12,1,,,,,エッチエーピー,0
278,1390003002177,新規,0,2023-12-12,2023-12-12,合同会社紅楓庵いとうファーム,,合同会社,山形県,天童市,大字山口６８２番地,,06,210,9940101,,,,,,,2023-12-12,1,,,,,コウフウアンイトウファーム,0
285,1420001018510,新規,0,2023-12-12,2023-12-12,株式会社リノベアーズ,,株式会社,青森県,青森市,浪館前田２丁目４－１５,,02,201,0380024,,,,,,,2023-12-12,1,,,,,リノベアーズ,0
292,1430003015736,新規,0,2023-12-12,2023-12-12,合同会社ｔｉｉｄａ,,合同会社,北海道,苫小牧市,春日町１丁目３－４グリーンビル１階,,01,213,0530031,,,,,,,2023-12-12,1,,,,,ティーダ,0
294,1450001014168,新規,0,2023-12-12,2023-12-12,株式会社ＷＫＲ,,株式会社,北海道,上川郡和寒町,字三笠５番地,,01,464,0980111,,,,,,,2023-12-12,1,,,,,ダブルケイワイ,0
296,1470003002524,新規,0,2023-12-12,2023-12-12,合同会社ｇｌｏｒｙ　ｆｕｔｕｒｅ,,合同会社,香川県,丸亀市,塩屋町５丁目４番３ダイアパレス丸亀５１１号,,37,202,7630065,,,,,,,2023-12-12,1,,,,,グローリーフューチャー,0
297,1470003002532,新規,0,2023-12-12,2023-12-12,合同会社Ｂｉｒｙｏｋｕ,,合同会社,香川県,高松市,サンポート２番１号高松シンボルタワータワー棟４・５階情報通信交流館内,,37,201,7600019,,,,,,,2023-12-12,1,,,,,ビリョク,0
302,1500001025358,新規,0,2023-12-12,2023-12-12,株式会社正生,,株式会社,愛媛県,伊予市,下吾川１６４６番地,,38,210,7993111,,,,,,,2023-12-12,1,,,,,,0
303,1700150120988,新規,0,2023-12-12,2023-12-12,Ｘｉａｍｅｎｙａｙｕｓｉｔｉｙｕｗｅｎｈｕａｃｈｕａｎｂｏｙｏｕｘｉａｎｇｏｎｇｓｉ,,外国会社等,,,,,,,,ｊｉｍｅｉｑｕｘｉｎｇｌｉｎｄｏｎｇｌｕ３７ｈａｏｚｏｎｇｈｅｌｏｕＡｄｏｎｇ１ｃｅｎｇＤｊｉａｎＸｉａｍｅｎｓｈｉ３６１０２２ＣＮ,,,,,,2023-12-12,1,,,,,シャアメンヤーユイスーティーユイウェンホアチュアンボーヨウシエンゴンス,0
304,1700150120996,新規,0,2023-12-12,2023-12-12,ｓｈｅｎｚｈｅｎｈｕｉｚｈａｎｇｌｉｓｈｉｋｅｊｉｙｏｕｘｉａｎｇｏｎｇｓｉ,,外国会社等,,,,,,,,ｌｏｎｇｇａｎｇｑｕｂａｎｔｉａｎｊｉｅｄａｏｂｕｌｏｎｇｌｕｎａｎｃｅｓｈｉｅｒｘｉａｎｇｓｈｕｚｈｕａｎｇｙｕａｎｄａｍａｏｇｏｎｇｙｅｑｕ１ｄｏｎｇ１０１６ｓｈｉ　ｓｈｅｎｚｈｅｎ　ｇｕａｎｇｄｏｎｇ　５１８０００　ＣＮ,,,,,,2023-12-12,1,,,,,シェンジェンホイジャンリーシカージヨウシエンゴンス,0
305,1700150122712,新規,0,2023-12-12,2023-12-12,ＲＥＥＲＩＮ　Ｐｖｔ　Ｌｔｄ,,外国会社等,神奈川県,愛甲郡清川村,煤ヶ谷８－１５,,14,402,2430112,スリランカ民主主義社会共和国、コロンボー１２、アブドゥルハミードストリートＮｏ．６５／１,,,,,,2023-12-12,1,,,,,リーリンプライベートリミテツド,0
308,2010001240617,新規,0,2023-12-12,2023-12-12,株式会社５Ｓｔａｒ　Ｇｒｏｕｐ,,株式会社,東京都,千代田区,有楽町１丁目８番１号ザ・ペニンシュラ東京４階,,13,101,1000006,,,,,,,2023-12-12,1,,,,,ファイブスターグループ,0
309,2010001240690,新規,0,2023-12-12,2023-12-12,株式会社大津,,株式会社,東京都,千代田区,岩本町２丁目１９番９号,,13,101,1010032,,,,,,,2023-12-12,1,,,,,オオツ,0
310,2010001240699,新規,0,2023-12-12,2023-12-12,株式会社Ｍ　ｌａｂ,,株式会社,東京都,中央区,日本橋浜町２丁目５４番５号,,13,102,1030007,,,,,,,2023-12-12,1,,,,,エムラボ,0
311,2010001240716,新規,0,2023-12-12,2023-12-12,ケヴィンエンタープライズ株式会社,,株式会社,東京都,中央区,新川１丁目２７番１－８０３号,,13,102,1040033,,,,,,,2023-12-12,1,,,,,ケヴィンエンタープライズ,0
312,2010001240724,新規,0,2023-12-12,2023-12-12,ユーダイモニア・キャピタルマネジメント株式会社,,株式会社,東京都,千代田区,六番町６－１パレロワイヤル六番町１０７,,13,101,1020085,,,,,,,2023-12-12,1,,,,,ユーダイモニアキャピタルマネジメント,0
313,2010001240765,新規,0,2023-12-12,2023-12-12,株式会社ＷｅｂＣｏ,,株式会社,東京都,千代田区,神田和泉町１番地６－１６ヤマトビル４０５,,13,101,1010024,,,,,,,2023-12-12,1,,,,,ウェブコ,0
314,2010001240773,新規,0,2023-12-12,2023-12-12,株式会社ＴＡＣＴ,,株式会社,東京都,中央区,新川１丁目６番１２号,,13,102,1040033,,,,,,,2023-12-12,1,,,,,タクト,0
316,2010003042400,新規,0,2023-12-12,2023-12-12,合同会社ＢＡＲ　Ｅａｓｔ,,合同会社,東京都,中央区,日本橋本町３丁目８番５号日本橋本町松本ビルＢ１,,13,102,1030023,,,,,,,2023-12-12,1,,,,,バーイースト,0
317,2010003042409,新規,0,2023-12-12,2023-12-12,Ｔｏｓｈｉｏ　Ｓａｅｋｉ　Ｅｓｔａｔｅ合同会社,,合同会社,東京都,中央区,日本橋室町１丁目１１番１２号,,13,102,1030022,,,,,,,2023-12-12,1,,,,,トシオサエキエステート,0
318,2010003042425,新規,0,2023-12-12,2023-12-12,Ｊ．ＵＮＩＴ合同会社,,合同会社,東京都,中央区,銀座６丁目６番１号,,13,102,1040061,,,,,,,2023-12-12,1,,,,,ジェイドットユニット,0
327,2010401179050,新規,0,2023-12-12,2023-12-12,株式会社ＡＩＶＩＳＩＯＮ,,株式会社,東京都,港区,麻布台２丁目１番２－２０１号,,13,103,1060041,,,,,,,2023-12-12,1,,,,,エーアイビジョン,0
328,2010401179083,新規,0,2023-12-12,2023-12-12,ＬＳ‐ＳＨＩＰ第５３号株式会社,,株式会社,東京都,港区,六本木１丁目６番１号,,13,103,1060032,,,,,,,2023-12-12,1,,,,,エルエスシップダイゴジュウサンゴウ,0
329,2010401179117,新規,0,2023-12-12,2023-12-12,株式会社ケアネクスト２,,株式会社,東京都,港区,南青山３丁目１番３号スプライン青山東急ビル３階,,13,103,1070062,,,,,,,2023-12-12,1,,,,,ケアネクストツー,0
331,2010403031564,新規,0,2023-12-12,2023-12-12,小涌谷開発合同会社,,合同会社,東京都,港区,虎ノ門５丁目３番２０号株式会社アカウンティング・マネジメント・サービス内,,13,103,1050001,,,,,,,2023-12-12,1,,,,,コワクダニカイハツ,0
342,2010901054315,新規,0,2023-12-12,2023-12-12,株式会社ＢＬＵＥ　ＰＯＰＰＹ,,株式会社,東京都,世田谷区,玉川２丁目１２番７号,,13,112,1580094,,,,,,,2023-12-12,1,,,,,ブルーポピー,0
346,2010903008649,新規,0,2023-12-12,2023-12-12,合同会社ＴＳベンチャーズ,,合同会社,東京都,世田谷区,用賀１丁目１－３,,13,112,1580097,,,,,,,2023-12-12,1,,,,,ティーエスベンチャーズ,0
349,2011001158659,新規,0,2023-12-12,2023-12-12,株式会社カゲロウ,,株式会社,東京都,渋谷区,渋谷３丁目１３－５ＢＰＲレジデンス渋谷８０３,,13,113,1500002,,,,,,,2023-12-12,1,,,,,カゲロウ,0
350,2011001158691,新規,0,2023-12-12,2023-12-12,株式会社Ｄ,,株式会社,東京都,渋谷区,神山町２０番１６号,,13,113,1500047,,,,,,,2023-12-12,1,,,,,ディー,0
361,2011101105461,新規,0,2023-12-12,2023-12-12,東京草稿紙株式会社,,株式会社,東京都,新宿区,原町２丁目５番地ＫＥＮ２１ビル５階,,13,104,1620053,,,,,,,2023-12-12,1,,,,,トウキョウソウコウシ,0
363,2011103013844,新規,0,2023-12-12,2023-12-12,合同会社どうぶつとひと出版,,合同会社,東京都,新宿区,市谷田町３丁目１４番地市ヶ谷ガーデンテラス,,13,104,1620843,,,,,,,2023-12-12,1,,,,,ドウブツトヒトシュッパン,0
368,2011303004998,新規,0,2023-12-12,2023-12-12,合同会社アトリエ,,合同会社,東京都,杉並区,和田１丁目３３番５号,,13,115,1660012,,,,,,,2023-12-12,1,,,,,アトリエ,0
369,2011401025681,新規,0,2023-12-12,2023-12-12,ジーマホールディングス株式会社,,株式会社,東京都,板橋区,中丸町１１番２号ワコーレ要町ビル１０階,,13,119,1730026,,,,,,,2023-12-12,1,,,,,ジーマホールディングス,0
375,2011803005983,新規,0,2023-12-12,2023-12-12,合同会社ユタカワークス,,合同会社,東京都,足立区,花畑５丁目１１番７９－５０１号,,13,121,1210061,,,,,,,2023-12-12,1,,,,,ユタカワークス,0
379,2012801022814,新規,0,2023-12-12,2023-12-12,株式会社新光不動産研究所,,株式会社,東京都,国分寺市,東元町３丁目７番３号,,13,214,1850022,,,,,,,2023-12-12,1,,,,,シンコウフドウサンケンキュウジョ,0
389,2020001154824,新規,0,2023-12-12,2023-12-12,エコエネソリューションズ株式会社,,株式会社,神奈川県,横浜市港北区,富士塚１丁目２４番２４号の１,,14,109,2220012,,,,,,,2023-12-12,1,,,,,エコエネソリューションズ,0
390,2020001154840,新規,0,2023-12-12,2023-12-12,株式会社山真興業,,株式会社,神奈川県,横浜市南区,六ツ川４丁目１１５４番地２０エクセレント六ツ川２０１,,14,105,2320066,,,,,,,2023-12-12,1,,,,,ヤマシンコウギョウ,0
396,2020003025164,新規,0,2023-12-12,2023-12-12,合同会社レイヨンヴェール,,合同会社,神奈川県,横浜市南区,中里１丁目２０－１５サン・カトレア１０３,,14,105,2320063,,,,,,,2023-12-12,1,,,,,レイヨンヴェール,0
402,2021002031426,新規,0,2023-12-12,2023-12-12,有限会社窪松商事,,有限会社,神奈川県,厚木市,妻田西２丁目１８番３１号,,14,212,2430815,,,,,,,2023-12-12,1,,,,,クボマツショウジ,0
404,2021003013893,新規,0,2023-12-12,2023-12-12,ＢＵＲＡＱＴＲＡＤＩＮＧ合同会社,,合同会社,神奈川県,厚木市,三田南３丁目７番１－１０２号,,14,212,2430217,,,,,,,2023-12-12,1,,,,,ブラクトレーディング,0
420,2030003023200,新規,0,2023-12-12,2023-12-12,合同会社ＭＴ経営,,合同会社,埼玉県,さいたま市浦和区,岸町１丁目３番６号黒沼貸家Ａ,,11,107,3300064,,,,,,,2023-12-12,1,,,,,エムティーケイエイ,0
428,2050001053924,新規,0,2023-12-12,2023-12-12,株式会社ＡＬＩ　ＩＮＴＥＲＮＡＴＩＯＮＡＬ,,株式会社,茨城県,猿島郡境町,１５９９番地１,,08,546,3060433,,,,,,,2023-12-12,1,,,,,アリインターナショナル,0
429,2050001053949,新規,0,2023-12-12,2023-12-12,株式会社カミナガ,,株式会社,茨城県,常陸太田市,上高倉町４５６番地,,08,212,3130353,,,,,,,2023-12-12,1,,,,,カミナガ,0
430,2050003008001,新規,0,2023-12-12,2023-12-12,合同会社ＤＡＨＳ,,合同会社,茨城県,日立市,河原子町３丁目２７番９号,,08,202,3160005,,,,,,,2023-12-12,1,,,,,,0
431,2060001036622,新規,0,2023-12-12,2023-12-12,株式会社ｇｏｏｄ　ｗｉｌｌ,,株式会社,栃木県,下野市,下坪山１８１５番地２,,09,216,3230115,,,,,,,2023-12-12,1,,,,,グッドウィル,0
439,2070003005194,新規,0,2023-12-12,2023-12-12,ＵＳＢ合同会社,,合同会社,群馬県,前橋市,本町１丁目３番２号橋爪ビル３階,,10,201,3710023,,,,,,,2023-12-12,1,,,,,ユーエスビー,0
440,2080001026027,新規,0,2023-12-12,2023-12-12,株式会社ＳＨＩＭＡＳＨＯ,,株式会社,静岡県,静岡市駿河区,用宗５丁目１－１－２シャトンミニョンＡ１０１,,22,102,4210122,,,,,,,2023-12-12,1,,,,,シマショウ,0
442,2080003003107,新規,0,2023-12-12,2023-12-12,ビーマリアージュ合同会社,,合同会社,静岡県,静岡市駿河区,用宗４丁目１９番１２号,,22,102,4210122,,,,,,,2023-12-12,1,,,,,ビーマリアージュ,0
443,2080101024392,新規,0,2023-12-12,2023-12-12,吉田不動産株式会社,,株式会社,静岡県,富士市,中島３０４番地の５ルピナ４０３号,,22,210,4160907,,,,,,,2023-12-12,1,,,,,ヨシダフドウサン,0
450,2090003002446,新規,0,2023-12-12,2023-12-12,ＫＩＹＡ　ＭＯＴＯＲＳ合同会社,,合同会社,山梨県,南都留郡忍野村,内野４２６８番地１－２階,,19,424,4010512,,,,,,,2023-12-12,1,,,,,キヤモータース,0
465,2120001260471,新規,0,2023-12-12,2023-12-12,株式会社リノベーション２１,,株式会社,大阪府,大阪市中央区,内久宝寺町４丁目２番９号,,27,128,5400013,,,,,,,2023-12-12,1,,,,,リノベーションニジュウイチ,0
466,2120001260546,新規,0,2023-12-12,2023-12-12,櫻坂株式会社,,株式会社,大阪府,大阪市北区,天満４丁目５番３号,,27,127,5300043,,,,,,,2023-12-12,1,,,,,サクラザカ,0
467,2120001260620,新規,0,2023-12-12,2023-12-12,株式会社大和不動産,,株式会社,大阪府,大阪市西淀川区,姫島５丁目１１番２７号,,27,113,5550033,,,,,,,2023-12-12,1,,,,,ダイワフドウサン,0
471,2120101068575,新規,0,2023-12-12,2023-12-12,ＷＡＢＩＳＡＢＩ株式会社,,株式会社,大阪府,泉大津市,東雲町１０－２７,,27,206,5950026,,,,,,,2023-12-12,1,,,,,ワビサビ,0
472,2120101068682,新規,0,2023-12-12,2023-12-12,株式会社大地建設,,株式会社,大阪府,堺市東区,日置荘西町５丁２番１４号,,27,143,5998114,,,,,,,2023-12-12,1,,,,,オオチケンセツ,0
473,2120103005576,新規,0,2023-12-12,2023-12-12,合同会社かがり,,合同会社,大阪府,岸和田市,宮本町１２番２４号,,27,202,5960054,,,,,,,2023-12-12,1,,,,,カガリ,0
476,2120901048479,新規,0,2023-12-12,2023-12-12,株式会社エレワークスジャパン,,株式会社,大阪府,摂津市,鶴野４丁目３番１９号,,27,224,5660035,,,,,,,2023-12-12,1,,,,,エレワークスジャパン,0
481,2122001037643,新規,0,2023-12-12,2023-12-12,株式会社Ｍｅｄｉｓｔａ,,株式会社,大阪府,東大阪市,吉田１丁目９番１１号,,27,227,5780924,,,,,,,2023-12-12,1,,,,,メディスタ,0
489,2130001075910,新規,0,2023-12-12,2023-12-12,株式会社ＨＦＭ,,株式会社,京都府,京都市伏見区,久我森の宮町１５番地９６,,26,109,6128495,,,,,,,2023-12-12,1,,,,,エイチエフエム,0
504,2140001132636,新規,0,2023-12-12,2023-12-12,北関西ビルド株式会社,,株式会社,兵庫県,朝来市,山東町末歳６１９番地１,,28,225,6695104,,,,,,,2023-12-12,1,,,,,,0
505,2140001132660,新規,0,2023-12-12,2023-12-12,株式会社共進運輸,,株式会社,兵庫県,神戸市兵庫区,三川口町３丁目２番２３号,,28,105,6520815,,,,,,,2023-12-12,1,,,,,キョウシンウンユ,0
507,2150003003140,新規,0,2023-12-12,2023-12-12,合同会社Ｊｕｓｔ‐ｌｅａｒｎｉｎｇ,,合同会社,奈良県,奈良市,あやめ池北３丁目１番１５－２号,,29,201,6310032,,,,,,,2023-12-12,1,,,,,ジャストラーニング,0
509,2160003003057,新規,0,2023-12-12,2023-12-12,合同会社松嶋企画,,合同会社,滋賀県,大津市,坂本５丁目２５番３４号,,25,201,5200113,,,,,,,2023-12-12,1,,,,,マツシマキカク,0
519,2180003026072,新規,0,2023-12-12,2023-12-12,ＦＦアセット合同会社,,合同会社,愛知県,名古屋市天白区,原１丁目２２１３番地坪井ビル２Ｆ,,23,116,4680015,,,,,,,2023-12-12,1,,,,,エフエフアセット,0
520,2180005020453,新規,0,2023-12-12,2023-12-12,一般社団法人ロータスライフ,,その他の設立登記法人,愛知県,名古屋市西区,城西３丁目１８番１１号,,23,104,4510031,,,,,,,2023-12-12,1,,,,,ロータスライフ,0
521,2180301038117,新規,0,2023-12-12,2023-12-12,株式会社山崎ダイナミクス技術士事務所,,株式会社,愛知県,みよし市,ひばりヶ丘２丁目５番地１,,23,236,4700208,,,,,,,2023-12-12,1,,,,,ヤマザキダイナミクスギジュツシジムショ,0
523,2180303005932,新規,0,2023-12-12,2023-12-12,合同会社コンプロダクション,,合同会社,愛知県,刈谷市,中山町２丁目４９番地ラッフィナート２０２号,,23,210,4480026,,,,,,,2023-12-12,1,,,,,コンプロダクション,0
528,2190003004531,新規,0,2023-12-12,2023-12-12,合同会社はるふくｍｃ,,合同会社,三重県,四日市市,富田４丁目５番２２号,,24,202,5108014,,,,,,,2023-12-12,1,,,,,ハルフクエムシー,0
531,2200001041962,新規,0,2023-12-12,2023-12-12,笠松商事株式会社,,株式会社,岐阜県,羽島郡笠松町,長池５０９番地の４,,21,303,5016063,,,,,,,2023-12-12,1,,,,,カサマツショウジ,0
532,2200001041970,新規,0,2023-12-12,2023-12-12,株式会社ずくまっくすー,,株式会社,岐阜県,中津川市,中津川１０１０番地の２８８,,21,206,5080001,,,,,,,2023-12-12,1,,,,,ズクマックスー,0
533,2200003006179,新規,0,2023-12-12,2023-12-12,フジ工建合同会社,,合同会社,岐阜県,岐阜市,切通６丁目２１番２４号,,21,201,5008237,,,,,,,2023-12-12,1,,,,,フジコウケン,0
535,2210001019578,新規,0,2023-12-12,2023-12-12,株式会社ココット,,株式会社,福井県,福井市,板垣２丁目１６０７番地,,18,201,9188104,,,,,,,2023-12-12,1,,,,,ココット,0
542,2230001020138,新規,0,2023-12-12,2023-12-12,株式会社カミイチ自動車整備工場,,株式会社,富山県,中新川郡上市町,若杉３丁目４２５番地,,16,322,9300314,,,,,,,2023-12-12,1,,,,,カミイチジドウシャセイビコウジョウ,0
546,2230005009350,新規,0,2023-12-12,2023-12-12,一般社団法人Ｈｕｍａｎ　Ｕｎｉｖｅｒｓｅ９２,,その他の設立登記法人,富山県,富山市,藤木３２６２番地２,,16,201,9300936,,,,,,,2023-12-12,1,,,,,ヒューマンユニバースキュウジュイウニ,0
552,2240001062550,新規,0,2023-12-12,2023-12-12,ＥｎＨｏｐｅ株式会社,,株式会社,広島県,広島市西区,南観音町１０番８号,,34,104,7330034,,,,,,,2023-12-12,1,,,,,エンホープ,0
557,2260001038557,新規,0,2023-12-12,2023-12-12,農業生産法人タートルファーム株式会社,,株式会社,岡山県,玉野市,山田８６８番地１,,33,204,7060314,,,,,,,2023-12-12,1,,,,,ノウギョウセイサンホウジンタートルファーム,0
560,2260003004516,新規,0,2023-12-12,2023-12-12,アチブランチ合同会社,,合同会社,岡山県,倉敷市,阿知２丁目２３番１０号,,33,202,7100055,,,,,,,2023-12-12,1,,,,,アチブランチ,0
573,2290001103861,新規,0,2023-12-12,2023-12-12,双栄スズライト販売株式会社,,株式会社,福岡県,福岡市南区,大字野間新町四丁目７４番地,,40,134,8150041,,,,,,,2023-12-12,1,,,,,ソウエイスズライトハンバイ,0
574,2290001104026,新規,0,2023-12-12,2023-12-12,株式会社スペースブルー,,株式会社,福岡県,福岡市博多区,空港前２丁目１０番１５－３０１号,,40,132,8120002,,,,,,,2023-12-12,1,,,,,スペースブルー,0
578,2290005019212,新規,0,2023-12-12,2023-12-12,税理士法人竹下会計,,その他の設立登記法人,福岡県,福岡市中央区,舞鶴１丁目１番１０号天神シルバービル２階,,40,133,8100073,,,,,,,2023-12-12,1,,,,,,0
581,2290801030124,新規,0,2023-12-12,2023-12-12,株式会社ＪＯＴ,,株式会社,福岡県,北九州市八幡東区,西台良町９番７号,,40,108,8050064,,,,,,,2023-12-12,1,,,,,ジェイオーティー,0
582,2290801030132,新規,0,2023-12-12,2023-12-12,株式会社Ａｒｒｏｚ,,株式会社,福岡県,北九州市八幡西区,上上津役４丁目１３－８,,40,109,8070072,,,,,,,2023-12-12,1,,,,,アロス,0
583,2300003002052,新規,0,2023-12-12,2023-12-12,合同会社Ｐｏｌａｒｉｓ,,合同会社,佐賀県,佐賀市,本庄町大字本庄１３２２番地４,,41,201,8400027,,,,,,,2023-12-12,1,,,,,ポラリス,0
586,2310003004691,新規,0,2023-12-12,2023-12-12,合同会社ｇｒａｃｅ,,合同会社,長崎県,東彼杵郡東彼杵町,三根郷２５４５番地,,42,321,8593806,,,,,,,2023-12-12,1,,,,,グレース,0
592,2340001026124,新規,0,2023-12-12,2023-12-12,Ｍ＆Ｗ株式会社,,株式会社,鹿児島県,いちき串木野市,緑町８９番地,,46,219,8960022,,,,,,,2023-12-12,1,,,,,エムアンドダブリュウ,0
593,2340001026132,新規,0,2023-12-12,2023-12-12,株式会社上村自動車鈑金塗装工場,,株式会社,鹿児島県,薩摩川内市,宮里町７０４番地２,,46,215,8950056,,,,,,,2023-12-12,1,,,,,カミムラジドウシャバンキントソウコウジョウ,0
599,2350001018707,新規,0,2023-12-12,2023-12-12,株式会社Ｃｏｎｎｅｃｔｉｎｇ　Ｓｐｏｒｔｓ宮崎,,株式会社,宮崎県,児湯郡新富町,大字下富田字横江下４１７５番１５,,45,402,8891404,,,,,,,2023-12-12,1,,,,,コネクティングスポーツミヤザキ,0
603,2360003013548,新規,0,2023-12-12,2023-12-12,農業生産法人合同会社島ファーム,,合同会社,沖縄県,宮古島市,平良字島尻１４３９番地,,47,214,9060003,,,,,,,2023-12-12,1,,,,,ノウギョウセイサンホウジンシマファーム,0
604,2380005012769,新規,0,2023-12-12,2023-12-12,特定非営利活動法人ヘスティア,,その他の設立登記法人,福島県,白河市,表郷小松字上高萩１６０番地,,07,205,9610405,,,,,,,2023-12-12,1,,,,,ヘスティア,0
606,2390001017440,新規,0,2023-12-12,2023-12-12,株式会社ＳＢｅｅＣ,,株式会社,山形県,東村山郡山辺町,大字山辺１１１８番地１１,,06,301,9900301,,,,,,,2023-12-12,1,,,,,エスビーシー,0
607,2390005009046,新規,0,2023-12-12,2023-12-12,医療法人Ｗｉｎ　Ｔｒｅｅ,,その他の設立登記法人,山形県,山形市,馬見ケ崎２丁目１０－１４,,06,201,9900810,,,,,,,2023-12-12,1,,,,,ウィンスリー,0
616,2430001090598,新規,0,2023-12-12,2023-12-12,株式会社フィルムリンク,,株式会社,北海道,札幌市豊平区,平岸三条４丁目１－１,,01,105,0620933,,,,,,,2023-12-12,1,,,,,フィルムリンク,0
620,2460101007474,新規,0,2023-12-12,2023-12-12,株式会社エニシグループ,,株式会社,北海道,帯広市,柏林台中町３丁目８,,01,207,0800057,,,,,,,2023-12-12,1,,,,,エニシグループ,0
628,2500003003154,新規,0,2023-12-12,2023-12-12,合同会社音,,合同会社,愛媛県,東温市,北方２６５１番地,,38,215,7910303,,,,,,,2023-12-12,1,,,,,オト,0
631,2700150120938,新規,0,2023-12-12,2023-10-02,仲田公園パークハイツ管理組合,,その他,愛知県,名古屋市千種区,仲田２丁目２番１８号,,23,101,4640074,,,,,,,2023-10-02,1,,,,,ナカタコウエンパークハイツカンリクミアイ,0
632,2700150122694,新規,0,2023-12-12,2023-12-12,ＩＤＩＳ　ＣＯ．，ＬＴＤ,,外国会社等,東京都,渋谷区,道玄坂１丁目１２－１渋谷マークシティＷ２２Ｆ,,13,113,1500043,韓国大田広域市儒城区テクノ３路８－１０,,,,,,2023-12-12,1,,,,,アイデイスコーポレーシヨン,0
635,3010001240698,新規,0,2023-12-12,2023-12-12,株式会社Ｔｒｉｐ’ｓ　ＪＡＰＡＮ,,株式会社,東京都,中央区,築地１丁目９番１１－３０４号,,13,102,1040045,,,,,,,2023-12-12,1,,,,,トリップスジャパン,0
636,3010001240731,新規,0,2023-12-12,2023-12-12,ジェムリーフ株式会社,,株式会社,東京都,中央区,銀座１丁目１２－４Ｎ＆ＥＢＬＤ．６Ｆ,,13,102,1040061,,,,,,,2023-12-12,1,,,,,ジェムリーフ,0
637,3010001240756,新規,0,2023-12-12,2023-12-12,Ｃｏｒｎｅｒｓｔｏｎｅ　Ｓｔａｆｆｉｎｇ　Ｊａｐａｎ株式会社,,株式会社,東京都,千代田区,丸の内１丁目１１番１号パシフィックセンチュリープレイス丸の内１３階,,13,101,1000005,,,,,,,2023-12-12,1,,,,,コーナーストーンスタッフィングジャパン,0
640,3010005037620,新規,0,2023-12-12,2023-12-12,ＭＬ神谷町２一般社団法人,,その他の設立登記法人,東京都,千代田区,神田小川町３丁目２６番８号神田小川町三丁目ビル６階,,13,101,1010052,,,,,,,2023-12-12,1,,,,,エムエルカミヤチョウツー,0
641,3010005037629,新規,0,2023-12-12,2023-12-12,入間新光特定目的会社,,その他の設立登記法人,東京都,中央区,日本橋１丁目４番１号,,13,102,1030027,,,,,,,2023-12-12,1,,,,,イルマシンコウ,0
647,3010401179082,新規,0,2023-12-12,2023-12-12,ＬＳ‐ＳＨＩＰ第５２号株式会社,,株式会社,東京都,港区,六本木１丁目６番１号,,13,103,1060032,,,,,,,2023-12-12,1,,,,,エルエスシップダイゴジュウニゴウ,0
648,3010401179116,新規,0,2023-12-12,2023-12-12,株式会社ケアネクストホールディングス,,株式会社,東京都,港区,南青山３丁目１番３号スプライン青山東急ビル３階,,13,103,1070062,,,,,,,2023-12-12,1,,,,,ケアネクストホールディングス,0
660,3010903008648,新規,0,2023-12-12,2023-12-12,ＮＫメディカルＩＴ合同会社,,合同会社,東京都,世田谷区,八幡山２丁目２３番９号,,13,112,1560056,,,,,,,2023-12-12,1,,,,,エヌケーメディカルアイティー,0
663,3011001158690,新規,0,2023-12-12,2023-12-12,株式会社Ｍ,,株式会社,東京都,渋谷区,神山町２０番１６号,,13,113,1500047,,,,,,,2023-12-12,1,,,,,エム,0
664,3011001158749,新規,0,2023-12-12,2023-12-12,株式会社Ａａｓｓｉｓｔ,,株式会社,東京都,目黒区,中目黒３丁目６番２号中目黒Ｆ・Ｓビル５階,,13,110,1530061,,,,,,,2023-12-12,1,,,,,エーアシスト,0
665,3011001158757,新規,0,2023-12-12,2023-12-12,株式会社ＴＯＫＩＤＯ,,株式会社,東京都,渋谷区,千駄ヶ谷１丁目１１－４佐光ビル２０２,,13,113,1510051,,,,,,,2023-12-12,1,,,,,トキドー,0
666,3011001158765,新規,0,2023-12-12,2023-12-12,株式会社Ｂｌｏｏｆｔｏｐ,,株式会社,東京都,渋谷区,道玄坂１丁目１０番８号渋谷道玄坂東急ビル２Ｆ－Ｃ,,13,113,1500043,,,,,,,2023-12-12,1,,,,,,0
667,3011001158773,新規,0,2023-12-12,2023-12-12,株式会社Ｐｒｅｌｕｄｅ．３３,,株式会社,東京都,渋谷区,大山町４０番１６号ペアシティ代々木大山２０３号,,13,113,1510065,,,,,,,2023-12-12,1,,,,,プレリュードサーティースリー,0
668,3011001158798,新規,0,2023-12-12,2023-12-12,エスエスエルジャパンホールディングス株式会社,,株式会社,東京都,渋谷区,千駄ヶ谷３丁目５５番１４号,,13,113,1510051,,,,,,,2023-12-12,1,,,,,エスエスエルジャパンホールディングス,0
671,3011003018083,新規,0,2023-12-12,2023-12-12,ＭＳＰ合同会社,,合同会社,東京都,渋谷区,神宮前６丁目２３番４号桑野ビル２階,,13,113,1500001,,,,,,,2023-12-12,1,,,,,エムエスピー,0
677,3011101105411,新規,0,2023-12-12,2023-12-12,サイバーネクチャ株式会社,,株式会社,東京都,新宿区,西新宿３丁目２－９新宿ワシントンホテルビル本館２Ｆ,,13,104,1600023,,,,,,,2023-12-12,1,,,,,サイバーネクチャ,0
678,3011101105428,新規,0,2023-12-12,2023-12-12,株式会社ソニックエボリューション,,株式会社,東京都,新宿区,下落合４丁目４番２９号ＣＲＥＡＬ高田馬場１０６,,13,104,1610033,,,,,,,2023-12-12,1,,,,,ソニックエボリューション,0
679,3011101105436,新規,0,2023-12-12,2023-12-12,コローレ株式会社,,株式会社,東京都,新宿区,中落合２丁目１５番７－１０５号,,13,104,1610032,,,,,,,2023-12-12,1,,,,,コローレ,0
680,3011101105444,新規,0,2023-12-12,2023-12-12,株式会社サーベイアシスト,,株式会社,東京都,新宿区,西新宿７丁目１１番３号平田ビル弐号館２０１号室,,13,104,1600023,,,,,,,2023-12-12,1,,,,,サーベイアシスト,0
681,3011101105460,新規,0,2023-12-12,2023-12-12,川禾株式会社,,株式会社,東京都,新宿区,百人町１丁目１８番８号大久保カドビルＥ０２,,13,104,1690073,,,,,,,2023-12-12,1,,,,,カワノギ,0
682,3011101105469,新規,0,2023-12-12,2023-12-12,株式会社ＦＴヒューマンキャピタル,,株式会社,東京都,新宿区,大久保３丁目８番２号住友不動産新宿ガーデンタワー,,13,104,1690072,,,,,,,2023-12-12,1,,,,,エフティーヒューマンキャピタル,0
683,3011201025105,新規,0,2023-12-12,2023-12-12,株式会社オレガイズ,,株式会社,東京都,中野区,弥生町２丁目４１番１７号,,13,114,1640013,,,,,,,2023-12-12,1,,,,,オレガイズ,0
684,3011401025672,新規,0,2023-12-12,2023-12-12,シャーロット株式会社,,株式会社,東京都,板橋区,赤塚３丁目２３番７号シェロ成増２０７号,,13,119,1750092,,,,,,,2023-12-12,1,,,,,シャーロット,0
685,3011501030102,新規,0,2023-12-12,2023-12-12,株式会社デュレ,,株式会社,東京都,北区,赤羽西１丁目１８番９号６０１室シャリエ赤羽ファースト,,13,117,1150055,,,,,,,2023-12-12,1,,,,,デュレ,0
691,3011803005982,新規,0,2023-12-12,2023-12-12,合同会社和沐貿易,,合同会社,東京都,葛飾区,金町５丁目２３－８－５０３,,13,122,1250042,,,,,,,2023-12-12,1,,,,,ワモクボウエキ,0
698,3012801022813,新規,0,2023-12-12,2023-12-12,株式会社ａｍｉｔｉｅ,,株式会社,東京都,東大和市,南街５丁目９６－３サームビル１Ｆ,,13,220,2070014,,,,,,,2023-12-12,1,,,,,アミティエ,0
701,3012803003258,新規,0,2023-12-12,2023-12-12,清水合同会社,,合同会社,東京都,国分寺市,東恋ヶ窪４丁目１２番地１１０,,13,214,1850014,,,,,,,2023-12-12,1,,,,,シミズ,0
703,3013301051749,新規,0,2023-12-12,2023-12-12,ＡｃｃｅｌｅＢｏｄｙ株式会社,,株式会社,東京都,豊島区,千川１丁目２５－１８,,13,116,1710041,,,,,,,2023-12-12,1,,,,,アクセルボディ,0
713,3020001154815,新規,0,2023-12-12,2023-12-12,株式会社八幡建設,,株式会社,神奈川県,横浜市中区,曙町３丁目４４番地２リブハピネス横浜関内２０１号室,,14,104,2310057,,,,,,,2023-12-12,1,,,,,ハチマンケンセツ,0
714,3020001154848,新規,0,2023-12-12,2023-12-12,株式会社キートス,,株式会社,神奈川県,横浜市旭区,善部町１１９番地１０フォレストヒル緑園１０３,,14,112,2410823,,,,,,,2023-12-12,1,,,,,キートス,0
715,3020001154897,新規,0,2023-12-12,2023-12-12,株式会社トナンホウヨク,,株式会社,神奈川県,川崎市幸区,下平間９７番地１８,,14,132,2120053,,,,,,,2023-12-12,1,,,,,トナンホウヨク,0
720,3020003025163,新規,0,2023-12-12,2023-12-12,合同会社ＴＥＳＳ,,合同会社,神奈川県,横浜市港北区,新横浜２丁目１７番地９－５０２号室,,14,109,2220033,,,,,,,2023-12-12,1,,,,,テス,0
721,3020003025171,新規,0,2023-12-12,2023-12-12,合同会社インスタイル,,合同会社,神奈川県,横浜市港北区,大曽根台５番１１－１号,,14,109,2220004,,,,,,,2023-12-12,1,,,,,インスタイル,0
722,3020005016219,新規,0,2023-12-12,2023-12-12,医療法人社団薬医門,,その他の設立登記法人,神奈川県,川崎市麻生区,虹ケ丘３丁目２番１号,,14,137,2150015,,,,,,,2023-12-12,1,,,,,ヤクイモン,0
726,3021001080935,新規,0,2023-12-12,2023-12-12,ＨＡＺＥＬ‐ＴＲＩＣＩＡ株式会社,,株式会社,神奈川県,横須賀市,小矢部４丁目１４番１号,,14,201,2380026,,,,,,,2023-12-12,1,,,,,ヘイゼルトリシア,0
730,3021003013835,新規,0,2023-12-12,2023-12-12,ＨＵＬＬ合同会社,,合同会社,神奈川県,藤沢市,石川２７７０番地の１４,,14,205,2520815,,,,,,,2023-12-12,1,,,,,ハル,0
738,3030001157627,新規,0,2023-12-12,2023-12-12,日興ホールディングス株式会社,,株式会社,埼玉県,さいたま市岩槻区,仲町２丁目１２番１５号,,11,110,3390054,,,,,,,2023-12-12,1,,,,,ニッコウホールディングス,0
743,3030003023199,新規,0,2023-12-12,2023-12-12,合同会社たっくん,,合同会社,埼玉県,所沢市,南住吉３番１７号,,11,208,3591125,,,,,,,2023-12-12,1,,,,,タックン,0
746,3040001131325,新規,0,2023-12-12,2023-12-12,株式会社ＮＳ‐ＯＴＬａｂ,,株式会社,千葉県,君津市,杢師４丁目２２番１４号,,12,225,2991163,,,,,,,2023-12-12,1,,,,,エヌエスオーティーラボ,0
747,3040001131333,新規,0,2023-12-12,2023-12-12,Ｌａｂ　Ｒｏｃｋ株式会社,,株式会社,千葉県,流山市,大字東深井２８－１２,,12,220,2700101,,,,,,,2023-12-12,1,,,,,ラブロック,0
748,3040001131341,新規,0,2023-12-12,2023-12-12,ベーシックトウキョー株式会社,,株式会社,千葉県,鎌ケ谷市,中佐津間２丁目４－１０,,12,224,2730135,,,,,,,2023-12-12,1,,,,,ベーシックトウキョー,0
750,3040003023768,新規,0,2023-12-12,2023-12-12,合同会社Ｒ，Ｉ,,合同会社,千葉県,柏市,花野井７１３番地５コーポ花野井１０１号,,12,217,2770812,,,,,,,2023-12-12,1,,,,,アールアイ,0
752,3050001053956,新規,0,2023-12-12,2023-12-12,株式会社ユアーズ,,株式会社,茨城県,小美玉市,中野谷４５４番地４,,08,236,3190111,,,,,,,2023-12-12,1,,,,,ユアーズ,0
757,3060001036621,新規,0,2023-12-12,2023-12-12,株式会社Ｍａｎａ,,株式会社,栃木県,栃木市,大平町富田１０３３－１４,,09,203,3294404,,,,,,,2023-12-12,1,,,,,マナ,0
761,3070001041182,新規,0,2023-12-12,2023-12-12,株式会社ＬＡＮＮＥＲ,,株式会社,群馬県,前橋市,下細井町２８９番地３,,10,201,3710054,,,,,,,2023-12-12,1,,,,,ランナー,0
762,3070003005185,新規,0,2023-12-12,2023-12-12,合同会社キングダム,,合同会社,群馬県,太田市,新井町５３３－１・２Ｆ,,10,205,3730852,,,,,,,2023-12-12,1,,,,,,0
768,3080003003106,新規,0,2023-12-12,2023-12-12,合同会社キャストライト,,合同会社,静岡県,静岡市駿河区,中島２６１４番地,,22,102,4228046,,,,,,,2023-12-12,1,,,,,キャストライト,0
770,3080401026880,新規,0,2023-12-12,2023-12-12,クレスエステート株式会社,,株式会社,静岡県,浜松市西区,雄踏１丁目９番５号,,22,133,4310103,,,,,,,2023-12-12,1,,,,,クレスエステート,0
771,3090005007599,新規,0,2023-12-12,2023-12-12,ＮＰＯ法人友絆,,その他の設立登記法人,山梨県,中央市,成島１８３９番地３,,19,214,4093815,,,,,,,2023-12-12,1,,,,,ユズ,0
773,3110001038026,新規,0,2023-12-12,2023-12-12,株式会社ＰＯＴＲＩＴＺ,,株式会社,新潟県,三条市,新光町２６番１５－３号,,15,204,9550057,,,,,,,2023-12-12,1,,,,,ポリッツ,0
788,3120001260446,新規,0,2023-12-12,2023-12-12,清雨株式会社,,株式会社,大阪府,大阪市浪速区,恵美須西３丁目１０－６オリエントハイツ５０３号室,,27,111,5560003,,,,,,,2023-12-12,1,,,,,セイウ,0
789,3120001260495,新規,0,2023-12-12,2023-12-12,エジスト株式会社,,株式会社,大阪府,大阪市北区,神山町７番９号,,27,127,5300026,,,,,,,2023-12-12,1,,,,,エジスト,0
790,3120001260529,新規,0,2023-12-12,2023-12-12,株式会社ＡＺＭａｒＣｏｍ,,株式会社,大阪府,大阪市城東区,永田３丁目１０番３号１階,,27,118,5360022,,,,,,,2023-12-12,1,,,,,アズマーコム,0
791,3120001260545,新規,0,2023-12-12,2023-12-12,檜垣商事株式会社,,株式会社,大阪府,大阪市天王寺区,堀越町１２番１８号アーバンテラスアベノ３０３号,,27,109,5430056,,,,,,,2023-12-12,1,,,,,ヒガキショウジ,0
794,3120003025500,新規,0,2023-12-12,2023-12-12,合同会社ＫＡＮＤＥＬ,,合同会社,大阪府,大阪市西区,北堀江１丁目１６番１８号,,27,106,5500014,,,,,,,2023-12-12,1,,,,,カンデル,0
795,3120003025509,新規,0,2023-12-12,2023-12-12,合同会社サンケーエステート,,合同会社,大阪府,大阪市北区,本庄西１丁目１番７号１１１０,,27,127,5310073,,,,,,,2023-12-12,1,,,,,サンケーエステート,0
799,3120901048486,新規,0,2023-12-12,2023-12-12,株式会社ドローンアップ,,株式会社,大阪府,吹田市,千里丘北１－２４－１３１３,,27,205,5650815,,,,,,,2023-12-12,1,,,,,ドローンアップ,0
800,3120903004958,新規,0,2023-12-12,2023-12-12,合同会社ＰＲＥＳＴＨＥＴＩＣＳ,,合同会社,大阪府,吹田市,千里山竹園１丁目１０番１８－４１６号,,27,205,5650852,,,,,,,2023-12-12,1,,,,,プレステティックス,0
814,3130001075884,新規,0,2023-12-12,2023-12-12,Ｏｒｉｚｕｒｕ．ＡＲＴ株式会社,,株式会社,京都府,京都市中京区,錦通り烏丸西入る占出山町３０８番地,,26,104,6040000,,,,,,,2023-12-12,1,,,,,オリズルエーアールティー,0
815,3130001075901,新規,0,2023-12-12,2023-12-12,株式会社オービー・ワン,,株式会社,京都府,京都市右京区,梅津罧原町５番地１グラン・コート嵐山２１０,,26,108,6150926,,,,,,,2023-12-12,1,,,,,オービーワン,0
817,3130003009196,新規,0,2023-12-12,2023-12-12,合同会社たのじん不動産,,合同会社,京都府,京都市山科区,四ノ宮大将軍町１８番５,,26,110,6078029,,,,,,,2023-12-12,1,,,,,タノジンフドウサン,0
824,3140001132635,新規,0,2023-12-12,2023-12-12,株式会社フォーエス・Ｊ,,株式会社,兵庫県,たつの市,御津町中島１１１７番地１２,,28,229,6711311,,,,,,,2023-12-12,1,,,,,,0
825,3140001132684,新規,0,2023-12-12,2023-12-12,株式会社Ｐｈａｓｅ　Ｓｐａｃｅ,,株式会社,兵庫県,神戸市中央区,磯辺通１丁目１番２０号ＫＯＷＡビル５０５号室,,28,110,6510084,,,,,,,2023-12-12,1,,,,,フェーズスペース,0
832,3140005026833,新規,0,2023-12-12,2023-12-12,一般社団法人サイクルベース,,その他の設立登記法人,兵庫県,三木市,緑が丘町西２丁目６番地の１１,,28,215,6730531,,,,,,,2023-12-12,1,,,,,サイクルベース,0
833,3150001026935,新規,0,2023-12-12,2023-12-12,株式会社アイズ設計,,株式会社,奈良県,天理市,富堂町１５４番地８,,29,204,6320072,,,,,,,2023-12-12,1,,,,,アイズセッケイ,0
837,3160001025564,新規,0,2023-12-12,2023-12-12,株式会社ＯＣ,,株式会社,滋賀県,大津市,苗鹿２丁目３２番７号,,25,201,5200102,,,,,,,2023-12-12,1,,,,,オーシー,0
841,3170003001959,新規,0,2023-12-12,2023-12-12,合同会社エスペランサ,,合同会社,和歌山県,橋本市,東家１丁目３６７番地６－３Ｆ,,30,203,6480072,,,,,,,2023-12-12,1,,,,,エスペランサ,0
856,3180003026088,新規,0,2023-12-12,2023-12-12,合同会社瀬憲マネージメントシステム,,合同会社,愛知県,名古屋市南区,豊田１丁目３３番１６号,,23,112,4570841,,,,,,,2023-12-12,1,,,,,セケンマネージメントシステム,0
862,3180301038108,新規,0,2023-12-12,2023-12-12,Ｅｍｏｔｉｏｎ株式会社,,株式会社,愛知県,碧南市,伊勢町１丁目７１番地,,23,209,4470837,,,,,,,2023-12-12,1,,,,,エモーション,0
870,3210001019577,新規,0,2023-12-12,2023-12-12,株式会社ＴＳＵＮＡＧＵ,,株式会社,福井県,坂井市,三国町三国東３丁目２番１６号,,18,210,9130016,,,,,,,2023-12-12,1,,,,,ツナグ,0
874,3230001020137,新規,0,2023-12-12,2023-12-12,株式会社イワイライフ,,株式会社,富山県,射水市,黒河３２５２番地１,,16,211,9390311,,,,,,,2023-12-12,1,,,,,イワイライフ,0
885,3260001038548,新規,0,2023-12-12,2023-12-12,株式会社ワンズパレス,,株式会社,岡山県,都窪郡早島町,早島３３５５番地２,,33,423,7010304,,,,,,,2023-12-12,1,,,,,ワンズパレス,0
886,3260001038564,新規,0,2023-12-12,2023-12-12,株式会社フレイ,,株式会社,岡山県,岡山市北区,田町２丁目１４番１１号シャンティ田町ビル２０２号,,33,101,7000825,,,,,,,2023-12-12,1,,,,,フレイ,0
889,3270001008888,新規,0,2023-12-12,2023-12-12,株式会社ＳｔｕｄｙＢａｓｅ,,株式会社,鳥取県,鳥取市,南町４０５番地サーパス南町４０５号,,31,201,6800814,,,,,,,2023-12-12,1,,,,,スタディベース,0
891,3270003001585,新規,0,2023-12-12,2023-12-12,合同会社インパクト,,合同会社,鳥取県,東伯郡北栄町,西園４９６番地１,,31,372,6892201,,,,,,,2023-12-12,1,,,,,インパクト,0
894,3290001104009,新規,0,2023-12-12,2023-12-12,株式会社ＵＴ,,株式会社,福岡県,福岡市中央区,天神２丁目３番１０号天神パインクレスト７１９号,,40,133,8100001,,,,,,,2023-12-12,1,,,,,ユーティー,0
895,3290001104017,新規,0,2023-12-12,2023-12-12,株式会社東利,,株式会社,福岡県,福岡市中央区,小笹４丁目５番４－７０３号,,40,133,8100033,,,,,,,2023-12-12,1,,,,,トウリ,0
896,3290001104041,新規,0,2023-12-12,2023-12-12,株式会社カラコレス,,株式会社,福岡県,福岡市博多区,井相田３丁目１６番２６号,,40,132,8120881,,,,,,,2023-12-12,1,,,,,カラコレス,0
898,3290003014684,新規,0,2023-12-12,2023-12-12,合同会社ＧＡＲＢ,,合同会社,福岡県,福岡市中央区,天神２丁目２番１２号Ｔ＆Ｊビルディング７Ｆ,,40,133,8100001,,,,,,,2023-12-12,1,,,,,ガーブ,0
899,3290003014726,新規,0,2023-12-12,2023-12-12,ココデキカク合同会社,,合同会社,福岡県,福岡市中央区,今泉１丁目３番２３号セルクル今泉４０４,,40,133,8100021,,,,,,,2023-12-12,1,,,,,ココデキカク,0
902,3290801030123,新規,0,2023-12-12,2023-12-12,株式会社ベストデイズ,,株式会社,福岡県,京都郡みやこ町,勝山池田６７１番地,,40,625,8240818,,,,,,,2023-12-12,1,,,,,ベストデイズ,0
904,3300003002051,新規,0,2023-12-12,2023-12-12,合同会社丸達,,合同会社,佐賀県,三養基郡みやき町,大字白壁２３５８番地１,,41,346,8490111,,,,,,,2023-12-12,1,,,,,マルタツ,0
906,3330003010118,新規,0,2023-12-12,2023-12-12,合同会社玉手箱,,合同会社,熊本県,熊本市中央区,花畑町１３－１１ＡＳＯビル５階,,43,101,8600806,,,,,,,2023-12-12,1,,,,,タマテバコ,0
907,3340001026131,新規,0,2023-12-12,2023-12-12,株式会社ストアーきしだ,,株式会社,鹿児島県,奄美市,名瀬大字朝戸１００３番地６,,46,222,8940773,,,,,,,2023-12-12,1,,,,,ストアーキシダ,0
908,3340003004325,新規,0,2023-12-12,2023-12-12,合同会社小春日和,,合同会社,鹿児島県,霧島市,国分広瀬１丁目１６番１７－５号アクアマリン２０２号,,46,218,8994321,,,,,,,2023-12-12,1,,,,,コハルビヨリ,0
909,3340005009685,新規,0,2023-12-12,2023-12-12,一般社団法人蕾,,その他の設立登記法人,鹿児島県,鹿児島市,和田３丁目５２番地１１プレジデント勇貴１０１,,46,201,8910143,,,,,,,2023-12-12,1,,,,,ツボミ,0
911,3350003004522,新規,0,2023-12-12,2023-12-12,合同会社ＡＸＥＬＡＣＴ,,合同会社,宮崎県,宮崎市,花山手東３丁目３５番地４,,45,201,8800930,,,,,,,2023-12-12,1,,,,,アクセルアクト,0
912,3370001050707,新規,0,2023-12-12,2023-12-12,株式会社Ｈａｒｅｔａ,,株式会社,宮城県,仙台市青葉区,一番町３丁目１１番７号,,04,101,9800811,,,,,,,2023-12-12,1,,,,,ハレタ,0
919,3420001018509,新規,0,2023-12-12,2023-12-12,株式会社蝦芳工業,,株式会社,青森県,青森市,大字古館字大柳７７番地２６,,02,201,0300946,,,,,,,2023-12-12,1,,,,,エビヨシコウギョウ,0
924,3430003015718,新規,0,2023-12-12,2023-12-12,合同会社ホワイトトレイル,,合同会社,北海道,札幌市中央区,北四条西４丁目１－７ＭＭＳ札幌駅前ビル１階,,01,101,0600004,,,,,,,2023-12-12,1,,,,,ホワイトトレイル,0
928,3430005014841,新規,0,2023-12-12,2023-12-12,一般社団法人医療機関支援協会,,その他の設立登記法人,北海道,江別市,野幌住吉町３０番地の３４,,01,217,0690816,,,,,,,2023-12-12,1,,,,,イリョウキカンシエンキョウカイ,0
931,3460303000805,新規,0,2023-12-12,2023-12-12,合同会社獅子搏兎,,合同会社,北海道,北見市,北二条西２丁目８番地,,01,208,0900042,,,,,,,2023-12-12,1,,,,,シシハクト,0
932,3470003002530,新規,0,2023-12-12,2023-12-12,合同会社とびら,,合同会社,香川県,高松市,春日町７４０番地５,,37,201,7610101,,,,,,,2023-12-12,1,,,,,トビラ,0
939,3500001025356,新規,0,2023-12-12,2023-12-12,株式会社ＪＯＳ,,株式会社,愛媛県,松山市,中央１丁目１３番９号,,38,201,7918015,,,,,,,2023-12-12,1,,,,,ジェイオーエス,0
943,3500005008662,新規,0,2023-12-12,2023-12-12,一般社団法人ＩＳＰ,,その他の設立登記法人,愛媛県,伊予市,下吾川１７８３番地１,,38,210,7993111,,,,,,,2023-12-12,1,,,,,アイエスピー,0
944,3700150120994,新規,0,2023-12-12,2023-12-12,ＳｈｅｎＺｈｅｎＳｈｉ　ＴａｉＪｉｎＤｕｏＹｉｎｇ　Ｔｅｃｈｎｏｌｏｇｙ　Ｃｏ．，Ｌｔｄ,,外国会社等,,,,,,,,ｘｕｅｆｕｌｕ２６３ｈａｏｄａｘｉｎｓｈｉｄａｉｄａｓｈａＡ１０１８　ｎａｎｓｈａｎｑｕｎａｎｓｈａｎｊｉｅｄａｏ　ｓｈｅｎｚｈｅｎｇｕａｎｇｄｏｎｇ　５１８０００　ＣＮ,,,,,,2023-12-12,1,,,,,シェンジェンシタイジンデュオインテクノロジーカンパニーリミテッド,0
946,4010001240664,新規,0,2023-12-12,2023-12-12,ＯＬＯＤＵＭ株式会社,,株式会社,東京都,中央区,銀座８丁目１２番６号,,13,102,1040061,,,,,,,2023-12-12,1,,,,,オロドゥン,0
947,4010001240672,新規,0,2023-12-12,2023-12-12,株式会社ＡｔｏＧ　Ｃａｐｉｔａｌ,,株式会社,東京都,千代田区,丸の内１丁目８番２号,,13,101,1000005,,,,,,,2023-12-12,1,,,,,エートゥージーキャピタル,0
948,4010001240697,新規,0,2023-12-12,2023-12-12,株式会社ＳＪＣ　Ｌｔｄ,,株式会社,東京都,千代田区,岩本町２丁目３番８号エスポワールビル４階,,13,101,1010032,,,,,,,2023-12-12,1,,,,,エスジェーティーリミテッド,0
949,4010001240730,新規,0,2023-12-12,2023-12-12,株式会社ＶＣＰ,,株式会社,東京都,千代田区,神田須田町２丁目２３－１天翔秋葉原万世橋ビル６１０,,13,101,1010041,,,,,,,2023-12-12,1,,,,,ヴェーセーペー,0
950,4010001240747,新規,0,2023-12-12,2023-12-12,グリフィングローバルアセットマネジメント株式会社,,株式会社,東京都,千代田区,大手町２丁目６－４常盤橋タワー９階９１６号,,13,101,1000004,,,,,,,2023-12-12,1,,,,,グリフィングローバルアセットマネジメント,0
951,4010001240755,新規,0,2023-12-12,2023-12-12,株式会社ＧＢリース,,株式会社,東京都,千代田区,九段南１丁目６番５号九段会館テラス２階,,13,101,1020074,,,,,,,2023-12-12,1,,,,,ジービーリース,0
953,4010003042407,新規,0,2023-12-12,2023-12-12,合同会社Ｓｙｎｐｌａｎｎｉｎｇ,,合同会社,東京都,中央区,日本橋兜町１７番２号兜町第６葉山ビル４階,,13,102,1030026,,,,,,,2023-12-12,1,,,,,シンプランニング,0
970,4010401179049,新規,0,2023-12-12,2023-12-12,株式会社ミレ,,株式会社,東京都,港区,白金３丁目２２番６号ハプラスビル５Ｆ,,13,103,1080072,,,,,,,2023-12-12,1,,,,,ミレ,0
971,4010401179115,新規,0,2023-12-12,2023-12-12,タキロンシーアイサプライ株式会社,,株式会社,東京都,港区,港南２丁目１５番１号,,13,103,1080075,,,,,,,2023-12-12,1,,,,,タキロンシーアイサプライ,0
972,4010401179123,新規,0,2023-12-12,2023-12-12,株式会社アジアパシフィックデベロップメント,,株式会社,東京都,港区,浜松町１丁目２番１２号,,13,103,1050013,,,,,,,2023-12-12,1,,,,,アジアパシフィックデベロップメント,0
976,4010405022766,新規,0,2023-12-12,2023-12-12,社会保険労務士法人布目労務管理事務所,,その他の設立登記法人,東京都,港区,虎ノ門４丁目３－１城山トラストタワー１５階,,13,103,1050001,,,,,,,2023-12-12,1,,,,,ヌノメロウムカンリジムショ,0
977,4010405022782,新規,0,2023-12-12,2023-12-12,一般社団法人小涌谷開発,,その他の設立登記法人,東京都,港区,虎ノ門５丁目３番２０号株式会社アカウンティング・マネジメント・サービス内,,13,103,1050001,,,,,,,2023-12-12,1,,,,,コワクダニカイハツ,0
978,4010503007248,新規,0,2023-12-12,2023-12-12,超駭投資合同会社,,合同会社,東京都,台東区,浅草３丁目２１番９－２１２号,,13,106,1110032,,,,,,,2023-12-12,1,,,,,チョウガイトウシ,0
980,4010701045215,新規,0,2023-12-12,2023-12-12,株式会社ＮＭＴパートナーズ,,株式会社,東京都,品川区,荏原７丁目９番７号,,13,109,1420063,,,,,,,2023-12-12,1,,,,,エヌエムティパートナーズ,0
988,4010901054313,新規,0,2023-12-12,2023-12-12,株式会社ｉ‐ｃｈｉ．ｌａｂ．,,株式会社,東京都,世田谷区,経堂３丁目９番８号,,13,112,1560052,,,,,,,2023-12-12,1,,,,,イチラボ,0
989,4010903008647,新規,0,2023-12-12,2023-12-12,オークメディカル合同会社,,合同会社,東京都,世田谷区,上用賀１丁目２３番１５号,,13,112,1580098,,,,,,,2023-12-12,1,,,,,オークメディカル,0
990,4010903008663,新規,0,2023-12-12,2023-12-12,合同会社ＡＹＵａｎｄ．,,合同会社,東京都,世田谷区,桜丘２丁目１６－９－２０１,,13,112,1560054,,,,,,,2023-12-12,1,,,,,アユアンドドット,0
995,4011001158657,新規,0,2023-12-12,2023-12-12,株式会社ワンライフソリューション,,株式会社,東京都,渋谷区,神泉町１０番１５号アネックス神泉３０１,,13,113,1500045,,,,,,,2023-12-12,1,,,,,ワンライフソリューション,0
996,4011001158748,新規,0,2023-12-12,2023-12-12,株式会社ＣＡ　ＳＴＹＬＥ,,株式会社,東京都,渋谷区,恵比寿西２丁目４番８号８Ｆ,,13,113,1500021,,,,,,,2023-12-12,1,,,,,シーエースタイル,0
997,4011003017761,新規,0,2023-12-12,2023-12-12,ツーリズムカレッジ・旅行企画合同会社,,合同会社,東京都,渋谷区,神泉町２０－２１,,13,113,1500045,,,,,,,2023-12-12,1,,,,,ツーリズムカレッジリョコウキカク,0
998,4011003018082,新規,0,2023-12-12,2023-12-12,合同会社旅算,,合同会社,東京都,渋谷区,道玄坂１丁目１０番８号,,13,113,1500043,,,,,,,2023-12-12,1,,,,,リョサン,0
999,4011003018099,新規,0,2023-12-12,2023-12-12,合同会社Ｓａｉ,,合同会社,東京都,渋谷区,道玄坂１丁目１０番８号渋谷道玄坂東急ビル２Ｆ－Ｃ,,13,113,1500043,,,,,,,2023-12-12,1,,,,,サイ,0
1002,4011101105435,新規,0,2023-12-12,2023-12-12,株式会社メッシュメロー,,株式会社,東京都,新宿区,西新宿６丁目５番１号・新宿アイランドタワー２階Ｎｏ．１,,13,104,1600023,,,,,,,2023-12-12,1,,,,,メッシュメロー,0
1003,4011101105476,新規,0,2023-12-12,2023-12-12,株式会社ｏｐｅｎ　ｒｅｓｏｒｔ,,株式会社,東京都,新宿区,北新宿３丁目２－１－５０５,,13,104,1690074,,,,,,,2023-12-12,1,,,,,オープンリゾート,0
1006,4011103013834,新規,0,2023-12-12,2023-12-12,合同会社Ｊ,,合同会社,東京都,新宿区,北新宿１丁目８－２３－３０３,,13,104,1690074,,,,,,,2023-12-12,1,,,,,ジェイ,0
1007,4011103013842,新規,0,2023-12-12,2023-12-12,合同会社ハイウッド,,合同会社,東京都,新宿区,西新宿３丁目５番１２号トーカン新宿第二キャステール４０６,,13,104,1600023,,,,,,,2023-12-12,1,,,,,ハイウッド,0
1016,4011701026840,新規,0,2023-12-12,2023-12-12,株式会社Ｎプランニング,,株式会社,東京都,江戸川区,北小岩２丁目８番２０－１００２号,,13,123,1330051,,,,,,,2023-12-12,1,,,,,エヌプランニング,0
1020,4012401041320,新規,0,2023-12-12,2023-12-12,株式会社ＧＯＥＮ,,株式会社,東京都,府中市,清水が丘３丁目１５番地の８サンタマーレ１Ａ,,13,206,1830015,,,,,,,2023-12-12,1,,,,,ゴエン,0
1023,4012803003249,新規,0,2023-12-12,2023-12-12,合同会社Ｇａｒａｇｅ　Ｂｕｚｚ,,合同会社,東京都,武蔵村山市,三ツ木１丁目１８番地の１ホワイトヴィラＢ１０１号,,13,223,2080032,,,,,,,2023-12-12,1,,,,,ガレージバズ,0
1033,4020001154888,新規,0,2023-12-12,2023-12-12,株式会社ミフォクス,,株式会社,神奈川県,川崎市高津区,千年２１番地,,14,134,2130022,,,,,,,2023-12-12,1,,,,,ミフォクス,0
1037,4020003025162,新規,0,2023-12-12,2023-12-12,ＣＬＡｉｄ　Ｒｅｓｉｄｅｎｃｅ合同会社,,合同会社,神奈川県,川崎市高津区,蟹ケ谷５９番地シーズガーデン日吉３０５,,14,134,2130025,,,,,,,2023-12-12,1,,,,,シーエルエイドレジデンス,0
1043,4021001080942,新規,0,2023-12-12,2023-12-12,ＲＡＭＰＡＧＥ株式会社,,株式会社,神奈川県,相模原市緑区,相原４丁目１５番６号,,14,151,2520141,,,,,,,2023-12-12,1,,,,,ランページ,0
1045,4021003013891,新規,0,2023-12-12,2023-12-12,合同会社Ｉａｍｅ,,合同会社,神奈川県,相模原市中央区,相模原８丁目９番１６号アヴェニール１０３,,14,152,2520231,,,,,,,2023-12-12,1,,,,,アイム,0
1049,4030001157444,新規,0,2023-12-12,2023-12-12,株式会社Ｓａｖｅ管理,,株式会社,埼玉県,三郷市,新和５丁目１１０番地,,11,237,3410034,,,,,,,2023-12-12,1,,,,,セーブカンリ,0
1054,4030003023181,新規,0,2023-12-12,2023-12-12,レッドスターアイランド合同会社,,合同会社,埼玉県,八潮市,大字大瀬１９４番地６,,11,234,3400822,,,,,,,2023-12-12,1,,,,,レッドスターアイランド,0
1055,4030003023198,新規,0,2023-12-12,2023-12-12,ビエンソル合同会社,,合同会社,埼玉県,鶴ヶ島市,大字上広谷３６８－２鶴ヶ島ダイカンプラザＣＩＴＹ２０２号室,,11,241,3502203,,,,,,,2023-12-12,1,,,,,ビエンソル,0
1070,4050001053922,新規,0,2023-12-12,2023-12-12,株式会社ＷＩＮＧ,,株式会社,茨城県,小美玉市,小曽納字代４３７番地１,,08,236,3190125,,,,,,,2023-12-12,1,,,,,ウィング,0
1071,4050001053939,新規,0,2023-12-12,2023-12-12,株式会社ながおか動物病院,,株式会社,茨城県,東茨城郡茨城町,大字前田１６８０番地２２０,,08,302,3113115,,,,,,,2023-12-12,1,,,,,ナガオカドウブツビョウイン,0
1072,4050001053963,新規,0,2023-12-12,2023-12-12,株式会社Ｏｗｌ　Ｉｎｎｏｖａｔｉｏｎ,,株式会社,茨城県,つくば市,中山１６１番地８,,08,220,3001268,,,,,,,2023-12-12,1,,,,,アウルイノベーション,0
1075,4060001036620,新規,0,2023-12-12,2023-12-12,株式会社真秀企画,,株式会社,栃木県,小山市,犬塚５丁目１７番地１６,,09,208,3230811,,,,,,,2023-12-12,1,,,,,マシュウキカク,0
1081,4070001041165,新規,0,2023-12-12,2023-12-12,株式会社運転予備校,,株式会社,群馬県,みどり市,笠懸町阿左美６０１番地５アルカディアＢ１０１,,10,212,3792311,,,,,,,2023-12-12,1,,,,,ウンテンヨビコウ,0
1086,4080001026025,新規,0,2023-12-12,2023-12-12,株式会社ＡＭＴＡＥ　ＪＡＰＡＮ,,株式会社,静岡県,静岡市駿河区,みずほ３丁目１３番地の１,,22,102,4210115,,,,,,,2023-12-12,1,,,,,アムテジャパン,0
1090,4080101024390,新規,0,2023-12-12,2023-12-12,株式会社静岡メディカル,,株式会社,静岡県,富士市,水戸島本町１０番２５号,,22,210,4160924,,,,,,,2023-12-12,1,,,,,シズオカメディカル,0
1096,4080401026888,新規,0,2023-12-12,2023-12-12,株式会社ワンプラネット・アブロード,,株式会社,静岡県,浜松市中区,板屋町１０１番地の２２小川ビル３Ｆ,,22,131,4300928,,,,,,,2023-12-12,1,,,,,ワンプラネットアブロード,0
1100,4090003002444,新規,0,2023-12-12,2023-12-12,合同会社クレーンシア,,合同会社,山梨県,甲府市,東光寺１丁目１１番２２号ステージＮ．７－１０１,,19,201,4000807,,,,,,,2023-12-12,1,,,,,クレーンシア,0
1112,4120001260445,新規,0,2023-12-12,2023-12-12,＿田株式会社,00132964,株式会社,大阪府,大阪市大正区,小林東２丁目９番５号５０８,,27,108,5510011,,,,,,,2023-12-12,1,,,,,キンデン,0
1113,4120001260511,新規,0,2023-12-12,2023-12-12,さいのパートナーズ株式会社,,株式会社,大阪府,大阪市西区,江之子島２丁目１番３７号阿波座ライズタワーズフラッグ４６、９１２号室,,27,106,5500006,,,,,,,2023-12-12,1,,,,,サイノパートナーズ,0
1114,4120001260560,新規,0,2023-12-12,2023-12-12,株式会社ＡＴＲＡ,,株式会社,大阪府,大阪市中央区,心斎橋筋１丁目４番１２号心斎橋日光ビル５階１号,,27,128,5420085,,,,,,,2023-12-12,1,,,,,アトラ,0
1115,4120001260569,新規,0,2023-12-12,2023-12-12,株式会社伊藤設備,,株式会社,大阪府,大阪市住之江区,西住之江２丁目３番１８号ＴＲＹＢＡＳＥ住之江,,27,125,5590005,,,,,,,2023-12-12,1,,,,,イトウセツビ,0
1116,4120001260602,新規,0,2023-12-12,2023-12-12,一品株式会社,,株式会社,大阪府,大阪市港区,波除３丁目２番１９号,,27,107,5520001,,,,,,,2023-12-12,1,,,,,イッピン,0
1117,4120001260610,新規,0,2023-12-12,2023-12-12,ヴィンテージ不動産株式会社,,株式会社,大阪府,大阪市平野区,加美西１丁目１３番４７号,,27,126,5470005,,,,,,,2023-12-12,1,,,,,ヴィンテージフドウサン,0
1120,4120003025490,新規,0,2023-12-12,2023-12-12,合同会社Ｎｅｘｓｔｒｉｄｅ　Ｐａｒｔｎｅｒｓ,,合同会社,大阪府,大阪市中央区,久太郎町３丁目１番６号,,27,128,5410056,,,,,,,2023-12-12,1,,,,,ネクストライドパートナーズ,0
1129,4120903004957,新規,0,2023-12-12,2023-12-12,合同会社ＮＯＫＵＭＡ,,合同会社,大阪府,豊中市,庄内東町２丁目１番４号,,27,203,5610831,,,,,,,2023-12-12,1,,,,,ノクマ,0
1135,4130001075900,新規,0,2023-12-12,2023-12-12,ＭＩＲＡＲＩ．株式会社,,株式会社,京都府,京都市下京区,七条通油小路東入大黒町２２７番地第２キョートビル４０２,,26,106,6008223,,,,,,,2023-12-12,1,,,,,ミラリ,0
1144,4140001132592,新規,0,2023-12-12,2023-12-12,株式会社Ｌｕｕ　Ｓｔｙｌｅ,,株式会社,兵庫県,神戸市東灘区,住吉本町１丁目５番４号エヌシーパレス１Ｆ,,28,101,6580051,,,,,,,2023-12-12,1,,,,,ルースタイル,0
1145,4140001132634,新規,0,2023-12-12,2023-12-12,株式会社ももとそら,,株式会社,兵庫県,川西市,美山台１丁目３番地の５６,,28,217,6660151,,,,,,,2023-12-12,1,,,,,,0
1157,4180001159236,新規,0,2023-12-12,2023-12-12,株式会社Ｅｍｐｅｒｏｒ,,株式会社,愛知県,名古屋市南区,鳴浜町２丁目３９番地テラスハウス鳴浜西室,,23,112,4570806,,,,,,,2023-12-12,1,,,,,エンペラー,0
1158,4180001159285,新規,0,2023-12-12,2023-12-12,株式会社ＮＥＷ　ｎｏｏｄｌｅ,,株式会社,愛知県,名古屋市千種区,千種２丁目２３番６号,,23,101,4640858,,,,,,,2023-12-12,1,,,,,ニューヌードル,0
1159,4180001159310,新規,0,2023-12-12,2023-12-12,株式会社アルカナラボ,,株式会社,愛知県,春日井市,藤山台３丁目１－７藤山台特別分譲住宅３０１棟４０３号室,,23,206,4870035,,,,,,,2023-12-12,1,,,,,アルカナラボ,0
1173,4190001030940,新規,0,2023-12-12,2023-12-12,水谷ホールディングス株式会社,,株式会社,三重県,松阪市,松ヶ島町４３０番地１,,24,204,5152133,,,,,,,2023-12-12,1,,,,,ミズタニホールディングス,0
1174,4190001030949,新規,0,2023-12-12,2023-12-12,株式会社コラボレート,,株式会社,三重県,鈴鹿市,広瀬町４０５番地６,,24,207,5130001,,,,,,,2023-12-12,1,,,,,コラボレート,0
1183,4210001019576,新規,0,2023-12-12,2023-12-12,株式会社東京ミノルヤ,,株式会社,福井県,鯖江市,西山町４番１０号,,18,207,9160023,,,,,,,2023-12-12,1,,,,,トウキョウミノルヤ,0
1185,4210003001730,新規,0,2023-12-12,2023-12-12,合同会社ＡｃｅＯｎｅ,,合同会社,福井県,福井市,福２丁目１００３番地エステルＢ２０２,,18,201,9188027,,,,,,,2023-12-12,1,,,,,エースワン,0
1192,4240001062532,新規,0,2023-12-12,2023-12-12,株式会社ｒｉｒ,,株式会社,広島県,呉市,中通２丁目２番７号,,34,202,7370046,,,,,,,2023-12-12,1,,,,,リル,0
1201,4260001038547,新規,0,2023-12-12,2023-12-12,昭工業株式会社,,株式会社,岡山県,倉敷市,連島町連島１９００番地３（プレミアムＩＩ２０２）,00132955,33,202,7128011,,,,,,,2023-12-12,1,,,,,アキコウギョウ,0
1202,4260001038555,新規,0,2023-12-12,2023-12-12,株式会社Ｓｃｈａｔｚ　ＯＫＡＹＡＭＡ,,株式会社,岡山県,岡山市南区,松浜町７番１４号,,33,104,7028038,,,,,,,2023-12-12,1,,,,,シャッツオカヤマ,0
1203,4270001008887,新規,0,2023-12-12,2023-12-12,株式会社山陰技光,,株式会社,鳥取県,米子市,高島１７１番地９,,31,202,6893536,,,,,,,2023-12-12,1,,,,,サンインギコウ,0
1204,4270003001584,新規,0,2023-12-12,2023-12-12,合同会社Ｇｅｍｉｎｉ　Ｌｅｏ,,合同会社,鳥取県,米子市,祇園町１丁目１０番地,,31,202,6830047,,,,,,,2023-12-12,1,,,,,ジェミニレオ,0
1215,4290001103991,新規,0,2023-12-12,2023-12-12,株式会社永祥商事,,株式会社,福岡県,福津市,本木２４１８－２,,40,224,8113203,,,,,,,2023-12-12,1,,,,,エイショウショウジ,0
1216,4290001104016,新規,0,2023-12-12,2023-12-12,株式会社ｔｏｅ,,株式会社,福岡県,福岡市中央区,薬院１丁目１１番１６号２Ｆ,,40,133,8100022,,,,,,,2023-12-12,1,,,,,トエ,0
1217,4290001104024,新規,0,2023-12-12,2023-12-12,株式会社ｃｅｎｔｅｒ　ｖｉｌｌａｇｅ,,株式会社,福岡県,福岡市博多区,住吉４丁目４－１３－７０３,,40,132,8120018,,,,,,,2023-12-12,1,,,,,センタービレッジ,0
1223,4290801030122,新規,0,2023-12-12,2023-12-12,株式会社合馬観光たけのこ園,,株式会社,福岡県,北九州市小倉南区,大字合馬６４４番地,,40,107,8030261,,,,,,,2023-12-12,1,,,,,オウマカンコウタケノコエン,0
1227,4310001018741,新規,0,2023-12-12,2023-12-12,株式会社ヤマフク,,株式会社,長崎県,雲仙市,小浜町マリーナ１９番地４,,42,213,8540517,,,,,,,2023-12-12,1,,,,,ヤマフク,0
1234,4330003010117,新規,0,2023-12-12,2023-12-12,合同会社たらまよ,,合同会社,熊本県,熊本市北区,龍田陳内４丁目２３－８－１Ｆ,,43,105,8618005,,,,,,,2023-12-12,1,,,,,タラマヨ,0
1237,4340005009684,新規,0,2023-12-12,2023-12-12,社会福祉法人希望の風福祉会,,その他の設立登記法人,鹿児島県,指宿市,東方１７７８番地,,46,210,8910404,,,,,,,2023-12-12,1,,,,,キボウノカゼフクシカイ,0
1240,4370005010722,新規,0,2023-12-12,2023-12-12,医療法人しおかぜ,,その他の設立登記法人,宮城県,多賀城市,笠神４丁目６番８号,,04,209,9850831,,,,,,,2023-12-12,1,,,,,シオカゼ,0
1244,4380001034187,新規,0,2023-12-12,2023-12-12,株式会社かぎに三角,,株式会社,福島県,田村郡小野町,大字雁股田字堀切５２番地,,07,522,9633405,,,,,,,2023-12-12,1,,,,,カギニサンカク,0
1247,4390001017439,新規,0,2023-12-12,2023-12-12,株式会社Ｃｏｎｎｅｃｔ,,株式会社,山形県,山形市,鈴川町３丁目２番２３－２号,,06,201,9900062,,,,,,,2023-12-12,1,,,,,コネクト,0
1248,4400001016488,新規,0,2023-12-12,2023-12-12,株式会社協友,,株式会社,岩手県,奥州市,胆沢若柳字上土橋５８番地１,,03,215,0230403,,,,,,,2023-12-12,1,,,,,キョウユウ,0
1251,4410001013666,新規,0,2023-12-12,2023-12-12,株式会社アグリランドしろくまくん,,株式会社,秋田県,秋田市,河辺戸島字白熊沢７３番地,,05,201,0192611,,,,,,,2023-12-12,1,,,,,アグリランドシロクマクン,0
1252,4430001090613,新規,0,2023-12-12,2023-12-12,株式会社ＫＡＭＵＩ．,,株式会社,北海道,石狩市,花川北五条３丁目４２番地,,01,235,0613215,,,,,,,2023-12-12,1,,,,,カムイ,0
1253,4430001090621,新規,0,2023-12-12,2023-12-12,株式会社加藤企画,,株式会社,北海道,札幌市中央区,大通東２丁目８番地５プレジデント札幌ビル５階,,01,101,0600041,,,,,,,2023-12-12,1,,,,,カトウキカク,0
1263,4480003002058,新規,0,2023-12-12,2023-12-12,合同会社誠,,合同会社,徳島県,徳島市,方上町中須賀３１―１,,36,201,7708033,,,,,,,2023-12-12,1,,,,,マコト,0
1269,4500003003152,新規,0,2023-12-12,2023-12-12,合同会社スイミー建築舎,,合同会社,愛媛県,今治市,中日吉町１丁目４番２４号,,38,202,7940055,,,,,,,2023-12-12,1,,,,,スイミーケンチクシャ,0
1270,4500005008661,新規,0,2023-12-12,2023-12-12,一般社団法人愛媛デジタル女子プロジェクト,,その他の設立登記法人,愛媛県,松山市,湊町４丁目６番地１２池田ビル,,38,201,7900012,,,,,,,2023-12-12,1,,,,,エヒメデジタルジョシプロジェクト,0
1276,5010001240630,新規,0,2023-12-12,2023-12-12,株式会社Ｍｉｒａｇｅ　Ｅｒａ　Ｍｅｄｉａ＆Ｐｒｏｄｕｃｔｉｏｎ,,株式会社,東京都,中央区,銀座１丁目２４番１号,,13,102,1040061,,,,,,,2023-12-12,1,,,,,ミラージュイラメディアアンドプロダクション,0
1277,5010001240696,新規,0,2023-12-12,2023-12-12,株式会社ＢＡＳＥＬＩＮＥ,,株式会社,東京都,文京区,湯島４丁目６番１２号,,13,105,1130034,,,,,,,2023-12-12,1,,,,,ベースライン,0
1278,5010001240705,新規,0,2023-12-12,2023-12-12,株式会社ＴＧＰ,,株式会社,東京都,千代田区,神田佐久間町３丁目３７番地２４－９０４号,,13,101,1010025,,,,,,,2023-12-12,1,,,,,ティージーピー,0
1279,5010001240713,新規,0,2023-12-12,2023-12-12,株式会社Ｆｏｏｄ　Ｅｄｕｃａｔｉｏｎ,,株式会社,東京都,中央区,日本橋小舟町９番１０－１０２号,,13,102,1030024,,,,,,,2023-12-12,1,,,,,フードエデュケイション,0
1280,5010001240746,新規,0,2023-12-12,2023-12-12,株式会社中川,,株式会社,東京都,千代田区,四番町６番地１１,,13,101,1020081,,,,,,,2023-12-12,1,,,,,ナカガワ,0
1281,5010001240762,新規,0,2023-12-12,2023-12-12,エイチケーティー・グローバル・ジャパン株式会社,,株式会社,東京都,千代田区,内幸町１丁目１番１号帝国ホテルタワー,,13,101,1000011,,,,,,,2023-12-12,1,,,,,エイチケーティーグローバルジャパン,0
1282,5010003042406,新規,0,2023-12-12,2023-12-12,ＭＡＩＳＯＮ　ＴＯＭＯＫＩ合同会社,,合同会社,東京都,中央区,勝どき１丁目１３－６－３５１３,,13,102,1040054,,,,,,,2023-12-12,1,,,,,メゾントモキ,0
1283,5010003042430,新規,0,2023-12-12,2023-12-12,合同会社ｔｈ　ｇｅｎｅｒａｌ　ｏｆｆｉｃｅ,,合同会社,東京都,文京区,千石２丁目１１番９－１１２号,,13,105,1120011,,,,,,,2023-12-12,1,,,,,ティーエイチジェネラルオフィス,0
1295,5010401179056,新規,0,2023-12-12,2023-12-12,ＮＰＢ　Ｊａｐａｎ株式会社,,株式会社,東京都,港区,六本木１丁目９番１０号アークヒルズ仙石山森タワー２８階べーカー＆マッケンジー法律事務所（外国法共同事業）内,,13,103,1060032,,,,,,,2023-12-12,1,,,,,エヌピービージャパン,0
1296,5010401179064,新規,0,2023-12-12,2023-12-12,ＥＦＦＩＣＩＭＥＮＴ株式会社,,株式会社,東京都,港区,南青山３丁目１番３６号,,13,103,1070062,,,,,,,2023-12-12,1,,,,,エフィシメント,0
1297,5010401179106,新規,0,2023-12-12,2023-12-12,株式会社Ａｎｎ,,株式会社,東京都,港区,六本木４丁目３番１１号六本木ユニハウス２２３,,13,103,1060032,,,,,,,2023-12-12,1,,,,,アン,0
1301,5010405022773,新規,0,2023-12-12,2023-12-12,一般社団法人元赤坂,,その他の設立登記法人,東京都,港区,虎ノ門３丁目２２番１０－２０１号,,13,103,1050001,,,,,,,2023-12-12,1,,,,,モトアカサカ,0
1304,5010503007247,新規,0,2023-12-12,2023-12-12,フェリーチェコンサル合同会社,,合同会社,東京都,台東区,台東１丁目１４番１０－２０６号パークハビオ秋葉原,,13,106,1100016,,,,,,,2023-12-12,1,,,,,フェリーチェコンサル,0
1305,5010601064339,新規,0,2023-12-12,2023-12-12,株式会社ニコクリエイティブ,,株式会社,東京都,江東区,常盤２丁目９番７‐５０１号,,13,108,1350006,,,,,,,2023-12-12,1,,,,,ニコクリエイティブ,0
1308,5010701045247,新規,0,2023-12-12,2023-12-12,株式会社悠学,,株式会社,東京都,品川区,二葉２丁目１６番８号,,13,109,1420043,,,,,,,2023-12-12,1,,,,,ユウガク,0
1310,5010801034595,新規,0,2023-12-12,2023-12-12,株式会社ディーツー,,株式会社,東京都,大田区,石川町２丁目５番６号ミラーグリム１０２,,13,111,1450061,,,,,,,2023-12-12,1,,,,,ディーツー,0
1313,5010901054320,新規,0,2023-12-12,2023-12-12,株式会社ｎｉｃｏｓｐｈｅｒｅ,,株式会社,東京都,世田谷区,玉川３丁目３６番６号ＴＡＭＡＧＡＷＡＥ．Ｙ．Ｃ１０１,,13,112,1580094,,,,,,,2023-12-12,1,,,,,ニコスフィア,0
1318,5011001158689,新規,0,2023-12-12,2023-12-12,株式会社Ｋ,,株式会社,東京都,渋谷区,神山町２０番１６号,,13,113,1500047,,,,,,,2023-12-12,1,,,,,ケー,0
1319,5011001158747,新規,0,2023-12-12,2023-12-12,株式会社ｎＡｍｅｓｉａ,,株式会社,東京都,渋谷区,本町４丁目２２番１０－７２６号ＰＡＲＫＨＡＢＩＯ渋谷本町レジデンス,,13,113,1510071,,,,,,,2023-12-12,1,,,,,ナメシア,0
1320,5011001158755,新規,0,2023-12-12,2023-12-12,株式会社Ｖｏｉｃｅ　Ｐｒｏｆｅｓｓｉｏｎａｌｓ,,株式会社,東京都,渋谷区,道玄坂２丁目１９番３－５０１号,,13,113,1500043,,,,,,,2023-12-12,1,,,,,ボイスプロフェッショナルズ,0
1326,5011003018073,新規,0,2023-12-12,2023-12-12,ＣＭＰＳ合同会社,,合同会社,東京都,渋谷区,渋谷３丁目１－９ＹＡＺＡＷＡビル３階,,13,113,1500002,,,,,,,2023-12-12,1,,,,,コンパス,0
1330,5011101105401,新規,0,2023-12-12,2023-12-12,株式会社ユビボット,,株式会社,東京都,新宿区,大久保１丁目２番１号,,13,104,1690072,,,,,,,2023-12-12,1,,,,,ユビボット,0
1331,5011101105442,新規,0,2023-12-12,2023-12-12,株式会社トラストテクノス,,株式会社,東京都,新宿区,西新宿６丁目５番１号新宿アイランドタワー２階,,13,104,1600023,,,,,,,2023-12-12,1,,,,,トラストテクノス,0
1332,5011101105450,新規,0,2023-12-12,2023-12-12,心悦芸晟株式会社,,株式会社,東京都,新宿区,中落合３丁目１７番９号,,13,104,1610032,,,,,,,2023-12-12,1,,,,,シンエツゲイセイ,0
1333,5011101105459,新規,0,2023-12-12,2023-12-12,開源株式会社,,株式会社,東京都,新宿区,北新宿４丁目２１番３号コードヴィレッジ２１・２－Ｃ号室,,13,104,1690074,,,,,,,2023-12-12,1,,,,,カイゲン,0
1334,5011103013833,新規,0,2023-12-12,2023-12-12,合同会社Ｎｅｘｔ　ＤＩＧ,,合同会社,東京都,新宿区,西新宿３丁目３番１３号西新宿水間ビル６階,,13,104,1600023,,,,,,,2023-12-12,1,,,,,ネクストディーアイジー,0
1335,5011103013841,新規,0,2023-12-12,2023-12-12,合同会社ＹｏＬｏ,,合同会社,東京都,新宿区,片町３－５－３０１,,13,104,1600001,,,,,,,2023-12-12,1,,,,,ヨーロ,0
1339,5011301029235,新規,0,2023-12-12,2023-12-12,株式会社魚耕不動産,,株式会社,東京都,杉並区,上荻１丁目１４番１２号,,13,115,1670043,,,,,,,2023-12-12,1,,,,,ウオコウフドウサン,0
1342,5011501030083,新規,0,2023-12-12,2023-12-12,果格日本科技株式会社,,株式会社,東京都,北区,浮間１丁目７－２３兆豊浮間ビル５０２号室,,13,117,1150051,,,,,,,2023-12-12,1,,,,,カカクニホンカギ,0
1349,5012801022828,新規,0,2023-12-12,2023-12-12,株式会社ＤＩＶＥＲＴ,,株式会社,東京都,立川市,曙町２丁目８番２６号,00132965,13,202,1900012,,,,,,,2023-12-12,1,,,,,ダイバート,0
1350,5012803003231,新規,0,2023-12-12,2023-12-12,合同会社ヴォンターデ,,合同会社,東京都,東大和市,奈良橋５丁目５０９－７,,13,220,2070031,,,,,,,2023-12-12,1,,,,,ヴォンターデ,0
1351,5012803003248,新規,0,2023-12-12,2023-12-12,モナ合同会社,,合同会社,東京都,日野市,万願寺２丁目１１番地の１コーポ杉本１０１号室,,13,212,1910024,,,,,,,2023-12-12,1,,,,,モナ,0
1352,5012803003256,新規,0,2023-12-12,2023-12-12,合同会社ＹＯ‐ＤＥＮ,,合同会社,東京都,武蔵村山市,大南２丁目６９番地の１０,,13,223,2080013,,,,,,,2023-12-12,1,,,,,ヨーデン,0
1356,5013301051747,新規,0,2023-12-12,2023-12-12,盛洋国際株式会社,,株式会社,東京都,豊島区,南池袋１丁目１６番１５号ダイヤゲート池袋４２１,,13,116,1710022,,,,,,,2023-12-12,1,,,,,セイヨウコクサイ,0
1357,5013303006914,新規,0,2023-12-12,2023-12-12,河野商事合同会社,,合同会社,東京都,豊島区,北大塚１丁目３１番５号,,13,116,1700004,,,,,,,2023-12-12,1,,,,,カワノショウジ,0
1362,5020001154862,新規,0,2023-12-12,2023-12-12,株式会社グルーシス,,株式会社,神奈川県,横浜市青葉区,荏田町３２２番地２０,,14,117,2250013,,,,,,,2023-12-12,1,,,,,グルーシス,0
1363,5020001154895,新規,0,2023-12-12,2023-12-12,株式会社エイム,,株式会社,神奈川県,横浜市都筑区,大熊町８８２番地３,,14,118,2240042,,,,,,,2023-12-12,1,,,,,エイム,0
1364,5020001154904,新規,0,2023-12-12,2023-12-12,株式会社ＳＴＡＹＧＯＬＤ,,株式会社,神奈川県,横浜市鶴見区,上末吉２丁目７番１号クレストフォルム横浜リヴァシス１２０１,,14,101,2300011,,,,,,,2023-12-12,1,,,,,ステイゴールド,0
1368,5021001080941,新規,0,2023-12-12,2023-12-12,株式会社Ｅｎｊｏｙ　Ｍａｎａｇｅｍｅｎｔ,,株式会社,神奈川県,伊勢原市,白根１２５番１号パークサイド伊勢原２０２号室,,14,214,2591147,,,,,,,2023-12-12,1,,,,,エンジョイマネジメント,0
1379,5030001157690,新規,0,2023-12-12,2023-12-12,さきたまプールＰＦＩサービス株式会社,,株式会社,埼玉県,さいたま市大宮区,吉敷町１丁目７５番地１,,11,103,3300843,,,,,,,2023-12-12,1,,,,,サキタマプールピーエフアイサービス,0
1388,5040001131298,新規,0,2023-12-12,2023-12-12,大承株式会社,,株式会社,千葉県,山武市,島２１０－１,,12,237,2891325,,,,,,,2023-12-12,1,,,,,ダイショウ,0
1389,5040001131331,新規,0,2023-12-12,2023-12-12,株式会社Ｌｉｖｒｅ,,株式会社,千葉県,千葉市若葉区,若松台２丁目１３番１５号,,12,104,2640027,,,,,,,2023-12-12,1,,,,,リーヴル,0
1390,5040003023915,新規,0,2023-12-12,2023-12-12,Ｐａｔｍａ合同会社,,合同会社,千葉県,佐倉市,臼井１５０３番地２,,12,212,2850863,,,,,,,2023-12-12,1,,,,,パトマ,0
1391,5050003007999,新規,0,2023-12-12,2023-12-12,合同会社Ｂｒｉｌｌａｎｔｅ,,合同会社,茨城県,つくば市,竹園１丁目３－８ＬＥＢＥＮＴＨＥＴＳＵＫＵＢＡ６２２,,08,220,3050032,,,,,,,2023-12-12,1,,,,,,0
1396,5070001041164,新規,0,2023-12-12,2023-12-12,保安テクノス株式会社,,株式会社,群馬県,北群馬郡吉岡町,大字漆原１１５７番地３,,10,345,3703601,,,,,,,2023-12-12,1,,,,,ホアンテクノス,0
1400,5080001026024,新規,0,2023-12-12,2023-12-12,株式会社ＴＯＹｓ　Ｉｎｔｅｇｒａｌ,,株式会社,静岡県,焼津市,五ケ堀之内５３１番地の４,,22,212,4250077,,,,,,,2023-12-12,1,,,,,トイズインテグラル,0
1403,5080403004924,新規,0,2023-12-12,2023-12-12,合同会社あまいろ,,合同会社,静岡県,浜松市中区,佐藤３丁目１２番２１号,,22,131,4300807,,,,,,,2023-12-12,1,,,,,アマイロ,0
1410,5100001037019,新規,0,2023-12-12,2023-12-12,株式会社ＫＯＮＩＳＵ,,株式会社,長野県,北安曇郡小谷村,大字千国乙１２８６０－４,,20,486,3999422,,,,,,,2023-12-12,1,,,,,コーニス,0
1415,5110001038024,新規,0,2023-12-12,2023-12-12,マネジメントビットバレー株式会社,,株式会社,新潟県,長岡市,坂之上町２丁目３番地２０,,15,202,9400065,,,,,,,2023-12-12,1,,,,,マネジメントビットバレー,0
1420,5110003005237,新規,0,2023-12-12,2023-12-12,合同会社ＦＩＬＤ’ＯＲ,,合同会社,新潟県,五泉市,山崎１７０８番地１３,,15,218,9591856,,,,,,,2023-12-12,1,,,,,フィルドール,0
1427,5120001260411,新規,0,2023-12-12,2023-12-12,Ｔｈｅ　Ｃｈａｉｒｍａｎ　ｃｏｎｓｕｌｔｉｎｇ　ｆｉｒｍ株式会社,,株式会社,大阪府,大阪市北区,西天満２丁目６番８号６Ｆ新東京国際リーガル内,,27,127,5300047,,,,,,,2023-12-12,1,,,,,ザチェアメンコンサルティングフォーム,0
1428,5120001260452,新規,0,2023-12-12,2023-12-12,株式会社ＴＡＫＵＰＯＲＴ,,株式会社,大阪府,大阪市淀川区,木川東３丁目２番８号,,27,123,5320012,,,,,,,2023-12-12,1,,,,,タクポート,0
1437,5120005024036,新規,0,2023-12-12,2023-12-12,一般社団法人国際傷病ケア協会,,その他の設立登記法人,大阪府,大阪市住之江区,東加賀屋４丁目６番７号エルシア東加賀屋７０３号室,,27,125,5590012,,,,,,,2023-12-12,1,,,,,コクサイショウビョウケアキョウカイ,0
1438,5120005024044,新規,0,2023-12-12,2023-12-12,一般社団法人ＥＩＧＨＴ,,その他の設立登記法人,大阪府,大阪市北区,梅田１丁目１番３号大阪駅前第３ビル２９階１－１－１号室,,27,127,5300001,,,,,,,2023-12-12,1,,,,,エイト,0
1442,5120101068671,新規,0,2023-12-12,2023-12-12,Ｓｋｙ管理株式会社,,株式会社,大阪府,羽曳野市,南恵我之荘６丁目１１番１０号,,27,222,5830885,,,,,,,2023-12-12,1,,,,,スカイカンリ,0
1443,5120101068688,新規,0,2023-12-12,2023-12-12,株式会社ヨッシャ本舗,,株式会社,大阪府,泉佐野市,大西１丁目１３－１４,,27,213,5980043,,,,,,,2023-12-12,1,,,,,ヨッシャホンポ,0
1453,5130001075908,新規,0,2023-12-12,2023-12-12,株式会社ＳＫＲ‐１０８,,株式会社,京都府,船井郡京丹波町,三ノ宮小山３５番地,,26,407,6220303,,,,,,,2023-12-12,1,,,,,エスケーアールイチマルハチ,0
1454,5130001075916,新規,0,2023-12-12,2023-12-12,株式会社ＭＡＫＥ　ＳＯＭＥ,,株式会社,京都府,京都市伏見区,深草大亀谷万帖敷町１４２番地２９,,26,109,6120846,,,,,,,2023-12-12,1,,,,,メイクサム,0
1460,5140001132633,新規,0,2023-12-12,2023-12-12,ａｂｕｎｄａｎｃｅ　ｌｉｆｅｓｔｙｌｅ株式会社,,株式会社,兵庫県,神戸市中央区,北野町４丁目１０番５－７０２号,,28,110,6500002,,,,,,,2023-12-12,1,,,,,アバンダンスライフスタイル,0
1463,5150003003138,新規,0,2023-12-12,2023-12-12,Ｓｕｐｅｒｓｌｏｗ合同会社,,合同会社,奈良県,奈良市,青山８丁目１００－２,,29,201,6308101,,,,,,,2023-12-12,1,,,,,スーパースロー,0
1464,5160001025554,新規,0,2023-12-12,2023-12-12,有和金属株式会社,,株式会社,滋賀県,甲賀市,水口町泉１４２７番地８,,25,209,5280056,,,,,,,2023-12-12,1,,,,,ユウワキンゾク,0
1466,5170001017922,新規,0,2023-12-12,2023-12-12,株式会社絆,,株式会社,和歌山県,和歌山市,小倉１２０番地５,,30,201,6496261,,,,,,,2023-12-12,1,,,,,キズナ,0
1472,5180001159235,新規,0,2023-12-12,2023-12-12,ＲＪＮ　Ｅｎｇｉｎｅｅｒｉｎｇ株式会社,,株式会社,愛知県,日進市,浅田町下小深田１０－１３,,23,230,4700124,,,,,,,2023-12-12,1,,,,,アールジェーエヌエンジニアリング,0
1473,5180001159318,新規,0,2023-12-12,2023-12-12,株式会社天白不動産管理センター,,株式会社,愛知県,名古屋市天白区,平針５丁目９０７番地,,23,116,4680011,,,,,,,2023-12-12,1,,,,,テンパクフドウサンカンリセンター,0
1474,5180001159326,新規,0,2023-12-12,2023-12-12,株式会社ＳＥＥＤｓ,,株式会社,愛知県,名古屋市中川区,江松１丁目１７０２番地の３,,23,110,4540954,,,,,,,2023-12-12,1,,,,,シード,0
1477,5180003026061,新規,0,2023-12-12,2023-12-12,合同会社ケイグランディール,,合同会社,愛知県,名古屋市東区,泉３丁目２２番１号,,23,102,4610001,,,,,,,2023-12-12,1,,,,,ケイグランディール,0
1481,5180301038114,新規,0,2023-12-12,2023-12-12,ゆうとぴあ三ヶ根株式会社,,株式会社,愛知県,西尾市,東幡豆町大境１８番地８０,,23,213,4440701,,,,,,,2023-12-12,1,,,,,ユウトピアサンガネ,0
1484,5180303005921,新規,0,2023-12-12,2023-12-12,ＨＡ　ＴＨＩＮＨ合同会社,,合同会社,愛知県,安城市,南町７番１９号,,23,212,4460034,,,,,,,2023-12-12,1,,,,,ハーティン,0
1486,5190001030956,新規,0,2023-12-12,2023-12-12,ＱＳＭ　ＴＲＡＤＩＮＧ株式会社,,株式会社,三重県,津市,久居明神町１６６８番地１１,,24,201,5141101,,,,,,,2023-12-12,1,,,,,カセムトレーディング,0
1491,5200001041968,新規,0,2023-12-12,2023-12-12,株式会社ＪＡＣ,,株式会社,岐阜県,各務原市,川島笠田町３１７番地１,,21,213,5016021,,,,,,,2023-12-12,1,,,,,ジェーエーシー,0
1492,5200001041976,新規,0,2023-12-12,2023-12-12,株式会社マディナトレーディング,,株式会社,岐阜県,不破郡垂井町,宮代５５５番地の１コスモハイツＢ１０３号,,21,361,5032124,,,,,,,2023-12-12,1,,,,,マディナトレーディング,0
1503,5250001020430,新規,0,2023-12-12,2023-12-12,株式会社ひなたＰｒｏｊｅｃｔ,,株式会社,山口県,下関市,長府東侍町７番３号,,35,201,7520977,,,,,,,2023-12-12,1,,,,,ヒナタプロジェクト,0
1506,5260001038554,新規,0,2023-12-12,2023-12-12,株式会社ＡＬＩＤＥＮ,,株式会社,岡山県,備前市,浦伊部１０２１番地２,,33,211,7050002,,,,,,,2023-12-12,1,,,,,アリデン,0
1509,5260003004513,新規,0,2023-12-12,2023-12-12,合同会社モリビト,,合同会社,岡山県,苫田郡鏡野町,女原４６番地,,33,606,7080423,,,,,,,2023-12-12,1,,,,,モリビト,0
1510,5270003001583,新規,0,2023-12-12,2023-12-12,合同会社ＲＹ,,合同会社,鳥取県,西伯郡南部町,西２９９,,31,389,6830363,,,,,,,2023-12-12,1,,,,,アールワイ,0
1511,5280001009082,新規,0,2023-12-12,2023-12-12,株式会社エヌディーダブル,,株式会社,島根県,松江市,東出雲町揖屋２７４７番地２,,32,201,6990101,,,,,,,2023-12-12,1,,,,,エヌディーダブル,0
1517,5290005019218,新規,0,2023-12-12,2023-12-12,一般社団法人メンタルヘルスと精神科医療について考える会,,その他の設立登記法人,福岡県,福岡市中央区,天神２丁目２番１２号,,40,133,8100001,,,,,,,2023-12-12,1,,,,,メンタルヘルストセイシンカイリョウニツイテカンガエルカイ,0
1518,5290801030096,新規,0,2023-12-12,2023-12-12,桃山開発株式会社,,株式会社,福岡県,北九州市小倉南区,片野四丁目５番３－２０４号,,40,107,8020000,,,,,,,2023-12-12,1,,,,,モモヤマカイハツ,0
1519,5290801030121,新規,0,2023-12-12,2023-12-12,株式会社小嶋断熱,,株式会社,福岡県,中間市,岩瀬西町２番１２号,,40,215,8090041,,,,,,,2023-12-12,1,,,,,コジマダンネツ,0
1520,5290803004552,新規,0,2023-12-12,2023-12-12,合同会社ＭＩＲＡＣＬＥ．ＶＮ,,合同会社,福岡県,北九州市小倉北区,魚町３丁目３－５米谷第二ビル３０３号室,,40,106,8020006,,,,,,,2023-12-12,1,,,,,ミラクルドットヴィーエヌ,0
1521,5310003004689,新規,0,2023-12-12,2023-12-12,合同会社生倫,,合同会社,長崎県,長崎市,恵美須町２―６―１３０３,,42,201,8500056,,,,,,,2023-12-12,1,,,,,セイリン,0
1523,5330003010116,新規,0,2023-12-12,2023-12-12,合同会社ｕｔａｔａｎｅ,,合同会社,熊本県,菊池郡菊陽町,大字津久礼２７０１番地６プレミアータＩＩＣ号室,00132957,43,404,8691101,,,,,,,2023-12-12,1,,,,,ウタタネ,0
1527,5350001018704,新規,0,2023-12-12,2023-12-12,株式会社デイジープレイス,,株式会社,宮崎県,宮崎市,中西町３４番地４,,45,201,8800853,,,,,,,2023-12-12,1,,,,,デイジープレイス,0
1528,5360001032935,新規,0,2023-12-12,2023-12-12,株式会社キャッチ,,株式会社,沖縄県,那覇市,前島１丁目６番１１－４０２号ＬＩＢＴＨ前島Ｉ,00132958,47,201,9000016,,,,,,,2023-12-12,1,,,,,キャッチ,0
1530,5360003013529,新規,0,2023-12-12,2023-12-12,合同会社でいご義肢,,合同会社,沖縄県,宜野湾市,野嵩１丁目２０番１号２Ｆ,,47,205,9012203,,,,,,,2023-12-12,1,,,,,デイゴギシ,0
1540,5430001090579,新規,0,2023-12-12,2023-12-12,株式会社シーズクリエイト,,株式会社,北海道,札幌市東区,北十八条東６丁目１番地４６,,01,103,0650018,,,,,,,2023-12-12,1,,,,,シーズクリエイト,0
1542,5430003015724,新規,0,2023-12-12,2023-12-12,合同会社リベリット,,合同会社,北海道,札幌市白石区,栄通２丁目１－３１－１０１,,01,104,0030021,,,,,,,2023-12-12,1,,,,,リベリット,0
1547,5470001019938,新規,0,2023-12-12,2023-12-12,株式会社今日はオムライスがいいわ,,株式会社,香川県,高松市,十川東町３７８番地５,,37,201,7610434,,,,,,,2023-12-12,1,,,,,キョウワオムライスガイイワ,0
1548,5480001012322,新規,0,2023-12-12,2023-12-12,ちまりや株式会社,,株式会社,徳島県,名西郡石井町,浦庄字下浦９２９番地９７,,36,341,7793244,,,,,,,2023-12-12,1,,,,,チマリヤ,0
1549,5480003002057,新規,0,2023-12-12,2023-12-12,合同会社ＫＲＯＳＳ,,合同会社,徳島県,徳島市,国府町敷地２９８番地,,36,201,7793115,,,,,,,2023-12-12,1,,,,,クロス,0
1554,5700150120662,新規,0,2023-12-12,2023-12-12,ｓｈｅｎｚｈｅｎｓｈｉ　ｙｉｗｅｉｄｕｋｅｊｉ　ｙｏｕｘｉａｎｇｏｎｇｓｉ,,外国会社等,,,,,,,,ＢａｉｓｈｅｎｇｄａｓｈａＢｚｕｏ８ｌｏｕ８０６Ｌｏｎｇｇａｎｇｑｕｂｕｊｉｊｉｅｄａｏｚｈｏｎｇｘｉｎｇｌｕ　Ｓｈｅｎｚｈｅｎ　５１８１００　ＣＮ,,,,,,2023-12-12,1,,,,,シェンジェンシイーウェイドーカージヨウシエンゴンス,0
1566,6010001240588,新規,0,2023-12-12,2023-12-12,株式会社Ｄｈａｎａ　Ｒｅａｌ　Ｅｓｔａｔｅ,,株式会社,東京都,千代田区,丸の内１丁目１１番１号,,13,101,1000005,,,,,,,2023-12-12,1,,,,,ダナリアルエステート,0
1567,6010001240621,新規,0,2023-12-12,2023-12-12,株式会社ＫＩＴ　Ｔｅｃｈｎｏｌｏｇｙ,,株式会社,東京都,中央区,銀座１丁目１２－４Ｎ＆ＥＢＬＤ．７階,,13,102,1040061,,,,,,,2023-12-12,1,,,,,ケーアイティーテクノロジー,0
1568,6010001240654,新規,0,2023-12-12,2023-12-12,株式会社Ｋａｎａｅｌｌｅ,,株式会社,東京都,中央区,晴海２丁目２番４２号,,13,102,1040053,,,,,,,2023-12-12,1,,,,,カナエル,0
1569,6010001240704,新規,0,2023-12-12,2023-12-12,株式会社ＳＴＵＤＩＯ２７５,,株式会社,東京都,中央区,八重洲１丁目５番１５号,,13,102,1030028,,,,,,,2023-12-12,1,,,,,スタジオニーナナゴ,0
1570,6010001240720,新規,0,2023-12-12,2023-12-12,株式会社くろさい,,株式会社,東京都,中央区,入船１丁目１番２６号永井ビル７Ｆ７０７号,,13,102,1040042,,,,,,,2023-12-12,1,,,,,クロサイ,0
1571,6010001240745,新規,0,2023-12-12,2023-12-12,株式会社高津,,株式会社,東京都,千代田区,一番町１５番地６,,13,101,1020082,,,,,,,2023-12-12,1,,,,,コウヅ,0
1572,6010001240753,新規,0,2023-12-12,2023-12-12,株式会社ＥＭホールディングス,,株式会社,東京都,千代田区,麹町５丁目３番地,,13,101,1020083,,,,,,,2023-12-12,1,,,,,イーエムホールディングス,0
1573,6010001240761,新規,0,2023-12-12,2023-12-12,コンソール・コネクト・ジャパン株式会社,,株式会社,東京都,千代田区,内幸町１丁目１番１号帝国ホテルタワー,,13,101,1000011,,,,,,,2023-12-12,1,,,,,コンソールコネクトジャパン,0
1582,6010401178932,新規,0,2023-12-12,2023-12-12,Ｉｖｙ　Ｉｎｔｅｒｎａｔｉｏｎａｌ株式会社,,株式会社,東京都,港区,南麻布５丁目１０番２４号,,13,103,1060047,,,,,,,2023-12-12,1,,,,,アイビーインターナショナル,0
1583,6010401179063,新規,0,2023-12-12,2023-12-12,株式会社アスパラントグループＳＰＣ１２号,,株式会社,東京都,港区,赤坂２丁目２３番１号,,13,103,1070052,,,,,,,2023-12-12,1,,,,,アスパラントグループエスピーシージュウニゴウ,0
1584,6010401179154,新規,0,2023-12-12,2023-12-12,康達株式会社,,株式会社,東京都,港区,六本木１丁目９番４－１２０２号,,13,103,1060032,,,,,,,2023-12-12,1,,,,,コンダ,0
1588,6010403031536,新規,0,2023-12-12,2023-12-12,千葉２土地合同会社,,合同会社,東京都,港区,赤坂２丁目１４番５号Ｄａｉｗａ赤坂ビル４階,,13,103,1070052,,,,,,,2023-12-12,1,,,,,チバニトチ,0
1589,6010403031544,新規,0,2023-12-12,2023-12-12,合同会社ＴＯＰ　ＲＡＮＫ,,合同会社,東京都,港区,新橋３丁目１１番２号,,13,103,1050004,,,,,,,2023-12-12,1,,,,,トップランク,0
1590,6010403031560,新規,0,2023-12-12,2023-12-12,合同会社沼津地所,,合同会社,東京都,港区,元赤坂１丁目１番８号赤坂コミュニティビル４階,,13,103,1070051,,,,,,,2023-12-12,1,,,,,ヌマヅジショ,0
1603,6010701045246,新規,0,2023-12-12,2023-12-12,三易株式会社,,株式会社,東京都,品川区,東大井２丁目２３番１号名人亭ビル２階,,13,109,1400011,,,,,,,2023-12-12,1,,,,,サンエキ,0
1606,6010801034586,新規,0,2023-12-12,2023-12-12,株式会社ＮＥＯＮ　ＮＥＸＵＳ,,株式会社,東京都,大田区,仲池上１丁目３１－１７仲池ビル４０５号室,,13,111,1460081,,,,,,,2023-12-12,1,,,,,ネオンネクサス,0
1607,6010803004777,新規,0,2023-12-12,2023-12-12,合同会社ＷＡＧ　ＳＰＡＣＥ,,合同会社,東京都,大田区,南蒲田３丁目１６－６,,13,111,1440035,,,,,,,2023-12-12,1,,,,,ワグスペース,0
1611,6011001158655,新規,0,2023-12-12,2023-12-12,素数要素株式会社,,株式会社,東京都,目黒区,三田１丁目７番地１３号,,13,110,1530062,,,,,,,2023-12-12,1,,,,,ソスウヨウソ,0
1612,6011001158738,新規,0,2023-12-12,2023-12-12,ミライエコンサルティング株式会社,,株式会社,東京都,渋谷区,恵比寿西２丁目４番８号ウィンド恵比寿ビル８Ｆ,,13,113,1500021,,,,,,,2023-12-12,1,,,,,ミライエコンサルティング,0
1613,6011001158754,新規,0,2023-12-12,2023-12-12,株式会社パブリ,,株式会社,東京都,渋谷区,初台１丁目５１番１号初台センタービル９０７号室,,13,113,1510061,,,,,,,2023-12-12,1,,,,,パブリ,0
1614,6011001158770,新規,0,2023-12-12,2023-12-12,株式会社ＣＨＯＪＵ,,株式会社,東京都,渋谷区,渋谷２丁目１９－１５宮益坂ビルディング６０９,,13,113,1500002,,,,,,,2023-12-12,1,,,,,チョウジュ,0
1617,6011005010300,新規,0,2023-12-12,2023-12-12,一般社団法人縄文ホツマ計画,,その他の設立登記法人,東京都,目黒区,鷹番１丁目１３－１６あさひビル２Ｆ,,13,110,1520004,,,,,,,2023-12-12,1,,,,,ジョウモンホツマケイカク,0
1624,6011101105425,新規,0,2023-12-12,2023-12-12,株式会社ＷＡＮＴ　ＲＥＡＬ,,株式会社,東京都,新宿区,西早稲田２丁目１８番２５横川ビル２０１号,,13,104,1690051,,,,,,,2023-12-12,1,,,,,ウォリアル,0
1625,6011101105482,新規,0,2023-12-12,2023-12-12,株式会社タスカ,,株式会社,東京都,新宿区,下落合１丁目３番６号ハイシティ高田馬場２１３,,13,104,1610033,,,,,,,2023-12-12,1,,,,,タスカ,0
1627,6011103013832,新規,0,2023-12-12,2023-12-12,合同会社シンクウェイ新宿プラス,,合同会社,東京都,新宿区,西新宿１丁目５番１２号ニューセントラルビル１０階,,13,104,1600023,,,,,,,2023-12-12,1,,,,,シンクウェイシンジュクプラス,0
1634,6011303004994,新規,0,2023-12-12,2023-12-12,Ｐ＆Ｓ合同会社,,合同会社,東京都,杉並区,和泉３丁目２番１－２０１号マンション本村,,13,115,1680063,,,,,,,2023-12-12,1,,,,,ピーアンドエス,0
1640,6011701026839,新規,0,2023-12-12,2023-12-12,株式会社Ｏｖｅｒ　Ｓｔｅｐ,,株式会社,東京都,江戸川区,上篠崎２丁目７番９号ハウスポート篠崎２０１,,13,123,1330054,,,,,,,2023-12-12,1,,,,,オーバーステップ,0
1642,6012301013673,新規,0,2023-12-12,2023-12-12,株式会社Ｓｈｉｎｋａｎｓｅｎ,,株式会社,東京都,町田市,中町１丁目２－５,,13,209,1940021,,,,,,,2023-12-12,1,,,,,シンカンセン,0
1651,6020001154721,新規,0,2023-12-12,2023-12-12,株式会社ケンジョウ,,株式会社,神奈川県,横浜市中区,本牧元町７番７号ＬｅＬｉｅｎＳ．Ｙ．Ｋ１０１,,14,104,2310822,,,,,,,2023-12-12,1,,,,,ケンジョウ,0
1652,6020001154829,新規,0,2023-12-12,2023-12-12,株式会社ＣＯＭＲＡＤＥ,,株式会社,神奈川県,横浜市青葉区,あざみ野４丁目１７番１６,,14,117,2250011,,,,,,,2023-12-12,1,,,,,,0
1653,6020001154837,新規,0,2023-12-12,2023-12-12,株式会社フロンティア,,株式会社,神奈川県,横浜市旭区,白根４丁目１８番１０－４０６号,,14,112,2410005,,,,,,,2023-12-12,1,,,,,フロンティア,0
1654,6020001154845,新規,0,2023-12-12,2023-12-12,株式会社ａｒｔｓｃｒｅｗ,,株式会社,神奈川県,横浜市中区,池袋５８番地３,,14,104,2310834,,,,,,,2023-12-12,1,,,,,アーツクルー,0
1655,6020001154878,新規,0,2023-12-12,2023-12-12,株式会社Ｔｒａｕｍ,,株式会社,神奈川県,川崎市幸区,東古市場６２番地１２,,14,132,2120051,,,,,,,2023-12-12,1,,,,,トラウム,0
1656,6020001154903,新規,0,2023-12-12,2023-12-12,株式会社エムツリー,,株式会社,神奈川県,横浜市西区,北幸１丁目１１番１号水信ビル７階,,14,103,2200004,,,,,,,2023-12-12,1,,,,,エムツリー,0
1663,6020003025128,新規,0,2023-12-12,2023-12-12,合同会社ハイフィールド,,合同会社,神奈川県,横浜市泉区,下飯田町８９７番地３,,14,116,2450017,,,,,,,2023-12-12,1,,,,,ハイフィールド,0
1675,6030001157525,新規,0,2023-12-12,2023-12-12,ＣＨＬ株式会社,,株式会社,埼玉県,熊谷市,下奈良８６６番７号,,11,202,3600802,,,,,,,2023-12-12,1,,,,,シーエイチエル,0
1676,6030001157566,新規,0,2023-12-12,2023-12-12,株式会社ＭＩＴＵＹＯＳＩ,,株式会社,埼玉県,さいたま市大宮区,桜木町２丁目３番地大宮マルイ７階,,11,103,3300854,,,,,,,2023-12-12,1,,,,,ミツヨシ,0
1677,6030001157665,新規,0,2023-12-12,2023-12-12,株式会社Ｆメンテナンス,,株式会社,埼玉県,飯能市,南町１０番１７号,,11,209,3570036,,,,,,,2023-12-12,1,,,,,エフメンテナンス,0
1684,6030003023139,新規,0,2023-12-12,2023-12-12,合同会社ダイイチモータース,,合同会社,埼玉県,川越市,大字中福字鬼窪９１０番地１,,11,201,3501156,,,,,,,2023-12-12,1,,,,,ダイイチモータース,0
1685,6030003023188,新規,0,2023-12-12,2023-12-12,合同会社浅見ホールディングス,,合同会社,埼玉県,さいたま市見沼区,大字染谷１４２９番地２３,,11,104,3370026,,,,,,,2023-12-12,1,,,,,アサミホールディングス,0
1686,6030003023196,新規,0,2023-12-12,2023-12-12,合同会社わかば台,,合同会社,埼玉県,入間市,大字仏子１３３１番地１８,,11,225,3580053,,,,,,,2023-12-12,1,,,,,ワカバダイ,0
1687,6030003023213,新規,0,2023-12-12,2023-12-12,合同会社樹,,合同会社,埼玉県,所沢市,向陽町２０７８番地１エステ・スクエア新所沢４１４,,11,208,3591103,,,,,,,2023-12-12,1,,,,,イツキ,0
1691,6040001131280,新規,0,2023-12-12,2023-12-12,株式会社ＮＮＫ,,株式会社,千葉県,流山市,向小金３丁目１７９番地,,12,220,2700143,,,,,,,2023-12-12,1,,,,,エヌエヌケー,0
1692,6040001131297,新規,0,2023-12-12,2023-12-12,株式会社つるた,,株式会社,千葉県,千葉市花見川区,朝日ケ丘３丁目５番２５号,,12,102,2620019,,,,,,,2023-12-12,1,,,,,ツルタ,0
1693,6040001131322,新規,0,2023-12-12,2023-12-12,ルート・Ｋ株式会社,,株式会社,千葉県,千葉市中央区,白旗３丁目２４番１１号,,12,101,2600841,,,,,,,2023-12-12,1,,,,,ルートケイ,0
1696,6050001053953,新規,0,2023-12-12,2023-12-12,コスモコネクトホールディングス株式会社,,株式会社,茨城県,水戸市,けやき台２丁目１３番地２,,08,201,3100842,,,,,,,2023-12-12,1,,,,,コスモコネクトホールディングス,0
1699,6060005010157,新規,0,2023-12-12,2023-12-12,特定非営利活動法人ダイアルクラブ,,その他の設立登記法人,栃木県,足利市,伊勢町３丁目４番地８,,09,202,3260053,,,,,,,2023-12-12,1,,,,,ダイアルクラブ,0
1702,6070003005190,新規,0,2023-12-12,2023-12-12,ＡＫＳＨＵ　ＬＡＮＫＡ　ＴＲＡＤＩＮＧ合同会社,,合同会社,群馬県,みどり市,大間々町高津戸６７９番地,,10,212,3760113,,,,,,,2023-12-12,1,,,,,アクシュランカトレーディング,0
1703,6080001026023,新規,0,2023-12-12,2023-12-12,株式会社グリーンシード,,株式会社,静岡県,藤枝市,高洲６５番地の２７,,22,214,4260046,,,,,,,2023-12-12,1,,,,,グリーンシード,0
1704,6080001026031,新規,0,2023-12-12,2023-12-12,株式会社松永建物管理,,株式会社,静岡県,静岡市駿河区,下川原３丁目２７番５号,,22,102,4210113,,,,,,,2023-12-12,1,,,,,マツナガタテモノカンリ,0
1713,6080401026886,新規,0,2023-12-12,2023-12-12,エシカルビジョン株式会社,,株式会社,静岡県,浜松市西区,篠原町９２６１番地,,22,133,4310201,,,,,,,2023-12-12,1,,,,,エシカルビジョン,0
1714,6080403004923,新規,0,2023-12-12,2023-12-12,合同会社ＡＣメンテ,,合同会社,静岡県,浜松市東区,中田町１４０番地,,22,132,4350057,,,,,,,2023-12-12,1,,,,,エーシーメンテ,0
1718,6110003005236,新規,0,2023-12-12,2023-12-12,合同会社オフィスＧＭＧ,,合同会社,新潟県,長岡市,沢田１丁目３番地６,,15,202,9401101,,,,,,,2023-12-12,1,,,,,オフィスジーエムジー,0
1735,6120001260501,新規,0,2023-12-12,2023-12-12,株式会社サンライズ,,株式会社,大阪府,大阪市住吉区,殿辻１丁目６番９号ＥＮコート４０１号,00132963,27,120,5580042,,,,,,,2023-12-12,1,,,,,サンライズ,0
1736,6120001260550,新規,0,2023-12-12,2023-12-12,株式会社ゼニス・キャピタル・アドバイザーズ,,株式会社,大阪府,大阪市北区,中之島６丁目１番３８－２３０８号,,27,127,5300005,,,,,,,2023-12-12,1,,,,,ゼニスキャピタルアドバイザーズ,0
1737,6120001260633,新規,0,2023-12-12,2023-12-12,株式会社ｙａｓｕｄａ,,株式会社,大阪府,大阪市天王寺区,大道１丁目４番１号,,27,109,5430052,,,,,,,2023-12-12,1,,,,,ヤスダ,0
1738,6120001260641,新規,0,2023-12-12,2023-12-12,株式会社エス・フィード,,株式会社,大阪府,大阪市中央区,南船場３丁目７番２７号,,27,128,5420081,,,,,,,2023-12-12,1,,,,,エスフィード,0
1743,6120101068679,新規,0,2023-12-12,2023-12-12,ＴＯＭＩ工業株式会社,,株式会社,大阪府,羽曳野市,駒ケ谷３５４番地の２,,27,222,5830841,,,,,,,2023-12-12,1,,,,,トミコウギョウ,0
1746,6120901048475,新規,0,2023-12-12,2023-12-12,とうでん株式会社,,株式会社,大阪府,豊中市,庄内西町３丁目１８番２０－５０３号,,27,203,5610832,,,,,,,2023-12-12,1,,,,,トウデン,0
1749,6120903004955,新規,0,2023-12-12,2023-12-12,リアンジュ合同会社,,合同会社,大阪府,箕面市,石丸１丁目２０番１号１０５号室,,27,220,5620027,,,,,,,2023-12-12,1,,,,,リアンジュ,0
1760,6130001075923,新規,0,2023-12-12,2023-12-12,株式会社ＦＡＴＥ,,株式会社,京都府,京都市伏見区,深草一ノ坪町１２番地,,26,109,6120012,,,,,,,2023-12-12,1,,,,,フェイト,0
1766,6140001132558,新規,0,2023-12-12,2023-12-12,株式会社アーキテクチャー雅,,株式会社,兵庫県,川西市,鼓が滝２丁目１１番６号,,28,217,6660123,,,,,,,2023-12-12,1,,,,,アーキテクチャーミヤビ,0
1767,6140001132632,新規,0,2023-12-12,2023-12-12,アグリライズ株式会社,,株式会社,兵庫県,明石市,和坂３丁目１番２２号,,28,203,6730012,,,,,,,2023-12-12,1,,,,,アグリライズ,0
1768,6140001132640,新規,0,2023-12-12,2023-12-12,株式会社Ｍｕｓｈｕ,,株式会社,兵庫県,神戸市北区,若葉台２丁目３番１６号,,28,109,6511143,,,,,,,2023-12-12,1,,,,,ムッシュ,0
1773,6140003019902,新規,0,2023-12-12,2023-12-12,合同会社ＡＫＹＬＡ,,合同会社,兵庫県,芦屋市,朝日ケ丘町６－１３－１１０,,28,206,6590012,,,,,,,2023-12-12,1,,,,,アキラ,0
1776,6140005026830,新規,0,2023-12-12,2023-12-12,ＮＰＯ法人食と農の未来をつくるネットワーク,,その他の設立登記法人,兵庫県,三田市,富士が丘１丁目１９番地１３１４号,,28,219,6691547,,,,,,,2023-12-12,1,,,,,ショクトノウノミライヲツクルネットワーク,0
1777,6150001026924,新規,0,2023-12-12,2023-12-12,株式会社ＳＡＳＡＫＩ,,株式会社,奈良県,生駒郡三郷町,美松ケ丘東２丁目１番１０号,,29,343,6360805,,,,,,,2023-12-12,1,,,,,ササキ,0
1779,6170001017921,新規,0,2023-12-12,2023-12-12,株式会社山中総業,,株式会社,和歌山県,田辺市,上の山１丁目１５番２５号,,30,206,6460061,,,,,,,2023-12-12,1,,,,,ヤマナカソウギョウ,0
1780,6170003001956,新規,0,2023-12-12,2023-12-12,合同会社Ｓａｋａｔａ,,合同会社,和歌山県,和歌山市,岩橋１１２１番地,,30,201,6408301,,,,,,,2023-12-12,1,,,,,サカタ,0
1784,6180001159309,新規,0,2023-12-12,2023-12-12,株式会社ｉｃｈｉ,,株式会社,愛知県,稲沢市,一色川俣町１５０番地１,,23,220,4928366,,,,,,,2023-12-12,1,,,,,イチ,0
1786,6180003026085,新規,0,2023-12-12,2023-12-12,合同会社ＭＡＮＡ,,合同会社,愛知県,あま市,木田東新赤坪１７番地１,,23,237,4901222,,,,,,,2023-12-12,1,,,,,マナ,0
1787,6180003026102,新規,0,2023-12-12,2023-12-12,合同会社ｋａｒａｍｏ．ｉ,,合同会社,愛知県,名古屋市中川区,野田１丁目５７６番地,,23,110,4540912,,,,,,,2023-12-12,1,,,,,カラモドットアイ,0
1794,6180301038105,新規,0,2023-12-12,2023-12-12,株式会社ｋｏｋｉｋｉカンパニー,,株式会社,愛知県,西尾市,徳次町地蔵３５番地１,,23,213,4450072,,,,,,,2023-12-12,1,,,,,コキキカンパニー,0
1799,6190001030947,新規,0,2023-12-12,2023-12-12,株式会社山本電工,,株式会社,三重県,志摩市,大王町波切３４０１番地９,,24,215,5170603,,,,,,,2023-12-12,1,,,,,ヤマモトデンコウ,0
1805,6200001041959,新規,0,2023-12-12,2023-12-12,株式会社フラワー東海,,株式会社,岐阜県,岐阜市,東鶉２丁目７７番地１,,21,201,5008281,,,,,,,2023-12-12,1,,,,,フラワートウカイ,0
1812,6240001062497,新規,0,2023-12-12,2023-12-12,株式会社Ｏ’ｓ,,株式会社,広島県,東広島市,西条岡町３番３４号大蔵ビル１Ｆ,,34,212,7390016,,,,,,,2023-12-12,1,,,,,オーズ,0
1813,6240001062530,新規,0,2023-12-12,2023-12-12,株式会社ＡＯ,,株式会社,広島県,広島市中区,大手町１丁目４番３２号,,34,101,7300051,,,,,,,2023-12-12,1,,,,,アオ,0
1819,6260003004520,新規,0,2023-12-12,2023-12-12,合同会社ＦＥＬＩＸ,,合同会社,岡山県,岡山市南区,福富中１丁目１０番２０号,,33,104,7028032,,,,,,,2023-12-12,1,,,,,フェリックス,0
1821,6270001008885,新規,0,2023-12-12,2023-12-12,株式会社Ｃ・Ｌ,,株式会社,鳥取県,米子市,米原６丁目１８番３４号,,31,202,6830804,,,,,,,2023-12-12,1,,,,,シーエル,0
1823,6280003001796,新規,0,2023-12-12,2023-12-12,合同会社スミタ,,合同会社,島根県,出雲市,斐川町原鹿９３５番地,,32,203,6990643,,,,,,,2023-12-12,1,,,,,スミタ,0
1830,6290001104030,新規,0,2023-12-12,2023-12-12,株式会社ＢＥＣ,,株式会社,福岡県,糟屋郡志免町,別府２丁目６番１２号,,40,343,8112205,,,,,,,2023-12-12,1,,,,,ビーイーシー,0
1832,6290003014723,新規,0,2023-12-12,2023-12-12,合同会社ＫＡＲＩＲＵ,,合同会社,福岡県,飯塚市,吉原町１２番４号,,40,205,8200040,,,,,,,2023-12-12,1,,,,,カリル,0
1833,6290005019217,新規,0,2023-12-12,2023-12-12,一般社団法人ＫＴＫトラスト,,その他の設立登記法人,福岡県,朝倉市,来春３９３番地１,,40,228,8380069,,,,,,,2023-12-12,1,,,,,ケーティーケートラスト,0
1837,6290801030120,新規,0,2023-12-12,2023-12-12,株式会社ｎｏｔｅ,,株式会社,福岡県,北九州市小倉北区,京町４丁目５番２７－７階,,40,106,8020002,,,,,,,2023-12-12,1,,,,,ノート,0
1843,6340001026129,新規,0,2023-12-12,2023-12-12,株式会社ビルドＣ,,株式会社,鹿児島県,鹿児島市,下荒田４丁目４６番１号,,46,201,8900056,,,,,,,2023-12-12,1,,,,,ビルドシー,0
1856,6360001032918,新規,0,2023-12-12,2023-12-12,株式会社エナジーワールド,,株式会社,沖縄県,那覇市,金城２丁目１１番地４,,47,201,9010155,,,,,,,2023-12-12,1,,,,,エナジーワールド,0
1860,6380003005639,新規,0,2023-12-12,2023-12-12,合同会社ウェルケア,,合同会社,福島県,福島市,飯坂町湯野字上川原１番地１,,07,201,9600211,,,,,,,2023-12-12,1,,,,,ウェルケア,0
1863,6390001017445,新規,0,2023-12-12,2023-12-12,株式会社木陽,,株式会社,山形県,鶴岡市,大宝寺字中野９２番地５０,,06,203,9970117,,,,,,,2023-12-12,1,,,,,モクヨウ,0
1864,6400001016486,新規,0,2023-12-12,2023-12-12,株式会社Ｒａｃｔ,,株式会社,岩手県,盛岡市,津志田２６地割９番地７,,03,201,0200835,,,,,,,2023-12-12,1,,,,,ラクト,0
1874,6430001090578,新規,0,2023-12-12,2023-12-12,株式会社ｅｃｏｓ,,株式会社,北海道,札幌市中央区,南八条西１３丁目２番３７－４０２号,,01,101,0640808,,,,,,,2023-12-12,1,,,,,エコス,0
1875,6430001090611,新規,0,2023-12-12,2023-12-12,株式会社９９．９,,株式会社,北海道,様似郡様似町,緑町５７番地の１,,01,608,0580013,,,,,,,2023-12-12,1,,,,,ナインティナインポイントナイン,0
1877,6430003015723,新規,0,2023-12-12,2023-12-12,合同会社ＳｅａＳｅｌｅｃｔｉｏｎ,,合同会社,北海道,札幌市西区,西町南１８丁目４番８－４０２号,,01,107,0630062,,,,,,,2023-12-12,1,,,,,シーセレクション,0
1880,6480001012321,新規,0,2023-12-12,2023-12-12,株式会社アレス,,株式会社,徳島県,徳島市,国府町日開４４７番地の４,,36,201,7793117,,,,,,,2023-12-12,1,,,,,アレス,0
1881,6480003002056,新規,0,2023-12-12,2023-12-12,合同会社正木商店,,合同会社,徳島県,鳴門市,鳴門町土佐泊浦字大谷７０番地１,,36,202,7720053,,,,,,,2023-12-12,1,,,,,マサキショウテン,0
1882,6490003001841,新規,0,2023-12-12,2023-12-12,合同会社ｄｅｎ,,合同会社,高知県,高知市,追手筋２丁目６番９号大手門ビル３階西側,,39,201,7800842,,,,,,,2023-12-12,1,,,,,デン,0
1885,6500001025353,新規,0,2023-12-12,2023-12-12,株式会社三善,,株式会社,愛媛県,松山市,久万ノ台５３１番地８,,38,201,7918016,,,,,,,2023-12-12,1,,,,,ミツヨシ,0
1890,6700150121800,新規,0,2023-12-12,2023-12-12,ｈａｎｇｚｈｏｕｗａｎｇｓｈａｎｇｌｉｎｊｕｍａｏｙｉｙｏｕｘｉａｎｇｏｎｇｓｉ,,外国会社等,,,,,,,,Ｗｕｃｈａｎｇｊｉｅｄａｏｌｉａｎｓｈｅｎｇｌｕ２－３ｈａｏｌｏｕ２０１ｓｈｉｙｕｈａｎｇｑｕｈａｎｇｚｈｏｕｚｈｅｊｉａｎｇｓｈｅｎｇＣＮ,,,,,,2023-12-12,1,,,,,ハンジョウワンシャンリンジュイマオイーヨウシエンゴンス,0
1891,6700150122699,新規,0,2023-12-12,2023-12-12,Ｊｉｎｈｕａ　Ｕｒｂａｎ　Ｃｏ．，Ｌｉｍｉｔｅｄ,,外国会社等,,,,,,,,Ｒｏｏｍ　１７０１Ａ，１７／Ｆ，Ｔｏｗｅｒ　１，Ｃｈｉｎａ　Ｈｏｎｇ　Ｋｏｎｇ　Ｃｉｔｙ，３３　Ｃａｎｔｏｎ　Ｒｏａｄ，Ｔｓｉｍ　Ｓｈａ　Ｔｓｕｉ，Ｋｏｗｌｏｏｎ／ＨＯＮＧ　ＫＯＮＧ,,,,,,2023-12-12,1,,,,,ジンフアアーバンシーオーリミテツド,0
1898,7010001240604,新規,0,2023-12-12,2023-12-12,ＦＲＥＳＨ　ＭＡＲＫＥＴ　ＸＣＨＡＮＧＥ株式会社,,株式会社,東京都,中央区,銀座１丁目１２番４号Ｎ＆Ｅ、ＢＬＤ．６階,,13,102,1040061,,,,,,,2023-12-12,1,,,,,フレッシュマーケットエクスチェンジ,0
1899,7010001240703,新規,0,2023-12-12,2023-12-12,ｙｕｍｅｃｏＬａｂ株式会社,,株式会社,東京都,中央区,湊２丁目１－３,,13,102,1040043,,,,,,,2023-12-12,1,,,,,ユメコラボ,0
1900,7010001240744,新規,0,2023-12-12,2023-12-12,株式会社たばはん,,株式会社,東京都,千代田区,霞が関３丁目２番５号,,13,101,1000013,,,,,,,2023-12-12,1,,,,,タバハン,0
1901,7010003042404,新規,0,2023-12-12,2023-12-12,ＥＦ１号合同会社,,合同会社,東京都,千代田区,一ツ橋２丁目６番３号アクシスインベストメントアドバイザーズ株式会社内,,13,101,1010003,,,,,,,2023-12-12,1,,,,,イーエフイチゴウ,0
1902,7010003042429,新規,0,2023-12-12,2023-12-12,エレガンシア合同会社,,合同会社,東京都,中央区,築地２丁目１２番１１－５０２号,,13,102,1040045,,,,,,,2023-12-12,1,,,,,エレガンシア,0
1903,7010005037617,新規,0,2023-12-12,2023-12-12,ＮＰＯ法人福祉ネットワーク,,その他の設立登記法人,東京都,中央区,日本橋蛎殻町２丁目８－５興洋ビル５階,,13,102,1030014,,,,,,,2023-12-12,1,,,,,フクシネットワーク,0
1920,7010401179046,新規,0,2023-12-12,2023-12-12,株式会社ＷＫキャピタル,,株式会社,東京都,港区,南青山３丁目１－３６青山丸竹ビル６Ｆ,,13,103,1070062,,,,,,,2023-12-12,1,,,,,ダブルケイキャピタル,0
1924,7010403031535,新規,0,2023-12-12,2023-12-12,千葉１土地合同会社,,合同会社,東京都,港区,赤坂２丁目１４番５号Ｄａｉｗａ赤坂ビル４階,,13,103,1070052,,,,,,,2023-12-12,1,,,,,チバイチトチ,0
1934,7010701045245,新規,0,2023-12-12,2023-12-12,株式会社よろずや,,株式会社,東京都,品川区,東大井５丁目１３番１０号,,13,109,1400011,,,,,,,2023-12-12,1,,,,,ヨロズヤ,0
1940,7010903008644,新規,0,2023-12-12,2023-12-12,合同会社フランシスカ・インターナショナルトラスト,,合同会社,東京都,世田谷区,東玉川１丁目１８番１３号,,13,112,1580084,,,,,,,2023-12-12,1,,,,,フランシスカインターナショナルトラスト,0
1946,7011001158745,新規,0,2023-12-12,2023-12-12,ヘアメイクマッチング株式会社,,株式会社,東京都,渋谷区,道玄坂１丁目１０番８号渋谷道玄坂東急ビル２Ｆ－Ｃ,,13,113,1500043,,,,,,,2023-12-12,1,,,,,ヘアメイクマッチング,0
1947,7011001158761,新規,0,2023-12-12,2023-12-12,株式会社ＡｉｍＸ,,株式会社,東京都,渋谷区,円山町５番５号Ｎａｖｉ渋谷Ｖ３階,,13,113,1500044,,,,,,,2023-12-12,1,,,,,エイムス,0
1951,7011003018055,新規,0,2023-12-12,2023-12-12,合同会社マジガル,,合同会社,東京都,渋谷区,道玄坂１丁目１０－８渋谷道玄坂東急ビル２Ｆ－Ｃ,,13,113,1500043,,,,,,,2023-12-12,1,,,,,マジガル,0
1952,7011003018063,新規,0,2023-12-12,2023-12-12,合同会社ｍｏｎｃ．,,合同会社,東京都,目黒区,自由が丘２丁目１６－１２ＲＪ３,,13,110,1520035,,,,,,,2023-12-12,1,,,,,モンク,0
1953,7011003018088,新規,0,2023-12-12,2023-12-12,合同会社ＯＮＥ　ＺＡ　ＯＮＥ,,合同会社,東京都,渋谷区,神宮前６丁目２３番４号桑野ビル２階,,13,113,1500001,,,,,,,2023-12-12,1,,,,,ワンザワン,0
1957,7011101105440,新規,0,2023-12-12,2023-12-12,株式会社サイファークリエーション,,株式会社,東京都,新宿区,西新宿６丁目５番１号新宿アイランドタワー２階,,13,104,1600023,,,,,,,2023-12-12,1,,,,,サイファークリエーション,0
1958,7011101105449,新規,0,2023-12-12,2023-12-12,ＳＨＣ株式会社,,株式会社,東京都,新宿区,西新宿５丁目５番１－４１０６号,,13,104,1600023,,,,,,,2023-12-12,1,,,,,エスエイチシー,0
1959,7011103013831,新規,0,2023-12-12,2023-12-12,合同会社ニューリーフ,,合同会社,東京都,新宿区,中井２丁目２１番２６号中井２丁目メゾン１０１,,13,104,1610035,,,,,,,2023-12-12,1,,,,,ニューリーフ,0
1968,7011401025660,新規,0,2023-12-12,2023-12-12,株式会社ウィスファー,,株式会社,東京都,板橋区,東坂下１丁目７番１３,,13,119,1740042,,,,,,,2023-12-12,1,,,,,ウィスファー,0
1970,7011503005874,新規,0,2023-12-12,2023-12-12,ＩＨＥ合同会社,,合同会社,東京都,荒川区,西尾久５丁目７番２２号,,13,118,1160011,,,,,,,2023-12-12,1,,,,,アイエッチイー,0
1980,7012401041326,新規,0,2023-12-12,2023-12-12,さくら貿易株式会社,,株式会社,東京都,小金井市,梶野町５丁目３番２５－６０９号,,13,210,1840002,,,,,,,2023-12-12,1,,,,,サクラボウエキ,0
1985,7012803003254,新規,0,2023-12-12,2023-12-12,合同会社ＳＥＶＥＮ　ＳＴＲＥＡＭ,,合同会社,東京都,日野市,大坂上２丁目１８―２２サングレーハイツ２０１,,13,212,1910061,,,,,,,2023-12-12,1,,,,,セブンストリーム,0
1992,7013301051737,新規,0,2023-12-12,2023-12-12,株式会社ＳＢ,,株式会社,東京都,豊島区,池袋２丁目６０番６号グランドメゾン池袋壱番館８０３,,13,116,1710014,,,,,,,2023-12-12,1,,,,,エスビー,0
1996,7020001154852,新規,0,2023-12-12,2023-12-12,株式会社ＣＵＴＴ　ＭＡＮ,,株式会社,神奈川県,川崎市多摩区,生田４丁目６番１０号,,14,135,2140038,,,,,,,2023-12-12,1,,,,,カットマン,0
1997,7020001154860,新規,0,2023-12-12,2023-12-12,株式会社メドウェル,,株式会社,神奈川県,横浜市中区,立野５７番地３６,,14,104,2310845,,,,,,,2023-12-12,1,,,,,メドウェル,0
1998,7020001154869,新規,0,2023-12-12,2023-12-12,株式会社青果ミコト屋,,株式会社,神奈川県,横浜市青葉区,梅が丘７－８,,14,117,2270052,,,,,,,2023-12-12,1,,,,,セイカミコトヤ,0
1999,7020001154893,新規,0,2023-12-12,2023-12-12,榮商会株式会社,,株式会社,神奈川県,横浜市港北区,岸根町６６６番地１,,14,109,2220034,,,,,,,2023-12-12,1,,,,,サカエショウカイ,0
2000,7020001154910,新規,0,2023-12-12,2023-12-12,株式会社ＳＨＩＭＡ　ＢＡＳＥ,,株式会社,神奈川県,横浜市泉区,中田南４丁目２４番１９号,,14,116,2450014,,,,,,,2023-12-12,1,,,,,シマベース,0
2013,7030001157631,新規,0,2023-12-12,2023-12-12,株式会社寿断熱,,株式会社,埼玉県,戸田市,大字新曽１０９－４０１号,,11,224,3350021,,,,,,,2023-12-12,1,,,,,トシダンネツ,0
2014,7030001157648,新規,0,2023-12-12,2023-12-12,株式会社志力,,株式会社,埼玉県,富士見市,東みずほ台２丁目５番地６マロンストリームＩＩ２０２,00132959,11,235,3540015,,,,,,,2023-12-12,1,,,,,シリョク,0
2021,7030003023096,新規,0,2023-12-12,2023-12-12,Ｙｏｕｒ　Ｎａｔｕｒｅ‐ｓｅｌｆ合同会社,,合同会社,埼玉県,越谷市,南町３丁目１６番２号,,11,222,3430832,,,,,,,2023-12-12,1,,,,,ユアネイチャーセルフ,0
2022,7030003023212,新規,0,2023-12-12,2023-12-12,合同会社やまと,,合同会社,埼玉県,川口市,栄町３丁目１３番１５－６０３号,,11,203,3320017,,,,,,,2023-12-12,1,,,,,ヤマト,0
2023,7040001131305,新規,0,2023-12-12,2023-12-12,株式会社ａｔｔａｉｎ　ｎｅｔｗｏｒｋｓ,,株式会社,千葉県,松戸市,本町１７－１１芹澤ビル６階,,12,207,2710091,,,,,,,2023-12-12,1,,,,,アテインネットワークス,0
2028,7050001053928,新規,0,2023-12-12,2023-12-12,株式会社ナカイ,,株式会社,茨城県,下妻市,下妻乙１０３９番地２,,08,210,3040067,,,,,,,2023-12-12,1,,,,,ナカイ,0
2033,7050005013358,新規,0,2023-12-12,2023-12-12,特定非営利活動法人つくばスポーツサポートファミリー,,その他の設立登記法人,茨城県,つくば市,稲荷前２４－２１,,08,220,3050061,,,,,,,2023-12-12,1,,,,,ツクバスポーツサポートファミリー,0
2034,7060001036618,新規,0,2023-12-12,2023-12-12,株式会社ＭＩＮＡＭＯＴＯ　Ｔ＆Ｅ,,株式会社,栃木県,宇都宮市,清原台３丁目２０番７号,,09,201,3213223,,,,,,,2023-12-12,1,,,,,ミナモトティーアンドイー,0
2037,7070001041179,新規,0,2023-12-12,2023-12-12,株式会社ＹＯＫＯＴＡ建設,,株式会社,群馬県,藤岡市,森４８２番地２,,10,209,3750004,,,,,,,2023-12-12,1,,,,,ヨコタケンセツ,0
2038,7080001026022,新規,0,2023-12-12,2023-12-12,株式会社モビルズ,,株式会社,静岡県,静岡市清水区,月見町９番１号,,22,103,4240853,,,,,,,2023-12-12,1,,,,,モビルズ,0
2039,7080001026030,新規,0,2023-12-12,2023-12-12,株式会社ＩＣＨＩＺＩＫＵ,,株式会社,静岡県,静岡市葵区,五番町３番地の２,,22,101,4200075,,,,,,,2023-12-12,1,,,,,イチジク,0
2040,7080101024388,新規,0,2023-12-12,2023-12-12,株式会社ｌｉｍｉｔｅｄ,,株式会社,静岡県,沼津市,中瀬町２１－７Ａ１０５,,22,203,4100811,,,,,,,2023-12-12,1,,,,,リミテッド,0
2046,7090003002441,新規,0,2023-12-12,2023-12-12,合同会社ＭＭＳ,,合同会社,山梨県,笛吹市,御坂町成田２８２６－１,,19,211,4060801,,,,,,,2023-12-12,1,,,,,エムエムエス,0
2051,7100003007307,新規,0,2023-12-12,2023-12-12,合同会社稲王,,合同会社,長野県,松本市,大字島内６８３２番地イ号,,20,202,3900851,,,,,,,2023-12-12,1,,,,,イナオウ,0
2055,7110003005235,新規,0,2023-12-12,2023-12-12,イリスボウル合同会社,,合同会社,新潟県,燕市,井土巻１８１１番地１,,15,213,9591232,,,,,,,2023-12-12,1,,,,,イリスボウル,0
2073,7120001260384,新規,0,2023-12-12,2023-12-12,礫金株式会社,,株式会社,大阪府,大阪市中央区,北久宝寺町１丁目６番１１号５０２号室,,27,128,5410057,,,,,,,2023-12-12,1,,,,,リキン,0
2074,7120001260401,新規,0,2023-12-12,2023-12-12,＿光株式会社,00132956,株式会社,大阪府,大阪市大正区,三軒家西３丁目４番１６号中山ビル１０５８,,27,108,5510001,,,,,,,2023-12-12,1,,,,,キンコウ,0
2076,7120003025471,新規,0,2023-12-12,2023-12-12,合同会社シュート,,合同会社,大阪府,大阪市城東区,新喜多東１丁目１０番２２－５０２号,,27,118,5360017,,,,,,,2023-12-12,1,,,,,シュート,0
2082,7120103005571,新規,0,2023-12-12,2023-12-12,合同会社ウィステリア,,合同会社,大阪府,高石市,東羽衣３丁目５番１１号,,27,225,5920003,,,,,,,2023-12-12,1,,,,,ウィステリア,0
2083,7120105009793,新規,0,2023-12-12,2023-12-12,一般社団法人わごころ,,その他の設立登記法人,大阪府,泉南郡熊取町,小谷北１丁目７番３０号,,27,361,5900434,,,,,,,2023-12-12,1,,,,,ワゴコロ,0
2086,7120901048458,新規,0,2023-12-12,2023-12-12,株式会社新演技座,,株式会社,大阪府,豊中市,新千里東町１丁目４番１０号阪急千里中央ビル９階,,27,203,5600082,,,,,,,2023-12-12,1,,,,,,0
2097,7130001075889,新規,0,2023-12-12,2023-12-12,株式会社ＴＳＵＫＵＲＵ,,株式会社,京都府,京都市中京区,壬生賀陽御所町７７番地２号洛西メゾン６０１,,26,104,6048811,,,,,,,2023-12-12,1,,,,,ツクル,0
2104,7140001132623,新規,0,2023-12-12,2023-12-12,コネクトメゾット株式会社,,株式会社,兵庫県,加古川市,加古川町美乃利２８２番地の２７,,28,210,6750062,,,,,,,2023-12-12,1,,,,,コネクトメゾット,0
2108,7150001026931,新規,0,2023-12-12,2023-12-12,株式会社アイランドホッパー,,株式会社,奈良県,大和高田市,土庫２丁目６番１３号,,29,202,6350002,,,,,,,2023-12-12,1,,,,,アイランドホッパー,0
2110,7150005009536,新規,0,2023-12-12,2023-12-12,医療法人博仁会,,その他の設立登記法人,奈良県,奈良市,神殿町３１３番地,,29,201,6308441,,,,,,,2023-12-12,1,,,,,ハクジンカイ,0
2116,7180001159290,新規,0,2023-12-12,2023-12-12,Ｃｏｎｔｉｎｕｅｓ　Ｈａｐｐｉｌｙ株式会社,,株式会社,愛知県,名古屋市守山区,小幡５丁目１番３２号第一加藤ビル２０２,,23,113,4630011,,,,,,,2023-12-12,1,,,,,コンテニューズハピリィ,0
2134,7200001041958,新規,0,2023-12-12,2023-12-12,株式会社Ｌｅｉ,,株式会社,岐阜県,岐阜市,鏡島２９８０番地１４,,21,201,5010111,,,,,,,2023-12-12,1,,,,,レイ,0
2135,7200001041974,新規,0,2023-12-12,2023-12-12,株式会社ＫＳＣ,,株式会社,岐阜県,羽島郡岐南町,上印食３丁目１７８番地,,21,302,5016001,,,,,,,2023-12-12,1,,,,,ケーエスシー,0
2138,7200003006182,新規,0,2023-12-12,2023-12-12,合同会社あめつち,,合同会社,岐阜県,各務原市,各務東町６丁目１２０,,21,213,5090103,,,,,,,2023-12-12,1,,,,,アメツチ,0
2151,7260001038552,新規,0,2023-12-12,2023-12-12,株式会社尚美堂,,株式会社,岡山県,井原市,井原町１９９番地２,,33,207,7150019,,,,,,,2023-12-12,1,,,,,ショウビドウ,0
2155,7280003001795,新規,0,2023-12-12,2023-12-12,合同会社るあん,,合同会社,島根県,出雲市,白枝町５４３番地６－２,,32,203,6930006,,,,,,,2023-12-12,1,,,,,ルアン,0
2157,7290001104021,新規,0,2023-12-12,2023-12-12,株式会社ＭＥＡＴ　ＪＡＰＡＮ,,株式会社,福岡県,福岡市南区,長丘３丁目１０番８号,,40,134,8150075,,,,,,,2023-12-12,1,,,,,ミートジャパン,0
2161,7290003014722,新規,0,2023-12-12,2023-12-12,合同会社ＳＵ４,,合同会社,福岡県,福岡市博多区,住吉４丁目３番２号,,40,132,8120018,,,,,,,2023-12-12,1,,,,,エスユーフォー,0
2165,7290005019216,新規,0,2023-12-12,2023-12-12,社会保険労務士法人アイユーマネジメント,,その他の設立登記法人,福岡県,福岡市博多区,博多駅東２丁目１０番１６号川辺ビル４Ｆ,,40,132,8120013,,,,,,,2023-12-12,1,,,,,アイユーマネジメント,0
2169,7310001018739,新規,0,2023-12-12,2023-12-12,株式会社ラディック,,株式会社,長崎県,長崎市,中園町２０番１１号,,42,201,8528155,,,,,,,2023-12-12,1,,,,,ラディック,0
2175,7330001031558,新規,0,2023-12-12,2023-12-12,株式会社増田一哉事務所,,株式会社,熊本県,熊本市中央区,平成３丁目２３番３０号,,43,101,8600833,,,,,,,2023-12-12,1,,,,,マスダカズヤジムショ,0
2176,7330003010114,新規,0,2023-12-12,2023-12-12,ＤＹＳ合同会社,,合同会社,熊本県,熊本市中央区,九品寺３丁目１７－１９－２０７,,43,101,8620976,,,,,,,2023-12-12,1,,,,,ディーワイエス,0
2178,7350001018702,新規,0,2023-12-12,2023-12-12,株式会社辰内装,,株式会社,宮崎県,延岡市,小野町５８８３番地,,45,203,8820882,,,,,,,2023-12-12,1,,,,,タツナイソウ,0
2179,7360001032933,新規,0,2023-12-12,2023-12-12,株式会社沖広鉱業,,株式会社,沖縄県,那覇市,久米１丁目７番２３号,,47,201,9000033,,,,,,,2023-12-12,1,,,,,オキヒロコウギョウ,0
2180,7360003013535,新規,0,2023-12-12,2023-12-12,合同会社ＨＡＲＯＳ,,合同会社,沖縄県,中頭郡嘉手納町,字水釜３７６番地ＨＮ７４０８,,47,325,9040204,,,,,,,2023-12-12,1,,,,,ハロス,0
2181,7370001050703,新規,0,2023-12-12,2023-12-12,株式会社オプトリング,,株式会社,宮城県,仙台市青葉区,柏木１丁目２番３８号,,04,101,9810933,,,,,,,2023-12-12,1,,,,,オプトリング,0
2185,7390001017444,新規,0,2023-12-12,2023-12-12,株式会社ＨｅｉｎｉＣｒｅａｔｅ,,株式会社,山形県,山形市,馬見ケ崎３丁目５番６－２０１号,,06,201,9900810,,,,,,,2023-12-12,1,,,,,ヘイニクリエイト,0
2186,7390003002171,新規,0,2023-12-12,2023-12-12,合同会社全国親子の未来安心サポート協会,,合同会社,山形県,酒田市,宮野浦１丁目９番３号,,06,204,9980054,,,,,,,2023-12-12,1,,,,,ゼンコクオヤコノミライアンシンサポートキョウカイ,0
2188,7400001016485,新規,0,2023-12-12,2023-12-12,株式会社アンバー,,株式会社,岩手県,奥州市,水沢字吉小路１０番地４,,03,215,0230054,,,,,,,2023-12-12,1,,,,,アンバー,0
2190,7410003003869,新規,0,2023-12-12,2023-12-12,合同会社シスターズカンパニー,,合同会社,秋田県,大仙市,協和境字苅谷沢２４番地５８,,05,212,0192411,,,,,,,2023-12-12,1,,,,,シスターズカンパニー,0
2193,7420003002845,新規,0,2023-12-12,2023-12-12,ｍｕｄｔｐｌｏｗ合同会社,,合同会社,青森県,青森市,旭町２丁目１６番２２号,,02,201,0300851,,,,,,,2023-12-12,1,,,,,マッドプラウ,0
2198,7430001090577,新規,0,2023-12-12,2023-12-12,ＴＡＳＴＥ　ＯＦ　ＨＯＫＫＡＩＤＯ株式会社,,株式会社,北海道,札幌市中央区,北十二条西２０丁目１番１０号,,01,101,0600012,,,,,,,2023-12-12,1,,,,,テイストオブホッカイドウ,0
2205,7440003001564,新規,0,2023-12-12,2023-12-12,合同会社まるてん,,合同会社,北海道,函館市,桔梗３丁目２５番４－３０６号,,01,202,0410808,,,,,,,2023-12-12,1,,,,,マルテン,0
2207,7450001014170,新規,0,2023-12-12,2023-12-12,株式会社共栄冷凍食品,,株式会社,北海道,旭川市,東旭川町共栄３５番地の９,,01,204,0788340,,,,,,,2023-12-12,1,,,,,キョウエイレイトウショクヒン,0
2211,7470001019936,新規,0,2023-12-12,2023-12-12,株式会社シャンシャン代行,,株式会社,香川県,高松市,香川町大野１６０８番地５,,37,201,7611701,,,,,,,2023-12-12,1,,,,,シャンシャンダイコウ,0
2212,7470002004524,新規,0,2023-12-12,2023-12-12,有限会社谷本ビルトハウス,,有限会社,香川県,高松市,木太町１８２１番地５,,37,201,7600080,,,,,,,2023-12-12,1,,,,,タニモトビルトハウス,0
2222,7700150121683,新規,0,2023-12-12,2023-11-01,中国税理士会鳥取県支部連合会,,その他,鳥取県,米子市,博労町４丁目３５６山本会計ビル３Ｆ,,31,202,6830052,,,,,,,2023-11-01,1,,,,,チユウゴクゼイリシカイトツトリケンシブレンゴウカイ,0
2223,7700150121799,新規,0,2023-12-12,2023-12-12,ｊｉｎｊｉａｎｇｗｏｆｕｊｉｎｃｈｕｋｏｕｍａｏｙｉｙｏｕｘｉａｎｇｏｎｇｓｉ,,外国会社等,,,,,,,,ｊｉｎｊｉａｎｇｓｈｉｃｉｚａｏｚｈｅｎｔａｉｃｈａｎｇｃｕｎｘｉｎｇａｎｌｕｄｏｎｇ４９ｈａｏｑｕａｎｚｈｏｕｓｈｉ　ｆｕｊｉａｎｓｈｅｎｇ,,,,,,2023-12-12,1,,,,,ジンジャンウォーフージンチュウコウマオイーヨウシエンゴンス,0
2224,7700150122335,新規,0,2023-12-12,2023-11-28,荒尾ときめき市組合,,その他,熊本県,荒尾市,上井手１０６－１,,43,204,8640013,,,,,,,2023-11-28,1,,,,,アラオトキメキイチクミアイ,0
2229,8010001240677,新規,0,2023-12-12,2023-12-12,株式会社ＳＥＬＥＯ,,株式会社,東京都,千代田区,神田和泉町１番地６の１６ヤマトビル４０５,,13,101,1010024,,,,,,,2023-12-12,1,,,,,セレオ,0
2232,8010003042411,新規,0,2023-12-12,2023-12-12,合同会社アグスタ,,合同会社,東京都,中央区,晴海１丁目６番２－２０３号,,13,102,1040053,,,,,,,2023-12-12,1,,,,,アグスタ,0
2248,8010401179061,新規,0,2023-12-12,2023-12-12,株式会社ＭａｔｏｒＫｒｏｍ,,株式会社,東京都,港区,南青山３丁目１５番９号ＭＩＮＯＷＡ表参道３階,,13,103,1070062,,,,,,,2023-12-12,1,,,,,メタクローム,0
2251,8010403031534,新規,0,2023-12-12,2023-12-12,ＨｏｎＨｏｎｏｒ合同会社,,合同会社,東京都,港区,虎ノ門５丁目１３番１号虎ノ門４０ＭＴビル７階,,13,103,1050001,,,,,,,2023-12-12,1,,,,,ホンオーナー,0
2252,8010403031542,新規,0,2023-12-12,2023-12-12,合同会社ＪＴＢＳ,,合同会社,東京都,港区,赤坂２丁目８－１１赤坂山王プラザ４Ｆ１号,,13,103,1070052,,,,,,,2023-12-12,1,,,,,ジェイティービーエス,0
2261,8010701045252,新規,0,2023-12-12,2023-12-12,株式会社Ｒａｉｎ　ｏｒ　Ｓｈｉｎｅ,,株式会社,東京都,品川区,戸越２丁目５－１０－６０５,,13,109,1420041,,,,,,,2023-12-12,1,,,,,レインオアシャイン,0
2264,8010903008643,新規,0,2023-12-12,2023-12-12,合同会社ｍｉｙａｓｈｉｔａ,,合同会社,東京都,世田谷区,大原１丁目２４番１６号ルート大原ビル３０２,,13,112,1560041,,,,,,,2023-12-12,1,,,,,ミヤシタ,0
2265,8010903008651,新規,0,2023-12-12,2023-12-12,合同会社セブンシーズ,,合同会社,東京都,世田谷区,南烏山６丁目７番１７号,,13,112,1570062,,,,,,,2023-12-12,1,,,,,セブンシーズ,0
2274,8011001158554,新規,0,2023-12-12,2023-12-12,学びカンパニー株式会社,,株式会社,東京都,目黒区,自由が丘２丁目１６番１２号ＲＪ３,,13,110,1520035,,,,,,,2023-12-12,1,,,,,マナビカンパニー,0
2275,8011001158686,新規,0,2023-12-12,2023-12-12,ベルフランス株式会社,,株式会社,東京都,渋谷区,恵比寿西１丁目３５番１４号,,13,113,1500021,,,,,,,2023-12-12,1,,,,,ベルフランス,0
2276,8011001158736,新規,0,2023-12-12,2023-12-12,株式会社ＯＨＭＸ,,株式会社,東京都,渋谷区,恵比寿西２丁目４番８号ウィンド恵比寿ビル８Ｆ,,13,113,1500021,,,,,,,2023-12-12,1,,,,,オームエックス,0
2277,8011001158752,新規,0,2023-12-12,2023-12-12,株式会社ＴＯＭＩ　ＡＳＩＡ,,株式会社,東京都,渋谷区,広尾２丁目１６番３号広尾パレス１０２,,13,113,1500012,,,,,,,2023-12-12,1,,,,,トミアジア,0
2278,8011001158769,新規,0,2023-12-12,2023-12-12,廣忝溽株式会社,,株式会社,東京都,渋谷区,道玄坂２丁目２０－６－３０５,,13,113,1500043,,,,,,,2023-12-12,1,,,,,コウテンル,0
2279,8011003018070,新規,0,2023-12-12,2023-12-12,ｆｒｏｍＴＯＫＹＯ不動産合同会社,,合同会社,東京都,渋谷区,恵比寿西２丁目１９番９号フランセスビル２Ｆ,,13,113,1500021,,,,,,,2023-12-12,1,,,,,フロムトウキョウフドウサン,0
2284,8011101105423,新規,0,2023-12-12,2023-12-12,株式会社エーエムワイ,,株式会社,東京都,新宿区,山吹町３６５番地１プレミスト新宿山吹１００５,,13,104,1620801,,,,,,,2023-12-12,1,,,,,エーエムワイ,0
2286,8011103013839,新規,0,2023-12-12,2023-12-12,ステラ合同会社,,合同会社,東京都,新宿区,大久保１丁目３番２２－３０９号,,13,104,1690072,,,,,,,2023-12-12,1,,,,,ステラ,0
2289,8011203004250,新規,0,2023-12-12,2023-12-12,合同会社ＬｉｖｅＦｒｅｅ,,合同会社,東京都,中野区,白鷺１丁目１番２１号,,13,114,1650035,,,,,,,2023-12-12,1,,,,,ライブフリー,0
2297,8011503005865,新規,0,2023-12-12,2023-12-12,合同会社Ｐｏｓｉｔｉｖｅ,,合同会社,東京都,北区,浮間３丁目２６－２１,,13,117,1150051,,,,,,,2023-12-12,1,,,,,ポジティブ,0
2298,8011701026845,新規,0,2023-12-12,2023-12-12,株式会社ＴＦＹ商事,,株式会社,東京都,江戸川区,松島４丁目４４番１０号１Ｆ,,13,123,1320031,,,,,,,2023-12-12,1,,,,,ティエフワイショウジ,0
2301,8012401041317,新規,0,2023-12-12,2023-12-12,ホップステップ株式会社,,株式会社,東京都,三鷹市,新川６丁目２８番１７－４０１号,,13,204,1810004,,,,,,,2023-12-12,1,,,,,ホップステップ,0
2302,8012401041325,新規,0,2023-12-12,2023-12-12,株式会社ＲＩＮＧ‐ｅ,,株式会社,東京都,小金井市,梶野町１丁目２－３６,,13,210,1840002,,,,,,,2023-12-12,1,,,,,リングイー,0
2305,8012801022817,新規,0,2023-12-12,2023-12-12,株式会社イースト,,株式会社,東京都,国分寺市,本町２丁目１４番３号,,13,214,1850012,,,,,,,2023-12-12,1,,,,,イースト,0
2313,8020001154884,新規,0,2023-12-12,2023-12-12,株式会社今岡商店,,株式会社,神奈川県,横浜市緑区,十日市場町１４８１番地２０,,14,113,2260025,,,,,,,2023-12-12,1,,,,,イマオカショウテン,0
2327,8020003025159,新規,0,2023-12-12,2023-12-12,合同会社Ｒｅｖｅｒｉｅ,,合同会社,神奈川県,川崎市多摩区,生田１丁目２５番２２号１０３,,14,135,2140038,,,,,,,2023-12-12,1,,,,,レヴェリー,0
2328,8020003025167,新規,0,2023-12-12,2023-12-12,合同会社ウィッキー,,合同会社,神奈川県,横浜市鶴見区,鶴見１丁目１３番１－１１４号,,14,101,2300063,,,,,,,2023-12-12,1,,,,,ウィッキー,0
2329,8020003025191,新規,0,2023-12-12,2023-12-12,合同会社きたる,,合同会社,神奈川県,川崎市麻生区,上麻生５丁目３８－７サープラス柿生２Ｆ,,14,137,2150021,,,,,,,2023-12-12,1,,,,,キタル,0
2332,8021001080947,新規,0,2023-12-12,2023-12-12,Ｒｙｕｊｕ松本株式会社,,株式会社,神奈川県,藤沢市,善行１丁目２１番地の８,,14,205,2510871,,,,,,,2023-12-12,1,,,,,リュウジュマツモト,0
2345,8030003023186,新規,0,2023-12-12,2023-12-12,合同会社ケアプラン楓,,合同会社,埼玉県,本庄市,都島８８４－３,,11,211,3670073,,,,,,,2023-12-12,1,,,,,ケアプランカエデ,0
2348,8040001131279,新規,0,2023-12-12,2023-12-12,株式会社水代ビル,,株式会社,千葉県,流山市,向小金３丁目１７９番地,,12,220,2700143,,,,,,,2023-12-12,1,,,,,ミズシロビル,0
2349,8040001131304,新規,0,2023-12-12,2023-12-12,株式会社オーエスサービス,,株式会社,千葉県,印西市,岩戸３９３４番地,,12,231,2701616,,,,,,,2023-12-12,1,,,,,オーエスサービス,0
2350,8040001131320,新規,0,2023-12-12,2023-12-12,株式会社ワイテック,,株式会社,千葉県,千葉市若葉区,みつわ台５丁目２８番３号,,12,104,2640032,,,,,,,2023-12-12,1,,,,,ワイテック,0
2353,8060001036617,新規,0,2023-12-12,2023-12-12,株式会社中山商事,,株式会社,栃木県,真岡市,西田井１番地２５９,,09,209,3214301,,,,,,,2023-12-12,1,,,,,ナカヤマショウジ,0
2375,8100003007306,新規,0,2023-12-12,2023-12-12,ドローン・メモリアル・フィルムズ合同会社,,合同会社,長野県,長野市,大字鶴賀上千歳町１１３７番地２３,,20,201,3800821,,,,,,,2023-12-12,1,,,,,ドローンメモリアルフィルムズ,0
2387,8120001260549,新規,0,2023-12-12,2023-12-12,株式会社シンワ,,株式会社,大阪府,大阪市淀川区,新高６丁目７番１０号,,27,123,5320033,,,,,,,2023-12-12,1,,,,,シンワ,0
2391,8120003025512,新規,0,2023-12-12,2023-12-12,合同会社ｅｎグループ,,合同会社,大阪府,大阪市東住吉区,駒川１丁目１７番２２号,,27,121,5460043,,,,,,,2023-12-12,1,,,,,エングループ,0
2392,8120003025529,新規,0,2023-12-12,2023-12-12,ハートストリングス合同会社,,合同会社,大阪府,大阪市北区,豊崎３丁目１５－５ＴＫビル２Ｆ,,27,127,5310072,,,,,,,2023-12-12,1,,,,,ハートストリングス,0
2397,8120101068677,新規,0,2023-12-12,2023-12-12,株式会社未来地図,,株式会社,大阪府,羽曳野市,南恵我之荘５丁目１番４号,,27,222,5830885,,,,,,,2023-12-12,1,,,,,ミライチズ,0
2398,8120103005579,新規,0,2023-12-12,2023-12-12,Ｙ＆Ｋ合同会社,,合同会社,大阪府,堺市中区,福田１４７番地１１,,27,142,5998241,,,,,,,2023-12-12,1,,,,,ワイアンドケイ,0
2399,8120901048473,新規,0,2023-12-12,2023-12-12,株式会社三栄ホーム,,株式会社,大阪府,高槻市,唐崎南３丁目５番３号,,27,207,5690833,,,,,,,2023-12-12,1,,,,,サンエイホーム,0
2403,8122003002747,新規,0,2023-12-12,2023-12-12,Ａｐｏｇｅｅ合同会社,,合同会社,大阪府,四條畷市,田原台８丁目６番１８号,,27,229,5750013,,,,,,,2023-12-12,1,,,,,アポジー,0
2411,8130001075896,新規,0,2023-12-12,2023-12-12,株式会社ヒグチホーム,,株式会社,京都府,京都市伏見区,醍醐御霊ケ下町５２番地１２,,26,109,6011361,,,,,,,2023-12-12,1,,,,,ヒグチホーム,0
2412,8130001075921,新規,0,2023-12-12,2023-12-12,株式会社ＴＡＴＯＫＡ,,株式会社,京都府,京都市伏見区,醍醐大構町２６番地１グランスイート醍醐駅前１０２,,26,109,6011366,,,,,,,2023-12-12,1,,,,,タトカ,0
2422,8140001132399,新規,0,2023-12-12,2023-12-12,株式会社イコマデンタルサプライズ,,株式会社,兵庫県,神戸市東灘区,深江南町２丁目１０番１３号,,28,101,6580022,,,,,,,2023-12-12,1,,,,,イコマデンタルサプライズ,0
2423,8140001132614,新規,0,2023-12-12,2023-12-12,株式会社ワンコネクト,,株式会社,兵庫県,芦屋市,朝日ケ丘町３３番４号,,28,206,6590012,,,,,,,2023-12-12,1,,,,,ワンコネクト,0
2424,8140001132639,新規,0,2023-12-12,2023-12-12,Ｚｅｒｏｌｅｓｓ　Ｊａｐａｎ株式会社,,株式会社,兵庫県,神戸市中央区,磯上通８丁目１番２９号カサベラビルＣ＆Ｍ４０３号室,,28,110,6510086,,,,,,,2023-12-12,1,,,,,ゼロレスジャパン,0
2430,8150005009535,新規,0,2023-12-12,2023-12-12,医療法人健翔会,,その他の設立登記法人,奈良県,生駒郡斑鳩町,興留４丁目１０番地１４号野口ビル１Ｆ,,29,344,6360123,,,,,,,2023-12-12,1,,,,,ケンショウカイ,0
2452,8180301038103,新規,0,2023-12-12,2023-12-12,株式会社ＧｏｏＳ,,株式会社,愛知県,岡崎市,田町３５番地,,23,202,4440054,,,,,,,2023-12-12,1,,,,,グース,0
2455,8180303005935,新規,0,2023-12-12,2023-12-12,合同会社イナビス,,合同会社,愛知県,豊田市,上郷町５丁目９番地１１,,23,211,4701218,,,,,,,2023-12-12,1,,,,,イナビス,0
2456,8190001030945,新規,0,2023-12-12,2023-12-12,城山商事株式会社,,株式会社,三重県,津市,高洲町２８,,24,201,5140011,,,,,,,2023-12-12,1,,,,,シロヤマショウジ,0
2457,8190001030953,新規,0,2023-12-12,2023-12-12,株式会社ＥｌｅＥｎｊｉ・Ｗａｋｉ,,株式会社,三重県,松阪市,駅部田町１３５６番地２,,24,204,5150045,,,,,,,2023-12-12,1,,,,,エレエンジワキ,0
2461,8200001041957,新規,0,2023-12-12,2023-12-12,ＲＣコンサル株式会社,,株式会社,岐阜県,加茂郡川辺町,石神６８１番地の１,,21,503,5090303,,,,,,,2023-12-12,1,,,,,アールシーコンサル,0
2462,8200001041965,新規,0,2023-12-12,2023-12-12,株式会社井口建築板金,,株式会社,岐阜県,岐阜市,太郎丸２２０１番地１５,,21,201,5012577,,,,,,,2023-12-12,1,,,,,イグチケンチクバンキン,0
2482,8260001038543,新規,0,2023-12-12,2023-12-12,株式会社レナトス,,株式会社,岡山県,津山市,押入１６０番地５,,33,203,7081126,,,,,,,2023-12-12,1,,,,,レナトス,0
2491,8290001104012,新規,0,2023-12-12,2023-12-12,株式会社ティーワンフーズ,,株式会社,福岡県,福岡市東区,東浜１丁目１３番３２号,,40,131,8120055,,,,,,,2023-12-12,1,,,,,ティーワンフーズ,0
2500,8330003010121,新規,0,2023-12-12,2023-12-12,合同会社Ｐｒｉｍｏ．ＧＫ,,合同会社,熊本県,熊本市東区,西原２丁目１１番７２－１号,,43,102,8618029,,,,,,,2023-12-12,1,,,,,プリモジーケー,0
2504,8340001026127,新規,0,2023-12-12,2023-12-12,株式会社ＦＡＺ　ＣＲＥＡＴＥ,,株式会社,鹿児島県,鹿児島市,下伊敷１丁目１２番６－８０１号,,46,201,8900005,,,,,,,2023-12-12,1,,,,,ファズクリエイト,0
2505,8340001026135,新規,0,2023-12-12,2023-12-12,株式会社Ｓメディカル,,株式会社,鹿児島県,霧島市,国分府中町３３番１８号,,46,218,8994346,,,,,,,2023-12-12,1,,,,,エスメディカル,0
2509,8350001018684,新規,0,2023-12-12,2023-12-12,株式会社ＰＯＭ,,株式会社,宮崎県,北諸県郡三股町,稗田２７番地４,,45,341,8891903,,,,,,,2023-12-12,1,,,,,ポム,0
2510,8360001032890,新規,0,2023-12-12,2023-12-12,株式会社みなせ商会,,株式会社,沖縄県,宮古島市,平良字西里８９５番地の３,,47,214,9060012,,,,,,,2023-12-12,1,,,,,ミナセショウカイ,0
2512,8370001050702,新規,0,2023-12-12,2023-12-12,みのり飼料株式会社,,株式会社,宮城県,石巻市,川口町３丁目２番８号,,04,202,9860024,,,,,,,2023-12-12,1,,,,,ミノリシリョウ,0
2518,8390001017443,新規,0,2023-12-12,2023-12-12,ＡｒｂｙＣｏｎｎｅｃｔ株式会社,,株式会社,山形県,山形市,下条町２丁目１１番２２号,,06,201,9900823,,,,,,,2023-12-12,1,,,,,アービーコネクト,0
2536,8470001019935,新規,0,2023-12-12,2023-12-12,ＴＥＲＭＩＮＡＬ７株式会社,,株式会社,香川県,木田郡三木町,大字池戸９３１番地７,,37,341,7610701,,,,,,,2023-12-12,1,,,,,ターミナルセブン,0
2538,8470003002534,新規,0,2023-12-12,2023-12-12,合同会社ふじた動物病院,,合同会社,香川県,三豊市,三野町吉津乙３４７番地,,37,208,7670033,,,,,,,2023-12-12,1,,,,,フジタドウブツビョウイン,0
2542,8700150031849,新規,0,2023-12-12,2015-10-09,北海道エナジートーク２１,,その他,北海道,札幌市中央区,北一条西５丁目北１条三井ビル２Ｆ,,01,101,0600001,,,,,,,2015-10-09,1,,,,,ホツカイドウエナジートークニジユウイチ,0
2544,8700150121484,新規,0,2023-12-12,2023-12-12,Ｓｈｅｎｚｈｅｎ　Ｗｏｅｒｘｉｎｇ　Ｔｅｃｈ　Ｃｏ．，Ｌｔｄ,,外国会社等,,,,,,,,ｔａｏｙｕａｎｊｉｅｄａｏｐｉｎｇｓｈａｎｓｈｅｑｕｌｉｕｘｉａｎｄａｄａｏ４１６８ｈａｏｚｈｏｎｇｇｕａｎｓｈｉｄａｉｇｕａｎｇｃｈａｎｇＡｚｕｏ３９０６　Ｓｈｅｎｚｈｅｎ　Ｎａｎｓｈａｎ　５１８０００　ＣＮ,,,,,,2023-12-12,1,,,,,シェンジェンウォーアルシンテックカンパニーリミテッド,0
2545,8700150122706,新規,0,2023-12-12,2023-12-12,馬場山寺土地改良区,,その他,滋賀県,草津市,草津３丁目１３番３０号,,25,206,5250034,,,,,,,2023-12-12,1,,,,,バンバヤマデラトチカイリヨウク,0
2551,9010001240619,新規,0,2023-12-12,2023-12-12,株式会社ｆａｎｇｌｅ,,株式会社,東京都,中央区,日本橋室町１丁目１１番１２号日本橋水野ビル７階,,13,102,1030022,,,,,,,2023-12-12,1,,,,,ファンガル,0
2552,9010001240627,新規,0,2023-12-12,2023-12-12,株式会社ｓｉｒａｃｕｓａ,,株式会社,東京都,中央区,日本橋堀留町２丁目７－２－１３１１,,13,102,1030012,,,,,,,2023-12-12,1,,,,,シラクサ,0
2553,9010001240692,新規,0,2023-12-12,2023-12-12,株式会社ＳＡＫＩＧＡＫＥ　ＪＡＰＡＮ,,株式会社,東京都,中央区,日本橋室町１丁目１１番１２号日本橋水野ビル７階,,13,102,1030022,,,,,,,2023-12-12,1,,,,,サキガケジャパン,0
2554,9010001240734,新規,0,2023-12-12,2023-12-12,株式会社大都バリュープラス,,株式会社,東京都,中央区,京橋３丁目１番１号東京スクエアガーデン,,13,102,1040031,,,,,,,2023-12-12,1,,,,,ダイトバリュープラス,0
2560,9010003042377,新規,0,2023-12-12,2023-12-12,合同会社７ＣＭＬ,,合同会社,東京都,千代田区,霞が関３丁目２番５号,,13,101,1000013,,,,,,,2023-12-12,1,,,,,セブンシーエムエル,0
2562,9010005037524,新規,0,2023-12-12,2023-12-12,一般社団法人日本線維筋痛症・慢性痛学会,,その他の設立登記法人,東京都,中央区,銀座６丁目４番８号曽根ビル３階,,13,102,1040061,,,,,,,2023-12-12,1,,,,,,0
2563,9010005037623,新規,0,2023-12-12,2023-12-12,一般社団法人オープンマインドダンス協会,,その他の設立登記法人,東京都,千代田区,九段北１丁目９番５号朝日九段マンション９０７号,,13,101,1020073,,,,,,,2023-12-12,1,,,,,オープンマインドダンスキョウカイ,0
2574,9010401178525,新規,0,2023-12-12,2023-12-12,ＲＥＶＯＣＳ株式会社,,株式会社,東京都,港区,海岸１丁目７番１号８階,,13,103,1050022,,,,,,,2023-12-12,1,,,,,ルボックス,0
2575,9010401179085,新規,0,2023-12-12,2023-12-12,ＬＳ‐ＳＨＩＰ第５５号株式会社,,株式会社,東京都,港区,六本木１丁目６番１号,,13,103,1060032,,,,,,,2023-12-12,1,,,,,エルエスシップダイゴジュウゴゴウ,0
2576,9010401179093,新規,0,2023-12-12,2023-12-12,株式会社ＡＰ７７,,株式会社,東京都,港区,虎ノ門４丁目１番２８号虎ノ門タワーズオフィス１７階,,13,103,1050001,,,,,,,2023-12-12,1,,,,,エーピーナナジュウナナ,0
2584,9010503007243,新規,0,2023-12-12,2023-12-12,合同会社パンダデイ,,合同会社,東京都,台東区,入谷１丁目８－２,,13,106,1100013,,,,,,,2023-12-12,1,,,,,パンダデイ,0
2587,9010603010527,新規,0,2023-12-12,2023-12-12,合同会社ＲＳ,,合同会社,東京都,江東区,古石場２丁目１６番４‐２０２号,,13,108,1350045,,,,,,,2023-12-12,1,,,,,アールエス,0
2588,9010701045251,新規,0,2023-12-12,2023-12-12,株式会社サク,,株式会社,東京都,品川区,上大崎１丁目５番３２－２０２号,,13,109,1410021,,,,,,,2023-12-12,1,,,,,サク,0
2589,9010801034583,新規,0,2023-12-12,2023-12-12,株式会社ＳｏＺｏ,,株式会社,東京都,大田区,大森北４丁目４番１１号錦ビル３階,,13,111,1430016,,,,,,,2023-12-12,1,,,,,ソゾ,0
2593,9010901054325,新規,0,2023-12-12,2023-12-12,株式会社生きものと暮らす,,株式会社,東京都,世田谷区,若林４丁目２５－１４コーナー松陰２Ｆ,,13,112,1540023,,,,,,,2023-12-12,1,,,,,イキモノトクラス,0
2595,9010903008650,新規,0,2023-12-12,2023-12-12,Ｕ２企画合同会社,,合同会社,東京都,世田谷区,北沢２丁目４０番２２号,,13,112,1550031,,,,,,,2023-12-12,1,,,,,ユーツーキカク,0
2604,9011001158710,新規,0,2023-12-12,2023-12-12,株式会社ＫＭＫホールディングス,,株式会社,東京都,渋谷区,恵比寿南２丁目１７番３号,,13,113,1500022,,,,,,,2023-12-12,1,,,,,ケーエムケーホールディングス,0
2605,9011001158735,新規,0,2023-12-12,2023-12-12,株式会社Ｗｉｚｌｅａｐ　Ａｄｓ,,株式会社,東京都,渋谷区,神宮前２丁目３４番１７号１９Ｆ,,13,113,1500001,,,,,,,2023-12-12,1,,,,,ウィズリープアッズ,0
2606,9011001158743,新規,0,2023-12-12,2023-12-12,株式会社ＳＴＡＲＤＵＳＴ,,株式会社,東京都,渋谷区,本町１丁目４２番１０号ベルハイム初台３０７,,13,113,1510071,,,,,,,2023-12-12,1,,,,,スターダスト,0
2607,9011001158751,新規,0,2023-12-12,2023-12-12,株式会社ＧｐｕｎＫ,,株式会社,東京都,目黒区,東山３丁目３番１０号,,13,110,1530043,,,,,,,2023-12-12,1,,,,,ジーパンク,0
2609,9011003018086,新規,0,2023-12-12,2023-12-12,合同会社Ｓｉａｔｅｒｒａｓ,,合同会社,東京都,渋谷区,渋谷２丁目１９－１５宮益坂ビルディング６０９,,13,113,1500002,,,,,,,2023-12-12,1,,,,,シアテラス,0
2613,9011101105331,新規,0,2023-12-12,2023-12-12,株式会社Ｓ．Ｂ．Ｗ,,株式会社,東京都,新宿区,新宿１丁目１５番１２号千寿ビル２階,,13,104,1600022,,,,,,,2023-12-12,1,,,,,エスビーダブリュ,0
2614,9011101105439,新規,0,2023-12-12,2023-12-12,株式会社ＴＲＡＮＳＬＡＢ,,株式会社,東京都,新宿区,西新宿３丁目３番１３号西新宿水間ビル６階,,13,104,1600023,,,,,,,2023-12-12,1,,,,,トランスラボ,0
2615,9011103013838,新規,0,2023-12-12,2023-12-12,合同会社ＫＡＷＡＳＡＫＩ,,合同会社,東京都,新宿区,舟町１３－７０グランエッグス四谷Ｓ３０１,,13,104,1600006,,,,,,,2023-12-12,1,,,,,カワサキ,0
2624,9011701026852,新規,0,2023-12-12,2023-12-12,株式会社ブルーバード,,株式会社,東京都,江戸川区,春江町５丁目２１番地３０,,13,123,1340003,,,,,,,2023-12-12,1,,,,,ブルーバード,0
2626,9011703003684,新規,0,2023-12-12,2023-12-12,ＰＥＡＣＥ　ｂｙ　ＰＩＥＣＥ合同会社,,合同会社,東京都,江戸川区,小松川２丁目１０－１－１０１,,13,123,1320034,,,,,,,2023-12-12,1,,,,,ピースバイピース,0
2630,9012401041316,新規,0,2023-12-12,2023-12-12,翔天株式会社,,株式会社,東京都,稲城市,百村１６３０番地の６ラフォーレ２－２０１,,13,225,2060804,,,,,,,2023-12-12,1,,,,,ショウテン,0
2631,9012403006325,新規,0,2023-12-12,2023-12-12,ブライテスト合同会社,,合同会社,東京都,小金井市,緑町４丁目１２番１６－７－２０７号グリーンタウン小金井,,13,210,1840003,,,,,,,2023-12-12,1,,,,,ブライテスト,0
2633,9012703002866,新規,0,2023-12-12,2023-12-12,合同会社すぱいすおぶらいふ,,合同会社,東京都,小平市,回田町７０番地の１,,13,211,1870013,,,,,,,2023-12-12,1,,,,,スパイスオブライフ,0
2637,9013301051743,新規,0,2023-12-12,2023-12-12,株式会社ベル・カムフォート,,株式会社,東京都,豊島区,池袋１丁目２番７号メゾン田中７０１号,,13,116,1700014,,,,,,,2023-12-12,1,,,,,ベルカムフォート,0
2639,9013303006919,新規,0,2023-12-12,2023-12-12,Ｓｏｃｉａｌ　Ｃｏｎｎｅｃｔｉｏｎ合同会社,,合同会社,東京都,豊島区,池袋本町４丁目９番３号リーガランド池袋本町４０２号,,13,116,1700011,,,,,,,2023-12-12,1,,,,,ソーシャルコネクション,0
2644,9020001154850,新規,0,2023-12-12,2023-12-12,株式会社ＨＡＮＤＩ,,株式会社,神奈川県,横浜市神奈川区,神奈川２丁目３番地の１,,14,102,2210045,,,,,,,2023-12-12,1,,,,,ハンディ,0
2645,9020001154875,新規,0,2023-12-12,2023-12-12,株式会社Ｇ　Ａｓｓｅｔ　Ｃｏｎｓｕｌｔｉｎｇ,,株式会社,神奈川県,横浜市青葉区,あざみ野２丁目８番地１１,,14,117,2250011,,,,,,,2023-12-12,1,,,,,ジーアセットコンサルティング,0
2651,9020003025166,新規,0,2023-12-12,2023-12-12,合同会社つぬふ,,合同会社,神奈川県,横浜市南区,真金町１丁目８－１１－５０２,,14,105,2320021,,,,,,,2023-12-12,1,,,,,ツヌフ,0
2652,9020005016213,新規,0,2023-12-12,2023-12-12,一般社団法人ネイチャーポジティブ,,その他の設立登記法人,神奈川県,横浜市中区,山手町８４番地３コルティーレ山手町Ｇ１１４号室,,14,104,2310862,,,,,,,2023-12-12,1,,,,,ネイチャーポジティブ,0
2656,9021001080938,新規,0,2023-12-12,2023-12-12,株式会社ブリボーテック,,株式会社,神奈川県,相模原市中央区,田名７３６７番地１０,,14,152,2520244,,,,,,,2023-12-12,1,,,,,ブリボーテック,0
2658,9021003013854,新規,0,2023-12-12,2023-12-12,ｐｏｒｔｅｒｃｏｅｕｒ合同会社,,合同会社,神奈川県,平塚市,紅谷町４－１－４Ｆ,,14,203,2540043,,,,,,,2023-12-12,1,,,,,ポーターク,0
2667,9030001157613,新規,0,2023-12-12,2023-12-12,株式会社アイルビル,,株式会社,埼玉県,三郷市,栄１丁目１１０番地４,,11,237,3410043,,,,,,,2023-12-12,1,,,,,アイルビル,0
2668,9030001157654,新規,0,2023-12-12,2023-12-12,株式会社エイチディー,,株式会社,埼玉県,日高市,大字原宿１７４番地９,,11,242,3501205,,,,,,,2023-12-12,1,,,,,エイチディー,0
2682,9040001131261,新規,0,2023-12-12,2023-12-12,株式会社ジェム,,株式会社,千葉県,鎌ケ谷市,鎌ケ谷１丁目１番１９号－１,,12,224,2730105,,,,,,,2023-12-12,1,,,,,ジェム,0
2683,9040001131278,新規,0,2023-12-12,2023-12-12,株式会社水源,,株式会社,千葉県,流山市,向小金３丁目１７９番地,,12,220,2700143,,,,,,,2023-12-12,1,,,,,スイゲン,0
2684,9040001131352,新規,0,2023-12-12,2023-12-12,株式会社禅,,株式会社,千葉県,千葉市若葉区,若松町２１３５－１０千葉北ビル４階Ｄ号室,,12,104,2640021,,,,,,,2023-12-12,1,,,,,ゼン,0
2686,9040003023894,新規,0,2023-12-12,2023-12-12,麗華商事合同会社,,合同会社,千葉県,松戸市,五香南１丁目１５－７－２０５号室,,12,207,2702212,,,,,,,2023-12-12,1,,,,,レイカショウジ,0
2695,9080001026029,新規,0,2023-12-12,2023-12-12,株式会社葵家,,株式会社,静岡県,静岡市葵区,新富町２丁目７番地の６,,22,101,4200061,,,,,,,2023-12-12,1,,,,,アオイヤ,0
2702,9110001038029,新規,0,2023-12-12,2023-12-12,株式会社ＲＯＲ,,株式会社,新潟県,新潟市江南区,船戸山４丁目７番３５号,,15,104,9500153,,,,,,,2023-12-12,1,,,,,アールオーアール,0
2720,9120001260408,新規,0,2023-12-12,2023-12-12,東和株式会社,,株式会社,大阪府,大阪市北区,西天満２丁目６番８号６Ｆ新東京国際リーガル内,,27,127,5300047,,,,,,,2023-12-12,1,,,,,トウワ,0
2721,9120001260465,新規,0,2023-12-12,2023-12-12,日力産業株式会社,,株式会社,大阪府,大阪市浪速区,桜川２丁目１１－２０根来ビル３０２室,,27,111,5560022,,,,,,,2023-12-12,1,,,,,ニチリキサンギョウ,0
2722,9120001260597,新規,0,2023-12-12,2023-12-12,株式会社ディベック,,株式会社,大阪府,大阪市北区,芝田２丁目８番１１共栄ビル３階,,27,127,5300012,,,,,,,2023-12-12,1,,,,,ディベック,0
2726,9120003025494,新規,0,2023-12-12,2023-12-12,合同会社ＩＭＰＲＯ,,合同会社,大阪府,大阪市東淀川区,東中島１丁目１３番３－２０４号,,27,114,5330033,,,,,,,2023-12-12,1,,,,,アイエムプロ,0
2727,9120003025503,新規,0,2023-12-12,2023-12-12,合同会社ＳＫＩＰＰＥＲ,,合同会社,大阪府,枚方市,宮之下町２０番８号,,27,210,5730046,,,,,,,2023-12-12,1,,,,,スキッパー,0
2738,9120101068643,新規,0,2023-12-12,2023-12-12,株式会社ＳＡＲＡＳＨＩ,,株式会社,大阪府,堺市北区,長曽根町１５０７番地１６,,27,146,5918025,,,,,,,2023-12-12,1,,,,,サラシ,0
2744,9120901048464,新規,0,2023-12-12,2023-12-12,株式会社ｅｎ,,株式会社,大阪府,摂津市,千里丘４丁目２番３２号,,27,224,5660001,,,,,,,2023-12-12,1,,,,,エン,0
2748,9122001037645,新規,0,2023-12-12,2023-12-12,株式会社Ｎリンク,,株式会社,大阪府,東大阪市,岸田堂西２丁目７番１９－３０１号,,27,227,5770848,,,,,,,2023-12-12,1,,,,,エヌリンク,0
2759,9140001132662,新規,0,2023-12-12,2023-12-12,株式会社雄英美装,,株式会社,兵庫県,神戸市長田区,長田町８丁目５番８号,,28,106,6530812,,,,,,,2023-12-12,1,,,,,ユウエイビソウ,0
2760,9160001025559,新規,0,2023-12-12,2023-12-12,株式会社コーエンドリーム,,株式会社,滋賀県,草津市,西渋川１丁目１４番３７号,,25,206,5250025,,,,,,,2023-12-12,1,,,,,コーエンドリーム,0
2761,9170001017919,新規,0,2023-12-12,2023-12-12,花野食品株式会社,,株式会社,和歌山県,有田市,糸我町西４９８番地６,,30,204,6490422,,,,,,,2023-12-12,1,,,,,ハナノショクヒン,0
2764,9180001159289,新規,0,2023-12-12,2023-12-12,興成国際株式会社,,株式会社,愛知県,名古屋市西区,名駅２丁目３４番１７号セントラル名古屋６０７号室,,23,104,4510045,,,,,,,2023-12-12,1,,,,,コウセイコクサイ,0
2767,9190001030944,新規,0,2023-12-12,2023-12-12,株式会社ブリッジブライト,,株式会社,三重県,津市,垂水２７９６番地５,,24,201,5140821,,,,,,,2023-12-12,1,,,,,ブリッジブライト,0
2768,9190003004533,新規,0,2023-12-12,2023-12-12,合同会社三つ星不動産,,合同会社,三重県,員弁郡東員町,大字中上１００１番地１,,24,324,5110254,,,,,,,2023-12-12,1,,,,,ミツボシフドウサン,0
2771,9200001041964,新規,0,2023-12-12,2023-12-12,株式会社技務開研工,,株式会社,岐阜県,加茂郡八百津町,福地９２８番地２５,,21,505,5050421,,,,,,,2023-12-12,1,,,,,ギムカイケンコウ,0
2772,9200001041972,新規,0,2023-12-12,2023-12-12,エイチホールディングス株式会社,,株式会社,岐阜県,羽島市,正木町不破一色２２８番地２,,21,209,5016228,,,,,,,2023-12-12,1,,,,,エイチホールディングス,0
2793,9260001038559,新規,0,2023-12-12,2023-12-12,株式会社樹工業,,株式会社,岡山県,浅口郡里庄町,大字新庄３６６２番地,,33,445,7190302,,,,,,,2023-12-12,1,,,,,イツキコウギョウ,0
2795,9260003004518,新規,0,2023-12-12,2023-12-12,ＯＮＬＹｏｎｅ合同会社,,合同会社,岡山県,赤磐市,桜が丘西３丁目８番１５号,,33,213,7090802,,,,,,,2023-12-12,1,,,,,オンリーワン,0
2805,9290001104003,新規,0,2023-12-12,2023-12-12,株式会社池田建装工業,,株式会社,福岡県,柳川市,京町６１番地１,,40,207,8320023,,,,,,,2023-12-12,1,,,,,イケダケンソウコウギョウ,0
2806,9290001104011,新規,0,2023-12-12,2023-12-12,株式会社ＤＲＴ,,株式会社,福岡県,福岡市中央区,天神１丁目９番１７号福岡天神フコク生命ビル１５階,,40,133,8100001,,,,,,,2023-12-12,1,,,,,ディライト,0
2808,9290801030118,新規,0,2023-12-12,2023-12-12,株式会社山近設備工業,,株式会社,福岡県,北九州市八幡西区,馬場山東２丁目４番２８号,,40,109,8071131,,,,,,,2023-12-12,1,,,,,ヤマチカセツビコウギョウ,0
2811,9310001018745,新規,0,2023-12-12,2023-12-12,株式会社リーチェ,,株式会社,長崎県,長崎市,金屋町９番１１－６０１号,,42,201,8500037,,,,,,,2023-12-12,1,,,,,リーチェ,0
2812,9310003004693,新規,0,2023-12-12,2023-12-12,ＬＩＦＥ合同会社,,合同会社,長崎県,諫早市,貝津町２１８８－１クリエイト・トウワＩＩ４０１号,00132966,42,204,8540063,,,,,,,2023-12-12,1,,,,,ライフ,0
2820,9340001026134,新規,0,2023-12-12,2023-12-12,株式会社ＡＤＬＥＲ,,株式会社,鹿児島県,鹿屋市,王子町４２３４番地,,46,203,8930012,,,,,,,2023-12-12,1,,,,,アドラー,0
2823,9340003004328,新規,0,2023-12-12,2023-12-12,合同会社ＴＭＲ,,合同会社,鹿児島県,鹿児島市,唐湊２丁目１番１９号,,46,201,8900081,,,,,,,2023-12-12,1,,,,,ティーエムアール,0
2826,9370001050701,新規,0,2023-12-12,2023-12-12,中央興産株式会社,,株式会社,宮城県,石巻市,門脇町１丁目１３番１０号,,04,202,9860834,,,,,,,2023-12-12,1,,,,,チュウオウコウサン,0
2836,9390001017442,新規,0,2023-12-12,2023-12-12,株式会社木風,,株式会社,山形県,鶴岡市,大宝寺字中野９２番地５０,,06,203,9970117,,,,,,,2023-12-12,1,,,,,モクフウ,0
2838,9410003003867,新規,0,2023-12-12,2023-12-12,ＴＲＵＳＴ合同会社,,合同会社,秋田県,秋田市,茨島２丁目６番２３号,,05,201,0100065,,,,,,,2023-12-12,1,,,,,トラスト,0
2847,9460003000975,新規,0,2023-12-12,2023-12-12,合同会社ままに,,合同会社,北海道,釧路市,星が浦北４丁目３番３４号,,01,206,0840911,,,,,,,2023-12-12,1,,,,,,0
2854,9700150024034,新規,0,2023-12-12,2015-10-09,関西鉄道協会,,その他,大阪府,大阪市北区,堂島浜２丁目１番２５号中央電気クラブ内,,27,127,5300004,,,,,,,2015-10-09,1,,,,,カンサイテツドウキヨウカイ,0
2855,9700150120989,新規,0,2023-12-12,2023-12-12,Ｈｏｍｅｒｕｎ　Ｔｅｃｈｎｏｌｏｇｙ　Ｈｏｎｇ　Ｋｏｎｇ　Ｌｉｍｉｔｅｄ,,外国会社等,,,,,,,,ｗａｎｚａｉｌｕｏｋｅｄａｏ　５４－６２　ｈａｏ　ｂｏｈｕｉｄａｓｈａ　１６ｌｏｕ　０４－０５ｄａｎｙｕａｎ　Ｈｏｎｇ　Ｋｏｎｇ　９９９０７７　ＨＫ,,,,,,2023-12-12,1,,,,,ホームランテクノロジーホンコンリミテッド,0
2856,9700150122250,新規,0,2023-12-12,2023-11-24,ＣＤＭ研究会,,その他,東京都,千代田区,東神田１丁目１１－４東神田藤井ビル１０階,,13,101,1010031,,,,,,,2023-11-24,1,,,,,シーデイエムケンキユウカイ,0
2857,9700150122713,新規,0,2023-12-12,2023-12-12,ＮＥＷ　Ａ　Ｒ　Ｓ　ＨＯＬＤＩＮＧＳ　ＰＶＴ　ＬＴＤ,,外国会社等,神奈川県,厚木市,妻田東３丁目２３－３カヴァナーズアームスＣ－１０２号室,,14,212,2430813,スリランカ民主社会主義共和国、アクラナマータレーロード、２３６,,,,,,2023-12-12,1,,,,,ニユーエーアールエスホールデイングスプライベートリミテツド,0
