sequenceNumber,corporateNumber,process,correct,updateDate,changeDate,name,nameImageId,kind,prefectureName,cityName,streetNumber,addressImageId,prefectureCode,cityCode,postCode,addressOutside,addressOutsideImageId,closeDate,closeCause,successorCorporateNumber,changeCause,assignmentDate,latest,enName,enPrefectureName,enCityName,enAddressOutside,furigana,hihyoji
5,1010001248223,新規,0,2024-09-10,2024-09-10,株式会社ＧｌａＭｙ,,株式会社,東京都,中央区,銀座１丁目１２番４号Ｎ＆ＥＢＬＤ．６Ｆ,,13,102,1040061,,,,,,,2024-09-10,1,,,,,グラミー,0
7,1010003044835,新規,0,2024-09-10,2024-09-10,合同会社心愛不動産,,合同会社,東京都,千代田区,岩本町２丁目１０番５号,,13,101,1010032,,,,,,,2024-09-10,1,,,,,ココアフドウサン,0
8,1010003044843,新規,0,2024-09-10,2024-09-10,合同会社中野建物,,合同会社,東京都,千代田区,神田小川町３丁目２６番８号神田小川町三丁目ビル６階,,13,101,1010052,,,,,,,2024-09-10,1,,,,,ナカノタテモノ,0
9,1010003044876,新規,0,2024-09-10,2024-09-10,ケーエーティーエムアソシエイツ合同会社,,合同会社,東京都,千代田区,内神田１丁目１５番２号,,13,101,1010047,,,,,,,2024-09-10,1,,,,,ケーエーティーエムアソシエイツ,0
10,1010005038785,新規,0,2024-09-10,2024-09-10,一般社団法人関東華人ゴルフ振興協会,,その他の設立登記法人,東京都,中央区,日本橋小網町３－１４茅場町Ｋ－１ビル５０２,,13,102,1030016,,,,,,,2024-09-10,1,,,,,カントウカジンゴルフシンコウキョウカイ,0
11,1010005038802,新規,0,2024-09-10,2024-09-10,一般社団法人京都インベストメント,,その他の設立登記法人,東京都,千代田区,平河町１丁目６番１５号シルスフィア会計事務所内,,13,101,1020093,,,,,,,2024-09-10,1,,,,,キョウトインベストメント,0
12,1010101016307,新規,0,2024-09-10,2024-09-10,株式会社ＩＣＨＩ,,株式会社,東京都,八王子市,大塚６５９番地４,,13,201,1920352,,,,,,,2024-09-10,1,,,,,イチ,0
23,1010501052884,新規,0,2024-09-10,2024-09-10,株式会社グローバル,,株式会社,東京都,台東区,清川１丁目１９番９号,,13,106,1110022,,,,,,,2024-09-10,1,,,,,グローバル,0
28,1010601065893,新規,0,2024-09-10,2024-09-10,株式会社緑心,,株式会社,東京都,江東区,青海２丁目７番４号ｔｈｅＳＯＨＯ１３０８,,13,108,1350064,,,,,,,2024-09-10,1,,,,,リョクシン,0
30,1010701046496,新規,0,2024-09-10,2024-09-10,Ｔｒａｎｑｕｉｌ株式会社,,株式会社,東京都,品川区,上大崎３丁目５番２号リードシー目黒イースト１階,,13,109,1410021,,,,,,,2024-09-10,1,,,,,トランクイル,0
33,1010801035382,新規,0,2024-09-10,2024-09-10,株式会社カーセンジョー,,株式会社,東京都,大田区,上池台１丁目２０番２３号第８岡崎ビル２Ｆ,,13,111,1450064,,,,,,,2024-09-10,1,,,,,カーセンジョー,0
34,1010901055933,新規,0,2024-09-10,2024-09-10,株式会社児玉音楽事務所,,株式会社,東京都,世田谷区,野沢４丁目２１番１３号三田野沢コーポ３０４,,13,112,1540003,,,,,,,2024-09-10,1,,,,,コダマオンガクジムショ,0
35,1010903009342,新規,0,2024-09-10,2024-09-10,合同会社４０,,合同会社,東京都,世田谷区,代沢３丁目１７番１１－３０３号,,13,112,1550032,,,,,,,2024-09-10,1,,,,,フォーティー,0
36,1011001164427,新規,0,2024-09-10,2024-09-10,株式会社管理のプロ,,株式会社,東京都,目黒区,下目黒１丁目１番１４号コノトラビル７Ｆ,,13,110,1530064,,,,,,,2024-09-10,1,,,,,カンリノプロ,0
37,1011001164559,新規,0,2024-09-10,2024-09-10,株式会社ＲｅＢｉｒｔｈ　Ｃｒｅａｔｉｏｎｓ,,株式会社,東京都,渋谷区,恵比寿西２丁目４番８号ウィンド恵比寿ビル８Ｆ,,13,113,1500021,,,,,,,2024-09-10,1,,,,,リバースクリエーションズ,0
38,1011001164575,新規,0,2024-09-10,2024-09-10,ネトロ株式会社,,株式会社,東京都,目黒区,下目黒１丁目１番１４号コノトラビル７Ｆ,,13,110,1530064,,,,,,,2024-09-10,1,,,,,ネトロ,0
39,1011001164583,新規,0,2024-09-10,2024-09-10,株式会社ＮＥＸＴ,,株式会社,東京都,渋谷区,渋谷３丁目６番２号,,13,113,1500002,,,,,,,2024-09-10,1,,,,,ネクスト,0
40,1011001164591,新規,0,2024-09-10,2024-09-10,株式会社ＬＩＢＥＲＴＥ,,株式会社,東京都,渋谷区,道玄坂１丁目１０番８号渋谷道玄坂東急ビル２Ｆ－Ｃ,,13,113,1500043,,,,,,,2024-09-10,1,,,,,リベルテ,0
42,1011003019983,新規,0,2024-09-10,2024-09-10,Ｒｉｐｐｌｅ　Ｎｏｔｅ合同会社,,合同会社,東京都,渋谷区,道玄坂１丁目１６‐６二葉ビル８ｂ,,13,113,1500043,,,,,,,2024-09-10,1,,,,,リップルノート,0
48,1011101108663,新規,0,2024-09-10,2024-09-10,株式会社グローバルドア,,株式会社,東京都,新宿区,西新宿６丁目２番３号４階,,13,104,1600023,,,,,,,2024-09-10,1,,,,,グローバルドア,0
49,1011101108696,新規,0,2024-09-10,2024-09-10,株式会社萬年金吉商店,,株式会社,東京都,新宿区,若宮町２６番地マートルコート新宿若宮町１０６,,13,104,1620827,,,,,,,2024-09-10,1,,,,,マンネンキンキチショウテン,0
50,1011101108721,新規,0,2024-09-10,2024-09-10,ＡＩ東京株式会社,,株式会社,東京都,新宿区,新宿１丁目９番７号第１３大鉄ビル４Ｆ,,13,104,1600022,,,,,,,2024-09-10,1,,,,,エーアイトウキョウ,0
51,1011101108770,新規,0,2024-09-10,2024-09-10,株式会社ＰｌｕｓＵｌｔｒａ,,株式会社,東京都,新宿区,新宿６丁目２５番５－３０２号,,13,104,1600022,,,,,,,2024-09-10,1,,,,,プルスウルトラ,0
58,1011205002630,新規,0,2024-09-10,2024-09-10,医療法人社団中新会,,その他の設立登記法人,東京都,中野区,弥生町２丁目２０番１８号アーバンビューシバタ１階,,13,114,1640013,,,,,,,2024-09-10,1,,,,,ナカシンカイ,0
62,1011303005279,新規,0,2024-09-10,2024-09-10,合同会社トモワークス,,合同会社,東京都,杉並区,成田東１丁目２３番２３号,,13,115,1660015,,,,,,,2024-09-10,1,,,,,,0
70,1012703003087,新規,0,2024-09-10,2024-09-10,Ｌｉｂｒａ合同会社,,合同会社,東京都,西東京市,向台町６丁目５番１４号,,13,229,1880013,,,,,,,2024-09-10,1,,,,,リーブラ,0
78,1013301053086,新規,0,2024-09-10,2024-09-10,ＡＫ　ＥＸＰＲＥＳＳ　ＩＣＨＩＫＡＷＡ株式会社,,株式会社,東京都,豊島区,巣鴨２丁目９番２８号,,13,116,1700002,,,,,,,2024-09-10,1,,,,,エイケイエクスプレスイチカワ,0
83,1020001158751,新規,0,2024-09-10,2024-09-10,株式会社Ｈａｌｏ．ｉｎｃ,,株式会社,神奈川県,横浜市神奈川区,金港町５－１４クアドリフォリオ８階,,14,102,2210056,,,,,,,2024-09-10,1,,,,,ハロドットインク,0
84,1020001159089,新規,0,2024-09-10,2024-09-10,株式会社オフィスこじろう,,株式会社,神奈川県,横浜市青葉区,藤が丘１丁目１５番地１,,14,117,2270043,,,,,,,2024-09-10,1,,,,,オフィスコジロウ,0
87,1021001083188,新規,0,2024-09-10,2024-09-10,テンポコモン株式会社,,株式会社,神奈川県,藤沢市,鵠沼藤が谷１丁目４番７号,,14,205,2510031,,,,,,,2024-09-10,1,,,,,テンポコモン,0
88,1021001083213,新規,0,2024-09-10,2024-09-10,漢合株式会社,,株式会社,神奈川県,大和市,草柳１丁目１９番地９田園リビングマート９号室,,14,213,2420026,,,,,,,2024-09-10,1,,,,,カンゴウ,0
103,1030003025049,新規,0,2024-09-10,2024-09-10,合同会社ＰＬＵＳ　ＢＥＬＬＥ,,合同会社,埼玉県,南埼玉郡宮代町,字宮東３７２番地１,,11,442,3450803,,,,,,,2024-09-10,1,,,,,プルスベル,0
104,1030003025098,新規,0,2024-09-10,2024-09-10,合同会社バロックワークス,,合同会社,埼玉県,鶴ヶ島市,大字脚折１５６８－２サン・ブリーズ２（３０３号室）,,11,241,3502213,,,,,,,2024-09-10,1,,,,,バロックワークス,0
109,1040001135328,新規,0,2024-09-10,2024-09-10,株式会社Ｔ＆Ｋ,,株式会社,千葉県,柏市,藤心１丁目１番７号,,12,217,2770034,,,,,,,2024-09-10,1,,,,,ティーアンドケー,0
135,1100001037831,新規,0,2024-09-10,2024-09-10,株式会社山路板金,,株式会社,長野県,木曽郡木祖村,大字薮原８４３番地１,,20,425,3996201,,,,,,,2024-09-10,1,,,,,ヤマジバンキン,0
140,1110001038696,新規,0,2024-09-10,2024-09-10,株式会社リーペ,,株式会社,新潟県,新潟市北区,柳原３丁目１１－１０,,15,101,9503326,,,,,,,2024-09-10,1,,,,,リーペ,0
147,1110003005513,新規,0,2024-09-10,2024-09-10,Ｂｌｕｅｂｉｒｄ　Ｌｅｓｓｏｎｓ合同会社,,合同会社,新潟県,妙高市,大字樽本１１０１－１１,00136250,15,217,9492223,,,,,,,2024-09-10,1,,,,,ブルーバードレッスン,0
155,1120001268433,新規,0,2024-09-10,2024-09-10,株式会社ｅｖｅｒｙｔｈｉｎｇ　ｎｅｅｄ,,株式会社,大阪府,大阪市北区,豊崎３丁目５番１２－１０１号,,27,127,5310072,,,,,,,2024-09-10,1,,,,,エブリシングニード,0
156,1120001268441,新規,0,2024-09-10,2024-09-10,クレディ・アーク株式会社,,株式会社,大阪府,大阪市淀川区,西中島６丁目５番３号,,27,123,5320011,,,,,,,2024-09-10,1,,,,,クレディアーク,0
157,1120001268474,新規,0,2024-09-10,2024-09-10,株式会社梅園,,株式会社,大阪府,大阪市阿倍野区,阪南町３丁目１番８－２０５号,,27,119,5450021,,,,,,,2024-09-10,1,,,,,ウメゾノ,0
162,1120101070268,新規,0,2024-09-10,2024-09-10,株式会社つむぎ,,株式会社,大阪府,松原市,高見の里１丁目１３番１３号,,27,217,5800021,,,,,,,2024-09-10,1,,,,,ツムギ,0
165,1120103006047,新規,0,2024-09-10,2024-09-10,合同会社くろーばー,,合同会社,大阪府,河内長野市,原町１丁目２０番３６号,,27,216,5860021,,,,,,,2024-09-10,1,,,,,クローバー,0
166,1120903005314,新規,0,2024-09-10,2024-09-10,合同会社Ｌａｋｉ,,合同会社,大阪府,豊中市,東豊中４－５－１３,,27,203,5600000,,,,,,,2024-09-10,1,,,,,ラキ,0
167,1120903005330,新規,0,2024-09-10,2024-09-10,ティグリ合同会社,,合同会社,大阪府,高槻市,城南町３丁目１５番２０号,,27,207,5690056,,,,,,,2024-09-10,1,,,,,ティグリ,0
170,1122001038436,新規,0,2024-09-10,2024-09-10,株式会社有馬興業,,株式会社,大阪府,柏原市,田辺２丁目１０番８１号,,27,221,5820024,,,,,,,2024-09-10,1,,,,,アリマコウギョウ,0
171,1130003009850,新規,0,2024-09-10,2024-09-10,合同会社ミック,,合同会社,京都府,京都市左京区,東大路二条下る北門前町４８０番地,,26,103,6068352,,,,,,,2024-09-10,1,,,,,ミック,0
177,1140003021053,新規,0,2024-09-10,2024-09-10,合同会社ＵＩ,,合同会社,兵庫県,伊丹市,野間７丁目６番２０号,,28,207,6640873,,,,,,,2024-09-10,1,,,,,ユーアイ,0
192,1180001163232,新規,0,2024-09-10,2024-09-10,愛知令和総合警備サービス株式会社,,株式会社,愛知県,名古屋市中区,丸の内３丁目５番４０号ＲＯＹＡＬＳＥＳＳＩＯＮＳ４階,,23,106,4600002,,,,,,,2024-09-10,1,,,,,アイチレイワソウゴウケイビサービス,0
196,1180003027336,新規,0,2024-09-10,2024-09-10,合同会社ｍｉｒａｉ．Ｆ,,合同会社,愛知県,尾張旭市,桜ケ丘町１丁目１７５番地,,23,226,4880859,,,,,,,2024-09-10,1,,,,,ミライエフ,0
199,1180301039041,新規,0,2024-09-10,2024-09-10,株式会社ＰＯＳＴマネジメントサービス,,株式会社,愛知県,豊田市,若林東町下外根６９番地３、３階,,23,211,4730914,,,,,,,2024-09-10,1,,,,,ポストマネジメントサービス,0
205,1190001031628,新規,0,2024-09-10,2024-09-10,東紀州グリーンテック株式会社,,株式会社,三重県,尾鷲市,瀬木山町５番２８号,,24,209,5193613,,,,,,,2024-09-10,1,,,,,ヒガシキシュウグリーンテック,0
215,1240001063797,新規,0,2024-09-10,2024-09-10,株式会社ＳｕｎＤＥＬＩＧＨＴ,,株式会社,広島県,安芸郡坂町,坂東１丁目２番１６号,,34,309,7314313,,,,,,,2024-09-10,1,,,,,サンディライト,0
216,1250005008946,新規,0,2024-09-10,2024-09-10,特定非営利活動法人ＲＥＬＡＴＩＯＮＳ,,その他の設立登記法人,山口県,山口市,平井４２９番地５,,35,203,7530831,,,,,,,2024-09-10,1,,,,,リレーションズ,0
217,1260001039457,新規,0,2024-09-10,2024-09-10,株式会社エレガンスワン,,株式会社,岡山県,岡山市北区,中央町７番１３号アカマツ１５ビル岡山６Ｆ,,33,101,7000836,,,,,,,2024-09-10,1,,,,,エレガンスワン,0
218,1260003004888,新規,0,2024-09-10,2024-09-10,ＡＴＴＲＩＣＥ合同会社,,合同会社,岡山県,岡山市北区,奥田本町２４番１９号ヴィレッジ奥田５０２,,33,101,7000932,,,,,,,2024-09-10,1,,,,,アトリーチェ,0
219,1270001009054,新規,0,2024-09-10,2024-09-10,株式会社高吉,,株式会社,鳥取県,鳥取市,末広温泉町４５１番地２,,31,201,6800833,,,,,,,2024-09-10,1,,,,,タカヨシ,0
223,1290001107186,新規,0,2024-09-10,2024-09-10,株式会社ＨＹＢＲＩＸ,,株式会社,福岡県,福岡市博多区,博多駅前４丁目１８番２５号－９０２号室,,40,132,8120011,,,,,,,2024-09-10,1,,,,,ハイブリックス,0
224,1290001107228,新規,0,2024-09-10,2024-09-10,株式会社ＮＥＸＴ　ＳＴＹＬＥ,,株式会社,福岡県,福岡市南区,高宮１丁目１４番９号,,40,134,8150083,,,,,,,2024-09-10,1,,,,,ネクストスタイル,0
228,1320001020708,新規,0,2024-09-10,2024-09-10,株式会社５５ユニット,,株式会社,大分県,大分市,寿町１０番１号サンシティ寿１３０１,,44,201,8700036,,,,,,,2024-09-10,1,,,,,ゴーゴーユニット,0
229,1320003004469,新規,0,2024-09-10,2024-09-10,合同会社ＳｉｌｖｅｒＣｏｄｅ,,合同会社,大分県,大分市,城東町３番１８号,,44,201,8700153,,,,,,,2024-09-10,1,,,,,シルバーコード,0
231,1350001019177,新規,0,2024-09-10,2024-09-10,株式会社野辺,,株式会社,宮崎県,宮崎市,下北方町平田９０３番地１６ダイアパレス神宮の杜伍号館４０６号,,45,201,8800035,,,,,,,2024-09-10,1,,,,,ノベ,0
232,1350003004747,新規,0,2024-09-10,2024-09-10,ポラリス合同会社,,合同会社,宮崎県,宮崎市,高岡町上倉永６９番地２,,45,201,8802213,,,,,,,2024-09-10,1,,,,,ポラリス,0
239,1410001013933,新規,0,2024-09-10,2024-09-10,株式会社永澤保険事務所,,株式会社,秋田県,大仙市,花館字杉本１８９番地２,,05,212,0140001,,,,,,,2024-09-10,1,,,,,ナガサワホケンジムショ,0
241,1420003002990,新規,0,2024-09-10,2024-09-10,Ｍａｓｔｉｌ　Ａｏｍｏｒｉ合同会社,,合同会社,青森県,十和田市,大字三本木字西金崎８６－１４,,02,206,0340001,,,,,,,2024-09-10,1,,,,,マスティルアオモリ,0
243,1430001092612,新規,0,2024-09-10,2024-09-10,株式会社ＫＩＹＵ,,株式会社,北海道,札幌市中央区,南二十一条西１２丁目１ー１４,,01,101,0640921,,,,,,,2024-09-10,1,,,,,キュウ,0
244,1430001092645,新規,0,2024-09-10,2024-09-10,Ｖｏｉｃｅ　Ｗｏｒｋｓ　Ｖｉｓｉｏｎ株式会社,,株式会社,北海道,札幌市北区,北三十七条西８丁目３番１号,,01,102,0010037,,,,,,,2024-09-10,1,,,,,ボイスワークスヴィジョン,0
246,1430003016767,新規,0,2024-09-10,2024-09-10,合同会社Ｙ・Ｏ・Ｃ,,合同会社,北海道,札幌市中央区,北二条西３丁目１番地,,01,101,0600002,,,,,,,2024-09-10,1,,,,,ワイオーシー,0
247,1430005015065,新規,0,2024-09-10,2024-09-10,一般社団法人Ｌｏｎｇ　Ｂｒｉｄｇｅ,,その他の設立登記法人,北海道,小樽市,長橋２丁目１１番１３号,,01,203,0470036,,,,,,,2024-09-10,1,,,,,ロングブリッジ,0
253,1500001025861,新規,0,2024-09-10,2024-09-10,株式会社できトレ,,株式会社,愛媛県,今治市,立花町２丁目３－１６,,38,202,7940821,,,,,,,2024-09-10,1,,,,,デキトレ,0
255,1700150127091,新規,0,2024-09-10,2024-09-10,ＫＨＡＤＡＳ　ＬＩＭＩＴＥＤ,,外国会社等,,,,,,,,ＵＮＩＴ２２２３，２２／Ｆ　ＹＡＮ’Ｓ　ＴＯＷＥＲ　２５－２７　ＷＯＮＧ　ＣＨＵＫ　ＨＡＮＧ　ＲＤ　ＡＢＥＲＤＥＥＮ　ＨＯＮＧ　ＫＯＮＧ,,,,,,2024-09-10,1,,,,,カダスリミテッド,0
256,1700150127109,新規,0,2024-09-10,2024-09-10,韓国知識財産保護院　日本ＩＰ支店,,外国会社等,東京都,千代田区,丸の内３丁目４－１新国際ビル９階,,13,101,1000005,韓国ソウル特別市江南区テヘラン路１３１,,,,,,2024-09-10,1,,,,,カンコクチシキザイサンホゴインニホンアイピーシテン,0
265,2010001248172,新規,0,2024-09-10,2024-09-10,リスクル株式会社,,株式会社,東京都,文京区,湯島２丁目５番１０－２０３号,,13,105,1130034,,,,,,,2024-09-10,1,,,,,リスクル,0
267,2010003044842,新規,0,2024-09-10,2024-09-10,ＪＰＳパートナーズ合同会社,,合同会社,東京都,中央区,勝どき２丁目１３－６－８０１,,13,102,1040054,,,,,,,2024-09-10,1,,,,,ジェイピーエスパートナーズ,0
268,2010003044859,新規,0,2024-09-10,2024-09-10,星空ストリーム合同会社,,合同会社,東京都,中央区,銀座１丁目１２番４号Ｎ＆ＥＢＬＤ．６Ｆ,,13,102,1040061,,,,,,,2024-09-10,1,,,,,ホシゾラストリーム,0
269,2010005038792,新規,0,2024-09-10,2024-09-10,一般社団法人乙部風力開発,,その他の設立登記法人,東京都,中央区,京橋２丁目１２番６号ＡＯＪ税理士法人内,,13,102,1040031,,,,,,,2024-09-10,1,,,,,オトベフウリョクカイハツ,0
270,2010005038801,新規,0,2024-09-10,2024-09-10,一般社団法人鬼高事業管理,,その他の設立登記法人,東京都,千代田区,平河町１丁目６番１５号シルスフィア会計事務所内,,13,101,1020093,,,,,,,2024-09-10,1,,,,,オニダカジギョウカンリ,0
275,2010403033404,新規,0,2024-09-10,2024-09-10,合同会社ダンテ２,,合同会社,東京都,港区,虎ノ門５丁目１番４号,,13,103,1050001,,,,,,,2024-09-10,1,,,,,ダンテツー,0
278,2010405023510,新規,0,2024-09-10,2024-09-10,Ｃａｐｒｉｃｏｒｎ特定目的会社,,その他の設立登記法人,東京都,港区,虎ノ門５丁目１番４号,,13,103,1050001,,,,,,,2024-09-10,1,,,,,カプリコーン,0
281,2010601065892,新規,0,2024-09-10,2024-09-10,ｓｈｗｉｒｉｎｇ株式会社,,株式会社,東京都,江東区,東陽２丁目２番１４－４１２号,,13,108,1350016,,,,,,,2024-09-10,1,,,,,シュワイリング,0
282,2010603011077,新規,0,2024-09-10,2024-09-10,合同会社Ｐｌａｎ　Ｂ,,合同会社,東京都,江東区,森下５丁目１９－１０エムエスハイツ３０１,,13,108,1350004,,,,,,,2024-09-10,1,,,,,プランビー,0
283,2010801035381,新規,0,2024-09-10,2024-09-10,ゆうきエンジェル株式会社,,株式会社,東京都,大田区,上池台１丁目２０番２３号第８岡崎ビル２Ｆ,,13,111,1450064,,,,,,,2024-09-10,1,,,,,ユウキエンジェル,0
284,2010805003129,新規,0,2024-09-10,2024-09-10,医療法人社団悟優会,,その他の設立登記法人,東京都,大田区,矢口１丁目１７番２号Ｓ．ＢＵＩＬＤＩＮＧ２Ｆ－Ｄ,,13,111,1460093,,,,,,,2024-09-10,1,,,,,ゴウユウカイ,0
292,2011001164459,新規,0,2024-09-10,2024-09-10,株式会社クラタチマクオ,,株式会社,東京都,渋谷区,神宮前２丁目４番７号ＦＲＥＳＣＡ神宮前３０１,,13,113,1500001,,,,,,,2024-09-10,1,,,,,クラタチマクオ,0
295,2011103014925,新規,0,2024-09-10,2024-09-10,合同会社Ａｃｃｅｓｓ,,合同会社,東京都,新宿区,高田馬場３丁目１番５号サンパティオ高田馬場３０９号室,,13,104,1690075,,,,,,,2024-09-10,1,,,,,アクセス,0
300,2011601028030,新規,0,2024-09-10,2024-09-10,株式会社Ｏｏｏｐｓ,,株式会社,東京都,練馬区,北町３丁目２０番１３号タウンコートＫ２０３,,13,120,1790081,,,,,,,2024-09-10,1,,,,,ウープス,0
304,2012401042279,新規,0,2024-09-10,2024-09-10,株式会社ＳＯＤＡ　ＷＯＲＫＳ,,株式会社,東京都,府中市,片町１丁目１０‐６府中スカイハイツ６０９,,13,206,1830021,,,,,,,2024-09-10,1,,,,,ソーダワークス,0
311,2013303007295,新規,0,2024-09-10,2024-09-10,ＳＧ合同会社,,合同会社,東京都,豊島区,目白５丁目１７番９号今井方２０３号室,,13,116,1710031,,,,,,,2024-09-10,1,,,,,エスジー,0
319,2020001158981,新規,0,2024-09-10,2024-09-10,株式会社ＧＲＩＴコンサルティング,,株式会社,神奈川県,川崎市川崎区,昭和２丁目４番５－２号,,14,131,2100813,,,,,,,2024-09-10,1,,,,,グリットコンサルティング,0
320,2020001159047,新規,0,2024-09-10,2024-09-10,株式会社Ｌｏｎｇ　Ｓｌｏｗ　Ｄｉｓｔａｎｃｅ,,株式会社,神奈川県,横浜市西区,浅間町１丁目７－１ＢＩＺｃｏｍｆｏｒｔ横浜西口,,14,103,2200072,,,,,,,2024-09-10,1,,,,,ロングスロウディスタンス,0
321,2020001159055,新規,0,2024-09-10,2024-09-10,アルスター株式会社,,株式会社,神奈川県,横浜市青葉区,元石川町５３３８番地,,14,117,2250004,,,,,,,2024-09-10,1,,,,,アルスター,0
322,2020001159063,新規,0,2024-09-10,2024-09-10,株式会社ＣＬＴ,,株式会社,神奈川県,横浜市西区,中央２丁目３０番１８－２号,,14,103,2200051,,,,,,,2024-09-10,1,,,,,シーエルティー,0
331,2020003026856,新規,0,2024-09-10,2024-09-10,ｔ‐Ｓｔｙｌｅ．合同会社,,合同会社,神奈川県,横浜市西区,北幸２丁目１０番４８号むつみビル３階,,14,103,2200004,,,,,,,2024-09-10,1,,,,,ティースタイル,0
336,2021001083195,新規,0,2024-09-10,2024-09-10,株式会社ＴＨＥ　ＰＥＡＣＥ　ＢＯＸ,,株式会社,神奈川県,相模原市中央区,陽光台４丁目８番１８号,,14,152,2520226,,,,,,,2024-09-10,1,,,,,ザピースボックス,0
341,2021003014990,新規,0,2024-09-10,2024-09-10,Ｃｈｅｅｒ　ｃｏｎｓｕｌｔａｎｔ合同会社,,合同会社,神奈川県,茅ヶ崎市,本村２丁目７－１２,,14,207,2530042,,,,,,,2024-09-10,1,,,,,チアコンサルタント,0
349,2030001162396,新規,0,2024-09-10,2024-09-10,株式会社ｒｅｖｅ,,株式会社,埼玉県,戸田市,笹目５丁目２番地の２７（ハイツ・Ｍ－３０１号室）,,11,224,3350034,,,,,,,2024-09-10,1,,,,,レーヴ,0
350,2030001162405,新規,0,2024-09-10,2024-09-10,株式会社エミアス,,株式会社,埼玉県,戸田市,上戸田２丁目３３番７号,,11,224,3350022,,,,,,,2024-09-10,1,,,,,エミアス,0
352,2030003025072,新規,0,2024-09-10,2024-09-10,光兆国際合同会社,,合同会社,埼玉県,さいたま市桜区,大字神田６５６－６,,11,106,3380812,,,,,,,2024-09-10,1,,,,,コウチョウコクサイ,0
358,2040001135335,新規,0,2024-09-10,2024-09-10,株式会社ＭＳＴクラウン,,株式会社,千葉県,千葉市若葉区,小倉町８６８番地１１,,12,104,2640007,,,,,,,2024-09-10,1,,,,,エムエスティクラウン,0
371,2080401027434,新規,0,2024-09-10,2024-09-10,株式会社スタークロップ,,株式会社,静岡県,御前崎市,下朝比奈５７０番地の２,,22,223,4371605,,,,,,,2024-09-10,1,,,,,スタークロップ,0
373,2110001038695,新規,0,2024-09-10,2024-09-10,朝日株式会社,,株式会社,新潟県,新潟市北区,石動２丁目２番地１,,15,101,9503327,,,,,,,2024-09-10,1,,,,,アサヒ,0
383,2120001268250,新規,0,2024-09-10,2024-09-10,日＿株式会社,00136247,株式会社,大阪府,大阪市福島区,福島４丁目３－２３－３５０９号室,,27,103,5530003,,,,,,,2024-09-10,1,,,,,ニシン,0
384,2120001268424,新規,0,2024-09-10,2024-09-10,株式会社アイビット,,株式会社,大阪府,大阪市北区,南扇町１－２,,27,127,5300052,,,,,,,2024-09-10,1,,,,,アイビット,0
385,2120001268432,新規,0,2024-09-10,2024-09-10,Ｒｅｖｅ　Ｃａｒｅｅｒ　Ａｇｅｎｃｙ株式会社,,株式会社,大阪府,大阪市中央区,城見１丁目２番２７号,,27,128,5400001,,,,,,,2024-09-10,1,,,,,レーヴキャリアエージェンシー,0
386,2120001268440,新規,0,2024-09-10,2024-09-10,株式会社Ｈｅａｒｔｉｖｅ,,株式会社,大阪府,枚方市,宮之阪４丁目４０－１３,,27,210,5730022,,,,,,,2024-09-10,1,,,,,ハーティブ,0
389,2120003027456,新規,0,2024-09-10,2024-09-10,実鶴合同会社,,合同会社,大阪府,枚方市,長尾谷町１丁目３０３－１２－１Ｆ倉庫兼事務所,,27,210,5730164,,,,,,,2024-09-10,1,,,,,ミツル,0
390,2120003027480,新規,0,2024-09-10,2024-09-10,合同会社あさがお,,合同会社,大阪府,大阪市東成区,東中本２丁目９番１７号ライフハウス秀１号館１０２,,27,115,5370021,,,,,,,2024-09-10,1,,,,,アサガオ,0
391,2120003027506,新規,0,2024-09-10,2024-09-10,合同会社ＣＯＬＬＥＧＥ　ＦＥＳＴＡ,,合同会社,大阪府,大阪市浪速区,湊町２丁目１番３４－１３１３号,,27,111,5560017,,,,,,,2024-09-10,1,,,,,カレッジフェスタ,0
396,2120103006038,新規,0,2024-09-10,2024-09-10,合同会社おもろい,,合同会社,大阪府,堺市西区,上野芝向ヶ丘町４丁２０番１０号,,27,144,5938303,,,,,,,2024-09-10,1,,,,,オモロイ,0
405,2120901049758,新規,0,2024-09-10,2024-09-10,株式会社Ｉｓ　ｇｏｏｄ,,株式会社,大阪府,豊中市,旭丘１番２－５０８号,,27,203,5610865,,,,,,,2024-09-10,1,,,,,イズグッド,0
412,2130001077907,新規,0,2024-09-10,2024-09-10,株式会社フォトオフィスフジイ,,株式会社,京都府,京都市右京区,梅津中村町２０番地３３,,26,108,6150916,,,,,,,2024-09-10,1,,,,,フォトオフィスフジイ,0
415,2140001135721,新規,0,2024-09-10,2024-09-10,株式会社ＣＲＥＳＴ,,株式会社,兵庫県,豊岡市,江本４３３番地の２,,28,209,6680852,,,,,,,2024-09-10,1,,,,,クレスト,0
419,2140003021060,新規,0,2024-09-10,2024-09-10,合同会社ロードック,,合同会社,兵庫県,神戸市中央区,磯辺通１丁目１番１８号カサベラ国際プラザビル７０７号室,,28,110,6510084,,,,,,,2024-09-10,1,,,,,ロードック,0
420,2140003021069,新規,0,2024-09-10,2024-09-10,ＹＡＮＧＬＡ合同会社,,合同会社,兵庫県,神戸市灘区,烏帽子町２丁目２番２２号澤田ビル１階,,28,102,6570042,,,,,,,2024-09-10,1,,,,,ヤングラ,0
421,2140005027196,新規,0,2024-09-10,2024-09-10,一般社団法人こども未来守り隊,,その他の設立登記法人,兵庫県,西宮市,柏堂町９番８－１０４号,,28,204,6620097,,,,,,,2024-09-10,1,,,,,コドモミライマモリタイ,0
422,2150001027562,新規,0,2024-09-10,2024-09-10,株式会社Ｃ＆Ｕ,,株式会社,奈良県,吉野郡下市町,大字阿知賀２６９１,,29,443,6380001,,,,,,,2024-09-10,1,,,,,シーアンドユー,0
425,2150003003363,新規,0,2024-09-10,2024-09-10,合同会社ついん,,合同会社,奈良県,桜井市,大字谷１１７１番地の６,,29,206,6330053,,,,,,,2024-09-10,1,,,,,ツイン,0
428,2160001026209,新規,0,2024-09-10,2024-09-10,株式会社ホーリージャパン,,株式会社,滋賀県,長浜市,湖北町伊部２５番地,,25,203,5290313,,,,,,,2024-09-10,1,,,,,ホーリージャパン,0
431,2170001018304,新規,0,2024-09-10,2024-09-10,株式会社ＴＡＢＬＯＣＡＬ,,株式会社,和歌山県,和歌山市,中之島３２５番地２１,,30,201,6408392,,,,,,,2024-09-10,1,,,,,タブローカル,0
446,2190001031627,新規,0,2024-09-10,2024-09-10,株式会社ＡＭＣ,,株式会社,三重県,四日市市,陶栄町３番２号３０３,,24,202,5100035,,,,,,,2024-09-10,1,,,,,エーエムシー,0
452,2210001019909,新規,0,2024-09-10,2024-09-10,馬株式会社,,株式会社,福井県,福井市,つくし野２丁目１３０６,,18,201,9100101,,,,,,,2024-09-10,1,,,,,ウマ,0
459,2260001039448,新規,0,2024-09-10,2024-09-10,株式会社Ｔｒｉｐ　Ｔｈｒｅｅ,,株式会社,岡山県,津山市,中北下５番地４９,,33,203,7094603,,,,,,,2024-09-10,1,,,,,トリップスリー,0
462,2270001009053,新規,0,2024-09-10,2024-09-10,株式会社ウィードコーポレーション,,株式会社,鳥取県,鳥取市,南隈７１５番地,,31,201,6800903,,,,,,,2024-09-10,1,,,,,ウィードコーポレーション,0
471,2290001107219,新規,0,2024-09-10,2024-09-10,ＭＹＡＮＭＡＲ　ＷＯＲＫＥＲ　ＭＡＮＡＧＥＭＥＮＴ株式会社,,株式会社,福岡県,福岡市博多区,博多駅前２丁目１７番１号,,40,132,8120011,,,,,,,2024-09-10,1,,,,,ミャンマーワーカーマネジメント,0
472,2290001107227,新規,0,2024-09-10,2024-09-10,株式会社新栄設備,,株式会社,福岡県,八女市,上陽町北川内４９３１番地１,,40,210,8341102,,,,,,,2024-09-10,1,,,,,シンエイセツビ,0
477,2290003015774,新規,0,2024-09-10,2024-09-10,合同会社８ｐｅｒｃｅｎｔ,,合同会社,福岡県,飯塚市,鯰田２３１０番地５４,,40,205,8200001,,,,,,,2024-09-10,1,,,,,ハチパーセント,0
478,2290003015799,新規,0,2024-09-10,2024-09-10,合同会社魚町プロパティーズ,,合同会社,福岡県,福岡市博多区,古門戸町１番１号日刊工業新聞社ビル８階,,40,132,8120029,,,,,,,2024-09-10,1,,,,,ウオマチプロパティーズ,0
479,2290005019468,新規,0,2024-09-10,2024-09-10,一般社団法人かるがも,,その他の設立登記法人,福岡県,糸島市,潤３丁目１０番７号,,40,230,8191105,,,,,,,2024-09-10,1,,,,,カルガモ,0
480,2290801030867,新規,0,2024-09-10,2024-09-10,株式会社Ａｌｂａｌｙ,,株式会社,福岡県,行橋市,大字高瀬３７４－２,,40,213,8240027,,,,,,,2024-09-10,1,,,,,アルバリー,0
481,2300001013893,新規,0,2024-09-10,2024-09-10,株式会社ＲＥＦＣＯ,,株式会社,佐賀県,佐賀市,兵庫北５丁目１３番６３号,,41,201,8490919,,,,,,,2024-09-10,1,,,,,レフコ,0
482,2320001020707,新規,0,2024-09-10,2024-09-10,株式会社Ｎｅｘａｌｕｓ,,株式会社,大分県,大分市,金池南２丁目１番２０－２０１号,,44,201,8700839,,,,,,,2024-09-10,1,,,,,ネクサラス,0
485,2340001026784,新規,0,2024-09-10,2024-09-10,ユウテック株式会社,,株式会社,鹿児島県,鹿児島市,宇宿３丁目１４番１４－２０３号,,46,201,8900073,,,,,,,2024-09-10,1,,,,,ユウテック,0
488,2350001019176,新規,0,2024-09-10,2024-09-10,株式会社冨永興業,,株式会社,宮崎県,宮崎市,稗原町９０番地１コンフォート３０２号,,45,201,8800832,,,,,,,2024-09-10,1,,,,,トミナガコウギョウ,0
491,2350003004746,新規,0,2024-09-10,2024-09-10,合同会社モバイルエージェント,,合同会社,宮崎県,日南市,南郷町中村乙７０５１－５２６,,45,204,8893204,,,,,,,2024-09-10,1,,,,,モバイルエージェント,0
496,2430001092636,新規,0,2024-09-10,2024-09-10,株式会社近藤リアルエステート,,株式会社,北海道,札幌市豊平区,平岸二条２丁目１番３９－１１５号,,01,105,0620932,,,,,,,2024-09-10,1,,,,,コンドウリアルエステート,0
497,2430001092644,新規,0,2024-09-10,2024-09-10,株式会社Ｈ＆Ｙ,,株式会社,北海道,札幌市豊平区,美園七条３丁目２番１号,,01,105,0620007,,,,,,,2024-09-10,1,,,,,エイチアンドワイ,0
501,2480001012589,新規,0,2024-09-10,2024-09-10,四国自動車総業株式会社,,株式会社,徳島県,美馬市,脇町字拝原２７５９番地１,,36,207,7793601,,,,,,,2024-09-10,1,,,,,シコクジドウシャソウギョウ,0
511,2700150127090,新規,0,2024-09-10,2024-09-10,ｌａｎｄｉｋｕ　ｋｅｊｉ　ｈａｎｇｚｈｏｕ　ｙｏｕｘｉａｎｇｏｎｇｓｉ,,外国会社等,,,,,,,,ｚｈｅｊｉａｎｇｓｈｅｎｇ　ｈａｎｇｚｈｏｕｓｈｉ　ｓｈａｎｇｃｈｅｎｇｑｕ　ｊｉａｎｑｉａｏｊｉｅｄａｏ　ｈｅｎｇｔａｎｇｓｈｅｑｕ　１ｚｕ　１０５ｈａｏ　２０６ｓｈｉ,,,,,,2024-09-10,1,,,,,ランディクカギハンゾウユウゲンコウシ,0
514,3010001248080,新規,0,2024-09-10,2024-09-10,一本株式会社,,株式会社,東京都,文京区,白山１丁目６番４号文京ＶｅｎｔｕｒｅＢａｓｅ２１９,,13,105,1130001,,,,,,,2024-09-10,1,,,,,イッポン,0
515,3010001248130,新規,0,2024-09-10,2024-09-10,ワールドセーブ株式会社,,株式会社,東京都,千代田区,六番町３番地２６六番町ＳＫビル３階,,13,101,1020085,,,,,,,2024-09-10,1,,,,,ワールドセーブ,0
516,3010001248205,新規,0,2024-09-10,2024-09-10,株式会社ＬＯＵＲＩＥ,,株式会社,東京都,中央区,銀座１丁目１２番４号Ｎ＆ＥＢＬＤ．６Ｆ,,13,102,1040061,,,,,,,2024-09-10,1,,,,,ロウリ,0
530,3010501052858,新規,0,2024-09-10,2024-09-10,騏霊株式会社,,株式会社,東京都,台東区,上野６丁目７‐１６川久保ビル８２０号,,13,106,1100005,,,,,,,2024-09-10,1,,,,,キレイ,0
531,3010501052890,新規,0,2024-09-10,2024-09-10,株式会社Ｂｅｌｌｕｓ,,株式会社,東京都,台東区,上野５丁目７番８号,,13,106,1100005,,,,,,,2024-09-10,1,,,,,ベルス,0
534,3010601065891,新規,0,2024-09-10,2024-09-10,ケイタック株式会社,,株式会社,東京都,江東区,大島５丁目４８番９号,,13,108,1360072,,,,,,,2024-09-10,1,,,,,ケイタック,0
535,3010603011076,新規,0,2024-09-10,2024-09-10,比治合同会社,,合同会社,東京都,墨田区,江東橋５丁目１番８－２０３号ポルトボヌール深谷,,13,107,1300022,,,,,,,2024-09-10,1,,,,,ヒジ,0
547,3011001164458,新規,0,2024-09-10,2024-09-10,サイファーグループ株式会社,,株式会社,東京都,渋谷区,神宮前６丁目１９番１６号,,13,113,1500001,,,,,,,2024-09-10,1,,,,,,0
551,3011003019998,新規,0,2024-09-10,2024-09-10,エニデジ合同会社,,合同会社,東京都,渋谷区,渋谷３丁目１‐９ＹＡＺＡＷＡビル３階,,13,113,1500002,,,,,,,2024-09-10,1,,,,,エニデジ,0
556,3011101108728,新規,0,2024-09-10,2024-09-10,ＰｒｏｓＴ株式会社,,株式会社,東京都,新宿区,高田馬場３丁目１４番２号佐成屋ビル３階,,13,104,1690075,,,,,,,2024-09-10,1,,,,,プロスト,0
560,3011103014874,新規,0,2024-09-10,2024-09-10,キゾスル合同会社,,合同会社,東京都,新宿区,市谷田町３番地８市ヶ谷科学技術イノベーションセンタービル２Ｆ,,13,104,1600000,,,,,,,2024-09-10,1,,,,,キゾスル,0
562,3011205002629,新規,0,2024-09-10,2024-09-10,医療法人社団進優会,,その他の設立登記法人,東京都,中野区,本町４丁目４５番９号ユニバーサルスクエア新中野４階,,13,114,1640012,,,,,,,2024-09-10,1,,,,,シンユウカイ,0
565,3011601028038,新規,0,2024-09-10,2024-09-10,株式会社盛慶堂薬局,,株式会社,東京都,練馬区,石神井台６丁目１０番６号,,13,120,1770045,,,,,,,2024-09-10,1,,,,,セイケイドウヤッキョク,0
566,3011705001849,新規,0,2024-09-10,2024-09-10,特定非営利活動法人ＨＡＷＡＩＩ　ＡＬＯＨＡ　ＡＳＳＯＣＩＡＴＩＯＮ,,その他の設立登記法人,東京都,江戸川区,本一色２丁目２６番８号,,13,123,1330044,,,,,,,2024-09-10,1,,,,,ハワイアロハアソシエーション,0
569,3011801044826,新規,0,2024-09-10,2024-09-10,ＡＮＤＩ　Ｉｎｎｏｖａｔｉｏｎ　Ｊａｐａｎ株式会社,,株式会社,東京都,足立区,江北６丁目５番６号,,13,121,1230872,,,,,,,2024-09-10,1,,,,,アンドイイノベーションジャパン,0
583,3020001159120,新規,0,2024-09-10,2024-09-10,株式会社ＴＲＩＵＭＰＨ,,株式会社,神奈川県,川崎市麻生区,王禅寺西８丁目１７番１０号,,14,137,2150017,,,,,,,2024-09-10,1,,,,,トライアンプ,0
593,3021001083178,新規,0,2024-09-10,2024-09-10,株式会社ｕｏｎｏｍａｒｕ,,株式会社,神奈川県,横須賀市,浦賀１丁目３－１,,14,201,2390822,,,,,,,2024-09-10,1,,,,,ウオノマル,0
594,3021001083203,新規,0,2024-09-10,2024-09-10,株式会社ＢＯＤＹＳＰＥＡＫＳＭＩＮＤ,,株式会社,神奈川県,鎌倉市,二階堂３３０番地８,,14,204,2480002,,,,,,,2024-09-10,1,,,,,ボディースピークスマインド,0
607,3030001162437,新規,0,2024-09-10,2024-09-10,株式会社鈴蘭,,株式会社,埼玉県,戸田市,笹目６丁目２４番地の６,,11,224,3350034,,,,,,,2024-09-10,1,,,,,スズラン,0
608,3030001162445,新規,0,2024-09-10,2024-09-10,株式会社ブリックレイヤーズ,,株式会社,埼玉県,川越市,上野田町３２番地６０,,11,201,3501112,,,,,,,2024-09-10,1,,,,,ブリックレイヤーズ,0
615,3030003025096,新規,0,2024-09-10,2024-09-10,合同会社ＭＫプランニング,,合同会社,埼玉県,川越市,大字伊佐沼１３８－１４,,11,201,3500855,,,,,,,2024-09-10,1,,,,,エムケープランニング,0
623,3040001135284,新規,0,2024-09-10,2024-09-10,ＹＷＨコンサルタント株式会社,,株式会社,千葉県,千葉市美浜区,中瀬１丁目７－１住友ＣＥＣビル２２Ｆ,,12,106,2610023,,,,,,,2024-09-10,1,,,,,ワイダブリューエイチコンサルタント,0
624,3040001135334,新規,0,2024-09-10,2024-09-10,株式会社ファームすずき,,株式会社,千葉県,白井市,神々廻９５３－１,,12,232,2701416,,,,,,,2024-09-10,1,,,,,ファームスズキ,0
631,3040003025748,新規,0,2024-09-10,2024-09-10,Ｅｋｕ　ＳＨＩＰ合同会社,,合同会社,千葉県,香取市,小見川２２３６番地プリマベーラ小見川２０１,,12,236,2890313,,,,,,,2024-09-10,1,,,,,イークシップ,0
632,3040003025772,新規,0,2024-09-10,2024-09-10,合同会社千進,,合同会社,千葉県,千葉市美浜区,幕張西１丁目１番１１－４０４号,,12,106,2610026,,,,,,,2024-09-10,1,,,,,センシン,0
633,3040003025780,新規,0,2024-09-10,2024-09-10,合同会社ＡＧＯ　ＭＡＲＫＥＴＩＮＧ,,合同会社,千葉県,浦安市,入船５丁目２６―１０３,,12,227,2790012,,,,,,,2024-09-10,1,,,,,エージーオーマーケティング,0
642,3060003005236,新規,0,2024-09-10,2024-09-10,合同会社グランテックス,,合同会社,栃木県,宇都宮市,東宿郷５丁目８－４グランパレス宇都宮５０１,,09,201,3210953,,,,,,,2024-09-10,1,,,,,グランテックス,0
643,3060003005244,新規,0,2024-09-10,2024-09-10,合同会社オフィスクラウド,,合同会社,栃木県,栃木市,大平町西野田２００２番地９,,09,203,3294421,,,,,,,2024-09-10,1,,,,,オフィスクラウド,0
644,3080101025002,新規,0,2024-09-10,2024-09-10,株式会社ＡＢＰ,,株式会社,静岡県,富士市,日之出町２１番地２,,22,210,4170000,,,,,,,2024-09-10,1,,,,,エービーピー,0
646,3080401027433,新規,0,2024-09-10,2024-09-10,スマイルグローバル株式会社,,株式会社,静岡県,浜松市中央区,若林町８８８番地の１１８,,22,138,4328051,,,,,,,2024-09-10,1,,,,,スマイルグローバル,0
647,3080401027441,新規,0,2024-09-10,2024-09-10,株式会社ＳＡＩＯ,,株式会社,静岡県,浜松市中央区,佐藤１丁目３番１７－１３０８号,,22,138,4300807,,,,,,,2024-09-10,1,,,,,サイオ,0
648,3090003002643,新規,0,2024-09-10,2024-09-10,合同会社Ｓｕｎｎｙ,,合同会社,山梨県,甲府市,増坪町５４１－３,,19,201,4000832,,,,,,,2024-09-10,1,,,,,サニー,0
650,3100001037838,新規,0,2024-09-10,2024-09-10,ｎｅｗｍｏ軽井沢御代田株式会社,,株式会社,長野県,北佐久郡軽井沢町,軽井沢東２３番地２,,20,321,3890104,,,,,,,2024-09-10,1,,,,,ニューモカルイザワミヨタ,0
653,3100003007756,新規,0,2024-09-10,2024-09-10,ＢＳ　Ｌａｂｏ合同会社,,合同会社,長野県,松本市,大字里山辺４７１３－１,,20,202,3900221,,,,,,,2024-09-10,1,,,,,ビーエスラボ,0
659,3120001268398,新規,0,2024-09-10,2024-09-10,株式会社サンワロジ,,株式会社,大阪府,大阪市平野区,平野西５丁目４番２号ダイスタービル４階,,27,126,5470033,,,,,,,2024-09-10,1,,,,,サンワロジ,0
660,3120001268472,新規,0,2024-09-10,2024-09-10,株式会社オミリア,,株式会社,大阪府,大阪市旭区,新森５丁目１５番６号,,27,117,5350022,,,,,,,2024-09-10,1,,,,,オミリア,0
661,3120001268480,新規,0,2024-09-10,2024-09-10,株式会社シャネッツ,,株式会社,大阪府,大阪市淀川区,十八条３丁目４番１号１Ｆ,,27,123,5320001,,,,,,,2024-09-10,1,,,,,シャネッツ,0
669,3120101070266,新規,0,2024-09-10,2024-09-10,株式会社辻野製作所,00136252,株式会社,大阪府,堺市中区,大野芝町１１４番地４,,27,142,5998233,,,,,,,2024-09-10,1,,,,,ツジノセイサクショ,0
672,3120103006045,新規,0,2024-09-10,2024-09-10,合同会社武中商店,,合同会社,大阪府,岸和田市,八幡町７－１－２１４,,27,202,5960023,,,,,,,2024-09-10,1,,,,,タケナカショウテン,0
675,3120901049757,新規,0,2024-09-10,2024-09-10,株式会社昇栄,,株式会社,大阪府,摂津市,鳥飼中１丁目３番１１－１０１号,,27,224,5660064,,,,,,,2024-09-10,1,,,,,ショウエイ,0
680,3122001038434,新規,0,2024-09-10,2024-09-10,株式会社ＡＳＫ,,株式会社,大阪府,東大阪市,高井田元町２丁目９番１６号ＳＫＳビル３Ｆ,,27,227,5770054,,,,,,,2024-09-10,1,,,,,アスカ,0
685,3130003009849,新規,0,2024-09-10,2024-09-10,合同会社山科,,合同会社,京都府,京都市山科区,御陵中内町３７－６,,26,110,6078414,,,,,,,2024-09-10,1,,,,,ヤマシナ,0
691,3140001135737,新規,0,2024-09-10,2024-09-10,株式会社Ｓｃｉ＆Ｖｅｓｔ,,株式会社,兵庫県,姫路市,飾磨区阿成中垣内９９２番２号,,28,201,6728058,,,,,,,2024-09-10,1,,,,,サイアンドヴェスト,0
707,3190001031626,新規,0,2024-09-10,2024-09-10,株式会社Ｆｕｅ,,株式会社,三重県,三重郡菰野町,大字小島２６８３番地,,24,341,5101323,,,,,,,2024-09-10,1,,,,,フエ,0
708,3200001042910,新規,0,2024-09-10,2024-09-10,株式会社やなぎはら,,株式会社,岐阜県,岐阜市,安良田町４丁目５番地,,21,201,5008401,,,,,,,2024-09-10,1,,,,,ヤナギハラ,0
713,3210001019908,新規,0,2024-09-10,2024-09-10,株式会社Ｙ’ｓ　Ｓｑｕａｒｅ,,株式会社,福井県,吉田郡永平寺町,松岡室第１８号５番地１,,18,322,9101135,,,,,,,2024-09-10,1,,,,,ワイズスクエア,0
720,3240001063795,新規,0,2024-09-10,2024-09-10,株式会社ＰＡＲＡＳＯＬ,,株式会社,広島県,広島市西区,天満町２番２６－３０１号,,34,104,7330022,,,,,,,2024-09-10,1,,,,,パラソル,0
722,3240005015818,新規,0,2024-09-10,2024-09-10,特定非営利活動法人ＴＫＳ　ＳＰＯＲＴＳ,,その他の設立登記法人,広島県,福山市,神辺町字徳田６８１番地１,,34,207,7202126,,,,,,,2024-09-10,1,,,,,ティーケーエススポーツ,0
726,3250003003559,新規,0,2024-09-10,2024-09-10,合同会社オファンベック,,合同会社,山口県,山口市,中央３丁目２番７号,,35,203,7530074,,,,,,,2024-09-10,1,,,,,オファンベック,0
729,3260001039439,新規,0,2024-09-10,2024-09-10,ＷＧエボリューション株式会社,,株式会社,岡山県,倉敷市,中島２９６番地,,33,202,7100803,,,,,,,2024-09-10,1,,,,,ダブリュージーエボリューション,0
730,3260001039455,新規,0,2024-09-10,2024-09-10,株式会社ラ・ポルテ,,株式会社,岡山県,玉野市,田井４丁目３７番５１号,,33,204,7060001,,,,,,,2024-09-10,1,,,,,ラポルテ,0
743,3310001019195,新規,0,2024-09-10,2024-09-10,リフィックス株式会社,,株式会社,長崎県,松浦市,志佐町里免３１９番地１,,42,208,8594502,,,,,,,2024-09-10,1,,,,,リフィックス,0
746,3320003004467,新規,0,2024-09-10,2024-09-10,合同会社ＦｕｎＴｉｍｅ,,合同会社,大分県,別府市,田の湯町９番２８号サンケイビルＮｏ．２・２０１号,,44,202,8740909,,,,,,,2024-09-10,1,,,,,ファンタイム,0
765,3430003016773,新規,0,2024-09-10,2024-09-10,ＨＢＴ合同会社,,合同会社,北海道,札幌市中央区,南五条西１５丁目２－３リズム医大前５０３号室,,01,101,0640805,,,,,,,2024-09-10,1,,,,,エイチビーティー,0
766,3430005015063,新規,0,2024-09-10,2024-09-10,医療法人Ａｚｚｕｒｒｏ　Ｍａｒｅ,,その他の設立登記法人,北海道,札幌市豊平区,平岸二条７丁目３番１号アルファビルＩＶ２階,00136240,01,105,0620932,,,,,,,2024-09-10,1,,,,,アズーロマーレ,0
780,4010001248121,新規,0,2024-09-10,2024-09-10,株式会社ＤＩＥＰＡ,,株式会社,東京都,文京区,関口１丁目１８番９号,,13,105,1120014,,,,,,,2024-09-10,1,,,,,ディーパ,0
781,4010001248212,新規,0,2024-09-10,2024-09-10,株式会社ＰｌａｎｅｔＤＡＯ００３,,株式会社,東京都,千代田区,平河町２丁目５番３号,,13,101,1020093,,,,,,,2024-09-10,1,,,,,プラネットダオゼロゼロスリー,0
782,4010001248220,新規,0,2024-09-10,2024-09-10,ｄｅｅｐ　ｌｉｓｔｅｎｉｎｇ株式会社,,株式会社,東京都,文京区,根津２丁目１４－１０,,13,105,1130031,,,,,,,2024-09-10,1,,,,,ディープリスニング,0
786,4010101016312,新規,0,2024-09-10,2024-09-10,株式会社ＣＳ　Ｄｅｓｉｇｎ,,株式会社,東京都,八王子市,高尾町２５３４番地１０,,13,201,1930844,,,,,,,2024-09-10,1,,,,,シーエスデザイン,0
790,4010401184916,新規,0,2024-09-10,2024-09-10,ＹＳＫコンサルティング株式会社,,株式会社,東京都,港区,北青山３丁目５番１４号５階,,13,103,1070061,,,,,,,2024-09-10,1,,,,,ワイエスケーコンサルティング,0
791,4010401185022,新規,0,2024-09-10,2024-09-10,誠株式会社,,株式会社,東京都,港区,浜松町１丁目１４番１０－６０３号,,13,103,1050013,,,,,,,2024-09-10,1,,,,,マコト,0
792,4010401185030,新規,0,2024-09-10,2024-09-10,株式会社ＮＳＨホールディングス,,株式会社,東京都,港区,新橋４丁目５番１号,,13,103,1050004,,,,,,,2024-09-10,1,,,,,エヌエスエイチホールディングス,0
797,4010501052824,新規,0,2024-09-10,2024-09-10,株式会社北極星,,株式会社,東京都,台東区,台東３丁目３９番８号,,13,106,1100016,,,,,,,2024-09-10,1,,,,,ホッキョクセイ,0
798,4010501052881,新規,0,2024-09-10,2024-09-10,華泰鋼鉄株式会社,,株式会社,東京都,台東区,花川戸１丁目１３－１５ＳＣＲビル６階６０５号室,,13,106,1110033,,,,,,,2024-09-10,1,,,,,カタイコウテツ,0
803,4010601065890,新規,0,2024-09-10,2024-09-10,ＴｅａｍＫ株式会社,,株式会社,東京都,墨田区,東駒形２丁目５番８号,,13,107,1300005,,,,,,,2024-09-10,1,,,,,チームケイ,0
804,4010605004382,新規,0,2024-09-10,2024-09-10,医療法人社団隆栄会,,その他の設立登記法人,東京都,江東区,大島５丁目４４番６号ライオンズマンション大島２階２１２号室,,13,108,1360072,,,,,,,2024-09-10,1,,,,,リュウエイカイ,0
805,4010701046519,新規,0,2024-09-10,2024-09-10,株式会社Ｌ‐Ｒ,,株式会社,東京都,品川区,東大井２丁目２３番４－８０８号,,13,109,1400011,,,,,,,2024-09-10,1,,,,,エルアール,0
806,4010703007337,新規,0,2024-09-10,2024-09-10,合同会社トウキョウカット,,合同会社,東京都,品川区,東品川１丁目１番９号メイツ品川６０６号,,13,109,1400002,,,,,,,2024-09-10,1,,,,,トウキョウカット,0
814,4011001164399,新規,0,2024-09-10,2024-09-10,ＦＳデーターサービス株式会社,,株式会社,東京都,渋谷区,笹塚３丁目３４番地１０号,,13,113,1510073,,,,,,,2024-09-10,1,,,,,エフエスデーターサービス,0
815,4011001164507,新規,0,2024-09-10,2024-09-10,鄭中設計株式会社,,株式会社,東京都,渋谷区,円山町６番７号,,13,113,1500044,,,,,,,2024-09-10,1,,,,,テイチュウセッケイ,0
816,4011001164572,新規,0,2024-09-10,2024-09-10,株式会社Ｄｉｏｓａ,,株式会社,東京都,渋谷区,神南１丁目１２－１４渋谷宮田ビル６Ｆ,,13,113,1500041,,,,,,,2024-09-10,1,,,,,ディオッサ,0
817,4011001164580,新規,0,2024-09-10,2024-09-10,株式会社トプカピ,,株式会社,東京都,渋谷区,本町２丁目４番３号石見ビル１階,,13,113,1510071,,,,,,,2024-09-10,1,,,,,トプカピ,0
825,4011101108719,新規,0,2024-09-10,2024-09-10,クロス．Ｐ株式会社,,株式会社,東京都,新宿区,早稲田鶴巻町５２０－１０新宿早稲田レーベル１Ｆ・Ｂ１Ｆ新宿早稲田オフィス１１４号室,,13,104,1620041,,,,,,,2024-09-10,1,,,,,クロスピー,0
826,4011103014923,新規,0,2024-09-10,2024-09-10,Ｆ２Ｓ合同会社,,合同会社,東京都,新宿区,北新宿２丁目６番２９－１００７号,,13,104,1690074,,,,,,,2024-09-10,1,,,,,エフツーエス,0
828,4011201025780,新規,0,2024-09-10,2024-09-10,株式会社マルイユナイト,,株式会社,東京都,中野区,中野４丁目３番２号,,13,114,1640001,,,,,,,2024-09-10,1,,,,,マルイユナイト,0
830,4011301029987,新規,0,2024-09-10,2024-09-10,株式会社ＯＭＩ,,株式会社,東京都,杉並区,善福寺４丁目１２番６号,,13,115,1670041,,,,,,,2024-09-10,1,,,,,オミ,0
832,4011503006223,新規,0,2024-09-10,2024-09-10,ｌｅａｐ合同会社,,合同会社,東京都,荒川区,南千住４丁目７番３－２６１３号,,13,118,1160003,,,,,,,2024-09-10,1,,,,,リープ,0
833,4011601028037,新規,0,2024-09-10,2024-09-10,テレフォンエクスチェンジ株式会社,,株式会社,東京都,練馬区,関町東１丁目１番４４号ＯＺスペースＤ,,13,120,1770052,,,,,,,2024-09-10,1,,,,,テレフォンエクスチェンジ,0
834,4011603004449,新規,0,2024-09-10,2024-09-10,合同会社ＨＭＣ,,合同会社,東京都,練馬区,練馬１丁目２０番８号日建練馬ビル２Ｆ,,13,120,1760001,,,,,,,2024-09-10,1,,,,,エイチエムシー,0
835,4011605002599,新規,0,2024-09-10,2024-09-10,一般財団法人日本乃芽,,その他の設立登記法人,東京都,練馬区,練馬１丁目１９番８号神谷ビル２０２,,13,120,1760001,,,,,,,2024-09-10,1,,,,,ニホンノメ,0
836,4011701027608,新規,0,2024-09-10,2024-09-10,Ｎｅｓｔ　Ｇｌｏｂａｌ株式会社,,株式会社,東京都,江戸川区,西葛西１丁目１５番９－７０１号,,13,123,1340088,,,,,,,2024-09-10,1,,,,,ネストグローバル,0
840,4012401042269,新規,0,2024-09-10,2024-09-10,株式会社米玄コーポレーション,,株式会社,東京都,調布市,深大寺東町２丁目１０番地５,,13,208,1820012,,,,,,,2024-09-10,1,,,,,マイクロコーポレーション,0
847,4013301053083,新規,0,2024-09-10,2024-09-10,株式会社ｌｉｇｈｔ　ｓｐｒｅａｄｓ,,株式会社,東京都,豊島区,南大塚３丁目１－１２－９０５,,13,116,1700005,,,,,,,2024-09-10,1,,,,,ライトスプレッド,0
854,4020001159053,新規,0,2024-09-10,2024-09-10,株式会社ＯＴＯＱＬＯ,,株式会社,神奈川県,横浜市港北区,高田東１丁目１０番７号,,14,109,2230065,,,,,,,2024-09-10,1,,,,,オトクロ,0
855,4020001159061,新規,0,2024-09-10,2024-09-10,株式会社Ｋ,,株式会社,神奈川県,横浜市栄区,鍛冶ケ谷１丁目３４番１号,,14,115,2470009,,,,,,,2024-09-10,1,,,,,ケー,0
856,4020001159078,新規,0,2024-09-10,2024-09-10,ハッピーエンジニアリング株式会社,,株式会社,神奈川県,川崎市川崎区,駅前本町１８番１号メルスサイトー７０２,,14,131,2100007,,,,,,,2024-09-10,1,,,,,ハッピーエンジニアリング,0
857,4020001159103,新規,0,2024-09-10,2024-09-10,翔生プランニングサービス株式会社,,株式会社,神奈川県,横浜市都筑区,池辺町３９２３番地,,14,118,2240053,,,,,,,2024-09-10,1,,,,,ショウプランニングサービス,0
858,4020001159144,新規,0,2024-09-10,2024-09-10,株式会社ミューロイ,,株式会社,神奈川県,川崎市高津区,子母口６０番地,,14,134,2130023,,,,,,,2024-09-10,1,,,,,ミューロイ,0
859,4020001159185,新規,0,2024-09-10,2024-09-10,ＳＥＰ株式会社,,株式会社,神奈川県,横浜市旭区,善部町３０番地３,,14,112,2410823,,,,,,,2024-09-10,1,,,,,エスイーピー,0
870,4021001083185,新規,0,2024-09-10,2024-09-10,エスディーエス株式会社,,株式会社,神奈川県,小田原市,寿町５丁目１０番３号,,14,206,2500002,,,,,,,2024-09-10,1,,,,,エスディーエス,0
872,4021003015005,新規,0,2024-09-10,2024-09-10,合同会社まるゆ,,合同会社,神奈川県,相模原市中央区,緑が丘１丁目１３番１２号,,14,152,2520225,,,,,,,2024-09-10,1,,,,,マルユ,0
878,4030001162378,新規,0,2024-09-10,2024-09-10,株式会社ハグライフ,,株式会社,埼玉県,さいたま市北区,宮原町４丁目１０１番地４メイプルウェルズＡ１０３号室,,11,102,3310812,,,,,,,2024-09-10,1,,,,,ハグライフ,0
886,4030003025104,新規,0,2024-09-10,2024-09-10,エスイレブン合同会社,,合同会社,埼玉県,坂戸市,清水町５－８コンドーミニアムカネマタ３０２号室,,11,239,3500222,,,,,,,2024-09-10,1,,,,,エスイレブン,0
889,4040001135242,新規,0,2024-09-10,2024-09-10,ネクストボックス株式会社,,株式会社,千葉県,船橋市,習志野台１丁目２６番７－３０８号,,12,204,2740063,,,,,,,2024-09-10,1,,,,,ネクストボックス,0
892,4040003025763,新規,0,2024-09-10,2024-09-10,合同会社Ｌａｐｉｎ　ｄｅｓ　ｎｅｉｇｅｓ,,合同会社,千葉県,市川市,塩焼２丁目１４番１４号,,12,203,2720114,,,,,,,2024-09-10,1,,,,,ラパンドネージュ,0
897,4070001042130,新規,0,2024-09-10,2024-09-10,株式会社Ｋ‐ホールディングス,,株式会社,群馬県,太田市,東金井町１３１７番地４,,10,205,3730022,,,,,,,2024-09-10,1,,,,,ケーホールディングス,0
904,4080401027440,新規,0,2024-09-10,2024-09-10,株式会社ＯＮＥｓｔａ,,株式会社,静岡県,浜松市中央区,寺脇町１３６５番地の３,,22,138,4300841,,,,,,,2024-09-10,1,,,,,ワンスタ,0
919,4120001268372,新規,0,2024-09-10,2024-09-10,株式会社ｓｔｏｒｍ,,株式会社,大阪府,大阪市西区,京町堀１丁目１０番１２号,,27,106,5500003,,,,,,,2024-09-10,1,,,,,ストーム,0
920,4120001268422,新規,0,2024-09-10,2024-09-10,つなぐダイニング株式会社,,株式会社,大阪府,大阪市福島区,福島３丁目１２番６号,,27,103,5530003,,,,,,,2024-09-10,1,,,,,ツナグダイニング,0
922,4120003027495,新規,0,2024-09-10,2024-09-10,合同会社レアル,,合同会社,大阪府,大阪市北区,本庄西１丁目１２番２５号,,27,127,5310073,,,,,,,2024-09-10,1,,,,,レアル,0
923,4120005024532,新規,0,2024-09-10,2024-09-10,一般社団法人徳仁会ＡＭＩＲＩ免疫研究所,,その他の設立登記法人,大阪府,大阪市中央区,本町１丁目４番１３号ＳＳＩ本町ビル６階,,27,128,5410053,,,,,,,2024-09-10,1,,,,,トクニンカイアミリメンエキケンキュウジョ,0
925,4120101070273,新規,0,2024-09-10,2024-09-10,株式会社信創建,,株式会社,大阪府,岸和田市,藤井町１丁目２１番２５号,,27,202,5960046,,,,,,,2024-09-10,1,,,,,シンソウケン,0
933,4122001038433,新規,0,2024-09-10,2024-09-10,新藤田電業株式会社,,株式会社,大阪府,東大阪市,宝町７番９号,,27,227,5798025,,,,,,,2024-09-10,1,,,,,シンフジタデンギョウ,0
940,4130001077913,新規,0,2024-09-10,2024-09-10,株式会社ミーティア,,株式会社,京都府,京都市北区,西賀茂南川上町３４番地ハイツやすらい２０３,,26,101,6038814,,,,,,,2024-09-10,1,,,,,ミーティア,0
941,4130003009848,新規,0,2024-09-10,2024-09-10,合同会社ｆｌａｔｏｏ,,合同会社,京都府,京都市下京区,朱雀宝蔵町４４番地協栄ビル２階京都朱雀スタジオ,,26,106,6008846,,,,,,,2024-09-10,1,,,,,フラトゥー,0
949,4140001135703,新規,0,2024-09-10,2024-09-10,北部クリーンセンター株式会社,,株式会社,兵庫県,姫路市,青山北２丁目３３番１２号,,28,201,6712221,,,,,,,2024-09-10,1,,,,,ホクブクリーンセンター,0
950,4140001135769,新規,0,2024-09-10,2024-09-10,株式会社ＭＩＵ　ｐｌｕｓ,,株式会社,兵庫県,尼崎市,次屋１丁目１４番６号,,28,202,6610965,,,,,,,2024-09-10,1,,,,,ミウプラス,0
953,4140003021059,新規,0,2024-09-10,2024-09-10,旭サービス合同会社,,合同会社,兵庫県,加古川市,加古川町溝之口４１５番地,,28,210,6750064,,,,,,,2024-09-10,1,,,,,アサヒサービス,0
956,4160001026207,新規,0,2024-09-10,2024-09-10,株式会社Ｓｔｏｒｙ,,株式会社,滋賀県,犬上郡甲良町,大字長寺１１８６番地１,,25,442,5220261,,,,,,,2024-09-10,1,,,,,ストーリー,0
957,4160005011337,新規,0,2024-09-10,2024-09-10,一般社団法人郭巨山保存会,,その他の設立登記法人,滋賀県,大津市,中央２丁目５番３７号,,25,201,5200043,,,,,,,2024-09-10,1,,,,,カッキョヤマホゾンカイ,0
958,4170001018302,新規,0,2024-09-10,2024-09-10,株式会社エイシン,,株式会社,和歌山県,西牟婁郡上富田町,岩田２８５２番地の４,,30,404,6492102,,,,,,,2024-09-10,1,,,,,エイシン,0
969,4180005020765,新規,0,2024-09-10,2024-09-10,コラボレイト協同組合,,その他の設立登記法人,愛知県,名古屋市千種区,東山元町２丁目１４番地の２,,23,101,4640804,,,,,,,2024-09-10,1,,,,,コラボレイト,0
971,4190001031633,新規,0,2024-09-10,2024-09-10,株式会社成龍,,株式会社,三重県,いなべ市,北勢町東村４９５番地２,,24,214,5110432,,,,,,,2024-09-10,1,,,,,セイリュウ,0
975,4200001042901,新規,0,2024-09-10,2024-09-10,株式会社渡辺工房,,株式会社,岐阜県,岐阜市,天池２丁目３番１２号,,21,201,5008221,,,,,,,2024-09-10,1,,,,,ワタナベコウボウ,0
977,4220001026191,新規,0,2024-09-10,2024-09-10,株式会社ホクユウアセット,,株式会社,石川県,能美市,寺井町る７番地１,,17,211,9231121,,,,,,,2024-09-10,1,,,,,ホクユウアセット,0
983,4230003002289,新規,0,2024-09-10,2024-09-10,合同会社ＵＲＡ,,合同会社,富山県,富山市,神通本町１丁目８‐１１メゾネット林Ｂ,,16,201,9300008,,,,,,,2024-09-10,1,,,,,ユーアールエー,0
984,4240003006850,新規,0,2024-09-10,2024-09-10,合同会社エイトレ,,合同会社,広島県,安芸高田市,美土里町北２６５３－１,,34,214,7310701,,,,,,,2024-09-10,1,,,,,エイトレ,0
987,4260001039438,新規,0,2024-09-10,2024-09-10,株式会社スターファーマシー,,株式会社,岡山県,倉敷市,玉島上成５３７番地５,,33,202,7138101,,,,,,,2024-09-10,1,,,,,スターファーマシー,0
988,4260001039446,新規,0,2024-09-10,2024-09-10,ＦＰ　Ｓｙｓｔｅｍ株式会社,,株式会社,岡山県,井原市,上出部町１２４１番地１,,33,207,7150021,,,,,,,2024-09-10,1,,,,,エフピーシステム,0
991,4270001009051,新規,0,2024-09-10,2024-09-10,株式会社永塗,,株式会社,鳥取県,倉吉市,堺町２丁目９３２番地１,,31,203,6820885,,,,,,,2024-09-10,1,,,,,エイト,0
996,4290001107200,新規,0,2024-09-10,2024-09-10,株式会社よければ一緒に,,株式会社,福岡県,福岡市西区,今宿駅前１丁目３番１８号,,40,135,8190168,,,,,,,2024-09-10,1,,,,,ヨケレバイッショニ,0
997,4290003015748,新規,0,2024-09-10,2024-09-10,台湾ねこ合同会社,,合同会社,福岡県,福岡市早良区,百道浜４丁目３－４グランドメゾン百道浜ｖｉｌｌａ５０３,,40,137,8140001,,,,,,,2024-09-10,1,,,,,タイワンネコ,0
1009,4330001032443,新規,0,2024-09-10,2024-09-10,新訊国際開発株式会社,,株式会社,熊本県,菊池市,赤星２０３５番地１,,43,210,8611311,,,,,,,2024-09-10,1,,,,,シンシュンコクサイカイハツ,0
1018,4380001034773,新規,0,2024-09-10,2024-09-10,株式会社ＡＬＥＢＡＮＡ,,株式会社,福島県,本宮市,高木字井戸上２６番地７,,07,214,9691101,,,,,,,2024-09-10,1,,,,,アレバナ,0
1024,4410005006600,新規,0,2024-09-10,2024-09-10,一般社団法人Ｒｉｄｅｏｎ,,その他の設立登記法人,秋田県,秋田市,雄和椿川字奥椿岱１９３番地１７さくら寮Ｃ２０４－３号,,05,201,0101211,,,,,,,2024-09-10,1,,,,,ライドオン,0
1026,4430001092634,新規,0,2024-09-10,2024-09-10,株式会社セルクル,,株式会社,北海道,札幌市北区,新琴似二条９丁目４番２４号,,01,102,0010902,,,,,,,2024-09-10,1,,,,,セルクル,0
1027,4430001092642,新規,0,2024-09-10,2024-09-10,ジオライズ株式会社,,株式会社,北海道,札幌市東区,伏古十一条５丁目２番１０号,,01,103,0070871,,,,,,,2024-09-10,1,,,,,ジオライズ,0
1030,4430005015062,新規,0,2024-09-10,2024-09-10,医療法人北野通こどもクリニック,,その他の設立登記法人,北海道,札幌市豊平区,月寒東三条１１丁目１－３６ＢＲＡＮＣＨ札幌月寒,,01,105,0620053,,,,,,,2024-09-10,1,,,,,キタノドオリコドモクリニック,0
1039,4700150127089,新規,0,2024-09-10,2024-09-10,青島邁篷＿国際貿易有限公司,00136208,外国会社等,,,,,,,,中国山東省青島市城陽区惜福鎮街道小庄社区３５３号,,,,,,2024-09-10,1,,,,,チンタオマイホウロウコクサイボウエキユウゲンコウシ,0
1043,5010001248079,新規,0,2024-09-10,2024-09-10,立匠科創株式会社,,株式会社,東京都,文京区,千石４丁目１４番９号,,13,105,1120011,,,,,,,2024-09-10,1,,,,,リッショウカソウ,0
1044,5010001248112,新規,0,2024-09-10,2024-09-10,ＳＹＪホールディングス株式会社,,株式会社,東京都,中央区,築地６丁目１７番４号,,13,102,1040045,,,,,,,2024-09-10,1,,,,,エスワイジェイホールディングス,0
1045,5010001248120,新規,0,2024-09-10,2024-09-10,鴻図科技株式会社,,株式会社,東京都,文京区,千石４丁目１４番９号,,13,105,1120011,,,,,,,2024-09-10,1,,,,,コウトカギ,0
1046,5010001248153,新規,0,2024-09-10,2024-09-10,株式会社ＨＡＲＵＭＩ　ＨＯＭＥＳ,,株式会社,東京都,中央区,八丁堀２丁目１１番１号４階,,13,102,1040032,,,,,,,2024-09-10,1,,,,,ハルミホームズ,0
1047,5010001248186,新規,0,2024-09-10,2024-09-10,日本東芸国際オークション株式会社,,株式会社,東京都,文京区,千石４丁目１４番９号,,13,105,1120011,,,,,,,2024-09-10,1,,,,,ニホントウゲイコクサイオークション,0
1048,5010001248194,新規,0,2024-09-10,2024-09-10,フリーダムビジョン株式会社,,株式会社,東京都,中央区,銀座１丁目１２番４号Ｎ＆ＥＢＬＤ．６階,,13,102,1040061,,,,,,,2024-09-10,1,,,,,フリーダムビジョン,0
1051,5010101016294,新規,0,2024-09-10,2024-09-10,株式会社ＴＲＵＣＯＬＯＲＳ,,株式会社,東京都,八王子市,千人町２丁目１９－１５,,13,201,1930835,,,,,,,2024-09-10,1,,,,,トゥルーカラーズ,0
1063,5010701046501,新規,0,2024-09-10,2024-09-10,ＢＲＡＮＤ　ＰＯＲＴ株式会社,,株式会社,東京都,品川区,戸越２丁目９番９号,,13,109,1420041,,,,,,,2024-09-10,1,,,,,ブランドポート,0
1064,5010701046534,新規,0,2024-09-10,2024-09-10,株式会社Ｌｉｅｎ,,株式会社,東京都,品川区,西五反田２丁目１８番２号,,13,109,1410031,,,,,,,2024-09-10,1,,,,,リアン,0
1073,5011001164423,新規,0,2024-09-10,2024-09-10,株式会社ＦＬＣ　ｓｙｓｔｅｍｓ,,株式会社,東京都,渋谷区,神山町３１番５号プラウド神山町１０１,,13,113,1500047,,,,,,,2024-09-10,1,,,,,エフエルシーシステムズ,0
1074,5011001164539,新規,0,2024-09-10,2024-09-10,株式会社Ｕｌｍｅｍｅ,,株式会社,東京都,渋谷区,渋谷１丁目１１番３第一小山ビル６Ｆ,,13,113,1500002,,,,,,,2024-09-10,1,,,,,アルメメ,0
1075,5011001164638,新規,0,2024-09-10,2024-09-10,Ｄｏ　ｉｔ　Ｔｈｅａｔｅｒ株式会社,,株式会社,東京都,目黒区,中目黒１丁目３番８号渡辺ビル６階,,13,110,1530061,,,,,,,2024-09-10,1,,,,,ドゥイットシアター,0
1085,5011205002627,新規,0,2024-09-10,2024-09-10,一般社団法人発達行動小児センター,,その他の設立登記法人,東京都,中野区,中央１丁目１７番２号チェー中野坂上１０１,,13,114,1640011,,,,,,,2024-09-10,1,,,,,ハッタツコウドウショウニセンター,0
1089,5011501031131,新規,0,2024-09-10,2024-09-10,スターシーテクノロジー株式会社,,株式会社,東京都,北区,中里１丁目２１番２号中里ビル１Ｆ,,13,117,1140015,,,,,,,2024-09-10,1,,,,,スターシーテクノロジー,0
1090,5011603004448,新規,0,2024-09-10,2024-09-10,合同会社ＬＥＡＰＳ,,合同会社,東京都,練馬区,南大泉５丁目３３番２号ｄｏｕｘ　ｂａｔｅａｕ２０１,,13,120,1780064,,,,,,,2024-09-10,1,,,,,リープス,0
1097,5012401042276,新規,0,2024-09-10,2024-09-10,株式会社牡丹,,株式会社,東京都,武蔵野市,吉祥寺南町１丁目２２番７－２０３号,,13,203,1800003,,,,,,,2024-09-10,1,,,,,ボタン,0
1098,5012403006741,新規,0,2024-09-10,2024-09-10,幸介企画合同会社,,合同会社,東京都,武蔵野市,吉祥寺本町２丁目１５‐１５アルクス３０３,,13,203,1800004,,,,,,,2024-09-10,1,,,,,コウスケキカク,0
1113,5020001159044,新規,0,2024-09-10,2024-09-10,株式会社ｓａｌｅｓ　ｍａｓｔｅｒ　ａｃａｄｅｍｙ,,株式会社,神奈川県,川崎市宮前区,土橋４丁目５番地１Ａ－２０７,,14,136,2160005,,,,,,,2024-09-10,1,,,,,セールスマスターアカデミー,0
1114,5020001159151,新規,0,2024-09-10,2024-09-10,株式会社サキ,,株式会社,神奈川県,横浜市保土ケ谷区,川島町１３３３番地,,14,106,2400045,,,,,,,2024-09-10,1,,,,,サキ,0
1120,5020005016539,新規,0,2024-09-10,2024-09-10,一般社団法人おくろー,,その他の設立登記法人,神奈川県,川崎市宮前区,梶ケ谷１４５５－２サンメリー梶ヶ谷１Ｆ,,14,136,2160034,,,,,,,2024-09-10,1,,,,,オクロー,0
1121,5021001083192,新規,0,2024-09-10,2024-09-10,株式会社テトラ,,株式会社,神奈川県,逗子市,久木５丁目１１番１９号,,14,208,2490001,,,,,,,2024-09-10,1,,,,,テトラ,0
1122,5021001083201,新規,0,2024-09-10,2024-09-10,株式会社ＭＡＲＫ　ＣＯＭＰＡＮＹ．,,株式会社,神奈川県,茅ヶ崎市,東海岸北１丁目７番２１号,,14,207,2530053,,,,,,,2024-09-10,1,,,,,マークカンパニー,0
1126,5021003014996,新規,0,2024-09-10,2024-09-10,合同会社ＫＡＴＡＮＯ,,合同会社,神奈川県,中郡大磯町,大磯９３７番地５,,14,341,2550003,,,,,,,2024-09-10,1,,,,,カタノ,0
1135,5030001162393,新規,0,2024-09-10,2024-09-10,株式会社正栄,,株式会社,埼玉県,さいたま市西区,宮前町１５５番地１３,,11,101,3310046,,,,,,,2024-09-10,1,,,,,ショウエイ,0
1145,5040001135241,新規,0,2024-09-10,2024-09-10,株式会社ローマ,,株式会社,千葉県,船橋市,習志野台８丁目５４番１－３１３号,,12,204,2740063,,,,,,,2024-09-10,1,,,,,ローマ,0
1159,5050001055372,新規,0,2024-09-10,2024-09-10,株式会社ＩＳＨＡＱ　ＴＲＡＤＩＮＧ,,株式会社,茨城県,坂東市,生子２６８７番地１８グレードＩＩ１０１号室,00136248,08,228,3060504,,,,,,,2024-09-10,1,,,,,イサクトレーディング,0
1164,5050003008626,新規,0,2024-09-10,2024-09-10,合同会社ＡＫＩＫＯ,,合同会社,茨城県,つくば市,北条４０５３－５,,08,220,3004231,,,,,,,2024-09-10,1,,,,,アキコ,0
1165,5050003008667,新規,0,2024-09-10,2024-09-10,合同会社ＡＮＥＬＡ,,合同会社,茨城県,つくば市,春日２丁目３３番４号Ｈａｐｐｙｂｕｉｌｄｉｎｇ１Ｆ,,08,220,3050821,,,,,,,2024-09-10,1,,,,,アネラ,0
1170,5080101024992,新規,0,2024-09-10,2024-09-10,オオムラテクノ株式会社,,株式会社,静岡県,沼津市,東椎路１５９８番地の５,,22,203,4100302,,,,,,,2024-09-10,1,,,,,オオムラテクノ,0
1189,5120001268116,新規,0,2024-09-10,2024-09-10,神鹿株式会社,,株式会社,大阪府,大阪市西成区,天下茶屋１丁目１２－２０,,27,122,5570014,,,,,,,2024-09-10,1,,,,,カミジカ,0
1190,5120001268396,新規,0,2024-09-10,2024-09-10,株式会社Ｆｌｙ　ｈｉｇｈ,,株式会社,大阪府,枚方市,長尾西町２丁目１６－６,,27,210,5730162,,,,,,,2024-09-10,1,,,,,フライハイ,0
1191,5120001268470,新規,0,2024-09-10,2024-09-10,株式会社ミヤビ・グランツ,,株式会社,大阪府,寝屋川市,本町１１番２３号,,27,215,5720832,,,,,,,2024-09-10,1,,,,,ミヤビグランツ,0
1192,5120001268479,新規,0,2024-09-10,2024-09-10,株式会社ヒガシトゥエンティワン分割準備会社,,株式会社,大阪府,大阪市中央区,内久宝寺町３丁目１番９号,,27,128,5400013,,,,,,,2024-09-10,1,,,,,ヒガシトゥエンティワンブンカツジュンビガイシャ,0
1197,5120003027494,新規,0,2024-09-10,2024-09-10,サティバイ合同会社,,合同会社,大阪府,大阪市福島区,玉川３丁目３番３９号,,27,103,5530004,,,,,,,2024-09-10,1,,,,,サティバイ,0
1198,5120901049755,新規,0,2024-09-10,2024-09-10,株式会社ＴＡＮＡＢＥ　ＰＵＭＰ,,株式会社,大阪府,高槻市,古曽部町２丁目３０番１－１１０７号,,27,207,5691115,,,,,,,2024-09-10,1,,,,,タナベポンプ,0
1205,5130003009847,新規,0,2024-09-10,2024-09-10,ＭＯＮＥ　Ｓｈａｒｅ　Ｒｅａｌｔｙ合同会社,,合同会社,京都府,京都市下京区,不明門通松原下る吉水町４５８番地１,,26,106,6008403,,,,,,,2024-09-10,1,,,,,モネシェアリアルティ,0
1213,5140001135735,新規,0,2024-09-10,2024-09-10,株式会社赤城エンジニアリング,,株式会社,兵庫県,姫路市,四郷町東阿保１３００番地８,,28,201,6710247,,,,,,,2024-09-10,1,,,,,アカギエンジニアリング,0
1217,5160001026206,新規,0,2024-09-10,2024-09-10,株式会社トラストプラス,,株式会社,滋賀県,彦根市,大薮町２２２７番地,,25,202,5220000,,,,,,,2024-09-10,1,,,,,トラストプラス,0
1232,5180003027324,新規,0,2024-09-10,2024-09-10,旭威合同会社,,合同会社,愛知県,名古屋市千種区,猪高町大字猪子石字猪々道１４４,,23,101,4640012,,,,,,,2024-09-10,1,,,,,キョクイ,0
1236,5180305009607,新規,0,2024-09-10,2024-09-10,一般社団法人全国無人航空機赤外線調査,,その他の設立登記法人,愛知県,額田郡幸田町,大字大草字長根尻１６３番地,,23,501,4440103,,,,,,,2024-09-10,1,,,,,ゼンコクムジンコウクウキセキガイセンチョウサ,0
1237,5190001031624,新規,0,2024-09-10,2024-09-10,株式会社丸光建設,,株式会社,三重県,四日市市,水沢町２９５４番地３,,24,202,5121105,,,,,,,2024-09-10,1,,,,,マルコウケンセツ,0
1243,5210001019906,新規,0,2024-09-10,2024-09-10,株式会社翔建,,株式会社,福井県,福井市,上北野１丁目１８番１７号,,18,201,9188203,,,,,,,2024-09-10,1,,,,,ショウケン,0
1248,5230001020523,新規,0,2024-09-10,2024-09-10,株式会社笑福,,株式会社,富山県,高岡市,明野町１番１号,,16,202,9330905,,,,,,,2024-09-10,1,,,,,ショウフク,0
1251,5240001063793,新規,0,2024-09-10,2024-09-10,株式会社ＢＰＭ,,株式会社,広島県,廿日市市,地御前５丁目２０番１号,,34,213,7380042,,,,,,,2024-09-10,1,,,,,ビーピーエム,0
1252,5240001063802,新規,0,2024-09-10,2024-09-10,株式会社Ｎｏｓテック,,株式会社,広島県,広島市安佐北区,大林１丁目１５番３号,,34,106,7310201,,,,,,,2024-09-10,1,,,,,ノステック,0
1258,5260001039453,新規,0,2024-09-10,2024-09-10,株式会社栄進,,株式会社,岡山県,和気郡和気町,矢田９３３番地１,,33,346,7090511,,,,,,,2024-09-10,1,,,,,エイシン,0
1265,5290001107042,新規,0,2024-09-10,2024-09-10,Ｊａｃｋ株式会社,,株式会社,福岡県,糟屋郡志免町,片峰１丁目６番１２－５０１号,,40,343,8112245,,,,,,,2024-09-10,1,,,,,ジャック,0
1266,5290001107216,新規,0,2024-09-10,2024-09-10,株式会社４Ｕ,,株式会社,福岡県,福岡市中央区,天神２丁目２番１２号Ｔ＆Ｊビルディング７Ｆ,,40,133,8100001,,,,,,,2024-09-10,1,,,,,フォーユー,0
1271,5300001013899,新規,0,2024-09-10,2024-09-10,株式会社ｋａｍｉｈｉｔｏｅ,,株式会社,佐賀県,佐賀市,西与賀町大字厘外７９７番地１６,,41,201,8400034,,,,,,,2024-09-10,1,,,,,カミヒトエ,0
1285,5370001051711,新規,0,2024-09-10,2024-09-10,ＦＡＴＥＨ　ＩＮＴＥＲＮＡＴＩＯＮＡＬ株式会社,,株式会社,宮城県,仙台市青葉区,上杉５丁目２番２１－４０２号,,04,101,9800011,,,,,,,2024-09-10,1,,,,,ファテインターナショナル,0
1301,5410003003978,新規,0,2024-09-10,2024-09-10,合同会社Ｂ．Ｓ．Ｗｏｒｋｓ,,合同会社,秋田県,秋田市,保戸野鉄砲町２番２６号,,05,201,0100913,,,,,,,2024-09-10,1,,,,,ビーエスワークス,0
1307,5430001092609,新規,0,2024-09-10,2024-09-10,ＨＯＶＥＲ株式会社,,株式会社,北海道,札幌市北区,新琴似四条１丁目３番１５号,,01,102,0010904,,,,,,,2024-09-10,1,,,,,ホバリング,0
1308,5430005015061,新規,0,2024-09-10,2024-09-10,医療法人景風会,,その他の設立登記法人,北海道,札幌市厚別区,厚別中央一条６丁目２番１号Ｄ－スクエア新さっぽろ６Ｆ,,01,108,0040051,,,,,,,2024-09-10,1,,,,,ケイフウカイ,0
1309,5462501001013,新規,0,2024-09-10,2024-09-10,株式会社栗栖ファーム,,株式会社,北海道,野付郡別海町,別海３９９番地の３,,01,691,0860216,,,,,,,2024-09-10,1,,,,,クリスファーム,0
1319,5500001025858,新規,0,2024-09-10,2024-09-10,株式会社ワイワイ,,株式会社,愛媛県,喜多郡内子町,内子１１９９番地,,38,422,7913301,,,,,,,2024-09-10,1,,,,,ワイワイ,0
1323,5700150127088,新規,0,2024-09-10,2024-09-10,Ｓｈｅｎｚｈｅｎ　Ｙｉｎｇｈａｎｇ　Ｔｅｃｈｎｏｌｏｇｙ　Ｃｏ．，Ｌｔｄ,,外国会社等,,,,,,,,Ｓｈｅｎｚｈｅｎ　Ｌｏｎｇｇａｎｇ　Ｈｅｎｇｇａｎｇ　Ｓｔｒｅｅｔ　Ｌｉｕｙａｏ　Ｓｏｕｔｈ　Ｃｏｍｍｕｎｉｔｙ　１０１，Ｎｏ．３，Ｙｏｎｇｆｕ　Ｔｈｉｒｄ　Ｌａｎｅ　５１８０００　ＣＮ,,,,,,2024-09-10,1,,,,,シンセンインハンテクノロジーカンパニーリミテッド,0
1326,6010001248210,新規,0,2024-09-10,2024-09-10,株式会社０ｔｈ　Ｌａｂ,,株式会社,東京都,中央区,日本橋２丁目９番１０号Ｌ．Ｂｉｚ日本橋２階,,13,102,1030027,,,,,,,2024-09-10,1,,,,,ゼロスラボ,0
1327,6010003044847,新規,0,2024-09-10,2024-09-10,合同会社ニック,,合同会社,東京都,中央区,銀座８丁目１８－６二葉ビル６Ｆ６００号,,13,102,1040061,,,,,,,2024-09-10,1,,,,,ニック,0
1342,6010603011073,新規,0,2024-09-10,2024-09-10,合同会社ヌエマル電力,,合同会社,東京都,江東区,永代２丁目３３番９－３０２号,,13,108,1350034,,,,,,,2024-09-10,1,,,,,ヌエマルデンリョク,0
1344,6010701046500,新規,0,2024-09-10,2024-09-10,株式会社Ｓｈｏｇｕｎ　ｐｒｏｊｅｃｔ,,株式会社,東京都,品川区,北品川５丁目１３－２１－４０５,,13,109,1410001,,,,,,,2024-09-10,1,,,,,ショウグンプロジェクト,0
1350,6011001164430,新規,0,2024-09-10,2024-09-10,株式会社ＰＲＯＪＥ　ＳＨＩＢＵＹＡ,,株式会社,東京都,渋谷区,代々木１丁目３１番８号シティハウス代々木１４０４,,13,113,1510053,,,,,,,2024-09-10,1,,,,,ポジェシブヤ,0
1351,6011001164471,新規,0,2024-09-10,2024-09-10,株式会社渡辺プロダクション,,株式会社,東京都,渋谷区,桜丘町１２番１０号,,13,113,1500031,,,,,,,2024-09-10,1,,,,,ワタナベプロダクション,0
1352,6011001164579,新規,0,2024-09-10,2024-09-10,株式会社ＥＩＧＨＴ　ＣＬＯＵＤＳ,,株式会社,東京都,渋谷区,神宮前３丁目３４番６号Ｈ．Ｉ．Ｐビル２Ｆ,,13,113,1500001,,,,,,,2024-09-10,1,,,,,エイトクラウズ,0
1353,6011001164587,新規,0,2024-09-10,2024-09-10,株式会社アムアライアンス,,株式会社,東京都,渋谷区,猿楽町７番１２号ＣＯＭＦＯＵＲＴＩＳ０９１,,13,113,1500033,,,,,,,2024-09-10,1,,,,,アムアライアンス,0
1357,6011103014905,新規,0,2024-09-10,2024-09-10,合同会社Ｒｅｖｅ　ｄｅ　Ｃｈｏｍｅｕｒ,,合同会社,東京都,新宿区,西新宿３丁目３番１３号西新宿水間ビル６階,,13,104,1600023,,,,,,,2024-09-10,1,,,,,レーヴドショムール,0
1358,6011103014913,新規,0,2024-09-10,2024-09-10,明美フーズ合同会社,,合同会社,東京都,新宿区,北新宿３丁目２０番１－２２６号,,13,104,1690074,,,,,,,2024-09-10,1,,,,,アケミフーズ,0
1359,6011201025779,新規,0,2024-09-10,2024-09-10,株式会社Ｌｉｌｌｙ,,株式会社,東京都,中野区,野方３丁目２９－５－３０１,,13,114,1650027,,,,,,,2024-09-10,1,,,,,リリー,0
1360,6011203004483,新規,0,2024-09-10,2024-09-10,合同会社エニエス,,合同会社,東京都,中野区,大和町２丁目２３番１４号,,13,114,1650034,,,,,,,2024-09-10,1,,,,,エニエス,0
1361,6011303005282,新規,0,2024-09-10,2024-09-10,サウスポイント合同会社,,合同会社,東京都,杉並区,高井戸東１丁目１０番５号,,13,115,1680072,,,,,,,2024-09-10,1,,,,,サウスポイント,0
1363,6011601028043,新規,0,2024-09-10,2024-09-10,株式会社ｓｈｉｎｉｎｇ　ｓｔａｇｅ,,株式会社,東京都,練馬区,氷川台４丁目３５番１０号シャトレＳＨＩＮＯＨＡＲＡ３０２,,13,120,1790084,,,,,,,2024-09-10,1,,,,,シャイニングステージ,0
1365,6011701027597,新規,0,2024-09-10,2024-09-10,株式会社エムワイシー,,株式会社,東京都,江戸川区,平井７丁目１７番６号ミサワビル２Ｆ,,13,123,1320035,,,,,,,2024-09-10,1,,,,,エムワイシー,0
1366,6011701027614,新規,0,2024-09-10,2024-09-10,アクセルデザイン株式会社,,株式会社,東京都,江戸川区,北小岩７丁目４番３号,,13,123,1330051,,,,,,,2024-09-10,1,,,,,アクセルデザイン,0
1370,6011801044815,新規,0,2024-09-10,2024-09-10,カワムラホールディングス株式会社,,株式会社,東京都,葛飾区,小菅１丁目３７番１－６２１号ソライエ葛飾小菅,,13,122,1240001,,,,,,,2024-09-10,1,,,,,カワムラホールディングス,0
1373,6012701018438,新規,0,2024-09-10,2024-09-10,株式会社ＡＬＰ,,株式会社,東京都,清瀬市,中里４丁目１１３９番地５,,13,221,2040003,,,,,,,2024-09-10,1,,,,,エーエルピー,0
1383,6020001159010,新規,0,2024-09-10,2024-09-10,株式会社いなり,,株式会社,神奈川県,川崎市川崎区,昭和２丁目１１－５倉形ビル１Ｆ,,14,131,2100813,,,,,,,2024-09-10,1,,,,,イナリ,0
1384,6020001159043,新規,0,2024-09-10,2024-09-10,株式会社コハク,,株式会社,神奈川県,横浜市港北区,新吉田町３１８５番地Ｂ,,14,109,2230056,,,,,,,2024-09-10,1,,,,,コハク,0
1385,6020001159092,新規,0,2024-09-10,2024-09-10,株式会社Ｒ,,株式会社,神奈川県,横浜市緑区,長津田みなみ台６丁目１２番地１０ブレッサＦ１０１号,,14,113,2260018,,,,,,,2024-09-10,1,,,,,アール,0
1386,6020001159101,新規,0,2024-09-10,2024-09-10,Ｍａｒｕｗａ総建株式会社,,株式会社,神奈川県,横浜市西区,浅間町１丁目４番３号ウィザードビル４０２,,14,103,2200072,,,,,,,2024-09-10,1,,,,,マルワソウケン,0
1387,6020001159159,新規,0,2024-09-10,2024-09-10,株式会社ＡＮ,,株式会社,神奈川県,横浜市港南区,港南台４丁目７番２９号,,14,111,2340054,,,,,,,2024-09-10,1,,,,,エーエヌ,0
1393,6020003026811,新規,0,2024-09-10,2024-09-10,合同会社ＨＳＮ,,合同会社,神奈川県,横浜市西区,浅間町１丁目４番３号ウィザードビル４０２,,14,103,2200072,,,,,,,2024-09-10,1,,,,,エイチエスエヌ,0
1394,6020003026877,新規,0,2024-09-10,2024-09-10,東和コンサルティング合同会社,,合同会社,神奈川県,横浜市磯子区,森が丘１丁目７番１８号,,14,107,2350024,,,,,,,2024-09-10,1,,,,,トウワコンサルティング,0
1395,6020003026885,新規,0,2024-09-10,2024-09-10,合同会社カマンス,,合同会社,神奈川県,横浜市港北区,高田東４丁目１７番１３－Ｂ－２号,,14,109,2230065,,,,,,,2024-09-10,1,,,,,カマンス,0
1396,6020005016538,新規,0,2024-09-10,2024-09-10,ＮＰＯ法人はまリハ,,その他の設立登記法人,神奈川県,横浜市旭区,若葉台３丁目６番２号,,14,112,2410801,,,,,,,2024-09-10,1,,,,,ハマリハ,0
1401,6021001083209,新規,0,2024-09-10,2024-09-10,石井国際マネジメント株式会社,,株式会社,神奈川県,相模原市南区,当麻８７５番地４,,14,153,2520336,,,,,,,2024-09-10,1,,,,,イシイコクサイマネジメント,0
1410,6021003014995,新規,0,2024-09-10,2024-09-10,合同会社ＫＯＳ,,合同会社,神奈川県,藤沢市,湘南台１丁目７―４綴ビル９０１,,14,205,2520804,,,,,,,2024-09-10,1,,,,,ケイオーエス,0
1417,6030001162442,新規,0,2024-09-10,2024-09-10,株式会社日本ホーム,,株式会社,埼玉県,川口市,大字安行領根岸９９３番地,,11,203,3330834,,,,,,,2024-09-10,1,,,,,ニッポンホーム,0
1423,6040001135307,新規,0,2024-09-10,2024-09-10,ｅｐｉｃｕｒｅａｎ　ｎｏｍａｄｓ　ｊａｐａｎ株式会社,,株式会社,千葉県,千葉市中央区,弁天１丁目１５－３,,12,101,2600045,,,,,,,2024-09-10,1,,,,,エピキューリアンノーマッズジャパン,0
1424,6040001135315,新規,0,2024-09-10,2024-09-10,ＬＡＬＩＧＵＲＡＳ　ＳＫ　ＩＮＴＥＲＮＡＴＩＯＮＡＬ株式会社,,株式会社,千葉県,鎌ケ谷市,中央２丁目２番１６号,,12,224,2730124,,,,,,,2024-09-10,1,,,,,ラリグラスエスケーインターナショナル,0
1425,6040001135323,新規,0,2024-09-10,2024-09-10,株式会社ＫＳＥ,,株式会社,千葉県,船橋市,三山８丁目４５番２０号,,12,204,2740072,,,,,,,2024-09-10,1,,,,,ケイエスイー,0
1426,6040001135356,新規,0,2024-09-10,2024-09-10,株式会社ＮＯＤＯＡ,,株式会社,千葉県,市川市,真間２丁目２２番６号,,12,203,2720826,,,,,,,2024-09-10,1,,,,,ノドア,0
1428,6040003025761,新規,0,2024-09-10,2024-09-10,合同会社ＥＡＴＲＵＳＴ,,合同会社,千葉県,八千代市,勝田台１丁目１６,,12,221,2760023,,,,,,,2024-09-10,1,,,,,イートラスト,0
1429,6040005022492,新規,0,2024-09-10,2024-09-10,税理士法人あした,,その他の設立登記法人,千葉県,木更津市,太田１丁目１１番１５号,,12,206,2920044,,,,,,,2024-09-10,1,,,,,アシタ,0
1435,6050003008666,新規,0,2024-09-10,2024-09-10,合同会社ルームファクトリー,,合同会社,茨城県,稲敷郡阿見町,大字荒川本郷１９１２番地５,,08,443,3001152,,,,,,,2024-09-10,1,,,,,ルームファクトリー,0
1440,6080103003143,新規,0,2024-09-10,2024-09-10,ソイル合同会社,,合同会社,静岡県,富士市,津田１１番地の２,,22,210,4170034,,,,,,,2024-09-10,1,,,,,ソイル,0
1444,6080401027439,新規,0,2024-09-10,2024-09-10,株式会社ＴＫ・ＶＥＲ,,株式会社,静岡県,磐田市,豊岡５９６５番地１６,,22,211,4380231,,,,,,,2024-09-10,1,,,,,ティーケーベル,0
1445,6080403005095,新規,0,2024-09-10,2024-09-10,合同会社Ｓ’ｆａｍ,,合同会社,静岡県,菊川市,仲島２丁目３番地の１０,,22,224,4390011,,,,,,,2024-09-10,1,,,,,エスファム,0
1450,6110001038700,新規,0,2024-09-10,2024-09-10,丸昭工業株式会社,,株式会社,新潟県,三条市,猪子場新田３４番地１,,15,204,9591151,,,,,,,2024-09-10,1,,,,,マルショウコウギョウ,0
1452,6110003005517,新規,0,2024-09-10,2024-09-10,合同会社サンサン,,合同会社,新潟県,長岡市,長峰町６０番地１３１,,15,202,9402142,,,,,,,2024-09-10,1,,,,,サンサン,0
1461,6120001268445,新規,0,2024-09-10,2024-09-10,株式会社ＰＡＺＵＲＵ,,株式会社,大阪府,大阪市中央区,谷町３丁目１番１８号ＮＳ－２１ビル,,27,128,5400012,,,,,,,2024-09-10,1,,,,,パズル,0
1465,6120003027469,新規,0,2024-09-10,2024-09-10,Ｃａｔｅｎａ合同会社,,合同会社,大阪府,大阪市中央区,南船場３丁目２番２２号おおきに南船場ビル２０５,,27,128,5420081,,,,,,,2024-09-10,1,,,,,カテナ,0
1466,6120003027485,新規,0,2024-09-10,2024-09-10,合同会社資産税研究所,,合同会社,大阪府,大阪市北区,大深町３番４０－７０９号,,27,127,5300011,,,,,,,2024-09-10,1,,,,,シサンゼイケンキュウショ,0
1469,6120101070230,新規,0,2024-09-10,2024-09-10,Ｍ‐ＮＥＸＴホールディングス株式会社,,株式会社,大阪府,阪南市,黒田３８２番地の１,,27,232,5990203,,,,,,,2024-09-10,1,,,,,エムネクストホールディングス,0
1470,6120901049754,新規,0,2024-09-10,2024-09-10,株式会社アッドプロパティ,,株式会社,大阪府,吹田市,豊津町１番１８号エクラート江坂ビル３Ｆ,,27,205,5640051,,,,,,,2024-09-10,1,,,,,アッドプロパティ,0
1471,6120903005334,新規,0,2024-09-10,2024-09-10,合同会社森産業医事務所,,合同会社,大阪府,豊中市,上野西２丁目２番６号,,27,203,5600011,,,,,,,2024-09-10,1,,,,,モリサンギョウイジムショ,0
1483,6140001135750,新規,0,2024-09-10,2024-09-10,株式会社ＭＰＣ,,株式会社,兵庫県,伊丹市,荒牧３丁目３番６号,,28,207,6640001,,,,,,,2024-09-10,1,,,,,エムピーシー,0
1484,6140001135767,新規,0,2024-09-10,2024-09-10,株式会社エヴォルブ,,株式会社,兵庫県,尼崎市,大庄中通５丁目２７－６,,28,202,6600075,,,,,,,2024-09-10,1,,,,,,0
1487,6160001026205,新規,0,2024-09-10,2024-09-10,株式会社ハヤミテック,,株式会社,滋賀県,長浜市,高月町高月９７１番地,,25,203,5290241,,,,,,,2024-09-10,1,,,,,ハヤミテック,0
1501,6190003004783,新規,0,2024-09-10,2024-09-10,合同会社ＭＡＭＵＲＡ,,合同会社,三重県,三重郡菰野町,大字杉谷１４６４番地４,,24,341,5101326,,,,,,,2024-09-10,1,,,,,マムラ,0
1502,6200001042908,新規,0,2024-09-10,2024-09-10,株式会社ＬＩＮＫ,,株式会社,岐阜県,安八郡輪之内町,楡俣６２０番地,,21,382,5030201,,,,,,,2024-09-10,1,,,,,リンク,0
1514,6240001063801,新規,0,2024-09-10,2024-09-10,株式会社日出屋瀬戸内ファーム,,株式会社,広島県,尾道市,瀬戸田町高根７６８－１,,34,205,7222412,,,,,,,2024-09-10,1,,,,,ヒノデヤセトウチファーム,0
1515,6240003006849,新規,0,2024-09-10,2024-09-10,合同会社ついき食品工業,,合同会社,広島県,安芸郡坂町,平成ヶ浜４丁目５番１９号,,34,309,7314312,,,,,,,2024-09-10,1,,,,,ツイキショクヒンコウギョウ,0
1516,6250001020801,新規,0,2024-09-10,2024-09-10,株式会社７０５,,株式会社,山口県,宇部市,則貞２丁目７番３７－３号,,35,202,7550003,,,,,,,2024-09-10,1,,,,,ナナマルゴ,0
1521,6260001039444,新規,0,2024-09-10,2024-09-10,株式会社ＳＥＮＯＯＶＥＴ,,株式会社,岡山県,岡山市南区,箕島１２１１番地１,,33,104,7010206,,,,,,,2024-09-10,1,,,,,セノオベット,0
1522,6260003004891,新規,0,2024-09-10,2024-09-10,ＧＴ　ＪＡＰＡＮ　ＥＸＰＯＲＴ合同会社,,合同会社,岡山県,岡山市東区,瀬戸町宗堂６９９－１,,33,103,7090872,,,,,,,2024-09-10,1,,,,,ジーティージャパンエクスポート,0
1534,6290003015787,新規,0,2024-09-10,2024-09-10,合同会社ひとり,,合同会社,福岡県,福岡市西区,姪浜三丁目２１番１１号,,40,135,8190000,,,,,,,2024-09-10,1,,,,,,0
1535,6290801030871,新規,0,2024-09-10,2024-09-10,株式会社樋口,,株式会社,福岡県,北九州市小倉南区,大字井手浦２９２番地,,40,107,8030189,,,,,,,2024-09-10,1,,,,,ヒグチ,0
1536,6290803004840,新規,0,2024-09-10,2024-09-10,合同会社チェック・ファーム,,合同会社,福岡県,田川市,大字伊田３４２８番地,,40,206,8250002,,,,,,,2024-09-10,1,,,,,チェックファーム,0
1537,6300001013898,新規,0,2024-09-10,2024-09-10,株式会社隆昇技建,,株式会社,佐賀県,佐賀市,金立町大字金立１１９７番地３５,,41,201,8490906,,,,,,,2024-09-10,1,,,,,リュウショウギケン,0
1557,6370003006745,新規,0,2024-09-10,2024-09-10,合同会社楽笑,,合同会社,宮城県,柴田郡村田町,大字沼辺字森久保１１番地１,,04,322,9891321,,,,,,,2024-09-10,1,,,,,ラフ,0
1573,6430001092657,新規,0,2024-09-10,2024-09-10,株式会社エージェント北海道,,株式会社,北海道,札幌市北区,北三十三条西２丁目１－１５,,01,102,0010033,,,,,,,2024-09-10,1,,,,,エージェントホッカイドウ,0
1580,6460401001264,新規,0,2024-09-10,2024-09-10,株式会社博食品,,株式会社,北海道,根室市,駒場町２丁目５番地３２,,01,223,0870012,,,,,,,2024-09-10,1,,,,,ヒロショクヒン,0
1588,6700150127087,新規,0,2024-09-10,2024-09-10,Ｓｈａｎｔｏｕｓｈｉａｏｌｕｄｉａｎｚｉｓｈａｎｇｗｕ　Ｃｏ．，Ｌｔｄ．,,外国会社等,,,,,,,,Ｎｏ．３－１，４ｔｈ　Ｈｏｒｉｚｏｎｔａｌ，Ｌｏｎｇｎａｎ，Ｌｏｎｇｔｉａｎ，Ｇｕａｎｇｙｉ　Ｓｕｂｄｉｓｔｒｉｃｔ　Ｃｈｅｎｇｈａｉ　Ｄｉｓｔｒｉｃｔ　Ｓｈａｎ　Ｔｏｕ　５１５８００　ＣＮ,,,,,,2024-09-10,1,,,,,サントウシアオルデンシショウムカンパニーリミテッド,0
1589,6700150127095,新規,0,2024-09-10,2024-09-10,Ｃａｒｅｓｈｉｎｅ　Ｔｅｃｈｎｏｌｏｇｙ　Ｌｉｍｉｔｅｄ,,外国会社等,,,,,,,,ＲＯＯＭ　Ｓ２３９，２／Ｆ　ＴＨＥ　ＣＡＰＩＴＡＬ　６１－６５　ＣＨＡＴＨＡＭ　ＲＯＡＤ　ＳＯＵＴＨ　ＴＳＩＭ　ＳＨＡ　ＴＳＵＩ　ＨＫ,,,,,,2024-09-10,1,,,,,ケアシャインテクノロジーリミテッド,0
1593,7010001248127,新規,0,2024-09-10,2024-09-10,株式会社ＨＩＴｓ,,株式会社,東京都,中央区,日本橋兜町１７番地２号兜町第６葉山ビル４Ｆ,,13,102,1030026,,,,,,,2024-09-10,1,,,,,ヒッツ,0
1598,7010003044862,新規,0,2024-09-10,2024-09-10,合同会社京都インベストメント,,合同会社,東京都,千代田区,平河町１丁目６番１５号シルスフィア会計事務所内,,13,101,1020093,,,,,,,2024-09-10,1,,,,,キョウトインベストメント,0
1607,7010401185036,新規,0,2024-09-10,2024-09-10,株式会社さむらいず,,株式会社,東京都,港区,高輪３丁目２５番２３号京急第２ビル５Ｆ,,13,103,1080074,,,,,,,2024-09-10,1,,,,,サムライズ,0
1608,7010403033408,新規,0,2024-09-10,2024-09-10,合同会社ソレイユヴィタリテ,,合同会社,東京都,港区,北青山１丁目３番１号,,13,103,1070061,,,,,,,2024-09-10,1,,,,,ソレイユヴィタリテ,0
1610,7010405023563,新規,0,2024-09-10,2024-09-10,Ｏｊｉ‐Ｉ一般社団法人,,その他の設立登記法人,東京都,港区,虎ノ門１丁目２番３号虎ノ門清和ビル５階,,13,103,1050001,,,,,,,2024-09-10,1,,,,,オウジワン,0
1611,7010603011080,新規,0,2024-09-10,2024-09-10,合同会社ゼニス・フィナンシャル,,合同会社,東京都,江東区,潮見２丁目８番１４－８０３号,,13,108,1350052,,,,,,,2024-09-10,1,,,,,ゼニスフィナンシャル,0
1613,7010701046532,新規,0,2024-09-10,2024-09-10,ＳＰＶ２１ｓｏｌａｒ株式会社,,株式会社,東京都,品川区,北品川１丁目１６番１号舟正ビル２階,,13,109,1400001,,,,,,,2024-09-10,1,,,,,エスピーブイニジュウイチソーラー,0
1615,7010703007342,新規,0,2024-09-10,2024-09-10,イースイン合同会社,,合同会社,東京都,品川区,北品川３丁目１１番１３－２３０６号,,13,109,1400001,,,,,,,2024-09-10,1,,,,,イースイン,0
1620,7010903009337,新規,0,2024-09-10,2024-09-10,合同会社ＷＡＳＨＩＯ,,合同会社,東京都,世田谷区,深沢４丁目３０番９号アドラブール深沢１０６,,13,112,1580081,,,,,,,2024-09-10,1,,,,,ワシオ,0
1624,7011001164561,新規,0,2024-09-10,2024-09-10,株式会社アレグリア,,株式会社,東京都,渋谷区,道玄坂１丁目１０番８号渋谷道玄坂東急ビル２Ｆ－Ｃ,,13,113,1500043,,,,,,,2024-09-10,1,,,,,アレグリア,0
1625,7011001164594,新規,0,2024-09-10,2024-09-10,Ｄｏｎ’ｔ　Ｄｉｓｔｕｒｂ株式会社,,株式会社,東京都,渋谷区,恵比寿西２丁目４番８号ウィンド恵比寿ビル８Ｆ,,13,113,1500021,,,,,,,2024-09-10,1,,,,,ドントディスターブ,0
1627,7011003019945,新規,0,2024-09-10,2024-09-10,合同会社ヒューマンズラック,,合同会社,東京都,渋谷区,恵比寿３丁目２６－１０,,13,113,1500013,,,,,,,2024-09-10,1,,,,,ヒューマンズラック,0
1628,7011003019994,新規,0,2024-09-10,2024-09-10,Ｒａｉｎｂｏｗ　Ｋｉｄｓ　Ｃａｒｅ合同会社,,合同会社,東京都,渋谷区,神南１丁目１１‐４ＦＰＧリンクス神南５階,,13,113,1500041,,,,,,,2024-09-10,1,,,,,レインボーキッズケア,0
1630,7011101108732,新規,0,2024-09-10,2024-09-10,株式会社ＹＳコーポレーション,,株式会社,東京都,新宿区,河田町７番１２－６０５号,,13,104,1620054,,,,,,,2024-09-10,1,,,,,ワイエスコーポレーション,0
1634,7011801044822,新規,0,2024-09-10,2024-09-10,株式会社Ａ３Ｍ,,株式会社,東京都,葛飾区,青戸５丁目３１番１７号金線００１１号室,,13,122,1250062,,,,,,,2024-09-10,1,,,,,エースリーエム,0
1650,7020001159042,新規,0,2024-09-10,2024-09-10,家づくりバンク株式会社,,株式会社,神奈川県,横浜市西区,南幸２丁目１９番４号,,14,103,2200005,,,,,,,2024-09-10,1,,,,,イエヅクリバンク,0
1651,7020001159059,新規,0,2024-09-10,2024-09-10,株式会社風張組,,株式会社,神奈川県,横浜市戸塚区,影取町２１８番地１ベルムアロージョ１０２号,,14,110,2450064,,,,,,,2024-09-10,1,,,,,カザハリグミ,0
1652,7020001159091,新規,0,2024-09-10,2024-09-10,４ＮＥＸＴ株式会社,,株式会社,神奈川県,横浜市神奈川区,白幡西町２０番１１号,,14,102,2210074,,,,,,,2024-09-10,1,,,,,フォーネクスト,0
1654,7020003026868,新規,0,2024-09-10,2024-09-10,カーポ合同会社,,合同会社,神奈川県,横浜市都筑区,荏田南５丁目１番１８－２０１号,,14,118,2240007,,,,,,,2024-09-10,1,,,,,カーポ,0
1655,7020005016537,新規,0,2024-09-10,2024-09-10,一般社団法人いぬのとびら,,その他の設立登記法人,神奈川県,横浜市神奈川区,羽沢町１２００番地３５,,14,102,2210863,,,,,,,2024-09-10,1,,,,,イヌノトビラ,0
1662,7021001083199,新規,0,2024-09-10,2024-09-10,中央カンセーホールディングス株式会社,,株式会社,神奈川県,厚木市,恩名１丁目１１番３１号,,14,212,2430032,,,,,,,2024-09-10,1,,,,,チュウオウカンセーホールディングス,0
1665,7021003014994,新規,0,2024-09-10,2024-09-10,ＮａＣｏｍ合同会社,,合同会社,神奈川県,座間市,南栗原３丁目１５番３５号,,14,216,2520015,,,,,,,2024-09-10,1,,,,,ナコム,0
1673,7030001162441,新規,0,2024-09-10,2024-09-10,株式会社ＫＫ,,株式会社,埼玉県,川口市,大字安行領根岸９９３番地,,11,203,3330834,,,,,,,2024-09-10,1,,,,,ケーケー,0
1674,7030003025076,新規,0,2024-09-10,2024-09-10,合同会社未来技術,,合同会社,埼玉県,北葛飾郡杉戸町,大字木野川４６２－２３０,,11,464,3450003,,,,,,,2024-09-10,1,,,,,ミライギジュツ,0
1683,7040001135009,新規,0,2024-09-10,2024-09-10,株式会社ＳＵＮＬＩＮＫ,,株式会社,千葉県,市川市,欠真間１丁目９番１５号,,12,203,2720142,,,,,,,2024-09-10,1,,,,,サンリンク,0
1684,7040001135314,新規,0,2024-09-10,2024-09-10,株式会社ＭＯＡ,,株式会社,千葉県,千葉市中央区,花輪町４６番地１９５,,12,101,2600803,,,,,,,2024-09-10,1,,,,,モア,0
1692,7040003025678,新規,0,2024-09-10,2024-09-10,合同会社ダイフク,,合同会社,千葉県,市原市,加茂２丁目８－１７,,12,219,2900025,,,,,,,2024-09-10,1,,,,,ダイフク,0
1700,7060001037475,新規,0,2024-09-10,2024-09-10,株式会社Ｎ・Ｆ・Ｃ,,株式会社,栃木県,日光市,豊田９１番地９,,09,206,3212414,,,,,,,2024-09-10,1,,,,,エヌエフシー,0
1701,7060003005240,新規,0,2024-09-10,2024-09-10,合同会社ＡＮ産業,,合同会社,栃木県,大田原市,富士見１丁目３８８１番地３９,,09,210,3240028,,,,,,,2024-09-10,1,,,,,エイエヌサンギョウ,0
1706,7080101024999,新規,0,2024-09-10,2024-09-10,ＯＮＥ　ＳＵＣＣＥＳＳ株式会社,,株式会社,静岡県,富士市,米之宮町１５９番地サーパス米之宮８０４号,,22,210,4160951,,,,,,,2024-09-10,1,,,,,ワンサクセス,0
1708,7080401027438,新規,0,2024-09-10,2024-09-10,株式会社Ｐｌｏｕｔｏｓ,,株式会社,静岡県,浜松市中央区,小池町２３５３番地の１,,22,138,4350056,,,,,,,2024-09-10,1,,,,,プルートス,0
1710,7090001018893,新規,0,2024-09-10,2024-09-10,株式会社Ｆｕｕｕｕ　ｃｏｍｐａｎｙ,,株式会社,山梨県,甲府市,北新２丁目６－１,,19,201,4000005,,,,,,,2024-09-10,1,,,,,フゥカンパニー,0
1718,7110003005516,新規,0,2024-09-10,2024-09-10,ＭＦＩ合同会社,,合同会社,新潟県,新潟市西区,五十嵐１の町６３６８番地８７７,,15,107,9502101,,,,,,,2024-09-10,1,,,,,エムエフアイ,0
1724,7120001268361,新規,0,2024-09-10,2024-09-10,株式会社ＴＷＯ,,株式会社,大阪府,大阪市浪速区,恵美須東３丁目６番１号新世界ＭＤビルＩＩ,00136242,27,111,5560002,,,,,,,2024-09-10,1,,,,,ツー,0
1725,7120001268469,新規,0,2024-09-10,2024-09-10,株式会社Ａｒｚｔ,,株式会社,大阪府,大阪市天王寺区,玉造本町９番６号,,27,109,5430013,,,,,,,2024-09-10,1,,,,,アルツト,0
1726,7120001268493,新規,0,2024-09-10,2024-09-10,和歌山華聯旅行社株式会社,,株式会社,大阪府,大阪市城東区,鴫野西２丁目５番５－３１７号,,27,118,5360014,,,,,,,2024-09-10,1,,,,,ワカヤマカレンリョコウシャ,0
1730,7120101070270,新規,0,2024-09-10,2024-09-10,株式会社モリタ,,株式会社,大阪府,松原市,天美我堂５丁目２番１８号,,27,217,5800026,,,,,,,2024-09-10,1,,,,,モリタ,0
1736,7120901049753,新規,0,2024-09-10,2024-09-10,株式会社ＫＳ技研,,株式会社,大阪府,豊中市,小曽根４丁目８番１５号,,27,203,5610813,,,,,,,2024-09-10,1,,,,,ケイエスギケン,0
1737,7120903005333,新規,0,2024-09-10,2024-09-10,ニュースネットワーク報道合同会社,,合同会社,大阪府,豊中市,刀根山４丁目７－７４,,27,203,5600045,,,,,,,2024-09-10,1,,,,,ニュースネットワークホウドウ,0
1749,7140003021056,新規,0,2024-09-10,2024-09-10,合同会社ＲＵＵＴＳＵ,,合同会社,兵庫県,姫路市,下手野４丁目５８８－９５,,28,201,6700063,,,,,,,2024-09-10,1,,,,,ルーツ,0
1750,7140003021072,新規,0,2024-09-10,2024-09-10,合同会社タマコシ,,合同会社,兵庫県,姫路市,林田町林谷６９６番地７３,,28,201,6794221,,,,,,,2024-09-10,1,,,,,タマコシ,0
1763,7180301039036,新規,0,2024-09-10,2024-09-10,株式会社Ｍｅｌｓ,,株式会社,愛知県,刈谷市,東境町上野６９番地７,,23,210,4480007,,,,,,,2024-09-10,1,,,,,メルス,0
1774,7220001026189,新規,0,2024-09-10,2024-09-10,株式会社ＣＯＬＯＲＳ,,株式会社,石川県,金沢市,保古１丁目４３,,17,201,9218052,,,,,,,2024-09-10,1,,,,,カラーズ,0
1777,7240001063791,新規,0,2024-09-10,2024-09-10,株式会社ＥＣＬＡＴ,,株式会社,広島県,広島市安佐北区,深川２丁目１７番５－３０１号,,34,106,7391751,,,,,,,2024-09-10,1,,,,,エクラ,0
1780,7260003004882,新規,0,2024-09-10,2024-09-10,合同会社Ｒｉｔｚ　Ｇａｒｄｅｎ,,合同会社,岡山県,岡山市北区,今６丁目１番２号,,33,101,7000975,,,,,,,2024-09-10,1,,,,,リッツガーデン,0
1786,7290001107148,新規,0,2024-09-10,2024-09-10,株式会社ヒロコーポレーション,,株式会社,福岡県,福岡市博多区,麦野３丁目１６番２９号,,40,132,8120882,,,,,,,2024-09-10,1,,,,,,0
1787,7290001107206,新規,0,2024-09-10,2024-09-10,株式会社Ｈｏｍｅ　Ｌａｂｏ,,株式会社,福岡県,福岡市早良区,脇山１丁目２－６,,40,137,8111111,,,,,,,2024-09-10,1,,,,,ホームラボ,0
1788,7290001107239,新規,0,2024-09-10,2024-09-10,株式会社祐栄電設,,株式会社,福岡県,福岡市博多区,祇園町８－１２,,40,132,8120038,,,,,,,2024-09-10,1,,,,,ユウエイデンセツ,0
1792,7290003015778,新規,0,2024-09-10,2024-09-10,フロムステージ合同会社,,合同会社,福岡県,福岡市東区,香住ヶ丘５丁目１９番１２号,,40,131,8130003,,,,,,,2024-09-10,1,,,,,フロムステージ,0
1793,7290003015794,新規,0,2024-09-10,2024-09-10,エス・アールジャパン合同会社,,合同会社,福岡県,福岡市博多区,板付３丁目２５番８０９号,,40,132,8120888,,,,,,,2024-09-10,1,,,,,エスアールジャパン,0
1795,7290801030870,新規,0,2024-09-10,2024-09-10,株式会社桜心,,株式会社,福岡県,宮若市,宮田２１５番地４,,40,226,8230011,,,,,,,2024-09-10,1,,,,,オウシン,0
1810,7430001092664,新規,0,2024-09-10,2024-09-10,株式会社ＪＭＣ,,株式会社,北海道,札幌市白石区,北郷五条８丁目８番１号,,01,104,0030835,,,,,,,2024-09-10,1,,,,,ジェイエムシー,0
1822,7700150127086,新規,0,2024-09-10,2024-09-10,Ｎａｇｅｓｗｏｒｉ　Ｃｒｅａｔｉｏｎ,,外国会社等,東京都,立川市,高松町３丁目１８番１９号コーポヤジマ３０１号,,13,202,1900011,ネパール国、バグマティ州、カトマンズ郡、カトマンズ市、第２６区、ゴンガブ,,,,,,2024-09-10,1,,,,,ナゲソリクリエーシヨン,0
1823,7700150127094,新規,0,2024-09-10,2024-09-10,ｙａｎｇｚｈｏｕｍａｏｙｕｎｄｉａｎｚｉｓｈａｎｇｗｕｙｏｕｘｉａｎｇｏｎｇｓｉ,,外国会社等,,,,,,,,ｈａｎｊｉａｎｇｑｕｈｕａｉｓｉｚｈｅｎｊｕｆｕｓｈｅｑｕ５７ｚｈｕａｎｇ－３０８ｙａｎｇｚｈｏｕｓｈｉ,,,,,,2024-09-10,1,,,,,ヤンゾウマオユンデンシショウムユウゲンコウシ,0
1827,8010001248126,新規,0,2024-09-10,2024-09-10,ヒナゴ株式会社,,株式会社,東京都,中央区,日本橋茅場町２丁目１２番１０号ＰＭＯＥＸ日本橋茅場町１２階,,13,102,1030025,,,,,,,2024-09-10,1,,,,,ヒナゴ,0
1830,8010005038770,新規,0,2024-09-10,2024-09-10,弁護士法人ギャンビット,,その他の設立登記法人,東京都,中央区,築地１丁目９番５号,,13,102,1040045,,,,,,,2024-09-10,1,,,,,ギャンビット,0
1839,8010401185002,新規,0,2024-09-10,2024-09-10,株式会社プロシス・ピーエム,,株式会社,東京都,港区,三田１丁目４－２８三田国際ビル１３階,,13,103,1080073,,,,,,,2024-09-10,1,,,,,プロシスピーエム,0
1840,8010403033398,新規,0,2024-09-10,2024-09-10,Ｓｋｙｗａｌｋｅｒ‐Ｉ合同会社,,合同会社,東京都,港区,虎ノ門１丁目２番３号虎ノ門清和ビル５階,,13,103,1050001,,,,,,,2024-09-10,1,,,,,スカイウォーカーワン,0
1846,8010603010932,新規,0,2024-09-10,2024-09-10,合同会社ｐａｎａｃｅａ,,合同会社,東京都,江東区,永代１丁目１３－５ハーモニーレジデンス門前仲町１００５,,13,108,1350034,,,,,,,2024-09-10,1,,,,,パナケイヤ,0
1847,8010701046507,新規,0,2024-09-10,2024-09-10,株式会社ＳＴＯＮＥ　ＰＲＯＤＵＣＴＩＯＮ,,株式会社,東京都,品川区,中延６丁目２番１７号ミッド・スプレッド１０１,,13,109,1420053,,,,,,,2024-09-10,1,,,,,ストーンプロダクション,0
1848,8010701046523,新規,0,2024-09-10,2024-09-10,株式会社Ｌｉｖｅｌｙ　Ｒｅｖｅｌｒｙ,,株式会社,東京都,品川区,上大崎２丁目１７番４号美都ビル２階,,13,109,1410021,,,,,,,2024-09-10,1,,,,,リベリレベリ,0
1849,8010701046531,新規,0,2024-09-10,2024-09-10,ＳＰＶ２０ｓｏｌａｒ株式会社,,株式会社,東京都,品川区,北品川１丁目１６番１号舟正ビル２階,,13,109,1400001,,,,,,,2024-09-10,1,,,,,エスピーブイニジュウソーラー,0
1851,8010801035384,新規,0,2024-09-10,2024-09-10,Ｌｅｇａｌ　Ａｇｅｎｔ株式会社,,株式会社,東京都,大田区,西馬込１丁目２番１５号,,13,111,1430026,,,,,,,2024-09-10,1,,,,,リーガルエージェント,0
1860,8011001164585,新規,0,2024-09-10,2024-09-10,株式会社Ｎファクトリー,,株式会社,東京都,渋谷区,神宮前５丁目４７番８号,,13,113,1500001,,,,,,,2024-09-10,1,,,,,エヌファクトリー,0
1861,8011001164602,新規,0,2024-09-10,2024-09-10,株式会社ＹＩＨ,,株式会社,東京都,目黒区,緑が丘２丁目２０番３号,,13,110,1520034,,,,,,,2024-09-10,1,,,,,ワイアイエイチ,0
1863,8011003019969,新規,0,2024-09-10,2024-09-10,Ｃａｒ　Ｄｅｓｉｇｎ　Ａｃａｄｅｍｙ合同会社,,合同会社,東京都,渋谷区,桜丘町２６番１号セルリアンタワー１５階,,13,113,1500031,,,,,,,2024-09-10,1,,,,,カーデザインアカデミー,0
1867,8011105011147,新規,0,2024-09-10,2024-09-10,医療法人社団西東会,,その他の設立登記法人,東京都,新宿区,下落合４丁目２５番１３号リビオレゾン目白通り１０２,,13,104,1610033,,,,,,,2024-09-10,1,,,,,ニシヒガシカイ,0
1873,8011403004496,新規,0,2024-09-10,2024-09-10,ＵＮＩＱＵＥ合同会社,,合同会社,東京都,板橋区,舟渡１丁目７番１２号クレドハウス舟渡Ｂ棟１２号室,,13,119,1740041,,,,,,,2024-09-10,1,,,,,ユニーク,0
1876,8011605002604,新規,0,2024-09-10,2024-09-10,医療法人社団ＭＡＥ,,その他の設立登記法人,東京都,練馬区,田柄３丁目１３番２０号１階,,13,120,1790073,,,,,,,2024-09-10,1,,,,,エムエーイー,0
1887,8020001159033,新規,0,2024-09-10,2024-09-10,株式会社Ｍ．Ｉ．Ｈ,,株式会社,神奈川県,横浜市中区,桜木町１丁目１０１番地１クロスゲート７階,,14,104,2310062,,,,,,,2024-09-10,1,,,,,エムアイエイチ,0
1888,8020001159082,新規,0,2024-09-10,2024-09-10,株式会社ジオック,,株式会社,神奈川県,横浜市磯子区,西町１１番８号根岸駅前ビル２Ｆ,,14,107,2350007,,,,,,,2024-09-10,1,,,,,ジオック,0
1892,8020003026842,新規,0,2024-09-10,2024-09-10,ＨＡＤＩ　ＡＵＴＯ合同会社,,合同会社,神奈川県,横浜市旭区,今宿南町２０３９番地ベルハイツ今宿Ａ１０１,,14,112,2410034,,,,,,,2024-09-10,1,,,,,ハディオート,0
1895,8020005016536,新規,0,2024-09-10,2024-09-10,一般社団法人シーズンズ,,その他の設立登記法人,神奈川県,横浜市港北区,新横浜２丁目４番地１７新横浜千歳観光第２ビル７階,,14,109,2220033,,,,,,,2024-09-10,1,,,,,シーズンズ,0
1897,8021001083198,新規,0,2024-09-10,2024-09-10,株式会社神戸貿易,,株式会社,神奈川県,厚木市,妻田東２丁目７－４,,14,212,2430813,,,,,,,2024-09-10,1,,,,,コウベボウエキ,0
1898,8021001083207,新規,0,2024-09-10,2024-09-10,株式会社ＨＫ,,株式会社,神奈川県,愛甲郡愛川町,半原４１７７番地,,14,401,2430307,,,,,,,2024-09-10,1,,,,,エイチケー,0
1906,8030001162151,新規,0,2024-09-10,2024-09-10,ＧＯＯＤ　ＫＮＩＧＨＴ株式会社,,株式会社,埼玉県,朝霞市,本町１丁目６番６号３０１号室,,11,227,3510011,,,,,,,2024-09-10,1,,,,,グッドナイト,0
1907,8030001162275,新規,0,2024-09-10,2024-09-10,ＫＩＮＧＲｅＧ株式会社,,株式会社,埼玉県,川口市,大字里９５８番地の１コンフォール西鳩ヶ谷１－５０７号,,11,203,3340005,,,,,,,2024-09-10,1,,,,,キングリグ,0
1908,8030001162399,新規,0,2024-09-10,2024-09-10,株式会社一二一,,株式会社,埼玉県,さいたま市見沼区,島町１丁目３－８,,11,104,3370006,,,,,,,2024-09-10,1,,,,,イチニイチ,0
1927,8040001135354,新規,0,2024-09-10,2024-09-10,株式会社弥栄,,株式会社,千葉県,市川市,本北方２丁目３番,,12,203,2720816,,,,,,,2024-09-10,1,,,,,イヤサカ,0
1928,8040001135362,新規,0,2024-09-10,2024-09-10,株式会社ことな,,株式会社,千葉県,千葉市若葉区,桜木北２丁目２６番５３号,,12,104,2640029,,,,,,,2024-09-10,1,,,,,コトナ,0
1930,8040003025768,新規,0,2024-09-10,2024-09-10,合同会社Ｄ　ｍｉｎｅ,,合同会社,千葉県,船橋市,薬円台１丁目２２番３９号,,12,204,2740077,,,,,,,2024-09-10,1,,,,,ディーマイン,0
1935,8060001037474,新規,0,2024-09-10,2024-09-10,株式会社双葉,,株式会社,栃木県,宇都宮市,西の宮２丁目３番３５号,,09,201,3200064,,,,,,,2024-09-10,1,,,,,フタバ,0
1939,8080101024998,新規,0,2024-09-10,2024-09-10,興盛株式会社,,株式会社,静岡県,富士市,八代町８－１７,,22,210,4170024,,,,,,,2024-09-10,1,,,,,,0
1944,8080401027437,新規,0,2024-09-10,2024-09-10,株式会社ＡＲＡＴＡ,,株式会社,静岡県,浜松市中央区,天王町１６３３番地の３,,22,138,4350052,,,,,,,2024-09-10,1,,,,,アラタ,0
1945,8110001038698,新規,0,2024-09-10,2024-09-10,伊藤総建株式会社,,株式会社,新潟県,新発田市,五十公野５００６番地,,15,206,9570021,,,,,,,2024-09-10,1,,,,,イトウソウケン,0
1951,8110003005515,新規,0,2024-09-10,2024-09-10,ローカル合同会社,,合同会社,新潟県,南魚沼郡湯沢町,大字三国２４５－８,,15,461,9496212,,,,,,,2024-09-10,1,,,,,ローカル,0
1960,8120001268352,新規,0,2024-09-10,2024-09-10,Ｆｉｌｌ　Ｄｅｍａｎｄ株式会社,,株式会社,大阪府,大阪市北区,梅田１丁目２番２－１２１２号,,27,127,5300001,,,,,,,2024-09-10,1,,,,,フィルデマンド,0
1961,8120001268360,新規,0,2024-09-10,2024-09-10,株式会社嶺和建設,,株式会社,大阪府,大阪市鶴見区,諸口５丁目浜８－２３,,27,124,5380051,,,,,,,2024-09-10,1,,,,,レイワケンセツ,0
1962,8120001268402,新規,0,2024-09-10,2024-09-10,ＡＣＬインベストメントジャパン株式会社,,株式会社,大阪府,大阪市中央区,常盤町２丁目１番３－２１０１号,,27,128,5400028,,,,,,,2024-09-10,1,,,,,エーシーエルインベストメントジャパン,0
1963,8120001268419,新規,0,2024-09-10,2024-09-10,陽吉株式会社,,株式会社,大阪府,大阪市浪速区,幸町２丁目３番３７号グラン・ピア西道頓９０３号室,,27,111,5560021,,,,,,,2024-09-10,1,,,,,ハルヨシ,0
1966,8120003027483,新規,0,2024-09-10,2024-09-10,慕沐合同会社,,合同会社,大阪府,大阪市西成区,長橋３丁目６番１９号長橋ハイツ２０２号室,,27,122,5570025,,,,,,,2024-09-10,1,,,,,ボモク,0
1967,8120005024529,新規,0,2024-09-10,2024-09-10,特定非営利活動法人ラウハＡｔｏＺ,,その他の設立登記法人,大阪府,大阪市西区,南堀江１丁目１９番７号シエロ南堀江４０２,,27,106,5500015,,,,,,,2024-09-10,1,,,,,ラウハエートゥーゼット,0
1971,8122001038438,新規,0,2024-09-10,2024-09-10,株式会社ストリーム,,株式会社,大阪府,柏原市,法善寺４丁目１０番２５号,,27,221,5820005,,,,,,,2024-09-10,1,,,,,ストリーム,0
1980,8130001077901,新規,0,2024-09-10,2024-09-10,株式会社ＳＥＮＧＡコーポレーション,,株式会社,京都府,京都市南区,上鳥羽南中ノ坪町１１８番地２、１０１号室,,26,107,6018188,,,,,,,2024-09-10,1,,,,,センガコーポレーション,0
1983,8130003009844,新規,0,2024-09-10,2024-09-10,合同会社Ｒ‐Ｔａｋｅエステート,,合同会社,京都府,木津川市,城山台７丁目４１－３,,26,214,6190218,,,,,,,2024-09-10,1,,,,,アールテイクエステート,0
1992,8140003021071,新規,0,2024-09-10,2024-09-10,合同会社ＹＵＡ,,合同会社,兵庫県,姫路市,安富町植木野８６番地,,28,201,6712426,,,,,,,2024-09-10,1,,,,,ユーア,0
1994,8160003003282,新規,0,2024-09-10,2024-09-10,合同会社Ｖａｒｉ　Ｆｉｏｒｉ,,合同会社,滋賀県,栗東市,御園４２８－２,,25,208,5203005,,,,,,,2024-09-10,1,,,,,ヴァリフィオリ,0
2023,8290001107205,新規,0,2024-09-10,2024-09-10,ＥＭＰＡＴＹ株式会社,,株式会社,福岡県,福岡市中央区,大名２丁目６－５０福岡大名ガーデンシティ８階,,40,133,8100041,,,,,,,2024-09-10,1,,,,,エンパティー,0
2030,8320003004470,新規,0,2024-09-10,2024-09-10,ＡＮＤテック合同会社,,合同会社,大分県,大分市,明野北５丁目１番２４－３０２号,,44,201,8700165,,,,,,,2024-09-10,1,,,,,アンドテック,0
2036,8340001026795,新規,0,2024-09-10,2024-09-10,株式会社ライジングスポーツ,,株式会社,鹿児島県,鹿児島市,上之園町４番地１６ＬａｐｉｓＵｅｎｏｓｏｎｏ１０１号室,,46,201,8900052,,,,,,,2024-09-10,1,,,,,ライジングスポーツ,0
2041,8360001034185,新規,0,2024-09-10,2024-09-10,株式会社ラフマット,,株式会社,沖縄県,那覇市,泊２丁目１－１０,,47,201,9000012,,,,,,,2024-09-10,1,,,,,ラフマット,0
2043,8360003014284,新規,0,2024-09-10,2024-09-10,合同会社翡翠ＯＣＥＡＮ,,合同会社,沖縄県,那覇市,字国場１１６３番地１４号,,47,201,9020075,,,,,,,2024-09-10,1,,,,,ヒスイオーシャン,0
2059,8430001092647,新規,0,2024-09-10,2024-09-10,ロイヤル札幌株式会社,,株式会社,北海道,札幌市手稲区,新発寒四条６丁目１１番２１号,,01,109,0060804,,,,,,,2024-09-10,1,,,,,ロイヤルサッポロ,0
2060,8450003002536,新規,0,2024-09-10,2024-09-10,合同会社いのししうさぎ,,合同会社,北海道,中川郡音威子府村,字音威子府５１１‐６,,01,470,0982501,,,,,,,2024-09-10,1,,,,,イノシシウサギ,0
2063,8470001020372,新規,0,2024-09-10,2024-09-10,株式会社Ｒｉｓｈｉｔ,,株式会社,香川県,高松市,三名町４７０番地４,,37,201,7618083,,,,,,,2024-09-10,1,,,,,リシット,0
2065,8490001010867,新規,0,2024-09-10,2024-09-10,株式会社クレストプロパティ,,株式会社,高知県,土佐市,北地２７１９番地,,39,205,7811111,,,,,,,2024-09-10,1,,,,,クレストプロパティ,0
2066,8490003001930,新規,0,2024-09-10,2024-09-10,合同会社Ｋ,,合同会社,高知県,高知市,本町３丁目６－３７かわさき予備校ビル４Ｆ,,39,201,7800870,,,,,,,2024-09-10,1,,,,,ケー,0
2073,8700150127085,新規,0,2024-09-10,2024-09-10,６６シーピーエス・ジャパン・エルエルシー,,外国会社等,東京都,千代田区,丸の内２丁目１番１号明治安田生命ビル２１階,,13,101,1000005,アメリカ合衆国デラウエア州ウィルミントン、オレンジ・ストリート１２０９、ナショナル・レジスタード・エージェント・インク内,,,,,,2024-09-10,1,,,,,シツクステイーシツクスシーピーエスジヤパンエルエルシー,0
2074,8700150127093,新規,0,2024-09-10,2024-09-10,ｓｈｅｎ　ｚｈｅｎ　ｓｈｉ　ｈｕａｉ　ｔｉｎｇ　ｋｅ　ｊｉ　ｙｏｕ　ｘｉａｎ　ｇｏｎｇ　ｓｉ,,外国会社等,,,,,,,,ｓｈｅｎ　ｚｈｅｎ　ｓｈｉ　ｂａｏ　ａｎ　ｑｕ　ｘｉ　ｘｉａｎｇ　ｊｉｅ　ｄａｏ　ｇｕ　ｘｉｎｇ　ｓｈｅ　ｑｕ　ｘｉｎ　ｆａ　ｃｈａｎｇ　１　ｈａｏ　Ｂ３０１,,,,,,2024-09-10,1,,,,,シンセンシフアイティンカギユウゲンコウシ,0
2075,8700150127102,新規,0,2024-09-10,2024-09-10,地縁団体　木裏原区,,その他,長野県,伊那市,東春近１０７４６－４３,,20,209,3994432,,,,,,,2024-09-10,1,,,,,チエンダンタイキウラハラク,0
2092,9010001248133,新規,0,2024-09-10,2024-09-10,株式会社エスパイヤー,,株式会社,東京都,千代田区,神田和泉町１番地６－１６ヤマトビル４０５,,13,101,1010024,,,,,,,2024-09-10,1,,,,,エスパイヤー,0
2093,9010001248174,新規,0,2024-09-10,2024-09-10,菱屋中久株式会社,,株式会社,東京都,文京区,本郷５丁目２９番１２－７０１号,,13,105,1130033,,,,,,,2024-09-10,1,,,,,ヒシヤナカキュウ,0
2094,9010001248208,新規,0,2024-09-10,2024-09-10,アルゴスターシップ株式会社,,株式会社,東京都,文京区,本郷４丁目３０番１６号,,13,105,1130033,,,,,,,2024-09-10,1,,,,,アルゴスターシップ,0
2095,9010005038778,新規,0,2024-09-10,2024-09-10,一般社団法人全国４７都道府県に赤ちゃんポストを広める会,,その他の設立登記法人,東京都,中央区,銀座１丁目２２番１１号銀座大竹ビジデンス２階,,13,102,1040061,,,,,,,2024-09-10,1,,,,,,0
2096,9010005038786,新規,0,2024-09-10,2024-09-10,一般社団法人稲庭,,その他の設立登記法人,東京都,千代田区,永田町２丁目１１番１号山王パークタワー２１階,,13,101,1000014,,,,,,,2024-09-10,1,,,,,イナニワ,0
2104,9010403033397,新規,0,2024-09-10,2024-09-10,合同会社Ａｎａｍｎｅｓｅ,,合同会社,東京都,港区,六本木２丁目３－６セントラルクリブ六本木ＩＩ２０１号室,,13,103,1060032,,,,,,,2024-09-10,1,,,,,アナムネーゼ,0
2106,9010405023520,新規,0,2024-09-10,2024-09-10,一般社団法人ＡＩ未来健診センター,,その他の設立登記法人,東京都,港区,北青山３丁目２番２号ＡＹビル７階,,13,103,1070061,,,,,,,2024-09-10,1,,,,,エーアイミライケンシンセンター,0
2107,9010405023561,新規,0,2024-09-10,2024-09-10,Ｈｕｇｏ１一般社団法人,,その他の設立登記法人,東京都,港区,虎ノ門３丁目２２番１０－２０１号,,13,103,1050001,,,,,,,2024-09-10,1,,,,,ヒューゴーワン,0
2110,9010601065894,新規,0,2024-09-10,2024-09-10,株式会社ＲＡＵＬＥＡ,,株式会社,東京都,江東区,有明２丁目１番２－２１２号,,13,108,1350063,,,,,,,2024-09-10,1,,,,,ラウレア,0
2112,9010603011070,新規,0,2024-09-10,2024-09-10,レッセフェール合同会社,,合同会社,東京都,江東区,東雲１丁目９番１８－６１６号,,13,108,1350062,,,,,,,2024-09-10,1,,,,,レッセフェール,0
2114,9010701046514,新規,0,2024-09-10,2024-09-10,株式会社ＭＥＫＡＢＵ,,株式会社,東京都,品川区,西大井１丁目１－２Ｊタワー西大井イーストタワー２Ｆ,,13,109,1400015,,,,,,,2024-09-10,1,,,,,メカブ,0
2115,9010701046530,新規,0,2024-09-10,2024-09-10,ＳＰＶ１９Ｓｏｌａｒ株式会社,,株式会社,東京都,品川区,北品川１丁目１６番１号舟正ビル２階,,13,109,1400001,,,,,,,2024-09-10,1,,,,,エスピーブイジュウキュウソーラー,0
2117,9010805003130,新規,0,2024-09-10,2024-09-10,石川台ハイライズ管理組合法人,,その他の設立登記法人,東京都,大田区,南雪谷１丁目１番１号,,13,111,1450066,,,,,,,2024-09-10,1,,,,,イシカワダイハイライズ,0
2121,9010901055959,新規,0,2024-09-10,2024-09-10,株式会社ギャンモジャパン,,株式会社,東京都,世田谷区,用賀３丁目１５番１１号東急ドエルアルス用賀３丁目２０１号室,,13,112,1580097,,,,,,,2024-09-10,1,,,,,ギャンモジャパン,0
2126,9011001164213,新規,0,2024-09-10,2024-09-10,株式会社ＳｕｒｇｅＸ,,株式会社,東京都,渋谷区,道玄坂１丁目１０番８号渋谷道玄坂東急ビル２Ｆ－Ｃ,,13,113,1500043,,,,,,,2024-09-10,1,,,,,サージエックス,0
2127,9011001164394,新規,0,2024-09-10,2024-09-10,株式会社スカイゲートウェイ,,株式会社,東京都,渋谷区,神宮前６丁目２３番４号桑野ビル２階,,13,113,1500001,,,,,,,2024-09-10,1,,,,,スカイゲートウェイ,0
2128,9011001164428,新規,0,2024-09-10,2024-09-10,株式会社ＣＩＮＡＣＡ,,株式会社,東京都,渋谷区,神泉町１０－１５－３０１,,13,113,1500045,,,,,,,2024-09-10,1,,,,,シナカ,0
2129,9011001164576,新規,0,2024-09-10,2024-09-10,明展大通株式会社,,株式会社,東京都,渋谷区,道玄坂１丁目１０番８号渋谷道玄坂東急ビル２Ｆ―Ｃ,,13,113,1500043,,,,,,,2024-09-10,1,,,,,メイテンオオドオリ,0
2131,9011003019902,新規,0,2024-09-10,2024-09-10,合同会社豊房,,合同会社,東京都,渋谷区,神宮前６丁目２８番５号,,13,113,1500001,,,,,,,2024-09-10,1,,,,,ホウボウ,0
2132,9011003019935,新規,0,2024-09-10,2024-09-10,ｏｆｆｉｃｅＴ＆Ｋ合同会社,,合同会社,東京都,渋谷区,本町２丁目２９－１０、２０１号室,,13,113,1510071,,,,,,,2024-09-10,1,,,,,オフィスティーアンドケー,0
2138,9011101108697,新規,0,2024-09-10,2024-09-10,彩食健美株式会社,,株式会社,東京都,新宿区,西落合３丁目２番２号フラワーマンション１階,,13,104,1610031,,,,,,,2024-09-10,1,,,,,サイショクケンビ,0
2140,9011201025776,新規,0,2024-09-10,2024-09-10,株式会社ＬＣ,,株式会社,東京都,中野区,白鷺２丁目４番１０号,,13,114,1650035,,,,,,,2024-09-10,1,,,,,エルシー,0
2148,9011601028040,新規,0,2024-09-10,2024-09-10,株式会社ボヌール,,株式会社,東京都,練馬区,石神井町５丁目２番１０号,,13,120,1770041,,,,,,,2024-09-10,1,,,,,ボヌール,0
2150,9011605002603,新規,0,2024-09-10,2024-09-10,医療法人社団愛聖会,,その他の設立登記法人,東京都,練馬区,豊玉北５丁目２２番６号２階,,13,120,1760012,,,,,,,2024-09-10,1,,,,,アイセイカイ,0
2151,9012401042272,新規,0,2024-09-10,2024-09-10,株式会社ｃｏｃｏ　ｐａｒｔｎｅｒｓ,,株式会社,東京都,調布市,仙川町３丁目１０番地９シティハウス仙川ステーションコート８０３号室,,13,208,1820002,,,,,,,2024-09-10,1,,,,,ココパートナーズ,0
2152,9012703003088,新規,0,2024-09-10,2024-09-10,合同会社ＴＵＢＯＩ,,合同会社,東京都,西東京市,新町１丁目４番３－２０７号,,13,229,2020023,,,,,,,2024-09-10,1,,,,,ツボイ,0
2153,9012805003291,新規,0,2024-09-10,2024-09-10,医療法人社団ｎｉｃｏｎｉｃｏ,,その他の設立登記法人,東京都,国立市,中１丁目１７番地２６振興第２ビル２階２０２号室,,13,215,1860004,,,,,,,2024-09-10,1,,,,,シャダンニコニコ,0
2165,9020001159065,新規,0,2024-09-10,2024-09-10,株式会社ｍｉｎｉｍｅｒ,,株式会社,神奈川県,川崎市麻生区,百合丘１丁目４番２５号ジャルダンＣ棟,,14,137,2150011,,,,,,,2024-09-10,1,,,,,ミニメル,0
2166,9020001159148,新規,0,2024-09-10,2024-09-10,株式会社フェーリーケースエステ,,株式会社,神奈川県,横浜市中区,桜木町１丁目１０１番地１クロスゲート７階,,14,104,2310062,,,,,,,2024-09-10,1,,,,,フェーリーケースエステ,0
2167,9020003026858,新規,0,2024-09-10,2024-09-10,合同会社ＮＳＫ,,合同会社,神奈川県,横浜市南区,井土ケ谷中町２７番地２クリオ弘明寺桜通り壱番館６０６号,,14,105,2320052,,,,,,,2024-09-10,1,,,,,エヌエスケー,0
2168,9020003026866,新規,0,2024-09-10,2024-09-10,カミーズ合同会社,,合同会社,神奈川県,横浜市都筑区,仲町台４丁目１１番１号,,14,118,2240041,,,,,,,2024-09-10,1,,,,,カミーズ,0
2169,9020003026890,新規,0,2024-09-10,2024-09-10,合同会社Ｓｋｙ４ａｌｌ,,合同会社,神奈川県,横浜市青葉区,奈良２丁目２６番地７,,14,117,2270038,,,,,,,2024-09-10,1,,,,,スカイフォオール,0
2174,9021001083214,新規,0,2024-09-10,2024-09-10,株式会社ひまわり,,株式会社,神奈川県,相模原市中央区,清新２丁目１３番７号,,14,152,2520216,,,,,,,2024-09-10,1,,,,,ヒマワリ,0
2175,9021003014992,新規,0,2024-09-10,2024-09-10,合同会社イール,,合同会社,神奈川県,茅ヶ崎市,南湖４丁目４番４５－９号,,14,207,2530061,,,,,,,2024-09-10,1,,,,,イール,0
2176,9021003015000,新規,0,2024-09-10,2024-09-10,Ｆｒｅｅ　Ｗｏｒｌｄ合同会社,,合同会社,神奈川県,相模原市南区,南台５丁目１８番８号,,14,153,2520314,,,,,,,2024-09-10,1,,,,,フリーワールド,0
2181,9030001162381,新規,0,2024-09-10,2024-09-10,株式会社香取コーポレーション,,株式会社,埼玉県,鴻巣市,吹上本町４丁目１１番５号,,11,217,3690115,,,,,,,2024-09-10,1,,,,,カトリコーポレーション,0
2182,9030001162407,新規,0,2024-09-10,2024-09-10,株式会社細井電気工事,,株式会社,埼玉県,白岡市,白岡１０９７番地２,,11,246,3490218,,,,,,,2024-09-10,1,,,,,ホソイデンキコウジ,0
2183,9030001162431,新規,0,2024-09-10,2024-09-10,ＲＴ　ＡＵＴＯ株式会社,,株式会社,埼玉県,草加市,旭町６丁目１０番２１号,,11,221,3400053,,,,,,,2024-09-10,1,,,,,アールティーオウト,0
2190,9040001135320,新規,0,2024-09-10,2024-09-10,株式会社ａｒｃｓ,,株式会社,千葉県,浦安市,高洲１丁目１６番１０－２号,,12,227,2790023,,,,,,,2024-09-10,1,,,,,アークス,0
2199,9060001037481,新規,0,2024-09-10,2024-09-10,株式会社美琳,,株式会社,栃木県,宇都宮市,江曽島本町１２番６号,,09,201,3210101,,,,,,,2024-09-10,1,,,,,ビリン,0
2204,9080103003140,新規,0,2024-09-10,2024-09-10,合同会社東雲相談支援事業所,,合同会社,静岡県,富士市,厚原１５１７番地の８ココハウス２０２号室,,22,210,4190201,,,,,,,2024-09-10,1,,,,,シノノメソウダンシエンジギョウショ,0
2205,9080401027436,新規,0,2024-09-10,2024-09-10,株式会社呉竹荘ホールディングス,,株式会社,静岡県,浜松市中央区,東伊場１丁目１番２６号,,22,138,4328036,,,,,,,2024-09-10,1,,,,,クレタケソウホールディングス,0
2207,9090001018900,新規,0,2024-09-10,2024-09-10,Ｎｅｘｔ　Ｌｉｎｋ株式会社,,株式会社,山梨県,甲府市,大里町２５８６番地２,,19,201,4000053,,,,,,,2024-09-10,1,,,,,ネクストリンク,0
2209,9100001037849,新規,0,2024-09-10,2024-09-10,株式会社コントラディスト,,株式会社,長野県,長野市,神明１,,20,201,3888020,,,,,,,2024-09-10,1,,,,,コントラディスト,0
2212,9110003005514,新規,0,2024-09-10,2024-09-10,Ｂｌｕｅｂｉｒｄ　Ｒｅｎｔａｌｓ合同会社,,合同会社,新潟県,妙高市,大字樽本１１０１－１１,00136251,15,217,9492223,,,,,,,2024-09-10,1,,,,,ブルーバードレンタル,0
2217,9120001268310,新規,0,2024-09-10,2024-09-10,株式会社ファースト・ステップ,,株式会社,大阪府,枚方市,招提中町１丁目６番２号,,27,210,5731152,,,,,,,2024-09-10,1,,,,,ファーストステップ,0
2218,9120001268401,新規,0,2024-09-10,2024-09-10,株式会社オンワド,,株式会社,大阪府,大阪市西成区,鶴見橋１丁目１７番３９号,,27,122,5570031,,,,,,,2024-09-10,1,,,,,オンワド,0
2219,9120001268450,新規,0,2024-09-10,2024-09-10,株式会社Ｌｏｖｅ＆Ｐｅａｃｅ,,株式会社,大阪府,大阪市北区,豊崎３丁目１６番１６－２０１４号,,27,127,5310072,,,,,,,2024-09-10,1,,,,,ラブアンドピース,0
2224,9120003027499,新規,0,2024-09-10,2024-09-10,合同会社ＡＳコンサルティング,,合同会社,大阪府,大阪市中央区,南船場３丁目２番２２号おおきに南船場ビル２０５,,27,128,5420081,,,,,,,2024-09-10,1,,,,,エーエスコンサルティング,0
2230,9130001077917,新規,0,2024-09-10,2024-09-10,株式会社エータ,,株式会社,京都府,京都市中京区,東生洲町４８１番地,,26,104,6040922,,,,,,,2024-09-10,1,,,,,エータ,0
2234,9140003021070,新規,0,2024-09-10,2024-09-10,合同会社Ｗｉｓｈ,,合同会社,兵庫県,川西市,清流台７番１７号,,28,217,6660158,,,,,,,2024-09-10,1,,,,,ウィッシュ,0
2235,9150003003365,新規,0,2024-09-10,2024-09-10,合同会社海人,,合同会社,奈良県,大和郡山市,小泉町５５０番地１,,29,203,6391042,,,,,,,2024-09-10,1,,,,,ウミンチュ,0
2248,9180301039042,新規,0,2024-09-10,2024-09-10,株式会社ＰＯＳＴ九久下山サービス,,株式会社,愛知県,豊田市,鍋田町島畑１７番地１,,23,211,4442205,,,,,,,2024-09-10,1,,,,,ポストクギュウシモヤマサービス,0
2252,9190001031620,新規,0,2024-09-10,2024-09-10,株式会社美龍建設,,株式会社,三重県,伊勢市,一色町１５３０番地,,24,203,5160011,,,,,,,2024-09-10,1,,,,,ヨシタツケンセツ,0
2253,9190001031629,新規,0,2024-09-10,2024-09-10,荒木塗装株式会社,,株式会社,三重県,尾鷲市,矢浜１丁目９番２４号,,24,209,5193671,,,,,,,2024-09-10,1,,,,,アラキトソウ,0
2261,9200001042913,新規,0,2024-09-10,2024-09-10,Ｇ５アーキ株式会社,,株式会社,岐阜県,岐阜市,長良古津４７１番地,,21,201,5020011,,,,,,,2024-09-10,1,,,,,ジーファイブアーキ,0
2262,9200001042921,新規,0,2024-09-10,2024-09-10,株式会社一縷ホールディングス,,株式会社,岐阜県,関市,向山町１丁目６番１号,,21,205,5013933,,,,,,,2024-09-10,1,,,,,イチルホールディングス,0
2268,9230003002284,新規,0,2024-09-10,2024-09-10,合同会社ラピス,,合同会社,富山県,富山市,一本木１０８番地１アンベルジュ２０２号,,16,201,9300904,,,,,,,2024-09-10,1,,,,,ラピス,0
2271,9240001063781,新規,0,2024-09-10,2024-09-10,旭商事株式会社,,株式会社,広島県,広島市中区,十日市町２丁目１番２５号９０５室,,34,101,7300805,,,,,,,2024-09-10,1,,,,,アサヒショウジ,0
2272,9240003006846,新規,0,2024-09-10,2024-09-10,合同会社はすざくら,,合同会社,広島県,広島市安佐南区,長束西４丁目４０番２号,,34,105,7310136,,,,,,,2024-09-10,1,,,,,ハスザクラ,0
2273,9250001020807,新規,0,2024-09-10,2024-09-10,株式会社ともよし,,株式会社,山口県,下関市,豊前田町２丁目７番２２号,,35,201,7500018,,,,,,,2024-09-10,1,,,,,トモヨシ,0
2276,9260001039441,新規,0,2024-09-10,2024-09-10,津山中央設備株式会社,,株式会社,岡山県,津山市,北町３７番地２,,33,203,7080021,,,,,,,2024-09-10,1,,,,,ツヤマチュウオウセツビ,0
2279,9280003001884,新規,0,2024-09-10,2024-09-10,合同会社ラベンダーヒルズ上の台,,合同会社,島根県,安来市,伯太町高江寸次８４４番地４,,32,206,6920215,,,,,,,2024-09-10,1,,,,,ラベンダーヒルズウエノダイ,0
2288,9320001020709,新規,0,2024-09-10,2024-09-10,株式会社Ｒｇｒａｂ,,株式会社,大分県,別府市,北浜１丁目４番１３号,,44,202,8740920,,,,,,,2024-09-10,1,,,,,アールグラブ,0
2294,9380005012861,新規,0,2024-09-10,2024-09-10,一般社団法人Ｒｉｚｚ　Ｕｐ,,その他の設立登記法人,福島県,石川郡玉川村,大字川辺字宮ノ前３９９番地の９,,07,502,9636313,,,,,,,2024-09-10,1,,,,,リズアップ,0
2301,9430001092588,新規,0,2024-09-10,2024-09-10,株式会社オフィスピカソ,,株式会社,北海道,札幌市中央区,南二条西５丁目２６番地５ラ・ジェント・ステイ札幌大通２Ｆ,,01,101,0600062,,,,,,,2024-09-10,1,,,,,オフィスピカソ,0
2302,9430001092638,新規,0,2024-09-10,2024-09-10,株式会社ベルーフ,,株式会社,北海道,札幌市南区,簾舞六条１丁目１番７号,,01,106,0612266,,,,,,,2024-09-10,1,,,,,ベルーフ,0
2310,9700150127092,新規,0,2024-09-10,2024-09-10,Ｇｕａｎｇｚｈｏｕ　Ｙｕａｎｊｉｎ　Ｙｅｙａ　Ｓｈｅｂｅｉ　Ｊｉｓｈｕ　Ｆｕｗｕ　Ｃｏ．，Ｌｔｄ．,,外国会社等,,,,,,,,Ｐａｎｙｕ，Ｐｉｎｇｓｈａｎ　Ｓｅｃｏｎｄ　Ｖｉｌｌａｇｅ，Ｓｈｉｂｉ　Ｓｔｒｅｅｔ　Ｒｏｏｍ　３０１，Ｎｏ．４，Ｐｉｎｇｄｕ　Ｒｏａｄ，Ｇｕａｎｇｚｈｏｕ,,,,,,2024-09-10,1,,,,,コウシュウユアンジンイェヤシェベイジシュフウカンパニーリミテッド,0
