sequenceNumber,corporateNumber,process,correct,updateDate,changeDate,name,nameImageId,kind,prefectureName,cityName,streetNumber,addressImageId,prefectureCode,cityCode,postCode,addressOutside,addressOutsideImageId,closeDate,closeCause,successorCorporateNumber,changeCause,assignmentDate,latest,enName,enPrefectureName,enCityName,enAddressOutside,furigana,hihyoji
10,1010001236954,新規,0,2023-07-19,2023-07-19,株式会社ｍｉｎｅｋｏ　ｋａｔｏ,,株式会社,東京都,中央区,八丁堀３丁目１２番８号,,13,102,1040032,,,,,,,2023-07-19,1,,,,,ミネコカトウ,0
12,1010003041106,新規,0,2023-07-19,2023-07-19,Ｗｏｍｅｎｔ合同会社,,合同会社,東京都,中央区,銀座１丁目２２番１１号銀座大竹ビジデンス２Ｆ,,13,102,1040061,,,,,,,2023-07-19,1,,,,,ウォメント,0
13,1010003041147,新規,0,2023-07-19,2023-07-19,合同会社カーチスファンド７号,,合同会社,東京都,千代田区,六番町２番地８番町Ｍビル３Ｆ,,13,101,1020085,,,,,,,2023-07-19,1,,,,,カーチスファンドナナゴウ,0
20,1010601063435,新規,0,2023-07-19,2023-07-19,引一株式会社,,株式会社,東京都,墨田区,吾妻橋３丁目２番１号,,13,107,1300001,,,,,,,2023-07-19,1,,,,,ヒトシ,0
31,1010901053441,新規,0,2023-07-19,2023-07-19,株式会社健康科学リサーチラボ,,株式会社,東京都,世田谷区,玉川台２丁目２４番７－９０５号,,13,112,1580096,,,,,,,2023-07-19,1,,,,,ケンコウカガクリサーチラボ,0
39,1011001155764,新規,0,2023-07-19,2023-07-19,株式会社ＳＴＡＲＳ,,株式会社,東京都,渋谷区,千駄ヶ谷５丁目２７番３号やまとビル８階,,13,113,1510051,,,,,,,2023-07-19,1,,,,,スターズ,0
43,1011003017186,新規,0,2023-07-19,2023-07-19,ＳｃｈｏｌｅＤｅｓｉｇｎ合同会社,,合同会社,東京都,渋谷区,道玄坂１丁目１０番８号渋谷道玄坂東急ビル２Ｆ－Ｃ,,13,113,1500043,,,,,,,2023-07-19,1,,,,,スコレーデザイン,0
44,1011003017211,新規,0,2023-07-19,2023-07-19,ＧＳＫ合同会社,,合同会社,東京都,目黒区,下目黒５丁目１４－１９－２１１ネイバーズ目黒,,13,110,1530064,,,,,,,2023-07-19,1,,,,,ジーエスケー,0
47,1011201024777,新規,0,2023-07-19,2023-07-19,日本驚鴻盛株式会社,,株式会社,東京都,中野区,江古田４丁目２５番３号,,13,114,1650022,,,,,,,2023-07-19,1,,,,,ニホンキョウコウセイ,0
50,1011303004834,新規,0,2023-07-19,2023-07-19,リリレオ合同会社,,合同会社,東京都,杉並区,高円寺南３丁目２３番１１号,,13,115,1660003,,,,,,,2023-07-19,1,,,,,,0
54,1011701026430,新規,0,2023-07-19,2023-07-19,株式会社ＧＲ,,株式会社,東京都,江戸川区,平井１丁目１８番３号,,13,123,1320035,,,,,,,2023-07-19,1,,,,,ジーアール,0
55,1011703003535,新規,0,2023-07-19,2023-07-19,合同会社１１０７ＢＥＣＫＹ,,合同会社,東京都,江戸川区,南小岩８丁目１４－２１相國第３ビル５階,,13,123,1330056,,,,,,,2023-07-19,1,,,,,イチイチゼロナナベッキー,0
60,1012401040746,新規,0,2023-07-19,2023-07-19,株式会社ＲｅｖＥ,,株式会社,東京都,武蔵野市,吉祥寺南町１丁目１番７号南町山田ビル２階,,13,203,1800003,,,,,,,2023-07-19,1,,,,,レーヴ,0
61,1012401040754,新規,0,2023-07-19,2023-07-19,株式会社アズイーザ,,株式会社,東京都,武蔵野市,吉祥寺東町４丁目３番９－１０５号,,13,203,1800002,,,,,,,2023-07-19,1,,,,,アズイーザ,0
66,1013301051040,新規,0,2023-07-19,2023-07-19,株式会社Ｃｅｒｉｓｅ,,株式会社,東京都,豊島区,目白３丁目１５番１１－１０１号,,13,116,1710031,,,,,,,2023-07-19,1,,,,,スリーズ,0
72,1020001152457,新規,0,2023-07-19,2023-07-19,ＢａｓｅＲｏｏｔｓ株式会社,,株式会社,神奈川県,横浜市中区,万代町１丁目１番地１関東学院大学４Ｆ,,14,104,2310031,,,,,,,2023-07-19,1,,,,,ベースルーツ,0
76,1020003024225,新規,0,2023-07-19,2023-07-19,合同会社ＴＡＤコンサルティング,,合同会社,神奈川県,横浜市都筑区,南山田２丁目２３番１６号,,14,118,2240029,,,,,,,2023-07-19,1,,,,,ティーエイディーコンサルティング,0
77,1020003024233,新規,0,2023-07-19,2023-07-19,ヨコハマベンディング合同会社,,合同会社,神奈川県,横浜市戸塚区,品濃町５３６番地４中央街区Ｂ棟１００３号,,14,110,2440801,,,,,,,2023-07-19,1,,,,,ヨコハマベンディング,0
81,1021003013317,新規,0,2023-07-19,2023-07-19,安全商会合同会社,,合同会社,神奈川県,愛甲郡愛川町,田代９７３－３,,14,401,2430306,,,,,,,2023-07-19,1,,,,,アンゼンショウカイ,0
84,1030001154989,新規,0,2023-07-19,2023-07-19,海老商建設株式会社,,株式会社,埼玉県,川口市,戸塚１丁目２－１９－１３０１,,11,203,3330811,,,,,,,2023-07-19,1,,,,,エビショウケンセツ,0
85,1030001155005,新規,0,2023-07-19,2023-07-19,株式会社三和ホールディングス,,株式会社,埼玉県,越谷市,大字南荻島２１４１番地１,,11,222,3430804,,,,,,,2023-07-19,1,,,,,サンワホールディングス,0
88,1030003022129,新規,0,2023-07-19,2023-07-19,合同会社ミュー,,合同会社,埼玉県,鴻巣市,小松１丁目１０番３７号,,11,217,3650041,,,,,,,2023-07-19,1,,,,,ミュー,0
93,1040001129271,新規,0,2023-07-19,2023-07-19,エヌオー・エヌ株式会社,,株式会社,千葉県,木更津市,畑沢３丁目１０番２号,,12,206,2920825,,,,,,,2023-07-19,1,,,,,エヌオーエヌ,0
94,1040001129296,新規,0,2023-07-19,2023-07-19,Ａｉｎａ　ＲＥＡＬＴＹ株式会社,,株式会社,千葉県,千葉市美浜区,幸町１丁目１５番８号,,12,106,2610001,,,,,,,2023-07-19,1,,,,,アイナリアルティ,0
95,1040001129305,新規,0,2023-07-19,2023-07-19,ＬＵＳＨ株式会社,,株式会社,千葉県,松戸市,栄町西１丁目８２３番地の４,,12,207,2710061,,,,,,,2023-07-19,1,,,,,ラッシュ,0
99,1050001053181,新規,0,2023-07-19,2023-07-19,葵商事株式会社,,株式会社,茨城県,つくば市,真瀬２５６９番地５８,,08,220,3002656,,,,,,,2023-07-19,1,,,,,アオイショウジ,0
101,1060001036160,新規,0,2023-07-19,2023-07-19,株式会社池沢工務店,,株式会社,栃木県,栃木市,西方町金井４９０番地３,,09,203,3220602,,,,,,,2023-07-19,1,,,,,イケザワコウムテン,0
106,1070001040649,新規,0,2023-07-19,2023-07-19,株式会社耕楽舎,,株式会社,群馬県,前橋市,総社町高井４９番地９,,10,201,3710856,,,,,,,2023-07-19,1,,,,,コウラクシャ,0
125,1100003007114,新規,0,2023-07-19,2023-07-19,マニマニダイニング合同会社,,合同会社,長野県,松本市,桐３丁目１－２３,,20,202,3900871,,,,,,,2023-07-19,1,,,,,マニマニダイニング,0
132,1120001256553,新規,0,2023-07-19,2023-07-19,株式会社澤田建築,,株式会社,大阪府,大阪市西淀川区,佃３丁目７番３１号,,27,113,5550001,,,,,,,2023-07-19,1,,,,,サワダケンチク,0
133,1120001256561,新規,0,2023-07-19,2023-07-19,株式会社アルファーアークス,,株式会社,大阪府,大阪市住吉区,長居西１丁目４番１７－２０６号,,27,120,5580002,,,,,,,2023-07-19,1,,,,,アルファーアークス,0
134,1120001256578,新規,0,2023-07-19,2023-07-19,共鳴株式会社,,株式会社,大阪府,大阪市天王寺区,生玉町１０番２０号５０５号,,27,109,5430071,,,,,,,2023-07-19,1,,,,,キョウメイ,0
138,1120003024504,新規,0,2023-07-19,2023-07-19,合同会社ｌｉｓｏｄｅ,,合同会社,大阪府,守口市,紅屋町６番２号,,27,209,5700075,,,,,,,2023-07-19,1,,,,,リソド,0
139,1120003024512,新規,0,2023-07-19,2023-07-19,合同会社那須伊王野カントリークラブ,,合同会社,大阪府,大阪市北区,西天満６丁目４番１３号グランビルド荒木２階,,27,127,5300047,,,,,,,2023-07-19,1,,,,,ナスイオウノカンリークラブ,0
140,1120005023751,新規,0,2023-07-19,2023-07-19,一般社団法人あまらんす,,その他の設立登記法人,大阪府,大阪市城東区,新喜多１丁目１番１－９０５号,,27,118,5360015,,,,,,,2023-07-19,1,,,,,アマランス,0
148,1120903004745,新規,0,2023-07-19,2023-07-19,ソリッドアセットマネジメント合同会社,,合同会社,大阪府,箕面市,石丸２丁目４－２３,,27,220,5620027,,,,,,,2023-07-19,1,,,,,ソリッドアセットマネジメント,0
151,1122001037173,新規,0,2023-07-19,2023-07-19,株式会社Ｇｒａｄｅ,,株式会社,大阪府,柏原市,大県３丁目８番２０号,,27,221,5820018,,,,,,,2023-07-19,1,,,,,グレード,0
154,1130001074698,新規,0,2023-07-19,2023-07-19,株式会社ＢＬＵＥ,,株式会社,京都府,京都市西京区,山田猫塚町９番地５,00131214,26,111,6158251,,,,,,,2023-07-19,1,,,,,ブルー,0
155,1130001074723,新規,0,2023-07-19,2023-07-19,株式会社永＿,00131209,株式会社,京都府,京都市下京区,夷馬場町４８番地イマムラコーポ４階東,,26,106,6008837,,,,,,,2023-07-19,1,,,,,エイキン,0
156,1130001074756,新規,0,2023-07-19,2023-07-19,株式会社伊東左官工業,,株式会社,京都府,京都市右京区,常盤御池町２１番地２７,,26,108,6168211,,,,,,,2023-07-19,1,,,,,イトウサカンコウギョウ,0
162,1140001130822,新規,0,2023-07-19,2023-07-19,株式会社桃美,,株式会社,兵庫県,神戸市中央区,琴ノ緒町５丁目６番８号伸和ビル３０２号室,,28,110,6510094,,,,,,,2023-07-19,1,,,,,モモミ,0
183,1180001157143,新規,0,2023-07-19,2023-07-19,暁技術株式会社,,株式会社,愛知県,名古屋市西区,名駅１丁目１－１７,,23,104,4510045,,,,,,,2023-07-19,1,,,,,アカツキギジュツ,0
184,1180001157192,新規,0,2023-07-19,2023-07-19,株式会社グリット,,株式会社,愛知県,名古屋市北区,金城町２丁目５６,,23,103,4620047,,,,,,,2023-07-19,1,,,,,グリット,0
190,1190003004383,新規,0,2023-07-19,2023-07-19,合同会社がんばるんだ,,合同会社,三重県,北牟婁郡紀北町,上里９４５－４,,24,543,5193403,,,,,,,2023-07-19,1,,,,,ガンバルンダ,0
191,1200003006023,新規,0,2023-07-19,2023-07-19,ＭＨ合同会社,,合同会社,岐阜県,瑞穂市,穂積８８８番地２,,21,216,5010223,,,,,,,2023-07-19,1,,,,,エムエイチ,0
196,1220001025510,新規,0,2023-07-19,2023-07-19,株式会社Ｈａｓｕ,,株式会社,石川県,かほく市,白尾ラ９９,,17,209,9291177,,,,,,,2023-07-19,1,,,,,,0
199,1230001019924,新規,0,2023-07-19,2023-07-19,株式会社やなせモービル,,株式会社,富山県,中新川郡立山町,泊新５５番地３,,16,323,9300265,,,,,,,2023-07-19,1,,,,,ヤナセモービル,0
201,1240001061834,新規,0,2023-07-19,2023-07-19,株式会社Ｓｅｔｏｕｃｈｉ　Ｇａｔｅ,,株式会社,広島県,福山市,沼隈町大字能登原１６２３番地１,,34,207,7200312,,,,,,,2023-07-19,1,,,,,セトウチゲート,0
203,1250001020178,新規,0,2023-07-19,2023-07-19,ミサキホーム株式会社,,株式会社,山口県,下関市,川中豊町６丁目５番２０号,,35,201,7510853,,,,,,,2023-07-19,1,,,,,ミサキホーム,0
204,1250003003305,新規,0,2023-07-19,2023-07-19,合同会社松本システム,,合同会社,山口県,山口市,赤妻町３－８７,,35,203,7530067,,,,,,,2023-07-19,1,,,,,マツモトシステム,0
209,1260001038137,新規,0,2023-07-19,2023-07-19,株式会社エレガンス,,株式会社,岡山県,倉敷市,児島白尾２５２番地２,,33,202,7110902,,,,,,,2023-07-19,1,,,,,エレガンス,0
213,1290003014141,新規,0,2023-07-19,2023-07-19,ＬＩＫＥ合同会社,,合同会社,福岡県,福岡市博多区,御供所町３番２９－１１０１号,,40,132,8120037,,,,,,,2023-07-19,1,,,,,ライク,0
216,1300001013374,新規,0,2023-07-19,2023-07-19,ＲＩＳ‐ＧＡＲＤＥＮ株式会社,,株式会社,佐賀県,唐津市,山本６４８番地１５,,41,202,8470002,,,,,,,2023-07-19,1,,,,,リズガーデン,0
223,1320005010093,新規,0,2023-07-19,2023-07-19,税理士法人アトム,,その他の設立登記法人,大分県,別府市,野口元町３番２８号,,44,202,8740933,,,,,,,2023-07-19,1,,,,,アトム,0
224,1330001031051,新規,0,2023-07-19,2023-07-19,株式会社Ｓ３Ｏ,,株式会社,熊本県,熊本市中央区,花畑町１２番６号Ａｍａｚｉｎｇ７ビル４Ｆ,,43,101,8600806,,,,,,,2023-07-19,1,,,,,エススリーオー,0
247,1470001019710,新規,0,2023-07-19,2023-07-19,株式会社Ｌｉｆｅ　Ｔｒｅｅ,,株式会社,香川県,高松市,木太町３９３７番地３,,37,201,7600080,,,,,,,2023-07-19,1,,,,,ライフツリー,0
254,1700150117621,新規,0,2023-07-19,2023-06-21,エクセレントシティ船橋ＥＡＳＴ管理組合,,その他,千葉県,船橋市,湊町２丁目１－１７,,12,204,2730011,,,,,,,2023-06-21,1,,,,,エクセレントシテイフナバシイーストカンリクミアイ,0
264,2010001236887,新規,0,2023-07-19,2023-07-19,株式会社ＳｙｎＣｌｉｐ,,株式会社,東京都,文京区,本郷６丁目２５番１４号,,13,105,1130033,,,,,,,2023-07-19,1,,,,,シンクリップ,0
265,2010001237002,新規,0,2023-07-19,2023-07-19,嵐旌株式会社,,株式会社,東京都,中央区,日本橋中洲６－１６新井ビル１０２,,13,102,1030008,,,,,,,2023-07-19,1,,,,,ランセイ,0
270,2010005036978,新規,0,2023-07-19,2023-07-19,千葉貨物施設開発特定目的会社,,その他の設立登記法人,東京都,千代田区,飯田橋４丁目７番１号結和税理士法人内,,13,101,1020072,,,,,,,2023-07-19,1,,,,,チバカモツシセツカイハツ,0
285,2010403030509,新規,0,2023-07-19,2023-07-19,合同会社ＩＴＡＫＥＲＵ,,合同会社,東京都,港区,南青山３丁目１番３６号青山丸竹ビル６Ｆ,,13,103,1070062,,,,,,,2023-07-19,1,,,,,イタケル,0
290,2010501050755,新規,0,2023-07-19,2023-07-19,株式会社中興興業,,株式会社,東京都,台東区,根岸３丁目１３番２４号,,13,106,1100003,,,,,,,2023-07-19,1,,,,,チュウコウコウギョウ,0
293,2010601063442,新規,0,2023-07-19,2023-07-19,ＦＵＴＵＲＥ　ＣＡＮＶＡＳ株式会社,,株式会社,東京都,江東区,木場５丁目１番６号,,13,108,1350042,,,,,,,2023-07-19,1,,,,,フューチャーキャンバス,0
296,2010701044573,新規,0,2023-07-19,2023-07-19,ＬＵＸＰＥＲＩＯＲ　ＣＯＮＳＵＬＴＩＮＧ株式会社,,株式会社,東京都,品川区,大井７丁目１９番２０号,,13,109,1400014,,,,,,,2023-07-19,1,,,,,ラクスペリアコンサルティング,0
299,2010801034160,新規,0,2023-07-19,2023-07-19,ＩＳＳＯ株式会社,,株式会社,東京都,大田区,矢口２丁目１１番９号,,13,111,1460093,,,,,,,2023-07-19,1,,,,,イッソ,0
300,2010801034169,新規,0,2023-07-19,2023-07-19,ヒラバヤシ株式会社,,株式会社,東京都,大田区,大森東４丁目３２番１２号,,13,111,1430012,,,,,,,2023-07-19,1,,,,,ヒラバヤシ,0
301,2010903008327,新規,0,2023-07-19,2023-07-19,合同会社グラファルト,,合同会社,東京都,世田谷区,喜多見７丁目２４番２１号,,13,112,1570067,,,,,,,2023-07-19,1,,,,,グラファルト,0
309,2011001155739,新規,0,2023-07-19,2023-07-19,株式会社Ｔｈｅ　Ｈｏｌｉｄａｙ,,株式会社,東京都,渋谷区,東３丁目２４番２号,,13,113,1500011,,,,,,,2023-07-19,1,,,,,,0
310,2011001155747,新規,0,2023-07-19,2023-07-19,大義名樹堂株式会社,,株式会社,東京都,渋谷区,神宮前１丁目１番８号ケンハーバー２０２,,13,113,1500001,,,,,,,2023-07-19,1,,,,,タイギメイジュドウ,0
311,2011001155788,新規,0,2023-07-19,2023-07-19,Ｊ１株式会社,,株式会社,東京都,渋谷区,神宮前６丁目１２番２０号,,13,113,1500001,,,,,,,2023-07-19,1,,,,,ジェイワン,0
312,2011003017202,新規,0,2023-07-19,2023-07-19,合同会社Ｔｅｎ　ｃｏｌｏｒ,,合同会社,東京都,渋谷区,渋谷２丁目１９－１５宮益坂ビルディング６０９,,13,113,1500002,,,,,,,2023-07-19,1,,,,,テンカラー,0
313,2011005010139,新規,0,2023-07-19,2023-07-19,一般社団法人新観光創造連合会,,その他の設立登記法人,東京都,渋谷区,神宮前１丁目１２番６号,,13,113,1500001,,,,,,,2023-07-19,1,,,,,シンカンコウソウゾウレンゴウカイ,0
323,2011503005680,新規,0,2023-07-19,2023-07-19,Ｂ・ＢＬＡＣＫ合同会社,,合同会社,東京都,北区,上中里１丁目２４－２,,13,117,1140016,,,,,,,2023-07-19,1,,,,,,0
328,2011801042731,新規,0,2023-07-19,2023-07-19,株式会社藤工業,,株式会社,東京都,足立区,花畑１丁目１９番１１号,,13,121,1210061,,,,,,,2023-07-19,1,,,,,フジコウギョウ,0
333,2011803005744,新規,0,2023-07-19,2023-07-19,合同会社ミキ,,合同会社,東京都,足立区,伊興２丁目９番７号マンション第二グリーンヒル１０３,,13,121,1210823,,,,,,,2023-07-19,1,,,,,ミキ,0
334,2012301013529,新規,0,2023-07-19,2023-07-19,株式会社２５Ｈ,,株式会社,東京都,町田市,高ヶ坂１丁目７番２０号,,13,209,1940014,,,,,,,2023-07-19,1,,,,,ニジゴジ,0
345,2020001152596,新規,0,2023-07-19,2023-07-19,株式会社丸善商事,,株式会社,神奈川県,川崎市川崎区,駅前本町１１番地２川崎フロンティアビル４階,,14,131,2100007,,,,,,,2023-07-19,1,,,,,マルゼンショウジ,0
346,2020001152613,新規,0,2023-07-19,2023-07-19,株式会社わたあめ,,株式会社,神奈川県,横浜市緑区,長津田町３１６６番地４,,14,113,2260026,,,,,,,2023-07-19,1,,,,,ワタアメ,0
350,2020003024216,新規,0,2023-07-19,2023-07-19,ｕｃｈｒｏｎｉａ合同会社,,合同会社,神奈川県,横浜市西区,北幸２丁目１０番地２８むつみビル３階,,14,103,2200004,,,,,,,2023-07-19,1,,,,,ユークロニア,0
367,2040001129262,新規,0,2023-07-19,2023-07-19,株式会社三五八工業,,株式会社,千葉県,市川市,香取２丁目９番１１号行徳ＮＫビル２０１,,12,203,2720141,,,,,,,2023-07-19,1,,,,,ミイヤコウギョウ,0
380,2060001036168,新規,0,2023-07-19,2023-07-19,株式会社那須野ケ原温泉ホテル,,株式会社,栃木県,大田原市,中田原１６２５番地１,,09,210,3240062,,,,,,,2023-07-19,1,,,,,ナスノガハラオンセンホテル,0
386,2070001040656,新規,0,2023-07-19,2023-07-19,エルティ株式会社,,株式会社,群馬県,甘楽郡甘楽町,大字小幡１２３番地２,,10,384,3702202,,,,,,,2023-07-19,1,,,,,エルティ,0
401,2100003007113,新規,0,2023-07-19,2023-07-19,合同会社リミットブレイク,,合同会社,長野県,長野市,稲里町中氷鉋９４５番地,,20,201,3812215,,,,,,,2023-07-19,1,,,,,リミットブレイク,0
402,2110001037706,新規,0,2023-07-19,2023-07-19,株式会社Ｃ・Ｏ・Ｎ,,株式会社,新潟県,新潟市中央区,高志１丁目２１番３－１０１号,,15,103,9500926,,,,,,,2023-07-19,1,,,,,シーオーエヌ,0
409,2120001256379,新規,0,2023-07-19,2023-07-19,株式会社みさと,,株式会社,大阪府,大阪市浪速区,元町１丁目９－９津和九ビル１階,,27,111,5560016,,,,,,,2023-07-19,1,,,,,ミサト,0
410,2120001256560,新規,0,2023-07-19,2023-07-19,株式会社キャリラボ,,株式会社,大阪府,大阪市西区,新町１丁目５－７四ツ橋ビルディング２０７号室,,27,106,5500013,,,,,,,2023-07-19,1,,,,,キャリラボ,0
411,2120001256577,新規,0,2023-07-19,2023-07-19,ＡＴＩコンサルティング株式会社,,株式会社,大阪府,大阪市北区,豊崎３丁目１５番地４号ローツェＩＩ４０４号室,00131218,27,127,5310072,,,,,,,2023-07-19,1,,,,,エーティアイコンサルティング,0
413,2120003024503,新規,0,2023-07-19,2023-07-19,新道合同会社,,合同会社,大阪府,大阪市西成区,南開２丁目１番２５号１階,,27,122,5570023,,,,,,,2023-07-19,1,,,,,シンミチ,0
414,2120005023750,新規,0,2023-07-19,2023-07-19,一般社団法人純香会,,その他の設立登記法人,大阪府,大阪市北区,梅田１丁目１１－４大阪駅前第４ビル６階,,27,127,5300001,,,,,,,2023-07-19,1,,,,,ジュンコウカイ,0
416,2120105009740,新規,0,2023-07-19,2023-07-19,医療法人きたざわ歯科クリニック,,その他の設立登記法人,大阪府,堺市東区,北野田１番地１ヴェリテ北野田駅前プラチナム１階１０１号室,,27,143,5998123,,,,,,,2023-07-19,1,,,,,キタザワシカクリニック,0
424,2130001074722,新規,0,2023-07-19,2023-07-19,株式会社遊学,,株式会社,京都府,京都市下京区,仏光寺通烏丸東入上柳町３３１タカノハスクエア４Ｆ,,26,106,6008099,,,,,,,2023-07-19,1,,,,,ユウガク,0
425,2130001074755,新規,0,2023-07-19,2023-07-19,株式会社ｕｎ　ｂｅｎｏｉｔ,,株式会社,京都府,長岡京市,今里薬師堂２２番地４９,,26,209,6170814,,,,,,,2023-07-19,1,,,,,アンベノワ,0
431,2140001130912,新規,0,2023-07-19,2023-07-19,ＧＭ株式会社,,株式会社,兵庫県,明石市,樽屋町２１番２－６０３号,,28,203,6730898,,,,,,,2023-07-19,1,,,,,ジーエム,0
432,2140001130920,新規,0,2023-07-19,2023-07-19,株式会社メールアドレス,,株式会社,兵庫県,神戸市兵庫区,馬場町１４番８号,,28,105,6520016,,,,,,,2023-07-19,1,,,,,メールアドレス,0
433,2140001130929,新規,0,2023-07-19,2023-07-19,株式会社スカイ,,株式会社,兵庫県,宝塚市,山手台東５丁目３０番１号,,28,214,6650887,,,,,,,2023-07-19,1,,,,,スカイ,0
434,2140001130937,新規,0,2023-07-19,2023-07-19,株式会社ＭａｍＲｅｘ,,株式会社,兵庫県,西宮市,今津巽町７番４－１０７号,,28,204,6638223,,,,,,,2023-07-19,1,,,,,マムレックス,0
436,2140003019303,新規,0,2023-07-19,2023-07-19,Ｄｏｔ．Ｃｏｎｎｅｃｔｉｏｎ合同会社,,合同会社,兵庫県,高砂市,高砂町浜田町１丁目２－２－４０４,,28,216,6760022,,,,,,,2023-07-19,1,,,,,ドットコネクション,0
437,2140003019328,新規,0,2023-07-19,2023-07-19,Ｙｏｒｉ合同会社,,合同会社,兵庫県,神戸市灘区,城の下通１丁目６番１４号,,28,102,6570804,,,,,,,2023-07-19,1,,,,,ヨリ,0
453,2190003004382,新規,0,2023-07-19,2023-07-19,合同会社ゴメス谷川工業,,合同会社,三重県,津市,芸濃町椋本８９２番地１４２,,24,201,5142211,,,,,,,2023-07-19,1,,,,,ゴメスタニガワコウギョウ,0
458,2200005013504,新規,0,2023-07-19,2023-07-19,一般社団法人古川町社会福祉事業協力会,,その他の設立登記法人,岐阜県,飛騨市,古川町若宮２丁目１番６６号,,21,217,5094221,,,,,,,2023-07-19,1,,,,,フルカワチョウシャカイフクシジギョウキョウリョクカイ,0
462,2230001019923,新規,0,2023-07-19,2023-07-19,インセンティブ株式会社,,株式会社,富山県,富山市,東老田１１９５番地,,16,201,9300161,,,,,,,2023-07-19,1,,,,,インセンティブ,0
465,2240003006225,新規,0,2023-07-19,2023-07-19,ＴＩＥＮ　ＨＵＯＮＧ　ＴＰ　ＶＩＥＴ合同会社,,合同会社,広島県,福山市,新市町戸手４６番地６,,34,207,7210000,,,,,,,2023-07-19,1,,,,,ティエンホアンティーピーベト,0
467,2250001020177,新規,0,2023-07-19,2023-07-19,株式会社あおばトータルサポート,,株式会社,山口県,宇部市,港町２丁目１番３５号,,35,202,7550027,,,,,,,2023-07-19,1,,,,,アオバトータルサポート,0
470,2290001102343,新規,0,2023-07-19,2023-07-19,株式会社ＴＫＹ,,株式会社,福岡県,福岡市博多区,上川端町１２－３１,,40,132,8120026,,,,,,,2023-07-19,1,,,,,ティケイワイ,0
478,2320001019897,新規,0,2023-07-19,2023-07-19,株式会社こうの,,株式会社,大分県,大分市,高崎３丁目１番１１号,,44,201,8700872,,,,,,,2023-07-19,1,,,,,コウノ,0
480,2330001031050,新規,0,2023-07-19,2023-07-19,株式会社幸せの豆の木,,株式会社,熊本県,熊本市北区,龍田４丁目２１番２８号,,43,105,8618006,,,,,,,2023-07-19,1,,,,,シアワセノマメノキ,0
481,2330001031075,新規,0,2023-07-19,2023-07-19,株式会社ＧＲＡＣＥ．Ｊ,,株式会社,熊本県,熊本市中央区,本山町１０６番地（８０７号）,,43,101,8600822,,,,,,,2023-07-19,1,,,,,グレイスジェイ,0
483,2330003009904,新規,0,2023-07-19,2023-07-19,合同会社ＯＫＵＲＡ,,合同会社,熊本県,熊本市中央区,坪井６丁目８番２０－３０３号,,43,101,8600863,,,,,,,2023-07-19,1,,,,,オオクラ,0
490,2400001016325,新規,0,2023-07-19,2023-07-19,ルネスハリマヤ株式会社,,株式会社,岩手県,宮古市,藤原３丁目２番１６号,,03,202,0270021,,,,,,,2023-07-19,1,,,,,ルネスハリマヤ,0
491,2420001018336,新規,0,2023-07-19,2023-07-19,株式会社ＷＡＡ,,株式会社,青森県,十和田市,東一番町３番２２号,,02,206,0340012,,,,,,,2023-07-19,1,,,,,ダブリューエーエー,0
498,2480003002002,新規,0,2023-07-19,2023-07-19,ＡＷＡ　ＣＯＮＳＵＬＴＩＮＧ合同会社,,合同会社,徳島県,吉野川市,鴨島町鴨島２３３番地１,,36,205,7760010,,,,,,,2023-07-19,1,,,,,アワコンサルティング,0
499,2700150116820,新規,0,2023-07-19,2023-06-02,日本キリスト改革派　和歌山教会,,その他,和歌山県,和歌山市,和歌浦西１丁目４－２３,,30,201,6410024,,,,,,,2023-06-02,1,,,,,ニホンキリストカイカクハワカヤマキヨウカイ,0
500,2700150118404,新規,0,2023-07-19,2023-07-11,一関西洋野菜プロジェクト,,その他,岩手県,一関市,川崎町薄衣字南新山４０,,03,209,0290202,,,,,,,2023-07-11,1,,,,,イチノセキセイヨウヤサイプロジエクト,0
510,3010001236820,新規,0,2023-07-19,2023-07-19,株式会社岡崎建装,00131207,株式会社,東京都,中央区,明石町５番１３－２２１号,,13,102,1040044,,,,,,,2023-07-19,1,,,,,オカザキケンソウ,0
511,3010001236928,新規,0,2023-07-19,2023-07-19,株式会社正点文化,,株式会社,東京都,中央区,新富１丁目６番５号フジタ新富マンション７０５号,,13,102,1040041,,,,,,,2023-07-19,1,,,,,ショウテンブンカ,0
512,3010003041112,新規,0,2023-07-19,2023-07-19,合同会社ＴｏＬ,,合同会社,東京都,中央区,新川２丁目１３－１１－１２０１,,13,102,1040033,,,,,,,2023-07-19,1,,,,,,0
515,3010005036944,新規,0,2023-07-19,2023-07-19,一般社団法人青淵渋沢栄一翁顕彰会,,その他の設立登記法人,東京都,中央区,日本橋本町１丁目８番１３号日本橋滄浪閣ビル２階Ｒフロア,,13,102,1030023,,,,,,,2023-07-19,1,,,,,セイエンシブサワエイイチオウケンショウカイ,0
516,3010005036969,新規,0,2023-07-19,2023-07-19,一般社団法人ＳＨ神戸キャピタル,,その他の設立登記法人,東京都,千代田区,丸の内３丁目１番１号東京共同会計事務所内,,13,101,1000005,,,,,,,2023-07-19,1,,,,,エスエイチコウベキャピタル,0
522,3010401175750,新規,0,2023-07-19,2023-07-19,株式会社ＣＮＧ,,株式会社,東京都,港区,赤坂８丁目１２番１６号ＮＯＺＹ赤坂６０１,,13,103,1070052,,,,,,,2023-07-19,1,,,,,シーエヌジー,0
527,3010403030508,新規,0,2023-07-19,2023-07-19,合同会社こども未来企画,,合同会社,東京都,港区,白金１丁目２８－１８Ｙビル２階,,13,103,1080072,,,,,,,2023-07-19,1,,,,,コドモミライキカク,0
533,3010601063441,新規,0,2023-07-19,2023-07-19,株式会社ＳＴＵコーポレーション,,株式会社,東京都,江東区,豊洲３丁目６番８－４２１２号,,13,108,1350061,,,,,,,2023-07-19,1,,,,,エスティーユーコーポレーション,0
536,3010703006785,新規,0,2023-07-19,2023-07-19,合同会社ＫＲＯＹ,,合同会社,東京都,品川区,北品川１丁目１３－２レジディア品川８０４,,13,109,1400001,,,,,,,2023-07-19,1,,,,,ロワ,0
539,3010901053472,新規,0,2023-07-19,2023-07-19,ＨＡＶＥ　ＤＥＳＩＧＮ株式会社,,株式会社,東京都,世田谷区,弦巻４丁目９番１３－１０１号,,13,112,1540016,,,,,,,2023-07-19,1,,,,,ハヴデザイン,0
540,3010903008326,新規,0,2023-07-19,2023-07-19,合同会社ａｒｔｅ　ｔｕｏｎｏ,,合同会社,東京都,世田谷区,上馬５丁目２０番１５－１２０２号,,13,112,1540011,,,,,,,2023-07-19,1,,,,,アルテトゥオーノ,0
546,3011001155663,新規,0,2023-07-19,2023-07-19,株式会社ＢＭライフ,,株式会社,東京都,渋谷区,広尾５丁目４番１２号大成鋼機ビル４階,,13,113,1500012,,,,,,,2023-07-19,1,,,,,ビーエムライフ,0
547,3011001155746,新規,0,2023-07-19,2023-07-19,株式会社小野木,,株式会社,東京都,渋谷区,広尾５丁目８番１１号,,13,113,1500012,,,,,,,2023-07-19,1,,,,,オノギ,0
548,3011001155754,新規,0,2023-07-19,2023-07-19,株式会社マミアナ,,株式会社,東京都,渋谷区,鶯谷町１３番１号ラ・トゥール代官山Ｈ－２０２,,13,113,1500032,,,,,,,2023-07-19,1,,,,,マミアナ,0
550,3011003017201,新規,0,2023-07-19,2023-07-19,ＧＥＳ合同会社,,合同会社,東京都,渋谷区,渋谷２丁目１９－１５宮益坂ビルディング６０９,,13,113,1500002,,,,,,,2023-07-19,1,,,,,ジーイーエス,0
563,3011301028866,新規,0,2023-07-19,2023-07-19,株式会社デジカニ,,株式会社,東京都,杉並区,久我山３丁目４４－３,,13,115,1680082,,,,,,,2023-07-19,1,,,,,デジカニ,0
564,3011301028874,新規,0,2023-07-19,2023-07-19,株式会社ＨＵＧ,,株式会社,東京都,杉並区,阿佐谷北２丁目３６番１３号ＹＫビル３階,,13,115,1660001,,,,,,,2023-07-19,1,,,,,ハグ,0
565,3011303004832,新規,0,2023-07-19,2023-07-19,合同会社Ａｎｇ　Ｓｐｉｒｉｔ,,合同会社,東京都,杉並区,南荻窪４丁目４４番１３号ライフピア荻窪１０６,,13,115,1670052,,,,,,,2023-07-19,1,,,,,アンスピリット,0
566,3011401025292,新規,0,2023-07-19,2023-07-19,Ｓｉｌｖｅｒ　Ｄｒａｇｏｎ株式会社,,株式会社,東京都,板橋区,成増３丁目４７－７グランデーム成増２０２号室,,13,119,1750094,,,,,,,2023-07-19,1,,,,,シルバードラゴン,0
571,3011701026429,新規,0,2023-07-19,2023-07-19,株式会社Ｆｅｒｍｉｚ,,株式会社,東京都,江戸川区,西葛西３丁目２２番１０－５０２Ｃ,,13,123,1340088,,,,,,,2023-07-19,1,,,,,フェルミズ,0
574,3011803005743,新規,0,2023-07-19,2023-07-19,アールエスジェイ合同会社,,合同会社,東京都,葛飾区,東立石３丁目３２－１,,13,122,1240013,,,,,,,2023-07-19,1,,,,,アールエスジェイ,0
575,3012301013528,新規,0,2023-07-19,2023-07-19,株式会社ＷＴＯＭＳ,,株式会社,東京都,町田市,原町田２丁目５番８号,,13,209,1940013,,,,,,,2023-07-19,1,,,,,ダブルトムス,0
576,3012401040744,新規,0,2023-07-19,2023-07-19,株式会社ＰＵＱＵ,,株式会社,東京都,三鷹市,野崎３丁目２２番１２号－２,,13,204,1810014,,,,,,,2023-07-19,1,,,,,プク,0
588,3020001152612,新規,0,2023-07-19,2023-07-19,株式会社Ｔ＆Ｔプランニング,,株式会社,神奈川県,横浜市磯子区,洋光台１丁目１３番２号,,14,107,2350045,,,,,,,2023-07-19,1,,,,,ティーアンドティープランニング,0
591,3021001079630,新規,0,2023-07-19,2023-07-19,クロガネ運輸株式会社,,株式会社,神奈川県,横須賀市,久里浜１丁目２０００番地,,14,201,2390831,,,,,,,2023-07-19,1,,,,,クロガネウンユ,0
593,3021003013307,新規,0,2023-07-19,2023-07-19,ＡＪ商会合同会社,,合同会社,神奈川県,藤沢市,宮原字歩一１５４７番１,,14,205,2520826,,,,,,,2023-07-19,1,,,,,エージェーショウカイ,0
594,3021003013331,新規,0,2023-07-19,2023-07-19,ライトハウジングプラス合同会社,,合同会社,神奈川県,横須賀市,林１丁目３０番１４号,,14,201,2380315,,,,,,,2023-07-19,1,,,,,ライトハウジングプラス,0
604,3040001129278,新規,0,2023-07-19,2023-07-19,川上平吉商店株式会社,,株式会社,千葉県,市川市,八幡２丁目４番２号,,12,203,2720021,,,,,,,2023-07-19,1,,,,,カワカミヘイキチショウテン,0
605,3040001129303,新規,0,2023-07-19,2023-07-19,ａｃｃｏｒｄ株式会社,,株式会社,千葉県,千葉市若葉区,東寺山町４２３番地１Ｄ棟５０４号室,,12,104,2640035,,,,,,,2023-07-19,1,,,,,アコード,0
606,3040001129311,新規,0,2023-07-19,2023-07-19,株式会社大角商店,,株式会社,千葉県,市原市,郡本４丁目７２,,12,219,2900013,,,,,,,2023-07-19,1,,,,,,0
615,3050003007646,新規,0,2023-07-19,2023-07-19,合同会社イツナロウガ,,合同会社,茨城県,小美玉市,羽鳥２６５５番地６,,08,236,3190123,,,,,,,2023-07-19,1,,,,,イツナロウガ,0
618,3060001036142,新規,0,2023-07-19,2023-07-19,株式会社ミツヒデ,,株式会社,栃木県,足利市,上渋垂町１１７７－１－３０２,,09,202,3260335,,,,,,,2023-07-19,1,,,,,ミツヒデ,0
619,3060001036159,新規,0,2023-07-19,2023-07-19,株式会社あんしんケアネットワーク,,株式会社,栃木県,宇都宮市,駒生町３３６７番地５２,,09,201,3200065,,,,,,,2023-07-19,1,,,,,アンシンケアネットワーク,0
620,3060001036167,新規,0,2023-07-19,2023-07-19,泰信株式会社,,株式会社,栃木県,宇都宮市,上戸祭４丁目１１番２６号,,09,201,3200058,,,,,,,2023-07-19,1,,,,,タイシン,0
623,3070001040498,新規,0,2023-07-19,2023-07-19,Ｓ・Ａマネジメント株式会社,,株式会社,群馬県,伊勢崎市,田部井町２丁目４５１－１,,10,204,3792222,,,,,,,2023-07-19,1,,,,,エスエーマネジメント,0
627,3080003003015,新規,0,2023-07-19,2023-07-19,合同会社エムズ,,合同会社,静岡県,静岡市清水区,八坂東２丁目１１の１２,,22,103,4240024,,,,,,,2023-07-19,1,,,,,エムズ,0
633,3090001018220,新規,0,2023-07-19,2023-07-19,株式会社ｉｎｇ,,株式会社,山梨県,甲府市,宮原町１２８２番地１,,19,201,4000058,,,,,,,2023-07-19,1,,,,,アイエヌジー,0
637,3100005013042,新規,0,2023-07-19,2023-07-19,一般社団法人信州Ｓｐｏｒｔｓ．Ｃｏｌｌｅｇｅ,,その他の設立登記法人,長野県,松本市,大字里山辺２４６番地１、２階,,20,202,3900221,,,,,,,2023-07-19,1,,,,,シンシュウスポーツカレッジ,0
647,3120001256551,新規,0,2023-07-19,2023-07-19,株式会社ｓａｂｏｒｏｓｏ,,株式会社,大阪府,寝屋川市,香里新町２８番２８－１２０１号,,27,215,5720085,,,,,,,2023-07-19,1,,,,,サボローゾ,0
650,3120005023758,新規,0,2023-07-19,2023-07-19,医療法人清遥会,,その他の設立登記法人,大阪府,大阪市中央区,島之内１丁目２０番１１号深川ビル３階,,27,128,5420082,,,,,,,2023-07-19,1,,,,,セイヨウカイ,0
652,3120101067915,新規,0,2023-07-19,2023-07-19,株式会社アンカーダイヤ,,株式会社,大阪府,堺市東区,引野町１丁７番地１３８,,27,143,5998104,,,,,,,2023-07-19,1,,,,,アンカーダイヤ,0
655,3130001074746,新規,0,2023-07-19,2023-07-19,株式会社一起,,株式会社,京都府,京都市伏見区,車町２７３,,26,109,6128365,,,,,,,2023-07-19,1,,,,,カズキ,0
656,3130001074754,新規,0,2023-07-19,2023-07-19,株式会社ヤマモト,,株式会社,京都府,京都市南区,久世中久世町１丁目５７番地の５,,26,107,6018213,,,,,,,2023-07-19,1,,,,,ヤマモト,0
661,3140001130936,新規,0,2023-07-19,2023-07-19,株式会社ティーケー,,株式会社,兵庫県,神戸市中央区,大日通１丁目２番１８号,,28,110,6510064,,,,,,,2023-07-19,1,,,,,ティーケー,0
664,3150003003008,新規,0,2023-07-19,2023-07-19,合同会社草庵,,合同会社,奈良県,奈良市,芝辻町２丁目８番２２号－４０１号,00131211,29,201,6308114,,,,,,,2023-07-19,1,,,,,ソウアン,0
679,3180005020295,新規,0,2023-07-19,2023-07-19,弁護士法人那須・岩崎法律事務所,00131210,その他の設立登記法人,愛知県,名古屋市東区,主税町４丁目５２番地,,23,102,4610018,,,,,,,2023-07-19,1,,,,,ナスイワザキホウリツジムショ,0
685,3180303005774,新規,0,2023-07-19,2023-07-19,合同会社Ｓｅｒａｐｈｉｓ,,合同会社,愛知県,西尾市,一色町酒手島東下通６０番地１,,23,213,4440415,,,,,,,2023-07-19,1,,,,,セラフィス,0
686,3190001030594,新規,0,2023-07-19,2023-07-19,ニチケイ株式会社,,株式会社,三重県,松阪市,久保町１３１５番地５,,24,204,5150044,,,,,,,2023-07-19,1,,,,,ニチケイ,0
687,3190003004381,新規,0,2023-07-19,2023-07-19,合同会社グーウェン,,合同会社,三重県,四日市市,久保田２丁目３―１８プリンセスマンション１Ａ,,24,202,5100821,,,,,,,2023-07-19,1,,,,,グーウェン,0
690,3200003006021,新規,0,2023-07-19,2023-07-19,合同会社ＵＮＤＥＲ　ＴＨＥ　ＰＩＮＥ,,合同会社,岐阜県,中津川市,本町２丁目６－２７,,21,206,5080041,,,,,,,2023-07-19,1,,,,,アンダーザパイン,0
699,3250001020176,新規,0,2023-07-19,2023-07-19,株式会社タイヤマートいとう,,株式会社,山口県,萩市,大字土原６１１番地６,,35,204,7580025,,,,,,,2023-07-19,1,,,,,タイヤマートイトウ,0
711,3330003009911,新規,0,2023-07-19,2023-07-19,合同会社丸郷,,合同会社,熊本県,上益城郡山都町,郷野原７４８番地,,43,447,8613831,,,,,,,2023-07-19,1,,,,,マルゴウ,0
722,3400005008350,新規,0,2023-07-19,2023-07-19,医療法人桜歩会,,その他の設立登記法人,岩手県,二戸市,石切所字荷渡２番地９,,03,213,0286103,,,,,,,2023-07-19,1,,,,,オウホカイ,0
728,3430001089482,新規,0,2023-07-19,2023-07-19,株式会社Ｈｕｇｕｅｔｔｅ,,株式会社,北海道,札幌市中央区,南五条西１３丁目２番１０号ＮＯＲＴＨＷＩＮＧ４０３号,,01,101,0640805,,,,,,,2023-07-19,1,,,,,ユゲット,0
732,3450001014059,新規,0,2023-07-19,2023-07-19,株式会社あさひかわホームページ商店街,,株式会社,北海道,旭川市,二条通８丁目５６９番地の２ピアザビル５Ｆ,,01,204,0700032,,,,,,,2023-07-19,1,,,,,アサヒカワホームページショウテンガイ,0
733,3460101007408,新規,0,2023-07-19,2023-07-19,株式会社ロットテック,,株式会社,北海道,河東郡音更町,雄飛が丘北区１番地１１４,,01,631,0800331,,,,,,,2023-07-19,1,,,,,ロットテック,0
737,3500001025075,新規,0,2023-07-19,2023-07-19,ホワイトアウル株式会社,,株式会社,愛媛県,宇和島市,住吉町１丁目３番１号,,38,203,7980003,,,,,,,2023-07-19,1,,,,,ホワイトアウル,0
738,3500003003062,新規,0,2023-07-19,2023-07-19,合同会社岡本組,,合同会社,愛媛県,松山市,久万ノ台６２８－７,,38,201,7918016,,,,,,,2023-07-19,1,,,,,オカモトグミ,0
747,4010001236860,新規,0,2023-07-19,2023-07-19,株式会社インフレクション,,株式会社,東京都,千代田区,九段南２丁目２番８号松岡九段ビル４０３号室,,13,101,1020074,,,,,,,2023-07-19,1,,,,,インフレクション,0
748,4010001236927,新規,0,2023-07-19,2023-07-19,株式会社フェネストエンターテインメント,,株式会社,東京都,中央区,日本橋浜町３丁目２３番１号４階,,13,102,1030007,,,,,,,2023-07-19,1,,,,,フェネストエンターテインメント,0
753,4010005036968,新規,0,2023-07-19,2023-07-19,一般財団法人金川千尋未来化学財団,,その他の設立登記法人,東京都,千代田区,丸の内１丁目４番１号,,13,101,1000005,,,,,,,2023-07-19,1,,,,,カナガワチヒロミライカガクザイダン,0
754,4010005036976,新規,0,2023-07-19,2023-07-19,自然エネルギーＳＩＰＰ９一般社団法人,,その他の設立登記法人,東京都,千代田区,丸の内３丁目１番１号東京共同会計事務所内,,13,101,1000005,,,,,,,2023-07-19,1,,,,,シゼンエネルギーエスアイピーピーキュウ,0
755,4010005036984,新規,0,2023-07-19,2023-07-19,一般社団法人Ｃｒｙｓｔａｌ　Ｏｐｅｎ　Ｓｙｓｔｅｍｓ,,その他の設立登記法人,東京都,中央区,銀座７丁目１３番６号サガミビル２階,,13,102,1040061,,,,,,,2023-07-19,1,,,,,クリスタルオープンシステムズ,0
762,4010403030507,新規,0,2023-07-19,2023-07-19,合同会社Ａｌｐｈａ　Ｚｅｎｉｔｈ,,合同会社,東京都,港区,南青山３丁目１番３６号青山丸竹ビル６Ｆ,,13,103,1070062,,,,,,,2023-07-19,1,,,,,アルファゼニス,0
763,4010405022329,新規,0,2023-07-19,2023-07-19,ステラ社会保険労務士法人,,その他の設立登記法人,東京都,港区,新橋６丁目１３番９号３Ｆ,,13,103,1050004,,,,,,,2023-07-19,1,,,,,ステラ,0
764,4010503007082,新規,0,2023-07-19,2023-07-19,合同会社伝播塔,,合同会社,東京都,台東区,下谷２丁目３番１０―２０１号プロステージ入谷,,13,106,1100004,,,,,,,2023-07-19,1,,,,,デンパトウ,0
769,4010601063424,新規,0,2023-07-19,2023-07-19,株式会社ＥｉＵ,,株式会社,東京都,墨田区,江東橋４丁目２７番１４号楽天地ビル３階２８号室,,13,107,1300022,,,,,,,2023-07-19,1,,,,,エイユー,0
772,4010703006784,新規,0,2023-07-19,2023-07-19,リアルエステート合同会社,,合同会社,東京都,品川区,東大井２丁目４番７－２０１号,,13,109,1400011,,,,,,,2023-07-19,1,,,,,リアルエステート,0
777,4010803004606,新規,0,2023-07-19,2023-07-19,合同会社黒猫工房,,合同会社,東京都,大田区,西蒲田４丁目５番１０号グリーンテラス蒲田Ａ号室,,13,111,1440051,,,,,,,2023-07-19,1,,,,,クロネココウボウ,0
778,4010901053455,新規,0,2023-07-19,2023-07-19,株式会社アドバンス,,株式会社,東京都,世田谷区,太子堂４丁目２６番１２号２階,,13,112,1540004,,,,,,,2023-07-19,1,,,,,アドバンス,0
779,4011001155704,新規,0,2023-07-19,2023-07-19,株式会社サニーワールド,,株式会社,東京都,渋谷区,渋谷１丁目１５番１５－１０１４号テラス渋谷美竹,,13,113,1500002,,,,,,,2023-07-19,1,,,,,サニーワールド,0
786,4011201024782,新規,0,2023-07-19,2023-07-19,株式会社ｐｉｌａｔｅｓ　ｓｔｕｄｉｏ　ＣＯＣＯ,,株式会社,東京都,中野区,中野５丁目５６番７号ちぇっくビル３階,,13,114,1640001,,,,,,,2023-07-19,1,,,,,ピラティススタジオココ,0
789,4011203004130,新規,0,2023-07-19,2023-07-19,ＳＫＹ合同会社,,合同会社,東京都,中野区,上高田４丁目２３番１６号,,13,114,1640002,,,,,,,2023-07-19,1,,,,,スカイ,0
793,4011303004831,新規,0,2023-07-19,2023-07-19,スハンサインターナショナル合同会社,,合同会社,東京都,杉並区,天沼１丁目１７番１１号ポニーハウス１０１,,13,115,1670032,,,,,,,2023-07-19,1,,,,,,0
794,4011401025291,新規,0,2023-07-19,2023-07-19,株式会社Ｓｋｙ　Ｅｙｅ,,株式会社,東京都,板橋区,赤塚３丁目１２番２４号,,13,119,1750092,,,,,,,2023-07-19,1,,,,,スカイアイ,0
795,4011403004054,新規,0,2023-07-19,2023-07-19,ＭＩＬＫＷＯＲＴ合同会社,,合同会社,東京都,板橋区,本町３７番１－１２０３号,,13,119,1730001,,,,,,,2023-07-19,1,,,,,ミルクワート,0
800,4011703003532,新規,0,2023-07-19,2023-07-19,マニアな合同会社,,合同会社,東京都,江戸川区,平井５丁目１５－１０平井駅北口駅前ビル２Ｆ,,13,123,1320035,,,,,,,2023-07-19,1,,,,,マニアナ,0
807,4012801022515,新規,0,2023-07-19,2023-07-19,セントラルＡＭＹ株式会社,,株式会社,東京都,武蔵村山市,三ツ木２丁目８－７,,13,223,2080032,,,,,,,2023-07-19,1,,,,,セントラルエイミー,0
820,4020001152561,新規,0,2023-07-19,2023-07-19,株式会社ＱＵＩＸ,,株式会社,神奈川県,横浜市中区,長者町５丁目８５番地,,14,104,2310033,,,,,,,2023-07-19,1,,,,,,0
821,4020005016060,新規,0,2023-07-19,2023-07-19,ＮＰＯ法人レインボースクールかわさき,,その他の設立登記法人,神奈川県,川崎市川崎区,京町１丁目１番１８－４号,,14,131,2100848,,,,,,,2023-07-19,1,,,,,レインボースクールカワサキ,0
824,4021001079646,新規,0,2023-07-19,2023-07-19,株式会社Ｒｙｍ　Ｃｒａｆｔ,,株式会社,神奈川県,逗子市,逗子２丁目６番２０号２階Ｅ号室,,14,208,2490006,,,,,,,2023-07-19,1,,,,,リムクラフト,0
825,4021001079670,新規,0,2023-07-19,2023-07-19,株式会社湘南Ｓ‐ＬＩＮＥ,,株式会社,神奈川県,厚木市,戸田４９１番地Ａ－２０１,,14,212,2430023,,,,,,,2023-07-19,1,,,,,ショウナンエスライン,0
828,4021003013339,新規,0,2023-07-19,2023-07-19,合同会社ＺＥＮＰＡＮ,,合同会社,神奈川県,逗子市,逗子５丁目４―３５、２階,,14,208,2490006,,,,,,,2023-07-19,1,,,,,ゼンパン,0
830,4021005012859,新規,0,2023-07-19,2023-07-19,一般社団法人Ｈａｇｕｍｉ　Ｌａｂｏ,,その他の設立登記法人,神奈川県,秦野市,南矢名２丁目７番３５号,,14,211,2570003,,,,,,,2023-07-19,1,,,,,ハグミラボ,0
842,4040001129285,新規,0,2023-07-19,2023-07-19,株式会社ＬＣＢ,,株式会社,千葉県,印西市,和泉５５９番地,,12,231,2701351,,,,,,,2023-07-19,1,,,,,エルシービー,0
843,4040001129293,新規,0,2023-07-19,2023-07-19,株式会社キーカク,,株式会社,千葉県,八千代市,緑が丘西６丁目５番地１６,,12,221,2760040,,,,,,,2023-07-19,1,,,,,キーカク,0
844,4040001129310,新規,0,2023-07-19,2023-07-19,Ｂｖｅｒ株式会社,,株式会社,千葉県,茂原市,上林１３４－２１,,12,210,2970019,,,,,,,2023-07-19,1,,,,,ビーバー,0
846,4040003022975,新規,0,2023-07-19,2023-07-19,生明総建合同会社,,合同会社,千葉県,柏市,酒井根７丁目３番１１号,,12,217,2770053,,,,,,,2023-07-19,1,,,,,アズミソウケン,0
851,4060001036158,新規,0,2023-07-19,2023-07-19,Ｖａｃａｔｉｏｎ　ｄｅｓｉｇｎ株式会社,,株式会社,栃木県,那須塩原市,大原間西１丁目１４番地７クラスカＷｅｓｔ１０５,,09,213,3293157,,,,,,,2023-07-19,1,,,,,バケーションデザイン,0
853,4060005010118,新規,0,2023-07-19,2023-07-19,一般社団法人ａ，ｏｕ,,その他の設立登記法人,栃木県,那須塩原市,中央町４番７号,,09,213,3250052,,,,,,,2023-07-19,1,,,,,アオウ,0
855,4070001040646,新規,0,2023-07-19,2023-07-19,株式会社キャッサバ王,,株式会社,群馬県,伊勢崎市,本関町１２３７番地１０,,10,204,3720016,,,,,,,2023-07-19,1,,,,,キャッサバオウ,0
866,4080401026608,新規,0,2023-07-19,2023-07-19,株式会社コネクト,,株式会社,静岡県,掛川市,下垂木２８６７番地の１光洋Ｂ２０３号,,22,213,4360222,,,,,,,2023-07-19,1,,,,,コネクト,0
869,4110001037704,新規,0,2023-07-19,2023-07-19,株式会社スズシン板金,,株式会社,新潟県,長岡市,大口１４５７番地５,,15,202,9540145,,,,,,,2023-07-19,1,,,,,スズシンバンキン,0
871,4110003005122,新規,0,2023-07-19,2023-07-19,上杉快運合同会社,,合同会社,新潟県,新潟市江南区,東船場４丁目１番２７号,,15,104,9500163,,,,,,,2023-07-19,1,,,,,ウエスギカイウン,0
878,4120001256542,新規,0,2023-07-19,2023-07-19,株式会社ＡＭ＆Ｓ,,株式会社,大阪府,大阪市中央区,伏見町４丁目４番９号,,27,128,5410044,,,,,,,2023-07-19,1,,,,,エーエムアンドエス,0
879,4120001256550,新規,0,2023-07-19,2023-07-19,瀚宇株式会社,,株式会社,大阪府,大阪市東成区,深江北３丁目４番２１号エクラ深江橋１０６Ａ,,27,115,5370001,,,,,,,2023-07-19,1,,,,,カンウ,0
880,4120001256575,新規,0,2023-07-19,2023-07-19,Ｓｍｉｌｅ　Ｒａｉｎｂｏｗ　Ｃｏｍｍｅｒｃｉａｌ株式会社,,株式会社,大阪府,大阪市東淀川区,東中島４丁目２番２４号トレンディ新大阪３０１号室,,27,114,5330033,,,,,,,2023-07-19,1,,,,,スマイルレインボーコマーシャル,0
883,4120003024484,新規,0,2023-07-19,2023-07-19,合同会社フードオーケストラ,,合同会社,大阪府,大阪市阿倍野区,阿倍野元町８番５号,,27,119,5450034,,,,,,,2023-07-19,1,,,,,フードオーケストラ,0
884,4120003024501,新規,0,2023-07-19,2023-07-19,合同会社介護のうららか城東,,合同会社,大阪府,大阪市城東区,中央１丁目８番２４号東洋プラザ蒲生６０６号室,,27,118,5360005,,,,,,,2023-07-19,1,,,,,カイゴノウララカジョウトウ,0
885,4120003024518,新規,0,2023-07-19,2023-07-19,合同会社ＮＥＸＴＭＡＴＣＨ,,合同会社,大阪府,大阪市中央区,谷町６丁目４番３８－２０５号,,27,128,5420012,,,,,,,2023-07-19,1,,,,,ネクストマッチ,0
887,4120101067897,新規,0,2023-07-19,2023-07-19,株式会社ＳＫリテール,,株式会社,大阪府,堺市堺区,錦綾町３丁２番１４号,,27,141,5900006,,,,,,,2023-07-19,1,,,,,エスケイリテール,0
891,4130001074753,新規,0,2023-07-19,2023-07-19,株式会社天橋立４ｓｅａｓｏｎ,,株式会社,京都府,宮津市,字文珠４６８番地の１,,26,205,6260001,,,,,,,2023-07-19,1,,,,,アマノハシダテフォーシーズン,0
899,4140001130927,新規,0,2023-07-19,2023-07-19,東源株式会社,,株式会社,兵庫県,尼崎市,潮江３丁目２２番２５号,,28,202,6610976,,,,,,,2023-07-19,1,,,,,トウゲン,0
900,4140003019292,新規,0,2023-07-19,2023-07-19,はくあい合同会社,,合同会社,兵庫県,神戸市西区,学園東町１丁目５番地,,28,111,6512102,,,,,,,2023-07-19,1,,,,,ハクアイ,0
901,4140003019318,新規,0,2023-07-19,2023-07-19,ＬＩＮＫＢＥＴＹ合同会社,,合同会社,兵庫県,神戸市東灘区,本庄町１丁目９番１７号スペース２１本庄４０５号室,,28,101,6580012,,,,,,,2023-07-19,1,,,,,リンクベティ,0
904,4170001017683,新規,0,2023-07-19,2023-07-19,テッシュジャパン株式会社,,株式会社,和歌山県,和歌山市,湊本町３丁目４番地２サーパス市民図書館前９０６号,,30,201,6408222,,,,,,,2023-07-19,1,,,,,テッシュジャパン,0
910,4180001157223,新規,0,2023-07-19,2023-07-19,良縁株式会社,,株式会社,愛知県,名古屋市中村区,岩塚町字上小路７５番地の２,,23,105,4530862,,,,,,,2023-07-19,1,,,,,リョウエン,0
924,4200001041507,新規,0,2023-07-19,2023-07-19,ＲＫ株式会社,,株式会社,岐阜県,本巣市,見延１３９９番地２,,21,218,5010413,,,,,,,2023-07-19,1,,,,,アールケー,0
927,4200003006020,新規,0,2023-07-19,2023-07-19,はなまる不動産合同会社,,合同会社,岐阜県,岐阜市,北島７丁目７番５号,,21,201,5020911,,,,,,,2023-07-19,1,,,,,ハナマルフドウサン,0
930,4210001019386,新規,0,2023-07-19,2023-07-19,株式会社ＭＫ３,,株式会社,福井県,大野市,中野町１丁目８番１６号,,18,205,9120021,,,,,,,2023-07-19,1,,,,,エムケースリー,0
933,4220001025499,新規,0,2023-07-19,2023-07-19,株式会社エースケット,,株式会社,石川県,白山市,美川南町ハ７２番地５,,17,210,9290215,,,,,,,2023-07-19,1,,,,,エースケット,0
943,4250001020175,新規,0,2023-07-19,2023-07-19,高野工業株式会社,00131206,株式会社,山口県,周南市,北山１丁目１０番６号,,35,215,7450864,,,,,,,2023-07-19,1,,,,,タカノコウギョウ,0
950,4260001038134,新規,0,2023-07-19,2023-07-19,株式会社ＫＫサービス,,株式会社,岡山県,浅口市,鴨方町鴨方１５６０番地１,,33,216,7190243,,,,,,,2023-07-19,1,,,,,ケーケーサービス,0
954,4280001008993,新規,0,2023-07-19,2023-07-19,株式会社Ｋｅｉコーポレーション,,株式会社,島根県,安来市,安来町１２０７番地１３,,32,206,6920011,,,,,,,2023-07-19,1,,,,,ケイコーポレーション,0
957,4290801029701,新規,0,2023-07-19,2023-07-19,Ｄｉｏホールディングス株式会社,,株式会社,福岡県,遠賀郡岡垣町,大字三吉１２５０番地,,40,383,8114205,,,,,,,2023-07-19,1,,,,,ディオホールディングス,0
966,4310003004608,新規,0,2023-07-19,2023-07-19,合同会社ながさき産業,,合同会社,長崎県,南島原市,有家町尾上１４６３番地,,42,214,8592203,,,,,,,2023-07-19,1,,,,,ナガサキサンギョウ,0
968,4320003004128,新規,0,2023-07-19,2023-07-19,ストロベリーハウス合同会社,,合同会社,大分県,大分市,弁天３丁目３番１６号,,44,201,8700017,,,,,,,2023-07-19,1,,,,,ストロベリーハウス,0
970,4330001031040,新規,0,2023-07-19,2023-07-19,株式会社Ｙ＆Ｆ．ＨＤ,,株式会社,熊本県,人吉市,七地町９０１番地３,,43,203,8680041,,,,,,,2023-07-19,1,,,,,ワイアンドエフエィチディ,0
974,4350001018457,新規,0,2023-07-19,2023-07-19,株式会社絆建総,,株式会社,宮崎県,宮崎市,大字塩路２４１８番地１７,,45,201,8800122,,,,,,,2023-07-19,1,,,,,キズナケンソウ,0
982,4430003015254,新規,0,2023-07-19,2023-07-19,合同会社リベルテ,,合同会社,北海道,札幌市白石区,北郷一条８丁目８番１５－２０２号,,01,104,0030831,,,,,,,2023-07-19,1,,,,,リベルテ,0
992,4700150047907,新規,0,2023-07-19,2015-10-09,岐阜調停協会,,その他,岐阜県,岐阜市,美江寺町２丁目４岐阜地方裁判所内,,21,201,5008812,,,,,,,2015-10-09,1,,,,,ギフチヨウテイキヨウカイ,0
997,5010001236942,新規,0,2023-07-19,2023-07-19,エナジーフロー株式会社,,株式会社,東京都,中央区,日本橋人形町２丁目１３番９号,,13,102,1030013,,,,,,,2023-07-19,1,,,,,エナジーフロー,0
998,5010001236975,新規,0,2023-07-19,2023-07-19,株式会社トムエル,,株式会社,東京都,中央区,銀座１丁目１２番４号Ｎ＆Ｅ．ＢＬＤ．６Ｆ,,13,102,1040061,,,,,,,2023-07-19,1,,,,,トムエル,0
1004,5010003041119,新規,0,2023-07-19,2023-07-19,合同会社Ｄｙｎａｍｏ,,合同会社,東京都,中央区,晴海２丁目３番２－４６０３号,,13,102,1040053,,,,,,,2023-07-19,1,,,,,ダイナモ,0
1008,5010005036983,新規,0,2023-07-19,2023-07-19,一般社団法人Ｔ８キャピタル,,その他の設立登記法人,東京都,千代田区,内神田２丁目２番６号５階あすな会計事務所内,,13,101,1010047,,,,,,,2023-07-19,1,,,,,ティーエイトキャピタル,0
1026,5010601063423,新規,0,2023-07-19,2023-07-19,株式会社ＴＦ・コーポレーション,,株式会社,東京都,江東区,大島８丁目４番２号,,13,108,1360072,,,,,,,2023-07-19,1,,,,,ティーエフコーポレーション,0
1027,5010601063431,新規,0,2023-07-19,2023-07-19,益農国際株式会社,,株式会社,東京都,墨田区,横川４丁目１番２０号１Ｆ－Ｂ,,13,107,1300003,,,,,,,2023-07-19,1,,,,,エキノウコクサイ,0
1032,5010701044587,新規,0,2023-07-19,2023-07-19,株式会社トライペディア,,株式会社,東京都,品川区,荏原２丁目１７番１３号,,13,109,1420063,,,,,,,2023-07-19,1,,,,,トライペディア,0
1035,5010801034174,新規,0,2023-07-19,2023-07-19,株式会社ＫｉｒｓｃｈＴｅｃｈ,,株式会社,東京都,大田区,山王２丁目５－１３大森北口ビル５Ｆ,,13,111,1430023,,,,,,,2023-07-19,1,,,,,キルシュテック,0
1039,5010901053438,新規,0,2023-07-19,2023-07-19,株式会社セカンドコーポレーション,,株式会社,東京都,世田谷区,喜多見５丁目１２番１５号,,13,112,1570067,,,,,,,2023-07-19,1,,,,,セカンドコーポレーション,0
1040,5010901053446,新規,0,2023-07-19,2023-07-19,株式会社スターズフュージョン,,株式会社,東京都,世田谷区,桜丘２丁目１１－１１コーポ高田２０１号室,,13,112,1560054,,,,,,,2023-07-19,1,,,,,スターズフュージョン,0
1042,5010903008258,新規,0,2023-07-19,2023-07-19,合同会社Ｇｒｏｗｖｅｒ,,合同会社,東京都,世田谷区,松原２丁目３７番１８－４０４号,,13,112,1560043,,,,,,,2023-07-19,1,,,,,グローバー,0
1046,5011001155711,新規,0,2023-07-19,2023-07-19,株式会社ＩＫＵＳＨＩＭＡ　Ｐｌｕｓ,,株式会社,東京都,渋谷区,桜丘町２６番１号セルリアンタワー１５階,,13,113,1500031,,,,,,,2023-07-19,1,,,,,イクシマプラス,0
1047,5011001155777,新規,0,2023-07-19,2023-07-19,ＫＵＫＵＡ　Ｌａｂ．株式会社,,株式会社,東京都,目黒区,青葉台３丁目１５番１７号ＦＡＲＯ中目黒１階,,13,110,1530042,,,,,,,2023-07-19,1,,,,,,0
1050,5011003017199,新規,0,2023-07-19,2023-07-19,合同会社ゆたか,,合同会社,東京都,渋谷区,道玄坂１丁目１０番８号渋谷道玄坂東急ビル２Ｆ－Ｃ,,13,113,1500043,,,,,,,2023-07-19,1,,,,,ユタカ,0
1051,5011003017208,新規,0,2023-07-19,2023-07-19,合同会社ファビット,,合同会社,東京都,渋谷区,神泉町１０番１５号,,13,113,1500045,,,,,,,2023-07-19,1,,,,,ファビット,0
1052,5011005010152,新規,0,2023-07-19,2023-07-19,労働者協同組合きょうどう,,その他の設立登記法人,東京都,渋谷区,代々木１丁目３２番２号宮崎ビル２階,00131212,13,113,1510053,,,,,,,2023-07-19,1,,,,,キョウドウ,0
1054,5011101103561,新規,0,2023-07-19,2023-07-19,株式会社ハッピー・ソリューションズ,,株式会社,東京都,新宿区,西新宿３丁目３番１３号,,13,104,1600023,,,,,,,2023-07-19,1,,,,,ハッピーソリューションズ,0
1057,5011301028864,新規,0,2023-07-19,2023-07-19,株式会社ＳＳＳ,,株式会社,東京都,杉並区,荻窪１丁目４９番７号,,13,115,1670051,,,,,,,2023-07-19,1,,,,,トリプルエス,0
1058,5011401025290,新規,0,2023-07-19,2023-07-19,株式会社住まいるパートナーズ,,株式会社,東京都,板橋区,赤塚３丁目２７番２号シャーメゾン成増１０２,,13,119,1750092,,,,,,,2023-07-19,1,,,,,スマイルパートナーズ,0
1061,5011701026427,新規,0,2023-07-19,2023-07-19,株式会社フルサト建機,,株式会社,東京都,江戸川区,南葛西６丁目１６番１０号,,13,123,1340085,,,,,,,2023-07-19,1,,,,,フルサトケンキ,0
1063,5011801042737,新規,0,2023-07-19,2023-07-19,フィンノリンク株式会社,,株式会社,東京都,葛飾区,東金町３丁目２９－９,,13,122,1250041,,,,,,,2023-07-19,1,,,,,フィンノリンク,0
1064,5011801042745,新規,0,2023-07-19,2023-07-19,株式会社ＣＯＳＭＯＳ　ＪＡＰＡＮ,,株式会社,東京都,葛飾区,立石２丁目２７番７号,,13,122,1240012,,,,,,,2023-07-19,1,,,,,コスモスジャパン,0
1068,5012403006072,新規,0,2023-07-19,2023-07-19,合同会社大豊,,合同会社,東京都,稲城市,平尾１丁目３２番地の９リンジュドゥプリムＧ－３,,13,225,2060823,,,,,,,2023-07-19,1,,,,,タイホウ,0
1069,5012801022514,新規,0,2023-07-19,2023-07-19,株式会社ユニティ,,株式会社,東京都,立川市,柴崎町１丁目１８番地１０号,,13,202,1900023,,,,,,,2023-07-19,1,,,,,ユニティ,0
1070,5013103001248,新規,0,2023-07-19,2023-07-19,合同会社ｌｏｖｅｌｙ　ｖｉｌｌａｇｅ,,合同会社,東京都,あきる野市,牛沼１０９番地,,13,228,1970826,,,,,,,2023-07-19,1,,,,,ラヴリィヴィレッジ,0
1079,5020001152528,新規,0,2023-07-19,2023-07-19,株式会社花香,,株式会社,神奈川県,横浜市西区,北幸２丁目１０番地２８むつみビル３Ｆ,,14,103,2200004,,,,,,,2023-07-19,1,,,,,ハナカ,0
1080,5020001152560,新規,0,2023-07-19,2023-07-19,株式会社アシストホールディングス,,株式会社,神奈川県,横浜市中区,翁町１丁目３番地１５,,14,104,2310028,,,,,,,2023-07-19,1,,,,,アシストホールディングス,0
1081,5020001152593,新規,0,2023-07-19,2023-07-19,ＭＫコンサルティング株式会社,,株式会社,神奈川県,横浜市中区,日ノ出町１丁目２７番地,,14,104,2310066,,,,,,,2023-07-19,1,,,,,エムケーコンサルティング,0
1085,5021001079645,新規,0,2023-07-19,2023-07-19,コアテック株式会社,,株式会社,神奈川県,南足柄市,竹松１８３０番地３,,14,217,2500111,,,,,,,2023-07-19,1,,,,,コアテック,0
1087,5021005012858,新規,0,2023-07-19,2023-07-19,つなぐ森淵野辺団地管理組合法人,,その他の設立登記法人,神奈川県,相模原市中央区,淵野辺本町５丁目４番２２号,,14,152,2520202,,,,,,,2023-07-19,1,,,,,ツナグモリフチノベ,0
1098,5040001129284,新規,0,2023-07-19,2023-07-19,株式会社ｃｏｔｏ,,株式会社,千葉県,浦安市,猫実４丁目１６番２４号,,12,227,2790004,,,,,,,2023-07-19,1,,,,,コト,0
1099,5040001129292,新規,0,2023-07-19,2023-07-19,株式会社長岡ホールディングス,,株式会社,千葉県,千葉市若葉区,小倉町１７５６番地３１,,12,104,2640007,,,,,,,2023-07-19,1,,,,,ナガオカホールディングス,0
1100,5050001053178,新規,0,2023-07-19,2023-07-19,株式会社弘栄,,株式会社,茨城県,守谷市,みずき野６丁目１８番地３,,08,224,3020121,,,,,,,2023-07-19,1,,,,,コウエイ,0
1104,5060001036165,新規,0,2023-07-19,2023-07-19,株式会社ベリーガーデンファーム,,株式会社,栃木県,真岡市,大根田１０４０番地,,09,209,3214506,,,,,,,2023-07-19,1,,,,,ベリーガーデンファーム,0
1105,5060003004649,新規,0,2023-07-19,2023-07-19,あおい屋根ケアプランセンター合同会社,,合同会社,栃木県,栃木市,薗部町３丁目１６－９,,09,203,3280074,,,,,,,2023-07-19,1,,,,,アオイヤネケアプランセンター,0
1106,5060005010117,新規,0,2023-07-19,2023-07-19,農事組合法人うつのみやファーム,,その他の設立登記法人,栃木県,宇都宮市,中央２丁目９番９号,,09,201,3200806,,,,,,,2023-07-19,1,,,,,ウツノミヤファーム,0
1107,5070001040653,新規,0,2023-07-19,2023-07-19,株式会社ＴＯＰ　ＳＴＡＧＥ,,株式会社,群馬県,館林市,日向町１１４３－２５,,10,207,3740076,,,,,,,2023-07-19,1,,,,,トップステージ,0
1111,5080001025744,新規,0,2023-07-19,2023-07-19,株式会社Ｌｅｉ,,株式会社,静岡県,静岡市駿河区,新川２丁目８番８号,,22,102,4228064,,,,,,,2023-07-19,1,,,,,レイ,0
1113,5080003003013,新規,0,2023-07-19,2023-07-19,ＨＩＲＯ合同会社,,合同会社,静岡県,静岡市清水区,幸町１１番２１－６０５号,,22,103,4240923,,,,,,,2023-07-19,1,,,,,ヒロ,0
1117,5080101024126,新規,0,2023-07-19,2023-07-19,セレニティー株式会社,,株式会社,静岡県,下田市,吉佐美１２５８番地の１,,22,219,4150028,,,,,,,2023-07-19,1,,,,,セレニティー,0
1137,5120001256509,新規,0,2023-07-19,2023-07-19,宝佑株式会社,,株式会社,大阪府,大阪市東淀川区,西淡路４丁目１５番２３－８０１号,,27,114,5330031,,,,,,,2023-07-19,1,,,,,ホウユウ,0
1138,5120001256566,新規,0,2023-07-19,2023-07-19,旭日株式会社,,株式会社,大阪府,大阪市浪速区,大国１丁目３－８－２０３号室,,27,111,5560014,,,,,,,2023-07-19,1,,,,,キョクヒ,0
1141,5120003024418,新規,0,2023-07-19,2023-07-19,ＭＫ　Ｔｅｃｈ合同会社,,合同会社,大阪府,大阪市城東区,新喜多東２丁目１１番１３号,,27,118,5360017,,,,,,,2023-07-19,1,,,,,エムケーテック,0
1142,5120005023748,新規,0,2023-07-19,2023-07-19,医療法人もり内科皮膚科クリニック,,その他の設立登記法人,大阪府,大阪市中央区,谷町６丁目４番１４号メルベーユ谷町１階,,27,128,5420012,,,,,,,2023-07-19,1,,,,,モリナイカヒフカクリニック,0
1143,5120103005334,新規,0,2023-07-19,2023-07-19,勝本商事合同会社,,合同会社,大阪府,堺市中区,深井畑山町１８３－１１,,27,142,5998248,,,,,,,2023-07-19,1,,,,,カツモトショウジ,0
1145,5120901047809,新規,0,2023-07-19,2023-07-19,株式会社Ｓ’ｓ＆ｐａｒｔｎｅｒｓ,,株式会社,大阪府,箕面市,彩都粟生南２丁目２３番２３号,,27,220,5620028,,,,,,,2023-07-19,1,,,,,エスズアンドパートナーズ,0
1148,5120905006496,新規,0,2023-07-19,2023-07-19,医療法人桜誠会,,その他の設立登記法人,大阪府,高槻市,高槻町２番１１号松昌興産本社ビル１階,,27,207,5690803,,,,,,,2023-07-19,1,,,,,オウセイカイ,0
1151,5130001074711,新規,0,2023-07-19,2023-07-19,株式会社Ｐｌａｎｅｔａｒｙ　Ｗｅｌｌｎｅｓｓ,,株式会社,京都府,京都市左京区,吉田橘町３２番地ｔｏｂｅｒｕ１,,26,103,6068303,,,,,,,2023-07-19,1,,,,,プラネタリーウェルネス,0
1152,5130001074744,新規,0,2023-07-19,2023-07-19,武田興産株式会社,,株式会社,京都府,京都市中京区,中筋通竹屋町上る末丸町５４１番地２８,,26,104,6040901,,,,,,,2023-07-19,1,,,,,タケダコウサン,0
1153,5130001074752,新規,0,2023-07-19,2023-07-19,葉上株式会社,,株式会社,京都府,京都市上京区,寺町通荒神口上る荒神町１１５番地２Ｋビル３Ｆ,,26,102,6020856,,,,,,,2023-07-19,1,,,,,ハガミ,0
1154,5130001074777,新規,0,2023-07-19,2023-07-19,株式会社成和クレスト,,株式会社,京都府,宇治市,神明石塚３３番地２２,,26,204,6110025,,,,,,,2023-07-19,1,,,,,セイワクレスト,0
1162,5140005026682,新規,0,2023-07-19,2023-07-19,社会保険労務士法人石橋事務所,,その他の設立登記法人,兵庫県,神戸市中央区,神仙寺通１丁目９番１－５号,,28,110,6510051,,,,,,,2023-07-19,1,,,,,イシバシジムショ,0
1163,5140005026690,新規,0,2023-07-19,2023-07-19,一般社団法人耕作放棄地の有効利用,,その他の設立登記法人,兵庫県,加古川市,平岡町新在家１３７９番地の１,,28,210,6750101,,,,,,,2023-07-19,1,,,,,コウサクホウキチノユウコウリヨウ,0
1164,5150001026553,新規,0,2023-07-19,2023-07-19,株式会社ＦｕｎＣｏｌｌｅｃｔ,,株式会社,奈良県,生駒市,北新町１３番２６－６号,,29,209,6300245,,,,,,,2023-07-19,1,,,,,ファンコレクト,0
1169,5170001017699,新規,0,2023-07-19,2023-07-19,株式会社Ｅｉｇｈｔ,,株式会社,和歌山県,田辺市,下三栖１７０７番地,,30,206,6460216,,,,,,,2023-07-19,1,,,,,エイト,0
1174,5180001157214,新規,0,2023-07-19,2023-07-19,株式会社Ｇｒａｍｏｕｒ,,株式会社,愛知県,名古屋市東区,葵１丁目１７番１４号,,23,102,4610004,,,,,,,2023-07-19,1,,,,,グラムール,0
1183,5180003025484,新規,0,2023-07-19,2023-07-19,合同会社サイプリオン,,合同会社,愛知県,名古屋市中村区,名駅３丁目４－１０アルティメイト名駅１ｓｔ２階,,23,105,4500002,,,,,,,2023-07-19,1,,,,,サイプリオン,0
1193,5200001041506,新規,0,2023-07-19,2023-07-19,株式会社かじつ,,株式会社,岐阜県,岐阜市,鏡島西２丁目６番４７号,,21,201,5010123,,,,,,,2023-07-19,1,,,,,カジツ,0
1194,5210001019385,新規,0,2023-07-19,2023-07-19,株式会社Ｘｉａｎａｌ＆Ｐｅｖｅｌ,,株式会社,福井県,福井市,新田塚２丁目２５－７,,18,201,9100067,,,,,,,2023-07-19,1,,,,,シャナルアンドピーブル,0
1210,5280001008992,新規,0,2023-07-19,2023-07-19,テラピー株式会社,,株式会社,島根県,江津市,二宮町神主ハ４１番地１,,32,207,6950024,,,,,,,2023-07-19,1,,,,,テラピー,0
1213,5290001102282,新規,0,2023-07-19,2023-07-19,株式会社Ｓｔｒｉｖｅ　Ｏｎｅ,,株式会社,福岡県,福岡市中央区,薬院４丁目１３番６２－１７０４号,,40,133,8100022,,,,,,,2023-07-19,1,,,,,ストライブワン,0
1214,5290001102332,新規,0,2023-07-19,2023-07-19,株式会社ｋ・ｋＨＯＭＥ’Ｓ,,株式会社,福岡県,福岡市東区,多の津１丁目１０－１－４１５,,40,131,8130034,,,,,,,2023-07-19,1,,,,,ケーケーホームズ,0
1215,5290001102340,新規,0,2023-07-19,2023-07-19,平山工業株式会社,,株式会社,福岡県,糟屋郡粕屋町,原町４丁目２番４８号セントフォーラム原町３０３号,,40,349,8112307,,,,,,,2023-07-19,1,,,,,ヒラヤマコウギョウ,0
1225,5310003004607,新規,0,2023-07-19,2023-07-19,池島塗装工業合同会社,,合同会社,長崎県,諫早市,高来町汲水９８番地１,,42,204,8590141,,,,,,,2023-07-19,1,,,,,イケシマトソウコウギョウ,0
1229,5330001031056,新規,0,2023-07-19,2023-07-19,ＰＩＬＩＮＡ株式会社,,株式会社,熊本県,熊本市中央区,京町１丁目９番１８号,,43,101,8600078,,,,,,,2023-07-19,1,,,,,ピリナ,0
1235,5390001017322,新規,0,2023-07-19,2023-07-19,株式会社ｅｎｄ　ｋｒｏｌｌ,,株式会社,山形県,山形市,鈴川町３丁目４番９号,,06,201,9900062,,,,,,,2023-07-19,1,,,,,エンドロール,0
1237,5390003002116,新規,0,2023-07-19,2023-07-19,合同会社クリーン２４,,合同会社,山形県,山形市,新開２丁目８－１２,,06,201,9902164,,,,,,,2023-07-19,1,,,,,クリーントゥエンティーフォー,0
1243,5430001089448,新規,0,2023-07-19,2023-07-19,セールスエージェント株式会社,,株式会社,北海道,札幌市中央区,南一条東２丁目１３番地１パークヒルズＯＭ中央１２－５０５号室,,01,101,0600051,,,,,,,2023-07-19,1,,,,,セールスエージェント,0
1245,5430003015220,新規,0,2023-07-19,2023-07-19,合同会社ＬｉＶ,,合同会社,北海道,札幌市中央区,北九条西２４丁目１番２２－Ｄ,,01,101,0600009,,,,,,,2023-07-19,1,,,,,リヴ,0
1246,5430003015237,新規,0,2023-07-19,2023-07-19,合同会社シロマク,,合同会社,北海道,札幌市南区,澄川四条５丁目７番８号,,01,106,0050004,,,,,,,2023-07-19,1,,,,,シロマク,0
1248,5450001014057,新規,0,2023-07-19,2023-07-19,株式会社寿司処みらく,,株式会社,北海道,紋別市,本町６丁目１番９号,,01,219,0940004,,,,,,,2023-07-19,1,,,,,,0
1252,5480001012149,新規,0,2023-07-19,2023-07-19,株式会社塗装工房,,株式会社,徳島県,板野郡北島町,鯛浜字中須１５番地,,36,402,7710204,,,,,,,2023-07-19,1,,,,,トソウコウボウ,0
1255,5700150036818,新規,0,2023-07-19,2015-10-09,奥州市水沢南自治振興会,,その他,岩手県,奥州市,水沢大鐘町２丁目１２,,03,215,0230854,,,,,,,2015-10-09,1,,,,,オウシユウシミズサワミナミジチシンコウカイ,0
1257,5700150117527,新規,0,2023-07-19,2023-06-16,維新・大地,,その他,北海道,札幌市中央区,北一条西２丁目,,01,101,0600001,,,,,,,2023-06-16,1,,,,,イシンダイチ,0
1263,6010001236933,新規,0,2023-07-19,2023-07-19,株式会社ＡｏＬ,,株式会社,東京都,中央区,晴海２丁目３番２－４６０３号,,13,102,1040053,,,,,,,2023-07-19,1,,,,,エーオーエル,0
1264,6010001236974,新規,0,2023-07-19,2023-07-19,株式会社ｖｅｉｌ,,株式会社,東京都,千代田区,永田町２丁目１３番１４号プルデンシャルタワー３００９,,13,101,1000014,,,,,,,2023-07-19,1,,,,,ヴェール,0
1269,6010005036974,新規,0,2023-07-19,2023-07-19,一般社団法人ジャパンビジネスセンター,,その他の設立登記法人,東京都,中央区,京橋２丁目８番１号八重洲中央ビル４階,,13,102,1040031,,,,,,,2023-07-19,1,,,,,ジャパンビジネスセンター,0
1270,6010005036990,新規,0,2023-07-19,2023-07-19,一般社団法人ＴＳホールディング１号,,その他の設立登記法人,東京都,千代田区,平河町１丁目６番１５号シルスフィア会計事務所内,,13,101,1020093,,,,,,,2023-07-19,1,,,,,ティーエスホールディングイチゴウ,0
1277,6010401175723,新規,0,2023-07-19,2023-07-19,株式会社さーたんと愉快な仲間たち,,株式会社,東京都,港区,赤坂４丁目２番１１号エスセナーリオ赤坂ＥＡＳＴ２０１,,13,103,1070052,,,,,,,2023-07-19,1,,,,,サータントユカイナナカマタチ,0
1285,6010501050784,新規,0,2023-07-19,2023-07-19,ＦｌａｓｈＩｎｔｅｌ　Ｊａｐａｎ株式会社,,株式会社,東京都,台東区,清川１丁目２１－５ＷＡＬＬａｐａｒｔｍｅｎｔ５階大区画号室,,13,106,1110022,,,,,,,2023-07-19,1,,,,,フラッシュインテルジャパン,0
1289,6010601063439,新規,0,2023-07-19,2023-07-19,株式会社Ｐａｌｐａ,,株式会社,東京都,江東区,新大橋３丁目１６－４グランブルー森下１０２,,13,108,1350007,,,,,,,2023-07-19,1,,,,,パルパ,0
1293,6010901053445,新規,0,2023-07-19,2023-07-19,山田設備機工株式会社,,株式会社,東京都,世田谷区,桜丘５丁目４８番１６号,,13,112,1560054,,,,,,,2023-07-19,1,,,,,ヤマダセツビキコウ,0
1294,6010901053453,新規,0,2023-07-19,2023-07-19,株式会社ＡＭＹ,,株式会社,東京都,世田谷区,太子堂３丁目３６－１Ｂｒｉｌｌｉａｉｓｔ三軒茶屋アイビーテラス７０７,,13,112,1540004,,,,,,,2023-07-19,1,,,,,アーミー,0
1308,6011001155685,新規,0,2023-07-19,2023-07-19,株式会社ストックトラスト,,株式会社,東京都,渋谷区,東２丁目１５－２,,13,113,1500011,,,,,,,2023-07-19,1,,,,,ストックトラスト,0
1309,6011001155743,新規,0,2023-07-19,2023-07-19,株式会社ｂｅｇｉｎｎｉｎｇ,,株式会社,東京都,渋谷区,渋谷１丁目２３番２０号,,13,113,1500002,,,,,,,2023-07-19,1,,,,,ビギニング,0
1316,6011301028863,新規,0,2023-07-19,2023-07-19,株式会社ＩＲＩＥ,,株式会社,東京都,杉並区,高円寺南４丁目７番１号藤和シティコープ高円寺南春木屋ビル７０３,,13,115,1660003,,,,,,,2023-07-19,1,,,,,アイリー,0
1318,6011601026988,新規,0,2023-07-19,2023-07-19,株式会社ＳＥＬＥＣＴ　ＭＡＲＴ,,株式会社,東京都,練馬区,桜台１丁目９番２号Ｋ´ｓ桜台１階,,13,120,1760002,,,,,,,2023-07-19,1,,,,,セレクトマート,0
1329,6020001152592,新規,0,2023-07-19,2023-07-19,株式会社Ｒｅ装,,株式会社,神奈川県,川崎市宮前区,平６丁目４番２４号,,14,136,2160022,,,,,,,2023-07-19,1,,,,,リソウ,0
1330,6020001152618,新規,0,2023-07-19,2023-07-19,株式会社さかの上の不動産,,株式会社,神奈川県,横浜市戸塚区,南舞岡３丁目６番地７号,,14,110,2440814,,,,,,,2023-07-19,1,,,,,サカノウエノフドウサン,0
1334,6020003024245,新規,0,2023-07-19,2023-07-19,ＫＩ‐ｂｌｉｓｓ商事合同会社,,合同会社,神奈川県,横浜市港南区,大久保１丁目７番１７号,,14,111,2330007,,,,,,,2023-07-19,1,,,,,ケイアイーブリスショウジ,0
1335,6020003024253,新規,0,2023-07-19,2023-07-19,Ｍ＆Ｎエステート合同会社,,合同会社,神奈川県,横浜市泉区,新橋町１５８番地１２,,14,116,2450009,,,,,,,2023-07-19,1,,,,,エムアンドエヌエステート,0
1338,6021001079644,新規,0,2023-07-19,2023-07-19,株式会社ＬＫＳ,,株式会社,神奈川県,大和市,西鶴間１丁目３番２号,,14,213,2420005,,,,,,,2023-07-19,1,,,,,エルケーエス,0
1339,6021001079669,新規,0,2023-07-19,2023-07-19,株式会社ＴＭ,,株式会社,神奈川県,相模原市南区,相武台２丁目４番６号,,14,153,2520324,,,,,,,2023-07-19,1,,,,,ティーエム,0
1341,6021003013304,新規,0,2023-07-19,2023-07-19,ｍｏａｎａ合同会社,,合同会社,神奈川県,藤沢市,片瀬山４丁目５－５,,14,205,2510033,,,,,,,2023-07-19,1,,,,,モアナ,0
1342,6021003013329,新規,0,2023-07-19,2023-07-19,合同会社ＯＫＹ,,合同会社,神奈川県,座間市,座間１丁目３１２７番地の１,,14,216,2520027,,,,,,,2023-07-19,1,,,,,オーケーワイ,0
1348,6030001154704,新規,0,2023-07-19,2023-07-19,宝森株式会社,,株式会社,埼玉県,蕨市,中央４丁目２３番２５号,,11,223,3350004,,,,,,,2023-07-19,1,,,,,タカラモリ,0
1353,6030003022173,新規,0,2023-07-19,2023-07-19,合同会社フォワード,,合同会社,埼玉県,さいたま市見沼区,大字南中野１０６７－１１,,11,104,3370042,,,,,,,2023-07-19,1,,,,,フォワード,0
1354,6040001129283,新規,0,2023-07-19,2023-07-19,ＡＭＩコンシェルジュ株式会社,,株式会社,千葉県,野田市,柳沢４１番地５４,,12,208,2780006,,,,,,,2023-07-19,1,,,,,アミコンシェルジュ,0
1355,6040001129309,新規,0,2023-07-19,2023-07-19,株式会社ビーテック,,株式会社,千葉県,松戸市,松飛台６６番地の５,,12,207,2702214,,,,,,,2023-07-19,1,,,,,ビーテック,0
1357,6040005022071,新規,0,2023-07-19,2023-07-19,農事組合法人フルールセゾン,,その他の設立登記法人,千葉県,旭市,野中３２０１番地,,12,215,2892513,,,,,,,2023-07-19,1,,,,,フルールセゾン,0
1358,6040005022088,新規,0,2023-07-19,2023-07-19,一般社団法人風街浪漫舎,,その他の設立登記法人,千葉県,船橋市,前原西４丁目６－３０ファーストシーン津田沼３１４,,12,204,2740825,,,,,,,2023-07-19,1,,,,,カゼマチロマンシャ,0
1360,6050001053185,新規,0,2023-07-19,2023-07-19,株式会社メディカルマシーン,,株式会社,茨城県,稲敷市,犬塚字後通田１５３８番地７,,08,229,3000507,,,,,,,2023-07-19,1,,,,,メディカルマシーン,0
1361,6050003007651,新規,0,2023-07-19,2023-07-19,合同会社孝桜ホーム,,合同会社,茨城県,鹿嶋市,大字根三田８３５番地３,,08,222,3140035,,,,,,,2023-07-19,1,,,,,タカオホーム,0
1372,6080401026606,新規,0,2023-07-19,2023-07-19,吉野総建株式会社,,株式会社,静岡県,浜松市浜北区,中瀬２６２８番地の２０,,22,136,4340012,,,,,,,2023-07-19,1,,,,,ヨシノソウケン,0
1373,6080405007560,新規,0,2023-07-19,2023-07-19,一般社団法人障がい福祉推進機構,,その他の設立登記法人,静岡県,浜松市西区,雄踏町宇布見９５８７番地,,22,133,4310102,,,,,,,2023-07-19,1,,,,,ショウガイフクシスイシンキコウ,0
1384,6120001256441,新規,0,2023-07-19,2023-07-19,ＴｈＲＥＥ株式会社,,株式会社,大阪府,大阪市北区,野崎町１番３０－２８１１号,,27,127,5300055,,,,,,,2023-07-19,1,,,,,スリー,0
1385,6120001256474,新規,0,2023-07-19,2023-07-19,株式会社ＥＮ．ｆｏｒｃｅ,,株式会社,大阪府,大阪市城東区,東中浜９丁目３番３４－６０６号,,27,118,5360023,,,,,,,2023-07-19,1,,,,,エンフォース,0
1386,6120001256508,新規,0,2023-07-19,2023-07-19,ＳＵＮ　Ｄｉｇｉｔａｌ　Ｔｒａｎｓｆｏｒｍａｔｉｏｎ株式会社,,株式会社,大阪府,大阪市淀川区,西中島７丁目５番２５号,,27,123,5320011,,,,,,,2023-07-19,1,,,,,サンデジタルトランスフォーメーション,0
1387,6120001256549,新規,0,2023-07-19,2023-07-19,大肥羅株式会社,,株式会社,大阪府,大阪市東成区,深江北３丁目４番２１号エクラ深江橋３１３Ａ,,27,115,5370001,,,,,,,2023-07-19,1,,,,,ダイヒラ,0
1388,6120001256565,新規,0,2023-07-19,2023-07-19,株式会社ＬＳ,,株式会社,大阪府,大阪市浪速区,敷津東１丁目７番１４号レシオスなんばＶＯＧＵＥ１２０４号,,27,111,5560012,,,,,,,2023-07-19,1,,,,,エルエス,0
1389,6120001256623,新規,0,2023-07-19,2023-07-19,株式会社リバファスト,,株式会社,大阪府,大阪市浪速区,恵美須町二丁目７－２２,,27,111,5560000,,,,,,,2023-07-19,1,,,,,リバファスト,0
1391,6120003024391,新規,0,2023-07-19,2023-07-19,ＯｐｅｎＭｉｎｄ合同会社,,合同会社,大阪府,大阪市浪速区,下寺２丁目６‐２０ＨＥＲＩＴＡＧＥ９０３号室,,27,111,5560001,,,,,,,2023-07-19,1,,,,,オープンマインド,0
1392,6120003024499,新規,0,2023-07-19,2023-07-19,ｔｔｐｐ合同会社,,合同会社,大阪府,交野市,藤が尾５丁目１５番９号,,27,230,5760022,,,,,,,2023-07-19,1,,,,,ティーティーピーピー,0
1393,6120003024516,新規,0,2023-07-19,2023-07-19,合同会社ウェブマネジメント,,合同会社,大阪府,大阪市福島区,福島７丁目２０－１８シティタワー西梅田２１０５,,27,103,5530003,,,,,,,2023-07-19,1,,,,,ウェブマネジメント,0
1394,6120005023747,新規,0,2023-07-19,2023-07-19,特定非営利活動法人しゅんびそう,,その他の設立登記法人,大阪府,大阪市中央区,淡路町２丁目３番１２号ＣＢＭビル２階,,27,128,5410047,,,,,,,2023-07-19,1,,,,,シュンビソウ,0
1398,6120101067912,新規,0,2023-07-19,2023-07-19,今岡建築株式会社,,株式会社,大阪府,堺市西区,鳳東町７丁８０２番地１６,,27,144,5938324,,,,,,,2023-07-19,1,,,,,イマオカケンチク,0
1402,6120901047808,新規,0,2023-07-19,2023-07-19,株式会社マントリーバ,,株式会社,大阪府,箕面市,坊島４丁目９番１０－３０１号,,27,220,5620013,,,,,,,2023-07-19,1,,,,,マントリーバ,0
1403,6120905006495,新規,0,2023-07-19,2023-07-19,医療法人あおまつ小児科クリニック,,その他の設立登記法人,大阪府,高槻市,古曽部町２丁目１３番４号ＭＲビル３階,,27,207,5691115,,,,,,,2023-07-19,1,,,,,アオマツショウニカクリニック,0
1405,6130001074743,新規,0,2023-07-19,2023-07-19,株式会社キトネ,,株式会社,京都府,京都市上京区,寺之内通新町西入妙顕寺前町５１４－２,,26,102,6020005,,,,,,,2023-07-19,1,,,,,キトネ,0
1409,6130005016816,新規,0,2023-07-19,2023-07-19,弁護士法人京都成蹊,,その他の設立登記法人,京都府,京都市中京区,柳八幡町６５番地京都朝日ビル９階,,26,104,6040000,,,,,,,2023-07-19,1,,,,,キョウトセイケイ,0
1412,6140001130966,新規,0,2023-07-19,2023-07-19,一福株式会社,,株式会社,兵庫県,神戸市中央区,熊内町５丁目１番１２－１０１号,,28,110,6510056,,,,,,,2023-07-19,1,,,,,イチフク,0
1423,6180001157196,新規,0,2023-07-19,2023-07-19,株式会社ＤＩＲＥＣＴＩＯＮ,,株式会社,愛知県,一宮市,千秋町佐野字郷前２７６３番地３,,23,203,4910804,,,,,,,2023-07-19,1,,,,,ディレクション,0
1426,6180003025475,新規,0,2023-07-19,2023-07-19,合同会社ノブレス,,合同会社,愛知県,名古屋市千種区,徳川山町６丁目２番２６号,,23,101,4640031,,,,,,,2023-07-19,1,,,,,ノブレス,0
1428,6180005020301,新規,0,2023-07-19,2023-07-19,一般社団法人タウンマネジメント研究所,,その他の設立登記法人,愛知県,名古屋市中村区,名駅４丁目１３番７号西柳パークビル５Ｆ,,23,105,4500002,,,,,,,2023-07-19,1,,,,,タウンマネジメントケンキュウジョ,0
1440,6200003006019,新規,0,2023-07-19,2023-07-19,合同会社ｗｏｒｌｄ　ｌｉｎｋａｇｅ,,合同会社,岐阜県,羽島市,正木町新井７８２番地１,,21,209,5016225,,,,,,,2023-07-19,1,,,,,ワールドリンケージ,0
1447,6240001061838,新規,0,2023-07-19,2023-07-19,株式会社キョウエイホールディングス,,株式会社,広島県,福山市,箕島町４５６番地の４６,,34,207,7210957,,,,,,,2023-07-19,1,,,,,キョウエイホールディングス,0
1451,6250001020173,新規,0,2023-07-19,2023-07-19,株式会社ＭＵＲＡＮＡＫＡ,,株式会社,山口県,柳井市,伊陸３０６２番地２,,35,212,7420201,,,,,,,2023-07-19,1,,,,,ムラナカ,0
1460,6280001008991,新規,0,2023-07-19,2023-07-19,株式会社ＮＥＯ,,株式会社,島根県,松江市,天神町５９番地５,,32,201,6900064,,,,,,,2023-07-19,1,,,,,ネオ,0
1471,6340005009633,新規,0,2023-07-19,2023-07-19,特定非営利活動法人Ｓｍｉｌｅ　Ｃａｔ,,その他の設立登記法人,鹿児島県,鹿屋市,笠之原町３５８１番３,,46,203,8930023,,,,,,,2023-07-19,1,,,,,スマイルキャット,0
1472,6350001018455,新規,0,2023-07-19,2023-07-19,株式会社技建工業,,株式会社,宮崎県,延岡市,二ツ島町９６５２番地,,45,203,8820022,,,,,,,2023-07-19,1,,,,,ギケンコウギョウ,0
1477,6380003005515,新規,0,2023-07-19,2023-07-19,合同会社ｓａｋａｔｅｃ,,合同会社,福島県,郡山市,久留米２丁目１６３番２１号,,07,203,9638846,,,,,,,2023-07-19,1,,,,,サカテック,0
1479,6390001017321,新規,0,2023-07-19,2023-07-19,株式会社いいでコーポレーション,,株式会社,山形県,西置賜郡飯豊町,大字椿４４３６番地,,06,403,9990604,,,,,,,2023-07-19,1,,,,,イイデコーポレーション,0
1485,6430001089430,新規,0,2023-07-19,2023-07-19,株式会社野田肇介左官,,株式会社,北海道,浦河郡浦河町,堺町西２丁目１４番６号,,01,607,0570034,,,,,,,2023-07-19,1,,,,,ノダケイスケサカン,0
1486,6430001089455,新規,0,2023-07-19,2023-07-19,株式会社ＮＭＳ,,株式会社,北海道,札幌市手稲区,西宮の沢二条４丁目１０番１０号,,01,109,0060002,,,,,,,2023-07-19,1,,,,,エヌエムエス,0
1492,6480001012148,新規,0,2023-07-19,2023-07-19,ＢＬＵＥ　ＲＯＳＥ株式会社,,株式会社,徳島県,徳島市,川内町平石住吉１３９番地１０,,36,201,7710134,,,,,,,2023-07-19,1,,,,,ブルーローズ,0
1495,6500001025064,新規,0,2023-07-19,2023-07-19,株式会社ＡＩ３．０,,株式会社,愛媛県,今治市,常盤町５丁目６－２１－１階,,38,202,7940015,,,,,,,2023-07-19,1,,,,,エーアイサンテンゼロ,0
1496,6700150118037,新規,0,2023-07-19,2023-06-30,菜菜倶楽部,,その他,徳島県,名西郡石井町,高川原字天神３６４番地,,36,341,7793222,,,,,,,2023-06-30,1,,,,,サイサイクラブ,0
1503,7010001236940,新規,0,2023-07-19,2023-07-19,ＢＵＬＬＳ株式会社,,株式会社,東京都,文京区,千石３丁目１３番１１号,,13,105,1120011,,,,,,,2023-07-19,1,,,,,ブルズ,0
1504,7010001236981,新規,0,2023-07-19,2023-07-19,Ｚｅｌｏ株式会社,,株式会社,東京都,中央区,八丁堀４丁目８番１号,,13,102,1040032,,,,,,,2023-07-19,1,,,,,ゼーロ,0
1510,7010401175441,新規,0,2023-07-19,2023-07-19,株式会社クロノス,,株式会社,東京都,港区,西新橋１丁目２番９号日比谷セントラルビル１４階,,13,103,1050003,,,,,,,2023-07-19,1,,,,,クロノス,0
1511,7010401175706,新規,0,2023-07-19,2023-07-19,株式会社浅見,,株式会社,東京都,港区,西麻布１丁目８番８号,,13,103,1060031,,,,,,,2023-07-19,1,,,,,アサミ,0
1512,7010401175747,新規,0,2023-07-19,2023-07-19,株式会社山口麻紀子,,株式会社,東京都,港区,六本木６丁目１－２０六本木電気ビル５・６・７階,,13,103,1060032,,,,,,,2023-07-19,1,,,,,ヤマグチマキコ,0
1513,7010401175771,新規,0,2023-07-19,2023-07-19,株式会社ウォークオン,,株式会社,東京都,港区,赤坂２丁目８番１５号オリエントニュー赤坂５０４号室,,13,103,1070052,,,,,,,2023-07-19,1,,,,,ウォークオン,0
1518,7010701044569,新規,0,2023-07-19,2023-07-19,株式会社三嶋装蹄所,,株式会社,東京都,品川区,南大井３丁目２番１０号プランドール荒山３０２,,13,109,1400013,,,,,,,2023-07-19,1,,,,,ミシマソウテイジョ,0
1519,7010701044577,新規,0,2023-07-19,2023-07-19,株式会社ａｄｄ９,,株式会社,東京都,品川区,西五反田４丁目１１番１５号フォルムＦ２０４,,13,109,1410031,,,,,,,2023-07-19,1,,,,,アドナイン,0
1523,7010901053444,新規,0,2023-07-19,2023-07-19,管工防熱株式会社,,株式会社,東京都,世田谷区,桜丘５丁目４８番１６号,,13,112,1560054,,,,,,,2023-07-19,1,,,,,カンコウボウネツ,0
1524,7010901053452,新規,0,2023-07-19,2023-07-19,クリスタル・エイト株式会社,,株式会社,東京都,世田谷区,中町４丁目３５番２１－２０１号,,13,112,1580091,,,,,,,2023-07-19,1,,,,,クリスタルエイト,0
1526,7010903008322,新規,0,2023-07-19,2023-07-19,合同会社１０１,,合同会社,東京都,世田谷区,世田谷４丁目１－１０,,13,112,1540017,,,,,,,2023-07-19,1,,,,,ワンオーワン,0
1530,7011001155759,新規,0,2023-07-19,2023-07-19,株式会社ビヨンドサイト,,株式会社,東京都,渋谷区,円山町５番１８号道玄坂スクエア４Ｆ,,13,113,1500044,,,,,,,2023-07-19,1,,,,,ビヨンドサイト,0
1531,7011001155767,新規,0,2023-07-19,2023-07-19,株式会社ステイ・クローズ,,株式会社,東京都,目黒区,八雲２丁目１９番１号メゾンクレール２０１,,13,110,1520023,,,,,,,2023-07-19,1,,,,,ステイクローズ,0
1532,7011001155791,新規,0,2023-07-19,2023-07-19,株式会社ｃｈｏｃｃａ,,株式会社,東京都,渋谷区,渋谷２丁目１９番１５号宮益坂ビルディング６０９,,13,113,1500002,,,,,,,2023-07-19,1,,,,,チョッカ,0
1535,7011105010728,新規,0,2023-07-19,2023-07-19,社会保険労務士法人山崎労務管理事務所,00131205,その他の設立登記法人,東京都,新宿区,西新宿６丁目１５番１号セントラルパークタワーラ・トゥール新宿３０３,,13,104,1600023,,,,,,,2023-07-19,1,,,,,ヤマザキロウムカンリジムショ,0
1536,7011301028862,新規,0,2023-07-19,2023-07-19,ＫＧＫｏｈｏｌａ株式会社,,株式会社,東京都,杉並区,下井草２丁目２２番１号,,13,115,1670022,,,,,,,2023-07-19,1,,,,,ケージーコホラ,0
1538,7011401025289,新規,0,2023-07-19,2023-07-19,株式会社スパプラ,,株式会社,東京都,板橋区,加賀１丁目８番１６－１０１０号アトラス加賀,,13,119,1730003,,,,,,,2023-07-19,1,,,,,スパプラ,0
1539,7011501029545,新規,0,2023-07-19,2023-07-19,株式会社Ｌｉｌｙ,,株式会社,東京都,荒川区,東日暮里５丁目４９番２号レックスビル６０２号室,,13,118,1160014,,,,,,,2023-07-19,1,,,,,リリィ,0
1540,7011601026987,新規,0,2023-07-19,2023-07-19,株式会社Ｔｉｒ住設,,株式会社,東京都,練馬区,富士見台３丁目３７－２０,,13,120,1770034,,,,,,,2023-07-19,1,,,,,ティアージュウセツ,0
1566,7020001152427,新規,0,2023-07-19,2023-07-19,Ｈａｙａｓｈｉ株式会社,,株式会社,神奈川県,横浜市中区,弥生町２丁目１５－１－４０５－１ストークタワー大通り公園ＩＩＩ,00131216,14,104,2310058,,,,,,,2023-07-19,1,,,,,ハヤシ,0
1567,7020001152575,新規,0,2023-07-19,2023-07-19,株式会社ベアーズガーデン,,株式会社,神奈川県,川崎市多摩区,長尾２丁目５番１４－１号,,14,135,2140023,,,,,,,2023-07-19,1,,,,,ベアーズガーデン,0
1568,7020001152583,新規,0,2023-07-19,2023-07-19,株式会社Ｌｉｎｋ,,株式会社,神奈川県,川崎市高津区,溝口６丁目２３－１６シャルマン溝の口４０１,,14,134,2130001,,,,,,,2023-07-19,1,,,,,リンク,0
1569,7020001152600,新規,0,2023-07-19,2023-07-19,新和建設株式会社,,株式会社,神奈川県,横浜市青葉区,あかね台２丁目１５番地２８,,14,117,2270066,,,,,,,2023-07-19,1,,,,,シンワケンセツ,0
1573,7020003024228,新規,0,2023-07-19,2023-07-19,サンパートナーズ合同会社,,合同会社,神奈川県,横浜市中区,太田町１丁目２０,,14,104,2310011,,,,,,,2023-07-19,1,,,,,サンパートナーズ,0
1574,7020003024244,新規,0,2023-07-19,2023-07-19,ｕＤｏｎｅ　Ｊａｐａｎ合同会社,,合同会社,神奈川県,川崎市宮前区,西野川３丁目４１番３４号,,14,136,2160044,,,,,,,2023-07-19,1,,,,,ユードンジャパン,0
1593,7040001129183,新規,0,2023-07-19,2023-07-19,ＮＳホールディングス株式会社,,株式会社,千葉県,柏市,鷲野谷１０２７番２１号,,12,217,2701443,,,,,,,2023-07-19,1,,,,,エヌエスホールディングス,0
1594,7040001129282,新規,0,2023-07-19,2023-07-19,株式会社ワーク＆サポートあさひ,,株式会社,千葉県,旭市,西足洗３１０６番地３,,12,215,2892515,,,,,,,2023-07-19,1,,,,,ワークワンドサポートアサヒ,0
1595,7040005022070,新規,0,2023-07-19,2023-07-19,一般社団法人青葉台町会協議会,,その他の設立登記法人,千葉県,市原市,青葉台２丁目２４番地９,,12,219,2990117,,,,,,,2023-07-19,1,,,,,アオバダイチョウカイキョウギカイ,0
1598,7050001053176,新規,0,2023-07-19,2023-07-19,ＢＵＬＬ株式会社,,株式会社,茨城県,坂東市,長須５１２７番地２,,08,228,3060645,,,,,,,2023-07-19,1,,,,,ブル,0
1599,7050001053184,新規,0,2023-07-19,2023-07-19,エクヘルスケア株式会社,,株式会社,茨城県,つくば市,玉取２５９２アセンダスビルディング２０１,,08,220,3003255,,,,,,,2023-07-19,1,,,,,エクヘルスケア,0
1606,7060003004647,新規,0,2023-07-19,2023-07-19,Ａｌｉ　Ｗａｒｉｓ　Ｔｒａｄｅｒ合同会社,,合同会社,栃木県,栃木市,岩舟町新里１３０４番地５７号室,,09,203,3294316,,,,,,,2023-07-19,1,,,,,アリワリストレーダー,0
1607,7070001040651,新規,0,2023-07-19,2023-07-19,株式会社ぷらいむ,,株式会社,群馬県,伊勢崎市,宮子町３４９７番地４,,10,204,3720801,,,,,,,2023-07-19,1,,,,,プライム,0
1610,7070003005033,新規,0,2023-07-19,2023-07-19,合同会社Ｎｉｓｈｉｋｉ　Ａｇｒｉｔｅｃｈ,,合同会社,群馬県,高崎市,下之城町５８４番地７０号高崎市産業創造館２階,,10,202,3700854,,,,,,,2023-07-19,1,,,,,ニシキアグリテック,0
1643,7120001256473,新規,0,2023-07-19,2023-07-19,Ｇｏ　Ｓｕｎｓｈｉｎｅ株式会社,,株式会社,大阪府,大阪市淀川区,西中島５丁目１－８日研ビル１００３号室,,27,123,5320011,,,,,,,2023-07-19,1,,,,,ゴーサンシャイン,0
1644,7120001256531,新規,0,2023-07-19,2023-07-19,喜茶人株式会社,,株式会社,大阪府,大阪市阿倍野区,西田辺町２丁目６番３号（５Ｅ）,,27,119,5450014,,,,,,,2023-07-19,1,,,,,キサニン,0
1645,7120001256589,新規,0,2023-07-19,2023-07-19,株式会社Ｏｓａｋａ　Ｃｏｕｒｉｅｒ　Ｓｅｒｖｉｃｅ,,株式会社,大阪府,大阪市此花区,高見１丁目１番１９－８２０号,,27,104,5540001,,,,,,,2023-07-19,1,,,,,オオサカクーリエサービス,0
1646,7120003024473,新規,0,2023-07-19,2023-07-19,合同会社ｏｒａｉｎｅ,,合同会社,大阪府,大阪市鶴見区,安田３丁目５番２号,,27,124,5380032,,,,,,,2023-07-19,1,,,,,オレイン,0
1652,7120901047815,新規,0,2023-07-19,2023-07-19,株式会社ＡＤＡＮ,,株式会社,大阪府,箕面市,船場西１丁目９番３３号の３,,27,220,5620036,,,,,,,2023-07-19,1,,,,,アダン,0
1658,7130001074726,新規,0,2023-07-19,2023-07-19,株式会社永田組,,株式会社,京都府,京都市伏見区,久我石原町５－３４,,26,109,6128491,,,,,,,2023-07-19,1,,,,,ナガタグミ,0
1661,7130003008863,新規,0,2023-07-19,2023-07-19,合同会社月あかり,,合同会社,京都府,京都市伏見区,向島善阿弥町４８番地,,26,109,6128121,,,,,,,2023-07-19,1,,,,,ツキアカリ,0
1668,7140001130866,新規,0,2023-07-19,2023-07-19,株式会社ＩＮＴＥＲＴＥＣＫ　ＡＤＶ,,株式会社,兵庫県,神戸市東灘区,鴨子ヶ原２丁目３番２９－２０４号,,28,101,6580064,,,,,,,2023-07-19,1,,,,,インターテックエーディーブイ,0
1672,7140005026689,新規,0,2023-07-19,2023-07-19,一般社団法人倫和会,,その他の設立登記法人,兵庫県,宍粟市,一宮町東河内６３８番地４３１,,28,227,6714141,,,,,,,2023-07-19,1,,,,,リンワカイ,0
1684,7160001025148,新規,0,2023-07-19,2023-07-19,株式会社松居商会,,株式会社,滋賀県,東近江市,梅林町８８番地１,,25,213,5270175,,,,,,,2023-07-19,1,,,,,マツイショウカイ,0
1685,7160005011210,新規,0,2023-07-19,2023-07-19,一般社団法人輝く未来研究所,,その他の設立登記法人,滋賀県,大津市,唐崎１丁目２０番２８号,,25,201,5200106,,,,,,,2023-07-19,1,,,,,カガヤクミライケンキュウジョ,0
1697,7180003025499,新規,0,2023-07-19,2023-07-19,ケナン工業合同会社,,合同会社,愛知県,あま市,甚目寺大渕１１７番地,,23,237,4901111,,,,,,,2023-07-19,1,,,,,ケナンコウギョウ,0
1708,7190001030582,新規,0,2023-07-19,2023-07-19,株式会社広田商店,,株式会社,三重県,四日市市,小生町３２番地２,,24,202,5120932,,,,,,,2023-07-19,1,,,,,ヒロタショウテン,0
1732,7290003014128,新規,0,2023-07-19,2023-07-19,合同会社中村,,合同会社,福岡県,福岡市中央区,山荘通３丁目８０番地４０７,,40,133,8100018,,,,,,,2023-07-19,1,,,,,ナカムラ,0
1747,7330001031054,新規,0,2023-07-19,2023-07-19,株式会社ＴＲＩＶＥ,,株式会社,熊本県,八代市,郡築四番町８０番地２,,43,202,8660021,,,,,,,2023-07-19,1,,,,,,0
1753,7360003013122,新規,0,2023-07-19,2023-07-19,合同会社ＮＨＡＴ　ＮＧＯＣ　ＡＮ　ＮＨＩＥＮ,,合同会社,沖縄県,那覇市,辻２丁目１番２５号儀間アパ－ト３０１,00131217,47,201,9000037,,,,,,,2023-07-19,1,,,,,ニャットゴックアンニエン,0
1758,7390001017320,新規,0,2023-07-19,2023-07-19,株式会社フナヤマ,,株式会社,山形県,南陽市,椚塚８９３番地の６,,06,213,9992221,,,,,,,2023-07-19,1,,,,,フナヤマ,0
1767,7430001089454,新規,0,2023-07-19,2023-07-19,株式会社北海道少額短期保険設立準備会社,,株式会社,北海道,札幌市中央区,北一条西８丁目２番地３９,,01,101,0600001,,,,,,,2023-07-19,1,,,,,ホッカイドウショウガクタンキホケンセツリツジュンビガイシャ,0
1768,7430001089470,新規,0,2023-07-19,2023-07-19,株式会社ソプラティコ,,株式会社,北海道,小樽市,花園４丁目１７番３号,,01,203,0470024,,,,,,,2023-07-19,1,,,,,ソプラティコ,0
1782,7700150031742,新規,0,2023-07-19,2015-10-09,びわ地域づくり協議会,,その他,滋賀県,長浜市,難波町４４８,,25,203,5260108,,,,,,,2015-10-09,1,,,,,ビワチイキヅクリキヨウギカイ,0
1816,8010903008321,新規,0,2023-07-19,2023-07-19,Ｓ＆Ｔ合同会社,,合同会社,東京都,世田谷区,大蔵２丁目５－１０－９０３,,13,112,1570074,,,,,,,2023-07-19,1,,,,,エスアンドティー,0
1827,8011303004836,新規,0,2023-07-19,2023-07-19,合同会社ｍａｄｏ,,合同会社,東京都,杉並区,阿佐谷北２丁目６番２１号アイラーク２０１,,13,115,1660001,,,,,,,2023-07-19,1,,,,,,0
1829,8011401025288,新規,0,2023-07-19,2023-07-19,ＣＳ　ＯＮＥ株式会社,,株式会社,東京都,板橋区,南町５５番７号,,13,119,1730027,,,,,,,2023-07-19,1,,,,,シーエスワン,0
1837,8011801042734,新規,0,2023-07-19,2023-07-19,株式会社杜と水技研,,株式会社,東京都,足立区,千住中居町２４－１５－２０１,,13,121,1200035,,,,,,,2023-07-19,1,,,,,モリトミズギケン,0
1838,8011801042750,新規,0,2023-07-19,2023-07-19,株式会社インディペンデンス,,株式会社,東京都,足立区,本木２丁目６番４号,,13,121,1230853,,,,,,,2023-07-19,1,,,,,インディペンデンス,0
1839,8011801042759,新規,0,2023-07-19,2023-07-19,ＢＥＳＴアセマネ株式会社,,株式会社,東京都,葛飾区,立石７丁目４番９号,,13,122,1240012,,,,,,,2023-07-19,1,,,,,,0
1845,8013303006705,新規,0,2023-07-19,2023-07-19,Ｒｅｉ合同会社,,合同会社,東京都,豊島区,雑司が谷２丁目８番３号,,13,116,1710032,,,,,,,2023-07-19,1,,,,,レイ,0
1851,8020001152566,新規,0,2023-07-19,2023-07-19,株式会社ハズ・レンズデザイン,,株式会社,神奈川県,横浜市旭区,さちが丘８７番地,,14,112,2410822,,,,,,,2023-07-19,1,,,,,ハズレンズデザイン,0
1852,8020001152582,新規,0,2023-07-19,2023-07-19,株式会社ケフィ,,株式会社,神奈川県,川崎市幸区,鹿島田３丁目８番２７号,,14,132,2120058,,,,,,,2023-07-19,1,,,,,ケフィ,0
1853,8020001152599,新規,0,2023-07-19,2023-07-19,東洋商事株式会社,,株式会社,神奈川県,横浜市中区,真砂町４丁目４３番地,,14,104,2310016,,,,,,,2023-07-19,1,,,,,トウヨウショウジ,0
1856,8021001079659,新規,0,2023-07-19,2023-07-19,ＴＨＥ　ＳＴＡＮＤＡＲＤ株式会社,,株式会社,神奈川県,中郡大磯町,東町３丁目１３番３号,,14,341,2550002,,,,,,,2023-07-19,1,,,,,ザスタンダード,0
1860,8021003013327,新規,0,2023-07-19,2023-07-19,合同会社ＭＳグリーン湘南,,合同会社,神奈川県,平塚市,ふじみ野２丁目３８番９号,,14,203,2591211,,,,,,,2023-07-19,1,,,,,エムエスグリーンショウナン,0
1862,8030001154875,新規,0,2023-07-19,2023-07-19,株式会社タツミコンサル,,株式会社,埼玉県,熊谷市,万吉７０２,,11,202,3600161,,,,,,,2023-07-19,1,,,,,タツミコンサル,0
1868,8040003022971,新規,0,2023-07-19,2023-07-19,合同会社絆,,合同会社,千葉県,いすみ市,岬町長者１９番地１フラットＫ１０１号,,12,238,2994616,,,,,,,2023-07-19,1,,,,,キズナ,0
1873,8050001053175,新規,0,2023-07-19,2023-07-19,株式会社ヤマキチ,,株式会社,茨城県,結城郡八千代町,大字東蕗田６８３番地,,08,521,3003545,,,,,,,2023-07-19,1,,,,,ヤマキチ,0
1874,8050001053183,新規,0,2023-07-19,2023-07-19,株式会社セルミート,,株式会社,茨城県,水戸市,水府町１２８５番地４,,08,201,3100005,,,,,,,2023-07-19,1,,,,,セルミート,0
1876,8060001036162,新規,0,2023-07-19,2023-07-19,株式会社ＺＥＲＯＯＮＥ,,株式会社,栃木県,小山市,大字羽川１３８番地２６,,09,208,3230012,,,,,,,2023-07-19,1,,,,,ゼロワン,0
1881,8070001040650,新規,0,2023-07-19,2023-07-19,株式会社ＫｅｉＤｅｎ,,株式会社,群馬県,富岡市,上高瀬２１２番地１２,,10,210,3702334,,,,,,,2023-07-19,1,,,,,ケイデン,0
1885,8080001025741,新規,0,2023-07-19,2023-07-19,株式会社ＢＧＭｓ,,株式会社,静岡県,静岡市駿河区,大谷２８９０番地の１７,,22,102,4228017,,,,,,,2023-07-19,1,,,,,ビージーエムズ,0
1886,8080005007546,新規,0,2023-07-19,2023-07-19,一般社団法人長谷川,,その他の設立登記法人,静岡県,静岡市駿河区,宮竹１丁目８番２３－１号,,22,102,4228035,,,,,,,2023-07-19,1,,,,,ハセガワ,0
1888,8090001018216,新規,0,2023-07-19,2023-07-19,株式会社孝藤工業,,株式会社,山梨県,笛吹市,御坂町成田３０４番地,,19,211,4060801,,,,,,,2023-07-19,1,,,,,コウトウコウギョウ,0
1900,8120001256456,新規,0,2023-07-19,2023-07-19,株式会社魚常物産,,株式会社,大阪府,大阪市東淀川区,上新庄３丁目２０番１０号,,27,114,5330006,,,,,,,2023-07-19,1,,,,,ウオツネブッサン,0
1901,8120001256489,新規,0,2023-07-19,2023-07-19,株式会社優建設,,株式会社,大阪府,寝屋川市,池の瀬町３－１ガレージゲート池の瀬２号室,,27,215,5720012,,,,,,,2023-07-19,1,,,,,ユウケンセツ,0
1902,8120001256522,新規,0,2023-07-19,2023-07-19,株式会社ＩＫＰ,,株式会社,大阪府,大阪市中央区,東心斎橋１丁目５番２－１００１号,,27,128,5420083,,,,,,,2023-07-19,1,,,,,アイケーピー,0
1903,8120001256679,新規,0,2023-07-19,2023-07-19,欣宸株式会社,,株式会社,大阪府,大阪市東淀川区,東中島１丁目１７－５スチュディオ新大阪６３１号,,27,114,5330033,,,,,,,2023-07-19,1,,,,,キンシン,0
1915,8120103005331,新規,0,2023-07-19,2023-07-19,合同会社ＦＩＧ,,合同会社,大阪府,堺市東区,引野町１丁１２６番地１６,,27,143,5998104,,,,,,,2023-07-19,1,,,,,フィグ,0
1916,8120901047814,新規,0,2023-07-19,2023-07-19,ＨＭ不動産株式会社,,株式会社,大阪府,豊中市,桜の町１丁目１－１９,,27,203,5600054,,,,,,,2023-07-19,1,,,,,エイチエムフドウサン,0
1924,8130001074758,新規,0,2023-07-19,2023-07-19,株式会社Ｓｕｎ　Ｌｉｆｅ,,株式会社,京都府,京都市西京区,大枝北沓掛町２丁目１２番３号２１８号室,,26,111,6101101,,,,,,,2023-07-19,1,,,,,サンライフ,0
1925,8130003008821,新規,0,2023-07-19,2023-07-19,新鴻図投資合同会社,,合同会社,京都府,京都市東山区,東大路松原上る辰巳町１１３番地２寛山ビル１階,,26,105,6050855,,,,,,,2023-07-19,1,,,,,シンコウトトウシ,0
1926,8130003008862,新規,0,2023-07-19,2023-07-19,Ｌａ　Ｊｅｔｅｅ　Ｊａｐｏｎ合同会社,,合同会社,京都府,京都市下京区,朱雀宝蔵町１０４番地,,26,106,6008846,,,,,,,2023-07-19,1,,,,,ラジュテジャポン,0
1938,8160001025196,新規,0,2023-07-19,2023-07-19,むつみロジテム株式会社,,株式会社,滋賀県,湖南市,石部北３丁目１番３０号,,25,211,5203113,,,,,,,2023-07-19,1,,,,,ムツミロジテム,0
1940,8170001017696,新規,0,2023-07-19,2023-07-19,エコ・レガシーワールドホールディングス株式会社,,株式会社,和歌山県,和歌山市,永穂７０番地,,30,201,6496333,,,,,,,2023-07-19,1,,,,,エコレガシーワールドホールディングス,0
1943,8180001157137,新規,0,2023-07-19,2023-07-19,株式会社ＡＭＹ,,株式会社,愛知県,名古屋市西区,花原町１８７番地,,23,104,4520809,,,,,,,2023-07-19,1,,,,,エイミー,0
1947,8180005020282,新規,0,2023-07-19,2023-07-19,特定非営利活動法人みんなのひみつきち,,その他の設立登記法人,愛知県,春日井市,高森台３丁目１１番地１２,,23,206,4870032,,,,,,,2023-07-19,1,,,,,ミンナノヒミツキチ,0
1950,8180303005778,新規,0,2023-07-19,2023-07-19,合同会社サンライズ,,合同会社,愛知県,安城市,福釜町矢場７１番地１,,23,212,4460052,,,,,,,2023-07-19,1,,,,,サンライズ,0
1956,8200001041503,新規,0,2023-07-19,2023-07-19,株式会社ＫＳ,,株式会社,岐阜県,海津市,平田町勝賀１３４８番地,,21,221,5030302,,,,,,,2023-07-19,1,,,,,ケイエス,0
1957,8200001041511,新規,0,2023-07-19,2023-07-19,株式会社コンディションクリエイト,,株式会社,岐阜県,岐阜市,領下１６０７番地,,21,201,5008241,,,,,,,2023-07-19,1,,,,,コンディションクリエイト,0
1963,8230003002054,新規,0,2023-07-19,2023-07-19,合同会社ＬＩＮＫＴＨ,,合同会社,富山県,砺波市,野村島６８８番地,,16,208,9391334,,,,,,,2023-07-19,1,,,,,リンクス,0
1967,8250001020171,新規,0,2023-07-19,2023-07-19,あやらぎｅｙｅサポート株式会社,,株式会社,山口県,下関市,綾羅木本町２丁目５番１５号,,35,201,7510849,,,,,,,2023-07-19,1,,,,,アヤラギアイサポート,0
1970,8250003003307,新規,0,2023-07-19,2023-07-19,合同会社壱,,合同会社,山口県,下関市,豊前田一丁目１番１５号,,35,201,7500000,,,,,,,2023-07-19,1,,,,,イチ,0
1989,8330001031061,新規,0,2023-07-19,2023-07-19,株式会社Ｉｖａｎｃｅ,,株式会社,熊本県,八代市,郡築三番町１０５番地,,43,202,8660022,,,,,,,2023-07-19,1,,,,,アイバンス,0
1992,8340001025723,新規,0,2023-07-19,2023-07-19,株式会社小田うのき農園,,株式会社,鹿児島県,鹿児島市,西別府町２９４１番地４６,,46,201,8900033,,,,,,,2023-07-19,1,,,,,オダウノキノウエン,0
1994,8350001018453,新規,0,2023-07-19,2023-07-19,株式会社すぱーてる,,株式会社,宮崎県,日南市,吾田西３丁目２番５５号,,45,204,8892536,,,,,,,2023-07-19,1,,,,,スパーテル,0
2000,8380001033862,新規,0,2023-07-19,2023-07-19,Ｗｉｓｔｅｒｉａ株式会社,,株式会社,福島県,双葉郡葛尾村,大字上野川字東５６番地１,,07,548,9791604,,,,,,,2023-07-19,1,,,,,,0
2005,8410001013547,新規,0,2023-07-19,2023-07-19,株式会社丸和企業,,株式会社,秋田県,横手市,平鹿町浅舞字林崎１２０番地２,,05,203,0130105,,,,,,,2023-07-19,1,,,,,マルワキギョウ,0
2006,8420003002761,新規,0,2023-07-19,2023-07-19,合同会社ＭＩＴＳＵＮＯ,,合同会社,青森県,むつ市,上川町２番２９号,,02,208,0350032,,,,,,,2023-07-19,1,,,,,ミツノ,0
2012,8430003015275,新規,0,2023-07-19,2023-07-19,合同会社プライムレント,,合同会社,北海道,石狩市,緑苑台東三条１丁目４１番地,,01,235,0613223,,,,,,,2023-07-19,1,,,,,プライムレント,0
2022,8700150003906,新規,0,2023-07-19,2015-10-09,油糧輸出入協議会,,その他,東京都,中央区,日本橋堀留町１丁目１０－１４いちご人形町ビル９階,,13,102,1030012,,,,,,,2015-10-09,1,,,,,ユリヨウユシユツニユウキヨウギカイ,0
2029,9010001236955,新規,0,2023-07-19,2023-07-19,株式会社Ｈａｐｐｙプロコマース,,株式会社,東京都,中央区,日本橋室町１丁目１１番１２号日本橋水野ビル７階,,13,102,1030022,,,,,,,2023-07-19,1,,,,,ハッピープロコマース,0
2030,9010003041148,新規,0,2023-07-19,2023-07-19,Ｔｈｅ　Ｈｅｌｌｅｒ　Ｇｒｏｕｐ　Ｊａｐａｎ合同会社,,合同会社,東京都,千代田区,丸の内３丁目２番２号丸の内二重橋ビル２階・３階,,13,101,1000005,,,,,,,2023-07-19,1,,,,,ヘラーグループジャパン,0
2042,9010405022316,新規,0,2023-07-19,2023-07-19,特定非営利活動法人Ｌｅａｐ　ｆｏｒ,,その他の設立登記法人,東京都,港区,虎ノ門４丁目３番１号城山トラストタワー３３Ｆ,,13,103,1050001,,,,,,,2023-07-19,1,,,,,リープフォー,0
2043,9010505003422,新規,0,2023-07-19,2023-07-19,一般社団法人アジアＫＯＬ商会,,その他の設立登記法人,東京都,台東区,元浅草１丁目２０－９,,13,106,1110041,,,,,,,2023-07-19,1,,,,,アジアケーオーエルショウカイ,0
2046,9010601063403,新規,0,2023-07-19,2023-07-19,株式会社魚河岸兄弟,,株式会社,東京都,墨田区,東向島６丁目３２番７号,,13,107,1310032,,,,,,,2023-07-19,1,,,,,ウオガシキョウダイ,0
2048,9010603010254,新規,0,2023-07-19,2023-07-19,Ｔ＆Ｒコンサルティング合同会社,,合同会社,東京都,江東区,大島５丁目４４番６－４０３号,,13,108,1360072,,,,,,,2023-07-19,1,,,,,ティーアンドアールコンサルティング,0
2051,9010701044567,新規,0,2023-07-19,2023-07-19,株式会社ＤｉｍＤｉｍＳｕｍ　Ｊａｐａｎ,,株式会社,東京都,品川区,西五反田４丁目１番２号,,13,109,1410031,,,,,,,2023-07-19,1,,,,,ディムディムサムジャパン,0
2052,9010701044575,新規,0,2023-07-19,2023-07-19,株式会社Ｉ．Ｔ．Ｓ,,株式会社,東京都,品川区,二葉１丁目１６番１８号,,13,109,1420043,,,,,,,2023-07-19,1,,,,,アイティーエス,0
2059,9010901053418,新規,0,2023-07-19,2023-07-19,崑崙会株式会社,,株式会社,東京都,世田谷区,瀬田１丁目４番１７号,,13,112,1580095,,,,,,,2023-07-19,1,,,,,コンロンカイ,0
2060,9010901053434,新規,0,2023-07-19,2023-07-19,品傑光電東京株式会社,,株式会社,東京都,世田谷区,成城４丁目２２番６号,,13,112,1570066,,,,,,,2023-07-19,1,,,,,ヒンケツコウデントウキョウ,0
2061,9010901053442,新規,0,2023-07-19,2023-07-19,株式会社Ｅｌｉｘｉｒ,,株式会社,東京都,世田谷区,桜２丁目１０番１５号,,13,112,1560053,,,,,,,2023-07-19,1,,,,,エリクサー,0
2062,9010903008329,新規,0,2023-07-19,2023-07-19,合同会社デザインノイエ,,合同会社,東京都,世田谷区,喜多見４丁目１１番１６号,,13,112,1570067,,,,,,,2023-07-19,1,,,,,デザインノイエ,0
2067,9011001155724,新規,0,2023-07-19,2023-07-19,株式会社オプトーク,,株式会社,東京都,渋谷区,道玄坂１丁目１０番８号渋谷道玄坂東急ビル２Ｆ－Ｃ,,13,113,1500043,,,,,,,2023-07-19,1,,,,,オプトーク,0
2068,9011001155740,新規,0,2023-07-19,2023-07-19,株式会社フリゲート,,株式会社,東京都,渋谷区,千駄ヶ谷３丁目７番１６号,,13,113,1510051,,,,,,,2023-07-19,1,,,,,フリゲート,0
2069,9011001155749,新規,0,2023-07-19,2023-07-19,株式会社セイスイ,,株式会社,東京都,渋谷区,広尾５丁目２２番１号－４０１,,13,113,1500012,,,,,,,2023-07-19,1,,,,,セイスイ,0
2071,9011003017187,新規,0,2023-07-19,2023-07-19,合同会社２ｎｄｃｏｌｏｒ,,合同会社,東京都,渋谷区,道玄坂１丁目１０番８号渋谷道玄坂東急ビル２Ｆ－Ｃ,,13,113,1500043,,,,,,,2023-07-19,1,,,,,セカンドカラー,0
2077,9011201024778,新規,0,2023-07-19,2023-07-19,株式会社ＥＭＩＬＵＳ,,株式会社,東京都,中野区,南台３丁目３８－１４ストークＡＴ２０１,,13,114,1640014,,,,,,,2023-07-19,1,,,,,エミラス,0
2079,9011303004835,新規,0,2023-07-19,2023-07-19,合同会社ＢｅＴｅｒ,,合同会社,東京都,杉並区,高円寺北２丁目３番１１号藤の森ビル１Ｆ,,13,115,1660002,,,,,,,2023-07-19,1,,,,,,0
2088,9011703003536,新規,0,2023-07-19,2023-07-19,合同会社ＡＴ１,,合同会社,東京都,江戸川区,西小岩１丁目２９－２セントラルＳ．Ｔ．７階,,13,123,1330057,,,,,,,2023-07-19,1,,,,,エーティーワン,0
2095,9013301051041,新規,0,2023-07-19,2023-07-19,株式会社Ｔｈｅ　Ｗｈｏｌｅ９Ｙａｒｄｓ,,株式会社,東京都,豊島区,南池袋４丁目８番４号,,13,116,1710022,,,,,,,2023-07-19,1,,,,,ウォールナインヤーズ,0
2112,9020001152490,新規,0,2023-07-19,2023-07-19,株式会社ＡＮＧＬ,,株式会社,神奈川県,川崎市高津区,久地３丁目１０－１プレジール高津５０３,,14,134,2130032,,,,,,,2023-07-19,1,,,,,アングル,0
2113,9020001152598,新規,0,2023-07-19,2023-07-19,ＬＩＦＩＸ株式会社,,株式会社,神奈川県,横浜市南区,南太田１丁目４２番３－２号ガーデンコート２号,,14,105,2320006,,,,,,,2023-07-19,1,,,,,リフィックス,0
2114,9020001152623,新規,0,2023-07-19,2023-07-19,株式会社Ｕｎｉｔｅｄ　Ｌａｂｏｒａｔｏｒｙｓ,,株式会社,神奈川県,横浜市金沢区,福浦１丁目１－１,,14,108,2360004,,,,,,,2023-07-19,1,,,,,ユナイテッドラボラトリー,0
2122,9020003024250,新規,0,2023-07-19,2023-07-19,合同会社海里,,合同会社,神奈川県,横浜市金沢区,富岡西７丁目４６番３０号,,14,108,2360052,,,,,,,2023-07-19,1,,,,,カイリ,0
2125,9021001079609,新規,0,2023-07-19,2023-07-19,株式会社エムアンドアソシエイツ,,株式会社,神奈川県,藤沢市,片瀬山１丁目６－４０,,14,205,2510033,,,,,,,2023-07-19,1,,,,,エムアンドアソシエイツ,0
2126,9021001079633,新規,0,2023-07-19,2023-07-19,株式会社Ｚｅｎｔｒｅ,,株式会社,神奈川県,中郡大磯町,国府新宿２２２番地２,,14,341,2590112,,,,,,,2023-07-19,1,,,,,ゼントレ,0
2128,9021003013342,新規,0,2023-07-19,2023-07-19,合同会社サラン,,合同会社,神奈川県,綾瀬市,大上８丁目２３―４,,14,218,2521104,,,,,,,2023-07-19,1,,,,,サラン,0
2134,9040001129306,新規,0,2023-07-19,2023-07-19,株式会社あずさ,,株式会社,千葉県,千葉市花見川区,千種町９１番地２,,12,102,2620012,,,,,,,2023-07-19,1,,,,,アズサ,0
2138,9050003007665,新規,0,2023-07-19,2023-07-19,合同会社すみれプロダクション,,合同会社,茨城県,つくば市,天久保２丁目１―１筑波大学平砂学生宿舎７号棟２１１号室,,08,220,3050005,,,,,,,2023-07-19,1,,,,,スミレプロダクション,0
2161,9120001256471,新規,0,2023-07-19,2023-07-19,株式会社ＨＳＮ,,株式会社,大阪府,大阪市天王寺区,玉造元町８番４－２１０２号,,27,109,5430014,,,,,,,2023-07-19,1,,,,,エイチエスエヌ,0
2162,9120001256554,新規,0,2023-07-19,2023-07-19,株式会社ＤＩＶＩＳＩＯＮ　ＯＮＥ,,株式会社,大阪府,枚方市,田口５丁目６番１号,,27,210,5731162,,,,,,,2023-07-19,1,,,,,ディビジョンワン,0
2164,9120005023752,新規,0,2023-07-19,2023-07-19,土地家屋調査士法人西部設計,,その他の設立登記法人,大阪府,寝屋川市,大成町１番９号,,27,215,5720819,,,,,,,2023-07-19,1,,,,,セイブセッケイ,0
2166,9120903004738,新規,0,2023-07-19,2023-07-19,ＰＡＢ合同会社,,合同会社,大阪府,吹田市,山田西１丁目３１番Ｂ－３０１号,,27,205,5650824,,,,,,,2023-07-19,1,,,,,ピーエービー,0
2167,9122001037174,新規,0,2023-07-19,2023-07-19,株式会社リブコード,,株式会社,大阪府,大東市,朋来２丁目５番３５号,,27,218,5740034,,,,,,,2023-07-19,1,,,,,リブコード,0
2171,9130001074740,新規,0,2023-07-19,2023-07-19,株式会社ＡＫ　ＷＯＲＫＳ,,株式会社,京都府,城陽市,枇杷庄鹿背田９６－８,,26,207,6100117,,,,,,,2023-07-19,1,,,,,エーケーワークス,0
2176,9140001130906,新規,0,2023-07-19,2023-07-19,碧マナビー株式会社,,株式会社,兵庫県,川西市,清和台西３丁目３番地の４４,,28,217,6660143,,,,,,,2023-07-19,1,,,,,アオマナビー,0
2178,9140003019313,新規,0,2023-07-19,2023-07-19,合同会社ＭＯＲＩＺＯ,,合同会社,兵庫県,宝塚市,御殿山２丁目８番４－４０２号,,28,214,6650841,,,,,,,2023-07-19,1,,,,,モリゾウ,0
2187,9180001157219,新規,0,2023-07-19,2023-07-19,株式会社比嘉工業,,株式会社,愛知県,知多郡東浦町,大字藤江字荒子１番地の１レインボー東浦藤江２０６号,,23,442,4702105,,,,,,,2023-07-19,1,,,,,ヒガコウギョウ,0
2194,9190003004376,新規,0,2023-07-19,2023-07-19,ＡＵＴＯ　ＢＩＲＤ合同会社,,合同会社,三重県,鈴鹿市,須賀１丁目１５８３番地４,,24,207,5130034,,,,,,,2023-07-19,1,,,,,,0
2208,9250001020170,新規,0,2023-07-19,2023-07-19,株式会社ＨＩＧＡＳＨＩ,,株式会社,山口県,柳井市,柳井１５１１番地３６,,35,212,7420021,,,,,,,2023-07-19,1,,,,,ヒガシ,0
2211,9250003003306,新規,0,2023-07-19,2023-07-19,合同会社Ｎ＆Ｆ,,合同会社,山口県,下松市,桜町２丁目１７番１４号,,35,207,7440019,,,,,,,2023-07-19,1,,,,,エヌアンドエフ,0
2214,9260001038138,新規,0,2023-07-19,2023-07-19,株式会社Ｗｉｎｇ,,株式会社,岡山県,岡山市南区,新保１１５２－８サンジェルマン新保１－１０１,,33,104,7000945,,,,,,,2023-07-19,1,,,,,ウィング,0
2220,9290801029713,新規,0,2023-07-19,2023-07-19,株式会社ＤＬＰ１１,,株式会社,福岡県,北九州市小倉北区,井堀３丁目１６番３号,,40,106,8030835,,,,,,,2023-07-19,1,,,,,ディーエルピーイレブン,0
2224,9330001031060,新規,0,2023-07-19,2023-07-19,株式会社ＴＣＦカンパニー,,株式会社,熊本県,熊本市北区,山室４丁目９番１６号,,43,105,8600084,,,,,,,2023-07-19,1,,,,,ティーシーエフカンパニー,0
2228,9350001018452,新規,0,2023-07-19,2023-07-19,株式会社セルフ商事,,株式会社,宮崎県,宮崎市,大字小松９８０番地１,,45,201,8802112,,,,,,,2023-07-19,1,,,,,セルフショウジ,0
2229,9360001032295,新規,0,2023-07-19,2023-07-19,株式会社Ｕｎ　Ｃｉｅｌ,,株式会社,沖縄県,那覇市,久茂地１丁目１番１号９階,,47,201,9000015,,,,,,,2023-07-19,1,,,,,アンシエル,0
2231,9370003006206,新規,0,2023-07-19,2023-07-19,合同会社悠の森,,合同会社,宮城県,塩竈市,字伊保石３７７番地４,,04,203,9850087,,,,,,,2023-07-19,1,,,,,ユウノモリ,0
2232,9380001033853,新規,0,2023-07-19,2023-07-19,文孝工務店株式会社,,株式会社,福島県,いわき市,江畑町江ノ上２１番地,,07,204,9748201,,,,,,,2023-07-19,1,,,,,フミタカコウムテン,0
2236,9420003002760,新規,0,2023-07-19,2023-07-19,合同会社Ｄ‐Ｂｒｉｄｇｅｓ,,合同会社,青森県,青森市,大字大矢沢字里見１８８番地９,,02,201,0300123,,,,,,,2023-07-19,1,,,,,ディーブリッジズ,0
2238,9430001089452,新規,0,2023-07-19,2023-07-19,オネスティ株式会社,,株式会社,北海道,札幌市中央区,南四条西１１丁目１２９３番１３サニー南４条マンション５０４号,,01,101,0640804,,,,,,,2023-07-19,1,,,,,オネスティ,0
2242,9470001019711,新規,0,2023-07-19,2023-07-19,株式会社ＫＭＴＳ,,株式会社,香川県,高松市,古新町１０番地３,,37,201,7600025,,,,,,,2023-07-19,1,,,,,ケーエムティーエス,0
2243,9470003002459,新規,0,2023-07-19,2023-07-19,パズークリエーション合同会社,,合同会社,香川県,仲多度郡琴平町,榎井５５３番地１,,37,403,7660004,,,,,,,2023-07-19,1,,,,,パズークリエーション,0
2250,9700150117671,新規,0,2023-07-19,2023-06-23,寝屋川市東大利町（Ａ街区）防災街区整備事業準備組合,,その他,大阪府,寝屋川市,早子町２３番２－２１７号,,27,215,5720837,,,,,,,2023-06-23,1,,,,,,0
