sequenceNumber,corporateNumber,process,correct,updateDate,changeDate,name,nameImageId,kind,prefectureName,cityName,streetNumber,addressImageId,prefectureCode,cityCode,postCode,addressOutside,addressOutsideImageId,closeDate,closeCause,successorCorporateNumber,changeCause,assignmentDate,latest,enName,enPrefectureName,enCityName,enAddressOutside,furigana,hihyoji
7,1010001225429,新規,0,2022-03-24,2022-03-24,株式会社アクセアテクノロジーズ,,株式会社,東京都,千代田区,麹町３丁目２番地１,,13,101,1020083,,,,,,,2022-03-24,1,,,,,アクセアテクノロジーズ,0
9,1010003037302,新規,0,2022-03-24,2022-03-24,合同会社ＧＵ　ｂａｎｋ,,合同会社,東京都,中央区,勝どき４丁目８番９－３０３号,,13,102,1040054,,,,,,,2022-03-24,1,,,,,ジーユーバンク,0
10,1010005034751,新規,0,2022-03-24,2022-03-24,一般社団法人国際環境エネルギー推進機構,,その他の設立登記法人,東京都,千代田区,永田町２丁目１７番５号ローレル永田町６１２号,,13,101,1000014,,,,,,,2022-03-24,1,,,,,コクサイカンキョウエネルギースイシンキコウ,0
15,1010401166306,新規,0,2022-03-24,2022-03-24,ＶｅｌｖｅｔＳｔａｇｅ株式会社,,株式会社,東京都,港区,東麻布２丁目３５－１ＫＣビル６Ｆ,,13,103,1060044,,,,,,,2022-03-24,1,,,,,ベルベットステージ,0
16,1010401166322,新規,0,2022-03-24,2022-03-24,株式会社アラヴィス,,株式会社,東京都,港区,北青山２丁目１１番１５号,,13,103,1070061,,,,,,,2022-03-24,1,,,,,アラヴィス,0
17,1010401166330,新規,0,2022-03-24,2022-03-24,株式会社ストックス,,株式会社,東京都,港区,南青山２丁目２２番１４号,,13,103,1070062,,,,,,,2022-03-24,1,,,,,ストックス,0
18,1010401166347,新規,0,2022-03-24,2022-03-24,株式会社ＴＲＩＮＩＴＹ　ＡＧＥＮＴＳ,,株式会社,東京都,港区,虎ノ門４丁目３－１城山トラストタワー２７階,,13,103,1050001,,,,,,,2022-03-24,1,,,,,トリニティエージェント,0
21,1010403027299,新規,0,2022-03-24,2022-03-24,合同会社Ｍ・Ｇ,,合同会社,東京都,港区,南青山２丁目２番１５号,,13,103,1070062,,,,,,,2022-03-24,1,,,,,エムジー,0
22,1010403027316,新規,0,2022-03-24,2022-03-24,合同会社ＯＫＭ,,合同会社,東京都,港区,浜松町２丁目２番１５号浜松町ダイヤビル２Ｆ,,13,103,1050013,,,,,,,2022-03-24,1,,,,,オーケイエム,0
25,1010603009452,新規,0,2022-03-24,2022-03-24,大里通商合同会社,,合同会社,東京都,江東区,南砂５丁目１９番１７－１１０２号,,13,108,1360076,,,,,,,2022-03-24,1,,,,,オオサトツウショウ,0
32,1010801032826,新規,0,2022-03-24,2022-03-24,クレシア建設株式会社,,株式会社,東京都,大田区,山王４丁目１８－１,,13,111,1430023,,,,,,,2022-03-24,1,,,,,クレシアケンセツ,0
35,1010903007247,新規,0,2022-03-24,2022-03-24,合同会社ゼロディフェクト,,合同会社,東京都,世田谷区,中町３丁目３４番９－３０１号,,13,112,1580091,,,,,,,2022-03-24,1,,,,,ゼロディフェクト,0
42,1011001146458,新規,0,2022-03-24,2022-03-24,レッドローズ株式会社,,株式会社,東京都,目黒区,青葉台２丁目２１番３－８０８号,,13,110,1530042,,,,,,,2022-03-24,1,,,,,レッドローズ,0
43,1011001146499,新規,0,2022-03-24,2022-03-24,株式会社Ｌｉｂｅｒｔａ,,株式会社,東京都,渋谷区,神宮前６丁目２３番４号,,13,113,1500001,,,,,,,2022-03-24,1,,,,,リベルタ,0
47,1011003014365,新規,0,2022-03-24,2022-03-24,ＭＡ合同会社,,合同会社,東京都,渋谷区,南平台町１２番１３－６２２号,,13,113,1500036,,,,,,,2022-03-24,1,,,,,エムエー,0
50,1011101098203,新規,0,2022-03-24,2022-03-24,株式会社Ｓａｇｏｈａｃｈｉ３５８,,株式会社,東京都,新宿区,南山伏町１番１８号,,13,104,1620854,,,,,,,2022-03-24,1,,,,,サゴハチ,0
53,1011105010196,新規,0,2022-03-24,2022-03-24,一般社団法人日本ＰＬＧ協会,,その他の設立登記法人,東京都,新宿区,新宿１丁目５番４号ＹＫＢマイクガーデン５０１,,13,104,1600022,,,,,,,2022-03-24,1,,,,,ニホンピーエルジーキョウカイ,0
54,1011203003779,新規,0,2022-03-24,2022-03-24,ＭＩＲＡ　ＩＮＴＥＲＮＡＴＩＯＮＡＬ合同会社,,合同会社,東京都,中野区,東中野４丁目１９番３号サニーハウス３０３,,13,114,1640003,,,,,,,2022-03-24,1,,,,,ミラインターナショナル,0
55,1011301027655,新規,0,2022-03-24,2022-03-24,日本武田健康科学研究所株式会社,,株式会社,東京都,杉並区,天沼２丁目７番７号マンション大竹３０１,,13,115,1670032,,,,,,,2022-03-24,1,,,,,ニホンタケダケンコウカガクケンキュウジョ,0
57,1011503005112,新規,0,2022-03-24,2022-03-24,ＢＳＵ　Ｃｏｒｐｏｒａｔｉｏｎ合同会社,,合同会社,東京都,荒川区,西日暮里２丁目４４番２号高橋マンション３０１,,13,118,1160013,,,,,,,2022-03-24,1,,,,,ビーエスユーコーポレーション,0
59,1011601025813,新規,0,2022-03-24,2022-03-24,株式会社ＡＢＣ整体スタジオ西東京,,株式会社,東京都,練馬区,石神井町１丁目２５番７－２０１号,,13,120,1770041,,,,,,,2022-03-24,1,,,,,エービーシーセイタイスタジオニシトウキョウ,0
60,1011701025151,新規,0,2022-03-24,2022-03-24,株式会社ＴＮＫ,,株式会社,東京都,江戸川区,船堀４丁目９番５－１０３号,,13,123,1340091,,,,,,,2022-03-24,1,,,,,ティーエヌケー,0
66,1012401038996,新規,0,2022-03-24,2022-03-24,株式会社ＦＥＩＣＯ,,株式会社,東京都,稲城市,押立１０４３番地,,13,225,2060811,,,,,,,2022-03-24,1,,,,,フェイコ,0
67,1012401039004,新規,0,2022-03-24,2022-03-24,新エネルギー開発株式会社,,株式会社,東京都,多摩市,関戸４丁目９番地１０,,13,224,2060011,,,,,,,2022-03-24,1,,,,,シンエネルギーカイハツ,0
81,1020001145758,新規,0,2022-03-24,2022-03-24,株式会社エヌリンク,,株式会社,神奈川県,横浜市西区,北幸１丁目１１番１号水信ビル７階,,14,103,2200004,,,,,,,2022-03-24,1,,,,,エヌリンク,0
82,1020001145766,新規,0,2022-03-24,2022-03-24,株式会社アスク,,株式会社,神奈川県,横浜市泉区,下飯田町７４４番地,,14,116,2450017,,,,,,,2022-03-24,1,,,,,アスク,0
83,1020001145774,新規,0,2022-03-24,2022-03-24,株式会社ＱＤジャパン,,株式会社,神奈川県,横浜市港北区,篠原町１５８１番地１１,,14,109,2220026,,,,,,,2022-03-24,1,,,,,キューディジャパン,0
84,1020001145790,新規,0,2022-03-24,2022-03-24,株式会社グルースデザイン,,株式会社,神奈川県,横浜市青葉区,しらとり台２７番地７,,14,117,2270054,,,,,,,2022-03-24,1,,,,,グルースデザイン,0
85,1020003021494,新規,0,2022-03-24,2022-03-24,合同会社Ｇｙｐｓｏｈｙｌａ,,合同会社,神奈川県,川崎市川崎区,四谷上町１２－２,,14,131,2100828,,,,,,,2022-03-24,1,,,,,ギプソフィラ,0
90,1021001075499,新規,0,2022-03-24,2022-03-24,株式会社まっしゅ,,株式会社,神奈川県,相模原市中央区,宮下本町３丁目４７－１５,,14,152,2520211,,,,,,,2022-03-24,1,,,,,マッシュ,0
92,1021003011502,新規,0,2022-03-24,2022-03-24,フリューゲル合同会社,,合同会社,神奈川県,相模原市南区,鵜野森２丁目２２番２４号,,14,153,2520301,,,,,,,2022-03-24,1,,,,,フリューゲル,0
99,1030001147349,新規,0,2022-03-24,2022-03-24,株式会社青風社,,株式会社,埼玉県,熊谷市,三ヶ尻３４０８番地１,,11,202,3600843,,,,,,,2022-03-24,1,,,,,セイフウシャ,0
100,1030001147373,新規,0,2022-03-24,2022-03-24,アールプラン株式会社,,株式会社,埼玉県,北本市,東間８丁目２９７番地７,,11,233,3640007,,,,,,,2022-03-24,1,,,,,アールプラン,0
105,1030003019059,新規,0,2022-03-24,2022-03-24,合同会社ＹＯＫ,,合同会社,埼玉県,草加市,中央１丁目１番１－７０１号,,11,221,3400016,,,,,,,2022-03-24,1,,,,,ワイオーケー,0
106,1030003019067,新規,0,2022-03-24,2022-03-24,合同会社ａｎｏｔｈｅｒ　ｐｌａｃｅ,,合同会社,埼玉県,さいたま市南区,別所７丁目２１番１－２４０２号,,11,108,3360021,,,,,,,2022-03-24,1,,,,,アナザープレイス,0
107,1030003019075,新規,0,2022-03-24,2022-03-24,合同会社鳥海農園,,合同会社,埼玉県,加須市,北辻１５４番地１,00126043,11,210,3470023,,,,,,,2022-03-24,1,,,,,トリウミノウエン,0
111,1040001122706,新規,0,2022-03-24,2022-03-24,株式会社ＲｕｖＢｏｄｙ,,株式会社,千葉県,成田市,橋賀台２丁目６番地４,,12,211,2860037,,,,,,,2022-03-24,1,,,,,ラヴボディ,0
112,1040001122722,新規,0,2022-03-24,2022-03-24,株式会社ＬＩＮＫ,,株式会社,千葉県,船橋市,咲が丘１丁目１０番１９号,,12,204,2740807,,,,,,,2022-03-24,1,,,,,リンク,0
130,1080005007437,新規,0,2022-03-24,2022-03-24,一般財団法人静岡新食文化共創機構,,その他の設立登記法人,静岡県,静岡市清水区,興津清見寺町１３７５番地の１６,,22,103,4240206,,,,,,,2022-03-24,1,,,,,シズオカシンショクブンカキョウソウキコウ,0
134,1090003002067,新規,0,2022-03-24,2022-03-24,ｋａｅｒｕ合同会社,,合同会社,山梨県,甲斐市,竜王１９８３,,19,210,4000118,,,,,,,2022-03-24,1,,,,,カエル,0
150,1120001244599,新規,0,2022-03-24,2022-03-24,株式会社ｕｒｏｃｏｒｏ,,株式会社,大阪府,交野市,星田北５丁目１９番６号－１０２,,27,230,5760017,,,,,,,2022-03-24,1,,,,,ウロコロ,0
151,1120001244608,新規,0,2022-03-24,2022-03-24,株式会社Ｋ‐ｒｉｓｅ,,株式会社,大阪府,大阪市平野区,加美正覚寺３丁目１－８,,27,126,5470006,,,,,,,2022-03-24,1,,,,,ケイライズ,0
152,1120001244649,新規,0,2022-03-24,2022-03-24,ＳＴＮ株式会社,,株式会社,大阪府,枚方市,野村中町２番２－４０９号,,27,210,5730144,,,,,,,2022-03-24,1,,,,,エスティエヌ,0
153,1120001244665,新規,0,2022-03-24,2022-03-24,株式会社ラフエイト,,株式会社,大阪府,大阪市福島区,野田６丁目３番１４号,,27,103,5530005,,,,,,,2022-03-24,1,,,,,ラフエイト,0
159,1120003021245,新規,0,2022-03-24,2022-03-24,合同会社ｉ‐ｐａｔｏｋｈａｍ,,合同会社,大阪府,大阪市淀川区,三国本町３丁目３６－１０－５０３,,27,123,5320005,,,,,,,2022-03-24,1,,,,,アイパトハム,0
160,1120003021328,新規,0,2022-03-24,2022-03-24,ＳＡＹＵＭＥ合同会社,,合同会社,大阪府,大阪市生野区,巽北４丁目６番１号,00126044,27,116,5440004,,,,,,,2022-03-24,1,,,,,サユメ,0
168,1120101065276,新規,0,2022-03-24,2022-03-24,株式会社ＴＡＫＡＳＡＮ,,株式会社,大阪府,泉南市,信達牧野５８１番地の１,,27,228,5900522,,,,,,,2022-03-24,1,,,,,タカサン,0
169,1120103004620,新規,0,2022-03-24,2022-03-24,合同会社ＭＳＴ佐吉,,合同会社,大阪府,岸和田市,春木若松町１９番３１号,,27,202,5960006,,,,,,,2022-03-24,1,,,,,エムエスティーサキチ,0
171,1120901045758,新規,0,2022-03-24,2022-03-24,株式会社ＢＡＬＬＯＯＮ　ＤＲＥＡＭ,,株式会社,大阪府,箕面市,今宮２丁目８番６号の５,,27,220,5620033,,,,,,,2022-03-24,1,,,,,バルーンドリーム,0
173,1122003002299,新規,0,2022-03-24,2022-03-24,合同会社ビッグマウンド,,合同会社,大阪府,東大阪市,荒本新町４番１３号サンリットビル３－Ａ,,27,227,5770022,,,,,,,2022-03-24,1,,,,,ビッグマウンド,0
174,1130001071373,新規,0,2022-03-24,2022-03-24,株式会社京都佐伯の里,,株式会社,京都府,亀岡市,＿田野町佐伯大日堂１０４番地,00126042,26,206,6210033,,,,,,,2022-03-24,1,,,,,キョウトサエキノサト,0
175,1130003007813,新規,0,2022-03-24,2022-03-24,合同会社スミコーポレーション,,合同会社,京都府,相楽郡精華町,大字下狛小字明法寺２７番地,,26,366,6190245,,,,,,,2022-03-24,1,,,,,スミコーポレーション,0
183,1160001024064,新規,0,2022-03-24,2022-03-24,株式会社Ｅ・Ｊ・ＣＯＭＰＡＮＹ,,株式会社,滋賀県,草津市,矢橋町１８５７番地４,,25,206,5250066,,,,,,,2022-03-24,1,,,,,イージェーカンパニー,0
188,1180001150528,新規,0,2022-03-24,2022-03-24,株式会社ｒｅ,,株式会社,愛知県,名古屋市北区,丸新町３９３番地の１,,23,103,4620063,,,,,,,2022-03-24,1,,,,,アールイー,0
189,1180001150536,新規,0,2022-03-24,2022-03-24,株式会社ギッシュＹ,,株式会社,愛知県,小牧市,大字村中１００４番地の２,,23,219,4850082,,,,,,,2022-03-24,1,,,,,ギッシュワイ,0
199,1210001018853,新規,0,2022-03-24,2022-03-24,株式会社Ｒｅｘｔ,,株式会社,福井県,福井市,板垣４丁目１０２番地メゾンメルベーユＤ棟１０１号室,,18,201,9188104,,,,,,,2022-03-24,1,,,,,レクスト,0
202,1220001024751,新規,0,2022-03-24,2022-03-24,小川ホールディングス株式会社,,株式会社,石川県,金沢市,円光寺２丁目３４５番地,,17,201,9218173,,,,,,,2022-03-24,1,,,,,オガワホールディングス,0
217,1250003003024,新規,0,2022-03-24,2022-03-24,合同会社Ｓｕｐｒａｉｚｅ,,合同会社,山口県,下関市,長府印内町１１－１５ハイム田中４０３,,35,201,7520957,,,,,,,2022-03-24,1,,,,,シュプライズ,0
226,1290001096909,新規,0,2022-03-24,2022-03-24,株式会社ｕｎｉｔｅｒ,,株式会社,福岡県,福岡市東区,千早４丁目４番８号,,40,131,8130044,,,,,,,2022-03-24,1,,,,,ユナイター,0
229,1290801028367,新規,0,2022-03-24,2022-03-24,株式会社大福匠會,,株式会社,福岡県,宮若市,福丸１６９番地２－２,,40,226,8220101,,,,,,,2022-03-24,1,,,,,ダイフクショウカイ,0
231,1310001017779,新規,0,2022-03-24,2022-03-24,株式会社スリーピース不動産,,株式会社,長崎県,西彼杵郡長与町,嬉里郷４５６番地２５西村ビル２階,,42,307,8512128,,,,,,,2022-03-24,1,,,,,スリーピースフドウサン,0
232,1330001029566,新規,0,2022-03-24,2022-03-24,アベニールデザイン株式会社,,株式会社,熊本県,熊本市中央区,中央街４－２２アルバ銀座通りビル６Ｆ,,43,101,8600802,,,,,,,2022-03-24,1,,,,,アベニールデザイン,0
236,1340001024590,新規,0,2022-03-24,2022-03-24,株式会社Ｌａｕｇｈｔｅｒ,,株式会社,鹿児島県,薩摩川内市,向田本町１４番１０号正栄ビル２０１号,,46,215,8950021,,,,,,,2022-03-24,1,,,,,ラフター,0
246,1380001032672,新規,0,2022-03-24,2022-03-24,株式会社ソリューション福島,,株式会社,福島県,福島市,松山町２５番地,,07,201,9608228,,,,,,,2022-03-24,1,,,,,ソリューションフクシマ,0
252,1380003005131,新規,0,2022-03-24,2022-03-24,合同会社アイ＆ミィ,,合同会社,福島県,会津若松市,門田町大字日吉字丑渕１３５番地の８,,07,202,9650841,,,,,,,2022-03-24,1,,,,,アイアンドミィ,0
254,1390005008949,新規,0,2022-03-24,2022-03-24,一般社団法人観光資源マネジメントやまがた,,その他の設立登記法人,山形県,東根市,大字郡山３４８‐４,,06,211,9993774,,,,,,,2022-03-24,1,,,,,カンコウシゲンマネジメントヤマガタ,0
255,1410001013124,新規,0,2022-03-24,2022-03-24,株式会社ａｒｕ,,株式会社,秋田県,秋田市,下新城中野字琵琶沼３２９番地２,,05,201,0100146,,,,,,,2022-03-24,1,,,,,アル,0
257,1420001017776,新規,0,2022-03-24,2022-03-24,株式会社金正堂本店分割準備会社,,株式会社,青森県,弘前市,大字土手町４５番地１,,02,202,0368182,,,,,,,2022-03-24,1,,,,,キンショウドウホンテンブンカツジュンビガイシャ,0
260,1430001086250,新規,0,2022-03-24,2022-03-24,株式会社ＣＯＲＥ‐空間計画,,株式会社,北海道,札幌市東区,北四十五条東５丁目５番１０号,,01,103,0070845,,,,,,,2022-03-24,1,,,,,コアクウカンケイカク,0
261,1430001086267,新規,0,2022-03-24,2022-03-24,株式会社レストカンパニー,,株式会社,北海道,美唄市,大通東一条南５丁目４番２５号,,01,215,0720011,,,,,,,2022-03-24,1,,,,,レストカンパニー,0
265,1480005006893,新規,0,2022-03-24,2022-03-24,特定非営利活動法人べんざいてんのお家,,その他の設立登記法人,徳島県,阿南市,柳島町弁財天西１,,36,204,7740043,,,,,,,2022-03-24,1,,,,,ベンザイテンノオウチ,0
275,2010001225403,新規,0,2022-03-24,2022-03-24,株式会社コーポレートアクションズ・リサーチ,,株式会社,東京都,中央区,銀座７丁目１３番６号,,13,102,1040061,,,,,,,2022-03-24,1,,,,,コーポレートアクションズリサーチ,0
276,2010001225436,新規,0,2022-03-24,2022-03-24,株式会社ＫＹ,,株式会社,東京都,中央区,晴海１丁目６－１－３７０３,,13,102,1040053,,,,,,,2022-03-24,1,,,,,ケイワイ,0
278,2010005034767,新規,0,2022-03-24,2022-03-24,一般社団法人地域振興支援ふるさとのチカラ,,その他の設立登記法人,東京都,中央区,晴海１丁目８番１０号晴海アイランドトリトンスクエアオフィスタワーＸ２３Ｆ,,13,102,1040053,,,,,,,2022-03-24,1,,,,,チイキシンコウシエンフルサトノチカラ,0
281,2010401166321,新規,0,2022-03-24,2022-03-24,ＣＥアセット株式会社,,株式会社,東京都,港区,六本木７丁目１５番７号,,13,103,1060032,,,,,,,2022-03-24,1,,,,,シーイーアセット,0
293,2010903007246,新規,0,2022-03-24,2022-03-24,合同会社ＫＵライフデザイン,,合同会社,東京都,世田谷区,玉川台２丁目２０番１４号,,13,112,1580096,,,,,,,2022-03-24,1,,,,,ケイユウライフデザイン,0
294,2010903007254,新規,0,2022-03-24,2022-03-24,３ｄｉｍｓ合同会社,,合同会社,東京都,世田谷区,松原３丁目３０－１０－２Ｆ,,13,112,1560043,,,,,,,2022-03-24,1,,,,,スリーディムズ,0
301,2011001146449,新規,0,2022-03-24,2022-03-24,ドーンバッハ・インターナショナル株式会社,,株式会社,東京都,渋谷区,千駄ヶ谷５丁目２７番３号,,13,113,1510051,,,,,,,2022-03-24,1,,,,,ドーンバッハインターナショナル,0
302,2011001146473,新規,0,2022-03-24,2022-03-24,株式会社ＨＯＰ,,株式会社,東京都,渋谷区,渋谷２丁目９番１０号,,13,113,1500002,,,,,,,2022-03-24,1,,,,,ホップ,0
310,2011501027859,新規,0,2022-03-24,2022-03-24,株式会社ＭＩＯ,,株式会社,東京都,北区,西ケ原４丁目１２番３号,,13,117,1140024,,,,,,,2022-03-24,1,,,,,エムアイオー,0
313,2011701025150,新規,0,2022-03-24,2022-03-24,株式会社アイコ,,株式会社,東京都,江戸川区,東葛西５丁目１番１号吉田ビル３Ａ,,13,123,1340084,,,,,,,2022-03-24,1,,,,,アイコ,0
324,2013301048853,新規,0,2022-03-24,2022-03-24,株式会社カナエル,,株式会社,東京都,豊島区,長崎４丁目３９番７号,,13,116,1710051,,,,,,,2022-03-24,1,,,,,カナエル,0
332,2020001145757,新規,0,2022-03-24,2022-03-24,株式会社Ｇｒｏｗｓｔｙｌｅ,,株式会社,神奈川県,横浜市西区,高島２丁目１１番２号スカイメナー横浜５１９,,14,103,2200011,,,,,,,2022-03-24,1,,,,,グロースタイル,0
333,2020001145765,新規,0,2022-03-24,2022-03-24,株式会社日本美容研究所,,株式会社,神奈川県,横浜市磯子区,西町１６－５－６１６,,14,107,2350007,,,,,,,2022-03-24,1,,,,,ニホンビヨウケンキュウジョ,0
334,2020001145773,新規,0,2022-03-24,2022-03-24,株式会社ＧＵＣエージェント,,株式会社,神奈川県,横浜市神奈川区,栄町５－１横浜クリエーションスクエア１４階,,14,102,2210052,,,,,,,2022-03-24,1,,,,,,0
335,2020001145781,新規,0,2022-03-24,2022-03-24,株式会社インヴィテーション,,株式会社,神奈川県,横浜市神奈川区,松本町２丁目１７番地１,,14,102,2210841,,,,,,,2022-03-24,1,,,,,インヴィテーション,0
336,2020001145807,新規,0,2022-03-24,2022-03-24,株式会社ａｍａｎｅ,,株式会社,神奈川県,横浜市神奈川区,西寺尾１丁目３０－４５－４,,14,102,2210001,,,,,,,2022-03-24,1,,,,,アマネ,0
339,2021001075507,新規,0,2022-03-24,2022-03-24,ＶＡＢｌｉｎｇ株式会社,,株式会社,神奈川県,大和市,中央７丁目１－２８－Ａ,,14,213,2420021,,,,,,,2022-03-24,1,,,,,バブリング,0
347,2030001147348,新規,0,2022-03-24,2022-03-24,株式会社いるまの,,株式会社,埼玉県,所沢市,北原町８６６番地の１７,,11,208,3590004,,,,,,,2022-03-24,1,,,,,イルマノ,0
348,2030001147356,新規,0,2022-03-24,2022-03-24,ＡＭＡＲＡ株式会社,,株式会社,埼玉県,川口市,戸塚３丁目３０番８号フラワーハイムサルビア６０２,,11,203,3330811,,,,,,,2022-03-24,1,,,,,アマラ,0
352,2030003019066,新規,0,2022-03-24,2022-03-24,合同会社ＡＢＬ,,合同会社,埼玉県,富士見市,ふじみ野東２丁目８番地１－２０４号,,11,235,3540036,,,,,,,2022-03-24,1,,,,,エービーエル,0
356,2040001122705,新規,0,2022-03-24,2022-03-24,株式会社Ｔ＆Ｉ,,株式会社,千葉県,鎌ケ谷市,北中沢３丁目６番１０－１１号,,12,224,2730111,,,,,,,2022-03-24,1,,,,,ティーアンドアイ,0
357,2040001122713,新規,0,2022-03-24,2022-03-24,株式会社エフ・スポ,,株式会社,千葉県,船橋市,海神町南１丁目１４８８番地１－２０５,,12,204,2730024,,,,,,,2022-03-24,1,,,,,エフスポ,0
358,2040001122721,新規,0,2022-03-24,2022-03-24,株式会社ＢｒｉｇｈｔＮｉｎｅ,,株式会社,千葉県,市川市,市川南１丁目４番２１－２０２号,,12,203,2720033,,,,,,,2022-03-24,1,,,,,ブライトナイン,0
359,2040003019734,新規,0,2022-03-24,2022-03-24,ＮＣ＆Ｋ２６合同会社,,合同会社,千葉県,松戸市,新松戸１丁目４４１番地流鉄カーサ新松戸２０３号,,12,207,2700034,,,,,,,2022-03-24,1,,,,,エヌシーアンドケーニーロク,0
379,2110001036518,新規,0,2022-03-24,2022-03-24,株式会社ＦＯＲ,,株式会社,新潟県,三条市,須頃１丁目２０番地リサーチコア５階,,15,204,9550092,,,,,,,2022-03-24,1,,,,,エフオーアール,0
389,2120001244607,新規,0,2022-03-24,2022-03-24,株式会社フラット,,株式会社,大阪府,大阪市淀川区,西中島６丁目３番２４号Ｐ４１３,,27,123,5320011,,,,,,,2022-03-24,1,,,,,フラット,0
390,2120001244615,新規,0,2022-03-24,2022-03-24,ケイエフグループ株式会社,,株式会社,大阪府,大阪市東淀川区,柴島３丁目８番１１号,,27,114,5330024,,,,,,,2022-03-24,1,,,,,ケイエフグループ,0
391,2120001244664,新規,0,2022-03-24,2022-03-24,株式会社はたらく,,株式会社,大阪府,大阪市中央区,上汐２丁目５番６号,,27,128,5420064,,,,,,,2022-03-24,1,,,,,ハタラク,0
394,2120101065275,新規,0,2022-03-24,2022-03-24,ＦＡＩＴＨコンサルティング株式会社,,株式会社,大阪府,堺市北区,長曽根町３０８４番地１ディアステージなかもず３１０号,,27,146,5918025,,,,,,,2022-03-24,1,,,,,フェイスコンサルティング,0
396,2120903004083,新規,0,2022-03-24,2022-03-24,きづき合同会社,,合同会社,大阪府,箕面市,稲６丁目７番３号,,27,220,5620015,,,,,,,2022-03-24,1,,,,,キヅキ,0
401,2130001071389,新規,0,2022-03-24,2022-03-24,株式会社圭,,株式会社,京都府,京都市左京区,修学院山ノ鼻町１８番地の１５,,26,103,6068025,,,,,,,2022-03-24,1,,,,,タマ,0
402,2130001071397,新規,0,2022-03-24,2022-03-24,日本方景株式会社,,株式会社,京都府,宇治市,神明宮東８１番地の５－１０２,,26,204,6110025,,,,,,,2022-03-24,1,,,,,ニホンホウケイ,0
403,2130001071406,新規,0,2022-03-24,2022-03-24,株式会社知上会,,株式会社,京都府,京都市中京区,天神山町２８０番地４階,,26,104,6048221,,,,,,,2022-03-24,1,,,,,チジョウカイ,0
407,2130005016415,新規,0,2022-03-24,2022-03-24,天悠行政書士法人,,その他の設立登記法人,京都府,京都市下京区,五条通烏丸西入醍醐町２９０番地烏丸五条ビル２階,,26,106,6008106,,,,,,,2022-03-24,1,,,,,テンユウ,0
414,2140001125350,新規,0,2022-03-24,2022-03-24,株式会社ＳＡＹＳ,,株式会社,兵庫県,神戸市北区,松宮台１丁目１８番地の１４,,28,109,6511147,,,,,,,2022-03-24,1,,,,,セイズ,0
415,2140001125359,新規,0,2022-03-24,2022-03-24,株式会社ＴｗｉｎｓＲ,,株式会社,兵庫県,芦屋市,緑町１番１４－６０１号,,28,206,6590042,,,,,,,2022-03-24,1,,,,,ツインズアール,0
418,2160001024063,新規,0,2022-03-24,2022-03-24,株式会社Ｂ‐ｇｌｏｗ,,株式会社,滋賀県,近江八幡市,鷹飼町北１丁目１０番地８,,25,204,5230896,,,,,,,2022-03-24,1,,,,,ビーグロー,0
427,2180001150502,新規,0,2022-03-24,2022-03-24,株式会社ＣａＮｏｗＨＯＭＥ,,株式会社,愛知県,名古屋市南区,立脇町２丁目５番地１スターハイツ笠寺Ｃ号室,,23,112,4570077,,,,,,,2022-03-24,1,,,,,カナウホーム,0
428,2180001150510,新規,0,2022-03-24,2022-03-24,Ｖｉｖａｎｔ株式会社,,株式会社,愛知県,名古屋市緑区,潮見が丘２丁目２０,,23,114,4580037,,,,,,,2022-03-24,1,,,,,ヴィヴァント,0
429,2180001150519,新規,0,2022-03-24,2022-03-24,思美貿易株式会社,,株式会社,愛知県,長久手市,仲田１０８番地,,23,238,4801167,,,,,,,2022-03-24,1,,,,,コトミボウエキ,0
441,2200001039882,新規,0,2022-03-24,2022-03-24,株式会社ＫＴＳ,,株式会社,岐阜県,海津市,海津町札野９１６番地３５,,21,221,5030643,,,,,,,2022-03-24,1,,,,,ケイティーエス,0
454,2240001059489,新規,0,2022-03-24,2022-03-24,進栄工業株式会社,,株式会社,広島県,福山市,本郷町２０６７番地５１,,34,207,7290252,,,,,,,2022-03-24,1,,,,,シンエイコウギョウ,0
466,2290001096882,新規,0,2022-03-24,2022-03-24,株式会社ブカロ,,株式会社,福岡県,久留米市,三潴町玉満４０１１番地１３,,40,203,8300112,,,,,,,2022-03-24,1,,,,,ブカロ,0
467,2290001096908,新規,0,2022-03-24,2022-03-24,株式会社モビリア運送,,株式会社,福岡県,三潴郡大木町,大字八町牟田１３６７番地１,,40,522,8300416,,,,,,,2022-03-24,1,,,,,モビリアウンソウ,0
471,2290801028374,新規,0,2022-03-24,2022-03-24,株式会社ＳＥＫＩ,,株式会社,福岡県,中間市,中尾４丁目１番１―１４０１号,,40,215,8090032,,,,,,,2022-03-24,1,,,,,セキ,0
479,2340005009430,新規,0,2022-03-24,2022-03-24,一般社団法人学童保育ＲＩＮＲＩＮＨＯＵＳＥ,,その他の設立登記法人,鹿児島県,薩摩川内市,平佐町２１６０番地１６,,46,215,8950012,,,,,,,2022-03-24,1,,,,,ガクドウホイクリンリンハウス,0
483,2370001048347,新規,0,2022-03-24,2022-03-24,株式会社Ｍ・Ｆ　ＴＲＡＤＩＮＧ,,株式会社,宮城県,柴田郡村田町,大字村田字榎下１７番地２,,04,322,9891305,,,,,,,2022-03-24,1,,,,,エムエフトレーディング,0
485,2370003005627,新規,0,2022-03-24,2022-03-24,合同会社名取りんくうタウン・クリエイトふくし,,合同会社,宮城県,名取市,美田園６丁目９－２５,,04,207,9811217,,,,,,,2022-03-24,1,,,,,ナトリリンクウタウンクリエイトフクシ,0
505,2420001017775,新規,0,2022-03-24,2022-03-24,株式会社津軽さくらファーム,,株式会社,青森県,弘前市,大字小沢字広野２０３番地１,,02,202,0368243,,,,,,,2022-03-24,1,,,,,ツガルサクラファーム,0
513,2430001086266,新規,0,2022-03-24,2022-03-24,株式会社ＲＩＺ　ＰＬＡＮＴ,,株式会社,北海道,札幌市北区,新琴似六条１０丁目３番１７号,,01,102,0010906,,,,,,,2022-03-24,1,,,,,リズプラント,0
515,2430003013739,新規,0,2022-03-24,2022-03-24,スマイルアンドスマイル合同会社,,合同会社,北海道,札幌市豊平区,月寒東四条１７丁目２－５,,01,105,0620054,,,,,,,2022-03-24,1,,,,,スマイルアンドスマイル,0
520,2440001009052,新規,0,2022-03-24,2022-03-24,三好塗装株式会社,,株式会社,北海道,茅部郡森町,字砂原５丁目７４番地の５,,01,345,0492222,,,,,,,2022-03-24,1,,,,,ミヨシトソウ,0
521,2460001005669,新規,0,2022-03-24,2022-03-24,株式会社サン・ラウン,,株式会社,北海道,釧路郡釧路町,東陽西３丁目１番地１０,,01,661,0880627,,,,,,,2022-03-24,1,,,,,サンラウン,0
522,2480005006892,新規,0,2022-03-24,2022-03-24,一般社団法人神山まるごと奨学金基金,,その他の設立登記法人,徳島県,名西郡神山町,下分字地野４９番地１,,36,342,7713421,,,,,,,2022-03-24,1,,,,,カミヤママルゴトショウガクキンキキン,0
537,3010001225393,新規,0,2022-03-24,2022-03-24,株式会社ブライトワ,,株式会社,東京都,中央区,銀座１丁目２２番１１号,,13,102,1040061,,,,,,,2022-03-24,1,,,,,ブライトワ,0
538,3010003037300,新規,0,2022-03-24,2022-03-24,合同会社ＦＫＮエコプラント岡谷,,合同会社,東京都,千代田区,麹町２丁目４番地１１,,13,101,1020083,,,,,,,2022-03-24,1,,,,,エフケーエヌエコプラントオカヤ,0
539,3010005034766,新規,0,2022-03-24,2022-03-24,一般社団法人新エネルギー導入促進研究機構,,その他の設立登記法人,東京都,中央区,京橋２丁目１２番２号ＮＥＷＳＸビル４Ｆ,,13,102,1040031,,,,,,,2022-03-24,1,,,,,シンエネルギードウニュウソクシンケンキュウキコウ,0
542,3010103001882,新規,0,2022-03-24,2022-03-24,シャトー合同会社,,合同会社,東京都,八王子市,東中野２００４番地１ヴェルディーク京王堀之内６０１号,,13,201,1920351,,,,,,,2022-03-24,1,,,,,シャトー,0
546,3010401166246,新規,0,2022-03-24,2022-03-24,Ｆｒｅｅｔ株式会社,,株式会社,東京都,港区,赤坂１丁目７番１号,,13,103,1070052,,,,,,,2022-03-24,1,,,,,フリート,0
547,3010401166345,新規,0,2022-03-24,2022-03-24,株式会社信英,,株式会社,東京都,港区,南青山４丁目１５－１３,,13,103,1070062,,,,,,,2022-03-24,1,,,,,シンエイ,0
548,3010401166353,新規,0,2022-03-24,2022-03-24,株式会社福寿,,株式会社,東京都,港区,東麻布１丁目１５番２－４０３号,,13,103,1060044,,,,,,,2022-03-24,1,,,,,フクジュ,0
550,3010403027330,新規,0,2022-03-24,2022-03-24,ＺＥＣ３合同会社,,合同会社,東京都,港区,虎ノ門３丁目２２番１０－２０１号,,13,103,1050001,,,,,,,2022-03-24,1,,,,,ゼックサン,0
558,3010801032824,新規,0,2022-03-24,2022-03-24,なんでもトークン株式会社,,株式会社,東京都,大田区,南蒲田１丁目９番１号本間ビル３０５,,13,111,1440035,,,,,,,2022-03-24,1,,,,,,0
561,3010901050560,新規,0,2022-03-24,2022-03-24,株式会社ｓｔｅｍ,,株式会社,東京都,世田谷区,北沢３丁目６番１２号,,13,112,1550031,,,,,,,2022-03-24,1,,,,,ステム,0
563,3010903007253,新規,0,2022-03-24,2022-03-24,合同会社ＨｏｐｅＤｒｅａｍＴｒｅｅ,,合同会社,東京都,世田谷区,羽根木２丁目１６番１３号マウハウスＡ,,13,112,1560042,,,,,,,2022-03-24,1,,,,,ホープドリームツリー,0
564,3011003014396,新規,0,2022-03-24,2022-03-24,Ｔｈｏｕｓａｎｄ　Ｋｎｉｇｈｔ合同会社,,合同会社,東京都,渋谷区,円山町５番５号Ｎａｖｉ渋谷Ｖ３階,,13,113,1500044,,,,,,,2022-03-24,1,,,,,サウザンドナイト,0
565,3011005009502,新規,0,2022-03-24,2022-03-24,一般社団法人Ｍｅｔａｖｅｒｓｅ　Ｊａｐａｎ,,その他の設立登記法人,東京都,渋谷区,猿楽町１７番５号代官山蔦屋書店ＳＨＡＲＥＬＯＵＮＧＥ,,13,113,1500033,,,,,,,2022-03-24,1,,,,,メタバースジャパン,0
574,3011203003777,新規,0,2022-03-24,2022-03-24,Ｅａｓｔｅｒ　Ａｓｓｏｃｉａｔｅｓ合同会社,,合同会社,東京都,中野区,若宮２丁目６番１２号,,13,114,1650033,,,,,,,2022-03-24,1,,,,,イースターアソシエイツ,0
576,3011401024113,新規,0,2022-03-24,2022-03-24,奄美フードサービス株式会社,,株式会社,東京都,板橋区,成増１丁目１４番１５－９０２号,,13,119,1750094,,,,,,,2022-03-24,1,,,,,アマミフードサービス,0
577,3011503005110,新規,0,2022-03-24,2022-03-24,合同会社ＳＲＤ,,合同会社,東京都,荒川区,東日暮里２丁目３４番７号２階,,13,118,1160014,,,,,,,2022-03-24,1,,,,,エスアールディー,0
584,3012303001646,新規,0,2022-03-24,2022-03-24,合同会社ＳＣ,,合同会社,東京都,町田市,南大谷１４０１番地６,,13,209,1940031,,,,,,,2022-03-24,1,,,,,エスシー,0
586,3013101008866,新規,0,2022-03-24,2022-03-24,株式会社ＯＤＴ,,株式会社,東京都,青梅市,河辺町５丁目１７番地の１２,,13,205,1980036,,,,,,,2022-03-24,1,,,,,オーディティ,0
592,3020001145772,新規,0,2022-03-24,2022-03-24,株式会社リトラスト,,株式会社,神奈川県,横浜市鶴見区,生麦４丁目１９番１８－１０７号,,14,101,2300052,,,,,,,2022-03-24,1,,,,,リトラスト,0
593,3020001145780,新規,0,2022-03-24,2022-03-24,株式会社アイトラスト,,株式会社,神奈川県,横浜市都筑区,茅ケ崎南４丁目１６番１３－５０９号,,14,118,2240037,,,,,,,2022-03-24,1,,,,,アイトラスト,0
596,3020003021484,新規,0,2022-03-24,2022-03-24,合同会社キャンプジョー,,合同会社,神奈川県,横浜市都筑区,川和町２２５７番地１６,,14,118,2240057,,,,,,,2022-03-24,1,,,,,キャンプジョー,0
597,3020003021492,新規,0,2022-03-24,2022-03-24,合同会社Ｔｈｅ　Ｃｌａｓｓｉｃ,,合同会社,神奈川県,横浜市南区,別所２丁目２９番７号,,14,105,2320064,,,,,,,2022-03-24,1,,,,,ザクラシック,0
598,3020005015427,新規,0,2022-03-24,2022-03-24,特定非営利活動法人日本建物再生支援機構,,その他の設立登記法人,神奈川県,横浜市神奈川区,入江１丁目１番１１号,,14,102,2210014,,,,,,,2022-03-24,1,,,,,ニホンタテモノサイセイシエンキコウ,0
603,3021003011509,新規,0,2022-03-24,2022-03-24,ＳＳＭＣ合同会社,,合同会社,神奈川県,足柄下郡箱根町,仙石原１２９０箱根国際マンション１３１２号,,14,382,2500631,,,,,,,2022-03-24,1,,,,,エスエスエムシー,0
610,3030001147347,新規,0,2022-03-24,2022-03-24,株式会社Ｄ．Ｄ．Ｓ,,株式会社,埼玉県,越谷市,蒲生茜町２１番地８南越谷ハイツ１０６号室,,11,222,3430843,,,,,,,2022-03-24,1,,,,,ディーディーエス,0
611,3030001147388,新規,0,2022-03-24,2022-03-24,株式会社Ａｕｇｕｓｔａ,,株式会社,埼玉県,さいたま市緑区,原山２丁目１２番１１号,,11,109,3360931,,,,,,,2022-03-24,1,,,,,オーガスタ,0
616,3040001122712,新規,0,2022-03-24,2022-03-24,株式会社エフテックホールディングス,,株式会社,千葉県,松戸市,西馬橋幸町３７番地,,12,207,2710047,,,,,,,2022-03-24,1,,,,,エフテックホールディングス,0
617,3040005021547,新規,0,2022-03-24,2022-03-24,一般社団法人みらいとパートナー,,その他の設立登記法人,千葉県,柏市,西柏台１丁目２１番２３号サンライト１０３号,,12,217,2770886,,,,,,,2022-03-24,1,,,,,ミライトパートナー,0
623,3080001024822,新規,0,2022-03-24,2022-03-24,株式会社神奈川興業,,株式会社,静岡県,静岡市清水区,杉山１３１３番地の１,,22,103,4240106,,,,,,,2022-03-24,1,,,,,カナガワコウギョウ,0
644,3120001244639,新規,0,2022-03-24,2022-03-24,株式会社Ｐｈｙｔｒａ,,株式会社,大阪府,大阪市城東区,新喜多１丁目１番１８号京橋南口辰田ビル３Ｆ,,27,118,5360015,,,,,,,2022-03-24,1,,,,,フィトラ,0
645,3120001244655,新規,0,2022-03-24,2022-03-24,株式会社ＳＮＴ,,株式会社,大阪府,大阪市北区,本庄東２丁目３番３１号ＪＣＡビル３階,,27,127,5310074,,,,,,,2022-03-24,1,,,,,エスエヌティー,0
646,3120001244663,新規,0,2022-03-24,2022-03-24,蛍火の森農産株式会社,,株式会社,大阪府,大阪市旭区,中宮５丁目１４番９号,,27,117,5350003,,,,,,,2022-03-24,1,,,,,ホタルビノモリノウサン,0
647,3120001244671,新規,0,2022-03-24,2022-03-24,株式会社ＩＳＬＡＮＤ,,株式会社,大阪府,大阪市西区,新町３丁目１１－７レジディア心斎橋ウエスト９０１,,27,106,5500013,,,,,,,2022-03-24,1,,,,,アイランド,0
650,3120101065274,新規,0,2022-03-24,2022-03-24,株式会社ｅｎ,,株式会社,大阪府,泉佐野市,日根野７１８５番地の１２,,27,213,5980021,,,,,,,2022-03-24,1,,,,,エン,0
652,3120901045756,新規,0,2022-03-24,2022-03-24,日本人材育成教育協会株式会社,,株式会社,大阪府,豊中市,桜の町４丁目２番１２号,,27,203,5600054,,,,,,,2022-03-24,1,,,,,ニホンジンザイイクセイキョウイクキョウカイ,0
663,3130001071396,新規,0,2022-03-24,2022-03-24,野原塗装株式会社,,株式会社,京都府,京都市右京区,嵯峨中又町２４番地１７,,26,108,6168347,,,,,,,2022-03-24,1,,,,,ノハラトソウ,0
664,3130001071405,新規,0,2022-03-24,2022-03-24,株式会社Ｅ・サービス,,株式会社,京都府,乙訓郡大山崎町,字大山崎小字茶屋前３８番地,,26,303,6180071,,,,,,,2022-03-24,1,,,,,イーサービス,0
675,3180001150468,新規,0,2022-03-24,2022-03-24,株式会社オルウイン,,株式会社,愛知県,一宮市,明地字西七丁原３２番地１,,23,203,4940012,,,,,,,2022-03-24,1,,,,,オルウイン,0
676,3180001150501,新規,0,2022-03-24,2022-03-24,株式会社三和建設,,株式会社,愛知県,名古屋市港区,藤高２丁目２番地,,23,111,4550854,,,,,,,2022-03-24,1,,,,,サンワケンセツ,0
679,3180003023647,新規,0,2022-03-24,2022-03-24,合同会社ＨＡＺＡＲ,,合同会社,愛知県,岩倉市,東新町仲浦１番地岩倉団地１４棟５０７号,,23,228,4820001,,,,,,,2022-03-24,1,,,,,ハザル,0
682,3180303005287,新規,0,2022-03-24,2022-03-24,合同会社コンパス,,合同会社,愛知県,碧南市,伏見町３丁目３３番地,,23,209,4470807,,,,,,,2022-03-24,1,,,,,コンパス,0
687,3210003001483,新規,0,2022-03-24,2022-03-24,ビチ・プリモ・パッソ合同会社,,合同会社,福井県,坂井市,春江町取次第４号２番地,,18,210,9190485,,,,,,,2022-03-24,1,,,,,ビチプリモパッソ,0
715,3290001096898,新規,0,2022-03-24,2022-03-24,株式会社コンソナンス,,株式会社,福岡県,糟屋郡篠栗町,大字尾仲４９４番地の１,,40,342,8112413,,,,,,,2022-03-24,1,,,,,コンソナンス,0
716,3290001096907,新規,0,2022-03-24,2022-03-24,株式会社間野,,株式会社,福岡県,筑後市,大字長浜８９７番地６,,40,211,8330005,,,,,,,2022-03-24,1,,,,,マノ,0
717,3290001096931,新規,0,2022-03-24,2022-03-24,巧昇総合建設株式会社,,株式会社,福岡県,福岡市博多区,博多駅前３丁目１４番２２－９０５号,,40,132,8120011,,,,,,,2022-03-24,1,,,,,コウショウソウゴウケンセツ,0
720,3290003012317,新規,0,2022-03-24,2022-03-24,合同会社ｃｌｕｂ,,合同会社,福岡県,福岡市早良区,早良７丁目２番８号,,40,137,8111122,,,,,,,2022-03-24,1,,,,,クラブ,0
721,3290801028373,新規,0,2022-03-24,2022-03-24,株式会社ワイズ総建,,株式会社,福岡県,北九州市小倉南区,湯川新町１丁目１０番８号（グリーンビレッジ湯川ＩＩ１０１）,00126039,40,107,8000256,,,,,,,2022-03-24,1,,,,,ワイズソウケン,0
723,3290805009535,新規,0,2022-03-24,2022-03-24,ＮＰＯ法人ＬＡＺＯ　ＡＰＥＧＯ北九州,,その他の設立登記法人,福岡県,北九州市小倉北区,馬借３丁目３番３６号北九州オフィスビル６０３号,,40,106,8020077,,,,,,,2022-03-24,1,,,,,ラソアペーゴキタキュウシュウ,0
729,3310001017777,新規,0,2022-03-24,2022-03-24,株式会社セカンドペンギン,,株式会社,長崎県,西海市,西彼町亀浦郷１２４３番地,,42,212,8513303,,,,,,,2022-03-24,1,,,,,セカンドペンギン,0
736,3330005010487,新規,0,2022-03-24,2022-03-24,行政書士法人プラスワン,,その他の設立登記法人,熊本県,熊本市中央区,紺屋今町２番１３号中田ビル２階Ａ号室,,43,101,8600012,,,,,,,2022-03-24,1,,,,,プラスワン,0
738,3350003004051,新規,0,2022-03-24,2022-03-24,合同会社山内労務コンサルティング,,合同会社,宮崎県,宮崎市,清武町加納乙８２番地９,,45,201,8891605,,,,,,,2022-03-24,1,,,,,ヤマウチロウムコンサルティング,0
741,3370001048346,新規,0,2022-03-24,2022-03-24,スマイルイーツ株式会社,,株式会社,宮城県,仙台市若林区,卸町３丁目１番地の４,,04,103,9840015,,,,,,,2022-03-24,1,,,,,スマイルイーツ,0
742,3370003005626,新規,0,2022-03-24,2022-03-24,ＡＳＥＡＮ合同会社,,合同会社,宮城県,仙台市若林区,殻町２０番地サンキューコーポ１０１,,04,103,9840000,,,,,,,2022-03-24,1,,,,,アセアン,0
749,3380001032670,新規,0,2022-03-24,2022-03-24,株式会社パルム,,株式会社,福島県,いわき市,中央台鹿島１丁目４６番地の９,,07,204,9708043,,,,,,,2022-03-24,1,,,,,パルム,0
761,3420001017774,新規,0,2022-03-24,2022-03-24,株式会社いわきとそら農園,,株式会社,青森県,弘前市,大字真土字前田１５７番地４,,02,202,0361323,,,,,,,2022-03-24,1,,,,,イワキトソラノウエン,0
763,3430001086249,新規,0,2022-03-24,2022-03-24,株式会社ｓｏｌｅｉｌ,,株式会社,北海道,札幌市手稲区,曙二条４丁目１番７０号,00126054,01,109,0060832,,,,,,,2022-03-24,1,,,,,ソレイユ,0
778,3700150107488,新規,0,2022-03-24,2022-03-24,ＤＡＥ　７９６６　Ｉｒｅｌａｎｄ　Ｌｉｍｉｔｅｄ,,外国会社等,,,,,,,,７０　Ｓｉｒ　Ｊｏｈｎ　Ｒｏｇｅｒｓｏｎ’ｓ　Ｑｕａｙ，Ｄｕｂｌｉｎ　２，Ｉｒｅｌａｎｄ,,,,,,2022-03-24,1,,,,,デイーエーイーセブンナインシツクスシツクスアイルランドリミテツド,0
787,4010001225384,新規,0,2022-03-24,2022-03-24,原知因製薬株式会社,,株式会社,東京都,中央区,東日本橋２丁目２８番５号５０８,,13,102,1030004,,,,,,,2022-03-24,1,,,,,ゲンチインセイヤク,0
788,4010001225392,新規,0,2022-03-24,2022-03-24,ＡＴＩ　Ｊａｐａｎ株式会社,,株式会社,東京都,中央区,日本橋浜町２丁目５７番１号,,13,102,1030007,,,,,,,2022-03-24,1,,,,,エーティアイジャパン,0
789,4010001225418,新規,0,2022-03-24,2022-03-24,Ｖｃｈｏｉｃｅ株式会社,,株式会社,東京都,千代田区,丸の内２丁目２番１号岸本ビルヂング６階,,13,101,1000005,,,,,,,2022-03-24,1,,,,,ブイチョイス,0
790,4010001225442,新規,0,2022-03-24,2022-03-24,株式会社キャンティ,,株式会社,東京都,千代田区,一番町２０番地１,,13,101,1020082,,,,,,,2022-03-24,1,,,,,キャンティ,0
792,4010003037299,新規,0,2022-03-24,2022-03-24,ｉプロパティ９合同会社,,合同会社,東京都,千代田区,永田町２丁目１４番２号－３階スリーアイズキャピタル株式会社内,,13,101,1000014,,,,,,,2022-03-24,1,,,,,アイプロパティナイン,0
794,4010005034740,新規,0,2022-03-24,2022-03-24,税理士法人Ｃ　Ｃｕｂｅ＆Ｐａｒｔｎｅｒｓ,,その他の設立登記法人,東京都,千代田区,神田美倉町１０番地,,13,101,1010038,,,,,,,2022-03-24,1,,,,,シーキューブアンドパートナーズ,0
795,4010005034765,新規,0,2022-03-24,2022-03-24,医療法人社団カミシマメディカル,,その他の設立登記法人,東京都,文京区,本郷１丁目１４番４号ＡＵ南陽堂ビル１階,,13,105,1130033,,,,,,,2022-03-24,1,,,,,カミシマメディカル,0
797,4010401166328,新規,0,2022-03-24,2022-03-24,株式会社ｉＨｉｓｔｏｒｙ,,株式会社,東京都,港区,麻布十番２丁目２１－１４－５０５,,13,103,1060045,,,,,,,2022-03-24,1,,,,,アイヒストリー,0
798,4010401166336,新規,0,2022-03-24,2022-03-24,株式会社ＦＥＥＲＩＣＨＥＬＵ,,株式会社,東京都,港区,南青山２丁目２番１５号,,13,103,1070062,,,,,,,2022-03-24,1,,,,,フェリーシェル,0
799,4010401166344,新規,0,2022-03-24,2022-03-24,ファーストメディック株式会社,,株式会社,東京都,港区,虎ノ門１丁目１６番６号虎ノ門ＲＡＰＯ－ＴＯビルＵＣＦ７０３,,13,103,1050001,,,,,,,2022-03-24,1,,,,,ファーストメディック,0
800,4010401166352,新規,0,2022-03-24,2022-03-24,株式会社カムイ,,株式会社,東京都,港区,東麻布１丁目１５番２－４０３号,,13,103,1060044,,,,,,,2022-03-24,1,,,,,カムイ,0
801,4010403027321,新規,0,2022-03-24,2022-03-24,合同会社ＮＯＲＴＨ,,合同会社,東京都,港区,六本木６丁目１２番３号,,13,103,1060032,,,,,,,2022-03-24,1,,,,,ノース,0
804,4010703006165,新規,0,2022-03-24,2022-03-24,合同会社ＡｉＣｏｌｏｒ,,合同会社,東京都,品川区,西品川２丁目１５－１５－１０２,,13,109,1410033,,,,,,,2022-03-24,1,,,,,アイカラー,0
813,4011001146521,新規,0,2022-03-24,2022-03-24,株式会社１０Ｘ,,株式会社,東京都,渋谷区,渋谷２丁目２４番１２号渋谷スクランブルスクエア,,13,113,1500002,,,,,,,2022-03-24,1,,,,,テンエックス,0
815,4011003014379,新規,0,2022-03-24,2022-03-24,合同会社ＴＰＬＵＳ,,合同会社,東京都,渋谷区,神宮前６丁目２３番４号桑野ビル２階,,13,113,1500001,,,,,,,2022-03-24,1,,,,,ティープラス,0
816,4011003014395,新規,0,2022-03-24,2022-03-24,ジ・ジェイオブエルエフ合同会社,,合同会社,東京都,渋谷区,本町６丁目１７番８号,,13,113,1510071,,,,,,,2022-03-24,1,,,,,ジジェイオブエルエフ,0
818,4011203003776,新規,0,2022-03-24,2022-03-24,合同会社ＳＵＳＯＮＯ,,合同会社,東京都,中野区,中央１丁目２９－３山本ビル１－Ａ,,13,114,1640011,,,,,,,2022-03-24,1,,,,,スソノ,0
819,4011301027652,新規,0,2022-03-24,2022-03-24,株式会社ヒコボシ,,株式会社,東京都,杉並区,桃井３丁目６番１－３１９号,,13,115,1670034,,,,,,,2022-03-24,1,,,,,ヒコボシ,0
820,4011303004352,新規,0,2022-03-24,2022-03-24,マニーブーコンサルティング合同会社,,合同会社,東京都,杉並区,和泉１丁目４番８号,,13,115,1680063,,,,,,,2022-03-24,1,,,,,マニーブーコンサルティング,0
821,4011501027865,新規,0,2022-03-24,2022-03-24,レゴリス株式会社,,株式会社,東京都,北区,東十条１丁目６番３号,,13,117,1140001,,,,,,,2022-03-24,1,,,,,レゴリス,0
823,4012303001645,新規,0,2022-03-24,2022-03-24,合同会社リンデン,,合同会社,東京都,町田市,薬師台２丁目７番地１,,13,209,1950073,,,,,,,2022-03-24,1,,,,,リンデン,0
827,4012401039001,新規,0,2022-03-24,2022-03-24,ＥＮａｇａｉｎ株式会社,,株式会社,東京都,多摩市,貝取１丁目５４番地の１９,,13,224,2060012,,,,,,,2022-03-24,1,,,,,エンアゲイン,0
828,4013301048843,新規,0,2022-03-24,2022-03-24,株式会社Ｎ,,株式会社,東京都,豊島区,高田３丁目４０番１０号サンメゾン目白高田４０５,,13,116,1710033,,,,,,,2022-03-24,1,,,,,エヌ,0
830,4020001145788,新規,0,2022-03-24,2022-03-24,株式会社ＴＲＡＶＥ,,株式会社,神奈川県,横浜市港北区,新吉田東８丁目２２番１１号ボナールＣ号,,14,109,2230058,,,,,,,2022-03-24,1,,,,,トレイブ,0
832,4020003021491,新規,0,2022-03-24,2022-03-24,合同会社Ｍａｎａ・Ｎｕｒｓｅ,,合同会社,神奈川県,横浜市旭区,善部町８１―２２,,14,112,2410823,,,,,,,2022-03-24,1,,,,,マナナース,0
833,4020003021500,新規,0,2022-03-24,2022-03-24,ＫＧ　ＣＯＮＳＵＬＴＩＮＧ合同会社,,合同会社,神奈川県,川崎市川崎区,境町８番１号,,14,131,2100838,,,,,,,2022-03-24,1,,,,,ケージーコンサルティング,0
834,4020005015426,新規,0,2022-03-24,2022-03-24,医療法人誠仁会,,その他の設立登記法人,神奈川県,横浜市中区,山下町２２４番地２パークポイント山下町１階,,14,104,2310023,,,,,,,2022-03-24,1,,,,,セイジンカイ,0
837,4021001075505,新規,0,2022-03-24,2022-03-24,株式会社高須工房,,株式会社,神奈川県,藤沢市,天神町２丁目１２番地の８,,14,205,2520814,,,,,,,2022-03-24,1,,,,,タカスコウボウ,0
846,4030001147354,新規,0,2022-03-24,2022-03-24,株式会社大森インベストメント３,,株式会社,埼玉県,越谷市,大字西方２７６１番地,,11,222,3430822,,,,,,,2022-03-24,1,,,,,オオモリインベストメントスリー,0
850,4030003019064,新規,0,2022-03-24,2022-03-24,合同会社かんしゃ,,合同会社,埼玉県,坂戸市,伊豆の山町１０番地（１４－１０７）,,11,239,3500275,,,,,,,2022-03-24,1,,,,,カンシャ,0
864,4040003019732,新規,0,2022-03-24,2022-03-24,Ｈ．Ｓ．ＡＵＴＯ　ＴＲＡＤＩＮＧ合同会社,,合同会社,千葉県,八街市,文違１３１番地２０４,,12,230,2891104,,,,,,,2022-03-24,1,,,,,エイチエスオートトレーディング,0
867,4060001034673,新規,0,2022-03-24,2022-03-24,株式会社ｅｌａｍａホールディングス,,株式会社,栃木県,芳賀郡芳賀町,大字西高橋６６６番地３,,09,345,3213315,,,,,,,2022-03-24,1,,,,,エラマホールディングス,0
868,4080001024821,新規,0,2022-03-24,2022-03-24,マルセ株式会社,,株式会社,静岡県,静岡市葵区,駒形通２丁目２番９号,,22,101,4200042,,,,,,,2022-03-24,1,,,,,マルセ,0
886,4120001244613,新規,0,2022-03-24,2022-03-24,株式会社あさひ工藝,,株式会社,大阪府,大阪市東淀川区,小松２丁目１３番１２号,,27,114,5330004,,,,,,,2022-03-24,1,,,,,アサヒコウゲイ,0
890,4120101065273,新規,0,2022-03-24,2022-03-24,株式会社カズキ運輸,,株式会社,大阪府,堺市中区,大野芝町３０７番地２,,27,142,5998233,,,,,,,2022-03-24,1,,,,,カズキウンユ,0
895,4122001035694,新規,0,2022-03-24,2022-03-24,株式会社ウィステリアウェル,,株式会社,大阪府,東大阪市,稲田本町３丁目１３番１５号,,27,227,5770007,,,,,,,2022-03-24,1,,,,,ウィステリアウェル,0
901,4130001071362,新規,0,2022-03-24,2022-03-24,株式会社グローリープランニング,,株式会社,京都府,京都市伏見区,淀生津町６７４番地,,26,109,6130914,,,,,,,2022-03-24,1,,,,,グローリープランニング,0
902,4130001071395,新規,0,2022-03-24,2022-03-24,株式会社ＳＵＮ　ＦＬＯＷＥＲサービス,,株式会社,京都府,京都市伏見区,村上町３９４番地グラン・コート伏見桃山大手筋ＩＩ２０９号,00126040,26,109,6128369,,,,,,,2022-03-24,1,,,,,サンフラワーサービス,0
904,4130003007827,新規,0,2022-03-24,2022-03-24,合同会社ソラソソ,,合同会社,京都府,京都市下京区,朱雀宝蔵町４４番地協栄ビル２階和文化推進協会内,,26,106,6008846,,,,,,,2022-03-24,1,,,,,ソラソソ,0
910,4140001125357,新規,0,2022-03-24,2022-03-24,株式会社ひだまり工務店,,株式会社,兵庫県,宝塚市,小浜５丁目９番１５号,,28,214,6650827,,,,,,,2022-03-24,1,,,,,ヒダマリコウムテン,0
926,4180001150525,新規,0,2022-03-24,2022-03-24,デザイナーズワン株式会社,,株式会社,愛知県,一宮市,祐久字屋敷裏４番地２,,23,203,4940017,,,,,,,2022-03-24,1,,,,,デザイナーズワン,0
928,4180003023638,新規,0,2022-03-24,2022-03-24,合同会社ＬＩＦＥ,,合同会社,愛知県,小牧市,間々本町１２１番地１ＢＢビル２０１号室,,23,219,4850048,,,,,,,2022-03-24,1,,,,,ライフ,0
940,4200001039872,新規,0,2022-03-24,2022-03-24,株式会社リトルパーク,,株式会社,岐阜県,高山市,岡本町１丁目９９番地,,21,203,5060054,,,,,,,2022-03-24,1,,,,,リトルパーク,0
941,4200001039880,新規,0,2022-03-24,2022-03-24,株式会社中部クリーン,,株式会社,岐阜県,大垣市,外渕４丁目３１番地,,21,202,5030934,,,,,,,2022-03-24,1,,,,,チュウブクリーン,0
944,4210003001482,新規,0,2022-03-24,2022-03-24,合同会社Ｔ＆Ｍ‐Ｐｒｏｄｕｃｅ,,合同会社,福井県,越前市,本保町第２４号５７番地の４,,18,209,9150806,,,,,,,2022-03-24,1,,,,,ティーアンドエムプロデュース,0
945,4220001024757,新規,0,2022-03-24,2022-03-24,株式会社バリアント,,株式会社,石川県,金沢市,南新保町ロ７３番地９,,17,201,9200064,,,,,,,2022-03-24,1,,,,,バリアント,0
947,4240001059495,新規,0,2022-03-24,2022-03-24,株式会社スマイルカンパニー,,株式会社,広島県,広島市西区,福島町２丁目６番１８号,,34,104,7330024,,,,,,,2022-03-24,1,,,,,スマイルカンパニー,0
957,4290001096880,新規,0,2022-03-24,2022-03-24,株式会社筑前國紙弥,,株式会社,福岡県,大野城市,月の浦１丁目１９番３号,,40,219,8160983,,,,,,,2022-03-24,1,,,,,チクゼンコクカミヤ,0
958,4290001096906,新規,0,2022-03-24,2022-03-24,株式会社タウンフィールド,,株式会社,福岡県,糟屋郡新宮町,緑ケ浜４丁目１６番７－４０５号,,40,345,8110119,,,,,,,2022-03-24,1,,,,,タウンフィールド,0
959,4290001096922,新規,0,2022-03-24,2022-03-24,株式会社赤心,,株式会社,福岡県,福岡市博多区,吉塚１丁目１１番１０－１号エレガンス駅東２０２号,,40,132,8120041,,,,,,,2022-03-24,1,,,,,セキシン,0
960,4290003012316,新規,0,2022-03-24,2022-03-24,合同会社善九郎,,合同会社,福岡県,嘉麻市,上山田８１２－９１,,40,227,8210012,,,,,,,2022-03-24,1,,,,,ゼンクロウ,0
961,4290005018600,新規,0,2022-03-24,2022-03-24,ＮＰＯ法人のろし,,その他の設立登記法人,福岡県,福岡市西区,愛宕浜２丁目３番１０－１９０６号マリナタウンリベーラガーデンイーストタワー,,40,135,8190013,,,,,,,2022-03-24,1,,,,,ノロシ,0
963,4290803004090,新規,0,2022-03-24,2022-03-24,合同会社ＭＰＩ,,合同会社,福岡県,田川市,大字夏吉８４０番地１,,40,206,8250004,,,,,,,2022-03-24,1,,,,,エムピーアイ,0
966,4310001017776,新規,0,2022-03-24,2022-03-24,不知火環境株式会社,,株式会社,長崎県,諫早市,小豆崎町１７１４番地５,,42,204,8590311,,,,,,,2022-03-24,1,,,,,シラヌヒカンキョウ,0
969,4320003003757,新規,0,2022-03-24,2022-03-24,合同会社ＭＳフリーフライト,,合同会社,大分県,杵築市,大字杵築１２０番地,,44,210,8730001,,,,,,,2022-03-24,1,,,,,エムエスフリーフライト,0
970,4330001029571,新規,0,2022-03-24,2022-03-24,株式会社ＫＥＮコンサル,,株式会社,熊本県,熊本市東区,桜木２丁目１５番１３号,,43,102,8612101,,,,,,,2022-03-24,1,,,,,ケンコンサル,0
974,4340001024588,新規,0,2022-03-24,2022-03-24,株式会社ＡＭＡＭＩ　ＢＬＵＥ　ＲＥＳＯＲＴ,,株式会社,鹿児島県,大島郡瀬戸内町,大字阿木名３８６番地１,,46,525,8941511,,,,,,,2022-03-24,1,,,,,アマミブルーリゾート,0
980,4370001048345,新規,0,2022-03-24,2022-03-24,ＴＴＣ株式会社,,株式会社,宮城県,仙台市太白区,鹿野３丁目２番１５－９０９号,,04,104,9820023,,,,,,,2022-03-24,1,,,,,ティーティーシー,0
993,4380005012552,新規,0,2022-03-24,2022-03-24,一般社団法人アンダルシア,,その他の設立登記法人,福島県,郡山市,台新１丁目５番７号,,07,203,9638852,,,,,,,2022-03-24,1,,,,,アンダルシア,0
1000,4430001086256,新規,0,2022-03-24,2022-03-24,株式会社にしおか,,株式会社,北海道,札幌市東区,東雁来八条４丁目１０番１５号,,01,103,0070828,,,,,,,2022-03-24,1,,,,,ニシオカ,0
1001,4430001086264,新規,0,2022-03-24,2022-03-24,株式会社二風谷ワークス,,株式会社,北海道,沙流郡平取町,字二風谷８０番地２３,,01,602,0550101,,,,,,,2022-03-24,1,,,,,ニブタニワークス,0
1003,4430003013737,新規,0,2022-03-24,2022-03-24,合同会社ＧＧＧ,,合同会社,北海道,札幌市東区,伏古七条５丁目３番２３号,,01,103,0070867,,,,,,,2022-03-24,1,,,,,スリージー,0
1007,4700150107487,新規,0,2022-03-24,2022-03-24,ＡＭＥＮＯＨＩ　ＬＬＣ,,外国会社等,北海道,札幌市中央区,南十三条西１１丁目１２４９番２０セザール山鼻２０１号,,01,101,0640913,アメリカ合衆国、ワイオミング州、シェリダン、コフィーン通り　１３０９,,,,,,2022-03-24,1,,,,,アメノヒエルエルシー,0
1020,5010001225375,新規,0,2022-03-24,2022-03-24,Ｓｎａｃｋ株式会社,,株式会社,東京都,中央区,日本橋横山町７－１９第３５イチオクビル３Ｆ３－４１号室,,13,102,1030003,,,,,,,2022-03-24,1,,,,,スナック,0
1021,5010001225441,新規,0,2022-03-24,2022-03-24,Ｍｏｂｉｌｉｔｙ　Ｗａｖｅ株式会社,,株式会社,東京都,千代田区,二番町９－３ＴＨＥＢＡＳＥ麹町,,13,101,1020084,,,,,,,2022-03-24,1,,,,,モビリティウェーブ,0
1028,5010003037298,新規,0,2022-03-24,2022-03-24,ストリーム合同会社,,合同会社,東京都,中央区,八丁堀１丁目３番７号,,13,102,1040032,,,,,,,2022-03-24,1,,,,,ストリーム,0
1029,5010003037315,新規,0,2022-03-24,2022-03-24,Ｓｉｇｎａｌｉｎｇ合同会社,,合同会社,東京都,千代田区,神田三崎町３丁目１０番４号,,13,101,1010061,,,,,,,2022-03-24,1,,,,,シグナリング,0
1030,5010003037331,新規,0,2022-03-24,2022-03-24,ＨＫＦ合同会社,,合同会社,東京都,文京区,水道１丁目５番１０号,,13,105,1120005,,,,,,,2022-03-24,1,,,,,エイチケイエフ,0
1031,5010005034772,新規,0,2022-03-24,2022-03-24,一般社団法人地域デジタル社会研究機構,,その他の設立登記法人,東京都,中央区,銀座６丁目１２番１５号いちご銀座６１２ビル５Ｆ,,13,102,1040061,,,,,,,2022-03-24,1,,,,,チイキデジタルシャカイケンキュウキコウ,0
1040,5010401166327,新規,0,2022-03-24,2022-03-24,株式会社ＫＲＩＫ,,株式会社,東京都,港区,北青山３丁目１０番１４号,,13,103,1070061,,,,,,,2022-03-24,1,,,,,クリック,0
1041,5010401166343,新規,0,2022-03-24,2022-03-24,ピーシーエス株式会社,,株式会社,東京都,港区,麻布十番３丁目１番４号－６０２,,13,103,1060045,,,,,,,2022-03-24,1,,,,,ピーシーエス,0
1042,5010401166376,新規,0,2022-03-24,2022-03-24,株式会社ユナイテッドトラストアセットマネジメント,,株式会社,東京都,港区,六本木３丁目７番１号ＴＨＥＲＯＰＰＯＮＧＩＴＯＫＹＯ２１１０号,,13,103,1060032,,,,,,,2022-03-24,1,,,,,ユナイテッドトラストアセットマネジメント,0
1043,5010403027320,新規,0,2022-03-24,2022-03-24,合同会社ワン・オー・ワン,,合同会社,東京都,港区,赤坂２丁目２１－２２赤坂グリーンハイツ３０３号室,,13,103,1070052,,,,,,,2022-03-24,1,,,,,ワンオーワン,0
1044,5010403027329,新規,0,2022-03-24,2022-03-24,ＺＥＣ２合同会社,,合同会社,東京都,港区,虎ノ門３丁目２２番１０－２０１号,,13,103,1050001,,,,,,,2022-03-24,1,,,,,ゼックニ,0
1048,5010801032822,新規,0,2022-03-24,2022-03-24,株式会社Ｃａｍｐｅｒｓ,,株式会社,東京都,大田区,矢口１丁目９番４－６０２号,,13,111,1460093,,,,,,,2022-03-24,1,,,,,キャンパース,0
1049,5010805002929,新規,0,2022-03-24,2022-03-24,医療法人社団アイリースマイル,,その他の設立登記法人,東京都,大田区,西蒲田５丁目１４番８号市川ビル１階,,13,111,1440051,,,,,,,2022-03-24,1,,,,,アイリースマイル,0
1056,5010903007251,新規,0,2022-03-24,2022-03-24,合同会社ＭＹＳＡ,,合同会社,東京都,世田谷区,羽根木２丁目２７番１９号,,13,112,1560042,,,,,,,2022-03-24,1,,,,,エムワイエスエイ,0
1061,5011001146479,新規,0,2022-03-24,2022-03-24,株式会社ＢＯＺＫＵＲＴ,,株式会社,東京都,渋谷区,本町１丁目２８番２２号ダイヤパレス初台１０１,,13,113,1510071,,,,,,,2022-03-24,1,,,,,ボズクルト,0
1062,5011001146504,新規,0,2022-03-24,2022-03-24,Ｔｈｒｅｅ　Ｓｕｎ株式会社,,株式会社,東京都,渋谷区,猿楽町１１番２４号,,13,113,1500033,,,,,,,2022-03-24,1,,,,,スリーサン,0
1063,5011003014394,新規,0,2022-03-24,2022-03-24,ステラマリス不動産マネジメント合同会社,,合同会社,東京都,渋谷区,道玄坂１丁目１０番８号渋谷道玄坂東急ビル２Ｆ－Ｃ,,13,113,1500043,,,,,,,2022-03-24,1,,,,,ステラマリスフドウサンマネジメント,0
1069,5011201023726,新規,0,2022-03-24,2022-03-24,株式会社安美,,株式会社,東京都,中野区,本町４丁目４８番１７－２０３号,,13,114,1640012,,,,,,,2022-03-24,1,,,,,アミ,0
1070,5011501027872,新規,0,2022-03-24,2022-03-24,株式会社ヒハラプランニング,,株式会社,東京都,北区,滝野川７丁目８番９号日原ビル２階,,13,117,1140023,,,,,,,2022-03-24,1,,,,,ヒハラプランニング,0
1081,5012701016995,新規,0,2022-03-24,2022-03-24,ＫＨＡＤＫＡ株式会社,,株式会社,東京都,東村山市,萩山町１丁目２１－５土方コーポ２０２号,,13,213,1890012,,,,,,,2022-03-24,1,,,,,カドカ,0
1082,5013101008872,新規,0,2022-03-24,2022-03-24,株式会社ＢａｏＢａｂ,,株式会社,東京都,青梅市,長淵２丁目８６８番地の８,,13,205,1980052,,,,,,,2022-03-24,1,,,,,バオバブ,0
1083,5013301048859,新規,0,2022-03-24,2022-03-24,令和通信株式会社,,株式会社,東京都,豊島区,南池袋３丁目１８番３５号ＯＫビル４０１,,13,116,1710022,,,,,,,2022-03-24,1,,,,,レイワツウシン,0
1087,5020001145721,新規,0,2022-03-24,2022-03-24,セバ・物産アニマルヘルス株式会社,,株式会社,神奈川県,横浜市鶴見区,末広町１丁目６番８号横浜バイオ産業センター,,14,101,2300045,,,,,,,2022-03-24,1,,,,,セバブッサンアニマルヘルス,0
1088,5020001145770,新規,0,2022-03-24,2022-03-24,株式会社ｃｏｅｒｕ,,株式会社,神奈川県,川崎市川崎区,駅前本町１１番地２川崎フロンティアビル４階,,14,131,2100007,,,,,,,2022-03-24,1,,,,,コエル,0
1111,5030001147345,新規,0,2022-03-24,2022-03-24,株式会社楢建,,株式会社,埼玉県,大里郡寄居町,大字寄居２０番地６,,11,408,3691203,,,,,,,2022-03-24,1,,,,,ナラケン,0
1113,5030003019071,新規,0,2022-03-24,2022-03-24,合同会社ユートピア吉田,,合同会社,埼玉県,北葛飾郡杉戸町,高野台南５丁目９番地１７,,11,464,3450046,,,,,,,2022-03-24,1,,,,,ユートピアヨシダ,0
1117,5040001122710,新規,0,2022-03-24,2022-03-24,株式会社ウッドアイフィールド,,株式会社,千葉県,柏市,若柴１７８－４柏の葉キャンパス１４８－１ザ・ゲートタワーウエスト３Ｆ,,12,217,2770871,,,,,,,2022-03-24,1,,,,,ウッドアイフィールド,0
1118,5040001122735,新規,0,2022-03-24,2022-03-24,株式会社魚富,,株式会社,千葉県,館山市,洲崎５８０番地,,12,205,2940316,,,,,,,2022-03-24,1,,,,,ウオトミ,0
1122,5040003019731,新規,0,2022-03-24,2022-03-24,合同会社ＺＥＲＯ,,合同会社,千葉県,柏市,豊四季３５９番地１７,,12,217,2770863,,,,,,,2022-03-24,1,,,,,ゼロ,0
1126,5050001050828,新規,0,2022-03-24,2022-03-24,ペイントホーム株式会社,,株式会社,茨城県,取手市,戸頭２６番地４,,08,217,3020034,,,,,,,2022-03-24,1,,,,,ペイントホーム,0
1134,5080401025699,新規,0,2022-03-24,2022-03-24,株式会社ＧｒｅｅｎＵｐＬｉｎｅ,,株式会社,静岡県,浜松市北区,都田町７７０９番地の６,,22,135,4312102,,,,,,,2022-03-24,1,,,,,グリーンアップライン,0
1135,5090001017492,新規,0,2022-03-24,2022-03-24,株式会社ＦＯＲＥ　ＦＲＯＮＴ,,株式会社,山梨県,甲府市,山宮町１００７番地１０,,19,201,4000075,,,,,,,2022-03-24,1,,,,,フォアフロント,0
1148,5120001244637,新規,0,2022-03-24,2022-03-24,Ｔｗｏ＆Ｙｏｕ株式会社,,株式会社,大阪府,大阪市北区,本庄西２丁目６－１６ミレニアムビル１階,,27,127,5310073,,,,,,,2022-03-24,1,,,,,トゥーアンドユー,0
1149,5120001244645,新規,0,2022-03-24,2022-03-24,株式会社服部電機,,株式会社,大阪府,大阪市住吉区,庭井２丁目２０番２８号,,27,120,5580012,,,,,,,2022-03-24,1,,,,,ハットリデンキ,0
1150,5120001244653,新規,0,2022-03-24,2022-03-24,愛有味株式会社,,株式会社,大阪府,大阪市北区,天満２丁目１－１２天満橋ＳＥビル４階,,27,127,5300043,,,,,,,2022-03-24,1,,,,,アユミ,0
1156,5120003021340,新規,0,2022-03-24,2022-03-24,Ｓｈｒｅｅ　Ｇａｎｅｓｈ合同会社,,合同会社,大阪府,大阪市住吉区,沢之町１丁目２番２号３階,,27,120,5580031,,,,,,,2022-03-24,1,,,,,シェリーガネシュ,0
1158,5120005022857,新規,0,2022-03-24,2022-03-24,一般社団法人ＲＩＲＥ,,その他の設立登記法人,大阪府,大阪市阿倍野区,旭町１丁目６番３号,,27,119,5450051,,,,,,,2022-03-24,1,,,,,リール,0
1160,5120101065280,新規,0,2022-03-24,2022-03-24,株式会社Ｌｕａｎａ,,株式会社,大阪府,堺市中区,土塔町２２４４番地３,,27,142,5998234,,,,,,,2022-03-24,1,,,,,ルアナ,0
1163,5120103004617,新規,0,2022-03-24,2022-03-24,合同会社ｄｉｌｙ,,合同会社,大阪府,和泉市,和気町４丁目３番１号,,27,219,5940073,,,,,,,2022-03-24,1,,,,,ディリー,0
1167,5122001035702,新規,0,2022-03-24,2022-03-24,株式会社テイショウケア,,株式会社,大阪府,東大阪市,稲田新町１丁目２０番７号ケイアンドティ徳庵１階Ａ,,27,227,5770004,,,,,,,2022-03-24,1,,,,,テイショウケア,0
1171,5130001071386,新規,0,2022-03-24,2022-03-24,株式会社ＡＳ　ＯＮＥ,,株式会社,京都府,城陽市,平川広田２９番地９,,26,207,6100101,,,,,,,2022-03-24,1,,,,,アズワン,0
1172,5130001071403,新規,0,2022-03-24,2022-03-24,株式会社四方食店,,株式会社,京都府,京都市中京区,蛸薬師通室町西入姥柳町１９０番地２,,26,104,6048213,,,,,,,2022-03-24,1,,,,,シカタショクテン,0
1179,5140001125356,新規,0,2022-03-24,2022-03-24,株式会社ＴｗｉｎｓＥ,,株式会社,兵庫県,芦屋市,緑町１番１４－６０１号,,28,206,6590042,,,,,,,2022-03-24,1,,,,,ツインズイー,0
1180,5140003017485,新規,0,2022-03-24,2022-03-24,合同会社トクラクリーニング,,合同会社,兵庫県,加古川市,平荘町神木２９－１,,28,210,6751222,,,,,,,2022-03-24,1,,,,,トクラクリーニング,0
1181,5140005026088,新規,0,2022-03-24,2022-03-24,一般社団法人Ｇｏｏｄ　Ｆｉｅｌｄ　Ｋ,,その他の設立登記法人,兵庫県,西宮市,苦楽園二番町７番９号,,28,204,6620082,,,,,,,2022-03-24,1,,,,,グッドフィールドケイ,0
1185,5160003002519,新規,0,2022-03-24,2022-03-24,合同会社ＮＥＯ,,合同会社,滋賀県,大津市,苗鹿３丁目６番３号,,25,201,5200102,,,,,,,2022-03-24,1,,,,,ネオ,0
1194,5180001150499,新規,0,2022-03-24,2022-03-24,株式会社大和,,株式会社,愛知県,名古屋市名東区,勢子坊４丁目８１８番地,,23,115,4650055,,,,,,,2022-03-24,1,,,,,ダイワ,0
1195,5180001150508,新規,0,2022-03-24,2022-03-24,株式会社日東バイオラボ,,株式会社,愛知県,名古屋市北区,下飯田町３丁目５５番地２,,23,103,4620865,,,,,,,2022-03-24,1,,,,,ニットウバイオラボ,0
1199,5180003023645,新規,0,2022-03-24,2022-03-24,合同会社ジュン・コーポレーション,,合同会社,愛知県,名古屋市天白区,野並３丁目４０５番地ＡＭＢＥＲＨＯＵＳＥ５Ｃ,,23,116,4680045,,,,,,,2022-03-24,1,,,,,ジュンコーポレーション,0
1215,5240001059494,新規,0,2022-03-24,2022-03-24,株式会社オキデザイン,,株式会社,広島県,広島市中区,大手町２丁目２番９－２Ｆ５号,,34,101,7300051,,,,,,,2022-03-24,1,,,,,オキデザイン,0
1233,5290001096913,新規,0,2022-03-24,2022-03-24,株式会社ｉｍａｇｅＭ,,株式会社,福岡県,福岡市中央区,天神３丁目６番２３号,,40,133,8100001,,,,,,,2022-03-24,1,,,,,イメージエム,0
1239,5290003012315,新規,0,2022-03-24,2022-03-24,花王合同会社,,合同会社,福岡県,福岡市東区,原田１丁目４２－５－４３２号,,40,131,8120063,,,,,,,2022-03-24,1,,,,,カオウ,0
1240,5290005018599,新規,0,2022-03-24,2022-03-24,一般社団法人九州自然歩道フォーラム,,その他の設立登記法人,福岡県,福岡市中央区,警固２丁目１１番６号宇田ビル２０６号室,,40,133,8100023,,,,,,,2022-03-24,1,,,,,キュウシュウシゼンホドウフォーラム,0
1248,5370001048344,新規,0,2022-03-24,2022-03-24,株式会社ケアガーデン仙台,,株式会社,宮城県,仙台市太白区,四郎丸字落合２０番地８,,04,104,9811101,,,,,,,2022-03-24,1,,,,,ケアガーデンセンダイ,0
1260,5380005012551,新規,0,2022-03-24,2022-03-24,一般社団法人アルバライズ,,その他の設立登記法人,福島県,郡山市,三穂田町野田字中沢目８番地,,07,203,9630122,,,,,,,2022-03-24,1,,,,,アルバライズ,0
1262,5400005008225,新規,0,2022-03-24,2022-03-24,一般社団法人ｗａｌａｖｉｅ,,その他の設立登記法人,岩手県,釜石市,鵜住居町第２２地割３８番地２前川民宿内,,03,211,0260301,,,,,,,2022-03-24,1,,,,,ワラヴィ,0
1269,5430001086263,新規,0,2022-03-24,2022-03-24,株式会社匠保安警備,,株式会社,北海道,札幌市北区,屯田七条５丁目７番７号,,01,102,0020857,,,,,,,2022-03-24,1,,,,,タクミホアンケイビ,0
1270,5430001086271,新規,0,2022-03-24,2022-03-24,株式会社プリオ,,株式会社,北海道,北広島市,松葉町６丁目１番地Ｂ－４０１,,01,234,0611136,,,,,,,2022-03-24,1,,,,,プリオ,0
1273,5430003013736,新規,0,2022-03-24,2022-03-24,合同会社ＴＫＥ,,合同会社,北海道,札幌市東区,北五十条東４丁目１番１２号,,01,103,0070850,,,,,,,2022-03-24,1,,,,,ティーケーイー,0
1291,6010001225358,新規,0,2022-03-24,2022-03-24,株式会社ナスキャリア,,株式会社,東京都,中央区,京橋３丁目１番１号,,13,102,1040031,,,,,,,2022-03-24,1,,,,,ナスキャリア,0
1292,6010001225382,新規,0,2022-03-24,2022-03-24,株式会社ＢＥＡＮＳＴＡＬＫ,,株式会社,東京都,千代田区,神田神保町１丁目６２番地２－９０７号,,13,101,1010051,,,,,,,2022-03-24,1,,,,,ビーンストーク,0
1293,6010001225440,新規,0,2022-03-24,2022-03-24,株式会社ゼロワンブースターキャピタル,,株式会社,東京都,千代田区,有楽町１丁目１２番１号,,13,101,1000006,,,,,,,2022-03-24,1,,,,,ゼロワンブースターキャピタル,0
1300,6010003037248,新規,0,2022-03-24,2022-03-24,合同会社ソロンコンサルティング,,合同会社,東京都,千代田区,丸の内２丁目２番１号６階,,13,101,1000005,,,,,,,2022-03-24,1,,,,,ソロンコンサルティング,0
1301,6010003037306,新規,0,2022-03-24,2022-03-24,合同会社Ｐｅｒｏｎ,,合同会社,東京都,中央区,銀座８丁目１６番４号,,13,102,1040061,,,,,,,2022-03-24,1,,,,,ペロン,0
1314,6010401166334,新規,0,2022-03-24,2022-03-24,株式会社ｎｅｎｅｔａｉ,,株式会社,東京都,港区,東新橋１丁目１０番２－１５０１号,,13,103,1050021,,,,,,,2022-03-24,1,,,,,ネネタイ,0
1315,6010401166342,新規,0,2022-03-24,2022-03-24,株式会社Ｋｉｌｌｉｎｚｙ,,株式会社,東京都,港区,赤坂１丁目１２－３２アーク森ビル３階,,13,103,1070052,,,,,,,2022-03-24,1,,,,,キリンジー,0
1327,6010901050533,新規,0,2022-03-24,2022-03-24,株式会社イナガキホールディングス,,株式会社,東京都,世田谷区,玉川２丁目１０番７号,,13,112,1580094,,,,,,,2022-03-24,1,,,,,イナガキホールディングス,0
1330,6010905004287,新規,0,2022-03-24,2022-03-24,一般社団法人ＬＩＢＥＲＴＹ　ＯＦ　ＴＨＥ　ＤＡＮＣＥＲＳ,,その他の設立登記法人,東京都,世田谷区,世田谷１丁目３７番４－６０３号,,13,112,1540017,,,,,,,2022-03-24,1,,,,,リバティオブザダンサーズ,0
1346,6011201023725,新規,0,2022-03-24,2022-03-24,ｎｅｉｇｅ株式会社,,株式会社,東京都,中野区,中央３丁目４０番２号,,13,114,1640011,,,,,,,2022-03-24,1,,,,,ネージュ,0
1347,6011301027626,新規,0,2022-03-24,2022-03-24,株式会社ミラーリング,,株式会社,東京都,杉並区,井草２丁目２番５号メインステージ井荻駅前３０３,,13,115,1670021,,,,,,,2022-03-24,1,,,,,ミラーリング,0
1349,6011401024119,新規,0,2022-03-24,2022-03-24,株式会社向日興業,,株式会社,東京都,板橋区,高島平２丁目２８番３－８１２号,,13,119,1750082,,,,,,,2022-03-24,1,,,,,ムコウサンギョウ,0
1350,6011601025817,新規,0,2022-03-24,2022-03-24,Ａｄｂｃ株式会社,,株式会社,東京都,練馬区,練馬１丁目２０番８号日建練馬ビル２Ｆ,,13,120,1760001,,,,,,,2022-03-24,1,,,,,エーディービーシー,0
1352,6011701025147,新規,0,2022-03-24,2022-03-24,株式会社エコモ,,株式会社,東京都,江戸川区,本一色１丁目３２番１５号,,13,123,1330044,,,,,,,2022-03-24,1,,,,,エコモ,0
1358,6011801040483,新規,0,2022-03-24,2022-03-24,株式会社弘建工業,,株式会社,東京都,足立区,花畑４丁目７番５号,,13,121,1210061,,,,,,,2022-03-24,1,,,,,コウケンコウギョウ,0
1360,6011803005022,新規,0,2022-03-24,2022-03-24,合同会社ｍｏｔｔｏ,,合同会社,東京都,葛飾区,東新小岩１丁目１８－１０デュオシティイースト１５０４,,13,122,1240023,,,,,,,2022-03-24,1,,,,,モットー,0
1361,6012301012923,新規,0,2022-03-24,2022-03-24,株式会社エイトリフォーム,,株式会社,東京都,町田市,小山町５０２１番地１４,,13,209,1940212,,,,,,,2022-03-24,1,,,,,エイトリフォーム,0
1363,6012403005263,新規,0,2022-03-24,2022-03-24,ＢＴＰ合同会社,,合同会社,東京都,狛江市,中和泉５丁目４１番１５号,,13,219,2010012,,,,,,,2022-03-24,1,,,,,ビーティーピー,0
1366,6012701016994,新規,0,2022-03-24,2022-03-24,株式会社ティーズコンサルティング,,株式会社,東京都,東村山市,恩多町３丁目６番地８３,,13,213,1890011,,,,,,,2022-03-24,1,,,,,ティーズコンサルティング,0
1373,6013101008871,新規,0,2022-03-24,2022-03-24,株式会社ＢＯＮＡＮＺＡ　Ｓｅｒｖｉｃｅ　Ｃｅｎｔｅｒ,,株式会社,東京都,福生市,武蔵野台１丁目６番地４,,13,218,1970013,,,,,,,2022-03-24,1,,,,,ボナンザサービスセンター,0
1384,6020001145720,新規,0,2022-03-24,2022-03-24,株式会社エスエムディシー,,株式会社,神奈川県,横浜市都筑区,折本町２７９番地２ＴＨＥ・ＴＥＲＲＡＣＥ折本,,14,118,2240043,,,,,,,2022-03-24,1,,,,,エスエムディシー,0
1385,6020001145745,新規,0,2022-03-24,2022-03-24,株式会社ＣｏＣｏ　Ｍｉｎｄ,,株式会社,神奈川県,横浜市港南区,日野中央２丁目１６番２０号,,14,111,2340053,,,,,,,2022-03-24,1,,,,,ココマインド,0
1386,6020001145753,新規,0,2022-03-24,2022-03-24,株式会社ジョイフルライフ,,株式会社,神奈川県,川崎市麻生区,上麻生７丁目４３番１８－４０３号,,14,137,2150021,,,,,,,2022-03-24,1,,,,,ジョイフルライフ,0
1387,6020001145786,新規,0,2022-03-24,2022-03-24,株式会社アンテノール,,株式会社,神奈川県,横浜市旭区,白根２丁目２４番１２号,,14,112,2410005,,,,,,,2022-03-24,1,,,,,アンテノール,0
1389,6020003021498,新規,0,2022-03-24,2022-03-24,みなとみらい経営デザイン合同会社,,合同会社,神奈川県,横浜市西区,みなとみらい４丁目４番２号,,14,103,2200012,,,,,,,2022-03-24,1,,,,,ミナトミライケイエイデザイン,0
1392,6021001075494,新規,0,2022-03-24,2022-03-24,株式会社シントク,,株式会社,神奈川県,厚木市,妻田北１丁目２番１８号,,14,212,2430812,,,,,,,2022-03-24,1,,,,,シントク,0
1402,6030001147369,新規,0,2022-03-24,2022-03-24,株式会社ＫＴＧコンサルティング,,株式会社,埼玉県,さいたま市浦和区,東仲町１１番１号ステラ浦和５階,,11,107,3300056,,,,,,,2022-03-24,1,,,,,ケイティージーコンサルティング,0
1403,6030001147402,新規,0,2022-03-24,2022-03-24,株式会社ベジグリーンネット,,株式会社,埼玉県,川越市,熊野町３番地１,,11,201,3501146,,,,,,,2022-03-24,1,,,,,ベジグリーンネット,0
1406,6030003019070,新規,0,2022-03-24,2022-03-24,合同会社ＫＡＪＩＹＡ,,合同会社,埼玉県,所沢市,大字南永井９５４番地の２,,11,208,3590011,,,,,,,2022-03-24,1,,,,,カジヤ,0
1420,6050001050819,新規,0,2022-03-24,2022-03-24,柿岡ブロイラー株式会社,,株式会社,茨城県,石岡市,柿岡２０８６番地の２,,08,205,3150116,,,,,,,2022-03-24,1,,,,,カキオカブロイラー,0
1427,6080103002558,新規,0,2022-03-24,2022-03-24,ＪＮＥＷ合同会社,,合同会社,静岡県,田方郡函南町,平井字南谷下１７４０番地の１９２７,,22,325,4190107,,,,,,,2022-03-24,1,,,,,ジェイニュウ,0
1430,6080403004493,新規,0,2022-03-24,2022-03-24,合同会社カドカネ,,合同会社,静岡県,浜松市中区,富塚町４３４２番地の１グランメール佐鳴湖５０３号室,,22,131,4328002,,,,,,,2022-03-24,1,,,,,カドカネ,0
1435,6100001035186,新規,0,2022-03-24,2022-03-24,アーチボーリング株式会社,,株式会社,長野県,千曲市,大字羽尾２１７１番地２,,20,218,3890812,,,,,,,2022-03-24,1,,,,,アーチボーリング,0
1439,6110001036522,新規,0,2022-03-24,2022-03-24,株式会社オブデザイン一級建築士事務所,,株式会社,新潟県,新潟市中央区,南笹口１丁目１番地３８号コープオリンピア笹口７０３号,,15,103,9500912,,,,,,,2022-03-24,1,,,,,オブデザインイッキュウケンチクシジムショ,0
1448,6120001244553,新規,0,2022-03-24,2022-03-24,ＡＳＳＥＴＢＡＮＫ　ＷＩＮＥ　ＭＡＮＡＧＥＭＥＮＴ株式会社,,株式会社,大阪府,大阪市中央区,博労町２丁目６番７号大バスビル心斎橋３０１Ａ,,27,128,5410059,,,,,,,2022-03-24,1,,,,,アセットバンクワインマネジメント,0
1449,6120001244603,新規,0,2022-03-24,2022-03-24,結和工業株式会社,,株式会社,大阪府,大阪市城東区,成育２丁目１３番１７－９０４号,,27,118,5360007,,,,,,,2022-03-24,1,,,,,ユウワコウギョウ,0
1450,6120001244611,新規,0,2022-03-24,2022-03-24,株式会社Ｆｉｒｓｔ　Ｃａｎｄｌｅ,,株式会社,大阪府,大阪市天王寺区,堀越町１６番９号Ｂ２,,27,109,5430056,,,,,,,2022-03-24,1,,,,,ファーストキャンドル,0
1451,6120001244628,新規,0,2022-03-24,2022-03-24,株式会社アイサムプレイス,,株式会社,大阪府,大阪市西区,江戸堀１丁目１８番１２号,,27,106,5500002,,,,,,,2022-03-24,1,,,,,アイサムプレイス,0
1452,6120001244636,新規,0,2022-03-24,2022-03-24,嘉宝株式会社,,株式会社,大阪府,大阪市中央区,高津２丁目４－２１,,27,128,5420072,,,,,,,2022-03-24,1,,,,,カボ,0
1454,6120005022856,新規,0,2022-03-24,2022-03-24,一般社団法人オルソスリープアカデミー,,その他の設立登記法人,大阪府,大阪市中央区,安土町３丁目３番５号３階,,27,128,5410052,,,,,,,2022-03-24,1,,,,,オルソスリープアカデミー,0
1461,6120901045753,新規,0,2022-03-24,2022-03-24,株式会社ＩＭＥ,,株式会社,大阪府,高槻市,南芥川町２番１４号,,27,207,5691124,,,,,,,2022-03-24,1,,,,,アイエムイー,0
1463,6122001035692,新規,0,2022-03-24,2022-03-24,株式会社翔電機,,株式会社,大阪府,東大阪市,源氏ケ丘２３番２２号,,27,227,5770822,,,,,,,2022-03-24,1,,,,,カケルデンキ,0
1464,6122001035701,新規,0,2022-03-24,2022-03-24,株式会社渡辺ＣＫＧ,,株式会社,大阪府,八尾市,南植松町５丁目８４番地,,27,212,5810091,,,,,,,2022-03-24,1,,,,,ワタナベシーケイジー,0
1466,6130001071393,新規,0,2022-03-24,2022-03-24,Ｊａｐａｎ　Ｆｌｏｒａｌ　Ｐｌａｎｎｉｎｇ株式会社,,株式会社,京都府,京都市中京区,西ノ京御輿岡町１５番地,,26,104,6048451,,,,,,,2022-03-24,1,,,,,ジャパンフローラルプランニング,0
1467,6130001071402,新規,0,2022-03-24,2022-03-24,株式会社今和,,株式会社,京都府,京都市伏見区,深草西浦町４丁目８１番地メゾン深草２０４,,26,109,6120029,,,,,,,2022-03-24,1,,,,,イマワ,0
1477,6140003017484,新規,0,2022-03-24,2022-03-24,合同会社ケリーズウェイ,,合同会社,兵庫県,加古川市,加古川町大野１４１９番地の２９,,28,210,6750061,,,,,,,2022-03-24,1,,,,,ケリーズウェイ,0
1478,6150003002642,新規,0,2022-03-24,2022-03-24,合同会社ＵＮＩＴＥ,,合同会社,奈良県,香芝市,穴虫１１６４番地,,29,210,6390252,,,,,,,2022-03-24,1,,,,,ユナイト,0
1479,6150003002650,新規,0,2022-03-24,2022-03-24,合同会社愛と調和,,合同会社,奈良県,北葛城郡王寺町,元町２丁目１５番１７号,,29,425,6360013,,,,,,,2022-03-24,1,,,,,アイトチョウワ,0
1480,6160005011062,新規,0,2022-03-24,2022-03-24,医療法人めぐみ会,,その他の設立登記法人,滋賀県,大津市,大江２丁目３４－１６,,25,201,5202141,,,,,,,2022-03-24,1,,,,,メグミカイ,0
1489,6180003023636,新規,0,2022-03-24,2022-03-24,合同会社オースデザイン,,合同会社,愛知県,名古屋市中区,大須１丁目２５番４５号,,23,106,4600011,,,,,,,2022-03-24,1,,,,,オースデザイン,0
1495,6200001039870,新規,0,2022-03-24,2022-03-24,ｃｏｃｏｎ株式会社,,株式会社,岐阜県,羽島市,正木町新井２２７番地１,,21,209,5016225,,,,,,,2022-03-24,1,,,,,ココン,0
1515,6290001096879,新規,0,2022-03-24,2022-03-24,株式会社牛尾技研,,株式会社,福岡県,糸島市,長野９８番地１,,40,230,8191153,,,,,,,2022-03-24,1,,,,,ウシオギケン,0
1516,6290001096904,新規,0,2022-03-24,2022-03-24,株式会社水色不動産,,株式会社,福岡県,福岡市中央区,春吉３丁目２４－１０アーバンテム４０２,,40,133,8100003,,,,,,,2022-03-24,1,,,,,ミズイロフドウサン,0
1521,6290003012306,新規,0,2022-03-24,2022-03-24,合同会社かげゆし,,合同会社,福岡県,嘉麻市,山野３０９番地１,,40,227,8200202,,,,,,,2022-03-24,1,,,,,カゲユシ,0
1522,6290003012314,新規,0,2022-03-24,2022-03-24,バオチー合同会社,,合同会社,福岡県,福岡市東区,原田１丁目７番５号,,40,131,8120063,,,,,,,2022-03-24,1,,,,,バオチー,0
1524,6290801028338,新規,0,2022-03-24,2022-03-24,東亜実業株式会社,,株式会社,福岡県,北九州市小倉北区,須賀町５番５号,,40,106,8020034,,,,,,,2022-03-24,1,,,,,,0
1525,6290801028362,新規,0,2022-03-24,2022-03-24,株式会社総合建設石山組,,株式会社,福岡県,北九州市小倉北区,大手町８番３－１６０２号,,40,106,8030814,,,,,,,2022-03-24,1,,,,,ソウゴウケンセツイシヤマグミ,0
1531,6320003003755,新規,0,2022-03-24,2022-03-24,合同会社楽まる,,合同会社,大分県,佐伯市,弥生大字平井７８１番地,,44,205,8760123,,,,,,,2022-03-24,1,,,,,ラクマル,0
1540,6370001048343,新規,0,2022-03-24,2022-03-24,アイエス株式会社,,株式会社,宮城県,仙台市太白区,青山２丁目３４番７－２０２号,,04,104,9820834,,,,,,,2022-03-24,1,,,,,アイエス,0
1556,6430001086246,新規,0,2022-03-24,2022-03-24,ニセコ猪狩農園株式会社,,株式会社,北海道,虻田郡ニセコ町,字宮田５９番地,,01,395,0481552,,,,,,,2022-03-24,1,,,,,ニセコイガリノウエン,0
1557,6430001086262,新規,0,2022-03-24,2022-03-24,株式会社大槻電気商会,,株式会社,北海道,札幌市手稲区,稲穂一条６丁目２番３号,,01,109,0060031,,,,,,,2022-03-24,1,,,,,オオツキデンキショウカイ,0
1558,6430001086270,新規,0,2022-03-24,2022-03-24,株式会社リプル,,株式会社,北海道,札幌市豊平区,平岸五条８丁目１番１－３０１号,,01,105,0620935,,,,,,,2022-03-24,1,,,,,リプル,0
1564,6430003013727,新規,0,2022-03-24,2022-03-24,パウダースノーコンサルティング合同会社,,合同会社,北海道,札幌市手稲区,富丘四条５丁目５番１１号,,01,109,0060014,,,,,,,2022-03-24,1,,,,,パウダースノーコンサルティング,0
1566,6450005004334,新規,0,2022-03-24,2022-03-24,医療法人奥山整形外科,,その他の設立登記法人,北海道,旭川市,緑が丘東三条１丁目１２番３３号,,01,204,0788803,,,,,,,2022-03-24,1,,,,,オクヤマセイケイゲカ,0
1576,6500003002796,新規,0,2022-03-24,2022-03-24,合同会社夢桐,,合同会社,愛媛県,松山市,小坂２丁目５番２８号フォルテ小坂６０２号,,38,201,7900963,,,,,,,2022-03-24,1,,,,,ユキ,0
1582,7010001225357,新規,0,2022-03-24,2022-03-24,株式会社オーガナイゼーションセオリー,,株式会社,東京都,中央区,京橋３丁目１番１号,,13,102,1040031,,,,,,,2022-03-24,1,,,,,オーガナイゼーションセオリー,0
1583,7010001225423,新規,0,2022-03-24,2022-03-24,ＨＡＭ株式会社,,株式会社,東京都,中央区,銀座１丁目２２番１１号銀座大竹ビジデンス２階,,13,102,1040061,,,,,,,2022-03-24,1,,,,,ハム,0
1587,7010003037321,新規,0,2022-03-24,2022-03-24,合同会社カーチスファンドサード２号,,合同会社,東京都,千代田区,紀尾井町４番１号新紀尾井町ビル２Ｆ,,13,101,1020094,,,,,,,2022-03-24,1,,,,,カーチスファンドサードニゴウ,0
1588,7010005034770,新規,0,2022-03-24,2022-03-24,一般社団法人オリーブ,,その他の設立登記法人,東京都,千代田区,霞が関３丁目２番５号,,13,101,1000013,,,,,,,2022-03-24,1,,,,,オリーブ,0
1598,7010401166333,新規,0,2022-03-24,2022-03-24,株式会社ＤＥＮＱ,,株式会社,東京都,港区,赤坂９丁目１番２８号デコズキャッスル５０１,,13,103,1070052,,,,,,,2022-03-24,1,,,,,デンキュー,0
1599,7010401166341,新規,0,2022-03-24,2022-03-24,株式会社パンテウムパートナーズ,,株式会社,東京都,港区,赤坂９丁目７番２号,,13,103,1070052,,,,,,,2022-03-24,1,,,,,パンテウムパートナーズ,0
1601,7010403027319,新規,0,2022-03-24,2022-03-24,Ａｖａｌｏｎ　Ａｄｖｉｓｏｒｓ合同会社,,合同会社,東京都,港区,白金台５丁目６番１２－３０１号,,13,103,1080071,,,,,,,2022-03-24,1,,,,,アバロンアドバイザーズ,0
1603,7010405020833,新規,0,2022-03-24,2022-03-24,一般財団法人藤澤記念財団,,その他の設立登記法人,東京都,港区,南麻布４丁目５番４８号,,13,103,1060047,,,,,,,2022-03-24,1,,,,,フジサワキネンザイダン,0
1604,7010503006544,新規,0,2022-03-24,2022-03-24,合同会社洛陽人事教育研究所,,合同会社,東京都,台東区,元浅草３丁目６番１号石澤ビル６階,,13,106,1110041,,,,,,,2022-03-24,1,,,,,ラクヨウジンジキョウイクケンキュウジョ,0
1615,7010701042408,新規,0,2022-03-24,2022-03-24,株式会社ＪＢ　ＷＯＲＫＳ,,株式会社,東京都,品川区,東品川４丁目１２番６号,,13,109,1400002,,,,,,,2022-03-24,1,,,,,ジェイビーワークス,0
1617,7010703006170,新規,0,2022-03-24,2022-03-24,会津若松風力発電合同会社,,合同会社,東京都,品川区,大崎１丁目６番３号株式会社イメージワン内,,13,109,1410032,,,,,,,2022-03-24,1,,,,,アイズワカマツフウリョクハツデン,0
1620,7010805002927,新規,0,2022-03-24,2022-03-24,医療法人社団志祐会,,その他の設立登記法人,東京都,大田区,西蒲田７丁目６９番１号東急プラザ蒲田７階,,13,111,1440051,,,,,,,2022-03-24,1,,,,,シユウカイ,0
1621,7010901050549,新規,0,2022-03-24,2022-03-24,株式会社イノバエルダ,,株式会社,東京都,世田谷区,祖師谷６丁目５番２５号,,13,112,1570072,,,,,,,2022-03-24,1,,,,,イノバエルダ,0
1629,7011001146444,新規,0,2022-03-24,2022-03-24,ピース株式会社,,株式会社,東京都,渋谷区,恵比寿西２丁目９番８号,,13,113,1500021,,,,,,,2022-03-24,1,,,,,ピース,0
1630,7011001146452,新規,0,2022-03-24,2022-03-24,株式会社Ｓｐｒｅａｄ　Ｘ,,株式会社,東京都,渋谷区,神宮前２丁目３３番１２号ビラ・ビアンカ７０３号,,13,113,1500001,,,,,,,2022-03-24,1,,,,,スプレッドエックス,0
1631,7011001146469,新規,0,2022-03-24,2022-03-24,株式会社ヘイ,,株式会社,東京都,渋谷区,神南１丁目１１番３号ＰＯＲＴＡＬＰＯＩＮＴ渋谷ＦＤ－１３,,13,113,1500041,,,,,,,2022-03-24,1,,,,,ヘイ,0
1635,7011003014368,新規,0,2022-03-24,2022-03-24,合同会社ｉｎｆｉｎｉｔｙ,,合同会社,東京都,渋谷区,東３丁目４－１７イーストコート広尾２０２,,13,113,1500011,,,,,,,2022-03-24,1,,,,,インフィニティ,0
1636,7011005009507,新規,0,2022-03-24,2022-03-24,一般財団法人勁草日本イニシアティブ,,その他の設立登記法人,東京都,目黒区,青葉台１丁目４番２５号,,13,110,1530042,,,,,,,2022-03-24,1,,,,,ケイソウニッポンイニシアティブ,0
1638,7011105010174,新規,0,2022-03-24,2022-03-24,医療法人社団慈創会,,その他の設立登記法人,東京都,新宿区,河田町３番８号ＴＨＥＤＥＮＳ曙橋２０４号室,,13,104,1620054,,,,,,,2022-03-24,1,,,,,ジソウカイ,0
1639,7011105010190,新規,0,2022-03-24,2022-03-24,社会保険労務士法人ＨＳプラス,,その他の設立登記法人,東京都,新宿区,市谷左内町３１番地,,13,104,1620846,,,,,,,2022-03-24,1,,,,,エイチエスプラス,0
1640,7011201023724,新規,0,2022-03-24,2022-03-24,ＴＨＲＥＥ．Ｋ株式会社,,株式会社,東京都,中野区,沼袋１丁目３７番２号,,13,114,1650025,,,,,,,2022-03-24,1,,,,,スリーケー,0
1642,7011301027658,新規,0,2022-03-24,2022-03-24,ベルナチュレル株式会社,,株式会社,東京都,杉並区,下井草４丁目２７番４号,,13,115,1670022,,,,,,,2022-03-24,1,,,,,ベルナチュレル,0
1646,7011501027862,新規,0,2022-03-24,2022-03-24,株式会社Ｈｉｎｏｋｉ　Ａｍｃ,,株式会社,東京都,北区,西ケ原３丁目６１番１６号,,13,117,1140024,,,,,,,2022-03-24,1,,,,,ヒノキエイエムシー,0
1651,7011701025146,新規,0,2022-03-24,2022-03-24,株式会社エース,,株式会社,東京都,江戸川区,西小岩５丁目１４番１４－２０２号,,13,123,1330057,,,,,,,2022-03-24,1,,,,,エース,0
1652,7011701025154,新規,0,2022-03-24,2022-03-24,株式会社ＡＬＯＭＡＨＡＬＯ,,株式会社,東京都,江戸川区,北葛西１丁目３番４４号パールシャトレ１０１,,13,123,1340081,,,,,,,2022-03-24,1,,,,,アロマハロ,0
1657,7013101008870,新規,0,2022-03-24,2022-03-24,株式会社ＭＯＲＯＢＩＳ,,株式会社,東京都,あきる野市,秋川１丁目１２番地２,,13,228,1970804,,,,,,,2022-03-24,1,,,,,モロビス,0
1668,7020001145752,新規,0,2022-03-24,2022-03-24,けやきメディカル株式会社,,株式会社,神奈川県,横浜市港北区,菊名７丁目１２番４号Ｐａｄｒｅ２０１号室,,14,109,2220011,,,,,,,2022-03-24,1,,,,,ケヤキメディカル,0
1669,7020001145769,新規,0,2022-03-24,2022-03-24,株式会社ネットライフ,,株式会社,神奈川県,横浜市鶴見区,本町通２丁目８５番地２ニックハイム鶴見第六１０３号室,,14,101,2300048,,,,,,,2022-03-24,1,,,,,ネットライフ,0
1670,7020001145793,新規,0,2022-03-24,2022-03-24,株式会社泣き笑い,,株式会社,神奈川県,横浜市神奈川区,鶴屋町３丁目２９鶴屋町ハイツ９０３,,14,102,2210835,,,,,,,2022-03-24,1,,,,,ナキワライ,0
1672,7020003021497,新規,0,2022-03-24,2022-03-24,アーキジェクト合同会社,,合同会社,神奈川県,川崎市中原区,小杉町３丁目６００番地,,14,133,2110063,,,,,,,2022-03-24,1,,,,,アーキジェクト,0
1676,7021001075493,新規,0,2022-03-24,2022-03-24,株式会社セロン,,株式会社,神奈川県,海老名市,上今泉４丁目１６番３６号ビューハイツ１０２号室,,14,215,2430431,,,,,,,2022-03-24,1,,,,,セロン,0
1688,7030001147343,新規,0,2022-03-24,2022-03-24,株式会社匠建装,,株式会社,埼玉県,さいたま市大宮区,桜木町４丁目７６７番地２セレサ桜木町４０５号,,11,103,3300854,,,,,,,2022-03-24,1,,,,,タクミケンソウ,0
1689,7030001147351,新規,0,2022-03-24,2022-03-24,株式会社浦和プロパティー,,株式会社,埼玉県,さいたま市浦和区,領家１丁目１２番１２号,,11,107,3300072,,,,,,,2022-03-24,1,,,,,ウラワプロパティー,0
1690,7030001147376,新規,0,2022-03-24,2022-03-24,株式会社Ｍ‐ＴＥＣＨ,,株式会社,埼玉県,さいたま市大宮区,三橋１丁目８６番地６,,11,103,3300856,,,,,,,2022-03-24,1,,,,,エムテック,0
1691,7030001147384,新規,0,2022-03-24,2022-03-24,株式会社一次元,,株式会社,埼玉県,川口市,末広１丁目１７番３－４０６号,,11,203,3320006,,,,,,,2022-03-24,1,,,,,イジゲン,0
1697,7040001122725,新規,0,2022-03-24,2022-03-24,株式会社ハピネス・ルーム・クリーチャーズ,,株式会社,千葉県,柏市,豊住３丁目１０番９号,,12,217,2770071,,,,,,,2022-03-24,1,,,,,ハピネスルームクリーチャーズ,0
1701,7040003019738,新規,0,2022-03-24,2022-03-24,合同会社アリエス,,合同会社,千葉県,千葉市中央区,院内１丁目５番１０号,,12,101,2600018,,,,,,,2022-03-24,1,,,,,アリエス,0
1706,7050001050818,新規,0,2022-03-24,2022-03-24,山田ブロック工業株式会社,,株式会社,茨城県,つくば市,真瀬２６６番地,,08,220,3002656,,,,,,,2022-03-24,1,,,,,ヤマダブロックコウギョウ,0
1707,7060002038448,新規,0,2022-03-24,2022-03-24,有限会社匠栄,,有限会社,栃木県,足利市,福居町１２８０番地１,,09,202,3260338,,,,,,,2022-03-24,1,,,,,ショウエイ,0
1710,7080105006234,新規,0,2022-03-24,2022-03-24,一般社団法人静岡防災・減災・防衛教育機構,,その他の設立登記法人,静岡県,沼津市,本田町４番２６号,,22,203,4100004,,,,,,,2022-03-24,1,,,,,シズオカボウサイゲンサイボウエイキョウイクキコウ,0
1720,7120001244610,新規,0,2022-03-24,2022-03-24,株式会社ココステート,,株式会社,大阪府,枚方市,長尾家具町４丁目１４番地の７,,27,210,5730102,,,,,,,2022-03-24,1,,,,,ココステート,0
1721,7120001244619,新規,0,2022-03-24,2022-03-24,ＨＯＭＥ　ＯＮＥ株式会社,,株式会社,大阪府,交野市,倉治３丁目２４番２５号山田ハイツ１階１２号室,,27,230,5760051,,,,,,,2022-03-24,1,,,,,ホームワン,0
1722,7120001244651,新規,0,2022-03-24,2022-03-24,融融株式会社,,株式会社,大阪府,大阪市中央区,谷町６丁目３－１２プレアール谷町４０６号室,,27,128,5420012,,,,,,,2022-03-24,1,,,,,ユウユウ,0
1724,7120003021339,新規,0,2022-03-24,2022-03-24,会計プラス合同会社,,合同会社,大阪府,大阪市北区,梅田１丁目１番３大阪駅前第３ビル２９階１－１－１号室,,27,127,5300001,,,,,,,2022-03-24,1,,,,,カイケイプラス,0
1726,7120005022855,新規,0,2022-03-24,2022-03-24,一般社団法人ＳＣＧプロジェクト,,その他の設立登記法人,大阪府,寝屋川市,秦町１３番１０号,,27,215,5720848,,,,,,,2022-03-24,1,,,,,エスシジープロジェクト,0
1729,7120101065279,新規,0,2022-03-24,2022-03-24,ＤＭＤ　ＪＡＰＡＮ貿易株式会社,,株式会社,大阪府,和泉市,国分町１６７５番地の１,,27,219,5941114,,,,,,,2022-03-24,1,,,,,ディーエムディージャパンボウエキ,0
1734,7120903004079,新規,0,2022-03-24,2022-03-24,合同会社中西ビル,,合同会社,大阪府,豊中市,曽根西町１丁目３番１８号,,27,203,5610801,,,,,,,2022-03-24,1,,,,,ナカニシビル,0
1736,7122001035700,新規,0,2022-03-24,2022-03-24,株式会社ワールド化成企画,,株式会社,大阪府,東大阪市,永和１丁目６番６号,,27,227,5770809,,,,,,,2022-03-24,1,,,,,ワールドカセイキカク,0
1739,7130001071401,新規,0,2022-03-24,2022-03-24,株式会社ＭＨＲクラフト京都,,株式会社,京都府,京都市中京区,西ノ京塚本町１２番地２０,00126041,26,104,6048474,,,,,,,2022-03-24,1,,,,,エムエッチアールクラフトキョウト,0
1741,7130003007824,新規,0,2022-03-24,2022-03-24,ＱＱＱ合同会社,,合同会社,京都府,京都市左京区,高野上竹屋町３１番地１ハイツサイプリス３０３,,26,103,6068105,,,,,,,2022-03-24,1,,,,,キューキューキュー,0
1750,7180001150506,新規,0,2022-03-24,2022-03-24,株式会社ファミリーホースお馬のおやこ,,株式会社,愛知県,名古屋市中区,大須２丁目１１番５号,,23,106,4600011,,,,,,,2022-03-24,1,,,,,ファミリーホースオウマノオヤコ,0
1755,7190001029245,新規,0,2022-03-24,2022-03-24,株式会社喜水会,,株式会社,三重県,鈴鹿市,西玉垣町１４９９番地の１,,24,207,5130815,,,,,,,2022-03-24,1,,,,,キスイカイ,0
1758,7190003003933,新規,0,2022-03-24,2022-03-24,合同会社チョイス,,合同会社,三重県,伊賀市,山出９０５,,24,216,5180127,,,,,,,2022-03-24,1,,,,,チョイス,0
1766,7220001024746,新規,0,2022-03-24,2022-03-24,株式会社サポート,,株式会社,石川県,白山市,馬場２丁目２３番地１,,17,210,9240864,,,,,,,2022-03-24,1,,,,,サポート,0
1779,7260003003851,新規,0,2022-03-24,2022-03-24,合同会社晃大,,合同会社,岡山県,岡山市北区,今６丁目１０番１３号,,33,101,7000975,,,,,,,2022-03-24,1,,,,,コウダイ,0
1785,7290001096903,新規,0,2022-03-24,2022-03-24,株式会社ラビリンチュラ,,株式会社,福岡県,筑紫野市,上古賀３丁目２番１６号,,40,217,8180041,,,,,,,2022-03-24,1,,,,,ラビリンチュラ,0
1787,7290803004088,新規,0,2022-03-24,2022-03-24,合同会社山水,,合同会社,福岡県,北九州市小倉南区,上吉田６丁目１０番２３号,,40,107,8000201,,,,,,,2022-03-24,1,,,,,サンスイ,0
1808,7390001016834,新規,0,2022-03-24,2022-03-24,シンエー株式会社,,株式会社,山形県,米沢市,大字三沢６０９２番地の１１,,06,202,9921202,,,,,,,2022-03-24,1,,,,,シンエー,0
1810,7400001015826,新規,0,2022-03-24,2022-03-24,株式会社グッドプラス,,株式会社,岩手県,盛岡市,本町通１丁目１０番１１号,,03,201,0200015,,,,,,,2022-03-24,1,,,,,,0
1814,7430001086261,新規,0,2022-03-24,2022-03-24,株式会社ＦＩＹ,,株式会社,北海道,札幌市中央区,北二条西２丁目４１番地札幌２．２ビル５階,,01,101,0600002,,,,,,,2022-03-24,1,,,,,ファイ,0
1816,7440003001449,新規,0,2022-03-24,2022-03-24,合同会社きたでアニマルクリニック,,合同会社,北海道,久遠郡せたな町,北檜山区栄６５３番地,,01,371,0494751,,,,,,,2022-03-24,1,,,,,キタデアニマルクリニック,0
1819,7460103001438,新規,0,2022-03-24,2022-03-24,合同会社宝徳,,合同会社,北海道,河東郡音更町,木野大通西２丁目３番地１７,,01,631,0800301,,,,,,,2022-03-24,1,,,,,ホウトク,0
1821,7460105002236,新規,0,2022-03-24,2022-03-24,医療法人社団恵道会,,その他の設立登記法人,北海道,帯広市,西十九条南３丁目２６－２,,01,207,0802469,,,,,,,2022-03-24,1,,,,,ケイドウカイ,0
1835,8010001225430,新規,0,2022-03-24,2022-03-24,株式会社バリスター,,株式会社,東京都,千代田区,永田町２丁目１１番１号山王パークタワー,,13,101,1000014,,,,,,,2022-03-24,1,,,,,バリスター,0
1838,8010003037295,新規,0,2022-03-24,2022-03-24,合同会社中野・篠原コンサルティングファーム,,合同会社,東京都,中央区,銀座３丁目１０番１９号美術家会館ビル２階,,13,102,1040061,,,,,,,2022-03-24,1,,,,,ナカノシノハラコンサルティングファーム,0
1839,8010003037320,新規,0,2022-03-24,2022-03-24,合同会社カーチスファンドフィフス,,合同会社,東京都,千代田区,紀尾井町４番１号新紀尾井町ビル２Ｆ,,13,101,1020094,,,,,,,2022-03-24,1,,,,,カーチスファンドフィフス,0
1840,8010003037329,新規,0,2022-03-24,2022-03-24,みつばち商事合同会社,,合同会社,東京都,中央区,日本橋蛎殻町１丁目１７－２ライオンズマンション日本橋７０９,,13,102,1030014,,,,,,,2022-03-24,1,,,,,ミツバチショウジ,0
1841,8010005034753,新規,0,2022-03-24,2022-03-24,一般社団法人日本ヒューマン・コ・ビーイング協会,,その他の設立登記法人,東京都,千代田区,一番町６番地１ロイアル一番町Ａ６０３号,,13,101,1020082,,,,,,,2022-03-24,1,,,,,ニホンヒューマンコビーイング,0
1847,8010401166316,新規,0,2022-03-24,2022-03-24,株式会社プロシード,,株式会社,東京都,港区,芝浦４丁目２１番１－２６０７号,,13,103,1080023,,,,,,,2022-03-24,1,,,,,プロシード,0
1848,8010401166324,新規,0,2022-03-24,2022-03-24,株式会社北里クライオバンク,,株式会社,東京都,港区,芝大門１丁目１番８号芝公園ビル,,13,103,1050012,,,,,,,2022-03-24,1,,,,,キタザトクライオバンク,0
1849,8010401166340,新規,0,2022-03-24,2022-03-24,Ｆｏｒｗａｒｄ株式会社,,株式会社,東京都,港区,南麻布５丁目４－２,,13,103,1060047,,,,,,,2022-03-24,1,,,,,フォワード,0
1853,8010405020832,新規,0,2022-03-24,2022-03-24,一般財団法人令和環境財団,,その他の設立登記法人,東京都,港区,南青山６丁目６番２２号クレスト・イシイ２階,,13,103,1070062,,,,,,,2022-03-24,1,,,,,レイワカンキョウザイダン,0
1858,8010601060871,新規,0,2022-03-24,2022-03-24,株式会社７５３,,株式会社,東京都,江東区,永代２丁目３１番１６号盛美堂ビル４階,,13,108,1350034,,,,,,,2022-03-24,1,,,,,ナナゴサン,0
1859,8010701042415,新規,0,2022-03-24,2022-03-24,株式会社ギブスタート,,株式会社,東京都,品川区,東五反田２丁目７番５号コンシェリア五反田ＣＲＯＳＳＩＡ３０４,,13,109,1410022,,,,,,,2022-03-24,1,,,,,ギブスタート,0
1861,8010801032828,新規,0,2022-03-24,2022-03-24,株式会社バリュー＆ドライブ,,株式会社,東京都,大田区,田園調布１丁目８番８号,,13,111,1450071,,,,,,,2022-03-24,1,,,,,バリューアンドドライブ,0
1867,8010901050556,新規,0,2022-03-24,2022-03-24,株式会社日本水中撮影サービス,,株式会社,東京都,世田谷区,代田２丁目１８番１２号,,13,112,1550033,,,,,,,2022-03-24,1,,,,,ニホンスイチュウサツエイサービス,0
1872,8011001146468,新規,0,2022-03-24,2022-03-24,株式会社ＴｙｐｅｂｏｕｒＮ,,株式会社,東京都,目黒区,東山３丁目５番５号,,13,110,1530043,,,,,,,2022-03-24,1,,,,,タイプボーン,0
1873,8011001146492,新規,0,2022-03-24,2022-03-24,株式会社ＢｏＣｒｅａｔｉｏｎ,,株式会社,東京都,渋谷区,恵比寿西１丁目３３番６号,,13,113,1500021,,,,,,,2022-03-24,1,,,,,ボークリエイション,0
1874,8011003014417,新規,0,2022-03-24,2022-03-24,リーフノード合同会社,,合同会社,東京都,渋谷区,神宮前６丁目２３番４号桑野ビル２階,,13,113,1500001,,,,,,,2022-03-24,1,,,,,リーフノード,0
1879,8011301027649,新規,0,2022-03-24,2022-03-24,梓旭貿易株式会社,,株式会社,東京都,杉並区,梅里２丁目２５番１３号高円寺プラザ２０３号,,13,115,1660011,,,,,,,2022-03-24,1,,,,,シキョクボウエキ,0
1881,8011501027861,新規,0,2022-03-24,2022-03-24,株式会社ブルームプロダクト,,株式会社,東京都,北区,浮間４丁目１３番２１号,,13,117,1150051,,,,,,,2022-03-24,1,,,,,ブルームプロダクト,0
1882,8011601025815,新規,0,2022-03-24,2022-03-24,ＧＪＨ株式会社,,株式会社,東京都,練馬区,高野台２丁目２７番７号ハイツアステリア１０１号室,,13,120,1770033,,,,,,,2022-03-24,1,,,,,ジージェイエイチ,0
1885,8011701025153,新規,0,2022-03-24,2022-03-24,株式会社Ｈ＆Ｏ,,株式会社,東京都,江戸川区,西小岩４丁目１番２１号ＬＥＧＡＲＥ４０２,,13,123,1330057,,,,,,,2022-03-24,1,,,,,エイチアンドオー,0
1889,8011803005020,新規,0,2022-03-24,2022-03-24,ＭＩＩＭ合同会社,,合同会社,東京都,足立区,東和３丁目２番２号,,13,121,1200003,,,,,,,2022-03-24,1,,,,,ミーム,0
1892,8012401038998,新規,0,2022-03-24,2022-03-24,株式会社ワイエスディー,,株式会社,東京都,府中市,若松町３丁目２９番地の２７,,13,206,1830005,,,,,,,2022-03-24,1,,,,,ワイエスディー,0
1894,8013303006093,新規,0,2022-03-24,2022-03-24,ＡＲ　ＢＥＮＧＡＬ合同会社,,合同会社,東京都,豊島区,南大塚３丁目１１－１０第二芙蓉ビル４階,,13,116,1700005,,,,,,,2022-03-24,1,,,,,エアルベンガル,0
1901,8020001145776,新規,0,2022-03-24,2022-03-24,株式会社ｉｓｔ．,,株式会社,神奈川県,横浜市中区,日ノ出町１丁目７６番地１,,14,104,2310066,,,,,,,2022-03-24,1,,,,,アイスト,0
1904,8020003021406,新規,0,2022-03-24,2022-03-24,合同会社雄英ホーム,,合同会社,神奈川県,横浜市中区,福富町仲通３４番地７,,14,104,2310043,,,,,,,2022-03-24,1,,,,,ユウエイホーム,0
1905,8020003021488,新規,0,2022-03-24,2022-03-24,合同会社Ｂｅｙｏｎｄ３Ｃｏｎｓｕｌｔｉｎｇ,,合同会社,神奈川県,川崎市高津区,久本１丁目６－８－３８,,14,134,2130011,,,,,,,2022-03-24,1,,,,,ビヨンドスリーコンサルティング,0
1906,8020003021496,新規,0,2022-03-24,2022-03-24,ＴＮＮ合同会社,,合同会社,神奈川県,川崎市中原区,今井仲町１４番２２,,14,133,2110065,,,,,,,2022-03-24,1,,,,,ティーエヌエヌ,0
1908,8021001075501,新規,0,2022-03-24,2022-03-24,株式会社フォース,,株式会社,神奈川県,藤沢市,湘南台２丁目３番地の１４－３階,,14,205,2520804,,,,,,,2022-03-24,1,,,,,フォース,0
1916,8030001147375,新規,0,2022-03-24,2022-03-24,株式会社Ｉ．Ｕ．ＪＡＰＡＮ,,株式会社,埼玉県,三郷市,早稲田４丁目２５番地９,,11,237,3410018,,,,,,,2022-03-24,1,,,,,アイユージャパン,0
1917,8030001147383,新規,0,2022-03-24,2022-03-24,隆興設備工業株式会社,,株式会社,埼玉県,新座市,馬場１丁目７番２－４１号,,11,230,3520016,,,,,,,2022-03-24,1,,,,,リュウコウセツビコウギョウ,0
1925,8040001122708,新規,0,2022-03-24,2022-03-24,株式会社ＡＫハウス,,株式会社,千葉県,松戸市,串崎南町２６番地サンモールモリヤ３,,12,207,2702215,,,,,,,2022-03-24,1,,,,,エーケーハウス,0
1926,8040001122716,新規,0,2022-03-24,2022-03-24,株式会社円陣,,株式会社,千葉県,八千代市,八千代台東１丁目１番１０号,,12,221,2760032,,,,,,,2022-03-24,1,,,,,エンジン,0
1927,8040001122724,新規,0,2022-03-24,2022-03-24,株式会社エウレカコーヒー製作所,,株式会社,千葉県,千葉市稲毛区,緑町１丁目８番１６号緑町中央ビル１０３号,,12,103,2630023,,,,,,,2022-03-24,1,,,,,エウレカコーヒーセイサクジョ,0
1929,8040003019729,新規,0,2022-03-24,2022-03-24,合同会社ＰＮＣ,,合同会社,千葉県,習志野市,袖ケ浦４丁目１３番７号,,12,216,2750021,,,,,,,2022-03-24,1,,,,,ピーエヌシー,0
1930,8040005021550,新規,0,2022-03-24,2022-03-24,一般社団法人さかがみ家,,その他の設立登記法人,千葉県,袖ケ浦市,奈良輪２３５２番地,,12,229,2990263,,,,,,,2022-03-24,1,,,,,サカガミケ,0
1933,8050001050825,新規,0,2022-03-24,2022-03-24,ＡＺ　ＭＯＴＯＲＳ株式会社,,株式会社,茨城県,筑西市,幸町２丁目１４番１３号ニュータウンハイツ１階２０３号室,,08,227,3080848,,,,,,,2022-03-24,1,,,,,エーゼットモータース,0
1934,8050005013035,新規,0,2022-03-24,2022-03-24,医療法人社団ＭＫＣ,,その他の設立登記法人,茨城県,つくばみらい市,富士見ヶ丘１丁目２４番地５,,08,235,3002417,,,,,,,2022-03-24,1,,,,,エムケーシー,0
1944,8110001036520,新規,0,2022-03-24,2022-03-24,新潟平野屋株式会社,,株式会社,新潟県,新潟市西区,流通センター４丁目４番地４,,15,107,9502031,,,,,,,2022-03-24,1,,,,,ニイガタヒラノヤ,0
1955,8120001244650,新規,0,2022-03-24,2022-03-24,孝鋒株式会社,,株式会社,大阪府,大阪市北区,天満２丁目１－１２、４１０号室,,27,127,5300043,,,,,,,2022-03-24,1,,,,,コウホウ,0
1956,8120001244675,新規,0,2022-03-24,2022-03-24,株式会社Ａｌｔｅｒ,,株式会社,大阪府,大阪市浪速区,幸町２丁目６番１５－１００３号,,27,111,5560021,,,,,,,2022-03-24,1,,,,,オルター,0
1961,8120003021321,新規,0,2022-03-24,2022-03-24,合同会社Ｇｏｏｄ　Ｇａｍｅ　Ｃｏｍｐａｎｙ,,合同会社,大阪府,大阪市中央区,本町４丁目８番１号ＳＤ本町ビル７０２号,,27,128,5410053,,,,,,,2022-03-24,1,,,,,グッドゲームカンパニー,0
1966,8120103004622,新規,0,2022-03-24,2022-03-24,合同会社Ａｉｒｕ,,合同会社,大阪府,堺市堺区,南花田口町２丁２番６号,,27,141,5900075,,,,,,,2022-03-24,1,,,,,アイル,0
1971,8122001035699,新規,0,2022-03-24,2022-03-24,ハイ・スタッフ株式会社,,株式会社,大阪府,東大阪市,横沼町１丁目１４番５号中西ビル３階,,27,227,5770808,,,,,,,2022-03-24,1,,,,,ハイスタッフ,0
1975,8130001071400,新規,0,2022-03-24,2022-03-24,ＩＭＡＯ＆Ｃｏ．株式会社,,株式会社,京都府,京都市下京区,御幸町通四条下る大寿町４００番地２階,,26,106,6008039,,,,,,,2022-03-24,1,,,,,イマオアンドコー,0
1976,8130003007823,新規,0,2022-03-24,2022-03-24,ＡＴ＆ＭＹ合同会社,,合同会社,京都府,京都市右京区,花園内畑町１０番地４７,,26,108,6168045,,,,,,,2022-03-24,1,,,,,エーティーアンドエムワイ,0
1983,8140001125361,新規,0,2022-03-24,2022-03-24,株式会社ジャパンホールディングス,,株式会社,兵庫県,西宮市,上田西町２－３６,,28,204,6638135,,,,,,,2022-03-24,1,,,,,ジャパンホールディングス,0
1986,8140005026085,新規,0,2022-03-24,2022-03-24,医療法人社団すみおか歯科口腔外科,,その他の設立登記法人,兵庫県,芦屋市,大原町２番６号ラ・モール芦屋１１３－１号,00126053,28,206,6590092,,,,,,,2022-03-24,1,,,,,スミオカシカコウクウゲカ,0
1998,8180003023642,新規,0,2022-03-24,2022-03-24,合同会社Ｒａｄｉａｎｔ,,合同会社,愛知県,名古屋市港区,当知３丁目１４０１番地１エスポア当知５０２号,,23,111,4550804,,,,,,,2022-03-24,1,,,,,ラディアント,0
2005,8200005013317,新規,0,2022-03-24,2022-03-24,農事組合法人夢有珠ファーム,,その他の設立登記法人,岐阜県,大垣市,津村町３丁目５４５番地,,21,202,5030003,,,,,,,2022-03-24,1,,,,,ムウスファーム,0
2007,8210001018855,新規,0,2022-03-24,2022-03-24,株式会社ＢＯＮＡ　ＦＩＤＥ,,株式会社,福井県,福井市,板垣３丁目１５１６番地,,18,201,9188104,,,,,,,2022-03-24,1,,,,,ボナファイド,0
2010,8220001024753,新規,0,2022-03-24,2022-03-24,株式会社ＳＯ‐ＰＬＡＮＮＩＮＧ,,株式会社,石川県,小松市,矢田野町カ８２番地３,,17,203,9230342,,,,,,,2022-03-24,1,,,,,エスオープランニング,0
2019,8260001036662,新規,0,2022-03-24,2022-03-24,株式会社ゾウクリエイト,,株式会社,岡山県,岡山市南区,福田１０２０番地３,,33,104,7028021,,,,,,,2022-03-24,1,,,,,ゾウクリエイト,0
2020,8270001008479,新規,0,2022-03-24,2022-03-24,ダキスジャパン株式会社,,株式会社,鳥取県,境港市,上道町２１７７－３４,,31,204,6840033,,,,,,,2022-03-24,1,,,,,ダキスジャパン,0
2022,8280003001596,新規,0,2022-03-24,2022-03-24,合同会社Ｄ‐アシスト,,合同会社,島根県,安来市,安来町５４０番地,,32,206,6920011,,,,,,,2022-03-24,1,,,,,ディーアシスト,0
2029,8290001096869,新規,0,2022-03-24,2022-03-24,株式会社シーサイドガーデン,,株式会社,福岡県,福岡市東区,西戸崎３丁目１８番３４－５１０号,,40,131,8110321,,,,,,,2022-03-24,1,,,,,シーサイドガーデン,0
2031,8290003012312,新規,0,2022-03-24,2022-03-24,合同会社Ｃａｒａｖａｎ,,合同会社,福岡県,福岡市中央区,薬院１丁目１４番２１－３６号,,40,133,8100022,,,,,,,2022-03-24,1,,,,,キャラバン,0
2034,8320001018976,新規,0,2022-03-24,2022-03-24,株式会社ＳＰＡＣＥ　ＳＰＡ　ＴＲＡＶＥＬ,,株式会社,大分県,大分市,金池南１丁目５－１コレジオ大分１Ｆ,,44,201,8700839,,,,,,,2022-03-24,1,,,,,スペーススパトラベル,0
2036,8340001024592,新規,0,2022-03-24,2022-03-24,株式会社ＬＩＶＥ　ＣＲＡＦＴ,,株式会社,鹿児島県,鹿児島市,薬師２丁目６番１０号２０１,,46,201,8900042,,,,,,,2022-03-24,1,,,,,ライブクラフト,0
2048,8380003005133,新規,0,2022-03-24,2022-03-24,ベルウッド合同会社,,合同会社,福島県,会津若松市,日新町１５番３６号,,07,202,9650861,,,,,,,2022-03-24,1,,,,,ベルウッド,0
2060,8430001086252,新規,0,2022-03-24,2022-03-24,株式会社ＮＯＡＭ,,株式会社,北海道,札幌市中央区,北二条西１０丁目１－２４植物園グランドハイツＥ１１１,,01,101,0600002,,,,,,,2022-03-24,1,,,,,ノーム,0
2061,8430001086269,新規,0,2022-03-24,2022-03-24,株式会社未来,,株式会社,北海道,札幌市中央区,南四条東３丁目１７番地３,,01,101,0600054,,,,,,,2022-03-24,1,,,,,ミク,0
2062,8430003013733,新規,0,2022-03-24,2022-03-24,合同会社Ｇａｌｌｏｐ,,合同会社,北海道,札幌市北区,新川六条１４丁目７番１０号,,01,102,0010926,,,,,,,2022-03-24,1,,,,,ギャロップ,0
2064,8460103001437,新規,0,2022-03-24,2022-03-24,合同会社コンフォート,,合同会社,北海道,帯広市,南の森東４丁目９番地２,,01,207,0800861,,,,,,,2022-03-24,1,,,,,コンフォート,0
2067,8480001011684,新規,0,2022-03-24,2022-03-24,株式会社竹繁ガラス店,,株式会社,徳島県,吉野川市,山川町建石８５番地２,,36,205,7793401,,,,,,,2022-03-24,1,,,,,タケシゲガラステン,0
2085,9010001225396,新規,0,2022-03-24,2022-03-24,株式会社ＨｉｐｐｏＴｏｒｃｈ,,株式会社,東京都,文京区,本郷６丁目２５番１４号,,13,105,1130033,,,,,,,2022-03-24,1,,,,,ヒポトーチ,0
2091,9010003037328,新規,0,2022-03-24,2022-03-24,合同会社レクシア,,合同会社,東京都,中央区,銀座１丁目２２番１１号銀座大竹ビジデンス２階,,13,102,1040061,,,,,,,2022-03-24,1,,,,,レクシア,0
2096,9010401166315,新規,0,2022-03-24,2022-03-24,株式会社東遠国際,,株式会社,東京都,港区,三田３丁目７番１５号,,13,103,1080073,,,,,,,2022-03-24,1,,,,,トウエンコクサイ,0
2097,9010401166348,新規,0,2022-03-24,2022-03-24,株式会社ＥＳＳＥＮＣＥ,,株式会社,東京都,港区,南麻布４丁目１０番２０号麻布青木坂マンション４０３,,13,103,1060047,,,,,,,2022-03-24,1,,,,,エッセンス,0
2098,9010401166356,新規,0,2022-03-24,2022-03-24,株式会社メッツホールディングス,,株式会社,東京都,港区,赤坂８丁目１１番３８号,,13,103,1070052,,,,,,,2022-03-24,1,,,,,メッツホールディングス,0
2099,9010403027283,新規,0,2022-03-24,2022-03-24,合同会社ｍｏｐ,,合同会社,東京都,港区,南青山２丁目２―１５,,13,103,1070062,,,,,,,2022-03-24,1,,,,,モプ,0
2100,9010405020831,新規,0,2022-03-24,2022-03-24,小山物流開発特定目的会社,,その他の設立登記法人,東京都,港区,六本木１丁目６番１号泉ガーデンタワー,,13,103,1060032,,,,,,,2022-03-24,1,,,,,オヤマブツリュウカイハツ,0
2104,9010601060870,新規,0,2022-03-24,2022-03-24,株式会社ＡＬＮｉＫＡ,,株式会社,東京都,江東区,永代１丁目３番９号プラティーク門前仲町３０２,,13,108,1350034,,,,,,,2022-03-24,1,,,,,アルニカ,0
2105,9010603009453,新規,0,2022-03-24,2022-03-24,合同会社ＡＮＯＳＡ,,合同会社,東京都,江東区,新大橋３丁目６－７,,13,108,1350007,,,,,,,2022-03-24,1,,,,,アノサ,0
2106,9010701042414,新規,0,2022-03-24,2022-03-24,株式会社マーケティングパートナー,,株式会社,東京都,品川区,西五反田７丁目５番５号ＹＨビル３階,,13,109,1410031,,,,,,,2022-03-24,1,,,,,マーケティングパートナー,0
2109,9010801032827,新規,0,2022-03-24,2022-03-24,株式会社ＲＥＣＥＬＬ,,株式会社,東京都,大田区,矢口１丁目７番４号,,13,111,1460093,,,,,,,2022-03-24,1,,,,,リセル,0
2114,9011001146434,新規,0,2022-03-24,2022-03-24,Ｅｎｇａｇｅ　Ｓｑｕａｒｅｄ株式会社,,株式会社,東京都,渋谷区,渋谷２丁目１０番１５号,,13,113,1500002,,,,,,,2022-03-24,1,,,,,エンゲージスクエアード,0
2115,9011001146459,新規,0,2022-03-24,2022-03-24,Ｄｅｇｉｔａｌ　Ｔａｗｎ株式会社,,株式会社,東京都,渋谷区,宇田川町１３－８ちとせ会館２階,,13,113,1500042,,,,,,,2022-03-24,1,,,,,デジタルタウン,0
2116,9011001146491,新規,0,2022-03-24,2022-03-24,株式会社ＡＵＸＯ　ＣＯＤＥ,,株式会社,東京都,渋谷区,代々木１丁目３０番１４号天翔オフィス代々木ＡＮＮＥＸ１０２号室,,13,113,1510053,,,,,,,2022-03-24,1,,,,,アウクソコード,0
2125,9011501027860,新規,0,2022-03-24,2022-03-24,株式会社すずきや,,株式会社,東京都,北区,滝野川２丁目６番１１－３０６号,,13,117,1140023,,,,,,,2022-03-24,1,,,,,スズキヤ,0
2126,9011501027869,新規,0,2022-03-24,2022-03-24,株式会社日本製造ファシリテート,,株式会社,東京都,荒川区,西尾久６丁目５番３号,,13,118,1160011,,,,,,,2022-03-24,1,,,,,ニホンセイゾウファシリテート,0
2127,9011501027877,新規,0,2022-03-24,2022-03-24,株式会社イルミネイト,,株式会社,東京都,北区,堀船３丁目２２番１２号,,13,117,1140004,,,,,,,2022-03-24,1,,,,,イルミネイト,0
2128,9011601025814,新規,0,2022-03-24,2022-03-24,株式会社黒岩工業,,株式会社,東京都,練馬区,豊玉中１丁目１１番１２号ホワイトコーポ２０２,,13,120,1760013,,,,,,,2022-03-24,1,,,,,クロイワコウギョウ,0
2136,9012403005293,新規,0,2022-03-24,2022-03-24,オリーブ印合同会社,,合同会社,東京都,三鷹市,野崎４丁目４番２０号,,13,204,1810014,,,,,,,2022-03-24,1,,,,,オリーブジルシ,0
2138,9013301048855,新規,0,2022-03-24,2022-03-24,株式会社華盛グループ,,株式会社,東京都,豊島区,西巣鴨４丁目１４番１２号白澤ビル２０１号,,13,116,1700001,,,,,,,2022-03-24,1,,,,,ハナモリグループ,0
2139,9013305003328,新規,0,2022-03-24,2022-03-24,医療法人社団Ｎｉｍｕｒａ　Ｄｅｎｔａｌ　Ｏｆｆｉｃｅ,,その他の設立登記法人,東京都,豊島区,目白３丁目１６番１号１階,,13,116,1710031,,,,,,,2022-03-24,1,,,,,ニムラデンタルオフィス,0
2145,9020001145742,新規,0,2022-03-24,2022-03-24,宗恵興業株式会社,,株式会社,神奈川県,横浜市都筑区,川和町２２１４番地６,,14,118,2240057,,,,,,,2022-03-24,1,,,,,ソウケイコウギョウ,0
2146,9020001145759,新規,0,2022-03-24,2022-03-24,株式会社ウイン,,株式会社,神奈川県,横浜市鶴見区,駒岡３丁目４番２８－２０４号,,14,101,2300071,,,,,,,2022-03-24,1,,,,,ウイン,0
2147,9020003021479,新規,0,2022-03-24,2022-03-24,アスピダコンサルティング合同会社,,合同会社,神奈川県,川崎市麻生区,金程４丁目１１番２号,,14,137,2150006,,,,,,,2022-03-24,1,,,,,アスピダコンサルティング,0
2148,9020003021495,新規,0,2022-03-24,2022-03-24,合同会社Ｒｅｆａｍｅ,,合同会社,神奈川県,川崎市麻生区,細山７丁目４－１６,,14,137,2150001,,,,,,,2022-03-24,1,,,,,リフェイム,0
2161,9030001147291,新規,0,2022-03-24,2022-03-24,株式会社木村屋パン店,,株式会社,埼玉県,川越市,連雀町９番地２,,11,201,3500066,,,,,,,2022-03-24,1,,,,,キムラヤパンテン,0
2162,9030001147374,新規,0,2022-03-24,2022-03-24,株式会社ハウス２１,,株式会社,埼玉県,三郷市,早稲田２丁目１７番１８号,,11,237,3410018,,,,,,,2022-03-24,1,,,,,ハウスニジュウイチ,0
2163,9030001147390,新規,0,2022-03-24,2022-03-24,友洋運輸株式会社,,株式会社,埼玉県,川口市,西川口１丁目３０番２０－２０７号,,11,203,3320021,,,,,,,2022-03-24,1,,,,,ユウヨウウンユ,0
2166,9030003019076,新規,0,2022-03-24,2022-03-24,田村植木合同会社,,合同会社,埼玉県,加須市,下高柳１２２６番地１,,11,210,3470033,,,,,,,2022-03-24,1,,,,,タムラウエキ,0
2170,9040001122707,新規,0,2022-03-24,2022-03-24,株式会社嘉儀屋,,株式会社,千葉県,旭市,萬歳１５８６番地,,12,215,2890505,,,,,,,2022-03-24,1,,,,,カギヤ,0
2171,9040001122723,新規,0,2022-03-24,2022-03-24,ＡｐｌｕｓＸ　Ｊａｐａｎ株式会社,,株式会社,千葉県,船橋市,前原西２丁目１４番１ー３２０号,,12,204,2740825,,,,,,,2022-03-24,1,,,,,エープラスエックスジャパン,0
2173,9040003019736,新規,0,2022-03-24,2022-03-24,合同会社Ｔ・Ｋ・Ｍ,,合同会社,千葉県,柏市,西原１丁目３番８号,,12,217,2770885,,,,,,,2022-03-24,1,,,,,ティーケーエム,0
2177,9060003003985,新規,0,2022-03-24,2022-03-24,合同会社ｔｅａｍ　Ｂ　ｒｅｖｅｒｓａｌ,,合同会社,栃木県,宇都宮市,今泉町２９９５－９,,09,201,3210962,,,,,,,2022-03-24,1,,,,,チームビーリヴァーサル,0
2190,9120001244542,新規,0,2022-03-24,2022-03-24,株式会社ＦＯＭＥ,,株式会社,大阪府,大阪市北区,中津３丁目２０－１４,,27,127,5310071,,,,,,,2022-03-24,1,,,,,フォーム,0
2191,9120001244600,新規,0,2022-03-24,2022-03-24,ＯＩＴ株式会社,,株式会社,大阪府,寝屋川市,国松町１３番３号,,27,215,5720016,,,,,,,2022-03-24,1,,,,,オーアイティー,0
2192,9120001244617,新規,0,2022-03-24,2022-03-24,ＨＴＲ株式会社,,株式会社,大阪府,大阪市住之江区,浜口西１丁目１３番３号,,27,125,5590006,,,,,,,2022-03-24,1,,,,,エイチティーアール,0
2193,9120001244633,新規,0,2022-03-24,2022-03-24,Ｃｒｏｓｓ　Ｍａｒｋｅｔｉｎｇ　Ｊａｐａｎ株式会社,,株式会社,大阪府,大阪市北区,梅田２丁目２－２ヒルトンプラザウエストオフィスタワー１９階,,27,127,5300001,,,,,,,2022-03-24,1,,,,,クロスマーケティングジャパン,0
2196,9120003021320,新規,0,2022-03-24,2022-03-24,合同会社ホーコウサービス,,合同会社,大阪府,大阪市都島区,中野町４丁目５番１３号２Ｆ,,27,102,5340027,,,,,,,2022-03-24,1,,,,,ホーコウサービス,0
2200,9120101065277,新規,0,2022-03-24,2022-03-24,株式会社ＫＴＣ,,株式会社,大阪府,岸和田市,稲葉町１３５０番地,,27,202,5960103,,,,,,,2022-03-24,1,,,,,ケーティーシー,0
2205,9130001071399,新規,0,2022-03-24,2022-03-24,株式会社水玄京,,株式会社,京都府,京都市南区,東九条北松ノ木町３９－３９,,26,107,6018022,,,,,,,2022-03-24,1,,,,,スイゲンキョウ,0
2207,9130003007822,新規,0,2022-03-24,2022-03-24,合同会社ノウズ,,合同会社,京都府,舞鶴市,常新町１１５番地,,26,202,6250071,,,,,,,2022-03-24,1,,,,,ノウズ,0
2218,9180001150470,新規,0,2022-03-24,2022-03-24,株式会社Ｎｅｘｕｓ,,株式会社,愛知県,大府市,吉川町４丁目９３番地,,23,223,4740046,,,,,,,2022-03-24,1,,,,,ネクサス,0
2219,9180001150504,新規,0,2022-03-24,2022-03-24,ＭＹ　Ｗｉｓｈ株式会社,,株式会社,愛知県,名古屋市中川区,大畑町１丁目１５番地の３（グランパス大畑１０２号）,,23,110,4540843,,,,,,,2022-03-24,1,,,,,エムワイウィッシュ,0
2220,9180001150529,新規,0,2022-03-24,2022-03-24,株式会社ＮＹＳ,,株式会社,愛知県,春日井市,林島町９４番地３,,23,206,4860854,,,,,,,2022-03-24,1,,,,,エヌワイエス,0
2221,9180001150537,新規,0,2022-03-24,2022-03-24,株式会社ＩｎＣｏｎｔｒｏｌ,,株式会社,愛知県,名古屋市熱田区,横田１丁目１１番６号,,23,109,4560022,,,,,,,2022-03-24,1,,,,,インコントロール,0
2222,9180001150545,新規,0,2022-03-24,2022-03-24,スタープラチナ株式会社,,株式会社,愛知県,名古屋市中川区,東かの里町１１０番地の１,,23,110,4540958,,,,,,,2022-03-24,1,,,,,スタープラチナ,0
2227,9180003023633,新規,0,2022-03-24,2022-03-24,合同会社ＫＴＮコンサルティング,,合同会社,愛知県,西春日井郡豊山町,大字豊場字大山９７－５,,23,342,4800202,,,,,,,2022-03-24,1,,,,,ケーティーエヌコンサルティング,0
2228,9190001029235,新規,0,2022-03-24,2022-03-24,株式会社的矢,,株式会社,三重県,志摩市,阿児町神明１２５３番地１１,,24,215,5170502,,,,,,,2022-03-24,1,,,,,マトヤ,0
2229,9190001029251,新規,0,2022-03-24,2022-03-24,オートテック・東海株式会社,,株式会社,三重県,松阪市,上川町３１１４番地１,,24,204,5150041,,,,,,,2022-03-24,1,,,,,オートテックトウカイ,0
2231,9200001039884,新規,0,2022-03-24,2022-03-24,株式会社ＳＤＧｓパートナーズ,,株式会社,岐阜県,可児郡御嵩町,顔戸５２１－２,,21,521,5050122,,,,,,,2022-03-24,1,,,,,エスディージーズパートナーズ,0
2233,9220001024752,新規,0,2022-03-24,2022-03-24,株式会社海老ＭＡＲＯ,,株式会社,石川県,七尾市,つつじが浜３番地９０,,17,202,9260851,,,,,,,2022-03-24,1,,,,,エビマロ,0
2234,9220001024760,新規,0,2022-03-24,2022-03-24,ＫＳ＆Ｉ株式会社,,株式会社,石川県,白山市,山島台６丁目５１番地,,17,210,9240836,,,,,,,2022-03-24,1,,,,,ケーエスアイ,0
2237,9240001059490,新規,0,2022-03-24,2022-03-24,株式会社警創,,株式会社,広島県,広島市安佐南区,緑井８丁目４－４－１０１,,34,105,7310103,,,,,,,2022-03-24,1,,,,,ケイソウ,0
2238,9240001059499,新規,0,2022-03-24,2022-03-24,株式会社リーベンデザイン,,株式会社,広島県,広島市安佐南区,山本新町３丁目１０番２９号,,34,105,7310139,,,,,,,2022-03-24,1,,,,,リーベンデザイン,0
2241,9250001019469,新規,0,2022-03-24,2022-03-24,創電工株式会社,,株式会社,山口県,下関市,梶栗町２丁目６番１７号,,35,201,7596614,,,,,,,2022-03-24,1,,,,,ソウデンコウ,0
2247,9270001008478,新規,0,2022-03-24,2022-03-24,株式会社にちりん,,株式会社,鳥取県,日野郡日南町,三栄１０９７番地１,,31,401,6895214,,,,,,,2022-03-24,1,,,,,ニチリン,0
2255,9290001096876,新規,0,2022-03-24,2022-03-24,株式会社ＯＮＩＷＡＹＡ,,株式会社,福岡県,朝倉郡筑前町,三並５６４番地１,,40,447,8380205,,,,,,,2022-03-24,1,,,,,オニワヤ,0
2256,9290001096892,新規,0,2022-03-24,2022-03-24,株式会社山田コーポレーション,,株式会社,福岡県,福岡市南区,井尻１丁目３８番２６－５０２号,,40,134,8111302,,,,,,,2022-03-24,1,,,,,ヤマダコーポレーション,0
2257,9290001096918,新規,0,2022-03-24,2022-03-24,住友都市計画株式会社,,株式会社,福岡県,福岡市東区,香椎照葉３丁目２－７－４４０６号,,40,131,8130017,,,,,,,2022-03-24,1,,,,,スミトモトシケイカク,0
2264,9300001012848,新規,0,2022-03-24,2022-03-24,ｃｈ９株式会社,,株式会社,佐賀県,鳥栖市,本鳥栖町５４７番地１,,41,203,8410026,,,,,,,2022-03-24,1,,,,,チャンネルナイン,0
2268,9320001018975,新規,0,2022-03-24,2022-03-24,ＲＥＶＥＲＳＡＬ株式会社,,株式会社,大分県,大分市,大字中判田３６４番地の１アメニティ高江Ａ１０２,,44,201,8701113,,,,,,,2022-03-24,1,,,,,リバーサル,0
2270,9330003009303,新規,0,2022-03-24,2022-03-24,合同会社運び処悠けん,,合同会社,熊本県,熊本市北区,龍田８丁目１４番２１号,,43,105,8618006,,,,,,,2022-03-24,1,,,,,ハコビトコロユウケン,0
2271,9340001024591,新規,0,2022-03-24,2022-03-24,株式会社アクト,,株式会社,鹿児島県,日置市,伊集院町妙円寺３丁目７０番地６,,46,216,8992503,,,,,,,2022-03-24,1,,,,,アクト,0
2272,9350001017644,新規,0,2022-03-24,2022-03-24,すまいる不動産株式会社,,株式会社,宮崎県,都城市,安久町６８５１番地４,,45,202,8850044,,,,,,,2022-03-24,1,,,,,スマイルフドウサン,0
2276,9370001048340,新規,0,2022-03-24,2022-03-24,株式会社Ｊ’ｅｓｐｅｒｅ,,株式会社,宮城県,亘理郡山元町,大平字舘山１３番地１,,04,362,9892206,,,,,,,2022-03-24,1,,,,,ジェスペール,0
2282,9380001032673,新規,0,2022-03-24,2022-03-24,真正株式会社,,株式会社,福島県,郡山市,安積荒井１丁目１６番地富川第２ビル３０１号,,07,203,9630117,,,,,,,2022-03-24,1,,,,,シンセイ,0
2284,9380003005132,新規,0,2022-03-24,2022-03-24,合同会社ＹＡＤＯＫＡＳＨＩ,,合同会社,福島県,会津若松市,米代１丁目６番７２号,,07,202,9650875,,,,,,,2022-03-24,1,,,,,ヤドカシ,0
2287,9400001015824,新規,0,2022-03-24,2022-03-24,株式会社さかえだ,,株式会社,岩手県,一関市,花泉町金沢字砂子田２８番地２,,03,209,0293102,,,,,,,2022-03-24,1,,,,,サカエダ,0
2293,9430001086268,新規,0,2022-03-24,2022-03-24,株式会社ＶＥＮＴＵＳ,,株式会社,北海道,札幌市西区,発寒六条９丁目１番１０号,,01,107,0630826,,,,,,,2022-03-24,1,,,,,ベンタス,0
2295,9430003013740,新規,0,2022-03-24,2022-03-24,合同会社Ｋ　Ｎ　Ｃ,,合同会社,北海道,札幌市北区,新琴似十一条１２丁目７番１８－１０２号,,01,102,0010911,,,,,,,2022-03-24,1,,,,,ケーエヌシー,0
2297,9470003002153,新規,0,2022-03-24,2022-03-24,Ｋ＆Ｓ合同会社,,合同会社,香川県,坂出市,加茂町甲５６０番地１,,37,203,7620022,,,,,,,2022-03-24,1,,,,,ケーアンドエス,0
