sequenceNumber,corporateNumber,process,correct,updateDate,changeDate,name,nameImageId,kind,prefectureName,cityName,streetNumber,addressImageId,prefectureCode,cityCode,postCode,addressOutside,addressOutsideImageId,closeDate,closeCause,successorCorporateNumber,changeCause,assignmentDate,latest,enName,enPrefectureName,enCityName,enAddressOutside,furigana,hihyoji
12,1010001228217,新規,0,2022-07-22,2022-07-22,株式会社サイン,,株式会社,東京都,中央区,銀座１丁目２２番１１号２階,,13,102,1040061,,,,,,,2022-07-22,1,,,,,サイン,0
13,1010001228266,新規,0,2022-07-22,2022-07-22,三和グランドグループ株式会社,,株式会社,東京都,文京区,湯島３丁目３１番５号,,13,105,1130034,,,,,,,2022-07-22,1,,,,,サンワグランドグループ,0
15,1010003038201,新規,0,2022-07-22,2022-07-22,合同会社Ｔｒｉｌｏｇｙ,,合同会社,東京都,中央区,日本橋１丁目４番１号,,13,102,1030027,,,,,,,2022-07-22,1,,,,,トリロジー,0
33,1010501049138,新規,0,2022-07-22,2022-07-22,株式会社ピノマニア,,株式会社,東京都,台東区,上野３丁目１６番２号,,13,106,1100005,,,,,,,2022-07-22,1,,,,,ピノマニア,0
34,1010501049146,新規,0,2022-07-22,2022-07-22,株式会社Ｎｏａ,,株式会社,東京都,台東区,台東４丁目５番５－２０３号室,,13,106,1100016,,,,,,,2022-07-22,1,,,,,ノア,0
43,1011001148735,新規,0,2022-07-22,2022-07-22,株式会社祝祭,,株式会社,東京都,目黒区,南３丁目３番３号,,13,110,1520013,,,,,,,2022-07-22,1,,,,,シュクサイ,0
44,1011001148792,新規,0,2022-07-22,2022-07-22,株式会社Ｓｕｐｐｏｒｔ　Ｐｒｏ,,株式会社,東京都,渋谷区,代々木２丁目２１－３２０１号室,,13,113,1510053,,,,,,,2022-07-22,1,,,,,サポートプロ,0
54,1011101099622,新規,0,2022-07-22,2022-07-22,良品厳選株式会社,,株式会社,東京都,新宿区,高田馬場２丁目８番５号凛ビル,,13,104,1690075,,,,,,,2022-07-22,1,,,,,リョウヒンゲンセン,0
57,1011103011774,新規,0,2022-07-22,2022-07-22,ゼンシン合同会社,,合同会社,東京都,新宿区,北新宿３丁目３１番１０号エイティハウス３０２,,13,104,1690074,,,,,,,2022-07-22,1,,,,,ゼンシン,0
58,1011103011997,新規,0,2022-07-22,2022-07-22,合同会社ＭＥＬ,,合同会社,東京都,新宿区,西新宿３丁目３番１３号西新宿水間ビル６階,,13,104,1600023,,,,,,,2022-07-22,1,,,,,メル,0
60,1011201023985,新規,0,2022-07-22,2022-07-22,ＪＴ．ＬＩＮＫ株式会社,,株式会社,東京都,中野区,中央５丁目４０番１４－３０４号,,13,114,1640011,,,,,,,2022-07-22,1,,,,,ジェイティーリンク,0
62,1011303004479,新規,0,2022-07-22,2022-07-22,ＩＢＡ合同会社,,合同会社,東京都,杉並区,成田西２丁目１９－１９,,13,115,1660016,,,,,,,2022-07-22,1,,,,,アイビーエー,0
63,1011401024420,新規,0,2022-07-22,2022-07-22,株式会社Ｄｅａｒ　ｐｌａｃｅ,,株式会社,東京都,板橋区,南常盤台１丁目１１番６号,,13,119,1740072,,,,,,,2022-07-22,1,,,,,ディアープレイス,0
73,1011601026118,新規,0,2022-07-22,2022-07-22,株式会社ウェーブレット,,株式会社,東京都,練馬区,豊玉北６丁目７番９号,,13,120,1760012,,,,,,,2022-07-22,1,,,,,ウェーブレット,0
78,1012403005499,新規,0,2022-07-22,2022-07-22,合同会社ＤＹＧ,,合同会社,東京都,三鷹市,牟礼４丁目１３番７号,,13,204,1810002,,,,,,,2022-07-22,1,,,,,ディーワイジー,0
94,1020001147382,新規,0,2022-07-22,2022-07-22,株式会社鯛東,,株式会社,神奈川県,川崎市宮前区,南平台２０－３７－３０５,,14,136,2160024,,,,,,,2022-07-22,1,,,,,タイトウ,0
100,1021003011915,新規,0,2022-07-22,2022-07-22,ａｎａｔａｎｏ　ｄｅｓｉｇｎ合同会社,,合同会社,神奈川県,藤沢市,鵠沼石上１丁目７番８,,14,205,2510025,,,,,,,2022-07-22,1,,,,,アナタノデザイン,0
105,1030001149287,新規,0,2022-07-22,2022-07-22,株式会社成新工業,,株式会社,埼玉県,ふじみ野市,西２丁目１３番２号上福岡ビューハイツ５０６号,,11,245,3560005,,,,,,,2022-07-22,1,,,,,セイシンコウギョウ,0
106,1030001149320,新規,0,2022-07-22,2022-07-22,株式会社サマルトリア,,株式会社,埼玉県,さいたま市浦和区,岸町２丁目５番２６号,,11,107,3300064,,,,,,,2022-07-22,1,,,,,サマルトリア,0
110,1030003019819,新規,0,2022-07-22,2022-07-22,合同会社星空ケア,,合同会社,埼玉県,白岡市,白岡１０４１－１フジハイツ２０１,,11,246,3490218,,,,,,,2022-07-22,1,,,,,ホシゾラケア,0
111,1030003019827,新規,0,2022-07-22,2022-07-22,合同会社エンゼル,,合同会社,埼玉県,所沢市,和ケ原１丁目１６２－８,,11,208,3591162,,,,,,,2022-07-22,1,,,,,エンゼル,0
123,1040001124355,新規,0,2022-07-22,2022-07-22,株式会社びらいと,,株式会社,千葉県,千葉市若葉区,大宮町１３３９番地,,12,104,2640016,,,,,,,2022-07-22,1,,,,,ビライト,0
133,1040005021680,新規,0,2022-07-22,2022-07-22,一般社団法人ラフィンの家,,その他の設立登記法人,千葉県,東金市,田間３丁目１番地７,,12,213,2830005,,,,,,,2022-07-22,1,,,,,ラフィンノイエ,0
141,1050001051441,新規,0,2022-07-22,2022-07-22,株式会社ジーライフ,,株式会社,茨城県,つくば市,谷田部１１４４番地１７２,,08,220,3050861,,,,,,,2022-07-22,1,,,,,ジーライフ,0
145,1050005013116,新規,0,2022-07-22,2022-07-22,一般社団法人日本１０Ｘデザイン協会,,その他の設立登記法人,茨城県,つくば市,二の宮１丁目２３番地９,,08,220,3050051,,,,,,,2022-07-22,1,,,,,ニホンテンエックスデザインキョウカイ,0
146,1060001035105,新規,0,2022-07-22,2022-07-22,株式会社ＢＴＬ商会,,株式会社,栃木県,那須烏山市,南２丁目１５番１号アライズＢ,,09,215,3210627,,,,,,,2022-07-22,1,,,,,ビーティーエルショウカイ,0
149,1060003004157,新規,0,2022-07-22,2022-07-22,合同会社三峰,,合同会社,栃木県,栃木市,万町２７番１６号,,09,203,3280015,,,,,,,2022-07-22,1,,,,,ミツミネ,0
158,1090003002133,新規,0,2022-07-22,2022-07-22,じゃるだん合同会社,,合同会社,山梨県,南巨摩郡富士川町,鳥屋３５－４,,19,368,4000607,,,,,,,2022-07-22,1,,,,,ジャルダン,0
168,1110001036832,新規,0,2022-07-22,2022-07-22,株式会社ＺＥＫＫＡ,,株式会社,新潟県,新潟市東区,太平１丁目１１番地１９,,15,102,9500005,,,,,,,2022-07-22,1,,,,,ゼッカ,0
175,1120001247511,新規,0,2022-07-22,2022-07-22,株式会社韶遠,,株式会社,大阪府,大阪市東淀川区,豊新５丁目１２番５５号ビルディングＶＩＩ４０５号,00127284,27,114,5330014,,,,,,,2022-07-22,1,,,,,ショウエン,0
176,1120001247528,新規,0,2022-07-22,2022-07-22,レッツ株式会社,,株式会社,大阪府,大阪市旭区,清水４丁目４－２６,,27,117,5350021,,,,,,,2022-07-22,1,,,,,レッツ,0
177,1120001247536,新規,0,2022-07-22,2022-07-22,株式会社ＤＭ　Ｉｎｔｅｒｔｒａｄｅ,,株式会社,大阪府,大阪市北区,東天満２丁目９番４号千代田ビル東館７Ｇ,,27,127,5300044,,,,,,,2022-07-22,1,,,,,ディーエムインタートレード,0
178,1120001247552,新規,0,2022-07-22,2022-07-22,三本商事株式会社,,株式会社,大阪府,大阪市淀川区,西宮原１丁目７番１５－５０８号,,27,123,5320004,,,,,,,2022-07-22,1,,,,,ミモトショウジ,0
179,1120001247593,新規,0,2022-07-22,2022-07-22,株式会社リバイブドア,,株式会社,大阪府,大阪市淀川区,田川３丁目３番１２号,,27,123,5320027,,,,,,,2022-07-22,1,,,,,リバイブドア,0
180,1120003022128,新規,0,2022-07-22,2022-07-22,ＫＡＮＳＡＩ　ＭＯＴＯＲ合同会社,,合同会社,大阪府,大阪市平野区,平野馬場１丁目８番１０号,,27,126,5470048,,,,,,,2022-07-22,1,,,,,カンサイモーター,0
181,1120005023090,新規,0,2022-07-22,2022-07-22,医療法人友有会,,その他の設立登記法人,大阪府,大阪市浪速区,戎本町１丁目９番２２号,,27,111,5560013,,,,,,,2022-07-22,1,,,,,ユウユウカイ,0
189,1130001072181,新規,0,2022-07-22,2022-07-22,文成株式会社,,株式会社,京都府,京都市右京区,谷口唐田ノ内町１５番地６,,26,108,6168013,,,,,,,2022-07-22,1,,,,,ブンセイ,0
192,1130003008068,新規,0,2022-07-22,2022-07-22,合同会社Ｔ＆Ｋレント,,合同会社,京都府,京都市西京区,山田畑田町３番地４,,26,111,6158272,,,,,,,2022-07-22,1,,,,,ティーアンドケーレント,0
195,1140001126837,新規,0,2022-07-22,2022-07-22,株式会社Ｌ２Ｍ,,株式会社,兵庫県,西宮市,甲子園口北町１番６号,,28,204,6638112,,,,,,,2022-07-22,1,,,,,エルツーエム,0
196,1140003017927,新規,0,2022-07-22,2022-07-22,エムズ財経合同会社,,合同会社,兵庫県,伊丹市,西台１丁目２番３号山本不動産ビル５０３,,28,207,6640858,,,,,,,2022-07-22,1,,,,,エムズザイケイ,0
197,1140003017935,新規,0,2022-07-22,2022-07-22,ＥｄｕＣｕｅ合同会社,,合同会社,兵庫県,三田市,学園８丁目４番地５,,28,219,6691337,,,,,,,2022-07-22,1,,,,,エデュキュウ,0
203,1170001017199,新規,0,2022-07-22,2022-07-22,株式会社楽,,株式会社,和歌山県,東牟婁郡串本町,潮岬字楠平見２６９５番地２,,30,428,6493502,,,,,,,2022-07-22,1,,,,,ラク,0
233,1240003005723,新規,0,2022-07-22,2022-07-22,合同会社タケシン,,合同会社,広島県,広島市西区,打越町１０番１８－６０２号,,34,104,7330004,,,,,,,2022-07-22,1,,,,,タケシン,0
237,1260001037064,新規,0,2022-07-22,2022-07-22,株式会社廣瀬工業,00127287,株式会社,岡山県,倉敷市,茶屋町１９４３番地２６,,33,202,7101101,,,,,,,2022-07-22,1,,,,,ヒロセコウギョウ,0
250,1290001098351,新規,0,2022-07-22,2022-07-22,アランダス株式会社,,株式会社,福岡県,宗像市,自由ヶ丘７丁目３１番地１２,,40,220,8114163,,,,,,,2022-07-22,1,,,,,アランダス,0
252,1290003012764,新規,0,2022-07-22,2022-07-22,合同会社ＮＺＥ,,合同会社,福岡県,糟屋郡粕屋町,大字戸原８７５番地４,,40,349,8112312,,,,,,,2022-07-22,1,,,,,エヌジーイー,0
257,1290801028747,新規,0,2022-07-22,2022-07-22,株式会社サンライズ,,株式会社,福岡県,行橋市,西泉７丁目６番５号,,40,213,8240038,,,,,,,2022-07-22,1,,,,,サンライズ,0
261,1330003009459,新規,0,2022-07-22,2022-07-22,合同会社エルダリーｅｌｄｅｒｌｙ,,合同会社,熊本県,阿蘇郡西原村,大字布田１１５５番地７,,43,432,8612403,,,,,,,2022-07-22,1,,,,,エルダリー,0
264,1360003012187,新規,0,2022-07-22,2022-07-22,よつば工業合同会社,,合同会社,沖縄県,糸満市,字武富１３９番地３、１０２,,47,210,9010311,,,,,,,2022-07-22,1,,,,,ヨツバコウギョウ,0
278,1430001087100,新規,0,2022-07-22,2022-07-22,株式会社Ｒｅｇｅｌａ,,株式会社,北海道,苫小牧市,清水町１丁目３番２号,,01,213,0530034,,,,,,,2022-07-22,1,,,,,リジェラ,0
282,1430005014505,新規,0,2022-07-22,2022-07-22,一般社団法人ダレデモ,,その他の設立登記法人,北海道,札幌市中央区,北四条西２６丁目５－１６,,01,101,0640824,,,,,,,2022-07-22,1,,,,,ダレデモ,0
302,2010001228257,新規,0,2022-07-22,2022-07-22,株式会社ＫＨＯ,,株式会社,東京都,千代田区,九段南１丁目５番６号りそな九段ビル５ＦＫＳフロア,,13,101,1020074,,,,,,,2022-07-22,1,,,,,ケーエイチオー,0
317,2010401168482,新規,0,2022-07-22,2022-07-22,自然屋物産株式会社,,株式会社,東京都,港区,三田１丁目２番１８号ＴＴＤビル,,13,103,1080073,,,,,,,2022-07-22,1,,,,,ナチュラルハウス,0
319,2010403028065,新規,0,2022-07-22,2022-07-22,合同会社オフィスサンロータス,,合同会社,東京都,港区,南青山２丁目２番１５号,,13,103,1070062,,,,,,,2022-07-22,1,,,,,オフィスサンロータス,0
322,2010501049145,新規,0,2022-07-22,2022-07-22,エイチアンドジー株式会社,,株式会社,東京都,台東区,浅草橋３丁目１７－１０浅草橋ＯＣビル地下１階,,13,106,1110053,,,,,,,2022-07-22,1,,,,,エイチアンドジー,0
327,2010901051279,新規,0,2022-07-22,2022-07-22,株式会社Ｃｈａｃｏｌ,,株式会社,東京都,世田谷区,北沢２丁目３６番１４－７０３号,,13,112,1550031,,,,,,,2022-07-22,1,,,,,チャコル,0
333,2011001148783,新規,0,2022-07-22,2022-07-22,株式会社ｆｕｆｕｆｕ,,株式会社,東京都,渋谷区,富ヶ谷２丁目４５番１９号オーベル代々木公園１００４,,13,113,1510063,,,,,,,2022-07-22,1,,,,,フフフ,0
334,2011001148791,新規,0,2022-07-22,2022-07-22,株式会社メモリール,,株式会社,東京都,渋谷区,神宮前６丁目２３番４号桑野ビル２階,,13,113,1500001,,,,,,,2022-07-22,1,,,,,メモリール,0
335,2011001148800,新規,0,2022-07-22,2022-07-22,株式会社ＰＡＳＡＤＥＮＡ,,株式会社,東京都,目黒区,中町２丁目５０番１３,,13,110,1530065,,,,,,,2022-07-22,1,,,,,パサデナ,0
336,2011003015081,新規,0,2022-07-22,2022-07-22,合同会社ｕｎｉ,,合同会社,東京都,渋谷区,富ヶ谷２丁目２番１１号,,13,113,1510063,,,,,,,2022-07-22,1,,,,,ウニ,0
340,2011301027976,新規,0,2022-07-22,2022-07-22,株式会社グローバルワン,,株式会社,東京都,杉並区,高円寺南４丁目７番３号サンシャイン高円寺８０３号,,13,115,1660003,,,,,,,2022-07-22,1,,,,,グローバルワン,0
344,2011601026117,新規,0,2022-07-22,2022-07-22,ＳａＬＲｏｕｎＤ株式会社,,株式会社,東京都,練馬区,北町１丁目４２－１２,,13,120,1790081,,,,,,,2022-07-22,1,,,,,サロウンド,0
346,2011803005182,新規,0,2022-07-22,2022-07-22,合同会社クラス,,合同会社,東京都,足立区,関原３丁目２７番７号Ｂ２０１,,13,121,1230852,,,,,,,2022-07-22,1,,,,,クラス,0
348,2012805003133,新規,0,2022-07-22,2022-07-22,一般財団法人獣医臨床寄生虫学科学財団,,その他の設立登記法人,東京都,立川市,若葉町２丁目２６番地の８,,13,202,1900001,,,,,,,2022-07-22,1,,,,,ジュウイリンショウキセイチュウガクカザイダン,0
350,2013301049406,新規,0,2022-07-22,2022-07-22,ＢｌｕｅＶｌｕｅ株式会社,,株式会社,東京都,豊島区,西池袋３丁目６番２０号,,13,116,1710021,,,,,,,2022-07-22,1,,,,,ブルーヴルー,0
368,2021003011963,新規,0,2022-07-22,2022-07-22,合同会社松浦商店,,合同会社,神奈川県,秦野市,河原町８番１号,,14,211,2570032,,,,,,,2022-07-22,1,,,,,マツウラショウテン,0
372,2030001149344,新規,0,2022-07-22,2022-07-22,Ｎｅｓｔ　Ｌｉｆｅ株式会社,,株式会社,埼玉県,さいたま市見沼区,大字片柳１４３４－１５,,11,104,3370024,,,,,,,2022-07-22,1,,,,,ネストライフ,0
374,2030003019834,新規,0,2022-07-22,2022-07-22,合同会社ＤＫ,,合同会社,埼玉県,所沢市,上新井４丁目５２番地の１５エレガンスハイム貸家６,,11,208,3591142,,,,,,,2022-07-22,1,,,,,ディーケー,0
378,2040001124346,新規,0,2022-07-22,2022-07-22,株式会社アヴェスタ,,株式会社,千葉県,松戸市,大橋５２番地の２ハイムアネックス２０８号,,12,207,2702224,,,,,,,2022-07-22,1,,,,,アヴェスタ,0
379,2040001124370,新規,0,2022-07-22,2022-07-22,株式会社Ｉｌｌｕｍ,,株式会社,千葉県,市川市,市川２丁目３１－２０エスポワール市川１０５,,12,203,2720034,,,,,,,2022-07-22,1,,,,,イルム,0
387,2040003020485,新規,0,2022-07-22,2022-07-22,合同会社白浜社中,,合同会社,千葉県,南房総市,白浜町滝口５１８５番地１－２０１,,12,234,2950103,,,,,,,2022-07-22,1,,,,,シラハマシャチュウ,0
394,2050001051440,新規,0,2022-07-22,2022-07-22,中島装飾株式会社,,株式会社,茨城県,常総市,新石下１６５１番地,,08,211,3002706,,,,,,,2022-07-22,1,,,,,ナカジマソウショク,0
395,2050001051449,新規,0,2022-07-22,2022-07-22,株式会社ＫＵＤＯ,,株式会社,茨城県,つくば市,西岡２４０－１,,08,220,3050832,,,,,,,2022-07-22,1,,,,,クドウ,0
403,2060001035104,新規,0,2022-07-22,2022-07-22,株式会社結ケアリング,,株式会社,栃木県,小山市,若木町３丁目２０番１７号,,09,208,3230028,,,,,,,2022-07-22,1,,,,,ムスビケアリング,0
436,2120001247510,新規,0,2022-07-22,2022-07-22,株式会社ＳＬＧグループ,,株式会社,大阪府,大阪市浪速区,幸町３丁目３－１０－９０２,,27,111,5560021,,,,,,,2022-07-22,1,,,,,エスエルジーグループ,0
437,2120001247519,新規,0,2022-07-22,2022-07-22,株式会社Ｃｌａｎ,,株式会社,大阪府,大阪市中央区,東心斎橋１丁目１９番１８号シンサイドビル３０２号,,27,128,5420083,,,,,,,2022-07-22,1,,,,,クラン,0
441,2120003022077,新規,0,2022-07-22,2022-07-22,合同会社ＯＦＡ　Ｓｐｏｒｔｓ,,合同会社,大阪府,大阪市旭区,清水５丁目１３番３号,,27,117,5350021,,,,,,,2022-07-22,1,,,,,オーエフエースポーツ,0
446,2120101065944,新規,0,2022-07-22,2022-07-22,株式会社ＭＯＮ‐ＫＥＩ,,株式会社,大阪府,松原市,天美東２丁目１２９番地の８３,,27,217,5800032,,,,,,,2022-07-22,1,,,,,モンケイ,0
448,2120105009600,新規,0,2022-07-22,2022-07-22,医療法人おくやまクリニック,,その他の設立登記法人,大阪府,和泉市,観音寺町６５７番地６,,27,219,5940065,,,,,,,2022-07-22,1,,,,,オクヤマクリニック,0
449,2120901046284,新規,0,2022-07-22,2022-07-22,株式会社ティーラボ,,株式会社,大阪府,箕面市,小野原西５丁目６－１０,,27,220,5620032,,,,,,,2022-07-22,1,,,,,ティーラボ,0
452,2122001036091,新規,0,2022-07-22,2022-07-22,スリーインクリィース株式会社,,株式会社,大阪府,東大阪市,稲田新町３丁目１２番２０－７１５号,,27,227,5770004,,,,,,,2022-07-22,1,,,,,スリーインクリィース,0
457,2130001072230,新規,0,2022-07-22,2022-07-22,株式会社ｃｒｅ‐Ａ,,株式会社,京都府,京都市中京区,高倉通二条下る瓦町５４０番地,,26,104,6040827,,,,,,,2022-07-22,1,,,,,クリエ,0
467,2140001126811,新規,0,2022-07-22,2022-07-22,まるくめ株式会社,,株式会社,兵庫県,宝塚市,大吹町１番１８号,,28,214,6650057,,,,,,,2022-07-22,1,,,,,マルクメ,0
468,2140001126836,新規,0,2022-07-22,2022-07-22,ＭｏｔｏＣｏｌａ株式会社,,株式会社,兵庫県,宝塚市,大成町９番１号,,28,214,6650055,,,,,,,2022-07-22,1,,,,,モトコーラ,0
472,2140003017942,新規,0,2022-07-22,2022-07-22,合同会社ＰＨＯ　ＯＨＡＹＯ,,合同会社,兵庫県,姫路市,野里４４４番地１,,28,201,6700811,,,,,,,2022-07-22,1,,,,,フォーオハヨ,0
476,2160003002629,新規,0,2022-07-22,2022-07-22,合同会社ＭＩＴＡＳＵ,,合同会社,滋賀県,野洲市,市三宅１９９４,,25,210,5202362,,,,,,,2022-07-22,1,,,,,ミタス,0
485,2180001152291,新規,0,2022-07-22,2022-07-22,株式会社Ｃ．Ｄｒｅａｍ,,株式会社,愛知県,名古屋市中村区,名駅１丁目１番１号ＪＰタワー名古屋２１階,,23,105,4500002,,,,,,,2022-07-22,1,,,,,シードリーム,0
488,2180003024051,新規,0,2022-07-22,2022-07-22,合同会社ＪＭＳ,,合同会社,愛知県,名古屋市中区,丸の内３丁目６番１１号,,23,106,4600002,,,,,,,2022-07-22,1,,,,,ジェイエムエス,0
491,2180005019859,新規,0,2022-07-22,2022-07-22,一般社団法人名古屋ＦＬＳサポートネットワーク,,その他の設立登記法人,愛知県,名古屋市昭和区,山中町１丁目１１番地,,23,107,4660828,,,,,,,2022-07-22,1,,,,,ナゴヤエフエルエスサポートネットワーク,0
498,2190001029638,新規,0,2022-07-22,2022-07-22,うみらぼ株式会社,,株式会社,三重県,志摩市,阿児町鵜方２４５８番地２,,24,215,5170501,,,,,,,2022-07-22,1,,,,,ウミラボ,0
499,2190003004044,新規,0,2022-07-22,2022-07-22,合同会社ポレポレ,,合同会社,三重県,北牟婁郡紀北町,小山浦４６４番地６１,,24,543,5193407,,,,,,,2022-07-22,1,,,,,ポレポレ,0
507,2240003005722,新規,0,2022-07-22,2022-07-22,合同会社悠,,合同会社,広島県,広島市佐伯区,観音台４丁目２４番２０号,,34,108,7315157,,,,,,,2022-07-22,1,,,,,ユウ,0
516,2270003001421,新規,0,2022-07-22,2022-07-22,合同会社Ｗｉｓｔｅｒｉａ,,合同会社,鳥取県,米子市,両三柳５２４７―３,,31,202,6830853,,,,,,,2022-07-22,1,,,,,ウィステリア,0
524,2290003012739,新規,0,2022-07-22,2022-07-22,合同会社ＤＡＩ　ＰＨＡＴ,,合同会社,福岡県,福岡市南区,大楠１丁目８番１９号アート大楠ビル３０２号,,40,134,8150082,,,,,,,2022-07-22,1,,,,,ダイファット,0
528,2290801028746,新規,0,2022-07-22,2022-07-22,株式会社Ｄ‐ｉｐｐｌｅ,,株式会社,福岡県,北九州市若松区,片山１丁目２番５１号,,40,103,8080106,,,,,,,2022-07-22,1,,,,,ディップル,0
545,2340003003864,新規,0,2022-07-22,2022-07-22,かごしま郡山風力合同会社,,合同会社,鹿児島県,いちき串木野市,西薩町１７番４１,,46,219,8960046,,,,,,,2022-07-22,1,,,,,カゴシマコオリヤマフウリョク,0
549,2360003012186,新規,0,2022-07-22,2022-07-22,合同会社ＳＡＩ,,合同会社,沖縄県,浦添市,当山３丁目１番７号,,47,208,9012104,,,,,,,2022-07-22,1,,,,,サイ,0
557,2380001033001,新規,0,2022-07-22,2022-07-22,株式会社ツーボトル・ＳＥ,,株式会社,福島県,福島市,岡島字向２４番地の２,,07,201,9608201,,,,,,,2022-07-22,1,,,,,ツーボトルエスイー,0
559,2380003005238,新規,0,2022-07-22,2022-07-22,ジュージテック合同会社,,合同会社,福島県,南相馬市,原町区栄町３丁目３６番１号,,07,212,9750003,,,,,,,2022-07-22,1,,,,,ジュージテック,0
576,2490001010237,新規,0,2022-07-22,2022-07-22,株式会社イブキ,,株式会社,高知県,高知市,塩田町２０番２６号,,39,201,7800065,,,,,,,2022-07-22,1,,,,,イブキ,0
589,3010001228215,新規,0,2022-07-22,2022-07-22,ＳＵＰＥＲ　ＣＩＴＹエステート株式会社,,株式会社,東京都,中央区,八丁堀１丁目４番８号森田ビル４階,,13,102,1040032,,,,,,,2022-07-22,1,,,,,スーパーシティエステート,0
590,3010001228264,新規,0,2022-07-22,2022-07-22,株式会社Ｔｅｎｔａｃｉｏｎ,,株式会社,東京都,中央区,銀座１丁目１２－４Ｎ＆ＥＢＬＤ．７階,,13,102,1040061,,,,,,,2022-07-22,1,,,,,テンタシオン,0
600,3010003038208,新規,0,2022-07-22,2022-07-22,ｅｎｉｌ合同会社,,合同会社,東京都,中央区,銀座１丁目１２番４号Ｎ＆ＥＢＬＤ．６Ｆ,,13,102,1040061,,,,,,,2022-07-22,1,,,,,エニール,0
608,3010401168622,新規,0,2022-07-22,2022-07-22,株式会社Ｒｅｍ　Ｓａｌｅｓ,,株式会社,東京都,港区,芝浦２丁目９－１－８０６,,13,103,1080023,,,,,,,2022-07-22,1,,,,,レムセールス,0
617,3010703006331,新規,0,2022-07-22,2022-07-22,合同会社ＳＴＡＲＷＯＯＤ,,合同会社,東京都,品川区,上大崎１丁目１番１７号プライムメゾン白金台白金台タワー２０３号室,,13,109,1410021,,,,,,,2022-07-22,1,,,,,スターウッド,0
625,3011001148766,新規,0,2022-07-22,2022-07-22,株式会社ｃａｄｒｅ,,株式会社,東京都,渋谷区,道玄坂１丁目１０番８号渋谷道玄坂東急ビル２Ｆ－Ｃ,,13,113,1500043,,,,,,,2022-07-22,1,,,,,カドレ,0
626,3011001148782,新規,0,2022-07-22,2022-07-22,株式会社ＧｒｅｅｎＲｕｇ,,株式会社,東京都,渋谷区,神南１丁目１１－３ＰＯＲＴＡＬＰＯＩＮＴＳＨＩＢＵＹＡＦＤ－２４,,13,113,1500041,,,,,,,2022-07-22,1,,,,,グリーンラグ,0
627,3011001148808,新規,0,2022-07-22,2022-07-22,株式会社Ｎｅｕｅ　ｔａｎｚ,,株式会社,東京都,目黒区,鷹番２丁目２０番８号,,13,110,1520004,,,,,,,2022-07-22,1,,,,,ノイエタンツ,0
628,3011003015023,新規,0,2022-07-22,2022-07-22,ＰＲＩＭＡＲＹ合同会社,,合同会社,東京都,渋谷区,恵比寿南３丁目４―１４オーベル代官山ＤＥ７０３号室,,13,113,1500022,,,,,,,2022-07-22,1,,,,,プライマリー,0
629,3011101099612,新規,0,2022-07-22,2022-07-22,株式会社歌語日和,,株式会社,東京都,新宿区,早稲田鶴巻町５４０番地１０,,13,104,1620041,,,,,,,2022-07-22,1,,,,,カゴビヨリ,0
630,3011101099620,新規,0,2022-07-22,2022-07-22,株式会社程運,,株式会社,東京都,新宿区,西新宿３丁目３番１３号西新宿水間ビル６階,,13,104,1600023,,,,,,,2022-07-22,1,,,,,テイウン,0
633,3011401024419,新規,0,2022-07-22,2022-07-22,株式会社ＮＥＩＲＯ,,株式会社,東京都,板橋区,中板橋１２番１号,,13,119,1730016,,,,,,,2022-07-22,1,,,,,ネイロ,0
659,3020001147439,新規,0,2022-07-22,2022-07-22,東京コンソーシアム株式会社,,株式会社,神奈川県,川崎市川崎区,旭町１丁目６番５号,,14,131,2100808,,,,,,,2022-07-22,1,,,,,トウキョウコンソーシアム,0
665,3021001076578,新規,0,2022-07-22,2022-07-22,株式会社ランドグルーブ,,株式会社,神奈川県,藤沢市,本鵠沼４丁目１番２４号,,14,205,2510028,,,,,,,2022-07-22,1,,,,,ランドグルーブ,0
669,3021005012570,新規,0,2022-07-22,2022-07-22,一般社団法人まるわ福祉会,,その他の設立登記法人,神奈川県,茅ヶ崎市,円蔵１３７７番地２,,14,207,2530084,,,,,,,2022-07-22,1,,,,,マルワフクシカイ,0
674,3030001149269,新規,0,2022-07-22,2022-07-22,株式会社結鶴,,株式会社,埼玉県,深谷市,山崎７６３番地,,11,218,3690216,,,,,,,2022-07-22,1,,,,,ユヅル,0
675,3030001149335,新規,0,2022-07-22,2022-07-22,株式会社アイズプラス,,株式会社,埼玉県,戸田市,美女木５丁目４番地の２,,11,224,3350031,,,,,,,2022-07-22,1,,,,,アイズプラス,0
677,3030003019833,新規,0,2022-07-22,2022-07-22,合同会社コエドオフィス,,合同会社,埼玉県,川越市,神明町２１番地２１,,11,201,3500823,,,,,,,2022-07-22,1,,,,,コエドオフィス,0
678,3030003019841,新規,0,2022-07-22,2022-07-22,合同会社シェアーズ,,合同会社,埼玉県,熊谷市,小八林１２３７番地,,11,202,3690103,,,,,,,2022-07-22,1,,,,,シェアーズ,0
686,3040003020468,新規,0,2022-07-22,2022-07-22,サトー理化合同会社,,合同会社,千葉県,八千代市,勝田台４丁目１１番地の９,,12,221,2760023,,,,,,,2022-07-22,1,,,,,サトーリカ,0
687,3040003020484,新規,0,2022-07-22,2022-07-22,合同会社さくら商事,,合同会社,千葉県,千葉市稲毛区,稲毛東３丁目１４番１－１５０７号,,12,103,2630031,,,,,,,2022-07-22,1,,,,,サクラショウジ,0
690,3050001051431,新規,0,2022-07-22,2022-07-22,株式会社桃扇,,株式会社,茨城県,水戸市,河和田町８６４番地の３,,08,201,3114153,,,,,,,2022-07-22,1,,,,,トウセン,0
700,3060003004155,新規,0,2022-07-22,2022-07-22,合同会社Ｗｉｌｃｏ,,合同会社,栃木県,日光市,久次良町２４２番地ＴＯＲＣＨ,,09,206,3211436,,,,,,,2022-07-22,1,,,,,ウィルコ,0
701,3060003004163,新規,0,2022-07-22,2022-07-22,ＴＡ　Ｄｉｇｉｔａｌ　Ｊａｐａｎ合同会社,,合同会社,栃木県,足利市,鹿島町５９７番地１第三鹿島荘１０号室,,09,202,3260844,,,,,,,2022-07-22,1,,,,,ティーエーデジタルジャパン,0
704,3070001039458,新規,0,2022-07-22,2022-07-22,イミ・ある遊び場株式会社,,株式会社,群馬県,渋川市,吹屋４５３番地２,,10,208,3770203,,,,,,,2022-07-22,1,,,,,イミアルアソビバ,0
705,3070001039466,新規,0,2022-07-22,2022-07-22,株式会社青い鳥,,株式会社,群馬県,前橋市,城東町３丁目５番１号サンプラザ４Ｆ,,10,201,3710016,,,,,,,2022-07-22,1,,,,,アオイトリ,0
709,3070003004559,新規,0,2022-07-22,2022-07-22,合同会社ブライト・ＣＥ,,合同会社,群馬県,太田市,新井町３７７番地３３,,10,205,3730852,,,,,,,2022-07-22,1,,,,,ブライトシー,0
717,3110001036830,新規,0,2022-07-22,2022-07-22,株式会社リレイト,,株式会社,新潟県,新潟市秋葉区,小戸下組６２番地２,,15,105,9560007,,,,,,,2022-07-22,1,,,,,リレイト,0
723,3120001247385,新規,0,2022-07-22,2022-07-22,株式会社増井研磨,,株式会社,大阪府,大阪市平野区,加美北９丁目９番１７号,,27,126,5470001,,,,,,,2022-07-22,1,,,,,マスイケンマ,0
724,3120001247492,新規,0,2022-07-22,2022-07-22,未来株式会社,,株式会社,大阪府,大阪市中央区,高津３丁目８－１９スターレジデンス黒門６０１号室,,27,128,5420072,,,,,,,2022-07-22,1,,,,,ミライ,0
725,3120001247501,新規,0,2022-07-22,2022-07-22,株式会社ルラス,,株式会社,大阪府,大阪市北区,梅田１丁目２－２大阪駅前第２ビル２階,,27,127,5300001,,,,,,,2022-07-22,1,,,,,ルラス,0
726,3120001247526,新規,0,2022-07-22,2022-07-22,グローバルフェニックス株式会社,,株式会社,大阪府,大阪市北区,太融寺町２番２１号ニュープラザビル８階,,27,127,5300051,,,,,,,2022-07-22,1,,,,,グローバルフェニックス,0
735,3120003022118,新規,0,2022-07-22,2022-07-22,合同会社ＬＱＬ,,合同会社,大阪府,大阪市西成区,聖天下２丁目３番９号エイト聖天下２０７号室,,27,122,5570012,,,,,,,2022-07-22,1,,,,,エルキューエル,0
736,3120003022126,新規,0,2022-07-22,2022-07-22,合同会社Ｊｆｏｒｅｓｔ,,合同会社,大阪府,大阪市西成区,花園北１丁目７番４号ナニワＩＩＩ番館６０１号,00127294,27,122,5570016,,,,,,,2022-07-22,1,,,,,ジェイフォレスト,0
737,3120005023097,新規,0,2022-07-22,2022-07-22,医療法人三蔵,,その他の設立登記法人,大阪府,大阪市天王寺区,石ケ辻町１４番１４号,,27,109,5430031,,,,,,,2022-07-22,1,,,,,サンゾウ,0
742,3130001072221,新規,0,2022-07-22,2022-07-22,株式会社京都匠,,株式会社,京都府,京都市右京区,北嵯峨北ノ段町３９番地,,26,108,6168441,,,,,,,2022-07-22,1,,,,,キョウトタクミ,0
743,3130001072238,新規,0,2022-07-22,2022-07-22,株式会社きみ伊裕,,株式会社,京都府,京都市下京区,若宮通六条下る若宮町５３９番地６・１階,,26,106,6008314,,,,,,,2022-07-22,1,,,,,キミイユウ,0
745,3130003008066,新規,0,2022-07-22,2022-07-22,合同会社ほうかん,,合同会社,京都府,京都市西京区,御陵大枝山町３丁目１８番地１８,,26,111,6101102,,,,,,,2022-07-22,1,,,,,ホウカン,0
746,3130003008074,新規,0,2022-07-22,2022-07-22,合同会社ＬＩＮＥＦＵＴ,,合同会社,京都府,木津川市,城山台１０丁目１０番地２２号,,26,214,6190218,,,,,,,2022-07-22,1,,,,,ラインフット,0
754,3140001126835,新規,0,2022-07-22,2022-07-22,ＡＸＩＡ　ＰＬＵＳ株式会社,,株式会社,兵庫県,神戸市東灘区,魚崎北町４丁目１３番１６号,,28,101,6580082,,,,,,,2022-07-22,1,,,,,アクシアプラス,0
755,3140001126843,新規,0,2022-07-22,2022-07-22,株式会社ＴＥｔｏＴＥ,,株式会社,兵庫県,養父市,八鹿町国木１３３－１,,28,222,6670044,,,,,,,2022-07-22,1,,,,,テトテ,0
759,3150001025714,新規,0,2022-07-22,2022-07-22,株式会社増田環境,,株式会社,奈良県,大和高田市,日之出町３番１７号,,29,202,6350022,,,,,,,2022-07-22,1,,,,,マスダカンキョウ,0
774,3180001152308,新規,0,2022-07-22,2022-07-22,ファーテック株式会社,,株式会社,愛知県,一宮市,木曽川町内割田字墓東３３８番地１５,,23,203,4930006,,,,,,,2022-07-22,1,,,,,ファーテック,0
798,3250005008762,新規,0,2022-07-22,2022-07-22,弁護士法人小林法律事務所,,その他の設立登記法人,山口県,山口市,黄金町５番９号第二法曹ビル１階,,35,203,7530045,,,,,,,2022-07-22,1,,,,,コバヤシホウリツジムショ,0
802,3260003003987,新規,0,2022-07-22,2022-07-22,合同会社ＭＩＲＩＺＥ,,合同会社,岡山県,岡山市南区,泉田１丁目８番３６号３Ｆ,,33,104,7000944,,,,,,,2022-07-22,1,,,,,ミライズ,0
803,3280003001634,新規,0,2022-07-22,2022-07-22,松江まちづくり合同会社,,合同会社,島根県,松江市,西川津町３０１０番地,,32,201,6900823,,,,,,,2022-07-22,1,,,,,マツエマチヅクリ,0
809,3290003012762,新規,0,2022-07-22,2022-07-22,合同会社みちたび,,合同会社,福岡県,筑紫野市,岡田１丁目４番地３３,,40,217,8180013,,,,,,,2022-07-22,1,,,,,ミチタビ,0
814,3330001029944,新規,0,2022-07-22,2022-07-22,株式会社ＦＵＬＬＨＯＵＳＥ,,株式会社,熊本県,熊本市西区,池上町２８２１番地,,43,103,8600048,,,,,,,2022-07-22,1,,,,,フルハウス,0
822,3340003003863,新規,0,2022-07-22,2022-07-22,合同会社誠乃屋,,合同会社,鹿児島県,霧島市,溝辺町有川１７９番地６,,46,218,8996401,,,,,,,2022-07-22,1,,,,,マコトノヤ,0
828,3380001033000,新規,0,2022-07-22,2022-07-22,株式会社ＳＯＭＡ　ＢＬＵＥ,,株式会社,福島県,相馬市,尾浜字原７７番地の５,,07,209,9760022,,,,,,,2022-07-22,1,,,,,ソウマブルー,0
835,3420001017948,新規,0,2022-07-22,2022-07-22,株式会社ヘルスラボ２１,,株式会社,青森県,弘前市,大字早稲田３丁目９番地１１,,02,202,0368087,,,,,,,2022-07-22,1,,,,,ヘルスラボニジュウイチ,0
839,3430001087098,新規,0,2022-07-22,2022-07-22,ｍｃｓ株式会社,,株式会社,北海道,札幌市南区,真駒内緑町３丁目２番２－２０１号,,01,106,0050013,,,,,,,2022-07-22,1,,,,,エムシーエス,0
841,3430005014503,新規,0,2022-07-22,2022-07-22,一般社団法人北海道相続支援協会,,その他の設立登記法人,北海道,札幌市中央区,大通東３丁目１番地丸美ビル３階,,01,101,0600041,,,,,,,2022-07-22,1,,,,,ホッカイドウソウゾクシエンキョウカイ,0
843,3460001005718,新規,0,2022-07-22,2022-07-22,株式会社Ｍａｓｈｕ　Ｆａｒｍ,,株式会社,北海道,川上郡弟子屈町,字仁多１４－１,,01,665,0883223,,,,,,,2022-07-22,1,,,,,マシュウファーム,0
850,3470005006455,新規,0,2022-07-22,2022-07-22,一般社団法人全日本ｅ‐ｓｐｏｒｔｓ協会,,その他の設立登記法人,香川県,高松市,中野町２３番１号,,37,201,7600008,,,,,,,2022-07-22,1,,,,,ゼンニホンイースポーツキョウカイ,0
865,4010001228239,新規,0,2022-07-22,2022-07-22,株式会社ｌｅｔｏｎ,,株式会社,東京都,中央区,銀座４丁目１０番２号－２Ｆ,,13,102,1040061,,,,,,,2022-07-22,1,,,,,レトン,0
866,4010001228255,新規,0,2022-07-22,2022-07-22,Ｊａｚｚｙ　Ｂｕｓｉｎｅｓｓ　Ｃｏｎｓｕｌｔｉｎｇ株式会社,,株式会社,東京都,中央区,日本橋茅場町１丁目８番１号,,13,102,1030025,,,,,,,2022-07-22,1,,,,,ジャジービジネスコンサルティング,0
870,4010003038215,新規,0,2022-07-22,2022-07-22,ＧＢ　Ｍｏｖａｂｌｅ　Ｐｒｏｐｅｒｔｙ　Ｉｎｖｅｓｔｍｅｎｔ１号合同会社,,合同会社,東京都,千代田区,永田町２丁目１７－４笠松千代田ビル５Ｆ,,13,101,1000014,,,,,,,2022-07-22,1,,,,,ジービームーバブルプロパティインベストメントイチゴウ,0
874,4010005035301,新規,0,2022-07-22,2022-07-22,一般社団法人Ｔｒｉｌｏｇｙ,,その他の設立登記法人,東京都,中央区,日本橋１丁目４番１号,,13,102,1030027,,,,,,,2022-07-22,1,,,,,トリロジー,0
883,4010405021223,新規,0,2022-07-22,2022-07-22,Ａｓｌａｎ一般社団法人,,その他の設立登記法人,東京都,港区,虎ノ門４丁目１番２８号,,13,103,1050001,,,,,,,2022-07-22,1,,,,,アスラン,0
889,4010601061527,新規,0,2022-07-22,2022-07-22,株式会社ｇｏｒａｃｒｅ８,,株式会社,東京都,墨田区,向島５丁目４５番１０号,,13,107,1310033,,,,,,,2022-07-22,1,,,,,ゴラクリエイト,0
901,4011001148765,新規,0,2022-07-22,2022-07-22,株式会社Ｍｅｔａ　Ｄｒｉｖｅ,,株式会社,東京都,渋谷区,恵比寿１丁目２３－６－５０３,,13,113,1500013,,,,,,,2022-07-22,1,,,,,メタドライブ,0
902,4011001148807,新規,0,2022-07-22,2022-07-22,株式会社エバーラスティング,,株式会社,東京都,渋谷区,宇田川町３番３－１２０１号,,13,113,1500042,,,,,,,2022-07-22,1,,,,,エバーラスティング,0
915,4012401039447,新規,0,2022-07-22,2022-07-22,株式会社シームプロジェクト,,株式会社,東京都,三鷹市,下連雀３丁目９番２号,,13,204,1810013,,,,,,,2022-07-22,1,,,,,シームプロジェクト,0
916,4012403005496,新規,0,2022-07-22,2022-07-22,合同会社タビー,,合同会社,東京都,武蔵野市,境１丁目６番２号,,13,203,1800022,,,,,,,2022-07-22,1,,,,,タビー,0
920,4013301049404,新規,0,2022-07-22,2022-07-22,株式会社ブライト・バリュー,,株式会社,東京都,豊島区,駒込６丁目７番９号,,13,116,1700003,,,,,,,2022-07-22,1,,,,,ブライトバリュー,0
924,4020001147371,新規,0,2022-07-22,2022-07-22,株式会社Ｏ‐Ｒｉｓｅ,,株式会社,神奈川県,横浜市中区,桜木町２丁目２ＴＨＥＨＵＢ横浜桜木町４０７号室,,14,104,2310062,,,,,,,2022-07-22,1,,,,,,0
930,4021001076577,新規,0,2022-07-22,2022-07-22,ＬＨＩ株式会社,,株式会社,神奈川県,鎌倉市,小町１丁目１１番９号,,14,204,2480006,,,,,,,2022-07-22,1,,,,,エルエイチアイ,0
935,4030001149359,新規,0,2022-07-22,2022-07-22,株式会社エフ・ジェイ・シー,,株式会社,埼玉県,行田市,佐間１丁目３０番１３号,,11,206,3610032,,,,,,,2022-07-22,1,,,,,エフジェイシー,0
938,4030003019832,新規,0,2022-07-22,2022-07-22,合同会社清涼理,,合同会社,埼玉県,入間市,豊岡５丁目２番３５－５０５号,,11,225,3580003,,,,,,,2022-07-22,1,,,,,セイリョウリ,0
939,4030003019840,新規,0,2022-07-22,2022-07-22,合同会社アンジュ,,合同会社,埼玉県,吉川市,大字保５２４番地３レックスハイム吉川５１０号,,11,243,3420041,,,,,,,2022-07-22,1,,,,,アンジュ,0
942,4040001124360,新規,0,2022-07-22,2022-07-22,株式会社Ｐａｓｃａｌ,,株式会社,千葉県,柏市,大井１８７２番地２,,12,217,2770902,,,,,,,2022-07-22,1,,,,,パスカル,0
943,4040001124385,新規,0,2022-07-22,2022-07-22,株式会社Ｓｔｒｉｖｅ　Ｔｒａｄｉｎｇ,,株式会社,千葉県,千葉市中央区,本町２丁目１－１８,,12,101,2600012,,,,,,,2022-07-22,1,,,,,ストライブトレーディング,0
946,4040003020467,新規,0,2022-07-22,2022-07-22,日越連結合同会社,,合同会社,千葉県,野田市,尾崎７３番地の２大和屋１階,,12,208,2700235,,,,,,,2022-07-22,1,,,,,ニチエツレンケツ,0
947,4040003020483,新規,0,2022-07-22,2022-07-22,合同会社ＴＯＤＯＲＯＫＩ,,合同会社,千葉県,松戸市,秋山４１６番地の６４,,12,207,2702223,,,,,,,2022-07-22,1,,,,,トドロキ,0
948,4050001051447,新規,0,2022-07-22,2022-07-22,株式会社タクミファーム,,株式会社,茨城県,鉾田市,下冨田９７６番地２０,,08,234,3111533,,,,,,,2022-07-22,1,,,,,タクミファーム,0
956,4060001035102,新規,0,2022-07-22,2022-07-22,株式会社ストップタイム・テクノロジー,,株式会社,栃木県,宇都宮市,陽東１丁目６番１号,,09,201,3210904,,,,,,,2022-07-22,1,,,,,ストップタイムテクノロジー,0
967,4070001039449,新規,0,2022-07-22,2022-07-22,株式会社Ｄ‐ｅｃｔ,,株式会社,群馬県,前橋市,荒牧町１丁目３８番地１２,,10,201,3710044,,,,,,,2022-07-22,1,,,,,ディーエクト,0
975,4120001247335,新規,0,2022-07-22,2022-07-22,株式会社ＭｅｔａＣｌｅｒｋｓ,,株式会社,大阪府,大阪市中央区,平野町１丁目７番１号堺筋高橋ビル,00127288,27,128,5410046,,,,,,,2022-07-22,1,,,,,メタクラークス,0
976,4120001247450,新規,0,2022-07-22,2022-07-22,壹合株式会社,,株式会社,大阪府,大阪市生野区,新今里３丁目４番１７号シャトー第４今里６０９Ｂ,,27,116,5440001,,,,,,,2022-07-22,1,,,,,イチゴウ,0
977,4120001247483,新規,0,2022-07-22,2022-07-22,株式会社イーエルネクスト,,株式会社,大阪府,大阪市西区,西本町１丁目１１番７号３Ｆ,,27,106,5500005,,,,,,,2022-07-22,1,,,,,イーエルネクスト,0
978,4120001247491,新規,0,2022-07-22,2022-07-22,株式会社豊吉,,株式会社,大阪府,大阪市中央区,谷町６丁目３－１２プレアール谷町４０５号室,,27,128,5420012,,,,,,,2022-07-22,1,,,,,トヨキチ,0
979,4120001247509,新規,0,2022-07-22,2022-07-22,株式会社ｇａｒｄｅｎ,,株式会社,大阪府,大阪市天王寺区,生玉町１番３０号,,27,109,5430071,,,,,,,2022-07-22,1,,,,,ガーデン,0
980,4120001247517,新規,0,2022-07-22,2022-07-22,株式会社トップエステート,,株式会社,大阪府,大阪市福島区,鷺洲３丁目６番１０－１０１０号,,27,103,5530002,,,,,,,2022-07-22,1,,,,,トップエステート,0
981,4120001247525,新規,0,2022-07-22,2022-07-22,株式会社Ｇ’ＡＨＲＣ,,株式会社,大阪府,大阪市北区,梅田１丁目１番３号大阪駅前第３ビル２３０７,,27,127,5300001,,,,,,,2022-07-22,1,,,,,ジーアーク,0
982,4120001247566,新規,0,2022-07-22,2022-07-22,株式会社光美ライフケアサポート,,株式会社,大阪府,大阪市平野区,喜連２丁目５番８１号ＰＬＡＩＳＩＲＩＩ３０３号室,00127293,27,126,5470027,,,,,,,2022-07-22,1,,,,,ミツミライフケアサポート,0
983,4120003022109,新規,0,2022-07-22,2022-07-22,合同会社日本良品,,合同会社,大阪府,大阪市阿倍野区,西田辺町１丁目６番３号,,27,119,5450014,,,,,,,2022-07-22,1,,,,,ニホンリョウヒン,0
994,4120101065950,新規,0,2022-07-22,2022-07-22,株式会社エピセ,,株式会社,大阪府,堺市中区,大野芝町２３９５番地５,,27,142,5998233,,,,,,,2022-07-22,1,,,,,エピセ,0
995,4120103004790,新規,0,2022-07-22,2022-07-22,Ｌｉｄｏ合同会社,,合同会社,大阪府,堺市北区,金岡町１６０５番地１－１－６０８号,,27,146,5918022,,,,,,,2022-07-22,1,,,,,リド,0
1002,4130001072195,新規,0,2022-07-22,2022-07-22,ＭＳホールディングス株式会社,,株式会社,京都府,福知山市,土師宮町１丁目９３番地,,26,201,6200856,,,,,,,2022-07-22,1,,,,,エムエスホールディングス,0
1003,4130001072237,新規,0,2022-07-22,2022-07-22,株式会社万成,,株式会社,京都府,京都市南区,上鳥羽南唐戸町７番地Ｋビル７０１号,,26,107,6018107,,,,,,,2022-07-22,1,,,,,マンセイ,0
1006,4130003008073,新規,0,2022-07-22,2022-07-22,合同会社アスターワン福知山,,合同会社,京都府,福知山市,三和町千束３番地９,,26,201,6201442,,,,,,,2022-07-22,1,,,,,アスターワンフクチヤマ,0
1010,4140001126818,新規,0,2022-07-22,2022-07-22,株式会社ＲｅＦＯＲＳ,,株式会社,兵庫県,明石市,大明石町２丁目４番１８号信友ビルディング４０１号,,28,203,6730891,,,,,,,2022-07-22,1,,,,,リフォルス,0
1013,4140003017940,新規,0,2022-07-22,2022-07-22,合同会社Ｓ‐Ｃｏｎｎｅｃｔ,,合同会社,兵庫県,川西市,平野１丁目１７番２－６号,,28,217,6660121,,,,,,,2022-07-22,1,,,,,エスコネクト,0
1031,4180001152298,新規,0,2022-07-22,2022-07-22,融和貿易株式会社,,株式会社,愛知県,名古屋市東区,矢田４丁目１７－４７,,23,102,4610040,,,,,,,2022-07-22,1,,,,,ユウワボウエキ,0
1040,4180301036457,新規,0,2022-07-22,2022-07-22,株式会社ＡＪＳＳ,,株式会社,愛知県,安城市,榎前町南榎１４番地１,,23,212,4441214,,,,,,,2022-07-22,1,,,,,エージェイエスエス,0
1045,4210005010044,新規,0,2022-07-22,2022-07-22,一般社団法人Ｂａｓｅｂａｌｌ　Ｌａｂｏ　ＦＵＫＵＩ,,その他の設立登記法人,福井県,福井市,二の宮３丁目６番２４号,,18,201,9100015,,,,,,,2022-07-22,1,,,,,ベースボールラボフクイ,0
1050,4240003005720,新規,0,2022-07-22,2022-07-22,合同会社せとうちファーム,,合同会社,広島県,尾道市,日比崎町１番１６号,,34,205,7220013,,,,,,,2022-07-22,1,,,,,セトウチファーム,0
1056,4260003003986,新規,0,2022-07-22,2022-07-22,合同会社ビオン,,合同会社,岡山県,倉敷市,玉島中央町２丁目８番２０号,,33,202,7138122,,,,,,,2022-07-22,1,,,,,ビオン,0
1059,4280003001633,新規,0,2022-07-22,2022-07-22,合同会社橋本屋,,合同会社,島根県,浜田市,宇野町２１３－１,,32,202,6950102,,,,,,,2022-07-22,1,,,,,ハシモトヤ,0
1064,4290005018757,新規,0,2022-07-22,2022-07-22,ＮＰＯ法人えんげき広場ｃｕｅ,,その他の設立登記法人,福岡県,筑紫野市,紫１丁目１３番１－３０５号,,40,217,8180061,,,,,,,2022-07-22,1,,,,,エンゲキヒロバキュー,0
1084,4350001017863,新規,0,2022-07-22,2022-07-22,株式会社相武造林,,株式会社,宮崎県,小林市,細野１６９５番地１,,45,205,8860004,,,,,,,2022-07-22,1,,,,,アイブゾウリン,0
1086,4360001030717,新規,0,2022-07-22,2022-07-22,＿也株式会社,00127295,株式会社,沖縄県,那覇市,首里久場川町２丁目８番地１４,,47,201,9030807,,,,,,,2022-07-22,1,,,,,キンナリ,0
1102,4430001087106,新規,0,2022-07-22,2022-07-22,株式会社ユウキワールド,,株式会社,北海道,札幌市北区,屯田九条２丁目７番１７－１０２号,,01,102,0020859,,,,,,,2022-07-22,1,,,,,ユウキワールド,0
1103,4430001087114,新規,0,2022-07-22,2022-07-22,株式会社オポジット,,株式会社,北海道,札幌市厚別区,大谷地東２丁目５番１６号ヴィラ大谷地Ｂ２０１,,01,108,0040041,,,,,,,2022-07-22,1,,,,,オポジット,0
1104,4430001087130,新規,0,2022-07-22,2022-07-22,株式会社ＳＵＢＭＡＲＫ,,株式会社,北海道,札幌市中央区,南二条西２３丁目１番２７－４０４号,,01,101,0640802,,,,,,,2022-07-22,1,,,,,サブマーク,0
1113,4470001019170,新規,0,2022-07-22,2022-07-22,ＥＮＥＲＯＯＴ株式会社,,株式会社,香川県,高松市,上林町３２０番地１６,,37,201,7610302,,,,,,,2022-07-22,1,,,,,エネルート,0
1116,4470003002216,新規,0,2022-07-22,2022-07-22,合同会社池見会計事務所,,合同会社,香川県,高松市,中央町１番５号,,37,201,7600007,,,,,,,2022-07-22,1,,,,,イケミカイケイジムショ,0
1117,4500001024349,新規,0,2022-07-22,2022-07-22,株式会社孝,,株式会社,愛媛県,松山市,安城寺町２１番地１８,,38,201,7918006,,,,,,,2022-07-22,1,,,,,コウ,0
1132,5010005035283,新規,0,2022-07-22,2022-07-22,一般財団法人ハイネセン多文化支援財団,,その他の設立登記法人,東京都,千代田区,丸の内１丁目６番２号新丸の内センタービルディング１８階ゾンデルホフ＆アインゼル法律特許事務所内,,13,101,1000005,,,,,,,2022-07-22,1,,,,,ハイネセンタブンカシエンザイダン,0
1133,5010103001955,新規,0,2022-07-22,2022-07-22,合同会社ユスティ,,合同会社,東京都,八王子市,寺町５２番地２Ｎ－ｓｔａｇｅ八王子１２０４号,,13,201,1920073,,,,,,,2022-07-22,1,,,,,ユスティ,0
1144,5010401168298,新規,0,2022-07-22,2022-07-22,Ｔｌａｂｓ株式会社,,株式会社,東京都,港区,西新橋１丁目１－１日比谷ＦＯＲＴ・ＴＯＷＥＲ１０Ｆ,,13,103,1050003,,,,,,,2022-07-22,1,,,,,ティーラボス,0
1145,5010401168678,新規,0,2022-07-22,2022-07-22,株式会社みらく,,株式会社,東京都,港区,赤坂４丁目８番１９号赤坂フロントタウン３階,,13,103,1070052,,,,,,,2022-07-22,1,,,,,ミラク,0
1146,5010503006661,新規,0,2022-07-22,2022-07-22,ノックス合同会社,,合同会社,東京都,台東区,台東１丁目２９番３－３０４号イースタンクロスアキバ,,13,106,1100016,,,,,,,2022-07-22,1,,,,,ノックス,0
1149,5010701042987,新規,0,2022-07-22,2022-07-22,株式会社Ｓｔｕｍｐ,,株式会社,東京都,品川区,東品川１丁目２９番地２４号ＣＯＣＯＣＵＢＥ北品川４０１号室,,13,109,1400002,,,,,,,2022-07-22,1,,,,,スタンプ,0
1150,5010705003390,新規,0,2022-07-22,2022-07-22,一般社団法人福岡牧場,,その他の設立登記法人,東京都,品川区,上大崎３丁目１番１号目黒セントラルスクエア１５階,,13,109,1410021,,,,,,,2022-07-22,1,,,,,フクオカボクジョウ,0
1155,5010901051276,新規,0,2022-07-22,2022-07-22,ＡＹＷＤ株式会社,,株式会社,東京都,世田谷区,北沢２丁目１１－１５ミカン下北Ａ街区４Ｆ,,13,112,1550031,,,,,,,2022-07-22,1,,,,,エニウェアドア,0
1156,5010903007532,新規,0,2022-07-22,2022-07-22,合同会社ｅｃｈｏ,,合同会社,東京都,世田谷区,瀬田２丁目８－４,,13,112,1580095,,,,,,,2022-07-22,1,,,,,エコー,0
1160,5011001148756,新規,0,2022-07-22,2022-07-22,株式会社Ｔサポート,,株式会社,東京都,渋谷区,渋谷２丁目１９番１５号宮益坂ビルディング６０９,,13,113,1500002,,,,,,,2022-07-22,1,,,,,ティーサポート,0
1170,5011101099610,新規,0,2022-07-22,2022-07-22,Ｌａｒｋ　Ｊａｐａｎ株式会社,,株式会社,東京都,新宿区,西新宿２丁目６番１号新宿住友ビル１８階,,13,104,1600023,,,,,,,2022-07-22,1,,,,,ラークジャパン,0
1171,5011103012001,新規,0,2022-07-22,2022-07-22,合同会社丸西ホールディングス,,合同会社,東京都,新宿区,下宮比町１番４号,,13,104,1620822,,,,,,,2022-07-22,1,,,,,マルニシホールディングス,0
1174,5011603003656,新規,0,2022-07-22,2022-07-22,合同会社ＮｉｃｅＴｒａｄｅ,,合同会社,東京都,練馬区,石神井町２丁目１５番８号グリーンフォレストＩＩ１１０１,00127289,13,120,1770041,,,,,,,2022-07-22,1,,,,,ナイストレード,0
1184,5012301013071,新規,0,2022-07-22,2022-07-22,株式会社コーサツ,,株式会社,東京都,町田市,相原町１６４３番地３,,13,209,1940211,,,,,,,2022-07-22,1,,,,,コーサツ,0
1185,5012401039446,新規,0,2022-07-22,2022-07-22,株式会社ＺＥＮＴＯ,,株式会社,東京都,府中市,西原町３丁目２０－２６,,13,206,1830046,,,,,,,2022-07-22,1,,,,,ゼント,0
1186,5012403005495,新規,0,2022-07-22,2022-07-22,キングホームズ合同会社,,合同会社,東京都,武蔵野市,西久保２丁目３０番２号,,13,203,1800013,,,,,,,2022-07-22,1,,,,,キングホームズ,0
1191,5012705002315,新規,0,2022-07-22,2022-07-22,特定非営利活動法人リトルリーグ東京連盟,,その他の設立登記法人,東京都,東久留米市,南沢５丁目１９番２４－１２０２号,,13,222,2030023,,,,,,,2022-07-22,1,,,,,リトルリーグトウキョウレンメイ,0
1192,5012801021739,新規,0,2022-07-22,2022-07-22,株式会社オリ,,株式会社,東京都,国分寺市,並木町１丁目２３番地６７,,13,214,1850005,,,,,,,2022-07-22,1,,,,,オリ,0
1206,5021001076576,新規,0,2022-07-22,2022-07-22,ガジマスドインターナショナル株式会社,,株式会社,神奈川県,相模原市中央区,上溝２２８５－１,,14,152,2520243,,,,,,,2022-07-22,1,,,,,ガジマスドインターナショナル,0
1211,5030001149309,新規,0,2022-07-22,2022-07-22,技術技能教育センター株式会社,,株式会社,埼玉県,八潮市,大字大曽根８０３番地,,11,234,3400834,,,,,,,2022-07-22,1,,,,,ギジュツギノウキョウイク,0
1212,5030001149333,新規,0,2022-07-22,2022-07-22,株式会社ＬＯＣＡＬ　ＢＡＳＥ,,株式会社,埼玉県,さいたま市大宮区,宮町１丁目７８番地の１,,11,103,3300802,,,,,,,2022-07-22,1,,,,,ローカルベース,0
1213,5030001149341,新規,0,2022-07-22,2022-07-22,株式会社ｓｃｏｒｔａ,,株式会社,埼玉県,所沢市,並木３丁目１番地１２－８０６,,11,208,3590042,,,,,,,2022-07-22,1,,,,,スコルタ,0
1215,5030003019831,新規,0,2022-07-22,2022-07-22,合同会社ＨＩＲＯ,,合同会社,埼玉県,春日部市,東中野１６３５番地８４,,11,214,3440114,,,,,,,2022-07-22,1,,,,,ヒロ,0
1216,5030003019848,新規,0,2022-07-22,2022-07-22,合同会社デントサポート,,合同会社,埼玉県,志木市,本町５丁目２１番５６－５０１号,,11,228,3530004,,,,,,,2022-07-22,1,,,,,デントサポート,0
1222,5040001124376,新規,0,2022-07-22,2022-07-22,ＹＥＨＹＡ　ＴＲＡＤＩＮＧ株式会社,,株式会社,千葉県,山武市,木原１４６６番地２０,,12,237,2891212,,,,,,,2022-07-22,1,,,,,ヤヒヤトレーディング,0
1225,5040003020474,新規,0,2022-07-22,2022-07-22,合同会社石井,,合同会社,千葉県,成田市,公津の杜４丁目１番地２（Ｃ棟２１２号室）,,12,211,2860048,,,,,,,2022-07-22,1,,,,,イシイ,0
1226,5040003020482,新規,0,2022-07-22,2022-07-22,合同会社リエゾン,,合同会社,千葉県,船橋市,本町６丁目３番１０号,,12,204,2730005,,,,,,,2022-07-22,1,,,,,リエゾン,0
1227,5040005021685,新規,0,2022-07-22,2022-07-22,医療法人社団かがやき会,,その他の設立登記法人,千葉県,船橋市,宮本２丁目１番１８号,,12,204,2730003,,,,,,,2022-07-22,1,,,,,,0
1238,5050003006687,新規,0,2022-07-22,2022-07-22,ＳＫＰ　ＩＮＴＥＲＮＡＴＩＯＮＡＬ合同会社,,合同会社,茨城県,下妻市,山尻４７番地,,08,210,3040045,,,,,,,2022-07-22,1,,,,,エスケーピーインターナショナル,0
1247,5060001035101,新規,0,2022-07-22,2022-07-22,株式会社フルネスケアライフ,,株式会社,栃木県,宇都宮市,細谷１丁目７番８号,,09,201,3200073,,,,,,,2022-07-22,1,,,,,フルネスケアライフ,0
1250,5060003004161,新規,0,2022-07-22,2022-07-22,合同会社４ｔｈｅ２１ｓｔ　Ｊａｐａｎ,,合同会社,栃木県,真岡市,熊倉２丁目２６番地３,,09,209,3214369,,,,,,,2022-07-22,1,,,,,フォーザトゥエンティーファーストジャパン,0
1254,5070001039456,新規,0,2022-07-22,2022-07-22,株式会社新道,,株式会社,群馬県,館林市,野辺町８２２番地の２ＳＡＺＡＮＫＡハイツ野辺－１０３,,10,207,3740047,,,,,,,2022-07-22,1,,,,,シンドウ,0
1261,5100003006632,新規,0,2022-07-22,2022-07-22,ＫｙｏＹｏ合同会社,,合同会社,長野県,小諸市,大字御影新田２４５４－５７,,20,208,3840808,,,,,,,2022-07-22,1,,,,,キョウヨウ,0
1262,5110001036837,新規,0,2022-07-22,2022-07-22,株式会社ＺＹＲＱ,,株式会社,新潟県,長岡市,城内町３丁目４番地１４,,15,202,9400061,,,,,,,2022-07-22,1,,,,,ジルク,0
1272,5120001247516,新規,0,2022-07-22,2022-07-22,株式会社ＬＴＳ,,株式会社,大阪府,大阪市西区,南堀江４丁目８番２－７０４号,,27,106,5500015,,,,,,,2022-07-22,1,,,,,エルティーエス,0
1273,5120001247524,新規,0,2022-07-22,2022-07-22,雪出日和株式会社,,株式会社,大阪府,大阪市淀川区,田川北２丁目５－３４・Ｄ棟２０１号室,,27,123,5320021,,,,,,,2022-07-22,1,,,,,ユキデビヨリ,0
1274,5120001247532,新規,0,2022-07-22,2022-07-22,株式会社セントラルラボ,,株式会社,大阪府,大阪市北区,曾根崎新地１丁目７番８号,,27,127,5300002,,,,,,,2022-07-22,1,,,,,セントラルラボ,0
1275,5120001247573,新規,0,2022-07-22,2022-07-22,株式会社ジャスティ,,株式会社,大阪府,大阪市西区,北堀江３丁目１２番１１号,,27,106,5500014,,,,,,,2022-07-22,1,,,,,ジャスティ,0
1278,5120003022116,新規,0,2022-07-22,2022-07-22,合同会社Ｌｅｎｇａ,,合同会社,大阪府,寝屋川市,三井が丘１丁目５番１０－３０４号,,27,215,5720013,,,,,,,2022-07-22,1,,,,,レンガ,0
1279,5120003022124,新規,0,2022-07-22,2022-07-22,日港商事合同会社,,合同会社,大阪府,大阪市平野区,平野西５丁目９－２８コバルト平野駅前４０１室,,27,126,5470033,,,,,,,2022-07-22,1,,,,,ニッコウショウジ,0
1282,5120901046281,新規,0,2022-07-22,2022-07-22,東儀株式会社,,株式会社,大阪府,吹田市,朝日町１６－３朝日町ミニハイツ,,27,205,5640027,,,,,,,2022-07-22,1,,,,,トウギ,0
1284,5122003002386,新規,0,2022-07-22,2022-07-22,良心コンサルティング合同会社,,合同会社,大阪府,東大阪市,高井田中４丁目１番２８号,,27,227,5770065,,,,,,,2022-07-22,1,,,,,リョウシンコンサルティング,0
1290,5130001072228,新規,0,2022-07-22,2022-07-22,株式会社ライフシップ,,株式会社,京都府,京都市中京区,釜座町４－１京都三条スクエアビル４階,,26,104,6040000,,,,,,,2022-07-22,1,,,,,ライフシップ,0
1291,5130001072244,新規,0,2022-07-22,2022-07-22,株式会社パキラホーム,,株式会社,京都府,京田辺市,草内五反田４２ー３０２,,26,211,6100311,,,,,,,2022-07-22,1,,,,,パキラホーム,0
1293,5130003008072,新規,0,2022-07-22,2022-07-22,合同会社ポーラーデザイン,,合同会社,京都府,京都市中京区,今新在家西町２９－３,,26,104,6048801,,,,,,,2022-07-22,1,,,,,ポーラーデザイン,0
1305,5140001126833,新規,0,2022-07-22,2022-07-22,株式会社ＳＴＫｐｌａｎｎｉｎｇ,,株式会社,兵庫県,神戸市中央区,下山手通１丁目３番８号,,28,110,6500011,,,,,,,2022-07-22,1,,,,,エスティーケープランニング,0
1309,5150001025712,新規,0,2022-07-22,2022-07-22,晋栄運輸株式会社,,株式会社,奈良県,生駒市,小平尾町３８６番地１第６サンコウヒルズ北館１０３号室,,29,209,6300226,,,,,,,2022-07-22,1,,,,,シンエイウンユ,0
1310,5150003002734,新規,0,2022-07-22,2022-07-22,合同会社エヌ,,合同会社,奈良県,奈良市,下三条町３４番地３０１,,29,201,6308236,,,,,,,2022-07-22,1,,,,,エヌ,0
1312,5160003002626,新規,0,2022-07-22,2022-07-22,合同会社ＧＲＡＹ,,合同会社,滋賀県,大津市,木戸１７０６番地の７,,25,201,5200514,,,,,,,2022-07-22,1,,,,,グレイ,0
1325,5180003024065,新規,0,2022-07-22,2022-07-22,合同会社ドリーム,,合同会社,愛知県,名古屋市千種区,池下１丁目６番６号ナビオ池下１Ｆ,,23,101,4640067,,,,,,,2022-07-22,1,,,,,ドリーム,0
1330,5190001029635,新規,0,2022-07-22,2022-07-22,リモグラヴィティ株式会社,,株式会社,三重県,伊勢市,船江４丁目８番１９号,,24,203,5160008,,,,,,,2022-07-22,1,,,,,リモグラヴィティ,0
1333,5210001019014,新規,0,2022-07-22,2022-07-22,株式会社イエぴか,,株式会社,福井県,敦賀市,長沢２８号４番地の１,,18,202,9140046,,,,,,,2022-07-22,1,,,,,イエピカ,0
1352,5330005010535,新規,0,2022-07-22,2022-07-22,ＮＰＯ法人若竹の会,,その他の設立登記法人,熊本県,上益城郡山都町,下市１６８番地,,43,447,8613513,,,,,,,2022-07-22,1,,,,,ワカタケノカイ,0
1356,5370001048823,新規,0,2022-07-22,2022-07-22,株式会社Ｍａｒｋｓ,,株式会社,宮城県,仙台市宮城野区,萩野町２丁目２０番８号２０２,,04,102,9830043,,,,,,,2022-07-22,1,,,,,マークス,0
1357,5370001048831,新規,0,2022-07-22,2022-07-22,一級建築士事務所プランニングメイト株式会社,,株式会社,宮城県,仙台市若林区,河原町１丁目３番６０－２０２号,,04,103,9840816,,,,,,,2022-07-22,1,,,,,イッキュウケンチクシジムショプランニングメイト,0
1368,5410003003689,新規,0,2022-07-22,2022-07-22,嵐山運輸合同会社,,合同会社,秋田県,秋田市,御野場新町３丁目７番２号,,05,201,0101425,,,,,,,2022-07-22,1,,,,,アラシヤマウンユ,0
1371,5430001087121,新規,0,2022-07-22,2022-07-22,株式会社ＡＴ,,株式会社,北海道,札幌市豊平区,月寒中央通６丁目３番２３－１００５号,,01,105,0620020,,,,,,,2022-07-22,1,,,,,エーティー,0
1375,5450001013752,新規,0,2022-07-22,2022-07-22,株式会社Ｖｅｒｏｎｉｃａ,,株式会社,北海道,旭川市,三条通８丁目１７０５番地の５９,,01,204,0700033,,,,,,,2022-07-22,1,,,,,ベロニカ,0
1403,6010001228220,新規,0,2022-07-22,2022-07-22,株式会社ｓｏｉｎ,,株式会社,東京都,中央区,銀座１丁目７番７号,,13,102,1040061,,,,,,,2022-07-22,1,,,,,ソワン,0
1404,6010001228261,新規,0,2022-07-22,2022-07-22,ＭＵＷＡソリューション株式会社,,株式会社,東京都,中央区,銀座４丁目８番２号三福ビル３Ｆ,,13,102,1040061,,,,,,,2022-07-22,1,,,,,ミューワソリューション,0
1405,6010001228278,新規,0,2022-07-22,2022-07-22,株式会社タクスリンク,,株式会社,東京都,千代田区,神田須田町２丁目２５番地Ｇｙｂ秋葉原４Ｆ,,13,101,1010041,,,,,,,2022-07-22,1,,,,,タクスリンク,0
1407,6010005035290,新規,0,2022-07-22,2022-07-22,Ｐｈｏｅｎｉｘ特定目的会社,,その他の設立登記法人,東京都,千代田区,丸の内３丁目１番１号東京共同会計事務所内,,13,101,1000005,,,,,,,2022-07-22,1,,,,,フェニックス,0
1410,6010401168586,新規,0,2022-07-22,2022-07-22,イーディーエフ・ジャパン株式会社,,株式会社,東京都,港区,虎ノ門１丁目１６番４号アーバン虎ノ門ビル５階,,13,103,1050001,,,,,,,2022-07-22,1,,,,,イーディーエフジャパン,0
1416,6010601061525,新規,0,2022-07-22,2022-07-22,株式会社グローリー,,株式会社,東京都,江東区,木場２丁目６番７－９０３号,,13,108,1350042,,,,,,,2022-07-22,1,,,,,グローリー,0
1417,6010601061533,新規,0,2022-07-22,2022-07-22,株式会社カップス,,株式会社,東京都,江東区,亀戸１丁目３５番１３号７０２号室,,13,108,1360071,,,,,,,2022-07-22,1,,,,,カップス,0
1420,6010701042986,新規,0,2022-07-22,2022-07-22,株式会社ＳａｌｕｄＴＥＣ,,株式会社,東京都,品川区,東大井６丁目１４番９－３０１号,,13,109,1400011,,,,,,,2022-07-22,1,,,,,サルーテック,0
1422,6010705003381,新規,0,2022-07-22,2022-07-22,一般社団法人スパセラピスト協会,,その他の設立登記法人,東京都,品川区,上大崎３丁目５番２号,,13,109,1410021,,,,,,,2022-07-22,1,,,,,スパセラピストキョウカイ,0
1431,6011001148813,新規,0,2022-07-22,2022-07-22,株式会社ＴａｍａＬａｂｏ,,株式会社,東京都,渋谷区,神宮前６丁目２３番４号桑野ビル２階,,13,113,1500001,,,,,,,2022-07-22,1,,,,,タマラボ,0
1455,6020001147428,新規,0,2022-07-22,2022-07-22,株式会社ワイオーケ・センサテクノロジ,,株式会社,神奈川県,横浜市緑区,中山３丁目１１番１－４０３号,,14,113,2260019,,,,,,,2022-07-22,1,,,,,ワイオーケセンサテクノロジ,0
1461,6021001076575,新規,0,2022-07-22,2022-07-22,株式会社Ａ．ＡＺＡＭ,,株式会社,神奈川県,相模原市南区,当麻３５３９番地９２,,14,153,2520336,,,,,,,2022-07-22,1,,,,,エーアザム,0
1476,6030001149282,新規,0,2022-07-22,2022-07-22,株式会社ケイテック,,株式会社,埼玉県,朝霞市,岡１丁目１６番２５号,,11,227,3510007,,,,,,,2022-07-22,1,,,,,ケイテック,0
1477,6030001149357,新規,0,2022-07-22,2022-07-22,株式会社ＥＢＡＩ．ＴＥ．ＧＬＯＢＡＬ,,株式会社,埼玉県,春日部市,西金野井１９１６番地１４,,11,214,3440112,,,,,,,2022-07-22,1,,,,,エバイテグローバル,0
1483,6030003019839,新規,0,2022-07-22,2022-07-22,Ｇ＆Ｃ合同会社,,合同会社,埼玉県,川口市,上青木西４丁目２０番５号,,11,203,3330845,,,,,,,2022-07-22,1,,,,,ジーアンドシー,0
1490,6040001124367,新規,0,2022-07-22,2022-07-22,株式会社ｔａｂｉｊｉ,,株式会社,千葉県,千葉市稲毛区,あやめ台２－１３４０７,,12,103,2630052,,,,,,,2022-07-22,1,,,,,タビジ,0
1494,6040003020465,新規,0,2022-07-22,2022-07-22,合同会社ＮＩＳＨＡ,,合同会社,千葉県,船橋市,夏見２丁目２０番７－１０２号,,12,204,2730865,,,,,,,2022-07-22,1,,,,,ニサ,0
1509,6070001039463,新規,0,2022-07-22,2022-07-22,株式会社羚雅,,株式会社,群馬県,邑楽郡邑楽町,大字狸塚２４６９番地２１,,10,525,3700613,,,,,,,2022-07-22,1,,,,,レイガ,0
1510,6070001039471,新規,0,2022-07-22,2022-07-22,株式会社ＳＡＤＩＱ　ＴＲＡＤＩＮＧ,,株式会社,群馬県,伊勢崎市,境島村２６５１番地１,,10,204,3700134,,,,,,,2022-07-22,1,,,,,サディックトレーディング,0
1513,6070003004564,新規,0,2022-07-22,2022-07-22,折笠農園合同会社,,合同会社,群馬県,伊勢崎市,三室町４３２３番地１,,10,204,3792235,,,,,,,2022-07-22,1,,,,,オリカサノウエン,0
1517,6080401025970,新規,0,2022-07-22,2022-07-22,株式会社ＮＭ七蔵,,株式会社,静岡県,磐田市,東名２０２,,22,211,4380806,,,,,,,2022-07-22,1,,,,,エヌエムシチゾウ,0
1533,6120001247515,新規,0,2022-07-22,2022-07-22,株式会社フィールドケイ,,株式会社,大阪府,大阪市都島区,友渕町１丁目５番８０－５１５号,,27,102,5340016,,,,,,,2022-07-22,1,,,,,フィールドケイ,0
1534,6120001247523,新規,0,2022-07-22,2022-07-22,大林商事株式会社,,株式会社,大阪府,大阪市中央区,船場中央３丁目３番９号船場センタービル９号館２階,,27,128,5410055,,,,,,,2022-07-22,1,,,,,オオバヤシショウジ,0
1535,6120001247531,新規,0,2022-07-22,2022-07-22,株式会社セルクル・プラス,,株式会社,大阪府,大阪市淀川区,塚本２丁目２１番１３－３０１号,,27,123,5320026,,,,,,,2022-07-22,1,,,,,セルクルプラス,0
1536,6120001247572,新規,0,2022-07-22,2022-07-22,清石生活株式会社,,株式会社,大阪府,大阪市西成区,梅南２丁目２番２６号１０４号室,,27,122,5570033,,,,,,,2022-07-22,1,,,,,キヨイシセイカツ,0
1538,6120003022123,新規,0,2022-07-22,2022-07-22,マルチバース合同会社,,合同会社,大阪府,大阪市西淀川区,柏里２丁目７番２６号ラ・ピース塚本５０６号室,,27,113,5550022,,,,,,,2022-07-22,1,,,,,マルチバース,0
1539,6120003022148,新規,0,2022-07-22,2022-07-22,合同会社パワーリーディング,,合同会社,大阪府,大阪市淀川区,十三東２丁目９番８号,,27,123,5320023,,,,,,,2022-07-22,1,,,,,パワーリーディング,0
1555,6130001072136,新規,0,2022-07-22,2022-07-22,株式会社ともす,,株式会社,京都府,京都市南区,唐橋西平垣町１－９－３,,26,107,6018468,,,,,,,2022-07-22,1,,,,,トモス,0
1556,6130001072219,新規,0,2022-07-22,2022-07-22,オムニリンクス株式会社,,株式会社,京都府,京都市下京区,石不動之町６８２番地６,,26,106,6008047,,,,,,,2022-07-22,1,,,,,オムニリンクス,0
1557,6130001072227,新規,0,2022-07-22,2022-07-22,株式会社八百旬グループ,,株式会社,京都府,京都市左京区,上高野車地町１５４番地,,26,103,6060053,,,,,,,2022-07-22,1,,,,,ヤオシュングループ,0
1558,6130001072235,新規,0,2022-07-22,2022-07-22,株式会社カクジ工務店,,株式会社,京都府,京都市伏見区,下鳥羽西柳長町３２番地,,26,109,6128489,,,,,,,2022-07-22,1,,,,,カクジコウムテン,0
1559,6130003008063,新規,0,2022-07-22,2022-07-22,ＴＡＮＴＯ合同会社,,合同会社,京都府,京都市右京区,龍安寺西ノ川町８番地,,26,108,6168016,,,,,,,2022-07-22,1,,,,,タント,0
1564,6140001126832,新規,0,2022-07-22,2022-07-22,株式会社ニイクラ,,株式会社,兵庫県,神戸市垂水区,星が丘３丁目４番１７－４１０号,,28,108,6550032,,,,,,,2022-07-22,1,,,,,ニイクラ,0
1569,6140003017930,新規,0,2022-07-22,2022-07-22,合同会社Ｅｔｏｉｌｅ　ＩＰ,,合同会社,兵庫県,川西市,花屋敷２丁目９番３号,,28,217,6660035,,,,,,,2022-07-22,1,,,,,エトワールアイピー,0
1570,6140003017939,新規,0,2022-07-22,2022-07-22,合同会社カムアンドシー,,合同会社,兵庫県,神戸市中央区,下山手通３丁目１１番８－５０２号,,28,110,6500011,,,,,,,2022-07-22,1,,,,,カムアンドシー,0
1572,6150001025711,新規,0,2022-07-22,2022-07-22,株式会社こころ,,株式会社,奈良県,橿原市,今井町３丁目１１番２２号,,29,205,6340812,,,,,,,2022-07-22,1,,,,,ココロ,0
1594,6210001019013,新規,0,2022-07-22,2022-07-22,フェニックス・コミュニケーション株式会社,,株式会社,福井県,福井市,大宮１丁目１１番２７号清水ビル３Ｆ,,18,201,9100016,,,,,,,2022-07-22,1,,,,,フェニックスコミュニケーション,0
1603,6240003005710,新規,0,2022-07-22,2022-07-22,合同会社Ｒｏｕｇｅｔｕ,,合同会社,広島県,広島市安佐北区,口田南２丁目２５番１５－２０３号,,34,106,7391733,,,,,,,2022-07-22,1,,,,,ロウゲツ,0
1615,6290005018755,新規,0,2022-07-22,2022-07-22,ＮＰＯ法人禅農法ＡｇｒｉＭｏｎｋ,,その他の設立登記法人,福岡県,福岡市西区,大字小田５００番地,,40,135,8190203,,,,,,,2022-07-22,1,,,,,ゼンノウホウアグリモンク,0
1618,6300001013015,新規,0,2022-07-22,2022-07-22,株式会社クハラ,,株式会社,佐賀県,佐賀市,金立町大字薬師丸１８５２番地,,41,201,8490904,,,,,,,2022-07-22,1,,,,,クハラ,0
1619,6320003003854,新規,0,2022-07-22,2022-07-22,ＯＦＦＩＣＥ‐Ｔ合同会社,,合同会社,大分県,別府市,大字南立石１０８２番地の１６５西別府台住宅Ｂ１０１号,,44,202,8740000,,,,,,,2022-07-22,1,,,,,オフィスティー,0
1629,6360001030731,新規,0,2022-07-22,2022-07-22,株式会社Ｓｈａｔ沖縄,,株式会社,沖縄県,島尻郡南風原町,字津嘉山１７９８番地４,,47,350,9011117,,,,,,,2022-07-22,1,,,,,シャットオキナワ,0
1652,6430001087095,新規,0,2022-07-22,2022-07-22,株式会社ＡＫＳ,,株式会社,北海道,札幌市中央区,南四条西３丁目３番地１,,01,101,0640804,,,,,,,2022-07-22,1,,,,,エーケーエス,0
1653,6430001087120,新規,0,2022-07-22,2022-07-22,株式会社ＨＡＲＫ,,株式会社,北海道,札幌市北区,新琴似四条２丁目５番１号,,01,102,0010904,,,,,,,2022-07-22,1,,,,,ハーク,0
1657,6430003014114,新規,0,2022-07-22,2022-07-22,合同会社Ｍａｄｏｎｎａ　Ｌｉｌｙ,,合同会社,北海道,札幌市東区,北三十条東３丁目３番２０号,,01,103,0650030,,,,,,,2022-07-22,1,,,,,マドンナリリー,0
1675,7010001228252,新規,0,2022-07-22,2022-07-22,株式会社リバーポイント,,株式会社,東京都,千代田区,神田美土代町１１番１１神田美土代町川崎ビル３階,,13,101,1010053,,,,,,,2022-07-22,1,,,,,リバーポイント,0
1676,7010001228269,新規,0,2022-07-22,2022-07-22,株式会社デクスター,,株式会社,東京都,中央区,日本橋本町４丁目７番１０号,,13,102,1030023,,,,,,,2022-07-22,1,,,,,デクスター,0
1689,7010401168627,新規,0,2022-07-22,2022-07-22,株式会社サブルートＡＳ,,株式会社,東京都,港区,赤坂９丁目６番３０号,,13,103,1070052,,,,,,,2022-07-22,1,,,,,サブルートアス,0
1696,7010601061524,新規,0,2022-07-22,2022-07-22,株式会社ファンブリッジ,,株式会社,東京都,江東区,扇橋３丁目１０番１７号グリーンハウス２０１,,13,108,1350011,,,,,,,2022-07-22,1,,,,,ファンブリッジ,0
1697,7010601061532,新規,0,2022-07-22,2022-07-22,株式会社ＯＺ,,株式会社,東京都,江東区,東雲１丁目９番２２－８１５号,,13,108,1350062,,,,,,,2022-07-22,1,,,,,オズ,0
1701,7010801033141,新規,0,2022-07-22,2022-07-22,ＷＥＬＬ株式会社,,株式会社,東京都,大田区,西六郷４丁目１０番１２号１０２号室,,13,111,1440056,,,,,,,2022-07-22,1,,,,,ウェル,0
1704,7010901051290,新規,0,2022-07-22,2022-07-22,株式会社マサゴ,,株式会社,東京都,世田谷区,瀬田２丁目３１番２９－４０３号,,13,112,1580095,,,,,,,2022-07-22,1,,,,,マサゴ,0
1711,7011001148746,新規,0,2022-07-22,2022-07-22,テララモンド株式会社,,株式会社,東京都,渋谷区,円山町５番５号Ｎａｖｉ渋谷Ｖ３階,,13,113,1500044,,,,,,,2022-07-22,1,,,,,テララモンド,0
1714,7011101099617,新規,0,2022-07-22,2022-07-22,ココロオドル株式会社,,株式会社,東京都,新宿区,神楽坂３丁目１あさひこビル４Ｆ,,13,104,1620825,,,,,,,2022-07-22,1,,,,,ココロオドル,0
1715,7011101099625,新規,0,2022-07-22,2022-07-22,Ｒｅａｌ　Ｓｕｃｃｅｓｓ株式会社,,株式会社,東京都,新宿区,中町２３番地１パレ神楽坂３０８,,13,104,1620835,,,,,,,2022-07-22,1,,,,,リアルサクセス,0
1721,7011401024415,新規,0,2022-07-22,2022-07-22,株式会社土地建物管理,,株式会社,東京都,板橋区,板橋１丁目２５番６号ＯＧＴ板橋ビル４０１,,13,119,1730004,,,,,,,2022-07-22,1,,,,,トチタテモノカンリ,0
1723,7011403003730,新規,0,2022-07-22,2022-07-22,オールウェイズ合同会社,,合同会社,東京都,板橋区,幸町３６－１,,13,119,1730034,,,,,,,2022-07-22,1,,,,,オールウェイズ,0
1732,7011803005186,新規,0,2022-07-22,2022-07-22,合同会社リレア,,合同会社,東京都,足立区,千住４丁目２１番地４号,,13,121,1200034,,,,,,,2022-07-22,1,,,,,リレア,0
1743,7020001147427,新規,0,2022-07-22,2022-07-22,株式会社イマムインターナショナル,,株式会社,神奈川県,横浜市南区,新川町５丁目３２番地ライオンズマンション吉野町第６・４０５号室,,14,105,2320027,,,,,,,2022-07-22,1,,,,,イマムインターナショナル,0
1744,7020001147435,新規,0,2022-07-22,2022-07-22,株式会社Ｍｉｙａｓｈｉｔａ　Ｌａｂｏ,,株式会社,神奈川県,横浜市栄区,庄戸５丁目１０番２３号,,14,115,2470022,,,,,,,2022-07-22,1,,,,,ミヤシタラボ,0
1763,7030001149356,新規,0,2022-07-22,2022-07-22,株式会社ＬＤ,,株式会社,埼玉県,朝霞市,三原４丁目１－４,,11,227,3510025,,,,,,,2022-07-22,1,,,,,エルディー,0
1771,7040001124382,新規,0,2022-07-22,2022-07-22,エコプロ株式会社,,株式会社,千葉県,船橋市,湊町２丁目３番１７号,,12,204,2730011,,,,,,,2022-07-22,1,,,,,エコプロ,0
1772,7040001124390,新規,0,2022-07-22,2022-07-22,株式会社インディゴ,,株式会社,千葉県,流山市,おおたかの森西２丁目４－７,,12,220,2700128,,,,,,,2022-07-22,1,,,,,インディゴ,0
1779,7040003020431,新規,0,2022-07-22,2022-07-22,合同会社メディアライズ,,合同会社,千葉県,茂原市,東郷２１００－２９,,12,210,2970017,,,,,,,2022-07-22,1,,,,,メディアライズ,0
1780,7040003020464,新規,0,2022-07-22,2022-07-22,合同会社ＫＲＫ,,合同会社,千葉県,柏市,若柴２６２番地２中央１７８街区４アートレジデンスイン柏の葉２０９号,,12,217,2770871,,,,,,,2022-07-22,1,,,,,ケーアールケー,0
1790,7060001035099,新規,0,2022-07-22,2022-07-22,株式会社ＥＸＣＥＬ,,株式会社,栃木県,宇都宮市,松原２丁目３番３６号,,09,201,3200041,,,,,,,2022-07-22,1,,,,,エクセル,0
1814,7120001247464,新規,0,2022-07-22,2022-07-22,株式会社ＳＣＭセキュシステム研究所,,株式会社,大阪府,大阪市西区,阿波座１丁目１４番１５号,,27,106,5500011,,,,,,,2022-07-22,1,,,,,エスシーエムセキュシステムケンキュウジョ,0
1815,7120001247497,新規,0,2022-07-22,2022-07-22,ＳＥＣＯＮＥ株式会社,,株式会社,大阪府,枚方市,東山１丁目１０番２６号２階,,27,210,5731114,,,,,,,2022-07-22,1,,,,,セコネ,0
1816,7120001247506,新規,0,2022-07-22,2022-07-22,株式会社アクティブ,,株式会社,大阪府,大阪市西区,南堀江２丁目３番１１号ヴァンベール南堀江２０２,,27,106,5500015,,,,,,,2022-07-22,1,,,,,アクティブ,0
1817,7120001247522,新規,0,2022-07-22,2022-07-22,Ｂｃ　Ａｓｓｅｍｂｌｅ株式会社,,株式会社,大阪府,大阪市北区,梅田１丁目１番３号大阪駅前第３ビル２３０７号,,27,127,5300001,,,,,,,2022-07-22,1,,,,,ビーシーアセンブル,0
1818,7120001247539,新規,0,2022-07-22,2022-07-22,株式会社ゼロワン,,株式会社,大阪府,大阪市北区,芝田２丁目８番１１号共栄ビル３階,,27,127,5300012,,,,,,,2022-07-22,1,,,,,ゼロワン,0
1819,7120001247563,新規,0,2022-07-22,2022-07-22,ａＯｎ株式会社,,株式会社,大阪府,大阪市中央区,南久宝寺町２丁目４番７－１９０１号,,27,128,5410058,,,,,,,2022-07-22,1,,,,,エーオーエヌ,0
1820,7120001247605,新規,0,2022-07-22,2022-07-22,株式会社寿ｐｒｏｍｏｔｉｏｎ,,株式会社,大阪府,大阪市西区,京町堀１丁目１０番１９－６０３号,,27,106,5500003,,,,,,,2022-07-22,1,,,,,コトブキプロモーション,0
1821,7120003022106,新規,0,2022-07-22,2022-07-22,Ｌｉｎｈ　Ｌｉｎｋ合同会社,,合同会社,大阪府,大阪市西成区,山王２丁目１３番２２号,,27,122,5570001,,,,,,,2022-07-22,1,,,,,リンリンク,0
1822,7120003022122,新規,0,2022-07-22,2022-07-22,合同会社エバグロ,,合同会社,大阪府,大阪市中央区,南久宝寺町２丁目６番１２号,,27,128,5410058,,,,,,,2022-07-22,1,,,,,エバグロ,0
1832,7130001072226,新規,0,2022-07-22,2022-07-22,株式会社織色,,株式会社,京都府,京都市北区,紫野門前町１番地,,26,101,6038216,,,,,,,2022-07-22,1,,,,,オリシキ,0
1833,7130001072234,新規,0,2022-07-22,2022-07-22,株式会社ビスタデジタル,,株式会社,京都府,亀岡市,篠町広田３丁目９番６号,,26,206,6210834,,,,,,,2022-07-22,1,,,,,ビスタデジタル,0
1834,7130001072242,新規,0,2022-07-22,2022-07-22,綺羅光陰株式会社,,株式会社,京都府,京都市右京区,嵯峨中通町１８番地３Ｆ,,26,108,6168361,,,,,,,2022-07-22,1,,,,,キラコウイン,0
1838,7130003008070,新規,0,2022-07-22,2022-07-22,Ｓｙｚｙｇｙ合同会社,,合同会社,京都府,京都市山科区,大塚中溝４８番地１Ｒｅｓａｎａ山科２０３号,,26,110,6078133,,,,,,,2022-07-22,1,,,,,シザジー,0
1843,7130005016534,新規,0,2022-07-22,2022-07-22,特定非営利活動法人かぶと山ふるさと会,,その他の設立登記法人,京都府,京丹後市,久美浜町６,,26,212,6293410,,,,,,,2022-07-22,1,,,,,カブトヤマフルサトカイ,0
1852,7140001126815,新規,0,2022-07-22,2022-07-22,松原工業株式会社,,株式会社,兵庫県,姫路市,広畑区早瀬町１丁目６３番地１ＫＩグリーンハイツ１０１号,,28,201,6711151,,,,,,,2022-07-22,1,,,,,マツバラコウギョウ,0
1853,7140001126831,新規,0,2022-07-22,2022-07-22,株式会社やまとごころ,,株式会社,兵庫県,淡路市,塩尾６９６番地,,28,226,6562141,,,,,,,2022-07-22,1,,,,,ヤマトゴコロ,0
1855,7140003017938,新規,0,2022-07-22,2022-07-22,Ｅｓｐｏｉｒ合同会社,,合同会社,兵庫県,尼崎市,大庄西町４丁目１４番８号ギャラリー武庫川１０５,,28,202,6600077,,,,,,,2022-07-22,1,,,,,エスポワール,0
1856,7150001025710,新規,0,2022-07-22,2022-07-22,株式会社ＭＡＲＪＯＲＡＭ,,株式会社,奈良県,奈良市,東向中町１１番地マルハチビル２Ｆ,,29,201,6308215,,,,,,,2022-07-22,1,,,,,マジョラム,0
1865,7180001152287,新規,0,2022-07-22,2022-07-22,株式会社ＲＵＮＴＯＰ４８,,株式会社,愛知県,名古屋市中区,千代田３丁目２６番１８号千代田壱番館２０２,,23,106,4600012,,,,,,,2022-07-22,1,,,,,ラントップフォーティーエイト,0
1875,7190001029633,新規,0,2022-07-22,2022-07-22,株式会社Ｒｅｂｌｏｏｍ,,株式会社,三重県,桑名市,大字蓮花寺１９４４番地,,24,205,5110854,,,,,,,2022-07-22,1,,,,,リブルーム,0
1880,7210001019012,新規,0,2022-07-22,2022-07-22,株式会社ＨＡＰＰＹ‐ＦＬＯＷＥＲ,,株式会社,福井県,福井市,和田中２丁目１９２９番地,,18,201,9188236,,,,,,,2022-07-22,1,,,,,ハッピーフラワー,0
1885,7240001060120,新規,0,2022-07-22,2022-07-22,瀬戸内Ｊｏｙｃｒｕｉｓｅ株式会社,,株式会社,広島県,福山市,松永町３丁目７番３０－１０２号,,34,207,7290104,,,,,,,2022-07-22,1,,,,,セトウチジョイクルーズ,0
1886,7240005015426,新規,0,2022-07-22,2022-07-22,一般社団法人ひろしま相続・不動産ホットライン,,その他の設立登記法人,広島県,広島市中区,八丁堀１１番１８号３階３０２号,,34,101,7300013,,,,,,,2022-07-22,1,,,,,ヒロシマソウゾクフドウサンホットライン,0
1892,7270003001425,新規,0,2022-07-22,2022-07-22,合同会社Ｆｉｎｅ　Ｃｌｅａｎ,,合同会社,鳥取県,倉吉市,東町３５１番地６,,31,203,6820823,,,,,,,2022-07-22,1,,,,,ファインクリーン,0
1901,7290001098362,新規,0,2022-07-22,2022-07-22,株式会社Ｅｐｉｃ　ｒｅｓｅａｒｃｈ,,株式会社,福岡県,福岡市中央区,地行浜２丁目２番５－７０５号,,40,133,8100065,,,,,,,2022-07-22,1,,,,,エピックリサーチ,0
1910,7330001029949,新規,0,2022-07-22,2022-07-22,理想環境株式会社,,株式会社,熊本県,八代市,古閑中町１３６９,,43,202,8660898,,,,,,,2022-07-22,1,,,,,リソウカンキョウ,0
1912,7330003009453,新規,0,2022-07-22,2022-07-22,合同会社ＡＴＳ,,合同会社,熊本県,宇城市,不知火町長崎９５１番地２,,43,213,8690562,,,,,,,2022-07-22,1,,,,,エーティーエス,0
1915,7350003004130,新規,0,2022-07-22,2022-07-22,合同会社そわか未来,,合同会社,宮崎県,宮崎市,大字郡司分甲３２０番地,,45,201,8800924,,,,,,,2022-07-22,1,,,,,ソワカミライ,0
1917,7360003012181,新規,0,2022-07-22,2022-07-22,合同会社Ｃｒｏｓｓ　Ｏｖｅｒ,,合同会社,沖縄県,中頭郡読谷村,字大湾７５１番地１Ｄ－３４,,47,324,9040313,,,,,,,2022-07-22,1,,,,,クロスオーバー,0
1920,7370003005779,新規,0,2022-07-22,2022-07-22,テクノアルファ合同会社,,合同会社,宮城県,仙台市太白区,緑ケ丘４丁目１８番７号,,04,104,9820021,,,,,,,2022-07-22,1,,,,,テクノアルファ,0
1951,7490003001683,新規,0,2022-07-22,2022-07-22,仁淀ブルー合同会社,,合同会社,高知県,高岡郡越知町,横畠北３０８０番地２,,39,403,7811315,,,,,,,2022-07-22,1,,,,,ニヨドブルー,0
1959,8010001228227,新規,0,2022-07-22,2022-07-22,アルケミー株式会社,,株式会社,東京都,文京区,水道２丁目３番１６号,,13,105,1120005,,,,,,,2022-07-22,1,,,,,アルケミー,0
1960,8010001228235,新規,0,2022-07-22,2022-07-22,サークルインベストメント株式会社,,株式会社,東京都,千代田区,九段南３丁目７番７号成和綜合会計事務所内,,13,101,1020074,,,,,,,2022-07-22,1,,,,,サークルインベストメント,0
1961,8010001228243,新規,0,2022-07-22,2022-07-22,テクノ未来株式会社,,株式会社,東京都,千代田区,神田須田町１丁目１８番６第一谷ビル２階,,13,101,1010041,,,,,,,2022-07-22,1,,,,,テクノミライ,0
1962,8010001228251,新規,0,2022-07-22,2022-07-22,ａｖｃｄ株式会社,,株式会社,東京都,中央区,銀座１丁目１５番４号銀座一丁目ビル７階,,13,102,1040061,,,,,,,2022-07-22,1,,,,,エーヴィーシーディー,0
1963,8010001228268,新規,0,2022-07-22,2022-07-22,レップ株式会社,,株式会社,東京都,千代田区,神田小川町３丁目５番４号,,13,101,1010052,,,,,,,2022-07-22,1,,,,,レップ,0
1965,8010005035280,新規,0,2022-07-22,2022-07-22,一般社団法人乳歯歯髄幹細胞を役立たせる会,,その他の設立登記法人,東京都,中央区,日本橋３丁目５番１２号ヒューリック八重洲通ビル３Ｆ,,13,102,1030027,,,,,,,2022-07-22,1,,,,,ニュウシシズイカンサイボウヲヤクダタセルカイ,0
1980,8010405021161,新規,0,2022-07-22,2022-07-22,税理士法人みなとアドバイザーズ,,その他の設立登記法人,東京都,港区,虎ノ門１丁目１４番１号,,13,103,1050001,,,,,,,2022-07-22,1,,,,,ミナトアドバイザーズ,0
1991,8010801033140,新規,0,2022-07-22,2022-07-22,Ｔｒｕｓｔ‐８株式会社,,株式会社,東京都,大田区,多摩川１丁目１６番１１－６０１号,,13,111,1460095,,,,,,,2022-07-22,1,,,,,トラストエイト,0
1998,8011001148737,新規,0,2022-07-22,2022-07-22,株式会社ギャザテック,,株式会社,東京都,渋谷区,代官山町９番１０号,,13,113,1500034,,,,,,,2022-07-22,1,,,,,,0
2001,8011101099616,新規,0,2022-07-22,2022-07-22,株式会社アセットテック,,株式会社,東京都,新宿区,新宿４丁目３番１７号,,13,104,1600022,,,,,,,2022-07-22,1,,,,,アセットテック,0
2003,8011103011999,新規,0,2022-07-22,2022-07-22,合同会社３３３,,合同会社,東京都,新宿区,須賀町１番地松和ビル３Ｆ,,13,104,1600018,,,,,,,2022-07-22,1,,,,,サンサンサン,0
2005,8011303004480,新規,0,2022-07-22,2022-07-22,オーサムキャンプ合同会社,,合同会社,東京都,杉並区,永福３丁目４７番１０号,,13,115,1680064,,,,,,,2022-07-22,1,,,,,オーサムキャンプ,0
2007,8011501028298,新規,0,2022-07-22,2022-07-22,株式会社ふじ瑠璃事務所,,株式会社,東京都,荒川区,東日暮里２丁目４７番１２号,,13,118,1160014,,,,,,,2022-07-22,1,,,,,フジルリジムショ,0
2015,8011701025475,新規,0,2022-07-22,2022-07-22,和ごころ株式会社,,株式会社,東京都,江戸川区,一之江６丁目１０－１４,,13,123,1320024,,,,,,,2022-07-22,1,,,,,ワゴコロ,0
2018,8011801041034,新規,0,2022-07-22,2022-07-22,株式会社ＳＴＴＩ,,株式会社,東京都,足立区,千住曙町４０番１－１０１３号,00127286,13,121,1200023,,,,,,,2022-07-22,1,,,,,エスティティアイ,0
2020,8012301013077,新規,0,2022-07-22,2022-07-22,株式会社さくら,,株式会社,東京都,町田市,金井ヶ丘１丁目１０番３０号,,13,209,1950076,,,,,,,2022-07-22,1,,,,,サクラ,0
2023,8012401039451,新規,0,2022-07-22,2022-07-22,株式会社ＳＨＡＬＬ建設,,株式会社,東京都,府中市,白糸台４丁目６６番地の４第２ジェネラスコート１０４,,13,206,1830011,,,,,,,2022-07-22,1,,,,,シャルケンセツ,0
2032,8020001147434,新規,0,2022-07-22,2022-07-22,株式会社日笑ホーム,,株式会社,神奈川県,川崎市宮前区,東有馬４丁目１７番３－３０２号,,14,136,2160002,,,,,,,2022-07-22,1,,,,,ニッショウホーム,0
2037,8021001076581,新規,0,2022-07-22,2022-07-22,株式会社えい心,,株式会社,神奈川県,秦野市,立野台３丁目７番地の２３,,14,211,2570017,,,,,,,2022-07-22,1,,,,,エイシン,0
2041,8021003011958,新規,0,2022-07-22,2022-07-22,ＦＡＴＥＭＡ建設合同会社,,合同会社,神奈川県,相模原市南区,麻溝台７丁目２,,14,153,2520328,,,,,,,2022-07-22,1,,,,,ファテマケンセツ,0
2042,8021003011966,新規,0,2022-07-22,2022-07-22,合同会社ａｑｕａｍａｒｉｎｅ,,合同会社,神奈川県,海老名市,めぐみ町五丁目６番２１０２号,,14,215,2430438,,,,,,,2022-07-22,1,,,,,アクアマリン,0
2047,8030001149322,新規,0,2022-07-22,2022-07-22,ｅ‐ＷＯＲＫＳ．株式会社,,株式会社,埼玉県,さいたま市見沼区,堀崎町１１５０番地７,,11,104,3370052,,,,,,,2022-07-22,1,,,,,イーワークス,0
2048,8030001149355,新規,0,2022-07-22,2022-07-22,株式会社長取ゴム工業,,株式会社,埼玉県,越谷市,東町５丁目４９番地１,,11,222,3430826,,,,,,,2022-07-22,1,,,,,チョウドリゴムコウギョウ,0
2052,8030003019829,新規,0,2022-07-22,2022-07-22,アンサンク合同会社,,合同会社,埼玉県,羽生市,大字尾崎４７７番地,,11,216,3480062,,,,,,,2022-07-22,1,,,,,アンサンク,0
2055,8040001124308,新規,0,2022-07-22,2022-07-22,Ｈａｒｂｏｒ　ｅｓｔａｔｅ株式会社,,株式会社,千葉県,千葉市中央区,椿森１丁目１５番６号フォレリア２０５号,,12,101,2600042,,,,,,,2022-07-22,1,,,,,ハーバーエステート,0
2056,8040001124340,新規,0,2022-07-22,2022-07-22,株式会社多瑞産業,,株式会社,千葉県,市川市,塩焼２丁目２－７５,,12,203,2720114,,,,,,,2022-07-22,1,,,,,タズイサンギョウ,0
2057,8040001124349,新規,0,2022-07-22,2022-07-22,株式会社ＹＵＮＩＶＡ磁石モータ研究所,,株式会社,千葉県,千葉市若葉区,小倉町１７６０番地１１,,12,104,2640007,,,,,,,2022-07-22,1,,,,,ユニバジシャクモータケンキュウジョ,0
2058,8040001124357,新規,0,2022-07-22,2022-07-22,株式会社國吉工業,,株式会社,千葉県,千葉市中央区,大巌寺町１３１番地５,,12,101,2600812,,,,,,,2022-07-22,1,,,,,クニヨシコウギョウ,0
2059,8040001124365,新規,0,2022-07-22,2022-07-22,シェアレッジ株式会社,,株式会社,千葉県,船橋市,中野木２丁目３番５７号ボワ・リジェール・トワＥ号,,12,204,2740826,,,,,,,2022-07-22,1,,,,,シェアレッジ,0
2064,8040003020488,新規,0,2022-07-22,2022-07-22,合同会社ＡＬＬ　ＶＥＲＴＥＸ,,合同会社,千葉県,四街道市,大日２１０６番地２４,,12,228,2840001,,,,,,,2022-07-22,1,,,,,オールバーテックス,0
2069,8050001051435,新規,0,2022-07-22,2022-07-22,ＡＲＩＦ　ＪＡＰＡＮ　ＭＯＴＯＲＳ株式会社,,株式会社,茨城県,下妻市,若柳丙２２８番地,,08,210,3040012,,,,,,,2022-07-22,1,,,,,アリフジャパンモータース,0
2077,8060001035107,新規,0,2022-07-22,2022-07-22,グレス株式会社,,株式会社,栃木県,下都賀郡壬生町,おもちゃのまち２丁目１２番７号,,09,361,3210202,,,,,,,2022-07-22,1,,,,,グレス,0
2078,8060003004159,新規,0,2022-07-22,2022-07-22,合同会社仔鹿リナプロダクション,,合同会社,栃木県,宇都宮市,簗瀬町２５５１番地１１,,09,201,3210933,,,,,,,2022-07-22,1,,,,,コジカリナプロダクション,0
2082,8070005010014,新規,0,2022-07-22,2022-07-22,特定非営利活動法人未来をつくる多文化共生協会,,その他の設立登記法人,群馬県,伊勢崎市,太田町７２０番地２,,10,204,3720006,,,,,,,2022-07-22,1,,,,,ミライヲツクルタブンカキョウセイキョウカイ,0
2091,8110001036834,新規,0,2022-07-22,2022-07-22,株式会社滝澤自動車,,株式会社,新潟県,糸魚川市,大字桂５５３番地,,15,216,9491337,,,,,,,2022-07-22,1,,,,,タキザワジドウシャ,0
2100,8120001247505,新規,0,2022-07-22,2022-07-22,株式会社ケーエステック,,株式会社,大阪府,大阪市生野区,田島５丁目９番７号,,27,116,5440011,,,,,,,2022-07-22,1,,,,,ケーエステック,0
2101,8120001247513,新規,0,2022-07-22,2022-07-22,スマイルキッズ株式会社,,株式会社,大阪府,大阪市東成区,神路４丁目３番１８号,,27,115,5370003,,,,,,,2022-07-22,1,,,,,スマイルキッズ,0
2102,8120001247521,新規,0,2022-07-22,2022-07-22,千陽株式会社,,株式会社,大阪府,大阪市淀川区,西宮原２丁目６－１６－９２５号,,27,123,5320004,,,,,,,2022-07-22,1,,,,,センヨウ,0
2104,8120003022055,新規,0,2022-07-22,2022-07-22,合同会社Ｆｏｒ　Ｔｗｏ,,合同会社,大阪府,門真市,宮前町１３－２宮前ハイム４階Ｂ,,27,223,5710074,,,,,,,2022-07-22,1,,,,,フォートゥー,0
2105,8120003022113,新規,0,2022-07-22,2022-07-22,万興合同会社,,合同会社,大阪府,大阪市西区,九条３丁目２番１５号,,27,106,5500027,,,,,,,2022-07-22,1,,,,,マンコウ,0
2106,8120003022154,新規,0,2022-07-22,2022-07-22,合同会社弥勒,,合同会社,大阪府,寝屋川市,香里新町２２番３―３０５号,,27,215,5720085,,,,,,,2022-07-22,1,,,,,ミロク,0
2111,8120105009603,新規,0,2022-07-22,2022-07-22,医療法人かまのにこにこクリニック,,その他の設立登記法人,大阪府,堺市西区,津久野町１丁２０番７号津久野モンテーノｂｕｉｌｄｉｎｇ３階,,27,144,5938322,,,,,,,2022-07-22,1,,,,,カマノニコニコクリニック,0
2117,8130001072225,新規,0,2022-07-22,2022-07-22,株式会社ｃｈａｒｇｅ,,株式会社,京都府,京都市東山区,祇園町北側２８２,,26,105,6050073,,,,,,,2022-07-22,1,,,,,チャージ,0
2125,8140001126814,新規,0,2022-07-22,2022-07-22,株式会社仁楽,,株式会社,兵庫県,神戸市北区,有野町二郎７８番地の１,,28,109,6511311,,,,,,,2022-07-22,1,,,,,ジンラク,0
2126,8140001126822,新規,0,2022-07-22,2022-07-22,株式会社リノハート,,株式会社,兵庫県,明石市,魚住町鴨池１２番地の３ベネフィス鴨池Ｉ－２０７号,00127285,28,203,6740073,,,,,,,2022-07-22,1,,,,,リノハート,0
2127,8140001126830,新規,0,2022-07-22,2022-07-22,株式会社Ｒｏｏｔ,,株式会社,兵庫県,明石市,小久保５丁目２番地の１１岸ビル２Ｂ,,28,203,6730005,,,,,,,2022-07-22,1,,,,,ルート,0
2129,8140003017929,新規,0,2022-07-22,2022-07-22,合同会社ケケケシエ,,合同会社,兵庫県,神戸市中央区,栄町通１丁目２番１５号永幸ビルの屋上,,28,110,6500023,,,,,,,2022-07-22,1,,,,,ケケケシエ,0
2130,8140003017945,新規,0,2022-07-22,2022-07-22,合同会社ＭＡＫＩ,,合同会社,兵庫県,神戸市西区,井吹台西町４丁目２４番地の６,,28,111,6512243,,,,,,,2022-07-22,1,,,,,マキ,0
2133,8140005026250,新規,0,2022-07-22,2022-07-22,特定非営利活動法人幸運鳥,,その他の設立登記法人,兵庫県,神戸市北区,山田町坂本字原１１２番地,,28,109,6511261,,,,,,,2022-07-22,1,,,,,コウノトリ,0
2138,8150005009411,新規,0,2022-07-22,2022-07-22,一般社団法人ならにみつ,,その他の設立登記法人,奈良県,奈良市,小西町２番地２階,,29,201,6308226,,,,,,,2022-07-22,1,,,,,ナラニミツ,0
2140,8160003002631,新規,0,2022-07-22,2022-07-22,合同会社Ｏｈａｎａ,,合同会社,滋賀県,大津市,木下町８番９号,,25,201,5200812,,,,,,,2022-07-22,1,,,,,オハナ,0
2145,8170001017201,新規,0,2022-07-22,2022-07-22,株式会社心優香,,株式会社,和歌山県,海南市,名高５３８番地５,,30,202,6420032,,,,,,,2022-07-22,1,,,,,ミユカ,0
2163,8210001019011,新規,0,2022-07-22,2022-07-22,株式会社アオザイ,,株式会社,福井県,福井市,松本１丁目２７番１２号エンゼルハイツ増永１０２,,18,201,9100003,,,,,,,2022-07-22,1,,,,,アオザイ,0
2167,8230001019463,新規,0,2022-07-22,2022-07-22,広楽株式会社,,株式会社,富山県,南砺市,福光７０９９番地２,,16,210,9391610,,,,,,,2022-07-22,1,,,,,コウラク,0
2179,8280005007492,新規,0,2022-07-22,2022-07-22,医療法人社団Ｓｈｏｗａ,,その他の設立登記法人,島根県,大田市,大田町大田イ１２７番地,,32,205,6940064,,,,,,,2022-07-22,1,,,,,ショウワ,0
2182,8290001098345,新規,0,2022-07-22,2022-07-22,一進建設株式会社,,株式会社,福岡県,大牟田市,神田町１６５番地６,,40,202,8360093,,,,,,,2022-07-22,1,,,,,イッシンケンセツ,0
2186,8290003012766,新規,0,2022-07-22,2022-07-22,合同会社オアシス,,合同会社,福岡県,福岡市早良区,田隈２丁目１４番３－２号,,40,137,8140174,,,,,,,2022-07-22,1,,,,,オアシス,0
2201,8360003012172,新規,0,2022-07-22,2022-07-22,合同会社Ａｍｉｌｙ,,合同会社,沖縄県,沖縄市,高原５丁目３番１２号桑江ビル２階Ｂ号室,,47,211,9042171,,,,,,,2022-07-22,1,,,,,アミリー,0
2202,8360003012189,新規,0,2022-07-22,2022-07-22,合同会社ノーたりん,,合同会社,沖縄県,浦添市,宮城６丁目６番２号,,47,208,9012126,,,,,,,2022-07-22,1,,,,,,0
2203,8370001048820,新規,0,2022-07-22,2022-07-22,アトムサービス株式会社,,株式会社,宮城県,富谷市,穀田丸森一番１１番地,,04,216,9813327,,,,,,,2022-07-22,1,,,,,アトムサービス,0
2204,8370001048829,新規,0,2022-07-22,2022-07-22,株式会社ＫＡＴＡＣＨＩ,,株式会社,宮城県,仙台市太白区,あすと長町４丁目３－５４－６０１,,04,104,9820007,,,,,,,2022-07-22,1,,,,,カタチ,0
2218,8430001087119,新規,0,2022-07-22,2022-07-22,株式会社戸梶商店,,株式会社,北海道,札幌市豊平区,月寒中央通６丁目３番２３－１００５号,,01,105,0620020,,,,,,,2022-07-22,1,,,,,トカジショウテン,0
2219,8430003014120,新規,0,2022-07-22,2022-07-22,合同会社菊池総合サービス,,合同会社,北海道,札幌市中央区,南六条西９丁目１０２３番地１８ディアコート６９－７０２号,,01,101,0640806,,,,,,,2022-07-22,1,,,,,キクチソウゴウサービス,0
2223,8460003000910,新規,0,2022-07-22,2022-07-22,合同会社エムズプランニング,,合同会社,北海道,釧路郡釧路町,睦３丁目３番地１３,,01,661,0880615,,,,,,,2022-07-22,1,,,,,エムズプランニング,0
2252,9010001228234,新規,0,2022-07-22,2022-07-22,エンデバー・ユナイテッド・パートナーズ・２５株式会社,,株式会社,東京都,千代田区,丸の内２丁目５番１号丸の内二丁目ビル６階,,13,101,1000005,,,,,,,2022-07-22,1,,,,,エンデバーユナイテッドパートナーズトゥエンティファイブ,0
2253,9010001228267,新規,0,2022-07-22,2022-07-22,東京やまと商事株式会社,,株式会社,東京都,千代田区,麹町２丁目４番地,,13,101,1020083,,,,,,,2022-07-22,1,,,,,トウキョウヤマトショウジ,0
2256,9010003038219,新規,0,2022-07-22,2022-07-22,合同会社アキバ,,合同会社,東京都,千代田区,外神田４丁目１１－８東油ビル５階,,13,101,1010021,,,,,,,2022-07-22,1,,,,,アキバ,0
2259,9010005035288,新規,0,2022-07-22,2022-07-22,一般社団法人アルベルゴ・ディフーゾ・インターナショナル・極東,,その他の設立登記法人,東京都,千代田区,外神田２丁目１７番２号日本ファームステイ協会内,,13,101,1010021,,,,,,,2022-07-22,1,,,,,アルベルゴディフーゾインターナショナルキョクトウ,0
2267,9010401168633,新規,0,2022-07-22,2022-07-22,インドネシアのマンパワーソリューション株式会社,,株式会社,東京都,港区,芝浦３丁目１７－１１,,13,103,1080023,,,,,,,2022-07-22,1,,,,,インドネシアノマンパワーソリューション,0
2271,9010403028141,新規,0,2022-07-22,2022-07-22,合同会社ファレンド,,合同会社,東京都,港区,浜松町２丁目２番１５号浜松町ダイヤビル２Ｆ,,13,103,1050013,,,,,,,2022-07-22,1,,,,,ファレンド,0
2273,9010405021160,新規,0,2022-07-22,2022-07-22,弁護士法人エクイタス,,その他の設立登記法人,東京都,港区,西新橋１丁目２０番３号,,13,103,1050003,,,,,,,2022-07-22,1,,,,,エクイタス,0
2275,9010601061522,新規,0,2022-07-22,2022-07-22,境華国際株式会社,,株式会社,東京都,墨田区,文花１丁目３４番１１－３０３号,,13,107,1310044,,,,,,,2022-07-22,1,,,,,キョウカコクサイ,0
2277,9010701042991,新規,0,2022-07-22,2022-07-22,永山運送株式会社,,株式会社,東京都,品川区,西五反田５丁目１１番８－２０１号,,13,109,1410031,,,,,,,2022-07-22,1,,,,,ナガヤマウンソウ,0
2281,9010803004238,新規,0,2022-07-22,2022-07-22,エポックエステイト管理合同会社,,合同会社,東京都,大田区,田園調布本町４１－１１,,13,111,1450072,,,,,,,2022-07-22,1,,,,,エポックエステイトカンリ,0
2282,9010901051272,新規,0,2022-07-22,2022-07-22,株式会社ＯＯ,,株式会社,東京都,世田谷区,梅丘３丁目１４番７号メゾンブリヤン１０１,,13,112,1540022,,,,,,,2022-07-22,1,,,,,ダブルオー,0
2283,9010901051289,新規,0,2022-07-22,2022-07-22,Ｍａｌｅｉｌ　Ｈａｎｄｌｅｒ株式会社,,株式会社,東京都,世田谷区,上用賀６丁目１０－６,,13,112,1580098,,,,,,,2022-07-22,1,,,,,マレイユハンドラ,0
2288,9011001148785,新規,0,2022-07-22,2022-07-22,Ｔｅｃｖａｎｔａｇｅ株式会社,,株式会社,東京都,渋谷区,神宮前６丁目２３番４号桑野ビル２階,,13,113,1500001,,,,,,,2022-07-22,1,,,,,テックバンテージ,0
2289,9011001148810,新規,0,2022-07-22,2022-07-22,株式会社Ｗｅｌｌｎｅｓｓ＆Ａｌｏｈａ,,株式会社,東京都,渋谷区,恵比寿１丁目７番１３号,,13,113,1500013,,,,,,,2022-07-22,1,,,,,ウェルネスアンドアローハ,0
2294,9011101099615,新規,0,2022-07-22,2022-07-22,株式会社スリーグッド,,株式会社,東京都,新宿区,西新宿２丁目４番１号,,13,104,1600023,,,,,,,2022-07-22,1,,,,,スリーグッド,0
2295,9011101099623,新規,0,2022-07-22,2022-07-22,ライン株式会社,,株式会社,東京都,新宿区,西新宿５丁目１０番１４号ＹＨＳビル６階,,13,104,1600023,,,,,,,2022-07-22,1,,,,,,0
2302,9011601026119,新規,0,2022-07-22,2022-07-22,株式会社ＭＯＭＯＫＯ,,株式会社,東京都,練馬区,田柄１丁目１２－１２オーロラハウス平和台１Ｆ,,13,120,1790073,,,,,,,2022-07-22,1,,,,,モモコ,0
2308,9012401039450,新規,0,2022-07-22,2022-07-22,株式会社ｋｏｙａｇｉ,,株式会社,東京都,三鷹市,井の頭３丁目３１番１１号ＴｈｅＲｏｏｍ井の頭公園２０４,,13,204,1810001,,,,,,,2022-07-22,1,,,,,コヤギ,0
2323,9020001147417,新規,0,2022-07-22,2022-07-22,株式会社インサイト,,株式会社,神奈川県,横浜市中区,長者町６丁目１０７番地１（ジェノヴィア横浜関内スカイガーデン２０２）,,14,104,2310033,,,,,,,2022-07-22,1,,,,,インサイト,0
2325,9020003022122,新規,0,2022-07-22,2022-07-22,合同会社Ｆ・Ｌ・Ｂ,,合同会社,神奈川県,横浜市鶴見区,東寺尾１丁目１番８号,,14,101,2300077,,,,,,,2022-07-22,1,,,,,エフエルビー,0
2328,9021001076580,新規,0,2022-07-22,2022-07-22,株式会社湘南建築ｓｔｕｄｉｏ,,株式会社,神奈川県,三浦市,南下浦町上宮田２５８９番３３,,14,210,2380101,,,,,,,2022-07-22,1,,,,,ショウナンケンチクスタジオ,0
2335,9030001149313,新規,0,2022-07-22,2022-07-22,株式会社Ｆｉｎｅ,,株式会社,埼玉県,川口市,芝宮根町１１番２号,,11,203,3330869,,,,,,,2022-07-22,1,,,,,ファイン,0
2341,9030003019828,新規,0,2022-07-22,2022-07-22,合同会社ＯＮＳ,,合同会社,埼玉県,越谷市,越ヶ谷１丁目１６番１９号フレシールＪ１０３,,11,222,3430813,,,,,,,2022-07-22,1,,,,,オーエヌエス,0
2343,9040001124372,新規,0,2022-07-22,2022-07-22,株式会社ＡＸＡＲＥ,,株式会社,千葉県,東金市,西福俵６４番地９,,12,213,2830816,,,,,,,2022-07-22,1,,,,,アクシアーレ,0
2344,9040001124380,新規,0,2022-07-22,2022-07-22,株式会社バナナカンパニー,,株式会社,千葉県,旭市,駒込９０５番２５,,12,215,2892532,,,,,,,2022-07-22,1,,,,,バナナカンパニー,0
2345,9040003020438,新規,0,2022-07-22,2022-07-22,ＯＣＥＡＮ　ＡＵＴＯ合同会社,,合同会社,千葉県,千葉市若葉区,多部田町２５８－３８,,12,104,2650066,,,,,,,2022-07-22,1,,,,,オーシャンオート,0
2346,9040003020470,新規,0,2022-07-22,2022-07-22,合同会社フィンチリーロード,,合同会社,千葉県,市川市,八幡６丁目１８番１号,,12,203,2720021,,,,,,,2022-07-22,1,,,,,フィンチリーロード,0
2347,9040003020487,新規,0,2022-07-22,2022-07-22,合同会社ＡＬＩＶＥ,,合同会社,千葉県,四街道市,四街道１丁目５番４号４階,,12,228,2840005,,,,,,,2022-07-22,1,,,,,アライブ,0
2349,9050001051426,新規,0,2022-07-22,2022-07-22,株式会社ＺＥＮ　ＮＯ,,株式会社,茨城県,古河市,西間中橋１５番地,,08,204,3060109,,,,,,,2022-07-22,1,,,,,ゼンノー,0
2350,9050001051434,新規,0,2022-07-22,2022-07-22,株式会社ＤＵＤＤＨＩ　ＴＲＡＤＩＮＧ　ＣＯＭＰＡＮＹ,,株式会社,茨城県,筑西市,布川１０１７番地５０,,08,227,3080846,,,,,,,2022-07-22,1,,,,,ドゥディトレーディングカンパニー,0
2355,9060001035106,新規,0,2022-07-22,2022-07-22,株式会社フジグリーン,,株式会社,栃木県,栃木市,柏倉町６３１番地,,09,203,3280066,,,,,,,2022-07-22,1,,,,,フジグリーン,0
2358,9060003004158,新規,0,2022-07-22,2022-07-22,左官工舎西和合同会社,,合同会社,栃木県,芳賀郡益子町,大字塙２５９５番地４,,09,342,3214216,,,,,,,2022-07-22,1,,,,,サカンコウシャセイワ,0
2362,9070001039460,新規,0,2022-07-22,2022-07-22,ケンシンホームズ株式会社,,株式会社,群馬県,高崎市,倉賀野町１０６９番地５,,10,202,3701201,,,,,,,2022-07-22,1,,,,,ケンシンホームズ,0
2371,9100001035547,新規,0,2022-07-22,2022-07-22,株式会社ｎｊｍ,,株式会社,長野県,長野市,大字東和田８４２番地ＣＯＲＥＯＦＦＩＣＥ３０１号室,,20,201,3810038,,,,,,,2022-07-22,1,,,,,エヌジェイエム,0
2382,9120001247529,新規,0,2022-07-22,2022-07-22,株式会社新和商事,,株式会社,大阪府,大阪市生野区,巽北３丁目８番１９号,,27,116,5440004,,,,,,,2022-07-22,1,,,,,シンワショウジ,0
2383,9120001247537,新規,0,2022-07-22,2022-07-22,株式会社大谷農豊,,株式会社,大阪府,大阪市住之江区,西住之江３丁目１４番１２号,,27,125,5590005,,,,,,,2022-07-22,1,,,,,オオタニノウホウ,0
2385,9120003022095,新規,0,2022-07-22,2022-07-22,合同会社ペジテ,,合同会社,大阪府,大阪市都島区,大東町２丁目１１番１４号２０２,,27,102,5340002,,,,,,,2022-07-22,1,,,,,ペジテ,0
2386,9120103004786,新規,0,2022-07-22,2022-07-22,合同会社アキュライフ,,合同会社,大阪府,高石市,高師浜３丁目１３－２８,,27,225,5920004,,,,,,,2022-07-22,1,,,,,アキュライフ,0
2387,9120103004794,新規,0,2022-07-22,2022-07-22,合同会社守屋,,合同会社,大阪府,堺市東区,菩提町２丁６０番地１－２０８号,,27,143,5998103,,,,,,,2022-07-22,1,,,,,モリヤ,0
2390,9130001072182,新規,0,2022-07-22,2022-07-22,株式会社天成,,株式会社,京都府,京都市東山区,豊浦町３５１めぞんＩＣＨＩ３０１号室,,26,105,6050905,,,,,,,2022-07-22,1,,,,,テンセイ,0
2391,9130001072224,新規,0,2022-07-22,2022-07-22,株式会社一燈照隅,,株式会社,京都府,長岡京市,井ノ内横ケ端１０番地１６,,26,209,6170813,,,,,,,2022-07-22,1,,,,,イットウショウグウ,0
2392,9130001072232,新規,0,2022-07-22,2022-07-22,インターナショナルアンティーク株式会社,,株式会社,京都府,京都市東山区,古門前通大和大路東入元町３７０番地の１,,26,105,6050089,,,,,,,2022-07-22,1,,,,,インターナショナルアンティーク,0
2393,9130003008069,新規,0,2022-07-22,2022-07-22,合同会社Ｔｒｕｅ・ａｙ,,合同会社,京都府,京田辺市,山手南１丁目１番地１・４０８,,26,211,6100354,,,,,,,2022-07-22,1,,,,,トゥルーエー,0
2402,9140003017936,新規,0,2022-07-22,2022-07-22,ヤヘヤアンドタイガーストレーディング合同会社,,合同会社,兵庫県,加古郡稲美町,草谷１－８０３,,28,381,6751102,,,,,,,2022-07-22,1,,,,,ヤヘヤアンドタイガーストレーディング,0
2407,9160003002622,新規,0,2022-07-22,2022-07-22,合同会社４Ｃ,,合同会社,滋賀県,高島市,新旭町針江４４１－１,,25,212,5201502,,,,,,,2022-07-22,1,,,,,ヨンシー,0
2427,9180301036460,新規,0,2022-07-22,2022-07-22,竹島開発株式会社,,株式会社,愛知県,蒲郡市,竹島町１番６号,,23,214,4430031,,,,,,,2022-07-22,1,,,,,タケシマカイハツ,0
2436,9210003001536,新規,0,2022-07-22,2022-07-22,合同会社ミルト,,合同会社,福井県,坂井市,三国町竹松１号８番,,18,210,9130017,,,,,,,2022-07-22,1,,,,,ミルト,0
2438,9230001019462,新規,0,2022-07-22,2022-07-22,株式会社シンクシー,,株式会社,富山県,氷見市,北大町７－４シーパレス１Ｆ,,16,205,9350004,,,,,,,2022-07-22,1,,,,,シンクシー,0
2443,9240003005724,新規,0,2022-07-22,2022-07-22,スリーウェルス合同会社,,合同会社,広島県,廿日市市,阿品台山の手９番１５号,,34,213,7380056,,,,,,,2022-07-22,1,,,,,スリーウェルス,0
2448,9260001037065,新規,0,2022-07-22,2022-07-22,株式会社Ｒｅ,,株式会社,岡山県,岡山市北区,野田１丁目４番２６号サーパス野田公園８０１号,,33,101,7000971,,,,,,,2022-07-22,1,,,,,アールイー,0
2452,9270003001423,新規,0,2022-07-22,2022-07-22,アドバンス合同会社,,合同会社,鳥取県,八頭郡智頭町,大字慶所２７０－８,,31,328,6891441,,,,,,,2022-07-22,1,,,,,アドバンス,0
2458,9290001098336,新規,0,2022-07-22,2022-07-22,株式会社ＳＵＮＡＲＴ,,株式会社,福岡県,福岡市博多区,竹下２丁目４番３８‐５０５号,,40,132,8120895,,,,,,,2022-07-22,1,,,,,サンアート,0
2459,9290001098352,新規,0,2022-07-22,2022-07-22,ＫＳアーキテクト株式会社,,株式会社,福岡県,福岡市南区,市崎１丁目２番８－１６２号,,40,134,8150084,,,,,,,2022-07-22,1,,,,,ケイエスアーキテクト,0
2471,9330001029930,新規,0,2022-07-22,2022-07-22,株式会社九州基礎技術コンサルタント,,株式会社,熊本県,熊本市中央区,黒髪２丁目３２－１－１２０１,,43,101,8600862,,,,,,,2022-07-22,1,,,,,キュウシュウキソギジュツコンサルタント,0
2477,9340003003866,新規,0,2022-07-22,2022-07-22,合同会社Ｂｅｓｔ　ｆｏｏｄ元氣邑,,合同会社,鹿児島県,指宿市,十二町１３０－１,,46,210,8910403,,,,,,,2022-07-22,1,,,,,ベストフードゲンキムラ,0
2481,9360005006691,新規,0,2022-07-22,2022-07-22,一般社団法人宮古島美ら海連絡協議会,,その他の設立登記法人,沖縄県,宮古島市,平良字荷川取５９３番地５,,47,214,9060008,,,,,,,2022-07-22,1,,,,,ミヤコジマチュラウミレンラクキョウギカイ,0
2485,9370003005760,新規,0,2022-07-22,2022-07-22,合同会社ファンサンブル,,合同会社,宮城県,仙台市青葉区,新坂町２番３－５号,,04,101,9810934,,,,,,,2022-07-22,1,,,,,ファンサンブル,0
2486,9370003005785,新規,0,2022-07-22,2022-07-22,合同会社Ｏｆｆｉｃｅ　Ｈ,,合同会社,宮城県,仙台市太白区,郡山字谷地田東４－１ドミトリースズキＤ２０２,,04,104,9820003,,,,,,,2022-07-22,1,,,,,オフィスエイチ,0
2498,9430001087118,新規,0,2022-07-22,2022-07-22,株式会社光,,株式会社,北海道,札幌市豊平区,月寒東二条８丁目４番８号,,01,105,0620052,,,,,,,2022-07-22,1,,,,,ヒカリ,0
2499,9430003014111,新規,0,2022-07-22,2022-07-22,合同会社七福,,合同会社,北海道,札幌市東区,北四十四条東３丁目１番７号,,01,103,0070844,,,,,,,2022-07-22,1,,,,,シチフク,0
2500,9430005014506,新規,0,2022-07-22,2022-07-22,特定非営利活動法人めぐみの家,,その他の設立登記法人,北海道,滝川市,朝日町東４丁目５番１１号,,01,225,0730015,,,,,,,2022-07-22,1,,,,,メグミノイエ,0
