sequenceNumber,corporateNumber,process,correct,updateDate,changeDate,name,nameImageId,kind,prefectureName,cityName,streetNumber,addressImageId,prefectureCode,cityCode,postCode,addressOutside,addressOutsideImageId,closeDate,closeCause,successorCorporateNumber,changeCause,assignmentDate,latest,enName,enPrefectureName,enCityName,enAddressOutside,furigana,hihyoji
5,1010001145461,登記記録の閉鎖等,0,2022-02-24,2022-02-16,株式会社ラディカルウェア,,株式会社,千葉県,山武郡横芝光町,横芝９５３番地１,,12,410,2891732,,,2022-02-16,清算の結了等,,,2015-10-05,1,,,,,ラディカルウェア,0
76,1011703002157,登記記録の閉鎖等,0,2022-02-24,2022-02-21,合同会社ビューティーイノベーション,,合同会社,東京都,江戸川区,瑞江３丁目４１番１０号,,13,123,1320011,,,2022-02-21,清算の結了等,,,2018-12-20,1,,,,,ビューティーイノベーション,0
81,1012401013636,登記記録の閉鎖等,0,2022-02-24,2022-02-16,株式会社プラグレス,,株式会社,東京都,三鷹市,下連雀３丁目１２番５号,,13,204,1810013,,,2022-02-16,清算の結了等,,,2015-10-05,1,,,,,プラグレス,0
120,1040001106436,登記記録の閉鎖等,0,2022-02-24,2022-02-09,株式会社ＥＢ　ＴＲＩＰ　ＪＡＰＡＮ,,株式会社,千葉県,市川市,欠真間１丁目１３番１２号,,12,203,2720142,,,2022-02-09,清算の結了等,,,2018-10-12,1,,,,,イービートリップジャパン,0
139,1070005000401,登記記録の閉鎖等,0,2022-02-24,2022-02-08,天理教荒子分教会,,その他の設立登記法人,群馬県,前橋市,荒子町６９２番地の３,,10,201,3792106,,,2022-02-08,合併による解散等,2070005000334,令和４年２月１日群馬県前橋市中内町２２３番地天理教善陽分教会（2070005000334）に合併し解散,2015-10-05,1,,,,,,0
147,1080402008153,登記記録の閉鎖等,0,2022-02-24,2022-02-22,有限会社ムツワ製作所,,有限会社,静岡県,浜松市東区,豊町１９５３番地,,22,132,4313101,,,2022-02-22,清算の結了等,,,2015-10-05,1,,,,,ムツワセイサクショ,0
149,1100002014499,登記記録の閉鎖等,0,2022-02-24,2022-02-18,有限会社中津屋商店,,有限会社,長野県,上田市,秋和２８８番地４,,20,203,3860041,,,2022-02-18,清算の結了等,,,2015-10-05,1,,,,,ナカツヤショウテン,0
157,1110005013340,登記記録の閉鎖等,0,2022-02-24,2022-02-03,西光寺,,その他の設立登記法人,新潟県,南魚沼市,滝谷３９８番地,,15,226,9496555,,,2022-02-03,合併による解散等,7110005013327,令和４年２月３日新潟県南魚沼市長崎１４２１番地槻岡寺（7110005013327）に合併し解散,2015-10-05,1,,,,,サイコウジ,0
211,1180301026881,登記記録の閉鎖等,0,2022-02-24,2022-02-21,高津建設株式会社,00074800,株式会社,愛知県,田原市,田原町北荒井４２番地１２,,23,231,4413421,,,2022-02-21,清算の結了等,,,2015-10-05,1,,,,,タカツケンセツ,0
216,1200005009478,登記記録の閉鎖等,0,2022-02-24,2022-02-07,天理教山岡分教会,,その他の設立登記法人,岐阜県,恵那市,山岡町馬場山田字清崎１５６２番地の２,,21,210,5097602,,,2022-02-07,合併による解散等,4200005009038,令和４年２月７日岐阜県中津川市阿木字加免割４３９６番地の２天理教阿木分教会（4200005009038）に合併し解散,2015-10-05,1,,,,,,0
229,1260002008832,登記記録の閉鎖等,0,2022-02-24,2022-02-21,有限会社仏壇のイムラ,,有限会社,岡山県,岡山市南区,西紅陽台１丁目５８番地７４,,33,104,7091203,,,2022-02-21,清算の結了等,,,2015-10-05,1,,,,,ブツダンノイムラ,0
259,1380003001907,登記記録の閉鎖等,0,2022-02-24,2022-02-21,合資会社金万商店,,合資会社,福島県,喜多方市,字町田８２７２番地の２,,07,208,9660847,,,2022-02-21,清算の結了等,,,2015-10-05,1,,,,,カネマンショウテン,0
308,2010403012011,登記記録の閉鎖等,0,2022-02-24,2022-02-18,レキシントンリアルティ合同会社,,合同会社,東京都,中央区,日本橋２丁目７番１号,,13,102,1030027,,,2022-02-18,清算の結了等,,,2015-10-05,1,,,,,レキシントンリアルティ,0
310,2010501033677,登記記録の閉鎖等,0,2022-02-24,2022-02-18,株式会社フォーティーワン・コンサルティング,,株式会社,東京都,新宿区,西新宿６丁目１５番１号３５０４,,13,104,1600023,,,2022-02-18,合併による解散等,9011101092900,令和４年２月１７日東京都新宿区西新宿六丁目１５番１号ラトゥール新宿３５０４ファイブ株式会社（9011101092900）に合併し解散,2015-10-05,1,,,,,フォーティーワンコンサルティング,0
343,2011102007979,登記記録の閉鎖等,0,2022-02-24,2022-02-17,有限会社高柳工務店,00053977,有限会社,東京都,新宿区,北新宿４丁目９番１８－４０７号,,13,104,1690074,,,2022-02-17,清算の結了等,,,2015-10-05,1,,,,,タカヤナギコウムテン,0
348,2011501020021,登記記録の閉鎖等,0,2022-02-24,2022-02-21,株式会社エンゼルネット,,株式会社,東京都,荒川区,町屋５丁目１０番９号,,13,118,1160001,,,2022-02-21,清算の結了等,,,2015-10-05,1,,,,,エンゼルネット,0
356,2012402003560,登記記録の閉鎖等,0,2022-02-24,2022-02-21,有限会社栄組,,有限会社,東京都,国分寺市,西恋ヶ窪１丁目４６番地１,,13,214,1850013,,,2022-02-21,清算の結了等,,,2015-10-05,1,,,,,サカエグミ,0
375,2030001034224,登記記録の閉鎖等,0,2022-02-24,2022-02-18,株式会社小島,,株式会社,埼玉県,日高市,大字旭ケ丘１３５番地１１,,11,242,3501203,,,2022-02-18,清算の結了等,,,2015-10-05,1,,,,,コジマ,0
376,2030001059089,登記記録の閉鎖等,0,2022-02-24,2022-02-17,株式会社ポプリ,,株式会社,埼玉県,比企郡川島町,八幡１丁目８番地１,,11,346,3500151,,,2022-02-17,清算の結了等,,,2015-10-05,1,,,,,,0
389,2040001065887,登記記録の閉鎖等,0,2022-02-24,2022-02-16,大栄測量設計株式会社,,株式会社,千葉県,柏市,松ケ崎４９８番地,,12,217,2770835,,,2022-02-16,清算の結了等,,,2015-10-05,1,,,,,ダイエイソクリョウセッケイ,0
399,2040002067131,登記記録の閉鎖等,0,2022-02-24,2022-02-14,有限会社高増工業,,有限会社,千葉県,木更津市,矢那２６８１番地５,,12,206,2920812,,,2022-02-14,清算の結了等,,,2015-10-05,1,,,,,タカマスコウギョウ,0
404,2050002029799,登記記録の閉鎖等,0,2022-02-24,2022-02-17,有限会社小松崎ホームズ,,有限会社,茨城県,鉾田市,青柳２１０４番地３,,08,234,3111535,,,2022-02-17,清算の結了等,,,2015-10-05,1,,,,,,0
414,2080101006291,登記記録の閉鎖等,0,2022-02-24,2022-02-14,三河設計株式会社,,株式会社,静岡県,三島市,南町３番１４号,,22,206,4110842,,,2022-02-14,清算の結了等,,,2015-10-05,1,,,,,ミカワセッケイ,0
433,2120105008172,登記記録の閉鎖等,0,2022-02-24,2022-02-18,特定非営利活動法人阪南まちづくり推進ネット,,その他の設立登記法人,大阪府,阪南市,箱作１６１７番地,,27,232,5990232,,,2022-02-18,清算の結了等,,,2015-10-05,1,,,,,ハンナンマチヅクリスイシンネット,0
449,2140002025070,登記記録の閉鎖等,0,2022-02-24,2022-02-17,Ｂｅ有限会社,,有限会社,福岡県,筑紫野市,原田４丁目７番地１,,40,217,8180024,,,2022-02-17,清算の結了等,,,2015-10-05,1,,,,,ビー,0
463,2180002080789,登記記録の閉鎖等,0,2022-02-24,2022-02-17,有限会社松楽,,有限会社,愛知県,稲沢市,稲沢町前田２００番地の１,,23,220,4928217,,,2022-02-17,清算の結了等,,,2015-10-05,1,,,,,ショウラク,0
478,2240005001843,登記記録の閉鎖等,0,2022-02-24,2022-02-18,全国自動車交通労働組合連合会広島地方本部,,その他の設立登記法人,広島県,広島市西区,西観音町１５番１号,,34,104,7330037,,,2022-02-18,清算の結了等,,,2015-10-05,1,,,,,ゼンコクジドウシャコウツウレンゴウカイヒロシマチホウホンブ,0
492,2300001006360,登記記録の閉鎖等,0,2022-02-24,2022-02-22,株式会社寺崎組,,株式会社,佐賀県,三養基郡みやき町,大字原古賀３０８番地,,41,346,8490101,,,2022-02-22,清算の結了等,,,2015-10-05,1,,,,,テラサキグミ,0
499,2340001013733,登記記録の閉鎖等,0,2022-02-24,2022-02-18,株式会社野桜産業,,株式会社,鹿児島県,鹿児島市,持木町６５０番地３,,46,201,8911542,,,2022-02-18,清算の結了等,,,2015-10-05,1,,,,,ヤオウサンギョウ,0
501,2350002016899,登記記録の閉鎖等,0,2022-02-24,2022-02-21,有限会社みなと調剤薬局,,有限会社,宮崎県,日南市,油津２丁目５番１６号,,45,204,8870001,,,2022-02-21,清算の結了等,,,2015-10-05,1,,,,,ミナトチョウザイヤクキョク,0
513,2420002006562,登記記録の閉鎖等,0,2022-02-24,2022-02-21,有限会社川村工業,,有限会社,青森県,八戸市,長苗代４丁目５番１号,,02,203,0391103,,,2022-02-21,清算の結了等,,,2015-10-05,1,,,,,カワムラコウギョウ,0
525,2450003001741,登記記録の閉鎖等,0,2022-02-24,2022-02-15,Ｗｅｓｔ　ＳＰＲＩＮＧ合同会社,,合同会社,北海道,旭川市,旭岡３丁目５７７５－５,,01,204,0700822,,,2022-02-15,清算の結了等,,,2018-07-26,1,,,,,ウェストスプリング,0
562,3010701027610,登記記録の閉鎖等,0,2022-02-24,2022-02-17,東通インテグレート株式会社,,株式会社,東京都,品川区,西五反田１丁目１１番１号アイオス五反田駅前６階,,13,109,1410031,,,2022-02-17,合併による解散等,2370001003657,令和４年２月１日仙台市若林区卸町二丁目１１番地の５東通インテグレート株式会社（2370001003657）に合併し解散,2015-10-05,1,,,,,トウツウインテグレート,0
563,3010702011472,登記記録の閉鎖等,0,2022-02-24,2022-02-21,有限会社エムアールエム,,有限会社,神奈川県,川崎市川崎区,浜町１丁目４番６－１号,,14,131,2100851,,,2022-02-21,清算の結了等,,,2015-10-05,1,,,,,エムアールエム,0
569,3011001059121,登記記録の閉鎖等,0,2022-02-24,2022-02-08,株式会社グランディア,,株式会社,東京都,渋谷区,広尾１丁目７番２１,,13,113,1500012,,,2022-02-08,清算の結了等,,,2015-10-05,1,,,,,グランディア,0
574,3011001119718,登記記録の閉鎖等,0,2022-02-24,2022-02-02,株式会社Ｈｅａｒｔｆｕｌ　Ｔｅｃｈｎｏｌｏｇｙ,,株式会社,東京都,渋谷区,代々木４丁目２８番７号,,13,113,1510053,,,2022-02-02,清算の結了等,,,2017-12-14,1,,,,,,0
608,3012305001917,登記記録の閉鎖等,0,2022-02-24,2022-02-17,一般社団法人ペルレ,,その他の設立登記法人,東京都,町田市,三輪緑山１丁目２８番地２２,,13,209,1950055,,,2022-02-17,清算の結了等,,,2020-06-12,1,,,,,ペルレ,0
615,3020001054214,登記記録の閉鎖等,0,2022-02-24,2022-02-21,株式会社ティーシー,,株式会社,神奈川県,横浜市泉区,領家３丁目１４番地１－１０１号,,14,116,2450004,,,2022-02-21,清算の結了等,,,2015-10-05,1,,,,,ティーシー,0
619,3020001087420,登記記録の閉鎖等,0,2022-02-24,2022-02-21,八起管工株式会社,,株式会社,神奈川県,横浜市瀬谷区,阿久和南１丁目２４番１９号,,14,114,2460026,,,2022-02-21,清算の結了等,,,2015-10-05,1,,,,,,0
629,3020005003357,登記記録の閉鎖等,0,2022-02-24,2022-02-21,全造船関東地協労働組合ＪＦＥ日本鋼管分会,,その他の設立登記法人,神奈川県,横浜市鶴見区,豊岡町２０番地９号サンコーポ豊岡５０５号,,14,101,2300062,,,2022-02-21,清算の結了等,,,2015-10-05,1,,,,,ゼンゾウセンカントウチキョウジェーエフイーニホンコウカンブンカイ,0
653,3070002019517,登記記録の閉鎖等,0,2022-02-24,2022-02-21,有限会社野村製作所,,有限会社,群馬県,伊勢崎市,柴町４８５番地１,,10,204,3720824,,,2022-02-21,清算の結了等,,,2015-10-05,1,,,,,ノムラセイサクショ,0
660,3080401014786,登記記録の閉鎖等,0,2022-02-24,2022-02-21,きらら株式会社,,株式会社,静岡県,掛川市,岩井寺３３３番地,,22,213,4360014,,,2022-02-21,清算の結了等,,,2015-10-05,1,,,,,キララ,0
663,3100002018589,登記記録の閉鎖等,0,2022-02-24,2022-02-21,有限会社スパンクリートライフサービス,,有限会社,長野県,下高井郡山ノ内町,大字平穏１４０２番地,,20,561,3810401,,,2022-02-21,清算の結了等,,,2015-10-05,1,,,,,スパンクリートライフサービス,0
695,3140005012783,登記記録の閉鎖等,0,2022-02-24,2022-02-21,農事組合法人美方きのこセンター,,その他の設立登記法人,兵庫県,美方郡香美町,小代区神水７３５番地,,28,585,6671511,,,2022-02-21,清算の結了等,,,2015-10-05,1,,,,,ミカタキノコセンター,0
702,3180002062142,登記記録の閉鎖等,0,2022-02-24,2022-02-16,有限会社川浦木材,,有限会社,愛知県,日進市,梅森台５丁目１８９番地の５,,23,230,4700133,,,2022-02-16,清算の結了等,,,2015-10-05,1,,,,,カワウラモクザイ,0
703,3180003020850,登記記録の閉鎖等,0,2022-02-24,2022-02-18,合同会社クリーンサービス三友,,合同会社,愛知県,春日井市,稲口町３丁目１５番地１８,,23,206,4860905,,,2022-02-18,清算の結了等,,,2020-02-14,1,,,,,クリーンサービスサンユウ,0
704,3180005017283,登記記録の閉鎖等,0,2022-02-24,2022-02-18,一般社団法人異文化理解フォーラム,,その他の設立登記法人,愛知県,名古屋市熱田区,六野１丁目２番２１号ザ・ライオンズミッドキャピタルタワー１４０７号,,23,109,4560023,,,2022-02-18,清算の結了等,,,2017-04-26,1,,,,,イブンカリカイフォーラム,0
756,3430002021709,登記記録の閉鎖等,0,2022-02-24,2022-02-18,有限会社若山工業,,有限会社,北海道,札幌市手稲区,新発寒六条８丁目９番１５号,,01,109,0060806,,,2022-02-18,清算の結了等,,,2015-10-05,1,,,,,ワカヤマコウギョウ,0
784,4010403022826,登記記録の閉鎖等,0,2022-02-24,2022-02-21,合同会社ＴＴＮ,,合同会社,岡山県,井原市,下稲木町６４０番地５,,33,207,7150017,,,2022-02-21,清算の結了等,,,2020-04-16,1,,,,,ティーティーエヌ,0
804,4011001068823,登記記録の閉鎖等,0,2022-02-24,2022-02-14,株式会社マイクロアドプラス,,株式会社,東京都,渋谷区,桜丘町２０番１号,,13,113,1500031,,,2022-02-14,合併による解散等,5011001052933,令和４年２月１日東京都渋谷区桜丘町２０番１号株式会社マイクロアド（5011001052933）に合併し解散,2015-10-05,1,,,,,マイクロアドプラス,0
815,4011201015633,登記記録の閉鎖等,0,2022-02-24,2022-02-18,株式会社タンジェリン・ラボ,,株式会社,東京都,中央区,東日本橋２丁目２８番４号日本橋ＣＥＴビル２階,,13,102,1030004,,,2022-02-18,清算の結了等,,,2015-10-05,1,,,,,タンジェリンラボ,0
825,4020001093558,登記記録の閉鎖等,0,2022-02-24,2022-02-15,株式会社ＡＳＡ－ＤＥＬＴＡ,,株式会社,神奈川県,川崎市川崎区,川中島１丁目５番２－６０３号,,14,131,2100803,,,2022-02-15,清算の結了等,,,2015-10-05,1,,,,,アザデルタ,0
828,4020001132282,登記記録の閉鎖等,0,2022-02-24,2022-02-21,株式会社平戸興産,,株式会社,神奈川県,横浜市港北区,新横浜２丁目５番１４号ＷＩＳＥＮＥＸＴ新横浜３階,,14,109,2220033,,,2022-02-21,合併による解散等,7020001022687,令和４年２月１日神奈川県横浜市港北区新横浜二丁目５番１４号ＷＩＳＥＮＥＸＴ新横浜３階株式会社ＫＭトレーディング（7020001022687）に合併し解散,2019-08-07,1,,,,,ヒラトコウサン,0
835,4030001049286,登記記録の閉鎖等,0,2022-02-24,2022-02-17,株式会社ソニックブーン,,株式会社,東京都,杉並区,井草２丁目２６番３号,,13,115,1670021,,,2022-02-17,清算の結了等,,,2015-10-05,1,,,,,ソニックブーン,0
865,4070002012140,登記記録の閉鎖等,0,2022-02-24,2022-02-21,有限会社丸喜電子,,有限会社,群馬県,高崎市,福島町７２９番地８,,10,202,3703523,,,2022-02-21,清算の結了等,,,2015-10-05,1,,,,,マルキデンシ,0
866,4070002014921,登記記録の閉鎖等,0,2022-02-24,2022-02-15,有限会社田中塗装工業,,有限会社,群馬県,安中市,安中３丁目１８番３０号,,10,211,3790116,,,2022-02-15,清算の結了等,,,2015-10-05,1,,,,,タナカトソウコウギョウ,0
870,4080005004010,登記記録の閉鎖等,0,2022-02-24,2022-02-22,特定非営利活動法人ＮＰＯいはら,,その他の設立登記法人,静岡県,静岡市清水区,蒲原小金２３６番地の１,,22,103,4213212,,,2022-02-22,清算の結了等,,,2015-10-05,1,,,,,エヌピーオーイハラ,0
876,4100002010859,登記記録の閉鎖等,0,2022-02-24,2022-02-15,有限会社千葉桜工務店,,有限会社,長野県,佐久市,協和１７３番地６,,20,217,3842204,,,2022-02-15,清算の結了等,,,2015-10-05,1,,,,,チバザクラコウムテン,0
885,4120001176443,登記記録の閉鎖等,0,2022-02-24,2022-02-18,株式会社３６００,,株式会社,大阪府,大阪市中央区,高麗橋４丁目５番１３号５Ｆ,,27,128,5410043,,,2022-02-18,清算の結了等,,,2015-10-05,1,,,,,,0
893,4120005021307,登記記録の閉鎖等,0,2022-02-24,2022-02-14,ＮＰＯ法人Ｂｅａｕｔｙ　ｐｒｏｇｒｅｓｓ　ａｃａｄｅｍｙ,,その他の設立登記法人,大阪府,大阪市阿倍野区,三明町２丁目７番１１号８０２,,27,119,5450005,,,2022-02-14,清算の結了等,,,2020-01-14,1,,,,,ビューティープログレスアカデミー,0
953,4280005005327,登記記録の閉鎖等,0,2022-02-24,2022-02-07,天理教吉陰分教会,00004959,その他の設立登記法人,島根県,益田市,幸町６番３６号,,32,204,6980021,,,2022-02-07,合併による解散等,9280005005330,令和４年２月７日島根県益田市あけぼの西町５番６天理教吉益分教会（9280005005330）に合併し解散,2015-10-05,1,,,,,,0
966,4310001008098,登記記録の閉鎖等,0,2022-02-24,2022-02-21,株式会社長崎海老沢,,株式会社,長崎県,諫早市,栗面町７５６番地の３,,42,204,8540055,,,2022-02-21,清算の結了等,,,2015-10-05,1,,,,,ナガサキエビサワ,0
973,4350005004759,登記記録の閉鎖等,0,2022-02-24,2022-02-18,特定非営利活動法人青竹館,,その他の設立登記法人,宮崎県,西諸県郡高原町,大字西麓８６８番地２,,45,361,8894412,,,2022-02-18,清算の結了等,,,2015-10-05,1,,,,,アオタケカン,0
974,4360002003226,登記記録の閉鎖等,0,2022-02-24,2022-02-18,有限会社なかそね,,有限会社,沖縄県,那覇市,字上間４１７番地,,47,201,9020073,,,2022-02-18,清算の結了等,,,2015-10-05,1,,,,,,0
975,4360002003432,登記記録の閉鎖等,0,2022-02-24,2022-02-18,有限会社根神,,有限会社,沖縄県,那覇市,首里石嶺町２丁目１９１番地２,,47,201,9030804,,,2022-02-18,清算の結了等,,,2015-10-05,1,,,,,ネガミ,0
978,4360005005649,登記記録の閉鎖等,0,2022-02-24,2022-02-18,一般社団法人運命図書館,,その他の設立登記法人,沖縄県,名護市,宮里３丁目１２番１４号,,47,209,9050011,,,2022-02-18,清算の結了等,,,2017-07-19,1,,,,,ウンメイトショカン,0
1005,5010001193614,登記記録の閉鎖等,0,2022-02-24,2022-02-16,株式会社ＫＡＲＥＮ,,株式会社,東京都,文京区,本郷３丁目２８番１０号柏屋ビル２,,13,105,1130033,,,2022-02-16,清算の結了等,,,2018-07-30,1,,,,,カレン,0
1011,5010003034568,登記記録の閉鎖等,0,2022-02-24,2022-02-21,日本高速鉄道電気システム支援合同会社,,合同会社,東京都,千代田区,丸の内２丁目２番３号,,13,101,1000005,,,2022-02-21,清算の結了等,,,2021-04-06,1,,,,,ニッポンコウソクテツドウデンキシステムシエン,0
1023,5010501036000,登記記録の閉鎖等,0,2022-02-24,2022-02-22,萩原商事株式会社,,株式会社,東京都,台東区,上野５丁目２１番８号,,13,106,1100005,,,2022-02-22,清算の結了等,,,2015-10-05,1,,,,,,0
1065,5012401024068,登記記録の閉鎖等,0,2022-02-24,2022-02-21,株式会社ＡＮＮＤＷ,,株式会社,東京都,国立市,東４丁目２２番地の４２,,13,215,1860002,,,2022-02-21,清算の結了等,,,2015-10-05,1,,,,,アンドウ,0
1074,5013301039916,登記記録の閉鎖等,0,2022-02-24,2022-02-22,ＣＩＴＴＥＣ株式会社,,株式会社,東京都,荒川区,南千住１丁目１５番１６号,,13,118,1160003,,,2022-02-22,清算の結了等,,,2017-01-19,1,,,,,シテック,0
1080,5020002022242,登記記録の閉鎖等,0,2022-02-24,2022-02-18,有限会社平野屋商事,,有限会社,神奈川県,横浜市旭区,上川井町３１１４番地,,14,112,2410802,,,2022-02-18,清算の結了等,,,2015-10-05,1,,,,,ヒラノヤショウジ,0
1084,5021001041720,登記記録の閉鎖等,0,2022-02-24,2022-02-18,株式会社湘南ホームプラン,,株式会社,神奈川県,三浦郡葉山町,下山口１８５０番地の７,,14,301,2400116,,,2022-02-18,清算の結了等,,,2015-10-05,1,,,,,ショウナンホームプラン,0
1099,5030002106473,登記記録の閉鎖等,0,2022-02-24,2022-02-15,有限会社武幸商事,,有限会社,千葉県,松戸市,小金原６丁目８番地の１１,,12,207,2700021,,,2022-02-15,清算の結了等,,,2015-10-05,1,,,,,ブコウショウジ,0
1100,5040001018883,登記記録の閉鎖等,0,2022-02-24,2022-02-16,村田建設株式会社,,株式会社,千葉県,船橋市,七林町１１４番地２５,,12,204,2740821,,,2022-02-16,清算の結了等,,,2015-10-05,1,,,,,ムラタケンセツ,0
1101,5040001025046,登記記録の閉鎖等,0,2022-02-24,2022-02-14,株式会社ブレース,,株式会社,千葉県,八千代市,八千代台北１２丁目１９番１４号,,12,221,2760031,,,2022-02-14,清算の結了等,,,2015-10-05,1,,,,,ブレース,0
1114,5040003013800,登記記録の閉鎖等,0,2022-02-24,2022-02-08,スマイルメディカ合同会社,,合同会社,千葉県,千葉市中央区,中央３丁目１３番７号コスモ千葉中央ビル４０６号,,12,101,2600013,,,2022-02-08,清算の結了等,,,2019-07-31,1,,,,,スマイルメディカ,0
1117,5050002023056,登記記録の閉鎖等,0,2022-02-24,2022-02-18,有限会社シンヨウ,,有限会社,茨城県,つくば市,桜が丘２５番地の２５,,08,220,3001271,,,2022-02-18,清算の結了等,,,2015-10-05,1,,,,,シンヨウ,0
1123,5060002006968,登記記録の閉鎖等,0,2022-02-24,2022-02-21,有限会社西田運輸,,有限会社,栃木県,宇都宮市,中島町４３５番地１,,09,201,3210114,,,2022-02-21,清算の結了等,,,2015-10-05,1,,,,,ニシダウンユ,0
1158,5130001060694,登記記録の閉鎖等,0,2022-02-24,2022-02-21,株式会社葵,,株式会社,京都府,久世郡久御山町,森中内１１１番１,,26,322,6130024,,,2022-02-21,清算の結了等,,,2017-10-12,1,,,,,アオイ,0
1162,5140001045942,登記記録の閉鎖等,0,2022-02-24,2022-02-21,株式会社七陽,,株式会社,兵庫県,加古川市,八幡町宗佐６９８番地,,28,210,6751201,,,2022-02-21,清算の結了等,,,2015-10-05,1,,,,,シチヨウ,0
1197,5230005009034,登記記録の閉鎖等,0,2022-02-24,2022-02-22,一般社団法人ひらすま舎,,その他の設立登記法人,富山県,射水市,橋下条１０８０番地,,16,211,9390332,,,2022-02-22,清算の結了等,,,2019-11-28,1,,,,,,0
1264,6010001174183,登記記録の閉鎖等,0,2022-02-24,2022-02-21,データタワー株式会社,,株式会社,東京都,中央区,銀座７丁目１３番６号サガミビル２Ｆ,,13,102,1040061,,,2022-02-21,清算の結了等,,,2016-03-14,1,,,,,データタワー,0
1271,6010005027057,登記記録の閉鎖等,0,2022-02-24,2022-02-17,ウィンチェスター特定目的会社,,その他の設立登記法人,東京都,港区,赤坂２丁目１５番１６号赤坂ふく源ビル４階,,13,103,1070052,,,2022-02-17,清算の結了等,,,2017-07-05,1,,,,,ウィンチェスター,0
1289,6010901010784,登記記録の閉鎖等,0,2022-02-24,2022-02-18,株式会社フレスコ,,株式会社,東京都,世田谷区,野毛２丁目１７番２号パークサイド野毛２０６号,,13,112,1580092,,,2022-02-18,清算の結了等,,,2015-10-05,1,,,,,フレスコ,0
1296,6011001094677,登記記録の閉鎖等,0,2022-02-24,2022-02-18,株式会社ＣＥＮＴＲＡＬ　ＷＨＯＬＥ　ＭＡＲＫＥＴ,,株式会社,東京都,江東区,新木場１丁目４番４号,,13,108,1360082,,,2022-02-18,合併による解散等,1011001065071,令和４年２月１日東京都港区海岸三丁目３番１８号芝浦日新ビル新館６階株式会社ノンピ（1011001065071）に合併し解散,2015-10-05,1,,,,,セントラルホールマーケット,0
1325,6011702010081,登記記録の閉鎖等,0,2022-02-24,2022-02-21,有限会社文屋,,有限会社,東京都,江戸川区,中葛西１丁目４４番４号,,13,123,1340083,,,2022-02-21,清算の結了等,,,2015-10-05,1,,,,,,0
1333,6013201002980,登記記録の閉鎖等,0,2022-02-24,2022-02-16,株式会社ジャス,,株式会社,東京都,目黒区,目黒本町２丁目１５番９号,,13,110,1520002,,,2022-02-16,清算の結了等,,,2015-10-05,1,,,,,ジャス,0
1347,6020003014568,登記記録の閉鎖等,0,2022-02-24,2022-02-21,合同会社ゼラスリーメイト,,合同会社,神奈川県,川崎市多摩区,中野島６丁目２９番２－２０７号,,14,135,2140012,,,2022-02-21,清算の結了等,,,2018-07-06,1,,,,,ゼラスリーメイト,0
1364,6030002046025,登記記録の閉鎖等,0,2022-02-24,2022-02-18,有限会社モーリーワン,,有限会社,埼玉県,草加市,瀬崎６丁目２番１４号,,11,221,3400022,,,2022-02-18,清算の結了等,,,2015-10-05,1,,,,,モーリーワン,0
1386,6070002036237,登記記録の閉鎖等,0,2022-02-24,2022-02-21,有限会社応桑石油,,有限会社,群馬県,吾妻郡長野原町,大字応桑１６９８番地１,,10,424,3771411,,,2022-02-21,清算の結了等,,,2015-10-05,1,,,,,,0
1402,6100003006409,登記記録の閉鎖等,0,2022-02-24,2022-02-18,合資会社今田屋商店,,合資会社,長野県,駒ヶ根市,中央１９番１１号,,20,210,3994112,,,2022-02-18,清算の結了等,,,2022-02-14,1,,,,,イマダヤショウテン,0
1486,6340005003883,登記記録の閉鎖等,0,2022-02-24,2022-02-16,上平川生産森林組合,,その他の設立登記法人,鹿児島県,薩摩郡さつま町,平川４００１番地１,,46,392,8951807,,,2022-02-16,清算の結了等,,,2015-10-05,1,,,,,カミヒラカワ,0
1502,6410002010181,登記記録の閉鎖等,0,2022-02-24,2022-02-21,有限会社カインドメイツ,,有限会社,秋田県,能代市,字中柳１２番地２,,05,202,0160183,,,2022-02-21,清算の結了等,,,2015-10-05,1,,,,,,0
1511,6460305000057,登記記録の閉鎖等,0,2022-02-24,2022-02-21,北見地区硝子工事協同組合,,その他の設立登記法人,北海道,北見市,東相内町２１８番地６,,01,208,0990878,,,2022-02-21,清算の結了等,,,2015-10-05,1,,,,,キタミチクガラスコウジ,0
1512,6462502000590,登記記録の閉鎖等,0,2022-02-24,2022-02-22,八閤水産有限会社,,有限会社,北海道,標津郡標津町,字茶志骨７３番地の１,,01,693,0861622,,,2022-02-22,清算の結了等,,,2015-10-05,1,,,,,ハッコウスイサン,0
1513,6462502000954,登記記録の閉鎖等,0,2022-02-24,2022-02-22,有限会社北一漁業,,有限会社,北海道,標津郡標津町,北六条西２丁目２番３号,,01,693,0861636,,,2022-02-22,清算の結了等,,,2015-10-05,1,,,,,ホクイチギョギョウ,0
1548,7010503000522,登記記録の閉鎖等,0,2022-02-24,2022-02-17,合資会社小澤鉄工所,,合資会社,東京都,台東区,三ノ輪１丁目３番５号,,13,106,1100011,,,2022-02-17,清算の結了等,,,2015-10-05,1,,,,,,0
1551,7010602017698,登記記録の閉鎖等,0,2022-02-24,2022-02-18,有限会社ペデル企画,,有限会社,埼玉県,草加市,谷塚上町５９５番地９,,11,221,3400024,,,2022-02-18,清算の結了等,,,2015-10-05,1,,,,,ペデルキカク,0
1564,7011001107099,登記記録の閉鎖等,0,2022-02-24,2022-02-14,株式会社Ｓｐｒａａｙ,,株式会社,東京都,渋谷区,神宮前６丁目１９番１６号－１００１,,13,113,1500001,,,2022-02-14,清算の結了等,,,2015-10-05,1,,,,,スプレイ,0
1600,7013201018976,登記記録の閉鎖等,0,2022-02-24,2022-02-21,株式会社Ｔｒａｆｆｉｃ,,株式会社,東京都,目黒区,緑が丘２丁目８番１５号,,13,110,1520034,,,2022-02-21,清算の結了等,,,2015-10-05,1,,,,,,0
1614,7020005007767,登記記録の閉鎖等,0,2022-02-24,2022-02-01,医療法人花咲会,,その他の設立登記法人,神奈川県,川崎市宮前区,犬蔵２丁目２５番９号,,14,136,2160011,,,2022-02-01,合併による解散等,6020005007132,令和４年２月１日横浜市港北区樽町一丁目１番２３号医療法人三星会（6020005007132）に合併し解散,2015-10-05,1,,,,,ハナサキカイ,0
1629,7030002073646,登記記録の閉鎖等,0,2022-02-24,2022-02-17,有限会社進成建設,,有限会社,埼玉県,川越市,伊勢原町４丁目８番地１,,11,201,3501108,,,2022-02-17,清算の結了等,,,2015-10-05,1,,,,,シンセイケンセツ,0
1639,7040002062895,登記記録の閉鎖等,0,2022-02-24,2022-02-17,橋立自動車販売有限会社,,有限会社,千葉県,印旛郡酒々井町,上本佐倉１０４番地１,,12,322,2850925,,,2022-02-17,清算の結了等,,,2015-10-05,1,,,,,,0
1657,7080401012555,登記記録の閉鎖等,0,2022-02-24,2022-02-21,株式会社いーら旅行舎,,株式会社,静岡県,浜松市中区,中央２丁目１０番２２号,,22,131,4300929,,,2022-02-21,清算の結了等,,,2015-10-05,1,,,,,イーラリョコウシャ,0
1664,7110005016123,登記記録の閉鎖等,0,2022-02-24,2022-02-22,一般社団法人エデンの園,,その他の設立登記法人,新潟県,新潟市西区,五十嵐中島３丁目５番１６号,,15,107,9502162,,,2022-02-22,清算の結了等,,,2017-07-19,1,,,,,エデンノソノ,0
1665,7120001077060,登記記録の閉鎖等,0,2022-02-24,2022-02-21,株式会社ケイエムコーポレーション,,株式会社,大阪府,大阪市中央区,西心斎橋１丁目５番１２号,,27,128,5420086,,,2022-02-21,清算の結了等,,,2015-10-05,1,,,,,ケイエムコーポレーション,0
1682,7120901034879,登記記録の閉鎖等,0,2022-02-24,2022-02-18,株式会社ＭＯＲＮＩＮＧ　ＧＬＡＳＳ　ＪＡＰＡＮ,,株式会社,大阪府,大阪市中央区,安土町３丁目２番１４号,,27,128,5410052,,,2022-02-18,清算の結了等,,,2015-10-05,1,,,,,,0
1696,7160003001618,登記記録の閉鎖等,0,2022-02-24,2022-02-18,ＥＭＰＩＲＥ　ＭＵＳＩＣ　ＥＮＴＥＲＴＡＩＮＭＥＮＴ合同会社,,合同会社,滋賀県,栗東市,大橋６丁目６番５－２０２号,,25,208,5203046,,,2022-02-18,清算の結了等,,,2018-02-06,1,,,,,,0
1709,7180003014295,登記記録の閉鎖等,0,2022-02-24,2022-02-18,合名会社光洋,,合名会社,愛知県,名古屋市昭和区,川名本町１丁目４４番地,,23,107,4660855,,,2022-02-18,清算の結了等,,,2021-10-14,1,,,,,コウヨウ,0
1751,7360002010806,登記記録の閉鎖等,0,2022-02-24,2022-02-21,有限会社大満喜郎産業,,有限会社,沖縄県,島尻郡南風原町,字津嘉山６６８番地２,,47,350,9011117,,,2022-02-21,清算の結了等,,,2015-10-05,1,,,,,オオミツヨシロウサンギョウ,0
1792,8010003017470,登記記録の閉鎖等,0,2022-02-24,2022-02-21,合同会社ＴＭＣコンサルティング,,合同会社,東京都,千代田区,丸の内３丁目２番２号丸の内二重橋ビル,,13,101,1000005,,,2022-02-21,清算の結了等,,,2015-10-05,1,,,,,ティーエムシーコンサルティング,0
1804,8010403022640,登記記録の閉鎖等,0,2022-02-24,2022-02-18,合同会社長期安定電源ファンド,,合同会社,東京都,港区,虎ノ門１丁目２番８号リニューアブル・ジャパン株式会社内,,13,103,1050001,,,2022-02-18,清算の結了等,,,2020-03-12,1,,,,,チョウキアンテイデンゲンファンド,0
1806,8010405013167,登記記録の閉鎖等,0,2022-02-24,2022-02-17,一般社団法人日本空調設備協会,,その他の設立登記法人,東京都,港区,赤坂２丁目１７番５５号,,13,103,1070052,,,2022-02-17,清算の結了等,,,2015-10-05,1,,,,,ニホンクウチョウセツビキョカイ,0
1832,8011602024023,登記記録の閉鎖等,0,2022-02-24,2022-02-21,有限会社ＴＩＳＫ,,有限会社,東京都,東村山市,美住町１丁目４番１号グリーンタウン美住一番街５号棟１０４号室,,13,213,1890023,,,2022-02-21,清算の結了等,,,2015-10-05,1,,,,,ティーアイエスケー,0
1851,8020001094998,登記記録の閉鎖等,0,2022-02-24,2022-02-21,株式会社スクエア,,株式会社,神奈川県,川崎市宮前区,西野川３丁目７番３１号,,14,136,2160044,,,2022-02-21,清算の結了等,,,2015-10-05,1,,,,,スクエア,0
1863,8030002071673,登記記録の閉鎖等,0,2022-02-24,2022-02-15,有限会社トキワ,,有限会社,埼玉県,春日部市,緑町６丁目９番６号,,11,214,3440063,,,2022-02-15,清算の結了等,,,2015-10-05,1,,,,,トキワ,0
1876,8040001119019,登記記録の閉鎖等,0,2022-02-24,2022-02-15,株式会社いちかわ,,株式会社,千葉県,松戸市,西馬橋５丁目１番５号,,12,207,2710044,,,2022-02-15,清算の結了等,,,2021-06-22,1,,,,,イチカワ,0
1889,8060002010372,登記記録の閉鎖等,0,2022-02-24,2022-02-21,有限会社備鳥,,有限会社,栃木県,宇都宮市,本町６番９号,,09,201,3200033,,,2022-02-21,清算の結了等,,,2015-10-05,1,,,,,ビンチョウ,0
1893,8070002002757,登記記録の閉鎖等,0,2022-02-24,2022-02-21,有限会社清水伝商店,,有限会社,群馬県,前橋市,西片貝町４丁目１番地の６,,10,201,3710013,,,2022-02-21,清算の結了等,,,2015-10-05,1,,,,,シミズデンショウテン,0
1903,8120001037600,登記記録の閉鎖等,0,2022-02-24,2022-02-22,株式会社岡村鉄工所,,株式会社,大阪府,大阪市浪速区,桜川４丁目３番１４号,,27,111,5560022,,,2022-02-22,清算の結了等,,,2015-10-05,1,,,,,オカムラテッコウショ,0
1920,8120002075707,登記記録の閉鎖等,0,2022-02-24,2022-02-21,有限会社ほりかぐ,,有限会社,大阪府,寝屋川市,東大利町３番７号,,27,215,5720042,,,2022-02-21,清算の結了等,,,2015-10-05,1,,,,,ホリカグ,0
1923,8120901002587,登記記録の閉鎖等,0,2022-02-24,2022-02-22,城北工業株式会社,,株式会社,大阪府,茨木市,宮島３丁目３番４号,,27,211,5670853,,,2022-02-22,清算の結了等,,,2015-10-05,1,,,,,ジョウホクコウギョウ,0
1954,8180003022248,登記記録の閉鎖等,0,2022-02-24,2022-01-28,Ｕｄｅｅｙ合同会社,,合同会社,愛知県,春日井市,西高山町１丁目２－１４,,23,206,4860911,,,2022-01-28,清算の結了等,,,2021-03-11,1,,,,,ユーディー,0
1958,8180301016455,登記記録の閉鎖等,0,2022-02-24,2022-02-21,株式会社プロジェクトブルー,,株式会社,愛知県,安城市,明治本町８番４号,,23,212,4460062,,,2022-02-21,清算の結了等,,,2015-10-05,1,,,,,プロジェクトブルー,0
1972,8230001017723,登記記録の閉鎖等,0,2022-02-24,2022-02-21,株式会社ＦｌｏａｔｉｎｇＷｅｅｄ,,株式会社,富山県,富山市,上新保１３１番地,,16,201,9398061,,,2022-02-21,清算の結了等,,,2019-01-07,1,,,,,フローティングウィード,0
2009,8370305000766,登記記録の閉鎖等,0,2022-02-24,2022-02-16,特定非営利活動法人愛,,その他の設立登記法人,宮城県,石巻市,須江字畳石５０番地の２,,04,202,9871221,,,2022-02-16,清算の結了等,,,2015-10-05,1,,,,,アイ,0
2038,9010401147686,登記記録の閉鎖等,0,2022-02-24,2022-02-17,株式会社Ｓｈｉｎｙ,,株式会社,東京都,港区,海岸１丁目２番３号汐留離宮ビルディング２１階,,13,103,1050022,,,2022-02-17,清算の結了等,,,2019-09-10,1,,,,,シャイニー,0
2045,9010403012186,登記記録の閉鎖等,0,2022-02-24,2022-02-17,合同会社茨城ソーラー,,合同会社,東京都,港区,六本木６丁目１０番１号六本木ヒルズ森タワー,,13,103,1060032,,,2022-02-17,清算の結了等,,,2015-10-05,1,,,,,イバラキソーラー,0
2062,9010801019717,登記記録の閉鎖等,0,2022-02-24,2022-02-17,イズミアセットマネジメント株式会社,,株式会社,東京都,大田区,蒲田４丁目２８番３号,,13,111,1440052,,,2022-02-17,清算の結了等,,,2015-10-05,1,,,,,イズミアセットマネジメント,0
2098,9011601014404,登記記録の閉鎖等,0,2022-02-24,2022-02-17,株式会社光伸堂,,株式会社,東京都,練馬区,石神井台７丁目５番４号,,13,120,1770045,,,2022-02-17,清算の結了等,,,2015-10-05,1,,,,,コウシンドウ,0
2117,9020002030051,登記記録の閉鎖等,0,2022-02-24,2022-02-18,有限会社相模大乗,,有限会社,神奈川県,横浜市港南区,港南台５丁目２３番１６号,,14,111,2340054,,,2022-02-18,清算の結了等,,,2015-10-05,1,,,,,,0
2131,9030002039463,登記記録の閉鎖等,0,2022-02-24,2022-02-18,有限会社ふなき,,有限会社,埼玉県,久喜市,栗橋東３丁目１２番２３号,,11,232,3491103,,,2022-02-18,清算の結了等,,,2015-10-05,1,,,,,フナキ,0
2135,9030005011980,登記記録の閉鎖等,0,2022-02-24,2022-02-18,一般社団法人日本プロドライバー検定協会,,その他の設立登記法人,埼玉県,羽生市,大字砂山８０番地,,11,216,3480036,,,2022-02-18,清算の結了等,,,2015-10-05,1,,,,,ニホンプロドライバーケンテイキョウカイ,0
2142,9040002003716,登記記録の閉鎖等,0,2022-02-24,2022-02-15,有限会社ケアー・カーサ,,有限会社,千葉県,千葉市稲毛区,長沼原町３１７番地１（６棟１３０１号）,,12,103,2630001,,,2022-02-15,清算の結了等,,,2015-10-05,1,,,,,ケアーカーサ,0
2143,9040002015827,登記記録の閉鎖等,0,2022-02-24,2022-02-16,有限会社雄大,,有限会社,千葉県,千葉市花見川区,作新台７丁目１０番１号,,12,102,2620045,,,2022-02-16,清算の結了等,,,2015-10-05,1,,,,,ユウダイ,0
2150,9040005008761,登記記録の閉鎖等,0,2022-02-24,2022-02-16,富津市土地開発公社,,その他の設立登記法人,千葉県,富津市,下飯野２４４３番地,,12,226,2930006,,,2022-02-16,清算の結了等,,,2015-10-05,1,,,,,フッツシ,0
2158,9080001020849,登記記録の閉鎖等,0,2022-02-24,2022-02-22,株式会社Ｓｍｉｌｉｎｇ　Ｆａｃｅ,,株式会社,静岡県,静岡市駿河区,中島４６２番地の７,,22,102,4228046,,,2022-02-22,清算の結了等,,,2016-04-06,1,,,,,スマイリングフェイス,0
2162,9080102003851,登記記録の閉鎖等,0,2022-02-24,2022-02-22,有限会社若林ラジオ商会,,有限会社,静岡県,沼津市,新宿町１７番地の７,,22,203,4100048,,,2022-02-22,清算の結了等,,,2015-10-05,1,,,,,ワカバヤシラジオショウカイ,0
2171,9120001083338,登記記録の閉鎖等,0,2022-02-24,2022-02-18,株式会社ダイワ,,株式会社,大阪府,大阪市中央区,内本町２丁目１番１９号,,27,128,5400026,,,2022-02-18,清算の結了等,,,2015-10-05,1,,,,,ダイワ,0
2172,9120001100456,登記記録の閉鎖等,0,2022-02-24,2022-02-18,株式会社ウエルズ,,株式会社,大阪府,大阪市東淀川区,大道南３丁目６番３４号,,27,114,5330012,,,2022-02-18,清算の結了等,,,2015-10-05,1,,,,,ウエルズ,0
2175,9120001183096,登記記録の閉鎖等,0,2022-02-24,2022-02-18,株式会社Ｄａｉ　Ｃｈａｎｃｅ,,株式会社,大阪府,枚方市,東船橋２丁目３８番１号,,27,210,5731115,,,2022-02-18,清算の結了等,,,2015-10-05,1,,,,,,0
2238,9180302009985,登記記録の閉鎖等,0,2022-02-24,2022-02-21,マルヤマ海苔本舗有限会社,,有限会社,愛知県,豊橋市,下地町字豊麻１９番地,,23,201,4400086,,,2022-02-21,清算の結了等,,,2015-10-05,1,,,,,マルヤマノリホンポ,0
2241,9200001029638,登記記録の閉鎖等,0,2022-02-24,2022-02-21,株式会社パール,,株式会社,滋賀県,草津市,東矢倉２丁目５番３７号,,25,206,5250054,,,2022-02-21,清算の結了等,,,2015-10-05,1,,,,,パール,0
2258,9260001016390,登記記録の閉鎖等,0,2022-02-24,2022-02-22,Ａｄｖａｎｃｅｄ　Ｍｅｄｉａ　Ｔｅｃｈｎｏｌｏｇｉｅｓ株式会社,,株式会社,岡山県,倉敷市,児島駅前１丁目５５番３号,,33,202,7110921,,,2022-02-22,清算の結了等,,,2015-10-05,1,,,,,アドバンスドメディアテクノロジーズ,0
2268,9290001073223,登記記録の閉鎖等,0,2022-02-24,2022-02-18,株式会社ラブアース２１,,株式会社,福岡県,福岡市東区,香椎３丁目４８番１号,,40,131,8130011,,,2022-02-18,清算の結了等,,,2016-03-14,1,,,,,,0
2284,9340003001738,登記記録の閉鎖等,0,2022-02-24,2022-02-17,合同会社ワイエスクレジット,,合同会社,鹿児島県,肝属郡肝付町,前田９７２番地,,46,492,8931206,,,2022-02-17,合併による解散等,8340001018371,令和４年２月１７日鹿児島県肝属郡肝付町前田９５７番地４３山佐ホールディングス株式会社（8340001018371）に合併し解散,2015-10-05,1,,,,,ワイエスクレジット,0
2288,9390002006320,登記記録の閉鎖等,0,2022-02-24,2022-02-21,有限会社富士見工業所,,有限会社,山形県,上山市,高松字南谷地１１７５番地の２,,06,207,9993243,,,2022-02-21,清算の結了等,,,2015-10-05,1,,,,,,0
2294,9430001047352,登記記録の閉鎖等,0,2022-02-24,2022-02-18,株式会社丸幸ハイヤー,,株式会社,北海道,夕張郡栗山町,中央２丁目１４６番地,,01,429,0691511,,,2022-02-18,清算の結了等,,,2015-10-05,1,,,,,マルコウハイヤー,0
2297,9430003010366,登記記録の閉鎖等,0,2022-02-24,2022-02-21,合同会社ＨＡＬ,,合同会社,北海道,千歳市,桂木１丁目１番９号,,01,224,0660067,,,2022-02-21,清算の結了等,,,2019-04-19,1,,,,,ハル,0
2301,9450002000878,登記記録の閉鎖等,0,2022-02-24,2022-02-22,有限会社宇山商事,,有限会社,北海道,旭川市,大雪通９丁目５１２番地の３８,,01,204,0700010,,,2022-02-22,清算の結了等,,,2015-10-05,1,,,,,ウヤマショウジ,0
