sequenceNumber,corporateNumber,process,correct,updateDate,changeDate,name,nameImageId,kind,prefectureName,cityName,streetNumber,addressImageId,prefectureCode,cityCode,postCode,addressOutside,addressOutsideImageId,closeDate,closeCause,successorCorporateNumber,changeCause,assignmentDate,latest,enName,enPrefectureName,enCityName,enAddressOutside,furigana,hihyoji
13,1010001226914,新規,0,2022-06-01,2022-06-01,株式会社ＮＯＡＨ　Ｃｏｎｔｒｏｌｓ,,株式会社,東京都,中央区,銀座７丁目１５番９号,,13,102,1040061,,,,,,,2022-06-01,1,,,,,ノアコントロールズ,0
14,1010001226971,新規,0,2022-06-01,2022-06-01,株式会社ＮＯＸ,,株式会社,東京都,中央区,入船２丁目８番９号ミズノユニハイム５０３,,13,102,1040042,,,,,,,2022-06-01,1,,,,,ノックス,0
15,1010001227020,新規,0,2022-06-01,2022-06-01,株式会社ＪＯＥＮ,,株式会社,東京都,千代田区,六番町４番地５,,13,101,1020085,,,,,,,2022-06-01,1,,,,,ジョエン,0
17,1010005035080,新規,0,2022-06-01,2022-06-01,一般社団法人西国立開発,,その他の設立登記法人,東京都,千代田区,平河町１丁目６番１５号シルスフィア会計事務所内,,13,101,1020093,,,,,,,2022-06-01,1,,,,,ニシクニタチカイハツ,0
19,1010103001926,新規,0,2022-06-01,2022-06-01,ＬＩＮＫ　ＦＲＯＮＴ合同会社,,合同会社,東京都,八王子市,平岡町２３－１２－２Ｆ号室,,13,201,1920061,,,,,,,2022-06-01,1,,,,,リンクフロント,0
24,1010401167618,新規,0,2022-06-01,2022-06-01,Ｔｅａｍ　Ｔ５株式会社,,株式会社,東京都,港区,赤坂２丁目２３番１号アークヒルズ・フロントタワーＩｎＣｏｎｔｒｏｌ内,,13,103,1070052,,,,,,,2022-06-01,1,,,,,チームティーゴ,0
25,1010401167642,新規,0,2022-06-01,2022-06-01,株式会社Ｌｉｌｙ　Ｍｕｕ,,株式会社,東京都,港区,海岸１丁目９－１５－２４０６,,13,103,1050022,,,,,,,2022-06-01,1,,,,,リリィムゥ,0
26,1010401167667,新規,0,2022-06-01,2022-06-01,株式会社ＪＧ１５,,株式会社,東京都,港区,虎ノ門１丁目３番１号,,13,103,1050001,,,,,,,2022-06-01,1,,,,,ジェイジージュウゴ,0
27,1010401167683,新規,0,2022-06-01,2022-06-01,中小革新基盤株式会社,,株式会社,東京都,港区,北青山２丁目１４－４ｔｈｅＡＲＧＹＬＥａｏｙａｍａ,,13,103,1070061,,,,,,,2022-06-01,1,,,,,チュウショウカクシンキバン,0
28,1010401167709,新規,0,2022-06-01,2022-06-01,株式会社ジェスコン,,株式会社,東京都,港区,麻布十番１丁目５－２６－３０１,,13,103,1060045,,,,,,,2022-06-01,1,,,,,ジェスコン,0
34,1010403027794,新規,0,2022-06-01,2022-06-01,井上合同会社,,合同会社,東京都,港区,北青山２丁目１０番１６－３０７号,,13,103,1070061,,,,,,,2022-06-01,1,,,,,イノウエ,0
35,1010405021028,新規,0,2022-06-01,2022-06-01,ＥＳＲ３０特定目的会社,,その他の設立登記法人,東京都,港区,浜松町１丁目２０番１０号ライオネス浜松町５０６号室,,13,103,1050013,,,,,,,2022-06-01,1,,,,,イーエスアールサンジュウ,0
46,1010905004317,新規,0,2022-06-01,2022-06-01,一般社団法人ワールドピースゲームジャパン,,その他の設立登記法人,東京都,世田谷区,若林４丁目２５番１４号コーナー松陰ビル２階,,13,112,1540023,,,,,,,2022-06-01,1,,,,,,0
48,1011001147794,新規,0,2022-06-01,2022-06-01,株式会社ＦＥＩＤＩＡＳ,,株式会社,東京都,渋谷区,円山町１５番３号,,13,113,1500044,,,,,,,2022-06-01,1,,,,,フェイディアス,0
49,1011001147844,新規,0,2022-06-01,2022-06-01,株式会社ＢＣＧＳ,,株式会社,東京都,渋谷区,広尾５丁目２３番５号長谷部第１ビル１階,,13,113,1500012,,,,,,,2022-06-01,1,,,,,ビーシージーエス,0
50,1011001147869,新規,0,2022-06-01,2022-06-01,株式会社ＡｎｙＣｒａｆｔ,,株式会社,東京都,渋谷区,渋谷３丁目１９番１号,,13,113,1500002,,,,,,,2022-06-01,1,,,,,エニークラフト,0
52,1011101098913,新規,0,2022-06-01,2022-06-01,株式会社八福不動産,,株式会社,東京都,新宿区,西新宿７丁目４番７号イマス浜田ビル３Ｆ－Ｂ,,13,104,1600023,,,,,,,2022-06-01,1,,,,,ハチフクフドウサン,0
53,1011101099036,新規,0,2022-06-01,2022-06-01,株式会社雑談,,株式会社,東京都,新宿区,北新宿４丁目３５番３号ドルミ東中野１０２号室,,13,104,1690074,,,,,,,2022-06-01,1,,,,,ザツダン,0
54,1011103011808,新規,0,2022-06-01,2022-06-01,橋爪管財合同会社,,合同会社,東京都,新宿区,四谷三栄町１４番３号,,13,104,1600008,,,,,,,2022-06-01,1,,,,,ハシヅメカンザイ,0
59,1011301027812,新規,0,2022-06-01,2022-06-01,椿光建設株式会社,,株式会社,東京都,杉並区,本天沼２丁目６番４号ライトテラス荻窪２０２,,13,115,1670031,,,,,,,2022-06-01,1,,,,,ツバキヒカルケンセツ,0
61,1011303004421,新規,0,2022-06-01,2022-06-01,合同会社タキワ,,合同会社,東京都,杉並区,堀ノ内２丁目１１－２０エルデンシア杉並堀ノ内２０５号室,,13,115,1660013,,,,,,,2022-06-01,1,,,,,タキワ,0
65,1012301013001,新規,0,2022-06-01,2022-06-01,株式会社ＰＡＬＥＴＴＥ,,株式会社,東京都,町田市,原町田１丁目２番９号小林ビル３０１号室,,13,209,1940013,,,,,,,2022-06-01,1,,,,,パレット,0
66,1012401039227,新規,0,2022-06-01,2022-06-01,株式会社むすび,,株式会社,東京都,府中市,新町２丁目７４番１８号,,13,206,1830052,,,,,,,2022-06-01,1,,,,,ムスビ,0
68,1012403005400,新規,0,2022-06-01,2022-06-01,合同会社ＩＭＡＴＯＲｉ,,合同会社,東京都,府中市,美好町３丁目３９－１３シンリープラグレス２１－１０５,,13,206,1830045,,,,,,,2022-06-01,1,,,,,イマトリ,0
69,1012703002469,新規,0,2022-06-01,2022-06-01,合同会社ＴＮＳ,,合同会社,東京都,西東京市,向台町２丁目６－３－２０２,,13,229,1880013,,,,,,,2022-06-01,1,,,,,ティーエヌエス,0
91,1021003011766,新規,0,2022-06-01,2022-06-01,合同会社フレンズ,,合同会社,神奈川県,相模原市南区,東大沼２丁目２７番１４号,,14,153,2520333,,,,,,,2022-06-01,1,,,,,フレンズ,0
94,1030001148454,新規,0,2022-06-01,2022-06-01,ＦＵＪＩ株式会社,,株式会社,埼玉県,坂戸市,柳町４５番１４号,,11,239,3500216,,,,,,,2022-06-01,1,,,,,フジ,0
101,1040001123605,新規,0,2022-06-01,2022-06-01,株式会社サン・ロード,,株式会社,千葉県,館山市,館山２８６番地１,,12,205,2940036,,,,,,,2022-06-01,1,,,,,サンロード,0
102,1040001123654,新規,0,2022-06-01,2022-06-01,株式会社川上総合調査,,株式会社,千葉県,木更津市,畑沢南４丁目２番２号,,12,206,2920826,,,,,,,2022-06-01,1,,,,,カワカミソウゴウチョウサ,0
103,1040003020098,新規,0,2022-06-01,2022-06-01,Ｍｕｌｔｉ　Ｌｏｇｉｓｔｉｃ　Ｉｎｔｅｒｎａｔｉｏｎａｌ　Ｇｒｏｕｐｓ合同会社,,合同会社,千葉県,銚子市,大橋町１５番７号,,12,202,2880046,,,,,,,2022-06-01,1,,,,,マルチロジスティクインターナショナルグループス,0
107,1060001034916,新規,0,2022-06-01,2022-06-01,Ｔ’ｚ株式会社,,株式会社,栃木県,小山市,大字雨ケ谷新田８３－４０,,09,208,3230824,,,,,,,2022-06-01,1,,,,,ティーズ,0
108,1060001034924,新規,0,2022-06-01,2022-06-01,足利コミュニティＦＭ株式会社,,株式会社,栃木県,足利市,大門通２３７６番地,,09,202,3260812,,,,,,,2022-06-01,1,,,,,アシカガコミュニティエフエム,0
112,1080103002595,新規,0,2022-06-01,2022-06-01,合同会社マサラジャパン,,合同会社,静岡県,沼津市,新沢田町１５‐６,,22,203,4100003,,,,,,,2022-06-01,1,,,,,マサラジャパン,0
115,1100001035389,新規,0,2022-06-01,2022-06-01,株式会社ホテルアンドツーリズム,,株式会社,長野県,諏訪市,大字豊田３０７番地５,,20,206,3920016,,,,,,,2022-06-01,1,,,,,ホテルアンドツーリズム,0
116,1100003006561,新規,0,2022-06-01,2022-06-01,合同会社ひろおか,,合同会社,長野県,上田市,上田３１７６番地１１,,20,203,3860001,,,,,,,2022-06-01,1,,,,,ヒロオカ,0
125,1120001246232,新規,0,2022-06-01,2022-06-01,株式会社パスウェイ,,株式会社,大阪府,大阪市西成区,出城３丁目５番１号,,27,122,5570024,,,,,,,2022-06-01,1,,,,,パスウェイ,0
126,1120001246257,新規,0,2022-06-01,2022-06-01,株式会社旭創建,,株式会社,大阪府,大阪市都島区,大東町２丁目５番１９号,,27,102,5340002,,,,,,,2022-06-01,1,,,,,アサヒソウケン,0
127,1120001246281,新規,0,2022-06-01,2022-06-01,株式会社アンドカーム,,株式会社,大阪府,大阪市西区,南堀江２丁目５－３ｂｒａｖｉ南堀江１５０１,,27,106,5500015,,,,,,,2022-06-01,1,,,,,アンドカーム,0
141,1122001035904,新規,0,2022-06-01,2022-06-01,株式会社東和技建,,株式会社,大阪府,東大阪市,吉田６丁目２番４号,,27,227,5780924,,,,,,,2022-06-01,1,,,,,トウワギケン,0
142,1130003007961,新規,0,2022-06-01,2022-06-01,合同会社Ｓｔｅｌｌａ　Ｃｏｌｏｒｅａ,,合同会社,京都府,京都市中京区,柳馬場通二条上る六丁目２６９番地シャリエ御所南柳馬場二条３０２,,26,104,6040965,,,,,,,2022-06-01,1,,,,,ステーラコロレア,0
145,1140001126192,新規,0,2022-06-01,2022-06-01,株式会社フジイコーポレーション,,株式会社,兵庫県,朝来市,和田山町枚田岡７２８番地,,28,225,6695215,,,,,,,2022-06-01,1,,,,,フジイコーポレーション,0
149,1140003017737,新規,0,2022-06-01,2022-06-01,合資会社コゲラ,,合資会社,兵庫県,神戸市北区,藤原台南町３丁目８番６号,,28,109,6511303,,,,,,,2022-06-01,1,,,,,コゲラ,0
150,1140003017745,新規,0,2022-06-01,2022-06-01,合同会社ＮＨＡＴ　ＡＮ,,合同会社,兵庫県,尼崎市,神田中通２丁目２５番地の２－１０２．２０２号室,,28,202,6600884,,,,,,,2022-06-01,1,,,,,ナットアン,0
151,1140005026190,新規,0,2022-06-01,2022-06-01,一般社団法人日本和食ライフスタイリスト協会,,その他の設立登記法人,兵庫県,尼崎市,東園田町２丁目４３番地２,,28,202,6610953,,,,,,,2022-06-01,1,,,,,ニホンワショクライフスタイリストキョウカイ,0
152,1140005026199,新規,0,2022-06-01,2022-06-01,医療法人社団古川小児科,,その他の設立登記法人,兵庫県,神戸市東灘区,本山南町８丁目５番３２号２階,,28,101,6580015,,,,,,,2022-06-01,1,,,,,フルカワショウニカ,0
154,1150003002696,新規,0,2022-06-01,2022-06-01,合同会社ＬＩＯＮ　ＰＡＲＫ,,合同会社,奈良県,大和郡山市,池沢町１２９番地１エスポワール水川２０１,,29,203,6391032,,,,,,,2022-06-01,1,,,,,ライオンパーク,0
157,1180001151468,新規,0,2022-06-01,2022-06-01,株式会社ＭＡＸ流通,,株式会社,愛知県,一宮市,開明字名古羅１２番地１,,23,203,4940001,,,,,,,2022-06-01,1,,,,,マックスリュウツウ,0
158,1180001151501,新規,0,2022-06-01,2022-06-01,ウェル・ビーイング株式会社,,株式会社,愛知県,名古屋市天白区,元八事４丁目２８４番地の１,,23,116,4680066,,,,,,,2022-06-01,1,,,,,ウェルビーイング,0
159,1180001151526,新規,0,2022-06-01,2022-06-01,トランサム株式会社,,株式会社,愛知県,名古屋市名東区,上社２丁目１７４番地,,23,115,4650025,,,,,,,2022-06-01,1,,,,,トランサム,0
162,1180301036278,新規,0,2022-06-01,2022-06-01,株式会社ＩＢ‐ＯＮＥ,,株式会社,愛知県,安城市,里町宮西４９－１,,23,212,4460001,,,,,,,2022-06-01,1,,,,,アイビーワン,0
164,1200001040107,新規,0,2022-06-01,2022-06-01,株式会社陶都フィールズ,,株式会社,岐阜県,多治見市,大薮町１２３３番地の２,,21,204,5070068,,,,,,,2022-06-01,1,,,,,トウトフィールズ,0
165,1200001040115,新規,0,2022-06-01,2022-06-01,株式会社山和設工,,株式会社,岐阜県,岐阜市,南蝉１丁目１７番地,,21,201,5020852,,,,,,,2022-06-01,1,,,,,ヤマワセッコウ,0
167,1200003005578,新規,0,2022-06-01,2022-06-01,合同会社ＨＡＱ　ＴＲＡＤＩＮＧ,,合同会社,岐阜県,美濃加茂市,加茂野町今泉１５４７番地２４コーポモナリザ１０１号,,21,211,5050052,,,,,,,2022-06-01,1,,,,,ハクトレーディング,0
168,1220001024875,新規,0,2022-06-01,2022-06-01,株式会社ＰＤＣ,,株式会社,石川県,金沢市,大友３丁目２番地,,17,201,9208205,,,,,,,2022-06-01,1,,,,,ピーディーシー,0
170,1240001059837,新規,0,2022-06-01,2022-06-01,株式会社抗体医学研究所,,株式会社,広島県,広島市南区,霞１丁目２番３号,,34,103,7340037,,,,,,,2022-06-01,1,,,,,コウタイイガクケンキュウジョ,0
173,1240003005632,新規,0,2022-06-01,2022-06-01,合同会社デジラボワン,,合同会社,広島県,福山市,山手町４丁目１９番２０－７号,,34,207,7200092,,,,,,,2022-06-01,1,,,,,デジラボワン,0
174,1240003005640,新規,0,2022-06-01,2022-06-01,合同会社ミユキ・インターナショナル,,合同会社,広島県,広島市安佐北区,落合南４丁目２４番１０号,,34,106,7391732,,,,,,,2022-06-01,1,,,,,ミユキインターナショナル,0
179,1250003003073,新規,0,2022-06-01,2022-06-01,合同会社中国エステート,,合同会社,山口県,山口市,中央４丁目１２番１８－５０８号,,35,203,7530074,,,,,,,2022-06-01,1,,,,,チュウゴクエステート,0
180,1250003003081,新規,0,2022-06-01,2022-06-01,合同会社Ｕ＆Ｍ,,合同会社,山口県,下松市,東陽３丁目５番８号,,35,207,7440043,,,,,,,2022-06-01,1,,,,,ユーアンドエム,0
184,1270001008535,新規,0,2022-06-01,2022-06-01,株式会社トラスティー,,株式会社,鳥取県,鳥取市,相生町１丁目２１８番地,,31,201,6800805,,,,,,,2022-06-01,1,,,,,トラスティー,0
186,1270005005520,新規,0,2022-06-01,2022-06-01,一般社団法人ハッピージェネレーション,,その他の設立登記法人,鳥取県,米子市,上福原５丁目１３番６５号,,31,202,6830004,,,,,,,2022-06-01,1,,,,,ハッピージェネレーション,0
191,1290001097709,新規,0,2022-06-01,2022-06-01,株式会社Ｙ．Ｓ．Ｔ,,株式会社,福岡県,福岡市西区,今宿上ノ原２２０番地３３,,40,135,8190163,,,,,,,2022-06-01,1,,,,,ワイエスティー,0
192,1290001097717,新規,0,2022-06-01,2022-06-01,株式会社風雅,,株式会社,福岡県,福岡市博多区,中洲４丁目７番８号ラ・パピヨンビル１階,,40,132,8100801,,,,,,,2022-06-01,1,,,,,フウガ,0
195,1300001012946,新規,0,2022-06-01,2022-06-01,株式会社ルイキ産業,,株式会社,佐賀県,唐津市,佐志２４４２番地,,41,202,8470111,,,,,,,2022-06-01,1,,,,,ルイキサンギョウ,0
199,1310003004379,新規,0,2022-06-01,2022-06-01,合同会社森山農園,,合同会社,長崎県,長崎市,川原町６５０番地,,42,201,8510407,,,,,,,2022-06-01,1,,,,,モリヤマノウエン,0
202,1340001024756,新規,0,2022-06-01,2022-06-01,株式会社藤井建装,,株式会社,鹿児島県,鹿児島市,中山町５１２０番地６,,46,201,8910105,,,,,,,2022-06-01,1,,,,,フジイケンソウ,0
206,1360003012055,新規,0,2022-06-01,2022-06-01,合同会社ＭＡ,,合同会社,沖縄県,那覇市,字大道８９番地,,47,201,9020066,,,,,,,2022-06-01,1,,,,,エムエー,0
208,1370003005710,新規,0,2022-06-01,2022-06-01,合同会社Ｄふぁみりぃ,,合同会社,宮城県,仙台市太白区,袋原３丁目１５番３１号,,04,104,9811102,,,,,,,2022-06-01,1,,,,,ディーファミリィ,0
218,1420001017867,新規,0,2022-06-01,2022-06-01,ａｐｐｃｙｃｌｅ株式会社,,株式会社,青森県,青森市,千刈４丁目２番４号,,02,201,0380015,,,,,,,2022-06-01,1,,,,,アップサイクル,0
222,1440001009094,新規,0,2022-06-01,2022-06-01,株式会社ダイユウＦＣ,,株式会社,北海道,亀田郡七飯町,本町３丁目２番１号,,01,337,0411111,,,,,,,2022-06-01,1,,,,,ダイユウエフシー,0
225,1460301005072,新規,0,2022-06-01,2022-06-01,株式会社イーストファーマーズ,,株式会社,北海道,網走郡大空町,女満別住吉８７９番地,,01,564,0992302,,,,,,,2022-06-01,1,,,,,イーストファーマーズ,0
235,1700150104859,新規,0,2022-06-01,2021-09-27,アイガスレコード,,その他,東京都,八王子市,犬目町２５３番地３,,13,201,1930802,,,,,,,2021-09-27,1,,,,,アイガスレコード,0
236,1700150108736,新規,0,2022-06-01,2022-05-16,アンサンブル・プリンチピ・ヴェネツィアーニ,,その他,京都府,京都市北区,紫野上野町１３４ＭＡＣＨＩＹＡ今宮ＩＩ２０１,00126415,26,101,6038242,,,,,,,2022-05-16,1,,,,,アンサンブルプリンチピヴエネツイアーニ,0
245,2010001227003,新規,0,2022-06-01,2022-06-01,デジタルデザイン開発株式会社,,株式会社,東京都,中央区,東日本橋２丁目２８番４号日本橋ＣＥＴビル２階,,13,102,1030004,,,,,,,2022-06-01,1,,,,,デジタルデザインカイハツ,0
246,2010001227028,新規,0,2022-06-01,2022-06-01,ＭＴＧ株式会社,,株式会社,東京都,中央区,銀座１丁目１２番４号Ｎ＆ＥＢＬＤ．７階,,13,102,1040061,,,,,,,2022-06-01,1,,,,,エムティージー,0
251,2010003037788,新規,0,2022-06-01,2022-06-01,合同会社平山,,合同会社,東京都,中央区,新川２丁目２７番４－１７１０号,,13,102,1040033,,,,,,,2022-06-01,1,,,,,ヒラヤマ,0
257,2010401167617,新規,0,2022-06-01,2022-06-01,アセナ株式会社,,株式会社,東京都,港区,南青山５丁目４－３５たつむら青山マンション１３０１,,13,103,1070062,,,,,,,2022-06-01,1,,,,,アセナ,0
258,2010401167674,新規,0,2022-06-01,2022-06-01,株式会社Ｍａｇｉｃａｌ　Ｎａｔｕｒｅ,,株式会社,東京都,港区,新橋６丁目８番１号,,13,103,1050004,,,,,,,2022-06-01,1,,,,,マジカルネイチャー,0
260,2010403027785,新規,0,2022-06-01,2022-06-01,アジアアシスタンスサービス合同会社,,合同会社,東京都,港区,浜松町２丁目２番１５号浜松町ダイヤビル２階,,13,103,1050013,,,,,,,2022-06-01,1,,,,,アジアアシスタンスサービス,0
262,2010405021019,新規,0,2022-06-01,2022-06-01,シアトルホールディング１一般社団法人,,その他の設立登記法人,東京都,港区,虎ノ門３丁目２２番１０－２０１号,,13,103,1050001,,,,,,,2022-06-01,1,,,,,シアトルホールディングワン,0
263,2010405021027,新規,0,2022-06-01,2022-06-01,ＥＳＲ２９特定目的会社,,その他の設立登記法人,東京都,港区,浜松町１丁目２０番１０号ライオネス浜松町５０６号室,,13,103,1050013,,,,,,,2022-06-01,1,,,,,イーエスアールニジュウキュウ,0
264,2010501048865,新規,0,2022-06-01,2022-06-01,株式会社Ｈａｌｃｙｏｎ,,株式会社,東京都,台東区,根岸２丁目１８－８－６０５号,,13,106,1100003,,,,,,,2022-06-01,1,,,,,ハルシオン,0
265,2010501048898,新規,0,2022-06-01,2022-06-01,株式会社ＴＯＫＩＯ‐Ｓ,,株式会社,東京都,台東区,竜泉２丁目２０番２－１２０２号,,13,106,1100012,,,,,,,2022-06-01,1,,,,,トキオス,0
271,2010701042726,新規,0,2022-06-01,2022-06-01,株式会社キャッシュー,,株式会社,東京都,品川区,大井１丁目６番３号アゴラ大井町ビル３階,,13,109,1400014,,,,,,,2022-06-01,1,,,,,キャッシュー,0
272,2010901050958,新規,0,2022-06-01,2022-06-01,株式会社Ｃｒｏｗ　Ｈｉｌｌ　Ｃｏｒｐｏｒａｔｉｏｎ,,株式会社,東京都,世田谷区,上祖師谷２丁目３２番３５号,,13,112,1570065,,,,,,,2022-06-01,1,,,,,クロウヒルコーポレーション,0
275,2011001147819,新規,0,2022-06-01,2022-06-01,Ｓｐａｃｅ　Ｌａｓｅｒ　Ｔｅｃｈｎｏｌｏｇｉｅｓ株式会社,,株式会社,東京都,目黒区,上目黒３丁目３１番５－１０１号,,13,110,1530051,,,,,,,2022-06-01,1,,,,,スペースレーザーテクノロジーズ,0
276,2011001147843,新規,0,2022-06-01,2022-06-01,株式会社ＦＧＧ,,株式会社,東京都,渋谷区,広尾５丁目２３番５号長谷部第１ビル１階,,13,113,1500012,,,,,,,2022-06-01,1,,,,,エフジージー,0
277,2011001147868,新規,0,2022-06-01,2022-06-01,株式会社ｔｗｏ　ｈａｎｄ,,株式会社,東京都,渋谷区,渋谷３丁目１９番１号,,13,113,1500002,,,,,,,2022-06-01,1,,,,,トゥーハンド,0
282,2011103011798,新規,0,2022-06-01,2022-06-01,合同会社サブキッチン,,合同会社,東京都,新宿区,南元町４番地,,13,104,1600012,,,,,,,2022-06-01,1,,,,,サブキッチン,0
293,2012401039250,新規,0,2022-06-01,2022-06-01,株式会社グレース,,株式会社,東京都,武蔵野市,吉祥寺南町１丁目５番９号くまもとビル４階Ｂ,,13,203,1800003,,,,,,,2022-06-01,1,,,,,グレース,0
302,2013301049174,新規,0,2022-06-01,2022-06-01,株式会社日本ＤＡＳＨ‐ＢＯＡＲＤ,,株式会社,東京都,豊島区,長崎６丁目２９番１２号,,13,116,1710051,,,,,,,2022-06-01,1,,,,,ニホンダッシュボード,0
306,2020005015551,新規,0,2022-06-01,2022-06-01,医療法人社団ラウレア会,,その他の設立登記法人,神奈川県,横浜市青葉区,あざみ野南４丁目５番地２,,14,117,2250012,,,,,,,2022-06-01,1,,,,,ラウレアカイ,0
309,2021001076067,新規,0,2022-06-01,2022-06-01,株式会社ＺｅＮＤＡＩ,,株式会社,神奈川県,鎌倉市,浄明寺３丁目９番７号,,14,204,2480003,,,,,,,2022-06-01,1,,,,,ゼンダイ,0
310,2021001076075,新規,0,2022-06-01,2022-06-01,株式会社ＴＯＹＲＡＢＢＩＴＳ,,株式会社,神奈川県,相模原市南区,旭町７番１１号,,14,153,2520304,,,,,,,2022-06-01,1,,,,,トイラビッツ,0
317,2030001148404,新規,0,2022-06-01,2022-06-01,ＧｌｏＡｕｃ　Ｊａｐａｎ株式会社,,株式会社,埼玉県,川口市,長蔵１丁目１８番１－２０３号,,11,203,3330807,,,,,,,2022-06-01,1,,,,,グロオークジャパン,0
318,2030001148420,新規,0,2022-06-01,2022-06-01,株式会社Ｔａｂｅｉ,,株式会社,埼玉県,上尾市,大字原市６４３番地２１,,11,219,3620021,,,,,,,2022-06-01,1,,,,,タベイ,0
319,2030001148445,新規,0,2022-06-01,2022-06-01,株式会社ガレージツナ,,株式会社,埼玉県,入間郡三芳町,大字北永井７０４番地７０,,11,324,3540044,,,,,,,2022-06-01,1,,,,,ガレージツナ,0
326,2040001123595,新規,0,2022-06-01,2022-06-01,株式会社やちよ未来ファーム,,株式会社,千葉県,八千代市,八千代台東１丁目１７番５号,,12,221,2760032,,,,,,,2022-06-01,1,,,,,ヤチヨミライファーム,0
327,2040001123604,新規,0,2022-06-01,2022-06-01,株式会社メンテナンスファクトリー船橋,,株式会社,千葉県,船橋市,本郷町５１５番地１,,12,204,2730033,,,,,,,2022-06-01,1,,,,,メンテナンスファクトリーフナバシ,0
328,2040001123620,新規,0,2022-06-01,2022-06-01,株式会社ａｎｄ　ｂｌｕｅ,,株式会社,千葉県,香取郡東庄町,笹川い６１７番地,,12,349,2890601,,,,,,,2022-06-01,1,,,,,アンドブルー,0
329,2040001123637,新規,0,2022-06-01,2022-06-01,株式会社ＡＢＥ　ＪＡＰＡＮ　ＩＮＴＥＲＮＡＴＩＯＮＡＬ,,株式会社,千葉県,船橋市,高根台６丁目７番１－１号,,12,204,2740065,,,,,,,2022-06-01,1,,,,,アベジャパンインターナショナル,0
330,2040001123653,新規,0,2022-06-01,2022-06-01,株式会社ＳＴ商会,,株式会社,千葉県,香取市,小見川６９１番地３,,12,236,2890313,,,,,,,2022-06-01,1,,,,,エスティショウカイ,0
332,2040003020114,新規,0,2022-06-01,2022-06-01,合同会社エムアールワイ,,合同会社,千葉県,船橋市,坪井東６丁目１６番１６号,,12,204,2740060,,,,,,,2022-06-01,1,,,,,エムアールワイ,0
333,2040003020130,新規,0,2022-06-01,2022-06-01,合同会社ＱｗｅｒＰａｒｔｓ,,合同会社,千葉県,千葉市中央区,浜野町１１３４番地１,,12,101,2600824,,,,,,,2022-06-01,1,,,,,クワーパーツ,0
334,2040003020139,新規,0,2022-06-01,2022-06-01,中林税務会計マネジメント合同会社,,合同会社,千葉県,習志野市,津田沼４丁目８番１６号,,12,216,2750016,,,,,,,2022-06-01,1,,,,,ナカバヤシゼイムカイケイマネジメント,0
337,2050001051143,新規,0,2022-06-01,2022-06-01,株式会社誠翔産業,,株式会社,茨城県,稲敷郡阿見町,大字追原２３１５－１１,,08,443,3000314,,,,,,,2022-06-01,1,,,,,セイショウサンギョウ,0
338,2050003006582,新規,0,2022-06-01,2022-06-01,合同会社Ｇｏｌｄ　Ｈａｍｉｌｔｏｎ,,合同会社,茨城県,水戸市,河和田２丁目１７７０番地５,,08,201,3114152,,,,,,,2022-06-01,1,,,,,ゴールドハミルトン,0
339,2060001034915,新規,0,2022-06-01,2022-06-01,株式会社温情らんど,,株式会社,栃木県,栃木市,片柳町５丁目８番１１－２号,,09,203,3280053,,,,,,,2022-06-01,1,,,,,オンジョウランド,0
340,2060001034923,新規,0,2022-06-01,2022-06-01,株式会社ネオプロジェクト,,株式会社,栃木県,宇都宮市,新町１丁目２番７号,,09,201,3200831,,,,,,,2022-06-01,1,,,,,ネオプロジェクト,0
345,2070001039277,新規,0,2022-06-01,2022-06-01,株式会社豊永,,株式会社,群馬県,太田市,新田反町町４０６番地１,,10,205,3700313,,,,,,,2022-06-01,1,,,,,トヨナガ,0
349,2080001024971,新規,0,2022-06-01,2022-06-01,株式会社日向育社,,株式会社,静岡県,静岡市葵区,瀬名５丁目１２番５７号,,22,101,4200911,,,,,,,2022-06-01,1,,,,,ヒナタイクシャ,0
351,2080101023312,新規,0,2022-06-01,2022-06-01,株式会社クボタ,,株式会社,静岡県,裾野市,平松２０５番地,,22,220,4101127,,,,,,,2022-06-01,1,,,,,クボタ,0
352,2080401025834,新規,0,2022-06-01,2022-06-01,株式会社ハウオリ,,株式会社,静岡県,浜松市浜北区,西中瀬３丁目１６番８号,,22,136,4340018,,,,,,,2022-06-01,1,,,,,ハウオリ,0
353,2080403004547,新規,0,2022-06-01,2022-06-01,合同会社アカウンティングｏｆｆｉｃｅ,,合同会社,静岡県,浜松市中区,高丘北４丁目１３番７４号,,22,131,4338119,,,,,,,2022-06-01,1,,,,,アカウンティングオフィス,0
370,2120001246248,新規,0,2022-06-01,2022-06-01,株式会社プレアクト,,株式会社,大阪府,大阪市北区,堂島浜２丁目２番２８号堂島アクシスビル４Ｆ・ＳＹＮＴＨ,,27,127,5300004,,,,,,,2022-06-01,1,,,,,プレアクト,0
375,2120003021797,新規,0,2022-06-01,2022-06-01,合同会社Ｆｉｉｉｔ,,合同会社,大阪府,大阪市都島区,東野田町１丁目２１番８－３０１号,,27,102,5340024,,,,,,,2022-06-01,1,,,,,フィット,0
382,2120101065647,新規,0,2022-06-01,2022-06-01,株式会社彩条,,株式会社,大阪府,泉北郡忠岡町,高月南３丁目９番９－５号,,27,341,5950802,,,,,,,2022-06-01,1,,,,,サイジョウ,0
383,2120101065663,新規,0,2022-06-01,2022-06-01,株式会社山田建装工務,,株式会社,大阪府,堺市中区,田園７５５－３,,27,142,5998246,,,,,,,2022-06-01,1,,,,,ヤマダケンソウコウム,0
384,2120103004719,新規,0,2022-06-01,2022-06-01,ａｎｄＣｏ．合同会社,,合同会社,大阪府,松原市,三宅中１丁目２番８号,,27,217,5800046,,,,,,,2022-06-01,1,,,,,アンドコー,0
395,2130001071827,新規,0,2022-06-01,2022-06-01,不二子株式会社,,株式会社,京都府,京都市北区,大北山原谷乾町４７番地１０－２０６,,26,101,6038487,,,,,,,2022-06-01,1,,,,,フジコ,0
401,2140001126175,新規,0,2022-06-01,2022-06-01,株式会社Ａ．ｍｉｓｔ,,株式会社,兵庫県,尼崎市,南竹谷町３丁目６番地の９ＣＦＳ９０７,,28,202,6600875,,,,,,,2022-06-01,1,,,,,エーミスト,0
402,2140001126191,新規,0,2022-06-01,2022-06-01,ＫＯＢＥＩＳＳＩ　ＴＲＡＤＩＮＧ株式会社,,株式会社,兵庫県,神戸市西区,神出町勝成１１６－２４,,28,111,6512301,,,,,,,2022-06-01,1,,,,,コベイシトレーディング,0
403,2140003017728,新規,0,2022-06-01,2022-06-01,ｎｏｎ合同会社,,合同会社,兵庫県,神戸市灘区,城内通２丁目３番１４号前羽アパート１０１,,28,102,6570836,,,,,,,2022-06-01,1,,,,,ノン,0
404,2150001025582,新規,0,2022-06-01,2022-06-01,株式会社ＮＳＳ,,株式会社,奈良県,天理市,富堂町１８９番地１,,29,204,6320072,,,,,,,2022-06-01,1,,,,,エヌエスエス,0
405,2160003002579,新規,0,2022-06-01,2022-06-01,ユーエムライン合同会社,,合同会社,滋賀県,近江八幡市,安養寺町８５４番地１７,,25,204,5230045,,,,,,,2022-06-01,1,,,,,ユーエムライン,0
415,2180001151467,新規,0,2022-06-01,2022-06-01,エムケーテック株式会社,,株式会社,愛知県,知多郡武豊町,字青木ケ丘１丁目１番地８,,23,447,4702384,,,,,,,2022-06-01,1,,,,,エムケーテック,0
416,2180001151491,新規,0,2022-06-01,2022-06-01,株式会社Ｂ‐Ｗｅｌｌ,,株式会社,愛知県,名古屋市千種区,丘上町２丁目５１番地１クルール覚王山１Ｂ,,23,101,4640837,,,,,,,2022-06-01,1,,,,,ビーウェル,0
417,2180001151509,新規,0,2022-06-01,2022-06-01,株式会社リクラホーム,,株式会社,愛知県,名古屋市中川区,春田３丁目１３５番地,,23,110,4540985,,,,,,,2022-06-01,1,,,,,リクラホーム,0
418,2180001151517,新規,0,2022-06-01,2022-06-01,株式会社Ｅｓ　Ｆｏｒ　Ｌｉｆｅ,,株式会社,愛知県,名古屋市東区,泉１丁目７番２８号グランドール泉４０１号,,23,102,4610001,,,,,,,2022-06-01,1,,,,,エスフォーライフ,0
421,2180005019784,新規,0,2022-06-01,2022-06-01,一般社団法人はすばな福祉会,,その他の設立登記法人,愛知県,愛西市,北河田町郷西３４３番地１,,23,232,4968008,,,,,,,2022-06-01,1,,,,,ハスバナフクシカイ,0
425,2180301036277,新規,0,2022-06-01,2022-06-01,エムエスハイブホールディングス株式会社,,株式会社,愛知県,岡崎市,若松町字伝兵衛屋敷１８番地岡崎総合事務所２階,,23,202,4440826,,,,,,,2022-06-01,1,,,,,エムエスハイブホールディングス,0
426,2180301036285,新規,0,2022-06-01,2022-06-01,愛知ステラ株式会社,,株式会社,愛知県,岡崎市,六名１丁目１１番地２,,23,202,4440856,,,,,,,2022-06-01,1,,,,,アイチステラ,0
428,2200001040106,新規,0,2022-06-01,2022-06-01,株式会社中村電気,,株式会社,岐阜県,本巣市,政田２３０２番地７,,21,218,5010471,,,,,,,2022-06-01,1,,,,,ナカムラデンキ,0
430,2220001024874,新規,0,2022-06-01,2022-06-01,株式会社Ｆｏｒ　ＡＬＬ,,株式会社,石川県,金沢市,長田２丁目２８番４７号,,17,201,9200043,,,,,,,2022-06-01,1,,,,,フォーオール,0
436,2240001059836,新規,0,2022-06-01,2022-06-01,サイクルエージェンシー株式会社,,株式会社,広島県,広島市南区,宇品西５丁目１１番１－１２０９号,,34,103,7340014,,,,,,,2022-06-01,1,,,,,サイクルエージェンシー,0
451,2290001097716,新規,0,2022-06-01,2022-06-01,株式会社箱ばん屋,,株式会社,福岡県,福岡市博多区,西月隈２丁目７６番１号,,40,132,8120857,,,,,,,2022-06-01,1,,,,,ハコバンヤ,0
455,2320001019096,新規,0,2022-06-01,2022-06-01,和・良事株式会社,,株式会社,大分県,佐伯市,弥生大字細田１６７３番地１,,44,205,8760124,,,,,,,2022-06-01,1,,,,,ワラジ,0
458,2340001024771,新規,0,2022-06-01,2022-06-01,株式会社ｓｅａ‐ｓｔｏｒｙ,,株式会社,鹿児島県,鹿児島市,新栄町１９番１６－２０８号,,46,201,8900072,,,,,,,2022-06-01,1,,,,,シーストーリー,0
459,2340003003807,新規,0,2022-06-01,2022-06-01,合同会社ｌｉｌｙ,,合同会社,鹿児島県,鹿屋市,祓川町５３９８番地１,,46,203,8930026,,,,,,,2022-06-01,1,,,,,リリー,0
467,2360001030487,新規,0,2022-06-01,2022-06-01,株式会社新垣企画,,株式会社,沖縄県,中頭郡西原町,字我謝２０７番地の１２,,47,329,9030112,,,,,,,2022-06-01,1,,,,,,0
482,2410001013197,新規,0,2022-06-01,2022-06-01,ＲＫ企画株式会社,,株式会社,秋田県,秋田市,大町５丁目４番２２号ＡＳビル１Ｆ,,05,201,0100921,,,,,,,2022-06-01,1,,,,,,0
497,2470003002192,新規,0,2022-06-01,2022-06-01,合同会社ＪＯ電力１号,,合同会社,香川県,高松市,林町１９６４番地１,,37,201,7610301,,,,,,,2022-06-01,1,,,,,ジェイオーデンリョクイチゴウ,0
498,2480001011748,新規,0,2022-06-01,2022-06-01,株式会社森介護事業所,,株式会社,徳島県,板野郡藍住町,矢上字原１９０番地１,,36,403,7711251,,,,,,,2022-06-01,1,,,,,モリカイゴジギョウショ,0
504,2700150108677,新規,0,2022-06-01,2022-05-12,菁莪のまちづくり運営協議会,,その他,山形県,東田川郡庄内町,余目字藤原野３番地１,,06,428,9997781,,,,,,,2022-05-12,1,,,,,セイガノマチヅクリウンエイキヨウギカイ,0
505,2700150108982,新規,0,2022-06-01,2022-05-25,上床直人マリンバリサイタル実行委員会,,その他,東京都,練馬区,豊玉上１丁目８－５小松ビル３００,,13,120,1760011,,,,,,,2022-05-25,1,,,,,ウワトコナオトマリンバリサイタルジツコウイインカイ,0
516,3010001226961,新規,0,2022-06-01,2022-06-01,株式会社Ｅｍａｎ,,株式会社,東京都,千代田区,神田鍛冶町３丁目７番２１号,,13,101,1010045,,,,,,,2022-06-01,1,,,,,イーマン,0
517,3010001227010,新規,0,2022-06-01,2022-06-01,ＳＫＩＮ　ＡＤ株式会社,,株式会社,東京都,中央区,銀座１丁目２２番１１号,,13,102,1040061,,,,,,,2022-06-01,1,,,,,スキンアド,0
518,3010001227019,新規,0,2022-06-01,2022-06-01,ａ２３ｓ株式会社,,株式会社,東京都,中央区,銀座１丁目１２番４号Ｎ＆ＥＢＬＤ．７階,,13,102,1040061,,,,,,,2022-06-01,1,,,,,エーニーサンエス,0
524,3010005035079,新規,0,2022-06-01,2022-06-01,一般社団法人平塚西口駅前開発,,その他の設立登記法人,東京都,千代田区,平河町１丁目６番１５号シルスフィア会計事務所内,,13,101,1020093,,,,,,,2022-06-01,1,,,,,ヒラツカニシグチエキマエカイハツ,0
529,3010401167211,新規,0,2022-06-01,2022-06-01,株式会社マメクリ,,株式会社,東京都,港区,南青山６丁目８番３号,,13,103,1070062,,,,,,,2022-06-01,1,,,,,マメクリ,0
530,3010401167533,新規,0,2022-06-01,2022-06-01,株式会社ＡＺＬａｂ,,株式会社,東京都,港区,東新橋１丁目６番３号ＢＩＺｃｏｍｆｏｒｔ東京汐留,,13,103,1050021,,,,,,,2022-06-01,1,,,,,アザラボ,0
531,3010401167681,新規,0,2022-06-01,2022-06-01,ＥＡＴ　Ａ　ＰＯＴ株式会社,,株式会社,東京都,港区,南青山２丁目１４番１３号ハイムスズキＩＢ１,00126713,13,103,1070062,,,,,,,2022-06-01,1,,,,,イートアポット,0
532,3010401167698,新規,0,2022-06-01,2022-06-01,株式会社Ｎｅｗ　ｓｕｎｒｉｓｅ,,株式会社,東京都,港区,南青山２丁目２番１５号,,13,103,1070062,,,,,,,2022-06-01,1,,,,,ニューサンライズ,0
533,3010401167707,新規,0,2022-06-01,2022-06-01,株式会社フレイミング・パイ,,株式会社,東京都,港区,南青山１丁目３番１号パークアクシス青山一丁目タワー１７０９,,13,103,1070062,,,,,,,2022-06-01,1,,,,,フレイミングパイ,0
535,3010403027644,新規,0,2022-06-01,2022-06-01,Ｎａｖｉ　Ａｐｐｓ合同会社,,合同会社,東京都,港区,浜松町２丁目２番１５号浜松町ダイヤビル２Ｆ,,13,103,1050013,,,,,,,2022-06-01,1,,,,,ナビアップス,0
536,3010405021026,新規,0,2022-06-01,2022-06-01,ＥＳＲ２８特定目的会社,,その他の設立登記法人,東京都,港区,浜松町１丁目２０番１０号ライオネス浜松町５０６号室,,13,103,1050013,,,,,,,2022-06-01,1,,,,,イーエスアールニジュウハチ,0
537,3010405021034,新規,0,2022-06-01,2022-06-01,一般社団法人スマートシティ社会実装コンソーシアム,,その他の設立登記法人,東京都,港区,芝５丁目７番１号,,13,103,1080014,,,,,,,2022-06-01,1,,,,,スマートシティシャカイジッソウコンソーシアム,0
551,3010901050949,新規,0,2022-06-01,2022-06-01,Ｉｒｉｓｅｓ株式会社,,株式会社,東京都,世田谷区,太子堂２丁目９番２５号１階,,13,112,1540004,,,,,,,2022-06-01,1,,,,,アイリス,0
552,3010901050957,新規,0,2022-06-01,2022-06-01,株式会社ＶＥＲＹ,,株式会社,東京都,世田谷区,弦巻５丁目２２番１５号,,13,112,1540016,,,,,,,2022-06-01,1,,,,,ベリー,0
562,3011001147842,新規,0,2022-06-01,2022-06-01,株式会社Ｓｅｖｅｎ　Ｒｉｃｈ　Ｏｖｅｒ,,株式会社,東京都,渋谷区,広尾５丁目２３番５号長谷部第１ビル１階,,13,113,1500012,,,,,,,2022-06-01,1,,,,,セブンリッチオーバー,0
563,3011001147867,新規,0,2022-06-01,2022-06-01,株式会社Ｂｕｓｈｉｄｏ,,株式会社,東京都,渋谷区,渋谷３丁目１９番１号,,13,113,1500002,,,,,,,2022-06-01,1,,,,,ブシドウ,0
567,3011003014776,新規,0,2022-06-01,2022-06-01,合同会社バークステクニック,,合同会社,東京都,渋谷区,広尾４丁目１番地２７,,13,113,1500012,,,,,,,2022-06-01,1,,,,,バークステクニック,0
572,3011101099034,新規,0,2022-06-01,2022-06-01,株式会社ＮＡＥＭＩ,,株式会社,東京都,新宿区,西新宿８丁目１５－３西新宿ローヤルコーポ５０３,,13,104,1600023,,,,,,,2022-06-01,1,,,,,ナエミ,0
573,3011101099059,新規,0,2022-06-01,2022-06-01,メタゲノム株式会社,,株式会社,東京都,新宿区,西早稲田１丁目９番３７号,,13,104,1690051,,,,,,,2022-06-01,1,,,,,メタゲノム,0
575,3011103011797,新規,0,2022-06-01,2022-06-01,ＦＡＳＨＩＯＮ　Ｄ＆Ｖ合同会社,,合同会社,東京都,新宿区,大久保１丁目２番１号,,13,104,1690072,,,,,,,2022-06-01,1,,,,,ファッションディアンドヴィ,0
576,3011203003835,新規,0,2022-06-01,2022-06-01,Ｇ‐Ｌｉｆｅパートナーズ合同会社,,合同会社,東京都,中野区,沼袋４丁目３５番１６号,,13,114,1650025,,,,,,,2022-06-01,1,,,,,ジーライフパートナーズ,0
577,3011301027810,新規,0,2022-06-01,2022-06-01,ＣＵＯＲＥ株式会社,,株式会社,東京都,杉並区,下高井戸４丁目１８番２号,,13,115,1680073,,,,,,,2022-06-01,1,,,,,クオレ,0
578,3011305002826,新規,0,2022-06-01,2022-06-01,一般財団法人ＭＲＡＵＫ‐Ｕ　ＳＡＹＡＤＡＷ財団,,その他の設立登記法人,東京都,杉並区,下井草１丁目１９番１０号,,13,115,1670022,,,,,,,2022-06-01,1,,,,,ミャウーサヤドーザイダン,0
582,3011601026000,新規,0,2022-06-01,2022-06-01,株式会社ＯＯＯ　ａｒｃｈｉｔｅｃｔｕｒｅ,,株式会社,東京都,練馬区,旭町２丁目２４番２号,,13,120,1790071,,,,,,,2022-06-01,1,,,,,オーアーキテクチャー,0
587,3011801040783,新規,0,2022-06-01,2022-06-01,株式会社アークス,,株式会社,東京都,葛飾区,亀有３丁目２７番２０号,,13,122,1250061,,,,,,,2022-06-01,1,,,,,アークス,0
592,3012801021617,新規,0,2022-06-01,2022-06-01,株式会社ナノメディケア,,株式会社,東京都,立川市,若葉町３丁目６０番地１,,13,202,1900001,,,,,,,2022-06-01,1,,,,,ナノメディケア,0
596,3013301049173,新規,0,2022-06-01,2022-06-01,株式会社ｚｕｒａｂｉｔｔｏ,,株式会社,東京都,豊島区,東池袋３丁目２番４号共永ビル６Ｆ,,13,116,1700013,,,,,,,2022-06-01,1,,,,,ズラビット,0
611,3021001076082,新規,0,2022-06-01,2022-06-01,株式会社エイト,,株式会社,神奈川県,藤沢市,立石２丁目４番２５～２０８号,,14,205,2510872,,,,,,,2022-06-01,1,,,,,エイト,0
612,3021001076099,新規,0,2022-06-01,2022-06-01,株式会社カルネ,,株式会社,神奈川県,平塚市,松風町１９番２５号,,14,203,2540812,,,,,,,2022-06-01,1,,,,,カルネ,0
622,3030001148444,新規,0,2022-06-01,2022-06-01,株式会社Ｍａｒｕｙａｍａ　Ｋｏｎｚｅｒｎ,,株式会社,埼玉県,羽生市,大字須影７６４番地２,,11,216,3480033,,,,,,,2022-06-01,1,,,,,マルヤマコンツェルン,0
625,3030003019486,新規,0,2022-06-01,2022-06-01,合同会社ＡＴＨＬＯＮ,,合同会社,埼玉県,川口市,本町４丁目３－１４小峰ビル,,11,203,3320012,,,,,,,2022-06-01,1,,,,,アスロン,0
626,3030003019511,新規,0,2022-06-01,2022-06-01,カワード合同会社,,合同会社,埼玉県,戸田市,下前１丁目１４番２６号４１５,,11,224,3350016,,,,,,,2022-06-01,1,,,,,カワード,0
629,3040001123611,新規,0,2022-06-01,2022-06-01,株式会社ブリリアントジャパン,,株式会社,千葉県,松戸市,栄町西３丁目１０８３番地の５,,12,207,2710061,,,,,,,2022-06-01,1,,,,,ブリリアントジャパン,0
630,3040001123644,新規,0,2022-06-01,2022-06-01,株式会社グッドサービス,,株式会社,千葉県,千葉市中央区,中央２丁目７番１０号シャンボール千葉中央２０３,,12,101,2600013,,,,,,,2022-06-01,1,,,,,グッドサービス,0
636,3050001051142,新規,0,2022-06-01,2022-06-01,株式会社龍煌,,株式会社,茨城県,つくばみらい市,田村４４３番地２,,08,235,3002413,,,,,,,2022-06-01,1,,,,,リュウコウ,0
637,3060001034922,新規,0,2022-06-01,2022-06-01,Ｈａｕｚｚｙ株式会社,,株式会社,栃木県,佐野市,高萩町５２６番地５,,09,204,3270821,,,,,,,2022-06-01,1,,,,,ハウジー,0
638,3060003004089,新規,0,2022-06-01,2022-06-01,合同会社ここしあ,,合同会社,栃木県,宇都宮市,西川田本町２丁目８－２８,,09,201,3210158,,,,,,,2022-06-01,1,,,,,ココシア,0
640,3070001039276,新規,0,2022-06-01,2022-06-01,株式会社Ｃａｒ　Ｄｒ．,,株式会社,群馬県,伊勢崎市,境上渕名１１０１番地５,,10,204,3700102,,,,,,,2022-06-01,1,,,,,カードクター,0
644,3080401025841,新規,0,2022-06-01,2022-06-01,株式会社ボイアンシー,,株式会社,静岡県,菊川市,下平川５３６３番地の４,,22,224,4371514,,,,,,,2022-06-01,1,,,,,ボイアンシー,0
645,3080403004546,新規,0,2022-06-01,2022-06-01,合同会社ソウルメイト,,合同会社,静岡県,浜松市南区,三和町２７５番地,,22,134,4350038,,,,,,,2022-06-01,1,,,,,ソウルメイト,0
660,3120001246239,新規,0,2022-06-01,2022-06-01,ドルフィントレーディング株式会社,,株式会社,大阪府,大阪市大正区,南恩加島５丁目３番１７号,,27,108,5510021,,,,,,,2022-06-01,1,,,,,ドルフィントレーディング,0
661,3120001246271,新規,0,2022-06-01,2022-06-01,株式会社ＲＳマネジメント,,株式会社,大阪府,大阪市淀川区,西中島１丁目１０番１０－９０７号,,27,123,5320011,,,,,,,2022-06-01,1,,,,,アールエスマネジメント,0
668,3120103004718,新規,0,2022-06-01,2022-06-01,合同会社ＲＥＤＩ,,合同会社,大阪府,堺市中区,辻之１１４７番地９１,00126708,27,142,5998245,,,,,,,2022-06-01,1,,,,,レッドアイ,0
671,3122001035902,新規,0,2022-06-01,2022-06-01,伸日トラスト株式会社,,株式会社,大阪府,八尾市,光町２丁目２６番地－８０３,,27,212,5810803,,,,,,,2022-06-01,1,,,,,シンニチトラスト,0
674,3130001071826,新規,0,2022-06-01,2022-06-01,金源株式会社,,株式会社,京都府,京都市北区,大北山原谷乾町４７番地１０－２０５,,26,101,6038487,,,,,,,2022-06-01,1,,,,,キンゲン,0
685,3140003017719,新規,0,2022-06-01,2022-06-01,合同会社心花,,合同会社,兵庫県,西宮市,津門川町１０番２０号４階,,28,204,6638233,,,,,,,2022-06-01,1,,,,,ココロバナ,0
686,3140003017743,新規,0,2022-06-01,2022-06-01,竹川合同会社,,合同会社,兵庫県,神戸市中央区,元町通６丁目６－１６－１００７,,28,110,6500022,,,,,,,2022-06-01,1,,,,,タケガワ,0
694,3160001024236,新規,0,2022-06-01,2022-06-01,株式会社カルムファーマシー,,株式会社,滋賀県,野洲市,久野部１９８番地１,,25,210,5202353,,,,,,,2022-06-01,1,,,,,カルムファーマシー,0
695,3160003002578,新規,0,2022-06-01,2022-06-01,合同会社陽月隆,,合同会社,滋賀県,草津市,若草２丁目１５番地２,,25,206,5250045,,,,,,,2022-06-01,1,,,,,ヨヅリュウ,0
702,3180001151474,新規,0,2022-06-01,2022-06-01,株式会社サイクルヒット,,株式会社,愛知県,名古屋市守山区,大森５丁目１０１９番地の２,,23,113,4630021,,,,,,,2022-06-01,1,,,,,サイクルヒット,0
706,3180003023886,新規,0,2022-06-01,2022-06-01,合同会社ラオン,,合同会社,愛知県,名古屋市名東区,高針荒田１１０１番地Ｄ’レスティア名東高針３０５号,,23,115,4650069,,,,,,,2022-06-01,1,,,,,ラオン,0
708,3180005019783,新規,0,2022-06-01,2022-06-01,一般社団法人ミライ産業センター,,その他の設立登記法人,愛知県,名古屋市中区,栄１丁目１３番４号みその大林４Ｆ,,23,106,4600008,,,,,,,2022-06-01,1,,,,,ミライサンギョウセンター,0
710,3190001029463,新規,0,2022-06-01,2022-06-01,株式会社落合電機,,株式会社,三重県,四日市市,西日野町４８９３番地３,,24,202,5100943,,,,,,,2022-06-01,1,,,,,オチアイデンキ,0
711,3200001040121,新規,0,2022-06-01,2022-06-01,株式会社福ふく,,株式会社,岐阜県,中津川市,千旦林１６１１番地,,21,206,5099131,,,,,,,2022-06-01,1,,,,,フクフク,0
737,3250001019581,新規,0,2022-06-01,2022-06-01,株式会社なごみ興業,,株式会社,山口県,岩国市,玖珂町２７３０番地２,,35,208,7420344,,,,,,,2022-06-01,1,,,,,ナゴミコウギョウ,0
740,3260001036898,新規,0,2022-06-01,2022-06-01,株式会社白蓮,,株式会社,岡山県,岡山市北区,吉宗４６７番地１,,33,101,7011143,,,,,,,2022-06-01,1,,,,,ビャクレン,0
741,3270001008533,新規,0,2022-06-01,2022-06-01,株式会社キヨスイ,,株式会社,鳥取県,境港市,明治町１５６番地１,,31,204,6840022,,,,,,,2022-06-01,1,,,,,キヨスイ,0
749,3290001097707,新規,0,2022-06-01,2022-06-01,株式会社オモロスキー,,株式会社,福岡県,福岡市中央区,赤坂１丁目１番１３－７０２号,,40,133,8100042,,,,,,,2022-06-01,1,,,,,オモロスキー,0
752,3290803004133,新規,0,2022-06-01,2022-06-01,富田商事合同会社,,合同会社,福岡県,北九州市若松区,高須東２丁目９番１４号,,40,103,8080144,,,,,,,2022-06-01,1,,,,,トミタショウジ,0
757,3310001017876,新規,0,2022-06-01,2022-06-01,ＯＳＣ株式会社,,株式会社,長崎県,長崎市,平山台１丁目２番３号,,42,201,8500996,,,,,,,2022-06-01,1,,,,,オーエスシー,0
758,3320001019079,新規,0,2022-06-01,2022-06-01,クロワージャパン株式会社,,株式会社,大分県,中津市,大字永添１８３０番地４０,,44,203,8710162,,,,,,,2022-06-01,1,,,,,クロワージャパン,0
759,3320001019095,新規,0,2022-06-01,2022-06-01,株式会社フロンティア,,株式会社,大分県,佐伯市,長島町４丁目１２番１２号,,44,205,8760813,,,,,,,2022-06-01,1,,,,,フロンティア,0
763,3340001024754,新規,0,2022-06-01,2022-06-01,株式会社平岩ホールディングス,,株式会社,鹿児島県,出水市,知識町３５７番地２,,46,208,8990211,,,,,,,2022-06-01,1,,,,,ヒライワホールディングス,0
766,3360001030494,新規,0,2022-06-01,2022-06-01,上間不動産株式会社,,株式会社,沖縄県,中頭郡北谷町,北谷２丁目１９番地３コーラルレジデンス２０８,,47,326,9040116,,,,,,,2022-06-01,1,,,,,ウエマフドウサン,0
767,3360005006664,新規,0,2022-06-01,2022-06-01,一般社団法人沖縄県野球連盟,,その他の設立登記法人,沖縄県,那覇市,港町２丁目１２番２２号１階,,47,201,9000001,,,,,,,2022-06-01,1,,,,,オキナワケンヤキュウレンメイ,0
771,3370001048602,新規,0,2022-06-01,2022-06-01,株式会社サンチャイルドホールディングス,,株式会社,宮城県,石巻市,門脇字青葉東１１１番地１０,,04,202,9860853,,,,,,,2022-06-01,1,,,,,サンチャイルドホールディングス,0
773,3380001032852,新規,0,2022-06-01,2022-06-01,株式会社生垣製作所須賀川工場,,株式会社,福島県,須賀川市,横山町４１番地２,,07,207,9620041,,,,,,,2022-06-01,1,,,,,イケガキセイサクショスカガワコウジョウ,0
775,3390005008963,新規,0,2022-06-01,2022-06-01,一般財団法人酒田ＤＭＯ,,その他の設立登記法人,山形県,酒田市,中町１丁目４番１０号,,06,204,9980044,,,,,,,2022-06-01,1,,,,,サカタディーエムオー,0
779,3420003002527,新規,0,2022-06-01,2022-06-01,合同会社かがやホルモン,,合同会社,青森県,北津軽郡鶴田町,大字鶴田字相原３９１番地４,,02,384,0383503,,,,,,,2022-06-01,1,,,,,カガヤホルモン,0
789,3440001009092,新規,0,2022-06-01,2022-06-01,株式会社ＡｔＴｈｅＳｅａｓｉｄｅ,,株式会社,北海道,二海郡八雲町,浜松１９１番地,,01,346,0493124,,,,,,,2022-06-01,1,,,,,アットザシーサイド,0
796,3700150102068,新規,0,2022-06-01,2021-02-22,映画ｍｙ　ｐｅｏｐｌｅ　ｍｙ　ｃｏｕｎｔｒｙ日本上映委員会,,その他,東京都,港区,麻布十番３丁目１１－１エスコート麻布十番ＩＩ３０３,00122155,13,103,1060045,,,,,,,2021-02-22,1,,,,,エイガマイピープルマイカントリーニホンジヨウエイイインカイ,0
797,3700150108602,新規,0,2022-06-01,2022-05-10,福島県立磐城高等学校同窓会,,その他,福島県,いわき市,平字高月７百年記念館,,07,204,9708026,,,,,,,2022-05-10,1,,,,,フクシマケンリツイワキコウトウガツコウドウソウカイ,0
798,3700150108817,新規,0,2022-06-01,2022-05-18,山口国際ダンスコンペティション実行委員会,,その他,山口県,山陽小野田市,大字厚狭６９０－５９,,35,216,7570001,,,,,,,2022-05-18,1,,,,,ヤマグチコクサイダンスコンペテイシヨンジツコウイインカイ,0
799,3700150108841,新規,0,2022-06-01,2022-05-18,薩摩川内おどり太鼓,,その他,鹿児島県,薩摩川内市,青山町４７００番地５,,46,215,8950044,,,,,,,2022-05-18,1,,,,,サツマセンダイオドリダイコ,0
809,4010001226993,新規,0,2022-06-01,2022-06-01,福忠株式会社,,株式会社,東京都,中央区,銀座２丁目１２番４号アジリア銀座４０１,,13,102,1040061,,,,,,,2022-06-01,1,,,,,フクチュウ,0
810,4010001227026,新規,0,2022-06-01,2022-06-01,株式会社コントレイル,,株式会社,東京都,中央区,東日本橋２丁目１１番５号,,13,102,1030004,,,,,,,2022-06-01,1,,,,,コントレイル,0
815,4010003037778,新規,0,2022-06-01,2022-06-01,合同会社ＫＳ東梅田,,合同会社,東京都,千代田区,神田神保町１丁目１１番地さくら綜合事務所内,,13,101,1010051,,,,,,,2022-06-01,1,,,,,ケイエスヒガシウメダ,0
816,4010003037786,新規,0,2022-06-01,2022-06-01,ＢＡＮＳＯ合同会社,,合同会社,東京都,千代田区,神田多町２丁目４番１号,,13,101,1010046,,,,,,,2022-06-01,1,,,,,バンソウ,0
819,4010005035078,新規,0,2022-06-01,2022-06-01,一般社団法人エクスパンス・アーユルヴェーダセラピスト協会,,その他の設立登記法人,東京都,中央区,銀座７丁目９番１１号モンブラン銀座ビル８階,,13,102,1040061,,,,,,,2022-06-01,1,,,,,エクスパンスアーユルヴェーダセラピストキョウカイ,0
827,4010401167078,新規,0,2022-06-01,2022-06-01,株式会社ウェブライフ,,株式会社,東京都,港区,南青山２丁目２２番１７号川上ビル６Ｆ,,13,103,1070062,,,,,,東京都世田谷区池尻二丁目４番５号株式会社デジタルステージ（8010901023611）及び東京都港区南青山二丁目２２番１７号川上ビル６Ｆ株式会社ウェブライフジャパン（8011001097348）及び横浜市中区山下町８０番地３横濱ディアタワー３１４号室株式会社クリプトメリア（3020002070895）の合併により設立,2022-06-01,1,,,,,ウェブライフ,0
828,4010401167573,新規,0,2022-06-01,2022-06-01,株式会社柯宇,,株式会社,東京都,港区,赤坂１丁目１２－３２赤坂アークヒルズ・アーク森ビル１２階４６号室,,13,103,1070052,,,,,,,2022-06-01,1,,,,,カウ,0
829,4010401167631,新規,0,2022-06-01,2022-06-01,幹細胞ラボ株式会社,,株式会社,東京都,港区,東麻布１丁目９番１１号ＧＲＯＷＴＨＢＹＩＯＱＷ－０９,,13,103,1060044,,,,,,,2022-06-01,1,,,,,カンサイボウラボ,0
830,4010401167689,新規,0,2022-06-01,2022-06-01,ＩＴ‐ＢＯＸ株式会社,,株式会社,東京都,港区,南青山２丁目２番１５号,,13,103,1070062,,,,,,,2022-06-01,1,,,,,アイティーボックス,0
835,4010405021033,新規,0,2022-06-01,2022-06-01,ジャパンインフラホールディングス２３号一般社団法人,,その他の設立登記法人,東京都,港区,元赤坂１丁目１番７号,,13,103,1070051,,,,,,,2022-06-01,1,,,,,ジャパンインフラホールディングスニジュウサンゴウ,0
836,4010405021058,新規,0,2022-06-01,2022-06-01,一般社団法人日本キャップ野球協会,,その他の設立登記法人,東京都,港区,南青山２丁目２番１５号,,13,103,1070062,,,,,,,2022-06-01,1,,,,,ニホンキャップヤキュウキョウカイ,0
837,4010501048896,新規,0,2022-06-01,2022-06-01,株式会社エヌ設備,,株式会社,東京都,台東区,千束４丁目４９番１号,,13,106,1110031,,,,,,,2022-06-01,1,,,,,エヌセツビ,0
843,4010901050948,新規,0,2022-06-01,2022-06-01,株式会社ＳＨＩＲＯ,,株式会社,東京都,世田谷区,等々力７丁目１６番７－３０３号,,13,112,1580082,,,,,,,2022-06-01,1,,,,,シロ,0
844,4010901050956,新規,0,2022-06-01,2022-06-01,株式会社ＩＶＥ,,株式会社,東京都,世田谷区,太子堂４丁目３１番５号メゾン三軒茶屋ＩＩ２０１,00126707,13,112,1540004,,,,,,,2022-06-01,1,,,,,イブ,0
850,4011001147866,新規,0,2022-06-01,2022-06-01,株式会社ＳＥＶＥＮＲＩＣＨ　ＦＡＳ,,株式会社,東京都,渋谷区,渋谷３丁目１９番１号,,13,113,1500002,,,,,,,2022-06-01,1,,,,,セブンリッチファズ,0
851,4011003014791,新規,0,2022-06-01,2022-06-01,合同会社ＥＧアセット,,合同会社,東京都,目黒区,中目黒４丁目４番９号,,13,110,1530061,,,,,,,2022-06-01,1,,,,,イージーアセット,0
861,4011105010268,新規,0,2022-06-01,2022-06-01,一般社団法人債権流動化総合研究所,,その他の設立登記法人,東京都,新宿区,西新宿６丁目２１番１号アイタウン・プラザ２０３号,,13,104,1600023,,,,,,,2022-06-01,1,,,,,サイケンリュウドウカソウゴウケンキュウショ,0
876,4020001146720,新規,0,2022-06-01,2022-06-01,株式会社ＳＡＴ,,株式会社,神奈川県,横浜市港北区,日吉本町２丁目４７番４９号ミルテ日吉１０３,,14,109,2230062,,,,,,,2022-06-01,1,,,,,サット,0
880,4021001076073,新規,0,2022-06-01,2022-06-01,株式会社トーマスデザイン,,株式会社,神奈川県,海老名市,東柏ケ谷５丁目１０番３４－２号,,14,215,2430401,,,,,,,2022-06-01,1,,,,,トーマスデザイン,0
881,4021001076098,新規,0,2022-06-01,2022-06-01,株式会社Ｔｈａｎｋｓ　ｌａｂｏ,,株式会社,神奈川県,鎌倉市,津５７９番地４,,14,204,2480032,,,,,,,2022-06-01,1,,,,,サンクスラボ,0
882,4021003011763,新規,0,2022-06-01,2022-06-01,キャンベルサン合同会社,,合同会社,神奈川県,茅ヶ崎市,幸町７番３３号,,14,207,2530052,,,,,,,2022-06-01,1,,,,,キャンベルサン,0
895,4030001148427,新規,0,2022-06-01,2022-06-01,株式会社ＳＡＦＥ,,株式会社,埼玉県,さいたま市緑区,大字大門１６９５番地１５,,11,109,3360963,,,,,,,2022-06-01,1,,,,,セーフ,0
902,4030003019502,新規,0,2022-06-01,2022-06-01,合同会社北ｇｕｎｉ,,合同会社,埼玉県,北葛飾郡杉戸町,清地６丁目７番１２号,,11,464,3450025,,,,,,,2022-06-01,1,,,,,キタグニ,0
903,4030005020879,新規,0,2022-06-01,2022-06-01,一般社団法人秋明会,,その他の設立登記法人,埼玉県,さいたま市浦和区,北浦和１丁目１１番７号７０１,,11,107,3300074,,,,,,,2022-06-01,1,,,,,シュウメイカイ,0
906,4040001123593,新規,0,2022-06-01,2022-06-01,株式会社マネジメントソリューション,,株式会社,千葉県,流山市,西初石１丁目７７３番地の３６,,12,220,2700121,,,,,,,2022-06-01,1,,,,,マネジメントソリューション,0
907,4040001123610,新規,0,2022-06-01,2022-06-01,株式会社プロスパー,,株式会社,千葉県,松戸市,高塚新田３９１番地の５ロイヤルファースト松戸東２０８号,,12,207,2702222,,,,,,,2022-06-01,1,,,,,プロスパー,0
908,4040001123643,新規,0,2022-06-01,2022-06-01,株式会社旭日興業,,株式会社,千葉県,船橋市,南本町３５番１０号,,12,204,2730004,,,,,,,2022-06-01,1,,,,,アサヒコウギョウ,0
911,4040003020112,新規,0,2022-06-01,2022-06-01,合同会社ｔｏｄａｙ,,合同会社,千葉県,我孫子市,柴崎台３丁目９番２８－１０１号,,12,222,2701176,,,,,,,2022-06-01,1,,,,,トゥデイ,0
913,4050001051141,新規,0,2022-06-01,2022-06-01,株式会社アージェント,,株式会社,茨城県,つくば市,学園の森２丁目１４番地２３ゼピュロス学園の森Ｇ棟１０１号,,08,220,3050816,,,,,,,2022-06-01,1,,,,,アージェント,0
914,4060003004088,新規,0,2022-06-01,2022-06-01,Ａ＆Ｔ合同会社,,合同会社,栃木県,足利市,新山町２２２９番４,,09,202,3260063,,,,,,,2022-06-01,1,,,,,エーアンドティ,0
922,4080401025840,新規,0,2022-06-01,2022-06-01,浜名湖リゾート株式会社,,株式会社,静岡県,浜松市西区,舞阪町弁天島２６６９番１号,,22,133,4310214,,,,,,,2022-06-01,1,,,,,ハマナコリゾート,0
925,4100001035386,新規,0,2022-06-01,2022-06-01,株式会社アソシア,,株式会社,長野県,千曲市,大字内川４１４番地１,,20,218,3890802,,,,,,,2022-06-01,1,,,,,アソシア,0
928,4100003006567,新規,0,2022-06-01,2022-06-01,合同会社ひつじグラフィック,,合同会社,長野県,千曲市,大字桑原２２７番地１１,,20,218,3870024,,,,,,,2022-06-01,1,,,,,ヒツジグラフィック,0
935,4110005016811,新規,0,2022-06-01,2022-06-01,特定非営利活動法人どうぶつのきもち・どうぶつ愛護福祉研究所,,その他の設立登記法人,新潟県,糸魚川市,大字青海１００４番地,,15,216,9490305,,,,,,,2022-06-01,1,,,,,ドウブツノキモチドウブツアイゴフクシケンキュウジョ,0
943,4120001246213,新規,0,2022-06-01,2022-06-01,株式会社Ｍ・Ａ・Ｃ,,株式会社,大阪府,大阪市中央区,南船場２丁目１１番４号レンタルオフィスＲｅ：ＺＯＮＥ０１－３０９,,27,128,5420081,,,,,,,2022-06-01,1,,,,,エムエーシー,0
944,4120001246254,新規,0,2022-06-01,2022-06-01,株式会社Ａ２Ｆ,,株式会社,大阪府,枚方市,高塚町２５番２号,,27,210,5730035,,,,,,,2022-06-01,1,,,,,エーツーエフ,0
945,4120001246279,新規,0,2022-06-01,2022-06-01,ミナミグループ株式会社,,株式会社,大阪府,大阪市中央区,東心斎橋１丁目３番３号,,27,128,5420083,,,,,,,2022-06-01,1,,,,,ミナミグループ,0
946,4120001246312,新規,0,2022-06-01,2022-06-01,株式会社テルベース,,株式会社,大阪府,大阪市東淀川区,豊里１丁目７番３７号,,27,114,5330013,,,,,,,2022-06-01,1,,,,,テルベース,0
948,4120003021779,新規,0,2022-06-01,2022-06-01,合同会社ｗｏｏｄ　ｉｄｅａ,,合同会社,大阪府,大阪市北区,梅田１丁目１－３大阪駅前第３ビル２９階１－１－１号室,,27,127,5300001,,,,,,,2022-06-01,1,,,,,ウッドアイデア,0
949,4120005022973,新規,0,2022-06-01,2022-06-01,一般社団法人リオクロススポーツクラブヒラカタ,,その他の設立登記法人,大阪府,枚方市,津田駅前２丁目９番２０－２０４号,,27,210,5730125,,,,,,,2022-06-01,1,,,,,リオクロススポーツクラブヒラカタ,0
968,4130001071825,新規,0,2022-06-01,2022-06-01,諾誠株式会社,,株式会社,京都府,京都市上京区,千本通上長者町下る革堂前之町９９番地,,26,102,6028275,,,,,,,2022-06-01,1,,,,,タクセイ,0
969,4130001071858,新規,0,2022-06-01,2022-06-01,株式会社Ｋ．８,,株式会社,京都府,京都市伏見区,樽屋町９９９番地の６,,26,109,6128332,,,,,,,2022-06-01,1,,,,,ケイエイト,0
970,4130001071874,新規,0,2022-06-01,2022-06-01,株式会社ゆーらいふ,,株式会社,京都府,京都市伏見区,竹田西段川原町１２９番地,,26,109,6128429,,,,,,,2022-06-01,1,,,,,ユーライフ,0
981,4140003017734,新規,0,2022-06-01,2022-06-01,ＦＡＩＴ合同会社,,合同会社,兵庫県,神戸市西区,糀台２丁目９番地の１１,,28,111,6512273,,,,,,,2022-06-01,1,,,,,セイ,0
983,4160001024243,新規,0,2022-06-01,2022-06-01,株式会社小川住建,,株式会社,滋賀県,長浜市,常喜町６４３番地１,,25,203,5260823,,,,,,,2022-06-01,1,,,,,オガワジュウケン,0
986,4160003002577,新規,0,2022-06-01,2022-06-01,合同会社ＡＲＫ,,合同会社,滋賀県,大津市,北大路３丁目２３－２４,,25,201,5200843,,,,,,,2022-06-01,1,,,,,アルク,0
996,4180001151473,新規,0,2022-06-01,2022-06-01,ナノゾーンコートサービス株式会社,,株式会社,愛知県,名古屋市中村区,名駅４丁目１７番３号,,23,105,4500002,,,,,,,2022-06-01,1,,,,,ナノゾーンコートサービス,0
997,4180001151481,新規,0,2022-06-01,2022-06-01,株式会社ＮＯＤ,,株式会社,愛知県,小牧市,大字本庄２６１４番地２１４,,23,219,4850821,,,,,,,2022-06-01,1,,,,,エヌオーディー,0
998,4180001151507,新規,0,2022-06-01,2022-06-01,株式会社Ｒｉｓｅ,,株式会社,愛知県,名古屋市東区,東桜２丁目１０番１４号（プライムメゾン東桜８０１号）,,23,102,4610005,,,,,,,2022-06-01,1,,,,,ライズ,0
999,4180001151515,新規,0,2022-06-01,2022-06-01,ハウスコム東海株式会社,,株式会社,愛知県,名古屋市西区,花の木３丁目１５番１１号,,23,104,4510062,,,,,,,2022-06-01,1,,,,,ハウスコムトウカイ,0
1000,4180001151523,新規,0,2022-06-01,2022-06-01,ｓａｎｔｅｃ　ＯＩＳ株式会社,,株式会社,愛知県,小牧市,大字大草字年上坂５８２３番地,,23,219,4850802,,,,,,,2022-06-01,1,,,,,サンテックオーアイエス,0
1003,4190001029462,新規,0,2022-06-01,2022-06-01,株式会社３５８,,株式会社,三重県,四日市市,大井手１丁目２番２９号Ｓ．ウィステリアＹ－２０３,,24,202,5100835,,,,,,,2022-06-01,1,,,,,サンゴッパ,0
1005,4190003004001,新規,0,2022-06-01,2022-06-01,ＳＦＸ合同会社,,合同会社,三重県,伊勢市,上地町６８１番地２メゾンドプレヌ１０６号室,,24,203,5160051,,,,,,,2022-06-01,1,,,,,エスエフエックス,0
1006,4190005011706,新規,0,2022-06-01,2022-06-01,特定非営利活動法人りあん,,その他の設立登記法人,三重県,松阪市,山室町２１２３番地７,,24,204,5150052,,,,,,,2022-06-01,1,,,,,リアン,0
1012,4220001024872,新規,0,2022-06-01,2022-06-01,株式会社サニー・サポート,,株式会社,石川県,金沢市,長田町３番３号,,17,201,9200042,,,,,,,2022-06-01,1,,,,,サニーサポート,0
1018,4250003003087,新規,0,2022-06-01,2022-06-01,グッズワークス合同会社,,合同会社,山口県,山口市,桜畠５丁目１－３２,,35,203,7530021,,,,,,,2022-06-01,1,,,,,グッズワークス,0
1020,4260001036889,新規,0,2022-06-01,2022-06-01,株式会社吉村工業,,株式会社,岡山県,岡山市中区,赤坂本町１２番２９号８０１,,33,102,7038288,,,,,,,2022-06-01,1,,,,,ヨシムラコウギョウ,0
1024,4260003003929,新規,0,2022-06-01,2022-06-01,合同会社ＤＩＣＥ　ＫＥＹ,,合同会社,岡山県,岡山市南区,植松３４６番地５,,33,104,7100151,,,,,,,2022-06-01,1,,,,,ダイスキー,0
1025,4270001008532,新規,0,2022-06-01,2022-06-01,ＭＹＴ　ｇａｉｋｏｕ株式会社,,株式会社,鳥取県,鳥取市,津ノ井３９１番地,,31,201,6891102,,,,,,,2022-06-01,1,,,,,エムワイティーガイコウ,0
1026,4270003001411,新規,0,2022-06-01,2022-06-01,山名建工合同会社,,合同会社,鳥取県,鳥取市,青谷町栄町３８７番地２８,,31,201,6890537,,,,,,,2022-06-01,1,,,,,ヤマナケンコウ,0
1033,4290003012571,新規,0,2022-06-01,2022-06-01,合同会社ＮＡＲＩＤＡ,,合同会社,福岡県,福岡市早良区,飯倉４丁目８－４－１０１,,40,137,8140161,,,,,,,2022-06-01,1,,,,,ナリダ,0
1035,4310003004376,新規,0,2022-06-01,2022-06-01,ＭＯＡ民宿合同会社,,合同会社,長崎県,対馬市,美津島町竹敷２３６番地１,,42,209,8170511,,,,,,,2022-06-01,1,,,,,モアミンシュク,0
1038,4340001024761,新規,0,2022-06-01,2022-06-01,株式会社ＭＣＦ,,株式会社,鹿児島県,南さつま市,金峰町池辺２９７３番地１,,46,220,8993405,,,,,,,2022-06-01,1,,,,,エムシーエフ,0
1045,4350003004091,新規,0,2022-06-01,2022-06-01,合同会社カ・ミキコ,,合同会社,宮崎県,都城市,志比田町５４２７番地１,,45,202,8850093,,,,,,,2022-06-01,1,,,,,カミキコ,0
1054,4380001032851,新規,0,2022-06-01,2022-06-01,株式会社ガレリア,,株式会社,福島県,福島市,御山字三本松１９番地の１信夫プラザ２Ｆ－８号室,,07,201,9608252,,,,,,,2022-06-01,1,,,,,ガレリア,0
1058,4390005008962,新規,0,2022-06-01,2022-06-01,企業組合ど田舎停車場の会,,その他の設立登記法人,山形県,長井市,栄町１２２３番２号,,06,209,9930084,,,,,,,2022-06-01,1,,,,,ドイナカテイシャバノカイ,0
1059,4400003002940,新規,0,2022-06-01,2022-06-01,合同会社東洋商事,,合同会社,岩手県,北上市,諏訪町２丁目４番３２号,,03,206,0240034,,,,,,,2022-06-01,1,,,,,トウヨウショウジ,0
1069,4430001086776,新規,0,2022-06-01,2022-06-01,株式会社Ｗｉｔｈ　Ａｇｅｎｔ,,株式会社,北海道,札幌市中央区,南一条西５丁目１６プレジデント松井ビル１００,,01,101,0600061,,,,,,,2022-06-01,1,,,,,ウィズエージェント,0
1071,4430003013968,新規,0,2022-06-01,2022-06-01,合同会社はやきた風土ＪＡＰＡＮ,,合同会社,北海道,勇払郡安平町,早来新栄４９１番地１,,01,585,0591431,,,,,,,2022-06-01,1,,,,,ハヤキタフウドジャパン,0
1072,4460001005700,新規,0,2022-06-01,2022-06-01,野崎塗装株式会社,,株式会社,北海道,釧路市,美原２丁目３８番１号,,01,206,0850065,,,,,,,2022-06-01,1,,,,,ノザキトソウ,0
1077,4500005008496,新規,0,2022-06-01,2022-06-01,特定非営利活動法人メインソース,,その他の設立登記法人,愛媛県,松山市,久保田町２０７－７,,38,201,7918035,,,,,,,2022-06-01,1,,,,,メインソース,0
1079,4700150102827,新規,0,2022-06-01,2021-04-15,人里もみじの里委員会,,その他,東京都,西多摩郡檜原村,人里６４６６番地１,,13,307,1900222,,,,,,,2021-04-15,1,,,,,ヘンボリモミジノサトイインカイ,0
1080,4700150109062,新規,0,2022-06-01,2022-05-27,ありまやの,,その他,東京都,中野区,本町５丁目３７－８,,13,114,1640012,,,,,,,2022-05-27,1,,,,,アリマヤノ,0
1081,4700150109153,新規,0,2022-06-01,2022-06-01,ＡＰＥＸ　ＵＮＩＯＮ　ＨＯＬＤＩＮＧＳ　ＬＩＭＩＴＥＤ,,外国会社等,北海道,虻田郡ニセコ町,字曽我４９５－３,,01,395,0481522,Ｓｕｉｔｅ　２００６ー０７　ＩＣＢＣ　Ｔｏｗｅｒ　３　Ｇａｒｄｅｎ　Ｒｏａｄ　Ｃｅｎｔｒａｌ　Ｈｏｎｇ　Ｋｏｎｇ,,,,,,2022-06-01,1,,,,,エーペツクスユニオンホールデイングスリミテツド,0
1094,5010001227009,新規,0,2022-06-01,2022-06-01,アーク・タイムズ株式会社,,株式会社,東京都,千代田区,九段南１丁目５番６号りそな九段ビル５階ＫＳフロア,,13,101,1020074,,,,,,,2022-06-01,1,,,,,アークタイムズ,0
1095,5010001227025,新規,0,2022-06-01,2022-06-01,株式会社Ｓｅａｒｃｈ,,株式会社,東京都,中央区,東日本橋２丁目１１番５号,,13,102,1030004,,,,,,,2022-06-01,1,,,,,サーチ,0
1098,5010005035069,新規,0,2022-06-01,2022-06-01,一般社団法人メタクリニック,,その他の設立登記法人,東京都,中央区,佃２丁目５－１５プラティーク月島３０１号,,13,102,1040051,,,,,,,2022-06-01,1,,,,,メタクリニック,0
1106,5010401167630,新規,0,2022-06-01,2022-06-01,株式会社日本能率未来総研,,株式会社,東京都,港区,芝浦４丁目２０番２―３４０５号,,13,103,1080023,,,,,,,2022-06-01,1,,,,,ニホンノウリツミライソウケン,0
1107,5010401167639,新規,0,2022-06-01,2022-06-01,エムディコミュニケーションズ株式会社,,株式会社,東京都,港区,港南１丁目９番３６号,,13,103,1080075,,,,,,,2022-06-01,1,,,,,エムディコミュニケーションズ,0
1132,5011001147824,新規,0,2022-06-01,2022-06-01,ＹＫＨ株式会社,,株式会社,東京都,目黒区,八雲４丁目１１番１２－３００号ヘリテイジ八雲,,13,110,1520023,,,,,,,2022-06-01,1,,,,,ワイケーエイチ,0
1133,5011001147849,新規,0,2022-06-01,2022-06-01,株式会社アンジェエールコスメ,,株式会社,東京都,渋谷区,広尾５丁目２３番５号長谷部第１ビル１階,,13,113,1500012,,,,,,,2022-06-01,1,,,,,アンジェエールコスメ,0
1134,5011001147865,新規,0,2022-06-01,2022-06-01,株式会社ＬＹＬ,,株式会社,東京都,渋谷区,渋谷３丁目１９番１号,,13,113,1500002,,,,,,,2022-06-01,1,,,,,リール,0
1137,5011101098991,新規,0,2022-06-01,2022-06-01,ヤス工業株式会社,,株式会社,東京都,新宿区,大久保１丁目１５番９－４０２号,,13,104,1690072,,,,,,,2022-06-01,1,,,,,ヤスコウギョウ,0
1138,5011101099040,新規,0,2022-06-01,2022-06-01,株式会社シグナル,,株式会社,東京都,新宿区,西新宿３丁目３番１３号西新宿水間ビル６階,,13,104,1600023,,,,,,,2022-06-01,1,,,,,シグナル,0
1139,5011101099065,新規,0,2022-06-01,2022-06-01,株式会社Ａ,,株式会社,東京都,新宿区,上落合３丁目８－２５－４０１,,13,104,1610034,,,,,,,2022-06-01,1,,,,,エース,0
1141,5011303004418,新規,0,2022-06-01,2022-06-01,合同会社Ｍ,,合同会社,東京都,杉並区,永福２丁目５８番１１号,,13,115,1680064,,,,,,,2022-06-01,1,,,,,エム,0
1145,5011305002824,新規,0,2022-06-01,2022-06-01,一般社団法人オールキッズバイクジャパン,,その他の設立登記法人,東京都,杉並区,高円寺南４丁目５番７号,,13,115,1660003,,,,,,,2022-06-01,1,,,,,オールキッズバイクジャパン,0
1152,5012401039248,新規,0,2022-06-01,2022-06-01,株式会社ＫＧＳ,,株式会社,東京都,多摩市,中沢２丁目３番地１ライオンズマンション多摩センター３０２号,,13,224,2060036,,,,,,,2022-06-01,1,,,,,ケージーエス,0
1153,5012801021615,新規,0,2022-06-01,2022-06-01,株式会社狩野自動車,,株式会社,東京都,昭島市,宮沢町３丁目１４番６号,,13,207,1960024,,,,,,,2022-06-01,1,,,,,,0
1155,5013303006179,新規,0,2022-06-01,2022-06-01,ＢＮＢ合同会社,,合同会社,東京都,豊島区,池袋本町２丁目１５－３－２０２,,13,116,1700011,,,,,,,2022-06-01,1,,,,,ビーエヌビー,0
1160,5020001146637,新規,0,2022-06-01,2022-06-01,株式会社Ｇｅｎｅｒａｌ　Ｃｏｎｓｔｒｕｃｔｉｏｎ・ＳＡＴＯＲＵ,,株式会社,神奈川県,川崎市川崎区,元木１丁目１１番１－２０１号,,14,131,2100021,,,,,,,2022-06-01,1,,,,,ゼネラルコントラクションサトル,0
1166,5020003021838,新規,0,2022-06-01,2022-06-01,ジェイユー合同会社,,合同会社,神奈川県,横浜市都筑区,加賀原２丁目２－１,,14,118,2240055,,,,,,,2022-06-01,1,,,,,ジェイユー,0
1167,5020003021846,新規,0,2022-06-01,2022-06-01,ｎａｒｏｗ合同会社,,合同会社,神奈川県,横浜市中区,日本大通７合人社横浜日本大通７ビル４階,,14,104,2310021,,,,,,,2022-06-01,1,,,,,ナロー,0
1173,5021001076097,新規,0,2022-06-01,2022-06-01,株式会社Ｅｓｓｅｎｔｉａｌ　Ｔｒａｉｎｅｒｓ,,株式会社,神奈川県,横須賀市,久里浜１丁目１２番１号,,14,201,2390831,,,,,,,2022-06-01,1,,,,,エッセンシャルトレーナーズ,0
1176,5021003011738,新規,0,2022-06-01,2022-06-01,オレンジカンパニー合同会社,,合同会社,神奈川県,厚木市,飯山２１７０番地２８,,14,212,2430213,,,,,,,2022-06-01,1,,,,,オレンジカンパニー,0
1183,5030001148418,新規,0,2022-06-01,2022-06-01,株式会社マネジメントリンク,,株式会社,埼玉県,さいたま市中央区,上落合２丁目３番２号Ｍｉｏ新都心,,11,105,3380001,,,,,,,2022-06-01,1,,,,,マネジメントリンク,0
1184,5030001148442,新規,0,2022-06-01,2022-06-01,株式会社ヒナタ,,株式会社,埼玉県,飯能市,南町３番３号,,11,209,3570036,,,,,,,2022-06-01,1,,,,,ヒナタ,0
1190,5030003019427,新規,0,2022-06-01,2022-06-01,合同会社かめとうさぎ,,合同会社,埼玉県,さいたま市浦和区,上木崎７丁目１５番２号カルモ１０１号,,11,107,3300071,,,,,,,2022-06-01,1,,,,,カメトウサギ,0
1191,5030003019492,新規,0,2022-06-01,2022-06-01,合同会社Ａ．Ｎ．Ｓ．Ｔ．Ｙ,,合同会社,埼玉県,富士見市,東みずほ台１丁目２番地２６,,11,235,3540015,,,,,,,2022-06-01,1,,,,,アンスティ,0
1196,5040001123246,新規,0,2022-06-01,2022-06-01,Ｐ．Ｗ．ＥＮＴＥＲＰＲＩＳＥＳ株式会社,,株式会社,千葉県,柏市,藤ケ谷２１５番地６,,12,217,2770931,,,,,,,2022-06-01,1,,,,,ピーダブリューエンタープライズ,0
1197,5040001123618,新規,0,2022-06-01,2022-06-01,株式会社ＮＹ６３９５ｉｍｐｏｒｔ,,株式会社,千葉県,成田市,川上２４５番地１４９３,,12,211,2870244,,,,,,,2022-06-01,1,,,,,エヌワイインポート,0
1198,5040001123650,新規,0,2022-06-01,2022-06-01,株式会社おれんじ,,株式会社,千葉県,市川市,八幡６丁目１５番１４号学園ハイム２０２号,,12,203,2720021,,,,,,,2022-06-01,1,,,,,オレンジ,0
1202,5040003020094,新規,0,2022-06-01,2022-06-01,合名会社拓人,,合名会社,千葉県,香取市,上小川６８１番地,,12,236,2870046,,,,,,,2022-06-01,1,,,,,タクト,0
1203,5040003020111,新規,0,2022-06-01,2022-06-01,ＴＲＸ合同会社,,合同会社,千葉県,柏市,つくしが丘５丁目３番１６－１号,,12,217,2770072,,,,,,,2022-06-01,1,,,,,トラックス,0
1204,5040003020144,新規,0,2022-06-01,2022-06-01,ムゲン・スターズ合同会社,,合同会社,千葉県,市川市,新井３丁目１４－１８ラ・メルベーユ１０３,,12,203,2720144,,,,,,,2022-06-01,1,,,,,ムゲンスターズ,0
1215,5060001034912,新規,0,2022-06-01,2022-06-01,Ｍａｙ株式会社,,株式会社,栃木県,宇都宮市,仲町１－１９・４階,,09,201,3200023,,,,,,,2022-06-01,1,,,,,メイ,0
1224,5090001017550,新規,0,2022-06-01,2022-06-01,株式会社鈴蘭堂,,株式会社,山梨県,北杜市,小淵沢町７５２７,,19,209,4080044,,,,,,,2022-06-01,1,,,,,スズランドウ,0
1240,5120001246245,新規,0,2022-06-01,2022-06-01,株式会社安永不動産,,株式会社,大阪府,大阪市中央区,南本町１丁目５番１号,,27,128,5410054,,,,,,,2022-06-01,1,,,,,ヤスナガフドウサン,0
1246,5120103004716,新規,0,2022-06-01,2022-06-01,合同会社ＫＮＯＷＩＮＧ　ＴＲＹ,,合同会社,大阪府,泉佐野市,新安松２丁目３番３１号,,27,213,5980032,,,,,,,2022-06-01,1,,,,,ノウイングトライ,0
1251,5130001071873,新規,0,2022-06-01,2022-06-01,ろくしま電工株式会社,,株式会社,京都府,亀岡市,西つつじケ丘大山台１丁目１８番１０号,,26,206,6210843,,,,,,,2022-06-01,1,,,,,ロクシマデンコウ,0
1252,5130003007958,新規,0,2022-06-01,2022-06-01,合同会社Ｐｕｒｐｌｅ,,合同会社,京都府,京都市中京区,式阿弥町１２２番地１,,26,104,6048261,,,,,,,2022-06-01,1,,,,,パープル,0
1256,5140001126172,新規,0,2022-06-01,2022-06-01,株式会社アセンショナー,,株式会社,兵庫県,尼崎市,南塚口町６丁目９番１－２２５号,,28,202,6610012,,,,,,,2022-06-01,1,,,,,アセンショナー,0
1260,5140003017741,新規,0,2022-06-01,2022-06-01,Ｃ＆Ｐコンサルティング合同会社,,合同会社,兵庫県,洲本市,塩屋２丁目１番２４号,,28,205,6560021,,,,,,,2022-06-01,1,,,,,シーアンドピーコンサルティング,0
1265,5150003002692,新規,0,2022-06-01,2022-06-01,合同会社橋谷製作所,,合同会社,奈良県,宇陀市,大宇陀栗野９８２番地の５,,29,212,6332144,,,,,,,2022-06-01,1,,,,,ハシタニセイサクショ,0
1269,5160001024242,新規,0,2022-06-01,2022-06-01,株式会社トータルビルディング,,株式会社,滋賀県,大津市,稲葉台３番１３号,,25,201,5200065,,,,,,,2022-06-01,1,,,,,トータルビルディング,0
1283,5180001151489,新規,0,2022-06-01,2022-06-01,トヨシバエステート株式会社,,株式会社,愛知県,西春日井郡豊山町,大字豊場字中之町１３３番地１,,23,342,4800202,,,,,,,2022-06-01,1,,,,,トヨシバエステート,0
1284,5180001151497,新規,0,2022-06-01,2022-06-01,株式会社リードテック,,株式会社,愛知県,春日井市,八幡町７２番地１１,,23,206,4860915,,,,,,,2022-06-01,1,,,,,リードテック,0
1285,5180001151522,新規,0,2022-06-01,2022-06-01,ｓａｎｔｅｃ　ＬＩＳ株式会社,,株式会社,愛知県,小牧市,大字大草字年上坂５８２３番地,,23,219,4850802,,,,,,,2022-06-01,1,,,,,サンテックエルアイエス,0
1288,5190003004000,新規,0,2022-06-01,2022-06-01,合同会社Ｓｅｅｄ＆Ｓｐｒｏｕｔ,,合同会社,三重県,津市,安濃町清水１９１－１,,24,201,5142305,,,,,,,2022-06-01,1,,,,,シードアンドスプラウト,0
1291,5200001040111,新規,0,2022-06-01,2022-06-01,株式会社ＩＫＩ,,株式会社,岐阜県,大垣市,加賀野４丁目１番地７,,21,202,5030006,,,,,,,2022-06-01,1,,,,,アイケーアイ,0
1295,5220001024871,新規,0,2022-06-01,2022-06-01,ｉＲＯＨＡ株式会社,,株式会社,石川県,金沢市,広岡１丁目３番１号,,17,201,9200031,,,,,,,2022-06-01,1,,,,,イロハ,0
1300,5240001059833,新規,0,2022-06-01,2022-06-01,株式会社出上造園,,株式会社,広島県,山県郡北広島町,石井谷９１３番地３,,34,369,7311525,,,,,,,2022-06-01,1,,,,,イデウエゾウエン,0
1303,5240003005637,新規,0,2022-06-01,2022-06-01,合同会社ＳＵＭＩＬＥ,,合同会社,広島県,福山市,東深津町４丁目２番２４－５号Ａ２０１,,34,207,7210974,,,,,,,2022-06-01,1,,,,,スミレ,0
1311,5270001008531,新規,0,2022-06-01,2022-06-01,株式会社Ｃｕｏｒａ,,株式会社,鳥取県,倉吉市,明治町１０２５番地１,,31,203,6820887,,,,,,,2022-06-01,1,,,,,クオラ,0
1320,5290001097713,新規,0,2022-06-01,2022-06-01,株式会社Ｎｉｌ　ｍａｄｅ．,,株式会社,福岡県,福岡市博多区,博多駅南３丁目１５番１号,,40,132,8120016,,,,,,,2022-06-01,1,,,,,ニルメイド,0
1324,5330003009389,新規,0,2022-06-01,2022-06-01,合同会社モーターズ,,合同会社,熊本県,上天草市,松島町合津５５６０番地２,,43,212,8616102,,,,,,,2022-06-01,1,,,,,モーターズ,0
1325,5330005010527,新規,0,2022-06-01,2022-06-01,一般社団法人ムーブメント人吉,,その他の設立登記法人,熊本県,人吉市,上青井町１２０番地５,,43,203,8680005,,,,,,,2022-06-01,1,,,,,ムーブメントヒトヨシ,0
1334,5360003012051,新規,0,2022-06-01,2022-06-01,合同会社茜雲,,合同会社,沖縄県,うるま市,勝連平敷屋４５９番地,,47,213,9042314,,,,,,,2022-06-01,1,,,,,センウン,0
1338,5380003005185,新規,0,2022-06-01,2022-06-01,上諏訪重機工業合同会社,,合同会社,福島県,郡山市,横塚５丁目１８－２７－１０１,,07,203,9638803,,,,,,,2022-06-01,1,,,,,,0
1339,5380005012592,新規,0,2022-06-01,2022-06-01,一般社団法人ふくしまプラネット,,その他の設立登記法人,福島県,福島市,豊田町１番６号,,07,201,9608104,,,,,,,2022-06-01,1,,,,,フクシマプラネット,0
1346,5420001017871,新規,0,2022-06-01,2022-06-01,株式会社Ａ‐ｓｅｃｔｉｏｎ,,株式会社,青森県,青森市,大字幸畑字唐崎４７番地１８,,02,201,0300943,,,,,,,2022-06-01,1,,,,,エーセクション,0
1347,5420003002525,新規,0,2022-06-01,2022-06-01,合同会社ミユキメンテナンスサービス,,合同会社,青森県,青森市,大字金浜字稲田６６番地２,,02,201,0300145,,,,,,,2022-06-01,1,,,,,ミユキメンテナンスサービス,0
1354,5430001086750,新規,0,2022-06-01,2022-06-01,株式会社クラウン,,株式会社,北海道,札幌市中央区,大通西１８丁目１番地４３,,01,101,0600042,,,,,,,2022-06-01,1,,,,,クラウン,0
1365,5500001024240,新規,0,2022-06-01,2022-06-01,ハムスターランド株式会社,,株式会社,愛媛県,新居浜市,本郷１丁目１６番１８号,,38,205,7920042,,,,,,,2022-06-01,1,,,,,ハムスターランド,0
1367,5700150109152,新規,0,2022-06-01,2022-06-01,ＰＩＧ　Ｃｏｒｐｏｒａｔｉｏｎ,,外国会社等,,,,,,,,３Ｆ　ＡＰ　Ｔｏｗｅｒ，２１８，Ｔｅｈｅｒａｎ－ｒｏ，Ｇａｎｇｎａｍ－ｇｕ，Ｓｅｏｕｌ，Ｋｏｒｅａ,,,,,,2022-06-01,1,,,,,ピグコーポレーシヨン,0
1368,5700150109169,新規,0,2022-06-01,2022-06-01,ｉａｍ　８ｂｉｔ　Ｉｎｃ．,,外国会社等,,,,,,,,２１４７　Ｗ．Ｓｕｎｓｅｔ．Ｂｌｖｄ，Ｌｏｓ　Ａｎｇｅｌｅｓ　ＣＡ　９００２６　ＵＳＡ,,,,,,2022-06-01,1,,,,,アイアムエイトビツトインク,0
1373,6010001227024,新規,0,2022-06-01,2022-06-01,株式会社Ｃｏｍｏｎｓ,,株式会社,東京都,中央区,東日本橋２丁目１１番５号,,13,102,1030004,,,,,,,2022-06-01,1,,,,,コモンズ,0
1377,6010003037776,新規,0,2022-06-01,2022-06-01,合同会社Ｅ‐Ｓｔｙｌｅ,,合同会社,東京都,千代田区,九段南１丁目５番６号りそな九段ビル５階ＫＳフロア,,13,101,1020074,,,,,,,2022-06-01,1,,,,,イースタイル,0
1383,6010401167547,新規,0,2022-06-01,2022-06-01,ＥａｒｌｙＧａｍｅ株式会社,,株式会社,東京都,港区,六本木７丁目７番７号,,13,103,1060032,,,,,,,2022-06-01,1,,,,,アーリーゲーム,0
1384,6010401167679,新規,0,2022-06-01,2022-06-01,株式会社ケセラ,,株式会社,東京都,港区,東麻布３丁目８番３号カノーア麻布３０１,,13,103,1060044,,,,,,,2022-06-01,1,,,,,ケセラ,0
1385,6010401167712,新規,0,2022-06-01,2022-06-01,Ｅｘｃｅｌｌｅｎｃｅ　Ｊａｐａｎ株式会社,,株式会社,東京都,港区,高輪１丁目５番２３号,,13,103,1080074,,,,,,,2022-06-01,1,,,,,エクセレンスジャパン,0
1389,6010501048903,新規,0,2022-06-01,2022-06-01,ラノップ株式会社,,株式会社,東京都,台東区,元浅草３丁目３番７－１１０４号日神デュオステージ新御徒町,,13,106,1110041,,,,,,,2022-06-01,1,,,,,ラノップ,0
1390,6010503006603,新規,0,2022-06-01,2022-06-01,合同会社テレビット,,合同会社,東京都,台東区,上野６丁目８番１９号,,13,106,1100005,,,,,,,2022-06-01,1,,,,,テレビット,0
1395,6010703006254,新規,0,2022-06-01,2022-06-01,ＤＩＡＭＯＮＤ　ＡＧＥ合同会社,,合同会社,東京都,品川区,大崎４丁目４番２９号サンコーハイツ大崎４０５,,13,109,1410032,,,,,,,2022-06-01,1,,,,,ダイヤモンドエイジ,0
1404,6011001147807,新規,0,2022-06-01,2022-06-01,株式会社タックマン,,株式会社,東京都,目黒区,上目黒１丁目２６番１－１７０８号中目黒アトラスタワー,,13,110,1530051,,,,,,,2022-06-01,1,,,,,タックマン,0
1405,6011001147848,新規,0,2022-06-01,2022-06-01,株式会社デイリーショップ,,株式会社,東京都,渋谷区,広尾５丁目２３番５号長谷部第１ビル１階,,13,113,1500012,,,,,,,2022-06-01,1,,,,,デイリーショップ,0
1406,6011001147864,新規,0,2022-06-01,2022-06-01,株式会社ＣＩＲＣＵＳ,,株式会社,東京都,渋谷区,渋谷３丁目１９番１号,,13,113,1500002,,,,,,,2022-06-01,1,,,,,サーカス,0
1413,6011303004425,新規,0,2022-06-01,2022-06-01,合同会社ＢｕｚｚＬｅａｄ,,合同会社,東京都,杉並区,上高井戸１丁目２４－２モデュロール４０１,,13,115,1680074,,,,,,,2022-06-01,1,,,,,バズリード,0
1420,6011801040789,新規,0,2022-06-01,2022-06-01,チーフポップ株式会社,,株式会社,東京都,足立区,西新井本町１丁目２５番９号,,13,121,1230845,,,,,,,2022-06-01,1,,,,,チーフポップ,0
1425,6013301049170,新規,0,2022-06-01,2022-06-01,ＥＸＰＬＯＲＥ　ＪＰ株式会社,,株式会社,東京都,豊島区,東池袋２丁目４番７号サンハイツエイト大塚台５０１号,,13,116,1700013,,,,,,,2022-06-01,1,,,,,エクスプロアジェーピー,0
1426,6013301049179,新規,0,2022-06-01,2022-06-01,ＨＡＮＡＢＩ株式会社,,株式会社,東京都,豊島区,南池袋２丁目４１－１２,,13,116,1710022,,,,,,,2022-06-01,1,,,,,ハナビ,0
1433,6020001146719,新規,0,2022-06-01,2022-06-01,株式会社ＥＥＴ,,株式会社,神奈川県,横浜市港北区,大倉山５丁目８番１－５１１号,,14,109,2220037,,,,,,,2022-06-01,1,,,,,イーイーティ,0
1448,6030001148400,新規,0,2022-06-01,2022-06-01,株式会社クラフトリア,,株式会社,埼玉県,日高市,大字上鹿山１９１番地１,,11,242,3501234,,,,,,,2022-06-01,1,,,,,クラフトリア,0
1449,6030001148417,新規,0,2022-06-01,2022-06-01,株式会社東西設備,,株式会社,埼玉県,和光市,南１丁目２７番７５号,,11,229,3510104,,,,,,,2022-06-01,1,,,,,トウザイセツビ,0
1459,6040001123609,新規,0,2022-06-01,2022-06-01,ＩＲＥ株式会社,,株式会社,千葉県,市川市,南八幡１丁目２１番地１０号,,12,203,2720023,,,,,,,2022-06-01,1,,,,,アイアールイー,0
1460,6040001123633,新規,0,2022-06-01,2022-06-01,宇田川工務店株式会社,,株式会社,千葉県,白井市,根１７２６番地,,12,232,2701431,,,,,,,2022-06-01,1,,,,,ウダガワコウムテン,0
1461,6040003020093,新規,0,2022-06-01,2022-06-01,合名会社託人,,合名会社,千葉県,香取市,上小川６８１番地,,12,236,2870046,,,,,,,2022-06-01,1,,,,,タクト,0
1465,6050005013086,新規,0,2022-06-01,2022-06-01,社会福祉法人全進会,,その他の設立登記法人,茨城県,つくば市,さくらの森２番地５,,08,220,3050019,,,,,,,2022-06-01,1,,,,,ゼンシンカイ,0
1468,6070003004498,新規,0,2022-06-01,2022-06-01,合同会社さらのて,,合同会社,群馬県,伊勢崎市,西久保町１丁目５１番地８,,10,204,3792204,,,,,,,2022-06-01,1,,,,,サラノテ,0
1469,6070005009999,新規,0,2022-06-01,2022-06-01,一般社団法人星陽福祉ネット,,その他の設立登記法人,群馬県,高崎市,中泉町２６１番地３,,10,202,3703524,,,,,,,2022-06-01,1,,,,,セイヨウフクシネット,0
1473,6080401025839,新規,0,2022-06-01,2022-06-01,株式会社カグラ,,株式会社,静岡県,浜松市北区,豊岡町１００番地の２,,22,135,4338103,,,,,,,2022-06-01,1,,,,,カグラ,0
1487,6120001245816,新規,0,2022-06-01,2022-06-01,復旧設計株式会社,,株式会社,大阪府,大阪市西区,新町４丁目２番１号１００１,,27,106,5500013,,,,,,,2022-06-01,1,,,,,フッキュウセッケイ,0
1488,6120001246285,新規,0,2022-06-01,2022-06-01,株式会社３Ｎ,,株式会社,大阪府,大阪市東淀川区,西淡路１丁目３番２６号弥生新大阪第一ビル２０２Ｂ,,27,114,5330031,,,,,,,2022-06-01,1,,,,,スリーエヌ,0
1489,6120001246319,新規,0,2022-06-01,2022-06-01,Ｃａｎｙｏｎ株式会社,,株式会社,大阪府,大阪市港区,弁天３丁目８番１０号,,27,107,5520007,,,,,,,2022-06-01,1,,,,,キャニオン,0
1490,6120001246335,新規,0,2022-06-01,2022-06-01,株式会社ウェイバーズインターナショナル,,株式会社,大阪府,大阪市北区,天神橋３丁目５番３号,,27,127,5300041,,,,,,,2022-06-01,1,,,,,ウェイバーズインターナショナル,0
1495,6120101065651,新規,0,2022-06-01,2022-06-01,株式会社ＣＵＲＵＺＥ,,株式会社,大阪府,羽曳野市,はびきの４丁目５番２号,,27,222,5830872,,,,,,,2022-06-01,1,,,,,クルゼ,0
1496,6120103004723,新規,0,2022-06-01,2022-06-01,日光合同会社,,合同会社,大阪府,堺市堺区,中之町西３丁１番３号メゾン・サンキュー３Ｃ,,27,141,5900957,,,,,,,2022-06-01,1,,,,,ニッコウ,0
1501,6120901046025,新規,0,2022-06-01,2022-06-01,株式会社Ｃｈｒｏｎｉｃｌｅ,,株式会社,大阪府,吹田市,豊津町１４番１０号,,27,205,5640051,,,,,,,2022-06-01,1,,,,,クロニクル,0
1502,6120901046033,新規,0,2022-06-01,2022-06-01,株式会社ＴＩＭＥＬＥＳＳ　ＲＥＮＯＶＡＴＩＯＮ,,株式会社,大阪府,箕面市,萱野４丁目１番２１号,,27,220,5620014,,,,,,,2022-06-01,1,,,,,タイムレスリノベーション,0
1504,6120905006330,新規,0,2022-06-01,2022-06-01,一般社団法人ＳＯＲＡ,,その他の設立登記法人,大阪府,吹田市,長野東１８番１－３０７号,,27,205,5650816,,,,,,,2022-06-01,1,,,,,ソラ,0
1520,6140003017724,新規,0,2022-06-01,2022-06-01,合同会社ｋｉｍｏｒｉ,,合同会社,兵庫県,三木市,志染町東自由が丘１丁目１３１番地ＢｌｕｅＧｒａｓｓ１０５号,,28,215,6730553,,,,,,,2022-06-01,1,,,,,キモリ,0
1527,6180001151488,新規,0,2022-06-01,2022-06-01,株式会社浅野屋,,株式会社,愛知県,名古屋市緑区,鳴海町字相原町２７番地の３,,23,114,4580801,,,,,,,2022-06-01,1,,,,,アサノヤ,0
1528,6180001151513,新規,0,2022-06-01,2022-06-01,Ｇｒｏｗｉｎｇ　ｌａｎｄ株式会社,,株式会社,愛知県,名古屋市中区,錦２丁目５番５号八木兵伝馬町ビル３Ｆ,,23,106,4600003,,,,,,,2022-06-01,1,,,,,グロウイングランド,0
1529,6180001151521,新規,0,2022-06-01,2022-06-01,ｓａｎｔｅｃ　ＡＯＣ株式会社,,株式会社,愛知県,小牧市,大字大草字年上坂５８２３番地,,23,219,4850802,,,,,,,2022-06-01,1,,,,,サンテックエーオーシー,0
1532,6180003023875,新規,0,2022-06-01,2022-06-01,合同会社虹の丘,,合同会社,愛知県,名古屋市千種区,千種１丁目１８番１号コーポセツダ５Ｆ,,23,101,4640858,,,,,,,2022-06-01,1,,,,,ニジノオカ,0
1537,6190001029460,新規,0,2022-06-01,2022-06-01,株式会社ＵＲＢＡＮ　ＢＥＡＵＴＹ,,株式会社,三重県,鈴鹿市,白子駅前１６番１５－８０５号,,24,207,5100241,,,,,,,2022-06-01,1,,,,,アーバンビューティー,0
1541,6210001018948,新規,0,2022-06-01,2022-06-01,株式会社永田コンサルタント,,株式会社,福井県,小浜市,四分一第４８号１８番地,,18,204,9170235,,,,,,,2022-06-01,1,,,,,ナガタコンサルタント,0
1544,6220001024879,新規,0,2022-06-01,2022-06-01,株式会社モモエンタープライズ,,株式会社,石川県,金沢市,大樋町１‐１１・３Ｆ,,17,201,9200818,,,,,,,2022-06-01,1,,,,,モモエンタープライズ,0
1545,6230001019382,新規,0,2022-06-01,2022-06-01,株式会社ＭＡＶカンパニー,,株式会社,富山県,富山市,桜町２丁目６番１８号祐象ビル,,16,201,9300003,,,,,,,2022-06-01,1,,,,,エムエーヴィカンパニー,0
1547,6240001059832,新規,0,2022-06-01,2022-06-01,株式会社オフィス上馬場,,株式会社,広島県,広島市中区,橋本町９番７号,,34,101,7300015,,,,,,,2022-06-01,1,,,,,オフィスウエババ,0
1557,6260001036870,新規,0,2022-06-01,2022-06-01,株式会社マイクロクォンタム,,株式会社,岡山県,玉野市,大藪１０４５番地,,33,204,7060317,,,,,,,2022-06-01,1,,,,,マイクロクォンタム,0
1558,6260001036895,新規,0,2022-06-01,2022-06-01,株式会社Ｎ’ｓ　ＧＲＯＵＰ,,株式会社,岡山県,倉敷市,玉島柏島６１９２番地９２,,33,202,7138123,,,,,,,2022-06-01,1,,,,,エヌズグループ,0
1559,6260003003927,新規,0,2022-06-01,2022-06-01,合同会社アキナイ,,合同会社,岡山県,赤磐市,黒本４４６番１,,33,213,7012521,,,,,,,2022-06-01,1,,,,,アキナイ,0
1561,6270001008530,新規,0,2022-06-01,2022-06-01,株式会社因州興業,,株式会社,鳥取県,鳥取市,田島８０１番地２,,31,201,6800804,,,,,,,2022-06-01,1,,,,,インシュウコウギョウ,0
1569,6290001097712,新規,0,2022-06-01,2022-06-01,株式会社Ｃ・Ｂ・Ｆコーポレーション,,株式会社,福岡県,福岡市博多区,諸岡３丁目２６番３９号,,40,132,8120894,,,,,,,2022-06-01,1,,,,,シービーエフコーポレーション,0
1578,6330001029776,新規,0,2022-06-01,2022-06-01,株式会社シムファイブス,,株式会社,熊本県,熊本市東区,戸島町２８７４番地,,43,102,8618031,,,,,,,2022-06-01,1,,,,,シムファイブス,0
1579,6340003003811,新規,0,2022-06-01,2022-06-01,合同会社保険プラザ,,合同会社,鹿児島県,枕崎市,宮前町１４番地,,46,204,8980033,,,,,,,2022-06-01,1,,,,,ホケンプラザ,0
1584,6360001030483,新規,0,2022-06-01,2022-06-01,株式会社パナリ,,株式会社,沖縄県,石垣市,字大川２８８番地,,47,207,9070022,,,,,,,2022-06-01,1,,,,,パナリ,0
1594,6430001086758,新規,0,2022-06-01,2022-06-01,株式会社マゼラニック,,株式会社,北海道,苫小牧市,柏木町６丁目５番８号,,01,213,0530823,,,,,,,2022-06-01,1,,,,,マゼラニック,0
1599,6470001019103,新規,0,2022-06-01,2022-06-01,株式会社かしわサクマ商会,,株式会社,香川県,高松市,藤塚町１丁目２番５号,,37,201,7600071,,,,,,,2022-06-01,1,,,,,カシワサクマショウカイ,0
1603,6700150108525,新規,0,2022-06-01,2022-05-06,Ｗｏｒｌｄ　Ｊａｚｚ　Ｍｕｓｅｕｍ２１,,その他,群馬県,北群馬郡榛東村,大字上野原２,,10,344,3703505,,,,,,,2022-05-06,1,,,,,ワールドジヤズミユージアムニジユウイチ,0
1604,6700150108871,新規,0,2022-06-01,2022-05-19,八峯企画,,その他,東京都,小平市,美園町２丁目８－１０－１０７,,13,211,1870041,,,,,,,2022-05-19,1,,,,,ヤツミネキカク,0
1605,6700150109176,新規,0,2022-06-01,2022-06-01,ＲＩＳＩＮＧＷＩＮＧＳ，Ｉｎｃ．,,外国会社等,,,,,,,,７，Ｙｅｏｎｇｄｏｎｇ－ｄａｅｒｏ　８２－ｇｉｌ，Ｇａｎｇｎａｍ－ｇｕ，ｓｅｏｕｌ,,,,,,2022-06-01,1,,,,,ライジングウイングスインク,0
1610,7010001227007,新規,0,2022-06-01,2022-06-01,ＲＩＳＥ　ＳＰＡＣＥ株式会社,,株式会社,東京都,千代田区,神田相生町１番地秋葉原センタープレイスビル１１階,,13,101,1010029,,,,,,,2022-06-01,1,,,,,ライズスペース,0
1614,7010003037775,新規,0,2022-06-01,2022-06-01,合同会社ＶＩＮＯ,,合同会社,東京都,中央区,銀座１丁目２２－１１銀座大竹ビジデンス２階,,13,102,1040061,,,,,,,2022-06-01,1,,,,,ヴィーノ,0
1615,7010003037791,新規,0,2022-06-01,2022-06-01,ＪａｒｄｉｎＧｉａｒｄｉｎｏ１９２０ｒｅｓｐｅｃｔ合同会社,,合同会社,東京都,中央区,佃１丁目１１番６－３２０１号,,13,102,1040051,,,,,,,2022-06-01,1,,,,,ジャルダンジャルディーノイチキュウニイゼロリスペクト,0
1617,7010101015195,新規,0,2022-06-01,2022-06-01,船田内装株式会社,,株式会社,東京都,八王子市,長房町１７４番地１２,,13,201,1930824,,,,,,,2022-06-01,1,,,,,フナダナイソウ,0
1618,7010103001929,新規,0,2022-06-01,2022-06-01,合同会社ｓｔｙ,,合同会社,東京都,八王子市,片倉町３３－５,,13,201,1920914,,,,,,,2022-06-01,1,,,,,エスティーワイ,0
1622,7010401167629,新規,0,2022-06-01,2022-06-01,ＩＮＧグループ株式会社,,株式会社,東京都,港区,新橋６丁目９番４号,,13,103,1050004,,,,,,,2022-06-01,1,,,,,インググループ,0
1623,7010401167637,新規,0,2022-06-01,2022-06-01,株式会社Ｌｕｎａｐｌｕｓ,,株式会社,東京都,港区,赤坂２丁目１４番１１号天翔赤坂ビル４０９号室,,13,103,1070052,,,,,,,2022-06-01,1,,,,,ルナプラス,0
1624,7010401167678,新規,0,2022-06-01,2022-06-01,株式会社ライフメイト動物救急センター,,株式会社,東京都,港区,南青山１丁目１番１号,,13,103,1070062,,,,,,,2022-06-01,1,,,,,ライフメイトドウブツキュウキュウセンター,0
1630,7010403027780,新規,0,2022-06-01,2022-06-01,合同会社ＳＴＯＮＥＳ　Ｃｏｎｓｕｌｔｉｎｇ,,合同会社,東京都,港区,南青山２丁目２番１５号,,13,103,1070062,,,,,,,2022-06-01,1,,,,,ストーンズコンサルティング,0
1631,7010405021022,新規,0,2022-06-01,2022-06-01,ナパホールディング２一般社団法人,,その他の設立登記法人,東京都,港区,虎ノ門３丁目２２番１０－２０１号,,13,103,1050001,,,,,,,2022-06-01,1,,,,,ナパホールディングツー,0
1632,7010405021030,新規,0,2022-06-01,2022-06-01,ＥＳＲ３２特定目的会社,,その他の設立登記法人,東京都,港区,浜松町１丁目２０番１０号ライオネス浜松町５０６号室,,13,103,1050013,,,,,,,2022-06-01,1,,,,,イーエスアールサンジュウニ,0
1634,7010503006602,新規,0,2022-06-01,2022-06-01,合同会社Ｆａｓｃｉｎａｔｅ,,合同会社,東京都,台東区,柳橋１丁目８－１ワンルーフレジデンス３０２,,13,106,1110052,,,,,,,2022-06-01,1,,,,,ファシネイト,0
1639,7010703006261,新規,0,2022-06-01,2022-06-01,合同会社ｎａｂｌａ,,合同会社,東京都,品川区,小山３丁目２２番３－６０３号,,13,109,1420062,,,,,,,2022-06-01,1,,,,,ナブラ,0
1644,7010901050945,新規,0,2022-06-01,2022-06-01,Ａｖｅｓ株式会社,,株式会社,東京都,世田谷区,弦巻５丁目３６番７－６０２号,,13,112,1540016,,,,,,,2022-06-01,1,,,,,アヴェス,0
1645,7010901050961,新規,0,2022-06-01,2022-06-01,ａｌｔｙ株式会社,,株式会社,東京都,世田谷区,太子堂２丁目１７番地５号佐藤ビル３階,,13,112,1540004,,,,,,,2022-06-01,1,,,,,オルティ,0
1647,7010903007407,新規,0,2022-06-01,2022-06-01,合同会社大西モータース,,合同会社,東京都,世田谷区,経堂４丁目３０番２－３０１号,,13,112,1560052,,,,,,,2022-06-01,1,,,,,オオニシモータース,0
1650,7011001147847,新規,0,2022-06-01,2022-06-01,株式会社ＬＢＡ,,株式会社,東京都,渋谷区,広尾５丁目２３番５号長谷部第１ビル１階,,13,113,1500012,,,,,,,2022-06-01,1,,,,,エルビーエー,0
1656,7011101099014,新規,0,2022-06-01,2022-06-01,ＧＬラボ株式会社,,株式会社,東京都,新宿区,百人町３丁目２８番５号,,13,104,1690073,,,,,,,2022-06-01,1,,,,,ジーエルラボ,0
1657,7011101099022,新規,0,2022-06-01,2022-06-01,株式会社とらいろ,,株式会社,東京都,新宿区,西新宿８丁目１１番１０号星野ビル３Ｆ－３２８,,13,104,1600023,,,,,,,2022-06-01,1,,,,,トライロ,0
1661,7011603003613,新規,0,2022-06-01,2022-06-01,ＣＡＮＯＮ　ＲＥＣＯＲＤＩＮＧＳ合同会社,,合同会社,東京都,練馬区,練馬２丁目１０番１０号,,13,120,1760001,,,,,,,2022-06-01,1,,,,,カノンレコーディングス,0
1662,7011701025344,新規,0,2022-06-01,2022-06-01,株式会社ｃｏｍｐ‐ｂｏｘ,,株式会社,東京都,江戸川区,松江３丁目１６番６号,,13,123,1320025,,,,,,,2022-06-01,1,,,,,コンプボックス,0
1666,7012303001683,新規,0,2022-06-01,2022-06-01,ホルマク合同会社,,合同会社,東京都,町田市,高ヶ坂７丁目３５番１号,,13,209,1940014,,,,,,,2022-06-01,1,,,,,ホルマク,0
1678,7013301049178,新規,0,2022-06-01,2022-06-01,Ｂｒｉｌｌｅ　ｃｏｍｍｅ　ｔｏｉ株式会社,,株式会社,東京都,豊島区,目白５丁目８番１１号,,13,116,1710031,,,,,,,2022-06-01,1,,,,,ヴィリコムトア,0
1680,7020001146692,新規,0,2022-06-01,2022-06-01,株式会社Ｒ’ｓ,,株式会社,神奈川県,横浜市鶴見区,駒岡３丁目２６番２２－２,,14,101,2300071,,,,,,,2022-06-01,1,,,,,アールズ,0
1683,7021001076054,新規,0,2022-06-01,2022-06-01,株式会社ＫＲＦサポート,,株式会社,神奈川県,愛甲郡愛川町,中津４７６７番地の１３,,14,401,2430303,,,,,,,2022-06-01,1,,,,,ケイアールエフサポート,0
1689,7030001148399,新規,0,2022-06-01,2022-06-01,株式会社リフィックス,,株式会社,埼玉県,戸田市,大字上戸田５番地の１－４１２号室,,11,224,3350022,,,,,,,2022-06-01,1,,,,,リフィックス,0
1690,7030001148416,新規,0,2022-06-01,2022-06-01,ヴィクトリーパートナーズ株式会社,,株式会社,埼玉県,草加市,金明町１０５８番地１－２０５,,11,221,3400052,,,,,,,2022-06-01,1,,,,,ヴィクトリーパートナーズ,0
1691,7030001148440,新規,0,2022-06-01,2022-06-01,株式会社ＲｅｄｅＬＬ,,株式会社,埼玉県,さいたま市大宮区,上小町１００４番地４,,11,103,3300855,,,,,,,2022-06-01,1,,,,,リデル,0
1692,7030001148457,新規,0,2022-06-01,2022-06-01,ＭＯＢＩ　ＬＩＮＥ株式会社,,株式会社,埼玉県,川口市,戸塚南５丁目２３番２４号,,11,203,3330817,,,,,,,2022-06-01,1,,,,,モビライン,0
1695,7030003019499,新規,0,2022-06-01,2022-06-01,合同会社ライオンズファーム,,合同会社,埼玉県,ふじみ野市,亀久保１２３９番地６９,,11,245,3560051,,,,,,,2022-06-01,1,,,,,ライオンズファーム,0
1704,7050001051130,新規,0,2022-06-01,2022-06-01,株式会社ツナガルワーク,,株式会社,茨城県,古河市,仁連１９１０番地１２３,,08,204,3060125,,,,,,,2022-06-01,1,,,,,ツナガルワーク,0
1705,7050001051139,新規,0,2022-06-01,2022-06-01,株式会社Ｏｎｏ　Ｇｌｏｂａｌ,,株式会社,茨城県,坂東市,菅谷１１７１番地６,,08,228,3060505,,,,,,,2022-06-01,1,,,,,オノグローバル,0
1706,7050001051147,新規,0,2022-06-01,2022-06-01,水戸田島農園株式会社,,株式会社,茨城県,水戸市,堀町１１０４番地の２２,,08,201,3100903,,,,,,,2022-06-01,1,,,,,ミトタジマノウエン,0
1707,7050003006586,新規,0,2022-06-01,2022-06-01,合同会社直企画,,合同会社,茨城県,取手市,本郷４丁目９番１７号ヴィクトワール１０３号,,08,217,3020022,,,,,,,2022-06-01,1,,,,,ナオキカク,0
1712,7070001039280,新規,0,2022-06-01,2022-06-01,株式会社Ｎ＆Ｔフーズ,,株式会社,群馬県,伊勢崎市,新栄町４０６６番地２０,,10,204,3720038,,,,,,,2022-06-01,1,,,,,エヌアンドティーフーズ,0
1713,7070003004497,新規,0,2022-06-01,2022-06-01,合同会社明日架ホームケアあすか,,合同会社,群馬県,吾妻郡長野原町,大字古森２７９番地６５,,10,424,3771306,,,,,,,2022-06-01,1,,,,,アスカホームケアアスカ,0
1723,7090005007496,新規,0,2022-06-01,2022-06-01,ＮＰＯ法人身延の集い,,その他の設立登記法人,山梨県,南巨摩郡身延町,身延３６５９番地,,19,365,4092524,,,,,,,2022-06-01,1,,,,,ミノブノツドイ,0
1728,7110001036686,新規,0,2022-06-01,2022-06-01,ヘウリスコー株式会社,,株式会社,新潟県,新潟市中央区,天神１丁目１番地プラーカ３,,15,103,9500917,,,,,,,2022-06-01,1,,,,,ヘウリスコー,0
1746,7120001246177,新規,0,2022-06-01,2022-06-01,株式会社シティ・ケア,,株式会社,大阪府,大阪市中央区,高津１丁目１０番１５号,,27,128,5420072,,,,,,,2022-06-01,1,,,,,シティドットケア,0
1747,7120001246219,新規,0,2022-06-01,2022-06-01,株式会社ＳＡＩ,,株式会社,大阪府,大阪市北区,西天満３丁目１１番３号老松小路Ｄ,,27,127,5300047,,,,,,,2022-06-01,1,,,,,サイ,0
1748,7120001246243,新規,0,2022-06-01,2022-06-01,株式会社メディカルアソシエーション,,株式会社,大阪府,守口市,寺内町１丁目１２番８号,,27,209,5700056,,,,,,,2022-06-01,1,,,,,メディカルアソシエーション,0
1749,7120001246251,新規,0,2022-06-01,2022-06-01,株式会社ＫＳホールディングス,,株式会社,大阪府,大阪市西区,北堀江１丁目２０番１５号長堀佐野ビル,,27,106,5500014,,,,,,,2022-06-01,1,,,,,ケーエスホールディングス,0
1750,7120001246284,新規,0,2022-06-01,2022-06-01,株式会社ディアデム,,株式会社,大阪府,大阪市都島区,東野田町３丁目８番２号,,27,102,5340024,,,,,,,2022-06-01,1,,,,,ディアデム,0
1756,7120101065650,新規,0,2022-06-01,2022-06-01,ＩＮＡＢＡ　ＴＲＡＤＩＮＧ株式会社,,株式会社,大阪府,岸和田市,稲葉町２３１２番地,,27,202,5960103,,,,,,,2022-06-01,1,,,,,イナバトレーディング,0
1758,7120103004714,新規,0,2022-06-01,2022-06-01,合同会社ＭＯＭＯ,,合同会社,大阪府,河内長野市,汐の宮町６番４３号,,27,216,5860011,,,,,,,2022-06-01,1,,,,,モモ,0
1759,7120103004722,新規,0,2022-06-01,2022-06-01,合同会社Ｔ‐ＡＣＥ,,合同会社,大阪府,堺市北区,金岡町２２１１番地,,27,146,5918022,,,,,,,2022-06-01,1,,,,,ティーエース,0
1761,7120901046024,新規,0,2022-06-01,2022-06-01,株式会社愛和建設,,株式会社,大阪府,高槻市,芝生町４丁目５９番１３号,,27,207,5690823,,,,,,,2022-06-01,1,,,,,アイワケンセツ,0
1762,7122001035907,新規,0,2022-06-01,2022-06-01,株式会社スポーツウイングス,,株式会社,大阪府,東大阪市,西堤１丁目７－２１,,27,227,5770042,,,,,,,2022-06-01,1,,,,,スポーツウイングス,0
1766,7130003007956,新規,0,2022-06-01,2022-06-01,合同会社トリエグル,,合同会社,京都府,京都市山科区,大宅桟敷２番地１００,,26,110,6078194,,,,,,,2022-06-01,1,,,,,トリエグル,0
1771,7140001126146,新規,0,2022-06-01,2022-06-01,株式会社おさだ,,株式会社,兵庫県,神戸市北区,若葉台４丁目８番１１号,,28,109,6511143,,,,,,,2022-06-01,1,,,,,オサダ,0
1772,7140001126179,新規,0,2022-06-01,2022-06-01,ＸＧＩＭＩ創新株式会社,,株式会社,兵庫県,神戸市中央区,雲井通３丁目２番３号,,28,110,6510096,,,,,,,2022-06-01,1,,,,,,0
1773,7140001126195,新規,0,2022-06-01,2022-06-01,株式会社ビューティー,,株式会社,兵庫県,神戸市灘区,記田町４丁目２番２６－２０３号,,28,102,6570034,,,,,,,2022-06-01,1,,,,,ビューティー,0
1776,7150003002682,新規,0,2022-06-01,2022-06-01,ネクストライフ合同会社,,合同会社,奈良県,生駒市,南田原町１０８２番地８４,,29,209,6300135,,,,,,,2022-06-01,1,,,,,ネクストライフ,0
1791,7180001151487,新規,0,2022-06-01,2022-06-01,株式会社ＳＫＹ’Ｓ,,株式会社,愛知県,名古屋市熱田区,千代田町３番２１号宝剱ハイツ３０１,,23,109,4560073,,,,,,,2022-06-01,1,,,,,スカイズ,0
1792,7180001151520,新規,0,2022-06-01,2022-06-01,ｓａｎｔｅｃ　Ｊａｐａｎ株式会社,,株式会社,愛知県,小牧市,大字大草字年上坂５８２３番地,,23,219,4850802,,,,,,,2022-06-01,1,,,,,サンテックジャパン,0
1793,7180001151537,新規,0,2022-06-01,2022-06-01,シャイン・パール株式会社,,株式会社,愛知県,名古屋市名東区,藤見が丘３０,,23,115,4650048,,,,,,,2022-06-01,1,,,,,シャインパール,0
1799,7180003023882,新規,0,2022-06-01,2022-06-01,合同会社ホップロップ,,合同会社,愛知県,名古屋市緑区,太子１丁目２８７番地（たつ美ガーデンコート２０２号）,,23,114,4580823,,,,,,,2022-06-01,1,,,,,ホップロップ,0
1804,7180301036272,新規,0,2022-06-01,2022-06-01,株式会社梅村工業,,株式会社,愛知県,碧南市,作塚町３丁目２２向日葵之絢Ｇｒｅｅｎ２０１,,23,209,4470874,,,,,,,2022-06-01,1,,,,,ウメムラコウギョウ,0
1805,7180301036280,新規,0,2022-06-01,2022-06-01,株式会社なごみの杜,,株式会社,愛知県,岡崎市,東明大寺町１１番地２,,23,202,4440863,,,,,,,2022-06-01,1,,,,,ナゴミノモリ,0
1809,7190003003999,新規,0,2022-06-01,2022-06-01,アクアス合同会社,,合同会社,三重県,津市,船頭町津興１６９５番地２２,,24,201,5140801,,,,,,,2022-06-01,1,,,,,アクアス,0
1813,7220001024878,新規,0,2022-06-01,2022-06-01,インターバル株式会社,,株式会社,石川県,金沢市,大河端西２丁目１４１番地６,,17,201,9200210,,,,,,,2022-06-01,1,,,,,インターバル,0
1827,7260001036894,新規,0,2022-06-01,2022-06-01,株式会社インパクト,,株式会社,岡山県,岡山市北区,御津河内１６５９番地,,33,101,7092123,,,,,,,2022-06-01,1,,,,,インパクト,0
1836,7290001097711,新規,0,2022-06-01,2022-06-01,株式会社ヨシナガ技建,,株式会社,福岡県,古賀市,川原１１３２番地１０１,,40,223,8113132,,,,,,,2022-06-01,1,,,,,ヨシナガギケン,0
1838,7290003012569,新規,0,2022-06-01,2022-06-01,合同会社Ｈａｋｕｓｈａｋｕ,,合同会社,福岡県,福岡市中央区,警固１丁目４番４－４０２号,,40,133,8100023,,,,,,,2022-06-01,1,,,,,ハクシャク,0
1843,7320005009997,新規,0,2022-06-01,2022-06-01,一般社団法人ふうが,,その他の設立登記法人,大分県,別府市,石垣東５丁目２番１１号,,44,202,8740919,,,,,,,2022-06-01,1,,,,,フウガ,0
1844,7330005010525,新規,0,2022-06-01,2022-06-01,一般社団法人百華,,その他の設立登記法人,熊本県,上益城郡益城町,大字上陳５４０番地２,,43,443,8612203,,,,,,,2022-06-01,1,,,,,モモカ,0
1855,7390001016909,新規,0,2022-06-01,2022-06-01,ホシカナ株式会社,,株式会社,山形県,山形市,桜田東１丁目１４－３１,,06,201,9902323,,,,,,,2022-06-01,1,,,,,ホシカナ,0
1870,7430005014482,新規,0,2022-06-01,2022-06-01,一般社団法人シュピール,,その他の設立登記法人,北海道,日高郡新ひだか町,静内神森２５７番地の１１－６号,,01,610,0560002,,,,,,,2022-06-01,1,,,,,シュピール,0
1871,7440003001465,新規,0,2022-06-01,2022-06-01,合同会社ＴＯＫＩ,,合同会社,北海道,函館市,昭和２丁目３６番１８号,,01,202,0410812,,,,,,,2022-06-01,1,,,,,トキ,0
1873,7470001019102,新規,0,2022-06-01,2022-06-01,株式会社エイチ・ワイ・ケー,,株式会社,香川県,高松市,国分寺町福家甲２４６６番地３０,,37,201,7690103,,,,,,,2022-06-01,1,,,,,エイチワイケー,0
1878,7700150108838,新規,0,2022-06-01,2022-05-18,山岳医療パトロール実行委員会,,その他,山梨県,北杜市,明野町上手１２６９５番地２０,,19,209,4080204,,,,,,,2022-05-18,1,,,,,サンガクイリヨウパトロールジツコウイインカイ,0
1879,8010001226957,新規,0,2022-06-01,2022-06-01,株式会社アースサプライズ,,株式会社,東京都,千代田区,神田三崎町３丁目３番３号３０２,,13,101,1010061,,,,,,,2022-06-01,1,,,,,アースサプライズ,0
1880,8010001227022,新規,0,2022-06-01,2022-06-01,メディカルメディエーション株式会社,,株式会社,東京都,中央区,銀座８丁目８番１号,,13,102,1040061,,,,,,,2022-06-01,1,,,,,メディカルメディエーション,0
1883,8010003037766,新規,0,2022-06-01,2022-06-01,合同会社寺西,,合同会社,東京都,中央区,勝どき６丁目３番１号,,13,102,1040054,,,,,,,2022-06-01,1,,,,,テラニシ,0
1884,8010003037782,新規,0,2022-06-01,2022-06-01,合同会社さとやまエステート,,合同会社,東京都,中央区,八丁堀４丁目２番１０号ＡＯＪ税理士法人内,,13,102,1040032,,,,,,,2022-06-01,1,,,,,サトヤマエステート,0
1887,8010401167537,新規,0,2022-06-01,2022-06-01,サクラバース株式会社,,株式会社,東京都,港区,六本木６丁目１０番１号,,13,103,1060032,,,,,,,2022-06-01,1,,,,,サクラバース,0
1888,8010401167578,新規,0,2022-06-01,2022-06-01,株式会社イリグチ,,株式会社,東京都,港区,三田５丁目１６－１４,,13,103,1080073,,,,,,,2022-06-01,1,,,,,イリグチ,0
1889,8010401167644,新規,0,2022-06-01,2022-06-01,株式会社ＫＳＢホールディングス,,株式会社,東京都,港区,芝３丁目１番１５号,,13,103,1050014,,,,,,,2022-06-01,1,,,,,ケーエスビーホールディングス,0
1890,8010403027689,新規,0,2022-06-01,2022-06-01,ジャパンインフラ２３号合同会社,,合同会社,東京都,港区,元赤坂１丁目１番７号,,13,103,1070051,,,,,,,2022-06-01,1,,,,,ジャパンインフラニジュウサンゴウ,0
1891,8010403027755,新規,0,2022-06-01,2022-06-01,Ｙラボ・ジャパン合同会社,,合同会社,東京都,港区,南青山２丁目２番１５号,,13,103,1070062,,,,,,,2022-06-01,1,,,,,ワイラボジャパン,0
1892,8010403027788,新規,0,2022-06-01,2022-06-01,合同会社ネクスト,,合同会社,東京都,港区,浜松町２丁目２番１５号浜松町ダイヤビル２階,,13,103,1050013,,,,,,,2022-06-01,1,,,,,ネクスト,0
1894,8010405021021,新規,0,2022-06-01,2022-06-01,ナパホールディング１一般社団法人,,その他の設立登記法人,東京都,港区,虎ノ門３丁目２２番１０－２０１号,,13,103,1050001,,,,,,,2022-06-01,1,,,,,ナパホールディングワン,0
1908,8010901050944,新規,0,2022-06-01,2022-06-01,株式会社Ａ,,株式会社,東京都,世田谷区,弦巻１丁目２２番２４号シゴーニュＣ－２,,13,112,1540016,,,,,,,2022-06-01,1,,,,,エー,0
1912,8011001147846,新規,0,2022-06-01,2022-06-01,株式会社Ｈａｎｄｙｍａｎ,,株式会社,東京都,渋谷区,広尾５丁目２３番５号長谷部第１ビル１階,,13,113,1500012,,,,,,,2022-06-01,1,,,,,ハンディーマン,0
1913,8011001147870,新規,0,2022-06-01,2022-06-01,株式会社Ｓ‐Ｒ,,株式会社,東京都,渋谷区,渋谷３丁目１９番１号,,13,113,1500002,,,,,,,2022-06-01,1,,,,,セブンアール,0
1920,8011101099054,新規,0,2022-06-01,2022-06-01,株式会社Ｍｉｎｄ　Ｐｌａｎｅｔ,,株式会社,東京都,新宿区,西新宿３丁目３番１３号西新宿水間ビル６階,,13,104,1600023,,,,,,,2022-06-01,1,,,,,マインドプラネット,0
1923,8011303004423,新規,0,2022-06-01,2022-06-01,合同会社ベース,,合同会社,東京都,杉並区,高井戸西１丁目５番４８号,,13,115,1680071,,,,,,,2022-06-01,1,,,,,ベース,0
1927,8011601025996,新規,0,2022-06-01,2022-06-01,株式会社山喜,,株式会社,東京都,練馬区,豊玉北４丁目１１番６号,,13,120,1760012,,,,,,,2022-06-01,1,,,,,ヤマキ,0
1929,8011701025343,新規,0,2022-06-01,2022-06-01,株式会社フィールドクロス,,株式会社,東京都,江戸川区,春江町２丁目３４番９号,,13,123,1320003,,,,,,,2022-06-01,1,,,,,フィールドクロス,0
1936,8012401039253,新規,0,2022-06-01,2022-06-01,株式会社たまごワークス,,株式会社,東京都,武蔵野市,境南町４丁目３番８号,,13,203,1800023,,,,,,,2022-06-01,1,,,,,タマゴワークス,0
1941,8020001146683,新規,0,2022-06-01,2022-06-01,株式会社キマンソン,,株式会社,神奈川県,横浜市中区,太田町６丁目７９－２０２,,14,104,2310011,,,,,,,2022-06-01,1,,,,,キマンソン,0
1948,8021003011768,新規,0,2022-06-01,2022-06-01,ハーモニー合同会社,,合同会社,神奈川県,鎌倉市,大船３丁目６番２号,,14,204,2470056,,,,,,,2022-06-01,1,,,,,ハーモニー,0
1949,8021005012533,新規,0,2022-06-01,2022-06-01,一般社団法人日本ウインドサーフィン協会,,その他の設立登記法人,神奈川県,三浦郡葉山町,堀内１１７３番地の３,,14,301,2400112,,,,,,,2022-06-01,1,,,,,ニホンウインドサーフィンキョウカイ,0
1956,8030001148431,新規,0,2022-06-01,2022-06-01,リアン株式会社,,株式会社,埼玉県,さいたま市緑区,美園５丁目１１番地５,,11,109,3360967,,,,,,,2022-06-01,1,,,,,リアン,0
1957,8030001148448,新規,0,2022-06-01,2022-06-01,株式会社リング,,株式会社,埼玉県,春日部市,中央５丁目１０番地１,,11,214,3440067,,,,,,,2022-06-01,1,,,,,リング,0
1961,8030003019440,新規,0,2022-06-01,2022-06-01,Ｆｏｒｔｉｔｕｄｅ合同会社,,合同会社,埼玉県,越谷市,レイクタウン６丁目３５―５６,,11,222,3430828,,,,,,,2022-06-01,1,,,,,フォーティチュード,0
1962,8030003019507,新規,0,2022-06-01,2022-06-01,アクロスエリア合同会社,,合同会社,埼玉県,川口市,大字安行１０７番地の７,,11,203,3340059,,,,,,,2022-06-01,1,,,,,アクロスエリア,0
1969,8040001123656,新規,0,2022-06-01,2022-06-01,株式会社三秀,,株式会社,千葉県,千葉市花見川区,さつきが丘１丁目２９－５－４０３,,12,102,2620014,,,,,,,2022-06-01,1,,,,,サンシュウ,0
1977,8060003004092,新規,0,2022-06-01,2022-06-01,ＫＡＮＴ　ＴＲＡＤＩＮＧ合同会社,,合同会社,栃木県,小山市,駅南町４丁目２５番１号ハイグレード望光１０３,,09,208,3230822,,,,,,,2022-06-01,1,,,,,カントトレーディング,0
1978,8070001039271,新規,0,2022-06-01,2022-06-01,株式会社のびしろ,,株式会社,群馬県,太田市,市場町６９６番地７,,10,205,3730013,,,,,,,2022-06-01,1,,,,,ノビシロ,0
1984,8080401025829,新規,0,2022-06-01,2022-06-01,株式会社イルム,,株式会社,静岡県,浜松市浜北区,西美薗２０８２番地の１１,,22,136,4340033,,,,,,,2022-06-01,1,,,,,イルム,0
1985,8080401025837,新規,0,2022-06-01,2022-06-01,株式会社遠州急便,,株式会社,静岡県,浜松市中区,佐鳴台１丁目８番３５号,,22,131,4328021,,,,,,,2022-06-01,1,,,,,エンシュウキュウビン,0
1998,8120001246250,新規,0,2022-06-01,2022-06-01,株式会社ＡＩ,,株式会社,大阪府,大阪市都島区,内代町１丁目１３番９号,,27,102,5340013,,,,,,,2022-06-01,1,,,,,エーアイ,0
1999,8120001246283,新規,0,2022-06-01,2022-06-01,株式会社ＮＲ,,株式会社,大阪府,大阪市旭区,赤川２丁目１番２６－４０６号,,27,117,5350005,,,,,,,2022-06-01,1,,,,,エヌアール,0
2000,8120001246291,新規,0,2022-06-01,2022-06-01,株式会社ＳＯＬＥＩＬ,,株式会社,大阪府,大阪市福島区,福島１丁目２番１２号,,27,103,5530003,,,,,,,2022-06-01,1,,,,,ソレイユ,0
2001,8120001246300,新規,0,2022-06-01,2022-06-01,小松株式会社,,株式会社,大阪府,大阪市港区,弁天４丁目７番２号,,27,107,5520007,,,,,,,2022-06-01,1,,,,,コマツ,0
2005,8120003021791,新規,0,2022-06-01,2022-06-01,合同会社ＺＯＳＳ,,合同会社,大阪府,大阪市中央区,上町Ａ番１０号,,27,128,5400005,,,,,,,2022-06-01,1,,,,,ゾス,0
2006,8120003021800,新規,0,2022-06-01,2022-06-01,合同会社ＴＥＡＭＯＮＥ,,合同会社,大阪府,大阪市中央区,高津２丁目１番８号高津フェスタビル１０２号,,27,128,5420072,,,,,,,2022-06-01,1,,,,,チームワン,0
2009,8120103004721,新規,0,2022-06-01,2022-06-01,合同会社Ｓｕｎｒｉｓｅ,,合同会社,大阪府,高石市,千代田４丁目８－３１,,27,225,5920005,,,,,,,2022-06-01,1,,,,,サンライズ,0
2010,8120901046023,新規,0,2022-06-01,2022-06-01,株式会社ＫＩＮＯＣＯ,,株式会社,大阪府,箕面市,如意谷１丁目２番３号,,27,220,5620011,,,,,,,2022-06-01,1,,,,,キノコ,0
2014,8130001071879,新規,0,2022-06-01,2022-06-01,株式会社ＢＲＯＷＮ,,株式会社,京都府,京都市伏見区,羽束師志水町１００番地ウチカイト１０１号室,,26,109,6128485,,,,,,,2022-06-01,1,,,,,ブラウン,0
2017,8130005016491,新規,0,2022-06-01,2022-06-01,一般社団法人Ｓｍｉｌｅ　Ｐｒｏｊｅｃｔ,,その他の設立登記法人,京都府,宇治市,広野町西裏８７番地ＴｈｅＧａｒｄｅｎＣｏｍｍｕｎｅ、Ｃ棟３階,,26,204,6110031,,,,,,,2022-06-01,1,,,,,スマイルプロジェクト,0
2019,8140001126194,新規,0,2022-06-01,2022-06-01,株式会社マーキュリー,,株式会社,兵庫県,明石市,大久保町大久保町９０６番地の１アリスティオ１０６号,,28,203,6740067,,,,,,,2022-06-01,1,,,,,マーキュリー,0
2023,8140003017739,新規,0,2022-06-01,2022-06-01,合同会社リタコーポ,,合同会社,兵庫県,神戸市灘区,岩屋中町４丁目４番７号,,28,102,6570845,,,,,,,2022-06-01,1,,,,,リタコーポ,0
2024,8140003017747,新規,0,2022-06-01,2022-06-01,合同会社ジェネシス,,合同会社,兵庫県,神戸市中央区,御幸通４丁目２番２４号ベルトゥリー御幸通６０１号,,28,110,6510087,,,,,,,2022-06-01,1,,,,,ジェネシス,0
2028,8150003002698,新規,0,2022-06-01,2022-06-01,合同会社大悟,,合同会社,奈良県,奈良市,中登美ヶ丘６丁目９番１－９２１号,,29,201,6310003,,,,,,,2022-06-01,1,,,,,ダイゴ,0
2036,8180001151453,新規,0,2022-06-01,2022-06-01,株式会社Ｓｅｉ２,,株式会社,愛知県,名古屋市東区,泉２丁目１８番１１号（シティハウス高岳１００６号）,,23,102,4610001,,,,,,,2022-06-01,1,,,,,セイツー,0
2037,8180001151486,新規,0,2022-06-01,2022-06-01,ドリームカラーペイント株式会社,,株式会社,愛知県,名古屋市西区,砂原町４１６番地（パークタウン砂原３０５号）,,23,104,4520811,,,,,,,2022-06-01,1,,,,,ドリームカラーペイント,0
2038,8180001151511,新規,0,2022-06-01,2022-06-01,大和管理サービス株式会社,,株式会社,愛知県,名古屋市中区,金山２丁目１１番１４号,,23,106,4600022,,,,,,,2022-06-01,1,,,,,ダイワカンリサービス,0
2041,8180301036263,新規,0,2022-06-01,2022-06-01,株式会社マカレル,,株式会社,愛知県,豊田市,朝日町２丁目２６番地１,,23,211,4710031,,,,,,,2022-06-01,1,,,,,マカレル,0
2042,8180301036271,新規,0,2022-06-01,2022-06-01,資産形成の窓口グループ株式会社,,株式会社,愛知県,新城市,市場台３丁目６番地３,,23,221,4411348,,,,,,,2022-06-01,1,,,,,シサンケイセイノマドグチグループ,0
2043,8190001029459,新規,0,2022-06-01,2022-06-01,株式会社Ｆｌａｎ,,株式会社,三重県,津市,丸之内３４番２１号,,24,201,5140033,,,,,,,2022-06-01,1,,,,,フラン,0
2050,8220001024877,新規,0,2022-06-01,2022-06-01,株式会社エムサイン,,株式会社,石川県,能美市,湯谷町ホ１０５番地,,17,211,9231104,,,,,,,2022-06-01,1,,,,,エムサイン,0
2064,8270001008537,新規,0,2022-06-01,2022-06-01,株式会社東部保険サービス,,株式会社,鳥取県,岩美郡岩美町,大字浦富２４９８番地,,31,302,6810003,,,,,,,2022-06-01,1,,,,,トウブホケンサービス,0
2069,8290001097710,新規,0,2022-06-01,2022-06-01,株式会社萬福工業,,株式会社,福岡県,福岡市中央区,今泉２丁目１番３２－３０５号,,40,133,8100021,,,,,,,2022-06-01,1,,,,,ヨロズコウギョウ,0
2070,8290801028575,新規,0,2022-06-01,2022-06-01,株式会社Ｙｏｓｈｉｄａ　Ｇｒｏｕｐ,,株式会社,福岡県,北九州市小倉北区,霧ケ丘３丁目７－２１ＤＡＺＺＬＥ霧ヶ丘９０１,,40,106,8020052,,,,,,,2022-06-01,1,,,,,ヨシダグループ,0
2080,8360001030473,新規,0,2022-06-01,2022-06-01,株式会社アイデアル,,株式会社,沖縄県,宜野湾市,嘉数１丁目３番８号,,47,205,9012226,,,,,,,2022-06-01,1,,,,,アイデアル,0
2085,8380001032856,新規,0,2022-06-01,2022-06-01,株式会社Ｇｅｎｓｈｉｆｔ,,株式会社,福島県,伊達郡川俣町,字寺前１０番地の９,,07,308,9601462,,,,,,,2022-06-01,1,,,,,ジェンシフト,0
2107,8470001019101,新規,0,2022-06-01,2022-06-01,中龍株式会社,,株式会社,香川県,高松市,新北町２１番２９号,,37,201,7600001,,,,,,,2022-06-01,1,,,,,ナカリュウ,0
2116,8700150106634,新規,0,2022-06-01,2022-01-14,伊沢勉の会,,その他,愛知県,名古屋市千種区,清明山１丁目５－１清明山住宅３０５,,23,101,4640087,,,,,,,2022-01-14,1,,,,,イザワベンノカイ,0
2117,8700150108861,新規,0,2022-06-01,2022-05-19,仙川映団,,その他,東京都,三鷹市,中原１丁目２８－２３－４０２　菊地雄一様方,,13,204,1810005,,,,,,,2022-05-19,1,,,,,センガワエイダン,0
2130,9010001226881,新規,0,2022-06-01,2022-06-01,豊亨ソフトウェア株式会社,,株式会社,東京都,中央区,月島３丁目２－７－１４０９,,13,102,1040052,,,,,,,2022-06-01,1,,,,,トホウソフトウェア,0
2140,9010401167643,新規,0,2022-06-01,2022-06-01,ＭＺ　Ｂｅｎｅｆｉｔ　Ｃｏｎｓｕｌｔｉｎｇ株式会社,,株式会社,東京都,港区,港南１丁目９番３６号,,13,103,1080075,,,,,,,2022-06-01,1,,,,,ミズベネフィットコンサルティング,0
2141,9010401167676,新規,0,2022-06-01,2022-06-01,株式会社ＫＲＳ,,株式会社,東京都,港区,港南２丁目１６番２号太陽生命品川ビル２８階,,13,103,1080075,,,,,,,2022-06-01,1,,,,,ケーアールエス,0
2144,9010405021020,新規,0,2022-06-01,2022-06-01,シアトルホールディング２一般社団法人,,その他の設立登記法人,東京都,港区,虎ノ門３丁目２２番１０－２０１号,,13,103,1050001,,,,,,,2022-06-01,1,,,,,シアトルホールディングツー,0
2145,9010405021029,新規,0,2022-06-01,2022-06-01,ＥＳＲ３１特定目的会社,,その他の設立登記法人,東京都,港区,浜松町１丁目２０番１０号ライオネス浜松町５０６号室,,13,103,1050013,,,,,,,2022-06-01,1,,,,,イーエスアールサンジュウイチ,0
2160,9010903007405,新規,0,2022-06-01,2022-06-01,Ｔｅｌｏｓ合同会社,,合同会社,東京都,世田谷区,北沢３丁目１５番２－３０１号,,13,112,1550031,,,,,,,2022-06-01,1,,,,,テロス,0
2163,9011001147845,新規,0,2022-06-01,2022-06-01,株式会社Ｊデリバリー,,株式会社,東京都,渋谷区,広尾５丁目２３番５号長谷部第１ビル１階,,13,113,1500012,,,,,,,2022-06-01,1,,,,,ジェイデリバリー,0
2167,9011101099012,新規,0,2022-06-01,2022-06-01,ＷｉｎＡｌｌ株式会社,,株式会社,東京都,新宿区,新宿１丁目９番４号中公ビル御苑グリーンハイツ６０１,,13,104,1600022,,,,,,,2022-06-01,1,,,,,ウィンオール,0
2168,9011101099020,新規,0,2022-06-01,2022-06-01,ＬｕｃｋｙＴｒｅｅ’ｓ株式会社,,株式会社,東京都,新宿区,西新宿３丁目７番１号新宿パークタワーＮ３０Ｆ,,13,104,1600023,,,,,,,2022-06-01,1,,,,,ラッキーツリーズ,0
2169,9011101099053,新規,0,2022-06-01,2022-06-01,副業ステーション株式会社,,株式会社,東京都,新宿区,西新宿６丁目１０－１日土地西新宿ビル８階,,13,104,1600023,,,,,,,2022-06-01,1,,,,,フクギョウステーション,0
2173,9011103011800,新規,0,2022-06-01,2022-06-01,合同会社Ｋメガネ,,合同会社,東京都,新宿区,新宿５丁目６番２号神谷ビル４０２,,13,104,1600022,,,,,,,2022-06-01,1,,,,,ケイメガネ,0
2186,9011801040695,新規,0,2022-06-01,2022-06-01,株式会社ソレイユ,,株式会社,東京都,足立区,梅田３丁目２３番地７号,,13,121,1230851,,,,,,,2022-06-01,1,,,,,ソレイユ,0
2201,9020001146641,新規,0,2022-06-01,2022-06-01,Ｓｈａｄｅ株式会社,,株式会社,神奈川県,横浜市青葉区,荏田北１丁目６－１１メゾンフジ１０５,,14,117,2250015,,,,,,,2022-06-01,1,,,,,シェード,0
2202,9020001146690,新規,0,2022-06-01,2022-06-01,Ａｃｃｅｌ株式会社,,株式会社,神奈川県,横浜市神奈川区,松本町５丁目３６番地１４－１階,,14,102,2210841,,,,,,,2022-06-01,1,,,,,アクセル,0
2203,9020001146716,新規,0,2022-06-01,2022-06-01,株式会社ＫＯＤＡＫＥＮ,,株式会社,神奈川県,横浜市緑区,寺山町２４５番地４,,14,113,2260013,,,,,,,2022-06-01,1,,,,,コダケン,0
2209,9021001076110,新規,0,2022-06-01,2022-06-01,株式会社スピードモータース,,株式会社,神奈川県,綾瀬市,深谷南５丁目１４番９号－２,,14,218,2521106,,,,,,,2022-06-01,1,,,,,スピードモータース,0
2210,9021003011750,新規,0,2022-06-01,2022-06-01,合同会社Ｃｏｓｍｏ‐ＡｃＴ,,合同会社,神奈川県,小田原市,栢山２５５９番地の１Ａ１０２,,14,206,2500852,,,,,,,2022-06-01,1,,,,,コスモアクト,0
2221,9030001148430,新規,0,2022-06-01,2022-06-01,株式会社ＳＯＬ　ＳＭＩＬＥ　ＷＯＲＫＳ,,株式会社,埼玉県,さいたま市緑区,大字大門２５２４番地５,,11,109,3360963,,,,,,,2022-06-01,1,,,,,ソルスマイルワークス,0
2222,9030001148447,新規,0,2022-06-01,2022-06-01,株式会社ライジン,,株式会社,埼玉県,鶴ヶ島市,大字上広谷１７３番地３小野ビル２０５号,,11,241,3502203,,,,,,,2022-06-01,1,,,,,ライジン,0
2223,9030001148455,新規,0,2022-06-01,2022-06-01,株式会社ＳＡＮＤ,,株式会社,埼玉県,さいたま市大宮区,浅間町２丁目４６番地,,11,103,3300842,,,,,,,2022-06-01,1,,,,,サンド,0
2226,9030003019514,新規,0,2022-06-01,2022-06-01,合同会社おやくだち,,合同会社,埼玉県,さいたま市浦和区,常盤１０丁目７番１９－５０２号,,11,107,3300061,,,,,,,2022-06-01,1,,,,,オヤクダチ,0
2228,9040001123589,新規,0,2022-06-01,2022-06-01,株式会社泰桜,,株式会社,千葉県,東金市,山田９９７番地１,,12,213,2830823,,,,,,,2022-06-01,1,,,,,タイオウ,0
2229,9040001123622,新規,0,2022-06-01,2022-06-01,ＫＩＮＴＯＳＨＩ　ＫＹＯＴＯ株式会社,,株式会社,千葉県,佐倉市,青菅１０２３番地,,12,212,2850852,,,,,,,2022-06-01,1,,,,,キントシキョウト,0
2230,9040001123663,新規,0,2022-06-01,2022-06-01,株式会社ＤＯＫＵＲＩ,,株式会社,千葉県,千葉市中央区,富士見２丁目７番９号富士見ビル６０９号,,12,101,2600015,,,,,,,2022-06-01,1,,,,,ドクリ,0
2233,9040003020116,新規,0,2022-06-01,2022-06-01,合同会社健康ＳＵＮ．ｃｏｍ,,合同会社,千葉県,市川市,南行徳４丁目９番６－４０２号,,12,203,2720138,,,,,,,2022-06-01,1,,,,,ケンコウサンドットコム,0
2238,9070001039270,新規,0,2022-06-01,2022-06-01,株式会社架和産業,,株式会社,群馬県,高崎市,東貝沢町４丁目１２番地６、１Ｆ,,10,202,3700041,,,,,,,2022-06-01,1,,,,,カケワサンギョウ,0
2242,9080001024973,新規,0,2022-06-01,2022-06-01,株式会社ＲｅＢＯＲＮ,,株式会社,静岡県,静岡市清水区,三保１７９６番地の１２,,22,103,4240901,,,,,,,2022-06-01,1,,,,,リボーン,0
2245,9080101023314,新規,0,2022-06-01,2022-06-01,株式会社熱海ウェルスマネジメント,,株式会社,静岡県,熱海市,春日町９番１号１６０６,,22,205,4130005,,,,,,,2022-06-01,1,,,,,アタミウェルスマネジメント,0
2249,9100005012880,新規,0,2022-06-01,2022-06-01,一般社団法人グリーンリーフ,,その他の設立登記法人,長野県,下伊那郡高森町,牛牧５６番地１,,20,403,3993105,,,,,,,2022-06-01,1,,,,,グリーンリーフ,0
2264,9120001246183,新規,0,2022-06-01,2022-06-01,株式会社フラット,,株式会社,大阪府,大阪市福島区,玉川１丁目１番３６号,,27,103,5530004,,,,,,,2022-06-01,1,,,,,フラット,0
2265,9120001246241,新規,0,2022-06-01,2022-06-01,株式会社ｈｌ,,株式会社,大阪府,大阪市西区,北堀江１丁目２３番１１－１００３号,,27,106,5500014,,,,,,,2022-06-01,1,,,,,エイチエル,0
2266,9120001246266,新規,0,2022-06-01,2022-06-01,株式会社ＮＡＲＤＡ,,株式会社,大阪府,大阪市生野区,巽中１丁目１２番２４号,00126706,27,116,5440013,,,,,,,2022-06-01,1,,,,,ナルダ,0
2267,9120001246290,新規,0,2022-06-01,2022-06-01,株式会社ＦＩＶＥ　ＨＩＬＬＳ,,株式会社,大阪府,大阪市中央区,島之内１丁目２１番２３号大起興産長堀橋ビル７階,,27,128,5420082,,,,,,,2022-06-01,1,,,,,ファイブヒルズ,0
2271,9120003021717,新規,0,2022-06-01,2022-06-01,ＳＩＸ合同会社,,合同会社,大阪府,大阪市住之江区,新北島１丁目７番地１４号雄風商事新北島倉庫３階３０１号,,27,125,5590024,,,,,,,2022-06-01,1,,,,,シックス,0
2272,9120003021774,新規,0,2022-06-01,2022-06-01,合同会社Ｄａｉｇａｓ不動産ファンド第１号,,合同会社,大阪府,大阪市中央区,高麗橋４丁目３番７号淀屋橋総合会計内,,27,128,5410043,,,,,,,2022-06-01,1,,,,,ダイガスフドウサンファンドダイイチゴウ,0
2273,9120003021790,新規,0,2022-06-01,2022-06-01,合同会社Ｇ．ａｓｓｉｓｔ,,合同会社,大阪府,大阪市西区,西本町１丁目４番１号,,27,106,5500005,,,,,,,2022-06-01,1,,,,,ジーアシスト,0
2274,9120003021799,新規,0,2022-06-01,2022-06-01,ＴＬＣ合同会社,,合同会社,大阪府,大阪市西区,北堀江２丁目１７番１５号３Ｆ,,27,106,5500014,,,,,,,2022-06-01,1,,,,,ティーエルシー,0
2278,9120101065640,新規,0,2022-06-01,2022-06-01,株式会社えびす建窓,,株式会社,大阪府,貝塚市,脇浜３丁目３２番１３号,,27,208,5970073,,,,,,,2022-06-01,1,,,,,エビスケンソウ,0
2279,9120101065657,新規,0,2022-06-01,2022-06-01,株式会社吾心,,株式会社,大阪府,富田林市,藤沢台７丁目１７番１６号,,27,214,5840071,,,,,,,2022-06-01,1,,,,,ゴシン,0
2280,9120101065665,新規,0,2022-06-01,2022-06-01,株式会社Ａｌｅｇｒｉａ,,株式会社,大阪府,藤井寺市,小山９丁目９番２８－２０２号,,27,226,5830033,,,,,,,2022-06-01,1,,,,,アレグリア,0
2287,9130001071853,新規,0,2022-06-01,2022-06-01,株式会社３３,,株式会社,京都府,京都市下京区,東洞院通綾小路下る扇酒屋町２８５番地１,,26,106,6008095,,,,,,,2022-06-01,1,,,,,サンサン,0
2296,9140001126177,新規,0,2022-06-01,2022-06-01,株式会社ＴＳアシスト,,株式会社,兵庫県,尼崎市,大西町２丁目１番１５－４０５号,,28,202,6610023,,,,,,,2022-06-01,1,,,,,ティーエスアシスト,0
2297,9140001126185,新規,0,2022-06-01,2022-06-01,株式会社ｓｅｒｉｋａｃｌｕｂ,,株式会社,兵庫県,宝塚市,湯本町９番１０－６０５号,,28,214,6650003,,,,,,,2022-06-01,1,,,,,セリカクラブ,0
2298,9140001126193,新規,0,2022-06-01,2022-06-01,株式会社ＰＥＡＣＥ　ＯＮＥ,,株式会社,兵庫県,宝塚市,安倉北１丁目５番２４号,,28,214,6650821,,,,,,,2022-06-01,1,,,,,ピースワン,0
2299,9140003017738,新規,0,2022-06-01,2022-06-01,合同会社聖,,合同会社,兵庫県,姫路市,三左衛門堀西の町８４番地,,28,201,6700940,,,,,,,2022-06-01,1,,,,,ヒジリ,0
2301,9150003002697,新規,0,2022-06-01,2022-06-01,ｃｂａ合同会社,,合同会社,奈良県,橿原市,北妙法寺町３番地の１６,,29,205,6340843,,,,,,,2022-06-01,1,,,,,シービーエー,0
2304,9180001151485,新規,0,2022-06-01,2022-06-01,株式会社ＥＦエンジニアリング,,株式会社,愛知県,名古屋市西区,貴生町２３番地の４,,23,104,4520816,,,,,,,2022-06-01,1,,,,,イーエフエンジニアリング,0
2306,9180003023872,新規,0,2022-06-01,2022-06-01,ＬＢＩＣＳ合同会社,,合同会社,愛知県,名古屋市守山区,東山町１－１６リースリング１０１,,23,113,4630061,,,,,,,2022-06-01,1,,,,,ルビックス,0
2308,9180301036254,新規,0,2022-06-01,2022-06-01,株式会社ＭＹＫ,,株式会社,愛知県,豊橋市,植田町字東畑８番地８,,23,201,4418134,,,,,,,2022-06-01,1,,,,,エムワイケー,0
2309,9180301036270,新規,0,2022-06-01,2022-06-01,タケダサービス株式会社,,株式会社,愛知県,岡崎市,片寄町字梅野６８番地１６,,23,202,4443616,,,,,,,2022-06-01,1,,,,,タケダサービス,0
2312,9200001040108,新規,0,2022-06-01,2022-06-01,ＧｎＲ株式会社,,株式会社,岐阜県,岐阜市,長良雄総２０５番地６,,21,201,5020017,,,,,,,2022-06-01,1,,,,,ジーエヌアール,0
2315,9220001024876,新規,0,2022-06-01,2022-06-01,株式会社ゼットワン,,株式会社,石川県,加賀市,大聖寺地方町１４の９番地１,,17,206,9220861,,,,,,,2022-06-01,1,,,,,ゼットワン,0
2327,9250003003082,新規,0,2022-06-01,2022-06-01,唐戸カワカミフーズ合同会社,,合同会社,山口県,下関市,唐戸町５－５０唐戸市場内,,35,201,7500005,,,,,,,2022-06-01,1,,,,,カラトカワカミフーズ,0
2328,9260001036892,新規,0,2022-06-01,2022-06-01,株式会社ピー・エム・エフ,,株式会社,岡山県,岡山市中区,網浜７９９番地１－１階,,33,102,7038284,,,,,,,2022-06-01,1,,,,,ピーエムエフ,0
2331,9270001008536,新規,0,2022-06-01,2022-06-01,株式会社ローカルマガジン,,株式会社,鳥取県,米子市,法勝寺町７０番地,,31,202,6830063,,,,,,,2022-06-01,1,,,,,ローカルマガジン,0
2334,9290001097627,新規,0,2022-06-01,2022-06-01,侃顎夢想株式会社,,株式会社,福岡県,久留米市,大善寺南１丁目７－２０グランメール１０５号,,40,203,8300070,,,,,,,2022-06-01,1,,,,,カンガクムソウ,0
2335,9290001097718,新規,0,2022-06-01,2022-06-01,株式会社ｗｅｌｌｍｏｕｔｈ,,株式会社,福岡県,筑後市,大字馬間田１９２番地３,,40,211,8330023,,,,,,,2022-06-01,1,,,,,ウェルマウス,0
2340,9300001012947,新規,0,2022-06-01,2022-06-01,株式会社ＮＴＫ,,株式会社,佐賀県,神埼市,神埼町横武７８０番地３,,41,210,8420012,,,,,,,2022-06-01,1,,,,,エヌティーケー,0
2342,9340001024757,新規,0,2022-06-01,2022-06-01,株式会社トータルテック,,株式会社,鹿児島県,鹿児島市,山田町３５４６番地１,,46,201,8910104,,,,,,,2022-06-01,1,,,,,トータルテック,0
2343,9340003003809,新規,0,2022-06-01,2022-06-01,合同会社アレグリア,,合同会社,鹿児島県,鹿児島市,吉野町１４８３,,46,201,8920871,,,,,,,2022-06-01,1,,,,,アレグリア,0
2348,9360001030489,新規,0,2022-06-01,2022-06-01,Ｄｅｓｔｅｒｌａｍ株式会社,,株式会社,沖縄県,那覇市,字安謝６１７番地１９２沖縄管財ビル４０７号,,47,201,9000003,,,,,,,2022-06-01,1,,,,,デスターラム,0
2351,9360003012056,新規,0,2022-06-01,2022-06-01,明潜工業合同会社,,合同会社,沖縄県,那覇市,楚辺２丁目１９番１１号ＶＩＥＷみはらしＩＩ５０２,00126709,47,201,9000023,,,,,,,2022-06-01,1,,,,,メイセンコウギョウ,0
2356,9370005010486,新規,0,2022-06-01,2022-06-01,特定非営利活動法人Ｋ’ｓ　Ｃｏｍｐａｎｙ,,その他の設立登記法人,宮城県,仙台市青葉区,台原３丁目３８番２号ベルシティ森林公園４０５,,04,101,9810911,,,,,,,2022-06-01,1,,,,,ケーズカンパニー,0
2363,9400001015898,新規,0,2022-06-01,2022-06-01,株式会社ライジック,,株式会社,岩手県,花巻市,二枚橋第５地割６番地３Ａ－１棟,,03,205,0250312,,,,,,,2022-06-01,1,,,,,ライジック,0
2376,9430003013971,新規,0,2022-06-01,2022-06-01,合同会社グラシアス,,合同会社,北海道,札幌市東区,東雁来十条２丁目１１番１９号,,01,103,0070030,,,,,,,2022-06-01,1,,,,,グラシアス,0
2380,9470001019100,新規,0,2022-06-01,2022-06-01,株式会社そよかぜ,,株式会社,香川県,高松市,東山崎町１３２番地４,,37,201,7610312,,,,,,,2022-06-01,1,,,,,ソヨカゼ,0
