sequenceNumber,corporateNumber,process,correct,updateDate,changeDate,name,nameImageId,kind,prefectureName,cityName,streetNumber,addressImageId,prefectureCode,cityCode,postCode,addressOutside,addressOutsideImageId,closeDate,closeCause,successorCorporateNumber,changeCause,assignmentDate,latest,enName,enPrefectureName,enCityName,enAddressOutside,furigana,hihyoji
4,1010001042023,登記記録の閉鎖等,0,2021-10-21,2021-10-15,クラウンニツト株式会社,,株式会社,東京都,中央区,日本橋人形町２丁目３２番１３号,,13,102,1030013,,,2021-10-15,清算の結了等,,,2015-10-05,1,,,,,クラウンニツト,0
9,1010003029844,登記記録の閉鎖等,0,2021-10-21,2021-10-15,合同会社ＤＲロジスティクス５,,合同会社,東京都,中央区,日本橋１丁目４番１号,,13,102,1030027,,,2021-10-15,清算の結了等,,,2019-05-20,1,,,,,ディーアールロジスティクスファイブ,0
12,1010401075465,登記記録の閉鎖等,0,2021-10-21,2021-10-07,Ａ－ＷＩＮＧインターナショナル株式会社,,株式会社,東京都,港区,浜松町１丁目１番９号,,13,103,1050013,,,2021-10-07,清算の結了等,,,2015-10-05,1,,,,,,0
31,1011001116535,登記記録の閉鎖等,0,2021-10-21,2021-10-11,株式会社リーコーポレーション,,株式会社,東京都,新宿区,四谷４丁目２４番２号,,13,104,1600004,,,2021-10-11,清算の結了等,,,2017-06-01,1,,,,,リーコーポレーション,0
36,1011101054734,登記記録の閉鎖等,0,2021-10-21,2021-10-15,エスアイエナジー株式会社,,株式会社,東京都,新宿区,揚場町１番１８号,,13,104,1620824,,,2021-10-15,合併による解散等,4010401035862,令和３年１０月１日東京都港区三田三丁目４番１０号出光エナジーソリューションズ株式会社（4010401035862）に合併し解散,2015-10-05,1,,,,,エスアイエナジー,0
63,1013301017504,登記記録の閉鎖等,0,2021-10-21,2021-10-12,セモ・システムサービス株式会社,,株式会社,埼玉県,さいたま市緑区,東浦和８丁目１２番地１１ライネスハイム東浦和３０１号,,11,109,3360926,,,2021-10-12,清算の結了等,,,2015-10-05,1,,,,,セモシステムサービス,0
92,1030002005464,登記記録の閉鎖等,0,2021-10-21,2021-10-08,有限会社栄工業,,有限会社,埼玉県,さいたま市浦和区,大原２丁目１０番３号,,11,107,3300046,,,2021-10-08,清算の結了等,,,2015-10-05,1,,,,,,0
102,1040001018516,登記記録の閉鎖等,0,2021-10-21,2021-10-13,一橋実業出版株式会社,,株式会社,千葉県,船橋市,宮本７丁目１８番１３号,,12,204,2730003,,,2021-10-13,清算の結了等,,,2015-10-05,1,,,,,ヒトツバシジツギョウシュッパン,0
106,1040001072728,登記記録の閉鎖等,0,2021-10-21,2021-10-15,株式会社Ｐ．Ｐ＆Ｃｏ　Ｒｕｓｓｉａｎ　Ｂａｌｌｅｔ　Ｗｏｒｋｓ,,株式会社,千葉県,野田市,野田８０７番地,,12,208,2780037,,,2021-10-15,清算の結了等,,,2015-10-05,1,,,,,ペペアンドコーロシアンバレエワークス,0
112,1050001020017,登記記録の閉鎖等,0,2021-10-21,2021-10-14,アートメモリーこころ株式会社,,株式会社,茨城県,猿島郡五霞町,大字幸主１６９番地,,08,542,3060304,,,2021-10-14,清算の結了等,,,2015-10-05,1,,,,,アートメモリーココロ,0
130,1080102000550,登記記録の閉鎖等,0,2021-10-21,2021-10-14,有限会社サンキュークリーン,,有限会社,静岡県,沼津市,上香貫三貫地１１７８番地の２,,22,203,4100813,,,2021-10-14,清算の結了等,,,2015-10-05,1,,,,,サンキュークリーン,0
146,1100002008501,登記記録の閉鎖等,0,2021-10-21,2021-10-19,有限会社駿河壱番,,有限会社,長野県,須坂市,墨坂南３丁目６番１号,,20,207,3820098,,,2021-10-19,清算の結了等,,,2015-10-05,1,,,,,,0
154,1110002034281,登記記録の閉鎖等,0,2021-10-21,2021-10-14,有限会社石川防災,,有限会社,新潟県,佐渡市,住吉７６７番地,,15,224,9520015,,,2021-10-14,清算の結了等,,,2015-10-05,1,,,,,イシカワボウサイ,0
160,1120001072257,登記記録の閉鎖等,0,2021-10-21,2021-10-13,株式会社ローラン,,株式会社,大阪府,大阪市中央区,南船場１丁目１２番３号,,27,128,5420081,,,2021-10-13,清算の結了等,,,2015-10-05,1,,,,,,0
172,1120103001964,登記記録の閉鎖等,0,2021-10-21,2021-10-15,マハロＮ２１０３合同会社,,合同会社,大阪府,堺市西区,上野芝向ヶ丘町５丁１６番１１号,,27,144,5938303,,,2021-10-15,清算の結了等,,,2015-10-05,1,,,,,マハロエヌニイチゼロサン,0
173,1120103002252,登記記録の閉鎖等,0,2021-10-21,2021-10-18,合同会社オフィスこゆき,,合同会社,大阪府,藤井寺市,道明寺４丁目８番２号,,27,226,5830012,,,2021-10-18,清算の結了等,,,2015-10-05,1,,,,,オフィスコユキ,0
185,1140001106970,登記記録の閉鎖等,0,2021-10-21,2021-10-18,株式会社アルカナ,,株式会社,兵庫県,神戸市長田区,神楽町２丁目３番１号第１丸鹿ビル４０１,,28,106,6530836,,,2021-10-18,清算の結了等,,,2017-07-21,1,,,,,アルカナ,0
214,1230001003300,登記記録の閉鎖等,0,2021-10-21,2021-10-15,株式会社松井秀二商店,,株式会社,富山県,富山市,西中野本町１６番１７号,,16,201,9398083,,,2021-10-15,清算の結了等,,,2015-10-05,1,,,,,マツイヒデジショウテン,0
244,1360003009704,登記記録の閉鎖等,0,2021-10-21,2021-10-14,合同会社ＰＡＬ,,合同会社,沖縄県,うるま市,字栄野比９３－７,,47,213,9042205,,,2021-10-14,清算の結了等,,,2019-08-14,1,,,,,パル,0
246,1370001004136,登記記録の閉鎖等,0,2021-10-21,2021-10-08,株式会社宮果,,株式会社,宮城県,仙台市若林区,卸町４丁目３番地の１,,04,103,9840015,,,2021-10-08,合併による解散等,4370001004496,令和３年１０月１日仙台市若林区卸町四丁目３番地の１仙台あおば青果株式会社（4370001004496）に合併し解散,2015-10-05,1,,,,,ミヤカ,0
252,1380002002402,登記記録の閉鎖等,0,2021-10-21,2021-10-19,有限会社ドン,,有限会社,福島県,福島市,瀬上町字桜町１丁目８番地の３,,07,201,9600101,,,2021-10-19,清算の結了等,,,2015-10-05,1,,,,,ドン,0
258,1390002002335,登記記録の閉鎖等,0,2021-10-21,2021-10-15,有限会社ファーストミート,,有限会社,山形県,山形市,飯塚町５０番地,,06,201,9900845,,,2021-10-15,清算の結了等,,,2015-10-05,1,,,,,ファーストミート,0
260,1410001000122,登記記録の閉鎖等,0,2021-10-21,2021-10-18,株式会社アーバンシステム,,株式会社,秋田県,秋田市,新屋鳥木町１番４０号,,05,201,0101633,,,2021-10-18,清算の結了等,,,2015-10-05,1,,,,,アーバンシステム,0
261,1420001009641,登記記録の閉鎖等,0,2021-10-21,2021-10-19,光栄建設株式会社,,株式会社,青森県,南津軽郡藤崎町,大字中野目字葛巻７番地の１,,02,361,0383831,,,2021-10-19,清算の結了等,,,2015-10-05,1,,,,,コウエイケンセツ,0
263,1430001041833,登記記録の閉鎖等,0,2021-10-21,2021-10-15,株式会社近畿日本ツーリスト北海道,,株式会社,北海道,札幌市中央区,北三条西２丁目２－１日通札幌ビル６Ｆ,,01,101,0600003,,,2021-10-15,合併による解散等,2010001187437,令和３年１０月１日東京都新宿区西新宿二丁目６番１号近畿日本ツーリスト株式会社（2010001187437）に合併し解散,2015-10-05,1,,,,,キンキニッポンツーリストホッカイドウ,0
270,1470001005850,登記記録の閉鎖等,0,2021-10-21,2021-10-19,株式会社ヒューマン・アソシエイツ,,株式会社,香川県,高松市,由良町８２０番地３,,37,201,7610441,,,2021-10-19,清算の結了等,,,2015-10-05,1,,,,,ヒューマンアソシエイツ,0
274,1490002013272,登記記録の閉鎖等,0,2021-10-21,2021-10-19,東海興業有限会社,,有限会社,高知県,安芸郡東洋町,大字河内１１１７番地,,39,301,7817412,,,2021-10-19,清算の結了等,,,2015-10-05,1,,,,,トウカイコウギョウ,0
283,2010001182644,登記記録の閉鎖等,0,2021-10-21,2021-10-01,株式会社一六商事東日本,,株式会社,東京都,中央区,日本橋２丁目２番２０号,,13,102,1030027,,,2021-10-01,合併による解散等,9010001110301,令和３年１０月１日東京都中央区日本橋二丁目２番２０号株式会社一六商事ホールディングス（9010001110301）に合併し解散,2017-04-13,1,,,,,イチロクショウジヒガシニホン,0
288,2010002041080,登記記録の閉鎖等,0,2021-10-21,2021-10-13,有限会社シイ・ビイ・アイビルマネジメント,,有限会社,東京都,中央区,銀座２丁目４番１号銀楽ビル７階,,13,102,1040061,,,2021-10-13,清算の結了等,,,2015-10-05,1,,,,,,0
291,2010003029232,登記記録の閉鎖等,0,2021-10-21,2021-10-15,合同会社ＮＲＴグロース１４,,合同会社,東京都,中央区,日本橋２丁目７番１号,,13,102,1030027,,,2021-10-15,清算の結了等,,,2019-02-07,1,,,,,エヌアールティーグロースフォーティーン,0
295,2010401007839,登記記録の閉鎖等,0,2021-10-21,2021-10-14,コーヨー久永株式会社,,株式会社,東京都,中央区,銀座７丁目１１番１５号,,13,102,1040061,,,2021-10-14,合併による解散等,2290801002874,令和３年１０月１日北九州市小倉北区高浜一丁目２番２号ジェイテクトセールス株式会社（2290801002874）に合併し解散,2015-10-05,1,,,,,コーヨーキュウエイ,0
309,2010403012234,登記記録の閉鎖等,0,2021-10-21,2021-10-15,ＨＹＨ　Ｍａｒｑｕｉｓ７合同会社,,合同会社,東京都,千代田区,霞が関３丁目２番５号,,13,101,1000013,,,2021-10-15,清算の結了等,,,2015-10-05,1,,,,,エイチワイエイチマーキーセブン,0
314,2010805002857,登記記録の閉鎖等,0,2021-10-21,2021-10-13,一般社団法人たんぽぽの会,,その他の設立登記法人,東京都,大田区,田園調布３丁目３７番３号,,13,111,1450071,,,2021-10-13,清算の結了等,,,2021-06-22,1,,,,,タンポポノカイ,0
329,2011001068040,登記記録の閉鎖等,0,2021-10-21,2021-10-19,株式会社ルフテール,,株式会社,東京都,世田谷区,三宿１丁目２３番３号,,13,112,1540005,,,2021-10-19,合併による解散等,8011001115282,令和３年１０月１日東京都渋谷区桜丘町２１番１２号株式会社龍（8011001115282）に合併し解散,2015-10-05,1,,,,,ルフテール,0
333,2011003007780,登記記録の閉鎖等,0,2021-10-21,2021-10-19,合同会社ｍｕｓｔａｒｄ,,合同会社,東京都,練馬区,高野台１丁目６－８カーメル５０１,,13,120,1770033,,,2021-10-19,清算の結了等,,,2017-06-19,1,,,,,マスタード,0
334,2011101000002,登記記録の閉鎖等,0,2021-10-21,2021-10-12,株式会社アン・アン,,株式会社,東京都,新宿区,西新宿７丁目１０番３号アーバンビル内,,13,104,1600023,,,2021-10-12,清算の結了等,,,2015-10-05,1,,,,,アンアン,0
366,2020001131708,登記記録の閉鎖等,0,2021-10-21,2021-10-15,Ｃｏｍｉ株式会社,,株式会社,神奈川県,川崎市宮前区,菅生１丁目１６番２３－６号,,14,136,2160015,,,2021-10-15,清算の結了等,,,2019-06-24,1,,,,,コミ,0
377,2030002044354,登記記録の閉鎖等,0,2021-10-21,2021-10-12,有限会社沢目板金工業所,,有限会社,埼玉県,草加市,小山２丁目３番６号,,11,221,3400045,,,2021-10-12,清算の結了等,,,2015-10-05,1,,,,,サワメバンキンコウギョウショ,0
383,2030003012260,登記記録の閉鎖等,0,2021-10-21,2021-10-08,ＳｅｅｅＤ合同会社,,合同会社,埼玉県,蕨市,塚越２丁目６番２号,,11,223,3350002,,,2021-10-08,清算の結了等,,,2018-08-02,1,,,,,シード,0
393,2040001071803,登記記録の閉鎖等,0,2021-10-21,2021-10-18,株式会社山栄テクノ,,株式会社,千葉県,野田市,谷津７４７番地１,,12,208,2780046,,,2021-10-18,合併による解散等,5010401057492,令和３年１０月１日東京都港区海岸三丁目２６番１号バーク芝浦港シビル株式会社（5010401057492）に合併し解散,2015-10-05,1,,,,,サンエイテクノ,0
406,2070002013066,登記記録の閉鎖等,0,2021-10-21,2021-10-20,有限会社アートガラス,,有限会社,群馬県,高崎市,箕郷町上芝９７６番地１,,10,202,3703104,,,2021-10-20,合併による解散等,9070001027820,令和３年１０月２０日群馬県高崎市箕郷町上芝９７６番地１株式会社アートガラス（9070001027820）に合併し解散,2015-10-05,1,,,,,アートガラス,0
409,2080401021957,登記記録の閉鎖等,0,2021-10-21,2021-10-07,Ｔｈｅ　Ｃｈａｎｇｅ株式会社,,株式会社,静岡県,浜松市南区,若林町８５８番６,,22,134,4328051,,,2021-10-07,清算の結了等,,,2017-01-18,1,,,,,ザチェンジ,0
420,2120001120502,登記記録の閉鎖等,0,2021-10-21,2021-10-20,株式会社チャレンジャー,,株式会社,大阪府,大阪市福島区,福島３丁目１１－２６,,27,103,5530003,,,2021-10-20,清算の結了等,,,2015-10-05,1,,,,,,0
422,2120001126391,登記記録の閉鎖等,0,2021-10-21,2021-10-19,株式会社コンフォートボックス,,株式会社,大阪府,大阪市北区,天満２丁目７番１４号匠空ＴＥＮＭＡＩＩ１０３号,00029056,27,127,5300043,,,2021-10-19,清算の結了等,,,2015-10-05,1,,,,,,0
432,2120003002021,登記記録の閉鎖等,0,2021-10-21,2021-10-19,合名会社平松商店,,合名会社,大阪府,大阪市中央区,博労町４丁目３番１５号,,27,128,5410059,,,2021-10-19,清算の結了等,,,2015-10-05,1,,,,,ヒラマツショウテン,0
443,2140001018199,登記記録の閉鎖等,0,2021-10-21,2021-10-19,井上鋼材株式会社,,株式会社,兵庫県,神戸市垂水区,朝谷町６番地の９,,28,108,6550862,,,2021-10-19,清算の結了等,,,2015-10-05,1,,,,,イノウエコウザイ,0
448,2140001114675,登記記録の閉鎖等,0,2021-10-21,2021-10-18,株式会社ナカシマパワーソリューション,,株式会社,兵庫県,姫路市,阿保甲８７８番地,,28,201,6700944,,,2021-10-18,清算の結了等,,,2019-08-28,1,,,,,ナカシマパワーソリューション,0
454,2150005007560,登記記録の閉鎖等,0,2021-10-21,2021-09-28,天武天皇神社,,その他の設立登記法人,奈良県,吉野郡川上村,大字北塩谷２３５番地９,,29,452,6393552,,,2021-09-28,合併による解散等,3150005007568,令和３年９月２８日奈良県吉野郡川上村大字迫８６９番地の１丹生川上神社上社（3150005007568）に合併し解散,2015-10-05,1,,,,,テンムテンノウジンジャ,0
460,2180001128168,登記記録の閉鎖等,0,2021-10-21,2021-10-15,株式会社近畿日本ツーリスト中部,,株式会社,愛知県,名古屋市中村区,名駅南１丁目２７番２号,,23,105,4500003,,,2021-10-15,合併による解散等,2010001187437,令和３年１０月１日東京都新宿区西新宿二丁目６番１号近畿日本ツーリスト株式会社（2010001187437）に合併し解散,2017-06-06,1,,,,,キンキニッポンツーリストチュウブ,0
474,2200003003432,登記記録の閉鎖等,0,2021-10-21,2021-10-20,合同会社岐阜アカデミア,,合同会社,岐阜県,岐阜市,如月町３丁目２番地１,,21,201,5008327,,,2021-10-20,清算の結了等,,,2015-10-05,1,,,,,ギフアカデミア,0
514,2370005010014,登記記録の閉鎖等,0,2021-10-21,2021-09-16,一般社団法人日本珠算教育連盟,,その他の設立登記法人,宮城県,塩竈市,藤倉３丁目１７番８号,,04,203,9850004,,,2021-09-16,清算の結了等,,,2019-11-11,1,,,,,ニホンシュザンキョウイクレンメイ,0
515,2370102002434,登記記録の閉鎖等,0,2021-10-21,2021-10-07,新生堂有限会社,,有限会社,宮城県,白石市,大平中目字穴田前４７番地の１,,04,206,9890216,,,2021-10-07,清算の結了等,,,2015-10-05,1,,,,,シンセイドウ,0
516,2370205000376,登記記録の閉鎖等,0,2021-10-21,2021-10-08,特定非営利活動法人宮城マネジメント協会,,その他の設立登記法人,宮城県,大崎市,古川福浦１丁目７番１４号,,04,215,9896101,,,2021-10-08,清算の結了等,,,2015-10-05,1,,,,,ミヤギマネジメントキョウカイ,0
522,2430001026395,登記記録の閉鎖等,0,2021-10-21,2021-10-18,株式会社相和,,株式会社,北海道,札幌市豊平区,美園四条３丁目２番３７号,,01,105,0620004,,,2021-10-18,合併による解散等,5011101087342,令和３年１０月１日東京都渋谷区恵比寿西一丁目９番６号ディシディア・ワイム株式会社（5011101087342）に合併し解散,2015-10-05,1,,,,,ソウワ,0
535,2470002016846,登記記録の閉鎖等,0,2021-10-21,2021-10-19,有限会社坂田石材商会,,有限会社,香川県,三豊市,仁尾町仁尾乙２０２７番地１,,37,208,7691404,,,2021-10-19,清算の結了等,,,2015-10-05,1,,,,,サカタセキザイショウカイ,0
541,2490001006152,登記記録の閉鎖等,0,2021-10-21,2021-10-19,カキウチテクノサービス株式会社,,株式会社,高知県,南国市,岡豊町中島３９１番地８,,39,204,7830049,,,2021-10-19,清算の結了等,,,2015-10-05,1,,,,,カキウチテクノサービス,0
558,3010401073681,登記記録の閉鎖等,0,2021-10-21,2021-10-07,オーエスワイ株式会社,,株式会社,東京都,港区,赤坂４丁目１３番５号赤坂オフィスハイツ,,13,103,1070052,,,2021-10-07,清算の結了等,,,2015-10-05,1,,,,,オーエスワイ,0
560,3010401114139,登記記録の閉鎖等,0,2021-10-21,2021-10-07,株式会社Ｎｏａ　Ｋｕｌｉａ,,株式会社,東京都,港区,南青山２丁目２番１５号ウィン青山９４２,,13,103,1070062,,,2021-10-07,清算の結了等,,,2015-10-05,1,,,,,ノアクーリア,0
564,3010405017172,登記記録の閉鎖等,0,2021-10-21,2021-10-06,一般社団法人ＳＡＰＲ　Ｈｏｌｄｉｎｇ８,,その他の設立登記法人,東京都,港区,虎ノ門５丁目１番４号,,13,103,1050001,,,2021-10-06,清算の結了等,,,2018-10-25,1,,,,,エスエーピーアールホールディングエイト,0
585,3011003006071,登記記録の閉鎖等,0,2021-10-21,2021-10-19,合同会社コダイラ,,合同会社,東京都,世田谷区,三宿１丁目２３番３号,,13,112,1540005,,,2021-10-19,合併による解散等,8011001115282,令和３年１０月１日東京都渋谷区桜丘町２１番１２号株式会社龍（8011001115282）に合併し解散,2015-10-05,1,,,,,,0
591,3011101086040,登記記録の閉鎖等,0,2021-10-21,2021-10-18,エクスチェンジユナイテッドバンク株式会社,,株式会社,東京都,新宿区,荒木町２０－１６号,,13,104,1600007,,,2021-10-18,清算の結了等,,,2018-11-21,1,,,,,エクスチェンジユナイテッドバンク,0
592,3011101088020,登記記録の閉鎖等,0,2021-10-21,2021-10-18,トウホウ産業株式会社,,株式会社,東京都,新宿区,市谷甲良町四丁目２番５号１階,,13,104,1620856,,,2021-10-18,清算の結了等,,,2019-06-14,1,,,,,トウホウサンギョウ,0
598,3011401006788,登記記録の閉鎖等,0,2021-10-21,2021-10-14,若原電線株式会社,,株式会社,東京都,武蔵野市,中町３丁目７番５－２１０号テラス武蔵野中町,,13,203,1800006,,,2021-10-14,清算の結了等,,,2015-10-05,1,,,,,ワカハラデンセン,0
606,3011602020464,登記記録の閉鎖等,0,2021-10-21,2021-10-20,有限会社シーサイド,,有限会社,東京都,練馬区,春日町５丁目８番１２－３０６号,,13,120,1790074,,,2021-10-20,清算の結了等,,,2015-10-05,1,,,,,,0
623,3013101003999,登記記録の閉鎖等,0,2021-10-21,2021-10-18,株式会社藤井電気,,株式会社,東京都,青梅市,富岡１丁目２０２番地１,,13,205,1980002,,,2021-10-18,清算の結了等,,,2015-10-05,1,,,,,フジイデンキ,0
629,3020001023474,登記記録の閉鎖等,0,2021-10-21,2021-10-18,株式会社勝呂工務店,,株式会社,神奈川県,横浜市神奈川区,菅田町２０２２番地の１,,14,102,2210864,,,2021-10-18,清算の結了等,,,2015-10-05,1,,,,,カツロコウムテン,0
661,3030002063295,登記記録の閉鎖等,0,2021-10-21,2021-10-08,有限会社大明堂,,有限会社,埼玉県,富士見市,鶴瀬西２丁目５番１２号,,11,235,3540026,,,2021-10-08,清算の結了等,,,2015-10-05,1,,,,,タイメイドウ,0
664,3030002104660,登記記録の閉鎖等,0,2021-10-21,2021-10-11,有限会社高橋材木店,,有限会社,埼玉県,川口市,大字東内野５６３番地２,,11,203,3330821,,,2021-10-11,清算の結了等,,,2015-10-05,1,,,,,タカハシザイモクテン,0
681,3050002021524,登記記録の閉鎖等,0,2021-10-21,2021-10-13,有限会社関口材木店,,有限会社,茨城県,つくば市,上横場８９１番地の２,,08,220,3050854,,,2021-10-13,清算の結了等,,,2015-10-05,1,,,,,セキグチザイモクテン,0
689,3060002027223,登記記録の閉鎖等,0,2021-10-21,2021-10-15,有限会社丸喜屋,,有限会社,栃木県,矢板市,扇町１丁目１１番２３号,,09,211,3292161,,,2021-10-15,清算の結了等,,,2015-10-05,1,,,,,マルキヤ,0
700,3080401020594,登記記録の閉鎖等,0,2021-10-21,2021-10-19,株式会社熱田組,,株式会社,静岡県,掛川市,仁藤町４番地の５仁藤団地１０６号,,22,213,4360075,,,2021-10-19,清算の結了等,,,2015-10-05,1,,,,,アツタグミ,0
718,3120001110279,登記記録の閉鎖等,0,2021-10-21,2021-10-08,株式会社中山棒線,,株式会社,大阪府,大阪市大正区,船町１丁目１番６６号,,27,108,5510022,,,2021-10-08,合併による解散等,5120001027901,令和３年１０月１日大阪市大正区船町一丁目１番６６号株式会社中山製鋼所（5120001027901）に合併し解散,2015-10-05,1,,,,,ナカヤマボウセン,0
732,3120901014083,登記記録の閉鎖等,0,2021-10-21,2021-10-15,進和ビル株式会社,,株式会社,大阪府,吹田市,江坂町１丁目１３番３３号,,27,205,5640063,,,2021-10-15,合併による解散等,3010001036221,令和３年１０月１日東京都港区新橋六丁目１７番１５号菱進都市開発株式会社（3010001036221）に合併し解散,2015-10-05,1,,,,,シンワビル,0
759,3190002011866,登記記録の閉鎖等,0,2021-10-21,2021-10-18,有限会社くすひろ,,有限会社,三重県,志摩市,阿児町神明２１８番地,,24,215,5170502,,,2021-10-18,清算の結了等,,,2015-10-05,1,,,,,クスヒロ,0
786,3290802013003,登記記録の閉鎖等,0,2021-10-21,2021-10-07,有限会社松本商店,,有限会社,福岡県,北九州市八幡東区,春の町３丁目８番１７号,,40,108,8050050,,,2021-10-07,清算の結了等,,,2015-10-05,1,,,,,マツモトショウテン,0
789,3330002023021,登記記録の閉鎖等,0,2021-10-21,2021-10-19,有限会社テラサワ,,有限会社,熊本県,阿蘇市,一の宮町坂梨２９５７番地,,43,214,8692611,,,2021-10-19,清算の結了等,,,2015-10-05,1,,,,,テラサワ,0
797,3360002004828,登記記録の閉鎖等,0,2021-10-21,2021-10-18,有限会社礼,,有限会社,沖縄県,那覇市,字国場１０７２番地１・２階,,47,201,9020075,,,2021-10-18,清算の結了等,,,2015-10-05,1,,,,,レイ,0
806,3390002014535,登記記録の閉鎖等,0,2021-10-21,2021-10-18,有限会社山城屋肥料店,,有限会社,山形県,南陽市,郡山１０５７番地の２,,06,213,9992241,,,2021-10-18,清算の結了等,,,2015-10-05,1,,,,,ヤマシロヤヒリョウテン,0
811,3430001039306,登記記録の閉鎖等,0,2021-10-21,2021-10-18,株式会社グット・フーズ,,株式会社,北海道,札幌市白石区,菊水元町五条１丁目９番１１号,,01,104,0030825,,,2021-10-18,合併による解散等,1030001085078,令和３年１０月１日埼玉県熊谷市万吉２６８５番地１株式会社カルネス（1030001085078）に合併し解散,2015-10-05,1,,,,,グットフーズ,0
819,3490002012033,登記記録の閉鎖等,0,2021-10-21,2021-10-20,有限会社グランドフルーツ,,有限会社,高知県,南国市,立田３０７番地,,39,204,7830091,,,2021-10-20,清算の結了等,,,2015-10-05,1,,,,,,0
854,4010901027491,登記記録の閉鎖等,0,2021-10-21,2021-10-18,株式会社Ｇ２０１０,,株式会社,神奈川県,横浜市青葉区,新石川１丁目４番地２ドレッセあざみ野エスタフレンテ４０９号室,,14,117,2250003,,,2021-10-18,清算の結了等,,,2015-10-05,1,,,,,ジーニゼロイチゼロ,0
867,4011302006696,登記記録の閉鎖等,0,2021-10-21,2021-10-11,有限会社内藤インテリアプラントスケイプ,,有限会社,東京都,杉並区,高井戸西２丁目７番２３号,,13,115,1680071,,,2021-10-11,清算の結了等,,,2015-10-05,1,,,,,ナイトウインテリアプラントスケイプ,0
869,4011405000076,登記記録の閉鎖等,0,2021-10-21,2021-10-19,医療法人社団彩仁会,,その他の設立登記法人,東京都,板橋区,成増２丁目１７番３０号,,13,119,1750094,,,2021-10-19,清算の結了等,,,2015-10-05,1,,,,,サイジンカイ,0
885,4013302018432,登記記録の閉鎖等,0,2021-10-21,2021-10-14,有限会社ｃｒｅａｒｅ,,有限会社,東京都,豊島区,上池袋３丁目３５番１２－１１０３号,,13,116,1700012,,,2021-10-14,清算の結了等,,,2015-10-05,1,,,,,クリオール,0
886,4020001009365,登記記録の閉鎖等,0,2021-10-21,2021-10-15,ミナト倉庫株式会社,,株式会社,神奈川県,横浜市青葉区,荏田町３７９番地ライオンズマンション江田第５－３０７号,,14,117,2250013,,,2021-10-15,清算の結了等,,,2015-10-05,1,,,,,ミナトソウコ,0
893,4020002064541,登記記録の閉鎖等,0,2021-10-21,2021-10-13,有限会社波夢企画,,有限会社,神奈川県,横浜市金沢区,富岡東１丁目４１番３号,,14,108,2360051,,,2021-10-13,清算の結了等,,,2015-10-05,1,,,,,パムキカク,0
894,4020002079399,登記記録の閉鎖等,0,2021-10-21,2021-10-15,有限会社エフーフラット,,有限会社,神奈川県,横浜市南区,高根町３丁目１７番２８号,,14,105,2320022,,,2021-10-15,清算の結了等,,,2015-10-05,1,,,,,エフーフラット,0
895,4020003016120,登記記録の閉鎖等,0,2021-10-21,2021-10-06,Ｐｒｅｄｉｃｔｈｙ合同会社,,合同会社,東京都,港区,南麻布２丁目１２番３号サイオスビル,,13,103,1060047,,,2021-10-06,合併による解散等,1010401129592,令和３年１０月１日東京都港区南麻布二丁目１２番３号サイオスビルサイオステクノロジー株式会社（1010401129592）に合併し解散,2019-05-31,1,,,,,プリディティ,0
897,4021001009388,登記記録の閉鎖等,0,2021-10-21,2021-10-19,日本フィールドサービス株式会社,,株式会社,神奈川県,鎌倉市,植木４３８番地１,,14,204,2470073,,,2021-10-19,清算の結了等,,,2015-10-05,1,,,,,ニホンフィールドサービス,0
899,4021002072253,登記記録の閉鎖等,0,2021-10-21,2021-10-18,日和ビルディ有限会社,,有限会社,神奈川県,三浦郡葉山町,堀内１９１８－７,,14,301,2400112,,,2021-10-18,清算の結了等,,,2015-10-05,1,,,,,ニチワビルディ,0
900,4030001001453,登記記録の閉鎖等,0,2021-10-21,2021-10-12,株式会社尾＿製作所,00014413,株式会社,埼玉県,さいたま市浦和区,大東１丁目２０番２６号,,11,107,3300043,,,2021-10-12,清算の結了等,,,2015-10-05,1,,,,,,0
907,4030002019866,登記記録の閉鎖等,0,2021-10-21,2021-10-14,リエゾン・オフィス有限会社,,有限会社,埼玉県,さいたま市浦和区,岸町７丁目３番３号,,11,107,3300064,,,2021-10-14,清算の結了等,,,2015-10-05,1,,,,,リエゾンオフィス,0
908,4030002041432,登記記録の閉鎖等,0,2021-10-21,2021-10-06,有限会社丸今,,有限会社,埼玉県,加須市,不動岡２丁目４番６号,,11,210,3470054,,,2021-10-06,清算の結了等,,,2015-10-05,1,,,,,マルイマ,0
912,4040001032596,登記記録の閉鎖等,0,2021-10-21,2021-10-12,ワイズタンクコーポレーション株式会社,,株式会社,千葉県,市川市,八幡３丁目４番１－５０２号,,12,203,2720021,,,2021-10-12,清算の結了等,,,2015-10-05,1,,,,,ワイズタンクコーポレーション,0
915,4040002023801,登記記録の閉鎖等,0,2021-10-21,2021-10-12,有限会社ティ・エム・シー,,有限会社,千葉県,船橋市,西習志野３丁目３６番２２号,,12,204,2740815,,,2021-10-12,清算の結了等,,,2015-10-05,1,,,,,ティエムシー,0
916,4040002033536,登記記録の閉鎖等,0,2021-10-21,2021-10-13,有限会社きもの丸富士,,有限会社,千葉県,市川市,北方町４丁目１４４４番地１２,,12,203,2720811,,,2021-10-13,清算の結了等,,,2015-10-05,1,,,,,,0
925,4050001017547,登記記録の閉鎖等,0,2021-10-21,2021-10-14,トライアゲイン株式会社,,株式会社,茨城県,つくば市,筑穂１丁目２番地１,,08,220,3003257,,,2021-10-14,清算の結了等,,,2015-10-05,1,,,,,,0
929,4050002004643,登記記録の閉鎖等,0,2021-10-21,2021-10-13,有限会社アクアトーラ,,有限会社,茨城県,東茨城郡城里町,大字那珂西２３９８番地の５,,08,310,3114302,,,2021-10-13,清算の結了等,,,2015-10-05,1,,,,,,0
940,4080101005713,登記記録の閉鎖等,0,2021-10-21,2021-10-14,昭栄株式会社,,株式会社,静岡県,田方郡函南町,仁田８０番地の１,,22,325,4190114,,,2021-10-14,清算の結了等,,,2015-10-05,1,,,,,ショウエイ,0
979,4140001097679,登記記録の閉鎖等,0,2021-10-21,2021-10-15,株式会社ＭＴＡ,,株式会社,兵庫県,尼崎市,富松町１丁目６番２０号,,28,202,6610003,,,2021-10-15,清算の結了等,,,2015-10-05,1,,,,,エムティエイ,0
983,4160005010363,登記記録の閉鎖等,0,2021-10-21,2021-10-18,一般社団法人日本スポンジエイジ協会,,その他の設立登記法人,滋賀県,大津市,木下町８番２０号,,25,201,5200812,,,2021-10-18,清算の結了等,,,2017-02-09,1,,,,,ニホンスポンジエイジキョウカイ,0
1000,4200001037125,登記記録の閉鎖等,0,2021-10-21,2021-10-19,ＵＦＰ岐阜株式会社,,株式会社,岐阜県,岐阜市,神田町６丁目１２番地シグザ神田５階,,21,201,5008833,,,2021-10-19,合併による解散等,3020001125717,令和３年１０月１日静岡県静岡市駿河区南町１４－１水の森ビル９階株式会社ユナイテッド・フロント・パートナーズ（3020001125717）に合併し解散,2020-02-06,1,,,,,,0
1003,4220001017018,登記記録の閉鎖等,0,2021-10-21,2021-10-15,株式会社ハーモニー,,株式会社,石川県,鳳珠郡能登町,字宇出津山分２字３３番地,,17,463,9270431,,,2021-10-15,清算の結了等,,,2015-10-05,1,,,,,ハーモニー,0
1006,4240001022131,登記記録の閉鎖等,0,2021-10-21,2021-10-20,アセンブル株式会社,,株式会社,広島県,広島市南区,宇品御幸４丁目７番１７－２０５号,,34,103,7340015,,,2021-10-20,清算の結了等,,,2015-10-05,1,,,,,アセンブル,0
1022,4280005002497,登記記録の閉鎖等,0,2021-10-21,2021-10-20,農事組合法人ゆとりの里下古志ファーム１３,,その他の設立登記法人,島根県,松江市,古志町９６１番地１,,32,201,6900121,,,2021-10-20,清算の結了等,,,2015-10-05,1,,,,,ユトリノサトシモコシファームサーティーン,0
1039,4320001013295,登記記録の閉鎖等,0,2021-10-21,2021-10-19,株式会社ｉ－オフィス,,株式会社,大分県,大分市,賀来北２丁目２０番１号,,44,201,8700848,,,2021-10-19,清算の結了等,,,2015-10-05,1,,,,,アイオフィス,0
1041,4320005006394,登記記録の閉鎖等,0,2021-10-21,2021-09-14,天理教三重町分教会,,その他の設立登記法人,大分県,豊後大野市,三重町市場７９３番地１,,44,212,8797131,,,2021-09-14,合併による解散等,8320205000235,令和３年９月１４日大分県臼杵市大字福良１９５６番地天理教理豊分教会（8320205000235）に合併し解散,2015-10-05,1,,,,,,0
1053,4390001004577,登記記録の閉鎖等,0,2021-10-21,2021-10-18,株式会社舞鶴堂,,株式会社,山形県,天童市,東本町１丁目１６番８号,,06,210,9940026,,,2021-10-18,清算の結了等,,,2015-10-05,1,,,,,マイヅルドウ,0
1056,4400001008733,登記記録の閉鎖等,0,2021-10-21,2021-10-20,株式会社ブロス盛岡,,株式会社,岩手県,盛岡市,津志田南２丁目１６番８号,,03,201,0200839,,,2021-10-20,清算の結了等,,,2015-10-05,1,,,,,,0
1086,5010003019445,登記記録の閉鎖等,0,2021-10-21,2021-10-15,合同会社レア名神レジデンス,,合同会社,東京都,千代田区,霞が関３丁目２番５号,,13,101,1000013,,,2021-10-15,清算の結了等,,,2015-10-05,1,,,,,レアメイシンレジデンス,0
1119,5010805002854,登記記録の閉鎖等,0,2021-10-21,2021-10-13,一般社団法人山本ファミリートラスト,,その他の設立登記法人,東京都,大田区,田園調布３丁目３７番３号,,13,111,1450071,,,2021-10-13,清算の結了等,,,2021-06-11,1,,,,,ヤマモトファミリートラスト,0
1132,5011002035508,登記記録の閉鎖等,0,2021-10-21,2021-10-05,有限会社ワイルドグース,,有限会社,東京都,渋谷区,渋谷３丁目１番９号ＹＡＺＡＷＡビル３階,,13,113,1500002,,,2021-10-05,清算の結了等,,,2015-10-05,1,,,,,ワイルドグース,0
1140,5011201003125,登記記録の閉鎖等,0,2021-10-21,2021-10-18,ダイヤランド株式会社,,株式会社,東京都,中野区,中野３丁目３６番１２号,,13,114,1640001,,,2021-10-18,清算の結了等,,,2015-10-05,1,,,,,ダイヤランド,0
1157,5020001034016,登記記録の閉鎖等,0,2021-10-21,2021-10-15,株式会社テック・ビジョン,,株式会社,東京都,府中市,西府町２丁目２７番地の６,,13,206,1830031,,,2021-10-15,合併による解散等,5010401034839,令和３年１０月１日東京都港区麻布台一丁目９番１９号エナ麻布台２Ｆ株式会社ヴイ・エス・テクノロジー（5010401034839）に合併し解散,2015-10-05,1,,,,,テックビジョン,0
1163,5020002029683,登記記録の閉鎖等,0,2021-10-21,2021-10-14,倉田建設有限会社,,有限会社,神奈川県,横浜市南区,別所３丁目１０番７号,,14,105,2320064,,,2021-10-14,清算の結了等,,,2015-10-05,1,,,,,クラタケンセツ,0
1168,5021002019550,登記記録の閉鎖等,0,2021-10-21,2021-10-12,有限会社クアドリフォリオ,,有限会社,神奈川県,相模原市南区,古淵３丁目１８番１２－２０８号,,14,153,2520344,,,2021-10-12,清算の結了等,,,2015-10-05,1,,,,,クアドリフォリオ,0
1187,5040001068094,登記記録の閉鎖等,0,2021-10-21,2021-10-13,株式会社インスネット,,株式会社,千葉県,柏市,中央１丁目５番２７号,,12,217,2770023,,,2021-10-13,清算の結了等,,,2015-10-05,1,,,,,インスネット,0
1189,5040002009650,登記記録の閉鎖等,0,2021-10-21,2021-10-13,有限会社ビッグサン,,有限会社,千葉県,千葉市若葉区,谷当町１０９１番３,,12,104,2650072,,,2021-10-13,清算の結了等,,,2015-10-05,1,,,,,ビッグサン,0
1193,5050001014477,登記記録の閉鎖等,0,2021-10-21,2021-10-14,日本企画印刷株式会社,,株式会社,茨城県,坂東市,辺田１０８９番地の１１,,08,228,3060632,,,2021-10-14,清算の結了等,,,2015-10-05,1,,,,,,0
1195,5050002034169,登記記録の閉鎖等,0,2021-10-21,2021-10-13,植竹重機有限会社,,有限会社,茨城県,稲敷市,佐原下手口１８５４番地,,08,229,3000725,,,2021-10-13,清算の結了等,,,2015-10-05,1,,,,,ウエタケジュウキ,0
1199,5070002004970,登記記録の閉鎖等,0,2021-10-21,2021-10-13,有限会社前原化成産業,,有限会社,東京都,中央区,日本橋茅場町２丁目３番６号,,13,102,1030025,,,2021-10-13,清算の結了等,,,2015-10-05,1,,,,,マエハラカセイサンギョウ,0
1205,5080401015832,登記記録の閉鎖等,0,2021-10-21,2021-10-14,静岡コーヨー株式会社,,株式会社,静岡県,磐田市,富士見町１丁目５番地の１２,,22,211,4380083,,,2021-10-14,合併による解散等,2290801002874,令和３年１０月１日北九州市小倉北区高浜一丁目２番２号ジェイテクトセールス株式会社（2290801002874）に合併し解散,2015-10-05,1,,,,,シズオカコーヨー,0
1207,5110001021698,登記記録の閉鎖等,0,2021-10-21,2021-10-15,株式会社みどり家具店,,株式会社,新潟県,糸魚川市,本町２番３号,,15,216,9410068,,,2021-10-15,清算の結了等,,,2015-10-05,1,,,,,ミドリカグテン,0
1209,5110002031671,登記記録の閉鎖等,0,2021-10-21,2021-10-15,有限会社新設計室,,有限会社,新潟県,見附市,明晶町１５２０番地７,,15,211,9540033,,,2021-10-15,清算の結了等,,,2015-10-05,1,,,,,シンセッケイシツ,0
1251,5170001010084,登記記録の閉鎖等,0,2021-10-21,2021-10-19,正和産業株式会社,,株式会社,和歌山県,御坊市,湯川町財部字亀田２１０番地,,30,205,6440011,,,2021-10-19,合併による解散等,6120001038071,令和３年１０月１日大阪市浪速区日本橋西一丁目５番９号小浦石油株式会社（6120001038071）に合併し解散,2015-10-05,1,,,,,,0
1253,5180001055789,登記記録の閉鎖等,0,2021-10-21,2021-10-18,株式会社アドプロ・クリエイト,,株式会社,愛知県,名古屋市東区,泉１丁目５番２２号,,23,102,4610001,,,2021-10-18,清算の結了等,,,2015-10-05,1,,,,,アドプロクリエイト,0
1259,5190001013762,登記記録の閉鎖等,0,2021-10-21,2021-10-20,株式会社ｍｅｒｃｉ,,株式会社,三重県,桑名市,大字福島字立代９４０番３,,24,205,5110002,,,2021-10-20,清算の結了等,,,2015-10-05,1,,,,,,0
1260,5190002023397,登記記録の閉鎖等,0,2021-10-21,2021-10-20,有限会社フジワラ,,有限会社,三重県,四日市市,笹川７丁目１２１番地,,24,202,5100944,,,2021-10-20,清算の結了等,,,2015-10-05,1,,,,,,0
1263,5200002028139,登記記録の閉鎖等,0,2021-10-21,2021-10-19,有限会社マツヤマ建築,,有限会社,岐阜県,郡上市,八幡町那比３６３５番地,,21,219,5014237,,,2021-10-19,清算の結了等,,,2015-10-05,1,,,,,マツヤマケンチク,0
1274,5240001055080,登記記録の閉鎖等,0,2021-10-21,2021-10-20,株式会社Ｍｏｍｅｎｔ,,株式会社,広島県,広島市東区,牛田新町３丁目１９番３７－１２０４号,,34,102,7320068,,,2021-10-20,清算の結了等,,,2019-10-08,1,,,,,モーメント,0
1298,5290002038220,登記記録の閉鎖等,0,2021-10-21,2021-10-19,有限会社スタイルプラン,,有限会社,愛知県,豊明市,栄町上姥子３番地２１３栄団地Ａ棟５０５号,,23,229,4701162,,,2021-10-19,清算の結了等,,,2015-10-05,1,,,,,スタイルプラン,0
1302,5290805004237,登記記録の閉鎖等,0,2021-10-21,2021-10-06,医療法人山本循環器内科医院,,その他の設立登記法人,福岡県,北九州市八幡西区,馬場山西３番１３号,,40,109,8071132,,,2021-10-06,清算の結了等,,,2015-10-05,1,,,,,ヤマモトジュンカンキナイカイイン,0
1324,5420001006684,登記記録の閉鎖等,0,2021-10-21,2021-10-18,株式会社村上機械,,株式会社,青森県,八戸市,吹上３丁目１番４号,,02,203,0310003,,,2021-10-18,清算の結了等,,,2015-10-05,1,,,,,ムラカミキカイ,0
1338,6010001127397,登記記録の閉鎖等,0,2021-10-21,2021-10-13,株式会社富士美,,株式会社,東京都,千代田区,飯田橋１丁目６番４号,,13,101,1020072,,,2021-10-13,清算の結了等,,,2015-10-05,1,,,,,フジミ,0
1339,6010001139640,登記記録の閉鎖等,0,2021-10-21,2021-10-13,株式会社セカンドステージ,,株式会社,東京都,文京区,本郷２丁目１１番１０号ウェルストンハイツ２０６,,13,105,1130033,,,2021-10-13,清算の結了等,,,2015-10-05,1,,,,,セカンドステージ,0
1343,6010003025673,登記記録の閉鎖等,0,2021-10-21,2021-10-15,合同会社ＤＲロジスティクス２,,合同会社,東京都,中央区,日本橋１丁目４番１号,,13,102,1030027,,,2021-10-15,清算の結了等,,,2017-07-18,1,,,,,ディーアールロジスティクスツー,0
1361,6010701039454,登記記録の閉鎖等,0,2021-10-21,2021-10-20,株式会社ＧＴシステム,,株式会社,東京都,品川区,大崎５丁目１－５,,13,109,1410032,,,2021-10-20,清算の結了等,,,2020-07-02,1,,,,,ジーティーシステム,0
1389,6011501005803,登記記録の閉鎖等,0,2021-10-21,2021-10-15,太田インキ製造株式会社,,株式会社,東京都,荒川区,西日暮里２丁目５２番２号,,13,118,1160013,,,2021-10-15,清算の結了等,,,2015-10-05,1,,,,,,0
1403,6012301007799,登記記録の閉鎖等,0,2021-10-21,2021-10-04,株式会社トーコー精機,,株式会社,東京都,町田市,金井２丁目３番地２６,,13,209,1950072,,,2021-10-04,清算の結了等,,,2015-10-05,1,,,,,トーコーセイキ,0
1408,6012402007582,登記記録の閉鎖等,0,2021-10-21,2021-10-15,有限会社コミヤマ,,有限会社,東京都,府中市,小柳町２丁目２番地の２４,,13,206,1830013,,,2021-10-15,清算の結了等,,,2015-10-05,1,,,,,コミヤマ,0
1421,6020003007381,登記記録の閉鎖等,0,2021-10-21,2021-10-18,合同会社ひまわり,,合同会社,神奈川県,川崎市川崎区,大師河原１丁目１番１２,,14,131,2100811,,,2021-10-18,清算の結了等,,,2015-10-05,1,,,,,ヒマワリ,0
1423,6021001008479,登記記録の閉鎖等,0,2021-10-21,2021-10-18,株式会社青和工業,,株式会社,神奈川県,高座郡寒川町,一之宮８丁目１６番１４号,,14,321,2530111,,,2021-10-18,清算の結了等,,,2015-10-05,1,,,,,セイワコウギョウ,0
1429,6021002066864,登記記録の閉鎖等,0,2021-10-21,2021-10-18,有限会社正の弥,,有限会社,神奈川県,横須賀市,小川町２３番地１,,14,201,2380004,,,2021-10-18,清算の結了等,,,2015-10-05,1,,,,,マサノヤ,0
1435,6030002048087,登記記録の閉鎖等,0,2021-10-21,2021-10-11,有限会社吉永製罐所,00016695,有限会社,埼玉県,八潮市,大字南川崎３４０番地の３,,11,234,3400814,,,2021-10-11,清算の結了等,,,2015-10-05,1,,,,,ヨシナガセイカンジョ,0
1445,6040005018037,登記記録の閉鎖等,0,2021-10-21,2021-10-13,ＮＰＯ法人南房総スポーツワン,,その他の設立登記法人,千葉県,館山市,八幡８２１番地の１,,12,205,2940047,,,2021-10-13,清算の結了等,,,2015-10-05,1,,,,,,0
1450,6050001043657,登記記録の閉鎖等,0,2021-10-21,2021-10-13,株式会社ＳＯＵＲ＆Ｃｏ．,,株式会社,東京都,中央区,新川２丁目１８番４号八重洲マンション４０１,,13,102,1040033,,,2021-10-13,清算の結了等,,,2017-11-16,1,,,,,サワーアンドカンパニー,0
1456,6060001014038,登記記録の閉鎖等,0,2021-10-21,2021-10-13,株式会社飯塚製作所,,株式会社,栃木県,小山市,大字間々田１１６８番地,,09,208,3290205,,,2021-10-13,清算の結了等,,,2015-10-05,1,,,,,イイズカセイサクショ,0
1461,6060005003235,登記記録の閉鎖等,0,2021-10-21,2021-10-14,特定非営利活動法人デイホームやわらぎの会,,その他の設立登記法人,栃木県,真岡市,上大沼２丁目１９番地１９,,09,209,3214355,,,2021-10-14,清算の結了等,,,2015-10-05,1,,,,,デイホームヤワラギノカイ,0
1466,6080101018795,登記記録の閉鎖等,0,2021-10-21,2021-10-13,株式会社シュシュ,,株式会社,静岡県,富士市,本町１６番２０号,,22,210,4160914,,,2021-10-13,清算の結了等,,,2015-12-07,1,,,,,,0
1525,6180001047265,登記記録の閉鎖等,0,2021-10-21,2021-10-14,株式会社インターフェイス,,株式会社,愛知県,名古屋市昭和区,石仏一丁目４２番地の２,,23,107,4660000,,,2021-10-14,清算の結了等,,,2015-10-05,1,,,,,インターフェイス,0
1528,6180002003143,登記記録の閉鎖等,0,2021-10-21,2021-10-11,有限会社万侑,,有限会社,愛知県,名古屋市名東区,高社１丁目２３６番地,,23,115,4650095,,,2021-10-11,清算の結了等,,,2015-10-05,1,,,,,バンユウ,0
1529,6180003012977,登記記録の閉鎖等,0,2021-10-21,2021-10-18,合資会社新美商事,,合資会社,愛知県,知多郡東浦町,大字藤江字山敷２９番地の１,,23,442,4702105,,,2021-10-18,清算の結了等,,,2015-10-05,1,,,,,ニイミショウジ,0
1564,6290002047030,登記記録の閉鎖等,0,2021-10-21,2021-10-01,有限会社江田自動車工場,,有限会社,福岡県,八女市,黒木町桑原９９４番地の２,,40,210,8341216,,,2021-10-01,清算の結了等,,,2015-10-05,1,,,,,エダジドウシャコウジョウ,0
1575,6340001000315,登記記録の閉鎖等,0,2021-10-21,2021-10-19,株式会社旭プラネット,,株式会社,鹿児島県,鹿児島市,荒田１丁目３番１９号,,46,201,8900054,,,2021-10-19,清算の結了等,,,2015-10-05,1,,,,,アサヒプラネット,0
1603,6430001031755,登記記録の閉鎖等,0,2021-10-21,2021-10-19,エーワン工業株式会社,,株式会社,北海道,札幌市西区,発寒一条４丁目１番８－１００３号,,01,107,0630821,,,2021-10-19,清算の結了等,,,2015-10-05,1,,,,,エーワンコウギョウ,0
1611,6500001001437,登記記録の閉鎖等,0,2021-10-21,2021-10-20,株式会社客野自動車,,株式会社,愛媛県,松山市,別府町２８５番地,,38,201,7918056,,,2021-10-20,清算の結了等,,,2015-10-05,1,,,,,キャクノジドウシャ,0
1617,7010001133519,登記記録の閉鎖等,0,2021-10-21,2021-10-19,株式会社シーエルピー,,株式会社,東京都,板橋区,大山東町３２番１６号,,13,119,1730014,,,2021-10-19,清算の結了等,,,2015-10-05,1,,,,,シーエルピー,0
1623,7010101007812,登記記録の閉鎖等,0,2021-10-21,2021-10-19,株式会社アームス,,株式会社,東京都,八王子市,下柚木２５６番地１,,13,201,1920372,,,2021-10-19,清算の結了等,,,2015-10-05,1,,,,,,0
1631,7010401130693,登記記録の閉鎖等,0,2021-10-21,2021-10-07,株式会社マーケティング・グラビティ,,株式会社,東京都,港区,西新橋２丁目６番２号,,13,103,1050003,,,2021-10-07,清算の結了等,,,2017-04-12,1,,,,,マーケティンググラビティ,0
1634,7010402009318,登記記録の閉鎖等,0,2021-10-21,2021-10-07,有限会社虎ノ門三河屋,,有限会社,東京都,港区,虎ノ門５丁目５番１号アークヒルズ仙石山テラス７０２号,,13,103,1050001,,,2021-10-07,清算の結了等,,,2015-10-05,1,,,,,トラノモンミカワヤ,0
1662,7011101076236,登記記録の閉鎖等,0,2021-10-21,2021-10-07,株式会社ＩＮＴＥＲＰＡＲＫ　ＴＯＵＲ　ＪＡＰＡＮ,,株式会社,東京都,港区,虎ノ門４丁目１番１号,,13,103,1050001,,,2021-10-07,清算の結了等,,,2016-03-08,1,,,,,インターパークツアージャパン,0
1666,7011103005820,登記記録の閉鎖等,0,2021-10-21,2021-10-18,合同会社Ｄ＆Ｄ４,,合同会社,東京都,新宿区,新宿１丁目３番８号ＹＫＢ新宿御苑ビル４Ｆ,,13,104,1600022,,,2021-10-18,清算の結了等,,,2015-10-05,1,,,,,ディーアンドディーフォー,0
1689,7013305000244,登記記録の閉鎖等,0,2021-10-21,2021-09-29,天理教紀久谷分教会,,その他の設立登記法人,東京都,豊島区,西池袋２丁目３番２０号,,13,116,1710021,,,2021-09-29,合併による解散等,8012405001011,令和３年９月２１日東京都調布市多摩川五丁目２７番地３天理教日東紀分教会（8012405001011）に合併し解散,2015-10-05,1,,,,,テンリキョウキクタニブンキョウカイ,0
1691,7020001079942,登記記録の閉鎖等,0,2021-10-21,2021-10-07,Ｒホールディングス株式会社,,株式会社,東京都,港区,東新橋２丁目９番４号ヴィア・パルコビル３Ｆ,,13,103,1050021,,,2021-10-07,清算の結了等,,,2015-10-05,1,,,,,,0
1694,7020002093793,登記記録の閉鎖等,0,2021-10-21,2021-10-18,有限会社荒川電気工事,,有限会社,神奈川県,川崎市麻生区,王禅寺東３丁目３２番２３号,,14,137,2150018,,,2021-10-18,清算の結了等,,,2015-10-05,1,,,,,アラカワデンキコウジ,0
1696,7020005001811,登記記録の閉鎖等,0,2021-10-21,2021-10-18,医療法人社団田歯会,,その他の設立登記法人,神奈川県,横浜市南区,榎町２丁目５９番地,,14,105,2320044,,,2021-10-18,清算の結了等,,,2015-10-05,1,,,,,デンシカイ,0
1698,7021001036553,登記記録の閉鎖等,0,2021-10-21,2021-10-19,神奈川西パナホーム株式会社,,株式会社,神奈川県,平塚市,田村５丁目１９番３号,,14,203,2540013,,,2021-10-19,清算の結了等,,,2015-10-05,1,,,,,カナガワニシパナホーム,0
1702,7030001012860,登記記録の閉鎖等,0,2021-10-21,2021-10-12,株式会社ユーキ,,株式会社,埼玉県,さいたま市北区,宮原町３丁目１９１番地５,,11,102,3310812,,,2021-10-12,清算の結了等,,,2015-10-05,1,,,,,ユーキ,0
1713,7040001025085,登記記録の閉鎖等,0,2021-10-21,2021-10-19,アーチソリューションズ株式会社,,株式会社,東京都,渋谷区,代々木１丁目５８番１０号第一西脇ビル５階,,13,113,1510053,,,2021-10-19,清算の結了等,,,2015-10-05,1,,,,,,0
1727,7040005020925,登記記録の閉鎖等,0,2021-10-21,2021-10-15,一般社団法人ＧＲＥＥＮ　ＦＲＯＧ,,その他の設立登記法人,千葉県,八千代市,八千代台東６丁目１０番１０号,,12,221,2760032,,,2021-10-15,清算の結了等,,,2020-09-16,1,,,,,グリーンフロッグ,0
1732,7060001007973,登記記録の閉鎖等,0,2021-10-21,2021-10-15,株式会社ヨコヤマ,,株式会社,栃木県,宇都宮市,山本３丁目１４番７号,,09,201,3200012,,,2021-10-15,清算の結了等,,,2015-10-05,1,,,,,ヨコヤマ,0
1743,7110002029193,登記記録の閉鎖等,0,2021-10-21,2021-10-14,有限会社マルサン製菓所,,有限会社,新潟県,長岡市,中沢町１７８０番地１,,15,202,9400854,,,2021-10-14,清算の結了等,,,2015-10-05,1,,,,,マルサンセイカショ,0
1789,7180003012167,登記記録の閉鎖等,0,2021-10-21,2021-10-18,合資会社オーエムサービス,,合資会社,愛知県,稲沢市,大塚南９丁目９５番地,,23,220,4928214,,,2021-10-18,清算の結了等,,,2015-10-05,1,,,,,オーエムサービス,0
1798,7200005001248,登記記録の閉鎖等,0,2021-10-21,2021-10-20,長良川素材生産協同組合,,その他の設立登記法人,岐阜県,岐阜市,八代３丁目２６番１０号,,21,201,5020812,,,2021-10-20,清算の結了等,,,2015-10-05,1,,,,,ナガラガワソザイセイサン,0
1800,7220001002099,登記記録の閉鎖等,0,2021-10-21,2021-10-19,金沢信販株式会社,,株式会社,石川県,金沢市,彦三町２丁目１番３４号,,17,201,9200901,,,2021-10-19,清算の結了等,,,2015-10-05,1,,,,,カナザワシンパン,0
1829,7340001012565,登記記録の閉鎖等,0,2021-10-21,2021-10-19,株式会社リンク,,株式会社,鹿児島県,南さつま市,加世田宮原２４００番地,,46,220,8971124,,,2021-10-19,清算の結了等,,,2015-10-05,1,,,,,リンク,0
1833,7360003004385,登記記録の閉鎖等,0,2021-10-21,2021-10-15,合資会社ニシメテクノス,,合資会社,沖縄県,沖縄市,知花１丁目１６番２１号,,47,211,9042143,,,2021-10-15,清算の結了等,,,2015-10-05,1,,,,,ニシメテクノス,0
1839,7380003004103,登記記録の閉鎖等,0,2021-10-21,2021-10-18,グリーンライト合同会社,,合同会社,福島県,郡山市,富久山町久保田字下河原１９１番地の１,,07,203,9638071,,,2021-10-18,合併による解散等,4013303003268,令和３年１０月１日東京都港区新橋五丁目６番４号トゥシェ新橋９０４号グリーンバリー株式会社（4013303003268）に合併し解散,2017-09-27,1,,,,,,0
1842,7390002009647,登記記録の閉鎖等,0,2021-10-21,2021-10-18,有限会社成田機械,,有限会社,山形県,鶴岡市,宝田３丁目８番２５号,,06,203,9970011,,,2021-10-18,清算の結了等,,,2015-10-05,1,,,,,ナリタキカイ,0
1843,7410005002654,登記記録の閉鎖等,0,2021-10-21,2021-10-13,尚徳舘,,その他の設立登記法人,秋田県,湯沢市,桑崎字街道西６６番地１３,,05,207,0190202,,,2021-10-13,清算の結了等,,,2015-10-05,1,,,,,ショウトクカン,0
1855,7430002027438,登記記録の閉鎖等,0,2021-10-21,2021-10-18,有限会社ユウ,,有限会社,北海道,石狩市,樽川八条２丁目１０１番地,,01,235,0613258,,,2021-10-18,清算の結了等,,,2015-10-05,1,,,,,ユウ,0
1865,8010001097325,登記記録の閉鎖等,0,2021-10-21,2021-10-12,セルト株式会社,,株式会社,東京都,千代田区,丸の内２丁目３番１号,,13,101,1000005,,,2021-10-12,清算の結了等,,,2015-10-05,1,,,,,セルト,0
1880,8010401135907,登記記録の閉鎖等,0,2021-10-21,2021-10-06,株式会社ＣＢアドバイザリー,,株式会社,東京都,港区,浜松町１丁目１８番１６号住友浜松町ビル,,13,103,1050013,,,2021-10-06,合併による解散等,7010401107213,令和３年１０月１日東京都港区浜松町一丁目１８番１６号住友浜松町ビル株式会社ＣＢコンサルティング（7010401107213）に合併し解散,2018-01-16,1,,,,,シービーアドバイザリー,0
1881,8010401161226,登記記録の閉鎖等,0,2021-10-21,2021-10-19,株式会社ＰＲＡＺＮＡ,,株式会社,東京都,港区,虎ノ門４丁目１－２８,,13,103,1050001,,,2021-10-19,合併による解散等,3010003034842,令和３年１０月１日東京都文京区本郷二丁目３５番１０号本郷瀬川ビル４Ｆ株式会社ＰＲＡＺＮＡ（3010003034842）に合併し解散,2021-07-08,1,,,,,プラズナ,0
1887,8010601050831,登記記録の閉鎖等,0,2021-10-21,2021-10-13,株式会社聖廣,,株式会社,東京都,日野市,落川７番地１１,,13,212,1910034,,,2021-10-13,清算の結了等,,,2016-12-12,1,,,,,セイコウ,0
1922,8011502011699,登記記録の閉鎖等,0,2021-10-21,2021-10-15,有限会社有信堂書店,,有限会社,東京都,荒川区,西尾久７丁目５番１１号,,13,118,1160011,,,2021-10-15,清算の結了等,,,2015-10-05,1,,,,,ユウシンドウショテン,0
1924,8011601001163,登記記録の閉鎖等,0,2021-10-21,2021-10-18,株式会社旺千企画,,株式会社,東京都,練馬区,早宮４丁目１６番１号,,13,120,1790085,,,2021-10-18,清算の結了等,,,2015-10-05,1,,,,,オウセンキカク,0
1928,8011802016654,登記記録の閉鎖等,0,2021-10-21,2021-10-13,有限会社中久喜保険事務所,,有限会社,千葉県,野田市,山崎１４７５番地の２４,,12,208,2780022,,,2021-10-13,清算の結了等,,,2015-10-05,1,,,,,ナカクキホケンジムショ,0
1930,8012302005890,登記記録の閉鎖等,0,2021-10-21,2021-10-08,有限会社みのり,,有限会社,東京都,町田市,南成瀬７丁目１０番地５,,13,209,1940045,,,2021-10-08,清算の結了等,,,2015-10-05,1,,,,,,0
1936,8012705001909,登記記録の閉鎖等,0,2021-10-21,2021-10-18,一般財団法人松風会,,その他の設立登記法人,東京都,東久留米市,学園町２丁目１８番２号沢村屋ビル３０１号室,,13,222,2030021,,,2021-10-18,清算の結了等,,,2015-10-05,1,,,,,ショウフウカイ,0
1974,8030001110358,登記記録の閉鎖等,0,2021-10-21,2021-10-12,サンライズシステム株式会社,,株式会社,埼玉県,羽生市,大字名１０番地１,,11,216,3480002,,,2021-10-12,清算の結了等,,,2015-10-05,1,,,,,サンライズシステム,0
1986,8040001088354,登記記録の閉鎖等,0,2021-10-21,2021-10-13,株式会社Ｒｏｃｋ　Ｓｔｙｌｅ,,株式会社,千葉県,木更津市,請西東５丁目１６番地１２,,12,206,2920806,,,2021-10-13,清算の結了等,,,2015-10-05,1,,,,,,0
2005,8100005010679,登記記録の閉鎖等,0,2021-10-21,2021-10-18,特定非営利活動法人いのちと平和の森飯綱高原,,その他の設立登記法人,長野県,長野市,大字西尾張部１１１５番地５,,20,201,3810031,,,2021-10-18,清算の結了等,,,2015-10-05,1,,,,,イノチトヘイワノモリイイヅナコウゲン,0
2007,8110002007181,登記記録の閉鎖等,0,2021-10-21,2021-10-19,有限会社渡部商産,,有限会社,新潟県,新潟市西区,小針５丁目１０番８号,,15,107,9502022,,,2021-10-19,清算の結了等,,,2015-10-05,1,,,,,,0
2018,8120001158272,登記記録の閉鎖等,0,2021-10-21,2021-10-20,株式会社三ツ葉,,株式会社,大阪府,門真市,幸福町８番２号,,27,223,5710066,,,2021-10-20,清算の結了等,,,2015-10-05,1,,,,,,0
2030,8120003015422,登記記録の閉鎖等,0,2021-10-21,2021-10-18,ＭｅｏＭｅｏｗ合同会社,,合同会社,大阪府,大阪市平野区,加美東６丁目２番２５,,27,126,5470002,,,2021-10-18,清算の結了等,,,2019-03-08,1,,,,,ミャオミャウ,0
2042,8140001047531,登記記録の閉鎖等,0,2021-10-21,2021-10-18,アムスエステート株式会社,,株式会社,兵庫県,尼崎市,名神町１丁目１２番１１号－２０３,,28,202,6610021,,,2021-10-18,清算の結了等,,,2015-10-05,1,,,,,アムスエステート,0
2054,8170005006605,登記記録の閉鎖等,0,2021-10-21,2021-10-21,きのくに未来社会保険労務士法人,,その他の設立登記法人,和歌山県,和歌山市,寄合町２４番地,,30,201,6408214,,,2021-10-21,清算の結了等,,,2017-08-25,1,,,,,キノクニミライ,0
2068,8200001037170,登記記録の閉鎖等,0,2021-10-21,2021-10-19,株式会社ひょうたん島アクティブスタジオＫＩＢＯＨ,,株式会社,岐阜県,大垣市,和合本町２丁目１４３番地１,,21,202,5030005,,,2021-10-19,清算の結了等,,,2020-02-25,1,,,,,ヒョウタンジマアクティブスタジオキボー,0
2071,8200002005028,登記記録の閉鎖等,0,2021-10-21,2021-10-20,有限会社山龍太田屋商店,,有限会社,岐阜県,羽島郡笠松町,西金池町１番地,,21,303,5016037,,,2021-10-20,清算の結了等,,,2015-10-05,1,,,,,ヤマリュウオオタヤショウテン,0
2075,8220002011098,登記記録の閉鎖等,0,2021-10-21,2021-10-15,有限会社舟津航平撚糸工場,,有限会社,石川県,小松市,今江町３丁目３６３番地,,17,203,9230964,,,2021-10-15,清算の結了等,,,2015-10-05,1,,,,,フナツコウヘイネンシコウジョウ,0
2082,8240002051357,登記記録の閉鎖等,0,2021-10-21,2021-10-19,有限会社福本商店,,有限会社,広島県,尾道市,東尾道６番地１７,,34,205,7220051,,,2021-10-19,清算の結了等,,,2015-10-05,1,,,,,フクモトショウテン,0
2085,8250001008927,登記記録の閉鎖等,0,2021-10-21,2021-10-19,周南マリン株式会社,,株式会社,山口県,光市,大字三井８８４番地,,35,210,7430052,,,2021-10-19,清算の結了等,,,2015-10-05,1,,,,,シュウナンマリン,0
2103,8330002030558,登記記録の閉鎖等,0,2021-10-21,2021-10-15,有限会社宮尾畜産,,有限会社,熊本県,球磨郡相良村,大字川辺６８番地の１８,,43,510,8680093,,,2021-10-15,清算の結了等,,,2015-10-05,1,,,,,ミヤオチクサン,0
2114,8360002014021,登記記録の閉鎖等,0,2021-10-21,2021-10-14,有限会社つばさ,,有限会社,沖縄県,うるま市,字西原３１０番地の２,,47,213,9042204,,,2021-10-14,清算の結了等,,,2015-10-05,1,,,,,ツバサ,0
2117,8370001020770,登記記録の閉鎖等,0,2021-10-21,2021-10-15,株式会社近畿日本ツーリスト東北,,株式会社,宮城県,仙台市青葉区,中央１丁目７－２０,,04,101,9800021,,,2021-10-15,合併による解散等,2010001187437,令和３年１０月１日東京都新宿区西新宿二丁目６番１号近畿日本ツーリスト株式会社（2010001187437）に合併し解散,2015-10-05,1,,,,,キンキニッポンツーリストトウホク,0
2132,8450001008386,登記記録の閉鎖等,0,2021-10-21,2021-10-19,稚内空港ビル株式会社,,株式会社,北海道,稚内市,大字声問村字声問６７４４番地,,01,214,0986642,,,2021-10-19,合併による解散等,7430001079728,令和３年１０月１日北海道千歳市美々９８７番地２２北海道エアポート株式会社（7430001079728）に合併し解散,2015-10-05,1,,,,,ワッカナイクウコウビル,0
2136,8470002002956,登記記録の閉鎖等,0,2021-10-21,2021-10-19,有限会社斎藤看板店,,有限会社,香川県,高松市,栗林町１丁目２番１２号,,37,201,7600073,,,2021-10-19,清算の結了等,,,2015-10-05,1,,,,,サイトウカンバンテン,0
2145,9010001060488,登記記録の閉鎖等,0,2021-10-21,2021-10-13,株式会社リトルランド,,株式会社,東京都,中央区,日本橋小伝馬町１４番１４号,,13,102,1030001,,,2021-10-13,清算の結了等,,,2015-10-05,1,,,,,リトルランド,0
2147,9010001125051,登記記録の閉鎖等,0,2021-10-21,2021-10-14,株式会社エイダイ,,株式会社,東京都,多摩市,桜ヶ丘３丁目２０番地の１,,13,224,2060013,,,2021-10-14,清算の結了等,,,2015-10-05,1,,,,,エイダイ,0
2148,9010001168356,登記記録の閉鎖等,0,2021-10-21,2021-10-14,株式会社森羅,,株式会社,東京都,豊島区,高田２丁目１６番１３号シティテラス目白Ｃ１５０１号,,13,116,1710033,,,2021-10-14,清算の結了等,,,2015-10-05,1,,,,,シンラ,0
2167,9010403009439,登記記録の閉鎖等,0,2021-10-21,2021-10-07,ミラコローザ合同会社デラルティスタ,,合同会社,東京都,港区,南青山２丁目２番１５号ウィン青山１４０３,,13,103,1070062,,,2021-10-07,清算の結了等,,,2015-10-05,1,,,,,,0
2190,9011002028739,登記記録の閉鎖等,0,2021-10-21,2021-10-14,有限会社ティーアンドエム,,有限会社,東京都,渋谷区,広尾３丁目１７番２７－５０８号,,13,113,1500012,,,2021-10-14,合併による解散等,2010401051390,令和３年１０月１日東京都港区六本木六丁目２番３１号六本木ヒルズノースタワー７階株式会社ティージーエー（2010401051390）に合併し解散,2015-10-05,1,,,,,,0
2201,9011103005819,登記記録の閉鎖等,0,2021-10-21,2021-10-18,合同会社Ｄ＆Ｄ３,,合同会社,東京都,新宿区,新宿１丁目３番８号ＹＫＢ新宿御苑ビル４Ｆ,,13,104,1600022,,,2021-10-18,清算の結了等,,,2015-10-05,1,,,,,ディーアンドディースリー,0
2226,9020001042881,登記記録の閉鎖等,0,2021-10-21,2021-10-15,マクニカネットワークス株式会社,,株式会社,神奈川県,横浜市港北区,新横浜１丁目５番地５,,14,109,2220033,,,2021-10-15,合併による解散等,2020001032286,令和３年１０月１日横浜市港北区新横浜一丁目６番地３株式会社マクニカ（2020001032286）に合併し解散,2015-10-05,1,,,,,マクニカネットワークス,0
2230,9020001131973,登記記録の閉鎖等,0,2021-10-21,2021-10-18,株式会社ミニーの首輪,,株式会社,神奈川県,横浜市西区,高島２丁目１９番２号神谷ビル６階,,14,103,2200011,,,2021-10-18,清算の結了等,,,2019-07-12,1,,,,,ミニーノクビワ,0
2236,9020002084931,登記記録の閉鎖等,0,2021-10-21,2021-10-15,有限会社フジエース,,有限会社,神奈川県,川崎市中原区,新城１丁目１１番３号,,14,133,2110044,,,2021-10-15,清算の結了等,,,2015-10-05,1,,,,,フジエース,0
2247,9030001003338,登記記録の閉鎖等,0,2021-10-21,2021-10-18,サーキットテクノロジー株式会社,,株式会社,埼玉県,さいたま市中央区,大字下落合１００３番地,,11,105,3380002,,,2021-10-18,合併による解散等,9390001011189,令和３年１０月１日山形県長井市草岡字境田２５５８～２番地山形日信電子株式会社（9390001011189）に合併し解散,2015-10-05,1,,,,,サーキットテクノロジー,0
2248,9030001041940,登記記録の閉鎖等,0,2021-10-21,2021-10-14,武甲メディクス株式会社,,株式会社,埼玉県,上尾市,柏座２丁目１３番１０号,,11,219,3620075,,,2021-10-14,清算の結了等,,,2015-10-05,1,,,,,ブコウメディクス,0
2279,9070001029602,登記記録の閉鎖等,0,2021-10-21,2021-10-19,株式会社メトロ,,株式会社,群馬県,伊勢崎市,柴町３３７番地３,,10,204,3720824,,,2021-10-19,清算の結了等,,,2015-10-05,1,,,,,メトロ,0
2287,9080102010740,登記記録の閉鎖等,0,2021-10-21,2021-10-13,有限会社総建サービス,,有限会社,静岡県,田方郡函南町,塚本４４５番地の２,,22,325,4190124,,,2021-10-13,清算の結了等,,,2015-10-05,1,,,,,,0
2320,9140002069912,登記記録の閉鎖等,0,2021-10-21,2021-10-18,有限会社マイム津田,,有限会社,兵庫県,南あわじ市,北阿万伊賀野１４７２番地,,28,224,6560531,,,2021-10-18,清算の結了等,,,2015-10-05,1,,,,,,0
2341,9190002000756,登記記録の閉鎖等,0,2021-10-21,2021-10-20,有限会社シャンタンバラン,,有限会社,三重県,津市,半田９３４番地５７,,24,201,5140823,,,2021-10-20,清算の結了等,,,2015-10-05,1,,,,,シャンタンバラン,0
2342,9190002003016,登記記録の閉鎖等,0,2021-10-21,2021-10-20,有限会社アピカ,,有限会社,三重県,津市,白山町川口７９５４番地,,24,201,5152603,,,2021-10-20,清算の結了等,,,2015-10-05,1,,,,,アピカ,0
2373,9300001009398,登記記録の閉鎖等,0,2021-10-21,2021-10-12,株式会社久富建設,,株式会社,佐賀県,三養基郡みやき町,大字原古賀１８４９－１,,41,346,8490101,,,2021-10-12,清算の結了等,,,2015-10-05,1,,,,,ヒサドミケンセツ,0
2374,9300001010570,登記記録の閉鎖等,0,2021-10-21,2021-10-15,株式会社ローレル・コンサルティング,,株式会社,佐賀県,三養基郡みやき町,大字市武１４６９番地,,41,346,8401106,,,2021-10-15,清算の結了等,,,2016-11-28,1,,,,,ローレルコンサルティング,0
2380,9320205000234,登記記録の閉鎖等,0,2021-10-21,2021-09-14,天理教南鶴分教会,,その他の設立登記法人,大分県,臼杵市,大字左津留１９２番地,,44,206,8750074,,,2021-09-14,合併による解散等,8320205000235,令和３年９月１４日大分県臼杵市大字福良１９５６番地天理教理豊分教会（8320205000235）に合併し解散,2015-10-05,1,,,,,,0
2389,9370001013245,登記記録の閉鎖等,0,2021-10-21,2021-10-18,ジェイピースト株式会社,,株式会社,宮城県,仙台市青葉区,堤町３丁目１番１５号,,04,101,9810912,,,2021-10-18,清算の結了等,,,2015-10-05,1,,,,,ジェイピースト,0
2412,9490002007432,登記記録の閉鎖等,0,2021-10-21,2021-10-21,有限会社正匠,,有限会社,高知県,高知市,井口町１７９番地,,39,201,7800921,,,2021-10-21,清算の結了等,,,2015-10-05,1,,,,,セイショウ,0
2413,9490002011698,登記記録の閉鎖等,0,2021-10-21,2021-10-18,有限会社後免燃料,,有限会社,高知県,南国市,日吉町１丁目１番８号,,39,204,7830001,,,2021-10-18,清算の結了等,,,2015-10-05,1,,,,,ゴメンネンリョウ,0
