sequenceNumber,corporateNumber,process,correct,updateDate,changeDate,name,nameImageId,kind,prefectureName,cityName,streetNumber,addressImageId,prefectureCode,cityCode,postCode,addressOutside,addressOutsideImageId,closeDate,closeCause,successorCorporateNumber,changeCause,assignmentDate,latest,enName,enPrefectureName,enCityName,enAddressOutside,furigana,hihyoji
14,1010003037558,登記記録の閉鎖等,0,2023-09-20,2023-09-12,メラシス合同会社,,合同会社,東京都,千代田区,内神田２丁目２番６号５階あすな会計事務所内,,13,101,1010047,,,2023-09-12,清算の結了等,,,2022-04-28,1,,,,,メラシス,0
15,1010005035246,登記記録の閉鎖等,0,2023-09-20,2023-09-15,ＡＬＪ　Ｓｔｕｄｅｎｔ　Ｈｏｕｓｉｎｇ一般社団法人,,その他の設立登記法人,東京都,千代田区,神田神保町１丁目１１番地さくら綜合事務所内,,13,101,1010051,,,2023-09-15,清算の結了等,,,2022-07-11,1,,,,,エーエルジェースチューデントハウジング,0
25,1010401153007,登記記録の閉鎖等,0,2023-09-20,2023-08-31,株式会社Ｅｒｓｔｅｌｌｅｎ,,株式会社,東京都,港区,海岸３丁目２４－１７ＳＵＺＵＳＡＷＡビル２Ｆ,,13,103,1080022,,,2023-08-31,清算の結了等,,,2020-05-28,1,,,,,エステレン,0
27,1010502014149,登記記録の閉鎖等,0,2023-09-20,2023-09-14,有限会社マローズ,,有限会社,東京都,台東区,竜泉３丁目１３番７号,,13,106,1100012,,,2023-09-14,清算の結了等,,,2023-05-11,1,,,,,,0
44,1011301008309,登記記録の閉鎖等,0,2023-09-20,2023-09-14,株式会社チューリング,,株式会社,東京都,杉並区,下高井戸３丁目３１番１６号,,13,115,1680073,,,2023-09-14,清算の結了等,,,2015-10-05,1,,,,,チューリング,0
48,1011401017936,登記記録の閉鎖等,0,2023-09-20,2023-09-15,株式会社想Ｃｏｒｐｏｒａｔｉｏｎ,,株式会社,東京都,板橋区,板橋３丁目５９番８号,,13,119,1730004,,,2023-09-15,清算の結了等,,,2015-10-05,1,,,,,ソウコーポレーション,0
56,1020001048820,登記記録の閉鎖等,0,2023-09-20,2023-09-11,株式会社やよいフードサービス,,株式会社,神奈川県,横浜市泉区,中田西２丁目８番１４－３０１号,,14,116,2450015,,,2023-09-11,清算の結了等,,,2015-10-05,1,,,,,ヤヨイフードサービス,0
82,1030001074510,登記記録の閉鎖等,0,2023-09-20,2023-08-25,株式会社木屋,,株式会社,埼玉県,川口市,戸塚東２丁目４番９号,,11,203,3330802,,,2023-08-25,清算の結了等,,,2015-10-05,1,,,,,キヤ,0
106,1040005007903,登記記録の閉鎖等,0,2023-09-20,2023-08-21,医療法人社団地曵皮膚科医院,,その他の設立登記法人,千葉県,木更津市,大和１丁目４番１号,,12,206,2920805,,,2023-08-21,清算の結了等,,,2015-10-05,1,,,,,ジビキヒフカイイン,0
117,1080101015120,登記記録の閉鎖等,0,2023-09-20,2023-09-14,株式会社介護支援センターあい,,株式会社,静岡県,賀茂郡南伊豆町,湊３８９番地の１,,22,304,4150152,,,2023-09-14,清算の結了等,,,2015-10-05,1,,,,,カイゴシエンセンターアイ,0
118,1080401013443,登記記録の閉鎖等,0,2023-09-20,2023-09-19,株式会社タクス,,株式会社,静岡県,浜松市中区,上島５丁目１０番１号,,22,131,4338122,,,2023-09-19,清算の結了等,,,2015-10-05,1,,,,,タクス,0
123,1110002025859,登記記録の閉鎖等,0,2023-09-20,2023-09-04,有限会社マサミ総業,,有限会社,新潟県,十日町市,新宮乙１７４番地８,,15,210,9498526,,,2023-09-04,清算の結了等,,,2015-10-05,1,,,,,マサミソウギョウ,0
125,1110005015766,登記記録の閉鎖等,0,2023-09-20,2023-09-14,ロングライフエフォート協同組合,,その他の設立登記法人,新潟県,新潟市中央区,神道寺２丁目１番１号,,15,103,9500983,,,2023-09-14,清算の結了等,,,2015-10-05,1,,,,,ロングライフエフォート,0
147,1130001040130,登記記録の閉鎖等,0,2023-09-20,2023-09-11,株式会社エストメディック,,株式会社,三重県,北牟婁郡紀北町,東長島８６４番地１,,24,543,5193204,,,2023-09-11,清算の結了等,,,2015-10-05,1,,,,,エストメディック,0
163,1160001000627,登記記録の閉鎖等,0,2023-09-20,2023-09-14,株式会社クボカワマリンサービス,,株式会社,滋賀県,大津市,衣川２丁目１２番３６号,,25,201,5200244,,,2023-09-14,清算の結了等,,,2015-10-05,1,,,,,クボカワマリンサービス,0
167,1160002011722,登記記録の閉鎖等,0,2023-09-20,2023-09-15,有限会社プロンプト,,有限会社,滋賀県,高島市,マキノ町新保１１１０番地の４,,25,212,5201822,,,2023-09-15,清算の結了等,,,2015-10-05,1,,,,,プロンプト,0
169,1160003001383,登記記録の閉鎖等,0,2023-09-20,2023-09-19,合同会社ＦＧＳクリエイト,,合同会社,滋賀県,大津市,大萱１丁目４－２３－１Ｆ,,25,201,5202144,,,2023-09-19,清算の結了等,,,2016-05-27,1,,,,,エフジーエスクリエイト,0
177,1180003025389,登記記録の閉鎖等,0,2023-09-20,2023-09-13,アーヘン合同会社,,合同会社,愛知県,名古屋市中区,丸の内１丁目１５番２０号,,23,106,4600002,,,2023-09-13,清算の結了等,,,2023-06-21,1,,,,,アーヘン,0
187,1200001039891,登記記録の閉鎖等,0,2023-09-20,2023-09-15,岐阜環境機材株式会社,,株式会社,岐阜県,岐阜市,石切町３７番地,,21,201,5008437,,,2023-09-15,清算の結了等,,,2022-03-29,1,,,,,ギフカンキョウキザイ,0
190,1220002016244,登記記録の閉鎖等,0,2023-09-20,2023-09-15,有限会社ヴィギエンタープライズ,,有限会社,石川県,河北郡内灘町,字向粟崎５丁目２３番地の２,,17,365,9200274,,,2023-09-15,清算の結了等,,,2015-10-05,1,,,,,ヴィギエンタープライズ,0
192,1240001024766,登記記録の閉鎖等,0,2023-09-20,2023-09-11,株式会社高田設備,,株式会社,広島県,安芸高田市,甲田町高田原１０２２番地２,,34,214,7391101,,,2023-09-11,清算の結了等,,,2015-10-05,1,,,,,タカタセツビ,0
198,1250001002829,登記記録の閉鎖等,0,2023-09-20,2023-09-12,株式会社創昌,,株式会社,山口県,防府市,大字伊佐江２２５番地７７,,35,206,7470846,,,2023-09-12,清算の結了等,,,2015-10-05,1,,,,,,0
199,1250001004998,登記記録の閉鎖等,0,2023-09-20,2023-09-11,株式会社暖家,,株式会社,山口県,山口市,湯田温泉５丁目１番６号,,35,203,7530056,,,2023-09-11,清算の結了等,,,2015-10-05,1,,,,,,0
232,1380002033942,登記記録の閉鎖等,0,2023-09-20,2023-09-13,有限会社エス・エス・ティー,,有限会社,福島県,会津若松市,東千石３丁目５番３２号,,07,202,9650818,,,2023-09-13,清算の結了等,,,2015-10-05,1,,,,,エスエスティー,0
238,1430001023286,登記記録の閉鎖等,0,2023-09-20,2023-09-11,株式会社丸証,,株式会社,北海道,札幌市白石区,東札幌三条５丁目１番２０号,,01,104,0030003,,,2023-09-11,清算の結了等,,,2020-12-04,1,,,,,マルショウ,0
245,1430005006592,登記記録の閉鎖等,0,2023-09-20,2023-09-07,協同組合日専連美唄,,その他の設立登記法人,北海道,美唄市,西一条南２丁目１番２１号,,01,215,0720024,,,2023-09-07,清算の結了等,,,2015-10-05,1,,,,,ニッセンレンビバイ,0
261,2010001096233,登記記録の閉鎖等,0,2023-09-20,2023-09-14,株式会社ユークスター,,株式会社,東京都,中央区,日本橋茅場町３丁目７番３号,,13,102,1030025,,,2023-09-14,合併による解散等,4290001021723,令和５年９月１日福岡市博多区博多駅東二丁目６番２３号株式会社菱光社九州（4290001021723）に合併し解散,2015-10-05,1,,,,,ユークスター,0
270,2010005035484,登記記録の閉鎖等,0,2023-09-20,2023-09-15,一般社団法人ＡＬＪ　Ｈｅａｌｔｈｃａｒｅ２,,その他の設立登記法人,東京都,中央区,日本橋１丁目４番１号,,13,102,1030027,,,2023-09-15,清算の結了等,,,2022-08-26,1,,,,,エーエルジェイヘルスケアツー,0
275,2010401099728,登記記録の閉鎖等,0,2023-09-20,2023-08-31,ＡＩＧアセットマネジメント株式会社,,株式会社,東京都,港区,虎ノ門４丁目３番２０号,,13,103,1050001,,,2023-08-31,清算の結了等,,,2015-10-05,1,,,,,エイアイジーアセットマネジメント,0
287,2010601009156,登記記録の閉鎖等,0,2023-09-20,2023-09-13,株式会社アルテ,,株式会社,東京都,墨田区,立川４丁目４番８号,,13,107,1300023,,,2023-09-13,清算の結了等,,,2015-10-05,1,,,,,アルテ,0
305,2011101086041,登記記録の閉鎖等,0,2023-09-20,2023-09-13,ＳｋｙＳｕｐｐｏｒｔＵＳＡ株式会社,,株式会社,東京都,新宿区,荒木町２０－１６号,,13,104,1600007,,,2023-09-13,清算の結了等,,,2018-11-21,1,,,,,スカイサポートユーエスエー,0
307,2011301005916,登記記録の閉鎖等,0,2023-09-20,2023-09-11,ヒカリ販売株式会社,,株式会社,東京都,杉並区,宮前４丁目１番１９号,,13,115,1680081,,,2023-09-11,清算の結了等,,,2015-10-05,1,,,,,ヒカリハンバイ,0
308,2011302016086,登記記録の閉鎖等,0,2023-09-20,2023-09-08,有限会社千秀企画,,有限会社,東京都,杉並区,堀ノ内３丁目３番２３号ウェルフェアステージ杉並堀ノ内１０２,,13,115,1660013,,,2023-09-08,清算の結了等,,,2015-10-05,1,,,,,センシュウキカク,0
311,2011502008131,登記記録の閉鎖等,0,2023-09-20,2023-09-11,有限会社クリーンヒット,,有限会社,東京都,荒川区,西日暮里２丁目１２番７号,,13,118,1160013,,,2023-09-11,清算の結了等,,,2015-10-05,1,,,,,クリーンヒット,0
317,2013101004874,登記記録の閉鎖等,0,2023-09-20,2023-09-13,株式会社東京リプロサービス,,株式会社,東京都,羽村市,栄町１丁目１４番地の１５,,13,227,2050002,,,2023-09-13,清算の結了等,,,2015-10-05,1,,,,,トウキョウリプロサービス,0
352,2030003003193,登記記録の閉鎖等,0,2023-09-20,2023-08-16,合同会社フォークス,,合同会社,埼玉県,久喜市,南３丁目５番３８号,,11,232,3460004,,,2023-08-16,清算の結了等,,,2015-10-05,1,,,,,フォークス,0
356,2030005014916,登記記録の閉鎖等,0,2023-09-20,2023-08-04,特定非営利活動法人東洋医学未病対策協会,,その他の設立登記法人,埼玉県,飯能市,大字原市場１０６２番地１,,11,209,3570124,,,2023-08-04,清算の結了等,,,2015-10-05,1,,,,,トウヨウイガクミビョウタイサクキョウカイ,0
411,2120002001346,登記記録の閉鎖等,0,2023-09-20,2023-09-14,有限会社西尾商事,,有限会社,大阪府,大阪市鶴見区,今津北４丁目１５番１１号,,27,124,5380041,,,2023-09-14,清算の結了等,,,2015-10-05,1,,,,,ニシオショウジ,0
418,2120101052042,登記記録の閉鎖等,0,2023-09-20,2023-09-19,株式会社ＡＰＥＲＩＡ,,株式会社,大阪府,堺市堺区,少林寺町西１丁１－５エヌエムトラントトワ１ＦＤ,,27,141,5900960,,,2023-09-19,清算の結了等,,,2015-10-05,1,,,,,アペリア,0
425,2122001012332,登記記録の閉鎖等,0,2023-09-20,2023-09-12,株式会社ア・アトムテクノル近大,,株式会社,大阪府,東大阪市,小若江３丁目４番１号,,27,227,5770818,,,2023-09-12,清算の結了等,,,2015-10-05,1,,,,,アアトムテクノルキンダイ,0
432,2130001044675,登記記録の閉鎖等,0,2023-09-20,2023-09-06,株式会社アップオンデマンド,,株式会社,京都府,京都市北区,西賀茂大深町８８番地,,26,101,6038844,,,2023-09-06,清算の結了等,,,2015-10-05,1,,,,,アップオンデマンド,0
437,2130002003787,登記記録の閉鎖等,0,2023-09-20,2023-09-13,有限会社サンセイハウジング,,有限会社,愛知県,名古屋市北区,鳩岡２丁目９番１５号,,23,103,4620024,,,2023-09-13,合併による解散等,3140001007903,令和５年９月１日神戸市中央区三宮町一丁目９番１－１００４号株式会社サンセイコーポレーション（3140001007903）に合併し解散,2015-10-05,1,,,,,サンセイハウジング,0
439,2130005002992,登記記録の閉鎖等,0,2023-09-20,2023-09-08,公益財団法人京都市健康づくり協会,,その他の設立登記法人,京都府,京都市南区,西九条南田町１番地の２京都市健康増進センター内,,26,107,6018441,,,2023-09-08,清算の結了等,,,2015-10-05,1,,,,,キョウトシケンコウヅクリキョウカイ,0
447,2160001009634,登記記録の閉鎖等,0,2023-09-20,2023-09-15,株式会社ビコーズ,,株式会社,滋賀県,大津市,坂本８丁目１９番４号,,25,201,5200113,,,2023-09-15,清算の結了等,,,2015-10-05,1,,,,,ビコーズ,0
452,2180001147597,登記記録の閉鎖等,0,2023-09-20,2023-09-14,株式会社ＣＨＡＮＮＥＬ,,株式会社,愛知県,一宮市,三ツ井５丁目１０－２９,,23,203,4910827,,,2023-09-14,清算の結了等,,,2021-08-30,1,,,,,チャンネル,0
456,2180002006678,登記記録の閉鎖等,0,2023-09-20,2023-09-12,有限会社テーエヌ電機,,有限会社,愛知県,名古屋市港区,善南町１番地,,23,111,4550814,,,2023-09-12,清算の結了等,,,2015-10-05,1,,,,,テーエヌデンキ,0
473,2240001029401,登記記録の閉鎖等,0,2023-09-20,2023-09-11,三谷エンジニアリング株式会社,,株式会社,広島県,福山市,沼隈町大字草深２７８５番地の４６,,34,207,7200311,,,2023-09-11,清算の結了等,,,2015-10-05,1,,,,,ミタニエンジニアリング,0
489,2290801015364,登記記録の閉鎖等,0,2023-09-20,2023-09-19,株式会社安部機工,,株式会社,福岡県,京都郡苅田町,長浜町３５番地,,40,621,8000311,,,2023-09-19,清算の結了等,,,2015-10-05,1,,,,,アベキコウ,0
494,2320002002241,登記記録の閉鎖等,0,2023-09-20,2023-09-14,有限会社京染ふじふさ,,有限会社,大分県,大分市,大手町１丁目５番１６号,,44,201,8700022,,,2023-09-14,清算の結了等,,,2015-10-05,1,,,,,,0
495,2320002017660,登記記録の閉鎖等,0,2023-09-20,2023-09-13,有限会社宇目生コン,,有限会社,大分県,佐伯市,宇目大字千束１６７７番地１,,44,205,8793205,,,2023-09-13,清算の結了等,,,2015-10-05,1,,,,,ウメナマコン,0
496,2330002019235,登記記録の閉鎖等,0,2023-09-20,2023-09-11,有限会社發陳堂薬局,,有限会社,熊本県,熊本市北区,植木町植木１８６番地,,43,105,8610132,,,2023-09-11,清算の結了等,,,2015-10-05,1,,,,,ハツチンドウヤッキョク,0
522,2460105000426,登記記録の閉鎖等,0,2023-09-20,2023-09-14,医療法人社団柏木内科医院,,その他の設立登記法人,北海道,中川郡幕別町,札内青葉町３１１番地,,01,643,0890541,,,2023-09-14,清算の結了等,,,2015-10-05,1,,,,,カシワギナイカイイン,0
544,3010002040544,登記記録の閉鎖等,0,2023-09-20,2023-09-11,株式会社サイトカイン,,株式会社,東京都,千代田区,二番町１番地２－２２１,,13,101,1020084,,,2023-09-11,清算の結了等,,,2015-10-05,1,,,,,サイトカイン,0
555,3010403023222,登記記録の閉鎖等,0,2023-09-20,2023-08-31,セービング・アカウント合同会社,,合同会社,東京都,港区,元赤坂１丁目１番８号赤坂コミュニティビル４階,,13,103,1070051,,,2023-08-31,清算の結了等,,,2020-07-07,1,,,,,セービングアカウント,0
557,3010405015878,登記記録の閉鎖等,0,2023-09-20,2023-08-31,みずき一般社団法人,,その他の設立登記法人,東京都,港区,北青山１丁目２番３号,,13,103,1070061,,,2023-08-31,清算の結了等,,,2017-06-27,1,,,,,ミズキ,0
561,3010802019936,登記記録の閉鎖等,0,2023-09-20,2023-09-14,有限会社明文堂,,有限会社,東京都,大田区,東海３丁目２番７号Ｄ－１４,,13,111,1430001,,,2023-09-14,清算の結了等,,,2015-10-05,1,,,,,メイブンドウ,0
578,3011101063436,登記記録の閉鎖等,0,2023-09-20,2023-09-13,ジーアールソリューションズ株式会社,,株式会社,東京都,新宿区,西新宿１丁目２６番２号,,13,104,1600023,,,2023-09-13,合併による解散等,4011101085875,令和５年９月１日東京都新宿区西新宿一丁目２６番２号株式会社ＧｘＰ（4011101085875）に合併し解散,2015-10-05,1,,,,,ジーアールソリューションズ,0
589,3011602023228,登記記録の閉鎖等,0,2023-09-20,2023-09-13,有限会社ＴＡＫｕＭＩ,,有限会社,東京都,練馬区,光が丘７丁目８番１号,,13,120,1790072,,,2023-09-13,清算の結了等,,,2015-10-05,1,,,,,タクミ,0
595,3011801031592,登記記録の閉鎖等,0,2023-09-20,2023-09-14,新田商事株式会社,,株式会社,東京都,足立区,新田３丁目３１番６－４０１号,,13,121,1230865,,,2023-09-14,清算の結了等,,,2016-03-29,1,,,,,シンデンショウジ,0
598,3012401000954,登記記録の閉鎖等,0,2023-09-20,2023-09-19,株式会社ダイ・デザイン技術研究所,,株式会社,東京都,府中市,南町３丁目３１番地の４４,,13,206,1830026,,,2023-09-19,清算の結了等,,,2015-10-05,1,,,,,,0
609,3020001127944,登記記録の閉鎖等,0,2023-09-20,2023-09-15,アンジェリカジャパン株式会社,,株式会社,神奈川県,横浜市港北区,綱島西２丁目４番１４号ヘッジハウス２０６,,14,109,2230053,,,2023-09-15,合併による解散等,8130002018202,令和５年８月３１日京都市南区上鳥羽仏現寺町３５番地２ＹＫビル１号館１階株式会社明鳳（8130002018202）に合併し解散,2018-09-19,1,,,,,アンジェリカジャパン,0
622,3021003012309,登記記録の閉鎖等,0,2023-09-20,2023-09-11,合同会社Ｎａｔｕｒｅ　Ｓａｕｎａ,,合同会社,神奈川県,鎌倉市,大町２丁目９番７－２０６号,,14,204,2480007,,,2023-09-11,清算の結了等,,,2022-10-31,1,,,,,ネイチャーサウナ,0
624,3030001132357,登記記録の閉鎖等,0,2023-09-20,2023-08-28,株式会社Ｔ・Ｅ,,株式会社,埼玉県,越谷市,東越谷３丁目９番地１－１０１,,11,222,3430023,,,2023-08-28,清算の結了等,,,2019-08-08,1,,,,,ティーイー,0
642,3040002002161,登記記録の閉鎖等,0,2023-09-20,2023-09-04,有限会社オオツカ,,有限会社,千葉県,千葉市中央区,寒川町２丁目１０８番地,,12,101,2600832,,,2023-09-04,清算の結了等,,,2015-10-05,1,,,,,オオツカ,0
651,3050002002557,登記記録の閉鎖等,0,2023-09-20,2023-09-11,有限会社梅香保険事務所,,有限会社,茨城県,水戸市,河和田１丁目１５３５番地の７,,08,201,3114152,,,2023-09-11,清算の結了等,,,2015-10-05,1,,,,,バイコウホケンジムショ,0
656,3060002034657,登記記録の閉鎖等,0,2023-09-20,2023-09-06,安野自動車有限会社,,有限会社,栃木県,下都賀郡壬生町,至宝３丁目１番１５号,,09,361,3210217,,,2023-09-06,清算の結了等,,,2015-10-05,1,,,,,ヤスノジドウシャ,0
670,3080105005628,登記記録の閉鎖等,0,2023-09-20,2023-09-13,一般社団法人住まいの年金化事業促進センター,,その他の設立登記法人,静岡県,沼津市,岡宮１３５４番地の１,,22,203,4100011,,,2023-09-13,清算の結了等,,,2016-04-11,1,,,,,スマイノネンキンカジギョウソクシンセンター,0
685,3120902007474,登記記録の閉鎖等,0,2023-09-20,2023-09-13,有限会社フォレスト,,有限会社,大阪府,吹田市,千里山西３丁目４３番１号,,27,205,5650851,,,2023-09-13,清算の結了等,,,2015-10-05,1,,,,,フォレスト,0
697,3130001064301,登記記録の閉鎖等,0,2023-09-20,2023-09-04,株式会社ＳＣＲＥＥＮデコラプリント,,株式会社,京都府,京都市上京区,堀川通寺之内上る４丁目天神北町１番地の１,,26,102,6020087,,,2023-09-04,清算の結了等,,,2019-04-12,1,,,,,スクリーンデコラプリント,0
704,3140002007051,登記記録の閉鎖等,0,2023-09-20,2023-09-14,有限会社エヌ・イー企画,,有限会社,兵庫県,神戸市兵庫区,大開通６丁目２番１０号,,28,105,6520803,,,2023-09-14,清算の結了等,,,2015-10-05,1,,,,,エヌイーキカク,0
718,3180301018828,登記記録の閉鎖等,0,2023-09-20,2023-09-06,株式会社トレック,,株式会社,愛知県,豊田市,平井町６丁目７番地,,23,211,4710011,,,2023-09-06,清算の結了等,,,2015-10-05,1,,,,,トレック,0
725,3200003005816,登記記録の閉鎖等,0,2023-09-20,2023-09-15,賀金合同会社,,合同会社,岐阜県,大垣市,綾野１丁目２７１６番地８,,21,202,5030984,,,2023-09-15,清算の結了等,,,2023-01-25,1,,,,,ホウキン,0
773,3330001013130,登記記録の閉鎖等,0,2023-09-20,2023-09-12,三角町振興株式会社,,株式会社,熊本県,宇城市,三角町三角浦１２６３番地５号,,43,213,8693207,,,2023-09-12,清算の結了等,,,2015-10-05,1,,,,,ミスミマチシンコウ,0
782,3360003005081,登記記録の閉鎖等,0,2023-09-20,2023-09-13,合資会社中建設,,合資会社,沖縄県,島尻郡八重瀬町,字玻名城８７番地３,,47,362,9010513,,,2023-09-13,清算の結了等,,,2015-10-05,1,,,,,ナカケンセツ,0
787,3370002013902,登記記録の閉鎖等,0,2023-09-20,2023-09-11,有限会社柳屋ベーカリー,,有限会社,宮城県,仙台市青葉区,高野原３丁目２番地の５,,04,101,9893216,,,2023-09-11,清算の結了等,,,2015-10-05,1,,,,,ヤナギヤベーカリー,0
821,4010005028957,登記記録の閉鎖等,0,2023-09-20,2023-09-15,ベータ特定目的会社,,その他の設立登記法人,東京都,千代田区,丸の内３丁目１番１号東京共同会計事務所内,,13,101,1000005,,,2023-09-15,清算の結了等,,,2018-08-15,1,,,,,ベータ,0
822,4010102008242,登記記録の閉鎖等,0,2023-09-20,2023-09-13,有限会社ヤスカワエンジニヤリング,,有限会社,東京都,八王子市,大塚６２６番地の１４,,13,201,1920352,,,2023-09-13,清算の結了等,,,2015-10-05,1,,,,,,0
863,4020001004151,登記記録の閉鎖等,0,2023-09-20,2023-09-11,株式会社ダ・ヴインチ印刷,,株式会社,神奈川県,横浜市港南区,港南台５丁目２３番３５号,,14,111,2340054,,,2023-09-11,清算の結了等,,,2015-10-05,1,,,,,ダヴインチインサツ,0
867,4020001150689,登記記録の閉鎖等,0,2023-09-20,2023-09-11,株式会社イン・テック,,株式会社,神奈川県,川崎市麻生区,細山８丁目８番１０－２号,,14,137,2150001,,,2023-09-11,清算の結了等,,,2023-03-16,1,,,,,インテック,0
869,4020002000298,登記記録の閉鎖等,0,2023-09-20,2023-09-11,有限会社神戸縫製,,有限会社,神奈川県,横浜市栄区,鍛冶ケ谷２丁目１３番３０号,,14,115,2470009,,,2023-09-11,清算の結了等,,,2015-10-05,1,,,,,カンベホウセイ,0
871,4020002040369,登記記録の閉鎖等,0,2023-09-20,2023-09-11,樹エンジニアリング有限会社,,有限会社,神奈川県,横浜市鶴見区,鶴見中央４丁目４３番４号,,14,101,2300051,,,2023-09-11,清算の結了等,,,2015-10-05,1,,,,,ミキエンジニアリング,0
873,4021001018991,登記記録の閉鎖等,0,2023-09-20,2023-09-14,アイ・フィット工業株式会社,,株式会社,東京都,八王子市,南陽台２丁目８番６号,,13,201,1920371,,,2023-09-14,清算の結了等,,,2015-10-05,1,,,,,アイフィットコウギョウ,0
874,4021001059978,登記記録の閉鎖等,0,2023-09-20,2023-09-12,株式会社ＡＱＵＡ,,株式会社,神奈川県,横須賀市,長井５丁目５番１号,,14,201,2380316,,,2023-09-12,清算の結了等,,,2016-08-08,1,,,,,,0
890,4030002005049,登記記録の閉鎖等,0,2023-09-20,2023-08-25,有限会社小池工務店,,有限会社,埼玉県,さいたま市大宮区,三橋４丁目１１９番地,,11,103,3300856,,,2023-08-25,清算の結了等,,,2015-10-05,1,,,,,コイケコウムテン,0
903,4050003004725,登記記録の閉鎖等,0,2023-09-20,2023-09-11,合同会社育実,,合同会社,茨城県,かすみがうら市,下稲吉２０５６番地８,,08,230,3150052,,,2023-09-11,清算の結了等,,,2019-07-04,1,,,,,ハグクミ,0
918,4080005004150,登記記録の閉鎖等,0,2023-09-20,2023-09-19,特定非営利活動法人ほうむ・べいす,,その他の設立登記法人,静岡県,藤枝市,築地６７２番地の３,,22,214,4260031,,,2023-09-19,清算の結了等,,,2015-10-05,1,,,,,ホウムベイス,0
919,4080103002601,登記記録の閉鎖等,0,2023-09-20,2023-09-15,静浦海洋開発合同会社,,合同会社,静岡県,沼津市,志下６６９番地の７,,22,203,4100106,,,2023-09-15,清算の結了等,,,2022-06-09,1,,,,,シズウラカイヨウカイハツ,0
925,4100001000613,登記記録の閉鎖等,0,2023-09-20,2023-09-07,株式会社環境設備設計事務所,,株式会社,長野県,長野市,稲里町中央３丁目２９番６号,,20,201,3812217,,,2023-09-07,清算の結了等,,,2015-10-05,1,,,,,カンキョウセツビセッケイジムショ,0
931,4100002013820,登記記録の閉鎖等,0,2023-09-20,2023-09-07,有限会社上島不動産,,有限会社,長野県,上田市,常田２丁目２２番３４号,,20,203,3860018,,,2023-09-07,清算の結了等,,,2015-10-05,1,,,,,カミジマフドウサン,0
950,4122003002305,登記記録の閉鎖等,0,2023-09-20,2023-09-11,合同会社ＡＳＳ,,合同会社,大阪府,東大阪市,稲田新町２丁目３番１８号ハイムフォレスト３０２号室,,27,227,5770004,,,2023-09-11,清算の結了等,,,2022-03-31,1,,,,,エーエスエス,0
967,4160002014078,登記記録の閉鎖等,0,2023-09-20,2023-09-14,有限会社美商製作所,,有限会社,滋賀県,守山市,古高町８０８番地の２２,,25,207,5240044,,,2023-09-14,清算の結了等,,,2015-10-05,1,,,,,ビショウセイサクショ,0
972,4180001113738,登記記録の閉鎖等,0,2023-09-20,2023-09-15,株式会社二斗也組,,株式会社,愛知県,知多郡武豊町,字鹿ノ子田２丁目１１９番地２,,23,447,4702302,,,2023-09-15,清算の結了等,,,2015-10-05,1,,,,,フトヤグミ,0
983,4200001001469,登記記録の閉鎖等,0,2023-09-20,2023-09-15,株式会社岐阜ブレーキ工業所,,株式会社,岐阜県,岐阜市,本荘中ノ町７丁目２７番地の２,,21,201,5008364,,,2023-09-15,清算の結了等,,,2015-10-05,1,,,,,ギフブレーキコウギョウショ,0
984,4200002020237,登記記録の閉鎖等,0,2023-09-20,2023-09-12,有限会社三晃工芸,,有限会社,岐阜県,多治見市,根本町１０丁目２０番地,,21,204,5070065,,,2023-09-12,清算の結了等,,,2015-10-05,1,,,,,サンコウコウゲイ,0
985,4200003005344,登記記録の閉鎖等,0,2023-09-20,2023-09-19,合同会社ＴＥＡＭ　Ｌｅｅｋ,,合同会社,岐阜県,山県市,高木７００番地８,,21,215,5012113,,,2023-09-19,清算の結了等,,,2021-10-07,1,,,,,チームリーク,0
991,4230002006902,登記記録の閉鎖等,0,2023-09-20,2023-09-15,有限会社アシュランスビューロー,,有限会社,富山県,富山市,婦中町希望ケ丘５２９番地,,16,201,9392703,,,2023-09-15,清算の結了等,,,2015-10-05,1,,,,,アシュランスビューロー,0
995,4260001023623,登記記録の閉鎖等,0,2023-09-20,2023-09-11,株式会社水島住宅,,株式会社,岡山県,岡山市北区,奥田南町４番３２号,,33,101,7000934,,,2023-09-11,清算の結了等,,,2023-03-29,1,,,,,,0
1022,4370801001107,登記記録の閉鎖等,0,2023-09-20,2023-09-11,株式会社丸好土木,,株式会社,宮城県,名取市,増田４丁目５番２５号,,04,207,9811224,,,2023-09-11,清算の結了等,,,2015-10-05,1,,,,,マルヨシドボク,0
1023,4390005005398,登記記録の閉鎖等,0,2023-09-20,2023-09-14,協同組合新庄専門店会,,その他の設立登記法人,山形県,新庄市,大町３番２６号,,06,205,9960026,,,2023-09-14,清算の結了等,,,2015-10-05,1,,,,,シンジョウセンモンテンカイ,0
1025,4400002012668,登記記録の閉鎖等,0,2023-09-20,2023-09-12,有限会社北岩手ファーム,,有限会社,岩手県,二戸市,浄法寺町新山３１番地１,,03,213,0286884,,,2023-09-12,清算の結了等,,,2015-10-05,1,,,,,キタイワテファーム,0
1032,4450002000180,登記記録の閉鎖等,0,2023-09-20,2023-09-19,有限会社彩コンタクトレンズ,,有限会社,北海道,旭川市,永山四条５丁目１番２０号,,01,204,0798414,,,2023-09-19,清算の結了等,,,2015-10-05,1,,,,,アヤコンタクトレンズ,0
1034,4460302001084,登記記録の閉鎖等,0,2023-09-20,2023-09-19,有限会社長尾工業,,有限会社,北海道,北見市,中央三輪３丁目５３０番地の５５,,01,208,0900837,,,2023-09-19,清算の結了等,,,2015-10-05,1,,,,,ナガオコウギョウ,0
1038,4480002007529,登記記録の閉鎖等,0,2023-09-20,2023-09-19,有限会社井内製帽,,有限会社,徳島県,小松島市,金磯町９番１７号,,36,203,7730007,,,2023-09-19,清算の結了等,,,2015-10-05,1,,,,,イノウチセイボウ,0
1045,4700150108056,削除,,2023-09-20,,,,,,,,,,,,,,,,,,,,,,,,,
1066,5010502013923,登記記録の閉鎖等,0,2023-09-20,2023-09-15,有限会社保坂硝子エンジニアリング,,有限会社,東京都,台東区,松が谷３丁目１３番５号,,13,106,1110036,,,2023-09-15,清算の結了等,,,2015-10-05,1,,,,,ホサカガラスエンジニアリング,0
1076,5011001132660,登記記録の閉鎖等,0,2023-09-20,2023-09-07,Ｄ．Ｔａｂｌｅ株式会社,,株式会社,東京都,渋谷区,恵比寿４丁目２０番３号,,13,113,1500013,,,2023-09-07,合併による解散等,1011001028193,令和５年８月３１日東京都渋谷区恵比寿四丁目２０番３号デジタル・アドバタイジング・コンソーシアム株式会社（1011001028193）に合併し解散,2020-03-03,1,,,,,ディーテーブル,0
1082,5011101071073,登記記録の閉鎖等,0,2023-09-20,2023-09-13,グロース・インク株式会社,,株式会社,東京都,新宿区,西新宿１丁目２６番２号,,13,104,1600023,,,2023-09-13,合併による解散等,4011101085875,令和５年９月１日東京都新宿区西新宿一丁目２６番２号株式会社ＧｘＰ（4011101085875）に合併し解散,2015-10-05,1,,,,,グロースインク,0
1088,5011501023946,登記記録の閉鎖等,0,2023-09-20,2023-09-11,株式会社タナカ建築,,株式会社,東京都,北区,神谷３丁目２３－２１,,13,117,1150043,,,2023-09-11,清算の結了等,,,2018-08-02,1,,,,,タナカケンチク,0
1100,5012802005583,登記記録の閉鎖等,0,2023-09-20,2023-09-12,有限会社ケイズ,,有限会社,東京都,東大和市,芋窪４丁目１７５５番地の６,,13,220,2070033,,,2023-09-12,清算の結了等,,,2015-10-05,1,,,,,ケイズ,0
1122,5030003002473,登記記録の閉鎖等,0,2023-09-20,2023-08-10,合同会社和光針灸接骨院,,合同会社,埼玉県,和光市,本町１５番５１号和光ビル２階,,11,229,3510114,,,2023-08-10,清算の結了等,,,2015-10-05,1,,,,,ワコウシンキュウセッコツイン,0
1125,5040001015245,登記記録の閉鎖等,0,2023-09-20,2023-09-05,株式会社ワールド計量器,,株式会社,千葉県,習志野市,茜浜１丁目２番１４号,,12,216,2750024,,,2023-09-05,清算の結了等,,,2015-10-05,1,,,,,,0
1132,5040002027710,登記記録の閉鎖等,0,2023-09-20,2023-08-31,有限会社エイチ・アイ・ティー,,有限会社,千葉県,船橋市,西習志野２丁目３２番１０号,,12,204,2740815,,,2023-08-31,清算の結了等,,,2015-10-05,1,,,,,エイチアイティー,0
1139,5060001026678,登記記録の閉鎖等,0,2023-09-20,2023-09-06,株式会社ライブリー,,株式会社,栃木県,宇都宮市,中河原町３番地１６,,09,201,3200815,,,2023-09-06,清算の結了等,,,2015-10-05,1,,,,,ライブリー,0
1144,5080005003011,登記記録の閉鎖等,0,2023-09-20,2023-09-13,静岡県環境施設メンテナンス協同組合,,その他の設立登記法人,静岡県,静岡市駿河区,稲川１丁目１番３号,,22,102,4228062,,,2023-09-13,清算の結了等,,,2015-10-05,1,,,,,シズオカケンカンキョウシセツメンテナンス,0
1150,5100002025278,登記記録の閉鎖等,0,2023-09-20,2023-09-07,有限会社マルヨシ,,有限会社,長野県,上伊那郡南箕輪村,１６８番地,,20,385,3994511,,,2023-09-07,清算の結了等,,,2015-10-05,1,,,,,マルヨシ,0
1153,5120001070554,登記記録の閉鎖等,0,2023-09-20,2023-09-08,株式会社マッハ,,株式会社,大阪府,大阪市北区,堂山町１番２号,,27,127,5300027,,,2023-09-08,清算の結了等,,,2015-10-05,1,,,,,マッハ,0
1157,5120001209607,登記記録の閉鎖等,0,2023-09-20,2023-09-15,株式会社プラスイチド,,株式会社,大阪府,大阪市阿倍野区,昭和町２丁目７番２６号,,27,119,5450011,,,2023-09-15,清算の結了等,,,2017-11-21,1,,,,,プラスイチド,0
1174,5140002047533,登記記録の閉鎖等,0,2023-09-20,2023-09-12,有限会社今村建築,,有限会社,兵庫県,姫路市,西中島４３番地の４,,28,201,6700805,,,2023-09-12,清算の結了等,,,2015-10-05,1,,,,,イマムラケンチク,0
1175,5140002048432,登記記録の閉鎖等,0,2023-09-20,2023-09-08,有限会社光輝,,有限会社,兵庫県,姫路市,網干区興浜１４７９番地１,,28,201,6711241,,,2023-09-08,合併による解散等,6140001065956,令和５年８月３１日兵庫県姫路市網干区興浜１１３７番地１株式会社インフィニティ（6140001065956）に合併し解散,2015-10-05,1,,,,,,0
1191,5180002081974,登記記録の閉鎖等,0,2023-09-20,2023-09-12,有限会社セイケ,,有限会社,愛知県,江南市,高屋町大門１４６番地,,23,217,4838035,,,2023-09-12,清算の結了等,,,2015-10-05,1,,,,,セイケ,0
1193,5180003020948,登記記録の閉鎖等,0,2023-09-20,2023-09-11,合同会社スマスタ,,合同会社,愛知県,犬山市,大字犬山字北別祖９７番地５,,23,215,4840081,,,2023-09-11,清算の結了等,,,2020-03-12,1,,,,,スマスタ,0
1199,5180302009394,登記記録の閉鎖等,0,2023-09-20,2023-09-11,有限会社ファーイースト,,有限会社,愛知県,豊橋市,牟呂大西町１３番地の３,,23,201,4418089,,,2023-09-11,清算の結了等,,,2015-10-05,1,,,,,ファーイースト,0
1207,5240001050354,登記記録の閉鎖等,0,2023-09-20,2023-09-12,株式会社キッタカカンパニー,,株式会社,広島県,福山市,芦田町大字福田９３９番地９,,34,207,7201264,,,2023-09-12,清算の結了等,,,2016-12-22,1,,,,,キッタカカンパニー,0
1211,5240002032970,登記記録の閉鎖等,0,2023-09-20,2023-09-12,有限会社塩出酒店,,有限会社,広島県,呉市,中央６丁目８番１号,,34,202,7370051,,,2023-09-12,清算の結了等,,,2015-10-05,1,,,,,シオデサケテン,0
1215,5290001029229,登記記録の閉鎖等,0,2023-09-20,2023-09-07,株式会社Ｖ－ｖｉｖｉｔ,,株式会社,福岡県,福岡市中央区,薬院１丁目６番９号,,40,133,8100022,,,2023-09-07,清算の結了等,,,2015-10-05,1,,,,,ブイビビット,0
1243,5500001020074,登記記録の閉鎖等,0,2023-09-20,2023-09-15,平石ガス株式会社,,株式会社,愛媛県,喜多郡内子町,平岡甲１０９６番地,,38,422,7950303,,,2023-09-15,合併による解散等,4500001000457,令和５年９月１５日愛媛県松山市大可賀三丁目１４５３番地１１エナジー・ワン株式会社（4500001000457）に合併し解散,2016-09-07,1,,,,,ヒライシガス,0
1270,6010101002137,登記記録の閉鎖等,0,2023-09-20,2023-09-08,株式会社第一総合電工,,株式会社,東京都,八王子市,千人町２丁目１０番４号,,13,201,1930835,,,2023-09-08,清算の結了等,,,2015-10-05,1,,,,,ダイイチソウゴウデンコウ,0
1278,6010405019942,登記記録の閉鎖等,0,2023-09-20,2023-08-31,一般社団法人ＳＨ０４７,,その他の設立登記法人,東京都,港区,虎ノ門３丁目２２番１０－２０１号,,13,103,1050001,,,2023-08-31,清算の結了等,,,2021-06-28,1,,,,,エスエイチゼロフォーセブン,0
1287,6010901053445,登記記録の閉鎖等,0,2023-09-20,2023-09-13,山田設備機工株式会社,,株式会社,東京都,世田谷区,桜丘５丁目４８番１６号,,13,112,1560054,,,2023-09-13,合併による解散等,3420001006711,令和５年９月５日青森県八戸市大字是川字権現堂向１５番地１山田設備機工株式会社（3420001006711）に合併し解散,2023-07-19,1,,,,,ヤマダセツビキコウ,0
1299,6011101093141,登記記録の閉鎖等,0,2023-09-20,2023-09-13,花菱商事株式会社,,株式会社,東京都,新宿区,西早稲田１丁目９番１２－２０３号,,13,104,1690051,,,2023-09-13,清算の結了等,,,2020-11-11,1,,,,,ハナビシショウジ,0
1301,6011301021562,登記記録の閉鎖等,0,2023-09-20,2023-09-15,株式会社ユミ・インターナショナル,,株式会社,東京都,杉並区,松ノ木１丁目１３番１０号,,13,115,1660014,,,2023-09-15,清算の結了等,,,2015-10-05,1,,,,,ユミインターナショナル,0
1302,6011303001744,登記記録の閉鎖等,0,2023-09-20,2023-09-11,マダックスエンタテインメント合同会社,,合同会社,東京都,杉並区,和田１丁目１６番１６－６０８号,,13,115,1660012,,,2023-09-11,清算の結了等,,,2015-10-05,1,,,,,,0
1307,6011803004734,登記記録の閉鎖等,0,2023-09-20,2023-09-14,アストリー合同会社,,合同会社,東京都,葛飾区,東堀切２丁目２５番６－２０１号,,13,122,1240004,,,2023-09-14,清算の結了等,,,2021-08-11,1,,,,,アストリー,0
1338,6021002044077,登記記録の閉鎖等,0,2023-09-20,2023-09-11,有限会社橋本商事,,有限会社,神奈川県,座間市,相模が丘５丁目５番３号,,14,216,2520001,,,2023-09-11,清算の結了等,,,2015-10-05,1,,,,,ハシモトショウジ,0
1339,6021002067904,登記記録の閉鎖等,0,2023-09-20,2023-09-12,有限会社八百虎,,有限会社,神奈川県,横須賀市,不入斗町４丁目２２番地,,14,201,2380051,,,2023-09-12,清算の結了等,,,2015-10-05,1,,,,,ヤオトラ,0
1346,6030002040300,登記記録の閉鎖等,0,2023-09-20,2023-08-28,有限会社エムアールシー,,有限会社,埼玉県,幸手市,東２丁目３０番１８号,,11,240,3400114,,,2023-08-28,清算の結了等,,,2015-10-05,1,,,,,エムアールシー,0
1352,6030005018194,登記記録の閉鎖等,0,2023-09-20,2023-08-21,ＮＰＯ法人行田市民大学活動センター,,その他の設立登記法人,埼玉県,行田市,持田４丁目３５番１１,,11,206,3610056,,,2023-08-21,清算の結了等,,,2016-10-26,1,,,,,ギョウダシミンダイガクカツドウセンター,0
1361,6040002035860,登記記録の閉鎖等,0,2023-09-20,2023-09-04,有限会社ネットランド,,有限会社,千葉県,市川市,原木３丁目１６番３号,,12,203,2720004,,,2023-09-04,清算の結了等,,,2015-10-05,1,,,,,ネットランド,0
1366,6040005021726,登記記録の閉鎖等,0,2023-09-20,2023-09-05,ＢＥＳＴ　ＰＬＡＮ協同組合,,その他の設立登記法人,千葉県,茂原市,木崎字折戸２０４１番地３,,12,210,2970016,,,2023-09-05,清算の結了等,,,2022-09-02,1,,,,,ベストプラン,0
1367,6050001009963,登記記録の閉鎖等,0,2023-09-20,2023-09-11,株式会社ジェイドリーム,,株式会社,茨城県,稲敷郡阿見町,大字実穀１１３５番地,,08,443,3001153,,,2023-09-11,清算の結了等,,,2015-10-05,1,,,,,ジェイドリーム,0
1370,6050002039415,登記記録の閉鎖等,0,2023-09-20,2023-09-11,有限会社冷熱特機工業,,有限会社,茨城県,つくばみらい市,筒戸１８２７番地,,08,235,3002435,,,2023-09-11,清算の結了等,,,2015-10-05,1,,,,,レイネツトッキコウギョウ,0
1373,6050005012286,登記記録の閉鎖等,0,2023-09-20,2023-08-30,一般社団法人ＶＩＡＬＡスポーツクラブ,,その他の設立登記法人,茨城県,ひたちなか市,赤坂１２３９６番地１,,08,221,3111241,,,2023-08-30,清算の結了等,,,2018-03-13,1,,,,,ビアラスポーツクラブ,0
1380,6060002010696,登記記録の閉鎖等,0,2023-09-20,2023-09-07,有限会社青山電設工業,,有限会社,栃木県,宇都宮市,駒生２丁目１５番２６号,,09,201,3200066,,,2023-09-07,清算の結了等,,,2015-10-05,1,,,,,アオヤマデンセツコウギョウ,0
1387,6080101019604,登記記録の閉鎖等,0,2023-09-20,2023-09-15,Ｆ・ＦＡＣＴＯＲＹ株式会社,,株式会社,静岡県,富士市,依田橋７７０番地の５,,22,210,4170002,,,2023-09-15,清算の結了等,,,2017-02-03,1,,,,,エフファクトリー,0
1396,6120001047766,登記記録の閉鎖等,0,2023-09-20,2023-09-15,三山機工株式会社,,株式会社,大阪府,大阪市西区,新町４丁目１５番１９号,,27,106,5500013,,,2023-09-15,清算の結了等,,,2015-10-05,1,,,,,ミヤマキコウ,0
1425,6140005002146,登記記録の閉鎖等,0,2023-09-20,2023-09-15,医療法人社団ながれたに内科クリニック,,その他の設立登記法人,兵庫県,芦屋市,南浜町３番２３号,,28,206,6590037,,,2023-09-15,清算の結了等,,,2015-10-05,1,,,,,ナガレタニナイカクリニック,0
1430,6160001008467,登記記録の閉鎖等,0,2023-09-20,2023-09-19,株式会社棚橋食品,,株式会社,滋賀県,彦根市,平田町１１２８番地,,25,202,5220041,,,2023-09-19,清算の結了等,,,2015-10-05,1,,,,,タナハシショクヒン,0
1436,6160002009786,登記記録の閉鎖等,0,2023-09-20,2023-09-15,有限会社ひなどり,,有限会社,滋賀県,東近江市,八日市浜野町２番２４号,,25,213,5270011,,,2023-09-15,清算の結了等,,,2015-10-05,1,,,,,ヒナドリガイアシャ,0
1441,6180001027911,登記記録の閉鎖等,0,2023-09-20,2023-09-12,株式会社オザキ建設,,株式会社,愛知県,名古屋市緑区,平手南２丁目４１０番地,,23,114,4580009,,,2023-09-12,合併による解散等,2180301017302,令和５年９月１日愛知県刈谷市熊野町四丁目７５番地１ハタスビルダー株式会社（2180301017302）に合併し解散,2015-10-05,1,,,,,オザキケンセツ,0
1443,6180001073096,登記記録の閉鎖等,0,2023-09-20,2023-09-14,日本朱鷺株式会社,,株式会社,愛知県,名古屋市中村区,椿町１４番６号,,23,105,4530015,,,2023-09-14,清算の結了等,,,2015-10-05,1,,,,,ニホントキ,0
1457,6190001013943,登記記録の閉鎖等,0,2023-09-20,2023-09-13,株式会社いなべ工務店,,株式会社,三重県,いなべ市,北勢町阿下喜６８６番地,,24,214,5110428,,,2023-09-13,清算の結了等,,,2015-10-05,1,,,,,イナベコウムテン,0
1458,6190001016814,登記記録の閉鎖等,0,2023-09-20,2023-09-12,渡成建設株式会社,,株式会社,三重県,四日市市,東垂坂町４０番地の１０,,24,202,5108035,,,2023-09-12,清算の結了等,,,2015-10-05,1,,,,,ワタセイケンセツ,0
1460,6190002015501,登記記録の閉鎖等,0,2023-09-20,2023-09-07,有限会社大十商店,,有限会社,三重県,多気郡明和町,大字大淀乙７１９番地,,24,442,5150302,,,2023-09-07,清算の結了等,,,2015-10-05,1,,,,,ダイジュウショウテン,0
1468,6220003001414,登記記録の閉鎖等,0,2023-09-20,2023-09-15,ジーニアス・ソリューションズ合同会社,,合同会社,石川県,加賀市,山中温泉長谷田町リ３８９番地,,17,206,9220103,,,2023-09-15,清算の結了等,,,2015-10-05,1,,,,,ジーニアスソリューションズ,0
1469,6220003002726,登記記録の閉鎖等,0,2023-09-20,2023-09-15,合同会社くれよん,,合同会社,石川県,白山市,相木町６９１番地５,,17,210,9240022,,,2023-09-15,清算の結了等,,,2020-01-15,1,,,,,クレヨン,0
1487,6290803003322,登記記録の閉鎖等,0,2023-09-20,2023-09-19,月桃合同会社,,合同会社,福岡県,北九州市戸畑区,中原東３丁目１３番６２－１４０４号,,40,105,8040012,,,2023-09-19,清算の結了等,,,2019-04-03,1,,,,,ゲットウ,0
1503,6370003005722,登記記録の閉鎖等,0,2023-09-20,2023-09-04,合同会社Ｌａｎａ,,合同会社,宮城県,仙台市太白区,八木山本町１丁目３２番１４号杏ハウス１０３号,,04,104,9820801,,,2023-09-04,清算の結了等,,,2022-06-03,1,,,,,ラナ,0
1530,7010001045581,登記記録の閉鎖等,0,2023-09-20,2023-09-05,新川電気工事株式会社,,株式会社,東京都,中央区,新川１丁目２８番４－６０１号,,13,102,1040033,,,2023-09-05,清算の結了等,,,2023-06-20,1,,,,,シンカワデンキコウジ,0
1539,7010101015641,登記記録の閉鎖等,0,2023-09-20,2023-09-07,株式会社Ｓａｆｉｒｏ,,株式会社,東京都,八王子市,千人町３丁目１２番１８号,,13,201,1930835,,,2023-09-07,清算の結了等,,,2023-05-11,1,,,,,サフィーロ,0
1546,7010402030661,登記記録の閉鎖等,0,2023-09-20,2023-08-31,有限会社ライズオンカンパニー,,有限会社,東京都,港区,東麻布１丁目１０番１１号,,13,103,1060044,,,2023-08-31,清算の結了等,,,2015-10-05,1,,,,,ライズオンカンパニー,0
1548,7010403015249,登記記録の閉鎖等,0,2023-09-20,2023-08-31,クァナジー・ジャパン合同会社,,合同会社,東京都,港区,港南２丁目１６番１号品川イーストワンタワー４階,,13,103,1080075,,,2023-08-31,清算の結了等,,,2016-08-24,1,,,,,クァナジージャパン,0
1560,7010901053444,登記記録の閉鎖等,0,2023-09-20,2023-09-13,管工防熱株式会社,,株式会社,東京都,世田谷区,桜丘５丁目４８番１６号,,13,112,1560054,,,2023-09-13,合併による解散等,3420001005696,令和５年９月５日青森県八戸市大字是川字堀田５番地２管工防熱株式会社（3420001005696）に合併し解散,2023-07-19,1,,,,,カンコウボウネツ,0
1583,7011302002734,登記記録の閉鎖等,0,2023-09-20,2023-09-14,有限会社銀河計画,,有限会社,東京都,杉並区,方南２丁目４番２４号,,13,115,1680062,,,2023-09-14,清算の結了等,,,2015-10-05,1,,,,,ギンガケイカク,0
1587,7012701011128,登記記録の閉鎖等,0,2023-09-20,2023-09-19,株式会社タカサキ建装,,株式会社,東京都,西東京市,南町５丁目９番３３号,,13,229,1880012,,,2023-09-19,清算の結了等,,,2015-10-05,1,,,,,,0
1626,7030002119894,登記記録の閉鎖等,0,2023-09-20,2023-08-24,有限会社村田電機商会,,有限会社,埼玉県,飯能市,大字双柳１１７４番地の２,,11,209,3570021,,,2023-08-24,清算の結了等,,,2015-10-05,1,,,,,ムラタデンキショウカイ,0
1640,7050001050396,登記記録の閉鎖等,0,2023-09-20,2023-09-11,株式会社ＮＩＰＰＯＮ　ＬＡＮＫＡ　ＴＲＡＤＩＮＧ,,株式会社,茨城県,結城郡八千代町,大字高崎８９２番地,,08,521,3003516,,,2023-09-11,清算の結了等,,,2022-01-05,1,,,,,ニッポンランカトレーディング,0
1647,7060002039966,登記記録の閉鎖等,0,2023-09-20,2023-09-07,有限会社茂呂ダクト工業,,有限会社,栃木県,佐野市,船越町字旭野４９７番地の１,,09,204,3270305,,,2023-09-07,清算の結了等,,,2015-10-05,1,,,,,モロダクトコウギョウ,0
1650,7070001035726,登記記録の閉鎖等,0,2023-09-20,2023-09-15,尾瀬市場株式会社,,株式会社,群馬県,前橋市,上新田町６２６番地１,,10,201,3710821,,,2023-09-15,清算の結了等,,,2019-05-14,1,,,,,オゼイチバ,0
1651,7070002007468,登記記録の閉鎖等,0,2023-09-20,2023-09-14,有限会社翼測量,,有限会社,群馬県,前橋市,石倉町５丁目１０番地２王山ビル１－Ａ,,10,201,3710841,,,2023-09-14,清算の結了等,,,2015-10-05,1,,,,,ツバサソクリョウ,0
1654,7080103002078,登記記録の閉鎖等,0,2023-09-20,2023-09-15,合同会社サンシャインウォーク,,合同会社,静岡県,沼津市,大岡７３３番地の３３,,22,203,4100022,,,2023-09-15,清算の結了等,,,2019-12-09,1,,,,,サンシャインウォーク,0
1657,7090002002153,登記記録の閉鎖等,0,2023-09-20,2023-09-15,有限会社星野管財,,有限会社,山梨県,甲府市,大里町９３２番地１ハイツ星野２０７号室,,19,201,4000053,,,2023-09-15,清算の結了等,,,2015-10-05,1,,,,,ホシノカンザイ,0
1706,7180001085850,登記記録の閉鎖等,0,2023-09-20,2023-09-13,株式会社サン総合メンテナンス,,株式会社,愛知県,稲沢市,天池五反田町１番地,,23,220,4928275,,,2023-09-13,合併による解散等,4180001104506,令和５年９月１日愛知県稲沢市天池五反田町１番地ユニー株式会社（4180001104506）に合併し解散,2015-10-05,1,,,,,サンソウゴウメンテナンス,0
1707,7180001091568,登記記録の閉鎖等,0,2023-09-20,2023-09-13,株式会社池田建設,,株式会社,愛知県,半田市,住吉町２丁目１２７番地の５,,23,205,4750862,,,2023-09-13,清算の結了等,,,2015-10-05,1,,,,,イケダケンセツ,0
1711,7180003024831,登記記録の閉鎖等,0,2023-09-20,2023-09-11,合同会社シンコーホールディングス,,合同会社,愛知県,名古屋市中村区,千原町１２番１４号,,23,105,4530011,,,2023-09-11,清算の結了等,,,2023-02-08,1,,,,,シンコーホールディングス,0
1717,7180302020738,登記記録の閉鎖等,0,2023-09-20,2023-09-07,有限会社ハートスペース,,有限会社,愛知県,安城市,横山町横山４５番地１,,23,212,4460045,,,2023-09-07,清算の結了等,,,2015-10-05,1,,,,,ハートスペース,0
1723,7200005006412,登記記録の閉鎖等,0,2023-09-20,2023-09-15,特定非営利活動法人揖斐の自然と文化財を護る会,,その他の設立登記法人,岐阜県,揖斐郡揖斐川町,上東野３２２番地１,,21,401,5010632,,,2023-09-15,清算の結了等,,,2015-10-05,1,,,,,イビノシゼントブンカザイヲマモルカイ,0
1724,7220001009887,登記記録の閉鎖等,0,2023-09-20,2023-09-19,株式会社宮嶋,,株式会社,石川県,金沢市,千木町ヲ４６番地２,,17,201,9200001,,,2023-09-19,清算の結了等,,,2015-10-05,1,,,,,ミヤジマ,0
1766,7380002003378,登記記録の閉鎖等,0,2023-09-20,2023-09-15,有限会社ホテル溪谷,,有限会社,東京都,多摩市,一ノ宮１丁目１４番地の１０,,13,224,2060002,,,2023-09-15,清算の結了等,,,2015-10-05,1,,,,,ホテルケイコク,0
1772,7450001005715,登記記録の閉鎖等,0,2023-09-20,2023-09-19,株式会社ＳＳプランニング,,株式会社,北海道,旭川市,神楽三条４丁目４番２０号,,01,204,0708003,,,2023-09-19,清算の結了等,,,2015-10-05,1,,,,,,0
1794,8010005008765,登記記録の閉鎖等,0,2023-09-20,2023-09-11,特定非営利活動法人自健会,,その他の設立登記法人,東京都,文京区,本郷３丁目４３番８－７１０号,,13,105,1130033,,,2023-09-11,清算の結了等,,,2015-10-05,1,,,,,ジケンカイ,0
1808,8010401172099,登記記録の閉鎖等,0,2023-09-20,2023-08-31,北海道地域医療連携推進株式会社,,株式会社,東京都,港区,三田２丁目１４番７－６０２号ローレル三田,,13,103,1080073,,,2023-08-31,清算の結了等,,,2023-01-25,1,,,,,ホッカイドウチイキイリョウレンケイスイシン,0
1811,8010403024538,登記記録の閉鎖等,0,2023-09-20,2023-08-30,合同会社ＡＺＭＦＲ,,合同会社,東京都,港区,虎ノ門５丁目１番４号,,13,103,1050001,,,2023-08-30,清算の結了等,,,2021-01-22,1,,,,,エーゼットエムエフアール,0
1833,8011003013245,登記記録の閉鎖等,0,2023-09-20,2023-09-05,合同会社ベルヴュー,,合同会社,東京都,渋谷区,恵比寿南３丁目１１番４号,,13,113,1500022,,,2023-09-05,清算の結了等,,,2021-08-19,1,,,,,ベルヴュー,0
1839,8011501011428,登記記録の閉鎖等,0,2023-09-20,2023-09-11,株式会社モデリスタ,,株式会社,東京都,荒川区,荒川１丁目３９番１１－２３０２号,,13,118,1160002,,,2023-09-11,清算の結了等,,,2015-10-05,1,,,,,モデリスタ,0
1842,8011602001170,登記記録の閉鎖等,0,2023-09-20,2023-09-13,有限会社ウイング,,有限会社,東京都,練馬区,豊玉北４丁目１５番１７号,,13,120,1760012,,,2023-09-13,清算の結了等,,,2015-10-05,1,,,,,ウイング,0
1845,8012801021967,登記記録の閉鎖等,0,2023-09-20,2023-09-12,株式会社福ＨＩＲＯ,,株式会社,東京都,立川市,柴崎町３丁目１１番７号,,13,202,1900023,,,2023-09-12,清算の結了等,,,2022-11-15,1,,,,,フクヒロ,0
1848,8013302007489,登記記録の閉鎖等,0,2023-09-20,2023-09-13,有限会社ナチュラル,,有限会社,東京都,豊島区,目白４丁目２９番１６号,,13,116,1710031,,,2023-09-13,清算の結了等,,,2015-10-05,1,,,,,ナチュラル,0
1876,8040001112964,登記記録の閉鎖等,0,2023-09-20,2023-09-01,Ｈ・Ｋ株式会社,,株式会社,千葉県,千葉市若葉区,加曽利町１０３９番地７,,12,104,2640017,,,2023-09-01,清算の結了等,,,2020-03-18,1,,,,,エイチケイ,0
1900,8090001005643,登記記録の閉鎖等,0,2023-09-20,2023-09-19,株式会社ストラーダ,,株式会社,山梨県,中央市,下三條８０番地１,,19,214,4093822,,,2023-09-19,清算の結了等,,,2015-10-05,1,,,,,ストラーダ,0
1915,8130001012354,登記記録の閉鎖等,0,2023-09-20,2023-09-11,株式会社井上商店,,株式会社,京都府,京都市山科区,竹鼻竹ノ街道町１０番地の４,,26,110,6078080,,,2023-09-11,清算の結了等,,,2015-10-05,1,,,,,イノウエショウテン,0
1926,8140002003970,登記記録の閉鎖等,0,2023-09-20,2023-09-14,有限会社和田建築事務所,,有限会社,兵庫県,神戸市灘区,高羽町２丁目４番２２号,,28,102,6570023,,,2023-09-14,清算の結了等,,,2015-10-05,1,,,,,ワダケンチクジムショ,0
1931,8160001000141,登記記録の閉鎖等,0,2023-09-20,2023-09-13,株式会社井之商,,株式会社,滋賀県,大津市,平津１丁目２２番１４号,,25,201,5200862,,,2023-09-13,清算の結了等,,,2015-10-05,1,,,,,イノショウ,0
1935,8170001013951,登記記録の閉鎖等,0,2023-09-20,2023-09-15,株式会社藤山グループ,,株式会社,和歌山県,伊都郡九度山町,大字入郷５９５番地,,30,343,6480161,,,2023-09-15,清算の結了等,,,2015-10-05,1,,,,,フジヤマグループ,0
1936,8170002008991,登記記録の閉鎖等,0,2023-09-20,2023-09-15,有限会社ハマナ,,有限会社,和歌山県,田辺市,新庄町３０４８番地の２,,30,206,6460011,,,2023-09-15,清算の結了等,,,2015-10-05,1,,,,,ハマナ,0
1938,8180001131447,登記記録の閉鎖等,0,2023-09-20,2023-09-11,ＭＴＡＰ株式会社,,株式会社,愛知県,名古屋市千種区,新池町１丁目１８番地の４－７０９号,,23,101,4640027,,,2023-09-11,清算の結了等,,,2018-03-06,1,,,,,エムタップ,0
1951,8190001007539,登記記録の閉鎖等,0,2023-09-20,2023-09-12,株式会社福,,株式会社,三重県,伊勢市,河崎３丁目２番３６号,,24,203,5160009,,,2023-09-12,清算の結了等,,,2015-10-05,1,,,,,フク,0
1952,8190001028089,登記記録の閉鎖等,0,2023-09-20,2023-08-31,株式会社ＪＨＩ,,株式会社,三重県,津市,高茶屋６丁目９番３号,,24,201,5140819,,,2023-08-31,清算の結了等,,,2021-03-02,1,,,,,ジェイエイチアイ,0
1972,8310001014976,登記記録の閉鎖等,0,2023-09-20,2023-09-14,株式会社ＴＯＰＲＩＤＥ,,株式会社,長崎県,諫早市,東小路町５番２０号,,42,204,8540014,,,2023-09-14,清算の結了等,,,2017-06-22,1,,,,,,0
1975,8310002005165,登記記録の閉鎖等,0,2023-09-20,2023-09-15,有限会社松尾仁酒店,,有限会社,長崎県,長崎市,鶴の尾町２１番２７号,,42,201,8510132,,,2023-09-15,清算の結了等,,,2015-10-05,1,,,,,マツオマサシサケテン,0
1991,8370001001060,登記記録の閉鎖等,0,2023-09-20,2023-09-11,株式会社白城ビルサービス,,株式会社,宮城県,仙台市宮城野区,安養寺２丁目３０番３１号コーポ桂２０５,,04,102,9830832,,,2023-09-11,清算の結了等,,,2015-10-05,1,,,,,シロキビルサービス,0
1994,8370203000430,登記記録の閉鎖等,0,2023-09-20,2023-09-08,合同会社エムアールテック,,合同会社,宮城県,大崎市,松山千石字松山４１２番地,,04,215,9871304,,,2023-09-08,清算の結了等,,,2015-10-05,1,,,,,エムアールテック,0
1996,8380002000746,登記記録の閉鎖等,0,2023-09-20,2023-09-13,有限会社尾崎電業社,,有限会社,福島県,福島市,天神町１６番２４号,,07,201,9608001,,,2023-09-13,清算の結了等,,,2015-10-05,1,,,,,オザキデンギョウシャ,0
2026,9010003022809,登記記録の閉鎖等,0,2023-09-20,2023-09-11,ジェイドキャピタル合同会社,,合同会社,東京都,中央区,銀座１丁目１５番７号ＭＡＣ銀座ビル３階,,13,102,1040061,,,2023-09-11,清算の結了等,,,2015-12-17,1,,,,,ジェイドキャピタル,0
2031,9010101010822,登記記録の閉鎖等,0,2023-09-20,2023-09-14,中丸産業株式会社,,株式会社,東京都,八王子市,東浅川町５４０番地２４,,13,201,1930834,,,2023-09-14,清算の結了等,,,2015-10-05,1,,,,,ナカマルサンギョウ,0
2032,9010401002049,登記記録の閉鎖等,0,2023-09-20,2023-08-31,株式会社ボルテックジャパン,,株式会社,東京都,港区,三田５丁目７番８号,,13,103,1080073,,,2023-08-31,清算の結了等,,,2015-10-05,1,,,,,ボルテックジャパン,0
2062,9011005008416,登記記録の閉鎖等,0,2023-09-20,2023-09-12,一般社団法人地域医療情報化推進協会,,その他の設立登記法人,東京都,渋谷区,渋谷２丁目７番１３号ネオメット青山３階,,13,113,1500002,,,2023-09-12,清算の結了等,,,2020-01-07,1,,,,,チイキイリョウジョウホウカスイシンキョウカイ,0
2065,9011101055155,登記記録の閉鎖等,0,2023-09-20,2023-09-12,松島エクシス株式会社,,株式会社,東京都,新宿区,内藤町１番地,,13,104,1600014,,,2023-09-12,清算の結了等,,,2023-02-16,1,,,,,マツシマエクシス,0
2075,9011501020122,登記記録の閉鎖等,0,2023-09-20,2023-09-11,株式会社テックホーム,,株式会社,東京都,荒川区,東日暮里５丁目３４番１号５階,,13,118,1160014,,,2023-09-11,清算の結了等,,,2015-10-05,1,,,,,,0
2083,9012402018981,登記記録の閉鎖等,0,2023-09-20,2023-09-11,有限会社ジャルダン・ウエハラ,,有限会社,東京都,三鷹市,新川６丁目２４番２１号,,13,204,1810004,,,2023-09-11,清算の結了等,,,2015-10-05,1,,,,,ジャルダンウエハラ,0
2094,9020002081499,登記記録の閉鎖等,0,2023-09-20,2023-09-07,有限会社大祥,,有限会社,神奈川県,川崎市中原区,上小田中２丁目２６番８号,,14,133,2110053,,,2023-09-07,清算の結了等,,,2015-10-05,1,,,,,ダイショウ,0
2111,9030002014029,登記記録の閉鎖等,0,2023-09-20,2023-08-25,有限会社ハウス・リフォーム,,有限会社,埼玉県,さいたま市見沼区,大字東門前１６番地１－２３１,,11,104,3370016,,,2023-08-25,清算の結了等,,,2015-10-05,1,,,,,ハウスリフォーム,0
2116,9040001088188,登記記録の閉鎖等,0,2023-09-20,2023-09-04,東方化学株式会社,,株式会社,千葉県,成田市,多良貝２４５番地２３２５,,12,211,2870242,,,2023-09-04,清算の結了等,,,2015-10-05,1,,,,,トウホウカガク,0
2133,9050002039627,登記記録の閉鎖等,0,2023-09-20,2023-09-11,有限会社大塚住建,,有限会社,茨城県,常総市,中妻町３５４４番地,,08,211,3002505,,,2023-09-11,清算の結了等,,,2015-10-05,1,,,,,オオツカジュウケン,0
2140,9080002007060,登記記録の閉鎖等,0,2023-09-20,2023-09-19,有限会社在コーポレーション,,有限会社,静岡県,静岡市葵区,平和１丁目１５番２０号,,22,101,4200876,,,2023-09-19,清算の結了等,,,2015-10-05,1,,,,,,0
2153,9120001189878,登記記録の閉鎖等,0,2023-09-20,2023-09-07,株式会社大彰塗装,,株式会社,大阪府,大阪市鶴見区,諸口４丁目６番３号,,27,124,5380051,,,2023-09-07,清算の結了等,,,2015-10-05,1,,,,,ダイショウトソウ,0
2154,9120001216046,登記記録の閉鎖等,0,2023-09-20,2023-09-19,株式会社Ｐｌｕｇ　Ｎａｖｉ,,株式会社,大阪府,大阪市中央区,南船場３丁目７番２７号,,27,128,5420081,,,2023-09-19,清算の結了等,,,2018-09-25,1,,,,,プラグナビ,0
2164,9120105004553,登記記録の閉鎖等,0,2023-09-20,2023-09-19,特定非営利活動法人日越美容文化研究会,,その他の設立登記法人,大阪府,堺市西区,浜寺石津町中３丁９番１５号,,27,144,5928334,,,2023-09-19,清算の結了等,,,2015-10-05,1,,,,,ニチエツビヨウブンカケンキュウカイ,0
2169,9130002007402,登記記録の閉鎖等,0,2023-09-20,2023-09-01,株式会社高橋,00130603,株式会社,京都府,京都市下京区,新町通仏光寺下る岩戸山町４１６番地,,26,106,6008445,,,2023-09-01,合併による解散等,3130001016979,令和５年９月１日京都市下京区新町通仏光寺下る岩戸山町４１６番地株式会社木乃婦（3130001016979）に合併し解散,2015-10-05,1,,,,,タカハシ,0
2180,9140003009859,登記記録の閉鎖等,0,2023-09-20,2023-09-14,合同会社和翔商会,,合同会社,兵庫県,神戸市垂水区,舞子台５丁目４番２５号,,28,108,6550046,,,2023-09-14,清算の結了等,,,2015-10-05,1,,,,,ワショウショウカイ,0
2201,9190001004097,登記記録の閉鎖等,0,2023-09-20,2023-09-13,株式会社テクノ企画,,株式会社,三重県,津市,河辺町３５１１番地３,,24,201,5140065,,,2023-09-13,清算の結了等,,,2015-10-05,1,,,,,テクノキカク,0
2203,9190002009888,登記記録の閉鎖等,0,2023-09-20,2023-09-12,有限会社森コンタクトレンズ,,有限会社,三重県,伊勢市,一之木１丁目１４番１９号,,24,203,5160071,,,2023-09-12,清算の結了等,,,2015-10-05,1,,,,,モリコンタクトレンズ,0
2229,9320002019072,登記記録の閉鎖等,0,2023-09-20,2023-09-12,有限会社古美術大観,,有限会社,大分県,日田市,城町２丁目８番３号,,44,204,8770004,,,2023-09-12,清算の結了等,,,2015-10-05,1,,,,,コビジュツタイカン,0
2247,9370001005738,登記記録の閉鎖等,0,2023-09-20,2023-09-12,株式会社トップ・マネジメント,,株式会社,宮城県,仙台市青葉区,北根３丁目２６番７号,,04,101,9810902,,,2023-09-12,清算の結了等,,,2015-10-05,1,,,,,トップマネジメント,0
2250,9370002011974,登記記録の閉鎖等,0,2023-09-20,2023-09-11,有限会社測拓,,有限会社,宮城県,仙台市太白区,土手内２丁目６番１５号,,04,104,9820026,,,2023-09-11,清算の結了等,,,2015-10-05,1,,,,,ソクタク,0
2260,9470001016080,登記記録の閉鎖等,0,2023-09-20,2023-09-14,株式会社ｈｏｋｕ,,株式会社,香川県,高松市,三谷町１４７０番地２,,37,201,7610450,,,2023-09-14,清算の結了等,,,2017-01-12,1,,,,,ホークー,0
