sequenceNumber,corporateNumber,process,correct,updateDate,changeDate,name,nameImageId,kind,prefectureName,cityName,streetNumber,addressImageId,prefectureCode,cityCode,postCode,addressOutside,addressOutsideImageId,closeDate,closeCause,successorCorporateNumber,changeCause,assignmentDate,latest,enName,enPrefectureName,enCityName,enAddressOutside,furigana,hihyoji
18,1010405013396,登記記録の閉鎖等,0,2022-03-23,2022-03-15,ＧＤＰ２特定目的会社,,その他の設立登記法人,東京都,港区,虎ノ門３丁目２２番１０－２０１号,,13,103,1050001,,,2022-03-15,清算の結了等,,,2015-10-05,1,,,,,ジーディーピーツー,0
25,1010901040885,登記記録の閉鎖等,0,2022-03-23,2022-03-14,株式会社ＱＬ,,株式会社,東京都,港区,虎ノ門３丁目２２番１４号,,13,103,1050001,,,2022-03-14,清算の結了等,,,2017-10-05,1,,,,,キューエル,0
73,1021002023804,登記記録の閉鎖等,0,2022-03-23,2022-03-16,有限会社藤推建,,有限会社,神奈川県,相模原市南区,相南１丁目１０番２３号,,14,153,2520312,,,2022-03-16,清算の結了等,,,2015-10-05,1,,,,,フジスイケン,0
74,1021005008950,登記記録の閉鎖等,0,2022-03-23,2022-03-17,特定非営利活動法人神奈川福祉援護会,,その他の設立登記法人,神奈川県,海老名市,柏ケ谷１０７８番地の１７,,14,215,2430402,,,2022-03-17,清算の結了等,,,2015-10-05,1,,,,,カナガワフクシエンゴカイ,0
79,1030002116328,登記記録の閉鎖等,0,2022-03-23,2022-03-11,有限会社相崎工務店,,有限会社,埼玉県,深谷市,西島５丁目１番２０号,,11,218,3660824,,,2022-03-11,清算の結了等,,,2015-10-05,1,,,,,アイザキコウムテン,0
106,1050002006592,登記記録の閉鎖等,0,2022-03-23,2022-03-16,有限会社岡崎工務店,,有限会社,茨城県,那珂市,下大賀８４０番地の２,,08,226,3192107,,,2022-03-16,清算の結了等,,,2015-10-05,1,,,,,オカザキコウムテン,0
109,1050003001683,登記記録の閉鎖等,0,2022-03-23,2022-03-15,合名会社石川商店,,合名会社,茨城県,常陸太田市,町田町２０番地,,08,212,3130213,,,2022-03-15,清算の結了等,,,2015-10-05,1,,,,,イシカワショウテン,0
111,1050005006664,登記記録の閉鎖等,0,2022-03-23,2022-03-15,農事組合法人旭村畜産環境保全機械施設利用組合,,その他の設立登記法人,茨城県,鉾田市,勝下２６８番地,,08,234,3111422,,,2022-03-15,清算の結了等,,,2015-10-05,1,,,,,アサヒムラチクサンカンキョウホゼンキカイシセツリヨウクミアイ,0
112,1050005011714,登記記録の閉鎖等,0,2022-03-23,2022-03-14,特定非営利活動法人エコライフパートナーズ,,その他の設立登記法人,茨城県,つくば市,上ノ室２４４６番地８,,08,220,3050023,,,2022-03-14,清算の結了等,,,2015-10-05,1,,,,,エコライフパートナーズ,0
118,1070005008155,登記記録の閉鎖等,0,2022-03-23,2022-03-22,桐生測量設計業協同組合,,その他の設立登記法人,群馬県,桐生市,広沢町６丁目２６８番地１,,10,203,3760013,,,2022-03-22,清算の結了等,,,2015-10-05,1,,,,,キリュウソクリョウセッケイギョウ,0
127,1100005010181,登記記録の閉鎖等,0,2022-03-23,2022-02-22,金刀比羅神社,,その他の設立登記法人,長野県,下伊那郡阿南町,新野字田口峠３７２１番地,,20,404,3991612,,,2022-02-22,合併による解散等,8100005010159,令和４年２月２２日長野県下伊那郡阿南町新野字新熊山２６０８番地伊豆社（8100005010159）に合併し解散,2015-10-05,1,,,,,コトヒラジンジャ,0
134,1120001237743,登記記録の閉鎖等,0,2022-03-23,2022-03-16,株式会社アメニティライフホールディングス,,株式会社,大阪府,大阪市北区,堂山町１２番５号,,27,127,5300027,,,2022-03-16,合併による解散等,2120902008556,令和４年３月１日大阪府摂津市鳥飼新町二丁目３１番４号株式会社クレーン・サポート（2120902008556）に合併し解散,2021-05-26,1,,,,,,0
151,1122002004197,登記記録の閉鎖等,0,2022-03-23,2022-03-18,有限会社フライドショップさぬきや,,有限会社,大阪府,東大阪市,花園西町２丁目４番２０号,,27,227,5780936,,,2022-03-18,清算の結了等,,,2015-10-05,1,,,,,フライドショップサヌキヤ,0
156,1140001012673,登記記録の閉鎖等,0,2022-03-23,2022-03-18,大西商事株式会社,,株式会社,兵庫県,神戸市兵庫区,磯之町１番６号,,28,105,6520842,,,2022-03-18,清算の結了等,,,2015-10-05,1,,,,,オオニシショウジ,0
169,1180001079635,登記記録の閉鎖等,0,2022-03-23,2022-03-18,株式会社トミタ,,株式会社,愛知県,尾張旭市,平子町東１２４番地,,23,226,4880871,,,2022-03-18,清算の結了等,,,2015-10-05,1,,,,,トミタ,0
186,1200005001261,登記記録の閉鎖等,0,2022-03-23,2022-03-22,栄和企業組合,,その他の設立登記法人,岐阜県,岐阜市,忠節町１丁目１８番地,,21,201,5008801,,,2022-03-22,清算の結了等,,,2015-10-05,1,,,,,エイワ,0
197,1240002003356,登記記録の閉鎖等,0,2022-03-23,2022-03-01,有限会社おしぼりセンター,,有限会社,広島県,広島市中区,江波南２丁目１０番２３号,,34,101,7300835,,,2022-03-01,合併による解散等,1240002020946,令和４年３月１日広島市佐伯区八幡一丁目１１番３号株式会社広島おしぼりセンター（1240002020946）に合併し解散,2015-10-05,1,,,,,オシボリセンター,0
207,1260002003040,登記記録の閉鎖等,0,2022-03-23,2022-03-22,有限会社協進,,有限会社,岡山県,岡山市北区,下伊福西町７番３２－７１５号,,33,101,7000054,,,2022-03-22,清算の結了等,,,2015-10-05,1,,,,,キョウシン,0
221,1290005009313,登記記録の閉鎖等,0,2022-03-23,2022-02-16,白鳥神社,,その他の設立登記法人,福岡県,八女市,黒木町北大淵７０１７番地,,40,210,8341201,,,2022-02-16,合併による解散等,1290005009321,令和４年２月１６日福岡県八女市黒木町北大淵７９０７番地の２熊野神社（1290005009321）に合併し解散,2015-10-05,1,,,,,シラトリジンジャ,0
228,1310001010569,登記記録の閉鎖等,0,2022-03-23,2022-03-17,マリックス株式会社,,株式会社,長崎県,松浦市,志佐町里免３４６番地５,,42,208,8594502,,,2022-03-17,合併による解散等,3300001005758,令和４年３月１日福岡市南区向野二丁目１０番１３号株式会社大栄（3300001005758）に合併し解散,2015-10-05,1,,,,,マリックス,0
302,2010901007792,登記記録の閉鎖等,0,2022-03-23,2022-03-18,株式会社デジタルジャム,,株式会社,東京都,世田谷区,深沢８丁目１２番７号,,13,112,1580081,,,2022-03-18,清算の結了等,,,2015-10-05,1,,,,,デジタルジャム,0
315,2011002000423,登記記録の閉鎖等,0,2022-03-23,2022-03-18,アド・カラックス有限会社,,有限会社,東京都,渋谷区,笹塚２丁目１８番３号,00064663,13,113,1510073,,,2022-03-18,清算の結了等,,,2015-10-05,1,,,,,,0
320,2011101043496,登記記録の閉鎖等,0,2022-03-23,2022-03-22,株式会社ウェイニー,,株式会社,三重県,桑名市,大字福島９６９番地１スペリア桑名一番館１４０３号,,24,205,5110002,,,2022-03-22,清算の結了等,,,2015-10-05,1,,,,,ウェイニー,0
346,2011802026196,登記記録の閉鎖等,0,2022-03-23,2022-03-18,有限会社ペルマーノ,,有限会社,東京都,足立区,梅島３丁目３６番１８－６０３号,,13,121,1210816,,,2022-03-18,清算の結了等,,,2015-10-05,1,,,,,,0
395,2080405005626,登記記録の閉鎖等,0,2022-03-23,2022-03-17,一般社団法人伯伊共済会磐田,,その他の設立登記法人,静岡県,磐田市,西之島７６番地の４,,22,211,4380041,,,2022-03-17,清算の結了等,,,2015-10-05,1,,,,,ハクイキョウサイカイイワタ,0
453,2200005006037,登記記録の閉鎖等,0,2022-03-23,2022-03-02,武山神社,,その他の設立登記法人,岐阜県,揖斐郡揖斐川町,鶴見４５４番地,,21,401,5010802,,,2022-03-02,合併による解散等,6200005006116,令和４年３月２日岐阜県揖斐郡揖斐川町上南方５４３番地大和神社（6200005006116）に合併し解散,2015-10-05,1,,,,,タケヤマジンジャ,0
465,2270001006430,登記記録の閉鎖等,0,2022-03-23,2022-03-16,株式会社ガルデンス,,株式会社,鳥取県,鳥取市,片原１丁目１０６番地,,31,201,6800023,,,2022-03-16,清算の結了等,,,2015-10-05,1,,,,,ガルデンス,0
479,2310001006418,登記記録の閉鎖等,0,2022-03-23,2022-03-17,株式会社佐々ショッピングデパート,,株式会社,長崎県,北松浦郡佐々町,羽須和免８３４番地,,42,391,8570341,,,2022-03-17,合併による解散等,3300001005758,令和４年３月１日福岡市南区向野二丁目１０番１３号株式会社大栄（3300001005758）に合併し解散,2015-10-05,1,,,,,ササショッピングデパート,0
522,2490005001158,登記記録の閉鎖等,0,2022-03-23,2022-03-07,天理教旭殿分教会,,その他の設立登記法人,高知県,高知市,中須賀町１８２番地,,39,201,7800937,,,2022-03-07,合併による解散等,9490005001168,令和４年３月７日高知県高知市大手筋二丁目３番２２号天理教高知大教会（9490005001168）に合併し解散,2015-10-05,1,,,,,テンリキョウキョクデンブンキョウカイ,0
526,3010001161011,登記記録の閉鎖等,0,2022-03-23,2022-03-16,コルドンブルーアルファ株式会社,,株式会社,東京都,中央区,銀座１丁目１９番１３号,,13,102,1040061,,,2022-03-16,清算の結了等,,,2015-10-05,1,,,,,コルドンブルーアルファ,0
536,3010003035733,登記記録の閉鎖等,0,2022-03-23,2022-03-08,合同会社ｔｈｅ　Ｔｈｉｒｄ　Ｐｌａｃｅ,,合同会社,東京都,中央区,八丁堀３丁目２４－１－１２０７,,13,102,1040032,,,2022-03-08,清算の結了等,,,2021-09-06,1,,,,,ザサードプレイス,0
542,3010401112027,登記記録の閉鎖等,0,2022-03-23,2022-03-14,株式会社Ｄｏｌｌ　Ｄｏｍｉｎａｔｉｏｎ,,株式会社,東京都,港区,北青山３丁目１０番１３号,,13,103,1070061,,,2022-03-14,清算の結了等,,,2015-10-05,1,,,,,,0
544,3010401156412,登記記録の閉鎖等,0,2022-03-23,2022-03-14,株式会社ＣＹＴＥＣ,,株式会社,東京都,港区,虎ノ門３丁目２２番１４号,,13,103,1050001,,,2022-03-14,清算の結了等,,,2020-11-11,1,,,,,サイテック,0
564,3010802015638,登記記録の閉鎖等,0,2022-03-23,2022-03-18,有限会社良奎商事,,有限会社,神奈川県,川崎市川崎区,小川町１７番地９セーヴェル川崎１０１,,14,131,2100023,,,2022-03-18,清算の結了等,,,2015-10-05,1,,,,,ヨシフミショウジ,0
578,3011203002119,登記記録の閉鎖等,0,2022-03-23,2022-03-18,合同会社上村ハウジング,,合同会社,神奈川県,小田原市,蓮正寺８２１番地２,,14,206,2500865,,,2022-03-18,清算の結了等,,,2015-10-05,1,,,,,ウエムラハウジング,0
579,3011401003380,登記記録の閉鎖等,0,2022-03-23,2022-03-17,スズラン食品株式会社,,株式会社,東京都,板橋区,前野町１丁目３２番１６号,,13,119,1740063,,,2022-03-17,清算の結了等,,,2015-10-05,1,,,,,スズランショクヒン,0
585,3011803002047,登記記録の閉鎖等,0,2022-03-23,2022-03-18,合同会社相澤商会,,合同会社,静岡県,熱海市,熱海１７３９番地の３４＃２１０１,,22,205,4130033,,,2022-03-18,清算の結了等,,,2015-10-05,1,,,,,アイザワショウカイ,0
587,3012302002117,登記記録の閉鎖等,0,2022-03-23,2022-03-10,三輝測量有限会社,,有限会社,東京都,町田市,本町田１７６０番地５,,13,209,1940032,,,2022-03-10,清算の結了等,,,2015-10-05,1,,,,,サンキソクリョウ,0
614,3030001048306,登記記録の閉鎖等,0,2022-03-23,2022-03-22,株式会社Ｋ－Ｔネットワーク,,株式会社,埼玉県,朝霞市,栄町２丁目１０番４５－９１０号,,11,227,3510012,,,2022-03-22,清算の結了等,,,2015-10-05,1,,,,,,0
640,3110001022095,登記記録の閉鎖等,0,2022-03-23,2022-03-17,株式会社池田屋スーパー,,株式会社,新潟県,長岡市,中貫町２丁目５番地１,,15,202,9400852,,,2022-03-17,清算の結了等,,,2015-10-05,1,,,,,イケダヤスーパー,0
641,3120001056662,登記記録の閉鎖等,0,2022-03-23,2022-03-18,大和熱錬株式会社,,株式会社,大阪府,大阪市淀川区,三津屋北３丁目２番２３号,,27,123,5320032,,,2022-03-18,清算の結了等,,,2015-10-05,1,,,,,ダイワネツレン,0
675,3180001022989,登記記録の閉鎖等,0,2022-03-23,2022-03-16,株式会社モンド名古屋,,株式会社,愛知県,名古屋市緑区,若田２丁目４０８番地,,23,114,4580034,,,2022-03-16,清算の結了等,,,2015-10-05,1,,,,,モンドナゴヤ,0
692,3190003002047,登記記録の閉鎖等,0,2022-03-23,2022-03-18,合同会社新,,合同会社,三重県,桑名市,大山田７丁目７番地７５,,24,205,5110903,,,2022-03-18,清算の結了等,,,2015-10-05,1,,,,,アラタ,0
749,3420001005119,登記記録の閉鎖等,0,2022-03-23,2022-03-17,シャインハウス株式会社,,株式会社,青森県,青森市,沖館４丁目８番２５号,,02,201,0380002,,,2022-03-17,清算の結了等,,,2015-10-05,1,,,,,シャインハウス,0
763,4010001037986,登記記録の閉鎖等,0,2022-03-23,2022-03-14,株式会社エーエムエックス,,株式会社,東京都,中央区,日本橋馬喰町１丁目５番３号,,13,102,1030002,,,2022-03-14,清算の結了等,,,2015-10-05,1,,,,,エーエムエックス,0
768,4010001181504,登記記録の閉鎖等,0,2022-03-23,2022-03-17,株式会社ｉ－ＧＡＴＥ,,株式会社,東京都,千代田区,平河町２丁目１１番１１号平河町ＴＥＣビル４Ｆ,,13,101,1020093,,,2022-03-17,清算の結了等,,,2017-02-15,1,,,,,アイゲート,0
771,4010002045550,登記記録の閉鎖等,0,2022-03-23,2022-03-08,有限会社オーエスギケン,,有限会社,東京都,中央区,銀座８丁目８番１５号青柳ビル４階,,13,102,1040061,,,2022-03-08,清算の結了等,,,2015-10-05,1,,,,,オーエスギケン,0
772,4010003030584,登記記録の閉鎖等,0,2022-03-23,2022-03-18,合同会社スワンプロパティ,,合同会社,東京都,中央区,日本橋２丁目７番１号,,13,102,1030027,,,2022-03-18,清算の結了等,,,2019-09-12,1,,,,,スワンプロパティ,0
777,4010401000478,登記記録の閉鎖等,0,2022-03-23,2022-03-14,株式会社アークライン,,株式会社,東京都,港区,六本木６丁目１５番１号,,13,103,1060032,,,2022-03-14,清算の結了等,,,2015-10-05,1,,,,,アークライン,0
785,4010403018741,登記記録の閉鎖等,0,2022-03-23,2022-03-15,ＧＣＢメザニン合同会社,,合同会社,東京都,港区,虎ノ門３丁目１８番１２－５０２号株式会社虎ノ門会計神谷町分室内,,13,103,1050001,,,2022-03-15,清算の結了等,,,2018-06-08,1,,,,,ジーシービーメザニン,0
795,4010901023111,登記記録の閉鎖等,0,2022-03-23,2022-03-22,株式会社ケーズクルー,,株式会社,東京都,世田谷区,野毛２丁目１番９号,,13,112,1580092,,,2022-03-22,清算の結了等,,,2015-10-05,1,,,,,ケーズクルー,0
852,4030001112738,登記記録の閉鎖等,0,2022-03-23,2022-03-18,株式会社ＩＮＦＩＮＩＳＴ,,株式会社,埼玉県,川口市,上青木４丁目２番地２号Ｂ１Ｆ,,11,203,3330844,,,2022-03-18,清算の結了等,,,2016-02-05,1,,,,,インフィニスト,0
853,4030001145671,登記記録の閉鎖等,0,2022-03-23,2022-03-18,株式会社ＧＤ小野薬局,,株式会社,埼玉県,さいたま市浦和区,上木崎１丁目９番１５－１３０４号,,11,107,3300071,,,2022-03-18,合併による解散等,6290001051859,令和４年３月１日福岡県久留米市合川町１５１２番地１株式会社公薬局（6290001051859）に合併し解散,2021-12-02,1,,,,,ジーディーオノヤッキョク,0
865,4050001000528,登記記録の閉鎖等,0,2022-03-23,2022-03-16,株式会社エスアイリサーチ,,株式会社,茨城県,水戸市,大町３丁目２番５号,,08,201,3100062,,,2022-03-16,清算の結了等,,,2015-10-05,1,,,,,,0
869,4050002001244,登記記録の閉鎖等,0,2022-03-23,2022-03-18,有限会社こんどう,,有限会社,大阪府,大阪市阿倍野区,松虫通２丁目８－１２プレサンスロジェ阿倍野松虫通７０２,,27,119,5450043,,,2022-03-18,清算の結了等,,,2015-10-05,1,,,,,コンドウ,0
872,4050005012684,登記記録の閉鎖等,0,2022-03-23,2022-03-16,一般社団法人茨城県開発機構,,その他の設立登記法人,茨城県,筑西市,神分５６８番地１,,08,227,3080063,,,2022-03-16,清算の結了等,,,2020-04-15,1,,,,,イバラキケンカイハツキコウ,0
881,4080401019652,登記記録の閉鎖等,0,2022-03-23,2022-03-22,株式会社ＪＡＫ,,株式会社,静岡県,磐田市,宮之一色３４３番地１,,22,211,4380816,,,2022-03-22,清算の結了等,,,2015-10-05,1,,,,,,0
906,4130002034715,登記記録の閉鎖等,0,2022-03-23,2022-03-02,有限会社ヤサカ紡機研磨工業所,,有限会社,京都府,舞鶴市,字引土２７５番地１ヤサカビル内,,26,202,6240841,,,2022-03-02,清算の結了等,,,2015-10-05,1,,,,,ヤサカボウキケンマコウギョウショ,0
965,4310001005814,登記記録の閉鎖等,0,2022-03-23,2022-03-18,株式会社中山住研,,株式会社,長崎県,佐世保市,早岐１丁目１４番１２号,,42,202,8593215,,,2022-03-18,清算の結了等,,,2015-10-05,1,,,,,ナカヤマジュウケン,0
975,4340002017888,登記記録の閉鎖等,0,2022-03-23,2022-03-18,小松水産有限会社,,有限会社,鹿児島県,いちき串木野市,北浜町２９番地,,46,219,8960041,,,2022-03-18,清算の結了等,,,2015-10-05,1,,,,,,0
996,4480001005252,登記記録の閉鎖等,0,2022-03-23,2022-03-22,株式会社川田組,,株式会社,徳島県,板野郡松茂町,笹木野字山下１００番地１,,36,401,7710219,,,2022-03-22,清算の結了等,,,2022-02-02,1,,,,,カワダクミ,0
1037,5010801010150,登記記録の閉鎖等,0,2022-03-23,2022-03-16,廣中金属株式会社,00052185,株式会社,東京都,大田区,多摩川２丁目２４番６２号,,13,111,1460095,,,2022-03-16,清算の結了等,,,2015-10-05,1,,,,,ヒロナカキンゾク,0
1052,5011205001240,登記記録の閉鎖等,0,2022-03-23,2022-03-15,特定非営利活動法人日本対華経済技術促進協会,,その他の設立登記法人,東京都,文京区,白山２丁目２５番１０号キングヒルズ白山７階,,13,105,1120001,,,2022-03-15,清算の結了等,,,2015-10-05,1,,,,,ニホンタイカケイザイギジュツソクシンキョウカイ,0
1069,5013201018549,登記記録の閉鎖等,0,2022-03-23,2022-03-14,株式会社ルナノーヴァ,,株式会社,東京都,目黒区,自由が丘２丁目９番１９号,,13,110,1520035,,,2022-03-14,合併による解散等,9012301002269,令和４年３月１日東京都町田市南町田四丁目３０番１号株式会社深澤梱包（9012301002269）に合併し解散,2015-10-05,1,,,,,ルナノーヴァ,0
1085,5021002005848,登記記録の閉鎖等,0,2022-03-23,2022-03-16,有限会社杏コーポレーション,,有限会社,神奈川県,藤沢市,湘南台２丁目１８番地の３,,14,205,2520804,,,2022-03-16,清算の結了等,,,2015-10-05,1,,,,,アンコーポレーション,0
1095,5030005017552,登記記録の閉鎖等,0,2022-03-23,2022-03-11,一般社団法人全国人材対策協議会,,その他の設立登記法人,埼玉県,久喜市,六万部１０３２番地１,,11,232,3460037,,,2022-03-11,清算の結了等,,,2015-10-05,1,,,,,ゼンコクジンザイタイサクキョウギカイ,0
1138,5120003009385,登記記録の閉鎖等,0,2022-03-23,2022-03-16,ＨＩＲＡＴＡ合同会社,,合同会社,大阪府,大阪市浪速区,日本橋３丁目８番１８号６Ｆ,,27,111,5560005,,,2022-03-16,清算の結了等,,,2015-10-05,1,,,,,ヒラタ,0
1146,5122001022584,登記記録の閉鎖等,0,2022-03-23,2022-03-18,ＮＡＮＩＷＡ　ＤＲＥＡＭ　株式会社,,株式会社,大阪府,八尾市,八尾木２丁目７４番地,,27,212,5810027,,,2022-03-18,清算の結了等,,,2015-10-05,1,,,,,ナニワドリーム,0
1152,5140001096044,登記記録の閉鎖等,0,2022-03-23,2022-03-18,株式会社アクシスプレーン,,株式会社,東京都,世田谷区,世田谷４丁目６番１３号グランデュオ世田谷Ｖ３０１,,13,112,1540017,,,2022-03-18,清算の結了等,,,2015-10-05,1,,,,,アクシスプレーン,0
1158,5140005019851,登記記録の閉鎖等,0,2022-03-23,2022-02-28,天理教一道分教会,,その他の設立登記法人,兵庫県,南あわじ市,榎列小榎列２４６番地,,28,224,6560425,,,2022-02-28,合併による解散等,2140005019986,令和４年２月２８日兵庫県南あわじ市湊６２４番地天理教御原川分教会（2140005019986）に合併し解散,2015-10-05,1,,,,,テンリキョウイチミチブンキョウカイ,0
1163,5160005005668,登記記録の閉鎖等,0,2022-03-23,2022-03-23,彦根橋本町協同組合,,その他の設立登記法人,滋賀県,彦根市,河原２丁目２番３４号,,25,202,5220083,,,2022-03-23,清算の結了等,,,2015-10-05,1,,,,,ヒコネハシモトチョウ,0
1168,5180001091066,登記記録の閉鎖等,0,2022-03-23,2022-03-16,エスエスエンジニアリング株式会社,,株式会社,愛知県,豊明市,阿野町昭和４７番地,,23,229,4701141,,,2022-03-16,清算の結了等,,,2015-10-05,1,,,,,エスエスエンジニアリング,0
1172,5180002047711,登記記録の閉鎖等,0,2022-03-23,2022-03-16,有限会社葡萄イズム,,有限会社,愛知県,名古屋市東区,芳野３丁目６番４号,,23,102,4610027,,,2022-03-16,清算の結了等,,,2015-10-05,1,,,,,,0
1175,5180003012334,登記記録の閉鎖等,0,2022-03-23,2022-03-16,合資会社カメラのクラチ,,合資会社,愛知県,江南市,古知野町桃源７番地,,23,217,4838271,,,2022-03-16,清算の結了等,,,2015-10-05,1,,,,,カメラノクラチ,0
1178,5180301035631,登記記録の閉鎖等,0,2022-03-23,2022-03-17,株式会社角大工場,00124912,株式会社,愛知県,岡崎市,大平町字土井東１７番地１,,23,202,4440007,,,2022-03-17,清算の結了等,,,2021-11-24,1,,,,,カクダイコウジョウ,0
1201,5280001004562,登記記録の閉鎖等,0,2022-03-23,2022-03-18,株式会社アメックス協販,,株式会社,島根県,江津市,都野津町２２７７番地３３,,32,207,6950021,,,2022-03-18,清算の結了等,,,2015-10-05,1,,,,,アメックスキョウハン,0
1207,5290001088737,登記記録の閉鎖等,0,2022-03-23,2022-03-17,株式会社Ｄ－ｉｎｖｅｓｔｍｅｎｔ,,株式会社,福岡県,福岡市博多区,東平尾２丁目１３番２２号,,40,132,8120853,,,2022-03-17,清算の結了等,,,2020-04-20,1,,,,,ディーインベストメント,0
1215,5290805001127,登記記録の閉鎖等,0,2022-03-23,2022-03-02,天理教洞岳分教会,,その他の設立登記法人,福岡県,北九州市戸畑区,牧山４丁目１７番１０号,,40,105,8040053,,,2022-03-02,合併による解散等,3120105005136,令和４年２月２５日大阪府羽曳野市南恵我之荘三丁目９番２１号天理教明二分教会（3120105005136）に合併し解散,2015-10-05,1,,,,,テンリキヨウクキオカブンキヨウカイ,0
1216,5310002012429,登記記録の閉鎖等,0,2022-03-23,2022-03-14,有限会社陶舗作エ門,,有限会社,長崎県,東彼杵郡波佐見町,井石郷４１４番地,,42,323,8593711,,,2022-03-14,清算の結了等,,,2015-10-05,1,,,,,トウホサクエモン,0
1225,5340002021336,登記記録の閉鎖等,0,2022-03-23,2022-03-15,有限会社丸十組,,有限会社,鹿児島県,大島郡宇検村,大字湯湾１０００番地,,46,524,8943301,,,2022-03-15,清算の結了等,,,2015-10-05,1,,,,,マルジュウクミ,0
1250,5470001010013,登記記録の閉鎖等,0,2022-03-23,2022-03-18,株式会社テレフォース,,株式会社,香川県,観音寺市,吉岡町７１４番地,,37,205,7680021,,,2022-03-18,清算の結了等,,,2015-10-05,1,,,,,,0
1268,6010401150899,登記記録の閉鎖等,0,2022-03-23,2022-03-14,株式会社ＧＡＯ,,株式会社,東京都,港区,南青山２丁目２番１５号ウィン青山９４２,,13,103,1070062,,,2022-03-14,清算の結了等,,,2020-02-07,1,,,,,ガオ,0
1310,6013201003995,登記記録の閉鎖等,0,2022-03-23,2022-03-14,株式会社東急ステーションリテールサービス,,株式会社,東京都,目黒区,碑文谷６丁目７番２２号,,13,110,1520003,,,2022-03-14,合併による解散等,8013201004026,令和４年３月１日東京都目黒区上目黒一丁目２１番１２号株式会社東急ストア（8013201004026）に合併し解散,2015-10-05,1,,,,,トウキュウステーションリテールサービス,0
1337,6030001145257,登記記録の閉鎖等,0,2022-03-23,2022-03-15,株式会社テイクオン,,株式会社,埼玉県,加須市,川口１丁目７番地６,,11,210,3470014,,,2022-03-15,清算の結了等,,,2021-11-18,1,,,,,テイクオン,0
1349,6040001051132,登記記録の閉鎖等,0,2022-03-23,2022-03-11,株式会社袖ケ浦圧送,,株式会社,千葉県,袖ケ浦市,永吉２０９番地２,,12,229,2990204,,,2022-03-11,清算の結了等,,,2015-10-05,1,,,,,ソデガウラアッソウ,0
1358,6050001004667,登記記録の閉鎖等,0,2022-03-23,2022-03-16,株式会社佐藤合金鋳造所,,株式会社,茨城県,那珂市,横堀２１２番地,,08,226,3110103,,,2022-03-16,清算の結了等,,,2015-10-05,1,,,,,サトウゴウキンチュウゾウショ,0
1361,6060001017387,登記記録の閉鎖等,0,2022-03-23,2022-03-16,クズウハウス株式会社,,株式会社,栃木県,栃木市,都賀町家中６４１４番地,,09,203,3280111,,,2022-03-16,清算の結了等,,,2017-03-02,1,,,,,クズウハウス,0
1395,6122002003491,登記記録の閉鎖等,0,2022-03-23,2022-03-18,有限会社中西安商会,,有限会社,大阪府,東大阪市,本町１５番１３号,,27,227,5798045,,,2022-03-18,清算の結了等,,,2015-10-05,1,,,,,ナカニシヤスショウカイ,0
1398,6140001023781,登記記録の閉鎖等,0,2022-03-23,2022-03-22,株式会社ＭＣプロジェクト,,株式会社,兵庫県,神戸市西区,神出町東６８９番地,,28,111,6512311,,,2022-03-22,清算の結了等,,,2015-10-05,1,,,,,エムシープロジェクト,0
1408,6150001018608,登記記録の閉鎖等,0,2022-03-23,2022-03-18,株式会社あそび研究所,,株式会社,奈良県,生駒市,俵口町２４２番地２５,,29,209,6300243,,,2022-03-18,清算の結了等,,,2015-10-05,1,,,,,アソビケンキュウショ,0
1409,6150001019969,登記記録の閉鎖等,0,2022-03-23,2022-03-22,株式会社スリー・ピース,,株式会社,奈良県,橿原市,石川町６００番地,,29,205,6340045,,,2022-03-22,清算の結了等,,,2015-10-05,1,,,,,スリーピース,0
1420,6190001000859,登記記録の閉鎖等,0,2022-03-23,2022-03-22,株式会社ハタヤ,,株式会社,三重県,津市,八幡町津１９７番地,,24,201,5140813,,,2022-03-22,清算の結了等,,,2015-10-05,1,,,,,ハタヤ,0
1438,6250001001504,登記記録の閉鎖等,0,2022-03-23,2022-03-22,株式会社西日本グリーンリサイクル,,株式会社,山口県,山口市,阿知須１２４２３番９９,,35,203,7541277,,,2022-03-22,清算の結了等,,,2015-10-05,1,,,,,ニシニホングリーンリサイクル,0
1457,6290803000939,登記記録の閉鎖等,0,2022-03-23,2022-03-14,合資会社亀屋商店,,合資会社,福岡県,北九州市八幡東区,西丸山町１番２７号,,40,108,8050052,,,2022-03-14,清算の結了等,,,2015-10-05,1,,,,,カメヤショウテン,0
1482,6400003001478,登記記録の閉鎖等,0,2022-03-23,2022-03-22,合同会社ＨＵＧ,,合同会社,岩手県,盛岡市,南大通１丁目３番８号,,03,201,0200874,,,2022-03-22,合併による解散等,3400001008726,令和４年３月３日岩手県盛岡市南大通一丁目３番８号株式会社ＨＵＧ（3400001008726）に合併し解散,2015-10-05,1,,,,,ハグ,0
1484,6410005001772,登記記録の閉鎖等,0,2022-03-23,2022-03-15,特定非営利活動法人創生企画,,その他の設立登記法人,秋田県,秋田市,泉釜ノ町２２番１号,,05,201,0100811,,,2022-03-15,清算の結了等,,,2015-10-05,1,,,,,ソウセイキカク,0
1500,6490001004391,登記記録の閉鎖等,0,2022-03-23,2022-03-01,株式会社アサヒショップ,,株式会社,高知県,高知市,九反田９番１５号,,39,201,7800832,,,2022-03-01,合併による解散等,4490001007223,令和４年３月１日高知市九反田９番１５号旭食品株式会社（4490001007223）に合併し解散,2015-10-05,1,,,,,アサヒショップ,0
1523,7010401149775,登記記録の閉鎖等,0,2022-03-23,2022-03-22,森日株式会社,,株式会社,東京都,台東区,元浅草１丁目６－１２、３２５号室,,13,106,1110041,,,2022-03-22,清算の結了等,,,2019-12-10,1,,,,,モリニチ,0
1588,7040001042865,登記記録の閉鎖等,0,2022-03-23,2022-03-15,サカエサービス株式会社,,株式会社,千葉県,成田市,南羽鳥１２０５番地,,12,211,2860805,,,2022-03-15,清算の結了等,,,2015-10-05,1,,,,,サカエサービス,0
1596,7050001004872,登記記録の閉鎖等,0,2022-03-23,2022-03-16,照沼建設株式会社,,株式会社,茨城県,那珂郡東海村,大字白方１３８５番地,,08,341,3191106,,,2022-03-16,清算の結了等,,,2015-10-05,1,,,,,,0
1610,7100001003605,登記記録の閉鎖等,0,2022-03-23,2022-03-22,株式会社山口メガネ店,,株式会社,長野県,長野市,南石堂町１３０９番地,,20,201,3810000,,,2022-03-22,清算の結了等,,,2015-10-05,1,,,,,ヤマグチメガネテン,0
1614,7110005010555,登記記録の閉鎖等,0,2022-03-23,2022-03-01,天理教郷越分教会,,その他の設立登記法人,新潟県,中魚沼郡津南町,大字下船渡戊１１２番地１,,15,482,9498201,,,2022-03-01,合併による解散等,8110005010257,令和４年３月１日新潟県十日町市本町六の一丁目７４番地１天理教北越分教会（8110005010257）に合併し解散,2015-10-05,1,,,,,テンリキョウゴウエツブンキョウカイ,0
1622,7120001189434,登記記録の閉鎖等,0,2022-03-23,2022-03-18,株式会社進栄,,株式会社,大阪府,大阪市西区,新町１丁目２番９号１０階,,27,106,5500013,,,2022-03-18,清算の結了等,,,2015-10-05,1,,,,,,0
1643,7122005002829,登記記録の閉鎖等,0,2022-03-23,2022-03-18,一般社団法人高等教育国際基準協会,,その他の設立登記法人,大阪府,東大阪市,小若江３丁目４番１号近畿大学総合社会学部石井隆之研究室内,,27,227,5770818,,,2022-03-18,清算の結了等,,,2015-10-05,1,,,,,コウトウキョウイクコクサイキジュンキョウカイ,0
1691,7280001007456,登記記録の閉鎖等,0,2022-03-23,2022-03-22,アマテラス株式会社,,株式会社,島根県,出雲市,今市町１３７５番地１,,32,203,6930001,,,2022-03-22,清算の結了等,,,2017-04-13,1,,,,,アマテラス,0
1705,7310002012939,登記記録の閉鎖等,0,2022-03-23,2022-03-17,有限会社トップマネキン紹介所,,有限会社,長崎県,佐世保市,宮崎町３番８号吉岡ビル２階,,42,202,8570873,,,2022-03-17,清算の結了等,,,2015-10-05,1,,,,,トップマネキンショウカイジョ,0
1725,7400001014472,登記記録の閉鎖等,0,2022-03-23,2022-03-22,株式会社Ｈ２,,株式会社,岩手県,盛岡市,南大通１丁目３番８号,,03,201,0200874,,,2022-03-22,合併による解散等,3400001008726,令和４年３月３日岩手県盛岡市南大通一丁目３番８号株式会社ＨＵＧ（3400001008726）に合併し解散,2019-01-22,1,,,,,エイチツー,0
1730,7430001065315,登記記録の閉鎖等,0,2022-03-23,2022-03-16,株式会社Ｄ－Ａｃｔｉｏｎ,,株式会社,北海道,札幌市中央区,大通西１３丁目４番地１６１,,01,101,0600042,,,2022-03-16,清算の結了等,,,2015-10-05,1,,,,,ディーアクション,0
1732,7430002002192,登記記録の閉鎖等,0,2022-03-23,2022-03-17,有限会社井家ふとん店,,有限会社,北海道,札幌市東区,北二十条東７丁目１番２７号,,01,103,0650020,,,2022-03-17,清算の結了等,,,2015-10-05,1,,,,,イイエフトンテン,0
1733,7430003004972,登記記録の閉鎖等,0,2022-03-23,2022-03-18,合同会社光栄産業,,合同会社,北海道,札幌市白石区,北郷四条１２丁目５番１１－２０１号,,01,104,0030834,,,2022-03-18,清算の結了等,,,2015-10-05,1,,,,,コウエイサンギョウ,0
1745,7490002001809,登記記録の閉鎖等,0,2022-03-23,2022-03-22,有限会社三栄商会,,有限会社,高知県,高知市,追手筋１丁目５番１８号,,39,201,7800842,,,2022-03-22,清算の結了等,,,2015-10-05,1,,,,,サンエイショウカイ,0
1770,8010901016425,登記記録の閉鎖等,0,2022-03-23,2022-03-18,株式会社コスモポリタンクリエーションズ,,株式会社,東京都,世田谷区,深沢８丁目１２番７号,,13,112,1580081,,,2022-03-18,清算の結了等,,,2015-10-05,1,,,,,コスモポリタンクリエーションズ,0
1801,8011702012712,登記記録の閉鎖等,0,2022-03-23,2022-03-15,ワイ・ワイ工房ボードウィービング有限会社,,有限会社,東京都,江戸川区,南小岩６丁目２５番１５－８０２号,,13,123,1330056,,,2022-03-15,清算の結了等,,,2015-10-05,1,,,,,ワイワイコウボウボードウィービング,0
1803,8011801003364,登記記録の閉鎖等,0,2022-03-23,2022-03-17,東豊会計企画株式会社,,株式会社,東京都,葛飾区,立石１丁目１４番２号,,13,122,1240012,,,2022-03-17,清算の結了等,,,2015-10-05,1,,,,,トウホウカイケイキカク,0
1809,8012402006277,登記記録の閉鎖等,0,2022-03-23,2022-03-18,有限会社スリーエス企画,,有限会社,東京都,国立市,富士見台３丁目３番７,,13,215,1860003,,,2022-03-18,清算の結了等,,,2015-10-05,1,,,,,スリーエスキカク,0
1832,8020002071856,登記記録の閉鎖等,0,2022-03-23,2022-03-15,アナハイム・ジャパン有限会社,,有限会社,東京都,港区,虎ノ門１丁目１２番１３号笹乃屋ビル３階,,13,103,1050001,,,2022-03-15,清算の結了等,,,2015-10-05,1,,,,,アナハイムジャパン,0
1854,8050003004787,登記記録の閉鎖等,0,2022-03-23,2022-03-16,合同会社ＨａｋｋｏＬａｂ,,合同会社,茨城県,水戸市,五軒町１丁目２－５,,08,201,3100063,,,2022-03-16,清算の結了等,,,2019-08-07,1,,,,,ハッコウラボ,0
1862,8070002031608,登記記録の閉鎖等,0,2022-03-23,2022-03-18,有限会社遠藤精工,,有限会社,群馬県,太田市,東新町６８０番地の１,,10,205,3730015,,,2022-03-18,清算の結了等,,,2015-10-05,1,,,,,エンドウセイコウ,0
1863,8070003001403,登記記録の閉鎖等,0,2022-03-23,2022-03-18,合同会社協栄会,,合同会社,群馬県,館林市,富士見町７番２０号,,10,207,3740027,,,2022-03-18,清算の結了等,,,2015-10-05,1,,,,,キョウエイカイ,0
1879,8110001004782,登記記録の閉鎖等,0,2022-03-23,2022-03-17,株式会社フジコシ,,株式会社,新潟県,新潟市東区,卸新町３丁目１６番地３１,,15,102,9500863,,,2022-03-17,清算の結了等,,,2015-10-05,1,,,,,フジコシ,0
1883,8110003004368,登記記録の閉鎖等,0,2022-03-23,2022-03-15,合同会社発酵を科学する研究所,,合同会社,新潟県,長岡市,不動沢７１８番―４レンタルハウス友芳,,15,202,9495416,,,2022-03-15,清算の結了等,,,2021-01-12,1,,,,,ハッコウヲカガクスルケンキュウジョ,0
1890,8120001036271,登記記録の閉鎖等,0,2022-03-23,2022-03-15,株式会社不二屋,,株式会社,大阪府,大阪市福島区,吉野４丁目９番３３号,,27,103,5530006,,,2022-03-15,清算の結了等,,,2015-10-05,1,,,,,,0
1907,8120101002215,登記記録の閉鎖等,0,2022-03-23,2022-03-16,株式会社公和企画設計事務所,,株式会社,大阪府,堺市堺区,向陵西町４丁１番２９号,,27,141,5900026,,,2022-03-16,清算の結了等,,,2015-10-05,1,,,,,コウワキカクセッケイジムショ,0
1932,8190002000360,登記記録の閉鎖等,0,2022-03-23,2022-03-22,菓子幸有限会社,,有限会社,三重県,津市,八幡町津１１９番地,,24,201,5140813,,,2022-03-22,清算の結了等,,,2015-10-05,1,,,,,カシコウ,0
1970,8290003003187,登記記録の閉鎖等,0,2022-03-23,2022-03-18,合名会社絆,,合名会社,福岡県,大川市,大字向島７４４番地１,,40,212,8310005,,,2022-03-18,清算の結了等,,,2015-10-05,1,,,,,キズナ,0
1973,8320001010363,登記記録の閉鎖等,0,2022-03-23,2022-03-18,株式会社三日月の瀧コーポレーション,,株式会社,大分県,玖珠郡玖珠町,大字山浦１１５番地の１,,44,462,8794400,,,2022-03-18,清算の結了等,,,2015-10-05,1,,,,,ミカヅキノタキコーポレーション,0
1976,8330002026119,登記記録の閉鎖等,0,2022-03-23,2022-03-22,有限会社とり家フーズ,,有限会社,熊本県,八代市,古城町２７８０番地の９,,43,202,8660043,,,2022-03-22,清算の結了等,,,2015-10-05,1,,,,,,0
1993,8400003002367,登記記録の閉鎖等,0,2022-03-23,2022-03-18,ケイエム合同会社,,合同会社,岩手県,二戸市,堀野字上東４７番地７グリーンハイツ小原ＩＩ１０６号室,00121420,03,213,0286105,,,2022-03-18,清算の結了等,,,2018-08-27,1,,,,,ケイエム,0
2047,9010401116261,登記記録の閉鎖等,0,2022-03-23,2022-03-15,マイシアターテック株式会社,,株式会社,東京都,港区,虎ノ門４丁目１番２８号虎ノ門タワーズオフィス１９階,,13,103,1050001,,,2022-03-15,清算の結了等,,,2015-10-05,1,,,,,マイシアターテック,0
2054,9010502014414,登記記録の閉鎖等,0,2022-03-23,2022-03-22,有限会社上毛熔断,,有限会社,東京都,台東区,竜泉３丁目１番３号,,13,106,1100012,,,2022-03-22,清算の結了等,,,2015-10-05,1,,,,,ジョウモウヨウダン,0
2061,9010901019468,登記記録の閉鎖等,0,2022-03-23,2022-03-22,株式会社未来教育総合研究所,,株式会社,東京都,世田谷区,代沢５丁目１８番１号,,13,112,1550032,,,2022-03-22,清算の結了等,,,2015-10-05,1,,,,,ミライキョウイクケンキュウジョ,0
2092,9012402006045,登記記録の閉鎖等,0,2022-03-23,2022-03-18,有限会社国立新聞販売,,有限会社,東京都,国立市,富士見台３丁目３番７,,13,215,1860003,,,2022-03-18,清算の結了等,,,2015-10-05,1,,,,,クニタチシンブンハンバイ,0
2098,9013301019476,登記記録の閉鎖等,0,2022-03-23,2022-03-04,株式会社マイクロビジョン,,株式会社,東京都,豊島区,池袋２丁目４９番１０号,,13,116,1710014,,,2022-03-04,清算の結了等,,,2015-10-05,1,,,,,マイクロビジョン,0
2106,9020001097174,登記記録の閉鎖等,0,2022-03-23,2022-03-03,株式会社ディ・エム・ケイ,,株式会社,神奈川県,横浜市港南区,港南台３丁目１番１号プチール港南台２階,,14,111,2340054,,,2022-03-03,合併による解散等,6021001052007,令和４年３月１日神奈川県藤沢市南藤沢３番４号株式会社ＢＬＥＳＳ（6021001052007）に合併し解散,2015-10-05,1,,,,,ディエムケイ,0
2113,9020002086028,登記記録の閉鎖等,0,2022-03-23,2022-03-15,有限会社エージェント,,有限会社,神奈川県,川崎市宮前区,神木本町１丁目１５番２６号,,14,136,2160031,,,2022-03-15,清算の結了等,,,2015-10-05,1,,,,,エージェント,0
2118,9030001118136,登記記録の閉鎖等,0,2022-03-23,2022-03-01,株式会社クレアスコンサルティング,,株式会社,埼玉県,越谷市,蒲生３丁目１１番３７号,,11,222,3430838,,,2022-03-01,清算の結了等,,,2017-01-16,1,,,,,クレアスコンサルティング,0
2122,9030002024762,登記記録の閉鎖等,0,2022-03-23,2022-03-18,有限会社テキスタイルマルコー,,有限会社,埼玉県,さいたま市桜区,大字白鍬２３５－７,,11,106,3380811,,,2022-03-18,清算の結了等,,,2015-10-05,1,,,,,テキスタイルマルコー,0
2129,9040001066697,登記記録の閉鎖等,0,2022-03-23,2022-03-09,千葉北三菱自動車販売株式会社,,株式会社,千葉県,柏市,旭町５丁目５番１９号,,12,217,2770852,,,2022-03-09,清算の結了等,,,2015-10-05,1,,,,,チバキタミツビシジドウシャハンバイ,0
2141,9050001033036,登記記録の閉鎖等,0,2022-03-23,2022-03-15,株式会社亀山自動車整備工場,,株式会社,茨城県,筑西市,女方７８９番地２,,08,227,3080854,,,2022-03-15,清算の結了等,,,2015-10-05,1,,,,,カメヤマジドウシャセイビコウジョウ,0
2149,9060005005773,登記記録の閉鎖等,0,2022-03-23,2022-02-18,天理教都野分教会,,その他の設立登記法人,栃木県,栃木市,大平町榎本８９８番地,,09,203,3294422,,,2022-02-18,合併による解散等,9060005005039,令和４年２月１８日栃木県小山市城山町一丁目６番３号天理教中根大教会（9060005005039）に合併し解散,2015-10-05,1,,,,,テンリキョウミヤツノブンキョウカイ,0
2156,9090002006598,登記記録の閉鎖等,0,2022-03-23,2022-03-15,有限会社有泉土建,,有限会社,山梨県,甲斐市,宇津谷４５７８番地,,19,210,4000108,,,2022-03-15,清算の結了等,,,2015-10-05,1,,,,,アリイズミドケン,0
2174,9120001232200,登記記録の閉鎖等,0,2022-03-23,2022-03-16,株式会社Ｌｉｎｃ,,株式会社,大阪府,門真市,脇田町１０番１４号,,27,223,5710011,,,2022-03-16,清算の結了等,,,2020-10-07,1,,,,,リンク,0
2184,9120902018251,登記記録の閉鎖等,0,2022-03-23,2022-03-18,有限会社倶楽部日高,,有限会社,大阪府,豊中市,蛍池北町三丁目１７番１５号,,27,203,5600000,,,2022-03-18,清算の結了等,,,2015-10-05,1,,,,,クラブヒダカ,0
2209,9180001023882,登記記録の閉鎖等,0,2022-03-23,2022-03-17,株式会社中京治具,,株式会社,愛知県,名古屋市天白区,井の森町８０番地,,23,116,4680047,,,2022-03-17,清算の結了等,,,2015-10-05,1,,,,,チュウキョウジグ,0
2235,9230005005772,登記記録の閉鎖等,0,2022-03-23,2022-03-04,特定非営利活動法人なんとの環境保全と新エネルギーを考える会,,その他の設立登記法人,富山県,南砺市,和泉１９０番地の１,,16,210,9391621,,,2022-03-04,清算の結了等,,,2015-10-05,1,,,,,,0
2238,9250002013909,登記記録の閉鎖等,0,2022-03-23,2022-03-18,綿野海運有限会社,,有限会社,山口県,長門市,仙崎２７９８番地,,35,211,7594106,,,2022-03-18,清算の結了等,,,2015-10-05,1,,,,,ワタノカイウン,0
2244,9280002009367,登記記録の閉鎖等,0,2022-03-23,2022-03-22,有限会社和田オート,,有限会社,島根県,江津市,二宮町神村２８０番地,,32,207,6950023,,,2022-03-22,清算の結了等,,,2015-10-05,1,,,,,ワダオート,0
2275,9380001023251,登記記録の閉鎖等,0,2022-03-23,2022-03-16,株式会社Ｍサピエンス,,株式会社,福島県,会津若松市,天神町３２番１号コーポサンテ１０１,,07,202,9650832,,,2022-03-16,清算の結了等,,,2015-10-05,1,,,,,エムサピエンス,0
2279,9402702000583,登記記録の閉鎖等,0,2022-03-23,2022-03-18,有限会社星石油店,,有限会社,岩手県,陸前高田市,気仙町字的場１３番地２,,03,210,0292204,,,2022-03-18,清算の結了等,,,2015-10-05,1,,,,,ホシセキユテン,0
