sequenceNumber,corporateNumber,process,correct,updateDate,changeDate,name,nameImageId,kind,prefectureName,cityName,streetNumber,addressImageId,prefectureCode,cityCode,postCode,addressOutside,addressOutsideImageId,closeDate,closeCause,successorCorporateNumber,changeCause,assignmentDate,latest,enName,enPrefectureName,enCityName,enAddressOutside,furigana,hihyoji
12,1010001257595,新規,0,2025-08-27,2025-08-27,ＨＭＨグループ株式会社,,株式会社,東京都,千代田区,丸の内２丁目１番１号明治安田生命ビル１１階,,13,101,1000005,,,,,,,2025-08-27,1,,,,,エイチエムエイチグループ,0
13,1010001257975,新規,0,2025-08-27,2025-08-27,株式会社ＣＵＴＥＪＯＹ　ＳＴＵＤｉＯ,,株式会社,東京都,文京区,千石４丁目１４番９号１階アルファ内,,13,105,1120011,,,,,,,2025-08-27,1,,,,,キュートジョイスタジオ,0
14,1010001257991,新規,0,2025-08-27,2025-08-27,株式会社ＢＬＵＥ　ＳＴＯＮＥ　ＣＯＲＥ,,株式会社,東京都,千代田区,飯田橋４丁目４－８朝日ビル３０２,,13,101,1020072,,,,,,,2025-08-27,1,,,,,ブルーストーンコア,0
15,1010001258040,新規,0,2025-08-27,2025-08-27,ＩＭＡＳコンサルティング株式会社,,株式会社,東京都,中央区,日本橋室町１丁目１１番１２号日本橋水野ビル７階,,13,102,1030022,,,,,,,2025-08-27,1,,,,,アイエムエーエスコンサルティング,0
17,1010003048547,新規,0,2025-08-27,2025-08-27,エスティ１８合同会社,,合同会社,東京都,千代田区,丸の内１丁目４番１号東京共同会計事務所内,,13,101,1000005,,,,,,,2025-08-27,1,,,,,エスティジュウハチ,0
25,1010401192673,新規,0,2025-08-27,2025-08-27,株式会社ＯＷＮＯＡ,,株式会社,東京都,港区,北青山１丁目３番１号アールキューブ青山３階,,13,103,1070061,,,,,,,2025-08-27,1,,,,,オノア,0
34,1010903010184,新規,0,2025-08-27,2025-08-27,Ｌｉｆｅｓｉｇｎｓ合同会社,,合同会社,東京都,世田谷区,等々力４丁目３番１１号ソフィネス等々力３０１,,13,112,1580082,,,,,,,2025-08-27,1,,,,,ライフサインズ,0
35,1010903010218,新規,0,2025-08-27,2025-08-27,合同会社ＴＮＴ　ＮＥＸＴ　ＥＲＡ,,合同会社,東京都,世田谷区,上北沢５丁目１３番６号第２山谷ビル１階,,13,112,1560057,,,,,,,2025-08-27,1,,,,,ティーエヌティーネクストエラ,0
45,1011001171522,新規,0,2025-08-27,2025-08-27,株式会社Ｐｚ　Ｃｏｎｃｉｅｒ,,株式会社,東京都,渋谷区,広尾１丁目２番地１号ヒカリビル４階,,13,113,1500012,,,,,,,2025-08-27,1,,,,,ピーズコンシエール,0
46,1011001171885,新規,0,2025-08-27,2025-08-27,ＡＩＥＲＡ株式会社,,株式会社,東京都,渋谷区,広尾１丁目２番地１号ヒカリビル４階,,13,113,1500012,,,,,,,2025-08-27,1,,,,,アイエラ,0
47,1011001172033,新規,0,2025-08-27,2025-08-27,株式会社絆,,株式会社,東京都,渋谷区,神南１丁目１１番４号ＦＰＧリンクス神南５階,,13,113,1500041,,,,,,,2025-08-27,1,,,,,キズナ,0
53,1011101112772,新規,0,2025-08-27,2025-08-27,株式会社Ｈｏｐｅｌ,,株式会社,東京都,新宿区,四谷本塩町４番２５号,,13,104,1600003,,,,,,,2025-08-27,1,,,,,ホープル,0
54,1011101112839,新規,0,2025-08-27,2025-08-27,株式会社めんいな,,株式会社,東京都,新宿区,西新宿７丁目５番５－４０６号Ｐｌａｚａ西新宿ＵＣＦ,,13,104,1600023,,,,,,,2025-08-27,1,,,,,メンイナ,0
57,1011105011558,新規,0,2025-08-27,2025-08-27,弁護士法人永岡法律事務所,,その他の設立登記法人,東京都,新宿区,左門町６－７鯉江ビル７０１,,13,104,1600017,,,,,,,2025-08-27,1,,,,,ナガオカホウリツジムショ,0
59,1011201026583,新規,0,2025-08-27,2025-08-27,観通株式会社,,株式会社,東京都,中野区,弥生町３丁目５番１８号グレースＦ、Ｂ０８,,13,114,1640013,,,,,,,2025-08-27,1,,,,,カンツウ,0
61,1011301030824,新規,0,2025-08-27,2025-08-27,ｓｏｒａ株式会社,,株式会社,東京都,杉並区,西荻北２丁目３番１０レジェンド西荻窪８０１号,,13,115,1670042,,,,,,,2025-08-27,1,,,,,ソラ,0
62,1011303005683,新規,0,2025-08-27,2025-08-27,合同会社ＧＲＯＷ,,合同会社,東京都,杉並区,上荻３丁目９番１３号,,13,115,1670043,,,,,,,2025-08-27,1,,,,,グロー,0
75,1011801046650,新規,0,2025-08-27,2025-08-27,株式会社ＹＯＵ＆ｉ,,株式会社,東京都,足立区,平野１丁目２３番１３号,,13,121,1210076,,,,,,,2025-08-27,1,,,,,ユーアンドアイ,0
79,1013101009783,新規,0,2025-08-27,2025-08-27,株式会社コズミック,,株式会社,東京都,青梅市,東青梅４丁目７番地の２６,,13,205,1980042,,,,,,,2025-08-27,1,,,,,コズミック,0
80,1013301054794,新規,0,2025-08-27,2025-08-27,株式会社Ｓｔｕｄｉｏ　ＮＯＢ,,株式会社,東京都,豊島区,西巣鴨３丁目１番１２－１００２号,,13,116,1700001,,,,,,,2025-08-27,1,,,,,スタジオノブ,0
99,1030001168329,新規,0,2025-08-27,2025-08-27,株式会社ｋｎｏｔ,,株式会社,埼玉県,川口市,西川口３丁目３１－１５白井ビル２０１,,11,203,3320021,,,,,,,2025-08-27,1,,,,,ノット,0
101,1030003027359,新規,0,2025-08-27,2025-08-27,合同会社サンクスマム,,合同会社,埼玉県,さいたま市岩槻区,原町１４６７番２１,,11,110,3390047,,,,,,,2025-08-27,1,,,,,サンクスマム,0
111,1040003028389,新規,0,2025-08-27,2025-08-27,合同会社ＬＤコンサルティング,,合同会社,千葉県,千葉市美浜区,幸町１丁目２―２桑田ビル４北Ｂ,,12,106,2610001,,,,,,,2025-08-27,1,,,,,エルディーコンサルティング,0
113,1050001057083,新規,0,2025-08-27,2025-08-27,株式会社ＭＳ　Ｌａ　ｖｉｅ,,株式会社,茨城県,猿島郡境町,上町９６０－３－１Ｆ,,08,546,3060433,,,,,,,2025-08-27,1,,,,,エムエスラヴィ,0
114,1050001057158,新規,0,2025-08-27,2025-08-27,株式会社吉田興業,,株式会社,茨城県,稲敷郡阿見町,大字小池６７８番地５,,08,443,3001157,,,,,,,2025-08-27,1,,,,,ヨシダコウギョウ,0
115,1050003009479,新規,0,2025-08-27,2025-08-27,こころ咲く合同会社,,合同会社,茨城県,つくば市,梅園２丁目１番地１５スプリングテックつくばビル４０１,,08,220,3050045,,,,,,,2025-08-27,1,,,,,ココロサク,0
116,1060003005700,新規,0,2025-08-27,2025-08-27,合同会社ビナ工務店,,合同会社,栃木県,真岡市,高勢町１丁目１７９番地１オーブリータカセ１０２号,,09,209,3214341,,,,,,,2025-08-27,1,,,,,ビナコウムテン,0
123,1080001027109,新規,0,2025-08-27,2025-08-27,株式会社ユウ,,株式会社,静岡県,静岡市清水区,折戸４丁目７番３２号,,22,103,4240902,,,,,,,2025-08-27,1,,,,,ユウ,0
145,1120001278829,新規,0,2025-08-27,2025-08-27,ＪＹ　ＧＲＯＵＰ株式会社,,株式会社,大阪府,大阪市中央区,南本町２丁目６－５ファースト船場ビル２０１Ａ号室,,27,128,5410054,,,,,,,2025-08-27,1,,,,,ジェイワイグループ,0
146,1120001278985,新規,0,2025-08-27,2025-08-27,株式会社ＡＳテック,,株式会社,大阪府,大阪市北区,天神橋８丁目１４番２０号,,27,127,5310041,,,,,,,2025-08-27,1,,,,,エーエステック,0
147,1120001279091,新規,0,2025-08-27,2025-08-27,ｅｌｍｅ株式会社,,株式会社,大阪府,大阪市北区,梅田１丁目２番２－１２００号大阪駅前第２ビル１２階１２号,,27,127,5300001,,,,,,,2025-08-27,1,,,,,エルメ,0
149,1120003030386,新規,0,2025-08-27,2025-08-27,ＴｅｃｈＮｅｋｏ合同会社,,合同会社,大阪府,大阪市北区,長柄中２丁目５番３０号,,27,127,5310062,,,,,,,2025-08-27,1,,,,,テックネコ,0
151,1120101072330,新規,0,2025-08-27,2025-08-27,溯源株式会社,,株式会社,大阪府,松原市,東新町２丁目１６０番地の２,,27,217,5800024,,,,,,,2025-08-27,1,,,,,ソゲン,0
171,1130001080341,新規,0,2025-08-27,2025-08-27,株式会社琥光,,株式会社,京都府,京都市左京区,下鴨貴船町４９番地２貴船マンション３０６号室,,26,103,6060813,,,,,,,2025-08-27,1,,,,,ココウ,0
172,1130001080374,新規,0,2025-08-27,2025-08-27,田嶋鉄工株式会社,,株式会社,京都府,久世郡久御山町,野村村東９７番地４,,26,322,6130023,,,,,,,2025-08-27,1,,,,,タジマテッコウ,0
175,1140001139764,新規,0,2025-08-27,2025-08-27,ＮＩＳＨＩＷＡＫＩ株式会社,,株式会社,兵庫県,西脇市,野村町茜が丘４６番地の１３,,28,213,6770057,,,,,,,2025-08-27,1,,,,,ニシワキ,0
176,1140001139806,新規,0,2025-08-27,2025-08-27,事業譲渡準備会社株式会社,,株式会社,兵庫県,尼崎市,西向島町１１１番地４,,28,202,6600857,,,,,,,2025-08-27,1,,,,,ジギョウジョウトジュンビカイシャ,0
180,1150001028330,新規,0,2025-08-27,2025-08-27,株式会社Ｍ３ＡＦＩＴ,,株式会社,奈良県,桜井市,大字芝１０３０番地の１,,29,206,6330074,,,,,,,2025-08-27,1,,,,,エムスリーエーフィット,0
190,1180001167919,新規,0,2025-08-27,2025-08-27,グーチョキ会計株式会社,,株式会社,愛知県,東海市,大田町畑間１４１番地４,,23,222,4770031,,,,,,,2025-08-27,1,,,,,グーチョキカイケイ,0
191,1180001168330,新規,0,2025-08-27,2025-08-27,株式会社マネーウェルネス,,株式会社,愛知県,名古屋市東区,葵３丁目２２番８号,,23,102,4610004,,,,,,,2025-08-27,1,,,,,マネーウェルネス,0
196,1180003028904,新規,0,2025-08-27,2025-08-27,合同会社ＴＤＬ,,合同会社,愛知県,名古屋市中区,錦３丁目１９－１０シャルトル吉田ビル３階,,23,106,4600003,,,,,,,2025-08-27,1,,,,,ティーディーエル,0
197,1180303006700,新規,0,2025-08-27,2025-08-27,合同会社ＹＳ,,合同会社,愛知県,豊橋市,八通町２２番地１（１００２）,,23,201,4418023,,,,,,,2025-08-27,1,,,,,ワイエス,0
199,1190003005150,新規,0,2025-08-27,2025-08-27,合同会社もくれん,,合同会社,三重県,伊賀市,緑ケ丘南町３９０５番地の５,,24,216,5180835,,,,,,,2025-08-27,1,,,,,モクレン,0
201,1210003001948,新規,0,2025-08-27,2025-08-27,ＨＬＣ合同会社,,合同会社,福井県,今立郡池田町,菅生５８－１９－９,,18,382,9102535,,,,,,,2025-08-27,1,,,,,エイチエルシー,0
214,1260005011511,新規,0,2025-08-27,2025-08-27,一般社団法人エール,,その他の設立登記法人,岡山県,岡山市中区,清水５２５番地２エクシード２０１,,33,102,7038243,,,,,,,2025-08-27,1,,,,,エール,0
221,1290001111287,新規,0,2025-08-27,2025-08-27,株式会社Ａｕｇｕｓｔブランド,,株式会社,福岡県,福岡市東区,香椎照葉７丁目１４番３－５０６号,,40,131,8130017,,,,,,,2025-08-27,1,,,,,オーガストブランド,0
231,1330001033519,新規,0,2025-08-27,2025-08-27,新成工業株式会社,,株式会社,熊本県,上益城郡益城町,大字安永６７３番地４,,43,443,8612231,,,,,,,2025-08-27,1,,,,,シンセイコウギョウ,0
250,1430003018020,新規,0,2025-08-27,2025-08-27,望みコンサルタント合同会社,,合同会社,北海道,札幌市東区,北十九条東１丁目１－３２－６０３,,01,103,0650019,,,,,,,2025-08-27,1,,,,,ノゾミコンサルタント,0
255,2010001257917,新規,0,2025-08-27,2025-08-27,美林工業株式会社,,株式会社,東京都,千代田区,神田佐久間町２丁目１８番地１ＳＴＮフロント１０階,,13,101,1010025,,,,,,,2025-08-27,1,,,,,ビリンコウギョウ,0
256,2010001257966,新規,0,2025-08-27,2025-08-27,株式会社Ｒｅｎ　Ｊａｐａｎ,,株式会社,東京都,千代田区,丸の内２丁目２番１号岸本ビル７階,,13,101,1000005,,,,,,,2025-08-27,1,,,,,レンジャパン,0
257,2010003048372,新規,0,2025-08-27,2025-08-27,合同会社あそびの星,,合同会社,東京都,中央区,銀座１丁目１２番４号Ｎ＆ＥＢＬＤ．７階,,13,102,1040061,,,,,,,2025-08-27,1,,,,,アソビノホシ,0
269,2010401192557,新規,0,2025-08-27,2025-08-27,株式会社Ｅｃｈｅｌｏｎ　Ｖｉｌｌａｇｅ,,株式会社,東京都,港区,虎ノ門１丁目１６番６号虎ノ門ＲＡＰＯ－ＴＯビルＵＣＦ７０３,,13,103,1050001,,,,,,,2025-08-27,1,,,,,エシュロンヴィレッジ,0
270,2010401192706,新規,0,2025-08-27,2025-08-27,株式会社ウヴリール,,株式会社,東京都,港区,南青山６丁目６番地２２号ルナロッサ南青山３階,,13,103,1070062,,,,,,,2025-08-27,1,,,,,ウヴリール,0
278,2010903010217,新規,0,2025-08-27,2025-08-27,アールティ合同会社,,合同会社,東京都,世田谷区,下馬３丁目１０番５－２０５号,,13,112,1540002,,,,,,,2025-08-27,1,,,,,アールティ,0
287,2011101112747,新規,0,2025-08-27,2025-08-27,株式会社ＦＣユニオン,,株式会社,東京都,新宿区,西新宿５丁目２番１－１０１２号,,13,104,1600023,,,,,,,2025-08-27,1,,,,,エフシーユニオン,0
288,2011101112763,新規,0,2025-08-27,2025-08-27,株式会社ＴＯＭＯＣＨＩ不動産,,株式会社,東京都,新宿区,富久町８番１８‐１２０３号,,13,104,1620067,,,,,,,2025-08-27,1,,,,,トモチフドウサン,0
289,2011101112788,新規,0,2025-08-27,2025-08-27,ＧＣジャパン株式会社,,株式会社,東京都,新宿区,袋町５番地１,,13,104,1620828,,,,,,,2025-08-27,1,,,,,ジーシージャパン,0
290,2011103016252,新規,0,2025-08-27,2025-08-27,合同会社Ｆｒｅｌｌｏ,,合同会社,東京都,新宿区,中落合４丁目３０番１１号－落合弐番館１０１,,13,104,1610032,,,,,,,2025-08-27,1,,,,,フレロ,0
292,2011201026582,新規,0,2025-08-27,2025-08-27,株式会社ＶＩＺＡＩＡ,,株式会社,東京都,中野区,新井１丁目１１番５号バウスステージ８０８,,13,114,1650026,,,,,,,2025-08-27,1,,,,,ビザイア,0
301,2012403007305,新規,0,2025-08-27,2025-08-27,Ａ　ＧＥＮＥＲＡＬ　ＭＡＮ合同会社,,合同会社,東京都,小金井市,東町３丁目１５番７号,,13,210,1840011,,,,,,,2025-08-27,1,,,,,アジェネラルマン,0
303,2013101009782,新規,0,2025-08-27,2025-08-27,グリーンバンク株式会社,,株式会社,東京都,青梅市,駒木町１丁目８６５番地,,13,205,1980053,,,,,,,2025-08-27,1,,,,,グリーンバンク,0
305,2013301054802,新規,0,2025-08-27,2025-08-27,株式会社セール・ラボ,,株式会社,東京都,豊島区,南池袋１丁目１６－１５ダイヤゲート池袋５Ｆ,,13,116,1710022,,,,,,,2025-08-27,1,,,,,セールラボ,0
314,2020003029248,新規,0,2025-08-27,2025-08-27,合同会社Ｂｅｇｉｎ,,合同会社,神奈川県,横浜市西区,北幸２丁目１０番４８号,,14,103,2200004,,,,,,,2025-08-27,1,,,,,ビギン,0
324,2030001168328,新規,0,2025-08-27,2025-08-27,Ｍ４Ｕｎｉｔｙ株式会社,,株式会社,埼玉県,所沢市,泉町９１４番地の１７千雅堂２０３,,11,208,3591112,,,,,,,2025-08-27,1,,,,,エムフォーユニティ,0
325,2030001168336,新規,0,2025-08-27,2025-08-27,株式会社楽しい飲み会,,株式会社,埼玉県,入間市,豊岡１丁目７－２１ＩＲＵＭＡ・ＳＱＵＡＲＥ・ＢＬＤＧ,,11,225,3580003,,,,,,,2025-08-27,1,,,,,タノシイノミカイ,0
326,2030001168344,新規,0,2025-08-27,2025-08-27,株式会社ライオンホーム,,株式会社,埼玉県,幸手市,東２丁目３６番２４号,,11,240,3400114,,,,,,,2025-08-27,1,,,,,ライオンホーム,0
327,2030001168352,新規,0,2025-08-27,2025-08-27,ＥＮＴＲＯＰＹ株式会社,,株式会社,埼玉県,越谷市,大字恩間５１５－３,,11,222,3430033,,,,,,,2025-08-27,1,,,,,エントロピー,0
334,2030003027473,新規,0,2025-08-27,2025-08-27,Ｆｕｇａｋｕ　Ａｄｖｉｓｏｒｓ合同会社,,合同会社,埼玉県,川口市,芝２丁目２４番地１号竹内マンション３０５,,11,203,3330866,,,,,,,2025-08-27,1,,,,,フガクアドバイザーズ,0
339,2040001140079,新規,0,2025-08-27,2025-08-27,株式会社ニュートラル,,株式会社,千葉県,千葉市緑区,おゆみ野３丁目２３番５号ジュネスグランドールＣ号,,12,105,2660031,,,,,,,2025-08-27,1,,,,,ニュートラル,0
344,2050003009511,新規,0,2025-08-27,2025-08-27,合同会社ＹＨＯ,,合同会社,茨城県,つくば市,みどりの１丁目１－４グランドパレスＮＳ－１０－８０１号室,,08,220,3050881,,,,,,,2025-08-27,1,,,,,,0
350,2070001043287,新規,0,2025-08-27,2025-08-27,株式会社ＬＡＳ,,株式会社,群馬県,邑楽郡大泉町,大字吉田２９５２番地２,,10,524,3700523,,,,,,,2025-08-27,1,,,,,エルエーエス,0
353,2070005010424,新規,0,2025-08-27,2025-08-27,ライフライン事業協同組合,,その他の設立登記法人,群馬県,高崎市,中里見町１１８番地１,,10,202,3703344,,,,,,,2025-08-27,1,,,,,,0
355,2100001038894,新規,0,2025-08-27,2025-08-27,株式会社スポーツパーク千曲,,株式会社,長野県,千曲市,杭瀬下３丁目５９番地,,20,218,3870011,,,,,,,2025-08-27,1,,,,,スポーツパークチクマ,0
366,2120001279033,新規,0,2025-08-27,2025-08-27,株式会社ＡＩ　ｆａｃｔｏｒｙ,,株式会社,大阪府,大阪市東淀川区,西淡路５丁目１番１号コミューズ新大阪２Ｆ,,27,114,5330031,,,,,,,2025-08-27,1,,,,,エーアイファクトリー,0
367,2120001279066,新規,0,2025-08-27,2025-08-27,煕源原動力株式会社,,株式会社,大阪府,大阪市平野区,加美南４丁目４番２８号５１８号室,,27,126,5470003,,,,,,,2025-08-27,1,,,,,キゲンゲンドウリョク,0
368,2120001279074,新規,0,2025-08-27,2025-08-27,株式会社マナ・ブライト,,株式会社,大阪府,大阪市都島区,善源寺町２丁目２番８－３８０２号,,27,102,5340015,,,,,,,2025-08-27,1,,,,,マナブライト,0
369,2120001279082,新規,0,2025-08-27,2025-08-27,林林火火株式会社,,株式会社,大阪府,大阪市東淀川区,大桐３丁目１６－１４－２１０室,,27,114,5330011,,,,,,,2025-08-27,1,,,,,リンリンカカ,0
370,2120001279132,新規,0,2025-08-27,2025-08-27,株式会社Ｂｅ　ｈａｐｐｙ,,株式会社,大阪府,大阪市天王寺区,上本町８丁目６番２６号,,27,109,5430001,,,,,,,2025-08-27,1,,,,,ビーハッピー,0
371,2120001279173,新規,0,2025-08-27,2025-08-27,成燕株式会社,,株式会社,大阪府,大阪市東淀川区,東中島４丁目１番１１－６０２号,,27,114,5330033,,,,,,,2025-08-27,1,,,,,セイエン,0
375,2120101072321,新規,0,2025-08-27,2025-08-27,株式会社ＦＡＫＤ　ＢＲＩＤＧＥ,,株式会社,大阪府,堺市中区,深井中町１９１６番地５,,27,142,5998272,,,,,,,2025-08-27,1,,,,,ファクドブリッジ,0
376,2120103006657,新規,0,2025-08-27,2025-08-27,合同会社光電社,,合同会社,大阪府,松原市,岡２丁目１２番３６号,,27,217,5800014,,,,,,,2025-08-27,1,,,,,コウデンシャ,0
381,2120901051383,新規,0,2025-08-27,2025-08-27,株式会社Ｈａｕｏｌｉ,,株式会社,大阪府,摂津市,南千里丘５番１３－２０１０号,,27,224,5660021,,,,,,,2025-08-27,1,,,,,ハウオリ,0
387,2130001080365,新規,0,2025-08-27,2025-08-27,株式会社ＧＡＫＴ,,株式会社,京都府,京都市山科区,上野山田４－３,,26,110,6078442,,,,,,,2025-08-27,1,,,,,ガクト,0
388,2130001080373,新規,0,2025-08-27,2025-08-27,株式会社フジイ,,株式会社,京都府,綾部市,大島町二反田７番地の６,,26,203,6230046,,,,,,,2025-08-27,1,,,,,フジイ,0
390,2140001139805,新規,0,2025-08-27,2025-08-27,株式会社ヤマネクト,,株式会社,兵庫県,加古川市,平岡町一色西１丁目７９番地の９,,28,210,6750117,,,,,,,2025-08-27,1,,,,,ヤマネクト,0
395,2170003002280,新規,0,2025-08-27,2025-08-27,Ｓａｂｉ　Ｓｔｕｄｉｏ合同会社,,合同会社,和歌山県,和歌山市,加太１１７５－３９,,30,201,6400103,,,,,,,2025-08-27,1,,,,,サビスタジオ,0
416,2240001065413,新規,0,2025-08-27,2025-08-27,株式会社ＨＩＢＩＫＩ,,株式会社,広島県,広島市東区,中山東３丁目９－１５－１６,,34,102,7320023,,,,,,,2025-08-27,1,,,,,ヒビキ,0
430,2290003017317,新規,0,2025-08-27,2025-08-27,合同会社ｓｍｉｌｅｙ　ｈｅａｒｔｙ,,合同会社,福岡県,福岡市西区,小戸４丁目１６番１５－２０２号,,40,135,8190001,,,,,,,2025-08-27,1,,,,,スマイリーハーティー,0
432,2290005019815,新規,0,2025-08-27,2025-08-27,ＮＰＯ法人ういてまて福岡,,その他の設立登記法人,福岡県,福岡市西区,愛宕１丁目２０番７号伊藤ビル３０１号,,40,135,8190015,,,,,,,2025-08-27,1,,,,,ウイテマテフクオカ,0
453,2360003015197,新規,0,2025-08-27,2025-08-27,合同会社アシスト,,合同会社,沖縄県,那覇市,松山２丁目９－１昭南産業ビル２Ｆ,,47,201,9000032,,,,,,,2025-08-27,1,,,,,アシスト,0
457,2370001052976,新規,0,2025-08-27,2025-08-27,株式会社大小技建,,株式会社,宮城県,仙台市青葉区,折立１丁目９番２号,,04,101,9893161,,,,,,,2025-08-27,1,,,,,ダイショウギケン,0
463,2400005008509,新規,0,2025-08-27,2025-08-27,特定非営利活動法人楽市楽座,,その他の設立登記法人,岩手県,一関市,字北＿＿５１番地８,00140426,03,209,0210814,,,,,,,2025-08-27,1,,,,,ラクイチラクザ,0
473,2430003018011,新規,0,2025-08-27,2025-08-27,３６Ｋｒｙｐｔｏｎ　Ｊａｐａｎ合同会社,,合同会社,北海道,札幌市中央区,南十条西１丁目全国ビルニューオリンピア６０７号室,,01,101,0640810,,,,,,,2025-08-27,1,,,,,サンジュウロクカリプトンジャパン,0
474,2430005015287,新規,0,2025-08-27,2025-08-27,特定非営利活動法人バイオ炭推進北海道会議,,その他の設立登記法人,北海道,札幌市西区,発寒十三条５丁目２番６号,,01,107,0630833,,,,,,,2025-08-27,1,,,,,バイオタンスイシンホッカイドウカイギ,0
494,3010003048520,新規,0,2025-08-27,2025-08-27,合同会社トワイライト・ファイブ,,合同会社,東京都,千代田区,内幸町２丁目１番６号,,13,101,1000011,,,,,,,2025-08-27,1,,,,,トワイライトファイブ,0
497,3010005040590,新規,0,2025-08-27,2025-08-27,一般社団法人１８,,その他の設立登記法人,東京都,千代田区,丸の内１丁目４番１号東京共同会計事務所内,,13,101,1000005,,,,,,,2025-08-27,1,,,,,ジュウハチ,0
501,3010401192696,新規,0,2025-08-27,2025-08-27,ＬＳＬ　Ｐａｒｔｎｅｒｓ株式会社,,株式会社,東京都,港区,愛宕１丁目１番１－２００８号,,13,103,1050002,,,,,,,2025-08-27,1,,,,,エルエスエルパートナーズ,0
503,3010403035861,新規,0,2025-08-27,2025-08-27,ドリームキー研究所合同会社,,合同会社,東京都,港区,北青山３丁目６番７号青山パラシオタワー１１階,,13,103,1070061,,,,,,,2025-08-27,1,,,,,ドリームキーケンキュウジョ,0
505,3010501054623,新規,0,2025-08-27,2025-08-27,Ｇ＆Ｌホールディングス株式会社,,株式会社,東京都,台東区,台東１丁目１４－１４東光ビル５０６号,,13,106,1100016,,,,,,,2025-08-27,1,,,,,ジーアンドエルホールディングス,0
506,3010503007950,新規,0,2025-08-27,2025-08-27,合同会社ほしのま,,合同会社,東京都,台東区,根岸４丁目１番１８号,,13,106,1100003,,,,,,,2025-08-27,1,,,,,ホシノマ,0
509,3010703007882,新規,0,2025-08-27,2025-08-27,合同会社Ｍ　Ｍｅｄｉｃａｌ,,合同会社,東京都,品川区,上大崎２丁目１５番１８号目黒東豊ビル６階,,13,109,1410021,,,,,,,2025-08-27,1,,,,,エムメディカル,0
521,3011001172089,新規,0,2025-08-27,2025-08-27,ティー・アセットマネジメント株式会社,,株式会社,東京都,渋谷区,道玄坂１丁目１０番８号渋谷道玄坂東急ビル２Ｆ－Ｃ,,13,113,1500043,,,,,,,2025-08-27,1,,,,,ティーアセットマネジメント,0
522,3011001172147,新規,0,2025-08-27,2025-08-27,株式会社ロゴステック,,株式会社,東京都,渋谷区,広尾１丁目２番地１号ヒカリビル４階,,13,113,1500012,,,,,,,2025-08-27,1,,,,,ロゴステック,0
523,3011005011128,新規,0,2025-08-27,2025-08-27,一般社団法人創魅会,,その他の設立登記法人,東京都,目黒区,上目黒３丁目３１番３２号,,13,110,1530051,,,,,,,2025-08-27,1,,,,,ソウビカイ,0
525,3011101112738,新規,0,2025-08-27,2025-08-27,オークアセットマネジメント株式会社,,株式会社,東京都,新宿区,榎町３４－３榎町ビル５階－１６室,,13,104,1620806,,,,,,,2025-08-27,1,,,,,オークアセットマネジメント,0
526,3011101112829,新規,0,2025-08-27,2025-08-27,株式会社Ｂｏｎｄｓ,,株式会社,東京都,新宿区,西新宿６丁目２番３号,,13,104,1600023,,,,,,,2025-08-27,1,,,,,ボンズ,0
527,3011101112928,新規,0,2025-08-27,2025-08-27,大豊東亜本社株式会社,,株式会社,東京都,新宿区,百人町２丁目１３番１３号Ｊハウス２１１,,13,104,1690073,,,,,,,2025-08-27,1,,,,,ダイホウトウアホンシャ,0
528,3011101112944,新規,0,2025-08-27,2025-08-27,株式会社Ｕ‐ＢＡＮＫ,,株式会社,東京都,新宿区,西新宿６丁目１２番６号コアロード西新宿７０９,,13,104,1600023,,,,,,,2025-08-27,1,,,,,ユーバンク,0
530,3011103016235,新規,0,2025-08-27,2025-08-27,ＬＭＬｏｇｉｓｔｉｃｓ合同会社,,合同会社,東京都,新宿区,大京町３１番地３ガーラプレシャス神宮外苑８０４,,13,104,1600015,,,,,,,2025-08-27,1,,,,,エルエムロジスティックス,0
531,3011303005681,新規,0,2025-08-27,2025-08-27,合同会社ＤＩＡＭＯＮＤ　ＨＩＬＬ,,合同会社,東京都,杉並区,阿佐谷北２丁目１９番５号,,13,115,1660001,,,,,,,2025-08-27,1,,,,,ダイアモンドヒル,0
544,3011801046608,新規,0,2025-08-27,2025-08-27,Ｂ‐ａｃｅ株式会社,,株式会社,東京都,葛飾区,堀切７丁目２１番１０号,,13,122,1240006,,,,,,,2025-08-27,1,,,,,ビィエース,0
548,3012403007304,新規,0,2025-08-27,2025-08-27,合同会社ＣＩＣＣＩ,,合同会社,東京都,武蔵野市,吉祥寺本町１丁目１番４号,,13,203,1800004,,,,,,,2025-08-27,1,,,,,チッチ,0
549,3012801024198,新規,0,2025-08-27,2025-08-27,株式会社ＳＩＮＣＥＲＩＴＹ,,株式会社,東京都,昭島市,緑町３丁目９番３２号,,13,207,1960004,,,,,,,2025-08-27,1,,,,,シンセリティ,0
550,3013103001480,新規,0,2025-08-27,2025-08-27,合同会社ＰＥＣＨＩ,,合同会社,東京都,青梅市,新町３丁目１０番地の６エトワール３０６,,13,205,1980024,,,,,,,2025-08-27,1,,,,,ペチ,0
554,3020001164566,新規,0,2025-08-27,2025-08-27,株式会社ＣＯＬＯＨＵ,,株式会社,神奈川県,川崎市宮前区,鷺沼１丁目１７－７ｂｌａｎｃｏｃｕｂｏ５０１,,14,136,2160004,,,,,,,2025-08-27,1,,,,,コロフ,0
571,3030001168343,新規,0,2025-08-27,2025-08-27,株式会社ひなたファミリア,,株式会社,埼玉県,入間市,大字野田１５６７番地５,,11,225,3580054,,,,,,,2025-08-27,1,,,,,ヒナタファミリア,0
581,3050001057172,新規,0,2025-08-27,2025-08-27,株式会社重講,,株式会社,茨城県,土浦市,桜町２丁目８番１号,,08,203,3000037,,,,,,,2025-08-27,1,,,,,ジューコー,0
583,3060001017415,新規,0,2025-08-27,2025-08-27,鈴庄建設株式会社,,株式会社,栃木県,下都賀郡壬生町,大字壬生丁５９番地１,,09,361,3210216,,,,,,,2025-08-27,1,,,,,スズショウケンセツ,0
593,3080401028134,新規,0,2025-08-27,2025-08-27,株式会社吉風,,株式会社,静岡県,浜松市中央区,有玉南町１８６７番地の１,,22,138,4313122,,,,,,,2025-08-27,1,,,,,キップウ,0
609,3120001278785,新規,0,2025-08-27,2025-08-27,株式会社オリオン,,株式会社,大阪府,大阪市北区,梅田１丁目２番２号大阪駅前第２ビル１２－１２,,27,127,5300001,,,,,,,2025-08-27,1,,,,,オリオン,0
610,3120001279057,新規,0,2025-08-27,2025-08-27,ＣＣＭ株式会社,,株式会社,大阪府,大阪市生野区,新今里６丁目５－７－２０１,,27,116,5440001,,,,,,,2025-08-27,1,,,,,シーシーエム,0
611,3120001279065,新規,0,2025-08-27,2025-08-27,Ｓｔａｒｗｉｎ株式会社,,株式会社,大阪府,大阪市港区,市岡１丁目１２番１３号花月荘１号館１０６号室,,27,107,5520012,,,,,,,2025-08-27,1,,,,,スターウィン,0
612,3120001279073,新規,0,2025-08-27,2025-08-27,株式会社陽葵,,株式会社,大阪府,枚方市,牧野阪２丁目５番３１号,,27,210,5731146,,,,,,,2025-08-27,1,,,,,ヒナタ,0
613,3120001279172,新規,0,2025-08-27,2025-08-27,グロー建物管理株式会社,,株式会社,大阪府,大阪市西区,西本町３丁目１番４６号,,27,106,5500005,,,,,,,2025-08-27,1,,,,,グロータテモノカンリ,0
617,3120003030392,新規,0,2025-08-27,2025-08-27,大開合同会社,,合同会社,大阪府,大阪市港区,八幡屋３丁目５－１－２０４,,27,107,5520014,,,,,,,2025-08-27,1,,,,,ダイカイ,0
620,3120101072320,新規,0,2025-08-27,2025-08-27,Ｓｎ．Ｌｕ　Ｐｒｏｐｅｒｔｙ株式会社,,株式会社,大阪府,堺市北区,南花田町４１７番３－２１１号,,27,146,5918011,,,,,,,2025-08-27,1,,,,,スンループロパティ,0
626,3120901051366,新規,0,2025-08-27,2025-08-27,株式会社月美,,株式会社,大阪府,豊中市,夕日丘２丁目１２番４号ヴィラ夕日丘１０２号,,27,203,5610864,,,,,,,2025-08-27,1,,,,,ツキミ,0
627,3120901051390,新規,0,2025-08-27,2025-08-27,株式会社アクアフィールド,,株式会社,大阪府,茨木市,松ケ本町１番１２－６０９号,,27,211,5670033,,,,,,,2025-08-27,1,,,,,アクアフィールド,0
636,3130001080364,新規,0,2025-08-27,2025-08-27,株式会社ＴＯＣＣＯ＆Ｃｏ．,,株式会社,京都府,亀岡市,追分町谷筋２５－３１,,26,206,6210804,,,,,,,2025-08-27,1,,,,,トッコアンドコー,0
639,3130003010708,新規,0,2025-08-27,2025-08-27,合同会社ＳＦＲメディカル,,合同会社,京都府,京都市西京区,川島梅園町１１５番地,,26,111,6158113,,,,,,,2025-08-27,1,,,,,エスエフアールメディカル,0
640,3130003010740,新規,0,2025-08-27,2025-08-27,Ｏｐｕｌｅｎｔ　Ｏｂｉ合同会社,,合同会社,京都府,京都市北区,紫野上築山町３番地,,26,101,6038221,,,,,,,2025-08-27,1,,,,,オプレントオビ,0
651,3180001168329,新規,0,2025-08-27,2025-08-27,株式会社千栄興商,,株式会社,愛知県,江南市,小脇町小脇１９７番地４,,23,217,4838406,,,,,,,2025-08-27,1,,,,,センエイコウショウ,0
660,3180003028935,新規,0,2025-08-27,2025-08-27,サンユウ合同会社,,合同会社,愛知県,名古屋市中村区,名駅３丁目４－１０アルティメイト名駅１ｓｔ２階,,23,105,4500002,,,,,,,2025-08-27,1,,,,,サンユウ,0
670,3220001026886,新規,0,2025-08-27,2025-08-27,株式会社ａｒｕｊｉ,,株式会社,石川県,金沢市,東町３２番,,17,201,9201121,,,,,,,2025-08-27,1,,,,,アルジ,0
674,3240003007379,新規,0,2025-08-27,2025-08-27,Ｐ．Ｒ．ワーク設計合同会社,,合同会社,広島県,広島市佐伯区,美鈴が丘南３丁目９番３号,,34,108,7315112,,,,,,,2025-08-27,1,,,,,ピーアールワークセッケイ,0
686,3290001111137,新規,0,2025-08-27,2025-08-27,立山植物園株式会社,,株式会社,福岡県,小郡市,山隈３００番地３,,40,216,8380113,,,,,,,2025-08-27,1,,,,,タテヤマショクブツエン,0
687,3290001111228,新規,0,2025-08-27,2025-08-27,株式会社九州産業,,株式会社,福岡県,福岡市東区,多の津１丁目１６番４号,,40,131,8130034,,,,,,,2025-08-27,1,,,,,キュウシュウサンギョウ,0
689,3310001019765,新規,0,2025-08-27,2025-08-27,Ａｓｕｎｏ株式会社,,株式会社,長崎県,諫早市,八天町８番１９号,,42,204,8540011,,,,,,,2025-08-27,1,,,,,アスノ,0
694,3340005009900,新規,0,2025-08-27,2025-08-27,種子島なかたね仕事サポート協同組合,,その他の設立登記法人,鹿児島県,熊毛郡中種子町,野間５１８６番地,,46,501,8913604,,,,,,,2025-08-27,1,,,,,タネガシマナカタネシゴトサポート,0
715,3430003018019,新規,0,2025-08-27,2025-08-27,合同会社光縁,,合同会社,北海道,札幌市手稲区,前田二条１１丁目９番８号,,01,109,0060812,,,,,,,2025-08-27,1,,,,,コウエン,0
722,3700150016929,新規,0,2025-08-27,2015-10-09,日本ウィクリフ聖書翻訳協会,,その他,東京都,千代田区,神田駿河台２丁目１ＯＣＣビル２０５,,13,101,1010062,,,,,,,2015-10-09,1,,,,,ニホンウイクリフセイシヨホンヤクキヨウカイ,0
723,3700150027736,新規,0,2025-08-27,2015-10-09,神戸海運貨物取扱業組合,,その他,兵庫県,神戸市中央区,新港町１４－１,,28,110,6500041,,,,,,,2015-10-09,1,,,,,コウベカイウンカモツトリアツカイギヨウクミアイ,0
736,4010001257659,新規,0,2025-08-27,2025-08-27,株式会社Ｓエンブレイス,,株式会社,東京都,中央区,日本橋富沢町５－１０月村マンションｎｏ．２８－４０３号室,,13,102,1030006,,,,,,,2025-08-27,1,,,,,エスエンブレイス,0
737,4010001257758,新規,0,2025-08-27,2025-08-27,株式会社フィルマメント,,株式会社,東京都,中央区,日本橋人形町２丁目７－１３レイフォリア人形町３階,,13,102,1030013,,,,,,,2025-08-27,1,,,,,フィルマメント,0
738,4010001257832,新規,0,2025-08-27,2025-08-27,株式会社Ｄｏｔｐｒｏｄｕｃｔ,,株式会社,東京都,中央区,銀座１丁目１２番４号Ｎ＆ＥＢＬＤ．６Ｆ,,13,102,1040061,,,,,,,2025-08-27,1,,,,,ドットプロダクト,0
739,4010001258005,新規,0,2025-08-27,2025-08-27,和創株式会社,,株式会社,東京都,中央区,銀座１丁目２２番１１号銀座大竹ビジデンス２Ｆ,,13,102,1040061,,,,,,,2025-08-27,1,,,,,ワソー,0
740,4010001258013,新規,0,2025-08-27,2025-08-27,メゾン・イキ株式会社,,株式会社,東京都,文京区,湯島３丁目２１番５号サンコート湯島４０３,,13,105,1130034,,,,,,,2025-08-27,1,,,,,メゾンイキ,0
745,4010003048528,新規,0,2025-08-27,2025-08-27,ＹＵＭＵ貿易合同会社,,合同会社,東京都,文京区,千駄木２丁目３３番－９－７０３パレドール千駄木,,13,105,1130022,,,,,,,2025-08-27,1,,,,,ユムボウエキ,0
757,4010401192571,新規,0,2025-08-27,2025-08-27,ＡＬＴＩＵＳ株式会社,,株式会社,東京都,港区,浜松町１丁目２６番６－６０２号,,13,103,1050013,,,,,,,2025-08-27,1,,,,,アルティウス,0
760,4010503007958,新規,0,2025-08-27,2025-08-27,六六大順合同会社,,合同会社,東京都,台東区,柳橋２丁目１９番１０号第二東商センター２号館４２４号,,13,106,1110052,,,,,,,2025-08-27,1,,,,,リュウリュウダイジュン,0
765,4010601067870,新規,0,2025-08-27,2025-08-27,Ｓｍａｒｔ　Ｅｎｅｒｇｙ　Ｃｏｎｓｕｌｔｉｎｇ株式会社,,株式会社,東京都,江東区,豊洲６丁目２番３１－３８１６号,,13,108,1350061,,,,,,,2025-08-27,1,,,,,スマートエナジーコンサルティング,0
782,4011001171718,新規,0,2025-08-27,2025-08-27,株式会社ＩＮ,,株式会社,東京都,目黒区,下目黒６丁目１６番１３－５０４号ライオンズマンション下目黒,,13,110,1530064,,,,,,,2025-08-27,1,,,,,アイエヌ,0
791,4011101112778,新規,0,2025-08-27,2025-08-27,本家国際株式会社,,株式会社,東京都,新宿区,下落合３丁目１５番２０号目白大和田マンション３０２,,13,104,1610033,,,,,,,2025-08-27,1,,,,,ホンケコクサイ,0
792,4011101112927,新規,0,2025-08-27,2025-08-27,三成人工智能東京科技株式会社,,株式会社,東京都,新宿区,百人町２丁目１３番１３号Ｊハウス２１０,,13,104,1690073,,,,,,,2025-08-27,1,,,,,サンセイジンコウチノウトウキョウカギ,0
794,4011103016242,新規,0,2025-08-27,2025-08-27,ＬｅａｄＲｉｓｅ合同会社,,合同会社,東京都,新宿区,中落合１丁目１１番３号フレシール中落合１０１,,13,104,1610032,,,,,,,2025-08-27,1,,,,,リードライズ,0
795,4011103016250,新規,0,2025-08-27,2025-08-27,合同会社Ｙｏｕｔｈ,,合同会社,東京都,新宿区,白銀町６番１－４２４,,13,104,1620816,,,,,,,2025-08-27,1,,,,,ユース,0
805,4012801024180,新規,0,2025-08-27,2025-08-27,株式会社アシスル,,株式会社,東京都,立川市,若葉町４丁目１－１エクセルＭ３０３,,13,202,1900001,,,,,,,2025-08-27,1,,,,,アシスル,0
807,4012803003843,新規,0,2025-08-27,2025-08-27,合同会社コンサルテック,,合同会社,東京都,立川市,高松町３丁目１０番５号クリエ石川２－Ｂ号室,,13,202,1900011,,,,,,,2025-08-27,1,,,,,コンサルテック,0
827,4021001086147,新規,0,2025-08-27,2025-08-27,ＬＡＫＤＩＷＥＬＡ　ＨＯＬＤＩＮＧＳ株式会社,,株式会社,神奈川県,大和市,深見東３丁目６番２３－２０２号,,14,213,2420012,,,,,,,2025-08-27,1,,,,,ラクディウェラホールディングス,0
829,4021003016457,新規,0,2025-08-27,2025-08-27,合同会社ＣｌｉｐＪｏｙ,,合同会社,神奈川県,横須賀市,追浜東町３丁目５５番地１１ハーミットクラブハウスＢ－１０３,,14,201,2370063,,,,,,,2025-08-27,1,,,,,クリップジョイ,0
831,4030001168276,新規,0,2025-08-27,2025-08-27,株式会社ＯＣＥＡＮ　ｏｆ　ｍｉｎｄ,,株式会社,埼玉県,ふじみ野市,鶴ケ岡３丁目３－３１,,11,245,3560045,,,,,,,2025-08-27,1,,,,,オーシャンオブマインド,0
832,4030001168326,新規,0,2025-08-27,2025-08-27,株式会社ＤＯＲＧＡ,,株式会社,埼玉県,川口市,大字西立野５５５番地の１,,11,203,3330813,,,,,,,2025-08-27,1,,,,,ドルガ,0
833,4030001168334,新規,0,2025-08-27,2025-08-27,株式会社ｍｉｙｏｃｋａ,,株式会社,埼玉県,越谷市,蒲生南町１０番２号,,11,222,3430833,,,,,,,2025-08-27,1,,,,,ミヨッカ,0
851,4040003028329,新規,0,2025-08-27,2025-08-27,ＴｈａｎｈＴｉＴｉ　Ｃｏｍｐｕｔｅｒ合同会社,,合同会社,千葉県,松戸市,小金清志町３丁目４３－６,,12,207,2700016,,,,,,,2025-08-27,1,,,,,タインティティコンピューター,0
852,4040003028411,新規,0,2025-08-27,2025-08-27,タタス合同会社,,合同会社,千葉県,船橋市,旭町１丁目９番１２号,,12,204,2730041,,,,,,,2025-08-27,1,,,,,タタス,0
856,4060001038526,新規,0,2025-08-27,2025-08-27,株式会社ＰＲＳ那須塩原,,株式会社,栃木県,那須塩原市,塩原１１１５番地２,,09,213,3292921,,,,,,,2025-08-27,1,,,,,ピーアールエスナスシオバラ,0
865,4070003006034,新規,0,2025-08-27,2025-08-27,ＳＨＡＨ　ＪＡＰＡＮ合同会社,,合同会社,群馬県,館林市,赤生田町７２２番地の１７,,10,207,3740013,,,,,,,2025-08-27,1,,,,,シャジャパン,0
866,4080101025744,新規,0,2025-08-27,2025-08-27,株式会社ＨＯＫＵＴＯ,,株式会社,静岡県,沼津市,杉崎町１３‐３２奈良橋ビル２階４号室,,22,203,4100033,,,,,,,2025-08-27,1,,,,,ホクト,0
880,4100003008357,新規,0,2025-08-27,2025-08-27,合同会社Ｔａｖｅｌ,,合同会社,長野県,大町市,大町２９６９番地７,,20,212,3980002,,,,,,,2025-08-27,1,,,,,タベル,0
892,4120001278859,新規,0,2025-08-27,2025-08-27,Ｏｎｅｗａｒｄ株式会社,,株式会社,大阪府,大阪市西区,新町１丁目３４番２－１２０６号,,27,106,5500013,,,,,,,2025-08-27,1,,,,,ワンワード,0
893,4120001279080,新規,0,2025-08-27,2025-08-27,株式会社アビリティ,,株式会社,大阪府,大阪市中央区,高麗橋２丁目３番５号投資ＪＰ北浜ビル１階,,27,128,5410043,,,,,,,2025-08-27,1,,,,,アビリティ,0
894,4120001279114,新規,0,2025-08-27,2025-08-27,株式会社クレディフィルム,,株式会社,大阪府,大阪市福島区,鷺洲５丁目１２－２８,,27,103,5530002,,,,,,,2025-08-27,1,,,,,クレディフィルム,0
895,4120001279147,新規,0,2025-08-27,2025-08-27,新意達株式会社,,株式会社,大阪府,大阪市北区,長柄中２丁目５番３０号,,27,127,5310062,,,,,,,2025-08-27,1,,,,,シンイタツ,0
902,4120003030391,新規,0,2025-08-27,2025-08-27,星輝合同会社,,合同会社,大阪府,大阪市住吉区,南住吉２丁目６番２１号ホワイトコーポ南住吉５０３号,,27,120,5580041,,,,,,,2025-08-27,1,,,,,ホシキ,0
910,4120103006655,新規,0,2025-08-27,2025-08-27,ミリオンゲート合同会社,,合同会社,大阪府,大阪狭山市,大野台３丁目１４番３号,,27,231,5890023,,,,,,,2025-08-27,1,,,,,ミリオンゲート,0
919,4130001010758,新規,0,2025-08-27,2025-08-27,山陶商興株式会社,,株式会社,京都府,京都市南区,吉祥院砂ノ町５７番地の２,,26,107,6018335,,,,,,,2025-08-27,1,,,,,サントウショウコウ,0
922,4130001080371,新規,0,2025-08-27,2025-08-27,株式会社フクル商店,,株式会社,京都府,京都市左京区,一乗寺払殿町１７－１１,,26,103,6068184,,,,,,,2025-08-27,1,,,,,フクルショウテン,0
923,4130001080405,新規,0,2025-08-27,2025-08-27,株式会社ＦＡＮＣＥ　ＦＡＳＨＩＯＮ,,株式会社,京都府,京都市南区,唐橋西寺町３５－６,,26,107,6018466,,,,,,,2025-08-27,1,,,,,ファンシーファッション,0
934,4140003022494,新規,0,2025-08-27,2025-08-27,合同会社ナイン,,合同会社,兵庫県,洲本市,栄町２丁目１番２４号清水ビル２０２,,28,205,6560026,,,,,,,2025-08-27,1,,,,,ナイン,0
942,4180001168328,新規,0,2025-08-27,2025-08-27,ＤＩＥＳＥＬ　ＣＬＩＮＩＣ株式会社,,株式会社,愛知県,一宮市,大和町南高井字五反田８２番地１,,23,203,4910925,,,,,,,2025-08-27,1,,,,,ディーゼルクリニック,0
947,4180301040137,新規,0,2025-08-27,2025-08-27,株式会社ナツメジャパン,,株式会社,愛知県,蒲郡市,緑町１２番３４号,,23,214,4430048,,,,,,,2025-08-27,1,,,,,ナツメジャパン,0
955,4200003006994,新規,0,2025-08-27,2025-08-27,合同会社リベルタ,,合同会社,岐阜県,下呂市,和佐１５９７番地,,21,220,5092133,,,,,,,2025-08-27,1,,,,,リベルタ,0
967,4240003007378,新規,0,2025-08-27,2025-08-27,合同会社ＳＰＴ,,合同会社,広島県,広島市中区,基町１８番１－１９６５号,,34,101,7300011,,,,,,,2025-08-27,1,,,,,エスピーティー,0
968,4260005011509,新規,0,2025-08-27,2025-08-27,一般社団法人高梁みらい探究ＦｕｎＤｏ,,その他の設立登記法人,岡山県,高梁市,栄町１９０４番地,,33,209,7160035,,,,,,,2025-08-27,1,,,,,タカハシミライタンキュウファンド,0
977,4290001111235,新規,0,2025-08-27,2025-08-27,株式会社創成,,株式会社,福岡県,福岡市中央区,御所ヶ谷５番５号,,40,133,8100027,,,,,,,2025-08-27,1,,,,,ソウセイ,0
992,4340003004935,新規,0,2025-08-27,2025-08-27,合同会社シエロ,,合同会社,鹿児島県,鹿児島市,東俣町３７７７－２３,,46,201,8911102,,,,,,,2025-08-27,1,,,,,シエロ,0
1001,4360001035682,新規,0,2025-08-27,2025-08-27,株式会社ＭＯＭＯエステート,,株式会社,沖縄県,国頭郡本部町,字山川８７０番地１ザエテルインディゴ本部５０４,,47,308,9050205,,,,,,,2025-08-27,1,,,,,モモエステート,0
1002,4360001035690,新規,0,2025-08-27,2025-08-27,株式会社沖縄シーサーズパレス,,株式会社,沖縄県,名護市,字済井出１０６３番地２２,,47,209,9051635,,,,,,,2025-08-27,1,,,,,オキナワシーサーズパレス,0
1006,4400001017148,新規,0,2025-08-27,2025-08-27,ＷＯＲＬＤ　ＶＩＳＩＯＮ株式会社,,株式会社,岩手県,二戸郡一戸町,西法寺字稲荷２１－５,,03,524,0285301,,,,,,,2025-08-27,1,,,,,ワールドビジョン,0
1011,4430001095091,新規,0,2025-08-27,2025-08-27,株式会社Ａｖａｎｃｅ,,株式会社,北海道,札幌市中央区,南三条西９丁目９９８番地３．９ＢＬＤ２０３号室,,01,101,0600063,,,,,,,2025-08-27,1,,,,,アバンス,0
1012,4430001095133,新規,0,2025-08-27,2025-08-27,株式会社ＭＫ北海道アセットマネージメント,,株式会社,北海道,札幌市東区,北三十八条東１２丁目１番２０号,,01,103,0070838,,,,,,,2025-08-27,1,,,,,エムケーホッカイドウアセットマネージメント,0
1017,4430005015285,新規,0,2025-08-27,2025-08-27,一般社団法人全国身元保証センター,,その他の設立登記法人,北海道,札幌市西区,発寒十条２丁目４番１０号,,01,107,0630830,,,,,,,2025-08-27,1,,,,,ゼンコクミモトホショウセンター,0
1019,4460101007745,新規,0,2025-08-27,2025-08-27,株式会社総武建設,,株式会社,北海道,帯広市,西十五条南１１丁目１番地２６,,01,207,0800025,,,,,,,2025-08-27,1,,,,,ソウブケンセツ,0
1023,5010001258004,新規,0,2025-08-27,2025-08-27,株式会社ＨＩＲＡＮＯ　ＴＩＲＥ,,株式会社,東京都,中央区,銀座１丁目５番１２号,,13,102,1040061,,,,,,,2025-08-27,1,,,,,ヒラノタイヤ,0
1024,5010001258012,新規,0,2025-08-27,2025-08-27,株式会社Ｓａｌｉｙｏｕ,,株式会社,東京都,千代田区,神田猿楽町２丁目８番１１号ＶＯＲＴ水道橋３,,13,101,1010064,,,,,,,2025-08-27,1,,,,,サリユ,0
1029,5010003048519,新規,0,2025-08-27,2025-08-27,合同会社トワイライト・フォー,,合同会社,東京都,千代田区,内幸町２丁目１番６号,,13,101,1000011,,,,,,,2025-08-27,1,,,,,トワイライトフォー,0
1030,5010003048527,新規,0,2025-08-27,2025-08-27,ｉプロパティ２４合同会社,,合同会社,東京都,千代田区,永田町２丁目１４番２号－３階スリーアイズキャピタル株式会社内,,13,101,1000014,,,,,,,2025-08-27,1,,,,,アイプロパティトゥエンティフォー,0
1031,5010003048543,新規,0,2025-08-27,2025-08-27,愛知豊川蓄電合同会社,,合同会社,東京都,千代田区,神田練塀町３番地,,13,101,1010022,,,,,,,2025-08-27,1,,,,,アイチトヨカワチクデン,0
1036,5010403035868,新規,0,2025-08-27,2025-08-27,合同会社シールド,,合同会社,東京都,港区,浜松町２丁目２番１５号浜松町ダイヤビル２Ｆ,,13,103,1050013,,,,,,,2025-08-27,1,,,,,シールド,0
1040,5010501054613,新規,0,2025-08-27,2025-08-27,ヨシダ検品株式会社,,株式会社,東京都,台東区,台東２丁目２７番３号ＮＳＫビル１０Ｆ,,13,106,1100016,,,,,,,2025-08-27,1,,,,,ヨシダケンピン,0
1041,5010503007965,新規,0,2025-08-27,2025-08-27,国偉合同会社,,合同会社,東京都,台東区,浅草橋１丁目２５－７,,13,106,1110053,,,,,,,2025-08-27,1,,,,,コクイ,0
1049,5010901057983,新規,0,2025-08-27,2025-08-27,株式会社スムマッチ,,株式会社,東京都,世田谷区,深沢３丁目２２番１２号,,13,112,1580081,,,,,,,2025-08-27,1,,,,,スムマッチ,0
1054,5011001171519,新規,0,2025-08-27,2025-08-27,マーキュリー株式会社,,株式会社,東京都,渋谷区,神宮前６丁目１９－１５高野第一ビル５階,,13,113,1500001,,,,,,,2025-08-27,1,,,,,マーキュリー,0
1055,5011001172005,新規,0,2025-08-27,2025-08-27,株式会社ＧｏＹＥＮ,,株式会社,東京都,渋谷区,松濤１丁目２９－２４シティコート松濤５０１,,13,113,1500046,,,,,,,2025-08-27,1,,,,,ゴエン,0
1056,5011001172120,新規,0,2025-08-27,2025-08-27,株式会社ＯｗｎＰｌａｃｅ,,株式会社,東京都,渋谷区,恵比寿西２丁目４番８号ウィンド恵比寿ビル８Ｆ,,13,113,1500021,,,,,,,2025-08-27,1,,,,,オウンプレイス,0
1059,5011101043378,新規,0,2025-08-27,2025-08-27,株式会社今佐総業,,株式会社,東京都,新宿区,西新宿１丁目１３番１号,,13,104,1600023,,,,,,,2025-08-27,1,,,,,イマサソウギョウ,0
1061,5011101112785,新規,0,2025-08-27,2025-08-27,株式会社教育百貨店,,株式会社,東京都,新宿区,西新宿３丁目３番１３号西新宿水間ビル６階,,13,104,1600023,,,,,,,2025-08-27,1,,,,,キョウイクヒャッカテン,0
1062,5011101112793,新規,0,2025-08-27,2025-08-27,株式会社ＡＣＵ,,株式会社,東京都,新宿区,西新宿７丁目１番７号新宿ダイカンプラザＡ館４０４,,13,104,1600023,,,,,,,2025-08-27,1,,,,,アキュ,0
1063,5011101112819,新規,0,2025-08-27,2025-08-27,株式会社ＰＲＯＰ,,株式会社,東京都,新宿区,高田馬場２丁目１５番２号成陽ビル３階,,13,104,1690075,,,,,,,2025-08-27,1,,,,,プロップ,0
1064,5011101112884,新規,0,2025-08-27,2025-08-27,株式会社ＴＥＯ,,株式会社,東京都,新宿区,大久保２丁目２０番５号ＳＴヴィラ１Ｆ,,13,104,1690072,,,,,,,2025-08-27,1,,,,,テオ,0
1068,5011403004805,新規,0,2025-08-27,2025-08-27,合同会社ＫＡＴＡＴＳＵＭＵＲＩ,,合同会社,東京都,板橋区,中丸町３３番７号アンドレジデンス中丸町２０２,,13,119,1730026,,,,,,,2025-08-27,1,,,,,カタツムリ,0
1069,5011501032492,新規,0,2025-08-27,2025-08-27,通順株式会社,,株式会社,東京都,北区,浮間１丁目１－１４リムジンビル１１０号室,,13,117,1150051,,,,,,,2025-08-27,1,,,,,ツウジュン,0
1072,5011701028654,新規,0,2025-08-27,2025-08-27,株式会社Ｄ‐ＴＡＳＱ,,株式会社,東京都,江戸川区,船堀５丁目９番２１号,,13,123,1340091,,,,,,,2025-08-27,1,,,,,ディータスク,0
1075,5012401043530,新規,0,2025-08-27,2025-08-27,株式会社Ｄ‐Ｓｅｎｓｅ,,株式会社,東京都,武蔵野市,境南町３丁目６番８号Ｒａｖｅｎｎａ２０３,,13,203,1800023,,,,,,,2025-08-27,1,,,,,ディーセンス,0
1078,5013301054808,新規,0,2025-08-27,2025-08-27,ＩＲＯＨＡＮＳ　ＡＲＫ株式会社,,株式会社,東京都,豊島区,池袋本町２丁目８番３－１０１号,,13,116,1700011,,,,,,,2025-08-27,1,,,,,イロハンズアーク,0
1079,5013301054816,新規,0,2025-08-27,2025-08-27,株式会社Ｌｕｎｅｕ,,株式会社,東京都,豊島区,池袋２丁目４５番１‐５０２号,,13,116,1710014,,,,,,,2025-08-27,1,,,,,ルノイ,0
1091,5021003016456,新規,0,2025-08-27,2025-08-27,Ｒｅａｌ　ｆａｒｍ合同会社,,合同会社,神奈川県,足柄上郡松田町,寄１７１４番地,,14,363,2580001,,,,,,,2025-08-27,1,,,,,リアルファーム,0
1092,5021003016489,新規,0,2025-08-27,2025-08-27,合同会社ＭＡＤＷＯＲＫＳ,,合同会社,神奈川県,茅ヶ崎市,浜竹２丁目１番２ー５０１号,,14,207,2530021,,,,,,,2025-08-27,1,,,,,マッドワークス,0
1096,5030001168317,新規,0,2025-08-27,2025-08-27,株式会社ＫＦグループ,,株式会社,埼玉県,川口市,上青木１丁目２２番２０号,,11,203,3330844,,,,,,,2025-08-27,1,,,,,ケイエフグループ,0
1097,5030001168341,新規,0,2025-08-27,2025-08-27,株式会社アクセルワークス,,株式会社,埼玉県,越谷市,千間台西３丁目３番地パークタウン１３－１０１,,11,222,3430041,,,,,,,2025-08-27,1,,,,,アクセルワークス,0
1101,5030003027470,新規,0,2025-08-27,2025-08-27,合同会社おひさま３３５５,,合同会社,埼玉県,加須市,陽光台２丁目８４３番地９９号,,11,210,3491204,,,,,,,2025-08-27,1,,,,,オヒサマサンサンゴーゴー,0
1109,5040001140209,新規,0,2025-08-27,2025-08-27,株式会社キウチ,,株式会社,千葉県,松戸市,小金原３丁目１５番地の３７,,12,207,2700021,,,,,,,2025-08-27,1,,,,,キウチ,0
1114,5040003028154,新規,0,2025-08-27,2025-08-27,合同会社勝弘,,合同会社,千葉県,習志野市,東習志野４丁目１番２８－１,,12,216,2750001,,,,,,,2025-08-27,1,,,,,カツヒロ,0
1115,5040003028369,新規,0,2025-08-27,2025-08-27,日本堂ＡＩ合同会社,,合同会社,千葉県,松戸市,日暮４丁目１５番地９,,12,207,2702253,,,,,,,2025-08-27,1,,,,,ニッポンドーエーアイ,0
1122,5080103003409,新規,0,2025-08-27,2025-08-27,Ｃａｔａｌｙｓｔ　Ｅｎｔｅｒｔａｉｎｍｅｎｔ合同会社,,合同会社,静岡県,富士市,今泉２００２－１８,,22,210,4170001,,,,,,,2025-08-27,1,,,,,カタリストエンターテインメント,0
1123,5080401028132,新規,0,2025-08-27,2025-08-27,株式会社Ｍ．Ｋ．Ｙ,,株式会社,静岡県,磐田市,豊浜２６番地,,22,211,4371202,,,,,,,2025-08-27,1,,,,,エムケーワイ,0
1133,5110003005864,新規,0,2025-08-27,2025-08-27,合同会社吉善,,合同会社,新潟県,新潟市中央区,川端町３丁目１５番地１コープ野村川端町Ａ１０５号,,15,103,9518053,,,,,,,2025-08-27,1,,,,,ヨシゼン,0
1138,5120001278981,新規,0,2025-08-27,2025-08-27,株式会社ＣＴＹ７ＶＥＮＴＵＲＥ,,株式会社,大阪府,大阪市北区,天満２丁目１－１２天満橋ＳＥビル４階,,27,127,5300043,,,,,,,2025-08-27,1,,,,,シーティーワイセブンベンチャー,0
1139,5120001279047,新規,0,2025-08-27,2025-08-27,奕倫株式会社,,株式会社,大阪府,大阪市西区,立売堀４丁目３番１６号５０６室,,27,106,5500012,,,,,,,2025-08-27,1,,,,,エキリン,0
1140,5120001279146,新規,0,2025-08-27,2025-08-27,ＧＯＧＯ　ＫＯＳＯＭＯ株式会社,,株式会社,大阪府,大阪市中央区,瓦屋町２丁目５番２０－３１０号,,27,128,5420066,,,,,,,2025-08-27,1,,,,,ゴーゴーコスモ,0
1144,5120003030333,新規,0,2025-08-27,2025-08-27,合同会社ソラシド,,合同会社,大阪府,大阪市鶴見区,放出東３丁目２０－２８アーバン宮崎１０１,,27,124,5380044,,,,,,,2025-08-27,1,,,,,ソラシド,0
1147,5120101072319,新規,0,2025-08-27,2025-08-27,小綿株式会社,,株式会社,大阪府,堺市北区,南花田町４１７番３－２１６号,,27,146,5918011,,,,,,,2025-08-27,1,,,,,コワタ,0
1148,5120101072343,新規,0,2025-08-27,2025-08-27,株式会社マーブル,,株式会社,大阪府,泉佐野市,市場西１丁目１３番７号,,27,213,5980006,,,,,,,2025-08-27,1,,,,,マーブル,0
1161,5130001080354,新規,0,2025-08-27,2025-08-27,フェルーチェ株式会社,,株式会社,京都府,京都市北区,紫竹西野山東町９番地,,26,101,6038442,,,,,,,2025-08-27,1,,,,,フェルーチェ,0
1166,5140003022502,新規,0,2025-08-27,2025-08-27,合同会社ＯＮＥ　ＤＡＹ．,,合同会社,兵庫県,養父市,八鹿町八鹿１４５６番地１メゾンフルール２０３,,28,222,6670021,,,,,,,2025-08-27,1,,,,,ワンデイ,0
1179,5180001168327,新規,0,2025-08-27,2025-08-27,ＪＹＨ株式会社,,株式会社,愛知県,名古屋市千種区,鹿子町７丁目４７、３階,,23,101,4640033,,,,,,,2025-08-27,1,,,,,ジェイワイエイチ,0
1187,5180003028917,新規,0,2025-08-27,2025-08-27,ＬＵＡ　ＴＡＹ１９９８合同会社,,合同会社,愛知県,名古屋市天白区,中平２丁目１９１１番地の３レオパレス天白１１０号,,23,116,4680014,,,,,,,2025-08-27,1,,,,,ルアタイイチキュウキュウハチ,0
1188,5180005021201,新規,0,2025-08-27,2025-08-27,一般社団法人新東協議会,,その他の設立登記法人,愛知県,知多市,新知東町２丁目２０番地の１０,,23,224,4780065,,,,,,,2025-08-27,1,,,,,シントウキョウギカイ,0
1190,5180301040136,新規,0,2025-08-27,2025-08-27,株式会社中部訪問看護,,株式会社,愛知県,岡崎市,岩津町字檀ノ上１４２番地１２,,23,202,4442144,,,,,,,2025-08-27,1,,,,,チュウブホウモンカンゴ,0
1199,5260001040469,新規,0,2025-08-27,2025-08-27,資産設計ソリューションズ株式会社,,株式会社,岡山県,岡山市中区,＿３３番２号グランコート＿三番館３０１号室,00140433,33,102,7038248,,,,,,,2025-08-27,1,,,,,シサンセッケイソリューションズ,0
1200,5260003005321,新規,0,2025-08-27,2025-08-27,合同会社ＣＲＯＷＤ,,合同会社,岡山県,倉敷市,水島西常盤町１１－２,,33,202,7128059,,,,,,,2025-08-27,1,,,,,クラウド,0
1211,5290005019812,新規,0,2025-08-27,2025-08-27,一般社団法人ギャンブル依存症家族の会福岡,,その他の設立登記法人,福岡県,久留米市,東和町３番地３クィーンズプラザ久留米中央８０１号,,40,203,8300035,,,,,,,2025-08-27,1,,,,,ギャンブルイゾンショウカゾクノカイフクオカ,0
1212,5290801031805,新規,0,2025-08-27,2025-08-27,ガイア株式会社,,株式会社,福岡県,北九州市小倉北区,片野３丁目４番１号２Ｆ,,40,106,8020064,,,,,,,2025-08-27,1,,,,,ガイア,0
1228,5370001052973,新規,0,2025-08-27,2025-08-27,ＣＬＬ株式会社,,株式会社,宮城県,柴田郡柴田町,大字上川名字舘山５２番地,,04,323,9891742,,,,,,,2025-08-27,1,,,,,シーエルエル,0
1239,5430001095025,新規,0,2025-08-27,2025-08-27,株式会社フードスプラード,,株式会社,北海道,札幌市中央区,南七条西３丁目２－１５ユニバーサルアテネビル３階,,01,101,0640807,,,,,,,2025-08-27,1,,,,,フードスプラード,0
1252,6010001257995,新規,0,2025-08-27,2025-08-27,株式会社Ｌｕｘ　Ｇａｔｅ,,株式会社,東京都,千代田区,麹町４丁目５－２０ＫＳビル,,13,101,1020083,,,,,,,2025-08-27,1,,,,,ラクスゲート,0
1253,6010001258036,新規,0,2025-08-27,2025-08-27,株式会社ＧＯ　ＷＩＤＥ,,株式会社,東京都,千代田区,内神田２丁目３番９号第２桐治ビル５階,,13,101,1010047,,,,,,,2025-08-27,1,,,,,ゴーワイド,0
1262,6010401192636,新規,0,2025-08-27,2025-08-27,株式会社ブルームサポート,,株式会社,東京都,港区,赤坂５丁目５番１０－１４０２号,,13,103,1070052,,,,,,,2025-08-27,1,,,,,ブルームサポート,0
1263,6010401192702,新規,0,2025-08-27,2025-08-27,Ｆｏｒ　Ｇｒｏｗｔｈ　Ｃａｒｅｅｒ株式会社,,株式会社,東京都,港区,虎ノ門５丁目１１番２号オランダヒルズ森タワー１８階,,13,103,1050001,,,,,,,2025-08-27,1,,,,,フォーグロースキャリア,0
1265,6010501054538,新規,0,2025-08-27,2025-08-27,株式会社Ｊ．Ｍ．Ｋ,,株式会社,東京都,台東区,台東４丁目３０番６－１００５号,,13,106,1100016,,,,,,,2025-08-27,1,,,,,,0
1266,6010501054612,新規,0,2025-08-27,2025-08-27,白風庵株式会社,,株式会社,東京都,台東区,台東３丁目５番１０号１０２－Ｓダイアパレス御徒町第３,,13,106,1100016,,,,,,,2025-08-27,1,,,,,ハクフウアン,0
1269,6010701048224,新規,0,2025-08-27,2025-08-27,株式会社イット,,株式会社,東京都,品川区,東五反田２丁目３－１０レジェンド五反田４０３,,13,109,1410022,,,,,,,2025-08-27,1,,,,,イット,0
1272,6010901057982,新規,0,2025-08-27,2025-08-27,株式会社Ｃａｓａｓｕ,,株式会社,東京都,世田谷区,野沢１丁目３５－１３－５１０,,13,112,1540003,,,,,,,2025-08-27,1,,,,,カサス,0
1281,6011001171889,新規,0,2025-08-27,2025-08-27,株式会社Ｅｎｂｒｉｄｇｅ,,株式会社,東京都,渋谷区,恵比寿西２丁目８番４号ＥＸ恵比寿西ビル５Ｆ,,13,113,1500021,,,,,,,2025-08-27,1,,,,,エンブリッジ,0
1282,6011001172160,新規,0,2025-08-27,2025-08-27,株式会社家のチカラ,,株式会社,東京都,目黒区,下目黒１丁目１番地１４号コノトラビル７Ｆ,,13,110,1530064,,,,,,,2025-08-27,1,,,,,イエノチカラ,0
1285,6011003022248,新規,0,2025-08-27,2025-08-27,合同会社アクティブ,,合同会社,東京都,渋谷区,神宮前６丁目２３番４号桑野ビル２階,,13,113,1500001,,,,,,,2025-08-27,1,,,,,アクティブ,0
1286,6011003022371,新規,0,2025-08-27,2025-08-27,合同会社アンサンブル,,合同会社,東京都,目黒区,南３丁目４番５号,,13,110,1520013,,,,,,,2025-08-27,1,,,,,アンサンブル,0
1290,6011101112719,新規,0,2025-08-27,2025-08-27,ＴＲＩＶＹ株式会社,,株式会社,東京都,新宿区,市谷本村町３－２２ナカバビル２階,,13,104,1620845,,,,,,,2025-08-27,1,,,,,トライビー,0
1291,6011101112792,新規,0,2025-08-27,2025-08-27,株式会社ＲＨＤ,,株式会社,東京都,新宿区,新宿１丁目７番１０号グランドメゾン新宿御苑７０１号室,,13,104,1600022,,,,,,,2025-08-27,1,,,,,アールエイチディー,0
1292,6011101112883,新規,0,2025-08-27,2025-08-27,Ｙ’ｓ　Ｃｒｅｗ株式会社,,株式会社,東京都,新宿区,西新宿３丁目３番１３号西新宿水間ビル２Ｆ,,13,104,1600023,,,,,,,2025-08-27,1,,,,,ワイズクルー,0
1296,6011501032491,新規,0,2025-08-27,2025-08-27,徳衆株式会社,,株式会社,東京都,北区,浮間１丁目１－１４リムジンビル１２１,,13,117,1150051,,,,,,,2025-08-27,1,,,,,トクシュウ,0
1304,6013305003743,新規,0,2025-08-27,2025-08-27,行政書士法人東京大通国際法務事務所,,その他の設立登記法人,東京都,豊島区,東池袋２丁目６２番８号,,13,116,1700013,,,,,,,2025-08-27,1,,,,,トウキョウオオドオリコクサイホウムジムショ,0
1312,6020001164472,新規,0,2025-08-27,2025-08-27,ライトナウ株式会社,,株式会社,神奈川県,横浜市西区,浅間町１丁目４番３号,,14,103,2200072,,,,,,,2025-08-27,1,,,,,ライトナウ,0
1325,6030001168299,新規,0,2025-08-27,2025-08-27,ＡＲＡＳ株式会社,,株式会社,埼玉県,所沢市,中富南４丁目１５番地の１,,11,208,3590003,,,,,,,2025-08-27,1,,,,,アラス,0
1326,6030001168340,新規,0,2025-08-27,2025-08-27,株式会社テイク,,株式会社,埼玉県,さいたま市北区,吉野町１丁目３９７番地３,,11,102,3310811,,,,,,,2025-08-27,1,,,,,テイク,0
1330,6030003027486,新規,0,2025-08-27,2025-08-27,ｅｔｎ辻南合同会社,,合同会社,埼玉県,さいたま市南区,辻７丁目１３番１８,00140434,11,108,3360026,,,,,,,2025-08-27,1,,,,,イーティーエヌツジナン,0
1349,6050001057112,新規,0,2025-08-27,2025-08-27,Ｋｏｄａｍａ　Ｇｌｏｂａｌ株式会社,,株式会社,茨城県,石岡市,弓弦１８３番地,,08,205,3150142,,,,,,,2025-08-27,1,,,,,コダマグローバル,0
1357,6080105006532,新規,0,2025-08-27,2025-08-27,一般社団法人さく井技術研究所,,その他の設立登記法人,静岡県,富士市,厚原２２０２番地,,22,210,4190201,,,,,,,2025-08-27,1,,,,,サクセイギジュツケンキュウジョ,0
1382,6120001279070,新規,0,2025-08-27,2025-08-27,株式会社Ｍ‐ＬＡＢＯ,,株式会社,大阪府,大阪市北区,梅田１丁目２番２号大阪駅前第２ビル１２－１２,,27,127,5300001,,,,,,,2025-08-27,1,,,,,エムラボ,0
1383,6120001279137,新規,0,2025-08-27,2025-08-27,株式会社ゴルフブリッジオオサカ,,株式会社,大阪府,大阪市淀川区,加島１丁目５９－１１－２０１,,27,123,5320031,,,,,,,2025-08-27,1,,,,,ゴルフブリッジオオサカ,0
1388,6120101072318,新規,0,2025-08-27,2025-08-27,大阪春福貿易株式会社,,株式会社,大阪府,阪南市,箱の浦３９９番地の７１,,27,232,5990235,,,,,,,2025-08-27,1,,,,,オオサカハルフクボウエキ,0
1390,6120901051355,新規,0,2025-08-27,2025-08-27,藤澤ホールディングス株式会社,,株式会社,大阪府,吹田市,金田町１６番９号,,27,205,5640045,,,,,,,2025-08-27,1,,,,,フジサワホールディングス,0
1393,6120905006776,新規,0,2025-08-27,2025-08-27,一般財団法人ヤノベケンジ財団,,その他の設立登記法人,大阪府,高槻市,大字萩谷１５５,,27,207,5691054,,,,,,,2025-08-27,1,,,,,ヤノベケンジザイダン,0
1401,6130001080353,新規,0,2025-08-27,2025-08-27,株式会社ＹＳＳ,,株式会社,京都府,木津川市,加茂町河原中垣内４５,,26,214,6191104,,,,,,,2025-08-27,1,,,,,ワイエスエス,0
1408,6140001139719,新規,0,2025-08-27,2025-08-27,中央コア株式会社,,株式会社,兵庫県,高砂市,荒井町小松原４丁目１５０番地の３,,28,216,6760011,,,,,,,2025-08-27,1,,,,,チュウオウコア,0
1409,6140001139792,新規,0,2025-08-27,2025-08-27,株式会社永正,,株式会社,兵庫県,神戸市北区,八多町中１４２０番地,,28,109,6511351,,,,,,,2025-08-27,1,,,,,エイショウ,0
1414,6140003022501,新規,0,2025-08-27,2025-08-27,合同会社ＴＡＩＳＥＩ,,合同会社,兵庫県,姫路市,広畑区西蒲田５１１－２０,,28,201,6711107,,,,,,,2025-08-27,1,,,,,タイセイ,0
1428,6180001168185,新規,0,2025-08-27,2025-08-27,貴翔株式会社,,株式会社,愛知県,尾張旭市,東大道町原田２６７２番地２０,,23,226,4880801,,,,,,,2025-08-27,1,,,,,キショウ,0
1453,6240003007376,新規,0,2025-08-27,2025-08-27,礒村会計合同会社,,合同会社,広島県,広島市安芸区,矢野西４丁目３１番８号,,34,107,7360085,,,,,,,2025-08-27,1,,,,,イソムラカイケイ,0
1454,6250003003795,新規,0,2025-08-27,2025-08-27,合同会社Ｗｅｌｌｂｅ　Ｌｉｎｋ,,合同会社,山口県,山口市,江崎４２００,,35,203,7540896,,,,,,,2025-08-27,1,,,,,ウェルビーリンク,0
1457,6290001001509,新規,0,2025-08-27,2025-08-27,株式会社西輝,,株式会社,福岡県,福岡市南区,柏原４丁目２７番２０号,,40,134,8111353,,,,,,,2025-08-27,1,,,,,ニシテル,0
1463,6290001111225,新規,0,2025-08-27,2025-08-27,ＲＡＮＤＧＯ株式会社,,株式会社,福岡県,福岡市博多区,博多駅前１丁目２３番２号ＰａｒｋＦｒｏｎｔ博多駅前一丁目５Ｆ－Ｂ,,40,132,8120011,,,,,,,2025-08-27,1,,,,,ランドゴウ,0
1465,6290003017313,新規,0,2025-08-27,2025-08-27,Ａｎｚ合同会社,,合同会社,福岡県,福岡市南区,若久６丁目５２番４号,,40,134,8150042,,,,,,,2025-08-27,1,,,,,アンズ,0
1466,6290801031804,新規,0,2025-08-27,2025-08-27,株式会社Ｈｅｒｍａｎｏ,,株式会社,福岡県,遠賀郡岡垣町,大字内浦２５番１号,,40,383,8114203,,,,,,,2025-08-27,1,,,,,エルマーノ,0
1467,6290803005137,新規,0,2025-08-27,2025-08-27,ＳｅａｓｏｎＢａｃｋＯｆｆｉｃｅ合同会社,,合同会社,福岡県,北九州市小倉北区,古船場町４番２１－１０５号,,40,106,8020082,,,,,,,2025-08-27,1,,,,,シーズンバックオフィス,0
1470,6340001027606,新規,0,2025-08-27,2025-08-27,嘉吉株式会社,,株式会社,鹿児島県,鹿児島市,山之口町１０－２０第１二官橋ビル４０１,,46,201,8920844,,,,,,,2025-08-27,1,,,,,カキツ,0
1471,6340001027614,新規,0,2025-08-27,2025-08-27,株式会社ＡＧＬＩＣＡ,,株式会社,鹿児島県,鹿児島市,西千石町６番地２１,,46,201,8920847,,,,,,,2025-08-27,1,,,,,アグリカ,0
1481,6360003015193,新規,0,2025-08-27,2025-08-27,合同会社Ｎａｎａｉｒｏ　Ｌｉｆｅ,,合同会社,沖縄県,うるま市,字田場８１番地３,,47,213,9042213,,,,,,,2025-08-27,1,,,,,ナナイロライフ,0
1494,6430001095107,新規,0,2025-08-27,2025-08-27,株式会社ＴＳ,,株式会社,北海道,札幌市白石区,平和通１７丁目北１０－１岩泉ハウスＡ棟２０１号,,01,104,0030029,,,,,,,2025-08-27,1,,,,,ティエス,0
1495,6430001095123,新規,0,2025-08-27,2025-08-27,株式会社４６４,,株式会社,北海道,札幌市手稲区,星置一条５丁目１２番３号,,01,109,0060851,,,,,,,2025-08-27,1,,,,,ヨンロクヨン,0
1500,6430003018032,新規,0,2025-08-27,2025-08-27,ジーエス合同会社,,合同会社,北海道,札幌市中央区,北四条東１丁目１番１の２９０１,,01,101,0600034,,,,,,,2025-08-27,1,,,,,ジーエス,0
1513,7010001257978,新規,0,2025-08-27,2025-08-27,株式会社ＫＲＴＳ４,,株式会社,東京都,千代田区,内幸町２丁目１番６号,,13,101,1000011,,,,,,,2025-08-27,1,,,,,ケイアールティーエスフォー,0
1514,7010001258035,新規,0,2025-08-27,2025-08-27,株式会社Ｐｏｐ　Ｌｉｆｅ,,株式会社,東京都,千代田区,岩本町３丁目１０番１０号,,13,101,1010032,,,,,,,2025-08-27,1,,,,,ポップライフ,0
1515,7010003048475,新規,0,2025-08-27,2025-08-27,合同会社ブリエ,,合同会社,東京都,中央区,晴海５丁目４番４－１１０５号,,13,102,1040053,,,,,,,2025-08-27,1,,,,,ブリエ,0
1516,7010003048517,新規,0,2025-08-27,2025-08-27,合同会社トワイライト・スリー,,合同会社,東京都,千代田区,内幸町２丁目１番６号,,13,101,1000011,,,,,,,2025-08-27,1,,,,,トワイライトスリー,0
1531,7010501054561,新規,0,2025-08-27,2025-08-27,株式会社ｆｕｒｅｒｕ,,株式会社,東京都,台東区,東上野３丁目１５番１０号東観第一ビル５階,,13,106,1100015,,,,,,,2025-08-27,1,,,,,フレル,0
1533,7010601067851,新規,0,2025-08-27,2025-08-27,株式会社遠藤コンサルティング,,株式会社,東京都,江東区,豊洲６丁目２番２９ー５１３号,,13,108,1350061,,,,,,,2025-08-27,1,,,,,エンドウコンサルティング,0
1537,7010701048223,新規,0,2025-08-27,2025-08-27,株式会社ＴＹＴコンサル,,株式会社,東京都,品川区,西品川１丁目２番１－１２０３号,,13,109,1410033,,,,,,,2025-08-27,1,,,,,ティワイティコンサル,0
1541,7010905004823,新規,0,2025-08-27,2025-08-27,特定非営利活動法人オープンマイクジャパン,,その他の設立登記法人,東京都,世田谷区,北沢２丁目３０番１４号重宗ビル３Ｆ,,13,112,1550031,,,,,,,2025-08-27,1,,,,,オープンマイクジャパン,0
1545,7011001171632,新規,0,2025-08-27,2025-08-27,株式会社ＮＯＲＭＡＮ,,株式会社,東京都,目黒区,鷹番３丁目１５番１７号１Ｆ,,13,110,1520004,,,,,,,2025-08-27,1,,,,,ノーマン,0
1546,7011001171707,新規,0,2025-08-27,2025-08-27,株式会社ポッジョ,,株式会社,東京都,渋谷区,恵比寿西２丁目４番８号ウィンド恵比寿ビル８Ｆ,,13,113,1500021,,,,,,,2025-08-27,1,,,,,ポッジョ,0
1549,7011101112767,新規,0,2025-08-27,2025-08-27,株式会社ＢＲＡＶＥＹ,,株式会社,東京都,新宿区,西新宿３丁目３番１３号西新宿水間ビル２Ｆ,,13,104,1600023,,,,,,,2025-08-27,1,,,,,ブレイビー,0
1550,7011101112775,新規,0,2025-08-27,2025-08-27,Ｔｒｕｓｔｅｎ株式会社,,株式会社,東京都,新宿区,西新宿６丁目２１－１アイタウン・レピア１７０６,,13,104,1600023,,,,,,,2025-08-27,1,,,,,トラステン,0
1551,7011101112833,新規,0,2025-08-27,2025-08-27,株式会社ＡＵＲＵＤＡ,,株式会社,東京都,新宿区,大久保２丁目２番１２号ＶＯＲＴ東新宿４０１号,,13,104,1690072,,,,,,,2025-08-27,1,,,,,アウルダ,0
1552,7011101112874,新規,0,2025-08-27,2025-08-27,株式会社Ｉｎｋ＆Ｂｕｔｔｅｒ,,株式会社,東京都,新宿区,新宿１丁目５番６号御苑ビル６階,,13,104,1600022,,,,,,,2025-08-27,1,,,,,インクアンドバター,0
1554,7011105011560,新規,0,2025-08-27,2025-08-27,一般社団法人ＨＲＰ‐Ｓ,,その他の設立登記法人,東京都,新宿区,四谷２丁目９番地１５東京ユナイテッド綜合事務所内,,13,104,1600004,,,,,,,2025-08-27,1,,,,,エイチアールピーエス,0
1555,7011201026586,新規,0,2025-08-27,2025-08-27,ひらめきＤｏＢｉｔ株式会社,,株式会社,東京都,中野区,東中野１丁目３２番２―３１４号,,13,114,1640003,,,,,,,2025-08-27,1,,,,,ヒラメキドゥビット,0
1560,7011503006658,新規,0,2025-08-27,2025-08-27,ＷＡＡＭ合同会社,,合同会社,東京都,北区,田端５丁目１０番３号,,13,117,1140014,,,,,,,2025-08-27,1,,,,,ワーム,0
1563,7012403007275,新規,0,2025-08-27,2025-08-27,合同会社テックサービス,,合同会社,東京都,調布市,入間町２丁目１１番地５,,13,208,1820004,,,,,,,2025-08-27,1,,,,,テックサービス,0
1566,7012801024194,新規,0,2025-08-27,2025-08-27,株式会社大羽建設,,株式会社,東京都,武蔵村山市,残堀１丁目２３－３,,13,223,2080034,,,,,,,2025-08-27,1,,,,,ダイワケンセツ,0
1567,7012803003840,新規,0,2025-08-27,2025-08-27,ＲｕｉＸ合同会社,,合同会社,東京都,国分寺市,泉町３丁目１７番１３号ウエストヴィレッジ壱番館１０２,,13,214,1850024,,,,,,,2025-08-27,1,,,,,ルイクス,0
1574,7020001164447,新規,0,2025-08-27,2025-08-27,株式会社コージーワークス,,株式会社,神奈川県,川崎市中原区,丸子通１丁目４１２－１ＳＴガーデン６０３,,14,133,2110006,,,,,,,2025-08-27,1,,,,,コージーワークス,0
1585,7030001168323,新規,0,2025-08-27,2025-08-27,隆威グローバル株式会社,,株式会社,埼玉県,吉川市,大字土場１２０番地３,,11,243,3420026,,,,,,,2025-08-27,1,,,,,リュウイグローバル,0
1590,7030003027469,新規,0,2025-08-27,2025-08-27,合同会社アロマモジュール,,合同会社,埼玉県,所沢市,大字牛沼３４２－２８サンクレイドル航空公園４０４,,11,208,3590026,,,,,,,2025-08-27,1,,,,,アロマモジュール,0
1596,7050001057169,新規,0,2025-08-27,2025-08-27,ＧＡＷＨＡＲ　ＴＲＡＤＩＮＧ株式会社,,株式会社,茨城県,坂東市,内野山４９４番地３,,08,228,3060514,,,,,,,2025-08-27,1,,,,,ガウハルトレイディング,0
1597,7050003009523,新規,0,2025-08-27,2025-08-27,ＫＩＮＧＳ合同会社,,合同会社,茨城県,日立市,大久保町５丁目１－２４,,08,202,3160012,,,,,,,2025-08-27,1,,,,,キングス,0
1602,7080001027111,新規,0,2025-08-27,2025-08-27,株式会社ｋｉｎｄ　ｏｆ　ｇｏｏｄ,,株式会社,静岡県,静岡市駿河区,中野新田２６６番地の１１メゾンドコスモ４０３,,22,102,4228051,,,,,,,2025-08-27,1,,,,,カインドオブグッド,0
1623,7120001278996,新規,0,2025-08-27,2025-08-27,株式会社カワベ,,株式会社,大阪府,大阪市住之江区,御崎２丁目６－２,,27,125,5590013,,,,,,,2025-08-27,1,,,,,カワベ,0
1624,7120001279061,新規,0,2025-08-27,2025-08-27,株式会社スマイル,,株式会社,大阪府,大阪市東淀川区,豊里７丁目１５番１８号,,27,114,5330013,,,,,,,2025-08-27,1,,,,,スマイル,0
1625,7120001279111,新規,0,2025-08-27,2025-08-27,Ｒｅｍｅａ株式会社,,株式会社,大阪府,大阪市中央区,瓦屋町３丁目３番１－３０６号,,27,128,5420066,,,,,,,2025-08-27,1,,,,,レメア,0
1637,7120103006628,新規,0,2025-08-27,2025-08-27,合同会社Ｒｉｚ,,合同会社,大阪府,松原市,一津屋４丁目１１番１９号,,27,217,5800003,,,,,,,2025-08-27,1,,,,,リズ,0
1643,7120901051387,新規,0,2025-08-27,2025-08-27,フォトンネクストテクノロジー株式会社,,株式会社,大阪府,高槻市,芝谷町３４番３号,,27,207,5691025,,,,,,,2025-08-27,1,,,,,フォトンネクストテクノロジー,0
1644,7120903005820,新規,0,2025-08-27,2025-08-27,ＫＦ　Ｃｏｎｓｕｌｔｉｎｇ合同会社,,合同会社,大阪府,豊中市,曽根南町３丁目３－１－３０６,,27,203,5610804,,,,,,,2025-08-27,1,,,,,ケイエフコンサルティング,0
1647,7122001039593,新規,0,2025-08-27,2025-08-27,株式会社山南ＨＵＭＡＮ,,株式会社,大阪府,柏原市,玉手町２５－１７シャトールメール３０８号,,27,221,5820028,,,,,,,2025-08-27,1,,,,,ヤマナミヒューマン,0
1649,7130001080369,新規,0,2025-08-27,2025-08-27,株式会社ＲＥＧＩＳＴＡ,,株式会社,京都府,京都市中京区,大日町御幸町通り四条上ル大日町４２３番地,,26,104,6048044,,,,,,,2025-08-27,1,,,,,レジスタ,0
1652,7130003010704,新規,0,2025-08-27,2025-08-27,合同会社ａｅｒｕ,,合同会社,京都府,京都市伏見区,久我森の宮町１１－１０９,,26,109,6128495,,,,,,,2025-08-27,1,,,,,アエル,0
1658,7140003022500,新規,0,2025-08-27,2025-08-27,合同会社Ｕｎｉｖｅｒｓｅ,,合同会社,兵庫県,姫路市,神屋町２丁目３２番地Ｔ－ＢＬＤ神屋町４０７号,,28,201,6700836,,,,,,,2025-08-27,1,,,,,ユニバース,0
1680,7180003028898,新規,0,2025-08-27,2025-08-27,合同会社るのわ,,合同会社,愛知県,一宮市,公園通６丁目３０番地２ガレージハウスポールリカールＳ０１号,,23,203,4910842,,,,,,,2025-08-27,1,,,,,ルノワ,0
1689,7200001044168,新規,0,2025-08-27,2025-08-27,株式会社丸宮土建,,株式会社,岐阜県,岐阜市,曽我屋３丁目１３６番地,,21,201,5010101,,,,,,,2025-08-27,1,,,,,マルミヤドケン,0
1702,7250001021303,新規,0,2025-08-27,2025-08-27,株式会社くろだ工業,,株式会社,山口県,周南市,橋本町１丁目７０パイン・ワン・クナイ９Ｆ,,35,215,7450022,,,,,,,2025-08-27,1,,,,,クロダコウギョウ,0
1715,7290001111216,新規,0,2025-08-27,2025-08-27,株式会社Ｍａｖｅｒｉｃ　Ｊａｐａｎ,,株式会社,福岡県,福岡市博多区,美野島１丁目２６番４号アクアステージ美野島,,40,132,8120017,,,,,,,2025-08-27,1,,,,,マベリックジャパン,0
1716,7290001111232,新規,0,2025-08-27,2025-08-27,心稜株式会社,,株式会社,福岡県,福岡市中央区,赤坂１丁目６番２３－１－６０３号,,40,133,8100042,,,,,,,2025-08-27,1,,,,,シンリョウ,0
1717,7290001111273,新規,0,2025-08-27,2025-08-27,株式会社永寺崎舎,00140424,株式会社,福岡県,福岡市早良区,四箇１丁目４番２６－４号,,40,137,8111103,,,,,,,2025-08-27,1,,,,,エイジキシャ,0
1721,7290003017262,新規,0,2025-08-27,2025-08-27,合同会社Ｂ’ｓ　ｃｈｏｉｃｅ,,合同会社,福岡県,八女市,馬場１８－２,,40,210,8340023,,,,,,,2025-08-27,1,,,,,ビーズチョイス,0
1722,7290003017312,新規,0,2025-08-27,2025-08-27,ひとつなぎ＆カンパニー合同会社,,合同会社,福岡県,糟屋郡志免町,別府西３丁目１４－１－１４１３,,40,343,8112232,,,,,,,2025-08-27,1,,,,,ヒトツナギカンパニー,0
1724,7290801031803,新規,0,2025-08-27,2025-08-27,株式会社生活空間,,株式会社,福岡県,北九州市八幡西区,萩原１丁目１番５５号の２０３号,,40,109,8060059,,,,,,,2025-08-27,1,,,,,セイカツクウカン,0
1727,7330003011186,新規,0,2025-08-27,2025-08-27,合同会社Ｈｏｏｋｙ,,合同会社,熊本県,熊本市東区,長嶺西３丁目２番１１０－３号,,43,102,8618037,,,,,,,2025-08-27,1,,,,,フーキー,0
1731,7360003015176,新規,0,2025-08-27,2025-08-27,合同会社美ら風まーる,,合同会社,沖縄県,名護市,字屋部２３０番地１福木パレスヤブ４０２号室,,47,209,9050007,,,,,,,2025-08-27,1,,,,,チュラカジマール,0
1736,7410001014257,新規,0,2025-08-27,2025-08-27,花花カンパニー株式会社,,株式会社,秋田県,にかほ市,金浦字金浦１０８番地１,,05,214,0180311,,,,,,,2025-08-27,1,,,,,ハナハナカンパニー,0
1745,7430001095064,新規,0,2025-08-27,2025-08-27,株式会社石山通珈琲,,株式会社,北海道,札幌市中央区,南十三条西１１丁目２－３,,01,101,0640913,,,,,,,2025-08-27,1,,,,,イシヤマドオリコーヒー,0
1759,8010001257465,新規,0,2025-08-27,2025-08-27,株式会社Ｈｉｄｅａｗａｙ,,株式会社,東京都,千代田区,九段南１丁目５番６号りそな九段ビル５階ＫＳフロア,,13,101,1020074,,,,,,,2025-08-27,1,,,,,ハイダウエイ,0
1760,8010001257853,新規,0,2025-08-27,2025-08-27,株式会社Ａｓｐｉｒｅ,,株式会社,東京都,中央区,銀座１丁目２２番１１号,,13,102,1040061,,,,,,,2025-08-27,1,,,,,アスパイア,0
1773,8010803005518,新規,0,2025-08-27,2025-08-27,合同会社融,,合同会社,東京都,大田区,西蒲田７丁目４番４号小山第二ビル６Ｆ,,13,111,1440051,,,,,,,2025-08-27,1,,,,,ユウ,0
1775,8011001171565,新規,0,2025-08-27,2025-08-27,株式会社Ｆｌｏｒｉａ,,株式会社,東京都,渋谷区,道玄坂１丁目１６番６号二葉ビル８Ｂ,,13,113,1500043,,,,,,,2025-08-27,1,,,,,フローリア,0
1776,8011001171672,新規,0,2025-08-27,2025-08-27,株式会社ネクストジェンプレディクションズ,,株式会社,東京都,目黒区,大橋２丁目１０番１５号松見坂ホームズ５０３,,13,110,1530044,,,,,,,2025-08-27,1,,,,,ネクストジェンプレディクションズ,0
1779,8011003022254,新規,0,2025-08-27,2025-08-27,合同会社五山アンドサンズ,,合同会社,東京都,目黒区,緑が丘２丁目９番１９号,,13,110,1520034,,,,,,,2025-08-27,1,,,,,ゴザンアンドサンズ,0
1783,8011101112766,新規,0,2025-08-27,2025-08-27,株式会社２３,,株式会社,東京都,新宿区,西新宿３丁目３番１３号西新宿水間ビル２Ｆ,,13,104,1600023,,,,,,,2025-08-27,1,,,,,ツースリー,0
1784,8011101112790,新規,0,2025-08-27,2025-08-27,ピースリペア株式会社,,株式会社,東京都,新宿区,西新宿７丁目１８－１６トーシンハイム新宿６０６号室,,13,104,1600023,,,,,,,2025-08-27,1,,,,,ピースリペア,0
1789,8011203004795,新規,0,2025-08-27,2025-08-27,合同会社ＳＴＵＤＩＯ　ＮＩＷＡ,,合同会社,東京都,中野区,中野５丁目２４番地２３Ｖ－ｍｕｓｉｃ中野５０２,,13,114,1640001,,,,,,,2025-08-27,1,,,,,スタジオニワ,0
1794,8011403004810,新規,0,2025-08-27,2025-08-27,クリーンワールド合同会社,,合同会社,東京都,板橋区,清水町１８番９号アピチェ板橋本町１０１,,13,119,1740053,,,,,,,2025-08-27,1,,,,,クリーンワールド,0
1807,8012701018849,新規,0,2025-08-27,2025-08-27,子＿株式会社,00140427,株式会社,東京都,東村山市,本町３丁目７－６クリーンハイム東村山２０５,,13,213,1890014,,,,,,,2025-08-27,1,,,,,,0
1809,8013301054805,新規,0,2025-08-27,2025-08-27,株式会社アンコモン,,株式会社,東京都,豊島区,長崎３丁目６番８号アパートメント空２１５号室,,13,116,1710051,,,,,,,2025-08-27,1,,,,,アンコモン,0
1817,8020003029052,新規,0,2025-08-27,2025-08-27,オハナデンタルホールディングス合同会社,,合同会社,神奈川県,横浜市中区,尾上町３丁目４６－１木村ビル７Ｆ,,14,104,2310015,,,,,,,2025-08-27,1,,,,,オハナデンタルホールディングス,0
1823,8021003016445,新規,0,2025-08-27,2025-08-27,リンネ合同会社,,合同会社,神奈川県,鎌倉市,材木座３丁目９番５ー２０７,,14,204,2480013,,,,,,,2025-08-27,1,,,,,リンネ,0
1830,8030001168272,新規,0,2025-08-27,2025-08-27,株式会社アイグロー,,株式会社,埼玉県,越谷市,越ヶ谷３丁目３番１６号,,11,222,3430813,,,,,,,2025-08-27,1,,,,,アイグロー,0
1836,8030003027476,新規,0,2025-08-27,2025-08-27,合同会社ＢＯＹ,,合同会社,埼玉県,ふじみ野市,大井武蔵野１２８９－４－２Ｆ,,11,245,3560054,,,,,,,2025-08-27,1,,,,,ボーイ,0
1846,8040003028333,新規,0,2025-08-27,2025-08-27,ＰＯＳＴ合同会社,,合同会社,千葉県,市原市,牛久６５０－１,,12,219,2900225,,,,,,,2025-08-27,1,,,,,ポスト,0
1847,8040005022862,新規,0,2025-08-27,2025-08-27,一般社団法人生きる,,その他の設立登記法人,千葉県,松戸市,小根本５１－６第５ＭＹビル４０２号室,,12,207,2710073,,,,,,,2025-08-27,1,,,,,イキル,0
1849,8050001057077,新規,0,2025-08-27,2025-08-27,株式会社ケイエム,,株式会社,茨城県,つくば市,今鹿島３１３０番地６,,08,220,3002641,,,,,,,2025-08-27,1,,,,,ケイエム,0
1850,8050001057168,新規,0,2025-08-27,2025-08-27,ＪＡ　Ｃａｒ　ＭＡＸ　ＴＲＡＤＩＮＧ株式会社,,株式会社,茨城県,結城市,大字結城１３１８番地１,,08,207,3070001,,,,,,,2025-08-27,1,,,,,ジェイエイカーマックス,0
1851,8050003009522,新規,0,2025-08-27,2025-08-27,合同会社田向工業,,合同会社,茨城県,神栖市,波崎６５３２－１７マリンハイツ・ヒロヤ２０６,,08,232,3140408,,,,,,,2025-08-27,1,,,,,タムカイコウギョウ,0
1855,8060003005702,新規,0,2025-08-27,2025-08-27,大庭貿易合同会社,,合同会社,栃木県,小山市,大字東野田５２７番地２１,,09,208,3230817,,,,,,,2025-08-27,1,,,,,オオバボウエキ,0
1862,8100005013384,新規,0,2025-08-27,2025-08-27,一般社団法人ギジュツドットコム,,その他の設立登記法人,長野県,長野市,大字風間２５８－１,,20,201,3810023,,,,,,,2025-08-27,1,,,,,ギジュツドットコム,0
1863,8110001039523,新規,0,2025-08-27,2025-08-27,株式会社Ｄ‐ＭＡＸ,,株式会社,新潟県,新潟市中央区,笹口２丁目１０番地４,,15,103,9500911,,,,,,,2025-08-27,1,,,,,ディーマックス,0
1874,8120001278905,新規,0,2025-08-27,2025-08-27,株式会社Ｐｅｒｃｅｒ,,株式会社,大阪府,大阪市北区,梅田２丁目２番２号ヒルトンプラザウェストオフィスタワー１８Ｆ・１９Ｆ,,27,127,5300001,,,,,,,2025-08-27,1,,,,,ペルセ,0
1875,8120001279127,新規,0,2025-08-27,2025-08-27,ＯＺＥＮ株式会社,,株式会社,大阪府,大阪市西区,北堀江１丁目９番１４号,,27,106,5500014,,,,,,,2025-08-27,1,,,,,オゼン,0
1876,8120001279135,新規,0,2025-08-27,2025-08-27,ＮｏｅＢｕ株式会社,,株式会社,大阪府,大阪市西区,靱本町１丁目１０番７－９０１号,,27,106,5500004,,,,,,,2025-08-27,1,,,,,ノエブ,0
1883,8120101072332,新規,0,2025-08-27,2025-08-27,株式会社Ｒ・Ｋ,,株式会社,大阪府,堺市美原区,平尾２７９２番地,,27,147,5870022,,,,,,,2025-08-27,1,,,,,アールケー,0
1894,8130001080343,新規,0,2025-08-27,2025-08-27,株式会社ＳＴＡＲ　Ｈｏｍｅ,,株式会社,京都府,京都市左京区,岩倉花園町３５６番地３,,26,103,6060024,,,,,,,2025-08-27,1,,,,,スターホーム,0
1895,8130001080368,新規,0,2025-08-27,2025-08-27,株式会社ＴＭＣ,,株式会社,京都府,舞鶴市,字浜１６２番地,,26,202,6250036,,,,,,,2025-08-27,1,,,,,ティーエムシー,0
1896,8130001080418,新規,0,2025-08-27,2025-08-27,株式会社ミライトエフ,,株式会社,京都府,京都市右京区,西京極西大丸町４５シャレー西京極５０６,,26,108,6150862,,,,,,,2025-08-27,1,,,,,ミライトエフ,0
1898,8140001139782,新規,0,2025-08-27,2025-08-27,株式会社ＴＫＢ,,株式会社,兵庫県,尼崎市,神崎町３０－２０,,28,202,6610964,,,,,,,2025-08-27,1,,,,,ティーケービー,0
1899,8140005027579,新規,0,2025-08-27,2025-08-27,川西福音教会,,その他の設立登記法人,兵庫県,川西市,向陽台３丁目１番地１１,,28,217,6660115,,,,,,,2025-08-27,1,,,,,カワニシフクインキョウカイ,0
1900,8140005027612,新規,0,2025-08-27,2025-08-27,一般社団法人個人事業支援機構,,その他の設立登記法人,兵庫県,神戸市中央区,磯辺通１丁目１－１８カサベラ国際プラザビル７０７,,28,110,6510084,,,,,,,2025-08-27,1,,,,,コジンジギョウシエンキコウ,0
1906,8160001027011,新規,0,2025-08-27,2025-08-27,株式会社Ｓｍｉｌｅ　Ｈｏｕｓｅ,,株式会社,滋賀県,彦根市,戸賀町１５３番地４,,25,202,5220042,,,,,,,2025-08-27,1,,,,,スマイルハウス,0
1918,8180001168010,新規,0,2025-08-27,2025-08-27,名古屋地所株式会社,,株式会社,愛知県,名古屋市東区,筒井２丁目４番１１号,,23,102,4610003,,,,,,,2025-08-27,1,,,,,ナゴヤチショ,0
1925,8180003028939,新規,0,2025-08-27,2025-08-27,合同会社ＺＥＲＯ,,合同会社,愛知県,名古屋市中村区,城屋敷町１丁目３１番地の１,,23,105,4530058,,,,,,,2025-08-27,1,,,,,ゼロ,0
1926,8180005021198,新規,0,2025-08-27,2025-08-27,特定非営利活動法人る・りあん,,その他の設立登記法人,愛知県,名古屋市昭和区,吹上町１丁目５３番地の５,,23,107,4660002,,,,,,,2025-08-27,1,,,,,ルリアン,0
1928,8190003005152,新規,0,2025-08-27,2025-08-27,ＰＩＣＯ　ＳＴＹＬＥ　ＣＡＲ合同会社,,合同会社,三重県,鈴鹿市,石薬師町２３４８,,24,207,5130012,,,,,,,2025-08-27,1,,,,,ピコスタイルカー,0
1937,8240001065416,新規,0,2025-08-27,2025-08-27,株式会社Ｌｉｌｂｒｉｄｇｅ　Ｓｅｒｖｉｃｅ,,株式会社,広島県,呉市,神山３丁目１番２４号,,34,202,7370923,,,,,,,2025-08-27,1,,,,,リルブリッジサービス,0
1948,8290001111215,新規,0,2025-08-27,2025-08-27,株式会社Ｍａｎａ　Ｌｉｎｏ,,株式会社,福岡県,福岡市博多区,比恵町１４番２－１１０１号,,40,132,8120014,,,,,,,2025-08-27,1,,,,,マナリノ,0
1951,8290003017336,新規,0,2025-08-27,2025-08-27,暁海合同会社,,合同会社,福岡県,福岡市城南区,田島１丁目７－７ハミング田島Ｉ－１０１号室,00140425,40,136,8140113,,,,,,,2025-08-27,1,,,,,ギョウカイ,0
1952,8290003017344,新規,0,2025-08-27,2025-08-27,合同会社ＡＫＲＯ,,合同会社,福岡県,福津市,西福間１丁目４番２３号ハイツひろ－１０１号,,40,224,8113219,,,,,,,2025-08-27,1,,,,,アクロ,0
1957,8330001033504,新規,0,2025-08-27,2025-08-27,株式会社ＬＣＭＢ　Ｈａｒｍｏｎｙ,,株式会社,熊本県,熊本市中央区,本山２丁目６番９,,43,101,8600821,,,,,,,2025-08-27,1,,,,,エルシエムハモニ,0
1984,8470001020868,新規,0,2025-08-27,2025-08-27,株式会社トータルテック,,株式会社,香川県,善通寺市,稲木町１２５９番地２,,37,204,7650022,,,,,,,2025-08-27,1,,,,,,0
1986,8480001012930,新規,0,2025-08-27,2025-08-27,株式会社Ｌｕｌｉｎｅａ,,株式会社,徳島県,徳島市,伊月町５丁目６番地,,36,201,7700935,,,,,,,2025-08-27,1,,,,,ルリネア,0
1998,9010001257464,新規,0,2025-08-27,2025-08-27,株式会社しおり,,株式会社,東京都,中央区,銀座７丁目６番１１号ミクニ銀座７ビル３階,,13,102,1040061,,,,,,,2025-08-27,1,,,,,シオリ,0
1999,9010001257984,新規,0,2025-08-27,2025-08-27,株式会社ステップラボ,,株式会社,東京都,千代田区,大手町１丁目７番２号東京サンケイビル２７階,,13,101,1000004,,,,,,,2025-08-27,1,,,,,ステップラボ,0
2000,9010001257992,新規,0,2025-08-27,2025-08-27,Ｃｙｂｅｒｚ株式会社,,株式会社,東京都,千代田区,神田多町２丁目１番地２３神田東山ビル７Ｆ,,13,101,1010046,,,,,,,2025-08-27,1,,,,,サイバーズ,0
2001,9010001258017,新規,0,2025-08-27,2025-08-27,株式会社日盛,,株式会社,東京都,千代田区,外神田４丁目５番４号,,13,101,1010021,,,,,,,2025-08-27,1,,,,,ニッセイ,0
2003,9010003048515,新規,0,2025-08-27,2025-08-27,合同会社トワイライト・ツー,,合同会社,東京都,千代田区,内幸町２丁目１番６号,,13,101,1000011,,,,,,,2025-08-27,1,,,,,トワイライトツー,0
2005,9010103002636,新規,0,2025-08-27,2025-08-27,合同会社ツバメのリキュール,,合同会社,東京都,八王子市,上川町１９５１番地７,,13,201,1920151,,,,,,,2025-08-27,1,,,,,ツバメノリキュール,0
2012,9010403035914,新規,0,2025-08-27,2025-08-27,ＳＩ　Ｐａｒｔｎｅｒｓ合同会社,,合同会社,東京都,港区,六本木３丁目１６番１２号六本木ＫＳビル,,13,103,1060032,,,,,,,2025-08-27,1,,,,,エスアイパートナーズ,0
2013,9010403035922,新規,0,2025-08-27,2025-08-27,合同会社ＩＭＹ,,合同会社,東京都,港区,高輪１丁目３番２―５０５号,,13,103,1080074,,,,,,,2025-08-27,1,,,,,アイエムワイ,0
2014,9010501054618,新規,0,2025-08-27,2025-08-27,宇禧株式会社,,株式会社,東京都,台東区,蔵前４丁目１６－６ストーク蔵前Ｍ＆Ｋ４階４１７,,13,106,1110051,,,,,,,2025-08-27,1,,,,,ウキ,0
2032,9011001171523,新規,0,2025-08-27,2025-08-27,株式会社ＭＩＮＥ　ＤＲＡＦＴ,,株式会社,東京都,目黒区,青葉台１丁目９番１７号３階,,13,110,1530042,,,,,,,2025-08-27,1,,,,,マインドラフト,0
2033,9011001171622,新規,0,2025-08-27,2025-08-27,株式会社ＴＯＫＩ,,株式会社,東京都,渋谷区,神宮前６丁目２３番４号桑野ビル２階,,13,113,1500001,,,,,,,2025-08-27,1,,,,,トキ,0
2035,9011003022220,新規,0,2025-08-27,2025-08-27,ＭＡＴＡＴＡＫＩ　Ｆｉｌｍｓ合同会社,,合同会社,東京都,渋谷区,代々木２丁目２３番１号ニューステイトメナー１１５９,,13,113,1510053,,,,,,,2025-08-27,1,,,,,マタタキフィルムズ,0
2036,9011003022393,新規,0,2025-08-27,2025-08-27,ＣｒｉｔｉＸ合同会社,,合同会社,東京都,渋谷区,恵比寿西２丁目８番４号ＥＸ恵比寿西ビル５階,,13,113,1500021,,,,,,,2025-08-27,1,,,,,クリティクス,0
2040,9011101112773,新規,0,2025-08-27,2025-08-27,株式会社ＳＡＴＳＯＩＬ,,株式会社,東京都,新宿区,若松町１８番７号ラヴィータフェリーチェ２０３,,13,104,1620056,,,,,,,2025-08-27,1,,,,,サットソイル,0
2041,9011101112781,新規,0,2025-08-27,2025-08-27,株式会社ＭＴコーポレーション,,株式会社,東京都,新宿区,新宿５丁目１５－１２レックスハイツ８０２,,13,104,1600022,,,,,,,2025-08-27,1,,,,,エムティーコーポレーション,0
2042,9011101112798,新規,0,2025-08-27,2025-08-27,ミライの風株式会社,,株式会社,東京都,新宿区,西新宿６丁目１２－４コイトビル２０１,,13,104,1600023,,,,,,,2025-08-27,1,,,,,ミライノカゼ,0
2044,9011103016254,新規,0,2025-08-27,2025-08-27,合同会社Ａｒｉｖｅｎ,,合同会社,東京都,新宿区,西新宿３丁目３－１３西新宿水間ビル２Ｆ,,13,104,1600023,,,,,,,2025-08-27,1,,,,,アリベン,0
2045,9011105011550,新規,0,2025-08-27,2025-08-27,一般社団法人中小企業税務調査協会,,その他の設立登記法人,東京都,新宿区,新宿５丁目１－１ローヤルマンションビル１００４,,13,104,1600022,,,,,,,2025-08-27,1,,,,,チュウショウキギョウゼイムチョウサキョウカイ,0
2058,9012401043510,新規,0,2025-08-27,2025-08-27,ライフガイド株式会社,,株式会社,東京都,武蔵野市,吉祥寺本町２丁目８番４号ｉ－ｏｆｆｉｃｅ吉祥寺,,13,203,1800004,,,,,,,2025-08-27,1,,,,,ライフガイド,0
2061,9012703003352,新規,0,2025-08-27,2025-08-27,はぐねっと合同会社,,合同会社,東京都,東村山市,秋津町４丁目１０番地２４サンヒルズ氷川１０５,,13,213,1890001,,,,,,,2025-08-27,1,,,,,ハグネット,0
2087,9030001168321,新規,0,2025-08-27,2025-08-27,和信栄錦株式会社,,株式会社,埼玉県,本庄市,寿３丁目２－１,,11,211,3670023,,,,,,,2025-08-27,1,,,,,ワシンエイキン,0
2088,9030001168338,新規,0,2025-08-27,2025-08-27,株式会社カマダ建総,,株式会社,埼玉県,川越市,新宿町１丁目２３番地２０,,11,201,3501124,,,,,,,2025-08-27,1,,,,,カマダケンソウ,0
2090,9030003027475,新規,0,2025-08-27,2025-08-27,合同会社オフィスＫＺ,,合同会社,埼玉県,狭山市,柏原２８９９番地の３２,,11,215,3501335,,,,,,,2025-08-27,1,,,,,オフィスケーゼット,0
2091,9030003027483,新規,0,2025-08-27,2025-08-27,合同会社ｉｄｅａｐｒｅｓｅｎｔｓ,,合同会社,埼玉県,春日部市,八丁目１００１番地１ファミールアビタシオン２０５,,11,214,3440006,,,,,,,2025-08-27,1,,,,,アイデアプレゼンツ,0
2103,9050003009521,新規,0,2025-08-27,2025-08-27,Ｈｏｄｌｅｎｄ合同会社,,合同会社,茨城県,水戸市,泉町２丁目２番３３号,,08,201,3100026,,,,,,,2025-08-27,1,,,,,ホドレンド,0
2141,9120001279118,新規,0,2025-08-27,2025-08-27,株式会社Ａｒｅｓｌｏｔ,,株式会社,大阪府,大阪市北区,梅田１丁目２番２号大阪駅前第２ビル１２－１２,,27,127,5300001,,,,,,,2025-08-27,1,,,,,アレスロット,0
2142,9120001279126,新規,0,2025-08-27,2025-08-27,株式会社弘贏,,株式会社,大阪府,大阪市中央区,松屋町９番２０号ローレルステート松屋町５０５Ｂ,,27,128,5420067,,,,,,,2025-08-27,1,,,,,コウエイ,0
2144,9120003030379,新規,0,2025-08-27,2025-08-27,合同会社名出,,合同会社,大阪府,枚方市,宮之阪３丁目２２番１３号,,27,210,5730022,,,,,,,2025-08-27,1,,,,,ナイデ,0
2146,9120101072307,新規,0,2025-08-27,2025-08-27,株式会社青燕,,株式会社,大阪府,堺市西区,上野芝向ヶ丘町３丁６番７号,,27,144,5938303,,,,,,,2025-08-27,1,,,,,セイエン,0
2147,9120101072323,新規,0,2025-08-27,2025-08-27,株式会社長谷川美装,,株式会社,大阪府,堺市南区,和田東３１８番地１６,,27,145,5900102,,,,,,,2025-08-27,1,,,,,ハセガワビソウ,0
2151,9120901051344,新規,0,2025-08-27,2025-08-27,株式会社吉田,00140428,株式会社,大阪府,茨木市,中穂積２丁目７番１０号,,27,211,5670034,,,,,,,2025-08-27,1,,,,,ヨシダ,0
2152,9120901051385,新規,0,2025-08-27,2025-08-27,８７ＬＩＦＥ株式会社,,株式会社,大阪府,高槻市,高見台１１－５,,27,207,5691020,,,,,,,2025-08-27,1,,,,,ハチナナライフ,0
2153,9120901051419,新規,0,2025-08-27,2025-08-27,株式会社ショウホク,,株式会社,大阪府,吹田市,日の出町１－４,,27,205,5640023,,,,,,,2025-08-27,1,,,,,ショウホク,0
2154,9120903005810,新規,0,2025-08-27,2025-08-27,合同会社ＳＴＫ,,合同会社,大阪府,茨木市,西田中町６番７号,,27,211,5670027,,,,,,,2025-08-27,1,,,,,エスティケー,0
2155,9120903005819,新規,0,2025-08-27,2025-08-27,合同会社Ｈｏｍｅ　ｂａｓｅ,,合同会社,大阪府,箕面市,彩都粟生北２丁目６―９１,,27,220,5620029,,,,,,,2025-08-27,1,,,,,ホームベース,0
2164,9130003010710,新規,0,2025-08-27,2025-08-27,合同会社ＫＴＹ,,合同会社,京都府,京都市左京区,下鴨泉川町３６番地６,,26,103,6060807,,,,,,,2025-08-27,1,,,,,ケーティーワイ,0
2167,9140001139807,新規,0,2025-08-27,2025-08-27,株式会社アールプラスティ,,株式会社,兵庫県,神戸市東灘区,住吉東町２丁目３番３３－２７０１号,,28,101,6580052,,,,,,,2025-08-27,1,,,,,アールプラスティ,0
2172,9160003003579,新規,0,2025-08-27,2025-08-27,合同会社１,,合同会社,滋賀県,近江八幡市,出町２２８番地８,,25,204,5230892,,,,,,,2025-08-27,1,,,,,イチ,0
2182,9180001168182,新規,0,2025-08-27,2025-08-27,株式会社Ｂａｃｃａｒａ,,株式会社,愛知県,名古屋市中村区,名駅４丁目２４－５第２森ビル４０１,,23,105,4500002,,,,,,,2025-08-27,1,,,,,バカラ,0
2190,9180003028905,新規,0,2025-08-27,2025-08-27,合同会社ユニマージテック,,合同会社,愛知県,名古屋市中村区,名駅４丁目２４番５号第２森ビル４０１,,23,105,4500002,,,,,,,2025-08-27,1,,,,,ユニマージテック,0
2197,9180301040132,新規,0,2025-08-27,2025-08-27,株式会社Ｋコンサルティング,,株式会社,愛知県,安城市,末広町９番２４号グランドメゾン安城１００４,,23,212,4460038,,,,,,,2025-08-27,1,,,,,ケイコンサルティング,0
2199,9190001032486,新規,0,2025-08-27,2025-08-27,株式会社ゆめいろ不動産,,株式会社,三重県,四日市市,桜町６１７９番地２２,,24,202,5121211,,,,,,,2025-08-27,1,,,,,ユメイロフドウサン,0
2201,9190003005151,新規,0,2025-08-27,2025-08-27,合同会社ｋｏｒｅｋａｒａ,,合同会社,三重県,度会郡玉城町,佐田１７４０番地,,24,461,5190414,,,,,,,2025-08-27,1,,,,,コレカラ,0
2206,9220001026889,新規,0,2025-08-27,2025-08-27,ココグリーン株式会社,,株式会社,石川県,河北郡内灘町,字大学２丁目１２８番地１,,17,365,9200265,,,,,,,2025-08-27,1,,,,,ココグリーン,0
2227,9320001021293,新規,0,2025-08-27,2025-08-27,Ｘ　Ｂｒａｉｎ株式会社,,株式会社,大分県,宇佐市,大字四日市２８７３番地の８,,44,211,8790471,,,,,,,2025-08-27,1,,,,,エックスブレイン,0
2233,9330003011184,新規,0,2025-08-27,2025-08-27,合同会社ＬｉｆｅＷｏｒｋｓ,,合同会社,熊本県,熊本市中央区,国府４丁目１０番９０号,,43,101,8620949,,,,,,,2025-08-27,1,,,,,ライフワークス,0
2236,9340001027611,新規,0,2025-08-27,2025-08-27,サンライフ株式会社,,株式会社,鹿児島県,鹿児島市,山田町２１７４番地６号,,46,201,8910104,,,,,,,2025-08-27,1,,,,,サンライフ,0
2239,9350001019707,新規,0,2025-08-27,2025-08-27,株式会社アルケミア・コネクト,,株式会社,宮崎県,宮崎市,吉村町浮之城甲１１－１ＫｏＯｌｉｎａＵｋｉｎｏｊｏ２０１号,,45,201,8800841,,,,,,,2025-08-27,1,,,,,アルケミアコネクト,0
2241,9360001035604,新規,0,2025-08-27,2025-08-27,株式会社大地の風,,株式会社,沖縄県,国頭郡本部町,字山里１１７２番地１,,47,308,9050219,,,,,,,2025-08-27,1,,,,,ダイチノカゼ,0
2247,9390003002434,新規,0,2025-08-27,2025-08-27,合同会社ＳＤ,,合同会社,山形県,鶴岡市,外内島字信州川原５３－６,,06,203,9970815,,,,,,,2025-08-27,1,,,,,,0
2257,9430001094881,新規,0,2025-08-27,2025-08-27,永安株式会社,,株式会社,北海道,美唄市,字峰延９１６５,,01,215,0720000,,,,,,,2025-08-27,1,,,,,エイアン,0
2262,9430003018013,新規,0,2025-08-27,2025-08-27,Ｆｏｒｅｓｔｕｎｄｅｒ合同会社,,合同会社,北海道,札幌市中央区,北一条西１９丁目２‐５　５０２号,,01,101,0600001,,,,,,,2025-08-27,1,,,,,フォレスタンダー,0
2265,9500003003577,新規,0,2025-08-27,2025-08-27,ＦＰ‐Ｏｎｅ合同会社,,合同会社,愛媛県,松山市,南久米町１７１番地１０グランフィル久米東１３０１号,,38,201,7900924,,,,,,,2025-08-27,1,,,,,エフピーワン,0
