sequenceNumber,corporateNumber,process,correct,updateDate,changeDate,name,nameImageId,kind,prefectureName,cityName,streetNumber,addressImageId,prefectureCode,cityCode,postCode,addressOutside,addressOutsideImageId,closeDate,closeCause,successorCorporateNumber,changeCause,assignmentDate,latest,enName,enPrefectureName,enCityName,enAddressOutside,furigana,hihyoji
11,1010001246210,新規,0,2024-07-08,2024-07-08,株式会社シャンフェ,,株式会社,東京都,文京区,湯島３丁目４４番９号湯島要ビル１階Ｂ号,,13,105,1130034,,,,,,,2024-07-08,1,,,,,シャンフェ,0
12,1010001246284,新規,0,2024-07-08,2024-07-08,株式会社ミスト,,株式会社,東京都,中央区,新富１丁目９番６号,,13,102,1040041,,,,,,,2024-07-08,1,,,,,ミスト,0
13,1010001246301,新規,0,2024-07-08,2024-07-08,株式会社アークウィズテック,,株式会社,東京都,千代田区,九段南４丁目６番１０号九段南ビル８階,,13,101,1020074,,,,,,,2024-07-08,1,,,,,アークウィズテック,0
16,1010003044224,新規,0,2024-07-08,2024-07-08,スペックラボ合同会社,,合同会社,東京都,中央区,銀座７丁目１３番２０号銀座ＴＨビル９階,,13,102,1040061,,,,,,,2024-07-08,1,,,,,スペックラボ,0
17,1010003044232,新規,0,2024-07-08,2024-07-08,エイチエスマネジメントカンパニー合同会社,,合同会社,東京都,中央区,勝どき６丁目３番１－４６０３号,,13,102,1040054,,,,,,,2024-07-08,1,,,,,エイチエスマネジメントカンパニー,0
27,1010403032976,新規,0,2024-07-08,2024-07-08,ＱｕｅｒｙＰｉｅ　Ｊａｐａｎ合同会社,,合同会社,東京都,港区,虎ノ門１丁目１７番１号,,13,103,1050001,,,,,,,2024-07-08,1,,,,,クエリーパイジャパン,0
32,1010603010939,新規,0,2024-07-08,2024-07-08,ＤＥＴＯＣＹ商事合同会社,,合同会社,東京都,墨田区,両国２丁目３番１４号,,13,107,1300026,,,,,,,2024-07-08,1,,,,,デトシーショウジ,0
34,1010703007249,新規,0,2024-07-08,2024-07-08,合同会社エコサイクルクラウド,,合同会社,東京都,品川区,西大井３丁目１５番９号ＴＯＫＹＯβ西大井６―２０４,,13,109,1400015,,,,,,,2024-07-08,1,,,,,エコサイクルクラウド,0
35,1010901055586,新規,0,2024-07-08,2024-07-08,粋雅株式会社,,株式会社,東京都,世田谷区,新町２丁目３６番１３－２０１号,,13,112,1540014,,,,,,,2024-07-08,1,,,,,イキマサ,0
39,1011001163214,新規,0,2024-07-08,2024-07-08,株式会社ｐｈｏｓｅ,,株式会社,東京都,渋谷区,代々木１丁目２５番５号,,13,113,1510053,,,,,,,2024-07-08,1,,,,,フォーゼ,0
40,1011001163230,新規,0,2024-07-08,2024-07-08,株式会社カンタシーロ,,株式会社,東京都,渋谷区,幡ヶ谷２丁目１番４号２階,,13,113,1510072,,,,,,,2024-07-08,1,,,,,カンタシーロ,0
47,1011101107905,新規,0,2024-07-08,2024-07-08,株式会社まあち,,株式会社,東京都,新宿区,西新宿８丁目１９番１号,,13,104,1600023,,,,,,,2024-07-08,1,,,,,マアチ,0
48,1011101107954,新規,0,2024-07-08,2024-07-08,Ｃａｒｅ　Ｔｅｃｈ　Ｓｔｕｄｉｏ株式会社,,株式会社,東京都,新宿区,新宿２丁目３番１１号ＶＯＲＴ新宿御苑４階,,13,104,1600022,,,,,,,2024-07-08,1,,,,,ケアテックスタジオ,0
50,1011103014653,新規,0,2024-07-08,2024-07-08,合同会社Ｇｓ,,合同会社,東京都,新宿区,歌舞伎町２丁目４１－８植木ビル４０１,,13,104,1600021,,,,,,,2024-07-08,1,,,,,ジーズ,0
54,1011105011095,新規,0,2024-07-08,2024-07-08,プラスト税理士法人,,その他の設立登記法人,東京都,新宿区,下落合１丁目２番１６号大堀ビル６０１,,13,104,1610033,,,,,,,2024-07-08,1,,,,,プラスト,0
55,1011301029800,新規,0,2024-07-08,2024-07-08,株式会社Ｂｏａ‐ｓｏｒｔｅ,,株式会社,東京都,杉並区,高円寺南２丁目１５番１５号バウスフラッツ高円寺１０１,,13,115,1660003,,,,,,,2024-07-08,1,,,,,ボアソルチ,0
66,1011803006322,新規,0,2024-07-08,2024-07-08,ＣＭＷ合同会社,,合同会社,東京都,葛飾区,東金町１丁目２６番１号にのみやビル３Ｆ,,13,122,1250041,,,,,,,2024-07-08,1,,,,,シーエムダブリュー,0
68,1012301013983,新規,0,2024-07-08,2024-07-08,株式会社マフィン,,株式会社,東京都,町田市,本町田３２８１番４号,,13,209,1940032,,,,,,,2024-07-08,1,,,,,マフィン,0
70,1012701018343,新規,0,2024-07-08,2024-07-08,株式会社ＩＭＣ,,株式会社,東京都,小平市,花小金井南町１丁目１０番１９－１号,,13,211,1870003,,,,,,,2024-07-08,1,,,,,アイエムシー,0
83,1020001157992,新規,0,2024-07-08,2024-07-08,株式会社センターエステート,,株式会社,神奈川県,横浜市港北区,新横浜２丁目５番１０号９階Ｃ室,,14,109,2220033,,,,,,,2024-07-08,1,,,,,センターエステート,0
84,1020001158181,新規,0,2024-07-08,2024-07-08,株式会社ＣｌａｓｉＱ,,株式会社,神奈川県,横浜市西区,高島２丁目１９－１２横浜スカイビル２０階,,14,103,2200011,,,,,,,2024-07-08,1,,,,,クラシク,0
85,1021001082644,新規,0,2024-07-08,2024-07-08,福島アセットマネジメント株式会社,,株式会社,神奈川県,高座郡寒川町,倉見３４４番地２,,14,321,2530101,,,,,,,2024-07-08,1,,,,,フクシマアセットマネジメント,0
86,1021001082669,新規,0,2024-07-08,2024-07-08,株式会社海老名造園,,株式会社,神奈川県,海老名市,国分北４丁目１３番１５号,,14,215,2430406,,,,,,,2024-07-08,1,,,,,エビナゾウエン,0
88,1021003014728,新規,0,2024-07-08,2024-07-08,Ｎｏｒｔｈｃｒｏｆｔ　Ｊａｐａｎ合同会社,,合同会社,神奈川県,藤沢市,片瀬海岸１丁目７番１－２０５号,,14,205,2510035,,,,,,,2024-07-08,1,,,,,ノースクロフトジャパン,0
89,1021003014744,新規,0,2024-07-08,2024-07-08,合同会社アウトカム・アライ,,合同会社,神奈川県,藤沢市,湘南台５丁目６番地の４,,14,205,2520804,,,,,,,2024-07-08,1,,,,,アウトカムアライ,0
90,1021005013141,新規,0,2024-07-08,2024-07-08,一般社団法人Ｗｏｎｄｅｒ　Ｆｏｒｅｓｔ,,その他の設立登記法人,神奈川県,横須賀市,長沢１丁目３２番１１号第５新星ビル３０２号室,,14,201,2390842,,,,,,,2024-07-08,1,,,,,ワンダーフォーレスト,0
99,1030001161234,新規,0,2024-07-08,2024-07-08,Ｓｆｉｄａ株式会社,,株式会社,埼玉県,川口市,南鳩ヶ谷４丁目２８番８号,,11,203,3340013,,,,,,,2024-07-08,1,,,,,スフィーダ,0
100,1030001161267,新規,0,2024-07-08,2024-07-08,Ｃｏｖａｌｕ株式会社,,株式会社,埼玉県,熊谷市,石原１７１３番地５,,11,202,3600816,,,,,,,2024-07-08,1,,,,,コバル,0
101,1030001161275,新規,0,2024-07-08,2024-07-08,株式会社ＣＯＡＬＥＳＣＥ,,株式会社,埼玉県,さいたま市見沼区,大字南中丸８２番地２３,,11,104,3370041,,,,,,,2024-07-08,1,,,,,コアレス,0
102,1030001161283,新規,0,2024-07-08,2024-07-08,ユープライムプロパティ株式会社,,株式会社,埼玉県,川越市,藤原町２８番地５４小泉ビル２Ｆ,,11,201,3501143,,,,,,,2024-07-08,1,,,,,ユープライムプロパティ,0
109,1030003024645,新規,0,2024-07-08,2024-07-08,合同会社ｅｆＣＲＡＦＴ,,合同会社,埼玉県,越谷市,南越谷１丁目１５番地１南越谷ラクーン４階,,11,222,3430845,,,,,,,2024-07-08,1,,,,,エフクラフト,0
110,1030003024653,新規,0,2024-07-08,2024-07-08,合同会社Ｄｒｅａｍ　Ｂｉｇ,,合同会社,埼玉県,戸田市,新曽南２丁目７番１２－５０８号,,11,224,3350026,,,,,,,2024-07-08,1,,,,,ドリムビッグ,0
114,1030005021756,新規,0,2024-07-08,2024-07-08,きとみ税理士法人,,その他の設立登記法人,埼玉県,川越市,六軒町１丁目１番地３プルミエール川越２階,,11,201,3500041,,,,,,,2024-07-08,1,,,,,キトミ,0
118,1040001134404,新規,0,2024-07-08,2024-07-08,株式会社Ｔａｂｉｉｉ,,株式会社,千葉県,市川市,新井３丁目３番６号,,12,203,2720144,,,,,,,2024-07-08,1,,,,,タビー,0
119,1040001134429,新規,0,2024-07-08,2024-07-08,日興株式会社,,株式会社,千葉県,千葉市緑区,土気町４００番地,,12,105,2670061,,,,,,,2024-07-08,1,,,,,ニッコウ,0
120,1040001134445,新規,0,2024-07-08,2024-07-08,株式会社ＨＡＴＳＵＴＯＵ　ＰＬＡＮＮＩＮＧ,,株式会社,千葉県,流山市,加６丁目１５５１番地,,12,220,2700176,,,,,,,2024-07-08,1,,,,,ハツトウプランニング,0
121,1040001134461,新規,0,2024-07-08,2024-07-08,株式会社ｅカンパニー,,株式会社,千葉県,佐倉市,角来１１６８番地,,12,212,2850821,,,,,,,2024-07-08,1,,,,,イーカンパニー,0
127,1040003025361,新規,0,2024-07-08,2024-07-08,合同会社ＬｉｂｅｒｔｙＳＰ,,合同会社,千葉県,松戸市,松飛台４００－８,,12,207,2702214,,,,,,,2024-07-08,1,,,,,リバティエスピー,0
130,1050001055046,新規,0,2024-07-08,2024-07-08,株式会社東洋システム,,株式会社,茨城県,日立市,田尻町３丁目２５番７号,,08,202,3191416,,,,,,,2024-07-08,1,,,,,トウヨウシステム,0
131,1050001055054,新規,0,2024-07-08,2024-07-08,染谷興業株式会社,,株式会社,茨城県,常総市,豊岡町乙１９２４番地１,,08,211,3030041,,,,,,,2024-07-08,1,,,,,ソメヤコウギョウ,0
135,1060003005147,新規,0,2024-07-08,2024-07-08,合同会社ＰＲＯＧＲＥＳＳＯ,,合同会社,栃木県,佐野市,大橋町１１８１番地８,,09,204,3270003,,,,,,,2024-07-08,1,,,,,プログレッソ,0
144,1110001038548,新規,0,2024-07-08,2024-07-08,株式会社鉄生,,株式会社,新潟県,新潟市東区,中山７丁目３４番１０号,,15,102,9500861,,,,,,,2024-07-08,1,,,,,テッショウ,0
152,1120001266560,新規,0,2024-07-08,2024-07-08,ウィズ株式会社,,株式会社,大阪府,大阪市淀川区,加島３丁目３番１６号,,27,123,5320031,,,,,,,2024-07-08,1,,,,,ウィズ,0
153,1120001266610,新規,0,2024-07-08,2024-07-08,株式会社Ｖｉｇｏｒ,,株式会社,大阪府,大阪市中央区,北浜東１番１２号千歳第一ビル６０２号室,,27,128,5400031,,,,,,,2024-07-08,1,,,,,ビガー,0
154,1120001266627,新規,0,2024-07-08,2024-07-08,株式会社ｏｒａｎｇｅ,,株式会社,大阪府,大阪市中央区,南船場１丁目５番６－１４０１号,,27,128,5420081,,,,,,,2024-07-08,1,,,,,オレンジ,0
157,1120003026962,新規,0,2024-07-08,2024-07-08,合同会社吉原,,合同会社,大阪府,大阪市西成区,梅南２丁目５番４号,,27,122,5570033,,,,,,,2024-07-08,1,,,,,ヨシハラ,0
158,1120003026987,新規,0,2024-07-08,2024-07-08,合同会社日本流通経済研究所,,合同会社,大阪府,大阪市中央区,平野町２丁目３番７号アーバンエース北浜ビル株式会社ＳＹＮＴＨ内,,27,128,5410046,,,,,,,2024-07-08,1,,,,,ニホンリュウツウケイザイケンキュウジョ,0
159,1120003027003,新規,0,2024-07-08,2024-07-08,ＣＫ＆Ｓ合同会社,,合同会社,大阪府,大阪市東淀川区,淡路２丁目１０番１４‐８０８号,,27,114,5330032,,,,,,,2024-07-08,1,,,,,シーケーアンドエス,0
173,1120903005256,新規,0,2024-07-08,2024-07-08,ＭＹコンサルティング合同会社,,合同会社,大阪府,吹田市,江坂町５丁目１５番１号プロスパー緑地公園３０６,,27,205,5640063,,,,,,,2024-07-08,1,,,,,エムワイコンサルティング,0
175,1120905006624,新規,0,2024-07-08,2024-07-08,医療法人あおば会,,その他の設立登記法人,大阪府,三島郡島本町,青葉３丁目１番７－９号,,27,301,6180015,,,,,,,2024-07-08,1,,,,,アオバカイ,0
178,1122005003758,新規,0,2024-07-08,2024-07-08,医療法人皐月会,,その他の設立登記法人,大阪府,東大阪市,横枕西１番１３号Ｋ２ＫＩＴＡＮＯマンション,,27,227,5780956,,,,,,,2024-07-08,1,,,,,サツキカイ,0
189,1140001135029,新規,0,2024-07-08,2024-07-08,株式会社コリーヌ,,株式会社,兵庫県,加西市,青野町３３３番地,,28,220,6752413,,,,,,,2024-07-08,1,,,,,コリーヌ,0
197,1150003003307,新規,0,2024-07-08,2024-07-08,リスリーゼロ合同会社,,合同会社,奈良県,奈良市,学園北１丁目１番地の１１,,29,201,6310036,,,,,,,2024-07-08,1,,,,,リスリーゼロ,0
199,1160003003231,新規,0,2024-07-08,2024-07-08,合同会社ケンズ,,合同会社,滋賀県,近江八幡市,土田町２６７‐６,,25,204,5230082,,,,,,,2024-07-08,1,,,,,ケンズ,0
207,1180003027047,新規,0,2024-07-08,2024-07-08,合同会社アロン,,合同会社,愛知県,名古屋市中区,新栄３丁目１番１５号プレサンス新栄町ギャラント１１１２号,,23,106,4600007,,,,,,,2024-07-08,1,,,,,アロン,0
208,1180003027055,新規,0,2024-07-08,2024-07-08,合同会社あいあい,,合同会社,愛知県,名古屋市名東区,社口２丁目７１４番地カーサ一社１０３号室,,23,115,4650013,,,,,,,2024-07-08,1,,,,,アイアイ,0
212,1180005020693,新規,0,2024-07-08,2024-07-08,スタートアップサポート税理士法人,,その他の設立登記法人,愛知県,一宮市,栄１丁目１１番１６号マースビル５階,,23,203,4910858,,,,,,,2024-07-08,1,,,,,スタートアップサポート,0
228,1220003003778,新規,0,2024-07-08,2024-07-08,合同会社シグナス通り,,合同会社,石川県,河北郡津幡町,字横浜は８１番地５,,17,361,9290341,,,,,,,2024-07-08,1,,,,,シグナスドオリ,0
247,1290005019460,新規,0,2024-07-08,2024-07-08,一般社団法人佑昭会,,その他の設立登記法人,福岡県,福岡市南区,桧原４丁目５番１０号,,40,134,8111355,,,,,,,2024-07-08,1,,,,,ユウショウカイ,0
260,1340001026637,新規,0,2024-07-08,2024-07-08,株式会社Ｈ．ａｒｍ．ｓ,,株式会社,鹿児島県,鹿児島市,武岡５丁目２２番１４号,,46,201,8900031,,,,,,,2024-07-08,1,,,,,ホットアーム,0
263,1350001019061,新規,0,2024-07-08,2024-07-08,株式会社エムウィン,,株式会社,宮崎県,宮崎市,船塚３丁目１４９番地,,45,201,8800031,,,,,,,2024-07-08,1,,,,,エムウィン,0
265,1350003004697,新規,0,2024-07-08,2024-07-08,合同会社エクセレント・ガレージ,,合同会社,宮崎県,宮崎市,大工３丁目２９６番地２レクシア宮崎大橋アクアテラス１００１号,,45,201,8800015,,,,,,,2024-07-08,1,,,,,エクセレントガレージ,0
271,1360001033920,新規,0,2024-07-08,2024-07-08,株式会社ＷＡＲＯＴＡ,,株式会社,沖縄県,那覇市,古波蔵１丁目２９－２８－６０４,,47,201,9000024,,,,,,,2024-07-08,1,,,,,ワロタ,0
277,1370001051483,新規,0,2024-07-08,2024-07-08,株式会社Ｔｔｍファーム,,株式会社,宮城県,登米市,南方町上砥落１３番地１,,04,212,9870425,,,,,,,2024-07-08,1,,,,,ティーティーエムファーム,0
278,1370001051500,新規,0,2024-07-08,2024-07-08,株式会社ＹＫ,,株式会社,宮城県,仙台市若林区,白萩町２９－２０,,04,103,9840048,,,,,,,2024-07-08,1,,,,,ワイケイ,0
281,1390001017672,新規,0,2024-07-08,2024-07-08,株式会社ＴＲＵＳＴ,,株式会社,山形県,米沢市,東１丁目１０番１３号アイリスＫ１０３号,,06,202,9920026,,,,,,,2024-07-08,1,,,,,トラスト,0
282,1400001016722,新規,0,2024-07-08,2024-07-08,株式会社ＳＥＮ,,株式会社,岩手県,盛岡市,桜台３丁目７番４号,,03,201,0200002,,,,,,,2024-07-08,1,,,,,セン,0
287,1430001092158,新規,0,2024-07-08,2024-07-08,ワイプラス株式会社,,株式会社,北海道,砂川市,東豊沼２６番地,,01,226,0730126,,,,,,,2024-07-08,1,,,,,ワイプラス,0
294,1500001025738,新規,0,2024-07-08,2024-07-08,株式会社ＷｈｉｔｅＰｌａｎｅｔ,,株式会社,愛媛県,上浮穴郡久万高原町,二名乙７８７番地１３,,38,386,7911222,,,,,,,2024-07-08,1,,,,,ホワイトプラネット,0
296,1500005008714,新規,0,2024-07-08,2024-07-08,特定非営利活動法人ベビ＆ママサポ,,その他の設立登記法人,愛媛県,四国中央市,妻鳥町１９９３番地４,,38,213,7990113,,,,,,,2024-07-08,1,,,,,ベビアンドママサポ,0
299,1700150125888,新規,0,2024-07-08,2024-06-12,江波地区地域運営委員会,,その他,広島県,広島市中区,江波二本松２丁目４－１７,,34,101,7300834,,,,,,,2024-06-12,1,,,,,エバチクチイキウンエイイインカイ,0
316,2010001246242,新規,0,2024-07-08,2024-07-08,リステージホールディングス株式会社,,株式会社,東京都,中央区,日本橋浜町２丁目６番１号,,13,102,1030007,,,,,,,2024-07-08,1,,,,,リステージホールディングス,0
317,2010001246259,新規,0,2024-07-08,2024-07-08,徐工日本株式会社,,株式会社,東京都,中央区,月島４丁目２１番６号,,13,102,1040052,,,,,,,2024-07-08,1,,,,,ジョコウニホン,0
318,2010001246317,新規,0,2024-07-08,2024-07-08,株式会社ＨＩＴＯＳＡＪＩ,,株式会社,東京都,千代田区,富士見２丁目１０番３－２８０４号,,13,101,1020071,,,,,,,2024-07-08,1,,,,,ヒトサジ,0
319,2010001246325,新規,0,2024-07-08,2024-07-08,株式会社政,,株式会社,東京都,中央区,月島１丁目５番２号,,13,102,1040052,,,,,,,2024-07-08,1,,,,,マサ,0
320,2010001246333,新規,0,2024-07-08,2024-07-08,マイクロアルゲミー株式会社,,株式会社,東京都,中央区,日本橋３丁目２番１４号新槇町ビル別館第一１階,,13,102,1030027,,,,,,,2024-07-08,1,,,,,マイクロアルゲミー,0
321,2010001246366,新規,0,2024-07-08,2024-07-08,株式会社ハローマイヘルス,,株式会社,東京都,中央区,銀座１丁目１２－４Ｎ＆ＥＢＬＤ．７階,,13,102,1040061,,,,,,,2024-07-08,1,,,,,ハローマイヘルス,0
322,2010003044215,新規,0,2024-07-08,2024-07-08,合同会社フロイデ,,合同会社,東京都,文京区,小日向２丁目３１番２号,,13,105,1120006,,,,,,,2024-07-08,1,,,,,フロイデ,0
323,2010003044231,新規,0,2024-07-08,2024-07-08,合同会社ＨｉＪｏＪｏ．ｃｏｍ１４,,合同会社,東京都,千代田区,霞が関３丁目２番５号,,13,101,1000013,,,,,,,2024-07-08,1,,,,,ヒジョージョードットコムフォーティン,0
324,2010003044248,新規,0,2024-07-08,2024-07-08,合同会社ＳＦ１号,,合同会社,東京都,千代田区,丸の内３丁目１番１号東京共同会計事務所内,,13,101,1000005,,,,,,,2024-07-08,1,,,,,エスエフイチゴウ,0
325,2010003044256,新規,0,2024-07-08,2024-07-08,合同会社ＦＣ学園設立準備室,,合同会社,東京都,中央区,八丁堀２丁目１番９号川名第二ビル３階,,13,102,1040032,,,,,,,2024-07-08,1,,,,,フロンティアコンピューティングガクエンセツリツジュンビシツ,0
326,2010003044272,新規,0,2024-07-08,2024-07-08,ペリドットツー合同会社,,合同会社,東京都,中央区,日本橋１丁目４番１号日本橋一丁目ビルディング,,13,102,1030027,,,,,,,2024-07-08,1,,,,,ペリドットツー,0
336,2010601065471,新規,0,2024-07-08,2024-07-08,ディアケア株式会社,,株式会社,東京都,墨田区,京島１丁目２１番１０号,,13,107,1310046,,,,,,,2024-07-08,1,,,,,ディアケア,0
337,2010601065496,新規,0,2024-07-08,2024-07-08,株式会社ビオトープ,,株式会社,東京都,江東区,豊洲６丁目２番３１号,,13,108,1350061,,,,,,,2024-07-08,1,,,,,ビオトープ,0
338,2010701046215,新規,0,2024-07-08,2024-07-08,株式会社ＴＡＧホールディングス,,株式会社,東京都,品川区,東大井２丁目２４番６号,,13,109,1400011,,,,,,,2024-07-08,1,,,,,ティエージーホールディングス,0
350,2011001163196,新規,0,2024-07-08,2024-07-08,株式会社松藤,,株式会社,東京都,渋谷区,円山町１０－１７,,13,113,1500044,,,,,,,2024-07-08,1,,,,,マツフジ,0
358,2011101107912,新規,0,2024-07-08,2024-07-08,瑞祥株式会社,,株式会社,東京都,新宿区,新宿４丁目１番２２号新宿コムロビル７０３号室,,13,104,1600022,,,,,,,2024-07-08,1,,,,,ズイショウ,0
359,2011101107937,新規,0,2024-07-08,2024-07-08,株式会社イペチコ,,株式会社,東京都,新宿区,歌舞伎町１丁目１７番６号第３ＮＫビル４Ｆ,,13,104,1600021,,,,,,,2024-07-08,1,,,,,イペチコ,0
360,2011101108002,新規,0,2024-07-08,2024-07-08,株式会社ＮｅｏＢｌｏｏｍ,,株式会社,東京都,新宿区,西新宿３丁目３番１３号西新宿水間ビル６階,,13,104,1600023,,,,,,,2024-07-08,1,,,,,ネオブルーム,0
361,2011101108010,新規,0,2024-07-08,2024-07-08,株式会社Ｈｉｃａｐａ,,株式会社,東京都,新宿区,新宿３丁目２０番３号,,13,104,1600022,,,,,,,2024-07-08,1,,,,,ハイキャパ,0
362,2011103014652,新規,0,2024-07-08,2024-07-08,フィールドアップ合同会社,,合同会社,東京都,新宿区,早稲田町１２－５ニュー早稲田ビル５Ｆ,,13,104,1620042,,,,,,,2024-07-08,1,,,,,フィールドアップ,0
365,2011201025618,新規,0,2024-07-08,2024-07-08,リンクスイット株式会社,,株式会社,東京都,中野区,上高田３丁目２２番１１号,,13,114,1640002,,,,,,,2024-07-08,1,,,,,リンクスイット,0
368,2011301029824,新規,0,2024-07-08,2024-07-08,株式会社アイズ,,株式会社,東京都,杉並区,和田２丁目２１番６号,,13,115,1660012,,,,,,,2024-07-08,1,,,,,アイズ,0
372,2011501030895,新規,0,2024-07-08,2024-07-08,クロノスリンク株式会社,,株式会社,東京都,北区,東十条６丁目１０番１８号,,13,117,1140001,,,,,,,2024-07-08,1,,,,,クロノスリンク,0
375,2011601027882,新規,0,2024-07-08,2024-07-08,日本布姆株式会社,,株式会社,東京都,練馬区,桜台６丁目１９番３号２０１,,13,120,1760002,,,,,,,2024-07-08,1,,,,,ニホンブーム,0
378,2011705001841,新規,0,2024-07-08,2024-07-08,特定非営利活動法人稲の里,,その他の設立登記法人,東京都,江戸川区,鹿骨２丁目３１番１５－１０１号,,13,123,1330073,,,,,,,2024-07-08,1,,,,,イネノサト,0
383,2012701018334,新規,0,2024-07-08,2024-07-08,株式会社ＳｔｒｉｋｅＤｅｓｉｇｎ,,株式会社,東京都,小平市,大沼町１丁目２５番８号,,13,211,1870001,,,,,,,2024-07-08,1,,,,,ストライクデザイン,0
384,2012703003037,新規,0,2024-07-08,2024-07-08,栄光コンサルタント合同会社,,合同会社,東京都,西東京市,向台町２丁目３番３１号,,13,229,1880013,,,,,,,2024-07-08,1,,,,,エイコウコンサルタント,0
389,2013303007213,新規,0,2024-07-08,2024-07-08,合同会社プレンティフル,,合同会社,東京都,豊島区,駒込１丁目３－４－１００１,,13,116,1700003,,,,,,,2024-07-08,1,,,,,プレンティフル,0
399,2020001158008,新規,0,2024-07-08,2024-07-08,光株式会社,,株式会社,神奈川県,川崎市川崎区,駅前本町１１番地２川崎フロンティアビル４階,,14,131,2100007,,,,,,,2024-07-08,1,,,,,ヒカリ,0
400,2020001158016,新規,0,2024-07-08,2024-07-08,株式会社くるくる,,株式会社,神奈川県,横浜市鶴見区,鶴見１丁目１２番３０－３０３号,,14,101,2300063,,,,,,,2024-07-08,1,,,,,クルクル,0
401,2020001158040,新規,0,2024-07-08,2024-07-08,株式会社ＡＢＢＩＥ,,株式会社,神奈川県,横浜市神奈川区,橋本町２丁目５番地３ＳＥ－１２０１,,14,102,2210053,,,,,,,2024-07-08,1,,,,,アビー,0
404,2020005016475,新規,0,2024-07-08,2024-07-08,一般社団法人大豆１００粒運動を支える会,,その他の設立登記法人,神奈川県,横浜市戸塚区,名瀬町７６９番地２１,,14,110,2450051,,,,,,,2024-07-08,1,,,,,ダイズヒャクツブウンドウヲササエルカイ,0
405,2021001082676,新規,0,2024-07-08,2024-07-08,ＴＲＵＥ　ＢＬＵＥ株式会社,,株式会社,神奈川県,厚木市,宮の里３丁目１０番１６－１号,,14,212,2430216,,,,,,,2024-07-08,1,,,,,トゥルーブルー,0
406,2021001082684,新規,0,2024-07-08,2024-07-08,株式会社ＣＯＮＦＲＥＥＤ,,株式会社,神奈川県,伊勢原市,高森３００２番地の７,,14,214,2591114,,,,,,,2024-07-08,1,,,,,コンフリード,0
408,2021003014594,新規,0,2024-07-08,2024-07-08,Ｍｕｌｔｉ　Ａｒｒｏｗｓ合同会社,,合同会社,神奈川県,藤沢市,善行坂１丁目１―２６―８０３,,14,205,2510876,,,,,,,2024-07-08,1,,,,,マルチアロウズ,0
409,2021003014702,新規,0,2024-07-08,2024-07-08,合同会社テンパネ,,合同会社,神奈川県,相模原市南区,上鶴間本町９丁目１９番１０号ベルテックス２０２,,14,153,2520318,,,,,,,2024-07-08,1,,,,,テンパネ,0
410,2021003014710,新規,0,2024-07-08,2024-07-08,合同会社ＭＩＮＴ,,合同会社,神奈川県,茅ヶ崎市,新栄町７番５号ＣｈｉｇａｓａｋｉＢｉｚ－ｎａｚ３Ｆ,,14,207,2530044,,,,,,,2024-07-08,1,,,,,ミント,0
411,2021003014735,新規,0,2024-07-08,2024-07-08,合同会社ＪＯＹＥＮＴ,,合同会社,神奈川県,藤沢市,辻堂元町６丁目１２－３０,,14,205,2510043,,,,,,,2024-07-08,1,,,,,ジョイント,0
415,2030001161233,新規,0,2024-07-08,2024-07-08,株式会社クラウド,,株式会社,埼玉県,三郷市,戸ケ崎３丁目３１番地１,,11,237,3410044,,,,,,,2024-07-08,1,,,,,クラウド,0
416,2030001161282,新規,0,2024-07-08,2024-07-08,株式会社ＮＫ‐１,,株式会社,埼玉県,鴻巣市,三町免１２番地,,11,217,3690134,,,,,,,2024-07-08,1,,,,,エヌケーワン,0
417,2030001161290,新規,0,2024-07-08,2024-07-08,株式会社Ｌｉｅｎ,,株式会社,埼玉県,川口市,大字安行領根岸１２３１－１飯塚倉庫Ａ棟,,11,203,3330834,,,,,,,2024-07-08,1,,,,,リアン,0
418,2030001161308,新規,0,2024-07-08,2024-07-08,株式会社櫻彩,,株式会社,埼玉県,川口市,大字石神１６１番地の６,,11,203,3330823,,,,,,,2024-07-08,1,,,,,サクラ,0
419,2030001161381,新規,0,2024-07-08,2024-07-08,ワールド・アーク株式会社,,株式会社,埼玉県,富士見市,鶴瀬西２丁目３番２,,11,235,3540026,,,,,,,2024-07-08,1,,,,,ワールドアーク,0
423,2030003024636,新規,0,2024-07-08,2024-07-08,合同会社ＴＭ商会,,合同会社,埼玉県,三郷市,戸ケ崎１丁目２１２番地３,,11,237,3410044,,,,,,,2024-07-08,1,,,,,ティーエムショウカイ,0
424,2030003024652,新規,0,2024-07-08,2024-07-08,順益合同会社,,合同会社,埼玉県,比企郡小川町,東小川５丁目６番地１１,,11,343,3550322,,,,,,,2024-07-08,1,,,,,ジュンエキ,0
426,2030005021755,新規,0,2024-07-08,2024-07-08,税理士法人ＫＫ,,その他の設立登記法人,埼玉県,さいたま市浦和区,常盤９丁目３３番２２号関根ビル,,11,107,3300061,,,,,,,2024-07-08,1,,,,,ケーケー,0
436,2040001134436,新規,0,2024-07-08,2024-07-08,株式会社縁,,株式会社,千葉県,市原市,草刈９７８番地４,,12,219,2900001,,,,,,,2024-07-08,1,,,,,エン,0
442,2040003025360,新規,0,2024-07-08,2024-07-08,合同会社Ａ‐ｃｏｎｎｅｃｔ,,合同会社,千葉県,袖ケ浦市,今井２１９５番地,,12,229,2990264,,,,,,,2024-07-08,1,,,,,エーコネクト,0
445,2050001055045,新規,0,2024-07-08,2024-07-08,株式会社中山青果,,株式会社,茨城県,結城郡八千代町,大字仁江戸１６７２番地１,,08,521,3003539,,,,,,,2024-07-08,1,,,,,ナカヤマセイカ,0
446,2050001055053,新規,0,2024-07-08,2024-07-08,株式会社長谷川花松園,,株式会社,茨城県,神栖市,矢田部３２９８番地,,08,232,3140341,,,,,,,2024-07-08,1,,,,,ハセガワカショウエン,0
448,2050003008513,新規,0,2024-07-08,2024-07-08,Ｕ＆Ｒ合同会社,,合同会社,茨城県,牛久市,さくら台２丁目６番地１３,,08,219,3001217,,,,,,,2024-07-08,1,,,,,ユーアンドアール,0
452,2060001037273,新規,0,2024-07-08,2024-07-08,株式会社ＧＯＥＭＯＮ,,株式会社,栃木県,大田原市,市野沢２０８９番地４,,09,210,3240006,,,,,,,2024-07-08,1,,,,,ゴエモン,0
458,2080003003247,新規,0,2024-07-08,2024-07-08,合同会社ＳＯＲＡ,,合同会社,静岡県,静岡市清水区,真砂町５番２３－４０１号,,22,103,4240816,,,,,,,2024-07-08,1,,,,,ソラ,0
461,2080101024871,新規,0,2024-07-08,2024-07-08,株式会社プラン,,株式会社,静岡県,沼津市,宮前町７番地の３,,22,203,4100062,,,,,,,2024-07-08,1,,,,,プラン,0
466,2090003002594,新規,0,2024-07-08,2024-07-08,合同会社スマイルファーム,,合同会社,山梨県,中央市,木原１３６８番地,,19,214,4001511,,,,,,,2024-07-08,1,,,,,スマイルファーム,0
473,2110001038539,新規,0,2024-07-08,2024-07-08,株式会社ＮＫ２‐Ｔｅｃｈ,,株式会社,新潟県,長岡市,水道町４丁目２番２３号,,15,202,9400093,,,,,,,2024-07-08,1,,,,,エヌケーツーテック,0
484,2120001266485,新規,0,2024-07-08,2024-07-08,ＪＩＮＷＵ株式会社,,株式会社,大阪府,大阪市阿倍野区,旭町２丁目１番１号あべのマルシェ西１２２１室,,27,119,5450051,,,,,,,2024-07-08,1,,,,,ジンウ,0
485,2120001266568,新規,0,2024-07-08,2024-07-08,株式会社ＡａｎｄＵ,,株式会社,大阪府,大阪市中央区,平野町２丁目２番９号ビル皿井４０３,,27,128,5410046,,,,,,,2024-07-08,1,,,,,エーアンドユー,0
486,2120001266584,新規,0,2024-07-08,2024-07-08,Ａｎｄ　ｂｌｕｅ　ｓｋｙ株式会社,,株式会社,大阪府,大阪市北区,梅田１丁目２番２号大阪駅前第２ビル１２－１２,,27,127,5300001,,,,,,,2024-07-08,1,,,,,アンドブルースカイ,0
487,2120001266601,新規,0,2024-07-08,2024-07-08,ＹＵ　ＧＲＯＵＰ株式会社,,株式会社,大阪府,大阪市北区,浪花町１３番２８号金馬ビル４０２号室,,27,127,5300022,,,,,,,2024-07-08,1,,,,,ユーグループ,0
488,2120001266618,新規,0,2024-07-08,2024-07-08,ＡＧＬ株式会社,,株式会社,大阪府,大阪市西区,南堀江４丁目３１－５－１８０４,,27,106,5500015,,,,,,,2024-07-08,1,,,,,エージーエル,0
494,2120005024410,新規,0,2024-07-08,2024-07-08,一般社団法人美鯨会,,その他の設立登記法人,大阪府,大阪市福島区,福島７丁目２０番１ＫＭ西梅田ビル１４Ｆ,,27,103,5530003,,,,,,,2024-07-08,1,,,,,ビゲイカイ,0
497,2120101069920,新規,0,2024-07-08,2024-07-08,株式会社結ガーデン,,株式会社,大阪府,富田林市,楠町４番５－４０９号,,27,214,5840041,,,,,,,2024-07-08,1,,,,,ムスビガーデン,0
501,2120103005931,新規,0,2024-07-08,2024-07-08,合同会社ＳＨＩＭＡ,,合同会社,大阪府,貝塚市,地藏堂５３番地１１１,,27,208,5970053,,,,,,,2024-07-08,1,,,,,シマ,0
503,2120901049436,新規,0,2024-07-08,2024-07-08,株式会社Ｂ　ｓｕｐｐｌｙ,,株式会社,大阪府,摂津市,南千里丘５―１３パークタワー南千里丘９１４,,27,224,5660021,,,,,,,2024-07-08,1,,,,,ビーサプライ,0
506,2120905006623,新規,0,2024-07-08,2024-07-08,医療法人響信会,,その他の設立登記法人,大阪府,豊中市,夕日丘１丁目２番２６号,,27,203,5610864,,,,,,,2024-07-08,1,,,,,キョウシンカイ,0
507,2122001038237,新規,0,2024-07-08,2024-07-08,ＹＵＴＡＫＡ株式会社,,株式会社,大阪府,柏原市,玉手町２５番６５号,,27,221,5820028,,,,,,,2024-07-08,1,,,,,ユタカ,0
512,2140001134987,新規,0,2024-07-08,2024-07-08,コストラスト株式会社,,株式会社,兵庫県,姫路市,広畑区才６９番地７,,28,201,6711104,,,,,,,2024-07-08,1,,,,,コストラスト,0
513,2140001135044,新規,0,2024-07-08,2024-07-08,神南通商株式会社,,株式会社,兵庫県,姫路市,山田町南山田１９３番地１３,,28,201,6792113,,,,,,,2024-07-08,1,,,,,ジンナンツウショウ,0
514,2140001135052,新規,0,2024-07-08,2024-07-08,株式会社バロム＆ボンド,,株式会社,兵庫県,神戸市長田区,西尻池町１丁目２番３号,,28,106,6530031,,,,,,,2024-07-08,1,,,,,バロムアンドボンド,0
515,2140001135069,新規,0,2024-07-08,2024-07-08,株式会社ＫＳ,,株式会社,兵庫県,神戸市須磨区,中落合２丁目３－２－２０６,,28,107,6540154,,,,,,,2024-07-08,1,,,,,ケイエス,0
516,2140001135077,新規,0,2024-07-08,2024-07-08,株式会社ＲＭ,,株式会社,兵庫県,神戸市中央区,磯辺通１丁目１番１８号カサベラ国際プラザビル７０７号室,,28,110,6510084,,,,,,,2024-07-08,1,,,,,アールエム,0
525,2140003020764,新規,0,2024-07-08,2024-07-08,合同会社明石民商会館,,合同会社,兵庫県,明石市,小久保１丁目１６番１７号,,28,203,6730005,,,,,,,2024-07-08,1,,,,,アカシミンショウカイカン,0
526,2140003020789,新規,0,2024-07-08,2024-07-08,合同会社ＪＤＩ４５,,合同会社,兵庫県,宝塚市,山本西１丁目５番３号,,28,214,6650884,,,,,,,2024-07-08,1,,,,,ジェーディーアイフォーティファイブ,0
529,2150003003306,新規,0,2024-07-08,2024-07-08,合同会社セントラルサポート,,合同会社,奈良県,北葛城郡王寺町,畠田３丁目６－２４,,29,425,6360021,,,,,,,2024-07-08,1,,,,,,0
535,2180001162266,新規,0,2024-07-08,2024-07-08,株式会社ＢｌｏｏｍＢａｓｅ,,株式会社,愛知県,東海市,名和町東中嶺１１－４２,,23,222,4760002,,,,,,,2024-07-08,1,,,,,ブルームベース,0
536,2180001162299,新規,0,2024-07-08,2024-07-08,株式会社ギガスター,,株式会社,愛知県,知多郡武豊町,字西門２９番地１,,23,447,4702345,,,,,,,2024-07-08,1,,,,,ギガスター,0
539,2180003027046,新規,0,2024-07-08,2024-07-08,ＧＰＴ　ＧＬＯＢＡＬ合同会社,,合同会社,愛知県,春日井市,鳥居松町５丁目３３番地ティアモンド春日井６階,,23,206,4860844,,,,,,,2024-07-08,1,,,,,ジーピーティーグローバル,0
540,2180005020692,新規,0,2024-07-08,2024-07-08,一般社団法人あすへの扉,,その他の設立登記法人,愛知県,名古屋市中村区,日ノ宮町３丁目２５番地,,23,105,4530823,,,,,,,2024-07-08,1,,,,,アスヘノトビラ,0
548,2200001042671,新規,0,2024-07-08,2024-07-08,株式会社ＳＰＥＡＫ　ＵＰ,,株式会社,岐阜県,羽島郡岐南町,みやまち４丁目６３番地,,21,302,5016019,,,,,,,2024-07-08,1,,,,,スピークアップ,0
556,2220003003785,新規,0,2024-07-08,2024-07-08,合同会社ｍａｒｕ,,合同会社,石川県,金沢市,駅西新町１丁目３２―１２,,17,201,9200027,,,,,,,2024-07-08,1,,,,,マル,0
560,2240001063482,新規,0,2024-07-08,2024-07-08,株式会社ＥＳカンパニー,,株式会社,広島県,広島市東区,若草町１１番１号,,34,102,7320053,,,,,,,2024-07-08,1,,,,,エーエスカンパニー,0
563,2240005015793,新規,0,2024-07-08,2024-07-08,一般社団法人蚕,,その他の設立登記法人,広島県,福山市,川口町５丁目１２番２０号,,34,207,7200822,,,,,,,2024-07-08,1,,,,,カイコ,0
566,2260001039241,新規,0,2024-07-08,2024-07-08,ＣＳＳ　Ｅｎｔｅｒｐｒｉｓｅ株式会社,,株式会社,岡山県,玉野市,田井３丁目２２番５０号,,33,204,7060001,,,,,,,2024-07-08,1,,,,,シーエスエスエンタープライズ,0
580,2310003004816,新規,0,2024-07-08,2024-07-08,あおい合同会社,,合同会社,長崎県,諫早市,白岩町２４番地５,,42,204,8540077,,,,,,,2024-07-08,1,,,,,アオイ,0
582,2330003010465,新規,0,2024-07-08,2024-07-08,合同会社充敬地所,,合同会社,熊本県,菊池郡菊陽町,光の森７丁目２６番地８,,43,404,8691108,,,,,,,2024-07-08,1,,,,,ジュウケイチショ,0
585,2340001026636,新規,0,2024-07-08,2024-07-08,株式会社萩原建築,,株式会社,鹿児島県,西之表市,西之表１４１２４番地１４１,,46,213,8913101,,,,,,,2024-07-08,1,,,,,ハギハラケンチク,0
589,2350001019052,新規,0,2024-07-08,2024-07-08,株式会社真悠建設,,株式会社,宮崎県,延岡市,古城町４丁目９３番地,,45,203,8820837,,,,,,,2024-07-08,1,,,,,シンユウケンセツ,0
590,2350001019060,新規,0,2024-07-08,2024-07-08,吉田林業株式会社,00135500,株式会社,宮崎県,西臼杵郡五ヶ瀬町,大字鞍岡４２２３番地１,,45,443,8821201,,,,,,,2024-07-08,1,,,,,ヨシダリンギョウ,0
591,2350003004696,新規,0,2024-07-08,2024-07-08,合同会社Ｆｉｒｓｔ　Ｃａｒｅ,,合同会社,宮崎県,宮崎市,清武町加納甲１２６８番地２,,45,201,8891605,,,,,,,2024-07-08,1,,,,,ファーストケア,0
596,2370001051482,新規,0,2024-07-08,2024-07-08,株式会社浅野ファーム,,株式会社,宮城県,栗原市,栗駒栗原二枚橋７６番地１,,04,213,9895321,,,,,,,2024-07-08,1,,,,,アサノファーム,0
601,2380001034651,新規,0,2024-07-08,2024-07-08,株式会社福島インカネイト,,株式会社,福島県,双葉郡楢葉町,大字北田字上ノ原２７番地９５,,07,542,9790604,,,,,,,2024-07-08,1,,,,,フクシマインカネイト,0
618,2700150014512,新規,0,2024-07-08,2015-10-09,大和市職員互助会,,その他,神奈川県,大和市,下鶴間１丁目１－１,,14,213,2420001,,,,,,,2015-10-09,1,,,,,ヤマトシシヨクインゴジヨカイ,0
634,3010001246142,新規,0,2024-07-08,2024-07-08,株式会社ＶＶＪ　ＧＰ,,株式会社,東京都,千代田区,永田町２丁目１７番１７号,,13,101,1000014,,,,,,,2024-07-08,1,,,,,ヴイヴイジェージーピー,0
635,3010001246241,新規,0,2024-07-08,2024-07-08,リステージロジスティクス株式会社,,株式会社,東京都,中央区,日本橋浜町２丁目６番１号,,13,102,1030007,,,,,,,2024-07-08,1,,,,,リステージロジスティクス,0
636,3010001246266,新規,0,2024-07-08,2024-07-08,株式会社鷹,,株式会社,東京都,千代田区,内神田２丁目９番９号,,13,101,1010047,,,,,,,2024-07-08,1,,,,,タカ,0
637,3010001246299,新規,0,2024-07-08,2024-07-08,株式会社ツナググループ・コンサルティング,,株式会社,東京都,中央区,銀座７丁目３番５号,,13,102,1040061,,,,,,,2024-07-08,1,,,,,ツナググループコンサルティング,0
638,3010001246308,新規,0,2024-07-08,2024-07-08,株式会社ＬＵＸ,,株式会社,東京都,文京区,小石川３丁目２４番３－５２６号,,13,105,1120002,,,,,,,2024-07-08,1,,,,,ルクス,0
639,3010001246324,新規,0,2024-07-08,2024-07-08,株式会社ＰＬＯＰ　ＷＯＲＫＳ,,株式会社,東京都,中央区,銀座１丁目１２番４号Ｎ＆ＥＢＬＤ．６Ｆ,,13,102,1040061,,,,,,,2024-07-08,1,,,,,プロップワークス,0
644,3010003044247,新規,0,2024-07-08,2024-07-08,Ｍ２Ｄマネージメント合同会社,,合同会社,東京都,中央区,銀座１丁目２２番１１号銀座大竹ビジデンス２Ｆ,,13,102,1040061,,,,,,,2024-07-08,1,,,,,エムツーディーマネージメント,0
645,3010003044271,新規,0,2024-07-08,2024-07-08,アイオライトツー合同会社,,合同会社,東京都,中央区,日本橋１丁目４番１号日本橋一丁目ビルディング,,13,102,1030027,,,,,,,2024-07-08,1,,,,,アイオライトツー,0
655,3010403032958,新規,0,2024-07-08,2024-07-08,合同会社鮨龍次郎,,合同会社,東京都,港区,南青山４丁目２１番３号ブラウベルグ表参道３０３,,13,103,1070062,,,,,,,2024-07-08,1,,,,,スシリュウジロウ,0
658,3010601065470,新規,0,2024-07-08,2024-07-08,アルスタクリエイト株式会社,,株式会社,東京都,墨田区,京島１丁目２１番１０号,,13,107,1310046,,,,,,,2024-07-08,1,,,,,アルスタクリエイト,0
659,3010601065512,新規,0,2024-07-08,2024-07-08,株式会社東京女子ＩＴくらぶ,,株式会社,東京都,江東区,平野４丁目５番１１号,,13,108,1350023,,,,,,,2024-07-08,1,,,,,トウキョウジョシアイティークラブ,0
660,3010603010945,新規,0,2024-07-08,2024-07-08,ＢＡＣＫ　ＤＲＯＰ合同会社,,合同会社,東京都,江東区,白河４丁目９－１４－４０６,,13,108,1350021,,,,,,,2024-07-08,1,,,,,バックドロップ,0
668,3010803005010,新規,0,2024-07-08,2024-07-08,ＭＡＬＩＫＡ　ＧＳ　ＩＮＴＥＲＮＡＴＩＯＮＡＬ合同会社,,合同会社,東京都,大田区,西蒲田４丁目２７－６,,13,111,1440051,,,,,,,2024-07-08,1,,,,,マリカジーエスインターナショナル,0
679,3011001163170,新規,0,2024-07-08,2024-07-08,株式会社ＳＡＫＡＧＵＣＨＩ,,株式会社,東京都,渋谷区,広尾１丁目１番３９号,,13,113,1500012,,,,,,,2024-07-08,1,,,,,サカグチ,0
684,3011101107936,新規,0,2024-07-08,2024-07-08,Ｂｌｕｅ　Ｗｏｒｋｓ　Ｍ＆Ａ株式会社,,株式会社,東京都,新宿区,神楽坂２丁目１７番地中央ビル７階,,13,104,1620825,,,,,,,2024-07-08,1,,,,,ブルーワークスエムアンドエー,0
685,3011101107985,新規,0,2024-07-08,2024-07-08,ＰＡＸ不動産株式会社,,株式会社,東京都,新宿区,百人町１丁目１８－８大久保カドビル４０３号,,13,104,1690073,,,,,,,2024-07-08,1,,,,,パクスフドウサン,0
686,3011103014643,新規,0,2024-07-08,2024-07-08,合同会社ＢＡＧＧ,,合同会社,東京都,新宿区,北新宿２丁目２番５－２０５号,,13,104,1690074,,,,,,,2024-07-08,1,,,,,バグ,0
693,3011601027881,新規,0,2024-07-08,2024-07-08,株式会社ａｌｆｏｏｄ,,株式会社,東京都,練馬区,桜台１丁目８番４号丸菱ビルＢ１,,13,120,1760002,,,,,,,2024-07-08,1,,,,,アルフード,0
699,3011803006320,新規,0,2024-07-08,2024-07-08,合同会社ブルーネクサス,,合同会社,東京都,足立区,新田３丁目３６番２－９０４号,,13,121,1230865,,,,,,,2024-07-08,1,,,,,ブルーネクサス,0
700,3012401042063,新規,0,2024-07-08,2024-07-08,株式会社ＶＥＲＴＥＸ,,株式会社,東京都,調布市,菊野台２丁目５７番地１９,,13,208,1820007,,,,,,,2024-07-08,1,,,,,ヴァーテクス,0
702,3013301052771,新規,0,2024-07-08,2024-07-08,６４３エステート株式会社,,株式会社,東京都,豊島区,千早１丁目２９番６号,,13,116,1710044,,,,,,,2024-07-08,1,,,,,ロクヨンサンエステート,0
703,3013303007204,新規,0,2024-07-08,2024-07-08,合同会社川口綜合事務所,,合同会社,東京都,豊島区,南池袋２丁目４５－２－２１１０,,13,116,1710022,,,,,,,2024-07-08,1,,,,,カワグチソウゴウジムショ,0
713,3020001157990,新規,0,2024-07-08,2024-07-08,Ｅｒｅｂｏｓ　Ｃｙｂｅｒｎｅｔｉｃｓ株式会社,,株式会社,神奈川県,横浜市中区,尾上町３丁目３５番地ＬＩＳＴ・ＥＡＳＴ・ＢＬＤ．３階Ｇ・Ｉｎｎｏｖａｔｉｏｎ・Ｈｕｂ・Ｙｏｋｏｈａｍａ２０５号室,,14,104,2310015,,,,,,,2024-07-08,1,,,,,エレボスサイバネティクス,0
714,3020001158023,新規,0,2024-07-08,2024-07-08,株式会社虹幸建設,,株式会社,神奈川県,川崎市川崎区,宮本町８番地２５リエス川崎９０５,,14,131,2100004,,,,,,,2024-07-08,1,,,,,ニコウケンセツ,0
717,3021001082667,新規,0,2024-07-08,2024-07-08,國ロジ管理株式会社,,株式会社,神奈川県,相模原市緑区,橋本３丁目４番２４号,,14,151,2520143,,,,,,,2024-07-08,1,,,,,クニロジカンリ,0
718,3021001082683,新規,0,2024-07-08,2024-07-08,リアルエステート野崎株式会社,,株式会社,神奈川県,相模原市南区,東林間４丁目９番５号,,14,153,2520311,,,,,,,2024-07-08,1,,,,,リアルエステートノザキ,0
719,3021003014734,新規,0,2024-07-08,2024-07-08,湘南ＬＩＦＥ合同会社,,合同会社,神奈川県,藤沢市,辻堂３丁目１８番６８号,00135504,14,205,2510047,,,,,,,2024-07-08,1,,,,,ショウナンライフ,0
721,3030001161232,新規,0,2024-07-08,2024-07-08,株式会社こみっく,,株式会社,埼玉県,さいたま市浦和区,高砂２丁目８－１６浦和ガーデンビル３Ｆ,,11,107,3300063,,,,,,,2024-07-08,1,,,,,コミック,0
722,3030001161307,新規,0,2024-07-08,2024-07-08,ＳｕｎｎｙＳｉｄｅ　Ｂｒｉｄｇｅ株式会社,,株式会社,埼玉県,越谷市,川柳町５丁目２３１番地５,,11,222,3430827,,,,,,,2024-07-08,1,,,,,サニーサイドブリッジ,0
723,3030001161323,新規,0,2024-07-08,2024-07-08,株式会社Ｙ＆Ｓ資産管理,,株式会社,埼玉県,三郷市,鷹野５丁目１３２番地１,,11,237,3410035,,,,,,,2024-07-08,1,,,,,ワイアンドエスシサンカンリ,0
730,3030003024635,新規,0,2024-07-08,2024-07-08,合同会社クーマン,,合同会社,埼玉県,ふじみ野市,亀久保１２５７番地５０,,11,245,3560051,,,,,,,2024-07-08,1,,,,,クーマン,0
731,3030003024643,新規,0,2024-07-08,2024-07-08,ｋｏｊｏ合同会社,,合同会社,埼玉県,本庄市,児玉町児玉２１３６番地３０,,11,211,3670212,,,,,,,2024-07-08,1,,,,,コジョウ,0
732,3030003024676,新規,0,2024-07-08,2024-07-08,合同会社鈴建,,合同会社,埼玉県,所沢市,大字中富１５８４番地の１,,11,208,3590002,,,,,,,2024-07-08,1,,,,,スズケン,0
737,3040001134402,新規,0,2024-07-08,2024-07-08,株式会社ＳＴ‐ＮＥＸＴ,,株式会社,千葉県,船橋市,松が丘５丁目２８番２号,,12,204,2740064,,,,,,,2024-07-08,1,,,,,エスティーネクスト,0
738,3040001134427,新規,0,2024-07-08,2024-07-08,株式会社安本工業,,株式会社,千葉県,市原市,辰巳台東１丁目１１番地３,,12,219,2900003,,,,,,,2024-07-08,1,,,,,ヤスモトコウギョウ,0
739,3040001134443,新規,0,2024-07-08,2024-07-08,株式会社ＮＴＮＢ,,株式会社,千葉県,我孫子市,東我孫子２丁目７番５号,,12,222,2701144,,,,,,,2024-07-08,1,,,,,エヌティーエヌビー,0
743,3040003025302,新規,0,2024-07-08,2024-07-08,合同会社ＷＡＭＵＭＵ,,合同会社,千葉県,流山市,おおたかの森北２丁目４５―１グラン・パミドール２０６,,12,220,2700119,,,,,,,2024-07-08,1,,,,,ワムム,0
744,3040003025343,新規,0,2024-07-08,2024-07-08,合同会社柱,,合同会社,千葉県,茂原市,緑ケ丘５丁目３４番地（光栄緑ケ丘ハイツ２０７）,,12,210,2970065,,,,,,,2024-07-08,1,,,,,ハシラ,0
746,3050001055044,新規,0,2024-07-08,2024-07-08,株式会社干しいものいいじま,,株式会社,茨城県,鉾田市,上幡木１５２１番地,,08,234,3112113,,,,,,,2024-07-08,1,,,,,ホシイモノイイジマ,0
747,3050001055060,新規,0,2024-07-08,2024-07-08,株式会社ＭＩＲＩＺＥフィットネス,,株式会社,茨城県,古河市,東本町１丁目１３番１１－１５０３号,,08,204,3060013,,,,,,,2024-07-08,1,,,,,ミライズフィットネス,0
748,3050003008512,新規,0,2024-07-08,2024-07-08,スマイルラボ合同会社,,合同会社,茨城県,水戸市,見和２丁目４８７番地の４,,08,201,3100911,,,,,,,2024-07-08,1,,,,,スマイルラボ,0
753,3060001037280,新規,0,2024-07-08,2024-07-08,株式会社ＭＡＫＥ　ＩＴ,,株式会社,栃木県,栃木市,大平町土与２２３番地２,,09,203,3294402,,,,,,,2024-07-08,1,,,,,メイクイット,0
754,3060003005145,新規,0,2024-07-08,2024-07-08,合同会社手塚電気工事,,合同会社,栃木県,大田原市,中田原１９５９番地７,,09,210,3240062,,,,,,,2024-07-08,1,,,,,テヅカデンキコウジ,0
761,3080101024854,新規,0,2024-07-08,2024-07-08,株式会社稲葉工業所,,株式会社,静岡県,賀茂郡河津町,下佐ケ野６１番地の５,,22,302,4130506,,,,,,,2024-07-08,1,,,,,イナバコウギョウショ,0
766,3090001018798,新規,0,2024-07-08,2024-07-08,株式会社紬生,,株式会社,山梨県,甲斐市,西八幡３３０１番地７,,19,210,4000117,,,,,,,2024-07-08,1,,,,,ツムギ,0
769,3090005007640,新規,0,2024-07-08,2024-07-08,一般社団法人日本国土・環境保全協会,,その他の設立登記法人,山梨県,甲府市,北口１丁目６－２４,,19,201,4000024,,,,,,,2024-07-08,1,,,,,ニホンコクドカンキョウホゼンキョウカイ,0
778,3110003005445,新規,0,2024-07-08,2024-07-08,合同会社アルカンジュ,,合同会社,新潟県,新潟市中央区,東堀通８番町１４１６番地ライオンタワービル６Ｆ,,15,103,9518065,,,,,,,2024-07-08,1,,,,,アルカンジュ,0
786,3120001266427,新規,0,2024-07-08,2024-07-08,株式会社セカンドカンパニー,,株式会社,大阪府,大阪市中央区,東高麗橋２番３８号イハラビル２Ｆ,,27,128,5400039,,,,,,,2024-07-08,1,,,,,セカンドカンパニー,0
787,3120001266484,新規,0,2024-07-08,2024-07-08,株式会社キノケン,,株式会社,大阪府,大阪市旭区,赤川２丁目２番４－６０２号,,27,117,5350005,,,,,,,2024-07-08,1,,,,,キノケン,0
792,3120103005930,新規,0,2024-07-08,2024-07-08,合同会社ＧＡＬＬＡＮＴ,,合同会社,大阪府,泉大津市,二田町２丁目３番２０号,,27,206,5950015,,,,,,,2024-07-08,1,,,,,ギャラント,0
796,3120901049419,新規,0,2024-07-08,2024-07-08,株式会社ｔｂｃｓｔｙｌｅ,,株式会社,大阪府,豊能郡能勢町,栗栖２７７,,27,322,5630351,,,,,,,2024-07-08,1,,,,,ティービィーシィースタイル,0
797,3120901049435,新規,0,2024-07-08,2024-07-08,株式会社ｃｈｉｔａ,,株式会社,大阪府,茨木市,西中条町１４番２６－１０５号,,27,211,5670887,,,,,,,2024-07-08,1,,,,,チタ,0
799,3120903005254,新規,0,2024-07-08,2024-07-08,合同会社ｆａｓｔ　ｔｒａｄｉｎｇ,,合同会社,大阪府,茨木市,宿久庄３丁目１－１デイジーハイツ１Ｆ１０１,,27,211,5670051,,,,,,,2024-07-08,1,,,,,ファストトレーディング,0
811,3140001135043,新規,0,2024-07-08,2024-07-08,株式会社ティーズノット,,株式会社,兵庫県,西宮市,津門川町５番２８号,,28,204,6638233,,,,,,,2024-07-08,1,,,,,ティーズノット,0
817,3140003020788,新規,0,2024-07-08,2024-07-08,合同会社Ｈ‐ＹＯＵ,,合同会社,兵庫県,神戸市北区,東大池２丁目２４－１１,,28,109,6511333,,,,,,,2024-07-08,1,,,,,エイチーユー,0
818,3140003020796,新規,0,2024-07-08,2024-07-08,合同会社Ｔｏｐ　Ｗａｌｌ,,合同会社,兵庫県,尼崎市,戸ノ内町６丁目１４－６,,28,202,6610961,,,,,,,2024-07-08,1,,,,,トップウォール,0
822,3140005027138,新規,0,2024-07-08,2024-07-08,税理士法人ＳＴＲ,,その他の設立登記法人,兵庫県,神戸市中央区,明石町３２番地明海ビル５０１号,,28,110,6500037,,,,,,,2024-07-08,1,,,,,エスティーアール,0
824,3150001027413,新規,0,2024-07-08,2024-07-08,株式会社ハピルフ,,株式会社,奈良県,桜井市,大字豊前２６５番地１,,29,206,6330078,,,,,,,2024-07-08,1,,,,,ハピルフ,0
835,3180001162298,新規,0,2024-07-08,2024-07-08,株式会社Ｊ＆Ｍプランニング,,株式会社,愛知県,名古屋市中区,千代田２丁目７番２６号日動千代田ビル１０２,,23,106,4600012,,,,,,,2024-07-08,1,,,,,ジェイアンドエムプランニング,0
837,3180003026996,新規,0,2024-07-08,2024-07-08,合同会社らくサポ,,合同会社,愛知県,一宮市,千秋町加納馬場字松下１－１８,,23,203,4910811,,,,,,,2024-07-08,1,,,,,ラクサポ,0
838,3180003027053,新規,0,2024-07-08,2024-07-08,合同会社Ｏｔａｉｅｎ,,合同会社,愛知県,清須市,西枇杷島町下新１２ガーデンハウス小田井Ａ,,23,233,4520023,,,,,,,2024-07-08,1,,,,,オタイエン,0
840,3180005020691,新規,0,2024-07-08,2024-07-08,一般社団法人ジャパンアーボリカルチャーソサエティ,,その他の設立登記法人,愛知県,名古屋市守山区,大字上志段味字寺山１２００番地,,23,113,4630001,,,,,,,2024-07-08,1,,,,,ジャパンアーボリカルチャーソサエティ,0
851,3220001026085,新規,0,2024-07-08,2024-07-08,株式会社ａｄｄ,,株式会社,石川県,加賀市,大聖寺南町チ８１‐１３,,17,206,9220811,,,,,,,2024-07-08,1,,,,,アド,0
881,3290801030684,新規,0,2024-07-08,2024-07-08,株式会社ＨＡＧＡＮＥ,,株式会社,福岡県,北九州市小倉北区,浅野２丁目１４番５号あるあるシティ１Ｆ,,40,106,8020001,,,,,,,2024-07-08,1,,,,,ハガネ,0
882,3290805009758,新規,0,2024-07-08,2024-07-08,特定非営利活動法人子どもウェルビーイング研究会,,その他の設立登記法人,福岡県,北九州市小倉北区,片野５丁目９番１号,,40,106,8020064,,,,,,,2024-07-08,1,,,,,コドモウェルビーイングケンキュウカイ,0
891,3350001019068,新規,0,2024-07-08,2024-07-08,株式会社エスコム宮崎,,株式会社,宮崎県,延岡市,緑ケ丘４丁目２番２７号,,45,203,8820863,,,,,,,2024-07-08,1,,,,,エスコムミヤザキ,0
896,3360001033919,新規,0,2024-07-08,2024-07-08,斗南トレード株式会社,,株式会社,沖縄県,うるま市,字赤道１７６番地３,,47,213,9042245,,,,,,,2024-07-08,1,,,,,トナントレード,0
899,3370001051481,新規,0,2024-07-08,2024-07-08,株式会社ｈａｍｗｋｓ,,株式会社,宮城県,仙台市青葉区,本町１丁目５番２８号カーニープレイス仙台駅前通６０３号室,,04,101,9800014,,,,,,,2024-07-08,1,,,,,ハムワークス,0
900,3370003006665,新規,0,2024-07-08,2024-07-08,ＨＶＦＯＯＤ‐ＳＥＮＤＡＩ合同会社,,合同会社,宮城県,仙台市青葉区,花京院１丁目５－２１－Ｂ１,,04,101,9800013,,,,,,,2024-07-08,1,,,,,エイチブイフードセンダイ,0
902,3400003003295,新規,0,2024-07-08,2024-07-08,合同会社福虎,,合同会社,岩手県,花巻市,若葉町１丁目１２番２４号シティハウスロゼリーヌ１０１号,,03,205,0250097,,,,,,,2024-07-08,1,,,,,フクトラ,0
911,3470001020278,新規,0,2024-07-08,2024-07-08,ＶＢ株式会社,,株式会社,香川県,高松市,香川町大野１９５９番地７,,37,201,7611701,,,,,,,2024-07-08,1,,,,,ヴィブ,0
932,4010001246265,新規,0,2024-07-08,2024-07-08,株式会社ソラド,,株式会社,東京都,中央区,新川１丁目２２番１２号,,13,102,1040033,,,,,,,2024-07-08,1,,,,,ソラド,0
933,4010001246348,新規,0,2024-07-08,2024-07-08,エンジェル株式会社,,株式会社,東京都,文京区,白山１丁目６番４号,,13,105,1130001,,,,,,,2024-07-08,1,,,,,エンジェル,0
934,4010001246364,新規,0,2024-07-08,2024-07-08,株式会社リチェルカーレ東京,,株式会社,東京都,中央区,銀座７丁目１７番１８号,,13,102,1040061,,,,,,,2024-07-08,1,,,,,リチェルカーレトウキョウ,0
935,4010001246397,新規,0,2024-07-08,2024-07-08,株式会社ヒューマンパワーテクノロジー,,株式会社,東京都,千代田区,神田須田町２丁目２３野村第一ビル９０１号,,13,101,1010041,,,,,,,2024-07-08,1,,,,,,0
936,4010003043594,新規,0,2024-07-08,2024-07-08,Ｎｅｘｔ　Ｓｔａｇｅ合同会社,,合同会社,東京都,中央区,銀座４丁目１４―１５サントル銀座四丁目５０２号室,,13,102,1040061,,,,,,,2024-07-08,1,,,,,ネクストステージ,0
937,4010003044246,新規,0,2024-07-08,2024-07-08,資産管理合同会社,,合同会社,東京都,中央区,勝どき４丁目６番２－９１４号,,13,102,1040054,,,,,,,2024-07-08,1,,,,,シサンカンリ,0
954,4010403032949,新規,0,2024-07-08,2024-07-08,ＯＬＤＭＯＯＮ　ＳＴＵＤＩＯ　ＪＡＰＡＮ合同会社,,合同会社,東京都,港区,北青山２丁目１０番２２号ＪＰ－１ビル３階,,13,103,1070061,,,,,,,2024-07-08,1,,,,,オールドムーンスタジオジャパン,0
957,4010601065511,新規,0,2024-07-08,2024-07-08,株式会社徳天下,,株式会社,東京都,墨田区,横川３丁目６番７号３－Ｄ室,,13,107,1300003,,,,,,,2024-07-08,1,,,,,トクテンカ,0
958,4010603010944,新規,0,2024-07-08,2024-07-08,合同会社ＮＯ　ＶＡＣＡＮＳＹ,,合同会社,東京都,墨田区,東駒形１丁目１８－３ＮｏｍａｄＨｏｓｔｅｌＥａｓｔ,,13,107,1300005,,,,,,,2024-07-08,1,,,,,ノーヴェーカンシー,0
959,4010701046238,新規,0,2024-07-08,2024-07-08,株式会社ｔｒｅｃｅ,,株式会社,東京都,品川区,中延２丁目７番７号大文字ビル３０１,,13,109,1420053,,,,,,,2024-07-08,1,,,,,トレセ,0
974,4011001163211,新規,0,2024-07-08,2024-07-08,株式会社Ｄｏ,,株式会社,東京都,渋谷区,神宮前６丁目２３番４号桑野ビル２階,,13,113,1500001,,,,,,,2024-07-08,1,,,,,ドゥー,0
975,4011005010574,新規,0,2024-07-08,2024-07-08,一般社団法人フィジカルインターネット学会,,その他の設立登記法人,東京都,渋谷区,代々木５丁目２６番１３号,,13,113,1510053,,,,,,,2024-07-08,1,,,,,,0
976,4011101008670,新規,0,2024-07-08,2024-07-08,ジェネラルマネジメント株式会社,,株式会社,東京都,新宿区,西新宿６丁目１５番１２号,,13,104,1600023,,,,,,,2024-07-08,1,,,,,ジェネラルマネジメント,0
980,4011101107836,新規,0,2024-07-08,2024-07-08,株式会社ＲＵ‐ＮＡ,,株式会社,東京都,新宿区,大久保１丁目１５－１７サンハイム大久保１０７号,,13,104,1690072,,,,,,,2024-07-08,1,,,,,ルーナ,0
981,4011101107976,新規,0,2024-07-08,2024-07-08,株式会社テキーラブラザーズ,,株式会社,東京都,新宿区,西新宿３丁目３番１３号西新宿水間ビル２Ｆ,,13,104,1600023,,,,,,,2024-07-08,1,,,,,テキーラブラザーズ,0
983,4011103014634,新規,0,2024-07-08,2024-07-08,デアベルス・インベストメント合同会社,,合同会社,東京都,新宿区,西新宿３丁目３番１３号西新宿水間ビル２階,,13,104,1600023,,,,,,,2024-07-08,1,,,,,デアベルスインベストメント,0
984,4011103014659,新規,0,2024-07-08,2024-07-08,ＲＩＲＯ合同会社,,合同会社,東京都,新宿区,西新宿８丁目１９番１号アネックス小林３２２,,13,104,1600023,,,,,,,2024-07-08,1,,,,,リロ,0
996,4011801044503,新規,0,2024-07-08,2024-07-08,株式会社グリーニー,,株式会社,東京都,葛飾区,細田４丁目３０番１６号,,13,122,1240021,,,,,,,2024-07-08,1,,,,,グリーニー,0
1009,4020001158014,新規,0,2024-07-08,2024-07-08,株式会社サプライム,,株式会社,神奈川県,横浜市港北区,新横浜２丁目１２番地１２,,14,109,2220033,,,,,,,2024-07-08,1,,,,,サプライム,0
1013,4021001082666,新規,0,2024-07-08,2024-07-08,株式会社國物流,,株式会社,神奈川県,相模原市緑区,橋本３丁目４番２４号,,14,151,2520143,,,,,,,2024-07-08,1,,,,,クニブツリュウ,0
1014,4021003014741,新規,0,2024-07-08,2024-07-08,ＯＹＡＳＯＫＵ合同会社,,合同会社,神奈川県,逗子市,桜山９丁目３－５５－２０１,,14,208,2490005,,,,,,,2024-07-08,1,,,,,オヤソク,0
1021,4030001161215,新規,0,2024-07-08,2024-07-08,株式会社ジャスタコンサルティング,,株式会社,埼玉県,春日部市,南１丁目１番７号,,11,214,3440064,,,,,,,2024-07-08,1,,,,,ジャスタコンサルティング,0
1022,4030001161248,新規,0,2024-07-08,2024-07-08,亀屋日本伝統株式会社,,株式会社,埼玉県,さいたま市浦和区,大門一丁目１６番５号,,11,107,3300000,,,,,,,2024-07-08,1,,,,,カメヤニホンデントウ,0
1023,4030001161306,新規,0,2024-07-08,2024-07-08,株式会社ｄｉｓｐｅｎｓｉｎｇ,,株式会社,埼玉県,秩父市,永田町１１番１６号,,11,207,3680013,,,,,,,2024-07-08,1,,,,,ディスペンシング,0
1027,4030003024659,新規,0,2024-07-08,2024-07-08,合同会社ＫＡＯＲＩＮ,,合同会社,埼玉県,富士見市,針ケ谷２丁目１１番地９－４０５,,11,235,3540017,,,,,,,2024-07-08,1,,,,,カオリン,0
1033,4040001134392,新規,0,2024-07-08,2024-07-08,株式会社メディレクション,,株式会社,千葉県,長生郡一宮町,一宮８８２レインボーハウス１０２,,12,421,2994301,,,,,,,2024-07-08,1,,,,,メディレクション,0
1034,4040001134426,新規,0,2024-07-08,2024-07-08,株式会社キープ・オン・ムーブ,,株式会社,千葉県,船橋市,西船６丁目６番４１－４１２号,,12,204,2730031,,,,,,,2024-07-08,1,,,,,キープオンムーブ,0
1035,4040001134434,新規,0,2024-07-08,2024-07-08,株式会社福々,,株式会社,千葉県,木更津市,東太田４丁目７番５号,,12,206,2920043,,,,,,,2024-07-08,1,,,,,フクフク,0
1036,4040001134442,新規,0,2024-07-08,2024-07-08,株式会社ＫＤフォレスト,,株式会社,千葉県,東金市,松之郷３８６０－４,,12,213,2830805,,,,,,,2024-07-08,1,,,,,ケーディーフォレスト,0
1039,4040003025359,新規,0,2024-07-08,2024-07-08,ハルスピカ合同会社,,合同会社,千葉県,松戸市,本町１７番地の１１芹澤ビル６Ｆ,,12,207,2710091,,,,,,,2024-07-08,1,,,,,ハルスピカ,0
1040,4040003025367,新規,0,2024-07-08,2024-07-08,合同会社Ｏｍｏｒｆａ,,合同会社,千葉県,木更津市,請西東５丁目８番地１ボーテヴィラージュ４番館１０２号,,12,206,2920806,,,,,,,2024-07-08,1,,,,,オーモルファ,0
1047,4050001055035,新規,0,2024-07-08,2024-07-08,株式会社ティースティ,,株式会社,茨城県,那珂市,堤２１１番地,,08,226,3110104,,,,,,,2024-07-08,1,,,,,ティースティ,0
1048,4050001055043,新規,0,2024-07-08,2024-07-08,株式会社あさみや,,株式会社,茨城県,稲敷郡阿見町,大字阿見５３１７番地３,,08,443,3000331,,,,,,,2024-07-08,1,,,,,アサミヤ,0
1050,4050003008511,新規,0,2024-07-08,2024-07-08,合同会社双葉居宅介護支援事業所,,合同会社,茨城県,東茨城郡茨城町,大字大戸２４０７番地１,,08,302,3113114,,,,,,,2024-07-08,1,,,,,フタバキョタクカイゴシエンジギョウショ,0
1055,4060001037255,新規,0,2024-07-08,2024-07-08,株式会社ＴＫＧＣ,,株式会社,栃木県,大田原市,薄葉２１５７番地１,,09,210,3240035,,,,,,,2024-07-08,1,,,,,ティーケージーシー,0
1056,4060003005144,新規,0,2024-07-08,2024-07-08,合同会社ＭＡ企画,,合同会社,栃木県,宇都宮市,みどり野町１２番３号,,09,201,3210136,,,,,,,2024-07-08,1,,,,,エムエーキカク,0
1063,4080401027300,新規,0,2024-07-08,2024-07-08,株式会社テクトリフォーム,,株式会社,静岡県,磐田市,川袋７２３番地,,22,211,4380232,,,,,,,2024-07-08,1,,,,,テクトリフォーム,0
1069,4110001038529,新規,0,2024-07-08,2024-07-08,株式会社Ｃｏｎｎｅｃｔ,,株式会社,新潟県,新潟市東区,東明２丁目５番１号アイビスビル２－Ｃ,,15,102,9500853,,,,,,,2024-07-08,1,,,,,コネクト,0
1070,4110001038545,新規,0,2024-07-08,2024-07-08,株式会社塚田工業,,株式会社,新潟県,上越市,大豆２丁目６番５号メゾンサントノーレ１０１号,,15,222,9430802,,,,,,,2024-07-08,1,,,,,ツカダコウギョウ,0
1085,4120001266500,新規,0,2024-07-08,2024-07-08,株式会社ＫＡＣＯＬＡ,,株式会社,大阪府,大阪市中央区,島之内１丁目２２番２２号,,27,128,5420082,,,,,,,2024-07-08,1,,,,,カコラ,0
1089,4120101069877,新規,0,2024-07-08,2024-07-08,株式会社ｍｙｓｉｇ建築工房,,株式会社,大阪府,岸和田市,西大路町８－１,,27,202,5960802,,,,,,,2024-07-08,1,,,,,ミューシングケンチクコウボウ,0
1090,4120101069935,新規,0,2024-07-08,2024-07-08,ワイズプラン株式会社,,株式会社,大阪府,和泉市,小田町２丁目７番２８号,,27,219,5940074,,,,,,,2024-07-08,1,,,,,ワイズプラン,0
1098,4122003002932,新規,0,2024-07-08,2024-07-08,さらばｈａｒｍ合同会社,,合同会社,大阪府,東大阪市,小若江３丁目６番９号近畿大学ＫＩＮＣＵＢＡＢａｓｅｃａｍｐ,,27,227,5770818,,,,,,,2024-07-08,1,,,,,サラバハーム,0
1103,4130003009682,新規,0,2024-07-08,2024-07-08,ＧＭ合同会社,,合同会社,京都府,宇治市,小倉町南堀池１０３－１３,,26,204,6110042,,,,,,,2024-07-08,1,,,,,ジーエム,0
1111,4140001134969,新規,0,2024-07-08,2024-07-08,株式会社セラヴィ,,株式会社,兵庫県,神戸市西区,押部谷町栄４３０,,28,111,6512211,,,,,,,2024-07-08,1,,,,,セラヴィ,0
1112,4140001135026,新規,0,2024-07-08,2024-07-08,リシンク株式会社,,株式会社,兵庫県,加古郡稲美町,蛸草１４５番地の１,00135495,28,381,6751116,,,,,,,2024-07-08,1,,,,,リシンク,0
1113,4140001135042,新規,0,2024-07-08,2024-07-08,株式会社勝栄組,,株式会社,兵庫県,神戸市東灘区,御影塚町２丁目１６番１８号２０３号室,,28,101,6580044,,,,,,,2024-07-08,1,,,,,ショウエイグミ,0
1114,4140001135050,新規,0,2024-07-08,2024-07-08,株式会社わた半,,株式会社,兵庫県,神戸市中央区,加納町４丁目９番１７号,,28,110,6500001,,,,,,,2024-07-08,1,,,,,ワタハン,0
1115,4140001135059,新規,0,2024-07-08,2024-07-08,株式会社フタバ,,株式会社,兵庫県,神戸市兵庫区,築地町３番１０号,,28,105,6520845,,,,,,,2024-07-08,1,,,,,フタバ,0
1117,4140003020779,新規,0,2024-07-08,2024-07-08,ＮＡＳＨＩＬＤ合同会社,,合同会社,兵庫県,姫路市,駅前町３０４番地中原ビル地下１Ｆ,,28,201,6700927,,,,,,,2024-07-08,1,,,,,ナシエルデイ,0
1118,4140003020787,新規,0,2024-07-08,2024-07-08,Ｍｕｓｕｂｉ合同会社,,合同会社,兵庫県,芦屋市,業平町８番２－３０５号,,28,206,6590068,,,,,,,2024-07-08,1,,,,,ムスビ,0
1121,4160003003220,新規,0,2024-07-08,2024-07-08,合同会社Ｓｗｉｔｃｈ,,合同会社,滋賀県,甲賀市,水口町水口６５４番地３９,,25,209,5280005,,,,,,,2024-07-08,1,,,,,スイッチ,0
1122,4160003003229,新規,0,2024-07-08,2024-07-08,ＶｉｅｔＮｈａｔ　Ｄｅｌｉ合同会社,,合同会社,滋賀県,彦根市,京町３丁目５－４３,,25,202,5220081,,,,,,,2024-07-08,1,,,,,ベトジャパンデリ,0
1132,4180001162231,新規,0,2024-07-08,2024-07-08,株式会社ライズリット,,株式会社,愛知県,名古屋市北区,楠５丁目５１３番地の１（ライオンズマンション楠４０１号）,,23,103,4620012,,,,,,,2024-07-08,1,,,,,ライズリット,0
1133,4180001162314,新規,0,2024-07-08,2024-07-08,株式会社イデアル,,株式会社,愛知県,一宮市,浅野字駒寄１１番地,,23,203,4910871,,,,,,,2024-07-08,1,,,,,イデアル,0
1136,4180003027044,新規,0,2024-07-08,2024-07-08,インベスター・ロック合同会社,,合同会社,愛知県,常滑市,新田町３丁目１１７クレール２１、２０１,,23,216,4790855,,,,,,,2024-07-08,1,,,,,インベスターロック,0
1142,4190001031476,新規,0,2024-07-08,2024-07-08,株式会社ＴＡＫＡＺＯＮＯ,,株式会社,三重県,亀山市,井尻町１０６１番地３,,24,210,5190131,,,,,,,2024-07-08,1,,,,,タカゾノ,0
1169,4250001020720,新規,0,2024-07-08,2024-07-08,株式会社創進,,株式会社,山口県,岩国市,麻里布町３丁目１３番９号,,35,208,7400018,,,,,,,2024-07-08,1,,,,,ソウシン,0
1187,4340005009759,新規,0,2024-07-08,2024-07-08,一般社団法人００７ＡＫＩＭＥ,,その他の設立登記法人,鹿児島県,南さつま市,坊津町秋目４００番地,,46,220,8980212,,,,,,,2024-07-08,1,,,,,ゼロゼロセブンアキメ,0
1188,4350001019067,新規,0,2024-07-08,2024-07-08,株式会社グッドシグナル,,株式会社,宮崎県,都城市,若葉町７３号６番地,,45,202,8850054,,,,,,,2024-07-08,1,,,,,グッドシグナル,0
1189,4350001019075,新規,0,2024-07-08,2024-07-08,株式会社タウンマネージャーのべおか,,株式会社,宮崎県,延岡市,山下町１丁目３番地１,,45,203,8820055,,,,,,,2024-07-08,1,,,,,タウンマネージャーノベオカ,0
1191,4360001033876,新規,0,2024-07-08,2024-07-08,株式会社ＳＡＫＩＧＡＫＥ　Ｇｒｏｕｐ,,株式会社,沖縄県,浦添市,屋富祖３丁目７－３伊礼ビル３０２,,47,208,9012127,,,,,,,2024-07-08,1,,,,,サキガケグループ,0
1192,4360001033918,新規,0,2024-07-08,2024-07-08,株式会社Ｒ’ｓ‐Ｌｏｇｉ,,株式会社,沖縄県,糸満市,潮崎町３丁目２０番地の８,,47,210,9010364,,,,,,,2024-07-08,1,,,,,アールズロジ,0
1195,4370003006664,新規,0,2024-07-08,2024-07-08,合同会社桜久楽食堂,,合同会社,宮城県,登米市,迫町佐沼字中江４丁目１４番地４,,04,212,9870511,,,,,,,2024-07-08,1,,,,,サクラショクドウ,0
1203,4380001034658,新規,0,2024-07-08,2024-07-08,株式会社ＪＯＬＩ,,株式会社,福島県,郡山市,富久山町久保田字田池４２番地の１,,07,203,9638071,,,,,,,2024-07-08,1,,,,,ジョリ,0
1217,4470001020285,新規,0,2024-07-08,2024-07-08,株式会社Ｔｏｙ　Ｂｏｘ,,株式会社,香川県,丸亀市,郡家町５９３番地１,,37,202,7630093,,,,,,,2024-07-08,1,,,,,トイボックス,0
1222,4500001025735,新規,0,2024-07-08,2024-07-08,株式会社鈴木,,株式会社,愛媛県,四国中央市,三島宮川２丁目１番６号,,38,213,7990404,,,,,,,2024-07-08,1,,,,,スズキ,0
1223,4500001025743,新規,0,2024-07-08,2024-07-08,株式会社えい吉,,株式会社,愛媛県,伊予市,米湊５５８番地１１,,38,210,7993113,,,,,,,2024-07-08,1,,,,,エイキチ,0
1227,4700150122957,新規,0,2024-07-08,2023-12-21,発酵バレーＮＡＧＡＮＯ,,その他,長野県,長野市,若里４丁目１７－１信州大学国際科学イノベーションセンター５０５号室,,20,201,3800928,,,,,,,2023-12-21,1,,,,,ハツコウバレーナガノ,0
1245,5010001246248,新規,0,2024-07-08,2024-07-08,ＦＵＪＩＳＫＹ株式会社,,株式会社,東京都,中央区,銀座３丁目４番１号大倉別館５階５２９室,,13,102,1040061,,,,,,,2024-07-08,1,,,,,フジスカイ,0
1246,5010001246256,新規,0,2024-07-08,2024-07-08,株式会社ＳＩＲＩＵＳ,,株式会社,東京都,中央区,日本橋兜町１番７号,,13,102,1030026,,,,,,,2024-07-08,1,,,,,シリウス,0
1247,5010001246264,新規,0,2024-07-08,2024-07-08,株式会社Ｂｌｕｅｗｉｓｅ,,株式会社,東京都,文京区,小石川４丁目１４番３１－４１９号,,13,105,1120002,,,,,,,2024-07-08,1,,,,,ブルーワイズ,0
1248,5010001246314,新規,0,2024-07-08,2024-07-08,株式会社コントロールオリエンタード,,株式会社,東京都,文京区,本郷１丁目１８－２第３朋和ビル４０１,,13,105,1130033,,,,,,,2024-07-08,1,,,,,コントロールオリエンタード,0
1249,5010001246330,新規,0,2024-07-08,2024-07-08,株式会社マトワークス,,株式会社,東京都,文京区,白山４丁目３３－２２上新ハイツ白山６０１,,13,105,1120001,,,,,,,2024-07-08,1,,,,,マトワークス,0
1255,5010003044204,新規,0,2024-07-08,2024-07-08,兆謙合同会社,,合同会社,東京都,千代田区,飯田橋２丁目１６番４号九段下コート２０１,,13,101,1020072,,,,,,,2024-07-08,1,,,,,チョウケン,0
1256,5010003044229,新規,0,2024-07-08,2024-07-08,アルスアシスト合同会社,,合同会社,東京都,中央区,日本橋室町１丁目１１番１２号日本橋水野ビル７階,,13,102,1030022,,,,,,,2024-07-08,1,,,,,,0
1257,5010003044278,新規,0,2024-07-08,2024-07-08,セルフレスネス合同会社,,合同会社,東京都,文京区,小日向１丁目２３番８号,,13,105,1120006,,,,,,,2024-07-08,1,,,,,セルフレスネス,0
1270,5010401183636,新規,0,2024-07-08,2024-07-08,自然の贈り物株式会社,,株式会社,東京都,港区,西新橋３丁目２４番８号山内ビル３階,,13,103,1050003,,,,,,,2024-07-08,1,,,,,シゼンノオクリモノ,0
1272,5010501052542,新規,0,2024-07-08,2024-07-08,株式会社凱熙,,株式会社,東京都,台東区,花川戸１丁目１３－１５ＳＣＲビル６０５号,,13,106,1110033,,,,,,,2024-07-08,1,,,,,カイシ,0
1275,5010601065510,新規,0,2024-07-08,2024-07-08,Ｍｉｒａｉ　Ｍｉｎｄｓ株式会社,,株式会社,東京都,墨田区,吾妻橋１丁目２３番３０－２３０７号リバーピア吾妻橋ライフタワー,,13,107,1300001,,,,,,,2024-07-08,1,,,,,ミライマインズ,0
1276,5010603010943,新規,0,2024-07-08,2024-07-08,合同会社ＳｉｘＤｉｘ,,合同会社,東京都,江東区,三好３丁目９－７,,13,108,1350022,,,,,,,2024-07-08,1,,,,,シスディス,0
1277,5010701046220,新規,0,2024-07-08,2024-07-08,株式会社ＬｏｗＥｎｄＴｈｅｏｒｙ,,株式会社,東京都,品川区,東五反田２丁目１０番２号東五反田スクエア６Ｆ,,13,109,1410022,,,,,,,2024-07-08,1,,,,,ロウエンドセオリー,0
1278,5010703007245,新規,0,2024-07-08,2024-07-08,Ｂｌｅｓｓｅｄ　Ｍａｒｉｔｉｍｅ合同会社,,合同会社,東京都,品川区,東品川４丁目１２－８品川シーサイドイーストタワー１５Ｆ,,13,109,1400002,,,,,,,2024-07-08,1,,,,,ブレスドマリタイム,0
1290,5011001163202,新規,0,2024-07-08,2024-07-08,株式会社ニュースコーピオ,,株式会社,東京都,渋谷区,南平台町５番３－８０７号,,13,113,1500036,,,,,,,2024-07-08,1,,,,,ニュースコーピオ,0
1298,5011101107934,新規,0,2024-07-08,2024-07-08,株式会社ケンボックス,,株式会社,東京都,新宿区,新宿３丁目３１番５号,,13,104,1600022,,,,,,,2024-07-08,1,,,,,ケンボックス,0
1299,5011101107975,新規,0,2024-07-08,2024-07-08,株式会社ラムタ,,株式会社,東京都,新宿区,神楽坂２丁目１２番１号,,13,104,1620825,,,,,,,2024-07-08,1,,,,,ラムタ,0
1300,5011101107983,新規,0,2024-07-08,2024-07-08,株式会社Ｍｅｄｉｌａｋｅｓ,,株式会社,東京都,新宿区,西新宿７丁目５番２０号新宿旭ビルＡ館４０１号,,13,104,1600023,,,,,,,2024-07-08,1,,,,,メディレイクス,0
1301,5011105011091,新規,0,2024-07-08,2024-07-08,シェルパ社会保険労務士法人,,その他の設立登記法人,東京都,新宿区,西新宿２丁目３番１号新宿モノリス２８階,,13,104,1600023,,,,,,,2024-07-08,1,,,,,シェルパ,0
1303,5011205002610,新規,0,2024-07-08,2024-07-08,一般社団法人イロドリ,,その他の設立登記法人,東京都,中野区,本町６丁目９－６,,13,114,1640012,,,,,,,2024-07-08,1,,,,,イロドリ,0
1312,5011601027871,新規,0,2024-07-08,2024-07-08,東京火橘文化メディア株式会社,,株式会社,東京都,練馬区,旭町１丁目８番１－４１８号,,13,120,1790071,,,,,,,2024-07-08,1,,,,,トウキョウカキツブンカメディア,0
1314,5011801044452,新規,0,2024-07-08,2024-07-08,ＨＡＲＵＫＩ不動産株式会社,,株式会社,東京都,足立区,東和２丁目１０番１０号エミネンス東和１０２号室,,13,121,1200003,,,,,,,2024-07-08,1,,,,,ハルキフドウサン,0
1334,5020001157989,新規,0,2024-07-08,2024-07-08,株式会社Ｌｉｖｅ　Ｂｅｅ,,株式会社,神奈川県,川崎市幸区,塚越２丁目１５０番地１大山ビル１０１,,14,132,2120024,,,,,,,2024-07-08,1,,,,,リブビー,0
1335,5020001158005,新規,0,2024-07-08,2024-07-08,ゼロベチェンジ株式会社,,株式会社,神奈川県,川崎市麻生区,片平４丁目１３番５１号,,14,137,2150023,,,,,,,2024-07-08,1,,,,,ゼロベチェンジ,0
1336,5020001158013,新規,0,2024-07-08,2024-07-08,株式会社ペルラ・マーレ,,株式会社,神奈川県,横浜市中区,扇町３丁目８番１１号ヤマザキ・シー・エービル２Ｆ,,14,104,2310027,,,,,,,2024-07-08,1,,,,,ペルラマーレ,0
1339,5020003026507,新規,0,2024-07-08,2024-07-08,ＣＦＸＯ合同会社,,合同会社,神奈川県,横浜市青葉区,荏田西５丁目１０番地２０,,14,117,2250014,,,,,,,2024-07-08,1,,,,,シーエフエックスオー,0
1340,5020003026515,新規,0,2024-07-08,2024-07-08,ＰＡＰＥＲ　ＭＯＯＮ　ＣＲＡＦＴ合同会社,,合同会社,神奈川県,横浜市神奈川区,金港町５－１４クアドリフォリオ８階,,14,102,2210056,,,,,,,2024-07-08,1,,,,,ペーパームーンクラフト,0
1342,5021001082657,新規,0,2024-07-08,2024-07-08,株式会社ワドナスタジオ,,株式会社,神奈川県,足柄下郡箱根町,芦之湯８４番地の５,,14,382,2500523,,,,,,,2024-07-08,1,,,,,ワドナスタジオ,0
1343,5021001082681,新規,0,2024-07-08,2024-07-08,株式会社Ｆｏｒｅｓｔ　Ｓｏｕｎｄ,,株式会社,神奈川県,横須賀市,岩戸３丁目１３番１１号コーポＴ＆Ｍ２０２,,14,201,2390844,,,,,,,2024-07-08,1,,,,,フォレストサウンド,0
1344,5021003014740,新規,0,2024-07-08,2024-07-08,合同会社ｓｏｃｉａｌ　ｌａｎｄｓｃａｐｅ,,合同会社,神奈川県,大和市,西鶴間６丁目１１番２１号,,14,213,2420005,,,,,,,2024-07-08,1,,,,,ソーシャルランドスケープ,0
1356,5030001161222,新規,0,2024-07-08,2024-07-08,ＡＱ株式会社,,株式会社,埼玉県,さいたま市見沼区,大字小深作３５５番地１４,,11,104,3370005,,,,,,,2024-07-08,1,,,,,エーキュー,0
1357,5030001161263,新規,0,2024-07-08,2024-07-08,株式会社ＳＹＳＴＡ,,株式会社,埼玉県,ふじみ野市,緑ケ丘１丁目５番７０号,,11,245,3560043,,,,,,,2024-07-08,1,,,,,シスタ,0
1358,5030001161296,新規,0,2024-07-08,2024-07-08,株式会社アイリスサニー,,株式会社,埼玉県,さいたま市岩槻区,加倉３丁目９番１号,,11,110,3390056,,,,,,,2024-07-08,1,,,,,アイリスサニー,0
1359,5030001161321,新規,0,2024-07-08,2024-07-08,株式会社おうちサポート本部,,株式会社,埼玉県,熊谷市,上之１７８６番地９,,11,202,3600012,,,,,,,2024-07-08,1,,,,,オウチサポートホンブ,0
1362,5030003024658,新規,0,2024-07-08,2024-07-08,君誠合同会社,,合同会社,埼玉県,蕨市,塚越７丁目３番１６号－１０５室,,11,223,3350002,,,,,,,2024-07-08,1,,,,,クンセイ,0
1364,5040001134433,新規,0,2024-07-08,2024-07-08,株式会社ＴＨＲＥＥ,,株式会社,千葉県,流山市,加１丁目５番地の１サウスコート弐番館１０７,,12,220,2700176,,,,,,,2024-07-08,1,,,,,スリー,0
1365,5040001134441,新規,0,2024-07-08,2024-07-08,株式会社福澤総合商事,,株式会社,千葉県,松戸市,南花島中町２５３番地の１グリーンパーク松戸４０６号,,12,207,2710065,,,,,,,2024-07-08,1,,,,,フクザワソウゴウショウジ,0
1374,5050001055042,新規,0,2024-07-08,2024-07-08,ＢａｍｂｉＣａｒｅ株式会社,,株式会社,茨城県,水戸市,備前町６番４７－２０６号,,08,201,3100024,,,,,,,2024-07-08,1,,,,,バンビケア,0
1376,5050003008502,新規,0,2024-07-08,2024-07-08,合同会社防災レジリエンス研究事務所,,合同会社,茨城県,つくば市,吾妻２丁目５番地１つくば市産業振興センター１Ｆ,,08,220,3050031,,,,,,,2024-07-08,1,,,,,ボウサイレジリエンスケンキュウジムショ,0
1377,5050003008519,新規,0,2024-07-08,2024-07-08,合同会社ｉｍａｇｉｎｅ　ｐｉｅｃｅ,,合同会社,茨城県,水戸市,渡里町２７３６番地の５,,08,201,3100902,,,,,,,2024-07-08,1,,,,,イマジンピース,0
1378,5050005013467,新規,0,2024-07-08,2024-07-08,司法書士法人眞壁事務所,,その他の設立登記法人,茨城県,水戸市,赤塚１丁目２００５番地の１１９サンドーマ赤塚,,08,201,3114141,,,,,,,2024-07-08,1,,,,,マカベジムショ,0
1381,5070001041940,新規,0,2024-07-08,2024-07-08,株式会社グンハピ,,株式会社,群馬県,前橋市,総社町植野１４０番地７,,10,201,3710851,,,,,,,2024-07-08,1,,,,,グンハピ,0
1385,5070003005489,新規,0,2024-07-08,2024-07-08,合同会社Ｊ’Ｓカンパニー,,合同会社,群馬県,太田市,飯田町１２２５－３ＹＳビル１Ｆ,,10,205,3730851,,,,,,,2024-07-08,1,,,,,ジェイズカンパニー,0
1386,5070003005497,新規,0,2024-07-08,2024-07-08,ＩＩＤＡ合同会社,,合同会社,群馬県,高崎市,芝塚町１７８２番地２０,,10,202,3700064,,,,,,,2024-07-08,1,,,,,イイダ,0
1387,5080005007623,新規,0,2024-07-08,2024-07-08,一般社団法人グリーンフィールド静岡,,その他の設立登記法人,静岡県,静岡市葵区,北安東４丁目２８番３号,,22,101,4200881,,,,,,,2024-07-08,1,,,,,グリーンフィールドシズオカ,0
1392,5090001018805,新規,0,2024-07-08,2024-07-08,株式会社ＰＥフジミ,,株式会社,山梨県,富士吉田市,新倉２７７９番３,,19,202,4030011,,,,,,,2024-07-08,1,,,,,ピーイーフジミ,0
1399,5110003005443,新規,0,2024-07-08,2024-07-08,Ｚｅｎ’ｓ　Ｆａｃｔｏｒｙ合同会社,,合同会社,新潟県,新潟市西蒲区,越前浜５４３７番地５,,15,108,9530012,,,,,,,2024-07-08,1,,,,,ゼンズファクトリー,0
1409,5120001266441,新規,0,2024-07-08,2024-07-08,株式会社大光ゴム工業所,,株式会社,大阪府,大阪市平野区,加美正覚寺４丁目７番４５号,,27,126,5470006,,,,,,,2024-07-08,1,,,,,ダイコウゴムコウギョウショ,0
1410,5120001266482,新規,0,2024-07-08,2024-07-08,株式会社咲,,株式会社,大阪府,大阪市浪速区,恵美須東２丁目３番３号,,27,111,5560002,,,,,,,2024-07-08,1,,,,,サク,0
1411,5120001266532,新規,0,2024-07-08,2024-07-08,株式会社よかれ,,株式会社,大阪府,大阪市北区,豊崎３丁目１８－３－２３０２,,27,127,5310072,,,,,,,2024-07-08,1,,,,,ヨカレ,0
1412,5120001266573,新規,0,2024-07-08,2024-07-08,株式会社ユーライフ,,株式会社,大阪府,大阪市西区,京町堀１丁目７番２１号Ｕ２ＢＢＬＤＧ．２階,,27,106,5500003,,,,,,,2024-07-08,1,,,,,ユーライフ,0
1413,5120001266615,新規,0,2024-07-08,2024-07-08,和光グローバル株式会社,,株式会社,大阪府,大阪市住之江区,西加賀屋３丁目４番１－２０７号,,27,125,5590016,,,,,,,2024-07-08,1,,,,,ワコウグローバル,0
1427,5120101069934,新規,0,2024-07-08,2024-07-08,株式会社ＫＯ,,株式会社,大阪府,堺市南区,桃山台２丁３番４－１０１号,,27,145,5900141,,,,,,,2024-07-08,1,,,,,コー,0
1428,5120101069942,新規,0,2024-07-08,2024-07-08,株式会社グラース,,株式会社,大阪府,堺市中区,深井清水町３６７１番地１,,27,142,5998273,,,,,,,2024-07-08,1,,,,,グラース,0
1430,5120103005937,新規,0,2024-07-08,2024-07-08,合同会社ボストンＴＲＥ,,合同会社,大阪府,岸和田市,尾生町５丁目１７番６号,,27,202,5960816,,,,,,,2024-07-08,1,,,,,ボストンティーアールイー,0
1435,5130001077433,新規,0,2024-07-08,2024-07-08,株式会社ジェイストーリー,,株式会社,京都府,京都市中京区,西ノ京中御門東町３８番地３,,26,104,6048471,,,,,,,2024-07-08,1,,,,,ジェイストーリー,0
1441,5140001135025,新規,0,2024-07-08,2024-07-08,好きやめん株式会社,,株式会社,兵庫県,小野市,王子町８０６番地の８５,,28,218,6751378,,,,,,,2024-07-08,1,,,,,スキヤメン,0
1442,5140001135041,新規,0,2024-07-08,2024-07-08,株式会社フタバ,,株式会社,兵庫県,神戸市須磨区,一ノ谷町２丁目６番１６号,,28,107,6540076,,,,,,,2024-07-08,1,,,,,フタバ,0
1443,5140003020794,新規,0,2024-07-08,2024-07-08,合同会社ＲｉＬｉＭｏｒｅ,,合同会社,兵庫県,神戸市北区,杉尾台１丁目１７番地の１９,,28,109,6511146,,,,,,,2024-07-08,1,,,,,リリモア,0
1459,5180001162164,新規,0,2024-07-08,2024-07-08,ホッコーホールディングス株式会社,,株式会社,愛知県,名古屋市中区,葵１丁目２７番２４号,,23,106,4600006,,,,,,,2024-07-08,1,,,,,ホッコーホールディングス,0
1460,5180001162206,新規,0,2024-07-08,2024-07-08,株式会社エーアイケー,,株式会社,愛知県,名古屋市南区,鳴浜町３丁目３番地,,23,112,4570806,,,,,,,2024-07-08,1,,,,,エーアイケー,0
1463,5180003027043,新規,0,2024-07-08,2024-07-08,合同会社シンプレイ,,合同会社,愛知県,一宮市,北今字再鳥二ノ切６番地,,23,203,4940004,,,,,,,2024-07-08,1,,,,,シンプレイ,0
1464,5180003027051,新規,0,2024-07-08,2024-07-08,合同会社スカイ,,合同会社,愛知県,名古屋市南区,鳴浜町３丁目４８番地の７,,23,112,4570806,,,,,,,2024-07-08,1,,,,,スカイ,0
1469,5200001042660,新規,0,2024-07-08,2024-07-08,株式会社スタディラックホールディングス,,株式会社,岐阜県,瑞浪市,日吉町８７９９番１,,21,208,5096251,,,,,,,2024-07-08,1,,,,,スタディラックホールディングス,0
1478,5240003006726,新規,0,2024-07-08,2024-07-08,合同会社しじま,,合同会社,広島県,安芸郡府中町,大須２丁目３－６５グレースコート３０１号,,34,302,7350021,,,,,,,2024-07-08,1,,,,,シジマ,0
1479,5240003006750,新規,0,2024-07-08,2024-07-08,ＫＹテック合同会社,,合同会社,広島県,福山市,曙町２丁目８番１２号Ｂ２０１,,34,207,7210952,,,,,,,2024-07-08,1,,,,,ケーワイテック,0
1497,5310001019103,新規,0,2024-07-08,2024-07-08,Ｍ＆Ｊ株式会社,,株式会社,長崎県,佐世保市,八幡町６５番地４ガーデンハイツ八幡ＩＩ－３０４,00135505,42,202,8570028,,,,,,,2024-07-08,1,,,,,エムアンドジェイ,0
1502,5340005009758,新規,0,2024-07-08,2024-07-08,特定非営利活動法人コンソーシアム黎明,,その他の設立登記法人,鹿児島県,鹿児島市,吉野４丁目４０番２２号,,46,201,8920877,,,,,,,2024-07-08,1,,,,,コンソーシアムレイメイ,0
1503,5350001019074,新規,0,2024-07-08,2024-07-08,株式会社九新,,株式会社,宮崎県,延岡市,長浜町２丁目２０２３番地２８,,45,203,8820854,,,,,,,2024-07-08,1,,,,,キュウシン,0
1507,5360003014139,新規,0,2024-07-08,2024-07-08,ＩＤＥＡＬ合同会社,,合同会社,沖縄県,沖縄市,諸見里１丁目２５番８号ハピネスビル２０３,,47,211,9040032,,,,,,,2024-07-08,1,,,,,アイディール,0
1511,5370003006663,新規,0,2024-07-08,2024-07-08,合同会社ＰＡＤＤＬＥ,,合同会社,宮城県,仙台市泉区,南中山２丁目１２番地の９サンプレイス１０５号,,04,105,9813213,,,,,,,2024-07-08,1,,,,,パドル,0
1513,5380001034657,新規,0,2024-07-08,2024-07-08,株式会社Ｘロッカー,,株式会社,福島県,郡山市,駅前２丁目３番７号エリート３０ビル２階・３階,,07,203,9638002,,,,,,,2024-07-08,1,,,,,エックスロッカー,0
1523,5470001020276,新規,0,2024-07-08,2024-07-08,株式会社スターダストプロジェクト,,株式会社,香川県,高松市,太田下町２２８１番地３,,37,201,7618073,,,,,,,2024-07-08,1,,,,,スターダストプロジェクト,0
1528,5500003003275,新規,0,2024-07-08,2024-07-08,合同会社マクフィー翻訳,,合同会社,愛媛県,松山市,古川南３丁目１５番５号,,38,201,7900943,,,,,,,2024-07-08,1,,,,,マクフィーホンヤク,0
1557,6010001246247,新規,0,2024-07-08,2024-07-08,株式会社有明,,株式会社,東京都,中央区,晴海２丁目２番４２－１４０４号,,13,102,1040053,,,,,,,2024-07-08,1,,,,,アリアケ,0
1558,6010001246288,新規,0,2024-07-08,2024-07-08,株式会社バイタルサイン,,株式会社,東京都,中央区,銀座１丁目１２番４号Ｎ＆ＥＢＬＤ．６Ｆ,,13,102,1040061,,,,,,,2024-07-08,1,,,,,バイタルサイン,0
1559,6010001246296,新規,0,2024-07-08,2024-07-08,株式会社ｉｆ,,株式会社,東京都,中央区,銀座１丁目１２番４号,,13,102,1040061,,,,,,,2024-07-08,1,,,,,イフ,0
1560,6010001246354,新規,0,2024-07-08,2024-07-08,株式会社Ｓｋｉｌｌｓｏｆｔ　Ｊａｐａｎ,,株式会社,東京都,中央区,日本橋３丁目９番１号日本橋三丁目スクエア１１階,,13,102,1030027,,,,,,,2024-07-08,1,,,,,スキルソフトジャパン,0
1561,6010001246370,新規,0,2024-07-08,2024-07-08,株式会社Ｆｌａｔ　Ｆｉｅｌｄ,,株式会社,東京都,中央区,銀座１丁目１２番４号Ｎ＆ＥＢＬＤ．７階,,13,102,1040061,,,,,,,2024-07-08,1,,,,,フラットフィールド,0
1567,6010003044228,新規,0,2024-07-08,2024-07-08,ＯｐｅｎＷｉｌｌ合同会社,,合同会社,東京都,中央区,銀座１丁目１２－４Ｎ＆ＥＢＬＤ．７階,,13,102,1040061,,,,,,,2024-07-08,1,,,,,オープンウィル,0
1568,6010003044260,新規,0,2024-07-08,2024-07-08,合同会社設定６,,合同会社,東京都,中央区,銀座１丁目１２番４号Ｎ＆ＥＢＬＤ．６Ｆ,,13,102,1040061,,,,,,,2024-07-08,1,,,,,セッテイロク,0
1569,6010005038491,新規,0,2024-07-08,2024-07-08,一般社団法人応用生態工学会,,その他の設立登記法人,東京都,千代田区,麹町４丁目７番地５麹町ロイヤルビル４０５号,,13,101,1020083,,,,,,,2024-07-08,1,,,,,オウヨウセイタイコウガッカイ,0
1578,6010403032939,新規,0,2024-07-08,2024-07-08,合同会社Ｒ＆Ｓエステート,,合同会社,東京都,港区,芝１丁目２番１－３０１２号,,13,103,1050014,,,,,,,2024-07-08,1,,,,,アールアンドエスエステート,0
1584,6010603010934,新規,0,2024-07-08,2024-07-08,ＡＢＴ合同会社,,合同会社,東京都,江東区,北砂５丁目２０番３号,,13,108,1360073,,,,,,,2024-07-08,1,,,,,エービーテイ,0
1586,6010701046236,新規,0,2024-07-08,2024-07-08,株式会社Ｒｅｓｉｎ　Ａｒｔｓ,,株式会社,東京都,品川区,西五反田２丁目９番７号ドルミ五反田アンメゾン４０７号,,13,109,1410031,,,,,,,2024-07-08,1,,,,,レジンアーツ,0
1587,6010701046252,新規,0,2024-07-08,2024-07-08,株式会社ブリッヂワールド,,株式会社,東京都,品川区,戸越３丁目９番１６－９０４号,,13,109,1420041,,,,,,,2024-07-08,1,,,,,ブリッヂワールド,0
1594,6010901055598,新規,0,2024-07-08,2024-07-08,株式会社ＲｉｄｅＰａｒｔｎｅｒｓ,,株式会社,東京都,世田谷区,桜上水５丁目１番１１号,,13,112,1560045,,,,,,,2024-07-08,1,,,,,ライドパートナーズ,0
1605,6011003019533,新規,0,2024-07-08,2024-07-08,合同会社ギリシブ,,合同会社,東京都,渋谷区,笹塚１丁目２５番５－６０３号,,13,113,1510073,,,,,,,2024-07-08,1,,,,,ギリシブ,0
1611,6011101107925,新規,0,2024-07-08,2024-07-08,株式会社ＦＩＬＬＩＡ,,株式会社,東京都,新宿区,歌舞伎町２丁目２１番３号第６本間ビル３階,,13,104,1600021,,,,,,,2024-07-08,1,,,,,フィリア,0
1612,6011101107966,新規,0,2024-07-08,2024-07-08,株式会社キャムグローバル,,株式会社,東京都,新宿区,西新宿１丁目２５番１号新宿センタービル３８階,,13,104,1600023,,,,,,,2024-07-08,1,,,,,キャムグローバル,0
1616,6011103014640,新規,0,2024-07-08,2024-07-08,合同会社ＮＭＰ,,合同会社,東京都,新宿区,新宿６丁目２番４号ザ・パークハビオ新宿６１２号室,,13,104,1600022,,,,,,,2024-07-08,1,,,,,エヌエムピー,0
1620,6011105011090,新規,0,2024-07-08,2024-07-08,一般社団法人ジェイ・エイチ・ユー,,その他の設立登記法人,東京都,新宿区,下宮比町１番４号,,13,104,1620822,,,,,,,2024-07-08,1,,,,,ジェイエイチユー,0
1625,6011601027870,新規,0,2024-07-08,2024-07-08,株式会社ＯＨＤ,,株式会社,東京都,練馬区,田柄４丁目２１番２１号,,13,120,1790073,,,,,,,2024-07-08,1,,,,,オーエイチディー,0
1629,6011801044484,新規,0,2024-07-08,2024-07-08,エヌケーツー株式会社,,株式会社,東京都,葛飾区,白鳥１丁目１２番１９号,,13,122,1250063,,,,,,,2024-07-08,1,,,,,エヌケーツー,0
1637,6013303007201,新規,0,2024-07-08,2024-07-08,合同会社Ｓｕｎｎｙ　Ｐｅｒｓｏｎａｌｉｔｙ,,合同会社,東京都,豊島区,池袋１丁目７番１５号,,13,116,1700014,,,,,,,2024-07-08,1,,,,,サニーパーソナリティ,0
1641,6020001158004,新規,0,2024-07-08,2024-07-08,株式会社ＯＲＣＡＳＱＵＡＲＥ,,株式会社,神奈川県,横浜市戸塚区,柏尾町１０２７番地２６,,14,110,2440812,,,,,,,2024-07-08,1,,,,,オルカスクエア,0
1642,6020001158012,新規,0,2024-07-08,2024-07-08,株式会社スタジオＨａｎＤ,,株式会社,神奈川県,横浜市港北区,富士塚２丁目５番１５－２号,,14,109,2220012,,,,,,,2024-07-08,1,,,,,スタジオハンド,0
1647,6021001082672,新規,0,2024-07-08,2024-07-08,株式会社本村設備,,株式会社,神奈川県,足柄下郡湯河原町,鍛冶屋５３８番地の１０,,14,384,2590313,,,,,,,2024-07-08,1,,,,,モトムラセツビ,0
1649,6021003014698,新規,0,2024-07-08,2024-07-08,合同会社ハルモニアサウンズ,,合同会社,神奈川県,三浦市,初声町下宮田８５９－３,,14,210,2380111,,,,,,,2024-07-08,1,,,,,ハルモニアサウンズ,0
1650,6021003014723,新規,0,2024-07-08,2024-07-08,合同会社油や,,合同会社,神奈川県,高座郡寒川町,一之宮１丁目８番１２号,,14,321,2530111,,,,,,,2024-07-08,1,,,,,アブラヤ,0
1655,6030001161238,新規,0,2024-07-08,2024-07-08,インセンス株式会社,,株式会社,埼玉県,所沢市,上新井４丁目２２番地の４,,11,208,3591142,,,,,,,2024-07-08,1,,,,,インセンス,0
1656,6030001161295,新規,0,2024-07-08,2024-07-08,株式会社椋樹工務店,,株式会社,埼玉県,久喜市,高柳１９１１番地１,,11,232,3491125,,,,,,,2024-07-08,1,,,,,ムクノキコウムテン,0
1657,6030001161378,新規,0,2024-07-08,2024-07-08,龍一株式会社,,株式会社,埼玉県,川口市,西川口１丁目３０番２０－４０３号室,,11,203,3320021,,,,,,,2024-07-08,1,,,,,リュウイチ,0
1659,6030003024657,新規,0,2024-07-08,2024-07-08,合同会社京福,,合同会社,埼玉県,川越市,南大塚６丁目１２番地４１ポンテアロッジオＡ１０１,,11,201,3501162,,,,,,,2024-07-08,1,,,,,ケイフク,0
1670,6040001134399,新規,0,2024-07-08,2024-07-08,株式会社ＡＬＦ,,株式会社,千葉県,船橋市,旭町２丁目１９番７７号,,12,204,2730041,,,,,,,2024-07-08,1,,,,,エーエルエフ,0
1671,6040001134424,新規,0,2024-07-08,2024-07-08,株式会社Ｇｏｏｄ　ｂｒｏｔｈｅｒｓ,,株式会社,千葉県,市川市,鬼高３丁目２９番１６号,,12,203,2720015,,,,,,,2024-07-08,1,,,,,グッドブラザーズ,0
1672,6040001134440,新規,0,2024-07-08,2024-07-08,株式会社ＮＯＷ,,株式会社,千葉県,柏市,豊町２丁目２番１８号,,12,217,2770854,,,,,,,2024-07-08,1,,,,,ナウ,0
1673,6040001134457,新規,0,2024-07-08,2024-07-08,株式会社七番,,株式会社,千葉県,八街市,八街ろ５８番地１９６,,12,230,2891144,,,,,,,2024-07-08,1,,,,,ナナバン,0
1677,6050001055041,新規,0,2024-07-08,2024-07-08,株式会社佑工業,,株式会社,茨城県,神栖市,知手７０１番地１,,08,232,3140115,,,,,,,2024-07-08,1,,,,,タスクコウギョウ,0
1678,6050001055058,新規,0,2024-07-08,2024-07-08,神栖建設株式会社,,株式会社,茨城県,神栖市,筒井２番地１００,,08,232,3140132,,,,,,,2024-07-08,1,,,,,カミスケンセツ,0
1679,6050001055066,新規,0,2024-07-08,2024-07-08,株式会社心栄,,株式会社,茨城県,取手市,取手２丁目２－２－３階３号室,,08,217,3020004,,,,,,,2024-07-08,1,,,,,シンエイ,0
1682,6050003008501,新規,0,2024-07-08,2024-07-08,合同会社湯本屋,,合同会社,茨城県,筑西市,甲２６１番地３,,08,227,3080021,,,,,,,2024-07-08,1,,,,,ユモトヤ,0
1689,6070001041931,新規,0,2024-07-08,2024-07-08,株式会社かおる不動産,,株式会社,群馬県,桐生市,相生町２丁目３４２番地１,,10,203,3760011,,,,,,,2024-07-08,1,,,,,カオルフドウサン,0
1693,6080405007651,新規,0,2024-07-08,2024-07-08,一般社団法人浜松どまんなか祭り実行委員会,,その他の設立登記法人,静岡県,浜松市中央区,旭町６番地の１－１７０８,,22,138,4300927,,,,,,,2024-07-08,1,,,,,ハママツドマンナカマツリジッコウイインカイ,0
1697,6090003002599,新規,0,2024-07-08,2024-07-08,Ａ・Ｓ・Ｄ・Ｋ合同会社,,合同会社,山梨県,甲府市,七沢町１７４番地２３,,19,201,4000825,,,,,,,2024-07-08,1,,,,,エイエスディーケイ,0
1699,6100001037629,新規,0,2024-07-08,2024-07-08,株式会社ｋｏｋｏ,,株式会社,長野県,松本市,波田６３７１－１０,,20,202,3901401,,,,,,,2024-07-08,1,,,,,ココ,0
1700,6100001037661,新規,0,2024-07-08,2024-07-08,株式会社雨宮不動産,,株式会社,長野県,千曲市,大字屋代８５６番地３,,20,218,3870007,,,,,,,2024-07-08,1,,,,,アメミヤフドウサン,0
1706,6110001038551,新規,0,2024-07-08,2024-07-08,株式会社ＫＯＨＴＡＴＳＵアソシエーション,,株式会社,新潟県,新潟市中央区,天神２丁目１番地１ソイルヴァレー天神４０３号,,15,103,9500917,,,,,,,2024-07-08,1,,,,,コータツアソシエーション,0
1713,6120001266358,新規,0,2024-07-08,2024-07-08,株式会社ＣａｒｔＡＩ,,株式会社,大阪府,大阪市旭区,今市１丁目１３番１３号,,27,117,5350011,,,,,,,2024-07-08,1,,,,,カルタ,0
1714,6120001266424,新規,0,2024-07-08,2024-07-08,巨鼎株式会社,,株式会社,大阪府,大阪市中央区,釣鐘町２丁目３番１１－４０１号,,27,128,5400035,,,,,,,2024-07-08,1,,,,,キョテイ,0
1715,6120001266556,新規,0,2024-07-08,2024-07-08,株式会社メディカル＆アライアンス,,株式会社,大阪府,大阪市北区,梅田１丁目１番３号大阪駅前第３ビル２９階１－１－１号室,,27,127,5300001,,,,,,,2024-07-08,1,,,,,メディカルアンドアライアンス,0
1716,6120001266622,新規,0,2024-07-08,2024-07-08,繁星分割準備株式会社,,株式会社,大阪府,大阪市北区,天満２丁目１－１２,,27,127,5300043,,,,,,,2024-07-08,1,,,,,ハンジョウブンカツジュンビ,0
1720,6120101069909,新規,0,2024-07-08,2024-07-08,株式会社Ｄ＆Ｏ,,株式会社,大阪府,堺市北区,奥本町１丁１５番地,,27,146,5918007,,,,,,,2024-07-08,1,,,,,ディーアンドオー,0
1721,6120101069925,新規,0,2024-07-08,2024-07-08,株式会社Ｒｅｓｐｅｃｔ,,株式会社,大阪府,藤井寺市,野中１丁目９７番１号第３セイワビル１－２Ａ,,27,226,5830014,,,,,,,2024-07-08,1,,,,,リスペクト,0
1722,6120101069933,新規,0,2024-07-08,2024-07-08,株式会社アスワン,,株式会社,大阪府,泉北郡忠岡町,馬瀬３丁目１０番１０－１４号,,27,341,5950804,,,,,,,2024-07-08,1,,,,,アスワン,0
1724,6120103005936,新規,0,2024-07-08,2024-07-08,合同会社ライフケアサポートにこにこほし,,合同会社,大阪府,泉佐野市,上之郷２７２３古民家ファーム,,27,213,5980024,,,,,,,2024-07-08,1,,,,,ライフケアサポートニコニコホシ,0
1732,6130001077399,新規,0,2024-07-08,2024-07-08,Ｓ‐ＴＥＣ株式会社,,株式会社,京都府,京都市伏見区,深草北蓮池町９１５番地２ルネ墨染２１３号,00135502,26,109,6120035,,,,,,,2024-07-08,1,,,,,エステック,0
1740,6140001135024,新規,0,2024-07-08,2024-07-08,株式会社Ｓ‐Ｔｅｃｈｎｏ,,株式会社,兵庫県,宝塚市,すみれガ丘２丁目１番２－３０８号,,28,214,6650847,,,,,,,2024-07-08,1,,,,,エステクノ,0
1744,6140005027135,新規,0,2024-07-08,2024-07-08,一般社団法人丹波市スポーツ協会,,その他の設立登記法人,兵庫県,丹波市,春日町黒井４９６番地２,,28,223,6694141,,,,,,,2024-07-08,1,,,,,タンバシスポーツキョウカイ,0
1745,6150001027410,新規,0,2024-07-08,2024-07-08,株式会社西本自工,,株式会社,奈良県,吉野郡吉野町,大字丹治５１番地,,29,441,6393114,,,,,,,2024-07-08,1,,,,,ニシモトジコウ,0
1753,6180001162312,新規,0,2024-07-08,2024-07-08,株式会社サンフラワーズ,,株式会社,愛知県,一宮市,栄１丁目９－１５モアグレース一宮駅前ＩＩ８０２号,00135496,23,203,4910858,,,,,,,2024-07-08,1,,,,,サンフラワーズ,0
1775,6230003002246,新規,0,2024-07-08,2024-07-08,ＡＬｉｎｋｓ合同会社,,合同会社,富山県,高岡市,蓮花寺１６５番地ソレイユ蓮花寺３０７号,,16,202,9330802,,,,,,,2024-07-08,1,,,,,エーリンクス,0
1778,6240001063454,新規,0,2024-07-08,2024-07-08,株式会社Ｔ・Ｄ・Ａ,,株式会社,広島県,東広島市,西条町田口２９１２番地８,,34,212,7390036,,,,,,,2024-07-08,1,,,,,ティーディーエー,0
1784,6260001039246,新規,0,2024-07-08,2024-07-08,株式会社清賀,,株式会社,岡山県,岡山市北区,柳町１丁目３番２１号（３０２）,,33,101,7000904,,,,,,,2024-07-08,1,,,,,セイガ,0
1797,6290005019431,新規,0,2024-07-08,2024-07-08,一般社団法人ＬＳＤ,,その他の設立登記法人,福岡県,福岡市西区,九大新町５番５いとＬａｂ＋研究開発棟,,40,135,8190388,,,,,,,2024-07-08,1,,,,,エルエスディー,0
1806,6340001026632,新規,0,2024-07-08,2024-07-08,株式会社澤山三二塗装,,株式会社,鹿児島県,指宿市,新西方１４８０番地,,46,210,8910313,,,,,,,2024-07-08,1,,,,,サワヤマミツジトソウ,0
1807,6340005009757,新規,0,2024-07-08,2024-07-08,種子島商工事業協同組合,,その他の設立登記法人,鹿児島県,西之表市,栄町２番地,,46,213,8913112,,,,,,,2024-07-08,1,,,,,タネガシマショウコウ,0
1809,6350001019049,新規,0,2024-07-08,2024-07-08,株式会社ＮＩＩＮＡ,,株式会社,宮崎県,延岡市,小野町４６６３番地３,,45,203,8820882,,,,,,,2024-07-08,1,,,,,ニイナ,0
1810,6350001019065,新規,0,2024-07-08,2024-07-08,株式会社Ｖａｍｏｒａｓ　Ｔｅｃｈｎｏｌｏｇｙ,,株式会社,宮崎県,宮崎市,大字跡江３８６－４,,45,201,8802101,,,,,,,2024-07-08,1,,,,,バモラステクノロジー,0
1812,6350003004692,新規,0,2024-07-08,2024-07-08,合同会社光,,合同会社,宮崎県,児湯郡新富町,大字新田１３４５６番地６,,45,402,8891406,,,,,,,2024-07-08,1,,,,,ヒカリ,0
1813,6350005006241,新規,0,2024-07-08,2024-07-08,一般社団法人Ｔｈｅ　Ｎｅｔｗｏｒｋ　ｏｆ　Ｂａｎｇｌａｄｅｓｈｉ　Ｒｅｓｅａｒｃｈｅｒｓ　ｉｎ　Ｊａｐａｎ,,その他の設立登記法人,宮崎県,宮崎市,清武町加納４丁目３１番地、ゆとり２１６－４０６号,,45,201,8891607,,,,,,,2024-07-08,1,,,,,ザネットワークオブバングラデシュリサーチャーズインジャパン,0
1822,6370001051487,新規,0,2024-07-08,2024-07-08,株式会社友美アグリｓ,,株式会社,宮城県,仙台市泉区,市名坂字原田１７番地の１６,,04,105,9813117,,,,,,,2024-07-08,1,,,,,ユウビアグリス,0
1827,6380003005804,新規,0,2024-07-08,2024-07-08,ＴＲＡＤＩＮＧ　ＳＰＨＥＲＥ合同会社,,合同会社,福島県,福島市,宮代字中川原２７番地の１,,07,201,9600116,,,,,,,2024-07-08,1,,,,,トレーディングスフィア,0
1829,6390001017668,新規,0,2024-07-08,2024-07-08,株式会社Ｒｅｌａｔｉｏｎｓ,,株式会社,山形県,山形市,飯田西１丁目２番３０号,,06,201,9902331,,,,,,,2024-07-08,1,,,,,リレーションズ,0
1830,6390003002263,新規,0,2024-07-08,2024-07-08,ＦＯＲ　ＹＯＵ合同会社,,合同会社,山形県,山形市,清住町２丁目５番１２号,,06,201,9900834,,,,,,,2024-07-08,1,,,,,フォーユー,0
1835,6430001092153,新規,0,2024-07-08,2024-07-08,株式会社日本ネットワークコーポレーション,,株式会社,北海道,札幌市中央区,北七条西１９丁目１番地１６,,01,101,0600007,,,,,,,2024-07-08,1,,,,,ニホンネットワークコーポレーション,0
1836,6430003016317,新規,0,2024-07-08,2024-07-08,合同会社Ｍｏｙｏ,,合同会社,北海道,小樽市,稲穂２丁目７番１号,,01,203,0470032,,,,,,,2024-07-08,1,,,,,,0
1839,6440003001607,新規,0,2024-07-08,2024-07-08,合同会社ｃｌｏｖｅｒホーム,,合同会社,北海道,函館市,日吉町２丁目５番１号,,01,202,0410841,,,,,,,2024-07-08,1,,,,,クローバーホーム,0
1841,6450003002513,新規,0,2024-07-08,2024-07-08,合同会社ＯＭＵＳＵＢＩ,,合同会社,北海道,旭川市,西神楽一線九号１５７番地の１,,01,204,0788381,,,,,,,2024-07-08,1,,,,,オムスビ,0
1844,6470001020275,新規,0,2024-07-08,2024-07-08,エンカウンター株式会社,,株式会社,香川県,高松市,城東町２丁目１０番２０号,,37,201,7600036,,,,,,,2024-07-08,1,,,,,エンカウンター,0
1851,6500003003274,新規,0,2024-07-08,2024-07-08,みどり不動産合同会社,,合同会社,愛媛県,四国中央市,川之江町３５７番地３,,38,213,7990101,,,,,,,2024-07-08,1,,,,,ミドリフドウサン,0
1854,6700150125891,新規,0,2024-07-08,2024-06-12,庚午未来会議,,その他,広島県,広島市西区,庚午中３丁目１－２４,,34,104,7330822,,,,,,,2024-06-12,1,,,,,コウゴミライカイギ,0
1871,7010001246295,新規,0,2024-07-08,2024-07-08,Ｃｏｎｃｕｒｒｅｎｔ株式会社,,株式会社,東京都,文京区,本駒込４丁目２０番１１－１３０１,,13,105,1130021,,,,,,,2024-07-08,1,,,,,コンカレント,0
1872,7010001246329,新規,0,2024-07-08,2024-07-08,吉本町株式会社,,株式会社,東京都,中央区,日本橋蛎殻町１丁目７番９号ＴＱ茅場町８階,,13,102,1030014,,,,,,,2024-07-08,1,,,,,ヨシモトチョウ,0
1873,7010001246378,新規,0,2024-07-08,2024-07-08,株式会社ＫＰ,,株式会社,東京都,中央区,晴海１丁目６晴海ビュータワー１号棟３５０６,,13,102,1040053,,,,,,,2024-07-08,1,,,,,ケーピー,0
1874,7010001246386,新規,0,2024-07-08,2024-07-08,株式会社ＢＴＩ　ｇｌｏｂａｌ,,株式会社,東京都,中央区,八重洲２丁目１－１ＹＡＮＭＡＲＴＯＫＹＯ１２階,,13,102,1040028,,,,,,,2024-07-08,1,,,,,ビーティーアイグローバル,0
1875,7010001246436,新規,0,2024-07-08,2024-07-08,株式会社ＴＹＳＭコーポレーション,,株式会社,東京都,中央区,銀座１丁目２２番１１号銀座ビジデンス２階,,13,102,1040061,,,,,,,2024-07-08,1,,,,,ティーワイエスエムコーポレーション,0
1880,7010003044251,新規,0,2024-07-08,2024-07-08,ジェレファキャピタル合同会社,,合同会社,東京都,中央区,銀座１丁目２２番１１号２階,,13,102,1040061,,,,,,,2024-07-08,1,,,,,ジェレファキャピタル,0
1883,7010005038482,新規,0,2024-07-08,2024-07-08,平河町一般社団法人,,その他の設立登記法人,東京都,千代田区,神田小川町３丁目２６番８号神田小川町三丁目ビル６階,,13,101,1010052,,,,,,,2024-07-08,1,,,,,ヒラカワチョウ,0
1893,7010401183477,新規,0,2024-07-08,2024-07-08,株式会社シーフォス,,株式会社,東京都,港区,虎ノ門３丁目２２番１０－２０５号,,13,103,1050001,,,,,,,2024-07-08,1,,,,,シーフォス,0
1895,7010403032946,新規,0,2024-07-08,2024-07-08,Ｒ‐Ｉｎｓｉｇｈｔ合同会社,,合同会社,東京都,港区,芝浦４丁目１２番３６号,,13,103,1080023,,,,,,,2024-07-08,1,,,,,アールインサイト,0
1899,7010501052557,新規,0,2024-07-08,2024-07-08,株式会社ＳＥ３６０,,株式会社,東京都,台東区,三筋１丁目６番５号,,13,106,1110055,,,,,,,2024-07-08,1,,,,,エスイーサンロクマル,0
1903,7010601065509,新規,0,2024-07-08,2024-07-08,株式会社ＫＡＴＯＨ,,株式会社,東京都,墨田区,錦糸１丁目２番１号アルカセントラル１４Ｆ,,13,107,1300013,,,,,,,2024-07-08,1,,,,,カトー,0
1904,7010601065517,新規,0,2024-07-08,2024-07-08,株式会社テクニコ,,株式会社,東京都,江東区,有明１丁目４－２０ブリリア有明スカイタワー２２０４,,13,108,1350063,,,,,,,2024-07-08,1,,,,,テクニコ,0
1905,7010603010925,新規,0,2024-07-08,2024-07-08,合同会社Ｅｎｒｉｃｈ,,合同会社,東京都,江東区,東雲１丁目１―７―３１５号室,,13,108,1350062,,,,,,,2024-07-08,1,,,,,エンリッチ,0
1906,7010603010933,新規,0,2024-07-08,2024-07-08,ＧＲＵＰＯ　ＦＵＴＵＲＯ合同会社,,合同会社,東京都,江東区,豊洲６丁目２番３１－１９１７号,,13,108,1350061,,,,,,,2024-07-08,1,,,,,グルポフトゥーロ,0
1911,7010703007243,新規,0,2024-07-08,2024-07-08,ＣｌｏｕｄＢｌｏｏｍ合同会社,,合同会社,東京都,品川区,上大崎３丁目１４番３４号プラスワン６０２,,13,109,1410021,,,,,,,2024-07-08,1,,,,,クラウドブルーム,0
1918,7010901055597,新規,0,2024-07-08,2024-07-08,ビューティーボディラボ株式会社,,株式会社,東京都,世田谷区,砧４丁目８番１９号,,13,112,1570073,,,,,,,2024-07-08,1,,,,,ビューティーボディラボ,0
1923,7011001163241,新規,0,2024-07-08,2024-07-08,株式会社ＲＥＶＥＲＥＮＴ,,株式会社,東京都,目黒区,三田１丁目１番９号,,13,110,1530062,,,,,,,2024-07-08,1,,,,,レバレント,0
1937,7011101107924,新規,0,2024-07-08,2024-07-08,コアトリム株式会社,,株式会社,東京都,新宿区,西新宿１丁目２４番１号,,13,104,1600023,,,,,,,2024-07-08,1,,,,,,0
1938,7011101107949,新規,0,2024-07-08,2024-07-08,株式会社やまし,,株式会社,東京都,新宿区,西新宿３丁目３番１３号西新宿水間ビル２階,,13,104,1600023,,,,,,,2024-07-08,1,,,,,ヤマシ,0
1943,7011503006138,新規,0,2024-07-08,2024-07-08,ＨＯＯＤＳ合同会社,,合同会社,東京都,北区,王子１丁目１１－１北とぴあ１７階,,13,117,1140002,,,,,,,2024-07-08,1,,,,,フッズ,0
1950,7011801044500,新規,0,2024-07-08,2024-07-08,小鳥遊株式会社,,株式会社,東京都,足立区,舎人６丁目２番１５号サンスプリング３０２,,13,121,1210831,,,,,,,2024-07-08,1,,,,,タカナシ,0
1951,7011801044509,新規,0,2024-07-08,2024-07-08,ＵＳＧ株式会社,,株式会社,東京都,葛飾区,西新小岩３丁目３７－２８新小岩セントラルハイツ３１５,,13,122,1240025,,,,,,,2024-07-08,1,,,,,ユーエスジー,0
1956,7012701018338,新規,0,2024-07-08,2024-07-08,シープログ株式会社,,株式会社,東京都,小平市,学園東町３丁目９番４７－４号,,13,211,1870043,,,,,,,2024-07-08,1,,,,,シープログ,0
1959,7012801023295,新規,0,2024-07-08,2024-07-08,株式会社アトラスホールディングス,,株式会社,東京都,立川市,柴崎町３丁目９番２４号－８０３号室,,13,202,1900023,,,,,,,2024-07-08,1,,,,,アトラスホールディングス,0
1960,7012801023312,新規,0,2024-07-08,2024-07-08,株式会社慶成,,株式会社,東京都,東大和市,向原５丁目１０８２番地の１,,13,220,2070013,,,,,,,2024-07-08,1,,,,,ケイセイ,0
1962,7013105001847,新規,0,2024-07-08,2024-07-08,特定非営利活動法人青梅富岡里山ワンダーランド,,その他の設立登記法人,東京都,青梅市,富岡１丁目１５２番地,,13,205,1980002,,,,,,,2024-07-08,1,,,,,,0
1966,7013301052776,新規,0,2024-07-08,2024-07-08,ＪＣＶ亀山株式会社,,株式会社,東京都,豊島区,南大塚３丁目２６番６号ＬｅＰａｒｃ大塚ビル１Ｆ,,13,116,1700005,,,,,,,2024-07-08,1,,,,,ジェーシーヴイカメヤマ,0
1977,7020001158003,新規,0,2024-07-08,2024-07-08,株式会社ｆｉｔａｕ,,株式会社,神奈川県,横浜市青葉区,あざみ野１丁目３０番地３７,,14,117,2250011,,,,,,,2024-07-08,1,,,,,フィタウ,0
1978,7020001158011,新規,0,2024-07-08,2024-07-08,株式会社日興エステート,,株式会社,神奈川県,川崎市幸区,小倉１丁目４番２号,,14,132,2120054,,,,,,,2024-07-08,1,,,,,ニッコウエステート,0
1979,7020001158036,新規,0,2024-07-08,2024-07-08,株式会社ＡｄｄＢｏｘ,,株式会社,神奈川県,川崎市多摩区,登戸８,,14,135,2140014,,,,,,,2024-07-08,1,,,,,アドボックス,0
1985,7021001082655,新規,0,2024-07-08,2024-07-08,株式会社キャニオンワークス,,株式会社,神奈川県,厚木市,山際山の根１３２５番地１,,14,212,2430803,,,,,,,2024-07-08,1,,,,,キャニオンワークス,0
1986,7021001082663,新規,0,2024-07-08,2024-07-08,株式会社ＵＭＩＴＯＩＮＵ,,株式会社,神奈川県,鎌倉市,七里ガ浜東４丁目２７番１号,,14,204,2480025,,,,,,,2024-07-08,1,,,,,ウミトイヌ,0
1987,7021001082671,新規,0,2024-07-08,2024-07-08,株式会社銀座土産品センター,,株式会社,神奈川県,横須賀市,池田町１丁目１番２－３０３号,,14,201,2390806,,,,,,,2024-07-08,1,,,,,ギンザミヤゲヒンセンター,0
1988,7021001082688,新規,0,2024-07-08,2024-07-08,株式会社みんなとあさひ,,株式会社,神奈川県,藤沢市,鵠沼橘１丁目１３番３号,,14,205,2510024,,,,,,,2024-07-08,1,,,,,ミンナトアサヒ,0
1990,7021003014722,新規,0,2024-07-08,2024-07-08,合同会社七旅,,合同会社,神奈川県,藤沢市,川名２丁目４番２７～９０４号,,14,205,2510015,,,,,,,2024-07-08,1,,,,,ナナタビ,0
1991,7021003014739,新規,0,2024-07-08,2024-07-08,合同会社ＡＬＰＨＡ　ＭＯＴＯＲ　ＣＯＲＰＯＲＡＴＩＯＮ,,合同会社,神奈川県,海老名市,国分南２丁目４５番２６号,,14,215,2430405,,,,,,,2024-07-08,1,,,,,アルファーモーターコーポレーション,0
1999,7030001161245,新規,0,2024-07-08,2024-07-08,株式会社ヒロシ設備設計,,株式会社,埼玉県,さいたま市桜区,栄和３丁目６番２７－２号,,11,106,3380823,,,,,,,2024-07-08,1,,,,,ヒロシセツビセッケイ,0
2000,7030001161253,新規,0,2024-07-08,2024-07-08,株式会社ゲーム大好き,,株式会社,埼玉県,川口市,並木２丁目２３番１６－１３０１号,,11,203,3320034,,,,,,,2024-07-08,1,,,,,ゲームダイスキ,0
2004,7040001134357,新規,0,2024-07-08,2024-07-08,株式会社バンデ,,株式会社,千葉県,船橋市,前貝塚町５３５番地２,,12,204,2730042,,,,,,,2024-07-08,1,,,,,バンデ,0
2005,7040001134423,新規,0,2024-07-08,2024-07-08,株式会社石川工務店,,株式会社,千葉県,八千代市,大和田２８３番地３７,,12,221,2760045,,,,,,,2024-07-08,1,,,,,イシカワコウムテン,0
2006,7040001134448,新規,0,2024-07-08,2024-07-08,日本鉱物株式会社,,株式会社,千葉県,市原市,潤井戸１９５４－５１,,12,219,2900171,,,,,,,2024-07-08,1,,,,,ニホンコウブツ,0
2011,7040003025331,新規,0,2024-07-08,2024-07-08,Ｒ＆Ｆ企画合同会社,,合同会社,千葉県,木更津市,中里１丁目５番１５号,,12,206,2920064,,,,,,,2024-07-08,1,,,,,アールアンドエフキカク,0
2013,7050001055024,新規,0,2024-07-08,2024-07-08,株式会社ロビンソンファーマシー,,株式会社,茨城県,つくば市,妻木６３６番地２,,08,220,3050028,,,,,,,2024-07-08,1,,,,,ロビンソンファーマシー,0
2014,7050001055040,新規,0,2024-07-08,2024-07-08,株式会社みずの企画,,株式会社,茨城県,龍ケ崎市,佐貫３丁目１２番地２－４０８,,08,208,3010032,,,,,,,2024-07-08,1,,,,,ミズノキカク,0
2015,7050001055049,新規,0,2024-07-08,2024-07-08,ペアガーデン株式会社,,株式会社,茨城県,つくば市,天久保３丁目１１番地２２,,08,220,3050005,,,,,,,2024-07-08,1,,,,,ペアガーデン,0
2016,7050005013465,新規,0,2024-07-08,2024-07-08,一般社団法人ＫＯＫＫＡＩ,,その他の設立登記法人,茨城県,水戸市,元吉田町１６３６－５,,08,201,3100836,,,,,,,2024-07-08,1,,,,,コッカイ,0
2018,7070001041930,新規,0,2024-07-08,2024-07-08,Ｓｈｉｂｏｒｉ‐ｉホールディングス株式会社,,株式会社,群馬県,高崎市,矢中町１１３１番地の１,,10,202,3701203,,,,,,,2024-07-08,1,,,,,シボリアイホールディングス,0
2019,7070001041939,新規,0,2024-07-08,2024-07-08,株式会社Ｆ＆Ｇ,,株式会社,群馬県,伊勢崎市,波志江町４１３４番地３８,,10,204,3720001,,,,,,,2024-07-08,1,,,,,エフアンドジー,0
2020,7070001041947,新規,0,2024-07-08,2024-07-08,株式会社アルトマーレ,,株式会社,群馬県,高崎市,請地町１１番地６,,10,202,3700067,,,,,,,2024-07-08,1,,,,,アルトマーレ,0
2027,7080403005053,新規,0,2024-07-08,2024-07-08,合同会社ケイライト,,合同会社,静岡県,磐田市,富丘４７０番地４,,22,211,4380803,,,,,,,2024-07-08,1,,,,,ケイライト,0
2031,7090001018811,新規,0,2024-07-08,2024-07-08,株式会社かけはし,,株式会社,山梨県,大月市,御太刀１丁目１４番２３号,,19,206,4010012,,,,,,,2024-07-08,1,,,,,カケハシ,0
2032,7090003002598,新規,0,2024-07-08,2024-07-08,合同会社Ｇｒａｃｅ　Ｇｌｏｗ,,合同会社,山梨県,南巨摩郡身延町,身延３７２２番地,,19,365,4092524,,,,,,,2024-07-08,1,,,,,グレースグロウ,0
2037,7110001038534,新規,0,2024-07-08,2024-07-08,株式会社Ｏｋｕｒａ,,株式会社,新潟県,新潟市中央区,天神２丁目２番地７,,15,103,9500917,,,,,,,2024-07-08,1,,,,,オークラ,0
2048,7120001266423,新規,0,2024-07-08,2024-07-08,ＨＳ株式会社,,株式会社,大阪府,大阪市中央区,釣鐘町２丁目３番１１－６０２号,,27,128,5400035,,,,,,,2024-07-08,1,,,,,エイチエス,0
2049,7120001266530,新規,0,2024-07-08,2024-07-08,株式会社イシザキパートナーズ,,株式会社,大阪府,大阪市北区,梅田１丁目１番３号大阪駅前第３ビル２９階１－１－１号室,,27,127,5300001,,,,,,,2024-07-08,1,,,,,イシザキパートナーズ,0
2050,7120001266563,新規,0,2024-07-08,2024-07-08,ＣＯＳＴＡ　ＣＲＡＦＴ株式会社,,株式会社,大阪府,寝屋川市,寿町２７番７－１号,,27,215,5720029,,,,,,,2024-07-08,1,,,,,コスタクラフト,0
2051,7120001266596,新規,0,2024-07-08,2024-07-08,株式会社テックロジ,,株式会社,大阪府,大阪市旭区,清水４丁目４番１０号,,27,117,5350021,,,,,,,2024-07-08,1,,,,,テックロジ,0
2052,7120001266670,新規,0,2024-07-08,2024-07-08,株式会社パワーセレクト,,株式会社,大阪府,大阪市北区,梅田１丁目１－３大阪駅前第３ビル２９階１－１－１号室,,27,127,5300001,,,,,,,2024-07-08,1,,,,,パワーセレクト,0
2059,7120101069899,新規,0,2024-07-08,2024-07-08,株式会社ウォールペーパーＡＫＩ,,株式会社,大阪府,羽曳野市,南古市２丁目７番２７号,,27,222,5830858,,,,,,,2024-07-08,1,,,,,ウォールペーパーアキ,0
2060,7120101069940,新規,0,2024-07-08,2024-07-08,株式会社コミュニケーション＆サポート,,株式会社,大阪府,泉大津市,清水町４番８号,,27,206,5950043,,,,,,,2024-07-08,1,,,,,コミュニケーションアンドサポート,0
2067,7120903005242,新規,0,2024-07-08,2024-07-08,合同会社補修工房よろず,,合同会社,大阪府,茨木市,鮎川３丁目５－２６－３０２,,27,211,5670831,,,,,,,2024-07-08,1,,,,,ホシュウコウボウヨロズ,0
2068,7120903005250,新規,0,2024-07-08,2024-07-08,合同会社Ｍ．Ａ．Ｔ．,,合同会社,大阪府,茨木市,西駅前町１０番１１５号,,27,211,5670032,,,,,,,2024-07-08,1,,,,,エムエイティ,0
2071,7122005003760,新規,0,2024-07-08,2024-07-08,医療法人水野矯正歯科クリニック,,その他の設立登記法人,大阪府,八尾市,山本町南４丁目２番６号,,27,212,5810013,,,,,,,2024-07-08,1,,,,,ミズノキョウセイシカクリニック,0
2086,7140001134958,新規,0,2024-07-08,2024-07-08,株式会社グロースエステート,,株式会社,兵庫県,川西市,湯山台１丁目３３番地の６,,28,217,6660137,,,,,,,2024-07-08,1,,,,,グロースエステート,0
2087,7140001135080,新規,0,2024-07-08,2024-07-08,株式会社ＯＫＣ,,株式会社,兵庫県,洲本市,本町３丁目２番１７号,,28,205,6560025,,,,,,,2024-07-08,1,,,,,オーケーシー,0
2092,7140003020776,新規,0,2024-07-08,2024-07-08,合同会社ＯＷＬ,,合同会社,兵庫県,神戸市東灘区,向洋町中５丁目１番地５２４号棟２１６号室,,28,101,6580032,,,,,,,2024-07-08,1,,,,,オーダブリュエル,0
2093,7140003020784,新規,0,2024-07-08,2024-07-08,合同会社西川,,合同会社,兵庫県,西宮市,産所町１番１７－５０１号,,28,204,6620978,,,,,,,2024-07-08,1,,,,,ニシカワ,0
2100,7160003003226,新規,0,2024-07-08,2024-07-08,Ｎアシスト合同会社,,合同会社,滋賀県,大津市,茶が崎６－２－１５０７,,25,201,5200023,,,,,,,2024-07-08,1,,,,,エヌアシスト,0
2106,7180001162311,新規,0,2024-07-08,2024-07-08,株式会社夏めく,,株式会社,愛知県,名古屋市中区,栄２丁目２番１号広小路伏見中駒ビル５Ｆ,,23,106,4600008,,,,,,,2024-07-08,1,,,,,ナツメク,0
2112,7180005020696,新規,0,2024-07-08,2024-07-08,一般社団法人ＧＡＧＡホールディングス,,その他の設立登記法人,愛知県,名古屋市中区,錦１丁目１０番２０号,,23,106,4600003,,,,,,,2024-07-08,1,,,,,ガガホールディングス,0
2130,7230003002245,新規,0,2024-07-08,2024-07-08,真木電工合同会社,,合同会社,富山県,砺波市,東石丸２４番地６,,16,208,9391302,,,,,,,2024-07-08,1,,,,,マキデンコウ,0
2139,7250001020726,新規,0,2024-07-08,2024-07-08,株式会社ＴＯＳＯＮ　Ｇｒｏｕｐ,,株式会社,山口県,山陽小野田市,中川６丁目３番５号パークサイドビラ１１０号,,35,216,7560806,,,,,,,2024-07-08,1,,,,,トーソングループ,0
2143,7260003004809,新規,0,2024-07-08,2024-07-08,ＤｒｅａｍＦｏｒｇｅ合同会社,,合同会社,岡山県,倉敷市,上富井６２８－１７２Ａ＋Ｂアパートメント２０５,,33,202,7100846,,,,,,,2024-07-08,1,,,,,ドリームフォージ,0
2146,7280003001861,新規,0,2024-07-08,2024-07-08,トヨチ合同会社,,合同会社,島根県,益田市,下本郷町１１３７‐７,,32,204,6980002,,,,,,,2024-07-08,1,,,,,トヨチ,0
2148,7290003015547,新規,0,2024-07-08,2024-07-08,合同会社ＵＫＳ,,合同会社,福岡県,福岡市博多区,博多駅東１丁目１番３３号はかた近代ビル７階Ｋ２－１号,,40,132,8120013,,,,,,,2024-07-08,1,,,,,ユーケイエス,0
2150,7290801030689,新規,0,2024-07-08,2024-07-08,株式会社山本林業,,株式会社,福岡県,田川郡添田町,大字野田１６４８番地,,40,602,8240604,,,,,,,2024-07-08,1,,,,,ヤマモトリンギョウ,0
2158,7340003004536,新規,0,2024-07-08,2024-07-08,合同会社グレイトフルデイズ,,合同会社,鹿児島県,鹿児島市,宇宿９丁目１１番６号大城ビル２０１号,,46,201,8900073,,,,,,,2024-07-08,1,,,,,グレイトフルデイズ,0
2161,7340005009756,新規,0,2024-07-08,2024-07-08,一般社団法人かごしまメンタルキャリアパートナー,,その他の設立登記法人,鹿児島県,鹿児島市,明和２丁目２５番１０号,,46,201,8900024,,,,,,,2024-07-08,1,,,,,カゴシマメンタルキャリアパートナー,0
2162,7350001019056,新規,0,2024-07-08,2024-07-08,株式会社ヤマサキ設備,,株式会社,宮崎県,日向市,比良町４丁目７３番地,,45,206,8830031,,,,,,,2024-07-08,1,,,,,ヤマサキセツビ,0
2163,7350003004691,新規,0,2024-07-08,2024-07-08,合同会社エクストリームＫ２,,合同会社,宮崎県,児湯郡高鍋町,大字北高鍋３１９２番地３,,45,401,8840002,,,,,,,2024-07-08,1,,,,,エクストリームケイツー,0
2164,7350005006240,新規,0,2024-07-08,2024-07-08,一般社団法人相続手続サポート宮崎,,その他の設立登記法人,宮崎県,宮崎市,大島町馬場尻１８８７番地１５,,45,201,8800824,,,,,,,2024-07-08,1,,,,,ソウゾクテツヅキサポートミヤザキ,0
2175,7360003014129,新規,0,2024-07-08,2024-07-08,合同会社ＫＮプラン,,合同会社,沖縄県,宜野湾市,赤道１丁目１２番３号,,47,205,9012205,,,,,,,2024-07-08,1,,,,,ケーエヌプラン,0
2188,7410001013861,新規,0,2024-07-08,2024-07-08,株式会社Ａ’ｓ,,株式会社,秋田県,秋田市,新屋朝日町１４－１２メゾンサンライズ１０１,,05,201,0101613,,,,,,,2024-07-08,1,,,,,アズ,0
2190,7420001018793,新規,0,2024-07-08,2024-07-08,ＡＹ株式会社,,株式会社,青森県,十和田市,大字三本木字下平９４番地１,,02,206,0340001,,,,,,,2024-07-08,1,,,,,,0
2203,7450003002512,新規,0,2024-07-08,2024-07-08,合同会社ｃｏｍｏｒｉ,,合同会社,北海道,上川郡剣淵町,東町３０２４番地,,01,465,0980341,,,,,,,2024-07-08,1,,,,,コモリ,0
2204,7450005004416,新規,0,2024-07-08,2024-07-08,特定非営利活動法人ミナといかん,,その他の設立登記法人,北海道,天塩郡幌延町,字問寒別３５番地,,01,520,0982943,,,,,,,2024-07-08,1,,,,,ミナトイカン,0
2207,7470003002675,新規,0,2024-07-08,2024-07-08,合同会社ＳＯＬＡＣＩＡ,,合同会社,香川県,丸亀市,飯山町真時１６９番地,,37,202,7620086,,,,,,,2024-07-08,1,,,,,ソラシア,0
2212,7700150126063,新規,0,2024-07-08,2024-06-19,ほことり総合企画ＬＭＯ広島,,その他,広島県,広島市安芸区,中野５丁目２０－２,,34,107,7390321,,,,,,,2024-06-19,1,,,,,ホコトリソウゴウキカクエルモヒロシマ,0
2213,7700150126402,新規,0,2024-07-08,2024-07-08,Ｔｈｅ　Ｃａｒ　Ｌａｎｄ,,外国会社等,千葉県,茂原市,大芝４９番地１６,,12,210,2970033,スリランカ民主社会主義共和国、ガンポラ、パナボッカマワタ、Ｎｏ．１３,,,,,,2024-07-08,1,,,,,ザカーランド,0
2234,8010001246336,新規,0,2024-07-08,2024-07-08,株式会社ＳｅｅｄＰａｔｈ,,株式会社,東京都,千代田区,二番町９番地３,,13,101,1020084,,,,,,,2024-07-08,1,,,,,シードパス,0
2252,8010403032945,新規,0,2024-07-08,2024-07-08,ホリーズ合同会社,,合同会社,東京都,港区,南青山３丁目１番３６号青山丸竹ビル６Ｆ,,13,103,1070062,,,,,,,2024-07-08,1,,,,,ホリーズ,0
2258,8010601065516,新規,0,2024-07-08,2024-07-08,株式会社スペースエージェント,,株式会社,東京都,江東区,富岡１丁目９番６号,,13,108,1350047,,,,,,,2024-07-08,1,,,,,スペースエージェント,0
2263,8010701046242,新規,0,2024-07-08,2024-07-08,株式会社ＣＩＬＨＵＢ,,株式会社,東京都,品川区,上大崎１丁目１番１７号プライムメゾン白金台タワー６０２,,13,109,1410021,,,,,,,2024-07-08,1,,,,,シールハブ,0
2269,8010901055596,新規,0,2024-07-08,2024-07-08,株式会社けやきエステートマネジメント,,株式会社,東京都,世田谷区,奥沢３丁目２０番１７号,,13,112,1580083,,,,,,,2024-07-08,1,,,,,ケヤキエステートマネジメント,0
2270,8010901055605,新規,0,2024-07-08,2024-07-08,株式会社ＳＡＫ,,株式会社,東京都,世田谷区,上北沢５丁目３９番９号,,13,112,1560057,,,,,,,2024-07-08,1,,,,,エスエイケイ,0
2273,8010903009195,新規,0,2024-07-08,2024-07-08,合同会社シンカロ,,合同会社,東京都,世田谷区,太子堂５丁目１１番４号,,13,112,1540004,,,,,,,2024-07-08,1,,,,,シンカロ,0
2274,8010903009204,新規,0,2024-07-08,2024-07-08,合同会社ミューネット,,合同会社,東京都,世田谷区,祖師谷３丁目３１番９号プルミエール祖師谷１０３,,13,112,1570072,,,,,,,2024-07-08,1,,,,,ミューネット,0
2281,8011001163133,新規,0,2024-07-08,2024-07-08,株式会社武蔵野,,株式会社,東京都,渋谷区,渋谷２丁目１９番１５号宮益坂ビルディング６０９,,13,113,1500002,,,,,,,2024-07-08,1,,,,,ムサシノ,0
2282,8011001163199,新規,0,2024-07-08,2024-07-08,株式会社ＨＩＧＥ,,株式会社,東京都,渋谷区,渋谷２丁目１９番１５号宮益坂ビルディング６０９,,13,113,1500002,,,,,,,2024-07-08,1,,,,,ヒゲ,0
2287,8011101107865,新規,0,2024-07-08,2024-07-08,Ｓｋｙｌｌｅｎ資産管理株式会社,,株式会社,東京都,新宿区,四谷三栄町１１番１６号ＳｋｙｌｌｅｎＪＰ新宿,,13,104,1600008,,,,,,,2024-07-08,1,,,,,スカイレンシサンカンリ,0
2288,8011103014647,新規,0,2024-07-08,2024-07-08,ＭＲＰ合同会社,,合同会社,東京都,新宿区,高田馬場４丁目３１番２号,,13,104,1690075,,,,,,,2024-07-08,1,,,,,エムアールピー,0
2289,8011103014655,新規,0,2024-07-08,2024-07-08,ＴＫ　ＷＯＲＫＳ合同会社,,合同会社,東京都,新宿区,西新宿６丁目１２番６－８０９号,,13,104,1600023,,,,,,,2024-07-08,1,,,,,ティーケーワークス,0
2290,8011103014663,新規,0,2024-07-08,2024-07-08,合同会社木精社,,合同会社,東京都,新宿区,若葉２丁目８,,13,104,1600011,,,,,,,2024-07-08,1,,,,,モクセイシャ,0
2291,8011105011089,新規,0,2024-07-08,2024-07-08,一般社団法人ジェイ・エイチ・ティー,,その他の設立登記法人,東京都,新宿区,下宮比町１番４号,,13,104,1620822,,,,,,,2024-07-08,1,,,,,ジェイエイチティー,0
2295,8011303005231,新規,0,2024-07-08,2024-07-08,合同会社ｏｒａｎｇｅ,,合同会社,東京都,杉並区,高円寺南３丁目１－１２,,13,115,1660003,,,,,,,2024-07-08,1,,,,,,0
2305,8012301013977,新規,0,2024-07-08,2024-07-08,株式会社ＢｅＬＬＥ　ＳｏｕＲｉｒｅ,,株式会社,東京都,町田市,南町田２丁目３－２７アレグリーア１－Ｂ,,13,209,1940005,,,,,,,2024-07-08,1,,,,,ベルスリール,0
2306,8012301013985,新規,0,2024-07-08,2024-07-08,株式会社アルク,,株式会社,東京都,町田市,原町田６丁目２１番１８号,,13,209,1940013,,,,,,,2024-07-08,1,,,,,アルク,0
2309,8012801023311,新規,0,2024-07-08,2024-07-08,セールスボンド株式会社,,株式会社,東京都,国分寺市,西町３丁目７－３１,,13,214,1850035,,,,,,,2024-07-08,1,,,,,セールスボンド,0
2312,8013301052775,新規,0,2024-07-08,2024-07-08,株式会社ｐｌａｙ　Ａ　ｋａｒｍｏ,,株式会社,東京都,豊島区,南池袋１丁目２６番６号エス・エイチ・ワン６階,,13,116,1710022,,,,,,,2024-07-08,1,,,,,プレイアカーモ,0
2319,8020001158002,新規,0,2024-07-08,2024-07-08,ＢＲＩＮＫジャパン株式会社,,株式会社,神奈川県,横浜市緑区,長津田１丁目２２番４１５,,14,113,2260027,,,,,,,2024-07-08,1,,,,,ブリンクジャパン,0
2320,8020001158010,新規,0,2024-07-08,2024-07-08,株式会社点から線に,,株式会社,神奈川県,横浜市中区,山手町４－１０,,14,104,2310862,,,,,,,2024-07-08,1,,,,,テンカラセンニ,0
2321,8020001158027,新規,0,2024-07-08,2024-07-08,株式会社ファストコーティアス,,株式会社,神奈川県,横浜市泉区,白百合１丁目１５番３号,,14,116,2450005,,,,,,,2024-07-08,1,,,,,ファストコーティアス,0
2328,8021001082687,新規,0,2024-07-08,2024-07-08,株式会社ＨＷＳ,,株式会社,神奈川県,横須賀市,馬堀町２丁目２３番１３号,,14,201,2390802,,,,,,,2024-07-08,1,,,,,エイチダブルエス,0
2330,8021003014738,新規,0,2024-07-08,2024-07-08,合同会社ＲＵＢＹ,,合同会社,神奈川県,藤沢市,片瀬３丁目２－１９－２０１,,14,205,2510032,,,,,,,2024-07-08,1,,,,,ルビー,0
2331,8021005013143,新規,0,2024-07-08,2024-07-08,ＡＳＫ税理士法人,,その他の設立登記法人,神奈川県,伊勢原市,伊勢原２丁目１番１号伊勢原ビル４階,,14,214,2591131,,,,,,,2024-07-08,1,,,,,アスク,0
2337,8030001161203,新規,0,2024-07-08,2024-07-08,株式会社フォックスバイト,,株式会社,埼玉県,さいたま市桜区,大字神田２２３番地２,,11,106,3380812,,,,,,,2024-07-08,1,,,,,フォックスバイト,0
2338,8030001161260,新規,0,2024-07-08,2024-07-08,株式会社Ｔｅｃ東彩,,株式会社,埼玉県,越谷市,越ヶ谷５丁目４番４７号,,11,222,3430813,,,,,,,2024-07-08,1,,,,,テックトウサイ,0
2339,8030001161293,新規,0,2024-07-08,2024-07-08,株式会社ＡＮＤ,,株式会社,埼玉県,さいたま市北区,日進町２丁目１０９９番地,,11,102,3310823,,,,,,,2024-07-08,1,,,,,アンド,0
2340,8030001161368,新規,0,2024-07-08,2024-07-08,株式会社ｖｉｅｒｋａｎｔ,,株式会社,埼玉県,飯能市,大字川寺４１－５ロイヤルレジデンス２０３,,11,209,3570044,,,,,,,2024-07-08,1,,,,,ヴィアカント,0
2345,8030003024606,新規,0,2024-07-08,2024-07-08,合同会社アシスト,,合同会社,埼玉県,吉川市,きよみ野５丁目６番地１６,,11,243,3420058,,,,,,,2024-07-08,1,,,,,アシスト,0
2358,8040001134323,新規,0,2024-07-08,2024-07-08,株式会社岡島電気,,株式会社,千葉県,野田市,なみき３丁目３４番１３号,,12,208,2700229,,,,,,,2024-07-08,1,,,,,オカジマデンキ,0
2359,8040001134422,新規,0,2024-07-08,2024-07-08,株式会社マウ・マハロ,,株式会社,千葉県,館山市,佐野１８４番地,,12,205,2940225,,,,,,,2024-07-08,1,,,,,マウマハロ,0
2360,8040001134439,新規,0,2024-07-08,2024-07-08,株式会社ＢＥＬＡＤＹ,,株式会社,千葉県,我孫子市,若松１４２番地の１,,12,222,2701147,,,,,,,2024-07-08,1,,,,,ビーレディ,0
2361,8040001134455,新規,0,2024-07-08,2024-07-08,株式会社Ｌｅａｆｅｓｔ,,株式会社,千葉県,千葉市緑区,あすみが丘２丁目２６番地８,,12,105,2670066,,,,,,,2024-07-08,1,,,,,リーフェスト,0
2367,8040003025355,新規,0,2024-07-08,2024-07-08,合同会社ｃｕｒｉｏｓｉｔｙ,,合同会社,千葉県,船橋市,本町５丁目２番３号Ｓｈｏｔｏ弐番館１階,,12,204,2730005,,,,,,,2024-07-08,1,,,,,キュリオシティ,0
2368,8040003025363,新規,0,2024-07-08,2024-07-08,ストックサポート合同会社,,合同会社,千葉県,千葉市中央区,大森町４６４番地２３,,12,101,2600811,,,,,,,2024-07-08,1,,,,,ストックサポート,0
2370,8050001055048,新規,0,2024-07-08,2024-07-08,株式会社Ｎ．Ｓ．ＧＬＵＣＫ,,株式会社,茨城県,結城郡八千代町,大字若１７２５番地４,,08,521,3003544,,,,,,,2024-07-08,1,,,,,エヌエスグルック,0
2371,8050001055064,新規,0,2024-07-08,2024-07-08,ＭＩＲＡＩ　ＪＡＰＡＮ株式会社Ｌｉｆｅ　Ｏｆｆｉｃｅ,,株式会社,茨城県,牛久市,さくら台２丁目１５番地１９,,08,219,3001217,,,,,,,2024-07-08,1,,,,,ミライジャパンライフオギス,0
2372,8050001055080,新規,0,2024-07-08,2024-07-08,株式会社てらやま不動産,,株式会社,茨城県,ひたちなか市,大字中根２３３３番地,,08,221,3120011,,,,,,,2024-07-08,1,,,,,テラヤマフドウサン,0
2375,8060001037268,新規,0,2024-07-08,2024-07-08,株式会社真友技建,,株式会社,栃木県,宇都宮市,砥上町３３７番地３９,,09,201,3200856,,,,,,,2024-07-08,1,,,,,シンユウギケン,0
2379,8070001041921,新規,0,2024-07-08,2024-07-08,株式会社増村酒販,,株式会社,群馬県,高崎市,問屋町西１丁目４番地１０,,10,202,3700007,,,,,,,2024-07-08,1,,,,,マスムラシュハン,0
2387,8110001038541,新規,0,2024-07-08,2024-07-08,株式会社彌角,,株式会社,新潟県,新潟市中央区,南浜通１番町３７２番地９,,15,103,9518112,,,,,,,2024-07-08,1,,,,,ミカド,0
2404,8120001266414,新規,0,2024-07-08,2024-07-08,株式会社テサム,,株式会社,大阪府,大阪市淀川区,十三本町１丁目１６番２０号,,27,123,5320024,,,,,,,2024-07-08,1,,,,,テサム,0
2405,8120001266447,新規,0,2024-07-08,2024-07-08,Ｔ．Ｔ株式会社,,株式会社,大阪府,大阪市東住吉区,山坂３丁目６番２１号,,27,121,5460035,,,,,,,2024-07-08,1,,,,,ティーティー,0
2406,8120001266538,新規,0,2024-07-08,2024-07-08,株式会社Ｔａｔｅ,,株式会社,大阪府,大阪市西淀川区,佃４丁目７番２２号,,27,113,5550001,,,,,,,2024-07-08,1,,,,,タテ,0
2407,8120001266554,新規,0,2024-07-08,2024-07-08,株式会社エルフォレスト,,株式会社,大阪府,大阪市平野区,流町２丁目４番７号,,27,126,5470032,,,,,,,2024-07-08,1,,,,,エルフォレスト,0
2408,8120001266562,新規,0,2024-07-08,2024-07-08,ＵＣ株式会社,,株式会社,大阪府,大阪市都島区,東野田町４丁目４番６号,,27,102,5340024,,,,,,,2024-07-08,1,,,,,ユーシー,0
2409,8120001266595,新規,0,2024-07-08,2024-07-08,久順合株式会社,,株式会社,大阪府,大阪市城東区,東中浜９丁目８番２６号１０１号室,,27,118,5360023,,,,,,,2024-07-08,1,,,,,キュウジュンゴウ,0
2410,8120001266637,新規,0,2024-07-08,2024-07-08,株式会社ＢＬｉＴＺ　ＥＮＴＥＲＴＡＩＮＭＥＮＴ,,株式会社,大阪府,門真市,三ツ島６丁目９番２６号,,27,223,5710015,,,,,,,2024-07-08,1,,,,,ブリッツエンターテイメント,0
2412,8120005024413,新規,0,2024-07-08,2024-07-08,医療法人琉心会,,その他の設立登記法人,大阪府,大阪市東成区,中道３丁目１６番１５号ソレアード玉造１階,,27,115,5370025,,,,,,,2024-07-08,1,,,,,リュウシンカイ,0
2415,8120101069907,新規,0,2024-07-08,2024-07-08,株式会社三一製作所,,株式会社,大阪府,松原市,小川５丁目２８番１８号,,27,217,5800002,,,,,,,2024-07-08,1,,,,,サンイチセイサクショ,0
2417,8120103005934,新規,0,2024-07-08,2024-07-08,合同会社ファーストオーダー,,合同会社,大阪府,富田林市,若松町西３丁目１５５６－１－１０２号ｔｉｒｏｉｒ内,,27,214,5840025,,,,,,,2024-07-08,1,,,,,ファーストオーダー,0
2422,8122001038231,新規,0,2024-07-08,2024-07-08,株式会社ＭＨ,,株式会社,大阪府,東大阪市,中石切町４丁目５番９号,,27,227,5798014,,,,,,,2024-07-08,1,,,,,エムエイチ,0
2426,8130001077439,新規,0,2024-07-08,2024-07-08,株式会社Ｍｏｖｉｅ　Ｐｅｎｇｕｉｎ,,株式会社,京都府,京都市下京区,下諏訪町３６０番地１階,,26,106,6008163,,,,,,,2024-07-08,1,,,,,ムービーペンギン,0
2438,8140003020791,新規,0,2024-07-08,2024-07-08,合同会社ＨＯＥ,,合同会社,兵庫県,神戸市垂水区,舞多聞西２丁目７番１６号,,28,108,6550051,,,,,,,2024-07-08,1,,,,,エイチオーイー,0
2441,8150001027417,新規,0,2024-07-08,2024-07-08,株式会社ＦＵＮＩＴＹ２,,株式会社,奈良県,大和高田市,大字大中１３９番地３,,29,202,6350095,,,,,,,2024-07-08,1,,,,,ファニティーツー,0
2452,8180001162277,新規,0,2024-07-08,2024-07-08,株式会社中日ビジネス,,株式会社,愛知県,名古屋市中区,上前津１丁目４番１０号,,23,106,4600013,,,,,,,2024-07-08,1,,,,,チュウニチビジネス,0
2461,8200001042682,新規,0,2024-07-08,2024-07-08,株式会社スリープラス,,株式会社,岐阜県,岐阜市,福富町田２６２番地３,,21,201,5012567,,,,,,,2024-07-08,1,,,,,スリープラス,0
2463,8200005013639,新規,0,2024-07-08,2024-07-08,一般社団法人セラミックバレー協議会,,その他の設立登記法人,岐阜県,多治見市,旭ケ丘１０丁目６番地の５５,,21,204,5070071,,,,,,,2024-07-08,1,,,,,セラミックバレーキョウギカイ,0
2464,8210001019820,新規,0,2024-07-08,2024-07-08,株式会社栄漁丸,,株式会社,福井県,丹生郡越前町,梅浦第８４号３番地２,,18,423,9160311,,,,,,,2024-07-08,1,,,,,エイリョウマル,0
2475,8260001039236,新規,0,2024-07-08,2024-07-08,株式会社Ｋｉｂｏｕ　ｔｏ　Ｙｕｕｋｉ,,株式会社,岡山県,倉敷市,玉島上成５５９番地１２,,33,202,7138101,,,,,,,2024-07-08,1,,,,,キボウトユウキ,0
2482,8290001106306,新規,0,2024-07-08,2024-07-08,株式会社ＵＥＤＡホールディングス,,株式会社,福岡県,福岡市博多区,中洲３丁目７番２４号ゲイツビル８階,,40,132,8100801,,,,,,,2024-07-08,1,,,,,ウエダホールディングス,0
2491,8350001019055,新規,0,2024-07-08,2024-07-08,株式会社パルレーザー,,株式会社,宮崎県,日向市,大字富高２２番地１０,,45,206,8830034,,,,,,,2024-07-08,1,,,,,パルレーザー,0
2492,8350001019063,新規,0,2024-07-08,2024-07-08,横井産業株式会社,,株式会社,宮崎県,東臼杵郡門川町,宮ケ原１丁目６７番地１,,45,421,8890623,,,,,,,2024-07-08,1,,,,,ヨコイサンギョウ,0
2494,8350003004690,新規,0,2024-07-08,2024-07-08,ＨＯＫＵＬＥＡ　ＷＥＬＬＮＥＳＳ　ＤＥＳＩＧＮ合同会社,,合同会社,宮崎県,宮崎市,大字加江田７３０３番地２,,45,201,8892161,,,,,,,2024-07-08,1,,,,,ホクレアウェルネスデザイン,0
2496,8360001033897,新規,0,2024-07-08,2024-07-08,株式会社比嘉工業,,株式会社,沖縄県,名護市,字済井出４４番地,,47,209,9051635,,,,,,,2024-07-08,1,,,,,ヒガコウギョウ,0
2498,8370001051477,新規,0,2024-07-08,2024-07-08,株式会社ニューファーム山元,,株式会社,宮城県,亘理郡山元町,高瀬字室原３２番地,00135497,04,362,9892202,,,,,,,2024-07-08,1,,,,,ニューファームヤマモト,0
2509,8420001018792,新規,0,2024-07-08,2024-07-08,株式会社貴田建装,,株式会社,青森県,北津軽郡鶴田町,大字鶴田字沖津１２５番地８,,02,384,0383503,,,,,,,2024-07-08,1,,,,,キダケンソウ,0
2521,8460101007568,新規,0,2024-07-08,2024-07-08,株式会社ほんべつＳＥＥＤ,,株式会社,北海道,中川郡本別町,北５丁目１番地,,01,646,0893334,,,,,,,2024-07-08,1,,,,,ホンベツシード,0
2522,8470001020281,新規,0,2024-07-08,2024-07-08,株式会社奏心,,株式会社,香川県,高松市,香川町大野２２０６番地３９,,37,201,7611701,,,,,,,2024-07-08,1,,,,,ソウシン,0
2527,8700150126401,新規,0,2024-07-08,2024-07-08,ＡＮ　ＮＯＯＲ　ＩＮＴＥＲＮＡＴＩＯＮＡＬ　ＰＶＴ　ＬＴＤ,,外国会社等,千葉県,大網白里市,細草３１７４番地２,,12,239,2993211,スリランカ民主社会主義共和国、キャンディ、アクラナ、ドダンゴラ、Ｎｏ．１９７／７,,,,,,2024-07-08,1,,,,,アンヌールインターナシヨナルプライベートリミテツド,0
2545,9010001246319,新規,0,2024-07-08,2024-07-08,株式会社ＢＤＩ,,株式会社,東京都,千代田区,丸の内１丁目８番３号丸の内トラストタワー本館２０階,,13,101,1000005,,,,,,,2024-07-08,1,,,,,ビーディーアイ,0
2546,9010001246335,新規,0,2024-07-08,2024-07-08,株式会社グローバルリンク,,株式会社,東京都,千代田区,鍛冶町１丁目５番４号神田ＮＡビル７Ｆ,,13,101,1010044,,,,,,,2024-07-08,1,,,,,グローバルリンク,0
2548,9010003044258,新規,0,2024-07-08,2024-07-08,合同会社ｈｏｔａｒｕ１,,合同会社,東京都,千代田区,一ツ橋２丁目６番３号アクシスインベストメントアドバイザーズ株式会社内,,13,101,1010003,,,,,,,2024-07-08,1,,,,,ホタルワン,0
2549,9010003044266,新規,0,2024-07-08,2024-07-08,東池袋プロパティー合同会社,,合同会社,東京都,千代田区,丸の内１丁目１１番１号,,13,101,1000005,,,,,,,2024-07-08,1,,,,,ヒガシイケブクロプロパティー,0
2566,9010401183566,新規,0,2024-07-08,2024-07-08,レインボーレゾナンス株式会社,,株式会社,東京都,港区,北青山１丁目３番１号アールキューブ青山３階,,13,103,1070061,,,,,,,2024-07-08,1,,,,,レインボーレゾナンス,0
2578,9010601065473,新規,0,2024-07-08,2024-07-08,株式会社Ｎ　Ｃｏｎｎｅｃｔ,,株式会社,東京都,墨田区,横川４丁目１番３号アーデル錦糸町アミュース５０９号,,13,107,1300003,,,,,,,2024-07-08,1,,,,,エヌコネクト,0
2579,9010601065498,新規,0,2024-07-08,2024-07-08,株式会社ＲＩＺＥ　ＷＯＲＫＳ,,株式会社,東京都,江東区,千石１丁目９番２２号,,13,108,1350015,,,,,,,2024-07-08,1,,,,,ライズワークス,0
2580,9010601065515,新規,0,2024-07-08,2024-07-08,悦道株式会社,,株式会社,東京都,墨田区,両国２丁目１７番１７号両国ダイヤハイツ２０２－Ｙ,,13,107,1300026,,,,,,,2024-07-08,1,,,,,エツドウ,0
2585,9010903009186,新規,0,2024-07-08,2024-07-08,合同会社国立建物,,合同会社,東京都,世田谷区,上用賀５丁目２２番３号,,13,112,1580098,,,,,,,2024-07-08,1,,,,,クニタチタテモノ,0
2594,9011001163223,新規,0,2024-07-08,2024-07-08,ニポティカ株式会社,,株式会社,東京都,渋谷区,恵比寿４丁目２０－４ガーデンプレイスグラススクエアＰｏｒｔａｌＰｏｉｎｔＥｂｉｓｕＦＤ－０２,,13,113,1500013,,,,,,,2024-07-08,1,,,,,ニポティカ,0
2595,9011001163231,新規,0,2024-07-08,2024-07-08,株式会社プライムパートナー,,株式会社,東京都,目黒区,下目黒１丁目２番２２－６０４号,,13,110,1530064,,,,,,,2024-07-08,1,,,,,プライムパートナー,0
2596,9011001163248,新規,0,2024-07-08,2024-07-08,株式会社ＦＩＬＬ　ＵＰ,,株式会社,東京都,渋谷区,本町３丁目５１番１７‐５０８プラウド渋谷本町,,13,113,1510071,,,,,,,2024-07-08,1,,,,,フィルアップ,0
2598,9011003019530,新規,0,2024-07-08,2024-07-08,Ｇｒａｙｓｃａｌｅ合同会社,,合同会社,東京都,渋谷区,恵比寿西２丁目８番４号ＥＸ恵比寿西ビル５階,,13,113,1500021,,,,,,,2024-07-08,1,,,,,グレイスケール,0
2603,9011101107864,新規,0,2024-07-08,2024-07-08,Ｓｋｙｌｌｅｎ貿易株式会社,,株式会社,東京都,新宿区,四谷三栄町１１番１６号ＳｋｙｌｌｅｎＪＰ新宿,,13,104,1600008,,,,,,,2024-07-08,1,,,,,スカイレンボウエキ,0
2604,9011101107947,新規,0,2024-07-08,2024-07-08,株式会社アクティビオ,,株式会社,東京都,新宿区,高田馬場２丁目１番２号,,13,104,1690075,,,,,,,2024-07-08,1,,,,,,0
2605,9011101107955,新規,0,2024-07-08,2024-07-08,ＡｉＳｈｏｗ株式会社,,株式会社,東京都,新宿区,西新宿６丁目２１番１,,13,104,1600023,,,,,,,2024-07-08,1,,,,,アイショー,0
2606,9011101107971,新規,0,2024-07-08,2024-07-08,株式会社Ｍ＆Ｓ,,株式会社,東京都,新宿区,富久町２－２３,,13,104,1620067,,,,,,,2024-07-08,1,,,,,エムアンドエス,0
2608,9011103014646,新規,0,2024-07-08,2024-07-08,Ｐｏｎｄｅｒｏｓａ合同会社,,合同会社,東京都,新宿区,百人町３丁目１１番１号,,13,104,1690073,,,,,,,2024-07-08,1,,,,,ポンデローサ,0
2609,9011103014662,新規,0,2024-07-08,2024-07-08,合同会社にこしん神楽坂,,合同会社,東京都,新宿区,東五軒町２－２－８０３,,13,104,1620813,,,,,,,2024-07-08,1,,,,,ニコシンカグラザカ,0
2610,9011105011088,新規,0,2024-07-08,2024-07-08,一般社団法人ジェイ・エイチ・エス,,その他の設立登記法人,東京都,新宿区,下宮比町１番４号,,13,104,1620822,,,,,,,2024-07-08,1,,,,,ジェイエイチエス,0
2612,9011301029818,新規,0,2024-07-08,2024-07-08,株式会社米倉デザイン室,,株式会社,東京都,杉並区,善福寺１丁目２番６号ＳＬＩＤＥ西荻Ｉ,00135501,13,115,1670041,,,,,,,2024-07-08,1,,,,,ヨネクラデザインシツ,0
2613,9011301029826,新規,0,2024-07-08,2024-07-08,株式会社ｔｈｅｒｅｉｓｒａｍｅｎ,,株式会社,東京都,杉並区,天沼３丁目１０－１６,,13,115,1670032,,,,,,,2024-07-08,1,,,,,,0
2615,9011501030897,新規,0,2024-07-08,2024-07-08,株式会社インタービズ,,株式会社,東京都,荒川区,東尾久１丁目３０－４まる温ビル２Ｆ,,13,118,1160012,,,,,,,2024-07-08,1,,,,,インタービズ,0
2617,9011601027876,新規,0,2024-07-08,2024-07-08,株式会社ギャラリーアルタミラ,,株式会社,東京都,練馬区,関町北１丁目１０番１７号,,13,120,1770051,,,,,,,2024-07-08,1,,,,,ギャラリーアルタミラ,0
2619,9011803006323,新規,0,2024-07-08,2024-07-08,Ｙ．Ｌ合同会社,,合同会社,東京都,葛飾区,東金町１丁目２０番１４号吉六ビル２０２号室,,13,122,1250041,,,,,,,2024-07-08,1,,,,,ワイエル,0
2620,9012301013984,新規,0,2024-07-08,2024-07-08,Ｔａｎｇｌｅｗｏｏｄ株式会社,,株式会社,東京都,町田市,広袴３丁目１８番地１,,13,209,1950056,,,,,,,2024-07-08,1,,,,,タングルウッド,0
2626,9020001157993,新規,0,2024-07-08,2024-07-08,株式会社ＫＢインベスト,,株式会社,神奈川県,横浜市中区,福富町西通３番８,,14,104,2310042,,,,,,,2024-07-08,1,,,,,ケービーインベスト,0
2627,9020001158026,新規,0,2024-07-08,2024-07-08,株式会社産学連携センター,,株式会社,神奈川県,川崎市幸区,戸手４丁目３番８－４０７号,,14,132,2120005,,,,,,,2024-07-08,1,,,,,サンガクレンケイセンター,0
2634,9021001082678,新規,0,2024-07-08,2024-07-08,株式会社品川住建,,株式会社,神奈川県,大和市,南林間１丁目８番１７号レントールビル３Ｄ,,14,213,2420006,,,,,,,2024-07-08,1,,,,,シナガワジュウケン,0
2635,9021001082686,新規,0,2024-07-08,2024-07-08,株式会社ボルドブレイン,,株式会社,神奈川県,大和市,つきみ野１丁目１番地８デュオヒルズ中央林間９０５号,,14,213,2420002,,,,,,,2024-07-08,1,,,,,ボルドブレイン,0
2637,9021005013150,新規,0,2024-07-08,2024-07-08,一般社団法人ワカバトラスト,,その他の設立登記法人,神奈川県,厚木市,下荻野５４４番地５,,14,212,2430203,,,,,,,2024-07-08,1,,,,,ワカバトラスト,0
2644,9030001161227,新規,0,2024-07-08,2024-07-08,株式会社未来インターナショナルサービス,,株式会社,埼玉県,川口市,川口４丁目８番７号アシスト２－２０２号,,11,203,3320015,,,,,,,2024-07-08,1,,,,,ミライインターナショナルサービス,0
2645,9030001161235,新規,0,2024-07-08,2024-07-08,株式会社ＷＯＲＫ　ＩＮ　ＡＭＥＲＩＣＡＮＡ,,株式会社,埼玉県,所沢市,大字山口１９０６－１６,,11,208,3591145,,,,,,,2024-07-08,1,,,,,ワークインアメリカーナ,0
2646,9030001161284,新規,0,2024-07-08,2024-07-08,木舩設計株式会社,,株式会社,埼玉県,川越市,大字久下戸３２８５番地,,11,201,3500011,,,,,,,2024-07-08,1,,,,,キブネセッケイ,0
2647,9030001161292,新規,0,2024-07-08,2024-07-08,株式会社デジタルツール研究所,,株式会社,埼玉県,さいたま市桜区,栄和３丁目２１番２８号,,11,106,3380823,,,,,,,2024-07-08,1,,,,,デジタルツールケンキュウジョ,0
2648,9030001161375,新規,0,2024-07-08,2024-07-08,株式会社ＫＰコーポレーション,,株式会社,埼玉県,坂戸市,仲町１２番６９号,,11,239,3500227,,,,,,,2024-07-08,1,,,,,ケーピーコーポレーション,0
2651,9030005021757,新規,0,2024-07-08,2024-07-08,一般社団法人あさかエリアデザイン,,その他の設立登記法人,埼玉県,朝霞市,本町２丁目４番２４号,,11,227,3510011,,,,,,,2024-07-08,1,,,,,アサカエリアデザイン,0
2657,9040001134322,新規,0,2024-07-08,2024-07-08,株式会社ｔｏｏ‐ｍａｋｅ,,株式会社,千葉県,市川市,南大野３丁目１８番７号,,12,203,2720804,,,,,,,2024-07-08,1,,,,,トゥーメイク,0
2658,9040001134413,新規,0,2024-07-08,2024-07-08,株式会社武田崇志,,株式会社,千葉県,船橋市,前原西１丁目２３番５号リニエージ泰和６Ｆ,,12,204,2740825,,,,,,,2024-07-08,1,,,,,タケダタカシ,0
2659,9040001134462,新規,0,2024-07-08,2024-07-08,リーフ株式会社,,株式会社,千葉県,松戸市,下矢切３５番地の７魚銀ビル２０１号,,12,207,2710096,,,,,,,2024-07-08,1,,,,,リーフ,0
2665,9040003025362,新規,0,2024-07-08,2024-07-08,合同会社サンジューサン,,合同会社,千葉県,市川市,湊３番６号,,12,203,2720131,,,,,,,2024-07-08,1,,,,,サンジューサン,0
2670,9050001055030,新規,0,2024-07-08,2024-07-08,株式会社Ｊ＆Ｋ,,株式会社,茨城県,桜川市,磯部６７６番地５,,08,231,3091457,,,,,,,2024-07-08,1,,,,,ジェーアンドケー,0
2671,9050001055039,新規,0,2024-07-08,2024-07-08,株式会社ｃｙｍｓ,,株式会社,茨城県,つくばみらい市,陽光台２丁目５番地７,,08,235,3002358,,,,,,,2024-07-08,1,,,,,サイムス,0
2672,9050001055047,新規,0,2024-07-08,2024-07-08,株式会社さくらや,,株式会社,茨城県,潮来市,潮来７２０番地,,08,223,3112424,,,,,,,2024-07-08,1,,,,,サクラヤ,0
2673,9050001055071,新規,0,2024-07-08,2024-07-08,株式会社セントラルフラワー,,株式会社,茨城県,筑西市,藤ケ谷２９１２番地,,08,227,3080112,,,,,,,2024-07-08,1,,,,,セントラルフラワー,0
2682,9070001041929,新規,0,2024-07-08,2024-07-08,株式会社高橋商事,00135498,株式会社,群馬県,伊勢崎市,上植木本町２３１４番地１０,,10,204,3720013,,,,,,,2024-07-08,1,,,,,タカハシショウジ,0
2685,9070003005493,新規,0,2024-07-08,2024-07-08,合同会社みちしるべ,,合同会社,群馬県,藤岡市,藤岡４５５番地１,,10,209,3750024,,,,,,,2024-07-08,1,,,,,ミチシルベ,0
2687,9080001026375,新規,0,2024-07-08,2024-07-08,ＨｕｅＬｉｎｋ株式会社,,株式会社,静岡県,静岡市駿河区,西島３９４番地の１,,22,102,4228045,,,,,,,2024-07-08,1,,,,,ヒューリンク,0
2688,9080101024865,新規,0,2024-07-08,2024-07-08,株式会社ＯＴＡＧＩＲＩ,,株式会社,静岡県,富士宮市,山本４６６番地の２３,,22,207,4180023,,,,,,,2024-07-08,1,,,,,,0
2689,9080101024873,新規,0,2024-07-08,2024-07-08,株式会社ＳＡＩＴＯＲＡＩ,,株式会社,静岡県,三島市,徳倉２丁目２４番２６号,,22,206,4110044,,,,,,,2024-07-08,1,,,,,サイトライ,0
2696,9110001038532,新規,0,2024-07-08,2024-07-08,株式会社ｔｗｅｌｖｅ,,株式会社,新潟県,上越市,名立区杉野瀬２１２番地,,15,222,9491611,,,,,,,2024-07-08,1,,,,,トゥエルブ,0
2712,9120001266413,新規,0,2024-07-08,2024-07-08,株式会社ＳＡＩファシリティーズ,,株式会社,大阪府,大阪市西区,北堀江２丁目４番１１号２階,,27,106,5500014,,,,,,,2024-07-08,1,,,,,エスエーアイファシリティーズ,0
2713,9120001266545,新規,0,2024-07-08,2024-07-08,ＷＹデザイン株式会社,,株式会社,大阪府,大阪市福島区,福島７丁目１８番２０－２９０２号,,27,103,5530003,,,,,,,2024-07-08,1,,,,,ダブリューワイデザイン,0
2714,9120001266553,新規,0,2024-07-08,2024-07-08,ノイコン株式会社,,株式会社,大阪府,大阪市北区,西天満１丁目１０番１６号ＫＳビル別館２階,,27,127,5300047,,,,,,,2024-07-08,1,,,,,ノイコン,0
2715,9120001266594,新規,0,2024-07-08,2024-07-08,Ｔｒａｉｌ　Ｌｉｎｅ　Ｌｏｇｉ．株式会社,,株式会社,大阪府,枚方市,池之宮２丁目２１番２７号,,27,210,5730005,,,,,,,2024-07-08,1,,,,,トレイルラインロジ,0
2716,9120001266603,新規,0,2024-07-08,2024-07-08,株式会社ＫＳＴデータ,,株式会社,大阪府,大阪市都島区,片町２丁目５－６京橋ハンエイビル３０４,,27,102,5340025,,,,,,,2024-07-08,1,,,,,ケイエスティデータ,0
2720,9120005024412,新規,0,2024-07-08,2024-07-08,社会保険労務士法人ＴＳＲ,,その他の設立登記法人,大阪府,大阪市平野区,瓜破２丁目２番５１号,,27,126,5470024,,,,,,,2024-07-08,1,,,,,,0
2724,9120101069922,新規,0,2024-07-08,2024-07-08,株式会社ホーミーズ,,株式会社,大阪府,堺市中区,田園５１０番地,,27,142,5998246,,,,,,,2024-07-08,1,,,,,ホーミーズ,0
2725,9120101069930,新規,0,2024-07-08,2024-07-08,タタ株式会社,,株式会社,大阪府,岸和田市,土生町２２９４番ネオハイツ東岸和田駅前１０２号,,27,202,5960825,,,,,,,2024-07-08,1,,,,,タタ,0
2730,9120901049438,新規,0,2024-07-08,2024-07-08,株式会社Ｓａｎｔｅ,,株式会社,大阪府,茨木市,玉島２丁目５番１３号,,27,211,5670846,,,,,,,2024-07-08,1,,,,,サンテ,0
2731,9120903005240,新規,0,2024-07-08,2024-07-08,エーピーテック合同会社,,合同会社,大阪府,吹田市,山田東１丁目３１番Ａ－９０８号,,27,205,5650821,,,,,,,2024-07-08,1,,,,,エーピーテック,0
2732,9120903005249,新規,0,2024-07-08,2024-07-08,合同会社ＩＬＵＭ,,合同会社,大阪府,吹田市,豊津町２番３０号江坂ナックビル１Ｆ,,27,205,5640051,,,,,,,2024-07-08,1,,,,,イルム,0
2734,9122005003759,新規,0,2024-07-08,2024-07-08,医療法人碧会,,その他の設立登記法人,大阪府,東大阪市,若江西新町１丁目２番３号瓜生堂クリニックビルＮＯＲＴＨ１Ｆ,,27,227,5780944,,,,,,,2024-07-08,1,,,,,ミドリカイ,0
2745,9140001135005,新規,0,2024-07-08,2024-07-08,株式会社匠建,,株式会社,兵庫県,明石市,東朝霧丘２番１３号,,28,203,6730854,,,,,,,2024-07-08,1,,,,,ショウケン,0
2746,9140001135038,新規,0,2024-07-08,2024-07-08,株式会社Ｓ＆Ｓ,,株式会社,兵庫県,三田市,中央町１１番６号２階,,28,219,6691529,,,,,,,2024-07-08,1,,,,,エスアンドエス,0
2747,9140001135046,新規,0,2024-07-08,2024-07-08,株式会社Ｊ‐Ｔｒａｎｓ,,株式会社,兵庫県,宝塚市,末成町２９番７－３０７号,,28,214,6650044,,,,,,,2024-07-08,1,,,,,ジェイトランス,0
2748,9140001135062,新規,0,2024-07-08,2024-07-08,株式会社みずなみ,,株式会社,兵庫県,加古川市,平岡町土山１５９番地の２,,28,210,6750104,,,,,,,2024-07-08,1,,,,,ミズナミ,0
2749,9140001135070,新規,0,2024-07-08,2024-07-08,アンタイフォート株式会社,,株式会社,兵庫県,西宮市,甲子園口５丁目３番６号,,28,204,6638113,,,,,,,2024-07-08,1,,,,,アンタイフォート,0
2753,9140003020790,新規,0,2024-07-08,2024-07-08,合同会社アイナハレ,,合同会社,兵庫県,神戸市垂水区,霞ヶ丘７丁目２番８号,,28,108,6550039,,,,,,,2024-07-08,1,,,,,アイナハレ,0
2755,9150001027408,新規,0,2024-07-08,2024-07-08,天理アグリ株式会社,,株式会社,奈良県,天理市,川原城町３８８番地,,29,204,6320016,,,,,,,2024-07-08,1,,,,,テンリアグリ,0
2756,9150003003308,新規,0,2024-07-08,2024-07-08,合同会社エムエス・コンパニー,,合同会社,奈良県,奈良市,東城戸町１１番地,,29,201,6308344,,,,,,,2024-07-08,1,,,,,エムエスコンパニー,0
2759,9170001018207,新規,0,2024-07-08,2024-07-08,株式会社ワンリーズ,,株式会社,和歌山県,和歌山市,直川１０７２－７,,30,201,6408481,,,,,,,2024-07-08,1,,,,,ワンリーズ,0
2764,9180001162326,新規,0,2024-07-08,2024-07-08,株式会社ソルタナ,,株式会社,愛知県,名古屋市中区,栄１丁目１８番２２号グランコート白川公園５０４号,,23,106,4600008,,,,,,,2024-07-08,1,,,,,ソルタナ,0
2771,9180005020694,新規,0,2024-07-08,2024-07-08,弁護士法人フォレスト法律事務所,,その他の設立登記法人,愛知県,名古屋市中区,丸の内３丁目１９番２３号５ｔｈＦ．Ｐ．Ｓビル４階,,23,106,4600002,,,,,,,2024-07-08,1,,,,,フォレストホウリツジムショ,0
2775,9200001042673,新規,0,2024-07-08,2024-07-08,まごころ工房株式会社,,株式会社,岐阜県,瑞浪市,釜戸町２１１７番地の５,,21,208,5096472,,,,,,,2024-07-08,1,,,,,マゴコロコウボウ,0
2776,9200001042681,新規,0,2024-07-08,2024-07-08,株式会社富士クラフト,,株式会社,岐阜県,岐阜市,琴塚１丁目８番６号,,21,201,5008222,,,,,,,2024-07-08,1,,,,,フジクラフト,0
2788,9240005015787,新規,0,2024-07-08,2024-07-08,特定非営利活動法人日本芸術文化コンソーシアム,,その他の設立登記法人,広島県,広島市東区,上温品１丁目１０番８号,,34,102,7320032,,,,,,,2024-07-08,1,,,,,ニホンゲイジュツブンカコンソーシアム,0
2802,9300001013821,新規,0,2024-07-08,2024-07-08,株式会社手塚製麺,,株式会社,佐賀県,東松浦郡玄海町,大字諸浦３７３番地７,,41,387,8471421,,,,,,,2024-07-08,1,,,,,テヅカセイメン,0
2805,9310001019099,新規,0,2024-07-08,2024-07-08,フローティング・ウィンド・アグリゲーション株式会社,,株式会社,長崎県,五島市,富江町富江１４５番地１,,42,211,8530201,,,,,,,2024-07-08,1,,,,,フローティングウィンドアグリゲーション,0
2808,9340003004534,新規,0,2024-07-08,2024-07-08,合同会社Ｉｂｉｚａ,,合同会社,鹿児島県,鹿児島市,山之口町９番２号５Ｆ,,46,201,8920844,,,,,,,2024-07-08,1,,,,,イビザ,0
2809,9350001019046,新規,0,2024-07-08,2024-07-08,株式会社Ｃｒｅｓｔ,,株式会社,宮崎県,北諸県郡三股町,大字蓼池３６０９番地５,,45,341,8891914,,,,,,,2024-07-08,1,,,,,クレスト,0
2810,9350001019062,新規,0,2024-07-08,2024-07-08,ＮＥＷ　ＣＲＥＡＴＩＯＮ株式会社,,株式会社,宮崎県,東諸県郡綾町,大字入野３３０３番地２,,45,383,8801301,,,,,,,2024-07-08,1,,,,,ニュークリエイション,0
2811,9350003004698,新規,0,2024-07-08,2024-07-08,合同会社ＳｐａｃｅＵ,,合同会社,宮崎県,宮崎市,鶴島３丁目１２１番地３,,45,201,8800014,,,,,,,2024-07-08,1,,,,,スペースユー,0
2812,9360001033913,新規,0,2024-07-08,2024-07-08,株式会社アイネット沖縄,,株式会社,沖縄県,石垣市,字新川２４２５番地２グランデ新川３０３号,,47,207,9070024,,,,,,,2024-07-08,1,,,,,アイネットオキナワ,0
2814,9360003014135,新規,0,2024-07-08,2024-07-08,合同会社ワクドキライフ,,合同会社,沖縄県,宜野湾市,嘉数１丁目４番２０号,,47,205,9012226,,,,,,,2024-07-08,1,,,,,ワクドキライフ,0
2820,9390001017673,新規,0,2024-07-08,2024-07-08,株式会社川市商事,,株式会社,山形県,上山市,高野字上河原１５６番地１,,06,207,9993115,,,,,,,2024-07-08,1,,,,,カワイチショウジ,0
2821,9390003002260,新規,0,2024-07-08,2024-07-08,合同会社勝弘,,合同会社,山形県,酒田市,北俣字仁助新田１１１番地の２仁助新田団地６０７号,,06,204,9996741,,,,,,,2024-07-08,1,,,,,カツヒロ,0
2833,9430005015017,新規,0,2024-07-08,2024-07-08,一般社団法人北海道終活・遺言支援協会,,その他の設立登記法人,北海道,札幌市中央区,南二条西９丁目１番地１１カサトレスネオ５０５号,,01,101,0600062,,,,,,,2024-07-08,1,,,,,ホッカイドウシュウカツユイゴンシエンキョウカイ,0
2836,9470001020272,新規,0,2024-07-08,2024-07-08,株式会社ＹＣパートナー,,株式会社,香川県,高松市,屋島東町１０９５番地２５９,,37,201,7610111,,,,,,,2024-07-08,1,,,,,ワイシーパートナー,0
2839,9500001025730,新規,0,2024-07-08,2024-07-08,株式会社ＮｏｒｔｈＲｉｖｅｒ,,株式会社,愛媛県,北宇和郡鬼北町,大字北川４６７番地１,,38,488,7981354,,,,,,,2024-07-08,1,,,,,ノースリバー,0
2840,9500001025739,新規,0,2024-07-08,2024-07-08,株式会社サード旅行社,,株式会社,愛媛県,西条市,大野３９５番地１３,,38,206,7991312,,,,,,,2024-07-08,1,,,,,サードリョコウシャ,0
2841,9500005008715,新規,0,2024-07-08,2024-07-08,労働者協同組合やさしいまちづくり総合研究所,,その他の設立登記法人,愛媛県,伊予市,灘町１２３番地,,38,210,7993114,,,,,,,2024-07-08,1,,,,,ヤサシイマチヅクリソウゴウケンキュウショ,0
2843,9700150126375,新規,0,2024-07-08,2024-07-04,末野原地区コミュニティ会議,,その他,愛知県,豊田市,豊栄町１１丁目３６番地－１　地区コミュニティ会議事務局　内,,23,211,4701201,,,,,,,2024-07-04,1,,,,,スエノハラチクコミユニテイカイギ,0
