sequenceNumber,corporateNumber,process,correct,updateDate,changeDate,name,nameImageId,kind,prefectureName,cityName,streetNumber,addressImageId,prefectureCode,cityCode,postCode,addressOutside,addressOutsideImageId,closeDate,closeCause,successorCorporateNumber,changeCause,assignmentDate,latest,enName,enPrefectureName,enCityName,enAddressOutside,furigana,hihyoji
4,1010001184939,登記記録の閉鎖等,0,2021-09-13,2021-09-08,株式会社ＴｏｋｙｏＦｉｓｈｉｎｇＳｅｒｖｉｃｅ,,株式会社,東京都,江戸川区,新堀１丁目１０番１号,,13,123,1320001,,,2021-09-08,清算の結了等,,,2017-07-26,1,,,,,,0
26,1010403011674,登記記録の閉鎖等,0,2021-09-13,2021-09-03,Ｏｃｔａｖｅ　Ｊａｐａｎ　Ｉｎｆｒａｓｔｒｕｃｔｕｒｅ　Ｆｕｎｄ　Ｉ合同会社,,合同会社,東京都,港区,赤坂９丁目７番１号,,13,103,1070052,,,2021-09-03,清算の結了等,,,2015-10-05,1,,,,,オクターブジャパンインフラストラクチャーファンドイチ,0
29,1010501007269,登記記録の閉鎖等,0,2021-09-13,2021-09-07,株式会社大和,,株式会社,兵庫県,芦屋市,浜町４番７号,,28,206,6590025,,,2021-09-07,清算の結了等,,,2015-10-05,1,,,,,ダイワ,0
34,1010503004578,登記記録の閉鎖等,0,2021-09-13,2021-09-01,合同会社ＢＵＺＺ,,合同会社,東京都,台東区,上野２丁目１番３号８８ビル８階,,13,106,1100005,,,2021-09-01,合併による解散等,1010501034354,令和３年９月１日東京都台東区上野二丁目１番３号株式会社パークサイド・エステイト（1010501034354）に合併し解散,2016-01-19,1,,,,,バズ,0
35,1010601000504,登記記録の閉鎖等,0,2021-09-13,2021-08-30,株式会社岩手屋商事,,株式会社,東京都,墨田区,立花６丁目１番１０号,,13,107,1310043,,,2021-08-30,清算の結了等,,,2015-10-05,1,,,,,イワテヤショウジ,0
38,1010701021400,登記記録の閉鎖等,0,2021-09-13,2021-09-07,株式会社ＳＣアソシエイツ,,株式会社,兵庫県,宝塚市,湯本町９番５－７０８号,,28,214,6650003,,,2021-09-07,清算の結了等,,,2015-10-05,1,,,,,エスシーアソシエイツ,0
57,1011101017947,登記記録の閉鎖等,0,2021-09-13,2021-09-02,光運輸株式会社,,株式会社,東京都,新宿区,水道町１番２０号,,13,104,1620811,,,2021-09-02,清算の結了等,,,2015-10-05,1,,,,,,0
62,1011301012814,登記記録の閉鎖等,0,2021-09-13,2021-09-07,株式会社ガーリィラウンジ,,株式会社,東京都,杉並区,井草２丁目３５番１２－２－４０３号グランドメゾン杉並シーズン,,13,115,1670021,,,2021-09-07,清算の結了等,,,2015-10-05,1,,,,,ガーリィラウンジ,0
63,1011302004901,登記記録の閉鎖等,0,2021-09-13,2021-09-07,有限会社数工社,,有限会社,東京都,杉並区,荻窪１丁目１０番１８号,,13,115,1670051,,,2021-09-07,清算の結了等,,,2015-10-05,1,,,,,スウコウシャ,0
64,1011501005452,登記記録の閉鎖等,0,2021-09-13,2021-09-08,株式会社石川オリエント,,株式会社,東京都,荒川区,西日暮里１丁目１５番７号,,13,118,1160013,,,2021-09-08,清算の結了等,,,2015-10-05,1,,,,,イシカワオリエント,0
78,1011802001563,登記記録の閉鎖等,0,2021-09-13,2021-09-10,有限会社オカニワ,,有限会社,東京都,葛飾区,亀有３丁目１５番１１号,,13,122,1250061,,,2021-09-10,清算の結了等,,,2015-10-05,1,,,,,オカニワ,0
98,1021001038456,登記記録の閉鎖等,0,2021-09-13,2021-09-07,株式会社オフィスＩ,,株式会社,神奈川県,平塚市,紅谷町９番１ー１４０４号,,14,203,2540043,,,2021-09-07,清算の結了等,,,2015-10-05,1,,,,,オフィスアイ,0
109,1021003002732,登記記録の閉鎖等,0,2021-09-13,2021-09-07,合同会社ｌｅｈｕａ,,合同会社,埼玉県,さいたま市桜区,西堀９丁目１７番１号,,11,106,3380832,,,2021-09-07,合併による解散等,2021003004604,令和３年９月１日神奈川県平塚市松風町２８番４７－５０３号合同会社Ａｎｅｌａ（2021003004604）に合併し解散,2015-10-05,1,,,,,,0
112,1030001062572,登記記録の閉鎖等,0,2021-09-13,2021-09-07,株式会社トキオ・マドックス,,株式会社,東京都,台東区,寿３丁目９番５号蔵前コヤマハイツ５０２,,13,106,1110042,,,2021-09-07,清算の結了等,,,2015-10-05,1,,,,,トキオマドックス,0
122,1030002090498,登記記録の閉鎖等,0,2021-09-13,2021-09-02,有限会社林田金型,,有限会社,埼玉県,吉川市,吉川１丁目５番地１１,,11,243,3420055,,,2021-09-02,清算の結了等,,,2015-10-05,1,,,,,ハヤシダカナガタ,0
140,1040002072074,登記記録の閉鎖等,0,2021-09-13,2021-09-06,有限会社安藤組,,有限会社,千葉県,市原市,菊間５９０番地６,,12,219,2900007,,,2021-09-06,清算の結了等,,,2015-10-05,1,,,,,アンドウグミ,0
145,1040003010479,登記記録の閉鎖等,0,2021-09-13,2021-09-02,合同会社ＭＳ　Ａｓｓｅｔ　Ｍａｎａｇｅｍｅｎｔ,,合同会社,千葉県,松戸市,常盤平柳町１１番地の１４,,12,207,2702263,,,2021-09-02,合併による解散等,8040003009622,令和３年９月１日千葉県松戸市常盤平柳町１１番地１４合同会社ＴＭ　Ａｓｓｅｔ　Ｍａｎａｇｅｍｅｎｔ（8040003009622）に合併し解散,2017-08-15,1,,,,,エムエスアセットマネジメント,0
179,1120001157735,登記記録の閉鎖等,0,2021-09-13,2021-09-07,株式会社大長機械,,株式会社,大阪府,門真市,大池町６番３６号,,27,223,5710076,,,2021-09-07,清算の結了等,,,2015-10-05,1,,,,,ダイチョウキカイ,0
183,1120002010100,登記記録の閉鎖等,0,2021-09-13,2021-09-06,有限会社林製作所,,有限会社,大阪府,大阪市生野区,巽中３丁目１１番３２号,00030356,27,116,5440013,,,2021-09-06,清算の結了等,,,2015-10-05,1,,,,,ハヤシセイサクショ,0
195,1122001016227,登記記録の閉鎖等,0,2021-09-13,2021-09-07,株式会社スミレ塗装工業所,,株式会社,大阪府,交野市,星田８丁目６２番１号,,27,230,5760016,,,2021-09-07,清算の結了等,,,2015-10-05,1,,,,,スミレトソウコウギョウショ,0
198,1130001013714,登記記録の閉鎖等,0,2021-09-13,2021-09-09,株式会社アオキサイエン,,株式会社,京都府,京都市伏見区,醍醐上ノ山町３番地の７,,26,109,6011371,,,2021-09-09,清算の結了等,,,2015-10-05,1,,,,,アオキサイエン,0
201,1130001057463,登記記録の閉鎖等,0,2021-09-13,2021-09-06,ローディックスキャスト株式会社,,株式会社,京都府,京都市伏見区,下鳥羽西芹川４番地,,26,109,6120000,,,2021-09-06,清算の結了等,,,2016-05-19,1,,,,,ローディックスキャスト,0
213,1140002028751,登記記録の閉鎖等,0,2021-09-13,2021-09-07,有限会社黒崎食品,,有限会社,兵庫県,明石市,藤江字中谷９５８番地の６,,28,203,6730044,,,2021-09-07,清算の結了等,,,2015-10-05,1,,,,,クロサキショクヒン,0
229,1180001114672,登記記録の閉鎖等,0,2021-09-13,2021-09-06,株式会社ジャパンレストラン,,株式会社,愛知県,名古屋市瑞穂区,中山町１丁目１９番７号,,23,108,4670803,,,2021-09-06,清算の結了等,,,2015-10-05,1,,,,,ジャパンレストラン,0
238,1180301012337,登記記録の閉鎖等,0,2021-09-13,2021-09-09,株式会社プロセス,,株式会社,愛知県,豊川市,御津町御馬塩入１３６番地３,,23,207,4410311,,,2021-09-09,清算の結了等,,,2015-10-05,1,,,,,プロセス,0
241,1180302022343,登記記録の閉鎖等,0,2021-09-13,2021-09-07,有限会社松豊技研,,有限会社,愛知県,豊田市,若宮町３丁目５８番地,,23,211,4710026,,,2021-09-07,清算の結了等,,,2021-06-16,1,,,,,マツトヨギケン,0
243,1200001008657,登記記録の閉鎖等,0,2021-09-13,2021-09-09,臼井管理企画株式会社,,株式会社,岐阜県,本巣郡北方町,平成７丁目２番地,,21,421,5010438,,,2021-09-09,清算の結了等,,,2015-10-05,1,,,,,ウスイカンリキカク,0
258,1240005011604,登記記録の閉鎖等,0,2021-09-13,2021-09-06,特定非営利活動法人ひだまり,,その他の設立登記法人,広島県,尾道市,瀬戸田町福田８３３番地１,,34,205,7222405,,,2021-09-06,清算の結了等,,,2015-10-05,1,,,,,ヒダマリ,0
261,1260001020318,登記記録の閉鎖等,0,2021-09-13,2021-09-08,山田診療ビル株式会社,,株式会社,岡山県,津山市,南新座１１８番地,,33,203,7080036,,,2021-09-08,清算の結了等,,,2015-10-05,1,,,,,ヤマダシンリョウビル,0
270,1310002009429,登記記録の閉鎖等,0,2021-09-13,2021-09-06,有限会社大村屋,,有限会社,長崎県,佐世保市,小島町７番２４号,,42,202,8570066,,,2021-09-06,清算の結了等,,,2015-10-05,1,,,,,オオムラヤ,0
271,1310002015220,登記記録の閉鎖等,0,2021-09-13,2021-09-06,有限会社下坂物産商社,,有限会社,長崎県,諫早市,永昌東町３番５号,,42,204,8540071,,,2021-09-06,清算の結了等,,,2015-10-05,1,,,,,シモサカブッサンショウシャ,0
274,1330002007942,登記記録の閉鎖等,0,2021-09-13,2021-09-08,有限会社熊北農産,,有限会社,熊本県,熊本市北区,龍田１丁目２４番１６号,,43,105,8618006,,,2021-09-08,清算の結了等,,,2015-10-05,1,,,,,クマキタノウサン,0
287,1380002000595,登記記録の閉鎖等,0,2021-09-13,2021-09-03,有限会社エムエス,,有限会社,福島県,福島市,新町１番３号,,07,201,9608036,,,2021-09-03,清算の結了等,,,2015-10-05,1,,,,,エムエス,0
290,1400003000492,登記記録の閉鎖等,0,2021-09-13,2021-09-09,合同会社Ｆｅｅｄｓ,,合同会社,岩手県,盛岡市,神明町６番６－６１２号,,03,201,0200884,,,2021-09-09,清算の結了等,,,2015-10-05,1,,,,,フィーズ,0
291,1410005006140,登記記録の閉鎖等,0,2021-09-13,2021-09-09,特定非営利活動法人ふる里交流協会,,その他の設立登記法人,秋田県,大館市,山館字田尻１９７番地２,,05,204,0170838,,,2021-09-09,清算の結了等,,,2018-05-25,1,,,,,フルサトコウリュウキョウカイ,0
293,1420005007484,登記記録の閉鎖等,0,2021-09-13,2021-08-26,協同組合青森整体師協会,,その他の設立登記法人,青森県,青森市,篠田１丁目１５番１号,,02,201,0380011,,,2021-08-26,清算の結了等,,,2017-05-09,1,,,,,アオモリセイタイシキョウカイ,0
295,1430001077695,登記記録の閉鎖等,0,2021-09-13,2021-07-19,株式会社Ｖａｔｔｅｎ　Ｒａｍｅｎ,,株式会社,北海道,虻田郡倶知安町,字高砂９１番地１２,,01,400,0440076,,,2021-07-19,合併による解散等,9011001050801,令和３年７月１日東京都渋谷区千駄ケ谷三丁目１１番８号（ＴＯＳグループ内）Ｄｅ　Ａａｒｄａｐｐｅｌｅｔｅｒｓ株式会社（9011001050801）に合併し解散,2018-11-06,1,,,,,バッテンラーメン,0
305,2010001019508,登記記録の閉鎖等,0,2021-09-13,2021-09-02,ジェイ・ピー通商株式会社,,株式会社,東京都,千代田区,二番町５番７,,13,101,1020084,,,2021-09-02,清算の結了等,,,2015-10-05,1,,,,,ジェイピーツウショウ,0
324,2010405015342,登記記録の閉鎖等,0,2021-09-13,2021-09-03,Ｏｃｔａｖｅ　Ｊａｐａｎ　Ｉｎｆｒａｓｔｒｕｃｔｕｒｅ　Ｆｕｎｄ　ＩＩ一般社団法人,,その他の設立登記法人,東京都,港区,赤坂９丁目７番１号,,13,103,1070052,,,2021-09-03,清算の結了等,,,2016-12-06,1,,,,,オクターブジャパンインフラストラクチャーファンドニ,0
327,2010602012935,登記記録の閉鎖等,0,2021-09-13,2021-08-30,トウオリ産業有限会社,,有限会社,東京都,江東区,木場３丁目１０番７－１０６号,,13,108,1350042,,,2021-08-30,清算の結了等,,,2015-10-05,1,,,,,トウオリサンギョウ,0
335,2011001096165,登記記録の閉鎖等,0,2021-09-13,2021-09-01,株式会社ジェイエムエス・フォー,,株式会社,東京都,新宿区,西新宿３丁目２０番２号,,13,104,1600023,,,2021-09-01,合併による解散等,9011001090260,令和３年９月１日東京都新宿区西新宿三丁目２０番２号株式会社ジェイエムエス・ワン（9011001090260）に合併し解散,2015-10-05,1,,,,,ジェイエムエスフォー,0
336,2011001098335,登記記録の閉鎖等,0,2021-09-13,2021-09-01,株式会社ジェイエムエス・ファイブ,,株式会社,東京都,新宿区,西新宿３丁目２０番２号,,13,104,1600023,,,2021-09-01,合併による解散等,9011001090260,令和３年９月１日東京都新宿区西新宿三丁目２０番２号株式会社ジェイエムエス・ワン（9011001090260）に合併し解散,2015-10-05,1,,,,,ジェイエムエスファイブ,0
350,2011301015403,登記記録の閉鎖等,0,2021-09-13,2021-09-07,株式会社アドホック東京,,株式会社,東京都,杉並区,本天沼３丁目１２番１２号,,13,115,1670031,,,2021-09-07,清算の結了等,,,2015-10-05,1,,,,,アドホックトウキョウ,0
359,2011701007306,登記記録の閉鎖等,0,2021-09-13,2021-09-07,マサフードシステムズ株式会社,,株式会社,東京都,江戸川区,平井３丁目２３番１７号,,13,123,1320035,,,2021-09-07,清算の結了等,,,2015-10-05,1,,,,,マサフードシステムズ,0
386,2021001008177,登記記録の閉鎖等,0,2021-09-13,2021-09-01,株式会社ＭＯＮＯＳ湘南,,株式会社,神奈川県,茅ヶ崎市,元町３番２号,,14,207,2530043,,,2021-09-01,合併による解散等,2021001007063,令和３年９月１日神奈川県茅ヶ崎市元町３番２号第一商亊株式会社（2021001007063）に合併し解散,2015-10-05,1,,,,,モノスショウナン,0
429,2060002019460,登記記録の閉鎖等,0,2021-09-13,2021-09-02,有限会社荒川製作所,,有限会社,栃木県,鹿沼市,上久我１５３３番地,,09,205,3220254,,,2021-09-02,清算の結了等,,,2015-10-05,1,,,,,,0
434,2070001014206,登記記録の閉鎖等,0,2021-09-13,2021-09-07,サウンド技研株式会社,,株式会社,群馬県,佐波郡玉村町,大字下新田８２３番地３,,10,464,3701132,,,2021-09-07,清算の結了等,,,2015-10-05,1,,,,,サウンドギケン,0
439,2070003000451,登記記録の閉鎖等,0,2021-09-13,2021-09-08,合同会社ブライト,,合同会社,群馬県,前橋市,川曲町６２９番地３,,10,201,3710823,,,2021-09-08,清算の結了等,,,2015-10-05,1,,,,,ブライト,0
447,2080401011248,登記記録の閉鎖等,0,2021-09-13,2021-09-01,グランドスタッフ株式会社,,株式会社,岡山県,岡山市北区,野田屋町１丁目６番２２号,,33,101,7000815,,,2021-09-01,合併による解散等,3260001028680,令和３年９月１日岡山市北区野田屋町一丁目６番２２号株式会社グロップエスシー（3260001028680）に合併し解散,2015-10-05,1,,,,,グランドスタッフ,0
459,2110001019571,登記記録の閉鎖等,0,2021-09-13,2021-09-07,三和振興株式会社,,株式会社,新潟県,上越市,三和区宮崎新田１２４番地１,,15,222,9430318,,,2021-09-07,清算の結了等,,,2015-10-05,1,,,,,サンワシンコウ,0
470,2120001197367,登記記録の閉鎖等,0,2021-09-13,2021-09-08,パラダイム株式会社,,株式会社,大阪府,大阪市西区,南堀江２丁目４番１５号４階,,27,106,5500015,,,2021-09-08,合併による解散等,1360001011868,令和３年８月３１日沖縄県浦添市牧港四丁目１１番３号おきでん牧港ビル３Ｆ株式会社琉球オフィスサービス（1360001011868）に合併し解散,2016-04-07,1,,,,,パラダイム,0
494,2130001030469,登記記録の閉鎖等,0,2021-09-13,2021-09-10,都商事株式会社,,株式会社,京都府,長岡京市,滝ノ町２丁目１８番１９号,,26,209,6170817,,,2021-09-10,清算の結了等,,,2015-10-05,1,,,,,ミヤコショウジ,0
498,2130003004917,登記記録の閉鎖等,0,2021-09-13,2021-09-06,音無の森合同会社,,合同会社,京都府,京都市下京区,飴屋町２５９番地２,,26,106,6008148,,,2021-09-06,清算の結了等,,,2017-02-07,1,,,,,オトナシノモリ,0
501,2140001033470,登記記録の閉鎖等,0,2021-09-13,2021-09-03,あんしんネットサービス株式会社,,株式会社,兵庫県,明石市,二見町東二見１１４８番地の１７,,28,203,6740092,,,2021-09-03,清算の結了等,,,2015-10-05,1,,,,,アンシンネットサービス,0
509,2140002029815,登記記録の閉鎖等,0,2021-09-13,2021-09-07,有限会社皆吉塗装,,有限会社,兵庫県,明石市,魚住町西岡２１５８番地の２,,28,203,6740084,,,2021-09-07,清算の結了等,,,2015-10-05,1,,,,,,0
521,2180001094914,登記記録の閉鎖等,0,2021-09-13,2021-09-06,協栄メディカルガス株式会社,,株式会社,愛知県,東海市,南柴田町ルノ割４２６番地の４,,23,222,4760001,,,2021-09-06,合併による解散等,7180301013619,令和３年９月１日愛知県刈谷市八軒町一丁目５１番地エー・エム・メディカル株式会社（7180301013619）に合併し解散,2015-10-05,1,,,,,キョウエイメディカルガス,0
539,2200005001632,登記記録の閉鎖等,0,2021-09-13,2021-09-10,特定非営利活動法人環境浄化を進める会岐阜,,その他の設立登記法人,岐阜県,岐阜市,山県岩６３３番地の１,,21,201,5012504,,,2021-09-10,清算の結了等,,,2015-10-05,1,,,,,カンキョウジョウカヲススメルカイギフ,0
542,2220005001754,登記記録の閉鎖等,0,2021-09-13,2021-09-07,石川県青果食品商業協同組合連合会,,その他の設立登記法人,石川県,金沢市,西念４丁目６番１号,,17,201,9200024,,,2021-09-07,清算の結了等,,,2015-10-05,1,,,,,イシカワケンセイカショクヒンショウギョウ,0
562,2290002030840,登記記録の閉鎖等,0,2021-09-13,2021-08-25,有限会社生活工学研究所,,有限会社,福岡県,福岡市中央区,薬院４丁目８番２８－２０１号,,40,133,8100022,,,2021-08-25,清算の結了等,,,2015-10-05,1,,,,,セイカツコウガクケンキュウショ,0
569,2320002013478,登記記録の閉鎖等,0,2021-09-13,2021-09-10,有限会社エコシステム,,有限会社,大分県,別府市,大字鉄輪８５９番地の１３,,44,202,8740000,,,2021-09-10,清算の結了等,,,2015-10-05,1,,,,,エコシステム,0
571,2330002018352,登記記録の閉鎖等,0,2021-09-13,2021-09-09,有限会社上村コンクリート鹿央生コン,,有限会社,熊本県,山鹿市,鹿央町合里６９番地の２,,43,208,8610565,,,2021-09-09,清算の結了等,,,2015-10-05,1,,,,,ウエムラコンクリートカオウナマコン,0
588,2420003001372,登記記録の閉鎖等,0,2021-09-13,2021-09-09,合同会社スリーエス,,合同会社,青森県,弘前市,大字城東中央３丁目６番地６,,02,202,0368093,,,2021-09-09,清算の結了等,,,2015-10-05,1,,,,,スリーエス,0
599,2470001015700,登記記録の閉鎖等,0,2021-09-13,2021-09-08,株式会社さくら塾,,株式会社,香川県,高松市,香川町大野１１７１番地８,,37,201,7611701,,,2021-09-08,清算の結了等,,,2016-05-09,1,,,,,サクラジュク,0
606,3010001131567,登記記録の閉鎖等,0,2021-09-13,2021-09-01,湘南第一商事株式会社,,株式会社,神奈川県,茅ヶ崎市,元町３番２号,,14,207,2530043,,,2021-09-01,合併による解散等,2021001007063,令和３年９月１日神奈川県茅ヶ崎市元町３番２号第一商亊株式会社（2021001007063）に合併し解散,2015-10-05,1,,,,,ショウナンダイイチショウジ,0
631,3010403015723,登記記録の閉鎖等,0,2021-09-13,2021-09-03,Ｏｃｔａｖｅ　Ｊａｐａｎ　Ｉｎｆｒａｓｔｒｕｃｔｕｒｅ　Ｆｕｎｄ　ＩＩ合同会社,,合同会社,東京都,港区,赤坂９丁目７番１号,,13,103,1070052,,,2021-09-03,清算の結了等,,,2016-12-07,1,,,,,オクターブジャパンインフラストラクチャーファンドニ,0
637,3010405016166,登記記録の閉鎖等,0,2021-09-13,2021-09-09,ライトハウスキャピタル１１一般社団法人,,その他の設立登記法人,東京都,港区,六本木１丁目６番１号泉ガーデンタワー,,13,103,1060032,,,2021-09-09,清算の結了等,,,2017-10-17,1,,,,,ライトハウスキャピタルイレブン,0
647,3010603006019,登記記録の閉鎖等,0,2021-09-13,2021-08-11,ライフワン合同会社,,合同会社,東京都,江東区,東雲２丁目２番１４－１３０９,,13,108,1350062,,,2021-08-11,合併による解散等,8010401100126,令和３年８月１日東京都江東区住吉二丁目９番１号株式会社翡翠（8010401100126）に合併し解散,2015-10-05,1,,,,,ライフワン,0
649,3010605002957,登記記録の閉鎖等,0,2021-09-13,2021-09-07,一般社団法人ワン・ウィッシュ,,その他の設立登記法人,東京都,中央区,日本橋２丁目１番２１号第二東洋ビル５階,,13,102,1030027,,,2021-09-07,清算の結了等,,,2015-10-05,1,,,,,ワンウィッシュ,0
653,3011001005678,登記記録の閉鎖等,0,2021-09-13,2021-08-30,株式会社カテル,,株式会社,東京都,渋谷区,代々木５丁目５４番２号,,13,113,1510053,,,2021-08-30,清算の結了等,,,2015-10-05,1,,,,,カテル,0
654,3011001070549,登記記録の閉鎖等,0,2021-09-13,2021-08-27,株式会社フェリーチェモーダ,,株式会社,東京都,渋谷区,千駄ヶ谷３丁目１５番１０号,,13,113,1510051,,,2021-08-27,清算の結了等,,,2015-10-05,1,,,,,フェリーチェモーダ,0
664,3011101021996,登記記録の閉鎖等,0,2021-09-13,2021-09-01,株式会社文明堂イーネット,,株式会社,東京都,新宿区,新宿１丁目１８番２号,,13,104,1600022,,,2021-09-01,合併による解散等,2011101038430,令和３年９月１日東京都新宿区新宿一丁目１７番１１号株式会社文明堂興産（2011101038430）に合併し解散,2015-10-05,1,,,,,ブンメイドウイーネット,0
678,3011701021165,登記記録の閉鎖等,0,2021-09-13,2021-09-08,株式会社ケイ・グローバル交易,,株式会社,東京都,江戸川区,北小岩３丁目６番５号,,13,123,1330051,,,2021-09-08,清算の結了等,,,2017-09-13,1,,,,,ケイグローバルコウエキ,0
681,3011802012113,登記記録の閉鎖等,0,2021-09-13,2021-09-08,有限会社黒田工務店,,有限会社,東京都,足立区,加賀１丁目４番１２号,,13,121,1230861,,,2021-09-08,清算の結了等,,,2015-10-05,1,,,,,クロダコウムテン,0
716,3030002011997,登記記録の閉鎖等,0,2021-09-13,2021-09-03,有限会社ブルドツク,,有限会社,埼玉県,さいたま市大宮区,宮町１丁目７１番地,,11,103,3300802,,,2021-09-03,清算の結了等,,,2015-10-05,1,,,,,ブルドツク,0
718,3030002063782,登記記録の閉鎖等,0,2021-09-13,2021-09-03,有限会社茗渓塾,,有限会社,埼玉県,富士見市,関沢３丁目１３番３号,,11,235,3540025,,,2021-09-03,清算の結了等,,,2015-10-05,1,,,,,メイケイジュク,0
719,3030002089605,登記記録の閉鎖等,0,2021-09-13,2021-09-02,有限会社田中オート,,有限会社,埼玉県,北葛飾郡松伏町,大字大川戸２４４３番地１,,11,465,3430106,,,2021-09-02,清算の結了等,,,2015-10-05,1,,,,,タナカオート,0
755,3120001068261,登記記録の閉鎖等,0,2021-09-13,2021-09-03,中西工業株式会社,,株式会社,大阪府,大阪市北区,豊崎４丁目６番７－１３０８号,,27,127,5310072,,,2021-09-03,清算の結了等,,,2015-10-05,1,,,,,ナカニシコウギョウ,0
803,3180001004343,登記記録の閉鎖等,0,2021-09-13,2021-09-07,株式会社スタジオクイック,,株式会社,愛知県,名古屋市千種区,千代田橋２丁目７番３４号,,23,101,4640011,,,2021-09-07,清算の結了等,,,2015-10-05,1,,,,,スタジオクイック,0
804,3180001031701,登記記録の閉鎖等,0,2021-09-13,2021-09-06,戸松商事株式会社,,株式会社,愛知県,長久手市,戸田谷５０６番地,,23,238,4801124,,,2021-09-06,清算の結了等,,,2015-10-05,1,,,,,トマツショウジ,0
805,3180001073611,登記記録の閉鎖等,0,2021-09-13,2021-09-08,アイラ工業株式会社,,株式会社,愛知県,春日井市,神屋町１１３９番地の２８,,23,206,4800304,,,2021-09-08,合併による解散等,2120001021304,令和３年９月１日大阪市平野区加美北六丁目１５番１４号ハシダ技研工業株式会社（2120001021304）に合併し解散,2015-10-05,1,,,,,アイラコウギョウ,0
817,3180301009471,登記記録の閉鎖等,0,2021-09-13,2021-09-09,株式会社ＡＭＵＳＥ,,株式会社,愛知県,豊橋市,東光町１４０番地の２,,23,201,4400036,,,2021-09-09,清算の結了等,,,2015-10-05,1,,,,,アミューズ,0
819,3180301031731,登記記録の閉鎖等,0,2021-09-13,2021-09-10,株式会社早矢仕板金,,株式会社,愛知県,岡崎市,若松町字向山２６番地８,,23,202,4440826,,,2021-09-10,清算の結了等,,,2018-08-01,1,,,,,ハヤシバンキン,0
821,3180302023744,登記記録の閉鎖等,0,2021-09-13,2021-09-07,有限会社焼肉一本木,,有限会社,愛知県,豊田市,長興寺７丁目９４番地,,23,211,4710879,,,2021-09-07,清算の結了等,,,2015-10-05,1,,,,,ヤキニクイッポンギ,0
833,3240001037642,登記記録の閉鎖等,0,2021-09-13,2021-09-10,株式会社エスエスシー,,株式会社,広島県,三次市,畠敷町２２－４,,34,209,7280006,,,2021-09-10,清算の結了等,,,2015-10-05,1,,,,,,0
835,3240005014118,登記記録の閉鎖等,0,2021-09-13,2021-09-07,特定非営利活動法人おもろい農－ボランティアの交差点,,その他の設立登記法人,広島県,竹原市,塩町３丁目２番１６号,,34,203,7250025,,,2021-09-07,清算の結了等,,,2016-03-18,1,,,,,オモロイノウボランティアノコウサテン,0
841,3260002015827,登記記録の閉鎖等,0,2021-09-13,2021-09-10,ＩＳＮＪ有限会社,,有限会社,岡山県,岡山市北区,駅元町２９番２号－４０７,,33,101,7000024,,,2021-09-10,清算の結了等,,,2015-10-05,1,,,,,アイエスエヌジェイ,0
842,3260002032640,登記記録の閉鎖等,0,2021-09-13,2021-09-09,有限会社アクティブジャパン,,有限会社,岡山県,玉野市,後閑１４７５番地の５,,33,204,7060315,,,2021-09-09,清算の結了等,,,2015-10-05,1,,,,,アクティブジャパン,0
844,3270001000498,登記記録の閉鎖等,0,2021-09-13,2021-09-09,株式会社トレンディワン,,株式会社,鳥取県,鳥取市,湖山町南５丁目２２２番地２０,,31,201,6800945,,,2021-09-09,清算の結了等,,,2015-10-05,1,,,,,トレンディワン,0
845,3290001073410,登記記録の閉鎖等,0,2021-09-13,2021-09-10,サインシップ株式会社,,株式会社,福岡県,福岡市中央区,天神２丁目３番１０－７１６号,,40,133,8100001,,,2021-09-10,合併による解散等,1360001011868,令和３年８月３１日沖縄県浦添市牧港四丁目１１番３号おきでん牧港ビル３Ｆ株式会社琉球オフィスサービス（1360001011868）に合併し解散,2016-04-12,1,,,,,サインシップ,0
857,3290801018110,登記記録の閉鎖等,0,2021-09-13,2021-09-01,アスパイア株式会社,,株式会社,福岡県,北九州市八幡東区,高見２丁目１２番２７号,,40,108,8050016,,,2021-09-01,清算の結了等,,,2015-10-05,1,,,,,アスパイア,0
862,3310001009147,登記記録の閉鎖等,0,2021-09-13,2021-09-10,株式会社太陽野菜,,株式会社,長崎県,雲仙市,南串山町丙５１１番地３,,42,213,8540703,,,2021-09-10,清算の結了等,,,2015-10-05,1,,,,,タイヨウヤサイ,0
870,3340001012263,登記記録の閉鎖等,0,2021-09-13,2021-09-10,株式会社オクション,,株式会社,鹿児島県,鹿児島市,新屋敷町７番４号１Ｆ,,46,201,8920838,,,2021-09-10,清算の結了等,,,2015-10-05,1,,,,,オクション,0
874,3360003007359,登記記録の閉鎖等,0,2021-09-13,2021-09-07,合同会社エスリプランニング,,合同会社,沖縄県,沖縄市,中央１丁目２７番１３号,,47,211,9040004,,,2021-09-07,清算の結了等,,,2015-12-02,1,,,,,エスリプランニング,0
883,3420001015596,登記記録の閉鎖等,0,2021-09-13,2021-09-01,株式会社昴通信,,株式会社,青森県,青森市,本町１丁目２－２０,,02,201,0300802,,,2021-09-01,合併による解散等,2420001012982,令和３年８月３１日青森市本町一丁目２番２０号株式会社ノースブライト（2420001012982）に合併し解散,2017-02-08,1,,,,,スバルツウシン,0
884,3420002000688,登記記録の閉鎖等,0,2021-09-13,2021-09-08,有限会社オートナカムラ,,有限会社,青森県,青森市,大字石江字岡部９４番地１６,,02,201,0380003,,,2021-09-08,清算の結了等,,,2015-10-05,1,,,,,オートナカムラ,0
885,3420002012089,登記記録の閉鎖等,0,2021-09-13,2021-09-08,有限会社北鉱業,,有限会社,青森県,つがる市,富萢町去来見２７番地１,00087746,02,209,0383301,,,2021-09-08,清算の結了等,,,2015-10-05,1,,,,,キタコウギョウ,0
950,4011105004212,登記記録の閉鎖等,0,2021-09-13,2021-09-02,一般社団法人全国優良住宅協議会,,その他の設立登記法人,東京都,港区,芝大門２丁目９番１６号,,13,103,1050012,,,2021-09-02,清算の結了等,,,2015-10-05,1,,,,,ゼンコクユウリョウジュウタクキョウギカイ,0
993,4021002009305,登記記録の閉鎖等,0,2021-09-13,2021-09-07,有限会社和泉屋,,有限会社,神奈川県,高座郡寒川町,倉見１７１５番地４,,14,321,2530101,,,2021-09-07,清算の結了等,,,2015-10-05,1,,,,,イズミヤ,0
1000,4030001040476,登記記録の閉鎖等,0,2021-09-13,2021-08-27,株式会社日中商事,,株式会社,埼玉県,八潮市,大字南川崎９３４番地１,,11,234,3400814,,,2021-08-27,清算の結了等,,,2015-10-05,1,,,,,ニッチュウショウジ,0
1009,4030003007878,登記記録の閉鎖等,0,2021-09-13,2021-09-02,合同会社一永,,合同会社,埼玉県,川口市,大字石神７４３番地の５,,11,203,3330823,,,2021-09-02,清算の結了等,,,2015-10-05,1,,,,,イチエイ,0
1012,4030005016522,登記記録の閉鎖等,0,2021-09-13,2021-09-03,特定非営利活動法人サポートの和,,その他の設立登記法人,埼玉県,所沢市,大字牛沼３４７番地の４３,,11,208,3590026,,,2021-09-03,清算の結了等,,,2015-10-05,1,,,,,サポートノワ,0
1014,4040001043890,登記記録の閉鎖等,0,2021-09-13,2021-09-06,千代田食品株式会社,,株式会社,千葉県,白井市,名内３３５番地の４,,12,232,2701407,,,2021-09-06,清算の結了等,,,2015-10-05,1,,,,,チヨダショクヒン,0
1023,4040002051422,登記記録の閉鎖等,0,2021-09-13,2021-09-06,有限会社クスリの仁八薬局,,有限会社,千葉県,流山市,三輪野山１丁目１２０２番地の１,,12,220,2700175,,,2021-09-06,清算の結了等,,,2015-10-05,1,,,,,クスリノニハチヤッキョク,0
1028,4050001026432,登記記録の閉鎖等,0,2021-09-13,2021-09-08,三和株式会社,,株式会社,東京都,台東区,千束３丁目８－３愛和ビル３Ｆ,,13,106,1110031,,,2021-09-08,清算の結了等,,,2015-10-05,1,,,,,,0
1031,4050003002852,登記記録の閉鎖等,0,2021-09-13,2021-09-07,合同会社トライ,,合同会社,茨城県,常総市,杉山８９５番地４,,08,211,3002744,,,2021-09-07,清算の結了等,,,2015-10-05,1,,,,,トライ,0
1042,4080101014029,登記記録の閉鎖等,0,2021-09-13,2021-09-02,株式会社パレスかたおか,,株式会社,静岡県,伊東市,富戸９１９番地の３１,,22,208,4130231,,,2021-09-02,清算の結了等,,,2015-10-05,1,,,,,パレスカタオカ,0
1044,4080102000218,登記記録の閉鎖等,0,2021-09-13,2021-09-03,有限会社アルファ,,有限会社,静岡県,沼津市,大岡１２７０番地の１,,22,203,4100022,,,2021-09-03,清算の結了等,,,2015-10-05,1,,,,,アルファ,0
1058,4120001075414,登記記録の閉鎖等,0,2021-09-13,2021-09-06,株式会社江尻商会,,株式会社,大阪府,大阪市中央区,博労町２丁目６番２号,,27,128,5410059,,,2021-09-06,清算の結了等,,,2015-10-05,1,,,,,,0
1096,4180001129370,登記記録の閉鎖等,0,2021-09-13,2021-09-06,株式会社ＳＡＫＵＲＡ,,株式会社,愛知県,海部郡蟹江町,桜１丁目３８番地,,23,425,4970038,,,2021-09-06,清算の結了等,,,2017-09-06,1,,,,,,0
1099,4180002013177,登記記録の閉鎖等,0,2021-09-13,2021-09-08,有限会社イシハラ印刷,,有限会社,愛知県,名古屋市南区,大同町１丁目１２番地,,23,112,4570811,,,2021-09-08,清算の結了等,,,2015-10-05,1,,,,,イシハラインサツ,0
1100,4180002047596,登記記録の閉鎖等,0,2021-09-13,2021-09-06,有限会社プラントライフ,,有限会社,愛知県,名古屋市昭和区,明月町１丁目３９番地,,23,107,4660034,,,2021-09-06,清算の結了等,,,2015-10-05,1,,,,,プラントライフ,0
1101,4180002074582,登記記録の閉鎖等,0,2021-09-13,2021-09-07,有限会社安田商店,,有限会社,愛知県,犬山市,大字五郎丸字万願寺２３番地,,23,215,4840066,,,2021-09-07,清算の結了等,,,2015-10-05,1,,,,,ヤスダショウテン,0
1106,4180301006682,登記記録の閉鎖等,0,2021-09-13,2021-09-09,中村鋼業株式会社,,株式会社,愛知県,豊橋市,神ノ輪町７２番地,,23,201,4418068,,,2021-09-09,清算の結了等,,,2015-10-05,1,,,,,ナカムラコウギョウ,0
1109,4190002004753,登記記録の閉鎖等,0,2021-09-13,2021-09-10,大和商事有限会社,,有限会社,三重県,亀山市,川合町７６６番地の４,,24,210,5190103,,,2021-09-10,清算の結了等,,,2015-10-05,1,,,,,,0
1112,4190005008891,登記記録の閉鎖等,0,2021-09-13,2021-09-09,四日市市土地開発公社,,その他の設立登記法人,三重県,四日市市,本町９番８号,,24,202,5100093,,,2021-09-09,清算の結了等,,,2015-10-05,1,,,,,ヨッカイチシ,0
1127,4240002044100,登記記録の閉鎖等,0,2021-09-13,2021-09-08,有限会社松永工機,,有限会社,広島県,福山市,松永町２丁目１３番２０－５号,,34,207,7290104,,,2021-09-08,清算の結了等,,,2015-10-05,1,,,,,マツナガコウキ,0
1140,4270005005088,登記記録の閉鎖等,0,2021-09-13,2021-09-07,特定非営利活動法人どんぐりこ,,その他の設立登記法人,鳥取県,鳥取市,古海３０１番地７号,,31,201,6800921,,,2021-09-07,清算の結了等,,,2015-10-05,1,,,,,ドングリコ,0
1141,4280001005339,登記記録の閉鎖等,0,2021-09-13,2021-09-09,株式会社ＨＩＴＯＭＡＲＯ保険センター,,株式会社,島根県,益田市,中島町イ８５番地１,,32,204,6980043,,,2021-09-09,清算の結了等,,,2015-10-05,1,,,,,ヒトマロホケンセンター,0
1142,4290001010404,登記記録の閉鎖等,0,2021-09-13,2021-09-07,北松運輸株式会社,,株式会社,福岡県,福岡市中央区,薬院２丁目１８番２７号,,40,133,8100022,,,2021-09-07,合併による解散等,8310001000266,令和３年９月１日長崎市五島町３番２５号株式会社エムエスケイ（8310001000266）に合併し解散,2015-10-05,1,,,,,ホクショウウンユ,0
1151,4290802007202,登記記録の閉鎖等,0,2021-09-13,2021-09-08,旬菜工房有限会社,,有限会社,福岡県,北九州市小倉南区,大字志井７９１番地,,40,107,8020985,,,2021-09-08,清算の結了等,,,2015-10-05,1,,,,,,0
1164,4360001005553,登記記録の閉鎖等,0,2021-09-13,2021-09-07,株式会社ブリックス,,株式会社,沖縄県,那覇市,小禄５丁目８番１０号,,47,201,9010152,,,2021-09-07,清算の結了等,,,2015-10-05,1,,,,,ブリックス,0
1176,4370202003660,登記記録の閉鎖等,0,2021-09-13,2021-08-31,有限会社小川運送,,有限会社,宮城県,加美郡加美町,菜切谷字山道三番３５番地１,,04,445,9814203,,,2021-08-31,清算の結了等,,,2015-10-05,1,,,,,オガワウンソウ,0
1181,4400002003485,登記記録の閉鎖等,0,2021-09-13,2021-09-09,有限会社恵商事,,有限会社,岩手県,滝沢市,穴口２９１番地１８,,03,216,0200633,,,2021-09-09,清算の結了等,,,2015-10-05,1,,,,,ケイショウジ,0
1208,5010001089473,登記記録の閉鎖等,0,2021-09-13,2021-07-09,岡山化成株式会社,,株式会社,大阪府,大阪市西区,阿波座１丁目１２番１８号,,27,106,5500011,,,2021-07-09,合併による解散等,4120001049013,令和３年７月１日大阪市西区阿波座一丁目１２番１８号株式会社大阪ソーダ（4120001049013）に合併し、解散,2015-10-05,1,,,,,オカヤマカセイ,0
1223,5010003033306,登記記録の閉鎖等,0,2021-09-13,2021-09-06,合同会社マグノリア,,合同会社,東京都,千代田区,丸の内３丁目１番１号東京共同会計事務所内,,13,101,1000005,,,2021-09-06,清算の結了等,,,2020-10-21,1,,,,,マグノリア,0
1234,5010405012782,登記記録の閉鎖等,0,2021-09-13,2021-09-03,Ｏｃｔａｖｅ　Ｊａｐａｎ　Ｉｎｆｒａｓｔｒｕｃｔｕｒｅ　Ｆｕｎｄ　Ｉ一般社団法人,,その他の設立登記法人,東京都,港区,赤坂９丁目７番１号,,13,103,1070052,,,2021-09-03,清算の結了等,,,2015-10-05,1,,,,,オクターブジャパンインフラストラクチャーファンドイチ,0
1236,5010501025119,登記記録の閉鎖等,0,2021-09-13,2021-09-08,株式会社ミナトロワークス,,株式会社,東京都,千代田区,岩本町３丁目２番１号,,13,101,1010032,,,2021-09-08,合併による解散等,1010403018158,令和３年８月３１日東京都港区芝浦一丁目９番８号Ｂｅｅ２Ｂ株式会社（1010403018158）に合併し解散,2015-10-05,1,,,,,ミナトロワークス,0
1260,5011002011392,登記記録の閉鎖等,0,2021-09-13,2021-08-27,有限会社堀興,,有限会社,東京都,渋谷区,東２丁目２７番４号,,13,113,1500011,,,2021-08-27,合併による解散等,6011001129788,令和３年８月２４日東京都渋谷区東二丁目２７番７号株式会社オプティマス（6011001129788）に合併し解散,2015-10-05,1,,,,,ホリコウ,0
1284,5011802024759,登記記録の閉鎖等,0,2021-09-13,2021-09-09,有限会社ライフケアあすなろ,,有限会社,東京都,葛飾区,堀切３丁目１７番１４号コザキパレス１Ｆ,,13,122,1240006,,,2021-09-09,清算の結了等,,,2015-10-05,1,,,,,,0
1288,5012702007556,登記記録の閉鎖等,0,2021-09-13,2021-09-09,有限会社アイワ,,有限会社,東京都,清瀬市,野塩２丁目３９０番地の２,,13,221,2040004,,,2021-09-09,清算の結了等,,,2015-10-05,1,,,,,アイワ,0
1293,5013301038018,登記記録の閉鎖等,0,2021-09-13,2021-09-08,株式会社アレックスホールディングス,,株式会社,埼玉県,川口市,並木２丁目３番４号,,11,203,3320034,,,2021-09-08,合併による解散等,3013301030414,令和３年９月１日東京都北区西ケ原一丁目４６番１３号株式会社アレックス８（3013301030414）に合併し解散,2015-12-04,1,,,,,アレックスホールディングス,0
1298,5020002025930,登記記録の閉鎖等,0,2021-09-13,2021-09-07,株式会社神奈川農産,,株式会社,神奈川県,横浜市神奈川区,菅田町２３７５番地,,14,102,2210864,,,2021-09-07,清算の結了等,,,2015-10-05,1,,,,,カナガワノウサン,0
1304,5021001035383,登記記録の閉鎖等,0,2021-09-13,2021-09-02,株式会社さわやか薬局,,株式会社,神奈川県,足柄上郡大井町,金子１９２４番地２,,14,362,2580019,,,2021-09-02,清算の結了等,,,2015-10-05,1,,,,,サワヤカヤッキョク,0
1318,5030001120847,登記記録の閉鎖等,0,2021-09-13,2021-09-06,株式会社藤和,,株式会社,東京都,豊島区,池袋２丁目６１番８－４０４号,,13,116,1710014,,,2021-09-06,清算の結了等,,,2017-06-14,1,,,,,トウワ,0
1349,5070002001935,登記記録の閉鎖等,0,2021-09-13,2021-09-08,有限会社栗本履物店,,有限会社,群馬県,前橋市,千代田町３丁目４番１０号,,10,201,3710022,,,2021-09-08,清算の結了等,,,2015-10-05,1,,,,,クリモトハキモノテン,0
1376,5120001158390,登記記録の閉鎖等,0,2021-09-13,2021-09-06,株式会社ロータスフード,,株式会社,大阪府,門真市,大倉町２１番６号,,27,223,5710068,,,2021-09-06,清算の結了等,,,2015-10-05,1,,,,,,0
1390,5120101054580,登記記録の閉鎖等,0,2021-09-13,2021-09-09,株式会社ＭＪ,,株式会社,大阪府,堺市西区,鳳中町９丁３４４番地３,,27,144,5938327,,,2021-09-09,清算の結了等,,,2016-04-13,1,,,,,エムジェイ,0
1391,5120101054977,登記記録の閉鎖等,0,2021-09-13,2021-09-08,ナカタ食品株式会社,,株式会社,大阪府,泉佐野市,高松西２丁目５６１７番地,,27,213,5980016,,,2021-09-08,清算の結了等,,,2016-06-27,1,,,,,ナカタショクヒン,0
1395,5120903001945,登記記録の閉鎖等,0,2021-09-13,2021-09-01,日本地所京都合同会社,,合同会社,大阪府,大阪市中央区,瓦町３丁目３番１６号ＯＷＬ瓦町ビル４階,,27,128,5410048,,,2021-09-01,合併による解散等,1120901018680,令和３年９月１日大阪市中央区平野町一丁目７番３号日本地所株式会社（1120901018680）に合併し解散,2016-06-06,1,,,,,ニホンジショキョウト,0
1412,5160002012064,登記記録の閉鎖等,0,2021-09-13,2021-09-09,有限会社彦,,有限会社,滋賀県,草津市,平井６丁目８番２８号,,25,206,5250023,,,2021-09-09,清算の結了等,,,2015-10-05,1,,,,,ゲン,0
1428,5180301006797,登記記録の閉鎖等,0,2021-09-13,2021-09-09,株式会社八基都市企画,,株式会社,愛知県,豊橋市,石巻平野町字日名倉２８番地の３,,23,201,4411105,,,2021-09-09,清算の結了等,,,2015-10-05,1,,,,,ヤツキトシキカク,0
1445,5230001001465,登記記録の閉鎖等,0,2021-09-13,2021-09-07,第一不動産株式会社,,株式会社,富山県,富山市,開２９３番地,,16,201,9300944,,,2021-09-07,清算の結了等,,,2015-10-05,1,,,,,ダイイチフドウサン,0
1458,5250002020520,登記記録の閉鎖等,0,2021-09-13,2021-09-07,大島葬祭社有限会社,,有限会社,山口県,大島郡周防大島町,大字東三蒲２１４の１,,35,305,7422102,,,2021-09-07,清算の結了等,,,2015-10-05,1,,,,,オオシマソウサイシャ,0
1480,5300003001357,登記記録の閉鎖等,0,2021-09-13,2021-09-07,合同会社ＩＰＥＮ研究所,,合同会社,佐賀県,鳥栖市,原古賀町７１０番地,,41,203,8410071,,,2021-09-07,清算の結了等,,,2018-06-07,1,,,,,アイペンケンキュウショ,0
1507,5420001008243,登記記録の閉鎖等,0,2021-09-13,2021-09-08,株式会社シメ一松山呉服店,,株式会社,青森県,五所川原市,金木町朝日山２６７番地,,02,205,0370202,,,2021-09-08,清算の結了等,,,2015-10-05,1,,,,,シメイチマツヤマゴフクテン,0
1509,5420002002781,登記記録の閉鎖等,0,2021-09-13,2021-09-06,有限会社マルトス,,有限会社,青森県,青森市,大字新城字山田１１０番地５,,02,201,0380042,,,2021-09-06,清算の結了等,,,2015-10-05,1,,,,,マルトス,0
1517,5480001007363,登記記録の閉鎖等,0,2021-09-13,2021-09-07,株式会社中尾組,,株式会社,徳島県,美馬郡つるぎ町,半田字西久保１３番地２,,36,468,7794403,,,2021-09-07,清算の結了等,,,2015-10-05,1,,,,,ナカオグミ,0
1524,6010001128874,登記記録の閉鎖等,0,2021-09-13,2021-09-01,株式会社湘南グロース,,株式会社,神奈川県,茅ヶ崎市,元町３番２号,,14,207,2530043,,,2021-09-01,合併による解散等,2021001007063,令和３年９月１日神奈川県茅ヶ崎市元町３番２号第一商亊株式会社（2021001007063）に合併し解散,2015-10-05,1,,,,,ショウナングロース,0
1532,6010005014501,登記記録の閉鎖等,0,2021-09-13,2021-09-07,山佐ＢＡＷ３一般社団法人,,その他の設立登記法人,東京都,千代田区,丸の内３丁目１番１号東京共同会計事務所内,,13,101,1000005,,,2021-09-07,清算の結了等,,,2015-10-05,1,,,,,ヤマサビーエーダブリューサン,0
1538,6010401124060,登記記録の閉鎖等,0,2021-09-13,2021-09-02,株式会社健康館,,株式会社,東京都,港区,高輪４丁目１番１８号,,13,103,1080074,,,2021-09-02,清算の結了等,,,2016-04-11,1,,,,,ケンコウカン,0
1557,6010801018291,登記記録の閉鎖等,0,2021-09-13,2021-09-01,株式会社エイチ・アール・エス,,株式会社,東京都,大田区,大森西２丁目２３番１７号,,13,111,1430015,,,2021-09-01,合併による解散等,5010802010117,令和３年９月１日東京都大田区大森西二丁目２３番１７号株式会社東信精機（5010802010117）に合併し解散,2015-10-05,1,,,,,エイチアールエス,0
1558,6011001098471,登記記録の閉鎖等,0,2021-09-13,2021-09-01,株式会社ＳＰ滋賀・日野,,株式会社,東京都,新宿区,西新宿３丁目２０番２号,,13,104,1600023,,,2021-09-01,合併による解散等,9011001098337,令和３年９月１日東京都新宿区西新宿三丁目２０番２号株式会社ジェイエムエス・セブン（9011001098337）に合併し解散,2015-10-05,1,,,,,エスピーシガヒノ,0
1577,6011701007871,登記記録の閉鎖等,0,2021-09-13,2021-09-08,株式会社森建築設計事務所,,株式会社,東京都,江戸川区,一之江５丁目２番１５号,,13,123,1320024,,,2021-09-08,清算の結了等,,,2015-10-05,1,,,,,モリケンチクセッケイジムショ,0
1579,6011702005180,登記記録の閉鎖等,0,2021-09-13,2021-09-08,有限会社サワダ,,有限会社,東京都,江戸川区,谷河内２丁目４番７－７０３号,,13,123,1330002,,,2021-09-08,清算の結了等,,,2015-10-05,1,,,,,サワダ,0
1588,6013201014646,登記記録の閉鎖等,0,2021-09-13,2021-08-30,株式会社フォレストキャピタル,,株式会社,東京都,目黒区,八雲２丁目２３番８号,,13,110,1520023,,,2021-08-30,合併による解散等,8010901032934,令和３年８月３０日東京都渋谷区南平台町２番－１２号渋谷南平台ビル森の電力株式会社（8010901032934）に合併し解散,2015-10-05,1,,,,,フォレストキャピタル,0
1597,6020003015847,登記記録の閉鎖等,0,2021-09-13,2021-09-09,合同会社森林認証のもり,,合同会社,大阪府,吹田市,山田西３丁目２９番１６号,,27,205,5650824,,,2021-09-09,清算の結了等,,,2019-04-05,1,,,,,シンリンニンショウノモリ,0
1610,6030001033115,登記記録の閉鎖等,0,2021-09-13,2021-09-02,株式会社三智電気,,株式会社,埼玉県,加須市,旗井４３９番地の１,,11,210,3491132,,,2021-09-02,清算の結了等,,,2015-10-05,1,,,,,ミツトモデンキ,0
1611,6030001055183,登記記録の閉鎖等,0,2021-09-13,2021-09-02,デンナリシステム特機株式会社,,株式会社,埼玉県,川越市,三久保町１７番地１３,,11,201,3500054,,,2021-09-02,清算の結了等,,,2015-10-05,1,,,,,デンナリシステムトッキ,0
1622,6030002029830,登記記録の閉鎖等,0,2021-09-13,2021-09-01,有限会社スターライト,,有限会社,埼玉県,所沢市,寿町２３番２号グレーシア・タワーズＴ．１０５,,11,208,3591122,,,2021-09-01,清算の結了等,,,2015-10-05,1,,,,,スターライト,0
1669,6120001120903,登記記録の閉鎖等,0,2021-09-13,2021-09-06,株式会社ハーモニー,,株式会社,大阪府,大阪市都島区,東野田町１丁目１５番１８号,,27,102,5340024,,,2021-09-06,清算の結了等,,,2015-10-05,1,,,,,ハーモニー,0
1692,6140001057037,登記記録の閉鎖等,0,2021-09-13,2021-09-07,株式会社トリプル・ジー,,株式会社,兵庫県,神戸市北区,星和台２丁目８１番地の８,,28,109,6511121,,,2021-09-07,清算の結了等,,,2015-10-05,1,,,,,トリプルジー,0
1713,6180001130681,登記記録の閉鎖等,0,2021-09-13,2021-09-07,株式会社スイコウ,,株式会社,愛知県,名古屋市天白区,植田東３丁目４０６番地（リバーサイドガーデンダイアパレス原Ⅱ２０３号）,00112235,23,116,4680006,,,2021-09-07,清算の結了等,,,2018-01-10,1,,,,,スイコウ,0
1715,6180002044930,登記記録の閉鎖等,0,2021-09-13,2021-09-07,有限会社竹下組,,有限会社,愛知県,名古屋市南区,鳴浜町３丁目３４番地の４,,23,112,4570806,,,2021-09-07,清算の結了等,,,2015-10-05,1,,,,,タケシタグミ,0
1731,6240001041971,登記記録の閉鎖等,0,2021-09-13,2021-09-10,株式会社アニュージックプロモーション,,株式会社,広島県,広島市中区,富士見町１２番８号第２上田ビル３階,,34,101,7300043,,,2021-09-10,清算の結了等,,,2015-10-05,1,,,,,,0
1753,6310002010514,登記記録の閉鎖等,0,2021-09-13,2021-09-06,株式会社總合企業,00095831,株式会社,長崎県,佐世保市,日宇町６８２番地１６スカイプラザシティ８０５号,,42,202,8571151,,,2021-09-06,清算の結了等,,,2015-10-05,1,,,,,ソウゴウキギョウ,0
1779,6400005000370,登記記録の閉鎖等,0,2021-09-13,2021-09-09,盛岡市中央卸売市場関連事業者協同組合,,その他の設立登記法人,岩手県,盛岡市,羽場１０地割１００番地,,03,201,0200841,,,2021-09-09,清算の結了等,,,2015-10-05,1,,,,,モリオカシチュウオウオロシウリシジョウカンレンジギョウシャ,0
1781,6400005004727,登記記録の閉鎖等,0,2021-09-13,2021-09-09,山内生産森林組合,,その他の設立登記法人,岩手県,九戸郡軽米町,大字山内第２６地割７番地２,,03,501,0286222,,,2021-09-09,清算の結了等,,,2015-10-05,1,,,,,サンナイ,0
1783,6420002013935,登記記録の閉鎖等,0,2021-09-13,2021-09-03,有限会社花篭センター,,有限会社,青森県,弘前市,大字駅前３丁目３番地２,,02,202,0368002,,,2021-09-03,清算の結了等,,,2015-10-05,1,,,,,ハナカゴセンター,0
1785,6430001005841,登記記録の閉鎖等,0,2021-09-13,2021-09-03,株式会社構富工業,,株式会社,北海道,札幌市豊平区,西岡一条９丁目１９番１０号,,01,105,0620031,,,2021-09-03,清算の結了等,,,2015-10-05,1,,,,,コウフコウギョウ,0
1788,6430002021557,登記記録の閉鎖等,0,2021-09-13,2021-09-03,有限会社ラインハウス,,有限会社,北海道,札幌市厚別区,もみじ台北２丁目３番８号,,01,108,0040014,,,2021-09-03,清算の結了等,,,2015-10-05,1,,,,,ラインハウス,0
1815,7010401101018,登記記録の閉鎖等,0,2021-09-13,2021-09-03,株式会社メディカルサプライＴＯＫＹＯ,,株式会社,東京都,港区,高輪１丁目１４番－１５－３０２号,,13,103,1080074,,,2021-09-03,清算の結了等,,,2015-10-05,1,,,,,メディカルサプライトウキョウ,0
1820,7010403016429,登記記録の閉鎖等,0,2021-09-13,2021-09-02,合同会社エトサンテ,,合同会社,東京都,港区,麻布十番１丁目５番１０号アトラスビル４階,,13,103,1060045,,,2021-09-02,清算の結了等,,,2017-04-25,1,,,,,エトサンテ,0
1837,7010602012526,登記記録の閉鎖等,0,2021-09-13,2021-08-30,有限会社東央不動産,,有限会社,東京都,墨田区,緑２丁目２２番１３号,,13,107,1300021,,,2021-08-30,清算の結了等,,,2015-10-05,1,,,,,トウオウフドウサン,0
1847,7011001098470,登記記録の閉鎖等,0,2021-09-13,2021-09-01,株式会社ＳＰ滋賀・東近江,,株式会社,東京都,新宿区,西新宿３丁目２０番２号,,13,104,1600023,,,2021-09-01,合併による解散等,9011001098337,令和３年９月１日東京都新宿区西新宿三丁目２０番２号株式会社ジェイエムエス・セブン（9011001098337）に合併し解散,2015-10-05,1,,,,,エスピーシガヒガシオウミ,0
1859,7011501007567,登記記録の閉鎖等,0,2021-09-13,2021-09-08,株式会社千代田総業,,株式会社,東京都,荒川区,西日暮里４丁目２５番１６号,,13,118,1160013,,,2021-09-08,清算の結了等,,,2015-10-05,1,,,,,チヨダソウギョウ,0
1883,7020002050183,登記記録の閉鎖等,0,2021-09-13,2021-09-07,有限会社トロツポ,,有限会社,神奈川県,横浜市中区,山下町５８番地エクステ山下公園６０６,,14,104,2310023,,,2021-09-07,清算の結了等,,,2015-10-05,1,,,,,トロツポ,0
1893,7030001046784,登記記録の閉鎖等,0,2021-09-13,2021-09-01,東京住宅機器サービス株式会社,,株式会社,埼玉県,和光市,中央１丁目５番４４号,,11,229,3510113,,,2021-09-01,合併による解散等,2030001003468,令和３年９月１日埼玉県さいたま市北区宮原町二丁目１１１番地８埼玉日化サービス株式会社（2030001003468）に合併し解散,2015-10-05,1,,,,,トウキョウジュウタクキキサービス,0
1899,7030002016217,登記記録の閉鎖等,0,2021-09-13,2021-08-19,有限会社野口屋,,有限会社,埼玉県,さいたま市北区,日進町１丁目２０４番地１１,,11,102,3310823,,,2021-08-19,清算の結了等,,,2015-10-05,1,,,,,ノグチヤ,0
1901,7030002039390,登記記録の閉鎖等,0,2021-09-13,2021-09-01,有限会社島野土建工業,,有限会社,埼玉県,久喜市,松永２２番地の３,,11,232,3491122,,,2021-09-01,清算の結了等,,,2015-10-05,1,,,,,シマノドケンコウギョウ,0
1909,7040002045909,登記記録の閉鎖等,0,2021-09-13,2021-09-06,有限会社三宏建設,,有限会社,千葉県,松戸市,新松戸４丁目１３８番地,,12,207,2700034,,,2021-09-06,清算の結了等,,,2015-10-05,1,,,,,サンコウケンセツ,0
1914,7040005003797,登記記録の閉鎖等,0,2021-09-13,2021-09-06,特定非営利活動法人ひびき会,,その他の設立登記法人,千葉県,八千代市,大和田９２１番地２,,12,221,2760045,,,2021-09-06,清算の結了等,,,2015-10-05,1,,,,,ヒビキカイ,0
1928,7070001029505,登記記録の閉鎖等,0,2021-09-13,2021-09-08,三高ファクトリー株式会社,00025399,株式会社,群馬県,伊勢崎市,宮子町３５１５番地８,,10,204,3720801,,,2021-09-08,清算の結了等,,,2015-10-05,1,,,,,ミタカファクトリー,0
1939,7110003003098,登記記録の閉鎖等,0,2021-09-13,2021-09-08,合同会社ウエルス・アセット,,合同会社,新潟県,新潟市秋葉区,美善１丁目２番地８,,15,105,9560027,,,2021-09-08,清算の結了等,,,2015-10-05,1,,,,,ウエルスアセット,0
1940,7120001005236,登記記録の閉鎖等,0,2021-09-13,2021-09-01,株式会社コーシンビル,,株式会社,大阪府,大阪市北区,神山町８番２０号,,27,127,5300026,,,2021-09-01,合併による解散等,2120001213322,令和３年９月１日大阪市北区神山町８番２０号株式会社ステージコーシンビル（2120001213322）に合併し解散,2015-10-05,1,,,,,コーシンビル,0
1941,7120001043871,登記記録の閉鎖等,0,2021-09-13,2021-09-06,株式会社商工経済新聞社,,株式会社,大阪府,大阪市西区,西本町１丁目１０番７号,,27,106,5500005,,,2021-09-06,清算の結了等,,,2015-10-05,1,,,,,,0
1950,7120001209027,登記記録の閉鎖等,0,2021-09-13,2021-09-06,株式会社ナラノ,,株式会社,大阪府,大阪市中央区,瓦町３丁目４番１０号,,27,128,5410048,,,2021-09-06,清算の結了等,,,2017-10-19,1,,,,,ナラノ,0
1974,7122001000076,登記記録の閉鎖等,0,2021-09-13,2021-09-03,暁精機株式会社,,株式会社,大阪府,東大阪市,西堤本通東３丁目３番３４号,,27,227,5770045,,,2021-09-03,清算の結了等,,,2015-10-05,1,,,,,アカツキセイキ,0
1975,7122001034933,登記記録の閉鎖等,0,2021-09-13,2021-09-09,株式会社前田木材,,株式会社,大阪府,四條畷市,大字下田原１１０３番地,,27,229,5750012,,,2021-09-09,清算の結了等,,,2021-06-29,1,,,,,マエダモクザイ,0
1982,7130002014508,登記記録の閉鎖等,0,2021-09-13,2021-09-07,有限会社中正,,有限会社,京都府,京都市伏見区,深草フチ町１４番地の７７,,26,109,6128438,,,2021-09-07,清算の結了等,,,2015-10-05,1,,,,,ナカショウ,0
1989,7140001066128,登記記録の閉鎖等,0,2021-09-13,2021-09-07,あすなろコンサル株式会社,,株式会社,兵庫県,姫路市,広畑区清水町３丁目３２７番地１,,28,201,6711113,,,2021-09-07,清算の結了等,,,2015-10-05,1,,,,,アスナロコンサル,0
1990,7140001073248,登記記録の閉鎖等,0,2021-09-13,2021-09-08,株式会社尾畑商店,,株式会社,兵庫県,西宮市,名次町４番２０号,,28,204,6620024,,,2021-09-08,清算の結了等,,,2015-10-05,1,,,,,オバタショウテン,0
2020,7180005014368,登記記録の閉鎖等,0,2021-09-13,2021-09-08,一般社団法人統合療法推進協会,,その他の設立登記法人,愛知県,名古屋市千種区,内山３丁目２５番６号,,23,101,4640075,,,2021-09-08,清算の結了等,,,2015-10-05,1,,,,,トウゴウリョウホウスイシンキョウカイ,0
2031,7200001035299,登記記録の閉鎖等,0,2021-09-13,2021-09-09,株式会社ステップアップ,,株式会社,岐阜県,岐阜市,神田町６丁目８番地,,21,201,5008833,,,2021-09-09,清算の結了等,,,2018-06-25,1,,,,,ステップアップ,0
2056,7290801005559,登記記録の閉鎖等,0,2021-09-13,2021-09-09,難波建設株式会社,00094126,株式会社,福岡県,北九州市門司区,大字伊川１９５１番地３,,40,101,8000101,,,2021-09-09,清算の結了等,,,2015-10-05,1,,,,,,0
2060,7310002004151,登記記録の閉鎖等,0,2021-09-13,2021-09-07,有限会社ニシナ電子,,有限会社,長崎県,長崎市,晴海台町９１番地１８,,42,201,8510402,,,2021-09-07,清算の結了等,,,2015-10-05,1,,,,,ニシナデンシ,0
2069,7340002024790,登記記録の閉鎖等,0,2021-09-13,2021-09-06,有限会社吾平薬局,,有限会社,鹿児島県,鹿屋市,寿３丁目３番４０号,,46,203,8930014,,,2021-09-06,清算の結了等,,,2015-10-05,1,,,,,アイラヤッキョク,0
2079,7370802002209,登記記録の閉鎖等,0,2021-09-13,2021-09-02,有限会社仙南総合商事,,有限会社,宮城県,亘理郡亘理町,逢隈中泉字水塚１番地１,00082273,04,361,9892301,,,2021-09-02,清算の結了等,,,2015-10-05,1,,,,,センナンソウゴウショウジ,0
2091,7420002002796,登記記録の閉鎖等,0,2021-09-13,2021-09-08,有限会社マル金佐藤建築,,有限会社,青森県,青森市,西滝１丁目１８番５号,,02,201,0380014,,,2021-09-08,清算の結了等,,,2015-10-05,1,,,,,マルキンサトウケンチク,0
2095,7430001038634,登記記録の閉鎖等,0,2021-09-13,2021-09-03,株式会社北海剛商,,株式会社,北海道,札幌市白石区,南郷通１４丁目南８番６号,,01,104,0030022,,,2021-09-03,清算の結了等,,,2015-10-05,1,,,,,ホッカイゴウショウ,0
2106,8010001030707,登記記録の閉鎖等,0,2021-09-13,2021-09-03,株式会社メックプラントエンジニアリング,,株式会社,東京都,千代田区,神田佐久間町４丁目６番地,,13,101,1010025,,,2021-09-03,清算の結了等,,,2015-10-05,1,,,,,メックプラントエンジニアリング,0
2121,8010401141153,登記記録の閉鎖等,0,2021-09-13,2021-08-27,ＨＬＡ　Ｇａｒｍｅｎｔ株式会社,,株式会社,東京都,渋谷区,円山町５番１８号道玄坂スクエア５０４号室,,13,113,1500044,,,2021-08-27,清算の結了等,,,2018-10-03,1,,,,,エイチエルエーガーメント,0
2131,8010901001303,登記記録の閉鎖等,0,2021-09-13,2021-09-07,今井産業エンジニアリング株式会社,,株式会社,東京都,世田谷区,千歳台１丁目１９番５号,,13,112,1570071,,,2021-09-07,清算の結了等,,,2015-10-05,1,,,,,イマイサンギョウエンジニアリング,0
2132,8010901024147,登記記録の閉鎖等,0,2021-09-13,2021-09-07,株式会社日本ＭＳＰツールズ,,株式会社,東京都,世田谷区,玉川２丁目２８番６－１０５号,,13,112,1580094,,,2021-09-07,清算の結了等,,,2015-10-05,1,,,,,ニホンエスピーツールズ,0
2138,8011001057772,登記記録の閉鎖等,0,2021-09-13,2021-08-30,株式会社Ａ．Ｄ．Ｆ．インターナショナル,,株式会社,東京都,渋谷区,恵比寿西１丁目１７番１０号２Ｆ,,13,113,1500021,,,2021-08-30,清算の結了等,,,2015-10-05,1,,,,,エーディーエフインターナショナル,0
2164,8011201010465,登記記録の閉鎖等,0,2021-09-13,2021-09-07,株式会社内外プランニング,,株式会社,東京都,中野区,弥生町１丁目５９番５号,,13,114,1640013,,,2021-09-07,清算の結了等,,,2015-10-05,1,,,,,ナイガイプランニング,0
2172,8011601001584,登記記録の閉鎖等,0,2021-09-13,2021-09-08,株式会社木村組,,株式会社,東京都,練馬区,南田中４丁目４番２０号,,13,120,1770035,,,2021-09-08,清算の結了等,,,2015-10-05,1,,,,,キムラグミ,0
2186,8020001029632,登記記録の閉鎖等,0,2021-09-13,2021-09-06,両国物産株式会社,,株式会社,神奈川県,横浜市中区,山下町１４３番地,,14,104,2310023,,,2021-09-06,清算の結了等,,,2015-10-05,1,,,,,リョウゴクブッサン,0
2188,8020001115911,登記記録の閉鎖等,0,2021-09-13,2021-09-08,ＦＪリフレ株式会社,,株式会社,神奈川県,川崎市中原区,上小田中４丁目１番１号,,14,133,2110053,,,2021-09-08,合併による解散等,1180001001037,令和３年９月１日名古屋市中区千代田五丁目７番５号日本ゼネラルフード株式会社（1180001001037）に合併し解散,2016-04-25,1,,,,,エフジェイリフレ,0
2190,8020001119417,登記記録の閉鎖等,0,2021-09-13,2021-09-07,株式会社ＡＡＬ研究所,,株式会社,神奈川県,川崎市麻生区,虹ケ丘１丁目２０番１０号,,14,137,2150015,,,2021-09-07,清算の結了等,,,2017-01-11,1,,,,,エーエーエルケンキュウジョ,0
2207,8030001019310,登記記録の閉鎖等,0,2021-09-13,2021-09-02,くるま屋てつじ株式会社,,株式会社,埼玉県,蓮田市,大字黒浜７０２,,11,238,3490101,,,2021-09-02,清算の結了等,,,2015-10-05,1,,,,,クルマヤテツジ,0
2209,8030001063829,登記記録の閉鎖等,0,2021-09-13,2021-09-02,協同化工株式会社,,株式会社,埼玉県,越谷市,千間台西３丁目２番地パークタウン１４－１０４,,11,222,3430041,,,2021-09-02,清算の結了等,,,2015-10-05,1,,,,,キョウドウカコウ,0
2214,8030002041255,登記記録の閉鎖等,0,2021-09-13,2021-09-02,有限会社田村工業,,有限会社,埼玉県,加須市,下高柳３９６番地,,11,210,3470033,,,2021-09-02,清算の結了等,,,2015-10-05,1,,,,,,0
2216,8030002053052,登記記録の閉鎖等,0,2021-09-13,2021-09-02,有限会社荒井自動車,,有限会社,埼玉県,上尾市,柏座１丁目１２番５号,,11,219,3620075,,,2021-09-02,清算の結了等,,,2015-10-05,1,,,,,アライジドウシャ,0
2255,8090002013620,登記記録の閉鎖等,0,2021-09-13,2021-09-08,有限会社小泉商会,,有限会社,山梨県,韮崎市,穴山町１２８９番地１,,19,207,4070263,,,2021-09-08,清算の結了等,,,2015-10-05,1,,,,,コイズミショウカイ,0
2256,8090005006803,登記記録の閉鎖等,0,2021-09-13,2021-09-03,農事組合法人南アルプスシルクファーム,,その他の設立登記法人,山梨県,南アルプス市,曲輪田２０８３番地,,19,208,4000311,,,2021-09-03,清算の結了等,,,2015-10-05,1,,,,,ミナミアルプスシルクファーム,0
2263,8110001007075,登記記録の閉鎖等,0,2021-09-13,2021-09-06,株式会社井浦商店,,株式会社,新潟県,新潟市秋葉区,新津本町１丁目７番４３号,,15,105,9560864,,,2021-09-06,清算の結了等,,,2015-10-05,1,,,,,イウラショウテン,0
2266,8110002017643,登記記録の閉鎖等,0,2021-09-13,2021-09-07,マルタミ佐藤土建有限会社,,有限会社,新潟県,三条市,新光町２５番１９号,,15,204,9550057,,,2021-09-07,清算の結了等,,,2015-10-05,1,,,,,マルタミサトウドケン,0
2267,8110002033772,登記記録の閉鎖等,0,2021-09-13,2021-09-08,有限会社ジャパン・コアーズ,,有限会社,新潟県,魚沼市,青島６５０番地１,,15,225,9460043,,,2021-09-08,清算の結了等,,,2015-10-05,1,,,,,ジャパンコアーズ,0
2268,8110003002636,登記記録の閉鎖等,0,2021-09-13,2021-09-08,合同会社空,,合同会社,新潟県,新潟市東区,月見町１３番３５号イストワール４０６号,,15,102,9500061,,,2021-09-08,清算の結了等,,,2015-10-05,1,,,,,クウ,0
2288,8120101000111,登記記録の閉鎖等,0,2021-09-13,2021-09-08,株式会社旭ハイツ,,株式会社,大阪府,堺市西区,浜寺船尾町西４丁４０６番地,,27,144,5928342,,,2021-09-08,清算の結了等,,,2015-10-05,1,,,,,アサヒハイツ,0
2303,8130001063942,登記記録の閉鎖等,0,2021-09-13,2021-09-06,株式会社四季軒,,株式会社,京都府,京都市中京区,木屋町通三条下る石屋町１２３番地,,26,104,6048002,,,2021-09-06,清算の結了等,,,2019-02-19,1,,,,,シキケン,0
2306,8140001043423,登記記録の閉鎖等,0,2021-09-13,2021-09-07,播州瓦工業株式会社,,株式会社,兵庫県,加古川市,野口町坂元１２６番地の１１,,28,210,6750018,,,2021-09-07,清算の結了等,,,2015-10-05,1,,,,,,0
2310,8140002029058,登記記録の閉鎖等,0,2021-09-13,2021-09-06,有限会社スターテック,,有限会社,大阪府,大阪市住之江区,北加賀屋５丁目５－４４ルネ・ブライトガーデン４０６号室,,27,125,5590011,,,2021-09-06,清算の結了等,,,2015-10-05,1,,,,,スターテック,0
2311,8140002050600,登記記録の閉鎖等,0,2021-09-13,2021-09-07,有限会社福来印刷工業所,,有限会社,兵庫県,姫路市,的形町的形１７８３番地の１,,28,201,6710111,,,2021-09-07,清算の結了等,,,2015-10-05,1,,,,,,0
2318,8160001011741,登記記録の閉鎖等,0,2021-09-13,2021-09-08,株式会社エコマテック,,株式会社,滋賀県,近江八幡市,中小森町８９番地１４,,25,204,5230041,,,2021-09-08,清算の結了等,,,2015-10-05,1,,,,,エコマテック,0
2328,8180001058525,登記記録の閉鎖等,0,2021-09-13,2021-09-06,株式会社ＳＴＹＬＥ,,株式会社,愛知県,名古屋市中区,葵２丁目１３番２６号,,23,106,4600006,,,2021-09-06,清算の結了等,,,2015-10-05,1,,,,,,0
2332,8180002029021,登記記録の閉鎖等,0,2021-09-13,2021-09-06,有限会社マーブル,,有限会社,愛知県,長久手市,戸田谷５０６番地,,23,238,4801124,,,2021-09-06,清算の結了等,,,2015-10-05,1,,,,,マーブル,0
2333,8180002074083,登記記録の閉鎖等,0,2021-09-13,2021-09-06,有限会社オーガニックサービス,,有限会社,愛知県,瀬戸市,井戸金町３６４番地,,23,204,4890976,,,2021-09-06,清算の結了等,,,2015-10-05,1,,,,,オーガニックサービス,0
2339,8180301025407,登記記録の閉鎖等,0,2021-09-13,2021-09-08,株式会社ワイズカンパニー,,株式会社,愛知県,額田郡幸田町,大字芦谷字釜名ケ入２番地１,00074778,23,501,4440116,,,2021-09-08,清算の結了等,,,2015-10-05,1,,,,,ワイズカンパニー,0
2341,8190002008619,登記記録の閉鎖等,0,2021-09-13,2021-09-08,有限会社きみや,,有限会社,三重県,伊勢市,黒瀬町１３３番地,,24,203,5160018,,,2021-09-08,清算の結了等,,,2015-10-05,1,,,,,キミヤ,0
2342,8190002010293,登記記録の閉鎖等,0,2021-09-13,2021-09-09,有限会社セントラル,,有限会社,三重県,伊勢市,竹ケ鼻町３８０番地,,24,203,5160005,,,2021-09-09,清算の結了等,,,2015-10-05,1,,,,,セントラル,0
2352,8240001048107,登記記録の閉鎖等,0,2021-09-13,2021-09-08,美翔興業株式会社,,株式会社,広島県,福山市,千田町４丁目１９番２３号,,34,207,7200017,,,2021-09-08,清算の結了等,,,2015-10-05,1,,,,,ビショウコウギョウ,0
2356,8250002018074,登記記録の閉鎖等,0,2021-09-13,2021-09-07,山陽弘業有限会社,,有限会社,山口県,岩国市,麻里布町４丁目１２番１号,,35,208,7400018,,,2021-09-07,清算の結了等,,,2015-10-05,1,,,,,サンヨウコウギョウ,0
2369,8290801021530,登記記録の閉鎖等,0,2021-09-13,2021-09-08,株式会社優雅水産,,株式会社,福岡県,直方市,大字頓野６７３番地７７,,40,204,8220002,,,2021-09-08,清算の結了等,,,2015-10-05,1,,,,,,0
2381,8330001011402,登記記録の閉鎖等,0,2021-09-13,2021-09-09,浦島商事株式会社,,株式会社,熊本県,玉名市,寺田１２４番地,,43,206,8650022,,,2021-09-09,清算の結了等,,,2015-10-05,1,,,,,ウラシマショウジ,0
2391,8360002001382,登記記録の閉鎖等,0,2021-09-13,2021-09-06,有限会社金城土木設計,,有限会社,沖縄県,那覇市,字真地３７５番地１,,47,201,9020072,,,2021-09-06,清算の結了等,,,2015-10-05,1,,,,,キンジョウドボクセッケイ,0
2406,8420005006067,登記記録の閉鎖等,0,2021-09-13,2021-09-06,社会福祉法人善隣会,,その他の設立登記法人,青森県,上北郡東北町,字大平１番１１１,,02,408,0392683,,,2021-09-06,清算の結了等,,,2015-10-05,1,,,,,ゼンリンカイ,0
2439,9010003031669,登記記録の閉鎖等,0,2021-09-13,2021-09-02,ＰＬＣ１２合同会社,,合同会社,東京都,千代田区,丸の内１丁目１１番１号,,13,101,1000005,,,2021-09-02,清算の結了等,,,2020-02-17,1,,,,,ピーエルシートゥウェルブ,0
2444,9010102000715,登記記録の閉鎖等,0,2021-09-13,2021-09-08,有限会社伊藤商事,,有限会社,東京都,八王子市,散田町３丁目２５番２６号,,13,201,1930832,,,2021-09-08,清算の結了等,,,2015-10-05,1,,,,,,0
2446,9010401099317,登記記録の閉鎖等,0,2021-09-13,2021-09-02,株式会社ＢＳＣ,,株式会社,神奈川県,横浜市旭区,笹野台１丁目７番２５号マルヤス３－４０５,,14,112,2410816,,,2021-09-02,合併による解散等,4020001086900,令和３年９月１日横浜市旭区笹野台一丁目１番１７号一階ジェイド・グリーンフィールド株式会社（4020001086900）に合併し解散,2015-10-05,1,,,,,ビーエスシー,0
2452,9010405000115,登記記録の閉鎖等,0,2021-09-13,2021-09-02,一般財団法人海外邦人医療基金,,その他の設立登記法人,東京都,港区,西新橋２丁目４番２号,,13,103,1050003,,,2021-09-02,清算の結了等,,,2015-10-05,1,,,,,カイガイホウジンイリョウキキン,0
2462,9010901026489,登記記録の閉鎖等,0,2021-09-13,2021-09-07,株式会社イワ・クリエイティブ,,株式会社,東京都,世田谷区,池尻４丁目２９番２０－２０３号,,13,112,1540001,,,2021-09-07,清算の結了等,,,2015-10-05,1,,,,,イワクリエイティブ,0
2475,9011101030760,登記記録の閉鎖等,0,2021-09-13,2021-09-01,株式会社文明堂商事,,株式会社,東京都,新宿区,新宿１丁目１７番１１号,,13,104,1600022,,,2021-09-01,合併による解散等,2011101038430,令和３年９月１日東京都新宿区新宿一丁目１７番１１号株式会社文明堂興産（2011101038430）に合併し解散,2015-10-05,1,,,,,ブンメイドウショウジ,0
2483,9011701020574,登記記録の閉鎖等,0,2021-09-13,2021-09-07,株式会社グランドパートナーズ,,株式会社,東京都,江戸川区,篠崎町２丁目１番２０－８０２号Ｉ’ｓフラット,,13,123,1330061,,,2021-09-07,清算の結了等,,,2017-02-09,1,,,,,グランドパートナーズ,0
2486,9012302004198,登記記録の閉鎖等,0,2021-09-13,2021-08-31,有限会社藤設備,,有限会社,東京都,町田市,山崎町１４８３番地山崎団地８－１－４０２,,13,209,1950074,,,2021-08-31,清算の結了等,,,2015-10-05,1,,,,,フジセツビ,0
2487,9012401020402,登記記録の閉鎖等,0,2021-09-13,2021-09-01,株式会社きしの不動産管理,,株式会社,東京都,国立市,東１丁目１６番地の５,,13,215,1860002,,,2021-09-01,清算の結了等,,,2015-10-05,1,,,,,キシノフドウサンカンリ,0
2492,9013301001871,登記記録の閉鎖等,0,2021-09-13,2021-08-31,株式会社エム・ワイゴルフ,,株式会社,東京都,豊島区,巣鴨３丁目３４番１号,,13,116,1700002,,,2021-08-31,合併による解散等,2013301011324,令和３年８月３１日東京都豊島区巣鴨三丁目３４番１号株式会社丸吉百貨店（2013301011324）に合併し解散,2015-10-05,1,,,,,エムワイゴルフ,0
2496,9020001024839,登記記録の閉鎖等,0,2021-09-13,2021-09-07,横浜物産株式会社,,株式会社,神奈川県,横浜市神奈川区,菅田町字東前田２３７５番地,,14,102,2210864,,,2021-09-07,清算の結了等,,,2015-10-05,1,,,,,ヨコハマブッサン,0
2499,9020001090047,登記記録の閉鎖等,0,2021-09-13,2021-09-10,株式会社創発経営研究所,,株式会社,東京都,品川区,北品川４丁目４番５号,,13,109,1400001,,,2021-09-10,清算の結了等,,,2015-10-05,1,,,,,ソウハツケイエイケンキュウジョ,0
2526,9040001096190,登記記録の閉鎖等,0,2021-09-13,2021-09-06,株式会社リアン・リミテッド,,株式会社,千葉県,市川市,新井３丁目１２番１１号,,12,203,2720144,,,2021-09-06,清算の結了等,,,2016-07-25,1,,,,,リアンリミテッド,0
2531,9040002032855,登記記録の閉鎖等,0,2021-09-13,2021-09-03,有限会社エス・アイ・ピー,,有限会社,千葉県,市川市,曽谷７丁目３番１６号,,12,203,2720832,,,2021-09-03,清算の結了等,,,2015-10-05,1,,,,,エスアイピー,0
2538,9050001034372,登記記録の閉鎖等,0,2021-09-13,2021-09-06,株式会社きぬ川,,株式会社,茨城県,結城市,大字結城７２０１番地１,,08,207,3070001,,,2021-09-06,清算の結了等,,,2015-10-05,1,,,,,キヌガワ,0
2546,9080001001592,登記記録の閉鎖等,0,2021-09-13,2021-09-01,株式会社サイトーウッド,,株式会社,静岡県,静岡市駿河区,新川２丁目５番４９号,,22,102,4228064,,,2021-09-01,合併による解散等,8080001001593,令和３年９月１日静岡市駿河区新川二丁目５番４９号株式会社サイトーウッド（8080001001593）に合併し解散,2015-10-05,1,,,,,サイトーウッド,0
2548,9080002015014,登記記録の閉鎖等,0,2021-09-13,2021-09-09,有限会社村松加工所,,有限会社,静岡県,牧之原市,須々木２８７番地の２４,,22,226,4210524,,,2021-09-09,清算の結了等,,,2015-10-05,1,,,,,,0
2554,9100002019961,登記記録の閉鎖等,0,2021-09-13,2021-09-09,有限会社コタケ総業,,有限会社,長野県,松本市,中央１丁目５番４号,,20,202,3900811,,,2021-09-09,清算の結了等,,,2015-10-05,1,,,,,コタケソウギョウ,0
2557,9110003002635,登記記録の閉鎖等,0,2021-09-13,2021-09-08,合同会社ｅｎ,,合同会社,新潟県,新潟市秋葉区,東島１３３番地１０１,,15,105,9560841,,,2021-09-08,清算の結了等,,,2015-10-05,1,,,,,エン,0
2559,9120001008947,登記記録の閉鎖等,0,2021-09-13,2021-09-06,株式会社ラルジュ,,株式会社,大阪府,大阪市都島区,都島北通２丁目１番９号,,27,102,5340014,,,2021-09-06,清算の結了等,,,2015-10-05,1,,,,,ラルジュ,0
2564,9120001155517,登記記録の閉鎖等,0,2021-09-13,2021-09-06,川口自動車工業株式会社,,株式会社,大阪府,守口市,八雲東町２丁目８２番４３号,,27,209,5700021,,,2021-09-06,清算の結了等,,,2015-10-05,1,,,,,,0
2586,9140001060566,登記記録の閉鎖等,0,2021-09-13,2021-09-07,日本建設株式会社,,株式会社,兵庫県,姫路市,安田４丁目４７番地,,28,201,6700955,,,2021-09-07,清算の結了等,,,2015-10-05,1,,,,,ニホンケンセツ,0
2592,9150001014001,登記記録の閉鎖等,0,2021-09-13,2021-09-08,株式会社柳屋,,株式会社,奈良県,御所市,大字古瀬５番地,,29,208,6392254,,,2021-09-08,清算の結了等,,,2015-10-05,1,,,,,ヤナギヤ,0
2598,9180001060026,登記記録の閉鎖等,0,2021-09-13,2021-09-06,株式会社ｐｒｉｍａｒｇｅ,,株式会社,愛知県,名古屋市中村区,則武２丁目１０番１８号,,23,105,4530014,,,2021-09-06,合併による解散等,5180301016020,令和３年８月３０日愛知県刈谷市築地町一丁目１番地２１株式会社Ｓａｎｃｔｕａｒｙ（5180301016020）に合併し解散,2015-10-05,1,,,,,,0
2599,9180001070157,登記記録の閉鎖等,0,2021-09-13,2021-09-06,日動ビルサービス株式会社,,株式会社,愛知県,名古屋市東区,代官町３４番１２号,,23,102,4610002,,,2021-09-06,清算の結了等,,,2015-10-05,1,,,,,ニチドウビルサービス,0
2600,9180001084710,登記記録の閉鎖等,0,2021-09-13,2021-09-07,株式会社三木産業,,株式会社,愛知県,一宮市,開明字出屋敷３７番地の２,,23,203,4940001,,,2021-09-07,清算の結了等,,,2015-10-05,1,,,,,ミキサンギョウ,0
2606,9180003013907,登記記録の閉鎖等,0,2021-09-13,2021-09-06,合同会社共同保険サービス,,合同会社,愛知県,名古屋市名東区,上社１丁目１２０１番地第２上社ハイツ７０２号,,23,115,4650025,,,2021-09-06,清算の結了等,,,2015-10-05,1,,,,,,0
2625,9230001014703,登記記録の閉鎖等,0,2021-09-13,2021-09-07,山田ＳＰＡインダストリー株式会社,,株式会社,富山県,富山市,山田湯１８８３番地,,16,201,9302105,,,2021-09-07,清算の結了等,,,2015-10-05,1,,,,,ヤマダスパインダストリー,0
2630,9240001037802,登記記録の閉鎖等,0,2021-09-13,2021-09-08,因島商船株式会社,,株式会社,広島県,尾道市,因島土生町１８９９番地の３１,,34,205,7222323,,,2021-09-08,清算の結了等,,,2015-10-05,1,,,,,インノシマショウセン,0
2632,9240005014599,登記記録の閉鎖等,0,2021-09-13,2021-09-07,一般社団法人ＲｏＦＲｅＣ,,その他の設立登記法人,広島県,三原市,中之町４丁目８番２６号,,34,204,7230003,,,2021-09-07,清算の結了等,,,2018-04-25,1,,,,,ロフレック,0
2640,9270002000351,登記記録の閉鎖等,0,2021-09-13,2021-09-09,有限会社岡田豆富店,,有限会社,鳥取県,鳥取市,元魚町４丁目３０８番地,,31,201,6800034,,,2021-09-09,清算の結了等,,,2015-10-05,1,,,,,オカダトウフテン,0
2660,9350005005380,登記記録の閉鎖等,0,2021-09-13,2021-09-08,特定非営利活動法人婚活支援良縁どっと混む,,その他の設立登記法人,宮崎県,都城市,乙房町１４２４－５,,45,202,8850112,,,2021-09-08,清算の結了等,,,2015-10-05,1,,,,,コンカツシエンリョウエンドットコム,0
2667,9370502001153,登記記録の閉鎖等,0,2021-09-13,2021-09-03,有限会社さん歩,,有限会社,宮城県,気仙沼市,田中前１丁目２番地１５,,04,205,9880053,,,2021-09-03,清算の結了等,,,2015-10-05,1,,,,,サンポ,0
2679,9410001000065,登記記録の閉鎖等,0,2021-09-13,2021-08-20,株式会社アートコーポレーション,,株式会社,秋田県,秋田市,中通２丁目５番２０号,,05,201,0100001,,,2021-08-20,合併による解散等,9410001002581,令和３年８月１６日秋田市中通二丁目２番３２号株式会社山二（9410001002581）に合併し解散,2015-10-05,1,,,,,アートコーポレーション,0
2691,9440002002784,登記記録の閉鎖等,0,2021-09-13,2021-09-09,有限会社つかさ,,有限会社,北海道,函館市,日吉町１丁目６番３－７１０号,,01,202,0410841,,,2021-09-09,清算の結了等,,,2015-10-05,1,,,,,ツカサ,0
2694,9500002012562,登記記録の閉鎖等,0,2021-09-13,2021-08-30,有限会社藤原建設,,有限会社,愛媛県,西予市,城川町古市１３７番地,,38,214,7971702,,,2021-08-30,清算の結了等,,,2015-10-05,1,,,,,フジワラケンセツ,0
