sequenceNumber,corporateNumber,process,correct,updateDate,changeDate,name,nameImageId,kind,prefectureName,cityName,streetNumber,addressImageId,prefectureCode,cityCode,postCode,addressOutside,addressOutsideImageId,closeDate,closeCause,successorCorporateNumber,changeCause,assignmentDate,latest,enName,enPrefectureName,enCityName,enAddressOutside,furigana,hihyoji
15,1010003026544,登記記録の閉鎖等,0,2022-09-08,2022-09-06,合同会社フライア,,合同会社,東京都,渋谷区,代々木１丁目２５番５号,,13,113,1510053,,,2022-09-06,清算の結了等,,,2017-12-04,1,,,,,フライア,0
19,1010101004815,登記記録の閉鎖等,0,2022-09-08,2022-09-06,アートクレイ株式会社,,株式会社,東京都,八王子市,千人町４丁目３番１６号,,13,201,1930835,,,2022-09-06,清算の結了等,,,2015-10-05,1,,,,,アートクレイ,0
54,1011001106651,登記記録の閉鎖等,0,2022-09-08,2022-08-26,株式会社レンダーズエステート,,株式会社,東京都,渋谷区,恵比寿南２丁目１番８号恵比寿ＯＴビル２階,,13,113,1500022,,,2022-08-26,清算の結了等,,,2015-10-05,1,,,,,,0
86,1012802004481,登記記録の閉鎖等,0,2022-09-08,2022-09-01,有限会社サンパレス不動産,,有限会社,東京都,武蔵村山市,学園５丁目２６番地の１,,13,223,2080011,,,2022-09-01,清算の結了等,,,2015-10-05,1,,,,,サンパレスフドウサン,0
102,1020002078817,登記記録の閉鎖等,0,2022-09-08,2022-08-31,有限会社ユニオン,,有限会社,神奈川県,横浜市西区,北幸１丁目１１番１号水信ビル７階,,14,103,2200004,,,2022-08-31,清算の結了等,,,2015-10-05,1,,,,,ユニオン,0
103,1020002095589,登記記録の閉鎖等,0,2022-09-08,2022-09-05,有限会社石渡電設,,有限会社,神奈川県,川崎市川崎区,観音２丁目１０番１１号,,14,131,2100831,,,2022-09-05,清算の結了等,,,2015-10-05,1,,,,,イシワタデンセツ,0
109,1021002004705,登記記録の閉鎖等,0,2022-09-08,2022-09-05,有限会社マルセン,,有限会社,神奈川県,藤沢市,遠藤２８３６番地,,14,205,2520816,,,2022-09-05,清算の結了等,,,2015-10-05,1,,,,,マルセン,0
115,1021005005007,登記記録の閉鎖等,0,2022-09-08,2022-08-25,天理教武濱分教会,00014232,その他の設立登記法人,神奈川県,綾瀬市,上土棚北４丁目２番１号,,14,218,2521111,,,2022-08-25,合併による解散等,7010005000277,令和４年８月１９日東京都中央区日本橋茅場町二丁目１３番６号天理教日京分教会（7010005000277）に合併し解散,2015-10-05,1,,,,,テンリキョウタケハマブンキョウカイ,0
116,1030001012313,登記記録の閉鎖等,0,2022-09-08,2022-08-26,杏株式会社,,株式会社,埼玉県,さいたま市浦和区,上木崎４丁目８番１５号,,11,107,3300071,,,2022-08-26,清算の結了等,,,2015-10-05,1,,,,,アンズ,0
123,1030002081695,登記記録の閉鎖等,0,2022-09-08,2022-08-26,有限会社坂上建築研究所,,有限会社,埼玉県,本庄市,東台５丁目１番１２号,,11,211,3670021,,,2022-08-26,清算の結了等,,,2015-10-05,1,,,,,サカウエケンチクケンキュウショ,0
126,1030005007714,登記記録の閉鎖等,0,2022-09-08,2022-08-17,稲荷神社,,その他の設立登記法人,埼玉県,北葛飾郡杉戸町,大字下高野４１６番地,,11,464,3450043,,,2022-08-17,合併による解散等,8030005004572,令和４年８月１７日埼玉県幸手市中四丁目１１番３０号幸宮神社（8030005004572）に合併し解散,2015-10-05,1,,,,,,0
131,1040001051847,登記記録の閉鎖等,0,2022-09-08,2022-09-01,株式会社三友住宅,,株式会社,千葉県,君津市,南久保１丁目１３番５号,,12,225,2991154,,,2022-09-01,清算の結了等,,,2015-10-05,1,,,,,サンユウジュウタク,0
144,1060002033917,登記記録の閉鎖等,0,2022-09-08,2022-09-01,有限会社光星エレックス,,有限会社,栃木県,栃木市,新井町２７番地,,09,203,3280061,,,2022-09-01,合併による解散等,8060001016338,令和４年９月１日栃木県栃木市皆川城内町新町４０２番地株式会社光星電機（8060001016338）に合併し解散,2015-10-05,1,,,,,コウセイエレックス,0
153,1100002035850,登記記録の閉鎖等,0,2022-09-08,2022-09-02,有限会社飯田陶園,,有限会社,長野県,飯田市,知久町３丁目１３番地,,20,205,3950045,,,2022-09-02,清算の結了等,,,2015-10-05,1,,,,,イイダトウエン,0
178,1140001020404,登記記録の閉鎖等,0,2022-09-08,2022-09-02,アイランドフューチャーコーポレーション株式会社,,株式会社,兵庫県,神戸市灘区,岩屋中町４丁目２番７号,,28,102,6570845,,,2022-09-02,清算の結了等,,,2015-10-05,1,,,,,アイランドフューチャーコーポレーション,0
200,1200002028002,登記記録の閉鎖等,0,2022-09-08,2022-09-05,有限会社美濃グランド,,有限会社,岐阜県,郡上市,八幡町初納５３２番地の２,,21,219,5014203,,,2022-09-05,清算の結了等,,,2015-10-05,1,,,,,ミノグランド,0
201,1200005002623,登記記録の閉鎖等,0,2022-09-08,2022-09-02,特定非営利活動法人岐阜県レクリエーション協会,,その他の設立登記法人,岐阜県,岐阜市,長良福光大野２６７５番地２８,,21,201,5020817,,,2022-09-02,清算の結了等,,,2015-10-05,1,,,,,ギフケンレクリエーションキョウカイ,0
218,1290801017394,登記記録の閉鎖等,0,2022-09-08,2022-09-06,株式会社直方,,株式会社,福岡県,直方市,大字畑６８６番地,,40,204,8220004,,,2022-09-06,清算の結了等,,,2015-10-05,1,,,,,ノウガタ,0
226,1320005001051,登記記録の閉鎖等,0,2022-09-08,2022-08-26,天理教梅原分教会,,その他の設立登記法人,大分県,大分市,大字竹矢２１３６番地,,44,201,8701211,,,2022-08-26,合併による解散等,2320005001050,令和４年８月２６日大分県大分市大字竹矢５４４番地天理教百竹分教会（2320005001050）に合併し解散,2015-10-05,1,,,,,テンリキョウウメハルブンキョウカイ,0
238,1370002007369,登記記録の閉鎖等,0,2022-09-08,2022-09-01,株式会社コクフ総業,,株式会社,宮城県,仙台市宮城野区,萩野町１丁目１８番地の１,,04,102,9830043,,,2022-09-01,合併による解散等,1370001041047,令和４年９月１日仙台市青葉区落合五丁目２番７号株式会社カツヨシグレイトフル（1370001041047）に合併し解散,2015-10-05,1,,,,,コクフソウギョウ,0
258,1500002016026,登記記録の閉鎖等,0,2022-09-08,2022-09-02,有限会社愛媛新聞エリアサービス多喜浜,,有限会社,愛媛県,新居浜市,阿島１丁目１番５号,,38,205,7920896,,,2022-09-02,清算の結了等,,,2015-10-05,1,,,,,エヒメシンブンエリアサービスタキハマ,0
276,2010401007946,登記記録の閉鎖等,0,2022-09-08,2022-08-25,旭栄興産株式会社,,株式会社,東京都,港区,浜松町１丁目２５番７号,,13,103,1050013,,,2022-08-25,清算の結了等,,,2015-10-05,1,,,,,キョクエイコウサン,0
283,2010401160118,登記記録の閉鎖等,0,2022-09-08,2022-08-22,株式会社ＭＰＰ　Ｅｎｔｅｒｔａｉｎｍｅｎｔ,,株式会社,東京都,港区,六本木７丁目７番７号トライセブンロッポンギ８階,,13,103,1060032,,,2022-08-22,清算の結了等,,,2021-05-17,1,,,,,エムピーピーエンターテイメント,0
293,2010602017752,登記記録の閉鎖等,0,2022-09-08,2022-08-31,有限会社コジマ,,有限会社,東京都,江東区,木場３丁目７番４号,,13,108,1350042,,,2022-08-31,清算の結了等,,,2015-10-05,1,,,,,コジマ,0
296,2010702001268,登記記録の閉鎖等,0,2022-09-08,2022-09-05,有限会社エスアイエム,,有限会社,東京都,品川区,小山２丁目１７番８号,,13,109,1420062,,,2022-09-05,清算の結了等,,,2015-10-05,1,,,,,,0
322,2011502002638,登記記録の閉鎖等,0,2022-09-08,2022-09-05,有限会社サンヨー,,有限会社,東京都,北区,中里２丁目２６番２号,,13,117,1140015,,,2022-09-05,清算の結了等,,,2015-10-05,1,,,,,サンヨー,0
324,2011602002100,登記記録の閉鎖等,0,2022-09-08,2022-09-05,有限会社大仁工務店,,有限会社,東京都,練馬区,上石神井３丁目１２番１１号,,13,120,1770044,,,2022-09-05,清算の結了等,,,2015-10-05,1,,,,,ダイジンコウムテン,0
328,2012401018667,登記記録の閉鎖等,0,2022-09-08,2022-09-05,株式会社ヨシノ家具,,株式会社,東京都,調布市,調布ケ丘４丁目３５番地５,,13,208,1820021,,,2022-09-05,合併による解散等,7012401008787,令和４年８月１日東京都渋谷区東３－１２－１３ベリータ２Ｆ株式会社Ｐａｎｏｍａ（7012401008787）に合併し解散,2015-10-05,1,,,,,,0
335,2020001040272,登記記録の閉鎖等,0,2022-09-08,2022-09-05,株式会社インターパック,,株式会社,神奈川県,横浜市戸塚区,上倉田町２１５６番地ノトスビル２階Ｂ号室,,14,110,2440816,,,2022-09-05,清算の結了等,,,2015-10-05,1,,,,,インターパック,0
344,2020001141302,登記記録の閉鎖等,0,2022-09-08,2022-09-05,株式会社エスプ,,株式会社,神奈川県,横浜市中区,扇町２丁目５番地１４Ｙ’ｓトレゾワ関内６０２号,,14,104,2310027,,,2022-09-05,清算の結了等,,,2021-05-18,1,,,,,エスプ,0
368,2040001046805,登記記録の閉鎖等,0,2022-09-08,2022-09-01,三幸興業株式会社,,株式会社,千葉県,佐倉市,太田２０５６番地,,12,212,2850808,,,2022-09-01,合併による解散等,1040002061515,令和４年９月１日千葉県佐倉市宮小路町１６番地１株式会社細谷興産（1040002061515）に合併し解散,2015-10-05,1,,,,,サンコウコウギョウ,0
390,2060001005692,登記記録の閉鎖等,0,2022-09-08,2022-09-02,株式会社ウィンテックソリューション,,株式会社,栃木県,宇都宮市,宝木本町１１４８番地４７,,09,201,3200075,,,2022-09-02,清算の結了等,,,2015-10-05,1,,,,,,0
402,2080101021431,登記記録の閉鎖等,0,2022-09-08,2022-09-01,株式会社エンゼルフォレストリゾートドゥーエ,,株式会社,静岡県,熱海市,田原本町９番１号,,22,205,4130011,,,2022-09-01,合併による解散等,1010401010471,令和４年９月１日静岡県熱海市田原本町９番１号株式会社エンゼルフォレストリゾート（1010401010471）に合併し解散,2019-10-25,1,,,,,エンゼルフォレストリゾートドゥーエ,0
408,2110001025495,登記記録の閉鎖等,0,2022-09-08,2022-09-02,株式会社マルシン石油,,株式会社,新潟県,小千谷市,大字千谷甲２１３６番地１,,15,208,9470052,,,2022-09-02,清算の結了等,,,2015-10-05,1,,,,,マルシンセキユ,0
430,2120901021551,登記記録の閉鎖等,0,2022-09-08,2022-09-05,株式会社ＭＡＣＯ,,株式会社,大阪府,箕面市,石丸３丁目５番３号,,27,220,5620027,,,2022-09-05,清算の結了等,,,2015-10-05,1,,,,,エムエーシーオー,0
461,2240001030846,登記記録の閉鎖等,0,2022-09-08,2022-09-01,繁富興産株式会社,,株式会社,広島県,福山市,新市町大字戸手６５６番地４,,34,207,7293101,,,2022-09-01,合併による解散等,9240001033784,令和４年９月１日広島県福山市新市町大字戸手６８６番地の２株式会社山名繁治郎商店（9240001033784）に合併し解散,2015-10-05,1,,,,,シゲトミコウサン,0
465,2240002045876,登記記録の閉鎖等,0,2022-09-08,2022-09-05,有限会社エイフウ,,有限会社,広島県,福山市,蔵王町５丁目１１番１０号,,34,207,7210971,,,2022-09-05,清算の結了等,,,2015-10-05,1,,,,,エイフウ,0
480,2310001014932,登記記録の閉鎖等,0,2022-09-08,2022-09-06,株式会社ｋｉｋｉ　ｌｉｎｋ,,株式会社,長崎県,雲仙市,国見町神代戊９３９,,42,213,8591305,,,2022-09-06,清算の結了等,,,2017-06-15,1,,,,,キキリンク,0
492,2370205000021,登記記録の閉鎖等,0,2022-09-08,2022-09-01,古川たばこ販売協同組合,,その他の設立登記法人,宮城県,大崎市,古川北町１丁目７－１,,04,215,9896171,,,2022-09-01,合併による解散等,3370005000947,令和４年９月１日仙台市青葉区一番町一丁目８番１７号宮城県たばこ販売協同組合（3370005000947）に合併し解散,2015-10-05,1,,,,,,0
502,2400002010178,登記記録の閉鎖等,0,2022-09-08,2022-09-05,有限会社朝橋建築,,有限会社,岩手県,遠野市,上郷町佐比内３２地割２７番地１０,,03,208,0280771,,,2022-09-05,清算の結了等,,,2015-10-05,1,,,,,,0
503,2420002008609,登記記録の閉鎖等,0,2022-09-08,2022-09-02,有限会社ふなば,,有限会社,青森県,八戸市,根城２丁目６番２号,,02,203,0391166,,,2022-09-02,清算の結了等,,,2015-10-05,1,,,,,フナバ,0
510,2460002005016,登記記録の閉鎖等,0,2022-09-08,2022-09-02,有限会社宮脇モータース,,有限会社,北海道,川上郡弟子屈町,中央１丁目５番２８号,,01,665,0883211,,,2022-09-02,清算の結了等,,,2015-10-05,1,,,,,ミヤワキモータース,0
546,3010601030284,登記記録の閉鎖等,0,2022-09-08,2022-09-06,株式会社向島,,株式会社,東京都,墨田区,東向島２丁目１１番１２号,,13,107,1310032,,,2022-09-06,合併による解散等,1010701004941,令和４年９月１日東京都品川区西五反田七丁目１６番８号末廣鉄網株式会社（1010701004941）に合併し解散,2015-10-05,1,,,,,ムコウジマ,0
555,3011001030156,登記記録の閉鎖等,0,2022-09-08,2022-08-31,ディズニー・ネットワークス株式会社,,株式会社,東京都,港区,虎ノ門１丁目２３番１号虎ノ門ヒルズ森タワー,,13,103,1050001,,,2022-08-31,清算の結了等,,,2015-10-05,1,,,,,ディズニーネットワークス,0
559,3011001106336,登記記録の閉鎖等,0,2022-09-08,2022-08-26,株式会社レンダーズクラウド,,株式会社,東京都,渋谷区,恵比寿南２丁目１番８号恵比寿ＯＴビル２階,,13,113,1500022,,,2022-08-26,清算の結了等,,,2015-10-05,1,,,,,レンダーズクラウド,0
569,3011101051944,登記記録の閉鎖等,0,2022-09-08,2022-09-01,株式会社セルシス,,株式会社,東京都,新宿区,西新宿４丁目１５番７号,,13,104,1600023,,,2022-09-01,合併による解散等,1011101062869,令和４年９月１日東京都新宿区西新宿四丁目１５番７号株式会社セルシス（1011101062869）に合併し解散,2015-10-05,1,,,,,セルシス,0
570,3011101057628,登記記録の閉鎖等,0,2022-09-08,2022-09-05,ペーパリー株式会社,,株式会社,東京都,新宿区,早稲田鶴巻町５２０番地,,13,104,1620041,,,2022-09-05,清算の結了等,,,2015-10-05,1,,,,,ペーパリー,0
578,3011502004765,登記記録の閉鎖等,0,2022-09-08,2022-09-05,有限会社パブリック・トーホー,,有限会社,東京都,北区,西が丘１丁目４０番１４－２０１号,,13,117,1150056,,,2022-09-05,清算の結了等,,,2015-10-05,1,,,,,パブリックトーホー,0
593,3013302004623,登記記録の閉鎖等,0,2022-09-08,2022-09-01,有限会社新星,,有限会社,東京都,新宿区,上落合２丁目２０番３号,,13,104,1610034,,,2022-09-01,清算の結了等,,,2015-10-05,1,,,,,シンセイ,0
596,3020001007725,登記記録の閉鎖等,0,2022-09-08,2022-09-02,トツカ鋼材株式会社,,株式会社,神奈川県,横浜市戸塚区,名瀬町５５番地,,14,110,2450051,,,2022-09-02,清算の結了等,,,2015-10-05,1,,,,,トツカコウザイ,0
600,3020001124644,登記記録の閉鎖等,0,2022-09-08,2022-09-05,ベイクリーン株式会社,,株式会社,神奈川県,横浜市戸塚区,秋葉町４７０番地,,14,110,2450052,,,2022-09-05,清算の結了等,,,2018-01-18,1,,,,,ベイクリーン,0
605,3020002059402,登記記録の閉鎖等,0,2022-09-08,2022-09-05,有限会社エコテシオ,,有限会社,神奈川県,横浜市戸塚区,上倉田町１９７４番地,,14,110,2440816,,,2022-09-05,清算の結了等,,,2015-10-05,1,,,,,エコテシオ,0
612,3021005009856,登記記録の閉鎖等,0,2022-09-08,2022-09-05,ＮＰＯ法人ＨＩＭＩＴ,,その他の設立登記法人,神奈川県,中郡大磯町,石神台２丁目９９９番地１５,,14,341,2590113,,,2022-09-05,清算の結了等,,,2015-10-05,1,,,,,ハイミット,0
615,3030001075845,登記記録の閉鎖等,0,2022-09-08,2022-08-30,株式会社太陽商事,,株式会社,埼玉県,さいたま市緑区,太田窪３丁目１０番２９号,,11,109,3360936,,,2022-08-30,清算の結了等,,,2015-10-05,1,,,,,タイヨウショウジ,0
621,3030002106087,登記記録の閉鎖等,0,2022-09-08,2022-08-29,有限会社端戸湯,,有限会社,埼玉県,川口市,西青木２丁目１番４２号,,11,203,3320035,,,2022-08-29,清算の結了等,,,2015-10-05,1,,,,,ハシドユ,0
641,3050005007280,登記記録の閉鎖等,0,2022-09-08,2022-09-02,一般財団法人北茨城市開発公社,,その他の設立登記法人,茨城県,北茨城市,磯原町磯原１６３０番地,,08,215,3191541,,,2022-09-02,清算の結了等,,,2015-10-05,1,,,,,キタイバラキシカイハツコウシャ,0
646,3080101009698,登記記録の閉鎖等,0,2022-09-08,2022-09-05,株式会社松浦製作所,,株式会社,静岡県,富士市,大渕２４９８番地の３,,22,210,4170000,,,2022-09-05,清算の結了等,,,2015-10-05,1,,,,,マツウラセイサクショ,0
648,3080401015917,登記記録の閉鎖等,0,2022-09-08,2022-09-02,東豊機械株式会社,,株式会社,静岡県,磐田市,中泉２４７０番地,,22,211,4380078,,,2022-09-02,清算の結了等,,,2015-10-05,1,,,,,トウホウキカイ,0
668,3120001199123,登記記録の閉鎖等,0,2022-09-08,2022-09-05,株式会社イチカラ,,株式会社,大阪府,大阪市東淀川区,菅原４丁目４番２８号,,27,114,5330022,,,2022-09-05,清算の結了等,,,2016-06-24,1,,,,,,0
696,3140001026548,登記記録の閉鎖等,0,2022-09-08,2022-09-01,株式会社アイビーテラス,,株式会社,兵庫県,芦屋市,船戸町３番２７号,,28,206,6590093,,,2022-09-01,清算の結了等,,,2015-10-05,1,,,,,アイビーテラス,0
732,3250001000260,登記記録の閉鎖等,0,2022-09-08,2022-09-02,株式会社三建調査設計,,株式会社,山口県,山口市,大内千坊６丁目４番１７号,,35,203,7530251,,,2022-09-02,清算の結了等,,,2015-10-05,1,,,,,サンケンチョウサセッケイ,0
735,3260001034051,登記記録の閉鎖等,0,2022-09-08,2022-09-01,株式会社コザックス建物管理,,株式会社,岡山県,岡山市北区,津高１４０番地３,,33,101,7011152,,,2022-09-01,合併による解散等,1260001002943,令和４年９月１日岡山市北区北長瀬表町二丁目１６番３７号株式会社コザックスグループ（1260001002943）に合併し解散,2020-02-21,1,,,,,コザックスタテモノカンリ,0
736,3260002031378,登記記録の閉鎖等,0,2022-09-08,2022-09-07,有限会社寿し友,,有限会社,岡山県,瀬戸内市,邑久町本庄２０９３番地の１１,,33,212,7014214,,,2022-09-07,清算の結了等,,,2015-10-05,1,,,,,スシトモ,0
752,3320002004344,登記記録の閉鎖等,0,2022-09-08,2022-09-02,詫磨開発有限会社,,有限会社,大分県,大分市,金池町４丁目３番３号,,44,201,8700026,,,2022-09-02,清算の結了等,,,2015-10-05,1,,,,,,0
774,3390002008198,登記記録の閉鎖等,0,2022-09-08,2022-09-01,有限会社光月堂,,有限会社,山形県,飽海郡遊佐町,遊佐字前田７番地の２,,06,461,9998301,,,2022-09-01,清算の結了等,,,2015-10-05,1,,,,,コウゲツドウ,0
776,3400002005012,登記記録の閉鎖等,0,2022-09-08,2022-09-06,株式会社エムズ・ＳＥＴＯ,,株式会社,岩手県,盛岡市,夕顔瀬町２３番７号,,03,201,0200032,,,2022-09-06,合併による解散等,9400001001386,令和４年９月１日岩手県盛岡市夕顔瀬町２３番７号株式会社フローレス・セト（9400001001386）に合併し解散,2015-10-05,1,,,,,エムズセト,0
802,4010401160636,登記記録の閉鎖等,0,2022-09-08,2022-08-22,バイオニクス製薬株式会社,,株式会社,東京都,港区,六本木７丁目７番７号トライセブンロッポンギ８階,,13,103,1060032,,,2022-08-22,清算の結了等,,,2021-06-07,1,,,,,バイオニクスセイヤク,0
821,4010601023337,登記記録の閉鎖等,0,2022-09-08,2022-09-01,東連物産株式会社,,株式会社,東京都,墨田区,東向島３丁目１７番３号,,13,107,1310032,,,2022-09-01,清算の結了等,,,2015-10-05,1,,,,,トウレンブッサン,0
833,4010702007057,登記記録の閉鎖等,0,2022-09-08,2022-09-05,有限会社フェルマータ,,有限会社,東京都,品川区,東中延２丁目４番１０号,,13,109,1420052,,,2022-09-05,清算の結了等,,,2015-10-05,1,,,,,フェルマータ,0
834,4010705002947,登記記録の閉鎖等,0,2022-09-08,2022-09-02,一般社団法人食品ロス削減推進機構,,その他の設立登記法人,東京都,品川区,上大崎３丁目２番１号,,13,109,1410021,,,2022-09-02,清算の結了等,,,2019-07-05,1,,,,,ショクヒンロスサクゲンスイシンキコウ,0
878,4013102006026,登記記録の閉鎖等,0,2022-09-08,2022-09-07,有限会社幸信開発,,有限会社,東京都,青梅市,新町９丁目２２０１番地の３,,13,205,1980024,,,2022-09-07,清算の結了等,,,2015-10-05,1,,,,,コウシンカイハツ,0
885,4020002057735,登記記録の閉鎖等,0,2022-09-08,2022-09-05,有限会社早乙女デンタル・サービス,,有限会社,神奈川県,横浜市港北区,大豆戸町２００番地４０７号,,14,109,2220032,,,2022-09-05,清算の結了等,,,2015-10-05,1,,,,,サオトメデンタルサービス,0
904,4040001086659,登記記録の閉鎖等,0,2022-09-08,2022-09-01,株式会社かわぐち,,株式会社,千葉県,旭市,新町９７６番地１,,12,215,2892501,,,2022-09-01,清算の結了等,,,2015-10-05,1,,,,,カワグチ,0
937,4090002002528,登記記録の閉鎖等,0,2022-09-08,2022-09-05,有限会社ひかり調剤薬局,,有限会社,山梨県,甲府市,伊勢３丁目２番２１号,,19,201,4000856,,,2022-09-05,清算の結了等,,,2015-10-05,1,,,,,ヒカリチョウザイヤッキョク,0
945,4110001022045,登記記録の閉鎖等,0,2022-09-08,2022-09-05,株式会社アサヒ,,株式会社,新潟県,長岡市,福住２丁目５番４号,,15,202,9400034,,,2022-09-05,合併による解散等,5290001001229,令和４年９月１日福岡市南区長丘三丁目２３番３３号株式会社コスモ（5290001001229）に合併し解散,2015-10-05,1,,,,,アサヒ,0
997,4180001121253,登記記録の閉鎖等,0,2022-09-08,2022-09-01,Ａ＆Ａ日本自動車株式会社,,株式会社,愛知県,名古屋市中川区,牛立町１丁目１１２番地,,23,110,4540043,,,2022-09-01,清算の結了等,,,2015-12-04,1,,,,,エーアンドエーニホンジドウシャ,0
1006,4180002016394,登記記録の閉鎖等,0,2022-09-08,2022-09-02,有限会社寺沢薬品,,有限会社,愛知県,名古屋市東区,泉３丁目５番４号,,23,102,4610001,,,2022-09-02,清算の結了等,,,2015-10-05,1,,,,,テラサワヤクヒン,0
1009,4180002081711,登記記録の閉鎖等,0,2022-09-08,2022-09-05,有限会社小鹿工業所,,有限会社,愛知県,江南市,鹿子島町中１８２番地,,23,217,4838008,,,2022-09-05,清算の結了等,,,2015-10-05,1,,,,,オジカコウギョウショ,0
1017,4230005004325,登記記録の閉鎖等,0,2022-09-08,2022-09-05,圓寶寺,,その他の設立登記法人,富山県,滑川市,杉本５４２８番地,,16,206,9360804,,,2022-09-05,清算の結了等,,,2015-10-05,1,,,,,エンポウジ,0
1022,4250001012684,登記記録の閉鎖等,0,2022-09-08,2022-09-01,株式会社浅江技工,,株式会社,山口県,熊毛郡田布施町,大字麻郷１５１６番地の３,,35,343,7421513,,,2022-09-01,清算の結了等,,,2015-10-05,1,,,,,アサエギコウ,0
1083,4480003000409,登記記録の閉鎖等,0,2022-09-08,2022-09-07,合同会社ペガサス,,合同会社,徳島県,鳴門市,里浦町里浦字恵美寿６７６番地,,36,202,7720021,,,2022-09-07,清算の結了等,,,2015-10-05,1,,,,,ペガサス,0
1094,5010001148881,登記記録の閉鎖等,0,2022-09-08,2022-09-01,株式会社アスビ,,株式会社,東京都,文京区,本駒込５丁目８番７－３０５号,,13,105,1130021,,,2022-09-01,清算の結了等,,,2015-10-05,1,,,,,アスビ,0
1095,5010001169647,登記記録の閉鎖等,0,2022-09-08,2022-09-02,鹿島新エネルギー開発株式会社,,株式会社,東京都,中央区,八重洲１丁目５番１５号,,13,102,1030028,,,2022-09-02,合併による解散等,6070001026486,令和４年７月３１日群馬県沼田市久屋原町３３５番地１０シンエネルギー開発株式会社（6070001026486）に合併し解散,2015-10-05,1,,,,,,0
1103,5010005029830,登記記録の閉鎖等,0,2022-09-08,2022-09-05,一般社団法人腸活研究所,,その他の設立登記法人,東京都,中央区,築地３丁目１１番６号,,13,102,1040045,,,2022-09-05,清算の結了等,,,2019-03-08,1,,,,,チョウカツケンキュウジョ,0
1136,5011005007066,登記記録の閉鎖等,0,2022-09-08,2022-09-05,一般社団法人サービス診断士協会,,その他の設立登記法人,東京都,中央区,築地３丁目１１番６号,,13,102,1040045,,,2022-09-05,清算の結了等,,,2017-02-02,1,,,,,サービスシンダンシキョウカイ,0
1141,5011101037652,登記記録の閉鎖等,0,2022-09-08,2022-09-05,株式会社ピーダブリュセンター,,株式会社,東京都,新宿区,新宿１丁目３２番４号,,13,104,1600022,,,2022-09-05,清算の結了等,,,2015-10-05,1,,,,,ピーダブリュセンター,0
1158,5012403004563,登記記録の閉鎖等,0,2022-09-08,2022-09-02,合同会社フリースペース,,合同会社,東京都,小金井市,本町３丁目１番２３号,,13,210,1840004,,,2022-09-02,清算の結了等,,,2020-10-21,1,,,,,フリースペース,0
1163,5013401006188,登記記録の閉鎖等,0,2022-09-08,2022-09-06,株式会社ＫＯＣＯＺＡ,,株式会社,東京都,多摩市,鶴牧４丁目６番地１－４０４,,13,224,2060034,,,2022-09-06,清算の結了等,,,2015-10-05,1,,,,,ココザ,0
1172,5020002071719,登記記録の閉鎖等,0,2022-09-08,2022-09-02,有限会社関,,有限会社,神奈川県,横浜市港北区,綱島西２丁目１４番１－８０５号,,14,109,2230053,,,2022-09-02,清算の結了等,,,2015-10-05,1,,,,,セキ,0
1175,5020005014971,登記記録の閉鎖等,0,2022-09-08,2022-08-29,一般社団法人日本Ｈａｓｋｅｌｌユーザーグループ管理委員会,,その他の設立登記法人,神奈川県,横浜市西区,北幸１丁目１１番１号水信ビル７階,,14,103,2200004,,,2022-08-29,清算の結了等,,,2021-02-15,1,,,,,ニホンハスケルユーザーグループカンリイインカイ,0
1186,5021002001252,登記記録の閉鎖等,0,2022-09-08,2022-09-06,有限会社片瀬パック,,有限会社,神奈川県,藤沢市,片瀬海岸１丁目３番６号,,14,205,2510035,,,2022-09-06,清算の結了等,,,2015-10-05,1,,,,,カタセパック,0
1192,5030001070373,登記記録の閉鎖等,0,2022-09-08,2022-08-29,株式会社ジムヴァティ,,株式会社,埼玉県,坂戸市,本町１３番１,,11,239,3500226,,,2022-08-29,清算の結了等,,,2015-10-05,1,,,,,ジムヴァティ,0
1207,5040001097969,登記記録の閉鎖等,0,2022-09-08,2022-08-22,株式会社３Ｌ＆Ｊ　ＭＯＲＥＳ,,株式会社,東京都,港区,六本木３丁目１２番５号－Ｂ１Ｆ,,13,103,1060032,,,2022-08-22,清算の結了等,,,2016-12-08,1,,,,,スリーエルアンドジェイモアズ,0
1208,5040002032347,登記記録の閉鎖等,0,2022-09-08,2022-08-29,有限会社アロマ設計,,有限会社,千葉県,市川市,南八幡２丁目１７番４号,,12,203,2720023,,,2022-08-29,清算の結了等,,,2015-10-05,1,,,,,,0
1210,5050001044689,登記記録の閉鎖等,0,2022-09-08,2022-08-29,株式会社ｓｔａｉｒ,,株式会社,茨城県,つくば市,みどりの中央６６番地２０,,08,220,3050882,,,2022-08-29,清算の結了等,,,2018-07-10,1,,,,,ステア,0
1225,5080102012245,登記記録の閉鎖等,0,2022-09-08,2022-09-02,有限会社クラム・イー,,有限会社,静岡県,三島市,佐野見晴台１丁目２５番地の９,,22,206,4110041,,,2022-09-02,清算の結了等,,,2015-10-05,1,,,,,クラムイー,0
1244,5120102004345,登記記録の閉鎖等,0,2022-09-08,2022-09-05,有限会社古谷商店,,有限会社,大阪府,堺市中区,深井北町４番地の３,,27,142,5998271,,,2022-09-05,清算の結了等,,,2015-10-05,1,,,,,フルヤショウテン,0
1260,5140005010546,登記記録の閉鎖等,0,2022-09-08,2022-08-22,岩谷神社,,その他の設立登記法人,兵庫県,朝来市,山東町和賀１１番地,,28,225,6695121,,,2022-08-22,合併による解散等,3140005010589,令和４年８月２２日兵庫県朝来市山東町和賀４５番地霧尾神社（3140005010589）に合併し解散,2015-10-05,1,,,,,,0
1261,5140005014423,登記記録の閉鎖等,0,2022-09-08,2022-08-25,天理教西神分教会,00042373,その他の設立登記法人,兵庫県,姫路市,家島町真浦４２２番地の２,,28,201,6720101,,,2022-08-25,合併による解散等,3140005014425,令和４年８月２５日兵庫県姫路市家島町真浦３８２番地の２天理教眞浦分教会（3140005014425）に合併し解散,2015-10-05,1,,,,,テンリキョウサイシンブンキョウカイ,0
1268,5180001095926,登記記録の閉鎖等,0,2022-09-08,2022-09-01,株式会社ナカノ,,株式会社,愛知県,知多市,長浦２丁目２５８番地,,23,224,4780042,,,2022-09-01,清算の結了等,,,2015-10-05,1,,,,,ナカノ,0
1307,5330003008416,登記記録の閉鎖等,0,2022-09-08,2022-09-01,合同会社広畑管財,,合同会社,熊本県,熊本市東区,長嶺南４丁目１１番８４号,,43,102,8618039,,,2022-09-01,合併による解散等,1330003006704,令和４年９月１日熊本市東区長嶺南四丁目１１番８４号合同会社五和管財（1330003006704）に合併し解散,2020-06-03,1,,,,,ヒロハタカンザイ,0
1342,6010401010715,登記記録の閉鎖等,0,2022-09-08,2022-08-26,株式会社ドクターズオフィス,,株式会社,東京都,渋谷区,広尾４丁目１番１３－３０６号,,13,113,1500012,,,2022-08-26,清算の結了等,,,2015-10-05,1,,,,,ドクターズオフィス,0
1374,6011101051966,登記記録の閉鎖等,0,2022-09-08,2022-08-22,株式会社イノペックス,,株式会社,東京都,港区,芝浦４丁目１０番１号,,13,103,1080023,,,2022-08-22,清算の結了等,,,2015-10-05,1,,,,,,0
1385,6011503003838,登記記録の閉鎖等,0,2022-09-08,2022-09-01,安田合同会社,,合同会社,東京都,北区,滝野川６丁目５１番１号２０２室,,13,117,1140023,,,2022-09-01,清算の結了等,,,2018-12-25,1,,,,,ヤスダ,0
1409,6020005004518,登記記録の閉鎖等,0,2022-09-08,2022-09-02,特定非営利活動法人ワーカーズ・コレクティブみらい,,その他の設立登記法人,神奈川県,横浜市旭区,本村町１０８番地１０グレイス二俣川４０４号室,,14,112,2410024,,,2022-09-02,清算の結了等,,,2015-10-05,1,,,,,ワーカーズコレクティブミライ,0
1423,6030001135761,登記記録の閉鎖等,0,2022-09-08,2022-08-26,株式会社Ｂｉｒｉｃｈｉｎｏ,,株式会社,埼玉県,川越市,大字久下戸２７５３番地８,,11,201,3500011,,,2022-08-26,清算の結了等,,,2020-03-26,1,,,,,ビリキーノ,0
1459,6080102021286,登記記録の閉鎖等,0,2022-09-08,2022-09-05,有限会社加藤工務店,,有限会社,静岡県,伊東市,八幡野１２４４番地の５５,,22,208,4130232,,,2022-09-05,清算の結了等,,,2015-10-05,1,,,,,カトウコウムテン,0
1464,6120001046644,登記記録の閉鎖等,0,2022-09-08,2022-09-05,阪栄鋼材株式会社,,株式会社,大阪府,大阪市浪速区,芦原１丁目１番１５号,00028194,27,111,5560029,,,2022-09-05,合併による解散等,1140001007137,令和４年９月１日神戸市中央区栄町通二丁目３番９号共栄ビル共栄株式会社（1140001007137）に合併し解散,2015-10-05,1,,,,,,0
1466,6120001118402,登記記録の閉鎖等,0,2022-09-08,2022-09-05,株式会社ニューティー,,株式会社,大阪府,大阪市北区,天満２丁目８番１１号,,27,127,5300043,,,2022-09-05,清算の結了等,,,2015-10-05,1,,,,,,0
1467,6120001208079,登記記録の閉鎖等,0,2022-09-08,2022-09-02,株式会社ねこて,,株式会社,大阪府,大阪市中央区,平野町１丁目８番１３号平野町八千代ビル４階Ｃ号室,,27,128,5410046,,,2022-09-02,清算の結了等,,,2017-09-13,1,,,,,ネコテ,0
1484,6120901040473,登記記録の閉鎖等,0,2022-09-08,2022-09-01,株式会社ＮＳＣエンジニアリング,,株式会社,大阪府,豊中市,利倉１丁目１番１号,,27,203,5610845,,,2022-09-01,合併による解散等,1120901025082,令和４年９月１日大阪府豊中市利倉一丁目１番１号株式会社ＮＳＣ（1120901025082）に合併し解散,2018-10-10,1,,,,,エヌエスシエンジニアリング,0
1495,6130003005977,登記記録の閉鎖等,0,2022-09-08,2022-09-02,合同会社高橋,00116432,合同会社,京都府,京都市左京区,田中西樋ノ口町２番地,,26,103,6068221,,,2022-09-02,清算の結了等,,,2019-04-26,1,,,,,タカハシ,0
1498,6140001124910,登記記録の閉鎖等,0,2022-09-08,2022-09-01,株式会社ｌａｚｏ,,株式会社,兵庫県,尼崎市,大庄中通１丁目２１番地,,28,202,6600075,,,2022-09-01,合併による解散等,1140001054039,令和４年９月１日兵庫県尼崎市大庄中通一丁目２１番地株式会社メロディ（1140001054039）に合併し解散,2022-02-17,1,,,,,ラゾ,0
1500,6140002054396,登記記録の閉鎖等,0,2022-09-08,2022-09-01,有限会社ビジネスファクトリー,,有限会社,兵庫県,姫路市,駅前町２２５番地,,28,201,6700927,,,2022-09-01,合併による解散等,8140002054106,令和４年９月１日兵庫県姫路市駅前町２２５番地株式会社ＴＲＵＳＴ　Ｇｒａｃｉａｓ（8140002054106）に合併し解散,2015-10-05,1,,,,,ビジネスファクトリー,0
1504,6180001095421,登記記録の閉鎖等,0,2022-09-08,2022-09-01,リベリベ・キッズベース半田株式会社,,株式会社,愛知県,半田市,勘内町１番地の１,,23,205,4750877,,,2022-09-01,清算の結了等,,,2015-10-05,1,,,,,リベリベキッズベースハンダ,0
1547,6330001028794,登記記録の閉鎖等,0,2022-09-08,2022-09-01,株式会社ＰａｗｎＰｏｓｔ,,株式会社,熊本県,上天草市,松島町合津４４１５番地,,43,212,8616102,,,2022-09-01,清算の結了等,,,2021-07-13,1,,,,,ポーンポスト,0
1560,6360001027546,登記記録の閉鎖等,0,2022-09-08,2022-08-31,株式会社ＴＴＭＫＫ,,株式会社,沖縄県,国頭郡今帰仁村,字古宇利１５９番地,,47,306,9050406,,,2022-08-31,清算の結了等,,,2020-08-17,1,,,,,ティーティーエムケイケイ,0
1568,6380003005184,登記記録の閉鎖等,0,2022-09-08,2022-09-02,合同会社フラット,,合同会社,福島県,福島市,森合字前田３番地の２１,,07,201,9608003,,,2022-09-02,清算の結了等,,,2022-06-02,1,,,,,フラット,0
1606,7010003023008,登記記録の閉鎖等,0,2022-09-08,2022-09-01,株式会社ＢＬＤ　ＧＬＯＢＡＬ,,株式会社,東京都,中央区,八丁堀２丁目２２番５号大島屋ビル７Ｆ,,13,102,1040032,,,2022-09-01,合併による解散等,7010001179231,令和４年９月１日東京都中央区八丁堀二丁目２２番５号大島屋ビル７Ｆ株式会社ＢＬＤホールディングス（7010001179231）に合併し解散,2016-02-03,1,,,,,ビーエルディーグローバル,0
1611,7010005028062,登記記録の閉鎖等,0,2022-09-08,2022-09-06,ミーメ特定目的会社,,その他の設立登記法人,東京都,渋谷区,代々木１丁目２５番５号,,13,113,1510053,,,2022-09-06,清算の結了等,,,2018-02-05,1,,,,,ミーメ,0
1612,7010005031355,登記記録の閉鎖等,0,2022-09-08,2022-09-02,一般社団法人Ｊａｐａｎ国際支援機構,,その他の設立登記法人,東京都,千代田区,神田小川町２丁目８番１６号２Ｆ,,13,101,1010052,,,2022-09-02,清算の結了等,,,2020-01-29,1,,,,,ジャパンコクサイシエンキコウ,0
1613,7010101010147,登記記録の閉鎖等,0,2022-09-08,2022-09-01,株式会社７６６,,株式会社,東京都,昭島市,拝島町４丁目１９番１４号,,13,207,1960002,,,2022-09-01,清算の結了等,,,2015-10-05,1,,,,,ナナロクロク,0
1620,7010401126881,登記記録の閉鎖等,0,2022-09-08,2022-08-24,株式会社エンスージアズムアンドカンパニー,,株式会社,東京都,港区,赤坂１丁目７番１号,,13,103,1070052,,,2022-08-24,清算の結了等,,,2016-09-09,1,,,,,エンスージアズムアンドカンパニー,0
1623,7010401143225,登記記録の閉鎖等,0,2022-09-08,2022-08-22,ハンガー株式会社,,株式会社,東京都,港区,新橋６丁目９番２号,,13,103,1050004,,,2022-08-22,清算の結了等,,,2019-01-18,1,,,,,ハンガー,0
1635,7010601030801,登記記録の閉鎖等,0,2022-09-08,2022-09-05,株式会社朝日新聞東東京販売,,株式会社,東京都,墨田区,本所１丁目２５番２号,,13,107,1300004,,,2022-09-05,合併による解散等,5010401046520,令和４年８月９日東京都港区芝三丁目３番１４号東京セントラル新聞販売株式会社（5010401046520）に合併し解散,2015-10-05,1,,,,,アサヒシンブンヒガシトウキョウハンバイ,0
1637,7010701017302,登記記録の閉鎖等,0,2022-09-08,2022-09-05,株式会社零,,株式会社,東京都,品川区,上大崎３丁目３番９－５１９号,,13,109,1410021,,,2022-09-05,清算の結了等,,,2015-10-05,1,,,,,レイ,0
1643,7010802008621,登記記録の閉鎖等,0,2022-09-08,2022-09-01,有限会社タカオ製作所,,有限会社,東京都,大田区,本羽田２丁目８番２５号,,13,111,1440044,,,2022-09-01,清算の結了等,,,2015-10-05,1,,,,,タカオセイサクショ,0
1649,7011001137294,登記記録の閉鎖等,0,2022-09-08,2022-08-25,株式会社オーナーズ,,株式会社,東京都,渋谷区,神宮前６丁目２３番４号桑野ビル２階,,13,113,1500001,,,2022-08-25,清算の結了等,,,2020-12-04,1,,,,,オーナーズ,0
1693,7021001002596,登記記録の閉鎖等,0,2022-09-08,2022-09-06,株式会社カモン,,株式会社,神奈川県,藤沢市,片瀬海岸１丁目９番８－５０４号,,14,205,2510035,,,2022-09-06,清算の結了等,,,2015-10-05,1,,,,,カモン,0
1694,7021001036058,登記記録の閉鎖等,0,2022-09-08,2022-09-05,株式会社アゲイン,,株式会社,神奈川県,平塚市,御殿１丁目３２番１９号,,14,203,2540061,,,2022-09-05,清算の結了等,,,2015-10-05,1,,,,,アゲイン,0
1703,7030005002734,登記記録の閉鎖等,0,2022-09-08,2022-08-23,宗教法人天理教黒濱分教会,,その他の設立登記法人,埼玉県,蓮田市,大字江ケ崎１９７５番地,,11,238,3490102,,,2022-08-23,合併による解散等,8030005002741,令和４年８月２３日埼玉県蓮田市大字蓮田９７４番地宗教法人天理教蓮田分教会（8030005002741）に合併し解散,2015-10-05,1,,,,,テンリキョウクロハマブンキョウカイ,0
1711,7040002076243,登記記録の閉鎖等,0,2022-09-08,2022-08-31,市原ひかりタクシー有限会社,,有限会社,千葉県,市原市,岩崎８３９番地８,,12,219,2900047,,,2022-08-31,合併による解散等,2040001055590,令和４年８月３１日千葉県市原市岩崎８３９番地８市原ベイタクシー株式会社（2040001055590）に合併し解散,2015-10-05,1,,,,,イチハラヒカリタクシー,0
1721,7060002009928,登記記録の閉鎖等,0,2022-09-08,2022-09-02,有限会社宇都宮創建,,有限会社,栃木県,宇都宮市,駒生町１６４６番地１,,09,201,3200065,,,2022-09-02,清算の結了等,,,2015-10-05,1,,,,,ウツノミヤソウケン,0
1735,7090002009784,登記記録の閉鎖等,0,2022-09-08,2022-08-29,有限会社守屋精工,,有限会社,山梨県,上野原市,鶴川１４７６番地,,19,212,4090132,,,2022-08-29,清算の結了等,,,2015-10-05,1,,,,,モリヤセイコウ,0
1793,7160001022203,登記記録の閉鎖等,0,2022-09-08,2022-09-05,株式会社野田建材工業,,株式会社,滋賀県,東近江市,栗見新田町７９９番地３,,25,213,5211243,,,2022-09-05,清算の結了等,,,2020-01-09,1,,,,,ノダケンザイコウギョウ,0
1800,7180001143947,登記記録の閉鎖等,0,2022-09-08,2022-09-01,ＳＫｔａｋｅ．ＥＮＧ株式会社,,株式会社,愛知県,知多市,八幡字浦浜１番地５１,,23,224,4780001,,,2022-09-01,合併による解散等,3180001095267,令和４年９月１日愛知県知多市八幡字浦浜１番地５１桟生工業株式会社（3180001095267）に合併し解散,2020-12-08,1,,,,,エスケーテイクエンジ,0
1812,7200005013301,登記記録の閉鎖等,0,2022-09-08,2022-09-07,一般社団法人ＩＶＹ,,その他の設立登記法人,岐阜県,岐阜市,青柳町２丁目１０番地,,21,201,5008881,,,2022-09-07,清算の結了等,,,2022-01-24,1,,,,,アイビー,0
1822,7270001007770,登記記録の閉鎖等,0,2022-09-08,2022-09-06,スマートスターチ株式会社,,株式会社,鳥取県,八頭郡八頭町,見槻中１５４番地２,,31,329,6800404,,,2022-09-06,清算の結了等,,,2019-05-22,1,,,,,スマートスターチ,0
1824,7290001076260,登記記録の閉鎖等,0,2022-09-08,2022-09-01,株式会社トライコムワークス,,株式会社,福岡県,福岡市中央区,赤坂１丁目１０番９号,,40,133,8100042,,,2022-09-01,合併による解散等,5290001045969,令和４年９月１日福岡市中央区赤坂一丁目１０番９号株式会社ジャパンネットワークグループ（5290001045969）に合併し解散,2016-12-28,1,,,,,トライコムワークス,0
1827,7290003009887,登記記録の閉鎖等,0,2022-09-08,2022-08-31,合同会社Ｌｉｍコンサルタント,,合同会社,福岡県,久留米市,西町１４７２番地３,,40,203,8300038,,,2022-08-31,清算の結了等,,,2020-03-30,1,,,,,リムコンサルタント,0
1828,7290005002808,登記記録の閉鎖等,0,2022-09-08,2022-09-06,ＵＡゼンセンベスト電器労働組合,,その他の設立登記法人,福岡県,福岡市中央区,那の津２丁目１０番５号,,40,133,8100071,,,2022-09-06,清算の結了等,,,2015-10-05,1,,,,,ユーエーゼンセンベストデンキ,0
1836,7340002009387,登記記録の閉鎖等,0,2022-09-08,2022-09-06,有限会社みやストアー,,有限会社,鹿児島県,鹿児島市,下伊敷３丁目２８番２号,,46,201,8900005,,,2022-09-06,清算の結了等,,,2015-10-05,1,,,,,ミヤストアー,0
1848,7380001003255,登記記録の閉鎖等,0,2022-09-08,2022-09-05,佐藤興産株式会社,,株式会社,福島県,伊達市,梁川町字本町４４番地,,07,213,9600783,,,2022-09-05,清算の結了等,,,2015-10-05,1,,,,,サトウコウサン,0
1856,7410002000586,登記記録の閉鎖等,0,2022-09-08,2022-09-05,有限会社石井工務店,,有限会社,秋田県,秋田市,雄和田草川字太田３７番地,,05,201,0101201,,,2022-09-05,清算の結了等,,,2015-10-05,1,,,,,イシイコウムテン,0
1857,7420001010536,登記記録の閉鎖等,0,2022-09-08,2022-09-02,株式会社アルプス空調設備,,株式会社,青森県,弘前市,大字神田２丁目４番地１,,02,202,0368061,,,2022-09-02,清算の結了等,,,2015-10-05,1,,,,,アルプスクウチョウセツビ,0
1869,7500001009090,登記記録の閉鎖等,0,2022-09-08,2022-09-06,平岡建設興業株式会社,,株式会社,愛媛県,西条市,福武甲６４番地,,38,206,7930035,,,2022-09-06,清算の結了等,,,2015-10-05,1,,,,,ヒラオカケンセツコウギョウ,0
1871,8010001131100,登記記録の閉鎖等,0,2022-09-08,2022-09-01,株式会社アマルフィ,,株式会社,愛知県,名古屋市中区,栄３丁目３５番３４号栄タワーヒルズ２００１号,,23,106,4600008,,,2022-09-01,合併による解散等,7180001117785,令和４年９月１日名古屋市熱田区沢下町３番１９号株式会社アーカス（7180001117785）に合併し解散,2015-10-05,1,,,,,アマルフィ,0
1874,8010001179230,登記記録の閉鎖等,0,2022-09-08,2022-09-01,株式会社ＢＬＤコーポレイション,,株式会社,東京都,中央区,八丁堀２丁目２２番５号大島屋ビル７Ｆ,,13,102,1040032,,,2022-09-01,合併による解散等,7010001179231,令和４年９月１日東京都中央区八丁堀二丁目２２番５号大島屋ビル７Ｆ株式会社ＢＬＤホールディングス（7010001179231）に合併し解散,2016-10-28,1,,,,,ビーエルディコーポレイション,0
1880,8010005028796,登記記録の閉鎖等,0,2022-09-08,2022-09-02,ＧＲ一般社団法人,,その他の設立登記法人,東京都,千代田区,神田駿河台１丁目２番地５税理士法人ＨＯＲＩＣＯ内,,13,101,1010062,,,2022-09-02,清算の結了等,,,2018-07-13,1,,,,,ジーアール,0
1928,8011302015330,登記記録の閉鎖等,0,2022-09-08,2022-09-01,有限会社メイフィールド,,有限会社,東京都,杉並区,永福３丁目３４番１２号,,13,115,1680064,,,2022-09-01,清算の結了等,,,2015-10-05,1,,,,,メイフィールド,0
1933,8011602002557,登記記録の閉鎖等,0,2022-09-08,2022-09-05,有限会社風祭酒店,,有限会社,東京都,練馬区,桜台２丁目３５番地,,13,120,1760002,,,2022-09-05,清算の結了等,,,2015-10-05,1,,,,,カザマツリサケテン,0
1950,8020002069974,登記記録の閉鎖等,0,2022-09-08,2022-09-06,有限会社フリーダム,,有限会社,神奈川県,秦野市,東田原２００番３０３,,14,211,2570028,,,2022-09-06,清算の結了等,,,2015-10-05,1,,,,,フリーダム,0
1958,8021005000232,登記記録の閉鎖等,0,2022-09-08,2022-08-25,宗教法人天理教由井ヶ濱分教会,,その他の設立登記法人,神奈川県,藤沢市,白旗３丁目４番２０号,,14,205,2510051,,,2022-08-25,合併による解散等,7010005000277,令和４年８月１９日東京都中央区日本橋茅場町二丁目１３番６号天理教日京分教会（7010005000277）に合併し解散,2015-10-05,1,,,,,テンリキョウユイガハマブンキョウカイ,0
1960,8030001137293,登記記録の閉鎖等,0,2022-09-08,2022-08-30,株式会社マリン,,株式会社,埼玉県,さいたま市大宮区,宮町５丁目１１９番地１メゾンエスポワール４０７号室,,11,103,3300802,,,2022-08-30,清算の結了等,,,2020-07-10,1,,,,,マリン,0
2007,8120001090780,登記記録の閉鎖等,0,2022-09-08,2022-09-05,株式会社メディカルエフォート,,株式会社,大阪府,大阪市中央区,玉造１丁目１３番４号小林ビル,,27,128,5400004,,,2022-09-05,清算の結了等,,,2015-10-05,1,,,,,,0
2069,8200005007442,登記記録の閉鎖等,0,2022-09-08,2022-09-06,医療法人成仁会,,その他の設立登記法人,岐阜県,美濃市,２２８２番地,,21,207,5013701,,,2022-09-06,清算の結了等,,,2015-10-05,1,,,,,セイジンカイ,0
2082,8260001017943,登記記録の閉鎖等,0,2022-09-08,2022-09-06,株式会社木元屋,,株式会社,岡山県,浅口市,鴨方町本庄１９３１番地,,33,216,7190232,,,2022-09-06,清算の結了等,,,2015-10-05,1,,,,,キモトヤ,0
2085,8260002030532,登記記録の閉鎖等,0,2022-09-08,2022-09-05,有限会社善徳,,有限会社,岡山県,英田郡西粟倉村,大字影石３４８番地の１,,33,643,7070503,,,2022-09-05,清算の結了等,,,2015-10-05,1,,,,,ゼントク,0
2086,8260003001920,登記記録の閉鎖等,0,2022-09-08,2022-09-05,合同会社マチルダ,,合同会社,岡山県,岡山市南区,西紅陽台３丁目１番地１４９,,33,104,7091203,,,2022-09-05,清算の結了等,,,2016-01-08,1,,,,,マチルダ,0
2087,8280001008321,登記記録の閉鎖等,0,2022-09-08,2022-09-05,株式会社出雲ｕｎＴａｎ,,株式会社,島根県,出雲市,河下町４０１番地１,,32,203,6910025,,,2022-09-05,清算の結了等,,,2020-12-23,1,,,,,イズモウンタン,0
2094,8290002038770,登記記録の閉鎖等,0,2022-09-08,2022-09-01,有限会社おおりタクシー,,有限会社,福岡県,大野城市,中央２丁目３番２号,,40,219,8160942,,,2022-09-01,合併による解散等,2290002040699,令和４年９月１日福岡県春日市塚原台三丁目１１０番地２共働タクシー株式会社（2290002040699）に合併し解散,2015-10-05,1,,,,,オオリタクシー,0
2099,8340005005779,登記記録の閉鎖等,0,2022-09-08,2022-08-29,天理教筑薩分教会,00100338,その他の設立登記法人,鹿児島県,枕崎市,寿町５１８番地,,46,204,8980062,,,2022-08-29,合併による解散等,1340005005736,令和４年８月２９日鹿児島県南さつま市金峰町大野３１４番地天理教南薩分教会（1340005005736）に合併し解散,2015-10-05,1,,,,,,0
2101,8360001022751,登記記録の閉鎖等,0,2022-09-08,2022-09-01,株式会社ＡＩプランニング,,株式会社,沖縄県,中頭郡北中城村,字比嘉５９６番地１３,,47,327,9012305,,,2022-09-01,清算の結了等,,,2017-08-08,1,,,,,エーアイプランニング,0
2112,8420001007622,登記記録の閉鎖等,0,2022-09-08,2022-09-05,株式会社かねよし水産,,株式会社,青森県,八戸市,新湊１丁目２３番１０号,,02,203,0310811,,,2022-09-05,清算の結了等,,,2015-10-05,1,,,,,,0
2114,8420001016458,登記記録の閉鎖等,0,2022-09-08,2022-09-02,株式会社リアフル,,株式会社,青森県,上北郡七戸町,字前川原２番地３ＫアパートＡ棟２１号室,,02,402,0392583,,,2022-09-02,清算の結了等,,,2019-01-17,1,,,,,,0
2119,8480002001643,登記記録の閉鎖等,0,2022-09-08,2022-09-07,有限会社河野地研,,有限会社,徳島県,徳島市,八多町北内５番地,,36,201,7714266,,,2022-09-07,清算の結了等,,,2015-10-05,1,,,,,カワノチケン,0
2135,9010005027748,登記記録の閉鎖等,0,2022-09-08,2022-09-06,一般社団法人平河町プロパティ,,その他の設立登記法人,東京都,渋谷区,代々木１丁目２５番５号,,13,113,1510053,,,2022-09-06,清算の結了等,,,2017-11-17,1,,,,,ヒラカワチョウプロパティ,0
2144,9010401126442,登記記録の閉鎖等,0,2022-09-08,2022-08-22,スパークスビー株式会社,,株式会社,東京都,港区,芝公園２丁目６番８号日本女子会館６Ｆ－ＯＷＬ,,13,103,1050011,,,2022-08-22,清算の結了等,,,2016-08-18,1,,,,,スパークスビー,0
2146,9010401133967,登記記録の閉鎖等,0,2022-09-08,2022-09-02,広尾セブンススマイル株式会社,,株式会社,京都府,京都市左京区,一乗寺谷田町５番地,,26,103,6068153,,,2022-09-02,清算の結了等,,,2017-09-29,1,,,,,ヒロオセブンススマイル,0
2160,9010601037448,登記記録の閉鎖等,0,2022-09-08,2022-09-05,フォレスト・フォールディング株式会社,,株式会社,東京都,豊島区,雑司が谷３丁目８番２－４０２号,,13,116,1710032,,,2022-09-05,清算の結了等,,,2015-10-05,1,,,,,フォレストフォールディング,0
2173,9011001102949,登記記録の閉鎖等,0,2022-09-08,2022-08-26,株式会社ジルコンサルティング,,株式会社,東京都,渋谷区,初台１丁目５１番１号,,13,113,1510061,,,2022-08-26,清算の結了等,,,2015-10-05,1,,,,,ジルコンサルティング,0
2187,9011101065988,登記記録の閉鎖等,0,2022-09-08,2022-08-26,株式会社シェルパ,,株式会社,東京都,渋谷区,道玄坂１丁目１２番１号,,13,113,1500043,,,2022-08-26,清算の結了等,,,2015-10-05,1,,,,,シェルパ,0
2188,9011102023012,登記記録の閉鎖等,0,2022-09-08,2022-09-05,ケーフォン有限会社,,有限会社,東京都,新宿区,百人町２丁目２１番１号富屋ビル１Ｆ,,13,104,1690073,,,2022-09-05,清算の結了等,,,2015-10-05,1,,,,,ケーフォン,0
2206,9013202006219,登記記録の閉鎖等,0,2022-09-08,2022-08-26,南川縫製有限会社,,有限会社,東京都,目黒区,大岡山１丁目８番３号,,13,110,1520033,,,2022-08-26,清算の結了等,,,2015-10-05,1,,,,,ミナミカワホウセイ,0
2215,9020002061204,登記記録の閉鎖等,0,2022-09-08,2022-09-05,有限会社デジタル・ビーイング・キッズ,,有限会社,神奈川県,横浜市神奈川区,白楽３２番地青桐荘３号室,,14,102,2210065,,,2022-09-05,清算の結了等,,,2015-10-05,1,,,,,デジタルビーイングキッズ,0
2248,9040005002070,登記記録の閉鎖等,0,2022-09-08,2022-09-02,ＮＰＯ法人障がい者の地域生活を支援する会フロンティア,,その他の設立登記法人,千葉県,千葉市中央区,南町３丁目１番１号ダイゴビル３階,,12,101,2600842,,,2022-09-02,清算の結了等,,,2015-10-05,1,,,,,,0
2253,9050002041814,登記記録の閉鎖等,0,2022-09-08,2022-08-31,有限会社伊佐企画,,有限会社,茨城県,筑西市,中舘４３０番地の１,,08,227,3080005,,,2022-08-31,合併による解散等,7050001031322,令和４年８月３１日茨城県筑西市一本松３５番地株式会社アーバンシステムコンサルタント（7050001031322）に合併し解散,2015-10-05,1,,,,,イサキカク,0
2263,9080101016045,登記記録の閉鎖等,0,2022-09-08,2022-09-01,共和ホールディングス株式会社,,株式会社,静岡県,富士宮市,浅間町１２番１５号,,22,207,4180032,,,2022-09-01,合併による解散等,7080101011378,令和４年９月１日静岡県富士宮市浅間町１２番１５号株式会社共和（7080101011378）に合併し解散,2015-10-05,1,,,,,キョウワホールディングス,0
2264,9080101021607,登記記録の閉鎖等,0,2022-09-08,2022-09-01,株式会社エンゼルフォレストリゾートトゥレ,,株式会社,静岡県,熱海市,田原本町９番１号,,22,205,4130011,,,2022-09-01,合併による解散等,1010401010471,令和４年９月１日静岡県熱海市田原本町９番１号株式会社エンゼルフォレストリゾート（1010401010471）に合併し解散,2020-02-13,1,,,,,エンゼルフォレストリゾートトゥレ,0
2267,9080405006064,登記記録の閉鎖等,0,2022-09-08,2022-09-02,宇刈三沢製茶農業協同組合,,その他の設立登記法人,静岡県,袋井市,宇刈８０８番地,,22,216,4370121,,,2022-09-02,清算の結了等,,,2015-10-05,1,,,,,ウガリミサワセイチャ,0
2268,9090002014510,登記記録の閉鎖等,0,2022-09-08,2022-09-06,有限会社パス,,有限会社,山梨県,韮崎市,穂坂町宮久保２３５８番地の４,,19,207,4070175,,,2022-09-06,清算の結了等,,,2015-10-05,1,,,,,パス,0
2290,9120901008609,登記記録の閉鎖等,0,2022-09-08,2022-09-05,矢田商事株式会社,,株式会社,大阪府,吹田市,樫切山１９番１０号,,27,205,5650806,,,2022-09-05,清算の結了等,,,2015-10-05,1,,,,,,0
2300,9140001113613,登記記録の閉鎖等,0,2022-09-08,2022-09-01,ＳａｎＬｅａｄ株式会社,,株式会社,兵庫県,芦屋市,涼風町２９番３号,,28,206,6590036,,,2022-09-01,清算の結了等,,,2019-05-14,1,,,,,サンレード,0
2303,9140005021903,登記記録の閉鎖等,0,2022-09-08,2022-09-02,特定非営利活動法人ワークショップ絆,,その他の設立登記法人,兵庫県,神戸市北区,八多町中１３９１番地,,28,109,6511351,,,2022-09-02,清算の結了等,,,2015-10-05,1,,,,,ワークショップキズナ,0
2326,9200002021461,登記記録の閉鎖等,0,2022-09-08,2022-09-05,有限会社南平窯山木製陶所,,有限会社,岐阜県,土岐市,妻木町１８４７番地,,21,212,5095301,,,2022-09-05,清算の結了等,,,2015-10-05,1,,,,,ナンペイガマヤマキセイトウジョ,0
2328,9200005012318,登記記録の閉鎖等,0,2022-09-08,2022-09-07,特定非営利活動法人ふくしの郷,,その他の設立登記法人,岐阜県,高山市,岡本町４丁目７番地１,,21,203,5060054,,,2022-09-07,清算の結了等,,,2015-10-05,1,,,,,フクシノサト,0
2342,9260003001449,登記記録の閉鎖等,0,2022-09-08,2022-09-05,合同会社金岡,,合同会社,岡山県,岡山市南区,西紅陽台３丁目１番地１４９,,33,104,7091203,,,2022-09-05,清算の結了等,,,2015-10-05,1,,,,,カネオカ,0
2357,9290802009573,登記記録の閉鎖等,0,2022-09-08,2022-09-01,有限会社芹野工務店,,有限会社,福岡県,北九州市門司区,奥田１丁目１１番２３号,,40,101,8000011,,,2022-09-01,清算の結了等,,,2015-10-05,1,,,,,セリノコウムテン,0
2379,9380002027078,登記記録の閉鎖等,0,2022-09-08,2022-09-05,有限会社テクノ東栄,,有限会社,福島県,いわき市,四倉町細谷字豊向６６番地の３,,07,204,9790204,,,2022-09-05,合併による解散等,3380001013423,令和４年９月１日福島県いわき市四倉町下仁井田字樋向４２番地東栄クイックマシン株式会社（3380001013423）に合併し解散,2015-10-05,1,,,,,テクノトウエイ,0
