sequenceNumber,corporateNumber,process,correct,updateDate,changeDate,name,nameImageId,kind,prefectureName,cityName,streetNumber,addressImageId,prefectureCode,cityCode,postCode,addressOutside,addressOutsideImageId,closeDate,closeCause,successorCorporateNumber,changeCause,assignmentDate,latest,enName,enPrefectureName,enCityName,enAddressOutside,furigana,hihyoji
6,1010001252753,新規,0,2025-03-05,2025-03-05,Ｖｉｔａｆｌｏｗ　Ｊａｐａｎ株式会社,,株式会社,東京都,中央区,日本橋箱崎町２７番９号オフィスヴェラ日本橋箱崎１階,,13,102,1030015,,,,,,,2025-03-05,1,,,,,ヴィタフロージャパン,0
28,1010401188614,新規,0,2025-03-05,2025-03-05,株式会社ＢＥＥＦＹ,,株式会社,東京都,港区,麻布十番２丁目１番１０号Ａｚａｂｕ・Ｙｏｕ田中ビル５階,,13,103,1060045,,,,,,,2025-03-05,1,,,,,ビーフィー,0
30,1010403034535,新規,0,2025-03-05,2025-03-05,合同会社このみ,,合同会社,東京都,港区,新橋４丁目１４番１号新橋ＡＵＮＢＬＤＧ４階,,13,103,1050004,,,,,,,2025-03-05,1,,,,,コノミ,0
33,1010601066859,新規,0,2025-03-05,2025-03-05,株式会社ＹＭＳインターナショナル,,株式会社,東京都,江東区,北砂３丁目５番４１－５０５号,,13,108,1360073,,,,,,,2025-03-05,1,,,,,ワイエムエスインターナショナル,0
34,1010601066875,新規,0,2025-03-05,2025-03-05,新安株式会社,,株式会社,東京都,江東区,北砂３丁目２８番１号不動コーポ２０７号,,13,108,1360073,,,,,,,2025-03-05,1,,,,,シンアン,0
40,1010901056923,新規,0,2025-03-05,2025-03-05,株式会社ｙｏｓｐ,,株式会社,東京都,世田谷区,代田３丁目１６番１０号,,13,112,1550033,,,,,,,2025-03-05,1,,,,,ワイオーエスピー,0
49,1011001167776,新規,0,2025-03-05,2025-03-05,株式会社ｈｙｔｅｃｈ,,株式会社,東京都,渋谷区,恵比寿１丁目３３番７号メゾン・ド・パピヨン６０３,,13,113,1500013,,,,,,,2025-03-05,1,,,,,ハイテク,0
50,1011001168155,新規,0,2025-03-05,2025-03-05,株式会社ＵＮＴＩＴＬＥＤ,,株式会社,東京都,目黒区,下目黒１丁目１番１４号コノトラビル７Ｆ,,13,110,1530064,,,,,,,2025-03-05,1,,,,,アンタイトル,0
52,1011101110842,新規,0,2025-03-05,2025-03-05,株式会社ＴＭＳホールディングス,,株式会社,東京都,新宿区,四谷２丁目１０番地３,,13,104,1600004,,,,,,,2025-03-05,1,,,,,ティーエムエスホールディングス,0
53,1011103015602,新規,0,2025-03-05,2025-03-05,ルートエース合同会社,,合同会社,東京都,新宿区,百人町１丁目６ー２７新宿マンション４０３,,13,104,1690073,,,,,,,2025-03-05,1,,,,,ルートエース,0
55,1011203004629,新規,0,2025-03-05,2025-03-05,合同会社ＡＤａｄｄ,,合同会社,東京都,中野区,東中野１丁目３３番１５号,,13,114,1640003,,,,,,,2025-03-05,1,,,,,アドアド,0
62,1011801045727,新規,0,2025-03-05,2025-03-05,Ｗｅｂ　Ｖｉｌｌａｇｅ株式会社,,株式会社,東京都,葛飾区,東新小岩５丁目１４番１６号,,13,122,1240023,,,,,,,2025-03-05,1,,,,,ウェブヴィレッジ,0
63,1011801045743,新規,0,2025-03-05,2025-03-05,森川商事株式会社,,株式会社,東京都,葛飾区,柴又３丁目１１－１１カエデ柴又２０６号室,,13,122,1250052,,,,,,,2025-03-05,1,,,,,モリカワショウジ,0
65,1011803006719,新規,0,2025-03-05,2025-03-05,合同会社ＧＯＬＤＳＨＩＰ,,合同会社,東京都,足立区,一ツ家２丁目１２－７,,13,121,1210075,,,,,,,2025-03-05,1,,,,,ゴールドシップ,0
73,1012701018731,新規,0,2025-03-05,2025-03-05,株式会社春鵬,,株式会社,東京都,清瀬市,竹丘１丁目１４番１４－４０２号,,13,221,2040023,,,,,,,2025-03-05,1,,,,,ハルホウ,0
76,1013303007560,新規,0,2025-03-05,2025-03-05,合同会社ＭＣａｐｉｔａｌ,,合同会社,東京都,豊島区,南長崎３丁目２５番４号,,13,116,1710052,,,,,,,2025-03-05,1,,,,,エムキャピタル,0
89,1021001084632,新規,0,2025-03-05,2025-03-05,株式会社武藤産業,,株式会社,神奈川県,横須賀市,東浦賀１丁目１３番１－１７１０号,,14,201,2390821,,,,,,,2025-03-05,1,,,,,ムトウサンギョウ,0
92,1021003015668,新規,0,2025-03-05,2025-03-05,合同会社ＬｉＢｒｉｇｈｔ,,合同会社,神奈川県,相模原市緑区,橋本２丁目３番２２号　大雄地所本社ビル６０１号,,14,151,2520143,,,,,,,2025-03-05,1,,,,,リブライト,0
96,1030001165086,新規,0,2025-03-05,2025-03-05,株式会社松心,,株式会社,埼玉県,越谷市,大字平方３１１６番地６,,11,222,3430002,,,,,,,2025-03-05,1,,,,,ショウシン,0
97,1030001165152,新規,0,2025-03-05,2025-03-05,富諾金属株式会社,,株式会社,埼玉県,さいたま市見沼区,大字大谷１７８５－４－１０２,,11,104,3370014,,,,,,,2025-03-05,1,,,,,トミタクキンゾク,0
98,1030001165185,新規,0,2025-03-05,2025-03-05,デシミック株式会社,,株式会社,埼玉県,さいたま市見沼区,宮ヶ谷塔３丁目１１９番地２,,11,104,3370011,,,,,,,2025-03-05,1,,,,,デシミック,0
99,1030001165202,新規,0,2025-03-05,2025-03-05,ＶＣビルディング株式会社,,株式会社,埼玉県,さいたま市大宮区,堀の内町２丁目９番地１,,11,103,3300804,,,,,,,2025-03-05,1,,,,,ヴイシービルディング,0
100,1030001165210,新規,0,2025-03-05,2025-03-05,株式会社Ｂ‐ｏｎｄ,,株式会社,埼玉県,川口市,東川口４丁目２１－５けやきヒルズ２０３,,11,203,3330801,,,,,,,2025-03-05,1,,,,,ビーオンディー,0
104,1030003026212,新規,0,2025-03-05,2025-03-05,Ｔ＆Ｈ合同会社,,合同会社,埼玉県,蕨市,塚越５丁目５１番２号ＳＥＩＫＡ塚越２０６号,,11,223,3350002,,,,,,,2025-03-05,1,,,,,ティーアンドエイチ,0
106,1040001137654,新規,0,2025-03-05,2025-03-05,株式会社アドバンス,,株式会社,千葉県,柏市,若柴２７６番１号,,12,217,2770871,,,,,,,2025-03-05,1,,,,,アドバンス,0
107,1040001137670,新規,0,2025-03-05,2025-03-05,株式会社Ｑｕａｎ,,株式会社,千葉県,四街道市,めいわ４丁目２１番３４号,,12,228,2840043,,,,,,,2025-03-05,1,,,,,クオン,0
108,1040001137704,新規,0,2025-03-05,2025-03-05,株式会社スリーシップ,,株式会社,千葉県,千葉市中央区,問屋町３番１号サンクレイドル千葉中央３０２号,,12,101,2600025,,,,,,,2025-03-05,1,,,,,スリーシップ,0
109,1040001137712,新規,0,2025-03-05,2025-03-05,株式会社Ｇｒａｚｉｅ　Ｄｉ　Ｃｕｏｒｅ,,株式会社,千葉県,市川市,妙典４丁目３番２７－１０２号,,12,203,2720111,,,,,,,2025-03-05,1,,,,,グラツィエディクオーレ,0
111,1040003027011,新規,0,2025-03-05,2025-03-05,ＩＳＫ合同会社,,合同会社,千葉県,千葉市若葉区,原町９２３番地１シティハイムサンハイツＣ－１０１号,,12,104,2640034,,,,,,,2025-03-05,1,,,,,アイエスケイ,0
112,1040003027036,新規,0,2025-03-05,2025-03-05,ダミツ合同会社,,合同会社,千葉県,八街市,八街い９４番地１,,12,230,2891143,,,,,,,2025-03-05,1,,,,,ダミツ,0
118,1060001037976,新規,0,2025-03-05,2025-03-05,株式会社アトリエＫＡＮ,,株式会社,栃木県,那須塩原市,青木２７番地１９６９,,09,213,3250103,,,,,,,2025-03-05,1,,,,,アトリエカン,0
119,1070001042661,新規,0,2025-03-05,2025-03-05,景福株式会社,,株式会社,群馬県,伊勢崎市,三室町６０９５番地２号,,10,204,3792235,,,,,,,2025-03-05,1,,,,,ケイフク,0
121,1080001026787,新規,0,2025-03-05,2025-03-05,株式会社シンセリティーＹ’ｓ,,株式会社,静岡県,静岡市駿河区,中島１１５６番地の２長伸ハイツＣ号,,22,102,4228046,,,,,,,2025-03-05,1,,,,,シンセリティーワイズ,0
126,1080403005216,新規,0,2025-03-05,2025-03-05,合同会社フクロウ,,合同会社,静岡県,浜松市中央区,広沢１丁目１１番１５号,,22,138,4328013,,,,,,,2025-03-05,1,,,,,フクロウ,0
147,1120001273400,新規,0,2025-03-05,2025-03-05,アスニック株式会社,,株式会社,大阪府,寝屋川市,初町６－２５－３０１,,27,215,5720833,,,,,,,2025-03-05,1,,,,,アスニック,0
148,1120001273425,新規,0,2025-03-05,2025-03-05,ＮＯＡＨ株式会社,,株式会社,大阪府,大阪市西成区,天下茶屋北２丁目５番４号,,27,122,5570003,,,,,,,2025-03-05,1,,,,,ノア,0
149,1120001273433,新規,0,2025-03-05,2025-03-05,株式会社ＭｉｇＬｉｆｔ,,株式会社,大阪府,大阪市平野区,加美北７丁目７番１０号,,27,126,5470001,,,,,,,2025-03-05,1,,,,,ミグリフト,0
153,1120003028785,新規,0,2025-03-05,2025-03-05,らんたん合同会社,,合同会社,大阪府,大阪市北区,同心２丁目２番４号エスリード同心７０１号室,,27,127,5300035,,,,,,,2025-03-05,1,,,,,ランタン,0
158,1120101071159,新規,0,2025-03-05,2025-03-05,ＶＩＬＬＡ　ＮＯＶＡ　ＨＩＲＡＮＯ株式会社,,株式会社,大阪府,大阪狭山市,大野台６丁目２０番１８号,,27,231,5890023,,,,,,,2025-03-05,1,,,,,ビィラノバヒラノ,0
173,1140001137553,新規,0,2025-03-05,2025-03-05,日本喜宝株式会社,,株式会社,兵庫県,神戸市長田区,五位ノ池町４丁目１０番８号,,28,106,6530851,,,,,,,2025-03-05,1,,,,,ニホンキホウ,0
174,1140001137660,新規,0,2025-03-05,2025-03-05,株式会社ＫＡＭ,,株式会社,兵庫県,神戸市北区,藤原台北町１丁目１５番１号,,28,109,6511301,,,,,,,2025-03-05,1,,,,,カム,0
183,1180001165658,新規,0,2025-03-05,2025-03-05,宇騰国際株式会社,,株式会社,愛知県,名古屋市中村区,草薙町３丁目５３ことぶき荘１１号室,,23,105,4530064,,,,,,,2025-03-05,1,,,,,ウトウコクサイ,0
184,1180001165708,新規,0,2025-03-05,2025-03-05,株式会社ＮＵＲＥＥ,,株式会社,愛知県,名古屋市中区,千代田３丁目１１番２号,,23,106,4600012,,,,,,,2025-03-05,1,,,,,ヌレ,0
185,1180001165724,新規,0,2025-03-05,2025-03-05,株式会社ＫＳ．ＡＩＲ　ＣＬＥＡＮ,,株式会社,愛知県,名古屋市中村区,名駅４丁目２４番５号,,23,105,4500002,,,,,,,2025-03-05,1,,,,,ケイエスエアクリーン,0
191,1180003027947,新規,0,2025-03-05,2025-03-05,合同会社ＮＥＸＳＩＡ,,合同会社,愛知県,海部郡大治町,大字鎌須賀７アジュール１０２号,,23,424,4901135,,,,,,,2025-03-05,1,,,,,ネクシア,0
192,1180003028045,新規,0,2025-03-05,2025-03-05,合同会社ＣＧＬ,,合同会社,愛知県,岩倉市,東町掛目１８８番地２,,23,228,4820041,,,,,,,2025-03-05,1,,,,,シージーエル,0
193,1180003028078,新規,0,2025-03-05,2025-03-05,合同会社龍組,,合同会社,愛知県,名古屋市南区,赤坪町３６番地の１シャルマン赤坪１０２号,,23,112,4570024,,,,,,,2025-03-05,1,,,,,タツグミ,0
194,1180301039578,新規,0,2025-03-05,2025-03-05,ＫＭＣ株式会社,,株式会社,愛知県,岡崎市,牧平町字社口３４番地６,,23,202,4443624,,,,,,,2025-03-05,1,,,,,ケイエムシー,0
211,1240001064589,新規,0,2025-03-05,2025-03-05,株式会社Ｇｒａｎｄｅ,,株式会社,広島県,尾道市,高須町４８４０番地５,,34,205,7290141,,,,,,,2025-03-05,1,,,,,グランデ,0
212,1240001064606,新規,0,2025-03-05,2025-03-05,株式会社ビムズ,,株式会社,広島県,広島市東区,山根町２８番２０－３０３号,,34,102,7320048,,,,,,,2025-03-05,1,,,,,,0
219,1260001039960,新規,0,2025-03-05,2025-03-05,ＷＥＳＴＯＭＹ株式会社,,株式会社,岡山県,倉敷市,西富井１１９２番地,,33,202,7100845,,,,,,,2025-03-05,1,,,,,ウエストミー,0
220,1260001039969,新規,0,2025-03-05,2025-03-05,株式会社茂成商事,,株式会社,岡山県,瀬戸内市,長船町服部１４６４番地,,33,212,7014276,,,,,,,2025-03-05,1,,,,,シゲナリショウジ,0
221,1260001039977,新規,0,2025-03-05,2025-03-05,株式会社ロギングワーカー,,株式会社,岡山県,苫田郡鏡野町,塚谷６１２番地２５,,33,606,7080365,,,,,,,2025-03-05,1,,,,,ロギングワーカー,0
224,1270001009161,新規,0,2025-03-05,2025-03-05,株式会社ラフ企画,,株式会社,鳥取県,米子市,両三柳２６６４番地４,,31,202,6830853,,,,,,,2025-03-05,1,,,,,ラフキカク,0
227,1290001109141,新規,0,2025-03-05,2025-03-05,株式会社ｉｔ’ｓ　ｈａｔｃｈ,,株式会社,福岡県,福岡市中央区,六本松４丁目６－９,,40,133,8100044,,,,,,,2025-03-05,1,,,,,イッツハッチ,0
228,1290001109166,新規,0,2025-03-05,2025-03-05,株式会社ＢａｕＫｒａｆｔ,,株式会社,福岡県,福岡市南区,長丘３丁目２１番１０号,,40,134,8150075,,,,,,,2025-03-05,1,,,,,バウクラフト,0
229,1290001109232,新規,0,2025-03-05,2025-03-05,株式会社ジェイフォワード,,株式会社,福岡県,福岡市東区,舞松原２丁目７の２２,,40,131,8130042,,,,,,,2025-03-05,1,,,,,ジェイフォワード,0
231,1290003016492,新規,0,2025-03-05,2025-03-05,Ｌｅａｐｌｉｎｋ合同会社,,合同会社,福岡県,糟屋郡須惠町,大字新原４６２－１サンライズ須恵ＩＩ１０１号,00138222,40,344,8112111,,,,,,,2025-03-05,1,,,,,,0
235,1290801031305,新規,0,2025-03-05,2025-03-05,株式会社レーベンサポート,,株式会社,福岡県,北九州市小倉南区,守恒２丁目１番４０号,,40,107,8020972,,,,,,,2025-03-05,1,,,,,レーベンサポート,0
236,1290801031313,新規,0,2025-03-05,2025-03-05,株式会社ショッピングセンター西,,株式会社,福岡県,京都郡みやこ町,犀川本庄４６５番地,,40,625,8240231,,,,,,,2025-03-05,1,,,,,ショッピングセンターニシ,0
238,1300001014109,新規,0,2025-03-05,2025-03-05,株式会社ＯＮＥ‐ＴＥＡＭ,,株式会社,佐賀県,鹿島市,大字納富分１８５３番地３,,41,207,8491312,,,,,,,2025-03-05,1,,,,,ワンチーム,0
240,1300003002235,新規,0,2025-03-05,2025-03-05,ＭＲコンサルティング合同会社,,合同会社,佐賀県,佐賀市,大和町大字久池井１７０１番地１１,,41,201,8400202,,,,,,,2025-03-05,1,,,,,エムアールコンサルティング,0
242,1300005007224,新規,0,2025-03-05,2025-03-05,一般社団法人Ｂｅａｃｏｎ　ＪＡＰＡＮ,,その他の設立登記法人,佐賀県,唐津市,町田５丁目１番１号,,41,202,8470821,,,,,,,2025-03-05,1,,,,,ビーコンジャパン,0
246,1310001019486,新規,0,2025-03-05,2025-03-05,株式会社ＡＳＩメドテック,,株式会社,長崎県,佐世保市,島瀬町３番２７－１２０１号,,42,202,8570806,,,,,,,2025-03-05,1,,,,,エイエスアイメドテック,0
247,1310003004957,新規,0,2025-03-05,2025-03-05,合同会社ａｓｐｌａｎｎｅｄ,,合同会社,長崎県,長崎市,八景町１４－１０,,42,201,8500944,,,,,,,2025-03-05,1,,,,,アズプランド,0
248,1310005008832,新規,0,2025-03-05,2025-03-05,特定非営利活動法人長崎ファミリーハウス,,その他の設立登記法人,長崎県,長崎市,坂本１丁目５番２号,,42,201,8528102,,,,,,,2025-03-05,1,,,,,ナガサキファミリーハウス,0
249,1320001020971,新規,0,2025-03-05,2025-03-05,株式会社ＪＡＰＡＮ　ＴＯ　ＴＨＥ　ＷＯＲＬＤ　ＨＤ,,株式会社,大分県,大分市,要町１番４－１３０３号,,44,201,8700831,,,,,,,2025-03-05,1,,,,,,0
250,1320005010226,新規,0,2025-03-05,2025-03-05,大分シャロームキリスト教会,,その他の設立登記法人,大分県,大分市,新町８９番地１,,44,201,8700028,,,,,,,2025-03-05,1,,,,,オオイタシャロームキリストキョウカイ,0
255,1330003010870,新規,0,2025-03-05,2025-03-05,太陽合同会社,,合同会社,熊本県,球磨郡錦町,大字一武２７４４番地１,,43,501,8680302,,,,,,,2025-03-05,1,,,,,タイヨウ,0
257,1340001027156,新規,0,2025-03-05,2025-03-05,株式会社ＦＰ．ｎｏｔｅｐａｉｎｔ,,株式会社,鹿児島県,鹿児島市,宇宿３丁目４２番２２号,,46,201,8900073,,,,,,,2025-03-05,1,,,,,エフピーノートペイント,0
259,1350003004862,新規,0,2025-03-05,2025-03-05,合同会社岡村興業,,合同会社,宮崎県,都城市,宮丸町５街区１４号コーポ第一３０１,,45,202,8850078,,,,,,,2025-03-05,1,,,,,オカムラコウギョウ,0
260,1360001034869,新規,0,2025-03-05,2025-03-05,天久株式会社,,株式会社,沖縄県,那覇市,天久２丁目７番７号,,47,201,9000005,,,,,,,2025-03-05,1,,,,,テンキュウ,0
262,1370001052309,新規,0,2025-03-05,2025-03-05,山一工業株式会社,,株式会社,宮城県,黒川郡大衡村,大瓜字平場１２番地,,04,424,9813601,,,,,,,2025-03-05,1,,,,,ヤマイチコウギョウ,0
263,1370001052317,新規,0,2025-03-05,2025-03-05,株式会社北日本設備,,株式会社,宮城県,仙台市宮城野区,鶴ケ谷字北畑７番地３,,04,102,9830824,,,,,,,2025-03-05,1,,,,,キタニホンセツビ,0
278,1430001093791,新規,0,2025-03-05,2025-03-05,株式会社エンブシス,,株式会社,北海道,札幌市豊平区,平岸五条６丁目２番１－４０１号,,01,105,0620935,,,,,,,2025-03-05,1,,,,,エンブシス,0
279,1430001093800,新規,0,2025-03-05,2025-03-05,株式会社ＢＲＦ,,株式会社,北海道,札幌市中央区,北十八条西１５丁目２番３－２０６号,,01,101,0600018,,,,,,,2025-03-05,1,,,,,ビーアールエフ,0
280,1430001093809,新規,0,2025-03-05,2025-03-05,福祉サービス株式会社,,株式会社,北海道,札幌市白石区,中央二条３丁目６番２４号,,01,104,0030012,,,,,,,2025-03-05,1,,,,,フクシサービス,0
288,1470003002813,新規,0,2025-03-05,2025-03-05,合同会社アトリエクッカ,,合同会社,香川県,仲多度郡多度津町,家中４番３４号,,37,404,7640002,,,,,,,2025-03-05,1,,,,,,0
289,1480001012763,新規,0,2025-03-05,2025-03-05,株式会社明光,,株式会社,徳島県,鳴門市,大麻町東馬詰字南開２２番地１,,36,202,7790312,,,,,,,2025-03-05,1,,,,,メイコウ,0
290,1480003002242,新規,0,2025-03-05,2025-03-05,合同会社グローカル,,合同会社,徳島県,徳島市,東出来島町３５番地,,36,201,7700822,,,,,,,2025-03-05,1,,,,,グローカル,0
298,2010001252736,新規,0,2025-03-05,2025-03-05,株式会社和行,,株式会社,東京都,千代田区,二番町１番地２,,13,101,1020084,,,,,,,2025-03-05,1,,,,,ワゴウ,0
299,2010001252760,新規,0,2025-03-05,2025-03-05,株式会社光海ソリューションズ,,株式会社,東京都,千代田区,神田須田町１丁目７番８号ＶＯＲＴ秋葉原ＩＶ２Ｆ,00138213,13,101,1010041,,,,,,,2025-03-05,1,,,,,ミツミソリューションズ,0
300,2010001252777,新規,0,2025-03-05,2025-03-05,ポーカーパーク株式会社,,株式会社,東京都,中央区,築地３丁目１７番１０号,,13,102,1040045,,,,,,,2025-03-05,1,,,,,ポーカーパーク,0
311,2010005039667,新規,0,2025-03-05,2025-03-05,一般社団法人三軒茶屋プロジェクト,,その他の設立登記法人,東京都,千代田区,丸の内１丁目４番１号東京共同会計事務所内,,13,101,1000005,,,,,,,2025-03-05,1,,,,,サンゲンヂャヤプロジェクト,0
312,2010005039683,新規,0,2025-03-05,2025-03-05,オーク・ロジ川越２特定目的会社,,その他の設立登記法人,東京都,千代田区,内神田１丁目３番７号４０１あすな会計事務所内,,13,101,1010047,,,,,,,2025-03-05,1,,,,,オークロジカワゴエツー,0
313,2010005039691,新規,0,2025-03-05,2025-03-05,一般社団法人ブルーレジ２,,その他の設立登記法人,東京都,千代田区,丸の内１丁目４番１号東京共同会計事務所内,,13,101,1000005,,,,,,,2025-03-05,1,,,,,ブルーレジツー,0
317,2010401188605,新規,0,2025-03-05,2025-03-05,株式会社ロジカルアートラボ,,株式会社,東京都,港区,芝浦１丁目１３番１０号,,13,103,1050023,,,,,,,2025-03-05,1,,,,,ロジカルアートラボ,0
318,2010401188654,新規,0,2025-03-05,2025-03-05,株式会社ＳｔａｇｅＧａｔｅ　Ｊａｐａｎ,,株式会社,東京都,港区,南青山４丁目１７番３３号,,13,103,1070062,,,,,,,2025-03-05,1,,,,,ステージゲートジャパン,0
319,2010601066874,新規,0,2025-03-05,2025-03-05,Ｇｒａｃａｔ　Ｊａｐａｎ株式会社,,株式会社,東京都,江東区,有明３丁目７番２６号有明フロンティアビルＢ棟９階,,13,108,1350063,,,,,,,2025-03-05,1,,,,,グラキャットジャパン,0
320,2010601066882,新規,0,2025-03-05,2025-03-05,株式会社ゴトウホールディングス,,株式会社,東京都,墨田区,東駒形３丁目２３番１４号,,13,107,1300005,,,,,,,2025-03-05,1,,,,,ゴトウホールディングス,0
321,2010603011408,新規,0,2025-03-05,2025-03-05,少年心合同会社,,合同会社,東京都,墨田区,江東橋４丁目１８番５号錦糸町イスズビル３Ｆ,,13,107,1300022,,,,,,,2025-03-05,1,,,,,アソビゴコロ,0
322,2010701047345,新規,0,2025-03-05,2025-03-05,株式会社ランディングコネクト,,株式会社,東京都,品川区,大井１丁目６番３号アゴラ大井町３階,,13,109,1400014,,,,,,,2025-03-05,1,,,,,ランディングコネクト,0
328,2011001168063,新規,0,2025-03-05,2025-03-05,Ｍａｙｆａｉｒ　Ｂｏｕｔｉｑｕｅ　Ｈｏｔｅｌｓ株式会社,,株式会社,東京都,渋谷区,広尾５丁目４番１２号大成鋼機ビル４Ｆ,,13,113,1500012,,,,,,,2025-03-05,1,,,,,メイフェアブティックホテルズ,0
329,2011001168179,新規,0,2025-03-05,2025-03-05,ＭＪ　Ｃｒｅａｔｉｏｎｓ株式会社,,株式会社,東京都,渋谷区,道玄坂１丁目１０番８号渋谷道玄坂東急ビル２Ｆ‐Ｃ,,13,113,1500043,,,,,,,2025-03-05,1,,,,,エムジェイクリエイションズ,0
331,2011101110866,新規,0,2025-03-05,2025-03-05,ＫＡＩＫＩ株式会社,,株式会社,東京都,新宿区,白銀町１番１３号第１１シグマビルディング飯田橋８Ｆ,,13,104,1620816,,,,,,,2025-03-05,1,,,,,カイキ,0
332,2011103015584,新規,0,2025-03-05,2025-03-05,志豊貿易合同会社,,合同会社,東京都,新宿区,新宿５丁目１４－１２,,13,104,1600022,,,,,,,2025-03-05,1,,,,,シホウボウエキ,0
336,2011303005435,新規,0,2025-03-05,2025-03-05,Ｃｌａｐ合同会社,,合同会社,東京都,杉並区,方南２丁目２７番１０号,,13,115,1680062,,,,,,,2025-03-05,1,,,,,クラップ,0
347,2011801045726,新規,0,2025-03-05,2025-03-05,日本中創株式会社,,株式会社,東京都,葛飾区,東金町１丁目４５番５号タカモト金町ビル６階,,13,122,1250041,,,,,,,2025-03-05,1,,,,,ニホンチュウソウ,0
348,2011801045742,新規,0,2025-03-05,2025-03-05,明和商事株式会社,,株式会社,東京都,葛飾区,柴又３丁目１１－１１カエデ柴又２０５号室,,13,122,1250052,,,,,,,2025-03-05,1,,,,,メイワショウジ,0
349,2012401042840,新規,0,2025-03-05,2025-03-05,株式会社ＭＡＲＵ　ＤＥＳＩＧＮ　ＬＡＢ　ｉｎｃ,,株式会社,東京都,狛江市,東和泉４丁目５番５－３０２号,,13,219,2010014,,,,,,,2025-03-05,1,,,,,マルデザインラボ,0
350,2012401042849,新規,0,2025-03-05,2025-03-05,株式会社メディカルプロダクション,,株式会社,東京都,稲城市,平尾２丁目４１番地の２０,,13,225,2060823,,,,,,,2025-03-05,1,,,,,メディカルプロダクション,0
354,2020001161647,新規,0,2025-03-05,2025-03-05,ＨａｐｐｙＷｅｂ株式会社,,株式会社,神奈川県,横浜市西区,北幸１丁目１１－５相鉄ＫＳビル６Ｆ・９Ｆ,,14,103,2200004,,,,,,,2025-03-05,1,,,,,ハッピーウェブ,0
361,2021001084607,新規,0,2025-03-05,2025-03-05,株式会社はっぴ商店,,株式会社,神奈川県,厚木市,幸町９番６号,,14,212,2430012,,,,,,,2025-03-05,1,,,,,ハッピショウテン,0
365,2021005013289,新規,0,2025-03-05,2025-03-05,一般社団法人障がい児者総合支援事業ＲＥＣＯＶＥＲＹクレオ,,その他の設立登記法人,神奈川県,海老名市,杉久保南１丁目６番６号,,14,215,2430427,,,,,,,2025-03-05,1,,,,,ショウガイジシャソウゴウシエンジギョウリカバリークレオ,0
367,2030001165119,新規,0,2025-03-05,2025-03-05,ＴＳＵＫＵＹＯＭＩ株式会社,,株式会社,埼玉県,所沢市,大字久米２２２０番地１（２０２）,,11,208,3591131,,,,,,,2025-03-05,1,,,,,ツクヨミ,0
368,2030001165135,新規,0,2025-03-05,2025-03-05,株式会社ＮＥロジスティクス,,株式会社,埼玉県,さいたま市緑区,大字中尾３２３１番地中尾コンセプトハウスＡ１０１,,11,109,3360932,,,,,,,2025-03-05,1,,,,,エヌイーロジスティクス,0
369,2030001165176,新規,0,2025-03-05,2025-03-05,株式会社エヌユー,,株式会社,埼玉県,さいたま市西区,大字佐知川１４５番地１１,,11,101,3310064,,,,,,,2025-03-05,1,,,,,エヌユー,0
370,2030001165184,新規,0,2025-03-05,2025-03-05,株式会社アール・ビーホーム,,株式会社,埼玉県,さいたま市西区,三橋５丁目２１２４番地５,,11,101,3310052,,,,,,,2025-03-05,1,,,,,アールビーホーム,0
371,2030001165201,新規,0,2025-03-05,2025-03-05,リッヂ株式会社,,株式会社,埼玉県,川越市,大字寺尾９７番地１２,,11,201,3501141,,,,,,,2025-03-05,1,,,,,リッヂ,0
372,2030001165267,新規,0,2025-03-05,2025-03-05,株式会社隆運,,株式会社,埼玉県,三郷市,半田４１８番地１エフローレ新三郷２１６－５０９号,,11,237,3410012,,,,,,,2025-03-05,1,,,,,リョウウン,0
377,2030003026277,新規,0,2025-03-05,2025-03-05,Ｒ　ＣＨＨＩＭＫＥＳＷＯＲＩ　ＧＲＯＵＰ合同会社,,合同会社,埼玉県,本庄市,銀座３丁目２番４号,,11,211,3670052,,,,,,,2025-03-05,1,,,,,アルチムケスウォリグループ,0
380,2040001137620,新規,0,2025-03-05,2025-03-05,株式会社丸昇,,株式会社,千葉県,船橋市,宮本９丁目６番１ー９０４号,,12,204,2730003,,,,,,,2025-03-05,1,,,,,マルショウ,0
381,2040001137637,新規,0,2025-03-05,2025-03-05,株式会社フラゴラテクノロジー,,株式会社,千葉県,八街市,八街ほ２１１番地４０,,12,230,2891115,,,,,,,2025-03-05,1,,,,,フラゴラテクノロジー,0
382,2040001137678,新規,0,2025-03-05,2025-03-05,株式会社ＮＡＧＵＭＯ,,株式会社,千葉県,茂原市,町保１１－１１５ＮＳビル１Ｆ,,12,210,2970022,,,,,,,2025-03-05,1,,,,,ナグモ,0
385,2040003027010,新規,0,2025-03-05,2025-03-05,合同会社ラフロールミュージック,,合同会社,千葉県,我孫子市,船戸１丁目３番４８ー２０４号,,12,222,2701158,,,,,,,2025-03-05,1,,,,,ラフロールミュージック,0
386,2040003027027,新規,0,2025-03-05,2025-03-05,合同会社梅原工業,,合同会社,千葉県,千葉市中央区,祐光４丁目６番３号Ｇｒａｎｖｉａ東千葉３０３号,,12,101,2600007,,,,,,,2025-03-05,1,,,,,ウメハラコウギョウ,0
392,2060001037975,新規,0,2025-03-05,2025-03-05,株式会社ＡＬＢＬＡＮＣＡ,,株式会社,栃木県,鹿沼市,樅山町３７１番,,09,205,3220046,,,,,,,2025-03-05,1,,,,,アルブランカ,0
396,2070001042685,新規,0,2025-03-05,2025-03-05,株式会社三友ブレース,,株式会社,群馬県,前橋市,富士見町原之郷２１８２番地３,,10,201,3710116,,,,,,,2025-03-05,1,,,,,サンユウブレース,0
399,2080101025341,新規,0,2025-03-05,2025-03-05,株式会社藤勢,,株式会社,静岡県,富士宮市,小泉５５４番地の１０,,22,207,4180022,,,,,,,2025-03-05,1,,,,,フジセイ,0
401,2080401027772,新規,0,2025-03-05,2025-03-05,ラップランド株式会社,,株式会社,静岡県,浜松市中央区,鹿谷町３４番３６－１号,,22,138,4328014,,,,,,,2025-03-05,1,,,,,ラップランド,0
402,2080403005215,新規,0,2025-03-05,2025-03-05,合同会社ラフビズ,,合同会社,静岡県,浜松市中央区,高丘北１丁目６０番３９号１０１,,22,138,4338119,,,,,,,2025-03-05,1,,,,,ラフビズ,0
408,2090001019161,新規,0,2025-03-05,2025-03-05,ＲＥ　ｓｔａｒｔ株式会社,,株式会社,山梨県,甲府市,北口１丁目６番２号三友ビル２０２,,19,201,4000024,,,,,,,2025-03-05,1,,,,,リスタート,0
412,2110001039082,新規,0,2025-03-05,2025-03-05,株式会社サーバーワークス・スマートオペレーションズ,,株式会社,新潟県,新潟市中央区,東大通１丁目３番１号,,15,103,9500087,,,,,,,2025-03-05,1,,,,,サーバーワークススマートオペレーションズ,0
424,2120001273366,新規,0,2025-03-05,2025-03-05,福亜株式会社,,株式会社,大阪府,大阪市西成区,花園北１丁目７番１４号５０６－Ｂ号室,,27,122,5570016,,,,,,,2025-03-05,1,,,,,フクア,0
425,2120001273440,新規,0,2025-03-05,2025-03-05,株式会社ＺＥＮ,,株式会社,大阪府,守口市,高瀬町３丁目１番２８号,,27,209,5700053,,,,,,,2025-03-05,1,,,,,ゼン,0
426,2120001273465,新規,0,2025-03-05,2025-03-05,株式会社フローライト,,株式会社,大阪府,大阪市北区,万歳町３－１２Ｒｅ：ＺＯＮＥ梅田０１－４０１,,27,127,5300028,,,,,,,2025-03-05,1,,,,,フローライト,0
427,2120001273481,新規,0,2025-03-05,2025-03-05,株式会社ニコワークス,,株式会社,大阪府,大阪市北区,梅田１丁目２番２号大阪駅前第２ビル１２－１２,,27,127,5300001,,,,,,,2025-03-05,1,,,,,ニコワークス,0
430,2120003028735,新規,0,2025-03-05,2025-03-05,合同会社Ｒ’ｓ,,合同会社,大阪府,大阪市生野区,巽北４丁目４－１６,,27,116,5440004,,,,,,,2025-03-05,1,,,,,アールス,0
431,2120003028776,新規,0,2025-03-05,2025-03-05,ＡＳＮＡ　ＪＡＰＡＮ合同会社,,合同会社,大阪府,枚方市,宮之阪３丁目６番２８号,,27,210,5730022,,,,,,,2025-03-05,1,,,,,アスナジャパン,0
432,2120003028784,新規,0,2025-03-05,2025-03-05,Ｔｈｅ　Ｓｕｎｄａｙ合同会社,,合同会社,大阪府,大阪市淀川区,加島２丁目５番１３号,,27,123,5320031,,,,,,,2025-03-05,1,,,,,ダーサンディ,0
433,2120003028792,新規,0,2025-03-05,2025-03-05,合同会社天和,,合同会社,大阪府,大阪市阿倍野区,昭和町２丁目１０番６号ＥＳＴ－１・３０５号室,,27,119,5450011,,,,,,,2025-03-05,1,,,,,テンホウ,0
438,2120101071166,新規,0,2025-03-05,2025-03-05,株式会社エイチ・エス工業,,株式会社,大阪府,松原市,天美東４丁目３１０番地の１（５０２号）,,27,217,5800032,,,,,,,2025-03-05,1,,,,,エイチエスコウギョウ,0
439,2120101071174,新規,0,2025-03-05,2025-03-05,ピットチン大阪株式会社,,株式会社,大阪府,泉佐野市,長滝１２５０番地の９,,27,213,5980034,,,,,,,2025-03-05,1,,,,,ピットチンオオサカ,0
440,2120103006302,新規,0,2025-03-05,2025-03-05,マグノート合同会社,,合同会社,大阪府,堺市東区,野尻町７０－３２２,,27,143,5998116,,,,,,,2025-03-05,1,,,,,マグノート,0
441,2120901050526,新規,0,2025-03-05,2025-03-05,株式会社いちえ,,株式会社,大阪府,吹田市,山田東３丁目１番１０号,,27,205,5650821,,,,,,,2025-03-05,1,,,,,イチエ,0
442,2120901050534,新規,0,2025-03-05,2025-03-05,株式会社ＮＥＷＳ,,株式会社,大阪府,吹田市,豊津町１９－１２,,27,205,5640051,,,,,,,2025-03-05,1,,,,,ニュース,0
447,2130001079093,新規,0,2025-03-05,2025-03-05,株式会社Ｋａｎｐａｉ　Ｐｒｏｍｏｔｉｏｎ,,株式会社,京都府,京田辺市,田辺中央１丁目２－１１アトリオパーク３０１号,,26,211,6100334,,,,,,,2025-03-05,1,,,,,カンパイプロモーション,0
454,2140001137544,新規,0,2025-03-05,2025-03-05,株式会社ＣｏｚｙＤｅｓｉｇｎ,,株式会社,兵庫県,西宮市,甲子園網引町８－２１－１０６,,28,204,6638156,,,,,,,2025-03-05,1,,,,,コージーデザイン,0
455,2140001137569,新規,0,2025-03-05,2025-03-05,株式会社エスジェイ,,株式会社,兵庫県,芦屋市,東芦屋町８番５号,00138221,28,206,6590095,,,,,,,2025-03-05,1,,,,,エスジェイ,0
456,2140001137577,新規,0,2025-03-05,2025-03-05,エボルブ・ホーム株式会社,,株式会社,兵庫県,神戸市長田区,若松町３丁目２番１５－５０４号,,28,106,6530038,,,,,,,2025-03-05,1,,,,,エボルブホーム,0
457,2140001137593,新規,0,2025-03-05,2025-03-05,大西石油株式会社,,株式会社,兵庫県,神戸市兵庫区,西宮内町２番１０号,,28,105,6520891,,,,,,,2025-03-05,1,,,,,オオニシセキユ,0
458,2140001137627,新規,0,2025-03-05,2025-03-05,株式会社健やかライン,,株式会社,兵庫県,尼崎市,昭和南通７丁目１８０番地の１－６０２号,,28,202,6600882,,,,,,,2025-03-05,1,,,,,スコヤカライン,0
461,2140003021721,新規,0,2025-03-05,2025-03-05,合同会社Ｕ‐Ｌａｂ,,合同会社,兵庫県,姫路市,玉手１丁目４４番地３,,28,201,6700985,,,,,,,2025-03-05,1,,,,,ユーラボ,0
462,2140003021754,新規,0,2025-03-05,2025-03-05,マルミ・コンサルティング合同会社,,合同会社,兵庫県,加古川市,平岡町土山５４４番地の５,,28,210,6750104,,,,,,,2025-03-05,1,,,,,マルミコンサルティング,0
463,2140005027386,新規,0,2025-03-05,2025-03-05,ＮＰＯ法人Ｄａｎｃｅ　Ｂａｌｍｙ,,その他の設立登記法人,兵庫県,姫路市,勝原区勝原町４番地３８,,28,201,6711212,,,,,,,2025-03-05,1,,,,,ダンスバーミー,0
464,2140005027394,新規,0,2025-03-05,2025-03-05,一般社団法人トコサ,,その他の設立登記法人,兵庫県,豊岡市,元町１１番１１号,,28,209,6680026,,,,,,,2025-03-05,1,,,,,トコサ,0
466,2150001027918,新規,0,2025-03-05,2025-03-05,株式会社無風空調,,株式会社,奈良県,生駒郡平群町,大字梨本７１２番地の６,,29,342,6360931,,,,,,,2025-03-05,1,,,,,ムフウクウチョウ,0
468,2160003003412,新規,0,2025-03-05,2025-03-05,合同会社ＮＡＣＳ,,合同会社,滋賀県,大津市,南志賀２丁目１番５号,,25,201,5200011,,,,,,,2025-03-05,1,,,,,ナックス,0
469,2170001018510,新規,0,2025-03-05,2025-03-05,カキエモン農園株式会社,,株式会社,和歌山県,伊都郡かつらぎ町,大字短野４７－２,,30,341,6497115,,,,,,,2025-03-05,1,,,,,カキエモンノウエン,0
473,2180001165707,新規,0,2025-03-05,2025-03-05,株式会社ストックパートナーズ,,株式会社,愛知県,名古屋市東区,葵１丁目２番２０号シティタワー葵１８１０号,,23,102,4610004,,,,,,,2025-03-05,1,,,,,ストックパートナーズ,0
474,2180001165715,新規,0,2025-03-05,2025-03-05,ＨＱＵ株式会社,,株式会社,愛知県,名古屋市守山区,大森１丁目２５１３番地ウーリィパレス第２大森１０２号,,23,113,4630021,,,,,,,2025-03-05,1,,,,,エイチキューユー,0
475,2180001165723,新規,0,2025-03-05,2025-03-05,株式会社ヨジモジャ,,株式会社,愛知県,名古屋市東区,泉１丁目１４番２３号イトーピア久屋マンション５０１号,,23,102,4610001,,,,,,,2025-03-05,1,,,,,ヨジモジャ,0
477,2180003028069,新規,0,2025-03-05,2025-03-05,合同会社グッバイサポート,,合同会社,愛知県,名古屋市熱田区,新尾頭１丁目８番５号,,23,109,4560018,,,,,,,2025-03-05,1,,,,,グッバイサポート,0
479,2190001032039,新規,0,2025-03-05,2025-03-05,ＴＳトラスト株式会社,,株式会社,三重県,松阪市,射和町１１１番地,,24,204,5192145,,,,,,,2025-03-05,1,,,,,ティーエストラスト,0
480,2190003004952,新規,0,2025-03-05,2025-03-05,井上企画合同会社,,合同会社,三重県,四日市市,富田３丁目１７番１９号,,24,202,5108014,,,,,,,2025-03-05,1,,,,,イノウエキカク,0
481,2200001043471,新規,0,2025-03-05,2025-03-05,株式会社ＹＲＫ,,株式会社,岐阜県,土岐市,泉町久尻６１６番地の１４,,21,212,5095142,,,,,,,2025-03-05,1,,,,,ワイアールケー,0
482,2200001043488,新規,0,2025-03-05,2025-03-05,株式会社瑞浪粉化工業所,,株式会社,岐阜県,瑞浪市,西小田町１丁目１１６番地,,21,208,5096114,,,,,,,2025-03-05,1,,,,,ミズナミフンカコウギヨウシヨ,0
485,2200003006716,新規,0,2025-03-05,2025-03-05,合同会社さえぞら,,合同会社,岐阜県,岐阜市,芥見６丁目２０４番地,,21,201,5013134,,,,,,,2025-03-05,1,,,,,サエゾラ,0
487,2230005009441,新規,0,2025-03-05,2025-03-05,一般社団法人いきいきスポーツとやま,,その他の設立登記法人,富山県,滑川市,荒俣８９番地,,16,206,9360006,,,,,,,2025-03-05,1,,,,,イキイキスポーツトヤマ,0
493,2250003003659,新規,0,2025-03-05,2025-03-05,合同会社ＺＡＯ,,合同会社,山口県,山口市,赤妻町１２－４８,,35,203,7530067,,,,,,,2025-03-05,1,,,,,ザオ,0
495,2260001039968,新規,0,2025-03-05,2025-03-05,株式会社Ｓｈｉｎ‐Ｌｏｇｉホールディングス,,株式会社,岡山県,岡山市東区,西大寺川口４８８番地１,,33,103,7048125,,,,,,,2025-03-05,1,,,,,シンロジホールディングス,0
496,2260003005084,新規,0,2025-03-05,2025-03-05,合同会社Ｌｉｆｅ　ｓｔｏｒｙ,,合同会社,岡山県,岡山市南区,洲崎１丁目３－２,,33,104,7028042,,,,,,,2025-03-05,1,,,,,ライフストーリー,0
497,2270001009160,新規,0,2025-03-05,2025-03-05,株式会社塗彩工房,,株式会社,鳥取県,米子市,米原５丁目１０番２４号,,31,202,6830804,,,,,,,2025-03-05,1,,,,,トサイコウボウ,0
500,2290001109140,新規,0,2025-03-05,2025-03-05,株式会社Ｌｉｎｋ９,,株式会社,福岡県,福岡市中央区,薬院１丁目７―１－３０７号室,,40,133,8100022,,,,,,,2025-03-05,1,,,,,リンクナイン,0
501,2290001109149,新規,0,2025-03-05,2025-03-05,株式会社Ｃｕｒｒｅｎｔ,,株式会社,福岡県,福岡市中央区,警固１丁目４番７号クイーンズサンティ天神ウエスト２０２号室,,40,133,8100023,,,,,,,2025-03-05,1,,,,,カレント,0
502,2290001109207,新規,0,2025-03-05,2025-03-05,株式会社リサーチパーク,,株式会社,福岡県,久留米市,天神町１番地１米城ビルディング９Ｆ,,40,203,8300033,,,,,,,2025-03-05,1,,,,,リサーチパーク,0
505,2290003016491,新規,0,2025-03-05,2025-03-05,合同会社ＦＵＮＮＥＬ,,合同会社,福岡県,福岡市博多区,博多駅前１丁目２３番２号ＰａｒｋＦｒｏｎｔ博多駅前１丁目５Ｆ－Ｂ,,40,132,8120011,,,,,,,2025-03-05,1,,,,,,0
506,2290801031312,新規,0,2025-03-05,2025-03-05,ＱｋＳｋｉｍａ株式会社,,株式会社,福岡県,北九州市八幡西区,千代ケ崎３丁目６番２４号ハビタット２０２号室,,40,109,8070803,,,,,,,2025-03-05,1,,,,,クイックスキマ,0
507,2290801031320,新規,0,2025-03-05,2025-03-05,株式会社Ｓ．ｂｙ‐Ｂｉｓ,,株式会社,福岡県,北九州市八幡西区,熊手３丁目３番１４号,,40,109,8060028,,,,,,,2025-03-05,1,,,,,エスバイビス,0
508,2300001014108,新規,0,2025-03-05,2025-03-05,Ｇｏｏｄ　Ｉｎｎｏｖａｔｉｏｎ株式会社,,株式会社,佐賀県,武雄市,山内町大字宮野１１１３番地３,,41,206,8492305,,,,,,,2025-03-05,1,,,,,グッドイノベーション,0
509,2300003002234,新規,0,2025-03-05,2025-03-05,Ｇｏ　Ｗｅｌｌ合同会社,,合同会社,佐賀県,嬉野市,嬉野町下宿乙１０７８番地,,41,209,8430300,,,,,,,2025-03-05,1,,,,,ゴーウェル,0
513,2330003010878,新規,0,2025-03-05,2025-03-05,合同会社ｉｔｏｍｕ．,,合同会社,熊本県,熊本市東区,新外３丁目４番１４号エアフォルクＡ,,43,102,8620921,,,,,,,2025-03-05,1,,,,,イトム,0
515,2340001027155,新規,0,2025-03-05,2025-03-05,株式会社家ＫｕＲｕ,,株式会社,鹿児島県,鹿児島市,西紫原町４番地３－２０３,,46,201,8900083,,,,,,,2025-03-05,1,,,,,イエクル,0
517,2340003004763,新規,0,2025-03-05,2025-03-05,合同会社ＷＥＬＬＶＹ,,合同会社,鹿児島県,鹿児島市,真砂本町１４－１８,,46,201,8900067,,,,,,,2025-03-05,1,,,,,ウェルヴィー,0
519,2350001019424,新規,0,2025-03-05,2025-03-05,株式会社ビッグハウジング,,株式会社,宮崎県,都城市,郡元町３２０５番地１４,,45,202,8850013,,,,,,,2025-03-05,1,,,,,ビッグハウジング,0
520,2350003004861,新規,0,2025-03-05,2025-03-05,合同会社しんとみネット,,合同会社,宮崎県,児湯郡新富町,大字日置７８７番地２１モデストパレ２０２,,45,402,8891401,,,,,,,2025-03-05,1,,,,,シントミネット,0
524,2360001034868,新規,0,2025-03-05,2025-03-05,株式会社ラップ・アップ,,株式会社,沖縄県,浦添市,字経塚５１１番地,,47,208,9012111,,,,,,,2025-03-05,1,,,,,ラップアップ,0
525,2360003014736,新規,0,2025-03-05,2025-03-05,合同会社宮城,,合同会社,沖縄県,宜野湾市,真栄原２丁目４番２号Ｍ－Ｃｕｏｒｅ１Ｆ,,47,205,9012215,,,,,,,2025-03-05,1,,,,,ミヤギ,0
526,2370001052316,新規,0,2025-03-05,2025-03-05,株式会社あけぼの建築,,株式会社,宮城県,塩竈市,字伊保石２９１番地,,04,203,9850087,,,,,,,2025-03-05,1,,,,,アケボノケンチク,0
527,2370003006955,新規,0,2025-03-05,2025-03-05,結の輪合同会社,,合同会社,宮城県,仙台市太白区,柳生３丁目１番の２アルコート南仙台ＩＩ７０４,00138203,04,104,9811106,,,,,,,2025-03-05,1,,,,,ユイノワ,0
528,2370003006963,新規,0,2025-03-05,2025-03-05,合同会社仙台美術予備校,,合同会社,宮城県,仙台市若林区,河原町１丁目２－４８みなてらす河原町３Ｆ,,04,103,9840816,,,,,,,2025-03-05,1,,,,,センダイビジュツヨビコウ,0
531,2390001017903,新規,0,2025-03-05,2025-03-05,株式会社アグリブラザーズ,,株式会社,山形県,天童市,大字原町甲５３番地,,06,210,9940055,,,,,,,2025-03-05,1,,,,,アグリブラザーズ,0
532,2400003003404,新規,0,2025-03-05,2025-03-05,合同会社未来軽鉄,,合同会社,岩手県,盛岡市,黒川１７地割３１番地,,03,201,0200402,,,,,,,2025-03-05,1,,,,,ミライケイテツ,0
533,2410003004054,新規,0,2025-03-05,2025-03-05,合同会社ライスアップ,,合同会社,秋田県,大仙市,太田町横沢字泥窪２１番地１,,05,212,0191601,,,,,,,2025-03-05,1,,,,,ライスアップ,0
534,2410005006627,新規,0,2025-03-05,2025-03-05,一般社団法人おがちの里山ファクトリー,,その他の設立登記法人,秋田県,湯沢市,寺沢字本郷１番地,,05,207,0190203,,,,,,,2025-03-05,1,,,,,オガチノサトヤマファクトリー,0
540,2430001093700,新規,0,2025-03-05,2025-03-05,株式会社ＺＯＮＥ,,株式会社,北海道,苫小牧市,北光町２丁目１３番１０号,,01,213,0530852,,,,,,,2025-03-05,1,,,,,ゾーン,0
541,2430001093832,新規,0,2025-03-05,2025-03-05,石井知財戦略コンサルティング株式会社,,株式会社,北海道,札幌市南区,藤野三条１１丁目１３番６号,,01,106,0612283,,,,,,,2025-03-05,1,,,,,イシイチザイセンリャクコンサルティング,0
549,2430005015163,新規,0,2025-03-05,2025-03-05,一般社団法人Ｃｏｎｎｅｃｔｉｎｇ　Ｄｏｔｓ,,その他の設立登記法人,北海道,札幌市中央区,南一条西１５丁目１－３１９－８０５,,01,101,0600061,,,,,,,2025-03-05,1,,,,,コネクティングドッツ,0
551,2450001014547,新規,0,2025-03-05,2025-03-05,株式会社Ｆａｒｍ・Ｓ,,株式会社,北海道,旭川市,豊岡七条１１丁目３番５号,,01,204,0788237,,,,,,,2025-03-05,1,,,,,ファームエス,0
552,2460101007672,新規,0,2025-03-05,2025-03-05,ｉｎｃ．十勝ＥＣｌａｂ．株式会社,,株式会社,北海道,河東郡音更町,字東和東１線１９,,01,631,0800151,,,,,,,2025-03-05,1,,,,,インクトカチイーシーラボ,0
554,2460303000855,新規,0,2025-03-05,2025-03-05,合同会社ミューサン建設,,合同会社,北海道,北見市,北斗町２丁目４番３号,,01,208,0900035,,,,,,,2025-03-05,1,,,,,ミューサンケンセツ,0
557,2470001020601,新規,0,2025-03-05,2025-03-05,株式会社Ｐｒｏｇｒｅｓｓ,,株式会社,香川県,高松市,川部町１４５１番地１,,37,201,7618046,,,,,,,2025-03-05,1,,,,,プログレス,0
560,2500001026165,新規,0,2025-03-05,2025-03-05,株式会社ゴールドウイング,,株式会社,愛媛県,伊予市,上野１６７９番地,,38,210,7993103,,,,,,,2025-03-05,1,,,,,ゴールドウイング,0
566,3010001252735,新規,0,2025-03-05,2025-03-05,株式会社インターソフィア,,株式会社,東京都,中央区,日本橋小伝馬町７番１０号エムジー小伝馬ビル７階,,13,102,1030001,,,,,,,2025-03-05,1,,,,,インターソフィア,0
567,3010001252776,新規,0,2025-03-05,2025-03-05,株式会社ＷＥＬＬＮＥＳＳ　ＩＮＮＯＶＡＴＩＯＮ,,株式会社,東京都,中央区,日本橋蛎殻町１丁目３３番８－８０１号,,13,102,1030014,,,,,,,2025-03-05,1,,,,,ウェルネスイノベーション,0
568,3010001252801,新規,0,2025-03-05,2025-03-05,株式会社ＬＣ開発,,株式会社,東京都,千代田区,大手町１丁目６番１号,,13,101,1000004,,,,,,,2025-03-05,1,,,,,エルシーカイハツ,0
571,3010003046573,新規,0,2025-03-05,2025-03-05,ＮＴＴグローバルデータセンターＮＳＡ‐１合同会社,,合同会社,東京都,千代田区,大手町２丁目３番１号,,13,101,1000004,,,,,,,2025-03-05,1,,,,,エヌティティグローバルデータセンターエヌエスエーワン,0
572,3010003046672,新規,0,2025-03-05,2025-03-05,合同会社永成,,合同会社,東京都,文京区,千駄木５丁目２１番１４－１０２号,,13,105,1130022,,,,,,,2025-03-05,1,,,,,エイセイ,0
573,3010005039690,新規,0,2025-03-05,2025-03-05,山佐ＫＬＭ４一般社団法人,,その他の設立登記法人,東京都,千代田区,丸の内１丁目４番１号東京共同会計事務所内,,13,101,1000005,,,,,,,2025-03-05,1,,,,,ヤマサケイエルエムフォー,0
574,3010101016544,新規,0,2025-03-05,2025-03-05,トラストファーマ株式会社,,株式会社,東京都,八王子市,松が谷５２番地９－５０６,,13,201,1920354,,,,,,,2025-03-05,1,,,,,トラストファーマ,0
581,3010401188587,新規,0,2025-03-05,2025-03-05,ディライトワークスホールディングス株式会社,,株式会社,東京都,港区,六本木６丁目１０番１号,,13,103,1060032,,,,,,,2025-03-05,1,,,,,ディライトワークスホールディングス,0
582,3010401188629,新規,0,2025-03-05,2025-03-05,ゼニスベア・ビジネスソリューションズ株式会社,,株式会社,東京都,港区,西新橋１丁目２番９号日比谷セントラルビル１４階,,13,103,1050003,,,,,,,2025-03-05,1,,,,,ゼニスベアビジネスソリューションズ,0
583,3010401188703,新規,0,2025-03-05,2025-03-05,株式会社ルミナパートナー,,株式会社,東京都,港区,北青山２丁目１２番８号ＢＩＺＳＭＡＲＴ青山,,13,103,1070061,,,,,,,2025-03-05,1,,,,,ルミナパートナー,0
584,3010401188752,新規,0,2025-03-05,2025-03-05,株式会社かもめパートナーズ,,株式会社,東京都,港区,白金４丁目１４番９号,,13,103,1080072,,,,,,,2025-03-05,1,,,,,カモメパートナーズ,0
589,3010601066873,新規,0,2025-03-05,2025-03-05,安処株式会社,,株式会社,東京都,墨田区,横川３丁目６番７号２－Ｂ室,,13,107,1300003,,,,,,,2025-03-05,1,,,,,アンショ,0
593,3010701047344,新規,0,2025-03-05,2025-03-05,株式会社ＦＵＬＬＰＯＷＥＲ,,株式会社,東京都,品川区,小山６丁目２番１号,,13,109,1420062,,,,,,,2025-03-05,1,,,,,フルパワー,0
602,3011001168186,新規,0,2025-03-05,2025-03-05,Ｐｏｔｉｄ株式会社,,株式会社,東京都,渋谷区,千駄ヶ谷３丁目３２番５号ｇｒａｎ＋ＨＡＲＡＪＵＫＵ１Ｆ,,13,113,1510051,,,,,,,2025-03-05,1,,,,,ポティド,0
606,3011003021129,新規,0,2025-03-05,2025-03-05,合同会社ｎｉｔｏ　ｓｔｕｄｉｏ,,合同会社,東京都,渋谷区,道玄坂１丁目１０番８号渋谷道玄坂東急ビル２Ｆ－Ｃ,,13,113,1500043,,,,,,,2025-03-05,1,,,,,ニトスタジオ,0
607,3011005010889,新規,0,2025-03-05,2025-03-05,一般社団法人医療人材養成支援機構,,その他の設立登記法人,東京都,渋谷区,神宮前６丁目２３番４号桑野ビル２階,,13,113,1500001,,,,,,,2025-03-05,1,,,,,イリョウジンザイヨウセイシエンキコウ,0
610,3011101110790,新規,0,2025-03-05,2025-03-05,Ｌｉｇｈｔ　Ａｌｌ株式会社,,株式会社,東京都,新宿区,西新宿３丁目２番７号,,13,104,1600023,,,,,,,2025-03-05,1,,,,,ライトオール,0
611,3011101110840,新規,0,2025-03-05,2025-03-05,住まいるライフ株式会社,,株式会社,東京都,新宿区,新宿４丁目３番１５号レイフラット新宿１００３,,13,104,1600022,,,,,,,2025-03-05,1,,,,,スマイルライフ,0
613,3011103015617,新規,0,2025-03-05,2025-03-05,ｂｌｏｏｍｉｎｇ合同会社,,合同会社,東京都,新宿区,新宿１丁目３６－２,,13,104,1600022,,,,,,,2025-03-05,1,,,,,ブルーミング,0
615,3011501031777,新規,0,2025-03-05,2025-03-05,株式会社ａｇ,,株式会社,東京都,北区,赤羽１丁目２５番３号ライオンズプラザ赤羽１階,,13,117,1150045,,,,,,,2025-03-05,1,,,,,エージー,0
618,3011801045725,新規,0,2025-03-05,2025-03-05,東京和源瑞康株式会社,,株式会社,東京都,葛飾区,東金町３丁目１７番１０号ＫＢＳ・Ａ－１１,,13,122,1250041,,,,,,,2025-03-05,1,,,,,トウキョウワゲンズイコウ,0
620,3012301014286,新規,0,2025-03-05,2025-03-05,株式会社太平空設,,株式会社,東京都,町田市,下小山田町１１４１番地７,,13,209,1940202,,,,,,,2025-03-05,1,,,,,タイヘイクウセツ,0
621,3012401042856,新規,0,2025-03-05,2025-03-05,株式会社ＢＲＩＧＨＴ,,株式会社,東京都,多摩市,一ノ宮２丁目１３‐２４Ｃ．Ｌ．Ａ．第４ビル１Ｆ,,13,224,2060002,,,,,,,2025-03-05,1,,,,,ブライト,0
626,3012801023794,新規,0,2025-03-05,2025-03-05,株式会社Ｔ‐Ａｃｅ,,株式会社,東京都,昭島市,玉川町３丁目２０番１１号,,13,207,1960034,,,,,,,2025-03-05,1,,,,,ティーエース,0
627,3013301053869,新規,0,2025-03-05,2025-03-05,株式会社キューズ・プロモーション,,株式会社,東京都,豊島区,池袋２丁目４０番１４号フェリオ池袋１２０４,,13,116,1710014,,,,,,,2025-03-05,1,,,,,キューズプロモーション,0
628,3013301053885,新規,0,2025-03-05,2025-03-05,株式会社ＭＳＤＭ,,株式会社,東京都,豊島区,東池袋２丁目６２番８号ＢＩＧオフィスプラザ池袋１２０６,,13,116,1700013,,,,,,,2025-03-05,1,,,,,エムエスディーエム,0
640,3020001161539,新規,0,2025-03-05,2025-03-05,株式会社ＭＥＲＲＹＮＯＯＫ,,株式会社,神奈川県,川崎市中原区,上丸子山王町１丁目１５４７番地１２,,14,133,2110002,,,,,,,2025-03-05,1,,,,,メリーヌック,0
644,3020003027886,新規,0,2025-03-05,2025-03-05,ユナイトアセット合同会社,,合同会社,神奈川県,横浜市金沢区,釜利谷東３丁目４１－１５,,14,108,2360042,,,,,,,2025-03-05,1,,,,,ユナイトアセット,0
645,3020003027928,新規,0,2025-03-05,2025-03-05,合同会社ＨＯＯＤ　ＳＴＡＲ,,合同会社,神奈川県,川崎市川崎区,南町１番地１２メゾンオーガスタ１Ｆ,,14,131,2100015,,,,,,,2025-03-05,1,,,,,フッドスター,0
649,3021001084606,新規,0,2025-03-05,2025-03-05,株式会社ＹＳＤＰＲＯ,,株式会社,神奈川県,大和市,つきみ野１丁目６番地９グランアリーナレジデンス８４１,,14,213,2420002,,,,,,,2025-03-05,1,,,,,ワイエスディプロ,0
650,3021001084622,新規,0,2025-03-05,2025-03-05,株式会社Ｄａｗｎ,,株式会社,神奈川県,逗子市,桜山８丁目３番２号,,14,208,2490005,,,,,,,2025-03-05,1,,,,,ドーン,0
653,3021003015666,新規,0,2025-03-05,2025-03-05,中溝電設合同会社,,合同会社,神奈川県,海老名市,国分北４丁目４番２－１号,,14,215,2430406,,,,,,,2025-03-05,1,,,,,ナカミゾデンセツ,0
663,3030001165159,新規,0,2025-03-05,2025-03-05,ＳＡＮＳＨＩ株式会社,,株式会社,埼玉県,桶川市,下日出谷西２丁目６番地の１３,,11,231,3630028,,,,,,,2025-03-05,1,,,,,サンシ,0
664,3030001165183,新規,0,2025-03-05,2025-03-05,Ｌｉ‐Ｋｏ株式会社,,株式会社,埼玉県,狭山市,入間川１丁目６番６号ライオンズマンション狭山７０２号室,,11,215,3501305,,,,,,,2025-03-05,1,,,,,リコ,0
665,3030001165217,新規,0,2025-03-05,2025-03-05,株式会社ＴｏｏＭ,,株式会社,埼玉県,狭山市,入間川１丁目３番２号２０７号室,,11,215,3501305,,,,,,,2025-03-05,1,,,,,トーム,0
666,3030001165225,新規,0,2025-03-05,2025-03-05,株式会社山田ポンプ工業,,株式会社,埼玉県,草加市,原町２丁目４番３７号,,11,221,3400048,,,,,,,2025-03-05,1,,,,,ヤマダポンプコウギョウ,0
667,3030001165266,新規,0,2025-03-05,2025-03-05,株式会社ｆｌｏｃｃａ,,株式会社,埼玉県,越谷市,宮本町１丁目１２－１５,,11,222,3430806,,,,,,,2025-03-05,1,,,,,フロッカ,0
672,3030003026251,新規,0,2025-03-05,2025-03-05,合同会社ＴＫＧ,,合同会社,埼玉県,川口市,東領家１丁目２１番１４号東領家池田第７マンション１０１号,,11,203,3320003,,,,,,,2025-03-05,1,,,,,ティーケージー,0
673,3030003026268,新規,0,2025-03-05,2025-03-05,合同会社Ａｎｔ,,合同会社,埼玉県,志木市,本町２丁目９番１７－３０３号,,11,228,3530004,,,,,,,2025-03-05,1,,,,,エーエヌティー,0
674,3030003026276,新規,0,2025-03-05,2025-03-05,夢輝合同会社,,合同会社,埼玉県,蕨市,錦町５丁目１３－４２,,11,223,3350005,,,,,,,2025-03-05,1,,,,,ユウキ,0
678,3040001137578,新規,0,2025-03-05,2025-03-05,ＶＥＳＰＥＲコンサルティング株式会社,,株式会社,千葉県,柏市,若柴１７８番地４柏の葉キャンパス１４８街区２ショップ＆オフィス棟６Ｆ,,12,217,2770871,,,,,,,2025-03-05,1,,,,,ヴェスパーコンサルティング,0
679,3040001137628,新規,0,2025-03-05,2025-03-05,株式会社ルミニオン,,株式会社,千葉県,流山市,名都借２３５番地の２０,,12,220,2700145,,,,,,,2025-03-05,1,,,,,ルミニオン,0
680,3040001137702,新規,0,2025-03-05,2025-03-05,株式会社ゆずほ,,株式会社,千葉県,千葉市花見川区,横戸台５１番地３,,12,102,2620006,,,,,,,2025-03-05,1,,,,,ユズホ,0
686,3060001037974,新規,0,2025-03-05,2025-03-05,株式会社アドバンス,,株式会社,栃木県,小山市,城北２丁目１１番地２０,,09,208,3230029,,,,,,,2025-03-05,1,,,,,アドバンス,0
688,3070001042684,新規,0,2025-03-05,2025-03-05,株式会社つくる,,株式会社,群馬県,高崎市,東貝沢町２丁目１８番地２,,10,202,3700041,,,,,,,2025-03-05,1,,,,,ツクル,0
689,3070001042692,新規,0,2025-03-05,2025-03-05,株式会社アドオン,,株式会社,群馬県,伊勢崎市,連取町３３０２番地１,,10,204,3720812,,,,,,,2025-03-05,1,,,,,アドオン,0
694,3080001026785,新規,0,2025-03-05,2025-03-05,株式会社Ａ．ｍ,,株式会社,静岡県,静岡市駿河区,宮竹２丁目４番４号,,22,102,4228035,,,,,,,2025-03-05,1,,,,,エーエム,0
699,3080005007674,新規,0,2025-03-05,2025-03-05,社会保険労務士法人ベスト労務,,その他の設立登記法人,静岡県,静岡市葵区,東千代田１丁目１５番２０号モリビル２０１,,22,101,4200801,,,,,,,2025-03-05,1,,,,,ベストロウム,0
700,3080101025349,新規,0,2025-03-05,2025-03-05,株式会社フェルメンコ,,株式会社,静岡県,下田市,吉佐美２６３番地の１,,22,219,4150028,,,,,,,2025-03-05,1,,,,,フェルメンコ,0
716,3120001273290,新規,0,2025-03-05,2025-03-05,株式会社クロワッサン,,株式会社,大阪府,大阪市中央区,宗右衛門町４番６号平の家ビル４階,,27,128,5420084,,,,,,,2025-03-05,1,,,,,クロワッサン,0
717,3120001273423,新規,0,2025-03-05,2025-03-05,エスラボ株式会社,,株式会社,大阪府,大阪市北区,大淀南２丁目７－１アバンティうめきた８０２,,27,127,5310075,,,,,,,2025-03-05,1,,,,,エスラボ,0
718,3120001273472,新規,0,2025-03-05,2025-03-05,株式会社Ｈｕｇ　Ｂｉｚ,,株式会社,大阪府,大阪市都島区,都島北通１丁目１－４－３０８号,,27,102,5340014,,,,,,,2025-03-05,1,,,,,ハグビズ,0
721,3120003028734,新規,0,2025-03-05,2025-03-05,ＳＯＲＡホーム合同会社,,合同会社,大阪府,大阪市東住吉区,住道矢田４丁目１－０１,,27,121,5460022,,,,,,,2025-03-05,1,,,,,ソラホーム,0
722,3120003028759,新規,0,2025-03-05,2025-03-05,合同会社Ｓ．ＣＯＮＥ,,合同会社,大阪府,大阪市北区,梅田１丁目１番３号大阪駅前第３ビル２５階アーバンオフィス梅田,,27,127,5300001,,,,,,,2025-03-05,1,,,,,エスコネ,0
723,3120003028775,新規,0,2025-03-05,2025-03-05,ＳＡＢＡＨＡＴ　ＪＡＰＡＮ合同会社,,合同会社,大阪府,枚方市,宮之阪３丁目６番２８号,,27,210,5730022,,,,,,,2025-03-05,1,,,,,サバハトジャパン,0
724,3120003028783,新規,0,2025-03-05,2025-03-05,合同会社黒川税務会計事務所,,合同会社,大阪府,大阪市東住吉区,山坂２丁目４番１１号ハイツ南田辺２０３,,27,121,5460035,,,,,,,2025-03-05,1,,,,,クロカワゼイムカイケイジムショ,0
735,3130005017305,新規,0,2025-03-05,2025-03-05,一般社団法人嶺,,その他の設立登記法人,京都府,京都市南区,吉祥院稲葉町３１番地１,,26,107,6018343,,,,,,,2025-03-05,1,,,,,レイ,0
739,3140001137584,新規,0,2025-03-05,2025-03-05,株式会社リノベイ,,株式会社,兵庫県,三田市,狭間が丘２丁目２番地１,,28,219,6691545,,,,,,,2025-03-05,1,,,,,,0
740,3140001137601,新規,0,2025-03-05,2025-03-05,株式会社感努羽,,株式会社,兵庫県,西宮市,甲子園口２丁目１５番２３号,,28,204,6638113,,,,,,,2025-03-05,1,,,,,カンドウ,0
741,3140001137618,新規,0,2025-03-05,2025-03-05,株式会社神月,,株式会社,兵庫県,神戸市中央区,磯辺通４丁目１番４１－９０６号,,28,110,6510084,,,,,,,2025-03-05,1,,,,,シンゲツ,0
745,3170001018518,新規,0,2025-03-05,2025-03-05,株式会社わこう図書,,株式会社,和歌山県,海南市,岡田４７５番地１,,30,202,6420012,,,,,,,2025-03-05,1,,,,,ワコウトショ,0
749,3180001165697,新規,0,2025-03-05,2025-03-05,コムコホールディングス株式会社,,株式会社,愛知県,名古屋市中区,錦１丁目５番１１号,,23,106,4600003,,,,,,,2025-03-05,1,,,,,コムコホールディングス,0
750,3180001165714,新規,0,2025-03-05,2025-03-05,株式会社一恩,,株式会社,愛知県,名古屋市港区,当知２丁目１００４番地,,23,111,4550804,,,,,,,2025-03-05,1,,,,,イチオン,0
751,3180001165747,新規,0,2025-03-05,2025-03-05,株式会社桜電機,,株式会社,愛知県,名古屋市南区,平子１丁目２番２１号,,23,112,4570001,,,,,,,2025-03-05,1,,,,,サクラデンキ,0
752,3180303006475,新規,0,2025-03-05,2025-03-05,合同会社ＦｏｒｍｕｌａＴＥＲＵ,,合同会社,愛知県,刈谷市,一ツ木町清水田２番地８０,,23,210,4480003,,,,,,,2025-03-05,1,,,,,フォーミュラテル,0
753,3190001032038,新規,0,2025-03-05,2025-03-05,紀州機設株式会社,,株式会社,三重県,四日市市,西坂部町４００３番地４５,,24,202,5120913,,,,,,,2025-03-05,1,,,,,キシュウキセツ,0
754,3190001032054,新規,0,2025-03-05,2025-03-05,株式会社コントラスト,,株式会社,三重県,四日市市,西富田町２４９番地１２,,24,202,5108024,,,,,,,2025-03-05,1,,,,,コントラスト,0
758,3200001043487,新規,0,2025-03-05,2025-03-05,天安株式会社,,株式会社,岐阜県,本巣市,屋井１３０３番地１１,,21,218,5010417,,,,,,,2025-03-05,1,,,,,テンアン,0
761,3200003006715,新規,0,2025-03-05,2025-03-05,ＤＯＢ合同会社,,合同会社,岐阜県,岐阜市,萱場町１丁目４０番地３,,21,201,5020937,,,,,,,2025-03-05,1,,,,,ディーオービー,0
763,3200005013726,新規,0,2025-03-05,2025-03-05,一般社団法人日本獣医動物行動学会,,その他の設立登記法人,岐阜県,岐阜市,岩地２丁目４番３号,,21,201,5008225,,,,,,,2025-03-05,1,,,,,ニホンジュウイドウブツコウドウガッカイ,0
764,3210001020080,新規,0,2025-03-05,2025-03-05,株式会社ＶＩＴＡ　ＲＩＣＣＡ,,株式会社,福井県,福井市,中央１丁目３番７号ザ・福井タワー１８０４,,18,201,9100006,,,,,,,2025-03-05,1,,,,,ヴィタリッカ,0
769,3240001064587,新規,0,2025-03-05,2025-03-05,株式会社ソフィラアカデミー,,株式会社,広島県,広島市南区,向洋新町３丁目２５番２４号,,34,103,7340055,,,,,,,2025-03-05,1,,,,,ソフィラアカデミー,0
770,3240001064595,新規,0,2025-03-05,2025-03-05,株式会社ＥＢＩＫＥＮ,,株式会社,広島県,広島市安佐南区,伴東７丁目２０番５号,,34,105,7313164,,,,,,,2025-03-05,1,,,,,エビケン,0
771,3240001064604,新規,0,2025-03-05,2025-03-05,株式会社ＣＯＣＯＮ,,株式会社,広島県,広島市中区,基町２１番３号,,34,101,7300011,,,,,,,2025-03-05,1,,,,,ココン,0
772,3250005008985,新規,0,2025-03-05,2025-03-05,農事組合法人須佐三原の郷,,その他の設立登記法人,山口県,萩市,大字須佐１２７２７番地２３,,35,204,7593411,,,,,,,2025-03-05,1,,,,,スサミハラノサト,0
773,3260001039959,新規,0,2025-03-05,2025-03-05,株式会社シルバーホーク,,株式会社,岡山県,倉敷市,白楽町２５０番地,,33,202,7100824,,,,,,,2025-03-05,1,,,,,シルバーホーク,0
782,3290001109107,新規,0,2025-03-05,2025-03-05,株式会社クラシア,,株式会社,福岡県,福岡市博多区,山王１丁目８番２５号,,40,132,8120015,,,,,,,2025-03-05,1,,,,,クラシア,0
783,3290001109148,新規,0,2025-03-05,2025-03-05,ＶＯＬＴエナジー株式会社,,株式会社,福岡県,福岡市博多区,博多駅東２丁目４番１７号,,40,132,8120013,,,,,,,2025-03-05,1,,,,,ボルトエナジー,0
784,3290003016474,新規,0,2025-03-05,2025-03-05,合同会社千,,合同会社,福岡県,福岡市中央区,天神４丁目６－２８天神ファーストビル７階,,40,133,8100001,,,,,,,2025-03-05,1,,,,,セン,0
785,3290003016482,新規,0,2025-03-05,2025-03-05,合同会社Ｄｒａｇｏｎ　Ｆａｒ　Ａｗａｙ,,合同会社,福岡県,福岡市中央区,大名１丁目９番２５－５０３号,,40,133,8100041,,,,,,,2025-03-05,1,,,,,ドラゴンファーラウェイ,0
786,3290801031328,新規,0,2025-03-05,2025-03-05,和西川株式会社,,株式会社,福岡県,北九州市八幡西区,陣原２丁目１番１８号１０１室,,40,109,8070821,,,,,,,2025-03-05,1,,,,,ワニシカワ,0
788,3290803004983,新規,0,2025-03-05,2025-03-05,ＫＡＺＥ合同会社,,合同会社,福岡県,田川郡糸田町,２１４８河端アパートＡ‐１,,40,604,8221300,,,,,,,2025-03-05,1,,,,,カゼ,0
790,3300001014107,新規,0,2025-03-05,2025-03-05,株式会社Ｃｏｒｒｅｃｔ,,株式会社,佐賀県,鳥栖市,原町１２５３番地１,,41,203,8410024,,,,,,,2025-03-05,1,,,,,コレクト,0
793,3320003004590,新規,0,2025-03-05,2025-03-05,Ｗａｒｒａｎｔｙ　Ｐｌｕｓ合同会社,,合同会社,大分県,大分市,萩原３丁目９番２５号,,44,201,8700921,,,,,,,2025-03-05,1,,,,,ワランティプラス,0
797,3340001027162,新規,0,2025-03-05,2025-03-05,べルファスト株式会社,,株式会社,鹿児島県,鹿児島市,天保山町２１番１号,,46,201,8900061,,,,,,,2025-03-05,1,,,,,ベルファスト,0
804,3360001034834,新規,0,2025-03-05,2025-03-05,株式会社ｋｕｌｉａ,,株式会社,沖縄県,中頭郡北谷町,字吉原１７７番地２－４０２,,47,326,9040105,,,,,,,2025-03-05,1,,,,,クーリア,0
805,3360001034850,新規,0,2025-03-05,2025-03-05,株式会社Ｏｈａｎａ,,株式会社,沖縄県,那覇市,泊２丁目４番地８サンパティー泊７０１,,47,201,9000012,,,,,,,2025-03-05,1,,,,,オハナ,0
806,3360001034867,新規,0,2025-03-05,2025-03-05,株式会社ＡＮＣＨＯＲ,,株式会社,沖縄県,うるま市,字赤道５７３－４,,47,213,9042245,,,,,,,2025-03-05,1,,,,,アンカー,0
807,3360003014743,新規,0,2025-03-05,2025-03-05,合同会社真美装,,合同会社,沖縄県,宜野湾市,大謝名４丁目４－５－１０８号室ハイディアパート,,47,205,9012225,,,,,,,2025-03-05,1,,,,,マコトビソウ,0
809,3370001052315,新規,0,2025-03-05,2025-03-05,株式会社Ｔ’ｓ,,株式会社,宮城県,黒川郡大郷町,粕川字後沢田畑６番地の２３,,04,422,9813502,,,,,,,2025-03-05,1,,,,,ティーズ,0
810,3370001052323,新規,0,2025-03-05,2025-03-05,株式会社ＳＰＡＳＨ,,株式会社,宮城県,仙台市太白区,長町８丁目２１番６号サンライフ長町３０５,,04,104,9820011,,,,,,,2025-03-05,1,,,,,スパッシュ,0
822,3380005012925,新規,0,2025-03-05,2025-03-05,一般社団法人ＫＭｐｌａｎｎｉｎｇ,,その他の設立登記法人,福島県,郡山市,緑ケ丘東４丁目２７番地の１０,,07,203,9630702,,,,,,,2025-03-05,1,,,,,ケイエムプランニング,0
823,3390003002357,新規,0,2025-03-05,2025-03-05,合同会社菅原,,合同会社,山形県,鶴岡市,伊勢横内字前川原１４番地,,06,203,9970803,,,,,,,2025-03-05,1,,,,,スガワラ,0
826,3410001014087,新規,0,2025-03-05,2025-03-05,株式会社Ｃａｎ’ｔ　ｗａｉｔ,,株式会社,秋田県,秋田市,広面字樋ノ下９番地９,,05,201,0100041,,,,,,,2025-03-05,1,,,,,キャントウエイト,0
827,3410003004053,新規,0,2025-03-05,2025-03-05,合同会社ＷＡＴＡ,,合同会社,秋田県,秋田市,土崎港中央６丁目８番６号,,05,201,0110946,,,,,,,2025-03-05,1,,,,,ワタ,0
831,3430001093781,新規,0,2025-03-05,2025-03-05,株式会社リベリット,,株式会社,北海道,札幌市白石区,栄通２丁目１－３１－１０１号,,01,104,0030021,,,,,,,2025-03-05,1,,,,,リベリット,0
832,3430001093807,新規,0,2025-03-05,2025-03-05,株式会社アトリエモノゴト,,株式会社,北海道,札幌市中央区,南二十三条西１１丁目１番２５アルファコート南２３条１０１号室,,01,101,0640923,,,,,,,2025-03-05,1,,,,,アトリエモノゴト,0
833,3430001093815,新規,0,2025-03-05,2025-03-05,株式会社和幸工業,,株式会社,北海道,札幌市白石区,北郷四条５丁目３－１－６０２,,01,104,0030834,,,,,,,2025-03-05,1,,,,,ワコウコウギョウ,0
834,3430001093823,新規,0,2025-03-05,2025-03-05,株式会社ＮＡ・ＲＵ・ＳＥ・ＦＡＲＭ,,株式会社,北海道,石狩郡新篠津村,第４０線北５４番地,,01,304,0681100,,,,,,,2025-03-05,1,,,,,ナルセファーム,0
835,3430001093831,新規,0,2025-03-05,2025-03-05,株式会社ＡＩＮＡエステート,,株式会社,北海道,札幌市北区,北十六条西４丁目１番１５号佐藤ビル２Ｆ,,01,102,0010016,,,,,,,2025-03-05,1,,,,,アイナエステート,0
837,3430003017350,新規,0,2025-03-05,2025-03-05,合同会社ボルテックスラボラトリーズ,,合同会社,北海道,札幌市北区,新川一条３丁目１番３号,,01,102,0010921,,,,,,,2025-03-05,1,,,,,ボルテックスラボラトリーズ,0
841,3450001014546,新規,0,2025-03-05,2025-03-05,Ｔ．Ｊ．Ｕ．ＭＯＯＮ株式会社,,株式会社,北海道,稚内市,恵比寿一丁目１番１３号,,01,214,0970000,,,,,,,2025-03-05,1,,,,,ティドットジェイドットユードットムーン,0
842,3460001005981,新規,0,2025-03-05,2025-03-05,ＡＡＬＹＡＡＮ　ＴＲＡＤＩＮＧ株式会社,,株式会社,北海道,白糠郡白糠町,東一条北１丁目３番地１２,,01,668,0880331,,,,,,,2025-03-05,1,,,,,アリヤヌトレーディング,0
844,3470003002828,新規,0,2025-03-05,2025-03-05,合同会社ｓａｋｕｒａ　ｄｅｓｉｇｎ,,合同会社,香川県,高松市,香川町川東上１７６５番地６,,37,201,7611706,,,,,,,2025-03-05,1,,,,,サクラザイン,0
859,4010001252734,新規,0,2025-03-05,2025-03-05,今山商事株式会社,,株式会社,東京都,中央区,新川１丁目２６番１０－５０７号,,13,102,1040033,,,,,,,2025-03-05,1,,,,,イマヤマショウジ,0
860,4010001252742,新規,0,2025-03-05,2025-03-05,株式会社８７ｎａ,,株式会社,東京都,中央区,銀座１丁目２２番１１号銀座大竹ビジデンス２Ｆ,,13,102,1040061,,,,,,,2025-03-05,1,,,,,バナナ,0
861,4010001252767,新規,0,2025-03-05,2025-03-05,株式会社さとのひ,,株式会社,東京都,千代田区,九段南３丁目４番５号,,13,101,1020074,,,,,,,2025-03-05,1,,,,,サトノヒ,0
862,4010001252800,新規,0,2025-03-05,2025-03-05,株式会社ＬＣ　ＨＤ,,株式会社,東京都,千代田区,大手町１丁目６番１号,,13,101,1000004,,,,,,,2025-03-05,1,,,,,エルシーエイチディー,0
867,4010003046589,新規,0,2025-03-05,2025-03-05,Ｒｅｄ　Ａｔｔａｃｋ合同会社,,合同会社,東京都,千代田区,外神田２丁目１番８号１２０号室,,13,101,1010021,,,,,,,2025-03-05,1,,,,,レッドアタック,0
869,4010005039657,新規,0,2025-03-05,2025-03-05,一般社団法人東大ア式蹴球部テクニカルグループ,,その他の設立登記法人,東京都,文京区,本郷７丁目３番１号東京大学ア式蹴球部内,,13,105,1130033,,,,,,,2025-03-05,1,,,,,トウダイアシキシュウキュウブテクニカルグループ,0
870,4010005039673,新規,0,2025-03-05,2025-03-05,一般社団法人ＳＯ２号,,その他の設立登記法人,東京都,千代田区,丸の内１丁目４番１号東京共同会計事務所内,,13,101,1000005,,,,,,,2025-03-05,1,,,,,エスオーニゴウ,0
883,4010401188586,新規,0,2025-03-05,2025-03-05,株式会社ｂｅ　Ｕ,,株式会社,東京都,港区,北青山１丁目３番１号アールキューブ青山３階,,13,103,1070061,,,,,,,2025-03-05,1,,,,,ビーユー,0
889,4010601066872,新規,0,2025-03-05,2025-03-05,株式会社ジャスミン,,株式会社,東京都,江東区,大島７丁目３８番３号,,13,108,1360072,,,,,,,2025-03-05,1,,,,,ジャスミン,0
890,4010601066880,新規,0,2025-03-05,2025-03-05,株式会社Ｎｅａｚｅｒ,,株式会社,東京都,江東区,佐賀１丁目６番２－６０２号,,13,108,1350031,,,,,,,2025-03-05,1,,,,,ニーザー,0
892,4010605004416,新規,0,2025-03-05,2025-03-05,弁理士法人Ｔ．ＬＡＢＯ国際特許事務所,,その他の設立登記法人,東京都,江東区,毛利２丁目１０番１４号新亜ビル３０２,,13,108,1350001,,,,,,,2025-03-05,1,,,,,ティーラボコクサイトッキョジムショ,0
895,4010801035891,新規,0,2025-03-05,2025-03-05,株式会社Ｎａｌｖａ,,株式会社,東京都,大田区,久が原５丁目２２－２１,,13,111,1460085,,,,,,,2025-03-05,1,,,,,ナルヴァ,0
898,4010901056929,新規,0,2025-03-05,2025-03-05,株式会社ＳＹプランニング,,株式会社,東京都,世田谷区,大原１丁目１２番２１号,,13,112,1560041,,,,,,,2025-03-05,1,,,,,エスワイプランニング,0
913,4011001168202,新規,0,2025-03-05,2025-03-05,ＴＦＨＤエネルギー株式会社,,株式会社,東京都,渋谷区,道玄坂１丁目２１番１号,,13,113,1500043,,,,,,,2025-03-05,1,,,,,ティーエフエイチディーエネルギー,0
918,4011101110823,新規,0,2025-03-05,2025-03-05,株式会社ヴェール,,株式会社,東京都,新宿区,新宿１丁目１２番１５号東洋新宿ビル２階,,13,104,1600022,,,,,,,2025-03-05,1,,,,,ヴェール,0
919,4011101110848,新規,0,2025-03-05,2025-03-05,株式会社トランポ,,株式会社,東京都,新宿区,四谷４丁目３番１号ワールド四谷ビル５階,,13,104,1600004,,,,,,,2025-03-05,1,,,,,トランポ,0
920,4011103015608,新規,0,2025-03-05,2025-03-05,Ｋ・Ｃ・Ｓインターナショナル合同会社,,合同会社,東京都,新宿区,高田馬場１丁目４－１９－２０２号,,13,104,1690075,,,,,,,2025-03-05,1,,,,,ケーシーエスインターナショナル,0
921,4011201026168,新規,0,2025-03-05,2025-03-05,株式会社チェリッシュ,,株式会社,東京都,中野区,上高田３丁目２３番３号吉野ダイヤモンドビル１０１,,13,114,1640002,,,,,,,2025-03-05,1,,,,,チェリッシュ,0
927,4011501031792,新規,0,2025-03-05,2025-03-05,にこｈｅａｒｔ株式会社,,株式会社,東京都,北区,志茂３丁目２４番１１号古屋ハイム２０２号室,,13,117,1150042,,,,,,,2025-03-05,1,,,,,ニコハート,0
940,4012701018729,新規,0,2025-03-05,2025-03-05,株式会社Ｔｒｉｇｇｅｒ,,株式会社,東京都,東久留米市,下里７丁目３番１１号,,13,222,2030043,,,,,,,2025-03-05,1,,,,,トリガー,0
941,4012801023793,新規,0,2025-03-05,2025-03-05,株式会社農家と共に,,株式会社,東京都,昭島市,田中町１丁目１９番８号,,13,207,1960014,,,,,,,2025-03-05,1,,,,,ノウカトトモニ,0
942,4013101009640,新規,0,2025-03-05,2025-03-05,株式会社千葉商会,,株式会社,東京都,青梅市,大門２丁目２０８番地メゾン・スクォラプリマＩＩ２０２,00138206,13,205,1980014,,,,,,,2025-03-05,1,,,,,チバショウカイ,0
943,4013105001866,新規,0,2025-03-05,2025-03-05,一般社団法人オレンジネットワーク奥多摩,,その他の設立登記法人,東京都,西多摩郡奥多摩町,棚澤３３７番地,,13,308,1980106,,,,,,,2025-03-05,1,,,,,オレンジネットワークオクタマ,0
947,4013301053876,新規,0,2025-03-05,2025-03-05,株式会社Ｂａｇｗｏｒｍ,,株式会社,東京都,豊島区,東池袋１丁目３４番５号いちご東池袋ビル６階,,13,116,1700013,,,,,,,2025-03-05,1,,,,,バグワーム,0
948,4013301053884,新規,0,2025-03-05,2025-03-05,株式会社ｓｏｕｎｄ　ｐｏｓｔ　ｅｄｉｔ,,株式会社,東京都,豊島区,東池袋３丁目２０番９号宏和ビル４Ｆ,,13,116,1700013,,,,,,,2025-03-05,1,,,,,サウンドポストエディット,0
953,4020001161752,新規,0,2025-03-05,2025-03-05,株式会社スムージングハウス,,株式会社,神奈川県,横浜市港北区,岸根町４０６番地５２,,14,109,2220034,,,,,,,2025-03-05,1,,,,,スムージングハウス,0
954,4020001161760,新規,0,2025-03-05,2025-03-05,株式会社Ｏ．Ｋ．Ｓ．,,株式会社,神奈川県,川崎市麻生区,上麻生６丁目３６番２２号,,14,137,2150021,,,,,,,2025-03-05,1,,,,,オーケーエス,0
956,4020003027885,新規,0,2025-03-05,2025-03-05,合名会社ｏａｎ,,合名会社,神奈川県,川崎市中原区,宮内３丁目８番１２－５０４号,,14,133,2110051,,,,,,,2025-03-05,1,,,,,オーアン,0
959,4020005016721,新規,0,2025-03-05,2025-03-05,コウタニ社会保険労務士法人,,その他の設立登記法人,神奈川県,川崎市中原区,新丸子町７５８番地２クリオ武蔵小杉アーバンテラス１１０１,,14,133,2110005,,,,,,,2025-03-05,1,,,,,コウタニ,0
962,4021005013287,新規,0,2025-03-05,2025-03-05,ＮＰＯ法人ＬｅＰｏｎｔ,,その他の設立登記法人,神奈川県,相模原市中央区,宮下本町２丁目３２番１０号,,14,152,2520211,,,,,,,2025-03-05,1,,,,,ルポン,0
970,4030001165208,新規,0,2025-03-05,2025-03-05,ＡｌｔｅｒｎａｔｉｖｅＤｉｒｅｃｔｉｏｎ株式会社,,株式会社,埼玉県,新座市,東２丁目２－１６,,11,230,3520002,,,,,,,2025-03-05,1,,,,,オルタナティブディレクション,0
971,4030001165216,新規,0,2025-03-05,2025-03-05,天運株式会社,,株式会社,埼玉県,三郷市,高州２丁目１１７,,11,237,3410037,,,,,,,2025-03-05,1,,,,,テンウン,0
972,4030001165224,新規,0,2025-03-05,2025-03-05,株式会社永信電設,,株式会社,埼玉県,熊谷市,三ヶ尻２８８９番地６,,11,202,3600843,,,,,,,2025-03-05,1,,,,,エイシンデンセツ,0
973,4030001165249,新規,0,2025-03-05,2025-03-05,株式会社ＳＴＲ,,株式会社,埼玉県,所沢市,林２丁目４７４番地の６,,11,208,3591167,,,,,,,2025-03-05,1,,,,,エスティーアール,0
976,4030003026250,新規,0,2025-03-05,2025-03-05,合同会社１ｔｏ８,,合同会社,埼玉県,さいたま市大宮区,桜木町２丁目３番地大宮マルイ７階,,11,103,3300854,,,,,,,2025-03-05,1,,,,,ワントゥエイト,0
977,4030003026275,新規,0,2025-03-05,2025-03-05,３Ｒトランスフォーム合同会社,,合同会社,埼玉県,北葛飾郡杉戸町,大字清地１４４５番地２,,11,464,3450025,,,,,,,2025-03-05,1,,,,,スリーアールトランスフォーム,0
984,4040001137627,新規,0,2025-03-05,2025-03-05,株式会社フルスイング,,株式会社,千葉県,白井市,七次台３丁目４９番１７号,,12,232,2701436,,,,,,,2025-03-05,1,,,,,フルスイング,0
985,4040001137635,新規,0,2025-03-05,2025-03-05,株式会社Ｙ’ｓ,,株式会社,千葉県,千葉市若葉区,源町３５３番地１,,12,104,2640037,,,,,,,2025-03-05,1,,,,,ワイズ,0
986,4040001137643,新規,0,2025-03-05,2025-03-05,株式会社Ｅｎｌａｒｇｅ,,株式会社,千葉県,八千代市,大和田６０１番地１,,12,221,2760045,,,,,,,2025-03-05,1,,,,,エンラージ,0
988,4040003027009,新規,0,2025-03-05,2025-03-05,Ｍ＆ｙｏｕ合同会社,,合同会社,千葉県,千葉市中央区,富士見２丁目７－９富士見ビル６０９号室,,12,101,2600015,,,,,,,2025-03-05,1,,,,,エムユー,0
992,4060001037973,新規,0,2025-03-05,2025-03-05,ＭＨ　ＭＡＮＡＧＥＭＥＮＴ株式会社,,株式会社,栃木県,栃木市,大平町下皆川２０１１番地１５,,09,203,3294406,,,,,,,2025-03-05,1,,,,,エムエイチマネージメント,0
993,4060001037981,新規,0,2025-03-05,2025-03-05,株式会社ＥＬＥＢＲＡＴＥ,,株式会社,栃木県,那須郡那珂川町,小川８６５番地６,,09,411,3240501,,,,,,,2025-03-05,1,,,,,エレブレイト,0
1000,4070001042683,新規,0,2025-03-05,2025-03-05,株式会社えびすや,,株式会社,群馬県,前橋市,西大室町２０７６番地２,,10,201,3792104,,,,,,,2025-03-05,1,,,,,エビスヤ,0
1002,4080001026784,新規,0,2025-03-05,2025-03-05,三水株式会社,,株式会社,静岡県,静岡市駿河区,曲金１丁目８番１９号,,22,102,4228006,,,,,,,2025-03-05,1,,,,,サンスイ,0
1004,4080101025348,新規,0,2025-03-05,2025-03-05,ＭＡＲＵＴＡ株式会社,,株式会社,静岡県,伊東市,富戸１３１７番地の５８１５,,22,208,4130231,,,,,,,2025-03-05,1,,,,,マルタ,0
1005,4080403005213,新規,0,2025-03-05,2025-03-05,金龍３５８合同会社,,合同会社,静岡県,掛川市,上内田２５７１番地,,22,213,4360012,,,,,,,2025-03-05,1,,,,,キンリュウサンゴハチ,0
1010,4110001039080,新規,0,2025-03-05,2025-03-05,株式会社グローリンク,,株式会社,新潟県,新潟市西区,小新１７１０番地３,,15,107,9502023,,,,,,,2025-03-05,1,,,,,グローリンク,0
1019,4120001273232,新規,0,2025-03-05,2025-03-05,株式会社Ｒｅ．ｘｙｚ,,株式会社,大阪府,大阪市西区,立売堀１丁目５番２号,,27,106,5500012,,,,,,,2025-03-05,1,,,,,リクシーズ,0
1020,4120001273389,新規,0,2025-03-05,2025-03-05,日本ＶＣ株式会社,,株式会社,大阪府,大阪市東住吉区,矢田３丁目１２番１１号,,27,121,5460023,,,,,,,2025-03-05,1,,,,,ニホンブイシー,0
1021,4120001273430,新規,0,2025-03-05,2025-03-05,在宇株式会社,,株式会社,大阪府,大阪市城東区,新喜多東２丁目８番２３号ＭｉｘＰａｃｅ１０１号室,,27,118,5360017,,,,,,,2025-03-05,1,,,,,ザイウ,0
1022,4120001273463,新規,0,2025-03-05,2025-03-05,富士都市開発株式会社,,株式会社,大阪府,大阪市天王寺区,味原町１４番２３号,,27,109,5430023,,,,,,,2025-03-05,1,,,,,フジトシカイハツ,0
1026,4120003028782,新規,0,2025-03-05,2025-03-05,和華合同会社,,合同会社,大阪府,大阪市中央区,農人橋２丁目１－２４－３０４号室,,27,128,5400011,,,,,,,2025-03-05,1,,,,,ワカ,0
1029,4120005024821,新規,0,2025-03-05,2025-03-05,ＺＥＲＯ行政書士法人,,その他の設立登記法人,大阪府,大阪市中央区,内平野町１丁目２番６号ダイアパレス大手前３０４号室,,27,128,5400037,,,,,,,2025-03-05,1,,,,,ゼロ,0
1035,4130003010228,新規,0,2025-03-05,2025-03-05,合同会社ＫＰＥＧ,,合同会社,京都府,京都市下京区,小稲荷町８５－２Ｇｒａｎｄ－Ｋ京都駅前ビル２０１,,26,106,6008208,,,,,,,2025-03-05,1,,,,,ケイペグ,0
1038,4140001137534,新規,0,2025-03-05,2025-03-05,朗晴株式会社,,株式会社,兵庫県,神戸市東灘区,向洋町中１丁目１７番地ＡｓｉａＯｎｅＣｅｎｔｅｒ２２Ｆ０１１室,,28,101,6580032,,,,,,,2025-03-05,1,,,,,ロウセイ,0
1039,4140001137600,新規,0,2025-03-05,2025-03-05,ワークケアソリューションズ株式会社,,株式会社,兵庫県,西宮市,甲陽園若江町５番２６－２０２号,,28,204,6620016,,,,,,,2025-03-05,1,,,,,ワークケアソリューションズ,0
1040,4140001137658,新規,0,2025-03-05,2025-03-05,株式会社上高,,株式会社,兵庫県,西宮市,名塩ガーデン５番１０号,,28,204,6691143,,,,,,,2025-03-05,1,,,,,ウエタカ,0
1042,4140003021728,新規,0,2025-03-05,2025-03-05,合同会社スタジオ紙紙,,合同会社,兵庫県,神戸市東灘区,向洋町中５丁目５番地５３１号棟４２４号室,,28,101,6580032,,,,,,,2025-03-05,1,,,,,スタジオカミガミ,0
1044,4160005011378,新規,0,2025-03-05,2025-03-05,医療法人かのん,,その他の設立登記法人,滋賀県,草津市,矢橋町１０２番地８,,25,206,5250066,,,,,,,2025-03-05,1,,,,,カノン,0
1045,4170001018517,新規,0,2025-03-05,2025-03-05,株式会社ＫＢＢ,,株式会社,和歌山県,海南市,下津町下津１４０３番地１,,30,202,6490101,,,,,,,2025-03-05,1,,,,,ケービービー,0
1046,4170003002171,新規,0,2025-03-05,2025-03-05,合同会社３ｋｕｍａｎｏネット,,合同会社,和歌山県,新宮市,神倉１丁目２－１１,,30,207,6470044,,,,,,,2025-03-05,1,,,,,ミクマノネット,0
1052,4180001165564,新規,0,2025-03-05,2025-03-05,株式会社Ｂｒｏｔｈｅｒｈｏｏｄ,,株式会社,愛知県,名古屋市天白区,島田１丁目４１２番地,,23,116,4680056,,,,,,,2025-03-05,1,,,,,ブラザーフッド,0
1053,4180001165647,新規,0,2025-03-05,2025-03-05,株式会社Ｒ＆ＨＫＳ,,株式会社,愛知県,名古屋市西区,名駅２丁目２７番８号エキスパートオフィス名古屋プライムセントラルタワー１０４,,23,104,4510045,,,,,,,2025-03-05,1,,,,,アールアンドホークス,0
1054,4180001165663,新規,0,2025-03-05,2025-03-05,東亜細亜開発株式会社,,株式会社,愛知県,名古屋市名東区,高針２丁目１９０８番地,,23,115,4650061,,,,,,,2025-03-05,1,,,,,ヒガシアジアカイハツ,0
1055,4180001165705,新規,0,2025-03-05,2025-03-05,株式会社ハテナクリエイション,,株式会社,愛知県,名古屋市守山区,青山台７３９番地の１４,,23,113,4630805,,,,,,,2025-03-05,1,,,,,ハテナクリエイション,0
1056,4180001165713,新規,0,2025-03-05,2025-03-05,株式会社キングフォレスト,,株式会社,愛知県,小牧市,若草町１０番地２階,,23,219,4850031,,,,,,,2025-03-05,1,,,,,キングフォレスト,0
1060,4200001043494,新規,0,2025-03-05,2025-03-05,株式会社シンセカイ,,株式会社,岐阜県,岐阜市,美殿町１７番地まちでつくるビル２Ｆ,,21,201,5008182,,,,,,,2025-03-05,1,,,,,シンセカイ,0
1062,4200003006714,新規,0,2025-03-05,2025-03-05,マツヒサ機電合同会社,,合同会社,岐阜県,本巣市,七五三１４３番地９,,21,218,5010418,,,,,,,2025-03-05,1,,,,,マツヒサキデン,0
1063,4210001020088,新規,0,2025-03-05,2025-03-05,ＬＭ　ＭＯＴＯＲＳ株式会社,,株式会社,福井県,越前市,春日野町２７番地５,,18,209,9150877,,,,,,,2025-03-05,1,,,,,エルエムモータース,0
1075,4240001064586,新規,0,2025-03-05,2025-03-05,株式会社Ｓｌａｓｈ,,株式会社,広島県,広島市安芸区,船越２丁目４２－１４,,34,107,7360081,,,,,,,2025-03-05,1,,,,,スラッシュ,0
1076,4240001064603,新規,0,2025-03-05,2025-03-05,株式会社アグリ廣政,00138207,株式会社,広島県,安芸高田市,吉田町相合６３９番地,,34,214,7310542,,,,,,,2025-03-05,1,,,,,アグリヒロマサ,0
1077,4240001064611,新規,0,2025-03-05,2025-03-05,株式会社ＫＡＴＯ,,株式会社,広島県,東広島市,西条町田口１０８７５番地２６ヴィレッタ東広島弐番館２０８号,,34,212,7390036,,,,,,,2025-03-05,1,,,,,カト,0
1086,4290001109163,新規,0,2025-03-05,2025-03-05,株式会社ＲｅＬＩＦＥ,,株式会社,福岡県,宗像市,三郎丸２丁目１番２１号,,40,220,8114143,,,,,,,2025-03-05,1,,,,,リライフ,0
1087,4290001109221,新規,0,2025-03-05,2025-03-05,株式会社ＮＥＸＥＥＤ,,株式会社,福岡県,福岡市中央区,天神４丁目６－２８天神ファーストビル７階,,40,133,8100001,,,,,,,2025-03-05,1,,,,,ネクシード,0
1088,4290003016457,新規,0,2025-03-05,2025-03-05,ご縁の輪合同会社,,合同会社,福岡県,福岡市東区,香椎駅東３丁目２番３５－１０３号,,40,131,8130012,,,,,,,2025-03-05,1,,,,,ゴエンノワ,0
1091,4290801031310,新規,0,2025-03-05,2025-03-05,ｉＴｏｍａｒｕ株式会社,,株式会社,福岡県,北九州市門司区,松原２丁目２番２２号,,40,101,8000064,,,,,,,2025-03-05,1,,,,,イトマル,0
1092,4290801031319,新規,0,2025-03-05,2025-03-05,株式会社Ｍ．ｂｙ‐Ｂｉｓ,,株式会社,福岡県,北九州市八幡西区,熊手３丁目３番１４号,,40,109,8060028,,,,,,,2025-03-05,1,,,,,エムバイビス,0
1093,4290801031327,新規,0,2025-03-05,2025-03-05,株式会社幸松,,株式会社,福岡県,北九州市小倉北区,熊本３丁目１３番３３－５０４号,,40,106,8020044,,,,,,,2025-03-05,1,,,,,コウマツ,0
1096,4300001014106,新規,0,2025-03-05,2025-03-05,株式会社ＰＫファーム,,株式会社,佐賀県,佐賀市,久保田町大字久富４０１１番地１,,41,201,8490202,,,,,,,2025-03-05,1,,,,,ピーケイファーム,0
1101,4330003010884,新規,0,2025-03-05,2025-03-05,合同会社ＢＥＡＲ　ｅｓｔａｔｅ,,合同会社,熊本県,熊本市北区,池田３丁目２０―１９,,43,105,8600082,,,,,,,2025-03-05,1,,,,,ベアエステート,0
1102,4340001027153,新規,0,2025-03-05,2025-03-05,株式会社イケハタ,,株式会社,鹿児島県,鹿屋市,新川町１６９番地１７,,46,203,8930015,,,,,,,2025-03-05,1,,,,,イケハタ,0
1104,4340003004761,新規,0,2025-03-05,2025-03-05,合同会社竹崎,,合同会社,鹿児島県,鹿児島市,吉野町３２１６番地２８０,,46,201,8920871,,,,,,,2025-03-05,1,,,,,タケザキ,0
1106,4350003004851,新規,0,2025-03-05,2025-03-05,合同会社ＢＡＴＳ,,合同会社,宮崎県,児湯郡新富町,大字上富田５２５０－１阿南借家Ｅ棟,,45,402,8891403,,,,,,,2025-03-05,1,,,,,バッツ,0
1111,4360001034866,新規,0,2025-03-05,2025-03-05,株式会社サファイア,,株式会社,沖縄県,宮古島市,平良字西里２４０番地２－５Ｆ,,47,214,9060012,,,,,,,2025-03-05,1,,,,,サファイア,0
1123,4390001017901,新規,0,2025-03-05,2025-03-05,株式会社沖の原農産,,株式会社,山形県,最上郡舟形町,舟形２６７７番地７,,06,363,9994601,,,,,,,2025-03-05,1,,,,,オキノハラノウサン,0
1125,4400001016950,新規,0,2025-03-05,2025-03-05,株式会社ＴＫ‐２,,株式会社,岩手県,八幡平市,平笠第１２地割１９２番地２,,03,214,0287113,,,,,,,2025-03-05,1,,,,,ティーケーツー,0
1131,4410003004052,新規,0,2025-03-05,2025-03-05,合同会社ｈａｒｕ　ｈｏｍｅ,,合同会社,秋田県,秋田市,仁井田本町１丁目１２番２１号,,05,201,0101421,,,,,,,2025-03-05,1,,,,,ハルホーム,0
1133,4420003003078,新規,0,2025-03-05,2025-03-05,ｅｎ‐ＪＩＮ合同会社,,合同会社,青森県,青森市,造道１丁目７番２４号,,02,201,0300911,,,,,,,2025-03-05,1,,,,,エンジン,0
1137,4430001093830,新規,0,2025-03-05,2025-03-05,株式会社ｍｅ　ｆｏｒ　ｙｏｕ,,株式会社,北海道,札幌市中央区,南九条西５丁目１番５－２０２号,,01,101,0640809,,,,,,,2025-03-05,1,,,,,ミーフォーユー,0
1139,4430003017341,新規,0,2025-03-05,2025-03-05,合同会社ＮＥＸＴ　ＳＴＡＧＥ,,合同会社,北海道,札幌市東区,北六条東５丁目１番地５－７０５号,,01,103,0600906,,,,,,,2025-03-05,1,,,,,ネクストステージ,0
1140,4440001009570,新規,0,2025-03-05,2025-03-05,二海鷲ウイスキー株式会社,,株式会社,北海道,二海郡八雲町,浜松３６５番地,,01,346,0493124,,,,,,,2025-03-05,1,,,,,ニカイシュウウイスキー,0
1144,4460001005980,新規,0,2025-03-05,2025-03-05,株式会社ＣＯＣＯｃｏｌｏｒｓ,,株式会社,北海道,釧路市,浦見３丁目１番１２号,,01,206,0850835,,,,,,,2025-03-05,1,,,,,ココカラーズ,0
1145,4470001020608,新規,0,2025-03-05,2025-03-05,株式会社ハブベース,,株式会社,香川県,高松市,神在川窪町３０番地１,,37,201,7618003,,,,,,,2025-03-05,1,,,,,ハブベース,0
1148,4700150129449,新規,0,2025-03-05,2025-03-05,ｘｉａｍｅｎｓｕｐｅｉｒｕｉａｏｊｉｎｃｈｕｋｏｕｍａｏｙｉｙｏｕｘｉａｎｇｏｎｇｓｉ,,外国会社等,,,,,,,,ｘｉａｍｅｎｓｈｉｓｉｍｉｎｇｑｕｌｖｌｉｎｇｌｕ２３８－４ｈａｏ５０８ｓｈｉ,,,,,,2025-03-05,1,,,,,シャーメンスーペイルイアオジンチューコウマオイーヨウシエンゴンスー,0
1151,5010001252519,新規,0,2025-03-05,2025-03-05,株式会社ＷｅＫａｇｅ,,株式会社,東京都,中央区,銀座７丁目１３番６号サガミビル２階,,13,102,1040061,,,,,,,2025-03-05,1,,,,,ウィカゲ,0
1152,5010001252816,新規,0,2025-03-05,2025-03-05,銀座お多幸株式会社,,株式会社,東京都,中央区,銀座３丁目４番４号,,13,102,1040061,,,,,,,2025-03-05,1,,,,,ギンザオタコウ,0
1159,5010003046571,新規,0,2025-03-05,2025-03-05,ＣＹＡＮ　ＰＡＲＴＮＥＲＳ　ＩＮＴＥＲＮＡＴＩＯＮＡＬ合同会社,,合同会社,東京都,中央区,日本橋人形町３丁目１２－７－５０２,,13,102,1030013,,,,,,,2025-03-05,1,,,,,サイアンパートナーズインターナショナル,0
1160,5010003046613,新規,0,2025-03-05,2025-03-05,合同会社ＤｅｅｐＳｅｅｋ,,合同会社,東京都,中央区,銀座１丁目１２番４号Ｎ＆ＥＢＬＤ．６Ｆ,,13,102,1040061,,,,,,,2025-03-05,1,,,,,ディープシーク,0
1161,5010005039672,新規,0,2025-03-05,2025-03-05,一般社団法人メトロポリス,,その他の設立登記法人,東京都,中央区,日本橋１丁目４番１号,,13,102,1030027,,,,,,,2025-03-05,1,,,,,メトロポリス,0
1170,5010401188610,新規,0,2025-03-05,2025-03-05,セドラス株式会社,,株式会社,東京都,港区,新橋４丁目１４番１号新橋ＡＵＮＢＬＤＧ４階,,13,103,1050004,,,,,,,2025-03-05,1,,,,,セドラス,0
1177,5010603011413,新規,0,2025-03-05,2025-03-05,Ｐｏｗｅｒｉｄｇｅ合同会社,,合同会社,東京都,墨田区,太平１丁目１８番１５－３０７号シャリエ錦糸町ハウス,,13,107,1300012,,,,,,,2025-03-05,1,,,,,パワリッジ,0
1178,5010605004423,新規,0,2025-03-05,2025-03-05,医療法人社団ＭＧＣ,,その他の設立登記法人,東京都,江東区,大島８丁目４２番７号サンピアット東大島１階１０１号室,,13,108,1360072,,,,,,,2025-03-05,1,,,,,エムジーシー,0
1188,5010901056928,新規,0,2025-03-05,2025-03-05,センブリッジ株式会社,,株式会社,東京都,世田谷区,用賀３丁目１０番１０－３０２号,,13,112,1580097,,,,,,,2025-03-05,1,,,,,センブリッジ,0
1189,5010901056936,新規,0,2025-03-05,2025-03-05,株式会社ＣＸＱＯＬ,,株式会社,東京都,世田谷区,太子堂４丁目１８番１５号マガザン三軒茶屋２・３Ｆ－３,,13,112,1540004,,,,,,,2025-03-05,1,,,,,シーエックスクオール,0
1201,5011101110855,新規,0,2025-03-05,2025-03-05,株式会社ブルーマウンテン,,株式会社,東京都,新宿区,歌舞伎町２丁目２５番８号エコプレイス新宿３１６,,13,104,1600021,,,,,,,2025-03-05,1,,,,,ブルーマウンテン,0
1202,5011103015598,新規,0,2025-03-05,2025-03-05,ビヨンド・コミュニケーションズ合同会社,,合同会社,東京都,新宿区,高田馬場３丁目３１番１５号,,13,104,1690075,,,,,,,2025-03-05,1,,,,,ビヨンドコミュニケーションズ,0
1204,5011301030408,新規,0,2025-03-05,2025-03-05,株式会社環,,株式会社,東京都,杉並区,上井草１丁目２４－１４宝来ビル２０１,,13,115,1670023,,,,,,,2025-03-05,1,,,,,タマキ,0
1205,5011303005432,新規,0,2025-03-05,2025-03-05,合同会社ヒカレバ,,合同会社,東京都,杉並区,成田東５丁目３１－１１,,13,115,1660015,,,,,,,2025-03-05,1,,,,,ヒカレバ,0
1208,5011401026875,新規,0,2025-03-05,2025-03-05,株式会社ＶＥＲＳ,,株式会社,東京都,板橋区,南常盤台１丁目３１番８号コスモス常盤台２階,,13,119,1740072,,,,,,,2025-03-05,1,,,,,バース,0
1210,5011501031775,新規,0,2025-03-05,2025-03-05,ヒロミスピリッツ株式会社,,株式会社,東京都,荒川区,西日暮里４丁目２１番１２号クリスタルビル,,13,118,1160013,,,,,,,2025-03-05,1,,,,,ヒロミスピリッツ,0
1217,5012801023784,新規,0,2025-03-05,2025-03-05,株式会社ＢＡＳＥ,,株式会社,東京都,昭島市,玉川町３丁目１４番７号ヴィンテ―ジテラスハウス東中神１０２号,,13,207,1960034,,,,,,,2025-03-05,1,,,,,ベース,0
1219,5013105001865,新規,0,2025-03-05,2025-03-05,一般社団法人Ｏｎｅ　ｗｉｔｈ　Ｅａｒｔｈ国際砂浴協会,,その他の設立登記法人,東京都,青梅市,日向和田３丁目７００番地の１,,13,205,1980046,,,,,,,2025-03-05,1,,,,,ワンウィズアースコクサイサヨクキョウカイ,0
1221,5013303007565,新規,0,2025-03-05,2025-03-05,合同会社アルトカ,,合同会社,東京都,豊島区,南池袋２丁目４５－２－１４１６号,,13,116,1710022,,,,,,,2025-03-05,1,,,,,アルトカ,0
1222,5013305003694,新規,0,2025-03-05,2025-03-05,一般社団法人ＷＲＣ‐ＪＡＰＡＮ,,その他の設立登記法人,東京都,豊島区,巣鴨３丁目２８－９－７Ｆ,,13,116,1700002,,,,,,,2025-03-05,1,,,,,ダブルアールシージャパン,0
1228,5020001161586,新規,0,2025-03-05,2025-03-05,ＮＭＲＣ株式会社,,株式会社,神奈川県,横浜市鶴見区,江ケ崎町８番１１－１００２号,,14,101,2300002,,,,,,,2025-03-05,1,,,,,エヌエムアールシー,0
1236,5020003027991,新規,0,2025-03-05,2025-03-05,合同会社ルナジオ,,合同会社,神奈川県,川崎市幸区,鹿島田１丁目１－５－３９０７,,14,132,2120058,,,,,,,2025-03-05,1,,,,,ルナジオ,0
1241,5021003015664,新規,0,2025-03-05,2025-03-05,合同会社ｄ　ｐａｌａｃｅ,,合同会社,神奈川県,平塚市,豊田本郷１７８９番地の２,,14,203,2540087,,,,,,,2025-03-05,1,,,,,ディーパレス,0
1242,5021005013286,新規,0,2025-03-05,2025-03-05,一般社団法人商店街学会,,その他の設立登記法人,神奈川県,相模原市中央区,陽光台２丁目１２番８号,,14,152,2520226,,,,,,,2025-03-05,1,,,,,ショウテンガイガッカイ,0
1244,5030001165149,新規,0,2025-03-05,2025-03-05,株式会社Ｈａｒｕ設備,,株式会社,埼玉県,さいたま市見沼区,大和田町２丁目１５５３番地４８,,11,104,3370053,,,,,,,2025-03-05,1,,,,,ハルセツビ,0
1245,5030001165165,新規,0,2025-03-05,2025-03-05,磐特メカトロニクス株式会社,,株式会社,埼玉県,蓮田市,山ノ内２番地５９コットンアイランドアルテ３０３号,,11,238,3490128,,,,,,,2025-03-05,1,,,,,バントクメカトロニクス,0
1246,5030001165198,新規,0,2025-03-05,2025-03-05,株式会社川島総業,,株式会社,埼玉県,三郷市,彦川戸２丁目７０番地,,11,237,3410005,,,,,,,2025-03-05,1,,,,,カワシマソウギョウ,0
1247,5030001165207,新規,0,2025-03-05,2025-03-05,株式会社ＳＨＩＮ建窓,,株式会社,埼玉県,上尾市,大字上１１１１番地４,,11,219,3620001,,,,,,,2025-03-05,1,,,,,シンケンソウ,0
1248,5030001165223,新規,0,2025-03-05,2025-03-05,株式会社ＰＭＣ,,株式会社,埼玉県,さいたま市緑区,芝原２丁目９番地７,,11,109,3360917,,,,,,,2025-03-05,1,,,,,ピーエムシー,0
1253,5030003026266,新規,0,2025-03-05,2025-03-05,合同会社ＹＳＨＤ,,合同会社,埼玉県,新座市,野寺４丁目９－３－２,,11,230,3520034,,,,,,,2025-03-05,1,,,,,ワイエスホールディングス,0
1257,5040001137626,新規,0,2025-03-05,2025-03-05,株式会社ＩＫＵＳＩＡ,,株式会社,千葉県,柏市,あけぼの４丁目８番２０－１０３号,,12,217,2770841,,,,,,,2025-03-05,1,,,,,イクシア,0
1258,5040001137642,新規,0,2025-03-05,2025-03-05,株式会社ＹＡＹＯＩ,,株式会社,千葉県,印西市,中央南２丁目１番地１００２号,,12,231,2701340,,,,,,,2025-03-05,1,,,,,ヤヨイ,0
1259,5040001137659,新規,0,2025-03-05,2025-03-05,１０８９工房株式会社,,株式会社,千葉県,千葉市若葉区,野呂町１５９１番地,,12,104,2650053,,,,,,,2025-03-05,1,,,,,イレパクコウボウ,0
1260,5040001137675,新規,0,2025-03-05,2025-03-05,株式会社ｏｎｅ,,株式会社,千葉県,千葉市花見川区,畑町６６２番地３０６,,12,102,2620018,,,,,,,2025-03-05,1,,,,,ワン,0
1266,5050001056239,新規,0,2025-03-05,2025-03-05,株式会社らいふアシスト,,株式会社,茨城県,日立市,水木町２丁目２０番１号,,08,202,3160024,,,,,,,2025-03-05,1,,,,,ライフアシスト,0
1267,5050001056296,新規,0,2025-03-05,2025-03-05,株式会社かるがん堂山名,,株式会社,茨城県,土浦市,神立町２０４２－９,,08,203,3000013,,,,,,,2025-03-05,1,,,,,カルガンドウヤマナ,0
1269,5050003009079,新規,0,2025-03-05,2025-03-05,合同会社ＧＲＩＴ,,合同会社,茨城県,坂東市,逆井２７６６－４,,08,228,3060501,,,,,,,2025-03-05,1,,,,,グリット,0
1270,5060001037972,新規,0,2025-03-05,2025-03-05,株式会社大金,,株式会社,栃木県,宇都宮市,御幸本町４６５０番地５,,09,201,3210983,,,,,,,2025-03-05,1,,,,,オオガネ,0
1272,5060003005457,新規,0,2025-03-05,2025-03-05,合同会社イワテック,,合同会社,栃木県,佐野市,大橋町３２２９番地１１,,09,204,3270003,,,,,,,2025-03-05,1,,,,,イワテック,0
1273,5070001042674,新規,0,2025-03-05,2025-03-05,株式会社ユアーズ,,株式会社,群馬県,安中市,板鼻２７４９番地１,,10,211,3790111,,,,,,,2025-03-05,1,,,,,ユアーズ,0
1274,5070001042682,新規,0,2025-03-05,2025-03-05,株式会社Ｎ　Ｆａｃｔ,,株式会社,群馬県,伊勢崎市,堀口町１８１番地４,,10,204,3720834,,,,,,,2025-03-05,1,,,,,エヌファクト,0
1276,5080001026783,新規,0,2025-03-05,2025-03-05,ＨＫＮ　ＦＡＭＩＬＩＡ株式会社,,株式会社,静岡県,焼津市,利右衛門２０２２番地の７,,22,212,4210212,,,,,,,2025-03-05,1,,,,,エイチケイエヌファミリア,0
1277,5080101025347,新規,0,2025-03-05,2025-03-05,ａＬｅｏ株式会社,,株式会社,静岡県,富士市,吉原４丁目５番１２号,,22,210,4170051,,,,,,,2025-03-05,1,,,,,アレオ,0
1282,5100003008001,新規,0,2025-03-05,2025-03-05,涼亭合同会社,,合同会社,長野県,北安曇郡白馬村,大字北城３０５０番地４,,20,485,3999301,,,,,,,2025-03-05,1,,,,,リョウテイ,0
1283,5100003008034,新規,0,2025-03-05,2025-03-05,コマツクリエイト合同会社,,合同会社,長野県,松本市,梓川梓２３３１番地４,,20,202,3901702,,,,,,,2025-03-05,1,,,,,コマツクリエイト,0
1285,5110003005682,新規,0,2025-03-05,2025-03-05,合同会社こころよ,,合同会社,新潟県,新潟市西区,鳥原２８９８番地１,,15,107,9501115,,,,,,,2025-03-05,1,,,,,ココロヨ,0
1291,5120001273289,新規,0,2025-03-05,2025-03-05,東浜株式会社,,株式会社,大阪府,大阪市西成区,橘１丁目１１－２８オフィスポート橘３０２号室,,27,122,5570051,,,,,,,2025-03-05,1,,,,,トウハマ,0
1292,5120001273355,新規,0,2025-03-05,2025-03-05,株式会社華忠,,株式会社,大阪府,大阪市生野区,生野西２丁目１番３３－３０２号,,27,116,5440024,,,,,,,2025-03-05,1,,,,,カチュウ,0
1293,5120001273446,新規,0,2025-03-05,2025-03-05,マリーンワン株式会社,,株式会社,大阪府,大阪市中央区,南船場３丁目９番１５号御堂筋武田ビル７Ｆ,,27,128,5420081,,,,,,,2025-03-05,1,,,,,マリーンワン,0
1295,5120003028798,新規,0,2025-03-05,2025-03-05,合同会社ＮＫエージェンシー,,合同会社,大阪府,枚方市,甲斐田新町２７番８号,,27,210,5731163,,,,,,,2025-03-05,1,,,,,エヌケイエージェンシー,0
1304,5130001079108,新規,0,2025-03-05,2025-03-05,株式会社ＲＥＮＥ,,株式会社,京都府,長岡京市,河陽が丘２丁目１５番地７,,26,209,6170852,,,,,,,2025-03-05,1,,,,,レネ,0
1305,5130001079132,新規,0,2025-03-05,2025-03-05,上七軒多趣一斎株式会社,,株式会社,京都府,京都市上京区,七本松通五辻上る老松町１０３番地１６８,00138210,26,102,6028318,,,,,,,2025-03-05,1,,,,,カミシチケンタシュイッサイ,0
1307,5130005017303,新規,0,2025-03-05,2025-03-05,一般社団法人ｍｏｎｌｏｎ,,その他の設立登記法人,京都府,京都市西京区,桂坤町５０番地４６,,26,111,6158084,,,,,,,2025-03-05,1,,,,,モンロン,0
1312,5140001137517,新規,0,2025-03-05,2025-03-05,株式会社ＴＵＫ‐ＲＯ,,株式会社,兵庫県,神戸市西区,大津和２丁目４番地の７４,,28,111,6512112,,,,,,,2025-03-05,1,,,,,ツクロー,0
1313,5140001137533,新規,0,2025-03-05,2025-03-05,玖ホールディングス株式会社,,株式会社,兵庫県,神戸市西区,白水２丁目５番２４号,,28,111,6512129,,,,,,,2025-03-05,1,,,,,キュウホールディングス,0
1314,5140001137608,新規,0,2025-03-05,2025-03-05,株式会社小野産業,,株式会社,兵庫県,明石市,魚住町西岡２５２番地の１６,,28,203,6740084,,,,,,,2025-03-05,1,,,,,オノサンギョウ,0
1315,5140001137657,新規,0,2025-03-05,2025-03-05,株式会社ＲＡＹ,,株式会社,兵庫県,西宮市,甲陽園日之出町６番４３－２０６号,,28,204,6620014,,,,,,,2025-03-05,1,,,,,レイ,0
1322,5150001027915,新規,0,2025-03-05,2025-03-05,株式会社崇玖充,,株式会社,奈良県,大和高田市,大字出２０８番９号,,29,202,6350043,,,,,,,2025-03-05,1,,,,,タクミ,0
1323,5150001027923,新規,0,2025-03-05,2025-03-05,株式会社天空晴,,株式会社,奈良県,橿原市,内膳町４丁目３番１７号ルミエール２０１号,,29,205,6340804,,,,,,,2025-03-05,1,,,,,アッパレ,0
1325,5160001026585,新規,0,2025-03-05,2025-03-05,株式会社Ａｒｎｅ　Ｆｏｒｍａ,,株式会社,滋賀県,蒲生郡竜王町,大字綾戸３２８番地３,,25,384,5202524,,,,,,,2025-03-05,1,,,,,アルネフォルマ,0
1326,5160005011377,新規,0,2025-03-05,2025-03-05,医療法人ＢＥＮＥＶＯ,,その他の設立登記法人,滋賀県,大津市,馬場２丁目１２－６１ＺＥＺＥ・ヒルズ４Ｆ,,25,201,5200802,,,,,,,2025-03-05,1,,,,,ベネボ,0
1328,5170001018516,新規,0,2025-03-05,2025-03-05,株式会社ことだま,,株式会社,和歌山県,和歌山市,松島３６番地６,,30,201,6408304,,,,,,,2025-03-05,1,,,,,コトダマ,0
1329,5170003002170,新規,0,2025-03-05,2025-03-05,合同会社松山屋,,合同会社,和歌山県,田辺市,上芳養１４８３－５９,,30,206,6460101,,,,,,,2025-03-05,1,,,,,マツヤマヤ,0
1332,5180001165662,新規,0,2025-03-05,2025-03-05,ＨＰＭ株式会社,,株式会社,愛知県,名古屋市中村区,長戸井町４丁目３６－１,,23,105,4530803,,,,,,,2025-03-05,1,,,,,エイチピーエム,0
1333,5180001165704,新規,0,2025-03-05,2025-03-05,株式会社明星庵,,株式会社,愛知県,春日井市,東野町３丁目５番地２６,,23,206,4860817,,,,,,,2025-03-05,1,,,,,ミョウジョウアン,0
1334,5180001165712,新規,0,2025-03-05,2025-03-05,株式会社ドン・ディ・ケー,,株式会社,愛知県,小牧市,久保一色南１丁目２４６番地,,23,219,4850007,,,,,,,2025-03-05,1,,,,,ドンディケー,0
1335,5180003028082,新規,0,2025-03-05,2025-03-05,ＰＲＯＵＤＥＲＳ合同会社,,合同会社,愛知県,江南市,大海道町神明１２３番地,,23,217,4838185,,,,,,,2025-03-05,1,,,,,プラウダーズ,0
1338,5180301039566,新規,0,2025-03-05,2025-03-05,株式会社文一,,株式会社,愛知県,豊田市,吉原町前田７４番地,,23,211,4730916,,,,,,,2025-03-05,1,,,,,ブンイチ,0
1340,5190001032052,新規,0,2025-03-05,2025-03-05,株式会社Ｒ＆Ｄカンパニー,,株式会社,三重県,四日市市,馳出町１丁目１０６番地,,24,202,5100855,,,,,,,2025-03-05,1,,,,,アールアンドディーカンパニー,0
1343,5200003006713,新規,0,2025-03-05,2025-03-05,合同会社データマーク,,合同会社,岐阜県,岐阜市,久保見町７９―１,,21,201,5008349,,,,,,,2025-03-05,1,,,,,データマーク,0
1349,5230001020779,新規,0,2025-03-05,2025-03-05,株式会社キルヒアイス,,株式会社,富山県,富山市,中川原８０番地１,,16,201,9398015,,,,,,,2025-03-05,1,,,,,キルヒアイス,0
1354,5240001064593,新規,0,2025-03-05,2025-03-05,株式会社栄晃の華,,株式会社,広島県,広島市南区,丹那町６１番１７号,,34,103,7340034,,,,,,,2025-03-05,1,,,,,エイコウノハナ,0
1355,5240001064602,新規,0,2025-03-05,2025-03-05,株式会社コンスタントライフ,,株式会社,広島県,尾道市,因島中庄町７４２番地３,,34,205,7222211,,,,,,,2025-03-05,1,,,,,コンスタントライフ,0
1358,5240003007096,新規,0,2025-03-05,2025-03-05,合同会社Ｅｘｅｒｔ,,合同会社,広島県,三原市,本郷町船木１５２６－３ハーモニア２０３,,34,204,7290411,,,,,,,2025-03-05,1,,,,,エクサート,0
1362,5260001039973,新規,0,2025-03-05,2025-03-05,天樹グループ株式会社,,株式会社,岡山県,岡山市北区,表町３丁目５番１５号ＣＯ．ＯＭＯＴＥＣＨＯ２－Ｅ,,33,101,7000822,,,,,,,2025-03-05,1,,,,,テンジュグループ,0
1368,5290001109204,新規,0,2025-03-05,2025-03-05,株式会社ａｆｔｅｒ　ｙｏｕ,,株式会社,福岡県,福岡市博多区,竹丘町２丁目５番１８号Ｊ’ｓＳＴＡＧＥ６０３,,40,132,8120878,,,,,,,2025-03-05,1,,,,,アフターユー,0
1374,5290801031318,新規,0,2025-03-05,2025-03-05,株式会社源平,,株式会社,福岡県,北九州市小倉北区,魚町２丁目３番１５号４Ｆ,,40,106,8020006,,,,,,,2025-03-05,1,,,,,ゲンペイ,0
1375,5300001014105,新規,0,2025-03-05,2025-03-05,株式会社ツナグピクチャーズ,,株式会社,佐賀県,佐賀市,大和町大字尼寺２８６４番地１,,41,201,8400201,,,,,,,2025-03-05,1,,,,,ツナグピクチャーズ,0
1377,5300003002231,新規,0,2025-03-05,2025-03-05,合同会社ＣＯＤ,,合同会社,佐賀県,佐賀市,開成１丁目１番１８号,,41,201,8490934,,,,,,,2025-03-05,1,,,,,シーオーディー,0
1379,5330005010881,新規,0,2025-03-05,2025-03-05,医療法人前田整形外科,,その他の設立登記法人,熊本県,宇城市,松橋町松橋１４４１番地１,,43,213,8690502,,,,,,,2025-03-05,1,,,,,マエダセイケイゲカ,0
1381,5340001027160,新規,0,2025-03-05,2025-03-05,株式会社ＭＡＲＵ,,株式会社,鹿児島県,南九州市,川辺町平山３０６４番地,,46,223,8970215,,,,,,,2025-03-05,1,,,,,マル,0
1386,5360003014741,新規,0,2025-03-05,2025-03-05,合同会社リリーフソルーション,,合同会社,沖縄県,南城市,字つきしろ１６７８番地８６,,47,215,9011407,,,,,,,2025-03-05,1,,,,,リリーフソルーション,0
1389,5360005007181,新規,0,2025-03-05,2025-03-05,一般社団法人センタービレッジ,,その他の設立登記法人,沖縄県,宜野湾市,野嵩３丁目１２番５号,,47,205,9012203,,,,,,,2025-03-05,1,,,,,センタービレッジ,0
1399,5430001093788,新規,0,2025-03-05,2025-03-05,株式会社あきば商店,,株式会社,北海道,札幌市北区,北十条西３丁目２３番１号ＴＨＥ・ＰＥＡＫ・ＳＡＰＰＯＲＯ１階,,01,102,0010010,,,,,,,2025-03-05,1,,,,,アキバショウテン,0
1400,5430001093813,新規,0,2025-03-05,2025-03-05,株式会社ＯＣＥＡＮ’Ｓ　ＥＬＥＶＥＮ　ｃｏ．,,株式会社,北海道,樺戸郡新十津川町,字中央３３５番地８,,01,432,0731103,,,,,,,2025-03-05,1,,,,,オーシャンズイレブンカンバニー,0
1401,5450001014552,新規,0,2025-03-05,2025-03-05,株式会社大柿農場,,株式会社,北海道,上川郡東神楽町,字八千代ケ岡５線北七号丙４８番地,,01,453,0711577,,,,,,,2025-03-05,1,,,,,オオガキノウジョウ,0
1402,5470001020607,新規,0,2025-03-05,2025-03-05,株式会社濱田,,株式会社,香川県,東かがわ市,川東１８４番地１,,37,207,7692602,,,,,,,2025-03-05,1,,,,,ハマダ,0
1403,5470003002826,新規,0,2025-03-05,2025-03-05,合同会社ＴＲＥＡＴ,,合同会社,香川県,高松市,宮脇町２丁目２４番３０号,,37,201,7600005,,,,,,,2025-03-05,1,,,,,,0
1406,5500003003449,新規,0,2025-03-05,2025-03-05,かざはやシステム合同会社,,合同会社,愛媛県,松山市,松末１丁目２番２１号クレインハイツ１Ｆ,,38,201,7900915,,,,,,,2025-03-05,1,,,,,カザハヤシステム,0
1408,5700150129448,新規,0,2025-03-05,2025-03-05,Ｂｅｉｊｉｎｇｙｕｎｈｅｈｕｄｏｎｇｘｉｎｘｉｊｉｓｈｕｙｏｕｘｉａｎｇｏｎｇｓｉ,,外国会社等,,,,,,,,Ｒｏｏｍ　３０５Ａ，３ｒｄ　Ｆｌｏｏｒ，Ｂｕｉｌｄｉｎｇ　１，Ｎｏ．２５　Ｂｅｉｔａｉｐｉｎｇｚｈｕａｎｇ　Ｒｏａｄ，Ｈａｉｄｉａｎ　Ｄｉｓｔｒｉｃｔ，Ｂｅｉｊｉｎｇ,,,,,,2025-03-05,1,,,,,ベイジンインホーフードンシンシージーシューヨウシエンゴンスー,0
1412,6010001252773,新規,0,2025-03-05,2025-03-05,東泰薬品株式会社,,株式会社,東京都,千代田区,飯田橋１丁目５番６号協和ビル７階Ａ号室,,13,101,1020072,,,,,,,2025-03-05,1,,,,,トウタイヤクヒン,0
1420,6010003046604,新規,0,2025-03-05,2025-03-05,佃ホーム合同会社,,合同会社,東京都,中央区,佃２丁目１０番９－２９０３号,,13,102,1040051,,,,,,,2025-03-05,1,,,,,ツクダホーム,0
1422,6010005039696,新規,0,2025-03-05,2025-03-05,一般社団法人ブルーレジ１,,その他の設立登記法人,東京都,千代田区,丸の内１丁目４番１号東京共同会計事務所内,,13,101,1000005,,,,,,,2025-03-05,1,,,,,ブルーレジワン,0
1423,6010103002523,新規,0,2025-03-05,2025-03-05,合同会社テムテム,,合同会社,東京都,八王子市,七国３丁目１１番１４号,,13,201,1920919,,,,,,,2025-03-05,1,,,,,テムテム,0
1427,6010401188592,新規,0,2025-03-05,2025-03-05,Ｈｑｕｂｉｔ株式会社,,株式会社,東京都,港区,新橋３丁目４番１０号,,13,103,1050004,,,,,,,2025-03-05,1,,,,,エイチキュービット,0
1428,6010401188659,新規,0,2025-03-05,2025-03-05,アイスタイルデータコンサルティング株式会社,,株式会社,東京都,港区,赤坂１丁目１２番３２号,,13,103,1070052,,,,,,,2025-03-05,1,,,,,アイスタイルデータコンサルティング,0
1432,6010403034563,新規,0,2025-03-05,2025-03-05,合同会社あぜ,,合同会社,東京都,港区,浜松町２丁目２－１５浜松町ダイヤビル２Ｆ,,13,103,1050013,,,,,,,2025-03-05,1,,,,,アゼ,0
1434,6010405024125,新規,0,2025-03-05,2025-03-05,一般社団法人安寿会,,その他の設立登記法人,東京都,港区,港南１丁目２番７０号,,13,103,1080075,,,,,,,2025-03-05,1,,,,,アンジュカイ,0
1448,6011003021126,新規,0,2025-03-05,2025-03-05,合同会社メティス,,合同会社,東京都,渋谷区,道玄坂１丁目１０番８号渋谷道玄坂東急ビル２Ｆ－Ｃ,,13,113,1500043,,,,,,,2025-03-05,1,,,,,メティス,0
1449,6011101110846,新規,0,2025-03-05,2025-03-05,株式会社ライズ,,株式会社,東京都,新宿区,西新宿３丁目３番１３号西新宿水間ビル２Ｆ,,13,104,1600023,,,,,,,2025-03-05,1,,,,,ライズ,0
1450,6011101110854,新規,0,2025-03-05,2025-03-05,ＵＮＬｉＭｉＴＥＤ　ＡＤＡＭＡＳ株式会社,,株式会社,東京都,新宿区,歌舞伎町２丁目２－１０－７Ｆ－７Ａ,,13,104,1600021,,,,,,,2025-03-05,1,,,,,アンリミテッドアダマス,0
1451,6011101110862,新規,0,2025-03-05,2025-03-05,東和鋼建株式会社,,株式会社,東京都,新宿区,新宿２丁目５番５号,,13,104,1600022,,,,,,,2025-03-05,1,,,,,トウワコウケン,0
1454,6011201026166,新規,0,2025-03-05,2025-03-05,株式会社ＭＲ,,株式会社,東京都,中野区,若宮１丁目５０－１３－１０２号,,13,114,1650033,,,,,,,2025-03-05,1,,,,,エムアール,0
1456,6011401026874,新規,0,2025-03-05,2025-03-05,株式会社Ｏｍｅｇａ　Ｈｅａｌｔｈ,,株式会社,東京都,板橋区,熊野町４６番５－６０２号,,13,119,1730025,,,,,,,2025-03-05,1,,,,,オメガヘルス,0
1457,6011501031766,新規,0,2025-03-05,2025-03-05,株式会社ＧＩＦＴ,,株式会社,東京都,荒川区,東日暮里６丁目５６－７長戸ビル２Ｆ,,13,118,1160014,,,,,,,2025-03-05,1,,,,,ギフト,0
1461,6011701028117,新規,0,2025-03-05,2025-03-05,ＫＥＩサービス株式会社,,株式会社,東京都,江戸川区,中央２丁目２０－２１－１０２,,13,123,1320021,,,,,,,2025-03-05,1,,,,,ケイサービス,0
1467,6011803006722,新規,0,2025-03-05,2025-03-05,合同会社ＳＯＷＡ,,合同会社,東京都,葛飾区,奥戸７丁目１６―１４,,13,122,1240022,,,,,,,2025-03-05,1,,,,,ソーワ,0
1473,6013101009639,新規,0,2025-03-05,2025-03-05,株式会社ジェイスマイル,,株式会社,東京都,青梅市,大門２丁目２８１－１,,13,205,1980014,,,,,,,2025-03-05,1,,,,,ジェイスマイル,0
1479,6020001161668,新規,0,2025-03-05,2025-03-05,株式会社ＺＥＲＯ,,株式会社,神奈川県,横浜市戸塚区,原宿４丁目５７番２－２０２号,,14,110,2450063,,,,,,,2025-03-05,1,,,,,ゼロ,0
1480,6020001161767,新規,0,2025-03-05,2025-03-05,ＤＨＦワールドリッヒジーゲンジャパン株式会社,,株式会社,神奈川県,川崎市川崎区,水江町１番４５号,,14,131,2100866,,,,,,,2025-03-05,1,,,,,ディーエイチエフワールドリッヒジーゲンジャパン,0
1487,6020003027628,新規,0,2025-03-05,2025-03-05,Ｔａｋａ　Ａｕｔｏ　Ｓｅｒｖｉｃｅ合同会社,,合同会社,神奈川県,横浜市都筑区,池辺町１９７１,,14,118,2240053,,,,,,,2025-03-05,1,,,,,タカオートサービス,0
1491,6021001084628,新規,0,2025-03-05,2025-03-05,株式会社ＭＫ５電器商会,,株式会社,神奈川県,横須賀市,上町１丁目５４番地,,14,201,2380017,,,,,,,2025-03-05,1,,,,,エムケーファイブデンキショウカイ,0
1497,6030001165148,新規,0,2025-03-05,2025-03-05,株式会社フジ・インターナショナル,,株式会社,埼玉県,所沢市,御幸町１番２３号,,11,208,3591115,,,,,,,2025-03-05,1,,,,,フジインターナショナル,0
1498,6030001165172,新規,0,2025-03-05,2025-03-05,テラダ・ホールディングス株式会社,,株式会社,埼玉県,久喜市,江面６番地１,,11,232,3460029,,,,,,,2025-03-05,1,,,,,テラダホールディングス,0
1499,6030001165206,新規,0,2025-03-05,2025-03-05,株式会社ｋｕｎｉｍｏｒｉ　ｃｏｒｐｏｒａｔｉｏｎ,,株式会社,埼玉県,八潮市,大字大曽根８３番地１,,11,234,3400834,,,,,,,2025-03-05,1,,,,,クニモリコーポレーション,0
1500,6030001165230,新規,0,2025-03-05,2025-03-05,株式会社ＯＤＤＪＯＢ,,株式会社,埼玉県,入間市,宮前町１２番６号,,11,225,3580005,,,,,,,2025-03-05,1,,,,,オッドジョブ,0
1501,6030001165247,新規,0,2025-03-05,2025-03-05,株式会社古姓設備,,株式会社,埼玉県,八潮市,伊草２丁目９番地８,,11,234,3400806,,,,,,,2025-03-05,1,,,,,フルショウセツビ,0
1502,6030001165255,新規,0,2025-03-05,2025-03-05,Ｋｏｋｙｕ株式会社,,株式会社,埼玉県,さいたま市緑区,大字大間木１５８７番地１号,,11,109,3360923,,,,,,,2025-03-05,1,,,,,コキュウ,0
1503,6030001165263,新規,0,2025-03-05,2025-03-05,株式会社ＳＨＩＢＵＳＡＷＡ,,株式会社,埼玉県,加須市,外川４５３番地２５,,11,210,3470106,,,,,,,2025-03-05,1,,,,,シブサワ,0
1507,6030003026281,新規,0,2025-03-05,2025-03-05,合同会社ＳＯＲＡ,,合同会社,埼玉県,熊谷市,小江川１９９７－８,,11,202,3600103,,,,,,,2025-03-05,1,,,,,ソラ,0
1508,6040001137617,新規,0,2025-03-05,2025-03-05,株式会社武平,,株式会社,千葉県,流山市,野々下３丁目９５９番地の６,,12,220,2700135,,,,,,,2025-03-05,1,,,,,ブヘイ,0
1509,6040001137641,新規,0,2025-03-05,2025-03-05,株式会社Ｒｅ　Ｌｉｆｅ,,株式会社,千葉県,柏市,光ケ丘４丁目６番１６号,,12,217,2770065,,,,,,,2025-03-05,1,,,,,リライフ,0
1510,6040001137674,新規,0,2025-03-05,2025-03-05,株式会社かがやき,,株式会社,千葉県,千葉市中央区,村田町１１８０番地,,12,101,2600825,,,,,,,2025-03-05,1,,,,,カガヤキ,0
1513,6040003026974,新規,0,2025-03-05,2025-03-05,ＧＯＬＤ　ＫＩＮＧ合同会社,,合同会社,千葉県,千葉市稲毛区,小仲台９丁目１８－３稲毛ハイツＣ棟３０４号室,,12,103,2630043,,,,,,,2025-03-05,1,,,,,ゴールドキング,0
1514,6040003027023,新規,0,2025-03-05,2025-03-05,ネスト合同会社,,合同会社,千葉県,夷隅郡御宿町,新町８１６番地５アーバンコンフォート１３１３,,12,443,2995103,,,,,,,2025-03-05,1,,,,,ネスト,0
1519,6050001056246,新規,0,2025-03-05,2025-03-05,株式会社Ｍ’ｓ　ｐｌａｎｎｉｎｇ,,株式会社,茨城県,高萩市,大字安良川２１８２番地の５,,08,214,3180021,,,,,,,2025-03-05,1,,,,,エムズプランニング,0
1520,6050003009078,新規,0,2025-03-05,2025-03-05,合同会社グローリー,,合同会社,茨城県,土浦市,田中１丁目２番３４号山栄アパート２５号,,08,203,3000048,,,,,,,2025-03-05,1,,,,,グローリー,0
1525,6070001042698,新規,0,2025-03-05,2025-03-05,株式会社ＬＯＶＥＳＴ,,株式会社,群馬県,太田市,熊野町１６番４号－Ｂ,,10,205,3730025,,,,,,,2025-03-05,1,,,,,ラベスト,0
1534,6110003005681,新規,0,2025-03-05,2025-03-05,合同会社ＲＥＢＩＲＴＨ食育研究所,,合同会社,新潟県,新潟市西区,寺尾朝日通１５番４８号,,15,107,9502051,,,,,,,2025-03-05,1,,,,,リバースショクイクケンキュウショ,0
1549,6120001273354,新規,0,2025-03-05,2025-03-05,三木自動車工業株式会社,,株式会社,大阪府,大阪市西成区,北津守１丁目６番６号,,27,122,5570061,,,,,,,2025-03-05,1,,,,,ミキジドウシャコウギョウ,0
1550,6120001273412,新規,0,2025-03-05,2025-03-05,Ｎ‐ＢＲＩＤＧＥ株式会社,,株式会社,大阪府,大阪市北区,梅田１丁目２番２号大阪駅前第２ビル１２‐１２,,27,127,5300001,,,,,,,2025-03-05,1,,,,,エヌブリッジ,0
1551,6120001273420,新規,0,2025-03-05,2025-03-05,株式会社スピードコアー,,株式会社,大阪府,大阪市東成区,東今里２丁目１０番１５号,,27,115,5370011,,,,,,,2025-03-05,1,,,,,スピードコアー,0
1552,6120001273437,新規,0,2025-03-05,2025-03-05,スイーズ株式会社,,株式会社,大阪府,大阪市港区,南市岡３丁目８番２５号,,27,107,5520011,,,,,,,2025-03-05,1,,,,,スイーズ,0
1553,6120003028748,新規,0,2025-03-05,2025-03-05,合同会社Ｉ＆Ｙ,,合同会社,大阪府,大阪市北区,梅田１丁目１－３大阪駅前第３ビル２９階１－１－１号室,,27,127,5300001,,,,,,,2025-03-05,1,,,,,アイアンドワイ,0
1554,6120003028780,新規,0,2025-03-05,2025-03-05,雨楽合同会社,,合同会社,大阪府,大阪市東成区,中道４丁目１６番２１－４０１号,,27,115,5370025,,,,,,,2025-03-05,1,,,,,ウラク,0
1559,6120101071154,新規,0,2025-03-05,2025-03-05,株式会社Ｓｔｕｄｉｏ　ＭＵＫＵＮＯ,,株式会社,大阪府,泉南市,新家３３７９番地の２０７,,27,228,5900503,,,,,,,2025-03-05,1,,,,,スタジオムクノ,0
1560,6120903005557,新規,0,2025-03-05,2025-03-05,合同会社おもち,,合同会社,大阪府,池田市,栄本町２番７－１３０２号,,27,204,5630058,,,,,,,2025-03-05,1,,,,,オモチ,0
1573,6140001137549,新規,0,2025-03-05,2025-03-05,株式会社ＩＡＰマネージメント,,株式会社,兵庫県,川西市,新田３丁目１６番１６号,,28,217,6660125,,,,,,,2025-03-05,1,,,,,アイエーピーマネージメント,0
1574,6140001137598,新規,0,2025-03-05,2025-03-05,第一農園株式会社,,株式会社,兵庫県,丹波篠山市,黒岡３４５番地１,,28,221,6692321,,,,,,,2025-03-05,1,,,,,ダイイチノウエン,0
1577,6140003021734,新規,0,2025-03-05,2025-03-05,合同会社ＦｕｓｔｒＬｉｚｅ,,合同会社,兵庫県,尼崎市,武庫之荘３丁目２０番４号アバンティオ武庫之荘３０２,,28,202,6610035,,,,,,,2025-03-05,1,,,,,ファスタライズ,0
1578,6140003021750,新規,0,2025-03-05,2025-03-05,合同会社Ａｒｃ＆Ｐａｒｔｎｅｒｓ,,合同会社,兵庫県,神戸市西区,南別府３丁目１０番地の２０,,28,111,6512116,,,,,,,2025-03-05,1,,,,,アルクアンドパートナーズ,0
1581,6150003003517,新規,0,2025-03-05,2025-03-05,合同会社ＴｈｒｅｅＲｕｎ,,合同会社,奈良県,橿原市,一町１５４－８,,29,205,6340824,,,,,,,2025-03-05,1,,,,,スリーラン,0
1601,6180301039573,新規,0,2025-03-05,2025-03-05,ＴｏｐＰａｒｔｎｅｒ株式会社,,株式会社,愛知県,蒲郡市,三谷町若宮１７８番地１,,23,214,4430021,,,,,,,2025-03-05,1,,,,,トップパートナー,0
1603,6190001032051,新規,0,2025-03-05,2025-03-05,株式会社コミア,,株式会社,三重県,伊勢市,八日市場町５番地１９,,24,203,5160076,,,,,,,2025-03-05,1,,,,,コミア,0
1607,6200003006712,新規,0,2025-03-05,2025-03-05,ＨＴＢ　ＩＮＴＥＲＮＡＴＩＯＮＡＬ合同会社,,合同会社,岐阜県,関市,星ケ丘２３番３号,,21,205,5013267,,,,,,,2025-03-05,1,,,,,エッチティビインタナショナル,0
1618,6240001064592,新規,0,2025-03-05,2025-03-05,株式会社ソリフル,,株式会社,広島県,広島市東区,戸坂山根３丁目１１番１６号,,34,102,7320002,,,,,,,2025-03-05,1,,,,,ソリフル,0
1619,6240001064601,新規,0,2025-03-05,2025-03-05,株式会社ＴＡＭＵＴＡＭＵ,,株式会社,広島県,広島市安佐北区,口田南４丁目４７番２３号,,34,106,7391733,,,,,,,2025-03-05,1,,,,,タムタム,0
1621,6240003007095,新規,0,2025-03-05,2025-03-05,合同会社ＯＵＲ　ＳＴＯＲＹ,,合同会社,広島県,広島市西区,南観音３丁目２番２３号,,34,104,7330035,,,,,,,2025-03-05,1,,,,,アワーストーリー,0
1623,6260001039964,新規,0,2025-03-05,2025-03-05,エトバスノイエスＨＤ株式会社,,株式会社,岡山県,倉敷市,羽島１０００番地５４,,33,202,7100043,,,,,,,2025-03-05,1,,,,,エトバスノイエスホールディングス,0
1624,6260001039980,新規,0,2025-03-05,2025-03-05,株式会社樂永電工,,株式会社,岡山県,倉敷市,児島小川９丁目６番１６号,,33,202,7110911,,,,,,,2025-03-05,1,,,,,ラクエイデンコウ,0
1628,6290001109186,新規,0,2025-03-05,2025-03-05,株式会社上村ホールディングス,,株式会社,福岡県,福岡市中央区,平和５丁目１０番１０号,,40,133,8100016,,,,,,,2025-03-05,1,,,,,カミムラホールディングス,0
1629,6290001109194,新規,0,2025-03-05,2025-03-05,株式会社ＣＵＰ,,株式会社,福岡県,太宰府市,通古賀６丁目１５番２２号,,40,221,8180104,,,,,,,2025-03-05,1,,,,,シーユーピー,0
1630,6290001109211,新規,0,2025-03-05,2025-03-05,株式会社オーガコンサルティング,,株式会社,福岡県,福岡市博多区,博多駅前３丁目９番１号,,40,132,8120011,,,,,,,2025-03-05,1,,,,,オーガコンサルティング,0
1634,6290003016488,新規,0,2025-03-05,2025-03-05,合同会社山下木材,,合同会社,福岡県,福岡市南区,向新町２丁目５－２,,40,134,8111345,,,,,,,2025-03-05,1,,,,,ヤマシタモクザイ,0
1638,6290801031317,新規,0,2025-03-05,2025-03-05,株式会社ＦＵＲＵＫＥＮ,,株式会社,福岡県,北九州市小倉北区,木町２丁目１７番２１号,,40,106,8030851,,,,,,,2025-03-05,1,,,,,フルケン,0
1644,6300001014104,新規,0,2025-03-05,2025-03-05,Ｉ．ＴＡＫＥ福建株式会社,,株式会社,佐賀県,神埼市,神埼町尾崎４１６９番地１０６,,41,210,8420015,,,,,,,2025-03-05,1,,,,,アイテイクフクケン,0
1647,6320001020975,新規,0,2025-03-05,2025-03-05,株式会社ＯＷＥＮ,,株式会社,大分県,大分市,角子南２丁目１番８号,,44,201,8700242,,,,,,,2025-03-05,1,,,,,オーエン,0
1650,6320003004588,新規,0,2025-03-05,2025-03-05,合同会社フォレストリーフ,,合同会社,大分県,中津市,大字蛎瀬８２６番地１４,,44,203,8710007,,,,,,,2025-03-05,1,,,,,フォレストリーフ,0
1651,6340001027143,新規,0,2025-03-05,2025-03-05,株式会社アドバンスド・エステート,,株式会社,鹿児島県,鹿児島市,上之園町１６－９イルトラッツォ中央駅３０２号,,46,201,8900052,,,,,,,2025-03-05,1,,,,,アドバンスドエステート,0
1652,6340001027151,新規,0,2025-03-05,2025-03-05,株式会社五反田牧場,,株式会社,鹿児島県,南九州市,川辺町永田１９５３番地,,46,223,8970222,,,,,,,2025-03-05,1,,,,,ゴタンダボクジョウ,0
1653,6340003004768,新規,0,2025-03-05,2025-03-05,Ｌｉｅｎ合同会社,,合同会社,鹿児島県,鹿児島市,池之上町２３－４７,,46,201,8920806,,,,,,,2025-03-05,1,,,,,リアン,0
1654,6350003004858,新規,0,2025-03-05,2025-03-05,合同会社ＴＡＢＩＢＩＴＯ,,合同会社,宮崎県,宮崎市,花山手東１丁目６番地９,,45,201,8800930,,,,,,,2025-03-05,1,,,,,タビビト,0
1656,6360001034831,新規,0,2025-03-05,2025-03-05,株式会社のだけ共済会,,株式会社,沖縄県,宜野湾市,野嵩１丁目１２番１３号,,47,205,9012203,,,,,,,2025-03-05,1,,,,,ノダケキョウサイカイ,0
1657,6360001034848,新規,0,2025-03-05,2025-03-05,株式会社松田塗装社,,株式会社,沖縄県,うるま市,字赤野２３０番地１,,47,213,9042212,,,,,,,2025-03-05,1,,,,,マツダトソウシャ,0
1658,6360001034856,新規,0,2025-03-05,2025-03-05,株式会社運天商会,,株式会社,沖縄県,名護市,大中３丁目１番５号,,47,209,9050017,,,,,,,2025-03-05,1,,,,,ウンテンショウカイ,0
1659,6360001034864,新規,0,2025-03-05,2025-03-05,株式会社アラレ,,株式会社,沖縄県,石垣市,字石垣４２６番地８カーサティエラ３０５,,47,207,9070023,,,,,,,2025-03-05,1,,,,,アラレ,0
1660,6360003014740,新規,0,2025-03-05,2025-03-05,Ｓａｌｏｎ　Ｍ合同会社,,合同会社,沖縄県,那覇市,久茂地３丁目５番７号,,47,201,9000015,,,,,,,2025-03-05,1,,,,,サロンエム,0
1667,6370001052312,新規,0,2025-03-05,2025-03-05,天翔貿易株式会社,,株式会社,宮城県,仙台市太白区,茂庭字生出前２４番１２２,,04,104,9820251,,,,,,,2025-03-05,1,,,,,テンショウボウエキ,0
1668,6370001052320,新規,0,2025-03-05,2025-03-05,株式会社丸旺建設,,株式会社,宮城県,登米市,迫町佐沼字錦９１,,04,212,9870511,,,,,,,2025-03-05,1,,,,,マルオウケンセツ,0
1669,6370003006968,新規,0,2025-03-05,2025-03-05,合同会社タカテック,,合同会社,宮城県,仙台市泉区,南光台４丁目３２番３号,,04,105,9818003,,,,,,,2025-03-05,1,,,,,タカテック,0
1679,6430001093787,新規,0,2025-03-05,2025-03-05,栄泰株式会社,,株式会社,北海道,札幌市中央区,南九条西１丁目１番２８－７０９号,,01,101,0640809,,,,,,,2025-03-05,1,,,,,エイタイ,0
1680,6430001093804,新規,0,2025-03-05,2025-03-05,ヨシダスタンダード株式会社,,株式会社,北海道,札幌市豊平区,月寒中央通２丁目２番１４号,,01,105,0620020,,,,,,,2025-03-05,1,,,,,ヨシダスタンダード,0
1681,6430001093820,新規,0,2025-03-05,2025-03-05,株式会社ＫＲコーポレーション,,株式会社,北海道,札幌市中央区,北二条西２４丁目２番１２号,,01,101,0640822,,,,,,,2025-03-05,1,,,,,ケイアールコーポレーション,0
1682,6430001093829,新規,0,2025-03-05,2025-03-05,株式会社ＭＩＲＡＩＥ,,株式会社,北海道,札幌市中央区,南二条西２４丁目２－２２Ｂｒａｎｚ円山裏参道テラス７０２,,01,101,0640802,,,,,,,2025-03-05,1,,,,,ミライエ,0
1683,6430001093837,新規,0,2025-03-05,2025-03-05,株式会社大和不動産,,株式会社,北海道,札幌市西区,発寒七条７丁目６番７－２０３号,,01,107,0630827,,,,,,,2025-03-05,1,,,,,ダイワフドウサン,0
1688,6470001020606,新規,0,2025-03-05,2025-03-05,株式会社風と土,,株式会社,香川県,丸亀市,飯山町東坂元２８８８番地６,,37,202,7620081,,,,,,,2025-03-05,1,,,,,カゼトツチ,0
1689,6470001020614,新規,0,2025-03-05,2025-03-05,株式会社ｍａｍｅｇｙ,,株式会社,香川県,高松市,天神前１０番５号高松セントラルスカイビルディング３Ｆｓｏｕｔｈ,,37,201,7600018,,,,,,,2025-03-05,1,,,,,,0
1693,6700150129447,新規,0,2025-03-05,2025-03-05,ＦｕＺｈｏｕＳｈｉＪｉｎＡｎＱｕＤａｎＫｅＳｈａｎｇＭａｏＹｏｕＸｉａｎＧｏｎｇＳｉ,,外国会社等,,,,,,,,ＦｕＪｉａｎＳｈｅｎｇＦｕＺｈｏｕＳｈｉＪｉｎＡｎＱｕＨｕａＧｏｎｇＬｕ１２５ＨａｏＹｉＣｅｎｇ－Ｅ１２６,,,,,,2025-03-05,1,,,,,フージョウシージンアンチーダンコーシャンマオヨウシエンゴンスー,0
1702,7010001252590,新規,0,2025-03-05,2025-03-05,Ｕｌｐａｎ株式会社,,株式会社,東京都,中央区,銀座１丁目１２－４Ｎ＆ＥＢＬＤ．７階,,13,102,1040061,,,,,,,2025-03-05,1,,,,,ウルパン,0
1703,7010001252764,新規,0,2025-03-05,2025-03-05,バドテック株式会社,,株式会社,東京都,千代田区,神田三崎町３丁目３番４号巴ビル２０１号,,13,101,1010061,,,,,,,2025-03-05,1,,,,,バドテック,0
1704,7010001252772,新規,0,2025-03-05,2025-03-05,ＢｅＨｏｎｅｓｔ株式会社,,株式会社,東京都,中央区,銀座１丁目１２－４Ｎ＆ＥＢＬＤ．７階,,13,102,1040061,,,,,,,2025-03-05,1,,,,,ビーオネスト,0
1705,7010001252839,新規,0,2025-03-05,2025-03-05,株式会社ＴＯＫＩＵＭスタッフィング,,株式会社,東京都,中央区,銀座６丁目１８番２号,,13,102,1040061,,,,,,,2025-03-05,1,,,,,トキウムスタッフィング,0
1718,7010003046561,新規,0,2025-03-05,2025-03-05,合同会社ＦＤＦ,,合同会社,東京都,文京区,千石３丁目３－２－４０１,,13,105,1120011,,,,,,,2025-03-05,1,,,,,エフディエフ,0
1719,7010003046603,新規,0,2025-03-05,2025-03-05,合同会社スギヤマ,,合同会社,東京都,中央区,日本橋人形町２丁目３２番５－４０３号,,13,102,1030013,,,,,,,2025-03-05,1,,,,,スギヤマ,0
1720,7010003046611,新規,0,2025-03-05,2025-03-05,Ｈｅａｌｉｎｇ　Ｆｌｏｗ合同会社,,合同会社,東京都,千代田区,神田和泉町１番地６－１６ヤマトビル４０５,,13,101,1010024,,,,,,,2025-03-05,1,,,,,ヒーリングフロー,0
1722,7010005039596,新規,0,2025-03-05,2025-03-05,一般社団法人Ｗｈｉｔｅ　Ｑｕａｎｔｕｍ　Ｅｎｅｒｇｙ　Ｊａｐａｎ学会,,その他の設立登記法人,東京都,中央区,築地２丁目２－８,,13,102,1040045,,,,,,,2025-03-05,1,,,,,ホワイトカンタムエネジージャパンガッカイ,0
1723,7010005039670,新規,0,2025-03-05,2025-03-05,一般社団法人デネブ,,その他の設立登記法人,東京都,千代田区,霞が関３丁目２番５号,,13,101,1000013,,,,,,,2025-03-05,1,,,,,デネブ,0
1724,7010005039695,新規,0,2025-03-05,2025-03-05,一般社団法人クロスシェアホールディングス,,その他の設立登記法人,東京都,千代田区,丸の内１丁目４番１号東京共同会計事務所内,,13,101,1000005,,,,,,,2025-03-05,1,,,,,クロスシェアホールディングス,0
1725,7010103002522,新規,0,2025-03-05,2025-03-05,合同会社永希,,合同会社,東京都,八王子市,横川町１１１１番地２１,,13,201,1930823,,,,,,,2025-03-05,1,,,,,エイキ,0
1726,7010105002330,新規,0,2025-03-05,2025-03-05,医療法人社団やまそら,,その他の設立登記法人,東京都,八王子市,天神町２４番地３プラムフィールド１０１号室,,13,201,1920074,,,,,,,2025-03-05,1,,,,,シャダンヤマソラ,0
1731,7010401188583,新規,0,2025-03-05,2025-03-05,株式会社アクターズホーム,,株式会社,東京都,港区,赤坂７丁目９番７号,,13,103,1070052,,,,,,,2025-03-05,1,,,,,アクターズホーム,0
1732,7010401188600,新規,0,2025-03-05,2025-03-05,株式会社ＵＫ　Ｇｒｏｕｐ・ホールディングス,,株式会社,東京都,港区,新橋１丁目９番５号ＫＤＸ新橋駅前ビル９階,,13,103,1050004,,,,,,,2025-03-05,1,,,,,ユーケーグループホールディングス,0
1738,7010501053753,新規,0,2025-03-05,2025-03-05,ニューライン株式会社,,株式会社,東京都,台東区,西浅草２丁目２０番６号Ｊ１６１９ビル７０１号室,,13,106,1110035,,,,,,,2025-03-05,1,,,,,ニューライン,0
1739,7010503007749,新規,0,2025-03-05,2025-03-05,合同会社ティーエス警備,,合同会社,東京都,台東区,上野７丁目３番９号アルベルゴ上野３０３号室,,13,106,1100005,,,,,,,2025-03-05,1,,,,,ティーエスケイビ,0
1748,7010801035897,新規,0,2025-03-05,2025-03-05,株式会社イルミナート,,株式会社,東京都,大田区,田園調布１丁目５番５号エスポワール田園調布ＩＩ５０１,00138209,13,111,1450071,,,,,,,2025-03-05,1,,,,,イルミナート,0
1749,7010803005304,新規,0,2025-03-05,2025-03-05,合同会社ハンドソウプレス,,合同会社,東京都,大田区,田園調布本町１７－３,,13,111,1450072,,,,,,,2025-03-05,1,,,,,ハンドソウプレス,0
1750,7010901056918,新規,0,2025-03-05,2025-03-05,株式会社Ａ　ＣＯＬＤ　ＷＯＲＬＤ,,株式会社,東京都,世田谷区,代田１丁目４２番２号,,13,112,1550033,,,,,,,2025-03-05,1,,,,,アコールドワールド,0
1756,7011001168133,新規,0,2025-03-05,2025-03-05,株式会社ＩＰ　ｍｉｘｅｒ,,株式会社,東京都,渋谷区,桜丘町２０番１号,,13,113,1500031,,,,,,,2025-03-05,1,,,,,アイピーミキサー,0
1762,7011101110804,新規,0,2025-03-05,2025-03-05,株式会社Ｖａｎｇｕａｒｄ,,株式会社,東京都,新宿区,西新宿３丁目３番１３号西新宿水間ビル６階,,13,104,1600023,,,,,,,2025-03-05,1,,,,,ヴァンガード,0
1763,7011101110837,新規,0,2025-03-05,2025-03-05,株式会社ヒトミ,,株式会社,東京都,新宿区,大久保２丁目１番８号６階,,13,104,1690072,,,,,,,2025-03-05,1,,,,,ヒトミ,0
1764,7011101110845,新規,0,2025-03-05,2025-03-05,株式会社再生商会,,株式会社,東京都,新宿区,須賀町５番地１３ＦＡＩＲ四谷須賀町１０２,,13,104,1600018,,,,,,,2025-03-05,1,,,,,サイセイショウカイ,0
1765,7011101110853,新規,0,2025-03-05,2025-03-05,株式会社ＲｅＶｉＶｅ,,株式会社,東京都,新宿区,歌舞伎町２丁目１１番４号,,13,104,1600021,,,,,,,2025-03-05,1,,,,,リバイブ,0
1766,7011101110861,新規,0,2025-03-05,2025-03-05,株式会社神楽坂鑑定,,株式会社,東京都,新宿区,下宮比町２番２８号,,13,104,1620822,,,,,,,2025-03-05,1,,,,,カグラザカカンテイ,0
1767,7011103015605,新規,0,2025-03-05,2025-03-05,合同会社ｆｉｏｒａ．,,合同会社,東京都,新宿区,富久町１５番１－３２２１号,,13,104,1620067,,,,,,,2025-03-05,1,,,,,フィオラ,0
1768,7011103015621,新規,0,2025-03-05,2025-03-05,合同会社ラメール,,合同会社,東京都,新宿区,新宿４丁目１番４号,,13,104,1600022,,,,,,,2025-03-05,1,,,,,ラメール,0
1771,7011401026857,新規,0,2025-03-05,2025-03-05,株式会社バウシェリー,,株式会社,東京都,板橋区,成増５丁目１４番１２－３１１シャトーサンハイム,,13,119,1750094,,,,,,,2025-03-05,1,,,,,バウシェリー,0
1772,7011401026873,新規,0,2025-03-05,2025-03-05,株式会社イシダコネクティッド,,株式会社,東京都,板橋区,板橋１丁目５２番１号,,13,119,1730004,,,,,,,2025-03-05,1,,,,,イシダコネクティッド,0
1775,7011601028463,新規,0,2025-03-05,2025-03-05,株式会社東昇,,株式会社,東京都,練馬区,大泉学園町８丁目３２番８号,,13,120,1780061,,,,,,,2025-03-05,1,,,,,トウショウ,0
1779,7011801045721,新規,0,2025-03-05,2025-03-05,株式会社ＳＵＷＡ,,株式会社,東京都,葛飾区,新小岩３丁目２５番１号葛飾区創業支援施設２１１号室,,13,122,1240024,,,,,,,2025-03-05,1,,,,,スワ,0
1781,7011805003436,新規,0,2025-03-05,2025-03-05,医療法人社団仁良会,,その他の設立登記法人,東京都,足立区,江北４丁目２９番５号ＫＪメディカルモール江北２階,,13,121,1230872,,,,,,,2025-03-05,1,,,,,ジンリョウカイ,0
1792,7013301053865,新規,0,2025-03-05,2025-03-05,株式会社故郷,,株式会社,東京都,豊島区,南大塚１丁目６０番２０号天翔大塚駅前ビル,,13,116,1700005,,,,,,,2025-03-05,1,,,,,コキョウ,0
1796,7020001161634,新規,0,2025-03-05,2025-03-05,株式会社Ｌｉｆｉｘ,,株式会社,神奈川県,横浜市泉区,中田東２丁目３０番１１号,,14,116,2450013,,,,,,,2025-03-05,1,,,,,リフィックス,0
1797,7020001161675,新規,0,2025-03-05,2025-03-05,株式会社経営基盤推進機構,,株式会社,神奈川県,横浜市西区,北幸１丁目１１番１号水信ビル７階,,14,103,2200004,,,,,,,2025-03-05,1,,,,,ケイエイキバンスイシンキコウ,0
1812,7021003015662,新規,0,2025-03-05,2025-03-05,Ｃｏｒｅ　Ｌｉｇｈｔ合同会社,,合同会社,神奈川県,茅ヶ崎市,今宿６７番地１７,,14,207,2530072,,,,,,,2025-03-05,1,,,,,コアライト,0
1821,7030001165139,新規,0,2025-03-05,2025-03-05,株式会社ＢＭＳ,,株式会社,埼玉県,さいたま市南区,根岸４丁目８番１９号,,11,108,3360024,,,,,,,2025-03-05,1,,,,,ビーエムズ,0
1822,7030001165147,新規,0,2025-03-05,2025-03-05,株式会社タクミトータルハウス,,株式会社,埼玉県,八潮市,大字二丁目１８０番地,,11,234,3400811,,,,,,,2025-03-05,1,,,,,タクミトータルハウス,0
1823,7030001165163,新規,0,2025-03-05,2025-03-05,株式会社ＳＴＲＡＮＯ,,株式会社,埼玉県,さいたま市見沼区,大字染谷１３１４番地１,,11,104,3370026,,,,,,,2025-03-05,1,,,,,ストラーノ,0
1824,7030001165171,新規,0,2025-03-05,2025-03-05,ｔｏｒａｎａｍｉ．ＬＡＢ株式会社,,株式会社,埼玉県,所沢市,大字上山口３２－２７,,11,208,3591153,,,,,,,2025-03-05,1,,,,,トラナミラボ,0
1825,7030001165196,新規,0,2025-03-05,2025-03-05,カスミ恒産株式会社,,株式会社,埼玉県,朝霞市,浜崎４丁目１３番１号,,11,227,3510033,,,,,,,2025-03-05,1,,,,,カスミコウサン,0
1826,7030001165205,新規,0,2025-03-05,2025-03-05,株式会社ＫＩ建築,,株式会社,埼玉県,三郷市,彦野１丁目１７４番１号２階,,11,237,3410052,,,,,,,2025-03-05,1,,,,,ケーアイケンチク,0
1827,7030001165213,新規,0,2025-03-05,2025-03-05,株式会社鳳葉社,,株式会社,埼玉県,新座市,東北２丁目４０番６号イースト志木３Ｆ,,11,230,3520001,,,,,,,2025-03-05,1,,,,,ホウヨウシャ,0
1828,7030001165246,新規,0,2025-03-05,2025-03-05,栄達株式会社,,株式会社,埼玉県,越谷市,宮本町５丁目１９９番地１６,,11,222,3430806,,,,,,,2025-03-05,1,,,,,エイタツ,0
1829,7030001165254,新規,0,2025-03-05,2025-03-05,マウント株式会社,,株式会社,埼玉県,さいたま市見沼区,大字東門前２６０番地２２,,11,104,3370016,,,,,,,2025-03-05,1,,,,,マウント,0
1834,7030003026215,新規,0,2025-03-05,2025-03-05,合同会社さんのーがーはい,,合同会社,埼玉県,富士見市,諏訪２丁目２番４３号,,11,235,3540023,,,,,,,2025-03-05,1,,,,,サンノーガーハイ,0
1835,7030003026248,新規,0,2025-03-05,2025-03-05,合同会社ＮＪｂｕｉｌｄｅｒｓ,,合同会社,埼玉県,越谷市,東越谷１０丁目１００番地１４,,11,222,3430023,,,,,,,2025-03-05,1,,,,,エヌジェイビルダーズ,0
1836,7030003026256,新規,0,2025-03-05,2025-03-05,合同会社カンシャス,,合同会社,埼玉県,春日部市,大枝８９番地武里団地１街区１３棟１０５号,,11,214,3440023,,,,,,,2025-03-05,1,,,,,カンシャス,0
1837,7040001137351,新規,0,2025-03-05,2025-03-05,ｃａｎｂｅ株式会社,,株式会社,千葉県,松戸市,新松戸４丁目１７６番地ＫＳ－Ｃ棟,,12,207,2700034,,,,,,,2025-03-05,1,,,,,キャンビー,0
1838,7040001137574,新規,0,2025-03-05,2025-03-05,株式会社Ｍｏｏ８,,株式会社,千葉県,松戸市,古ケ崎１９２番地６,,12,207,2710068,,,,,,,2025-03-05,1,,,,,ムーエイト,0
1839,7040001137624,新規,0,2025-03-05,2025-03-05,ＮＩＰＰＯＮ　ＭＯＴＯＲ　ＥＸＰＯＲＴ株式会社,,株式会社,千葉県,佐倉市,王子台１丁目６－７－２０１,,12,212,2850837,,,,,,,2025-03-05,1,,,,,ニッポンモーターエクスポート,0
1840,7040001137640,新規,0,2025-03-05,2025-03-05,株式会社きはら工務店,,株式会社,千葉県,我孫子市,日秀７６番地の１１,,12,222,2701123,,,,,,,2025-03-05,1,,,,,キハラコウムテン,0
1841,7040001137665,新規,0,2025-03-05,2025-03-05,株式会社Ｓビルトラスト,,株式会社,千葉県,千葉市稲毛区,山王町１６８番地３,,12,103,2630002,,,,,,,2025-03-05,1,,,,,エスビルトラスト,0
1842,7040003027006,新規,0,2025-03-05,2025-03-05,合同会社モンステラ,,合同会社,千葉県,流山市,大字東深井４９８番地の７９,,12,220,2700101,,,,,,,2025-03-05,1,,,,,モンステラ,0
1843,7040003027022,新規,0,2025-03-05,2025-03-05,シャークマン合同会社,,合同会社,千葉県,市川市,須和田１丁目２６番１７号,,12,203,2720825,,,,,,,2025-03-05,1,,,,,シャークマン,0
1846,7050003009060,新規,0,2025-03-05,2025-03-05,Ｓａｍａ　Ｉｎｔｅｒｎａｔｉｏｎａｌ　Ｇｒｏｕｐ合同会社,,合同会社,茨城県,つくば市,松代１丁目１８番４号学園第一ビル１０１号,,08,220,3050035,,,,,,,2025-03-05,1,,,,,サマインターナショナルグループ,0
1847,7050003009077,新規,0,2025-03-05,2025-03-05,ワイズオフィス合同会社,,合同会社,茨城県,守谷市,立沢１１３３番地の２,,08,224,3020118,,,,,,,2025-03-05,1,,,,,ワイズオフィス,0
1848,7060001037979,新規,0,2025-03-05,2025-03-05,株式会社ＪＩＮＥＮ,,株式会社,栃木県,下野市,駅東６丁目７番１３号,,09,216,3290413,,,,,,,2025-03-05,1,,,,,ジネン,0
1851,7060003005455,新規,0,2025-03-05,2025-03-05,合同会社ＥＭＩＲＩ,,合同会社,栃木県,栃木市,泉町１１番２号,,09,203,3280014,,,,,,,2025-03-05,1,,,,,エミリ,0
1854,7070001042680,新規,0,2025-03-05,2025-03-05,株式会社輝建設,,株式会社,群馬県,伊勢崎市,連取町３０９９番地５ウエストビル１０２,,10,204,3720812,,,,,,,2025-03-05,1,,,,,ヒカルケンセツ,0
1861,7080001026781,新規,0,2025-03-05,2025-03-05,株式会社大河原,,株式会社,静岡県,島田市,横井２丁目２２番３５号,,22,209,4270024,,,,,,,2025-03-05,1,,,,,オオカワラ,0
1862,7080003003399,新規,0,2025-03-05,2025-03-05,合同会社ちち,,合同会社,静岡県,静岡市葵区,北安東５丁目５５番４号カーサネロＢ３号,,22,101,4200881,,,,,,,2025-03-05,1,,,,,チチ,0
1863,7080101025345,新規,0,2025-03-05,2025-03-05,Ｓｅｃｏｎｄ　Ｃｏｍｐａｎｙ　ＩＦＥ株式会社,,株式会社,静岡県,沼津市,千本港町１２２番地の６,,22,203,4100845,,,,,,,2025-03-05,1,,,,,セカンドカンパニーアイエフイー,0
1864,7080401027784,新規,0,2025-03-05,2025-03-05,株式会社ＬＩＧＡＲＥＦＹ,,株式会社,静岡県,浜松市中央区,田町２２３－２１,,22,138,4300944,,,,,,,2025-03-05,1,,,,,リガレファイ,0
1878,7120001273213,新規,0,2025-03-05,2025-03-05,株式会社ＳｔｏｃｋＨｏｔｅｌ,,株式会社,大阪府,大阪市北区,梅田１丁目１－３大阪駅前第３ビル２９階１－１－１号室,,27,127,5300001,,,,,,,2025-03-05,1,,,,,ストックホテル,0
1879,7120001273378,新規,0,2025-03-05,2025-03-05,株式会社グッドリンク,,株式会社,大阪府,大阪市浪速区,湊町１丁目４番３８号近鉄新難波ビル１０Ｆ,,27,111,5560017,,,,,,,2025-03-05,1,,,,,グッドリンク,0
1880,7120001273386,新規,0,2025-03-05,2025-03-05,株式会社ＬＥＡ,,株式会社,大阪府,寝屋川市,宝町７番８号,,27,215,5720067,,,,,,,2025-03-05,1,,,,,エルイーエー,0
1881,7120001273469,新規,0,2025-03-05,2025-03-05,株式会社Ｉｎｖｉｇｏｒａｔｅ　Ｗｏｒｋ,,株式会社,大阪府,寝屋川市,萱島東１丁目２４番１６号,,27,215,5720824,,,,,,,2025-03-05,1,,,,,インビゴレイトワーク,0
1885,7120003028771,新規,0,2025-03-05,2025-03-05,ＰＫＬ８８・ＧＣ合同会社,,合同会社,大阪府,大阪市生野区,新今里４丁目１０番３号丸五荘１０１,,27,116,5440001,,,,,,,2025-03-05,1,,,,,ピーケーエルハチハチジーシー,0
1890,7120101071161,新規,0,2025-03-05,2025-03-05,株式会社ソーシャルステータス,,株式会社,大阪府,堺市南区,赤坂台６丁１４番１７－５０３号,,27,145,5900144,,,,,,,2025-03-05,1,,,,,ソーシャルステータス,0
1893,7120903005572,新規,0,2025-03-05,2025-03-05,ボーサイ建物ＥＮＧ合同会社,,合同会社,大阪府,豊能郡能勢町,山田６７番地２３,,27,322,5630373,,,,,,,2025-03-05,1,,,,,ボーサイタテモノイーエヌジィ,0
1897,7140001137589,新規,0,2025-03-05,2025-03-05,西日本プロパティーズ株式会社,,株式会社,兵庫県,神戸市垂水区,学が丘５丁目１番４号,,28,108,6550004,,,,,,,2025-03-05,1,,,,,ニシニホンプロパティーズ,0
1898,7140001137614,新規,0,2025-03-05,2025-03-05,ケースリーワークス株式会社,,株式会社,兵庫県,神戸市兵庫区,荒田町４丁目１番２３号,,28,105,6520032,,,,,,,2025-03-05,1,,,,,ケースリーワークス,0
1899,7140001137630,新規,0,2025-03-05,2025-03-05,株式会社Ｊｕｎ．,,株式会社,兵庫県,尼崎市,昭和通２丁目１０－１,,28,202,6600881,,,,,,,2025-03-05,1,,,,,ジュンドット,0
1901,7140003021733,新規,0,2025-03-05,2025-03-05,合同会社ＢＥ　ｇｅｎｕｉｎｅ,,合同会社,兵庫県,姫路市,飾磨区都倉１丁目９８番地,,28,201,6728046,,,,,,,2025-03-05,1,,,,,ビージェニュイン,0
1903,7150001027921,新規,0,2025-03-05,2025-03-05,株式会社ＭＳ　ｔｒａｄｅ,,株式会社,奈良県,天理市,西長柄町６３７番地２グリーンガーデン弐番館２０２,,29,204,6320063,,,,,,,2025-03-05,1,,,,,エムエストレード,0
1904,7160001026583,新規,0,2025-03-05,2025-03-05,株式会社ＲＩＶＥＲ　ＵＰ,,株式会社,滋賀県,長浜市,平方町５９５番地１,,25,203,5260033,,,,,,,2025-03-05,1,,,,,リバーアップ,0
1915,7180001165644,新規,0,2025-03-05,2025-03-05,サスティナブルサポート株式会社,,株式会社,愛知県,名古屋市名東区,上社３丁目１０２番地東名ビルディング２０５号,,23,115,4650025,,,,,,,2025-03-05,1,,,,,サスティナブルサポート,0
1916,7180001165693,新規,0,2025-03-05,2025-03-05,株式会社豊正,,株式会社,愛知県,東海市,名和町一番割中５０番地,,23,222,4760002,,,,,,,2025-03-05,1,,,,,ホウセイ,0
1917,7180001165710,新規,0,2025-03-05,2025-03-05,株式会社青柳ホールディングス,,株式会社,愛知県,名古屋市守山区,瀬古１丁目８０３番地,,23,113,4630068,,,,,,,2025-03-05,1,,,,,アオヤギホールディングス,0
1927,7180005020969,新規,0,2025-03-05,2025-03-05,名古屋愛知キリスト教会,,その他の設立登記法人,愛知県,名古屋市中区,千代田５丁目１６番１３号,,23,106,4600012,,,,,,,2025-03-05,1,,,,,ナゴヤアイチキリストキョウカイ,0
1928,7180301039572,新規,0,2025-03-05,2025-03-05,株式会社Ａｎｔｅｎｎａ,,株式会社,愛知県,岡崎市,美合町字南屋敷６１番地３,,23,202,4440802,,,,,,,2025-03-05,1,,,,,アンテナ,0
1929,7180301039580,新規,0,2025-03-05,2025-03-05,株式会社ＹＳＰ　Ｎｅｘｔ,,株式会社,愛知県,岡崎市,東大友町字筆屋１４番地５,,23,202,4440903,,,,,,,2025-03-05,1,,,,,ワイエスピーネクスト,0
1930,7180301039589,新規,0,2025-03-05,2025-03-05,株式会社１９,,株式会社,愛知県,西尾市,深池町神田１９番地,,23,213,4450875,,,,,,,2025-03-05,1,,,,,ジュウク,0
1934,7190001032050,新規,0,2025-03-05,2025-03-05,株式会社ＲＥエナジー,,株式会社,三重県,津市,栗真町屋町３３９番地１,,24,201,5140102,,,,,,,2025-03-05,1,,,,,アールイーエナジー,0
1943,7240001064609,新規,0,2025-03-05,2025-03-05,株式会社ｄｉｘ‐ｈｕｉｔ,,株式会社,広島県,福山市,沼隈町上山南７９７－１,,34,207,7210000,,,,,,,2025-03-05,1,,,,,ディズユイットゥ,0
1947,7240003007094,新規,0,2025-03-05,2025-03-05,ＦＢＤＡ東広島合同会社,,合同会社,広島県,東広島市,西条町下三永４５５番地１８６,,34,212,7390023,,,,,,,2025-03-05,1,,,,,エフビーディーエーヒガシヒロシマ,0
1950,7260001039963,新規,0,2025-03-05,2025-03-05,株式会社ＫＥＹ　ＴＥＣＨＮＯＳ,,株式会社,岡山県,岡山市南区,藤田５６４－１５９,,33,104,7010221,,,,,,,2025-03-05,1,,,,,キーテクノス,0
1951,7260005011448,新規,0,2025-03-05,2025-03-05,一般社団法人ＮＳＥ,,その他の設立登記法人,岡山県,岡山市北区,野田５丁目２番７号,,33,101,7000971,,,,,,,2025-03-05,1,,,,,エヌエスイー,0
1958,7290001109210,新規,0,2025-03-05,2025-03-05,株式会社フレッシュアンドファースト,,株式会社,福岡県,福岡市西区,大字草場２７５番地,,40,135,8190204,,,,,,,2025-03-05,1,,,,,,0
1960,7290003016495,新規,0,2025-03-05,2025-03-05,合同会社ＳＳＯ,,合同会社,福岡県,福岡市博多区,比恵町１－１８トーカン福岡第二キャステールビル２０１,,40,132,8120014,,,,,,,2025-03-05,1,,,,,エスエスオー,0
1961,7290003016504,新規,0,2025-03-05,2025-03-05,合同会社ＨＯＰＥ,,合同会社,福岡県,福岡市早良区,西新３丁目７－５－１０５,,40,137,8140002,,,,,,,2025-03-05,1,,,,,ホープ,0
1963,7290801031316,新規,0,2025-03-05,2025-03-05,ＫＯＭＡＴＳＵ．ＴＲＡＮＳＰＯＲＴ．株式会社,,株式会社,福岡県,北九州市小倉北区,西港町１５番２４号,,40,106,8030801,,,,,,,2025-03-05,1,,,,,コマツトランスポート,0
1965,7310001019472,新規,0,2025-03-05,2025-03-05,ヘリテージプロデュース株式会社,,株式会社,長崎県,佐世保市,吉井町春明２６６番地１,,42,202,8596323,,,,,,,2025-03-05,1,,,,,ヘリテージプロデュース,0
1968,7340001027167,新規,0,2025-03-05,2025-03-05,株式会社思楽,,株式会社,鹿児島県,鹿児島市,春山町１１５５番地２１,,46,201,8992704,,,,,,,2025-03-05,1,,,,,シラク,0
1972,7340003004759,新規,0,2025-03-05,2025-03-05,合同会社Ｙｕｂｉｙａｄｏ,,合同会社,鹿児島県,指宿市,西方７０４番地,,46,210,8910311,,,,,,,2025-03-05,1,,,,,ユビヤド,0
1973,7340003004767,新規,0,2025-03-05,2025-03-05,合同会社おかげさまです,,合同会社,鹿児島県,鹿児島市,中山１丁目１１番１２号,,46,201,8910108,,,,,,,2025-03-05,1,,,,,オカゲサマデス,0
1974,7350003004857,新規,0,2025-03-05,2025-03-05,合同会社Ｐｒａｋｒｔｉ　Ｐａｒａｄｉｇｍ,,合同会社,宮崎県,東諸県郡綾町,大字入野２８２５番地２,,45,383,8801301,,,,,,,2025-03-05,1,,,,,プラクルティパラダイム,0
1984,7370003006959,新規,0,2025-03-05,2025-03-05,合同会社スタープラス,,合同会社,宮城県,仙台市太白区,西中田６丁目１４－２５－１１２,,04,104,9811105,,,,,,,2025-03-05,1,,,,,スタープラス,0
1985,7370003006967,新規,0,2025-03-05,2025-03-05,合同会社わたりやまもと,,合同会社,宮城県,亘理郡山元町,山寺字山下８９番地,,04,362,9892201,,,,,,,2025-03-05,1,,,,,ワタリヤマモト,0
1986,7370005010918,新規,0,2025-03-05,2025-03-05,一般社団法人宮城県老人保健施設協会,,その他の設立登記法人,宮城県,仙台市太白区,西中田２丁目１１番１７号,,04,104,9811105,,,,,,,2025-03-05,1,,,,,ミヤギケンロウジンホケンシセツキョウカイ,0
1990,7380001035133,新規,0,2025-03-05,2025-03-05,株式会社サンファーム,,株式会社,福島県,伊達市,梁川町粟野字中塚原１５番地,,07,213,9600711,,,,,,,2025-03-05,1,,,,,サンファーム,0
1998,7430001093786,新規,0,2025-03-05,2025-03-05,株式会社慶虎,,株式会社,北海道,千歳市,勇舞８丁目６番３６号スカイピア勇舞ＩＩｇ１０１号,00138204,01,224,0660078,,,,,,,2025-03-05,1,,,,,ヨシトラ,0
1999,7430001093803,新規,0,2025-03-05,2025-03-05,株式会社雅日,,株式会社,北海道,札幌市白石区,菊水五条２丁目４番２３号パークヒルズ菊水１階,,01,104,0030805,,,,,,,2025-03-05,1,,,,,ミヤビ,0
2000,7430001093836,新規,0,2025-03-05,2025-03-05,株式会社ＴＤＳ,,株式会社,北海道,札幌市中央区,南七条西４丁目４２２番地６ＬＣ拾番館２階Ｂ室,,01,101,0640807,,,,,,,2025-03-05,1,,,,,ティーディーエス,0
2001,7430003017330,新規,0,2025-03-05,2025-03-05,合同会社ホスピタリティ,,合同会社,北海道,札幌市手稲区,新発寒七条１丁目５－１１－２０３,,01,109,0060807,,,,,,,2025-03-05,1,,,,,ホスピタリティ,0
2009,7470001020605,新規,0,2025-03-05,2025-03-05,株式会社ドローンショープラス,,株式会社,香川県,高松市,伏石町２００１番地２５,,37,201,7618071,,,,,,,2025-03-05,1,,,,,ドローンショープラス,0
2011,7480001012766,新規,0,2025-03-05,2025-03-05,株式会社丸徳,,株式会社,徳島県,名西郡石井町,藍畑字高畑９８５－１,,36,341,7793213,,,,,,,2025-03-05,1,,,,,,0
2012,7490001010983,新規,0,2025-03-05,2025-03-05,株式会社有光商事,,株式会社,高知県,高知市,北川添２４番１６号,,39,201,7810081,,,,,,,2025-03-05,1,,,,,アリミツショウジ,0
2013,7700150129446,新規,0,2025-03-05,2025-03-05,ｓｈｅｎｚｈｅｎｓｈｉｈｕａｍｅｉｓｈｅｎｇｋｅｊｉｙｏｕｘｉａｎｇｏｎｇｓｉ,,外国会社等,,,,,,,,ｓｈｅｎｚｈｅｎｓｈｉｂａｏａｎｑｕｆｕｈａｉｊｉｅｄａｏｘｉｎｔｉａｎｓｈｅｑｕｙｉｎｇｈａｏｓｈｅｎｇｇｏｎｇｙｅｙｕａｎｄｉＡｄｏｎｇ,,,,,,2025-03-05,1,,,,,シェンジェンシーフワーメイションコージーヨウシエンゴンスー,0
2024,8010005039653,新規,0,2025-03-05,2025-03-05,一般社団法人日本生成ＡＩ生涯学習促進協会,,その他の設立登記法人,東京都,中央区,八重洲２丁目１－１ヤンマー東京１２階,,13,102,1040028,,,,,,,2025-03-05,1,,,,,ニホンセイセイエイアイショウガイガクシュウソクシンキョウカイ,0
2025,8010005039694,新規,0,2025-03-05,2025-03-05,一般社団法人Ｊ‐ＡＳＲホールディングス,,その他の設立登記法人,東京都,千代田区,丸の内１丁目４番１号東京共同会計事務所内,,13,101,1000005,,,,,,,2025-03-05,1,,,,,ジェイエーエスアールホールディングス,0
2031,8010401188599,新規,0,2025-03-05,2025-03-05,日妍実業株式会社,,株式会社,東京都,港区,浜松町１丁目９－１０－４２－５０３,,13,103,1050013,,,,,,,2025-03-05,1,,,,,ニッケンジツギョウ,0
2032,8010401188616,新規,0,2025-03-05,2025-03-05,株式会社ＮＥＸＴ,,株式会社,東京都,港区,新橋４丁目１４番１号新橋ＡＵＮＢＬＤＧ４階,,13,103,1050004,,,,,,,2025-03-05,1,,,,,ネクスト,0
2033,8010401188731,新規,0,2025-03-05,2025-03-05,株式会社サポート,,株式会社,東京都,港区,六本木４丁目９番２号,,13,103,1060032,,,,,,,2025-03-05,1,,,,,サポート,0
2035,8010403034529,新規,0,2025-03-05,2025-03-05,カスケイド合同会社,,合同会社,東京都,港区,芝浦４丁目１６番地３１号東京ベイシティタワー３００１,,13,103,1080023,,,,,,,2025-03-05,1,,,,,カスケイド,0
2039,8010501053752,新規,0,2025-03-05,2025-03-05,株式会社ＣＯＶＥＲ３,,株式会社,東京都,台東区,浅草橋２丁目２８番１７号,,13,106,1110053,,,,,,,2025-03-05,1,,,,,カバースリー,0
2042,8010701047315,新規,0,2025-03-05,2025-03-05,日本精密産業株式会社,,株式会社,東京都,品川区,西五反田３丁目４番１０号目黒ＭＡＲＣレジデンスタワー６０６,,13,109,1410031,,,,,,,2025-03-05,1,,,,,ニッポンセイミツサンギョウ,0
2043,8010701047323,新規,0,2025-03-05,2025-03-05,株式会社ｎａｎｏｈａｎａ,,株式会社,東京都,品川区,北品川５丁目３番１－２０２０号,,13,109,1410001,,,,,,,2025-03-05,1,,,,,ナノハナ,0
2051,8010803005303,新規,0,2025-03-05,2025-03-05,合同会社マサムネ組織デザイン,,合同会社,東京都,大田区,大森北５丁目６番２５号,,13,111,1430016,,,,,,,2025-03-05,1,,,,,マサムネソシキデザイン,0
2062,8011101110860,新規,0,2025-03-05,2025-03-05,株式会社コマダント,,株式会社,東京都,新宿区,新宿６丁目２９番１１号イーストクロスタワー１０Ｆ－Ｃ８,,13,104,1600022,,,,,,,2025-03-05,1,,,,,コマダント,0
2063,8011103015604,新規,0,2025-03-05,2025-03-05,ＴＨＥ　ＴＨＩＲＴＥＥＮＴＨ合同会社,,合同会社,東京都,新宿区,四谷三栄町２番１４号四ツ谷ビジネスガーデン１２４,,13,104,1600008,,,,,,,2025-03-05,1,,,,,ザサーティーンス,0
2064,8011201026164,新規,0,2025-03-05,2025-03-05,Ｂｅｓｔ　Ｃｈｏｉｃｅ株式会社,,株式会社,東京都,中野区,弥生町１丁目５７番４－３１７号,,13,114,1640013,,,,,,,2025-03-05,1,,,,,ベストチョイス,0
2065,8011203004630,新規,0,2025-03-05,2025-03-05,合同会社ＧＡＴＥ,,合同会社,東京都,中野区,中央２丁目５８番２１号コーポ中野１０４,,13,114,1640011,,,,,,,2025-03-05,1,,,,,ゲート,0
2066,8011301030396,新規,0,2025-03-05,2025-03-05,株式会社ＩＤ,,株式会社,東京都,杉並区,上荻４丁目１０番１３号ヴィルソレイユ西荻Ｉ１０６,00138205,13,115,1670043,,,,,,,2025-03-05,1,,,,,アイディー,0
2068,8011703004147,新規,0,2025-03-05,2025-03-05,雲都ネットワーク合同会社,,合同会社,東京都,江戸川区,南小岩３丁目１－１４プランドールＭ１２２室,,13,123,1330056,,,,,,,2025-03-05,1,,,,,ウントネットワーク,0
2070,8011801045737,新規,0,2025-03-05,2025-03-05,白澤環境株式会社,,株式会社,東京都,足立区,西新井本町４丁目２番１１号,,13,121,1230845,,,,,,,2025-03-05,1,,,,,シラサワカンキョウ,0
2071,8011801045745,新規,0,2025-03-05,2025-03-05,株式会社誠和,,株式会社,東京都,葛飾区,小菅１丁目３７番１－６１３号ソライエ葛飾小菅,,13,122,1240001,,,,,,,2025-03-05,1,,,,,セイワ,0
2073,8012401042835,新規,0,2025-03-05,2025-03-05,株式会社ＳＥＮＳ,,株式会社,東京都,狛江市,猪方２丁目１０番７号,,13,219,2010015,,,,,,,2025-03-05,1,,,,,センス,0
2075,8012703003213,新規,0,2025-03-05,2025-03-05,合同会社未来社中,,合同会社,東京都,東村山市,栄町２丁目９―３２晃正ビル３Ｆ,,13,213,1890013,,,,,,,2025-03-05,1,,,,,ミライシャチュウ,0
2076,8012805003318,新規,0,2025-03-05,2025-03-05,医療法人社団公山会,,その他の設立登記法人,東京都,国分寺市,南町３丁目１１番１３号アーバンホームズ国分寺１階,,13,214,1850021,,,,,,,2025-03-05,1,,,,,コウザンカイ,0
2088,8020001161237,新規,0,2025-03-05,2025-03-05,株式会社ＦＥＥＬＯ,,株式会社,神奈川県,川崎市川崎区,京町２丁目２４番７－３０６号,,14,131,2100848,,,,,,,2025-03-05,1,,,,,フィーロ,0
2102,8021003015661,新規,0,2025-03-05,2025-03-05,合同会社結,,合同会社,神奈川県,横須賀市,上町１丁目４０番地長瀬ビル１階,,14,201,2380017,,,,,,,2025-03-05,1,,,,,ムスビ,0
2107,8030001165204,新規,0,2025-03-05,2025-03-05,株式会社みずいろ,,株式会社,埼玉県,朝霞市,根岸台３丁目１９番５－５０８号,,11,227,3510005,,,,,,,2025-03-05,1,,,,,ミズイロ,0
2108,8030001165212,新規,0,2025-03-05,2025-03-05,株式会社ｔａｎａｂａｔａコンサルティング,,株式会社,埼玉県,新座市,北野２丁目６番１８号,,11,230,3520003,,,,,,,2025-03-05,1,,,,,タナバタコンサルティング,0
2109,8030001165237,新規,0,2025-03-05,2025-03-05,株式会社キンセー,,株式会社,埼玉県,北本市,深井５丁目８８番地１,,11,233,3640001,,,,,,,2025-03-05,1,,,,,キンセー,0
2110,8030001165245,新規,0,2025-03-05,2025-03-05,Ｆｉｌｍ　Ｗｏｒｋｓ株式会社,,株式会社,埼玉県,狭山市,大字水野５０７－１（１Ｆ）,,11,215,3501317,,,,,,,2025-03-05,1,,,,,フィルムワークス,0
2115,8040001137573,新規,0,2025-03-05,2025-03-05,株式会社Ｃｈｉｂａ　Ｌｏｕｎｇｅ,,株式会社,千葉県,松戸市,本町１７－１１芹澤ビル６Ｆ,,12,207,2710091,,,,,,,2025-03-05,1,,,,,チバラウンジ,0
2116,8040001137689,新規,0,2025-03-05,2025-03-05,株式会社ＳＣクリーンサービス,,株式会社,千葉県,柏市,豊四季５５２－１,,12,217,2770863,,,,,,,2025-03-05,1,,,,,エスシークリーンサービス,0
2117,8040001137730,新規,0,2025-03-05,2025-03-05,株式会社ＴＥＮ,,株式会社,千葉県,流山市,西初石５丁目３４番地の１２,,12,220,2700121,,,,,,,2025-03-05,1,,,,,テン,0
2119,8040003027005,新規,0,2025-03-05,2025-03-05,合同会社ＭＡＳＡＴＯ,,合同会社,千葉県,白井市,西白井２丁目２７番地４３号,,12,232,2701408,,,,,,,2025-03-05,1,,,,,マサト,0
2120,8040003027013,新規,0,2025-03-05,2025-03-05,合同会社坂の上の城下町,,合同会社,千葉県,佐倉市,新町５６番地,,12,212,2850023,,,,,,,2025-03-05,1,,,,,サカノウエノジョウカマチ,0
2121,8040003027021,新規,0,2025-03-05,2025-03-05,合同会社ＰＢｓｔｙｌｅ,,合同会社,千葉県,柏市,柏４丁目１１－２千代田コーポ１０２,,12,217,2770005,,,,,,,2025-03-05,1,,,,,ピービースタイル,0
2123,8050001056244,新規,0,2025-03-05,2025-03-05,株式会社インテック,,株式会社,茨城県,神栖市,大野原５丁目２番５号Ｃ棟,,08,232,3140144,,,,,,,2025-03-05,1,,,,,インテック,0
2127,8060003005446,新規,0,2025-03-05,2025-03-05,Ｔエクスペリエンス合同会社,,合同会社,栃木県,佐野市,多田町１０１９番地,,09,204,3270311,,,,,,,2025-03-05,1,,,,,ティーエクスペリエンス,0
2131,8080001026780,新規,0,2025-03-05,2025-03-05,株式会社リジュン,,株式会社,静岡県,静岡市駿河区,鎌田１１３番地の７,,22,102,4210133,,,,,,,2025-03-05,1,,,,,リジュン,0
2132,8080001026789,新規,0,2025-03-05,2025-03-05,株式会社ａｗｅｓｏｍｅ,,株式会社,静岡県,静岡市清水区,高橋１丁目９番５－３号,,22,103,4240041,,,,,,,2025-03-05,1,,,,,オーサム,0
2134,8080101025336,新規,0,2025-03-05,2025-03-05,株式会社アルフェシア,,株式会社,静岡県,駿東郡清水町,徳倉２１６７番地の５５,,22,341,4110917,,,,,,,2025-03-05,1,,,,,アルフェシア,0
2135,8080101025344,新規,0,2025-03-05,2025-03-05,株式会社想樹,,株式会社,静岡県,富士市,吉原２丁目２番１０号,,22,210,4170051,,,,,,,2025-03-05,1,,,,,ソウジュ,0
2136,8080103003265,新規,0,2025-03-05,2025-03-05,ＳＴＵＤＩＯ　ＭＥＲ合同会社,,合同会社,静岡県,富士市,岩淵１４２９番地の３,,22,210,4213305,,,,,,,2025-03-05,1,,,,,スタジオメル,0
2138,8080401027783,新規,0,2025-03-05,2025-03-05,株式会社ＨＩＲＡＣＳ,,株式会社,静岡県,浜松市中央区,曳馬６丁目１４番２７－２０８号アーバンライフＩＩ,00138201,22,138,4300901,,,,,,,2025-03-05,1,,,,,ヒラックス,0
2139,8100001038336,新規,0,2025-03-05,2025-03-05,株式会社ＩＷＡＩ,,株式会社,長野県,千曲市,大字千本柳７５３番地４,,20,218,3890803,,,,,,,2025-03-05,1,,,,,イワイ,0
2140,8100001038344,新規,0,2025-03-05,2025-03-05,株式会社ＮｅｏＫａｃｈｉ,,株式会社,長野県,岡谷市,銀座２丁目１１番２０号,,20,204,3940022,,,,,,,2025-03-05,1,,,,,ネオカチ,0
2142,8100005013302,新規,0,2025-03-05,2025-03-05,一般社団法人安曇野市里山再生支援機構,,その他の設立登記法人,長野県,安曇野市,穂高牧２３１５番地４,,20,220,3998305,,,,,,,2025-03-05,1,,,,,アヅミノシサトヤマサイセイシエンキコウ,0
2143,8110001039077,新規,0,2025-03-05,2025-03-05,株式会社栗田左官工業所,,株式会社,新潟県,南魚沼市,下原３６７番地１,,15,226,9497113,,,,,,,2025-03-05,1,,,,,クリタサカンコウギョウショ,0
2144,8110001039085,新規,0,2025-03-05,2025-03-05,株式会社谷風農園,,株式会社,新潟県,小千谷市,大字桜町２７９７番地,,15,208,9470035,,,,,,,2025-03-05,1,,,,,タニカゼノウエン,0
2155,8120001273336,新規,0,2025-03-05,2025-03-05,株式会社ＣＯＲＰＯ,,株式会社,大阪府,大阪市北区,西天満３丁目４番５号４０１,,27,127,5300047,,,,,,,2025-03-05,1,,,,,コルポ,0
2156,8120001273369,新規,0,2025-03-05,2025-03-05,漢溢株式会社,,株式会社,大阪府,大阪市中央区,日本橋２丁目１２番２１号,,27,128,5420073,,,,,,,2025-03-05,1,,,,,カンイキ,0
2157,8120001273435,新規,0,2025-03-05,2025-03-05,株式会社Ｍｏｂｉｕｓ　Ｅｎｔｅｒｔａｉｎｍｅｎｔ,,株式会社,大阪府,大阪市都島区,都島本通３丁目３番１０号２０１,,27,102,5340021,,,,,,,2025-03-05,1,,,,,メビウスエンターテイメント,0
2158,8120001273443,新規,0,2025-03-05,2025-03-05,株式会社カジタ不動産,,株式会社,大阪府,大阪市阿倍野区,昭和町１丁目５番２６号,,27,119,5450011,,,,,,,2025-03-05,1,,,,,カジタフドウサン,0
2159,8120003028779,新規,0,2025-03-05,2025-03-05,中川商店合同会社,,合同会社,大阪府,大阪市北区,梅田１丁目１－３大阪駅前第３ビル２９階１－１－１号室,,27,127,5300001,,,,,,,2025-03-05,1,,,,,ナカガワショウテン,0
2175,8140001137563,新規,0,2025-03-05,2025-03-05,株式会社雪順,,株式会社,兵庫県,高砂市,伊保崎５丁目１４番２５－３０４号ファミール伊保崎,,28,216,6760076,,,,,,,2025-03-05,1,,,,,セツジュン,0
2176,8140001137588,新規,0,2025-03-05,2025-03-05,株式会社Ａｏｌａ,,株式会社,兵庫県,神戸市中央区,脇浜海岸通３丁目１ＨＡＴ神戸、脇の浜１号棟９０４,,28,110,6510073,,,,,,,2025-03-05,1,,,,,アオラ,0
2177,8140003021749,新規,0,2025-03-05,2025-03-05,合同会社４ＢＳ,,合同会社,兵庫県,加古川市,加古川町大野１５５１番地の９,,28,210,6750061,,,,,,,2025-03-05,1,,,,,ヨンビーエス,0
2179,8160001026582,新規,0,2025-03-05,2025-03-05,株式会社叶,,株式会社,滋賀県,守山市,今浜町２５３２番地５,,25,207,5240101,,,,,,,2025-03-05,1,,,,,カナウ,0
2180,8160001026590,新規,0,2025-03-05,2025-03-05,株式会社ＤＡＲＵＭＡ,,株式会社,滋賀県,守山市,吉身町１３４番地１－１４１１号,,25,207,5240021,,,,,,,2025-03-05,1,,,,,ダルマ,0
2183,8170001018521,新規,0,2025-03-05,2025-03-05,万歳財託株式会社,,株式会社,和歌山県,和歌山市,新雑賀町１－１,,30,201,6408101,,,,,,,2025-03-05,1,,,,,バンザイザイタク,0
2184,8180001165676,新規,0,2025-03-05,2025-03-05,株式会社Ｉｄｅｎｔｉｔｙ,,株式会社,愛知県,名古屋市中区,東桜２丁目２２番１８号,,23,106,4600005,,,,,,,2025-03-05,1,,,,,アイデンティティ,0
2185,8180001165684,新規,0,2025-03-05,2025-03-05,株式会社エアバード,,株式会社,愛知県,一宮市,緑５丁目８番１,,23,203,4910862,,,,,,,2025-03-05,1,,,,,エアバード,0
2186,8180001165701,新規,0,2025-03-05,2025-03-05,ＮＵＲ　ＧＬＯＢＡＬ　ＮＥＴＷＯＲＫ株式会社,,株式会社,愛知県,弥富市,東末広３丁目５３番地,,23,235,4980063,,,,,,,2025-03-05,1,,,,,ヌルグローバルネットワーク,0
2187,8180001165718,新規,0,2025-03-05,2025-03-05,株式会社アルバイーナ,,株式会社,愛知県,春日井市,気噴町３丁目２番地３,,23,206,4870014,,,,,,,2025-03-05,1,,,,,アルバイーナ,0
2188,8180001165750,新規,0,2025-03-05,2025-03-05,株式会社ＴＥＲＲＡ,,株式会社,愛知県,長久手市,打越１７０４番地２,,23,238,4801152,,,,,,,2025-03-05,1,,,,,テラ,0
2195,8180003028088,新規,0,2025-03-05,2025-03-05,ブルーム合同会社,,合同会社,愛知県,あま市,森６丁目１６番地２,,23,237,4901107,,,,,,,2025-03-05,1,,,,,ブルーム,0
2200,8190001032041,新規,0,2025-03-05,2025-03-05,株式会社エムエムプロダクション,,株式会社,三重県,津市,安濃町清水７５６番地１３０,,24,201,5142305,,,,,,,2025-03-05,1,,,,,エムエムプロダクション,0
2206,8200001043458,新規,0,2025-03-05,2025-03-05,株式会社エフィカシー,,株式会社,岐阜県,中津川市,瀬戸１５３３番地の２,,21,206,5080111,,,,,,,2025-03-05,1,,,,,エフィカシー,0
2210,8210001020084,新規,0,2025-03-05,2025-03-05,Ｓｏｕｂｉｓ株式会社,,株式会社,福井県,福井市,西方１丁目６番９号,,18,201,9100855,,,,,,,2025-03-05,1,,,,,ソウビス,0
2212,8230001020776,新規,0,2025-03-05,2025-03-05,株式会社三六,,株式会社,富山県,富山市,婦中町河原町４５２番地１,,16,201,9392605,,,,,,,2025-03-05,1,,,,,サブロク,0
2213,8230003002384,新規,0,2025-03-05,2025-03-05,合同会社ＦＯＲＣＥＰＩＣＥ富山,,合同会社,富山県,富山市,新桜町５番５号,,16,201,9300005,,,,,,,2025-03-05,1,,,,,フォースパイストヤマ,0
2215,8240001064590,新規,0,2025-03-05,2025-03-05,株式会社ＡＳＵＫＡ美装,,株式会社,広島県,東広島市,黒瀬町楢原９５１番地日本マーツ第２－２０３号,,34,212,7392613,,,,,,,2025-03-05,1,,,,,アスカビソウ,0
2216,8240001064608,新規,0,2025-03-05,2025-03-05,株式会社ＬＹＪ,,株式会社,広島県,広島市中区,東白島町１５番４号１Ｆ,,34,101,7300004,,,,,,,2025-03-05,1,,,,,エルワイジェイ,0
2219,8240003007093,新規,0,2025-03-05,2025-03-05,合同会社ソーダクルー,,合同会社,広島県,広島市安佐南区,西原４丁目３４－２９ｐａｄｄｙＩＩＩ２０１,00138202,34,105,7310113,,,,,,,2025-03-05,1,,,,,ソーダクルー,0
2222,8260001039962,新規,0,2025-03-05,2025-03-05,株式会社Ｒｅ＆Ｃｏ,,株式会社,岡山県,岡山市北区,久米３４７番地１,,33,101,7010144,,,,,,,2025-03-05,1,,,,,レコ,0
2223,8260001039970,新規,0,2025-03-05,2025-03-05,ＢＳファインコミュニケーションズ株式会社,,株式会社,岡山県,津山市,野介代１６５０番地１,,33,203,7080821,,,,,,,2025-03-05,1,,,,,ビーエスファインコミュニケーションズ,0
2231,8290001109085,新規,0,2025-03-05,2025-03-05,株式会社ＦＭ,,株式会社,福岡県,嘉麻市,上山田８６番地の１２１,,40,227,8210012,,,,,,,2025-03-05,1,,,,,エフエム,0
2232,8290001109168,新規,0,2025-03-05,2025-03-05,株式会社セーブ・プラス,,株式会社,福岡県,筑紫野市,原田３丁目２０番地１２,,40,217,8180024,,,,,,,2025-03-05,1,,,,,セーブプラス,0
2233,8290001109218,新規,0,2025-03-05,2025-03-05,信和株式会社,,株式会社,福岡県,福岡市南区,長丘５丁目２４番５－２号,,40,134,8150075,,,,,,,2025-03-05,1,,,,,シンワ,0
2235,8290003016486,新規,0,2025-03-05,2025-03-05,プレラブドショップ合同会社,,合同会社,福岡県,太宰府市,通古賀１丁目３番１３号,,40,221,8180104,,,,,,,2025-03-05,1,,,,,プレラブドショップ,0
2241,8290801031331,新規,0,2025-03-05,2025-03-05,株式会社池上自動車,,株式会社,福岡県,北九州市門司区,吉志３丁目１番２－２号,,40,101,8000114,,,,,,,2025-03-05,1,,,,,イケガミジドウシャ,0
2242,8290803004979,新規,0,2025-03-05,2025-03-05,合同会社フロンティアテック,,合同会社,福岡県,北九州市小倉北区,片野４丁目６番２８－２０５号,,40,106,8020064,,,,,,,2025-03-05,1,,,,,フロンティアテック,0
2244,8300001014102,新規,0,2025-03-05,2025-03-05,中川組株式会社,,株式会社,佐賀県,三養基郡みやき町,大字中津隈２４１７番地１,,41,346,8490114,,,,,,,2025-03-05,1,,,,,ナカガワグミ,0
2245,8300001014110,新規,0,2025-03-05,2025-03-05,株式会社ゆびとま,,株式会社,佐賀県,唐津市,千代田町２１０９－６７,,41,202,8470041,,,,,,,2025-03-05,1,,,,,ユビトマ,0
2246,8300003002237,新規,0,2025-03-05,2025-03-05,合同会社丸田屋,,合同会社,佐賀県,神埼市,神埼町神埼１０５番地４,,41,210,8420001,,,,,,,2025-03-05,1,,,,,マルタヤ,0
2252,8330003010864,新規,0,2025-03-05,2025-03-05,合同会社藤田計算センター,,合同会社,熊本県,熊本市東区,戸島西１丁目２８番１５号,,43,102,8618043,,,,,,,2025-03-05,1,,,,,フジタケイサンセンター,0
2253,8340003004766,新規,0,2025-03-05,2025-03-05,合同会社ＹＤ,,合同会社,鹿児島県,鹿児島市,与次郎１丁目１０番１号,,46,201,8900062,,,,,,,2025-03-05,1,,,,,ワイディー,0
2254,8350001019419,新規,0,2025-03-05,2025-03-05,株式会社ＭＩＫＡＤＥＮ,,株式会社,宮崎県,都城市,鷹尾１丁目１２街区１５の１号,,45,202,8850081,,,,,,,2025-03-05,1,,,,,ミカデン,0
2259,8360001034821,新規,0,2025-03-05,2025-03-05,株式会社海と空と育むラボ,,株式会社,沖縄県,那覇市,銘苅１丁目１９番３３号（リンクライフ株式会社内）,,47,201,9000004,,,,,,,2025-03-05,1,,,,,ウミトソラトハグクムラボ,0
2260,8360001034870,新規,0,2025-03-05,2025-03-05,株式会社ＯＮＥ,,株式会社,沖縄県,石垣市,字桴海２９９番地３８,,47,207,9070451,,,,,,,2025-03-05,1,,,,,ワン,0
2262,8360003014730,新規,0,2025-03-05,2025-03-05,琉久商事合同会社,,合同会社,沖縄県,那覇市,字天久１１８８番地５サン・ミッシェル３０３,,47,201,9000005,,,,,,,2025-03-05,1,,,,,リュウクショウジ,0
2265,8380001035108,新規,0,2025-03-05,2025-03-05,クラウドミージャパン株式会社,,株式会社,福島県,岩瀬郡鏡石町,不時沼９６番地,,07,342,9690401,,,,,,,2025-03-05,1,,,,,クラウドミージャパン,0
2266,8380001035124,新規,0,2025-03-05,2025-03-05,アストラホールディングス株式会社,,株式会社,福島県,福島市,飯坂町平野字平田４番地の１,,07,201,9600231,,,,,,,2025-03-05,1,,,,,アストラホールディングス,0
2268,8390001017897,新規,0,2025-03-05,2025-03-05,株式会社Ａ　ＤＡＹ,,株式会社,山形県,鶴岡市,東原町１７番１７号,,06,203,9970801,,,,,,,2025-03-05,1,,,,,アデイ,0
2269,8390001017906,新規,0,2025-03-05,2025-03-05,株式会社アドバンス,,株式会社,山形県,新庄市,金沢１６１２番地２６,,06,205,9960002,,,,,,,2025-03-05,1,,,,,アドバンス,0
2275,8430001093793,新規,0,2025-03-05,2025-03-05,株式会社プライド室蘭,,株式会社,北海道,室蘭市,中島本町１丁目４番４号,,01,205,0500075,,,,,,,2025-03-05,1,,,,,プライドムロラン,0
2276,8430001093802,新規,0,2025-03-05,2025-03-05,ＴＲＵＳＴ　ＦＡＭＩＬＩＡＲ株式会社,,株式会社,北海道,札幌市豊平区,西岡二条１丁目８番３３号,,01,105,0620032,,,,,,,2025-03-05,1,,,,,トラストファミリア,0
2277,8430001093810,新規,0,2025-03-05,2025-03-05,株式会社ＧＴＮ札幌,,株式会社,北海道,札幌市厚別区,厚別東一条３丁目２番２号,,01,108,0040001,,,,,,,2025-03-05,1,,,,,ジーティーエヌサッポロ,0
2278,8430001093827,新規,0,2025-03-05,2025-03-05,株式会社ふかざわ不動産,,株式会社,北海道,札幌市白石区,本郷通４丁目北７番１５号,,01,104,0030025,,,,,,,2025-03-05,1,,,,,フカザワフドウサン,0
2285,8450003002610,新規,0,2025-03-05,2025-03-05,合同会社柊,,合同会社,北海道,旭川市,東鷹栖四条２丁目６３６番地の２０４,,01,204,0718104,,,,,,,2025-03-05,1,,,,,ヒイラギ,0
2287,8470001020604,新規,0,2025-03-05,2025-03-05,株式会社ｉｈａｔｏｖ,,株式会社,香川県,高松市,多肥上町１４５６番地１,,37,201,7618076,,,,,,,2025-03-05,1,,,,,イーハトーブ,0
2290,8480001012765,新規,0,2025-03-05,2025-03-05,株式会社ｉＴｃａｍｐａｌ,,株式会社,徳島県,徳島市,大原町東千代ケ丸１９番地１４８,,36,201,7708012,,,,,,,2025-03-05,1,,,,,アイティーキャンパル,0
2292,8500003003446,新規,0,2025-03-05,2025-03-05,ビーナスマリン合同会社,,合同会社,愛媛県,今治市,東村５丁目６番２７号,,38,202,7991506,,,,,,,2025-03-05,1,,,,,ビーナスマリン,0
2294,8700150129437,新規,0,2025-03-05,2025-03-04,高根町水道組合,,その他,山梨県,北杜市,高根町村山西割４８０－１,,19,209,4080018,,,,,,,2025-03-04,1,,,,,タカネチヨウスイドウクミアイ,0
2300,9010001252754,新規,0,2025-03-05,2025-03-05,株式会社くくりんく,,株式会社,東京都,千代田区,神田須田町１丁目７番地８ＶＯＲＴ秋葉原ＩＶ２階,00138212,13,101,1010041,,,,,,,2025-03-05,1,,,,,ククリンク,0
2301,9010001252779,新規,0,2025-03-05,2025-03-05,株式会社インザスペース,,株式会社,東京都,中央区,銀座１丁目１２－４Ｎ＆Ｅ－ＢＬＤ．７階,,13,102,1040061,,,,,,,2025-03-05,1,,,,,インザスペース,0
2307,9010005039669,新規,0,2025-03-05,2025-03-05,一般社団法人ＦＵＮＡＤＥ,,その他の設立登記法人,東京都,中央区,京橋２丁目１２番６号ＡＯＪ税理士法人内,,13,102,1040031,,,,,,,2025-03-05,1,,,,,フナデ,0
2310,9010401188607,新規,0,2025-03-05,2025-03-05,株式会社ＮＡＣＭＯＢ,,株式会社,東京都,港区,赤坂９丁目６番３９号,,13,103,1070052,,,,,,,2025-03-05,1,,,,,ナックモブ,0
2311,9010403034494,新規,0,2025-03-05,2025-03-05,合同会社ウェルネスラボ,,合同会社,東京都,港区,白金１丁目２５番３１号３０２,,13,103,1080072,,,,,,,2025-03-05,1,,,,,ウェルネスラボ,0
2312,9010403034528,新規,0,2025-03-05,2025-03-05,合同会社ＭＹ　ＭＥＤＩＣＡＬ,,合同会社,東京都,港区,西新橋１丁目７番５号,,13,103,1050003,,,,,,,2025-03-05,1,,,,,マイメディカル,0
2314,9010405024122,新規,0,2025-03-05,2025-03-05,一般財団法人国際経済振興協会,,その他の設立登記法人,東京都,港区,新橋５丁目２５番４号,,13,103,1050004,,,,,,,2025-03-05,1,,,,,コクサイケイザイシンコウキョウカイ,0
2320,9010601066876,新規,0,2025-03-05,2025-03-05,株式会社切子や,,株式会社,東京都,江東区,大島７丁目３０番１６号,,13,108,1360072,,,,,,,2025-03-05,1,,,,,キリコヤ,0
2321,9010601066901,新規,0,2025-03-05,2025-03-05,株式会社日本家財,,株式会社,東京都,墨田区,東駒形２丁目８番７号,,13,107,1300005,,,,,,,2025-03-05,1,,,,,ニホンカザイ,0
2326,9010803005302,新規,0,2025-03-05,2025-03-05,Ａｇｉｌｅ　Ｌｅａｎ　Ｓｔｙｌｅ合同会社,,合同会社,東京都,大田区,上池台１丁目３４－２５グランジュテ長原２０１号室,,13,111,1450064,,,,,,,2025-03-05,1,,,,,アジャイルリーンスタイル,0
2327,9010901056882,新規,0,2025-03-05,2025-03-05,エアシー株式会社,,株式会社,東京都,世田谷区,代田３丁目５０番３号,,13,112,1550033,,,,,,,2025-03-05,1,,,,,エアシー,0
2335,9011001168107,新規,0,2025-03-05,2025-03-05,株式会社シトラスカンパニー,,株式会社,東京都,渋谷区,道玄坂１丁目１０番８号渋谷道玄坂東急ビル２Ｆ－Ｃ,,13,113,1500043,,,,,,,2025-03-05,1,,,,,シトラスカンパニー,0
2336,9011001168156,新規,0,2025-03-05,2025-03-05,株式会社Ｕｎｓｅｔｔｅ,,株式会社,東京都,渋谷区,恵比寿１丁目３４番１１－１００８号,,13,113,1500013,,,,,,,2025-03-05,1,,,,,アンセッテ,0
2342,9011101110827,新規,0,2025-03-05,2025-03-05,株式会社Ｍｏｍｅｎｔｕｍ　Ｂｉｏ,,株式会社,東京都,新宿区,新宿４丁目３番２０号,,13,104,1600022,,,,,,,2025-03-05,1,,,,,モメンタムバイオ,0
2343,9011101110835,新規,0,2025-03-05,2025-03-05,株式会社インフラワン,,株式会社,東京都,新宿区,新宿１丁目３４番１１－８０２号,,13,104,1600022,,,,,,,2025-03-05,1,,,,,インフラワン,0
2344,9011101110843,新規,0,2025-03-05,2025-03-05,株式会社Ｋ．Ｔ．コーポレーション,,株式会社,東京都,新宿区,新宿５丁目６番１２号ＭＦ新宿ビル４Ｆ,,13,104,1600022,,,,,,,2025-03-05,1,,,,,ケイティーコーポレーション,0
2345,9011103015603,新規,0,2025-03-05,2025-03-05,合同会社Ｅｘ８,,合同会社,東京都,新宿区,百人町２丁目１番１８号ヴァンコートＩＩ２０３,00138208,13,104,1690073,,,,,,,2025-03-05,1,,,,,エクスエイト,0
2346,9011103015611,新規,0,2025-03-05,2025-03-05,ウドニーク合同会社,,合同会社,東京都,新宿区,新宿５丁目１１－３０新宿第五葉山ビル５階,,13,104,1600022,,,,,,,2025-03-05,1,,,,,ウドニーク,0
2349,9011403004636,新規,0,2025-03-05,2025-03-05,ＡｓｏＴＡＫＡ合同会社,,合同会社,東京都,板橋区,本町２９番１１－９０３号,,13,119,1730001,,,,,,,2025-03-05,1,,,,,アソタカ,0
2354,9011805003434,新規,0,2025-03-05,2025-03-05,医療法人社団潤華会,,その他の設立登記法人,東京都,葛飾区,東金町１丁目２２番１０号ニューニチベイビル３階,,13,122,1250041,,,,,,,2025-03-05,1,,,,,ジュンカカイ,0
2356,9012303002119,新規,0,2025-03-05,2025-03-05,合同会社ダイカン,,合同会社,東京都,町田市,成瀬が丘３丁目１４番２号,,13,209,1940011,,,,,,,2025-03-05,1,,,,,ダイカン,0
2357,9012401042818,新規,0,2025-03-05,2025-03-05,株式会社きさらぎ,,株式会社,東京都,府中市,幸町２丁目１０番地の２７,,13,206,1830054,,,,,,,2025-03-05,1,,,,,キサラギ,0
2358,9012401042842,新規,0,2025-03-05,2025-03-05,タクラス株式会社,,株式会社,東京都,武蔵野市,西久保２丁目２番１４号３階,,13,203,1800013,,,,,,,2025-03-05,1,,,,,タクラス,0
2365,9020001161467,新規,0,2025-03-05,2025-03-05,株式会社Ｂｅｌｉｌｅ,,株式会社,神奈川県,横浜市瀬谷区,相沢６丁目６－３,,14,114,2460013,,,,,,,2025-03-05,1,,,,,ベリール,0
2366,9020001161665,新規,0,2025-03-05,2025-03-05,株式会社Ｄｅｅｐｔｈｉｎｋ　Ｆｕｔｕｒｅ,,株式会社,神奈川県,横浜市西区,浅間町１丁目４番３号ウィザードビル４０２,,14,103,2200072,,,,,,,2025-03-05,1,,,,,ディープシンクフューチャー,0
2369,9020003027988,新規,0,2025-03-05,2025-03-05,合同会社Ｓ．Ｆ制作所,,合同会社,神奈川県,川崎市中原区,井田中ノ町１５番５２号,,14,133,2110034,,,,,,,2025-03-05,1,,,,,エスエフセイサクショ,0
2372,9021001084600,新規,0,2025-03-05,2025-03-05,ノヴァテックシステム株式会社,,株式会社,神奈川県,秦野市,西田原３６２番地,,14,211,2570027,,,,,,,2025-03-05,1,,,,,ノヴァテックシステム,0
2377,9030001003148,新規,0,2025-03-05,2025-03-05,三高商事株式会社,,株式会社,北海道,札幌市南区,澄川四条５丁目５番２０号,,01,106,0050004,,,,,,,2025-03-05,1,,,,,ミタカショウジ,0
2384,9030001165112,新規,0,2025-03-05,2025-03-05,株式会社Ｈ．Ｉ．Ｔ,,株式会社,埼玉県,春日部市,小渕１３４２番地１３,,11,214,3440007,,,,,,,2025-03-05,1,,,,,エイチアイティー,0
2385,9030001165137,新規,0,2025-03-05,2025-03-05,フュージョンガレージ株式会社,,株式会社,埼玉県,羽生市,大字今泉１９６３番地１,,11,216,3480017,,,,,,,2025-03-05,1,,,,,フュージョンガレージ,0
2386,9030001165161,新規,0,2025-03-05,2025-03-05,株式会社レインボー,,株式会社,埼玉県,越谷市,宮本町５丁目１２２番１号司コーポ２０１,,11,222,3430806,,,,,,,2025-03-05,1,,,,,レインボー,0
2387,9030001165178,新規,0,2025-03-05,2025-03-05,ＣＬＡＳ株式会社,,株式会社,埼玉県,鶴ヶ島市,大字脚折１５３１－１８,,11,241,3502213,,,,,,,2025-03-05,1,,,,,クラス,0
2388,9030001165236,新規,0,2025-03-05,2025-03-05,株式会社ライフレジェンド,,株式会社,埼玉県,上尾市,大字上野１０４番地５号,,11,219,3620058,,,,,,,2025-03-05,1,,,,,ライフレジェンド,0
2389,9030001165252,新規,0,2025-03-05,2025-03-05,株式会社ミライゴト,,株式会社,埼玉県,草加市,松江１丁目２４番３－１０３号,,11,221,3400013,,,,,,,2025-03-05,1,,,,,ミライゴト,0
2390,9030001165260,新規,0,2025-03-05,2025-03-05,株式会社篠崎建創,00138211,株式会社,埼玉県,富士見市,ふじみ野西４丁目１２－４エトワール１０１,,11,235,3540035,,,,,,,2025-03-05,1,,,,,シノザキケンソウ,0
2391,9030001165269,新規,0,2025-03-05,2025-03-05,株式会社ＲＡＴＨＩＮＡＭ,,株式会社,埼玉県,熊谷市,本石２丁目１５７番地８,,11,202,3600815,,,,,,,2025-03-05,1,,,,,ラティーナム,0
2395,9030003026246,新規,0,2025-03-05,2025-03-05,合同会社ＹＧＳコーポレーション,,合同会社,埼玉県,さいたま市岩槻区,西町５丁目２番３９号２０１,,11,110,3390067,,,,,,,2025-03-05,1,,,,,ワイジーエスコーポレーション,0
2396,9030003026270,新規,0,2025-03-05,2025-03-05,上川合同会社,,合同会社,埼玉県,戸田市,喜沢１丁目４３－１１ソレーユ西川口１０２号室,,11,224,3350013,,,,,,,2025-03-05,1,,,,,カミカワ,0
2399,9040001137572,新規,0,2025-03-05,2025-03-05,株式会社ｇｏｘｅｎ,,株式会社,千葉県,千葉市中央区,富士見２丁目７番９号富士見ビル６０９号,,12,101,2600015,,,,,,,2025-03-05,1,,,,,ゴエン,0
2400,9040001137614,新規,0,2025-03-05,2025-03-05,株式会社ＳＡＸＳＩＡ,,株式会社,千葉県,千葉市中央区,富士見２丁目１７番１０号,,12,101,2600015,,,,,,,2025-03-05,1,,,,,サクシア,0
2401,9040001137713,新規,0,2025-03-05,2025-03-05,株式会社白圭社,,株式会社,千葉県,流山市,鰭ケ崎１０３４番１号グリーンハイツ流山１１０４,,12,220,2700161,,,,,,,2025-03-05,1,,,,,ハクケイシャ,0
2402,9040003027020,新規,0,2025-03-05,2025-03-05,合同会社ＣＯＮＮＥ,,合同会社,千葉県,千葉市若葉区,桜木１丁目２３番１号,,12,104,2640028,,,,,,,2025-03-05,1,,,,,コンネ,0
2404,9050001056284,新規,0,2025-03-05,2025-03-05,株式会社中寧商事,,株式会社,茨城県,稲敷市,高田３６８８－１,,08,229,3000511,,,,,,,2025-03-05,1,,,,,ナカネイショウジ,0
2415,9080101025343,新規,0,2025-03-05,2025-03-05,アオイホールディングス株式会社,,株式会社,静岡県,三島市,三ツ谷新田２９４番地,,22,206,4110013,,,,,,,2025-03-05,1,,,,,アオイホールディングス,0
2416,9080103003264,新規,0,2025-03-05,2025-03-05,合同会社小松配管,,合同会社,静岡県,熱海市,伊豆山４２１番地の１,,22,205,4130002,,,,,,,2025-03-05,1,,,,,コマツハイカン,0
2417,9080401027782,新規,0,2025-03-05,2025-03-05,ｍｉｅｕｘ株式会社,,株式会社,静岡県,掛川市,宮脇１１４２番地の９,,22,213,4360086,,,,,,,2025-03-05,1,,,,,ミュウ,0
2420,9080403005217,新規,0,2025-03-05,2025-03-05,合同会社Ｃｏｚｙｐｌａｃｅ,,合同会社,静岡県,浜松市中央区,富塚町１９３３番地の１佐鳴湖パークタウンサウス２Ｇ１,,22,138,4328002,,,,,,,2025-03-05,1,,,,,コージープレース,0
2425,9110001039084,新規,0,2025-03-05,2025-03-05,株式会社リバーワークス,,株式会社,新潟県,刈羽郡刈羽村,大字西谷１３４６番地,,15,504,9450312,,,,,,,2025-03-05,1,,,,,リバーワークス,0
2436,9120001273376,新規,0,2025-03-05,2025-03-05,栄興株式会社,,株式会社,大阪府,大阪市住吉区,万代６丁目１２番１０号,,27,120,5580055,,,,,,,2025-03-05,1,,,,,エイキョウ,0
2437,9120001273459,新規,0,2025-03-05,2025-03-05,株式会社クイックオン,,株式会社,大阪府,大阪市北区,梅田１丁目２番２号大阪駅前第２ビル１２－１２,,27,127,5300001,,,,,,,2025-03-05,1,,,,,クイックオン,0
2442,9120101071168,新規,0,2025-03-05,2025-03-05,株式会社ワンエイティ,,株式会社,大阪府,松原市,田井城４丁目３８－１５,,27,217,5800044,,,,,,,2025-03-05,1,,,,,ワンエイティ,0
2455,9130001079095,新規,0,2025-03-05,2025-03-05,株式会社丸瑛,,株式会社,京都府,京都市伏見区,小栗栖森本町２０番１２８,,26,109,6011462,,,,,,,2025-03-05,1,,,,,マルエイ,0
2459,9140001137562,新規,0,2025-03-05,2025-03-05,株式会社ＳＴＥＡＤＹ,,株式会社,兵庫県,神戸市中央区,海岸通６丁目１－１３神戸ハーバータワー７１０号,,28,110,6500024,,,,,,,2025-03-05,1,,,,,ステディ,0
2460,9140001137587,新規,0,2025-03-05,2025-03-05,株式会社ＴＣＭＡ　Ｐｏｗｅｒ,,株式会社,兵庫県,川西市,火打１丁目１４番１１－２０３号,,28,217,6660017,,,,,,,2025-03-05,1,,,,,ティーシーエムエーパワー,0
2461,9140001137612,新規,0,2025-03-05,2025-03-05,株式会社Ｓｐｒｉｎｇｓ,,株式会社,兵庫県,神戸市東灘区,森南町１丁目１６番１５号,,28,101,6580011,,,,,,,2025-03-05,1,,,,,スプリングス,0
2462,9140001137620,新規,0,2025-03-05,2025-03-05,株式会社ヒカリ,,株式会社,兵庫県,神戸市兵庫区,西上橘通１丁目２番１７－１０２号室,,28,105,6520033,,,,,,,2025-03-05,1,,,,,ヒカリ,0
2463,9140001137629,新規,0,2025-03-05,2025-03-05,株式会社ＷＩＬＬ,,株式会社,兵庫県,明石市,西明石南町１丁目６番１６号,,28,203,6730041,,,,,,,2025-03-05,1,,,,,ウィル,0
2468,9170001018520,新規,0,2025-03-05,2025-03-05,株式会社三谷組,,株式会社,和歌山県,有田市,宮崎町２６８番地３,,30,204,6490316,,,,,,,2025-03-05,1,,,,,ミタニグミ,0
2470,9180001165667,新規,0,2025-03-05,2025-03-05,株式会社Ｍフーズ,,株式会社,愛知県,名古屋市守山区,大屋敷３番１０号,,23,113,4630016,,,,,,,2025-03-05,1,,,,,エムフーズ,0
2471,9180001165683,新規,0,2025-03-05,2025-03-05,ユーサイド株式会社,,株式会社,愛知県,名古屋市南区,豊４丁目２２番１０号（コンセール堀田南４０１号）,,23,112,4570863,,,,,,,2025-03-05,1,,,,,ユーサイド,0
2472,9180001165700,新規,0,2025-03-05,2025-03-05,株式会社達也,,株式会社,愛知県,名古屋市中区,丸の内２丁目１５番１２号,,23,106,4600002,,,,,,,2025-03-05,1,,,,,タツヤ,0
2473,9180001165709,新規,0,2025-03-05,2025-03-05,株式会社三和プロト,,株式会社,愛知県,豊明市,栄町三ツ池下６番地の３,,23,229,4701161,,,,,,,2025-03-05,1,,,,,サンワプロト,0
2474,9180001165717,新規,0,2025-03-05,2025-03-05,株式会社ＬＯＶＥＲＡ,,株式会社,愛知県,一宮市,猿海道１丁目４番５号ファーブルハイム２０３号,,23,203,4910838,,,,,,,2025-03-05,1,,,,,ロヴェラ,0
2482,9180301039587,新規,0,2025-03-05,2025-03-05,株式会社Ｅ‐ｆａｌｃｏｎ　ｅｘｐｒｅｓｓ,,株式会社,愛知県,岡崎市,欠町字足延１９番地２,,23,202,4440011,,,,,,,2025-03-05,1,,,,,イーファルコンエクスプレス,0
2486,9190001032049,新規,0,2025-03-05,2025-03-05,株式会社ＴＲＫ,,株式会社,三重県,津市,半田３４３８番地７０,,24,201,5140823,,,,,,,2025-03-05,1,,,,,ティーアールケイ,0
2487,9190005012022,新規,0,2025-03-05,2025-03-05,一般社団法人ツートライ,,その他の設立登記法人,三重県,津市,久居新町２０８６番地２号,,24,201,5141118,,,,,,,2025-03-05,1,,,,,ツートライ,0
2490,9200001043498,新規,0,2025-03-05,2025-03-05,株式会社山宗,,株式会社,岐阜県,高山市,山田町１５０番地,,21,203,5060058,,,,,,,2025-03-05,1,,,,,ヤマソウ,0
2498,9240001064598,新規,0,2025-03-05,2025-03-05,株式会社フルベジストック,,株式会社,広島県,広島市安芸区,船越南５丁目１番１号,,34,107,7360082,,,,,,,2025-03-05,1,,,,,フルベジストック,0
2499,9240003007092,新規,0,2025-03-05,2025-03-05,合同会社ＭＡＲＵＫＩＴＡ,,合同会社,広島県,広島市安佐南区,山本新町４丁目３２番１２号,,34,105,7310139,,,,,,,2025-03-05,1,,,,,マルキタ,0
2503,9260001039978,新規,0,2025-03-05,2025-03-05,株式会社テクニカルＥ,,株式会社,岡山県,岡山市南区,浦安南町８７－５,,33,104,7028024,,,,,,,2025-03-05,1,,,,,テクニカルイー,0
2504,9270005005629,新規,0,2025-03-05,2025-03-05,医療法人山根会,,その他の設立登記法人,鳥取県,鳥取市,東町３丁目２５８番地１,,31,201,6800011,,,,,,,2025-03-05,1,,,,,ヤマネカイ,0
2507,9290001109134,新規,0,2025-03-05,2025-03-05,株式会社Ｍｅｍｏｒｉｅｓ,,株式会社,福岡県,福岡市博多区,麦野６丁目１７番１２－１０３Ｎハイツ,,40,132,8120882,,,,,,,2025-03-05,1,,,,,メモリーズ,0
2508,9290001109150,新規,0,2025-03-05,2025-03-05,株式会社ビッグビレッジ,,株式会社,福岡県,三潴郡大木町,大字八町牟田４２２番地１,,40,522,8300416,,,,,,,2025-03-05,1,,,,,ビッグビレッジ,0
2509,9290001109183,新規,0,2025-03-05,2025-03-05,株式会社ハムスペース,,株式会社,福岡県,福岡市中央区,荒戸２丁目１－１－８０２,,40,133,8100062,,,,,,,2025-03-05,1,,,,,ハムスペース,0
2510,9290001109191,新規,0,2025-03-05,2025-03-05,株式会社ＺＥＮ,,株式会社,福岡県,福岡市中央区,赤坂２丁目５番４０号,,40,133,8100042,,,,,,,2025-03-05,1,,,,,ゼン,0
2512,9290003016485,新規,0,2025-03-05,2025-03-05,合同会社ＳＯＲＡ,,合同会社,福岡県,福岡市西区,今宿青木７８２－１１,,40,135,8190162,,,,,,,2025-03-05,1,,,,,ソラ,0
2522,9290803004978,新規,0,2025-03-05,2025-03-05,合同会社ＰＯＷＥＲ　ＷＩＮＧＳ,,合同会社,福岡県,北九州市門司区,大字畑８１－１,,40,101,8000112,,,,,,,2025-03-05,1,,,,,パワーウィングス,0
2524,9310001019487,新規,0,2025-03-05,2025-03-05,Ｃｏｌｌｅｃｔ　Ｈｏｕｓｅ株式会社,,株式会社,長崎県,諫早市,川内町１３６番地９,,42,204,8540037,,,,,,,2025-03-05,1,,,,,コレクトハウス,0
2527,9330001032934,新規,0,2025-03-05,2025-03-05,縁龍株式会社,,株式会社,熊本県,熊本市南区,合志３丁目２番１６号,,43,104,8614111,,,,,,,2025-03-05,1,,,,,エンリュウ,0
2528,9330001032950,新規,0,2025-03-05,2025-03-05,ＳＨＩＮＫＡ　ｒｅ株式会社,,株式会社,熊本県,合志市,竹迫２３０番地,,43,216,8611114,,,,,,,2025-03-05,1,,,,,シンカアールイー,0
2529,9330003010871,新規,0,2025-03-05,2025-03-05,ユイサンク合同会社,,合同会社,熊本県,熊本市北区,武蔵ケ丘６丁目６番７１号,,43,105,8618001,,,,,,,2025-03-05,1,,,,,ユイサンク,0
2530,9340001027165,新規,0,2025-03-05,2025-03-05,株式会社ＦＪオート,,株式会社,鹿児島県,霧島市,隼人町東郷１１２８－１,,46,218,8995115,,,,,,,2025-03-05,1,,,,,エフジェイオート,0
2533,9350001019418,新規,0,2025-03-05,2025-03-05,株式会社由地建設,,株式会社,宮崎県,北諸県郡三股町,稗田６番地１,,45,341,8891903,,,,,,,2025-03-05,1,,,,,ユジケンセツ,0
2534,9350003004855,新規,0,2025-03-05,2025-03-05,合同会社Ｔ‐Ｂａｔｔｅｒｙ１号,,合同会社,宮崎県,宮崎市,大字小松３１５２番地４,,45,201,8802112,,,,,,,2025-03-05,1,,,,,ティーバッテリーイチゴウ,0
2536,9360001034845,新規,0,2025-03-05,2025-03-05,株式会社ＴＥＣ７２,,株式会社,沖縄県,島尻郡八重瀬町,字宜次１２９－１－１Ｆ,,47,362,9010416,,,,,,,2025-03-05,1,,,,,テックナナニ,0
2539,9360003014738,新規,0,2025-03-05,2025-03-05,あめいじんぐ・ぐれいす合同会社,,合同会社,沖縄県,中頭郡読谷村,字波平２６４番地,,47,324,9040322,,,,,,,2025-03-05,1,,,,,アメイジンググレイス,0
2541,9370001052318,新規,0,2025-03-05,2025-03-05,株式会社英,,株式会社,宮城県,名取市,那智が丘５丁目５番地の１,,04,207,9811244,,,,,,,2025-03-05,1,,,,,ハナブサ,0
2542,9370003006965,新規,0,2025-03-05,2025-03-05,合同会社弋建,,合同会社,宮城県,仙台市泉区,南光台１丁目１２番１０号,,04,105,9818003,,,,,,,2025-03-05,1,,,,,トビケン,0
2548,9390001017896,新規,0,2025-03-05,2025-03-05,株式会社遊佐企画,,株式会社,山形県,飽海郡遊佐町,吉出字和田７６番地,,06,461,9998302,,,,,,,2025-03-05,1,,,,,ユザキカク,0
2550,9410001014081,新規,0,2025-03-05,2025-03-05,株式会社北裕防災電工,,株式会社,秋田県,由利本荘市,石脇字田尻野３２番地１３８,,05,210,0150013,,,,,,,2025-03-05,1,,,,,ホクユウボウサイデンコウ,0
2552,9430001093801,新規,0,2025-03-05,2025-03-05,株式会社ＴＯＥＮ,,株式会社,北海道,恵庭市,恵み野西１丁目８番地３,,01,231,0611373,,,,,,,2025-03-05,1,,,,,トーエン,0
2553,9430001093826,新規,0,2025-03-05,2025-03-05,株式会社ＹＭＴ,,株式会社,北海道,札幌市西区,山の手一条１２丁目１２番３号,,01,107,0630001,,,,,,,2025-03-05,1,,,,,ワイエムティー,0
2555,9430003017329,新規,0,2025-03-05,2025-03-05,合同会社ダイチ,,合同会社,北海道,岩見沢市,日の出町１３６番地６５,,01,210,0680825,,,,,,,2025-03-05,1,,,,,ダイチ,0
2556,9430003017337,新規,0,2025-03-05,2025-03-05,合同会社渡邊屋,,合同会社,北海道,札幌市西区,福井７丁目４番１６号,,01,107,0630012,,,,,,,2025-03-05,1,,,,,ワタナベヤ,0
2562,9480001012764,新規,0,2025-03-05,2025-03-05,株式会社９．ＣＩＲＣＵＳ,,株式会社,徳島県,徳島市,南矢三町１丁目７番３８号,,36,201,7700005,,,,,,,2025-03-05,1,,,,,ナインサーカス,0
2565,9500001026183,新規,0,2025-03-05,2025-03-05,株式会社ＨＡＮＡ,,株式会社,愛媛県,松山市,東方町甲１４８０番地５,,38,201,7911123,,,,,,,2025-03-05,1,,,,,ハナ,0
