sequenceNumber,corporateNumber,process,correct,updateDate,changeDate,name,nameImageId,kind,prefectureName,cityName,streetNumber,addressImageId,prefectureCode,cityCode,postCode,addressOutside,addressOutsideImageId,closeDate,closeCause,successorCorporateNumber,changeCause,assignmentDate,latest,enName,enPrefectureName,enCityName,enAddressOutside,furigana,hihyoji
5,1010001140446,登記記録の閉鎖等,0,2022-08-03,2022-08-02,株式会社Ｊ－ＳＨＡＬＯＭ,,株式会社,東京都,台東区,池之端４丁目３番５号,,13,106,1100008,,,2022-08-02,清算の結了等,,,2015-10-05,1,,,,,ジェイシャローム,0
9,1010001201306,登記記録の閉鎖等,0,2022-08-03,2022-07-14,ＳＵＮＣＩＴＹ　ＩＲ　ＪＡＰＡＮ株式会社,,株式会社,東京都,千代田区,永田町２丁目１４番３号,,13,101,1000014,,,2022-07-14,清算の結了等,,,2019-06-05,1,,,,,サンシティアイアールジャパン,0
13,1010003031791,登記記録の閉鎖等,0,2022-08-03,2022-07-14,アルファ合同会社,,合同会社,東京都,千代田区,九段南２丁目２番１号,,13,101,1020074,,,2022-07-14,清算の結了等,,,2020-03-06,1,,,,,アルファ,0
91,1013303005317,登記記録の閉鎖等,0,2022-08-03,2022-07-29,合同会社ゴールドシップ,,合同会社,東京都,豊島区,池袋本町１丁目７番１２－９０２号,,13,116,1700011,,,2022-07-29,清算の結了等,,,2020-09-18,1,,,,,ゴールドシップ,0
136,1050005010294,登記記録の閉鎖等,0,2022-08-03,2022-07-28,農事組合法人いばらき農事組合,,その他の設立登記法人,茨城県,桜川市,明日香２丁目５番地,,08,231,3091216,,,2022-07-28,清算の結了等,,,2015-10-05,1,,,,,イバラキノウジクミアイ,0
147,1080403004102,登記記録の閉鎖等,0,2022-08-03,2022-07-19,合同会社ねむねむ,,合同会社,静岡県,浜松市中区,鴨江２丁目１０番８号,,22,131,4328023,,,2022-07-19,合併による解散等,2180303003779,令和４年７月１１日名古屋市昭和区山脇町四丁目４２番地合同会社まるほん（2180303003779）に合併し解散,2020-09-04,1,,,,,ネムネム,0
149,1110001007338,登記記録の閉鎖等,0,2022-08-03,2022-07-29,新潟県パン工業株式会社,,株式会社,新潟県,新潟市秋葉区,新津東町３丁目８番２７号,,15,105,9560816,,,2022-07-29,清算の結了等,,,2015-10-05,1,,,,,ニイガタケンパンコウギョウ,0
150,1110001014994,登記記録の閉鎖等,0,2022-08-03,2022-07-29,株式会社丸福,,株式会社,新潟県,三条市,猪子場新田８９番地２２,,15,204,9591151,,,2022-07-29,清算の結了等,,,2015-10-05,1,,,,,,0
166,1120001176116,登記記録の閉鎖等,0,2022-08-03,2022-08-02,株式会社ＴＥＮＫＵ,,株式会社,大阪府,大阪市中央区,西心斎橋１丁目１２番１１－９０７号,,27,128,5420086,,,2022-08-02,清算の結了等,,,2015-10-05,1,,,,,テンクー,0
171,1120002017962,登記記録の閉鎖等,0,2022-08-03,2022-08-01,有限会社はるみ荘,,有限会社,大阪府,大阪市住吉区,墨江１丁目９番６号,,27,120,5580043,,,2022-08-01,清算の結了等,,,2015-10-05,1,,,,,ハルミソウ,0
205,1140002057081,登記記録の閉鎖等,0,2022-08-03,2022-07-29,有限会社田坂タイル店,,有限会社,兵庫県,西宮市,市庭町７番１７号,,28,204,6620975,,,2022-07-29,清算の結了等,,,2015-10-05,1,,,,,タサカタイルテン,0
207,1140005004774,登記記録の閉鎖等,0,2022-08-03,2022-08-01,特定非営利活動法人ふくろう,,その他の設立登記法人,兵庫県,神戸市中央区,山本通２丁目９番１５号,,28,110,6500003,,,2022-08-01,清算の結了等,,,2015-10-05,1,,,,,フクロウ,0
212,1150001016797,登記記録の閉鎖等,0,2022-08-03,2022-08-01,ＯＴＳ株式会社,,株式会社,奈良県,奈良市,北之庄西町１丁目７番１４号,,29,201,6308452,,,2022-08-01,清算の結了等,,,2015-10-05,1,,,,,オーティーエス,0
213,1150001020873,登記記録の閉鎖等,0,2022-08-03,2022-08-01,株式会社Ｆ＆Ｆ,,株式会社,奈良県,葛城市,新村１１７番地２,,29,211,6392121,,,2022-08-01,清算の結了等,,,2016-07-25,1,,,,,エフアンドエフ,0
221,1180001006985,登記記録の閉鎖等,0,2022-08-03,2022-08-01,株式会社東洋マシン,,株式会社,愛知県,名古屋市中村区,横井１丁目２３３番地,,23,105,4530866,,,2022-08-01,清算の結了等,,,2015-10-05,1,,,,,トウヨウマシン,0
228,1180001131032,登記記録の閉鎖等,0,2022-08-03,2022-08-01,ＡＩテクノロジー株式会社,,株式会社,愛知県,名古屋市東区,古出来２丁目１０番５号,,23,102,4610049,,,2022-08-01,清算の結了等,,,2018-02-02,1,,,,,エーアイテクノロジー,0
235,1190002015043,登記記録の閉鎖等,0,2022-08-03,2022-07-27,有限会社渡邉ブロイラー,,有限会社,三重県,多気郡明和町,大字池村４５５番地の１,,24,442,5150317,,,2022-07-27,清算の結了等,,,2015-10-05,1,,,,,ワタナベブロイラー,0
237,1200001029868,登記記録の閉鎖等,0,2022-08-03,2022-08-01,株式会社かま濃,,株式会社,岐阜県,多治見市,金岡町５丁目１８番地,,21,204,5070016,,,2022-08-01,合併による解散等,2200002022912,令和４年８月１日岐阜県瑞浪市土岐町６０８２番地の１株式会社かま濃（2200002022912）に合併し解散,2015-10-05,1,,,,,カマノウ,0
244,1200002015504,登記記録の閉鎖等,0,2022-08-03,2022-08-01,有限会社竜飛ハンドリング,,有限会社,岐阜県,揖斐郡池田町,田畑７５５番地の８,,21,404,5032422,,,2022-08-01,清算の結了等,,,2015-10-05,1,,,,,タッピハンドリング,0
252,1200005004082,登記記録の閉鎖等,0,2022-08-03,2022-08-02,協同組合岐阜県観光物産センター,,その他の設立登記法人,岐阜県,大垣市,船町４丁目４８番地,,21,202,5030923,,,2022-08-02,清算の結了等,,,2015-10-05,1,,,,,ギフケンカンコウブッサンセンター,0
254,1210001008730,登記記録の閉鎖等,0,2022-08-03,2022-07-27,福井製材株式会社,,株式会社,福井県,福井市,川尻町第４０号１２６番地１,,18,201,9103136,,,2022-07-27,清算の結了等,,,2015-10-05,1,,,,,フクイセイザイ,0
255,1210001010050,登記記録の閉鎖等,0,2022-08-03,2022-07-29,株式会社セイワ,,株式会社,福井県,福井市,板垣１丁目１０１番地,,18,201,9188104,,,2022-07-29,清算の結了等,,,2015-10-05,1,,,,,セイワ,0
287,1310001013935,登記記録の閉鎖等,0,2022-08-03,2022-08-01,株式会社ＧＳＣ,,株式会社,長崎県,島原市,中町５４８番地１,,42,203,8550044,,,2022-08-01,合併による解散等,6310001013872,令和４年８月１日長崎県諫早市永昌町４番２６号１０階ジスコホテル株式会社（6310001013872）に合併し解散,2015-11-12,1,,,,,ジーエスシー,0
315,1390001000793,登記記録の閉鎖等,0,2022-08-03,2022-07-25,株式会社斎藤建装,,株式会社,山形県,山形市,南栄町１丁目１番１２号,,06,201,9902445,,,2022-07-25,清算の結了等,,,2015-10-05,1,,,,,,0
316,1390002012672,登記記録の閉鎖等,0,2022-08-03,2022-07-25,有限会社小野鉄工所,,有限会社,山形県,米沢市,中央１丁目１番８号,,06,202,9920045,,,2022-07-25,清算の結了等,,,2015-10-05,1,,,,,オノテッコウショ,0
318,1400001005642,登記記録の閉鎖等,0,2022-08-03,2022-08-01,株式会社花巻空港日産,,株式会社,岩手県,花巻市,石鳥谷町江曽第５地割５３番地３,,03,205,0283151,,,2022-08-01,合併による解散等,6400001000201,令和４年８月１日岩手県盛岡市大沢川原一丁目４番２０号岩手日産自動車株式会社（6400001000201）に合併し解散,2015-10-05,1,,,,,ハナマキクウコウニッサン,0
319,1400001006673,登記記録の閉鎖等,0,2022-08-03,2022-08-01,株式会社遠野日産,,株式会社,岩手県,遠野市,松崎町白岩１９地割４１番地１,,03,208,0280541,,,2022-08-01,合併による解散等,6400001000201,令和４年８月１日岩手県盛岡市大沢川原一丁目４番２０号岩手日産自動車株式会社（6400001000201）に合併し解散,2015-10-05,1,,,,,トオノニッサン,0
327,1420002005549,登記記録の閉鎖等,0,2022-08-03,2022-07-27,有限会社ポポロ,,有限会社,青森県,弘前市,大字南大町１丁目２番地２,,02,202,0368006,,,2022-07-27,清算の結了等,,,2015-10-05,1,,,,,ポポロ,0
335,1440001004772,登記記録の閉鎖等,0,2022-08-03,2022-07-28,北稜測地設計株式会社,,株式会社,北海道,函館市,中道２丁目４９番１１号,,01,202,0410853,,,2022-07-28,清算の結了等,,,2015-10-05,1,,,,,ホクリョウソクチセッケイ,0
378,2010501031937,登記記録の閉鎖等,0,2022-08-03,2022-08-01,株式会社インフィニティ,,株式会社,東京都,台東区,上野４丁目５番１１号丸徳ビルＢ１,,13,106,1100005,,,2022-08-01,清算の結了等,,,2015-10-05,1,,,,,インフィニティ,0
381,2010502020245,登記記録の閉鎖等,0,2022-08-03,2022-08-01,有限会社クサマ,,有限会社,東京都,台東区,小島１丁目１８番５号,,13,106,1110056,,,2022-08-01,清算の結了等,,,2015-10-05,1,,,,,クサマ,0
389,2010702009708,登記記録の閉鎖等,0,2022-08-03,2022-07-28,有限会社タイガーコンサルタンツ,,有限会社,東京都,品川区,豊町３丁目３番１－７０１号,,13,109,1420042,,,2022-07-28,清算の結了等,,,2015-10-05,1,,,,,タイガーコンサルタンツ,0
422,2013301005986,登記記録の閉鎖等,0,2022-08-03,2022-08-01,親和興業株式会社,,株式会社,東京都,豊島区,北大塚２丁目３４番１５号,,13,116,1700004,,,2022-08-01,清算の結了等,,,2015-10-05,1,,,,,シンワコウギョウ,0
428,2020001008526,登記記録の閉鎖等,0,2022-08-03,2022-07-22,株式会社ケーアイエー,,株式会社,神奈川県,横浜市都筑区,仲町台１丁目２番２８号ヨコハマパレス４０１号,,14,118,2240041,,,2022-07-22,清算の結了等,,,2015-10-05,1,,,,,ケーアイエー,0
429,2020001033532,登記記録の閉鎖等,0,2022-08-03,2022-07-26,株式会社ネクサス,,株式会社,東京都,中央区,日本橋本町４丁目８番１６号,,13,102,1030023,,,2022-07-26,合併による解散等,1013201000403,令和４年７月１日東京都品川区西五反田八丁目１番３号株式会社クレスコ・ジェイキューブ（1013201000403）に合併し解散,2015-10-05,1,,,,,ネクサス,0
454,2030002089449,登記記録の閉鎖等,0,2022-08-03,2022-07-21,有限会社河野鉄工建設,,有限会社,埼玉県,北葛飾郡松伏町,大字松伏３３９５番地,,11,465,3430111,,,2022-07-21,清算の結了等,,,2015-10-05,1,,,,,カワノテッコウケンセツ,0
461,2040001117952,登記記録の閉鎖等,0,2022-08-03,2022-07-25,株式会社光輝真,,株式会社,千葉県,茂原市,八千代１丁目９番地５,,12,210,2970024,,,2022-07-25,清算の結了等,,,2021-04-12,1,,,,,コウキシン,0
466,2040005002894,登記記録の閉鎖等,0,2022-08-03,2022-07-25,医療法人岫雲会,,その他の設立登記法人,千葉県,船橋市,宮本５丁目１０番１８号,,12,204,2730003,,,2022-07-25,清算の結了等,,,2015-10-05,1,,,,,シュウウンカイ,0
477,2060005007396,登記記録の閉鎖等,0,2022-08-03,2022-07-26,企業組合つつじ亭,,その他の設立登記法人,栃木県,矢板市,矢板１１４番地１,,09,211,3292165,,,2022-07-26,清算の結了等,,,2015-10-05,1,,,,,ツツジテイ,0
495,2110002010042,登記記録の閉鎖等,0,2022-08-03,2022-07-29,有限会社枝村工務店,,有限会社,新潟県,新潟市南区,新飯田２６１８番地１,,15,106,9501455,,,2022-07-29,清算の結了等,,,2015-10-05,1,,,,,エダムラコウムテン,0
516,2120901022855,登記記録の閉鎖等,0,2022-08-03,2022-08-01,稲村建設株式会社,,株式会社,大阪府,豊中市,服部西町３丁目１番６号,,27,203,5610858,,,2022-08-01,清算の結了等,,,2015-10-05,1,,,,,イナムラケンセツ,0
532,2140001035293,登記記録の閉鎖等,0,2022-08-03,2022-08-01,日扇フーヅ株式会社,,株式会社,兵庫県,明石市,二見町東二見１２８番地,,28,203,6740092,,,2022-08-01,清算の結了等,,,2015-10-05,1,,,,,ニッセンフーヅ,0
538,2150002008702,登記記録の閉鎖等,0,2022-08-03,2022-08-01,有限会社乾瓦店,,有限会社,奈良県,大和高田市,昭和町２番１－１１０号,,29,202,6350013,,,2022-08-01,清算の結了等,,,2015-10-05,1,,,,,イヌイカワラテン,0
543,2170001006861,登記記録の閉鎖等,0,2022-08-03,2022-08-01,株式会社エルシス,,株式会社,和歌山県,海南市,大野中７４６－２筈谷マンション１０３,,30,202,6420022,,,2022-08-01,清算の結了等,,,2015-10-05,1,,,,,エルシス,0
547,2180001136071,登記記録の閉鎖等,0,2022-08-03,2022-08-01,日本美装工業株式会社,,株式会社,大阪府,大阪市淀川区,西中島４丁目３番２１号ＮＬＣセントラルビル６階,,27,123,5320011,,,2022-08-01,清算の結了等,,,2019-04-09,1,,,,,ニホンビソウコウギョウ,0
554,2190002005530,登記記録の閉鎖等,0,2022-08-03,2022-07-28,有限会社豆屋ガラス,,有限会社,三重県,尾鷲市,坂場西町７番２０号,,24,209,5193666,,,2022-07-28,清算の結了等,,,2015-10-05,1,,,,,マメヤガラス,0
555,2200001004283,登記記録の閉鎖等,0,2022-08-03,2022-08-01,株式会社ハラセ,,株式会社,岐阜県,岐阜市,鹿島町３丁目１１番地高久ビル１階東号室,,21,201,5008323,,,2022-08-01,清算の結了等,,,2015-10-05,1,,,,,ハラセ,0
556,2200001015512,登記記録の閉鎖等,0,2022-08-03,2022-08-01,株式会社ヤマゲン,,株式会社,岐阜県,海津市,南濃町奥条字町裏２８９番地の１,,21,221,5030412,,,2022-08-01,清算の結了等,,,2015-10-05,1,,,,,ヤマゲン,0
567,2240001010922,登記記録の閉鎖等,0,2022-08-03,2022-08-01,株式会社マスヰ,,株式会社,広島県,広島市中区,橋本町４番５号,,34,101,7300015,,,2022-08-01,清算の結了等,,,2015-10-05,1,,,,,マスイ,0
583,2250002000987,登記記録の閉鎖等,0,2022-08-03,2022-07-29,有限会社中央技建,,有限会社,山口県,山口市,平井７１６番地の３,,35,203,7530831,,,2022-07-29,清算の結了等,,,2015-10-05,1,,,,,チュウオウギケン,0
601,2290002043751,登記記録の閉鎖等,0,2022-08-03,2022-07-22,有限会社永野工業,,有限会社,福岡県,朝倉郡筑前町,依井９１４番地,,40,447,8380813,,,2022-07-22,清算の結了等,,,2015-10-05,1,,,,,ナガノコウギョウ,0
612,2350002001942,登記記録の閉鎖等,0,2022-08-03,2022-07-29,有限会社サクセスタガミ宮崎,,有限会社,宮崎県,宮崎市,清水３丁目１０番１２号,,45,201,8800021,,,2022-07-29,清算の結了等,,,2015-10-05,1,,,,,サクセスタガミミヤザキ,0
627,2380002028660,登記記録の閉鎖等,0,2022-08-03,2022-07-27,有限会社相馬工芸,,有限会社,福島県,南相馬市,原町区上北高平字高松２７７番地の２,,07,212,9750027,,,2022-07-27,清算の結了等,,,2015-10-05,1,,,,,ソウマコウゲイ,0
629,2380005011713,登記記録の閉鎖等,0,2022-08-03,2022-07-25,特定非営利活動法人ワンニャンレスキュー,,その他の設立登記法人,福島県,南相馬市,鹿島区川子字内田３３番地,,07,212,9792324,,,2022-07-25,清算の結了等,,,2016-08-31,1,,,,,,0
636,2400501000530,登記記録の閉鎖等,0,2022-08-03,2022-08-01,株式会社千厩日産,00085448,株式会社,岩手県,一関市,千厩町千厩字舘山５番地の３,00085449,03,209,0290803,,,2022-08-01,合併による解散等,6400001000201,令和４年８月１日岩手県盛岡市大沢川原一丁目４番２０号岩手日産自動車株式会社（6400001000201）に合併し解散,2015-10-05,1,,,,,センマヤニッサン,0
639,2400601000356,登記記録の閉鎖等,0,2022-08-03,2022-08-01,株式会社水沢日産,,株式会社,岩手県,奥州市,水沢字多賀６番地２,,03,215,0230032,,,2022-08-01,合併による解散等,6400001000201,令和４年８月１日岩手県盛岡市大沢川原一丁目４番２０号岩手日産自動車株式会社（6400001000201）に合併し解散,2015-10-05,1,,,,,ミズサワニッサン,0
641,2420003002247,登記記録の閉鎖等,0,2022-08-03,2022-07-26,ハート・ブリッジ・青森合同会社,,合同会社,青森県,上北郡七戸町,字柴舘道ノ下８番地５,,02,402,0392774,,,2022-07-26,清算の結了等,,,2021-01-26,1,,,,,ハートブリッジアオモリ,0
647,2470002012366,登記記録の閉鎖等,0,2022-08-03,2022-08-01,有限会社三野石材店,,有限会社,香川県,丸亀市,広島町青木１２４６番地,,37,202,7630105,,,2022-08-01,清算の結了等,,,2015-10-05,1,,,,,ミノセキザイテン,0
655,2500002018938,登記記録の閉鎖等,0,2022-08-03,2022-08-01,有限会社花遊館,,有限会社,愛媛県,今治市,八町東２丁目４番８号,,38,202,7940831,,,2022-08-01,清算の結了等,,,2015-10-05,1,,,,,ハナユウカン,0
656,2500005002360,登記記録の閉鎖等,0,2022-08-03,2022-07-15,天理教東温分教会,,その他の設立登記法人,愛媛県,東温市,上林甲１６１２番地,,38,215,7910223,,,2022-07-15,合併による解散等,6500005000377,令和４年７月１５日愛媛県松山市恵原町甲４９１番地天理教惠原分教会（6500005000377）に合併し解散,2015-10-05,1,,,,,テンリキョウトウオンブンキョウカイ,0
674,3010003031039,登記記録の閉鎖等,0,2022-08-03,2022-07-14,ＲＭ－１合同会社,,合同会社,東京都,千代田区,九段南２丁目２番１号,,13,101,1020074,,,2022-07-14,清算の結了等,,,2019-11-13,1,,,,,アールエムワン,0
675,3010101002528,登記記録の閉鎖等,0,2022-08-03,2022-07-21,株式会社テクノポリス,,株式会社,東京都,八王子市,長房町５６番地の２２,,13,201,1930824,,,2022-07-21,清算の結了等,,,2015-10-05,1,,,,,テクノポリス,0
688,3010405017420,登記記録の閉鎖等,0,2022-08-03,2022-07-14,一般社団法人一期一会,,その他の設立登記法人,東京都,港区,西新橋１丁目２番９号メンターキャピタル税理士法人内,,13,103,1050003,,,2022-07-14,清算の結了等,,,2019-02-05,1,,,,,イチゴイチエ,0
710,3011201014116,登記記録の閉鎖等,0,2022-08-03,2022-07-25,株式会社中富エステート,,株式会社,東京都,中野区,中野２丁目２６番１０号,,13,114,1640001,,,2022-07-25,清算の結了等,,,2015-10-05,1,,,,,ナカトミエステート,0
717,3011501017553,登記記録の閉鎖等,0,2022-08-03,2022-08-01,株式会社絆,,株式会社,東京都,荒川区,西尾久２丁目１６番１５号,,13,118,1160011,,,2022-08-01,清算の結了等,,,2015-10-05,1,,,,,キズナ,0
726,3012403000077,登記記録の閉鎖等,0,2022-08-03,2022-07-28,ジンテクノ合資会社,,合資会社,東京都,国分寺市,東恋ヶ窪１丁目２８０番地４ザ・パークハウス国分寺四季の森Ｉー４５０,00125350,13,214,1850014,,,2022-07-28,清算の結了等,,,2015-10-05,1,,,,,ジンテクノ,0
736,3021001055714,登記記録の閉鎖等,0,2022-08-03,2022-07-29,株式会社岡田企画,,株式会社,神奈川県,中郡大磯町,西小磯１２８２番地の１９,,14,341,2550005,,,2022-07-29,清算の結了等,,,2015-10-05,1,,,,,オカダキカク,0
744,3030001060392,登記記録の閉鎖等,0,2022-08-03,2022-07-22,本庄ニューショッピングヤマキ株式会社,,株式会社,埼玉県,本庄市,東台２丁目１０番１６号,,11,211,3670021,,,2022-07-22,清算の結了等,,,2015-10-05,1,,,,,ホンジョウニューショッピングヤマキ,0
749,3030002072354,登記記録の閉鎖等,0,2022-08-03,2022-07-22,有限会社岩野工務店,,有限会社,埼玉県,川越市,旭町１丁目１７番地１７,,11,201,3501126,,,2022-07-22,清算の結了等,,,2015-10-05,1,,,,,,0
751,3040001033042,登記記録の閉鎖等,0,2022-08-03,2022-07-27,株式会社グッドアシスト,,株式会社,千葉県,浦安市,富士見１丁目１番１７号,,12,227,2790043,,,2022-07-27,清算の結了等,,,2015-10-05,1,,,,,グッドアシスト,0
774,3080102008559,登記記録の閉鎖等,0,2022-08-03,2022-08-01,有限会社橋直水産,,有限会社,静岡県,伊豆市,上白岩４６１番地の４,,22,222,4102502,,,2022-08-01,清算の結了等,,,2015-10-05,1,,,,,ハシナオスイサン,0
782,3100002016213,登記記録の閉鎖等,0,2022-08-03,2022-07-29,有限会社塩川菓子店,,有限会社,長野県,上田市,上丸子９４６番地の１号,,20,203,3860404,,,2022-07-29,清算の結了等,,,2015-10-05,1,,,,,シオガワカシテン,0
784,3110002008102,登記記録の閉鎖等,0,2022-08-03,2022-07-29,有限会社泉樹,,有限会社,新潟県,新潟市江南区,亀田本町２丁目４番２１号,,15,104,9500164,,,2022-07-29,清算の結了等,,,2015-10-05,1,,,,,センジュ,0
803,3120901011122,登記記録の閉鎖等,0,2022-08-03,2022-08-01,株式会社すぎおか,,株式会社,大阪府,高槻市,松川町２５番１１号,,27,207,5690023,,,2022-08-01,清算の結了等,,,2015-10-05,1,,,,,スギオカ,0
817,3130002017324,登記記録の閉鎖等,0,2022-08-03,2022-07-25,有限会社ペイジボーイ,,有限会社,京都府,京都市中京区,押小路通高倉西入左京町１３８番地の２バインオークインレット１階,,26,104,6040833,,,2022-07-25,清算の結了等,,,2015-10-05,1,,,,,ペイジボーイ,0
825,3140001041919,登記記録の閉鎖等,0,2022-08-03,2022-07-29,株式会社ささやま商事,,株式会社,兵庫県,丹波篠山市,西古佐９５６番地の３,,28,221,6692221,,,2022-07-29,清算の結了等,,,2015-10-05,1,,,,,ササヤマショウジ,0
843,3180001033251,登記記録の閉鎖等,0,2022-08-03,2022-08-01,株式会社山田屋,,株式会社,愛知県,名古屋市中村区,名駅５丁目２５番１８号,,23,105,4500002,,,2022-08-01,清算の結了等,,,2015-10-05,1,,,,,ヤマダヤ,0
846,3180001089483,登記記録の閉鎖等,0,2022-08-03,2022-08-01,加藤機器株式会社,,株式会社,愛知県,清須市,西枇杷島町芳野１丁目４７番地,,23,233,4520065,,,2022-08-01,清算の結了等,,,2015-10-05,1,,,,,カトウキキ,0
880,3240002008097,登記記録の閉鎖等,0,2022-08-03,2022-08-01,有限会社昭和美容グループ,,有限会社,広島県,広島市東区,牛田中１丁目２番８号,,34,102,7320065,,,2022-08-01,清算の結了等,,,2015-10-05,1,,,,,ショウワビヨウグループ,0
888,3260001005390,登記記録の閉鎖等,0,2022-08-03,2022-08-01,アテナ株式会社,,株式会社,岡山県,岡山市南区,大福７２１番地,,33,104,7010204,,,2022-08-01,合併による解散等,9260001009163,令和４年８月１日岡山市南区大福７２１番地アテナ製紙株式会社（9260001009163）に合併し解散,2015-10-05,1,,,,,アテナ,0
895,3290001023687,登記記録の閉鎖等,0,2022-08-03,2022-08-01,Ｃ＆Ａビジネスコンサルティング株式会社,,株式会社,福岡県,遠賀郡岡垣町,東山田１丁目１０番２６号,,40,383,8114220,,,2022-08-01,清算の結了等,,,2015-10-05,1,,,,,シーアンドエービジネスコンサルティング,0
912,3330002026528,登記記録の閉鎖等,0,2022-08-03,2022-07-25,有限会社八代第一清和建設,00097922,有限会社,熊本県,八代市,松崎町２８７番地の４,,43,202,8660884,,,2022-07-25,清算の結了等,,,2015-10-05,1,,,,,ヤツシロダイイチセイワケンセツ,0
917,3340002027913,登記記録の閉鎖等,0,2022-08-03,2022-08-01,有限会社南海重工,,有限会社,鹿児島県,志布志市,有明町野井倉３４３０番地２,,46,221,8997402,,,2022-08-01,清算の結了等,,,2015-10-05,1,,,,,,0
918,3340002028028,登記記録の閉鎖等,0,2022-08-03,2022-08-02,有限会社マルトク,,有限会社,鹿児島県,曽於郡大崎町,岡別府３０７番地１,,46,468,8997308,,,2022-08-02,清算の結了等,,,2015-10-05,1,,,,,,0
924,3360002019454,登記記録の閉鎖等,0,2022-08-03,2022-07-21,有限会社沖坤建材商事,,有限会社,沖縄県,名護市,字久志５２１番地の６,,47,209,9052173,,,2022-07-21,清算の結了等,,,2015-10-05,1,,,,,オキコンケンザイショウジ,0
927,3390002013751,登記記録の閉鎖等,0,2022-08-03,2022-07-25,有限会社マルヤマ製作所,,有限会社,山形県,米沢市,大町３丁目４番１８号,,06,202,9920031,,,2022-07-25,清算の結了等,,,2015-10-05,1,,,,,マルヤマセイサクショ,0
930,3400002004617,登記記録の閉鎖等,0,2022-08-03,2022-08-01,有限会社ツーホー,,有限会社,岩手県,盛岡市,青山４丁目６番５号,,03,201,0200133,,,2022-08-01,清算の結了等,,,2015-10-05,1,,,,,ツーホー,0
932,3400502000446,登記記録の閉鎖等,0,2022-08-03,2022-08-01,有限会社高橋商店,,有限会社,岩手県,一関市,大手町１番２２号,,03,209,0210884,,,2022-08-01,清算の結了等,,,2015-10-05,1,,,,,タカハシショウテン,0
940,3420002018887,登記記録の閉鎖等,0,2022-08-03,2022-07-26,有限会社川金青果,,有限会社,青森県,上北郡東北町,字外蛯沢後久保５番地３,,02,408,0392647,,,2022-07-26,清算の結了等,,,2015-10-05,1,,,,,カワキンセイカ,0
952,3460301004790,登記記録の閉鎖等,0,2022-08-03,2022-08-01,北進産業株式会社,,株式会社,北海道,北見市,北四条西２丁目１番地,,01,208,0900044,,,2022-08-01,清算の結了等,,,2019-05-20,1,,,,,ホクシンサンギョウ,0
955,3470002013099,登記記録の閉鎖等,0,2022-08-03,2022-07-29,有限会社マツウラ薬局,,有限会社,香川県,善通寺市,上吉田町７丁目２番１０号,,37,204,7650011,,,2022-07-29,清算の結了等,,,2015-10-05,1,,,,,マツウラヤッキョク,0
960,3500001012800,登記記録の閉鎖等,0,2022-08-03,2022-08-01,招福汽船株式会社,,株式会社,愛媛県,今治市,伯方町木浦甲６１４番地,,38,202,7942305,,,2022-08-01,清算の結了等,,,2015-10-05,1,,,,,ショウフクキセン,0
963,4010001068536,登記記録の閉鎖等,0,2022-08-03,2022-07-26,株式会社エヌシステム,,株式会社,東京都,千代田区,外神田１丁目１６番８号,,13,101,1010021,,,2022-07-26,合併による解散等,1013201000403,令和４年７月１日東京都品川区西五反田八丁目１番３号株式会社クレスコ・ジェイキューブ（1013201000403）に合併し解散,2015-10-05,1,,,,,エヌシステム,0
994,4010601053490,登記記録の閉鎖等,0,2022-08-03,2022-08-01,株式会社ｉｔ’ｓ,,株式会社,東京都,台東区,東上野１丁目８番２号オーイズミ東上野ビル東館６階,,13,106,1100015,,,2022-08-01,清算の結了等,,,2018-06-18,1,,,,,イッツ,0
1029,4012401021017,登記記録の閉鎖等,0,2022-08-03,2022-08-01,株式会社ＫＯＴＡ,,株式会社,東京都,三鷹市,牟礼６丁目２５番２２－２０３号,,13,204,1810002,,,2022-08-01,清算の結了等,,,2015-10-05,1,,,,,コータ,0
1032,4013101006695,登記記録の閉鎖等,0,2022-08-03,2022-08-01,株式会社ジェーエムケー,,株式会社,東京都,福生市,南田園１丁目３番地１５,,13,218,1970004,,,2022-08-01,清算の結了等,,,2015-10-05,1,,,,,ジェーエムケー,0
1034,4013301010555,登記記録の閉鎖等,0,2022-08-03,2022-08-01,富士建設株式会社,,株式会社,東京都,豊島区,高田３丁目３８番１８－５０６号,,13,116,1710033,,,2022-08-01,清算の結了等,,,2015-10-05,1,,,,,フジケンセツ,0
1036,4013301045584,登記記録の閉鎖等,0,2022-08-03,2022-07-19,株式会社ＳＧＭ,,株式会社,東京都,渋谷区,幡ヶ谷１丁目２０－１１ＡＲＴ－２ビル２Ｆ,,13,113,1510072,,,2022-07-19,清算の結了等,,,2020-05-13,1,,,,,エスジーエム,0
1039,4020001023713,登記記録の閉鎖等,0,2022-08-03,2022-07-25,田中塗料株式会社,,株式会社,神奈川県,横浜市神奈川区,浦島丘２番地,,14,102,2210062,,,2022-07-25,清算の結了等,,,2015-10-05,1,,,,,タナカトリョウ,0
1048,4021001035178,登記記録の閉鎖等,0,2022-08-03,2022-07-29,株式会社添田企画,,株式会社,神奈川県,南足柄市,岩原２４７番地,,14,217,2500113,,,2022-07-29,清算の結了等,,,2015-10-05,1,,,,,ソエダキカク,0
1065,4040001074655,登記記録の閉鎖等,0,2022-08-03,2022-07-25,株式会社プラントサービスアクア,,株式会社,千葉県,館山市,高井７７４番地の１６,,12,205,2940041,,,2022-07-25,清算の結了等,,,2015-10-05,1,,,,,プラントサービスアクア,0
1070,4040001114650,登記記録の閉鎖等,0,2022-08-03,2022-07-26,株式会社トラスト,,株式会社,千葉県,市川市,真間５丁目２２番１０号ヴィラ手児奈１０６号室,,12,203,2720826,,,2022-07-26,清算の結了等,,,2020-08-11,1,,,,,トラスト,0
1072,4040002030104,登記記録の閉鎖等,0,2022-08-03,2022-07-25,有限会社富士装美,,有限会社,千葉県,八千代市,八千代台南３丁目９番１５号,,12,221,2760033,,,2022-07-25,清算の結了等,,,2015-10-05,1,,,,,フジソウビ,0
1075,4040005001267,登記記録の閉鎖等,0,2022-08-03,2022-07-26,一般社団法人千葉農林水産統計協会,,その他の設立登記法人,千葉県,千葉市中央区,長洲１丁目１５番７号,,12,101,2600854,,,2022-07-26,清算の結了等,,,2015-10-05,1,,,,,チバノウリンスイサントウケイキョウカイ,0
1081,4050003005368,登記記録の閉鎖等,0,2022-08-03,2022-07-28,合同会社わかば土地開発,,合同会社,茨城県,那珂市,飯田１８６３－２,,08,226,3110134,,,2022-07-28,清算の結了等,,,2020-09-01,1,,,,,ワカバトチカイハツ,0
1082,4050005002735,登記記録の閉鎖等,0,2022-08-03,2022-07-27,医療法人てらだ内科消化器科,,その他の設立登記法人,茨城県,笠間市,東平３丁目１番２１号,,08,216,3091705,,,2022-07-27,清算の結了等,,,2015-10-05,1,,,,,テラダナイカショウカキカ,0
1090,4080002016314,登記記録の閉鎖等,0,2022-08-03,2022-08-01,有限会社松本一熔接,,有限会社,静岡県,焼津市,中里５０３番地の１,,22,212,4250014,,,2022-08-01,清算の結了等,,,2015-10-05,1,,,,,マツモトイチヨウセツ,0
1094,4080405006275,登記記録の閉鎖等,0,2022-08-03,2022-08-01,一般社団法人フォレメンテあかまつ,,その他の設立登記法人,静岡県,浜松市浜北区,小松４５２８番地の９,,22,136,4340042,,,2022-08-01,清算の結了等,,,2015-10-05,1,,,,,フォレメンテアカマツ,0
1098,4100002029940,登記記録の閉鎖等,0,2022-08-03,2022-07-29,有限会社サンリイツスクリーン工業,,有限会社,長野県,茅野市,豊平３７４２番地,,20,214,3910213,,,2022-07-29,清算の結了等,,,2015-10-05,1,,,,,サンリイツスクリーンコウギョウ,0
1101,4120001133782,登記記録の閉鎖等,0,2022-08-03,2022-07-28,株式会社オフィス・クレエ,,株式会社,大阪府,大阪市西区,京町堀１丁目１６－２１－４０２,,27,106,5500003,,,2022-07-28,清算の結了等,,,2015-10-05,1,,,,,オフィスクレエ,0
1120,4120101050390,登記記録の閉鎖等,0,2022-08-03,2022-08-01,株式会社ヒックス,,株式会社,大阪府,堺市中区,東山３５２－１,,27,142,5998247,,,2022-08-01,清算の結了等,,,2015-10-05,1,,,,,ヒックス,0
1128,4122001033566,登記記録の閉鎖等,0,2022-08-03,2022-07-27,清興設備株式会社,,株式会社,大阪府,大東市,深野２丁目８番１８号,,27,218,5740072,,,2022-07-27,清算の結了等,,,2020-04-06,1,,,,,セイコウセツビ,0
1131,4130002022059,登記記録の閉鎖等,0,2022-08-03,2022-07-22,株式会社シャレーク,,株式会社,京都府,長岡京市,長岡３丁目２４番２５号,,26,209,6170823,,,2022-07-22,清算の結了等,,,2015-10-05,1,,,,,シャレーク,0
1132,4130002030400,登記記録の閉鎖等,0,2022-08-03,2022-07-21,伴進産業有限会社,,有限会社,京都府,八幡市,八幡馬場４０番地,,26,210,6148085,,,2022-07-21,清算の結了等,,,2015-10-05,1,,,,,トモシンサンギョウ,0
1135,4140001021267,登記記録の閉鎖等,0,2022-08-03,2022-08-01,エム・アール・シーユナイテッドアソシエイツ株式会社,,株式会社,兵庫県,神戸市長田区,片山町４丁目１－１８,,28,106,6530805,,,2022-08-01,清算の結了等,,,2015-10-05,1,,,,,エムアールシーユナイテッドアソシエイツ,0
1138,4140001060901,登記記録の閉鎖等,0,2022-08-03,2022-07-29,姫路合同食品株式会社,,株式会社,兵庫県,姫路市,飾磨区御幸２３番地,,28,201,6728056,,,2022-07-29,清算の結了等,,,2015-10-05,1,,,,,ヒメジゴウドウショクヒン,0
1142,4140001099460,登記記録の閉鎖等,0,2022-08-03,2022-07-29,株式会社エンクリフ,,株式会社,兵庫県,西宮市,高松町１９番９－２０７号,,28,204,6638204,,,2022-07-29,清算の結了等,,,2015-10-05,1,,,,,エンクリフ,0
1147,4140002063829,登記記録の閉鎖等,0,2022-08-03,2022-07-29,有限会社西一,,有限会社,兵庫県,伊丹市,瑞穂町１丁目４７番地,,28,207,6640013,,,2022-07-29,清算の結了等,,,2015-10-05,1,,,,,ニシイチ,0
1153,4180001078485,登記記録の閉鎖等,0,2022-08-03,2022-07-29,株式会社ＣＴＡ,,株式会社,愛知県,小牧市,城山５丁目６２番地１５,,23,219,4850812,,,2022-07-29,清算の結了等,,,2015-10-05,1,,,,,シイテイエイ,0
1167,4180302004009,登記記録の閉鎖等,0,2022-08-03,2022-07-27,コンドウ家具有限会社,,有限会社,愛知県,岡崎市,大平町字天神前３８番地１,,23,202,4440007,,,2022-07-27,清算の結了等,,,2015-10-05,1,,,,,コンドウカグ,0
1171,4200001019313,登記記録の閉鎖等,0,2022-08-03,2022-08-01,株式会社ダイシン,,株式会社,岐阜県,関市,西田原大千前６１番地の１,,21,205,5013928,,,2022-08-01,合併による解散等,6200001020021,令和４年８月１日岐阜県関市西田原大千前６１番地１株式会社フィット・ワークス（6200001020021）に合併し解散,2015-10-05,1,,,,,ダイシン,0
1189,4240002051815,登記記録の閉鎖等,0,2022-08-03,2022-07-29,有限会社テラシタ工業,,有限会社,広島県,尾道市,高須町１６００番地３,,34,205,7290141,,,2022-07-29,清算の結了等,,,2015-10-05,1,,,,,テラシタコウギョウ,0
1192,4250005004926,登記記録の閉鎖等,0,2022-08-03,2022-07-28,特定非営利活動法人ＮＰＯお成り道ねっと,,その他の設立登記法人,山口県,萩市,大字東田町５８番地２,,35,204,7580047,,,2022-07-28,清算の結了等,,,2015-10-05,1,,,,,エヌピーオーオナリミチネット,0
1220,4330001016792,登記記録の閉鎖等,0,2022-08-03,2022-07-22,ワイズワーク株式会社,,株式会社,熊本県,阿蘇郡南阿蘇村,大字久石１０２１番地１,,43,433,8691412,,,2022-07-22,清算の結了等,,,2015-10-05,1,,,,,ワイズワーク,0
1239,4402701000052,登記記録の閉鎖等,0,2022-08-03,2022-08-01,株式会社大船渡日産,,株式会社,岩手県,大船渡市,立根町字前谷地１２番地１,,03,203,0220006,,,2022-08-01,合併による解散等,6400001000201,令和４年８月１日岩手県盛岡市大沢川原一丁目４番２０号岩手日産自動車株式会社（6400001000201）に合併し解散,2015-10-05,1,,,,,オオフナトニッサン,0
1241,4420003001817,登記記録の閉鎖等,0,2022-08-03,2022-07-26,東北アグリ合同会社,,合同会社,青森県,上北郡六戸町,大字犬落瀬字上淋代９３番地２,,02,405,0330071,,,2022-07-26,清算の結了等,,,2018-02-01,1,,,,,トウホクアグリ,0
1250,4470001003975,登記記録の閉鎖等,0,2022-08-03,2022-08-02,株式会社三好工務店,,株式会社,香川県,高松市,円座町１１１８番地,,37,201,7618044,,,2022-08-02,清算の結了等,,,2015-10-05,1,,,,,ミヨシコウムテン,0
1258,4500002014588,登記記録の閉鎖等,0,2022-08-03,2022-08-01,有限会社ライフ流通,,有限会社,愛媛県,西条市,大町８１１番地の１,,38,206,7930030,,,2022-08-01,清算の結了等,,,2015-10-05,1,,,,,ライフリュウツウ,0
1267,5010003023174,登記記録の閉鎖等,0,2022-08-03,2022-07-19,ＺＩＴＣ　Ｊａｐａｎ合同会社,,合同会社,東京都,千代田区,六番町１５番２号鳳翔ビル３階,,13,101,1020085,,,2022-07-19,清算の結了等,,,2016-03-04,1,,,,,ジックジャパン,0
1268,5010003030872,登記記録の閉鎖等,0,2022-08-03,2022-07-15,ウエストントレーディング合同会社,,合同会社,東京都,中央区,銀座７丁目１５番８号タウンハイツ銀座４０６,,13,102,1040061,,,2022-07-15,清算の結了等,,,2019-10-17,1,,,,,ウエストントレーディング,0
1312,5011301008932,登記記録の閉鎖等,0,2022-08-03,2022-08-01,テクノダックス株式会社,,株式会社,東京都,杉並区,善福寺４丁目２７番５号,,13,115,1670041,,,2022-08-01,清算の結了等,,,2015-10-05,1,,,,,テクノダックス,0
1334,5020002088085,登記記録の閉鎖等,0,2022-08-03,2022-07-22,有限会社遠藤謙次商店,,有限会社,神奈川県,川崎市高津区,久地１丁目６番１４号,,14,134,2130032,,,2022-07-22,清算の結了等,,,2015-10-05,1,,,,,エンドウケンジショウテン,0
1342,5021002056222,登記記録の閉鎖等,0,2022-08-03,2022-07-28,有限会社田中スプリング製作所,,有限会社,神奈川県,足柄上郡中井町,井ノ口１５３８番地の１,,14,361,2590151,,,2022-07-28,清算の結了等,,,2015-10-05,1,,,,,タナカスプリングセイサクショ,0
1345,5030001038668,登記記録の閉鎖等,0,2022-08-03,2022-07-19,ぴりかシステム株式会社,,株式会社,埼玉県,三郷市,早稲田２丁目２４番地３ライオンズマンション三郷第２－２０４号,,11,237,3410018,,,2022-07-19,清算の結了等,,,2015-10-05,1,,,,,ピリカシステム,0
1346,5030001073252,登記記録の閉鎖等,0,2022-08-03,2022-07-11,スカイテック興産株式会社,,株式会社,埼玉県,川口市,南鳩ヶ谷６丁目１９番２６号サザンスカイビル５０２号,,11,203,3340013,,,2022-07-11,清算の結了等,,,2015-10-05,1,,,,,スカイテックコウサン,0
1355,5030005007339,登記記録の閉鎖等,0,2022-08-03,2022-07-19,特定非営利活動法人住みたい朝霞まちづくりネットワーク,,その他の設立登記法人,埼玉県,朝霞市,膝折町１丁目１番５３号,,11,227,3510014,,,2022-07-19,清算の結了等,,,2015-10-05,1,,,,,スミタイアサカマチヅクリネットワーク,0
1356,5040001025624,登記記録の閉鎖等,0,2022-08-03,2022-07-19,株式会社市食,,株式会社,千葉県,市川市,若宮２丁目７番１５号,,12,203,2720812,,,2022-07-19,清算の結了等,,,2015-10-05,1,,,,,イチショク,0
1364,5040002062823,登記記録の閉鎖等,0,2022-08-03,2022-07-25,有限会社ケント総合研究所,,有限会社,千葉県,印旛郡酒々井町,中央台２丁目２０番４,,12,322,2850922,,,2022-07-25,清算の結了等,,,2015-10-05,1,,,,,ケントソウゴウケンキュウショ,0
1365,5040003019095,登記記録の閉鎖等,0,2022-08-03,2022-07-26,合同会社小田嶋総合設備,,合同会社,千葉県,市川市,相之川１丁目１０番４号,,12,203,2720143,,,2022-07-26,清算の結了等,,,2021-12-10,1,,,,,オダジマソウゴウセツビ,0
1367,5040005016719,登記記録の閉鎖等,0,2022-08-03,2022-07-22,千葉環境メンテナンス企業組合,,その他の設立登記法人,千葉県,君津市,平山６６４番地,,12,225,2920502,,,2022-07-22,清算の結了等,,,2015-10-05,1,,,,,チバカンキョウメンテナンス,0
1379,5080102013540,登記記録の閉鎖等,0,2022-08-03,2022-08-01,有限会社オオタケ,,有限会社,静岡県,富士市,横割４丁目３番１３号,,22,210,4160944,,,2022-08-01,清算の結了等,,,2015-10-05,1,,,,,オオタケ,0
1388,5110001021450,登記記録の閉鎖等,0,2022-08-03,2022-07-29,株式会社ウロコ鮮魚,,株式会社,新潟県,十日町市,高山三丁目７４５番地,,15,210,9480055,,,2022-07-29,清算の結了等,,,2015-10-05,1,,,,,ウロコセンギョ,0
1399,5120001203428,登記記録の閉鎖等,0,2022-08-03,2022-07-28,株式会社エスケイ産業,,株式会社,大阪府,大阪市福島区,海老江５丁目２番２号,,27,103,5530001,,,2022-07-28,合併による解散等,3120001049641,令和４年７月２８日大阪市福島区海老江五丁目２番２号株式会社笹興（3120001049641）に合併し解散,2017-02-06,1,,,,,エスケイサンギョウ,0
1405,5120002066510,登記記録の閉鎖等,0,2022-08-03,2022-08-01,有限会社向伸商事,,有限会社,大阪府,大東市,御供田３丁目８番２号,,27,218,5740025,,,2022-08-01,清算の結了等,,,2015-10-05,1,,,,,コウシンショウジ,0
1408,5120102024046,登記記録の閉鎖等,0,2022-08-03,2022-08-01,有限会社百合建設,,有限会社,大阪府,泉佐野市,下瓦屋５丁目９番３号,,27,213,5980062,,,2022-08-01,清算の結了等,,,2015-10-05,1,,,,,ユリケンセツ,0
1427,5140001007067,登記記録の閉鎖等,0,2022-08-03,2022-08-01,近畿容器株式会社,,株式会社,兵庫県,神戸市中央区,元町通５丁目２番１０号,,28,110,6500022,,,2022-08-01,合併による解散等,9140001006222,令和４年７月３０日神戸市中央区元町通五丁目２番１０号株式会社今村商店（9140001006222）に合併し解散,2015-10-05,1,,,,,キンキヨウキ,0
1463,5230005006304,登記記録の閉鎖等,0,2022-08-03,2022-08-01,永善寺,,その他の設立登記法人,富山県,高岡市,山川６５５番地,,16,202,9330303,,,2022-08-01,清算の結了等,,,2015-10-05,1,,,,,エイゼンジ,0
1465,5240001031841,登記記録の閉鎖等,0,2022-08-03,2022-08-01,株式会社ヒロ・コーポレーション,,株式会社,広島県,福山市,霞町１丁目２番２４号,,34,207,7200812,,,2022-08-01,清算の結了等,,,2015-10-05,1,,,,,ヒロテンコーポレーション,0
1470,5260002031277,登記記録の閉鎖等,0,2022-08-03,2022-08-01,有限会社岡山熱管,,有限会社,岡山県,瀬戸内市,長船町八日市４番地の１６,,33,212,7014272,,,2022-08-01,清算の結了等,,,2015-10-05,1,,,,,オカヤマネッカン,0
1471,5260005005674,登記記録の閉鎖等,0,2022-08-03,2022-08-01,特定非営利活動法人こもれびの会,,その他の設立登記法人,岡山県,浅口郡里庄町,大字新庄２６９６番地,,33,445,7190302,,,2022-08-01,清算の結了等,,,2015-10-05,1,,,,,コモレビノカイ,0
1472,5280002005683,登記記録の閉鎖等,0,2022-08-03,2022-08-01,有限会社太陽ドライ,,有限会社,島根県,出雲市,塩冶有原町２丁目３番地,,32,203,6930023,,,2022-08-01,清算の結了等,,,2015-10-05,1,,,,,タイヨウドライ,0
1514,5370002014849,登記記録の閉鎖等,0,2022-08-03,2022-07-26,有限会社松下設計室,,有限会社,宮城県,仙台市泉区,南中山４丁目１５番１号,,04,105,9813213,,,2022-07-26,清算の結了等,,,2015-10-05,1,,,,,マツシタセッケイシツ,0
1532,5400001006216,登記記録の閉鎖等,0,2022-08-03,2022-08-01,株式会社花北日産,,株式会社,岩手県,北上市,村崎野１９地割１２７番地１,,03,206,0240004,,,2022-08-01,合併による解散等,6400001000201,令和４年８月１日岩手県盛岡市大沢川原一丁目４番２０号岩手日産自動車株式会社（6400001000201）に合併し解散,2015-10-05,1,,,,,ハナキタニッサン,0
1533,5400001007767,登記記録の閉鎖等,0,2022-08-03,2022-08-01,株式会社二戸日産,,株式会社,岩手県,二戸市,堀野字馬場６５番地３,,03,213,0286105,,,2022-08-01,合併による解散等,6400001000201,令和４年８月１日岩手県盛岡市大沢川原一丁目４番２０号岩手日産自動車株式会社（6400001000201）に合併し解散,2015-10-05,1,,,,,ニノヘニッサン,0
1535,5400501000313,登記記録の閉鎖等,0,2022-08-03,2022-08-01,株式会社平泉日産,,株式会社,岩手県,西磐井郡平泉町,平泉字高田８８番２,,03,402,0294102,,,2022-08-01,合併による解散等,6400001000201,令和４年８月１日岩手県盛岡市大沢川原一丁目４番２０号岩手日産自動車株式会社（6400001000201）に合併し解散,2015-10-05,1,,,,,ヒライズミニッサン,0
1541,5430001052356,登記記録の閉鎖等,0,2022-08-03,2022-07-29,株式会社ジースリー,,株式会社,北海道,札幌市白石区,北郷三条１２丁目１番３０,,01,104,0030833,,,2022-07-29,清算の結了等,,,2015-10-05,1,,,,,ジースリー,0
1555,5470002013840,登記記録の閉鎖等,0,2022-08-03,2022-08-01,有限会社原田不動産商事,,有限会社,香川県,丸亀市,津森町８７６番地１,,37,202,7630052,,,2022-08-01,清算の結了等,,,2015-10-05,1,,,,,ハラダフドウサンショウジ,0
1563,5500002016889,登記記録の閉鎖等,0,2022-08-03,2022-08-01,有限会社中井設計事務所,,有限会社,愛媛県,西条市,神拝乙１２７番地５,,38,206,7930021,,,2022-08-01,清算の結了等,,,2015-10-05,1,,,,,ナカイセッケイジムショ,0
1586,6010003022539,登記記録の閉鎖等,0,2022-08-03,2022-07-19,合同会社ＥＧ３,,合同会社,東京都,中央区,日本橋２丁目７番１号,,13,102,1030027,,,2022-07-19,清算の結了等,,,2015-10-21,1,,,,,イージースリー,0
1604,6010405016485,登記記録の閉鎖等,0,2022-08-03,2022-07-25,一般社団法人世論調査センター,,その他の設立登記法人,東京都,新宿区,西新宿１丁目２１番１号,,13,104,1600023,,,2022-07-25,清算の結了等,,,2018-03-01,1,,,,,ヨロンチョウサセンター,0
1610,6010602028597,登記記録の閉鎖等,0,2022-08-03,2022-07-22,有限会社ハミルトン,,有限会社,東京都,江東区,南砂１丁目１９番１－１０９号,,13,108,1360076,,,2022-07-22,清算の結了等,,,2015-10-05,1,,,,,ハミルトン,0
1646,6011702001436,登記記録の閉鎖等,0,2022-08-03,2022-08-01,有限会社ウエノ工業,,有限会社,東京都,江戸川区,中央２丁目１７番１８－３１０号,,13,123,1320021,,,2022-08-01,清算の結了等,,,2015-10-05,1,,,,,ウエノコウギョウ,0
1655,6012705001514,登記記録の閉鎖等,0,2022-08-03,2022-08-02,特定非営利活動法人エイズワクチン開発協会,,その他の設立登記法人,東京都,清瀬市,上清戸２丁目１２番３６号,,13,221,2040013,,,2022-08-02,清算の結了等,,,2015-10-05,1,,,,,エイズワクチンカイハツキョウカイ,0
1664,6020001037744,登記記録の閉鎖等,0,2022-08-03,2022-07-22,ワイエフ管財株式会社,,株式会社,神奈川県,横浜市中区,長者町８丁目１２９番地２,,14,104,2310033,,,2022-07-22,清算の結了等,,,2015-10-05,1,,,,,ワイエフカンザイ,0
1669,6020001079943,登記記録の閉鎖等,0,2022-08-03,2022-07-19,株式会社ルーグ,,株式会社,神奈川県,川崎市川崎区,塩浜３丁目１２番１２－５号,,14,131,2100826,,,2022-07-19,清算の結了等,,,2015-10-05,1,,,,,ルーグ,0
1673,6020002064523,登記記録の閉鎖等,0,2022-08-03,2022-07-22,有限会社センコー,,有限会社,神奈川県,横浜市青葉区,荏子田３丁目７番地７ソレーユあざみ野１０２号,,14,117,2250005,,,2022-07-22,清算の結了等,,,2015-10-05,1,,,,,センコー,0
1676,6020005005961,登記記録の閉鎖等,0,2022-08-03,2022-07-25,医療法人社団衆和會,,その他の設立登記法人,神奈川県,横浜市鶴見区,鶴見中央４丁目２番３号,,14,101,2300051,,,2022-07-25,清算の結了等,,,2015-10-05,1,,,,,シュウワカイ,0
1680,6021001046578,登記記録の閉鎖等,0,2022-08-03,2022-07-29,株式会社ウエストビーチ,,株式会社,神奈川県,鎌倉市,腰越２丁目１３番１１号,,14,204,2480033,,,2022-07-29,清算の結了等,,,2015-10-05,1,,,,,ウエストビーチ,0
1682,6021001068110,登記記録の閉鎖等,0,2022-08-03,2022-07-29,株式会社セプティモ,,株式会社,神奈川県,茅ヶ崎市,東海岸北３丁目８番２８号,,14,207,2530053,,,2022-07-29,清算の結了等,,,2019-09-09,1,,,,,セプティモ,0
1706,6070002033564,登記記録の閉鎖等,0,2022-08-03,2022-07-20,有限会社田口商会,,有限会社,群馬県,邑楽郡板倉町,大字海老瀬１５５７番地,,10,521,3740111,,,2022-07-20,清算の結了等,,,2015-10-05,1,,,,,タグチショウカイ,0
1708,6080001022781,登記記録の閉鎖等,0,2022-08-03,2022-08-02,株式会社ＳＨＩＰ,,株式会社,静岡県,静岡市駿河区,池田２２７２番地の１メゾン聖ヶ丘８０８号,,22,102,4228005,,,2022-08-02,清算の結了等,,,2019-04-04,1,,,,,シップ,0
1722,6110001000148,登記記録の閉鎖等,0,2022-08-03,2022-07-29,株式会社アイ・シー・オープロモーション,,株式会社,新潟県,新潟市中央区,米山２丁目７番地３,,15,103,9500916,,,2022-07-29,清算の結了等,,,2015-10-05,1,,,,,アイシーオープロモーション,0
1731,6120001169973,登記記録の閉鎖等,0,2022-08-03,2022-08-01,ＪＴＳ株式会社,,株式会社,大阪府,大阪市西区,立売堀２丁目４番５号ＤＧビル４Ａ,,27,106,5500012,,,2022-08-01,清算の結了等,,,2015-10-05,1,,,,,ジェイティーエス,0
1741,6120002068794,登記記録の閉鎖等,0,2022-08-03,2022-08-02,有限会社ヤラカスモータース,,有限会社,大阪府,大阪市生野区,巽中１丁目１９番２２号,00031308,27,116,5440013,,,2022-08-02,清算の結了等,,,2015-10-05,1,,,,,ヤラカスモータース,0
1774,6160001016767,登記記録の閉鎖等,0,2022-08-03,2022-08-02,株式会社ワークスマイル,,株式会社,滋賀県,近江八幡市,宮内町１１５番地１,,25,204,5230828,,,2022-08-02,清算の結了等,,,2015-10-05,1,,,,,,0
1780,6170001008210,登記記録の閉鎖等,0,2022-08-03,2022-08-01,Ｋ－ＦＩＬＥ株式会社,,株式会社,和歌山県,岩出市,相谷１４６番地の１,,30,209,6496257,,,2022-08-01,合併による解散等,4170001008096,令和４年８月１日和歌山県岩出市中黒３３４－６株式会社ＰＤＩ（4170001008096）に合併し解散,2015-10-05,1,,,,,,0
1781,6170005005229,登記記録の閉鎖等,0,2022-08-03,2022-08-03,特定非営利活動法人次世代医療開拓センター,,その他の設立登記法人,和歌山県,和歌山市,美園町５丁目４番地２０,,30,201,6408331,,,2022-08-03,清算の結了等,,,2015-10-05,1,,,,,ジセダイイリョウカイタクセンター,0
1783,6180001088697,登記記録の閉鎖等,0,2022-08-03,2022-07-28,株式会社Ｔ＆Ｒ　Ｃｏｍｍｕｎｉｃａｔｉｏｎｓ,,株式会社,愛知県,春日井市,東野町字茨沢３３番地１５,,23,206,4860817,,,2022-07-28,清算の結了等,,,2015-10-05,1,,,,,ティーアンドアールコミュニケーションズ,0
1796,6200001015434,登記記録の閉鎖等,0,2022-08-03,2022-08-02,株式会社安田製麺所,00076574,株式会社,岐阜県,海津市,海津町長瀬１３０番地の１,,21,221,5030614,,,2022-08-02,清算の結了等,,,2015-10-05,1,,,,,,0
1809,6250002000496,登記記録の閉鎖等,0,2022-08-03,2022-07-28,国近醸造工業有限会社,,有限会社,山口県,山口市,中央５丁目１５番９号,,35,203,7530074,,,2022-07-28,清算の結了等,,,2015-10-05,1,,,,,クニチカジョウゾウコウギョウ,0
1810,6250005004908,登記記録の閉鎖等,0,2022-08-03,2022-07-28,特定非営利活動法人やまぐち子育て長門,,その他の設立登記法人,山口県,長門市,仙崎１８２０番地２,,35,211,7594106,,,2022-07-28,清算の結了等,,,2015-10-05,1,,,,,ヤマグチコソダテナガト,0
1814,6260001025782,登記記録の閉鎖等,0,2022-08-03,2022-08-02,アトラスホーム株式会社,,株式会社,岡山県,倉敷市,茶屋町早沖４９２番地６,,33,202,7101102,,,2022-08-02,清算の結了等,,,2015-10-05,1,,,,,アトラスホーム,0
1822,6290001092135,登記記録の閉鎖等,0,2022-08-03,2022-07-25,ＦＣ　ＴＵＲＫＧＵＣＵ　ＦＵＫＵＯＫＡ　２１株式会社,,株式会社,福岡県,糸島市,末永４３７番地６,,40,230,8191572,,,2022-07-25,清算の結了等,,,2021-02-26,1,,,,,エフシーテュルクギュジュフクオカニジュウイチ,0
1836,6320002006874,登記記録の閉鎖等,0,2022-08-03,2022-08-01,有限会社モデルハタノ,,有限会社,大分県,大分市,府内町２丁目６番６号,,44,201,8700021,,,2022-08-01,清算の結了等,,,2015-10-05,1,,,,,モデルハタノ,0
1850,6380003000409,登記記録の閉鎖等,0,2022-08-03,2022-07-27,合名会社小林昇パース事務所,,合名会社,福島県,郡山市,田村町御代田字朝日町３８番地の１,,07,203,9631164,,,2022-07-27,清算の結了等,,,2015-10-05,1,,,,,コバヤシノボルパースジムショ,0
1854,6400001004128,登記記録の閉鎖等,0,2022-08-03,2022-08-01,株式会社西根日産,,株式会社,岩手県,八幡平市,大更第１８地割８８番地１０８,,03,214,0287111,,,2022-08-01,合併による解散等,6400001000201,令和４年８月１日岩手県盛岡市大沢川原一丁目４番２０号岩手日産自動車株式会社（6400001000201）に合併し解散,2015-10-05,1,,,,,ニシネニッサン,0
1856,6400001007015,登記記録の閉鎖等,0,2022-08-03,2022-08-01,株式会社宮古日産,,株式会社,岩手県,宮古市,実田１丁目８番１２号,,03,202,0270025,,,2022-08-01,合併による解散等,6400001000201,令和４年８月１日岩手県盛岡市大沢川原一丁目４番２０号岩手日産自動車株式会社（6400001000201）に合併し解散,2015-10-05,1,,,,,ミヤコニッサン,0
1860,6420002002194,登記記録の閉鎖等,0,2022-08-03,2022-07-29,有限会社日通プロパン青森販売所,,有限会社,青森県,青森市,大字三内字丸山２７８番地７,,02,201,0380031,,,2022-07-29,清算の結了等,,,2015-10-05,1,,,,,ニッツウプロパンアオモリハンバイジョ,0
1861,6430001014520,登記記録の閉鎖等,0,2022-08-03,2022-07-28,株式会社ＨＫＣ不動産販売,,株式会社,北海道,札幌市北区,北三十二条西５丁目３番２８号,,01,102,0010032,,,2022-07-28,清算の結了等,,,2015-10-05,1,,,,,エイチケーシーフドウサンハンバイ,0
1873,6460302001173,登記記録の閉鎖等,0,2022-08-03,2022-08-01,有限会社櫨山鉄筋工業,,有限会社,北海道,北見市,小泉２４４番地の３０,,01,208,0900001,,,2022-08-01,清算の結了等,,,2015-10-05,1,,,,,ハゼヤマテッキンコウギョウ,0
1878,6490001008335,登記記録の閉鎖等,0,2022-08-03,2022-07-29,理工プロダクツ販売株式会社,,株式会社,高知県,高知市,布師田３０６１番地,,39,201,7815101,,,2022-07-29,清算の結了等,,,2016-04-21,1,,,,,リコウプロダクツハンバイ,0
1892,7010101000998,登記記録の閉鎖等,0,2022-08-03,2022-07-22,株式会社協和不動産鑑定,,株式会社,東京都,八王子市,絹ケ丘２丁目４５番４号絹ヶ丘ハイツ１０３,,13,201,1920912,,,2022-07-22,清算の結了等,,,2015-10-05,1,,,,,キョウワフドウサンカンテイ,0
1894,7010103000492,登記記録の閉鎖等,0,2022-08-03,2022-07-21,合同会社旭屋糸店,,合同会社,東京都,八王子市,横山町１０番２１号,,13,201,1920081,,,2022-07-21,清算の結了等,,,2015-10-05,1,,,,,アサヒヤイトテン,0
1901,7010401158017,登記記録の閉鎖等,0,2022-08-03,2022-07-06,Ｔｈｅ　ＲＯＯＭ４ＤＡＴ株式会社,,株式会社,東京都,港区,六本木６丁目１０番１号六本木ヒルズ森タワー,,13,103,1060032,,,2022-07-06,合併による解散等,2011001129858,令和４年７月１日東京都港区六本木六丁目１０番１号六本木ヒルズ森タワーＴｈｅ　ＲＯＯＭ　Ｄｏｏｒ株式会社（2011001129858）に合併し解散,2021-02-05,1,,,,,ザルームフォーディーエーティー,0
1919,7010902022472,登記記録の閉鎖等,0,2022-08-03,2022-07-28,有限会社つばさ電工東京支部,,有限会社,東京都,世田谷区,弦巻１丁目１３番１３号,,13,112,1540016,,,2022-07-28,清算の結了等,,,2015-10-05,1,,,,,ツバサデンコウトウキョウシブ,0
1943,7011402000472,登記記録の閉鎖等,0,2022-08-03,2022-07-29,有限会社杏二十一,,有限会社,東京都,板橋区,前野町５丁目１７番３－５０３号,,13,119,1740063,,,2022-07-29,清算の結了等,,,2015-10-05,1,,,,,アンズニジュウイチ,0
1947,7011801026977,登記記録の閉鎖等,0,2022-08-03,2022-08-02,株式会社かがやき,,株式会社,東京都,葛飾区,立石５丁目１４番３号,,13,122,1240012,,,2022-08-02,清算の結了等,,,2015-10-05,1,,,,,カガヤキ,0
1998,7040001057401,登記記録の閉鎖等,0,2022-08-03,2022-07-25,株式会社内山段ボール,,株式会社,千葉県,山武郡九十九里町,真亀９４１番地１,,12,403,2830114,,,2022-07-25,清算の結了等,,,2015-10-05,1,,,,,ウチヤマダンボール,0
2020,7060005009363,登記記録の閉鎖等,0,2022-08-03,2022-07-27,特定非営利活動法人栃木かぬま教育支援ネットワーク蘖,,その他の設立登記法人,栃木県,鹿沼市,寺町１３４１番地,,09,205,3220057,,,2022-07-27,清算の結了等,,,2017-08-25,1,,,,,トチギカヌマキョウイクシエンネットワークヒコバエ,0
2032,7080102014025,登記記録の閉鎖等,0,2022-08-03,2022-08-01,有限会社サナダ電機,,有限会社,静岡県,富士市,吉原４丁目７番２１号,,22,210,4170051,,,2022-08-01,清算の結了等,,,2015-10-05,1,,,,,サナダデンキ,0
2033,7080102018356,登記記録の閉鎖等,0,2022-08-03,2022-08-02,有限会社ソアレ,,有限会社,静岡県,熱海市,中央町９番９号,,22,205,4130015,,,2022-08-02,清算の結了等,,,2015-10-05,1,,,,,ソアレ,0
2039,7120001143242,登記記録の閉鎖等,0,2022-08-03,2022-08-02,株式会社サエキ,,株式会社,大阪府,大阪市西成区,松３丁目２番１３号,,27,122,5570034,,,2022-08-02,清算の結了等,,,2015-10-05,1,,,,,サエキ,0
2043,7120001145899,登記記録の閉鎖等,0,2022-08-03,2022-07-27,株式会社ＤＤエクスプレス,,株式会社,大阪府,大阪市中央区,平野町２丁目２番１２号生駒ビルヂング,,27,128,5410046,,,2022-07-27,清算の結了等,,,2015-10-05,1,,,,,ディーディーエクスプレス,0
2074,7140001086935,登記記録の閉鎖等,0,2022-08-03,2022-08-01,株式会社リトラリーワークス,,株式会社,兵庫県,明石市,林３丁目６番８号,,28,203,6730034,,,2022-08-01,清算の結了等,,,2015-10-05,1,,,,,リトラリーワークス,0
2092,7180001085280,登記記録の閉鎖等,0,2022-08-03,2022-07-28,株式会社市川設計,,株式会社,愛知県,一宮市,中町２丁目６番１６藤和シティコープ一宮南１０１号,,23,203,4910913,,,2022-07-28,清算の結了等,,,2015-10-05,1,,,,,イチカワセッケイ,0
2098,7180002082228,登記記録の閉鎖等,0,2022-08-03,2022-08-01,有限会社宮本建材リース,,有限会社,愛知県,江南市,般若町前山２１３番地の３,,23,217,4838017,,,2022-08-01,清算の結了等,,,2015-10-05,1,,,,,ミヤモトケンザイリース,0
2102,7180303002479,登記記録の閉鎖等,0,2022-08-03,2022-07-28,合資会社ビルダ,,合資会社,愛知県,豊田市,中町嫁木３番地２,,23,211,4730904,,,2022-07-28,清算の結了等,,,2015-10-05,1,,,,,ビルダ,0
2106,7200002006869,登記記録の閉鎖等,0,2022-08-03,2022-08-02,有限会社アキノ工業,,有限会社,岐阜県,各務原市,各務山の前町３丁目２３１番地,,21,213,5090105,,,2022-08-02,清算の結了等,,,2015-10-05,1,,,,,アキノコウギョウ,0
2111,7210001018451,登記記録の閉鎖等,0,2022-08-03,2022-07-28,株式会社西郷どん社中,,株式会社,福井県,鯖江市,柳町２丁目２番５号シャーメゾン柳町第７マンション．３０２,,18,207,9160047,,,2022-07-28,清算の結了等,,,2021-05-17,1,,,,,セゴドンシャチュウ,0
2119,7230002000456,登記記録の閉鎖等,0,2022-08-03,2022-08-01,有限会社栄光設備工業所,,有限会社,富山県,富山市,水橋畠等２９５番地１９８,,16,201,9393521,,,2022-08-01,清算の結了等,,,2015-10-05,1,,,,,エイコウセツビコウギョウショ,0
2127,7260001002962,登記記録の閉鎖等,0,2022-08-03,2022-08-02,株式会社佐藤建築事務所,,株式会社,岡山県,岡山市北区,清輝本町６番９号,,33,101,7000862,,,2022-08-02,清算の結了等,,,2015-10-05,1,,,,,サトウケンチクジムショ,0
2138,7290003006100,登記記録の閉鎖等,0,2022-08-03,2022-07-26,合同会社あったか,,合同会社,福岡県,福岡市博多区,東月隈３丁目２１番３－Ｂ１０５号,,40,132,8120854,,,2022-07-26,清算の結了等,,,2015-10-21,1,,,,,アッタカ,0
2144,7290805003179,登記記録の閉鎖等,0,2022-08-03,2022-07-14,天理教高門司分教会,,その他の設立登記法人,福岡県,北九州市門司区,片上町１番１８号,,40,101,8000003,,,2022-07-14,合併による解散等,8240005000419,令和４年７月５日広島市東区上大須賀町９番３０号天理教高子分教会（8240005000419）に合併し解散,2015-10-05,1,,,,,テンリキョウタカモジブンキョウカイ,0
2151,7330003005725,登記記録の閉鎖等,0,2022-08-03,2022-07-22,合同会社ザイモク新聞販社,,合同会社,熊本県,菊池市,旭志川辺１１５２－９８,,43,210,8691205,,,2022-07-22,清算の結了等,,,2015-10-05,1,,,,,ザイモクシンブンハンシャ,0
2160,7370001012918,登記記録の閉鎖等,0,2022-08-03,2022-07-22,司総業株式会社,,株式会社,宮城県,仙台市泉区,南光台７丁目２４番９１号,,04,105,9818003,,,2022-07-22,清算の結了等,,,2015-10-05,1,,,,,ツカサソウギョウ,0
2173,7400001006049,登記記録の閉鎖等,0,2022-08-03,2022-08-01,株式会社北上日産,,株式会社,岩手県,北上市,鬼柳町荒高１８０番地,,03,206,0240056,,,2022-08-01,合併による解散等,6400001000201,令和４年８月１日岩手県盛岡市大沢川原一丁目４番２０号岩手日産自動車株式会社（6400001000201）に合併し解散,2015-10-05,1,,,,,キタカミニッサン,0
2179,7420001010890,登記記録の閉鎖等,0,2022-08-03,2022-07-28,株式会社グライコスモ研究所,,株式会社,青森県,弘前市,大字富士見町８番地１４,,02,202,0368223,,,2022-07-28,清算の結了等,,,2015-10-05,1,,,,,グライコスモケンキュウジョ,0
2187,7460005000348,登記記録の閉鎖等,0,2022-08-03,2022-07-29,学校法人釧路商専学園,,その他の設立登記法人,北海道,釧路市,駒場町３番３５号,,01,206,0850048,,,2022-07-29,清算の結了等,,,2015-10-05,1,,,,,クシロショウセンガクエン,0
2191,7490003000909,登記記録の閉鎖等,0,2022-08-03,2022-07-29,Ｍ＆Ｈシステムズ合同会社,,合同会社,高知県,高知市,若草町１番５７－１２号,,39,201,7808081,,,2022-07-29,清算の結了等,,,2015-10-05,1,,,,,エムアンドエイチシステムズ,0
2206,8010003031884,登記記録の閉鎖等,0,2022-08-03,2022-07-14,ベータ合同会社,,合同会社,東京都,千代田区,九段南２丁目２番１号,,13,101,1020074,,,2022-07-14,清算の結了等,,,2020-03-13,1,,,,,ベータ,0
2208,8010005029539,登記記録の閉鎖等,0,2022-08-03,2022-07-22,一般財団法人有事医療機構,,その他の設立登記法人,東京都,千代田区,内神田１丁目６番３号３階,,13,101,1010047,,,2022-07-22,清算の結了等,,,2018-12-28,1,,,,,ユウジイリョウキコウ,0
2213,8010102001342,登記記録の閉鎖等,0,2022-08-03,2022-07-21,有限会社エルメック,,有限会社,東京都,八王子市,狭間町１３８９番地１４７,,13,201,1930941,,,2022-07-21,清算の結了等,,,2015-10-05,1,,,,,,0
2226,8010402032285,登記記録の閉鎖等,0,2022-08-03,2022-07-14,有限会社ＲＵＫＩＡ,,有限会社,東京都,港区,南青山５丁目４番４６号,,13,103,1070062,,,2022-07-14,清算の結了等,,,2015-10-05,1,,,,,ルキア,0
2227,8010403020157,登記記録の閉鎖等,0,2022-08-03,2022-07-14,合同会社おもてなし,,合同会社,東京都,港区,西新橋１丁目２番９号メンターキャピタル税理士法人内,,13,103,1050003,,,2022-07-14,清算の結了等,,,2019-02-08,1,,,,,オモテナシ,0
2267,8011403002228,登記記録の閉鎖等,0,2022-08-03,2022-08-01,易欣合同会社,,合同会社,東京都,板橋区,徳丸３丁目１７－５,,13,119,1750083,,,2022-08-01,清算の結了等,,,2017-11-16,1,,,,,イキン,0
2299,8021002052433,登記記録の閉鎖等,0,2022-08-03,2022-07-29,有限会社建三建具店,,有限会社,神奈川県,小田原市,飯泉１３１３番地の５,,14,206,2500863,,,2022-07-29,清算の結了等,,,2015-10-05,1,,,,,タテサンタテグテン,0
2308,8030002121206,登記記録の閉鎖等,0,2022-08-03,2022-07-21,有限会社梅澤建材,,有限会社,埼玉県,秩父市,栃谷４７番地,,11,207,3680002,,,2022-07-21,清算の結了等,,,2015-10-05,1,,,,,ウメザワケンザイ,0
2340,8090002013835,登記記録の閉鎖等,0,2022-08-03,2022-08-01,有限会社白鳳,,有限会社,山梨県,韮崎市,本町２丁目９番２７号,,19,207,4070024,,,2022-08-01,清算の結了等,,,2015-10-05,1,,,,,ハクホウ,0
2346,8110002028178,登記記録の閉鎖等,0,2022-08-03,2022-07-29,有限会社大進産業,,有限会社,新潟県,長岡市,七日町１０２４番地,,15,202,9402123,,,2022-07-29,清算の結了等,,,2015-10-05,1,,,,,ダイシンサンギョウ,0
2351,8120001130900,登記記録の閉鎖等,0,2022-08-03,2022-08-01,株式会社ビーンズ,,株式会社,大阪府,大阪市中央区,北浜東１－１７北川ビル,,27,128,5400031,,,2022-08-01,清算の結了等,,,2015-10-05,1,,,,,ビーンズ,0
2366,8120005008630,登記記録の閉鎖等,0,2022-08-03,2022-08-01,特定非営利活動法人ライフ＆ライフサポートネットワーク,,その他の設立登記法人,大阪府,大阪市阿倍野区,阿倍野筋１丁目５番１号あべのルシアス１４Ｆ,,27,119,5450052,,,2022-08-01,清算の結了等,,,2015-10-05,1,,,,,ライフアンドライフサポートネットワーク,0
2374,8120902000318,登記記録の閉鎖等,0,2022-08-03,2022-08-01,有限会社エム・スリー研究所,,有限会社,大阪府,茨木市,庄１丁目９番３８号,,27,211,5670806,,,2022-08-01,清算の結了等,,,2015-10-05,1,,,,,,0
2386,8140002019265,登記記録の閉鎖等,0,2022-08-03,2022-08-01,イーイーエム産業有限会社,,有限会社,兵庫県,神戸市中央区,港島中町２丁目４番地の１市営港島住宅７２号棟１１１３号,,28,110,6500046,,,2022-08-01,清算の結了等,,,2015-10-05,1,,,,,イーイーエムサンギョウ,0
2393,8180001066643,登記記録の閉鎖等,0,2022-08-03,2022-07-29,アイニチ工業株式会社,,株式会社,愛知県,日進市,浅田町上ノ山５８番地の４,,23,230,4700124,,,2022-07-29,清算の結了等,,,2017-10-26,1,,,,,アイニチコウギョウ,0
2404,8180301032915,登記記録の閉鎖等,0,2022-08-03,2022-07-26,株式会社テクサース,,株式会社,愛知県,豊橋市,井原町５８番地４,,23,201,4400025,,,2022-07-26,清算の結了等,,,2019-09-11,1,,,,,テクサース,0
2437,8260002004032,登記記録の閉鎖等,0,2022-08-03,2022-08-02,有限会社山陽観光,,有限会社,岡山県,岡山市北区,富田町２丁目１番１５号,,33,101,7000816,,,2022-08-02,清算の結了等,,,2015-10-05,1,,,,,サンヨウカンコウ,0
2459,8310002017986,登記記録の閉鎖等,0,2022-08-03,2022-08-01,有限会社センタービル,,有限会社,長崎県,島原市,中堀町１５０番地,,42,203,8550806,,,2022-08-01,清算の結了等,,,2015-10-05,1,,,,,センタービル,0
2471,8330002028560,登記記録の閉鎖等,0,2022-08-03,2022-07-22,サン住建管理有限会社,,有限会社,熊本県,天草市,有明町赤崎２０６８番地１,,43,215,8617201,,,2022-07-22,清算の結了等,,,2015-10-05,1,,,,,サンジュウケンカンリ,0
2481,8370002017816,登記記録の閉鎖等,0,2022-08-03,2022-07-26,有限会社ふくむろ調剤薬局,,有限会社,宮城県,仙台市青葉区,北根３丁目３番１１号,,04,101,9810902,,,2022-07-26,清算の結了等,,,2015-10-05,1,,,,,フクムロチョウザイヤッキョク,0
2484,8370402001717,登記記録の閉鎖等,0,2022-08-03,2022-07-25,有限会社サカリ商事,,有限会社,宮城県,登米市,迫町佐沼字小金丁１２番地,,04,212,9870511,,,2022-07-25,清算の結了等,,,2015-10-05,1,,,,,サカリショウジ,0
2503,8470001002354,登記記録の閉鎖等,0,2022-08-03,2022-08-01,株式会社セルコスモ,,株式会社,香川県,高松市,朝日新町１４番１５号,,37,201,7600064,,,2022-08-01,合併による解散等,5470001000625,令和４年８月１日香川県高松市朝日新町１４番１５号株式会社セルコスモ（5470001000625）に合併し解散,2015-10-05,1,,,,,セルコスモ,0
2509,8490002005296,登記記録の閉鎖等,0,2022-08-03,2022-07-29,八幡電機有限会社,,有限会社,高知県,高知市,北本町４丁目３番４６号,,39,201,7800056,,,2022-07-29,清算の結了等,,,2015-10-05,1,,,,,ヤハタデンキ,0
2518,9010005016239,登記記録の閉鎖等,0,2022-08-03,2022-07-22,一般社団法人渋谷ＫＩホールディングス,,その他の設立登記法人,東京都,千代田区,丸の内３丁目１番１号東京共同会計事務所内,,13,101,1000005,,,2022-07-22,清算の結了等,,,2015-10-05,1,,,,,シブヤケイアイホールディングス,0
2525,9010401086141,登記記録の閉鎖等,0,2022-08-03,2022-08-01,株式会社ＬＯＶ　Ｇｒｏｕｐ・Ｊａｐａｎ,,株式会社,大阪府,大阪市中央区,瓦町１丁目７番７号,,27,128,5410048,,,2022-08-01,清算の結了等,,,2015-10-05,1,,,,,エルオーブイグループジャパン,0
2532,9010601004613,登記記録の閉鎖等,0,2022-08-03,2022-07-26,株式会社天盛堂,,株式会社,東京都,江東区,亀戸５丁目１５番５号,,13,108,1360071,,,2022-07-26,清算の結了等,,,2015-10-05,1,,,,,テンセイドウ,0
2552,9011003012295,登記記録の閉鎖等,0,2022-08-03,2022-07-14,合同会社テイクスリー,,合同会社,東京都,渋谷区,桜丘町２３番１７号シティコート桜丘４０８,,13,113,1500031,,,2022-07-14,清算の結了等,,,2021-02-25,1,,,,,テイクスリー,0
2617,9040002048595,登記記録の閉鎖等,0,2022-08-03,2022-07-27,有限会社ほのぼの企画,,有限会社,千葉県,松戸市,常盤平西窪町７番地の１８,,12,207,2702266,,,2022-07-27,清算の結了等,,,2015-10-05,1,,,,,ホノボノキカク,0
2626,9070001007079,登記記録の閉鎖等,0,2022-08-03,2022-07-26,三和開発株式会社,,株式会社,群馬県,高崎市,常盤町４７番地,,10,202,3700816,,,2022-07-26,合併による解散等,2010001044613,令和４年７月１日東京都中央区銀座二丁目１０番６号三和ネオン株式会社（2010001044613）に合併し解散,2015-10-05,1,,,,,サンワカイハツ,0
2644,9120001186215,登記記録の閉鎖等,0,2022-08-03,2022-08-01,株式会社ウィンブロス,,株式会社,大阪府,大阪市中央区,北久宝寺町２丁目４番８号,,27,128,5410057,,,2022-08-01,清算の結了等,,,2015-10-05,1,,,,,ウィンブロス,0
2668,9120903002873,登記記録の閉鎖等,0,2022-08-03,2022-08-02,日本メディケア合同会社,,合同会社,大阪府,豊中市,柴原町２丁目９番８号,,27,203,5600055,,,2022-08-02,清算の結了等,,,2019-06-13,1,,,,,ニホンメデイケア,0
2728,9180303001784,登記記録の閉鎖等,0,2022-08-03,2022-07-26,合資会社飯島,,合資会社,愛知県,蒲郡市,水竹町下青山２８番地,,23,214,4430005,,,2022-07-26,清算の結了等,,,2015-10-05,1,,,,,イイジマ,0
2767,9290001066144,登記記録の閉鎖等,0,2022-08-03,2022-07-25,株式会社アスタリスク,,株式会社,福岡県,福岡市博多区,博多駅東２丁目１８－２０－３０７,,40,132,8120013,,,2022-07-25,清算の結了等,,,2015-10-05,1,,,,,アスタリスク,0
2794,9340002006960,登記記録の閉鎖等,0,2022-08-03,2022-08-01,有限会社東郷吉徳商店,,有限会社,鹿児島県,鹿児島市,新屋敷町２６番２３号,,46,201,8920838,,,2022-08-01,清算の結了等,,,2015-10-05,1,,,,,,0
2800,9360001000293,登記記録の閉鎖等,0,2022-08-03,2022-07-21,株式会社沖縄コピーセンター,,株式会社,沖縄県,那覇市,泉崎１丁目２１番１９号,,47,201,9000021,,,2022-07-21,清算の結了等,,,2015-10-05,1,,,,,オキナワコピーセンター,0
2812,9390003001469,登記記録の閉鎖等,0,2022-08-03,2022-07-22,Ｓｈａｎｇｒｉ－Ｌａ合同会社,,合同会社,山形県,米沢市,中田町谷地２１０９,,06,202,9920011,,,2022-07-22,清算の結了等,,,2017-09-26,1,,,,,シャングリラ,0
2813,9400001014586,登記記録の閉鎖等,0,2022-08-03,2022-08-01,令和企画株式会社,,株式会社,岩手県,盛岡市,津志田町２丁目７番３６号,,03,201,0200837,,,2022-08-01,清算の結了等,,,2019-05-08,1,,,,,レイワキカク,0
2815,9420002005599,登記記録の閉鎖等,0,2022-08-03,2022-07-27,有限会社シーエイチエー,,有限会社,青森県,青森市,浪岡大字樽沢字村元３８１番地の２,00087568,02,201,0381342,,,2022-07-27,清算の結了等,,,2015-10-05,1,,,,,シーエイチエー,0
