sequenceNumber,corporateNumber,process,correct,updateDate,changeDate,name,nameImageId,kind,prefectureName,cityName,streetNumber,addressImageId,prefectureCode,cityCode,postCode,addressOutside,addressOutsideImageId,closeDate,closeCause,successorCorporateNumber,changeCause,assignmentDate,latest,enName,enPrefectureName,enCityName,enAddressOutside,furigana,hihyoji
9,1010001257109,新規,0,2025-07-29,2025-07-29,株式会社華日国際,,株式会社,東京都,中央区,日本橋人形町１丁目１３番９号４０５,,13,102,1030013,,,,,,,2025-07-29,1,,,,,カジツコクサイ,0
10,1010001257166,新規,0,2025-07-29,2025-07-29,ＬＣＰ株式会社,,株式会社,東京都,中央区,日本橋２丁目１６番４号,,13,102,1030027,,,,,,,2025-07-29,1,,,,,エルシーピー,0
11,1010001257174,新規,0,2025-07-29,2025-07-29,株式会社ＧＳＡＳ　ＪＡＰＡＮ,,株式会社,東京都,千代田区,外神田３丁目１６番１２号アキバＣＯビル８Ｆ,,13,101,1010021,,,,,,,2025-07-29,1,,,,,ジーエスエーエスジャパン,0
12,1010001257182,新規,0,2025-07-29,2025-07-29,株式会社ｔｏｕｃｈ　ｍｅ．,,株式会社,東京都,中央区,入船１丁目７番８号,,13,102,1040042,,,,,,,2025-07-29,1,,,,,タッチミー,0
13,1010001257190,新規,0,2025-07-29,2025-07-29,株式会社ＹＵＮＯＡ,,株式会社,東京都,中央区,新川２丁目６番６－６０２号,,13,102,1040033,,,,,,,2025-07-29,1,,,,,ユノア,0
14,1010001257199,新規,0,2025-07-29,2025-07-29,ららアリーナ名古屋株式会社,,株式会社,東京都,中央区,日本橋室町３丁目２番１号,,13,102,1030022,,,,,,,2025-07-29,1,,,,,ララアリーナナゴヤ,0
15,1010001257208,新規,0,2025-07-29,2025-07-29,ＡＲＩＫＡ株式会社,,株式会社,東京都,千代田区,外神田６丁目１５－１１日東ビル６０１号,,13,101,1010021,,,,,,,2025-07-29,1,,,,,アリカ,0
16,1010001257249,新規,0,2025-07-29,2025-07-29,株式会社月詠,,株式会社,東京都,中央区,日本橋茅場町２丁目４番１号修志会ビル５階,,13,102,1030025,,,,,,,2025-07-29,1,,,,,ツクヨミ,0
19,1010003048150,新規,0,2025-07-29,2025-07-29,ＷＡＮＤＥＲＬＵＳＴ合同会社,,合同会社,東京都,中央区,銀座１丁目１２番４号Ｎ＆ＥＢＬＤ．６Ｆ,,13,102,1040061,,,,,,,2025-07-29,1,,,,,ワンダーラスト,0
29,1010401192046,新規,0,2025-07-29,2025-07-29,株式会社セキュアモデリング,,株式会社,東京都,港区,海岸１丁目２番３号２１階,,13,103,1050022,,,,,,,2025-07-29,1,,,,,セキュアモデリング,0
30,1010401192054,新規,0,2025-07-29,2025-07-29,株式会社アルカンシエル,,株式会社,東京都,港区,三田２丁目７番１－１１０５号,,13,103,1080073,,,,,,,2025-07-29,1,,,,,アルカンシエル,0
31,1010401192070,新規,0,2025-07-29,2025-07-29,株式会社地域医療革新機構,,株式会社,東京都,港区,虎ノ門５丁目９番１号麻布台ヒルズガーデンプラザＢ３階３０８号室,,13,103,1050001,,,,,,,2025-07-29,1,,,,,チイキイリョウカクシンキコウ,0
32,1010401192112,新規,0,2025-07-29,2025-07-29,株式会社倉持,,株式会社,東京都,港区,北青山１丁目３－３三橋ビル３階,,13,103,1070061,,,,,,,2025-07-29,1,,,,,クラモチ,0
33,1010401192120,新規,0,2025-07-29,2025-07-29,ＬＳ‐ＳＨＩＰ第７９号株式会社,,株式会社,東京都,港区,六本木１丁目６番１号,,13,103,1060032,,,,,,,2025-07-29,1,,,,,エルエスシップダイナナジュウキュウゴウ,0
34,1010401192129,新規,0,2025-07-29,2025-07-29,ＬＳ‐Ａｖｉａｔｉｏｎ第８３号株式会社,,株式会社,東京都,港区,六本木１丁目６番１号,,13,103,1060032,,,,,,,2025-07-29,1,,,,,エルエスアビエーションダイハチジュウサンゴウ,0
41,1010503007928,新規,0,2025-07-29,2025-07-29,合同会社おもち企画,,合同会社,東京都,台東区,千束４丁目４８番４号,,13,106,1110031,,,,,,,2025-07-29,1,,,,,オモチキカク,0
43,1010701048071,新規,0,2025-07-29,2025-07-29,ＺＥＲＯハラスメント株式会社,,株式会社,東京都,品川区,東大井５丁目１４番１１号,,13,109,1400011,,,,,,,2025-07-29,1,,,,,ゼロハラスメント,0
45,1010903010127,新規,0,2025-07-29,2025-07-29,合同会社ＫＳ,,合同会社,東京都,世田谷区,三軒茶屋１丁目１番６号,,13,112,1540024,,,,,,,2025-07-29,1,,,,,ケイエス,0
50,1011001171027,新規,0,2025-07-29,2025-07-29,株式会社リヒト,,株式会社,東京都,渋谷区,広尾１丁目１５－６ＢＲエビスＡＫビル３Ｆ,,13,113,1500012,,,,,,,2025-07-29,1,,,,,リヒト,0
51,1011001171035,新規,0,2025-07-29,2025-07-29,株式会社アールビット,,株式会社,東京都,渋谷区,桜丘町２２番２０号,,13,113,1500031,,,,,,,2025-07-29,1,,,,,アールビット,0
52,1011001171043,新規,0,2025-07-29,2025-07-29,株式会社ｅｑｕａｔｉｏｎ,,株式会社,東京都,目黒区,下目黒１丁目１番１４号コノトラビル７Ｆ,,13,110,1530064,,,,,,,2025-07-29,1,,,,,エクエイション,0
56,1011003022013,新規,0,2025-07-29,2025-07-29,合同会社じぶんサポート,,合同会社,東京都,渋谷区,神宮前６丁目２３番４号桑野ビル２Ｆ,,13,113,1500001,,,,,,,2025-07-29,1,,,,,ジブンサポート,0
57,1011003022054,新規,0,2025-07-29,2025-07-29,ケーズプロジェクト合同会社,,合同会社,東京都,渋谷区,神南１丁目１１－４ＦＰＧリンクス神南５階,,13,113,1500041,,,,,,,2025-07-29,1,,,,,ケーズプロジェクト,0
61,1011101112467,新規,0,2025-07-29,2025-07-29,株式会社セブンスセンス,,株式会社,東京都,新宿区,新宿６丁目２７－４８－１４０７,,13,104,1600022,,,,,,,2025-07-29,1,,,,,セブンスセンス,0
67,1011401027290,新規,0,2025-07-29,2025-07-29,株式会社Ｒ．Ｄ,,株式会社,東京都,板橋区,桜川２丁目１番５号ＴＯＫＹＯβ上板橋１２－２０７,,13,119,1740075,,,,,,,2025-07-29,1,,,,,アールディー,0
68,1011501032356,新規,0,2025-07-29,2025-07-29,新明株式会社,,株式会社,東京都,北区,堀船３丁目２４－４－４０３号室,,13,117,1140004,,,,,,,2025-07-29,1,,,,,シンメイ,0
69,1011501032364,新規,0,2025-07-29,2025-07-29,東昇株式会社,,株式会社,東京都,荒川区,西尾久６丁目２４番３－１０６号,,13,118,1160011,,,,,,,2025-07-29,1,,,,,トウショウ,0
70,1011801046519,新規,0,2025-07-29,2025-07-29,Ｓｙｎｖｉａ株式会社,,株式会社,東京都,葛飾区,高砂３丁目１番１３号,,13,122,1250054,,,,,,,2025-07-29,1,,,,,シンヴィア,0
71,1011803006990,新規,0,2025-07-29,2025-07-29,デイリープラス合同会社,,合同会社,東京都,葛飾区,鎌倉１丁目３９番５－２０５号恵成マンション,,13,122,1250053,,,,,,,2025-07-29,1,,,,,デイリープラス,0
75,1013301054670,新規,0,2025-07-29,2025-07-29,株式会社ＭＡＸＢＯＸ,,株式会社,東京都,豊島区,南長崎３丁目１７番１８号フラッツ南長崎１０１号室,,13,116,1710052,,,,,,,2025-07-29,1,,,,,マックスボックス,0
76,1013301054679,新規,0,2025-07-29,2025-07-29,株式会社アドバンス,,株式会社,東京都,豊島区,南大塚１丁目１３番５号リバービル３０１号,,13,116,1700005,,,,,,,2025-07-29,1,,,,,アドバンス,0
85,1021001085903,新規,0,2025-07-29,2025-07-29,株式会社エバーグリーンハウス,,株式会社,神奈川県,厚木市,林４丁目１３－１８ナルセビルＥ号室,,14,212,2430816,,,,,,,2025-07-29,1,,,,,エバーグリーンハウス,0
86,1021001085928,新規,0,2025-07-29,2025-07-29,株式会社匠架設,,株式会社,神奈川県,伊勢原市,三ノ宮４１番地の１,,14,214,2591103,,,,,,,2025-07-29,1,,,,,タクミカセツ,0
87,1021001085944,新規,0,2025-07-29,2025-07-29,株式会社ＤＡＩＳＵＫＩ　ＴＲＡＤＩＮＧ,,株式会社,神奈川県,相模原市中央区,青葉３丁目３２番３号,,14,152,2520224,,,,,,,2025-07-29,1,,,,,ダイスキトレーディング,0
89,1021003016360,新規,0,2025-07-29,2025-07-29,南関東開発合同会社,,合同会社,神奈川県,厚木市,上依知２１４番地１,,14,212,2430801,,,,,,,2025-07-29,1,,,,,ミナミカントウカイハツ,0
94,1030001167768,新規,0,2025-07-29,2025-07-29,株式会社Ｋａｍｉｋｅｎ,,株式会社,埼玉県,本庄市,見福３丁目１４番１４号,,11,211,3670044,,,,,,,2025-07-29,1,,,,,カミケン,0
95,1030001167834,新規,0,2025-07-29,2025-07-29,至禾株式会社,,株式会社,埼玉県,春日部市,赤崎８５５,,11,214,3440126,,,,,,,2025-07-29,1,,,,,シカ,0
96,1030001167842,新規,0,2025-07-29,2025-07-29,株式会社藤雅商事,,株式会社,埼玉県,上尾市,富士見２丁目１３番１７号,,11,219,3620041,,,,,,,2025-07-29,1,,,,,フジマサショウジ,0
97,1030001167850,新規,0,2025-07-29,2025-07-29,株式会社Ｒｏｏｔｓ　Ｈｏｕｓｅ,,株式会社,埼玉県,戸田市,大字新曽１２２７番地１５、１階,,11,224,3350021,,,,,,,2025-07-29,1,,,,,ルーツハウス,0
98,1030001167859,新規,0,2025-07-29,2025-07-29,株式会社Ａｅｌｙｒａ　Ｎｅｘｕｓ　Ｊａｐａｎ,,株式会社,埼玉県,川越市,大字的場２４１８番地１０（ＲＯ川越１０３－Ｕ）,,11,201,3501101,,,,,,,2025-07-29,1,,,,,アイリラネクサスジャパン,0
99,1030001167867,新規,0,2025-07-29,2025-07-29,株式会社ＢＬＵＥＳＴＯＫＥ,,株式会社,埼玉県,ふじみ野市,駒西３丁目８番３２号クレセールふじみ野１－１１１,,11,245,3560029,,,,,,,2025-07-29,1,,,,,ブルーストーク,0
101,1030003027219,新規,0,2025-07-29,2025-07-29,シオンテック合同会社,,合同会社,埼玉県,富士見市,大字東大久保１５３９番地１０,,11,235,3540001,,,,,,,2025-07-29,1,,,,,シオンテック,0
102,1030003027235,新規,0,2025-07-29,2025-07-29,合同会社長村,,合同会社,埼玉県,八潮市,伊草１丁目１０番地３３,,11,234,3400806,,,,,,,2025-07-29,1,,,,,,0
103,1030003027276,新規,0,2025-07-29,2025-07-29,合同会社ワークフェイスフリー,,合同会社,埼玉県,さいたま市見沼区,堀崎町１８４番地１,,11,104,3370052,,,,,,,2025-07-29,1,,,,,ワークフェイスフリー,0
104,1030003027284,新規,0,2025-07-29,2025-07-29,合同会社にしはら理美容院,,合同会社,埼玉県,さいたま市浦和区,仲町２丁目１７番地１１号大野ビル２階,,11,107,3300062,,,,,,,2025-07-29,1,,,,,ニシハラリビヨウイン,0
107,1040001139790,新規,0,2025-07-29,2025-07-29,株式会社豊眞,,株式会社,千葉県,市原市,能満３４３番地３,,12,219,2900011,,,,,,,2025-07-29,1,,,,,ホウマ,0
108,1040003028125,新規,0,2025-07-29,2025-07-29,合同会社スカイノート,,合同会社,千葉県,印西市,滝８８３－２０,,12,231,2702328,,,,,,,2025-07-29,1,,,,,スカイノート,0
114,1060003005659,新規,0,2025-07-29,2025-07-29,合同会社ランカオートネット,,合同会社,栃木県,宇都宮市,戸祭元町２－１５,,09,201,3200031,,,,,,,2025-07-29,1,,,,,ランカオートネット,0
115,1080001027042,新規,0,2025-07-29,2025-07-29,株式会社三十二総合研究所,,株式会社,静岡県,静岡市葵区,常磐町２丁目１１番地の２グランディオス常磐５０７号,,22,101,4200034,,,,,,,2025-07-29,1,,,,,サンジュウニソウゴウケンキュウショ,0
116,1080003003512,新規,0,2025-07-29,2025-07-29,合同会社みんと,,合同会社,静岡県,榛原郡吉田町,神戸２２８９番地,,22,424,4210304,,,,,,,2025-07-29,1,,,,,ミント,0
124,1090001019410,新規,0,2025-07-29,2025-07-29,株式会社ＣＨＡＮＣＥ,,株式会社,山梨県,甲府市,住吉５丁目４番２２号,,19,201,4000851,,,,,,,2025-07-29,1,,,,,チャンス,0
126,1100001038805,新規,0,2025-07-29,2025-07-29,株式会社深森杜．,,株式会社,長野県,安曇野市,豊科５８３４番地２,,20,220,3998205,,,,,,,2025-07-29,1,,,,,シンシント,0
131,1110001039447,新規,0,2025-07-29,2025-07-29,株式会社ＮＫサッシ,,株式会社,新潟県,新潟市西区,善久７６３番地１,,15,107,9501102,,,,,,,2025-07-29,1,,,,,エヌケーサッシ,0
132,1110001039455,新規,0,2025-07-29,2025-07-29,株式会社加藤自動車,,株式会社,新潟県,長岡市,下条町１７６１番地３,,15,202,9401146,,,,,,,2025-07-29,1,,,,,カトウジドウシャ,0
140,1120001278242,新規,0,2025-07-29,2025-07-29,株式会社ａｉｏｉ,,株式会社,大阪府,大阪市阿倍野区,阿倍野筋５丁目８番４６号,,27,119,5450052,,,,,,,2025-07-29,1,,,,,アイオイ,0
141,1120003030122,新規,0,2025-07-29,2025-07-29,合同会社とは,,合同会社,大阪府,大阪市西区,江戸堀２丁目１－１江戸堀センタービルＢ１,,27,106,5500002,,,,,,,2025-07-29,1,,,,,トワ,0
142,1120003030171,新規,0,2025-07-29,2025-07-29,合同会社長町,,合同会社,大阪府,大阪市北区,南森町１丁目４番１９号,,27,127,5300054,,,,,,,2025-07-29,1,,,,,ナガマチ,0
150,1120903005776,新規,0,2025-07-29,2025-07-29,合同会社Ｌｕｃａ,,合同会社,大阪府,豊中市,上新田４丁目３番３６号,,27,203,5600085,,,,,,,2025-07-29,1,,,,,ルカ,0
163,1140001139401,新規,0,2025-07-29,2025-07-29,株式会社創環,,株式会社,兵庫県,川西市,清和台東４丁目４番地の９１,,28,217,6660142,,,,,,,2025-07-29,1,,,,,ソウワ,0
164,1140001139434,新規,0,2025-07-29,2025-07-29,株式会社ＴＣ,,株式会社,兵庫県,西宮市,鷲林寺南町２６番１号,,28,204,6620002,,,,,,,2025-07-29,1,,,,,ティーシー,0
167,1160001026944,新規,0,2025-07-29,2025-07-29,高宮建設株式会社,,株式会社,滋賀県,彦根市,原町８００番地１１７,,25,202,5220023,,,,,,,2025-07-29,1,,,,,タカミヤケンセツ,0
169,1170001018734,新規,0,2025-07-29,2025-07-29,株式会社ｍＩｎｏＲＩ,,株式会社,和歌山県,伊都郡九度山町,大字九度山１６６３番地の１,,30,343,6480101,,,,,,,2025-07-29,1,,,,,ミノリ,0
176,1180001167852,新規,0,2025-07-29,2025-07-29,株式会社エムプラス・ネットワーク,,株式会社,愛知県,名古屋市瑞穂区,東栄町１丁目２１番地の１（プラセシオン桜山汐路６０２号）,,23,108,4670017,,,,,,,2025-07-29,1,,,,,,0
177,1180001167877,新規,0,2025-07-29,2025-07-29,株式会社ＴＳ,,株式会社,愛知県,名古屋市千種区,今池３丁目９番１３号,,23,101,4640850,,,,,,,2025-07-29,1,,,,,ティーエス,0
178,1180001167885,新規,0,2025-07-29,2025-07-29,株式会社Ｅｉｇｈｔ,,株式会社,愛知県,名古屋市東区,泉１丁目３番２９号セントレジスイズミ３０４号,,23,102,4610001,,,,,,,2025-07-29,1,,,,,エイト,0
179,1180001167893,新規,0,2025-07-29,2025-07-29,ライカ・テクノコネクティング株式会社,,株式会社,愛知県,名古屋市中村区,名駅４丁目２４番５号第２森ビル４０１,,23,105,4500002,,,,,,,2025-07-29,1,,,,,ライカテクノコネクティング,0
185,1180301040049,新規,0,2025-07-29,2025-07-29,株式会社Ｓ．Ｐ．Ｃ,,株式会社,愛知県,高浜市,稗田町３丁目７番地２０,,23,227,4441321,,,,,,,2025-07-29,1,,,,,エスピーシー,0
186,1180301040057,新規,0,2025-07-29,2025-07-29,株式会社Ｆｕｔａｗａ,,株式会社,愛知県,岡崎市,宇頭町字後久１１番地１スペクトルティアラ宇頭２０９号室,,23,202,4440905,,,,,,,2025-07-29,1,,,,,フタワ,0
189,1190001032428,新規,0,2025-07-29,2025-07-29,株式会社ＢＥＬＬＳ,,株式会社,三重県,四日市市,大字茂福１８８番地４,,24,202,5108027,,,,,,,2025-07-29,1,,,,,ベルズ,0
191,1200001044090,新規,0,2025-07-29,2025-07-29,ベルテックス株式会社,,株式会社,岐阜県,多治見市,小名田町西ケ洞１番地の６４７,,21,204,5070007,,,,,,,2025-07-29,1,,,,,ベルテックス,0
193,1220001026822,新規,0,2025-07-29,2025-07-29,ｉｎｌｉｇｈｔ　ｐａｒｔｎｅｒｓ株式会社,,株式会社,石川県,金沢市,玉鉾２丁目２９番地,,17,201,9218002,,,,,,,2025-07-29,1,,,,,インライトパートナーズ,0
202,1270001009252,新規,0,2025-07-29,2025-07-29,健康エキス株式会社,,株式会社,鳥取県,米子市,上福原６丁目４番１７号,,31,202,6830004,,,,,,,2025-07-29,1,,,,,,0
211,1290801031734,新規,0,2025-07-29,2025-07-29,株式会社ｋｅｉｓｋ,,株式会社,福岡県,北九州市小倉北区,篠崎２丁目４７番２７－１３０７号,,40,106,8030861,,,,,,,2025-07-29,1,,,,,ケイエスケー,0
214,1310003005047,新規,0,2025-07-29,2025-07-29,合同会社響宴,,合同会社,長崎県,佐世保市,天神４丁目２５番３０号,,42,202,8571174,,,,,,,2025-07-29,1,,,,,キョウエン,0
215,1320001021243,新規,0,2025-07-29,2025-07-29,株式会社プリズペイント,,株式会社,大分県,大分市,大字横尾３６４２番地の２２,,44,201,8700126,,,,,,,2025-07-29,1,,,,,プリズペイント,0
221,1330003011142,新規,0,2025-07-29,2025-07-29,合同会社クリニャンクール,,合同会社,熊本県,熊本市中央区,上通町７番５号上通ＫＩＩビル２Ｆ,00140078,43,101,8600845,,,,,,,2025-07-29,1,,,,,クリニャンクール,0
224,1360001035537,新規,0,2025-07-29,2025-07-29,株式会社Ｎ．Ｐ．Ｇ,,株式会社,沖縄県,那覇市,泊１丁目８番地１３グランシャトレ崇元寺９０２号室,,47,201,9000012,,,,,,,2025-07-29,1,,,,,エヌピージー,0
231,1400001017126,新規,0,2025-07-29,2025-07-29,株式会社Ｔｒｉａｎｇｌｅ　Ｌｉｂｅｒｔｙ,,株式会社,岩手県,花巻市,石鳥谷町西中島第４地割８４－２,,03,205,0283162,,,,,,,2025-07-29,1,,,,,トライアングルリバティ,0
232,1400003003512,新規,0,2025-07-29,2025-07-29,合同会社蒼ＭＵＧＥＮ龍,,合同会社,岩手県,花巻市,北笹間２１地割１８番地,,03,205,0250132,,,,,,,2025-07-29,1,,,,,ソウムゲンリュウ,0
239,1430003017939,新規,0,2025-07-29,2025-07-29,ＤｅａｒＤｉｓｈ合同会社,,合同会社,北海道,石狩郡当別町,若葉１３６８番８５,,01,303,0610204,,,,,,,2025-07-29,1,,,,,ディアディッシュ,0
241,1440001009656,新規,0,2025-07-29,2025-07-29,ＭＩＲＡ株式会社,,株式会社,北海道,函館市,美原２丁目５－２８,,01,202,0410806,,,,,,,2025-07-29,1,,,,,ミラ,0
245,1470001020825,新規,0,2025-07-29,2025-07-29,株式会社絆,,株式会社,香川県,善通寺市,大麻町１９６７番地２,,37,204,7650052,,,,,,,2025-07-29,1,,,,,,0
247,1480001012904,新規,0,2025-07-29,2025-07-29,株式会社Ｇ‐ｌｉｎｅ,,株式会社,徳島県,徳島市,応神町古川字鯛ノ浜添１９番地の８,,36,201,7711151,,,,,,,2025-07-29,1,,,,,ジーライン,0
249,1700150131548,新規,0,2025-07-29,2025-07-29,ｓｈａｎｇｈａｉｙｉｋｅｊｉａｏｙｕｋｅｊｉｙｏｕｘｉａｎｇｏｎｇｓｉ,,外国会社等,,,,,,,,３５８ｈａｏ５０１ｓｈｉ　Ｓｏｎｇｊｉａｎｇｑｕｌｅｄｕｌｕ　Ｓｈａｎｇｈａｉｓｈｉ,,,,,,2025-07-29,1,,,,,シャンハイイカジャオユカギユウゲンコウシ,0
260,2010001257149,新規,0,2025-07-29,2025-07-29,カロンホールディングス株式会社,,株式会社,東京都,千代田区,霞が関３丁目２番５号,,13,101,1000013,,,,,,,2025-07-29,1,,,,,カロンホールディングス,0
261,2010001257173,新規,0,2025-07-29,2025-07-29,株式会社Ｓｅｅｅｎｇ,,株式会社,東京都,千代田区,神田三崎町２丁目１７－８ドメス水道橋２Ｆ,,13,101,1010061,,,,,,,2025-07-29,1,,,,,シーイング,0
262,2010001257231,新規,0,2025-07-29,2025-07-29,株式会社ＧＲＡＣＩＡＳ,,株式会社,東京都,千代田区,神田小川町３丁目２８番地５ａｘｌｅ御茶ノ水,,13,101,1010052,,,,,,,2025-07-29,1,,,,,グラシアス,0
263,2010001257264,新規,0,2025-07-29,2025-07-29,ここから株式会社,,株式会社,東京都,中央区,新富１丁目５番１号,,13,102,1040041,,,,,,,2025-07-29,1,,,,,ココカラ,0
264,2010001257280,新規,0,2025-07-29,2025-07-29,エムキャップ十九号株式会社,,株式会社,東京都,千代田区,丸の内２丁目７番２号,,13,101,1000005,,,,,,,2025-07-29,1,,,,,エムキャップジュウキュウゴウ,0
265,2010001257289,新規,0,2025-07-29,2025-07-29,株式会社ＴＫ‐Ｗｏｒｋｓ,,株式会社,東京都,文京区,湯島３丁目１６－１３－８０２,,13,105,1130034,,,,,,,2025-07-29,1,,,,,ティーケーワークス,0
266,2010003048166,新規,0,2025-07-29,2025-07-29,合同会社ブループリント,,合同会社,東京都,中央区,日本橋室町１丁目１１番１２号日本橋水野ビル７階,,13,102,1030022,,,,,,,2025-07-29,1,,,,,ブループリント,0
269,2010101016792,新規,0,2025-07-29,2025-07-29,白金メンテ株式会社,,株式会社,東京都,八王子市,楢原町８５７番２,,13,201,1930803,,,,,,,2025-07-29,1,,,,,ハッキンメンテ,0
277,2010401192045,新規,0,2025-07-29,2025-07-29,株式会社Ｑｕｅｓｔ,,株式会社,東京都,港区,西麻布１丁目２番１２－４０１号,,13,103,1060031,,,,,,,2025-07-29,1,,,,,クエスト,0
278,2010401192053,新規,0,2025-07-29,2025-07-29,株式会社ｓｔｏｉｃｉｓｍ,,株式会社,東京都,港区,三田２丁目１番２８号パークマンション三田綱町ザフォレスト７１０,,13,103,1080073,,,,,,,2025-07-29,1,,,,,ストイシズム,0
279,2010401192128,新規,0,2025-07-29,2025-07-29,ＬＳ‐Ａｖｉａｔｉｏｎ第８２号株式会社,,株式会社,東京都,港区,六本木１丁目６番１号,,13,103,1060032,,,,,,,2025-07-29,1,,,,,エルエスアビエーションダイハチジュウニゴウ,0
281,2010403035689,新規,0,2025-07-29,2025-07-29,メディレック合同会社,,合同会社,東京都,港区,南青山２丁目２番１５号ウィン青山９４２,,13,103,1070062,,,,,,,2025-07-29,1,,,,,メディレック,0
282,2010403035714,新規,0,2025-07-29,2025-07-29,ＰＪＭＦ　Ｖｅｇａ　ＭＬ合同会社,,合同会社,東京都,港区,元赤坂１丁目１番７－８０７号,,13,103,1070051,,,,,,,2025-07-29,1,,,,,ピージェイエムエフベガエムエル,0
285,2010501054483,新規,0,2025-07-29,2025-07-29,Ｓａｎｇａｔｅ株式会社,,株式会社,東京都,台東区,清川１丁目２１－５ＷＡＬＬａｐａｒｔｍｅｎｔ５階大区画号室,,13,106,1110022,,,,,,,2025-07-29,1,,,,,サンゲート,0
287,2010503007927,新規,0,2025-07-29,2025-07-29,合同会社Ｎａｕｇｈｔｙ,,合同会社,東京都,台東区,上野２丁目９番６号大和ビル４階Ａ号室,,13,106,1100005,,,,,,,2025-07-29,1,,,,,ノーティ,0
289,2010601067690,新規,0,2025-07-29,2025-07-29,奥勤日本株式会社,,株式会社,東京都,墨田区,両国１丁目１２番１２号塚田ビル３階,,13,107,1300026,,,,,,,2025-07-29,1,,,,,オウキンニホン,0
290,2010701048070,新規,0,2025-07-29,2025-07-29,株式会社ＦＲＥＸ,,株式会社,東京都,品川区,西五反田１丁目５番１号Ａ－ＰＬＡＣＥ五反田駅前４Ｆ,,13,109,1410031,,,,,,,2025-07-29,1,,,,,フレックス,0
291,2010801036413,新規,0,2025-07-29,2025-07-29,株式会社ノバナ,,株式会社,東京都,大田区,下丸子２丁目２６番１３号,,13,111,1460092,,,,,,,2025-07-29,1,,,,,ノバナ,0
294,2010901057813,新規,0,2025-07-29,2025-07-29,株式会社ｏｒａｒｅ．,,株式会社,東京都,世田谷区,深沢６丁目２５番１７号,,13,112,1580081,,,,,,,2025-07-29,1,,,,,オラレドット,0
295,2010901057821,新規,0,2025-07-29,2025-07-29,株式会社Ｏ‐ＤＥ　Ｔａｂｌｅ,,株式会社,東京都,世田谷区,上馬５丁目２６番１４－７０３号,,13,112,1540011,,,,,,,2025-07-29,1,,,,,オーデテーブル,0
299,2011001171001,新規,0,2025-07-29,2025-07-29,株式会社ＣＦｎｅｘｕｓ,,株式会社,東京都,渋谷区,円山町５番３号ＭＩＥＵＸ渋谷ビル８階,,13,113,1500044,,,,,,,2025-07-29,1,,,,,シーエフネクサス,0
300,2011001171026,新規,0,2025-07-29,2025-07-29,ｗａｒｒｉｏｒ株式会社,,株式会社,東京都,目黒区,大橋２丁目４番１８－３０７号ゾンネンハイム大橋,,13,110,1530044,,,,,,,2025-07-29,1,,,,,ウォリアー,0
301,2011003022227,新規,0,2025-07-29,2025-07-29,ＭＴＬ　Ａｓｓｅｔ　Ｍａｎａｇｅｍｅｎｔ合同会社,,合同会社,東京都,目黒区,下目黒４丁目２０番１３－１０４号,,13,110,1530064,,,,,,,2025-07-29,1,,,,,エムティーエルアセットマネジメント,0
306,2011103016137,新規,0,2025-07-29,2025-07-29,合同会社Ｂｏｏ　ｊｏｂ,,合同会社,東京都,新宿区,百人町２丁目７番１－９０４号,,13,104,1690073,,,,,,,2025-07-29,1,,,,,ブージョブ,0
308,2011403004766,新規,0,2025-07-29,2025-07-29,合同会社翔,,合同会社,東京都,板橋区,上板橋２丁目３２番１６号,,13,119,1740076,,,,,,,2025-07-29,1,,,,,ショウ,0
309,2011501032363,新規,0,2025-07-29,2025-07-29,株式会社ＡＬＮＡＳ,,株式会社,東京都,荒川区,南千住５丁目１１番３－１００３号ロイヤルハイツ第２阪上,,13,118,1160003,,,,,,,2025-07-29,1,,,,,アルナス,0
312,2011703004334,新規,0,2025-07-29,2025-07-29,合同会社ＲＵＮＺＯ,,合同会社,東京都,江戸川区,中央３丁目１３番２４－１０８号Ｎａｔｕｒａ新小岩,,13,123,1320021,,,,,,,2025-07-29,1,,,,,ランゾ,0
314,2011801046518,新規,0,2025-07-29,2025-07-29,株式会社東京お掃除ＧＯ,,株式会社,東京都,足立区,一ツ家３丁目１０番１７号ロイヤルハイツ２０２,,13,121,1210075,,,,,,,2025-07-29,1,,,,,トウキョウオソウジゴウ,0
321,2013301054686,新規,0,2025-07-29,2025-07-29,楓谷国際株式会社,,株式会社,東京都,豊島区,池袋３丁目２８番９号フラワーハイツ３０１号室,,13,116,1710014,,,,,,,2025-07-29,1,,,,,フウコクコクサイ,0
328,2020001163858,新規,0,2025-07-29,2025-07-29,株式会社Ｒｉｋｕｎａ,,株式会社,神奈川県,横浜市鶴見区,尻手１丁目１番１６－６２１号,,14,101,2300003,,,,,,,2025-07-29,1,,,,,リクナ,0
329,2020001164006,新規,0,2025-07-29,2025-07-29,株式会社横浜田中商店,,株式会社,神奈川県,横浜市保土ケ谷区,西谷２丁目３５番２８号,,14,106,2400054,,,,,,,2025-07-29,1,,,,,ヨコハマタナカショウテン,0
330,2020001164022,新規,0,2025-07-29,2025-07-29,株式会社藏方興業,,株式会社,神奈川県,川崎市川崎区,小田５丁目２１番５号,,14,131,2100846,,,,,,,2025-07-29,1,,,,,クラカタコウギョウ,0
331,2020001164047,新規,0,2025-07-29,2025-07-29,株式会社亀谷,,株式会社,神奈川県,川崎市幸区,幸町３丁目１番地１,,14,132,2120011,,,,,,,2025-07-29,1,,,,,カメタニ,0
332,2020001164063,新規,0,2025-07-29,2025-07-29,株式会社灯し火,,株式会社,神奈川県,川崎市高津区,諏訪２丁目１５番８号,,14,134,2130004,,,,,,,2025-07-29,1,,,,,トモシビ,0
342,2021003016351,新規,0,2025-07-29,2025-07-29,エス・コンサルタント合同会社,,合同会社,神奈川県,厚木市,松枝１丁目１２－２,,14,212,2430005,,,,,,,2025-07-29,1,,,,,エスコンサルタント,0
351,2030001167825,新規,0,2025-07-29,2025-07-29,株式会社ガシジャパン,,株式会社,埼玉県,川越市,大字的場８２５番地１,,11,201,3501101,,,,,,,2025-07-29,1,,,,,ガシジャパン,0
352,2030001167866,新規,0,2025-07-29,2025-07-29,株式会社渡栄,,株式会社,埼玉県,さいたま市見沼区,大字蓮沼９８８番地１５,,11,104,3370015,,,,,,,2025-07-29,1,,,,,トエイ,0
356,2040001139798,新規,0,2025-07-29,2025-07-29,Ｓ・Ａ・Ｊ株式会社,,株式会社,千葉県,四街道市,大日２９３－５－１０３,,12,228,2840001,,,,,,,2025-07-29,1,,,,,エスエイジェイ,0
365,2080001027058,新規,0,2025-07-29,2025-07-29,株式会社ＮｏＢａｃｋ,,株式会社,静岡県,静岡市葵区,吉野町４－７,,22,101,4200046,,,,,,,2025-07-29,1,,,,,ノーバック,0
369,2080403005314,新規,0,2025-07-29,2025-07-29,ＳＬ　ＭＯＴＯＲＳ合同会社,,合同会社,静岡県,袋井市,湊２３８番地の３エクシード浅羽Ｃ１０２号室,,22,216,4371115,,,,,,,2025-07-29,1,,,,,エスエルモーターズ,0
372,2100001038804,新規,0,2025-07-29,2025-07-29,株式会社ＹＯＵ　ＡＵＲＡ,,株式会社,長野県,安曇野市,三郷明盛３２８０番地１,,20,220,3998101,,,,,,,2025-07-29,1,,,,,ユオーラ,0
373,2110001039454,新規,0,2025-07-29,2025-07-29,株式会社栗山設備,,株式会社,新潟県,長岡市,西津町１９９０番地９,,15,202,9402126,,,,,,,2025-07-29,1,,,,,クリヤマセツビ,0
374,2110001039462,新規,0,2025-07-29,2025-07-29,株式会社Ｋｉｎｄｐｌｕｓ,,株式会社,新潟県,新潟市秋葉区,新津東町２丁目１１番１９号,,15,105,9560816,,,,,,,2025-07-29,1,,,,,カインドプラス,0
375,2110003005834,新規,0,2025-07-29,2025-07-29,合同会社ＡＨＭＡＤ　ＭＯＴＯＲＳ,,合同会社,新潟県,新潟市北区,島見町５２５４番地,,15,101,9503102,,,,,,,2025-07-29,1,,,,,アハマドモーターズ,0
382,2120001278118,新規,0,2025-07-29,2025-07-29,株式会社ＳＨＩＮＩＣＨＩ　ＧＲＯＵＰ,,株式会社,大阪府,大阪市生野区,田島５丁目１８番４号,,27,116,5440011,,,,,,,2025-07-29,1,,,,,シンイチグループ,0
383,2120001278225,新規,0,2025-07-29,2025-07-29,株式会社Ｎｅｂｕｌａ　Ｂｅａｕｔｙ　Ｇｌｏｂａｌ,,株式会社,大阪府,大阪市住之江区,御崎１丁目１１番１９－２１０号,,27,125,5590013,,,,,,,2025-07-29,1,,,,,ネビュラビューティーグローバル,0
384,2120001278290,新規,0,2025-07-29,2025-07-29,株式会社ｃｈｏｉｃｅ　ａｉｄ,,株式会社,大阪府,大阪市中央区,南船場２丁目１０番２７号ＥＱＵＵＳ心斎橋７０１,,27,128,5420081,,,,,,,2025-07-29,1,,,,,チョイスエイド,0
385,2120001278299,新規,0,2025-07-29,2025-07-29,ＮＰＳホールディングス株式会社,,株式会社,大阪府,大阪市西区,新町３丁目１１番５号,,27,106,5500013,,,,,,,2025-07-29,1,,,,,エヌピーエスホールディングス,0
386,2120003030022,新規,0,2025-07-29,2025-07-29,龍翔合同会社,,合同会社,大阪府,大阪市西区,本田４丁目９－２３プレステア九条５０３号室,,27,106,5500022,,,,,,,2025-07-29,1,,,,,リュウショウ,0
387,2120003030138,新規,0,2025-07-29,2025-07-29,ルートコンソーシアム合同会社,,合同会社,大阪府,大阪市北区,東天満２丁目６－１０篠原東天満ビル８０１,,27,127,5300044,,,,,,,2025-07-29,1,,,,,ルートコンソーシアム,0
388,2120003030162,新規,0,2025-07-29,2025-07-29,合同会社Ｍｉｒａ,,合同会社,大阪府,大阪市港区,弁天１丁目３番１３－８０８号,,27,107,5520007,,,,,,,2025-07-29,1,,,,,ミラ,0
390,2120105010046,新規,0,2025-07-29,2025-07-29,医療法人ケーディーシー,,その他の設立登記法人,大阪府,堺市南区,御池台３丁８番１２号,,27,145,5900134,,,,,,,2025-07-29,1,,,,,ケーディーシー,0
391,2120903005775,新規,0,2025-07-29,2025-07-29,合同会社アセットブースティング,,合同会社,大阪府,茨木市,並木町１９番１２号,,27,211,5670892,,,,,,,2025-07-29,1,,,,,アセットブースティング,0
399,2140001139409,新規,0,2025-07-29,2025-07-29,株式会社ＧＴＢ,,株式会社,兵庫県,加古川市,平岡町土山１２７番地の６,,28,210,6750104,,,,,,,2025-07-29,1,,,,,ジーティービー,0
400,2140001139417,新規,0,2025-07-29,2025-07-29,株式会社かたりべ堂,,株式会社,兵庫県,宝塚市,野上１丁目１番８号まちかど農園ＰＯＳＴＯ内,,28,214,6650022,,,,,,,2025-07-29,1,,,,,カタリベドウ,0
403,2140005027576,新規,0,2025-07-29,2025-07-29,一般社団法人たじまの輪,,その他の設立登記法人,兵庫県,養父市,浅野９番地３,,28,222,6670103,,,,,,,2025-07-29,1,,,,,タジマノワ,0
404,2160001026927,新規,0,2025-07-29,2025-07-29,株式会社ビーチウィステリア,,株式会社,滋賀県,大津市,真野５丁目３１番１７号,,25,201,5200232,,,,,,,2025-07-29,1,,,,,ビーチウィステリア,0
408,2170003002248,新規,0,2025-07-29,2025-07-29,合同会社ＤＩＫＥ　ＴＳＵＪＩＯＫＡ,,合同会社,和歌山県,和歌山市,梶取３１６－３４,,30,201,6408411,,,,,,,2025-07-29,1,,,,,ダイキツジオカ,0
409,2180001167785,新規,0,2025-07-29,2025-07-29,カボアカ株式会社,,株式会社,愛知県,名古屋市昭和区,福江２丁目９番３３号名古屋ビジネスインキュベータ白金２３４室,,23,107,4660059,,,,,,,2025-07-29,1,,,,,カボアカ,0
410,2180001167843,新規,0,2025-07-29,2025-07-29,株式会社グローバルグロー,,株式会社,愛知県,名古屋市中村区,名駅４丁目２４番５号第２森ビル４０１,,23,105,4500002,,,,,,,2025-07-29,1,,,,,グローバルグロー,0
411,2180001167876,新規,0,2025-07-29,2025-07-29,株式会社レオン,,株式会社,愛知県,名古屋市中区,大須２丁目２５番１２号,,23,106,4600011,,,,,,,2025-07-29,1,,,,,レオン,0
412,2180003028779,新規,0,2025-07-29,2025-07-29,合同会社ＹＭ商事,,合同会社,愛知県,名古屋市中川区,中郷３丁目３２９番地,,23,110,4540921,,,,,,,2025-07-29,1,,,,,ワイエムショウジ,0
419,2190001032427,新規,0,2025-07-29,2025-07-29,株式会社ＳＡＭＵＲＡＩ　ＢＥＥＦ,,株式会社,三重県,津市,高茶屋１丁目３－３７,,24,201,5140819,,,,,,,2025-07-29,1,,,,,サムライビーフ,0
423,2220001026821,新規,0,2025-07-29,2025-07-29,株式会社ミレイヴ,,株式会社,石川県,小松市,沖町ソ６４番地２,,17,203,9230861,,,,,,,2025-07-29,1,,,,,ミレイヴ,0
432,2240001065289,新規,0,2025-07-29,2025-07-29,株式会社ＯＨＡＮＡ,,株式会社,広島県,広島市中区,小町９番１６－６０１号,,34,101,7300041,,,,,,,2025-07-29,1,,,,,オハナ,0
437,2260001040389,新規,0,2025-07-29,2025-07-29,株式会社ＩＴＳＭ,,株式会社,岡山県,津山市,横山５５１番地,,33,203,7080862,,,,,,,2025-07-29,1,,,,,アイティーエスエム,0
450,2290803005116,新規,0,2025-07-29,2025-07-29,合同会社辰気,,合同会社,福岡県,北九州市八幡西区,南八千代町８番３１号,,40,109,8060024,,,,,,,2025-07-29,1,,,,,タツキ,0
468,2410001014204,新規,0,2025-07-29,2025-07-29,丸力木材株式会社,,株式会社,秋田県,能代市,浅内字船沢７４番地５,,05,202,0160179,,,,,,,2025-07-29,1,,,,,マルリキモクザイ,0
471,2450001014687,新規,0,2025-07-29,2025-07-29,株式会社ＹｕｕｒｕＹｕｍｅ,,株式会社,北海道,富良野市,末広町７番２５号,,01,229,0760011,,,,,,,2025-07-29,1,,,,,ユールユム,0
472,2450003002698,新規,0,2025-07-29,2025-07-29,合同会社新野水道,,合同会社,北海道,天塩郡豊富町,字豊富西三条７丁目２０１０番地２５,,01,516,0984113,,,,,,,2025-07-29,1,,,,,シンノスイドウ,0
473,2460001006023,新規,0,2025-07-29,2025-07-29,株式会社カイトーホールディングス,,株式会社,北海道,釧路市,昭和南４丁目２５番１７号,,01,206,0840909,,,,,,,2025-07-29,1,,,,,カイトーホールディングス,0
475,2470001020816,新規,0,2025-07-29,2025-07-29,株式会社ＣＯＲＲＥＣＴ,,株式会社,香川県,高松市,太田下町２３２９番地９ダイアパレス太田第６　１０２号,,37,201,7618073,,,,,,,2025-07-29,1,,,,,コレクト,0
476,2470001020824,新規,0,2025-07-29,2025-07-29,べじふるぱっく株式会社,,株式会社,香川県,さぬき市,志度３３００番地１３,,37,206,7692101,,,,,,,2025-07-29,1,,,,,ベジフルパック,0
479,2480001012903,新規,0,2025-07-29,2025-07-29,株式会社ＯＮＴ,,株式会社,徳島県,徳島市,大原町中須６１番地４,,36,201,7708012,,,,,,,2025-07-29,1,,,,,オーエヌティー,0
484,2480003002299,新規,0,2025-07-29,2025-07-29,合同会社ＣＨＯＣＯ　ＬＩＱＵＩ,,合同会社,徳島県,徳島市,住吉１丁目７番２８－５号,,36,201,7700861,,,,,,,2025-07-29,1,,,,,チョコリキ,0
489,2500001026438,新規,0,2025-07-29,2025-07-29,佐藤工業株式会社,,株式会社,愛媛県,西条市,朔日市４２２番地５,,38,206,7930027,,,,,,,2025-07-29,1,,,,,サトウコウギョウ,0
490,2500003003559,新規,0,2025-07-29,2025-07-29,ＦｏｏｄＳｍａｒｔ合同会社,,合同会社,愛媛県,今治市,大西町別府３４８番地５,,38,202,7992209,,,,,,,2025-07-29,1,,,,,フードスマート,0
491,2700150115707,新規,0,2025-07-29,2023-04-25,倉敷市立自然史博物館友の会,,その他,岡山県,倉敷市,中央２丁目６－１倉敷市立自然史博物館館内,,33,202,7100046,,,,,,,2023-04-25,1,,,,,クラシキシリツシゼンシハクブツカントモノカイ,0
492,2700150131547,新規,0,2025-07-29,2025-07-29,Ｇｕａｎｇｚｈｏｕ　Ｃｈｅｎｇｘｕｗａｎｇｌｕｏ　Ｋｅｊｉｙｏｕｘｉａｎｇｏｎｇｓｉ,,外国会社等,,,,,,,,Ｇｕａｎｇｚｈｏｕｓｈｉ　Ｔｉａｎｈｅｑｕ　Ｈｕａｎｇｃｕｎｌｕｚｉｂｉａｎ８ｈａｏｅｒｌｏｕＣ３１１,,,,,,2025-07-29,1,,,,,コウシュウチェンスンワンロウカギユウゲンコウシ,0
497,3010001257081,新規,0,2025-07-29,2025-07-29,株式会社未来駆,,株式会社,東京都,中央区,日本橋室町１丁目１１番１２号日本橋水野ビル７階,,13,102,1030022,,,,,,,2025-07-29,1,,,,,ミライク,0
498,3010001257131,新規,0,2025-07-29,2025-07-29,ＣＯ　ＣＨＵＮＧ　ＪＰ株式会社,,株式会社,東京都,文京区,関口１丁目２４番８号,,13,105,1120014,,,,,,,2025-07-29,1,,,,,コーチュンジェイピー,0
499,3010001257189,新規,0,2025-07-29,2025-07-29,株式会社カタリストアカデミー,,株式会社,東京都,千代田区,神田猿楽町２丁目８番１１号,,13,101,1010064,,,,,,,2025-07-29,1,,,,,カタリストアカデミー,0
500,3010001257197,新規,0,2025-07-29,2025-07-29,株式会社Ｓｈｉｎｅ　Ｉｎｓｕｒａｎｃｅ,,株式会社,東京都,千代田区,神田三崎町２丁目１２番９号,,13,101,1010061,,,,,,,2025-07-29,1,,,,,シャインインシュアランス,0
501,3010001257206,新規,0,2025-07-29,2025-07-29,株式会社グロウニーク,,株式会社,東京都,中央区,銀座１丁目１２番４号Ｎ＆Ｅ・ＢＬＤ．６Ｆ,,13,102,1040061,,,,,,,2025-07-29,1,,,,,グロウニーク,0
504,3010003048165,新規,0,2025-07-29,2025-07-29,あおいコンサルティング合同会社,,合同会社,東京都,文京区,小石川４丁目１６番１３－２０１号,,13,105,1120002,,,,,,,2025-07-29,1,,,,,アオイコンサルティング,0
507,3010005040450,新規,0,2025-07-29,2025-07-29,一般社団法人ＤＬＭＡロジスティクス,,その他の設立登記法人,東京都,千代田区,丸の内１丁目４番１号東京共同会計事務所内,,13,101,1000005,,,,,,,2025-07-29,1,,,,,ディーエルエムエーロジスティクス,0
510,3010101016791,新規,0,2025-07-29,2025-07-29,株式会社ｉＮｉｘｉａ,,株式会社,東京都,八王子市,鑓水２０１１番地１,,13,201,1920375,,,,,,,2025-07-29,1,,,,,イニシア,0
514,3010401191913,新規,0,2025-07-29,2025-07-29,株式会社オクタス,,株式会社,東京都,港区,北青山１丁目３番１号アールキューブ青山３階,,13,103,1070061,,,,,,,2025-07-29,1,,,,,オクタス,0
515,3010401192036,新規,0,2025-07-29,2025-07-29,株式会社Ｙｕｌ,,株式会社,東京都,港区,南青山４丁目８番２号,,13,103,1070062,,,,,,,2025-07-29,1,,,,,ユル,0
516,3010401192044,新規,0,2025-07-29,2025-07-29,株式会社Ｄｏｕｂｌｅ　ＵＰ,,株式会社,東京都,港区,赤坂４丁目８番１９号赤坂フロントタウン３階,,13,103,1070052,,,,,,,2025-07-29,1,,,,,ダブルアップ,0
517,3010401192060,新規,0,2025-07-29,2025-07-29,ＳＨＥＲＰＡ株式会社,,株式会社,東京都,港区,北青山１丁目３番１号アールキューブ青山３階,,13,103,1070061,,,,,,,2025-07-29,1,,,,,シェルパ,0
518,3010401192093,新規,0,2025-07-29,2025-07-29,株式会社ＣＡＳＥ　ＳＴＵＤＹ２,,株式会社,東京都,港区,南青山５丁目１５番９号,,13,103,1070062,,,,,,,2025-07-29,1,,,,,ケーススタディツー,0
519,3010401192127,新規,0,2025-07-29,2025-07-29,ＬＳ‐Ａｖｉａｔｉｏｎ第８１号株式会社,,株式会社,東京都,港区,六本木１丁目６番１号,,13,103,1060032,,,,,,,2025-07-29,1,,,,,エルエスアビエーションダイハチジュウイチゴウ,0
521,3010403035688,新規,0,2025-07-29,2025-07-29,合同会社石川百貨店,,合同会社,東京都,港区,白金３丁目３－７利久ビル１階キッチン７,,13,103,1080072,,,,,,,2025-07-29,1,,,,,イシカワヒャッカテン,0
522,3010403035713,新規,0,2025-07-29,2025-07-29,ＰＪＭＦ　Ｖｅｇａ合同会社,,合同会社,東京都,港区,元赤坂１丁目１番７－８０７号,,13,103,1070051,,,,,,,2025-07-29,1,,,,,ピージェイエムエフベガ,0
529,3010601067681,新規,0,2025-07-29,2025-07-29,ＩＳＥＫＡＩ株式会社,,株式会社,東京都,江東区,大島４丁目１２番９号,,13,108,1360072,,,,,,,2025-07-29,1,,,,,イセカイ,0
533,3010901057812,新規,0,2025-07-29,2025-07-29,株式会社Ｐｕｓｈ　ｕｐ,,株式会社,東京都,世田谷区,太子堂４丁目１８番１５号マガザン三軒茶屋２・３Ｆ－３,,13,112,1540004,,,,,,,2025-07-29,1,,,,,プッシュアップ,0
534,3010901057820,新規,0,2025-07-29,2025-07-29,株式会社清水梶三郎商店,,株式会社,東京都,世田谷区,世田谷２丁目２９番１０号,,13,112,1540017,,,,,,,2025-07-29,1,,,,,シミズカジサブロウショウテン,0
540,3011001170596,新規,0,2025-07-29,2025-07-29,株式会社ＭＯＶＥ　ＧＯＬＦ＆ＣＯ．,,株式会社,東京都,渋谷区,円山町５番５号Ｎａｖｉ渋谷Ｖ３階,00140081,13,113,1500044,,,,,,,2025-07-29,1,,,,,ムーブゴルフアンドコー,0
541,3011001171009,新規,0,2025-07-29,2025-07-29,株式会社ワールドオーキッド,,株式会社,東京都,目黒区,目黒３丁目１番１３－６０１号,,13,110,1530063,,,,,,,2025-07-29,1,,,,,ワールドオーキッド,0
542,3011001171041,新規,0,2025-07-29,2025-07-29,株式会社ＨｕＸ,,株式会社,東京都,渋谷区,神南１丁目１１－４ＦＰＧリンクス神南５階,,13,113,1500041,,,,,,,2025-07-29,1,,,,,ヒュークス,0
543,3011003022077,新規,0,2025-07-29,2025-07-29,合同会社エムディオーコネクション,,合同会社,東京都,目黒区,青葉台１丁目２３番１４号５Ｆ,,13,110,1530042,,,,,,,2025-07-29,1,,,,,エムディオーコネクション,0
545,3011101112366,新規,0,2025-07-29,2025-07-29,株式会社エージェントＩＧホールディングス,,株式会社,東京都,新宿区,市谷本村町３番２９号,,13,104,1620845,,,,,,,2025-07-29,1,,,,,エージェントアイジーホールディングス,0
546,3011103016144,新規,0,2025-07-29,2025-07-29,ｎａｎａ．ｐｅｔ合同会社,,合同会社,東京都,新宿区,市谷田町２丁目７番地東ビル５階,,13,104,1620843,,,,,,,2025-07-29,1,,,,,ナナペット,0
547,3011103016160,新規,0,2025-07-29,2025-07-29,合同会社富士山の宮社,,合同会社,東京都,新宿区,西新宿３丁目３番１３号西新宿水間ビル６階,,13,104,1600023,,,,,,,2025-07-29,1,,,,,フジサンノミヤシャ,0
551,3011401027289,新規,0,2025-07-29,2025-07-29,光啓商事株式会社,,株式会社,東京都,板橋区,蓮沼町５番３号２０３号室,,13,119,1740052,,,,,,,2025-07-29,1,,,,,コウケイ,0
553,3011501032362,新規,0,2025-07-29,2025-07-29,株式会社遊スタディ,,株式会社,東京都,北区,王子３丁目１０番９－４０１号Ｈ・Ｍフラット,,13,117,1140002,,,,,,,2025-07-29,1,,,,,ユウスタディ,0
558,3011801046517,新規,0,2025-07-29,2025-07-29,株式会社ＲＩＴＡ,,株式会社,東京都,足立区,東和３丁目１３番１号,,13,121,1200003,,,,,,,2025-07-29,1,,,,,リタ,0
560,3012401043400,新規,0,2025-07-29,2025-07-29,株式会社タカハシ設備,,株式会社,東京都,多摩市,和田１番地の１３,,13,224,2060001,,,,,,,2025-07-29,1,,,,,タカハシセツビ,0
564,3012803003811,新規,0,2025-07-29,2025-07-29,ＩＮＦＩＮＩＴＥ合同会社,,合同会社,東京都,立川市,錦町１丁目１５番２９号マイステージ立川２１０号,,13,202,1900022,,,,,,,2025-07-29,1,,,,,インフィニット,0
565,3013301054677,新規,0,2025-07-29,2025-07-29,ＹＵＹＡ　ＷＯＲＬＤ株式会社,,株式会社,東京都,豊島区,巣鴨３丁目１９番１３号桜花苑ビルＢ１０１,,13,116,1700002,,,,,,,2025-07-29,1,,,,,ユヤワールド,0
570,3020001164005,新規,0,2025-07-29,2025-07-29,株式会社山恒,,株式会社,神奈川県,横浜市金沢区,釜利谷東４丁目３８番２２号,,14,108,2360042,,,,,,,2025-07-29,1,,,,,ヤマコウ,0
571,3020001164070,新規,0,2025-07-29,2025-07-29,株式会社ＳＫＹ,,株式会社,神奈川県,横浜市南区,井土ケ谷下町５番地１０井土ケ谷パークホームズ５０３,,14,105,2320053,,,,,,,2025-07-29,1,,,,,スカイ,0
572,3020001164087,新規,0,2025-07-29,2025-07-29,株式会社Ｎｏｄｅ,,株式会社,神奈川県,横浜市金沢区,並木２丁目１２番９－２０１号,,14,108,2360005,,,,,,,2025-07-29,1,,,,,ノード,0
573,3020003029016,新規,0,2025-07-29,2025-07-29,ツナグノバ合同会社,,合同会社,神奈川県,川崎市宮前区,馬絹４丁目１２番２７号,,14,136,2160035,,,,,,,2025-07-29,1,,,,,ツナグノバ,0
574,3021001085926,新規,0,2025-07-29,2025-07-29,株式会社エスペランサ,,株式会社,神奈川県,横須賀市,公郷町２丁目１６番地８グロリアスハイツ２０３,,14,201,2380022,,,,,,,2025-07-29,1,,,,,エスペランサ,0
577,3021003016334,新規,0,2025-07-29,2025-07-29,合同会社ＬｅａＬｅａ,,合同会社,神奈川県,藤沢市,柄沢２丁目１２番地の４,,14,205,2510003,,,,,,,2025-07-29,1,,,,,レアレア,0
589,3040001139780,新規,0,2025-07-29,2025-07-29,株式会社Ｇｉｅｒ,,株式会社,千葉県,市川市,大洲１丁目２番１８号,,12,203,2720032,,,,,,,2025-07-29,1,,,,,ギア,0
590,3040001139847,新規,0,2025-07-29,2025-07-29,株式会社高齢研,00140083,株式会社,千葉県,市川市,平田２丁目２２番３－１００２号,,12,203,2720031,,,,,,,2025-07-29,1,,,,,コウレイケン,0
594,3040003028107,新規,0,2025-07-29,2025-07-29,Ｆｌｏｒａｓｉａ　Ｃｏｎｓｕｌｔｉｎｇ合同会社,,合同会社,千葉県,千葉市美浜区,打瀬３丁目１番地１幕張ビーチテラス１１１２号,,12,106,2610013,,,,,,,2025-07-29,1,,,,,フローラジアコンサルティング,0
598,3070001043187,新規,0,2025-07-29,2025-07-29,Ｉ・Ｊ・Ｇ株式会社,,株式会社,群馬県,伊勢崎市,除ケ町３８８番地６,,10,204,3720832,,,,,,,2025-07-29,1,,,,,アイジェイジー,0
599,3070003006019,新規,0,2025-07-29,2025-07-29,合同会社Ｙｕｍｅ　Ｍｏｔｏｒｓ　Ｌａｎｋａ,,合同会社,群馬県,桐生市,小曽根町１０番２１－７号室,,10,203,3760000,,,,,,,2025-07-29,1,,,,,ユメモータースランカ,0
604,3080403005321,新規,0,2025-07-29,2025-07-29,合同会社リヴァル,,合同会社,静岡県,浜松市中央区,和合町９３６番地の２６２クレストールアイリスＢ２０１,,22,138,4338125,,,,,,,2025-07-29,1,,,,,リヴァル,0
607,3100001038803,新規,0,2025-07-29,2025-07-29,株式会社Ｌｉｖｅ　Ｏｕｒ　Ｊｏｕｒｎｅｙｓホールディングス,,株式会社,長野県,茅野市,宮川１３８７番地９,,20,214,3910013,,,,,,,2025-07-29,1,,,,,リブアワージャーニーズホールディングス,0
608,3100003008309,新規,0,2025-07-29,2025-07-29,合同会社あんどう相談支援事業所,,合同会社,長野県,松本市,村井町南１丁目１７番４６号,,20,202,3990036,,,,,,,2025-07-29,1,,,,,アンドウソウダンシエンジギョウショ,0
609,3110001039453,新規,0,2025-07-29,2025-07-29,株式会社ウエル・サポート,,株式会社,新潟県,五泉市,山崎１４５３番地１,,15,218,9591856,,,,,,,2025-07-29,1,,,,,ウエルサポート,0
610,3110003005833,新規,0,2025-07-29,2025-07-29,Ｄａｊａ　Ｈｏｓｐｉｔａｌｉｔｙ合同会社,,合同会社,新潟県,妙高市,大字田口１３９４番地Ｃａｎａｄｉａｎ・Ｈｏｕｓｅ,,15,217,9492106,,,,,,,2025-07-29,1,,,,,ダジャホスピタリティ,0
614,3120001278240,新規,0,2025-07-29,2025-07-29,株式会社ＤＢＣ,,株式会社,大阪府,大阪市浪速区,恵美須東１丁目１７－９,,27,111,5560002,,,,,,,2025-07-29,1,,,,,ディビーシー,0
615,3120001278265,新規,0,2025-07-29,2025-07-29,株式会社ララスタイル,,株式会社,大阪府,大阪市阿倍野区,阿倍野筋３丁目１０番１号,,27,119,5450052,,,,,,,2025-07-29,1,,,,,ララスタイル,0
618,3120003030129,新規,0,2025-07-29,2025-07-29,初禾合同会社,,合同会社,大阪府,大阪市浪速区,日本橋５丁目１４番２号大協ビル３階３１号室,,27,111,5560005,,,,,,,2025-07-29,1,,,,,ハツイネ,0
619,3120005025052,新規,0,2025-07-29,2025-07-29,一般社団法人やまゆり会,,その他の設立登記法人,大阪府,大阪市平野区,長吉長原１丁目５番３１号,,27,126,5470016,,,,,,,2025-07-29,1,,,,,ヤマユリカイ,0
620,3120005025069,新規,0,2025-07-29,2025-07-29,税理士法人エムケーパートナーズ,,その他の設立登記法人,大阪府,大阪市中央区,淡路町２丁目１番１号,,27,128,5410047,,,,,,,2025-07-29,1,,,,,エムケーパートナーズ,0
633,3120901051242,新規,0,2025-07-29,2025-07-29,ＳｍａｒｔＢｉｚ株式会社,,株式会社,大阪府,豊中市,新千里北町３丁目１番１２－２０５号,,27,203,5600081,,,,,,,2025-07-29,1,,,,,スマートビズ,0
642,3140001139416,新規,0,2025-07-29,2025-07-29,株式会社矢部正人建築設計事務所,,株式会社,兵庫県,神戸市垂水区,桃山台５丁目１４番地の１６,,28,108,6550854,,,,,,,2025-07-29,1,,,,,ヤベマサトケンチクセッケイジムショ,0
643,3140003022339,新規,0,2025-07-29,2025-07-29,丸山商店合同会社,,合同会社,兵庫県,神戸市中央区,下山手通８丁目１５－１ライオンズマンション神戸元町第三１０３号室,,28,110,6500011,,,,,,,2025-07-29,1,,,,,マルヤマショウテン,0
645,3170001018732,新規,0,2025-07-29,2025-07-29,株式会社白浜リゾート,,株式会社,和歌山県,和歌山市,十二番丁３０番地,,30,201,6408158,,,,,,,2025-07-29,1,,,,,シラハマリゾート,0
655,3180001167842,新規,0,2025-07-29,2025-07-29,Ｃｈｉｔａ　Ｔｅａｍ　Ｂｊｊ株式会社,,株式会社,愛知県,知多市,つつじが丘４丁目２０番地の１,,23,224,4780054,,,,,,,2025-07-29,1,,,,,チタチームビージェージェイ,0
656,3180001167875,新規,0,2025-07-29,2025-07-29,株式会社Ａｉｌｅ,,株式会社,愛知県,名古屋市中区,千代田４丁目１番２０号,,23,106,4600012,,,,,,,2025-07-29,1,,,,,エール,0
657,3180001167891,新規,0,2025-07-29,2025-07-29,株式会社ＮＥＷ　ＶＩＡ,,株式会社,愛知県,名古屋市中区,丸の内３丁目１９番２３号ＦＰＳビル９Ｆ,,23,106,4600002,,,,,,,2025-07-29,1,,,,,ニューヴィア,0
658,3180001167900,新規,0,2025-07-29,2025-07-29,株式会社Ｈｏａｌｌｏ,,株式会社,愛知県,名古屋市中区,丸の内２丁目７番１７号ＡＲＥＸ丸の内ＩＩ５０４号,00140084,23,106,4600002,,,,,,,2025-07-29,1,,,,,ホアロ,0
659,3180001167982,新規,0,2025-07-29,2025-07-29,株式会社ＺＵＩＫＯＨ,,株式会社,愛知県,半田市,西大矢知町１丁目９６番地の８,,23,205,4750007,,,,,,,2025-07-29,1,,,,,ズイコウ,0
665,3180301040063,新規,0,2025-07-29,2025-07-29,株式会社ラブリエクスリゾート,,株式会社,愛知県,岡崎市,下青野町字番城１５－３,,23,202,4440244,,,,,,,2025-07-29,1,,,,,ラブリエクスリゾート,0
669,3190001032434,新規,0,2025-07-29,2025-07-29,株式会社ＡＬＳ,,株式会社,三重県,津市,白山町二本木７７２番地１,,24,201,5152602,,,,,,,2025-07-29,1,,,,,エーエルエス,0
671,3200001044072,新規,0,2025-07-29,2025-07-29,東立成株式会社,,株式会社,岐阜県,美濃加茂市,山之上町１２１２番地,,21,211,5050003,,,,,,,2025-07-29,1,,,,,トウリセイ,0
672,3200003006938,新規,0,2025-07-29,2025-07-29,合同会社焔,,合同会社,岐阜県,不破郡垂井町,宮代２２４４番地の４,,21,361,5032124,,,,,,,2025-07-29,1,,,,,ホムラ,0
675,3220001026820,新規,0,2025-07-29,2025-07-29,トラストボンボン株式会社,,株式会社,石川県,金沢市,高柳町１３の１番地５５,,17,201,9200005,,,,,,,2025-07-29,1,,,,,トラストボンボン,0
677,3230003002471,新規,0,2025-07-29,2025-07-29,玲華合同会社,,合同会社,富山県,下新川郡入善町,入膳７０６２‐２,,16,342,9390626,,,,,,,2025-07-29,1,,,,,レイカ,0
682,3250001021273,新規,0,2025-07-29,2025-07-29,株式会社ネクサス,,株式会社,山口県,玖珂郡和木町,和木５丁目６番４２－１０３号,,35,321,7400061,,,,,,,2025-07-29,1,,,,,ネクサス,0
691,3290001110956,新規,0,2025-07-29,2025-07-29,株式会社ゼロアス,,株式会社,福岡県,糟屋郡篠栗町,田中１丁目５番３４－２０３号,,40,342,8112416,,,,,,,2025-07-29,1,,,,,ゼロアス,0
693,3290803005115,新規,0,2025-07-29,2025-07-29,合同会社言の葉,,合同会社,福岡県,北九州市八幡西区,鷹の巣１丁目８番７号,,40,109,8060047,,,,,,,2025-07-29,1,,,,,コトノハ,0
695,3310003005045,新規,0,2025-07-29,2025-07-29,フィーチャーキー合同会社,,合同会社,長崎県,西海市,西彼町八木原郷１８３７番地１,,42,212,8513423,,,,,,,2025-07-29,1,,,,,フィーチャーキー,0
697,3320001021233,新規,0,2025-07-29,2025-07-29,スマイル株式会社,,株式会社,大分県,杵築市,山香町大字野原１５０４番地２１,,44,210,8791307,,,,,,,2025-07-29,1,,,,,スマイル,0
712,3370001052884,新規,0,2025-07-29,2025-07-29,株式会社アンドエム,,株式会社,宮城県,仙台市青葉区,一番町２丁目６番１号,,04,101,9800811,,,,,,,2025-07-29,1,,,,,アンドエム,0
714,3400001017124,新規,0,2025-07-29,2025-07-29,プルサマ株式会社,,株式会社,岩手県,奥州市,胆沢南都田字下広岡３２３番地１,,03,215,0230401,,,,,,,2025-07-29,1,,,,,プルサマ,0
718,3430003017887,新規,0,2025-07-29,2025-07-29,合同会社Ｅｎｒｅｅｖｅ,,合同会社,北海道,札幌市西区,琴似一条６丁目４番１－６０３号,,01,107,0630811,,,,,,,2025-07-29,1,,,,,エンリーヴ,0
719,3450001014678,新規,0,2025-07-29,2025-07-29,株式会社フィジカルＡＩ,,株式会社,北海道,上川郡東神楽町,南一条東１丁目１－１６,,01,453,0711502,,,,,,,2025-07-29,1,,,,,フィジカルエイアイ,0
720,3460001006022,新規,0,2025-07-29,2025-07-29,株式会社エスケーワイ,,株式会社,北海道,川上郡弟子屈町,摩周１丁目１番１８号,,01,665,0883201,,,,,,,2025-07-29,1,,,,,エスケーワイ,0
726,3700150131546,新規,0,2025-07-29,2025-07-29,株式会社　オートスイング　日本支社,,外国会社等,東京都,千代田区,神田富山町７　Ｂｉｚｓｍａｒｔ神田富山町８０２,,13,101,1010043,大韓民国ソウル特別市衿川区ドゥサンロ１１ギル４９（加山洞）,,,,,,2025-07-29,1,,,,,カブシキガイシヤオートスイングニホンシシヤ,0
728,4010001257097,新規,0,2025-07-29,2025-07-29,豊安株式会社,,株式会社,東京都,千代田区,九段南２丁目１－１６パークマンション千鳥ヶ淵１３０２室,,13,101,1020074,,,,,,,2025-07-29,1,,,,,トヨヤス,0
729,4010001257196,新規,0,2025-07-29,2025-07-29,株式会社シンクオアスイムコンサルティング,,株式会社,東京都,文京区,本駒込２丁目１０番１９号,,13,105,1130021,,,,,,,2025-07-29,1,,,,,シンクオアスイムコンサルティング,0
730,4010001257205,新規,0,2025-07-29,2025-07-29,株式会社ＣＩＥＬＳＨＩＮ,,株式会社,東京都,中央区,銀座１丁目１２番４号Ｎ＆Ｅ・ＢＬＤ．６Ｆ,,13,102,1040061,,,,,,,2025-07-29,1,,,,,シエルシン,0
731,4010001257238,新規,0,2025-07-29,2025-07-29,株式会社セオコンプ,,株式会社,東京都,文京区,本郷７丁目３番１号東京大学南研究棟アントレプレナーラボ,,13,105,1130033,,,,,,,2025-07-29,1,,,,,セオコンプ,0
732,4010001257279,新規,0,2025-07-29,2025-07-29,エムキャップ十八号株式会社,,株式会社,東京都,千代田区,丸の内２丁目７番２号,,13,101,1000005,,,,,,,2025-07-29,1,,,,,エムキャップジュウハチゴウ,0
733,4010003048148,新規,0,2025-07-29,2025-07-29,ＢＥＡＣＯＮ合同会社,,合同会社,東京都,中央区,日本橋室町１丁目１１番１２号,,13,102,1030022,,,,,,,2025-07-29,1,,,,,ビーコン,0
734,4010005040359,新規,0,2025-07-29,2025-07-29,一般社団法人デジタル理学療法学会,,その他の設立登記法人,東京都,文京区,本郷３丁目２番地１２号,,13,105,1130033,,,,,,,2025-07-29,1,,,,,デジタルリガクリョウホウガッカイ,0
735,4010101016790,新規,0,2025-07-29,2025-07-29,株式会社ホシケン堂,,株式会社,東京都,八王子市,鑓水２丁目９５番１キャンバス南大沢８０８号,,13,201,1920375,,,,,,,2025-07-29,1,,,,,ホシケンドウ,0
741,4010401192051,新規,0,2025-07-29,2025-07-29,ＡｇｅｎｔＸ株式会社,,株式会社,東京都,港区,芝浦４丁目９－１８グランドパレス田町７１３,,13,103,1080023,,,,,,,2025-07-29,1,,,,,エージェントエックス,0
742,4010401192068,新規,0,2025-07-29,2025-07-29,株式会社ＴｒｕｓｔＫｅｙ,,株式会社,東京都,港区,北青山１丁目３番１号アールキューブ青山３階,,13,103,1070061,,,,,,,2025-07-29,1,,,,,トラストキー,0
743,4010401192084,新規,0,2025-07-29,2025-07-29,みそら不動産株式会社,,株式会社,東京都,港区,麻布台３丁目４番４号飯倉カムフィーホームズ４０１,,13,103,1060041,,,,,,,2025-07-29,1,,,,,ミソラフドウサン,0
744,4010401192126,新規,0,2025-07-29,2025-07-29,ＬＳ‐Ａｖｉａｔｉｏｎ第８０号株式会社,,株式会社,東京都,港区,六本木１丁目６番１号,,13,103,1060032,,,,,,,2025-07-29,1,,,,,エルエスアビエーションダイハチジュウゴウ,0
746,4010403035638,新規,0,2025-07-29,2025-07-29,アンダーカット合同会社,,合同会社,東京都,港区,南青山３丁目１番３６号６Ｆ,,13,103,1070062,,,,,,,2025-07-29,1,,,,,アンダーカット,0
747,4010501054481,新規,0,2025-07-29,2025-07-29,株式会社木下,,株式会社,東京都,台東区,東上野２丁目１２－９福星ビル１階,,13,106,1100015,,,,,,,2025-07-29,1,,,,,キノシタ,0
748,4010601067680,新規,0,2025-07-29,2025-07-29,株式会社ＨＳＳ,,株式会社,東京都,墨田区,立川３丁目１７番１０号,,13,107,1300023,,,,,,,2025-07-29,1,,,,,エイチエスエス,0
750,4010803005471,新規,0,2025-07-29,2025-07-29,合同会社ＭＩＲＡＩ　ＢＲＩＤＧＥ,,合同会社,東京都,大田区,仲六郷２丁目１８番４－２０５号,,13,111,1440055,,,,,,,2025-07-29,1,,,,,ミライブリッジ,0
756,4011001171024,新規,0,2025-07-29,2025-07-29,株式会社ＦＡＳＴ＆ＧＲＥＡＴ,,株式会社,東京都,渋谷区,円山町５番３号ＭＩＥＵＸ渋谷ビル８階,,13,113,1500044,,,,,,,2025-07-29,1,,,,,ファストアンドグレイト,0
757,4011003022068,新規,0,2025-07-29,2025-07-29,合同会社粋,,合同会社,東京都,渋谷区,道玄坂１丁目１０番８号渋谷道玄坂東急ビル２Ｆ－Ｃ,,13,113,1500043,,,,,,,2025-07-29,1,,,,,スイ,0
758,4011101112571,新規,0,2025-07-29,2025-07-29,株式会社Ｊａｐａｎ　Ｎｅｘｕｓ　Ｔｅｃｈｎｏｌｏｇｉｅｓ,,株式会社,東京都,新宿区,市谷田町３丁目８番地市ヶ谷科学技術イノベーションセンタービル１０階,,13,104,1620843,,,,,,,2025-07-29,1,,,,,ジャパンネクサステクノロジーズ,0
762,4011401027288,新規,0,2025-07-29,2025-07-29,株式会社拓豊,,株式会社,東京都,板橋区,舟渡１丁目１３番１０号アイ・タワー２階スタートオフィス７番,,13,119,1740041,,,,,,,2025-07-29,1,,,,,タクホウ,0
763,4011403004780,新規,0,2025-07-29,2025-07-29,合同会社ＲＥＳＨＩＲ,,合同会社,東京都,板橋区,中台３丁目２７番Ｊ－７０５号,,13,119,1740064,,,,,,,2025-07-29,1,,,,,ルシール,0
765,4011501032361,新規,0,2025-07-29,2025-07-29,ＬＣＧ　ＩＮＶＥＳＴＭＥＮＴ株式会社,,株式会社,東京都,荒川区,町屋３丁目１－１３－４Ｂ,,13,118,1160001,,,,,,,2025-07-29,1,,,,,エルシジーインベストメント,0
768,4011601028821,新規,0,2025-07-29,2025-07-29,株式会社ＰＲＯＳＰＥＣＴ,,株式会社,東京都,練馬区,練馬４丁目４番６号,,13,120,1760001,,,,,,,2025-07-29,1,,,,,プロスペクト,0
770,4011703004324,新規,0,2025-07-29,2025-07-29,中央国際合同会社,,合同会社,東京都,江戸川区,北小岩５丁目４－１８,,13,123,1330051,,,,,,,2025-07-29,1,,,,,チュウオウコクサイ,0
772,4011801046516,新規,0,2025-07-29,2025-07-29,株式会社ＵＮＤＥＲ　ＨＡＶＥＮ,,株式会社,東京都,葛飾区,立石８丁目３４番９号,,13,122,1240012,,,,,,,2025-07-29,1,,,,,アンダーヘイブン,0
776,4012401043399,新規,0,2025-07-29,2025-07-29,株式会社Ｍ＆Ｍ,,株式会社,東京都,三鷹市,中原４丁目１９番７号,,13,204,1810005,,,,,,,2025-07-29,1,,,,,エムアンドエム,0
780,4012801024131,新規,0,2025-07-29,2025-07-29,株式会社Ｗｏｏｄｓ　Ｈｏｕｓｅ,,株式会社,東京都,立川市,錦町１丁目５番２９号,,13,202,1900022,,,,,,,2025-07-29,1,,,,,ウッズハウス,0
785,4020001164045,新規,0,2025-07-29,2025-07-29,三友和風株式会社,,株式会社,神奈川県,横浜市中区,山下町９８ＧＳハイム山下町２１６号室,,14,104,2310023,,,,,,,2025-07-29,1,,,,,サンユウワフウ,0
792,4021001085925,新規,0,2025-07-29,2025-07-29,株式会社ＳＢＳ,,株式会社,神奈川県,横須賀市,大矢部３丁目１０番７号ホーメストハイツ５０３号,,14,201,2380024,,,,,,,2025-07-29,1,,,,,エスビーエス,0
793,4021001085933,新規,0,2025-07-29,2025-07-29,株式会社ユニバーサルマーケティング,,株式会社,神奈川県,足柄上郡松田町,寄２３９７番地,,14,363,2580001,,,,,,,2025-07-29,1,,,,,ユニバーサルマーケティング,0
798,4030001167864,新規,0,2025-07-29,2025-07-29,株式会社里山企画,,株式会社,埼玉県,さいたま市浦和区,常盤１丁目６番７号カーサビアンカＢ棟,,11,107,3300061,,,,,,,2025-07-29,1,,,,,サトヤマキカク,0
799,4030001167880,新規,0,2025-07-29,2025-07-29,ウエルスホームＨＤ株式会社,,株式会社,埼玉県,さいたま市北区,東大成町２丁目４６４番地１,,11,102,3310814,,,,,,,2025-07-29,1,,,,,ウエルスホームエイチディー,0
802,4030003027190,新規,0,2025-07-29,2025-07-29,合同会社内田商会,,合同会社,埼玉県,草加市,氷川町２１１１番地１２氷川コーポ４０２号,,11,221,3400034,,,,,,,2025-07-29,1,,,,,ウチダショウカイ,0
803,4030003027273,新規,0,2025-07-29,2025-07-29,合同会社Ｚｉｐｐｅｒ,,合同会社,埼玉県,ふじみ野市,鶴ケ岡５丁目４－１７,,11,245,3560045,,,,,,,2025-07-29,1,,,,,ジッパー,0
804,4030003027281,新規,0,2025-07-29,2025-07-29,合同会社ベクティスパートナーズ,,合同会社,埼玉県,さいたま市北区,盆栽町５１４番,,11,102,3310805,,,,,,,2025-07-29,1,,,,,ベクティスパートナーズ,0
812,4040001139796,新規,0,2025-07-29,2025-07-29,Ｕｎｉｓｏｌｖｅｒｅ株式会社,,株式会社,千葉県,浦安市,北栄２丁目８番２９－３０２号,,12,227,2790002,,,,,,,2025-07-29,1,,,,,ユニソルヴェ,0
813,4040003028139,新規,0,2025-07-29,2025-07-29,丸合同会社,,合同会社,千葉県,千葉市中央区,富士見２丁目７－９富士見ビル６階６２１号,,12,101,2600015,,,,,,,2025-07-29,1,,,,,マル,0
817,4070001043186,新規,0,2025-07-29,2025-07-29,株式会社ＩＲＯＨＡ,,株式会社,群馬県,邑楽郡千代田町,大字舞木４２３番地２,,10,523,3700504,,,,,,,2025-07-29,1,,,,,イロハ,0
819,4080001027056,新規,0,2025-07-29,2025-07-29,株式会社葵総合事務所,,株式会社,静岡県,静岡市葵区,上土１丁目１９番３６号,,22,101,4200810,,,,,,,2025-07-29,1,,,,,アオイソウゴウジムショ,0
831,4080403005320,新規,0,2025-07-29,2025-07-29,合同会社さじ,,合同会社,静岡県,掛川市,葛川２６２番地１,,22,213,4360074,,,,,,,2025-07-29,1,,,,,サジ,0
834,4090001019408,新規,0,2025-07-29,2025-07-29,株式会社ＡＫ,,株式会社,山梨県,南アルプス市,吉田２３０番地１,,19,208,4000304,,,,,,,2025-07-29,1,,,,,エーケイ,0
835,4100001038793,新規,0,2025-07-29,2025-07-29,東京０１株式会社,,株式会社,長野県,北佐久郡軽井沢町,大字軽井沢１０２０番１１,,20,321,3890102,,,,,,,2025-07-29,1,,,,,トウキョウゼロワン,0
836,4100003008316,新規,0,2025-07-29,2025-07-29,合同会社ノマドッグ,,合同会社,長野県,長野市,三輪９丁目３－９－７ドムス本郷２０２,,20,201,3800803,,,,,,,2025-07-29,1,,,,,ノマドッグ,0
844,4120001278231,新規,0,2025-07-29,2025-07-29,盛豪株式会社,,株式会社,大阪府,大阪市城東区,東中浜３丁目１２番１０号２Ｆ,,27,118,5360023,,,,,,,2025-07-29,1,,,,,セイゴウ,0
845,4120001278256,新規,0,2025-07-29,2025-07-29,株式会社ＥＡＲＮＥＳＴ,,株式会社,大阪府,大阪市福島区,吉野４丁目２４番８－２０４号,,27,103,5530006,,,,,,,2025-07-29,1,,,,,アーネスト,0
846,4120001278272,新規,0,2025-07-29,2025-07-29,Ｃｌｅａｎ　Ｈｅａｒｔ＆Ｓｋｙ株式会社,,株式会社,大阪府,大阪市淀川区,加島４丁目４番３８号アイビーハイム加島２Ｂ号室,,27,123,5320031,,,,,,,2025-07-29,1,,,,,クリーンハートアンドスカイ,0
847,4120001278289,新規,0,2025-07-29,2025-07-29,株式会社アドバンス,,株式会社,大阪府,大阪市北区,梅田１丁目２番２号大阪駅前第２ビル１２－１２,,27,127,5300001,,,,,,,2025-07-29,1,,,,,アドバンス,0
852,4120101072179,新規,0,2025-07-29,2025-07-29,株式会社ファイブリッチ,,株式会社,大阪府,貝塚市,脇濱９２４番地１４,00140089,27,208,5970000,,,,,,,2025-07-29,1,,,,,ファイブリッチ,0
862,4140001139407,新規,0,2025-07-29,2025-07-29,株式会社宍粟トラベルデザイン,,株式会社,兵庫県,宍粟市,山崎町金谷５１７番地１,,28,227,6712555,,,,,,,2025-07-29,1,,,,,シソウトラベルデザイン,0
863,4140001139423,新規,0,2025-07-29,2025-07-29,株式会社藤成不動産,,株式会社,兵庫県,神戸市中央区,籠池通３丁目３番５号,,28,110,6510053,,,,,,,2025-07-29,1,,,,,フジセイフドウサン,0
864,4140001139431,新規,0,2025-07-29,2025-07-29,株式会社小山組,,株式会社,兵庫県,丹波市,氷上町井中５７２番地,,28,223,6693632,,,,,,,2025-07-29,1,,,,,コヤマグミ,0
865,4150005009712,新規,0,2025-07-29,2025-07-29,特定非営利活動法人笑ろてんか隊,,その他の設立登記法人,奈良県,北葛城郡広陵町,馬見北９丁目２番３号,,29,426,6350831,,,,,,,2025-07-29,1,,,,,ワロテンカタイ,0
871,4180001167833,新規,0,2025-07-29,2025-07-29,株式会社ソーマテック,,株式会社,愛知県,尾張旭市,南原山町石原９３番地２,,23,226,4880067,,,,,,,2025-07-29,1,,,,,ソーマテック,0
872,4180001167874,新規,0,2025-07-29,2025-07-29,金谷株式会社,,株式会社,愛知県,弥富市,東末広１丁目１番地,,23,235,4980063,,,,,,,2025-07-29,1,,,,,カナヤ,0
873,4180001167908,新規,0,2025-07-29,2025-07-29,株式会社心リーガルサポート関東,,株式会社,愛知県,名古屋市中村区,椿町１４番１３号,,23,105,4530015,,,,,,,2025-07-29,1,,,,,ココロリーガルサポートカントウ,0
874,4180001167940,新規,0,2025-07-29,2025-07-29,株式会社Ａｄｄ‐Ｏｎ,,株式会社,愛知県,名古屋市中村区,豊国通１丁目１６番地１,,23,105,4530834,,,,,,,2025-07-29,1,,,,,アドオン,0
876,4180003028785,新規,0,2025-07-29,2025-07-29,合同会社ＧＬＯＷ,,合同会社,愛知県,名古屋市中川区,百船町２０番１１号－５０１,,23,110,4540801,,,,,,,2025-07-29,1,,,,,グロウ,0
877,4180005021177,新規,0,2025-07-29,2025-07-29,一般社団法人コハク,,その他の設立登記法人,愛知県,名古屋市守山区,大森八龍１丁目２８０６番地,,23,113,4630028,,,,,,,2025-07-29,1,,,,,コハク,0
879,4180301040054,新規,0,2025-07-29,2025-07-29,中川自転車商店株式会社,,株式会社,愛知県,蒲郡市,中央本町３１番１４号,,23,214,4430057,,,,,,,2025-07-29,1,,,,,ナカガワジテンシャショウテン,0
885,4190001032433,新規,0,2025-07-29,2025-07-29,株式会社エコファーム,,株式会社,三重県,志摩市,阿児町甲賀５６１番地１,,24,215,5170505,,,,,,,2025-07-29,1,,,,,エコファーム,0
886,4200001044088,新規,0,2025-07-29,2025-07-29,株式会社匠建,,株式会社,岐阜県,高山市,一之宮町１８３番地１,,21,203,5093505,,,,,,,2025-07-29,1,,,,,ショウケン,0
890,4210001020253,新規,0,2025-07-29,2025-07-29,株式会社スタジオヤマシタ,,株式会社,福井県,福井市,新田塚１丁目７０番３０号,,18,201,9100067,,,,,,,2025-07-29,1,,,,,スタジオヤマシタ,0
892,4240001065287,新規,0,2025-07-29,2025-07-29,あおぞら不動産株式会社,,株式会社,広島県,福山市,箕島町５６１７番地１,,34,207,7210957,,,,,,,2025-07-29,1,,,,,アオゾラフドウサン,0
894,4240003007320,新規,0,2025-07-29,2025-07-29,合名会社鴨目,,合名会社,広島県,福山市,南蔵王町６丁目２８番６号,,34,207,7210973,,,,,,,2025-07-29,1,,,,,カモメ,0
895,4250001021272,新規,0,2025-07-29,2025-07-29,株式会社ｎａｎａ　ｐｌａｎ,,株式会社,山口県,下関市,勝谷新町４丁目１４番１８号,,35,201,7510802,,,,,,,2025-07-29,1,,,,,ナナプラン,0
900,4290001110724,新規,0,2025-07-29,2025-07-29,株式会社ＳＥＮ’Ｓ,,株式会社,福岡県,福岡市中央区,清川１丁目１１番１５号,,40,133,8100005,,,,,,,2025-07-29,1,,,,,センス,0
910,4330001033433,新規,0,2025-07-29,2025-07-29,ＲＩＮＫＵ株式会社,,株式会社,熊本県,阿蘇郡南阿蘇村,大字下野４６番地１ハイツ南阿蘇Ａ棟１１６号,,43,433,8691402,,,,,,,2025-07-29,1,,,,,リンク,0
911,4330001033441,新規,0,2025-07-29,2025-07-29,株式会社Ｅａｒｔｈ，Ｃｙｃｌｅ，Ｊａｐａｎ,,株式会社,熊本県,熊本市東区,石原２丁目１－２６河喜多ビル２階右側号室,,43,102,8618046,,,,,,,2025-07-29,1,,,,,アースサイクルジャパン,0
917,4360001035534,新規,0,2025-07-29,2025-07-29,ステラ・キャピタルマネジメント株式会社,,株式会社,沖縄県,那覇市,泉崎１丁目１３番７号スズキビル４Ｆ,,47,201,9000021,,,,,,,2025-07-29,1,,,,,ステラキャピタルマネジメント,0
918,4360003015138,新規,0,2025-07-29,2025-07-29,合同会社キミシマ未来舎,,合同会社,沖縄県,宜野湾市,嘉数４丁目２番２１号,,47,205,9012226,,,,,,,2025-07-29,1,,,,,キミシマミライシャ,0
921,4370003007217,新規,0,2025-07-29,2025-07-29,合同会社佐々木ボーリング,,合同会社,宮城県,仙台市泉区,山の寺２丁目１５番２号,,04,105,9813103,,,,,,,2025-07-29,1,,,,,ササキボーリング,0
923,4400001017123,新規,0,2025-07-29,2025-07-29,菅野林業株式会社,,株式会社,岩手県,陸前高田市,気仙町字牧田６１番地２,,03,210,0292204,,,,,,,2025-07-29,1,,,,,カンノリンギョウ,0
928,4440001009661,新規,0,2025-07-29,2025-07-29,アーシンググロウ株式会社,,株式会社,北海道,函館市,美原３丁目３６番５号,,01,202,0410806,,,,,,,2025-07-29,1,,,,,アーシンググロウ,0
932,4470001020822,新規,0,2025-07-29,2025-07-29,株式会社大乃商店,,株式会社,香川県,東かがわ市,五名２４９４番地３,,37,207,7692715,,,,,,,2025-07-29,1,,,,,,0
933,4490001011126,新規,0,2025-07-29,2025-07-29,株式会社みずは丸,,株式会社,高知県,土佐市,高岡町丙２５４番地６,,39,205,7811103,,,,,,,2025-07-29,1,,,,,ミズハマル,0
935,4700150131545,新規,0,2025-07-29,2025-07-29,ＳＯＮＧＴＵＯ　ＴＲＡＤＩＮＧ　ＬＩＭＩＴＥＤ,,外国会社等,,,,,,,,ＲＭ　１２０１，　１２／Ｆ　ＴＡＩ　ＳＡＮＧ　ＢＡＮＫ　ＢＵＩＬＤＩＮＧ　１３０－１３２　ＤＥＳ　ＶＯＥＵＸ　ＲＯＡＤ　ＣＥＮＴＲＡＬ　ＨＯＮＧＫＯＮＧ,,,,,,2025-07-29,1,,,,,ソントゥオトレーディングリミテッド,0
942,5010001257170,新規,0,2025-07-29,2025-07-29,株式会社Ｔｒａｖｉｌｌｅｎｃｅ,,株式会社,東京都,中央区,日本橋室町１丁目１１番１２号日本橋水野ビル７階,,13,102,1030022,,,,,,,2025-07-29,1,,,,,トラヴィレンス,0
943,5010001257187,新規,0,2025-07-29,2025-07-29,株式会社ａｉｍｉｙａ,,株式会社,東京都,中央区,銀座１丁目１２番４号Ｎ＆ＥＢＬＤ．６Ｆ,,13,102,1040061,,,,,,,2025-07-29,1,,,,,アイミヤ,0
944,5010003048114,新規,0,2025-07-29,2025-07-29,Ｐｏｋｅｈｕｂ　Ｊａｐｏｎ合同会社,,合同会社,東京都,中央区,日本橋本町２丁目２－２在日フランス商工会議所,,13,102,1030023,,,,,,,2025-07-29,1,,,,,ポケハブジャポン,0
945,5010003048139,新規,0,2025-07-29,2025-07-29,イークラウドＮＥＸＴ３号合同会社,,合同会社,東京都,中央区,京橋２丁目２番１号京橋エドグランサウス４階トラスティルグループ内,,13,102,1040031,,,,,,,2025-07-29,1,,,,,イークラウドネクストサンゴウ,0
947,5010005040440,新規,0,2025-07-29,2025-07-29,Ｙｄｋ社会保険労務士法人,,その他の設立登記法人,東京都,中央区,日本橋久松町９番９号ＦＲＡＭＥ日本橋８Ｆ－Ｃ室,,13,102,1030005,,,,,,,2025-07-29,1,,,,,ワイディーケー,0
948,5010005040449,新規,0,2025-07-29,2025-07-29,ニセコ１号一般社団法人,,その他の設立登記法人,東京都,千代田区,霞が関３丁目２番５号,,13,101,1000013,,,,,,,2025-07-29,1,,,,,ニセコイチゴウ,0
958,5010401192042,新規,0,2025-07-29,2025-07-29,ＷＡＴＡＦＵＬ株式会社,,株式会社,東京都,港区,麻布十番２丁目８番８号,,13,103,1060045,,,,,,,2025-07-29,1,,,,,ワタフル,0
959,5010401192050,新規,0,2025-07-29,2025-07-29,株式会社ＺＨＯＵＳＩＮＧ,,株式会社,東京都,港区,赤坂２丁目１４番１１号,,13,103,1070052,,,,,,,2025-07-29,1,,,,,ゼットハウジング,0
960,5010401192059,新規,0,2025-07-29,2025-07-29,株式会社Ｔ‐ＴＲＵＳＴ,,株式会社,東京都,港区,六本木３丁目１６番１２号六本木ＫＳビル５Ｆ,,13,103,1060032,,,,,,,2025-07-29,1,,,,,ティートラスト,0
961,5010401192067,新規,0,2025-07-29,2025-07-29,ＥＡＲＴＨＲＩＳＥ　Ｊａｐａｎ株式会社,,株式会社,東京都,港区,高輪２丁目２１番１号ＴＨＥＬＩＮＫＰＩＬＬＡＲ１ＮＯＲＴＨ６・７階ＬｉＳＨ内,,13,103,1080074,,,,,,,2025-07-29,1,,,,,アースライズジャパン,0
962,5010401192075,新規,0,2025-07-29,2025-07-29,株式会社ＭＳ,,株式会社,東京都,港区,芝２丁目２番１２号５階,,13,103,1050014,,,,,,,2025-07-29,1,,,,,エムエス,0
963,5010401192117,新規,0,2025-07-29,2025-07-29,Ａｋａｓａｋａ　Ａｄｖｉｓｏｒｙ＆Ｓｏｌｕｔｉｏｎ株式会社,,株式会社,東京都,港区,赤坂１丁目１２番３２号,,13,103,1070052,,,,,,,2025-07-29,1,,,,,アカサカアドバイザリーアンドソリューション,0
964,5010401192125,新規,0,2025-07-29,2025-07-29,ＬＳ‐Ａｖｉａｔｉｏｎ第７９号株式会社,,株式会社,東京都,港区,六本木１丁目６番１号,,13,103,1060032,,,,,,,2025-07-29,1,,,,,エルエスアビエーションダイナナジュウキュウゴウ,0
966,5010403035694,新規,0,2025-07-29,2025-07-29,精浄合同会社,,合同会社,東京都,港区,新橋２丁目２０番１５号新橋駅前ビル１号館３０７号,,13,103,1050004,,,,,,,2025-07-29,1,,,,,ショウジョウ,0
968,5010405024547,新規,0,2025-07-29,2025-07-29,一般社団法人デジタル人材育成学会,,その他の設立登記法人,東京都,港区,白金１丁目１７番１－１３０１号,,13,103,1080072,,,,,,,2025-07-29,1,,,,,デジタルジンザイイクセイガッカイ,0
969,5010501054480,新規,0,2025-07-29,2025-07-29,株式会社Ｐｒｏｆｉｘ　Ｊａｐａｎ,,株式会社,東京都,台東区,日本堤２丁目４番７号ａｓａｋｕｓａＣＯＭＰＬＥＸ１０２,,13,106,1110021,,,,,,,2025-07-29,1,,,,,プロフィクスジャパン,0
972,5010601067688,新規,0,2025-07-29,2025-07-29,株式会社ＷＥＬＬＮＩＸ,,株式会社,東京都,江東区,豊洲１丁目３番２－３０４号,,13,108,1350061,,,,,,,2025-07-29,1,,,,,ウエルニクス,0
973,5010603011710,新規,0,2025-07-29,2025-07-29,合同会社好日,,合同会社,東京都,江東区,白河３丁目１２番１－９０２号,,13,108,1350021,,,,,,,2025-07-29,1,,,,,コウジツ,0
974,5010701048035,新規,0,2025-07-29,2025-07-29,ＭｏｍｅｎｔｕｍＹｏｕｔｈホールディングス株式会社,,株式会社,東京都,品川区,南大井６丁目１６番２０号８Ｆ,,13,109,1400013,,,,,,,2025-07-29,1,,,,,モメンタムユースホールディングス,0
975,5010701048068,新規,0,2025-07-29,2025-07-29,ＴＣマネジメント株式会社,,株式会社,東京都,品川区,南大井６丁目２６番３号大森ベルポートＤ館８階,,13,109,1400013,,,,,,,2025-07-29,1,,,,,ティーシーマネジメント,0
976,5010701048076,新規,0,2025-07-29,2025-07-29,株式会社ナインワークス,,株式会社,東京都,品川区,東五反田１丁目２３番９号カージェ五反田１００２,,13,109,1410022,,,,,,,2025-07-29,1,,,,,ナインワークス,0
981,5010801036427,新規,0,2025-07-29,2025-07-29,株式会社モーリー,,株式会社,東京都,大田区,下丸子１丁目１３番３,,13,111,1460092,,,,,,,2025-07-29,1,,,,,モーリー,0
982,5010901057810,新規,0,2025-07-29,2025-07-29,オルドビス株式会社,,株式会社,東京都,世田谷区,砧８丁目２１番１号,,13,112,1570073,,,,,,,2025-07-29,1,,,,,オルドビス,0
983,5010901057819,新規,0,2025-07-29,2025-07-29,株式会社ＨａｌｏＳｕｉｋａ,,株式会社,東京都,世田谷区,上北沢５丁目２８番５－３０６号,,13,112,1560057,,,,,,,2025-07-29,1,,,,,ハロスイカ,0
987,5011001171056,新規,0,2025-07-29,2025-07-29,株式会社ＬＥＭＯ,,株式会社,東京都,渋谷区,神宮前２丁目９番１１号,,13,113,1500001,,,,,,,2025-07-29,1,,,,,レモ,0
988,5011001171072,新規,0,2025-07-29,2025-07-29,Ｕｎｆｏｌｄ　Ｌｅａｒｎｉｎｇ　Ｄｅｓｉｇｎ株式会社,,株式会社,東京都,渋谷区,神宮前６丁目２９番４号原宿Ｋｏｍｉｙａビル６階,,13,113,1500001,,,,,,,2025-07-29,1,,,,,アンフォルドラーニングデザイン,0
990,5011003022034,新規,0,2025-07-29,2025-07-29,合同会社ＳＰＥＣＴＲＵＭ,,合同会社,東京都,目黒区,下目黒１丁目１－１４コノトラビル７階,,13,110,1530064,,,,,,,2025-07-29,1,,,,,スペクトラム,0
991,5011005011101,新規,0,2025-07-29,2025-07-29,一般社団法人膠原病ＰＲ協会ミライ,,その他の設立登記法人,東京都,渋谷区,道玄坂１丁目１０番８号渋谷道玄坂東急ビル２Ｆ－Ｃ,,13,113,1500043,,,,,,,2025-07-29,1,,,,,コウゲンビョウピーアールキョウカイミライ,0
994,5011401027287,新規,0,2025-07-29,2025-07-29,株式会社Ｃｈａｉｎ　ｏｆ　Ｌｉｆｅ,,株式会社,東京都,板橋区,大山金井町１７番２号,,13,119,1730024,,,,,,,2025-07-29,1,,,,,チェーンオブライフ,0
998,5011601028812,新規,0,2025-07-29,2025-07-29,株式会社カルド,,株式会社,東京都,練馬区,東大泉１丁目３５番１４－２０１,,13,120,1780063,,,,,,,2025-07-29,1,,,,,カルド,0
999,5011601028837,新規,0,2025-07-29,2025-07-29,株式会社ＴＳＷ商事,,株式会社,東京都,練馬区,豊玉中２丁目２１番８号,,13,120,1760013,,,,,,,2025-07-29,1,,,,,ティーエスダブリューショウジ,0
1005,5011801046515,新規,0,2025-07-29,2025-07-29,株式会社アズエンターテインメント,,株式会社,東京都,葛飾区,新小岩３丁目２６番２１号,,13,122,1240024,,,,,,,2025-07-29,1,,,,,アズエンターテインメント,0
1007,5012401043398,新規,0,2025-07-29,2025-07-29,時の住処株式会社,,株式会社,東京都,狛江市,和泉本町２丁目４番１６号,,13,219,2010003,,,,,,,2025-07-29,1,,,,,トキノスミカ,0
1009,5012403007260,新規,0,2025-07-29,2025-07-29,合同会社福玉商会,,合同会社,東京都,府中市,八幡町１丁目１２番地の１１小笠原ハイム２０２,,13,206,1830016,,,,,,,2025-07-29,1,,,,,フクタマショウカイ,0
1012,5013301054675,新規,0,2025-07-29,2025-07-29,ＭＯＮＡＲＣＨ　ＶＩＳＡ＆ＥＤＵＣＡＴＩＯＮ株式会社,,株式会社,東京都,豊島区,南大塚１丁目６０番２０号天翔大塚駅前ビル５１４号室,,13,116,1700005,,,,,,,2025-07-29,1,,,,,モナークビザアンドエデュケーション,0
1017,5020001164060,新規,0,2025-07-29,2025-07-29,アセットブルーム株式会社,,株式会社,神奈川県,川崎市中原区,小杉町３丁目６００番ＭＩＤＰＯＩＮＴ武蔵小杉２－３５,,14,133,2110063,,,,,,,2025-07-29,1,,,,,アセットブルーム,0
1018,5020001164077,新規,0,2025-07-29,2025-07-29,株式会社ｍ＆ｉ,,株式会社,神奈川県,横浜市神奈川区,台町７番地１１ロンタンハウス３階,,14,102,2210834,,,,,,,2025-07-29,1,,,,,エムアンドアイ,0
1020,5020003029014,新規,0,2025-07-29,2025-07-29,合同会社永谷架設,,合同会社,神奈川県,横浜市港南区,芹が谷５丁目４３番１４－２０１号,,14,111,2330006,,,,,,,2025-07-29,1,,,,,ナガヤカセツ,0
1021,5020003029022,新規,0,2025-07-29,2025-07-29,合同会社ＰＷＲＫ,,合同会社,神奈川県,横浜市青葉区,美しが丘２丁目４０番地２９,,14,117,2250002,,,,,,,2025-07-29,1,,,,,ピーダブリューアールケー,0
1022,5020003029063,新規,0,2025-07-29,2025-07-29,合同会社山陽苑,,合同会社,神奈川県,川崎市宮前区,初山２丁目８番２５‐３号,,14,136,2160026,,,,,,,2025-07-29,1,,,,,サンヨウエン,0
1026,5021003016357,新規,0,2025-07-29,2025-07-29,合同会社ＴＭＵ,,合同会社,神奈川県,相模原市南区,上鶴間本町２丁目３番４号アムール鵜野森２０２,,14,153,2520318,,,,,,,2025-07-29,1,,,,,ティーエムユー,0
1030,5030001167847,新規,0,2025-07-29,2025-07-29,株式会社ＮＯＡ,,株式会社,埼玉県,さいたま市見沼区,大字大谷１５６番地８,,11,104,3370014,,,,,,,2025-07-29,1,,,,,ノア,0
1031,5030001167871,新規,0,2025-07-29,2025-07-29,株式会社ｋｏｔｏｔａｍａ,,株式会社,埼玉県,上尾市,愛宕１丁目２８番２２号荒井第２ビル８０２,,11,219,3620034,,,,,,,2025-07-29,1,,,,,コトタマ,0
1036,5030003027289,新規,0,2025-07-29,2025-07-29,ハイフラット合同会社,,合同会社,埼玉県,川口市,南鳩ヶ谷１丁目２５番１０号,,11,203,3340013,,,,,,,2025-07-29,1,,,,,ハイフラット,0
1040,5040001139845,新規,0,2025-07-29,2025-07-29,株式会社ハルカアセット,,株式会社,千葉県,松戸市,八ケ崎６丁目３０番地の８,,12,207,2700023,,,,,,,2025-07-29,1,,,,,ハルカアセット,0
1041,5040001139853,新規,0,2025-07-29,2025-07-29,株式会社物井のご縁,,株式会社,千葉県,四街道市,物井８５６番地１,,12,228,2840012,,,,,,,2025-07-29,1,,,,,モノイノゴエン,0
1044,5040003028121,新規,0,2025-07-29,2025-07-29,合同会社ＣＯＣＯ,,合同会社,千葉県,木更津市,真舟５丁目２３番１０号,,12,206,2920802,,,,,,,2025-07-29,1,,,,,ココ,0
1045,5040003028138,新規,0,2025-07-29,2025-07-29,Ｇｒｏｗｔｈ　Ａｒｃｈｉｔｅｃｔ合同会社,,合同会社,千葉県,千葉市中央区,問屋町８番１号－１５１１,,12,101,2600025,,,,,,,2025-07-29,1,,,,,グロースアーキテクト,0
1050,5060001038442,新規,0,2025-07-29,2025-07-29,和建設株式会社,,株式会社,栃木県,足利市,川崎町２２８３番地,,09,202,3260013,,,,,,,2025-07-29,1,,,,,ナゴミケンセツ,0
1061,5080103003383,新規,0,2025-07-29,2025-07-29,ＡＴＩＦ　ＴＲＡＤＩＮＧ合同会社,,合同会社,静岡県,沼津市,石川５１３番地の８,,22,203,4100317,,,,,,,2025-07-29,1,,,,,アティフトレーディング,0
1068,5100003008315,新規,0,2025-07-29,2025-07-29,ブルーゾーン合同会社,,合同会社,長野県,上田市,生田２３９３番地５８,,20,203,3860411,,,,,,,2025-07-29,1,,,,,ブルーゾーン,0
1070,5110001039451,新規,0,2025-07-29,2025-07-29,株式会社縁と縁,,株式会社,新潟県,長岡市,左近町６３－１,,15,202,9401161,,,,,,,2025-07-29,1,,,,,エントエン,0
1071,5110003005831,新規,0,2025-07-29,2025-07-29,合同会社小林農場,,合同会社,新潟県,上越市,三和区川浦５８４番地１,,15,222,9430224,,,,,,,2025-07-29,1,,,,,コバヤシノウジョウ,0
1072,5110005017255,新規,0,2025-07-29,2025-07-29,管理組合法人レストヒール南町,,その他の設立登記法人,新潟県,長岡市,南町３丁目９番１６号レストヒール南町,,15,202,9400081,,,,,,,2025-07-29,1,,,,,レストヒールミナミマチ,0
1081,5120001278016,新規,0,2025-07-29,2025-07-29,株式会社ＭＩＲＡＧＥＮ,,株式会社,大阪府,大阪市中央区,北久宝寺町４丁目２番３号フォーラム北久宝寺２Ｆ,,27,128,5410057,,,,,,,2025-07-29,1,,,,,ミラジェン,0
1082,5120001278065,新規,0,2025-07-29,2025-07-29,ＧＴイノベーションズ創研株式会社,,株式会社,大阪府,大阪市北区,梅田１丁目１－３大阪駅前第３ビル２９階１－１－１号室,,27,127,5300001,,,,,,,2025-07-29,1,,,,,ジーティーイノベーションズソウケン,0
1083,5120001278239,新規,0,2025-07-29,2025-07-29,なぎの木コンサルティング株式会社,,株式会社,大阪府,大阪市天王寺区,国分町１６番７号,,27,109,5430044,,,,,,,2025-07-29,1,,,,,ナギノキコンサルティング,0
1084,5120001278288,新規,0,2025-07-29,2025-07-29,株式会社Ｓｔｉｘｅｌ,,株式会社,大阪府,大阪市阿倍野区,阿倍野筋４丁目１７番２０号,,27,119,5450052,,,,,,,2025-07-29,1,,,,,スティクセル,0
1085,5120001278305,新規,0,2025-07-29,2025-07-29,Ｇｌｏｂａｌ・Ｗｅ株式会社,,株式会社,大阪府,大阪市中央区,瓦町１丁目６－１シティタワー大阪２２０８,,27,128,5410048,,,,,,,2025-07-29,1,,,,,グローバルウィー,0
1086,5120001278387,新規,0,2025-07-29,2025-07-29,アカフジ株式会社,,株式会社,大阪府,大阪市北区,末広町１－１４,,27,127,5300053,,,,,,,2025-07-29,1,,,,,アカフジ,0
1087,5120003030127,新規,0,2025-07-29,2025-07-29,合同会社ＫＥＥＰ,,合同会社,大阪府,大阪市阿倍野区,松崎町３丁目１３番３５号ユニハイム阿倍野松崎町８０２,,27,119,5450053,,,,,,,2025-07-29,1,,,,,キープ,0
1091,5120005025067,新規,0,2025-07-29,2025-07-29,税理士法人ｎｅｉｒｏ,,その他の設立登記法人,大阪府,大阪市中央区,瓦屋町３丁目７番３号イースマイルビル４階,,27,128,5420066,,,,,,,2025-07-29,1,,,,,ネイロ,0
1102,5130001080230,新規,0,2025-07-29,2025-07-29,株式会社Ｒｅｆｉｎｅ,,株式会社,京都府,京都市北区,小山花ノ木町９番地,,26,101,6038122,,,,,,,2025-07-29,1,,,,,リファイン,0
1103,5130003010631,新規,0,2025-07-29,2025-07-29,ダビタシオン合同会社,,合同会社,京都府,京都市上京区,寺町通今出川下る１筋目西入真如堂突抜町１４４番地１,,26,102,6020833,,,,,,,2025-07-29,1,,,,,ダビタシオン,0
1105,5130005017410,新規,0,2025-07-29,2025-07-29,京都府由良川流域砂利採取事業協同組合,,その他の設立登記法人,京都府,福知山市,字川北８番地の１,,26,201,6200004,,,,,,,2025-07-29,1,,,,,キョウトフユラガワリュウイキジャリサイシュ,0
1114,5140001139414,新規,0,2025-07-29,2025-07-29,株式会社はるいろ,,株式会社,兵庫県,加古川市,西神吉町宮前８１６番地の１,,28,210,6750041,,,,,,,2025-07-29,1,,,,,ハルイロ,0
1115,5140001139430,新規,0,2025-07-29,2025-07-29,株式会社ＳＥＩＫＡグループ,,株式会社,兵庫県,姫路市,北原３６０－１８,,28,201,6728002,,,,,,,2025-07-29,1,,,,,セイカグループ,0
1122,5180001167808,新規,0,2025-07-29,2025-07-29,株式会社ニッカマイ,,株式会社,愛知県,名古屋市名東区,社が丘３丁目３０１－１２,,23,115,4650051,,,,,,,2025-07-29,1,,,,,ニッカマイ,0
1123,5180001167840,新規,0,2025-07-29,2025-07-29,株式会社ＢＯＺ,,株式会社,愛知県,北名古屋市,二子松江１４番地１メゾンアップル２０３,,23,234,4810013,,,,,,,2025-07-29,1,,,,,ビーオーゼット,0
1125,5180003028776,新規,0,2025-07-29,2025-07-29,山内合同会社,,合同会社,愛知県,名古屋市千種区,月ケ丘３丁目６番１５号,,23,101,4640043,,,,,,,2025-07-29,1,,,,,ヤマウチ,0
1126,5180003028801,新規,0,2025-07-29,2025-07-29,合同会社Ｓｈｉｍａｓａｋｉ,,合同会社,愛知県,東海市,富木島町東長口５４番地１０,,23,222,4760011,,,,,,,2025-07-29,1,,,,,シマサキ,0
1127,5180301040053,新規,0,2025-07-29,2025-07-29,株式会社ｃｒｅａ,,株式会社,愛知県,豊田市,西中山町荒子６２番地１２３,,23,211,4700431,,,,,,,2025-07-29,1,,,,,クレア,0
1129,5180303006663,新規,0,2025-07-29,2025-07-29,合同会社マテマ,,合同会社,愛知県,西尾市,巨海町南河原６３,,23,213,4440322,,,,,,,2025-07-29,1,,,,,マテマ,0
1133,5210001020252,新規,0,2025-07-29,2025-07-29,株式会社ライフ・フュージョン,,株式会社,福井県,福井市,舞屋町第２号２２番地２,,18,201,9188024,,,,,,,2025-07-29,1,,,,,ライフフュージョン,0
1141,5250001021271,新規,0,2025-07-29,2025-07-29,株式会社ＲＥＩＷＡ,,株式会社,山口県,周南市,平和通２丁目１９　５Ｆ,,35,215,7450015,,,,,,,2025-07-29,1,,,,,レイワ,0
1143,5260001040386,新規,0,2025-07-29,2025-07-29,株式会社Ｅｔｏｐｉｃａ,,株式会社,岡山県,倉敷市,新倉敷駅前１丁目１２０番地１グランコート２１（６０６）,,33,202,7100253,,,,,,,2025-07-29,1,,,,,エトピカ,0
1149,5290001110938,新規,0,2025-07-29,2025-07-29,株式会社ＶＥＮＴＵＲＥ　ＲＩＳＥ,,株式会社,福岡県,福岡市博多区,上川端町１０番２５５号７０３号室,,40,132,8120026,,,,,,,2025-07-29,1,,,,,ベンチャーライズ,0
1154,5290801031739,新規,0,2025-07-29,2025-07-29,株式会社ハピエルＮｅｏ,,株式会社,福岡県,中間市,長津３丁目２１番１０号,,40,215,8090036,,,,,,,2025-07-29,1,,,,,ハピエルネオ,0
1171,5360001035500,新規,0,2025-07-29,2025-07-29,株式会社ＳＨｉｉＭＡ,,株式会社,沖縄県,那覇市,真嘉比３丁目１４番１５号,,47,201,9020068,,,,,,,2025-07-29,1,,,,,シーマ,0
1174,5370001052899,新規,0,2025-07-29,2025-07-29,株式会社ＥＩＭ,,株式会社,宮城県,仙台市宮城野区,福室２丁目８－１７福室マンション３１４号,,04,102,9830005,,,,,,,2025-07-29,1,,,,,イーム,0
1183,5400001017122,新規,0,2025-07-29,2025-07-29,株式会社ｉＳ,,株式会社,岩手県,盛岡市,加賀野４丁目１２番２０号,,03,201,0200807,,,,,,,2025-07-29,1,,,,,アイエス,0
1184,5410001014242,新規,0,2025-07-29,2025-07-29,株式会社チーフー,,株式会社,秋田県,横手市,婦気大堤字婦気前１４３ハイツアイリスＡ棟１０２号,,05,203,0130063,,,,,,,2025-07-29,1,,,,,チーフー,0
1209,6010001257054,新規,0,2025-07-29,2025-07-29,Ｌｉｎｎｏｖａｔｅ　Ｐａｒｔｎｅｒｓ　ＡＦＳ　ＪＰ株式会社,,株式会社,東京都,千代田区,丸の内２丁目７番２号ＪＰタワー１４階,,13,101,1000005,,,,,,,2025-07-29,1,,,,,リノベートパートナーズエーエフエスジェーピー,0
1210,6010001257112,新規,0,2025-07-29,2025-07-29,株式会社さかもと,,株式会社,東京都,中央区,銀座１丁目１２番４号Ｎ＆ＥＢＬＤ．６Ｆ,,13,102,1040061,,,,,,,2025-07-29,1,,,,,サカモト,0
1211,6010001257178,新規,0,2025-07-29,2025-07-29,ブリリアント株式会社,,株式会社,東京都,中央区,晴海３丁目１３番１－４９０６号,,13,102,1040053,,,,,,,2025-07-29,1,,,,,ブリリアント,0
1212,6010001257186,新規,0,2025-07-29,2025-07-29,株式会社ＲｏｒｃａＭ,,株式会社,東京都,中央区,銀座１丁目１２番４号Ｎ＆ＥＢＬＤ．６Ｆ,,13,102,1040061,,,,,,,2025-07-29,1,,,,,ロルカム,0
1213,6010001257252,新規,0,2025-07-29,2025-07-29,Ｖｃａｓｔ　Ｊａｐａｎ株式会社,,株式会社,東京都,中央区,勝どき３丁目１３－１ＦＯＲＥＦＲＯＮＴＴＯＷＥＲＩＩ１０階２号室,00140079,13,102,1040054,,,,,,,2025-07-29,1,,,,,ブイキャストジャパン,0
1214,6010001257260,新規,0,2025-07-29,2025-07-29,グリンデクス・カルセクス・ジャパン株式会社,,株式会社,東京都,中央区,日本橋３丁目９番１号日本橋三丁目スクエア１１階,,13,102,1030027,,,,,,,2025-07-29,1,,,,,グリンデクスカルセクスジャパン,0
1216,6010003048105,新規,0,2025-07-29,2025-07-29,合同会社リアル,,合同会社,東京都,千代田区,神田須田町１丁目７番地８号ＶＯＲＴ秋葉原ＩＶ２階,00140080,13,101,1010041,,,,,,,2025-07-29,1,,,,,リアル,0
1217,6010003048138,新規,0,2025-07-29,2025-07-29,イークラウドＮＥＸＴ２号合同会社,,合同会社,東京都,中央区,京橋２丁目２番１号京橋エドグランサウス４階トラスティルグループ内,,13,102,1040031,,,,,,,2025-07-29,1,,,,,イークラウドネクストニゴウ,0
1219,6010101016789,新規,0,2025-07-29,2025-07-29,ｆｅｌｉｎａ株式会社,,株式会社,東京都,八王子市,千人町２丁目１番１－１０４号,,13,201,1930835,,,,,,,2025-07-29,1,,,,,フェリナ,0
1226,6010401192058,新規,0,2025-07-29,2025-07-29,株式会社ｉＭｅｓｏｔ’ｚ,,株式会社,東京都,港区,北青山１丁目３番１号アールキューブ青山３階,,13,103,1070061,,,,,,,2025-07-29,1,,,,,アイメソッツ,0
1227,6010401192066,新規,0,2025-07-29,2025-07-29,株式会社ジーエムライフ,,株式会社,東京都,港区,赤坂２丁目８番１１号山王菱ビル４０１号,,13,103,1070052,,,,,,,2025-07-29,1,,,,,ジーエムライフ,0
1228,6010401192082,新規,0,2025-07-29,2025-07-29,株式会社ネクスジェン・ソリューション,,株式会社,東京都,港区,南青山３丁目１番３６号青山丸竹ビル６Ｆ,,13,103,1070062,,,,,,,2025-07-29,1,,,,,ネクスジェンソリューション,0
1229,6010401192124,新規,0,2025-07-29,2025-07-29,ＬＳ‐ＳＨＩＰ第８３号株式会社,,株式会社,東京都,港区,六本木１丁目６番１号,,13,103,1060032,,,,,,,2025-07-29,1,,,,,エルエスシップダイハチジュウサンゴウ,0
1230,6010501054455,新規,0,2025-07-29,2025-07-29,株式会社Ｔｒｅｅ,,株式会社,東京都,台東区,柳橋１丁目３２番１号,,13,106,1110052,,,,,,,2025-07-29,1,,,,,ツリー,0
1231,6010501054463,新規,0,2025-07-29,2025-07-29,株式会社アジアンキッチン,,株式会社,東京都,台東区,東上野５丁目１９番６号丸政ビル３階,,13,106,1100015,,,,,,,2025-07-29,1,,,,,アジアンキッチン,0
1237,6010601067687,新規,0,2025-07-29,2025-07-29,株式会社Ｏｓｃｉｌｌｏ　Ｖｉｓｉｏｎ,,株式会社,東京都,江東区,豊洲３丁目７番５号芝浦工業大学ＢＯｉＣＥインキュベーションスクエア,,13,108,1350061,,,,,,,2025-07-29,1,,,,,オシロビジョン,0
1241,6010901057818,新規,0,2025-07-29,2025-07-29,ＷＥＢＨＥＡＲＴＳ株式会社,,株式会社,東京都,世田谷区,奥沢６丁目２４番２０号,,13,112,1580083,,,,,,,2025-07-29,1,,,,,ウェブハーツ,0
1242,6010903010130,新規,0,2025-07-29,2025-07-29,合同会社ｍｉｃｋｓ,,合同会社,東京都,世田谷区,野沢２丁目１０番１０号野沢イースト２０２,,13,112,1540003,,,,,,,2025-07-29,1,,,,,ミックス,0
1243,6010903010139,新規,0,2025-07-29,2025-07-29,ＧａｌａｘｙＲａｉｌｒｏａｄ合同会社,,合同会社,東京都,世田谷区,桜丘３丁目３７番９号,,13,112,1560054,,,,,,,2025-07-29,1,,,,,ギャラクシーレールロード,0
1247,6011001171063,新規,0,2025-07-29,2025-07-29,Ｔｉｇｅｒ　Ｃ　Ｆａｍｉｌｙ不動産賃貸管理株式会社,,株式会社,東京都,渋谷区,富ヶ谷１丁目１４番１４号４Ｆ,,13,113,1510063,,,,,,,2025-07-29,1,,,,,タイガーシーファミリーフドウサンチンタイカンリ,0
1249,6011003022231,新規,0,2025-07-29,2025-07-29,ＩＰＰＥＮ合同会社,,合同会社,東京都,渋谷区,恵比寿西２丁目８番４号,,13,113,1500021,,,,,,,2025-07-29,1,,,,,イッペン,0
1251,6011103016216,新規,0,2025-07-29,2025-07-29,ＥｐｉＦｒｏｎｔｉｅｒ　Ｔｈｅｒａｐｅｕｔｉｃｓ合同会社,,合同会社,東京都,新宿区,四谷４丁目１５番地,,13,104,1600004,,,,,,,2025-07-29,1,,,,,エピフロンティアセラピューティクス,0
1252,6011105011537,新規,0,2025-07-29,2025-07-29,一般財団法人日本実演芸術福祉財団,,その他の設立登記法人,東京都,新宿区,西新宿３丁目２０番２号,,13,104,1600023,,,,,,,2025-07-29,1,,,,,ニホンジツエンゲイジュツフクシザイダン,0
1262,6011801046514,新規,0,2025-07-29,2025-07-29,株式会社ＳＲ住建,,株式会社,東京都,足立区,東伊興３丁目１０番２９号,,13,121,1210801,,,,,,,2025-07-29,1,,,,,エスアールジュウケン,0
1263,6011801046522,新規,0,2025-07-29,2025-07-29,株式会社サクライズ,,株式会社,東京都,足立区,六月１丁目１１番４号,,13,121,1210814,,,,,,,2025-07-29,1,,,,,サクライズ,0
1264,6012401043397,新規,0,2025-07-29,2025-07-29,株式会社ＳＷＦＴ,,株式会社,東京都,調布市,西つつじケ丘３丁目２６番地７アーバンフラッツＭＡ２０３,,13,208,1820006,,,,,,,2025-07-29,1,,,,,スウィフト,0
1265,6012803003809,新規,0,2025-07-29,2025-07-29,合同会社アシスト,,合同会社,東京都,武蔵村山市,中藤１丁目５５番地の３,,13,223,2080001,,,,,,,2025-07-29,1,,,,,アシスト,0
1270,6013303007770,新規,0,2025-07-29,2025-07-29,合同会社絆工房,,合同会社,東京都,豊島区,上池袋３丁目１０－３,,13,116,1700012,,,,,,,2025-07-29,1,,,,,,0
1280,6020001164010,新規,0,2025-07-29,2025-07-29,株式会社アルファ,,株式会社,神奈川県,川崎市高津区,千年３４６番地イルソーレ１０１,,14,134,2130022,,,,,,,2025-07-29,1,,,,,アルファ,0
1281,6020001164118,新規,0,2025-07-29,2025-07-29,株式会社ディーラー通信,,株式会社,神奈川県,横浜市戸塚区,上倉田町１９５１番地１,,14,110,2440816,,,,,,,2025-07-29,1,,,,,ディーラーツウシン,0
1286,6021003016356,新規,0,2025-07-29,2025-07-29,合同会社武元建設,,合同会社,神奈川県,藤沢市,大鋸１０３４－２ヴェルドナールＢ１０３,,14,205,2510002,,,,,,,2025-07-29,1,,,,,,0
1290,6030001167813,新規,0,2025-07-29,2025-07-29,株式会社ｆｅｌｌｏｗ,,株式会社,埼玉県,川口市,東川口５丁目３番１号,,11,203,3330801,,,,,,,2025-07-29,1,,,,,フェロー,0
1291,6030001167838,新規,0,2025-07-29,2025-07-29,株式会社ＧＨＲ,,株式会社,埼玉県,戸田市,笹目１丁目３０番地の１８（ククナ２０７号室）,,11,224,3350034,,,,,,,2025-07-29,1,,,,,ジーエイチアール,0
1292,6030001167846,新規,0,2025-07-29,2025-07-29,株式会社ＯＵ,,株式会社,埼玉県,川口市,芝富士２丁目４番１５－５０５号,,11,203,3330854,,,,,,,2025-07-29,1,,,,,オーユー,0
1293,6030001167862,新規,0,2025-07-29,2025-07-29,株式会社武井電気,,株式会社,埼玉県,川口市,大字安行原２７９７番地の１９,,11,203,3340057,,,,,,,2025-07-29,1,,,,,タケイデンキ,0
1297,6030003027271,新規,0,2025-07-29,2025-07-29,Ｎｉｃｅ合同会社,,合同会社,埼玉県,さいたま市大宮区,桜木町２丁目３大宮マルイ７Ｆ,,11,103,3300854,,,,,,,2025-07-29,1,,,,,ナイス,0
1298,6030003027296,新規,0,2025-07-29,2025-07-29,合同会社涼未来,,合同会社,埼玉県,三郷市,番匠免１丁目１８１‐１８,,11,237,3410056,,,,,,,2025-07-29,1,,,,,リョウミライ,0
1299,6040001139852,新規,0,2025-07-29,2025-07-29,株式会社四街道進学会,,株式会社,千葉県,四街道市,和良比２５３番地５,,12,228,2840044,,,,,,,2025-07-29,1,,,,,ヨツカイドウシンガクカイ,0
1302,6040003027956,新規,0,2025-07-29,2025-07-29,合同会社ＳＫＨＭ,,合同会社,千葉県,千葉市中央区,弁天１丁目１２－９－２０１号,,12,101,2600045,,,,,,,2025-07-29,1,,,,,エスケーエイチエム,0
1314,6100001038800,新規,0,2025-07-29,2025-07-29,株式会社Ｌｉｍａｇｅ,,株式会社,長野県,長野市,大字鶴賀上千歳町１１３７－２３リアライズ長野ビル２階,,20,201,3800821,,,,,,,2025-07-29,1,,,,,リマージュ,0
1326,6120001278221,新規,0,2025-07-29,2025-07-29,株式会社オクノインベストメント,,株式会社,大阪府,大阪市中央区,道修町４丁目７番１０号,,27,128,5410045,,,,,,,2025-07-29,1,,,,,オクノインベストメント,0
1327,6120001278270,新規,0,2025-07-29,2025-07-29,株式会社Ｒｅｖｉｖｅ,,株式会社,大阪府,大阪市中央区,南船場３丁目２番２２号おおきに南船場ビル２０５,,27,128,5420081,,,,,,,2025-07-29,1,,,,,リヴァイブ,0
1328,6120001278295,新規,0,2025-07-29,2025-07-29,株式会社ｎｅｉｒｏ,,株式会社,大阪府,大阪市中央区,瓦屋町３丁目７番３号イースマイルビル４階,,27,128,5420066,,,,,,,2025-07-29,1,,,,,ネイロ,0
1329,6120001278329,新規,0,2025-07-29,2025-07-29,恒遠達株式会社,,株式会社,大阪府,大阪市中央区,備後町１丁目４番１６－２０６号,,27,128,5410051,,,,,,,2025-07-29,1,,,,,コウエンタツ,0
1330,6120003030126,新規,0,2025-07-29,2025-07-29,ＴＨＩＥＴ　ＭＯＢＩＬＥ合同会社,,合同会社,大阪府,大阪市浪速区,幸町２丁目３－１８共栄マンション２Ｆ号室,,27,111,5560021,,,,,,,2025-07-29,1,,,,,テイエットモバイル,0
1331,6120003030159,新規,0,2025-07-29,2025-07-29,Ａｎｚｌｅａｆ合同会社,,合同会社,大阪府,大阪市北区,梅田１丁目１‐３大阪駅前第３ビル２９階１‐１‐１号室,,27,127,5300001,,,,,,,2025-07-29,1,,,,,アンズリーフ,0
1343,6120901051248,新規,0,2025-07-29,2025-07-29,株式会社ＭｅｄＹｏｕｔｈ,,株式会社,大阪府,吹田市,江坂町１丁目１３－１４－７０１号,,27,205,5640063,,,,,,,2025-07-29,1,,,,,メドユース,0
1345,6122001039462,新規,0,2025-07-29,2025-07-29,株式会社コエヲトドケル,,株式会社,大阪府,東大阪市,花園西町２丁目７番２９号,,27,227,5780936,,,,,,,2025-07-29,1,,,,,コエヲトドケル,0
1352,6140003022369,新規,0,2025-07-29,2025-07-29,ヒトドリ合同会社,,合同会社,兵庫県,神戸市北区,幸陽町３丁目１５番地の５,,28,109,6511203,,,,,,,2025-07-29,1,,,,,ヒトドリ,0
1353,6160001026923,新規,0,2025-07-29,2025-07-29,株式会社ＨＡＣＯＹＡ　ＣＲＡＦＴ,,株式会社,滋賀県,草津市,野路東４丁目１７番３３号トータルエステートビル１－Ｂ,,25,206,5250058,,,,,,,2025-07-29,1,,,,,ハコヤクラフト,0
1359,6180001167864,新規,0,2025-07-29,2025-07-29,株式会社ことりライフパートナー,,株式会社,愛知県,名古屋市千種区,徳川山町４丁目１番５１号,,23,101,4640031,,,,,,,2025-07-29,1,,,,,コトリライフパートナー,0
1360,6180001167889,新規,0,2025-07-29,2025-07-29,リモラ株式会社,,株式会社,愛知県,春日井市,八田町３丁目６番地１,,23,206,4860849,,,,,,,2025-07-29,1,,,,,リモラ,0
1361,6180001167922,新規,0,2025-07-29,2025-07-29,ふじコンサルティング株式会社,,株式会社,愛知県,名古屋市南区,星崎２丁目６番地,,23,112,4570064,,,,,,,2025-07-29,1,,,,,フジコンサルティング,0
1366,6180301040052,新規,0,2025-07-29,2025-07-29,株式会社Ｎｏｍｂｒｅ　ｄ’Ｏｒ,,株式会社,愛知県,豊橋市,西高師町字大坪１５番地１,,23,201,4418154,,,,,,,2025-07-29,1,,,,,ノンブルドォール,0
1367,6180305009713,新規,0,2025-07-29,2025-07-29,一般社団法人Ｙｏｎｉ　Ｓｍｉｌｅ,,その他の設立登記法人,愛知県,岡崎市,百々町字西平８番地,,23,202,4442115,,,,,,,2025-07-29,1,,,,,ヨニスマイル,0
1369,6190001032431,新規,0,2025-07-29,2025-07-29,株式会社Ｓｈｉｎｙ　ｂｌｏｏｍ,,株式会社,三重県,四日市市,三滝台１丁目１３番地１６,,24,202,5120933,,,,,,,2025-07-29,1,,,,,シャイニーブルーム,0
1384,6240005015971,新規,0,2025-07-29,2025-07-29,特定非営利活動法人笑幸やか,,その他の設立登記法人,広島県,尾道市,因島重井町２５９６番地,,34,205,7222102,,,,,,,2025-07-29,1,,,,,ニコヤカ,0
1389,6260001040410,新規,0,2025-07-29,2025-07-29,ＫＯＵＡＩホールディングス株式会社,,株式会社,岡山県,瀬戸内市,邑久町百田２６８番地２９,,33,212,7014248,,,,,,,2025-07-29,1,,,,,コウアイホールディングス,0
1394,6300003002321,新規,0,2025-07-29,2025-07-29,合同会社Ｌｕｐｉｎｕｓ,,合同会社,佐賀県,佐賀市,鍋島町大字蛎久１１５－１,,41,201,8490931,,,,,,,2025-07-29,1,,,,,ルピナス,0
1396,6330001033431,新規,0,2025-07-29,2025-07-29,Ｋｕｍａ　ｔｏｎｉｃ株式会社,,株式会社,熊本県,合志市,幾久富１６４７番地２３６,,43,216,8611112,,,,,,,2025-07-29,1,,,,,クマトニック,0
1398,6330003011146,新規,0,2025-07-29,2025-07-29,合同会社三州,,合同会社,熊本県,熊本市北区,武蔵ケ丘５丁目６番８号,,43,105,8618001,,,,,,,2025-07-29,1,,,,,サンシュウ,0
1402,6360001035540,新規,0,2025-07-29,2025-07-29,株式会社ＭｅｇＬｉｎｋ,,株式会社,沖縄県,那覇市,泊１丁目８－１３グランシャトレ崇元寺９０２号室,,47,201,9000012,,,,,,,2025-07-29,1,,,,,メグリンク,0
1411,6410005006656,新規,0,2025-07-29,2025-07-29,ＮＰＯ法人レセンス秋田フットサルユニオン,,その他の設立登記法人,秋田県,秋田市,広面字大袋３８－１,,05,201,0100041,,,,,,,2025-07-29,1,,,,,レセンスアキタフットサルユニオン,0
1419,6450001014683,新規,0,2025-07-29,2025-07-29,株式会社ルイネクサス,,株式会社,北海道,旭川市,南九条通２６丁目５８６番地の２５,,01,204,0788339,,,,,,,2025-07-29,1,,,,,ルイネクサス,0
1422,6470001020820,新規,0,2025-07-29,2025-07-29,株式会社はじめ,,株式会社,香川県,高松市,木太町３２３４番地７,,37,201,7600080,,,,,,,2025-07-29,1,,,,,ハジメ,0
1429,6700150131543,新規,0,2025-07-29,2025-07-29,優勢國際緑能有限公司,00140068,外国会社等,,,,,,,,桃園市中＿區青埔里領航南路二段１９５號２樓,00140069,,,,,2025-07-29,1,,,,,ユウセイコクサイグリーンエナジーリミテツド,0
1430,6700150131551,新規,0,2025-07-29,2025-07-29,Ａｉｎｓｄａｌｅ　Ｔｒａｄｉｎｇ　Ｃｏｒｐ．,,外国会社等,,,,,,,,英領ヴァージン諸島トートラ、ロードタウン、ウィッカムカイ１、トートラピアパーク、ビルディング１、２階,,,,,,2025-07-29,1,,,,,アインズデールトレーデイングコーポレーシヨン,0
1434,7010001257185,新規,0,2025-07-29,2025-07-29,株式会社ニアクリエイト,,株式会社,東京都,千代田区,神田和泉町１番地６－１６ヤマトビル４０５,,13,101,1010024,,,,,,,2025-07-29,1,,,,,ニアクリエイト,0
1435,7010001257193,新規,0,2025-07-29,2025-07-29,株式会社ＭＫ志ぶう,,株式会社,東京都,中央区,銀座２丁目４番１９号千里軒ビルＢ１,,13,102,1040061,,,,,,,2025-07-29,1,,,,,エムケイシブウ,0
1436,7010001257235,新規,0,2025-07-29,2025-07-29,株式会社ソラグリ,,株式会社,東京都,文京区,湯島３丁目３７－１４ＯＬＩＯ湯島７０３,,13,105,1130034,,,,,,,2025-07-29,1,,,,,ソラグリ,0
1437,7010005040430,新規,0,2025-07-29,2025-07-29,一般社団法人ＫＲＴＳ２,,その他の設立登記法人,東京都,千代田区,内幸町２丁目１番６号,,13,101,1000011,,,,,,,2025-07-29,1,,,,,ケイアールティーエスツー,0
1452,7010401192049,新規,0,2025-07-29,2025-07-29,株式会社Ｔａｎｃｅｅ,,株式会社,東京都,港区,赤坂２丁目２１番４号天翔オフィス赤坂ＡＮＮＥＸ３０５‐Ｇ,,13,103,1070052,,,,,,,2025-07-29,1,,,,,タンシー,0
1453,7010401192065,新規,0,2025-07-29,2025-07-29,株式会社スタイルデザインワークス,,株式会社,東京都,港区,北青山２丁目７番１３号,,13,103,1070061,,,,,,,2025-07-29,1,,,,,スタイルデザインワークス,0
1454,7010401192081,新規,0,2025-07-29,2025-07-29,株式会社ＨＡ,,株式会社,東京都,港区,六本木３丁目１６番１２号六本木ＫＳビル５階,,13,103,1060032,,,,,,,2025-07-29,1,,,,,エイチエー,0
1455,7010401192107,新規,0,2025-07-29,2025-07-29,株式会社ＭＩＡＳＴＹＬＥ,,株式会社,東京都,港区,北青山２丁目１２番８－６０４号ピアゲート青山,,13,103,1070061,,,,,,,2025-07-29,1,,,,,ミアスタイル,0
1456,7010401192123,新規,0,2025-07-29,2025-07-29,ＬＳ‐ＳＨＩＰ第８２号株式会社,,株式会社,東京都,港区,六本木１丁目６番１号,,13,103,1060032,,,,,,,2025-07-29,1,,,,,エルエスシップダイハチジュウニゴウ,0
1459,7010403035692,新規,0,2025-07-29,2025-07-29,合同会社プロワームズ,,合同会社,東京都,港区,南青山３丁目１番３６号青山丸竹ビル６Ｆ,,13,103,1070062,,,,,,,2025-07-29,1,,,,,プロワームズ,0
1460,7010403035701,新規,0,2025-07-29,2025-07-29,合同会社Ｍｉｒａｎａ,,合同会社,東京都,港区,海岸１丁目１３番２０－８０６号,,13,103,1050022,,,,,,,2025-07-29,1,,,,,ミラナ,0
1461,7010503007930,新規,0,2025-07-29,2025-07-29,合同会社ｒｕｂｕｌ,,合同会社,東京都,台東区,谷中１丁目３－１０,,13,106,1100001,,,,,,,2025-07-29,1,,,,,ラブル,0
1471,7010901057809,新規,0,2025-07-29,2025-07-29,株式会社ｑｕａｉ,,株式会社,東京都,世田谷区,代沢５丁目１９番１２号ＷＡＶＩＡ・ＳＨＩＭＯＫＩＴＡＺＡＷＡ２階,,13,112,1550032,,,,,,,2025-07-29,1,,,,,クワイ,0
1475,7011001171021,新規,0,2025-07-29,2025-07-29,株式会社Ｖｏｏｓｔｅｒ,,株式会社,東京都,渋谷区,恵比寿西１丁目２５番１１号,,13,113,1500021,,,,,,,2025-07-29,1,,,,,ブースター,0
1476,7011001171054,新規,0,2025-07-29,2025-07-29,株式会社ＥＬＥＢＡＲＬＥ,,株式会社,東京都,渋谷区,神南１丁目１１－４ＦＰＧリンクス神南５階,,13,113,1500041,,,,,,,2025-07-29,1,,,,,エルバーレ,0
1477,7011001171062,新規,0,2025-07-29,2025-07-29,株式会社ＭＥＤＩＡ　ＢＯＵＱＵＥＴ,,株式会社,東京都,渋谷区,神宮前６丁目２３番４号桑野ビル２階,,13,113,1500001,,,,,,,2025-07-29,1,,,,,メディアブーケ,0
1478,7011001171500,新規,0,2025-07-29,2025-07-29,Ｋａｎｏｍｅ株式会社,,株式会社,東京都,渋谷区,円山町５番３号ＭＩＥＵＸ渋谷ビル８階,,13,113,1500044,,,,,,,2025-07-29,1,,,,,カノメ,0
1479,7011003022057,新規,0,2025-07-29,2025-07-29,合同会社地球,,合同会社,東京都,目黒区,上目黒３丁目２９番５－２０８号ザ・パークハウス諏訪山,,13,110,1530051,,,,,,,2025-07-29,1,,,,,チキュウ,0
1480,7011003022065,新規,0,2025-07-29,2025-07-29,合同会社ジークワイ,,合同会社,東京都,渋谷区,道玄坂１丁目１６－６二葉ビル８ｂ,,13,113,1500043,,,,,,,2025-07-29,1,,,,,ジークワイ,0
1482,7011101112528,新規,0,2025-07-29,2025-07-29,星空グループ株式会社,,株式会社,東京都,新宿区,高田馬場３丁目１３番３号高田馬場ファミリービル３０３号室,,13,104,1690075,,,,,,,2025-07-29,1,,,,,ホシゾラグループ,0
1483,7011103016140,新規,0,2025-07-29,2025-07-29,合同会社ＭＭ,,合同会社,東京都,新宿区,新宿２丁目１番５号パークサイドスクウェアー７階,,13,104,1600022,,,,,,,2025-07-29,1,,,,,エムエム,0
1485,7011401027285,新規,0,2025-07-29,2025-07-29,Ｃ＆Ｊ株式会社,,株式会社,東京都,板橋区,舟渡１丁目１７－９－２０２号,,13,119,1740041,,,,,,,2025-07-29,1,,,,,シィーアンドジェージ,0
1486,7011501032359,新規,0,2025-07-29,2025-07-29,株式会社くじさんじはん,,株式会社,東京都,北区,赤羽１丁目７番９号赤羽第一葉山ビル４Ｆ,,13,117,1150045,,,,,,,2025-07-29,1,,,,,クジサンジハン,0
1494,7011701028561,新規,0,2025-07-29,2025-07-29,株式会社誓建設,,株式会社,東京都,江戸川区,北葛西２丁目５番１２号Ａ棟,,13,123,1340081,,,,,,,2025-07-29,1,,,,,チカイケンセツ,0
1500,7011801046513,新規,0,2025-07-29,2025-07-29,株式会社白組,,株式会社,東京都,葛飾区,水元２丁目４番１０号,,13,122,1250032,,,,,,,2025-07-29,1,,,,,シログミ,0
1517,7020001163861,新規,0,2025-07-29,2025-07-29,株式会社得谷,,株式会社,神奈川県,川崎市高津区,久末１５３４番地９,,14,134,2130026,,,,,,,2025-07-29,1,,,,,,0
1518,7020001163928,新規,0,2025-07-29,2025-07-29,株式会社ワナッカム,,株式会社,神奈川県,横浜市鶴見区,平安町１丁目４３番地１４,,14,101,2300031,,,,,,,2025-07-29,1,,,,,ワナッカム,0
1519,7020001164001,新規,0,2025-07-29,2025-07-29,アコールライン株式会社,,株式会社,神奈川県,横浜市南区,六ツ川２丁目３９－１３,,14,105,2320066,,,,,,,2025-07-29,1,,,,,アコールライン,0
1520,7020001164050,新規,0,2025-07-29,2025-07-29,株式会社ＭＳアセットマネジメント,,株式会社,神奈川県,川崎市川崎区,南町１８番地３,,14,131,2100015,,,,,,,2025-07-29,1,,,,,エムエスアセットマネジメント,0
1529,7021001085947,新規,0,2025-07-29,2025-07-29,株式会社Ｌａｔｅｒａｌ,,株式会社,神奈川県,鎌倉市,西鎌倉２丁目９番６号,,14,204,2480035,,,,,,,2025-07-29,1,,,,,ラテラル,0
1538,7030001167762,新規,0,2025-07-29,2025-07-29,株式会社ｎａｔｕｒａｌｌｙ,,株式会社,埼玉県,さいたま市南区,別所５丁目１５番２号,,11,108,3360021,,,,,,,2025-07-29,1,,,,,ナチュラリー,0
1539,7030001167820,新規,0,2025-07-29,2025-07-29,株式会社関東内装,,株式会社,埼玉県,川口市,西川口１丁目３８番２３－６０３号メゾン西川口,,11,203,3320021,,,,,,,2025-07-29,1,,,,,カントウナイソウ,0
1540,7030001167829,新規,0,2025-07-29,2025-07-29,株式会社寿々喜ブレース,,株式会社,埼玉県,春日部市,大枝８４９番地３,,11,214,3440023,,,,,,,2025-07-29,1,,,,,スズキブレース,0
1541,7030001167837,新規,0,2025-07-29,2025-07-29,株式会社Ｅｌｅｓ,,株式会社,埼玉県,富士見市,針ケ谷１丁目８番地２４,,11,235,3540017,,,,,,,2025-07-29,1,,,,,エレズ,0
1543,7030003027279,新規,0,2025-07-29,2025-07-29,ＲＡＩ　ＭＯＴＯＲＳ合同会社,,合同会社,埼玉県,幸手市,中２丁目１１番３３号エストセジュール１０５号室,,11,240,3400115,,,,,,,2025-07-29,1,,,,,ライモータース,0
1546,7040001139793,新規,0,2025-07-29,2025-07-29,大容科技株式会社,,株式会社,千葉県,茂原市,小林２６０１－２,,12,210,2970074,,,,,,,2025-07-29,1,,,,,タイヨウカギ,0
1547,7040001139843,新規,0,2025-07-29,2025-07-29,株式会社まにまに,,株式会社,千葉県,松戸市,五香３丁目１５番地の７,,12,207,2702213,,,,,,,2025-07-29,1,,,,,マニマニ,0
1548,7040001139851,新規,0,2025-07-29,2025-07-29,株式会社Ｋｅｅｎ　Ｓｉｇｈｔ,,株式会社,千葉県,千葉市花見川区,千種町１２１番地１４,,12,102,2620012,,,,,,,2025-07-29,1,,,,,キーンサイト,0
1550,7040003028128,新規,0,2025-07-29,2025-07-29,合同会社サクヤヒメモーターズ,,合同会社,千葉県,山武郡横芝光町,小堤５６番地３オフィス２号,,12,410,2891745,,,,,,,2025-07-29,1,,,,,サクヤヒメモーターズ,0
1551,7040003028144,新規,0,2025-07-29,2025-07-29,４８２エナジーツー合同会社,,合同会社,千葉県,柏市,若柴１７８番地４柏の葉キャンパス１４８街区２ＫＯＩＬ５,,12,217,2770871,,,,,,,2025-07-29,1,,,,,シバフエナジーツー,0
1564,7060001038432,新規,0,2025-07-29,2025-07-29,株式会社ササキ建装,,株式会社,栃木県,栃木市,大平町西水代２８９９番地２,,09,203,3294423,,,,,,,2025-07-29,1,,,,,ササキケンソウ,0
1567,7060003005661,新規,0,2025-07-29,2025-07-29,ＮＢＫ合同会社,,合同会社,栃木県,塩谷郡塩谷町,大字道下５４２番地８,,09,384,3292222,,,,,,,2025-07-29,1,,,,,エヌビーケー,0
1570,7070003006023,新規,0,2025-07-29,2025-07-29,合同会社Ｋｕｓａｔｓｕ　Ｒｅｓｏｒｔ,,合同会社,群馬県,吾妻郡草津町,大字草津３８６番３,,10,426,3771711,,,,,,,2025-07-29,1,,,,,クサツリゾート,0
1573,7080401028056,新規,0,2025-07-29,2025-07-29,アセットリレーション株式会社,,株式会社,静岡県,浜松市中央区,有玉西町２４１１番地の１１二美ビル２階４号室,,22,138,4313123,,,,,,,2025-07-29,1,,,,,アセットリレーション,0
1577,7090001019413,新規,0,2025-07-29,2025-07-29,株式会社かたちケア,,株式会社,山梨県,笛吹市,八代町岡４２６番地４,,19,211,4060834,,,,,,,2025-07-29,1,,,,,,0
1581,7110001039458,新規,0,2025-07-29,2025-07-29,ＳＦＫＴ００５株式会社,,株式会社,新潟県,長岡市,新保２丁目１６番１号,,15,202,9400875,,,,,,,2025-07-29,1,,,,,エスエフケイティーゼロゼロゴ,0
1582,7110003005838,新規,0,2025-07-29,2025-07-29,ＨＡＨＡＨＡ農園合同会社,,合同会社,新潟県,新潟市西蒲区,竹野町１０７５番地,,15,108,9530023,,,,,,,2025-07-29,1,,,,,ハハハノウエン,0
1589,7120001278187,新規,0,2025-07-29,2025-07-29,ペットラボ株式会社,,株式会社,大阪府,大阪市西区,立売堀１丁目６番１３－４１２号,,27,106,5500012,,,,,,,2025-07-29,1,,,,,ペットラボ,0
1590,7120001278245,新規,0,2025-07-29,2025-07-29,文龍株式会社,,株式会社,大阪府,大阪市西成区,萩之茶屋２丁目６番４号－２１１室,,27,122,5570004,,,,,,,2025-07-29,1,,,,,ブンリュウ,0
1591,7120001278286,新規,0,2025-07-29,2025-07-29,オルピーダ株式会社,,株式会社,大阪府,大阪市北区,西天満５丁目２番１８号,,27,127,5300047,,,,,,,2025-07-29,1,,,,,オルピーダ,0
1592,7120001278303,新規,0,2025-07-29,2025-07-29,那須ホールディングス株式会社,,株式会社,大阪府,大阪市北区,豊崎３丁目１５－５ＴＫビル２Ｆ,,27,127,5310072,,,,,,,2025-07-29,1,,,,,ナスホールディングス,0
1594,7120003029885,新規,0,2025-07-29,2025-07-29,合同会社ＴＮＫ,,合同会社,大阪府,大阪市西区,南堀江３丁目１３‐５ウェリナ南堀江６０２,,27,106,5500015,,,,,,,2025-07-29,1,,,,,ティーエヌケー,0
1613,7140001139404,新規,0,2025-07-29,2025-07-29,株式会社ティンヴィー,,株式会社,兵庫県,伊丹市,瑞穂町１丁目６３番地ヨークベルビル３Ｆ,,28,207,6640013,,,,,,,2025-07-29,1,,,,,ティンヴィー,0
1614,7140001139429,新規,0,2025-07-29,2025-07-29,株式会社ａｒｔｉｌｉｂ,,株式会社,兵庫県,加古川市,平岡町新在家１丁目２５２番地の５,,28,210,6750101,,,,,,,2025-07-29,1,,,,,アーティブ,0
1619,7170001018729,新規,0,2025-07-29,2025-07-29,株式会社ハナブラン,,株式会社,和歌山県,和歌山市,毛見１５０８番地１ヴォラーレデルマーレ１３０１号,,30,201,6410014,,,,,,,2025-07-29,1,,,,,ハナブラン,0
1623,7180001167797,新規,0,2025-07-29,2025-07-29,株式会社エスペシオン,,株式会社,愛知県,名古屋市中区,錦２丁目１３－２７・２階,,23,106,4600003,,,,,,,2025-07-29,1,,,,,エスペシオン,0
1624,7180001167839,新規,0,2025-07-29,2025-07-29,株式会社ＮＡＢＥＣＬＵＢ,,株式会社,愛知県,名古屋市守山区,小幡南１丁目７番１３号グランクレア小幡２０８号,,23,113,4630048,,,,,,,2025-07-29,1,,,,,ナベクラブ,0
1625,7180001167863,新規,0,2025-07-29,2025-07-29,株式会社ｐｏｍｍｅ,,株式会社,愛知県,名古屋市北区,清水４丁目１２番４号（アプト清水２０１号）,,23,103,4620844,,,,,,,2025-07-29,1,,,,,ポム,0
1626,7180001167946,新規,0,2025-07-29,2025-07-29,ラ・ボーテありす株式会社,,株式会社,愛知県,名古屋市熱田区,旗屋２丁目２８番５号,,23,109,4560027,,,,,,,2025-07-29,1,,,,,ラボーテアリス,0
1627,7180003028782,新規,0,2025-07-29,2025-07-29,合同会社プティラテ,,合同会社,愛知県,名古屋市名東区,藤が丘１２４番地,,23,115,4650032,,,,,,,2025-07-29,1,,,,,アンビライズプティラテ,0
1633,7190001032430,新規,0,2025-07-29,2025-07-29,株式会社ＡＬＸＵＳ,,株式会社,三重県,津市,新町２丁目１０番２７号,,24,201,5140042,,,,,,,2025-07-29,1,,,,,アルクス,0
1634,7190003005129,新規,0,2025-07-29,2025-07-29,合同会社ミュージックラーニング,,合同会社,三重県,鈴鹿市,南江島町１８番２５号ブァルール江島１０１,,24,207,5100235,,,,,,,2025-07-29,1,,,,,ミュージックラーニング,0
1636,7200001044085,新規,0,2025-07-29,2025-07-29,株式会社ＴＫ,,株式会社,岐阜県,美濃加茂市,太田町２５６５番地の１,,21,211,5050041,,,,,,,2025-07-29,1,,,,,ティーケー,0
1638,7200003006934,新規,0,2025-07-29,2025-07-29,合同会社サステナブル宮川,,合同会社,岐阜県,飛騨市,宮川町菅沼９４番地,,21,217,5094401,,,,,,,2025-07-29,1,,,,,サステナブルミヤガワ,0
1639,7200003006942,新規,0,2025-07-29,2025-07-29,合同会社二光,,合同会社,岐阜県,関市,下有知３９５５番地１,,21,205,5013217,,,,,,,2025-07-29,1,,,,,ニコウ,0
1641,7220001026825,新規,0,2025-07-29,2025-07-29,株式会社Ｄｏｔ　Ｂｙ　Ｄｏｔ,,株式会社,石川県,能美市,東任田町ハ９２番地１,,17,211,9231122,,,,,,,2025-07-29,1,,,,,ドットバイドット,0
1649,7270003001771,新規,0,2025-07-29,2025-07-29,合同会社アクト電工,,合同会社,鳥取県,鳥取市,杉崎３７３番地,,31,201,6891101,,,,,,,2025-07-29,1,,,,,アクトデンコウ,0
1650,7280003001977,新規,0,2025-07-29,2025-07-29,シンコトバ合同会社,,合同会社,島根県,浜田市,後野町７１１番地２,,32,202,6970011,,,,,,,2025-07-29,1,,,,,シンコトバ,0
1653,7290801031737,新規,0,2025-07-29,2025-07-29,株式会社アイビーホーム,,株式会社,福岡県,直方市,大字感田１８７１番地１０,,40,204,8220001,,,,,,,2025-07-29,1,,,,,アイビーホーム,0
1657,7300001014284,新規,0,2025-07-29,2025-07-29,株式会社ｄｅｌｉｃａｔ,,株式会社,佐賀県,佐賀市,大和町尼寺２５７８番地１ユメックスマンション大和ＩＩ６０５号,00140085,41,201,8490000,,,,,,,2025-07-29,1,,,,,デリカ,0
1658,7300001014292,新規,0,2025-07-29,2025-07-29,株式会社天将丸,,株式会社,佐賀県,杵島郡白石町,大字深浦３６７番地１,,41,425,8491207,,,,,,,2025-07-29,1,,,,,テンショウマル,0
1659,7300003002320,新規,0,2025-07-29,2025-07-29,合同会社尚学社,,合同会社,佐賀県,伊万里市,波多津町主屋１８０４番地１,,41,205,8480114,,,,,,,2025-07-29,1,,,,,ショウガクシャ,0
1686,7370001052889,新規,0,2025-07-29,2025-07-29,株式会社パルネスト,,株式会社,宮城県,仙台市若林区,大和町１丁目４番８号,,04,103,9840042,,,,,,,2025-07-29,1,,,,,パルネスト,0
1690,7390001018070,新規,0,2025-07-29,2025-07-29,株式会社ＯＲＩＭＥ,,株式会社,山形県,山形市,幸町６番１号,,06,201,9900038,,,,,,,2025-07-29,1,,,,,,0
1698,7450005004457,新規,0,2025-07-29,2025-07-29,ＫＧＣ協同組合,,その他の設立登記法人,北海道,旭川市,末広東一条６丁目１番８号,,01,204,0718121,,,,,,,2025-07-29,1,,,,,ケージーシー,0
1706,7700150131550,新規,0,2025-07-29,2025-07-29,ＪＡＹＡＫＡＷＡ　ＨＯＬＤＩＮＧ　ＩＮＴＥＲＮＡＴＩＯＮＡＬ　（Ｐ・Ｖ・Ｔ）　ＬＴＤ,,外国会社等,茨城県,常総市,古間木２０１,,08,211,3002724,スリランカ民主社会主義共和国、キャンディ、バトゥゴダ、キラカガマ、Ｎｏ２３９／４,,,,,,2025-07-29,1,,,,,ジヤヤカワホールデイングインターナシヨナルピービテイリミテツド,0
1712,8010001257077,新規,0,2025-07-29,2025-07-29,縁創テック株式会社,,株式会社,東京都,千代田区,神田和泉町１番地６－１６マトビ儿４０５,,13,101,1010024,,,,,,,2025-07-29,1,,,,,エンソウテック,0
1713,8010001257168,新規,0,2025-07-29,2025-07-29,株式会社ＢＩＮＡＲＩ,,株式会社,東京都,中央区,銀座４丁目１４番３号銀座斉藤ビル６階,,13,102,1040061,,,,,,,2025-07-29,1,,,,,ビナリ,0
1714,8010001257176,新規,0,2025-07-29,2025-07-29,ＮＯＶＡＧＲＩＤ株式会社,,株式会社,東京都,中央区,日本橋３丁目２番１４号新槇町ビル別館第一１階,,13,102,1030027,,,,,,,2025-07-29,1,,,,,ノヴァグリッド,0
1717,8010003048160,新規,0,2025-07-29,2025-07-29,合同会社ワクブル,,合同会社,東京都,文京区,本郷７丁目２番６号,,13,105,1130033,,,,,,,2025-07-29,1,,,,,ワクブル,0
1718,8010003048169,新規,0,2025-07-29,2025-07-29,合同会社ミクラス,,合同会社,東京都,中央区,日本橋本町１丁目８番１３号日本橋滄浪閣ビル２階Ｒフロア,,13,102,1030023,,,,,,,2025-07-29,1,,,,,ミクラス,0
1719,8010003048185,新規,0,2025-07-29,2025-07-29,諏訪山合同会社,,合同会社,東京都,千代田区,丸の内１丁目４番１号東京共同会計事務所内,,13,101,1000005,,,,,,,2025-07-29,1,,,,,スワヤマ,0
1721,8010005040438,新規,0,2025-07-29,2025-07-29,ニースグループ行政書士法人,,その他の設立登記法人,東京都,千代田区,一番町２２番地２,,13,101,1020082,,,,,,,2025-07-29,1,,,,,ニースグループ,0
1726,8010401192048,新規,0,2025-07-29,2025-07-29,株式会社ＯＮＴＡ＆Ｃｏ,,株式会社,東京都,港区,南青山５丁目１番１０号南青山第一マンションズ４０８号室,,13,103,1070062,,,,,,,2025-07-29,1,,,,,オンタアンドコー,0
1727,8010401192056,新規,0,2025-07-29,2025-07-29,株式会社ファーストビュー,,株式会社,東京都,港区,六本木３丁目１６番１２号六本木ＫＳビル５Ｆ,,13,103,1060032,,,,,,,2025-07-29,1,,,,,ファーストビュー,0
1728,8010401192064,新規,0,2025-07-29,2025-07-29,株式会社ＰＬＡＮＥＴ　ＴＯＫＹＯ,,株式会社,東京都,港区,南青山１丁目９－６杉浦ビル１０２,,13,103,1070062,,,,,,,2025-07-29,1,,,,,プラネットトウキョウ,0
1729,8010401192080,新規,0,2025-07-29,2025-07-29,株式会社健明堂製薬,,株式会社,東京都,港区,北青山１丁目３－３三橋ビル３階,,13,103,1070061,,,,,,,2025-07-29,1,,,,,ケンメイドウセイヤク,0
1730,8010401192122,新規,0,2025-07-29,2025-07-29,ＬＳ‐ＳＨＩＰ第８１号株式会社,,株式会社,東京都,港区,六本木１丁目６番１号,,13,103,1060032,,,,,,,2025-07-29,1,,,,,エルエスシップダイハチジュウイチゴウ,0
1733,8010403035691,新規,0,2025-07-29,2025-07-29,合同会社ＵＭＵ,,合同会社,東京都,港区,南青山２丁目２番１５号ＷＩＮ青山５３１,,13,103,1070062,,,,,,,2025-07-29,1,,,,,ウム,0
1734,8010403035700,新規,0,2025-07-29,2025-07-29,ユーデイズ合同会社,,合同会社,東京都,港区,港南３丁目６番２１－６１６号,,13,103,1080075,,,,,,,2025-07-29,1,,,,,ユーデイズ,0
1735,8010405024552,新規,0,2025-07-29,2025-07-29,一般社団法人デジタルテスト推進協会,,その他の設立登記法人,東京都,港区,六本木７丁目１５番７号,,13,103,1060032,,,,,,,2025-07-29,1,,,,,デジタルテストスイシンキョウカイ,0
1736,8010505003621,新規,0,2025-07-29,2025-07-29,一般社団法人浅草松よし,,その他の設立登記法人,東京都,台東区,浅草４丁目３８番６号,,13,106,1110032,,,,,,,2025-07-29,1,,,,,アサクサマツヨシ,0
1738,8010601067652,新規,0,2025-07-29,2025-07-29,Ｎｏｖａ　Ｖｉｓｔａ株式会社,,株式会社,東京都,江東区,亀戸５丁目３０－９－９０６,,13,108,1360071,,,,,,,2025-07-29,1,,,,,ノヴァヴィスタ,0
1739,8010601067693,新規,0,2025-07-29,2025-07-29,株式会社和光貿易,,株式会社,東京都,墨田区,両国１丁目１２番１２号塚田ビル３階,,13,107,1300026,,,,,,,2025-07-29,1,,,,,ワコウボウエキ,0
1741,8010701048081,新規,0,2025-07-29,2025-07-29,株式会社Ｋｎｏｔ　Ｔｒａｖｅｌ,,株式会社,東京都,品川区,上大崎３丁目５番８号,,13,109,1410021,,,,,,,2025-07-29,1,,,,,ノットトラベル,0
1742,8010803005484,新規,0,2025-07-29,2025-07-29,合同会社グランツェン,,合同会社,東京都,大田区,上池台３丁目２５番３号,,13,111,1450064,,,,,,,2025-07-29,1,,,,,グランツェン,0
1743,8010901057741,新規,0,2025-07-29,2025-07-29,株式会社ＹａＫａＴａ,,株式会社,東京都,世田谷区,世田谷４丁目８番５－３０５号,,13,112,1540017,,,,,,,2025-07-29,1,,,,,ヤカタ,0
1745,8010903010137,新規,0,2025-07-29,2025-07-29,ｎ２合同会社,,合同会社,東京都,世田谷区,羽根木２丁目４０－２２－４０１,,13,112,1560042,,,,,,,2025-07-29,1,,,,,エヌツー,0
1746,8010903010145,新規,0,2025-07-29,2025-07-29,Ｋ＆Ｃｏ．合同会社,,合同会社,東京都,世田谷区,代沢４丁目３３番３号,,13,112,1550032,,,,,,,2025-07-29,1,,,,,ケイアンドシーオードット,0
1748,8011001171037,新規,0,2025-07-29,2025-07-29,ＰＡＬＡ株式会社,,株式会社,東京都,渋谷区,神宮前２丁目１８番１９号ｔｈｅＦｏｌｋｓ・４Ｊ,,13,113,1500001,,,,,,,2025-07-29,1,,,,,パラ,0
1749,8011001171045,新規,0,2025-07-29,2025-07-29,株式会社ゼットスタンス,,株式会社,東京都,渋谷区,神南１丁目１１－４ＦＰＧリンクス神南５階,,13,113,1500041,,,,,,,2025-07-29,1,,,,,ゼットスタンス,0
1751,8011003022056,新規,0,2025-07-29,2025-07-29,ＴＡＰＩＴ合同会社,,合同会社,東京都,渋谷区,道玄坂２丁目１９番３－４１２号,,13,113,1500043,,,,,,,2025-07-29,1,,,,,タピット,0
1752,8011003022072,新規,0,2025-07-29,2025-07-29,合同会社ＭＳＫ,,合同会社,東京都,渋谷区,道玄坂２丁目１９番３号ライオンズマンション２０２,,13,113,1500043,,,,,,,2025-07-29,1,,,,,,0
1755,8011101112428,新規,0,2025-07-29,2025-07-29,モモタロウ株式会社,,株式会社,東京都,新宿区,西新宿３丁目３番１３号西新宿水間ビル６階,,13,104,1600023,,,,,,,2025-07-29,1,,,,,モモタロウ,0
1761,8011501032358,新規,0,2025-07-29,2025-07-29,株式会社嶋田内装,,株式会社,東京都,北区,浮間４丁目２０番１０号,,13,117,1150051,,,,,,,2025-07-29,1,,,,,シマダナイソウ,0
1762,8011501032366,新規,0,2025-07-29,2025-07-29,株式会社Ｔｏｍ救急サービス,,株式会社,東京都,北区,東十条４丁目６番１１号,,13,117,1140001,,,,,,,2025-07-29,1,,,,,トムキュウキュウサービス,0
1763,8011601028834,新規,0,2025-07-29,2025-07-29,ジュピタープロジェクト株式会社,,株式会社,東京都,練馬区,北町２丁目３１番３号,,13,120,1790081,,,,,,,2025-07-29,1,,,,,ジュピタープロジェクト,0
1764,8011601028842,新規,0,2025-07-29,2025-07-29,鴻宇投資株式会社,,株式会社,東京都,練馬区,豊玉北４丁目１７－３－１０１号室,,13,120,1760012,,,,,,,2025-07-29,1,,,,,コウトウシ,0
1769,8011703004329,新規,0,2025-07-29,2025-07-29,樹楽瑞江合同会社,,合同会社,東京都,江戸川区,江戸川３丁目１９－１６,,13,123,1320013,,,,,,,2025-07-29,1,,,,,キラクミズエ,0
1773,8012703003329,新規,0,2025-07-29,2025-07-29,合同会社つきのつかさ,,合同会社,東京都,西東京市,芝久保町３丁目１０番地７号,,13,229,1880014,,,,,,,2025-07-29,1,,,,,,0
1778,8013301054656,新規,0,2025-07-29,2025-07-29,盛和株式会社,,株式会社,東京都,豊島区,西池袋５丁目２６番１６号ＣＨＩＢＡビル５１６号室,,13,116,1710021,,,,,,,2025-07-29,1,,,,,セイワ,0
1779,8013301054672,新規,0,2025-07-29,2025-07-29,＿渡株式会社,00140093,株式会社,東京都,豊島区,上池袋２丁目４０－１２－６０１号室,,13,116,1700012,,,,,,,2025-07-29,1,,,,,レイト,0
1780,8013303007785,新規,0,2025-07-29,2025-07-29,ｉＴｅｃｈＨｕｂ合同会社,,合同会社,東京都,豊島区,東池袋１丁目４４番４号,,13,116,1700013,,,,,,,2025-07-29,1,,,,,テックハブ,0
1794,8030001167828,新規,0,2025-07-29,2025-07-29,翼株式会社,,株式会社,埼玉県,さいたま市桜区,田島１０丁目１番１４－５号,,11,106,3380837,,,,,,,2025-07-29,1,,,,,ツバサ,0
1795,8030001167836,新規,0,2025-07-29,2025-07-29,株式会社ｄｏｔｓ　ｔｏ　ｌｉｎｅ,,株式会社,埼玉県,新座市,北野２丁目６番２５－２号,,11,230,3520003,,,,,,,2025-07-29,1,,,,,ドッツトゥライン,0
1796,8030001167852,新規,0,2025-07-29,2025-07-29,株式会社ＲｅｎｏＣｈｉｃ,,株式会社,埼玉県,さいたま市南区,辻２丁目２３番１５号,00140082,11,108,3360026,,,,,,,2025-07-29,1,,,,,レノシック,0
1797,8030001167860,新規,0,2025-07-29,2025-07-29,株式会社フープ,,株式会社,埼玉県,川口市,戸塚２丁目５番５号,,11,203,3330811,,,,,,,2025-07-29,1,,,,,フープ,0
1798,8030001167869,新規,0,2025-07-29,2025-07-29,株式会社ＦＬＵＸ,,株式会社,埼玉県,戸田市,大字新曽１６５２番地,,11,224,3350021,,,,,,,2025-07-29,1,,,,,フラックス,0
1802,8030003027303,新規,0,2025-07-29,2025-07-29,合同会社ｋｏｎｏ　ｍｏｎｏ,,合同会社,埼玉県,川越市,藤原町２１―１５,,11,201,3501143,,,,,,,2025-07-29,1,,,,,コノモノ,0
1811,8040001139826,新規,0,2025-07-29,2025-07-29,株式会社スリーコネクト,,株式会社,千葉県,千葉市中央区,大森町４４０番地９,,12,101,2600811,,,,,,,2025-07-29,1,,,,,スリーコネクト,0
1813,8040003028077,新規,0,2025-07-29,2025-07-29,ＹＯＬＯ合同会社,,合同会社,千葉県,市川市,福栄４丁目１－１４ＹＯＬＯＧＹＭ,,12,203,2720137,,,,,,,2025-07-29,1,,,,,ヨロ,0
1814,8040003028127,新規,0,2025-07-29,2025-07-29,羽成合同会社,,合同会社,千葉県,印西市,東の原３丁目１－５４,,12,231,2701336,,,,,,,2025-07-29,1,,,,,ウナリ,0
1815,8040005022838,新規,0,2025-07-29,2025-07-29,一般社団法人日本シュラスコ協会,,その他の設立登記法人,千葉県,船橋市,本町６丁目３－１６レックスマンション１０１,,12,204,2730005,,,,,,,2025-07-29,1,,,,,ニホンシュラスコキョウカイ,0
1821,8060003005652,新規,0,2025-07-29,2025-07-29,ＡＨＭＥＤ　ＴＲＡＤＩＮＧ合同会社,,合同会社,栃木県,那須烏山市,城東１５番２３号ササザキハイツ１０２号室,,09,215,3210622,,,,,,,2025-07-29,1,,,,,アーメドトレーディング,0
1823,8070001043190,新規,0,2025-07-29,2025-07-29,株式会社ニコデン,,株式会社,群馬県,太田市,熊野町１７番６号,,10,205,3730025,,,,,,,2025-07-29,1,,,,,ニコデン,0
1838,8090001019412,新規,0,2025-07-29,2025-07-29,株式会社羽立,,株式会社,山梨県,南都留郡富士河口湖町,勝山４６３０番地１,,19,430,4010310,,,,,,,2025-07-29,1,,,,,,0
1841,8100001038798,新規,0,2025-07-29,2025-07-29,侑絆工業株式会社,,株式会社,長野県,長野市,川中島町上氷鉋１０８３番地１,,20,201,3812233,,,,,,,2025-07-29,1,,,,,ユウキコウギョウ,0
1844,8100003008312,新規,0,2025-07-29,2025-07-29,合同会社ＧＧＣ,,合同会社,長野県,長野市,大字南長野新田町１１２０番地２ネクストＮＡＧＡＮＯ内,,20,201,3800835,,,,,,,2025-07-29,1,,,,,ジージーシー,0
1846,8110001039457,新規,0,2025-07-29,2025-07-29,株式会社温心和堂,,株式会社,新潟県,新潟市中央区,信濃町１１番８号,,15,103,9518152,,,,,,,2025-07-29,1,,,,,オンシンワドウ,0
1848,8110003005837,新規,0,2025-07-29,2025-07-29,合同会社弘翔興業,,合同会社,新潟県,新潟市西蒲区,葉萱場３７番地３,,15,108,9530034,,,,,,,2025-07-29,1,,,,,コウショウコウギョウ,0
1858,8120001278228,新規,0,2025-07-29,2025-07-29,株式会社ブライトフォーチュン,,株式会社,大阪府,大阪市中央区,道修町１丁目３番８号道修町カンプラビル３０４,,27,128,5410045,,,,,,,2025-07-29,1,,,,,ブライトフォーチュン,0
1859,8120001278244,新規,0,2025-07-29,2025-07-29,株式会社ＯＮＥ,,株式会社,大阪府,大阪市浪速区,難波中２丁目１０番７０号,,27,111,5560011,,,,,,,2025-07-29,1,,,,,ワン,0
1860,8120001278293,新規,0,2025-07-29,2025-07-29,富泉株式会社,,株式会社,大阪府,大阪市東淀川区,北江口４丁目２－１５,,27,114,5330002,,,,,,,2025-07-29,1,,,,,トミイズミ,0
1861,8120001278376,新規,0,2025-07-29,2025-07-29,天心実業株式会社,,株式会社,大阪府,大阪市北区,豊崎６丁目１１番７号,,27,127,5310072,,,,,,,2025-07-29,1,,,,,テンシンジツギョウ,0
1884,8140001139411,新規,0,2025-07-29,2025-07-29,株式会社Ｎｅｘｔ　Ｏｎｅ,,株式会社,兵庫県,神戸市垂水区,西舞子１丁目８番３号,,28,108,6550048,,,,,,,2025-07-29,1,,,,,ネクストワン,0
1888,8140003022342,新規,0,2025-07-29,2025-07-29,合同会社ＦＭＯ,,合同会社,兵庫県,神戸市西区,伊川谷町有瀬９８８番地の６,,28,111,6512113,,,,,,,2025-07-29,1,,,,,エフエムオー,0
1900,8180001167706,新規,0,2025-07-29,2025-07-29,株式会社ＲＩＫＡ,,株式会社,愛知県,名古屋市南区,豊田４丁目８番２号,,23,112,4570841,,,,,,,2025-07-29,1,,,,,リカ,0
1901,8180001167870,新規,0,2025-07-29,2025-07-29,株式会社岩竹組,,株式会社,愛知県,名古屋市中川区,東中島町５丁目８５番地の１,,23,110,4540866,,,,,,,2025-07-29,1,,,,,イワタケグミ,0
1904,8180305009711,新規,0,2025-07-29,2025-07-29,社会保険労務士法人エスペランサ,,その他の設立登記法人,愛知県,額田郡幸田町,大字菱池字大久後２８番地１,,23,501,4440113,,,,,,,2025-07-29,1,,,,,エスペランサ,0
1910,8200001044084,新規,0,2025-07-29,2025-07-29,株式会社ＬＡＢＯ,,株式会社,岐阜県,本巣市,春近１９５番地１,,21,218,5010404,,,,,,,2025-07-29,1,,,,,ラボ,0
1916,8220001026824,新規,0,2025-07-29,2025-07-29,能登まるごと株式会社,,株式会社,石川県,鳳珠郡穴水町,字曽福ト４９番地,,17,461,9270039,,,,,,,2025-07-29,1,,,,,ノトマルゴト,0
1917,8220003004084,新規,0,2025-07-29,2025-07-29,金沢クラフト合同会社,,合同会社,石川県,金沢市,田上さくら３丁目８２番地,,17,201,9201157,,,,,,,2025-07-29,1,,,,,カナザワクラフト,0
1929,8250003003785,新規,0,2025-07-29,2025-07-29,合同会社ＺＩＯＮ,,合同会社,山口県,下関市,大字福江４０７番地７,,35,201,7596601,,,,,,,2025-07-29,1,,,,,ザイオン,0
1933,8280003001976,新規,0,2025-07-29,2025-07-29,合同会社ななほ,,合同会社,島根県,浜田市,金城町七条ハ３９番地,,32,202,6970123,,,,,,,2025-07-29,1,,,,,ナナホ,0
1938,8290801031736,新規,0,2025-07-29,2025-07-29,株式会社アイズテック,,株式会社,福岡県,田川郡香春町,大字香春７１４番地２,,40,601,8221406,,,,,,,2025-07-29,1,,,,,アイズテック,0
1943,8330001033438,新規,0,2025-07-29,2025-07-29,株式会社ｇｒｅｅｎｌｅａｆ,,株式会社,熊本県,熊本市西区,上熊本２丁目７番３０号ロマネスク上熊本第二１０２号室,,43,103,8600079,,,,,,,2025-07-29,1,,,,,グリーンリーフ,0
1954,8360003015118,新規,0,2025-07-29,2025-07-29,合同会社ピオリム,,合同会社,沖縄県,那覇市,松山２丁目９番１号昭南産業ビルＢ１Ｆ,,47,201,9000032,,,,,,,2025-07-29,1,,,,,ピオリム,0
1968,8430001094874,新規,0,2025-07-29,2025-07-29,株式会社ＩＳＧ,,株式会社,北海道,札幌市白石区,菊水上町四条２丁目５２番地２６６、４・２ハイツ１０２号,,01,104,0030814,,,,,,,2025-07-29,1,,,,,アイエスジー,0
1969,8430001094916,新規,0,2025-07-29,2025-07-29,株式会社ウェーブメディア,,株式会社,北海道,恵庭市,黄金南４丁目４番地６,,01,231,0611409,,,,,,,2025-07-29,1,,,,,ウェーブメディア,0
1973,8430003017932,新規,0,2025-07-29,2025-07-29,合同会社アストロボール,,合同会社,北海道,札幌市豊平区,月寒西四条７丁目３‐２５‐２１２,,01,105,0620024,,,,,,,2025-07-29,1,,,,,アストロボール,0
1980,8480001012906,新規,0,2025-07-29,2025-07-29,株式会社豆よし,,株式会社,徳島県,海部郡美波町,奥河内字寺前１１１番地３,,36,387,7792305,,,,,,,2025-07-29,1,,,,,マメヨシ,0
1985,8500001026440,新規,0,2025-07-29,2025-07-29,久万森林資源開発株式会社,,株式会社,愛媛県,上浮穴郡久万高原町,久万２７６番地１,,38,386,7911201,,,,,,,2025-07-29,1,,,,,クマシンリンシゲンカイハツ,0
1986,8500005008807,新規,0,2025-07-29,2025-07-29,一般社団法人ＴＲＹ　Ｆｏｒ　ＬＩＦＥ,,その他の設立登記法人,愛媛県,松山市,愛光町２番２４号,,38,201,7900064,,,,,,,2025-07-29,1,,,,,トライフォーライフ,0
1996,9010001257092,新規,0,2025-07-29,2025-07-29,築地グローバル株式会社,,株式会社,東京都,中央区,築地７丁目１２番１３－５０４号,,13,102,1040045,,,,,,,2025-07-29,1,,,,,ツキヂグローバル,0
1997,9010001257191,新規,0,2025-07-29,2025-07-29,シックス・フィールズ株式会社,,株式会社,東京都,千代田区,麹町６丁目４番１６号ＥＳＣＡＬＩＥＲ麹町５階,,13,101,1020083,,,,,,,2025-07-29,1,,,,,シックスフィールズ,0
2000,9010003048184,新規,0,2025-07-29,2025-07-29,合同会社ＤＬＭＡロジスティクス,,合同会社,東京都,千代田区,丸の内１丁目４番１号東京共同会計事務所内,,13,101,1000005,,,,,,,2025-07-29,1,,,,,ディーエルエムエーロジスティクス,0
2013,9010401192047,新規,0,2025-07-29,2025-07-29,株式会社ヴァロレル,,株式会社,東京都,港区,西麻布４丁目１５番２－７０８号,,13,103,1060031,,,,,,,2025-07-29,1,,,,,ヴァロレル,0
2014,9010401192063,新規,0,2025-07-29,2025-07-29,ロビンフッド株式会社,,株式会社,東京都,港区,新橋１丁目５番６号銀座第３誠和ビル７階,,13,103,1050004,,,,,,,2025-07-29,1,,,,,ロビンフッド,0
2015,9010401192096,新規,0,2025-07-29,2025-07-29,ＥＳＰＡＣＥ株式会社,,株式会社,東京都,港区,六本木３丁目１番３０号Ａ・Ｂビル６階,,13,103,1060032,,,,,,,2025-07-29,1,,,,,イースペース,0
2016,9010401192121,新規,0,2025-07-29,2025-07-29,ＬＳ‐ＳＨＩＰ第８０号株式会社,,株式会社,東京都,港区,六本木１丁目６番１号,,13,103,1060032,,,,,,,2025-07-29,1,,,,,エルエスシップダイハチジュウゴウ,0
2018,9010403035674,新規,0,2025-07-29,2025-07-29,エナレア合同会社,,合同会社,東京都,港区,北青山１丁目３番１号アールキューブ青山３階,,13,103,1070061,,,,,,,2025-07-29,1,,,,,エナレア,0
2019,9010403035690,新規,0,2025-07-29,2025-07-29,合同会社蘇仁堂,,合同会社,東京都,港区,新橋４丁目２９番１号プラウド新虎通り５０５,,13,103,1050004,,,,,,,2025-07-29,1,,,,,ソニンドウ,0
2020,9010403035699,新規,0,2025-07-29,2025-07-29,合同会社ヴァルレジデンス,,合同会社,東京都,港区,赤坂５丁目３番３－９０５号,,13,103,1070052,,,,,,,2025-07-29,1,,,,,ヴァルレジデンス,0
2022,9010503007929,新規,0,2025-07-29,2025-07-29,合同会社Ｌｕｆｏｎ,,合同会社,東京都,台東区,上野５丁目１９番５号ＵｅｎｏＫＹＢＬＤＧ．４Ｆ,,13,106,1100005,,,,,,,2025-07-29,1,,,,,ルフォン,0
2023,9010601067651,新規,0,2025-07-29,2025-07-29,株式会社ライフ・グローバル・ヴィジョン,,株式会社,東京都,江東区,豊洲３丁目４番２－４６０９号,,13,108,1350061,,,,,,,2025-07-29,1,,,,,ライフグローバルヴィジョン,0
2024,9010603011707,新規,0,2025-07-29,2025-07-29,成龍合同会社,,合同会社,東京都,江東区,亀戸５丁目３２－５Ｋ＆Ｓ亀戸１０１室,,13,108,1360071,,,,,,,2025-07-29,1,,,,,セイリュウ,0
2025,9010701048056,新規,0,2025-07-29,2025-07-29,株式会社Ｖｉｓｔｏｒｉａ,,株式会社,東京都,品川区,西五反田２丁目２４番１０－１２０２号,,13,109,1410031,,,,,,,2025-07-29,1,,,,,ビストリア,0
2027,9010901057815,新規,0,2025-07-29,2025-07-29,株式会社ｃｈｅｅｈｏｏ．,,株式会社,東京都,世田谷区,深沢６丁目２５番１７号,,13,112,1580081,,,,,,,2025-07-29,1,,,,,チーフードット,0
2033,9011001171011,新規,0,2025-07-29,2025-07-29,株式会社ｌｉｖｏ,,株式会社,東京都,渋谷区,千駄ヶ谷５丁目２７番５号,,13,113,1510051,,,,,,,2025-07-29,1,,,,,,0
2034,9011001171028,新規,0,2025-07-29,2025-07-29,株式会社ＶＩＶＯ,,株式会社,東京都,目黒区,目黒本町１丁目７－２１パークサイドレジデンス１０１,,13,110,1520002,,,,,,,2025-07-29,1,,,,,ヴィーヴォ,0
2035,9011001171498,新規,0,2025-07-29,2025-07-29,Ｅｘｆｏｒｔ株式会社,,株式会社,東京都,渋谷区,神南１丁目１１番４号ＦＰＧリンクス神南５階,,13,113,1500041,,,,,,,2025-07-29,1,,,,,エクスフォート,0
2043,9011003022204,新規,0,2025-07-29,2025-07-29,ＹＵＫＡＲＩ合同会社,,合同会社,東京都,渋谷区,道玄坂１丁目１０－８渋谷道玄坂東急ビル２Ｆ－Ｃ,,13,113,1500043,,,,,,,2025-07-29,1,,,,,ユカリ,0
2044,9011003022229,新規,0,2025-07-29,2025-07-29,なんとなく合同会社,,合同会社,東京都,目黒区,下目黒１丁目１番１４号コノトラビル７Ｆ,,13,110,1530064,,,,,,,2025-07-29,1,,,,,ナントナク,0
2050,9011101112690,新規,0,2025-07-29,2025-07-29,東京光線Ｖ株式会社,,株式会社,東京都,新宿区,西新宿４丁目１７番１０－２１６号,,13,104,1600023,,,,,,,2025-07-29,1,,,,,トウキョウコウセンブイ,0
2051,9011101112732,新規,0,2025-07-29,2025-07-29,株式会社ＭＫ．ｍｕｓｉｃａ,,株式会社,東京都,新宿区,大久保２丁目５－２０－５０１,,13,104,1690072,,,,,,,2025-07-29,1,,,,,エムケームジカ,0
2053,9011201026535,新規,0,2025-07-29,2025-07-29,株式会社シャルマンエステート,,株式会社,東京都,中野区,野方６丁目４６番６号,,13,114,1650027,,,,,,,2025-07-29,1,,,,,シャルマンエステート,0
2064,9011501032357,新規,0,2025-07-29,2025-07-29,株式会社ＯＫソリューション,,株式会社,東京都,荒川区,西日暮里２丁目１８－１０－１３０３,,13,118,1160013,,,,,,,2025-07-29,1,,,,,オーケーソリューション,0
2065,9011501032365,新規,0,2025-07-29,2025-07-29,株式会社友成エステート,,株式会社,東京都,北区,浮間３丁目５番１５ザ・グレストリザアシズ４０５,,13,117,1150051,,,,,,,2025-07-29,1,,,,,ユウセイエステート,0
2072,9011703004328,新規,0,2025-07-29,2025-07-29,騰順合同会社,,合同会社,東京都,江戸川区,南小岩３丁目１番１４号プランドールＭ１２６室,,13,123,1330056,,,,,,,2025-07-29,1,,,,,トウジュン,0
2078,9012403007257,新規,0,2025-07-29,2025-07-29,合同会社新生貨物,,合同会社,東京都,府中市,幸町２丁目３９番地都営第３アパート１号棟３０４,,13,206,1830054,,,,,,,2025-07-29,1,,,,,シンセイカモツ,0
2089,9020003028929,新規,0,2025-07-29,2025-07-29,合同会社多田工務店,,合同会社,神奈川県,横浜市緑区,三保町１９１６番地２４,,14,113,2260015,,,,,,,2025-07-29,1,,,,,タダコウムテン,0
2090,9020003029051,新規,0,2025-07-29,2025-07-29,合同会社Ｅｔｔｙ,,合同会社,神奈川県,横浜市瀬谷区,三ツ境１１‐１,,14,114,2460022,,,,,,,2025-07-29,1,,,,,エティ,0
2091,9021001085895,新規,0,2025-07-29,2025-07-29,株式会社蓮虎,,株式会社,神奈川県,横須賀市,粟田１丁目４番１５号,,14,201,2390845,,,,,,,2025-07-29,1,,,,,レント,0
2099,9030001167884,新規,0,2025-07-29,2025-07-29,株式会社ファーメント,,株式会社,埼玉県,蓮田市,大字城５７５,,11,238,3490143,,,,,,,2025-07-29,1,,,,,ファーメント,0
2104,9030003027285,新規,0,2025-07-29,2025-07-29,合同会社Ｐ‐２,,合同会社,埼玉県,蓮田市,東５丁目２番５号,,11,238,3490111,,,,,,,2025-07-29,1,,,,,,0
2105,9030005022227,新規,0,2025-07-29,2025-07-29,一般社団法人ｋｏｔｏｔａｍａ,,その他の設立登記法人,埼玉県,上尾市,愛宕１丁目２８番２２号荒井第２ビル８０２,,11,219,3620034,,,,,,,2025-07-29,1,,,,,コトタマ,0
2111,9040001139841,新規,0,2025-07-29,2025-07-29,株式会社エレキャスリゾート,,株式会社,千葉県,千葉市中央区,椿森１丁目２１番３２号,,12,101,2600042,,,,,,,2025-07-29,1,,,,,エレキャスリゾート,0
2124,9070001043181,新規,0,2025-07-29,2025-07-29,Ｋ２ジャパン株式会社,,株式会社,群馬県,前橋市,新前橋町１８番地４８,,10,201,3710843,,,,,,,2025-07-29,1,,,,,ケイトゥージャパン,0
2132,9090001019411,新規,0,2025-07-29,2025-07-29,ルカ株式会社,,株式会社,山梨県,北杜市,小淵沢町６３２２番地,,19,209,4080044,,,,,,,2025-07-29,1,,,,,,0
2137,9100001038806,新規,0,2025-07-29,2025-07-29,株式会社ポッシブルサービス,,株式会社,長野県,南佐久郡佐久穂町,大字高野町２９１３番地６,,20,309,3840613,,,,,,,2025-07-29,1,,,,,ポッシブルサービス,0
2138,9100003008311,新規,0,2025-07-29,2025-07-29,Ｔ　Ｓｑｕａｒｅ　Ｂｏｍｂｏｒａ　Ｔｓｕｇａｉｋｅ合同会社,,合同会社,長野県,北安曇郡小谷村,大字千国字高見乙５０８番,,20,486,3999422,,,,,,,2025-07-29,1,,,,,ティースクエアボンボラツガイケ,0
2152,9120001278276,新規,0,2025-07-29,2025-07-29,株式会社トラストアーク,,株式会社,大阪府,大阪市中央区,南船場３丁目２番２２号おおきに南船場ビル２０５,,27,128,5420081,,,,,,,2025-07-29,1,,,,,トラストアーク,0
2153,9120001278318,新規,0,2025-07-29,2025-07-29,株式会社明治発明会,,株式会社,大阪府,守口市,寺方錦通１丁目４番２７号,,27,209,5700042,,,,,,,2025-07-29,1,,,,,メイジハツメイカイ,0
2154,9120003030123,新規,0,2025-07-29,2025-07-29,合同会社メリット,,合同会社,大阪府,大阪市西区,江戸堀２丁目１－１江戸堀センタービルＢ１,,27,106,5500002,,,,,,,2025-07-29,1,,,,,メリット,0
2156,9120903005777,新規,0,2025-07-29,2025-07-29,合同会社ネクスト,,合同会社,大阪府,吹田市,垂水町３丁目２３番２５－８０４号,,27,205,5640062,,,,,,,2025-07-29,1,,,,,ネクスト,0
2157,9120905006765,新規,0,2025-07-29,2025-07-29,医療法人けんこう会,,その他の設立登記法人,大阪府,茨木市,双葉町６番２号フォルテ・ディ・コンフォート２０１号、３０１号,,27,211,5670829,,,,,,,2025-07-29,1,,,,,ケンコウカイ,0
2172,9140001139402,新規,0,2025-07-29,2025-07-29,ｆｅａｔ．ＫＩＫＩ株式会社,,株式会社,兵庫県,伊丹市,中央５丁目３番２３－４０３号,,28,207,6640851,,,,,,,2025-07-29,1,,,,,フィートキキ,0
2173,9140001139410,新規,0,2025-07-29,2025-07-29,ＡＲＱ　ｌａｂｏ株式会社,,株式会社,兵庫県,神戸市北区,上津台５丁目１３番８号,,28,109,6511515,,,,,,,2025-07-29,1,,,,,アークラボ,0
2177,9150003003670,新規,0,2025-07-29,2025-07-29,合同会社からだらぼ,,合同会社,奈良県,奈良市,西大寺芝町１丁目３－１７セカンドハウス８８店舗Ａ１０１号室,,29,201,6310825,,,,,,,2025-07-29,1,,,,,カラダラボ,0
2178,9160003003562,新規,0,2025-07-29,2025-07-29,さのくら合同会社,,合同会社,滋賀県,犬上郡甲良町,大字横関５８５番地,,25,442,5220262,,,,,,,2025-07-29,1,,,,,サノクラ,0
2184,9180001167837,新規,0,2025-07-29,2025-07-29,株式会社ＫＡＩＺＥＮ,,株式会社,愛知県,名古屋市守山区,元郷２丁目１４０５番地,,23,113,4630025,,,,,,,2025-07-29,1,,,,,カイゼン,0
2185,9180001167878,新規,0,2025-07-29,2025-07-29,株式会社志賀電気通信,,株式会社,愛知県,一宮市,萩原町萩原字中道１８番地１レインボー第２萩原６０６号,,23,203,4910353,,,,,,,2025-07-29,1,,,,,シガデンキツウシン,0
2186,9180001167886,新規,0,2025-07-29,2025-07-29,株式会社ＥＮＴＲＯ　ＤＥＳＩＧＮ　ＧＲＯＵＰ,,株式会社,愛知県,名古屋市中区,丸の内２丁目１番３６号ＮＵＰ藤沢丸の内ビル８階,,23,106,4600002,,,,,,,2025-07-29,1,,,,,エントロデザイングループ,0
2190,9180005021180,新規,0,2025-07-29,2025-07-29,一般社団法人コスモ,,その他の設立登記法人,愛知県,瀬戸市,東赤重町２丁目７４番地の２佳南芽乃郷Ｉ号館１階,00140094,23,204,4890877,,,,,,,2025-07-29,1,,,,,コスモ,0
2192,9180301040058,新規,0,2025-07-29,2025-07-29,株式会社アルファホールディングス,,株式会社,愛知県,安城市,東町荒井２５番地,,23,212,4441153,,,,,,,2025-07-29,1,,,,,アルファホールディングス,0
2204,9210001020249,新規,0,2025-07-29,2025-07-29,株式会社翠和冷熱設備,,株式会社,福井県,越前市,家久町第１１５号７番地の１１,,18,209,9150801,,,,,,,2025-07-29,1,,,,,スイワレイネツセツビ,0
2206,9220001026823,新規,0,2025-07-29,2025-07-29,株式会社ＤＡＴＲＹＳ　ＢＩＯ,,株式会社,石川県,金沢市,角間町イノベーション研究棟１階ビジョンインキュベイト内,,17,201,9201164,,,,,,,2025-07-29,1,,,,,ダトリスバイオ,0
2211,9230001021014,新規,0,2025-07-29,2025-07-29,株式会社Ｒａ,,株式会社,富山県,富山市,荒町６番２号荒町スタービル２階,,16,201,9300028,,,,,,,2025-07-29,1,,,,,アールエー,0
2212,9240001065290,新規,0,2025-07-29,2025-07-29,株式会社四季,,株式会社,広島県,広島市佐伯区,五日市町大字美鈴園５０番地１５,,34,108,7315121,,,,,,,2025-07-29,1,,,,,シキ,0
2215,9240003007324,新規,0,2025-07-29,2025-07-29,合同会社ルミヴェール,,合同会社,広島県,呉市,警固屋４丁目６番２３号,,34,202,7370012,,,,,,,2025-07-29,1,,,,,ルミヴェール,0
2217,9250001021268,新規,0,2025-07-29,2025-07-29,株式会社Ｄｒ．産業,,株式会社,山口県,下関市,豊浦町大字川棚３６１７番地７,,35,201,7596301,,,,,,,2025-07-29,1,,,,,ドクターサンギョウ,0
2235,9290801031735,新規,0,2025-07-29,2025-07-29,株式会社ｗｉｚ’ｂｉｚ,,株式会社,福岡県,遠賀郡水巻町,二東３丁目１４番１０号,,40,382,8070054,,,,,,,2025-07-29,1,,,,,ウィズビズ,0
2238,9310003005048,新規,0,2025-07-29,2025-07-29,合同会社コンネクト,,合同会社,長崎県,五島市,吉久木町１１９９番地３,,42,211,8530031,,,,,,,2025-07-29,1,,,,,コンネクト,0
2240,9320001021236,新規,0,2025-07-29,2025-07-29,株式会社ＧＯＬＤＮＥＴ,,株式会社,大分県,日田市,大山町西大山３６２３番地３,,44,204,8770201,,,,,,,2025-07-29,1,,,,,ゴールドネット,0
2242,9340001027537,新規,0,2025-07-29,2025-07-29,Ｙ＆Ｆエステート株式会社,,株式会社,鹿児島県,いちき串木野市,湊町２丁目１５９番地２,,46,219,8992101,,,,,,,2025-07-29,1,,,,,ワイアンドエフエステート,0
2249,9360001035521,新規,0,2025-07-29,2025-07-29,株式会社宮古リズム,,株式会社,沖縄県,宮古島市,平良字東仲宗根添１１８６番地１,,47,214,9060011,,,,,,,2025-07-29,1,,,,,ミヤコリズム,0
2251,9370001052895,新規,0,2025-07-29,2025-07-29,ラフテル株式会社,,株式会社,宮城県,仙台市宮城野区,苦竹１丁目１１番１－１２３号,,04,102,9830036,,,,,,,2025-07-29,1,,,,,ラフテル,0
2273,9480001012905,新規,0,2025-07-29,2025-07-29,原電設株式会社,,株式会社,徳島県,板野郡上板町,下六條字中西１００番地７,,36,405,7711344,,,,,,,2025-07-29,1,,,,,ハラデンセツ,0
2278,9500005008806,新規,0,2025-07-29,2025-07-29,一般社団法人宇和海環境生物研究所,,その他の設立登記法人,愛媛県,宇和島市,吉田町立間２番耕地１４３４番地,,38,203,7993730,,,,,,,2025-07-29,1,,,,,ウワカイカンキョウセイブツケンキュウジョ,0
2279,9700150093285,新規,0,2025-07-29,2019-03-07,吉野学童クラブ,,その他,大阪府,大阪市福島区,吉野３丁目１６－２８,,27,103,5530006,,,,,,,2019-03-07,1,,,,,ヨシノガクドウクラブ,0
2280,9700150131549,新規,0,2025-07-29,2025-07-29,Ｓｑｕａｒｅ　Ｒｏｏｔｓ　ｕｒｂａｎ　Ｇｒｏｗｅｒｓ　Ｉｎｃ,,外国会社等,東京都,港区,虎ノ門４丁目３番１号城山トラストタワー東京赤坂法律事務所内,,13,103,1050001,アメリカ合衆国１１２０５ニューヨーク州ブルックリン、ブルックリン・ネイビー・ヤード、ビルディング１２８、モリス・アベニュー１９、ニューラボ,,,,,,2025-07-29,1,,,,,スクエアルーツアーバングロワーズインク,0
