sequenceNumber,corporateNumber,process,correct,updateDate,changeDate,name,nameImageId,kind,prefectureName,cityName,streetNumber,addressImageId,prefectureCode,cityCode,postCode,addressOutside,addressOutsideImageId,closeDate,closeCause,successorCorporateNumber,changeCause,assignmentDate,latest,enName,enPrefectureName,enCityName,enAddressOutside,furigana,hihyoji
4,1010001136023,登記記録の閉鎖等,0,2026-02-09,2025-12-02,株式会社ドリホ,,株式会社,東京都,中央区,新富１丁目１７番６号７０４,,13,102,1040041,,,2025-12-02,清算の結了等,,,2015-10-05,1,,,,,,0
5,1010001185854,登記記録の閉鎖等,0,2026-02-09,2026-01-19,株式会社京葉テクニカエステート,,株式会社,東京都,中央区,晴海２丁目３番２号,,13,102,1040053,,,2026-01-19,清算の結了等,,,2017-08-25,1,,,,,ケイヨウテクニカエステート,0
53,1011802016009,登記記録の閉鎖等,0,2026-02-09,2026-02-04,有限会社電化プラザさとう,,有限会社,東京都,足立区,加賀２丁目６番１号,,13,121,1230861,,,2026-02-04,清算の結了等,,,2015-10-05,1,,,,,デンカプラザサトウ,0
55,1012305001539,登記記録の閉鎖等,0,2026-02-09,2026-02-03,特定非営利活動法人ＴＡＭＡ音楽フォーラム,,その他の設立登記法人,東京都,町田市,東玉川学園１丁目６番２０号,,13,209,1940042,,,2026-02-03,清算の結了等,,,2015-10-05,1,,,,,タマオンガクフォーラム,0
58,1012705002319,登記記録の閉鎖等,0,2026-02-09,2026-01-28,特定非営利活動法人ブループレートプロジェクト,,その他の設立登記法人,東京都,西東京市,中町５丁目７番５号,,13,229,2020013,,,2026-01-28,清算の結了等,,,2022-08-12,1,,,,,ブループレートプロジェクト,0
60,1020001136996,登記記録の閉鎖等,0,2026-02-09,2026-01-29,株式会社大成商会,,株式会社,神奈川県,横浜市中区,山下町９８番地３階,,14,104,2310023,,,2026-01-29,清算の結了等,,,2020-07-28,1,,,,,タイセイショウカイ,0
72,1030001098765,登記記録の閉鎖等,0,2026-02-09,2026-02-02,株式会社アイテック,,株式会社,群馬県,高崎市,倉賀野町２８８５番地１６,,10,202,3701201,,,2026-02-02,清算の結了等,,,2015-10-05,1,,,,,アイテック,0
96,1060002036077,登記記録の閉鎖等,0,2026-02-09,2026-02-05,有限会社興南製作所,,有限会社,栃木県,足利市,堀込町３７番地３,,09,202,3260831,,,2026-02-05,清算の結了等,,,2015-10-05,1,,,,,コウナンセイサクショ,0
113,1120001240755,登記記録の閉鎖等,0,2026-02-09,2026-02-04,株式会社ＯＲＩＴＡＢＩ,,株式会社,京都府,京都市下京区,玉津島町２９４,,26,106,6008427,,,2026-02-04,清算の結了等,,,2021-09-30,1,,,,,オリタビ,0
129,1120002046796,登記記録の閉鎖等,0,2026-02-09,2026-02-02,有限会社サンデー広報,,有限会社,大阪府,藤井寺市,津堂１丁目２番５９号,,27,226,5830037,,,2026-02-02,清算の結了等,,,2015-10-05,1,,,,,サンデーコウホウ,0
135,1120005009197,登記記録の閉鎖等,0,2026-02-09,2026-02-05,特定非営利活動法人国際着物文化協会,,その他の設立登記法人,大阪府,大阪市中央区,北久宝寺町２丁目３番１０号,,27,128,5410057,,,2026-02-05,清算の結了等,,,2015-10-05,1,,,,,コクサイキモノブンカキョウカイ,0
136,1120101040881,登記記録の閉鎖等,0,2026-02-09,2026-02-02,株式会社犬鳴温泉センター,,株式会社,大阪府,泉佐野市,大木２２３８番地の２,,27,213,5980023,,,2026-02-02,清算の結了等,,,2015-10-05,1,,,,,イヌナキオンセンセンター,0
138,1120901018747,登記記録の閉鎖等,0,2026-02-09,2026-02-04,株式会社カインド,,株式会社,大阪府,摂津市,正雀本町１丁目２９番３号,,27,224,5660024,,,2026-02-04,清算の結了等,,,2015-10-05,1,,,,,カインド,0
139,1120901050122,登記記録の閉鎖等,0,2026-02-09,2026-02-04,株式会社Ｍｅｒｅ　Ｆｏｒｔｅ,,株式会社,大阪府,吹田市,千里山月が丘７番５号メゾン千里山２１２,,27,205,5650847,,,2026-02-04,清算の結了等,,,2024-12-02,1,,,,,メールフォルテ,0
144,1130001013094,登記記録の閉鎖等,0,2026-02-09,2026-02-02,中川珈琲株式会社,,株式会社,京都府,京都市山科区,小山北林町２４番地の２２,,26,110,6078115,,,2026-02-02,清算の結了等,,,2015-10-05,1,,,,,ナカガワコーヒー,0
145,1130001017335,登記記録の閉鎖等,0,2026-02-09,2026-02-05,株式会社近藤商店,,株式会社,京都府,京都市下京区,高倉通五条上る万寿寺町１５４番地の１,,26,106,6008104,,,2026-02-05,清算の結了等,,,2015-10-05,1,,,,,コンドウショウテン,0
146,1130001048479,登記記録の閉鎖等,0,2026-02-09,2026-02-02,アスク株式会社,,株式会社,京都府,京都市伏見区,横大路三栖山城屋敷町１０４番地２クレアガーデン伏見桃山９０４号,,26,109,6128207,,,2026-02-02,清算の結了等,,,2015-10-05,1,,,,,アスク,0
150,1130002021402,登記記録の閉鎖等,0,2026-02-09,2026-02-02,有限会社ＨＯＯ,,有限会社,京都府,京都市左京区,浄土寺東田町９３番地の５,,26,103,6068411,,,2026-02-02,清算の結了等,,,2015-10-05,1,,,,,エイチオーオー,0
154,1140001094951,登記記録の閉鎖等,0,2026-02-09,2026-02-05,株式会社山聖エレクトリック,,株式会社,兵庫県,西宮市,神園町１番１１号,,28,204,6620027,,,2026-02-05,清算の結了等,,,2015-10-05,1,,,,,サンセイエレクトリック,0
156,1140001105246,登記記録の閉鎖等,0,2026-02-09,2026-02-05,株式会社ＮＡＫ建築事務所,,株式会社,兵庫県,神戸市中央区,磯辺通３丁目２番４－１０１号,,28,110,6510084,,,2026-02-05,合併による解散等,9120001187163,令和８年１月３１日大阪市中央区伏見町四丁目４番１０号ＬＵＳＩＣ株式会社（9120001187163）に合併し解散,2017-03-07,1,,,,,ナックケンチクジムショ,0
172,1180001088875,登記記録の閉鎖等,0,2026-02-09,2026-02-03,中央冷設株式会社,,株式会社,愛知県,名古屋市中村区,川前町５７０番地,,23,105,4530865,,,2026-02-03,清算の結了等,,,2015-10-05,1,,,,,チュウオウレイセツ,0
182,1180002007033,登記記録の閉鎖等,0,2026-02-09,2026-02-04,有限会社プリズム,,有限会社,愛知県,名古屋市中川区,荒中町１番地,,23,110,4540922,,,2026-02-04,清算の結了等,,,2015-10-05,1,,,,,プリズム,0
199,1280005002450,登記記録の閉鎖等,0,2026-02-09,2025-12-26,蓮乘院,00004854,その他の設立登記法人,島根県,安来市,清水町５２８番地,,32,206,6920033,,,2025-12-26,合併による解散等,7280005002387,令和７年１２月２６日島根県安来市清水町５２８番地清水寺（7280005002387）に合併し解散,2015-10-05,1,,,,,,0
231,1430001001903,登記記録の閉鎖等,0,2026-02-09,2026-02-02,上田コンクリート株式会社,,株式会社,北海道,札幌市白石区,本通２１丁目北２番５０号,,01,104,0030027,,,2026-02-02,合併による解散等,6430001057239,令和８年２月１日北海道登別市新川町二丁目５番地１上田商事株式会社（6430001057239）に合併し解散,2015-10-05,1,,,,,ウエダコンクリート,0
241,1460102002269,登記記録の閉鎖等,0,2026-02-09,2026-02-02,有限会社鳥せい帯広大通店,,有限会社,北海道,帯広市,大通南１９丁目５番地,,01,207,0800010,,,2026-02-02,清算の結了等,,,2015-10-05,1,,,,,トリセイオビヒロオオドオリテン,0
262,2010401178317,登記記録の閉鎖等,0,2026-02-09,2026-01-16,株式会社ＫＤＹ,,株式会社,東京都,港区,南青山３丁目１５番１５号,,13,103,1070062,,,2026-01-16,清算の結了等,,,2023-11-07,1,,,,,ケイディワイ,0
269,2010701025499,登記記録の閉鎖等,0,2026-02-09,2026-02-02,株式会社ケンクリエイション,,株式会社,東京都,品川区,西大井５丁目６番５号,,13,109,1400015,,,2026-02-02,清算の結了等,,,2015-10-05,1,,,,,ケンクリエイション,0
273,2010803003188,登記記録の閉鎖等,0,2026-02-09,2026-01-26,合同会社ソシオ,,合同会社,東京都,大田区,山王２丁目３４番１０号,,13,111,1430023,,,2026-01-26,清算の結了等,,,2019-11-21,1,,,,,ソシオ,0
298,2012701003245,登記記録の閉鎖等,0,2026-02-09,2025-12-10,蘭馨貿易株式会社,,株式会社,東京都,港区,西麻布１丁目６番５号,,13,103,1060031,,,2025-12-10,清算の結了等,,,2015-10-05,1,,,,,ランシンボウエキ,0
306,2020001065633,登記記録の閉鎖等,0,2026-02-09,2026-01-30,株式会社ミンツ・デザイン・コーポレーション,,株式会社,神奈川県,川崎市麻生区,高石３丁目１４番１５号,,14,137,2150003,,,2026-01-30,清算の結了等,,,2015-10-05,1,,,,,ミンツデザインコーポレーション,0
313,2021002020049,登記記録の閉鎖等,0,2026-02-09,2026-01-19,有限会社古関工業,,有限会社,神奈川県,相模原市南区,麻溝台３丁目１４番３号,,14,153,2520328,,,2026-01-19,清算の結了等,,,2015-10-05,1,,,,,コセキコウギョウ,0
317,2030001147637,登記記録の閉鎖等,0,2026-02-09,2026-02-02,株式会社Ｌａｓｓｅｅ　Ｐａｒｔｎｅｒｓ,,株式会社,埼玉県,鶴ヶ島市,脚折町１丁目３６－５,,11,241,3502211,,,2026-02-02,清算の結了等,,,2022-04-08,1,,,,,レッシーパートナーズ,0
321,2040001002023,登記記録の閉鎖等,0,2026-02-09,2026-01-29,建機サポート千葉株式会社,,株式会社,千葉県,千葉市稲毛区,長沼原町７３１番地１,,12,103,2630001,,,2026-01-29,合併による解散等,7010701021997,令和８年１月１日東京都品川区大崎二丁目１番１号住友建機株式会社（7010701021997）に合併し解散,2015-10-05,1,,,,,ケンキサポートチバ,0
328,2040002072437,登記記録の閉鎖等,0,2026-02-09,2026-01-15,有限会社薄井工業,,有限会社,千葉県,市原市,若宮６丁目２３番地８,,12,219,2900006,,,2026-01-15,清算の結了等,,,2015-10-05,1,,,,,ウスイコウギョウ,0
330,2050001009133,登記記録の閉鎖等,0,2026-02-09,2026-02-02,株式会社坂本薬局,,株式会社,茨城県,土浦市,荒川沖西２丁目１番３号,,08,203,3000874,,,2026-02-02,清算の結了等,,,2015-10-05,1,,,,,サカモトヤッキョク,0
337,2070001004512,登記記録の閉鎖等,0,2026-02-09,2026-02-04,株式会社ポップコーンカンパニー,,株式会社,群馬県,前橋市,元総社町２２８番地３,,10,201,3710846,,,2026-02-04,清算の結了等,,,2015-10-05,1,,,,,ポップコーンカンパニー,0
340,2070002021960,登記記録の閉鎖等,0,2026-02-09,2026-02-04,有限会社ティーアイケー,,有限会社,群馬県,伊勢崎市,下植木町６３３番地２,,10,204,3720024,,,2026-02-04,清算の結了等,,,2015-10-05,1,,,,,ティーアイケー,0
355,2100003006271,登記記録の閉鎖等,0,2026-02-09,2026-02-03,合同会社Ｔｒｅｉｎｔａ　ｙ　Ｓｉｅｔｅ,,合同会社,長野県,北佐久郡御代田町,大字草越１１７３番地１８２６,,20,323,3890202,,,2026-02-03,清算の結了等,,,2021-10-21,1,,,,,トレインタイシエテ,0
356,2110001032797,登記記録の閉鎖等,0,2026-02-09,2026-02-02,株式会社つきがたファーマシー,,株式会社,新潟県,新潟市中央区,上大川前通１０番町１８７１番地ＭＳＰビル,,15,103,9518068,,,2026-02-02,合併による解散等,6110001006260,令和８年２月１日新潟市中央区上大川前通十番町１８７１番地ＭＳＰビル株式会社メディカスタッフプロモーション（6110001006260）に合併し解散,2017-11-01,1,,,,,ツキガタファーマシー,0
380,2140001056595,登記記録の閉鎖等,0,2026-02-09,2026-02-02,浜美屋産業株式会社,,株式会社,兵庫県,美方郡新温泉町,芦屋４５１番地,00039742,28,586,6696701,,,2026-02-02,合併による解散等,3140001056594,令和８年２月１日兵庫県美方郡新温泉町芦屋４５１番地株式会社たじみや（3140001056594）に合併し解散,2015-10-05,1,,,,,ハマミヤサンギョウ,0
392,2150005006967,登記記録の閉鎖等,0,2026-02-09,2026-01-05,天理教登阪分教会,,その他の設立登記法人,奈良県,五條市,西吉野町阪巻２０８番地の１,,29,207,6370236,,,2026-01-05,合併による解散等,9150005002811,令和８年１月５日奈良県大和郡山市馬司町３６８番地天理教秋津大教会（9150005002811）に合併し解散,2015-10-05,1,,,,,テンリキョウノボリサカブンキョウカイ,0
396,2180001063786,登記記録の閉鎖等,0,2026-02-09,2026-02-04,トップジャパン株式会社,,株式会社,愛知県,名古屋市昭和区,白金１丁目１２番３号,,23,107,4660058,,,2026-02-04,清算の結了等,,,2015-10-05,1,,,,,トップジャパン,0
403,2180005015767,登記記録の閉鎖等,0,2026-02-09,2026-02-05,特定非営利活動法人薬草園を育てる薬剤師とその仲間たち,,その他の設立登記法人,愛知県,名古屋市東区,泉３丁目１番２２号,,23,102,4610001,,,2026-02-05,清算の結了等,,,2015-10-05,1,,,,,ヤクソウエンヲソダテルヤクザイシトソノナカマタチ,0
408,2190001025645,登記記録の閉鎖等,0,2026-02-09,2026-02-03,株式会社松阪三蛍,,株式会社,三重県,松阪市,大黒田町１０３４番地１１,,24,204,5150063,,,2026-02-03,清算の結了等,,,2018-06-22,1,,,,,マツサカサンケイ,0
410,2190005008464,登記記録の閉鎖等,0,2026-02-09,2026-02-05,農事組合法人梅戸営農組合,,その他の設立登記法人,三重県,いなべ市,大安町梅戸２５７６番地の１,,24,214,5110284,,,2026-02-05,清算の結了等,,,2015-10-05,1,,,,,,0
423,2250001007141,登記記録の閉鎖等,0,2026-02-09,2026-02-05,株式会社フタバ工芸社,,株式会社,山口県,下関市,三河町３番３８号,,35,201,7510821,,,2026-02-05,清算の結了等,,,2015-10-05,1,,,,,フタバコウゲイシャ,0
426,2260001023971,登記記録の閉鎖等,0,2026-02-09,2026-02-05,株式会社則井,,株式会社,岡山県,高梁市,片原町１２番地,,33,209,7160013,,,2026-02-05,清算の結了等,,,2015-10-05,1,,,,,ノリイ,0
443,2300001005065,登記記録の閉鎖等,0,2026-02-09,2026-02-04,杵島茸産業株式会社,,株式会社,佐賀県,杵島郡白石町,大字馬洗５２５番地の１,,41,425,8491114,,,2026-02-04,清算の結了等,,,2015-10-05,1,,,,,キシマダケサンギョウ,0
456,2360002021295,登記記録の閉鎖等,0,2026-02-09,2026-02-04,有限会社大和商事,,有限会社,沖縄県,石垣市,字新川２７７番地４,,47,207,9070024,,,2026-02-04,清算の結了等,,,2015-10-05,1,,,,,ダイワショウジ,0
466,2430001060650,登記記録の閉鎖等,0,2026-02-09,2026-02-06,株式会社ＤＯＮ企画,,株式会社,北海道,札幌市西区,琴似一条５丁目４番２４号,,01,107,0630811,,,2026-02-06,清算の結了等,,,2015-10-05,1,,,,,,0
476,2480002015673,登記記録の閉鎖等,0,2026-02-09,2026-02-06,有限会社寺岡鉄工所,,有限会社,徳島県,三好市,山城町寺野字板屋２８０番地,,36,208,7795306,,,2026-02-06,清算の結了等,,,2015-10-05,1,,,,,テラオカテッコウショ,0
490,3010001236878,登記記録の閉鎖等,0,2026-02-09,2026-02-02,株式会社ニンジャタウロス,,株式会社,東京都,品川区,東品川１丁目２２番８号,,13,109,1400002,,,2026-02-02,清算の結了等,,,2023-07-18,1,,,,,ニンジャタウロス,0
496,3010002023326,登記記録の閉鎖等,0,2026-02-09,2026-01-30,有限会社中澤かつら店,,有限会社,東京都,江東区,住吉２丁目１２番７号,,13,108,1350002,,,2026-01-30,清算の結了等,,,2015-10-05,1,,,,,ナカザワカツラテン,0
506,3010401091048,登記記録の閉鎖等,0,2026-02-09,2026-01-13,株式会社プロシード,,株式会社,東京都,中央区,八重洲２丁目２番１号,,13,102,1040028,,,2026-01-13,合併による解散等,5120001180782,令和８年１月１日東京都中央区八重洲二丁目２番１号株式会社船井総合研究所（5120001180782）に合併し解散,2015-10-05,1,,,,,プロシード,0
584,3040001032498,登記記録の閉鎖等,0,2026-02-09,2026-01-13,株式会社ウィズコーポレーション,,株式会社,千葉県,浦安市,東野２丁目４番１４－３０９号,,12,227,2790042,,,2026-01-13,清算の結了等,,,2015-10-05,1,,,,,ウィズコーポレーション,0
585,3040001088862,登記記録の閉鎖等,0,2026-02-09,2026-01-14,株式会社ジーキューブ,,株式会社,千葉県,市川市,柏井町４丁目４９９番地１５,,12,203,2720802,,,2026-01-14,清算の結了等,,,2015-10-05,1,,,,,ジーキューブ,0
589,3040003015939,登記記録の閉鎖等,0,2026-02-09,2026-01-13,合同会社アスライト,,合同会社,千葉県,市原市,ちはら台西１丁目２０番地１３,,12,219,2900143,,,2026-01-13,清算の結了等,,,2020-08-18,1,,,,,アスライト,0
598,3070001022769,登記記録の閉鎖等,0,2026-02-09,2026-01-19,株式会社零,,株式会社,東京都,千代田区,麹町３丁目３番地ＫＤＸ麹町ビル４階,,13,101,1020083,,,2026-01-19,清算の結了等,,,2015-10-05,1,,,,,ゼロ,0
612,3120001019173,登記記録の閉鎖等,0,2026-02-09,2026-02-02,ユニオン化学工業株式会社,,株式会社,大阪府,大阪市生野区,中川５丁目１３番２３号,,27,116,5440005,,,2026-02-02,清算の結了等,,,2015-10-05,1,,,,,ユニオンカガクコウギョウ,0
613,3120001092328,登記記録の閉鎖等,0,2026-02-09,2026-02-03,株式会社レスパル,,株式会社,大阪府,大阪市中央区,（大阪市南区難波四丁目５番７号）,,27,128,5390000,,,2026-02-03,清算の結了等,,,2015-10-05,1,,,,,レスパル,1
625,3120101023133,登記記録の閉鎖等,0,2026-02-09,2026-02-02,株式会社ミドルフィールドサービス,,株式会社,大阪府,堺市美原区,平尾２３５３番地１,,27,147,5870022,,,2026-02-02,清算の結了等,,,2015-10-05,1,,,,,ミドルフィールドサービス,0
627,3120901005388,登記記録の閉鎖等,0,2026-02-09,2026-02-03,株式会社イー・メディック,,株式会社,大阪府,吹田市,片山町１丁目３番１７号ＢＨビル,,27,205,5640082,,,2026-02-03,清算の結了等,,,2015-10-05,1,,,,,イーメディック,0
634,3130001052207,登記記録の閉鎖等,0,2026-02-09,2026-02-04,株式会社シーアールエヌ,,株式会社,大阪府,大阪市淀川区,西中島５丁目１４番１０号,,27,123,5320011,,,2026-02-04,合併による解散等,7010401052343,令和８年１月１日東京都港区港南二丁目１６番１号ハウスコム株式会社（7010401052343）に合併し解散,2015-10-05,1,,,,,シーアールエヌ,0
637,3140001004719,登記記録の閉鎖等,0,2026-02-09,2026-02-02,コクサイペツトフード株式会社,,株式会社,兵庫県,神戸市西区,玉津町出合３２９番地,,28,111,6512137,,,2026-02-02,合併による解散等,4140001004718,令和８年２月１日神戸市西区玉津町出合字寺田３２９番地国際飼料工業株式会社（4140001004718）に合併し解散,2015-10-05,1,,,,,コクサイペツトフード,0
650,3140005012370,登記記録の閉鎖等,0,2026-02-09,2026-01-05,天理教蓼川分教会,,その他の設立登記法人,兵庫県,豊岡市,日高町鶴岡６９５番地,,28,209,6695313,,,2026-01-05,合併による解散等,2140005010747,令和８年１月５日兵庫県朝来市山東町野間６７６番地の１天理教梁瀬分教会（2140005010747）に合併し解散,2015-10-05,1,,,,,テンリキョウタデガワブンキョウカイ,0
651,3150001027735,登記記録の閉鎖等,0,2026-02-09,2026-02-05,株式会社Ｎａｌｕ,,株式会社,奈良県,奈良市,あやめ池南１丁目７番３７号,,29,201,6310033,,,2026-02-05,清算の結了等,,,2024-12-09,1,,,,,ナル,0
653,3150005000457,登記記録の閉鎖等,0,2026-02-09,2026-01-05,天理教秋津西分教会,,その他の設立登記法人,奈良県,奈良市,南京終町５丁目３７７番地の１７,,29,201,6308141,,,2026-01-05,合併による解散等,9150005002811,令和８年１月５日奈良県大和郡山市馬司町３６８番地天理教秋津大教会（9150005002811）に合併し解散,2015-10-05,1,,,,,テンリキョウアキツニシブンキョウカイ,0
654,3150005005654,登記記録の閉鎖等,0,2026-02-09,2026-01-05,天理教秋津東分教会,,その他の設立登記法人,奈良県,北葛城郡王寺町,畠田１丁目２１７番地の２,,29,425,6360021,,,2026-01-05,合併による解散等,9150005002811,令和８年１月５日奈良県大和郡山市馬司町３６８番地天理教秋津大教会（9150005002811）に合併し解散,2015-10-05,1,,,,,テンリキョウアキツヒガシブンキョウカイ,0
655,3150005006966,登記記録の閉鎖等,0,2026-02-09,2026-01-05,天理教登宗分教会,,その他の設立登記法人,奈良県,五條市,西吉野町屋那瀬２４４番地,,29,207,6370104,,,2026-01-05,合併による解散等,9150005002811,令和８年１月５日奈良県大和郡山市馬司町３６８番地天理教秋津大教会（9150005002811）に合併し解散,2015-10-05,1,,,,,テンリキョウトウムネブンキョウカイ,0
666,3180301021609,登記記録の閉鎖等,0,2026-02-09,2026-02-05,株式会社橋本建匠,,株式会社,愛知県,豊田市,下林町１丁目１０１番地,,23,211,4710878,,,2026-02-05,清算の結了等,,,2015-10-05,1,,,,,ハシモトケンショウ,0
672,3200001008754,登記記録の閉鎖等,0,2026-02-09,2026-02-06,中部大建工業株式会社,,株式会社,岐阜県,岐阜市,大宝町２丁目１６番地,,21,201,5008851,,,2026-02-06,清算の結了等,,,2015-10-05,1,,,,,チュウブダイケンコウギョウ,0
674,3200003006319,登記記録の閉鎖等,0,2026-02-09,2026-02-02,合同会社エディウェア,,合同会社,岐阜県,土岐市,土岐津町土岐口１７３８番地の１アチェーロ土岐口４０２号,,21,212,5095122,,,2026-02-02,清算の結了等,,,2024-04-18,1,,,,,エディウェア,0
684,3240001028575,登記記録の閉鎖等,0,2026-02-09,2026-02-03,株式会社エフティ,,株式会社,広島県,廿日市市,宮島口西３丁目４番１６号,,34,213,7390412,,,2026-02-03,清算の結了等,,,2015-10-05,1,,,,,エフティ,0
687,3240002052723,登記記録の閉鎖等,0,2026-02-09,2026-02-02,有限会社大新,,有限会社,広島県,世羅郡世羅町,大字小世良６８０番地３５,,34,462,7221122,,,2026-02-02,清算の結了等,,,2015-10-05,1,,,,,ダイシン,0
696,3290001103142,登記記録の閉鎖等,0,2026-02-09,2025-12-26,株式会社グランドビジョン,,株式会社,福岡県,福岡市中央区,大名２丁目６番５０号,,40,133,8100041,,,2025-12-26,合併による解散等,7020001161568,令和７年１２月１日東京都港区海岸一丁目２番２０号株式会社ＮＪＭ２（7020001161568）に合併し解散,2023-09-26,1,,,,,グランドビジョン,0
703,3300001008843,登記記録の閉鎖等,0,2026-02-09,2026-02-05,株式会社千代田商事,,株式会社,佐賀県,神埼市,千代田町迎島５４７番地８,,41,210,8420063,,,2026-02-05,清算の結了等,,,2015-10-05,1,,,,,チヨダショウジ,0
704,3300002008462,登記記録の閉鎖等,0,2026-02-09,2026-02-05,有限会社陶商,,有限会社,佐賀県,西松浦郡有田町,南原甲８１６番地１,,41,401,8440027,,,2026-02-05,清算の結了等,,,2015-10-05,1,,,,,トウショウ,0
713,3340002020686,登記記録の閉鎖等,0,2026-02-09,2026-02-03,有限会社エム・ケイ・ティ,,有限会社,鹿児島県,奄美市,名瀬有屋町１７番地１３,,46,222,8940062,,,2026-02-03,清算の結了等,,,2015-10-05,1,,,,,エムケイティ,0
714,3350002012146,登記記録の閉鎖等,0,2026-02-09,2026-02-02,有限会社ショッピングセンターあだち,,有限会社,宮崎県,延岡市,大貫町５丁目２３００番地１,,45,203,8820803,,,2026-02-02,清算の結了等,,,2015-10-05,1,,,,,ショッピングセンターアダチ,0
715,3360001014605,登記記録の閉鎖等,0,2026-02-09,2025-12-25,株式会社ガロードダイニング,,株式会社,沖縄県,那覇市,おもろまち２丁目６番１８－２２０４号Ｄ’グラフォート沖縄タワー,,47,201,9000006,,,2025-12-25,合併による解散等,9460102004002,令和７年１２月１９日北海道帯広市西二十三条南一丁目１３３番地５株式会社ガロード（9460102004002）に合併し解散,2015-10-05,1,,,,,ガロードダイニング,0
720,3360003013423,登記記録の閉鎖等,0,2026-02-09,2026-02-03,合同会社アスクレピオス,,合同会社,沖縄県,南城市,大里字稲嶺２０１３番地１９,,47,215,9011204,,,2026-02-03,清算の結了等,,,2023-11-01,1,,,,,アスクレピオス,0
724,3370002010387,登記記録の閉鎖等,0,2026-02-09,2026-02-02,有限会社元祖いわしや,,有限会社,宮城県,仙台市青葉区,川内川前丁４７番地の２,,04,101,9800852,,,2026-02-02,合併による解散等,8370002012255,令和８年２月１日仙台市青葉区国分町二丁目１０番１０号株式会社馳走亭（8370002012255）に合併し解散,2015-10-05,1,,,,,ガンソイワシヤ,0
726,3380003001871,登記記録の閉鎖等,0,2026-02-09,2026-02-02,合資会社扇屋酒店,,合資会社,福島県,河沼郡湯川村,大字勝常字地藏免１８５０番地,00084291,07,422,9693556,,,2026-02-02,清算の結了等,,,2015-10-05,1,,,,,オオギヤサケテン,0
731,3390002014510,登記記録の閉鎖等,0,2026-02-09,2026-02-05,有限会社みのや青果センター,,有限会社,山形県,南陽市,宮内１２１４番地の１,,06,213,9920472,,,2026-02-05,清算の結了等,,,2015-10-05,1,,,,,ミノヤセイカセンター,0
736,3410002010812,登記記録の閉鎖等,0,2026-02-09,2026-02-05,有限会社三浦組,,有限会社,秋田県,山本郡三種町,森岳字山口５２番地の２,,05,348,0182303,,,2026-02-05,清算の結了等,,,2015-10-05,1,,,,,ミウラグミ,0
741,3410005003053,登記記録の閉鎖等,0,2026-02-09,2026-01-05,比内町漁業協同組合,,その他の設立登記法人,秋田県,大館市,比内町扇田字押切４９番地２２,,05,204,0185701,,,2026-01-05,合併による解散等,3410005002864,令和８年１月５日秋田県大館市雪沢字水沢８－２大館市漁業協同組合（3410005002864）に合併し解散,2015-10-05,1,,,,,ヒナイマチ,0
747,3430002024678,登記記録の閉鎖等,0,2026-02-09,2026-02-03,有限会社丸榮杉本建設,,有限会社,北海道,札幌市西区,八軒七条西６丁目２番１４号,,01,107,0630847,,,2026-02-03,清算の結了等,,,2015-10-05,1,,,,,マルエイスギモトケンセツ,0
752,3470002018734,登記記録の閉鎖等,0,2026-02-09,2026-02-05,有限会社平岡商事,,有限会社,香川県,東かがわ市,松原１１３０番地２０,,37,207,7692702,,,2026-02-05,清算の結了等,,,2015-10-05,1,,,,,ヒラオカショウジ,0
753,3490001007777,登記記録の閉鎖等,0,2026-02-09,2026-02-04,株式会社Ｍ＆Ｒコーポレーション,,株式会社,高知県,高知市,和泉町８番８号,,39,201,7800064,,,2026-02-04,合併による解散等,2010002051575,令和８年２月１日岡山県倉敷市沖５７番地１株式会社耕貴（2010002051575）に合併し解散,2015-10-05,1,,,,,エムアンドアールコーポレーション,0
754,3500001021875,登記記録の閉鎖等,0,2026-02-09,2026-01-30,株式会社ＤＡＩＳＨＯ,,株式会社,愛媛県,新居浜市,松神子３丁目１番３９号,,38,205,7920881,,,2026-01-30,合併による解散等,7500001010098,令和８年１月３０日愛媛県新居浜市松神子三丁目１番３９号株式会社滝田工業（7500001010098）に合併し解散,2019-03-14,1,,,,,ダイショー,0
755,3500002002239,登記記録の閉鎖等,0,2026-02-09,2026-02-05,久米緑化有限会社,,有限会社,愛媛県,松山市,久米窪田町７９１番地,,38,201,7911101,,,2026-02-05,清算の結了等,,,2015-10-05,1,,,,,クメリョクカ,0
760,4010001197616,登記記録の閉鎖等,0,2026-02-09,2026-01-19,オトガル株式会社,,株式会社,東京都,中央区,日本橋３丁目２番１４号,,13,102,1030027,,,2026-01-19,清算の結了等,,,2019-01-11,1,,,,,オトガル,0
778,4010403029862,登記記録の閉鎖等,0,2026-02-09,2026-01-16,ソーラークーロン合同会社,,合同会社,東京都,港区,虎ノ門３丁目２２番１０－２０１号,,13,103,1050001,,,2026-01-16,清算の結了等,,,2023-04-07,1,,,,,ソーラークーロン,0
780,4010501038831,登記記録の閉鎖等,0,2026-02-09,2026-01-30,株式会社坂本未来総研,,株式会社,東京都,台東区,東上野４丁目４番９－３０８号,,13,106,1100015,,,2026-01-30,清算の結了等,,,2015-11-26,1,,,,,サカモトミライソウケン,0
781,4010501042395,登記記録の閉鎖等,0,2026-02-09,2026-01-30,株式会社アスタジオ,,株式会社,東京都,台東区,池之端２丁目５番３５号,,13,106,1100008,,,2026-01-30,清算の結了等,,,2018-03-30,1,,,,,アスタジオ,0
792,4010903001759,登記記録の閉鎖等,0,2026-02-09,2026-02-05,ＣＣＳ合同会社,,合同会社,東京都,世田谷区,岡本２丁目１番１０号パークセリタ１０５,,13,112,1570076,,,2026-02-05,清算の結了等,,,2015-10-05,1,,,,,シーシーエス,0
795,4011101026508,登記記録の閉鎖等,0,2026-02-09,2026-01-19,セブンシーズ・プラス株式会社,,株式会社,東京都,千代田区,飯田橋１丁目８番９号,,13,101,1020072,,,2026-01-19,清算の結了等,,,2015-10-05,1,,,,,セブンシーズプラス,0
797,4011101098480,登記記録の閉鎖等,0,2026-02-09,2026-01-13,株式会社ＡＸＬｉｎｋ,,株式会社,東京都,新宿区,大久保２丁目１－８－１１０５,,13,104,1690072,,,2026-01-13,清算の結了等,,,2022-04-11,1,,,,,アクセルリンク,0
799,4011102000775,登記記録の閉鎖等,0,2026-02-09,2026-01-09,有限会社アレグロトレーディング,,有限会社,東京都,新宿区,四谷３丁目４番地９,,13,104,1600004,,,2026-01-09,清算の結了等,,,2015-10-05,1,,,,,アレグロトレーディング,0
805,4011601013583,登記記録の閉鎖等,0,2026-02-09,2026-02-03,株式会社アクエルド,,株式会社,東京都,練馬区,田柄１丁目２９番１４号,,13,120,1790073,,,2026-02-03,清算の結了等,,,2015-10-05,1,,,,,アクエルド,0
814,4020001122416,登記記録の閉鎖等,0,2026-02-09,2026-01-19,株式会社藤原建設工業,,株式会社,神奈川県,横浜市港北区,小机町２５４番地４,,14,109,2220036,,,2026-01-19,清算の結了等,,,2017-08-03,1,,,,,フジワラケンセツコウギョウ,0
828,4021005005490,登記記録の閉鎖等,0,2026-02-09,2026-01-15,医療法人社団恵愛会,,その他の設立登記法人,神奈川県,小田原市,浜町１丁目４番１５号,,14,206,2500004,,,2026-01-15,清算の結了等,,,2015-10-05,1,,,,,ケイアイカイ,0
829,4030001116664,登記記録の閉鎖等,0,2026-02-09,2026-02-02,株式会社ホクセイ,,株式会社,埼玉県,入間市,扇台１丁目７番１０号,,11,225,3580023,,,2026-02-02,清算の結了等,,,2016-10-12,1,,,,,ホクセイ,0
840,4040001006212,登記記録の閉鎖等,0,2026-02-09,2026-01-16,株式会社花見川工機,,株式会社,千葉県,千葉市稲毛区,山王町１３６番地の１,,12,103,2630002,,,2026-01-16,清算の結了等,,,2015-10-05,1,,,,,ハナミガワコウキ,0
849,4050001044707,登記記録の閉鎖等,0,2026-02-09,2026-02-02,株式会社エム・エンジニアリング,,株式会社,茨城県,土浦市,虫掛字東３６１２番地,,08,203,3000066,,,2026-02-02,清算の結了等,,,2018-07-13,1,,,,,エムエンジニアリング,0
853,4070001003537,登記記録の閉鎖等,0,2026-02-09,2026-02-04,株式会社ジャノ・エンタープライズ,,株式会社,群馬県,前橋市,六供町３丁目５６番地６,,10,201,3710804,,,2026-02-04,清算の結了等,,,2015-10-05,1,,,,,ジャノエンタープライズ,0
855,4070005000183,登記記録の閉鎖等,0,2026-02-09,2026-01-06,在家日蓮宗浄風会群馬支部,00025999,その他の設立登記法人,群馬県,前橋市,平和町２丁目３番６号,,10,201,3710027,,,2026-01-06,合併による解散等,7010005000368,令和７年１２月２５日東京都文京区千駄木五丁目１９番５号在家日蓮宗浄風会（7010005000368）に合併し解散,2015-10-05,1,,,,,ザイケニチレンシュウジョウフウカイグンマシブ,0
858,4080103003260,登記記録の閉鎖等,0,2026-02-09,2026-02-03,生きとし生けるもの合同会社,,合同会社,静岡県,富士宮市,宮原８６０番地クリスタルパレスＩＩ２０２,00138133,22,207,4180005,,,2026-02-03,清算の結了等,,,2025-02-26,1,,,,,イキトシイケルモノ,0
861,4080405000716,登記記録の閉鎖等,0,2026-02-09,2025-12-23,玉蔵寺,,その他の設立登記法人,静岡県,浜松市中央区,篠原町３８５６番地,,22,138,4310201,,,2025-12-23,合併による解散等,9080405001123,令和７年１２月２３日静岡県浜松市中央区篠原町３８９７番地の２保泉寺（9080405001123）に合併し解散,2015-10-05,1,,,,,ギョクゾウジ,0
863,4100001006718,登記記録の閉鎖等,0,2026-02-09,2026-02-02,ライフ設備株式会社,,株式会社,長野県,長野市,大字柳原２３６３番地７,,20,201,3810012,,,2026-02-02,清算の結了等,,,2015-10-05,1,,,,,ライフセツビ,0
865,4110002021806,登記記録の閉鎖等,0,2026-02-09,2026-02-02,有限会社村上工材,,有限会社,新潟県,村上市,上助渕１８４６番地１,,15,212,9593403,,,2026-02-02,清算の結了等,,,2015-10-05,1,,,,,ムラカミコウザイ,0
866,4110003001278,登記記録の閉鎖等,0,2026-02-09,2026-02-04,合資会社平山商店,,合資会社,新潟県,上越市,大字戸野目５６５番地,,15,222,9430178,,,2026-02-04,清算の結了等,,,2015-10-05,1,,,,,ヒラヤマショウテン,0
868,4120001177598,登記記録の閉鎖等,0,2026-02-09,2026-02-04,株式会社アドニス,,株式会社,大阪府,茨木市,若園町２番４１号,,27,211,5670894,,,2026-02-04,清算の結了等,,,2015-10-05,1,,,,,アドニス,0
895,4130001078837,登記記録の閉鎖等,0,2026-02-09,2026-02-03,ぶらぶら探検隊株式会社,,株式会社,京都府,京都市下京区,釘隠町２５５番地２０８号,,26,106,6008423,,,2026-02-03,清算の結了等,,,2025-01-23,1,,,,,ブラブラタンケンタイ,0
897,4130002018107,登記記録の閉鎖等,0,2026-02-09,2026-02-05,有限会社伸誠住建,,有限会社,京都府,京都市東山区,柿町通新宮川筋東入西川原町４７８番地サンパレス東山１０１号,,26,105,6050838,,,2026-02-05,清算の結了等,,,2015-10-05,1,,,,,シンセイジュウケン,0
900,4140001008388,登記記録の閉鎖等,0,2026-02-09,2026-02-05,澁谷油脂株式会社,,株式会社,兵庫県,神戸市中央区,海岸通６番地,,28,110,6500024,,,2026-02-05,清算の結了等,,,2015-10-05,1,,,,,シブヤユシ,0
931,4180302025178,登記記録の閉鎖等,0,2026-02-09,2026-02-06,有限会社マツヤマ工業,,有限会社,愛知県,豊田市,桝塚東町西郷前３３番地３,,23,211,4701212,,,2026-02-06,清算の結了等,,,2015-10-05,1,,,,,マツヤマコウギョウ,0
933,4180303003934,登記記録の閉鎖等,0,2026-02-09,2026-02-02,合同会社杉山不動産,,合同会社,愛知県,岡崎市,国正町字西浦１５番地,,23,202,4440214,,,2026-02-02,合併による解散等,4180303003967,令和８年２月１日愛知県刈谷市今川町田地池３４番地合同会社ポラリス（4180303003967）に合併し解散,2017-10-13,1,,,,,スギヤマフドウサン,0
944,4240002047813,登記記録の閉鎖等,0,2026-02-09,2026-02-04,有限会社エコー設備,,有限会社,広島県,安芸郡熊野町,出来庭３丁目６番３０号,,34,307,7314221,,,2026-02-04,清算の結了等,,,2015-10-05,1,,,,,,0
955,4290001054649,登記記録の閉鎖等,0,2026-02-09,2026-02-02,株式会社大川ドリーム観光バス,,株式会社,福岡県,大川市,大字下木佐木５００番地１,,40,212,8310022,,,2026-02-02,清算の結了等,,,2015-10-05,1,,,,,オオカワドリームカンコウバス,0
999,4400001004666,登記記録の閉鎖等,0,2026-02-09,2026-02-02,株式会社オーツーエンジニアリング,,株式会社,岩手県,盛岡市,本宮５丁目１３番１６号,,03,201,0200866,,,2026-02-02,清算の結了等,,,2015-10-05,1,,,,,オーツーエンジニアリング,0
1007,4450005000731,登記記録の閉鎖等,0,2026-02-09,2026-02-05,弘法寺,,その他の設立登記法人,北海道,旭川市,東鷹栖六線１３号,,01,204,0718156,,,2026-02-05,清算の結了等,,,2015-10-05,1,,,,,,0
1011,4490002000573,登記記録の閉鎖等,0,2026-02-09,2026-02-05,有限会社エースシステム,,有限会社,高知県,高知市,竹島町８２番地９,,39,201,7808018,,,2026-02-05,清算の結了等,,,2015-10-05,1,,,,,エースシステム,0
1051,5010403007529,登記記録の閉鎖等,0,2026-02-09,2026-01-20,ＣＢＳ　Ｉｎｔｅｒｎａｔｉｏｎａｌ　Ｔｅｌｅｖｉｓｉｏｎ　Ｊａｐａｎ合同会社,,合同会社,東京都,港区,赤坂２丁目４番６号赤坂グリーンクロス６階,,13,103,1070052,,,2026-01-20,清算の結了等,,,2015-10-05,1,,,,,シービーエスインターナショナルテレビジョンジャパン,0
1052,5010403032279,登記記録の閉鎖等,0,2026-02-09,2026-01-16,合同会社オリーブキャピタルフォー,,合同会社,東京都,港区,虎ノ門２丁目６番１号虎ノ門ヒルズステーションタワー,,13,103,1050001,,,2026-01-16,清算の結了等,,,2024-03-27,1,,,,,オリーブキャピタルフォー,0
1072,5011101049400,登記記録の閉鎖等,0,2026-02-09,2026-01-19,株式会社フロンティア,,株式会社,東京都,千代田区,神田岩本町４番地７＋ＳＨＩＦＴＫＡＮＤＡ５階,,13,101,1010033,,,2026-01-19,清算の結了等,,,2015-10-05,1,,,,,フロンティア,0
1075,5011103015474,登記記録の閉鎖等,0,2026-02-09,2026-01-13,合同会社イフリタ,,合同会社,東京都,新宿区,西新宿３丁目３番１３号西新宿水間ビル２Ｆ,,13,104,1600023,,,2026-01-13,清算の結了等,,,2025-01-27,1,,,,,イフリタ,0
1089,5012702012894,登記記録の閉鎖等,0,2026-02-09,2026-01-29,有限会社フィッシングクルー,,有限会社,東京都,東村山市,青葉町２丁目５番地１,,13,213,1890002,,,2026-01-29,清算の結了等,,,2015-10-05,1,,,,,フィッシングクルー,0
1094,5013402007061,登記記録の閉鎖等,0,2026-02-09,2026-02-02,有限会社アイ・コーポレーション,,有限会社,東京都,日野市,豊田２丁目４５番地の１ラングタワー豊田８０３,,13,212,1910053,,,2026-02-02,清算の結了等,,,2015-10-05,1,,,,,アイコーポレーション,0
1110,5040001023223,登記記録の閉鎖等,0,2026-02-09,2026-01-14,株式会社明治デリカ千葉,,株式会社,千葉県,船橋市,三山８丁目１０番３号,,12,204,2740072,,,2026-01-14,清算の結了等,,,2015-10-05,1,,,,,メイジデリカチバ,0
1118,5050002023832,登記記録の閉鎖等,0,2026-02-09,2026-02-02,有限会社川島ガス,,有限会社,茨城県,古河市,中央町２丁目８番６０号,,08,204,3060033,,,2026-02-02,清算の結了等,,,2015-10-05,1,,,,,カワシマガス,0
1120,5050005000184,登記記録の閉鎖等,0,2026-02-09,2026-02-02,協同組合茨城県北公害管理協会,00023430,その他の設立登記法人,茨城県,東茨城郡茨城町,大字大戸字上の前９６７番地の５,,08,302,3113114,,,2026-02-02,清算の結了等,,,2015-10-05,1,,,,,イバラキケンホクコウガイカンリキョウカイ,0
1127,5060005006271,登記記録の閉鎖等,0,2026-02-09,2025-11-25,社会福祉法人わかば会,,その他の設立登記法人,栃木県,足利市,小俣町１５５４番地４,,09,202,3260141,,,2025-11-25,合併による解散等,4060005006256,令和７年１１月２５日栃木県足利市葉鹿町２２４５番地社会福祉法人渡良瀬会（4060005006256）に合併し解散,2015-10-05,1,,,,,ワカバカイ,0
1131,5080003002139,登記記録の閉鎖等,0,2026-02-09,2026-02-03,合同会社凸,,合同会社,静岡県,焼津市,三ケ名１７０７番地の１,,22,212,4250071,,,2026-02-03,清算の結了等,,,2018-07-06,1,,,,,デコ,0
1132,5080005004199,登記記録の閉鎖等,0,2026-02-09,2026-02-02,特定非営利活動法人森と水辺を育てる会,,その他の設立登記法人,静岡県,静岡市清水区,押切１４４番地の１１,,22,103,4240008,,,2026-02-02,清算の結了等,,,2015-10-05,1,,,,,モリトミズベヲソダテルカイ,0
1135,5080103000579,登記記録の閉鎖等,0,2026-02-09,2026-02-02,合資会社大竹商店,,合資会社,静岡県,富士市,川成島９９４番地の２,,22,210,4160939,,,2026-02-02,清算の結了等,,,2015-10-05,1,,,,,,0
1146,5120001179585,登記記録の閉鎖等,0,2026-02-09,2026-02-04,株式会社浪速酒販,,株式会社,大阪府,吹田市,春日３丁目１番１９号,,27,205,5650853,,,2026-02-04,清算の結了等,,,2015-10-05,1,,,,,ナニワシュハン,0
1163,5120005014367,登記記録の閉鎖等,0,2026-02-09,2026-02-03,一般社団法人日中産業交流協会,,その他の設立登記法人,大阪府,大阪市中央区,難波２丁目３番２６号,,27,128,5420076,,,2026-02-03,清算の結了等,,,2015-10-05,1,,,,,ニッチュウサンギョウコウリュウキョウカイ,0
1187,5180002010529,登記記録の閉鎖等,0,2026-02-09,2026-02-04,有限会社ワールド企画,,有限会社,愛知県,名古屋市南区,呼続２丁目１番３４号,,23,112,4570014,,,2026-02-04,清算の結了等,,,2015-10-05,1,,,,,ワールドキカク,0
1188,5180002079003,登記記録の閉鎖等,0,2026-02-09,2026-02-03,有限会社サトウ設備工業,,有限会社,愛知県,一宮市,今伊勢町馬寄字下河原２８番地１,,23,203,4910051,,,2026-02-03,清算の結了等,,,2015-10-05,1,,,,,サトウセツビコウギョウ,0
1194,5180302007266,登記記録の閉鎖等,0,2026-02-09,2026-02-02,有限会社クリオ,,有限会社,愛知県,豊橋市,札木町２４番地,,23,201,4400893,,,2026-02-02,清算の結了等,,,2015-10-05,1,,,,,クリオ,0
1199,5190001023737,登記記録の閉鎖等,0,2026-02-09,2026-02-02,株式会社ＬＥＧＡＣＹ,,株式会社,三重県,四日市市,西浦１丁目７番７号尾西ビル２階,,24,202,5100071,,,2026-02-02,合併による解散等,3190001029587,令和８年１月３１日三重県四日市市西浦一丁目７番７号尾西ビル２階株式会社ｅｎ　ｐｌａｎｎｉｎｇ（3190001029587）に合併し解散,2016-06-08,1,,,,,レガシー,0
1225,5280002010361,登記記録の閉鎖等,0,2026-02-09,2026-02-03,有限会社みのり商会,,有限会社,島根県,益田市,水分町１４番３０号,,32,204,6980032,,,2026-02-03,清算の結了等,,,2015-10-05,1,,,,,ミノリショウカイ,0
1233,5290801028108,登記記録の閉鎖等,0,2026-02-09,2026-02-06,クリエイションバリュー株式会社,,株式会社,福岡県,北九州市八幡東区,河内３丁目４番１６号,,40,108,8050045,,,2026-02-06,清算の結了等,,,2021-12-24,1,,,,,クリエイションバリュー,0
1234,5300005005232,登記記録の閉鎖等,0,2026-02-09,2026-02-04,医療法人ふじおかこどもクリニック,,その他の設立登記法人,佐賀県,唐津市,長谷６番地,,41,202,8470822,,,2026-02-04,清算の結了等,,,2015-10-05,1,,,,,フジオカコドモクリニック,0
1235,5320001002058,登記記録の閉鎖等,0,2026-02-09,2026-02-03,株式会社ゆふいんくつろぎの郷,,株式会社,大分県,由布市,湯布院町川上１５５６番地２,,44,213,8795102,,,2026-02-03,合併による解散等,4010901048100,令和８年１月１日東京都港区港南二丁目１６番５号楽天ステイホスピタリティ株式会社（4010901048100）に合併し解散,2015-10-05,1,,,,,ユフインクツロギノサト,0
1252,5390002000186,登記記録の閉鎖等,0,2026-02-09,2026-02-04,有限会社愛幸不動産,,有限会社,山形県,山形市,江俣４丁目２０番２５号,,06,201,9900861,,,2026-02-04,清算の結了等,,,2015-10-05,1,,,,,アイコウフドウサン,0
1255,5390005001033,登記記録の閉鎖等,0,2026-02-09,2026-01-05,世尊寺,,その他の設立登記法人,山形県,東村山郡山辺町,大字杉下４８６番地,,06,301,9900333,,,2026-01-05,合併による解散等,4390005001034,令和８年１月５日山形県東村山郡中山町大字達磨寺６０番地達磨寺（4390005001034）に合併し解散,2015-10-05,1,,,,,セソンジ,0
1262,5430001076140,登記記録の閉鎖等,0,2026-02-09,2026-02-06,株式会社トラスト,,株式会社,北海道,苫小牧市,川沿町６丁目１３番１１号,,01,213,0530822,,,2026-02-06,清算の結了等,,,2018-03-22,1,,,,,トラスト,0
1276,6010001185610,登記記録の閉鎖等,0,2026-02-09,2026-02-02,山能開発株式会社,,株式会社,神奈川県,横浜市港北区,高田東４丁目９番８号,,14,109,2230065,,,2026-02-02,清算の結了等,,,2017-08-16,1,,,,,サンノウカイハツ,0
1278,6010001209484,登記記録の閉鎖等,0,2026-02-09,2026-01-14,Ｆｌｏｒａ　Ｆｏｏｄ　Ｊａｐａｎ株式会社,,株式会社,東京都,港区,虎ノ門５丁目１１番１号オランダヒルズ森タワー１１階楠・岩崎・澤野法律事務所内,,13,103,1050001,,,2026-01-14,清算の結了等,,,2020-05-13,1,,,,,フローラフードジャパン,0
1286,6010101002608,登記記録の閉鎖等,0,2026-02-09,2026-02-03,東京テックウェイ株式会社,,株式会社,東京都,練馬区,東大泉４丁目１４番１１号,,13,120,1780063,,,2026-02-03,清算の結了等,,,2015-10-05,1,,,,,トウキョウテックウェイ,0
1298,6010403025298,登記記録の閉鎖等,0,2026-02-09,2026-01-22,合同会社桜道３２,,合同会社,東京都,台東区,上野３丁目２４番６号,,13,106,1100005,,,2026-01-22,合併による解散等,7010001141521,令和８年１月６日東京都台東区上野三丁目２４番６号株式会社Ｌｏｏｏｐ（7010001141521）に合併し解散,2021-05-17,1,,,,,サクラミチサンジュウニ,0
1300,6010405022863,登記記録の閉鎖等,0,2026-02-09,2026-01-16,ＥＳＲサンフラワー２一般社団法人,,その他の設立登記法人,東京都,港区,浜松町１丁目２０番１０号ライオネス浜松町５０６号室,,13,103,1050013,,,2026-01-16,清算の結了等,,,2024-01-12,1,,,,,イーエスアールサンフラワーニ,0
1305,6010701025355,登記記録の閉鎖等,0,2026-02-09,2025-10-31,日本フィールドフェンス株式会社,,株式会社,東京都,品川区,東五反田１丁目１９番２号,,13,109,1410022,,,2025-10-31,合併による解散等,8010701003557,令和７年１０月３１日東京都品川区東五反田一丁目１９番２号サージミヤワキ株式会社（8010701003557）に合併し解散,2015-10-05,1,,,,,ニホンフィールドフェンス,0
1321,6011501013649,登記記録の閉鎖等,0,2026-02-09,2026-01-30,株式会社ＪＰＢＤＡ・ＴＯＫＹＯ,,株式会社,東京都,江戸川区,南小岩３丁目１番１３号,,13,123,1330056,,,2026-01-30,清算の結了等,,,2015-10-05,1,,,,,ジェイピービーディーエートウキョウ,0
1329,6013201005422,登記記録の閉鎖等,0,2026-02-09,2026-01-16,ホワイト産業株式会社,,株式会社,東京都,目黒区,平町１丁目１番１号,,13,110,1520032,,,2026-01-16,清算の結了等,,,2015-10-05,1,,,,,ホワイトサンギョウ,0
1339,6013402001583,登記記録の閉鎖等,0,2026-02-09,2026-02-06,有限会社佑企プレス工業,,有限会社,東京都,八王子市,大和田町６丁目１４番７号,,13,201,1920045,,,2026-02-06,清算の結了等,,,2015-10-05,1,,,,,ユウキプレスコウギョウ,0
1343,6020002051587,登記記録の閉鎖等,0,2026-02-09,2026-01-30,有限会社ワイツー,,有限会社,神奈川県,横浜市緑区,長津田１丁目２２番１０－２５号,,14,113,2260027,,,2026-01-30,清算の結了等,,,2015-10-05,1,,,,,ワイツー,0
1367,6040001016465,登記記録の閉鎖等,0,2026-02-09,2026-02-03,株式会社シリウス,,株式会社,長野県,北安曇郡松川村,７０６４番地２００,,20,482,3998501,,,2026-02-03,清算の結了等,,,2015-10-05,1,,,,,シリウス,0
1371,6040001112421,登記記録の閉鎖等,0,2026-02-09,2026-01-13,アートグレイス株式会社,,株式会社,千葉県,流山市,富士見台２丁目５番地の１－２４－１０１,,12,220,2700127,,,2026-01-13,清算の結了等,,,2020-02-05,1,,,,,アートグレイス,0
1378,6040002071947,登記記録の閉鎖等,0,2026-02-09,2026-01-05,有限会社フローラ,,有限会社,千葉県,市原市,八幡８６６番地１,,12,219,2900062,,,2026-01-05,清算の結了等,,,2015-10-05,1,,,,,,0
1392,6070002021321,登記記録の閉鎖等,0,2026-02-09,2026-02-04,株式会社テクノワーク,,株式会社,群馬県,伊勢崎市,境下渕名１９２３番地,,10,204,3700103,,,2026-02-04,清算の結了等,,,2015-10-05,1,,,,,テクノワーク,0
1394,6080401001914,登記記録の閉鎖等,0,2026-02-09,2026-02-05,株式会社さがみ園,,株式会社,静岡県,浜松市中央区,若林町３３５番地,,22,138,4328051,,,2026-02-05,清算の結了等,,,2015-10-05,1,,,,,サガミエン,0
1400,6100002007713,登記記録の閉鎖等,0,2026-02-09,2026-02-03,有限会社アートランディック,,有限会社,長野県,長野市,大字中御所字岡田７６番地１シティパル岡田１０１,,20,201,3800935,,,2026-02-03,清算の結了等,,,2015-10-05,1,,,,,アートランディック,0
1415,6120001260328,登記記録の閉鎖等,0,2026-02-09,2026-02-03,俊成株式会社,,株式会社,大阪府,大阪市東淀川区,瑞光４丁目２－２１プレアール瑞光４０３号室,,27,114,5330005,,,2026-02-03,清算の結了等,,,2023-12-04,1,,,,,シュンセイ,0
1420,6120003019978,登記記録の閉鎖等,0,2026-02-09,2026-02-02,加和産業合同会社,,合同会社,京都府,相楽郡笠置町,大字有市小字船頭５番地１,,26,364,6191301,,,2026-02-02,清算の結了等,,,2021-08-06,1,,,,,カワサンギョウ,0
1421,6120003024623,登記記録の閉鎖等,0,2026-02-09,2026-01-30,合同会社新希企画,,合同会社,大阪府,大阪市北区,梅田１丁目２番２号大阪駅前第２ビル１２－１２,,27,127,5300001,,,2026-01-30,清算の結了等,,,2023-08-08,1,,,,,アラキキカク,0
1424,6120901009568,登記記録の閉鎖等,0,2026-02-09,2026-02-02,株式会社千里丘メデイカルプラント,,株式会社,大阪府,摂津市,千里丘５丁目３番５号,,27,224,5660001,,,2026-02-02,清算の結了等,,,2015-10-05,1,,,,,,0
1434,6130001078182,登記記録の閉鎖等,0,2026-02-09,2026-01-30,Ｌｉｎｋ　Ｐａｒｋ株式会社,,株式会社,京都府,京都市南区,西九条唐戸町１８番地４－１０２,,26,107,6018447,,,2026-01-30,清算の結了等,,,2024-10-23,1,,,,,リンクパーク,0
1441,6140002004698,登記記録の閉鎖等,0,2026-02-09,2026-02-03,末田木工芸有限会社,,有限会社,兵庫県,神戸市西区,伊川谷町別府１０５番地の１,,28,111,6512115,,,2026-02-03,清算の結了等,,,2015-10-05,1,,,,,,0
1455,6180001146091,登記記録の閉鎖等,0,2026-02-09,2026-01-13,モノリスホールディングス株式会社,,株式会社,東京都,目黒区,下目黒１丁目８番１号アルコタワー７階,,13,110,1530064,,,2026-01-13,合併による解散等,5180001147017,令和７年１２月３１日東京都目黒区下目黒一丁目８番１号アルコタワー７階Ｍｏｎｏｌｉｔｈ　ＲＩＡ株式会社（5180001147017）に合併し解散,2021-05-21,1,,,,,モノリスホールディングス,0
1459,6180002027902,登記記録の閉鎖等,0,2026-02-09,2026-02-04,有限会社七宝砥石工業所,,有限会社,愛知県,名古屋市中村区,竹橋町６番５号,,23,105,4530016,,,2026-02-04,清算の結了等,,,2015-10-05,1,,,,,シッポウトイシコウギョウショ,0
1464,6180301011094,登記記録の閉鎖等,0,2026-02-09,2026-02-06,株式会社スガテック,,株式会社,愛知県,蒲郡市,拾石町三田１３番地６,,23,214,4430038,,,2026-02-06,清算の結了等,,,2015-10-05,1,,,,,,0
1468,6180303004113,登記記録の閉鎖等,0,2026-02-09,2026-02-02,合同会社シリウス,,合同会社,愛知県,刈谷市,今川町田地池９５番地１,,23,210,4480005,,,2026-02-02,合併による解散等,4180303003967,令和８年２月１日愛知県刈谷市今川町田地池３４番地合同会社ポラリス（4180303003967）に合併し解散,2018-07-11,1,,,,,シリウス,0
1475,6200005007642,登記記録の閉鎖等,0,2026-02-09,2025-12-24,愛宕神社,,その他の設立登記法人,岐阜県,関市,神野２６７番地の１,,21,205,5013203,,,2025-12-24,合併による解散等,2200005007571,令和７年１２月２４日岐阜県関市神野２６５番地の１南宮神社（2200005007571）に合併し解散,2015-10-05,1,,,,,アタゴジンジャ,0
1480,6230001008724,登記記録の閉鎖等,0,2026-02-09,2026-02-04,エスケー管財株式会社,,株式会社,富山県,南砺市,松木３８番地の２,,16,210,9391623,,,2026-02-04,清算の結了等,,,2015-10-05,1,,,,,エスケーカンザイ,0
1483,6230002009374,登記記録の閉鎖等,0,2026-02-09,2026-02-03,有限会社鍋谷モータース,,有限会社,富山県,砺波市,十年明１６３番地の３,,16,208,9391353,,,2026-02-03,合併による解散等,4150001002118,令和８年２月１日奈良市北之庄町７２３番地１３フジトランスポート株式会社（4150001002118）に合併し解散,2015-10-05,1,,,,,,0
1485,6240002053207,登記記録の閉鎖等,0,2026-02-09,2026-02-04,有限会社セドナ,,有限会社,広島県,三原市,港町１丁目１９番１３号,,34,204,7230017,,,2026-02-04,清算の結了等,,,2015-10-05,1,,,,,セドナ,0
1513,6310001006455,登記記録の閉鎖等,0,2026-02-09,2026-02-04,株式会社小佐々渡辺,,株式会社,長崎県,佐世保市,小佐々町臼ノ浦９番地,,42,202,8570403,,,2026-02-04,合併による解散等,4180001042078,令和８年１月３１日名古屋市中区丸の内二丁目１９番２９号株式会社渡辺商店（4180001042078）に合併し解散,2015-10-05,1,,,,,コサザワタナベ,0
1520,6350001013968,登記記録の閉鎖等,0,2026-02-09,2026-02-02,株式会社ひなこ,,株式会社,宮崎県,日南市,飫肥６丁目７番５１号,,45,204,8892535,,,2026-02-02,合併による解散等,7350002016498,令和８年２月１日宮崎県日南市吾田西一丁目３番２４－９０１号株式会社オリンピア（7350002016498）に合併し解散,2016-04-12,1,,,,,ヒナコ,0
1525,6380002023518,登記記録の閉鎖等,0,2026-02-09,2026-02-04,有限会社コウワ,,有限会社,福島県,いわき市,遠野町深山田字折部前７４番地の１５,,07,204,9720164,,,2026-02-04,清算の結了等,,,2015-10-05,1,,,,,コウワ,0
1529,6390002015646,登記記録の閉鎖等,0,2026-02-09,2026-02-05,寒河江倉庫有限会社,,有限会社,山形県,寒河江市,大字柴橋２６９２番地,,06,206,9910063,,,2026-02-05,清算の結了等,,,2015-10-05,1,,,,,サガエソウコ,0
1530,6400001009028,登記記録の閉鎖等,0,2026-02-09,2026-02-02,紫波運輸株式会社,,株式会社,岩手県,紫波郡紫波町,犬吠森字沼口８７番地３,,03,321,0283312,,,2026-02-02,清算の結了等,,,2015-10-05,1,,,,,シワウンユ,0
1545,6500001018828,登記記録の閉鎖等,0,2026-02-09,2026-02-05,株式会社Ｈ２測量設計,,株式会社,愛媛県,松山市,北斎院町１１５４番地２,,38,201,7918031,,,2026-02-05,清算の結了等,,,2015-10-05,1,,,,,エイチツーソクリョウセッケイ,0
1552,7010001225464,登記記録の閉鎖等,0,2026-02-09,2025-12-26,株式会社ＢＣＪ‐５９,,株式会社,東京都,千代田区,丸の内１丁目１番１号パレスビル５階,,13,101,1000005,,,2025-12-26,合併による解散等,7020001161568,令和７年１２月１日東京都港区海岸一丁目２番２０号株式会社ＮＪＭ２（7020001161568）に合併し解散,2022-03-29,1,,,,,,0
1563,7010401160591,登記記録の閉鎖等,0,2026-02-09,2026-01-13,ＮＵＮＷ株式会社,,株式会社,東京都,港区,麻布台１丁目３番１号,,13,103,1060041,,,2026-01-13,合併による解散等,3010401187878,令和８年１月１日東京都港区麻布台一丁目３番１号ＫＩＳ株式会社（3010401187878）に合併し解散,2021-06-07,1,,,,,ニュー,0
1566,7010503006016,登記記録の閉鎖等,0,2026-02-09,2026-01-29,ＪＨ合同会社,,合同会社,東京都,台東区,上野６丁目７番１６号川久保ビル４１１号,,13,106,1100005,,,2026-01-29,清算の結了等,,,2020-09-08,1,,,,,ジェーエッチ,0
1595,7011601003284,登記記録の閉鎖等,0,2026-02-09,2026-02-02,昇和建設株式会社,,株式会社,東京都,練馬区,中村３丁目１７番９号第一真ビル３０２,,13,120,1760024,,,2026-02-02,合併による解散等,5011601010539,令和８年２月１日東京都練馬区中村三丁目１７番９号第一真ビル３０２株式会社真企画（5011601010539）に合併し解散,2015-10-05,1,,,,,ショウワケンセツ,0
1606,7012303001659,登記記録の閉鎖等,0,2026-02-09,2026-02-09,Ｋｓｔａｒｐｌｕｓ　Ｊａｐａｎ合同会社,,合同会社,東京都,町田市,南大谷４丁目３６－６アルカディア３番館２０１,,13,209,1940031,,,2026-02-09,清算の結了等,,,2022-04-20,1,,,,,ケイスタープラスジャパン,0
1607,7012401018753,登記記録の閉鎖等,0,2026-02-09,2026-02-02,株式会社オーエスワン,,株式会社,東京都,練馬区,石神井台４丁目１４番２３号,,13,120,1770045,,,2026-02-02,清算の結了等,,,2015-10-05,1,,,,,オーエスワン,0
1637,7030002022529,登記記録の閉鎖等,0,2026-02-09,2026-02-02,有限会社安田電気商会,,有限会社,埼玉県,蓮田市,末広１丁目６番１号,,11,238,3490124,,,2026-02-02,清算の結了等,,,2015-10-05,1,,,,,ヤスダデンキショウカイ,0
1646,7040001076921,登記記録の閉鎖等,0,2026-02-09,2026-01-13,ＮＳコンサルティング株式会社,,株式会社,千葉県,浦安市,美浜３丁目６番９号,,12,227,2790011,,,2026-01-13,清算の結了等,,,2015-10-05,1,,,,,エヌエスコンサルティング,0
1648,7040001093099,登記記録の閉鎖等,0,2026-02-09,2026-01-09,株式会社ＭＩＭ,,株式会社,千葉県,船橋市,本中山７丁目２２番５号３０１号室,,12,204,2730035,,,2026-01-09,清算の結了等,,,2015-12-02,1,,,,,ミム,0
1657,7040003013534,登記記録の閉鎖等,0,2026-02-09,2026-01-16,合同会社大翔,,合同会社,千葉県,野田市,尾崎７４番地の１,,12,208,2700235,,,2026-01-16,清算の結了等,,,2019-06-14,1,,,,,ダイショウ,0
1667,7120001027065,登記記録の閉鎖等,0,2026-02-09,2026-02-06,株式会社朝日製作所,,株式会社,大阪府,大阪市大正区,泉尾２丁目１８番３号,,27,108,5510031,,,2026-02-06,清算の結了等,,,2015-10-05,1,,,,,アサヒセイサクショ,0
1670,7120001197453,登記記録の閉鎖等,0,2026-02-09,2026-02-05,レクストホールディングス株式会社,,株式会社,大阪府,大阪市中央区,安土町３丁目５番１３号,,27,128,5410052,,,2026-02-05,合併による解散等,4010001074187,令和８年１月１日東京都新宿区四谷四丁目２８番８号ＰＡＬＴビル株式会社ＢｕｙＳｅｌｌ　Ｔｅｃｈｎｏｌｏｇｉｅｓ（4010001074187）に合併し解散,2016-04-12,1,,,,,レクストホールディングス,0
1673,7120001264583,登記記録の閉鎖等,0,2026-02-09,2026-02-05,納福株式会社,,株式会社,大阪府,大阪市生野区,新今里５丁目１－３デイルーチェ上町ＥＡＳＴ２０１号室,,27,116,5440001,,,2026-02-05,清算の結了等,,,2024-05-07,1,,,,,ノウフク,0
1682,7120101010045,登記記録の閉鎖等,0,2026-02-09,2026-02-02,株式会社アトミック,,株式会社,大阪府,堺市堺区,大町東１丁１番２号,,27,141,5900954,,,2026-02-02,清算の結了等,,,2015-10-05,1,,,,,アトミック,0
1683,7120101041924,登記記録の閉鎖等,0,2026-02-09,2026-02-02,株式会社松浪組,,株式会社,大阪府,和泉市,唐国町３丁目１６番２８号,,27,219,5941151,,,2026-02-02,清算の結了等,,,2015-10-05,1,,,,,,0
1706,7180001068194,登記記録の閉鎖等,0,2026-02-09,2026-02-04,株式会社ユーシン,,株式会社,愛知県,名古屋市港区,正徳町２丁目７９番地,,23,111,4550075,,,2026-02-04,清算の結了等,,,2015-10-05,1,,,,,ユーシン,0
1715,7180002075702,登記記録の閉鎖等,0,2026-02-09,2026-02-02,有限会社一工業,,有限会社,愛知県,一宮市,大和町南高井字江北５番地,,23,203,4910925,,,2026-02-02,合併による解散等,2180002077117,令和８年２月１日愛知県一宮市萩原町東宮重字北沖６番地の２株式会社ナカノ工業（2180002077117）に合併し解散,2015-10-05,1,,,,,ハジメコウギョウ,0
1725,7220001012073,登記記録の閉鎖等,0,2026-02-09,2026-02-05,株式会社セントラルハウス,,株式会社,石川県,小松市,河田町ツ２８番地１,,17,203,9230053,,,2026-02-05,清算の結了等,,,2015-10-05,1,,,,,,0
1729,7240001031179,登記記録の閉鎖等,0,2026-02-09,2026-02-04,株式会社ミノミ商事,,株式会社,広島県,福山市,水呑町２５００番地１,,34,207,7200832,,,2026-02-04,清算の結了等,,,2015-10-05,1,,,,,ミノミショウジ,0
1730,7240001042135,登記記録の閉鎖等,0,2026-02-09,2026-02-02,株式会社フルタ木型製作所,,株式会社,広島県,広島市安佐北区,可部３丁目１番２４号,,34,106,7310221,,,2026-02-02,清算の結了等,,,2015-10-05,1,,,,,フルタキガタセイサクショ,0
1744,7290002000681,登記記録の閉鎖等,0,2026-02-09,2026-02-02,有限会社タップ,,有限会社,福岡県,福岡市西区,愛宕１丁目１５番１９－６０２号,,40,135,8190015,,,2026-02-02,清算の結了等,,,2015-10-05,1,,,,,タップ,0
1749,7290003003782,登記記録の閉鎖等,0,2026-02-09,2026-02-02,合同会社ジトク,,合同会社,福岡県,福岡市早良区,大字飯場７１１,,40,137,8111134,,,2026-02-02,清算の結了等,,,2015-10-05,1,,,,,ジトク,0
1761,7320005002085,登記記録の閉鎖等,0,2026-02-09,2025-12-23,天理教咸鏡分教会,,その他の設立登記法人,大分県,大分市,大字一尺屋２４９４番地,,44,201,8792203,,,2025-12-23,合併による解散等,4010605000448,令和７年１２月１５日東京都墨田区本所一丁目１３番１７号天理教東本大教会（4010605000448）に合併し解散,2015-10-05,1,,,,,,0
1764,7340001024247,登記記録の閉鎖等,0,2026-02-09,2026-02-02,株式会社海街製作所,,株式会社,鹿児島県,阿久根市,脇本３５５４番地１,,46,206,8991131,,,2026-02-02,合併による解散等,8340001022464,令和８年２月１日鹿児島県阿久根市脇本３５５４番地１株式会社土曜日（8340001022464）に合併し解散,2021-11-04,1,,,,,ウミマチセイサクショ,0
1765,7340001026078,登記記録の閉鎖等,0,2026-02-09,2026-02-02,株式会社土曜日,,株式会社,鹿児島県,阿久根市,脇本３５５４番地１,,46,206,8991131,,,2026-02-02,合併による解散等,8340001022464,令和８年２月１日鹿児島県阿久根市脇本３５５４番地１株式会社土曜日（8340001022464）に合併し解散,2023-11-14,1,,,,,ドヨウビ,0
1778,7410005005145,登記記録の閉鎖等,0,2026-02-09,2026-01-05,県南漁業協同組合,,その他の設立登記法人,秋田県,横手市,雄物川町薄井字小出２７５番地１,,05,203,0130481,,,2026-01-05,合併による解散等,3410005002617,令和８年１月５日秋田県湯沢市秋ノ宮字桑沢１８番地３役内・雄物川漁業協同組合（3410005002617）に合併し解散,2015-10-05,1,,,,,ケンナン,0
1782,7430002057170,登記記録の閉鎖等,0,2026-02-09,2026-02-02,有限会社ふたば呉服店,,有限会社,北海道,虻田郡倶知安町,南一条西２丁目１７番地,,01,400,0440031,,,2026-02-02,清算の結了等,,,2015-10-05,1,,,,,フタバゴフクテン,0
1784,7450002001564,登記記録の閉鎖等,0,2026-02-09,2026-02-04,有限会社ＡＫＩ土建,,有限会社,北海道,旭川市,豊岡四条１０丁目４番１９号,,01,204,0788234,,,2026-02-04,清算の結了等,,,2015-10-05,1,,,,,アキドケン,0
1791,7460305000320,登記記録の閉鎖等,0,2026-02-09,2026-01-30,神道三柱中教会,,その他の設立登記法人,北海道,北見市,留辺蘂町旭１区１７５番地,,01,208,0910029,,,2026-01-30,清算の結了等,,,2015-10-05,1,,,,,シントウミハシラチュウキョウカイ,0
1794,7470002003856,登記記録の閉鎖等,0,2026-02-09,2026-02-05,有限会社スナツクノン,,有限会社,香川県,高松市,木太町３６４９番地１７,,37,201,7600080,,,2026-02-05,清算の結了等,,,2015-10-05,1,,,,,スナックノン,0
1800,8010001216958,登記記録の閉鎖等,0,2026-02-09,2026-01-16,株式会社ＦｅｌｉＣｅ　ｉｎ　Ｓｔｙｌｅ,,株式会社,東京都,中央区,銀座１丁目２２番１１号銀座大竹ビジデンス２階,,13,102,1040061,,,2026-01-16,清算の結了等,,,2021-04-02,1,,,,,フェリーチェインスタイル,0
1807,8010003031042,登記記録の閉鎖等,0,2026-02-09,2026-01-19,クリプトベンチャーズ合同会社,,合同会社,東京都,中央区,銀座７丁目１３番６号サガミビル２階,,13,102,1040061,,,2026-01-19,清算の結了等,,,2019-11-13,1,,,,,クリプトベンチャーズ,0
1812,8010401131006,登記記録の閉鎖等,0,2026-02-09,2026-01-19,株式会社Ｉｇｎｉｓマスターリース,,株式会社,東京都,港区,虎ノ門２丁目６番１号,,13,103,1050001,,,2026-01-19,清算の結了等,,,2017-04-20,1,,,,,イグニスマスターリース,0
1814,8010401157562,登記記録の閉鎖等,0,2026-02-09,2026-02-02,株式会社ガーデン,,株式会社,東京都,品川区,大崎３丁目１４－１４－２０２,,13,109,1410032,,,2026-02-02,清算の結了等,,,2021-01-13,1,,,,,ガーデン,0
1845,8011102002719,登記記録の閉鎖等,0,2026-02-09,2026-01-09,有限会社小野田商店,,有限会社,東京都,新宿区,余丁町６番１９号,,13,104,1620055,,,2026-01-09,清算の結了等,,,2015-10-05,1,,,,,オノダショウテン,0
1847,8011103012007,登記記録の閉鎖等,0,2026-02-09,2026-01-09,合同会社チララビ,,合同会社,東京都,新宿区,西新宿３丁目３番１３号西新宿水間ビル２Ｆ,,13,104,1600023,,,2026-01-09,清算の結了等,,,2022-07-27,1,,,,,チララビ,0
1848,8011103015372,登記記録の閉鎖等,0,2026-02-09,2026-01-13,合同会社ノベスト,,合同会社,東京都,新宿区,西新宿３丁目３番１３号西新宿水間ビル２階,,13,104,1600023,,,2026-01-13,清算の結了等,,,2025-01-15,1,,,,,ノベスト,0
1859,8011702017100,登記記録の閉鎖等,0,2026-02-09,2026-02-04,有限会社イーファイブ,,有限会社,東京都,江戸川区,西小松川町３５番１０号,,13,123,1320032,,,2026-02-04,清算の結了等,,,2015-10-05,1,,,,,イーファイブ,0
1860,8012701000749,登記記録の閉鎖等,0,2026-02-09,2026-01-30,株式会社中尾精機,,株式会社,東京都,小平市,天神町４丁目８番２４号,,13,211,1870004,,,2026-01-30,清算の結了等,,,2015-10-05,1,,,,,ナカオセイキ,0
1873,8013303006028,登記記録の閉鎖等,0,2026-02-09,2026-01-28,合同会社Ｓｐｉｃａ　Ｆｅｌｌｏｗ,,合同会社,東京都,豊島区,長崎３丁目１番２３号,,13,116,1710051,,,2026-01-28,清算の結了等,,,2022-02-07,1,,,,,スピカフェロー,0
1882,8030001054761,登記記録の閉鎖等,0,2026-02-09,2026-02-02,株式会社三栄総業,,株式会社,埼玉県,狭山市,新狭山２丁目１１番地２９,,11,215,3501331,,,2026-02-02,清算の結了等,,,2015-10-05,1,,,,,サンエイソウギョウ,0
1887,8030003017700,登記記録の閉鎖等,0,2026-02-09,2026-02-02,合同会社まる,,合同会社,埼玉県,本庄市,駅南１丁目８－３７サニーハイツ１０３,,11,211,3670041,,,2026-02-02,清算の結了等,,,2021-07-30,1,,,,,マル,0
1888,8030005004085,登記記録の閉鎖等,0,2026-02-09,2026-01-05,医療法人康久会,,その他の設立登記法人,埼玉県,入間市,東町７丁目１４番１２号,,11,225,3580002,,,2026-01-05,合併による解散等,6040005002189,令和８年１月５日埼玉県越谷市レイクタウン八丁目４番４号Ｅｆｅｌｉｘ越谷レイクタウン４階医療法人社団ひよこ会（6040005002189）に合併し解散,2015-10-05,1,,,,,コウキュウカイ,0
1896,8040005012723,登記記録の閉鎖等,0,2026-02-09,2025-12-03,天理教京總分教会,00021628,その他の設立登記法人,千葉県,山武郡横芝光町,鳥喰下１８１０番地,,12,410,2891737,,,2025-12-03,合併による解散等,3040005000880,令和７年１２月３日千葉県千葉市花見川区犢橋町１７４７番地の１天理教犢橋分教会（3040005000880）に合併し解散,2015-10-05,1,,,,,テンリキョウキョウソウブンキョウカイ,0
1902,8080403000276,登記記録の閉鎖等,0,2026-02-09,2026-02-02,株式会社丸モ竹村木工所,,株式会社,静岡県,浜松市中央区,西浅田２丁目８番２３号,,22,138,4328045,,,2026-02-02,清算の結了等,,,2015-10-05,1,,,,,マルモタケムラモッコウショ,0
1905,8100002008379,登記記録の閉鎖等,0,2026-02-09,2026-02-03,有限会社小林産業,,有限会社,長野県,須坂市,大字小河原２２４３番地,,20,207,3820901,,,2026-02-03,清算の結了等,,,2015-10-05,1,,,,,コバヤシサンギョウ,0
1908,8110002025794,登記記録の閉鎖等,0,2026-02-09,2026-02-03,有限会社樋熊製作所,00070977,有限会社,新潟県,十日町市,中条乙２４９７番地３,,15,210,9498616,,,2026-02-03,清算の結了等,,,2015-10-05,1,,,,,ヒグマセイサクジョ,0
1950,8180002016696,登記記録の閉鎖等,0,2026-02-09,2026-02-05,有限会社平林フォルダー,,有限会社,愛知県,名古屋市東区,泉２丁目２２番８号,,23,102,4610001,,,2026-02-05,清算の結了等,,,2015-10-05,1,,,,,ヒラバヤシフォルダー,0
1953,8180002085857,登記記録の閉鎖等,0,2026-02-09,2026-02-05,有限会社中村産業,,有限会社,愛知県,知多郡美浜町,新浦戸２丁目１２番地の５,,23,446,4702411,,,2026-02-05,清算の結了等,,,2015-10-05,1,,,,,ナカムラサンギョウ,0
1954,8180303006421,登記記録の閉鎖等,0,2026-02-09,2026-02-03,ＡｎｉｍａａａｌＡＩ合同会社,,合同会社,愛知県,豊田市,浄水町伊保原８９番地３,,23,211,4700343,,,2026-02-03,清算の結了等,,,2025-01-17,1,,,,,アニマールエーアイ,0
1955,8180303006454,登記記録の閉鎖等,0,2026-02-09,2026-02-03,合同会社クラストリート,,合同会社,愛知県,岡崎市,康生通東１丁目２３番地,,23,202,4440045,,,2026-02-03,清算の結了等,,,2025-02-13,1,,,,,クラストリート,0
1962,8230001017368,登記記録の閉鎖等,0,2026-02-09,2026-02-03,ＴＡパートナーズ株式会社,,株式会社,富山県,滑川市,常盤町１８１番地４３,,16,206,9360027,,,2026-02-03,清算の結了等,,,2018-03-28,1,,,,,ティーエーパートナーズ,0
1963,8240001001065,登記記録の閉鎖等,0,2026-02-09,2026-02-04,株式会社ウイット,,株式会社,広島県,広島市西区,己斐上３丁目９番３号,,34,104,7330815,,,2026-02-04,清算の結了等,,,2015-10-05,1,,,,,ウイット,0
1965,8240001030626,登記記録の閉鎖等,0,2026-02-09,2026-02-05,小林繊商株式会社,,株式会社,広島県,福山市,卸町５番１号,,34,207,7210954,,,2026-02-05,清算の結了等,,,2015-10-05,1,,,,,コバヤシセンショウ,0
1997,8340005004095,登記記録の閉鎖等,0,2026-02-09,2026-02-03,指宿たばこ販売協同組合,,その他の設立登記法人,鹿児島県,指宿市,大牟礼２丁目２１番３号,,46,210,8910401,,,2026-02-03,清算の結了等,,,2015-10-05,1,,,,,イブスキタバコハンバイ,0
2006,8380001029448,登記記録の閉鎖等,0,2026-02-09,2026-02-05,株式会社エボリューション,,株式会社,福島県,郡山市,富久山町久保田字愛宕２番地の３,,07,203,9638071,,,2026-02-05,清算の結了等,,,2018-09-19,1,,,,,エボリューション,0
2015,8430001001574,登記記録の閉鎖等,0,2026-02-09,2026-02-02,株式会社インデックス・コア,,株式会社,北海道,札幌市東区,北二十三条東８丁目３番１号,,01,103,0650023,,,2026-02-02,合併による解散等,6430001005593,令和８年２月１日札幌市東区北二十三条東八丁目３番１号株式会社コア・アソシエイツ（6430001005593）に合併し解散,2015-10-05,1,,,,,インデックスコア,0
2017,8430001087820,登記記録の閉鎖等,0,2026-02-09,2026-02-05,株式会社ノースカーバンク,,株式会社,北海道,千歳市,柏台１４６３番地１,,01,224,0660013,,,2026-02-05,清算の結了等,,,2022-11-08,1,,,,,ノースカーバンク,0
2020,8430002046040,登記記録の閉鎖等,0,2026-02-09,2026-02-06,有限会社細川組,,有限会社,北海道,江別市,東野幌３８５番地１,,01,217,0690822,,,2026-02-06,清算の結了等,,,2015-10-05,1,,,,,ホソカワグミ,0
2024,8480001005876,登記記録の閉鎖等,0,2026-02-09,2026-02-04,とくとく物産株式会社,,株式会社,徳島県,板野郡松茂町,中喜来字前原東四番越１４番地１,,36,401,7710212,,,2026-02-04,清算の結了等,,,2015-10-05,1,,,,,トクトクブッサン,0
2030,9010001110557,登記記録の閉鎖等,0,2026-02-09,2026-01-19,株式会社栄光社,,株式会社,東京都,千代田区,一番町１１番地２,,13,101,1020082,,,2026-01-19,清算の結了等,,,2015-10-05,1,,,,,エイコウシャ,0
2034,9010003030415,登記記録の閉鎖等,0,2026-02-09,2026-01-19,Ｓｕｐｅｒｎｏｖａ　Ｆｕｒａｎｏ合同会社,,合同会社,東京都,中央区,銀座１丁目６番１１号土志田ビルディング３階,,13,102,1040061,,,2026-01-19,清算の結了等,,,2019-08-15,1,,,,,スーパーノヴァフラノ,0
2038,9010401087008,登記記録の閉鎖等,0,2026-02-09,2025-12-10,株式会社アドフレックス・コミュニケーションズ,,株式会社,東京都,港区,海岸１丁目２番２０号,,13,103,1050022,,,2025-12-10,合併による解散等,7020001161568,令和７年１２月１日東京都港区海岸一丁目２番２０号株式会社ＮＪＭ２（7020001161568）に合併し解散,2015-10-05,1,,,,,アドフレックスコミュニケーションズ,0
2042,9010401164129,登記記録の閉鎖等,0,2026-02-09,2026-01-16,株式会社落合宏理デザイン事務所,,株式会社,東京都,港区,南青山５丁目４番３０号,,13,103,1070062,,,2026-01-16,清算の結了等,,,2021-12-01,1,,,,,オチアイヒロミチデザインジムショ,0
2057,9010502006758,登記記録の閉鎖等,0,2026-02-09,2026-01-29,有限会社大正,,有限会社,東京都,台東区,三ノ輪１丁目１４番２号,,13,106,1100011,,,2026-01-29,清算の結了等,,,2015-10-05,1,,,,,,0
2072,9011001153026,登記記録の閉鎖等,0,2026-02-09,2026-01-13,モノリスマルチファミリーオフィス株式会社,,株式会社,東京都,目黒区,下目黒１丁目８番１号アルコタワー７階,,13,110,1530064,,,2026-01-13,合併による解散等,5180001147017,令和７年１２月３１日東京都目黒区下目黒一丁目８番１号アルコタワー７階Ｍｏｎｏｌｉｔｈ　ＲＩＡ株式会社（5180001147017）に合併し解散,2023-03-10,1,,,,,モノリスマルチファミリーオフィス,0
2080,9011601006632,登記記録の閉鎖等,0,2026-02-09,2026-02-03,株式会社ミサカ,,株式会社,東京都,練馬区,石神井町２丁目２７番４号,,13,120,1770041,,,2026-02-03,清算の結了等,,,2015-10-05,1,,,,,ミサカ,0
2081,9011701005716,登記記録の閉鎖等,0,2026-02-09,2026-02-03,東和食品工業株式会社,,株式会社,東京都,江戸川区,春江町５丁目３１番地２,,13,123,1340003,,,2026-02-03,清算の結了等,,,2015-10-05,1,,,,,トウワショクヒンコウギョウ,0
2084,9011801006440,登記記録の閉鎖等,0,2026-02-09,2026-01-05,エフシー總合開発株式会社,00056973,株式会社,東京都,足立区,西新井栄町２丁目１２番８号,,13,121,1230843,,,2026-01-05,合併による解散等,4011801011643,令和８年１月５日東京都足立区西新井三丁目４番２号不動産センター株式会社（4011801011643）に合併し解散,2015-10-05,1,,,,,エフシーソウゴウカイハツ,0
2100,9020002025126,登記記録の閉鎖等,0,2026-02-09,2026-02-03,有限会社勇光工業,,有限会社,神奈川県,横浜市保土ケ谷区,新井町４００番地の１２,,14,106,2400053,,,2026-02-03,清算の結了等,,,2015-10-05,1,,,,,ユウコウコウギョウ,0
2109,9030001169559,登記記録の閉鎖等,0,2026-02-09,2026-02-02,エスオー株式会社,,株式会社,埼玉県,狭山市,大字上赤坂６２０番地の６,,11,215,3501313,,,2026-02-02,合併による解散等,6010001191071,令和８年２月１日埼玉県狭山市大字上赤坂６２０番地の６株式会社コノミ（6010001191071）に合併し解散,2025-11-11,1,,,,,エスオー,0
2111,9030003009977,登記記録の閉鎖等,0,2026-02-09,2026-02-02,合同会社グレイス,,合同会社,埼玉県,さいたま市浦和区,岸町７丁目３番１０号,,11,107,3300064,,,2026-02-02,清算の結了等,,,2017-03-02,1,,,,,グレイス,0
2130,9090001012779,登記記録の閉鎖等,0,2026-02-09,2026-02-02,株式会社コーリングファーム,,株式会社,山梨県,笛吹市,石和町上平井２６０番地３,,19,211,4060025,,,2026-02-02,合併による解散等,4090001006645,令和８年２月１日山梨県笛吹市石和町上平井２６０番地の３株式会社コーリング（4090001006645）に合併し解散,2015-10-05,1,,,,,コーリングファーム,0
2143,9120001140956,登記記録の閉鎖等,0,2026-02-09,2026-02-04,株式会社Ｋｉｒａｎａ　Ｈｅａｒｔ,,株式会社,大阪府,大阪市北区,梅田１丁目１２－１２東京建物梅田ビル１２階,,27,127,5300001,,,2026-02-04,清算の結了等,,,2015-10-05,1,,,,,キラーナハート,0
2162,9120101050741,登記記録の閉鎖等,0,2026-02-09,2026-02-02,株式会社みらいじゅ,,株式会社,大阪府,堺市堺区,大町東１丁１番２号,,27,141,5900954,,,2026-02-02,清算の結了等,,,2015-10-05,1,,,,,ミライジュ,0
2167,9120901011711,登記記録の閉鎖等,0,2026-02-09,2026-02-03,日東金属株式会社,,株式会社,大阪府,高槻市,城南町２丁目３３番２２号,,27,207,5690056,,,2026-02-03,清算の結了等,,,2015-10-05,1,,,,,ニットウキンゾク,0
2193,9180002007604,登記記録の閉鎖等,0,2026-02-09,2026-02-03,有限会社石原精密製作所,,有限会社,愛知県,名古屋市昭和区,高辻町５番１４号,00072805,23,107,4660057,,,2026-02-03,清算の結了等,,,2015-10-05,1,,,,,イシハラセイミツセイサクショ,0
2200,9180301038507,登記記録の閉鎖等,0,2026-02-09,2026-02-03,ＲＡ都市企画株式会社,,株式会社,愛知県,刈谷市,桜町１丁目３７番地,,23,210,4480028,,,2026-02-03,清算の結了等,,,2024-04-05,1,,,,,アールエートシキカク,0
2206,9230002014289,登記記録の閉鎖等,0,2026-02-09,2026-02-03,共同土地建物有限会社,,有限会社,富山県,射水市,布目沢１３８番地,,16,211,9390418,,,2026-02-03,清算の結了等,,,2015-10-05,1,,,,,キョウドウトチタテモノ,0
2217,9290001022741,登記記録の閉鎖等,0,2026-02-09,2026-02-02,三州化学株式会社,,株式会社,福岡県,福岡市博多区,博多駅前３丁目２８番３号,,40,132,8120011,,,2026-02-02,清算の結了等,,,2015-10-05,1,,,,,サンシュウカガク,0
2229,9330001028387,登記記録の閉鎖等,0,2026-02-09,2026-02-02,株式会社文コーポレーション,,株式会社,熊本県,熊本市南区,馬渡２丁目１２番３５号,,43,104,8620968,,,2026-02-02,合併による解散等,7330001002179,令和８年２月１日熊本市南区馬渡二丁目１２番３５号ジャストインタイム株式会社（7330001002179）に合併し解散,2021-03-15,1,,,,,ブンコーポレーション,0
2236,9370001031560,登記記録の閉鎖等,0,2026-02-09,2026-02-04,株式会社ぐっど商店,,株式会社,宮城県,仙台市若林区,鶴代町５番６０号－２,,04,103,9840001,,,2026-02-04,清算の結了等,,,2015-10-05,1,,,,,グッドショウテン,0
2241,9410001011599,登記記録の閉鎖等,0,2026-02-09,2026-02-05,株式会社堀井組,,株式会社,秋田県,由利本荘市,岩城勝手字堂ノ後ロ２９番地２,,05,210,0181302,,,2026-02-05,清算の結了等,,,2017-07-12,1,,,,,ホリイグミ,0
