sequenceNumber,corporateNumber,process,correct,updateDate,changeDate,name,nameImageId,kind,prefectureName,cityName,streetNumber,addressImageId,prefectureCode,cityCode,postCode,addressOutside,addressOutsideImageId,closeDate,closeCause,successorCorporateNumber,changeCause,assignmentDate,latest,enName,enPrefectureName,enCityName,enAddressOutside,furigana,hihyoji
8,1010001128144,登記記録の閉鎖等,0,2023-10-03,2023-10-02,株式会社リノステージ,,株式会社,東京都,文京区,小石川１丁目３番２５号,,13,105,1120002,,,2023-10-02,合併による解散等,6010001081925,令和５年１０月１日東京都文京区小石川一丁目３番２５号株式会社エフステージ（6010001081925）に合併し解散,2015-10-05,1,,,,,,0
17,1010003038317,登記記録の閉鎖等,0,2023-10-03,2023-09-26,合同会社シラソル,,合同会社,東京都,千代田区,丸の内３丁目１番１号東京共同会計事務所内,,13,101,1000005,,,2023-09-26,清算の結了等,,,2022-08-04,1,,,,,シラソル,0
20,1010401157338,登記記録の閉鎖等,0,2023-10-03,2023-09-12,仙石山ソリューションズ株式会社,,株式会社,東京都,港区,赤坂１丁目１２番３２号アーク森ビル１２階,,13,103,1070052,,,2023-09-12,清算の結了等,,,2021-01-04,1,,,,,センゴクヤマソリューションズ,0
28,1010701014585,登記記録の閉鎖等,0,2023-10-03,2023-09-27,株式会社市場通信,,株式会社,東京都,世田谷区,代沢５丁目３番２０号,,13,112,1550032,,,2023-09-27,清算の結了等,,,2015-10-05,1,,,,,シジョウツウシン,0
37,1010801026704,登記記録の閉鎖等,0,2023-10-03,2023-09-12,日本フォックスコン工業インターネット株式会社,,株式会社,東京都,港区,東新橋２丁目５番１４号ＭＳＫ新橋ビル９階,,13,103,1050021,,,2023-09-12,清算の結了等,,,2016-05-19,1,,,,,ニホンフォックスコンコウギョウインターネット,0
45,1011001110810,登記記録の閉鎖等,0,2023-10-03,2023-09-28,ＶＥＲＹｂｉｇ株式会社,,株式会社,東京都,渋谷区,富ヶ谷２丁目１９－６－８０１,,13,113,1510063,,,2023-09-28,清算の結了等,,,2016-05-11,1,,,,,ベリービッグ,0
61,1011602004080,登記記録の閉鎖等,0,2023-10-03,2023-09-28,有限会社蔵王上ノ台ロッヂ,,有限会社,東京都,練馬区,東大泉４丁目３１番６号,,13,120,1780063,,,2023-09-28,合併による解散等,3011601000070,令和５年９月２８日東京都練馬区東大泉四丁目３１番６号株式会社大泉スワロー体育クラブ（3011601000070）に合併し解散,2015-10-05,1,,,,,ザオウウワノダイロッヂ,0
66,1011805001180,登記記録の閉鎖等,0,2023-10-03,2023-09-28,協同組合新小岩専門店会,,その他の設立登記法人,東京都,葛飾区,新小岩１丁目５０番１１号,,13,122,1240024,,,2023-09-28,清算の結了等,,,2015-10-05,1,,,,,,0
80,1013402002074,登記記録の閉鎖等,0,2023-10-03,2023-10-02,有限会社北村建築設計事務所,,有限会社,東京都,多摩市,一ノ宮１丁目２６番地７,,13,224,2060002,,,2023-10-02,清算の結了等,,,2015-10-05,1,,,,,キタムラケンチクセッケイジムショ,0
82,1020001054315,登記記録の閉鎖等,0,2023-10-03,2023-09-26,ビーアンドオン株式会社,,株式会社,東京都,豊島区,雑司が谷１丁目４７番７号,,13,116,1710032,,,2023-09-26,清算の結了等,,,2015-10-05,1,,,,,ビーアンドオン,0
99,1021002062819,登記記録の閉鎖等,0,2023-10-03,2023-09-25,有限会社一ノ瀬製作所,,有限会社,神奈川県,横須賀市,汐入町５丁目６２番地,,14,201,2380042,,,2023-09-25,清算の結了等,,,2015-10-05,1,,,,,イチノセセイサクショ,0
105,1030001122087,登記記録の閉鎖等,0,2023-10-03,2023-09-07,株式会社茂木内装,,株式会社,埼玉県,川越市,大字笠幡３７７３番地７,,11,201,3501175,,,2023-09-07,清算の結了等,,,2017-09-11,1,,,,,モテギナイソウ,0
108,1030002000382,登記記録の閉鎖等,0,2023-10-03,2023-09-07,有限会社新井精機製作所,,有限会社,埼玉県,さいたま市南区,曲本２丁目３番１９号,,11,108,3360033,,,2023-09-07,清算の結了等,,,2015-10-05,1,,,,,アライセイキセイサクショ,0
116,1040002052902,登記記録の閉鎖等,0,2023-10-03,2023-09-15,有限会社ＮＢＳカンパニー,,有限会社,千葉県,流山市,大字北１３４蕃地１２３,,12,220,2700117,,,2023-09-15,清算の結了等,,,2015-10-05,1,,,,,エヌビーエスカンパニー,0
118,1040002080564,登記記録の閉鎖等,0,2023-10-03,2023-09-15,有限会社松崎木工,00020823,有限会社,千葉県,長生郡長南町,地引４４６番地,,12,427,2970135,,,2023-09-15,清算の結了等,,,2015-10-05,1,,,,,マツザキモッコウ,0
125,1060001009991,登記記録の閉鎖等,0,2023-10-03,2023-09-25,株式会社ＮＩＴ’Ｓ,,株式会社,栃木県,真岡市,上高間木１丁目１番地１,,09,209,3214337,,,2023-09-25,清算の結了等,,,2015-10-05,1,,,,,ニッツ,0
158,1140001119213,登記記録の閉鎖等,0,2023-10-03,2023-09-28,ＨＮＹ　Ｔｒａｄｉｎｇ株式会社,,株式会社,兵庫県,神戸市中央区,磯上通８丁目１番２９号カサベラビルＣ＆Ｍ４０３号室,,28,110,6510086,,,2023-09-28,清算の結了等,,,2020-10-23,1,,,,,エイチエヌワイトレーディング,0
166,1160002011400,登記記録の閉鎖等,0,2023-10-03,2023-09-27,有限会社テイスト,,有限会社,滋賀県,高島市,今津町今津１５９６番地の１３,,25,212,5201621,,,2023-09-27,清算の結了等,,,2015-10-05,1,,,,,テイスト,0
176,1180002010895,登記記録の閉鎖等,0,2023-10-03,2023-09-27,有限会社鬼頭紙工,,有限会社,愛知県,名古屋市北区,安井１丁目８番２８号,,23,103,4620023,,,2023-09-27,清算の結了等,,,2015-10-05,1,,,,,キトウシコウ,0
180,1180002078454,登記記録の閉鎖等,0,2023-10-03,2023-09-26,有限会社山吉商店,,有限会社,愛知県,一宮市,東五城字東備前１５番地,,23,203,4940008,,,2023-09-26,清算の結了等,,,2015-10-05,1,,,,,ヤマキチショウテン,0
204,1260002030679,登記記録の閉鎖等,0,2023-10-03,2023-10-02,有限会社芳徳薬局,,有限会社,岡山県,美作市,栄町４０番地１,,33,215,7070025,,,2023-10-02,合併による解散等,3260001008609,令和５年１０月１日岡山市南区並木町二丁目１３番１１号株式会社ケイ・クリエイト（3260001008609）に合併し解散,2015-10-05,1,,,,,ホウトクヤッキョク,0
237,1420001014658,登記記録の閉鎖等,0,2023-10-03,2023-09-26,株式会社ニコニコ保険事務所,,株式会社,青森県,青森市,港町２丁目１８番５号,,02,201,0300901,,,2023-09-26,清算の結了等,,,2015-10-05,1,,,,,ニコニコホケンジムショ,0
241,1430001083644,登記記録の閉鎖等,0,2023-10-03,2023-09-19,ＥＺＯポートシステム株式会社,,株式会社,北海道,札幌市北区,屯田六条４丁目３番１０号,,01,102,0020856,,,2023-09-19,清算の結了等,,,2021-03-19,1,,,,,エゾポートシステム,0
244,1430002009474,登記記録の閉鎖等,0,2023-10-03,2023-09-19,有限会社七田建築構造デザイン,,有限会社,北海道,札幌市東区,北六条東６丁目１番地２エスポアシティ札幌１５０１号,,01,103,0600906,,,2023-09-19,清算の結了等,,,2015-10-05,1,,,,,シチダケンチクコウゾウデザイン,0
258,1470005002217,登記記録の閉鎖等,0,2023-10-03,2023-09-08,金光教池戸教会,,その他の設立登記法人,香川県,木田郡三木町,大字池戸２８８７番地の２,,37,341,7610701,,,2023-09-08,合併による解散等,8470005000172,令和５年９月８日香川県高松市塩上町三丁目１４番２４号金光教栗林教会（8470005000172）に合併し解散,2015-10-05,1,,,,,コンコウキョウイケノベキョウカイ,0
259,1480002008298,登記記録の閉鎖等,0,2023-10-03,2023-09-29,有限会社丸岡建築,,有限会社,徳島県,名西郡石井町,石井字城ノ内２６３番地の１,,36,341,7793232,,,2023-09-29,清算の結了等,,,2015-10-05,1,,,,,マルオカケンチク,0
305,2010401037613,登記記録の閉鎖等,0,2023-10-03,2023-10-02,株式会社ダイヤモンド・ビッグ社,,株式会社,東京都,渋谷区,神宮前６丁目１２番１７号,,13,113,1500001,,,2023-10-02,清算の結了等,,,2015-10-05,1,,,,,ダイヤモンドビッグシャ,0
308,2010401159523,登記記録の閉鎖等,0,2023-10-03,2023-09-11,株式会社日本ＴＫＷコンサルティング,,株式会社,東京都,港区,虎ノ門１丁目１０番５号ＫＤＸ虎ノ門一丁目ビルＷｅＷｏｒｋ内,,13,103,1050001,,,2023-09-11,清算の結了等,,,2021-04-12,1,,,,,ニホンティケーダブリュー,0
348,2020001084311,登記記録の閉鎖等,0,2023-10-03,2023-09-20,株式会社トモジヌイン,,株式会社,神奈川県,川崎市宮前区,菅生２丁目１３番５１－２０６号,,14,136,2160015,,,2023-09-20,清算の結了等,,,2015-10-05,1,,,,,トモジヌイン,0
352,2020001145113,登記記録の閉鎖等,0,2023-10-03,2023-09-20,株式会社ゴッドハンド,,株式会社,神奈川県,横浜市神奈川区,松見町４丁目１１１７番地８,,14,102,2210005,,,2023-09-20,清算の結了等,,,2022-02-04,1,,,,,ゴッドハンド,0
357,2020002036963,登記記録の閉鎖等,0,2023-10-03,2023-09-25,有限会社池村機設,,有限会社,神奈川県,横浜市鶴見区,上末吉１丁目８番２６号,,14,101,2300011,,,2023-09-25,清算の結了等,,,2015-10-05,1,,,,,イケムラキセツ,0
383,2040002092245,登記記録の閉鎖等,0,2023-10-03,2023-09-19,有限会社愛蓮社,,有限会社,千葉県,柏市,光ケ丘４丁目１２番９号,,12,217,2770065,,,2023-09-19,清算の結了等,,,2015-10-05,1,,,,,アイレンシャ,0
389,2050002037661,登記記録の閉鎖等,0,2023-10-03,2023-09-26,有限会社コーワシステム,,有限会社,茨城県,牛久市,刈谷町３丁目１４４番地の１,,08,219,3001235,,,2023-09-26,清算の結了等,,,2015-10-05,1,,,,,コーワシステム,0
402,2080005003237,登記記録の閉鎖等,0,2023-10-03,2023-09-29,農事組合法人茂畑共同製茶組合,,その他の設立登記法人,静岡県,静岡市清水区,茂畑２０３番地の１,,22,103,4240101,,,2023-09-29,清算の結了等,,,2015-10-05,1,,,,,モバタキョウドウセイチャクミアイ,0
405,2080402001149,登記記録の閉鎖等,0,2023-10-03,2023-09-29,有限会社浦海木工所,,有限会社,静岡県,浜松市南区,三島町７４６番地,,22,134,4300853,,,2023-09-29,清算の結了等,,,2015-10-05,1,,,,,ホツミモッコウショ,0
418,2120001181916,登記記録の閉鎖等,0,2023-10-03,2023-09-22,株式会社ＡＱＵＡ　ＭＯＯＮ,,株式会社,大阪府,大阪市中央区,東高麗橋４番３号,,27,128,5400039,,,2023-09-22,清算の結了等,,,2015-10-05,1,,,,,,0
436,2120902010074,登記記録の閉鎖等,0,2023-10-03,2023-09-22,有限会社グローバルイノベーション,,有限会社,大阪府,高槻市,古曽部町３丁目１６番２号,,27,207,5691115,,,2023-09-22,清算の結了等,,,2015-10-05,1,,,,,グローバルイノベーション,0
453,2150001018702,登記記録の閉鎖等,0,2023-10-03,2023-10-02,株式会社中三,,株式会社,奈良県,奈良市,あやめ池北３丁目５番３号,,29,201,6310032,,,2023-10-02,清算の結了等,,,2015-10-05,1,,,,,,0
467,2180002086480,登記記録の閉鎖等,0,2023-10-03,2023-09-28,日本開運堂有限会社,,有限会社,愛知県,半田市,清城町１丁目３番地５,,23,205,4750917,,,2023-09-28,清算の結了等,,,2015-10-05,1,,,,,ニホンカイウンドウ,0
500,2290802020644,登記記録の閉鎖等,0,2023-10-03,2023-09-29,有限会社ミヤタ商事,,有限会社,福岡県,直方市,大字頓野３２２３番地の３,,40,204,8220002,,,2023-09-29,清算の結了等,,,2015-10-05,1,,,,,ミヤタショウジ,0
513,2360002013581,登記記録の閉鎖等,0,2023-10-03,2023-09-26,有限会社マオコオス,,有限会社,沖縄県,うるま市,字田場１４９８番地の３,,47,213,9042213,,,2023-09-26,清算の結了等,,,2015-10-05,1,,,,,マオコオス,0
517,2380002017011,登記記録の閉鎖等,0,2023-10-03,2023-09-26,有限会社サンリツホーム,,有限会社,福島県,本宮市,本宮字平井１４７番地,,07,214,9691158,,,2023-09-26,清算の結了等,,,2015-10-05,1,,,,,サンリツホーム,0
520,2390001010288,登記記録の閉鎖等,0,2023-10-03,2023-09-28,株式会社労研,,株式会社,山形県,米沢市,城南１丁目５番４１号,,06,202,9920038,,,2023-09-28,清算の結了等,,,2015-10-05,1,,,,,ロウケン,0
528,2420002008807,登記記録の閉鎖等,0,2023-10-03,2023-09-27,株式会社ｆａｓｅ,,株式会社,青森県,八戸市,大字糠塚字大開２番地１１,,02,203,0310022,,,2023-09-27,清算の結了等,,,2015-10-05,1,,,,,,0
535,2450001006255,登記記録の閉鎖等,0,2023-10-03,2023-10-02,三和林業株式会社,,株式会社,北海道,上川郡美瑛町,栄町４丁目６番４号,,01,459,0710205,,,2023-10-02,清算の結了等,,,2015-10-05,1,,,,,サンワリンギョウ,0
536,2450001010174,登記記録の閉鎖等,0,2023-10-03,2023-09-29,株式会社神両,,株式会社,北海道,旭川市,江丹別町嵐山１７１番地,,01,204,0708051,,,2023-09-29,清算の結了等,,,2015-10-05,1,,,,,シンリョウ,0
561,3010002003303,登記記録の閉鎖等,0,2023-10-03,2023-09-27,有限会社須山ポリ,,有限会社,東京都,世田谷区,上用賀１丁目２５番１号,,13,112,1580098,,,2023-09-27,清算の結了等,,,2015-10-05,1,,,,,スヤマポリ,0
596,3011701020646,登記記録の閉鎖等,0,2023-10-03,2023-09-29,株式会社伊藤鉄筋工業,,株式会社,東京都,江戸川区,一之江１丁目９番２２号,,13,123,1320024,,,2023-09-29,清算の結了等,,,2017-03-08,1,,,,,イトウテッキンコウギョウ,0
642,3030002029940,登記記録の閉鎖等,0,2023-10-03,2023-09-01,有限会社セントラル薬品,,有限会社,埼玉県,所沢市,泉町１８５４番地の２４,,11,208,3591112,,,2023-09-01,清算の結了等,,,2015-10-05,1,,,,,セントラルヤクヒン,0
643,3030002030064,登記記録の閉鎖等,0,2023-10-03,2023-09-06,有限会社多久工業,,有限会社,埼玉県,所沢市,中新井１丁目４１番地の２,,11,208,3590041,,,2023-09-06,清算の結了等,,,2015-10-05,1,,,,,タクコウギョウ,0
648,3040001004068,登記記録の閉鎖等,0,2023-10-03,2023-09-15,大進ホーム株式会社,,株式会社,千葉県,千葉市若葉区,桜木７丁目１９番１号,,12,104,2640028,,,2023-09-15,清算の結了等,,,2015-10-05,1,,,,,ダイシンホーム,0
654,3040002054483,登記記録の閉鎖等,0,2023-10-03,2023-09-15,有限会社カジカ設備,,有限会社,千葉県,流山市,江戸川台東４丁目３０１番地,,12,220,2700111,,,2023-09-15,清算の結了等,,,2015-10-05,1,,,,,カジカセツビ,0
672,3110002011881,登記記録の閉鎖等,0,2023-10-03,2023-09-28,有限会社ワタエイ,,有限会社,新潟県,新潟市西蒲区,漆山８１９５番地,,15,108,9530054,,,2023-09-28,清算の結了等,,,2015-10-05,1,,,,,ワタエイ,0
674,3110002031426,登記記録の閉鎖等,0,2023-10-03,2023-09-29,有限会社ベスト・プラン,,有限会社,新潟県,長岡市,喜多町１１７１番地１,,15,202,9402121,,,2023-09-29,清算の結了等,,,2015-10-05,1,,,,,ベストプラン,0
675,3110003003952,登記記録の閉鎖等,0,2023-10-03,2023-09-29,合同会社ＡＲＴ．Ｒ．Ｏｆｆｉｃｅ,,合同会社,新潟県,上越市,本城町４番１５号,,15,222,9430835,,,2023-09-29,清算の結了等,,,2019-06-28,1,,,,,アートリオフイス,0
698,3130002015807,登記記録の閉鎖等,0,2023-10-03,2023-09-22,有限会社エッチシーエヌ,,有限会社,京都府,京都市南区,西九条藤ノ木町２３番地,,26,107,6018421,,,2023-09-22,清算の結了等,,,2015-10-05,1,,,,,エッチシーエヌ,0
701,3140001009338,登記記録の閉鎖等,0,2023-10-03,2023-09-29,中央陸運株式会社,,株式会社,兵庫県,神戸市中央区,港島８丁目１２番地,,28,110,6500045,,,2023-09-29,清算の結了等,,,2015-10-05,1,,,,,チュウオウリクウン,0
716,3180301016897,登記記録の閉鎖等,0,2023-10-03,2023-09-26,株式会社永井商店,,株式会社,愛知県,刈谷市,司町７丁目５２番地１,,23,210,4480834,,,2023-09-26,清算の結了等,,,2015-10-05,1,,,,,ナガイショウテン,0
724,3200001002377,登記記録の閉鎖等,0,2023-10-03,2023-10-02,株式会社サンリバー,,株式会社,岐阜県,岐阜市,下鵜飼１４５５番地の５,,21,201,5011172,,,2023-10-02,清算の結了等,,,2015-10-05,1,,,,,サンリバー,0
726,3230001001211,登記記録の閉鎖等,0,2023-10-03,2023-10-02,芝園印刷株式会社,,株式会社,富山県,富山市,草島１２６番地６,,16,201,9302201,,,2023-10-02,合併による解散等,3230001002390,令和５年１０月１日富山市上冨居一丁目３番１５号株式会社ニッポー（3230001002390）に合併し解散,2015-10-05,1,,,,,シバゾノインサツ,0
741,3290005016118,登記記録の閉鎖等,0,2023-10-03,2023-09-21,税理士法人ｇｌａｄ,,その他の設立登記法人,福岡県,福岡市中央区,大宮２丁目６番１０号,,40,133,8100013,,,2023-09-21,清算の結了等,,,2016-11-07,1,,,,,グラッド,0
763,3370002009306,登記記録の閉鎖等,0,2023-10-03,2023-09-22,有限会社青葉クリーンサービス,,有限会社,宮城県,名取市,美田園７丁目１０番地の９,,04,207,9811217,,,2023-09-22,清算の結了等,,,2015-10-05,1,,,,,アオバクリーンサービス,0
772,3430002065631,登記記録の閉鎖等,0,2023-10-03,2023-09-15,有限会社松谷測量,,有限会社,北海道,登別市,幌別町６丁目２１番地１,,01,230,0590013,,,2023-09-15,清算の結了等,,,2015-10-05,1,,,,,マツヤソクリョウ,0
778,3470001013430,登記記録の閉鎖等,0,2023-10-03,2023-09-29,株式会社ワイズヴィジット,,株式会社,香川県,高松市,郷東町５８７－１７８,,37,201,7618031,,,2023-09-29,清算の結了等,,,2015-10-05,1,,,,,ワイズヴィジット,0
801,4010003036805,登記記録の閉鎖等,0,2023-10-03,2023-09-26,ｅｃｏＡＴＭジャパン合同会社,,合同会社,東京都,中央区,日本橋茅場町１丁目１３番１３号七宝ビルディング９階,,13,102,1030025,,,2023-09-26,清算の結了等,,,2022-01-20,1,,,,,エコエーティーエムジャパン,0
824,4011002018422,登記記録の閉鎖等,0,2023-10-03,2023-09-14,有限会社ニイナナニイゴオ,,有限会社,群馬県,沼田市,高橋場町２１８９番地４,,10,206,3780056,,,2023-09-14,清算の結了等,,,2015-10-05,1,,,,,ニイナナニイゴオ,0
825,4011003011087,登記記録の閉鎖等,0,2023-10-03,2023-09-29,アンプラント合同会社,,合同会社,三重県,松阪市,垣鼻町１２５２－１,,24,204,5150033,,,2023-09-29,清算の結了等,,,2020-04-09,1,,,,,アンプラント,0
827,4011101010379,登記記録の閉鎖等,0,2023-10-03,2023-09-29,株式会社スーパーテレビジョン,,株式会社,東京都,新宿区,四谷本塩町４番１５号,,13,104,1600003,,,2023-09-29,清算の結了等,,,2015-10-05,1,,,,,スーパーテレビジョン,0
841,4011802029420,登記記録の閉鎖等,0,2023-10-03,2023-09-29,有限会社ピィースブリッヂ,,有限会社,東京都,葛飾区,堀切１丁目３４番１１号,,13,122,1240006,,,2023-09-29,清算の結了等,,,2015-10-05,1,,,,,,0
842,4011803004265,登記記録の閉鎖等,0,2023-10-03,2023-09-28,合同会社ヴィラード,,合同会社,東京都,葛飾区,細田５丁目９番１７号,,13,122,1240021,,,2023-09-28,清算の結了等,,,2020-08-25,1,,,,,ヴィラード,0
849,4013301019506,登記記録の閉鎖等,0,2023-10-03,2023-09-27,株式会社レック,,株式会社,東京都,豊島区,高田２丁目１８番１５－６０５号,,13,116,1710033,,,2023-09-27,清算の結了等,,,2015-10-05,1,,,,,レック,0
857,4020001020603,登記記録の閉鎖等,0,2023-10-03,2023-09-26,株式会社シンヨコスチール,,株式会社,神奈川県,横浜市南区,中里１丁目９番２７号,,14,105,2320063,,,2023-09-26,清算の結了等,,,2015-10-05,1,,,,,シンヨコスチール,0
862,4020001137273,登記記録の閉鎖等,0,2023-10-03,2023-09-26,株式会社ＦＥＬＬＯＷＳ　ＰＬＵＳ,,株式会社,神奈川県,横浜市中区,吉田町５番地４第６吉田ビル３Ｆ,,14,104,2310041,,,2023-09-26,清算の結了等,,,2020-08-14,1,,,,,フェローズプラス,0
867,4020002039824,登記記録の閉鎖等,0,2023-10-03,2023-09-25,有限会社ニコウ,,有限会社,神奈川県,横浜市保土ケ谷区,峰岡町１丁目８番地の１４,,14,106,2400064,,,2023-09-25,清算の結了等,,,2015-10-05,1,,,,,ニコウ,0
876,4030001145267,登記記録の閉鎖等,0,2023-10-03,2023-09-08,株式会社ＷＭアライアンス,,株式会社,埼玉県,熊谷市,中奈良１７５番地３,,11,202,3600801,,,2023-09-08,清算の結了等,,,2021-11-17,1,,,,,ダブリューエムアライアンス,0
883,4030002105897,登記記録の閉鎖等,0,2023-10-03,2023-09-04,有限会社ニュー羽衣レンターバス,00017778,有限会社,埼玉県,川口市,中青木２丁目１７番１号,,11,203,3320032,,,2023-09-04,清算の結了等,,,2015-10-05,1,,,,,ニューハゴロモレンターバス,0
892,4040002099395,登記記録の閉鎖等,0,2023-10-03,2023-09-19,有限会社更科,,有限会社,千葉県,館山市,館山１０１６番地,,12,205,2940036,,,2023-09-19,清算の結了等,,,2015-10-05,1,,,,,サラシナ,0
909,4080002015175,登記記録の閉鎖等,0,2023-10-03,2023-09-28,有限会社清寿園,,有限会社,静岡県,牧之原市,静波２２６２番地の６５,,22,226,4210422,,,2023-09-28,清算の結了等,,,2015-10-05,1,,,,,セイジュエン,0
910,4080005000034,登記記録の閉鎖等,0,2023-10-03,2023-09-29,大河内北茶農業協同組合,,その他の設立登記法人,静岡県,静岡市葵区,渡１４４９番地,,22,101,4212304,,,2023-09-29,清算の結了等,,,2015-10-05,1,,,,,オオコウチキタチャ,0
917,4120001082831,登記記録の閉鎖等,0,2023-10-03,2023-09-21,船場ビジネスコンサルティング株式会社,,株式会社,大阪府,大阪市阿倍野区,阿倍野筋３丁目１２番２－１０１２号,,27,119,5450052,,,2023-09-21,清算の結了等,,,2015-10-05,1,,,,,センバビジネスコンサルティング,0
918,4120001167954,登記記録の閉鎖等,0,2023-10-03,2023-09-22,株式会社みず,,株式会社,大阪府,大阪市住吉区,南住吉２丁目７番９号,,27,120,5580041,,,2023-09-22,清算の結了等,,,2015-10-05,1,,,,,ミズ,0
929,4120002000404,登記記録の閉鎖等,0,2023-10-03,2023-09-25,有限会社シャルレウンノ,,有限会社,大阪府,大阪市旭区,森小路２丁目１０番８号,,27,117,5350013,,,2023-09-25,清算の結了等,,,2015-10-05,1,,,,,シャルレウンノ,0
955,4180001010092,登記記録の閉鎖等,0,2023-10-03,2023-09-29,株式会社伊藤精機製作所,,株式会社,愛知県,名古屋市瑞穂区,船原町５丁目２番地,,23,108,4670878,,,2023-09-29,清算の結了等,,,2015-10-05,1,,,,,イトウセイキセイサクショ,0
956,4180001011834,登記記録の閉鎖等,0,2023-10-03,2023-09-28,株式会社加賀屋山本留三郎商店,,株式会社,愛知県,名古屋市北区,大杉３丁目３番１７号,,23,103,4620837,,,2023-09-28,清算の結了等,,,2015-10-05,1,,,,,カガヤヤマモトトメサブロウショウテン,0
961,4180005019799,登記記録の閉鎖等,0,2023-10-03,2023-10-02,一般社団法人ファシアセラピスト協会,,その他の設立登記法人,愛知県,春日井市,高座町１９３０番地７９９,,23,206,4870012,,,2023-10-02,清算の結了等,,,2022-06-14,1,,,,,ファシアセラピストキョウカイ,0
969,4180305007958,登記記録の閉鎖等,0,2023-10-03,2023-09-26,ＮＰＯ法人ふぁみりースポーツステーション,,その他の設立登記法人,愛知県,安城市,横山町浜畔上３３番地１,,23,212,4460045,,,2023-09-26,清算の結了等,,,2015-10-05,1,,,,,ファミリースポーツステーション,0
975,4190002005685,登記記録の閉鎖等,0,2023-10-03,2023-09-29,浜千鳥運輸有限会社,,有限会社,三重県,北牟婁郡紀北町,東長島２７１５番地の６,,24,543,5193204,,,2023-09-29,清算の結了等,,,2015-10-05,1,,,,,,0
997,4280002000479,登記記録の閉鎖等,0,2023-10-03,2023-10-02,有限会社尾添マネジメント会計,,有限会社,島根県,松江市,津田町３２６番地,,32,201,6900055,,,2023-10-02,清算の結了等,,,2015-10-05,1,,,,,オゾエマネジメントカイケイ,0
1011,4290001080356,登記記録の閉鎖等,0,2023-10-03,2023-09-21,泰興ジャパン株式会社,,株式会社,福岡県,福岡市博多区,博多駅東１丁目１番３３号,,40,132,8120013,,,2023-09-21,清算の結了等,,,2018-01-25,1,,,,,タイコウジャパン,0
1042,4430001062091,登記記録の閉鎖等,0,2023-10-03,2023-09-19,株式会社生鮮さっぽろ,,株式会社,北海道,江別市,朝日町１１番地２,,01,217,0670024,,,2023-09-19,清算の結了等,,,2015-10-05,1,,,,,セイセンサッポロ,0
1045,4430003010032,登記記録の閉鎖等,0,2023-10-03,2023-09-15,合同会社Ｓｒａｗ,,合同会社,北海道,札幌市白石区,栄通５丁目１番２０－５０７号,,01,104,0030021,,,2023-09-15,清算の結了等,,,2019-01-10,1,,,,,スロー,0
1064,4700150065751,登記記録の閉鎖等,0,2023-10-03,2023-03-31,高千穂がまだせ市場直売所利用組合,,その他,宮崎県,西臼杵郡高千穂町,大字三田井１０９９－１,,45,441,8821101,,,2023-03-31,その他の清算の結了等,,,2015-10-09,1,,,,,タカチホガマダセイチバチヨクバイシヨリヨウクミアイ,0
1065,4700150088125,登記記録の閉鎖等,0,2023-10-03,2022-12-31,大宮子ども教室実行委員会,,その他,岡山県,岡山市東区,上阿知９６７,,33,103,7048142,,,2022-12-31,その他の清算の結了等,,,2018-03-22,1,,,,,オオミヤコドモキヨウシツジツコウイインカイ,0
1066,4700150108221,登記記録の閉鎖等,0,2023-10-03,2022-12-20,Ｓｔｕｄｉｏ　Ｃａｎｔｏ,,その他,東京都,北区,西ケ原１丁目８－９,,13,117,1140024,,,2022-12-20,その他の清算の結了等,,,2022-04-21,1,,,,,スタジオカント,0
1067,4700150110598,登記記録の閉鎖等,0,2023-10-03,2023-04-01,アートプロジェクト,,その他,埼玉県,坂戸市,大字片柳２２９２－１,,11,239,3500219,,,2023-04-01,その他の清算の結了等,,,2022-06-30,1,,,,,アートプロジエクト,0
1068,4700150114087,登記記録の閉鎖等,0,2023-10-03,2023-05-26,永盛一雄相続財産管理法人,,その他,東京都,豊島区,南池袋２丁目３３番６号佐藤ビルディング６階　東京はやぶさ法律事務所,,13,116,1710022,,,2023-05-26,その他の清算の結了等,,,2023-02-01,1,,,,,ナガモリカズオソウゾクザイサンカンリホウジン,0
1113,5011001109808,登記記録の閉鎖等,0,2023-10-03,2023-09-27,株式会社ＳＴＯコンサルティング,,株式会社,東京都,渋谷区,恵比寿南１丁目１番１号,,13,113,1500022,,,2023-09-27,清算の結了等,,,2016-03-03,1,,,,,エスティーオーコンサルティング,0
1122,5011101063673,登記記録の閉鎖等,0,2023-10-03,2023-09-28,株式会社フィックス,,株式会社,東京都,渋谷区,千駄ヶ谷３丁目６１番３号,,13,113,1510051,,,2023-09-28,清算の結了等,,,2015-10-05,1,,,,,フィックス,0
1135,5012301003106,登記記録の閉鎖等,0,2023-10-03,2023-10-02,株式会社モデスト,,株式会社,東京都,町田市,根岸町５６７番地,,13,209,1940034,,,2023-10-02,清算の結了等,,,2015-10-05,1,,,,,,0
1136,5012302004292,登記記録の閉鎖等,0,2023-10-03,2023-09-26,有限会社ほりえ,,有限会社,東京都,町田市,小川３丁目１３番１８号小川ハイツＩＩ２０５,00119864,13,209,1940003,,,2023-09-26,清算の結了等,,,2015-10-05,1,,,,,ホリエ,0
1139,5012402006437,登記記録の閉鎖等,0,2023-10-03,2023-09-25,有限会社永井会,,有限会社,東京都,国立市,中２丁目９番地の１２,,13,215,1860004,,,2023-09-25,清算の結了等,,,2015-10-05,1,,,,,ナガイカイ,0
1142,5013301011387,登記記録の閉鎖等,0,2023-10-03,2023-09-29,株式会社三葉,,株式会社,東京都,練馬区,西大泉５丁目１８番８号,,13,120,1780065,,,2023-09-29,清算の結了等,,,2015-10-05,1,,,,,ミツバ,0
1152,5020002034287,登記記録の閉鎖等,0,2023-10-03,2023-09-27,有限会社スギヱ靴店,,有限会社,神奈川県,横浜市港北区,菊名１丁目７番１１号,,14,109,2220011,,,2023-09-27,清算の結了等,,,2015-10-05,1,,,,,スギエクツテン,0
1153,5020003017191,登記記録の閉鎖等,0,2023-10-03,2023-09-21,合同会社アニー,,合同会社,神奈川県,川崎市中原区,下沼部１７５１番地グリーンスクエア１－Ｂ,,14,133,2110011,,,2023-09-21,清算の結了等,,,2020-01-15,1,,,,,アニー,0
1166,5021003012463,登記記録の閉鎖等,0,2023-10-03,2023-09-25,Ｌａｎｄｉｎｇ　Ｐａｄ　Ｔｏｋｙｏ　Ｐｌｕｓ合同会社,,合同会社,神奈川県,相模原市緑区,西橋本５丁目４番２１号,,14,151,2520131,,,2023-09-25,清算の結了等,,,2022-12-07,1,,,,,ランディングパッドトーキョープラス,0
1177,5030002034385,登記記録の閉鎖等,0,2023-10-03,2023-09-08,有限会社松沢工業,,有限会社,埼玉県,狭山市,大字水野５０番地の１８,,11,215,3501317,,,2023-09-08,清算の結了等,,,2015-10-05,1,,,,,マツザワコウギョウ,0
1178,5030002113016,登記記録の閉鎖等,0,2023-10-03,2023-09-07,カズ・エンジニアリング有限会社,,有限会社,埼玉県,熊谷市,宮本町２１０番地１,,11,202,3600822,,,2023-09-07,清算の結了等,,,2015-10-05,1,,,,,カズエンジニアリング,0
1188,5040002068011,登記記録の閉鎖等,0,2023-10-03,2023-09-15,有限会社吉村商店,,有限会社,千葉県,木更津市,新田１丁目５番２０号,,12,206,2920832,,,2023-09-15,清算の結了等,,,2015-10-05,1,,,,,ヨシムラショウテン,0
1202,5080401010362,登記記録の閉鎖等,0,2023-10-03,2023-10-02,浜北電機株式会社,,株式会社,静岡県,浜松市浜北区,貴布祢６３３番地の２,,22,136,4340038,,,2023-10-02,清算の結了等,,,2015-10-05,1,,,,,ハマキタデンキ,0
1215,5120001086237,登記記録の閉鎖等,0,2023-10-03,2023-09-21,株式会社三宅経営研究所,,株式会社,大阪府,大阪市中央区,瓦町４丁目６番１１号,,27,128,5410048,,,2023-09-21,清算の結了等,,,2015-10-05,1,,,,,ミヤケケイエイケンキュウショ,0
1217,5120001134193,登記記録の閉鎖等,0,2023-10-03,2023-09-20,株式会社シルフロー,,株式会社,大阪府,茨木市,園田町８番１８号,,27,211,5670825,,,2023-09-20,合併による解散等,1120901040692,令和５年９月２０日大阪府茨木市園田町８番１８号株式会社テラテックモア（1120901040692）に合併し解散,2015-10-05,1,,,,,シルフロー,0
1243,5130001064308,登記記録の閉鎖等,0,2023-10-03,2023-09-14,日翔機工株式会社,,株式会社,京都府,城陽市,平川古宮７０番地の１５,,26,207,6100101,,,2023-09-14,清算の結了等,,,2019-04-16,1,,,,,ニッショウキコウ,0
1285,5240002005704,登記記録の閉鎖等,0,2023-10-03,2023-09-29,有限会社工事トータルサービス,,有限会社,広島県,広島市安芸区,瀬野１丁目２１番１１号,,34,107,7390311,,,2023-09-29,清算の結了等,,,2015-10-05,1,,,,,コウジトータルサービス,0
1286,5250001010976,登記記録の閉鎖等,0,2023-10-03,2023-09-29,株式会社ターフソリューション,,株式会社,山口県,周南市,岐山通３丁目１２番地の２アルファステイツ岐山通６０５号,,35,215,7450071,,,2023-09-29,清算の結了等,,,2015-10-05,1,,,,,ターフソリューション,0
1294,5290002006631,登記記録の閉鎖等,0,2023-10-03,2023-09-20,有限会社神野建築構造設計事務所,,有限会社,福岡県,糸島市,志摩稲葉２９６番地,,40,230,8191315,,,2023-09-20,清算の結了等,,,2015-10-05,1,,,,,カミノケンチクコウゾウセッケイジムショ,0
1306,5310002004120,登記記録の閉鎖等,0,2023-10-03,2023-10-02,虹が丘ビル管理有限会社,,有限会社,長崎県,長崎市,花丘町２０番８号５Ｆ,,42,201,8528153,,,2023-10-02,清算の結了等,,,2015-10-05,1,,,,,,0
1314,5330003007574,登記記録の閉鎖等,0,2023-10-03,2023-09-25,合同会社アイエス・アグリ,,合同会社,熊本県,熊本市東区,長嶺東５丁目２８番４５号,,43,102,8618038,,,2023-09-25,清算の結了等,,,2018-07-17,1,,,,,アイエスアグリ,0
1318,5360001008175,登記記録の閉鎖等,0,2023-10-03,2023-09-28,沖縄アラコム株式会社,,株式会社,沖縄県,那覇市,長田２丁目２２番１号ミヤシン２２,,47,201,9020077,,,2023-09-28,清算の結了等,,,2015-10-05,1,,,,,オキナワアラコム,0
1329,5410002003194,登記記録の閉鎖等,0,2023-10-03,2023-09-27,有限会社ふじストアー,,有限会社,秋田県,秋田市,広面字樋ノ下１８番地の１,00086571,05,201,0100041,,,2023-09-27,清算の結了等,,,2015-10-05,1,,,,,フジストアー,0
1336,5430002043404,登記記録の閉鎖等,0,2023-10-03,2023-09-28,有限会社ジャパンスズキロードライン,,有限会社,北海道,石狩市,新港西１丁目７７７番地１０,,01,235,0613241,,,2023-09-28,清算の結了等,,,2015-10-05,1,,,,,ジャパンスズキロードライン,0
1352,5700150043673,登記記録の閉鎖等,0,2023-10-03,2023-04-25,福地植木生産組合,,その他,愛知県,西尾市,斉藤町大割２８,,23,213,4450056,,,2023-04-25,その他の清算の結了等,,,2015-10-09,1,,,,,フクチウエキセイサンクミアイ,0
1353,5700150107858,登記記録の閉鎖等,0,2023-10-03,2023-05-01,ういこっちゃね,,その他,三重県,いなべ市,藤原町上相場８２８,,24,214,5110502,,,2023-05-01,その他の清算の結了等,,,2022-04-12,1,,,,,ウイコツチヤネ,0
1354,5700150110531,登記記録の閉鎖等,0,2023-10-03,2023-03-31,Ｂｒａｓｓ　Ｑｕａｒｔｅｔ　Ａｉｒ,,その他,千葉県,松戸市,五香４丁目１３番地１号,,12,207,2702213,,,2023-03-31,その他の清算の結了等,,,2022-06-28,1,,,,,ブラスカルテツトエア,0
1355,6010001014926,登記記録の閉鎖等,0,2023-10-03,2023-09-29,株式会社キンツネ,,株式会社,東京都,千代田区,岩本町１丁目３番８号,,13,101,1010032,,,2023-09-29,清算の結了等,,,2015-10-05,1,,,,,キンツネ,0
1360,6010001027358,登記記録の閉鎖等,0,2023-10-03,2023-09-25,アサヒエステート株式会社,,株式会社,東京都,文京区,本郷３丁目２３番１０号,,13,105,1130033,,,2023-09-25,清算の結了等,,,2015-10-05,1,,,,,アサヒエステート,0
1377,6010003040978,登記記録の閉鎖等,0,2023-10-03,2023-09-25,ブリック・レーン・パートナーズ合同会社,,合同会社,東京都,千代田区,丸の内２丁目１番１号,,13,101,1000005,,,2023-09-25,合併による解散等,1010001230585,令和５年９月２５日東京都千代田区丸の内二丁目１番１号ＴＢＪホールディングス株式会社（1010001230585）に合併し解散,2023-06-26,1,,,,,ブリックレーンパートナーズ,0
1380,6010401064141,登記記録の閉鎖等,0,2023-10-03,2023-10-02,株式会社村幸,,株式会社,東京都,台東区,寿１丁目５番９号,,13,106,1110042,,,2023-10-02,清算の結了等,,,2015-10-05,1,,,,,ムラコウ,0
1381,6010401112957,登記記録の閉鎖等,0,2023-10-03,2023-09-12,株式会社ＲＣＬＰＳマネジメント,,株式会社,東京都,港区,元赤坂１丁目１番８号赤坂コミュニティビル４階,,13,103,1070051,,,2023-09-12,清算の結了等,,,2015-10-05,1,,,,,アールシーエルピーエスマネジメント,0
1425,6013301038231,登記記録の閉鎖等,0,2023-10-03,2023-09-22,株式会社福惠,,株式会社,東京都,豊島区,北大塚２丁目３２番１８号福コーポラス１０１室,,13,116,1700004,,,2023-09-22,清算の結了等,,,2016-01-20,1,,,,,フクエ,0
1428,6020001083573,登記記録の閉鎖等,0,2023-10-03,2023-09-26,株式会社ニューススタット,,株式会社,神奈川県,横浜市港南区,上永谷４丁目１９番８号,,14,111,2330012,,,2023-09-26,清算の結了等,,,2015-10-05,1,,,,,ニューススタット,0
1435,6020002010114,登記記録の閉鎖等,0,2023-10-03,2023-09-25,有限会社誠進工業所,00010229,有限会社,神奈川県,横浜市磯子区,中浜町１番２号,,14,107,2350014,,,2023-09-25,清算の結了等,,,2015-10-05,1,,,,,セイシンコウギョウショ,0
1436,6020002096153,登記記録の閉鎖等,0,2023-10-03,2023-09-26,有限会社大島書店,,有限会社,神奈川県,川崎市川崎区,東田町１１番１－１０４号,,14,131,2100005,,,2023-09-26,清算の結了等,,,2015-10-05,1,,,,,オオシマショテン,0
1459,6040001064885,登記記録の閉鎖等,0,2023-10-03,2023-09-15,株式会社ブライト企画,,株式会社,千葉県,印西市,小倉台３丁目１番地１棟１０１号,,12,231,2701356,,,2023-09-15,清算の結了等,,,2015-10-05,1,,,,,ブライトキカク,0
1468,6060001031470,登記記録の閉鎖等,0,2023-10-03,2023-09-25,株式会社ワイテック,,株式会社,栃木県,小山市,駅南町２丁目１２番２号,,09,208,3230822,,,2023-09-25,清算の結了等,,,2019-04-05,1,,,,,ワイテック,0
1472,6080001021172,登記記録の閉鎖等,0,2023-10-03,2023-09-29,Ｈｉｓカンパニーグループ株式会社,,株式会社,東京都,新宿区,新宿７丁目２６－７ビクセル新宿１Ｆ,,13,104,1600022,,,2023-09-29,清算の結了等,,,2016-10-03,1,,,,,ヒズカンパニーグループ,0
1478,6080101016080,登記記録の閉鎖等,0,2023-10-03,2023-09-29,株式会社６５カンパニー,,株式会社,静岡県,御殿場市,川島田１３９０番２号,,22,215,4120045,,,2023-09-29,清算の結了等,,,2015-10-05,1,,,,,ロクジュウゴカンパニー,0
1482,6090001014316,登記記録の閉鎖等,0,2023-10-03,2023-09-28,株式会社ゴールデンキャッスル,,株式会社,山梨県,甲府市,武田３丁目７番７号,,19,201,4000016,,,2023-09-28,清算の結了等,,,2015-10-23,1,,,,,ゴールデンキャッスル,0
1485,6100001019965,登記記録の閉鎖等,0,2023-10-03,2023-09-22,株式会社会社法研究会,,株式会社,長野県,茅野市,本町西１番４０号,,20,214,3910003,,,2023-09-22,清算の結了等,,,2015-10-05,1,,,,,カイシャホウケンキュウカイ,0
1525,6130001014360,登記記録の閉鎖等,0,2023-10-03,2023-09-20,株式会社ケイデンシステム,,株式会社,京都府,京都市伏見区,向島丸町１番地の２,,26,109,6128131,,,2023-09-20,清算の結了等,,,2015-10-05,1,,,,,ケイデンシステム,0
1553,6180003022852,登記記録の閉鎖等,0,2023-10-03,2023-09-28,合同会社ｍｏｊｉｒｉ,,合同会社,愛知県,名古屋市中区,栄５丁目２６番３９号ＧＳ栄ビル３Ｆ,,23,106,4600008,,,2023-09-28,清算の結了等,,,2021-08-13,1,,,,,モジリ,0
1555,6180302006837,登記記録の閉鎖等,0,2023-10-03,2023-09-25,有限会社岡田食肉,,有限会社,愛知県,豊橋市,神野新田町字ヨノ割７５番地の１,,23,201,4418077,,,2023-09-25,清算の結了等,,,2015-10-05,1,,,,,オカダショクニク,0
1556,6180302021844,登記記録の閉鎖等,0,2023-10-03,2023-09-28,有限会社儀同鉄工所,,有限会社,愛知県,豊田市,神池町２丁目１２３６番地,,23,211,4710804,,,2023-09-28,清算の結了等,,,2015-10-05,1,,,,,ギドウテッコウショ,0
1564,6240001038480,登記記録の閉鎖等,0,2023-10-03,2023-09-29,株式会社伏幸商店,,株式会社,広島県,尾道市,東尾道７番地２,,34,205,7220051,,,2023-09-29,清算の結了等,,,2015-10-05,1,,,,,,0
1587,6340002009553,登記記録の閉鎖等,0,2023-10-03,2023-10-02,有限会社南日本新聞眞砂販賣所,,有限会社,鹿児島県,鹿児島市,鴨池新町１９番６号,,46,201,8900064,,,2023-10-02,清算の結了等,,,2015-10-05,1,,,,,ミナミニホンシンブンマサゴハンバイショ,0
1601,6400602000954,登記記録の閉鎖等,0,2023-10-03,2023-09-19,有限会社江和設計,,有限会社,岩手県,奥州市,江刺栄町７番３０号,,03,215,0231118,,,2023-09-19,清算の結了等,,,2015-10-05,1,,,,,コウワセッケイ,0
1618,6490001004706,登記記録の閉鎖等,0,2023-10-03,2023-09-27,株式会社ゆうゆう,,株式会社,高知県,高知市,朝倉東町１０番９号,,39,201,7808076,,,2023-09-27,清算の結了等,,,2015-10-05,1,,,,,ユウユウ,0
1619,6490003000562,登記記録の閉鎖等,0,2023-10-03,2023-09-22,合同会社とさ通商,,合同会社,高知県,土佐市,塚地９８番地１,,39,205,7811153,,,2023-09-22,清算の結了等,,,2015-10-05,1,,,,,,0
1622,6700150037195,登記記録の閉鎖等,0,2023-10-03,2023-03-31,軽米町図書館支援協力会,,その他,岩手県,九戸郡軽米町,大字軽米第８地割５４,,03,501,0286302,,,2023-03-31,その他の清算の結了等,,,2015-10-09,1,,,,,カルマイマチトシヨカンシエンキヨウリヨクカイ,0
1630,7010001046811,登記記録の閉鎖等,0,2023-10-03,2023-09-26,株式会社システムデザインハロー,,株式会社,東京都,中央区,日本橋箱崎町２８番１号,,13,102,1030015,,,2023-09-26,清算の結了等,,,2015-10-05,1,,,,,システムデザインハロー,0
1639,7010401035802,登記記録の閉鎖等,0,2023-10-03,2023-09-12,株式会社ジャニス,,株式会社,東京都,港区,西新橋２丁目１１番６号ニュー西新橋ビル,,13,103,1050003,,,2023-09-12,清算の結了等,,,2015-10-05,1,,,,,ジャニス,0
1641,7010401055420,登記記録の閉鎖等,0,2023-10-03,2023-09-27,株式会社七音社,,株式会社,東京都,中央区,銀座６丁目６番１号,,13,102,1040061,,,2023-09-27,合併による解散等,6120101067961,令和５年９月２６日大阪府堺市南区城山台四丁３番１号株式会社七音社（6120101067961）に合併し解散,2015-10-05,1,,,,,ナナオンシャ,0
1664,7011001144159,登記記録の閉鎖等,0,2023-10-03,2023-09-28,株式会社ＭＡＢ,,株式会社,東京都,渋谷区,円山町５－５Ｎａｖｉ渋谷Ｖ３階,,13,113,1500044,,,2023-09-28,清算の結了等,,,2021-12-06,1,,,,,マブ,0
1667,7011005009003,登記記録の閉鎖等,0,2023-10-03,2023-09-29,一般財団法人パブリックグッド,,その他の設立登記法人,東京都,中央区,銀座１丁目２２番１１号,,13,102,1040061,,,2023-09-29,合併による解散等,1011005009124,令和５年９月２３日東京都渋谷区神宮前六丁目２３番４号一般社団法人ウェルネスホライゾン創生機構（1011005009124）に合併し解散,2021-04-06,1,,,,,パブリックグッド,0
1679,7011801017646,登記記録の閉鎖等,0,2023-10-03,2023-09-27,株式会社エイ・アンド・アイ,,株式会社,東京都,台東区,三筋２丁目２１番１０号,,13,106,1110055,,,2023-09-27,合併による解散等,4010501008388,令和５年９月１８日東京都台東区三筋二丁目２１番１０号株式会社ティーエスハウジング（4010501008388）に合併し解散,2015-10-05,1,,,,,エイアンドアイ,0
1693,7020001093233,登記記録の閉鎖等,0,2023-10-03,2023-09-26,ＶＭＧ　Ｊａｐａｎ株式会社,,株式会社,東京都,中央区,日本橋３丁目３番９号メルクロスビル６階,,13,102,1030027,,,2023-09-26,清算の結了等,,,2015-10-05,1,,,,,ヴイエムジージャパン,0
1700,7020002045183,登記記録の閉鎖等,0,2023-10-03,2023-09-26,有限会社丸,,有限会社,神奈川県,横浜市中区,石川町２丁目６２番地,,14,104,2310868,,,2023-09-26,清算の結了等,,,2015-10-05,1,,,,,マル,0
1707,7021002034688,登記記録の閉鎖等,0,2023-10-03,2023-09-25,有限会社英孝商事,,有限会社,神奈川県,伊勢原市,石田２９２番地の３,,14,214,2591116,,,2023-09-25,清算の結了等,,,2015-10-05,1,,,,,エイコウショウジ,0
1719,7030002035902,登記記録の閉鎖等,0,2023-10-03,2023-09-08,有限会社丸山硝子工業所,,有限会社,埼玉県,入間市,大字木蓮寺７３２番地の３,,11,225,3580047,,,2023-09-08,清算の結了等,,,2015-10-05,1,,,,,マルヤマガラスコウギョウショ,0
1726,7040001040737,登記記録の閉鎖等,0,2023-10-03,2023-09-15,株式会社フォーライフコーポレーション,,株式会社,千葉県,松戸市,新松戸３丁目１８番地の３,,12,207,2700034,,,2023-09-15,清算の結了等,,,2015-10-05,1,,,,,フォーライフコーポレーション,0
1732,7040002041486,登記記録の閉鎖等,0,2023-10-03,2023-09-29,有限会社ピュア,,有限会社,千葉県,浦安市,今川４丁目３番３号,,12,227,2790022,,,2023-09-29,清算の結了等,,,2015-10-05,1,,,,,ピュア,0
1735,7040005016741,登記記録の閉鎖等,0,2023-10-03,2023-09-05,特定非営利活動法人とまり木,,その他の設立登記法人,千葉県,市原市,村上字砂吹３９４番５,,12,219,2900031,,,2023-09-05,清算の結了等,,,2015-10-05,1,,,,,トマリギ,0
1746,7060001020836,登記記録の閉鎖等,0,2023-10-03,2023-09-25,八下田織物株式会社,,株式会社,栃木県,佐野市,栃本町１７１１番地,,09,204,3270312,,,2023-09-25,清算の結了等,,,2015-10-05,1,,,,,ヤゲタオリモノ,0
1748,7060002031989,登記記録の閉鎖等,0,2023-10-03,2023-09-25,有限会社サトー商事,,有限会社,栃木県,栃木市,泉町２４番３０号,,09,203,3280014,,,2023-09-25,清算の結了等,,,2015-10-05,1,,,,,サトーショウジ,0
1750,7080001001074,登記記録の閉鎖等,0,2023-10-03,2023-10-02,株式会社金沢鉄工所,,株式会社,静岡県,静岡市駿河区,中田本町４７番８号,,22,102,4228043,,,2023-10-02,清算の結了等,,,2015-10-05,1,,,,,カナザワテッコウジョ,0
1791,7140002031535,登記記録の閉鎖等,0,2023-10-03,2023-09-28,有限会社協神,,有限会社,兵庫県,三木市,吉川町上荒川６４８番地,,28,215,6731111,,,2023-09-28,清算の結了等,,,2015-10-05,1,,,,,,0
1799,7160001021403,登記記録の閉鎖等,0,2023-10-03,2023-09-29,ＮＳＴサービス株式会社,,株式会社,滋賀県,大津市,柳が崎９番１１－２０１号,,25,201,5200022,,,2023-09-29,清算の結了等,,,2019-01-10,1,,,,,エヌエスティーサービス,0
1821,7190002007126,登記記録の閉鎖等,0,2023-10-03,2023-09-28,有限会社宮元商会,,有限会社,三重県,鈴鹿市,野町南１丁目３番３５号,,24,207,5100219,,,2023-09-28,清算の結了等,,,2015-10-05,1,,,,,ミヤモトショウカイ,0
1845,7290802020986,登記記録の閉鎖等,0,2023-10-03,2023-09-29,有限会社鞍手新光プロパン,,有限会社,福岡県,宮若市,長井鶴３６３番地,,40,226,8230012,,,2023-09-29,清算の結了等,,,2015-10-05,1,,,,,クラテシンコウプロパン,0
1849,7310005007226,登記記録の閉鎖等,0,2023-10-03,2023-10-02,一般社団法人佐世保銀行協会,,その他の設立登記法人,長崎県,佐世保市,栄町７番１号,,42,202,8570054,,,2023-10-02,合併による解散等,7310005000610,令和５年１０月１日長崎市魚の町２番２７号一般社団法人長崎銀行協会（7310005000610）に合併し解散,2015-10-05,1,,,,,サセボギンコウキョウカイ,0
1859,7390002001505,登記記録の閉鎖等,0,2023-10-03,2023-09-29,有限会社聖陽堂,,有限会社,山形県,山形市,瀬波２丁目１０番９号,,06,201,9900881,,,2023-09-29,清算の結了等,,,2015-10-05,1,,,,,セイヨウドウ,0
1865,7420001001023,登記記録の閉鎖等,0,2023-10-03,2023-09-27,株式会社新泉産業,,株式会社,青森県,青森市,大字石江字江渡１０５番地３５２,,02,201,0380003,,,2023-09-27,清算の結了等,,,2015-10-05,1,,,,,,0
1885,7700150063876,登記記録の閉鎖等,0,2023-10-03,2023-06-29,大吊橋清掃管理組合,,その他,大分県,玖珠郡九重町,大字田野１２２１－１,,44,461,8794911,,,2023-06-29,その他の清算の結了等,,,2015-10-09,1,,,,,オオツリハシセイソウカンリクミアイ,0
1886,7700150108219,登記記録の閉鎖等,0,2023-10-03,2023-05-25,劇団アカレンガ,,その他,大阪府,富田林市,本町８－１９,,27,214,5840093,,,2023-05-25,その他の清算の結了等,,,2022-04-21,1,,,,,ゲキダンアカレンガ,0
1912,8010003038574,登記記録の閉鎖等,0,2023-10-03,2023-09-26,合同会社ＫＭＰ１,,合同会社,東京都,千代田区,内神田２丁目２番６号５階あすな会計事務所内,,13,101,1010047,,,2023-09-26,清算の結了等,,,2022-09-09,1,,,,,ケーエムピーワン,0
1956,8020002028690,登記記録の閉鎖等,0,2023-10-03,2023-09-20,有限会社リョーエイ,,有限会社,神奈川県,横浜市神奈川区,菅田町４８８番地７－４－１０３,,14,102,2210864,,,2023-09-20,清算の結了等,,,2015-10-05,1,,,,,リョーエイ,0
1957,8020003008337,登記記録の閉鎖等,0,2023-10-03,2023-09-27,アシュアード・テクノロジー合同会社,,合同会社,東京都,町田市,成瀬が丘３丁目１８－１１,,13,209,1940011,,,2023-09-27,清算の結了等,,,2015-10-05,1,,,,,,0
1983,8030005001710,登記記録の閉鎖等,0,2023-10-03,2023-09-07,特定非営利活動法人ねがいのいえ,,その他の設立登記法人,埼玉県,さいたま市西区,大字高木字根貝戸１８５番２９,,11,101,3310071,,,2023-09-07,清算の結了等,,,2015-10-05,1,,,,,ネガイノイエ,0
1989,8040001124175,登記記録の閉鎖等,0,2023-10-03,2023-09-15,株式会社ワイティー企画,,株式会社,千葉県,千葉市中央区,春日１丁目７番２号,,12,101,2600033,,,2023-09-15,清算の結了等,,,2022-07-07,1,,,,,ワイティーキカク,0
1994,8050002035040,登記記録の閉鎖等,0,2023-10-03,2023-09-27,有限会社岡田商事,,有限会社,茨城県,常陸太田市,上河合町１２７３番地の２,,08,212,3130046,,,2023-09-27,清算の結了等,,,2015-10-05,1,,,,,オカダショウジ,0
1998,8080001024025,登記記録の閉鎖等,0,2023-10-03,2023-09-29,株式会社アクト,,株式会社,静岡県,静岡市清水区,相生町９番６号,,22,103,4240821,,,2023-09-29,清算の結了等,,,2021-03-08,1,,,,,アクト,0
2032,8140001042350,登記記録の閉鎖等,0,2023-10-03,2023-09-28,株式会社和協,,株式会社,兵庫県,三木市,吉川町上荒川６４８番地,,28,215,6731111,,,2023-09-28,清算の結了等,,,2015-10-05,1,,,,,,0
2042,8160002011591,登記記録の閉鎖等,0,2023-10-03,2023-09-27,有限会社吉田印刷,,有限会社,滋賀県,高島市,今津町今津１５９６番地の７,,25,212,5201621,,,2023-09-27,清算の結了等,,,2015-10-05,1,,,,,ヨシダインサツ,0
2064,8200002001324,登記記録の閉鎖等,0,2023-10-03,2023-09-29,有限会社アズプラザ,,有限会社,岐阜県,岐阜市,島田中町４４番地の１,,21,201,5008316,,,2023-09-29,清算の結了等,,,2015-10-05,1,,,,,アズプラザ,0
2068,8220001005539,登記記録の閉鎖等,0,2023-10-03,2023-09-28,株式会社平口泰夫建築研究室,,株式会社,石川県,金沢市,藤江北２丁目１１番地,,17,201,9200345,,,2023-09-28,清算の結了等,,,2015-10-05,1,,,,,ヒラグチヤスオケンチクケンキュウシツ,0
2071,8220003002749,登記記録の閉鎖等,0,2023-10-03,2023-09-11,合同会社Ａｐｐｌｅ　Ｔｒｅｅ,,合同会社,東京都,港区,南青山２丁目２－１５ＷＩＮ青山５３１,,13,103,1070062,,,2023-09-11,清算の結了等,,,2020-02-25,1,,,,,アップルツリー,0
2098,8290005007772,登記記録の閉鎖等,0,2023-10-03,2023-09-25,飯塚新生市場商業協同組合,,その他の設立登記法人,福岡県,飯塚市,飯塚６番３号,,40,205,8200041,,,2023-09-25,清算の結了等,,,2015-10-05,1,,,,,イイヅカシンセイイチバショウギョウ,0
2115,8330002028206,登記記録の閉鎖等,0,2023-10-03,2023-09-20,有限会社石本印刷所,,有限会社,熊本県,天草市,牛深町２５６番地の１,,43,215,8631901,,,2023-09-20,清算の結了等,,,2015-10-05,1,,,,,イシモトインサツショ,0
2117,8340002000659,登記記録の閉鎖等,0,2023-10-03,2023-10-02,マル安福山酢醸造有限会社,,有限会社,鹿児島県,鹿児島市,田上台４丁目２６番２０号,,46,201,8900036,,,2023-10-02,清算の結了等,,,2015-10-05,1,,,,,マルヤスフクヤマスジョウゾウ,0
2124,8380001020043,登記記録の閉鎖等,0,2023-10-03,2023-09-27,株式会社グリーンタウン,,株式会社,茨城県,つくば市,吾妻３丁目１３番地１柴原ビル１Ｆ－Ｂ号室,,08,220,3050031,,,2023-09-27,清算の結了等,,,2015-10-05,1,,,,,グリーンタウン,0
2128,8400002010230,登記記録の閉鎖等,0,2023-10-03,2023-09-21,有限会社菊清工務店,,有限会社,岩手県,遠野市,松崎町白岩２３地割５１番地,,03,208,0280541,,,2023-09-21,清算の結了等,,,2015-10-05,1,,,,,キクセイコウムテン,0
2138,8450001005581,登記記録の閉鎖等,0,2023-10-03,2023-09-28,ニチエイアクアシステム株式会社,,株式会社,北海道,旭川市,豊岡六条４丁目１０番４号,,01,204,0788236,,,2023-09-28,清算の結了等,,,2015-10-05,1,,,,,ニチエイアクアシステム,0
2145,8700150016569,登記記録の閉鎖等,0,2023-10-03,2023-05-15,大月市観光協会,,その他,山梨県,大月市,大月１丁目１－３３,,19,206,4010013,,,2023-05-15,その他の清算の結了等,,,2015-10-09,1,,,,,オオツキシカンコウキヨウカイ,0
2146,8700150029050,登記記録の閉鎖等,0,2023-10-03,2023-06-30,大和体験交流協会,,その他,兵庫県,多可郡多可町,八千代区大和１５２０－１,,28,365,6770132,,,2023-06-30,その他の清算の結了等,,,2015-10-09,1,,,,,ヤマトタイケンコウリユウキヨウカイ,0
2148,8700150104976,登記記録の閉鎖等,0,2023-10-03,2023-05-31,チームでらハッピィ,,その他,愛知県,名古屋市西区,名西２丁目３８－２９ポレスターセントラルシティ名西９０２,,23,104,4510064,,,2023-05-31,その他の清算の結了等,,,2021-10-04,1,,,,,チームデラハツピイ,0
2149,8700150107632,登記記録の閉鎖等,0,2023-10-03,2023-04-01,Ｓ企画,,その他,東京都,杉並区,西荻北２丁目１－３シャトルマンション３０３,,13,115,1670042,,,2023-04-01,その他の清算の結了等,,,2022-04-01,1,,,,,エスキカク,0
2163,9010003026909,登記記録の閉鎖等,0,2023-10-03,2023-09-25,ｓｏｕｎｄ　ｏｆ　ｔｈｅ　ｌｏｔｕｓ合同会社,,合同会社,東京都,中央区,銀座７丁目１３番６号サガミビル２階,,13,102,1040061,,,2023-09-25,清算の結了等,,,2018-02-05,1,,,,,サウンドオブザロータス,0
2188,9011002010416,登記記録の閉鎖等,0,2023-10-03,2023-09-28,株式会社フーズガーデン,,株式会社,東京都,渋谷区,神宮前５丁目１０番１０号,,13,113,1500001,,,2023-09-28,清算の結了等,,,2015-10-05,1,,,,,フーズガーデン,0
2221,9020002101109,登記記録の閉鎖等,0,2023-10-03,2023-09-07,株式会社ジョイトイプロモーション,,株式会社,埼玉県,坂戸市,緑町１１番１６号,,11,239,3500234,,,2023-09-07,清算の結了等,,,2015-10-05,1,,,,,ジョイトイプロモーション,0
2256,9060002030543,登記記録の閉鎖等,0,2023-10-03,2023-09-26,有限会社石川食品,,有限会社,栃木県,下野市,石橋５７８番地４８,,09,216,3290511,,,2023-09-26,清算の結了等,,,2015-10-05,1,,,,,イシカワショクヒン,0
2271,9100005009935,登記記録の閉鎖等,0,2023-10-03,2023-09-26,トーア高度情報協同組合,,その他の設立登記法人,長野県,飯田市,育良町１丁目１２番地５,,20,205,3950152,,,2023-09-26,清算の結了等,,,2015-10-05,1,,,,,トーアコウドジョウホウ,0
2274,9110002034142,登記記録の閉鎖等,0,2023-10-03,2023-09-29,有限会社つばさ観光,,有限会社,新潟県,魚沼市,井口新田８２７番地１１,,15,225,9460076,,,2023-09-29,清算の結了等,,,2015-10-05,1,,,,,ツバサカンコウ,0
2290,9120101053918,登記記録の閉鎖等,0,2023-10-03,2023-10-02,大信貿易株式会社近畿,,株式会社,大阪府,堺市西区,浜寺公園町３丁２３１番地３,,27,144,5928346,,,2023-10-02,清算の結了等,,,2015-11-26,1,,,,,ダイシンボウエキキンキ,0
2293,9122001019395,登記記録の閉鎖等,0,2023-10-03,2023-09-27,トーキンミディアン株式会社,,株式会社,大阪府,八尾市,太田新町７丁目２９番地,,27,212,5810039,,,2023-09-27,清算の結了等,,,2015-10-05,1,,,,,トーキンミディアン,0
2297,9130003008267,登記記録の閉鎖等,0,2023-10-03,2023-09-20,合同会社ＨＩＴ,,合同会社,京都府,向日市,上植野町下川原２９番地の１４,,26,208,6170006,,,2023-09-20,清算の結了等,,,2022-10-27,1,,,,,ヒット,0
2315,9180001022117,登記記録の閉鎖等,0,2023-10-03,2023-09-29,株式会社大同商会,,株式会社,愛知県,名古屋市熱田区,一番２丁目３８番２号,,23,109,4560053,,,2023-09-29,清算の結了等,,,2015-10-05,1,,,,,ダイドウショウカイ,0
2319,9180002041339,登記記録の閉鎖等,0,2023-10-03,2023-09-26,有限会社フリップーフラップ,,有限会社,愛知県,名古屋市昭和区,広路町字隼人１７番地の１,,23,107,4660834,,,2023-09-26,清算の結了等,,,2015-10-05,1,,,,,フリップーフラップ,0
2327,9180302018375,登記記録の閉鎖等,0,2023-10-03,2023-09-25,有限会社ジュエリーブティックセントラル,,有限会社,愛知県,刈谷市,築地町２丁目１２番地１２,,23,210,4480011,,,2023-09-25,清算の結了等,,,2015-10-05,1,,,,,ジュエリーブティックセントラル,0
2328,9180303000010,登記記録の閉鎖等,0,2023-10-03,2023-09-27,合資会社武嶋石材店,,合資会社,愛知県,岡崎市,梅園町字２丁目３番地５,,23,202,4440031,,,2023-09-27,清算の結了等,,,2015-10-05,1,,,,,タケシマセキザイテン,0
2339,9230003001947,登記記録の閉鎖等,0,2023-10-03,2023-09-26,倶利伽羅合同会社,,合同会社,富山県,富山市,婦中町中名１６６７番地１,,16,201,9392741,,,2023-09-26,清算の結了等,,,2022-12-14,1,,,,,クリカラ,0
2347,9250002020533,登記記録の閉鎖等,0,2023-10-03,2023-09-29,有限会社平生港通船,,有限会社,山口県,熊毛郡平生町,大字曽根３３９番地,,35,344,7421107,,,2023-09-29,清算の結了等,,,2015-10-05,1,,,,,ヒラオコウツウセン,0
2351,9260005002321,登記記録の閉鎖等,0,2023-10-03,2023-10-02,医療法人大森整形外科医院,,その他の設立登記法人,岡山県,岡山市南区,洲崎２丁目５番２７号,,33,104,7028042,,,2023-10-02,清算の結了等,,,2015-10-05,1,,,,,オオモリセイケイゲカイイン,0
2352,9260005009564,登記記録の閉鎖等,0,2023-10-03,2023-10-02,一般社団法人医療ネットワーク岡山協議会,,その他の設立登記法人,岡山県,岡山市北区,駅元町１９番２号,,33,101,7000024,,,2023-10-02,清算の結了等,,,2015-10-05,1,,,,,イリョウネットワークオカヤマキョウギカイ,0
2383,9420003000327,登記記録の閉鎖等,0,2023-10-03,2023-09-27,合資会社泰斗舎,,合資会社,青森県,青森市,新田１丁目１１番５号,,02,201,0380001,,,2023-09-27,清算の結了等,,,2015-10-05,1,,,,,,0
2392,9470001017541,登記記録の閉鎖等,0,2023-10-03,2023-09-20,鴻福株式会社,,株式会社,香川県,さぬき市,大川町富田西１４６７番地,,37,206,7610901,,,2023-09-20,清算の結了等,,,2019-07-11,1,,,,,コウフク,0
2394,9480002011947,登記記録の閉鎖等,0,2023-10-03,2023-10-02,有限会社板野ホンダ販売,,有限会社,徳島県,板野郡上板町,椎本字四宮東３９５番地,,36,405,7711343,,,2023-10-02,清算の結了等,,,2015-10-05,1,,,,,イタノホンダハンバイ,0
2398,9500003000021,登記記録の閉鎖等,0,2023-10-03,2023-10-03,合名会社康生堂,,合名会社,愛媛県,松山市,柳井町１丁目１１番地２０,,38,201,7900014,,,2023-10-03,清算の結了等,,,2015-10-05,1,,,,,コウセイドウ,0
2400,9700150062744,登記記録の閉鎖等,0,2023-10-03,2023-07-05,和水町地域雇用創造協議会,,その他,熊本県,玉名郡和水町,江田３８８６,,43,369,8650136,,,2023-07-05,その他の清算の結了等,,,2015-10-09,1,,,,,ナゴミマチチイキコヨウソウゾウキヨウギカイ,0
2401,9700150106278,登記記録の閉鎖等,0,2023-10-03,2023-06-30,Ｌｉｆｅ　ｉｓ　Ｌｉｖｅ,,その他,神奈川県,川崎市多摩区,生田８丁目８－６－３０５,,14,135,2140038,,,2023-06-30,その他の清算の結了等,,,2021-12-15,1,,,,,ライフイズライブ,0
2403,9700150106600,登記記録の閉鎖等,0,2023-10-03,2022-11-01,ミュージカル県さが,,その他,佐賀県,鳥栖市,村田町３０７－６８,,41,203,8410072,,,2022-11-01,その他の清算の結了等,,,2022-01-13,1,,,,,ミユージカルケンサガ,0
2404,9700150107565,登記記録の閉鎖等,0,2023-10-03,2023-04-30,光プロジェクト,,その他,愛知県,刈谷市,小垣江町本郷下３９－１５,,23,210,4480813,,,2023-04-30,その他の清算の結了等,,,2022-03-31,1,,,,,ヒカリプロジエクト,0
