sequenceNumber,corporateNumber,process,correct,updateDate,changeDate,name,nameImageId,kind,prefectureName,cityName,streetNumber,addressImageId,prefectureCode,cityCode,postCode,addressOutside,addressOutsideImageId,closeDate,closeCause,successorCorporateNumber,changeCause,assignmentDate,latest,enName,enPrefectureName,enCityName,enAddressOutside,furigana,hihyoji
7,1010003041477,新規,0,2023-08-22,2023-08-22,ＳＧＥＴ新潟蓄電所合同会社,,合同会社,東京都,千代田区,丸の内３丁目１番１号東京共同会計事務所内,,13,101,1000005,,,,,,,2023-08-22,1,,,,,エスゲットニイガタチクデンショ,0
18,1010401176668,新規,0,2023-08-22,2023-08-22,株式会社Ｌｕｍｉｎｏ,,株式会社,東京都,港区,南青山３丁目１番３６号,,13,103,1070062,,,,,,,2023-08-22,1,,,,,ルミノ,0
19,1010401176692,新規,0,2023-08-22,2023-08-22,株式会社７９Ｓ　Ｔｏｋｙｏ,,株式会社,東京都,港区,六本木６丁目１番２６号六本木天城ビル６階,,13,103,1060032,,,,,,,2023-08-22,1,,,,,ナナジュウキュウエストウキョウ,0
21,1010403030765,新規,0,2023-08-22,2023-08-22,合同会社レイガーデン,,合同会社,東京都,港区,港南２丁目１１番１７－１００７号,,13,103,1080075,,,,,,,2023-08-22,1,,,,,レイガーデン,0
22,1010403030773,新規,0,2023-08-22,2023-08-22,合同会社ＫＡＤＡ,,合同会社,東京都,港区,赤坂４丁目１４番３号,,13,103,1070052,,,,,,,2023-08-22,1,,,,,カーダ,0
23,1010403030781,新規,0,2023-08-22,2023-08-22,合同会社ひかりホテル,,合同会社,東京都,港区,西新橋１丁目２番９号メンターキャピタル税理士法人内,,13,103,1050003,,,,,,,2023-08-22,1,,,,,ヒカリホテル,0
31,1010703006829,新規,0,2023-08-22,2023-08-22,王子加工所ホールディングス合同会社,,合同会社,東京都,品川区,上大崎３丁目１番１号目黒セントラルスクエア１５階,,13,109,1410021,,,,,,,2023-08-22,1,,,,,オウジカコウショホールディングス,0
32,1010705003527,新規,0,2023-08-22,2023-08-22,一般社団法人明和,,その他の設立登記法人,東京都,品川区,上大崎３丁目１番１号目黒セントラルスクエア１５階,,13,109,1410021,,,,,,,2023-08-22,1,,,,,メイワ,0
36,1010805003047,新規,0,2023-08-22,2023-08-22,一般社団法人母性経営研究所,,その他の設立登記法人,東京都,大田区,北千束２丁目３２番５号,,13,111,1450062,,,,,,,2023-08-22,1,,,,,ボセイケイエイケンキュウジョ,0
40,1010903008393,新規,0,2023-08-22,2023-08-22,合同会社ＳＤ　Ｔｏｒｅｄｏ,,合同会社,東京都,世田谷区,千歳台５丁目６番３号,,13,112,1570071,,,,,,,2023-08-22,1,,,,,エスディートレード,0
46,1011001156457,新規,0,2023-08-22,2023-08-22,株式会社あすまちラボ,,株式会社,東京都,渋谷区,渋谷２丁目１９－１５宮益坂ビルディング６０９,,13,113,1500002,,,,,,,2023-08-22,1,,,,,アスマチラボ,0
47,1011001156498,新規,0,2023-08-22,2023-08-22,株式会社ＳＴＵＤＩＯ　ＰＵＲＳＵＩＴ,,株式会社,東京都,渋谷区,神宮前６丁目２３番４号桑野ビル２Ｆ,,13,113,1500001,,,,,,,2023-08-22,1,,,,,スタジオパースーツ,0
50,1011003017335,新規,0,2023-08-22,2023-08-22,ＴＲＡＤＡ合同会社,,合同会社,東京都,渋谷区,神泉町１０番１５号アネックス神泉３０１,,13,113,1500045,,,,,,,2023-08-22,1,,,,,トラーダ,0
56,1011101103978,新規,0,2023-08-22,2023-08-22,株式会社Ｅｐ‐Ｌｉｆｅ,,株式会社,東京都,新宿区,西新宿１丁目４番１１号全研プラザビル４階４０２号室,,13,104,1600023,,,,,,,2023-08-22,1,,,,,イーピーライフ,0
57,1011101104051,新規,0,2023-08-22,2023-08-22,株式会社ＡＲＲＩＶＡＬ,,株式会社,東京都,新宿区,西新宿３丁目３番１３号西新宿水間ビル６階,,13,104,1600023,,,,,,,2023-08-22,1,,,,,アライバル,0
59,1011201024868,新規,0,2023-08-22,2023-08-22,株式会社ＫＡＭＩＳＡＭＡ,,株式会社,東京都,中野区,東中野３丁目１番２０号不二園ビル３０１,,13,114,1640003,,,,,,,2023-08-22,1,,,,,カミサマ,0
60,1011401025385,新規,0,2023-08-22,2023-08-22,株式会社モチゴリ電気,,株式会社,東京都,板橋区,常盤台１丁目６５番７号石本ビル１階,,13,119,1740071,,,,,,,2023-08-22,1,,,,,モチゴリデンキ,0
62,1011603004022,新規,0,2023-08-22,2023-08-22,合同会社誠,,合同会社,東京都,練馬区,大泉町６丁目１２番６号メゾンドＴＯＫ２０２号,,13,120,1780062,,,,,,,2023-08-22,1,,,,,マコト,0
64,1011801042914,新規,0,2023-08-22,2023-08-22,株式会社Ｄｏｗｈｅｎ,,株式会社,東京都,葛飾区,南水元３丁目４－２－９１２,,13,122,1250035,,,,,,,2023-08-22,1,,,,,ドゥーウェン,0
66,1012401040894,新規,0,2023-08-22,2023-08-22,株式会社寿家,,株式会社,東京都,小金井市,桜町１丁目４番２号,,13,210,1840005,,,,,,,2023-08-22,1,,,,,コトヤ,0
69,1012703002774,新規,0,2023-08-22,2023-08-22,アンナヒユＥＮＴＥＲＰＲＩＳＥ合同会社,,合同会社,東京都,小平市,学園東町１丁目１６－１３幸荘１０２号,,13,211,1870043,,,,,,,2023-08-22,1,,,,,アンナヒユエンタープライズ,0
73,1013303006752,新規,0,2023-08-22,2023-08-22,合同会社Ｌｉｅｎ’Ｓ,,合同会社,東京都,豊島区,南池袋３丁目２４－２１－５０７,,13,116,1710022,,,,,,,2023-08-22,1,,,,,リエンズ,0
74,1013303006769,新規,0,2023-08-22,2023-08-22,合同会社オメガポイント,,合同会社,東京都,豊島区,高田３丁目１０番２２号,,13,116,1710033,,,,,,,2023-08-22,1,,,,,オメガポイント,0
82,1020001153141,新規,0,2023-08-22,2023-08-22,株式会社秋元農園,,株式会社,神奈川県,川崎市高津区,明津１７番地,,14,134,2130024,,,,,,,2023-08-22,1,,,,,アキモトノウエン,0
85,1020005016096,新規,0,2023-08-22,2023-08-22,一般社団法人日本陜西経済文化交流商会,,その他の設立登記法人,神奈川県,横浜市中区,伊勢佐木町４丁目１０８番地３ＹＫビル３階,,14,104,2310045,,,,,,,2023-08-22,1,,,,,ニホンキョウサイケイザイブンカコウリュウショウカイ,0
87,1021001079995,新規,0,2023-08-22,2023-08-22,株式会社Ｖｅｓｔａ,,株式会社,神奈川県,相模原市中央区,南橋本２丁目３番１３号,,14,152,2520253,,,,,,,2023-08-22,1,,,,,ウェスタ,0
88,1021001080004,新規,0,2023-08-22,2023-08-22,株式会社ジェラートファクトリー,,株式会社,神奈川県,藤沢市,辻堂太平台２丁目１３番７号,,14,205,2510044,,,,,,,2023-08-22,1,,,,,ジェラートファクトリー,0
100,1030001155665,新規,0,2023-08-22,2023-08-22,株式会社三日月,,株式会社,埼玉県,川口市,柳崎３丁目１１番９号,,11,203,3330861,,,,,,,2023-08-22,1,,,,,ミカヅキ,0
104,1030003022269,新規,0,2023-08-22,2023-08-22,Ｐｌｕｓタクト合同会社,,合同会社,埼玉県,久喜市,西大輪２０２４番地３,,11,232,3400206,,,,,,,2023-08-22,1,,,,,プラスタクト,0
121,1070001040789,新規,0,2023-08-22,2023-08-22,株式会社Ｄａｉａｍｏｎｄｃｌａｓｓ,,株式会社,群馬県,北群馬郡榛東村,大字広馬場３９１２番地２,,10,344,3703504,,,,,,,2023-08-22,1,,,,,ダイヤモンドクラス,0
130,1100005013060,新規,0,2023-08-22,2023-08-22,一般社団法人地域共生ふらっと,,その他の設立登記法人,長野県,下伊那郡高森町,山吹１２０７番地２,,20,403,3993101,,,,,,,2023-08-22,1,,,,,チイキキョウセイフラット,0
140,1120001257428,新規,0,2023-08-22,2023-08-22,銀点株式会社,,株式会社,大阪府,大阪市東成区,神路４丁目３－１０スターレジデンス新深江３０３号室,,27,115,5370003,,,,,,,2023-08-22,1,,,,,ギンテン,0
141,1120001257460,新規,0,2023-08-22,2023-08-22,株式会社ヱビス,,株式会社,大阪府,大阪市浪速区,恵美須東２丁目５－１０,,27,111,5560002,,,,,,,2023-08-22,1,,,,,,0
142,1120001257469,新規,0,2023-08-22,2023-08-22,株式会社グローブ,,株式会社,大阪府,大阪市北区,天神橋２丁目５番３第五新興ビル５０６,,27,127,5300041,,,,,,,2023-08-22,1,,,,,グローブ,0
143,1120001257510,新規,0,2023-08-22,2023-08-22,Ａｐｅｘ株式会社,,株式会社,大阪府,大阪市住吉区,長居２丁目１０番３－２０２号,,27,120,5580003,,,,,,,2023-08-22,1,,,,,エイペックス,0
144,1120001257527,新規,0,2023-08-22,2023-08-22,佳宇株式会社,,株式会社,大阪府,大阪市阿倍野区,西田辺町２丁目６番３号（４Ｅ）,,27,119,5450014,,,,,,,2023-08-22,1,,,,,カウ,0
145,1120001257551,新規,0,2023-08-22,2023-08-22,株式会社ｈｉｔデザイン,,株式会社,大阪府,大阪市淀川区,塚本２丁目２８番１８号木村ハイツ３０２,,27,123,5320026,,,,,,,2023-08-22,1,,,,,ヒットデザイン,0
149,1120003024693,新規,0,2023-08-22,2023-08-22,合同会社ＭＣ,,合同会社,大阪府,大阪市東住吉区,湯里２丁目１３－１－４０１,,27,121,5460013,,,,,,,2023-08-22,1,,,,,エムシー,0
150,1120003024727,新規,0,2023-08-22,2023-08-22,合同会社ＹＳＰコーポレーション,,合同会社,大阪府,大阪市北区,西天満３丁目６－２７－３０３,,27,127,5300047,,,,,,,2023-08-22,1,,,,,ワイエスピーコーポレーション,0
151,1120003024743,新規,0,2023-08-22,2023-08-22,エバーグリーン合同会社,,合同会社,大阪府,大阪市生野区,新今里４丁目１１－８コーポあすか６０２号室,,27,116,5440001,,,,,,,2023-08-22,1,,,,,エバーグリーン,0
165,1130001074995,新規,0,2023-08-22,2023-08-22,株式会社ＤＡＩＫＡコーポレーション,,株式会社,京都府,京都市下京区,油小路通東入傘鉾町４９番地７１０号,,26,106,6000000,,,,,,,2023-08-22,1,,,,,ダイカコーポレーション,0
173,1140001131291,新規,0,2023-08-22,2023-08-22,ＢｌｏｏｍＥａｒｔｈ株式会社,,株式会社,兵庫県,たつの市,龍野町片山２１０番地３,,28,229,6794123,,,,,,,2023-08-22,1,,,,,ブルームアース,0
174,1140001131300,新規,0,2023-08-22,2023-08-22,株式会社ｏｕｒｓ　ｋｎｏｔ,,株式会社,兵庫県,西宮市,深津町６番３８－６０２号,,28,204,6638203,,,,,,,2023-08-22,1,,,,,アワーズノット,0
175,1140001131309,新規,0,2023-08-22,2023-08-22,株式会社三和,,株式会社,兵庫県,神戸市中央区,楠町３丁目２番７号,,28,110,6500017,,,,,,,2023-08-22,1,,,,,サンワ,0
176,1140001131317,新規,0,2023-08-22,2023-08-22,株式会社杏,,株式会社,兵庫県,西宮市,今津曙町２番１５号,,28,204,6638214,,,,,,,2023-08-22,1,,,,,アン,0
177,1140001131333,新規,0,2023-08-22,2023-08-22,株式会社ＭＫ　Ｄｅｌｉｖｅｒ,,株式会社,兵庫県,宝塚市,小浜２丁目５－３５,,28,214,6650827,,,,,,,2023-08-22,1,,,,,エムケーデリバー,0
181,1150001026664,新規,0,2023-08-22,2023-08-22,株式会社ＫＩＹＯＭＩ．ｐｒｏ,,株式会社,奈良県,吉野郡吉野町,大字新子１５８番地１,,29,441,6393433,,,,,,,2023-08-22,1,,,,,キヨミプロ,0
196,1180001157721,新規,0,2023-08-22,2023-08-22,株式会社ステラーベル,,株式会社,愛知県,名古屋市中村区,椿町１３番１６号サン・オフィス名駅新幹線口４階４１０号室,,23,105,4530015,,,,,,,2023-08-22,1,,,,,ステラーベル,0
197,1180003025637,新規,0,2023-08-22,2023-08-22,合同会社ＳｏｒａＣＲＥＡＴＥ,,合同会社,愛知県,岩倉市,中本町中市場１０－５,,23,228,4820042,,,,,,,2023-08-22,1,,,,,ソラクリエイト,0
198,1180003025645,新規,0,2023-08-22,2023-08-22,ＤＭＤＬ　Ｔｅｌｅｌｏｋ　Ｊａｐａｎ合同会社,,合同会社,愛知県,名古屋市中区,錦２丁目１７番１１号,,23,106,4600003,,,,,,,2023-08-22,1,,,,,ディーエムディーエルテレロックジャパン,0
202,1180301037722,新規,0,2023-08-22,2023-08-22,フロックホールディングス株式会社,,株式会社,愛知県,高浜市,二池町６丁目２番地２,,23,227,4441322,,,,,,,2023-08-22,1,,,,,フロックホールディングス,0
203,1180301037730,新規,0,2023-08-22,2023-08-22,エスト株式会社,,株式会社,愛知県,豊田市,深見町糸代１０２番地４７,,23,211,4700441,,,,,,,2023-08-22,1,,,,,エスト,0
204,1180305009503,新規,0,2023-08-22,2023-08-22,一般社団法人となりの,,その他の設立登記法人,愛知県,豊田市,四郷町山畑１３８番地１６,,23,211,4700373,,,,,,,2023-08-22,1,,,,,トナリノ,0
205,1190001030679,新規,0,2023-08-22,2023-08-22,株式会社竹田工業,,株式会社,三重県,四日市市,小山町１８６２番地,,24,202,5121102,,,,,,,2023-08-22,1,,,,,タケダコウギョウ,0
212,1240001062023,新規,0,2023-08-22,2023-08-22,株式会社ＴＯＲＡＪｉ,,株式会社,広島県,呉市,広徳丸町２２番２３号泰平ビル１階,,34,202,7370102,,,,,,,2023-08-22,1,,,,,,0
218,1250001020252,新規,0,2023-08-22,2023-08-22,株式会社ＹＭＤホールディングス,,株式会社,山口県,下松市,大字平田４６０番地,,35,207,7440021,,,,,,,2023-08-22,1,,,,,ワイエムディホールディングス,0
223,1260001038228,新規,0,2023-08-22,2023-08-22,株式会社Ｍ＆Ｓ,,株式会社,岡山県,岡山市北区,芳賀５１１５番地８５,,33,101,7011221,,,,,,,2023-08-22,1,,,,,エムアンドエス,0
236,1330005010687,新規,0,2023-08-22,2023-08-22,一般社団法人山ぼうしの樹犬猫の会,,その他の設立登記法人,熊本県,上益城郡甲佐町,大字糸田１３６番地,,43,444,8613242,,,,,,,2023-08-22,1,,,,,,0
238,1340001025837,新規,0,2023-08-22,2023-08-22,株式会社ＡＭＡＫＡＮホールディングス,,株式会社,鹿児島県,奄美市,名瀬矢之脇町１０番１２号,,46,222,8940033,,,,,,,2023-08-22,1,,,,,アカマンホールディングス,0
239,1340003004211,新規,0,2023-08-22,2023-08-22,龍輝電設工業合同会社,,合同会社,鹿児島県,大島郡龍郷町,大勝１１８４番地１,,46,527,8940105,,,,,,,2023-08-22,1,,,,,リュウコウデンセツコウギョウ,0
252,1370003006254,新規,0,2023-08-22,2023-08-22,マル合同会社,,合同会社,宮城県,柴田郡川崎町,大字支倉字塩沢９番地,,04,324,9891507,,,,,,,2023-08-22,1,,,,,マル,0
255,1400001016350,新規,0,2023-08-22,2023-08-22,株式会社いわて北上リテールマネジメント,,株式会社,岩手県,北上市,本通り２丁目２番１号,,03,206,0240094,,,,,,,2023-08-22,1,,,,,イワテキタカミリテールマネジメント,0
258,1430001089749,新規,0,2023-08-22,2023-08-22,株式会社五八商事,,株式会社,北海道,札幌市南区,北ノ沢２丁目８番１０号,,01,106,0050832,,,,,,,2023-08-22,1,,,,,ゴハチショウジ,0
268,1500001025151,新規,0,2023-08-22,2023-08-22,株式会社松山空調電気設備,,株式会社,愛媛県,松山市,高岡町４０３－２５,,38,201,7918036,,,,,,,2023-08-22,1,,,,,,0
270,1700150119147,新規,0,2023-08-22,2023-08-22,Ｎｏｂｌｅ　Ｈｏｕｓｅ　Ｈｏｍｅ　Ｆｕｒｎｉｓｈｉｎｇ（ＨＫ）Ｌｉｍｉｔｅｄ,,外国会社等,,,,,,,,Ｏｆｆｉｃｅ　０８，２０／Ｆ，Ｃｈｉｎａ　Ｓｈｉｐｂｕｉｌｄｉｎｇ　Ｔｏｗｅｒ，６５０　Ｃｈｅｕｎｇ　Ｓｈａ　Ｗａｎ　Ｒｏａｄ，Ｋｏｗｌｏｏｎ，Ｈｏｎｇ　Ｋｏｎｇ,,,,,,2023-08-22,1,,,,,ノウブルハウスホームファーニシングホンコンリミテッド,0
271,1700150119155,新規,0,2023-08-22,2023-08-22,Ｃｙｅｅｌｉｆｅ　Ｓｐｏｒｔｓ　Ｃｏ．，Ｌｔｄ．,,外国会社等,,,,,,,,２／Ｆ，Ｎｏ．３４，２ｎｄ　Ｉｎｄｕｓｔｒｉａｌ　Ｚｏｎｅ，Ｈｏｕｔｉｎｇ　Ｃｏｍｍｕｎｉｔｙ，Ｓｈａｊｉｎｇ　Ｓｔｒｅｅｔ，Ｂａｏａｎ　Ｄｉｓｔｒｉｃｔ　Ｓｈｅｎｚｈｅｎ，Ｇｕａｎｇｄｏｎｇ　５１８０００　ＣＮ,,,,,,2023-08-22,1,,,,,サイライフスポーツカンパニーリミテッド,0
272,1700150119163,新規,0,2023-08-22,2023-08-22,Ｓｈｅｎｚｈｅｎ　Ｋａｍｏ　Ｍｉｃｒｏ　Ｔｅｃｈｎｏｌｏｇｙ　Ｃｏ．ＬＴＤ,,外国会社等,,,,,,,,Ｌｏｎｇｈｕａｑｕ　Ｇｕａｎｈｕｊｉｅｄａｏ　Ｇｕａｎｃｈｅｎｇｓｈｅｑｕ　ｈｅｎｇｋｅｎｇｈｅｄｏｎｇｃｕｎ１２６－３ｈａｏ２０２　Ｓｈｅｎｚｈｅｎｓｈｉ　Ｇｕａｎｇｄｏｎｇｓｈｅｎｇ　５１８１１０　ＣＮ,,,,,,2023-08-22,1,,,,,シェンジェンカーモーウェイコージーヨウシエンゴンスー,0
273,1700150119188,新規,0,2023-08-22,2023-08-22,Ｇｕａｎｇｚｈｏｕ　Ｂｅｉｌｉａｎｓｈｉ　Ｔｒａｄｉｎｇ　Ｃｏ．Ｌｔｄ．,,外国会社等,,,,,,,,ＧａｏＸｉｎＪｉＳｈｕＫａｉＦａＱｕＫｅＦｅｎｇＬｕ９１Ｈａｏ１４０９Ｆａｎｇ　Ｇｕａｎｇｚｈｏｕ　Ｇｕａｎｇｄｏｎｇ　Ｃｈｉｎａ　５１０６７０,,,,,,2023-08-22,1,,,,,グワンジョウベイリエンシーマオイーヨウシエンゴンスー,0
283,2010001237836,新規,0,2023-08-22,2023-08-22,株式会社Ｃｏｒｅ　Ｂｅａｕｔｅ,,株式会社,東京都,中央区,銀座１丁目１２番４号Ｎ＆ＥＢＬＤ．７階,,13,102,1040061,,,,,,,2023-08-22,1,,,,,コアボーテ,0
284,2010001237869,新規,0,2023-08-22,2023-08-22,ＧＥＮＯＭＥＣＨＩＰ株式会社,,株式会社,東京都,中央区,日本橋室町１丁目１１番１２号日本橋水野ビル７階,,13,102,1030022,,,,,,,2023-08-22,1,,,,,ゲノムチップ,0
287,2010003041468,新規,0,2023-08-22,2023-08-22,合同会社Ｄａｉｓｙ＆Ｃｏ．,,合同会社,東京都,文京区,本郷５丁目２９番１３－８０２号,,13,105,1130033,,,,,,,2023-08-22,1,,,,,デイジーアンドカンパニー,0
288,2010003041476,新規,0,2023-08-22,2023-08-22,ＳＧＥＴ福島蓄電所合同会社,,合同会社,東京都,千代田区,丸の内３丁目１番１号東京共同会計事務所内,,13,101,1000005,,,,,,,2023-08-22,1,,,,,エスゲットフクシマチクデンショ,0
289,2010005037150,新規,0,2023-08-22,2023-08-22,ソーラーペタルホールディングス一般社団法人,,その他の設立登記法人,東京都,中央区,八丁堀４丁目２番１０号ＡＯＪ税理士法人内,,13,102,1040032,,,,,,,2023-08-22,1,,,,,ソーラーペタルホールディングス,0
304,2010401176667,新規,0,2023-08-22,2023-08-22,Ｎｏ　Ｃｏｄｅ　Ｊａｐａｎ株式会社,,株式会社,東京都,港区,元麻布３丁目１番６号,,13,103,1060046,,,,,,,2023-08-22,1,,,,,ノーコードジャパン,0
307,2010403030731,新規,0,2023-08-22,2023-08-22,合同会社オデッセイ,,合同会社,東京都,港区,北青山１丁目３番１号アールキューブ青山３階,,13,103,1070061,,,,,,,2023-08-22,1,,,,,オデッセイ,0
308,2010403030772,新規,0,2023-08-22,2023-08-22,合同会社ＴＡＴ,,合同会社,東京都,港区,赤坂４丁目１４番１４－４３０６号,,13,103,1070052,,,,,,,2023-08-22,1,,,,,ティーエーティー,0
310,2010501050929,新規,0,2023-08-22,2023-08-22,株式会社ヤトラ,,株式会社,東京都,台東区,東上野６丁目１７－１４東上野サニービル５０２号,,13,106,1100015,,,,,,,2023-08-22,1,,,,,ヤトラ,0
315,2010601063665,新規,0,2023-08-22,2023-08-22,日本ＪＣＡ株式会社,,株式会社,東京都,墨田区,太平４丁目１７番１３号,,13,107,1300012,,,,,,,2023-08-22,1,,,,,ニホンジェーシーエー,0
317,2010701044747,新規,0,2023-08-22,2023-08-22,株式会社匠家,,株式会社,東京都,品川区,戸越２丁目１番１８号,,13,109,1420041,,,,,,,2023-08-22,1,,,,,タクミヤ,0
319,2010703006828,新規,0,2023-08-22,2023-08-22,明和ホールディングス合同会社,,合同会社,東京都,品川区,上大崎３丁目１番１号目黒セントラルスクエア１５階,,13,109,1410021,,,,,,,2023-08-22,1,,,,,メイワホールディングス,0
321,2010803004649,新規,0,2023-08-22,2023-08-22,合同会社ＱＴＡ,,合同会社,東京都,大田区,仲六郷４丁目３１番８号,,13,111,1440055,,,,,,,2023-08-22,1,,,,,キューティーエー,0
337,2011003017375,新規,0,2023-08-22,2023-08-22,合同会社あんこ,,合同会社,東京都,渋谷区,神宮前６丁目２９－４原宿Ｋｏｍｉｙａビル６階,,13,113,1500001,,,,,,,2023-08-22,1,,,,,アンコ,0
338,2011003017391,新規,0,2023-08-22,2023-08-22,Ｖ１２ＮＣＩＲＲＵＳ合同会社,,合同会社,東京都,渋谷区,本町４丁目１８番５号渋谷本町Ｂ号棟,,13,113,1510071,,,,,,,2023-08-22,1,,,,,ブイワンツーエヌサイラス,0
350,2011601027073,新規,0,2023-08-22,2023-08-22,株式会社整,,株式会社,東京都,練馬区,富士見台２丁目２９番９号,,13,120,1770034,,,,,,,2023-08-22,1,,,,,トトノウ,0
351,2011701026537,新規,0,2023-08-22,2023-08-22,株式会社克・建,,株式会社,東京都,江戸川区,東葛西５丁目３９－１７－１０１,,13,123,1340084,,,,,,,2023-08-22,1,,,,,カツケン,0
352,2011801042921,新規,0,2023-08-22,2023-08-22,株式会社ＩＣＨＩＢＯＵ,,株式会社,東京都,足立区,六月３丁目７番５号,,13,121,1210814,,,,,,,2023-08-22,1,,,,,イチボウ,0
361,2013301051238,新規,0,2023-08-22,2023-08-22,株式会社ＨＬＩ,,株式会社,東京都,豊島区,西池袋５丁目２６番２３号,,13,116,1710021,,,,,,,2023-08-22,1,,,,,エイチエルアイ,0
362,2013303006743,新規,0,2023-08-22,2023-08-22,合同会社ｈｉ‐ｕｐ,,合同会社,東京都,豊島区,池袋２丁目５４番５－１００５号,,13,116,1710014,,,,,,,2023-08-22,1,,,,,ハイアップ,0
367,2020001153149,新規,0,2023-08-22,2023-08-22,株式会社東都損害鑑定,,株式会社,神奈川県,横浜市西区,北幸２丁目１０番地２８むつみビル３Ｆ,,14,103,2200004,,,,,,,2023-08-22,1,,,,,トウトソンガイカンテイ,0
371,2021001079994,新規,0,2023-08-22,2023-08-22,株式会社ワンエス,,株式会社,神奈川県,相模原市緑区,大島１２８４番地１４,,14,151,2520135,,,,,,,2023-08-22,1,,,,,ワンエス,0
372,2021001080003,新規,0,2023-08-22,2023-08-22,株式会社ヨコスカビジネスサポート,,株式会社,神奈川県,横須賀市,佐原１丁目１０番５号,,14,201,2390835,,,,,,,2023-08-22,1,,,,,ヨコスカビジネスサポート,0
378,2030001155409,新規,0,2023-08-22,2023-08-22,株式会社アドレッセンス,,株式会社,埼玉県,戸田市,大字新曽２００２番地の１２,,11,224,3350021,,,,,,,2023-08-22,1,,,,,アドレッセンス,0
382,2030003022284,新規,0,2023-08-22,2023-08-22,合同会社ＢＰＳ,,合同会社,埼玉県,越谷市,レイクタウン７丁目３番地２１,,11,222,3430828,,,,,,,2023-08-22,1,,,,,ビーピーエス,0
385,2030005021350,新規,0,2023-08-22,2023-08-22,一般社団法人ハート＆サインコミュニケーション,,その他の設立登記法人,埼玉県,春日部市,大沼４丁目４７番地１,,11,214,3440038,,,,,,,2023-08-22,1,,,,,ハートアンドサインコミュニケーション,0
402,2070001040788,新規,0,2023-08-22,2023-08-22,株式会社ｇｅｏ　ｓｔｕｄｉｏ,,株式会社,群馬県,伊勢崎市,連取町３２９６番地１１,,10,204,3720812,,,,,,,2023-08-22,1,,,,,ジオスタジオ,0
403,2080401026675,新規,0,2023-08-22,2023-08-22,株式会社ｃｈｅｓｆａｍ,,株式会社,静岡県,浜松市南区,寺脇町１５０６番地,,22,134,4300841,,,,,,,2023-08-22,1,,,,,チェスファム,0
409,2100001036709,新規,0,2023-08-22,2023-08-22,株式会社Ｈｅｌｌｏ　Ｉｎｓｐｉｒｅ,,株式会社,長野県,佐久市,新子田１８７０番地,,20,217,3850007,,,,,,,2023-08-22,1,,,,,ハローインスパイヤ,0
412,2110001037788,新規,0,2023-08-22,2023-08-22,アプトシステムズホールディングス株式会社,,株式会社,新潟県,長岡市,新産３丁目２番地６,,15,202,9402127,,,,,,,2023-08-22,1,,,,,アプトシステムズホールディングス,0
421,2120001257476,新規,0,2023-08-22,2023-08-22,ＭＴＦ株式会社,,株式会社,大阪府,大阪市中央区,宗右衛門町４番９号地下１階,,27,128,5420084,,,,,,,2023-08-22,1,,,,,エムティーエフ,0
422,2120001257484,新規,0,2023-08-22,2023-08-22,株式会社ＡＶＡＮＳＡ　ＰＬＡＮ,,株式会社,大阪府,大阪市生野区,小路東２丁目１７番６号,,27,116,5440003,,,,,,,2023-08-22,1,,,,,アヴァンサプラン,0
423,2120001257492,新規,0,2023-08-22,2023-08-22,株式会社ＳＲ,,株式会社,大阪府,大阪市中央区,東心斎橋２丁目４－２９周防町ギャラクシービル４Ｆ,,27,128,5420083,,,,,,,2023-08-22,1,,,,,エスアール,0
424,2120001257518,新規,0,2023-08-22,2023-08-22,象形株式会社,,株式会社,大阪府,大阪市生野区,巽北１丁目７番３号４０１号室,00131601,27,116,5440004,,,,,,,2023-08-22,1,,,,,ショウケイ,0
430,2120101068088,新規,0,2023-08-22,2023-08-22,株式会社クサマヒラオ加工,,株式会社,大阪府,堺市美原区,平尾７３番地１,,27,147,5870022,,,,,,,2023-08-22,1,,,,,クサマヒラオカコウ,0
435,2120903004793,新規,0,2023-08-22,2023-08-22,Ｍｙ　Ｄｒｅａｍ　Ｅｎｇｌｉｓｈ合同会社,,合同会社,大阪府,箕面市,瀬川４丁目１９番６号,,27,220,5620045,,,,,,,2023-08-22,1,,,,,マイドリームイングリッシュ,0
436,2120905006516,新規,0,2023-08-22,2023-08-22,ＮＰＯ法人香雲文化交流つなぐ,,その他の設立登記法人,大阪府,豊中市,庄内幸町１丁目６番２－４０４号,,27,203,5610833,,,,,,,2023-08-22,1,,,,,コウウンブンカコウリュウツナグ,0
438,2122003002645,新規,0,2023-08-22,2023-08-22,合同会社とぅはーと,,合同会社,大阪府,四條畷市,南野２丁目５番１８号,,27,229,5750021,,,,,,,2023-08-22,1,,,,,トゥハート,0
444,2140001131299,新規,0,2023-08-22,2023-08-22,株式会社トランスフォーメーション,,株式会社,兵庫県,洲本市,納８５番地１,,28,205,6560101,,,,,,,2023-08-22,1,,,,,トランスフォーメーション,0
445,2140001131308,新規,0,2023-08-22,2023-08-22,株式会社尾幌ソーラーグレージング発電所,,株式会社,兵庫県,神戸市東灘区,住吉宮町３丁目７番１４号,,28,101,6580053,,,,,,,2023-08-22,1,,,,,オボロソーラーグレージングハツデンショ,0
452,2160001025276,新規,0,2023-08-22,2023-08-22,株式会社美睫女,,株式会社,滋賀県,守山市,小島町１６６２番地３,,25,207,5240002,,,,,,,2023-08-22,1,,,,,ビショウジョ,0
456,2180001157638,新規,0,2023-08-22,2023-08-22,株式会社Ｍ　Ｊ　ＴＲＡＤＩＮＧ,,株式会社,愛知県,弥富市,平島町中新田１９４番地１コンツェルハウスＩＩＣ－１０５,00131613,23,235,4980031,,,,,,,2023-08-22,1,,,,,エムジェイトレーディング,0
461,2180003025644,新規,0,2023-08-22,2023-08-22,合同会社Ｓｂｓｔ,,合同会社,愛知県,名古屋市名東区,新宿１丁目１３８名東区新宿パークハイツ１階,,23,115,4650063,,,,,,,2023-08-22,1,,,,,エスビーエスティー,0
464,2180301037721,新規,0,2023-08-22,2023-08-22,ＡＳＴＥＬＯＮＥ株式会社,,株式会社,愛知県,岡崎市,美合新町２番地８,,23,202,4440801,,,,,,,2023-08-22,1,,,,,アステル,0
465,2180305009502,新規,0,2023-08-22,2023-08-22,一般社団法人日本養鶉協会,,その他の設立登記法人,愛知県,豊橋市,東幸町字大山１７番地の２３,,23,201,4400843,,,,,,,2023-08-22,1,,,,,ニホンヨウジュンキョウカイ,0
477,2250001020251,新規,0,2023-08-22,2023-08-22,アクシス株式会社,,株式会社,山口県,光市,浅江５丁目２－２４,,35,210,7430021,,,,,,,2023-08-22,1,,,,,アクシス,0
481,2290001102756,新規,0,2023-08-22,2023-08-22,よりそう株式会社,,株式会社,福岡県,福岡市城南区,樋井川２丁目１４番３３号,,40,136,8140153,,,,,,,2023-08-22,1,,,,,ヨリソウ,0
490,2340001025836,新規,0,2023-08-22,2023-08-22,株式会社川西商店,,株式会社,鹿児島県,鹿児島市,宇宿５丁目１３番１４号ディスポートＩＩ２０３号,00131603,46,201,8900073,,,,,,,2023-08-22,1,,,,,カワニシショウテン,0
491,2340003004219,新規,0,2023-08-22,2023-08-22,合同会社ドリーム,,合同会社,鹿児島県,鹿児島市,坂之上７丁目３０番１６号第一山本コーポ１０２号,,46,201,8910150,,,,,,,2023-08-22,1,,,,,ドリーム,0
495,2360003013226,新規,0,2023-08-22,2023-08-22,合同会社在宅サポートスリー．Ｈ,,合同会社,沖縄県,豊見城市,字高嶺３９５番地８０,,47,212,9010213,,,,,,,2023-08-22,1,,,,,ザイタクサポートスリーエイチ,0
503,2380001033918,新規,0,2023-08-22,2023-08-22,株式会社玲建,,株式会社,福島県,いわき市,常磐西郷町岩崎２１－１４,,07,204,9728316,,,,,,,2023-08-22,1,,,,,レイケン,0
512,2430001089822,新規,0,2023-08-22,2023-08-22,株式会社安藤,,株式会社,北海道,札幌市手稲区,星置三条６丁目２６番１号,,01,109,0060853,,,,,,,2023-08-22,1,,,,,アンドウ,0
515,2460101007425,新規,0,2023-08-22,2023-08-22,株式会社ＭＳサトー,,株式会社,北海道,帯広市,西十一条南３１丁目２４番地,,01,207,0800021,,,,,,,2023-08-22,1,,,,,エムエスサトー,0
519,2700150119154,新規,0,2023-08-22,2023-08-22,ｘｕｃｈａｎｇ　ａｉｓｈｕｎｖ　ｆａｚｈｉｐｉｎ　ｙｏｕｘｉａｎｇｏｎｇｓｉ,,外国会社等,,,,,,,,Ｘｕｙｕｌｕ，ｙａｎａｎｌｕｋｏｕｄｏｎｇ１００ｍｉ　ｌｕｎａｎ　ＸｕＣｈａｎｇ　ＨｅＮａｎ　４６１００１　ＣＮ,,,,,,2023-08-22,1,,,,,シュウチャンアイスリュウファジピンヨウシェンゴンスー,0
520,2700150119162,新規,0,2023-08-22,2023-08-22,Ｈｕｎａｎ　Ｂｅｉｓｅｎ　Ｉｎｔｅｌｌｉｇｅｎｔ　Ｔｅｃｈｎｏｌｏｇｙ　Ｃｏ．，Ｌｔｄ,,外国会社等,,,,,,,,Ｓｏｕｔｈ　ｏｆ　Ｐｕｒｕｉ　Ｗｅｓｔ　Ｒｏａｄ，Ｈｕａｎｇｊｉｎｙｕａｎ　Ｎｏ．１０１８，Ｆｌｏｏｒ　１０，Ｂｕｉｌｄｉｎｇ　３，Ｊｉｎｑｉａｏ　Ｍａｒｋｅｔ　Ｃｌｕｓｔｅｒ　Ｚｏｎｅ　２　Ｃｈａｎｇｓｈａ　Ｗａｎｇｃｈｅｎｇ　Ｈｕｎａｎ　４１００００　ＣＮ,,,,,,2023-08-22,1,,,,,フゥナンベイセンジーノンカージヨウシェンゴンスー,0
521,2700150119187,新規,0,2023-08-22,2023-08-22,Ｇｕａｎｇｚｈｏｕ　ｌｖｙｕａｎ　Ｔｅｃｈｎｏｌｏｇｙ　Ｃｏ．，ＬＴＤ,,外国会社等,,,,,,,,Ａ１００２－１，２９　Ｂｉｓｈａｎ　Ｓｔｒｅｅｔ，Ｈｕａｎｇｐｕ　Ｄｉｓｔｒｉｃｔ，Ｇｕａｎｇｚｈｏｕ,,,,,,2023-08-22,1,,,,,グワンジョウリーユエンコージーヨウシエンゴンスー,0
527,3010001237892,新規,0,2023-08-22,2023-08-22,株式会社ブランド・デベロップメント,,株式会社,東京都,中央区,日本橋室町１丁目１１番１２号日本橋水野ビル７階,,13,102,1030022,,,,,,,2023-08-22,1,,,,,ブランドデベロップメント,0
529,3010003041327,新規,0,2023-08-22,2023-08-22,合同会社ＣＨＩＳＯＵ,,合同会社,東京都,文京区,千駄木３丁目３－２－３０１,,13,105,1130022,,,,,,,2023-08-22,1,,,,,チソウ,0
530,3010003041475,新規,0,2023-08-22,2023-08-22,ＳＧＥＴ水戸蓄電所合同会社,,合同会社,東京都,千代田区,丸の内３丁目１番１号東京共同会計事務所内,,13,101,1000005,,,,,,,2023-08-22,1,,,,,エスゲットミトチクデンショ,0
531,3010101015777,新規,0,2023-08-22,2023-08-22,株式会社バリ東京,,株式会社,東京都,八王子市,中野山王２丁目８－９,,13,201,1920042,,,,,,,2023-08-22,1,,,,,,0
532,3010105002227,新規,0,2023-08-22,2023-08-22,特定非営利活動法人あーと・もくば,,その他の設立登記法人,東京都,八王子市,上川町３３８９番地３,,13,201,1920151,,,,,,,2023-08-22,1,,,,,アートモクバ,0
537,3010401176575,新規,0,2023-08-22,2023-08-22,興和メディカル株式会社,,株式会社,東京都,港区,東麻布２丁目８番１１号麻布狸穴ナショナルコート３Ｆ,,13,103,1060044,,,,,,,2023-08-22,1,,,,,コウワメディカル,0
538,3010401176690,新規,0,2023-08-22,2023-08-22,株式会社ＷＡＮＮＡＧＯ　ＪＡＰＡＮ,,株式会社,東京都,港区,赤坂４丁目８番１９号赤坂フロントタウン３階,,13,103,1070052,,,,,,,2023-08-22,1,,,,,ワナゴージャパン,0
542,3010403030730,新規,0,2023-08-22,2023-08-22,合同会社ＡＭＯＮＴ１号,,合同会社,東京都,港区,元麻布３丁目１２－３５,,13,103,1060046,,,,,,,2023-08-22,1,,,,,アモントイチゴウ,0
543,3010403030771,新規,0,2023-08-22,2023-08-22,合同会社ＡＫＩ,,合同会社,東京都,港区,赤坂４丁目１４番１４－４３０６号,,13,103,1070052,,,,,,,2023-08-22,1,,,,,エーケーアイ,0
548,3010601063664,新規,0,2023-08-22,2023-08-22,株式会社２４１,,株式会社,東京都,江東区,扇橋２丁目１０－９－１０４,,13,108,1350011,,,,,,,2023-08-22,1,,,,,ニーヨンイチ,0
551,3010701044746,新規,0,2023-08-22,2023-08-22,株式会社福寅サーカス,,株式会社,東京都,品川区,西大井４丁目１３番２４号,,13,109,1400015,,,,,,,2023-08-22,1,,,,,フクトラサーカス,0
553,3011001156447,新規,0,2023-08-22,2023-08-22,株式会社Ｃｏｓ２Ｄ,,株式会社,東京都,目黒区,五本木２丁目５１番１３号カルム学芸大１０４,,13,110,1530053,,,,,,,2023-08-22,1,,,,,コスニード,0
559,3011003017333,新規,0,2023-08-22,2023-08-22,合同会社ＰＬＡＹＬＡＮＤ,,合同会社,東京都,渋谷区,恵比寿西２丁目１９番９号フランセスビル１階,,13,113,1500021,,,,,,,2023-08-22,1,,,,,プレイランド,0
560,3011003017399,新規,0,2023-08-22,2023-08-22,アルベル合同会社,,合同会社,東京都,目黒区,柿の木坂３丁目６－１９,,13,110,1520022,,,,,,,2023-08-22,1,,,,,アルベル,0
563,3011103013397,新規,0,2023-08-22,2023-08-22,合同会社ＩＣＥ,,合同会社,東京都,新宿区,大久保３丁目７番３３－７０３号,,13,104,1690072,,,,,,,2023-08-22,1,,,,,アイス,0
565,3011801042920,新規,0,2023-08-22,2023-08-22,ＨＳ　Ｌｕｍｂｅｒ株式会社,,株式会社,東京都,葛飾区,青戸８丁目７番５号ＫＳ亀有３０３,,13,122,1250062,,,,,,,2023-08-22,1,,,,,エイチエスランバー,0
569,3013101009229,新規,0,2023-08-22,2023-08-22,株式会社ＢＥ‐ＦＬＡＴ,,株式会社,東京都,西多摩郡瑞穂町,大字殿ケ谷６３０番地１,,13,303,1901212,,,,,,,2023-08-22,1,,,,,ビーフラット,0
585,3020003024454,新規,0,2023-08-22,2023-08-22,合同会社ＮＦＬリフォーム,,合同会社,神奈川県,横浜市都筑区,荏田南３丁目２番８－１０４号,,14,118,2240007,,,,,,,2023-08-22,1,,,,,エヌエフエルリフォーム,0
595,3021001079993,新規,0,2023-08-22,2023-08-22,株式会社山崎商い研究所,,株式会社,神奈川県,足柄下郡湯河原町,土肥４丁目８－１７,,14,384,2590303,,,,,,,2023-08-22,1,,,,,ヤマサキアキナイケンキュウジョ,0
596,3021001080002,新規,0,2023-08-22,2023-08-22,株式会社ＡＫｕＡ,,株式会社,神奈川県,藤沢市,鵠沼松が岡２丁目７番１号,,14,205,2510038,,,,,,,2023-08-22,1,,,,,アクア,0
599,3021003013463,新規,0,2023-08-22,2023-08-22,ＳｍｉＲｅ合同会社,,合同会社,神奈川県,相模原市南区,相模台７丁目３３番１１－１号,,14,153,2520321,,,,,,,2023-08-22,1,,,,,スマイル,0
601,3030001155275,新規,0,2023-08-22,2023-08-22,右官株式会社,,株式会社,埼玉県,川口市,大字神戸５４６番地の２１,,11,203,3330832,,,,,,,2023-08-22,1,,,,,ウカン,0
602,3030001155572,新規,0,2023-08-22,2023-08-22,株式会社武州電工,,株式会社,埼玉県,蓮田市,西新宿２丁目１１６番地,,11,238,3490141,,,,,,,2023-08-22,1,,,,,ブシュウデンコウ,0
608,3030003022267,新規,0,2023-08-22,2023-08-22,合同会社かがやか,,合同会社,埼玉県,狭山市,広瀬１丁目６番７号サンライズマンション狭山１０６号室,,11,215,3501319,,,,,,,2023-08-22,1,,,,,カガヤカ,0
613,3040003023165,新規,0,2023-08-22,2023-08-22,華盛合同会社,,合同会社,千葉県,八千代市,八千代台東３丁目１２－３８レオパレス八千代台第２１－２０４号室,,12,221,2760032,,,,,,,2023-08-22,1,,,,,カセイ,0
620,3070001040787,新規,0,2023-08-22,2023-08-22,株式会社イリオ,,株式会社,群馬県,富岡市,田篠１２０番地４,,10,210,3702314,,,,,,,2023-08-22,1,,,,,イリオ,0
622,3080003003031,新規,0,2023-08-22,2023-08-22,合同会社ｒｉｋｋａ,,合同会社,静岡県,藤枝市,南駿河台６丁目１番５－２０６号エンブルエバー南駿河台,,22,214,4260078,,,,,,,2023-08-22,1,,,,,リッカ,0
625,3100001036708,新規,0,2023-08-22,2023-08-22,イング株式会社,,株式会社,長野県,下伊那郡高森町,下市田３１２３番地,,20,403,3993103,,,,,,,2023-08-22,1,,,,,イング,0
634,3120001257236,新規,0,2023-08-22,2023-08-22,株式会社ＧＹ,,株式会社,大阪府,大阪市大正区,三軒家西３丁目４番１６号中山ビル１００２,,27,108,5510001,,,,,,,2023-08-22,1,,,,,ジーワイ,0
635,3120001257401,新規,0,2023-08-22,2023-08-22,株式会社エスネクスト,,株式会社,大阪府,大阪市阿倍野区,阪南町１丁目４６番１７号,,27,119,5450021,,,,,,,2023-08-22,1,,,,,エスネクスト,0
636,3120001257426,新規,0,2023-08-22,2023-08-22,ネクストステップ株式会社,,株式会社,大阪府,大阪市旭区,中宮１丁目１２番１２－２０３号,,27,117,5350003,,,,,,,2023-08-22,1,,,,,ネクストステップ,0
637,3120001257483,新規,0,2023-08-22,2023-08-22,英雄株式会社,,株式会社,大阪府,大阪市中央区,千日前２丁目３番３号ＳＷビル３階３０４号室,,27,128,5420074,,,,,,,2023-08-22,1,,,,,エイユウ,0
638,3120001257491,新規,0,2023-08-22,2023-08-22,株式会社ＴＡＧ　ＬＡＢ,,株式会社,大阪府,大阪市西区,靱本町１丁目２番２号,,27,106,5500004,,,,,,,2023-08-22,1,,,,,タグラボ,0
639,3120001257500,新規,0,2023-08-22,2023-08-22,株式会社ＮＫＧ,,株式会社,大阪府,大阪市北区,中津５丁目８番３－５０４号,,27,127,5310071,,,,,,,2023-08-22,1,,,,,エヌケージー,0
640,3120001257509,新規,0,2023-08-22,2023-08-22,Ｎｉｍｂｌｅ株式会社,,株式会社,大阪府,大阪市中央区,谷町７丁目３番４－２１５号Ｂ,,27,128,5420012,,,,,,,2023-08-22,1,,,,,ニンブル,0
641,3120001257517,新規,0,2023-08-22,2023-08-22,丸井医薬株式会社,,株式会社,大阪府,大阪市中央区,南船場２丁目１２番１号,,27,128,5420081,,,,,,,2023-08-22,1,,,,,マルイイヤク,0
647,3120901047967,新規,0,2023-08-22,2023-08-22,コーシン商事株式会社,,株式会社,大阪府,吹田市,桃山台２丁目３番３－３０４号,,27,205,5650854,,,,,,,2023-08-22,1,,,,,コーシンショウジ,0
649,3122001037279,新規,0,2023-08-22,2023-08-22,株式会社塚本左工,00131604,株式会社,大阪府,八尾市,北本町４丁目６番８号,,27,212,5810802,,,,,,,2023-08-22,1,,,,,ツカモトサコウ,0
655,3140001131307,新規,0,2023-08-22,2023-08-22,株式会社ニュークラム,,株式会社,兵庫県,尼崎市,長洲中通１丁目４番９－１号,,28,202,6600802,,,,,,,2023-08-22,1,,,,,ニュークラム,0
658,3150003003040,新規,0,2023-08-22,2023-08-22,オフィス今川合同会社,,合同会社,奈良県,大和郡山市,櫟枝町１２６番地,,29,203,6391113,,,,,,,2023-08-22,1,,,,,オフィスイマガワ,0
660,3160003002966,新規,0,2023-08-22,2023-08-22,トライイノベーション合同会社,,合同会社,滋賀県,栗東市,北中小路３７０番地８,,25,208,5203037,,,,,,,2023-08-22,1,,,,,トライイノベーション,0
669,3180001157694,新規,0,2023-08-22,2023-08-22,株式会社ＨＴＳ,,株式会社,愛知県,名古屋市昭和区,御器所２丁目１番１号エムズ御器所３階,,23,107,4660051,,,,,,,2023-08-22,1,,,,,エイチティーエス,0
670,3180001157711,新規,0,2023-08-22,2023-08-22,株式会社竹内警備,,株式会社,愛知県,半田市,宮本町６丁目２１５番地の１２,,23,205,4750925,,,,,,,2023-08-22,1,,,,,タケウチケイビ,0
677,3180301037729,新規,0,2023-08-22,2023-08-22,株式会社プロトン,,株式会社,愛知県,安城市,緑町１丁目１７番地９,,23,212,4460055,,,,,,,2023-08-22,1,,,,,プロトン,0
679,3180303005808,新規,0,2023-08-22,2023-08-22,合同会社モンターニュ,,合同会社,愛知県,豊橋市,緑ケ丘２丁目２番地の１,,23,201,4400005,,,,,,,2023-08-22,1,,,,,モンターニュ,0
680,3180305009501,新規,0,2023-08-22,2023-08-22,社会保険労務士法人ＳＭＩＬＥ,,その他の設立登記法人,愛知県,岡崎市,鴨田南町２番地６コスモビル鴨田２０１,,23,202,4442123,,,,,,,2023-08-22,1,,,,,スマイル,0
684,3200003006054,新規,0,2023-08-22,2023-08-22,ＳＳ．ＩＮＴＥＲＮＡＴＩＯＮＡＬ合同会社,,合同会社,岐阜県,安八郡安八町,中須１０６番地グランデ安八Ｂ－５号室,,21,383,5030126,,,,,,,2023-08-22,1,,,,,エスエスインターナショナル,0
691,3240001061964,新規,0,2023-08-22,2023-08-22,株式会社Ｈ’ｓ　Ｎｅｓｔ,,株式会社,広島県,広島市南区,金屋町５番１６号,,34,103,7320825,,,,,,,2023-08-22,1,,,,,エイチズネスト,0
693,3240003006265,新規,0,2023-08-22,2023-08-22,合同会社ＫＡＳＡ,,合同会社,広島県,福山市,神辺町字道上６６７番地４,,34,207,7202104,,,,,,,2023-08-22,1,,,,,,0
702,3290003014263,新規,0,2023-08-22,2023-08-22,Ｒｅｖｉｖａｌ合同会社,,合同会社,福岡県,福岡市中央区,笹丘２丁目８番６号,,40,133,8100034,,,,,,,2023-08-22,1,,,,,リバイバル,0
710,3350003004423,新規,0,2023-08-22,2023-08-22,合同会社ｍｕｔｕ,,合同会社,宮崎県,宮崎市,清武町加納甲１０１６番地３３,,45,201,8891605,,,,,,,2023-08-22,1,,,,,ムツ,0
711,3360001032441,新規,0,2023-08-22,2023-08-22,株式会社ＭＡＥＭＯＲＩ,,株式会社,沖縄県,石垣市,字白保１４３６番地４１,,47,207,9070242,,,,,,,2023-08-22,1,,,,,マエモリ,0
712,3360003013225,新規,0,2023-08-22,2023-08-22,合同会社オプト建創,,合同会社,沖縄県,豊見城市,字饒波３９番地,,47,212,9010211,,,,,,,2023-08-22,1,,,,,オプトケンソウ,0
713,3370001050327,新規,0,2023-08-22,2023-08-22,株式会社Ｆ‐ｐｒｉｚｅ,,株式会社,宮城県,仙台市泉区,鶴が丘２丁目１０－２,,04,105,9813109,,,,,,,2023-08-22,1,,,,,エフプライズ,0
714,3370003006252,新規,0,2023-08-22,2023-08-22,ジャットトレイディング合同会社,,合同会社,宮城県,大崎市,古川中里５丁目３番２７号,,04,215,9896143,,,,,,,2023-08-22,1,,,,,ジャットトレイディング,0
737,3700150119153,新規,0,2023-08-22,2023-08-22,Ｓｈｅｎｚｈｅｎｓｈｉ　Ｑｉｎｇｐｅｎｇ　Ｄｉａｎｚｉ　Ｋｅｊｉ　Ｙｏｕｘｉａｎｇｏｎｇｓｉ,,外国会社等,,,,,,,,ＬｏｎｇｇａｎｇｑｕＢｕｊｉｊｉｅｄａｏＢｕｌｏｎｇｌｕ　２８　ｈａｏＪｉｎｇｙｕａｎＤａｓｈａ　７０６Ａ　Ｓｈｅｎｚｈｅｎ　Ｇｕａｎｇｄｏｎｇ　５１８０００　ＣＮ,,,,,,2023-08-22,1,,,,,シンセンシチンペンデンシカギヨウシェンゴンスー,0
738,3700150119161,新規,0,2023-08-22,2023-08-22,Ｈｕａｎｊｉ　Ｊｕｇｕａｎｇ（Ｆｏｓｈａｎ）Ｅ－ｃｏｍｍｅｒｃｅ　Ｃｏ．，　Ｌｔｄ,,外国会社等,,,,,,,,Ｓｈｉｓｈａｎ　Ｔｏｗｎ，Ｎａｎｈａｉ　Ｄｉｓｔｒｉｃｔ　ｔｈｅ　ｆｏｒｍｅｒ　Ｓｈｉｓｈａｎ　ｆａｒｍ　ｗｏｒｋｓｈｏｐ　Ｑｉｌｉｘｉａｎｇ　５Ｆ　５１６　ＦｏＳｈａｎ　ＧｕａｎｇＤｏｎｇ　５２８２２５　ＣＮ,,,,,,2023-08-22,1,,,,,ホァンジジュイグァンフォーシャンディエンシャンヨウシェンゴンスー,0
739,3700150119186,新規,0,2023-08-22,2023-08-22,Ｇｕａｎｇｚｈｏｕ　Ｙｕｅｙｕａｎ　Ｋｅｊｉ　Ｙｏｕｘｉａｎｇｏｎｇｓｈｉ,,外国会社等,,,,,,,,Ａ５０７，Ｂｕｉｌｄｉｎｇ　１，Ｎａｎｘｉａｎｇ　ｂｒａｎｃｈ　ｒｏａｄ１，Ｇｕａｎｇｚｈｏｕ　Ｅｃｏｎｏｍｉｃ　ａｎｄ　Ｔｅｃｈｎｏｌｏｇｉｃａｌ　ｄｅｖｅｌｏｐｍｅｎｔ　ｚｏｎｅ　Ｇｕａｎｇｚｈｏｕ　Ｇｕａｎｇｄｏｎｇ,,,,,,2023-08-22,1,,,,,グワンジョウユエユエンコージーヨウシエンゴンスー,0
742,4010001237834,新規,0,2023-08-22,2023-08-22,モオモオス株式会社,,株式会社,東京都,中央区,日本橋浜町２丁目４７－１根岸ビル３０１号室,,13,102,1030007,,,,,,,2023-08-22,1,,,,,モオモオス,0
743,4010001237842,新規,0,2023-08-22,2023-08-22,株式会社Ｔｒｉ　Ｆｏｏｄ　Ｓｅｒｖｉｃｅ,,株式会社,東京都,文京区,本郷３丁目３２番５号第２ＫＳビル４階,,13,105,1130033,,,,,,,2023-08-22,1,,,,,トライフードサービス,0
747,4010003041474,新規,0,2023-08-22,2023-08-22,ＳＧＥＴ山武蓄電所合同会社,,合同会社,東京都,千代田区,丸の内３丁目１番１号東京共同会計事務所内,,13,101,1000005,,,,,,,2023-08-22,1,,,,,エスゲットサンムチクデンショ,0
748,4010005037149,新規,0,2023-08-22,2023-08-22,ソーラーパルムホールディングス一般社団法人,,その他の設立登記法人,東京都,中央区,八丁堀４丁目２番１０号ＡＯＪ税理士法人内,,13,102,1040032,,,,,,,2023-08-22,1,,,,,ソーラーパルムホールディングス,0
751,4010103002194,新規,0,2023-08-22,2023-08-22,美楽町合同会社,,合同会社,東京都,八王子市,子安町１丁目４８番９号２０２号室,,13,201,1920904,,,,,,,2023-08-22,1,,,,,ビラクチョウ,0
754,4010401176574,新規,0,2023-08-22,2023-08-22,株式会社リベルテ,,株式会社,東京都,港区,赤坂６丁目１８番１１－３０３号ストーリア赤坂,,13,103,1070052,,,,,,,2023-08-22,1,,,,,リベルテ,0
755,4010401176673,新規,0,2023-08-22,2023-08-22,東京総合アシスト株式会社,,株式会社,東京都,港区,芝浦４丁目９番１８－１３０１号,,13,103,1080023,,,,,,,2023-08-22,1,,,,,トウキョウソウゴウアシスト,0
758,4010403030770,新規,0,2023-08-22,2023-08-22,合同会社サンクタス,,合同会社,東京都,港区,元麻布２丁目１１番３６－６０２号,,13,103,1060046,,,,,,,2023-08-22,1,,,,,サンクタス,0
759,4010403030779,新規,0,2023-08-22,2023-08-22,合同会社ＲＵ．,,合同会社,東京都,港区,新橋５丁目２０番３号,,13,103,1050004,,,,,,,2023-08-22,1,,,,,アールユー,0
761,4010405022444,新規,0,2023-08-22,2023-08-22,Ｍｏｒｉｙａ一般社団法人,,その他の設立登記法人,東京都,港区,西新橋１丁目２２番５号６階,,13,103,1050003,,,,,,,2023-08-22,1,,,,,モリヤ,0
763,4010503007124,新規,0,2023-08-22,2023-08-22,合同会社インバウンド,,合同会社,東京都,台東区,浅草１丁目４２番４号パシフィックコート浅草３１１号,,13,106,1110032,,,,,,,2023-08-22,1,,,,,インバウンド,0
764,4010601063647,新規,0,2023-08-22,2023-08-22,株式会社ユートピア企画,,株式会社,東京都,江東区,新大橋１丁目７番５号,,13,108,1350007,,,,,,,2023-08-22,1,,,,,ユートピアキカク,0
769,4010803004647,新規,0,2023-08-22,2023-08-22,合同会社恩田商店,,合同会社,東京都,大田区,仲六郷３丁目１３番１０号,,13,111,1440055,,,,,,,2023-08-22,1,,,,,オンダショウテン,0
771,4010903008390,新規,0,2023-08-22,2023-08-22,合同会社の間の間,,合同会社,東京都,世田谷区,代田３丁目１４番８号,,13,112,1550033,,,,,,,2023-08-22,1,,,,,ノマノマ,0
780,4011001156512,新規,0,2023-08-22,2023-08-22,株式会社ＷＩＴＨＷＩＴ,,株式会社,東京都,渋谷区,神宮前６丁目２３番４号桑野ビル２階,,13,113,1500001,,,,,,,2023-08-22,1,,,,,ウィズウィット,0
781,4011003017407,新規,0,2023-08-22,2023-08-22,ＥＯＭ合同会社,,合同会社,東京都,渋谷区,神宮前１丁目４－２０－１３０８,,13,113,1500001,,,,,,,2023-08-22,1,,,,,イーオーエム,0
782,4011005010186,新規,0,2023-08-22,2023-08-22,一般社団法人日本外交政策学会,,その他の設立登記法人,東京都,渋谷区,道玄坂１丁目２２番７号,,13,113,1500043,,,,,,,2023-08-22,1,,,,,ニホンガイコウセイサクガッカイ,0
787,4011201024865,新規,0,2023-08-22,2023-08-22,株式会社リプラン・プランニング,,株式会社,東京都,中野区,東中野４丁目４番５号４１７号室,,13,114,1640003,,,,,,,2023-08-22,1,,,,,リプランプランニング,0
790,4011603004028,新規,0,2023-08-22,2023-08-22,ビジョンアシスト合同会社,,合同会社,東京都,練馬区,石神井町８丁目９－２エミキューブ石神井公園２号,,13,120,1770041,,,,,,,2023-08-22,1,,,,,ビジョンアシスト,0
791,4011701026535,新規,0,2023-08-22,2023-08-22,株式会社エクラット,,株式会社,東京都,江戸川区,上一色３丁目１１番１１号,,13,123,1330041,,,,,,,2023-08-22,1,,,,,エクラット,0
808,4020001153147,新規,0,2023-08-22,2023-08-22,ＴＨホールディングス株式会社,,株式会社,神奈川県,横浜市青葉区,荏田西５丁目５番地１ビアス市が尾Ｂ－４１６号,,14,117,2250014,,,,,,,2023-08-22,1,,,,,ティーエイチホールディングス,0
812,4021001079992,新規,0,2023-08-22,2023-08-22,株式会社翔栄商事,,株式会社,神奈川県,相模原市緑区,中沢６１０番地１,,14,151,2520117,,,,,,,2023-08-22,1,,,,,ショウエイショウジ,0
813,4021001080001,新規,0,2023-08-22,2023-08-22,モカリス株式会社,,株式会社,神奈川県,相模原市南区,下溝１３１８番地４－１０２,,14,153,2520335,,,,,,,2023-08-22,1,,,,,モカリス,0
814,4021003013479,新規,0,2023-08-22,2023-08-22,合同会社関口,,合同会社,神奈川県,南足柄市,壗下１００３番地２,,14,217,2500103,,,,,,,2023-08-22,1,,,,,セキグチ,0
821,4030001155316,新規,0,2023-08-22,2023-08-22,株式会社ＡＮＳ,,株式会社,埼玉県,越谷市,大字平方７４番地４,,11,222,3430002,,,,,,,2023-08-22,1,,,,,アンス,0
827,4030003022324,新規,0,2023-08-22,2023-08-22,サプリメイク合同会社,,合同会社,埼玉県,所沢市,和ケ原３丁目２６８番地の４７,,11,208,3591162,,,,,,,2023-08-22,1,,,,,サプリメイク,0
828,4030003022398,新規,0,2023-08-22,2023-08-22,合同会社エントリンク,,合同会社,埼玉県,さいたま市大宮区,宮町２丁目９３番２号,,11,103,3300802,,,,,,,2023-08-22,1,,,,,エントリンク,0
829,4030003022423,新規,0,2023-08-22,2023-08-22,合同会社ＧｒｏｗｔｈＦｉｎａｎｃｅＰａｒｔｎｅｒｓ,,合同会社,埼玉県,ふじみ野市,川崎１丁目２―１２,,11,245,3560001,,,,,,,2023-08-22,1,,,,,グロースファイナンスパートナーズ,0
838,4050003007744,新規,0,2023-08-22,2023-08-22,合同会社Ｆｏｒｗａｒｄ,,合同会社,茨城県,ひたちなか市,勝田泉町１５番６－１２０２号サンクレイドル勝田レジデンス,,08,221,3120046,,,,,,,2023-08-22,1,,,,,フォワード,0
843,4070001040786,新規,0,2023-08-22,2023-08-22,株式会社ヤマイチ・ファーム,,株式会社,群馬県,前橋市,古市町１丁目１１番地３,,10,201,3710844,,,,,,,2023-08-22,1,,,,,ヤマイチファーム,0
855,4110001037786,新規,0,2023-08-22,2023-08-22,株式会社ＳＰＥＣ,,株式会社,新潟県,新潟市中央区,長潟３丁目７番１７号,,15,103,9500932,,,,,,,2023-08-22,1,,,,,スペック,0
869,4120001257235,新規,0,2023-08-22,2023-08-22,株式会社璞成競合,,株式会社,大阪府,大阪市大正区,三軒家西３丁目４番１６号中山ビル１０１１,,27,108,5510001,,,,,,,2023-08-22,1,,,,,ハクセイキョウゴウ,0
870,4120001257516,新規,0,2023-08-22,2023-08-22,グローバルロジスティカ株式会社,,株式会社,大阪府,大阪市鶴見区,横堤３丁目９番５号,,27,124,5380052,,,,,,,2023-08-22,1,,,,,グローバルロジスティカ,0
871,4120001257532,新規,0,2023-08-22,2023-08-22,株式会社アリエススティ,,株式会社,大阪府,大阪市浪速区,敷津西２丁目１３－２,,27,111,5560015,,,,,,,2023-08-22,1,,,,,アリエススティ,0
877,4120003024708,新規,0,2023-08-22,2023-08-22,合同会社ＴＱ,,合同会社,大阪府,大阪市西成区,旭１丁目５－２３－３Ｆ,,27,122,5570032,,,,,,,2023-08-22,1,,,,,ティーキュー,0
878,4120003024732,新規,0,2023-08-22,2023-08-22,ＦＡＭＩＬＹ合同会社,,合同会社,大阪府,大阪市浪速区,立葉２丁目２番２６号,,27,111,5560020,,,,,,,2023-08-22,1,,,,,ファミリー,0
879,4120101068086,新規,0,2023-08-22,2023-08-22,株式会社ＹＣＨ,,株式会社,大阪府,泉南市,岡田１丁目８９番地の６,,27,228,5900531,,,,,,,2023-08-22,1,,,,,ワイシーエイチ,0
880,4120101068094,新規,0,2023-08-22,2023-08-22,株式会社ハウスクレスト,,株式会社,大阪府,羽曳野市,島泉１丁目２１番４号,,27,222,5830881,,,,,,,2023-08-22,1,,,,,ハウスクレスト,0
884,4120903004791,新規,0,2023-08-22,2023-08-22,合同会社ＩＳＩＺＵＥ,,合同会社,大阪府,豊中市,緑丘２丁目５番２号,,27,203,5600002,,,,,,,2023-08-22,1,,,,,イシズエ,0
886,4122001037278,新規,0,2023-08-22,2023-08-22,株式会社マオリ・スクエア,,株式会社,大阪府,東大阪市,横沼町２丁目６番１３－１０２号,,27,227,5770808,,,,,,,2023-08-22,1,,,,,マオリスクエア,0
896,4140001131297,新規,0,2023-08-22,2023-08-22,株式会社神戸エンジニアリング,,株式会社,兵庫県,神戸市中央区,御幸通８丁目１番６号,,28,110,6510087,,,,,,,2023-08-22,1,,,,,コウベエンジニアリング,0
897,4140001131330,新規,0,2023-08-22,2023-08-22,クレシェンド株式会社,,株式会社,兵庫県,西宮市,上大市４丁目１６番３５号,,28,204,6638003,,,,,,,2023-08-22,1,,,,,クレシェンド,0
901,4180001157470,新規,0,2023-08-22,2023-08-22,株式会社ライフウォーク,,株式会社,愛知県,名古屋市北区,志賀町４丁目６０番地の９,,23,103,4620037,,,,,,,2023-08-22,1,,,,,ライフウォーク,0
902,4180001157735,新規,0,2023-08-22,2023-08-22,株式会社ＮｅｘＴ　ｉｎｎｏｖＡＴｉｏｎ,,株式会社,愛知県,名古屋市千種区,千種２丁目２３番６－１００４号,,23,101,4640858,,,,,,,2023-08-22,1,,,,,ネクストイノベーション,0
904,4180003025592,新規,0,2023-08-22,2023-08-22,Ａｒｃｈｅ　Ｎａｒｒ合同会社,,合同会社,愛知県,名古屋市中村区,名駅３丁目４－１０アルティメイト名駅１ｓｔ２階,,23,105,4500002,,,,,,,2023-08-22,1,,,,,アルヒェナール,0
905,4180003025634,新規,0,2023-08-22,2023-08-22,合同会社アズサート,,合同会社,愛知県,名古屋市東区,泉３丁目１７番１０号泉ビル３Ｆ,,23,102,4610001,,,,,,,2023-08-22,1,,,,,アズサート,0
906,4180301037728,新規,0,2023-08-22,2023-08-22,カンセイ株式会社,,株式会社,愛知県,豊田市,加納町市坂１５番地５,,23,211,4700364,,,,,,,2023-08-22,1,,,,,カンセイ,0
908,4190001030676,新規,0,2023-08-22,2023-08-22,株式会社アント,,株式会社,三重県,四日市市,鵜の森２丁目３番１８号－７Ｂ,,24,202,5100074,,,,,,,2023-08-22,1,,,,,アント,0
909,4200001041622,新規,0,2023-08-22,2023-08-22,株式会社Ｋｚ,,株式会社,岐阜県,可児市,長坂４丁目１６６番地,,21,214,5090257,,,,,,,2023-08-22,1,,,,,ケーズ,0
911,4200003006053,新規,0,2023-08-22,2023-08-22,合同会社ピーデーエス,,合同会社,岐阜県,多治見市,白山町３丁目１０７番地サンシャイン白山２０３,,21,204,5070038,,,,,,,2023-08-22,1,,,,,ピーデーエス,0
913,4240001062004,新規,0,2023-08-22,2023-08-22,株式会社不動産マルシェ,,株式会社,広島県,福山市,山手町３丁目４番２０号,,34,207,7200092,,,,,,,2023-08-22,1,,,,,フドウサンマルシェ,0
914,4240001062012,新規,0,2023-08-22,2023-08-22,株式会社野田会計事務所,,株式会社,広島県,広島市東区,山根町２７番１－１４１７号,,34,102,7320048,,,,,,,2023-08-22,1,,,,,ノダカイケイジムショ,0
917,4250003003327,新規,0,2023-08-22,2023-08-22,合同会社ＭＮふくしサポート,,合同会社,山口県,山口市,佐山２０８１番地,,35,203,7540894,,,,,,,2023-08-22,1,,,,,エムエヌフクシサポート,0
925,4290001102746,新規,0,2023-08-22,2023-08-22,株式会社Ｂｅｔｔｙ,,株式会社,福岡県,福岡市中央区,清川２丁目２１－２０－７０６,,40,133,8100005,,,,,,,2023-08-22,1,,,,,ベティー,0
927,4290003014238,新規,0,2023-08-22,2023-08-22,合同会社ゼロワン,,合同会社,福岡県,福岡市博多区,千代４丁目７番８３－５０２号,,40,132,8120044,,,,,,,2023-08-22,1,,,,,ゼロワン,0
929,4290803004487,新規,0,2023-08-22,2023-08-22,合同会社アラパドマ,,合同会社,福岡県,北九州市戸畑区,福柳木１丁目９番１２号,,40,105,8040025,,,,,,,2023-08-22,1,,,,,アラパドマ,0
930,4320001019961,新規,0,2023-08-22,2023-08-22,株式会社Ｓｅｃｏｎｄ,,株式会社,大分県,大分市,羽屋３丁目８番６号,,44,201,8700854,,,,,,,2023-08-22,1,,,,,セカンド,0
934,4330001031172,新規,0,2023-08-22,2023-08-22,羽野建築株式会社,,株式会社,熊本県,熊本市南区,鳶町２丁目９番４５号ステージア１２Ｃ棟１０１号,,43,104,8614135,,,,,,,2023-08-22,1,,,,,ハノケンチク,0
941,4360001032440,新規,0,2023-08-22,2023-08-22,株式会社琉武設備,,株式会社,沖縄県,国頭郡本部町,字浜元６８番地,,47,308,9050216,,,,,,,2023-08-22,1,,,,,リュウブセツビ,0
943,4360003013224,新規,0,2023-08-22,2023-08-22,画竜点睛合同会社,,合同会社,沖縄県,那覇市,牧志１丁目１９番２０－９０４号プレサンスロジェ美栄橋ステーションレーヴ,,47,201,9000013,,,,,,,2023-08-22,1,,,,,ガリョウテンセイ,0
960,4470001019773,新規,0,2023-08-22,2023-08-22,株式会社ハイスタッフサポート,,株式会社,香川県,観音寺市,栄町１丁目４番５５号,,37,205,7680072,,,,,,,2023-08-22,1,,,,,ハイスタッフサポート,0
967,4700150117734,新規,0,2023-08-22,2023-08-22,深セン美智音科技有限責任公司,,外国会社等,,,,,,,,中国深セン市南山区粤海街道大冲社区深南大道９６７６号大冲商務中心（一期）２棟３号楼８０２Ｂ４,00131585,,,,,2023-08-22,1,,,,,シンセンビチオンカギユウゲンセキニンコウシ,0
968,4700150119152,新規,0,2023-08-22,2023-08-22,ＳｈｅｎＺｈｅｎ　ＳｈｕｉＴｉａｎＹｕ　Ｔｒａｄｉｎｇ　Ｃｏ．，Ｌｔｄ,,外国会社等,,,,,,,,Ｒｏｏｍ　６０１，Ｂｕｉｌｄｉｎｇ　５１，Ｈｕａｑｉａｏｙｕａｎ，Ｊｉａｎｓｈｅ　Ｅａｓｔ　Ｒｏａｄ，Ｊｉｎｇｌｏｎｇ　Ｃｏｍｍｕｎｉｔｙ，Ｌｏｎｇｈｕａ　Ｓｔｒｅｅｔ，Ｌｏｎｇｈｕａ　Ｄｉｓｔｒｉｃｔ，Ｓｈｅｎｚｈｅｎ　５１８１０９　ＣＮ,,,,,,2023-08-22,1,,,,,シンセンシュイテンユトレーディングカンパニーリミテッド,0
969,4700150119160,新規,0,2023-08-22,2023-08-22,Ｆｏｓｈａｎ　Ｙｉｅｎｎａ　Ｔｒａｄｉｎｇ　Ｃｏ．，Ｌｔｄ．,,外国会社等,,,,,,,,Ｓｈｉｓｈａｎ　Ｔｏｗｎ，Ｎａｎｈａｉ　Ｄｉｓｔｒｉｃｔ　ｔｈｅ　ｆｏｒｍｅｒ　Ｓｈｉｓｈａｎ　ｆａｒｍ　Ｄａｓｈａｎｇａｎｇ（ｗｏｒｋｓｈｏｐ　ｏｎｅ），ｔｈｅ　６ｔｈ　ＦｏＳｈａｎ　ＧｕａｎｇＤｏｎｇ　５２８２２５　ＣＮ,,,,,,2023-08-22,1,,,,,フォーシャンシイーエンナマオイーヨウシェンゴンスー,0
970,4700150119185,新規,0,2023-08-22,2023-08-22,ＤｏｎｇＧｕａｎＳｈｉ　ＬｉｎｇＭａｎＺｈｉ　Ｅ－Ｃｏｍｍｅｒｃｅ　Ｃｏ．，Ｌｔｄ,,外国会社等,,,,,,,,ｄｏｎｇｋｅｌｕ１ｈａｏｚｏｎｇｓｈｉｊｉｄｉ６ｄｏｎｇ２ｌｏｕ２０６ｓｈｉｊｉｑｕ００００２５ｈａｏ　ｄｏｎｇｇｕａｎｓｈｉｄｏｎｇｃｈｅｎｇｊｉｅｄａｏ　ｓｈｅｎｚｈｅｎ　ｇｕａｎｇｄｏｎｇ　５２３０００　ＣＮ,,,,,,2023-08-22,1,,,,,ドンワンシニンマンジーイーコマースシーオーエルティディ,0
982,5010005037148,新規,0,2023-08-22,2023-08-22,ソーラーアカシアホールディングス一般社団法人,,その他の設立登記法人,東京都,中央区,八丁堀４丁目２番１０号ＡＯＪ税理士法人内,,13,102,1040032,,,,,,,2023-08-22,1,,,,,ソーラーアカシアホールディングス,0
988,5010401176549,新規,0,2023-08-22,2023-08-22,株式会社ＮｅｏｏＮ,,株式会社,東京都,港区,麻布十番２丁目１８－４,,13,103,1060045,,,,,,,2023-08-22,1,,,,,ネオン,0
989,5010401176672,新規,0,2023-08-22,2023-08-22,株式会社ＭＡＣＲＯキャピタル,,株式会社,東京都,港区,麻布十番２丁目５番１０－１００２号,,13,103,1060045,,,,,,,2023-08-22,1,,,,,マクロキャピタル,0
990,5010401176689,新規,0,2023-08-22,2023-08-22,Ｒｅａｌ　ｈｕｎｔ株式会社,,株式会社,東京都,港区,赤坂２丁目２１番４号天翔赤坂ＡＮＮＥＸビル２０３号室,,13,103,1070052,,,,,,,2023-08-22,1,,,,,リアルハント,0
991,5010401176697,新規,0,2023-08-22,2023-08-22,株式会社ｂｌｕｅ　ｓｔｏｎｅ,,株式会社,東京都,港区,南青山６丁目１３－４－５０８,,13,103,1070062,,,,,,,2023-08-22,1,,,,,ブルーストーン,0
994,5010503007131,新規,0,2023-08-22,2023-08-22,合同会社Ｒｉｖｅｒｓｉｄｅ　Ｃｏｎｓｕｌｔｉｎｇ,,合同会社,東京都,台東区,蔵前２丁目２番８－１００３号,,13,106,1110051,,,,,,,2023-08-22,1,,,,,リバーサイドコンサルティング,0
999,5010601063662,新規,0,2023-08-22,2023-08-22,株式会社ハイパイン,,株式会社,東京都,江東区,亀戸２丁目３７番１１号福島ビル３階,,13,108,1360071,,,,,,,2023-08-22,1,,,,,ハイパイン,0
1000,5010603010290,新規,0,2023-08-22,2023-08-22,海田豊合同会社,,合同会社,東京都,墨田区,向島４丁目３番８号グレイス向島２０１Ｆ号室,,13,107,1310033,,,,,,,2023-08-22,1,,,,,カイダユタ,0
1007,5010803004646,新規,0,2023-08-22,2023-08-22,カケルグリーン合同会社,,合同会社,東京都,大田区,西糀谷２丁目２２番５号ダイシュウＩＩ４０１,00131600,13,111,1440034,,,,,,,2023-08-22,1,,,,,カケルグリーン,0
1013,5011001156404,新規,0,2023-08-22,2023-08-22,株式会社ＵＴＡ,,株式会社,東京都,渋谷区,神宮前６丁目２３番４号桑野ビル２Ｆ,,13,113,1500001,,,,,,,2023-08-22,1,,,,,ウタ,0
1014,5011001156453,新規,0,2023-08-22,2023-08-22,ＣＲＥＳＴＡ株式会社,,株式会社,東京都,渋谷区,神宮前３丁目１２－１,,13,113,1500001,,,,,,,2023-08-22,1,,,,,クレスタ,0
1015,5011001156461,新規,0,2023-08-22,2023-08-22,株式会社ＨｏｌｏＳｐａｃｅ,,株式会社,東京都,渋谷区,道玄坂１丁目１０番８号渋谷道玄坂東急ビル２Ｆ－Ｃ,,13,113,1500043,,,,,,,2023-08-22,1,,,,,ホロスペース,0
1016,5011001156478,新規,0,2023-08-22,2023-08-22,株式会社ＳＡＭＰＯ,,株式会社,東京都,渋谷区,道玄坂１丁目１０番８号渋谷道玄坂東急ビル２Ｆ－Ｃ,,13,113,1500043,,,,,,,2023-08-22,1,,,,,サンポ,0
1017,5011001156486,新規,0,2023-08-22,2023-08-22,株式会社中野コミュハブネットワーク,,株式会社,東京都,目黒区,東山２丁目１２番１０号,,13,110,1530043,,,,,,,2023-08-22,1,,,,,ナカノコミュハブネットワーク,0
1020,5011005010185,新規,0,2023-08-22,2023-08-22,一般社団法人ＣＩＰＳＨ２０２３国際会議サポート,,その他の設立登記法人,東京都,目黒区,下目黒２丁目２１番５号アーバンハイツ２０２,,13,110,1530064,,,,,,,2023-08-22,1,,,,,シーイーピーエスエイチニセンニジューサンコクサイカイギサポート,0
1021,5011005010193,新規,0,2023-08-22,2023-08-22,一般社団法人ＢＶ．ＬＥＡＧＵＥ,,その他の設立登記法人,東京都,渋谷区,神宮前５丁目２６番１５－１０３号,,13,113,1500001,,,,,,,2023-08-22,1,,,,,ビーブイリーグ,0
1026,5011101104072,新規,0,2023-08-22,2023-08-22,株式会社ＯＮＹＸ,,株式会社,東京都,新宿区,歌舞伎町２丁目３３番１号第６トーアビル２階,,13,104,1600021,,,,,,,2023-08-22,1,,,,,オニキス,0
1030,5011603004027,新規,0,2023-08-22,2023-08-22,合同会社ストローブ,,合同会社,東京都,練馬区,石神井町１丁目６番８号,,13,120,1770041,,,,,,,2023-08-22,1,,,,,ストローブ,0
1034,5011801042927,新規,0,2023-08-22,2023-08-22,株式会社カンガルーポイント,,株式会社,東京都,足立区,千住橋戸町１－２０ＡＱＵＡＶＩＳＴＡ１４０８,,13,121,1200038,,,,,,,2023-08-22,1,,,,,カンガルーポイント,0
1040,5012403006122,新規,0,2023-08-22,2023-08-22,シークス合同会社,,合同会社,東京都,武蔵野市,境２丁目１１番２０号,,13,203,1800022,,,,,,,2023-08-22,1,,,,,シークス,0
1055,5020001153121,新規,0,2023-08-22,2023-08-22,ＹＫＣｏｎｆｉｄｅｎｃｅ株式会社,,株式会社,神奈川県,川崎市川崎区,駅前本町１１番地２川崎フロンティアビル４階,,14,131,2100007,,,,,,,2023-08-22,1,,,,,ワイケーコンフィデンス,0
1056,5020001153146,新規,0,2023-08-22,2023-08-22,株式会社Ｄｉｓｈ　Ｂｅｌｌ,,株式会社,神奈川県,横浜市港北区,高田東１丁目４２番１０号,,14,109,2230065,,,,,,,2023-08-22,1,,,,,ディッシュベル,0
1065,5021001079983,新規,0,2023-08-22,2023-08-22,株式会社Ｔｈｅ　Ｂｌａｃｋ　ｅｙｅ　ｔａｉｌｏｒ,,株式会社,神奈川県,大和市,中央林間西２丁目９番１０号,,14,213,2420008,,,,,,,2023-08-22,1,,,,,ザブラックアイテイラー,0
1066,5021001080009,新規,0,2023-08-22,2023-08-22,株式会社リバーバック,,株式会社,神奈川県,鎌倉市,上町屋６５８番地,,14,204,2470065,,,,,,,2023-08-22,1,,,,,リバーバック,0
1067,5021003013494,新規,0,2023-08-22,2023-08-22,グッドネイバーカマクラ合同会社,,合同会社,神奈川県,鎌倉市,坂ノ下３－７ＷＩＴＨＫＡＭＡＫＵＲＡ内,,14,204,2480021,,,,,,,2023-08-22,1,,,,,グッドネイバーカマクラ,0
1071,5021005012882,新規,0,2023-08-22,2023-08-22,一般社団法人ＴＩＣ　Ｌａｂ,,その他の設立登記法人,神奈川県,藤沢市,鵠沼藤が谷３丁目７番２９号,00131597,14,205,2510031,,,,,,,2023-08-22,1,,,,,ティーアイシーラボ,0
1078,5030001155240,新規,0,2023-08-22,2023-08-22,キムラベッツケアー株式会社,,株式会社,埼玉県,越谷市,千間台東２丁目２２番９,,11,222,3430042,,,,,,,2023-08-22,1,,,,,キムラベッツケアー,0
1081,5030003022372,新規,0,2023-08-22,2023-08-22,Ｌｅｇａｃｙ合同会社,,合同会社,埼玉県,川口市,仲町１５－２１,,11,203,3320022,,,,,,,2023-08-22,1,,,,,レガシー,0
1090,5040001129788,新規,0,2023-08-22,2023-08-22,株式会社Ｃｒａｆｔ,,株式会社,千葉県,八千代市,ゆりのき台８丁目１８番地６ウィンディヒルズ３０２号,,12,221,2760042,,,,,,,2023-08-22,1,,,,,クラフト,0
1094,5040005022097,新規,0,2023-08-22,2023-08-22,一般社団法人ヤングライフジャパン,,その他の設立登記法人,千葉県,いすみ市,岬町和泉１１５０－２,,12,238,2994503,,,,,,,2023-08-22,1,,,,,ヤングライフジャパン,0
1095,5050001053335,新規,0,2023-08-22,2023-08-22,株式会社旭グロース,,株式会社,茨城県,水戸市,高田町１２７番地,,08,201,3190321,,,,,,,2023-08-22,1,,,,,アサヒグロース,0
1098,5050003007743,新規,0,2023-08-22,2023-08-22,ふじぼうえき合同会社,,合同会社,茨城県,猿島郡境町,大字若林２４４４番地３,,08,546,3060417,,,,,,,2023-08-22,1,,,,,フジボウエキ,0
1104,5080401026672,新規,0,2023-08-22,2023-08-22,株式会社ポップチャイルド,,株式会社,静岡県,浜松市中区,海老塚２丁目２１番２８号２階,,22,131,4328033,,,,,,,2023-08-22,1,,,,,ポップチャイルド,0
1108,5110001037785,新規,0,2023-08-22,2023-08-22,株式会社高橋農園,00131598,株式会社,新潟県,南魚沼市,新堀１４８番地,,15,226,9497136,,,,,,,2023-08-22,1,,,,,タカハシノウエン,0
1116,5120001257234,新規,0,2023-08-22,2023-08-22,福昇株式会社,,株式会社,大阪府,大阪市東成区,深江北３丁目４番２１号エクラ深江橋２１５Ｃ,,27,115,5370001,,,,,,,2023-08-22,1,,,,,フクショウ,0
1117,5120001257408,新規,0,2023-08-22,2023-08-22,ＪＣＭ株式会社,,株式会社,大阪府,大阪市中央区,内平野町１丁目３番７号,,27,128,5400037,,,,,,,2023-08-22,1,,,,,ジェイシーエム,0
1118,5120001257473,新規,0,2023-08-22,2023-08-22,株式会社ヴェルデ,,株式会社,大阪府,大阪市鶴見区,浜２丁目５番５号パークリッジ現代４０２号,,27,124,5380035,,,,,,,2023-08-22,1,,,,,ヴェルデ,0
1119,5120001257481,新規,0,2023-08-22,2023-08-22,株式会社ＴＲＹ　ＲＩＺＥ,,株式会社,大阪府,枚方市,藤阪西町４番１－５０６号,,27,210,5730158,,,,,,,2023-08-22,1,,,,,トライライズ,0
1120,5120001257507,新規,0,2023-08-22,2023-08-22,株式会社エムラック,,株式会社,大阪府,寝屋川市,郡元町８番４号,,27,215,5720083,,,,,,,2023-08-22,1,,,,,エムラック,0
1124,5120101068085,新規,0,2023-08-22,2023-08-22,株式会社ハイパーメディア,,株式会社,大阪府,松原市,天美我堂２丁目４５６番地の１,,27,217,5800026,,,,,,,2023-08-22,1,,,,,ハイパーメディア,0
1130,5122001037293,新規,0,2023-08-22,2023-08-22,株式会社ルミナス,,株式会社,大阪府,大東市,氷野３丁目３番１７－４０５号,,27,218,5740062,,,,,,,2023-08-22,1,,,,,ルミナス,0
1139,5140001131288,新規,0,2023-08-22,2023-08-22,Ｉ．Ｇ．ＷＯＲＫＳ株式会社,,株式会社,兵庫県,神戸市中央区,磯上通８丁目１番２９号カサベラビルＣ＆Ｍ４０３号室,,28,110,6510086,,,,,,,2023-08-22,1,,,,,アイジーワークス,0
1140,5140001131296,新規,0,2023-08-22,2023-08-22,アーバンハウス株式会社,,株式会社,兵庫県,姫路市,網干区大江島寺前町１０９番地,,28,201,6711232,,,,,,,2023-08-22,1,,,,,アーバンハウス,0
1141,5140001131305,新規,0,2023-08-22,2023-08-22,株式会社ミキライフサポート,,株式会社,兵庫県,加東市,木梨４４２番地１０６,,28,228,6731461,,,,,,,2023-08-22,1,,,,,ミキライフサポート,0
1142,5140001131313,新規,0,2023-08-22,2023-08-22,株式会社サンテリア,,株式会社,兵庫県,伊丹市,昆陽南４丁目５番３－３０５号,,28,207,6640888,,,,,,,2023-08-22,1,,,,,サンテリア,0
1145,5160001025273,新規,0,2023-08-22,2023-08-22,エントリー株式会社,,株式会社,滋賀県,大津市,下阪本２丁目１４－１２－３０１,,25,201,5200105,,,,,,,2023-08-22,1,,,,,エントリー,0
1146,5160003002964,新規,0,2023-08-22,2023-08-22,合同会社にっぱち,,合同会社,滋賀県,大津市,苗鹿３丁目６番３号オリーブ３Ｆ,,25,201,5200102,,,,,,,2023-08-22,1,,,,,ニッパチ,0
1150,5180003025625,新規,0,2023-08-22,2023-08-22,Ｗ．Ｓ．ＴＡＲ．合同会社,,合同会社,愛知県,名古屋市中区,栄５丁目３番１６号,,23,106,4600008,,,,,,,2023-08-22,1,,,,,ダブルスター,0
1151,5180003025641,新規,0,2023-08-22,2023-08-22,日本健診マネジメント合同会社,,合同会社,愛知県,名古屋市港区,惟信町５丁目１２番地,,23,111,4550823,,,,,,,2023-08-22,1,,,,,ニホンケンシンマネジメント,0
1153,5180301037727,新規,0,2023-08-22,2023-08-22,株式会社Ｎｏａ,,株式会社,愛知県,知立市,谷田町西２丁目３番地１２,,23,225,4720014,,,,,,,2023-08-22,1,,,,,ノア,0
1155,5200001041621,新規,0,2023-08-22,2023-08-22,株式会社清廉,,株式会社,岐阜県,岐阜市,銀町８番地　０３ＩＧビル地下１階,,21,201,5008874,,,,,,,2023-08-22,1,,,,,セイレン,0
1156,5200005013518,新規,0,2023-08-22,2023-08-22,一般社団法人グリーンウッドワーク・ラボ,,その他の設立登記法人,岐阜県,養老郡養老町,岩道４７０番地３４,,21,341,5031321,,,,,,,2023-08-22,1,,,,,グリーンウッドワークラボ,0
1159,5220001025564,新規,0,2023-08-22,2023-08-22,株式会社鼎恵,,株式会社,石川県,加賀市,別所町漆器団地２３,,17,206,9220274,,,,,,,2023-08-22,1,,,,,カナエ,0
1164,5250001020249,新規,0,2023-08-22,2023-08-22,ＭＳホールディングス株式会社,,株式会社,山口県,防府市,大字浜方字鶴浜３８５番地２,,35,206,7470833,,,,,,,2023-08-22,1,,,,,エムエスホールディングス,0
1168,5260001038249,新規,0,2023-08-22,2023-08-22,Ｊａｐａｎ　Ａｒｔ　Ｆｌｏｗｅｒｓ株式会社,,株式会社,岡山県,岡山市北区,問屋町１５－１０１問屋町テラス１Ｆ,,33,101,7000977,,,,,,,2023-08-22,1,,,,,ジャパンアートフラワーズ,0
1173,5290001102712,新規,0,2023-08-22,2023-08-22,ＴＯＲＩＺＥＮホールディングス株式会社,,株式会社,福岡県,福岡市西区,今宿青木字松本３１番地の１,,40,135,8190162,,,,,,,2023-08-22,1,,,,,トリゼンホールディングス,0
1183,5320001019960,新規,0,2023-08-22,2023-08-22,株式会社刻壱工房,,株式会社,大分県,大分市,北鶴崎１丁目５番１８号,,44,201,8700102,,,,,,,2023-08-22,1,,,,,コクイチコウボウ,0
1184,5320003004151,新規,0,2023-08-22,2023-08-22,ＬＲ合同会社,,合同会社,大分県,臼杵市,大字前田２１６６―１,,44,206,8750061,,,,,,,2023-08-22,1,,,,,エルアール,0
1192,5340005009642,新規,0,2023-08-22,2023-08-22,特定非営利活動法人ｆ分の１ゆらぎ,,その他の設立登記法人,鹿児島県,指宿市,東方７２５８番地４,,46,210,8910404,,,,,,,2023-08-22,1,,,,,エフブンノイチユラギ,0
1198,5360003013223,新規,0,2023-08-22,2023-08-22,合同会社タイトウプラン,,合同会社,沖縄県,那覇市,首里金城町４丁目１４－１エンゼルハイム首里金城町３２０,,47,201,9030815,,,,,,,2023-08-22,1,,,,,タイトウプラン,0
1201,5370001050325,新規,0,2023-08-22,2023-08-22,ＨＡＵＷＥ株式会社,,株式会社,宮城県,仙台市太白区,大野田５丁目３２－５ルイーネ富沢１０２,,04,104,9820014,,,,,,,2023-08-22,1,,,,,ハウウィ,0
1218,5700150119151,新規,0,2023-08-22,2023-08-22,Ｇｕａｎｇｚｈｏｕ　Ｂｏｓｈｉ　Ｔｒａｄｉｎｇ　Ｃｏ．，Ｌｔｄ．,,外国会社等,,,,,,,,Ｒｏｏｍ　２１９　Ｎｏ．１　Ｆｅｎｇｑｉｎｇｙｕａｎ　４ｔｈ　Ｓｔｒｅｅｔ　Ｆｅｎｇｈｕａｎｇ　Ｃｉｔｙ　Ｙｏｎｇｎｉｎｇ　Ｓｔｒｅｅｔ　Ｚｅｎｇｃｈｅｎｇ　Ｄｉｓｔｒｉｃｔ　Ｇｕａｎｇｚｈｏｕ　５１１３４０　ＣＮ,,,,,,2023-08-22,1,,,,,コウシュウボシトレーディングカンパニーリミテッド,0
1219,5700150119168,新規,0,2023-08-22,2023-08-22,Ｇｕａｎｇｚｈｏｕ　Ｉｂｉｎｇｏ　Ｔｅｃｈｎｏｌｏｇｙ　Ｃｏ．，Ｌｔｄ．,,外国会社等,,,,,,,,Ｎｏ．１０６　Ｆｅｎｇｚｅ　Ｅａｓｔ　Ｒｏａｄ，Ｎａｎｓｈａ　Ｄｉｓｔｒｉｃｔ，Ｇｕａｎｇｚｈｏｕ　Ｃｉｔｙ，Ｂｕｉｌｄｉｎｇ　Ｎｏ．１（Ｓｅｌｆ－ｃｏｍｐｉｌｅｄ），Ｘ１３０１－Ｅ０１２２３４（Ｃｌｕｓｔｅｒ　Ｒｅｇｉｓｔｒａｔｉｏｎ）（ＪＭ）．,,,,,,2023-08-22,1,,,,,グワンジョウアイビングオコージーヨウシエンゴンスー,0
1220,5700150119184,新規,0,2023-08-22,2023-08-22,Ｑｕａｎｚｈｏｕ　Ｈａｎｙｕ　Ｔｒａｄｉｎｇ　Ｃｏ，ＬＴＤ,,外国会社等,,,,,,,,３１１１，３ｒｄ　Ｆｌｏｏｒ，１１２９－１１　Ｓｏｕｔｈ　Ｒｉｎｇ　Ｒｏａｄ　Ｑｕａｎｚｈｏｕ　ｃｉｔｙ，Ｆｕｊｉａｎ　ｐｒｏｖｉｎｃｅ　Ｌｉｃｈｅｎｇ　ｄｉｓｔｒｉｃｔ　Ｃｈｉｎａ　３６２０００,,,,,,2023-08-22,1,,,,,チュエンジョウイーションマオイーヨウシエンゴスー,0
1230,6010001237832,新規,0,2023-08-22,2023-08-22,ＮＹＣＩ６株式会社,,株式会社,東京都,中央区,新川１丁目６番１１号,,13,102,1040033,,,,,,,2023-08-22,1,,,,,エヌワイシーアイシックス,0
1231,6010001237881,新規,0,2023-08-22,2023-08-22,株式会社アミダス,,株式会社,東京都,中央区,日本橋茅場町２丁目８番１号ＢＲＩＣＫＧＡＴＥ茅場町,,13,102,1030025,,,,,,,2023-08-22,1,,,,,アミダス,0
1235,6010005037147,新規,0,2023-08-22,2023-08-22,ソーラーアイビーホールディングス一般社団法人,,その他の設立登記法人,東京都,中央区,八丁堀４丁目２番１０号ＡＯＪ税理士法人内,,13,102,1040032,,,,,,,2023-08-22,1,,,,,ソーラーアイビーホールディングス,0
1244,6010503007056,新規,0,2023-08-22,2023-08-22,合同会社シャインズ,,合同会社,東京都,台東区,上野３丁目５番１０号コルソエテルノ２０３,,13,106,1100005,,,,,,,2023-08-22,1,,,,,,0
1245,6010601063653,新規,0,2023-08-22,2023-08-22,株式会社ＪｏｙｎＴ,,株式会社,東京都,墨田区,江東橋４丁目１６番４－４０１号,,13,107,1300022,,,,,,,2023-08-22,1,,,,,ジョイント,0
1247,6010603010323,新規,0,2023-08-22,2023-08-22,合同会社Ｓｕｔｉｗｏ　Ｔｅｃｈｎｏｌｏｇｉｅｓ,,合同会社,東京都,江東区,東雲１丁目９－４－３０１１,,13,108,1350062,,,,,,,2023-08-22,1,,,,,スチヲテクノロジーズ,0
1249,6010803004645,新規,0,2023-08-22,2023-08-22,合同会社Ｐｌａｙｆｕｌ　Ｘ,,合同会社,東京都,大田区,山王１丁目２５番１６号,,13,111,1430023,,,,,,,2023-08-22,1,,,,,プレイフルエックス,0
1263,6011001156444,新規,0,2023-08-22,2023-08-22,株式会社Ｅｖｅｒｙｂｅｙｏｎｄ,,株式会社,東京都,渋谷区,上原２丁目４７番２号ＳＵ２４７２－２０１,,13,113,1510064,,,,,,,2023-08-22,1,,,,,エブリービヨンド,0
1264,6011001156519,新規,0,2023-08-22,2023-08-22,株式会社やくぜんや,,株式会社,東京都,渋谷区,神宮前６丁目２３番４号桑野ビル２階,,13,113,1500001,,,,,,,2023-08-22,1,,,,,ヤクゼンヤ,0
1266,6011005010176,新規,0,2023-08-22,2023-08-22,一般社団法人無制限あそび,,その他の設立登記法人,東京都,渋谷区,広尾３丁目２番１－８０４号,,13,113,1500012,,,,,,,2023-08-22,1,,,,,ムセイゲンアソビ,0
1267,6011103013403,新規,0,2023-08-22,2023-08-22,合同会社遠藤総合研究所,,合同会社,東京都,新宿区,西新宿３丁目３番１３号西新宿水間ビル６階,,13,104,1600023,,,,,,,2023-08-22,1,,,,,エンドウソウゴウケンキュウジョ,0
1276,6011801042926,新規,0,2023-08-22,2023-08-22,株式会社ショーテック,,株式会社,東京都,葛飾区,立石８丁目１５番７号,,13,122,1240012,,,,,,,2023-08-22,1,,,,,ショーテック,0
1288,6020001152915,新規,0,2023-08-22,2023-08-22,株式会社ナカムラ工業,,株式会社,神奈川県,川崎市宮前区,有馬１丁目７番１０ー２０２号ステージ鷺沼,,14,136,2160003,,,,,,,2023-08-22,1,,,,,ナカムラコウギョウ,0
1294,6020005016091,新規,0,2023-08-22,2023-08-22,一般社団法人Ｓｉｐｐｏ　Ｐｅｅｅｎ　Ｐｒｏｊｅｃｔ,,その他の設立登記法人,神奈川県,川崎市川崎区,浅田２丁目１番２５号,,14,131,2100847,,,,,,,2023-08-22,1,,,,,シッポピーンプロジェクト,0
1297,6021001079982,新規,0,2023-08-22,2023-08-22,株式会社マルラニ,,株式会社,神奈川県,藤沢市,藤が岡３丁目２４番７～５１５号,,14,205,2510004,,,,,,,2023-08-22,1,,,,,マルラニ,0
1298,6021001079999,新規,0,2023-08-22,2023-08-22,株式会社トモココットンハウス,,株式会社,神奈川県,平塚市,花水台３９番３９号１０２号,,14,203,2540824,,,,,,,2023-08-22,1,,,,,トモココットンハウス,0
1299,6021003013485,新規,0,2023-08-22,2023-08-22,合同会社ラムダアートワークス,,合同会社,神奈川県,茅ヶ崎市,東海岸南４丁目７番６号,,14,207,2530054,,,,,,,2023-08-22,1,,,,,ラムダアートワークス,0
1306,6030001155330,新規,0,2023-08-22,2023-08-22,株式会社クリニカルＷＨＩＴＥケア,,株式会社,埼玉県,さいたま市大宮区,東町２丁目１３６番５号バウハウスＤ号室,,11,103,3300841,,,,,,,2023-08-22,1,,,,,クリニカルホワイトケア,0
1321,6100001036713,新規,0,2023-08-22,2023-08-22,株式会社ステラ,,株式会社,長野県,長野市,大字栗田２１５２番地,,20,201,3800921,,,,,,,2023-08-22,1,,,,,ステラ,0
1332,6120001257357,新規,0,2023-08-22,2023-08-22,天海株式会社,,株式会社,大阪府,大阪市大正区,三軒家西３丁目４番１６号中山ビル１０１４,,27,108,5510001,,,,,,,2023-08-22,1,,,,,テンカイ,0
1333,6120001257448,新規,0,2023-08-22,2023-08-22,株式会社蛭井経営労務研究所,,株式会社,大阪府,大阪市中央区,谷町４丁目８番１２－１５０５号,,27,128,5400012,,,,,,,2023-08-22,1,,,,,ヒルイケイエイロウムケンキュウショ,0
1334,6120001257480,新規,0,2023-08-22,2023-08-22,ｐｒｉｎｃｉｐｌｅｄｒｉｖｅ株式会社,,株式会社,大阪府,大阪市北区,大深町３番１号グランフロント大阪北館ナレッジキャピタル,,27,127,5300011,,,,,,,2023-08-22,1,,,,,プリンシプルドライブ,0
1335,6120001257497,新規,0,2023-08-22,2023-08-22,株式会社シックデュード,,株式会社,大阪府,大阪市城東区,森之宮２丁目６番１１０４号,,27,118,5360025,,,,,,,2023-08-22,1,,,,,シックデュード,0
1338,6120003024747,新規,0,2023-08-22,2023-08-22,合同会社タカクラ・アンド・アソシエイツ,,合同会社,大阪府,大阪市中央区,南船場２丁目３－６－２Ｆ,,27,128,5420081,,,,,,,2023-08-22,1,,,,,タカクラアンドアソシエイツ,0
1343,6120101068084,新規,0,2023-08-22,2023-08-22,株式会社アトラス,,株式会社,大阪府,富田林市,津々山台２丁目２番７号,,27,214,5840086,,,,,,,2023-08-22,1,,,,,アトラス,0
1345,6122001037276,新規,0,2023-08-22,2023-08-22,株式会社メカ・エービス,,株式会社,大阪府,東大阪市,衣摺６丁目４番４号,00131599,27,227,5770827,,,,,,,2023-08-22,1,,,,,メカエービス,0
1347,6130001074875,新規,0,2023-08-22,2023-08-22,大京株式会社,,株式会社,京都府,京都市南区,吉祥院新田弐ノ段町１０４番地の１,,26,107,6018317,,,,,,,2023-08-22,1,,,,,ダイキョウ,0
1355,6140001131295,新規,0,2023-08-22,2023-08-22,ビスエレメント株式会社,,株式会社,兵庫県,神戸市中央区,下山手通２丁目１３番３号建創ビル９Ｆ,,28,110,6500011,,,,,,,2023-08-22,1,,,,,ビスエレメント,0
1356,6140001131312,新規,0,2023-08-22,2023-08-22,株式会社ジュラ,,株式会社,兵庫県,姫路市,広畑区蒲田５１４番地,,28,201,6711102,,,,,,,2023-08-22,1,,,,,ジュラ,0
1361,6150001026668,新規,0,2023-08-22,2023-08-22,株式会社Ｅ．Ｃ．Ｐグループ,,株式会社,奈良県,桜井市,大字阿部６８０番地の２５,,29,206,6330054,,,,,,,2023-08-22,1,,,,,イーシーピーグループ,0
1363,6160001025280,新規,0,2023-08-22,2023-08-22,株式会社海青社,,株式会社,滋賀県,大津市,桜野町１丁目２０番２１号,,25,201,5200026,,,,,,,2023-08-22,1,,,,,カイセイシャ,0
1367,6180001157683,新規,0,2023-08-22,2023-08-22,株式会社ホーメストＭＩＲＡＩホールディングス,,株式会社,愛知県,一宮市,城崎通７丁目１４番地１,,23,203,4910866,,,,,,,2023-08-22,1,,,,,ホーメストミライホールディングス,0
1368,6180001157717,新規,0,2023-08-22,2023-08-22,Ｎ‐ＦＬＯＷ株式会社,,株式会社,愛知県,名古屋市北区,垣戸町２丁目１４番地の４,,23,103,4620867,,,,,,,2023-08-22,1,,,,,エヌフロー,0
1369,6180001157725,新規,0,2023-08-22,2023-08-22,株式会社あいのくら,,株式会社,愛知県,長久手市,武蔵塚１３０７番地ヴァンヴェール長久手２０２号,00131596,23,238,4801121,,,,,,,2023-08-22,1,,,,,アイノクラ,0
1370,6180001157733,新規,0,2023-08-22,2023-08-22,株式会社ＹＭＤ,,株式会社,愛知県,稲沢市,平和町西光坊海東阿原２５番地,,23,220,4901314,,,,,,,2023-08-22,1,,,,,ワイエムディ,0
1374,6180003025459,新規,0,2023-08-22,2023-08-22,合同会社ドキュメントプラス,,合同会社,愛知県,名古屋市中区,錦１丁目１７－１３名興ビルディング２Ｆ,,23,106,4600003,,,,,,,2023-08-22,1,,,,,ドキュメントプラス,0
1378,6180301037726,新規,0,2023-08-22,2023-08-22,株式会社ひまわり,,株式会社,愛知県,安城市,住吉町１丁目６番１１号,,23,212,4460072,,,,,,,2023-08-22,1,,,,,ヒマワリ,0
1379,6180301037734,新規,0,2023-08-22,2023-08-22,株式会社もちぷ,,株式会社,愛知県,岡崎市,美合町字大新田２番地１,,23,202,4440802,,,,,,,2023-08-22,1,,,,,モチプ,0
1385,6190003004420,新規,0,2023-08-22,2023-08-22,エムケイコンサルタント合同会社,,合同会社,三重県,津市,白山町二本木３６４－１,,24,201,5152602,,,,,,,2023-08-22,1,,,,,エムケイコンサルタント,0
1408,6290801029798,新規,0,2023-08-22,2023-08-22,まさくに株式会社,,株式会社,福岡県,北九州市小倉北区,都１丁目１４番５号,,40,106,8030834,,,,,,,2023-08-22,1,,,,,マサクニ,0
1424,6360003013222,新規,0,2023-08-22,2023-08-22,合同会社電計サービス,,合同会社,沖縄県,石垣市,字平得３４５番地１,,47,207,9070003,,,,,,,2023-08-22,1,,,,,デンケイサービス,0
1430,6370001050324,新規,0,2023-08-22,2023-08-22,株式会社Ａｒｄｏｒｅ,,株式会社,宮城県,柴田郡柴田町,大字船岡字並松２０番地２１,,04,323,9891606,,,,,,,2023-08-22,1,,,,,アルドーレ,0
1440,6390001017354,新規,0,2023-08-22,2023-08-22,ＦｉｆｔｙＢｅｌｌ株式会社,,株式会社,山形県,鶴岡市,小淀川字谷地田１２８番地３,,06,203,9970853,,,,,,,2023-08-22,1,,,,,フィフティーベル,0
1452,6430003015351,新規,0,2023-08-22,2023-08-22,極彩合同会社,,合同会社,北海道,虻田郡倶知安町,北四条西４丁目６番地４７,,01,400,0440054,,,,,,,2023-08-22,1,,,,,ゴクサイ,0
1457,6700150119150,新規,0,2023-08-22,2023-08-22,深セン市藏九電子科技有限公司,,外国会社等,,,,,,,,中国深セン市龍崗区平湖街道輔城＿社区工業区Ａ３棟宿舎１０３,00131584,,,,,2023-08-22,1,,,,,シンセンシゾウキュウデンシカギユウゲンコウシ,0
1458,6700150119159,新規,0,2023-08-22,2023-08-22,ｈｕｂｅｉｌｏｎｇｄａｑｉｙｅｇｕａｎｌｉｙｏｕｘｉａｎｇｏｎｇｓｉ,,外国会社等,,,,,,,,Ｄａｑｉｎｇｘｉｌｕ　３８ｈａｏ　ｆａｎｃｈｅｎｇｑｕ　ｘｉａｎｇｙａｎｇｓｈｉ　４４１０００　ＣＮ,,,,,,2023-08-22,1,,,,,フゥベイロンダーチーイエグァンリーヨウシェンゴンスー,0
1459,6700150119167,新規,0,2023-08-22,2023-08-22,Ｇｕａｎｇｚｈｏｕ　Ｙｕ　Ｓｈｅｎｇ　ｅｎｖｉｒｏｎｍｅｎｔａｌ　ｐｒｏｔｅｃｔｉｏｎ　ｍａｔｅｒｉａｌｓ　Ｃｏ．，ＬＴＤ,,外国会社等,,,,,,,,Ｒｏｏｍ　１４０９，Ｎｏ．９１　Ｋｅｆｅｎｇ　Ｒｏａｄ，Ｇｕａｎｇｚｈｏｕ　Ｈｉｇｈ－ｔｅｃｈ　Ｉｎｄｕｓｔｒｉａｌ　Ｄｅｖｅｌｏｐｍｅｎｔ　Ｚｏｎｅ,,,,,,2023-08-22,1,,,,,グワンジョウシーイーションフアンバオツァイリャオヨウシエンゴンスー,0
1469,7010001237880,新規,0,2023-08-22,2023-08-22,株式会社フルサポ補助金,,株式会社,東京都,中央区,銀座１丁目２２番１１号銀座大竹ビジデンス２Ｆ,,13,102,1040061,,,,,,,2023-08-22,1,,,,,フルサポホジョキン,0
1471,7010003041463,新規,0,2023-08-22,2023-08-22,合同会社パザパ,,合同会社,東京都,文京区,根津２丁目８番１号,,13,105,1130031,,,,,,,2023-08-22,1,,,,,パザパ,0
1472,7010005037146,新規,0,2023-08-22,2023-08-22,スズハリソーラーホールディングス一般社団法人,,その他の設立登記法人,東京都,中央区,八丁堀４丁目２番１０号ＡＯＪ税理士法人内,,13,102,1040032,,,,,,,2023-08-22,1,,,,,スズハリソーラーホールディングス,0
1477,7010401176539,新規,0,2023-08-22,2023-08-22,株式会社ＷＨＹＭＥ,,株式会社,東京都,港区,新橋５丁目１２－１１,,13,103,1050004,,,,,,,2023-08-22,1,,,,,ワイミー,0
1478,7010401176670,新規,0,2023-08-22,2023-08-22,ＮＯＶＡＬＩＸ　ＪＡＰＡＮ株式会社,,株式会社,東京都,港区,東麻布１丁目２３番５号,,13,103,1060044,,,,,,,2023-08-22,1,,,,,ノバリックスジャパン,0
1479,7010401176695,新規,0,2023-08-22,2023-08-22,株式会社セールスプロ,,株式会社,東京都,港区,芝５丁目２７－３ＭＢＣ・Ａ－９,,13,103,1080014,,,,,,,2023-08-22,1,,,,,セールスプロ,0
1481,7010601063644,新規,0,2023-08-22,2023-08-22,株式会社ＳＵＮＮＴＥＸ,,株式会社,東京都,江東区,大島８丁目２８番２４－６２２号,,13,108,1360072,,,,,,,2023-08-22,1,,,,,サンテックス,0
1482,7010601063660,新規,0,2023-08-22,2023-08-22,ワイエーエス株式会社,,株式会社,東京都,江東区,北砂１丁目３番５１－９０２号,,13,108,1360073,,,,,,,2023-08-22,1,,,,,ワイエーエス,0
1483,7010603010322,新規,0,2023-08-22,2023-08-22,合同会社ＤＹＨ,,合同会社,東京都,墨田区,立川１丁目１７－７デイジーヘルド６０８,,13,107,1300023,,,,,,,2023-08-22,1,,,,,ディーワイエイチ,0
1486,7010701044742,新規,0,2023-08-22,2023-08-22,株式会社滲ム,,株式会社,東京都,品川区,旗の台４丁目１－６ＮＥＸＴ旗の台７０１,,13,109,1420064,,,,,,,2023-08-22,1,,,,,ニジム,0
1493,7010801034271,新規,0,2023-08-22,2023-08-22,株式会社コネクト,,株式会社,東京都,大田区,池上６丁目７番９号池上セントラルビル１０３,,13,111,1460082,,,,,,,2023-08-22,1,,,,,コネクト,0
1496,7010903008396,新規,0,2023-08-22,2023-08-22,合同会社ＳＴＥＰ　ＦＷ,,合同会社,東京都,世田谷区,大原１丁目３４番１０号パークコート大原２０１,,13,112,1560041,,,,,,,2023-08-22,1,,,,,ステップエフダブリュー,0
1503,7011001156468,新規,0,2023-08-22,2023-08-22,株式会社ＨＯＮＮＥＴＥ,,株式会社,東京都,渋谷区,恵比寿西１丁目３１番１４号,,13,113,1500021,,,,,,,2023-08-22,1,,,,,オネット,0
1504,7011001156476,新規,0,2023-08-22,2023-08-22,株式会社みずいろ,,株式会社,東京都,渋谷区,富ヶ谷１丁目６番８号４Ｆ,,13,113,1510063,,,,,,,2023-08-22,1,,,,,ミズイロ,0
1505,7011001156484,新規,0,2023-08-22,2023-08-22,サッポロ不動産投資顧問株式会社,,株式会社,東京都,渋谷区,恵比寿４丁目２０番７号,,13,113,1500013,,,,,,,2023-08-22,1,,,,,サッポロフドウサントウシコモン,0
1506,7011003017387,新規,0,2023-08-22,2023-08-22,合同会社ＹＪ,,合同会社,東京都,渋谷区,恵比寿１丁目２２番１９号,,13,113,1500013,,,,,,,2023-08-22,1,,,,,ワイジェー,0
1507,7011003017395,新規,0,2023-08-22,2023-08-22,トラスナー合同会社,,合同会社,東京都,渋谷区,神泉町１０番１５号,,13,113,1500045,,,,,,,2023-08-22,1,,,,,トラスナー,0
1508,7011003017404,新規,0,2023-08-22,2023-08-22,合同会社アイデアエンジン,,合同会社,東京都,渋谷区,渋谷２丁目１９－１５宮益坂ビルディング６０９,,13,113,1500002,,,,,,,2023-08-22,1,,,,,アイデアエンジン,0
1509,7011003017412,新規,0,2023-08-22,2023-08-22,合同会社ＦＩＧＪＡＭ,,合同会社,東京都,渋谷区,神宮前６丁目２３番４号桑野ビル２階,,13,113,1500001,,,,,,,2023-08-22,1,,,,,フィグジャム,0
1514,7011103013393,新規,0,2023-08-22,2023-08-22,合同会社ＫＴプランニング,,合同会社,東京都,新宿区,西新宿３丁目７番２６号ハイネスロワイヤル７０９,,13,104,1600023,,,,,,,2023-08-22,1,,,,,ケーティープランニング,0
1521,7011601027069,新規,0,2023-08-22,2023-08-22,株式会社ｈｅｅｂｅｅ,,株式会社,東京都,練馬区,下石神井６丁目３番１０号,,13,120,1770042,,,,,,,2023-08-22,1,,,,,ヒービー,0
1532,7020001153053,新規,0,2023-08-22,2023-08-22,株式会社高山,,株式会社,神奈川県,横浜市南区,東蒔田町１９番地１６,,14,105,2320045,,,,,,,2023-08-22,1,,,,,タカヤマ,0
1533,7020001153152,新規,0,2023-08-22,2023-08-22,株式会社ＵＭＩ　ＹＯＫＯＨＡＭＡ,,株式会社,神奈川県,横浜市港北区,新羽町１４６４番地２,,14,109,2230057,,,,,,,2023-08-22,1,,,,,ユーエムアイヨコハマ,0
1538,7021001079899,新規,0,2023-08-22,2023-08-22,株式会社ＵＰＲＩＳＩＮＧ,,株式会社,神奈川県,茅ヶ崎市,下寺尾１７７０－３４,,14,207,2530081,,,,,,,2023-08-22,1,,,,,アップライジング,0
1539,7021001079965,新規,0,2023-08-22,2023-08-22,株式会社Ｂｏｎｄ　Ｌｉｆｅ,,株式会社,神奈川県,厚木市,愛甲東１丁目６－１５山下ビル３０２号室,,14,212,2430027,,,,,,,2023-08-22,1,,,,,ボンドライフ,0
1540,7021003013484,新規,0,2023-08-22,2023-08-22,合同会社未来コーポレーション,,合同会社,神奈川県,秦野市,戸川１２２番地の４３,,14,211,2591306,,,,,,,2023-08-22,1,,,,,ミライコーポレーション,0
1547,7030001155288,新規,0,2023-08-22,2023-08-22,株式会社ユープラント,,株式会社,埼玉県,戸田市,下前２丁目９番１８号ＭＫハイツ１０１号室,,11,224,3350016,,,,,,,2023-08-22,1,,,,,ユープラント,0
1548,7030001155387,新規,0,2023-08-22,2023-08-22,株式会社Ｖｉ‐ｊｏｕｌｅ,,株式会社,埼玉県,さいたま市見沼区,東大宮５丁目４３番地１,,11,104,3370051,,,,,,,2023-08-22,1,,,,,ヴィジュール,0
1549,7030001155676,新規,0,2023-08-22,2023-08-22,株式会社スミヨシテック,,株式会社,埼玉県,加須市,南篠崎１丁目８番９号,,11,210,3470017,,,,,,,2023-08-22,1,,,,,スミヨシテック,0
1558,7040003023161,新規,0,2023-08-22,2023-08-22,桜笑くｒｅｓｏｒｔ合同会社,,合同会社,千葉県,安房郡鋸南町,保田２３６番地２０,,12,463,2991902,,,,,,,2023-08-22,1,,,,,サクラサクリゾート,0
1561,7060001036279,新規,0,2023-08-22,2023-08-22,宇賀神建設株式会社,,株式会社,栃木県,下都賀郡壬生町,若草町３番１３号,,09,361,3210205,,,,,,,2023-08-22,1,,,,,ウガジンセンセツ,0
1579,7120001257414,新規,0,2023-08-22,2023-08-22,株式会社リーンカーネーション,,株式会社,大阪府,大阪市北区,梅田１丁目２番２号大阪駅前第２ビル１２－１２,,27,127,5300001,,,,,,,2023-08-22,1,,,,,リーンカーネーション,0
1582,7120003024746,新規,0,2023-08-22,2023-08-22,合同会社ＡｒｔＧＺ,,合同会社,大阪府,大阪市西淀川区,御幣島４丁目１２番－１７号,,27,113,5550012,,,,,,,2023-08-22,1,,,,,アートジーズ,0
1586,7122001037275,新規,0,2023-08-22,2023-08-22,株式会社肥後吉,,株式会社,大阪府,東大阪市,上石切町１丁目７番２５号,,27,227,5798012,,,,,,,2023-08-22,1,,,,,ヒゴヨシ,0
1592,7140001131253,新規,0,2023-08-22,2023-08-22,株式会社Ｋ２,,株式会社,兵庫県,神戸市垂水区,舞多聞西６丁目１０番１６号,,28,108,6550051,,,,,,,2023-08-22,1,,,,,ケイトゥー,0
1593,7140001131286,新規,0,2023-08-22,2023-08-22,株式会社ｃｒｅａｔｉｖｅ　ｆｏｒｇｅ,,株式会社,兵庫県,西宮市,本町７番１５号,,28,204,6620914,,,,,,,2023-08-22,1,,,,,クリエイティブフォージ,0
1594,7140001131311,新規,0,2023-08-22,2023-08-22,株式会社福合,,株式会社,兵庫県,川西市,多田院多田所町１番１号,,28,217,6660127,,,,,,,2023-08-22,1,,,,,フクアイ,0
1595,7140001131328,新規,0,2023-08-22,2023-08-22,株式会社総合ソリューション,,株式会社,兵庫県,神戸市東灘区,御影中町３丁目２番４－３４０７号,,28,101,6580054,,,,,,,2023-08-22,1,,,,,ソウゴウソリューション,0
1602,7140003019455,新規,0,2023-08-22,2023-08-22,合同会社Ｒｕｎａ,,合同会社,兵庫県,明石市,大久保町山手台４丁目１４３番地,,28,203,6740056,,,,,,,2023-08-22,1,,,,,ルナ,0
1603,7140003019463,新規,0,2023-08-22,2023-08-22,合同会社おかめプラン福祉事務所,,合同会社,兵庫県,尼崎市,西昆陽１丁目６番１６号フラットハイツ２０５号室,,28,202,6610047,,,,,,,2023-08-22,1,,,,,オカメプランフクシジムショ,0
1609,7160005011219,新規,0,2023-08-22,2023-08-22,一般社団法人あそびとまなび保育・教育研究会,,その他の設立登記法人,滋賀県,高島市,マキノ町石庭８３番地６,,25,212,5201835,,,,,,,2023-08-22,1,,,,,アソビトマナビホイクキョウイクケンキュウカイ,0
1617,7180001157682,新規,0,2023-08-22,2023-08-22,ＬＣプロ株式会社,,株式会社,愛知県,日進市,香久山１丁目５０６番地８,,23,230,4700134,,,,,,,2023-08-22,1,,,,,エルシープロ,0
1618,7180001157716,新規,0,2023-08-22,2023-08-22,株式会社ＡＲＭＹ,,株式会社,愛知県,東海市,富貴ノ台２丁目６８番地,,23,222,4760014,,,,,,,2023-08-22,1,,,,,アーミー,0
1623,7180003025648,新規,0,2023-08-22,2023-08-22,ユキマキ倉庫合同会社,,合同会社,愛知県,あま市,森３丁目３番地８,,23,237,4901107,,,,,,,2023-08-22,1,,,,,ユキマキソウコ,0
1628,7180301037725,新規,0,2023-08-22,2023-08-22,株式会社ＣＯＳＭＥ　ＤＵ　ＫＤＣ,,株式会社,愛知県,西尾市,住崎町流１番地３,,23,213,4450876,,,,,,,2023-08-22,1,,,,,コスメデケーディーシー,0
1629,7180301037733,新規,0,2023-08-22,2023-08-22,株式会社はぐくみサポート,,株式会社,愛知県,豊田市,井上町６丁目１４９番地１１,,23,211,4700372,,,,,,,2023-08-22,1,,,,,ハグクミサポート,0
1634,7190001030681,新規,0,2023-08-22,2023-08-22,Ｌｉｆｅ　Ｃｏｕｒｔ株式会社,,株式会社,三重県,津市,長岡町１２１２番地４６,,24,201,5140064,,,,,,,2023-08-22,1,,,,,ライフコート,0
1639,7210003001661,新規,0,2023-08-22,2023-08-22,合同会社ＴＷＩＮＳ,,合同会社,福井県,坂井市,坂井町大味２８－４０甲,,18,210,9190547,,,,,,,2023-08-22,1,,,,,ツインズ,0
1641,7240001062026,新規,0,2023-08-22,2023-08-22,株式会社ＨＦ不動産,,株式会社,広島県,広島市中区,八丁堀４番１８号,,34,101,7300013,,,,,,,2023-08-22,1,,,,,エイチエフフドウサン,0
1643,7260005011266,新規,0,2023-08-22,2023-08-22,一般社団法人Ａｉ‐ｃａｒｅ,,その他の設立登記法人,岡山県,岡山市南区,福富西１丁目２番１３号,,33,104,7028031,,,,,,,2023-08-22,1,,,,,アイケア,0
1653,7290005019109,新規,0,2023-08-22,2023-08-22,一般社団法人グリーンコープ在宅福祉ワーカーズ・コレクティブきらめき,,その他の設立登記法人,福岡県,福岡市博多区,博多駅前１丁目５番１号博多大博通りビルディング１０階,,40,132,8120011,,,,,,,2023-08-22,1,,,,,グリーンコープザイタクフクシワーカーズコレクティブキラメキ,0
1660,7360001032446,新規,0,2023-08-22,2023-08-22,株式会社ＡＬＧＯＳ,,株式会社,沖縄県,那覇市,久茂地２丁目１７－１８・１Ｆ,,47,201,9000015,,,,,,,2023-08-22,1,,,,,アルゴス,0
1663,7370001050323,新規,0,2023-08-22,2023-08-22,株式会社ネクステップ,,株式会社,宮城県,多賀城市,笠神４丁目２番３５号,,04,209,9850831,,,,,,,2023-08-22,1,,,,,ネクステップ,0
1665,7370003006257,新規,0,2023-08-22,2023-08-22,合同会社森林付箋,,合同会社,宮城県,仙台市青葉区,本町１丁目５番２８号カーニープレイス仙台駅前通内,,04,101,9800014,,,,,,,2023-08-22,1,,,,,シンリンフセン,0
1673,7430003015367,新規,0,2023-08-22,2023-08-22,合同会社バンビ,,合同会社,北海道,余市郡余市町,栄町３９８番地５１,,01,408,0460001,,,,,,,2023-08-22,1,,,,,バンビ,0
1676,7500005008634,新規,0,2023-08-22,2023-08-22,一般社団法人コード・フォー・イマバリ,,その他の設立登記法人,愛媛県,今治市,本町５丁目６番１１号,,38,202,7940018,,,,,,,2023-08-22,1,,,,,コードフォーイマバリ,0
1677,7700150059255,新規,0,2023-08-22,2015-10-09,福岡県建設業労働保険事務組合,,その他,福岡県,福岡市博多区,博多駅東３丁目１４－１８福岡建設会館　３Ｆ,,40,132,8120013,,,,,,,2015-10-09,1,,,,,フクオカケンケンセツギヨウロウドウホケンジムクミアイ,0
1679,7700150118267,新規,0,2023-08-22,2023-08-22,福清市隆洋網絡科技発展有限公司,,外国会社等,,,,,,,,中国福建省福州市福清市陽下街道奎嶺村下嶺尾１１７号,,,,,,2023-08-22,1,,,,,フクセイシリュウヨウモウラクカギハッテンユウゲンコウシ,0
1680,7700150119158,新規,0,2023-08-22,2023-08-22,ＤＯＮＧＧＵＡＮ　ＰＡＩＦＡＮ　ＥＬＥＣＴＲＯＮＩＣ　ＴＥＣＨＮＯＬＯＧＹ　ＣＯ．，ＬＴＤ,,外国会社等,,,,,,,,ＨｕａｎｇｊｉａｎｇｚｈｅｎＬｏｎｇｊｉａｎｔｉａｎｘｉｎｗｅｉｓａｎｘｉａｎｇ　２ｈａｏ　２０１ｓｈｉ　ｄｏｎｇｇｕａｎｓｈｉ　ｇｕａｎｇｄｏｎｇｓｈｅｎｇ　５２３０００　ＣＮ,,,,,,2023-08-22,1,,,,,トンカンパイファンイレクトゥロニックテクナロジーカンパニーリミテッド,0
1681,7700150119166,新規,0,2023-08-22,2023-08-22,Ｎｉｎｇｂｏ　Ｈａｉｓｈｕｈｕａｘｉｎｙｉｃｈｅｎｇ　Ｔｒａｄｅ　ｃｏ．ｌｔｄ,,外国会社等,,,,,,,,ＮＯ．６　ＮｉａｎＪｉｕ　Ｓｔ，Ｒｏｏｍ　３０２　Ｈａｉｓｈｕ　Ｄｉｓｔｒｉｃｔ　ＺｈｅＪｉａｎｇ　ＮｉｎｇＢｏ　３１５０１０　ＣＮ,,,,,,2023-08-22,1,,,,,ニンボーハイシューフワーシンイーチョンマオイーヨウシエンゴンスー,0
1682,7700150119190,新規,0,2023-08-22,2023-08-22,ＳｈｅｎＺｈｅｎＳｈｉ　ＹｉｎＨａｎｇＺｈｅ　Ｔｅｃｈｎｏｌｏｇｙ　ｃｏ．，ＬＴＤ,,外国会社等,,,,,,,,１Ｆ，３７ｈａｏ，Ｓｈａｈｅ　Ｒｄ，Ｈｅｎｇｇａｎｇ　Ｓｔｒｅｅｔ，Ｌｏｎｇｇａｎｇ　Ｄｉｓｔｒｉｃｔ，Ｓｈｅｎｚｈｅｎ　Ｃｉｔｙ，Ｇｕａｎｇｄｏｎｇ　Ｐｒｏｖｉｎｃｅ，Ｃｈｉｎａ,,,,,,2023-08-22,1,,,,,シェンジェンシーインハンジョーコージーヨウシエンゴンスー,0
1687,8010001237896,新規,0,2023-08-22,2023-08-22,株式会社Ｊ‐ＳＴＡＲ　Ｅｎｖｉｒｏｎｍｅｎｔ,,株式会社,東京都,千代田区,丸の内３丁目４番１号新国際ビル６階,,13,101,1000005,,,,,,,2023-08-22,1,,,,,ジェイスターエンバイロメント,0
1689,8010003041462,新規,0,2023-08-22,2023-08-22,はこべら合同会社,,合同会社,東京都,千代田区,一ツ橋２丁目６番３号アクシスインベストメントアドバイザーズ株式会社内,,13,101,1010003,,,,,,,2023-08-22,1,,,,,ハコベラ,0
1690,8010003041479,新規,0,2023-08-22,2023-08-22,ＳＧＥＴ高松蓄電所合同会社,,合同会社,東京都,千代田区,丸の内３丁目１番１号東京共同会計事務所内,,13,101,1000005,,,,,,,2023-08-22,1,,,,,エスゲットタカマツチクデンショ,0
1692,8010005037153,新規,0,2023-08-22,2023-08-22,一般社団法人ＯＮＳＥＮ,,その他の設立登記法人,東京都,千代田区,丸の内３丁目１番１号東京共同会計事務所内,,13,101,1000005,,,,,,,2023-08-22,1,,,,,オンセン,0
1699,8010401176694,新規,0,2023-08-22,2023-08-22,株式会社Ｃｌｏｕｄｉｉ,,株式会社,東京都,港区,六本木１丁目４番５号,,13,103,1060032,,,,,,,2023-08-22,1,,,,,クラウディ,0
1702,8010405022399,新規,0,2023-08-22,2023-08-22,一般社団法人浜松駒場三宿,,その他の設立登記法人,東京都,港区,西新橋１丁目１６番４号,,13,103,1050003,,,,,,,2023-08-22,1,,,,,ハママツコマバミシュク,0
1703,8010405022432,新規,0,2023-08-22,2023-08-22,西淀川物流特定目的会社,,その他の設立登記法人,東京都,港区,元赤坂１丁目１番７－８０７号,,13,103,1070051,,,,,,,2023-08-22,1,,,,,ニシヨドガワブツリュウ,0
1704,8010501050923,新規,0,2023-08-22,2023-08-22,東唐株式会社,,株式会社,東京都,台東区,台東１丁目２４番９号ブライト秋葉原Ｂ１階,,13,106,1100016,,,,,,,2023-08-22,1,,,,,トウドウ,0
1705,8010601063651,新規,0,2023-08-22,2023-08-22,株式会社ＫＮ,,株式会社,東京都,江東区,大島１丁目２番１サンライズタワー１９０２号,,13,108,1360072,,,,,,,2023-08-22,1,,,,,ケイエヌ,0
1706,8010603010321,新規,0,2023-08-22,2023-08-22,合同会社ＡＣＲＥ,,合同会社,東京都,江東区,越中島２丁目１２番２号,,13,108,1350044,,,,,,,2023-08-22,1,,,,,エーカー,0
1709,8010705003529,新規,0,2023-08-22,2023-08-22,一般社団法人事業承継信託推進協会,,その他の設立登記法人,東京都,品川区,戸越５丁目１８番１６号２階,,13,109,1420041,,,,,,,2023-08-22,1,,,,,ジギョウショウケイシンタクスイシンキョウカイ,0
1717,8011001156426,新規,0,2023-08-22,2023-08-22,株式会社ＰＥＲＳ,,株式会社,東京都,渋谷区,渋谷２丁目２－１７ＴｒａｎｃｅＷＯＲＫＳ青山ビル３Ｆ,,13,113,1500002,,,,,,,2023-08-22,1,,,,,パース,0
1718,8011001156475,新規,0,2023-08-22,2023-08-22,磐城キャピタル株式会社,,株式会社,東京都,渋谷区,恵比寿西２丁目１９番９号フランセスビル１階リージャス代官山ビジネスセンター１０３号室,,13,113,1500021,,,,,,,2023-08-22,1,,,,,イワキキャピタル,0
1719,8011001156491,新規,0,2023-08-22,2023-08-22,カナラス株式会社,,株式会社,東京都,渋谷区,渋谷１丁目１番３号アミーホール４Ｆ,,13,113,1500002,,,,,,,2023-08-22,1,,,,,カナラス,0
1720,8011001156533,新規,0,2023-08-22,2023-08-22,株式会社３ｃｍａｒｔ,,株式会社,東京都,渋谷区,渋谷２丁目１９－１５宮益坂ビルディング６０９,,13,113,1500002,,,,,,,2023-08-22,1,,,,,スリーシーマート,0
1726,8011003017403,新規,0,2023-08-22,2023-08-22,合同会社ひがしみや,,合同会社,東京都,渋谷区,道玄坂１丁目１０番８号,,13,113,1500043,,,,,,,2023-08-22,1,,,,,ヒガシミヤ,0
1727,8011103013401,新規,0,2023-08-22,2023-08-22,合同会社イワウシー,,合同会社,東京都,新宿区,西新宿３丁目３番１３号西新宿水間ビル６階,,13,104,1600023,,,,,,,2023-08-22,1,,,,,イワウシー,0
1728,8011401025387,新規,0,2023-08-22,2023-08-22,株式会社ＳＭＩＬＥ　ＣＵＲＶＥ,,株式会社,東京都,板橋区,中台２丁目３７番１３号,,13,119,1740064,,,,,,,2023-08-22,1,,,,,スマイルカーブ,0
1730,8011505002571,新規,0,2023-08-22,2023-08-22,特定非営利活動法人北区もりあげ隊,,その他の設立登記法人,東京都,北区,滝野川７丁目１１番８号パレスタカナミ２階,,13,117,1140023,,,,,,,2023-08-22,1,,,,,キタクモリアゲタイ,0
1734,8011803005796,新規,0,2023-08-22,2023-08-22,ＤＩＡＬＩ　ＡＳＩＡ合同会社,,合同会社,東京都,足立区,梅田２丁目９番５号,,13,121,1230851,,,,,,,2023-08-22,1,,,,,デイリエイシア,0
1748,8020001153135,新規,0,2023-08-22,2023-08-22,株式会社ＬＥＡＰ,,株式会社,神奈川県,横浜市港北区,新横浜２丁目１４－８オフィス新横浜７０２,,14,109,2220033,,,,,,,2023-08-22,1,,,,,リープ,0
1756,8020003024466,新規,0,2023-08-22,2023-08-22,合同会社ＢｒａｖｅＨｏｍｅ,,合同会社,神奈川県,川崎市中原区,小杉町３丁目２５３番１号オーガスタ武蔵小杉３０１号,,14,133,2110063,,,,,,,2023-08-22,1,,,,,ブレイブホーム,0
1758,8021001080006,新規,0,2023-08-22,2023-08-22,株式会社フォループの森,,株式会社,神奈川県,相模原市南区,古淵２丁目１８番３号山政ビル１Ｆ,,14,153,2520344,,,,,,,2023-08-22,1,,,,,フォループノモリ,0
1762,8030001155493,新規,0,2023-08-22,2023-08-22,株式会社みやび,,株式会社,埼玉県,さいたま市浦和区,岸町３丁目１５番１０－３号,,11,107,3300064,,,,,,,2023-08-22,1,,,,,ミヤビ,0
1768,8040001129785,新規,0,2023-08-22,2023-08-22,株式会社シャイニングスマイル,,株式会社,千葉県,鎌ケ谷市,南初富４丁目１８－６２－２０６,,12,224,2730123,,,,,,,2023-08-22,1,,,,,シャイニングスマイル,0
1772,8050001053340,新規,0,2023-08-22,2023-08-22,株式会社Ｋａｎｋａ,,株式会社,茨城県,つくば市,島名１１２１番地２（香取台Ａ４０街区１２）,,08,220,3002655,,,,,,,2023-08-22,1,,,,,カンカ,0
1777,8080101024172,新規,0,2023-08-22,2023-08-22,株式会社９１１ＧＡＲＡＧＥ,,株式会社,静岡県,富士市,津田２４７番地の５,,22,210,4170034,,,,,,,2023-08-22,1,,,,,キュウイチイチガレージ,0
1800,8120001257405,新規,0,2023-08-22,2023-08-22,株式会社ＦＯＣＵＳ,,株式会社,大阪府,大阪市都島区,片町２丁目７番１１号京橋ビューレジデンス６０１号,,27,102,5340025,,,,,,,2023-08-22,1,,,,,フォーカス,0
1801,8120001257479,新規,0,2023-08-22,2023-08-22,株式会社ｎｏｍａｄ’ｓ,,株式会社,大阪府,大阪市東住吉区,矢田１丁目２６番７号ＵＩＩＴビル矢田２０２号室,,27,121,5460023,,,,,,,2023-08-22,1,,,,,ノマヅ,0
1802,8120001257520,新規,0,2023-08-22,2023-08-22,株式会社エレクトロ,,株式会社,大阪府,大阪市北区,豊崎３丁目１５番５号ＴＫビル２Ｆ,,27,127,5310072,,,,,,,2023-08-22,1,,,,,エレクトロ,0
1803,8120001257529,新規,0,2023-08-22,2023-08-22,株式会社ｎａｎｏ　ｓｍｉｌｅ,,株式会社,大阪府,大阪市中央区,北久宝寺町２丁目１番１０号ＳＤ船場ビル８階,,27,128,5410057,,,,,,,2023-08-22,1,,,,,ナノスマイル,0
1804,8120101068009,新規,0,2023-08-22,2023-08-22,株式会社ＮＥＸＴ,,株式会社,大阪府,貝塚市,麻生中５５４番地１１,,27,208,5970081,,,,,,,2023-08-22,1,,,,,ネクスト,0
1805,8120101068058,新規,0,2023-08-22,2023-08-22,株式会社和楽,,株式会社,大阪府,泉佐野市,長滝３７９０－２,,27,213,5980034,,,,,,,2023-08-22,1,,,,,ワラク,0
1806,8120101068090,新規,0,2023-08-22,2023-08-22,株式会社樹工業,,株式会社,大阪府,藤井寺市,林６丁目６番２２号,,27,226,5830007,,,,,,,2023-08-22,1,,,,,イツキコウギョウ,0
1814,8130001074989,新規,0,2023-08-22,2023-08-22,株式会社バリューアレンジメント,,株式会社,京都府,京都市東山区,清水寺門前産寧坂北入清水三丁目３２３番地４,,26,105,6050000,,,,,,,2023-08-22,1,,,,,バリューアレンジメント,0
1815,8130001075005,新規,0,2023-08-22,2023-08-22,株式会社ＪＵＳＴ　ｉＤＥＡ,,株式会社,京都府,木津川市,相楽川ノ尻２７番地２２,,26,214,6190222,,,,,,,2023-08-22,1,,,,,ジャストアイデア,0
1816,8130001075021,新規,0,2023-08-22,2023-08-22,株式会社ｈｕｓ,,株式会社,京都府,京都市北区,小山下初音町３５番地３,,26,101,6038173,,,,,,,2023-08-22,1,,,,,フース,0
1818,8130003008912,新規,0,2023-08-22,2023-08-22,合同会社ＨＩＲＩＮ,,合同会社,京都府,木津川市,城山台１丁目１番地２９,,26,214,6190218,,,,,,,2023-08-22,1,,,,,ヒリン,0
1830,8140001131335,新規,0,2023-08-22,2023-08-22,ＬＵＭＢＥＲ　ＦＩＶＥ株式会社,,株式会社,兵庫県,姫路市,西今宿１丁目２番２－２０２号,,28,201,6700061,,,,,,,2023-08-22,1,,,,,ランバーファイブ,0
1835,8180001157715,新規,0,2023-08-22,2023-08-22,株式会社サンオフィス,,株式会社,愛知県,名古屋市緑区,鳴海町字伝治山１番地の２,,23,114,4580844,,,,,,,2023-08-22,1,,,,,サンオフィス,0
1836,8180001157731,新規,0,2023-08-22,2023-08-22,株式会社おぺねっと,,株式会社,愛知県,名古屋市中川区,富田町大字千音寺字粉諸２２７４番地の３,,23,110,4540971,,,,,,,2023-08-22,1,,,,,オペネット,0
1842,8180301037724,新規,0,2023-08-22,2023-08-22,株式会社ＷＩＬＬコンサルティング,,株式会社,愛知県,安城市,三河安城町１丁目１０番地３マックビル２階Ｉ号室,00131602,23,212,4460056,,,,,,,2023-08-22,1,,,,,ウィルコンサルティング,0
1843,8190001030680,新規,0,2023-08-22,2023-08-22,株式会社及川工業,,株式会社,三重県,桑名市,大字赤須賀三丁目２２３１,,24,205,5110033,,,,,,,2023-08-22,1,,,,,オイカワコウギョウ,0
1846,8190003004419,新規,0,2023-08-22,2023-08-22,合同会社ハピよか,,合同会社,三重県,四日市市,西新地７番３号プラトンホテル四日市２階,,24,202,5100087,,,,,,,2023-08-22,1,,,,,ハピヨカ,0
1854,8250001020238,新規,0,2023-08-22,2023-08-22,広瀬工業ホールディングス株式会社,,株式会社,山口県,岩国市,麻里布町２丁目７番９号岩国ＹＳビル１階,,35,208,7400018,,,,,,,2023-08-22,1,,,,,ヒロセコウギョウホールディングス,0
1855,8250001020254,新規,0,2023-08-22,2023-08-22,株式会社ケーブルサービス,,株式会社,山口県,山口市,大内氷上７丁目１番１号,,35,203,7530231,,,,,,,2023-08-22,1,,,,,ケーブルサービス,0
1865,8290001102750,新規,0,2023-08-22,2023-08-22,ワールドライフ株式会社,,株式会社,福岡県,糟屋郡粕屋町,内橋西４丁目２番１０号３Ｆ－２,,40,349,8112321,,,,,,,2023-08-22,1,,,,,ワールドライフ,0
1872,8310003004620,新規,0,2023-08-22,2023-08-22,合同会社ＹＵｒｉｈｉＫＡ,,合同会社,長崎県,島原市,長貫町丙１８４２番地１,,42,203,8550022,,,,,,,2023-08-22,1,,,,,ユリヒカ,0
1876,8320001019958,新規,0,2023-08-22,2023-08-22,株式会社ＴＡＫＥ１,,株式会社,大分県,大分市,高松１丁目２番１６－１０１号,,44,201,8700917,,,,,,,2023-08-22,1,,,,,テイクワン,0
1878,8330001031177,新規,0,2023-08-22,2023-08-22,株式会社フローリスト鈴の花,,株式会社,熊本県,合志市,須屋１９７８－１,,43,216,8611102,,,,,,,2023-08-22,1,,,,,フローリストスズノハナ,0
1883,8330005010689,新規,0,2023-08-22,2023-08-22,一般社団法人口腔再生治療協会,,その他の設立登記法人,熊本県,熊本市東区,画図町大字重富５２９－１,,43,102,8620947,,,,,,,2023-08-22,1,,,,,コウクウサイセイチリョウキョウカイ,0
1885,8360001032445,新規,0,2023-08-22,2023-08-22,株式会社Ｐｉｃａ,,株式会社,沖縄県,国頭郡金武町,字金武６２５４桜坂マンション１０３,,47,314,9041201,,,,,,,2023-08-22,1,,,,,ピカ,0
1886,8360003013220,新規,0,2023-08-22,2023-08-22,合同会社しるし,,合同会社,沖縄県,那覇市,小禄１丁目５番７号,,47,201,9010152,,,,,,,2023-08-22,1,,,,,シルシ,0
1891,8370003006256,新規,0,2023-08-22,2023-08-22,合同会社まごころ,,合同会社,宮城県,仙台市太白区,日本平１５番３３号,,04,104,9820221,,,,,,,2023-08-22,1,,,,,マゴコロ,0
1897,8380001033937,新規,0,2023-08-22,2023-08-22,株式会社マックスエンタープライズ,,株式会社,福島県,会津若松市,石堂町５－３２ベルメゾンサカイＩＩ３０６号室,00131605,07,202,9650055,,,,,,,2023-08-22,1,,,,,マックスエンタープライズ,0
1912,8470003002476,新規,0,2023-08-22,2023-08-22,合同会社ＶＡＬＥＴＴＥ,,合同会社,香川県,高松市,中新町一丁目３５番地カナモトビル２０２号,,37,201,7600056,,,,,,,2023-08-22,1,,,,,バレット,0
1918,8500001025137,新規,0,2023-08-22,2023-08-22,株式会社まどんなクリエイト,,株式会社,愛媛県,松山市,千舟町５丁目３番１７号,,38,201,7900011,,,,,,,2023-08-22,1,,,,,マドンナクリエイト,0
1921,8700150119149,新規,0,2023-08-22,2023-08-22,東莞市凱迪膠粘科技有限公司,,外国会社等,,,,,,,,中国広東省東莞市塘厦鎮塘蓮第三街道１１号１棟１０２室,,,,,,2023-08-22,1,,,,,トウカンシカイテキコウネンカギユウゲンコウシ,0
1922,8700150119157,新規,0,2023-08-22,2023-08-22,Ｓｈｅｎｚｈｅｎ　ＹｉＪｉａＭｉｎｇ　Ｌｉｇｈｔｉｎｇ　Ｃｏ．，Ｌｔｄ,,外国会社等,,,,,,,,４ｔｈ　Ｆｌｏｏｒ，Ｂｕｉｌｄｉｎｇ　Ｈ，Ｗａｎｄａ　Ｉｎｄｕｓｔｒｉａｌ，Ｚｈｏｕｓｈｉ　Ｒｏａｄ，Ｓｈｉｙａｎ　Ｓｔｒｅｅｔ，Ｂａｏ’ａｎ　Ｄｉｓｔｒｉｃｔ，Ｓｈｅｎｚｈｅｎ　Ｃｉｔｙ，Ｇｕａｎｇｄｏｎｇ　Ｐｒｏｖｉｎｃｅ　５１８０００ＣＮ,,,,,,2023-08-22,1,,,,,シンセンイジャミンライティングカンパニーリミテッド,0
1923,8700150119165,新規,0,2023-08-22,2023-08-22,ＪＩＡＮＧ　ＭＥＮ　ＷＡＮ　ＪＩＮ　ＪＩＥ　ＮＥＮＧ　ＫＥ　ＪＩ　ＹＯＵ　ＸＩＡＮ　ＧＯＮＧ　ＳＩ,,外国会社等,,,,,,,,Ｐｅｎｇｊｉａｎｇｑｕ　Ｈｏｎｇｄａｌｕ１２ｈａｏ　１ｚｈｕａｎｇｂｉａｎｈａｏ１―２１０　Ｊｉａｎｇｍｅｎｓｈｉ　Ｇｕａｎｇｄｏｎｇ　５２９０００　ＣＮ,,,,,,2023-08-22,1,,,,,ジャンメンワンジンジエノンコージーヨウシエンゴンスー,0
1929,9010001237879,新規,0,2023-08-22,2023-08-22,東京国際メディカルセンター株式会社,,株式会社,東京都,文京区,弥生１丁目２番１６号サンピア西須賀１０３号室,,13,105,1130032,,,,,,,2023-08-22,1,,,,,トウキョウコクサイメディカルセンター,0
1930,9010001237904,新規,0,2023-08-22,2023-08-22,株式会社ＫＮＫ,,株式会社,東京都,文京区,水道２丁目１番１号,,13,105,1120005,,,,,,,2023-08-22,1,,,,,ケーエヌケー,0
1932,9010003041437,新規,0,2023-08-22,2023-08-22,合同会社キッカケ,,合同会社,東京都,中央区,銀座８丁目５番２６号ラペＩＩビル５階Ｂ室,00131614,13,102,1040061,,,,,,,2023-08-22,1,,,,,キッカケ,0
1933,9010003041478,新規,0,2023-08-22,2023-08-22,ＳＧＥＴ浜松蓄電所合同会社,,合同会社,東京都,千代田区,丸の内３丁目１番１号東京共同会計事務所内,,13,101,1000005,,,,,,,2023-08-22,1,,,,,エスゲットハママツチクデンショ,0
1938,9010401176677,新規,0,2023-08-22,2023-08-22,株式会社ウエストブルー,,株式会社,東京都,港区,芝３丁目２４－２ガリシアレジデンス芝公園７０２,,13,103,1050014,,,,,,,2023-08-22,1,,,,,ウエストブルー,0
1942,9010403030758,新規,0,2023-08-22,2023-08-22,ＧＷＰ合同会社,,合同会社,東京都,港区,六本木３丁目７－１－３０１２,,13,103,1060032,,,,,,,2023-08-22,1,,,,,ジーダブリューピー,0
1943,9010403030782,新規,0,2023-08-22,2023-08-22,合同会社コリビングワン,,合同会社,東京都,港区,元赤坂１丁目１番７－８０７号,,13,103,1070051,,,,,,,2023-08-22,1,,,,,コリビングワン,0
1953,9010601063634,新規,0,2023-08-22,2023-08-22,株式会社トラストインフォメーションジャパン,,株式会社,東京都,墨田区,向島４丁目４番１０－７０３号,,13,107,1310033,,,,,,,2023-08-22,1,,,,,トラストインフォメーションジャパン,0
1954,9010601063659,新規,0,2023-08-22,2023-08-22,東征株式会社,,株式会社,東京都,江東区,亀戸６丁目５６番８－５０４号,,13,108,1360071,,,,,,,2023-08-22,1,,,,,トウセイ,0
1955,9010603010320,新規,0,2023-08-22,2023-08-22,桜テ合同会社,,合同会社,東京都,江東区,富岡１丁目１番６号,,13,108,1350047,,,,,,,2023-08-22,1,,,,,サクラテ,0
1959,9010705003528,新規,0,2023-08-22,2023-08-22,一般社団法人王子加工所,,その他の設立登記法人,東京都,品川区,上大崎３丁目１番１号目黒セントラルスクエア１５階,,13,109,1410021,,,,,,,2023-08-22,1,,,,,オウジカコウショ,0
1961,9010803004650,新規,0,2023-08-22,2023-08-22,なぎさ合同会社,,合同会社,東京都,大田区,東糀谷４丁目３－１６－７０４,,13,111,1440033,,,,,,,2023-08-22,1,,,,,ナギサ,0
1974,9011001156417,新規,0,2023-08-22,2023-08-22,株式会社Ｓａｍａｒ,,株式会社,東京都,渋谷区,渋谷１丁目１７番４号ＰＭＯ渋谷５Ｆ,,13,113,1500002,,,,,,,2023-08-22,1,,,,,サマル,0
1975,9011001156458,新規,0,2023-08-22,2023-08-22,株式会社ＬＡＮＡ,,株式会社,東京都,渋谷区,神宮前５丁目３０番３号ニューアートビル３Ｆ,,13,113,1500001,,,,,,,2023-08-22,1,,,,,ラナ,0
1976,9011001156466,新規,0,2023-08-22,2023-08-22,ＤａＯ株式会社,,株式会社,東京都,渋谷区,神南１丁目１４番７号ワイズ神南ビル２Ｆ,,13,113,1500041,,,,,,,2023-08-22,1,,,,,ディエーオー,0
1980,9011003017393,新規,0,2023-08-22,2023-08-22,合同会社サクラ,,合同会社,東京都,渋谷区,恵比寿３丁目４８番５号グランデ恵比寿３０２,,13,113,1500013,,,,,,,2023-08-22,1,,,,,サクラ,0
1986,9011103013383,新規,0,2023-08-22,2023-08-22,合同会社福祉アットホーム,,合同会社,東京都,新宿区,大久保２丁目６番１５－６０３号,,13,104,1690072,,,,,,,2023-08-22,1,,,,,フクシアットホーム,0
1997,9011601027067,新規,0,2023-08-22,2023-08-22,株式会社ＪＳ　ＳＴＡＲ　ＢＡＳＫＥＴ,,株式会社,東京都,練馬区,下石神井４丁目３０番１号サンライトビル１Ｆ・ＮＯ．１,,13,120,1770042,,,,,,,2023-08-22,1,,,,,ジェイエススターバスケット,0
1999,9011603004031,新規,0,2023-08-22,2023-08-22,合同会社福田編集室,,合同会社,東京都,練馬区,豊玉南３丁目１１番１０号,,13,120,1760014,,,,,,,2023-08-22,1,,,,,フクダヘンシュウシツ,0
2001,9011703003569,新規,0,2023-08-22,2023-08-22,四分儀座合同会社,,合同会社,東京都,江戸川区,平井４丁目２０番１５ー９１６号,,13,123,1320035,,,,,,,2023-08-22,1,,,,,シブンギザ,0
2007,9013301051198,新規,0,2023-08-22,2023-08-22,株式会社アスターデザイン,,株式会社,東京都,豊島区,駒込３丁目１６番１７号リビオ駒込妙義２０５号室,,13,116,1700003,,,,,,,2023-08-22,1,,,,,アスターデザイン,0
2012,9020001153134,新規,0,2023-08-22,2023-08-22,株式会社ＳＰＧ,,株式会社,神奈川県,横浜市中区,山手町２７番地５－５０７,,14,104,2310862,,,,,,,2023-08-22,1,,,,,エスピージー,0
2021,9021001079971,新規,0,2023-08-22,2023-08-22,ＷｈｉｔｅＪ株式会社,,株式会社,神奈川県,鎌倉市,浄明寺５丁目７番２３号,,14,204,2480003,,,,,,,2023-08-22,1,,,,,ホワイトジェイ,0
2022,9021001079988,新規,0,2023-08-22,2023-08-22,Ｐｌａｔｉｎｕｍ　Ｐｌａｎ２株式会社,,株式会社,神奈川県,大和市,中央林間６丁目３番４－８０５号,,14,213,2420007,,,,,,,2023-08-22,1,,,,,プラチナプランツー,0
2026,9021003013482,新規,0,2023-08-22,2023-08-22,ＣＨＩＤＥＸ．ＡＵＴＯ合同会社,,合同会社,神奈川県,高座郡寒川町,小谷２丁目６番７－５号,,14,321,2530103,,,,,,,2023-08-22,1,,,,,チデスクオート,0
2035,9030003022443,新規,0,2023-08-22,2023-08-22,合同会社森羅,,合同会社,埼玉県,富士見市,鶴馬１丁目１４番１９号,,11,235,3540021,,,,,,,2023-08-22,1,,,,,シンラ,0
2044,9050005013315,新規,0,2023-08-22,2023-08-22,一般社団法人ＫＡＷＡＳＡＫＩ　ＫＯＤＯＭＯ　ＭＩＲＡＩ基金,,その他の設立登記法人,茨城県,ひたちなか市,勝田中央５番１５号,,08,221,3120045,,,,,,,2023-08-22,1,,,,,カワサキコドモミライキキン,0
2046,9060001036277,新規,0,2023-08-22,2023-08-22,株式会社Ｋ‐ｐｌａｎｎｉｎｇ,,株式会社,栃木県,小山市,大字横倉新田５番地１２０,,09,208,3230819,,,,,,,2023-08-22,1,,,,,ケープランニング,0
2048,9070001040781,新規,0,2023-08-22,2023-08-22,トータルテクノ株式会社,,株式会社,群馬県,伊勢崎市,東町２３５０番地１,,10,204,3792231,,,,,,,2023-08-22,1,,,,,トータルテクノ,0
2061,9120001257453,新規,0,2023-08-22,2023-08-22,株式会社ＬＡＶＩＳＨ,,株式会社,大阪府,大阪市中央区,南船場１丁目１６番２３号パレロワイヤル順慶町２０８号室,,27,128,5420081,,,,,,,2023-08-22,1,,,,,ラヴィッシュ,0
2062,9120001257478,新規,0,2023-08-22,2023-08-22,天諾貿易株式会社,,株式会社,大阪府,大阪市生野区,中川４丁目２番４号ホワイトビル２０３号,,27,116,5440005,,,,,,,2023-08-22,1,,,,,テンダクボウエキ,0
2063,9120001257486,新規,0,2023-08-22,2023-08-22,神州滬株式会社,,株式会社,大阪府,大阪市中央区,内本町２丁目１番１９号内本町松屋ビル１０－８０１号室,,27,128,5400026,,,,,,,2023-08-22,1,,,,,ジンシュウコ,0
2066,9120003024744,新規,0,2023-08-22,2023-08-22,合同会社ＡＳＫ,,合同会社,大阪府,大阪市西区,江戸堀１丁目６番１７－４００１号,,27,106,5500002,,,,,,,2023-08-22,1,,,,,アスク,0
2073,9120901047854,新規,0,2023-08-22,2023-08-22,株式会社Ｌｉｌｙ　Ｂａｓｅ,,株式会社,大阪府,高槻市,津之江町３丁目３７番１９号,,27,207,5690822,,,,,,,2023-08-22,1,,,,,リリベース,0
2074,9120901047961,新規,0,2023-08-22,2023-08-22,株式会社エール,,株式会社,大阪府,吹田市,千里山西３丁目１２番１３号,,27,205,5650851,,,,,,,2023-08-22,1,,,,,エール,0
2075,9122001037281,新規,0,2023-08-22,2023-08-22,龍行国際観光株式会社,,株式会社,大阪府,東大阪市,加納３丁目９－７－４０１,,27,227,5780901,,,,,,,2023-08-22,1,,,,,リュウコウコクサイカンコウ,0
2098,9140001131301,新規,0,2023-08-22,2023-08-22,Ｂｅａｕｔｉｆｉｃａｔｉｏｎ株式会社,,株式会社,兵庫県,宝塚市,中洲一丁目２番２４－４０４号,,28,214,6650000,,,,,,,2023-08-22,1,,,,,ビューティフィケーション,0
2099,9140001131334,新規,0,2023-08-22,2023-08-22,後村工業株式会社,,株式会社,兵庫県,川西市,萩原２丁目２番１７号,,28,217,6660004,,,,,,,2023-08-22,1,,,,,アトムラコウギョウ,0
2100,9140003019445,新規,0,2023-08-22,2023-08-22,合同会社万木,,合同会社,兵庫県,明石市,大久保町谷八木５３８番地グランプレステージ西明石６１４号,,28,203,6740062,,,,,,,2023-08-22,1,,,,,マキ,0
2106,9180001157631,新規,0,2023-08-22,2023-08-22,株式会社Ｗｉｎｎｅｒｓ,,株式会社,愛知県,清須市,下河原藪屋敷１０８６番地３,,23,233,4520916,,,,,,,2023-08-22,1,,,,,ウィナーズ,0
2107,9180001157664,新規,0,2023-08-22,2023-08-22,株式会社ＪＫＣファイナンス・リース,,株式会社,愛知県,名古屋市天白区,平針２丁目１１１１番地,,23,116,4680011,,,,,,,2023-08-22,1,,,,,ジェーケーシーファイナンスリース,0
2108,9180001157714,新規,0,2023-08-22,2023-08-22,タスクールホールディングス株式会社,,株式会社,愛知県,名古屋市千種区,千種通７丁目２５番地の１,,23,101,4640855,,,,,,,2023-08-22,1,,,,,タスクールホールディングス,0
2109,9180001157722,新規,0,2023-08-22,2023-08-22,株式会社ジータ,,株式会社,愛知県,名古屋市西区,上堀越町３丁目５４ガレージハウスＫ１０１,,23,104,4510084,,,,,,,2023-08-22,1,,,,,ジータ,0
2111,9180003025646,新規,0,2023-08-22,2023-08-22,合同会社ＳＥＬＣ　Ｉｎｔｅｒｎａｔｉｏｎａｌ,,合同会社,愛知県,名古屋市昭和区,安田通５丁目４番地の２サニービル４０３,,23,107,4660857,,,,,,,2023-08-22,1,,,,,セルクインターナショナル,0
2112,9180003025654,新規,0,2023-08-22,2023-08-22,ウイングマン合同会社,,合同会社,愛知県,名古屋市東区,葵３丁目２０番３３号アゴラ葵７０６号,,23,102,4610004,,,,,,,2023-08-22,1,,,,,ウイングマン,0
2115,9180301037723,新規,0,2023-08-22,2023-08-22,株式会社Ｌｉｅｎ,,株式会社,愛知県,岡崎市,錦町３番地１１,,23,202,4440067,,,,,,,2023-08-22,1,,,,,リアン,0
2136,9290001102584,新規,0,2023-08-22,2023-08-22,株式会社ブライテック,,株式会社,福岡県,那珂川市,片縄西４丁目１５番２３号,,40,231,8111202,,,,,,,2023-08-22,1,,,,,ブライテック,0
2139,9290003014266,新規,0,2023-08-22,2023-08-22,合同会社１５ｐｌｕｓ,,合同会社,福岡県,福岡市東区,香椎照葉７丁目８番３－９１７号照葉オーシャンステージＥＡＳＴ棟,,40,131,8130017,,,,,,,2023-08-22,1,,,,,ワンファイブプラス,0
2144,9310005008701,新規,0,2023-08-22,2023-08-22,一般社団法人サンパーク吉井,,その他の設立登記法人,長崎県,佐世保市,吉井町吉元４５３番地,,42,202,8596324,,,,,,,2023-08-22,1,,,,,サンパークヨシイ,0
2148,9330001031176,新規,0,2023-08-22,2023-08-22,株式会社肥後もっこす,,株式会社,熊本県,熊本市東区,江津３丁目１２番６号,,43,102,8620942,,,,,,,2023-08-22,1,,,,,ヒゴモッコス,0
2158,9340001025838,新規,0,2023-08-22,2023-08-22,株式会社シンセイエクステリア,,株式会社,鹿児島県,姶良市,蒲生町上久徳２６４５番地,,46,225,8995302,,,,,,,2023-08-22,1,,,,,シンセイエクステリア,0
2162,9360001032444,新規,0,2023-08-22,2023-08-22,株式会社Ｒｙｏオートレンタル,,株式会社,沖縄県,那覇市,田原３丁目９番１号,,47,201,9010156,,,,,,,2023-08-22,1,,,,,リョーオートレンタル,0
2166,9370001050321,新規,0,2023-08-22,2023-08-22,株式会社ＢＲＣ,,株式会社,宮城県,仙台市若林区,若林４丁目４番１０－２号,,04,103,9840826,,,,,,,2023-08-22,1,,,,,ビーアールシー,0
2170,9410001013579,新規,0,2023-08-22,2023-08-22,株式会社館ノ丸,,株式会社,秋田県,秋田市,浜田字館ノ丸５１番地,,05,201,0101654,,,,,,,2023-08-22,1,,,,,タテノマル,0
2171,9410003003834,新規,0,2023-08-22,2023-08-22,合同会社ユーアス・テクノロジーズ,,合同会社,秋田県,横手市,本町８－３４,,05,203,0130018,,,,,,,2023-08-22,1,,,,,ユーアステクノロジーズ,0
2176,9430001089782,新規,0,2023-08-22,2023-08-22,ＢＯＷＥＮ株式会社,,株式会社,北海道,小樽市,長橋２丁目２３番３０号２Ｆ－Ａ,,01,203,0470036,,,,,,,2023-08-22,1,,,,,ボウン,0
2177,9430001089832,新規,0,2023-08-22,2023-08-22,Ｈｉｇｈ　Ｂｒｉｄｇｅ株式会社,,株式会社,北海道,札幌市豊平区,月寒西三条９丁目４番１号,,01,105,0620023,,,,,,,2023-08-22,1,,,,,ハイブリッジ,0
2194,9700150117399,新規,0,2023-08-22,2023-08-22,義烏市賢立電子商務有限公司,,外国会社等,,,,,,,,中国（浙江）自由貿易試験区金華市義烏市北苑街道秋実路７８号６号楼７０７室,,,,,,2023-08-22,1,,,,,ギウシケンリツデンシショウムユウゲンコウシ,0
2195,9700150119148,新規,0,2023-08-22,2023-08-22,珠海案納科技有限公司,00131583,外国会社等,,,,,,,,中国珠海市前山夏村建材街１０４号一幢４０５室,,,,,,2023-08-22,1,,,,,シュカイアンノウカギユウゲンコウシ,0
2196,9700150119156,新規,0,2023-08-22,2023-08-22,ｄｏｎｇｇｕａｎｓｈｉ　ｊｉａｗｕｇｕａｎｇｄｉａｎ　ｙｏｕｘｉａｎｇｏｎｇｓｉ,,外国会社等,,,,,,,,ｇｕａｎｇｄｏｎｇｓｈｅｎｇｄｏｎｇｇｕａｎｓｈｉｃｈａｎｇｐｉｎｇｚｈｅｎｃｈａｎｇｐｉｎｇｙｕａｎｌｉｎｌｕｙｉｊｉｅ３ｈａｏ５０１ｓｈｉ　５２３０００　ＣＮ,,,,,,2023-08-22,1,,,,,ドングゥアンシジャウグゥアンデンヨウシェンゴンスー,0
2197,9700150119164,新規,0,2023-08-22,2023-08-22,ＤＯＮＧＧＵＡＮ　ＳＨＩ　ＴＵＲＵＩ　ＸＩＡＮＧＢＡＯ　ＣＯ．，ＬＴＤ,,外国会社等,,,,,,,,Ｇｕａｎｇｄｏｎｇｓｈｅｎｇ　Ｄｏｎｇｇｕａｎｓｈｉ　Ｚｈｏｎｇｔａｎｇｚｈｅｎ　Ｂｅｉｗａｎｇｌｕ　Ｚｈｏｎｇｔａｎｇｄｕａｎ　２０５ｈａｏ　１ｈａｏｌｏｕ　２ｄａｎｙｕａｎ　１０１ｓｈｉ，Ｃｈｉｎａ,,,,,,2023-08-22,1,,,,,トンカンシテウルイシャンバオカンパニーリミテッド,0
2198,9700150119189,新規,0,2023-08-22,2023-08-22,Ｓｈｅｎｚｈｅｎ　Ａｎｘｕａｎ　Ｉｎｔｅｒｎａｔｉｏｎａｌ　Ｆｒｅｉｇｈｔ　Ｆｏｒｗａｒｄｉｎｇ　Ｃｏ．Ｌｔｄ．,,外国会社等,,,,,,,,Ｆｕｗｅｉ　Ｃｏｍｍｕｎｉｔｙ，Ｆｕｙｏｎｇ　Ｓｔｒｅｅｔ，Ｂａｏ’ａｎ　Ｄｉｓｔｒｉｃｔ　Ｔｈｅ　ｓｅｃｏｎｄ　ｉｎｄｕｓｔｒｉａｌ　ｚｏｎｅ　Ａ１２　Ｎｏ．１０１　Ｓｈｅｎｚｈｅｎ　Ｇｕａｎｇｄｏｎｇ　Ｐｒｏｖｉｎｃｅ　Ｃｈｉｎａ　５１８０００,,,,,,2023-08-22,1,,,,,シェンジェンシーアンシュエングオジーフオインダイリーヨウシエンゴンスー,0
