sequenceNumber,corporateNumber,process,correct,updateDate,changeDate,name,nameImageId,kind,prefectureName,cityName,streetNumber,addressImageId,prefectureCode,cityCode,postCode,addressOutside,addressOutsideImageId,closeDate,closeCause,successorCorporateNumber,changeCause,assignmentDate,latest,enName,enPrefectureName,enCityName,enAddressOutside,furigana,hihyoji
1,1010001003751,登記記録の閉鎖等,0,2021-07-19,2021-07-02,城北倉庫株式会社,,株式会社,東京都,文京区,水道１丁目９番２号,,13,105,1120005,,,2021-07-02,清算の結了等,,,2015-10-05,1,,,,,ジョウホクソウコ,0
25,1010402013713,登記記録の閉鎖等,0,2021-07-19,2021-07-06,有限会社和興配ぜん人紹介所,00050963,有限会社,東京都,港区,高輪２丁目１４番９号,,13,103,1080074,,,2021-07-06,清算の結了等,,,2015-10-05,1,,,,,ワコウハイゼンニンショウカイジョ,0
43,1011001067084,登記記録の閉鎖等,0,2021-07-19,2021-07-01,株式会社白寿ファイナンス,,株式会社,東京都,渋谷区,富ヶ谷１丁目３７番５号,,13,113,1510063,,,2021-07-01,合併による解散等,1011001039273,令和３年７月１日東京都渋谷区富ケ谷一丁目３７番５号株式会社白寿生科学研究所（1011001039273）に合併し解散,2015-10-05,1,,,,,ハクジュファイナンス,0
49,1011001104886,登記記録の閉鎖等,0,2021-07-19,2021-07-12,株式会社アルマージ,,株式会社,東京都,目黒区,中目黒２丁目１番２３－３１０号,,13,110,1530061,,,2021-07-12,合併による解散等,1011001099433,令和３年７月１日東京都港区芝三丁目１番１４号芝公園阪神ビル４階株式会社ブルマーレ（1011001099433）に合併し解散,2015-10-05,1,,,,,アルマージ,0
58,1011101021271,登記記録の閉鎖等,0,2021-07-19,2021-07-06,株式会社薬栄,,株式会社,東京都,千代田区,丸の内１丁目９番１号,,13,101,1000005,,,2021-07-06,合併による解散等,9010001064753,令和３年７月１日東京都千代田区丸の内一丁目９番１号日本調剤株式会社（9010001064753）に合併し解散,2015-10-05,1,,,,,ヤクエイ,0
59,1011101032351,登記記録の閉鎖等,0,2021-07-19,2021-07-01,日拓殖産ホールディングス株式会社,,株式会社,東京都,渋谷区,南平台町１６番１７号,,13,113,1500036,,,2021-07-01,合併による解散等,2011001132507,令和３年７月１日東京都渋谷区南平台町１６番１７号日拓グループ・ホールディングス株式会社（2011001132507）に合併し解散,2015-10-05,1,,,,,ニッタクショクサンホールディングス,0
64,1011102009753,登記記録の閉鎖等,0,2021-07-19,2021-07-01,日拓都市開発ホールディングス株式会社,,株式会社,東京都,渋谷区,南平台町１６番１７号,,13,113,1500036,,,2021-07-01,合併による解散等,2011001132507,令和３年７月１日東京都渋谷区南平台町１６番１７号日拓グループ・ホールディングス株式会社（2011001132507）に合併し解散,2015-10-05,1,,,,,ニッタクトシカイハツホールディングス,0
74,1011403002952,登記記録の閉鎖等,0,2021-07-19,2021-07-15,合同会社キャマラード,,合同会社,東京都,板橋区,南常盤台１丁目１１番６号レフア南常盤台１０１号室,,13,119,1740072,,,2021-07-15,清算の結了等,,,2020-03-30,1,,,,,キャマラード,0
105,1021001058082,登記記録の閉鎖等,0,2021-07-19,2021-07-07,株式会社ＡＳＩコーポレーション,,株式会社,神奈川県,逗子市,山の根１丁目７番６－１１０号,,14,208,2490002,,,2021-07-07,清算の結了等,,,2015-12-24,1,,,,,エーエスアイコーポレーション,0
107,1030001028524,登記記録の閉鎖等,0,2021-07-19,2021-07-05,株式会社ＤＥＮＳＥＴＳＵ,,株式会社,埼玉県,入間郡三芳町,大字上富４１０番地１２,,11,324,3540045,,,2021-07-05,清算の結了等,,,2015-10-05,1,,,,,デンセツ,0
123,1030002008558,登記記録の閉鎖等,0,2021-07-19,2021-07-07,有限会社大徳設備,,有限会社,埼玉県,さいたま市見沼区,東大宮２丁目１３番地の４,,11,104,3370051,,,2021-07-07,清算の結了等,,,2015-10-05,1,,,,,ダイトクセツビ,0
125,1030002045576,登記記録の閉鎖等,0,2021-07-19,2021-07-06,有限会社フジタ,,有限会社,埼玉県,草加市,青柳７丁目４５番１８号,,11,221,3400002,,,2021-07-06,清算の結了等,,,2015-10-05,1,,,,,フジタ,0
126,1030002086166,登記記録の閉鎖等,0,2021-07-19,2021-07-08,有限会社三玄社,,有限会社,埼玉県,越谷市,大字南荻島３２０８番地,,11,222,3430804,,,2021-07-08,清算の結了等,,,2015-10-05,1,,,,,サンゲンシャ,0
127,1030003003178,登記記録の閉鎖等,0,2021-07-19,2021-07-05,合同会社ＬＯＫＯＢＡ,,合同会社,埼玉県,鴻巣市,寺谷８３５番地５８,,11,217,3650071,,,2021-07-05,清算の結了等,,,2015-10-05,1,,,,,ロコバ,0
134,1040002028381,登記記録の閉鎖等,0,2021-07-19,2021-07-07,有限会社浅野彫刻所,,有限会社,千葉県,八千代市,八千代台北８丁目８番１３号,,12,221,2760031,,,2021-07-07,清算の結了等,,,2015-10-05,1,,,,,アサノチョウコクショ,0
141,1050003002351,登記記録の閉鎖等,0,2021-07-19,2021-07-07,合同会社星野ケアサポーティング,,合同会社,茨城県,つくば市,臼井３１番地,,08,220,3004211,,,2021-07-07,清算の結了等,,,2015-10-05,1,,,,,ホシノケアサポーティング,0
142,1060001009926,登記記録の閉鎖等,0,2021-07-19,2021-07-09,真岡生コン株式会社,,株式会社,栃木県,真岡市,亀山３０１０番地,,09,209,3214363,,,2021-07-09,合併による解散等,2060001014090,令和３年７月１日栃木県小山市大字渋井字折本６７０番地小山レミコン株式会社（2060001014090）に合併し解散,2015-10-05,1,,,,,モオカナマコン,0
144,1060002015304,登記記録の閉鎖等,0,2021-07-19,2021-07-05,有限会社双葉屋陶器店,,有限会社,栃木県,日光市,今市４５９番地,,09,206,3211261,,,2021-07-05,清算の結了等,,,2015-10-05,1,,,,,フタバヤトウキテン,0
146,1080001010535,登記記録の閉鎖等,0,2021-07-19,2021-07-15,株式会社ＯＢＣ,,株式会社,静岡県,静岡市清水区,江尻東２丁目１番１５号,,22,103,4240815,,,2021-07-15,清算の結了等,,,2015-10-05,1,,,,,オービーシー,0
162,1110003001116,登記記録の閉鎖等,0,2021-07-19,2021-07-09,合同会社山川屋商店,,合同会社,新潟県,柏崎市,大字中田１７８４番地,,15,205,9450113,,,2021-07-09,清算の結了等,,,2015-10-05,1,,,,,ヤマカワヤショウテン,0
177,1120001209180,登記記録の閉鎖等,0,2021-07-19,2021-07-05,明治開発株式会社,,株式会社,大阪府,大阪市中央区,（大阪市東区本町一丁目２４番地の１）,,27,128,5390000,,,2021-07-05,清算の結了等,,,2017-10-31,1,,,,,,1
178,1120001228338,登記記録の閉鎖等,0,2021-07-19,2021-07-12,共英コーポレーション株式会社,,株式会社,大阪府,大阪市北区,堂島浜１丁目４番１６号,,27,127,5300004,,,2021-07-12,合併による解散等,5120001062898,令和３年７月１日大阪市北区堂島浜一丁目４番１６号共英製鋼株式会社（5120001062898）に合併し解散,2020-04-07,1,,,,,キョウエイコーポレーション,0
190,1120102001809,登記記録の閉鎖等,0,2021-07-19,2021-07-15,有限会社コバショウ,,有限会社,大阪府,堺市北区,百舌鳥梅町１丁４番１１,,27,146,5918032,,,2021-07-15,清算の結了等,,,2015-10-05,1,,,,,コバショウ,0
192,1120102028439,登記記録の閉鎖等,0,2021-07-19,2021-07-15,有限会社保険工房サポート,,有限会社,大阪府,泉南郡岬町,淡輪３０２６番地の１４９,,27,366,5990301,,,2021-07-15,清算の結了等,,,2015-10-05,1,,,,,ホケンコウボウサポート,0
210,1140001089547,登記記録の閉鎖等,0,2021-07-19,2021-07-07,株式会社アップル,,株式会社,兵庫県,尼崎市,南武庫之荘３丁目２３－１,,28,202,6610033,,,2021-07-07,清算の結了等,,,2015-10-05,1,,,,,アップル,0
215,1140005019005,登記記録の閉鎖等,0,2021-07-19,2021-07-13,一般社団法人すくえあ・いたみ,,その他の設立登記法人,兵庫県,伊丹市,池尻２丁目３３２番地,,28,207,6640027,,,2021-07-13,清算の結了等,,,2015-10-05,1,,,,,スクエアイタミ,0
220,1180001026414,登記記録の閉鎖等,0,2021-07-19,2021-07-08,トータルメディカルコンサルタント株式会社,,株式会社,愛知県,名古屋市中村区,名駅３丁目２５番９号,,23,105,4500002,,,2021-07-08,清算の結了等,,,2015-10-05,1,,,,,トータルメディカルコンサルタント,0
223,1180001121504,登記記録の閉鎖等,0,2021-07-19,2021-07-08,株式会社大春,,株式会社,愛知県,海部郡大治町,大字砂子字犬飼１７７２番地の７,,23,424,4901143,,,2021-07-08,清算の結了等,,,2015-12-24,1,,,,,オオハル,0
261,1260001006201,登記記録の閉鎖等,0,2021-07-19,2021-07-14,株式会社マック・フォーラムオカヤマ,,株式会社,岡山県,岡山市北区,今５丁目１３番２６号,,33,101,7000975,,,2021-07-14,清算の結了等,,,2015-10-05,1,,,,,マックフォーラムオカヤマ,0
263,1290001005299,登記記録の閉鎖等,0,2021-07-19,2021-06-29,末次建材株式会社,,株式会社,福岡県,福岡市早良区,小田部１丁目１２番１号,,40,137,8140032,,,2021-06-29,清算の結了等,,,2015-10-05,1,,,,,スエツグケンザイ,0
276,1320001018223,登記記録の閉鎖等,0,2021-07-19,2021-07-07,佐賀関物流株式会社,,株式会社,大分県,大分市,大字佐賀関３４７９番地の１,,44,201,8792201,,,2021-07-07,清算の結了等,,,2021-02-25,1,,,,,サガノセキブツリュウ,0
302,1430001000847,登記記録の閉鎖等,0,2021-07-19,2021-07-06,株式会社アトモス,,株式会社,北海道,札幌市南区,石山一条８丁目６番２号,,01,106,0050841,,,2021-07-06,清算の結了等,,,2015-10-05,1,,,,,アトモス,0
317,1500002009731,登記記録の閉鎖等,0,2021-07-19,2021-07-12,有限会社内子ゴルフシステム,,有限会社,愛媛県,喜多郡内子町,論田９５０番地,,38,422,7913341,,,2021-07-12,清算の結了等,,,2015-10-05,1,,,,,ウチコゴルフシステム,0
321,2010001073488,登記記録の閉鎖等,0,2021-07-19,2021-07-12,電通アイソバー株式会社,,株式会社,東京都,中央区,築地１丁目１３番１号,,13,102,1040045,,,2021-07-12,合併による解散等,5010001086470,令和３年７月１日東京都港区東新橋一丁目８番１号株式会社電通デジタル（5010001086470）に合併し解散,2015-10-05,1,,,,,デンツウアイソバー,0
363,2010802012850,登記記録の閉鎖等,0,2021-07-19,2021-07-08,有限会社フロムゼロ,,有限会社,東京都,大田区,大森北１丁目１５番１０号,,13,111,1430016,,,2021-07-08,清算の結了等,,,2015-10-05,1,,,,,フロムゼロ,0
367,2010902014929,登記記録の閉鎖等,0,2021-07-19,2021-07-09,有限会社宮沢設備工業,,有限会社,東京都,世田谷区,上祖師谷５丁目８番２１号,,13,112,1570065,,,2021-07-09,清算の結了等,,,2015-10-05,1,,,,,ミヤザワセツビコウギョウ,0
374,2011002025791,登記記録の閉鎖等,0,2021-07-19,2021-07-01,有限会社リベット・アンド・サージ,,有限会社,東京都,渋谷区,神宮前２丁目３０番７号パレドール原宿１０２,,13,113,1500001,,,2021-07-01,合併による解散等,5011001098076,令和３年７月１日東京都渋谷区神宮前二丁目３０番７号パレドール原宿１０２株式会社スタディ（5011001098076）に合併し解散,2015-10-05,1,,,,,リベットアンドサージ,0
377,2011101032350,登記記録の閉鎖等,0,2021-07-19,2021-07-01,日拓ビル・ホールディングス株式会社,,株式会社,東京都,渋谷区,南平台町１６番１７号,,13,113,1500036,,,2021-07-01,合併による解散等,2011001132507,令和３年７月１日東京都渋谷区南平台町１６番１７号日拓グループ・ホールディングス株式会社（2011001132507）に合併し解散,2015-10-05,1,,,,,ニッタクビルホールディングス,0
384,2011301007152,登記記録の閉鎖等,0,2021-07-19,2021-07-15,モリヤハチミツ株式会社,,株式会社,東京都,杉並区,下井草４丁目３２番２５号,,13,115,1670022,,,2021-07-15,合併による解散等,5010401030887,令和３年７月１日東京都港区赤坂四丁目８番８号ライフメイト株式会社（5010401030887）に合併し解散,2015-10-05,1,,,,,モリヤハチミツ,0
396,2011702003007,登記記録の閉鎖等,0,2021-07-19,2021-07-13,有限会社鴨下木型製作所,,有限会社,東京都,江戸川区,松江７丁目１５番１５号,,13,123,1320025,,,2021-07-13,清算の結了等,,,2015-10-05,1,,,,,カモシタキガタセイサクジョ,0
408,2020001075491,登記記録の閉鎖等,0,2021-07-19,2021-07-08,株式会社イワダイ,,株式会社,神奈川県,川崎市宮前区,水沢１丁目１番１号,,14,136,2160012,,,2021-07-08,清算の結了等,,,2015-10-05,1,,,,,,0
438,2040001079012,登記記録の閉鎖等,0,2021-07-19,2021-07-07,株式会社ＭＡＲＵＫＡＴＵ,,株式会社,千葉県,八千代市,上高野５４５番地,,12,221,2760022,,,2021-07-07,清算の結了等,,,2015-10-05,1,,,,,マルカツ,0
455,2040005016993,登記記録の閉鎖等,0,2021-07-19,2021-07-09,特定非営利活動法人アグリズム,,その他の設立登記法人,千葉県,柏市,南増尾４丁目１番１６号,,12,217,2770054,,,2021-07-09,清算の結了等,,,2015-10-05,1,,,,,アグリズム,0
469,2080105002725,登記記録の閉鎖等,0,2021-07-19,2021-07-13,医療法人社団安仁会,,その他の設立登記法人,静岡県,富士市,吉原４丁目６番５号,,22,210,4170051,,,2021-07-13,清算の結了等,,,2015-10-05,1,,,,,アンジンカイ,0
506,2120002007112,登記記録の閉鎖等,0,2021-07-19,2021-07-07,富屋理器有限会社,,有限会社,大阪府,大阪市東成区,大今里西１丁目１５番２０号,,27,115,5370014,,,2021-07-07,清算の結了等,,,2015-10-05,1,,,,,トミヤリキ,0
528,2130001009257,登記記録の閉鎖等,0,2021-07-19,2021-07-06,株式会社高台寺都路里,,株式会社,京都府,京都市東山区,祇園町南側５７３番地の３,00035310,26,105,6050074,,,2021-07-06,合併による解散等,2130001009158,令和３年７月１日京都市東山区祇園町南側５７３番地の３株式会社祇園辻利（2130001009158）に合併し解散,2015-10-05,1,,,,,コウダイジツジリ,0
539,2140002002788,登記記録の閉鎖等,0,2021-07-19,2021-07-09,有限会社新井,,有限会社,兵庫県,神戸市灘区,水道筋６丁目３番１号,,28,102,6570831,,,2021-07-09,清算の結了等,,,2015-10-05,1,,,,,,0
540,2140002061611,登記記録の閉鎖等,0,2021-07-19,2021-07-12,有限会社見坂自動車,,有限会社,兵庫県,多可郡多可町,加美区西山４番地の１,,28,365,6791326,,,2021-07-12,清算の結了等,,,2015-10-05,1,,,,,,0
568,2240001008875,登記記録の閉鎖等,0,2021-07-19,2021-07-02,濱崎塗装株式会社,,株式会社,広島県,広島市安佐南区,長楽寺１丁目３番３号,,34,105,7310143,,,2021-07-02,清算の結了等,,,2015-10-05,1,,,,,ハマザキトソウ,0
601,2310002012019,登記記録の閉鎖等,0,2021-07-19,2021-07-07,有限会社山田屋,,有限会社,長崎県,佐世保市,新田町６９３番地１,,42,202,8580913,,,2021-07-07,清算の結了等,,,2015-10-05,1,,,,,ヤマダヤ,0
608,2330005008458,登記記録の閉鎖等,0,2021-07-19,2021-07-06,ＮＰＯ法人子ども未来研究機構,,その他の設立登記法人,熊本県,熊本市西区,城山下代１丁目１番４５号,,43,103,8600066,,,2021-07-06,清算の結了等,,,2015-10-05,1,,,,,コドモミライケンキュウキコウ,0
610,2340001005953,登記記録の閉鎖等,0,2021-07-19,2021-07-07,五大薬品株式会社,,株式会社,鹿児島県,鹿児島市,真砂町３４番３号,,46,201,8900066,,,2021-07-07,清算の結了等,,,2015-10-05,1,,,,,,0
620,2370001046004,登記記録の閉鎖等,0,2021-07-19,2021-07-02,株式会社ナポリの窯,,株式会社,宮城県,仙台市青葉区,本町２丁目２番３号,,04,101,9800014,,,2021-07-02,清算の結了等,,,2020-07-31,1,,,,,ナポリノカマ,0
627,2380001018943,登記記録の閉鎖等,0,2021-07-19,2021-07-07,株式会社ディール・カンパニー,,株式会社,福島県,会津若松市,真宮新町南４丁目３９番地,,07,202,9650103,,,2021-07-07,清算の結了等,,,2015-10-05,1,,,,,ディールカンパニー,0
642,2440002003095,登記記録の閉鎖等,0,2021-07-19,2021-07-09,有限会社ドライセンターサンライズ,,有限会社,北海道,函館市,杉並町７番２１号,,01,202,0400004,,,2021-07-09,清算の結了等,,,2015-10-05,1,,,,,ドライセンターサンライズ,0
658,2500002001308,登記記録の閉鎖等,0,2021-07-19,2021-07-12,有限会社愛媛新聞エリアサービス垣生,,有限会社,愛媛県,松山市,西垣生町１９０番地１,,38,201,7918044,,,2021-07-12,清算の結了等,,,2015-10-05,1,,,,,エヒメシンブンエリアサービスハブ,0
710,3011001133017,登記記録の閉鎖等,0,2021-07-19,2021-07-01,日拓殖産株式会社,,株式会社,東京都,渋谷区,南平台町１６番１７号,,13,113,1500036,,,2021-07-01,合併による解散等,5011001133015,令和３年７月１日東京都渋谷区南平台町１６番１７号日拓グループ株式会社（5011001133015）に合併し解散,2020-03-24,1,,,,,ニッタクショクサン,0
718,3011302006144,登記記録の閉鎖等,0,2021-07-19,2021-07-14,有限会社ディジタルフィールドコーポレーション,,有限会社,東京都,杉並区,天沼３丁目１４番２３号サンドエルＡ１０３号,,13,115,1670032,,,2021-07-14,清算の結了等,,,2015-10-05,1,,,,,ディジタルフィールドコーポレーション,0
727,3012301008420,登記記録の閉鎖等,0,2021-07-19,2021-07-12,エフアンドイー株式会社,,株式会社,東京都,杉並区,高井戸東２丁目９番１０号,,13,115,1680072,,,2021-07-12,清算の結了等,,,2015-10-05,1,,,,,エフアンドイー,0
782,3040001085190,登記記録の閉鎖等,0,2021-07-19,2021-07-09,株式会社三協塗装,,株式会社,千葉県,君津市,坂田１１７５番地,,12,225,2991142,,,2021-07-09,清算の結了等,,,2015-10-05,1,,,,,,0
783,3040001112556,登記記録の閉鎖等,0,2021-07-19,2021-07-08,株式会社Ｆａｃｔｏｒ,,株式会社,千葉県,市原市,五井西６丁目１番地８,,12,219,2900038,,,2021-07-08,清算の結了等,,,2020-02-17,1,,,,,ファクター,0
827,3120001076545,登記記録の閉鎖等,0,2021-07-19,2021-07-13,オーシャントレーディング株式会社,,株式会社,大阪府,大阪市中央区,糸屋町１丁目３番２号,,27,128,5400022,,,2021-07-13,清算の結了等,,,2015-10-05,1,,,,,オーシャントレーディング,0
848,3120003008926,登記記録の閉鎖等,0,2021-07-19,2021-07-07,合同会社シグナル,,合同会社,大阪府,大阪市北区,西天満４丁目１５番１８号プラザ梅新６０６号,,27,127,5300047,,,2021-07-07,清算の結了等,,,2015-10-05,1,,,,,シグナル,0
912,3210002007589,登記記録の閉鎖等,0,2021-07-19,2021-07-13,坂井観光有限会社,,有限会社,福井県,あわら市,二面第４８号１４番地,,18,208,9104103,,,2021-07-13,清算の結了等,,,2015-10-05,1,,,,,サカイカンコウ,0
945,3310001000394,登記記録の閉鎖等,0,2021-07-19,2021-07-07,九州印刷株式会社,,株式会社,長崎県,長崎市,緑町４番５号,,42,201,8528103,,,2021-07-07,清算の結了等,,,2015-10-05,1,,,,,キュウシュウインサツ,0
976,3410005000174,登記記録の閉鎖等,0,2021-07-19,2021-07-02,協同組合矢留青果,,その他の設立登記法人,秋田県,秋田市,中通６丁目７番１４号,,05,201,0100001,,,2021-07-02,清算の結了等,,,2015-10-05,1,,,,,ヤドメセイカ,0
978,3420002010258,登記記録の閉鎖等,0,2021-07-19,2021-07-06,有限会社オートラジング,,有限会社,青森県,八戸市,新井田西１丁目１１番１０号,,02,203,0310816,,,2021-07-06,清算の結了等,,,2015-10-05,1,,,,,オートラジング,0
1024,4010001182683,登記記録の閉鎖等,0,2021-07-19,2021-07-08,株式会社エーエムシー警備,,株式会社,東京都,千代田区,神田佐久間町３丁目３７番地４３ＭＫ佐久間ビル２階,,13,101,1010025,,,2021-07-08,清算の結了等,,,2017-04-14,1,,,,,エーエムシーケイビ,0
1041,4010102011295,登記記録の閉鎖等,0,2021-07-19,2021-07-15,有限会社アーバンコア,,有限会社,東京都,八王子市,鹿島２２番地１－１０１,,13,201,1920353,,,2021-07-15,清算の結了等,,,2015-10-05,1,,,,,,0
1070,4011001133016,登記記録の閉鎖等,0,2021-07-19,2021-07-01,日拓都市開発株式会社,,株式会社,東京都,渋谷区,南平台町１６番１７号,,13,113,1500036,,,2021-07-01,合併による解散等,5011001133015,令和３年７月１日東京都渋谷区南平台町１６番１７号日拓グループ株式会社（5011001133015）に合併し解散,2020-03-24,1,,,,,ニッタクトシカイハツ,0
1127,4030001130178,登記記録の閉鎖等,0,2021-07-19,2021-07-12,株式会社ＶＥＬＬ’Ｓ,,株式会社,埼玉県,川口市,大字石神６０８番地の６,,11,203,3330823,,,2021-07-12,清算の結了等,,,2019-04-04,1,,,,,ヴェルズ,0
1137,4030002077749,登記記録の閉鎖等,0,2021-07-19,2021-07-06,有限会社エイアイエス研究所,,有限会社,埼玉県,川越市,上野田町７番地１９,,11,201,3501112,,,2021-07-06,清算の結了等,,,2015-10-05,1,,,,,エイアイエスケンキュウジョ,0
1145,4040001076354,登記記録の閉鎖等,0,2021-07-19,2021-07-08,株式会社ケンコースタッフサービス,,株式会社,千葉県,千葉市中央区,今井３丁目１番２２号,,12,101,2600834,,,2021-07-08,清算の結了等,,,2015-10-05,1,,,,,ケンコースタッフサービス,0
1147,4040001100163,登記記録の閉鎖等,0,2021-07-19,2021-07-08,ＴＢＡ株式会社,,株式会社,千葉県,館山市,洲崎６１番地２,,12,205,2940316,,,2021-07-08,清算の結了等,,,2017-05-18,1,,,,,ティービーエー,0
1153,4040002021144,登記記録の閉鎖等,0,2021-07-19,2021-07-08,有限会社近江屋ストアー,,有限会社,千葉県,船橋市,湊町３丁目１４番３号,,12,204,2730011,,,2021-07-08,清算の結了等,,,2015-10-05,1,,,,,オオミヤストアー,0
1191,4120001070167,登記記録の閉鎖等,0,2021-07-19,2021-07-09,株式会社ヘキスイ,,株式会社,兵庫県,西宮市,生瀬東町１２番５号,,28,204,6691103,,,2021-07-09,清算の結了等,,,2015-10-05,1,,,,,ヘキスイ,0
1192,4120001084489,登記記録の閉鎖等,0,2021-07-19,2021-07-12,株式会社ツグホールディングス,,株式会社,大阪府,大阪市中央区,北新町４番１号,,27,128,5400023,,,2021-07-12,清算の結了等,,,2015-10-05,1,,,,,ツグホールディングス,0
1202,4120002011236,登記記録の閉鎖等,0,2021-07-19,2021-07-12,有限会社柴田商事,,有限会社,大阪府,大阪市平野区,加美正覚寺１丁目１９番１９号,,27,126,5470006,,,2021-07-12,清算の結了等,,,2015-10-05,1,,,,,シバタショウジ,0
1214,4120101062345,登記記録の閉鎖等,0,2021-07-19,2021-07-07,リンユンジャパン株式会社,,株式会社,大阪府,大阪市中央区,上汐２丁目２番１７号,,27,128,5420064,,,2021-07-07,清算の結了等,,,2020-09-17,1,,,,,リンユンジャパン,0
1244,4140001076922,登記記録の閉鎖等,0,2021-07-19,2021-07-12,山平建設株式会社,,株式会社,兵庫県,小野市,葉多町２４０番地の３,,28,218,6751377,,,2021-07-12,清算の結了等,,,2015-10-05,1,,,,,,0
1252,4140002048739,登記記録の閉鎖等,0,2021-07-19,2021-07-07,有限会社さどや,,有限会社,兵庫県,姫路市,龍野町３丁目２９番地,,28,201,6700032,,,2021-07-07,清算の結了等,,,2015-10-05,1,,,,,サドヤ,0
1273,4190001004011,登記記録の閉鎖等,0,2021-07-19,2021-07-14,株式会社オト,,株式会社,三重県,津市,久居新町７７３番地１,,24,201,5141118,,,2021-07-14,清算の結了等,,,2015-10-05,1,,,,,オト,0
1274,4190001006073,登記記録の閉鎖等,0,2021-07-19,2021-07-13,株式会社ｄｏｕｃｅｕｒ　ｊａｐｏｎ,,株式会社,三重県,鈴鹿市,西条４丁目１０４番地,,24,207,5130809,,,2021-07-13,清算の結了等,,,2015-10-05,1,,,,,ドゥソールジャポン,0
1278,4190002023308,登記記録の閉鎖等,0,2021-07-19,2021-07-13,有限会社アクロテック,,有限会社,三重県,四日市市,大字六呂見７番地１２,,24,202,5100881,,,2021-07-13,清算の結了等,,,2015-10-05,1,,,,,アクロテック,0
1286,4220001021688,登記記録の閉鎖等,0,2021-07-19,2021-07-08,株式会社太田嗣人,,株式会社,石川県,金沢市,笠舞２丁目２２番８号,,17,201,9200965,,,2021-07-08,清算の結了等,,,2017-06-07,1,,,,,オオタツグヒト,0
1291,4250001016116,登記記録の閉鎖等,0,2021-07-19,2021-07-14,株式会社Ａｚａｌｅａ．ｓｔｙｌｅ,,株式会社,山口県,宇部市,今村南２丁目１番１号,,35,202,7550154,,,2021-07-14,清算の結了等,,,2016-08-08,1,,,,,アザレアスタイル,0
1295,4270003000966,登記記録の閉鎖等,0,2021-07-19,2021-07-06,遠藤不動産管理合同会社,,合同会社,鳥取県,米子市,旗ヶ崎７丁目１４番３０号,,31,202,6830845,,,2021-07-06,清算の結了等,,,2017-02-23,1,,,,,エンドウフドウサンカンリ,0
1312,4330005007268,登記記録の閉鎖等,0,2021-07-19,2021-07-08,医療法人松雄会,,その他の設立登記法人,熊本県,天草市,東町７番地１２,,43,215,8630033,,,2021-07-08,清算の結了等,,,2015-10-05,1,,,,,ショウユウカイ,0
1313,4350002012847,登記記録の閉鎖等,0,2021-07-19,2021-07-15,吉忠不動産有限会社,,有限会社,宮崎県,延岡市,緑ケ丘１丁目１４番１９号,,45,203,8820863,,,2021-07-15,清算の結了等,,,2015-10-05,1,,,,,ヨシチュウフドウサン,0
1335,4430001065805,登記記録の閉鎖等,0,2021-07-19,2021-07-07,株式会社オーク運輸,,株式会社,北海道,江別市,工栄町２０番地６,,01,217,0670051,,,2021-07-07,清算の結了等,,,2015-10-05,1,,,,,オークウンユ,0
1374,5010401074158,登記記録の閉鎖等,0,2021-07-19,2021-07-06,株式会社コスメ・コム,,株式会社,東京都,港区,赤坂１丁目１２番３２号,,13,103,1070052,,,2021-07-06,合併による解散等,7010401091647,令和３年７月１日東京都港区赤坂一丁目１２番３２号株式会社アイスタイルリテール（7010401091647）に合併し解散,2015-10-05,1,,,,,コスメコム,0
1378,5010403015449,登記記録の閉鎖等,0,2021-07-19,2021-07-06,山の手市民ファンド合同会社,,合同会社,東京都,港区,元赤坂１丁目１番８号赤坂コミュニティビル４階,,13,103,1070051,,,2021-07-06,清算の結了等,,,2016-10-06,1,,,,,ヤマノテシミンファンド,0
1383,5010502009698,登記記録の閉鎖等,0,2021-07-19,2021-07-07,有限会社富士製本所,,有限会社,東京都,台東区,東上野３丁目３２番４号,,13,106,1100015,,,2021-07-07,清算の結了等,,,2015-10-05,1,,,,,フジセイホンジョ,0
1421,5011801033901,登記記録の閉鎖等,0,2021-07-19,2021-07-15,株式会社ｍａｒｒｏｎａｔｅ,,株式会社,東京都,足立区,保木間５丁目２４番２４号,,13,121,1210064,,,2021-07-15,清算の結了等,,,2017-09-25,1,,,,,マロネイト,0
1425,5020001126515,登記記録の閉鎖等,0,2021-07-19,2021-07-08,株式会社たすかる,,株式会社,神奈川県,横浜市金沢区,六浦東１丁目３４番４号ニューウェルテラス金沢八景Ｄ３０４号室,,14,108,2360037,,,2021-07-08,清算の結了等,,,2018-05-30,1,,,,,タスカル,0
1430,5020002075471,登記記録の閉鎖等,0,2021-07-19,2021-07-08,有限会社日浦組,,有限会社,神奈川県,横浜市旭区,白根町９９６番地４,,14,112,2410003,,,2021-07-08,清算の結了等,,,2015-10-05,1,,,,,ヒウラグミ,0
1431,5020002091923,登記記録の閉鎖等,0,2021-07-19,2021-07-08,有限会社熊谷組,,有限会社,神奈川県,川崎市多摩区,登戸２９８２番地１,,14,135,2140014,,,2021-07-08,清算の結了等,,,2015-10-05,1,,,,,クマガイグミ,0
1435,5021001013843,登記記録の閉鎖等,0,2021-07-19,2021-07-07,ブレインワークス株式会社,,株式会社,神奈川県,相模原市南区,若松５丁目２２番３号,,14,153,2520334,,,2021-07-07,清算の結了等,,,2015-10-05,1,,,,,ブレインワークス,0
1440,5021002020847,登記記録の閉鎖等,0,2021-07-19,2021-07-07,有限会社サロンド・イクドール,,有限会社,神奈川県,相模原市中央区,千代田６丁目１１番１５号,,14,152,2520237,,,2021-07-07,清算の結了等,,,2015-10-05,1,,,,,サロンドイクドール,0
1450,5030002078226,登記記録の閉鎖等,0,2021-07-19,2021-07-09,有限会社カミテック,,有限会社,埼玉県,川越市,砂新田３丁目１１番地１,,11,201,3501137,,,2021-07-09,清算の結了等,,,2015-10-05,1,,,,,カミテック,0
1451,5030003007308,登記記録の閉鎖等,0,2021-07-19,2021-07-08,合同会社ａｎｎｉｎａ,,合同会社,神奈川県,横浜市都筑区,仲町台３丁目１９番８号アロマ・ＹＮＴ１０１,,14,118,2240041,,,2021-07-08,清算の結了等,,,2015-10-05,1,,,,,,0
1467,5040002055983,登記記録の閉鎖等,0,2021-07-19,2021-07-07,石𣘺工務店有限会社,00020326,有限会社,千葉県,富里市,御料１０７８番地,,12,233,2860211,,,2021-07-07,清算の結了等,,,2015-10-05,1,,,,,イシバシコウムテン,0
1479,5080101006140,登記記録の閉鎖等,0,2021-07-19,2021-07-09,株式会社フューチャインフォメーションサービス,,株式会社,静岡県,三島市,加屋町８番２６号,,22,206,4110845,,,2021-07-09,清算の結了等,,,2015-10-05,1,,,,,フューチャインフォメーションサービス,0
1491,5120001003118,登記記録の閉鎖等,0,2021-07-19,2021-07-09,加賀屋商事株式会社,,株式会社,大阪府,大阪市西成区,玉出中２丁目１０番１０号,,27,122,5570044,,,2021-07-09,清算の結了等,,,2015-10-05,1,,,,,カガヤショウジ,0
1496,5120001068086,登記記録の閉鎖等,0,2021-07-19,2021-07-12,株式会社トラヤ,,株式会社,大阪府,大阪市北区,本庄東１丁目１９番９号,,27,127,5310074,,,2021-07-12,清算の結了等,,,2015-10-05,1,,,,,トラヤ,0
1503,5120001164463,登記記録の閉鎖等,0,2021-07-19,2021-07-07,株式会社オプティケセラ,,株式会社,大阪府,大阪市北区,本庄東１丁目１３番７－１２０４号,,27,127,5310074,,,2021-07-07,清算の結了等,,,2015-10-05,1,,,,,,0
1534,5122001027146,登記記録の閉鎖等,0,2021-07-19,2021-07-14,株式会社ＪｉＬＬ,,株式会社,大阪府,東大阪市,西堤西３－１９清洲プラザ１階,,27,227,5770048,,,2021-07-14,清算の結了等,,,2015-10-05,1,,,,,,0
1555,5140001070115,登記記録の閉鎖等,0,2021-07-19,2021-07-06,日吉綿業株式会社,,株式会社,兵庫県,西宮市,鳴尾浜１丁目６番３９,,28,204,6638142,,,2021-07-06,清算の結了等,,,2015-10-05,1,,,,,ヒヨシメンギョウ,0
1591,5200002015079,登記記録の閉鎖等,0,2021-07-19,2021-07-15,有限会社町田製作所,,有限会社,岐阜県,安八郡神戸町,大字末守６５６番地,,21,381,5032321,,,2021-07-15,清算の結了等,,,2015-10-05,1,,,,,マチダセイサクジョ,0
1595,5210001000064,登記記録の閉鎖等,0,2021-07-19,2021-07-13,アサヒ総業株式会社,,株式会社,福井県,福井市,松本１丁目５６番１２号,,18,201,9100003,,,2021-07-13,清算の結了等,,,2015-10-05,1,,,,,アサヒソウギョウ,0
1604,5240001038424,登記記録の閉鎖等,0,2021-07-19,2021-07-02,花谷建設株式会社,,株式会社,広島県,尾道市,因島三庄町３７５６番地の２,,34,205,7222322,,,2021-07-02,清算の結了等,,,2015-10-05,1,,,,,ハナタニケンセツ,0
1630,5290003001631,登記記録の閉鎖等,0,2021-07-19,2021-07-01,合同会社神英,,合同会社,福岡県,福岡市中央区,港２丁目９番９号,,40,133,8100075,,,2021-07-01,清算の結了等,,,2015-10-05,1,,,,,シンエイ,0
1641,5340001012451,登記記録の閉鎖等,0,2021-07-19,2021-07-07,株式会社五大,,株式会社,鹿児島県,鹿児島市,真砂町３４番３号３Ｆ,,46,201,8900066,,,2021-07-07,清算の結了等,,,2015-10-05,1,,,,,,0
1659,5380001021275,登記記録の閉鎖等,0,2021-07-19,2021-07-07,株式会社あすなろファーム,,株式会社,福島県,南相馬市,原町区下北高平字古舘２１３番地,,07,212,9750024,,,2021-07-07,清算の結了等,,,2015-10-05,1,,,,,アスナロファーム,0
1681,5470001000591,登記記録の閉鎖等,0,2021-07-19,2021-07-13,株式会社岩澤,,株式会社,香川県,木田郡三木町,大字氷上４７３８番地１,,37,341,7610612,,,2021-07-13,清算の結了等,,,2015-10-05,1,,,,,イワザワ,0
1698,6010001096923,登記記録の閉鎖等,0,2021-07-19,2021-07-13,サムシングホールディングス株式会社,,株式会社,東京都,江東区,木場１丁目５番２５号,,13,108,1350042,,,2021-07-13,合併による解散等,8010001123312,令和３年６月１日東京都江東区木場一丁目５番２５号株式会社サムシング（8010001123312）に合併し解散,2015-10-05,1,,,,,サムシングホールディングス,0
1750,6011101031150,登記記録の閉鎖等,0,2021-07-19,2021-07-06,日本データテクノロジー株式会社,,株式会社,東京都,新宿区,神楽坂６丁目６６番地,,13,104,1620825,,,2021-07-06,清算の結了等,,,2015-10-05,1,,,,,ニホンデータテクノロジー,0
1755,6011501025520,登記記録の閉鎖等,0,2021-07-19,2021-07-05,株式会社ゴッシュ,,株式会社,東京都,立川市,羽衣町２丁目３２番１５号,,13,202,1900021,,,2021-07-05,清算の結了等,,,2020-01-24,1,,,,,ゴッシュ,0
1774,6013401002525,登記記録の閉鎖等,0,2021-07-19,2021-07-14,ダイアネット株式会社,,株式会社,東京都,稲城市,百村１６２１番地の７,,13,225,2060804,,,2021-07-14,清算の結了等,,,2015-10-05,1,,,,,ダイアネット,0
1776,6013402004479,登記記録の閉鎖等,0,2021-07-19,2021-07-15,有限会社タガミ,,有限会社,東京都,多摩市,落合５丁目８番地１７－５０５,,13,224,2060033,,,2021-07-15,清算の結了等,,,2015-10-05,1,,,,,タガミ,0
1792,6030001082764,登記記録の閉鎖等,0,2021-07-19,2021-07-05,株式会社アドバンス,,株式会社,埼玉県,川口市,元郷３丁目２３番１７号,,11,203,3320011,,,2021-07-05,清算の結了等,,,2015-10-05,1,,,,,,0
1798,6030003017025,登記記録の閉鎖等,0,2021-07-19,2021-07-02,合同会社ＪＥＴ　ＬＡＧ,,合同会社,埼玉県,入間郡三芳町,大字竹間沢３６１番地１レクセルプラッツァみずほ台３２６号,,11,324,3540043,,,2021-07-02,清算の結了等,,,2021-04-13,1,,,,,ジェットラグ,0
1830,6080001009110,登記記録の閉鎖等,0,2021-07-19,2021-07-15,北真工業株式会社,,株式会社,静岡県,静岡市清水区,北脇新田２９３番地,,22,103,4240051,,,2021-07-15,清算の結了等,,,2015-10-05,1,,,,,ホクシンコウギョウ,0
1834,6080401021425,登記記録の閉鎖等,0,2021-07-19,2021-07-14,株式会社クラウドプレイス,,株式会社,静岡県,浜松市中区,鍛冶町１００番地の１アルファタワー１５０１号室,,22,131,4300933,,,2021-07-14,清算の結了等,,,2016-04-19,1,,,,,クラウドプレイス,0
1835,6080402002580,登記記録の閉鎖等,0,2021-07-19,2021-07-14,グリーン管財有限会社,,有限会社,静岡県,浜松市中区,八幡町１９９番地の１,,22,131,4300918,,,2021-07-14,清算の結了等,,,2015-10-05,1,,,,,グリーンカンザイ,0
1841,6110001030335,登記記録の閉鎖等,0,2021-07-19,2021-07-09,株式会社花開,,株式会社,新潟県,長岡市,川崎６丁目８５３番地,,15,202,9400864,,,2021-07-09,清算の結了等,,,2015-10-05,1,,,,,,0
1843,6110003001623,登記記録の閉鎖等,0,2021-07-19,2021-07-09,松田石油合資会社,,合資会社,新潟県,十日町市,中条甲９８０番地,,15,210,9498615,,,2021-07-09,清算の結了等,,,2015-10-05,1,,,,,マツダセキユ,0
1844,6120001016804,登記記録の閉鎖等,0,2021-07-19,2021-07-06,旭フニッシュ株式会社,,株式会社,大阪府,大阪市旭区,清水３丁目３４番１４号ユーフォリエ１０２,,27,117,5350021,,,2021-07-06,清算の結了等,,,2015-10-05,1,,,,,,0
1853,6120001213327,登記記録の閉鎖等,0,2021-07-19,2021-07-09,株式会社ラックス,,株式会社,大阪府,大阪市住吉区,我孫子２丁目１１番７号,,27,120,5580014,,,2021-07-09,清算の結了等,,,2018-05-16,1,,,,,ラックス,0
1880,6130003005696,登記記録の閉鎖等,0,2021-07-19,2021-07-09,ｕｎｉｕｎ合同会社,,合同会社,京都府,相楽郡精華町,光台１丁目７番地１３０９号,,26,366,6190237,,,2021-07-09,清算の結了等,,,2018-10-18,1,,,,,アニアン,0
1903,6180003020757,登記記録の閉鎖等,0,2021-07-19,2021-07-08,合同会社レオニードメンタルラーニング,,合同会社,愛知県,名古屋市昭和区,南分町３丁目２番地ジョイフル御器所２－３０５号,,23,107,4660849,,,2021-07-08,清算の結了等,,,2020-01-21,1,,,,,レオニードメンタルラーニング,0
1908,6190001022457,登記記録の閉鎖等,0,2021-07-19,2021-07-09,丸栄コンサルタント株式会社,,株式会社,三重県,松阪市,大黒田町８４２番地,,24,204,5150063,,,2021-07-09,清算の結了等,,,2015-10-05,1,,,,,マルエイコンサルタント,0
1915,6200002014518,登記記録の閉鎖等,0,2021-07-19,2021-07-15,有限会社ケーワイ,,有限会社,岐阜県,大垣市,笠木町５０番地９,,21,202,5030023,,,2021-07-15,清算の結了等,,,2015-10-05,1,,,,,ケーワイ,0
1924,6230005002715,登記記録の閉鎖等,0,2021-07-19,2021-07-02,勝満寺,,その他の設立登記法人,富山県,富山市,八尾町城生１２４５番地,,16,201,9392314,,,2021-07-02,清算の結了等,,,2015-10-05,1,,,,,ショウマンジ,0
1961,6350002001071,登記記録の閉鎖等,0,2021-07-19,2021-07-16,有限会社カンダ酒店,,有限会社,宮崎県,宮崎市,中津瀬町５６番地,,45,201,8800025,,,2021-07-16,清算の結了等,,,2015-10-05,1,,,,,カンダサケテン,0
1978,6380001027065,登記記録の閉鎖等,0,2021-07-19,2021-07-07,株式会社圭商ゴルフ倶楽部,,株式会社,福島県,東白川郡棚倉町,大字瀬ケ野字戸沢１６６番地,,07,481,9636153,,,2021-07-07,清算の結了等,,,2016-07-01,1,,,,,ケイショウゴルフクラブ,0
1982,6380002035488,登記記録の閉鎖等,0,2021-07-19,2021-07-07,有限会社新湯旅舘,,有限会社,福島県,南会津郡下郷町,大字湯野上字舘本乙１３２０番地,,07,362,9695206,,,2021-07-07,清算の結了等,,,2015-10-05,1,,,,,シンユリョカン,0
2011,7010001195815,登記記録の閉鎖等,0,2021-07-19,2021-07-05,株式会社ＭＳＷ,,株式会社,東京都,中央区,新川１丁目２６番２号,,13,102,1040033,,,2021-07-05,清算の結了等,,,2018-10-24,1,,,,,エムエスダブリュ,0
2024,7010401050842,登記記録の閉鎖等,0,2021-07-19,2021-07-12,株式会社ＤＡサーチ＆リンク,,株式会社,東京都,中央区,築地１丁目１３番１号,,13,102,1040045,,,2021-07-12,合併による解散等,4010401084372,令和３年７月１日東京都港区東新橋１－８－１電通本社ビル株式会社電通ダイレクト（4010401084372）に合併し解散,2015-10-05,1,,,,,ディーエーサーチアンドリンク,0
2045,7010701025899,登記記録の閉鎖等,0,2021-07-19,2021-07-12,株式会社アネラファーマ,,株式会社,東京都,品川区,荏原３丁目５番６号,,13,109,1420063,,,2021-07-12,清算の結了等,,,2015-10-05,1,,,,,アネラファーマ,0
2069,7011101081681,登記記録の閉鎖等,0,2021-07-19,2021-07-06,ブイアールイージ・ジャパン株式会社,,株式会社,東京都,新宿区,神楽坂６丁目６６番地,,13,104,1620825,,,2021-07-06,清算の結了等,,,2017-09-06,1,,,,,ブイアールイージジャパン,0
2088,7012301002072,登記記録の閉鎖等,0,2021-07-19,2021-07-05,株式会社原田新聞舗,,株式会社,東京都,町田市,鶴川４丁目９番地２１,,13,209,1950061,,,2021-07-05,清算の結了等,,,2015-10-05,1,,,,,ハラダシンブンホ,0
2094,7012702005145,登記記録の閉鎖等,0,2021-07-19,2021-07-09,有限会社青木商会,,有限会社,東京都,西東京市,田無町４丁目２８番７号,,13,229,1880011,,,2021-07-09,清算の結了等,,,2015-10-05,1,,,,,アオキショウカイ,0
2104,7020005004310,登記記録の閉鎖等,0,2021-07-19,2021-07-07,医療法人薫桐会,,その他の設立登記法人,神奈川県,横浜市都筑区,中川中央１丁目３９番４号マイキャッスルセンター北Ⅱ１階,00012051,14,118,2240003,,,2021-07-07,清算の結了等,,,2015-10-05,1,,,,,クントウカイ,0
2110,7021005006437,登記記録の閉鎖等,0,2021-07-19,2021-07-07,特定非営利活動法人しのくぼ,,その他の設立登記法人,神奈川県,足柄上郡大井町,篠窪４３７番地,,14,362,2580011,,,2021-07-07,清算の結了等,,,2015-10-05,1,,,,,シノクボ,0
2113,7030001031258,登記記録の閉鎖等,0,2021-07-19,2021-07-05,山内プレス工業株式会社,,株式会社,埼玉県,久喜市,砂原１丁目３番２８号,,11,232,3400218,,,2021-07-05,清算の結了等,,,2015-10-05,1,,,,,ヤマウチプレス,0
2115,7030001053525,登記記録の閉鎖等,0,2021-07-19,2021-07-09,株式会社玉富,,株式会社,埼玉県,春日部市,粕壁東１丁目２１番２２号,,11,214,3440062,,,2021-07-09,清算の結了等,,,2015-10-05,1,,,,,ギョクフ,0
2143,7040002099376,登記記録の閉鎖等,0,2021-07-19,2021-07-09,有限会社齊藤工務店,,有限会社,千葉県,館山市,竹原２６８番地,,12,205,2940001,,,2021-07-09,清算の結了等,,,2015-10-05,1,,,,,サイトウコウムテン,0
2155,7060003000308,登記記録の閉鎖等,0,2021-07-19,2021-07-06,オフィスせきぐち合同会社,,合同会社,栃木県,宇都宮市,雀の宮１丁目２２番１７号,,09,201,3210132,,,2021-07-06,清算の結了等,,,2015-10-05,1,,,,,オフィスセキグチ,0
2156,7060005009603,登記記録の閉鎖等,0,2021-07-19,2021-07-06,黒羽森林事業協同組合,,その他の設立登記法人,栃木県,大田原市,北滝２１７番地,,09,210,3240224,,,2021-07-06,清算の結了等,,,2019-04-08,1,,,,,クロバネシンリン,0
2190,7120001212996,登記記録の閉鎖等,0,2021-07-19,2021-07-08,ｐｒｏｊｅｃｔ　ｄａｄａ株式会社,,株式会社,大阪府,大阪市中央区,備後町３丁目６－２－１０Ｆ,,27,128,5410051,,,2021-07-08,清算の結了等,,,2018-04-27,1,,,,,,0
2213,7140001015869,登記記録の閉鎖等,0,2021-07-19,2021-07-09,オンワード国際株式会社,,株式会社,兵庫県,神戸市長田区,大橋町１丁目１番１０号プレシオス島田ビル５階,,28,106,6530037,,,2021-07-09,清算の結了等,,,2015-10-05,1,,,,,,0
2221,7140002013343,登記記録の閉鎖等,0,2021-07-19,2021-07-12,有限会社オフィスムー,,有限会社,兵庫県,神戸市中央区,山本通１丁目７番２１号,,28,110,6500003,,,2021-07-12,清算の結了等,,,2015-10-05,1,,,,,オフィスムー,0
2222,7140002023540,登記記録の閉鎖等,0,2021-07-19,2021-07-09,有限会社シャワックス,,有限会社,兵庫県,神戸市西区,水谷２丁目１６番９号,,28,111,6512121,,,2021-07-09,清算の結了等,,,2015-10-05,1,,,,,シャワックス,0
2223,7140002026964,登記記録の閉鎖等,0,2021-07-19,2021-07-09,有限会社神戸商大サービス,,有限会社,兵庫県,芦屋市,業平町５番１８－３０３号,,28,206,6590068,,,2021-07-09,清算の結了等,,,2015-10-05,1,,,,,コウベショウダイサービス,0
2227,7160001019125,登記記録の閉鎖等,0,2021-07-19,2021-07-06,株式会社ＲＳＫ,,株式会社,滋賀県,野洲市,行畑２丁目１７番１１号,,25,210,5202341,,,2021-07-06,清算の結了等,,,2015-11-30,1,,,,,アールエスケー,0
2229,7160002002121,登記記録の閉鎖等,0,2021-07-19,2021-07-08,有限会社デックス,,有限会社,滋賀県,大津市,和邇高城３９１番地の１４,,25,201,5200528,,,2021-07-08,清算の結了等,,,2015-10-05,1,,,,,デックス,0
2230,7160002005108,登記記録の閉鎖等,0,2021-07-19,2021-07-08,有限会社共進住建,,有限会社,滋賀県,湖南市,菩提寺１１６４番地,,25,211,5203242,,,2021-07-08,清算の結了等,,,2015-10-05,1,,,,,キョウシンジュウケン,0
2245,7180005017825,登記記録の閉鎖等,0,2021-07-19,2021-07-14,特定非営利活動法人コスモグローバルコミュニケーションズスクール,,その他の設立登記法人,愛知県,名古屋市中区,金山４丁目１番２４号コスモビルⅡ９Ｆ,00113483,23,106,4600022,,,2021-07-14,清算の結了等,,,2018-05-22,1,,,,,コスモグローバルコミュニケーションズスクール,0
2253,7200002028087,登記記録の閉鎖等,0,2021-07-19,2021-07-15,有限会社六ノ里,,有限会社,岐阜県,郡上市,白鳥町六ノ里１４１０番地の１８,,21,219,5015112,,,2021-07-15,清算の結了等,,,2015-10-05,1,,,,,ロクノリ,0
2255,7200005001891,登記記録の閉鎖等,0,2021-07-19,2021-06-30,特定非営利活動法人アースバンク,,その他の設立登記法人,岐阜県,岐阜市,西中島３丁目２番１３号,,21,201,5020916,,,2021-06-30,清算の結了等,,,2015-10-05,1,,,,,アースバンク,0
2270,7290001041735,登記記録の閉鎖等,0,2021-07-19,2021-07-01,株式会社ワスカ,,株式会社,福岡県,太宰府市,都府楼南１丁目１番１１号,,40,221,8180105,,,2021-07-01,清算の結了等,,,2015-10-05,1,,,,,ワスカ,0
2271,7290001061072,登記記録の閉鎖等,0,2021-07-19,2021-07-01,株式会社適エネ,,株式会社,東京都,千代田区,平河町２丁目７番５号,,13,101,1020093,,,2021-07-01,合併による解散等,2360001016965,令和３年７月１日東京都千代田区平河町二丁目７番５号株式会社フェニックス技研（2360001016965）に合併し解散,2015-10-05,1,,,,,テキエネ,0
2294,7350002018429,登記記録の閉鎖等,0,2021-07-19,2021-07-13,有限会社若松電気工事店,,有限会社,宮崎県,西諸県郡高原町,大字広原４９６２番地４,,45,361,8894411,,,2021-07-13,清算の結了等,,,2015-10-05,1,,,,,ワカマツデンキコウジテン,0
2297,7360001014444,登記記録の閉鎖等,0,2021-07-19,2021-07-06,株式会社アライバル,,株式会社,沖縄県,那覇市,字真地２２９番地９,,47,201,9020072,,,2021-07-06,清算の結了等,,,2015-10-05,1,,,,,アライバル,0
2303,7370301000977,登記記録の閉鎖等,0,2021-07-19,2021-07-02,株式会社奈須野組,,株式会社,宮城県,石巻市,中屋敷２丁目４番２０３号,,04,202,9860849,,,2021-07-02,清算の結了等,,,2015-10-05,1,,,,,ナスノグミ,0
2306,7380002007809,登記記録の閉鎖等,0,2021-07-19,2021-07-08,石川開発有限会社,,有限会社,福島県,郡山市,桑野２丁目３４番９号,,07,203,9638025,,,2021-07-08,清算の結了等,,,2015-10-05,1,,,,,イシカワ,0
2307,7380002022510,登記記録の閉鎖等,0,2021-07-19,2021-07-07,有限会社梅谷興業,,有限会社,福島県,いわき市,小名浜字辰巳町３５番地,,07,204,9718101,,,2021-07-07,清算の結了等,,,2015-10-05,1,,,,,ウメガイコウギョウ,0
2325,7460001004237,登記記録の閉鎖等,0,2021-07-19,2021-07-15,株式会社アース企画,,株式会社,北海道,釧路郡釧路町,北見団地２丁目１番地,,01,661,0880625,,,2021-07-15,清算の結了等,,,2015-10-05,1,,,,,アースキカク,0
2374,8010801008571,登記記録の閉鎖等,0,2021-07-19,2021-07-08,株式会社トリウミ,,株式会社,東京都,大田区,羽田２丁目７番３号,,13,111,1440043,,,2021-07-08,清算の結了等,,,2015-10-05,1,,,,,トリウミ,0
2427,8030001017883,登記記録の閉鎖等,0,2021-07-19,2021-07-01,越谷自工株式会社,,株式会社,埼玉県,さいたま市岩槻区,大字真福寺１３６５番地１,,11,110,3390044,,,2021-07-01,合併による解散等,4030001126424,令和３年７月１日埼玉県さいたま市岩槻区大字真福寺１３６５番地１フロンティア株式会社（4030001126424）に合併し解散,2015-10-05,1,,,,,コシガヤジコウ,0
2428,8030001042345,登記記録の閉鎖等,0,2021-07-19,2021-07-05,株式会社栄商事,,株式会社,埼玉県,北足立郡伊奈町,大字小室２２８１番地１,,11,301,3620806,,,2021-07-05,清算の結了等,,,2015-10-05,1,,,,,サカエショウジ,0
2430,8030001060504,登記記録の閉鎖等,0,2021-07-19,2021-07-09,株式会社サン２１,,株式会社,埼玉県,本庄市,千代田３丁目２番１１号,,11,211,3670054,,,2021-07-09,清算の結了等,,,2015-10-05,1,,,,,サンニジュウイチ,0
2433,8030001127468,登記記録の閉鎖等,0,2021-07-19,2021-07-06,株式会社ノーサイドスタイル,,株式会社,埼玉県,さいたま市中央区,本町東７丁目１３番２４号,,11,105,3380003,,,2021-07-06,清算の結了等,,,2018-09-21,1,,,,,ノーサイドスタイル,0
2465,8060001032665,登記記録の閉鎖等,0,2021-07-19,2021-07-07,ｗｏｒｋ　Ｊａｐａｎ株式会社,,株式会社,栃木県,小山市,駅東通り２丁目１６番１０号,,09,208,3230022,,,2021-07-07,清算の結了等,,,2020-06-08,1,,,,,ワークジャパン,0
2474,8080401017909,登記記録の閉鎖等,0,2021-07-19,2021-07-15,株式会社ホロネット,,株式会社,静岡県,袋井市,湊１９８番地の１,,22,216,4371115,,,2021-07-15,清算の結了等,,,2015-10-05,1,,,,,ホロネット,0
2485,8110001029631,登記記録の閉鎖等,0,2021-07-19,2021-07-12,株式会社幸姫,,株式会社,新潟県,新潟市秋葉区,山谷町２丁目１６番１３号,,15,105,9560024,,,2021-07-12,清算の結了等,,,2015-10-05,1,,,,,コウキ,0
2525,8120901010581,登記記録の閉鎖等,0,2021-07-19,2021-07-15,大阪カネヨシ株式会社,,株式会社,大阪府,高槻市,芝生町１丁目５５番１号,,27,207,5690823,,,2021-07-15,清算の結了等,,,2015-10-05,1,,,,,,0
2532,8130001009458,登記記録の閉鎖等,0,2021-07-19,2021-07-06,株式会社茶寮都路里,,株式会社,京都府,京都市東山区,祇園町南側５７３番地の３,00035315,26,105,6050074,,,2021-07-06,合併による解散等,2130001009158,令和３年７月１日京都市東山区祇園町南側５７３番地の３株式会社祇園辻利（2130001009158）に合併し解散,2015-10-05,1,,,,,サリョウツジリ,0
2543,8140001083774,登記記録の閉鎖等,0,2021-07-19,2021-07-12,株式会社関西クラフト,,株式会社,兵庫県,伊丹市,池尻６丁目２９３番地２,,28,207,6640027,,,2021-07-12,清算の結了等,,,2015-10-05,1,,,,,,0
2551,8140005021689,登記記録の閉鎖等,0,2021-07-19,2021-07-12,農事組合法人丹波みすまる,,その他の設立登記法人,兵庫県,丹波市,春日町多田１０５０番地,,28,223,6694125,,,2021-07-12,清算の結了等,,,2015-10-05,1,,,,,タンバミスマル,0
2557,8160001016550,登記記録の閉鎖等,0,2021-07-19,2021-07-07,株式会社サロン・ド・イヴ,,株式会社,滋賀県,甲賀市,甲南町杉谷１１１８番地,,25,209,5203314,,,2021-07-07,清算の結了等,,,2015-10-05,1,,,,,サロンドイヴ,0
2560,8170003001013,登記記録の閉鎖等,0,2021-07-19,2021-07-16,合同会社あがいろ,,合同会社,和歌山県,海南市,大野中６７７番地４,,30,202,6420022,,,2021-07-16,清算の結了等,,,2015-10-16,1,,,,,アガイロ,0
2562,8180001081650,登記記録の閉鎖等,0,2021-07-19,2021-07-05,株式会社アシスト,,株式会社,愛知県,犬山市,大字犬山字東古券２８３番地,,23,215,4840083,,,2021-07-05,清算の結了等,,,2015-10-05,1,,,,,アシスト,0
2570,8200002012271,登記記録の閉鎖等,0,2021-07-19,2021-07-15,有限会社生駒設計,,有限会社,岐阜県,大垣市,島里２丁目４６番地１１,,21,202,5030935,,,2021-07-15,清算の結了等,,,2015-10-05,1,,,,,イコマセッケイ,0
2576,8240002013828,登記記録の閉鎖等,0,2021-07-19,2021-07-02,有限会社ビューティーサプライシモモト,,有限会社,広島県,広島市安佐北区,安佐町大字鈴張５０３１番地１,,34,106,7311141,,,2021-07-02,清算の結了等,,,2015-10-05,1,,,,,ビューティーサプライシモモト,0
2583,8260002029491,登記記録の閉鎖等,0,2021-07-19,2021-07-13,美作スズキ販売有限会社,,有限会社,岡山県,津山市,高尾４８２番地,,33,203,7080876,,,2021-07-13,清算の結了等,,,2015-10-05,1,,,,,ミマサカスズキハンバイ,0
2614,8330002023264,登記記録の閉鎖等,0,2021-07-19,2021-07-05,有限会社南阿蘇緑化,,有限会社,熊本県,阿蘇郡高森町,大字上色見７５５番地,,43,428,8691601,,,2021-07-05,清算の結了等,,,2015-10-05,1,,,,,ミナミアソリョッカ,0
2628,8360002015639,登記記録の閉鎖等,0,2021-07-19,2021-07-08,有限会社ケイ・エフ,,有限会社,沖縄県,那覇市,首里金城町１丁目４８番地,,47,201,9030815,,,2021-07-08,清算の結了等,,,2015-10-05,1,,,,,,0
2641,8430001035143,登記記録の閉鎖等,0,2021-07-19,2021-06-30,株式会社新札幌企画,,株式会社,北海道,札幌市厚別区,厚別中央一条７丁目１４番３０号,,01,108,0040051,,,2021-06-30,清算の結了等,,,2015-10-05,1,,,,,シンサッポロキカク,0
2643,8430001039053,登記記録の閉鎖等,0,2021-07-19,2021-07-07,ビズ・ブリッジ株式会社,,株式会社,北海道,札幌市南区,南三十八条西１１丁目３７７番地９１,,01,106,0050038,,,2021-07-07,清算の結了等,,,2015-10-05,1,,,,,ビズブリッジ,0
2655,8500002009163,登記記録の閉鎖等,0,2021-07-19,2021-07-12,有限会社ユー・テック,,有限会社,愛媛県,松山市,高岡町９４番地１,,38,201,7918036,,,2021-07-12,清算の結了等,,,2015-10-05,1,,,,,ユーテック,0
2659,9010001000626,登記記録の閉鎖等,0,2021-07-19,2021-07-09,石田樹脂工業株式会社,,株式会社,東京都,文京区,千駄木３丁目５１番１０号,,13,105,1130022,,,2021-07-09,清算の結了等,,,2015-10-05,1,,,,,イシダジュシコウギョウ,0
2662,9010001010195,登記記録の閉鎖等,0,2021-07-19,2021-07-05,株式会社アビコプリンテイング,,株式会社,東京都,千代田区,神田美土代町７番地１０,,13,101,1010053,,,2021-07-05,清算の結了等,,,2015-10-05,1,,,,,アビコプリンティング,0
2677,9010001201091,登記記録の閉鎖等,0,2021-07-19,2021-07-07,株式会社Ｃｒｅｄｅｎｔｉａ　Ｂｌｏｃｋｃｈａｉｎ　Ｔｅｃｈｎｏｌｏｇｉｅｓ,,株式会社,東京都,文京区,本駒込５丁目５－５三階Ａ号,,13,105,1130021,,,2021-07-07,清算の結了等,,,2019-06-12,1,,,,,クレデンシアブロックチェーンテクノロジーズ,0
2689,9010401060864,登記記録の閉鎖等,0,2021-07-19,2021-07-08,株式会社アークオフィス,,株式会社,神奈川県,横浜市保土ケ谷区,峰沢町３０７番地２Ｄ－２０１号室,,14,106,2400061,,,2021-07-08,清算の結了等,,,2015-10-05,1,,,,,アークオフィス,0
2732,9011402009371,登記記録の閉鎖等,0,2021-07-19,2021-07-14,有限会社横井金型製作所,,有限会社,東京都,板橋区,清水町２１番６号,,13,119,1740053,,,2021-07-14,清算の結了等,,,2015-10-05,1,,,,,ヨコイカナガタセイサクショ,0
2749,9013301037833,登記記録の閉鎖等,0,2021-07-19,2021-07-13,アンウェイトレーディング株式会社,,株式会社,東京都,豊島区,南池袋２丁目２９番１２号７階,,13,116,1710022,,,2021-07-13,清算の結了等,,,2015-10-26,1,,,,,アンウェイトレーディング,0
2758,9020002078017,登記記録の閉鎖等,0,2021-07-19,2021-07-07,有限会社ＴＮＫプランニング,,有限会社,神奈川県,横浜市南区,井土ケ谷上町２０－４－１０７,,14,105,2320051,,,2021-07-07,清算の結了等,,,2015-10-05,1,,,,,テイエヌケイプランニング,0
2773,9030001080939,登記記録の閉鎖等,0,2021-07-19,2021-07-02,株式会社スミレ・エコセンター,,株式会社,埼玉県,川口市,大字安行原１９３番地５,,11,203,3340057,,,2021-07-02,清算の結了等,,,2015-10-05,1,,,,,スミレエコセンター,0
2781,9030002094806,登記記録の閉鎖等,0,2021-07-19,2021-07-09,アイヅ・システム有限会社,,有限会社,埼玉県,鶴ヶ島市,新町２丁目１５番地１０,,11,241,3502227,,,2021-07-09,清算の結了等,,,2015-10-05,1,,,,,アイヅシステム,0
2782,9030003012634,登記記録の閉鎖等,0,2021-07-19,2021-07-07,ＱＩＱＡＩ合同会社,,合同会社,埼玉県,日高市,武蔵台１丁目４３番９号,,11,242,3501255,,,2021-07-07,清算の結了等,,,2018-11-05,1,,,,,キュウアイキュウエーアイ,0
2788,9040001051765,登記記録の閉鎖等,0,2021-07-19,2021-07-07,グリーン開発株式会社,,株式会社,千葉県,富津市,亀沢１１８番地１,,12,226,2930051,,,2021-07-07,清算の結了等,,,2015-10-05,1,,,,,グリーンカイハツ,0
2806,9050002022509,登記記録の閉鎖等,0,2021-07-19,2021-07-07,有限会社クラタ,,有限会社,茨城県,つくば市,東岡５５４番地,,08,220,3050027,,,2021-07-07,清算の結了等,,,2015-10-05,1,,,,,クラタ,0
2810,9060002027523,登記記録の閉鎖等,0,2021-07-19,2021-07-05,有限会社栃木ファームサービス,,有限会社,栃木県,矢板市,土屋８２１番地,,09,211,3292131,,,2021-07-05,清算の結了等,,,2015-10-05,1,,,,,トチギファームサービス,0
2818,9080102017067,登記記録の閉鎖等,0,2021-07-19,2021-07-13,有限会社肉の桑原,,有限会社,静岡県,富士宮市,宮原３３６番地の６,,22,207,4180005,,,2021-07-13,清算の結了等,,,2015-10-05,1,,,,,ニクノクワハラ,0
2858,9120102003376,登記記録の閉鎖等,0,2021-07-19,2021-07-15,有限会社テクノグリーン,,有限会社,大阪府,堺市南区,原山台４丁１４番１号,,27,145,5900132,,,2021-07-15,清算の結了等,,,2015-10-05,1,,,,,テクノグリーン,0
2875,9130001014408,登記記録の閉鎖等,0,2021-07-19,2021-07-12,株式会社光芸,,株式会社,京都府,京都市伏見区,深草フケノ内町３番地の１３,,26,109,6120018,,,2021-07-12,清算の結了等,,,2015-10-05,1,,,,,コウゲイ,0
2884,9140001067264,登記記録の閉鎖等,0,2021-07-19,2021-07-02,株式会社パークマネジメントひょうご,,株式会社,兵庫県,神戸市東灘区,住吉宮町６丁目１０番５号,,28,101,6580053,,,2021-07-02,清算の結了等,,,2015-10-05,1,,,,,パークマネジメントヒョウゴ,0
2894,9140005007539,登記記録の閉鎖等,0,2021-07-19,2021-07-12,赤穂造園緑化協同組合,,その他の設立登記法人,兵庫県,赤穂市,加里屋南１番地の１５,,28,212,6780234,,,2021-07-12,清算の結了等,,,2015-10-05,1,,,,,アコウゾウエンリョッカ,0
2898,9160001008489,登記記録の閉鎖等,0,2021-07-19,2021-07-06,株式会社チャイミィインターナショナル,,株式会社,滋賀県,彦根市,西葛籠町３３０番地の３,,25,202,5220213,,,2021-07-06,清算の結了等,,,2015-10-05,1,,,,,チャイミィインターナショナル,0
2909,9180001124838,登記記録の閉鎖等,0,2021-07-19,2021-07-08,株式会社ＬｕｍｉｎｏＬａｂ,,株式会社,愛知県,名古屋市中区,錦３丁目１５－３１モリヤス錦ビル４階,,23,106,4600003,,,2021-07-08,清算の結了等,,,2016-09-15,1,,,,,,0
2946,9320002014024,登記記録の閉鎖等,0,2021-07-19,2021-07-08,有限会社長岡家具店,,有限会社,大分県,宇佐市,大字長洲３５９番地,,44,211,8720001,,,2021-07-08,清算の結了等,,,2015-10-05,1,,,,,ナガオカカグテン,0
2953,9330002019419,登記記録の閉鎖等,0,2021-07-19,2021-07-07,有限会社平山保険事務所,,有限会社,熊本県,熊本市北区,植木町滴水１４２番地７,,43,105,8610133,,,2021-07-07,清算の結了等,,,2015-10-05,1,,,,,ヒラヤマホケンジムショ,0
2955,9330005008864,登記記録の閉鎖等,0,2021-07-19,2021-07-06,一般社団法人九州再生可能エネルギー普及促進協議会,,その他の設立登記法人,熊本県,熊本市北区,山室６丁目１番１６－１０７号レジデンス２４,,43,105,8600084,,,2021-07-06,清算の結了等,,,2015-10-05,1,,,,,キュウシュウサイセイカノウエネルギーフキュウソクシンキョウギカイ,0
2957,9340002010938,登記記録の閉鎖等,0,2021-07-19,2021-07-08,有限会社よしきや,,有限会社,鹿児島県,鹿児島市,下荒田１丁目４番１４号,,46,201,8900056,,,2021-07-08,清算の結了等,,,2015-10-05,1,,,,,,0
2978,9420001009221,登記記録の閉鎖等,0,2021-07-19,2021-07-07,株式会社千代田信用,,株式会社,青森県,弘前市,大字元寺町２７番地,,02,202,0368355,,,2021-07-07,清算の結了等,,,2015-10-05,1,,,,,チヨダシンヨウ,0
