sequenceNumber,corporateNumber,process,correct,updateDate,changeDate,name,nameImageId,kind,prefectureName,cityName,streetNumber,addressImageId,prefectureCode,cityCode,postCode,addressOutside,addressOutsideImageId,closeDate,closeCause,successorCorporateNumber,changeCause,assignmentDate,latest,enName,enPrefectureName,enCityName,enAddressOutside,furigana,hihyoji
10,1010001254205,新規,0,2025-05-15,2025-05-15,Ｈｙｄｒｉｏｎ株式会社,,株式会社,東京都,中央区,銀座１丁目２２番１１号銀座大竹ビジデンス２Ｆ,,13,102,1040061,,,,,,,2025-05-15,1,,,,,ハイドリオン,0
11,1010001255038,新規,0,2025-05-15,2025-05-15,株式会社ＳＡＬＥＳ　ＢＡＮＫ,,株式会社,東京都,中央区,銀座１丁目２２番１１号銀座大竹ビジデンス２Ｆ,,13,102,1040061,,,,,,,2025-05-15,1,,,,,セールスバンク,0
12,1010001255070,新規,0,2025-05-15,2025-05-15,株式会社Ｂｒｉｃｋ　Ｍａｎ,,株式会社,東京都,中央区,湊３丁目２番７号朝日銀座東ビル４０２号室,,13,102,1040043,,,,,,,2025-05-15,1,,,,,ブリックマン,0
20,1010401190330,新規,0,2025-05-15,2025-05-15,ＭＭ　ＶＥＳＳＥＬ４株式会社,,株式会社,東京都,港区,虎ノ門１丁目１番１２号,,13,103,1050001,,,,,,,2025-05-15,1,,,,,エムエムベッセルフォー,0
23,1010403035120,新規,0,2025-05-15,2025-05-15,合同会社谷川,,合同会社,東京都,港区,虎ノ門２丁目６番１号虎ノ門ヒルズステーションタワー,,13,103,1050001,,,,,,,2025-05-15,1,,,,,タニガワ,0
25,1010501054047,新規,0,2025-05-15,2025-05-15,塔里木株式会社,,株式会社,東京都,台東区,蔵前４丁目１６－６ストーク蔵前Ｍ＆Ｋ４階４０７,,13,106,1110051,,,,,,,2025-05-15,1,,,,,タリム,0
26,1010501054063,新規,0,2025-05-15,2025-05-15,株式会社アイゼン工業,,株式会社,東京都,台東区,寿３丁目１番７ー７０１号ベルザ浅草寿,,13,106,1110042,,,,,,,2025-05-15,1,,,,,アイゼンコウギョウ,0
27,1010503007820,新規,0,2025-05-15,2025-05-15,ＳＳＴ合同会社,,合同会社,東京都,台東区,根岸３丁目２番１３－９０１号ルフォン根岸三丁目,,13,106,1100003,,,,,,,2025-05-15,1,,,,,エスエスティー,0
30,1010701047684,新規,0,2025-05-15,2025-05-15,ストローラー株式会社,,株式会社,東京都,品川区,南大井３丁目２２番３号ジョイフル大森６０４号,,13,109,1400013,,,,,,,2025-05-15,1,,,,,ストローラー,0
31,1010803005383,新規,0,2025-05-15,2025-05-15,合同会社未来リノベーション,,合同会社,東京都,大田区,下丸子３丁目２７番１９号,,13,111,1460092,,,,,,,2025-05-15,1,,,,,ミライリノベーション,0
36,1010901057244,新規,0,2025-05-15,2025-05-15,ＳｔａｒＦｒｅａｋ　Ａｇｅｎｃｙ株式会社,,株式会社,東京都,世田谷区,経堂５丁目１番２２号,,13,112,1560052,,,,,,,2025-05-15,1,,,,,スターフリークエージェンシー,0
37,1010901057368,新規,0,2025-05-15,2025-05-15,ケアギフト株式会社,,株式会社,東京都,世田谷区,駒沢３丁目２８－１５,,13,112,1540012,,,,,,,2025-05-15,1,,,,,ケアギフト,0
38,1010903009920,新規,0,2025-05-15,2025-05-15,合同会社ソラリス,,合同会社,東京都,世田谷区,鎌田４丁目１１－１６－Ｄ,,13,112,1570077,,,,,,,2025-05-15,1,,,,,ソラリス,0
48,1011001169368,新規,0,2025-05-15,2025-05-15,株式会社ＢＯＢＵＣＨＩ,,株式会社,東京都,渋谷区,宇田川町３６番２号,,13,113,1500042,,,,,,,2025-05-15,1,,,,,ボブチ,0
49,1011001169616,新規,0,2025-05-15,2025-05-15,株式会社ＷＡＮＧＰＡＩ,,株式会社,東京都,目黒区,青葉台１丁目２３番１４－３０１号,,13,110,1530042,,,,,,,2025-05-15,1,,,,,ワンパイ,0
55,1011101111725,新規,0,2025-05-15,2025-05-15,ユニゾソーシング株式会社,,株式会社,東京都,新宿区,西早稲田２丁目１８番２０号,,13,104,1690051,,,,,,,2025-05-15,1,,,,,ユニゾソーシング,0
62,1011501032059,新規,0,2025-05-15,2025-05-15,株式会社ダイセイ,,株式会社,東京都,北区,神谷２丁目２０番１１号,,13,117,1150043,,,,,,,2025-05-15,1,,,,,ダイセイ,0
67,1011801046114,新規,0,2025-05-15,2025-05-15,株式会社阿宝,,株式会社,東京都,足立区,加賀１丁目１６－１３－１０２,,13,121,1230861,,,,,,,2025-05-15,1,,,,,アボウ,0
72,1012401043096,新規,0,2025-05-15,2025-05-15,株式会社ＷＥＡＶＩＮＧ,,株式会社,東京都,府中市,住吉町２丁目１２番地の４ベルメゾン住吉第３－２０４,,13,206,1830034,,,,,,,2025-05-15,1,,,,,ウイービング,0
85,1020001162654,新規,0,2025-05-15,2025-05-15,株式会社ダックス,,株式会社,神奈川県,川崎市幸区,鹿島田１丁目１０番２８号,,14,132,2120058,,,,,,,2025-05-15,1,,,,,ダックス,0
86,1020001162737,新規,0,2025-05-15,2025-05-15,株式会社ブレインドット,,株式会社,神奈川県,横浜市瀬谷区,三ツ境１番地５ヒルトップ壱番館３０１,,14,114,2460022,,,,,,,2025-05-15,1,,,,,ブレインドット,0
87,1020001162811,新規,0,2025-05-15,2025-05-15,傑成株式会社,,株式会社,神奈川県,川崎市高津区,上作延５丁目６番２１号,,14,134,2130034,,,,,,,2025-05-15,1,,,,,ケッセイ,0
88,1020001162852,新規,0,2025-05-15,2025-05-15,株式会社トンボテクノロジ,,株式会社,神奈川県,横浜市金沢区,能見台東８番Ａ－２０３号,,14,108,2360058,,,,,,,2025-05-15,1,,,,,トンボテクノロジ,0
91,1020003028498,新規,0,2025-05-15,2025-05-15,Ｏ３プロパティ合同会社,,合同会社,神奈川県,横浜市中区,桜木町１丁目１０１番地１クロスゲート７階,,14,104,2310062,,,,,,,2025-05-15,1,,,,,オースリープロパティ,0
93,1020005016856,新規,0,2025-05-15,2025-05-15,社会保険労務士法人労務管理サポート,,その他の設立登記法人,神奈川県,横浜市鶴見区,鶴見中央４丁目３２番１号ＵＮＥＸビル４０２号,,14,101,2300051,,,,,,,2025-05-15,1,,,,,ロウムカンリサポート,0
96,1021001085218,新規,0,2025-05-15,2025-05-15,株式会社産業医ＧＥＫＫＯ,,株式会社,神奈川県,藤沢市,湘南台２丁目１０－５アンドウビル５階,,14,205,2520804,,,,,,,2025-05-15,1,,,,,サンギョウイゲッコウ,0
99,1021003015998,新規,0,2025-05-15,2025-05-15,合同会社Ｏｆｆｉｃｅ　ＯＨＡＳＨＩ,,合同会社,神奈川県,相模原市南区,相模大野７丁目２２番１２－９０２号,,14,153,2520303,,,,,,,2025-05-15,1,,,,,オフィスオオハシ,0
100,1021005013364,新規,0,2025-05-15,2025-05-15,一般社団法人寺院葬祭連盟,,その他の設立登記法人,神奈川県,逗子市,逗子５丁目４番３５号,,14,208,2490006,,,,,,,2025-05-15,1,,,,,ジインソウサイレンメイ,0
104,1030001166547,新規,0,2025-05-15,2025-05-15,ルミエル株式会社,,株式会社,埼玉県,川口市,芝富士１丁目１０－２２ハーティヴィラ芝富士３Ｆ,,11,203,3330854,,,,,,,2025-05-15,1,,,,,ルミエル,0
113,1040001138710,新規,0,2025-05-15,2025-05-15,株式会社Ｔｒｕｓｔ　Ｍｕｚｅ,,株式会社,千葉県,印旛郡酒々井町,中央台４丁目３番６号,,12,322,2850922,,,,,,,2025-05-15,1,,,,,トラストミューズ,0
115,1040003027572,新規,0,2025-05-15,2025-05-15,ＬｉｏｎＤ’ｏｒ　ｉｎｔｅｒｎａｔｉｏｎａｌ合同会社,,合同会社,千葉県,山武郡芝山町,大里５６番地１,,12,409,2891603,,,,,,,2025-05-15,1,,,,,リオンドールインターナショナル,0
117,1050003009256,新規,0,2025-05-15,2025-05-15,合同会社川友ソーラーフロンティア,,合同会社,茨城県,ひたちなか市,大字足崎２８０番地１,,08,221,3120003,,,,,,,2025-05-15,1,,,,,カワトモソーラーフロンティア,0
125,1070001042934,新規,0,2025-05-15,2025-05-15,株式会社ＣＫ運送,,株式会社,群馬県,高崎市,飯塚町１５４７番地１８,,10,202,3700069,,,,,,,2025-05-15,1,,,,,シイケイウンソウ,0
137,1110001039249,新規,0,2025-05-15,2025-05-15,株式会社ＬＤＰ,,株式会社,新潟県,五泉市,寺沢１丁目５番７号,,15,218,9591837,,,,,,,2025-05-15,1,,,,,エルディーピー,0
138,1110001039265,新規,0,2025-05-15,2025-05-15,株式会社大口空調,,株式会社,新潟県,妙高市,大字雪森６５２番地１５,,15,217,9440098,,,,,,,2025-05-15,1,,,,,オオクチクウチョウ,0
151,1120001275454,新規,0,2025-05-15,2025-05-15,株式会社ａｎｄ　Ｗ,,株式会社,大阪府,大阪市中央区,玉造１丁目６番２６号１Ｆ,,27,128,5400004,,,,,,,2025-05-15,1,,,,,アンドダブル,0
152,1120001275553,新規,0,2025-05-15,2025-05-15,天下商事株式会社,,株式会社,大阪府,大阪市住之江区,北島１丁目３番２０号,,27,125,5590014,,,,,,,2025-05-15,1,,,,,テンカショウジ,0
153,1120001275644,新規,0,2025-05-15,2025-05-15,株式会社ＣｙｃｌｅＢａｓｅ,,株式会社,大阪府,大阪市城東区,森之宮２丁目４番３２－３１５号,,27,118,5360025,,,,,,,2025-05-15,1,,,,,サイクルベース,0
154,1120001275710,新規,0,2025-05-15,2025-05-15,株式会社ｒｅ．ｌｕｍｅ,,株式会社,大阪府,大阪市住吉区,沢之町２丁目５番２３号,,27,120,5580031,,,,,,,2025-05-15,1,,,,,レリューム,0
160,1120003029370,新規,0,2025-05-15,2025-05-15,合同会社ジャパン総合,,合同会社,大阪府,大阪市東住吉区,湯里２丁目１８番７号,,27,121,5460013,,,,,,,2025-05-15,1,,,,,ジャパンソウゴウ,0
165,1120101071662,新規,0,2025-05-15,2025-05-15,株式会社エーワイサービス,,株式会社,大阪府,堺市北区,長曽根町１９３６－１－４０３,,27,146,5918025,,,,,,,2025-05-15,1,,,,,エーワイサービス,0
169,1120901050849,新規,0,2025-05-15,2025-05-15,エナジー株式会社,,株式会社,大阪府,豊中市,東泉丘４丁目１番７－９０１号,,27,203,5610861,,,,,,,2025-05-15,1,,,,,エナジー,0
170,1120901050857,新規,0,2025-05-15,2025-05-15,株式会社ＥＣＯ　ＨＯＭＥ,,株式会社,大阪府,摂津市,別府１丁目４－１５エイト摂津１階,,27,224,5660046,,,,,,,2025-05-15,1,,,,,エコホーム,0
171,1120901050865,新規,0,2025-05-15,2025-05-15,株式会社Ｂｌｏｏｍｉｎｇ,,株式会社,大阪府,茨木市,東太田１丁目１番１１９号,,27,211,5670012,,,,,,,2025-05-15,1,,,,,ブルーミング,0
173,1122003003207,新規,0,2025-05-15,2025-05-15,アタエルアセットマネジメント合同会社,,合同会社,大阪府,東大阪市,吉松２丁目５－１９－２０３,,27,227,5770821,,,,,,,2025-05-15,1,,,,,アタエルアセットマネジメント,0
177,1130001079664,新規,0,2025-05-15,2025-05-15,株式会社積進ホールディングス,,株式会社,京都府,京丹後市,峰山町長岡１７５０番地の１,,26,212,6270042,,,,,,,2025-05-15,1,,,,,セキシンホールディングス,0
182,1140001138543,新規,0,2025-05-15,2025-05-15,ＢＢＧ株式会社,,株式会社,兵庫県,神戸市兵庫区,湊山町５番１０－３０２号,,28,105,6520012,,,,,,,2025-05-15,1,,,,,ビービージー,0
183,1140001138568,新規,0,2025-05-15,2025-05-15,株式会社神戸ＭＲＴ,,株式会社,兵庫県,神戸市中央区,元町通２丁目１番２号,,28,110,6500022,,,,,,,2025-05-15,1,,,,,コウベエムアールティ,0
185,1140005027511,新規,0,2025-05-15,2025-05-15,一般社団法人Ｒａｋｕｗａ,,その他の設立登記法人,兵庫県,西脇市,黒田庄町大門９３番地,,28,213,6790316,,,,,,,2025-05-15,1,,,,,ラクワ,0
187,1160003003479,新規,0,2025-05-15,2025-05-15,ＣＨＡＲＭ合同会社,,合同会社,滋賀県,守山市,石田町１１番地２１,,25,207,5240014,,,,,,,2025-05-15,1,,,,,チャーム,0
197,1180001166838,新規,0,2025-05-15,2025-05-15,株式会社Ｇｅｔ　Ｂａｃｋ,,株式会社,愛知県,名古屋市中区,千代田２丁目２４番１６号,,23,106,4600012,,,,,,,2025-05-15,1,,,,,ゲットバック,0
206,1180003028458,新規,0,2025-05-15,2025-05-15,アイシャ合同会社,,合同会社,愛知県,名古屋市熱田区,桜田町７番１３号,,23,109,4560004,,,,,,,2025-05-15,1,,,,,アイシャ,0
207,1180005021089,新規,0,2025-05-15,2025-05-15,一般社団法人地域災害弱者対策研究所,,その他の設立登記法人,愛知県,名古屋市中村区,中村町４丁目１００番地１,,23,105,4530053,,,,,,,2025-05-15,1,,,,,チイキサイガイジャクシャタイサクケンキュウジョ,0
214,1190001032221,新規,0,2025-05-15,2025-05-15,ベスパスイミングスクール津株式会社,,株式会社,三重県,津市,桜橋３丁目５３番地１,,24,201,5140003,,,,,,,2025-05-15,1,,,,,,0
216,1190003005019,新規,0,2025-05-15,2025-05-15,合同会社うさの木,,合同会社,三重県,四日市市,堀木１丁目‐２番‐６‐２０８号サニータウン堀木,,24,202,5100076,,,,,,,2025-05-15,1,,,,,,0
217,1190003005035,新規,0,2025-05-15,2025-05-15,合同会社ｃｏｎｓｔ．ｍｉｅ,,合同会社,三重県,四日市市,栄町５‐１１プレサンスロジェ１３０２,,24,202,5100084,,,,,,,2025-05-15,1,,,,,,0
221,1200001043786,新規,0,2025-05-15,2025-05-15,ＧＬＣ株式会社,,株式会社,岐阜県,可児市,中恵土２２９９－７アメニティビル２Ｆ,,21,214,5090202,,,,,,,2025-05-15,1,,,,,ジーエルシー,0
225,1230001020907,新規,0,2025-05-15,2025-05-15,株式会社Ｐｌｕｍ　Ｂａｕｍ,,株式会社,富山県,砺波市,庄川町天正１３６番地１,,16,208,9320316,,,,,,,2025-05-15,1,,,,,プラムバーム,0
226,1230005009475,新規,0,2025-05-15,2025-05-15,一般社団法人リサイクル機械工業会,,その他の設立登記法人,富山県,滑川市,中村５５１番地２,,16,206,9360002,,,,,,,2025-05-15,1,,,,,リサイクルキカイコウギョウカイ,0
227,1240001064944,新規,0,2025-05-15,2025-05-15,おいしい未来株式会社,,株式会社,広島県,安芸高田市,向原町長田３４３３―２,,34,214,7391203,,,,,,,2025-05-15,1,,,,,オイシイミライ,0
234,1250005009011,新規,0,2025-05-15,2025-05-15,司法書士法人よしたけ事務所,,その他の設立登記法人,山口県,萩市,大字東田町１６２番地野村ビル１Ｆ,,35,204,7580047,,,,,,,2025-05-15,1,,,,,ヨシタケジムショ,0
240,1260003005176,新規,0,2025-05-15,2025-05-15,合同会社ＢｅｅＴｏｗｎ,,合同会社,岡山県,岡山市中区,海吉２２１０番地１２,,33,102,7038261,,,,,,,2025-05-15,1,,,,,ビータウン,0
245,1290001109959,新規,0,2025-05-15,2025-05-15,株式会社インテリア光,,株式会社,福岡県,久留米市,北野町金島６１番地,,40,203,8301103,,,,,,,2025-05-15,1,,,,,インテリアヒカリ,0
248,1290005019741,新規,0,2025-05-15,2025-05-15,医療法人社団木春会,,その他の設立登記法人,福岡県,筑紫野市,大字筑紫１１７－２０２,,40,217,8180025,,,,,,,2025-05-15,1,,,,,ボクシュンカイ,0
249,1300003002284,新規,0,2025-05-15,2025-05-15,合同会社ＳＣＨＥＡＴ,,合同会社,佐賀県,神埼市,神埼町姉川１５８０番地６Ｂ－ＩＮハウス４０５,,41,210,8420014,,,,,,,2025-05-15,1,,,,,シュアト,0
250,1320001021094,新規,0,2025-05-15,2025-05-15,正二郎商事株式会社,,株式会社,大分県,別府市,大字亀川字油田１１７８番地１,,44,202,8740000,,,,,,,2025-05-15,1,,,,,ショウジロウショウジ,0
257,1350001019532,新規,0,2025-05-15,2025-05-15,株式会社ＴＳＤ,,株式会社,宮崎県,宮崎市,中央通３番２４号福野ビル２階,,45,201,8800002,,,,,,,2025-05-15,1,,,,,ティエスディ,0
267,1380001035304,新規,0,2025-05-15,2025-05-15,ＯＫＩエム・イー株式会社,,株式会社,福島県,二本松市,渋川字十文字１０番地,,07,210,9691403,,,,,,,2025-05-15,1,,,,,オキエムイー,0
269,1380003006039,新規,0,2025-05-15,2025-05-15,合同会社Ａｍａｎｅｋｕ,,合同会社,福島県,郡山市,台新２丁目１８番９号,,07,203,9638852,,,,,,,2025-05-15,1,,,,,アマネク,0
280,1430001094402,新規,0,2025-05-15,2025-05-15,株式会社エスプラン,,株式会社,北海道,石狩市,花川南三条４丁目６３番地,,01,235,0613203,,,,,,,2025-05-15,1,,,,,エスプラン,0
290,1500003003510,新規,0,2025-05-15,2025-05-15,合同会社佐々木,,合同会社,愛媛県,松山市,古川南２丁目５番２５号レオパレス蒼１－２１１号,,38,201,7900943,,,,,,,2025-05-15,1,,,,,ササキ,0
294,1700150130467,新規,0,2025-05-15,2025-05-15,Ａｓｔｅｍｏ企業年金基金,,その他,神奈川県,横浜市西区,みなとみらい４丁目６番２号,,14,103,2200012,,,,,,,2025-05-15,1,,,,,アステモキギヨウネンキンキキン,0
297,2010001254781,新規,0,2025-05-15,2025-05-15,株式会社寿,,株式会社,東京都,中央区,銀座７丁目３番１３－４０２号,,13,102,1040061,,,,,,,2025-05-15,1,,,,,コトブキ,0
298,2010001255012,新規,0,2025-05-15,2025-05-15,株式会社リセット,,株式会社,東京都,中央区,築地２丁目３番４号,,13,102,1040045,,,,,,,2025-05-15,1,,,,,リセット,0
299,2010001255020,新規,0,2025-05-15,2025-05-15,株式会社ＭＩＯＬＩＦＥ,,株式会社,東京都,中央区,日本橋室町１丁目１１番１２号日本橋水野ビル７階,,13,102,1030022,,,,,,,2025-05-15,1,,,,,ミオライフ,0
300,2010001255045,新規,0,2025-05-15,2025-05-15,株式会社アメノカク,,株式会社,東京都,中央区,築地３丁目１番４－１２０１号,,13,102,1040045,,,,,,,2025-05-15,1,,,,,アメノカク,0
304,2010003047358,新規,0,2025-05-15,2025-05-15,Ｂｏｕｎｄｌｅｓｓ　Ｌｉｆｅ合同会社,,合同会社,東京都,中央区,日本橋室町４丁目３番９号,,13,102,1030022,,,,,,,2025-05-15,1,,,,,バウンドレスライフ,0
305,2010005040039,新規,0,2025-05-15,2025-05-15,一般社団法人日本芸術教育交流センター,,その他の設立登記法人,東京都,中央区,日本橋横山町３－１２第十五イチオクビル３０７室,,13,102,1030003,,,,,,,2025-05-15,1,,,,,ニッポンゲイジュツキョウイクコウリュウセンター,0
306,2010005040047,新規,0,2025-05-15,2025-05-15,一般社団法人テラビット両国,,その他の設立登記法人,東京都,中央区,京橋２丁目１２番６号ＡＯＪ税理士法人内,,13,102,1040031,,,,,,,2025-05-15,1,,,,,テラビットリョウゴク,0
312,2010401190338,新規,0,2025-05-15,2025-05-15,株式会社ミグレイ,,株式会社,東京都,港区,芝大門２丁目１２番９号ＨＦ浜松町ビルディング２階,,13,103,1050012,,,,,,,2025-05-15,1,,,,,ミグレイ,0
314,2010503007836,新規,0,2025-05-15,2025-05-15,自在物語合同会社,,合同会社,東京都,台東区,柳橋２丁目１４番２アリス・マナーガーデン浅草橋３０１号,,13,106,1110052,,,,,,,2025-05-15,1,,,,,ジザイモノガタリ,0
318,2010701047717,新規,0,2025-05-15,2025-05-15,ＷＨＬＱエナジー株式会社,,株式会社,東京都,品川区,東大井５丁目２６‐２２,,13,109,1400011,,,,,,,2025-05-15,1,,,,,ダブルエイチエルキューエナジー,0
319,2010703007710,新規,0,2025-05-15,2025-05-15,合同会社ＺＥＫＯＵ,,合同会社,東京都,品川区,西五反田２丁目１４番１１号ゼコウレジデンス２０２,,13,109,1410031,,,,,,,2025-05-15,1,,,,,ゼコウ,0
321,2010803005382,新規,0,2025-05-15,2025-05-15,合同会社心塗建装,,合同会社,東京都,大田区,東矢口１丁目１２番１４－１０３号,,13,111,1460094,,,,,,,2025-05-15,1,,,,,コトケンソウ,0
334,2011001169573,新規,0,2025-05-15,2025-05-15,株式会社ＫＯＥＲＵ,,株式会社,東京都,渋谷区,神宮前１丁目２０番１４号神宮村３０２,,13,113,1500001,,,,,,,2025-05-15,1,,,,,コエル,0
335,2011001169581,新規,0,2025-05-15,2025-05-15,株式会社ＭＹＯ企画,,株式会社,東京都,渋谷区,恵比寿西２丁目８番４号ＥＸ恵比寿西ビル５階,,13,113,1500021,,,,,,,2025-05-15,1,,,,,エムワイオーキカク,0
342,2011501032058,新規,0,2025-05-15,2025-05-15,株式会社頤龍貿易,,株式会社,東京都,荒川区,東日暮里６丁目５６番４－１０２号,,13,118,1160014,,,,,,,2025-05-15,1,,,,,イリュウボウエキ,0
346,2011601028641,新規,0,2025-05-15,2025-05-15,新栄建装株式会社,,株式会社,東京都,練馬区,早宮２丁目２３番１７号,,13,120,1790085,,,,,,,2025-05-15,1,,,,,シンエイケンソウ,0
349,2011701028343,新規,0,2025-05-15,2025-05-15,株式会社マルコー,,株式会社,東京都,江戸川区,東小岩６丁目２６番１３号エルズ東小岩４０１号室,,13,123,1330052,,,,,,,2025-05-15,1,,,,,マルコー,0
350,2011801046121,新規,0,2025-05-15,2025-05-15,株式会社ＬａｐｉＷｉｓｈ,,株式会社,東京都,葛飾区,青戸７丁目２６－１４－８０５,,13,122,1250062,,,,,,,2025-05-15,1,,,,,ラピッシュ,0
353,2012401043095,新規,0,2025-05-15,2025-05-15,株式会社丸二それいゆ,,株式会社,東京都,武蔵野市,吉祥寺本町１丁目３５番１号,,13,203,1800004,,,,,,,2025-05-15,1,,,,,マルニソレイユ,0
356,2012701018862,新規,0,2025-05-15,2025-05-15,株式会社一倉満内企画,,株式会社,東京都,東村山市,多摩湖町２丁目１１番地８０,,13,213,1890026,,,,,,,2025-05-15,1,,,,,イチクラマンダイキカク,0
360,2013301054190,新規,0,2025-05-15,2025-05-15,株式会社東京湯の鋪,,株式会社,東京都,豊島区,東池袋３丁目１５－２ライオンズマンション池袋７０９,,13,116,1700013,,,,,,,2025-05-15,1,,,,,トウキョウユノミセ,0
368,2020001162876,新規,0,2025-05-15,2025-05-15,ＨＱ　Ｖｉｓｉｏｎジャパンテクノロジー株式会社,,株式会社,神奈川県,横浜市瀬谷区,橋戸１丁目１７番地１０,,14,114,2460037,,,,,,,2025-05-15,1,,,,,エイチキューヴィジョンジャパンテクノロジー,0
370,2020002017170,新規,0,2025-05-15,2025-05-15,有限会社成田理髪店,,有限会社,神奈川県,横浜市西区,平沼１丁目５番１８号,,14,103,2200023,,,,,,,2025-05-15,1,,,,,,0
377,2020003028472,新規,0,2025-05-15,2025-05-15,合同会社ムサシヤ商会,,合同会社,神奈川県,横浜市磯子区,杉田４丁目７番８号,,14,107,2350033,,,,,,,2025-05-15,1,,,,,ムサシヤショウカイ,0
378,2020003028489,新規,0,2025-05-15,2025-05-15,ｍａｒｏｎ合同会社,,合同会社,神奈川県,川崎市麻生区,上麻生５丁目６番１７号,,14,137,2150021,,,,,,,2025-05-15,1,,,,,マロン,0
380,2021001085200,新規,0,2025-05-15,2025-05-15,株式会社エムズ,,株式会社,神奈川県,大和市,鶴間１丁目３０番８号,,14,213,2420004,,,,,,,2025-05-15,1,,,,,エムズ,0
381,2021001085209,新規,0,2025-05-15,2025-05-15,ヒストリックフーズ株式会社,,株式会社,神奈川県,藤沢市,藤沢５３０－１７サンキビル４階,,14,205,2510052,,,,,,,2025-05-15,1,,,,,ヒストリックフーズ,0
382,2021001085241,新規,0,2025-05-15,2025-05-15,株式会社湘南藤英設備,,株式会社,神奈川県,鎌倉市,城廻７３１－９,,14,204,2470074,,,,,,,2025-05-15,1,,,,,ショウナントウエイセツビ,0
384,2021003015964,新規,0,2025-05-15,2025-05-15,合同会社和みリンクス,,合同会社,神奈川県,藤沢市,片瀬山３丁目１９番２５号,,14,205,2510033,,,,,,,2025-05-15,1,,,,,ナゴミリンクス,0
391,2030001166488,新規,0,2025-05-15,2025-05-15,株式会社ｗａｋｕｎｏｋｉ,,株式会社,埼玉県,草加市,手代１丁目３７番１６号,,11,221,3400021,,,,,,,2025-05-15,1,,,,,ワクノキ,0
392,2030001166505,新規,0,2025-05-15,2025-05-15,リノベーション検査株式会社,,株式会社,埼玉県,和光市,新倉１丁目２５番６号,,11,229,3510115,,,,,,,2025-05-15,1,,,,,リノベーションケンサ,0
396,2030003026764,新規,0,2025-05-15,2025-05-15,ＡＣＥ合同会社,,合同会社,埼玉県,朝霞市,仲町１丁目１番２０号,,11,227,3510006,,,,,,,2025-05-15,1,,,,,エーシーイー,0
397,2030005022159,新規,0,2025-05-15,2025-05-15,医療法人社団想人会,,その他の設立登記法人,埼玉県,さいたま市大宮区,宮町３丁目１番地アグレアーブル１階,,11,103,3300802,,,,,,,2025-05-15,1,,,,,ソウジンカイ,0
403,2040001138560,新規,0,2025-05-15,2025-05-15,株式会社深谷電気,,株式会社,千葉県,市川市,市川２丁目２番１１号－４０２,,12,203,2720034,,,,,,,2025-05-15,1,,,,,フカヤデンキ,0
404,2040001138775,新規,0,2025-05-15,2025-05-15,東昇金属株式会社,,株式会社,千葉県,松戸市,西馬橋蔵元町５５番地２０８号,,12,207,2710046,,,,,,,2025-05-15,1,,,,,トウショウキンゾク,0
405,2050001056679,新規,0,2025-05-15,2025-05-15,株式会社内山建創,,株式会社,茨城県,鉾田市,玉田７２３番地１,,08,234,3111412,,,,,,,2025-05-15,1,,,,,ウチヤマケンソウ,0
406,2050003009255,新規,0,2025-05-15,2025-05-15,合同会社川友エネルギーファーム,,合同会社,茨城県,ひたちなか市,大字足崎２８０番地１,,08,221,3120003,,,,,,,2025-05-15,1,,,,,カワトモエネルギーファーム,0
408,2060001038189,新規,0,2025-05-15,2025-05-15,株式会社祥騰,,株式会社,栃木県,下野市,石橋１１８３番地１,,09,216,3290511,,,,,,,2025-05-15,1,,,,,ショウトウ,0
414,2080001026935,新規,0,2025-05-15,2025-05-15,株式会社たかみ,,株式会社,静岡県,静岡市葵区,辰起町８番１８号１０４号室,,22,101,4200874,,,,,,,2025-05-15,1,,,,,タカミ,0
429,2120001275412,新規,0,2025-05-15,2025-05-15,株式会社夢掴,,株式会社,大阪府,大阪市中央区,東心斎橋１丁目１６－７日宝周防町アーデン２Ｆ,,27,128,5420083,,,,,,,2025-05-15,1,,,,,ムツカ,0
430,2120001275420,新規,0,2025-05-15,2025-05-15,株式会社志,,株式会社,大阪府,大阪市北区,梅田１丁目１番３号大阪駅前第３ビル２９階１－１－１号室,,27,127,5300001,,,,,,,2025-05-15,1,,,,,ココロザシ,0
431,2120001275503,新規,0,2025-05-15,2025-05-15,Ｅｒｉｃ　Ｕｔｏｐｉａ　Ｈｏｓｔｅｌ株式会社,,株式会社,大阪府,大阪市西成区,長橋３丁目１５番地４３－１０２号,,27,122,5570025,,,,,,,2025-05-15,1,,,,,エリックユートピアホステル,0
432,2120001275610,新規,0,2025-05-15,2025-05-15,ＬＬ株式会社,,株式会社,大阪府,大阪市中央区,東心斎橋１丁目１６－２０心斎橋ステージアビル３階Ｂ,,27,128,5420083,,,,,,,2025-05-15,1,,,,,エルエル,0
433,2120001275692,新規,0,2025-05-15,2025-05-15,秋穂トレーディング株式会社,,株式会社,大阪府,大阪市生野区,勝山北５丁目２２番１９－１０１号,,27,116,5440033,,,,,,,2025-05-15,1,,,,,アキホトレーディング,0
434,2120003029403,新規,0,2025-05-15,2025-05-15,合同会社Ｐｏｌａｒｉｓ,,合同会社,大阪府,大阪市阿倍野区,松崎町４丁目１１－４－８０３,,27,119,5450053,,,,,,,2025-05-15,1,,,,,ポラリス,0
436,2120103006434,新規,0,2025-05-15,2025-05-15,合同会社ブレイン,,合同会社,大阪府,和泉市,阪本町３５１番地の９,,27,219,5940052,,,,,,,2025-05-15,1,,,,,ブレイン,0
437,2120103006459,新規,0,2025-05-15,2025-05-15,合同会社未来,,合同会社,大阪府,和泉市,室堂町２８８－６、２０２号,,27,219,5941101,,,,,,,2025-05-15,1,,,,,ミライ,0
441,2120901050864,新規,0,2025-05-15,2025-05-15,株式会社パンサー,,株式会社,大阪府,高槻市,月見町１４番２２号,,27,207,5691122,,,,,,,2025-05-15,1,,,,,パンサー,0
442,2122001039227,新規,0,2025-05-15,2025-05-15,株式会社ＨＩＧＡＫＩ,,株式会社,大阪府,東大阪市,楠根２丁目８番４１号,,27,227,5770006,,,,,,,2025-05-15,1,,,,,ヒガキ,0
443,2122005003823,新規,0,2025-05-15,2025-05-15,特定非営利活動法人和装教育国民推進大阪,,その他の設立登記法人,大阪府,東大阪市,中石切町４丁目４番２７号カーサリーヴァ５０１,,27,227,5798014,,,,,,,2025-05-15,1,,,,,ワソウキョウイクコクミンスイシンオオサカ,0
450,2130001079556,新規,0,2025-05-15,2025-05-15,株式会社エンタープライズ,,株式会社,京都府,亀岡市,宮前町宮川奥小谷３番地,,26,206,6210243,,,,,,,2025-05-15,1,,,,,エンタープライズ,0
451,2130001079663,新規,0,2025-05-15,2025-05-15,株式会社Ｌｉｎｋ　ｆｏｒ　Ｌｉｆｅ,,株式会社,京都府,福知山市,字土師小字澤居山１７６番地,,26,201,6200857,,,,,,,2025-05-15,1,,,,,リンクフォーライフ,0
453,2130003010469,新規,0,2025-05-15,2025-05-15,ＳｃｅｎｔＡｕｒｕｍ合同会社,,合同会社,京都府,京都市下京区,小稲荷町８５－２Ｇｒａｎｄ－Ｋ京都駅前ビル２０１,,26,106,6008208,,,,,,,2025-05-15,1,,,,,セントオーラム,0
458,2140001138534,新規,0,2025-05-15,2025-05-15,アークライズ株式会社,,株式会社,兵庫県,神戸市北区,鹿の子台南町６丁目１１番１２号,,28,109,6511514,,,,,,,2025-05-15,1,,,,,アークライズ,0
459,2140001138542,新規,0,2025-05-15,2025-05-15,株式会社グランミート,,株式会社,兵庫県,尼崎市,杭瀬北新町１丁目１番１５号,,28,202,6600815,,,,,,,2025-05-15,1,,,,,グランミート,0
460,2140001138567,新規,0,2025-05-15,2025-05-15,ニコッテ不動産株式会社,,株式会社,兵庫県,神戸市西区,学園西町５丁目８番地の１、５２９－１０４号,,28,111,6512103,,,,,,,2025-05-15,1,,,,,ニコッテフドウサン,0
467,2160001026753,新規,0,2025-05-15,2025-05-15,ささ株式会社,,株式会社,滋賀県,蒲生郡日野町,大字西明寺１１７０番地,,25,383,5291621,,,,,,,2025-05-15,1,,,,,ササ,0
479,2180001166804,新規,0,2025-05-15,2025-05-15,ＴＵＹ　ＣＯＭＰＡＮＹ株式会社,,株式会社,愛知県,名古屋市中村区,名駅３丁目４－１０アルティメイト名駅１ｓｔ２階,,23,105,4500002,,,,,,,2025-05-15,1,,,,,トゥイカンパニー,0
486,2180003028457,新規,0,2025-05-15,2025-05-15,合同会社エコライフワークス,,合同会社,愛知県,名古屋市中村区,名駅南２丁目７番８号ＮＡＧＯＹＡｔｈｅＴＯＷＥＲ９０７号,,23,105,4500003,,,,,,,2025-05-15,1,,,,,エコライフワークス,0
487,2180003028481,新規,0,2025-05-15,2025-05-15,合同会社得丸企画,,合同会社,愛知県,名古屋市瑞穂区,直来町２丁目１４番地の１ＲＸ神宮前１０３号,,23,108,4670865,,,,,,,2025-05-15,1,,,,,トクマルキカク,0
507,2240003007207,新規,0,2025-05-15,2025-05-15,ユリバ合同会社,,合同会社,広島県,広島市西区,三篠町２丁目１７番９号,,34,104,7330003,,,,,,,2025-05-15,1,,,,,ユリバ,0
510,2250003003725,新規,0,2025-05-15,2025-05-15,合同会社黒ネコの手,,合同会社,山口県,下関市,大字内日下３７９番地１,,35,201,7500253,,,,,,,2025-05-15,1,,,,,クロネコノテ,0
511,2250005009010,新規,0,2025-05-15,2025-05-15,一般社団法人多言語図書館,,その他の設立登記法人,山口県,下関市,豊浦町大字黒井１８０１番地４,,35,201,7596312,,,,,,,2025-05-15,1,,,,,タゲンゴトショカン,0
514,2260001040059,新規,0,2025-05-15,2025-05-15,株式会社Ｒａｄｉａｎｔ,,株式会社,岡山県,岡山市北区,中央町９－１０ＴＭ２２ビル２Ｆ,,33,101,7000836,,,,,,,2025-05-15,1,,,,,ラディアント,0
515,2260001040190,新規,0,2025-05-15,2025-05-15,株式会社雄昇,00139174,株式会社,岡山県,総社市,総社１３２２番地,,33,208,7191126,,,,,,,2025-05-15,1,,,,,ユウショウ,0
517,2290001110024,新規,0,2025-05-15,2025-05-15,株式会社ＧＲＦＴ,,株式会社,福岡県,福岡市中央区,天神２丁目２番１２号Ｔ＆Ｊビルディング７階,,40,133,8100001,,,,,,,2025-05-15,1,,,,,グラフト,0
518,2290001110032,新規,0,2025-05-15,2025-05-15,株式会社シンセン建設,,株式会社,福岡県,久留米市,荒木町藤田１３０６番地４,,40,203,8300064,,,,,,,2025-05-15,1,,,,,シンセンケンセツ,0
519,2290001110040,新規,0,2025-05-15,2025-05-15,株式会社やね吉,,株式会社,福岡県,久留米市,津福本町２０６２番地１０,,40,203,8300047,,,,,,,2025-05-15,1,,,,,ヤネキチ,0
520,2290003016830,新規,0,2025-05-15,2025-05-15,合同会社Ｒｅａｖｏ,,合同会社,福岡県,福岡市城南区,鳥飼５丁目１４番１６－１０１号全農鳥飼共同住宅２号棟,,40,136,8140103,,,,,,,2025-05-15,1,,,,,リーヴォ,0
521,2290003016839,新規,0,2025-05-15,2025-05-15,池将餐飲合同会社,,合同会社,福岡県,福岡市西区,姪の浜６丁目１４番２８号ユーライフパーク２０２号室,,40,135,8190002,,,,,,,2025-05-15,1,,,,,イケショウサンイン,0
535,2370003007094,新規,0,2025-05-15,2025-05-15,Ｌｉｍｉｔｓ合同会社,,合同会社,宮城県,仙台市青葉区,春日町１０番１３－７０２,,04,101,9800821,,,,,,,2025-05-15,1,,,,,リミッツ,0
536,2380001035311,新規,0,2025-05-15,2025-05-15,株式会社山高機工,,株式会社,福島県,須賀川市,森宿字苧畑５８番地１,,07,207,9620001,,,,,,,2025-05-15,1,,,,,ヤマタカキコウ,0
539,2410003004104,新規,0,2025-05-15,2025-05-15,合同会社あきらく,,合同会社,秋田県,由利本荘市,石脇字田尻野２８番地２４,,05,210,0150013,,,,,,,2025-05-15,1,,,,,アキラク,0
547,2430003017657,新規,0,2025-05-15,2025-05-15,合同会社ゼネラリスト,,合同会社,北海道,札幌市中央区,南二条西５丁目３１‐１ＲＭＢｌｄ．７０１,,01,101,0600062,,,,,,,2025-05-15,1,,,,,ゼネラリスト,0
548,2430003017665,新規,0,2025-05-15,2025-05-15,不動産テック合同会社,,合同会社,北海道,虻田郡倶知安町,北七条西２丁目２番地２５,,01,400,0440057,,,,,,,2025-05-15,1,,,,,フドウサンテック,0
550,2450003002657,新規,0,2025-05-15,2025-05-15,合同会社ＬＥＯＮ,,合同会社,北海道,旭川市,豊岡四条３丁目７－６－６０１,,01,204,0788234,,,,,,,2025-05-15,1,,,,,レオン,0
551,2480001012837,新規,0,2025-05-15,2025-05-15,Ｇｅｅ　Ｔｒｅｎｄ株式会社,,株式会社,徳島県,徳島市,伊月町６丁目５番地シャルム伊月１０１号,,36,201,7700935,,,,,,,2025-05-15,1,,,,,ジートレンド,0
556,3010001254780,新規,0,2025-05-15,2025-05-15,株式会社ＱＵＥｓｔ　Ｒ,,株式会社,東京都,中央区,銀座１丁目２２－１１銀座大竹ビジデンス２Ｆ,,13,102,1040061,,,,,,,2025-05-15,1,,,,,クエストアール,0
557,3010001255044,新規,0,2025-05-15,2025-05-15,株式会社リノキノＲ＆Ｄ,,株式会社,東京都,中央区,日本橋浜町２丁目５番１号－４階,,13,102,1030007,,,,,,,2025-05-15,1,,,,,リノキノアールアンドディー,0
560,3010003047357,新規,0,2025-05-15,2025-05-15,合同会社Ｅｎｐｈｏｒｉａ,,合同会社,東京都,千代田区,神田岩本町１５－１ＣＹＫ神田岩本町Ｂ１Ｆ,,13,101,1010033,,,,,,,2025-05-15,1,,,,,エンフォリア,0
561,3010005040046,新規,0,2025-05-15,2025-05-15,一般財団法人日本知財人材育成財団,,その他の設立登記法人,東京都,千代田区,丸の内１丁目７番１２号,,13,101,1000005,,,,,,,2025-05-15,1,,,,,ニホンチザイジンザイイクセイザイダン,0
571,3010403035119,新規,0,2025-05-15,2025-05-15,合同会社苗場,,合同会社,東京都,港区,虎ノ門２丁目６番１号虎ノ門ヒルズステーションタワー,,13,103,1050001,,,,,,,2025-05-15,1,,,,,ナエバ,0
574,3010501054061,新規,0,2025-05-15,2025-05-15,株式会社喫煙喫茶オールドルーキーカフェ,,株式会社,東京都,台東区,上野１丁目１１番９号イマスサニービル７階ＪＴＡ内,,13,106,1100005,,,,,,,2025-05-15,1,,,,,キツエンキッサオールドルーキーカフェ,0
575,3010503007835,新規,0,2025-05-15,2025-05-15,Ｍａｓｉｏｎ　Ｎａｉｌ合同会社,,合同会社,東京都,台東区,入谷２丁目３９番１１号ロイヤルハウス入谷２０１,,13,106,1100013,,,,,,,2025-05-15,1,,,,,メゾンネイル,0
579,3010701047716,新規,0,2025-05-15,2025-05-15,アンコロ株式会社,,株式会社,東京都,品川区,西五反田１丁目３２－６吉野屋ビル３階,,13,109,1410031,,,,,,,2025-05-15,1,,,,,アンコロ,0
582,3010901057358,新規,0,2025-05-15,2025-05-15,渡友株式会社,,株式会社,東京都,世田谷区,中町２丁目１２番１３号タナカビル２０２室,,13,112,1580091,,,,,,,2025-05-15,1,,,,,ワタトモ,0
584,3010905004777,新規,0,2025-05-15,2025-05-15,一般社団法人さくらエナジー,,その他の設立登記法人,東京都,世田谷区,船橋６丁目２３番２７号チャームハウス１０２,,13,112,1560055,,,,,,,2025-05-15,1,,,,,サクラエナジー,0
588,3011001169358,新規,0,2025-05-15,2025-05-15,株式会社サーフアンドリトリート,,株式会社,東京都,渋谷区,神宮前６丁目３５番３号,,13,113,1500001,,,,,,,2025-05-15,1,,,,,サーフアンドリトリート,0
589,3011001169564,新規,0,2025-05-15,2025-05-15,株式会社ｙａｄｏＸ,,株式会社,東京都,渋谷区,富ヶ谷２丁目２６番１６－２０２号アパートメントイナキ,,13,113,1510063,,,,,,,2025-05-15,1,,,,,ヤドクロス,0
594,3011101111715,新規,0,2025-05-15,2025-05-15,株式会社クレア,,株式会社,東京都,新宿区,新小川町２番１１号双葉ビル２階,,13,104,1620814,,,,,,,2025-05-15,1,,,,,クレア,0
598,3011401027074,新規,0,2025-05-15,2025-05-15,ＤＳＳＪ　Ｉｎｖｅｓｔｍｅｎｔ　ＫＫ株式会社,,株式会社,東京都,板橋区,仲宿６３番地７号ＯＥＯｆｆｉｃｅＢｌｏｇ．１０９号,,13,119,1730005,,,,,,,2025-05-15,1,,,,,ディーエスエスジェーインベストメントケーケー,0
602,3011801046120,新規,0,2025-05-15,2025-05-15,ＨＨＫホールディングス株式会社,,株式会社,東京都,足立区,小台１丁目１８番８－９０３号,,13,121,1200046,,,,,,,2025-05-15,1,,,,,エイチエイチケーホールディングス,0
605,3012401043094,新規,0,2025-05-15,2025-05-15,株式会社丸二エテルナ,,株式会社,東京都,武蔵野市,吉祥寺本町１丁目３５番１号,,13,203,1800004,,,,,,,2025-05-15,1,,,,,マルニエテルナ,0
606,3012701018861,新規,0,2025-05-15,2025-05-15,株式会社レイ・ボーン,,株式会社,東京都,西東京市,南町４丁目２番８号第２下田マンション３０１,,13,229,1880012,,,,,,,2025-05-15,1,,,,,レイボーン,0
608,3012803003737,新規,0,2025-05-15,2025-05-15,合同会社国分寺甚五郎,,合同会社,東京都,国分寺市,本町３丁目１２－２,,13,214,1850012,,,,,,,2025-05-15,1,,,,,コクブンジジンゴロウ,0
615,3020001162727,新規,0,2025-05-15,2025-05-15,菊屋株式会社,,株式会社,神奈川県,川崎市高津区,溝の口二丁目２６番１２号,,14,134,2130000,,,,,,,2025-05-15,1,,,,,キクヤ,0
616,3020001162801,新規,0,2025-05-15,2025-05-15,株式会社Ｙａｎｂｏ　Ｕｍｉ　Ｔｏｋｙｏ,,株式会社,神奈川県,横浜市保土ケ谷区,岩井町１２２番地１クイーンハイツ７０７,,14,106,2400023,,,,,,,2025-05-15,1,,,,,ヤンボウミトウキョウ,0
617,3020001162842,新規,0,2025-05-15,2025-05-15,株式会社界栄興業,,株式会社,神奈川県,横浜市栄区,庄戸４丁目２番７号,,14,115,2470022,,,,,,,2025-05-15,1,,,,,カイエイコウギョウ,0
618,3020001162883,新規,0,2025-05-15,2025-05-15,ＴＡＩＹＯ＆ＮＡＲＩ株式会社,,株式会社,神奈川県,川崎市川崎区,小田２丁目９番３３ユナイト小田ペニーレイン１０１号,,14,131,2100846,,,,,,,2025-05-15,1,,,,,,0
621,3020003028496,新規,0,2025-05-15,2025-05-15,合同会社ツグトリ,,合同会社,神奈川県,横浜市金沢区,柴町３６２番１マイキャッスル八景島アクア・シェーナ４０３号,,14,108,2360012,,,,,,,2025-05-15,1,,,,,ツグトリ,0
623,3020005016854,新規,0,2025-05-15,2025-05-15,特定非営利活動法人放課後児童クラブあい・しらね,,その他の設立登記法人,神奈川県,横浜市旭区,鶴ケ峰本町２丁目４６番１号ＢＦハイツ２０４号室,,14,112,2410021,,,,,,,2025-05-15,1,,,,,ホウカゴジドウクラブアイシラネ,0
629,3021003016004,新規,0,2025-05-15,2025-05-15,合同会社ひなたや,,合同会社,神奈川県,高座郡寒川町,岡田３丁目１４番３７－２０６号,,14,321,2530105,,,,,,,2025-05-15,1,,,,,ヒナタヤ,0
632,3030001166537,新規,0,2025-05-15,2025-05-15,株式会社ＳＴＡＲＫ,,株式会社,埼玉県,入間郡三芳町,大字北永井９９４番地,,11,324,3540044,,,,,,,2025-05-15,1,,,,,スターク,0
640,3040001138774,新規,0,2025-05-15,2025-05-15,株式会社ＣＷ,,株式会社,千葉県,佐倉市,臼井１４１３番地３９,,12,212,2850863,,,,,,,2025-05-15,1,,,,,シーダブリュー,0
644,3040003027439,新規,0,2025-05-15,2025-05-15,合同会社フジヒロ,,合同会社,千葉県,木更津市,永井作２丁目１番１０号ビューラサンモール１０２号室,,12,206,2920053,,,,,,,2025-05-15,1,,,,,フジヒロ,0
645,3040003027538,新規,0,2025-05-15,2025-05-15,Ｇｌｏｖｉａ合同会社,,合同会社,千葉県,富里市,日吉台２丁目２２番地１２,,12,233,2860201,,,,,,,2025-05-15,1,,,,,グロビア,0
666,3100005013348,新規,0,2025-05-15,2025-05-15,一般社団法人インクルーシブスタジオ,,その他の設立登記法人,長野県,長野市,大字高田五分一４２０ターミナル５１°,,20,201,3810034,,,,,,,2025-05-15,1,,,,,インクルーシブスタジオ,0
673,3110003005759,新規,0,2025-05-15,2025-05-15,合同会社ＡｉｒＢｌｕｅ　Ｓｔｕｄｉｏ,,合同会社,新潟県,新潟市中央区,南笹口２丁目７－１６東都ビル２Ｆ,,15,103,9500912,,,,,,,2025-05-15,1,,,,,エアーブルースタジオ,0
680,3120001275502,新規,0,2025-05-15,2025-05-15,宸柏株式会社,,株式会社,大阪府,大阪市中央区,西心斎橋１丁目１０－４０サンメゾン心斎橋セレブリテ４０２号室,,27,128,5420086,,,,,,,2025-05-15,1,,,,,シンハク,0
681,3120001275543,新規,0,2025-05-15,2025-05-15,株式会社ＩＮＩ,,株式会社,大阪府,大阪市都島区,東野田町３丁目１２番１号京橋ダブルスタービル２－４階,,27,102,5340024,,,,,,,2025-05-15,1,,,,,イニ,0
682,3120001275584,新規,0,2025-05-15,2025-05-15,株式会社ＮｔｏＲｔｏ,,株式会社,大阪府,大阪市都島区,片町２丁目１１－１８京橋駅前ビル３Ｆ,,27,102,5340025,,,,,,,2025-05-15,1,,,,,エヌトアールト,0
683,3120001275618,新規,0,2025-05-15,2025-05-15,Ａ　ＣＵＲＥ　ＪＡＰＡＮ株式会社,,株式会社,大阪府,大阪市生野区,桃谷３丁目２０番２５号桃谷ハイツ１０２号室,,27,116,5440034,,,,,,,2025-05-15,1,,,,,アキュアジャパン,0
684,3120001275626,新規,0,2025-05-15,2025-05-15,株式会社ＬＯＹＡＬＴＴＹ,,株式会社,大阪府,大阪市中央区,西心斎橋１丁目６番３号,,27,128,5420086,,,,,,,2025-05-15,1,,,,,ロイヤリティ,0
685,3120001275634,新規,0,2025-05-15,2025-05-15,宇華雲倉株式会社,,株式会社,大阪府,大阪市平野区,瓜破２丁目６番１号,,27,126,5470024,,,,,,,2025-05-15,1,,,,,ウカウンソウ,0
686,3120001275717,新規,0,2025-05-15,2025-05-15,阿木易株式会社,,株式会社,大阪府,大阪市東淀川区,下新庄４丁目２０番７－２０１号室,,27,114,5330021,,,,,,,2025-05-15,1,,,,,アムイ,0
687,3120001275733,新規,0,2025-05-15,2025-05-15,株式会社ヤマクラ,,株式会社,大阪府,大阪市東淀川区,菅原３丁目１８番１４号,,27,114,5330022,,,,,,,2025-05-15,1,,,,,ヤマクラ,0
688,3120001275741,新規,0,2025-05-15,2025-05-15,金誠株式会社,,株式会社,大阪府,門真市,栄町２８番８－４０１号メゾン門真弐号棟,,27,223,5710047,,,,,,,2025-05-15,1,,,,,キンセイ,0
690,3120003029393,新規,0,2025-05-15,2025-05-15,合同会社縁,,合同会社,大阪府,大阪市生野区,新今里４丁目１１番１３号,,27,116,5440001,,,,,,,2025-05-15,1,,,,,ユカリ,0
691,3120003029443,新規,0,2025-05-15,2025-05-15,佳利合同会社,,合同会社,大阪府,大阪市淀川区,三津屋北２丁目１０番１０号３Ｆ,,27,123,5320032,,,,,,,2025-05-15,1,,,,,カリ,0
697,3130001079670,新規,0,2025-05-15,2025-05-15,株式会社Ｙ‐ＴＥＣＴ,,株式会社,京都府,京都市伏見区,竹田浄菩提院町２７７番地ＮＵテラス京都竹田３０５,,26,109,6128445,,,,,,,2025-05-15,1,,,,,ワイテクト,0
700,3130003010451,新規,0,2025-05-15,2025-05-15,合同会社陽,,合同会社,京都府,南丹市,日吉町胡麻吹ノ内１０,,26,213,6290311,,,,,,,2025-05-15,1,,,,,ヨウ,0
707,3140001138566,新規,0,2025-05-15,2025-05-15,株式会社人と資産を守るＦＰ事務所,,株式会社,兵庫県,西宮市,北口町１４番１７号,,28,204,6638035,,,,,,,2025-05-15,1,,,,,ヒトトシサンヲマモルエフピージムショ,0
708,3140001138599,新規,0,2025-05-15,2025-05-15,スマイルサーカス株式会社,,株式会社,兵庫県,芦屋市,業平町７番２３－３０１号,,28,206,6590068,,,,,,,2025-05-15,1,,,,,スマイルサーカス,0
725,3180003028480,新規,0,2025-05-15,2025-05-15,Ｆａｃｉｏｗｏｒｋｓ合同会社,,合同会社,愛知県,江南市,古知野町宮裏７８番地シャトー江南ＩＩＩ８０２号,,23,217,4838279,,,,,,,2025-05-15,1,,,,,ファシオワークス,0
738,3200001043784,新規,0,2025-05-15,2025-05-15,株式会社Ｇ＆Ｐ,,株式会社,岐阜県,羽島市,江吉良町２２３２番地,,21,209,5016236,,,,,,,2025-05-15,1,,,,,ジーアンドピー,0
741,3220003004023,新規,0,2025-05-15,2025-05-15,合同会社三日建設,,合同会社,石川県,鳳珠郡穴水町,字岩車チ１２８番地,,17,461,9270007,,,,,,,2025-05-15,1,,,,,サンニチケンセツ,0
742,3220003004031,新規,0,2025-05-15,2025-05-15,合同会社ミリアドワークス,,合同会社,石川県,小松市,日末町ヌ１７３番地,,17,203,9230983,,,,,,,2025-05-15,1,,,,,ミリアドワークス,0
743,3230005009473,新規,0,2025-05-15,2025-05-15,医療法人すなお,,その他の設立登記法人,富山県,小矢部市,新富町８番１１号,,16,209,9320044,,,,,,,2025-05-15,1,,,,,スナオ,0
746,3240005015941,新規,0,2025-05-15,2025-05-15,一般社団法人おむすび,,その他の設立登記法人,広島県,広島市中区,八丁堀６番１１－６０２号,,34,101,7300013,,,,,,,2025-05-15,1,,,,,オムスビ,0
747,3250003003724,新規,0,2025-05-15,2025-05-15,ＴＭＣ　ＣＲＡＦＴ　ＪＡＰＡＮ合同会社,,合同会社,山口県,下関市,阿弥陀寺町１０番１１号,,35,201,7500003,,,,,,,2025-05-15,1,,,,,ティーエムシークラフトジャパン,0
755,3290003016796,新規,0,2025-05-15,2025-05-15,合同会社ＧＥＭＧＲＥＥＮ,,合同会社,福岡県,福岡市西区,野方３丁目３３－１０,,40,135,8190043,,,,,,,2025-05-15,1,,,,,ジェムグリーン,0
762,3290005019748,新規,0,2025-05-15,2025-05-15,一般社団法人交通事故サポート支援協会,,その他の設立登記法人,福岡県,福岡市中央区,渡辺通３丁目３番１５－７００号,,40,133,8100004,,,,,,,2025-05-15,1,,,,,コウツウジコサポートシエンキョウカイ,0
769,3330001033211,新規,0,2025-05-15,2025-05-15,株式会社ごえん,,株式会社,熊本県,熊本市中央区,手取本町４番１５号,,43,101,8600808,,,,,,,2025-05-15,1,,,,,ゴエン,0
775,3370003007093,新規,0,2025-05-15,2025-05-15,合同会社ソライロ,,合同会社,宮城県,多賀城市,鶴ケ谷２丁目２番２５号,,04,209,9850841,,,,,,,2025-05-15,1,,,,,ソライロ,0
777,3380001035310,新規,0,2025-05-15,2025-05-15,株式会社ａｒｋ義建,,株式会社,福島県,耶麻郡猪苗代町,大字千代田字千代田１番地９,,07,408,9693133,,,,,,,2025-05-15,1,,,,,アークギケン,0
783,3430001094391,新規,0,2025-05-15,2025-05-15,ＦＰＳ株式会社,,株式会社,北海道,苫小牧市,字錦岡４９５番地の１４４５,,01,213,0591275,,,,,,,2025-05-15,1,,,,,エフピーエス,0
791,3460103001714,新規,0,2025-05-15,2025-05-15,合同会社ＮＫコーポレーション,,合同会社,北海道,帯広市,西十五条南６丁目４番地１,,01,207,0800025,,,,,,,2025-05-15,1,,,,,,0
793,3470003002885,新規,0,2025-05-15,2025-05-15,合同会社ｃｉｎｏｆｉｌｏ,,合同会社,香川県,高松市,多肥上町１１２０番地１グリーンフォブールＢ１０２,,37,201,7618076,,,,,,,2025-05-15,1,,,,,チノフィロ,0
795,3490001011044,新規,0,2025-05-15,2025-05-15,共生農業株式会社,,株式会社,高知県,香南市,野市町西佐古４３５番地５,,39,211,7815223,,,,,,,2025-05-15,1,,,,,キョウセイノウギョウ,0
797,3500003003509,新規,0,2025-05-15,2025-05-15,合同会社ｂｅｓｔ,,合同会社,愛媛県,西条市,楠甲１７２０番地,,38,206,7991302,,,,,,,2025-05-15,1,,,,,ベスト,0
798,3700150130473,新規,0,2025-05-15,2025-05-15,Ｂ．Ｂ．ＬＡＮＫＡ　ＴＲＡＤＩＮＧ,,外国会社等,千葉県,香取郡神崎町,古原乙３２６番地２１２オフィス４,,12,342,2890215,スリランカ民主社会主義共和国、キャンディ、カトゥガストタ、マダワラロード、Ｎｏ．８７／５,,,,,,2025-05-15,1,,,,,ビービーランカトレーデイング,0
801,4010001254012,新規,0,2025-05-15,2025-05-15,東京システムアンドコンサルティング株式会社,,株式会社,東京都,中央区,勝どき５丁目３番１－１４０２号,,13,102,1040054,,,,,,,2025-05-15,1,,,,,トウキョウシステムアンドコンサルティング,0
802,4010001254788,新規,0,2025-05-15,2025-05-15,勢和インベストメンツ株式会社,,株式会社,東京都,千代田区,二番町１番地,,13,101,1020084,,,,,,,2025-05-15,1,,,,,セイワインベストメンツ,0
803,4010001254796,新規,0,2025-05-15,2025-05-15,都財託株式会社,,株式会社,東京都,中央区,築地４丁目３番１２号秀和第二築地レジデンス１１０５号,,13,102,1040045,,,,,,,2025-05-15,1,,,,,ミヤコザイタク,0
804,4010001254821,新規,0,2025-05-15,2025-05-15,ＰＲＡＶＡＡＨ株式会社,,株式会社,東京都,中央区,銀座１丁目８番２号銀座プルミエビル２階,,13,102,1040061,,,,,,,2025-05-15,1,,,,,プラヴァー,0
805,4010001254945,新規,0,2025-05-15,2025-05-15,クラウドアート株式会社,,株式会社,東京都,中央区,日本橋茅場町１丁目１０番８号,,13,102,1030025,,,,,,,2025-05-15,1,,,,,クラウドアート,0
806,4010001255019,新規,0,2025-05-15,2025-05-15,株式会社ＴＯＲＩＮＯＭＥ,,株式会社,東京都,中央区,日本橋室町１丁目１１番１２号日本橋水野ビル７階,,13,102,1030022,,,,,,,2025-05-15,1,,,,,トリノメ,0
807,4010001255027,新規,0,2025-05-15,2025-05-15,雅華株式会社,,株式会社,東京都,中央区,日本橋堀留町１丁目６番３号パレドール日本橋１０５,,13,102,1030012,,,,,,,2025-05-15,1,,,,,ミヤカ,0
808,4010001255043,新規,0,2025-05-15,2025-05-15,株式会社ＮＯＲ,,株式会社,東京都,中央区,銀座１丁目１２番４号Ｎ＆ＥＢＬＤ．６Ｆ,,13,102,1040061,,,,,,,2025-05-15,1,,,,,ノル,0
809,4010001255092,新規,0,2025-05-15,2025-05-15,株式会社ＺＩＮ‐３,,株式会社,東京都,中央区,日本橋本町３丁目８番５号,,13,102,1030023,,,,,,,2025-05-15,1,,,,,ジンスリー,0
826,4010401190204,新規,0,2025-05-15,2025-05-15,株式会社ＳＩＡ　Ｇｌｏｂａｌ,,株式会社,東京都,港区,港南２丁目１６番１号品川イーストワンタワー４階,,13,103,1080075,,,,,,,2025-05-15,1,,,,,エスアイエーグローバル,0
832,4010501054003,新規,0,2025-05-15,2025-05-15,瑞辰株式会社,,株式会社,東京都,台東区,北上野２丁目２５番９号－３０７号室,,13,106,1100014,,,,,,,2025-05-15,1,,,,,ズイシン,0
834,4010603011562,新規,0,2025-05-15,2025-05-15,合同会社海星光,,合同会社,東京都,墨田区,横川３丁目６番７号３－Ｈ室,,13,107,1300003,,,,,,,2025-05-15,1,,,,,カイセイコウ,0
836,4010701047715,新規,0,2025-05-15,2025-05-15,株式会社リクテラ,,株式会社,東京都,品川区,荏原５丁目１６番１３号１階,,13,109,1420063,,,,,,,2025-05-15,1,,,,,リクテラ,0
855,4011301030565,新規,0,2025-05-15,2025-05-15,株式会社翔昊,,株式会社,東京都,杉並区,荻窪１丁目５６番１０号,,13,115,1670051,,,,,,,2025-05-15,1,,,,,ソラ,0
860,4011603004721,新規,0,2025-05-15,2025-05-15,合同会社ＫｅｙＲｅｇｅｎ,,合同会社,東京都,練馬区,富士見台４丁目９番１７号,,13,120,1770034,,,,,,,2025-05-15,1,,,,,キーリジェン,0
868,4012701018860,新規,0,2025-05-15,2025-05-15,株式会社ＵＮＯ,,株式会社,東京都,小平市,小川町１丁目１０１１番地,,13,211,1870032,,,,,,,2025-05-15,1,,,,,ウノ,0
886,4020001162800,新規,0,2025-05-15,2025-05-15,株式会社晶孔技研,,株式会社,神奈川県,横浜市港北区,新横浜３丁目１７－１２アルファスペース新横浜ビステーション新横浜,,14,109,2220033,,,,,,,2025-05-15,1,,,,,ショウコギケン,0
887,4020001162809,新規,0,2025-05-15,2025-05-15,株式会社及川設備,,株式会社,神奈川県,横浜市青葉区,すすき野３丁目７番地２プロスペールすすき野４０６,,14,117,2250021,,,,,,,2025-05-15,1,,,,,オイカワセツビ,0
888,4020001162858,新規,0,2025-05-15,2025-05-15,株式会社Ｖｌａｂｏｒ,,株式会社,神奈川県,横浜市中区,尾上町４丁目５７横浜尾上町ビルディング８Ｆ,,14,104,2310015,,,,,,,2025-05-15,1,,,,,ブレイヴァ,0
891,4020003028446,新規,0,2025-05-15,2025-05-15,２輪の店よしい合同会社,,合同会社,神奈川県,横浜市港北区,日吉７丁目３番１７号第二ハイツ井上１Ｆ,,14,109,2230061,,,,,,,2025-05-15,1,,,,,ニリンノミセヨシイ,0
892,4020003028470,新規,0,2025-05-15,2025-05-15,合同会社ワンフェイス,,合同会社,神奈川県,川崎市中原区,上丸子八幡町８１５番地,,14,133,2110001,,,,,,,2025-05-15,1,,,,,ワンフェイス,0
894,4020005016853,新規,0,2025-05-15,2025-05-15,一般社団法人小さな幸せ,,その他の設立登記法人,神奈川県,川崎市川崎区,小田３丁目２１番５号,,14,131,2100846,,,,,,,2025-05-15,1,,,,,チイサナシアワセ,0
896,4021001085223,新規,0,2025-05-15,2025-05-15,株式会社Ｖｉｇｏｒｏｕｓ．,,株式会社,神奈川県,相模原市緑区,若葉台６丁目１０番地３,,14,151,2520112,,,,,,,2025-05-15,1,,,,,ヴィゴラス,0
901,4030001166536,新規,0,2025-05-15,2025-05-15,株式会社ヒルズアセット,,株式会社,埼玉県,さいたま市北区,日進町３丁目７０４番地１,,11,102,3310823,,,,,,,2025-05-15,1,,,,,ヒルズアセット,0
913,4040001138443,新規,0,2025-05-15,2025-05-15,トイボックス・ナーサリー株式会社,,株式会社,千葉県,松戸市,新松戸南２丁目１２０番地,,12,207,2700035,,,,,,,2025-05-15,1,,,,,トイボックスナーサリー,0
914,4040001138765,新規,0,2025-05-15,2025-05-15,株式会社Ｍｉａｒｃ,,株式会社,千葉県,柏市,花野井９２５,,12,217,2770812,,,,,,,2025-05-15,1,,,,,ミアーク,0
915,4040001138798,新規,0,2025-05-15,2025-05-15,株式会社むげん,,株式会社,千葉県,松戸市,紙敷１１９サンモール１０１,,12,207,2702221,,,,,,,2025-05-15,1,,,,,ムゲン,0
919,4050001056669,新規,0,2025-05-15,2025-05-15,株式会社Ｙ．ｓコーポレーション,,株式会社,茨城県,石岡市,金指３４８番地７,,08,205,3150137,,,,,,,2025-05-15,1,,,,,ワイズコーポレーション,0
920,4050001056677,新規,0,2025-05-15,2025-05-15,株式会社冨士菱,,株式会社,茨城県,水戸市,千波町２０２８番地１,,08,201,3100851,,,,,,,2025-05-15,1,,,,,フジビシ,0
926,4060005010340,新規,0,2025-05-15,2025-05-15,一般社団法人北関東製材協議会,,その他の設立登記法人,栃木県,那須塩原市,四区町７４１番地５,,09,213,3292746,,,,,,,2025-05-15,1,,,,,キタカントウセイザイキョウギカイ,0
932,4080401027911,新規,0,2025-05-15,2025-05-15,株式会社ＭＳＦみらいサポート,,株式会社,静岡県,浜松市中央区,雄踏町宇布見８０３０番地の１,,22,138,4310102,,,,,,,2025-05-15,1,,,,,エムエスエフミライサポート,0
943,4110001039270,新規,0,2025-05-15,2025-05-15,株式会社ｍｉｚｕｓｏｒａ＆Ｃｏ．,,株式会社,新潟県,新潟市江南区,早通３丁目４番２６号,,15,104,9500168,,,,,,,2025-05-15,1,,,,,ミズソラアンドコー,0
944,4110003005758,新規,0,2025-05-15,2025-05-15,合同会社片正商事,,合同会社,新潟県,柏崎市,中浜１丁目６番７号,,15,205,9450852,,,,,,,2025-05-15,1,,,,,カタマサショウジ,0
949,4120001275567,新規,0,2025-05-15,2025-05-15,株式会社ａｎｄ　ｃｏｎｎｅｃｔ,,株式会社,大阪府,門真市,島頭２丁目１番２３号,,27,223,5710016,,,,,,,2025-05-15,1,,,,,アンドコネクト,0
950,4120001275690,新規,0,2025-05-15,2025-05-15,Ｃｏｔｔｏｎ株式会社,,株式会社,大阪府,大阪市西成区,南津守７丁目８番６号アクティー玉出２Ｂ,,27,122,5570063,,,,,,,2025-05-15,1,,,,,コットン,0
951,4120001275716,新規,0,2025-05-15,2025-05-15,レオルグループ株式会社,,株式会社,大阪府,大阪市北区,梅田２丁目２－２ヒルトンプラザウエストオフィスタワ１９階,,27,127,5300001,,,,,,,2025-05-15,1,,,,,レオルグループ,0
952,4120001275732,新規,0,2025-05-15,2025-05-15,株式会社お好み焼きでん,,株式会社,大阪府,大阪市西成区,鶴見橋１丁目５番１８号,,27,122,5570031,,,,,,,2025-05-15,1,,,,,オコノミヤキデン,0
953,4120001275740,新規,0,2025-05-15,2025-05-15,株式会社亀鶴,,株式会社,大阪府,大阪市中央区,南久宝寺町３丁目４番１４号,,27,128,5410058,,,,,,,2025-05-15,1,,,,,カメツル,0
954,4120001275955,新規,0,2025-05-15,2025-05-15,株式会社奥田Ｓｔｒａｔｅｇｙ＆Ｃｏｎｓｕｌｔｉｎｇ,,株式会社,大阪府,枚方市,香里ケ丘９丁目１３番地の１（６０５）,,27,210,5730084,,,,,,,2025-05-15,1,,,,,オクダストラテジーアンドコンサルティング,0
956,4120003029434,新規,0,2025-05-15,2025-05-15,グランツーインベスト合同会社,,合同会社,大阪府,大阪市北区,梅田１丁目２番２号大阪駅前第２ビル１２－１２,,27,127,5300001,,,,,,,2025-05-15,1,,,,,グランツーインベスト,0
966,4120901050854,新規,0,2025-05-15,2025-05-15,株式会社ＦｌｏｗＤｅａｒ,,株式会社,大阪府,吹田市,広芝町１０番８号,,27,205,5640052,,,,,,,2025-05-15,1,,,,,フローディア,0
967,4120903005658,新規,0,2025-05-15,2025-05-15,合同会社ＳＵＮＮＹ　ＦＩＧＨＴ,,合同会社,大阪府,高槻市,氷室町４丁目１８－１２,,27,207,5691141,,,,,,,2025-05-15,1,,,,,サニーファイト,0
973,4130001079678,新規,0,2025-05-15,2025-05-15,株式会社兆,,株式会社,京都府,南丹市,園部町内林町３号４番地,,26,213,6220012,,,,,,,2025-05-15,1,,,,,キザシ,0
981,4140001138499,新規,0,2025-05-15,2025-05-15,株式会社Ｂ　ｌａｂｏ．ＫＴ,,株式会社,兵庫県,神戸市長田区,西尻池町２丁目５番１４号,,28,106,6530031,,,,,,,2025-05-15,1,,,,,ビーラボケーティー,0
982,4140001138540,新規,0,2025-05-15,2025-05-15,株式会社高嶋屋,00139164,株式会社,兵庫県,神戸市中央区,磯辺通３丁目１番２号大和地所三宮ビル３０７号,,28,110,6510084,,,,,,,2025-05-15,1,,,,,タカシマヤ,0
983,4140001138557,新規,0,2025-05-15,2025-05-15,株式会社ファームリンクス,,株式会社,兵庫県,たつの市,揖保川町金剛山４０２番地２,,28,229,6711664,,,,,,,2025-05-15,1,,,,,ファームリンクス,0
984,4140001138565,新規,0,2025-05-15,2025-05-15,株式会社共栄,,株式会社,兵庫県,伊丹市,美鈴町４丁目１－２,,28,207,6640884,,,,,,,2025-05-15,1,,,,,キョウエイ,0
1015,4200001043783,新規,0,2025-05-15,2025-05-15,株式会社友邦商事,,株式会社,岐阜県,美濃市,大字蕨生字浅野１５番地１‐３０１号室,,21,207,5013701,,,,,,,2025-05-15,1,,,,,ユウホウショウジ,0
1020,4220003004030,新規,0,2025-05-15,2025-05-15,合同会社須々屋,,合同会社,石川県,加賀市,山中温泉下谷町ニ４１２番地,,17,206,9220127,,,,,,,2025-05-15,1,,,,,スズヤ,0
1027,4240001064941,新規,0,2025-05-15,2025-05-15,株式会社ＫＡＭＥＹＡＭＡ１８７１,,株式会社,広島県,府中市,府中町８６４－４,,34,208,7260005,,,,,,,2025-05-15,1,,,,,カメヤマイチハチナナイチ,0
1044,4340001027335,新規,0,2025-05-15,2025-05-15,株式会社ココカラステップ,,株式会社,鹿児島県,鹿児島市,明和３丁目１８番１４－１号,,46,201,8900024,,,,,,,2025-05-15,1,,,,,ココカラステップ,0
1045,4340003004852,新規,0,2025-05-15,2025-05-15,合同会社ＴＴＤ,,合同会社,鹿児島県,鹿児島市,中山町２０８０番地１華ＬＵＣＥ（カルーチェ）１号,,46,201,8910105,,,,,,,2025-05-15,1,,,,,ティーティーディー,0
1083,4500001026295,新規,0,2025-05-15,2025-05-15,株式会社カチキカク,,株式会社,愛媛県,西条市,新田２７９番地１,,38,206,7930028,,,,,,,2025-05-15,1,,,,,カチキカク,0
1086,5010001254589,新規,0,2025-05-15,2025-05-15,株式会社アクシーズ,,株式会社,東京都,中央区,京橋１丁目６－１３金葉ビル７階,,13,102,1040031,,,,,,,2025-05-15,1,,,,,アクシーズ,0
1087,5010001255042,新規,0,2025-05-15,2025-05-15,株式会社ビビッドカラー,,株式会社,東京都,中央区,新川１丁目３番２１－４２１号,,13,102,1040033,,,,,,,2025-05-15,1,,,,,ビビッドカラー,0
1088,5010001255059,新規,0,2025-05-15,2025-05-15,ＲＭコーポレーション株式会社,,株式会社,東京都,千代田区,麹町２丁目３－３ＦＤＣ麹町ビル１０階,,13,101,1020083,,,,,,,2025-05-15,1,,,,,アールエムコーポレーション,0
1091,5010003047272,新規,0,2025-05-15,2025-05-15,ＡＢＭ合同会社,,合同会社,東京都,中央区,晴海５丁目６番３－１００２号,,13,102,1040053,,,,,,,2025-05-15,1,,,,,エイビイエム,0
1100,5010401190244,新規,0,2025-05-15,2025-05-15,株式会社Ｃａｔａｌｙｓｔ　Ｏｎｅ．,,株式会社,東京都,港区,北青山１丁目３番１号アールキューブ青山３階,,13,103,1070061,,,,,,,2025-05-15,1,,,,,カタリストワン,0
1101,5010401190285,新規,0,2025-05-15,2025-05-15,株式会社インバリンク,,株式会社,東京都,港区,元赤坂１丁目７－２０メットライフ元赤坂ウエストビル５階,,13,103,1070051,,,,,,,2025-05-15,1,,,,,インバリンク,0
1105,5010501054068,新規,0,2025-05-15,2025-05-15,株式会社栄華,,株式会社,東京都,台東区,入谷１丁目１６番５号６０１室ヴェレーナ上野入谷,,13,106,1100013,,,,,,,2025-05-15,1,,,,,エイカ,0
1108,5010603011561,新規,0,2025-05-15,2025-05-15,ＡＧＧ合同会社,,合同会社,東京都,墨田区,立花４丁目２３－７椎葉ビル１階１０１号室,,13,107,1310043,,,,,,,2025-05-15,1,,,,,エイジージー,0
1109,5010701047680,新規,0,2025-05-15,2025-05-15,株式会社Ｄ　Ｓｔｙｌｅ,,株式会社,東京都,品川区,小山５丁目１１番１１号,,13,109,1420062,,,,,,,2025-05-15,1,,,,,ディースタイル,0
1117,5010901057356,新規,0,2025-05-15,2025-05-15,まみむめも株式会社,,株式会社,東京都,世田谷区,下馬２丁目４４番１１号,,13,112,1540002,,,,,,,2025-05-15,1,,,,,マミムメモ,0
1118,5010901057372,新規,0,2025-05-15,2025-05-15,ＳＤ設計株式会社,,株式会社,東京都,世田谷区,粕谷２丁目１１番３５号１０３号室,,13,112,1570063,,,,,,,2025-05-15,1,,,,,エスディーセッケイ,0
1124,5011001169240,新規,0,2025-05-15,2025-05-15,株式会社ＬＥＮＵＣＵ　Ｊａｐａｎ,,株式会社,東京都,渋谷区,神宮前５丁目４６番３号ＮＩＫＯＰＬＡＣＥ３Ｆ,,13,113,1500001,,,,,,,2025-05-15,1,,,,,ルヌクジャパン,0
1125,5011001169562,新規,0,2025-05-15,2025-05-15,女神スタイル株式会社,,株式会社,東京都,渋谷区,恵比寿２丁目６番１６号ＳａｔＶｅｒｎａＥＢＩＳＵ－Ａ,,13,113,1500013,,,,,,,2025-05-15,1,,,,,メガミスタイル,0
1131,5011105011430,新規,0,2025-05-15,2025-05-15,一般社団法人３０クリニック,,その他の設立登記法人,東京都,新宿区,新宿５丁目１８番８号加藤ビル２階,,13,104,1600022,,,,,,,2025-05-15,1,,,,,サーティークリニック,0
1133,5011203004690,新規,0,2025-05-15,2025-05-15,ＭｙＭｅｄｉＰａｔｈ合同会社,,合同会社,東京都,中野区,東中野３丁目１１番１号シティフラット２５－２０１号室,,13,114,1640003,,,,,,,2025-05-15,1,,,,,マイメディパス,0
1136,5011301030572,新規,0,2025-05-15,2025-05-15,株式会社オンデックサークル,,株式会社,東京都,杉並区,和田２丁目４０－４シンシア東高円寺１０５,,13,115,1660012,,,,,,,2025-05-15,1,,,,,オンデックサークル,0
1137,5011301030580,新規,0,2025-05-15,2025-05-15,株式会社耕医堂,,株式会社,東京都,杉並区,上荻１丁目２１番２１号ＳＹＭＰＨＯＮＹＭＡＲＥ１階,,13,115,1670043,,,,,,,2025-05-15,1,,,,,コウイドウ,0
1143,5011401027089,新規,0,2025-05-15,2025-05-15,株式会社草原,,株式会社,東京都,板橋区,東山町１２番１４－５０４号,,13,119,1740073,,,,,,,2025-05-15,1,,,,,ソウゲン,0
1146,5011601028647,新規,0,2025-05-15,2025-05-15,株式会社ＳＩＮＷＯＮ,,株式会社,東京都,練馬区,北町７丁目７番２４－２０４号,,13,120,1790081,,,,,,,2025-05-15,1,,,,,シンウォン,0
1153,5012301014383,新規,0,2025-05-15,2025-05-15,株式会社ＧＲＡＮＤＩＡ．Ｒｅｎｏｖａｔｅ,,株式会社,東京都,町田市,相原町３０２１番地１６,,13,209,1940211,,,,,,,2025-05-15,1,,,,,グランディアリノベイト,0
1158,5012703003273,新規,0,2025-05-15,2025-05-15,エクスペリメンタリズム合同会社,,合同会社,東京都,東村山市,久米川町３丁目２７番地５６,,13,213,1890003,,,,,,,2025-05-15,1,,,,,エクスペリメンタリズム,0
1169,5020001162832,新規,0,2025-05-15,2025-05-15,アプレマネジメント株式会社,,株式会社,神奈川県,横浜市中区,翁町２丁目７番地の１０関内フレックスビル,,14,104,2310028,,,,,,,2025-05-15,1,,,,,アプレマネジメント,0
1170,5020001162857,新規,0,2025-05-15,2025-05-15,株式会社結,,株式会社,神奈川県,横浜市保土ケ谷区,月見台４９番２４号,,14,106,2400012,,,,,,,2025-05-15,1,,,,,ユイ,0
1176,5020003028494,新規,0,2025-05-15,2025-05-15,ＡＨＹカンパニー合同会社,,合同会社,神奈川県,川崎市高津区,末長１丁目３３番８号,,14,134,2130013,,,,,,,2025-05-15,1,,,,,エーエイチワイカンパニー,0
1179,5021001085239,新規,0,2025-05-15,2025-05-15,守山トレーディング株式会社,,株式会社,神奈川県,南足柄市,塚原４５１４－４９,,14,217,2500117,,,,,,,2025-05-15,1,,,,,モリヤマトレーディング,0
1180,5021001085247,新規,0,2025-05-15,2025-05-15,小田原総合スポーツクラブ株式会社,,株式会社,神奈川県,小田原市,飯田岡５０７番地,,14,206,2500854,,,,,,,2025-05-15,1,,,,,オダワラソウゴウスポーツクラブ,0
1183,5021003015986,新規,0,2025-05-15,2025-05-15,ＴＤ合同会社,,合同会社,神奈川県,大和市,代官３丁目１番地１,,14,213,2420025,,,,,,,2025-05-15,1,,,,,ティーディー,0
1184,5021003015994,新規,0,2025-05-15,2025-05-15,ＭＯＴＨＥＲ　ＩＮＴＥＲＮＡＴＩＯＮＡＬ合同会社,,合同会社,神奈川県,座間市,相模が丘５丁目１－２０,,14,216,2520001,,,,,,,2025-05-15,1,,,,,マザーインターナショナル,0
1187,5030001166436,新規,0,2025-05-15,2025-05-15,株式会社ものづくり経営総研,,株式会社,埼玉県,さいたま市大宮区,桜木町２丁目３番地大宮マルイ７階,,11,103,3300854,,,,,,,2025-05-15,1,,,,,モノヅクリケイエイソウケン,0
1188,5030001166551,新規,0,2025-05-15,2025-05-15,ＴＥＣＨ　ＮＯＷ株式会社,,株式会社,埼玉県,三郷市,鷹野３丁目１１８番地８,,11,237,3410035,,,,,,,2025-05-15,1,,,,,テックナウ,0
1197,5040003027577,新規,0,2025-05-15,2025-05-15,合同会社Ｍｎｅｍｏｎｉｃ,,合同会社,千葉県,船橋市,二和西２丁目１７－４０,,12,204,2740806,,,,,,,2025-05-15,1,,,,,ニーモニック,0
1200,5050001056651,新規,0,2025-05-15,2025-05-15,株式会社岩城商事,,株式会社,茨城県,取手市,白山５丁目３５番１８－２Ｄ号,,08,217,3020023,,,,,,,2025-05-15,1,,,,,イワシロショウジ,0
1201,5050005013632,新規,0,2025-05-15,2025-05-15,一般社団法人ＭＣＦＡＪ,,その他の設立登記法人,茨城県,ひたちなか市,新光町３８番地,,08,221,3120005,,,,,,,2025-05-15,1,,,,,エムシーエフエイジェイ,0
1207,5080105006509,新規,0,2025-05-15,2025-05-15,一般社団法人ぬくぬくファミリークラブ,,その他の設立登記法人,静岡県,田方郡函南町,桑原１０３８番地の１１,,22,325,4190101,,,,,,,2025-05-15,1,,,,,ヌクヌクファミリークラブ,0
1212,5090001019258,新規,0,2025-05-15,2025-05-15,Ｄｅｃｏｒａｘ株式会社,,株式会社,山梨県,中巨摩郡昭和町,築地新居７６１－６,,19,384,4093853,,,,,,,2025-05-15,1,,,,,,0
1225,5120001275335,新規,0,2025-05-15,2025-05-15,桜陽株式会社,,株式会社,大阪府,大阪市住之江区,新北島５丁目２番４１号,,27,125,5590024,,,,,,,2025-05-15,1,,,,,オウヨウ,0
1226,5120001275491,新規,0,2025-05-15,2025-05-15,森和株式会社,,株式会社,大阪府,大阪市東淀川区,大桐３丁目６番２１－２０６号,,27,114,5330011,,,,,,,2025-05-15,1,,,,,シンワ,0
1227,5120001275822,新規,0,2025-05-15,2025-05-15,土松建材株式会社,,株式会社,大阪府,大阪市東住吉区,今林２丁目７番２７号,,27,121,5460001,,,,,,,2025-05-15,1,,,,,ツチマツケンザイ,0
1230,5120003029433,新規,0,2025-05-15,2025-05-15,Ａｒａｍａｒ　Ｊａｐａｎ合同会社,,合同会社,大阪府,大阪市中央区,難波４丁目１番１５号近鉄難波ビル１階,,27,128,5420076,,,,,,,2025-05-15,1,,,,,アラマールジャパン,0
1232,5120101071683,新規,0,2025-05-15,2025-05-15,シャンうーたん株式会社,,株式会社,大阪府,堺市中区,土師町５丁１５番３５号ヒルズ土師２１１号,,27,142,5998238,,,,,,,2025-05-15,1,,,,,シャンウータン,0
1234,5120103006456,新規,0,2025-05-15,2025-05-15,ＯＧＳ合同会社,,合同会社,大阪府,大阪狭山市,大野台１丁目３０番８号,,27,231,5890023,,,,,,,2025-05-15,1,,,,,オージーエス,0
1236,5122001039216,新規,0,2025-05-15,2025-05-15,株式会社木積,,株式会社,大阪府,東大阪市,中石切町１丁目９番１２号,,27,227,5798014,,,,,,,2025-05-15,1,,,,,コヅミ,0
1243,5130001079652,新規,0,2025-05-15,2025-05-15,株式会社マルフォト,,株式会社,京都府,京都市左京区,聖護院川原町１１番地１３,,26,103,6068397,,,,,,,2025-05-15,1,,,,,マルフォト,0
1244,5130001079660,新規,0,2025-05-15,2025-05-15,山勝株式会社,,株式会社,京都府,京田辺市,宮津大井池１６番地１,,26,211,6100314,,,,,,,2025-05-15,1,,,,,ヤマカツ,0
1245,5130001079669,新規,0,2025-05-15,2025-05-15,都来株式会社,,株式会社,京都府,京都市西京区,大枝北沓掛町７丁目１０番地１０,,26,111,6101101,,,,,,,2025-05-15,1,,,,,トライ,0
1246,5130001079677,新規,0,2025-05-15,2025-05-15,日光興産株式会社,,株式会社,京都府,京都市伏見区,日野畑出町２番地２プリムローズＳｈｉｚｕ２０４,,26,109,6011412,,,,,,,2025-05-15,1,,,,,ニッコウコウサン,0
1247,5130003010458,新規,0,2025-05-15,2025-05-15,合同会社Ａｓｐｉｒａｔｉｏｎ,,合同会社,京都府,舞鶴市,字万願寺９２番地１１,,26,202,6240814,,,,,,,2025-05-15,1,,,,,アスピレーション,0
1248,5130003010466,新規,0,2025-05-15,2025-05-15,Ｐ＆Ｋ合同会社,,合同会社,京都府,京都市伏見区,深草善導寺町１３－４仙光ハイ厶Ｂ２０３,,26,109,6128433,,,,,,,2025-05-15,1,,,,,ピーアンドケー,0
1253,5140001138523,新規,0,2025-05-15,2025-05-15,株式会社ＴＨＩＮＧ,,株式会社,兵庫県,尼崎市,上坂部１丁目８番２－９１２号,,28,202,6610979,,,,,,,2025-05-15,1,,,,,シング,0
1254,5140001138556,新規,0,2025-05-15,2025-05-15,株式会社ルシール,,株式会社,兵庫県,西宮市,川東町８番２０号,,28,204,6620945,,,,,,,2025-05-15,1,,,,,ルシール,0
1259,5140003022056,新規,0,2025-05-15,2025-05-15,合同会社三河空調技研,,合同会社,兵庫県,加古郡稲美町,中村４９５－８０,,28,381,6751122,,,,,,,2025-05-15,1,,,,,ミカワクウチョウギケン,0
1260,5140003022064,新規,0,2025-05-15,2025-05-15,ＴＡＮＵＷ合同会社,,合同会社,兵庫県,淡路市,里６０１番地１６０,,28,226,6562143,,,,,,,2025-05-15,1,,,,,タヌー,0
1261,5140003022080,新規,0,2025-05-15,2025-05-15,合同会社ゲートウェイ,,合同会社,兵庫県,西宮市,池田町９番２０号ブリックコート西宮６階,,28,204,6620911,,,,,,,2025-05-15,1,,,,,ゲートウエイ,0
1283,5180003028454,新規,0,2025-05-15,2025-05-15,武蔵工業合同会社,,合同会社,愛知県,あま市,二ツ寺屋敷１番地５,,23,237,4901207,,,,,,,2025-05-15,1,,,,,ムサシコウギョウ,0
1284,5180301039797,新規,0,2025-05-15,2025-05-15,株式会社新生クラフト,,株式会社,愛知県,額田郡幸田町,大字深溝字寅蔵６番地４,,23,501,4440124,,,,,,,2025-05-15,1,,,,,シンセイクラフト,0
1285,5180301039806,新規,0,2025-05-15,2025-05-15,ＳＥＫＩＮＥ株式会社,,株式会社,愛知県,知立市,逢妻町西栄１８番地６,,23,225,4720021,,,,,,,2025-05-15,1,,,,,セキネ,0
1290,5180305009689,新規,0,2025-05-15,2025-05-15,一般社団法人Ｓａｋｕｒａ　Ｐｒｏｊｅｃｔｓ,,その他の設立登記法人,愛知県,豊川市,中条町今宮８番地の３,,23,207,4420818,,,,,,,2025-05-15,1,,,,,サクラプロジェクツ,0
1304,5240001064949,新規,0,2025-05-15,2025-05-15,株式会社Ｎｅｔ　Ｐｉｌｏｔｓ,,株式会社,広島県,広島市中区,大手町１丁目１番２６号大手町一番ビル３０５,,34,101,7300051,,,,,,,2025-05-15,1,,,,,ネットパイロット,0
1311,5260003005180,新規,0,2025-05-15,2025-05-15,合同会社ＮＡＭＹ,,合同会社,岡山県,岡山市中区,門田本町２丁目３番１４号,,33,102,7038274,,,,,,,2025-05-15,1,,,,,ネイミー,0
1318,5290003016836,新規,0,2025-05-15,2025-05-15,グローバルバイヤー合同会社,,合同会社,福岡県,糸島市,志摩野北１６６７番地４,,40,230,8191303,,,,,,,2025-05-15,1,,,,,グローバルバイヤー,0
1341,5480001012834,新規,0,2025-05-15,2025-05-15,株式会社優輝工業,,株式会社,徳島県,徳島市,津田本町４丁目２番５４号,,36,201,7708003,,,,,,,2025-05-15,1,,,,,ユウキコウギョウ,0
1350,6010001254786,新規,0,2025-05-15,2025-05-15,株式会社Ｒｅａｌ‐Ｂ,,株式会社,東京都,中央区,銀座１丁目１２－４Ｎ＆ＥＢＬＤ．７階,,13,102,1040061,,,,,,,2025-05-15,1,,,,,リアルビー,0
1351,6010001255000,新規,0,2025-05-15,2025-05-15,株式会社関東総合マネジメント,,株式会社,東京都,千代田区,丸の内１丁目３番４号丸の内テラス４Ｆ,,13,101,1000005,,,,,,,2025-05-15,1,,,,,カントウソウゴウマネジメント,0
1352,6010001255017,新規,0,2025-05-15,2025-05-15,ＳｏｚｏＷｏｒｋｓ株式会社,,株式会社,東京都,文京区,本郷６丁目２５番１４号,,13,105,1130033,,,,,,,2025-05-15,1,,,,,ソウゾウワークス,0
1353,6010001255058,新規,0,2025-05-15,2025-05-15,Ｃａｒａｖａｎ　Ｊａｐａｎ株式会社,,株式会社,東京都,千代田区,大手町１丁目８番１号,,13,101,1000004,,,,,,,2025-05-15,1,,,,,キャラバンジャパン,0
1355,6010005040043,新規,0,2025-05-15,2025-05-15,一般社団法人プロウド,,その他の設立登記法人,東京都,千代田区,神田須田町１丁目７番８号ＶＯＲＴ秋葉原ＩＶ２階,00139168,13,101,1010041,,,,,,,2025-05-15,1,,,,,プロウド,0
1369,6010503007840,新規,0,2025-05-15,2025-05-15,ｆｋサービス合同会社,,合同会社,東京都,台東区,寿３丁目９番３号丸大ビル３Ｆ,,13,106,1110042,,,,,,,2025-05-15,1,,,,,エフケーサービス,0
1372,6010701047663,新規,0,2025-05-15,2025-05-15,株式会社日本冷凍技術,,株式会社,東京都,品川区,北品川１丁目２３－２０,,13,109,1400001,,,,,,,2025-05-15,1,,,,,ニホンレイトウギジュツ,0
1373,6010701047705,新規,0,2025-05-15,2025-05-15,株式会社ｃｏｎｓｔ　Ｐｒｏｆｅｓｓｉｏｎａｌ,,株式会社,東京都,品川区,東五反田５丁目２２－３３ＴＫ池田山ビル２階,,13,109,1410022,,,,,,,2025-05-15,1,,,,,コンストプロフェッショナル,0
1374,6010801036137,新規,0,2025-05-15,2025-05-15,株式会社Ｌａｂｏｕｒ　Ｍｏｂｉｌｉｔｙ,,株式会社,東京都,大田区,下丸子１丁目１５番２２－３０７号,,13,111,1460092,,,,,,,2025-05-15,1,,,,,レイバーモビリティ,0
1389,6011001169818,新規,0,2025-05-15,2025-05-15,株式会社坂手開発Ｄ,,株式会社,東京都,渋谷区,神泉町８番１３号,,13,113,1500045,,,,,,,2025-05-15,1,,,,,サカテカイハツディ,0
1391,6011003021547,新規,0,2025-05-15,2025-05-15,合同会社ＡＬＬ　ＰＵＲＥ,,合同会社,東京都,目黒区,南２丁目８番４号,,13,110,1520013,,,,,,,2025-05-15,1,,,,,オールピュア,0
1392,6011003021563,新規,0,2025-05-15,2025-05-15,合同会社夢コンサルティングサービス,,合同会社,東京都,渋谷区,渋谷２丁目１９番１９号ワコー宮益坂ビル５階,,13,113,1500002,,,,,,,2025-05-15,1,,,,,ユメコンサルティングサービス,0
1401,6011501032054,新規,0,2025-05-15,2025-05-15,ＭＩＮＡＭＯＴＯ国際株式会社,,株式会社,東京都,荒川区,町屋３丁目１－１３－４Ｄ,,13,118,1160001,,,,,,,2025-05-15,1,,,,,ミナモトコクサイ,0
1403,6011601028646,新規,0,2025-05-15,2025-05-15,株式会社メディアリープ,,株式会社,東京都,練馬区,練馬１丁目２０番８号日建練馬ビル２Ｆ,,13,120,1760001,,,,,,,2025-05-15,1,,,,,メディアリープ,0
1404,6011601028654,新規,0,2025-05-15,2025-05-15,株式会社オルフラ,,株式会社,東京都,練馬区,豊玉北６丁目２０番９－５１３号,,13,120,1760012,,,,,,,2025-05-15,1,,,,,オルフラ,0
1408,6011803006862,新規,0,2025-05-15,2025-05-15,小さな太陽合同会社,,合同会社,東京都,葛飾区,水元２丁目１２－２,,13,122,1250032,,,,,,,2025-05-15,1,,,,,チイサナタイヨウ,0
1411,6012403007128,新規,0,2025-05-15,2025-05-15,紺青合同会社,,合同会社,東京都,武蔵野市,吉祥寺本町１丁目２０番１号吉祥寺永谷シティプラザ１００２,,13,203,1800004,,,,,,,2025-05-15,1,,,,,コンジョウ,0
1416,6013301054237,新規,0,2025-05-15,2025-05-15,株式会社セイワ,,株式会社,東京都,豊島区,南池袋１丁目９番１８号２３３室,,13,116,1710022,,,,,,,2025-05-15,1,,,,,セイワ,0
1422,6020001162823,新規,0,2025-05-15,2025-05-15,株式会社ストーリー,,株式会社,神奈川県,横浜市都筑区,仲町台３丁目１２番４－２１５号,,14,118,2240041,,,,,,,2025-05-15,1,,,,,ストーリー,0
1423,6020001162880,新規,0,2025-05-15,2025-05-15,アール株式会社,,株式会社,神奈川県,横浜市泉区,和泉町６９８番地１９,,14,116,2450016,,,,,,,2025-05-15,1,,,,,アール,0
1424,6020001162889,新規,0,2025-05-15,2025-05-15,株式会社Ｍｏｆｕｖｅｒｓｅ,,株式会社,神奈川県,横浜市神奈川区,金港町５－１４クアドリフォリオ８階,,14,102,2210056,,,,,,,2025-05-15,1,,,,,モフバース,0
1435,6021003015886,新規,0,2025-05-15,2025-05-15,合同会社ＢｉＢｉＤ,,合同会社,神奈川県,厚木市,山際１０１３番地１,,14,212,2430803,,,,,,,2025-05-15,1,,,,,,0
1436,6021003015969,新規,0,2025-05-15,2025-05-15,合同会社まる,,合同会社,神奈川県,相模原市南区,上鶴間本町７丁目３０－１４,,14,153,2520318,,,,,,,2025-05-15,1,,,,,マル,0
1444,6030005022163,新規,0,2025-05-15,2025-05-15,一般社団法人Ｈａｎｄ　ｏｆｆ　ｔｈｅ　Ｈｏｐｅ,,その他の設立登記法人,埼玉県,川口市,芝中田１丁目３６番２４号,,11,203,3330847,,,,,,,2025-05-15,1,,,,,ハンドオフザホープ,0
1447,6040001138771,新規,0,2025-05-15,2025-05-15,株式会社Ｓａｎｄｙ　Ｐｏｉｎｔ,,株式会社,千葉県,市原市,ちはら台東１丁目５番地１ヴィルフォーレＡ１０２,,12,219,2900141,,,,,,,2025-05-15,1,,,,,サンディポイント,0
1448,6040001138796,新規,0,2025-05-15,2025-05-15,株式会社Ｎｉｓｓｈｏ,,株式会社,千葉県,我孫子市,寿２丁目１７番１２号,,12,222,2701152,,,,,,,2025-05-15,1,,,,,ニッショウ,0
1453,6050003009268,新規,0,2025-05-15,2025-05-15,合同会社ＯＺＡＲＩＥＴ,,合同会社,茨城県,つくば市,千現１丁目１２番地２ヴィラージュ千現５０２,,08,220,3050047,,,,,,,2025-05-15,1,,,,,オザリエット,0
1455,6060001038193,新規,0,2025-05-15,2025-05-15,株式会社植平仮設,,株式会社,栃木県,宇都宮市,板戸町３１２５番地１２,,09,201,3213221,,,,,,,2025-05-15,1,,,,,ウエヒラカセツ,0
1464,6070001042896,新規,0,2025-05-15,2025-05-15,株式会社Ｎｉｃｏｌｕｌｕ　Ｇｒｏｕｐ,,株式会社,群馬県,太田市,藪塚町２１２６番地７,,10,205,3792301,,,,,,,2025-05-15,1,,,,,ニコルルグループ,0
1469,6080403005260,新規,0,2025-05-15,2025-05-15,ＶＯＦ合同会社,,合同会社,静岡県,浜松市中央区,鍛冶町３２０番地の２０,,22,138,4300933,,,,,,,2025-05-15,1,,,,,ブイオーエフ,0
1470,6090001019265,新規,0,2025-05-15,2025-05-15,株式会社ひるんど,,株式会社,山梨県,都留市,厚原１０１０番地１,,19,204,4020042,,,,,,,2025-05-15,1,,,,,,0
1471,6090003002814,新規,0,2025-05-15,2025-05-15,Ｃ・Ｓ・Ｏ合同会社,,合同会社,山梨県,南都留郡富士河口湖町,船津７７２９番地１,,19,430,4010301,,,,,,,2025-05-15,1,,,,,,0
1478,6110001039252,新規,0,2025-05-15,2025-05-15,株式会社古澤左官工業,,株式会社,新潟県,上越市,清里区今曽根１１０５番地,,15,222,9430513,,,,,,,2025-05-15,1,,,,,フルサワサカンコウギョウ,0
1479,6110001039269,新規,0,2025-05-15,2025-05-15,株式会社ＭＩＫＡＺＵＫＩ,,株式会社,新潟県,胎内市,村松浜２１２５番地２,,15,227,9592709,,,,,,,2025-05-15,1,,,,,ミカヅキ,0
1481,6110003005748,新規,0,2025-05-15,2025-05-15,合同会社ツナシマ,,合同会社,新潟県,糸魚川市,大字山本１０８番地,,15,216,9410072,,,,,,,2025-05-15,1,,,,,ツナシマ,0
1491,6120001275623,新規,0,2025-05-15,2025-05-15,株式会社ＢＩＢＩＢＩ,,株式会社,大阪府,大阪市北区,西天満６丁目２番１４号マッセ梅田ビル２号館,,27,127,5300047,,,,,,,2025-05-15,1,,,,,ビビビ,0
1492,6120001275648,新規,0,2025-05-15,2025-05-15,株式会社辿織,,株式会社,大阪府,大阪市北区,梅田１丁目２番２号大阪駅前第２ビル１２－１２,,27,127,5300001,,,,,,,2025-05-15,1,,,,,タドリ,0
1493,6120001275664,新規,0,2025-05-15,2025-05-15,株式会社ＲＥＣＴＯ,,株式会社,大阪府,大阪市東住吉区,北田辺２丁目１２番１５－５０３号,,27,121,5460044,,,,,,,2025-05-15,1,,,,,レクト,0
1494,6120001275730,新規,0,2025-05-15,2025-05-15,ＳＫコンサルティング株式会社,,株式会社,大阪府,大阪市北区,芝田２丁目８－１１共栄ビル３Ｆ,,27,127,5300012,,,,,,,2025-05-15,1,,,,,エスケイコンサルティング,0
1495,6120001275739,新規,0,2025-05-15,2025-05-15,株式会社松本,,株式会社,大阪府,大阪市福島区,鷺洲５丁目１１番２号ＬａＧｒａｃｅ福島４０１号室,,27,103,5530002,,,,,,,2025-05-15,1,,,,,マツモト,0
1496,6120001275895,新規,0,2025-05-15,2025-05-15,Ｕｍｉ株式会社,,株式会社,大阪府,大阪市住吉区,遠里小野６丁目７番２２号１０３室,,27,120,5580032,,,,,,,2025-05-15,1,,,,,ウミ,0
1501,6120003029382,新規,0,2025-05-15,2025-05-15,合同会社ふれあいホーム絆,,合同会社,大阪府,大阪市生野区,勝山南３丁目１５番６号,,27,116,5440021,,,,,,,2025-05-15,1,,,,,フレアイホームキズナ,0
1503,6120901050852,新規,0,2025-05-15,2025-05-15,株式会社大洋建材,,株式会社,大阪府,摂津市,香露園７番５号ＯＨビル１Ｆ,,27,224,5660034,,,,,,,2025-05-15,1,,,,,タイヨウケンザイ,0
1504,6120901050860,新規,0,2025-05-15,2025-05-15,クリニックエステート株式会社,,株式会社,大阪府,吹田市,江坂町１丁目１３番２１号,,27,205,5640063,,,,,,,2025-05-15,1,,,,,クリニックエステート,0
1505,6120901050869,新規,0,2025-05-15,2025-05-15,イノテック株式会社,,株式会社,大阪府,茨木市,野々宮１丁目３番１２号,,27,211,5670847,,,,,,,2025-05-15,1,,,,,イノテック,0
1506,6120901050910,新規,0,2025-05-15,2025-05-15,株式会社ＢｌｕｅＷａｖｅ,,株式会社,大阪府,摂津市,鳥飼野々２丁目２番４－４０１号,,27,224,5660053,,,,,,,2025-05-15,1,,,,,ブルーウェーブ,0
1514,6130003010465,新規,0,2025-05-15,2025-05-15,合同会社サクセスステージ,,合同会社,京都府,京都市南区,東九条東札辻町１６－１,00139165,26,107,6018024,,,,,,,2025-05-15,1,,,,,サクセスステージ,0
1522,6140003021957,新規,0,2025-05-15,2025-05-15,ＴＤＬ合同会社,,合同会社,兵庫県,西宮市,里中町２丁目４番１８号,,28,204,6638183,,,,,,,2025-05-15,1,,,,,ティディエル,0
1523,6140003022063,新規,0,2025-05-15,2025-05-15,合同会社紬和,,合同会社,兵庫県,たつの市,揖保川町金剛山３７６番地２,,28,229,6711664,,,,,,,2025-05-15,1,,,,,ツムギアイ,0
1524,6140003022071,新規,0,2025-05-15,2025-05-15,合同会社神戸牛肉研究所,,合同会社,兵庫県,神戸市長田区,萩乃町１丁目１番地１０号,,28,106,6530873,,,,,,,2025-05-15,1,,,,,コウベギュウニクケンキュウショ,0
1531,6170001018630,新規,0,2025-05-15,2025-05-15,Ｒｅｄ　Ｇａｔｅ　Ｃｏｎｓｕｌｔｉｎｇ株式会社,,株式会社,和歌山県,和歌山市,北休賀町１－１００２,,30,201,6408103,,,,,,,2025-05-15,1,,,,,レッドゲートコンサルティング,0
1543,6180001166560,新規,0,2025-05-15,2025-05-15,株式会社ｅａｔｏｕｔ,,株式会社,愛知県,名古屋市中村区,名駅３丁目４－１０アルティメイト名駅１ｓｔ２階,,23,105,4500002,,,,,,,2025-05-15,1,,,,,イートアウト,0
1544,6180001166833,新規,0,2025-05-15,2025-05-15,株式会社ラナシンハレー,,株式会社,愛知県,弥富市,鯏浦町下六１０７番地１ＳｔｅｌｌａＤ棟,,23,235,4980022,,,,,,,2025-05-15,1,,,,,ラナシンハレー,0
1554,6180003028453,新規,0,2025-05-15,2025-05-15,ＳＡＫＵＲＡ　ＪＡＰＡＮ　ＴＲＡＤＩＮＧ合同会社,,合同会社,愛知県,知多郡東浦町,大字藤江字大坪４０番地の１アネックス新美２０３号,,23,442,4702105,,,,,,,2025-05-15,1,,,,,サクラジャパントレーディング,0
1555,6180305009688,新規,0,2025-05-15,2025-05-15,一般社団法人愛知ユニバーサルツーリズムステーション,,その他の設立登記法人,愛知県,安城市,三河安城南町１丁目１５－８サンテラス三河安城６階,,23,212,4460058,,,,,,,2025-05-15,1,,,,,アイチユニバーサルツーリズムステーション,0
1561,6210001020152,新規,0,2025-05-15,2025-05-15,株式会社杉ノ木台ゴルフクラブ,,株式会社,福井県,福井市,三十八社町３２字２０番１,,18,201,9188176,,,,,,,2025-05-15,1,,,,,スギノキダイゴルフクラブ,0
1562,6220001026685,新規,0,2025-05-15,2025-05-15,株式会社松庵,,株式会社,石川県,金沢市,法光寺町４６番地６－１０８号,,17,201,9203132,,,,,,,2025-05-15,1,,,,,ショウアン,0
1564,6240001064948,新規,0,2025-05-15,2025-05-15,株式会社ＢＲ,,株式会社,広島県,尾道市,東御所町４番１１号,,34,205,7220036,,,,,,,2025-05-15,1,,,,,ビーアール,0
1578,6290001110012,新規,0,2025-05-15,2025-05-15,株式会社Ｚアーキテクト,,株式会社,福岡県,久留米市,大善寺町宮本４８６番地６,,40,203,8300073,,,,,,,2025-05-15,1,,,,,ゼットアーキテクト,0
1579,6290001110020,新規,0,2025-05-15,2025-05-15,チカラもち株式会社,,株式会社,福岡県,福岡市城南区,長尾１丁目４－１８,,40,136,8140123,,,,,,,2025-05-15,1,,,,,チカラモチ,0
1583,6290003016843,新規,0,2025-05-15,2025-05-15,合同会社Ｓ‐Ａ‐Ｓ,,合同会社,福岡県,福岡市西区,下山門４丁目１０番１３－３号,,40,135,8190052,,,,,,,2025-05-15,1,,,,,エスエーエス,0
1584,6290005019745,新規,0,2025-05-15,2025-05-15,一般社団法人ｒｙｕｍｅ,,その他の設立登記法人,福岡県,久留米市,津福本町２１９４－１,,40,203,8300047,,,,,,,2025-05-15,1,,,,,リュウム,0
1587,6290801031548,新規,0,2025-05-15,2025-05-15,株式会社樹空調,,株式会社,福岡県,北九州市小倉南区,星和台１丁目１７番１５号,,40,107,8020973,,,,,,,2025-05-15,1,,,,,イツキクウチョウ,0
1600,6360003014922,新規,0,2025-05-15,2025-05-15,合同会社Ｒ・ＶｉｓｉｏｎＰａｒｔｎｅｒｓ,,合同会社,沖縄県,浦添市,勢理客４丁目１３番１号５０７号,,47,208,9012122,,,,,,,2025-05-15,1,,,,,リビジョンパートナーズ,0
1607,6380003006042,新規,0,2025-05-15,2025-05-15,合同会社Ｍｉｍｏｓａ,,合同会社,福島県,郡山市,静町３７番１号,,07,203,9630203,,,,,,,2025-05-15,1,,,,,ミモザ,0
1616,6430003017562,新規,0,2025-05-15,2025-05-15,合同会社ぴーす,,合同会社,北海道,札幌市白石区,本郷通７丁目南３－５パストラーネ本郷１Ｆ,,01,104,0030024,,,,,,,2025-05-15,1,,,,,ピース,0
1617,6430003017661,新規,0,2025-05-15,2025-05-15,合同会社ワイズセレクト,,合同会社,北海道,恵庭市,相生町２丁目８番８号,,01,231,0611448,,,,,,,2025-05-15,1,,,,,ワイズセレクト,0
1621,6450001014626,新規,0,2025-05-15,2025-05-15,大正林業株式会社,,株式会社,北海道,上川郡和寒町,字東町２２番地,,01,464,0980134,,,,,,,2025-05-15,1,,,,,タイセイリンギョウ,0
1628,6500005008791,新規,0,2025-05-15,2025-05-15,一般社団法人相続・事業承継支援機構,,その他の設立登記法人,愛媛県,四国中央市,妻鳥町２７１４番地１,,38,213,7990113,,,,,,,2025-05-15,1,,,,,ソウゾクジギョウショウケイシエンキコウ,0
1637,7010003047361,新規,0,2025-05-15,2025-05-15,ニッポン・ウエルス・インベストメント合同会社,,合同会社,東京都,中央区,銀座１丁目２０番１４号,,13,102,1040061,,,,,,,2025-05-15,1,,,,,ニッポンウエルスインベストメント,0
1639,7010005040042,新規,0,2025-05-15,2025-05-15,社会保険労務士法人関東総合労務事務所,,その他の設立登記法人,東京都,千代田区,丸の内１丁目３番４号丸の内テラス４Ｆ,,13,101,1000005,,,,,,,2025-05-15,1,,,,,カントウソウゴウロウムジムショ,0
1644,7010401190275,新規,0,2025-05-15,2025-05-15,株式会社Ａｓｃｅｎｄｉａ,,株式会社,東京都,港区,西新橋１丁目１８－１０佐々木ビル３階,,13,103,1050003,,,,,,,2025-05-15,1,,,,,アセンディア,0
1645,7010403035081,新規,0,2025-05-15,2025-05-15,ＡＤＨＡＭ合同会社,,合同会社,東京都,港区,麻布台３丁目３番２号ＡＺＡＢＵＴＷＩＮＨＯＵＳＥＳＡ,,13,103,1060041,,,,,,,2025-05-15,1,,,,,アダム,0
1648,7010501054041,新規,0,2025-05-15,2025-05-15,日本ホウエイ株式会社,,株式会社,東京都,台東区,根岸４丁目１８番１２－５０３号,,13,106,1100003,,,,,,,2025-05-15,1,,,,,ニホンホウエイ,0
1649,7010501054058,新規,0,2025-05-15,2025-05-15,安澤株式会社,,株式会社,東京都,台東区,日本堤１丁目１番１１号ヴィータローザＣＱレジデンス南千住４０５,,13,106,1110021,,,,,,,2025-05-15,1,,,,,ヤスザワ,0
1658,7010903009898,新規,0,2025-05-15,2025-05-15,合同会社ＮＧ,,合同会社,東京都,世田谷区,砧７丁目１１番７号高木ハイツＡ１０１,,13,112,1570073,,,,,,,2025-05-15,1,,,,,エヌジー,0
1662,7011001169817,新規,0,2025-05-15,2025-05-15,株式会社坂手開発Ｃ,,株式会社,東京都,渋谷区,神泉町８番１３号,,13,113,1500045,,,,,,,2025-05-15,1,,,,,サカテカイハツシー,0
1669,7011101111620,新規,0,2025-05-15,2025-05-15,株式会社ＣＥＬＬ,,株式会社,東京都,新宿区,荒木町１番地４４マガザン荒木町７Ｆ,,13,104,1600007,,,,,,,2025-05-15,1,,,,,セル,0
1670,7011101111678,新規,0,2025-05-15,2025-05-15,株式会社ＢＢＳ,,株式会社,東京都,新宿区,北町４１番地理想社第一資料印刷ビル,,13,104,1620834,,,,,,,2025-05-15,1,,,,,ビービーエス,0
1675,7011503006534,新規,0,2025-05-15,2025-05-15,合同会社ＳＴＡＹ　ｗｉｔｈ,,合同会社,東京都,荒川区,南千住３丁目４１－６レジディア南千住６０１,,13,118,1160003,,,,,,,2025-05-15,1,,,,,ステイウィズ,0
1686,7012401043099,新規,0,2025-05-15,2025-05-15,株式会社ＲＥＭ　Ｌａｕｒａ,,株式会社,東京都,武蔵野市,吉祥寺北町１丁目６番１８号,,13,203,1800001,,,,,,,2025-05-15,1,,,,,レムラウラ,0
1692,7013301054252,新規,0,2025-05-15,2025-05-15,株式会社創智百聯,,株式会社,東京都,豊島区,巣鴨３丁目２５－２Ａ．Ｙビル４Ｆ,,13,116,1700002,,,,,,,2025-05-15,1,,,,,ソウチヒャクレン,0
1697,7020001162830,新規,0,2025-05-15,2025-05-15,ＴＳホールディングス株式会社,,株式会社,神奈川県,横浜市旭区,南本宿町１６１番地１９,,14,112,2410833,,,,,,,2025-05-15,1,,,,,ティーエスホールディングス,0
1698,7020001162871,新規,0,2025-05-15,2025-05-15,株式会社次元事務所,,株式会社,神奈川県,横浜市中区,日ノ出町１丁目４番地１シティハウス横濱野毛山公園１１０４号室,,14,104,2310066,,,,,,,2025-05-15,1,,,,,ジゲンジムショ,0
1706,7021001085121,新規,0,2025-05-15,2025-05-15,株式会社ＩＹＩ,,株式会社,神奈川県,横須賀市,西逸見町１丁目５３番地,,14,201,2380046,,,,,,,2025-05-15,1,,,,,アイワイアイ,0
1710,7021003015976,新規,0,2025-05-15,2025-05-15,合同会社ノバス,,合同会社,神奈川県,藤沢市,鵠沼桜が岡２丁目４番６号,00139166,14,205,2510027,,,,,,,2025-05-15,1,,,,,ノバス,0
1711,7021003016000,新規,0,2025-05-15,2025-05-15,合同会社湘南鎌倉会計,,合同会社,神奈川県,鎌倉市,腰越２丁目３４番２３号,,14,204,2480033,,,,,,,2025-05-15,1,,,,,ショウナンカマクラカイケイ,0
1719,7030001166426,新規,0,2025-05-15,2025-05-15,株式会社ＲＡＨＩＭ　ＴＲＡＤＩＮＧ,,株式会社,埼玉県,羽生市,南羽生１丁目１４番地２６,,11,216,3480071,,,,,,,2025-05-15,1,,,,,ラヒムトレーディング,0
1720,7030001166517,新規,0,2025-05-15,2025-05-15,株式会社Ｐｈｏｅｎｉｘ　ＵＳ,,株式会社,埼玉県,さいたま市中央区,新中里１丁目１０番１－２０８号,,11,105,3380011,,,,,,,2025-05-15,1,,,,,フェニックスユーエス,0
1721,7030001166525,新規,0,2025-05-15,2025-05-15,株式会社ＥＭＩＡＬ,,株式会社,埼玉県,ふじみ野市,大井１丁目４番２７号,,11,245,3560053,,,,,,,2025-05-15,1,,,,,エミアル,0
1725,7040001138746,新規,0,2025-05-15,2025-05-15,株式会社ＳＧインフォメーション,,株式会社,千葉県,市川市,曽谷２丁目１０番２８号,,12,203,2720832,,,,,,,2025-05-15,1,,,,,エスジーインフォメーション,0
1726,7040001138762,新規,0,2025-05-15,2025-05-15,株式会社隣り組,,株式会社,千葉県,松戸市,金ケ作３６５番地の８１,,12,207,2702251,,,,,,,2025-05-15,1,,,,,トナリグミ,0
1727,7040001138795,新規,0,2025-05-15,2025-05-15,株式会社アドヴァンス,,株式会社,千葉県,大網白里市,仏島１０５番地５,,12,239,2993237,,,,,,,2025-05-15,1,,,,,アドヴァンス,0
1729,7040003027583,新規,0,2025-05-15,2025-05-15,合同会社ｂ,,合同会社,千葉県,市川市,市川２丁目１１－１９フローラ桔梗１０１,,12,203,2720034,,,,,,,2025-05-15,1,,,,,ビー,0
1738,7050001056625,新規,0,2025-05-15,2025-05-15,株式会社エジソンエンジニアリング,,株式会社,茨城県,つくば市,竹園１丁目５番地３エスペリアつくば竹園１４１１号,,08,220,3050032,,,,,,,2025-05-15,1,,,,,エジソンエンジニアリング,0
1739,7050001056674,新規,0,2025-05-15,2025-05-15,株式会社石川商店,,株式会社,茨城県,稲敷市,下太田８２番地１,,08,229,3001424,,,,,,,2025-05-15,1,,,,,イシカワショウテン,0
1740,7050001056690,新規,0,2025-05-15,2025-05-15,株式会社ＡｓｕＢｅ,,株式会社,茨城県,つくばみらい市,紫峰ヶ丘５丁目７－３,,08,235,3002359,,,,,,,2025-05-15,1,,,,,アスビー,0
1744,7050005013630,新規,0,2025-05-15,2025-05-15,医療法人社団Ｓ‐ｍｉｌｅ,,その他の設立登記法人,茨城県,猿島郡境町,大字上小橋５３６番地１,,08,546,3060434,,,,,,,2025-05-15,1,,,,,エスマイル,0
1745,7060001038192,新規,0,2025-05-15,2025-05-15,株式会社ＴＫＧ,,株式会社,栃木県,栃木市,大平町北武井８０９番地,,09,203,3294412,,,,,,,2025-05-15,1,,,,,ティーケージー,0
1749,7070001042879,新規,0,2025-05-15,2025-05-15,株式会社三和精機製作所,,株式会社,群馬県,太田市,下小林町３２番地２８,,10,205,3730807,,,,,,,2025-05-15,1,,,,,サンワセイキセイサクショ,0
1750,7070001042937,新規,0,2025-05-15,2025-05-15,株式会社アートワークス,,株式会社,群馬県,沼田市,薄根町４０５３－６トランビュー沼田Ｂ１０３,,10,206,3780031,,,,,,,2025-05-15,1,,,,,アートワークス,0
1755,7080101025485,新規,0,2025-05-15,2025-05-15,株式会社ロジイル,,株式会社,静岡県,三島市,幸原町２丁目１４－１２,,22,206,4110031,,,,,,,2025-05-15,1,,,,,ロジイル,0
1765,7110001039251,新規,0,2025-05-15,2025-05-15,株式会社スマートライフ新潟,,株式会社,新潟県,新潟市中央区,女池８丁目１４番１７号ＮＳプラザ１０４,,15,103,9500941,,,,,,,2025-05-15,1,,,,,スマートライフニイガタ,0
1776,7120001275705,新規,0,2025-05-15,2025-05-15,株式会社格桐,,株式会社,大阪府,大阪市平野区,長吉出戸７丁目７番６号,,27,126,5470011,,,,,,,2025-05-15,1,,,,,カクトウ,0
1777,7120001275713,新規,0,2025-05-15,2025-05-15,株式会社シーフーズ,,株式会社,大阪府,大阪市北区,西天満５丁目１０番１２号ＫＷＩビル３０２,,27,127,5300047,,,,,,,2025-05-15,1,,,,,シーフーズ,0
1778,7120001275762,新規,0,2025-05-15,2025-05-15,時幸株式会社,,株式会社,大阪府,大阪市北区,本庄東３丁目３番７号マンション淀３０３Ｄ,,27,127,5310074,,,,,,,2025-05-15,1,,,,,ジコウ,0
1780,7120003029407,新規,0,2025-05-15,2025-05-15,安喜合同会社,,合同会社,大阪府,大阪市西成区,萩之茶屋２丁目６番４－３Ｆ１０５号室,,27,122,5570004,,,,,,,2025-05-15,1,,,,,アンキ,0
1783,7120101071665,新規,0,2025-05-15,2025-05-15,株式会社サニー電機,,株式会社,大阪府,堺市美原区,太井３６０番１８,,27,147,5870062,,,,,,,2025-05-15,1,,,,,サニーデンキ,0
1784,7120103006454,新規,0,2025-05-15,2025-05-15,合同会社アイエルエル,,合同会社,大阪府,泉佐野市,市場西３丁目４番１－１１０５号,,27,213,5980006,,,,,,,2025-05-15,1,,,,,アイエルエル,0
1786,7120901050851,新規,0,2025-05-15,2025-05-15,株式会社Ｋ　ＧＡＲＡＧＥ,,株式会社,大阪府,吹田市,春日３丁目１２番８－３０２号,,27,205,5650853,,,,,,,2025-05-15,1,,,,,ケイガレージ,0
1787,7120901050868,新規,0,2025-05-15,2025-05-15,嘉誠不動産株式会社,,株式会社,大阪府,箕面市,小野原東６丁目３７番２号,,27,220,5620031,,,,,,,2025-05-15,1,,,,,カセイフドウサン,0
1789,7120903005655,新規,0,2025-05-15,2025-05-15,合同会社パーフェクティクション,,合同会社,大阪府,池田市,菅原町２番１号ウィステリア池田菅原町５０１,,27,204,5630055,,,,,,,2025-05-15,1,,,,,パーフェクティクション,0
1797,7122001039214,新規,0,2025-05-15,2025-05-15,株式会社シンヨウ・アドバンス,,株式会社,大阪府,四條畷市,岡山東３丁目５番６３－２０３号,,27,229,5750003,,,,,,,2025-05-15,1,,,,,シンヨウアドバンス,0
1808,7140001138570,新規,0,2025-05-15,2025-05-15,ライトフィールド株式会社,,株式会社,兵庫県,神戸市須磨区,白川台３丁目６０番７号２０２Ｂ号室,,28,107,6540103,,,,,,,2025-05-15,1,,,,,ライトフィールド,0
1809,7140003022062,新規,0,2025-05-15,2025-05-15,アマノソリューション合同会社,,合同会社,兵庫県,明石市,二見町西二見１５７番地９,,28,203,6740094,,,,,,,2025-05-15,1,,,,,アマノソリューション,0
1812,7150001028127,新規,0,2025-05-15,2025-05-15,株式会社松本商会,,株式会社,奈良県,宇陀市,榛原大貝４７２番地,,29,212,6330225,,,,,,,2025-05-15,1,,,,,マツモトショウカイ,0
1825,7180001166832,新規,0,2025-05-15,2025-05-15,株式会社Ｙｏｕｔｈ　Ｔｉｅｒ,,株式会社,愛知県,名古屋市北区,東長田町２丁目２４ノールピア２Ａ,,23,103,4620827,,,,,,,2025-05-15,1,,,,,ユースティア,0
1834,7180301039812,新規,0,2025-05-15,2025-05-15,株式会社Ｌｉｂｅｒｔｙ．ｆ,,株式会社,愛知県,豊橋市,西岩田２丁目２番地１５・１Ｆ,,23,201,4400831,,,,,,,2025-05-15,1,,,,,リバティエフ,0
1838,7180303006554,新規,0,2025-05-15,2025-05-15,合同会社リンクモーメント,,合同会社,愛知県,高浜市,呉竹町３丁目２－４６,,23,227,4441336,,,,,,,2025-05-15,1,,,,,リンクモーメント,0
1844,7200003006785,新規,0,2025-05-15,2025-05-15,合同会社ＭＭ　ＦＵＲＵＳＡＴＯ,,合同会社,岐阜県,岐阜市,加納上本町４丁目２６番地大忠ビル２Ｆ－Ｄ,,21,201,5008451,,,,,,,2025-05-15,1,,,,,エムエムフルサト,0
1853,7250001021146,新規,0,2025-05-15,2025-05-15,株式会社ぴあサイト,,株式会社,山口県,岩国市,元町１丁目６－１－４０１,,35,208,7400012,,,,,,,2025-05-15,1,,,,,ピアサイト,0
1857,7260001040145,新規,0,2025-05-15,2025-05-15,リードサポート株式会社,,株式会社,岡山県,岡山市中区,賞田２７３－５,,33,102,7038206,,,,,,,2025-05-15,1,,,,,リードサポート,0
1864,7290001109961,新規,0,2025-05-15,2025-05-15,株式会社ｂｒｉｌｌｉａｎｔ　ｍｏｒｅ,,株式会社,福岡県,福岡市博多区,中洲４丁目１番１３号第一きよたけビル４－Ａ号室,,40,132,8100801,,,,,,,2025-05-15,1,,,,,ブリリアントモア,0
1868,7290003016834,新規,0,2025-05-15,2025-05-15,合同会社悠々舎,,合同会社,福岡県,福岡市南区,大楠２丁目１４番１５－３０３号,,40,134,8150082,,,,,,,2025-05-15,1,,,,,ユウユウシャ,0
1870,7290803005053,新規,0,2025-05-15,2025-05-15,合同会社ＷｉｓｅＬｏｏｍ,,合同会社,福岡県,北九州市小倉南区,東貫２丁目１０番２６号,,40,107,8000224,,,,,,,2025-05-15,1,,,,,ワイズルーム,0
1875,7320002022887,新規,0,2025-05-15,2025-05-15,有限会社ホルン石田,,有限会社,大分県,大分市,大字勢家１４０２番地の５,,44,201,8700100,,,,,,,2025-05-15,1,,,,,ホルンイシダ,0
1895,7430001094388,新規,0,2025-05-15,2025-05-15,Ｌｉｆｅ＆Ｓｔｙｌｅ株式会社,,株式会社,北海道,札幌市手稲区,星置三条６丁目２６番３号,,01,109,0060853,,,,,,,2025-05-15,1,,,,,ライフアンドスタイル,0
1896,7430001094421,新規,0,2025-05-15,2025-05-15,株式会社アール,,株式会社,北海道,札幌市東区,東苗穂十一条１丁目２番２１号,,01,103,0070811,,,,,,,2025-05-15,1,,,,,アール,0
1899,7430003017603,新規,0,2025-05-15,2025-05-15,合同会社Ｎ‐ＯＮＥ,,合同会社,北海道,虻田郡ニセコ町,字近藤７４１－１４,,01,395,0481542,,,,,,,2025-05-15,1,,,,,エヌワン,0
1902,7450001014625,新規,0,2025-05-15,2025-05-15,株式会社Ａｍａｍｉ,,株式会社,北海道,旭川市,末広東一条４丁目７番１５号,,01,204,0718121,,,,,,,2025-05-15,1,,,,,アマミ,0
1912,8010001254693,新規,0,2025-05-15,2025-05-15,ＭＩＲＥＡＬ株式会社,,株式会社,東京都,中央区,日本橋２丁目２番３号ＲＩＳＨＥビルＵＣＦ４０２,,13,102,1030027,,,,,,,2025-05-15,1,,,,,ミリアル,0
1913,8010001254768,新規,0,2025-05-15,2025-05-15,株式会社みろくふぁーむ,,株式会社,東京都,八丈島八丈町,三根２９５番地,,13,401,1001511,,,,,,,2025-05-15,1,,,,,ミロクファーム,0
1914,8010001254776,新規,0,2025-05-15,2025-05-15,株式会社小野ヨーグルト,,株式会社,東京都,千代田区,四番町４番地９（新東京国際リーガル内）,,13,101,1020081,,,,,,,2025-05-15,1,,,,,オノヨーグルト,0
1915,8010001254859,新規,0,2025-05-15,2025-05-15,株式会社ＪＳＣフレグランス,,株式会社,東京都,千代田区,四番町９番地６四番町プラザ６０４号,,13,101,1020081,,,,,,,2025-05-15,1,,,,,ジェイエスシーフレグランス,0
1916,8010003047336,新規,0,2025-05-15,2025-05-15,合同会社ＫＦＤ１号,,合同会社,東京都,中央区,京橋２丁目１２番６号ＡＯＪ税理士法人内,,13,102,1040031,,,,,,,2025-05-15,1,,,,,ケーエフディーイチゴウ,0
1921,8010401190134,新規,0,2025-05-15,2025-05-15,Ｔ＆Ａ　Ｇｌｏｂａｌ株式会社,,株式会社,東京都,港区,愛宕２丁目５番１号愛宕グリーンヒルズＭＯＲＩタワー３４階,,13,103,1050002,,,,,,,2025-05-15,1,,,,,ティーアンドエーグローバル,0
1922,8010401190258,新規,0,2025-05-15,2025-05-15,匠永・アンド・カンパニー株式会社,,株式会社,東京都,港区,南青山３丁目１番３６号青山丸竹ビル６Ｆ,,13,103,1070062,,,,,,,2025-05-15,1,,,,,ショウエイアンドカンパニー,0
1923,8010401190308,新規,0,2025-05-15,2025-05-15,株式会社ＣＲＯＷＮ,,株式会社,東京都,港区,北青山１丁目３番１号アールキューブ青山３階,,13,103,1070061,,,,,,,2025-05-15,1,,,,,クラウン,0
1938,8010803005385,新規,0,2025-05-15,2025-05-15,合同会社ネコノテ,,合同会社,東京都,大田区,大森南２丁目５番１２号クレイノフローラ大森南１０４,,13,111,1430013,,,,,,,2025-05-15,1,,,,,ネコノテ,0
1943,8011001169584,新規,0,2025-05-15,2025-05-15,株式会社ＭＡＣＡＴＯ,,株式会社,東京都,渋谷区,代々木２丁目２３番１－４２０号ニューステイトメナー,,13,113,1510053,,,,,,,2025-05-15,1,,,,,マカト,0
1944,8011001169816,新規,0,2025-05-15,2025-05-15,株式会社坂手開発Ｂ,,株式会社,東京都,渋谷区,神泉町８番１３号,,13,113,1500045,,,,,,,2025-05-15,1,,,,,サカテカイハツビー,0
1948,8011101111677,新規,0,2025-05-15,2025-05-15,株式会社ハウス・ウィン,,株式会社,東京都,新宿区,大久保２丁目５番２２号,,13,104,1690072,,,,,,,2025-05-15,1,,,,,ハウスウィン,0
1951,8011303005537,新規,0,2025-05-15,2025-05-15,ＧＯＲＫＨＡ合同会社,,合同会社,東京都,杉並区,阿佐谷南２丁目２２番９号コーポ阿佐谷１０２,,13,115,1660004,,,,,,,2025-05-15,1,,,,,,0
1953,8011501031979,新規,0,2025-05-15,2025-05-15,中北学園株式会社,,株式会社,東京都,荒川区,東日暮里６丁目３５－８日神パレス東日暮里５０２,,13,118,1160014,,,,,,,2025-05-15,1,,,,,ナカキタガクエン,0
1954,8011501032060,新規,0,2025-05-15,2025-05-15,株式会社サナ・フィリア,,株式会社,東京都,北区,浮間５丁目１２番１－１１０８号,,13,117,1150051,,,,,,,2025-05-15,1,,,,,サナフィリア,0
1959,8011601028660,新規,0,2025-05-15,2025-05-15,株式会社シフクｎｏｔｅ,,株式会社,東京都,練馬区,上石神井２丁目１番１６号上石神井メディカルビレッジＡ棟１階,,13,120,1770044,,,,,,,2025-05-15,1,,,,,シフクノート,0
1978,8020001162623,新規,0,2025-05-15,2025-05-15,株式会社Ｒｅ‐Ｖｉｓｉｏｎ,,株式会社,神奈川県,川崎市中原区,下小田中３丁目１９番１４号ＣＣＫ２３０ＡＤ,,14,133,2110041,,,,,,,2025-05-15,1,,,,,リビジョン,0
1979,8020001162813,新規,0,2025-05-15,2025-05-15,瑞新株式会社,,株式会社,神奈川県,横浜市中区,山下町２２１－１山下町ハイツ５０５号室,,14,104,2310023,,,,,,,2025-05-15,1,,,,,ズイシン,0
1980,8020001162846,新規,0,2025-05-15,2025-05-15,オルブライン株式会社,,株式会社,神奈川県,横浜市神奈川区,金港町５－１４クアドリフォリオ８階,,14,102,2210056,,,,,,,2025-05-15,1,,,,,オルブライン,0
1981,8020001162870,新規,0,2025-05-15,2025-05-15,祥和株式会社,,株式会社,神奈川県,横浜市鶴見区,鶴見中央３丁目２番１３－７０２号,,14,101,2300051,,,,,,,2025-05-15,1,,,,,ショウワ,0
1984,8020003028401,新規,0,2025-05-15,2025-05-15,合同会社ヤンバルクイナ,,合同会社,神奈川県,横浜市中区,本郷町２丁目５６－６,,14,104,2310843,,,,,,,2025-05-15,1,,,,,ヤンバルクイナ,0
1985,8020003028475,新規,0,2025-05-15,2025-05-15,みやび合同会社,,合同会社,神奈川県,横浜市中区,伊勢佐木町３丁目１０５番地ＷＯＲＶＥ横浜伊勢佐木町７０１,,14,104,2310045,,,,,,,2025-05-15,1,,,,,ミヤビ,0
1986,8020003028491,新規,0,2025-05-15,2025-05-15,合同会社ｓｔｕｄｉｏＴＡＵ,,合同会社,神奈川県,横浜市港北区,日吉本町４丁目４－１,,14,109,2230062,,,,,,,2025-05-15,1,,,,,スタジオタウ,0
1987,8020003028500,新規,0,2025-05-15,2025-05-15,合同会社ワキゾリンク,,合同会社,神奈川県,横浜市西区,浅間町１丁目４番３号ウィザードビル４０２,,14,103,2200072,,,,,,,2025-05-15,1,,,,,ワキゾリンク,0
1995,8021003015959,新規,0,2025-05-15,2025-05-15,ＫＵＲＥＬ合同会社,,合同会社,神奈川県,横須賀市,東浦賀１丁目１７番２号,,14,201,2390821,,,,,,,2025-05-15,1,,,,,クレル,0
2001,8030001166516,新規,0,2025-05-15,2025-05-15,グロー・アップ株式会社,,株式会社,埼玉県,越谷市,大字弥十郎２２２番地３２,,11,222,3430047,,,,,,,2025-05-15,1,,,,,グローアップ,0
2002,8030001166565,新規,0,2025-05-15,2025-05-15,トーヨープロダクツ株式会社,,株式会社,埼玉県,越谷市,赤山町３丁目１５３番地４,,11,222,3430807,,,,,,,2025-05-15,1,,,,,トーヨープロダクツ,0
2007,8030003026783,新規,0,2025-05-15,2025-05-15,合同会社ＧＯＭＯＮファーム,,合同会社,埼玉県,三郷市,さつき平２丁目２番２－１０１８号,,11,237,3410021,,,,,,,2025-05-15,1,,,,,ゴモンファーム,0
2009,8040001138497,新規,0,2025-05-15,2025-05-15,株式会社大島電気,,株式会社,千葉県,千葉市花見川区,三角町２５番地７,,12,102,2620011,,,,,,,2025-05-15,1,,,,,オオシマデンキ,0
2010,8040001138761,新規,0,2025-05-15,2025-05-15,ＮｅｏＳｐｒｉｎｇ株式会社,,株式会社,千葉県,流山市,木１丁目２２番１１号,,12,220,2700162,,,,,,,2025-05-15,1,,,,,ネオスプリング,0
2011,8040001138794,新規,0,2025-05-15,2025-05-15,株式会社ＪＩＲＯ,,株式会社,千葉県,松戸市,稔台２丁目４８番地１８,,12,207,2702231,,,,,,,2025-05-15,1,,,,,ジロウ,0
2017,8040003027590,新規,0,2025-05-15,2025-05-15,合同会社ＤＥＺＯＮ　ＥＸＰＯＲＴ,,合同会社,千葉県,香取市,津宮９２０－１,,12,236,2870011,,,,,,,2025-05-15,1,,,,,デゾンエクスポート,0
2020,8050001056673,新規,0,2025-05-15,2025-05-15,結城商産株式会社,,株式会社,茨城県,結城市,大字田間１０１１番地３０,,08,207,3070044,,,,,,,2025-05-15,1,,,,,ユウキショウサン,0
2021,8050001056681,新規,0,2025-05-15,2025-05-15,株式会社スマイスト・ライフデザイン,,株式会社,茨城県,猿島郡境町,９６５番地２２,,08,546,3060433,,,,,,,2025-05-15,1,,,,,スマイストライフデザイン,0
2028,8060003005553,新規,0,2025-05-15,2025-05-15,ＩＬＡＳ　ＴＲＡＤＩＮＧ合同会社,,合同会社,栃木県,小山市,大字横倉６７１番地８,,09,208,3230813,,,,,,,2025-05-15,1,,,,,イリアストレーディング,0
2032,8070003005924,新規,0,2025-05-15,2025-05-15,合同会社ＴＳＵＮＡＧＵ　ｃｏｍｐａｎｙ,,合同会社,群馬県,高崎市,並榎町５３１－１ホーユウパレス高崎並榎６０６号,,10,202,3700802,,,,,,,2025-05-15,1,,,,,,0
2036,8080101025501,新規,0,2025-05-15,2025-05-15,株式会社ＳＵＲＹＡ　ＩＮＴＥＲＮＡＴＩＯＮＡＬ,,株式会社,静岡県,沼津市,花園町１番４号フローデンス・エトー６０３,,22,203,4100065,,,,,,,2025-05-15,1,,,,,スーリヤインターナショナル,0
2060,8120001275563,新規,0,2025-05-15,2025-05-15,ベストパートナー株式会社,,株式会社,大阪府,大阪市北区,鶴野町４－１１朝日プラザ梅田２Ｆ－９８,,27,127,5300014,,,,,,,2025-05-15,1,,,,,ベストパートナー,0
2061,8120001275679,新規,0,2025-05-15,2025-05-15,住吉株式会社,,株式会社,大阪府,大阪市天王寺区,玉造元町８番４－２１０４号,,27,109,5430014,,,,,,,2025-05-15,1,,,,,スミヨシ,0
2062,8120001275687,新規,0,2025-05-15,2025-05-15,株式会社ＮＥＸＴ　ＷＡＬＬ,,株式会社,大阪府,大阪市中央区,北久宝寺町３丁目６番１号本町南ガーデンシティ７階,,27,128,5410057,,,,,,,2025-05-15,1,,,,,ネクストウォール,0
2063,8120001275695,新規,0,2025-05-15,2025-05-15,Ｊｏｉｎｔ　Ｅｎｔｅｒｐｒｉｓｅ株式会社,,株式会社,大阪府,大阪市城東区,鴫野西５丁目２２番１２号アマントリビエールシギノ２階,,27,118,5360014,,,,,,,2025-05-15,1,,,,,ジョイントエンタープライズ,0
2064,8120001275704,新規,0,2025-05-15,2025-05-15,株式会社ｉｎｇ,,株式会社,大阪府,大阪市中央区,千日前２丁目６番８号ゴールデンフタバプラザ４０７,,27,128,5420074,,,,,,,2025-05-15,1,,,,,アイエヌジー,0
2065,8120001275737,新規,0,2025-05-15,2025-05-15,株式会社Ｅｄｇｅ,,株式会社,大阪府,大阪市中央区,北久宝寺町２丁目５番１－３０３号,,27,128,5410057,,,,,,,2025-05-15,1,,,,,エッジ,0
2066,8120001275811,新規,0,2025-05-15,2025-05-15,土佐龍工業株式会社,,株式会社,大阪府,大阪市港区,市岡３丁目３番１７号,,27,107,5520012,,,,,,,2025-05-15,1,,,,,トサリュウコウギョウ,0
2067,8120001275893,新規,0,2025-05-15,2025-05-15,順和株式会社,,株式会社,大阪府,大阪市浪速区,下寺１丁目１番２４号バークフォルム,,27,111,5560001,,,,,,,2025-05-15,1,,,,,ジュンワ,0
2072,8120003029380,新規,0,2025-05-15,2025-05-15,合同会社ストライブ,,合同会社,大阪府,大阪市北区,梅田１丁目２番２号大阪駅前第２ビル１２－１２,,27,127,5300001,,,,,,,2025-05-15,1,,,,,ストライブ,0
2073,8120003029422,新規,0,2025-05-15,2025-05-15,合同会社Ｍ’ｓセカンド,,合同会社,大阪府,寝屋川市,新家１丁目６番１８号,,27,215,5720812,,,,,,,2025-05-15,1,,,,,ミーツセカンド,0
2074,8120103006453,新規,0,2025-05-15,2025-05-15,Ｍｉｓｓ　Ｇｒｏｕｎｄ合同会社,,合同会社,大阪府,富田林市,錦織東１丁目６番５号－２０６号室,,27,214,5840069,,,,,,,2025-05-15,1,,,,,ミスグランド,0
2076,8120901050867,新規,0,2025-05-15,2025-05-15,サンキョウプライム株式会社,,株式会社,大阪府,茨木市,永代町５番６１７号,,27,211,5670816,,,,,,,2025-05-15,1,,,,,サンキョウプライム,0
2077,8120901050875,新規,0,2025-05-15,2025-05-15,株式会社イノベスタ,,株式会社,大阪府,箕面市,粟生新家２丁目５番９号,,27,220,5620024,,,,,,,2025-05-15,1,,,,,イノベスタ,0
2080,8120903005662,新規,0,2025-05-15,2025-05-15,合同会社Ｓｈａｒｋｓ,,合同会社,大阪府,吹田市,山田東１丁目３１番Ａ－１１０号,,27,205,5650821,,,,,,,2025-05-15,1,,,,,シャークス,0
2083,8120905006733,新規,0,2025-05-15,2025-05-15,一般社団法人ＡＮＩＭＡＬ　ＨＯＭＥ’ｓ,,その他の設立登記法人,大阪府,吹田市,岸部中４丁目６－１,,27,205,5640002,,,,,,,2025-05-15,1,,,,,アニマルホームズ,0
2090,8130001079674,新規,0,2025-05-15,2025-05-15,株式会社ＴＯＳＨＩ,,株式会社,京都府,京都市伏見区,深草勧進橋町９９番地２,,26,109,6128405,,,,,,,2025-05-15,1,,,,,トシ,0
2096,8130003010463,新規,0,2025-05-15,2025-05-15,合同会社フリースペース,,合同会社,京都府,舞鶴市,字今田５２６番地１１,,26,202,6240813,,,,,,,2025-05-15,1,,,,,フリースペース,0
2101,8140001138545,新規,0,2025-05-15,2025-05-15,株式会社ＩＳＡＣＫ,,株式会社,兵庫県,加古川市,加古川町大野６４２番地の１,,28,210,6750061,,,,,,,2025-05-15,1,,,,,アイザック,0
2102,8140001138561,新規,0,2025-05-15,2025-05-15,ハートな株式会社,,株式会社,兵庫県,芦屋市,奥池南町７１－８,,28,206,6590004,,,,,,,2025-05-15,1,,,,,ハートナ,0
2108,8140003022053,新規,0,2025-05-15,2025-05-15,ネクストフィールド合同会社,,合同会社,兵庫県,西宮市,屋敷町２１番１１号,,28,204,6620963,,,,,,,2025-05-15,1,,,,,ネクストフィールド,0
2111,8160001026756,新規,0,2025-05-15,2025-05-15,Ｙ．Ｗ．Ｙ株式会社,,株式会社,滋賀県,大津市,朝日１丁目１３番地１８,,25,201,5200533,,,,,,,2025-05-15,1,,,,,ワイダブルワイ,0
2112,8170001018629,新規,0,2025-05-15,2025-05-15,株式会社アイクリーン,,株式会社,和歌山県,新宮市,鴻田１丁目４番１７号,,30,207,6470082,,,,,,,2025-05-15,1,,,,,アイクリーン,0
2120,8180003028451,新規,0,2025-05-15,2025-05-15,合同会社Ｈａｃ,,合同会社,愛知県,清須市,土田１丁目３番地１５,,23,233,4520945,,,,,,,2025-05-15,1,,,,,ハック,0
2121,8180003028476,新規,0,2025-05-15,2025-05-15,ソフィアビューティーラボ合同会社,,合同会社,愛知県,日進市,梅森台２丁目１１６番地,,23,230,4700133,,,,,,,2025-05-15,1,,,,,ソフィアビューティーラボ,0
2125,8180301039803,新規,0,2025-05-15,2025-05-15,株式会社メイトネクスト,,株式会社,愛知県,岡崎市,康生通南３丁目２１番地桜の城橋ビル,,23,202,4440044,,,,,,,2025-05-15,1,,,,,メイトネクスト,0
2132,8190001032215,新規,0,2025-05-15,2025-05-15,株式会社Ｍ’ｓ　Ｐｌａｎ,,株式会社,三重県,鈴鹿市,東玉垣町２４５７番地の２,,24,207,5130814,,,,,,,2025-05-15,1,,,,,,0
2134,8190003005029,新規,0,2025-05-15,2025-05-15,合同会社笑門,,合同会社,三重県,亀山市,川合町９０１番地１３,,24,210,5190103,,,,,,,2025-05-15,1,,,,,ショウモン,0
2153,8290001110035,新規,0,2025-05-15,2025-05-15,株式会社Ｄ．ｆｒｏｎｔ,,株式会社,福岡県,福岡市博多区,祇園町６－２６－８０７,,40,132,8120038,,,,,,,2025-05-15,1,,,,,ディーフロント,0
2154,8290001110043,新規,0,2025-05-15,2025-05-15,株式会社ベストトラベル,,株式会社,福岡県,筑紫野市,湯町３丁目９番１８－３０１号,,40,217,8180058,,,,,,,2025-05-15,1,,,,,ベストトラベル,0
2166,8340001027331,新規,0,2025-05-15,2025-05-15,株式会社フードピークトレード,,株式会社,鹿児島県,鹿児島市,伊敷１丁目２－１２,,46,201,8900008,,,,,,,2025-05-15,1,,,,,フードピークトレード,0
2168,8340003004849,新規,0,2025-05-15,2025-05-15,合同会社エポック,,合同会社,鹿児島県,鹿児島市,甲突町２４番１－８０５号,,46,201,8920837,,,,,,,2025-05-15,1,,,,,エポック,0
2173,8360003014895,新規,0,2025-05-15,2025-05-15,合同会社琉球猪豚牧農,,合同会社,沖縄県,国頭郡国頭村,字安波５９５番地安波区営住宅１０２,,47,301,9051504,,,,,,,2025-05-15,1,,,,,リュウキュウイノブタボクノウ,0
2175,8370001052574,新規,0,2025-05-15,2025-05-15,株式会社幸栄,,株式会社,宮城県,白石市,字幸５番地,,04,206,9890264,,,,,,,2025-05-15,1,,,,,コウエイ,0
2191,9010001254750,新規,0,2025-05-15,2025-05-15,福島靖事務所株式会社,,株式会社,東京都,千代田区,九段南１丁目５番６号りそな九段ビル５階ＫＳフロア,,13,101,1020074,,,,,,,2025-05-15,1,,,,,フクシマヤスシジムショ,0
2192,9010001254775,新規,0,2025-05-15,2025-05-15,ＭＥＳＯ株式会社,,株式会社,東京都,中央区,日本橋浜町３丁目１０－４,,13,102,1030007,,,,,,,2025-05-15,1,,,,,メゾ,0
2193,9010001255014,新規,0,2025-05-15,2025-05-15,株式会社スマートウィング,,株式会社,東京都,中央区,月島４丁目１９－１１－６０２,,13,102,1040052,,,,,,,2025-05-15,1,,,,,スマートウィング,0
2194,9010001255030,新規,0,2025-05-15,2025-05-15,富士星株式会社,,株式会社,東京都,千代田区,神田佐久間三丁目２８星野ビル４Ｆ２９号室,,13,101,1000000,,,,,,,2025-05-15,1,,,,,フジホシ,0
2195,9010001255039,新規,0,2025-05-15,2025-05-15,株式会社ＯＩＫＡＺＥ,,株式会社,東京都,中央区,銀座１丁目２２番１１号銀座大竹ビジデンス２Ｆ,,13,102,1040061,,,,,,,2025-05-15,1,,,,,オイカゼ,0
2196,9010001255071,新規,0,2025-05-15,2025-05-15,株式会社こどもめせん,,株式会社,東京都,文京区,本郷５丁目１番１１号ＫＩＩＨＯＵＳＥ２０２号室,,13,105,1130033,,,,,,,2025-05-15,1,,,,,コドモメセン,0
2197,9010003047260,新規,0,2025-05-15,2025-05-15,オフィス三番町合同会社,,合同会社,東京都,千代田区,三番町９番地４ホーマット三番町２０７号,,13,101,1020075,,,,,,,2025-05-15,1,,,,,オフィスサンバンチョウ,0
2198,9010003047293,新規,0,2025-05-15,2025-05-15,Ｔｉｂｅｒｉｕｓ　Ｊａｐａｎ合同会社,,合同会社,東京都,千代田区,有楽町１丁目２番２号東宝日比谷ビル９Ｆ,,13,101,1000006,,,,,,,2025-05-15,1,,,,,タイベリアスジャパン,0
2199,9010005040032,新規,0,2025-05-15,2025-05-15,一般社団法人Ｈａｐｐｙ　Ｆａｍｉｌｙ　Ｔｏｋｙｏ,,その他の設立登記法人,東京都,千代田区,神田駿河台２丁目１お茶の水クリスチャン・センター６１５室,,13,101,1010062,,,,,,,2025-05-15,1,,,,,ハッピーファミリートーキョー,0
2204,9010401190018,新規,0,2025-05-15,2025-05-15,株式会社グローディアステクノロジーズ,,株式会社,東京都,港区,北青山１丁目３番１号アールキューブ青山３階,,13,103,1070061,,,,,,,2025-05-15,1,,,,,グローディアステクノロジーズ,0
2208,9010403035121,新規,0,2025-05-15,2025-05-15,合同会社かぐら,,合同会社,東京都,港区,虎ノ門２丁目６番１号虎ノ門ヒルズステーションタワー,,13,103,1050001,,,,,,,2025-05-15,1,,,,,カグラ,0
2210,9010501054072,新規,0,2025-05-15,2025-05-15,クロッソーラ株式会社,,株式会社,東京都,台東区,蔵前４丁目１６－６ストーク蔵前Ｍ＆Ｋ４階４０９,,13,106,1110051,,,,,,,2025-05-15,1,,,,,クロッソーラ,0
2211,9010501054080,新規,0,2025-05-15,2025-05-15,江大商事株式会社,,株式会社,東京都,台東区,寿３丁目１６番１５－２０１号,,13,106,1110042,,,,,,,2025-05-15,1,,,,,コウダイショウジ,0
2215,9010701047719,新規,0,2025-05-15,2025-05-15,ＲＳＴ　Ａｇｅｎｃｙ株式会社,,株式会社,東京都,品川区,二葉１丁目４－２,,13,109,1420043,,,,,,,2025-05-15,1,,,,,アールエスティエージェンシー,0
2216,9010801036150,新規,0,2025-05-15,2025-05-15,株式会社横田タイヤサービス,,株式会社,東京都,大田区,西六郷１丁目３０番２号,,13,111,1440056,,,,,,,2025-05-15,1,,,,,ヨコタタイヤサービス,0
2218,9010805003171,新規,0,2025-05-15,2025-05-15,一般社団法人日中映画アニメゲーム協会,,その他の設立登記法人,東京都,大田区,羽田１丁目１５－７,,13,111,1440043,,,,,,,2025-05-15,1,,,,,ニッチュウエイガアニメゲームキョウカイ,0
2222,9011001169427,新規,0,2025-05-15,2025-05-15,ｍｉｌｅ株式会社,,株式会社,東京都,渋谷区,広尾５丁目１７番４号,,13,113,1500012,,,,,,,2025-05-15,1,,,,,マイル,0
2223,9011001169815,新規,0,2025-05-15,2025-05-15,株式会社坂手開発Ａ,,株式会社,東京都,渋谷区,神泉町８番１３号,,13,113,1500045,,,,,,,2025-05-15,1,,,,,サカテカイハツエー,0
2224,9011001169864,新規,0,2025-05-15,2025-05-15,株式会社Ｒ・Ｗｉｎ,,株式会社,東京都,渋谷区,道玄坂２丁目１６番３号キャッツビル７階,,13,113,1500043,,,,,,,2025-05-15,1,,,,,アールウィン,0
2225,9011003021569,新規,0,2025-05-15,2025-05-15,合同会社ユアーズ,,合同会社,東京都,渋谷区,本町２丁目４０－３,,13,113,1510071,,,,,,,2025-05-15,1,,,,,ユアーズ,0
2228,9011101111718,新規,0,2025-05-15,2025-05-15,株式会社Ａｔｅｌｉｅｒ　ｂｌｏｏｍ,,株式会社,東京都,新宿区,西新宿４丁目１３番１４号西新宿青木ビル３０２号室,,13,104,1600023,,,,,,,2025-05-15,1,,,,,アトリエブルーム,0
2233,9011803006851,新規,0,2025-05-15,2025-05-15,ＡＬＬ　ＷＥ　ＮＥＥＤ合同会社,,合同会社,東京都,葛飾区,堀切６丁目２５番１５号,,13,122,1240006,,,,,,,2025-05-15,1,,,,,オールウィニード,0
2236,9012401043097,新規,0,2025-05-15,2025-05-15,株式会社ｅｍａｒｉ,,株式会社,東京都,府中市,宮町２丁目１８番地の３ＳＤビル８０４,,13,206,1830023,,,,,,,2025-05-15,1,,,,,エマリ,0
2237,9013301054275,新規,0,2025-05-15,2025-05-15,株式会社ＰＡＳＯＭＡ,,株式会社,東京都,豊島区,東池袋２丁目６２番８号ＢＩＧオフィスプラザ池袋１２０６,,13,116,1700013,,,,,,,2025-05-15,1,,,,,パソマ,0
2243,9020001162845,新規,0,2025-05-15,2025-05-15,火星計画株式会社,,株式会社,神奈川県,川崎市高津区,東野川２丁目２８－１,,14,134,2130029,,,,,,,2025-05-15,1,,,,,カセイケイカク,0
2244,9020001162853,新規,0,2025-05-15,2025-05-15,株式会社ＪＫデリ,,株式会社,神奈川県,横浜市中区,曙町５丁目６６－２,,14,104,2310057,,,,,,,2025-05-15,1,,,,,ジェイケーデリ,0
2245,9020001162861,新規,0,2025-05-15,2025-05-15,株式会社Ｌｕｍｉｏ　Ｆｕｔｕｒｅ,,株式会社,神奈川県,横浜市鶴見区,豊岡町２０番９号,,14,101,2300062,,,,,,,2025-05-15,1,,,,,,0
2250,9020003028482,新規,0,2025-05-15,2025-05-15,Ｘｄｇｅ　Ｔｅｃｈｎｏｌｏｇｉｅｓ合同会社,,合同会社,神奈川県,横浜市西区,浅間町１丁目４番３号ウィザードビル４０２,,14,103,2200072,,,,,,,2025-05-15,1,,,,,,0
2251,9020003028499,新規,0,2025-05-15,2025-05-15,合同会社ヒラゾテック,,合同会社,神奈川県,横浜市西区,浅間町１丁目４番３号ウィザードビル４０２,,14,103,2200072,,,,,,,2025-05-15,1,,,,,ヒラゾテック,0
2256,9021003015933,新規,0,2025-05-15,2025-05-15,合同会社リゴプラス不動産,,合同会社,神奈川県,藤沢市,鵠沼桜が岡２丁目４番８～２号,,14,205,2510027,,,,,,,2025-05-15,1,,,,,リゴプラスフドウサン,0
2257,9021003015974,新規,0,2025-05-15,2025-05-15,合同会社ＦＬ．,,合同会社,神奈川県,秦野市,柳町１丁目１３番１６号,,14,211,2591315,,,,,,,2025-05-15,1,,,,,エフエルドット,0
2264,9030001166548,新規,0,2025-05-15,2025-05-15,Ｙ．ＲＡＫＢＩＥ　ＪＡＰＡＮ株式会社,,株式会社,埼玉県,草加市,瀬崎３丁目２０番５号カルム谷塚６０２,,11,221,3400022,,,,,,,2025-05-15,1,,,,,ワイドットラックビージャパン,0
2270,9030003026725,新規,0,2025-05-15,2025-05-15,合同会社ＢａｗＢａｗ,,合同会社,埼玉県,秩父市,下吉田７７９０番地１,,11,207,3691503,,,,,,,2025-05-15,1,,,,,バウバウ,0
2278,9050001056680,新規,0,2025-05-15,2025-05-15,パレットカンパニー３６５株式会社,,株式会社,茨城県,北相馬郡利根町,大字大房６４６番地１,,08,564,3001601,,,,,,,2025-05-15,1,,,,,パレットカンパニーサンロクゴ,0
2281,9060001038174,新規,0,2025-05-15,2025-05-15,株式会社ＬＵＡＮＡ,,株式会社,栃木県,下都賀郡壬生町,大字壬生丁９番地４,,09,361,3210216,,,,,,,2025-05-15,1,,,,,ルアーナ,0
2286,9060003005552,新規,0,2025-05-15,2025-05-15,合同会社ムラオカ,,合同会社,栃木県,宇都宮市,鶴田町３１１５番地,,09,201,3200851,,,,,,,2025-05-15,1,,,,,ムラオカ,0
2288,9070005010392,新規,0,2025-05-15,2025-05-15,一般社団法人高齢者終身サービス愛泉,,その他の設立登記法人,群馬県,太田市,高林西町５９４番地３,,10,205,3730828,,,,,,,2025-05-15,1,,,,,,0
2292,9090001019270,新規,0,2025-05-15,2025-05-15,株式会社対馬設備工業,,株式会社,山梨県,中巨摩郡昭和町,河西６２５番地１３,,19,384,4093851,,,,,,,2025-05-15,1,,,,,ツシマセツビコウギョウ,0
2298,9100003008162,新規,0,2025-05-15,2025-05-15,ＲＯＵＮＤＡＢＯＵＴ　ＣＲＥＡＴＩＶＥ合同会社,,合同会社,長野県,北佐久郡軽井沢町,大字発地５２８番地６２,,20,321,3890113,,,,,,,2025-05-15,1,,,,,ラウンドアバウトクリエイティブ,0
2300,9100005013350,新規,0,2025-05-15,2025-05-15,信州しなのまち複業協同組合,,その他の設立登記法人,長野県,上水内郡信濃町,大字柏原４２８番地２,,20,583,3891305,,,,,,,2025-05-15,1,,,,,シンシュウシナノマチフクギョウ,0
2305,9110003005761,新規,0,2025-05-15,2025-05-15,合同会社ＴＡＫＡＳＡＫＩ,,合同会社,新潟県,燕市,佐渡５３７４番地ファミリータウンロイヤルＢ１０２号,,15,213,9591228,,,,,,,2025-05-15,1,,,,,タカサキ,0
2318,9120001275629,新規,0,2025-05-15,2025-05-15,株式会社佐俣防水,,株式会社,大阪府,大阪市東淀川区,豊里５丁目９番３号グラントピア豊里１０３,,27,114,5330013,,,,,,,2025-05-15,1,,,,,サマタボウスイ,0
2319,9120001275728,新規,0,2025-05-15,2025-05-15,Ａｓｈｉｋａ　Ｉｎｖｅｓｔｍｅｎｔ株式会社,,株式会社,大阪府,大阪市都島区,片町２丁目８番１２号エステムコート大阪城前ＯＢＰリバーフロント２０７号室,,27,102,5340025,,,,,,,2025-05-15,1,,,,,アシカインベストメント,0
2321,9120003029405,新規,0,2025-05-15,2025-05-15,合同会社ケアリーン,,合同会社,大阪府,大阪市東住吉区,北田辺４丁目２５－３,,27,121,5460044,,,,,,,2025-05-15,1,,,,,ケアリーン,0
2325,9120105010007,新規,0,2025-05-15,2025-05-15,一般社団法人せんなん里海ウォーク＆ランクラブ,,その他の設立登記法人,大阪府,阪南市,箱作２５２０番地の３５,,27,232,5990232,,,,,,,2025-05-15,1,,,,,センナンサトウミウォークアンドランクラブ,0
2327,9120901050866,新規,0,2025-05-15,2025-05-15,株式会社フジモビリティ,,株式会社,大阪府,豊中市,原田南１丁目１９番１３号,,27,203,5610805,,,,,,,2025-05-15,1,,,,,フジモビリティ,0
2328,9120903005653,新規,0,2025-05-15,2025-05-15,合同会社ｔｈｅ　ｇｒｅｅｎ,,合同会社,大阪府,豊中市,利倉１丁目１５番,,27,203,5610845,,,,,,,2025-05-15,1,,,,,ザグリーン,0
2332,9122001039212,新規,0,2025-05-15,2025-05-15,株式会社Ｓａｇｅ,,株式会社,大阪府,東大阪市,六万寺町２丁目４番１２号,,27,227,5798061,,,,,,,2025-05-15,1,,,,,セイジ,0
2335,9130003010462,新規,0,2025-05-15,2025-05-15,ＲＯＭＯＹＡ合同会社,,合同会社,京都府,京都市伏見区,桃山町泰長老１６０番地４,,26,109,6128034,,,,,,,2025-05-15,1,,,,,ロモヤ,0
2352,9140001138544,新規,0,2025-05-15,2025-05-15,８不動産リアルティ株式会社,,株式会社,兵庫県,明石市,小久保５丁目１１－１１、２Ｆ,,28,203,6730005,,,,,,,2025-05-15,1,,,,,エイトフドウサンリアルティ,0
2353,9140001138577,新規,0,2025-05-15,2025-05-15,田口モータース株式会社,,株式会社,兵庫県,尼崎市,南武庫之荘４丁目２１番２１号,,28,202,6610033,,,,,,,2025-05-15,1,,,,,タグチモータース,0
2354,9140003022060,新規,0,2025-05-15,2025-05-15,合同会社ＬｉｎｏＤｅｎｔ,,合同会社,兵庫県,西宮市,野間町２番３０号ウェリス門戸厄神レジデンス３０４号,,28,204,6638015,,,,,,,2025-05-15,1,,,,,リノデント,0
2355,9140005027512,新規,0,2025-05-15,2025-05-15,一般社団法人Ｃｅｎｔｅｒ　ｆｏｒ　Ｓｌｏｗ　Ｐｈｏｔｏｇｒａｐｈｙ,,その他の設立登記法人,兵庫県,丹波篠山市,福住３４２番地,,28,221,6692513,,,,,,,2025-05-15,1,,,,,センターフォースローフォトグラフィー,0
2365,9180003028483,新規,0,2025-05-15,2025-05-15,合同会社ｋｉｋｕ,,合同会社,愛知県,名古屋市瑞穂区,駒場町４丁目９番地の４メゾン日向１Ｃ,,23,108,4670807,,,,,,,2025-05-15,1,,,,,キク,0
2373,9210005010205,新規,0,2025-05-15,2025-05-15,労働者協同組合うるしの里椀椀,,その他の設立登記法人,福井県,鯖江市,西袋町第４０号１番地２,,18,207,9161221,,,,,,,2025-05-15,1,,,,,ウルシノサトワンワン,0
2376,9220003004026,新規,0,2025-05-15,2025-05-15,合同会社Ｈｉｔｏ．ｎｏｗａ,,合同会社,石川県,野々市市,御経塚２丁目１８６リンデンバウム２階０００６号室,,17,212,9218801,,,,,,,2025-05-15,1,,,,,ヒトノワ,0
2381,9240001064945,新規,0,2025-05-15,2025-05-15,株式会社湯来野の花,,株式会社,広島県,広島市佐伯区,湯来町大字下９８７番地,,34,108,7380603,,,,,,,2025-05-15,1,,,,,ユキノノハナ,0
2382,9240003007209,新規,0,2025-05-15,2025-05-15,合同会社Ｔ＆Ｒ不動産,,合同会社,広島県,広島市安佐南区,八木８丁目６番１３号,,34,105,7310101,,,,,,,2025-05-15,1,,,,,ティアンドアールフドウサン,0
2388,9260003005177,新規,0,2025-05-15,2025-05-15,合同会社エー・ケー・ジー,,合同会社,岡山県,岡山市南区,福吉町１９番２９号アルファ福吉３０５,,33,104,7028048,,,,,,,2025-05-15,1,,,,,エーケージー,0
2398,9290801031545,新規,0,2025-05-15,2025-05-15,山野自動車株式会社,,株式会社,福岡県,中間市,通谷４丁目１８番１３号,,40,215,8090018,,,,,,,2025-05-15,1,,,,,ヤマノジドウシャ,0
2412,9370003007096,新規,0,2025-05-15,2025-05-15,合同会社ＷＡＲＭ,,合同会社,宮城県,仙台市青葉区,上杉３丁目９番５０―９０３号,,04,101,9800011,,,,,,,2025-05-15,1,,,,,ウォーム,0
2422,9390001017987,新規,0,2025-05-15,2025-05-15,株式会社リライフ,,株式会社,山形県,村山市,楯岡新町３丁目５番１号,,06,208,9950033,,,,,,,2025-05-15,1,,,,,リライフ,0
2431,9440001009608,新規,0,2025-05-15,2025-05-15,坂本溶接株式会社,,株式会社,北海道,瀬棚郡今金町,字今金３０５番地の３,,01,370,0494308,,,,,,,2025-05-15,1,,,,,サカモトヨウセツ,0
2434,9470001020710,新規,0,2025-05-15,2025-05-15,株式会社フェーズリンク,,株式会社,香川県,高松市,林町８８６番地２１,,37,201,7610301,,,,,,,2025-05-15,1,,,,,フェーズリンク,0
