sequenceNumber,corporateNumber,process,correct,updateDate,changeDate,name,nameImageId,kind,prefectureName,cityName,streetNumber,addressImageId,prefectureCode,cityCode,postCode,addressOutside,addressOutsideImageId,closeDate,closeCause,successorCorporateNumber,changeCause,assignmentDate,latest,enName,enPrefectureName,enCityName,enAddressOutside,furigana,hihyoji
9,1010001256151,新規,0,2025-06-25,2025-06-25,ＩｎｆｉｎｉｔｙＸ株式会社,,株式会社,東京都,千代田区,神田神保町１丁目１０－１－９Ｆ,,13,101,1010051,,,,,,,2025-06-25,1,,,,,インフィニティーエックス,0
10,1010001256218,新規,0,2025-06-25,2025-06-25,康美健株式会社,,株式会社,東京都,中央区,築地３丁目１２番１号多喜川ビル３階,,13,102,1040045,,,,,,,2025-06-25,1,,,,,コウビケン,0
11,1010001256250,新規,0,2025-06-25,2025-06-25,株式会社ＳＮサポート,,株式会社,東京都,千代田区,神田須田町２丁目１９番２３号Ｄａｉｗａ秋葉原ビル２Ｆ,,13,101,1010041,,,,,,,2025-06-25,1,,,,,エスエヌサポート,0
12,1010001256275,新規,0,2025-06-25,2025-06-25,レモミール工房株式会社,,株式会社,東京都,千代田区,神田神保町１丁目４１番,,13,101,1010051,,,,,,,2025-06-25,1,,,,,レモミールコウボウ,0
20,1010401191262,新規,0,2025-06-25,2025-06-25,株式会社プレップ・テクノロジーズ,,株式会社,東京都,港区,赤坂８丁目６番１３号新坂マンション１０６号室,,13,103,1070052,,,,,,,2025-06-25,1,,,,,プレップテクノロジーズ,0
21,1010401191279,新規,0,2025-06-25,2025-06-25,株式会社ＳＬＥ,,株式会社,東京都,港区,新橋３丁目１８番３号三青ビル２階,,13,103,1050004,,,,,,,2025-06-25,1,,,,,エスエルイー,0
26,1010403035434,新規,0,2025-06-25,2025-06-25,合同会社ｘＴ,,合同会社,東京都,港区,北青山１丁目３－３三橋ビル３階,,13,103,1070061,,,,,,,2025-06-25,1,,,,,クロスティー,0
27,1010501054294,新規,0,2025-06-25,2025-06-25,山河株式会社,,株式会社,東京都,台東区,松が谷２丁目１５番８号浅草Ｋ２ビル２０７号室,,13,106,1110036,,,,,,,2025-06-25,1,,,,,サンガ,0
28,1010503007886,新規,0,2025-06-25,2025-06-25,合同会社ＮｅｏＵｎｉｖｅｒｓｅ,,合同会社,東京都,台東区,上野２丁目１２番４号ＶＥＲＴＥＸＵＥＮＯ３階,,13,106,1100005,,,,,,,2025-06-25,1,,,,,ネオユニバース,0
30,1010601067502,新規,0,2025-06-25,2025-06-25,株式会社Ｃ’ｓ　ＣＬＥＡＮ,,株式会社,東京都,江東区,大島５丁目２５番７号,,13,108,1360072,,,,,,,2025-06-25,1,,,,,シーズクリーン,0
36,1010903010028,新規,0,2025-06-25,2025-06-25,合同会社ＩＮＡＤ,,合同会社,東京都,世田谷区,南烏山６丁目４番１８号宇田川ビル４階,,13,112,1570062,,,,,,,2025-06-25,1,,,,,アイエヌエーディー,0
37,1011001170788,新規,0,2025-06-25,2025-06-25,株式会社ＢＬＩＣＳ,,株式会社,東京都,渋谷区,道玄坂１丁目１０番８号渋谷道玄坂東急ビル２Ｆ－Ｃ,,13,113,1500043,,,,,,,2025-06-25,1,,,,,ブリックス,0
38,1011003021790,新規,0,2025-06-25,2025-06-25,合同会社ＲＯＴＯＭ,,合同会社,東京都,渋谷区,道玄坂１丁目１０－８渋谷道玄坂東急ビル２Ｆ－Ｃ,,13,113,1500043,,,,,,,2025-06-25,1,,,,,ロトム,0
43,1011101112186,新規,0,2025-06-25,2025-06-25,株式会社ＲＥＳＰＥＣＴ,,株式会社,東京都,新宿区,西新宿３丁目５－１２トーカン新宿第２キャステール２０９号室,,13,104,1600023,,,,,,,2025-06-25,1,,,,,リスペクト,0
49,1011701028427,新規,0,2025-06-25,2025-06-25,日本コウキン技術開発株式会社,,株式会社,東京都,江戸川区,西葛西５丁目７番６－４０６号,,13,123,1340088,,,,,,,2025-06-25,1,,,,,ニホンコウキンギジュツカイハツ,0
60,1020001163537,新規,0,2025-06-25,2025-06-25,株式会社ＳＯＲＡ,,株式会社,神奈川県,横浜市西区,北幸２丁目１０番４８号３階,,14,103,2200004,,,,,,,2025-06-25,1,,,,,ソラ,0
61,1020001163553,新規,0,2025-06-25,2025-06-25,Ｆａｔａｒｅ株式会社,,株式会社,神奈川県,横浜市戸塚区,上矢部町２１９６－２,,14,110,2450053,,,,,,,2025-06-25,1,,,,,ファターレ,0
70,1021003016187,新規,0,2025-06-25,2025-06-25,合同会社ｍａｓｈ,,合同会社,神奈川県,茅ヶ崎市,汐見台２番１０－５０１号,,14,207,2530033,,,,,,,2025-06-25,1,,,,,マッシュ,0
71,1021003016204,新規,0,2025-06-25,2025-06-25,合同会社ＩＴＯ,,合同会社,神奈川県,平塚市,大神６丁目９番４５号,,14,203,2540012,,,,,,,2025-06-25,1,,,,,アイティーオー,0
72,1021003016212,新規,0,2025-06-25,2025-06-25,合同会社リベ湘南,,合同会社,神奈川県,平塚市,東八幡３丁目１０番６号,,14,203,2540016,,,,,,,2025-06-25,1,,,,,リベショウナン,0
79,1030001167248,新規,0,2025-06-25,2025-06-25,安遊株式会社,,株式会社,埼玉県,草加市,栄町２丁目４番１号,,11,221,3400011,,,,,,,2025-06-25,1,,,,,アンユウ,0
80,1030001167289,新規,0,2025-06-25,2025-06-25,株式会社升隆,,株式会社,埼玉県,三郷市,栄４丁目２２１番地２,,11,237,3410043,,,,,,,2025-06-25,1,,,,,ショウリュウ,0
85,1030003027078,新規,0,2025-06-25,2025-06-25,合同会社英匠,,合同会社,埼玉県,川越市,寿町１丁目２７９－１８,,11,201,3501116,,,,,,,2025-06-25,1,,,,,エイショウ,0
93,1040001139337,新規,0,2025-06-25,2025-06-25,株式会社ねこだいすき,,株式会社,千葉県,柏市,大津ケ丘３丁目１２番地２,,12,217,2770921,,,,,,,2025-06-25,1,,,,,ネコダイスキ,0
94,1040001139378,新規,0,2025-06-25,2025-06-25,ミライワークス株式会社,,株式会社,千葉県,千葉市花見川区,花園町２４８６－１０１,,12,102,2620021,,,,,,,2025-06-25,1,,,,,ミライワークス,0
106,1100003008244,新規,0,2025-06-25,2025-06-25,合同会社ＡＺＵＭＩｔｏｒｏｐｉｃａ,,合同会社,長野県,松本市,梓川上野２１７９番地,,20,202,3901703,,,,,,,2025-06-25,1,,,,,アズミトロピカ,0
108,1110001039372,新規,0,2025-06-25,2025-06-25,株式会社ＱＯＱ,,株式会社,新潟県,南魚沼郡湯沢町,大字湯沢５９６－２,,15,461,9496101,,,,,,,2025-06-25,1,,,,,キューオーキュー,0
122,1120001276964,新規,0,2025-06-25,2025-06-25,株式会社墨器匠＿社,00139682,株式会社,大阪府,大阪市生野区,新今里１丁目１０－２６－３０１号室,,27,116,5440001,,,,,,,2025-06-25,1,,,,,スミキショウキシャ,0
123,1120001277087,新規,0,2025-06-25,2025-06-25,華億貿易株式会社,,株式会社,大阪府,大阪市都島区,都島中通２丁目１２－２５－２０１,,27,102,5340022,,,,,,,2025-06-25,1,,,,,カオクボウエキ,0
124,1120001277129,新規,0,2025-06-25,2025-06-25,株式会社ワイズ,,株式会社,大阪府,大阪市東成区,東小橋１丁目１９番１１号イグレック玉造６０１号,,27,115,5370024,,,,,,,2025-06-25,1,,,,,ワイズ,0
125,1120001277203,新規,0,2025-06-25,2025-06-25,株式会社武空調サービス,,株式会社,大阪府,大阪市港区,三先２丁目２０番６６号,,27,107,5520016,,,,,,,2025-06-25,1,,,,,タケクウチョウサービス,0
128,1120003029783,新規,0,2025-06-25,2025-06-25,ひかり合同会社,,合同会社,大阪府,大阪市淀川区,十三元今里２丁目１２－２２,,27,123,5320028,,,,,,,2025-06-25,1,,,,,ヒカリ,0
129,1120101071943,新規,0,2025-06-25,2025-06-25,ＧＬＥ株式会社,,株式会社,大阪府,南河内郡河南町,さくら坂３丁目５番１２号,,27,382,5850025,,,,,,,2025-06-25,1,,,,,ジーエルイー,0
130,1120103006534,新規,0,2025-06-25,2025-06-25,合同会社絆,,合同会社,大阪府,泉大津市,池園町１番５号,,27,206,5950017,,,,,,,2025-06-25,1,,,,,キズナ,0
132,1120901051087,新規,0,2025-06-25,2025-06-25,株式会社Ｋ’ｓオートコネクション,,株式会社,大阪府,茨木市,清水１丁目１３番２９号,,27,211,5670059,,,,,,,2025-06-25,1,,,,,ケーズオートコネクション,0
137,1130001079953,新規,0,2025-06-25,2025-06-25,ＶＳＴ株式会社,,株式会社,京都府,京都市上京区,日暮通下長者町下る秤口町１５８番地,,26,102,6028106,,,,,,,2025-06-25,1,,,,,ヴイエスティー,0
138,1130003010569,新規,0,2025-06-25,2025-06-25,合同会社ＴＮＫアセットマネジメント,,合同会社,京都府,京都市中京区,柳馬場通三条上る油屋町９６番地１－１０１,,26,104,6048103,,,,,,,2025-06-25,1,,,,,ティーエヌケーアセットマネジメント,0
148,1140001138972,新規,0,2025-06-25,2025-06-25,株式会社マーチン,,株式会社,兵庫県,加古川市,平岡町高畑１５１番地５エルエスビル１０３,,28,210,6750103,,,,,,,2025-06-25,1,,,,,マーチン,0
149,1140001139038,新規,0,2025-06-25,2025-06-25,株式会社サンシャインホールディングス,,株式会社,兵庫県,小野市,中町２４８番地の２,,28,218,6751332,,,,,,,2025-06-25,1,,,,,サンシャインホールディングス,0
152,1140003022233,新規,0,2025-06-25,2025-06-25,ＡＬＩＶＥ合同会社,,合同会社,兵庫県,明石市,大蔵谷奥１６番５号,,28,203,6730867,,,,,,,2025-06-25,1,,,,,アライブ,0
153,1140003022241,新規,0,2025-06-25,2025-06-25,合同会社Ｓｔｅｌｌａ,,合同会社,兵庫県,神戸市中央区,磯辺通１丁目１番１８号カサベラ国際プラザビル７０７,,28,110,6510084,,,,,,,2025-06-25,1,,,,,ステラ,0
158,1160001026853,新規,0,2025-06-25,2025-06-25,株式会社アグレッジ牧,,株式会社,滋賀県,大津市,牧１丁目７番２７号,,25,201,5202112,,,,,,,2025-06-25,1,,,,,アグレッジマキ,0
163,1180001167373,新規,0,2025-06-25,2025-06-25,株式会社エクステリア宮川,,株式会社,愛知県,名古屋市緑区,東神の倉１丁目１４１１番地の１,,23,114,4580808,,,,,,,2025-06-25,1,,,,,エクステリアミヤガワ,0
164,1180001167381,新規,0,2025-06-25,2025-06-25,Ｔ＆Ｒ株式会社,,株式会社,愛知県,名古屋市天白区,植田南３丁目３０８番地,,23,116,4680053,,,,,,,2025-06-25,1,,,,,ティーアンドアール,0
167,1180301039933,新規,0,2025-06-25,2025-06-25,ＤＥＨＡＳＵ　ＨＯＬＤＩＮＧＳ株式会社,,株式会社,愛知県,豊川市,国府町茶ノ休６７番地の８ベルメゾン国府１０１号,,23,207,4420854,,,,,,,2025-06-25,1,,,,,デハスホールディングス,0
168,1190001032329,新規,0,2025-06-25,2025-06-25,株式会社ＯＴＯＮＡ,,株式会社,三重県,松阪市,西野町２４０番地１,,24,204,5150833,,,,,,,2025-06-25,1,,,,,オトナ,0
169,1190001032337,新規,0,2025-06-25,2025-06-25,株式会社庚伸,,株式会社,三重県,松阪市,肥留町８１２番地クラウドＩＩＩＡ１０１,00139676,24,204,5152105,,,,,,,2025-06-25,1,,,,,コウシン,0
179,1240003007273,新規,0,2025-06-25,2025-06-25,合同会社ＭＭＴ,,合同会社,広島県,尾道市,向東町１１９２６番地５,,34,205,7220062,,,,,,,2025-06-25,1,,,,,エムエムティー,0
185,1290001110504,新規,0,2025-06-25,2025-06-25,ＴＧｗｏｒｋｓ株式会社,,株式会社,福岡県,福岡市南区,若久３丁目３４番１４号,,40,134,8150042,,,,,,,2025-06-25,1,,,,,ティージーワークス,0
187,1300001014232,新規,0,2025-06-25,2025-06-25,株式会社アサがふる,,株式会社,佐賀県,唐津市,鏡２５１０－１ＴＳＰネット２０３,,41,202,8470022,,,,,,,2025-06-25,1,,,,,アサガフル,0
190,1330001033337,新規,0,2025-06-25,2025-06-25,Ｌｅｓｉｍｏ株式会社,,株式会社,熊本県,熊本市中央区,桜町１－２５,,43,101,8600805,,,,,,,2025-06-25,1,,,,,レシモ,0
192,1340001027461,新規,0,2025-06-25,2025-06-25,株式会社ＬｉｇｈｔＳｈｉｆｔ,,株式会社,鹿児島県,鹿児島市,住吉町１３－１ハーバーフロントビル３０１号,,46,201,8920823,,,,,,,2025-06-25,1,,,,,ライトシフト,0
196,1360001035388,新規,0,2025-06-25,2025-06-25,株式会社８ｍｅｎ　ｏｋｉｎａｗａ,,株式会社,沖縄県,那覇市,牧志２丁目１７番４６号ＨＡＣＨＩＮＯ’Ｓ６Ｆ,,47,201,9000013,,,,,,,2025-06-25,1,,,,,エイトメンオキナワ,0
198,1360005007251,新規,0,2025-06-25,2025-06-25,一般社団法人虹のはし,,その他の設立登記法人,沖縄県,名護市,大東２丁目６番１１号,,47,209,9050016,,,,,,,2025-06-25,1,,,,,ニジノハシ,0
212,1430001094708,新規,0,2025-06-25,2025-06-25,ＦＥＡＳ株式会社,,株式会社,北海道,札幌市中央区,南五条西１５丁目２番３－５０３,,01,101,0640805,,,,,,,2025-06-25,1,,,,,フィーズ,0
213,1430001094724,新規,0,2025-06-25,2025-06-25,株式会社ＡＫクリーンテック,,株式会社,北海道,千歳市,日の出３丁目１２番１０号,,01,224,0660017,,,,,,,2025-06-25,1,,,,,エーケークリーンテック,0
219,1430003017798,新規,0,2025-06-25,2025-06-25,合同会社ＫＥＩＳ,,合同会社,北海道,札幌市白石区,南郷通１丁目北５番１４号ＧＴＴｏｗｅｒ南郷台０９５号室,,01,104,0030023,,,,,,,2025-06-25,1,,,,,ケイス,0
220,1460001006016,新規,0,2025-06-25,2025-06-25,株式会社ＭＡＮＡＬＥＡＬＩ,,株式会社,北海道,釧路市,愛国東２丁目７番１４号,,01,206,0850058,,,,,,,2025-06-25,1,,,,,マナレアリ,0
226,1700150131250,新規,0,2025-06-25,2025-06-25,ＨＩＩ　Ｍｉｓｓｉｏｎ　Ｔｅｃｈｎｏｌｏｇｉｅｓ　Ｃｏｒｐ．,,外国会社等,,,,,,,,２４０１　Ｗｅｓｔ　Ａｖｅｎｕｅ，Ｎｅｗｐｏｒｔ　Ｎｅｗｓ　ＶＡ，２３６０７,,,,,,2025-06-25,1,,,,,エイチアイアイミツシヨンテクノロジーズコープ,0
227,1700150131267,新規,0,2025-06-25,2025-06-25,ＡＡＳＨＩＦ　ＥＮＴＥＲＰＲＩＳＥＳ,,外国会社等,茨城県,鉾田市,梶山７５９番地１１,,08,234,3112104,スリランカ民主社会主義共和国、アクラナ、ブルゴホテンナ、Ｎｏ．２３４／２Ａ,,,,,,2025-06-25,1,,,,,アアシフエンタープライズ,0
233,2010001256209,新規,0,2025-06-25,2025-06-25,Ｇｒｅｅｎ　Ｍａｔｅｒｉａｌｉｚｅ株式会社,,株式会社,東京都,千代田区,丸の内１丁目１－３日本生命丸の内ガーデンタワー３Ｆ,,13,101,1000005,,,,,,,2025-06-25,1,,,,,グリーンマテリアライズ,0
234,2010001256274,新規,0,2025-06-25,2025-06-25,株式会社ＳｘＥ,,株式会社,東京都,中央区,日本橋富沢町９番４号,,13,102,1030006,,,,,,,2025-06-25,1,,,,,エスバイイー,0
245,2010401191245,新規,0,2025-06-25,2025-06-25,ＭＵＨＥＮＧ株式会社,,株式会社,東京都,港区,赤坂２丁目８番１４－５０４号,,13,103,1070052,,,,,,,2025-06-25,1,,,,,ムーヘン,0
249,2010501054293,新規,0,2025-06-25,2025-06-25,映嘉株式会社,,株式会社,東京都,台東区,松が谷２丁目１５番８号浅草Ｋ２ビル２０２号室,,13,106,1110036,,,,,,,2025-06-25,1,,,,,エイカ,0
259,2010901057631,新規,0,2025-06-25,2025-06-25,株式会社セピア,,株式会社,東京都,世田谷区,松原４丁目１９番１８号,,13,112,1560043,,,,,,,2025-06-25,1,,,,,セピア,0
261,2010903010027,新規,0,2025-06-25,2025-06-25,Ａｔｅｌｉｅｒ　Ｈ．Ｋ．Ｗｏｒｋｓ合同会社,,合同会社,東京都,世田谷区,池尻２丁目１０番１２－４０３号,,13,112,1540001,,,,,,,2025-06-25,1,,,,,アトリエエイチケーワークス,0
262,2010903010035,新規,0,2025-06-25,2025-06-25,合同会社ヴァルトアインザームカイト,,合同会社,東京都,世田谷区,上北沢３丁目３４番２３号グランディアパークＫ１０３,,13,112,1560057,,,,,,,2025-06-25,1,,,,,ヴァルトアインザームカイト,0
269,2011003021633,新規,0,2025-06-25,2025-06-25,ＴＨＩＰ合同会社,,合同会社,東京都,渋谷区,恵比寿西２丁目４番８号ウィンド恵比寿ビル８Ｆ,,13,113,1500021,,,,,,,2025-06-25,1,,,,,ティップ,0
274,2011101112128,新規,0,2025-06-25,2025-06-25,神宮０８１６株式会社,,株式会社,東京都,新宿区,百人町１丁目１８番８号大久保カドビルＬｉｎｋＳｐａｃｅ百人町Ａ０３,,13,104,1690073,,,,,,,2025-06-25,1,,,,,ジングウゼロハチイチロク,0
285,2011701028426,新規,0,2025-06-25,2025-06-25,株式会社ローズペタル・アトリエ,,株式会社,東京都,江戸川区,平井５丁目４４番６号ＣＷＨ平井ビルディング４０５号室,,13,123,1320035,,,,,,,2025-06-25,1,,,,,ローズペタルアトリエ,0
286,2011801046360,新規,0,2025-06-25,2025-06-25,Ｎ＆Ｕ・Ｔｅｃｈｎｏｌｏｇｙ株式会社,,株式会社,東京都,葛飾区,東新小岩５丁目２番２０号,,13,122,1240023,,,,,,,2025-06-25,1,,,,,エヌアンドユーテクノロジー,0
295,2013301054505,新規,0,2025-06-25,2025-06-25,株式会社ウィーシュマン,,株式会社,東京都,豊島区,西池袋３丁目３０番１１号３Ｂ,,13,116,1710021,,,,,,,2025-06-25,1,,,,,ウィーシュマン,0
296,2013301054513,新規,0,2025-06-25,2025-06-25,リブラックス株式会社,,株式会社,東京都,豊島区,南大塚１丁目３１番９号,,13,116,1700005,,,,,,,2025-06-25,1,,,,,リブラックス,0
305,2020001163552,新規,0,2025-06-25,2025-06-25,ＩｓＢ株式会社,,株式会社,神奈川県,横浜市港北区,新横浜２丁目１２番地２５アルカーデン新横浜９０１,,14,109,2220033,,,,,,,2025-06-25,1,,,,,アイエスビー,0
309,2020003028794,新規,0,2025-06-25,2025-06-25,合同会社ＳＴＥＰＵＰ,,合同会社,神奈川県,川崎市川崎区,大師本町１０番２１号,,14,131,2100817,,,,,,,2025-06-25,1,,,,,ステップアップ,0
323,2040003027927,新規,0,2025-06-25,2025-06-25,ＮＶＣ合同会社,,合同会社,千葉県,千葉市美浜区,高洲２丁目１番３棟４０９号,,12,106,2610004,,,,,,,2025-06-25,1,,,,,エヌブイシー,0
327,2060003005617,新規,0,2025-06-25,2025-06-25,ＳＡＲＷＥＲ　ＴＲＡＤＩＮＧ合同会社,,合同会社,栃木県,栃木市,岩舟町静戸４７０番地３,,09,203,3294305,,,,,,,2025-06-25,1,,,,,サルワルトレーディング,0
334,2080003003486,新規,0,2025-06-25,2025-06-25,ラッキー合同会社,,合同会社,静岡県,榛原郡吉田町,片岡９１４番地の８,,22,424,4210303,,,,,,,2025-06-25,1,,,,,ラッキー,0
336,2080401027987,新規,0,2025-06-25,2025-06-25,ＳＨＩＫＩ株式会社,,株式会社,静岡県,浜松市中央区,富塚町２７５番地の１２,,22,138,4328002,,,,,,,2025-06-25,1,,,,,シキ,0
340,2090003002850,新規,0,2025-06-25,2025-06-25,合同会社ＲＵＣＵＯ,,合同会社,山梨県,甲府市,武田２丁目１２番１６号,,19,201,4000016,,,,,,,2025-06-25,1,,,,,ルクオ,0
343,2100001038713,新規,0,2025-06-25,2025-06-25,宮入建設株式会社,,株式会社,長野県,上田市,大字仁古田４０４番地１,,20,203,3860000,,,,,,,2025-06-25,1,,,,,ミヤイリケンセツ,0
344,2100003008243,新規,0,2025-06-25,2025-06-25,Ａｓｔｒｏｖｅｒｔｓ合同会社,,合同会社,長野県,茅野市,ちの３５０２番地１,,20,214,3910001,,,,,,,2025-06-25,1,,,,,アストロバーツ,0
350,2110001039371,新規,0,2025-06-25,2025-06-25,株式会社＆ｎａｐ,,株式会社,新潟県,新潟市江南区,曙町１丁目５番２１号,,15,104,9500134,,,,,,,2025-06-25,1,,,,,アンドナップ,0
360,2120001276955,新規,0,2025-06-25,2025-06-25,ＯＲＡＮＧＥ　ＣＡＴ　ＩＮＤＵＳＴＲＹ株式会社,,株式会社,大阪府,大阪市住之江区,御崎１丁目１１番１９－２０７号,,27,125,5590013,,,,,,,2025-06-25,1,,,,,オレンジキャットインダストリー,0
361,2120001276963,新規,0,2025-06-25,2025-06-25,株式会社時寛,,株式会社,大阪府,大阪市生野区,新今里１丁目１０－２６－３０２号室,,27,116,5440001,,,,,,,2025-06-25,1,,,,,ジカン,0
362,2120001276996,新規,0,2025-06-25,2025-06-25,ｔａ建築工房株式会社,,株式会社,大阪府,大阪市淀川区,十八条３丁目５番２０号,,27,123,5320001,,,,,,,2025-06-25,1,,,,,ティーエーケンチクコウボウ,0
363,2120001277086,新規,0,2025-06-25,2025-06-25,融世株式会社,,株式会社,大阪府,大阪市西淀川区,中島１丁目２３番１７号,,27,113,5550041,,,,,,,2025-06-25,1,,,,,ユウセイ,0
364,2120001277160,新規,0,2025-06-25,2025-06-25,株式会社ＲＩＭＵ,,株式会社,大阪府,大阪市北区,梅田１丁目１番３大阪駅前第３ビル１－１－１号室,,27,127,5300001,,,,,,,2025-06-25,1,,,,,リム,0
365,2120001277219,新規,0,2025-06-25,2025-06-25,株式会社ダブル,,株式会社,大阪府,大阪市東淀川区,東中島２丁目８番８号,,27,114,5330033,,,,,,,2025-06-25,1,,,,,ダブル,0
368,2120003029790,新規,0,2025-06-25,2025-06-25,Ｉｃｈｉｗａ合同会社,,合同会社,大阪府,大阪市浪速区,幸町１丁目３番１３－９０５号,,27,111,5560021,,,,,,,2025-06-25,1,,,,,イチワ,0
374,2120101071967,新規,0,2025-06-25,2025-06-25,株式会社望めば,,株式会社,大阪府,堺市北区,宮本町１８番地１ファミール北花田１０３,,27,146,5918006,,,,,,,2025-06-25,1,,,,,ノゾメバ,0
379,2130001079952,新規,0,2025-06-25,2025-06-25,株式会社ＢＣ,,株式会社,京都府,宇治市,五ケ庄広岡谷２番地の２０８,,26,204,6110011,,,,,,,2025-06-25,1,,,,,ビーシー,0
380,2130001079960,新規,0,2025-06-25,2025-06-25,トリプルエステート株式会社,,株式会社,京都府,京都市山科区,大宅御所田町１３番地８－２Ｆ,,26,110,6078179,,,,,,,2025-06-25,1,,,,,トリプルエステート,0
381,2130001079977,新規,0,2025-06-25,2025-06-25,Ｃ’ｅｓｔ　ｍｉｇｎｏｎ株式会社,,株式会社,京都府,京都市東山区,渋谷通東大路東入３丁目上馬町５６０番地１,,26,105,6050927,,,,,,,2025-06-25,1,,,,,セミニョン,0
385,2140001139029,新規,0,2025-06-25,2025-06-25,株式会社たち花,,株式会社,兵庫県,姫路市,飾磨区阿成植木８５５番地３アナセテラスＴ,,28,201,6728030,,,,,,,2025-06-25,1,,,,,タチバナ,0
389,2160001026852,新規,0,2025-06-25,2025-06-25,株式会社ポン吉,,株式会社,滋賀県,草津市,南草津プリムタウン２丁目１４番８,,25,206,5250068,,,,,,,2025-06-25,1,,,,,ポンキチ,0
405,2210001020214,新規,0,2025-06-25,2025-06-25,株式会社リューク,,株式会社,福井県,敦賀市,新松島町３番９号,,18,202,9140803,,,,,,,2025-06-25,1,,,,,リューク,0
409,2240001065099,新規,0,2025-06-25,2025-06-25,アイ通商株式会社,,株式会社,広島県,安芸郡海田町,南幸町１３番７－２０２号,,34,304,7360032,,,,,,,2025-06-25,1,,,,,アイツウショウ,0
419,2290001110536,新規,0,2025-06-25,2025-06-25,丸上設備工業株式会社,,株式会社,福岡県,糸島市,瑞梅寺３２８番地,,40,230,8191581,,,,,,,2025-06-25,1,,,,,マルガミセツビコウギョウ,0
420,2290001110544,新規,0,2025-06-25,2025-06-25,光明技工株式会社,,株式会社,福岡県,福岡市西区,周船寺１丁目４番３－１０１号,,40,135,8190373,,,,,,,2025-06-25,1,,,,,コウメイギコウ,0
424,2310001019659,新規,0,2025-06-25,2025-06-25,株式会社ＧＯ　ＴＯ,,株式会社,長崎県,五島市,下大津町１９８５番地,,42,211,8530011,,,,,,,2025-06-25,1,,,,,ゴートゥ,0
431,2330003011067,新規,0,2025-06-25,2025-06-25,合同会社仕事の窓口,,合同会社,熊本県,熊本市北区,八景水谷３丁目４番７０号,,43,105,8618064,,,,,,,2025-06-25,1,,,,,シゴトノマドグチ,0
438,2360002023218,新規,0,2025-06-25,2025-06-25,有限会社沖繩産建企画,,有限会社,沖縄県,那覇市,字小禄１８７番地,,47,201,9010152,,,,,,,2025-06-25,1,,,,,オキナワサンケンキカク,0
443,2400001017083,新規,0,2025-06-25,2025-06-25,株式会社クドウロック,,株式会社,岩手県,八幡平市,平笠第２２地割１１番地１,,03,214,0287113,,,,,,,2025-06-25,1,,,,,クドウロック,0
453,2470001020774,新規,0,2025-06-25,2025-06-25,三和工業持株会準備室株式会社,,株式会社,香川県,善通寺市,仙遊町２丁目５番１８号,,37,204,7650001,,,,,,,2025-06-25,1,,,,,サンワコウギョウモチカブカイジュンビシツ,0
457,2700150131266,新規,0,2025-06-25,2025-06-25,ＧＯＬＤＥＮ　ＣＡＲＳ　ＴＲＡＤＩＮＧ,,外国会社等,茨城県,日立市,金沢町４丁目６０オフィスＢ,,08,202,3160015,スリランカ民主社会主義共和国、キャンディ、マビルマドゥ、Ｎｏ．５６／７／Ａ,,,,,,2025-06-25,1,,,,,ゴールデンカーズトレーデイング,0
462,3010001255275,新規,0,2025-06-25,2025-06-25,株式会社Ｇｋｒｅｗ,,株式会社,東京都,文京区,水道１丁目１２番１号,,13,105,1120005,,,,,,,2025-06-25,1,,,,,ジークルー,0
463,3010001256158,新規,0,2025-06-25,2025-06-25,Ｃ．Ｍ．Ｃｒｅａｔｉｖｅ株式会社,,株式会社,東京都,中央区,銀座１丁目１２番４号Ｎ＆ＥＢＬＤ．６Ｆ,,13,102,1040061,,,,,,,2025-06-25,1,,,,,シーエムクリエイティブ,0
464,3010001256199,新規,0,2025-06-25,2025-06-25,株式会社Ｂｏｕｎｔｉｅｓ　ｂｌｏｗ,,株式会社,東京都,小笠原村,父島字扇浦,,13,421,1002101,,,,,,,2025-06-25,1,,,,,バウンティースブロウ,0
465,3010001256273,新規,0,2025-06-25,2025-06-25,Ｓａｎｉｔｈｏｓ株式会社,,株式会社,東京都,文京区,春日２丁目１１番８－３０４号,,13,105,1120003,,,,,,,2025-06-25,1,,,,,サニトス,0
470,3010003047761,新規,0,2025-06-25,2025-06-25,ロクモ合同会社,,合同会社,東京都,中央区,日本橋室町１丁目１１番１２号,,13,102,1030022,,,,,,,2025-06-25,1,,,,,,0
491,3010401191244,新規,0,2025-06-25,2025-06-25,ＬＯＪＵ株式会社,,株式会社,東京都,港区,赤坂２丁目８番１４－４０７号,,13,103,1070052,,,,,,,2025-06-25,1,,,,,ルジョー,0
492,3010401191269,新規,0,2025-06-25,2025-06-25,株式会社えては,,株式会社,東京都,港区,白金１丁目２番１－Ｅ５１８号,,13,103,1080072,,,,,,,2025-06-25,1,,,,,エテハ,0
495,3010603011638,新規,0,2025-06-25,2025-06-25,合同会社Ｙｏｕ建,,合同会社,東京都,墨田区,立花３丁目１０番１６号,,13,107,1310043,,,,,,,2025-06-25,1,,,,,ユウケン,0
498,3010703007783,新規,0,2025-06-25,2025-06-25,合同会社ＪｕＲＹ,,合同会社,東京都,品川区,東大井１丁目９－２７－４０７,,13,109,1400011,,,,,,,2025-06-25,1,,,,,ジュリー,0
503,3010901057639,新規,0,2025-06-25,2025-06-25,株式会社ロゴス,,株式会社,東京都,世田谷区,下馬１丁目２５番１４号１階,,13,112,1540002,,,,,,,2025-06-25,1,,,,,ロゴス,0
507,3011001170101,新規,0,2025-06-25,2025-06-25,株式会社ＩＺＵＬＣＡ,,株式会社,東京都,渋谷区,桜丘町２０－１渋谷インフォースタワー１３Ｆ,,13,113,1500031,,,,,,,2025-06-25,1,,,,,,0
508,3011001170365,新規,0,2025-06-25,2025-06-25,株式会社キーホルダー,,株式会社,東京都,渋谷区,恵比寿西２丁目８番５号高麗羅ビル３階,,13,113,1500021,,,,,,,2025-06-25,1,,,,,キーホルダー,0
509,3011003021814,新規,0,2025-06-25,2025-06-25,合同会社ハチナナ,,合同会社,東京都,渋谷区,神泉町１０番１５号アネックス神泉３０１,,13,113,1500045,,,,,,,2025-06-25,1,,,,,ハチナナ,0
510,3011101112151,新規,0,2025-06-25,2025-06-25,株式会社ＴＭＣ,,株式会社,東京都,新宿区,中落合３丁目５番１６号ＥＬＥＣＯ中落合１０１,,13,104,1610032,,,,,,,2025-06-25,1,,,,,ティーエムシー,0
511,3011101112283,新規,0,2025-06-25,2025-06-25,ＡＮＤ　ＫＥＹｅｓ株式会社,,株式会社,東京都,新宿区,西新宿７丁目１８番１３号,,13,104,1600023,,,,,,,2025-06-25,1,,,,,アンドキーズ,0
516,3011503006587,新規,0,2025-06-25,2025-06-25,合同会社千鳥,,合同会社,東京都,北区,中里１丁目１８－２カーサＭ３０１,,13,117,1140015,,,,,,,2025-06-25,1,,,,,チドリ,0
517,3011603004739,新規,0,2025-06-25,2025-06-25,合同会社ＦＯＵＲ　ＣＨ,,合同会社,東京都,練馬区,中村２丁目４番６－３０１号,,13,120,1760024,,,,,,,2025-06-25,1,,,,,フォーシーエイチ,0
522,3012301014443,新規,0,2025-06-25,2025-06-25,ギュテック株式会社,,株式会社,東京都,町田市,原町田６丁目９‐８ＡＥＴＡ町田４Ｆ,,13,209,1940013,,,,,,,2025-06-25,1,,,,,ギュテック,0
525,3012401043268,新規,0,2025-06-25,2025-06-25,ＥｉｉＫＡ株式会社,,株式会社,東京都,調布市,深大寺南町５丁目１６－３スイートベリーＣ棟１０２,,13,208,1820013,,,,,,,2025-06-25,1,,,,,エイイカ,0
526,3012403007205,新規,0,2025-06-25,2025-06-25,Ｆｕｕｒａｉ合同会社,,合同会社,東京都,多摩市,中沢２丁目３－１ライオンズマンション多摩センター３０２号,,13,224,2060036,,,,,,,2025-06-25,1,,,,,フウライ,0
532,3020001163519,新規,0,2025-06-25,2025-06-25,株式会社ボンド,,株式会社,神奈川県,横浜市瀬谷区,阿久和南１丁目２５番地１０,,14,114,2460026,,,,,,,2025-06-25,1,,,,,ボンド,0
535,3020003028694,新規,0,2025-06-25,2025-06-25,合同会社Ｋ．ＬＬＣ,,合同会社,神奈川県,横浜市港北区,富士塚１丁目２４－２９,,14,109,2220012,,,,,,,2025-06-25,1,,,,,ケードットエルエルシー,0
536,3020003028744,新規,0,2025-06-25,2025-06-25,合同会社空家再生ＩＭＢ,,合同会社,神奈川県,横浜市栄区,長尾台町１６０‐５,,14,115,2440843,,,,,,,2025-06-25,1,,,,,アキヤサイセイアイエムビー,0
537,3020003028777,新規,0,2025-06-25,2025-06-25,アルトパートナーズ合同会社,,合同会社,神奈川県,横浜市中区,滝之上１２６番地パーク・ハイム山手の杜１２０号室,,14,104,2310837,,,,,,,2025-06-25,1,,,,,アルトパートナーズ,0
538,3020003028793,新規,0,2025-06-25,2025-06-25,合同会社秀,,合同会社,神奈川県,横浜市中区,本牧三之谷４番２５－６０２号,,14,104,2310824,,,,,,,2025-06-25,1,,,,,シュウ,0
539,3020003028802,新規,0,2025-06-25,2025-06-25,合同会社ｍｉｌｕ,,合同会社,神奈川県,横浜市鶴見区,東寺尾北台４―２５マロンヒルズ３０２,,14,101,2300016,,,,,,,2025-06-25,1,,,,,ミル,0
540,3020003028810,新規,0,2025-06-25,2025-06-25,リッチアンドパイン合同会社,,合同会社,神奈川県,横浜市港北区,師岡町２９８番地１アドリーム大倉山７０１号,,14,109,2220002,,,,,,,2025-06-25,1,,,,,リッチアンドパイン,0
541,3020005016912,新規,0,2025-06-25,2025-06-25,一般社団法人いいこと支援ネット,,その他の設立登記法人,神奈川県,横浜市西区,岡野２丁目３番３０号クリエイティブコア,,14,103,2200073,,,,,,,2025-06-25,1,,,,,イイコトシエンネット,0
543,3021001085612,新規,0,2025-06-25,2025-06-25,ＬＯＵＩＳ　ＬＡＢ株式会社,,株式会社,神奈川県,横須賀市,久里浜１丁目２０００番地,,14,201,2390831,,,,,,,2025-06-25,1,,,,,ルイスラボ,0
544,3021001085620,新規,0,2025-06-25,2025-06-25,株式会社ＰＬＯＴ　ＣＲＡＦＴ,,株式会社,神奈川県,伊勢原市,小稲葉１５９８番地の１－１,,14,214,2591122,,,,,,,2025-06-25,1,,,,,プロットクラフト,0
549,3021003016185,新規,0,2025-06-25,2025-06-25,合同会社天,,合同会社,神奈川県,伊勢原市,伊勢原１丁目１１番７号,,14,214,2591131,,,,,,,2025-06-25,1,,,,,テン,0
554,3030001167270,新規,0,2025-06-25,2025-06-25,株式会社新和設備,,株式会社,埼玉県,三郷市,彦江１丁目１４０番地,,11,237,3410058,,,,,,,2025-06-25,1,,,,,シンワセツビ,0
555,3030001167312,新規,0,2025-06-25,2025-06-25,株式会社富澤,,株式会社,埼玉県,さいたま市見沼区,大字御蔵１５２１番地１５,,11,104,3370033,,,,,,,2025-06-25,1,,,,,トミザワ,0
556,3030003027027,新規,0,2025-06-25,2025-06-25,合同会社ＭＺＫ,,合同会社,埼玉県,川口市,飯塚４丁目１７番１８－６０２号,,11,203,3320023,,,,,,,2025-06-25,1,,,,,エムゼットケー,0
568,3080103003360,新規,0,2025-06-25,2025-06-25,合同会社和結,,合同会社,静岡県,沼津市,大岡２４０８番地の６ルミエール大岡２０１号,,22,203,4100022,,,,,,,2025-06-25,1,,,,,ワユイ,0
570,3090001019359,新規,0,2025-06-25,2025-06-25,株式会社ホリカワカンパニー,,株式会社,山梨県,甲府市,朝気２丁目２番１９号,,19,201,4000862,,,,,,,2025-06-25,1,,,,,,0
579,3110001039362,新規,0,2025-06-25,2025-06-25,Ｅ　ＴＲＡＤＥ　ＡＳＳＯＣＩＡＴＥ株式会社,,株式会社,新潟県,新潟市北区,浦ノ入１７４５番地,,15,101,9503305,,,,,,,2025-06-25,1,,,,,イートレードアソシエイト,0
586,3120001276970,新規,0,2025-06-25,2025-06-25,アール・エス・アイ株式会社,,株式会社,大阪府,大阪市中央区,南船場１丁目３番１４号,,27,128,5420081,,,,,,,2025-06-25,1,,,,,アールエスアイ,0
587,3120001277151,新規,0,2025-06-25,2025-06-25,マネジメントサポーター株式会社,,株式会社,大阪府,大阪市北区,梅田１丁目２番２号大阪駅前第２ビル１２－１２,,27,127,5300001,,,,,,,2025-06-25,1,,,,,マネジメントサポーター,0
588,3120001277168,新規,0,2025-06-25,2025-06-25,Ｎ’ｚ　ａｒｕ株式会社,,株式会社,大阪府,大阪市北区,梅田１丁目２番２号大阪駅前第２ビル１２－１２,,27,127,5300001,,,,,,,2025-06-25,1,,,,,エヌズアール,0
589,3120001277201,新規,0,2025-06-25,2025-06-25,株式会社七転八起,,株式会社,大阪府,大阪市中央区,西心斎橋２丁目１８－１５（８０２）,,27,128,5420086,,,,,,,2025-06-25,1,,,,,ナナコロビヤオキ,0
590,3120001277218,新規,0,2025-06-25,2025-06-25,株式会社ニューコネクト,,株式会社,大阪府,枚方市,西船橋２丁目４８番４５－２０３号,,27,210,5731122,,,,,,,2025-06-25,1,,,,,ニューコネクト,0
591,3120001277226,新規,0,2025-06-25,2025-06-25,ＧＩＮＡ株式会社,,株式会社,大阪府,大阪市北区,豊崎４丁目２番１６－６０３号,,27,127,5310072,,,,,,,2025-06-25,1,,,,,ジーナ,0
592,3120001277234,新規,0,2025-06-25,2025-06-25,株式会社ＥＣＯクオリティ,,株式会社,大阪府,大阪市東淀川区,柴島３丁目７番１５号,,27,114,5330024,,,,,,,2025-06-25,1,,,,,エコクオリティ,0
595,3120003029848,新規,0,2025-06-25,2025-06-25,合同会社ＷＩＤＥＮ,,合同会社,大阪府,大阪市西区,立売堀２丁目５－１５－４０４,,27,106,5500012,,,,,,,2025-06-25,1,,,,,ワイデン,0
596,3120003029864,新規,0,2025-06-25,2025-06-25,合同会社恒安信成,,合同会社,大阪府,大阪市中央区,島之内２丁目７番３２号,,27,128,5420082,,,,,,,2025-06-25,1,,,,,コウアンシンセイ,0
600,3122001039374,新規,0,2025-06-25,2025-06-25,株式会社プログレ,,株式会社,大阪府,東大阪市,西岩田３丁目１番１５－３１８号,,27,227,5780947,,,,,,,2025-06-25,1,,,,,プログレ,0
601,3130001079943,新規,0,2025-06-25,2025-06-25,株式会社ＳＹＯＵＫＥＮ,,株式会社,京都府,京都市伏見区,日野田中町７番地６,,26,109,6011425,,,,,,,2025-06-25,1,,,,,ショウケン,0
602,3130001079951,新規,0,2025-06-25,2025-06-25,株式会社ＴＩＫ,,株式会社,京都府,京都市西京区,大枝東新林町３丁目５－２３－３０２,,26,111,6101142,,,,,,,2025-06-25,1,,,,,テック,0
607,3140001139036,新規,0,2025-06-25,2025-06-25,株式会社竹之内機設,,株式会社,兵庫県,尼崎市,稲葉荘１丁目１８番２０号,,28,202,6600064,,,,,,,2025-06-25,1,,,,,タケノウチキセツ,0
608,3140001139044,新規,0,2025-06-25,2025-06-25,株式会社ＴＳＵＮＡＧＵ　ＣＯＲＰＯＲＡＴＩＯＮ,,株式会社,兵庫県,豊岡市,日高町岩中６３４番地の１,,28,209,6695302,,,,,,,2025-06-25,1,,,,,ツナグコーポレーション,0
611,3150001028213,新規,0,2025-06-25,2025-06-25,株式会社日野口工務店,,株式会社,奈良県,橿原市,土橋町３３１番地の１－２０１,,29,205,6340844,,,,,,,2025-06-25,1,,,,,ヒノグチコウムテン,0
613,3160001026851,新規,0,2025-06-25,2025-06-25,株式会社加藤造園土木,,株式会社,滋賀県,米原市,多和田５８８番地３,,25,214,5210081,,,,,,,2025-06-25,1,,,,,カトウゾウエンドボク,0
621,3180001167454,新規,0,2025-06-25,2025-06-25,株式会社ハピネスシェアーズ,,株式会社,愛知県,名古屋市西区,上名古屋２丁目３－１６,,23,104,4510025,,,,,,,2025-06-25,1,,,,,ハピネスシェアーズ,0
627,3200001043925,新規,0,2025-06-25,2025-06-25,株式会社ウォーターワークス,,株式会社,岐阜県,可児市,今２２２２番地１,,21,214,5090246,,,,,,,2025-06-25,1,,,,,ウォーターワークス,0
639,3240001065115,新規,0,2025-06-25,2025-06-25,株式会社トータテ不動産販売マンションＰｌｕｓ,,株式会社,広島県,広島市中区,国泰寺町２丁目４番７号,,34,101,7300042,,,,,,,2025-06-25,1,,,,,トータテフドウサンハンバイマンションプラス,0
643,3250001021208,新規,0,2025-06-25,2025-06-25,株式会社トラストエージェンシー,,株式会社,山口県,下関市,椋野町３丁目１２番１号,,35,201,7510816,,,,,,,2025-06-25,1,,,,,トラストエージェンシー,0
644,3250003003757,新規,0,2025-06-25,2025-06-25,合同会社ｆｕｍｉｘ,,合同会社,山口県,下関市,伊倉本町５番２号,,35,201,7510863,,,,,,,2025-06-25,1,,,,,フミックス,0
647,3260001040297,新規,0,2025-06-25,2025-06-25,優和株式会社,,株式会社,岡山県,岡山市北区,奉還町３丁目１番２０－３号２号室,,33,101,7000026,,,,,,,2025-06-25,1,,,,,ユウワ,0
656,3330001033327,新規,0,2025-06-25,2025-06-25,株式会社ＮＥＷ‐ＴＥＮ,,株式会社,熊本県,熊本市東区,榎町３番５２号,,43,102,8620917,,,,,,,2025-06-25,1,,,,,ニューテン,0
658,3330003011074,新規,0,2025-06-25,2025-06-25,合同会社Ｂｌｅｓｓｅｄｈｅａｒｔ,,合同会社,熊本県,熊本市南区,富合町清藤４３４番地１９,,43,104,8614151,,,,,,,2025-06-25,1,,,,,ブレスドハート,0
661,3360001000844,新規,0,2025-06-25,2025-06-25,株式会社倉吉産業,,株式会社,沖縄県,那覇市,三原１丁目１１番１９号,,47,201,9020063,,,,,,,2025-06-25,1,,,,,クラヨシサンギョウ,0
663,3370001052736,新規,0,2025-06-25,2025-06-25,ＲＥＮＵＡ株式会社,,株式会社,宮城県,大崎市,古川東町１番２８号,,04,215,9896166,,,,,,,2025-06-25,1,,,,,レヌア,0
664,3370001052744,新規,0,2025-06-25,2025-06-25,株式会社Ｗｉｔｈ　Ｓｏｒａ,,株式会社,宮城県,富谷市,ひより台１丁目３５番地１６,,04,216,9813304,,,,,,,2025-06-25,1,,,,,ウィズソラ,0
671,3380005012982,新規,0,2025-06-25,2025-06-25,一般社団法人Ｓ．Ｈ．Ｆ,,その他の設立登記法人,福島県,相馬郡新地町,小川字天竺原１９番地の１１,,07,561,9792703,,,,,,,2025-06-25,1,,,,,エスエイチエフ,0
678,3410005006650,新規,0,2025-06-25,2025-06-25,一般社団法人秋田大学イノベーションアンドコンサルティング,,その他の設立登記法人,秋田県,秋田市,手形学園町１番１号,,05,201,0100852,,,,,,,2025-06-25,1,,,,,アキタダイガクイノベーションアンドコンサルティング,0
690,3500001026354,新規,0,2025-06-25,2025-06-25,株式会社真絆,,株式会社,愛媛県,今治市,新谷甲１２番地５,,38,202,7940850,,,,,,,2025-06-25,1,,,,,シンキ,0
693,3700150131240,新規,0,2025-06-25,2025-06-25,ＣＰＴ　Ｇｒｏｕｐ　Ｊｏｉｎｔ　Ｓｔｏｃｋ　Ｃｏｍｐａｎｙ,,外国会社等,東京都,中央区,日本橋人形町３丁目３－５,,13,102,1030013,７ｔｈ　Ｆｌｏｏｒ，Ｋｉｍ　Ａｎｈ　Ｂｕｉｌｄｉｎｇ，Ｎｏ．１，Ａｌｌｅｙ　７８，Ｄｕｙ　Ｔａｎ　Ｓｔｒｅｅｔ，Ｄｉｃｈ　Ｖｏｎｇ　Ｈａｕ，Ｃａｕ　Ｇｉａｙ，Ｈａｎｏｉ，Ｖｉｅｔｎａｍ,,,,,,2025-06-25,1,,,,,シーピーテイグループカブシキガイシヤ,0
694,3700150131265,新規,0,2025-06-25,2025-06-25,Ｅ．Ｔ．Ｃ．ＴＲＡＤＩＮＧ,,外国会社等,茨城県,日立市,金沢町４丁目６０オフィス１Ａ,,08,202,3160015,スリランカ民主社会主義共和国、キャンディ、アラワトゥゴダ、マタレロード、Ｎｏ．８９／Ｄ,,,,,,2025-06-25,1,,,,,イーテイーシートレーデイング,0
700,4010001255299,新規,0,2025-06-25,2025-06-25,アンド・エナジー株式会社,,株式会社,東京都,中央区,銀座２丁目１５－２ＫＲＧｉｎｚａＩＩ４Ｆ,00139688,13,102,1040061,,,,,,,2025-06-25,1,,,,,アンドエナジー,0
701,4010001256215,新規,0,2025-06-25,2025-06-25,株式会社久保村食文化研究所,,株式会社,東京都,中央区,日本橋蛎殻町１丁目３８番１２号,,13,102,1030014,,,,,,,2025-06-25,1,,,,,クボムラショクブンカケンキュウジョ,0
704,4010005040103,新規,0,2025-06-25,2025-06-25,一般社団法人茶道織部流古織公顕彰会,,その他の設立登記法人,東京都,千代田区,平河町１丁目４番１２号,,13,101,1020093,,,,,,,2025-06-25,1,,,,,サドウオリベリュウコオリコウケンショウカイ,0
705,4010005040251,新規,0,2025-06-25,2025-06-25,ＤＨ町田プロジェクト一般社団法人,,その他の設立登記法人,東京都,千代田区,内神田１丁目３番７号４０１あすな会計事務所内,,13,101,1010047,,,,,,,2025-06-25,1,,,,,ディーエイチマチダプロジェクト,0
706,4010101016741,新規,0,2025-06-25,2025-06-25,株式会社カイシンホールディングス,,株式会社,東京都,八王子市,大塚６５３番地１,,13,201,1920352,,,,,,,2025-06-25,1,,,,,カイシンホールディングス,0
717,4010403035381,新規,0,2025-06-25,2025-06-25,ＣｅＶｉｅＡｎ合同会社,,合同会社,東京都,港区,北青山１丁目３番１号アールキューブ青山３階,,13,103,1070061,,,,,,,2025-06-25,1,,,,,セビエアン,0
718,4010403035415,新規,0,2025-06-25,2025-06-25,合同会社つながる場,,合同会社,東京都,港区,北青山１丁目３－３三橋ビル３階,,13,103,1070061,,,,,,,2025-06-25,1,,,,,ツナガルバ,0
719,4010403035448,新規,0,2025-06-25,2025-06-25,合同会社コココ,,合同会社,東京都,港区,南青山６丁目６－２１－１００２,,13,103,1070062,,,,,,,2025-06-25,1,,,,,コココ,0
720,4010405024473,新規,0,2025-06-25,2025-06-25,ＢＳＴ一般社団法人,,その他の設立登記法人,東京都,港区,麻布台１丁目３番３号,,13,103,1060041,,,,,,,2025-06-25,1,,,,,ビーエスティー,0
721,4010501054283,新規,0,2025-06-25,2025-06-25,インジエックス株式会社,,株式会社,東京都,台東区,浅草３丁目１５番２号タンジェリン浅草１０２号室,,13,106,1110032,,,,,,,2025-06-25,1,,,,,インジエックス,0
724,4010601067499,新規,0,2025-06-25,2025-06-25,ＳＮＭ株式会社,,株式会社,東京都,墨田区,江東橋４丁目２１番６－１１１４号錦糸町ハイタウン,,13,107,1300022,,,,,,,2025-06-25,1,,,,,エスエヌエム,0
725,4010601067508,新規,0,2025-06-25,2025-06-25,株式会社Ｂｏｏｓｔ,,株式会社,東京都,江東区,大島３丁目２１番２－２０２号,,13,108,1360072,,,,,,,2025-06-25,1,,,,,ブースト,0
740,4011003021846,新規,0,2025-06-25,2025-06-25,青花ヘルスケアラボ合同会社,,合同会社,東京都,渋谷区,恵比寿１丁目９－７ＩＴＯＸビル６Ｆ,,13,113,1500013,,,,,,,2025-06-25,1,,,,,セイカヘルスケアラボ,0
741,4011003021994,新規,0,2025-06-25,2025-06-25,合同会社Ａｊｉｍｉ　Ｗｏｒｋｓ,,合同会社,東京都,渋谷区,神南１丁目１１－４ＦＰＧリンクス神南５階,,13,113,1500041,,,,,,,2025-06-25,1,,,,,アジミワークス,0
742,4011003022002,新規,0,2025-06-25,2025-06-25,合同会社ｏｎｅｔｉｍｅｓｏｎｅ,,合同会社,東京都,渋谷区,神南１丁目１１－４ＦＰＧリンクス神南５Ｆ,,13,113,1500041,,,,,,,2025-06-25,1,,,,,ワンタイムスワン,0
744,4011101112134,新規,0,2025-06-25,2025-06-25,株式会社ラッキージョブ,,株式会社,東京都,新宿区,大久保２丁目１８－１０－７０７,,13,104,1690072,,,,,,,2025-06-25,1,,,,,ラッキージョブ,0
746,4011105011480,新規,0,2025-06-25,2025-06-25,一般社団法人御所鴨の森協会,,その他の設立登記法人,東京都,新宿区,早稲田鶴巻町５４４番地１１プライムメゾン早稲田１２０５,,13,104,1620041,,,,,,,2025-06-25,1,,,,,ゴセカモノモリキョウカイ,0
755,4011601028747,新規,0,2025-06-25,2025-06-25,株式会社ＰＨＯＴＯＧＲＡＰＨＥＲＨＡＬ,,株式会社,東京都,練馬区,南大泉３丁目１９番１７号,,13,120,1780064,,,,,,,2025-06-25,1,,,,,フォトグラファーハル,0
756,4011701028457,新規,0,2025-06-25,2025-06-25,Ｈａｎａ　Ｍｉｃｈｉ株式会社,,株式会社,東京都,江戸川区,松江４丁目３２番１５号,,13,123,1320025,,,,,,,2025-06-25,1,,,,,ハナミチ,0
759,4011801046359,新規,0,2025-06-25,2025-06-25,株式会社ＧｏｌｄｅｎＯｒａｎｇｅＴｅｃｈ,,株式会社,東京都,葛飾区,東水元４丁目４－１５,,13,122,1250033,,,,,,,2025-06-25,1,,,,,ゴールデンオレンジテック,0
760,4011801046367,新規,0,2025-06-25,2025-06-25,株式会社ＭＩＹＡＢＩ,,株式会社,東京都,足立区,関原３丁目３９番１３号,,13,121,1230852,,,,,,,2025-06-25,1,,,,,ミヤビ,0
762,4012401043044,新規,0,2025-06-25,2025-06-25,株式会社おおたま,,株式会社,東京都,武蔵野市,吉祥寺北町１丁目１３番２号,,13,203,1800001,,,,,,,2025-06-25,1,,,,,オオタマ,0
763,4012401043267,新規,0,2025-06-25,2025-06-25,Ｅａｒｔｈｅｎ　ｂｒｉｄｇｅ株式会社,,株式会社,東京都,多摩市,南野３丁目４番地の１１,,13,224,2060032,,,,,,,2025-06-25,1,,,,,アースンブリッジ,0
764,4012401043275,新規,0,2025-06-25,2025-06-25,大木ホールディングス株式会社,,株式会社,東京都,三鷹市,井の頭５丁目２５番１４号,,13,204,1810001,,,,,,,2025-06-25,1,,,,,オオキホールディングス,0
767,4012403007204,新規,0,2025-06-25,2025-06-25,合同会社栄光ファミリーオフィス,,合同会社,東京都,稲城市,向陽台６丁目１８番地の３,,13,225,2060803,,,,,,,2025-06-25,1,,,,,エイコウファミリーオフィス,0
770,4013301054511,新規,0,2025-06-25,2025-06-25,株式会社ＴＫｌｉｎｋｓ,,株式会社,東京都,豊島区,東池袋２丁目６２番８号ＢＩＧオフィスプラザ池袋１２０６,,13,116,1700013,,,,,,,2025-06-25,1,,,,,ティーケーリンクス,0
775,4020001163526,新規,0,2025-06-25,2025-06-25,株式会社すみれ園,,株式会社,神奈川県,川崎市麻生区,東百合丘２丁目４１番４－２号,,14,137,2150012,,,,,,,2025-06-25,1,,,,,スミレエン,0
776,4020001163542,新規,0,2025-06-25,2025-06-25,株式会社きょう屋,,株式会社,神奈川県,川崎市高津区,末長２丁目３９番５号,,14,134,2130013,,,,,,,2025-06-25,1,,,,,キョウヤ,0
777,4020001163559,新規,0,2025-06-25,2025-06-25,株式会社ＮＯＸＰＨＥＲＥ,,株式会社,神奈川県,横浜市青葉区,市ケ尾町５４２－１,,14,117,2250024,,,,,,,2025-06-25,1,,,,,ノクスフィア,0
783,4020003028735,新規,0,2025-06-25,2025-06-25,合同会社Ｒｅｄｗａｖｅ　Ｓｔｕｄｉｏ,,合同会社,神奈川県,横浜市神奈川区,金港町５－１４クアドリフォリオ８階,,14,102,2210056,,,,,,,2025-06-25,1,,,,,,0
784,4020003028776,新規,0,2025-06-25,2025-06-25,合同会社Ｎｅｗ　Ｄａｙ,,合同会社,神奈川県,横浜市港北区,篠原台町１番２６号ハイツ生田Ａ棟１０２,,14,109,2220024,,,,,,,2025-06-25,1,,,,,ニューデイ,0
785,4020003028792,新規,0,2025-06-25,2025-06-25,合同会社ワイズ,,合同会社,神奈川県,横浜市南区,中島町４丁目６６藤和シティコープ弘明寺２０７,,14,105,2320055,,,,,,,2025-06-25,1,,,,,ワイズ,0
787,4021001085553,新規,0,2025-06-25,2025-06-25,株式会社Ｒｅファイン,,株式会社,神奈川県,相模原市中央区,上溝７丁目１１番２３－３０１号,,14,152,2520243,,,,,,,2025-06-25,1,,,,,リファイン,0
789,4021003016192,新規,0,2025-06-25,2025-06-25,合同会社ＫＭＳ,,合同会社,神奈川県,高座郡寒川町,大曲４丁目８－２３,,14,321,2530113,,,,,,,2025-06-25,1,,,,,ケーエムエス,0
790,4021003016201,新規,0,2025-06-25,2025-06-25,Ｒ‐あアル合同会社,,合同会社,神奈川県,大和市,南林間２丁目８番２０号第１３明智ビル２０３,,14,213,2420006,,,,,,,2025-06-25,1,,,,,アアル,0
801,4030001167245,新規,0,2025-06-25,2025-06-25,ミドリ株式会社,,株式会社,埼玉県,戸田市,喜沢１丁目３７番地の１（サンクレイドル西川口ＩＩＩ５０１号室）,00139678,11,224,3350013,,,,,,,2025-06-25,1,,,,,ミドリ,0
802,4030001167294,新規,0,2025-06-25,2025-06-25,株式会社Ｎ‐ＤＡＳＨ,,株式会社,埼玉県,朝霞市,三原３丁目６番２号,,11,227,3510025,,,,,,,2025-06-25,1,,,,,エヌダッシュ,0
804,4030003027050,新規,0,2025-06-25,2025-06-25,合同会社ＫＲＢ,,合同会社,埼玉県,川越市,大字野田１２９７－１－５０７,,11,201,3501111,,,,,,,2025-06-25,1,,,,,ケアールビー,0
805,4030003027067,新規,0,2025-06-25,2025-06-25,合同会社ｏｎｅ　ａｎｄ　ｏｎｌｙ,,合同会社,埼玉県,川口市,大字東本郷１５７２番地の６,,11,203,3340063,,,,,,,2025-06-25,1,,,,,ワンアンドオンリー,0
811,4040001139375,新規,0,2025-06-25,2025-06-25,株式会社ｎｕｍｂｅｒ　ｏｎｅ,,株式会社,千葉県,野田市,木間ケ瀬９５１－２,,12,208,2700222,,,,,,,2025-06-25,1,,,,,ナンバーワン,0
813,4040003027900,新規,0,2025-06-25,2025-06-25,合同会社宝箱,,合同会社,千葉県,松戸市,日暮３丁目１３番地の１,,12,207,2702253,,,,,,,2025-06-25,1,,,,,タカラバコ,0
814,4040003027909,新規,0,2025-06-25,2025-06-25,ＪＵＤＥ　ＡＵＴＯ合同会社,,合同会社,千葉県,八千代市,米本１３５９番地米本団地４街区３４棟４１０号室,,12,221,2760015,,,,,,,2025-06-25,1,,,,,ジュードオート,0
848,4120001277126,新規,0,2025-06-25,2025-06-25,美萍楽株式会社,,株式会社,大阪府,大阪市住之江区,中加賀屋３丁目４－２１－４０８号室,,27,125,5590017,,,,,,,2025-06-25,1,,,,,メイピンラ,0
849,4120001277167,新規,0,2025-06-25,2025-06-25,ｉｘｃ株式会社,,株式会社,大阪府,大阪市中央区,南船場３丁目２番２２号おおきに南船場ビル２０５,,27,128,5420081,,,,,,,2025-06-25,1,,,,,アイクロッシー,0
850,4120001277183,新規,0,2025-06-25,2025-06-25,株式会社Ｌ‐ｂｒｉｇｈｔ,,株式会社,大阪府,大阪市淀川区,西中島３丁目１番４号プロジェクトビル２０２号,,27,123,5320011,,,,,,,2025-06-25,1,,,,,エルブライト,0
851,4120001277191,新規,0,2025-06-25,2025-06-25,株式会社ＰＲＥＳ,,株式会社,大阪府,大阪市北区,梅田１丁目２番２号大阪駅前第２ビル１２－１２,,27,127,5300001,,,,,,,2025-06-25,1,,,,,プレス,0
852,4120001277200,新規,0,2025-06-25,2025-06-25,株式会社ＺＥＲＯ,,株式会社,大阪府,大阪市中央区,宗右衛門町１番１４号ＢＲＡＶＥ宗右衛門町ＩＩ２階３階,00139685,27,128,5420084,,,,,,,2025-06-25,1,,,,,ゼロ,0
853,4120001277217,新規,0,2025-06-25,2025-06-25,株式会社ＡＸＩＳ,,株式会社,大阪府,大阪市平野区,加美北１丁目５番２５－７０１号,,27,126,5470001,,,,,,,2025-06-25,1,,,,,アクシス,0
858,4120003029839,新規,0,2025-06-25,2025-06-25,ＳＡＫＵＲＡ合同会社,,合同会社,大阪府,大阪市浪速区,日本橋東３丁目６番１３－２０３号,,27,111,5560006,,,,,,,2025-06-25,1,,,,,サクラ,0
868,4130001079959,新規,0,2025-06-25,2025-06-25,株式会社Ｃｏｍｍｏｎｓ,,株式会社,京都府,京都市中京区,竹屋町通両替町東入西方寺町１５５番地１,,26,104,6040866,,,,,,,2025-06-25,1,,,,,コモンズ,0
869,4130001079967,新規,0,2025-06-25,2025-06-25,株式会社ＨＯＵＳＥ　ＧＯＯＤ,,株式会社,京都府,京都市伏見区,奉行前町２番地２,,26,109,6128108,,,,,,,2025-06-25,1,,,,,ハウスグッド,0
870,4130001080000,新規,0,2025-06-25,2025-06-25,智航株式会社,,株式会社,京都府,京都市上京区,河原町通丸太町上る桝屋町３５３番地４,,26,102,6020877,,,,,,,2025-06-25,1,,,,,チコウ,0
876,4140001139035,新規,0,2025-06-25,2025-06-25,株式会社たのシニア,,株式会社,兵庫県,姫路市,広畑区長町１丁目８０番地３武本ビル５０３号,,28,201,6711125,,,,,,,2025-06-25,1,,,,,タノシニア,0
877,4140001139043,新規,0,2025-06-25,2025-06-25,株式会社ＮＫ,,株式会社,兵庫県,尼崎市,武庫町１丁目４５番１号,,28,202,6610044,,,,,,,2025-06-25,1,,,,,エヌケー,0
886,4160001026859,新規,0,2025-06-25,2025-06-25,株式会社ＭＡＲＵＷＡ,,株式会社,滋賀県,大津市,真野５丁目１２番１３号,,25,201,5200232,,,,,,,2025-06-25,1,,,,,マルワ,0
901,4240001065106,新規,0,2025-06-25,2025-06-25,株式会社エイス,,株式会社,広島県,広島市安佐北区,可部４丁目８番１３号,,34,106,7310221,,,,,,,2025-06-25,1,,,,,エイス,0
902,4240001065114,新規,0,2025-06-25,2025-06-25,株式会社レーザープロテクトジャパン,,株式会社,広島県,広島市佐伯区,千同２丁目１４番１１号,,34,108,7315141,,,,,,,2025-06-25,1,,,,,レーザープロテクトジャパン,0
909,4290003017042,新規,0,2025-06-25,2025-06-25,合同会社ミライ塾,,合同会社,福岡県,福岡市中央区,唐人町１丁目６－１７ＳＵＢＷＡＹ唐人町２０２,,40,133,8100063,,,,,,,2025-06-25,1,,,,,ミライジュク,0
915,4320001021174,新規,0,2025-06-25,2025-06-25,株式会社実栄電設,,株式会社,大分県,津久見市,高洲町８番３号,,44,207,8792412,,,,,,,2025-06-25,1,,,,,ミエデンセツ,0
921,4360003015047,新規,0,2025-06-25,2025-06-25,合同会社ＰＥＮＳＡＲ,,合同会社,沖縄県,那覇市,首里鳥堀町４丁目８４番地６,,47,201,9030805,,,,,,,2025-06-25,1,,,,,ペンサール,0
922,4370001052743,新規,0,2025-06-25,2025-06-25,株式会社ヤマロク古川,,株式会社,宮城県,大崎市,古川駅前大通４丁目４番２１号,,04,215,9896162,,,,,,,2025-06-25,1,,,,,ヤマロクフルカワ,0
924,4380001035409,新規,0,2025-06-25,2025-06-25,株式会社ＳＵＮ　ＦＬＯＷＥＲ,,株式会社,福島県,いわき市,勿来町窪田道山２番地の１０,,07,204,9790141,,,,,,,2025-06-25,1,,,,,サンフラワー,0
926,4400003003484,新規,0,2025-06-25,2025-06-25,合同会社トウキ,,合同会社,岩手県,盛岡市,本宮１丁目２２番３２号,,03,201,0200866,,,,,,,2025-06-25,1,,,,,トウキ,0
930,4420003003136,新規,0,2025-06-25,2025-06-25,合同会社田畑商事,,合同会社,青森県,三戸郡五戸町,大字浅水字陣場９６－１,,02,442,0391528,,,,,,,2025-06-25,1,,,,,タバタショウジ,0
932,4430003017804,新規,0,2025-06-25,2025-06-25,合同会社モンターニュ治部,,合同会社,北海道,札幌市豊平区,美園二条１丁目１番２５－４０１号,,01,105,0620002,,,,,,,2025-06-25,1,,,,,モンターニュジベ,0
935,4480005007096,新規,0,2025-06-25,2025-06-25,ＮＰＯ法人七色Ｓｈａｒｅ,,その他の設立登記法人,徳島県,徳島市,川内町榎瀬５０２番地の７３,,36,201,7710144,,,,,,,2025-06-25,1,,,,,ナナイロシェア,0
937,4500001026361,新規,0,2025-06-25,2025-06-25,株式会社みのり物流,,株式会社,愛媛県,松山市,西垣生町２１５２番地１,,38,201,7918044,,,,,,,2025-06-25,1,,,,,ミノリブツリュウ,0
938,4500003003540,新規,0,2025-06-25,2025-06-25,合同会社カウエモン,,合同会社,愛媛県,四国中央市,川之江町２１１７番地の３,,38,213,7990101,,,,,,,2025-06-25,1,,,,,カウエモン,0
944,4700150131264,新規,0,2025-06-25,2025-06-25,ＳＡＤＡＮＪＡＮＡ　ＭＯＴＯＲＳ,,外国会社等,千葉県,八街市,八街へ１０４３番地３９,,12,230,2891113,スリランカ民主社会主義共和国、ナワラピティヤ、ウェリゴダワッタ、Ｎｏ．３４２,,,,,,2025-06-25,1,,,,,サダンジヤナモータース,0
948,5010001256197,新規,0,2025-06-25,2025-06-25,株式会社Ａｃｔ　Ｂｉｚ,,株式会社,東京都,千代田区,神田須田町１丁目７番８号ＶＯＲＴ秋葉原ＩＶ２階,00139680,13,101,1010041,,,,,,,2025-06-25,1,,,,,アクトビズ,0
949,5010001256206,新規,0,2025-06-25,2025-06-25,ノヴァリンク株式会社,,株式会社,東京都,中央区,東日本橋３丁目９番１０号ＤＩＮＯ日本橋ビル,,13,102,1030004,,,,,,,2025-06-25,1,,,,,ノヴァリンク,0
950,5010001256271,新規,0,2025-06-25,2025-06-25,上場会社役員ガバナンスフォーラム株式会社,,株式会社,東京都,中央区,銀座１丁目１５番４号,,13,102,1040061,,,,,,,2025-06-25,1,,,,,ジョウジョウガイシャヤクインガバナンスフォーラム,0
964,5010401191267,新規,0,2025-06-25,2025-06-25,株式会社ＩｎＣｌｕｓｉｖｅ,,株式会社,東京都,港区,北青山１丁目３番１号アールキューブ青山３階,,13,103,1070061,,,,,,,2025-06-25,1,,,,,インクルーシブ,0
971,5010601067481,新規,0,2025-06-25,2025-06-25,佳琲通商株式会社,,株式会社,東京都,江東区,海辺１５番５号２０８室,,13,108,1350012,,,,,,,2025-06-25,1,,,,,カハイツウショウ,0
972,5010601067498,新規,0,2025-06-25,2025-06-25,ＣＯＲＥＸ‐ＪＡＰＡＮ株式会社,,株式会社,東京都,江東区,青海２丁目７番４号ｔｈｅＳＯＨＯ９０１号室,,13,108,1350064,,,,,,,2025-06-25,1,,,,,コレックスジャパン,0
973,5010601067515,新規,0,2025-06-25,2025-06-25,株式会社Ｒｉ‐ｃｈｅ,,株式会社,東京都,江東区,豊洲４丁目１１番２０－７１６号,,13,108,1350061,,,,,,,2025-06-25,1,,,,,リーチェ,0
976,5010703007781,新規,0,2025-06-25,2025-06-25,ＯｐｅｎＭｉ合同会社,,合同会社,東京都,品川区,西五反田２丁目９－７ドルミ五反田４０７号,,13,109,1410031,,,,,,,2025-06-25,1,,,,,オープンミー,0
978,5010901057629,新規,0,2025-06-25,2025-06-25,株式会社ＳＡＫＡＴＡ　ＲＥＡＬ　ＥＳＴＡＴＥ,,株式会社,東京都,世田谷区,駒沢４丁目１９番１１－３０１号,,13,112,1540012,,,,,,,2025-06-25,1,,,,,サカタリアルエステート,0
979,5010903010024,新規,0,2025-06-25,2025-06-25,合同会社ラモス,,合同会社,東京都,世田谷区,下馬１丁目１５－１４,,13,112,1540002,,,,,,,2025-06-25,1,,,,,ラモス,0
984,5011003021853,新規,0,2025-06-25,2025-06-25,合同会社Ｏｆｆｉｃｅ　Ｃａｌｉｃｏ,,合同会社,東京都,目黒区,三田２丁目７番５号ＬＡＰｉＳ恵比寿２－２０２,,13,110,1530062,,,,,,,2025-06-25,1,,,,,オフィスキャリコ,0
988,5011101112075,新規,0,2025-06-25,2025-06-25,Ｓｕｍｕ株式会社,,株式会社,東京都,新宿区,高田馬場４丁目３９－７,,13,104,1690075,,,,,,,2025-06-25,1,,,,,スム,0
989,5011101112133,新規,0,2025-06-25,2025-06-25,株式会社コンフォート,,株式会社,東京都,新宿区,市谷薬王寺町１６番２４号カスタリア市ヶ谷２０２号室,,13,104,1620063,,,,,,,2025-06-25,1,,,,,コンフォート,0
990,5011101112232,新規,0,2025-06-25,2025-06-25,株式会社トレンドモンスター,,株式会社,東京都,新宿区,西落合２丁目１０番２０号いらかビル４０１,,13,104,1610031,,,,,,,2025-06-25,1,,,,,トレンドモンスター,0
991,5011101112265,新規,0,2025-06-25,2025-06-25,株式会社ＷｅｌｌＢｉｔａ,,株式会社,東京都,新宿区,西新宿３丁目２０番２号,,13,104,1600023,,,,,,,2025-06-25,1,,,,,ウェルビータ,0
995,5011203004740,新規,0,2025-06-25,2025-06-25,合同会社ボルテック,,合同会社,東京都,中野区,上高田５丁目１１－９－１０３,,13,114,1640002,,,,,,,2025-06-25,1,,,,,ボルテック,0
998,5012301014441,新規,0,2025-06-25,2025-06-25,株式会社Ｓｏｌｉｅｖｅ,,株式会社,東京都,町田市,森野１丁目１０番７号,,13,209,1940022,,,,,,,2025-06-25,1,,,,,ソリーヴ,0
1000,5012403007203,新規,0,2025-06-25,2025-06-25,合同会社下田電設,,合同会社,東京都,武蔵野市,吉祥寺南町５丁目５番１２号マイン武蔵野１０２,,13,203,1800003,,,,,,,2025-06-25,1,,,,,シモダデンセツ,0
1003,5020001163558,新規,0,2025-06-25,2025-06-25,株式会社向日葵,,株式会社,神奈川県,川崎市川崎区,東田町３番地１９アービラ東田１Ｆ,,14,131,2100005,,,,,,,2025-06-25,1,,,,,ヒマワリ,0
1004,5020001163566,新規,0,2025-06-25,2025-06-25,株式会社サニー,,株式会社,神奈川県,横浜市中区,千歳町２番地２,,14,104,2310035,,,,,,,2025-06-25,1,,,,,サニー,0
1008,5020003028742,新規,0,2025-06-25,2025-06-25,ＣＯＳＭＯＳ　ＡＬＬＩＡＮＣＥ合同会社,,合同会社,神奈川県,川崎市多摩区,生田７丁目９－３,,14,135,2140038,,,,,,,2025-06-25,1,,,,,コスモスアライアンス,0
1009,5020003028783,新規,0,2025-06-25,2025-06-25,合同会社アウトドアアクティビティ,,合同会社,神奈川県,川崎市中原区,中丸子７６４番地,,14,133,2110012,,,,,,,2025-06-25,1,,,,,アウトドアアクティビティ,0
1010,5020003028791,新規,0,2025-06-25,2025-06-25,エーアンドアイ合同会社,,合同会社,神奈川県,横浜市都筑区,富士見が丘３０番２４号,,14,118,2240051,,,,,,,2025-06-25,1,,,,,エーアンドアイ,0
1013,5021003016126,新規,0,2025-06-25,2025-06-25,合同会社ｒｅｒａｒｅｃｏｍｐａｎｙ,,合同会社,神奈川県,大和市,福田６０３５,,14,213,2420024,,,,,,,2025-06-25,1,,,,,リレアカンパニー,0
1014,5021003016200,新規,0,2025-06-25,2025-06-25,ＨＡＶＥＮ合同会社,,合同会社,神奈川県,愛甲郡愛川町,中津３７６８番地の２,,14,401,2430303,,,,,,,2025-06-25,1,,,,,ヘイブン,0
1015,5030001167285,新規,0,2025-06-25,2025-06-25,株式会社ＴｅｅＰｅｅ,,株式会社,埼玉県,草加市,金明町２０３番地７,,11,221,3400052,,,,,,,2025-06-25,1,,,,,ティーピー,0
1019,5030003027074,新規,0,2025-06-25,2025-06-25,合同会社イベントスタイル,,合同会社,埼玉県,さいたま市見沼区,大字蓮沼４５０番地１１,,11,104,3370015,,,,,,,2025-06-25,1,,,,,イベントスタイル,0
1020,5030005022197,新規,0,2025-06-25,2025-06-25,一般社団法人ＨＯＮＵ,,その他の設立登記法人,埼玉県,加須市,東栄２丁目１５番６０号,,11,210,3470064,,,,,,,2025-06-25,1,,,,,ホヌ,0
1023,5040001139366,新規,0,2025-06-25,2025-06-25,ジェッティー株式会社,,株式会社,千葉県,松戸市,八ケ崎３丁目４９番地の１５,,12,207,2700023,,,,,,,2025-06-25,1,,,,,ジェッティー,0
1024,5040001139374,新規,0,2025-06-25,2025-06-25,株式会社ｆｌｏｗ,,株式会社,千葉県,千葉市美浜区,中瀬２丁目６－１ＷＢＧマリブイースト１５Ｆ,,12,106,2610023,,,,,,,2025-06-25,1,,,,,フロウ,0
1025,5040001139399,新規,0,2025-06-25,2025-06-25,株式会社成和総業,,株式会社,千葉県,我孫子市,我孫子２丁目３－１５１４,,12,222,2701166,,,,,,,2025-06-25,1,,,,,セイワソウギョウ,0
1026,5040003027916,新規,0,2025-06-25,2025-06-25,国美合同会社,,合同会社,千葉県,市川市,新井３丁目３－６ローズマンション南行徳２０７号室,,12,203,2720144,,,,,,,2025-06-25,1,,,,,コクミ,0
1029,5060001038327,新規,0,2025-06-25,2025-06-25,株式会社高橋,00139679,株式会社,栃木県,宇都宮市,御幸町１７３番地３,,09,201,3210984,,,,,,,2025-06-25,1,,,,,タカハシ,0
1033,5080001026998,新規,0,2025-06-25,2025-06-25,株式会社セードルコーポレーション,,株式会社,静岡県,静岡市葵区,沓谷２丁目１０番１５号,,22,101,4200816,,,,,,,2025-06-25,1,,,,,セードルコーポレーション,0
1034,5080101025586,新規,0,2025-06-25,2025-06-25,株式会社ＳｏｆｉａＬｉｎｋ,,株式会社,静岡県,沼津市,足高４４１番地の１２４５,,22,203,4100001,,,,,,,2025-06-25,1,,,,,ソフィアリンク,0
1035,5080401027992,新規,0,2025-06-25,2025-06-25,株式会社ヤマソウ,,株式会社,静岡県,菊川市,吉沢１３９番地,,22,224,4390009,,,,,,,2025-06-25,1,,,,,ヤマソウ,0
1041,5110001039369,新規,0,2025-06-25,2025-06-25,株式会社はなまる,,株式会社,新潟県,上越市,春日新田２丁目２４番６１号,,15,222,9420061,,,,,,,2025-06-25,1,,,,,ハナマル,0
1042,5110001039377,新規,0,2025-06-25,2025-06-25,株式会社メディアサービス中村,,株式会社,新潟県,新潟市西区,上新栄町５丁目８番１６号,,15,107,9502076,,,,,,,2025-06-25,1,,,,,メディアサービスナカムラ,0
1046,5120001277166,新規,0,2025-06-25,2025-06-25,株式会社ＦＥＬＬＯＷＳ　ＪＡＰＡＮ,,株式会社,大阪府,大阪市中央区,本町４丁目４番１０号イエント本町ビル２Ｆ,,27,128,5410053,,,,,,,2025-06-25,1,,,,,フェローズジャパン,0
1047,5120001277208,新規,0,2025-06-25,2025-06-25,株式会社エンラーソ,,株式会社,大阪府,大阪市淀川区,西宮原２丁目７番８－１３０３号,,27,123,5320004,,,,,,,2025-06-25,1,,,,,エンラーソ,0
1048,5120001277216,新規,0,2025-06-25,2025-06-25,徳懋株式会社,00139689,株式会社,大阪府,大阪市住吉区,長居西１丁目６－２６,,27,120,5580002,,,,,,,2025-06-25,1,,,,,トクボウ,0
1049,5120001277224,新規,0,2025-06-25,2025-06-25,ＳＨＯＫＥＮ株式会社,,株式会社,大阪府,大阪市北区,梅田１丁目２番２号大阪駅前第２ビル１２－１２,,27,127,5300001,,,,,,,2025-06-25,1,,,,,ショウケン,0
1052,5120003029838,新規,0,2025-06-25,2025-06-25,合同会社Ｌ．Ｌ．ＢＬＯＯＭ,,合同会社,大阪府,寝屋川市,打上宮前町１４番７号,,27,215,5720862,,,,,,,2025-06-25,1,,,,,エルエルブルーム,0
1053,5120003029870,新規,0,2025-06-25,2025-06-25,合同会社さだごろう,,合同会社,大阪府,大阪市中央区,釣鐘町１丁目５番１－２０１号,,27,128,5400035,,,,,,,2025-06-25,1,,,,,サダゴロウ,0
1056,5120101071956,新規,0,2025-06-25,2025-06-25,株式会社ミモザ,,株式会社,大阪府,堺市南区,美木多上１３７９番地３６,,27,145,5900136,,,,,,,2025-06-25,1,,,,,ミモザ,0
1058,5120901051091,新規,0,2025-06-25,2025-06-25,株式会社タムラアート,,株式会社,大阪府,吹田市,佐竹台４丁目８番４号,,27,205,5650855,,,,,,,2025-06-25,1,,,,,タムラアート,0
1061,5122003003228,新規,0,2025-06-25,2025-06-25,ＪＵＲＥＩＹＵＫ合同会社,,合同会社,大阪府,八尾市,西木の本４丁目１番地の１３,,27,212,5810045,,,,,,,2025-06-25,1,,,,,ジュレイユケイ,0
1063,5130001079966,新規,0,2025-06-25,2025-06-25,株式会社ＣＨＥＶＡＬ,,株式会社,京都府,京都市右京区,西院東中水町７番外日商岩井朱雀マンション１－１０３,,26,108,6150042,,,,,,,2025-06-25,1,,,,,シュバル,0
1073,5140001138977,新規,0,2025-06-25,2025-06-25,株式会社ＣＡＳＡトラスト,,株式会社,兵庫県,明石市,松が丘１丁目４番明舞第６団地１３号棟２０６号,,28,203,6730862,,,,,,,2025-06-25,1,,,,,カーサトラスト,0
1074,5140001138993,新規,0,2025-06-25,2025-06-25,株式会社地球再生プロジェクト,,株式会社,兵庫県,赤穂市,加里屋７９番地４,,28,212,6780239,,,,,,,2025-06-25,1,,,,,チキュウサイセイプロジェクト,0
1075,5140001139034,新規,0,2025-06-25,2025-06-25,株式会社Ｐｌａｎ　Ｃ,,株式会社,兵庫県,神戸市中央区,元町通５丁目７番５－９０３号,,28,110,6500022,,,,,,,2025-06-25,1,,,,,プランシー,0
1076,5140001139042,新規,0,2025-06-25,2025-06-25,株式会社ナカノクレーン工業,,株式会社,兵庫県,姫路市,広畑区西蒲田２３０番地２１,,28,201,6711107,,,,,,,2025-06-25,1,,,,,ナカノクレーンコウギョウ,0
1077,5140001139059,新規,0,2025-06-25,2025-06-25,泰星フィルム日本株式会社,,株式会社,兵庫県,姫路市,安田３丁目１０８－１安田タウンプラザ８０３,,28,201,6700955,,,,,,,2025-06-25,1,,,,,タイセイフィルムニッポン,0
1079,5140003022238,新規,0,2025-06-25,2025-06-25,合同会社モスゼロ,,合同会社,兵庫県,赤穂市,有年横尾３５１番地,,28,212,6781184,,,,,,,2025-06-25,1,,,,,モスゼロ,0
1080,5140003022246,新規,0,2025-06-25,2025-06-25,ＪＳパートナーズ合同会社,,合同会社,兵庫県,神戸市垂水区,小束台８６８－３７順心神戸病院内,,28,108,6550008,,,,,,,2025-06-25,1,,,,,ジェーエスパートナーズ,0
1086,5160001026858,新規,0,2025-06-25,2025-06-25,株式会社森建設,,株式会社,滋賀県,大津市,北大路３丁目６２８番地１６２,,25,201,5200843,,,,,,,2025-06-25,1,,,,,モリケンセツ,0
1089,5180001167378,新規,0,2025-06-25,2025-06-25,株式会社ＡＯＩ,,株式会社,愛知県,名古屋市西区,上名古屋４丁目４番２０号,,23,104,4510025,,,,,,,2025-06-25,1,,,,,アオイ,0
1090,5180001167386,新規,0,2025-06-25,2025-06-25,株式会社ツキヨリ,,株式会社,愛知県,名古屋市中村区,名駅３丁目４－１０アルティメイト名駅１ｓｔ２階,,23,105,4500002,,,,,,,2025-06-25,1,,,,,ツキヨリ,0
1093,5190001032333,新規,0,2025-06-25,2025-06-25,株式会社悠休家,,株式会社,三重県,鈴鹿市,三日市３丁目１４番２０号,,24,207,5130807,,,,,,,2025-06-25,1,,,,,ユウキュウカ,0
1102,5290003017033,新規,0,2025-06-25,2025-06-25,Ｇｌｉｍｍｅｒ合同会社,,合同会社,福岡県,福岡市中央区,天神２丁目２番１２号Ｔ＆Ｊビルディング７Ｆ,,40,133,8100001,,,,,,,2025-06-25,1,,,,,グリマー,0
1103,5290805009839,新規,0,2025-06-25,2025-06-25,ＭＣ　Ｑｕａｌｉｔｙ企業組合,,その他の設立登記法人,福岡県,田川郡糸田町,９２０番地５９,,40,604,8221300,,,,,,,2025-06-25,1,,,,,エムシークオリティー,0
1104,5300001014245,新規,0,2025-06-25,2025-06-25,株式会社ファームダイレクト,,株式会社,佐賀県,佐賀市,高木瀬西６丁目７番８号,,41,201,8490921,,,,,,,2025-06-25,1,,,,,ファームダイレクト,0
1106,5300003002306,新規,0,2025-06-25,2025-06-25,合同会社ローカルプレス佐賀,,合同会社,佐賀県,武雄市,武雄町大字富岡７５７３番地５,,41,206,8430024,,,,,,,2025-06-25,1,,,,,ローカルプレスサガ,0
1114,5350001019611,新規,0,2025-06-25,2025-06-25,株式会社ＡＴＳ,,株式会社,宮崎県,宮崎市,大字島之内７５２５番地,,45,201,8800121,,,,,,,2025-06-25,1,,,,,エィティエス,0
1119,5370001052734,新規,0,2025-06-25,2025-06-25,株式会社Ｍａｉｓｏｎ　ＳＯＰＨＩＡ,,株式会社,宮城県,石巻市,北上町十三浜字大指１６,,04,202,9860201,,,,,,,2025-06-25,1,,,,,メゾンソフィア,0
1120,5370001052750,新規,0,2025-06-25,2025-06-25,株式会社ヤマト共同生コン,,株式会社,宮城県,登米市,迫町新田字日向５６番地,,04,212,9894601,,,,,,,2025-06-25,1,,,,,ヤマトキョウドウナマコン,0
1134,5430001094704,新規,0,2025-06-25,2025-06-25,株式会社北海道産業医,,株式会社,北海道,札幌市中央区,南二条西５丁目３１番地１ＲＭＢｌｄ．７０１,,01,101,0600062,,,,,,,2025-06-25,1,,,,,ホッカイドウサンギョウイ,0
1135,5440001009628,新規,0,2025-06-25,2025-06-25,株式会社たるおけ,,株式会社,北海道,函館市,的場町１３番８号,,01,202,0400021,,,,,,,2025-06-25,1,,,,,タルオケ,0
1139,5470003002909,新規,0,2025-06-25,2025-06-25,合同会社Ｙｕｉｎｏｋｉ,,合同会社,香川県,丸亀市,新浜町１丁目１２番１号,,37,202,7630063,,,,,,,2025-06-25,1,,,,,,0
1147,6010001256213,新規,0,2025-06-25,2025-06-25,パウアンドテイル株式会社,,株式会社,東京都,中央区,日本橋小伝馬町１６番７号,,13,102,1030001,,,,,,,2025-06-25,1,,,,,パウアンドテイル,0
1148,6010001256221,新規,0,2025-06-25,2025-06-25,株式会社ローム・コンサルティング,,株式会社,東京都,千代田区,神田須田町１丁目２８番地２０ＶＯＲＴ神田ＩＩＩ６階,00139681,13,101,1010041,,,,,,,2025-06-25,1,,,,,ロームコンサルティング,0
1149,6010001256238,新規,0,2025-06-25,2025-06-25,ＬＵＮＥ株式会社,,株式会社,東京都,中央区,日本橋横山町５番３号,,13,102,1030003,,,,,,,2025-06-25,1,,,,,ルネ,0
1150,6010003047742,新規,0,2025-06-25,2025-06-25,合同会社Ｍｉｘ　Ｓａｎｄ　Ｋｕｍａｍｏｔｏ　ＭＬ,,合同会社,東京都,千代田区,霞が関３丁目２番５号,,13,101,1000013,,,,,,,2025-06-25,1,,,,,ミックスサンドクマモトエムエル,0
1151,6010003047800,新規,0,2025-06-25,2025-06-25,成田ベンチャーズ合同会社,,合同会社,東京都,中央区,日本橋蛎殻町２丁目１１番８－１００２号,,13,102,1030014,,,,,,,2025-06-25,1,,,,,ナリタベンチャーズ,0
1153,6010005040233,新規,0,2025-06-25,2025-06-25,一般社団法人Ｊａｐａｎ　Ｌｏｎｇｅｖｉｔｙ　Ｃｏｎｓｏｒｔｉｕｍ,,その他の設立登記法人,東京都,文京区,本郷３丁目４番３号,,13,105,1130033,,,,,,,2025-06-25,1,,,,,ジャパンロンジェビティーコンソーシアム,0
1158,6010401191175,新規,0,2025-06-25,2025-06-25,株式会社Ｅｎｓｏ　Ａｓｓｅｔ,,株式会社,東京都,港区,北青山１丁目３番１号アールキューブ青山３階,,13,103,1070061,,,,,,,2025-06-25,1,,,,,エンソアセット,0
1159,6010401191258,新規,0,2025-06-25,2025-06-25,株式会社Ｘ‐ｂｒｉｄｇｅ,,株式会社,東京都,港区,南青山２丁目２番１５号ウィン青山９４２,,13,103,1070062,,,,,,,2025-06-25,1,,,,,クロスブリッジ,0
1160,6010401191266,新規,0,2025-06-25,2025-06-25,株式会社物流総合研究所,,株式会社,東京都,港区,赤坂３丁目９番１６号,,13,103,1070052,,,,,,,2025-06-25,1,,,,,ブツリュウソウゴウケンキュウショ,0
1161,6010401191282,新規,0,2025-06-25,2025-06-25,株式会社Ｃ＆Ｈ,,株式会社,東京都,港区,六本木４丁目８－７－Ｂ１Ｆ,,13,103,1060032,,,,,,,2025-06-25,1,,,,,シーアンドエイチ,0
1164,6010405024463,新規,0,2025-06-25,2025-06-25,一般社団法人鄭州大学日本校友会,,その他の設立登記法人,東京都,港区,新橋２丁目５番６号大村ビル７階,,13,103,1050004,,,,,,,2025-06-25,1,,,,,テイシュウダイガクニホンコウユウカイ,0
1168,6010601067497,新規,0,2025-06-25,2025-06-25,ＬＥＧＥＮＤ　ＳＨＩＦＴ株式会社,,株式会社,東京都,江東区,青海２丁目７番４号ｔｈｅＳＯＨＯ９０１号室,,13,108,1350064,,,,,,,2025-06-25,1,,,,,レジェンドシフト,0
1169,6010601067514,新規,0,2025-06-25,2025-06-25,ＨｕｍａｎｓＸ株式会社,,株式会社,東京都,江東区,北砂３丁目４－１５－８０７,,13,108,1360073,,,,,,,2025-06-25,1,,,,,ヒューマンズエックス,0
1175,6010901057628,新規,0,2025-06-25,2025-06-25,株式会社ＺＥＡＬ　ＴＥＣＨ,,株式会社,東京都,世田谷区,喜多見２丁目６番３０号,,13,112,1570067,,,,,,,2025-06-25,1,,,,,ジールテック,0
1176,6010901057636,新規,0,2025-06-25,2025-06-25,ＬＭＸ株式会社,,株式会社,東京都,世田谷区,経堂２丁目２５番１７号ＦＲＡＭＥＫＹＯＤＯ１Ｆ,,13,112,1560052,,,,,,,2025-06-25,1,,,,,エルエムエックス,0
1178,6010903010023,新規,0,2025-06-25,2025-06-25,合同会社ＡＳ管財,,合同会社,東京都,世田谷区,砧７丁目２番２８号,,13,112,1570073,,,,,,,2025-06-25,1,,,,,エーエスカンザイ,0
1181,6011001170214,新規,0,2025-06-25,2025-06-25,株式会社クーラ,,株式会社,東京都,目黒区,目黒２丁目３番９号,,13,110,1530063,,,,,,,2025-06-25,1,,,,,クーラ,0
1182,6011001170684,新規,0,2025-06-25,2025-06-25,株式会社ビジネスサポート,,株式会社,東京都,渋谷区,神南１丁目１１番４号ＦＰＧリンクス神南５Ｆ,,13,113,1500041,,,,,,,2025-06-25,1,,,,,ビジネスサポート,0
1183,6011003021893,新規,0,2025-06-25,2025-06-25,合同会社中野,,合同会社,東京都,渋谷区,本町３丁目３８番５号４０１,,13,113,1510071,,,,,,,2025-06-25,1,,,,,ナカノ,0
1188,6011103016034,新規,0,2025-06-25,2025-06-25,Ｆｌｏｒａｖｉｔａ　Ｌａｂ合同会社,,合同会社,東京都,新宿区,若松町７番１－５１１号,,13,104,1620056,,,,,,,2025-06-25,1,,,,,フローラヴィータラボ,0
1190,6011403004738,新規,0,2025-06-25,2025-06-25,合同会社フリークス,,合同会社,東京都,板橋区,赤塚新町３丁目１８番３号サンハウス・トーユー１０３,,13,119,1750093,,,,,,,2025-06-25,1,,,,,フリークス,0
1194,6012301014440,新規,0,2025-06-25,2025-06-25,株式会社将建興業,,株式会社,東京都,町田市,野津田町２６４１番地１５,,13,209,1950063,,,,,,,2025-06-25,1,,,,,ショウケンコウギョウ,0
1197,6012403007202,新規,0,2025-06-25,2025-06-25,ＧＲＶ合同会社,,合同会社,東京都,稲城市,東長沼１０４０番地かごやビル１０１,,13,225,2060802,,,,,,,2025-06-25,1,,,,,ジーアールブイ,0
1203,6013303007738,新規,0,2025-06-25,2025-06-25,東武Ｋｏｄｏｓａｖａ合同会社,,合同会社,東京都,豊島区,池袋２丁目３６番５号,,13,116,1710014,,,,,,,2025-06-25,1,,,,,トウブコドシャバ,0
1210,6020001163565,新規,0,2025-06-25,2025-06-25,株式会社日新,,株式会社,神奈川県,川崎市川崎区,田島町２１－９－１,,14,131,2100853,,,,,,,2025-06-25,1,,,,,ニッシン,0
1214,6021003016190,新規,0,2025-06-25,2025-06-25,ＲａｒｅＤｒｏｐ合同会社,,合同会社,神奈川県,横須賀市,富士見町３丁目４４番地８アンソレイエ１０１,,14,201,2380021,,,,,,,2025-06-25,1,,,,,レアドロップ,0
1222,6030001167268,新規,0,2025-06-25,2025-06-25,株式会社Ｔｏｍｏｒｒｏｗ　Ｓｔｅｐ,,株式会社,埼玉県,深谷市,新戒４４７番地１,,11,218,3660019,,,,,,,2025-06-25,1,,,,,トゥモローステップ,0
1223,6030001167292,新規,0,2025-06-25,2025-06-25,株式会社レインボーサービス,,株式会社,埼玉県,三郷市,高州１丁目５２番地８,,11,237,3410037,,,,,,,2025-06-25,1,,,,,レインボーサービス,0
1224,6030001167318,新規,0,2025-06-25,2025-06-25,株式会社内海工業,,株式会社,埼玉県,草加市,金明町２４５番地２ツインハイツＩ－２０３号,00139677,11,221,3400052,,,,,,,2025-06-25,1,,,,,ウツミコウギョウ,0
1234,6040001139373,新規,0,2025-06-25,2025-06-25,株式会社Ｗｏｒｑｌｅ,,株式会社,千葉県,佐倉市,南ユーカリが丘８－１－２８,,12,212,2850859,,,,,,,2025-06-25,1,,,,,ワークル,0
1235,6040001139407,新規,0,2025-06-25,2025-06-25,ＴＭＴマネジメント株式会社,,株式会社,千葉県,流山市,市野谷４４１番地の２（運Ａ８２街区１）,,12,220,2700137,,,,,,,2025-06-25,1,,,,,ティーエムティーマネジメント,0
1236,6040003027915,新規,0,2025-06-25,2025-06-25,エージェイグローバル合同会社,,合同会社,千葉県,野田市,古布内１２５０番地１,,12,208,2700221,,,,,,,2025-06-25,1,,,,,エージェイグローバル,0
1238,6080001026997,新規,0,2025-06-25,2025-06-25,丸生養鰻株式会社,,株式会社,静岡県,榛原郡吉田町,川尻２２０番地,,22,424,4210302,,,,,,,2025-06-25,1,,,,,マルセイヨウマン,0
1239,6080003003490,新規,0,2025-06-25,2025-06-25,合同会社ａｓｃｅｎｄｉａ,,合同会社,静岡県,静岡市駿河区,丸子５丁目９番７号グレースシャトー１０２,,22,102,4210103,,,,,,,2025-06-25,1,,,,,アセンディア,0
1243,6110001039376,新規,0,2025-06-25,2025-06-25,株式会社ウィルサポート,,株式会社,新潟県,新潟市江南区,船戸山１丁目２番４７号,,15,104,9500153,,,,,,,2025-06-25,1,,,,,ウィルサポート,0
1248,6120001277165,新規,0,2025-06-25,2025-06-25,株式会社ル・シエル,,株式会社,大阪府,大阪市北区,梅田２丁目２－２ヒルトンプラザウエストオフィスタワー１９階,,27,127,5300001,,,,,,,2025-06-25,1,,,,,ルシエル,0
1249,6120001277198,新規,0,2025-06-25,2025-06-25,株式会社ＳＧイノベーション,,株式会社,大阪府,大阪市西区,南堀江１丁目２４－２７,,27,106,5500015,,,,,,,2025-06-25,1,,,,,エスジーイノベーション,0
1252,6120003029829,新規,0,2025-06-25,2025-06-25,ＫＭｃｏｎｓｕｌｔｉｎｇ合同会社,,合同会社,大阪府,大阪市住吉区,遠里小野４丁目６－８,,27,120,5580032,,,,,,,2025-06-25,1,,,,,ケーエムコンサルティング,0
1256,6120101071955,新規,0,2025-06-25,2025-06-25,株式会社ＭＥＲ,,株式会社,大阪府,和泉市,王子町６６２番地の４,,27,219,5940004,,,,,,,2025-06-25,1,,,,,エムイーアール,0
1260,6130001079957,新規,0,2025-06-25,2025-06-25,株式会社ＨＡＬＵ,,株式会社,京都府,京都市中京区,麩屋町通錦小路上る梅屋町４９２番地ＨｅｉｇｈｔｓＫＹＯＵＧＯＳＹＯ２０６,,26,104,6048057,,,,,,,2025-06-25,1,,,,,ハル,0
1261,6130001079981,新規,0,2025-06-25,2025-06-25,株式会社桶屋久次郎,,株式会社,京都府,京都市中京区,西木屋町通四条上る紙屋町３６７番地,,26,104,6048024,,,,,,,2025-06-25,1,,,,,オケヤキュウジロウ,0
1262,6130003010572,新規,0,2025-06-25,2025-06-25,合同会社夜久野清雫,,合同会社,京都府,福知山市,夜久野町直見１７番地,,26,201,6291321,,,,,,,2025-06-25,1,,,,,ヤクノセイナ,0
1268,6140001138992,新規,0,2025-06-25,2025-06-25,株式会社Ｂｉｇｕｐ,,株式会社,兵庫県,川辺郡猪名川町,白金２丁目１６番地３,,28,301,6660257,,,,,,,2025-06-25,1,,,,,ビッグアップ,0
1269,6140001139025,新規,0,2025-06-25,2025-06-25,青田興業株式会社,,株式会社,兵庫県,西脇市,西脇１１２４番地の１,,28,213,6770015,,,,,,,2025-06-25,1,,,,,アオタコウギョウ,0
1272,6150001028210,新規,0,2025-06-25,2025-06-25,株式会社雅,,株式会社,奈良県,大和郡山市,小泉町２８９１番地１,,29,203,6391042,,,,,,,2025-06-25,1,,,,,ミヤビ,0
1273,6160001026857,新規,0,2025-06-25,2025-06-25,株式会社あい建築物環境衛生社,,株式会社,滋賀県,草津市,平井１丁目２番１０号,,25,206,5250023,,,,,,,2025-06-25,1,,,,,アイケンチクブツカンキョウエイセイシャ,0
1274,6160001026865,新規,0,2025-06-25,2025-06-25,株式会社ＵｍｉＬａｂｏ,,株式会社,滋賀県,草津市,南草津２丁目４番地８－１０４,,25,206,5250050,,,,,,,2025-06-25,1,,,,,ウミラボ,0
1278,6180001167385,新規,0,2025-06-25,2025-06-25,株式会社セイフリッジ,,株式会社,愛知県,一宮市,木曽川町玉ノ井字大縄場二ノ切１５番地２,,23,203,4930004,,,,,,,2025-06-25,1,,,,,セイフリッジ,0
1279,6180001167393,新規,0,2025-06-25,2025-06-25,株式会社ＳｔｙｌｅＳ,,株式会社,愛知県,名古屋市北区,大我麻町２０１番地の１,,23,103,4620064,,,,,,,2025-06-25,1,,,,,スタイルエス,0
1280,6180001167410,新規,0,2025-06-25,2025-06-25,ＱｏＶＡＬ株式会社,,株式会社,愛知県,名古屋市守山区,新守山１７０１番地,,23,113,4630070,,,,,,,2025-06-25,1,,,,,コーバル,0
1284,6180005021134,新規,0,2025-06-25,2025-06-25,ラ・キャッスル和合管理組合法人,,その他の設立登記法人,愛知県,日進市,浅田平子２丁目２８６番地,,23,230,4700128,,,,,,,2025-06-25,1,,,,,ラキャッスルワゴウ,0
1286,6180301039929,新規,0,2025-06-25,2025-06-25,株式会社ガリツテック,,株式会社,愛知県,岡崎市,美合町字つむぎ東１０番地８,,23,202,4440802,,,,,,,2025-06-25,1,,,,,ガリツテック,0
1296,6200001043939,新規,0,2025-06-25,2025-06-25,ＭＳＫ　ＣＯＲＰＯＲＡＴＩＯＮ株式会社,,株式会社,岐阜県,岐阜市,東中島２丁目１６番３号,,21,201,5008235,,,,,,,2025-06-25,1,,,,,エムエスケイコーポレーション,0
1305,6240001065112,新規,0,2025-06-25,2025-06-25,株式会社サカテ,,株式会社,広島県,広島市佐伯区,五日市５丁目１３番７－４０３号,,34,108,7315127,,,,,,,2025-06-25,1,,,,,サカテ,0
1308,6250001021205,新規,0,2025-06-25,2025-06-25,株式会社先端地域科学研究所,,株式会社,山口県,下関市,竹崎町４丁目７番２４号５階,,35,201,7500025,,,,,,,2025-06-25,1,,,,,センタンチイキカガクケンキュウショ,0
1309,6250001021213,新規,0,2025-06-25,2025-06-25,株式会社ｆｉｘ．ｃｏｍ,,株式会社,山口県,山口市,吉敷佐畑２丁目１７番１８号,,35,203,7530816,,,,,,,2025-06-25,1,,,,,フィックスドットコム,0
1312,6260003005221,新規,0,2025-06-25,2025-06-25,合同会社雄,,合同会社,岡山県,岡山市北区,西辛川７５６番地,,33,101,7011213,,,,,,,2025-06-25,1,,,,,ユウ,0
1317,6290001110516,新規,0,2025-06-25,2025-06-25,株式会社ＩＳＭＯ,,株式会社,福岡県,福岡市早良区,西新５丁目２番３０号２Ｆ,,40,137,8140002,,,,,,,2025-06-25,1,,,,,イズモ,0
1323,6290801031647,新規,0,2025-06-25,2025-06-25,ＡＴＥＮＥ　ＳＴＥＥＬ株式会社,,株式会社,福岡県,北九州市八幡西区,医生ケ丘６－２２,,40,109,8070804,,,,,,,2025-06-25,1,,,,,アテネスチール,0
1324,6290803005087,新規,0,2025-06-25,2025-06-25,九州運転免許サポート合同会社,,合同会社,福岡県,行橋市,大字長木４２２番地２０１おさぎ１０４号室,,40,213,8240058,,,,,,,2025-06-25,1,,,,,キュウシュウウンテンメンキョサポート,0
1334,6360001035202,新規,0,2025-06-25,2025-06-25,島んちゅキャリア株式会社,,株式会社,沖縄県,島尻郡八重瀬町,字志多伯６３３－２,,47,362,9010413,,,,,,,2025-06-25,1,,,,,シマンチュキャリア,0
1335,6360003015045,新規,0,2025-06-25,2025-06-25,合同会社Ｍ’ｓパートナー,,合同会社,沖縄県,那覇市,首里石嶺町４丁目１７３番地２０,,47,201,9030804,,,,,,,2025-06-25,1,,,,,エムズパートナー,0
1336,6370001052741,新規,0,2025-06-25,2025-06-25,株式会社グロバンス,,株式会社,宮城県,仙台市太白区,富沢西４丁目７番地の９－３０４号,,04,104,9820037,,,,,,,2025-06-25,1,,,,,グロバンス,0
1343,6380001035407,新規,0,2025-06-25,2025-06-25,株式会社柄澤工業,,株式会社,福島県,福島市,野田町字八天２番地の１ル・ポミエ１０２号室,,07,201,9608055,,,,,,,2025-06-25,1,,,,,カラサワコウギョウ,0
1346,6410001014200,新規,0,2025-06-25,2025-06-25,株式会社ＳＭＢ秋田,,株式会社,秋田県,秋田市,添川字境内川原３番地２３,,05,201,0100822,,,,,,,2025-06-25,1,,,,,エスエムビーアキタ,0
1353,6430003017802,新規,0,2025-06-25,2025-06-25,合同会社サマニストあつまれ,,合同会社,北海道,様似郡様似町,大通１丁目１７番地,,01,608,0580014,,,,,,,2025-06-25,1,,,,,サマニストアツマレ,0
1360,6700150115975,新規,0,2025-06-25,2023-05-10,竹田地区雇用促進協議会,,その他,大分県,竹田市,大字竹田１５０１－２,,44,208,8780013,,,,,,,2023-05-10,1,,,,,タケタチクコヨウソクシンキヨウギカイ,0
1369,7010001256212,新規,0,2025-06-25,2025-06-25,株式会社アセリオナ,,株式会社,東京都,中央区,日本橋久松町５番６号イマス久松町ビル４Ｆ５１号室,,13,102,1030005,,,,,,,2025-06-25,1,,,,,アセリオナ,0
1370,7010001256220,新規,0,2025-06-25,2025-06-25,株式会社オートアライアンスマルチナショナル,,株式会社,東京都,千代田区,岩本町１丁目３－１神田ビジネスセンター１階,,13,101,1010032,,,,,,,2025-06-25,1,,,,,オートアライアンスマルチナショナル,0
1371,7010001256278,新規,0,2025-06-25,2025-06-25,株式会社ＡＮ会計コンサルティング,,株式会社,東京都,千代田区,神田須田町１丁目７番８号ＶＯＲＴ秋葉原ＩＶ２Ｆ,,13,101,1010041,,,,,,,2025-06-25,1,,,,,エーエヌカイケイコンサルティング,0
1374,7010003047741,新規,0,2025-06-25,2025-06-25,合同会社Ｍｉｘ　Ｓａｎｄ　Ｋｕｍａｍｏｔｏ,,合同会社,東京都,千代田区,霞が関３丁目２番５号,,13,101,1000013,,,,,,,2025-06-25,1,,,,,ミックスサンドクマモト,0
1375,7010003047782,新規,0,2025-06-25,2025-06-25,ＬＶＣファンド４０号合同会社,,合同会社,東京都,千代田区,紀尾井町３－８第２紀尾井町ビル９０１アクシス綜合会計事務所内,,13,101,1020094,,,,,,,2025-06-25,1,,,,,エルブイシーファンドヨンジュウゴウ,0
1383,7010401191265,新規,0,2025-06-25,2025-06-25,非対称株式会社,,株式会社,東京都,港区,北青山１丁目３番１号アールキューブ青山３階,,13,103,1070061,,,,,,,2025-06-25,1,,,,,ヒタイショウ,0
1386,7010501054297,新規,0,2025-06-25,2025-06-25,一木株式会社,,株式会社,東京都,台東区,松が谷２丁目１５番８号浅草Ｋ２ビル２０６号室,,13,106,1110036,,,,,,,2025-06-25,1,,,,,イチモク,0
1387,7010601067505,新規,0,2025-06-25,2025-06-25,渓林ブランドマネジメント株式会社,,株式会社,東京都,江東区,有明３丁目７番２６号有明フロンティアビルＢ棟９階,,13,108,1350063,,,,,,,2025-06-25,1,,,,,ケイリンブランドマネジメント,0
1389,7010701047927,新規,0,2025-06-25,2025-06-25,株式会社Ｓｈｕｎｙａ,,株式会社,東京都,品川区,東品川２丁目２－４ファーストタワー１階,,13,109,1400002,,,,,,,2025-06-25,1,,,,,シュンヤ,0
1399,7011001170329,新規,0,2025-06-25,2025-06-25,株式会社ｈｅｒｅｔｉｃｓ,,株式会社,東京都,渋谷区,神宮前６丁目３５番３号コープオリンピア７１６号,,13,113,1500001,,,,,,,2025-06-25,1,,,,,ヘレテックス,0
1400,7011001170642,新規,0,2025-06-25,2025-06-25,株式会社ＧＬＨ,,株式会社,東京都,渋谷区,渋谷１丁目１番３号アミーホール４階,,13,113,1500002,,,,,,,2025-06-25,1,,,,,ジーエルエイチ,0
1403,7011003021835,新規,0,2025-06-25,2025-06-25,２５３合同会社,,合同会社,東京都,渋谷区,恵比寿西２丁目８番４号ＥＸ恵比寿西ビル５階,,13,113,1500021,,,,,,,2025-06-25,1,,,,,ニゴサン,0
1406,7011101112255,新規,0,2025-06-25,2025-06-25,ＯｃｔａｎｔＣａｐｉｔａｌ株式会社,,株式会社,東京都,新宿区,西新宿３丁目３番１３号西新宿水間ビル６階,,13,104,1600023,,,,,,,2025-06-25,1,,,,,オクタントキャピタル,0
1409,7011201026454,新規,0,2025-06-25,2025-06-25,株式会社ぽかぽか不動産,,株式会社,東京都,中野区,南台２丁目２２番２３号,,13,114,1640014,,,,,,,2025-06-25,1,,,,,ポカポカフドウサン,0
1416,7011705001903,新規,0,2025-06-25,2025-06-25,一般社団法人日本レザークラフトインストラクター協会,,その他の設立登記法人,東京都,江戸川区,南篠崎町３丁目２３番７号斉藤ビル１０１,,13,123,1330065,,,,,,,2025-06-25,1,,,,,ニホンレザークラフトインストラクターキョウカイ,0
1419,7011801046364,新規,0,2025-06-25,2025-06-25,株式会社ソライ東京,,株式会社,東京都,足立区,谷中１丁目７番１４号ヴェルディーク綾瀬１０２号室,,13,121,1200006,,,,,,,2025-06-25,1,,,,,ソライトウキョウ,0
1424,7012401043272,新規,0,2025-06-25,2025-06-25,株式会社プラネットパーク,,株式会社,東京都,多摩市,諏訪１丁目２番地の１５プラネット永山１０１,,13,224,2060024,,,,,,,2025-06-25,1,,,,,プラネットパーク,0
1433,7013301054500,新規,0,2025-06-25,2025-06-25,同海株式会社,,株式会社,東京都,豊島区,上池袋３丁目４７番９号４Ｆ－５号室,,13,116,1700012,,,,,,,2025-06-25,1,,,,,ドウカイ,0
1440,7020001163548,新規,0,2025-06-25,2025-06-25,株式会社エヌテック,,株式会社,神奈川県,横浜市青葉区,松風台２２番地１９８,,14,117,2270067,,,,,,,2025-06-25,1,,,,,エヌテック,0
1442,7021001085609,新規,0,2025-06-25,2025-06-25,株式会社ｅ‐ＰＯＮ,,株式会社,神奈川県,座間市,相模が丘１丁目３３－２５ベルハイツ相模が丘２０２,,14,216,2520001,,,,,,,2025-06-25,1,,,,,イーポン,0
1449,7030001167250,新規,0,2025-06-25,2025-06-25,ヘルスウェル株式会社,,株式会社,埼玉県,川口市,幸町２丁目７番２７号,,11,203,3320016,,,,,,,2025-06-25,1,,,,,ヘルスウェル,0
1450,7030001167259,新規,0,2025-06-25,2025-06-25,株式会社ボニート,,株式会社,埼玉県,川口市,芝樋ノ爪１丁目９番１５号,,11,203,3330852,,,,,,,2025-06-25,1,,,,,ボニート,0
1451,7030001167267,新規,0,2025-06-25,2025-06-25,株式会社ヒストリー,,株式会社,埼玉県,さいたま市大宮区,桜木町２丁目３番地大宮マルイ７階,,11,103,3300854,,,,,,,2025-06-25,1,,,,,ヒストリー,0
1452,7030001167317,新規,0,2025-06-25,2025-06-25,株式会社朝来,,株式会社,埼玉県,春日部市,中央３丁目１８番地３２号,,11,214,3440067,,,,,,,2025-06-25,1,,,,,アサゴ,0
1453,7030003027064,新規,0,2025-06-25,2025-06-25,未来合同会社,,合同会社,埼玉県,八潮市,大字西袋５５３番地３ブルーメ谷塚３７－２０１,,11,234,3400833,,,,,,,2025-06-25,1,,,,,ミライ,0
1454,7030003027080,新規,0,2025-06-25,2025-06-25,合同会社ＭＫＮ,,合同会社,埼玉県,鶴ヶ島市,富士見２丁目３３番２６号,,11,241,3502201,,,,,,,2025-06-25,1,,,,,エムケーエヌ,0
1464,7040001139364,新規,0,2025-06-25,2025-06-25,Ｋ＆Ｎ　Ｂｒｉｄｇｅ株式会社,,株式会社,千葉県,千葉市稲毛区,黒砂台３丁目４番２２号ポプラハイツ１０１号,,12,103,2630041,,,,,,,2025-06-25,1,,,,,ケーアンドエヌブリッジ,0
1468,7040003027922,新規,0,2025-06-25,2025-06-25,ＤＥＶＮＵＲＡ　ＭＯＴＯＲＳ合同会社,,合同会社,千葉県,千葉市若葉区,金親町８４９番地１,,12,104,2640001,,,,,,,2025-06-25,1,,,,,デェヴヌラモータース,0
1473,7080001026996,新規,0,2025-06-25,2025-06-25,株式会社かわでん,,株式会社,静岡県,榛原郡吉田町,川尻２７０番地の５３,,22,424,4210302,,,,,,,2025-06-25,1,,,,,カワデン,0
1475,7080101025584,新規,0,2025-06-25,2025-06-25,株式会社ワールドサービス,,株式会社,静岡県,御殿場市,萩原１４４３番地の１６第８フォーブル２０３,,22,215,4120042,,,,,,,2025-06-25,1,,,,,ワールドサービス,0
1478,7080403005292,新規,0,2025-06-25,2025-06-25,合同会社ＮＫＭ,,合同会社,静岡県,浜松市中央区,早出町１０５９番地の１,,22,138,4350054,,,,,,,2025-06-25,1,,,,,エヌケーエム,0
1479,7090001019339,新規,0,2025-06-25,2025-06-25,株式会社まんまるの里,,株式会社,山梨県,甲斐市,龍地５０７９番地１２,,19,210,4000104,,,,,,,2025-06-25,1,,,,,マンマルノサト,0
1490,7120001277107,新規,0,2025-06-25,2025-06-25,株式会社ｃｕｏｒｅ,,株式会社,大阪府,大阪市浪速区,難波中２丁目１０番７０号パークスタワー１９階１９３０,,27,111,5560011,,,,,,,2025-06-25,1,,,,,クオーレ,0
1491,7120001277123,新規,0,2025-06-25,2025-06-25,伯特利株式会社,,株式会社,大阪府,大阪市西成区,松１丁目６－３－２０１,,27,122,5570034,,,,,,,2025-06-25,1,,,,,ハクトクリ,0
1492,7120001277148,新規,0,2025-06-25,2025-06-25,ＫＭＫ株式会社,,株式会社,大阪府,大阪市西区,南堀江４丁目１１番８－１００６号,,27,106,5500015,,,,,,,2025-06-25,1,,,,,ケーエムケー,0
1493,7120001277164,新規,0,2025-06-25,2025-06-25,ルクサキャピタル株式会社,,株式会社,大阪府,大阪市阿倍野区,天王寺町南１丁目４－２０－５Ｆ,,27,119,5450002,,,,,,,2025-06-25,1,,,,,ルクサキャピタル,0
1494,7120001277180,新規,0,2025-06-25,2025-06-25,株式会社ＲＯＳＥ,,株式会社,大阪府,大阪市住吉区,東粉浜１丁目８番１９号,,27,120,5580051,,,,,,,2025-06-25,1,,,,,ローズ,0
1495,7120001277189,新規,0,2025-06-25,2025-06-25,株式会社４７ＦＡＳＨＩＯＮ,,株式会社,大阪府,大阪市中央区,南本町２丁目３番１１号　玉屋ビル,,27,128,5410054,,,,,,,2025-06-25,1,,,,,ヨンナナファッション,0
1496,7120001277197,新規,0,2025-06-25,2025-06-25,株式会社ＥＮ　ｃｏｎｎｅｃｔ,,株式会社,大阪府,大阪市浪速区,湊町２丁目２番５－２１１２号,,27,111,5560017,,,,,,,2025-06-25,1,,,,,エンコネクト,0
1497,7120001277206,新規,0,2025-06-25,2025-06-25,株式会社ＲＧ,,株式会社,大阪府,大阪市生野区,桃谷５丁目５番３７号いくのパーク講堂棟３Ｆ,,27,116,5440034,,,,,,,2025-06-25,1,,,,,アールジー,0
1500,7120003029828,新規,0,2025-06-25,2025-06-25,ＮＴ合同会社,,合同会社,大阪府,大阪市生野区,中川３丁目４－１７－３０４号,,27,116,5440005,,,,,,,2025-06-25,1,,,,,エヌティー,0
1503,7120101071921,新規,0,2025-06-25,2025-06-25,株式会社Ｌ．ｖｉｓｉｏｎ．,,株式会社,大阪府,堺市堺区,中瓦町１丁３番１０－３Ｆ,,27,141,5900077,,,,,,,2025-06-25,1,,,,,エルビジョン,0
1504,7120101071954,新規,0,2025-06-25,2025-06-25,株式会社エフブライト,,株式会社,大阪府,和泉市,室堂町５番地の１（３－３０５）,,27,219,5941101,,,,,,,2025-06-25,1,,,,,エフブライト,0
1508,7130001079980,新規,0,2025-06-25,2025-06-25,株式会社Ａ‐ｓｔｙｌｅ,,株式会社,京都府,京都市左京区,一乗寺出口町９番地５,,26,103,6068164,,,,,,,2025-06-25,1,,,,,エースタイル,0
1509,7130001079997,新規,0,2025-06-25,2025-06-25,株式会社ｓｏａｒ,,株式会社,京都府,京都市下京区,梅小路石橋町２０番地,,26,106,6008855,,,,,,,2025-06-25,1,,,,,ソアー,0
1514,7140001139024,新規,0,2025-06-25,2025-06-25,じょうすい環境株式会社,,株式会社,兵庫県,揖保郡太子町,天満山９１番地２,,28,464,6711503,,,,,,,2025-06-25,1,,,,,ジョウスイカンキョウ,0
1515,7140001139032,新規,0,2025-06-25,2025-06-25,株式会社シャイン,,株式会社,兵庫県,神戸市須磨区,須磨寺町２丁目６番１１号須磨寺ハイツ１Ｂ,,28,107,6540071,,,,,,,2025-06-25,1,,,,,シャイン,0
1516,7140001139040,新規,0,2025-06-25,2025-06-25,株式会社Ｒｅｕｔｅｒ,,株式会社,兵庫県,明石市,二見町西二見１０３７番地,,28,203,6740094,,,,,,,2025-06-25,1,,,,,ロイター,0
1518,7160001026856,新規,0,2025-06-25,2025-06-25,株式会社エーシン,,株式会社,滋賀県,野洲市,小南１５０９番地１,,25,210,5202301,,,,,,,2025-06-25,1,,,,,エーシン,0
1525,7180001167376,新規,0,2025-06-25,2025-06-25,ＴＩＭＢＯＬ株式会社,,株式会社,愛知県,名古屋市中区,栄４丁目８番３号,,23,106,4600008,,,,,,,2025-06-25,1,,,,,ティンボル,0
1526,7180001167392,新規,0,2025-06-25,2025-06-25,株式会社ＴＥＬＭＡ,,株式会社,愛知県,名古屋市中村区,名駅南３丁目３番２１号,,23,105,4500003,,,,,,,2025-06-25,1,,,,,テルマ,0
1527,7180001167450,新規,0,2025-06-25,2025-06-25,ＰＥＤＩＡ株式会社,,株式会社,愛知県,名古屋市千種区,内山１丁目９番２号,,23,101,4640075,,,,,,,2025-06-25,1,,,,,ペディア,0
1529,7180301039936,新規,0,2025-06-25,2025-06-25,株式会社大和,,株式会社,愛知県,岡崎市,牧御堂町字郷中１４番地,,23,202,4440205,,,,,,,2025-06-25,1,,,,,ヤマト,0
1541,7210001020218,新規,0,2025-06-25,2025-06-25,株式会社ＣＲＹＰＴＯ,,株式会社,福井県,福井市,河合寄安町３０６番地,,18,201,9100132,,,,,,,2025-06-25,1,,,,,クリプト,0
1542,7220001026759,新規,0,2025-06-25,2025-06-25,Ｋａｚｅ株式会社,,株式会社,石川県,白山市,松本町１１７番地,,17,210,9240057,,,,,,,2025-06-25,1,,,,,カゼ,0
1545,7220005008976,新規,0,2025-06-25,2025-06-25,土地家屋調査士法人小林登記パートナーズ,,その他の設立登記法人,石川県,小松市,細工町５３番地１,,17,203,9230915,,,,,,,2025-06-25,1,,,,,コバヤシトウキパートナーズ,0
1550,7240001065111,新規,0,2025-06-25,2025-06-25,福田総合設備株式会社,,株式会社,広島県,広島市安芸区,中野７丁目１番２７号,,34,107,7390321,,,,,,,2025-06-25,1,,,,,フクダソウゴウセツビ,0
1553,7270001009222,新規,0,2025-06-25,2025-06-25,株式会社スチロテック,,株式会社,鳥取県,境港市,竹内団地６４番地,,31,204,6840046,,,,,,,2025-06-25,1,,,,,スチロテック,0
1563,7300001014243,新規,0,2025-06-25,2025-06-25,建築工房いわみ株式会社,,株式会社,佐賀県,伊万里市,東山代町里８１－１４,,41,205,8494282,,,,,,,2025-06-25,1,,,,,ケンチクコウボウイワミ,0
1564,7300003002304,新規,0,2025-06-25,2025-06-25,合同会社牛島総合企画,,合同会社,佐賀県,鳥栖市,村田町３１６番地－１２,,41,203,8410072,,,,,,,2025-06-25,1,,,,,ウシジマソウゴウキカク,0
1565,7310001019662,新規,0,2025-06-25,2025-06-25,株式会社フチノモト,,株式会社,長崎県,五島市,三井楽町渕ノ元６５１番地３,,42,211,8530609,,,,,,,2025-06-25,1,,,,,フチノモト,0
1581,7360003015028,新規,0,2025-06-25,2025-06-25,合同会社はる不動産,,合同会社,沖縄県,浦添市,伊祖３丁目４番６号１０１号室,,47,208,9012132,,,,,,,2025-06-25,1,,,,,ハルフドウサン,0
1582,7370001052740,新規,0,2025-06-25,2025-06-25,株式会社ＩＭＭ,,株式会社,宮城県,多賀城市,高崎３丁目１９番１９号,,04,209,9850862,,,,,,,2025-06-25,1,,,,,アイエムエム,0
1587,7380003006074,新規,0,2025-06-25,2025-06-25,合同会社スマイルリンク,,合同会社,福島県,いわき市,平下平窪字中島町６番地の１０,,07,204,9708003,,,,,,,2025-06-25,1,,,,,スマイルリンク,0
1590,7400001017079,新規,0,2025-06-25,2025-06-25,株式会社カネトウホールディングス,,株式会社,岩手県,一関市,山目字中野１４０番地５,,03,209,0210053,,,,,,,2025-06-25,1,,,,,カネトウホールディングス,0
1594,7410001014199,新規,0,2025-06-25,2025-06-25,株式会社ＡｅｒｏＶａｔｅ,,株式会社,秋田県,秋田市,八橋南１丁目１番３号,,05,201,0100976,,,,,,,2025-06-25,1,,,,,エアロベイト,0
1597,7430001005808,新規,0,2025-06-25,2025-06-25,株式会社興農社,,株式会社,北海道,札幌市中央区,北四条西４丁目１番地ニユー札幌ビル,,01,101,0600004,,,,,,,2025-06-25,1,,,,,コウノウシャ,0
1599,7430001094727,新規,0,2025-06-25,2025-06-25,株式会社トライヴ,,株式会社,北海道,札幌市東区,北九条東１０丁目３番５１号,,01,103,0650009,,,,,,,2025-06-25,1,,,,,トライヴ,0
1603,7430003017818,新規,0,2025-06-25,2025-06-25,合同会社カレイドスコープ,,合同会社,北海道,札幌市南区,澄川五条１１丁目１番４号,,01,106,0050005,,,,,,,2025-06-25,1,,,,,カレイドスコープ,0
1612,8010003047740,新規,0,2025-06-25,2025-06-25,合同会社ＲＩＣＰＪ１,,合同会社,東京都,千代田区,霞が関３丁目２番５号,,13,101,1000013,,,,,,,2025-06-25,1,,,,,アールアイシーピージェーワン,0
1613,8010003047765,新規,0,2025-06-25,2025-06-25,合同会社ＰｌａｙＮｅｘ,,合同会社,東京都,中央区,東日本橋１丁目２－３－１００２,,13,102,1030004,,,,,,,2025-06-25,1,,,,,プレイネクス,0
1614,8010003047781,新規,0,2025-06-25,2025-06-25,ＬＶＣファンド３９号合同会社,,合同会社,東京都,千代田区,紀尾井町３－８第２紀尾井町ビル９０１アクシス綜合会計事務所内,,13,101,1020094,,,,,,,2025-06-25,1,,,,,エルブイシーファンドサンジュウキュウゴウ,0
1626,8010501054296,新規,0,2025-06-25,2025-06-25,星辰株式会社,,株式会社,東京都,台東区,松が谷２丁目１５番８号浅草Ｋ２ビル２０５号室,,13,106,1110036,,,,,,,2025-06-25,1,,,,,セイシン,0
1627,8010603011641,新規,0,2025-06-25,2025-06-25,誠商店合同会社,,合同会社,東京都,墨田区,堤通２丁目７番６号,,13,107,1310034,,,,,,,2025-06-25,1,,,,,マコトショウテン,0
1635,8011001170402,新規,0,2025-06-25,2025-06-25,株式会社Ｉｎ‐Ｓｐｅｃｔｏｒ,,株式会社,東京都,渋谷区,渋谷２丁目１９－１５宮益坂ビルディング６０９,,13,113,1500002,,,,,,,2025-06-25,1,,,,,インスペクター,0
1639,8011101112147,新規,0,2025-06-25,2025-06-25,ＥｆｆｉＷｏｒｋｓ株式会社,,株式会社,東京都,新宿区,西新宿３丁目９番７－１６０３号,,13,104,1600023,,,,,,,2025-06-25,1,,,,,エフィワークス,0
1643,8011201026429,新規,0,2025-06-25,2025-06-25,日葉株式会社,,株式会社,東京都,中野区,江古田４丁目２２番５－１０３号,,13,114,1650022,,,,,,,2025-06-25,1,,,,,ニチヨウ,0
1644,8011203004738,新規,0,2025-06-25,2025-06-25,合同会社ＰＹＲＩＴＥ,,合同会社,東京都,中野区,本町３丁目３２番１６－２０６号,,13,114,1640012,,,,,,,2025-06-25,1,,,,,パイライト,0
1652,8011503006590,新規,0,2025-06-25,2025-06-25,合同会社ＸＨ　ＴＲＡＤＥ,,合同会社,東京都,北区,田端新町１丁目７番１４号ビズフィールド西日暮里３０９,,13,117,1140012,,,,,,,2025-06-25,1,,,,,エックスエイチトレード,0
1658,8011801046363,新規,0,2025-06-25,2025-06-25,株式会社一ノ関産業,,株式会社,東京都,足立区,弘道１丁目２２番２０号,,13,121,1200013,,,,,,,2025-06-25,1,,,,,イチノセキサンギョウ,0
1659,8012301014439,新規,0,2025-06-25,2025-06-25,株式会社平野設備,,株式会社,東京都,町田市,相原町３６９番地７２,,13,209,1940211,,,,,,,2025-06-25,1,,,,,ヒラノセツビ,0
1661,8012405005128,新規,0,2025-06-25,2025-06-25,土地家屋調査士法人つぶらぎ登記測量,,その他の設立登記法人,東京都,調布市,西つつじケ丘１丁目１１番地３－１０４,,13,208,1820006,,,,,,,2025-06-25,1,,,,,ツブラギトウキソクリョウ,0
1668,8020001162697,新規,0,2025-06-25,2025-06-25,株式会社ＶＥＴＳサービス,,株式会社,神奈川県,川崎市川崎区,駅前本町１１番地２,,14,131,2100007,,,,,,,2025-06-25,1,,,,,,0
1669,8020001163539,新規,0,2025-06-25,2025-06-25,なつのひ建設株式会社,,株式会社,神奈川県,横浜市戸塚区,汲沢町４２２番地８３,,14,110,2450062,,,,,,,2025-06-25,1,,,,,ナツノヒケンセツ,0
1670,8020001163555,新規,0,2025-06-25,2025-06-25,株式会社ＦＲＥＥＷＯＲＫ,,株式会社,神奈川県,横浜市港北区,高田東３丁目１１番２４号ハイムサンフラワー１０２,,14,109,2230065,,,,,,,2025-06-25,1,,,,,フリーワーク,0
1674,8020005016916,新規,0,2025-06-25,2025-06-25,ななら社会保険労務士法人,,その他の設立登記法人,神奈川県,横浜市中区,真砂町３丁目３１アクティオーレ関内７階３号室,,14,104,2310016,,,,,,,2025-06-25,1,,,,,ナナラ,0
1677,8021001085582,新規,0,2025-06-25,2025-06-25,株式会社ＯＫＢグローバルサービス,,株式会社,神奈川県,三浦郡葉山町,堀内５２７番地の８,,14,301,2400112,,,,,,,2025-06-25,1,,,,,オーケービーグローバルサービス,0
1678,8021001085616,新規,0,2025-06-25,2025-06-25,株式会社三葉,,株式会社,神奈川県,茅ヶ崎市,松浪１丁目１番２５－４号ティアラ湘南ＩＩ１０１,00139687,14,207,2530022,,,,,,,2025-06-25,1,,,,,サンヨウ,0
1680,8021003016189,新規,0,2025-06-25,2025-06-25,Ｍ．Ｍ．ＤＯＧＳ　Ｓｔｕｄｉｏ合同会社,,合同会社,神奈川県,三浦郡葉山町,下山口７４９番地の４,,14,301,2400116,,,,,,,2025-06-25,1,,,,,エムエムドッグススタジオ,0
1686,8030001167225,新規,0,2025-06-25,2025-06-25,ハクレイデザイン株式会社,,株式会社,埼玉県,所沢市,小手指町３丁目３１番地６（１０２）,,11,208,3591141,,,,,,,2025-06-25,1,,,,,ハクレイデザイン,0
1687,8030001167241,新規,0,2025-06-25,2025-06-25,株式会社ＦＵＬＯＷＬＳ,,株式会社,埼玉県,川口市,芝高木２丁目１１番２５号フォンターナ弐番館２０１号,,11,203,3330868,,,,,,,2025-06-25,1,,,,,フロウルズ,0
1688,8030001167266,新規,0,2025-06-25,2025-06-25,株式会社ＭＫ,,株式会社,埼玉県,入間市,大字中神８１１番地１・Ｅ１５,,11,225,3580035,,,,,,,2025-06-25,1,,,,,エムケイ,0
1689,8030001167316,新規,0,2025-06-25,2025-06-25,志和株式会社,,株式会社,埼玉県,川口市,西川口１丁目１６番６号クリオ西川口壱番館１００２号室,,11,203,3320021,,,,,,,2025-06-25,1,,,,,シワ,0
1692,8030003027063,新規,0,2025-06-25,2025-06-25,合同会社雅軒,,合同会社,埼玉県,川口市,西青木４丁目７番１４－５号,,11,203,3320035,,,,,,,2025-06-25,1,,,,,ミヤビケン,0
1698,8040001139347,新規,0,2025-06-25,2025-06-25,株式会社トナリビズ,,株式会社,千葉県,柏市,小青田５丁目１－７パークホームズ柏たなか７０７号室,,12,217,2770803,,,,,,,2025-06-25,1,,,,,トナリビズ,0
1702,8040005022805,新規,0,2025-06-25,2025-06-25,一般社団法人タイムカプセルプロジェクト,,その他の設立登記法人,千葉県,茂原市,町保５－１,,12,210,2970022,,,,,,,2025-06-25,1,,,,,タイムカプセルプロジェクト,0
1712,8080001026995,新規,0,2025-06-25,2025-06-25,株式会社Ｓ＆Ｋ,,株式会社,静岡県,静岡市葵区,駒形通６丁目８番１７号,,22,101,4200042,,,,,,,2025-06-25,1,,,,,エスアンドケー,0
1713,8080101025575,新規,0,2025-06-25,2025-06-25,株式会社アグリンデ,,株式会社,静岡県,三島市,南田町２番３１号,,22,206,4110837,,,,,,,2025-06-25,1,,,,,アグリンデ,0
1715,8080403005291,新規,0,2025-06-25,2025-06-25,合同会社カワイ,,合同会社,静岡県,浜松市中央区,板屋町２番地,,22,138,4300928,,,,,,,2025-06-25,1,,,,,カワイ,0
1722,8110001039374,新規,0,2025-06-25,2025-06-25,株式会社宸昂,,株式会社,新潟県,新潟市中央区,天神尾２丁目１５番４号,,15,103,9500905,,,,,,,2025-06-25,1,,,,,シンアン,0
1729,8120001277023,新規,0,2025-06-25,2025-06-25,株式会社リクシア,,株式会社,大阪府,大阪市東住吉区,今川４丁目１２－２０,,27,121,5460003,,,,,,,2025-06-25,1,,,,,リクシア,0
1730,8120001277171,新規,0,2025-06-25,2025-06-25,株式会社ＹＯＪＵ,,株式会社,大阪府,大阪市中央区,日本橋１丁目２５－１５,,27,128,5420073,,,,,,,2025-06-25,1,,,,,ヨージュ,0
1731,8120001277188,新規,0,2025-06-25,2025-06-25,株式会社Ｌａｆｏｒｉａ,,株式会社,大阪府,大阪市中央区,南本町３丁目３－１４貴田ビル５階,,27,128,5410054,,,,,,,2025-06-25,1,,,,,ラフォリア,0
1732,8120001277205,新規,0,2025-06-25,2025-06-25,株式会社芝工業,,株式会社,大阪府,大阪市住吉区,清水丘２丁目１番３号,,27,120,5580033,,,,,,,2025-06-25,1,,,,,シバコウギョウ,0
1733,8120001277213,新規,0,2025-06-25,2025-06-25,株式会社天樹,,株式会社,大阪府,大阪市住之江区,東加賀屋１丁目９番２６－８０８号,,27,125,5590012,,,,,,,2025-06-25,1,,,,,テンキ,0
1736,8120003029843,新規,0,2025-06-25,2025-06-25,合同会社ＮＴＧ,,合同会社,大阪府,大阪市西成区,潮路２丁目４番４０号潮路ハイツ２０２,,27,122,5570052,,,,,,,2025-06-25,1,,,,,エヌティージー,0
1744,8120901051089,新規,0,2025-06-25,2025-06-25,俊思株式会社,,株式会社,大阪府,豊中市,大黒町３丁目７番１９号,,27,203,5610827,,,,,,,2025-06-25,1,,,,,ジュンス,0
1745,8120901051114,新規,0,2025-06-25,2025-06-25,サンクレイン株式会社,,株式会社,大阪府,吹田市,上山田１番７－５１２号,,27,205,5650872,,,,,,,2025-06-25,1,,,,,サンクレイン,0
1747,8130001079897,新規,0,2025-06-25,2025-06-25,株式会社Ｋ‐ＬＩＦＥ,,株式会社,京都府,京都市右京区,太秦安井小山町１５番地１４,,26,108,6168067,,,,,,,2025-06-25,1,,,,,ケーライフ,0
1748,8130001079963,新規,0,2025-06-25,2025-06-25,株式会社ナーシングケアＭ．Ｊ,,株式会社,京都府,京都市伏見区,向島９０番地６,,26,109,6120000,,,,,,,2025-06-25,1,,,,,ナーシングケアエムジェイ,0
1749,8130001079971,新規,0,2025-06-25,2025-06-25,日本福林株式会社,,株式会社,京都府,京都市左京区,吉田中大路町２２－１０３号室,,26,103,6068313,,,,,,,2025-06-25,1,,,,,ニホンフクリン,0
1751,8130003010562,新規,0,2025-06-25,2025-06-25,合同会社ＴＲＯＩＬ,,合同会社,京都府,向日市,物集女町北ノ口１００番地の１７,,26,208,6170001,,,,,,,2025-06-25,1,,,,,トロイル,0
1757,8140001139015,新規,0,2025-06-25,2025-06-25,ＳＫＹ電機株式会社,,株式会社,兵庫県,伊丹市,鈴原町８丁目４３番地,,28,207,6640882,,,,,,,2025-06-25,1,,,,,スカイデンキ,0
1758,8140001139023,新規,0,2025-06-25,2025-06-25,株式会社Ｔａｋｅ　Ｓｔａｒ,,株式会社,兵庫県,神戸市兵庫区,下沢通３丁目４番２８号,,28,105,6520047,,,,,,,2025-06-25,1,,,,,テイクスター,0
1759,8140001139064,新規,0,2025-06-25,2025-06-25,株式会社ＫＳ富士,,株式会社,兵庫県,神戸市兵庫区,大開通２丁目３番２３号,,28,105,6520803,,,,,,,2025-06-25,1,,,,,ケイエスフジ,0
1763,8150001028217,新規,0,2025-06-25,2025-06-25,株式会社Ｄｅｅｐ　Ｇｒｅｅｎ,,株式会社,奈良県,北葛城郡広陵町,大字三吉５５番地１６,,29,426,6350823,,,,,,,2025-06-25,1,,,,,ディープグリーン,0
1766,8160001026839,新規,0,2025-06-25,2025-06-25,株式会社ＪＹＵＹＯＮ１４ＡＳＬＩＦＥ,,株式会社,滋賀県,東近江市,三津屋町２９番地２１,,25,213,5270075,,,,,,,2025-06-25,1,,,,,ジューヨンアズライフ,0
1768,8180001167359,新規,0,2025-06-25,2025-06-25,株式会社Ｂ‐ＬＯＣＫ,,株式会社,愛知県,名古屋市中区,栄５丁目１番５号,,23,106,4600008,,,,,,,2025-06-25,1,,,,,ビーロック,0
1769,8180001167441,新規,0,2025-06-25,2025-06-25,株式会社ひまもりＬａｂ,,株式会社,愛知県,大府市,横根町名高山８４番地の７,,23,223,4740011,,,,,,,2025-06-25,1,,,,,ヒマモリラボ,0
1770,8180005021132,新規,0,2025-06-25,2025-06-25,一般社団法人日本ダイアログメンター協会,,その他の設立登記法人,愛知県,春日井市,気噴町２丁目２０番地１メゾンルミナス２０５号,,23,206,4870014,,,,,,,2025-06-25,1,,,,,ニホンダイアログメンターキョウカイ,0
1772,8180303006628,新規,0,2025-06-25,2025-06-25,合同会社もくもく,,合同会社,愛知県,新城市,稲木１０３４番地,,23,221,4411351,,,,,,,2025-06-25,1,,,,,モクモク,0
1779,8210005010214,新規,0,2025-06-25,2025-06-25,一般社団法人北陸医療福祉研究所,,その他の設立登記法人,福井県,あわら市,花乃杜４丁目１２番２２号,,18,208,9190633,,,,,,,2025-06-25,1,,,,,ホクリクイリョウフクシケンキュウジョ,0
1783,8240001065102,新規,0,2025-06-25,2025-06-25,エス・ワークス株式会社,,株式会社,広島県,広島市南区,比治山町４番４－７０１号,,34,103,7320817,,,,,,,2025-06-25,1,,,,,エスワークス,0
1784,8240001065110,新規,0,2025-06-25,2025-06-25,株式会社ルースプロピア,,株式会社,広島県,三原市,本郷町上北方１０２９番地３,,34,204,7290415,,,,,,,2025-06-25,1,,,,,ルースプロピア,0
1801,8290001110530,新規,0,2025-06-25,2025-06-25,株式会社零建装,,株式会社,福岡県,久留米市,城島町芦塚８６６番地１の２,00139690,40,203,8300201,,,,,,,2025-06-25,1,,,,,ゼロケンソウ,0
1808,8300001014234,新規,0,2025-06-25,2025-06-25,ＨＩＲＡＴＡホールディングス株式会社,,株式会社,佐賀県,唐津市,二タ子３丁目２１２番地,,41,202,8470861,,,,,,,2025-06-25,1,,,,,ヒラタホールディングス,0
1813,8320001021170,新規,0,2025-06-25,2025-06-25,株式会社ＥＲＡＢＡＳＥ,,株式会社,大分県,大分市,中島東３丁目３番３５－６０２号サンリット中島東,,44,201,8700043,,,,,,,2025-06-25,1,,,,,エラベイス,0
1814,8330001033322,新規,0,2025-06-25,2025-06-25,株式会社ＢＥＮＤＳ,,株式会社,熊本県,熊本市中央区,上通町３番２１号ＣＩＴＹ　ＬＯＤＧＥ４Ｆ,,43,101,8600845,,,,,,,2025-06-25,1,,,,,ベンズ,0
1815,8340001027356,新規,0,2025-06-25,2025-06-25,株式会社霧島横川酒造,,株式会社,鹿児島県,霧島市,横川町上ノ３２８０番地５,,46,218,8996301,,,,,,,2025-06-25,1,,,,,キリシマヨコガワシュゾウ,0
1817,8350001019609,新規,0,2025-06-25,2025-06-25,株式会社聖大不動産,,株式会社,宮崎県,宮崎市,源藤町原田３４９番地１フレンドハウス１０５号,,45,201,8800927,,,,,,,2025-06-25,1,,,,,セイダイフドウサン,0
1819,8360003015027,新規,0,2025-06-25,2025-06-25,合同会社檜花,,合同会社,沖縄県,沖縄市,比屋根２丁目１２番８号,,47,211,9042173,,,,,,,2025-06-25,1,,,,,カイカ,0
1820,8360003015035,新規,0,2025-06-25,2025-06-25,合同会社まちなと企画,,合同会社,沖縄県,浦添市,牧港１丁目４９－７,,47,208,9012131,,,,,,,2025-06-25,1,,,,,マチナトキカク,0
1822,8370003007163,新規,0,2025-06-25,2025-06-25,合同会社ＨＯＯＫＣＵＬ,,合同会社,宮城県,仙台市青葉区,本町１丁目５―２８カーニープレイス仙台駅前通６０３,,04,101,9800014,,,,,,,2025-06-25,1,,,,,フッカル,0
1825,8380003006073,新規,0,2025-06-25,2025-06-25,合同会社葵,,合同会社,福島県,須賀川市,山寺道８１番地７,,07,207,9620006,,,,,,,2025-06-25,1,,,,,アオイ,0
1826,8380005012986,新規,0,2025-06-25,2025-06-25,一般社団法人あげつちそだちあい,,その他の設立登記法人,福島県,いわき市,平字揚土５番地,,07,204,9708026,,,,,,,2025-06-25,1,,,,,アゲツチソダチアイ,0
1836,8450003002684,新規,0,2025-06-25,2025-06-25,合同会社稲場組,,合同会社,北海道,旭川市,七条通１３丁目６０番地の２１,,01,204,0700037,,,,,,,2025-06-25,1,,,,,イナバグミ,0
1839,8500001026366,新規,0,2025-06-25,2025-06-25,ＳＨＯＷＡホールディングス株式会社,,株式会社,愛媛県,喜多郡内子町,平岡甲４００番地１,,38,422,7950303,,,,,,,2025-06-25,1,,,,,ショウワホールディングス,0
1840,8700150030272,新規,0,2025-06-25,2015-10-09,西吉野柿選果場,,その他,奈良県,五條市,西吉野町奥谷１９５５番地,,29,207,6380663,,,,,,,2015-10-09,1,,,,,ニシヨシノカキセンカジヨウ,0
1849,9010001256268,新規,0,2025-06-25,2025-06-25,ＲＩソリューションズ株式会社,,株式会社,東京都,中央区,日本橋蛎殻町２０番１０号ダイアビル２階,,13,102,1030000,,,,,,,2025-06-25,1,,,,,アールアイソリューションズ,0
1850,9010001256276,新規,0,2025-06-25,2025-06-25,株式会社オフィスイシカワ,,株式会社,東京都,中央区,銀座１丁目１２番４号Ｎ＆ＥＢＬＤ．６Ｆ,,13,102,1040061,,,,,,,2025-06-25,1,,,,,オフィスイシカワ,0
1866,9010601067478,新規,0,2025-06-25,2025-06-25,ＳＡＴＯＵＦＵＴＵＲＥ株式会社,,株式会社,東京都,墨田区,文花１丁目３２番２－１１０７号,,13,107,1310044,,,,,,,2025-06-25,1,,,,,サトウフューチャー,0
1867,9010601067503,新規,0,2025-06-25,2025-06-25,ＣＯＢＯＬ　ＰＡＲＫ株式会社,,株式会社,東京都,江東区,豊洲３丁目２番２４号,,13,108,1350061,,,,,,,2025-06-25,1,,,,,コボルパーク,0
1873,9010901057617,新規,0,2025-06-25,2025-06-25,株式会社エンゲージ,,株式会社,東京都,世田谷区,喜多見３丁目１７番１号,,13,112,1570067,,,,,,,2025-06-25,1,,,,,エンゲージ,0
1874,9010901057633,新規,0,2025-06-25,2025-06-25,株式会社ユーエス,,株式会社,東京都,世田谷区,松原５丁目５番７号サンライズマンションＩＩ２０２,00139683,13,112,1560043,,,,,,,2025-06-25,1,,,,,ユーエス,0
1880,9010903010029,新規,0,2025-06-25,2025-06-25,Ｓｐｉｎｔｅｇｒａｔｅ合同会社,,合同会社,東京都,世田谷区,下馬３丁目２９番１６号,,13,112,1540002,,,,,,,2025-06-25,1,,,,,スピンテグレート,0
1890,9011101112088,新規,0,2025-06-25,2025-06-25,株式会社ＣＬＩＶＥ,,株式会社,東京都,新宿区,若葉１丁目１番地１３,,13,104,1600011,,,,,,,2025-06-25,1,,,,,クライブ,0
1891,9011101112146,新規,0,2025-06-25,2025-06-25,株式会社ぶれーめん,,株式会社,東京都,新宿区,荒木町３－２３国都マンション四谷１Ｆ,,13,104,1600007,,,,,,,2025-06-25,1,,,,,ブレーメン,0
1892,9011101112245,新規,0,2025-06-25,2025-06-25,株式会社Ｃｏｌｏｒｆｕｌ　Ｃｏｍｐａｓｓ,,株式会社,東京都,新宿区,西新宿３丁目３番１３号西新宿水間ビル６階,,13,104,1600023,,,,,,,2025-06-25,1,,,,,カラフルコンパス,0
1894,9011701028469,新規,0,2025-06-25,2025-06-25,株式会社中澤組,,株式会社,東京都,江戸川区,篠崎町４丁目３１番１３号,,13,123,1330061,,,,,,,2025-06-25,1,,,,,ナカザワグミ,0
1898,9011801046362,新規,0,2025-06-25,2025-06-25,株式会社Ｌｉｂｅｒｏ,,株式会社,東京都,足立区,西綾瀬１丁目３番１２号,,13,121,1200014,,,,,,,2025-06-25,1,,,,,リベロ,0
1899,9012403007208,新規,0,2025-06-25,2025-06-25,合同会社リーチプロ,,合同会社,東京都,多摩市,永山２丁目２７－１３－３０７,,13,224,2060025,,,,,,,2025-06-25,1,,,,,リーチプロ,0
1903,9013301054515,新規,0,2025-06-25,2025-06-25,加明心株式会社,,株式会社,東京都,豊島区,西巣鴨１丁目２番２２号ＷＡＮＤＡビル２階,,13,116,1700001,,,,,,,2025-06-25,1,,,,,カメイシン,0
1905,9020001163505,新規,0,2025-06-25,2025-06-25,Ｓ＆Ｃ株式会社,,株式会社,神奈川県,横浜市神奈川区,子安通３丁目３５３番地１６１１号,,14,102,2210021,,,,,,,2025-06-25,1,,,,,エスアンドシー,0
1906,9020001163521,新規,0,2025-06-25,2025-06-25,株式会社Ｍ’ｓ　ＢＡＳＥ,,株式会社,神奈川県,横浜市瀬谷区,二ツ橋町１７４,,14,114,2460021,,,,,,,2025-06-25,1,,,,,エムズベース,0
1910,9020003028722,新規,0,2025-06-25,2025-06-25,合同会社Ｌａｖｉａ,,合同会社,神奈川県,横浜市金沢区,能見台東１‐７Ｋ‐ＳＱＵＡＲＥビル１Ｆ,,14,108,2360058,,,,,,,2025-06-25,1,,,,,ラビア,0
1911,9020003028788,新規,0,2025-06-25,2025-06-25,合同会社ニコ,,合同会社,神奈川県,横浜市都筑区,茅ケ崎東２丁目２６－３３,,14,118,2240033,,,,,,,2025-06-25,1,,,,,ニコ,0
1912,9020003028796,新規,0,2025-06-25,2025-06-25,合同会社みろく,,合同会社,神奈川県,横浜市西区,浅間町１丁目４番２号ウィザードビル４０２,,14,103,2200072,,,,,,,2025-06-25,1,,,,,ミロク,0
1915,9021001085615,新規,0,2025-06-25,2025-06-25,Ｓ．Ｔ．Ｋ株式会社,,株式会社,神奈川県,藤沢市,本鵠沼３丁目９番１４号,,14,205,2510028,,,,,,,2025-06-25,1,,,,,エスティーケー,0
1917,9021003016188,新規,0,2025-06-25,2025-06-25,合同会社Ｊａｌｉｎａｎ,,合同会社,神奈川県,相模原市南区,磯部１０００－５,,14,153,2520327,,,,,,,2025-06-25,1,,,,,ジャリナン,0
1925,9030001167249,新規,0,2025-06-25,2025-06-25,株式会社キズマズ,,株式会社,埼玉県,川口市,南前川２丁目２３番７号国際川口ビル３０１,,11,203,3330846,,,,,,,2025-06-25,1,,,,,キズマズ,0
1928,9030003027070,新規,0,2025-06-25,2025-06-25,合同会社オオクマ不動産管理,,合同会社,埼玉県,さいたま市桜区,大字大久保領家１番地１,,11,106,3380826,,,,,,,2025-06-25,1,,,,,オオクマフドウサンカンリ,0
1929,9030003027079,新規,0,2025-06-25,2025-06-25,Ｔａｊｍａｎ　Ｃｏｒｐｏｒａｔｉｏｎ合同会社,,合同会社,埼玉県,狭山市,新狭山３丁目５番地の２スカイハイツ堂坂３０２,,11,215,3501331,,,,,,,2025-06-25,1,,,,,タジマンコーポレーション,0
1938,9040003027904,新規,0,2025-06-25,2025-06-25,合同会社ｌｉｎｋサポート,,合同会社,千葉県,柏市,松葉町３丁目３番地１９,,12,217,2770827,,,,,,,2025-06-25,1,,,,,リンクサポート,0
1940,9050005013645,新規,0,2025-06-25,2025-06-25,一般社団法人ぴくせるらぼ,,その他の設立登記法人,茨城県,坂東市,小泉２１５番地２,,08,228,3060635,,,,,,,2025-06-25,1,,,,,ピクセルラボ,0
1941,9060001038323,新規,0,2025-06-25,2025-06-25,株式会社星空,,株式会社,栃木県,栃木市,藤岡町藤岡５２０９番地７,,09,203,3231104,,,,,,,2025-06-25,1,,,,,ホシゾラ,0
1955,9120001277121,新規,0,2025-06-25,2025-06-25,株式会社ａｓｕ‐ｐｉｋａ,,株式会社,大阪府,大阪市北区,梅田１丁目２番２号大阪駅前第２ビル１２－１２,,27,127,5300001,,,,,,,2025-06-25,1,,,,,アスピカ,0
1956,9120001277220,新規,0,2025-06-25,2025-06-25,株式会社ＫＡＩ,,株式会社,大阪府,大阪市北区,兎我野町１３番２号ＭＤビル,,27,127,5300056,,,,,,,2025-06-25,1,,,,,カイ,0
1958,9120003029818,新規,0,2025-06-25,2025-06-25,合同会社Ａ‐ｓｔｙｌｅ,,合同会社,大阪府,大阪市北区,扇町２丁目６番１０－２０８号,,27,127,5300025,,,,,,,2025-06-25,1,,,,,エースタイル,0
1959,9120003029826,新規,0,2025-06-25,2025-06-25,合同会社椿,,合同会社,大阪府,大阪市東淀川区,東中島４丁目１０－７－４０１,,27,114,5330033,,,,,,,2025-06-25,1,,,,,ツバキ,0
1960,9120003029850,新規,0,2025-06-25,2025-06-25,合同会社旧軽井沢リゾートレジデンス開発,,合同会社,大阪府,大阪市天王寺区,味原町１３番１７号,,27,109,5430023,,,,,,,2025-06-25,1,,,,,キュウカルイザワリゾートレジデンスカイハツ,0
1961,9120101071952,新規,0,2025-06-25,2025-06-25,株式会社ピンクの亀,,株式会社,大阪府,堺市堺区,大町東２丁１－２７,,27,141,5900954,,,,,,,2025-06-25,1,,,,,ピンクノカメ,0
1962,9120901051088,新規,0,2025-06-25,2025-06-25,株式会社ＳＫＥＴ,,株式会社,大阪府,吹田市,垂水町３丁目１９番１３号幸和セントラルビジネスビル３０１,,27,205,5640062,,,,,,,2025-06-25,1,,,,,スケット,0
1963,9120905006749,新規,0,2025-06-25,2025-06-25,一般社団法人日本臨床歯科ミリングパーシャル協会,,その他の設立登記法人,大阪府,三島郡島本町,桜井１丁目８番２,,27,301,6180022,,,,,,,2025-06-25,1,,,,,ニホンリンショウシカミリングパーシャルキョウカイ,0
1965,9122001039369,新規,0,2025-06-25,2025-06-25,株式会社３３６６,,株式会社,大阪府,東大阪市,長田西１丁目５番９号,,27,227,5770016,,,,,,,2025-06-25,1,,,,,サンサンロクロク,0
1967,9130001079962,新規,0,2025-06-25,2025-06-25,株式会社クレイブテック,,株式会社,京都府,京都市中京区,間之町通御池上る高田町５０２番地,,26,104,6040834,,,,,,,2025-06-25,1,,,,,クレイブテック,0
1968,9130001079987,新規,0,2025-06-25,2025-06-25,株式会社ＯＮＥ,,株式会社,京都府,京都市山科区,大宅御所田町８番地２５,,26,110,6078179,,,,,,,2025-06-25,1,,,,,ワン,0
1975,9140001138998,新規,0,2025-06-25,2025-06-25,株式会社ＴＹ,,株式会社,兵庫県,神戸市須磨区,大池町５丁目１７番１－２８０２号,,28,107,6540026,,,,,,,2025-06-25,1,,,,,ティワイ,0
1976,9140001139039,新規,0,2025-06-25,2025-06-25,株式会社龍野貿易,,株式会社,兵庫県,たつの市,龍野町北龍野３２４番地,,28,229,6794171,,,,,,,2025-06-25,1,,,,,タツノボウエキ,0
1980,9170001018685,新規,0,2025-06-25,2025-06-25,エアプロｗａｋａｙａｍａ株式会社,,株式会社,和歌山県,和歌山市,毛見１１１２番地１６,,30,201,6410014,,,,,,,2025-06-25,1,,,,,エアプロワカヤマ,0
1992,9180001167449,新規,0,2025-06-25,2025-06-25,株式会社信紅縁,,株式会社,愛知県,名古屋市天白区,塩釜口１丁目８２５番地の１プリマ塩釜２０１号,,23,116,4680073,,,,,,,2025-06-25,1,,,,,シンクエン,0
1997,9180003028673,新規,0,2025-06-25,2025-06-25,ＡＬ建設合同会社,,合同会社,愛知県,江南市,小杁町林７３,,23,217,4838404,,,,,,,2025-06-25,1,,,,,アルケンセツ,0
1999,9180301039926,新規,0,2025-06-25,2025-06-25,株式会社全国ナイサグループ,,株式会社,愛知県,刈谷市,大手町４丁目１５番,,23,210,4480857,,,,,,,2025-06-25,1,,,,,ゼンコクナイサグループ,0
2012,9210001020216,新規,0,2025-06-25,2025-06-25,株式会社ｃｏｃｏｒｕ,,株式会社,福井県,敦賀市,山３５号２番地の１８,,18,202,9140134,,,,,,,2025-06-25,1,,,,,ココル,0
2019,9260003005227,新規,0,2025-06-25,2025-06-25,合同会社ＭＩＺＵＮＯ,,合同会社,岡山県,玉野市,北方２４７番地７,,33,204,7060301,,,,,,,2025-06-25,1,,,,,ミズノ,0
2020,9290001110447,新規,0,2025-06-25,2025-06-25,株式会社太郎,,株式会社,福岡県,福岡市東区,三苫２丁目１８－５,,40,131,8110201,,,,,,,2025-06-25,1,,,,,タロウ,0
2023,9290003016972,新規,0,2025-06-25,2025-06-25,アンバーライト合同会社,,合同会社,福岡県,福岡市東区,馬出１丁目３１番５号,,40,131,8120054,,,,,,,2025-06-25,1,,,,,アンバーライト,0
2033,9320001021178,新規,0,2025-06-25,2025-06-25,株式会社ＤｒｅａｍＴｅｃｈ　Ｓｏｌｕｔｉｏｎｓ,,株式会社,大分県,大分市,大字小池原５０４番地の３,,44,201,8700147,,,,,,,2025-06-25,1,,,,,ドリームテックソリューションズ,0
2035,9340001027454,新規,0,2025-06-25,2025-06-25,株式会社八百せん,,株式会社,鹿児島県,鹿児島市,東開町１１番地１（鹿児島中央卸売市場内）,,46,201,8910115,,,,,,,2025-06-25,1,,,,,ヤオセン,0
2036,9340001027462,新規,0,2025-06-25,2025-06-25,株式会社ドルジホールディングス,,株式会社,鹿児島県,鹿児島市,吉野町２７６４番地１,,46,201,8920871,,,,,,,2025-06-25,1,,,,,ドルジホールディングス,0
2040,9370001052739,新規,0,2025-06-25,2025-06-25,株式会社ＮＬ　Ｗｏｒｋｓ,,株式会社,宮城県,仙台市青葉区,南吉成４丁目４番地の２,,04,101,9893204,,,,,,,2025-06-25,1,,,,,エヌエルワークス,0
2043,9380003006072,新規,0,2025-06-25,2025-06-25,口太山風力合同会社,,合同会社,福島県,福島市,栄町７番３３号福島トヨタビル,,07,201,9608031,,,,,,,2025-06-25,1,,,,,クチブトヤマフウリョク,0
2046,9400001017085,新規,0,2025-06-25,2025-06-25,株式会社足プロ,,株式会社,岩手県,盛岡市,西見前１５地割６８番地４４,,03,201,0200833,,,,,,,2025-06-25,1,,,,,アシプロ,0
2060,9430005015256,新規,0,2025-06-25,2025-06-25,特定非営利活動法人西胆振たすけ愛福祉活動協議会,,その他の設立登記法人,北海道,室蘭市,海岸町２丁目６番１号ＪＢＭビル,,01,205,0510022,,,,,,,2025-06-25,1,,,,,ニシイブリタスケアイフクシカツドウキョウギカイ,0
2062,9450001014656,新規,0,2025-06-25,2025-06-25,株式会社阿部林業,,株式会社,北海道,留萌市,大和田３丁目２２６番３,,01,212,0770012,,,,,,,2025-06-25,1,,,,,アベリンギョウ,0
2064,9470001020776,新規,0,2025-06-25,2025-06-25,株式会社中庄水産,,株式会社,香川県,観音寺市,西本町２丁目１１番１２号,,37,205,7680075,,,,,,,2025-06-25,1,,,,,ナカショウスイサン,0
2065,9480001012871,新規,0,2025-06-25,2025-06-25,株式会社モリモト,,株式会社,徳島県,美馬市,美馬町字下白地１１番地,,36,207,7712102,,,,,,,2025-06-25,1,,,,,モリモト,0
2067,9500001026365,新規,0,2025-06-25,2025-06-25,株式会社昇耀,,株式会社,愛媛県,松山市,平田町２５０番地１メイクロードＶ２０３号,,38,201,7918001,,,,,,,2025-06-25,1,,,,,ショウヨウ,0
2069,9700150030040,新規,0,2025-06-25,2015-10-09,奈良マラソン実行委員会,,その他,奈良県,奈良市,法蓮町７５７　奈良総合庁舎,,29,201,6308113,,,,,,,2015-10-09,1,,,,,ナラマラソンジツコウイインカイ,0
2070,9700150131268,新規,0,2025-06-25,2025-06-25,黒島若宮八幡宮再建委員会,,その他,石川県,輪島市,門前町黒島町イの１０３番地,,17,204,9272165,,,,,,,2025-06-25,1,,,,,クロシマワカミヤハチマングウサイケンイインカイ,0
