sequenceNumber,corporateNumber,process,correct,updateDate,changeDate,name,nameImageId,kind,prefectureName,cityName,streetNumber,addressImageId,prefectureCode,cityCode,postCode,addressOutside,addressOutsideImageId,closeDate,closeCause,successorCorporateNumber,changeCause,assignmentDate,latest,enName,enPrefectureName,enCityName,enAddressOutside,furigana,hihyoji
16,1010001222599,新規,0,2021-11-18,2021-11-18,Ｖｏｌｔ　Ｓｏｌｕｔｉｏｎｓ株式会社,,株式会社,東京都,千代田区,五番町１２番地７－２０４３,,13,101,1020076,,,,,,,2021-11-18,1,,,,,ヴォルトソリューションツ,0
17,1010001222640,新規,0,2021-11-18,2021-11-18,株式会社ラフライフ,,株式会社,東京都,中央区,日本橋２丁目１－１７丹生ビル２Ｆ,,13,102,1030027,,,,,,,2021-11-18,1,,,,,ラフライフ,0
18,1010001222657,新規,0,2021-11-18,2021-11-18,株式会社バニスター,,株式会社,東京都,中央区,人形町二丁目３番８号,,13,102,1030000,,,,,,,2021-11-18,1,,,,,バニスター,0
19,1010001222665,新規,0,2021-11-18,2021-11-18,ＨＭＪホールディングス株式会社,,株式会社,東京都,千代田区,丸の内２丁目１番１号,,13,101,1000005,,,,,,,2021-11-18,1,,,,,エイチエムジェーホールディングス,0
20,1010001222673,新規,0,2021-11-18,2021-11-18,株式会社ＣＬＩＰ第２１７号,,株式会社,東京都,千代田区,丸の内２丁目７番２号,,13,101,1000005,,,,,,,2021-11-18,1,,,,,シーエルアイピーダイニヒャクジュウナナゴウ,0
21,1010001222681,新規,0,2021-11-18,2021-11-18,株式会社ＣＬＩＰ第２２５号,,株式会社,東京都,千代田区,丸の内２丁目７番２号,,13,101,1000005,,,,,,,2021-11-18,1,,,,,シーエルアイピーダイニヒャクニジュウゴゴウ,0
22,1010001222698,新規,0,2021-11-18,2021-11-18,株式会社ＳＨＩＰ第２５１号,,株式会社,東京都,千代田区,丸の内２丁目７番２号,,13,101,1000005,,,,,,,2021-11-18,1,,,,,エスエイチアイピーダイニヒャクゴジュウイチゴウ,0
23,1010001222707,新規,0,2021-11-18,2021-11-18,大阪燃気生活電気株式会社,,株式会社,東京都,中央区,日本橋蛎殻町１丁目３番５号共同ビル２階２３号,,13,102,1030014,,,,,,,2021-11-18,1,,,,,オオサカゼンキセイカツデンキ,0
26,1010003036304,新規,0,2021-11-18,2021-11-18,合同会社はやぶさ１号,,合同会社,東京都,中央区,日本橋１丁目４番１号日本橋一丁目ビルディング,,13,102,1030027,,,,,,,2021-11-18,1,,,,,ハヤブサイチゴウ,0
27,1010003036345,新規,0,2021-11-18,2021-11-18,Ｘ－Ｅｌｉｏ２２合同会社,,合同会社,東京都,中央区,銀座４丁目１４番１１号七十七銀座ビル８階,,13,102,1040061,,,,,,,2021-11-18,1,,,,,エクセリオトゥエンティーツー,0
29,1010005034231,新規,0,2021-11-18,2021-11-18,一般社団法人ＦＫ,,その他の設立登記法人,東京都,千代田区,丸の内３丁目１番１号東京共同会計事務所内,,13,101,1000005,,,,,,,2021-11-18,1,,,,,エフケー,0
34,1010401163864,新規,0,2021-11-18,2021-11-18,株式会社Ｏｎｅｎｅｓｓ,,株式会社,東京都,港区,南青山２丁目２番１５号,,13,103,1070062,,,,,,,2021-11-18,1,,,,,ワンネス,0
35,1010401163880,新規,0,2021-11-18,2021-11-18,株式会社ｃｏｃｈｉｉｔａ,,株式会社,東京都,港区,南青山２丁目２番１５号ウィン青山９４２,,13,103,1070062,,,,,,,2021-11-18,1,,,,,コチイタ,0
36,1010403026524,新規,0,2021-11-18,2021-11-18,ｉｎｔｅｒａｃｔｉｏｎ＆ｃｏ．合同会社,,合同会社,東京都,港区,白金２丁目７番６－１０５,,13,103,1080072,,,,,,,2021-11-18,1,,,,,インタラクションアンドシーオードット,0
43,1010601060234,新規,0,2021-11-18,2021-11-18,株式会社クオリティーコンサル,,株式会社,東京都,墨田区,両国４丁目３５番１号タカシマ三共フラット１０４号室,,13,107,1300026,,,,,,,2021-11-18,1,,,,,クオリティーコンサル,0
44,1010601060242,新規,0,2021-11-18,2021-11-18,株式会社ＲｅＬＩＥＮ,,株式会社,東京都,江東区,白河２丁目８番６号,,13,108,1350021,,,,,,,2021-11-18,1,,,,,リアン,0
52,1011001144049,新規,0,2021-11-18,2021-11-18,株式会社ＤｉｖｅＬｉｖｅ,,株式会社,東京都,渋谷区,広尾１丁目１５番８－３０３号,,13,113,1500012,,,,,,,2021-11-18,1,,,,,ダイブライブ,0
53,1011003013722,新規,0,2021-11-18,2021-11-18,合同会社ＣｒｅｓＣａｓｋ,,合同会社,東京都,渋谷区,千駄ヶ谷１丁目５番７号,,13,113,1510051,,,,,,,2021-11-18,1,,,,,クレスカスク,0
59,1011103011188,新規,0,2021-11-18,2021-11-18,合同会社ｉｒｉｓ,,合同会社,東京都,新宿区,北新宿２丁目２１番１号新宿フロントタワー３０Ｆ,,13,104,1690074,,,,,,,2021-11-18,1,,,,,アイリス,0
60,1011103011196,新規,0,2021-11-18,2021-11-18,合同会社モスク,,合同会社,東京都,新宿区,新宿２丁目１２番１３号新宿アントレサロンビル２階,,13,104,1600022,,,,,,,2021-11-18,1,,,,,モスク,0
76,1012301012770,新規,0,2021-11-18,2021-11-18,株式会社３５６,,株式会社,東京都,町田市,原町田６丁目９番８号アエタ町田４階ＢＵＳＯＡＧＯＲＡ,,13,209,1940013,,,,,,,2021-11-18,1,,,,,サンゴロウ,0
84,1013303005911,新規,0,2021-11-18,2021-11-18,Ｈ＆Ｅ合同会社,,合同会社,東京都,豊島区,巣鴨３丁目６番８号アランブラすがも３０４号,,13,116,1700002,,,,,,,2021-11-18,1,,,,,エイチアンドイー,0
91,1020001143919,新規,0,2021-11-18,2021-11-18,ＩＲｉｎｎｏｖａｔｉｏｎ株式会社,,株式会社,神奈川県,横浜市港北区,高田東３丁目２８番４７号,,14,109,2230065,,,,,,,2021-11-18,1,,,,,アイアールイノベーション,0
92,1020001143976,新規,0,2021-11-18,2021-11-18,株式会社ＫＤｐｌｕｓ,,株式会社,神奈川県,横浜市神奈川区,神大寺２丁目９番１２－２０６号,,14,102,2210801,,,,,,,2021-11-18,1,,,,,ケイディープラス,0
93,1020001143992,新規,0,2021-11-18,2021-11-18,株式会社ドリペイ,,株式会社,神奈川県,横浜市西区,北幸１丁目１１番１号,,14,103,2200004,,,,,,,2021-11-18,1,,,,,ドリペイ,0
101,1020003020843,新規,0,2021-11-18,2021-11-18,ＪＵＧＮＯＯ合同会社,,合同会社,神奈川県,横浜市磯子区,洋光台３丁目１１番１０号,,14,107,2350045,,,,,,,2021-11-18,1,,,,,ジュグヌ,0
103,1021001074476,新規,0,2021-11-18,2021-11-18,株式会社Ｍラボ,,株式会社,神奈川県,中郡大磯町,国府本郷８６３番地８,,14,341,2590111,,,,,,,2021-11-18,1,,,,,エムラボ,0
104,1021001074534,新規,0,2021-11-18,2021-11-18,佳園株式会社,,株式会社,神奈川県,小田原市,荻窪３１４－１正和ビルひがし４０３,,14,206,2500042,,,,,,,2021-11-18,1,,,,,カエン,0
112,1030001145377,新規,0,2021-11-18,2021-11-18,株式会社ＳＮＫ,,株式会社,埼玉県,三郷市,新三郷ららシティ２丁目１番２－１６１３号,,11,237,3410009,,,,,,,2021-11-18,1,,,,,エスエヌケー,0
113,1030001145402,新規,0,2021-11-18,2021-11-18,株式会社Ｏｈａｎａ,,株式会社,埼玉県,さいたま市南区,辻７丁目１３番１８－１０４号,00124913,11,108,3360026,,,,,,,2021-11-18,1,,,,,オハナ,0
114,1030001145419,新規,0,2021-11-18,2021-11-18,株式会社Ｐ＆Ｃトータルサポート,,株式会社,埼玉県,鴻巣市,広田１４７０番地４,,11,217,3650005,,,,,,,2021-11-18,1,,,,,ピーアンドシートータルサポート,0
120,1030003018333,新規,0,2021-11-18,2021-11-18,ワン・オーガスト合同会社,,合同会社,埼玉県,ふじみ野市,苗間２２－８,,11,245,3560052,,,,,,,2021-11-18,1,,,,,ワンオーガスト,0
121,1030003018341,新規,0,2021-11-18,2021-11-18,合同会社誠和工業,,合同会社,埼玉県,加須市,本町１０番９号,,11,210,3470066,,,,,,,2021-11-18,1,,,,,セイワコウギョウ,0
125,1040001121014,新規,0,2021-11-18,2021-11-18,ＭＳＡ株式会社,,株式会社,千葉県,船橋市,田喜野井５丁目２３番３号,,12,204,2740073,,,,,,,2021-11-18,1,,,,,エムエスエー,0
126,1040001121030,新規,0,2021-11-18,2021-11-18,株式会社エイトマネジメント,,株式会社,千葉県,市川市,中国分１丁目１４番１１号,,12,203,2720835,,,,,,,2021-11-18,1,,,,,エイトマネジメント,0
150,1100001034820,新規,0,2021-11-18,2021-11-18,株式会社ＭＳＢパートナーズ,,株式会社,長野県,佐久市,塚原５３７番地１８,,20,217,3850025,,,,,,,2021-11-18,1,,,,,エムエスビーパートナーズ,0
153,1110005016731,新規,0,2021-11-18,2021-11-18,特定非営利活動法人ｃｏｃｏｉｒｏ,,その他の設立登記法人,新潟県,南魚沼郡湯沢町,大字湯沢１８３１番地,,15,461,9496101,,,,,,,2021-11-18,1,,,,,ココイロ,0
162,1120001241869,新規,0,2021-11-18,2021-11-18,株式会社ティー・リレーション,,株式会社,大阪府,寝屋川市,寿町６１番８－３０２号,,27,215,5720029,,,,,,,2021-11-18,1,,,,,ティーリレーション,0
163,1120001241943,新規,0,2021-11-18,2021-11-18,環境ホールディングス株式会社,,株式会社,大阪府,枚方市,招提大谷２丁目１８番１号,,27,210,5731153,,,,,,,2021-11-18,1,,,,,,0
164,1120001241968,新規,0,2021-11-18,2021-11-18,株式会社ちな,,株式会社,大阪府,大阪市住之江区,南港北２丁目１番１０号ＡＴＣビル,,27,125,5590034,,,,,,,2021-11-18,1,,,,,チナ,0
165,1120001241976,新規,0,2021-11-18,2021-11-18,日本ヴァリティー株式会社,,株式会社,大阪府,大阪市鶴見区,放出東３丁目１０番１０号,,27,124,5380044,,,,,,,2021-11-18,1,,,,,ニホンヴァリティー,0
170,1120003020619,新規,0,2021-11-18,2021-11-18,合同会社Ｇ＆ＹＵ,,合同会社,大阪府,大阪市東成区,東中本２丁目２－２５,,27,115,5370021,,,,,,,2021-11-18,1,,,,,ジーアンドユウ,0
172,1120101064666,新規,0,2021-11-18,2021-11-18,ネクストソリューション株式会社,,株式会社,大阪府,羽曳野市,南恵我之荘５丁目２８番７号,,27,222,5830885,,,,,,,2021-11-18,1,,,,,ネクストソリューション,0
173,1120101064682,新規,0,2021-11-18,2021-11-18,１－ｄｉｍｅｎｓｉｏｎａｌ　ｗｏｒｋ　ｏｆｆｉｃｅ株式会社,,株式会社,大阪府,堺市東区,北野田１５８番地５,,27,143,5998123,,,,,,,2021-11-18,1,,,,,ワンディメンショナルワークオフィス,0
184,1140001123909,新規,0,2021-11-18,2021-11-18,株式会社アルクリモデル,,株式会社,兵庫県,尼崎市,武庫の里２丁目２４番１号エスタブ２階,,28,202,6610041,,,,,,,2021-11-18,1,,,,,アルクリモデル,0
188,1140003016994,新規,0,2021-11-18,2021-11-18,合同会社えん,,合同会社,兵庫県,尼崎市,東園田町４丁目９３番地の３,,28,202,6610953,,,,,,,2021-11-18,1,,,,,エン,0
205,1180001148753,新規,0,2021-11-18,2021-11-18,株式会社ミテレ,,株式会社,愛知県,名古屋市西区,那古野１丁目６番１８号,,23,104,4510042,,,,,,,2021-11-18,1,,,,,ミテレ,0
206,1180001148778,新規,0,2021-11-18,2021-11-18,株式会社カンフィリエンス,,株式会社,愛知県,名古屋市北区,清水１丁目１番１３号,,23,103,4620844,,,,,,,2021-11-18,1,,,,,カンフィリエンス,0
207,1180001148786,新規,0,2021-11-18,2021-11-18,株式会社アテンド,,株式会社,愛知県,名古屋市昭和区,山中町１丁目４８番地１ビラ三秀山中,,23,107,4660828,,,,,,,2021-11-18,1,,,,,アテンド,0
208,1180001148794,新規,0,2021-11-18,2021-11-18,アイルホーム株式会社,,株式会社,愛知県,名古屋市港区,九番町３丁目４１番地の６,,23,111,4550008,,,,,,,2021-11-18,1,,,,,アイルホーム,0
209,1180001148828,新規,0,2021-11-18,2021-11-18,株式会社ＴＳＩコンサルティング,,株式会社,愛知県,名古屋市緑区,高根山１丁目１３１２番地,,23,114,4598013,,,,,,,2021-11-18,1,,,,,ティーエスアイコンサルティング,0
214,1180003023203,新規,0,2021-11-18,2021-11-18,合同会社ＨＵＫＵＺＡＷＡ,,合同会社,愛知県,知多郡武豊町,大字冨貴字南側５８番地５,,23,447,4702531,,,,,,,2021-11-18,1,,,,,フクザワ,0
215,1180003023211,新規,0,2021-11-18,2021-11-18,Ｎｚ　Ｃｏｍｐａｎｙ合同会社,,合同会社,愛知県,春日井市,若草通３丁目５７番地,,23,206,4860914,,,,,,,2021-11-18,1,,,,,ノズカンパニー,0
222,1180301035635,新規,0,2021-11-18,2021-11-18,株式会社ズイカン,,株式会社,愛知県,豊橋市,東細谷町字一里山１１５－２Ｆ,,23,201,4413112,,,,,,,2021-11-18,1,,,,,ズイカン,0
229,1220003003150,新規,0,2021-11-18,2021-11-18,合同会社ＫＰＣ企画,,合同会社,石川県,白山市,宮永市町６３９‐７,,17,210,9240016,,,,,,,2021-11-18,1,,,,,ケピシキカク,0
242,1290001095431,新規,0,2021-11-18,2021-11-18,株式会社ポインセチアサービス,,株式会社,福岡県,筑後市,大字久富１６８５番地１,,40,211,8330056,,,,,,,2021-11-18,1,,,,,ポインセチアサービス,0
243,1290001095448,新規,0,2021-11-18,2021-11-18,グロース株式会社,,株式会社,福岡県,福岡市南区,筑紫丘２丁目２０番１号,,40,134,8150036,,,,,,,2021-11-18,1,,,,,グロース,0
244,1290001095456,新規,0,2021-11-18,2021-11-18,株式会社ネルツ飯倉,,株式会社,福岡県,福岡市城南区,飯倉１丁目１１番２７号,,40,136,8140134,,,,,,,2021-11-18,1,,,,,ネルツイイクラ,0
245,1290001095480,新規,0,2021-11-18,2021-11-18,株式会社Ｂｌｉｓｓ,,株式会社,福岡県,春日市,日の出町６丁目２３番,,40,218,8160873,,,,,,,2021-11-18,1,,,,,ブリス,0
247,1290003011824,新規,0,2021-11-18,2021-11-18,合同会社活生壱岐殖産,,合同会社,福岡県,福岡市西区,壱岐団地１１０番１８号,,40,135,8190042,,,,,,,2021-11-18,1,,,,,イキイキショクサン,0
248,1290003011840,新規,0,2021-11-18,2021-11-18,合同会社とろわ,,合同会社,福岡県,福岡市東区,東浜１丁目７－５－１０１,,40,131,8120055,,,,,,,2021-11-18,1,,,,,トロワ,0
253,1310001017589,新規,0,2021-11-18,2021-11-18,株式会社あかり,,株式会社,長崎県,西彼杵郡長与町,吉無田郷１２２１番地６１,,42,307,8512126,,,,,,,2021-11-18,1,,,,,アカリ,0
265,1350003003971,新規,0,2021-11-18,2021-11-18,合同会社望夢興業,,合同会社,宮崎県,延岡市,山下町３丁目１２番地１,,45,203,8820055,,,,,,,2021-11-18,1,,,,,ノゾムコウギョウ,0
270,1370001047804,新規,0,2021-11-18,2021-11-18,株式会社ｔｏ　ｌｉｎｋ,,株式会社,宮城県,仙台市泉区,みずほ台３１番地の１,,04,105,9813125,,,,,,,2021-11-18,1,,,,,トゥーリンク,0
292,1700150105873,新規,0,2021-11-18,2021-11-18,ＳＫＹ　ＨＡＰＰＹ　ＥＮＴＥＲＰＲＩＳＥＳ　ＬＩＭＩＴＥＤ,,外国会社等,大阪府,大阪市淀川区,東三国６丁目１２－１３,,27,123,5320002,中国香港特別行政区茘枝角永康街２６號順昌工業大廈５樓Ａ室,00124907,,,,,2021-11-18,1,,,,,スカイハツピーエンタープライゼスリミテツド,0
305,2010001222598,新規,0,2021-11-18,2021-11-18,株式会社ＵＫＣｏｎｓｕｌｔｉｎｇ,,株式会社,東京都,千代田区,鍛冶町２丁目４－５黒江屋鍛冶町ビル８Ｆ,,13,101,1010044,,,,,,,2021-11-18,1,,,,,ユーケーコンサルティング,0
306,2010001222631,新規,0,2021-11-18,2021-11-18,アートウェルネス株式会社,,株式会社,東京都,文京区,後楽２丁目１８番１９号窪寺ビル１０１,,13,105,1120004,,,,,,,2021-11-18,1,,,,,アートウェルネス,0
307,2010001222672,新規,0,2021-11-18,2021-11-18,株式会社ＣＬＩＰ第２１６号,,株式会社,東京都,千代田区,丸の内２丁目７番２号,,13,101,1000005,,,,,,,2021-11-18,1,,,,,シーエルアイピーダイニヒャクジュウロクゴウ,0
308,2010001222680,新規,0,2021-11-18,2021-11-18,株式会社ＣＬＩＰ第２２４号,,株式会社,東京都,千代田区,丸の内２丁目７番２号,,13,101,1000005,,,,,,,2021-11-18,1,,,,,シーエルアイピーダイニヒャクニジュウヨンゴウ,0
309,2010001222697,新規,0,2021-11-18,2021-11-18,株式会社ＳＨＩＰ第２５０号,,株式会社,東京都,千代田区,丸の内２丁目７番２号,,13,101,1000005,,,,,,,2021-11-18,1,,,,,エスエイチアイピーダイニヒャクゴジュウゴウ,0
310,2010001222706,新規,0,2021-11-18,2021-11-18,株式会社ＳＨＩＰ第２５９号,,株式会社,東京都,千代田区,丸の内２丁目７番２号,,13,101,1000005,,,,,,,2021-11-18,1,,,,,エスエイチアイピーダイニヒャクゴジュウキュウゴウ,0
319,2010003036311,新規,0,2021-11-18,2021-11-18,合同会社築地鍋研究所,,合同会社,東京都,中央区,築地４丁目１４－１,,13,102,1040045,,,,,,,2021-11-18,1,,,,,ツキジナベケンキュウジョ,0
320,2010003036344,新規,0,2021-11-18,2021-11-18,Ｘ－Ｅｌｉｏ２６合同会社,,合同会社,東京都,中央区,銀座４丁目１４番１１号七十七銀座ビル８階,,13,102,1040061,,,,,,,2021-11-18,1,,,,,エクセリオトゥエンティーシックス,0
331,2010601060233,新規,0,2021-11-18,2021-11-18,ナイスアイディア株式会社,,株式会社,東京都,江東区,門前仲町２丁目９番１１号,,13,108,1350048,,,,,,,2021-11-18,1,,,,,ナイスアイディア,0
332,2010601060258,新規,0,2021-11-18,2021-11-18,東豊株式会社,,株式会社,東京都,江東区,豊洲３丁目４番１－４２０９号,,13,108,1350061,,,,,,,2021-11-18,1,,,,,トウホウ,0
341,2010901049819,新規,0,2021-11-18,2021-11-18,株式会社ジムガレージ,,株式会社,東京都,世田谷区,桜新町１丁目３４番２５号,,13,112,1540015,,,,,,,2021-11-18,1,,,,,ジムガレージ,0
349,2011001144031,新規,0,2021-11-18,2021-11-18,株式会社ＯＮＥＴＥＮ,,株式会社,東京都,目黒区,中目黒５丁目１６番４号,,13,110,1530061,,,,,,,2021-11-18,1,,,,,ワンテン,0
359,2011101096940,新規,0,2021-11-18,2021-11-18,株式会社Ｒｅ－ｒｅｎｔ,,株式会社,東京都,新宿区,馬場下町５番地,,13,104,1620045,,,,,,,2021-11-18,1,,,,,リレント,0
360,2011101096957,新規,0,2021-11-18,2021-11-18,ＡＰＥＸ株式会社,,株式会社,東京都,新宿区,西早稲田３丁目３１－１１ニューライフ西早稲田別館５Ｆ,,13,104,1690051,,,,,,,2021-11-18,1,,,,,アペックス,0
364,2011103011195,新規,0,2021-11-18,2021-11-18,合同会社基山ロジインベストメント,,合同会社,東京都,新宿区,四谷２丁目９番地１５東京ユナイテッド綜合事務所内,,13,104,1600004,,,,,,,2021-11-18,1,,,,,キヤマロジインベストメント,0
365,2011105010047,新規,0,2021-11-18,2021-11-18,社会保険労務士法人ブレイヴセイル,,その他の設立登記法人,東京都,新宿区,四谷三栄町４番１０号,,13,104,1600008,,,,,,,2021-11-18,1,,,,,ブレイヴセイル,0
369,2011301027357,新規,0,2021-11-18,2021-11-18,遠建株式会社,,株式会社,東京都,杉並区,今川１丁目１２番２１号,,13,115,1670035,,,,,,,2021-11-18,1,,,,,エンケン,0
374,2011503004971,新規,0,2021-11-18,2021-11-18,Ｆｉｎａｎｃｅ　Ｌａｂ合同会社,,合同会社,東京都,荒川区,南千住７丁目１番１－１５０８号,,13,118,1160003,,,,,,,2021-11-18,1,,,,,ファイナンスラボ,0
375,2011603003444,新規,0,2021-11-18,2021-11-18,嵐人合同会社,,合同会社,東京都,練馬区,北町８丁目３４番３号２Ｆ,,13,120,1790081,,,,,,,2021-11-18,1,,,,,アラジン,0
376,2011801039983,新規,0,2021-11-18,2021-11-18,株式会社ＲＥＩＷＡ,,株式会社,東京都,足立区,小台１丁目１６番１１－８０７号,,13,121,1200046,,,,,,,2021-11-18,1,,,,,レイワ,0
379,2012303001614,新規,0,2021-11-18,2021-11-18,合同会社ライフ・インテグレーション,,合同会社,東京都,町田市,森野１丁目３６番２号セレステ町田２階,,13,209,1940022,,,,,,,2021-11-18,1,,,,,ライフインテグレーション,0
382,2012701016775,新規,0,2021-11-18,2021-11-18,Ｗｅｌｌｎｅｓｓ株式会社,,株式会社,東京都,東久留米市,本町３丁目６－８橋本ビル４０１,,13,222,2030053,,,,,,,2021-11-18,1,,,,,ウェルネス,0
390,2013303005910,新規,0,2021-11-18,2021-11-18,合同会社のらねこ屋,,合同会社,東京都,豊島区,東池袋２丁目６２番８－１１０２号,,13,116,1700013,,,,,,,2021-11-18,1,,,,,ノラネコヤ,0
396,2020001143967,新規,0,2021-11-18,2021-11-18,株式会社角屋ホールディングス,,株式会社,神奈川県,川崎市川崎区,池田１丁目１２番１６号,,14,131,2100022,,,,,,,2021-11-18,1,,,,,カドヤホールディングス,0
397,2020001143975,新規,0,2021-11-18,2021-11-18,株式会社ｏｄｄｓ,,株式会社,神奈川県,横浜市港北区,新吉田町５２６８Ｂ棟,,14,109,2230056,,,,,,,2021-11-18,1,,,,,オッズ,0
398,2020001143991,新規,0,2021-11-18,2021-11-18,株式会社色彩,,株式会社,神奈川県,川崎市麻生区,高石５丁目１３番５－２０６号,,14,137,2150003,,,,,,,2021-11-18,1,,,,,イロ,0
405,2020003020842,新規,0,2021-11-18,2021-11-18,Ｑサイエンス・アジア－ジャパン合同会社,,合同会社,神奈川県,横浜市中区,桜木町１丁目１番地７ヒューリックみなとみらい１０階,,14,104,2310062,,,,,,,2021-11-18,1,,,,,キューサイエンスアジアジャパン,0
406,2020003020850,新規,0,2021-11-18,2021-11-18,合同会社ＳＵＧＩＭＯＴＯコンサルティング,,合同会社,神奈川県,横浜市西区,北幸１丁目１１番１号水信ビル７階,,14,103,2200004,,,,,,,2021-11-18,1,,,,,スギモトコンサルティング,0
407,2020003020859,新規,0,2021-11-18,2021-11-18,Ｊ．Ｋ．合同会社,,合同会社,神奈川県,横浜市中区,西之谷町１１５番地１６,,14,104,2310844,,,,,,,2021-11-18,1,,,,,ジェーケー,0
413,2021002073914,新規,0,2021-11-18,2021-11-18,有限会社ホクシンエステート,,有限会社,神奈川県,秦野市,曲松１丁目２番地１３号,,14,211,2591321,,,,,,,2021-11-18,1,,,,,ホクシンエステート,0
420,2030001145418,新規,0,2021-11-18,2021-11-18,株式会社ギフトＯＮＥ,,株式会社,埼玉県,狭山市,入間川１丁目１８番１２号狭山サニーコート４０５,,11,215,3501305,,,,,,,2021-11-18,1,,,,,ギフトワン,0
421,2030001145434,新規,0,2021-11-18,2021-11-18,株式会社ＹＲ,,株式会社,埼玉県,朝霞市,膝折町４丁目３番６号,,11,227,3510014,,,,,,,2021-11-18,1,,,,,ワイアール,0
426,2030003018332,新規,0,2021-11-18,2021-11-18,合同会社さいたまカーサ,,合同会社,埼玉県,桶川市,大字坂田１７２９番６７,,11,231,3630008,,,,,,,2021-11-18,1,,,,,サイタマカーサ,0
432,2040001121021,新規,0,2021-11-18,2021-11-18,株式会社ウィズ・ジー,,株式会社,千葉県,船橋市,夏見５丁目３６４番地３,,12,204,2730865,,,,,,,2021-11-18,1,,,,,ウィズジー,0
433,2040001121038,新規,0,2021-11-18,2021-11-18,株式会社ＭａＫｉｎｇ,,株式会社,千葉県,千葉市中央区,椿森１丁目８番６号賀山ビル２０２号,,12,101,2600042,,,,,,,2021-11-18,1,,,,,メイキング,0
434,2040001121046,新規,0,2021-11-18,2021-11-18,株式会社Ｌｅａｐ,,株式会社,千葉県,習志野市,藤崎２丁目１５番１１－５号,,12,216,2750017,,,,,,,2021-11-18,1,,,,,リープ,0
435,2040001121062,新規,0,2021-11-18,2021-11-18,株式会社ノアール,,株式会社,千葉県,船橋市,印内町６０３番地１田中ビル５１３号室,,12,204,2730025,,,,,,,2021-11-18,1,,,,,ノアール,0
440,2070001038659,新規,0,2021-11-18,2021-11-18,株式会社ユーキコーポレーション,,株式会社,群馬県,藤岡市,本郷２２０８番地２,,10,209,3750023,,,,,,,2021-11-18,1,,,,,ユーキコーポレーション,0
446,2080101022925,新規,0,2021-11-18,2021-11-18,株式会社フェニックス,,株式会社,静岡県,沼津市,内浦重寺１８６番地,,22,203,4100221,,,,,,,2021-11-18,1,,,,,フェニックス,0
449,2090001017280,新規,0,2021-11-18,2021-11-18,株式会社パレス・ヒルズ,,株式会社,山梨県,甲府市,上曽根町４０１１番地,,19,201,4001501,,,,,,,2021-11-18,1,,,,,パレスヒルズ,0
464,2120001241926,新規,0,2021-11-18,2021-11-18,株式会社エム・ジ・シ,,株式会社,大阪府,大阪市北区,曾根崎新地２丁目５番３号,,27,127,5300002,,,,,,,2021-11-18,1,,,,,エムジシ,0
465,2120001241942,新規,0,2021-11-18,2021-11-18,株式会社ＶＥＲＴＥＸ,,株式会社,大阪府,大阪市中央区,谷町９丁目２番２７号,,27,128,5420012,,,,,,,2021-11-18,1,,,,,ヴェルテックス,0
466,2120001241950,新規,0,2021-11-18,2021-11-18,株式会社サリオス,,株式会社,大阪府,大阪市北区,梅田１丁目２番２号大阪駅前第２ビル２階５－６号室,,27,127,5300001,,,,,,,2021-11-18,1,,,,,サリオス,0
467,2120001241975,新規,0,2021-11-18,2021-11-18,株式会社ＭＩＮＡＲＩ,,株式会社,大阪府,大阪市都島区,中野町５丁目２番２６－１２０１号,,27,102,5340027,,,,,,,2021-11-18,1,,,,,ミナリ,0
473,2120101064673,新規,0,2021-11-18,2021-11-18,株式会社さぽーとｈａｈａ,,株式会社,大阪府,泉南市,樽井８丁目１２番１５号,,27,228,5900521,,,,,,,2021-11-18,1,,,,,サポートハハ,0
474,2120101064681,新規,0,2021-11-18,2021-11-18,株式会社一,,株式会社,大阪府,泉大津市,池浦町４丁目９番２２号,,27,206,5950024,,,,,,,2021-11-18,1,,,,,イチ,0
479,2120901045220,新規,0,2021-11-18,2021-11-18,ひつじ社株式会社,,株式会社,大阪府,高槻市,上土室１丁目３番２号,,27,207,5691044,,,,,,,2021-11-18,1,,,,,ヒツジシャ,0
480,2120901045229,新規,0,2021-11-18,2021-11-18,株式会社英,,株式会社,大阪府,豊中市,新千里北町２丁目３５番８号,,27,203,5600081,,,,,,,2021-11-18,1,,,,,ハナフサ,0
504,2140003017001,新規,0,2021-11-18,2021-11-18,神戸北野屋合同会社,,合同会社,兵庫県,神戸市中央区,北野町３丁目６番１５号Ａ号室,,28,110,6500002,,,,,,,2021-11-18,1,,,,,コウベキタノヤ,0
516,2180001148777,新規,0,2021-11-18,2021-11-18,株式会社ＴＡＫＥＤＡ,,株式会社,愛知県,名古屋市中村区,名駅南２丁目７番３６号,,23,105,4500003,,,,,,,2021-11-18,1,,,,,タケダ,0
517,2180001148793,新規,0,2021-11-18,2021-11-18,松奇株式会社,,株式会社,愛知県,名古屋市西区,名駅２丁目２９－２８グランデール名古屋１０４号室,,23,104,4510045,,,,,,,2021-11-18,1,,,,,マツクシ,0
519,2180003023202,新規,0,2021-11-18,2021-11-18,合同会社ＴＨＡＮＸ　ＣＲＥＡＴＥ,,合同会社,愛知県,名古屋市中区,栄１丁目２３番２９号サンハイツ伏見２Ｆ,,23,106,4600008,,,,,,,2021-11-18,1,,,,,サンクスクリエイト,0
524,2230001019106,新規,0,2021-11-18,2021-11-18,株式会社フューチャーデザイン,,株式会社,富山県,富山市,下堀４６－２５,,16,201,9398055,,,,,,,2021-11-18,1,,,,,フューチャーデザイン,0
528,2240001058945,新規,0,2021-11-18,2021-11-18,株式会社水無月,,株式会社,広島県,広島市中区,十日市町１丁目３番７号,,34,101,7300805,,,,,,,2021-11-18,1,,,,,ミナヅキ,0
529,2240003005375,新規,0,2021-11-18,2021-11-18,合同会社ブルーモーメント,,合同会社,広島県,東広島市,八本松東６丁目１２番７号,,34,212,7390142,,,,,,,2021-11-18,1,,,,,ブルーモーメント,0
539,2290001095463,新規,0,2021-11-18,2021-11-18,ワークエイジア株式会社,,株式会社,福岡県,福岡市中央区,春吉３丁目２１番２１号,,40,133,8100003,,,,,,,2021-11-18,1,,,,,ワークエイジア,0
547,2300003001748,新規,0,2021-11-18,2021-11-18,合同会社ＡＲＴＬＩＮＥ,,合同会社,佐賀県,嬉野市,嬉野町下宿甲３０６３－６,,41,209,8430300,,,,,,,2021-11-18,1,,,,,アートライン,0
551,2310001017588,新規,0,2021-11-18,2021-11-18,組屋株式会社,,株式会社,長崎県,長崎市,晴海台町１２番地３,,42,201,8510402,,,,,,,2021-11-18,1,,,,,クミヤ,0
555,2320001018742,新規,0,2021-11-18,2021-11-18,株式会社黒木ファーム,,株式会社,大分県,大分市,ひばりケ丘５丁目１０番８号,,44,201,8701115,,,,,,,2021-11-18,1,,,,,クロキファーム,0
572,2370003005486,新規,0,2021-11-18,2021-11-18,合同会社キュリオシティ,,合同会社,宮城県,仙台市太白区,根岸町８番９号,,04,104,9820844,,,,,,,2021-11-18,1,,,,,キュリオシティ,0
581,2430001085417,新規,0,2021-11-18,2021-11-18,株式会社ＲｅａｌｔｙＢａｎｋ,,株式会社,北海道,札幌市中央区,北一条東１０丁目１５番地８２ライオンズマンション札幌スカイタワー２０１０号,,01,101,0600031,,,,,,,2021-11-18,1,,,,,リアルティバンク,0
583,2480003001755,新規,0,2021-11-18,2021-11-18,ＷＩＬＤ　ＭＥＡＴ合同会社,,合同会社,徳島県,美馬市,穴吹町穴吹字奈良坂１０３－７,,36,207,7770005,,,,,,,2021-11-18,1,,,,,ワイルドミート,0
587,2700150105872,新規,0,2021-11-18,2021-11-18,Ｃｉｔｙ　Ｆｒｏｎｔｉｅｒ　Ｇｒｏｕｐ　Ｌｉｍｉｔｅｄ,,外国会社等,東京都,港区,六本木３丁目７－１ＴＨＥ　ＲＯＰＰＯＮＧＩ　ＴＯＫＹＯ　２４１０号室,,13,103,1060032,Ｖｉｓｔｒａ　Ｃｏｒｐｏｒａｔｅ　Ｓｅｒｖｉｃｅｓ　Ｃｅｎｔｒｅ，Ｗｉｃｋｈａｍｓ　ＣａｙＩＩ，Ｒｏａｄ　Ｔｏｗｎ，Ｔｏｒｔｏｌａ，ＶＧ　１１１０，Ｂｒｉｔｉｓｈ　Ｖｉｒｇｉｎ　Ｉｓｌａｎｄｓ,00124906,,,,,2021-11-18,1,,,,,シテイフロンテイアグループリミテツド,0
596,3010001222580,新規,0,2021-11-18,2021-11-18,株式会社ホットランドネクステージ,,株式会社,東京都,中央区,新富１丁目９番６号,,13,102,1040041,,,,,,,2021-11-18,1,,,,,ホットランドネクステージ,0
597,3010001222647,新規,0,2021-11-18,2021-11-18,株式会社共栄,,株式会社,東京都,文京区,本駒込１丁目９番６号,,13,105,1130021,,,,,,,2021-11-18,1,,,,,キョウエイ,0
598,3010001222671,新規,0,2021-11-18,2021-11-18,株式会社ＣＬＩＰ第２１５号,,株式会社,東京都,千代田区,丸の内２丁目７番２号,,13,101,1000005,,,,,,,2021-11-18,1,,,,,シーエルアイピーダイニヒャクジュウゴゴウ,0
599,3010001222696,新規,0,2021-11-18,2021-11-18,株式会社ＳＨＩＰ第２４９号,,株式会社,東京都,千代田区,丸の内２丁目７番２号,,13,101,1000005,,,,,,,2021-11-18,1,,,,,エスエイチアイピーダイニヒャクヨンジュウキュウゴウ,0
600,3010001222705,新規,0,2021-11-18,2021-11-18,株式会社ＳＨＩＰ第２５８号,,株式会社,東京都,千代田区,丸の内２丁目７番２号,,13,101,1000005,,,,,,,2021-11-18,1,,,,,エスエイチアイピーダイニヒャクゴジュウハチゴウ,0
606,3010003036319,新規,0,2021-11-18,2021-11-18,合同会社ＥＴＯＩＬＥ,,合同会社,東京都,中央区,勝どき２丁目１０番１６号マンション勝どき５１０,,13,102,1040054,,,,,,,2021-11-18,1,,,,,エトワール,0
607,3010003036343,新規,0,2021-11-18,2021-11-18,Ｘ－Ｅｌｉｏ２５合同会社,,合同会社,東京都,中央区,銀座４丁目１４番１１号七十七銀座ビル８階,,13,102,1040061,,,,,,,2021-11-18,1,,,,,エクセリオトゥエンティーファイブ,0
615,3010401163796,新規,0,2021-11-18,2021-11-18,ＳｎａｃｋＴｉｍｅ株式会社,,株式会社,東京都,港区,六本木４丁目２番４５号高會堂ビル２階,,13,103,1060032,,,,,,,2021-11-18,1,,,,,スナックタイム,0
616,3010401163961,新規,0,2021-11-18,2021-11-18,株式会社再木もん,,株式会社,東京都,港区,南青山２丁目２番１５号,,13,103,1070062,,,,,,,2021-11-18,1,,,,,サイキモン,0
632,3010901049768,新規,0,2021-11-18,2021-11-18,株式会社ＰＥＣＰＥＴ,,株式会社,東京都,世田谷区,松原３丁目２７番１０号,,13,112,1560043,,,,,,,2021-11-18,1,,,,,ペックペット,0
642,3011001143924,新規,0,2021-11-18,2021-11-18,株式会社Ｐｉｃｎｉｘ,,株式会社,東京都,渋谷区,神宮前６丁目２３番４号桑野ビル２階,,13,113,1500001,,,,,,,2021-11-18,1,,,,,ピックニックス,0
643,3011001144014,新規,0,2021-11-18,2021-11-18,株式会社ＭＡＹ,,株式会社,東京都,渋谷区,本町１丁目７番１６－１３０６号,,13,113,1510071,,,,,,,2021-11-18,1,,,,,マイ,0
644,3011001144063,新規,0,2021-11-18,2021-11-18,株式会社ｔｒｉａｎｇｌｅ,,株式会社,東京都,渋谷区,代々木１丁目２６番８号,,13,113,1510053,,,,,,,2021-11-18,1,,,,,トライアングル,0
645,3011001144071,新規,0,2021-11-18,2021-11-18,株式会社ＶＡＲＤＡ,,株式会社,東京都,渋谷区,渋谷２丁目１９番１５－６０９号宮益坂ビルディング,,13,113,1500002,,,,,,,2021-11-18,1,,,,,ヴァルダ,0
646,3011003013729,新規,0,2021-11-18,2021-11-18,合同会社ダダミント,,合同会社,東京都,渋谷区,松濤２丁目１４番１－３０５号,,13,113,1500046,,,,,,,2021-11-18,1,,,,,ダダミント,0
650,3011103011186,新規,0,2021-11-18,2021-11-18,三友合同会社,,合同会社,東京都,新宿区,西新宿４丁目２２－１６,,13,104,1600023,,,,,,,2021-11-18,1,,,,,サンユウ,0
651,3011103011194,新規,0,2021-11-18,2021-11-18,合同会社ブライティス,,合同会社,東京都,新宿区,西新宿５丁目５番１－２６０４号,,13,104,1600023,,,,,,,2021-11-18,1,,,,,ブライティス,0
654,3011201023430,新規,0,2021-11-18,2021-11-18,株式会社ガーベラ,,株式会社,東京都,中野区,弥生町２丁目４１番１７号東京コンテンツインキュベーションセンター,,13,114,1640013,,,,,,,2021-11-18,1,,,,,ガーベラ,0
655,3011301027356,新規,0,2021-11-18,2021-11-18,株式会社Ｅｃｏｌｅ,,株式会社,東京都,杉並区,阿佐谷北１丁目４２番１号,,13,115,1660001,,,,,,,2021-11-18,1,,,,,エコール,0
664,3011601025547,新規,0,2021-11-18,2021-11-18,株式会社幸信,,株式会社,東京都,練馬区,南大泉５丁目３１番４０号,,13,120,1780064,,,,,,,2021-11-18,1,,,,,コウシン,0
668,3012301012777,新規,0,2021-11-18,2021-11-18,株式会社ファースト,,株式会社,東京都,町田市,広袴３丁目２７番地６,,13,209,1950056,,,,,,,2021-11-18,1,,,,,ファースト,0
680,3013301048290,新規,0,2021-11-18,2021-11-18,株式会社ピクテル,,株式会社,東京都,豊島区,東池袋１丁目１７番１１号,,13,116,1700013,,,,,,,2021-11-18,1,,,,,ピクテル,0
683,3020001143917,新規,0,2021-11-18,2021-11-18,イチワリ株式会社,,株式会社,神奈川県,川崎市高津区,溝口１丁目１４－８石原ビル１Ｆｏｎｅ,,14,134,2130001,,,,,,,2021-11-18,1,,,,,イチワリ,0
684,3020001143925,新規,0,2021-11-18,2021-11-18,ジェイク株式会社,,株式会社,神奈川県,横浜市戸塚区,吉田町１３０番地１,,14,110,2440817,,,,,,,2021-11-18,1,,,,,ジェイク,0
685,3020001143982,新規,0,2021-11-18,2021-11-18,株式会社ＩＫＳ,,株式会社,神奈川県,川崎市宮前区,東有馬３丁目２０番６号,,14,136,2160002,,,,,,,2021-11-18,1,,,,,アイケーエス,0
686,3020001143990,新規,0,2021-11-18,2021-11-18,株式会社共立コーポレーション,,株式会社,神奈川県,横浜市青葉区,美しが丘西２丁目２２番地１,,14,117,2250001,,,,,,,2021-11-18,1,,,,,,0
692,3020003020841,新規,0,2021-11-18,2021-11-18,合同会社ケミステラ,,合同会社,神奈川県,横浜市港北区,新横浜３丁目２４－５,,14,109,2220033,,,,,,,2021-11-18,1,,,,,ケミステラ,0
693,3020003020858,新規,0,2021-11-18,2021-11-18,ブランド日本合同会社,,合同会社,神奈川県,横浜市青葉区,荏子田３丁目７番地７ソレーユあざみ野１０１号,,14,117,2250005,,,,,,,2021-11-18,1,,,,,ブランドニッポン,0
694,3020005015278,新規,0,2021-11-18,2021-11-18,一般社団法人２０２７年国際園芸博覧会協会,,その他の設立登記法人,神奈川県,横浜市中区,本町４丁目４３番地Ａ－ＰＬＡＣＥ馬車道４階,,14,104,2310005,,,,,,,2021-11-18,1,,,,,ニセンニジュウナナネンコクサイエンゲイハクランカイキョウカイ,0
697,3021001074508,新規,0,2021-11-18,2021-11-18,株式会社ペイシェンス,,株式会社,神奈川県,相模原市中央区,淵野辺３丁目１８－４クリオ淵野辺４０６,,14,152,2520206,,,,,,,2021-11-18,1,,,,,ペイシェンス,0
709,3030001145409,新規,0,2021-11-18,2021-11-18,株式会社Ｄ＆ｈａ,,株式会社,埼玉県,富士見市,鶴瀬東１丁目７番２７号,,11,235,3540024,,,,,,,2021-11-18,1,,,,,ダハ,0
716,3030003018348,新規,0,2021-11-18,2021-11-18,合同会社ＢＳコーポレーション,,合同会社,埼玉県,さいたま市南区,大字大谷口１２０１番地３－２Ｆ,,11,108,3360042,,,,,,,2021-11-18,1,,,,,ビーエスコーポレーション,0
719,3040001121029,新規,0,2021-11-18,2021-11-18,株式会社ジーエムプレジャー,,株式会社,千葉県,館山市,小沼４６２番地,,12,205,2940312,,,,,,,2021-11-18,1,,,,,ジーエムプレジャー,0
720,3040001121037,新規,0,2021-11-18,2021-11-18,株式会社ひまわり園,,株式会社,千葉県,我孫子市,本町３丁目５番２５号渋谷ビル２Ｆ,,12,222,2701151,,,,,,,2021-11-18,1,,,,,ヒマワリエン,0
726,3040002104932,新規,0,2021-11-18,2021-11-18,有限会社釜屋茶店,,有限会社,千葉県,印西市,大森８０３番地,,12,231,2701327,,,,,,,2021-11-18,1,,,,,,0
727,3040003018966,新規,0,2021-11-18,2021-11-18,合同会社ＭＡ,,合同会社,千葉県,松戸市,小金１１０番地第２藤コーポ２０７号,,12,207,2700014,,,,,,,2021-11-18,1,,,,,エムエイ,0
728,3040003018974,新規,0,2021-11-18,2021-11-18,合同会社ＭＳ　Ｐｌａｎｎｉｎｇ,,合同会社,千葉県,船橋市,日の出２丁目１１番９号,,12,204,2730015,,,,,,,2021-11-18,1,,,,,エムエスプランニング,0
732,3050005012974,新規,0,2021-11-18,2021-11-18,ＳＯＵ社会保険労務士法人,,その他の設立登記法人,茨城県,水戸市,南町２丁目６番３４号アサノビル１０１,,08,201,3100021,,,,,,,2021-11-18,1,,,,,ソウ,0
747,3110001036203,新規,0,2021-11-18,2021-11-18,ｆｏｒ　ＳＭｉＬＥ　ｌａｂ株式会社,,株式会社,新潟県,新潟市西蒲区,巻甲４４６０番地１,,15,108,9530041,,,,,,,2021-11-18,1,,,,,フォースマイルラボ,0
753,3120001241405,新規,0,2021-11-18,2021-11-18,ＦＬＥＸＨＯＯＤ株式会社,,株式会社,大阪府,大阪市東成区,大今里西３丁目２番２９－４０３号,,27,115,5370014,,,,,,,2021-11-18,1,,,,,フェレクッスホード,0
754,3120001241917,新規,0,2021-11-18,2021-11-18,株式会社Ｏｎｅ　Ｄｒｏｐ,,株式会社,大阪府,大阪市福島区,鷺洲２丁目１２番２９号マ・メゾン鷺洲５Ｂ号,,27,103,5530002,,,,,,,2021-11-18,1,,,,,ワンドロップ,0
755,3120001241933,新規,0,2021-11-18,2021-11-18,日本育秀株式会社,,株式会社,大阪府,大阪市北区,天満４丁目５番３号,,27,127,5300043,,,,,,,2021-11-18,1,,,,,ニホンイクシュウ,0
756,3120001241941,新規,0,2021-11-18,2021-11-18,株式会社ＰＡＳＩＯＮ,,株式会社,大阪府,大阪市北区,西天満１丁目６－１４－１２０７号,,27,127,5300047,,,,,,,2021-11-18,1,,,,,パシオン,0
757,3120001241958,新規,0,2021-11-18,2021-11-18,株式会社アジアテックワールド,,株式会社,大阪府,大阪市港区,八幡屋１丁目１２番１１号,,27,107,5520014,,,,,,,2021-11-18,1,,,,,アジアテックワールド,0
761,3120003020609,新規,0,2021-11-18,2021-11-18,合同会社アシストＪＰ,,合同会社,大阪府,大阪市北区,曾根崎新地１丁目３番３２号新地リバティービル３階,,27,127,5300002,,,,,,,2021-11-18,1,,,,,アシストジェイピー,0
767,3120101064664,新規,0,2021-11-18,2021-11-18,株式会社Ｗｉｓｄｏｍ,,株式会社,大阪府,和泉市,のぞみ野２丁目３番１５－１０１２号,,27,219,5941105,,,,,,,2021-11-18,1,,,,,ウィズダム,0
768,3120101064672,新規,0,2021-11-18,2021-11-18,株式会社ビレスト,,株式会社,大阪府,富田林市,若松町東２丁目２５,,27,214,5840023,,,,,,,2021-11-18,1,,,,,ビレスト,0
774,3130005016315,新規,0,2021-11-18,2021-11-18,一般社団法人ヘルスデータサイエンス学会,,その他の設立登記法人,京都府,京都市中京区,蛸薬師通高倉西入泉正寺町３３４番地日昇ビル５階株式会社ＣＳセンター内,,26,104,6048141,,,,,,,2021-11-18,1,,,,,ヘルスデータサイエンスガッガイ,0
776,3140001123849,新規,0,2021-11-18,2021-11-18,流麗株式会社,,株式会社,兵庫県,神戸市中央区,御幸通８丁目１番６号神戸国際会館２２階,,28,110,6510087,,,,,,,2021-11-18,1,,,,,リュウレイ,0
777,3140001123881,新規,0,2021-11-18,2021-11-18,株式会社ディラスト,,株式会社,兵庫県,尼崎市,南武庫之荘３丁目３６番５号,,28,202,6610033,,,,,,,2021-11-18,1,,,,,ディラスト,0
778,3140001123907,新規,0,2021-11-18,2021-11-18,株式会社Ｇｏｏｄ,,株式会社,兵庫県,西宮市,山口町上山口１丁目１２番４９号,,28,204,6511421,,,,,,,2021-11-18,1,,,,,グッド,0
786,3180001148636,新規,0,2021-11-18,2021-11-18,ＧＲＩＩＤ株式会社,,株式会社,愛知県,名古屋市中村区,則武本通３丁目２３番地の３,,23,105,4530017,,,,,,,2021-11-18,1,,,,,グリッド,0
787,3180001148743,新規,0,2021-11-18,2021-11-18,ブルーバード株式会社,,株式会社,愛知県,名古屋市東区,泉１丁目１２番１号３０２号,,23,102,4610001,,,,,,,2021-11-18,1,,,,,ブルーバード,0
788,3180001148768,新規,0,2021-11-18,2021-11-18,株式会社光建,,株式会社,愛知県,名古屋市守山区,新守町２番地シャトー新守ＩＩ８０２号,00124896,23,113,4630071,,,,,,,2021-11-18,1,,,,,コウケン,0
789,3180001148776,新規,0,2021-11-18,2021-11-18,株式会社アルカス,,株式会社,愛知県,名古屋市東区,古出来２丁目５番１０号,,23,102,4610049,,,,,,,2021-11-18,1,,,,,アルカス,0
790,3180001148784,新規,0,2021-11-18,2021-11-18,株式会社ＩＮＤＩＲＥＣＴ,,株式会社,愛知県,名古屋市千種区,末盛通１丁目２７番地の１７ＣＯＵＬＥＵＲＳ６２－３０１,,23,101,4640821,,,,,,,2021-11-18,1,,,,,インディレクト,0
801,3230001019105,新規,0,2021-11-18,2021-11-18,株式会社ＭＩＮＧＬＥ,,株式会社,富山県,魚津市,吉島２１６０,,16,204,9370041,,,,,,,2021-11-18,1,,,,,ミングル,0
805,3240001058944,新規,0,2021-11-18,2021-11-18,株式会社コスタ,,株式会社,広島県,福山市,春日町１丁目９番４号,,34,207,7210907,,,,,,,2021-11-18,1,,,,,コスタ,0
809,3240003005374,新規,0,2021-11-18,2021-11-18,合同会社ＮＳカンパニー,,合同会社,広島県,広島市安佐北区,可部南４丁目１１番１１号,,34,106,7310223,,,,,,,2021-11-18,1,,,,,エヌエスカンパニー,0
822,3290001095413,新規,0,2021-11-18,2021-11-18,株式会社ラインキューブ,,株式会社,福岡県,久留米市,東櫛原町２０９３番地２,00124909,40,203,8300003,,,,,,,2021-11-18,1,,,,,ラインキューブ,0
823,3290001095438,新規,0,2021-11-18,2021-11-18,日本ステラ株式会社,,株式会社,福岡県,福岡市南区,横手４丁目１２番１４号,,40,134,8111311,,,,,,,2021-11-18,1,,,,,ニホンステラ,0
835,3320003003659,新規,0,2021-11-18,2021-11-18,合同会社結院,,合同会社,大分県,日田市,城町１丁目２番５６号,,44,204,8770004,,,,,,,2021-11-18,1,,,,,ユイエン,0
848,3360003011575,新規,0,2021-11-18,2021-11-18,合同会社Ｌａｓｏ　Ｉｎｔｅｒｎａｔｉｏｎａｌ,,合同会社,沖縄県,島尻郡与那原町,字板良敷３７０番地知念アパート４０１,,47,348,9011301,,,,,,,2021-11-18,1,,,,,ラーソインターナショナル,0
849,3370001047835,新規,0,2021-11-18,2021-11-18,株式会社ＣＯＬＯＲＳ　ＡＵＴＯ　ＢＯＤＹ,,株式会社,宮城県,仙台市若林区,今泉２丁目２２番３９号,,04,103,9840835,,,,,,,2021-11-18,1,,,,,カラーズオートボディ,0
850,3370001047851,新規,0,2021-11-18,2021-11-18,蔵王アグリ株式会社,,株式会社,宮城県,刈田郡蔵王町,遠刈田温泉字七日原３７３番地,,04,301,9890916,,,,,,,2021-11-18,1,,,,,ザオウアグリ,0
854,3370003005485,新規,0,2021-11-18,2021-11-18,合同会社ｄａｉ,,合同会社,宮城県,富谷市,明石台５丁目４４－２３,,04,216,9813332,,,,,,,2021-11-18,1,,,,,ダイ,0
865,3430003013374,新規,0,2021-11-18,2021-11-18,ＹＭＳ合同会社,,合同会社,北海道,札幌市中央区,南十一条西１丁目１番１１－１０１１号,,01,101,0640811,,,,,,,2021-11-18,1,,,,,ワイエムエス,0
873,3700150105871,新規,0,2021-11-18,2021-11-18,空調衛生企業年金基金,,その他,東京都,中央区,新富２丁目２番７号,,13,102,1040041,,,,,,,2021-11-18,1,,,,,クウチヨウエイセイキギヨウネンキンキキン,0
884,4010001222555,新規,0,2021-11-18,2021-11-18,Ｋ＆Ｇ　Ｖｉｓｕａｌ　Ｊａｐａｎ株式会社,,株式会社,東京都,中央区,京橋２丁目７番８号,,13,102,1040031,,,,,,,2021-11-18,1,,,,,ケーアンドジービジュアルジャパン,0
885,4010001222638,新規,0,2021-11-18,2021-11-18,小屋運転所株式会社,,株式会社,東京都,千代田区,神田平河町１番地第３東ビル６Ｆ,,13,101,1010027,,,,,,,2021-11-18,1,,,,,コヤウンテンジョ,0
886,4010001222670,新規,0,2021-11-18,2021-11-18,株式会社ＣＬＩＰ第２１４号,,株式会社,東京都,千代田区,丸の内２丁目７番２号,,13,101,1000005,,,,,,,2021-11-18,1,,,,,シーエルアイピーダイニヒャクジュウヨンゴウ,0
887,4010001222679,新規,0,2021-11-18,2021-11-18,株式会社ＣＬＩＰ第２２３号,,株式会社,東京都,千代田区,丸の内２丁目７番２号,,13,101,1000005,,,,,,,2021-11-18,1,,,,,シーエルアイピーダイニヒャクニジュウサンゴウ,0
888,4010001222695,新規,0,2021-11-18,2021-11-18,株式会社ＳＨＩＰ第２４８号,,株式会社,東京都,千代田区,丸の内２丁目７番２号,,13,101,1000005,,,,,,,2021-11-18,1,,,,,エスエイチアイピーダイニヒャクヨンジュウハチゴウ,0
889,4010001222704,新規,0,2021-11-18,2021-11-18,株式会社ＳＨＩＰ第２５７号,,株式会社,東京都,千代田区,丸の内２丁目７番２号,,13,101,1000005,,,,,,,2021-11-18,1,,,,,エスエイチアイピーダイニヒャクゴジュウナナゴウ,0
899,4010005034220,新規,0,2021-11-18,2021-11-18,三井ダイレクト損害保険労働組合,,その他の設立登記法人,東京都,文京区,後楽２丁目５番１号三井ダイレクト損害保険株式会社内,,13,105,1120004,,,,,,,2021-11-18,1,,,,,ミツイダイレクトソンガイホケン,0
903,4010401163878,新規,0,2021-11-18,2021-11-18,株式会社ケイコーポレーション,,株式会社,東京都,港区,赤坂２丁目６番１５－２００１号,,13,103,1070052,,,,,,,2021-11-18,1,,,,,ケイコーポレーション,0
912,4010601060248,新規,0,2021-11-18,2021-11-18,株式会社ＭＩＹＡＴＡ　Ｃｏｒｐｏｒａｔｉｏｎ,,株式会社,東京都,墨田区,亀沢４丁目１９－１６－７０１,,13,107,1300014,,,,,,,2021-11-18,1,,,,,ミヤタコーポレーション,0
913,4010603009251,新規,0,2021-11-18,2021-11-18,エーピーエフエフ合同会社,,合同会社,東京都,江東区,千石２丁目６番６－５０４号,,13,108,1350015,,,,,,,2021-11-18,1,,,,,エーピーエフエフ,0
915,4010701041800,新規,0,2021-11-18,2021-11-18,株式会社エンジーニアス,,株式会社,東京都,品川区,西五反田１丁目３０番２号ウィン五反田ビル３階,,13,109,1410031,,,,,,,2021-11-18,1,,,,,エンジーニアス,0
919,4010805002896,新規,0,2021-11-18,2021-11-18,一般社団法人公益通報制度推進機構,,その他の設立登記法人,東京都,大田区,山王３丁目２０番１１号,,13,111,1430023,,,,,,,2021-11-18,1,,,,,コウエキツウホウセイドスイシンキコウ,0
925,4011001143774,新規,0,2021-11-18,2021-11-18,株式会社Ｌｅｏ　Ｓｏｐｈｉａ　Ｇｒｏｕｐ,,株式会社,東京都,渋谷区,広尾１丁目１３番１号,,13,113,1500012,,,,,,,2021-11-18,1,,,,,レオソフィアグループ,0
926,4011001144038,新規,0,2021-11-18,2021-11-18,株式会社ＧＲ２,,株式会社,東京都,渋谷区,広尾１丁目１３番１号,,13,113,1500012,,,,,,,2021-11-18,1,,,,,ジーアールツー,0
927,4011001144046,新規,0,2021-11-18,2021-11-18,株式会社ファースト,,株式会社,東京都,渋谷区,恵比寿１丁目１５番９号日宝恵比寿ビル４０３,,13,113,1500013,,,,,,,2021-11-18,1,,,,,ファースト,0
928,4011001144070,新規,0,2021-11-18,2021-11-18,株式会社ＫＡＮＫＩ,,株式会社,東京都,渋谷区,恵比寿南１丁目１８番１１号西田ビル３０３号室,,13,113,1500022,,,,,,,2021-11-18,1,,,,,カンキ,0
935,4011101096939,新規,0,2021-11-18,2021-11-18,株式会社７８コーポレーション,,株式会社,東京都,新宿区,四谷３丁目７番地かつ新ビル２階,,13,104,1600004,,,,,,,2021-11-18,1,,,,,ナナヤコーポレーション,0
936,4011101096947,新規,0,2021-11-18,2021-11-18,ＤｉｇｉＹｏｉ株式会社,,株式会社,東京都,新宿区,南榎町３１番地,,13,104,1620852,,,,,,,2021-11-18,1,,,,,ディジョイ,0
938,4011301027355,新規,0,2021-11-18,2021-11-18,Ｊｕｓｔ　Ｓｍｉｌｅ株式会社,,株式会社,東京都,杉並区,高円寺南３丁目５８番２１号,,13,115,1660003,,,,,,,2021-11-18,1,,,,,ジャストスマイル,0
939,4011503004978,新規,0,2021-11-18,2021-11-18,合同会社アタタカミ,,合同会社,東京都,北区,田端３丁目１１番３号１０１,,13,117,1140014,,,,,,,2021-11-18,1,,,,,アタタカミ,0
953,4012401038548,新規,0,2021-11-18,2021-11-18,株式会社ＫＪＳ,,株式会社,東京都,府中市,美好町３丁目３番地の２０,,13,206,1830045,,,,,,,2021-11-18,1,,,,,ケイジェイエス,0
961,4013101008774,新規,0,2021-11-18,2021-11-18,株式会社東京ＡＳＳＥＴ,,株式会社,東京都,青梅市,新町３丁目５７番地の７,,13,205,1980024,,,,,,,2021-11-18,1,,,,,トウキョウアセット,0
976,4020001143949,新規,0,2021-11-18,2021-11-18,株式会社アイ・ブレイン,,株式会社,神奈川県,川崎市麻生区,万福寺６丁目７番１３号,,14,137,2150004,,,,,,,2021-11-18,1,,,,,アイブレイン,0
977,4020001143965,新規,0,2021-11-18,2021-11-18,株式会社Ｍリサーチ＆コンサルティング,,株式会社,神奈川県,横浜市西区,北幸１丁目１１番１号水信ビル７階,,14,103,2200004,,,,,,,2021-11-18,1,,,,,エムリサーチアンドコンサルティング,0
978,4020001143973,新規,0,2021-11-18,2021-11-18,Ｅｎｃｏａｃｈ株式会社,,株式会社,神奈川県,川崎市中原区,小杉町３丁目６００番地,,14,133,2110063,,,,,,,2021-11-18,1,,,,,エンコーチ,0
979,4020001143981,新規,0,2021-11-18,2021-11-18,株式会社ＦＩＮＥ　ＨＯＭＥ,,株式会社,神奈川県,横浜市青葉区,大場町１４４番地１０７,,14,117,2250023,,,,,,,2021-11-18,1,,,,,ファインホーム,0
986,4020003020840,新規,0,2021-11-18,2021-11-18,合同会社ＷＧ－Ｊａｐａｎ　Ｔｒａｄｉｎｇ,,合同会社,神奈川県,横浜市都筑区,見花山１番３０号,,14,118,2240066,,,,,,,2021-11-18,1,,,,,ダブルジージャパントレーディング,0
991,4021001074531,新規,0,2021-11-18,2021-11-18,株式会社栗山興業,,株式会社,神奈川県,藤沢市,打戻２１６０番地の２,,14,205,2520824,,,,,,,2021-11-18,1,,,,,クリヤマコウギョウ,0
1001,4030001145399,新規,0,2021-11-18,2021-11-18,株式会社ベスタミ工業,,株式会社,埼玉県,川口市,並木１丁目１１番３号矢口ビル３０１号,,11,203,3320034,,,,,,,2021-11-18,1,,,,,ベスタミコウギョウ,0
1008,4030003018330,新規,0,2021-11-18,2021-11-18,合同会社ＬＨＰｇｒｏｕｐ,,合同会社,埼玉県,草加市,瀬崎１丁目９番１号ライオンズタワー１４０６,,11,221,3400022,,,,,,,2021-11-18,1,,,,,エルエイチピーグループ,0
1013,4040001121011,新規,0,2021-11-18,2021-11-18,株式会社グランドライン,,株式会社,千葉県,東金市,極楽寺５６９番地４,,12,213,2830835,,,,,,,2021-11-18,1,,,,,グランドライン,0
1017,4040003018965,新規,0,2021-11-18,2021-11-18,ＬＯＹＡ合同会社,,合同会社,千葉県,柏市,緑ケ丘１０－１５,,12,217,2770082,,,,,,,2021-11-18,1,,,,,ロイヤ,0
1031,4090001017287,新規,0,2021-11-18,2021-11-18,株式会社Ｎ．１．Ｃ,,株式会社,山梨県,韮崎市,旭町上條中割５９８番地３１,,19,207,4070045,,,,,,,2021-11-18,1,,,,,,0
1034,4100001034826,新規,0,2021-11-18,2021-11-18,株式会社ながのキャンパル,,株式会社,長野県,長野市,大字稲葉６６４番地５,,20,201,3800911,,,,,,,2021-11-18,1,,,,,ナガノキャンパル,0
1053,4120001241908,新規,0,2021-11-18,2021-11-18,株式会社クローバープロパティ,,株式会社,大阪府,大阪市北区,長柄西１丁目３番５４号,,27,127,5310061,,,,,,,2021-11-18,1,,,,,クローバープロパティ,0
1054,4120001241940,新規,0,2021-11-18,2021-11-18,株式会社ＩＣコーポレーション,,株式会社,大阪府,大阪市西淀川区,中島１丁目３５番１７０－１３号,,27,113,5550041,,,,,,,2021-11-18,1,,,,,アイシーコーポレーション,0
1055,4120001241957,新規,0,2021-11-18,2021-11-18,壹豊株式会社,,株式会社,大阪府,大阪市城東区,中浜１丁目１７－１４ルネッサンスシャレード３Ｉ号室,,27,118,5360024,,,,,,,2021-11-18,1,,,,,イチトヨ,0
1057,4120003020599,新規,0,2021-11-18,2021-11-18,合同会社鈴木企画,,合同会社,大阪府,大阪市此花区,梅香３丁目２６番９号,,27,104,5540013,,,,,,,2021-11-18,1,,,,,スズキキカク,0
1058,4120003020624,新規,0,2021-11-18,2021-11-18,合同会社れんげ,,合同会社,大阪府,大阪市浪速区,日本橋５丁目１３番９－２０１号,,27,111,5560005,,,,,,,2021-11-18,1,,,,,レンゲ,0
1065,4120101064663,新規,0,2021-11-18,2021-11-18,株式会社Ｇ　Ｌｏｇｉｓｔｉｃｓ,,株式会社,大阪府,松原市,新堂１丁目５３２番地の１,,27,217,5800015,,,,,,,2021-11-18,1,,,,,ジーロジスティクス,0
1092,4180001148726,新規,0,2021-11-18,2021-11-18,株式会社ＲＩＤＥ,,株式会社,愛知県,名古屋市守山区,苗代２丁目１３番１６号,,23,113,4630046,,,,,,,2021-11-18,1,,,,,ライド,0
1093,4180001148775,新規,0,2021-11-18,2021-11-18,株式会社ＧＲＯＷ,,株式会社,愛知県,名古屋市中村区,亀島１丁目１２番１４号－１,,23,105,4530013,,,,,,,2021-11-18,1,,,,,グロー,0
1094,4180001148809,新規,0,2021-11-18,2021-11-18,株式会社ｍｏａｎＡ,,株式会社,愛知県,知多郡武豊町,字平井４丁目２５番地,,23,447,4702380,,,,,,,2021-11-18,1,,,,,モアナ,0
1095,4180003023217,新規,0,2021-11-18,2021-11-18,合同会社Ｓｍｉｌｅ　Ｇｒｏｗ,,合同会社,愛知県,名古屋市天白区,御幸山１３３８番地,,23,116,4680075,,,,,,,2021-11-18,1,,,,,スマイルグロー,0
1097,4180303005162,新規,0,2021-11-18,2021-11-18,ＥＳＴＲＡＤＥ合同会社,,合同会社,愛知県,豊田市,山之手４丁目２１番地ダイアパレス三河豊田１１０３号,,23,211,4710833,,,,,,,2021-11-18,1,,,,,エストレード,0
1106,4230001019104,新規,0,2021-11-18,2021-11-18,ｂｒｏａｄｅｎ株式会社,,株式会社,富山県,富山市,布目８３３番地１,,16,201,9302233,,,,,,,2021-11-18,1,,,,,ブローデン,0
1116,4260001036229,新規,0,2021-11-18,2021-11-18,株式会社ＳＪわーくす,,株式会社,岡山県,岡山市北区,芳賀２９２６－５,,33,101,7011221,,,,,,,2021-11-18,1,,,,,,0
1119,4280005007447,新規,0,2021-11-18,2021-11-18,協同組合ＹＡＤＤＯ知夫里島,,その他の設立登記法人,島根県,隠岐郡知夫村,７７６番地１,,32,527,6840100,,,,,,,2021-11-18,1,,,,,ヤッドチブリジマ,0
1121,4290001095420,新規,0,2021-11-18,2021-11-18,株式会社まちふる,,株式会社,福岡県,福岡市博多区,博多駅前３丁目９番１号,,40,132,8120011,,,,,,,2021-11-18,1,,,,,マチフル,0
1122,4290001095429,新規,0,2021-11-18,2021-11-18,株式会社リビングドア,,株式会社,福岡県,福岡市東区,箱崎４丁目２８番９号,,40,131,8120053,,,,,,,2021-11-18,1,,,,,リビングドア,0
1123,4290001095445,新規,0,2021-11-18,2021-11-18,古賀設備株式会社,,株式会社,福岡県,久留米市,北野町高良２１４０番地６,,40,203,8301114,,,,,,,2021-11-18,1,,,,,コガセツビ,0
1124,4290001095461,新規,0,2021-11-18,2021-11-18,株式会社クロスパートナーズ,,株式会社,福岡県,糟屋郡粕屋町,原町５丁目１－６,,40,349,8112307,,,,,,,2021-11-18,1,,,,,クロスパートナーズ,0
1130,4320005009934,新規,0,2021-11-18,2021-11-18,一般社団法人大分・別府相続相談センター,,その他の設立登記法人,大分県,大分市,中島西１丁目７番１４号,,44,201,8700047,,,,,,,2021-11-18,1,,,,,オオイタベップソウゾクソウダンセンター,0
1134,4330001029209,新規,0,2021-11-18,2021-11-18,株式会社ｙｏｋｏｙａｍａ工業,,株式会社,熊本県,熊本市東区,長嶺東６丁目２７番４８－３号コンコース長嶺７－３,,43,102,8618038,,,,,,,2021-11-18,1,,,,,ヨコヤマコウギョウ,0
1137,4330005010437,新規,0,2021-11-18,2021-11-18,一般社団法人熊本のチカラ,,その他の設立登記法人,熊本県,熊本市西区,横手５丁目１４番４７号,,43,103,8600046,,,,,,,2021-11-18,1,,,,,クマモトノチカラ,0
1144,4340003003631,新規,0,2021-11-18,2021-11-18,合同会社サステナ,,合同会社,鹿児島県,鹿児島市,山田町２００８番地,,46,201,8910104,,,,,,,2021-11-18,1,,,,,サステナ,0
1148,4360001029627,新規,0,2021-11-18,2021-11-18,株式会社飯屋,,株式会社,沖縄県,宜野湾市,真栄原２丁目２８番１７号,,47,205,9012215,,,,,,,2021-11-18,1,,,,,メシヤ,0
1150,4360003011582,新規,0,2021-11-18,2021-11-18,ＣＳ合同会社,,合同会社,沖縄県,浦添市,宮城２丁目１７番２－２０３号,,47,208,9012126,,,,,,,2021-11-18,1,,,,,,0
1153,4370001047850,新規,0,2021-11-18,2021-11-18,株式会社Ｋｒｅｓｔ,,株式会社,宮城県,登米市,豊里町新田町１４８番地２,,04,212,9870361,,,,,,,2021-11-18,1,,,,,クレスト,0
1154,4370003005484,新規,0,2021-11-18,2021-11-18,Ｅａｒｔｈ－Ｈｏｍｅ　Ｂｅｎｅｆｉｔ合同会社,,合同会社,宮城県,大崎市,古川駅南３丁目８番地,,04,215,9896161,,,,,,,2021-11-18,1,,,,,アースホームベネフィット,0
1162,4430001085415,新規,0,2021-11-18,2021-11-18,株式会社サクラコーポレーション,,株式会社,北海道,札幌市東区,北二十条東７丁目１番２７号,,01,103,0650020,,,,,,,2021-11-18,1,,,,,サクラコーポレーション,0
1165,4430003013373,新規,0,2021-11-18,2021-11-18,令和合同会社,,合同会社,北海道,札幌市白石区,菊水元町七条１丁目１０番１０号,,01,104,0030827,,,,,,,2021-11-18,1,,,,,レイワ,0
1180,4700150105862,新規,0,2021-11-18,2021-11-18,ＣＩＴＹ　ＴＲＡＤＥ　ＣＥＮＴＲＥ,,外国会社等,千葉県,茂原市,清水２２４０－１５清水オフィス－１,,12,210,2994101,スリランカ民主社会主義共和国、アヌラーデプレ、カンニマドウェロード、ガレンビンドウヌウェウェ,,,,,,2021-11-18,1,,,,,シテイトレーデセンター,0
1181,4700150105879,新規,0,2021-11-18,2021-11-18,麹町山王マンションマンション建替組合,,その他,東京都,中央区,八重洲１丁目４番１６号東京建物株式会社内,,13,102,1030028,,,,,,,2021-11-18,1,,,,,コウジマチサンノウマンシヨンマンシヨンタテカエクミアイ,0
1189,5010001222637,新規,0,2021-11-18,2021-11-18,ＭＩＪＵ株式会社,,株式会社,東京都,千代田区,神田紺屋町２７番神田国際ビル２階,,13,101,1010035,,,,,,,2021-11-18,1,,,,,ミィジュ,0
1190,5010001222653,新規,0,2021-11-18,2021-11-18,ＦｏｕｎｄｅｒＣａｉｒｎ株式会社,,株式会社,東京都,文京区,本郷４丁目１番４号,,13,105,1130033,,,,,,,2021-11-18,1,,,,,ファウンダーケルン,0
1191,5010001222678,新規,0,2021-11-18,2021-11-18,株式会社ＣＬＩＰ第２２２号,,株式会社,東京都,千代田区,丸の内２丁目７番２号,,13,101,1000005,,,,,,,2021-11-18,1,,,,,シーエルアイピーダイニヒャクニジュウニゴウ,0
1192,5010001222694,新規,0,2021-11-18,2021-11-18,株式会社ＳＨＩＰ第２４７号,,株式会社,東京都,千代田区,丸の内２丁目７番２号,,13,101,1000005,,,,,,,2021-11-18,1,,,,,エスエイチアイピーダイニヒャクヨンジュウナナゴウ,0
1193,5010001222703,新規,0,2021-11-18,2021-11-18,株式会社ＳＨＩＰ第２５６号,,株式会社,東京都,千代田区,丸の内２丁目７番２号,,13,101,1000005,,,,,,,2021-11-18,1,,,,,エスエイチアイピーダイニヒャクゴジュウロクゴウ,0
1210,5010401163869,新規,0,2021-11-18,2021-11-18,株式会社フォルトゥナ,,株式会社,東京都,港区,白金３丁目３番１９号,,13,103,1080072,,,,,,,2021-11-18,1,,,,,フォルトゥナ,0
1211,5010403026512,新規,0,2021-11-18,2021-11-18,名古屋・ホテル・インベストメンツ合同会社,,合同会社,東京都,港区,虎ノ門３丁目２２番１０－２０１号,,13,103,1050001,,,,,,,2021-11-18,1,,,,,ナゴヤホテルインベストメンツ,0
1212,5010403026545,新規,0,2021-11-18,2021-11-18,ＲＥＤ　ＴＯＫＹＯ　ＴＯＷＥＲ合同会社,,合同会社,東京都,港区,元赤坂１丁目１番８号赤坂コミュニティビル４階,,13,103,1070051,,,,,,,2021-11-18,1,,,,,レッドトウキョウタワー,0
1218,5010601060239,新規,0,2021-11-18,2021-11-18,ＯＪ株式会社,,株式会社,東京都,江東区,青海２丁目７番４号ｔｈｅＳＯＨＯ１００１号室,,13,108,1350064,,,,,,,2021-11-18,1,,,,,オージェー,0
1222,5010701041799,新規,0,2021-11-18,2021-11-18,株式会社ｄ２ｃｏｎｎｅｃｔ,,株式会社,東京都,品川区,西五反田２丁目１２番３号第一誠実ビル８Ｆ,,13,109,1410031,,,,,,,2021-11-18,1,,,,,ディーツーコネクト,0
1223,5010701041808,新規,0,2021-11-18,2021-11-18,ＡＯＴ株式会社,,株式会社,東京都,品川区,東五反田３丁目１番４号１９０２,,13,109,1410022,,,,,,,2021-11-18,1,,,,,エーオーティー,0
1224,5010801032500,新規,0,2021-11-18,2021-11-18,株式会社ＤＥＳＴＩＮＹ,,株式会社,東京都,大田区,東馬込２丁目５番８号フレンドリッチハウス東馬込１０３,,13,111,1430022,,,,,,,2021-11-18,1,,,,,デステニー,0
1226,5010901049741,新規,0,2021-11-18,2021-11-18,株式会社コーテッツ,,株式会社,東京都,世田谷区,玉堤１丁目２１番１６号,,13,112,1580087,,,,,,,2021-11-18,1,,,,,コーテッツ,0
1240,5011001144004,新規,0,2021-11-18,2021-11-18,株式会社Ｃｏｎｎｅｃ．ｔ,,株式会社,東京都,渋谷区,神宮前６丁目２３－４桑野ビル２Ｆ,,13,113,1500001,,,,,,,2021-11-18,1,,,,,コネクト,0
1241,5011001144037,新規,0,2021-11-18,2021-11-18,株式会社ＯＮＥ　ＤＡＹ　ＣＯＮＮＥＣＴ,,株式会社,東京都,渋谷区,東１丁目３２番１２号プロパティータワー１５０１,,13,113,1500011,,,,,,,2021-11-18,1,,,,,ワンデイコネクト,0
1242,5011001144045,新規,0,2021-11-18,2021-11-18,ＣＡＮＤＹ　ＢＲＡＩＮ株式会社,,株式会社,東京都,渋谷区,桜丘町３１番１４号岡三桜丘ビル１階,,13,113,1500031,,,,,,,2021-11-18,1,,,,,キャンディブレイン,0
1244,5011005009310,新規,0,2021-11-18,2021-11-18,一般社団法人Ｇｏｐｈｅｒｓ　Ｊａｐａｎ,,その他の設立登記法人,東京都,渋谷区,渋谷２丁目１９番１５－６０９号,,13,113,1500002,,,,,,,2021-11-18,1,,,,,ゴーファーズジャパン,0
1248,5011101096954,新規,0,2021-11-18,2021-11-18,株式会社グロースリンク,,株式会社,東京都,新宿区,西新宿１丁目４番１１号全研プラザビル,,13,104,1600023,,,,,,,2021-11-18,1,,,,,グロースリンク,0
1249,5011103011192,新規,0,2021-11-18,2021-11-18,ダイナミックジャパン合同会社,,合同会社,東京都,新宿区,西新宿３丁目３番１３号西新宿水間ビル６階,,13,104,1600023,,,,,,,2021-11-18,1,,,,,ダイナミックジャパン,0
1253,5011401023856,新規,0,2021-11-18,2021-11-18,ＥＣＯＨＡＵＳ株式会社,,株式会社,東京都,板橋区,小茂根１丁目２５－１６ＵＩＳビル２０６号,,13,119,1730037,,,,,,,2021-11-18,1,,,,,エコハウス,0
1272,5011803004867,新規,0,2021-11-18,2021-11-18,合同会社ｔａｓｋ　ａｇｅｎｔ,,合同会社,東京都,足立区,古千谷本町２丁目２番１７号ベルウッド２０２,,13,121,1210832,,,,,,,2021-11-18,1,,,,,タスクエージェント,0
1276,5012301012775,新規,0,2021-11-18,2021-11-18,株式会社Ｕ－ＰＵＭＰ,,株式会社,東京都,町田市,金井ヶ丘２丁目２２番２４号,,13,209,1950076,,,,,,,2021-11-18,1,,,,,ユウポンプ,0
1284,5013101008773,新規,0,2021-11-18,2021-11-18,Ｇｏｏｄ　Ｌｉｆｅ株式会社,,株式会社,東京都,羽村市,神明台３丁目３３番地１セントポーリアス１階,,13,227,2050023,,,,,,,2021-11-18,1,,,,,グッドライフ,0
1285,5013301048289,新規,0,2021-11-18,2021-11-18,株式会社東京グランドリオン,,株式会社,東京都,豊島区,池袋２丁目５７番６号ＭＣオフィス池袋西口ビル２Ｆ,,13,116,1710014,,,,,,,2021-11-18,1,,,,,トウキョウグランドリオン,0
1303,5020001143980,新規,0,2021-11-18,2021-11-18,株式会社エディション,,株式会社,神奈川県,横浜市神奈川区,鶴屋町３丁目３５番地８－５Ｆ,,14,102,2210835,,,,,,,2021-11-18,1,,,,,エディション,0
1304,5020001143989,新規,0,2021-11-18,2021-11-18,株式会社カグラ,,株式会社,神奈川県,川崎市多摩区,西生田１丁目１６番４号,,14,135,2140037,,,,,,,2021-11-18,1,,,,,カグラ,0
1308,5020003020848,新規,0,2021-11-18,2021-11-18,合同会社坂戸屋,,合同会社,神奈川県,川崎市高津区,下作延２丁目２５番６号,,14,134,2130033,,,,,,,2021-11-18,1,,,,,サカドヤ,0
1310,5021001074522,新規,0,2021-11-18,2021-11-18,株式会社ＥＳＣ,,株式会社,神奈川県,横須賀市,武４丁目３６番６号,,14,201,2380313,,,,,,,2021-11-18,1,,,,,イーエスシー,0
1311,5021001074530,新規,0,2021-11-18,2021-11-18,株式会社オズプラン,,株式会社,神奈川県,海老名市,国分南４丁目１２番１４号,,14,215,2430405,,,,,,,2021-11-18,1,,,,,オズプラン,0
1322,5030001145349,新規,0,2021-11-18,2021-11-18,株式会社ＡＬＦＡ,,株式会社,埼玉県,越谷市,南越谷４丁目９番地６新越谷プラザビル４０２,,11,222,3430845,,,,,,,2021-11-18,1,,,,,アルファ,0
1323,5030001145431,新規,0,2021-11-18,2021-11-18,株式会社ＭＡＤＮＥＳＳ,,株式会社,埼玉県,蕨市,塚越７丁目２２番１２－３０３号,,11,223,3350002,,,,,,,2021-11-18,1,,,,,マドネス,0
1332,5040001121027,新規,0,2021-11-18,2021-11-18,株式会社ｅｆ　ｄｅ　Ｍａｒｉ,,株式会社,千葉県,松戸市,東松戸３丁目２番地の１アルフレンテ１４０６号,,12,207,2702225,,,,,,,2021-11-18,1,,,,,エフドマリ,0
1333,5040001121068,新規,0,2021-11-18,2021-11-18,Ｗｉｎｄ’ｓ　Ｂｅａｔ株式会社,,株式会社,千葉県,市川市,大和田２丁目４番４号,,12,203,2720025,,,,,,,2021-11-18,1,,,,,ウインズビート,0
1338,5040003018956,新規,0,2021-11-18,2021-11-18,合同会社ＭＢＷ,,合同会社,千葉県,千葉市若葉区,みつわ台５丁目２５番７号,,12,104,2640032,,,,,,,2021-11-18,1,,,,,エムビーダブル,0
1339,5040003018972,新規,0,2021-11-18,2021-11-18,合同会社ＡＲＩＧＡＴＡＩ,,合同会社,千葉県,千葉市美浜区,打瀬３丁目６番地ミラマール３番館２０６号,,12,106,2610013,,,,,,,2021-11-18,1,,,,,アリガタイ,0
1348,5070001038664,新規,0,2021-11-18,2021-11-18,Ｔｏｋｙｏ　Ｎａｇｏｙａ　Ｓｅｒｖｉｃｅｓ株式会社,,株式会社,群馬県,太田市,八重笠町３５７番地１,,10,205,3730805,,,,,,,2021-11-18,1,,,,,トウキョウナゴヤサービス,0
1353,5080001024580,新規,0,2021-11-18,2021-11-18,株式会社えいと,,株式会社,静岡県,静岡市清水区,旭町２番２０号,,22,103,4240822,,,,,,,2021-11-18,1,,,,,エイト,0
1368,5110001036201,新規,0,2021-11-18,2021-11-18,オレンジカンパニー株式会社,,株式会社,新潟県,南魚沼郡湯沢町,大字土樽５０３６番地,00124895,15,461,9496103,,,,,,,2021-11-18,1,,,,,オレンジカンパニー,0
1379,5120001241898,新規,0,2021-11-18,2021-11-18,株式会社ＬＰ,,株式会社,大阪府,大阪市北区,堂山町８番２１号石本ビルＢ１Ｆ,,27,127,5300027,,,,,,,2021-11-18,1,,,,,エルピー,0
1380,5120001241948,新規,0,2021-11-18,2021-11-18,株式会社未来商事,,株式会社,大阪府,大阪市中央区,島之内１丁目１４－７クレシア東心斎橋１Ｆ,,27,128,5420082,,,,,,,2021-11-18,1,,,,,ミライショウジ,0
1381,5120001241980,新規,0,2021-11-18,2021-11-18,豊達株式会社,,株式会社,大阪府,大阪市中央区,千日前１丁目５番１５号,,27,128,5420074,,,,,,,2021-11-18,1,,,,,トヨタツ,0
1382,5120001241989,新規,0,2021-11-18,2021-11-18,株式会社ＭＰＨ,,株式会社,大阪府,大阪市中央区,東心斎橋１丁目１９－６,,27,128,5420083,,,,,,,2021-11-18,1,,,,,エムピーエイチ,0
1387,5120003020623,新規,0,2021-11-18,2021-11-18,合同会社ＨＳ,,合同会社,大阪府,大阪市北区,長柄西１丁目３番２２－３０５号,,27,127,5310061,,,,,,,2021-11-18,1,,,,,エイチエス,0
1389,5120101064662,新規,0,2021-11-18,2021-11-18,株式会社Ｗｉｎ・Ｗｉｎ,,株式会社,大阪府,泉大津市,条南町８番１７号,,27,206,5950016,,,,,,,2021-11-18,1,,,,,ウインウイン,0
1390,5120101064670,新規,0,2021-11-18,2021-11-18,株式会社アイアム,,株式会社,大阪府,大阪狭山市,山本東１２番地の３,,27,231,5890036,,,,,,,2021-11-18,1,,,,,アイアム,0
1391,5120101064679,新規,0,2021-11-18,2021-11-18,株式会社ｇｌｏｂａｌｂａｙ,,株式会社,大阪府,松原市,高見の里３丁目４番２号３０１号室,,27,217,5800021,,,,,,,2021-11-18,1,,,,,グローバルベイ,0
1393,5120901045234,新規,0,2021-11-18,2021-11-18,清水ホーム株式会社,,株式会社,大阪府,豊中市,服部本町５丁目１０番１３号,,27,203,5610852,,,,,,,2021-11-18,1,,,,,シミズホーム,0
1395,5120903003909,新規,0,2021-11-18,2021-11-18,合同会社スリーマイスター,,合同会社,大阪府,豊中市,本町１丁目１１番３０－２０４号,,27,203,5600021,,,,,,,2021-11-18,1,,,,,スリーマイスター,0
1398,5130003007586,新規,0,2021-11-18,2021-11-18,合同会社のびしろ,,合同会社,京都府,京都市上京区,宮垣町９１まむあん荒神口１０２,,26,102,6020853,,,,,,,2021-11-18,1,,,,,ノビシロ,0
1403,5140001123871,新規,0,2021-11-18,2021-11-18,株式会社カフカ,,株式会社,兵庫県,淡路市,谷４３１番地３,,28,226,6562332,,,,,,,2021-11-18,1,,,,,カフカ,0
1413,5180001148667,新規,0,2021-11-18,2021-11-18,株式会社Ｍｅｂａｅ,,株式会社,愛知県,名古屋市中川区,万場５丁目１７０１番地の１,,23,110,4540997,,,,,,,2021-11-18,1,,,,,メバエ,0
1414,5180001148725,新規,0,2021-11-18,2021-11-18,株式会社Ｅ・トラスト,,株式会社,愛知県,名古屋市南区,鳴尾２丁目７２番地,,23,112,4570066,,,,,,,2021-11-18,1,,,,,イートラスト,0
1415,5180001148758,新規,0,2021-11-18,2021-11-18,株式会社政和建設,,株式会社,愛知県,名古屋市港区,小賀須４丁目１００６番地の６,,23,111,4550882,,,,,,,2021-11-18,1,,,,,セイワケンセツ,0
1416,5180001148774,新規,0,2021-11-18,2021-11-18,株式会社ＴＣ,,株式会社,愛知県,津島市,西御堂町２０番地,,23,208,4960849,,,,,,,2021-11-18,1,,,,,ティシー,0
1417,5180001148808,新規,0,2021-11-18,2021-11-18,ＣＳＬ株式会社,,株式会社,愛知県,半田市,住吉町４丁目１３３番地,,23,205,4750862,,,,,,,2021-11-18,1,,,,,シーエスエル,0
1418,5180001148816,新規,0,2021-11-18,2021-11-18,株式会社後藤プランテック,,株式会社,愛知県,海部郡大治町,大字三本木字前深田２９番地の４,,23,424,4901142,,,,,,,2021-11-18,1,,,,,ゴトウプランテック,0
1422,5180003023216,新規,0,2021-11-18,2021-11-18,合同会社みんなのみかた,,合同会社,愛知県,名古屋市千種区,日和町１丁目２番１５号,,23,101,4640039,,,,,,,2021-11-18,1,,,,,ミンナノミカタ,0
1436,5200001039434,新規,0,2021-11-18,2021-11-18,株式会社ＰＯＰＡＮ,,株式会社,岐阜県,岐阜市,八代１丁目１４番１３号,,21,201,5020812,,,,,,,2021-11-18,1,,,,,ポパン,0
1446,5290001095452,新規,0,2021-11-18,2021-11-18,株式会社クアトロマーク,,株式会社,福岡県,筑紫野市,大字阿志岐２３７１番地７,,40,217,8180011,,,,,,,2021-11-18,1,,,,,クアトロマーク,0
1447,5290001095460,新規,0,2021-11-18,2021-11-18,株式会社Ｃｏ‐Ｄｅｓｉｇｎ　Ｌａｂ,,株式会社,福岡県,福岡市西区,今宿西１丁目７番２９号,,40,135,8190169,,,,,,,2021-11-18,1,,,,,コーデザインラボ,0
1451,5300001012703,新規,0,2021-11-18,2021-11-18,株式会社柏玉,,株式会社,佐賀県,佐賀市,六座町２番１８号,,41,201,8400845,,,,,,,2021-11-18,1,,,,,ハクギョク,0
1466,5370001047825,新規,0,2021-11-18,2021-11-18,東北がんばれホールディングス株式会社,,株式会社,宮城県,仙台市青葉区,国見ケ丘５丁目１８番３０号,,04,101,9893201,,,,,,,2021-11-18,1,,,,,トウホクガンバレホールディングス,0
1479,5430001085397,新規,0,2021-11-18,2021-11-18,株式会社インターネットメディカル,,株式会社,北海道,札幌市中央区,南五条東３丁目１０番地１－８０５,,01,101,0600055,,,,,,,2021-11-18,1,,,,,インターネットメディカル,0
1480,5430001085406,新規,0,2021-11-18,2021-11-18,株式会社Ｇｌｏｃａｌ　Ｃｏｎｎｅｃｔ,,株式会社,北海道,札幌市中央区,南四条東４丁目１番地２８,,01,101,0600054,,,,,,,2021-11-18,1,,,,,グローカルコネクト,0
1483,5430003013372,新規,0,2021-11-18,2021-11-18,合同会社真成,,合同会社,北海道,札幌市北区,屯田五条６丁目２番１７号,,01,102,0020855,,,,,,,2021-11-18,1,,,,,シンセイ,0
1492,5470001018832,新規,0,2021-11-18,2021-11-18,アイティス株式会社,,株式会社,香川県,高松市,東ハゼ町４番地５,,37,201,7618054,,,,,,,2021-11-18,1,,,,,アイティス,0
1493,5470001018840,新規,0,2021-11-18,2021-11-18,株式会社Ｆｅｌｉｃｅ,,株式会社,香川県,高松市,田村町９１８番地７,,37,201,7618057,,,,,,,2021-11-18,1,,,,,フェリーチェ,0
1500,5500001023820,新規,0,2021-11-18,2021-11-18,株式会社プロセス,,株式会社,愛媛県,松山市,北斎院町８６０番地３,,38,201,7918031,,,,,,,2021-11-18,1,,,,,プロセス,0
1502,5700150105861,新規,0,2021-11-18,2021-11-18,ＳＳ　ＡＵＴＯＭＡＴＩＣ　ＥＮＴＥＲＰＲＩＳＥＳ,,外国会社等,新潟県,妙高市,大字小濁７３１レンタルスペース２Ｆ－４,,15,217,9440221,スリランカ民主社会主義共和国、デウィヌワラ、ガラガネロード、サマギマワタ、６１／Ｂ,,,,,,2021-11-18,1,,,,,エスエスオートマチツクエンタープライセス,0
1503,5700150105878,新規,0,2021-11-18,2021-11-18,ＭＡＲＶＥＬ　ＰＲＩＭＥ　ＩＮＴＥＲＮＡＴＩＯＮＡＬ　ＬＩＭＩＴＥＤ,,外国会社等,北海道,虻田郡ニセコ町,字里見２９－１０,,01,395,0481551,ＯＭＣ　Ｃｈａｍｂｅｒｓ，Ｗｉｃｋｈａｍｓ　Ｃａｙ　１，Ｒｏａｄ　Ｔｏｗｎ，Ｔｏｒｔｏｌａ，Ｂｒｉｔｉｓｈ　Ｖｉｒｇｉｎ　Ｉｓｌａｎｄｓ,,,,,,2021-11-18,1,,,,,マーベルプライムインターナシヨナルリミテツド,0
1511,6010001222537,新規,0,2021-11-18,2021-11-18,株式会社ＷｅＧｌｏｂａｌ,,株式会社,東京都,千代田区,九段南１丁目５番６号りそな九段ビル５階ＫＳフロア,,13,101,1020074,,,,,,,2021-11-18,1,,,,,ウィーグローバル,0
1512,6010001222553,新規,0,2021-11-18,2021-11-18,プライムボード・ジャパン株式会社,,株式会社,東京都,千代田区,丸の内３丁目２番２号,,13,101,1000005,,,,,,,2021-11-18,1,,,,,プライムボードジャパン,0
1513,6010001222594,新規,0,2021-11-18,2021-11-18,株式会社ＩＳＢ,,株式会社,東京都,中央区,京橋３丁目９番４号,,13,102,1040031,,,,,,,2021-11-18,1,,,,,アイエスビー,0
1514,6010001222644,新規,0,2021-11-18,2021-11-18,株式会社ＬＥＸＴ,,株式会社,東京都,中央区,日本橋３丁目２－１５－６０１,,13,102,1030027,,,,,,,2021-11-18,1,,,,,レクスト,0
1515,6010001222669,新規,0,2021-11-18,2021-11-18,株式会社ＣＬＩＰ第２１３号,,株式会社,東京都,千代田区,丸の内２丁目７番２号,,13,101,1000005,,,,,,,2021-11-18,1,,,,,シーエルアイピーダイニヒャクジュウサンゴウ,0
1516,6010001222677,新規,0,2021-11-18,2021-11-18,株式会社ＣＬＩＰ第２２１号,,株式会社,東京都,千代田区,丸の内２丁目７番２号,,13,101,1000005,,,,,,,2021-11-18,1,,,,,シーエルアイピーダイニヒャクニジュウイチゴウ,0
1517,6010001222693,新規,0,2021-11-18,2021-11-18,株式会社ＳＨＩＰ第２４６号,,株式会社,東京都,千代田区,丸の内２丁目７番２号,,13,101,1000005,,,,,,,2021-11-18,1,,,,,エスエイチアイピーダイニヒャクヨンジュウロクゴウ,0
1518,6010001222702,新規,0,2021-11-18,2021-11-18,株式会社ＳＨＩＰ第２５５号,,株式会社,東京都,千代田区,丸の内２丁目７番２号,,13,101,1000005,,,,,,,2021-11-18,1,,,,,エスエイチアイピーダイニヒャクゴジュウゴゴウ,0
1527,6010401163876,新規,0,2021-11-18,2021-11-18,株式会社みらい都市開発,,株式会社,東京都,港区,浜松町１丁目３番１号浜離宮ザタワー２０１,,13,103,1050013,,,,,,,2021-11-18,1,,,,,ミライトシカイハツ,0
1528,6010401163918,新規,0,2021-11-18,2021-11-18,Ｒ．ＴＭ　ＧＡＬＬＥＲＹ株式会社,,株式会社,東京都,港区,虎ノ門５丁目１１番１号オランダヒルズ森タワーＲｏＰ１２０３,,13,103,1050001,,,,,,,2021-11-18,1,,,,,アールティーエムギャラリー,0
1530,6010405020405,新規,0,2021-11-18,2021-11-18,みなとホールディングス一般社団法人,,その他の設立登記法人,東京都,港区,元赤坂１丁目１番７号,,13,103,1070051,,,,,,,2021-11-18,1,,,,,ミナトホールディングス,0
1531,6010405020421,新規,0,2021-11-18,2021-11-18,一般社団法人バンクフォースマイルズ,,その他の設立登記法人,東京都,港区,赤坂１丁目１２番３２号,,13,103,1070052,,,,,,,2021-11-18,1,,,,,バンクフォースマイルズ,0
1532,6010405020438,新規,0,2021-11-18,2021-11-18,ジー・ジェイ・レジデンス・セブン一般社団法人,,その他の設立登記法人,東京都,港区,虎ノ門４丁目３番１号城山トラストタワー２７階ＳａｎｎｅＧｒｏｕｐＪａｐａｎ株式会社内,,13,103,1050001,,,,,,,2021-11-18,1,,,,,ジージェイレジデンスセブン,0
1538,6010603009258,新規,0,2021-11-18,2021-11-18,合同会社アンビストリー,,合同会社,東京都,江東区,東雲１丁目９－４１アップルタワーキャナルコート３４１３,,13,108,1350062,,,,,,,2021-11-18,1,,,,,アンビストリー,0
1540,6010701041798,新規,0,2021-11-18,2021-11-18,株式会社みどりとあおの,,株式会社,東京都,品川区,小山台１丁目１２番１０－２０２号,,13,109,1420061,,,,,,,2021-11-18,1,,,,,ミドリトアオノ,0
1541,6010703005999,新規,0,2021-11-18,2021-11-18,合同会社ＳｉｍＡｒｔｈｕｒ,,合同会社,東京都,品川区,西品川１丁目１－１,,13,109,1410033,,,,,,,2021-11-18,1,,,,,シムアーサー,0
1543,6010801032499,新規,0,2021-11-18,2021-11-18,株式会社心美,,株式会社,東京都,大田区,大森北４丁目２５番１２号,,13,111,1430016,,,,,,,2021-11-18,1,,,,,ココミ,0
1544,6010803003952,新規,0,2021-11-18,2021-11-18,Ｒｏｕｇｈ＆Ｆｒｅｅ合同会社,,合同会社,東京都,大田区,池上７丁目１３番２４号,,13,111,1460082,,,,,,,2021-11-18,1,,,,,ラフアンドフリー,0
1566,6011001144036,新規,0,2021-11-18,2021-11-18,ＢＥＣＯＭＥ株式会社,,株式会社,東京都,渋谷区,渋谷１丁目９－４トーカン渋谷キャステール５０８,,13,113,1500002,,,,,,,2021-11-18,1,,,,,ビカム,0
1567,6011001144085,新規,0,2021-11-18,2021-11-18,リバティ・ストリート株式会社,,株式会社,東京都,目黒区,平町１丁目１０番６号,,13,110,1520032,,,,,,,2021-11-18,1,,,,,リバティストリート,0
1577,6011101096929,新規,0,2021-11-18,2021-11-18,株式会社ＴＢＩＳ,,株式会社,東京都,新宿区,四谷１丁目８番３号,,13,104,1600004,,,,,,,2021-11-18,1,,,,,ティービーアイエス,0
1578,6011101096937,新規,0,2021-11-18,2021-11-18,株式会社キャピタルアドバイザーズ,,株式会社,東京都,新宿区,西新宿８丁目１４番１９号西新宿ＳＴビル５階,,13,104,1600023,,,,,,,2021-11-18,1,,,,,キャピタルアドバイザーズ,0
1579,6011101096945,新規,0,2021-11-18,2021-11-18,株式会社ミラン,,株式会社,東京都,新宿区,西新宿５丁目１７－９－１０１,,13,104,1600023,,,,,,,2021-11-18,1,,,,,ミラン,0
1581,6011103011200,新規,0,2021-11-18,2021-11-18,グローリーシールド合同会社,,合同会社,東京都,新宿区,四谷２丁目９番地１５東京ユナイテッド綜合事務所内,,13,104,1600004,,,,,,,2021-11-18,1,,,,,グローリーシールド,0
1582,6011105010051,新規,0,2021-11-18,2021-11-18,グローリーシールド一般社団法人,,その他の設立登記法人,東京都,新宿区,四谷２丁目９番地１５東京ユナイテッド綜合事務所内,,13,104,1600004,,,,,,,2021-11-18,1,,,,,グローリーシールド,0
1597,6011605002416,新規,0,2021-11-18,2021-11-18,ラクイチパートナーズ事業協同組合,,その他の設立登記法人,東京都,練馬区,豊玉上１丁目２０番１号,,13,120,1760011,,,,,,,2021-11-18,1,,,,,ラクイチパートナーズ,0
1607,6012403005115,新規,0,2021-11-18,2021-11-18,合同会社Ｐｒｅｓｅｎｔ,,合同会社,東京都,調布市,上石原３丁目５０番地１調布多摩川ガーデンフォート５１９,,13,208,1820035,,,,,,,2021-11-18,1,,,,,プレゼント,0
1609,6012405004668,新規,0,2021-11-18,2021-11-18,一般社団法人職業教育研究開発推進機構,,その他の設立登記法人,東京都,武蔵野市,吉祥寺本町１丁目３２番２－２０１号吉祥寺サンビルディング,,13,203,1800004,,,,,,,2021-11-18,1,,,,,ショクギョウキョウイクケンキュウカイハツスイシンキコウ,0
1611,6012801021218,新規,0,2021-11-18,2021-11-18,アスジョイン株式会社,,株式会社,東京都,昭島市,東町５丁目１０番２４号,,13,207,1960033,,,,,,,2021-11-18,1,,,,,アスジョイン,0
1613,6013101008772,新規,0,2021-11-18,2021-11-18,Ｍ＆Ｋ　Ｃｏｎｓｕｌｔｉｎｇ株式会社,,株式会社,東京都,福生市,武蔵野台１丁目１９番地８メルベーユ６０５号室,,13,218,1970013,,,,,,,2021-11-18,1,,,,,エムアンドケイコンサルティング,0
1616,6013301048288,新規,0,2021-11-18,2021-11-18,株式会社ルミエール,,株式会社,東京都,豊島区,西池袋５丁目５番２１－１４０３号,,13,116,1710021,,,,,,,2021-11-18,1,,,,,ルミエール,0
1625,6020001143947,新規,0,2021-11-18,2021-11-18,株式会社ＬＩＮＤＡ,,株式会社,神奈川県,横浜市青葉区,荏田町４６３番地１２,,14,117,2250013,,,,,,,2021-11-18,1,,,,,リンダ,0
1626,6020001143971,新規,0,2021-11-18,2021-11-18,株式会社ｒｏｏｔ,,株式会社,神奈川県,川崎市多摩区,登戸３４７０－２－１０１,,14,135,2140014,,,,,,,2021-11-18,1,,,,,ルート,0
1627,6020001143996,新規,0,2021-11-18,2021-11-18,株式会社丸山不動産,,株式会社,神奈川県,横浜市南区,六ツ川２丁目２番地１サウス・スクエア１００横浜・弘明寺２０１号,,14,105,2320066,,,,,,,2021-11-18,1,,,,,,0
1628,6020001144004,新規,0,2021-11-18,2021-11-18,株式会社花の森,,株式会社,神奈川県,横浜市青葉区,寺家町５６８番地２,,14,117,2270031,,,,,,,2021-11-18,1,,,,,ハナノモリ,0
1629,6020001144012,新規,0,2021-11-18,2021-11-18,株式会社あピま,,株式会社,神奈川県,横浜市神奈川区,幸ケ谷１２番地５プラウド横浜幸ケ谷３０７号,,14,102,2210051,,,,,,,2021-11-18,1,,,,,アピマ,0
1635,6020003020830,新規,0,2021-11-18,2021-11-18,合同会社ＳＵＮＮＹ,,合同会社,神奈川県,横浜市都筑区,茅ケ崎南５丁目２番１４－１０１号,,14,118,2240037,,,,,,,2021-11-18,1,,,,,サニー,0
1638,6021001074496,新規,0,2021-11-18,2021-11-18,ジョイン・クリエイティブマネジメント株式会社,,株式会社,神奈川県,平塚市,明石町１４番８号,,14,203,2540042,,,,,,,2021-11-18,1,,,,,ジョインクリエイティブマネジメント,0
1639,6021001074521,新規,0,2021-11-18,2021-11-18,株式会社ＧＭ,,株式会社,神奈川県,秦野市,北矢名５２４番地の５シティ５－１０１号,,14,211,2570006,,,,,,,2021-11-18,1,,,,,ジーエム,0
1640,6021001074538,新規,0,2021-11-18,2021-11-18,株式会社興野ソーシャルサービス,,株式会社,神奈川県,逗子市,新宿４丁目１５番１３号５,,14,208,2490007,,,,,,,2021-11-18,1,,,,,キョウノソーシャルサービス,0
1652,6030001145257,新規,0,2021-11-18,2021-11-18,株式会社テイクオン,,株式会社,埼玉県,加須市,川口１丁目７番地６,,11,210,3470014,,,,,,,2021-11-18,1,,,,,テイクオン,0
1653,6030001145422,新規,0,2021-11-18,2021-11-18,株式会社東月,,株式会社,埼玉県,戸田市,下戸田２丁目１２番２７－３０３号,,11,224,3350011,,,,,,,2021-11-18,1,,,,,トウゲツ,0
1654,6030001145430,新規,0,2021-11-18,2021-11-18,株式会社栄真,,株式会社,埼玉県,草加市,原町２丁目１番２０号,,11,221,3400048,,,,,,,2021-11-18,1,,,,,エイシン,0
1661,6030003018353,新規,0,2021-11-18,2021-11-18,合同会社みまもり,,合同会社,埼玉県,さいたま市大宮区,寿能町１丁目３１番地４－４０２,,11,103,3300805,,,,,,,2021-11-18,1,,,,,ミマモリ,0
1671,6040001121042,新規,0,2021-11-18,2021-11-18,株式会社鍛冶一,,株式会社,千葉県,木更津市,畑沢３丁目１９番３－１号,,12,206,2920825,,,,,,,2021-11-18,1,,,,,カジイチ,0
1672,6040001121059,新規,0,2021-11-18,2021-11-18,株式会社アリース,,株式会社,千葉県,柏市,松ケ崎１１９４番地２４６,,12,217,2770835,,,,,,,2021-11-18,1,,,,,アリース,0
1673,6040003018955,新規,0,2021-11-18,2021-11-18,合同会社フォレスト・コンサル,,合同会社,千葉県,旭市,新町４２６番地１１,,12,215,2892501,,,,,,,2021-11-18,1,,,,,フォレストコンサル,0
1680,6060003003872,新規,0,2021-11-18,2021-11-18,合同会社エンドレスコーポレーション,,合同会社,栃木県,塩谷郡塩谷町,大字田所１９６３番地１８,,09,384,3292331,,,,,,,2021-11-18,1,,,,,エンドレスコーポレーション,0
1689,6080103002459,新規,0,2021-11-18,2021-11-18,合同会社金子商事,,合同会社,静岡県,沼津市,下香貫汐入２２１７番地の２モラーダ汐入３０２号,,22,203,4100822,,,,,,,2021-11-18,1,,,,,カネコショウジ,0
1691,6080403004411,新規,0,2021-11-18,2021-11-18,ＯｎｅＰｏｓｉｔｉｏｎ合同会社,,合同会社,静岡県,掛川市,仁藤町１－１,,22,213,4360075,,,,,,,2021-11-18,1,,,,,ワンポジション,0
1701,6100001034824,新規,0,2021-11-18,2021-11-18,株式会社ダブルオーカンパニー,,株式会社,長野県,飯田市,鼎一色４１０番地,,20,205,3950805,,,,,,,2021-11-18,1,,,,,ダブルオーカンパニー,0
1722,6120001241807,新規,0,2021-11-18,2021-11-18,株式会社スタイルハウジング,,株式会社,大阪府,大阪市中央区,島之内２丁目４番２２－３０１号,,27,128,5420082,,,,,,,2021-11-18,1,,,,,スタイルハウジング,0
1723,6120001241897,新規,0,2021-11-18,2021-11-18,株式会社ａｍｕｅ,,株式会社,大阪府,大阪市中央区,玉造２丁目１５－５－１１０１,,27,128,5400004,,,,,,,2021-11-18,1,,,,,アミュー,0
1724,6120001241939,新規,0,2021-11-18,2021-11-18,日本マッサージ師支援協会株式会社,,株式会社,大阪府,大阪市中央区,南船場２丁目５番２４号,,27,128,5420081,,,,,,,2021-11-18,1,,,,,ニホンマッサージシシエンキョウカイ,0
1725,6120001241947,新規,0,2021-11-18,2021-11-18,ＳＲＥＡＬ　ＧＬＯＢＡＬ株式会社,,株式会社,大阪府,大阪市中央区,南船場２丁目８番１１号シナプス心斎橋ビル,,27,128,5420081,,,,,,,2021-11-18,1,,,,,エスリアルグローバル,0
1726,6120001241971,新規,0,2021-11-18,2021-11-18,ｚｅｔｔａ株式会社,,株式会社,大阪府,大阪市東淀川区,東中島１丁目２０番１２－８１３号,,27,114,5330033,,,,,,,2021-11-18,1,,,,,ゼッタ,0
1730,6120003020622,新規,0,2021-11-18,2021-11-18,メルカトゥーライワサキ合同会社,,合同会社,大阪府,交野市,郡津１丁目１５番１２号,,27,230,5760053,,,,,,,2021-11-18,1,,,,,メルカトゥーライワサキ,0
1733,6120101064678,新規,0,2021-11-18,2021-11-18,株式会社ＢＮＢ　ＪＡＰＡＮ,,株式会社,大阪府,堺市堺区,竜神橋町２丁３番１－２２０号,,27,141,5900972,,,,,,,2021-11-18,1,,,,,ビーエヌビージャパン,0
1734,6120901045209,新規,0,2021-11-18,2021-11-18,株式会社岳探ｅギルド,,株式会社,大阪府,豊中市,新千里北町２丁目４０ジオ千里中央Ｂ－１５０７,,27,203,5600081,,,,,,,2021-11-18,1,,,,,ガクタンイーギルド,0
1735,6120901045225,新規,0,2021-11-18,2021-11-18,株式会社凰ファーム,,株式会社,大阪府,豊能郡能勢町,地黄１０６２番地,,27,322,5630121,,,,,,,2021-11-18,1,,,,,オオトリファーム,0
1753,6140001123862,新規,0,2021-11-18,2021-11-18,株式会社Ｂ’ｋｉｎｄ,,株式会社,兵庫県,姫路市,下手野４丁目１４番２号,,28,201,6700063,,,,,,,2021-11-18,1,,,,,ビーカインド,0
1754,6140001123912,新規,0,2021-11-18,2021-11-18,株式会社ＳＹ’ｓＤ,,株式会社,兵庫県,川西市,見野２丁目１４番１１号サンライズ明研Ｖ,00124911,28,217,6660105,,,,,,,2021-11-18,1,,,,,サイズディー,0
1771,6180001148740,新規,0,2021-11-18,2021-11-18,株式会社成京,,株式会社,愛知県,春日井市,御幸町２丁目７番地１９,,23,206,4860953,,,,,,,2021-11-18,1,,,,,セイキン,0
1772,6180001148765,新規,0,2021-11-18,2021-11-18,株式会社Ｆｒｅｕｄｅ,,株式会社,愛知県,江南市,五明町当光地１８４番地,,23,217,4838249,,,,,,,2021-11-18,1,,,,,フロイデ,0
1773,6180001148773,新規,0,2021-11-18,2021-11-18,株式会社ｂｒｉｄｇｅ　ｂｕｉｌｄ,,株式会社,愛知県,一宮市,天王３丁目５番８号,,23,203,4910046,,,,,,,2021-11-18,1,,,,,ブリッジビルド,0
1774,6180001148781,新規,0,2021-11-18,2021-11-18,株式会社Ｍｉｚｏｂａｔａ　Ｂｕｉｌｄ,,株式会社,愛知県,名古屋市守山区,大字上志段味字稲堀田新田１９２２番地,,23,113,4630001,,,,,,,2021-11-18,1,,,,,ミゾバタビルド,0
1775,6180001148807,新規,0,2021-11-18,2021-11-18,株式会社Ｍ’ｓ　ＦＡＭＩＬＹ,,株式会社,愛知県,名古屋市守山区,大字上志段味字上島７３１エムズファミリーヴィレッジＢ１,,23,113,4630001,,,,,,,2021-11-18,1,,,,,エムズファミリー,0
1779,6180003023198,新規,0,2021-11-18,2021-11-18,合同会社ほまれグループ,,合同会社,愛知県,名古屋市緑区,浦里１丁目８５番地の２,,23,114,4580847,,,,,,,2021-11-18,1,,,,,ホマレグループ,0
1780,6180003023215,新規,0,2021-11-18,2021-11-18,合同会社モンテベルーナ,,合同会社,愛知県,名古屋市千種区,本山町４丁目２８番地,,23,101,4640036,,,,,,,2021-11-18,1,,,,,モンテベルーナ,0
1792,6230001019102,新規,0,2021-11-18,2021-11-18,イゾラ株式会社,,株式会社,富山県,高岡市,十二町島１８３番地,,16,202,9330822,,,,,,,2021-11-18,1,,,,,イゾラ,0
1799,6240003005371,新規,0,2021-11-18,2021-11-18,まつかさ合同会社,,合同会社,広島県,広島市安佐北区,口田南１丁目２２番７－４号,,34,106,7391733,,,,,,,2021-11-18,1,,,,,マツカサ,0
1818,6290001095410,新規,0,2021-11-18,2021-11-18,株式会社ＭＡＲＵＫＡ,,株式会社,福岡県,福岡市中央区,赤坂３丁目１１番４１号,,40,133,8100042,,,,,,,2021-11-18,1,,,,,マルカ,0
1819,6290001095435,新規,0,2021-11-18,2021-11-18,株式会社ＴＫ‐ｇｒｏｗｔｈ,,株式会社,福岡県,福岡市博多区,吉塚１丁目３８番３３号,,40,132,8120041,,,,,,,2021-11-18,1,,,,,ティーケーグロース,0
1820,6290001095443,新規,0,2021-11-18,2021-11-18,株式会社すさのお,,株式会社,福岡県,福岡市中央区,舞鶴３丁目８番１９－５０３号,,40,133,8100073,,,,,,,2021-11-18,1,,,,,スサノオ,0
1821,6290001095468,新規,0,2021-11-18,2021-11-18,株式会社Ｇｏｏｄｇｏｏｄｓ,,株式会社,福岡県,福岡市博多区,東比恵２丁目１７－２３ローズマンション第一博多９１２号室,,40,132,8120007,,,,,,,2021-11-18,1,,,,,グットグッズ,0
1825,6290003011844,新規,0,2021-11-18,2021-11-18,ラチェット合同会社,,合同会社,福岡県,福岡市中央区,舞鶴３丁目２番３１‐４０３号,,40,133,8100073,,,,,,,2021-11-18,1,,,,,ラチェット,0
1826,6290003011852,新規,0,2021-11-18,2021-11-18,ＫＭオフィス合同会社,,合同会社,福岡県,福岡市博多区,博多駅前３丁目１２番３－２階Ａ号,,40,132,8120011,,,,,,,2021-11-18,1,,,,,ケイエムオフィス,0
1830,6300001012710,新規,0,2021-11-18,2021-11-18,株式会社想,,株式会社,佐賀県,佐賀市,中央本町１０番４－１号ＮＡＳＡビル２Ｆ,,41,201,8400825,,,,,,,2021-11-18,1,,,,,ソウ,0
1841,6330001029207,新規,0,2021-11-18,2021-11-18,ネクストライド株式会社,,株式会社,熊本県,熊本市東区,御領８丁目８番６２号,,43,102,8618035,,,,,,,2021-11-18,1,,,,,ネクストライド,0
1846,6360003011556,新規,0,2021-11-18,2021-11-18,合同会社真志喜サービス,,合同会社,沖縄県,宜野湾市,我如古３丁目１５番１２－３０６号,,47,205,9012214,,,,,,,2021-11-18,1,,,,,マシキサービス,0
1847,6360003011572,新規,0,2021-11-18,2021-11-18,林重機合同会社,,合同会社,沖縄県,名護市,宇茂佐の森２丁目６番９,,47,209,9050009,,,,,,,2021-11-18,1,,,,,ハヤシジュウキ,0
1849,6370001047849,新規,0,2021-11-18,2021-11-18,株式会社ＧＭＧ,,株式会社,宮城県,亘理郡亘理町,長瀞字西谷地６－７,,04,361,9892341,,,,,,,2021-11-18,1,,,,,,0
1857,6430001085405,新規,0,2021-11-18,2021-11-18,アドルブマネージメントサービス株式会社,,株式会社,北海道,勇払郡厚真町,京町１番地,,01,581,0591601,,,,,,,2021-11-18,1,,,,,アドルブマネージメントサービス,0
1858,6430001085413,新規,0,2021-11-18,2021-11-18,株式会社ミスターバウム,,株式会社,北海道,札幌市中央区,南四条東４丁目１番地４,,01,101,0600054,,,,,,,2021-11-18,1,,,,,ミスターバウム,0
1864,6470001018831,新規,0,2021-11-18,2021-11-18,株式会社つなぐ不動産,,株式会社,香川県,高松市,木太町１８２９番地５,,37,201,7600080,,,,,,,2021-11-18,1,,,,,ツナグフドウサン,0
1870,7010001222627,新規,0,2021-11-18,2021-11-18,株式会社ＳｈａｗｎＫ,,株式会社,東京都,文京区,湯島２丁目２番１６号御茶ノ水クロスビル５階,,13,105,1130034,,,,,,,2021-11-18,1,,,,,ショーンケー,0
1871,7010001222676,新規,0,2021-11-18,2021-11-18,株式会社ＣＬＩＰ第２２０号,,株式会社,東京都,千代田区,丸の内２丁目７番２号,,13,101,1000005,,,,,,,2021-11-18,1,,,,,シーエルアイピーダイニヒャクニジュウゴウ,0
1872,7010001222692,新規,0,2021-11-18,2021-11-18,株式会社ＳＨＩＰ第２４５号,,株式会社,東京都,千代田区,丸の内２丁目７番２号,,13,101,1000005,,,,,,,2021-11-18,1,,,,,エスエイチアイピーダイニヒャクヨンジュウゴゴウ,0
1873,7010001222701,新規,0,2021-11-18,2021-11-18,株式会社ＳＨＩＰ第２５４号,,株式会社,東京都,千代田区,丸の内２丁目７番２号,,13,101,1000005,,,,,,,2021-11-18,1,,,,,エスエイチアイピーダイニヒャクゴジュウヨンゴウ,0
1874,7010001222718,新規,0,2021-11-18,2021-11-18,株式会社ＭＳＲ,,株式会社,東京都,千代田区,神田駿河台３丁目１－７烏山お茶の水ビル６Ｆ,,13,101,1010062,,,,,,,2021-11-18,1,,,,,エムエスアール,0
1877,7010003036331,新規,0,2021-11-18,2021-11-18,合同会社ＦＫ,,合同会社,東京都,千代田区,丸の内３丁目１番１号東京共同会計事務所内,,13,101,1000005,,,,,,,2021-11-18,1,,,,,エフケー,0
1885,7010401163925,新規,0,2021-11-18,2021-11-18,株式会社ＷＭプロモーション,,株式会社,東京都,港区,北青山２丁目１２番８号,,13,103,1070061,,,,,,,2021-11-18,1,,,,,ダブリューエムプロモーション,0
1889,7010405020404,新規,0,2021-11-18,2021-11-18,一般財団法人海外ＮＧＯ支援財団,,その他の設立登記法人,東京都,港区,高輪１丁目２６番２０号,,13,103,1080074,,,,,,,2021-11-18,1,,,,,カイガイエヌジーオーシエンザイダン,0
1901,7010601060237,新規,0,2021-11-18,2021-11-18,株式会社しっくい専科,,株式会社,東京都,墨田区,業平１丁目１８番５号,,13,107,1300002,,,,,,,2021-11-18,1,,,,,シックイセンカ,0
1902,7010601060253,新規,0,2021-11-18,2021-11-18,株式会社Ｅｕｆｏｒｉａ,,株式会社,東京都,江東区,有明１丁目４番２０－２９３４号,,13,108,1350063,,,,,,,2021-11-18,1,,,,,ユーフォリア,0
1916,7010801032498,新規,0,2021-11-18,2021-11-18,株式会社一番星,,株式会社,東京都,大田区,大森北３丁目２０番１０号,,13,111,1430016,,,,,,,2021-11-18,1,,,,,イチバンボシ,0
1928,7011001144027,新規,0,2021-11-18,2021-11-18,株式会社ＮＯＥＵＤ,,株式会社,東京都,渋谷区,富ヶ谷２丁目１４－６伸和ビル１０１,,13,113,1510063,,,,,,,2021-11-18,1,,,,,ヌゥ,0
1929,7011001144076,新規,0,2021-11-18,2021-11-18,Ｋｉｎｄｌｅ株式会社,,株式会社,東京都,渋谷区,恵比寿南１丁目２番８号雨宮ビル５階,,13,113,1500022,,,,,,,2021-11-18,1,,,,,キンドル,0
1933,7011101096928,新規,0,2021-11-18,2021-11-18,株式会社Ｆｏｏｄ　Ｂａｎｋ,,株式会社,東京都,新宿区,新宿１丁目２４番７－１３１７号,,13,104,1600022,,,,,,,2021-11-18,1,,,,,,0
1934,7011101096936,新規,0,2021-11-18,2021-11-18,株式会社ｓｅｒｏｉ,,株式会社,東京都,新宿区,大久保２丁目１番８号プラザ新大樹ビル,,13,104,1690072,,,,,,,2021-11-18,1,,,,,セロイ,0
1935,7011101096944,新規,0,2021-11-18,2021-11-18,株式会社ＴＫＭ,,株式会社,東京都,新宿区,西落合２丁目１２番４－３１０号,,13,104,1610031,,,,,,,2021-11-18,1,,,,,ティーケーエム,0
1937,7011105010050,新規,0,2021-11-18,2021-11-18,一般社団法人基山ロジインベストメント,,その他の設立登記法人,東京都,新宿区,四谷２丁目９番地１５東京ユナイテッド綜合事務所内,,13,104,1600004,,,,,,,2021-11-18,1,,,,,キヤマロジインベストメント,0
1938,7011201023427,新規,0,2021-11-18,2021-11-18,株式会社Ｓｐｒｉｎｇ　Ｐｒｏｐｅｒｔｙ,,株式会社,東京都,中野区,新井５丁目６番８号,,13,114,1650026,,,,,,,2021-11-18,1,,,,,スプリングプロパティ,0
1951,7012401038529,新規,0,2021-11-18,2021-11-18,株式会社ＭＳ－Ｐｌａｎｎｉｎｇ,,株式会社,東京都,府中市,分梅町１丁目１２－１,,13,206,1830033,,,,,,,2021-11-18,1,,,,,エムエスプランニング,0
1954,7013301048287,新規,0,2021-11-18,2021-11-18,株式会社火花,,株式会社,東京都,豊島区,南池袋１丁目９番１８－２０５号,,13,116,1710022,,,,,,,2021-11-18,1,,,,,ヒバナ,0
1955,7013303005914,新規,0,2021-11-18,2021-11-18,メディカルグリーンライフ合同会社,,合同会社,東京都,豊島区,南大塚３丁目３８番６－６０４号,,13,116,1700005,,,,,,,2021-11-18,1,,,,,メディカルグリーンライフ,0
1965,7020001143979,新規,0,2021-11-18,2021-11-18,株式会社ウエストグッドワン,,株式会社,神奈川県,横浜市西区,東久保町１４番３号,,14,103,2200062,,,,,,,2021-11-18,1,,,,,ウエストグッドワン,0
1966,7020001143987,新規,0,2021-11-18,2021-11-18,株式会社小原塗装工業,,株式会社,神奈川県,横浜市磯子区,洋光台６丁目１７番４３号,,14,107,2350045,,,,,,,2021-11-18,1,,,,,コハラトソウコウギョウ,0
1967,7020001143995,新規,0,2021-11-18,2021-11-18,株式会社泉作業,,株式会社,神奈川県,川崎市川崎区,扇町２番５号,,14,131,2100867,,,,,,,2021-11-18,1,,,,,イズミサギョウ,0
1971,7020003020846,新規,0,2021-11-18,2021-11-18,合同会社トータルクリーン,,合同会社,神奈川県,川崎市高津区,下野毛１丁目８－１５アプリルハオス１０２,,14,134,2130006,,,,,,,2021-11-18,1,,,,,トータルクリーン,0
1975,7021001074454,新規,0,2021-11-18,2021-11-18,株式会社ウエストオート,,株式会社,神奈川県,相模原市南区,当麻８７８番地３,,14,153,2520336,,,,,,,2021-11-18,1,,,,,ウエストオート,0
1976,7021001074520,新規,0,2021-11-18,2021-11-18,株式会社Ｅ－ＳＴＹＬＥ,,株式会社,神奈川県,大和市,深見東１丁目６番３１号,,14,213,2420012,,,,,,,2021-11-18,1,,,,,イースタイル,0
1979,7021003011109,新規,0,2021-11-18,2021-11-18,合同会社問題解決,,合同会社,神奈川県,横須賀市,若松町３丁目１３番地,,14,201,2380007,,,,,,,2021-11-18,1,,,,,モンダイカイケツ,0
1990,7030003018344,新規,0,2021-11-18,2021-11-18,合同会社ムゲン,,合同会社,埼玉県,草加市,中根３丁目２３－１３第三森久ビル２０１号,,11,221,3400005,,,,,,,2021-11-18,1,,,,,ムゲン,0
1995,7040001121009,新規,0,2021-11-18,2021-11-18,株式会社リンク,,株式会社,千葉県,成田市,東町１５５番地３,,12,211,2860025,,,,,,,2021-11-18,1,,,,,リンク,0
2002,7040005021428,新規,0,2021-11-18,2021-11-18,一般社団法人ＥＤＵＣＡＴＩＯＮＡＬ　ＳＵＰＰＯＲＴ,,その他の設立登記法人,千葉県,流山市,大字西深井８２５番地,,12,220,2700107,,,,,,,2021-11-18,1,,,,,エデュケーショナルサポート,0
2004,7050003006198,新規,0,2021-11-18,2021-11-18,合同会社Ｋ．Ｚ,,合同会社,茨城県,下妻市,高道祖４３２３番地,,08,210,3040031,,,,,,,2021-11-18,1,,,,,ケーゼット,0
2005,7060003003871,新規,0,2021-11-18,2021-11-18,合同会社ＯＨＡＮＡ,,合同会社,栃木県,佐野市,犬伏新町１３５３番地１２,,09,204,3270803,,,,,,,2021-11-18,1,,,,,オハナ,0
2006,7060005009925,新規,0,2021-11-18,2021-11-18,特定非営利活動法人クラブサンク,,その他の設立登記法人,栃木県,宇都宮市,陽東２丁目１６番３６号,,09,201,3210904,,,,,,,2021-11-18,1,,,,,クラブサンク,0
2013,7070003004299,新規,0,2021-11-18,2021-11-18,ＫＥＮＴＡ　ＴＲＡＤＩＮＧ合同会社,,合同会社,群馬県,みどり市,東町花輪５３６番地,,10,212,3760307,,,,,,,2021-11-18,1,,,,,ケンタトレーディング,0
2017,7090001017284,新規,0,2021-11-18,2021-11-18,ＭＹＵＴＴＹ株式会社,,株式会社,山梨県,南アルプス市,小笠原１３９９番地３,,19,208,4000306,,,,,,,2021-11-18,1,,,,,ミュッティー,0
2040,7120001241855,新規,0,2021-11-18,2021-11-18,株式会社ライル,,株式会社,大阪府,大阪市中央区,森ノ宮中央２丁目７番２０号,,27,128,5400003,,,,,,,2021-11-18,1,,,,,ライル,0
2041,7120001241938,新規,0,2021-11-18,2021-11-18,株式会社キャリアＧ,,株式会社,大阪府,大阪市北区,豊崎３丁目６－１１エイトビル,,27,127,5310072,,,,,,,2021-11-18,1,,,,,キャリアジー,0
2042,7120001241946,新規,0,2021-11-18,2021-11-18,クスノキ商事株式会社,,株式会社,大阪府,大阪市北区,長柄西１丁目１番１３号－３０２,,27,127,5310061,,,,,,,2021-11-18,1,,,,,クスノキショウジ,0
2047,7120101064669,新規,0,2021-11-18,2021-11-18,株式会社ＨＯＬＯ,,株式会社,大阪府,和泉市,納花町９０番地の１,,27,219,5941116,,,,,,,2021-11-18,1,,,,,ホロ,0
2051,7120901045208,新規,0,2021-11-18,2021-11-18,株式会社ＬＨ,,株式会社,大阪府,箕面市,船場西２丁目７番５－２０１号,,27,220,5620036,,,,,,,2021-11-18,1,,,,,エルエイチ,0
2059,7140001123886,新規,0,2021-11-18,2021-11-18,株式会社ＮＥＭ　ＣＯＭＰＡＮＹ,,株式会社,兵庫県,神戸市中央区,琴ノ緒町２丁目２－７上田ビル４階,,28,110,6510094,,,,,,,2021-11-18,1,,,,,ネムカンパニー,0
2060,7140001123928,新規,0,2021-11-18,2021-11-18,株式会社Ｔ＆Ｔ　ＳＩＮＱＵ,,株式会社,兵庫県,神戸市兵庫区,芦原通６丁目１－２７－１,,28,105,6520882,,,,,,,2021-11-18,1,,,,,ティーアンドティーシンク,0
2078,7180001148772,新規,0,2021-11-18,2021-11-18,株式会社ＣＡＬＹＰＳＯ,,株式会社,愛知県,名古屋市昭和区,広路町字石坂４１番地の２,,23,107,4660834,,,,,,,2021-11-18,1,,,,,カリプソ,0
2079,7180001148806,新規,0,2021-11-18,2021-11-18,株式会社Ｔｏｎｙ’ｔｈ,,株式会社,愛知県,一宮市,大和町妙興寺字北浦宮地２８４５番地コージーパティオＳ２０２号,,23,203,4910922,,,,,,,2021-11-18,1,,,,,トニーズ,0
2080,7180001148814,新規,0,2021-11-18,2021-11-18,株式会社ＮＯＯＯＤＬＥ,,株式会社,愛知県,日進市,香久山４丁目２０１番地１３（１０５棟２０１）,,23,230,4700134,,,,,,,2021-11-18,1,,,,,ヌードル,0
2081,7180001148822,新規,0,2021-11-18,2021-11-18,株式会社Ｕｐｓｔａｒｔ,,株式会社,愛知県,名古屋市西区,中小田井５丁目４３３番地,,23,104,4520822,,,,,,,2021-11-18,1,,,,,アップスタート,0
2087,7180003023214,新規,0,2021-11-18,2021-11-18,Ｋ．１７４合同会社,,合同会社,愛知県,春日井市,上田楽町２５７８番地８３,,23,206,4860801,,,,,,,2021-11-18,1,,,,,ケードットイチナナヨン,0
2099,7220001024548,新規,0,2021-11-18,2021-11-18,株式会社阿戸建設,,株式会社,石川県,小松市,島町イ７１番地,,17,203,9230303,,,,,,,2021-11-18,1,,,,,アドケンセツ,0
2101,7230001019101,新規,0,2021-11-18,2021-11-18,株式会社にじ不動産,,株式会社,富山県,射水市,中太閤山１３丁目２番地４,,16,211,9390363,,,,,,,2021-11-18,1,,,,,ニジフドウサン,0
2109,7290001095450,新規,0,2021-11-18,2021-11-18,株式会社トラスト８１２,,株式会社,福岡県,福岡市城南区,南片江３丁目７番１８号,,40,136,8140143,,,,,,,2021-11-18,1,,,,,トラストハチイチニ,0
2110,7290001095459,新規,0,2021-11-18,2021-11-18,株式会社住宅改修工房ＭＡＮＫＡＩカンパニー,,株式会社,福岡県,宗像市,自由ヶ丘南３丁目３番地８,,40,220,8114156,,,,,,,2021-11-18,1,,,,,ジュウタクカイシュウコウボウマンカイカンパニー,0
2111,7290001095475,新規,0,2021-11-18,2021-11-18,株式会社石橋住建,,株式会社,福岡県,福岡市城南区,南片江５丁目１８番１０号,,40,136,8140143,,,,,,,2021-11-18,1,,,,,イシバシジュウケン,0
2120,7360001029649,新規,0,2021-11-18,2021-11-18,Ｏｓｇｉ　Ｓｔｕｄｉｏ株式会社,,株式会社,沖縄県,那覇市,松川３丁目１８番３５号ｆｌａｔｓ松川２０５室,,47,201,9020062,,,,,,,2021-11-18,1,,,,,オスギスタジオ,0
2141,7430003013313,新規,0,2021-11-18,2021-11-18,合同会社３１０,,合同会社,北海道,札幌市豊平区,平岸七条１７丁目２－１９,,01,105,0620937,,,,,,,2021-11-18,1,,,,,サト,0
2142,7430003013370,新規,0,2021-11-18,2021-11-18,合同会社デゼル,,合同会社,北海道,札幌市中央区,北五条西１０丁目３番地１,,01,101,0600005,,,,,,,2021-11-18,1,,,,,デゼル,0
2152,7700150105868,新規,0,2021-11-18,2021-11-18,地縁法人　小砂川自治会,,その他,秋田県,にかほ市,象潟町小砂川字中磯４７－１,,05,214,0180143,,,,,,,2021-11-18,1,,,,,チエンホウジンコサガワジチカイ,0
2153,7700150105876,新規,0,2021-11-18,2021-11-18,亡三田俊雄,,その他,東京都,世田谷区,深沢２丁目３－５,,13,112,1580081,,,,,,,2021-11-18,1,,,,,ボウミタトシオ,0
2160,8010001222543,新規,0,2021-11-18,2021-11-18,株式会社三線の豚,,株式会社,東京都,中央区,勝どき６丁目３番１－３４０５号,,13,102,1040054,,,,,,,2021-11-18,1,,,,,サンシンノブタ,0
2161,8010001222584,新規,0,2021-11-18,2021-11-18,株式会社ＬＩＬ,,株式会社,東京都,千代田区,神田佐久間町１丁目１４番地第二東ビル,,13,101,1010025,,,,,,,2021-11-18,1,,,,,リル,0
2162,8010001222650,新規,0,2021-11-18,2021-11-18,株式会社ソルシオ,,株式会社,東京都,千代田区,神田佐久間河岸５５号地朝風染常共同ビル２階,,13,101,1010026,,,,,,,2021-11-18,1,,,,,ソルシオ,0
2163,8010001222675,新規,0,2021-11-18,2021-11-18,株式会社ＣＬＩＰ第２１９号,,株式会社,東京都,千代田区,丸の内２丁目７番２号,,13,101,1000005,,,,,,,2021-11-18,1,,,,,シーエルアイピーダイニヒャクジュウキュウゴウ,0
2164,8010001222691,新規,0,2021-11-18,2021-11-18,株式会社ＳＨＩＰ第２４４号,,株式会社,東京都,千代田区,丸の内２丁目７番２号,,13,101,1000005,,,,,,,2021-11-18,1,,,,,エスエイチアイピーダイニヒャクヨンジュウヨンゴウ,0
2165,8010001222700,新規,0,2021-11-18,2021-11-18,株式会社ＳＨＩＰ第２５３号,,株式会社,東京都,千代田区,丸の内２丁目７番２号,,13,101,1000005,,,,,,,2021-11-18,1,,,,,エスエイチアイピーダイニヒャクゴジュウサンゴウ,0
2166,8010001222709,新規,0,2021-11-18,2021-11-18,株式会社ＧｉｖｅｒＤｅｓｉｇｎ,,株式会社,東京都,千代田区,九段南１丁目５番６号りそな九段ビル５階ＫＳフロア,,13,101,1020074,,,,,,,2021-11-18,1,,,,,ギバーデザイン,0
2168,8010003036339,新規,0,2021-11-18,2021-11-18,合同会社ＡＴＮ,,合同会社,東京都,千代田区,一ツ橋２丁目６番３号アクシスインベストメントアドバイザーズ株式会社内,,13,101,1010003,,,,,,,2021-11-18,1,,,,,エイティーエヌ,0
2169,8010003036347,新規,0,2021-11-18,2021-11-18,Ｘ－Ｅｌｉｏ２４合同会社,,合同会社,東京都,中央区,銀座４丁目１４番１１号七十七銀座ビル８階,,13,102,1040061,,,,,,,2021-11-18,1,,,,,エクセリオトゥエンティーフォー,0
2177,8010401163882,新規,0,2021-11-18,2021-11-18,株式会社Ｄ１ディーワン,,株式会社,東京都,港区,南青山２丁目２番１５号ウィン青山９４２,,13,103,1070062,,,,,,,2021-11-18,1,,,,,ディーワンディーワン,0
2178,8010403026550,新規,0,2021-11-18,2021-11-18,門左衛門合同会社,,合同会社,東京都,港区,赤坂１丁目７番１号,,13,103,1070052,,,,,,,2021-11-18,1,,,,,モンザエモン,0
2186,8010601060228,新規,0,2021-11-18,2021-11-18,山鉄株式会社,,株式会社,東京都,江東区,青海２丁目７番４号ｔｈｅＳＯＨＯ８０８,,13,108,1350064,,,,,,,2021-11-18,1,,,,,ヤマテツ,0
2191,8010603009256,新規,0,2021-11-18,2021-11-18,Ｃａｓｓ　Ｊａｐａｎ合同会社,,合同会社,東京都,江東区,有明３丁目７番２６号有明フロンティアビルＢ棟９階,,13,108,1350063,,,,,,,2021-11-18,1,,,,,キャスジャパン,0
2201,8010901049821,新規,0,2021-11-18,2021-11-18,ｃｏｃｏｎｅ　ａｓｓｅｔ株式会社,,株式会社,東京都,世田谷区,若林３丁目１番１８号,,13,112,1540023,,,,,,,2021-11-18,1,,,,,ココネアセット,0
2205,8011001144067,新規,0,2021-11-18,2021-11-18,株式会社ワンアーカー,,株式会社,東京都,渋谷区,代々木３丁目６番４号,,13,113,1510053,,,,,,,2021-11-18,1,,,,,ワンアーカー,0
2210,8011101096943,新規,0,2021-11-18,2021-11-18,株式会社Ｇ－Ｅｎｂａ,,株式会社,東京都,新宿区,西新宿３丁目３番１３号西新宿水間ビル６Ｆ,,13,104,1600023,,,,,,,2021-11-18,1,,,,,ジーエンバ,0
2237,8012301012772,新規,0,2021-11-18,2021-11-18,株式会社クランカーズ,,株式会社,東京都,町田市,野津田町２２５２番地１,,13,209,1950063,,,,,,,2021-11-18,1,,,,,クランカーズ,0
2238,8012303001617,新規,0,2021-11-18,2021-11-18,ラクーンワークス合同会社,,合同会社,東京都,町田市,根岸町１００８番地１３,,13,209,1940034,,,,,,,2021-11-18,1,,,,,ラクーンワークス,0
2244,8013301048278,新規,0,2021-11-18,2021-11-18,ｋｂ保障サービス株式会社,,株式会社,東京都,豊島区,西池袋５丁目１７番１１号ルート西池袋ビル３Ｆ,,13,116,1710021,,,,,,,2021-11-18,1,,,,,ケービーホショウサービス,0
2245,8013303005913,新規,0,2021-11-18,2021-11-18,合同会社ゐのうゑ企画,,合同会社,東京都,豊島区,南池袋１丁目９番１８号,,13,116,1710022,,,,,,,2021-11-18,1,,,,,イノウエキカク,0
2253,8020001143978,新規,0,2021-11-18,2021-11-18,プロダクトラボ株式会社,,株式会社,神奈川県,横浜市神奈川区,金港町１番地１１－１９０９号,,14,102,2210056,,,,,,,2021-11-18,1,,,,,プロダクトラボ,0
2254,8020001143986,新規,0,2021-11-18,2021-11-18,株式会社しまろぜ,,株式会社,神奈川県,横浜市西区,西平沼町１番３２－２０１号,,14,103,2200024,,,,,,,2021-11-18,1,,,,,シマロゼ,0
2255,8020001143994,新規,0,2021-11-18,2021-11-18,株式会社日本経済ドットコム,,株式会社,神奈川県,横浜市青葉区,市ケ尾町１０５６番地３グリーンヒル市ヶ尾２０２号室,,14,117,2250024,,,,,,,2021-11-18,1,,,,,ニホンケイザイドットコム,0
2261,8021001074544,新規,0,2021-11-18,2021-11-18,ＡＣＨＲＯＭＥ株式会社,,株式会社,神奈川県,座間市,栗原中央５丁目２９番３号フレスクーラ２０２号,,14,216,2520014,,,,,,,2021-11-18,1,,,,,アクロム,0
2268,8030001145412,新規,0,2021-11-18,2021-11-18,本橋株式会社,,株式会社,埼玉県,和光市,本町１１番１３号,,11,229,3510114,,,,,,,2021-11-18,1,,,,,モトハシ,0
2269,8030001145437,新規,0,2021-11-18,2021-11-18,株式会社孝邑,,株式会社,埼玉県,さいたま市南区,内谷１丁目１１番６－１１号,,11,108,3360034,,,,,,,2021-11-18,1,,,,,タカムラ,0
2288,8040001121016,新規,0,2021-11-18,2021-11-18,株式会社ｃｏｎｎｅｃｔ,,株式会社,千葉県,習志野市,津田沼３丁目２２番１１号ウェルズ２１津田沼パート６－Ｂ号室,,12,216,2750016,,,,,,,2021-11-18,1,,,,,コネクト,0
2289,8040001121024,新規,0,2021-11-18,2021-11-18,株式会社フィガーレサポート,,株式会社,千葉県,佐倉市,西志津５丁目５番３５号,,12,212,2850845,,,,,,,2021-11-18,1,,,,,フィガーレサポート,0
2296,8050001050164,新規,0,2021-11-18,2021-11-18,株式会社ＤＥＷ　ＬＡＮＫＡ　ＥＮＴＥＲＰＲＩＳＥＳ,,株式会社,茨城県,坂東市,神田山新田３２０番地,,08,228,3060611,,,,,,,2021-11-18,1,,,,,ディウランカエンタープライサス,0
2297,8050001050172,新規,0,2021-11-18,2021-11-18,ＡＣＣ．ＴＲＡＤＩＮＧ株式会社,,株式会社,茨城県,古河市,東山田２９４４番１１２,,08,204,3060112,,,,,,,2021-11-18,1,,,,,エーシーシートレーディング,0
2299,8060003003870,新規,0,2021-11-18,2021-11-18,Ｆｒｅｅｆａｌｌ　Ｗａｒｒｉｏｒｓ合同会社,,合同会社,栃木県,栃木市,岩舟町畳岡２７１番地１１,,09,203,3294309,,,,,,,2021-11-18,1,,,,,フリーフォールウォリアーズ,0
2300,8060005009924,新規,0,2021-11-18,2021-11-18,一般社団法人からりこ舎,,その他の設立登記法人,栃木県,足利市,巴町２５３８番地,,09,202,3260805,,,,,,,2021-11-18,1,,,,,カラリコシャ,0
2301,8070001038653,新規,0,2021-11-18,2021-11-18,株式会社赤城ラジオテレビ商会,,株式会社,群馬県,前橋市,住吉町２丁目１２番８号,,10,201,3710021,,,,,,,2021-11-18,1,,,,,アカギラジオテレビショウカイ,0
2311,8100001034822,新規,0,2021-11-18,2021-11-18,アライズ株式会社,,株式会社,長野県,松本市,大字水汲５２番地１,,20,202,3900311,,,,,,,2021-11-18,1,,,,,アライズ,0
2318,8110001036198,新規,0,2021-11-18,2021-11-18,株式会社宝珠,,株式会社,新潟県,長岡市,大口字居掛１２３８番１,,15,202,9540145,,,,,,,2021-11-18,1,,,,,ホウジュ,0
2319,8110005016733,新規,0,2021-11-18,2021-11-18,一般財団法人高波龍風記念財団,00124897,その他の設立登記法人,新潟県,三条市,五明１９０番地,,15,204,9550821,,,,,,,2021-11-18,1,,,,,タカナミリュウフウキネンザイダン,0
2332,8120001241904,新規,0,2021-11-18,2021-11-18,Ｉ　ＴＲＮＳＩＡ株式会社,,株式会社,大阪府,守口市,佐太東町２丁目１番１４号ＲＥＩＳＥＨＯＢＢＹ４号室,,27,209,5700017,,,,,,,2021-11-18,1,,,,,アイトランシア,0
2333,8120001241937,新規,0,2021-11-18,2021-11-18,株式会社モチツモタレツ,,株式会社,大阪府,大阪市住吉区,大領５丁目３番４－２０３号,,27,120,5580001,,,,,,,2021-11-18,1,,,,,モチツモタレツ,0
2334,8120001241978,新規,0,2021-11-18,2021-11-18,ＮＳ株式会社,,株式会社,大阪府,大阪市中央区,内本町２丁目２－１４－９０３,,27,128,5400026,,,,,,,2021-11-18,1,,,,,エヌエス,0
2340,8120101064668,新規,0,2021-11-18,2021-11-18,株式会社山勝,,株式会社,大阪府,泉大津市,菅原町７番１６号深野ビル３階,,27,206,5950066,,,,,,,2021-11-18,1,,,,,ヤマカツ,0
2341,8120101064676,新規,0,2021-11-18,2021-11-18,ＦＵＣＨＳＩＡ株式会社,,株式会社,大阪府,泉大津市,二田町１丁目２０番１２号,,27,206,5950015,,,,,,,2021-11-18,1,,,,,フクシア,0
2345,8130001070559,新規,0,2021-11-18,2021-11-18,株式会社ｂｅシェアリングスペース,,株式会社,京都府,京都市右京区,西京極郡町３９番地,,26,108,6150884,,,,,,,2021-11-18,1,,,,,ビーシェアリングスペース,0
2347,8130005016319,新規,0,2021-11-18,2021-11-18,特定非営利活動法人Ｓｏｃｉａｌｌｙ　Ｉｍｐａｃｔｆｕｌ　Ｌｅａｄｅｒ　Ｓｃｈｏｌａｒｓ,,その他の設立登記法人,京都府,京都市左京区,吉田橘町１廣志房３０９号室,,26,103,6068303,,,,,,,2021-11-18,1,,,,,ソーシャリーインパクトフルリーダースカラーズ,0
2353,8140001123844,新規,0,2021-11-18,2021-11-18,株式会社見守りサポート,,株式会社,兵庫県,姫路市,安田４丁目６３番地,,28,201,6700955,,,,,,,2021-11-18,1,,,,,ミマモリサポート,0
2354,8140001123869,新規,0,2021-11-18,2021-11-18,株式会社エイト,,株式会社,兵庫県,明石市,魚住町西岡２５４８番地の１３,,28,203,6740084,,,,,,,2021-11-18,1,,,,,エイト,0
2355,8140001123893,新規,0,2021-11-18,2021-11-18,Ｙ．ｃｒｅａｔｉｏｎ株式会社,,株式会社,兵庫県,尼崎市,塚口町１丁目５番地の１,,28,202,6610002,,,,,,,2021-11-18,1,,,,,ワイクリエーション,0
2356,8140001123902,新規,0,2021-11-18,2021-11-18,株式会社マインドケア,,株式会社,兵庫県,神戸市北区,鈴蘭台北町５丁目４番５号,,28,109,6511111,,,,,,,2021-11-18,1,,,,,マインドケア,0
2363,8180001148821,新規,0,2021-11-18,2021-11-18,株式会社ベルジュ,,株式会社,愛知県,名古屋市守山区,太田井１０番３０号,,23,113,4630044,,,,,,,2021-11-18,1,,,,,ベルジュ,0
2368,8180003023213,新規,0,2021-11-18,2021-11-18,ＭＩＸ合同会社,,合同会社,愛知県,江南市,東野町烏森７９番地,,23,217,4838417,,,,,,,2021-11-18,1,,,,,ミックス,0
2370,8200001039407,新規,0,2021-11-18,2021-11-18,株式会社藤花,,株式会社,岐阜県,関市,山田９０番地２,,21,205,5013944,,,,,,,2021-11-18,1,,,,,トウカ,0
2372,8230001019109,新規,0,2021-11-18,2021-11-18,株式会社ｃｏｒｒｅｃｔ,,株式会社,富山県,富山市,婦中町分田１番地１３,,16,201,9392718,,,,,,,2021-11-18,1,,,,,コレクト,0
2380,8290001095458,新規,0,2021-11-18,2021-11-18,株式会社Ｐｒｏｇｒｅｓｓ,,株式会社,福岡県,福岡市博多区,千代１丁目１－６８,,40,132,8120044,,,,,,,2021-11-18,1,,,,,プログレス,0
2381,8290003011842,新規,0,2021-11-18,2021-11-18,合同会社スカイコード,,合同会社,福岡県,福岡市中央区,天神１丁目４番１号西日本新聞会館１６階,,40,133,8100001,,,,,,,2021-11-18,1,,,,,スカイコード,0
2382,8290803003989,新規,0,2021-11-18,2021-11-18,合同会社ＦＡＵＳＴ,,合同会社,福岡県,北九州市小倉北区,片野１丁目１２番１５－７０５号,,40,106,8020064,,,,,,,2021-11-18,1,,,,,ファウスト,0
2388,8320001018729,新規,0,2021-11-18,2021-11-18,株式会社ライト,,株式会社,大分県,中津市,蛭子町２丁目２８番地,,44,203,8710065,,,,,,,2021-11-18,1,,,,,ライト,0
2391,8330005010433,新規,0,2021-11-18,2021-11-18,医療法人緑陰,,その他の設立登記法人,熊本県,熊本市中央区,辛島町６番２号ペアレントビル６０２,,43,101,8600804,,,,,,,2021-11-18,1,,,,,リョクイン,0
2393,8360001029648,新規,0,2021-11-18,2021-11-18,ＳｕｎＳ株式会社,,株式会社,沖縄県,宜野湾市,字佐真下１１４番地,,47,205,9012216,,,,,,,2021-11-18,1,,,,,サンズ,0
2395,8370003005489,新規,0,2021-11-18,2021-11-18,合同会社ＭＯＧ,,合同会社,宮城県,仙台市宮城野区,福室字田中東二番２５番地の６,,04,102,9830005,,,,,,,2021-11-18,1,,,,,モグ,0
2418,8700150105859,新規,0,2021-11-18,2021-11-18,ＫＡＩＳＨ　ＥＮＴＥＲＰＲＩＳＥＳ,,外国会社等,新潟県,妙高市,大字小濁７３１レンタルスペース１Ｆ－４,,15,217,9440221,スリランカ民主社会主義共和国、プジャピティヤ、カサワタ、４８１／４番,,,,,,2021-11-18,1,,,,,カイシエンタープライセス,0
2419,8700150105867,新規,0,2021-11-18,2021-11-18,手石区,,その他,静岡県,賀茂郡南伊豆町,手石３１９番地,,22,304,4150153,,,,,,,2021-11-18,1,,,,,テイシク,0
2420,8700150105875,新規,0,2021-11-18,2021-11-18,Ｓｕｎ　Ｐｈａｒｍａｃｅｕｔｉｃａｌ　Ｉｎｄｕｓｔｒｉｅｓ　Ｌｉｍｉｔｅｄ,,外国会社等,,,,,,,,ＳＵＮ　ＨＯＵＳＥ，ＣＴＳ　Ｎｏ．２０１　Ｂ／１，Ｗｅｓｔｅｒｎ　Ｅｘｐｒｅｓｓ　Ｈｉｇｈｗａｙ，Ｇｏｒｅｇａｏｎ　（Ｅ），Ｍｕｍｂａｉ　４０００６３，Ｉｎｄｉａ,,,,,,2021-11-18,1,,,,,サンフアーマスーテイカルインダストリーリミテツド,0
2433,9010001222484,新規,0,2021-11-18,2021-11-18,株式会社ハーベスト,,株式会社,東京都,千代田区,神田佐久間町２丁目３番地,,13,101,1010025,,,,,,,2021-11-18,1,,,,,ハーベスト,0
2434,9010001222559,新規,0,2021-11-18,2021-11-18,株式会社ＵｎｉＡＲＴＳ,,株式会社,東京都,中央区,銀座６丁目１０番１号ギンザシックス１３Ｆ,,13,102,1040061,,,,,,,2021-11-18,1,,,,,ユニアーツ,0
2435,9010001222617,新規,0,2021-11-18,2021-11-18,ナノフィデス・ジャパン株式会社,,株式会社,東京都,中央区,日本橋久松町４番７号久松町ロータリービル５階,,13,102,1030005,,,,,,,2021-11-18,1,,,,,ナノフィデスジャパン,0
2436,9010001222641,新規,0,2021-11-18,2021-11-18,株式会社Ｐｈｉｌｉｐ　Ｓｔｅｉｎ　Ｊａｐａｎ,,株式会社,東京都,千代田区,外神田４丁目９番２号,,13,101,1010021,,,,,,,2021-11-18,1,,,,,フィリップスタインジャパン,0
2437,9010001222658,新規,0,2021-11-18,2021-11-18,Ｉ・ｘ・Ｕ株式会社,,株式会社,東京都,中央区,銀座１丁目２２番１１号銀座大竹ビジデンス２階,,13,102,1040061,,,,,,,2021-11-18,1,,,,,イークス,0
2438,9010001222674,新規,0,2021-11-18,2021-11-18,株式会社ＣＬＩＰ第２１８号,,株式会社,東京都,千代田区,丸の内２丁目７番２号,,13,101,1000005,,,,,,,2021-11-18,1,,,,,シーエルアイピーダイニヒャクジュウハチゴウ,0
2439,9010001222690,新規,0,2021-11-18,2021-11-18,株式会社ＳＨＩＰ第２４３号,,株式会社,東京都,千代田区,丸の内２丁目７番２号,,13,101,1000005,,,,,,,2021-11-18,1,,,,,エスエイチアイピーダイニヒャクヨンジュウサンゴウ,0
2440,9010001222699,新規,0,2021-11-18,2021-11-18,株式会社ＳＨＩＰ第２５２号,,株式会社,東京都,千代田区,丸の内２丁目７番２号,,13,101,1000005,,,,,,,2021-11-18,1,,,,,エスエイチアイピーダイニヒャクゴジュウニゴウ,0
2443,9010003036338,新規,0,2021-11-18,2021-11-18,合同会社ｔ－ｎｅｘｔ,,合同会社,東京都,千代田区,一ツ橋２丁目６番３号アクシスインベストメントアドバイザーズ株式会社内,,13,101,1010003,,,,,,,2021-11-18,1,,,,,ティーネクスト,0
2444,9010003036346,新規,0,2021-11-18,2021-11-18,Ｘ－Ｅｌｉｏ２３合同会社,,合同会社,東京都,中央区,銀座４丁目１４番１１号七十七銀座ビル８階,,13,102,1040061,,,,,,,2021-11-18,1,,,,,エクセリオトゥエンティースリー,0
2448,9010401163873,新規,0,2021-11-18,2021-11-18,株式会社Ｆ　ＩＮＮＯＶＡＴＩＯＮ,,株式会社,東京都,港区,六本木２丁目２番４号,,13,103,1060032,,,,,,,2021-11-18,1,,,,,エフイノベーション,0
2449,9010401163881,新規,0,2021-11-18,2021-11-18,Ｈｏｍａｇｅ　Ｊａｐａｎ株式会社,,株式会社,東京都,港区,元麻布３丁目１番６号,,13,103,1060046,,,,,,,2021-11-18,1,,,,,ホーメージジャパン,0
2450,9010401163915,新規,0,2021-11-18,2021-11-18,株式会社アイタイズ,,株式会社,東京都,港区,南青山２丁目２番１５号,,13,103,1070062,,,,,,,2021-11-18,1,,,,,アイタイズ,0
2452,9010403026533,新規,0,2021-11-18,2021-11-18,合同会社ＲｅＢｌｏｓｓｏｍ,,合同会社,東京都,港区,赤坂８丁目１２－２７カーム乃木坂１０２,,13,103,1070052,,,,,,,2021-11-18,1,,,,,リブロッサム,0
2458,9010601060235,新規,0,2021-11-18,2021-11-18,株式会社ＫＳＧ,,株式会社,東京都,江東区,有明１丁目１番１７号シティタワー有明３０１３号,,13,108,1350063,,,,,,,2021-11-18,1,,,,,ケーエスジー,0
2459,9010601060243,新規,0,2021-11-18,2021-11-18,株式会社ＹＳ,,株式会社,東京都,墨田区,向島３丁目２８番１０号サープリング小梅６０１,,13,107,1310033,,,,,,,2021-11-18,1,,,,,ワイエス,0
2462,9010803003958,新規,0,2021-11-18,2021-11-18,ＢＡＹｓＲＥＥ合同会社,,合同会社,東京都,大田区,久が原５丁目６番１３号,,13,111,1460085,,,,,,,2021-11-18,1,,,,,ベイズリー,0
2465,9010903006935,新規,0,2021-11-18,2021-11-18,合同会社Ｌｅｓ　ｃｉｎｑ　ｓｅｎｓ,,合同会社,東京都,世田谷区,駒沢２丁目５番１２号,,13,112,1540012,,,,,,,2021-11-18,1,,,,,レサンクソンス,0
2469,9011001143811,新規,0,2021-11-18,2021-11-18,ビジョナル・インキュベーション株式会社,,株式会社,東京都,渋谷区,渋谷２丁目１５番１号,,13,113,1500002,,,,,,,2021-11-18,1,,,,,ビジョナルインキュベーション,0
2470,9011001144041,新規,0,2021-11-18,2021-11-18,株式会社Ｌｉｍｕｒｕ　Ｓｔａｎｄａｒｄ,,株式会社,東京都,渋谷区,神宮前６丁目２３番４号桑野ビル２階,,13,113,1500001,,,,,,,2021-11-18,1,,,,,リムルスタンダード,0
2471,9011001144082,新規,0,2021-11-18,2021-11-18,株式会社ＮｏｖｏｌＢａ,,株式会社,東京都,渋谷区,渋谷２丁目２４番１２号渋谷スクランブルスクエア４４階,,13,113,1500002,,,,,,,2021-11-18,1,,,,,ノボルバ,0
2472,9011001144099,新規,0,2021-11-18,2021-11-18,株式会社ＮＬＣ,,株式会社,東京都,渋谷区,恵比寿南３丁目１番２４号シティスクエア恵比寿９０６,,13,113,1500022,,,,,,,2021-11-18,1,,,,,エヌエルシー,0
2476,9011101096934,新規,0,2021-11-18,2021-11-18,株式会社ＵＲＡＨＡＫＵ,,株式会社,東京都,新宿区,西新宿５丁目９－８－１１０５号,,13,104,1600023,,,,,,,2021-11-18,1,,,,,ウラハク,0
2479,9011103011189,新規,0,2021-11-18,2021-11-18,合同会社Ａｎｉｔｏｏｎ,,合同会社,東京都,新宿区,西新宿７丁目１番７号新宿ダイカンプラザＡ１０１８,,13,104,1600023,,,,,,,2021-11-18,1,,,,,アニトゥーン,0
2480,9011103011197,新規,0,2021-11-18,2021-11-18,合同会社ｌｅ　ｔｏｕｔ,,合同会社,東京都,新宿区,新宿７丁目９番地１５号７０２号室,,13,104,1600022,,,,,,,2021-11-18,1,,,,,ルトート,0
2481,9011105010049,新規,0,2021-11-18,2021-11-18,一般社団法人ＴＯＫＹＯ友禅文化継承協会,,その他の設立登記法人,東京都,新宿区,若宮町３８番地１,,13,104,1620827,,,,,,,2021-11-18,1,,,,,トウキョウユウゼンブンカケイショウキョウカイ,0
2490,9011503004981,新規,0,2021-11-18,2021-11-18,ＥＴＫ合同会社,,合同会社,東京都,北区,浮間１丁目１番１４号リムジンビル２２８,,13,117,1150051,,,,,,,2021-11-18,1,,,,,イーティーケー,0
2494,9011701024848,新規,0,2021-11-18,2021-11-18,株式会社ビスノワール,,株式会社,東京都,江戸川区,西葛西７丁目２９番１０西葛西ＡＰＡＲＴＭＥＮＴＳ－２－２０１号,,13,123,1340088,,,,,,,2021-11-18,1,,,,,ビスノワール,0
2498,9012301012771,新規,0,2021-11-18,2021-11-18,株式会社プライム,,株式会社,東京都,町田市,小川６丁目２９番１７号すずかけ台ビル１Ｆ,,13,209,1940003,,,,,,,2021-11-18,1,,,,,プライム,0
2502,9012303001616,新規,0,2021-11-18,2021-11-18,合同会社Ｍｕｓｉｓａｎ,,合同会社,東京都,町田市,金森４丁目７番４号,,13,209,1940012,,,,,,,2021-11-18,1,,,,,ムーシサン,0
2505,9013301048277,新規,0,2021-11-18,2021-11-18,株式会社ヒットボ,,株式会社,東京都,豊島区,千早４丁目３８番１１号,,13,116,1710044,,,,,,,2021-11-18,1,,,,,ヒットボ,0
2506,9013301048285,新規,0,2021-11-18,2021-11-18,根本商事株式会社,,株式会社,東京都,豊島区,長崎２丁目９番１５号グローリア根本２０５号室,,13,116,1710051,,,,,,,2021-11-18,1,,,,,ネモトショウジ,0
2507,9013303005912,新規,0,2021-11-18,2021-11-18,フードグローバルリンク合同会社,,合同会社,東京都,豊島区,雑司が谷３丁目２２－６イトーピア目白３０２,,13,116,1710032,,,,,,,2021-11-18,1,,,,,フードグローバルリンク,0
2517,9020001143960,新規,0,2021-11-18,2021-11-18,株式会社リンク,,株式会社,神奈川県,横浜市都筑区,茅ケ崎中央４７番７－９０４号,,14,118,2240032,,,,,,,2021-11-18,1,,,,,リンク,0
2518,9020001143977,新規,0,2021-11-18,2021-11-18,株式会社凱,,株式会社,神奈川県,横浜市金沢区,富岡東１丁目１７番１１－２０３号,,14,108,2360051,,,,,,,2021-11-18,1,,,,,カイ,0
2519,9020001143985,新規,0,2021-11-18,2021-11-18,株式会社レスペート,,株式会社,神奈川県,川崎市中原区,下新城２丁目４番２３－５０５号サンクレイドル武蔵中原ＩＩ,00124898,14,133,2110042,,,,,,,2021-11-18,1,,,,,レスペート,0
2520,9020001144001,新規,0,2021-11-18,2021-11-18,株式会社Ｍｕｋｕ,,株式会社,神奈川県,横浜市青葉区,柿の木台３－３石原第５ビル１０２,,14,117,2270048,,,,,,,2021-11-18,1,,,,,ムク,0
2522,9020003020828,新規,0,2021-11-18,2021-11-18,ＭＳＴ合同会社,,合同会社,神奈川県,横浜市青葉区,美しが丘２丁目２０－１４プリメールたまプラーザ３０１,,14,117,2250002,,,,,,,2021-11-18,1,,,,,エムエスティ,0
2523,9020003020852,新規,0,2021-11-18,2021-11-18,ドーヌムキャピタル合同会社,,合同会社,神奈川県,横浜市金沢区,長浜１丁目２０番５号,,14,108,2360011,,,,,,,2021-11-18,1,,,,,ドーヌムキャピタル,0
2532,9021001074519,新規,0,2021-11-18,2021-11-18,株式会社エムティラボ,,株式会社,神奈川県,厚木市,上荻野１８０７番地１,,14,212,2430201,,,,,,,2021-11-18,1,,,,,エムティラボ,0
2540,9030001145361,新規,0,2021-11-18,2021-11-18,アガ・ステラフィールド株式会社,,株式会社,埼玉県,戸田市,下戸田２丁目１４番１２号,,11,224,3350011,,,,,,,2021-11-18,1,,,,,アガステラフィールド,0
2541,9030001145436,新規,0,2021-11-18,2021-11-18,株式会社大高,,株式会社,埼玉県,飯能市,柳町３番１３号コヤマビル４０１,,11,209,3570035,,,,,,,2021-11-18,1,,,,,オオタカ,0
2548,9040001121007,新規,0,2021-11-18,2021-11-18,株式会社智博マネジメント,,株式会社,千葉県,柏市,緑台１番地３エスペランサ１０２号,,12,217,2770903,,,,,,,2021-11-18,1,,,,,チヒロマネジメント,0
2549,9040001121015,新規,0,2021-11-18,2021-11-18,株式会社みらい,,株式会社,千葉県,いすみ市,大原最上台２９番地８,,12,238,2980006,,,,,,,2021-11-18,1,,,,,ミライ,0
2550,9040001121023,新規,0,2021-11-18,2021-11-18,株式会社モクシー,,株式会社,千葉県,松戸市,小金原１丁目３６番地の３２,,12,207,2700021,,,,,,,2021-11-18,1,,,,,モクシー,0
2551,9040001121048,新規,0,2021-11-18,2021-11-18,株式会社トチモチ,,株式会社,千葉県,八千代市,勝田台２丁目４３番地２,,12,221,2760023,,,,,,,2021-11-18,1,,,,,トチモチ,0
2552,9040001121064,新規,0,2021-11-18,2021-11-18,セキ株式会社,,株式会社,千葉県,松戸市,新松戸北１丁目１１番地の２２,,12,207,2700032,,,,,,,2021-11-18,1,,,,,セキ,0
2556,9040003018952,新規,0,2021-11-18,2021-11-18,オフィス神山合同会社,,合同会社,千葉県,市川市,鬼越２丁目２１番２号,,12,203,2720022,,,,,,,2021-11-18,1,,,,,オフィスカミヤマ,0
2562,9060001034297,新規,0,2021-11-18,2021-11-18,株式会社金澤工業,,株式会社,栃木県,小山市,大字横倉５６８番地３,,09,208,3230813,,,,,,,2021-11-18,1,,,,,カナザワコウギョウ,0
2563,9060005009923,新規,0,2021-11-18,2021-11-18,一般社団法人栃木県精神保健福祉士協会,,その他の設立登記法人,栃木県,宇都宮市,若草１丁目１０番６号とちぎ福祉プラザ３Ｆ,,09,201,3200072,,,,,,,2021-11-18,1,,,,,,0
2564,9070001038660,新規,0,2021-11-18,2021-11-18,株式会社マスト,,株式会社,群馬県,伊勢崎市,宮前町１６番地Ｂ１０１号,,10,204,3720026,,,,,,,2021-11-18,1,,,,,,0
2582,9120001241861,新規,0,2021-11-18,2021-11-18,みたかコーポレーション株式会社,,株式会社,大阪府,大阪市北区,天神橋１丁目１９番６号,,27,127,5300041,,,,,,,2021-11-18,1,,,,,ミタカコーポレーション,0
2583,9120001241928,新規,0,2021-11-18,2021-11-18,株式会社イデアーツ,,株式会社,大阪府,大阪市中央区,上本町西１丁目１番５号聖恵ビル９０２号室,,27,128,5420062,,,,,,,2021-11-18,1,,,,,イデアーツ,0
2584,9120001241936,新規,0,2021-11-18,2021-11-18,三禾株式会社,,株式会社,大阪府,大阪市旭区,赤川１丁目５－１３天理マンション１０３号室,,27,117,5350005,,,,,,,2021-11-18,1,,,,,サンノギ,0
2585,9120001241944,新規,0,2021-11-18,2021-11-18,株式会社エネルギープロジェクト,,株式会社,大阪府,大阪市西淀川区,御幣島１丁目９番２１号,,27,113,5550012,,,,,,,2021-11-18,1,,,,,エネルギープロジェクト,0
2586,9120001241977,新規,0,2021-11-18,2021-11-18,大成株式会社,,株式会社,大阪府,大阪市城東区,蒲生３丁目１５番１２号セザンヌ藤４０１Ａ,,27,118,5360016,,,,,,,2021-11-18,1,,,,,タイセイ,0
2587,9120001241985,新規,0,2021-11-18,2021-11-18,株式会社ポセイドン,,株式会社,大阪府,大阪市中央区,南船場２丁目１１番９－３０６号,,27,128,5420081,,,,,,,2021-11-18,1,,,,,ポセイドン,0
2588,9120001242001,新規,0,2021-11-18,2021-11-18,株式会社なにわ,,株式会社,大阪府,大阪市福島区,大開３丁目４番１０号,,27,103,5530007,,,,,,,2021-11-18,1,,,,,ナニワ,0
2601,9120901045197,新規,0,2021-11-18,2021-11-18,Ｈａｐｐｙ　Ｓｉｚｅ株式会社,,株式会社,大阪府,豊中市,蛍池南町２－３－２ラフォーレ豊中ＩＩ１０５,00124914,27,203,5600000,,,,,,,2021-11-18,1,,,,,ハッピーサイズ,0
2619,9150001025097,新規,0,2021-11-18,2021-11-18,株式会社サクシード,,株式会社,奈良県,奈良市,宝来２丁目１５番８号,,29,201,6310845,,,,,,,2021-11-18,1,,,,,サクシード,0
2634,9180001148754,新規,0,2021-11-18,2021-11-18,株式会社ネルフ,,株式会社,愛知県,名古屋市中区,錦３丁目１７番２４号鬼頭ビルディング３Ｆ,,23,106,4600003,,,,,,,2021-11-18,1,,,,,ネルフ,0
2635,9180001148795,新規,0,2021-11-18,2021-11-18,株式会社Ｓｐａｃｅ　ｍｏｖｅ,,株式会社,愛知県,名古屋市中村区,中村町９丁目１１０－１階,,23,105,4530053,,,,,,,2021-11-18,1,,,,,スペースムーブ,0
2636,9180001148812,新規,0,2021-11-18,2021-11-18,株式会社山広技建,,株式会社,愛知県,清須市,西田中蓮池８７番地,,23,233,4520933,,,,,,,2021-11-18,1,,,,,ヤマコウギケン,0
2637,9180001148829,新規,0,2021-11-18,2021-11-18,ムーブオン株式会社,,株式会社,愛知県,名古屋市天白区,保呂町１８１８番地,,23,116,4680041,,,,,,,2021-11-18,1,,,,,ムーブオン,0
2643,9180003023212,新規,0,2021-11-18,2021-11-18,合同会社Ｈｉｎａｔａ,,合同会社,愛知県,半田市,苗代町１丁目３２番地１,,23,205,4750075,,,,,,,2021-11-18,1,,,,,ヒナタ,0
2644,9180005019522,新規,0,2021-11-18,2021-11-18,一般社団法人ＡＴＦ,,その他の設立登記法人,愛知県,丹羽郡大口町,高橋１丁目８番地,,23,361,4800131,,,,,,,2021-11-18,1,,,,,エーティーエフ,0
2656,9240003005377,新規,0,2021-11-18,2021-11-18,合同会社Ｌｉｎｋ西日本,,合同会社,広島県,福山市,瀬戸町長和４７６番地１,,34,207,7210000,,,,,,,2021-11-18,1,,,,,,0
2663,9290001095390,新規,0,2021-11-18,2021-11-18,株式会社ＢＬＵＥ　ＨＯＭＥ,,株式会社,福岡県,福岡市中央区,渡辺通５丁目８番１８号－１００４号,,40,133,8100004,,,,,,,2021-11-18,1,,,,,ブルーホーム,0
2664,9290001095399,新規,0,2021-11-18,2021-11-18,Ａｓｐｉｒａｎｔ株式会社,,株式会社,福岡県,福岡市東区,水谷２丁目１９番３－５０５号,,40,131,8130041,,,,,,,2021-11-18,1,,,,,アスパラント,0
2665,9290001095416,新規,0,2021-11-18,2021-11-18,スーパーパワー株式会社,,株式会社,福岡県,福岡市城南区,茶山５丁目２７番３号,,40,136,8140111,,,,,,,2021-11-18,1,,,,,スーパーパワー,0
2666,9290001095449,新規,0,2021-11-18,2021-11-18,株式会社グレイスシーズ,,株式会社,福岡県,福岡市東区,和白３丁目２３番２２号,,40,131,8110202,,,,,,,2021-11-18,1,,,,,グレイスシーズ,0
2667,9290001095481,新規,0,2021-11-18,2021-11-18,株式会社ミライリード,,株式会社,福岡県,福岡市博多区,堅粕４丁目２２－２１－７号,,40,132,8120043,,,,,,,2021-11-18,1,,,,,ミライリード,0
2687,9370001047846,新規,0,2021-11-18,2021-11-18,ＡＥコンサル株式会社,,株式会社,宮城県,仙台市青葉区,本町１丁目９番５号五城ビル１０３号室,,04,101,9800014,,,,,,,2021-11-18,1,,,,,エーイーコンサル,0
2695,9430001085402,新規,0,2021-11-18,2021-11-18,株式会社ノヴァテック,,株式会社,北海道,札幌市北区,屯田六条５丁目１番１５号,,01,102,0020856,,,,,,,2021-11-18,1,,,,,ノヴァテック,0
2701,9480003001749,新規,0,2021-11-18,2021-11-18,合同会社獣害対策研究所,,合同会社,徳島県,那賀郡那賀町,百合字松の木２３４番地１,,36,368,7715206,,,,,,,2021-11-18,1,,,,,ジュウガイタイサクケンキュウジョ,0
2704,9500001023817,新規,0,2021-11-18,2021-11-18,株式会社フジ分割準備会社,,株式会社,愛媛県,松山市,宮西１丁目２番１号,,38,201,7900065,,,,,,,2021-11-18,1,,,,,フジブンカツジュンビカイシャ,0
2706,9700150105874,新規,0,2021-11-18,2021-11-18,Ｔａｚ　Ｄｏｇ　ＬＬＣ,,外国会社等,,,,,,,,９２５－Ｂ　Ｐｅａｃｈｔｒｅｅ　Ｓｔ．ＮＥ　Ｕｎｉｔ　１６４　Ａｔｌａｎｔａ　ＧＡ　３０３０９　ＵＳＡ,,,,,,2021-11-18,1,,,,,タズドツグエルエルシー,0
