sequenceNumber,corporateNumber,process,correct,updateDate,changeDate,name,nameImageId,kind,prefectureName,cityName,streetNumber,addressImageId,prefectureCode,cityCode,postCode,addressOutside,addressOutsideImageId,closeDate,closeCause,successorCorporateNumber,changeCause,assignmentDate,latest,enName,enPrefectureName,enCityName,enAddressOutside,furigana,hihyoji
11,1010005025924,登記記録の閉鎖等,0,2023-07-07,2023-06-30,ＨＫＲＪ　Ａｋａｓａｋａ一般社団法人,,その他の設立登記法人,東京都,中央区,銀座１丁目６番１１号土志田ビルディング３階,,13,102,1040061,,,2023-06-30,清算の結了等,,,2016-10-20,1,,,,,エイチケーアールジェイアカサカ,0
29,1010701012440,登記記録の閉鎖等,0,2023-07-07,2023-06-30,株式会社品川建築研究所,,株式会社,東京都,品川区,北品川１丁目１１番６号,,13,109,1400001,,,2023-06-30,清算の結了等,,,2015-10-05,1,,,,,シナガワケンチクケンキュウジョ,0
52,1011203002962,登記記録の閉鎖等,0,2023-07-07,2023-06-27,三喬合同会社,,合同会社,東京都,中野区,沼袋３丁目１０番９号,,13,114,1650025,,,2023-06-27,清算の結了等,,,2019-02-20,1,,,,,サンキョウ,0
54,1011501004693,登記記録の閉鎖等,0,2023-07-07,2023-06-13,株式会社メックサービス,,株式会社,東京都,足立区,竹の塚３丁目１９番１２号,,13,121,1210813,,,2023-06-13,合併による解散等,9011501004513,令和５年６月１日東京都足立区竹の塚三丁目１９番１２号株式会社ミツウロコテック（9011501004513）に合併し解散,2015-10-05,1,,,,,メックサービス,0
61,1011702013130,登記記録の閉鎖等,0,2023-07-07,2023-07-03,有限会社ミドルサイト,,有限会社,東京都,江戸川区,臨海町５丁目３番１－６１１号,,13,123,1340086,,,2023-07-03,清算の結了等,,,2015-10-05,1,,,,,ミドルサイト,0
73,1013202004790,登記記録の閉鎖等,0,2023-07-07,2023-06-30,有限会社日光堂,,有限会社,東京都,目黒区,鷹番３丁目９番５号,,13,110,1520004,,,2023-06-30,清算の結了等,,,2015-10-05,1,,,,,ニッコウドウ,0
99,1030001135881,登記記録の閉鎖等,0,2023-07-07,2023-06-20,Ｗｉｓｈｉｎｇ　Ｈｏｍｅ株式会社,,株式会社,埼玉県,桶川市,朝日１丁目２８番１２号,,11,231,3630023,,,2023-06-20,清算の結了等,,,2020-04-07,1,,,,,ウィッシングホーム,0
101,1030003011189,登記記録の閉鎖等,0,2023-07-07,2023-06-19,Ｍｏｈｌ合同会社,,合同会社,埼玉県,狭山市,大字北入曽２６番地の５,,11,215,3501315,,,2023-06-19,清算の結了等,,,2017-12-18,1,,,,,モール,0
103,1040001016560,登記記録の閉鎖等,0,2023-07-07,2023-06-19,株式会社愛和配食サービス,,株式会社,千葉県,船橋市,夏見３丁目１８番１２号,,12,204,2730865,,,2023-06-19,清算の結了等,,,2015-10-05,1,,,,,,0
108,1040001120024,登記記録の閉鎖等,0,2023-07-07,2023-06-19,株式会社スカイテクニカル,,株式会社,千葉県,袖ケ浦市,代宿８５番地３５,,12,229,2990241,,,2023-06-19,清算の結了等,,,2021-09-06,1,,,,,スカイテクニカル,0
132,1080102013858,登記記録の閉鎖等,0,2023-07-07,2023-07-04,光明紙工有限会社,,有限会社,静岡県,富士市,柚木３９８番地の５,,22,210,4160908,,,2023-07-04,清算の結了等,,,2015-10-05,1,,,,,コウミョウシコウ,0
133,1080102019888,登記記録の閉鎖等,0,2023-07-07,2023-07-04,有限会社サンユー企画,,有限会社,静岡県,伊東市,湯川４８０番地の１０,,22,208,4140002,,,2023-07-04,清算の結了等,,,2015-10-05,1,,,,,サンユーキカク,0
135,1080401000210,登記記録の閉鎖等,0,2023-07-07,2023-07-03,朝日コスモ株式会社,,株式会社,静岡県,浜松市中区,和合北１丁目２番１２号,,22,131,4338127,,,2023-07-03,合併による解散等,8080401009897,令和５年７月１日静岡県浜松市中区和合北一丁目２番１２号朝日コネクト株式会社（8080401009897）に合併し解散,2015-10-05,1,,,,,アサヒコスモ,0
139,1100002012701,登記記録の閉鎖等,0,2023-07-07,2023-06-30,有限会社ライフケアサービス佐久,,有限会社,長野県,佐久市,塩名田５５４番地３,,20,217,3842102,,,2023-06-30,清算の結了等,,,2015-10-05,1,,,,,ライフケアサービスサク,0
163,1120101009992,登記記録の閉鎖等,0,2023-07-07,2023-06-16,株式会社今保,,株式会社,大阪府,堺市東区,白鷺町３丁４番２９号,,27,143,5998107,,,2023-06-16,合併による解散等,4120101002680,令和５年６月１日大阪府堺市堺区一条通１２番１４号堺大一青果株式会社（4120101002680）に合併し解散,2015-10-05,1,,,,,イマヤス,0
189,1140001105361,登記記録の閉鎖等,0,2023-07-07,2023-06-28,ＧＥクリエイト株式会社,,株式会社,兵庫県,加古川市,平岡町一色東２丁目４８７番地の４,,28,210,6750116,,,2023-06-28,清算の結了等,,,2017-03-10,1,,,,,ジーイークリエイト,0
197,1180001033609,登記記録の閉鎖等,0,2023-07-07,2023-06-30,株式会社アイコー,,株式会社,愛知県,名古屋市中区,新栄２丁目３６番２７号,,23,106,4600007,,,2023-06-30,清算の結了等,,,2015-10-05,1,,,,,アイコー,0
211,1200001033903,登記記録の閉鎖等,0,2023-07-07,2023-06-30,株式会社オーダーメイド,,株式会社,岐阜県,関市,小瀬１８１４番地２０,,21,205,5013265,,,2023-06-30,清算の結了等,,,2017-04-12,1,,,,,オーダーメイド,0
231,1360001026107,登記記録の閉鎖等,0,2023-07-07,2023-06-29,株式会社つなぐ,,株式会社,沖縄県,中頭郡嘉手納町,字屋良９３４番地１８,,47,325,9040202,,,2023-06-29,清算の結了等,,,2019-08-26,1,,,,,ツナグ,0
234,1370001006974,登記記録の閉鎖等,0,2023-07-07,2023-07-03,株式会社住販システムビルド,,株式会社,宮城県,仙台市青葉区,通町２丁目５番２８号,,04,101,9810915,,,2023-07-03,合併による解散等,1370001016354,令和５年７月１日仙台市泉区高玉町２番地の２５住販システムリビングサポート株式会社（1370001016354）に合併し解散,2015-10-05,1,,,,,ジュウハンシステムビルド,0
253,1410001011689,登記記録の閉鎖等,0,2023-07-07,2023-06-30,横手温泉郷株式会社,,株式会社,秋田県,大仙市,大曲中通町２番２０号,,05,212,0140024,,,2023-06-30,合併による解散等,6410001010166,令和５年６月３０日秋田県大仙市大曲丸の内町１１番１号株式会社丸の内ホテル（6410001010166）に合併し解散,2017-11-16,1,,,,,ヨコテオンセンキョウ,0
281,2010401132001,登記記録の閉鎖等,0,2023-07-07,2023-07-04,スターボード・ヘルム株式会社,,株式会社,東京都,世田谷区,上馬１丁目１－７グローリオ駒沢大学２２１,,13,112,1540011,,,2023-07-04,清算の結了等,,,2017-06-14,1,,,,,スターボードヘルム,0
296,2010702011969,登記記録の閉鎖等,0,2023-07-07,2023-07-03,有限会社ハリーフーズ,,有限会社,東京都,品川区,東品川１丁目３５番２２号,,13,109,1400002,,,2023-07-03,清算の結了等,,,2015-10-05,1,,,,,ハリーフーズ,0
301,2011001061177,登記記録の閉鎖等,0,2023-07-07,2023-06-22,株式会社マリーチ,,株式会社,東京都,新宿区,西新宿７丁目４－４,,13,104,1600023,,,2023-06-22,清算の結了等,,,2015-10-05,1,,,,,マリーチ,0
306,2011002015462,登記記録の閉鎖等,0,2023-07-07,2023-06-26,有限会社瑞木工房柴田設計室,,有限会社,東京都,渋谷区,神宮前６丁目２５番８号,,13,113,1500001,,,2023-06-26,清算の結了等,,,2015-10-05,1,,,,,ミズキコウボウシバタセッケイシツ,0
311,2011101090506,登記記録の閉鎖等,0,2023-07-07,2023-06-16,ちょうどいい株式会社,,株式会社,千葉県,印西市,師戸２２９９,,12,231,2701615,,,2023-06-16,清算の結了等,,,2020-02-26,1,,,,,チョウドイイ,0
315,2011103003399,登記記録の閉鎖等,0,2023-07-07,2023-07-04,合同会社バイオエンジニアリング研究所,,合同会社,東京都,新宿区,四谷１丁目２０番２０号,,13,104,1600004,,,2023-07-04,清算の結了等,,,2015-10-05,1,,,,,バイオエンジニアリングケンキュウショ,0
316,2011103009966,登記記録の閉鎖等,0,2023-07-07,2023-07-04,合同会社ｙａｋｅｎ,,合同会社,東京都,新宿区,西新宿７丁目４－７イマス浜田ビル５階,,13,104,1600023,,,2023-07-04,清算の結了等,,,2020-08-27,1,,,,,ヤケン,0
323,2011302011896,登記記録の閉鎖等,0,2023-07-07,2023-07-04,有限会社文武門徒ジャパン,,有限会社,東京都,杉並区,西荻北４丁目２番１４号,,13,115,1670042,,,2023-07-04,清算の結了等,,,2015-10-05,1,,,,,,0
340,2012302007496,登記記録の閉鎖等,0,2023-07-07,2023-07-03,有限会社プレミアムローズ,,有限会社,東京都,杉並区,宮前５丁目２５番８号,,13,115,1680081,,,2023-07-03,清算の結了等,,,2015-10-05,1,,,,,,0
345,2013201001474,登記記録の閉鎖等,0,2023-07-07,2023-06-29,亀屋万年堂製菓株式会社,,株式会社,東京都,目黒区,自由が丘１丁目１５番１２号,,13,110,1520035,,,2023-06-29,合併による解散等,1013201001475,令和５年５月１日東京都目黒区自由が丘一丁目１５番１２号株式会社亀屋万年堂（1013201001475）に合併し解散,2015-10-05,1,,,,,カメヤマンネンドウセイカ,0
352,2021001047191,登記記録の閉鎖等,0,2023-07-07,2023-07-03,株式会社ラフォリア商会,,株式会社,神奈川県,茅ヶ崎市,中海岸４丁目１２９８６番地５２,,14,207,2530055,,,2023-07-03,清算の結了等,,,2015-10-05,1,,,,,ラフォリアショウカイ,0
360,2021002056225,登記記録の閉鎖等,0,2023-07-07,2023-06-22,有限会社西村電機,,有限会社,神奈川県,足柄上郡中井町,井ノ口２２５９番地の１,,14,361,2590151,,,2023-06-22,清算の結了等,,,2015-10-05,1,,,,,ニシムラデンキ,0
399,2080001008330,登記記録の閉鎖等,0,2023-07-07,2023-07-03,シンエイパネル株式会社,,株式会社,静岡県,静岡市清水区,鳥坂１３５７番地の４,,22,103,4240067,,,2023-07-03,清算の結了等,,,2015-10-05,1,,,,,シンエイパネル,0
400,2080101006481,登記記録の閉鎖等,0,2023-07-07,2023-07-03,株式会社湛防施設工業,,株式会社,静岡県,三島市,泉町１４番９号,,22,206,4110037,,,2023-07-03,合併による解散等,8080101006055,令和５年７月１日静岡県三島市谷田１３０１番地の１株式会社二和工業商会（8080101006055）に合併し解散,2015-10-05,1,,,,,タンボウシセツコウギョウ,0
414,2120001081802,登記記録の閉鎖等,0,2023-07-07,2023-07-03,寝具の匠株式会社,,株式会社,大阪府,大阪市中央区,本町２丁目５番７号,,27,128,5410053,,,2023-07-03,清算の結了等,,,2015-10-05,1,,,,,シングノタクミ,0
415,2120001161612,登記記録の閉鎖等,0,2023-07-07,2023-07-03,株式会社ひばり,,株式会社,大阪府,大阪市東成区,東中本３丁目２１番２３号,,27,115,5370021,,,2023-07-03,清算の結了等,,,2015-10-05,1,,,,,ヒバリ,0
451,2140001123528,登記記録の閉鎖等,0,2023-07-07,2023-06-30,株式会社アイエフ,,株式会社,兵庫県,高砂市,高砂町浜田町２丁目１５番２－３号,,28,216,6760022,,,2023-06-30,清算の結了等,,,2021-10-18,1,,,,,アイエフ,0
482,2190002012394,登記記録の閉鎖等,0,2023-07-07,2023-06-29,有限会社メンズワールドフクムラ,,有限会社,三重県,伊賀市,上野車坂町６１６番地の２,,24,216,5180832,,,2023-06-29,清算の結了等,,,2015-10-05,1,,,,,メンズワールドフクムラ,0
488,2220005003387,登記記録の閉鎖等,0,2023-07-07,2023-07-03,丸坂織物協同組合,,その他の設立登記法人,石川県,能美市,山口町ハ１１０番地２,,17,211,9290126,,,2023-07-03,清算の結了等,,,2015-10-05,1,,,,,マルサカオリモノ,0
494,2240002053706,登記記録の閉鎖等,0,2023-07-07,2023-06-30,有限会社ミヤオキ薬品,,有限会社,広島県,三原市,宮沖３丁目９番１５号,,34,204,7230016,,,2023-06-30,清算の結了等,,,2015-10-05,1,,,,,ミヤオキヤクヒン,0
498,2250001015739,登記記録の閉鎖等,0,2023-07-07,2023-06-15,親和プレミアム株式会社,,株式会社,山口県,宇部市,寿町２丁目４番１２号,,35,202,7550032,,,2023-06-15,清算の結了等,,,2016-01-14,1,,,,,シンワプレミアム,0
514,2290801007717,登記記録の閉鎖等,0,2023-07-07,2023-07-03,株式会社シー・アンド・シー,,株式会社,福岡県,北九州市小倉南区,下曽根１丁目１４番１９号,,40,107,8000217,,,2023-07-03,合併による解散等,3290801001099,令和５年７月１日北九州市小倉南区下曽根一丁目１４番１９号株式会社キャンパス（3290801001099）に合併し解散,2015-10-05,1,,,,,シーアンドシー,0
536,2360002005513,登記記録の閉鎖等,0,2023-07-07,2023-06-29,有限会社グローアップカンパニー,,有限会社,沖縄県,那覇市,字田原１９６番地４,,47,201,9010156,,,2023-06-29,清算の結了等,,,2015-10-05,1,,,,,グローアップカンパニー,0
541,2390001006781,登記記録の閉鎖等,0,2023-07-07,2023-06-28,志田運輸株式会社,,株式会社,山形県,酒田市,竹田字猿田２１番地の１,,06,204,9996848,,,2023-06-28,合併による解散等,1390001006782,令和５年６月１６日山形県酒田市竹田字猿田２１番地の１志田建設株式会社（1390001006782）に合併し解散,2015-10-05,1,,,,,シダウンユ,0
553,2470002014692,登記記録の閉鎖等,0,2023-07-07,2023-06-29,有限会社エスピー海南,,有限会社,香川県,坂出市,江尻町７７１番地,,37,203,7620011,,,2023-06-29,清算の結了等,,,2015-10-05,1,,,,,エスピーカイナン,0
572,3010001119587,登記記録の閉鎖等,0,2023-07-07,2023-06-28,株式会社エピュレ,,株式会社,東京都,中央区,銀座４丁目１４番１１号,,13,102,1040061,,,2023-06-28,清算の結了等,,,2015-10-05,1,,,,,エピュレ,0
573,3010001212409,登記記録の閉鎖等,0,2023-07-07,2023-07-04,ＬｉＤＡＴ株式会社,,株式会社,東京都,中央区,日本橋久松町５番１１－４０１号,,13,102,1030005,,,2023-07-04,合併による解散等,4020001055401,令和５年７月１日東京都中野区中央三丁目１３番１０号ケアプロ株式会社（4020001055401）に合併し解散,2020-09-25,1,,,,,ライダット,0
577,3010003037572,登記記録の閉鎖等,0,2023-07-07,2023-06-19,セントラルアジアサポート合同会社,,合同会社,埼玉県,児玉郡上里町,大字八町河原２０７８番地１,,11,385,3690304,,,2023-06-19,清算の結了等,,,2022-05-06,1,,,,,セントラルアジアサポート,0
583,3010401047223,登記記録の閉鎖等,0,2023-07-07,2023-06-21,株式会社グローバルフォース,,株式会社,東京都,港区,海岸１丁目２番３号汐留浜離宮ビルディング２１階,,13,103,1050022,,,2023-06-21,清算の結了等,,,2015-10-05,1,,,,,グローバルフォース,0
586,3010402034633,登記記録の閉鎖等,0,2023-07-07,2023-06-29,有限会社ジュンコーポレーション,,有限会社,東京都,江東区,豊洲１丁目２番２７号,,13,108,1350061,,,2023-06-29,清算の結了等,,,2015-10-05,1,,,,,ジュンコーポレーション,0
609,3011001109586,登記記録の閉鎖等,0,2023-07-07,2023-06-30,株式会社クラージュ,,株式会社,東京都,品川区,西品川２丁目２１番７号,,13,109,1410033,,,2023-06-30,清算の結了等,,,2016-02-17,1,,,,,クラージュ,0
641,3012402000326,登記記録の閉鎖等,0,2023-07-07,2023-06-30,有限会社インテリア丸大,,有限会社,東京都,府中市,西原町３丁目１番地の３８,,13,206,1830046,,,2023-06-30,清算の結了等,,,2015-10-05,1,,,,,,0
662,3021001023588,登記記録の閉鎖等,0,2023-07-07,2023-06-30,株式会社タケムラ,,株式会社,神奈川県,愛甲郡愛川町,中津８４３番地４,,14,401,2430303,,,2023-06-30,清算の結了等,,,2015-10-05,1,,,,,タケムラ,0
668,3030001109751,登記記録の閉鎖等,0,2023-07-07,2023-06-30,株式会社フィールド,,株式会社,東京都,荒川区,荒川４丁目９番４－１２０２号,,13,118,1160002,,,2023-06-30,合併による解散等,7030001120250,令和５年６月３０日東京都荒川区荒川四丁目９番４－１２０２号ＳＴＡ　Ｊａｐａｎ株式会社（7030001120250）に合併し解散,2015-10-05,1,,,,,フィールド,0
675,3040001046093,登記記録の閉鎖等,0,2023-07-07,2023-06-19,株式会社Ｈ＆Ｍ,,株式会社,千葉県,印西市,小林大門下２丁目３番地９,,12,231,2701316,,,2023-06-19,清算の結了等,,,2015-10-05,1,,,,,エイチアンドエム,0
676,3040001061927,登記記録の閉鎖等,0,2023-07-07,2023-06-20,株式会社成和電子,,株式会社,千葉県,旭市,清和甲６１番地,,12,215,2890507,,,2023-06-20,清算の結了等,,,2015-10-05,1,,,,,セイワデンシ,0
686,3040002083755,登記記録の閉鎖等,0,2023-07-07,2023-06-21,有限会社大忠リース,,有限会社,千葉県,香取郡多古町,西古内４６６番地４,,12,347,2892314,,,2023-06-21,清算の結了等,,,2015-10-05,1,,,,,ダイチュウリース,0
689,3050001020337,登記記録の閉鎖等,0,2023-07-07,2023-06-30,株式会社パル,,株式会社,茨城県,鹿嶋市,宮中４丁目５番１２号,,08,222,3140031,,,2023-06-30,清算の結了等,,,2015-10-05,1,,,,,パル,0
706,3070001031679,登記記録の閉鎖等,0,2023-07-07,2023-07-03,株式会社誠幸工業,,株式会社,群馬県,伊勢崎市,曲沢町１５２８－１,,10,204,3792203,,,2023-07-03,清算の結了等,,,2015-12-18,1,,,,,,0
726,3100002009456,登記記録の閉鎖等,0,2023-07-07,2023-06-30,有限会社瀧澤精工,,有限会社,長野県,千曲市,大字八幡３８６２番地ロ,,20,218,3870023,,,2023-06-30,清算の結了等,,,2015-10-05,1,,,,,タキザワセイコウ,0
746,3120002081569,登記記録の閉鎖等,0,2023-07-07,2023-07-03,有限会社正岡事務所,,有限会社,大阪府,守口市,藤田町５丁目１６番４号,,27,209,5700014,,,2023-07-03,清算の結了等,,,2015-10-05,1,,,,,マサオカジムショ,0
757,3140001008075,登記記録の閉鎖等,0,2023-07-07,2023-06-29,三和汽船株式会社,,株式会社,兵庫県,神戸市中央区,磯辺通２丁目２番１６号,,28,110,6510084,,,2023-06-29,清算の結了等,,,2015-10-05,1,,,,,サンワキセン,0
759,3140001050457,登記記録の閉鎖等,0,2023-07-07,2023-06-29,株式会社ナニワ造花,,株式会社,兵庫県,尼崎市,東難波町５丁目２番２６号,,28,202,6600892,,,2023-06-29,清算の結了等,,,2015-10-05,1,,,,,ナニワゾウカ,0
765,3140002025103,登記記録の閉鎖等,0,2023-07-07,2023-06-27,有限会社明光産業,,有限会社,兵庫県,神戸市西区,櫨谷町寺谷字櫨谷１２４２番地の１１８,,28,111,6512231,,,2023-06-27,清算の結了等,,,2015-10-05,1,,,,,メイコウサンギョウ,0
774,3180002000135,登記記録の閉鎖等,0,2023-07-07,2023-06-30,有限会社伊藤商店,,有限会社,愛知県,名古屋市守山区,原境町１１０９番地,,23,113,4630038,,,2023-06-30,清算の結了等,,,2015-10-05,1,,,,,イトウショウテン,0
775,3180002002354,登記記録の閉鎖等,0,2023-07-07,2023-06-30,有限会社システムパル,,有限会社,愛知県,名古屋市天白区,鴻の巣１丁目１５０６番地の２,,23,116,4680003,,,2023-06-30,清算の結了等,,,2015-10-05,1,,,,,システムパル,0
779,3180005008357,登記記録の閉鎖等,0,2023-07-07,2023-07-03,特定非営利活動法人けやきフォーラム,,その他の設立登記法人,愛知県,春日井市,高蔵寺町５丁目７番地の２,,23,206,4870013,,,2023-07-03,清算の結了等,,,2015-10-05,1,,,,,ケヤキフォーラム,0
787,3200001006279,登記記録の閉鎖等,0,2023-07-07,2023-06-21,株式会社ソーマス岐阜,,株式会社,岐阜県,岐阜市,松屋町２３番地,,21,201,5008084,,,2023-06-21,合併による解散等,6200001002886,令和５年６月２１日岐阜市松屋町２３番地創建設計株式会社（6200001002886）に合併し解散,2015-10-05,1,,,,,ソーマスギフ,0
795,3210001001915,登記記録の閉鎖等,0,2023-07-07,2023-06-29,株式会社鈴木合繊織物工場,,株式会社,福井県,吉田郡永平寺町,清水５号５番地１,,18,322,9101312,,,2023-06-29,清算の結了等,,,2015-10-05,1,,,,,スズキゴウセンオリモノコウジョウ,0
796,3210001016054,登記記録の閉鎖等,0,2023-07-07,2023-06-27,ウィンズ企画株式会社,,株式会社,福井県,福井市,高木中央１丁目２６０９番地４,,18,201,9100804,,,2023-06-27,清算の結了等,,,2015-10-05,1,,,,,ウィンズキカク,0
820,3290002021062,登記記録の閉鎖等,0,2023-07-07,2023-06-28,有限会社更生電設,,有限会社,福岡県,福岡市城南区,片江２丁目３番１８号,,40,136,8140142,,,2023-06-28,清算の結了等,,,2015-10-05,1,,,,,コウセイデンセツ,0
833,3320002021083,登記記録の閉鎖等,0,2023-07-07,2023-07-03,有限会社平和物産,,有限会社,大分県,中津市,大字大貞３７１番地,,44,203,8710153,,,2023-07-03,清算の結了等,,,2015-10-05,1,,,,,,0
850,3380001016558,登記記録の閉鎖等,0,2023-07-07,2023-06-30,西武開発工業株式会社,,株式会社,福島県,双葉郡広野町,大字下北迫字苗代替３３番地３,,07,541,9790402,,,2023-06-30,清算の結了等,,,2015-10-05,1,,,,,セイブカイハツコウギョウ,0
863,3410002007643,登記記録の閉鎖等,0,2023-07-07,2023-06-29,有限会社大山商店,,有限会社,秋田県,湯沢市,倉内字布川１５番地１,,05,207,0120015,,,2023-06-29,清算の結了等,,,2015-10-05,1,,,,,オオヤマショウテン,0
882,3500002020158,登記記録の閉鎖等,0,2023-07-07,2023-07-05,相原電機有限会社,,有限会社,愛媛県,今治市,大三島町宮浦５１２６番地,,38,202,7941304,,,2023-07-05,清算の結了等,,,2015-10-05,1,,,,,アイバラデンキ,0
901,4010401070562,登記記録の閉鎖等,0,2023-07-07,2023-06-21,株式会社プラティア,,株式会社,東京都,港区,六本木３丁目７番１－１９０７号,,13,103,1060032,,,2023-06-21,清算の結了等,,,2015-10-05,1,,,,,,0
919,4010801023582,登記記録の閉鎖等,0,2023-07-07,2023-07-03,カセットエンジニアリング株式会社,,株式会社,東京都,大田区,大森西３丁目１２番８号,,13,111,1430015,,,2023-07-03,合併による解散等,6010801002493,令和５年７月１日東京都大田区大森北一丁目２９番１０－２０３号カセットエンジニアリング株式会社（6010801002493）に合併し解散,2015-10-05,1,,,,,カセットエンジニアリング,0
938,4011103006417,登記記録の閉鎖等,0,2023-07-07,2023-07-03,Ｓｐｒｉｎｇ合同会社,,合同会社,東京都,荒川区,町屋３丁目２３－１８東和ビル,,13,118,1160001,,,2023-07-03,清算の結了等,,,2016-07-26,1,,,,,スプリング,0
941,4011105009970,登記記録の閉鎖等,0,2023-07-07,2023-07-04,特定目的会社ジェイ・ヴイ・ゼッド,,その他の設立登記法人,東京都,新宿区,下宮比町１番４号,,13,104,1620822,,,2023-07-04,清算の結了等,,,2021-09-13,1,,,,,ジェイヴイゼッド,0
950,4011801032986,登記記録の閉鎖等,0,2023-07-07,2023-06-21,Ｂ＆Ｋアリーズ株式会社,,株式会社,千葉県,千葉市中央区,市場町４－８オーシャンビル,,12,101,2600855,,,2023-06-21,清算の結了等,,,2017-03-06,1,,,,,ビアンドケアリーズ,0
982,4030001075968,登記記録の閉鎖等,0,2023-07-07,2023-07-04,株式会社田村工務店,,株式会社,埼玉県,川口市,西青木１丁目１１番１８号,,11,203,3320035,,,2023-07-04,合併による解散等,2030001094565,令和５年７月１日東京都新宿区西新宿一丁目２５番１号新宿センタービル３２階株式会社ＭＡＩ（2030001094565）に合併し解散,2015-10-05,1,,,,,タムラコウムテン,0
990,4030005012199,登記記録の閉鎖等,0,2023-07-07,2023-06-23,株式会社安行グリーン,,株式会社,東京都,港区,虎ノ門１丁目１２番９号,,13,103,1050001,,,2023-06-23,清算の結了等,,,2015-10-05,1,,,,,アンギョウグリーン,0
1035,4100002022086,登記記録の閉鎖等,0,2023-07-07,2023-06-30,有限会社吉家建築,,有限会社,長野県,松本市,大字神林２６６番地３,,20,202,3901243,,,2023-06-30,清算の結了等,,,2015-10-05,1,,,,,ヨシイエケンチク,0
1053,4120105008311,登記記録の閉鎖等,0,2023-07-07,2023-07-04,特定非営利活動法人関西ふれあいワールドダンス連盟,,その他の設立登記法人,大阪府,堺市西区,津久野町３丁２７番６５号,,27,144,5938322,,,2023-07-04,清算の結了等,,,2015-10-05,1,,,,,カンサイフレアイワールドダンスレンメイ,0
1059,4130005000813,登記記録の閉鎖等,0,2023-07-07,2023-06-22,天理教治京分教会,,その他の設立登記法人,京都府,京都市左京区,浄土寺下馬場町８９番地,,26,103,6068413,,,2023-06-22,合併による解散等,8150005000510,令和５年６月２１日奈良市今市町２８５番地の１天理教治道大教会（8150005000510）に合併し解散,2015-10-05,1,,,,,テンリキョウハルキョウブンキョウカイ,0
1063,4140001063524,登記記録の閉鎖等,0,2023-07-07,2023-06-29,ナカイ営研株式会社,,株式会社,兵庫県,姫路市,古二階町７７番地－１４０３,,28,201,6700936,,,2023-06-29,清算の結了等,,,2015-10-05,1,,,,,ナカイエイケン,0
1064,4140001071717,登記記録の閉鎖等,0,2023-07-07,2023-07-03,株式会社アルファーロジ,,株式会社,兵庫県,西宮市,鳴尾浜３丁目７番１１,,28,204,6638142,,,2023-07-03,合併による解散等,9140001129683,令和５年７月３日兵庫県芦屋市海洋町５番２７号コンフォート株式会社（9140001129683）に合併し解散,2015-10-05,1,,,,,アルファーロジ,0
1095,4290801010314,登記記録の閉鎖等,0,2023-07-07,2023-07-03,株式会社テンビルド,,株式会社,福岡県,北九州市八幡西区,青山３丁目１８番３０号,,40,109,8060043,,,2023-07-03,清算の結了等,,,2015-10-05,1,,,,,テンビルド,0
1122,4390002003792,登記記録の閉鎖等,0,2023-07-07,2023-06-30,有限会社カンキョークリエイト,,有限会社,山形県,山形市,十日町１丁目７番２８号,,06,201,9900031,,,2023-06-30,清算の結了等,,,2015-10-05,1,,,,,カンキョークリエイト,0
1180,5011001122307,登記記録の閉鎖等,0,2023-07-07,2023-06-30,株式会社ＣＡ　Ｒｅｔａｉｌ　Ｍａｒｋｅｔｉｎｇ,,株式会社,東京都,渋谷区,渋谷２丁目２４－１２,,13,113,1500002,,,2023-06-30,清算の結了等,,,2018-05-23,1,,,,,シーエーリテールマーケティング,0
1189,5011101085247,登記記録の閉鎖等,0,2023-07-07,2023-07-03,株式会社エフ・エイチ・オペレーションサービス,,株式会社,大阪府,堺市西区,太平寺６９５番地１,,27,144,5938314,,,2023-07-03,合併による解散等,3180001090284,令和５年７月１日大阪府堺市西区太平寺６９５番地１株式会社フェーバリット実業（3180001090284）に合併し解散,2018-08-31,1,,,,,エフエイチオペレーションサービス,0
1193,5011102007530,登記記録の閉鎖等,0,2023-07-07,2023-06-30,有限会社大雅建築コンサルタント,,有限会社,東京都,新宿区,百人町１丁目１３番２７－２０１号,,13,104,1690073,,,2023-06-30,清算の結了等,,,2015-10-05,1,,,,,タイガケンチクコンサルタント,0
1198,5011302006043,登記記録の閉鎖等,0,2023-07-07,2023-07-05,有限会社円谷硝子建材,,有限会社,東京都,杉並区,高円寺南５丁目１７番３号,,13,115,1660003,,,2023-07-05,清算の結了等,,,2015-10-05,1,,,,,,0
1201,5011502010588,登記記録の閉鎖等,0,2023-07-07,2023-07-03,有限会社ビーフ・カムラ,,有限会社,東京都,荒川区,東尾久３丁目２６番５－６０２号,,13,118,1160012,,,2023-07-03,清算の結了等,,,2015-10-05,1,,,,,,0
1202,5011601018144,登記記録の閉鎖等,0,2023-07-07,2023-07-03,中村建設株式会社,,株式会社,東京都,品川区,大崎３丁目５番３号,,13,109,1410032,,,2023-07-03,清算の結了等,,,2015-10-05,1,,,,,ナカムラケンセツ,0
1209,5012401030339,登記記録の閉鎖等,0,2023-07-07,2023-07-05,株式会社Ｊ－ｐｒｏｊｅｃｔ,,株式会社,東京都,練馬区,石神井町５丁目２０番２０号,,13,120,1770041,,,2023-07-05,合併による解散等,4011201002598,令和５年７月１日東京都中野区中野五丁目５番３号株式会社Ｊ‐ｐｒｏｊｅｃｔ（4011201002598）に合併し解散,2015-10-05,1,,,,,ジェープロジェクト,0
1210,5012401033630,登記記録の閉鎖等,0,2023-07-07,2023-07-03,フュエルパワーズ株式会社,,株式会社,東京都,多摩市,貝取２丁目１０番地５－４０３,,13,224,2060012,,,2023-07-03,清算の結了等,,,2018-02-02,1,,,,,フュエルパワーズ,0
1216,5013401002369,登記記録の閉鎖等,0,2023-07-07,2023-07-03,株式会社エナジー,,株式会社,東京都,稲城市,大丸２９８番地の１ハピネス本館１０５,,13,225,2060801,,,2023-07-03,清算の結了等,,,2015-10-05,1,,,,,エナジー,0
1217,5013402000900,登記記録の閉鎖等,0,2023-07-07,2023-06-30,有限会社高野電気工事,00059509,有限会社,東京都,日野市,南平８丁目１２番地の８３,,13,212,1910041,,,2023-06-30,清算の結了等,,,2015-10-05,1,,,,,タカノデンキコウジ,0
1218,5020001055045,登記記録の閉鎖等,0,2023-07-07,2023-06-29,株式会社ゴイト,,株式会社,神奈川県,横浜市港北区,新横浜２丁目１４番４号,,14,109,2220033,,,2023-06-29,清算の結了等,,,2015-10-05,1,,,,,ゴイト,0
1233,5030001132900,登記記録の閉鎖等,0,2023-07-07,2023-07-04,まいすまい株式会社,,株式会社,埼玉県,久喜市,上町３番４号,,11,232,3460006,,,2023-07-04,合併による解散等,2030001032649,令和５年７月１日東京都千代田区丸の内一丁目８番３号丸の内トラストタワー本館株式会社ヒノキヤグループ（2030001032649）に合併し解散,2019-09-17,1,,,,,マイスマイ,0
1247,5040003010467,登記記録の閉鎖等,0,2023-07-07,2023-06-20,合同会社グローバルパテントサービス,,合同会社,千葉県,浦安市,高洲６丁目１番４号,,12,227,2790023,,,2023-06-20,清算の結了等,,,2017-08-17,1,,,,,グローバルパテントサービス,0
1257,5070001017387,登記記録の閉鎖等,0,2023-07-07,2023-07-04,ビギン株式会社,,株式会社,群馬県,桐生市,広沢町４丁目２４０７番地３,,10,203,3760013,,,2023-07-04,清算の結了等,,,2015-10-05,1,,,,,ビギン,0
1262,5080002013839,登記記録の閉鎖等,0,2023-07-07,2023-07-03,有限会社二宮精機,,有限会社,静岡県,島田市,大柳３３６番地の６,,22,209,4270101,,,2023-07-03,清算の結了等,,,2015-10-05,1,,,,,ニノミヤセイキ,0
1266,5080403004296,登記記録の閉鎖等,0,2023-07-07,2023-07-03,合同会社エーアイワークス,,合同会社,静岡県,磐田市,西島３６７－２９,,22,211,4380022,,,2023-07-03,清算の結了等,,,2021-06-16,1,,,,,エーアイワークス,0
1273,5120001036530,登記記録の閉鎖等,0,2023-07-07,2023-07-03,株式会社丸和,,株式会社,大阪府,大阪市福島区,吉野４丁目２６番３号,,27,103,5530006,,,2023-07-03,清算の結了等,,,2015-10-05,1,,,,,マルワ,0
1278,5120002019526,登記記録の閉鎖等,0,2023-07-07,2023-07-03,有限会社いよや荘,,有限会社,大阪府,大阪市浪速区,下寺３丁目３番２６号,,27,111,5560001,,,2023-07-03,合併による解散等,4120002019527,令和５年７月１日大阪市浪速区下寺三丁目３番１０号株式会社井上ビル（4120002019527）に合併し解散,2015-10-05,1,,,,,イヨヤソウ,0
1294,5140001088826,登記記録の閉鎖等,0,2023-07-07,2023-06-28,株式会社我流工房,,株式会社,兵庫県,加古川市,加古川町稲屋９２４番地の１,,28,210,6750034,,,2023-06-28,清算の結了等,,,2015-10-05,1,,,,,ガリュウコウボウ,0
1298,5140002005920,登記記録の閉鎖等,0,2023-07-07,2023-06-30,有限会社コウベオイルサービス,,有限会社,兵庫県,神戸市垂水区,下畑町字東松山１８７７番地の３７,,28,108,6550861,,,2023-06-30,清算の結了等,,,2015-10-05,1,,,,,コウベオイルサービス,0
1314,5190002017317,登記記録の閉鎖等,0,2023-07-07,2023-06-30,有限会社ヤヨイ,,有限会社,三重県,桑名市,大山田１丁目８番地の１,,24,205,5110903,,,2023-06-30,清算の結了等,,,2015-10-05,1,,,,,ヤヨイ,0
1323,5230005005446,登記記録の閉鎖等,0,2023-07-07,2023-07-03,砺波魚商業協同組合,,その他の設立登記法人,富山県,砺波市,五郎丸２１７番地１,,16,208,9391327,,,2023-07-03,清算の結了等,,,2015-10-05,1,,,,,トナミウオショウギョウ,0
1340,5290801028363,登記記録の閉鎖等,0,2023-07-07,2023-06-30,株式会社ＷＥＬＬＮＥＳＳ　ＥＡＳＴ,,株式会社,福岡県,北九州市小倉北区,京町３丁目７番１－１３０２号,,40,106,8020002,,,2023-06-30,清算の結了等,,,2022-03-23,1,,,,,ウェルネスイースト,0
1355,5370001011921,登記記録の閉鎖等,0,2023-07-07,2023-07-03,ＭＩソリューションズ株式会社,,株式会社,宮城県,仙台市青葉区,五橋１丁目６番６号五橋ビル８階,,04,101,9800022,,,2023-07-03,合併による解散等,7370001002241,令和５年７月１日仙台市太白区西中田三丁目２０番７号丸木医科器械株式会社（7370001002241）に合併し解散,2015-10-05,1,,,,,エムアイソリューソンズ,0
1408,6010401104161,登記記録の閉鎖等,0,2023-07-07,2023-06-22,株式会社アニマルメディカ,,株式会社,東京都,港区,虎ノ門１丁目１２番１５号,,13,103,1050001,,,2023-06-22,清算の結了等,,,2015-10-05,1,,,,,アニマルメディカ,0
1410,6010401144158,登記記録の閉鎖等,0,2023-07-07,2023-06-21,株式会社菊屋プラニング,,株式会社,東京都,港区,南青山２丁目２番１５号ウィン青山１３０２,,13,103,1070062,,,2023-06-21,清算の結了等,,,2019-03-06,1,,,,,キクヤプラニング,0
1418,6010405018829,登記記録の閉鎖等,0,2023-07-07,2023-06-23,一般社団法人Ｐｏｒｔ　Ｐｈｉｌｌｉｐ,,その他の設立登記法人,東京都,港区,虎ノ門５丁目１番４号,,13,103,1050001,,,2023-06-23,清算の結了等,,,2020-06-15,1,,,,,ポートフィリップ,0
1427,6010801006040,登記記録の閉鎖等,0,2023-07-07,2023-07-03,株式会社生研,,株式会社,東京都,大田区,南千束１丁目１０番１号,,13,111,1450063,,,2023-07-03,清算の結了等,,,2015-10-05,1,,,,,セイケン,0
1428,6010801014002,登記記録の閉鎖等,0,2023-07-07,2023-06-30,株式会社ＫＡＮＤＯ,,株式会社,東京都,大田区,池上５丁目１４番２号,,13,111,1460082,,,2023-06-30,清算の結了等,,,2015-10-05,1,,,,,カンドウ,0
1457,6011802007993,登記記録の閉鎖等,0,2023-07-07,2023-06-26,有限会社谷部建築士事務所,,有限会社,東京都,葛飾区,堀切４丁目２８番２号,,13,122,1240006,,,2023-06-26,清算の結了等,,,2015-10-05,1,,,,,,0
1468,6013202003111,登記記録の閉鎖等,0,2023-07-07,2023-07-03,ジェネラルリサーチ有限会社,,有限会社,東京都,目黒区,青葉台１丁目１４番１１号,,13,110,1530042,,,2023-07-03,合併による解散等,1013202007918,令和５年７月１日東京都目黒区青葉台一丁目２９番６号ライオンズマンション中目黒２０４セット株式会社（1013202007918）に合併し解散,2015-10-05,1,,,,,ジェネラルリサーチ,0
1469,6013301032894,登記記録の閉鎖等,0,2023-07-07,2023-07-03,ソリッドスフィア株式会社,,株式会社,東京都,渋谷区,渋谷２丁目６番１２号ベルデ青山２Ｆ,,13,113,1500002,,,2023-07-03,合併による解散等,1011001048489,令和５年７月１日東京都渋谷区渋谷二丁目６番１２号株式会社アイスリーデザイン（1011001048489）に合併し解散,2015-10-05,1,,,,,ソリッドスフィア,0
1480,6021002058671,登記記録の閉鎖等,0,2023-07-07,2023-06-30,有限会社タカヒロ商店,,有限会社,神奈川県,平塚市,横内２０２０番地の７,,14,203,2540002,,,2023-06-30,清算の結了等,,,2015-10-05,1,,,,,タカヒロショウテン,0
1496,6040002066682,登記記録の閉鎖等,0,2023-07-07,2023-06-19,有限会社児玉鉄工,,有限会社,千葉県,木更津市,東太田２丁目１１番１６号,,12,206,2920043,,,2023-06-19,清算の結了等,,,2015-10-05,1,,,,,コダマテッコウ,0
1507,6050002010615,登記記録の閉鎖等,0,2023-07-07,2023-06-29,有限会社野口建材,,有限会社,茨城県,笠間市,下郷１６１５番地,,08,216,3190202,,,2023-06-29,清算の結了等,,,2015-10-05,1,,,,,,0
1522,6080002010182,登記記録の閉鎖等,0,2023-07-07,2023-07-03,有限会社清水マリンクラフト,,有限会社,静岡県,静岡市清水区,三保９１２番地の６,,22,103,4240901,,,2023-07-03,清算の結了等,,,2015-10-05,1,,,,,シミズマリンクラフト,0
1531,6100001027951,登記記録の閉鎖等,0,2023-07-07,2023-06-30,株式会社石田商会,,株式会社,長野県,長野市,大字吉１５７６番地１,,20,201,3810088,,,2023-06-30,清算の結了等,,,2015-10-05,1,,,,,イシダショウカイ,0
1541,6120001204747,登記記録の閉鎖等,0,2023-07-07,2023-07-03,シオノギファーマコビジランスセンター株式会社,,株式会社,大阪府,大阪市中央区,道修町４丁目７番６号,,27,128,5410045,,,2023-07-03,合併による解散等,8120001204745,令和５年７月３日大阪市中央区道修町四丁目７番６号シオノギビジネスパートナー株式会社（8120001204745）に合併し解散,2017-04-12,1,,,,,シオノギファーマコビジランスセンター,0
1548,6120005021569,登記記録の閉鎖等,0,2023-07-07,2023-07-03,一般社団法人はろとくわ,,その他の設立登記法人,大阪府,大阪市北区,西天満３丁目１０番３号ＡＲＫ西天満ビル５階,,27,127,5300047,,,2023-07-03,清算の結了等,,,2020-04-24,1,,,,,ハロトクワ,0
1550,6120101051544,登記記録の閉鎖等,0,2023-07-07,2023-07-03,株式会社谷上元朗事務所,,株式会社,大阪府,和泉市,上代町７４８番地の１,,27,219,5940011,,,2023-07-03,合併による解散等,7120101056006,令和５年７月１日大阪府和泉市上代町７４８番地の１株式会社谷上工務店（7120101056006）に合併し解散,2015-10-05,1,,,,,タニウエモトアキジムショ,0
1558,6122002001529,登記記録の閉鎖等,0,2023-07-07,2023-07-05,有限会社菊沢電器,,有限会社,大阪府,東大阪市,松原１丁目１７番８号,,27,227,5780922,,,2023-07-05,清算の結了等,,,2015-10-05,1,,,,,キクサワデンキ,0
1570,6140002032006,登記記録の閉鎖等,0,2023-07-07,2023-06-29,富士化成工業有限会社,,有限会社,兵庫県,たつの市,誉田町福田４９５番地,,28,229,6794132,,,2023-06-29,清算の結了等,,,2015-10-05,1,,,,,フジカセイコウギョウ,0
1572,6140005019116,登記記録の閉鎖等,0,2023-07-07,2023-06-29,特定非営利活動法人障がい者みんなの会トライアングル,,その他の設立登記法人,兵庫県,伊丹市,昆陽北１丁目２番６号,,28,207,6640016,,,2023-06-29,清算の結了等,,,2015-10-05,1,,,,,ショウガイシャミンナノカイトライアングル,0
1573,6150001005837,登記記録の閉鎖等,0,2023-07-07,2023-07-03,大阪南本町商事株式会社,,株式会社,大阪府,大阪市中央区,南本町１丁目４番１０号ＳｔｏＲＫ・ＢＬＤＧ９階,,27,128,5410054,,,2023-07-03,清算の結了等,,,2015-10-05,1,,,,,オオサカミナミホンマチショウジ,0
1601,6230001016594,登記記録の閉鎖等,0,2023-07-07,2023-06-28,フリー株式会社,,株式会社,東京都,千代田区,永田町２丁目１０番３号,,13,101,1000014,,,2023-06-28,清算の結了等,,,2016-08-17,1,,,,,フリー,0
1604,6240002024769,登記記録の閉鎖等,0,2023-07-07,2023-06-30,有限会社フジモリ,,有限会社,広島県,広島市安佐南区,川内１丁目２０番３３号,,34,105,7310102,,,2023-06-30,清算の結了等,,,2015-10-05,1,,,,,フジモリ,0
1606,6250001003178,登記記録の閉鎖等,0,2023-07-07,2023-06-27,光和電気設備株式会社,,株式会社,山口県,宇部市,中村１丁目７番１６号,,35,202,7550072,,,2023-06-27,清算の結了等,,,2015-10-05,1,,,,,コウワデンキセツビ,0
1607,6250002008787,登記記録の閉鎖等,0,2023-07-07,2023-06-27,有限会社共立調剤薬局,,有限会社,山口県,下関市,山の田南町１番５号,,35,201,7510835,,,2023-06-27,清算の結了等,,,2015-10-05,1,,,,,キョウリツチョウザイヤッキョク,0
1619,6290003005251,登記記録の閉鎖等,0,2023-07-07,2023-06-28,合同会社アクティーブ,,合同会社,福岡県,三井郡大刀洗町,大字山隈１４８４番地５,,40,503,8301226,,,2023-06-28,清算の結了等,,,2015-10-05,1,,,,,,0
1621,6290005006982,登記記録の閉鎖等,0,2023-07-07,2023-06-27,特定非営利活動法人大野城市ひとり親家庭サポートくらぶ,,その他の設立登記法人,福岡県,大野城市,曙町２丁目３番２号大野城市総合福祉センター内,00093913,40,219,8160934,,,2023-06-27,清算の結了等,,,2015-10-05,1,,,,,オオノジョウシヒトリオヤカテイサポートクラブ,0
1637,6370602002021,登記記録の閉鎖等,0,2023-07-07,2023-07-03,有限会社利府工務店,,有限会社,宮城県,宮城郡利府町,加瀬字二本木５３番地の２,,04,406,9810111,,,2023-07-03,清算の結了等,,,2015-10-05,1,,,,,リフコウムテン,0
1639,6380001021373,登記記録の閉鎖等,0,2023-07-07,2023-06-30,株式会社一光,,株式会社,福島県,いわき市,久之浜町西２丁目２番地の２４,,07,204,9790334,,,2023-06-30,清算の結了等,,,2015-10-05,1,,,,,イッコウ,0
1642,6380002023872,登記記録の閉鎖等,0,2023-07-07,2023-06-30,有限会社サントラベルいわき,,有限会社,福島県,いわき市,郷ケ丘２丁目５３番地の１３,,07,204,9708045,,,2023-06-30,清算の結了等,,,2015-10-05,1,,,,,サントラベルイワキ,0
1645,6390005008044,登記記録の閉鎖等,0,2023-07-07,2023-06-07,特定非営利活動法人山形ユナイテッドアスリートクラブ,,その他の設立登記法人,山形県,山形市,松波１丁目７番２５号,,06,201,9900023,,,2023-06-07,合併による解散等,4390005008483,令和５年６月７日山形市飯田三丁目２番１２号特定非営利活動法人プチユナイテッドアスリートクラブ（4390005008483）に合併し解散,2015-10-05,1,,,,,ヤマガタユナイテッドアスリートクラブ,0
1650,6410002006246,登記記録の閉鎖等,0,2023-07-07,2023-06-30,東洋ビルサービス有限会社,,有限会社,秋田県,男鹿市,船川港台島字浜平２１番地,,05,206,0100531,,,2023-06-30,清算の結了等,,,2015-10-05,1,,,,,トウヨウビルサービス,0
1655,6430002061033,登記記録の閉鎖等,0,2023-07-07,2023-06-21,有限会社田中畜産家畜人工授精所,,有限会社,北海道,勇払郡安平町,早来富岡３１６番地の９,,01,585,0591434,,,2023-06-21,清算の結了等,,,2015-10-05,1,,,,,タナカチクサンカチクジンコウジュセイショ,0
1660,6440002001194,登記記録の閉鎖等,0,2023-07-07,2023-07-03,有限会社木古内ツバメ商事,,有限会社,北海道,函館市,梁川町６－１１ワザック函館・五稜郭ミヤビコート２０３,,01,202,0400015,,,2023-07-03,清算の結了等,,,2015-10-05,1,,,,,キコナイツバメショウジ,0
1661,6440005001431,登記記録の閉鎖等,0,2023-07-07,2023-07-03,特定非営利活動法人もみの木・函館,,その他の設立登記法人,北海道,函館市,美原１丁目１５番１０号,,01,202,0410806,,,2023-07-03,清算の結了等,,,2015-10-05,1,,,,,モミノキハコダテ,0
1685,7010005020201,登記記録の閉鎖等,0,2023-07-07,2023-06-30,ＨＫＲＪ　Ｇｒａｐｈｉｏ一般社団法人,,その他の設立登記法人,東京都,中央区,銀座１丁目６番１１号土志田ビルディング３階,,13,102,1040061,,,2023-06-30,清算の結了等,,,2015-10-05,1,,,,,エイチケーアールジェイグラフィオ,0
1726,7011001143292,登記記録の閉鎖等,0,2023-07-07,2023-07-03,株式会社Ｍａｎｇｉ,,株式会社,東京都,目黒区,中目黒１丁目１０番２５号,,13,110,1530061,,,2023-07-03,清算の結了等,,,2021-10-07,1,,,,,マンギ,0
1738,7011701013737,登記記録の閉鎖等,0,2023-07-07,2023-07-04,株式会社スカイボート,,株式会社,東京都,江戸川区,南篠崎町１丁目３１番８－６０２号,,13,123,1330065,,,2023-07-04,清算の結了等,,,2015-10-05,1,,,,,スカイボート,0
1751,7013301049236,登記記録の閉鎖等,0,2023-07-07,2023-06-30,株式会社ＲｅＣＣｏ,,株式会社,東京都,豊島区,東池袋１丁目３４番５号いちご東池袋ビル６階,,13,116,1700013,,,2023-06-30,清算の結了等,,,2022-06-14,1,,,,,レッコ,0
1752,7013303000097,登記記録の閉鎖等,0,2023-07-07,2023-06-30,合資会社和田大理石工場,,合資会社,東京都,豊島区,目白４丁目３１番２７号,,13,116,1710031,,,2023-06-30,清算の結了等,,,2015-10-05,1,,,,,ワダダイリセキコウジョウ,0
1769,7030001033865,登記記録の閉鎖等,0,2023-07-07,2023-07-04,株式会社桧家リフォーミング,,株式会社,埼玉県,加須市,南小浜５０９番地１,,11,210,3470028,,,2023-07-04,合併による解散等,2030001032649,令和５年７月１日東京都千代田区丸の内一丁目８番３号丸の内トラストタワー本館株式会社ヒノキヤグループ（2030001032649）に合併し解散,2015-10-05,1,,,,,ヒノキヤリフォーミング,0
1781,7040001027189,登記記録の閉鎖等,0,2023-07-07,2023-06-19,日本総合企画株式会社,,株式会社,千葉県,市川市,真間１丁目１３番９号,,12,203,2720826,,,2023-06-19,清算の結了等,,,2015-10-05,1,,,,,ニホンソウゴウキカク,0
1783,7040001060735,登記記録の閉鎖等,0,2023-07-07,2023-06-19,株式会社メディア・ビジネス・インターナショナル,,株式会社,千葉県,船橋市,山手３丁目８番２棟２０４号,,12,204,2730045,,,2023-06-19,清算の結了等,,,2015-10-05,1,,,,,メディアビジネスインターナショナル,0
1805,7080401021886,登記記録の閉鎖等,0,2023-07-07,2023-07-03,株式会社アメージング,,株式会社,静岡県,浜松市西区,志都呂２丁目４０番２８号,,22,133,4328069,,,2023-07-03,合併による解散等,5080401023323,令和５年７月１日静岡県浜松市浜北区内野４５６２番地の２株式会社エピック（5080401023323）に合併し解散,2016-12-06,1,,,,,アメージング,0
1823,7120001011192,登記記録の閉鎖等,0,2023-07-07,2023-07-03,株式会社美江,,株式会社,大阪府,大阪市東住吉区,針中野４丁目４番２３号,,27,121,5460011,,,2023-07-03,清算の結了等,,,2015-10-05,1,,,,,ミコウ,0
1824,7120001014170,登記記録の閉鎖等,0,2023-07-07,2023-07-03,株式会社アサヒ,,株式会社,大阪府,大阪市城東区,成育５丁目２２番９号,,27,118,5360007,,,2023-07-03,合併による解散等,2120001014877,令和５年７月１日大阪市城東区成育五丁目２２番９号株式会社サカエ（2120001014877）に合併し解散,2015-10-05,1,,,,,アサヒ,0
1826,7120001130538,登記記録の閉鎖等,0,2023-07-07,2023-06-30,株式会社ジェイズファクトリー,,株式会社,大阪府,大阪市城東区,新喜多１丁目４番４３－３０７号,,27,118,5360015,,,2023-06-30,清算の結了等,,,2015-10-05,1,,,,,,0
1835,7120002074197,登記記録の閉鎖等,0,2023-07-07,2023-06-21,有限会社サイトウ塗装,,有限会社,大阪府,枚方市,長尾家具町４丁目９番地の５,,27,210,5730102,,,2023-06-21,清算の結了等,,,2015-10-05,1,,,,,サイトウトソウ,0
1846,7120101053465,登記記録の閉鎖等,0,2023-07-07,2023-07-03,株式会社いずみ保険事務所,,株式会社,大阪府,泉佐野市,高松北１丁目２－２６－２Ｆ,,27,213,5980011,,,2023-07-03,清算の結了等,,,2015-10-05,1,,,,,イズミホケンジムショ,0
1867,7140001002297,登記記録の閉鎖等,0,2023-07-07,2023-06-30,株式会社花義,,株式会社,兵庫県,神戸市東灘区,甲南町３丁目８番１８号,,28,101,6580084,,,2023-06-30,清算の結了等,,,2015-10-05,1,,,,,ハナヨシ,0
1872,7140002040008,登記記録の閉鎖等,0,2023-07-07,2023-06-30,有限会社岩下商事,,有限会社,兵庫県,尼崎市,上坂部２丁目８番１２号,,28,202,6610979,,,2023-06-30,清算の結了等,,,2015-10-05,1,,,,,イワシタショウジ,0
1873,7140002047597,登記記録の閉鎖等,0,2023-07-07,2023-06-30,有限会社植村海産,,有限会社,兵庫県,姫路市,延末２９５番地姫路市中央卸売市場内,,28,201,6700966,,,2023-06-30,清算の結了等,,,2015-10-05,1,,,,,ウエムラカイサン,0
1874,7140002050857,登記記録の閉鎖等,0,2023-07-07,2023-06-30,有限会社前田商店,,有限会社,兵庫県,姫路市,延末２９５番地姫路中央卸売市場内,,28,201,6700966,,,2023-06-30,清算の結了等,,,2015-10-05,1,,,,,マエダショウテン,0
1892,7180302011621,登記記録の閉鎖等,0,2023-07-07,2023-06-27,有限会社むうら,,有限会社,愛知県,田原市,田原町山口１４番地,,23,231,4413421,,,2023-06-27,清算の結了等,,,2015-10-05,1,,,,,,0
1894,7200001000617,登記記録の閉鎖等,0,2023-07-07,2023-06-21,エンジニアリングホーム株式会社,,株式会社,岐阜県,岐阜市,松屋町２３番地,,21,201,5008084,,,2023-06-21,合併による解散等,6200001002886,令和５年６月２１日岐阜市松屋町２３番地創建設計株式会社（6200001002886）に合併し解散,2015-10-05,1,,,,,エンジニアリングホーム,0
1901,7230002012113,登記記録の閉鎖等,0,2023-07-07,2023-06-29,株式会社マルワハウス,,株式会社,富山県,高岡市,伏木本町６番２５号,,16,202,9330106,,,2023-06-29,清算の結了等,,,2015-10-05,1,,,,,マルワハウス,0
1907,7250001002393,登記記録の閉鎖等,0,2023-07-07,2023-06-26,株式会社コスモ・クイック,,株式会社,山口県,防府市,三田尻３丁目７番３０号,,35,206,7470814,,,2023-06-26,清算の結了等,,,2015-10-05,1,,,,,コスモクイック,0
1933,7290802004411,登記記録の閉鎖等,0,2023-07-07,2023-06-30,有限会社トモヒロ商事,,有限会社,福岡県,北九州市小倉南区,長行東３丁目９番２４号,,40,107,8030273,,,2023-06-30,清算の結了等,,,2015-10-05,1,,,,,トモヒロショウジ,0
1936,7310001016791,登記記録の閉鎖等,0,2023-07-07,2023-06-21,株式会社誠和会,,株式会社,長崎県,西海市,大島町１８７６番地５９,,42,212,8572427,,,2023-06-21,清算の結了等,,,2020-07-21,1,,,,,,0
1949,7350003002464,登記記録の閉鎖等,0,2023-07-07,2023-07-03,合同会社三企画,,合同会社,宮崎県,都城市,小松原町１０号４番地都城ＮＳプラザビル１階,,45,202,8850022,,,2023-07-03,合併による解散等,9350003002347,令和５年７月１日宮崎県都城市小松原町１０号４番地都城ＮＳプラザビル１階合同会社ｏｆｆｉｃｅ　ｎｏｎｏ（9350003002347）に合併し解散,2015-10-05,1,,,,,サンキカク,0
1955,7380001015003,登記記録の閉鎖等,0,2023-07-07,2023-06-30,株式会社タテ建設,,株式会社,福島県,いわき市,勿来町酒井酒井原４１番地の２,,07,204,9790142,,,2023-06-30,清算の結了等,,,2015-10-05,1,,,,,タテケンセツ,0
1958,7390001008220,登記記録の閉鎖等,0,2023-07-07,2023-06-29,株式会社ビルダータカシマ,,株式会社,山形県,東田川郡三川町,大字猪子字大堰端３１７番地１３,,06,426,9971316,,,2023-06-29,清算の結了等,,,2015-10-05,1,,,,,ビルダータカシマ,0
1985,8010001076774,登記記録の閉鎖等,0,2023-07-07,2023-07-03,株式会社ダイヤコンサルタント,,株式会社,東京都,千代田区,神田練塀町３００番地,,13,101,1010022,,,2023-07-03,合併による解散等,8013301006938,令和５年７月１日東京都千代田区神田練塀町３００番地大日本ダイヤコンサルタント株式会社（8013301006938）に合併し解散,2015-10-05,1,,,,,ダイヤコンサルタント,0
2007,8010701024603,登記記録の閉鎖等,0,2023-07-07,2023-07-03,株式会社夢テクノロジー,,株式会社,東京都,千代田区,神田練塀町３００番地,,13,101,1010022,,,2023-07-03,合併による解散等,6010001081198,令和５年７月１日東京都千代田区神田練塀町３００番地株式会社オープンアップＩＴエンジニア（6010001081198）に合併し解散,2015-10-05,1,,,,,ユメテクノロジー,0
2008,8010801019156,登記記録の閉鎖等,0,2023-07-07,2023-07-03,株式会社アンサンブル,,株式会社,東京都,大田区,蒲田５丁目５番７号,,13,111,1440052,,,2023-07-03,清算の結了等,,,2015-10-05,1,,,,,,0
2012,8010901011228,登記記録の閉鎖等,0,2023-07-07,2023-07-04,ＴＤＣアイレック株式会社,,株式会社,東京都,渋谷区,代々木３丁目２２番７号,,13,113,1510053,,,2023-07-04,清算の結了等,,,2015-10-05,1,,,,,ティーディーシーアイレック,0
2014,8010902007844,登記記録の閉鎖等,0,2023-07-07,2023-07-03,有限会社上海工務店,,有限会社,東京都,世田谷区,赤堤５丁目１４番５号,,13,112,1560044,,,2023-07-03,清算の結了等,,,2015-10-05,1,,,,,ワミコウムテン,0
2015,8010902008140,登記記録の閉鎖等,0,2023-07-07,2023-07-04,有限会社鈴木藤一商店,,有限会社,東京都,世田谷区,奥沢６丁目２８番５号,,13,112,1580083,,,2023-07-04,清算の結了等,,,2015-10-05,1,,,,,スズキトウイチショウテン,0
2016,8011001094345,登記記録の閉鎖等,0,2023-07-07,2023-07-03,ＭＢＡ　ＰＡＲＴＮＥＲＳ株式会社,,株式会社,東京都,渋谷区,渋谷３丁目１番９号ＹＡＺＡＷＡビル３階,,13,113,1500002,,,2023-07-03,清算の結了等,,,2015-10-05,1,,,,,エムビーエーパートナーズ,0
2035,8011102023120,登記記録の閉鎖等,0,2023-07-07,2023-07-04,有限会社サカエエンタープライズ,,有限会社,東京都,新宿区,戸山２丁目３３番１１１号,,13,104,1620052,,,2023-07-04,清算の結了等,,,2015-10-05,1,,,,,サカエエンタープライズ,0
2057,8013201018356,登記記録の閉鎖等,0,2023-07-07,2023-07-04,株式会社ＣＥＥＭ,,株式会社,東京都,目黒区,柿の木坂１丁目６番６号,,13,110,1520022,,,2023-07-04,清算の結了等,,,2015-10-05,1,,,,,セーム,0
2125,8120001116412,登記記録の閉鎖等,0,2023-07-07,2023-07-05,株式会社芳泉企画,,株式会社,大阪府,大阪市東淀川区,東淡路１丁目５番２－４４３号,,27,114,5330023,,,2023-07-05,清算の結了等,,,2015-10-05,1,,,,,ホウセンキカク,0
2127,8120001225576,登記記録の閉鎖等,0,2023-07-07,2023-07-05,恵沢商事株式会社,,株式会社,大阪府,大阪市浪速区,恵美須西１丁目２番５号マウンテン・ウエストビル４０６号室,,27,111,5560003,,,2023-07-05,清算の結了等,,,2019-12-12,1,,,,,ケイタクショウジ,0
2149,8140001079764,登記記録の閉鎖等,0,2023-07-07,2023-06-30,株式会社猪名川温泉岩屋館,,株式会社,兵庫県,川西市,久代４丁目６番１３号１０３,,28,217,6660024,,,2023-06-30,清算の結了等,,,2015-10-05,1,,,,,イナガワオンセンイワヤカン,0
2150,8140001084475,登記記録の閉鎖等,0,2023-07-07,2023-06-30,株式会社ＫＯＮＴＥＣＨ,,株式会社,兵庫県,伊丹市,大野２丁目２０６番地,,28,207,6640003,,,2023-06-30,合併による解散等,8140001078304,令和５年６月３０日兵庫県伊丹市大野二丁目２０６番地甲南設計工業株式会社（8140001078304）に合併し解散,2015-10-05,1,,,,,コンテック,0
2154,8140005007077,登記記録の閉鎖等,0,2023-07-07,2023-06-26,天理教岩野邊分教会,00042145,その他の設立登記法人,兵庫県,宍粟市,千種町岩野辺１６１４番地の１,,28,227,6713211,,,2023-06-26,合併による解散等,7120005000349,令和５年６月２１日大阪市住吉区浅香一丁目７番５６号天理教東津分教会（7120005000349）に合併し解散,2015-10-05,1,,,,,,0
2183,8190003001952,登記記録の閉鎖等,0,2023-07-07,2023-06-29,合同会社パールサイエンス三重,,合同会社,三重県,志摩市,阿児町神明７１０番地１６,,24,215,5170502,,,2023-06-29,清算の結了等,,,2015-10-05,1,,,,,パールサイエンスミエ,0
2190,8220005006112,登記記録の閉鎖等,0,2023-07-07,2023-07-03,医療法人社団定梶医院,,その他の設立登記法人,石川県,輪島市,門前町剱地タの２４番地,,17,204,9272342,,,2023-07-03,清算の結了等,,,2015-10-05,1,,,,,ジョウカジイイン,0
2196,8230002007277,登記記録の閉鎖等,0,2023-07-07,2023-06-29,有限会社福田建設工業,,有限会社,富山県,中新川郡立山町,半屋１８５番地,,16,323,9300269,,,2023-06-29,清算の結了等,,,2022-04-21,1,,,,,フクダケンセツコウギョウ,0
2209,8280001005888,登記記録の閉鎖等,0,2023-07-07,2023-06-30,株式会社シマカン,,株式会社,島根県,隠岐郡隠岐の島町,岬町池ケ床５０番地,,32,528,6850021,,,2023-06-30,合併による解散等,3280002010867,令和５年６月１日島根県隠岐郡隠岐の島町下西８１１番地６株式会社オキカン（3280002010867）に合併し解散,2015-10-05,1,,,,,シマカン,0
2227,8370302001288,登記記録の閉鎖等,0,2023-07-07,2023-06-30,有限会社主婦の店さとう,,有限会社,宮城県,石巻市,桃生町中津山字八木１７３番地の１,,04,202,9860313,,,2023-06-30,清算の結了等,,,2015-10-05,1,,,,,シュフノミセサトウ,0
2241,8410002007275,登記記録の閉鎖等,0,2023-07-07,2023-07-03,有限会社ジェイサービス,,有限会社,秋田県,由利本荘市,西目町出戸字浜山７番地９３,,05,210,0180602,,,2023-07-03,清算の結了等,,,2015-10-05,1,,,,,ジェイサービス,0
2247,8450001012693,登記記録の閉鎖等,0,2023-07-07,2023-07-05,株式会社Ｎアシスト,,株式会社,北海道,旭川市,忠和八条４丁目２番２３号,,01,204,0708048,,,2023-07-05,清算の結了等,,,2019-04-03,1,,,,,エヌアシスト,0
2263,9010001174750,登記記録の閉鎖等,0,2023-07-07,2023-06-30,プロシードウィズ株式会社,,株式会社,東京都,目黒区,目黒１丁目４番１６号目黒Ｇビル７Ｆ,,13,110,1530063,,,2023-06-30,清算の結了等,,,2016-04-08,1,,,,,プロシードウィズ,0
2277,9010401000358,登記記録の閉鎖等,0,2023-07-07,2023-06-21,株式会社アイエヌ通信社,,株式会社,東京都,港区,南青山５丁目１２番４号,,13,103,1070062,,,2023-06-21,清算の結了等,,,2015-10-05,1,,,,,,0
2278,9010401041195,登記記録の閉鎖等,0,2023-07-07,2023-07-03,株式会社ＣＯＵＲＡＧＥ,,株式会社,東京都,千代田区,神田司町２丁目６番地アーバンセンター神田司町,,13,101,1010048,,,2023-07-03,合併による解散等,5010601023071,令和５年７月１日東京都千代田区神田司町二丁目６番地アーバンセンター神田司町株式会社ＣＯＵＲＡＧＥ（5010601023071）に合併し解散,2015-10-05,1,,,,,カレィジ,0
2280,9010401120783,登記記録の閉鎖等,0,2023-07-07,2023-06-21,ジャパンベストヘルス株式会社,,株式会社,東京都,港区,新橋４丁目３１番３号,,13,103,1050004,,,2023-06-21,清算の結了等,,,2015-10-05,1,,,,,ジャパンベストヘルス,0
2282,9010401142860,登記記録の閉鎖等,0,2023-07-07,2023-07-03,株式会社青麗,,株式会社,東京都,港区,南青山５丁目６番３号メーゾンブランシュＩＩ,00115345,13,103,1070062,,,2023-07-03,合併による解散等,4010401070645,令和５年７月１日東京都港区六本木六丁目７番９号株式会社シンク・ダイニングシステムズ（4010401070645）に合併し解散,2018-12-28,1,,,,,セイラ,0
2291,9010605002398,登記記録の閉鎖等,0,2023-07-07,2023-06-29,特定非営利活動法人プリタ・インドネシア教育基金,,その他の設立登記法人,東京都,渋谷区,桜丘町１７－１２,,13,113,1500031,,,2023-06-29,清算の結了等,,,2015-10-05,1,,,,,プリタインドネシアキョウイクキキン,0
2339,9013101006071,登記記録の閉鎖等,0,2023-07-07,2023-07-03,ＯＵＭＡ株式会社,,株式会社,東京都,青梅市,友田町５丁目４９６番地の３,,13,205,1980051,,,2023-07-03,清算の結了等,,,2015-10-05,1,,,,,,0
2381,9040003011668,登記記録の閉鎖等,0,2023-07-07,2023-06-16,合同会社ＧＤＣ,,合同会社,千葉県,千葉市稲毛区,園生町１１１３番地４,,12,103,2630051,,,2023-06-16,清算の結了等,,,2018-05-17,1,,,,,ジーディーシー,0
2395,9070002025245,登記記録の閉鎖等,0,2023-07-07,2023-07-04,エポック株式会社,,株式会社,群馬県,桐生市,広沢町４丁目２４０７番地３,,10,203,3760013,,,2023-07-04,清算の結了等,,,2015-10-05,1,,,,,エポック,0
2400,9080102001649,登記記録の閉鎖等,0,2023-07-07,2023-07-03,有限会社システムワーク,,有限会社,静岡県,沼津市,大塚６２番地の３,,22,203,4100306,,,2023-07-03,清算の結了等,,,2015-10-05,1,,,,,システムワーク,0
2401,9080401013675,登記記録の閉鎖等,0,2023-07-07,2023-07-03,株式会社ジャパンサポート,,株式会社,静岡県,浜松市中区,幸５丁目１１番４３号,,22,131,4338123,,,2023-07-03,合併による解散等,3080402015503,令和５年７月１日静岡県浜松市中区幸五丁目１１番４３号株式会社ベストスタッフ（3080402015503）に合併し解散,2015-10-05,1,,,,,ジャパンサポート,0
2420,9120001082190,登記記録の閉鎖等,0,2023-07-07,2023-06-29,株式会社スタッフ,,株式会社,大阪府,大阪市中央区,徳井町２丁目２番９号,,27,128,5400025,,,2023-06-29,清算の結了等,,,2015-10-05,1,,,,,スタッフ,0
2423,9120001140741,登記記録の閉鎖等,0,2023-07-07,2023-07-05,株式会社フィオレ,,株式会社,大阪府,大阪市中央区,鎗屋町２丁目４番５－１５０１号,,27,128,5400027,,,2023-07-05,合併による解散等,6140001084337,令和５年７月４日大阪市中央区南本町一丁目２番６号株式会社フルライフケア（6140001084337）に合併し解散,2015-10-05,1,,,,,フィオレ,0
2460,9150001025527,登記記録の閉鎖等,0,2023-07-07,2023-06-26,株式会社ＬＡＴＥＬ,,株式会社,奈良県,香芝市,瓦口１７３番地４,,29,210,6390225,,,2023-06-26,清算の結了等,,,2022-05-09,1,,,,,ラーテル,0
2483,9230001017359,登記記録の閉鎖等,0,2023-07-07,2023-07-03,株式会社二八,,株式会社,富山県,高岡市,長慶寺１０００番地,,16,202,9330951,,,2023-07-03,合併による解散等,6230001012123,令和５年７月１日富山県高岡市長慶寺１０００番地株式会社二上（6230001012123）に合併し解散,2018-03-22,1,,,,,ニハチ,0
2494,9290001004938,登記記録の閉鎖等,0,2023-07-07,2023-07-03,株式会社ＲＫＢ映画社,,株式会社,福岡県,福岡市早良区,百道浜２丁目３番８号,,40,137,8140001,,,2023-07-03,合併による解散等,6290001004940,令和５年７月１日福岡市早良区百道浜二丁目３番８号株式会社ＲＫＢ　ＣＩＮＣ（6290001004940）に合併し解散,2015-10-05,1,,,,,アールケービーエイガシャ,0
2497,9290001079889,登記記録の閉鎖等,0,2023-07-07,2023-06-27,株式会社コハルト,,株式会社,福岡県,福岡市南区,大橋２丁目１番１号,,40,134,8150033,,,2023-06-27,合併による解散等,8290001091192,令和５年６月１６日福岡市南区大橋二丁目１番１号株式会社クロコス（8290001091192）に合併し解散,2017-12-12,1,,,,,コハルト,0
2530,9380002030453,登記記録の閉鎖等,0,2023-07-07,2023-06-30,有限会社丸光,,有限会社,福島県,双葉郡富岡町,大字小浜字中央２６３番地,,07,543,9791111,,,2023-06-30,清算の結了等,,,2015-10-05,1,,,,,マルコウ,0
2541,9450005002574,登記記録の閉鎖等,0,2023-07-07,2023-06-26,歌登商店街協同組合,,その他の設立登記法人,北海道,枝幸郡枝幸町,歌登西町１１８番地５９,,01,514,0985206,,,2023-06-26,清算の結了等,,,2015-10-05,1,,,,,ウタノボリショウテンガイ,0
2544,9470001015025,登記記録の閉鎖等,0,2023-07-07,2023-06-29,福崎自動車株式会社,00005211,株式会社,香川県,綾歌郡宇多津町,１９７４番地１,,37,386,7690210,,,2023-06-29,清算の結了等,,,2015-10-05,1,,,,,フクザキジドウシャ,0
