sequenceNumber,corporateNumber,process,correct,updateDate,changeDate,name,nameImageId,kind,prefectureName,cityName,streetNumber,addressImageId,prefectureCode,cityCode,postCode,addressOutside,addressOutsideImageId,closeDate,closeCause,successorCorporateNumber,changeCause,assignmentDate,latest,enName,enPrefectureName,enCityName,enAddressOutside,furigana,hihyoji
6,1010001146402,登記記録の閉鎖等,0,2022-10-11,2022-10-03,株式会社ウィズアス,,株式会社,東京都,中央区,銀座７丁目１６番１２号,,13,102,1040061,,,2022-10-03,合併による解散等,1011001017386,令和４年１０月１日東京都中央区銀座七丁目１６番１２号株式会社ニューズベース（1011001017386）に合併し解散,2015-10-05,1,,,,,ウィズアス,0
11,1010001212708,登記記録の閉鎖等,0,2022-10-11,2022-10-03,Ｔｒｉｇｇｅｒ株式会社,,株式会社,東京都,千代田区,岩本町３丁目８番１１号,,13,101,1010032,,,2022-10-03,合併による解散等,8030001100152,令和４年１０月１日東京都千代田区岩本町三丁目８番１１号ＰＡＲＫＷＯＯＤｏｆｆｉｃｅｉｗａｍｏｔｏｃｈｏ２階ＳＯＬＴ株式会社（8030001100152）に合併し解散,2020-10-06,1,,,,,トリガー,0
26,1010505003289,登記記録の閉鎖等,0,2022-10-11,2022-10-05,一般社団法人リスタート,,その他の設立登記法人,東京都,台東区,上野２丁目１２番１８号池之端ヒロハイツ２階,,13,106,1100005,,,2022-10-05,清算の結了等,,,2022-01-17,1,,,,,リスタート,0
32,1010801007902,登記記録の閉鎖等,0,2022-10-11,2022-10-03,東京物流サービス株式会社,,株式会社,東京都,大田区,上池台３丁目１６番１９号,,13,111,1450064,,,2022-10-03,清算の結了等,,,2015-10-05,1,,,,,トウキョウブツリュウサービス,0
48,1011001054140,登記記録の閉鎖等,0,2022-10-11,2022-10-05,株式会社エスシーアイ,,株式会社,東京都,渋谷区,代々木１丁目５７番２号,,13,113,1510053,,,2022-10-05,清算の結了等,,,2015-10-05,1,,,,,,0
79,1011801034432,登記記録の閉鎖等,0,2022-10-11,2022-10-05,株式会社山内興業,,株式会社,東京都,葛飾区,柴又５丁目２７番７号,,13,122,1250052,,,2022-10-05,清算の結了等,,,2018-02-28,1,,,,,,0
83,1012301012267,登記記録の閉鎖等,0,2022-10-11,2022-10-05,株式会社アリス,,株式会社,東京都,町田市,原町田６丁目１０番３号Ｔ’ｓＢｌｄｇ３Ｆ,,13,209,1940013,,,2022-10-05,清算の結了等,,,2020-09-16,1,,,,,アリス,0
108,1020002006802,登記記録の閉鎖等,0,2022-10-11,2022-10-03,有限会社ハラコ内装表具,,有限会社,神奈川県,横浜市都筑区,南山田町４００５番地の４,,14,118,2240026,,,2022-10-03,清算の結了等,,,2015-10-05,1,,,,,ハラコナイソウヒョウグ,0
111,1020002038291,登記記録の閉鎖等,0,2022-10-11,2022-10-03,有限会社佐藤ブロック,,有限会社,神奈川県,横浜市鶴見区,市場西中町１番１５号,,14,101,2300023,,,2022-10-03,清算の結了等,,,2015-10-05,1,,,,,サトウブロック,0
123,1021002071258,登記記録の閉鎖等,0,2022-10-11,2022-10-05,有限会社合葉商店,,有限会社,神奈川県,三浦市,南下浦町上宮田１１１９番地,,14,210,2380101,,,2022-10-05,清算の結了等,,,2015-10-05,1,,,,,,0
140,1040001001208,登記記録の閉鎖等,0,2022-10-11,2022-09-30,オーランドフーズ株式会社,,株式会社,千葉県,千葉市花見川区,犢橋町３６９番地１,,12,102,2620013,,,2022-09-30,清算の結了等,,,2015-10-05,1,,,,,オーランドフーズ,0
143,1040001090944,登記記録の閉鎖等,0,2022-10-11,2022-09-30,日本ビルシステム千葉株式会社,,株式会社,千葉県,千葉市花見川区,幕張町５丁目４１７番地１４８,,12,102,2620032,,,2022-09-30,清算の結了等,,,2015-10-05,1,,,,,ニホンビルシステムチバ,0
171,1110002025660,登記記録の閉鎖等,0,2022-10-11,2022-10-04,有限会社中央開発,,有限会社,新潟県,十日町市,馬場丙１５５７番地１３,,15,210,9498551,,,2022-10-04,清算の結了等,,,2015-10-05,1,,,,,チュウオウカイハツ,0
180,1120001123349,登記記録の閉鎖等,0,2022-10-11,2022-09-28,関西スチールテクノ株式会社,,株式会社,大阪府,大阪市港区,石田３丁目２番４号,,27,107,5520006,,,2022-09-28,合併による解散等,3120001027473,令和４年９月１６日大阪市港区石田三丁目１番５号サトイ金属株式会社（3120001027473）に合併し解散,2015-10-05,1,,,,,カンサイスチールテクノ,0
213,1140001003375,登記記録の閉鎖等,0,2022-10-11,2022-10-03,株式会社壽住宅,,株式会社,兵庫県,神戸市灘区,高徳町３丁目２番２６号,,28,102,6570025,,,2022-10-03,清算の結了等,,,2015-10-05,1,,,,,コトブキジュウタク,0
214,1140001028926,登記記録の閉鎖等,0,2022-10-11,2022-10-03,株式会社フルーレ,,株式会社,兵庫県,神戸市垂水区,本多聞６丁目２５番２５号,,28,108,6550006,,,2022-10-03,清算の結了等,,,2015-10-05,1,,,,,フルーレ,0
229,1160001000916,登記記録の閉鎖等,0,2022-10-11,2022-10-04,株式会社システムオービツト,,株式会社,滋賀県,大津市,大萱１丁目３番１号グレースコーポ２階２号室,,25,201,5202144,,,2022-10-04,清算の結了等,,,2015-10-05,1,,,,,システムオービット,0
234,1170001001582,登記記録の閉鎖等,0,2022-10-11,2022-10-03,株式会社城南建設,,株式会社,和歌山県,和歌山市,西浜９４５番地の１,,30,201,6410036,,,2022-10-03,合併による解散等,9170001010329,令和４年１０月１日和歌山県有田郡有田川町大字吉見６１９番地の１株式会社合同興業（9170001010329）に合併し解散,2015-10-05,1,,,,,ジョウナンケンセツ,0
235,1180001033336,登記記録の閉鎖等,0,2022-10-11,2022-10-04,横井ミシン株式会社,,株式会社,愛知県,名古屋市中村区,名駅５丁目２３番２１号,,23,105,4500002,,,2022-10-04,清算の結了等,,,2015-10-05,1,,,,,ヨコイミシン,0
236,1180001052138,登記記録の閉鎖等,0,2022-10-11,2022-10-04,株式会社ヒカリサイン,,株式会社,愛知県,北名古屋市,熊之庄石原１０８番地,,23,234,4810006,,,2022-10-04,清算の結了等,,,2015-10-05,1,,,,,ヒカリサイン,0
239,1180001117782,登記記録の閉鎖等,0,2022-10-11,2022-10-03,株式会社ヤマサ,,株式会社,愛知県,名古屋市熱田区,桜田町２０番１８号,,23,109,4560004,,,2022-10-03,合併による解散等,9180001022372,令和４年１０月１日名古屋市熱田区桜田町１９番１８号東邦液化ガス株式会社（9180001022372）に合併し解散,2015-10-05,1,,,,,ヤマサ,0
250,1180005012039,登記記録の閉鎖等,0,2022-10-11,2022-09-29,天理教北村分教会,,その他の設立登記法人,愛知県,半田市,栄町４丁目２５３番地,,23,205,4750846,,,2022-09-29,合併による解散等,8180005012742,令和４年９月２９日愛知県知多市新知字美濃川２番地の２天理教新知分教会（8180005012742）に合併し解散,2015-10-05,1,,,,,テンリキョウキタムラブンキョウカイ,0
257,1200001012576,登記記録の閉鎖等,0,2022-10-11,2022-10-04,株式会社ベストパートナーズ,,株式会社,岐阜県,各務原市,那加石山町１丁目１２５番地,,21,213,5040044,,,2022-10-04,清算の結了等,,,2015-10-05,1,,,,,ベストパートナーズ,0
285,1290801015209,登記記録の閉鎖等,0,2022-10-11,2022-10-06,京築印刷株式会社,,株式会社,福岡県,行橋市,南大橋３丁目１５番１９号,,40,213,8240032,,,2022-10-06,清算の結了等,,,2015-10-05,1,,,,,キョウチクインサツ,0
296,1320002013677,登記記録の閉鎖等,0,2022-10-11,2022-10-06,田口建設有限会社,,有限会社,大分県,別府市,原町１１番１５号,,44,202,8740820,,,2022-10-06,清算の結了等,,,2015-10-05,1,,,,,,0
302,1340001016737,登記記録の閉鎖等,0,2022-10-11,2022-10-06,株式会社ＳＴＡＲＢＯＴ,,株式会社,鹿児島県,鹿児島市,西別府町３１１６番地１４５,,46,201,8900033,,,2022-10-06,清算の結了等,,,2015-10-05,1,,,,,スターボット,0
321,1430001012124,登記記録の閉鎖等,0,2022-10-11,2022-09-28,株式会社中島設計コンサルタント,,株式会社,北海道,札幌市白石区,南郷通１４丁目北１番４号,,01,104,0030023,,,2022-09-28,清算の結了等,,,2015-10-05,1,,,,,ナカジマセッケイコンサルタント,0
327,1430005007715,登記記録の閉鎖等,0,2022-10-11,2022-09-30,医療法人社団北川眼科医院,,その他の設立登記法人,北海道,小樽市,稲穂１丁目７番８号,,01,203,0470032,,,2022-09-30,清算の結了等,,,2015-10-05,1,,,,,キタガワガンカイイン,0
338,1500005001719,登記記録の閉鎖等,0,2022-10-11,2022-10-06,医療法人宇山小児科,,その他の設立登記法人,愛媛県,伊予市,灘町２１６番地の１,,38,210,7993114,,,2022-10-06,清算の結了等,,,2015-10-05,1,,,,,ウヤマショウニカ,0
347,2010001124729,登記記録の閉鎖等,0,2022-10-11,2022-10-03,株式会社エース経済研究所,,株式会社,東京都,中央区,日本橋茅場町３丁目２番１２号,,13,102,1030025,,,2022-10-03,清算の結了等,,,2015-10-05,1,,,,,エースケイザイケンキュウショ,0
362,2010401098829,登記記録の閉鎖等,0,2022-10-11,2022-09-20,ＭＵＪ株式会社,,株式会社,東京都,港区,海岸１丁目２番２０号汐留ビルディング３階,,13,103,1050022,,,2022-09-20,清算の結了等,,,2015-10-05,1,,,,,エムユージェイ,0
368,2010501029865,登記記録の閉鎖等,0,2022-10-11,2022-10-06,株式会社キュービック,,株式会社,東京都,港区,芝１丁目１２番７号,,13,103,1050014,,,2022-10-06,合併による解散等,2120001115345,令和４年１０月１日大阪市淀川区西中島七丁目４番１７号株式会社サファリゲームズ（2120001115345）に合併し解散,2015-10-05,1,,,,,キュービック,0
374,2010901049488,登記記録の閉鎖等,0,2022-10-11,2022-10-03,飛巽伝感技術株式会社,,株式会社,東京都,世田谷区,船橋５丁目１２番３２号メゾン・レイＢ棟１０２号室,,13,112,1560055,,,2022-10-03,清算の結了等,,,2021-09-30,1,,,,,ヒソンデンカン,0
404,2011801016553,登記記録の閉鎖等,0,2022-10-11,2022-10-03,アーク・シェアード株式会社,,株式会社,東京都,足立区,竹の塚６丁目８番１５号,,13,121,1210813,,,2022-10-03,合併による解散等,4011801015033,令和４年１０月１日東京都足立区竹の塚六丁目８番１５号Ｓ－Ｐ　ＡＲＫ株式会社（4011801015033）に合併し解散,2015-10-05,1,,,,,アークシェアード,0
413,2013401000796,登記記録の閉鎖等,0,2022-10-11,2022-09-30,西東京民間救急サービス株式会社,,株式会社,東京都,日野市,西平山１丁目１８番地の１４,,13,212,1910055,,,2022-09-30,清算の結了等,,,2015-10-05,1,,,,,ニシトウキョウミンカンキュウキュウサービス,0
429,2021002019363,登記記録の閉鎖等,0,2022-10-11,2022-10-04,有限会社貴藤,,有限会社,神奈川県,相模原市南区,双葉２丁目１０番３号,,14,153,2520316,,,2022-10-04,清算の結了等,,,2015-10-05,1,,,,,タカトウ,0
461,2050001015511,登記記録の閉鎖等,0,2022-10-11,2022-10-03,株式会社ＫＡＳＵＭＩＣ,,株式会社,茨城県,つくば市,桜１丁目２２番地,,08,220,3050003,,,2022-10-03,合併による解散等,2050001000950,令和４年１０月１日茨城県水戸市南町二丁目４番３３号香陵住販株式会社（2050001000950）に合併し解散,2015-10-05,1,,,,,カスミック,0
469,2060003001285,登記記録の閉鎖等,0,2022-10-11,2022-09-28,合同会社くるまや,,合同会社,栃木県,佐野市,浅沼町１１６番地１,,09,204,3270831,,,2022-09-28,清算の結了等,,,2015-10-05,1,,,,,クルマヤ,0
472,2070002018412,登記記録の閉鎖等,0,2022-10-11,2022-10-03,有限会社石川商事,,有限会社,群馬県,伊勢崎市,連取町１２４０番地２,,10,204,3720812,,,2022-10-03,清算の結了等,,,2015-10-05,1,,,,,イシカワショウジ,0
474,2080401001868,登記記録の閉鎖等,0,2022-10-11,2022-10-03,株式会社サカイ総業,,株式会社,静岡県,浜松市東区,和田町６３２番地,,22,132,4350016,,,2022-10-03,合併による解散等,5080401010742,令和４年１０月１日静岡県浜松市東区上西町１３０９番地の２坂井モーター株式会社（5080401010742）に合併し解散,2015-10-05,1,,,,,サカイソウギョウ,0
478,2100002002718,登記記録の閉鎖等,0,2022-10-11,2022-10-04,有限会社総合機工,,有限会社,長野県,長野市,若宮２丁目５番地９,,20,201,3810032,,,2022-10-04,清算の結了等,,,2015-10-05,1,,,,,ソウゴウキコウ,0
480,2100002014390,登記記録の閉鎖等,0,2022-10-11,2022-10-03,有限会社テイ・ケイ・コーポレーション,,有限会社,長野県,上田市,上田原９１０番地１,,20,203,3861102,,,2022-10-03,合併による解散等,6100001010024,令和４年１０月１日長野県上田市上田原９１０番地１東信商事株式会社（6100001010024）に合併し解散,2015-10-05,1,,,,,テイケイコーポレーション,0
507,2120902011799,登記記録の閉鎖等,0,2022-10-11,2022-10-06,有限会社山吹,,有限会社,大阪府,三島郡島本町,江川２丁目１５番１号,,27,301,6180013,,,2022-10-06,清算の結了等,,,2015-10-05,1,,,,,ヤマブキ,0
518,2140001004711,登記記録の閉鎖等,0,2022-10-11,2022-10-03,公平産業株式会社,,株式会社,兵庫県,神戸市西区,神出町小束野３番地,,28,111,6512304,,,2022-10-03,清算の結了等,,,2015-10-05,1,,,,,コウヘイサンギョウ,0
519,2140001045425,登記記録の閉鎖等,0,2022-10-11,2022-09-26,和食技研株式会社,,株式会社,兵庫県,加古川市,上荘町薬栗８９０番地の１,,28,210,6751217,,,2022-09-26,清算の結了等,,,2015-10-05,1,,,,,ワジキギケン,0
525,2140002069357,登記記録の閉鎖等,0,2022-10-11,2022-10-03,砂河木材有限会社,,有限会社,兵庫県,淡路市,尾崎１６５９番地,,28,226,6561501,,,2022-10-03,清算の結了等,,,2015-10-05,1,,,,,イサガワモクザイ,0
531,2160003000582,登記記録の閉鎖等,0,2022-10-11,2022-10-04,合同会社トレスバイオ技研,,合同会社,滋賀県,彦根市,西今町６７３番地,,25,202,5220054,,,2022-10-04,合併による解散等,5160001023582,令和４年１０月１日滋賀県彦根市城町一丁目５番３号バイオサイエンステクノロジー株式会社（5160001023582）に合併し解散,2015-10-05,1,,,,,トレスバイオギケン,0
535,2180001081334,登記記録の閉鎖等,0,2022-10-11,2022-10-03,株式会社ファーマアシスト,,株式会社,愛知県,丹羽郡扶桑町,大字高雄字下山１３７番地,,23,362,4800102,,,2022-10-03,合併による解散等,9180002082011,令和４年１０月１日愛知県丹羽郡扶桑町大字高雄字下山１３７番地株式会社大幸堂薬局（9180002082011）に合併し解散,2015-10-05,1,,,,,ファーマアシスト,0
552,2200001021626,登記記録の閉鎖等,0,2022-10-11,2022-10-05,山亀窯業原料株式会社,,株式会社,岐阜県,土岐市,土岐津町土岐口７８６番地の５,,21,212,5095122,,,2022-10-05,清算の結了等,,,2015-10-05,1,,,,,ヤマガメヨウギョウゲンリョウ,0
555,2200002017417,登記記録の閉鎖等,0,2022-10-11,2022-10-06,有限会社梅田加工所,,有限会社,岐阜県,可児郡御嵩町,上恵土１１６９番地,,21,521,5050126,,,2022-10-06,清算の結了等,,,2015-10-05,1,,,,,ウメダカコウジョ,0
566,2250001015094,登記記録の閉鎖等,0,2022-10-11,2022-10-03,テルモ山口Ｄ＆Ｄ株式会社,,株式会社,山口県,山口市,佐山字村山３番２２,,35,203,7540894,,,2022-10-03,合併による解散等,8011001071765,令和４年１０月１日山口県山口市佐山字村山３番２２テルモ山口株式会社（8011001071765）に合併し解散,2015-10-05,1,,,,,テルモヤマグチディーアンドディー,0
569,2260001022767,登記記録の閉鎖等,0,2022-10-11,2022-10-07,株式会社追分ゴルフセンター,,株式会社,岡山県,真庭市,上河内２１４３番地,,33,214,7193121,,,2022-10-07,清算の結了等,,,2015-10-05,1,,,,,オイワケゴルフセンター,0
570,2260005006691,登記記録の閉鎖等,0,2022-10-11,2022-10-05,医療法人薫風会,,その他の設立登記法人,岡山県,津山市,沼８５６番地の３,,33,203,7080824,,,2022-10-05,清算の結了等,,,2015-10-05,1,,,,,クンプウカイ,0
586,2310001009957,登記記録の閉鎖等,0,2022-10-11,2022-10-06,株式会社大心,,株式会社,長崎県,島原市,城内３丁目１２４２番地３０,,42,203,8550036,,,2022-10-06,清算の結了等,,,2015-10-05,1,,,,,タイシン,0
593,2340005008498,登記記録の閉鎖等,0,2022-10-11,2022-10-06,特定非営利活動法人国際交流の会ＫＡＧＯＳＨＩＭＡ,,その他の設立登記法人,鹿児島県,鹿児島市,下荒田４丁目３１番６号,,46,201,8900056,,,2022-10-06,清算の結了等,,,2015-12-22,1,,,,,コクサイコウリュウノカイカゴシマ,0
605,2410001004857,登記記録の閉鎖等,0,2022-10-11,2022-10-03,株式会社ジェイエイゆり葬祭センター,,株式会社,秋田県,由利本荘市,一番堰２００番地１,,05,210,0150852,,,2022-10-03,合併による解散等,5410001005051,令和４年１０月１日秋田県由利本荘市埋田字小館８１番地１６株式会社ジェイエイ秋田しんせいサービス（5410001005051）に合併し解散,2015-10-05,1,,,,,ジェイエイユリソウサイセンター,0
608,2420002001225,登記記録の閉鎖等,0,2022-10-11,2022-10-03,有限会社三内調剤薬局,,有限会社,青森県,青森市,岡造道２丁目２番２４号,,02,201,0300914,,,2022-10-03,清算の結了等,,,2015-10-05,1,,,,,サンナイチョウザイヤッキョク,0
617,2430002063388,登記記録の閉鎖等,0,2022-10-11,2022-09-28,有限会社道央木工製作所,,有限会社,北海道,伊達市,山下町１１８番地,,01,233,0520032,,,2022-09-28,清算の結了等,,,2015-10-05,1,,,,,ドウオウモッコウセイサクジョ,0
622,2500001018294,登記記録の閉鎖等,0,2022-10-11,2022-10-06,株式会社モテコロラボ,,株式会社,愛媛県,宇和島市,御幸町１丁目２番１０号,,38,203,7980013,,,2022-10-06,清算の結了等,,,2015-10-05,1,,,,,モテコロラボ,0
623,2500003001918,登記記録の閉鎖等,0,2022-10-11,2022-10-07,サリイズインターナショナル合同会社,,合同会社,愛媛県,松山市,道後緑台６－１２－３０２,,38,201,7900847,,,2022-10-07,清算の結了等,,,2017-04-18,1,,,,,サリイズインターナショナル,0
639,3010005032142,登記記録の閉鎖等,0,2022-10-11,2022-10-06,一般社団法人ガーディアン,,その他の設立登記法人,東京都,中央区,日本橋１丁目４番１号日本橋一丁目ビルディング,,13,102,1030027,,,2022-10-06,清算の結了等,,,2020-08-13,1,,,,,ガーディアン,0
687,3011803004332,登記記録の閉鎖等,0,2022-10-11,2022-10-05,合同会社ネクストステージ,,合同会社,東京都,足立区,千住桜木２丁目５番６号ピカイヤ千住桜木５０２号,,13,121,1200045,,,2022-10-05,清算の結了等,,,2020-10-13,1,,,,,ネクストステージ,0
692,3012305001495,登記記録の閉鎖等,0,2022-10-11,2022-09-27,特定非営利活動法人パーソナルコンピュータ利用技術学会,,その他の設立登記法人,東京都,渋谷区,渋谷２丁目７番１３号ネオメット青山３階,,13,113,1500002,,,2022-09-27,清算の結了等,,,2015-10-05,1,Japan Personal Computer Application Technology Society,Tokyo,"Neomet Aoyama 3F, 7-13, Shibuya 2-chome, Shibuya ku",,パーソナルコンピュータリヨウギジュツガッカイ,0
702,3020002044610,登記記録の閉鎖等,0,2022-10-11,2022-10-03,有限会社ひらばやし,,有限会社,神奈川県,横浜市中区,本牧三之谷８番２６号,,14,104,2310824,,,2022-10-03,清算の結了等,,,2015-10-05,1,,,,,ヒラバヤシ,0
703,3020002047893,登記記録の閉鎖等,0,2022-10-11,2022-10-03,有限会社日本コネクト,,有限会社,東京都,世田谷区,等々力１丁目３３番１４号,,13,112,1580082,,,2022-10-03,清算の結了等,,,2015-10-05,1,,,,,ニホンコネクト,0
705,3020002071415,登記記録の閉鎖等,0,2022-10-11,2022-10-05,有限会社リフォ・レ,,有限会社,神奈川県,鎌倉市,御成町１１－５－２０９,,14,204,2480012,,,2022-10-05,清算の結了等,,,2015-10-05,1,,,,,リフォレ,0
773,3120001094902,登記記録の閉鎖等,0,2022-10-11,2022-10-05,株式会社フラット・リバー,,株式会社,大阪府,大阪市平野区,背戸口１丁目４番２号,,27,126,5470034,,,2022-10-05,清算の結了等,,,2015-10-05,1,,,,,フラットリバー,0
781,3120002074614,登記記録の閉鎖等,0,2022-10-11,2022-10-05,有限会社ティーズ,,有限会社,大阪府,交野市,私部西５丁目５番地,,27,230,5760041,,,2022-10-05,清算の結了等,,,2015-10-05,1,,,,,ティーズ,0
787,3120901044733,登記記録の閉鎖等,0,2022-10-11,2022-10-04,株式会社ウルズ,,株式会社,大阪府,豊中市,上新田２丁目１８番２７号,,27,203,5600085,,,2022-10-04,清算の結了等,,,2021-08-05,1,,,,,ウルズ,0
800,3130002027587,登記記録の閉鎖等,0,2022-10-11,2022-10-03,有限会社マーシ,,有限会社,京都府,宇治市,広野町東裏８６番地ＳＫレジデンス新田１０１号,,26,204,6110031,,,2022-10-03,合併による解散等,1130002026491,令和４年１０月１日京都府宇治市広野町東裏８６番地ＳＫレジデンス新田１０１号株式会社商弘（1130002026491）に合併し解散,2015-10-05,1,,,,,マーシ,0
806,3140001027975,登記記録の閉鎖等,0,2022-10-11,2022-10-04,もっこす食品株式会社,,株式会社,兵庫県,神戸市灘区,味泥町８番２５号,,28,102,6570851,,,2022-10-04,合併による解散等,5140001011333,令和４年１０月４日神戸市中央区楠町二丁目５番１１号もつこすフーズ株式会社（5140001011333）に合併し解散,2015-10-05,1,,,,,モッコスショクヒン,0
826,3180001020290,登記記録の閉鎖等,0,2022-10-11,2022-10-03,富川燃料運輸株式会社,,株式会社,愛知県,名古屋市中川区,富川町２丁目１番地,,23,110,4540037,,,2022-10-03,合併による解散等,2180001018930,令和４年１０月１日名古屋市中川区富川町二丁目１番地犬飼産業株式会社（2180001018930）に合併し解散,2015-10-05,1,,,,,トミカワネンリョウウンユ,0
828,3180001084006,登記記録の閉鎖等,0,2022-10-11,2022-10-04,株式会社ラブリー,,株式会社,愛知県,一宮市,大赤見字大山２番地,,23,203,4910015,,,2022-10-04,清算の結了等,,,2015-10-05,1,,,,,ラブリー,0
835,3180002023994,登記記録の閉鎖等,0,2022-10-11,2022-10-04,有限会社電化のキモト,,有限会社,愛知県,名古屋市西区,大野木２丁目７７番地,,23,104,4520803,,,2022-10-04,清算の結了等,,,2015-10-05,1,,,,,デンカノキモト,0
841,3200001034164,登記記録の閉鎖等,0,2022-10-11,2022-10-07,株式会社平野組,,株式会社,岐阜県,飛騨市,古川町上野６２７番地２,,21,217,5094263,,,2022-10-07,清算の結了等,,,2017-06-26,1,,,,,,0
852,3260002028011,登記記録の閉鎖等,0,2022-10-11,2022-10-07,有限会社関西自動車工業所,,有限会社,岡山県,津山市,川崎１３２番地,,33,203,7080841,,,2022-10-07,清算の結了等,,,2015-10-05,1,,,,,カンサイジドウシャコウギョウショ,0
873,3320001018097,登記記録の閉鎖等,0,2022-10-11,2022-10-06,株式会社エンジ・テック,,株式会社,大分県,大分市,大字寒田４４２番地の２４,,44,201,8701123,,,2022-10-06,清算の結了等,,,2020-12-23,1,,,,,エンジテック,0
885,3380001015642,登記記録の閉鎖等,0,2022-10-11,2022-10-03,清新塗装工業株式会社,,株式会社,福島県,南相馬市,原町区錦町１丁目１番地,,07,212,9750031,,,2022-10-03,合併による解散等,1380001015636,令和４年１０月１日福島県南相馬市原町区錦町一丁目１番地関場建設株式会社（1380001015636）に合併し解散,2015-10-05,1,,,,,セイシントソウコウギョウ,0
893,3410002000821,登記記録の閉鎖等,0,2022-10-11,2022-10-04,有限会社エス・ケー管理センター,,有限会社,秋田県,秋田市,八橋大畑２丁目１０番１号,,05,201,0100962,,,2022-10-04,清算の結了等,,,2015-10-05,1,,,,,エスケーカンリセンター,0
896,3420005002153,登記記録の閉鎖等,0,2022-10-11,2022-09-29,企業組合あっぷるぴゅあ,,その他の設立登記法人,青森県,青森市,古川１丁目１番１３号,,02,201,0300862,,,2022-09-29,清算の結了等,,,2015-10-05,1,,,,,アップルピュア,0
898,3430002034925,登記記録の閉鎖等,0,2022-10-11,2022-09-29,有限会社アイ大竹企画,,有限会社,北海道,札幌市中央区,北四条西６丁目１番３－８０２号,,01,101,0600004,,,2022-09-29,清算の結了等,,,2015-10-05,1,,,,,アイオオタケキカク,0
909,3500002012510,登記記録の閉鎖等,0,2022-10-11,2022-10-06,有限会社土居商店,,有限会社,愛媛県,西予市,野村町野村１２号５０５番地第２,,38,214,7971212,,,2022-10-06,清算の結了等,,,2015-10-05,1,,,,,ドイショウテン,0
913,4010001168344,登記記録の閉鎖等,0,2022-10-11,2022-10-03,株式会社エコージャパン,,株式会社,東京都,文京区,本郷４丁目１番３号,,13,105,1130033,,,2022-10-03,清算の結了等,,,2015-10-05,1,,,,,エコージャパン,0
939,4010405017015,登記記録の閉鎖等,0,2022-10-11,2022-09-20,一般社団法人ミート,,その他の設立登記法人,東京都,港区,虎ノ門３丁目２２番１０－２０１号,,13,103,1050001,,,2022-09-20,清算の結了等,,,2018-08-21,1,,,,,ミート,0
956,4011001096361,登記記録の閉鎖等,0,2022-10-11,2022-10-03,株式会社アイトレンタ,,株式会社,東京都,品川区,上大崎２丁目１３－３０,,13,109,1410021,,,2022-10-03,清算の結了等,,,2015-10-05,1,,,,,アイトレンタ,0
964,4011003012886,登記記録の閉鎖等,0,2022-10-11,2022-09-26,合同会社一新,,合同会社,東京都,渋谷区,神宮前６丁目２３－４桑野ビル２階,,13,113,1500001,,,2022-09-26,清算の結了等,,,2021-06-14,1,,,,,イッシン,0
1002,4021002052858,登記記録の閉鎖等,0,2022-10-11,2022-10-04,有限会社ヒカルコーポレーション,,有限会社,神奈川県,小田原市,鴨宮２０６番地,,14,206,2500874,,,2022-10-04,清算の結了等,,,2015-10-05,1,,,,,ヒカルコーポレーション,0
1052,4090002011215,登記記録の閉鎖等,0,2022-10-11,2022-10-06,有限会社三栄精工,,有限会社,山梨県,甲州市,塩山上於曽４４６番地,,19,213,4040042,,,2022-10-06,清算の結了等,,,2015-10-05,1,,,,,サンエイセイコウ,0
1056,4110002020618,登記記録の閉鎖等,0,2022-10-11,2022-10-03,有限会社新正興業,,有限会社,新潟県,柏崎市,桜木町２０番３３号ララサクラＤ,,15,205,9450073,,,2022-10-03,清算の結了等,,,2015-10-05,1,,,,,シンセイコウギョウ,0
1087,4130005016248,登記記録の閉鎖等,0,2022-10-11,2022-10-03,特定非営利活動法人Ｃａｆｅ　ｌｉｆｅ,,その他の設立登記法人,京都府,京都市西京区,松尾鈴川町７１番地１,,26,111,6158216,,,2022-10-03,清算の結了等,,,2021-08-11,1,,,,,カフェライフ,0
1090,4140001011004,登記記録の閉鎖等,0,2022-10-11,2022-10-03,株式会社マルオー,,株式会社,兵庫県,神戸市中央区,元町通３丁目９番２２号,,28,110,6500022,,,2022-10-03,清算の結了等,,,2015-10-05,1,,,,,マルオー,0
1095,4140001068226,登記記録の閉鎖等,0,2022-10-11,2022-09-30,株式会社温研,,株式会社,兵庫県,西宮市,市庭町８番２７号,,28,204,6620975,,,2022-09-30,清算の結了等,,,2015-10-05,1,,,,,オンケン,0
1127,4180001072001,登記記録の閉鎖等,0,2022-10-11,2022-10-03,株式会社雨宮ホールディングス,,株式会社,愛知県,名古屋市北区,城東町７丁目１６１番地２,,23,103,4620831,,,2022-10-03,合併による解散等,8180001011517,令和４年１０月１日名古屋市北区城東町七丁目１６１番地２株式会社雨宮（8180001011517）に合併し解散,2015-10-05,1,,,,,アメミヤホールディングス,0
1128,4180001081860,登記記録の閉鎖等,0,2022-10-11,2022-10-03,株式会社優生工業,,株式会社,愛知県,小牧市,小木南３丁目３４３番地,,23,219,4850056,,,2022-10-03,清算の結了等,,,2015-10-05,1,,,,,ユウセイコウギョウ,0
1136,4180003021542,登記記録の閉鎖等,0,2022-10-11,2022-10-03,無限太極会合名会社,,合名会社,愛知県,稲沢市,祖父江町森上本郷二２番地１２祖父江コーポラスＡ棟４０３号,,23,220,4950011,,,2022-10-03,清算の結了等,,,2020-08-26,1,,,,,ムゲンタイキョクカイ,0
1142,4180301028446,登記記録の閉鎖等,0,2022-10-11,2022-10-03,株式会社コバックインターナショナル,,株式会社,愛知県,豊田市,梅坪町８丁目４番地１１,,23,211,4710064,,,2022-10-03,合併による解散等,6180001062751,令和４年１０月１日愛知県豊田市梅坪町十丁目５番地３株式会社コバックインターナショナル（6180001062751）に合併し解散,2015-10-05,1,,,,,コバックインターナショナル,0
1145,4180303003471,登記記録の閉鎖等,0,2022-10-11,2022-10-03,合同会社萩本,,合同会社,愛知県,豊橋市,西岩田４丁目１１番地１４,,23,201,4400831,,,2022-10-03,合併による解散等,8180301008989,令和４年１０月１日愛知県豊橋市西岩田四丁目１１番地１４株式会社イワタ不動産（8180301008989）に合併し解散,2015-10-05,1,,,,,ハギモト,0
1146,4180305008683,登記記録の閉鎖等,0,2022-10-11,2022-09-29,一般社団法人若者議会連盟,,その他の設立登記法人,愛知県,新城市,作手鴨ケ谷字門前１１番地１,,23,221,4411412,,,2022-09-29,清算の結了等,,,2017-08-24,1,,,,,ワカモノギカイレンメイ,0
1147,4190002010413,登記記録の閉鎖等,0,2022-10-11,2022-10-04,有限会社いんさつや,,有限会社,三重県,鳥羽市,幸丘６番３５号,,24,211,5170046,,,2022-10-04,清算の結了等,,,2015-10-05,1,,,,,インサツヤ,0
1156,4220005008500,登記記録の閉鎖等,0,2022-10-11,2022-10-03,一般社団法人感染対策企業ネットワーク,,その他の設立登記法人,石川県,金沢市,疋田１丁目２１５番地,,17,201,9200003,,,2022-10-03,清算の結了等,,,2020-11-19,1,,,,,カンセンタイサクキギョウネットワーク,0
1162,4240002050032,登記記録の閉鎖等,0,2022-10-11,2022-10-03,有限会社因島総合飲料,,有限会社,広島県,尾道市,因島重井町字塚浜５８００番地の６７,00001664,34,205,7222102,,,2022-10-03,合併による解散等,6240001038423,令和４年１０月１日広島県尾道市因島重井町字塚浜５８００番地の６７濱岡酒造株式会社（6240001038423）に合併し解散,2015-10-05,1,,,,,インノシマソウゴウインリョウ,0
1163,4240003005027,登記記録の閉鎖等,0,2022-10-11,2022-10-03,合同会社フロンティア東日本１,,合同会社,東京都,千代田区,飯田橋１丁目３番２号曙杉館４階ＲＳＭ清和コンサルティング株式会社内,,13,101,1020072,,,2022-10-03,清算の結了等,,,2021-03-25,1,,,,,フロンティアヒガシニホンイチ,0
1164,4240005002773,登記記録の閉鎖等,0,2022-10-11,2022-10-06,特定非営利活動法人ＮＰＯスポーツオフィス・ワン,,その他の設立登記法人,広島県,広島市安佐南区,長楽寺３丁目９番１１号,,34,105,7310143,,,2022-10-06,清算の結了等,,,2015-10-05,1,,,,,エヌピーオースポーツオフィスワン,0
1170,4260005010279,登記記録の閉鎖等,0,2022-10-11,2022-10-07,一般財団法人国際医療貢献プラットフォーム,,その他の設立登記法人,岡山県,岡山市北区,伊福町３丁目３１番１号,,33,101,7000013,,,2022-10-07,清算の結了等,,,2017-06-21,1,,,,,コクサイイリョウコウケンプラットフォーム,0
1179,4290003006029,登記記録の閉鎖等,0,2022-10-11,2022-10-03,合同会社Ｂｕｚｚ　ａｂｏｕｔ,,合同会社,福岡県,福岡市中央区,大名２丁目４番３８－９０９号,,40,133,8100041,,,2022-10-03,清算の結了等,,,2015-10-05,1,,,,,,0
1193,4330001014508,登記記録の閉鎖等,0,2022-10-11,2022-10-03,株式会社デルタ通信,,株式会社,熊本県,八代市,古閑中町１２１０番地,,43,202,8660898,,,2022-10-03,合併による解散等,5330001013938,令和４年１０月１日熊本県八代市古閑中町１２１０番地株式会社ビジコム（5330001013938）に合併し解散,2015-10-05,1,,,,,デルタツウシン,0
1196,4330002017195,登記記録の閉鎖等,0,2022-10-11,2022-10-05,有限会社デンタルクリエイト,,有限会社,熊本県,合志市,幾久富１８６６番地８７２,,43,216,8611112,,,2022-10-05,清算の結了等,,,2015-10-05,1,,,,,デンタルクリエイト,0
1198,4370001002649,登記記録の閉鎖等,0,2022-10-11,2022-09-30,株式会社上野屋,,株式会社,宮城県,仙台市若林区,大和町１丁目８番１－６１０号,,04,103,9840042,,,2022-09-30,清算の結了等,,,2015-10-05,1,,,,,ウエノヤ,0
1218,4470005001827,登記記録の閉鎖等,0,2022-10-11,2022-10-06,社会福祉法人みよし福祉会,,その他の設立登記法人,香川県,高松市,国分寺町柏原８０番地,,37,201,7690105,,,2022-10-06,清算の結了等,,,2015-10-05,1,,,,,ミヨシフクシカイ,0
1245,5010403013287,登記記録の閉鎖等,0,2022-10-11,2022-10-03,アルファレオホールディングス合同会社,,合同会社,東京都,千代田区,永田町２丁目１１番１号山王パークタワー,,13,101,1000014,,,2022-10-03,清算の結了等,,,2015-10-05,1,,,,,アルファレオホールディングス,0
1256,5010803002427,登記記録の閉鎖等,0,2022-10-11,2022-10-03,合同会社うずまき,,合同会社,東京都,中央区,東日本橋２丁目２８番４号日本橋ＣＥＴビル２階,,13,102,1030004,,,2022-10-03,清算の結了等,,,2017-07-24,1,,,,,ウズマキ,0
1286,5011602007906,登記記録の閉鎖等,0,2022-10-11,2022-09-28,有限会社ハイニックスコーポレーション,,有限会社,埼玉県,戸田市,中町２丁目２０番４号,,11,224,3350012,,,2022-09-28,清算の結了等,,,2015-10-05,1,,,,,ハイニックスコーポレーション,0
1294,5020001066034,登記記録の閉鎖等,0,2022-10-11,2022-10-03,株式会社関東冷熱,,株式会社,神奈川県,川崎市高津区,末長１丁目６番３２－８１１号,,14,134,2130013,,,2022-10-03,清算の結了等,,,2015-10-05,1,,,,,カントウレイネツ,0
1302,5020003018215,登記記録の閉鎖等,0,2022-10-11,2022-09-29,ＭｉｅＢＡ合同会社,,合同会社,神奈川県,横浜市中区,北仲通５丁目５７番地２ザ・タワー横浜北仲２９１２号室,,14,104,2310003,,,2022-09-29,清算の結了等,,,2020-07-16,1,,,,,ミーバ,0
1304,5020005001813,登記記録の閉鎖等,0,2022-10-11,2022-09-27,医療法人社団滝沢医院,,その他の設立登記法人,神奈川県,横浜市磯子区,洋光台１丁目２番１２号,,14,107,2350045,,,2022-09-27,清算の結了等,,,2015-10-05,1,,,,,,0
1308,5021001066593,登記記録の閉鎖等,0,2022-10-11,2022-10-05,株式会社ｃｏｒｒｉｎｅ　ｄｅｓｉｇｎ,,株式会社,神奈川県,鎌倉市,浄明寺６丁目１１番１１号,,14,204,2480003,,,2022-10-05,清算の結了等,,,2019-02-06,1,,,,,コリーヌデザイン,0
1309,5021002016432,登記記録の閉鎖等,0,2022-10-11,2022-10-05,有限会社ヴェーロ・バローレ・カマクラ,,有限会社,神奈川県,鎌倉市,長谷２丁目２番２９－４０６号,,14,204,2480016,,,2022-10-05,清算の結了等,,,2015-10-05,1,,,,,ヴェーロバローレカマクラ,0
1310,5021002052519,登記記録の閉鎖等,0,2022-10-11,2022-10-04,有限会社妻木不動産鑑定所,,有限会社,神奈川県,小田原市,本町２丁目２番１６ー２０７号,,14,206,2500012,,,2022-10-04,清算の結了等,,,2015-10-05,1,,,,,ツマキフドウサンカンテイショ,0
1315,5030002006368,登記記録の閉鎖等,0,2022-10-11,2022-09-29,有限会社茂工務店,,有限会社,埼玉県,さいたま市浦和区,領家５丁目５番１０号,,11,107,3300072,,,2022-09-29,清算の結了等,,,2015-10-05,1,,,,,シゲルコウムテン,0
1316,5030002039806,登記記録の閉鎖等,0,2022-10-11,2022-09-29,有限会社益山材木店,,有限会社,埼玉県,幸手市,北２丁目２０番６号,,11,240,3400111,,,2022-09-29,清算の結了等,,,2015-10-05,1,,,,,,0
1373,5110002025467,登記記録の閉鎖等,0,2022-10-11,2022-10-04,有限会社上村薬局,,有限会社,新潟県,十日町市,馬場丁１４５２番地２,,15,210,9498551,,,2022-10-04,清算の結了等,,,2015-10-05,1,,,,,カミムラヤッキョク,0
1395,5120101040259,登記記録の閉鎖等,0,2022-10-11,2022-10-04,株式会社矢野タオル工場,,株式会社,大阪府,泉佐野市,笠松２丁目４番１９号,,27,213,5980044,,,2022-10-04,清算の結了等,,,2015-10-05,1,,,,,ヤノタオルコウジョウ,0
1399,5120102019789,登記記録の閉鎖等,0,2022-10-11,2022-10-04,有限会社グリーンエンジニアリング,,有限会社,大阪府,河内長野市,木戸町６７９番地の７,,27,216,5860001,,,2022-10-04,清算の結了等,,,2015-10-05,1,,,,,グリーンエンジニアリング,0
1420,5140001089873,登記記録の閉鎖等,0,2022-10-11,2022-10-04,株式会社坪田,,株式会社,兵庫県,神崎郡福崎町,西治２番地６,,28,443,6792215,,,2022-10-04,清算の結了等,,,2015-10-05,1,,,,,ツボタ,0
1425,5140002035513,登記記録の閉鎖等,0,2022-10-11,2022-09-02,有限会社オリーブ企画,,有限会社,兵庫県,加古川市,野口町野口１４４番地の７,,28,210,6750012,,,2022-09-02,清算の結了等,,,2015-10-05,1,,,,,オリーブキカク,0
1426,5140002047302,登記記録の閉鎖等,0,2022-10-11,2022-10-03,有限会社足立ケアサービス,,有限会社,兵庫県,姫路市,坊主町５３番地,,28,201,6700011,,,2022-10-03,清算の結了等,,,2015-10-05,1,,,,,アダチケアサービス,0
1437,5160001011075,登記記録の閉鎖等,0,2022-10-11,2022-10-04,コマツキャブテック株式会社,,株式会社,滋賀県,蒲生郡竜王町,大字薬師１１６６番地,,25,384,5202551,,,2022-10-04,合併による解散等,1010401010455,令和４年１０月１日東京都港区赤坂二丁目３番６号株式会社小松製作所（1010401010455）に合併し解散,2015-10-05,1,,,,,コマツキャブテック,0
1439,5160001012156,登記記録の閉鎖等,0,2022-10-11,2022-10-03,株式会社鮎家新旭風車村工房館,00044352,株式会社,滋賀県,高島市,新旭町深溝外ヶ浜１０４番地の１,,25,212,5201503,,,2022-10-03,合併による解散等,9160001015725,令和４年１０月１日滋賀県大津市真野二丁目２４番１号株式会社鮎家（9160001015725）に合併し解散,2015-10-05,1,,,,,アユヤシンアサヒフウシャムラコウボウカン,0
1455,5180001136663,登記記録の閉鎖等,0,2022-10-11,2022-10-03,株式会社和,,株式会社,愛知県,名古屋市緑区,浦里４丁目８４番地,,23,114,4580847,,,2022-10-03,合併による解散等,3180001027864,令和４年１０月１日名古屋市緑区浦里四丁目８４番地株式会社エキタン（3180001027864）に合併し解散,2019-05-24,1,,,,,ナゴミ,0
1467,5180005012811,登記記録の閉鎖等,0,2022-10-11,2022-10-05,税理士法人新美会計,,その他の設立登記法人,愛知県,半田市,美原町１丁目２０２番地,,23,205,4750073,,,2022-10-05,清算の結了等,,,2015-10-05,1,,,,,ニイミカイケイ,0
1475,5220002003230,登記記録の閉鎖等,0,2022-10-11,2022-10-04,有限会社ジャパンアルファ,,有限会社,石川県,金沢市,米丸町１１０番地,,17,201,9218004,,,2022-10-04,清算の結了等,,,2015-10-05,1,,,,,ジャパンアルファ,0
1477,5230001012603,登記記録の閉鎖等,0,2022-10-11,2022-10-03,アダチベンディング株式会社,,株式会社,富山県,射水市,手崎３０１番地,,16,211,9390306,,,2022-10-03,合併による解散等,6230001012602,令和４年１０月１日富山県射水市戸破３２番９株式会社安達工業（6230001012602）に合併し解散,2015-10-05,1,,,,,アダチベンディング,0
1483,5240001026313,登記記録の閉鎖等,0,2022-10-11,2022-10-05,株式会社浪速工業所,,株式会社,広島県,呉市,中通１丁目３番２８号,,34,202,7370046,,,2022-10-05,合併による解散等,4120001102688,令和４年１０月１日大阪市西区新町一丁目１６番１号大陽日酸ガス＆ウェルディング株式会社（4120001102688）に合併し解散,2015-10-05,1,,,,,ナニワコウギョウショ,0
1489,5260001033464,登記記録の閉鎖等,0,2022-10-11,2022-10-11,株式会社アイス,,株式会社,岡山県,岡山市南区,万倍４７番地３,,33,104,7000955,,,2022-10-11,清算の結了等,,,2019-08-26,1,,,,,アイス,0
1506,5310001011407,登記記録の閉鎖等,0,2022-10-11,2022-10-07,株式会社ビー・クリエート,,株式会社,長崎県,長崎市,昭和１丁目７番２０号,,42,201,8528145,,,2022-10-07,清算の結了等,,,2015-10-05,1,,,,,ビークリエート,0
1507,5310001015325,登記記録の閉鎖等,0,2022-10-11,2022-10-07,ＭＫ電気株式会社,,株式会社,長崎県,長崎市,晴海台町３８番地６,,42,201,8510402,,,2022-10-07,清算の結了等,,,2017-12-28,1,,,,,エムケイデンキ,0
1510,5320001000169,登記記録の閉鎖等,0,2022-10-11,2022-10-05,株式会社大分サンソセンター,,株式会社,大分県,大分市,大字西ノ洲１番地,,44,201,8700902,,,2022-10-05,合併による解散等,9010701018950,令和４年１０月１日北九州市戸畑区大字中原字先の浜４６番地９３株式会社九州サンソセンター（9010701018950）に合併し解散,2015-10-05,1,,,,,オオイタサンソセンター,0
1518,5380001015822,登記記録の閉鎖等,0,2022-10-11,2022-10-03,マルセシビル工業株式会社,,株式会社,福島県,南相馬市,原町区錦町１丁目１番地,,07,212,9750031,,,2022-10-03,合併による解散等,1380001015636,令和４年１０月１日福島県南相馬市原町区錦町一丁目１番地関場建設株式会社（1380001015636）に合併し解散,2015-10-05,1,,,,,マルセシビルコウギョウ,0
1525,5390002013238,登記記録の閉鎖等,0,2022-10-11,2022-10-04,有限会社ニットムラセン,,有限会社,山形県,米沢市,窪田町窪田字堂ノ前２７９８番地の１,,06,202,9920003,,,2022-10-04,清算の結了等,,,2015-10-05,1,,,,,ニットムラセン,0
1530,5420005006185,登記記録の閉鎖等,0,2022-10-11,2022-10-03,東京都開拓農業協同組合,,その他の設立登記法人,青森県,十和田市,大字三本木字一本木沢２１８番地,,02,206,0340001,,,2022-10-03,清算の結了等,,,2021-05-12,1,,,,,トウキョウトカイタク,0
1538,5430002011088,登記記録の閉鎖等,0,2022-10-11,2022-09-29,ゼットプランニング札幌有限会社,,有限会社,北海道,札幌市清田区,里塚緑ケ丘１１丁目１１番１５号,,01,110,0040805,,,2022-09-29,清算の結了等,,,2015-10-05,1,,,,,ゼットプランニングサッポロ,0
1551,6010001169621,登記記録の閉鎖等,0,2022-10-11,2022-10-03,株式会社吉利,,株式会社,東京都,中央区,日本橋室町４丁目１番１１号,,13,102,1030022,,,2022-10-03,合併による解散等,1010001034953,令和４年１０月１日東京都中央区日本橋室町四丁目１番１１号堀田丸正株式会社（1010001034953）に合併し解散,2015-10-05,1,,,,,ヨシリ,0
1560,6010002004546,登記記録の閉鎖等,0,2022-10-11,2022-10-03,有限会社西製作所,,有限会社,東京都,文京区,本郷３丁目８番２号,,13,105,1130033,,,2022-10-03,清算の結了等,,,2015-10-05,1,,,,,ニシセイサクジョ,0
1583,6010601039372,登記記録の閉鎖等,0,2022-10-11,2022-10-05,株式会社ビノコム,,株式会社,東京都,足立区,梅田５丁目２５番９号,,13,121,1230851,,,2022-10-05,清算の結了等,,,2015-10-05,1,,,,,ビノコム,0
1588,6010601046880,登記記録の閉鎖等,0,2022-10-11,2022-10-03,株式会社ＵＳＫ,,株式会社,東京都,江東区,平野４丁目１３番１６－７０１号,,13,108,1350023,,,2022-10-03,合併による解散等,4010601048549,令和４年１０月１日東京都江東区白河三丁目５番５号５階株式会社Ｗａｋａｔｓｕｋｉ　Ｉｎｔｅｒｎａｔｉｏｎａｌ（4010601048549）に合併し解散,2015-10-05,1,,,,,ユーエスケイ,0
1590,6010801006965,登記記録の閉鎖等,0,2022-10-11,2022-09-30,南北産業株式会社,,株式会社,東京都,大田区,南千束３丁目１２番８号,,13,111,1450063,,,2022-09-30,清算の結了等,,,2015-10-05,1,,,,,ナンボクサンギョウ,0
1597,6011001037850,登記記録の閉鎖等,0,2022-10-11,2022-10-05,カティア・インターナショナル株式会社,,株式会社,東京都,渋谷区,渋谷４丁目３－２７－４０３,,13,113,1500002,,,2022-10-05,清算の結了等,,,2015-10-05,1,,,,,,0
1605,6011101018461,登記記録の閉鎖等,0,2022-10-11,2022-10-03,富国電気株式会社,,株式会社,東京都,千代田区,西神田１丁目２番４号,,13,101,1010065,,,2022-10-03,合併による解散等,7010001150027,令和４年１０月１日東京都千代田区西神田一丁目２番４号株式会社ＴＫテクノサービス（7010001150027）に合併し解散,2015-10-05,1,,,,,フコクデンキ,0
1614,6011502014885,登記記録の閉鎖等,0,2022-10-11,2022-10-04,有限会社エフピーマネジメント,,有限会社,東京都,荒川区,南千住５丁目３番１０号,,13,118,1160003,,,2022-10-04,清算の結了等,,,2015-10-05,1,,,,,エフピーマネジメント,0
1622,6012702010047,登記記録の閉鎖等,0,2022-10-11,2022-10-05,有限会社バルミー,,有限会社,東京都,西東京市,向台町６丁目５番２号,,13,229,1880013,,,2022-10-05,清算の結了等,,,2015-10-05,1,,,,,バルミー,0
1666,6050002015853,登記記録の閉鎖等,0,2022-10-11,2022-09-30,有限会社比企商事,,有限会社,茨城県,石岡市,加生野３９１番地,,08,205,3150135,,,2022-09-30,清算の結了等,,,2015-10-05,1,,,,,ヒキショウジ,0
1668,6060001031388,登記記録の閉鎖等,0,2022-10-11,2022-10-03,株式会社ＭＫ工業,,株式会社,栃木県,鹿沼市,下田町２丁目１４０５番地９,,09,205,3220036,,,2022-10-03,清算の結了等,,,2019-03-08,1,,,,,エムケイコウギョウ,0
1671,6070001013773,登記記録の閉鎖等,0,2022-10-11,2022-10-03,株式会社美珠,,株式会社,群馬県,伊勢崎市,末広町１４０番地４,,10,204,3720057,,,2022-10-03,清算の結了等,,,2015-10-05,1,,,,,ビジュ,0
1673,6070001034720,登記記録の閉鎖等,0,2022-10-11,2022-09-30,ヴェルデサポート株式会社,,株式会社,群馬県,太田市,龍舞町５５９４番地,,10,205,3730806,,,2022-09-30,清算の結了等,,,2018-05-22,1,,,,,ヴェルデサポート,0
1681,6100001023133,登記記録の閉鎖等,0,2022-10-11,2022-10-03,ルビコン電子株式会社,,株式会社,長野県,下伊那郡松川町,元大島２９３２番地,,20,402,3993303,,,2022-10-03,合併による解散等,6100001020948,令和４年１０月１日長野県伊那市西箕輪１９３８番地１ルビコン株式会社（6100001020948）に合併し解散,2015-10-05,1,,,,,ルビコンデンシ,0
1683,6110001022472,登記記録の閉鎖等,0,2022-10-11,2022-10-03,株式会社コロナ,,株式会社,新潟県,長岡市,坂之上町２丁目５番地９,,15,202,9400065,,,2022-10-03,清算の結了等,,,2015-10-05,1,,,,,コロナ,0
1689,6120001057922,登記記録の閉鎖等,0,2022-10-11,2022-10-03,日田建設株式会社,,株式会社,大阪府,大阪市淀川区,西三国４丁目３番１８号,,27,123,5320006,,,2022-10-03,清算の結了等,,,2015-10-05,1,,,,,ヒタケンセツ,0
1708,6120901012456,登記記録の閉鎖等,0,2022-10-11,2022-10-06,三島商事株式会社,,株式会社,大阪府,三島郡島本町,江川２丁目１５番１号,,27,301,6180013,,,2022-10-06,清算の結了等,,,2015-10-05,1,,,,,ミシマショウジ,0
1739,6140002071144,登記記録の閉鎖等,0,2022-10-11,2022-10-03,有限会社サンエー,,有限会社,兵庫県,丹波市,山南町谷川２１０４番地の４,,28,223,6693131,,,2022-10-03,清算の結了等,,,2021-12-09,1,,,,,サンエー,0
1749,6180001008176,登記記録の閉鎖等,0,2022-10-11,2022-10-04,清見林業株式会社,,株式会社,愛知県,名古屋市昭和区,恵方町３丁目３番地の３,,23,107,4660037,,,2022-10-04,清算の結了等,,,2015-10-05,1,,,,,キヨミリンギョウ,0
1766,6180005011201,登記記録の閉鎖等,0,2022-10-11,2022-10-03,江南市古知野愛栄通商店街振興組合,,その他の設立登記法人,愛知県,江南市,古知野町北屋敷２２６番地,,23,217,4838272,,,2022-10-03,清算の結了等,,,2015-10-05,1,,,,,コウナンシコチノアイエイドオリショウテンガイシンコウ,0
1781,6220005007269,登記記録の閉鎖等,0,2022-10-11,2022-10-04,特定非営利活動法人基盤地図情報活用研究会,,その他の設立登記法人,石川県,金沢市,扇町１２番１１－１号,,17,201,9200927,,,2022-10-04,清算の結了等,,,2015-10-05,1,,,,,キバンチズジョウホウカツヨウケンキュウカイ,0
1790,6260002005024,登記記録の閉鎖等,0,2022-10-11,2022-10-11,有限会社進洋開発,,有限会社,岡山県,岡山市北区,大安寺南町２丁目１１番４１号,,33,101,7000064,,,2022-10-11,清算の結了等,,,2015-10-05,1,,,,,シンヨウカイハツ,0
1802,6290001083381,登記記録の閉鎖等,0,2022-10-11,2022-10-03,株式会社Ｕ．Ｎ．Ｋ．,,株式会社,福岡県,久留米市,東和町５－４ＮＳＢｌｄｇ．１Ｆ,,40,203,8300035,,,2022-10-03,合併による解散等,4290001050301,令和４年１０月１日福岡県久留米市藤光町９３４番地１株式会社鵜木商店（4290001050301）に合併し解散,2018-11-21,1,,,,,アンク,0
1813,6290802006251,登記記録の閉鎖等,0,2022-10-11,2022-10-04,有限会社雅薬局,,有限会社,福岡県,北九州市戸畑区,千防２丁目６番２７号,,40,105,8040081,,,2022-10-04,清算の結了等,,,2015-10-05,1,,,,,ミヤビヤッキョク,0
1817,6320001004202,登記記録の閉鎖等,0,2022-10-11,2022-10-04,大分第一不動産株式会社,,株式会社,大分県,大分市,大手町２丁目４番１４号,,44,201,8700022,,,2022-10-04,合併による解散等,6290801002202,令和４年１０月１日北九州市小倉北区馬借二丁目６番８号第一交通産業株式会社（6290801002202）に合併し解散,2015-10-05,1,,,,,オオイタダイイチフドウサン,0
1845,6400002011998,登記記録の閉鎖等,0,2022-10-11,2022-10-03,有限会社東開運送,,有限会社,岩手県,上閉伊郡大槌町,吉里吉里１丁目１４１番地１,,03,461,0281101,,,2022-10-03,合併による解散等,7400002012013,令和４年１０月１日岩手県上閉伊郡大槌町吉里吉里一丁目１４０番２号株式会社松橋自動車（7400002012013）に合併し解散,2015-10-05,1,,,,,トウカイウンソウ,0
1857,6430003013033,登記記録の閉鎖等,0,2022-10-11,2022-09-26,合同会社メディカル・レセプト１号,,合同会社,北海道,札幌市中央区,北二条西１０丁目２番７号２０５号ＦＰＬ証券株式会社内,,01,101,0600002,,,2022-09-26,清算の結了等,,,2021-08-19,1,,,,,メディカルレセプトイチゴウ,0
1860,6440002000873,登記記録の閉鎖等,0,2022-10-11,2022-10-03,有限会社函工設計,,有限会社,北海道,函館市,弁天町１番１３号,,01,202,0400051,,,2022-10-03,清算の結了等,,,2015-10-05,1,,,,,カンコウセッケイ,0
1868,7010001000280,登記記録の閉鎖等,0,2022-10-11,2022-10-03,株式会社アズ,,株式会社,東京都,文京区,後楽２丁目２０番１４号,,13,105,1120004,,,2022-10-03,清算の結了等,,,2015-10-05,1,,,,,アズ,0
1871,7010001146140,登記記録の閉鎖等,0,2022-10-11,2022-09-26,Ｔインベストメントジャパン株式会社,,株式会社,東京都,渋谷区,松濤１丁目１３番３号,,13,113,1500046,,,2022-09-26,清算の結了等,,,2015-10-05,1,,,,,ティーインベストメントジャパン,0
1875,7010001214021,登記記録の閉鎖等,0,2022-10-11,2022-10-03,株式会社海玄,,株式会社,東京都,中央区,築地４丁目１２番２号,,13,102,1040045,,,2022-10-03,合併による解散等,2010001167356,令和４年１０月１日東京都中央区築地六丁目８番１０号株式会社ＳＵＲＦ＆ＴＵＲＦ（2010001167356）に合併し解散,2020-11-27,1,,,,,シーゲン,0
1895,7010405018431,登記記録の閉鎖等,0,2022-10-11,2022-09-20,一般社団法人ハーバー,,その他の設立登記法人,東京都,港区,虎ノ門３丁目２２番１０－２０１号,,13,103,1050001,,,2022-09-20,清算の結了等,,,2020-01-23,1,,,,,ハーバー,0
1900,7010602020413,登記記録の閉鎖等,0,2022-10-11,2022-09-27,ウエハラデリカ有限会社,,有限会社,東京都,江東区,大島６丁目２２番６号,,13,108,1360072,,,2022-09-27,清算の結了等,,,2015-10-05,1,,,,,ウエハラデリカ,0
1905,7010703004513,登記記録の閉鎖等,0,2022-10-11,2022-10-04,ＲＡＸ　Ｍｔ．　Ｆｕｊｉ合同会社,,合同会社,東京都,品川区,西五反田３丁目１１番６号,,13,109,1410031,,,2022-10-04,清算の結了等,,,2018-10-26,1,,,,,ラックスマウントフジ,0
1908,7010802008902,登記記録の閉鎖等,0,2022-10-11,2022-10-03,有限会社たけむら,,有限会社,東京都,千代田区,有楽町１丁目２番２号,,13,101,1000006,,,2022-10-03,合併による解散等,9010001063953,令和４年１０月１日東京都千代田区有楽町一丁目２番２号サンフロンティア不動産株式会社（9010001063953）に合併し解散,2015-10-05,1,,,,,タケムラ,0
1914,7010901046596,登記記録の閉鎖等,0,2022-10-11,2022-10-03,ＯｎＷａ株式会社,,株式会社,東京都,世田谷区,太子堂１丁目１４番１４－２１２号,,13,112,1540004,,,2022-10-03,清算の結了等,,,2020-07-10,1,,,,,オンワ,0
1919,7011001013421,登記記録の閉鎖等,0,2022-10-11,2022-09-26,太洋工業株式会社,,株式会社,東京都,渋谷区,恵比寿西２丁目２１番８号,,13,113,1500021,,,2022-09-26,清算の結了等,,,2015-10-05,1,,,,,タイヨウコウギョウ,0
1928,7011101086078,登記記録の閉鎖等,0,2022-10-11,2022-10-05,株式会社ＪＷ　ＨＯＬＤＩＮＧＳ,,株式会社,東京都,新宿区,愛住町１９番地１６－６Ｆ,,13,104,1600005,,,2022-10-05,清算の結了等,,,2018-11-27,1,,,,,ジェイダブリューホールディングズ,0
1971,7020005006637,登記記録の閉鎖等,0,2022-10-11,2022-09-29,特定非営利活動法人Ｔｒａｉｎ　Ｍｅｄｉｃａｌ　Ｔｒａｉｎｅｒｓ　ｏｆ　Ｐｅｒｃｕｔａｎｅｏｕｓ　Ｃｏｒｏｎａｒｙ　Ｉｎｔｅｒｖｅｎｔｉｏｎ　Ｉｎｓｔｉｔｕｔｅ,,その他の設立登記法人,東京都,中野区,新井２丁目１０－７ａｐａｒｔｍｅｎｔｎｏｎｅｔ４０１号,,13,114,1650026,,,2022-09-29,清算の結了等,,,2015-10-05,1,,,,,トレインメディカルトレーナーズオブパーキュテイナスコロナリーインターベーションインスティテュート,0
1982,7030002022116,登記記録の閉鎖等,0,2022-10-11,2022-10-03,有限会社エヂソンハウス,,有限会社,東京都,世田谷区,等々力２丁目８番６号,,13,112,1580082,,,2022-10-03,清算の結了等,,,2015-10-05,1,,,,,エヂソンハウス,0
1983,7030002036149,登記記録の閉鎖等,0,2022-10-11,2022-09-28,ライフエステートコーポレイション有限会社,,有限会社,埼玉県,所沢市,宮本町１丁目１０番３号,,11,208,3591143,,,2022-09-28,清算の結了等,,,2015-10-05,1,,,,,ライフエステートコーポレイション,0
2012,7060002032178,登記記録の閉鎖等,0,2022-10-11,2022-10-03,有限会社竹澤武平商店,,有限会社,栃木県,栃木市,室町１番２２号,,09,203,3280036,,,2022-10-03,清算の結了等,,,2015-10-05,1,,,,,タケザワブヘイショウテン,0
2020,7070002018465,登記記録の閉鎖等,0,2022-10-11,2022-10-04,有限会社伊真木,,有限会社,群馬県,伊勢崎市,東本町８７番地１１,,10,204,3720025,,,2022-10-04,清算の結了等,,,2015-10-05,1,,,,,イマキ,0
2025,7080005001054,登記記録の閉鎖等,0,2022-10-11,2022-10-06,静岡県内外広葉樹協同組合,,その他の設立登記法人,静岡県,静岡市駿河区,下島９０番地の１,,22,102,4228037,,,2022-10-06,清算の結了等,,,2015-10-05,1,,,,,シズオカケンナイガイコウヨウジュ,0
2038,7120001162201,登記記録の閉鎖等,0,2022-10-11,2022-10-05,エーケーティー合同会社,,合同会社,大阪府,大阪市北区,梅田１丁目１１番４号,,27,127,5300001,,,2022-10-05,清算の結了等,,,2015-10-05,1,,,,,エーケーティー,0
2051,7120002064834,登記記録の閉鎖等,0,2022-10-11,2022-10-05,有限会社ＢＥＣＡＵＳＥ,,有限会社,大阪府,大阪市西区,北堀江１丁目１５番７号,,27,106,5500014,,,2022-10-05,清算の結了等,,,2015-10-05,1,,,,,ビコーズ,0
2059,7120102002306,登記記録の閉鎖等,0,2022-10-11,2022-10-04,有限会社重村自動車商会,,有限会社,大阪府,堺市南区,和田東９１８番地４,,27,145,5900102,,,2022-10-04,清算の結了等,,,2015-10-05,1,,,,,シゲムラジドウシャショウカイ,0
2060,7120102024944,登記記録の閉鎖等,0,2022-10-11,2022-10-04,有限会社和泉建材,,有限会社,大阪府,和泉市,鶴山台４丁目２６番１３号,,27,219,5940013,,,2022-10-04,清算の結了等,,,2015-10-05,1,,,,,イズミケンザイ,0
2061,7120102027699,登記記録の閉鎖等,0,2022-10-11,2022-10-05,有限会社ハウスせんなん,,有限会社,大阪府,泉南市,信達市場２３２０番地の７８,,27,228,5900504,,,2022-10-05,清算の結了等,,,2015-10-05,1,,,,,ハウスセンナン,0
2065,7120901024913,登記記録の閉鎖等,0,2022-10-11,2022-10-06,内外機械通商株式会社,,株式会社,大阪府,豊中市,新千里北町２丁目１６番７号,,27,203,5600081,,,2022-10-06,清算の結了等,,,2015-10-05,1,,,,,ナイガイキカイツウショウ,0
2081,7140001102312,登記記録の閉鎖等,0,2022-10-11,2022-10-05,株式会社Ｋ＆Ｓ,,株式会社,兵庫県,尼崎市,神田北通４丁目４６番地の１,,28,202,6600883,,,2022-10-05,清算の結了等,,,2016-06-09,1,,,,,,0
2121,7180301012793,登記記録の閉鎖等,0,2022-10-11,2022-10-03,ヤマサ共和ライフ株式会社,,株式会社,愛知県,名古屋市熱田区,桜田町２０番１８号,,23,109,4560004,,,2022-10-03,合併による解散等,9180001022372,令和４年１０月１日名古屋市熱田区桜田町１９番１８号東邦液化ガス株式会社（9180001022372）に合併し解散,2015-10-05,1,,,,,ヤマサキョウワライフ,0
2133,7220001006629,登記記録の閉鎖等,0,2022-10-11,2022-10-06,松原工業株式会社,,株式会社,石川県,金沢市,金石北２丁目２番１１号,,17,201,9200338,,,2022-10-06,清算の結了等,,,2015-10-05,1,,,,,マツバラコウギョウ,0
2153,7290805000820,登記記録の閉鎖等,0,2022-10-11,2022-10-05,小倉港製材協同組合,,その他の設立登記法人,福岡県,北九州市小倉北区,大字中井西港町地先,,40,106,8030836,,,2022-10-05,清算の結了等,,,2015-10-05,1,,,,,コクラコウセイザイ,0
2158,7330003001823,登記記録の閉鎖等,0,2022-10-11,2022-10-05,合同会社フルライフプランニング,,合同会社,熊本県,熊本市中央区,帯山２丁目３番１５号,,43,101,8620924,,,2022-10-05,清算の結了等,,,2015-10-05,1,,,,,フルライフプランニング,0
2160,7330003008257,登記記録の閉鎖等,0,2022-10-11,2022-10-03,合同会社アヴァンティ,,合同会社,熊本県,合志市,幾久富１７５８－７７,,43,216,8611112,,,2022-10-03,合併による解散等,6330003008258,令和４年１０月１日熊本県合志市幾久富１７５８－７７合同会社コアルクス（6330003008258）に合併し解散,2020-02-05,1,,,,,アヴァンティ,0
2179,7390002007337,登記記録の閉鎖等,0,2022-10-11,2022-10-04,有限会社サンケン実業,,有限会社,山形県,酒田市,幸町２丁目２番１６号,,06,204,9980023,,,2022-10-04,清算の結了等,,,2015-10-05,1,,,,,サンケンジツギョウ,0
2180,7390002008277,登記記録の閉鎖等,0,2022-10-11,2022-10-04,有限会社遊農くらぶ,,有限会社,山形県,飽海郡遊佐町,直世字尻地５２番地,,06,461,9998525,,,2022-10-04,清算の結了等,,,2015-10-05,1,,,,,ユウノウクラブ,0
2202,7470002009928,登記記録の閉鎖等,0,2022-10-11,2022-10-06,有限会社木内鉄筋工業,,有限会社,香川県,高松市,国分寺町新名１００１番地５０,,37,201,7690104,,,2022-10-06,清算の結了等,,,2015-10-05,1,,,,,キウチテッキンコウギョウ,0
2205,7480002001842,登記記録の閉鎖等,0,2022-10-11,2022-10-04,有限会社サンエイ徳島,,有限会社,徳島県,徳島市,国府町日開４３９番地,,36,201,7793117,,,2022-10-04,清算の結了等,,,2015-10-05,1,,,,,サンエイトクシマ,0
2210,7500001014504,登記記録の閉鎖等,0,2022-10-11,2022-10-03,守谷グランドファーム株式会社,,株式会社,愛媛県,四国中央市,中曽根町２３３２番地,,38,213,7990413,,,2022-10-03,合併による解散等,9500001018833,令和４年１０月１日愛媛県四国中央市中曽根町２３３１番地の１株式会社オレンジ（9500001018833）に合併し解散,2015-10-05,1,,,,,,0
2221,8010001193909,登記記録の閉鎖等,0,2022-10-11,2022-10-03,ＳＡＯ株式会社,,株式会社,東京都,千代田区,麹町２丁目１０番３号リ・ノウ麹町,,13,101,1020083,,,2022-10-03,清算の結了等,,,2018-08-10,1,,,,,エスエーオー,0
2222,8010001196531,登記記録の閉鎖等,0,2022-10-11,2022-10-03,株式会社ネイチャーＭ＆Ａ,,株式会社,東京都,中央区,新川２丁目２６番３号住友不動産茅場町ビル２号館５階,,13,102,1040033,,,2022-10-03,合併による解散等,5010001217117,令和４年１０月１日東京都中央区新川二丁目２６番３号住友不動産茅場町ビル２号館５階株式会社ネイチャーテクノロジー（5010001217117）に合併し解散,2018-11-22,1,,,,,ネイチャーエムアンドエー,0
2232,8010005030372,登記記録の閉鎖等,0,2022-10-11,2022-10-06,弁護士法人東京永田町法律事務所,,その他の設立登記法人,東京都,千代田区,永田町２丁目９番８号パレロワイヤル永田町７０６号,,13,101,1000014,,,2022-10-06,清算の結了等,,,2019-07-03,1,,,,,トウキョウナガタチョウホウリツジムショ,0
2246,8010901018462,登記記録の閉鎖等,0,2022-10-11,2022-10-04,株式会社アルス１級建築士事務所,,株式会社,東京都,世田谷区,経堂４丁目１５番２号,,13,112,1560052,,,2022-10-04,清算の結了等,,,2015-10-05,1,,,,,アルスイッキュウケンチクシジムショ,0
2248,8010901038733,登記記録の閉鎖等,0,2022-10-11,2022-10-03,株式会社ＯＲＯＣＨＩ,,株式会社,東京都,世田谷区,玉川３丁目２０番２号マノア玉川第３ビル５０１号室,,13,112,1580094,,,2022-10-03,清算の結了等,,,2016-09-06,1,,,,,オロチ,0
2255,8011001137442,登記記録の閉鎖等,0,2022-10-11,2022-09-30,Ｐｏｒｉｚｏｎ　Ｔｅｃｈｎｏｌｏｇｙ株式会社,,株式会社,東京都,豊島区,目白４丁目１番１３号オープンレジデンシア目白プレイス３０４号,,13,116,1710031,,,2022-09-30,清算の結了等,,,2020-12-15,1,,,,,ポライズンテクノロジー,0
2302,8021001023443,登記記録の閉鎖等,0,2022-10-11,2022-09-28,相模環境化学株式会社,,株式会社,神奈川県,愛甲郡愛川町,角田４９４番地１,,14,401,2430301,,,2022-09-28,清算の結了等,,,2015-10-05,1,,,,,サガミカンキョウカガク,0
2324,8040001095549,登記記録の閉鎖等,0,2022-10-11,2022-10-03,株式会社サクセスオート,,株式会社,千葉県,茂原市,長谷１１１１番地,,12,210,2970063,,,2022-10-03,清算の結了等,,,2016-06-02,1,,,,,サクセスオート,0
2335,8050002025644,登記記録の閉鎖等,0,2022-10-11,2022-09-30,有限会社サシマ溶材,,有限会社,茨城県,古河市,駒込３２６番地の４,,08,204,3060121,,,2022-09-30,清算の結了等,,,2015-10-05,1,,,,,サシマヨウザイ,0
2357,8110001030102,登記記録の閉鎖等,0,2022-10-11,2022-10-03,株式会社ツバメ鋲螺,,株式会社,新潟県,燕市,小関１３１７番地８－１,,15,213,9591286,,,2022-10-03,清算の結了等,,,2015-10-05,1,,,,,ツバメビョウラ,0
2360,8120001049554,登記記録の閉鎖等,0,2022-10-11,2022-10-06,株式会社コーエイグループ,,株式会社,大阪府,大阪市西淀川区,佃２丁目１５番１３号,,27,113,5550001,,,2022-10-06,清算の結了等,,,2015-10-05,1,,,,,コーエイグループ,0
2368,8120002036568,登記記録の閉鎖等,0,2022-10-11,2022-10-03,有限会社セロン,,有限会社,大阪府,大阪市中央区,糸屋町１丁目４番７号,,27,128,5400022,,,2022-10-03,清算の結了等,,,2015-10-05,1,,,,,セロン,0
2378,8130001032427,登記記録の閉鎖等,0,2022-10-11,2022-10-03,株式会社大久保商弘,,株式会社,京都府,宇治市,広野町東裏８６番地ＳＫレジデンス新田１０１号,,26,204,6110031,,,2022-10-03,合併による解散等,1130002026491,令和４年１０月１日京都府宇治市広野町東裏８６番地ＳＫレジデンス新田１０１号株式会社商弘（1130002026491）に合併し解散,2015-10-05,1,,,,,オオクボショウコウ,0
2380,8130001036130,登記記録の閉鎖等,0,2022-10-11,2022-10-03,株式会社ＫＯＵＫＥＮ,,株式会社,京都府,亀岡市,西つつじケ丘美山台２丁目３番６号,,26,206,6210845,,,2022-10-03,清算の結了等,,,2015-10-05,1,,,,,コウケン,0
2386,8140001044033,登記記録の閉鎖等,0,2022-10-11,2022-10-03,株式会社創備,,株式会社,兵庫県,高砂市,荒井町小松原５丁目１番１０号,,28,216,6760011,,,2022-10-03,清算の結了等,,,2015-10-05,1,,,,,ソウビ,0
2391,8140001125881,登記記録の閉鎖等,0,2022-10-11,2022-10-03,株式会社鶴川,,株式会社,兵庫県,芦屋市,山手町２０番１７号,,28,206,6590096,,,2022-10-03,合併による解散等,4140001000766,令和４年１０月１日兵庫県芦屋市山手町２０番１７号株式会社丸川（4140001000766）に合併し解散,2022-05-16,1,,,,,ツルカワ,0
2403,8140005008488,登記記録の閉鎖等,0,2022-10-11,2022-09-27,天理教沼貫分教会,,その他の設立登記法人,兵庫県,丹波市,柏原町鴨野１４５番地の１,,28,223,6693316,,,2022-09-27,合併による解散等,4140005008500,令和４年９月２７日兵庫県丹波市柏原町小南２７番地天理教柏原分教会（4140005008500）に合併し解散,2015-10-05,1,,,,,テンリキョウヌマヌキブンキョウカイ,0
2405,8160001009918,登記記録の閉鎖等,0,2022-10-11,2022-10-04,株式会社澤田,,株式会社,滋賀県,東近江市,中小路町４１６番地の２,,25,213,5270045,,,2022-10-04,清算の結了等,,,2015-10-05,1,,,,,サワダ,0
2415,8180001087284,登記記録の閉鎖等,0,2022-10-11,2022-10-03,永建工業株式会社,,株式会社,愛知県,江南市,今市場町宮前７８番地,,23,217,4838182,,,2022-10-03,清算の結了等,,,2015-10-05,1,,,,,エイケンコウギョウ,0
2432,8190002004329,登記記録の閉鎖等,0,2022-10-11,2022-10-03,有限会社サンワテクニカル,,有限会社,三重県,津市,一志町八太佃９９５番地１,,24,201,5152515,,,2022-10-03,清算の結了等,,,2015-10-05,1,,,,,サンワテクニカル,0
2445,8220001019398,登記記録の閉鎖等,0,2022-10-11,2022-10-05,株式会社北本組,,株式会社,石川県,白山市,笠間町１９２４番地,,17,210,9240063,,,2022-10-05,清算の結了等,,,2015-10-05,1,,,,,キタモトグミ,0
2449,8240001011527,登記記録の閉鎖等,0,2022-10-11,2022-10-07,株式会社三幸ホームズ,,株式会社,広島県,広島市南区,宇品御幸３丁目１７番６号,,34,103,7340015,,,2022-10-07,清算の結了等,,,2015-10-05,1,,,,,ミユキホームズ,0
2459,8270001007596,登記記録の閉鎖等,0,2022-10-11,2022-10-03,株式会社ウェル米子,,株式会社,鳥取県,米子市,目久美町２３６番１の４,,31,202,6830035,,,2022-10-03,清算の結了等,,,2018-09-13,1,,,,,ウェルヨナゴ,0
2471,8320001008300,登記記録の閉鎖等,0,2022-10-11,2022-10-05,みろく酒造株式会社,,株式会社,大分県,杵築市,山香町大字立石字竹の下２２４５番地,,44,210,8791302,,,2022-10-05,合併による解散等,5340001014935,令和４年１０月１日鹿児島県志布志市松山町尾野見１３１９番地８３太久保酒造株式会社（5340001014935）に合併し解散,2015-10-05,1,,,,,ミロクシュゾウ,0
2474,8330002019304,登記記録の閉鎖等,0,2022-10-11,2022-10-04,有限会社三藤鉄工,,有限会社,熊本県,熊本市北区,植木町大和４３番地７,,43,105,8610143,,,2022-10-04,清算の結了等,,,2022-05-13,1,,,,,ミフジテッコウ,0
2475,8330003008256,登記記録の閉鎖等,0,2022-10-11,2022-10-03,合同会社プリマローザ,,合同会社,熊本県,合志市,幾久富１７５８－７７,,43,216,8611112,,,2022-10-03,合併による解散等,7330003007812,令和４年１０月１日熊本県合志市幾久富１７５８－７７合同会社ロイヤルアセット（7330003007812）に合併し解散,2020-02-05,1,,,,,プリマローザ,0
2502,8430001056619,登記記録の閉鎖等,0,2022-10-11,2022-09-29,株式会社カネマル三浦鋼業,,株式会社,北海道,室蘭市,白鳥台４丁目３５番２号,,01,205,0500054,,,2022-09-29,清算の結了等,,,2015-10-05,1,,,,,カネマルミウラコウギョウ,0
2525,9010001210068,登記記録の閉鎖等,0,2022-10-11,2022-10-03,株式会社ＢＳＹ,,株式会社,東京都,千代田区,内幸町２丁目１番６号,,13,101,1000011,,,2022-10-03,清算の結了等,,,2020-06-08,1,,,,,ビーエスワイ,0
2530,9010401075177,登記記録の閉鎖等,0,2022-10-11,2022-10-03,株式会社アネット,,株式会社,東京都,品川区,東大井１丁目５番１３号愛宕ビル,,13,109,1400011,,,2022-10-03,合併による解散等,4010401001757,令和４年１０月１日東京都品川区東大井一丁目５番１３号愛宕ビル株式会社アヅマ（4010401001757）に合併し解散,2015-10-05,1,,,,,アネット,0
2564,9011101058075,登記記録の閉鎖等,0,2022-10-11,2022-10-03,ＳＯＤホールディングス株式会社,,株式会社,東京都,千代田区,神田駿河台２丁目９番地ＫＤＸ御茶ノ水ビル５階,,13,101,1010062,,,2022-10-03,合併による解散等,8011101066054,令和４年１０月１日東京都千代田区神田駿河台二丁目９番地ＫＤＸ御茶ノ水ビル５階ＦＳホールディングス株式会社（8011101066054）に合併し解散,2015-10-05,1,,,,,エスオーディーホールディングス,0
2565,9011101093956,登記記録の閉鎖等,0,2022-10-11,2022-10-05,株式会社Ｇ．Ａ．Ｌ,,株式会社,東京都,新宿区,西新宿６丁目１５－１ラトゥール新宿４１０６号室,,13,104,1600023,,,2022-10-05,清算の結了等,,,2021-02-15,1,,,,,ジーエーエル,0
2587,9011802002224,登記記録の閉鎖等,0,2022-10-11,2022-10-05,有限会社きねや商事,,有限会社,東京都,葛飾区,東四つ木４丁目１９番１０イーストピア四つ木１０２号,,13,122,1240014,,,2022-10-05,清算の結了等,,,2015-10-05,1,,,,,キネヤショウジ,0
2591,9012402002011,登記記録の閉鎖等,0,2022-10-11,2022-10-04,有限会社生井沢土建,,有限会社,東京都,府中市,西原町２丁目２９番地,,13,206,1830046,,,2022-10-04,清算の結了等,,,2015-10-05,1,,,,,ナマイザワドケン,0
2635,9040002011751,登記記録の閉鎖等,0,2022-10-11,2022-10-03,有限会社森川通信,,有限会社,千葉県,千葉市中央区,星久喜町１１９７番地の１２,,12,101,2600808,,,2022-10-03,清算の結了等,,,2015-10-05,1,,,,,モリカワツウシン,0
2638,9040002100777,登記記録の閉鎖等,0,2022-10-11,2022-09-29,有限会社粕谷石油店,,有限会社,千葉県,鴨川市,仲町５８９番地の２,,12,223,2992851,,,2022-09-29,清算の結了等,,,2015-10-05,1,,,,,カスヤセキユテン,0
2668,9110001026231,登記記録の閉鎖等,0,2022-10-11,2022-10-04,株式会社合作社,,株式会社,新潟県,南魚沼市,五日町１９９８番地,,15,226,9497101,,,2022-10-04,清算の結了等,,,2015-10-05,1,,,,,ガッサクシャ,0
2674,9120001239781,登記記録の閉鎖等,0,2022-10-11,2022-10-06,株式会社はやぶさ,,株式会社,大阪府,大阪市淀川区,十三東２丁目７番５号,,27,123,5320023,,,2022-10-06,清算の結了等,,,2021-08-18,1,,,,,ハヤブサ,0
2721,9140001118810,登記記録の閉鎖等,0,2022-10-11,2022-10-03,株式会社ポーラス・コーポレーション,,株式会社,兵庫県,加東市,平木１３１０番地４２８,,28,228,6731402,,,2022-10-03,清算の結了等,,,2020-09-24,1,,,,,ポーラスコーポレーション,0
2731,9140002036689,登記記録の閉鎖等,0,2022-10-11,2022-10-04,有限会社真島電気,00040965,有限会社,兵庫県,加古川市,尾上町旭１丁目２８番地の３,,28,210,6750026,,,2022-10-04,清算の結了等,,,2015-10-05,1,,,,,マジマデンキ,0
2732,9140002047125,登記記録の閉鎖等,0,2022-10-11,2022-10-03,有限会社ア,,有限会社,兵庫県,姫路市,飾磨区構４丁目３０２番地,,28,201,6728071,,,2022-10-03,清算の結了等,,,2015-10-05,1,,,,,ア,0
2743,9160001000099,登記記録の閉鎖等,0,2022-10-11,2022-10-03,株式会社鮎家本店,00044157,株式会社,滋賀県,大津市,真野２丁目２４番１号,,25,201,5200232,,,2022-10-03,合併による解散等,9160001015725,令和４年１０月１日滋賀県大津市真野二丁目２４番１号株式会社鮎家（9160001015725）に合併し解散,2015-10-05,1,,,,,アユヤホンテン,0
2752,9180001113493,登記記録の閉鎖等,0,2022-10-11,2022-10-03,ヤマサ総合サービス株式会社,,株式会社,愛知県,名古屋市熱田区,桜田町２０番１８号,,23,109,4560004,,,2022-10-03,合併による解散等,9180001022372,令和４年１０月１日名古屋市熱田区桜田町１９番１８号東邦液化ガス株式会社（9180001022372）に合併し解散,2015-10-05,1,,,,,ヤマサソウゴウサービス,0
2754,9180001143474,登記記録の閉鎖等,0,2022-10-11,2022-09-30,株式会社Ｕ’ｓ　ｓｃｉｅｎｃｅ,,株式会社,愛知県,名古屋市中区,丸の内２丁目１８番１４号ランドスクエア丸の内ビル８０５,,23,106,4600002,,,2022-09-30,清算の結了等,,,2020-11-09,1,,,,,ユースサイエンス,0
2772,9190001018080,登記記録の閉鎖等,0,2022-10-11,2022-10-04,株式会社ＮＥＸＴ,,株式会社,三重県,四日市市,南小松町道山１０８番,,24,202,5100971,,,2022-10-04,清算の結了等,,,2015-10-05,1,,,,,ネクスト,0
2792,9280005006064,登記記録の閉鎖等,0,2022-10-11,2022-10-03,天理教眞澄水分教会,,その他の設立登記法人,島根県,雲南市,大東町小河内６８５番１地,,32,209,6991201,,,2022-10-03,合併による解散等,6280005006281,令和４年１０月３日島根県仁多郡奥出雲町下阿井１４１５番４地天理教阿井分教会（6280005006281）に合併し解散,2015-10-05,1,,,,,テンリキョウマスミズブンキョウカイ,0
2795,9290001031899,登記記録の閉鎖等,0,2022-10-11,2022-10-03,株式会社インテージ,,株式会社,福岡県,福岡市博多区,博多駅前２丁目１９番１７号,,40,132,8120011,,,2022-10-03,清算の結了等,,,2015-10-05,1,,,,,インテージ,0
2826,9370001018062,登記記録の閉鎖等,0,2022-10-11,2022-10-05,盛岡第２合同庁舎整備運営株式会社,,株式会社,東京都,新宿区,西新宿３丁目７番１号,,13,104,1600023,,,2022-10-05,清算の結了等,,,2015-10-05,1,,,,,モリオカダイニゴウドウチョウシャセイビウンエイ,0
2841,9500001015161,登記記録の閉鎖等,0,2022-10-11,2022-10-03,株式会社Ｎ・Ｒ・Ｋエステート,,株式会社,愛媛県,四国中央市,土居町中村１２９８番地５,,38,213,7990701,,,2022-10-03,合併による解散等,3500001015051,令和４年１０月１日愛媛県四国中央市土居町津根３７４０番地１株式会社山口観光（3500001015051）に合併し解散,2015-10-05,1,,,,,エヌアールケイエステート,0
