sequenceNumber,corporateNumber,process,correct,updateDate,changeDate,name,nameImageId,kind,prefectureName,cityName,streetNumber,addressImageId,prefectureCode,cityCode,postCode,addressOutside,addressOutsideImageId,closeDate,closeCause,successorCorporateNumber,changeCause,assignmentDate,latest,enName,enPrefectureName,enCityName,enAddressOutside,furigana,hihyoji
4,1010001252274,新規,0,2025-02-17,2025-02-17,ＶＵＬＣＡＮ　ＳＨＩＥＬＤ　ＧＬＯＢＡＬ株式会社,,株式会社,東京都,千代田区,麹町４丁目５番２０号ＫＳビル４階４１２室,,13,101,1020083,,,,,,,2025-02-17,1,,,,,バルカンシールドグローバル,0
5,1010001252308,新規,0,2025-02-17,2025-02-17,Ｈｏｌｅ　Ｚｅｒｏ株式会社,,株式会社,東京都,中央区,晴海５丁目６番６－５０２号,,13,102,1040053,,,,,,,2025-02-17,1,,,,,ホールゼロ,0
6,1010003046410,新規,0,2025-02-17,2025-02-17,ＬＥＶＥＣＨＹファンド２１号合同会社,,合同会社,東京都,千代田区,紀尾井町３－８第２紀尾井町ビル９０１アクシス綜合会計事務所内,,13,101,1020094,,,,,,,2025-02-17,1,,,,,レベチーファンドニジュウイチゴウ,0
19,1010401188267,新規,0,2025-02-17,2025-02-17,株式会社ＢＵＩＬＤ,,株式会社,東京都,港区,東麻布１丁目９番１１号ＧＲＯＷＴＨＢＹＩＯＱ・Ｗ－０５,,13,103,1060044,,,,,,,2025-02-17,1,,,,,ビルド,0
21,1010501053602,新規,0,2025-02-17,2025-02-17,Ｈａｒｍｏｎｙ　ｈｏｍｅ株式会社,,株式会社,東京都,台東区,上野１丁目１０番８－１Ｆ,,13,106,1100005,,,,,,,2025-02-17,1,,,,,ハーモニーホーム,0
22,1010501053635,新規,0,2025-02-17,2025-02-17,株式会社Ｂａｒｓｐｏｏｎ,,株式会社,東京都,台東区,蔵前１丁目４番８号,,13,106,1110051,,,,,,,2025-02-17,1,,,,,バースプーン,0
23,1010501053676,新規,0,2025-02-17,2025-02-17,株式会社風裕堂,,株式会社,東京都,台東区,浅草５丁目６番１０－９０２号,,13,106,1110032,,,,,,,2025-02-17,1,,,,,フウユウドウ,0
26,1010601066776,新規,0,2025-02-17,2025-02-17,鴻瑞株式会社,,株式会社,東京都,江東区,亀戸３丁目６２番１０号ＳＡＮビル４０６号室,,13,108,1360071,,,,,,,2025-02-17,1,,,,,コウズイ,0
27,1010603011383,新規,0,2025-02-17,2025-02-17,合同会社ダイハツ,,合同会社,東京都,江東区,亀戸２丁目２５番３号小黒ビル５Ｆ,,13,108,1360071,,,,,,,2025-02-17,1,,,,,ダイハツ,0
40,1011001167660,新規,0,2025-02-17,2025-02-17,株式会社ＳｃｉＣａｒｅｅｒ,,株式会社,東京都,渋谷区,神宮前６丁目２３番４号桑野ビル２階,,13,113,1500001,,,,,,,2025-02-17,1,,,,,サイキャリア,0
41,1011001167867,新規,0,2025-02-17,2025-02-17,株式会社マイキャリア,,株式会社,東京都,渋谷区,千駄ヶ谷１丁目１１番１４号ビジデンス千駄ヶ谷６０３,,13,113,1510051,,,,,,,2025-02-17,1,,,,,マイキャリア,0
43,1011003021031,新規,0,2025-02-17,2025-02-17,合同会社ＩＣＨＯ,,合同会社,東京都,渋谷区,渋谷３丁目５番１６号,,13,113,1500002,,,,,,,2025-02-17,1,,,,,イチョウ,0
46,1011101110611,新規,0,2025-02-17,2025-02-17,株式会社ライラック,,株式会社,東京都,新宿区,歌舞伎町２丁目２２番８号第８金嶋ビル３階,,13,104,1600021,,,,,,,2025-02-17,1,,,,,ライラック,0
47,1011101110644,新規,0,2025-02-17,2025-02-17,株式会社ｅｅ　ｌｉｎｋ,,株式会社,東京都,新宿区,西新宿８丁目２番５号,,13,104,1600023,,,,,,,2025-02-17,1,,,,,イーリンク,0
49,1011103015486,新規,0,2025-02-17,2025-02-17,オープニングトーク合同会社,,合同会社,東京都,新宿区,荒木町５番地６プリムヴェール四谷１１０７,,13,104,1600007,,,,,,,2025-02-17,1,,,,,オープニングトーク,0
50,1011105011335,新規,0,2025-02-17,2025-02-17,ユニオンカント,,その他の設立登記法人,東京都,新宿区,新宿２丁目１２－１３新宿アントレサロンビル２Ｆ,,13,104,1600022,,,,,,,2025-02-17,1,,,,,ユニオンカント,0
58,1011301030361,新規,0,2025-02-17,2025-02-17,株式会社ＩＣＣ,,株式会社,東京都,杉並区,上高井戸３丁目５番９号,,13,115,1680074,,,,,,,2025-02-17,1,,,,,インターナショナルコンディショニングコンサルティング,0
63,1011501031705,新規,0,2025-02-17,2025-02-17,Ｓｕｎｒｉｓｅ　Ｎｅｘｕｓ　Ｈａｖｅｎ株式会社,,株式会社,東京都,荒川区,町屋３丁目１８－１２ＮＤビル２１１,,13,118,1160001,,,,,,,2025-02-17,1,,,,,サンライズネキサスヘブン,0
64,1011503006424,新規,0,2025-02-17,2025-02-17,合同会社ぱっと,,合同会社,東京都,北区,王子１丁目３０番１０,,13,117,1140002,,,,,,,2025-02-17,1,,,,,パット,0
65,1011601028436,新規,0,2025-02-17,2025-02-17,株式会社Ｍｏ’Ｍｅｎｔ,,株式会社,東京都,練馬区,大泉学園町３丁目１番３２号,,13,120,1780061,,,,,,,2025-02-17,1,,,,,モーメント,0
68,1011701028047,新規,0,2025-02-17,2025-02-17,株式会社ＡＳＬＡＮ,,株式会社,東京都,江戸川区,松江２丁目４番４号,,13,123,1320025,,,,,,,2025-02-17,1,,,,,アスラン,0
71,1012301014255,新規,0,2025-02-17,2025-02-17,株式会社三堀総業,,株式会社,東京都,町田市,金井８丁目２５番１８号６ルミナーレＤ,,13,209,1950072,,,,,,,2025-02-17,1,,,,,ミツボリソウギョウ,0
74,1013101009627,新規,0,2025-02-17,2025-02-17,株式会社鳶興隆,,株式会社,東京都,青梅市,今寺２丁目５００番地２４,,13,205,1980021,,,,,,,2025-02-17,1,,,,,トビコウリュウ,0
75,1013103001400,新規,0,2025-02-17,2025-02-17,合同会社ＳＯＮＡＲＵ,,合同会社,東京都,福生市,大字熊川１４４７番地１ドルチェ拝島３０５号室,,13,218,1970003,,,,,,,2025-02-17,1,,,,,ソナル,0
86,1020001161499,新規,0,2025-02-17,2025-02-17,Ａｎｏｄｅ株式会社,,株式会社,神奈川県,横浜市神奈川区,金港町５－１４クアドリフォリオ８階,,14,102,2210056,,,,,,,2025-02-17,1,,,,,エーノード,0
95,1021001084368,新規,0,2025-02-17,2025-02-17,株式会社ＬＶ‐Ｒ,,株式会社,神奈川県,小田原市,南町４丁目１番５７－１４０３号,,14,206,2500013,,,,,,,2025-02-17,1,,,,,エルブイアール,0
103,1030001164889,新規,0,2025-02-17,2025-02-17,株式会社美之工業,,株式会社,埼玉県,本庄市,児玉町金屋７２５番地２２,,11,211,3670216,,,,,,,2025-02-17,1,,,,,ミユキコウギョウ,0
106,1030005022044,新規,0,2025-02-17,2025-02-17,一般社団法人ＲＵＮ．ｊｐ,,その他の設立登記法人,埼玉県,朝霞市,幸町２丁目１４－２２－１Ｆ,,11,227,3510015,,,,,,,2025-02-17,1,,,,,ランドットジェーピー,0
113,1040001137381,新規,0,2025-02-17,2025-02-17,株式会社オフィスＫ,,株式会社,千葉県,野田市,野田６９３番地の４,,12,208,2780037,,,,,,,2025-02-17,1,,,,,オフィスケイ,0
114,1040001137398,新規,0,2025-02-17,2025-02-17,株式会社ＲＥＲＥＸ,,株式会社,千葉県,松戸市,松戸１３０７－１松戸ビル１３Ｆ,,12,207,2710092,,,,,,,2025-02-17,1,,,,,リレックス,0
115,1040001137407,新規,0,2025-02-17,2025-02-17,株式会社ホイアン商会,,株式会社,千葉県,市原市,八幡７５６番地１エムジェイソー２０３,,12,219,2900062,,,,,,,2025-02-17,1,,,,,ホイアンショウカイ,0
118,1050001056168,新規,0,2025-02-17,2025-02-17,株式会社ハピネスライフ,,株式会社,茨城県,つくば市,島名４３７６番地（諏訪Ｃ１９街区２）グランドパレスＮＳ－８８．６０５号,,08,220,3002655,,,,,,,2025-02-17,1,,,,,ハピネスライフ,0
120,1060001037910,新規,0,2025-02-17,2025-02-17,株式会社廣田工業,,株式会社,栃木県,鹿沼市,緑町２丁目１番４９号ＩＮＡビル２０２号室,,09,205,3220025,,,,,,,2025-02-17,1,,,,,ヒロタコウギョウ,0
126,1080101025318,新規,0,2025-02-17,2025-02-17,株式会社リモデルワタナベ,,株式会社,静岡県,三島市,谷田４０３番地の１６,,22,206,4110801,,,,,,,2025-02-17,1,,,,,リモデルワタナベ,0
129,1090001019146,新規,0,2025-02-17,2025-02-17,スノーキャピタル株式会社,,株式会社,山梨県,笛吹市,石和町今井６５９番地１,,19,211,4060042,,,,,,,2025-02-17,1,,,,,スノーキャピタル,0
147,1120001272807,新規,0,2025-02-17,2025-02-17,シャーシャン株式会社,,株式会社,大阪府,大阪市住吉区,苅田８丁目１２番２７号セレーナあびこ事務所内,,27,120,5580011,,,,,,,2025-02-17,1,,,,,シャーシャン,0
148,1120001272914,新規,0,2025-02-17,2025-02-17,日順株式会社,,株式会社,大阪府,大阪市都島区,片町１丁目７番２５号,,27,102,5340025,,,,,,,2025-02-17,1,,,,,ニチジュン,0
150,1120101071076,新規,0,2025-02-17,2025-02-17,ＧＡＲＢＥＲＡ株式会社,,株式会社,大阪府,堺市堺区,大町東４丁２番２４号パークサイド堺６０６,,27,141,5900954,,,,,,,2025-02-17,1,,,,,ガーベラ,0
161,1150001027885,新規,0,2025-02-17,2025-02-17,株式会社にじいろ,,株式会社,奈良県,大和高田市,大字市場１３２番地２１,,29,202,6350074,,,,,,,2025-02-17,1,,,,,ニジイロ,0
163,1160001026548,新規,0,2025-02-17,2025-02-17,株式会社ＡＭ,,株式会社,滋賀県,草津市,追分南３丁目１２番２号,,25,206,5250048,,,,,,,2025-02-17,1,,,,,エーエム,0
170,1180003028004,新規,0,2025-02-17,2025-02-17,合同会社ライフサポートアルス,,合同会社,愛知県,豊明市,栄町大根１番地８０７,,23,229,4701166,,,,,,,2025-02-17,1,,,,,ライフサポートアルス,0
176,1190001031999,新規,0,2025-02-17,2025-02-17,Ｋｅｄａｂｅｒａ株式会社,,株式会社,三重県,津市,川添町８番２９号風の郷２０１,,24,201,5140044,,,,,,,2025-02-17,1,,,,,ケダベラ,0
177,1190001032007,新規,0,2025-02-17,2025-02-17,株式会社Ａリムーバー,,株式会社,三重県,鈴鹿市,白子１丁目８番１６号,,24,207,5100243,,,,,,,2025-02-17,1,,,,,エーリムーバー,0
185,1230003002374,新規,0,2025-02-17,2025-02-17,合同会社Ｏｈｎｏ,,合同会社,富山県,富山市,石金１丁目９‐１４,,16,201,9300966,,,,,,,2025-02-17,1,,,,,オーノ,0
188,1240005015893,新規,0,2025-02-17,2025-02-17,保証責任川西村三和負債整理組合,,その他の設立登記法人,広島県,三次市,,,34,209,7280000,,,,,,,2025-02-17,1,,,,,ホショウセキニンカワニシソンサンワ,0
190,1260003005060,新規,0,2025-02-17,2025-02-17,合同会社おかやまリノベース,,合同会社,岡山県,岡山市東区,広谷４６５－１,,33,103,7048182,,,,,,,2025-02-17,1,,,,,オカヤマリノベース,0
191,1270003001711,新規,0,2025-02-17,2025-02-17,合同会社サンエイチ,,合同会社,鳥取県,鳥取市,南栄町８番地,,31,201,6891121,,,,,,,2025-02-17,1,,,,,サンエイチ,0
203,1290001108944,新規,0,2025-02-17,2025-02-17,味の極み株式会社,,株式会社,福岡県,福岡市中央区,高砂２丁目４－２,,40,133,8100011,,,,,,,2025-02-17,1,,,,,アジノキワミ,0
207,1290003016402,新規,0,2025-02-17,2025-02-17,合同会社菜の花,,合同会社,福岡県,飯塚市,津原６６３番地９,,40,205,8200086,,,,,,,2025-02-17,1,,,,,ナノハナ,0
220,1360001034786,新規,0,2025-02-17,2025-02-17,株式会社スタイルプラス,,株式会社,沖縄県,中頭郡嘉手納町,字嘉手納７番地２,,47,325,9040203,,,,,,,2025-02-17,1,,,,,スタイルプラス,0
221,1360001034794,新規,0,2025-02-17,2025-02-17,株式会社かつや設備,,株式会社,沖縄県,中頭郡西原町,字津花波２０６番地の１,,47,329,9030123,,,,,,,2025-02-17,1,,,,,カツヤセツビ,0
228,1400005008468,新規,0,2025-02-17,2025-02-17,医療法人清心会,,その他の設立登記法人,岩手県,遠野市,穀町７番地３９,,03,208,0280516,,,,,,,2025-02-17,1,,,,,セイシンカイ,0
230,1430001093692,新規,0,2025-02-17,2025-02-17,株式会社ダイナワーク,,株式会社,北海道,札幌市東区,北四十条東１２丁目３番１－２０２号,,01,103,0070840,,,,,,,2025-02-17,1,,,,,ダイナワーク,0
231,1430001093701,新規,0,2025-02-17,2025-02-17,ダンク株式会社,,株式会社,北海道,札幌市中央区,南二十条西１４丁目２番２１－２０１号,,01,101,0640920,,,,,,,2025-02-17,1,,,,,ダンク,0
234,1460301005279,新規,0,2025-02-17,2025-02-17,株式会社新国農園,,株式会社,北海道,紋別郡遠軽町,生田原豊原１８７番地６,,01,555,0990624,,,,,,,2025-02-17,1,,,,,ニイクニノウエン,0
235,1480003002234,新規,0,2025-02-17,2025-02-17,合同会社りんどう,,合同会社,徳島県,阿南市,日開野町筒路２０番地１,,36,204,7740013,,,,,,,2025-02-17,1,,,,,リンドウ,0
241,1700150129204,新規,0,2025-02-17,2025-02-17,Ｓｈｅｎｚｈｅｎｓｈｉ　ｙｉｗｅｉｔｅ　ｄｉａｎｚｉｋｅｊｉｙｏｕｘｉａｎｇｏｎｇｓｉ,,外国会社等,,,,,,,,Ｓｈｅｎｚｈｅｎｓｈｉ　ＬｏｎｇｈｕａＱｕ　ＬｏｎｇｈｕａＪｉｅｄａｏ　ＹｏｕｓｏｎｇＳｈｅｑｕ　Ｓｈｕｎｊｉｎｇｃｈｕａｎｇｋｅｙｕａｎ　Ｃ　ｄａｎｙｕａｎ　５０６,,,,,,2025-02-17,1,,,,,シェンジェンシーイーウェイターディエンズーコージーヨウシエンゴンスー,0
242,1700150129212,新規,0,2025-02-17,2025-02-17,ＨＫ　ＢＡＹＡＮＢＵＬＡＫ　ＩＮＴＥＲＮＡＴＩＯＮＡＬ　ＥＬＥＣＴＲＯＮＩＣ　ＣＯＭＭＥＲＣＥ　ＬＩＭＩＴＥＤ,,外国会社等,,,,,,,,Ｒｏｏｍ　７０４，７／Ｆ．，Ｔｏｗｅｒ　Ａ，Ｎｅｗ　Ｍａｎｄａｒｉｎ　Ｐｌａｚａ，１４　Ｓｃｉｅｎｃｅ　Ｍｕｓｅｕｍ　Ｒｏａｄ，ＴＳＴ　Ｅａｓｔ，Ｋｏｗｌｏｏｎ，Ｈｏｎｇ　Ｋｏｎｇ,,,,,,2025-02-17,1,,,,,ホンコンバヤンブラクインターナショナルエレクトロニックコマースリミテッド,0
247,2010001252307,新規,0,2025-02-17,2025-02-17,株式会社ＣＤＩ　Ｉｎｉｔｉａｔｉｖｅ,,株式会社,東京都,中央区,日本橋室町１丁目１１番１２号日本橋水野ビル７階,,13,102,1030022,,,,,,,2025-02-17,1,,,,,シーディーアイイニシアチブ,0
248,2010003046434,新規,0,2025-02-17,2025-02-17,合同会社ＬＵＭｉＴＯＯＮ,,合同会社,東京都,文京区,目白台１丁目２１番２号,,13,105,1120015,,,,,,,2025-02-17,1,,,,,ルミトゥーン,0
256,2010401188282,新規,0,2025-02-17,2025-02-17,Ｐｌａｙｂｏｏｋ　Ｔａｌｅｎｔ株式会社,,株式会社,東京都,港区,元麻布３丁目１番６号,,13,103,1060046,,,,,,,2025-02-17,1,,,,,プレイブックタレント,0
257,2010403034410,新規,0,2025-02-17,2025-02-17,フェアノール・マネジメント合同会社,,合同会社,東京都,港区,海岸１丁目２番１－１５０８号,,13,103,1050022,,,,,,,2025-02-17,1,,,,,フェアノールマネジメント,0
258,2010403034435,新規,0,2025-02-17,2025-02-17,合同会社ＲＹＵＧＵ,,合同会社,東京都,港区,元赤坂１丁目１番７号,,13,103,1070051,,,,,,,2025-02-17,1,,,,,リュウグウ,0
260,2010601066783,新規,0,2025-02-17,2025-02-17,株式会社アクエス,,株式会社,東京都,江東区,住吉１丁目１９番１－１５０８号,,13,108,1350002,,,,,,,2025-02-17,1,,,,,アクエス,0
261,2010601066791,新規,0,2025-02-17,2025-02-17,株式会社ウェルビーイング・チャイルドケア,,株式会社,東京都,江東区,豊洲３丁目６番５号ザ・トヨスタワー２１２０,,13,108,1350061,,,,,,,2025-02-17,1,,,,,ウェルビーイングチャイルドケア,0
275,2011001167627,新規,0,2025-02-17,2025-02-17,株式会社Ａｔｏ,,株式会社,東京都,渋谷区,道玄坂１丁目１０番８号渋谷道玄坂東急ビル２Ｆ－Ｃ,,13,113,1500043,,,,,,,2025-02-17,1,,,,,アト,0
276,2011001167635,新規,0,2025-02-17,2025-02-17,ｈｉｋａｌｉ株式会社,,株式会社,東京都,渋谷区,神南１丁目２３－１０東急渋谷駅前ビルＭＡＧＮＥＴ４Ｆ,,13,113,1500041,,,,,,,2025-02-17,1,,,,,ヒカリ,0
277,2011001167676,新規,0,2025-02-17,2025-02-17,株式会社Ｊｏｂ　ｉｓ　Ｗｅｌｌ,,株式会社,東京都,渋谷区,道玄坂１丁目１０番８号渋谷道玄坂東急ビル２Ｆ－Ｃ,,13,113,1500043,,,,,,,2025-02-17,1,,,,,,0
281,2011003020973,新規,0,2025-02-17,2025-02-17,ｍｘｖ合同会社,,合同会社,東京都,渋谷区,渋谷２丁目１９－１５宮益坂ビルディング６０９,,13,113,1500002,,,,,,,2025-02-17,1,,,,,エムエックスブイ,0
284,2011103015543,新規,0,2025-02-17,2025-02-17,合同会社カスタムドール,,合同会社,東京都,新宿区,西新宿３丁目３－１３西新宿水間ビル２Ｆ,,13,104,1600023,,,,,,,2025-02-17,1,,,,,カスタムドール,0
288,2011401026812,新規,0,2025-02-17,2025-02-17,ハイディマンド・コミュニケーションズ株式会社,,株式会社,東京都,板橋区,大山町１２番２号ＤＴ大山町,,13,119,1730023,,,,,,,2025-02-17,1,,,,,ハイディマンドコミュニケーションズ,0
289,2011401026820,新規,0,2025-02-17,2025-02-17,Ｆａｓｈｉｏｎ　Ｆｒｉｅｎｄ　Ｄａｉｙａ株式会社,,株式会社,東京都,板橋区,大山西町５４－１２平和ハイム３０１,,13,119,1730033,,,,,,,2025-02-17,1,,,,,ファッションフレンドダイヤ,0
292,2011601028435,新規,0,2025-02-17,2025-02-17,株式会社ＰｏｌＡｓｃｅｎｓｉｏｎ,,株式会社,東京都,練馬区,高野台１丁目１５番３号,,13,120,1770033,,,,,,,2025-02-17,1,,,,,ポラセンション,0
297,2011801045627,新規,0,2025-02-17,2025-02-17,京吉洲株式会社,,株式会社,東京都,葛飾区,新小岩２丁目１９番１７号,,13,122,1240024,,,,,,,2025-02-17,1,,,,,ケイキチシュウ,0
303,2012803003630,新規,0,2025-02-17,2025-02-17,ＴＡＴ合同会社,,合同会社,東京都,日野市,日野台２丁目２０番地の４,,13,212,1910003,,,,,,,2025-02-17,1,,,,,ティーエーティー,0
305,2013301053779,新規,0,2025-02-17,2025-02-17,株式会社佳,,株式会社,東京都,豊島区,東池袋３丁目８番５－８０３号,,13,116,1700013,,,,,,,2025-02-17,1,,,,,ケイ,0
307,2013303007543,新規,0,2025-02-17,2025-02-17,合同会社ＱＲＬ,,合同会社,東京都,豊島区,池袋３丁目３４番７号ビジネスパーク池袋２階,,13,116,1710014,,,,,,,2025-02-17,1,,,,,キューアールエル,0
327,2021003015592,新規,0,2025-02-17,2025-02-17,エバーブルーグリーン合同会社,,合同会社,神奈川県,秦野市,羽根４４３－２,,14,211,2591301,,,,,,,2025-02-17,1,,,,,エバーブルーグリーン,0
342,2040001137389,新規,0,2025-02-17,2025-02-17,株式会社レイズウェイブ,,株式会社,千葉県,千葉市緑区,あすみが丘９丁目１５番地４０,,12,105,2670066,,,,,,,2025-02-17,1,,,,,レイズウェイブ,0
343,2040001137397,新規,0,2025-02-17,2025-02-17,Ｓｅｎｓｕｋｅ　Ｌｉｖｉｎｇ株式会社,,株式会社,千葉県,市川市,欠真間１丁目１１番８号,,12,203,2720142,,,,,,,2025-02-17,1,,,,,センスケリビング,0
348,2050001056175,新規,0,2025-02-17,2025-02-17,株式会社ＤＨＳ,,株式会社,茨城県,稲敷郡河内町,長竿２５番地５,,08,447,3001312,,,,,,,2025-02-17,1,,,,,ディーエッチエス,0
362,2120001272723,新規,0,2025-02-17,2025-02-17,雲棟株式会社,,株式会社,大阪府,大阪市東淀川区,瑞光１丁目５－１８－２０１号,,27,114,5330005,,,,,,,2025-02-17,1,,,,,ウントウ,0
363,2120001272855,新規,0,2025-02-17,2025-02-17,徳厚株式会社,00138011,株式会社,大阪府,大阪市城東区,野江３丁目２５番６ー４０５号室,,27,118,5360006,,,,,,,2025-02-17,1,,,,,トクアツ,0
364,2120001272871,新規,0,2025-02-17,2025-02-17,Ｎａｔｕｒａｌ株式会社,,株式会社,大阪府,大阪市西区,南堀江１丁目１６－９－４１２,,27,106,5500015,,,,,,,2025-02-17,1,,,,,ナチュラル,0
366,2120003028628,新規,0,2025-02-17,2025-02-17,合同会社うむや,,合同会社,大阪府,大阪市住吉区,苅田７丁目５番１３号コーポウエキ４０３号,,27,120,5580011,,,,,,,2025-02-17,1,,,,,ウムヤ,0
367,2120003028644,新規,0,2025-02-17,2025-02-17,合同会社シャインワン,,合同会社,大阪府,大阪市平野区,長吉長原２丁目１１番６号,,27,126,5470016,,,,,,,2025-02-17,1,,,,,シャインワン,0
371,2120101071067,新規,0,2025-02-17,2025-02-17,株式会社Ｗｉｔｈ　Ｌｉｆｅ,,株式会社,大阪府,藤井寺市,大井４丁目１６番２５号,,27,226,5830008,,,,,,,2025-02-17,1,,,,,ウィズライフ,0
375,2130003010205,新規,0,2025-02-17,2025-02-17,Ｆｕｊｉ　Ｇｒｏｕｐ合同会社,,合同会社,京都府,京都市西京区,嵐山中尾下町２０番地２７Ｇ－Ｐｌｕｓ嵐山２階２０２号室,,26,111,6160004,,,,,,,2025-02-17,1,,,,,フジグループ,0
381,2170001018493,新規,0,2025-02-17,2025-02-17,日中友好人才技術交流株式会社,,株式会社,和歌山県,和歌山市,松江北２丁目５－６,,30,201,6408425,,,,,,,2025-02-17,1,,,,,ニッチュウユウコウジンザイギジュツコウリュウ,0
388,2180001165418,新規,0,2025-02-17,2025-02-17,株式会社フジ,,株式会社,愛知県,名古屋市中区,丸の内３丁目２１番２１号丸の内東桜ビル４０２,,23,106,4600002,,,,,,,2025-02-17,1,,,,,フジ,0
398,2190001031998,新規,0,2025-02-17,2025-02-17,Ａｂｅｒａ株式会社,,株式会社,三重県,津市,川添町８番２９号風の郷２０１,,24,201,5140044,,,,,,,2025-02-17,1,,,,,アベラ,0
399,2190001032006,新規,0,2025-02-17,2025-02-17,ＡＧＥＩ株式会社,,株式会社,三重県,津市,戸島２５１０番地,,24,201,5140000,,,,,,,2025-02-17,1,,,,,アゲイ,0
400,2190005012020,新規,0,2025-02-17,2025-02-17,一般社団法人日本美の和協会,,その他の設立登記法人,三重県,桑名市,里町４３番地,,24,205,5110913,,,,,,,2025-02-17,1,,,,,ニホンビノワキョウカイ,0
406,2240001064539,新規,0,2025-02-17,2025-02-17,株式会社如水エンジニアリング,,株式会社,広島県,呉市,神山１丁目１６番１２号,,34,202,7370923,,,,,,,2025-02-17,1,,,,,ジョスイエンジニアリング,0
435,2290001108935,新規,0,2025-02-17,2025-02-17,株式会社ピノケーション,,株式会社,福岡県,福岡市南区,高宮３丁目１２番２５－５１２号,,40,134,8150083,,,,,,,2025-02-17,1,,,,,ピノケーション,0
436,2290001108951,新規,0,2025-02-17,2025-02-17,株式会社ＶＩＳＥＳ,,株式会社,福岡県,福岡市中央区,唐人町１丁目１１－３－１７,,40,133,8100063,,,,,,,2025-02-17,1,,,,,ビセス,0
443,2290003016418,新規,0,2025-02-17,2025-02-17,ＲＥＫＨＡ合同会社,,合同会社,福岡県,福岡市東区,多の津４丁目７番２３－１０４号,,40,131,8130034,,,,,,,2025-02-17,1,,,,,レカ,0
446,2290801031279,新規,0,2025-02-17,2025-02-17,株式会社ヨウ・ジェイ,,株式会社,福岡県,北九州市小倉北区,金鶏町６番２４号,,40,106,8030843,,,,,,,2025-02-17,1,,,,,ヨウジェイ,0
449,2310001019452,新規,0,2025-02-17,2025-02-17,株式会社ＵＫ,,株式会社,長崎県,長崎市,つつじが丘１丁目７番２０号１０１,,42,201,8510102,,,,,,,2025-02-17,1,,,,,ユーケー,0
453,2350001019399,新規,0,2025-02-17,2025-02-17,株式会社ひばり牧場,,株式会社,宮崎県,児湯郡高鍋町,大字南高鍋１０５０８番地１,,45,401,8840003,,,,,,,2025-02-17,1,,,,,ヒバリボクジョウ,0
454,2350003004845,新規,0,2025-02-17,2025-02-17,しんき商店合同会社,,合同会社,宮崎県,宮崎市,原町６番地１４,,45,201,8800007,,,,,,,2025-02-17,1,,,,,シンキショウテン,0
455,2360001034793,新規,0,2025-02-17,2025-02-17,株式会社大森組,,株式会社,沖縄県,名護市,東江５丁目８番１号西森マンション１０３号室,,47,209,9050021,,,,,,,2025-02-17,1,,,,,オオモリグミ,0
460,2370003006939,新規,0,2025-02-17,2025-02-17,ワンネス合同会社,,合同会社,宮城県,仙台市泉区,永和台４－８,,04,105,9813104,,,,,,,2025-02-17,1,,,,,ワンネス,0
468,2430001093691,新規,0,2025-02-17,2025-02-17,株式会社中村衛商事,,株式会社,北海道,札幌市中央区,南二条西５丁目３１－１ＲＭＢｌｄ．７０１,,01,101,0600062,,,,,,,2025-02-17,1,,,,,ナカムラエイショウジ,0
481,2700150129203,新規,0,2025-02-17,2025-02-17,Ｅｃｃｅｎｔｒｉｃ　Ｖｏｙａｇｅ　ＬＬＣ,,外国会社等,,,,,,,,５２２５　ＢＬＡＫＥＳＬＥＥ　ＡＶＥ　２１０　ＮＯＲＴＨ　ＨＯＬＬＹＷＯＯＤ，ＣＡ　９１６０１　ＵＳＡ,,,,,,2025-02-17,1,,,,,エキセンリックボヤージュエルエルシー,0
482,2700150129211,新規,0,2025-02-17,2025-02-17,ｈａｎｇｚｈｏｕｔａｉｎａｎｄｉａｎｚｉｓｈａｎｇｗｕｙｏｕｘｉａｎｇｏｎｇｓｉ,,外国会社等,,,,,,,,ｚｈｅｊｉａｎｇｓｈｅｎｇｈａｎｇｚｈｏｕｓｈｉｘｉｈｕｑｕｇｕｄｕｎｌｕ６７３ｈａｏｒｕｉｂｏｇｕｏｊｉＡｚｕｏ９０４ｓｈｉ,,,,,,2025-02-17,1,,,,,ハンゾウタイナンデンシショウムユウゲンコウシ,0
490,3010001252280,新規,0,2025-02-17,2025-02-17,キャリアエグゼクティブエチアル株式会社,,株式会社,東京都,千代田区,麹町６丁目６番地２番町麹町ビルディング５Ｆ,00138014,13,101,1020083,,,,,,,2025-02-17,1,,,,,キャリアエグゼクティブエチアル,0
492,3010003046433,新規,0,2025-02-17,2025-02-17,Ｆｏｒｔａｅｇｉｓ　Ｔｅｃｈｎｏｌｏｇｉｅｓ　Ｊａｐａｎ合同会社,,合同会社,東京都,千代田区,丸の内１丁目８－３丸の内トラストタワー本館２０階,,13,101,1000005,,,,,,,2025-02-17,1,,,,,フォーティジャステクノロジーズジャパン,0
497,3010401188298,新規,0,2025-02-17,2025-02-17,ＢＣＰホールディングス株式会社,,株式会社,東京都,港区,虎ノ門１丁目３番１号,,13,103,1050001,,,,,,,2025-02-17,1,,,,,ビーシーピーホールディングス,0
498,3010401188315,新規,0,2025-02-17,2025-02-17,ＩＡＰＦ１株式会社,,株式会社,東京都,港区,虎ノ門５丁目１３番１号虎ノ門４０ＭＴビル５階,,13,103,1050001,,,,,,,2025-02-17,1,,,,,アイエーピーエフワン,0
500,3010403034418,新規,0,2025-02-17,2025-02-17,フューチャーテック合同会社,,合同会社,東京都,港区,南青山３丁目１番３６号青山丸竹ビル６Ｆ,,13,103,1070062,,,,,,,2025-02-17,1,,,,,フューチャーテック,0
504,3010405024053,新規,0,2025-02-17,2025-02-17,ＮＰＯ法人ママノアマゾニア,,その他の設立登記法人,東京都,港区,赤坂３丁目８番８号赤坂フローラルプラザ１階,,13,103,1070052,,,,,,,2025-02-17,1,,,,,ママノアマゾニア,0
512,3010801035835,新規,0,2025-02-17,2025-02-17,株式会社Ａｔｈｅｎａ,,株式会社,東京都,大田区,下丸子４丁目２６番４－３０５号,,13,111,1460092,,,,,,,2025-02-17,1,,,,,アテナ,0
519,3011001167626,新規,0,2025-02-17,2025-02-17,株式会社Ｂｅｌｌ‐Ｃｈｅ,,株式会社,東京都,渋谷区,恵比寿西２丁目４番８号,,13,113,1500021,,,,,,,2025-02-17,1,,,,,ベルシェ,0
520,3011001167840,新規,0,2025-02-17,2025-02-17,株式会社ＵＴＡＴＯＥ,,株式会社,東京都,渋谷区,神宮前６丁目２３番４号桑野ビル２階,,13,113,1500001,,,,,,,2025-02-17,1,,,,,ウタトエ,0
521,3011001167865,新規,0,2025-02-17,2025-02-17,ＡＫＵＳＨ株式会社,,株式会社,東京都,目黒区,中目黒１丁目１番６５－６０７,,13,110,1530061,,,,,,,2025-02-17,1,,,,,アクシュ,0
525,3011003020948,新規,0,2025-02-17,2025-02-17,合同会社Ｌｉｆｅｍｅｎｔ,,合同会社,東京都,目黒区,自由が丘２丁目１６番１２号ＲＪ３,,13,110,1520035,,,,,,,2025-02-17,1,,,,,ライフメント,0
526,3011003020964,新規,0,2025-02-17,2025-02-17,彗星ラボ合同会社,,合同会社,東京都,渋谷区,渋谷２丁目１９－１５宮益坂ビルディング６０９,,13,113,1500002,,,,,,,2025-02-17,1,,,,,スイセイラボ,0
527,3011005010864,新規,0,2025-02-17,2025-02-17,一般社団法人神花国際ミュージック協会,,その他の設立登記法人,東京都,渋谷区,代々木１丁目５３番４号,,13,113,1510053,,,,,,,2025-02-17,1,,,,,シンカコクサイミュージックキョウカイ,0
529,3011101110618,新規,0,2025-02-17,2025-02-17,株式会社メディカルクリア,,株式会社,東京都,新宿区,西新宿３丁目３番１３号西新宿水間ビル６階,,13,104,1600023,,,,,,,2025-02-17,1,,,,,メディカルクリア,0
530,3011105011333,新規,0,2025-02-17,2025-02-17,グッドホープ税理士法人,,その他の設立登記法人,東京都,新宿区,四谷三栄町２－１４四谷ビジネスガーデン２３５,,13,104,1600008,,,,,,,2025-02-17,1,,,,,グッドホープ,0
531,3011201026128,新規,0,2025-02-17,2025-02-17,株式会社アビエナ,,株式会社,東京都,中野区,本町２丁目１－８ＹＳガーデン３０８号,,13,114,1640012,,,,,,,2025-02-17,1,,,,,アビエナ,0
532,3011203004610,新規,0,2025-02-17,2025-02-17,合同会社憩い処,,合同会社,東京都,中野区,上高田２丁目３７番６号,,13,114,1640002,,,,,,,2025-02-17,1,,,,,イコイドコロ,0
536,3011603004607,新規,0,2025-02-17,2025-02-17,合同会社匠工房,,合同会社,東京都,練馬区,大泉町２丁目５９番地３６号,,13,120,1780062,,,,,,,2025-02-17,1,,,,,タクミコウボウ,0
543,3011801045642,新規,0,2025-02-17,2025-02-17,ＡＫＳＯ株式会社,,株式会社,東京都,葛飾区,新小岩３丁目１２番８－２０１号,,13,122,1240024,,,,,,,2025-02-17,1,,,,,アクソー,0
547,3012401042781,新規,0,2025-02-17,2025-02-17,株式会社コマスケ,,株式会社,東京都,狛江市,西野川１丁目４番７号,,13,219,2010001,,,,,,,2025-02-17,1,,,,,コマスケ,0
552,3013303007542,新規,0,2025-02-17,2025-02-17,プライムパートナーズ合同会社,,合同会社,東京都,豊島区,巣鴨１丁目２１－２コスモ巣鴨アーバンフォルム３０３,,13,116,1700002,,,,,,,2025-02-17,1,,,,,プライムパートナーズ,0
566,3030001164879,新規,0,2025-02-17,2025-02-17,ＣＨＡＫＳ株式会社,,株式会社,埼玉県,さいたま市桜区,西堀６丁目４番５１－１号,,11,106,3380832,,,,,,,2025-02-17,1,,,,,チャックス,0
567,3030001164929,新規,0,2025-02-17,2025-02-17,株式会社ＡｒｔＩＣＥ,,株式会社,埼玉県,所沢市,大字下安松５１２番地の２７,,11,208,3590024,,,,,,,2025-02-17,1,,,,,アートアイス,0
571,3030003026103,新規,0,2025-02-17,2025-02-17,合同会社Ｒｅｖｅｒｂ,,合同会社,埼玉県,上尾市,二ツ宮８９８番地４,,11,219,3620017,,,,,,,2025-02-17,1,,,,,リバーブ,0
572,3030003026111,新規,0,2025-02-17,2025-02-17,合同会社おやどねこ,,合同会社,埼玉県,さいたま市浦和区,針ヶ谷４丁目２番６０－５０６号,,11,107,3300075,,,,,,,2025-02-17,1,,,,,オヤドネコ,0
573,3030003026128,新規,0,2025-02-17,2025-02-17,まゆ合同会社,,合同会社,埼玉県,川口市,大字新井宿１１２９番地の３,,11,203,3330826,,,,,,,2025-02-17,1,,,,,マユ,0
574,3030003026144,新規,0,2025-02-17,2025-02-17,ヤマネコアーキテクツ合同会社,,合同会社,埼玉県,上尾市,大字上尾下９２９番地１,,11,219,3620025,,,,,,,2025-02-17,1,,,,,ヤマネコアーキテクツ,0
579,3040001137363,新規,0,2025-02-17,2025-02-17,株式会社ａｓａ,,株式会社,千葉県,四街道市,栗山７４２番地－２０２,,12,228,2840027,,,,,,,2025-02-17,1,,,,,エーエスエー,0
581,3040003026878,新規,0,2025-02-17,2025-02-17,博海国際貿易合同会社,,合同会社,千葉県,香取郡多古町,十余三３４５番地１６,,12,347,2892306,,,,,,,2025-02-17,1,,,,,ヒロミコクサイボウエキ,0
583,3050003009031,新規,0,2025-02-17,2025-02-17,ＮＢ　Ｇｌｏｂａｌ合同会社,,合同会社,茨城県,つくば市,松代３丁目７番地１６松代パークハイツＣ棟１０１号,,08,220,3050035,,,,,,,2025-02-17,1,,,,,エヌビーグローバル,0
584,3060001037909,新規,0,2025-02-17,2025-02-17,株式会社リックスＨＤ,,株式会社,栃木県,小山市,城東４丁目１６番６号,,09,208,3230807,,,,,,,2025-02-17,1,,,,,リックスホールディングス,0
598,3080103003253,新規,0,2025-02-17,2025-02-17,Ｆｏｒｄａｒｔ　Ｌｉｍｉｔｅｄ合同会社,,合同会社,静岡県,熱海市,西山町３１番５号,,22,205,4130034,,,,,,,2025-02-17,1,,,,,フォーダートリミテッド,0
607,3110001039057,新規,0,2025-02-17,2025-02-17,建陽株式会社,,株式会社,新潟県,長岡市,小国町千谷沢２８番地１,,15,202,9495201,,,,,,,2025-02-17,1,,,,,ケンヨウ,0
617,3120101071058,新規,0,2025-02-17,2025-02-17,ゼンクウエンジニアリング株式会社,,株式会社,大阪府,堺市西区,上野芝向ヶ丘町５丁８番１０号,,27,144,5938303,,,,,,,2025-02-17,1,,,,,ゼンクウエンジニアリング,0
618,3120101071066,新規,0,2025-02-17,2025-02-17,株式会社大和三英不動産,,株式会社,大阪府,堺市北区,百舌鳥赤畑町４丁３２６番地１,,27,146,5918037,,,,,,,2025-02-17,1,,,,,ダイワサンエイフドウサン,0
619,3120101071074,新規,0,2025-02-17,2025-02-17,株式会社トータルキッチンシステム,,株式会社,大阪府,堺市西区,上野芝向ヶ丘町４－１－４,,27,144,5938311,,,,,,,2025-02-17,1,,,,,トータルキッチンシステム,0
620,3120101071090,新規,0,2025-02-17,2025-02-17,株式会社ＢＭ　ＷＥＳＴ,,株式会社,大阪府,堺市堺区,甲斐町西２丁２－２８,,27,141,5900950,,,,,,,2025-02-17,1,,,,,ビーエムウエスト,0
623,3120901050442,新規,0,2025-02-17,2025-02-17,豊栄商事株式会社,,株式会社,大阪府,吹田市,円山町５２番８８号,,27,205,5640061,,,,,,,2025-02-17,1,,,,,トヨサカショウジ,0
625,3120905006688,新規,0,2025-02-17,2025-02-17,医療法人理彰会,,その他の設立登記法人,大阪府,豊中市,寺内２丁目１３番１号緑地ステーションビル１Ｆ,,27,203,5610872,,,,,,,2025-02-17,1,,,,,リショウカイ,0
628,3122003003122,新規,0,2025-02-17,2025-02-17,合同会社Ｌｉｎｋｉｔ,,合同会社,大阪府,八尾市,若林町３丁目１４２ｍｏｖｅ八尾南１Ｆ店舗,,27,212,5810038,,,,,,,2025-02-17,1,,,,,リンキット,0
631,3130001079019,新規,0,2025-02-17,2025-02-17,株式会社かの,,株式会社,京都府,京都市下京区,七条通油小路東入大黒町２２７番地第２キョートビル４０２,,26,106,6008223,,,,,,,2025-02-17,1,,,,,カノ,0
633,3130005017288,新規,0,2025-02-17,2025-02-17,特定非営利活動法人みんなの森ただいま,,その他の設立登記法人,京都府,相楽郡精華町,大字南稲八妻小字堂垣内１７番地１,,26,366,6190243,,,,,,,2025-02-17,1,,,,,ミンナノモリタダイマ,0
643,3150001027875,新規,0,2025-02-17,2025-02-17,株式会社Ａｔエンジニア,,株式会社,奈良県,香芝市,穴虫２８６８番地１１０,,29,210,6390252,,,,,,,2025-02-17,1,,,,,エイティーエンジニア,0
646,3160001026546,新規,0,2025-02-17,2025-02-17,株式会社金田寛一商店,,株式会社,滋賀県,高島市,鴨８４６番地１,,25,212,5201111,,,,,,,2025-02-17,1,,,,,キンタカンイチショウテン,0
647,3170001018501,新規,0,2025-02-17,2025-02-17,株式会社安原商店,,株式会社,和歌山県,和歌山市,朝日１４１番地２,,30,201,6400344,,,,,,,2025-02-17,1,,,,,ヤスハラショウテン,0
656,3190001031997,新規,0,2025-02-17,2025-02-17,ＰｌａｎｔＮａｔｉｏｎ株式会社,,株式会社,三重県,津市,川添町８番２９号風の郷２０１,,24,201,5140044,,,,,,,2025-02-17,1,,,,,プラントネイション,0
662,3200001043438,新規,0,2025-02-17,2025-02-17,株式会社Ｈ．Ａ．Ｇ,,株式会社,岐阜県,関市,山田８８０番地３丹羽ビル２Ｂ,,21,205,5013944,,,,,,,2025-02-17,1,,,,,ハグ,0
663,3210003001888,新規,0,2025-02-17,2025-02-17,Ｄ＆Ｗ合同会社,,合同会社,福井県,福井市,灯明寺２丁目５１３番地,,18,201,9100063,,,,,,,2025-02-17,1,,,,,ディーアンドダブリュー,0
670,3240003007065,新規,0,2025-02-17,2025-02-17,Ｓｐｒｉｎｇ　ｔｈｏｕｓａｎｄ合同会社,,合同会社,広島県,福山市,平成台８番１６号,,34,207,7210943,,,,,,,2025-02-17,1,,,,,スプリングサウザンド,0
672,3260001039918,新規,0,2025-02-17,2025-02-17,株式会社Ｆｏｃｕｓ　Ｇｒｏｗｔｈ,,株式会社,岡山県,倉敷市,片島町３０１番地５,,33,202,7100805,,,,,,,2025-02-17,1,,,,,フォーカスグロース,0
673,3280005007646,新規,0,2025-02-17,2025-02-17,一般社団法人萌雲会,,その他の設立登記法人,島根県,出雲市,塩冶町８９番地１,,32,203,6930021,,,,,,,2025-02-17,1,,,,,ホウウンカイ,0
686,3290001108926,新規,0,2025-02-17,2025-02-17,株式会社ｐｏｎｏ,,株式会社,福岡県,福岡市博多区,博多駅前３丁目１２番２４号,,40,132,8120011,,,,,,,2025-02-17,1,,,,,ポノ,0
687,3290001109008,新規,0,2025-02-17,2025-02-17,株式会社ネクスト電気,,株式会社,福岡県,大野城市,仲畑１丁目５番２３号,,40,219,8160921,,,,,,,2025-02-17,1,,,,,ネクストデンキ,0
692,3290003016425,新規,0,2025-02-17,2025-02-17,合同会社ＴｕｒｎＡｒｏｕｎｄ,,合同会社,福岡県,福岡市南区,井尻３丁目１６番４－３０６号,,40,134,8111302,,,,,,,2025-02-17,1,,,,,ターンアラウンド,0
695,3290801031278,新規,0,2025-02-17,2025-02-17,株式会社Ｃｏｒａｌ,,株式会社,福岡県,北九州市八幡西区,黒崎１丁目９番６号１階,,40,109,8060021,,,,,,,2025-02-17,1,,,,,コーラル,0
702,3320001020945,新規,0,2025-02-17,2025-02-17,征僉工業株式会社,,株式会社,大分県,大分市,大字片島６番地の３５,,44,201,8700943,,,,,,,2025-02-17,1,,,,,セイセンコウギョウ,0
706,3350003004844,新規,0,2025-02-17,2025-02-17,Ｄ‐Ｆａｓｈｉｏｎ合同会社,,合同会社,宮崎県,都城市,牟田町７街区１８号ミューズコート１０２,,45,202,8850079,,,,,,,2025-02-17,1,,,,,ディファッション,0
709,3350005006285,新規,0,2025-02-17,2025-02-17,社会福祉法人ＭＡＧ,,その他の設立登記法人,宮崎県,東諸県郡国富町,大字三名２６２１番地５,,45,382,8801114,,,,,,宮崎県東諸県郡国富町大字三名字初田２６２１番地５社会福祉法人エデンの園（6350005001333）と宮崎市大字塩路字江良ノ上２７８３番地３２社会福祉法人玉扇会（1350005000562）の合併により設立,2025-02-17,1,,,,,エムエージー,0
712,3360003014702,新規,0,2025-02-17,2025-02-17,合同会社福花,,合同会社,沖縄県,那覇市,古波蔵３丁目２番１２－６０３号ウィングシャトー古波蔵弐番館,,47,201,9000024,,,,,,,2025-02-17,1,,,,,フクハナ,0
713,3360005007175,新規,0,2025-02-17,2025-02-17,一般社団法人北谷歯科クリニック,,その他の設立登記法人,沖縄県,中頭郡北谷町,字宮城１番地３７,,47,326,9040113,,,,,,,2025-02-17,1,,,,,チャタンシカクリニック,0
718,3380003005955,新規,0,2025-02-17,2025-02-17,合同会社エコサイクル,,合同会社,福島県,福島市,飯坂町湯野字小山前９番地,,07,201,9600211,,,,,,,2025-02-17,1,,,,,エコサイクル,0
720,3400003003394,新規,0,2025-02-17,2025-02-17,大和農産合同会社,,合同会社,岩手県,奥州市,江刺玉里字中樋茂井野１４６番地１,,03,215,0231134,,,,,,,2025-02-17,1,,,,,ダイワノウサン,0
732,3430001093690,新規,0,2025-02-17,2025-02-17,アクアピースジャパン株式会社,,株式会社,北海道,札幌市豊平区,美園五条５丁目３－２,,01,105,0620005,,,,,,,2025-02-17,1,,,,,アクアピースジャパン,0
733,3430001093708,新規,0,2025-02-17,2025-02-17,Ｍａｙ　ｏｎｅ　Ｌｉｆｅ株式会社,,株式会社,北海道,札幌市豊平区,美園五条７丁目５番１号,,01,105,0620005,,,,,,,2025-02-17,1,,,,,メイワンライフ,0
734,3430003017284,新規,0,2025-02-17,2025-02-17,Ｐｏｋａｒｉｅ合同会社,,合同会社,北海道,江別市,野幌若葉町９３番地の７,,01,217,0690831,,,,,,,2025-02-17,1,,,,,ポカリエ,0
737,3700150129210,新規,0,2025-02-17,2025-02-17,ＯＮＥ　ＰＩＥＣＥ　ＺＯＲＯ　ＬＬＣ,,外国会社等,,,,,,,,３１５５　ＷＡＩＡＬＡＥ　ＡＶＥ　ＡＰＴ　３０４　ＨＯＮＯＬＵＬＵ，ＨＩ　９６８１６,,,,,,2025-02-17,1,,,,,ワンピースゾロリミテッドライアビリティーカンパニー,0
740,4010001046351,新規,0,2025-02-17,2025-02-17,株式会社ジイー、オー、カンパニー,,株式会社,東京都,中央区,京橋２丁目６番１４号,,13,102,1040031,,,,,,,2025-02-17,1,,,,,ジイーオーカンパニー,0
743,4010001252255,新規,0,2025-02-17,2025-02-17,株式会社古新舎,,株式会社,東京都,中央区,１－１２－４Ｎ＆ＥＢＬＤ．７階,,13,102,1030000,,,,,,,2025-02-17,1,,,,,コシンシャ,0
744,4010001252271,新規,0,2025-02-17,2025-02-17,ＴＸＯ　Ｓｙｓｔｅｍｓ株式会社,,株式会社,東京都,千代田区,霞が関３丁目２番６号東京倶楽部ビルディング１１階,,13,101,1000013,,,,,,,2025-02-17,1,,,,,ティーエックスオーシステムズ,0
746,4010003046416,新規,0,2025-02-17,2025-02-17,合同会社エイトサイドパートナーズ,,合同会社,東京都,文京区,本駒込５丁目７０番２－１１０１号,,13,105,1130021,,,,,,,2025-02-17,1,,,,,エイトサイドパートナーズ,0
754,4010401188033,新規,0,2025-02-17,2025-02-17,株式会社エーアイカンパニーインク,,株式会社,東京都,港区,北青山３丁目６－７青山パラシオタワー１１階,,13,103,1070061,,,,,,,2025-02-17,1,,,,,エーアイカンパニーインク,0
756,4010401188264,新規,0,2025-02-17,2025-02-17,株式会社バンブー,,株式会社,東京都,港区,南青山３丁目１３番２２号,,13,103,1070062,,,,,,,2025-02-17,1,,,,,バンブー,0
760,4010403034367,新規,0,2025-02-17,2025-02-17,ＡＰ　Ｌｉｖｅｌｙ合同会社,,合同会社,東京都,港区,虎ノ門４丁目１番１７号神谷町プライムプレイス８階アリサ・パートナーズ・ジャパン株式会社内,,13,103,1050001,,,,,,,2025-02-17,1,,,,,エーピーライブリー,0
761,4010403034425,新規,0,2025-02-17,2025-02-17,Ｇｒｅｅｎ　Ｋｕｐ合同会社,,合同会社,東京都,港区,元麻布３丁目１番６号,,13,103,1060046,,,,,,,2025-02-17,1,,,,,グリーンカップ,0
766,4010603011372,新規,0,2025-02-17,2025-02-17,合同会社アトラス,,合同会社,東京都,江東区,南砂２丁目３番１－１３２９号,,13,108,1360076,,,,,,,2025-02-17,1,,,,,アトラス,0
772,4010901056821,新規,0,2025-02-17,2025-02-17,ＤｕＤｏ株式会社,,株式会社,東京都,世田谷区,船橋１丁目３番１０号,,13,112,1560055,,,,,,,2025-02-17,1,,,,,ドゥドゥ,0
784,4011001167583,新規,0,2025-02-17,2025-02-17,株式会社Ｌｅａｃｒｏｎ,,株式会社,東京都,渋谷区,恵比寿西２丁目８番４号ＥＸ恵比寿西ビル５階,,13,113,1500021,,,,,,,2025-02-17,1,,,,,リークロン,0
785,4011001167625,新規,0,2025-02-17,2025-02-17,株式会社Ｌｏｇｂｉｔ,,株式会社,東京都,渋谷区,神宮前６丁目２３番４号桑野ビル２階,,13,113,1500001,,,,,,,2025-02-17,1,,,,,ログビット,0
790,4011003020930,新規,0,2025-02-17,2025-02-17,モヨ・アンド・カンパニー合同会社,,合同会社,東京都,渋谷区,道玄坂１丁目１０番８号渋谷道玄坂東急ビル２Ｆ－Ｃ,,13,113,1500043,,,,,,,2025-02-17,1,,,,,モヨアンドカンパニー,0
791,4011003020939,新規,0,2025-02-17,2025-02-17,合同会社うふぼん,,合同会社,東京都,渋谷区,渋谷２丁目１９－１５宮益坂ビルディング６０９,,13,113,1500002,,,,,,,2025-02-17,1,,,,,ウフボン,0
792,4011003020955,新規,0,2025-02-17,2025-02-17,合同会社ＰＡＴＨ,,合同会社,東京都,渋谷区,道玄坂１丁目１０番８号渋谷道玄坂東急ビル２Ｆ－Ｃ,,13,113,1500043,,,,,,,2025-02-17,1,,,,,パス,0
793,4011003020971,新規,0,2025-02-17,2025-02-17,Ｏｔａａｃ合同会社,,合同会社,東京都,渋谷区,道玄坂１丁目１０番８号渋谷道玄坂東急ビル２Ｆ－Ｃ,,13,113,1500043,,,,,,,2025-02-17,1,,,,,オターク,0
796,4011101110559,新規,0,2025-02-17,2025-02-17,株式会社オリジナルエボリューション,,株式会社,東京都,新宿区,北新宿１丁目２３－１７ハーモニーレジデンス新宿ｔｈｅｎｏｒｔｈ５０１,,13,104,1690074,,,,,,,2025-02-17,1,,,,,オリジナルエボリューション,0
797,4011101110633,新規,0,2025-02-17,2025-02-17,ＰＯＬＥＳＴＡＲ　ＪＡＰＡＮ株式会社,,株式会社,東京都,新宿区,高田馬場１丁目２８番１０号三慶ビル４Ｆ,,13,104,1690075,,,,,,,2025-02-17,1,,,,,ポールスタージャパン,0
798,4011101110641,新規,0,2025-02-17,2025-02-17,ポーラーベイフーズジャパン株式会社,,株式会社,東京都,新宿区,榎町３４番地３榎町ビル７階２８室,,13,104,1620806,,,,,,,2025-02-17,1,,,,,ポーラーベイフーズジャパン,0
801,4011401026819,新規,0,2025-02-17,2025-02-17,寶飛龍株式会社,,株式会社,東京都,板橋区,大谷口上町４１番２号,,13,119,1730032,,,,,,,2025-02-17,1,,,,,タカラヒリュウ,0
811,4011601028400,新規,0,2025-02-17,2025-02-17,ＴＯＫＹＯ　ＶＯＩＤ株式会社,,株式会社,東京都,練馬区,関町北５丁目１３番２５－１－Ｌ,,13,120,1770051,,,,,,,2025-02-17,1,,,,,トウキョウヴォイド,0
817,4012301014260,新規,0,2025-02-17,2025-02-17,株式会社ＲＴＳ,,株式会社,東京都,町田市,中町１丁目２番５号ＳＨＥＬＬＭＩＹＡＫＯＶ３階,,13,209,1940021,,,,,,,2025-02-17,1,,,,,アールティエス,0
818,4012401042772,新規,0,2025-02-17,2025-02-17,株式会社ＬＮＩＫＡ,,株式会社,東京都,調布市,国領町５丁目５番地３－１０６号,,13,208,1820022,,,,,,,2025-02-17,1,,,,,エルニカ,0
819,4012401042780,新規,0,2025-02-17,2025-02-17,通心工学株式会社,,株式会社,東京都,調布市,深大寺北町６丁目２９番地２７,,13,208,1820011,,,,,,,2025-02-17,1,,,,,ツウシンコウガク,0
824,4013303007541,新規,0,2025-02-17,2025-02-17,合同会社美星,,合同会社,東京都,豊島区,南大塚３丁目１７番１０号プラティーク新大塚３０１号,,13,116,1700005,,,,,,,2025-02-17,1,,,,,ビセイ,0
830,4020003027745,新規,0,2025-02-17,2025-02-17,合同会社くるむはっぴぃ,,合同会社,神奈川県,横浜市鶴見区,江ケ崎町３番１６－２１９号,,14,101,2300002,,,,,,,2025-02-17,1,,,,,クルムハッピィ,0
834,4021003015590,新規,0,2025-02-17,2025-02-17,Ｎ．ｂｅａｕｔｙ合同会社,,合同会社,神奈川県,座間市,相模が丘１丁目２５番２－１４０３号,,14,216,2520001,,,,,,,2025-02-17,1,,,,,エヌビューティー,0
837,4030001164861,新規,0,2025-02-17,2025-02-17,株式会社東建開発,,株式会社,埼玉県,川口市,上青木２丁目５０－２０（１Ｆ）,,11,203,3330844,,,,,,,2025-02-17,1,,,,,トウケンカイハツ,0
838,4030001164894,新規,0,2025-02-17,2025-02-17,株式会社アルナ,,株式会社,埼玉県,児玉郡上里町,大字黛６０番地８,00138023,11,385,3690302,,,,,,,2025-02-17,1,,,,,アルナ,0
848,4030003026110,新規,0,2025-02-17,2025-02-17,トレンドビューティー合同会社,,合同会社,埼玉県,さいたま市浦和区,高砂３丁目６番１５号－２Ｆ,,11,107,3300063,,,,,,,2025-02-17,1,,,,,トレンドビューティー,0
850,4040001054847,新規,0,2025-02-17,2025-02-17,株式会社マックス・オート・サービス,,株式会社,千葉県,市原市,権現堂３９６番地１,,12,219,2900209,,,,,,,2025-02-17,1,,,,,マックスオートサービス,0
855,4040003026844,新規,0,2025-02-17,2025-02-17,アールラボ合同会社,,合同会社,千葉県,船橋市,西船５丁目２番１２－１０２号,,12,204,2730031,,,,,,,2025-02-17,1,,,,,アールラボ,0
856,4050001056157,新規,0,2025-02-17,2025-02-17,株式会社ＴＲＥＮＴＵＮＯ,,株式会社,茨城県,つくば市,みどりの中央７４番地６,,08,220,3050882,,,,,,,2025-02-17,1,,,,,トレントゥーノ,0
871,4080101025315,新規,0,2025-02-17,2025-02-17,一期不動産株式会社,,株式会社,静岡県,三島市,寿町９番３５号,,22,206,4110039,,,,,,,2025-02-17,1,,,,,イチゴフドウサン,0
872,4080401027746,新規,0,2025-02-17,2025-02-17,株式会社ＡＣＫＹ建築設計室,,株式会社,静岡県,浜松市中央区,飯田町７２番地の１,,22,138,4350028,,,,,,,2025-02-17,1,,,,,アツキーケンチクセツケイシツ,0
889,4120001272878,新規,0,2025-02-17,2025-02-17,株式会社リユースジャパン,,株式会社,大阪府,大阪市北区,浮田２丁目１番地３号ＭＢＣビル２０９号,,27,127,5300021,,,,,,,2025-02-17,1,,,,,リユースジャパン,0
890,4120005024796,新規,0,2025-02-17,2025-02-17,一般社団法人持続可能・創造協議会,,その他の設立登記法人,大阪府,大阪市西区,新町１丁目３４番１６号株式会社大八洲内,,27,106,5500013,,,,,,,2025-02-17,1,,,,,ジゾクカノウソウゾウキョウギカイ,0
892,4120101071032,新規,0,2025-02-17,2025-02-17,株式会社ウインカム,,株式会社,大阪府,堺市美原区,黒山１００８番地ビバモール美原南インターメディカルゾーン２階,,27,147,5870002,,,,,,,2025-02-17,1,,,,,ウインカム,0
893,4120101071040,新規,0,2025-02-17,2025-02-17,Ｖｉｎｇａ　Ｅｎｔｅｒｐｒｉｓｅ株式会社,,株式会社,大阪府,松原市,天美東５丁目５番２４号,,27,217,5800032,,,,,,,2025-02-17,1,,,,,ヴィンガエンタープライズ,0
894,4120101071065,新規,0,2025-02-17,2025-02-17,３株式会社,,株式会社,大阪府,松原市,上田４丁目１番３５号,,27,217,5800016,,,,,,,2025-02-17,1,,,,,サン,0
896,4120901050433,新規,0,2025-02-17,2025-02-17,株式会社ＳａｋｕｒａＬｏｔｕｓ,,株式会社,大阪府,吹田市,山田東４丁目３６番７号,,27,205,5650821,,,,,,,2025-02-17,1,,,,,サクラロータス,0
907,4160001026545,新規,0,2025-02-17,2025-02-17,株式会社雅,,株式会社,滋賀県,甲賀市,甲南町寺庄１１６７番地,,25,209,5203301,,,,,,,2025-02-17,1,,,,,ミヤビ,0
908,4160003003402,新規,0,2025-02-17,2025-02-17,合同会社Ｆ＆Ｈ,,合同会社,滋賀県,東近江市,蛇溝町９０６番地３,,25,213,5270073,,,,,,,2025-02-17,1,,,,,エフアンドエイチ,0
915,4180001165382,新規,0,2025-02-17,2025-02-17,防災ナビ株式会社,,株式会社,愛知県,名古屋市千種区,内山３丁目１７番４号１Ｆ,,23,101,4640075,,,,,,,2025-02-17,1,,,,,ボウサイナビ,0
916,4180001165440,新規,0,2025-02-17,2025-02-17,株式会社ｖｅｈｉｃｌｅ,,株式会社,愛知県,名古屋市昭和区,鶴舞１丁目２番３２号ＳＴＡＴＩＯＮＡｉ,,23,107,4660064,,,,,,,2025-02-17,1,,,,,ビークル,0
920,4180003028001,新規,0,2025-02-17,2025-02-17,合同会社Ｃｏｒｅ　ＫＡＮＳ,,合同会社,愛知県,一宮市,別明町１丁目１０番地５,,23,203,4910033,,,,,,,2025-02-17,1,,,,,コアカン,0
925,4200001043437,新規,0,2025-02-17,2025-02-17,株式会社ＪｏｙｆｕｌＧｒｅｅｎ,,株式会社,岐阜県,中津川市,中津川２０４９番地の１４３,,21,206,5080001,,,,,,,2025-02-17,1,,,,,ジョイフルグリーン,0
930,4210001020063,新規,0,2025-02-17,2025-02-17,株式会社Ｅｔｅｒｎａｌ　Ｌｉｎｋｓ,,株式会社,福井県,福井市,大手３丁目１番１３号７階,,18,201,9100005,,,,,,,2025-02-17,1,,,,,エターナルリンクス,0
937,4240005015899,新規,0,2025-02-17,2025-02-17,医療法人社団心都会,,その他の設立登記法人,広島県,広島市安佐南区,高取北１丁目４番２５－１号,,34,105,7310144,,,,,,,2025-02-17,1,,,,,ココロヅカイ,0
938,4250001021009,新規,0,2025-02-17,2025-02-17,株式会社たけばや,,株式会社,山口県,下関市,大字吉見下１２４４番地３,,35,201,7596523,,,,,,,2025-02-17,1,,,,,タケバヤ,0
955,4290001109023,新規,0,2025-02-17,2025-02-17,エガオクリエイト株式会社,,株式会社,福岡県,福岡市博多区,博多駅南３丁目５番１８号ニッシンビル２０９号,,40,132,8120016,,,,,,,2025-02-17,1,,,,,エガオクリエイト,0
956,4290003016416,新規,0,2025-02-17,2025-02-17,合同会社エバーテック,,合同会社,福岡県,福岡市博多区,博多駅前１丁目２３番２号ＰａｒｋＦｒｏｎｔ博多駅前１丁目５Ｆ－Ｂ,,40,132,8120011,,,,,,,2025-02-17,1,,,,,エバーテック,0
957,4290003016424,新規,0,2025-02-17,2025-02-17,合同会社Ｆｕｎｍｏｌｄ,,合同会社,福岡県,福岡市博多区,博多駅前１丁目２３番２号５Ｆ－Ｂ,,40,132,8120011,,,,,,,2025-02-17,1,,,,,ファンモルド,0
958,4290005019648,新規,0,2025-02-17,2025-02-17,弁護士法人マール,,その他の設立登記法人,福岡県,福岡市中央区,大名２丁目４番２２号新日本ビル５０１号,,40,133,8100041,,,,,,,2025-02-17,1,,,,,マール,0
960,4290801009042,新規,0,2025-02-17,2025-02-17,株式会社井上製作所,,株式会社,福岡県,北九州市八幡西区,浅川学園台２丁目２０番１６号,,40,109,8070871,,,,,,,2025-02-17,1,,,,,イノウエセイサクショ,0
967,4360003014676,新規,0,2025-02-17,2025-02-17,合同会社平良クリエイティブ,,合同会社,沖縄県,那覇市,金城２丁目１０－２オーシャンビューＭ１０１,,47,201,9010155,,,,,,,2025-02-17,1,,,,,,0
971,4380005012916,新規,0,2025-02-17,2025-02-17,東北監査法人,,その他の設立登記法人,福島県,郡山市,大町２丁目１５番２号，５階,,07,203,9638001,,,,,,,2025-02-17,1,,,,,トウホク,0
976,4420001019019,新規,0,2025-02-17,2025-02-17,ＤＲＥＡＭ　ｗｏｒｋ株式会社,,株式会社,青森県,八戸市,長苗代４丁目１番１１－３号Ａ,,02,203,0391103,,,,,,,2025-02-17,1,,,,,ドリームワーク,0
982,4430001093698,新規,0,2025-02-17,2025-02-17,株式会社ＡＮ,,株式会社,北海道,札幌市中央区,南七条西３丁目７－２９アポロビル３Ｆ,,01,101,0640807,,,,,,,2025-02-17,1,,,,,アン,0
983,4430001093707,新規,0,2025-02-17,2025-02-17,株式会社根田工業,,株式会社,北海道,札幌市手稲区,前田七条１７丁目４番１７号,,01,109,0060817,,,,,,,2025-02-17,1,,,,,コンダコウギョウ,0
985,4430003017283,新規,0,2025-02-17,2025-02-17,中央衛生設備合同会社,,合同会社,北海道,札幌市中央区,南七条西１１丁目１番１８号,,01,101,0640807,,,,,,,2025-02-17,1,,,,,チュウオウエイセイセツビ,0
986,4430003017291,新規,0,2025-02-17,2025-02-17,合同会社ＺＪ,,合同会社,北海道,札幌市白石区,菊水八条４丁目２番３０－７０２号,,01,104,0030808,,,,,,,2025-02-17,1,,,,,ゼットジェイ,0
987,4460003001037,新規,0,2025-02-17,2025-02-17,合同会社ふれあ,,合同会社,北海道,釧路市,文苑３丁目３８番１１号,,01,206,0850063,,,,,,,2025-02-17,1,,,,,フレア,0
989,4470003002810,新規,0,2025-02-17,2025-02-17,合同会社舞進,,合同会社,香川県,高松市,西山崎町６６６－７,,37,201,7618045,,,,,,,2025-02-17,1,,,,,,0
991,4490005006972,新規,0,2025-02-17,2025-02-17,一般社団法人Ｋｏｃｈｉ‐ｋｅ　Ｓｕｒｇｅｒｙ,,その他の設立登記法人,高知県,南国市,岡豊町小蓮高知大学医学部総合研究棟Ｉ４階,00138010,39,204,7830043,,,,,,,2025-02-17,1,,,,,コウチケーサージェリー,0
1005,5010001252171,新規,0,2025-02-17,2025-02-17,株式会社ＫＵＮＩＫＯ,,株式会社,東京都,中央区,銀座８丁目６番４号,,13,102,1040061,,,,,,,2025-02-17,1,,,,,クニコ,0
1006,5010001252270,新規,0,2025-02-17,2025-02-17,ＣＳＣ　Ｒｏｂｏｔｉｃ　Ｔｒａｄｉｎｇ　Ｊａｐａｎ株式会社,,株式会社,東京都,千代田区,霞が関３丁目２番６号東京倶楽部ビルディング１１階,,13,101,1000013,,,,,,,2025-02-17,1,,,,,シーエスシーロボティックトレーディングジャパン,0
1009,5010003046415,新規,0,2025-02-17,2025-02-17,合同会社礼明,,合同会社,東京都,千代田区,三番町５－１９－１５０２,,13,101,1020075,,,,,,,2025-02-17,1,,,,,,0
1010,5010003046423,新規,0,2025-02-17,2025-02-17,合同会社カーチスファンド１２号,,合同会社,東京都,千代田区,六番町２番地８番町Ｍビル３Ｆ,,13,101,1020085,,,,,,,2025-02-17,1,,,,,カーチスファンドジュウニゴウ,0
1011,5010003046472,新規,0,2025-02-17,2025-02-17,Ｅｄｇｅ　Ｕｐ合同会社,,合同会社,東京都,中央区,勝どき４丁目６－２－１００９,,13,102,1040054,,,,,,,2025-02-17,1,,,,,エッジアップ,0
1013,5010101016518,新規,0,2025-02-17,2025-02-17,株式会社ＰＣ,,株式会社,東京都,八王子市,子安町１丁目１５番１号,,13,201,1920904,,,,,,,2025-02-17,1,,,,,ピーシー,0
1021,5010401188263,新規,0,2025-02-17,2025-02-17,Ｄｒ．Ｃｏａ　Ｊａｐａｎ株式会社,,株式会社,東京都,港区,六本木３丁目６番９号,,13,103,1060032,,,,,,,2025-02-17,1,,,,,ドクターコアジャパン,0
1022,5010401188271,新規,0,2025-02-17,2025-02-17,ゆ株式会社,,株式会社,東京都,港区,南青山５丁目４番３５号,,13,103,1070062,,,,,,,2025-02-17,1,,,,,ユ,0
1026,5010403034424,新規,0,2025-02-17,2025-02-17,ＰｕｒａＢＥＡＭ　Ｊａｐａｎ合同会社,,合同会社,東京都,港区,赤坂２丁目１４番５号Ｄａｉｗａ赤坂ビル４階,,13,103,1070052,,,,,,,2025-02-17,1,,,,,ピュラビームジャパン,0
1031,5010501053615,新規,0,2025-02-17,2025-02-17,株式会社トリガーＺ,,株式会社,東京都,台東区,上野６丁目１番６号御徒町グリーンハイツ１００５号,,13,106,1100005,,,,,,,2025-02-17,1,,,,,トリガーズ,0
1051,5011001167525,新規,0,2025-02-17,2025-02-17,株式会社ＡＫ＆Ｐａｒｔｎｅｒｓ,,株式会社,東京都,目黒区,上目黒１丁目１４番６号,,13,110,1530051,,,,,,,2025-02-17,1,,,,,エーケーアンドパートナーズ,0
1052,5011001167649,新規,0,2025-02-17,2025-02-17,株式会社ＣＵＬＴＵＲＥ　ＰＡＲＡＤＥ,,株式会社,東京都,渋谷区,神宮前６丁目２３－４桑名ビル２Ｆ,,13,113,1500001,,,,,,,2025-02-17,1,,,,,カルチャーパレード,0
1053,5011001167839,新規,0,2025-02-17,2025-02-17,ＳＥＤＣ　Ｐａｒｔｎｅｒ株式会社,,株式会社,東京都,渋谷区,恵比寿西１丁目３３番６号ＪＰｎｏｉｅ恵比寿西１Ｆ,,13,113,1500021,,,,,,,2025-02-17,1,,,,,エスイーディーシーパートナー,0
1054,5011001167863,新規,0,2025-02-17,2025-02-17,株式会社ＳＡＴＯＳＨＩ　ＣＯＭＰＡＮＹ,,株式会社,東京都,渋谷区,神宮前６丁目２３番４号桑野ビル２階,,13,113,1500001,,,,,,,2025-02-17,1,,,,,サトシカンパニー,0
1057,5011003020938,新規,0,2025-02-17,2025-02-17,合同会社ＴＯＲＩＤＥ,,合同会社,東京都,渋谷区,渋谷２丁目１９－１５宮益坂ビルディング６０９,,13,113,1500002,,,,,,,2025-02-17,1,,,,,トリデ,0
1058,5011003020954,新規,0,2025-02-17,2025-02-17,合同会社Ａｎｏｔｈｅｒ,,合同会社,東京都,渋谷区,道玄坂１丁目１０番８号渋谷道玄坂東急ビル２Ｆ－Ｃ,,13,113,1500043,,,,,,,2025-02-17,1,,,,,アナザー,0
1065,5011401026784,新規,0,2025-02-17,2025-02-17,株式会社レブロジャパン,,株式会社,東京都,板橋区,徳丸２丁目２７－１０－１０１,,13,119,1750083,,,,,,,2025-02-17,1,,,,,レブロジャパン,0
1066,5011603004605,新規,0,2025-02-17,2025-02-17,合同会社Ｆ９,,合同会社,東京都,練馬区,桜台３丁目３２番１６号コーポパピヨン２０５,,13,120,1760002,,,,,,,2025-02-17,1,,,,,エフナイン,0
1075,5013303007540,新規,0,2025-02-17,2025-02-17,合同会社うさぎとーん,,合同会社,東京都,豊島区,東池袋２丁目６２番８号ＢＩＧオフィスプラザ池袋１２０６,,13,116,1700013,,,,,,,2025-02-17,1,,,,,ウサギトーン,0
1084,5020003027876,新規,0,2025-02-17,2025-02-17,合同会社ｉｎ　ｔｈｅ　ｌｉｆｅ,,合同会社,神奈川県,川崎市中原区,井田３丁目１７番４－１号,,14,133,2110035,,,,,,,2025-02-17,1,,,,,インザライフ,0
1097,5030001164869,新規,0,2025-02-17,2025-02-17,ケープラン株式会社,,株式会社,埼玉県,さいたま市北区,宮原町２丁目８０番地１６,,11,102,3310812,,,,,,,2025-02-17,1,,,,,ケープラン,0
1098,5030001164877,新規,0,2025-02-17,2025-02-17,株式会社Ｂ．ＧＯＡＴ,,株式会社,埼玉県,越谷市,大字下間久里４７６番地２,,11,222,3430045,,,,,,,2025-02-17,1,,,,,ビーゴート,0
1103,5030003026101,新規,0,2025-02-17,2025-02-17,合同会社ＣＯＧ,,合同会社,埼玉県,越谷市,新越谷２丁目２０番地１,,11,222,3430857,,,,,,,2025-02-17,1,,,,,シーオージー,0
1104,5030003026126,新規,0,2025-02-17,2025-02-17,日越コーポレーション合同会社,,合同会社,埼玉県,本庄市,けや木１丁目１３番３号,,11,211,3670042,,,,,,,2025-02-17,1,,,,,ニチエツコーポレーション,0
1106,5040001137312,新規,0,2025-02-17,2025-02-17,株式会社Ｃａｌｄｏ．,,株式会社,千葉県,市川市,真間２丁目１５番８号,,12,203,2720826,,,,,,,2025-02-17,1,,,,,カルド,0
1107,5040001137386,新規,0,2025-02-17,2025-02-17,ねこざえもん株式会社,,株式会社,千葉県,香取市,谷中１０２０番地,,12,236,2870061,,,,,,,2025-02-17,1,,,,,ネコザエモン,0
1108,5040001137394,新規,0,2025-02-17,2025-02-17,株式会社フラクタル,,株式会社,千葉県,船橋市,三山６丁目２２番２号パレドール小川２０１,,12,204,2740072,,,,,,,2025-02-17,1,,,,,フラクタル,0
1109,5040001137411,新規,0,2025-02-17,2025-02-17,トモサービス株式会社,,株式会社,千葉県,浦安市,富士見４丁目７番２０,,12,227,2790043,,,,,,,2025-02-17,1,,,,,トモサービス,0
1110,5040003026843,新規,0,2025-02-17,2025-02-17,乗芸合同会社,,合同会社,千葉県,松戸市,五香南２丁目３１番地の５－２０１号,,12,207,2702212,,,,,,,2025-02-17,1,,,,,ジョウゲイ,0
1111,5040003026868,新規,0,2025-02-17,2025-02-17,合同会社ホオズキ,,合同会社,千葉県,茂原市,萩原町１丁目６９番地,,12,210,2970018,,,,,,,2025-02-17,1,,,,,ホオズキ,0
1112,5040003026884,新規,0,2025-02-17,2025-02-17,合同会社ＥＦＦＯＲＴ,,合同会社,千葉県,千葉市中央区,富士見２丁目１８番８号ＭＦ８ビル５０１,,12,101,2600015,,,,,,,2025-02-17,1,,,,,エフォート,0
1115,5060001037898,新規,0,2025-02-17,2025-02-17,株式会社アンデル,,株式会社,栃木県,宇都宮市,若草４丁目１４番６号ピソ・ベルデ１０５号室,,09,201,3200072,,,,,,,2025-02-17,1,,,,,アンデル,0
1116,5060001037915,新規,0,2025-02-17,2025-02-17,株式会社ＭＡＳＨ,,株式会社,栃木県,宇都宮市,岩曽町１３６４番地１,,09,201,3210973,,,,,,,2025-02-17,1,,,,,マッシュ,0
1121,5110003005666,新規,0,2025-02-17,2025-02-17,ＭＯ合同会社,,合同会社,新潟県,長岡市,川崎町宇野口８６４番地２,,15,202,9400861,,,,,,,2025-02-17,1,,,,,エムオー,0
1122,5110005017189,新規,0,2025-02-17,2025-02-17,一般社団法人新潟県ｅスポーツ連合,,その他の設立登記法人,新潟県,新潟市中央区,笹口１丁目２番地,,15,103,9500911,,,,,,,2025-02-17,1,,,,,ニイガタケンイースポーツレンゴウ,0
1126,5120001272811,新規,0,2025-02-17,2025-02-17,メディカル・グレース株式会社,,株式会社,大阪府,枚方市,山之上１丁目２２番１号,,27,210,5730047,,,,,,,2025-02-17,1,,,,,メディカルグレース,0
1128,5120103006282,新規,0,2025-02-17,2025-02-17,合同会社アーシング,,合同会社,大阪府,堺市北区,中百舌鳥町３－３７４,,27,146,5910000,,,,,,,2025-02-17,1,,,,,アーシング,0
1142,5130001079000,新規,0,2025-02-17,2025-02-17,株式会社スカイエンジニア,,株式会社,京都府,久世郡久御山町,森宮西３６－１・２Ｆ,,26,322,6130024,,,,,,,2025-02-17,1,,,,,スカイエンジニア,0
1146,5140001137401,新規,0,2025-02-17,2025-02-17,株式会社Ｌｅｃｏ,,株式会社,兵庫県,神戸市西区,宮下２丁目１６番１３号,,28,111,6512146,,,,,,,2025-02-17,1,,,,,レコ,0
1149,5140003021652,新規,0,2025-02-17,2025-02-17,宝えび合同会社,,合同会社,兵庫県,西宮市,名塩木之元１１番９号,,28,204,6691136,,,,,,,2025-02-17,1,,,,,タカラエビ,0
1153,5160003003401,新規,0,2025-02-17,2025-02-17,合同会社Ｅｘｐａｎｓｉｏｎ,,合同会社,滋賀県,東近江市,御園町１５０番地１５,,25,213,5270056,,,,,,,2025-02-17,1,,,,,エクスパンション,0
1166,5180003028000,新規,0,2025-02-17,2025-02-17,合同会社ディーテック,,合同会社,愛知県,一宮市,時之島字宮付３３番地１,,23,203,4910002,,,,,,,2025-02-17,1,,,,,ディーテック,0
1171,5190003004941,新規,0,2025-02-17,2025-02-17,合同会社ＡＭＮＡ　ＥＮＴＥＲＰＲＩＳＥＳ,,合同会社,三重県,桑名郡木曽岬町,大字白鷺６２８番地６８,,24,303,4980815,,,,,,,2025-02-17,1,,,,,アムナエンタープライセス,0
1174,5240001064387,新規,0,2025-02-17,2025-02-17,オデッセイジャパン株式会社,,株式会社,広島県,東広島市,西条上市町７－４２,,34,212,7390006,,,,,,,2025-02-17,1,,,,,オデッセイジャパン,0
1180,5290001108899,新規,0,2025-02-17,2025-02-17,株式会社住みたか,,株式会社,福岡県,福岡市博多区,月隈６丁目９番２３号,,40,132,8120858,,,,,,,2025-02-17,1,,,,,スミタカ,0
1186,5290003016398,新規,0,2025-02-17,2025-02-17,合同会社エレメント,,合同会社,福岡県,福岡市博多区,博多駅前１丁目２３番２号ＰａｒｋＦｒｏｎｔ博多駅前１丁目５Ｆ－Ｂ,,40,132,8120011,,,,,,,2025-02-17,1,,,,,エレメント,0
1189,5290005019647,新規,0,2025-02-17,2025-02-17,ＮＰＯ法人結び,,その他の設立登記法人,福岡県,福岡市早良区,西新４丁目３番２０－４０１号,,40,137,8140002,,,,,,,2025-02-17,1,,,,,ムスビ,0
1191,5290801031284,新規,0,2025-02-17,2025-02-17,株式会社北九ビット工業,,株式会社,福岡県,北九州市若松区,南二島２丁目１９番５号,,40,103,8080109,,,,,,,2025-02-17,1,,,,,キタキュウビットコウギョウ,0
1196,5330003010842,新規,0,2025-02-17,2025-02-17,合同会社立川企画,,合同会社,熊本県,熊本市東区,東京塚町８番９号,,43,102,8620923,,,,,,,2025-02-17,1,,,,,タチカワキカク,0
1197,5330005010873,新規,0,2025-02-17,2025-02-17,一般社団法人ひろにし学童クラブ,,その他の設立登記法人,熊本県,上益城郡益城町,大字福富１００１番地,,43,443,8612235,,,,,,,2025-02-17,1,,,,,ヒロニシガクドウクラブ,0
1201,5360003014700,新規,0,2025-02-17,2025-02-17,Ｆｉｎｅｓｔ　Ｃｌｅａｎ合同会社,,合同会社,沖縄県,浦添市,宮城１丁目４－９エルベンハイム結２０５,,47,208,9012126,,,,,,,2025-02-17,1,,,,,ファイネストクリーン,0
1205,5380001035093,新規,0,2025-02-17,2025-02-17,株式会社叶,,株式会社,福島県,石川郡石川町,字長久保７９番地,,07,501,9637846,,,,,,,2025-02-17,1,,,,,カノウ,0
1206,5380003005961,新規,0,2025-02-17,2025-02-17,合同会社カッコシー,,合同会社,福島県,福島市,八島町１０番１７－２号ルミエールＢ,,07,201,9608136,,,,,,,2025-02-17,1,,,,,カッコシー,0
1210,5410005006624,新規,0,2025-02-17,2025-02-17,農事組合法人造山,,その他の設立登記法人,秋田県,横手市,雄物川町造山字造山３番地,,05,203,0130212,,,,,,,2025-02-17,1,,,,,,0
1220,5430001093689,新規,0,2025-02-17,2025-02-17,叶株式会社,,株式会社,北海道,小樽市,入船５丁目２４番９号,,01,203,0470021,,,,,,,2025-02-17,1,,,,,カナウ,0
1221,5430001093706,新規,0,2025-02-17,2025-02-17,株式会社エスエーティー,,株式会社,北海道,石狩市,緑苑台東三条１丁目３２番地１,,01,235,0613223,,,,,,,2025-02-17,1,,,,,エスエーティー,0
1222,5430001093714,新規,0,2025-02-17,2025-02-17,株式会社ＭＹファシリティーズ,,株式会社,北海道,札幌市白石区,北郷九条８丁目６－３０,,01,104,0030839,,,,,,,2025-02-17,1,,,,,エムワイファシリティーズ,0
1227,5470003002801,新規,0,2025-02-17,2025-02-17,Ｈｅｒｄ　ＤＡＯ合同会社,,合同会社,香川県,小豆郡土庄町,甲３５８,,37,322,7614101,,,,,,,2025-02-17,1,,,,,,0
1228,5490001010969,新規,0,2025-02-17,2025-02-17,ＥＮ‐Ｐａｒｔｎｅｒｓ株式会社,,株式会社,高知県,高知市,新屋敷２丁目９番２号,,39,201,7800911,,,,,,,2025-02-17,1,,,,,,0
1231,5500003003440,新規,0,2025-02-17,2025-02-17,合同会社ＳＡ,,合同会社,愛媛県,松山市,二番町１丁目４番地８－２Ｆ,,38,201,7900002,,,,,,,2025-02-17,1,,,,,エスエー,0
1233,5700150129209,新規,0,2025-02-17,2025-02-17,ｘｕｚｈｏｕｙｉｙｕｗａｎｇｌｕｏｋｅｊｉｙｏｕｘｉａｎｇｏｎｇｓｉ,,外国会社等,,,,,,,,Ｓｈｏｐ　１０４，Ａｎｊｉｒｏｎｇ　Ｃｏｍｍｅｒｃｉａｌ　ａｎｄ　Ｒｅｓｉｄｅｎｔｉａｌ　Ｂｕｉｌｄｉｎｇ，Ｅａｓｔ　ｏｆ　Ｆａｎｇｃｕｎ　Ｔｏｗｎ　Ｃｏｍｍｅｒｃｉａｌ　Ｓｔｒｅｅｔ　ａｎｄ　Ｎｏｒｔｈ　ｏｆ　Ｚｈｉｆｕ　Ｒｏａｄ，Ｔｏｎｇｓｈａｎ　Ｄｉｓｔｒｉｃｔ，Ｘｕｚｈｏｕ　Ｃｉｔｙ，Ｊｉａｎｇｓｕ　Ｐｒｏｖｉｎｃｅ,,,,,,2025-02-17,1,,,,,シュウゾウイユワンロウカギユウゲンコウシ,0
1240,6010001252294,新規,0,2025-02-17,2025-02-17,インディペンデンス・テクノロジー株式会社,,株式会社,東京都,千代田区,鍛冶町１丁目４番５号,,13,101,1010044,,,,,,,2025-02-17,1,,,,,インディペンデンステクノロジー,0
1244,6010003046406,新規,0,2025-02-17,2025-02-17,合同会社ＡＭＩＥＬ,,合同会社,東京都,中央区,銀座１丁目１２番４号Ｎ＆ＥＢＬＤ．６Ｆ,,13,102,1040061,,,,,,,2025-02-17,1,,,,,アミエル,0
1245,6010003046422,新規,0,2025-02-17,2025-02-17,上大崎２丁目プロジェクト合同会社,,合同会社,東京都,千代田区,丸の内２丁目３番２号,,13,101,1000005,,,,,,,2025-02-17,1,,,,,カミオオサキニチョウメプロジェクト,0
1256,6010401188262,新規,0,2025-02-17,2025-02-17,株式会社Ｈ＆Ｃ　ＨＤ,,株式会社,東京都,港区,南青山３丁目１番３号スプライン青山東急ビル３階,,13,103,1070062,,,,,,,2025-02-17,1,,,,,エイチアンドシーホールディングス,0
1257,6010401188270,新規,0,2025-02-17,2025-02-17,株式会社藤井興産,,株式会社,東京都,港区,南青山２丁目２番１５号,,13,103,1070062,,,,,,,2025-02-17,1,,,,,フジイコウサン,0
1260,6010403034398,新規,0,2025-02-17,2025-02-17,ＮｅｗＬｅａｆ合同会社,,合同会社,東京都,港区,赤坂８丁目４－７アパートメントカーム４Ｂ,,13,103,1070052,,,,,,,2025-02-17,1,,,,,ニューリーフ,0
1261,6010403034415,新規,0,2025-02-17,2025-02-17,合同会社宝旺,,合同会社,東京都,港区,南青山２丁目２番１５号,,13,103,1070062,,,,,,,2025-02-17,1,,,,,ホウオウ,0
1262,6010405024100,新規,0,2025-02-17,2025-02-17,空木岳一般社団法人,,その他の設立登記法人,東京都,港区,六本木１丁目６番１号泉ガーデンタワーＫＰＭＧ税理士法人内,,13,103,1060032,,,,,,,2025-02-17,1,,,,,ウツギダケ,0
1266,6010501053655,新規,0,2025-02-17,2025-02-17,株式会社ＳＴＹ,,株式会社,東京都,台東区,竜泉３丁目４２番７号,,13,106,1100012,,,,,,,2025-02-17,1,,,,,エスティーワイ,0
1272,6010801035849,新規,0,2025-02-17,2025-02-17,ブリオアセット株式会社,,株式会社,東京都,大田区,山王４丁目２番１４号,,13,111,1430023,,,,,,,2025-02-17,1,,,,,ブリオアセット,0
1273,6010801035857,新規,0,2025-02-17,2025-02-17,株式会社ＫＴＭＲ,,株式会社,東京都,大田区,南馬込４丁目４３番７号,,13,111,1430025,,,,,,,2025-02-17,1,,,,,ケーティーエムアール,0
1285,6011001167672,新規,0,2025-02-17,2025-02-17,株式会社イコール,,株式会社,東京都,目黒区,目黒本町１丁目７番２１号,,13,110,1520002,,,,,,,2025-02-17,1,,,,,イコール,0
1286,6011001167680,新規,0,2025-02-17,2025-02-17,株式会社ＣＣ東京目黒,,株式会社,東京都,目黒区,洗足１丁目１番１５号,,13,110,1520012,,,,,,,2025-02-17,1,,,,,シーシートウキョウメグロ,0
1289,6011003020953,新規,0,2025-02-17,2025-02-17,合同会社ＳＴＡＲＧＡＺＥＲ,,合同会社,東京都,目黒区,下目黒１丁目１番１４号コノトラビル７Ｆ,,13,110,1530064,,,,,,,2025-02-17,1,,,,,スターゲイザー,0
1290,6011003020978,新規,0,2025-02-17,2025-02-17,合同会社テルビル,,合同会社,東京都,渋谷区,道玄坂１丁目１０番８号渋谷道玄坂東急ビル２Ｆ－Ｃ,,13,113,1500043,,,,,,,2025-02-17,1,,,,,テルビル,0
1297,6011101110664,新規,0,2025-02-17,2025-02-17,日本東游国際株式会社,,株式会社,東京都,新宿区,北新宿４丁目１番１７号寿コーポ２階,,13,104,1690074,,,,,,,2025-02-17,1,,,,,ニホントウユウコクサイ,0
1301,6011201026125,新規,0,2025-02-17,2025-02-17,株式会社リリビット,,株式会社,東京都,中野区,鷺宮６丁目１３番８号,,13,114,1650032,,,,,,,2025-02-17,1,,,,,リリビット,0
1302,6011301030357,新規,0,2025-02-17,2025-02-17,株式会社ＵＰ,,株式会社,東京都,杉並区,高円寺北４丁目１６番７号,,13,115,1660002,,,,,,,2025-02-17,1,,,,,アップ,0
1305,6011401026817,新規,0,2025-02-17,2025-02-17,昭美株式会社,,株式会社,東京都,板橋区,高島平１丁目３５番１号,,13,119,1750082,,,,,,,2025-02-17,1,,,,,ショウビ,0
1310,6011403004622,新規,0,2025-02-17,2025-02-17,合同会社ＭＫＡＭＣ,,合同会社,東京都,板橋区,小茂根２丁目２０番１２－６０３号ダイアパレス小竹向原,,13,119,1730037,,,,,,,2025-02-17,1,,,,,エムケーエーエムシー,0
1317,6012403006971,新規,0,2025-02-17,2025-02-17,合同会社ＣＳＩＣＪＡＰＡＮ,,合同会社,東京都,府中市,府中町１丁目４１番地１２－０８,,13,206,1830055,,,,,,,2025-02-17,1,,,,,シエスアイジャパン,0
1321,6013301053775,新規,0,2025-02-17,2025-02-17,株式会社トリニティライト,,株式会社,東京都,豊島区,東池袋２丁目３９番２号マルミビル２０１,,13,116,1700013,,,,,,,2025-02-17,1,,,,,トリニティライト,0
1335,6021003015597,新規,0,2025-02-17,2025-02-17,合同会社ダイタマ,,合同会社,神奈川県,鎌倉市,台１７０１番地７,,14,204,2470061,,,,,,,2025-02-17,1,,,,,ダイタマ,0
1344,6030001164868,新規,0,2025-02-17,2025-02-17,株式会社パイステップ,,株式会社,埼玉県,川口市,西川口１丁目５番５－５０５号ＭＦハイツ,,11,203,3320021,,,,,,,2025-02-17,1,,,,,パイステップ,0
1345,6030001164884,新規,0,2025-02-17,2025-02-17,株式会社ＧＲＡＴＹ,,株式会社,埼玉県,新座市,栗原６丁目１０番２５号,,11,230,3520035,,,,,,,2025-02-17,1,,,,,グレイティ,0
1350,6030003026109,新規,0,2025-02-17,2025-02-17,合同会社ＴＳＮ,,合同会社,埼玉県,春日部市,大畑９１番地４,,11,214,3440022,,,,,,,2025-02-17,1,,,,,ティーエスエヌ,0
1352,6040003026867,新規,0,2025-02-17,2025-02-17,誠合同会社,,合同会社,千葉県,船橋市,本町５丁目１５番２０－３０４号,,12,204,2730005,,,,,,,2025-02-17,1,,,,,マコト,0
1355,6050001056171,新規,0,2025-02-17,2025-02-17,つくば住宅工房株式会社,,株式会社,茨城県,つくば市,自由ケ丘９８３番地２６,,08,220,3001266,,,,,,,2025-02-17,1,,,,,ツクバジュウタクコウボウ,0
1357,6050003009037,新規,0,2025-02-17,2025-02-17,Ａｍｉｍａｃｈｉ　Ｗｏｒｋｓ合同会社,,合同会社,茨城県,稲敷郡阿見町,うずら野２丁目６番地１、２０３号,,08,443,3000341,,,,,,,2025-02-17,1,,,,,アミマチワークス,0
1361,6080001026758,新規,0,2025-02-17,2025-02-17,株式会社サントレスト,,株式会社,静岡県,静岡市葵区,紺屋町１７番地の１葵タワー１階,,22,101,4200852,,,,,,,2025-02-17,1,,,,,サントレスト,0
1362,6080003003391,新規,0,2025-02-17,2025-02-17,合同会社ＦＫＷ,,合同会社,静岡県,静岡市清水区,大坪１丁目７番２７号,,22,103,4240847,,,,,,,2025-02-17,1,,,,,エフケイダブル,0
1365,6080101025313,新規,0,2025-02-17,2025-02-17,株式会社熱海だいだいトロピカルスイーツ,,株式会社,静岡県,熱海市,緑ガ丘町１１番７号,,22,205,4130035,,,,,,,2025-02-17,1,,,,,アタミダイダイトロピカルスイーツ,0
1367,6080401027744,新規,0,2025-02-17,2025-02-17,株式会社アバンテ,,株式会社,静岡県,浜松市浜名区,三ヶ日町都筑２６番地の９,,22,139,4311402,,,,,,,2025-02-17,1,,,,,アバンテ,0
1368,6090003002748,新規,0,2025-02-17,2025-02-17,合同会社ｐｅｎｈｏｌｄｓ,,合同会社,山梨県,都留市,中央２丁目３―１２,,19,204,4020052,,,,,,,2025-02-17,1,,,,,ペンホールズ,0
1370,6110001039054,新規,0,2025-02-17,2025-02-17,株式会社メディプレシジョン,,株式会社,新潟県,新潟市南区,下曲通字中江下７３３番地１,,15,106,9501301,,,,,,,2025-02-17,1,,,,,メディプレシジョン,0
1381,6120001272810,新規,0,2025-02-17,2025-02-17,株式会社ＣＲＥＢＩＡ,,株式会社,大阪府,大阪市西区,北堀江１丁目１４番２４号ラポール四ツ橋ビル５０３号,,27,106,5500014,,,,,,,2025-02-17,1,,,,,クレビア,0
1384,6120103006281,新規,0,2025-02-17,2025-02-17,合同会社Ｆ．Ｐ．Ｓ,,合同会社,大阪府,阪南市,下出７５番地の４,,27,232,5990202,,,,,,,2025-02-17,1,,,,,エフピーエス,0
1386,6120901050448,新規,0,2025-02-17,2025-02-17,株式会社ノバベース,,株式会社,大阪府,吹田市,豊津町４０番３６－３０２号,,27,205,5640051,,,,,,,2025-02-17,1,,,,,ノバベース,0
1394,6140001137383,新規,0,2025-02-17,2025-02-17,株式会社リベラルホールディングス,,株式会社,兵庫県,神戸市須磨区,北落合５丁目１７番２６号,,28,107,6540151,,,,,,,2025-02-17,1,,,,,リベラルホールディングス,0
1396,6150001027880,新規,0,2025-02-17,2025-02-17,株式会社ＺｉＺｕｅ,,株式会社,奈良県,桜井市,大字吉備６３４番地の１３,,29,206,6330065,,,,,,,2025-02-17,1,,,,,ジズー,0
1397,6150003003491,新規,0,2025-02-17,2025-02-17,合同会社ＢＥＲＧＡＭＯＴ,,合同会社,奈良県,五條市,田園３丁目４１番地の１０,,29,207,6370093,,,,,,,2025-02-17,1,,,,,ベルガモット,0
1399,6160001026543,新規,0,2025-02-17,2025-02-17,エムズファーム株式会社,,株式会社,滋賀県,彦根市,駅東町７番２号,,25,202,5220010,,,,,,,2025-02-17,1,,,,,エムズファーム,0
1406,6180001165273,新規,0,2025-02-17,2025-02-17,株式会社Ｌｅｕ,,株式会社,愛知県,名古屋市天白区,植田南３丁目１０９番地植田ダイヤハイツ２０３号,,23,116,4680053,,,,,,,2025-02-17,1,,,,,エルイーユー,0
1416,6190001031994,新規,0,2025-02-17,2025-02-17,Ｉ’ｓＰｅａｒｌ株式会社,,株式会社,三重県,志摩市,志摩町和具３９２０番地１,,24,215,5170703,,,,,,,2025-02-17,1,,,,,アイズパール,0
1417,6190001032010,新規,0,2025-02-17,2025-02-17,トライムアップ株式会社,,株式会社,三重県,津市,栄町４丁目２４６番地,,24,201,5140004,,,,,,,2025-02-17,1,,,,,トライムアップ,0
1418,6200003006695,新規,0,2025-02-17,2025-02-17,合同会社ＦＬＰ,,合同会社,岐阜県,岐阜市,錦町２丁目２番地５,,21,201,5008331,,,,,,,2025-02-17,1,,,,,エフエルピー,0
1420,6240001064535,新規,0,2025-02-17,2025-02-17,喜一総合建設株式会社,,株式会社,広島県,広島市安芸区,矢野東５丁目２番２４－２０５号,,34,107,7360083,,,,,,,2025-02-17,1,,,,,キイチソウゴウケンセツ,0
1421,6240003007070,新規,0,2025-02-17,2025-02-17,合同会社フジトモ,,合同会社,広島県,広島市佐伯区,楽々園３丁目５番２０号,,34,108,7315136,,,,,,,2025-02-17,1,,,,,フジトモ,0
1441,6290001108758,新規,0,2025-02-17,2025-02-17,株式会社山神開発,,株式会社,福岡県,筑紫野市,桜台２丁目９番８号,,40,217,8180063,,,,,,,2025-02-17,1,,,,,ヤマガミカイハツ,0
1444,6290005019654,新規,0,2025-02-17,2025-02-17,一般社団法人孝情文化協会,,その他の設立登記法人,福岡県,福岡市東区,香椎４丁目１９番１８－２０１号,,40,131,8130011,,,,,,,2025-02-17,1,,,,,コウジョウブンカキョウカイ,0
1446,6290803004972,新規,0,2025-02-17,2025-02-17,合同会社おはな,,合同会社,福岡県,北九州市小倉南区,津田新町１丁目１６番３７号,,40,107,8000227,,,,,,,2025-02-17,1,,,,,オハナ,0
1455,6350001019395,新規,0,2025-02-17,2025-02-17,株式会社ＯＷＥＮ,,株式会社,宮崎県,宮崎市,清武町今泉甲８２０番地３,,45,201,8891602,,,,,,,2025-02-17,1,,,,,オーウェン,0
1456,6360001034798,新規,0,2025-02-17,2025-02-17,株式会社ファイブウィン,,株式会社,沖縄県,沖縄市,安慶田１丁目３番５号１Ｆ,,47,211,9040012,,,,,,,2025-02-17,1,,,,,ファイブウィン,0
1459,6370003006935,新規,0,2025-02-17,2025-02-17,合同会社ＧｕａｒｄＰｒｏ,,合同会社,宮城県,仙台市泉区,天神沢１丁目１５番３１号ＨｉｌｌＢａｓｅ２０１,,04,105,9813105,,,,,,,2025-02-17,1,,,,,ガードプロ,0
1461,6380001035092,新規,0,2025-02-17,2025-02-17,ＭｉＭｉ　Ｉｍｐｏｒｔ株式会社,,株式会社,福島県,伊達市,霊山町中川字東広瀬３６番地,,07,213,9600805,,,,,,,2025-02-17,1,,,,,ミミインポート,0
1464,6380003005960,新規,0,2025-02-17,2025-02-17,ポルポジャパン合同会社,,合同会社,福島県,郡山市,安積１丁目１５１番地の５,,07,203,9630107,,,,,,,2025-02-17,1,,,,,ポルポジャパン,0
1467,6420001019017,新規,0,2025-02-17,2025-02-17,株式会社仁産業,,株式会社,青森県,十和田市,西二十一番町２５番７号,,02,206,0340095,,,,,,,2025-02-17,1,,,,,ジンサンギョウ,0
1472,6430001093705,新規,0,2025-02-17,2025-02-17,株式会社札幌徳水,,株式会社,北海道,札幌市北区,新川四条１８丁目１番９号,,01,102,0010924,,,,,,,2025-02-17,1,,,,,サッポロトクスイ,0
1473,6430005015151,新規,0,2025-02-17,2025-02-17,社会保険労務士法人会社の番頭さん,,その他の設立登記法人,北海道,札幌市中央区,大通東４丁目４番４３号ベニーレ大通東ビル,,01,101,0600041,,,,,,,2025-02-17,1,,,,,カイシャノバントウサン,0
1475,6450001014535,新規,0,2025-02-17,2025-02-17,北海道トータル・サービス株式会社,,株式会社,北海道,旭川市,永山一条５丁目３番６号グランビュー永山１０６号,,01,204,0798411,,,,,,,2025-02-17,1,,,,,ホッカイドウトータルサービス,0
1476,6462503000227,新規,0,2025-02-17,2025-02-17,Ｏｆｆｉｃｅ　Ｔａｋｅｄａ合同会社,,合同会社,北海道,標津郡標津町,字川北１２７番地８,,01,693,0861451,,,,,,,2025-02-17,1,,,,,オフィスタケダ,0
1478,6470003002800,新規,0,2025-02-17,2025-02-17,ウェプラス合同会社,,合同会社,香川県,高松市,国分寺町福家甲９７番地２４,,37,201,7690103,,,,,,,2025-02-17,1,,,,,ウェプラス,0
1479,6470003002809,新規,0,2025-02-17,2025-02-17,合同会社一華建設,,合同会社,香川県,綾歌郡宇多津町,３５０番地２４京都東山４０９棟５３号,,37,386,7690210,,,,,,,2025-02-17,1,,,,,イチカケンセツ,0
1485,6700150129208,新規,0,2025-02-17,2025-02-17,ＤｏｎｇＧｕａｎＳｈｉＤｉａｎＳｈａｎｇＤｉａｎＺｉＫｅＪｉＹｏｕＸｉａｎＧｏｎｇＳｉ,,外国会社等,,,,,,,,ＧｕａｎｇＤｏｎｇＳｈｅｎｇＤｏｎｇＧｕａｎＳｈｉＱｉａｏＴｏｕＺｈｅｎＬｉａｎＣｈｅｎｇＨｏｎｇＤａＺｈｏｎｇＬｕ１００Ｈａｏ,,,,,,2025-02-17,1,,,,,ドングゥアンシデェンサンデンシカギユウゲンコウシ,0
1493,7010001252269,新規,0,2025-02-17,2025-02-17,株式会社ＰｒｏＶｅｓｔａ,,株式会社,東京都,中央区,東日本橋３丁目１１番１１号東日本橋Ｙ’ｓビル７階,,13,102,1030004,,,,,,,2025-02-17,1,,,,,プロヴェスタ,0
1494,7010003046339,新規,0,2025-02-17,2025-02-17,合同会社Ｃｅｎｔｒａｌ　ｃｏｎｎｅｃｔｉｏｎ,,合同会社,東京都,中央区,新富１丁目５番１３－１１０１号,,13,102,1040041,,,,,,,2025-02-17,1,,,,,セントラルコネクション,0
1506,7010405024099,新規,0,2025-02-17,2025-02-17,笠ヶ岳２一般社団法人,,その他の設立登記法人,東京都,港区,六本木１丁目６番１号泉ガーデンタワーＫＰＭＧ税理士法人内,,13,103,1060032,,,,,,,2025-02-17,1,,,,,カサガタケツー,0
1507,7010501053588,新規,0,2025-02-17,2025-02-17,株式会社ケイ・エイチ計画,,株式会社,東京都,台東区,蔵前３丁目１１番９号,,13,106,1110051,,,,,,,2025-02-17,1,,,,,ケイエイチケイカク,0
1508,7010501053646,新規,0,2025-02-17,2025-02-17,冨米ホーム株式会社,,株式会社,東京都,台東区,台東２丁目５－１２,,13,106,1100016,,,,,,,2025-02-17,1,,,,,トミヨネホーム,0
1511,7010603011386,新規,0,2025-02-17,2025-02-17,合同会社Ｔｒｕｓｔ　Ｃｏｎｓｕｌｔｉｎｇ,,合同会社,東京都,江東区,亀戸５丁目１０－１－２００,,13,108,1360071,,,,,,,2025-02-17,1,,,,,トラストコンサルティング,0
1514,7010803005287,新規,0,2025-02-17,2025-02-17,合同会社ＧＵ経営総合事務所,,合同会社,東京都,大田区,蒲田５丁目２１－１３ペガサスステーションプラザ蒲田Ｂ２,,13,111,1440052,,,,,,,2025-02-17,1,,,,,ジーユーケイエイソウゴウジムショ,0
1526,7011001167358,新規,0,2025-02-17,2025-02-17,株式会社ＤＡＬＨＩＡ,,株式会社,東京都,目黒区,大岡山１丁目３６番５号,,13,110,1520033,,,,,,,2025-02-17,1,,,,,ダリア,0
1527,7011001167622,新規,0,2025-02-17,2025-02-17,株式会社プロテア,,株式会社,東京都,渋谷区,広尾４丁目１番２７号,,13,113,1500012,,,,,,,2025-02-17,1,,,,,プロテア,0
1528,7011001167663,新規,0,2025-02-17,2025-02-17,株式会社Ｐｉｔｃｈｍａｒｋ,,株式会社,東京都,渋谷区,道玄坂１丁目１０番８号渋谷道玄坂東急ビル２Ｆ－Ｃ,,13,113,1500043,,,,,,,2025-02-17,1,,,,,ピッチマーク,0
1529,7011001167696,新規,0,2025-02-17,2025-02-17,Ｃａｓｃａｄｅ株式会社,,株式会社,東京都,渋谷区,道玄坂１丁目１６－６,,13,113,1500043,,,,,,,2025-02-17,1,,,,,カスケード,0
1530,7011001167837,新規,0,2025-02-17,2025-02-17,株式会社Ｐｒｅｓｓ　Ｈｏｕｓｅ　Ｇｉｎｇｅｒ,,株式会社,東京都,渋谷区,渋谷２丁目１９番１５号宮益坂ビルディング６０９,,13,113,1500002,,,,,,,2025-02-17,1,,,,,プレスハウスジンジャー,0
1533,7011003020985,新規,0,2025-02-17,2025-02-17,合同会社ゼンドローン,,合同会社,東京都,目黒区,中目黒４丁目４－４－３０２,,13,110,1530061,,,,,,,2025-02-17,1,,,,,ゼンドローン,0
1534,7011003021001,新規,0,2025-02-17,2025-02-17,合同会社ＨＩＮＣ　ＮＵＮＣ,,合同会社,東京都,渋谷区,渋谷２丁目１９‐１５宮益坂ビルディング６０９,,13,113,1500002,,,,,,,2025-02-17,1,,,,,ヒンクヌンク,0
1537,7011101110622,新規,0,2025-02-17,2025-02-17,康新日本開発株式会社,,株式会社,東京都,新宿区,西新宿１丁目４番１１号全研プラザビル,,13,104,1600023,,,,,,,2025-02-17,1,,,,,コウシンニホンカイハツ,0
1538,7011101110639,新規,0,2025-02-17,2025-02-17,ＳＨＵＧＯ　ＣＯＭＰＡＮＹ株式会社,,株式会社,東京都,新宿区,早稲田鶴巻町５６０番地６ＲＰレジデンス早稲田１０２号,,13,104,1620041,,,,,,,2025-02-17,1,,,,,シュウゴカンパニー,0
1539,7011101110647,新規,0,2025-02-17,2025-02-17,ＷＩＮＨＯＭＥ株式会社,,株式会社,東京都,新宿区,富久町３２－３東新富久町ビル２０３,,13,104,1620067,,,,,,,2025-02-17,1,,,,,ウィンホーム,0
1540,7011201026124,新規,0,2025-02-17,2025-02-17,株式会社アイラ,,株式会社,東京都,中野区,弥生町２丁目１５番１７号ニューライフアサヒ７０１,,13,114,1640013,,,,,,,2025-02-17,1,,,,,アイラ,0
1542,7011403004621,新規,0,2025-02-17,2025-02-17,合同会社Ａｚｕｌａｂ,,合同会社,東京都,板橋区,小豆沢１丁目２番１９－７２７号,,13,119,1740051,,,,,,,2025-02-17,1,,,,,アズラボ,0
1543,7011501031708,新規,0,2025-02-17,2025-02-17,株式会社Ｕｐｗａｒｄｓ,,株式会社,東京都,荒川区,南千住３丁目４０－１０－１９０７,,13,118,1160003,,,,,,,2025-02-17,1,,,,,アップワーズ,0
1548,7011801045639,新規,0,2025-02-17,2025-02-17,大東ルツボエンジニアリングサービス株式会社,,株式会社,東京都,葛飾区,東金町２丁目４番５号,,13,122,1250041,,,,,,,2025-02-17,1,,,,,ダイトウルツボエンジニアリングサービス,0
1549,7011801045647,新規,0,2025-02-17,2025-02-17,Ｚ国際貿易商事株式会社,,株式会社,東京都,足立区,青井２丁目１６番９号,,13,121,1200012,,,,,,,2025-02-17,1,,,,,ゼットコクサイボウエキショウジ,0
1560,7013301053782,新規,0,2025-02-17,2025-02-17,ｍａｒｕｃｏ株式会社,,株式会社,東京都,豊島区,南池袋４丁目１９番６号日の出ビル３０１号,,13,116,1710022,,,,,,,2025-02-17,1,,,,,マルコ,0
1578,7021003015596,新規,0,2025-02-17,2025-02-17,合同会社星野フィナンシャル・ハブ,,合同会社,神奈川県,相模原市南区,鵜野森２丁目１７番９号,,14,153,2520301,,,,,,,2025-02-17,1,,,,,ホシノフィナンシャルハブ,0
1586,7030001164826,新規,0,2025-02-17,2025-02-17,株式会社Ｒ＆Ｅイノベーション,,株式会社,埼玉県,さいたま市岩槻区,美園東２丁目１４番地２２プレジールＡ１０１,,11,110,3390028,,,,,,,2025-02-17,1,,,,,アールアンドイーイノベーション,0
1587,7030001164867,新規,0,2025-02-17,2025-02-17,株式会社ＫＹＯＥＩ,,株式会社,埼玉県,所沢市,日吉町３番７号近衛ソシアルビル２Ｆ,,11,208,3591123,,,,,,,2025-02-17,1,,,,,キョーエイ,0
1588,7030001164875,新規,0,2025-02-17,2025-02-17,株式会社Ｊａｐａｎ　ＭＳ,,株式会社,埼玉県,久喜市,南栗橋３丁目１９番地４,,11,232,3491117,,,,,,,2025-02-17,1,,,,,ジャパンエムエス,0
1589,7030003026124,新規,0,2025-02-17,2025-02-17,合同会社秀山会,,合同会社,埼玉県,さいたま市大宮区,土手町３丁目２３５番地（１０２）,,11,103,3300801,,,,,,,2025-02-17,1,,,,,シュウザンカイ,0
1592,7040001137335,新規,0,2025-02-17,2025-02-17,株式会社Ｂａｓｅ‐Ｔ,,株式会社,千葉県,千葉市中央区,登戸１丁目１０－１１シャトーライフ千葉ビル４０１,,12,101,2600032,,,,,,,2025-02-17,1,,,,,ベースティ,0
1593,7040001137392,新規,0,2025-02-17,2025-02-17,株式会社和楽不動産,,株式会社,千葉県,柏市,十余二５９３番地５山本貸事務所２Ｆ,,12,217,2770872,,,,,,,2025-02-17,1,,,,,ワラクフドウサン,0
1594,7040001137401,新規,0,2025-02-17,2025-02-17,ＮＩＰＰＯＮ　ＥＮＴＥＲＰＲＩＳＥ株式会社,,株式会社,千葉県,野田市,木間ケ瀬５４４２番地７,,12,208,2700222,,,,,,,2025-02-17,1,,,,,ニッポンエンタープライズ,0
1596,7040003026817,新規,0,2025-02-17,2025-02-17,合同会社みつ葉,,合同会社,千葉県,鎌ケ谷市,南初富１丁目２３－９１,,12,224,2730123,,,,,,,2025-02-17,1,,,,,ミツバ,0
1598,7050001056179,新規,0,2025-02-17,2025-02-17,株式会社Ｈｉｋｏｂａｅ,,株式会社,茨城県,つくば市,妻木６００番地１－６０１号,,08,220,3050028,,,,,,,2025-02-17,1,,,,,ヒコバエ,0
1599,7050003009028,新規,0,2025-02-17,2025-02-17,合同会社インパクトつくば,,合同会社,茨城県,つくば市,東２丁目１７番地２１,,08,220,3050046,,,,,,,2025-02-17,1,,,,,インパクトツクバ,0
1606,7080401027743,新規,0,2025-02-17,2025-02-17,ファーストアンドラスト株式会社,,株式会社,静岡県,浜松市天竜区,二俣町二俣１３９７番地,,22,140,4313314,,,,,,,2025-02-17,1,,,,,ファーストアンドラスト,0
1607,7080401027751,新規,0,2025-02-17,2025-02-17,株式会社Ｋ．ＮＯＺＯＭＩ,,株式会社,静岡県,袋井市,方丈１丁目５番地の７マンション元美２０２号,,22,216,4370022,,,,,,,2025-02-17,1,,,,,ケイノゾミ,0
1622,7120101071070,新規,0,2025-02-17,2025-02-17,株式会社ＴＨＥ　ＰＡＳＳＩＯＮ,,株式会社,大阪府,堺市北区,常磐町１丁１番地２浅香山グリーンマンション１３０２号,,27,146,5918001,,,,,,,2025-02-17,1,,,,,ザパッション,0
1623,7120101071079,新規,0,2025-02-17,2025-02-17,ジュリ株式会社,,株式会社,大阪府,岸和田市,稲葉町１１９７番１,,27,202,5960103,,,,,,,2025-02-17,1,,,,,ジュリ,0
1624,7120101071087,新規,0,2025-02-17,2025-02-17,株式会社エスポート,,株式会社,大阪府,堺市東区,北野田９４４番地,,27,143,5998123,,,,,,,2025-02-17,1,,,,,エスポート,0
1637,7140003021659,新規,0,2025-02-17,2025-02-17,グラシア合同会社,,合同会社,兵庫県,神戸市兵庫区,新開地５丁目３番１４－１５０７号,,28,105,6520811,,,,,,,2025-02-17,1,,,,,グラシア,0
1641,7170001018497,新規,0,2025-02-17,2025-02-17,株式会社ジャッジスリー,,株式会社,和歌山県,和歌山市,西庄８１０－７,,30,201,6400112,,,,,,,2025-02-17,1,,,,,ジャッジスリー,0
1667,7240005015896,新規,0,2025-02-17,2025-02-17,社会福祉法人絆,,その他の設立登記法人,広島県,広島市安佐北区,倉掛３丁目３５番２３号,,34,106,7391743,,,,,,,2025-02-17,1,,,,,キズナ,0
1675,7260001039922,新規,0,2025-02-17,2025-02-17,株式会社翔和,,株式会社,岡山県,倉敷市,茶屋町６８７番地２０,,33,202,7101101,,,,,,,2025-02-17,1,,,,,トワ,0
1681,7290001108922,新規,0,2025-02-17,2025-02-17,株式会社９６３,,株式会社,福岡県,久留米市,御井旗崎３丁目１１番２４号,,40,203,8390841,,,,,,,2025-02-17,1,,,,,キュウロクサン,0
1682,7290001108930,新規,0,2025-02-17,2025-02-17,Ｋ＆Ｋ株式会社,,株式会社,福岡県,糟屋郡志免町,向ヶ丘２丁目９番１０号,,40,343,8112247,,,,,,,2025-02-17,1,,,,,ケーアンドケー,0
1684,7290003016347,新規,0,2025-02-17,2025-02-17,合同会社ひとラボ,,合同会社,福岡県,福岡市西区,野方３丁目２７番１６号,,40,135,8190043,,,,,,,2025-02-17,1,,,,,ヒトラボ,0
1685,7290005019645,新規,0,2025-02-17,2025-02-17,一般社団法人九州検診車協会,,その他の設立登記法人,福岡県,糸島市,加布里４丁目１９－７,,40,230,8191124,,,,,,,2025-02-17,1,,,,,キュウシュウケンシンシャキョウカイ,0
1691,7330001032894,新規,0,2025-02-17,2025-02-17,株式会社ウィンクエスト,,株式会社,熊本県,合志市,福原１番地３５,,43,216,8611116,,,,,,,2025-02-17,1,,,,,ウィンクエスト,0
1693,7340001027126,新規,0,2025-02-17,2025-02-17,株式会社ミゴカリッサ鹿児島,,株式会社,鹿児島県,鹿児島市,本名町８３９番地３,,46,201,8911304,,,,,,,2025-02-17,1,,,,,ミゴカリッサカゴシマ,0
1705,7380003005951,新規,0,2025-02-17,2025-02-17,合同会社ユアーズオフィスサポート,,合同会社,福島県,須賀川市,和田字弥六内１３５番地２２,,07,207,9620813,,,,,,,2025-02-17,1,,,,,ユアーズオフィスサポート,0
1717,7430001093670,新規,0,2025-02-17,2025-02-17,ウィズダムホールディングス株式会社,,株式会社,北海道,苫小牧市,新開町２丁目４番６号,,01,213,0530052,,,,,,,2025-02-17,1,,,,,ウィズダムホールディングス,0
1718,7430001093704,新規,0,2025-02-17,2025-02-17,株式会社アヴァンス,,株式会社,北海道,札幌市手稲区,手稲山口２９２番地,,01,109,0060860,,,,,,,2025-02-17,1,,,,,アヴァンス,0
1721,7430003017289,新規,0,2025-02-17,2025-02-17,合同会社Ｌｅａｄ,,合同会社,北海道,札幌市豊平区,豊平三条８丁目１－１ハイム亜庭１－Ｅ,,01,105,0620903,,,,,,,2025-02-17,1,,,,,リード,0
1729,7480003002237,新規,0,2025-02-17,2025-02-17,合同会社藍企画,,合同会社,徳島県,那賀郡那賀町,中山字祢木のの３番地４,,36,368,7715204,,,,,,,2025-02-17,1,,,,,アイキカク,0
1730,7490001010967,新規,0,2025-02-17,2025-02-17,株式会社基住,,株式会社,高知県,高知市,塚ノ原７８番地１高橋ビル２階,,39,201,7800952,,,,,,,2025-02-17,1,,,,,キジュウ,0
1734,7700150129207,新規,0,2025-02-17,2025-02-17,ｘｕｚｈｏｕｓｈｉａｉｗａｔｅｓｈａｎｇｍａｏｙｏｕｘｉａｎｇｏｎｇｓｉ,,外国会社等,,,,,,,,Ｎｏ．９，Ｚｈｏｎｇｑｉａｏ　Ｉｎｄｕｓｔｒｉａｌ　Ｐａｒｋ（ｆｏｒｍｅｒｌｙ　Ｓｉｌｋ　Ｆａｃｔｏｒｙ），Ｆａｎｇｃｕｎ　Ｔｏｗｎ，Ｔｏｎｇｓｈａｎ　Ｄｉｓｔｒｉｃｔ，Ｘｕｚｈｏｕ　Ｃｉｔｙ，Ｊｉａｎｇｓｕ　Ｐｒｏｖｉｎｃｅ,,,,,,2025-02-17,1,,,,,シュウゾウアイワテシャンマオユウゲンコウシ,0
1737,8010001252227,新規,0,2025-02-17,2025-02-17,株式会社ＯＮＳＥＮＬＩＮＧ,,株式会社,東京都,千代田区,飯田橋１丁目７番８号,,13,101,1020072,,,,,,,2025-02-17,1,,,,,オンセンリング,0
1738,8010001252284,新規,0,2025-02-17,2025-02-17,Ｆｕｔｕｒｅ　Ｉｎｓｉｇｈｔ株式会社,,株式会社,東京都,千代田区,岩本町２丁目１３－６ミツボシ第３ビル７０６号,,13,101,1010032,,,,,,,2025-02-17,1,,,,,フューチャーインサイト,0
1739,8010003046404,新規,0,2025-02-17,2025-02-17,Ｊ‐Ｌａｂ合同会社,,合同会社,東京都,千代田区,六番町６番地６プレミスト六番町９０１号,,13,101,1020085,,,,,,,2025-02-17,1,,,,,ジェイラボ,0
1740,8010003046412,新規,0,2025-02-17,2025-02-17,ＬＥＶＥＣＨＹファンド２３号合同会社,,合同会社,東京都,千代田区,紀尾井町３－８第２紀尾井町ビル９０１アクシス綜合会計事務所内,,13,101,1020094,,,,,,,2025-02-17,1,,,,,レベチーファンドニジュウサンゴウ,0
1741,8010003046420,新規,0,2025-02-17,2025-02-17,合同会社エーペックス,,合同会社,東京都,千代田区,神田和泉町１番地６‐１６ヤマトビル４０５,,13,101,1010024,,,,,,,2025-02-17,1,,,,,エーペックス,0
1751,8010401187898,新規,0,2025-02-17,2025-02-17,楽和株式会社,,株式会社,東京都,港区,六本木６丁目１０番１号六本木ヒルズ森タワー１６階,,13,103,1060032,,,,,,,2025-02-17,1,,,,,ラクワ,0
1752,8010401188013,新規,0,2025-02-17,2025-02-17,株式会社シークエンス,,株式会社,東京都,港区,港南２丁目４番１１－６０３号,,13,103,1080075,,,,,,,2025-02-17,1,,,,,シークエンス,0
1753,8010401188228,新規,0,2025-02-17,2025-02-17,株式会社季織,,株式会社,東京都,港区,芝大門１丁目１番３５号サンセルモ大門ビル２階,,13,103,1050012,,,,,,,2025-02-17,1,,,,,キオリ,0
1755,8010405024016,新規,0,2025-02-17,2025-02-17,一般社団法人アジアショートドラマ協会,,その他の設立登記法人,東京都,港区,芝５丁目２７番３号ＭＢＣ、Ｂ－１３５,,13,103,1080014,,,,,,,2025-02-17,1,,,,,アジアショートドラマキョウカイ,0
1756,8010405024098,新規,0,2025-02-17,2025-02-17,笠ヶ岳１一般社団法人,,その他の設立登記法人,東京都,港区,六本木１丁目６番１号泉ガーデンタワーＫＰＭＧ税理士法人内,,13,103,1060032,,,,,,,2025-02-17,1,,,,,カサガタケワン,0
1760,8010503007723,新規,0,2025-02-17,2025-02-17,合同会社豊田資産運用会社,,合同会社,東京都,台東区,池之端２丁目１番３５号ルネッサンスタワー上野池之端１１１０,,13,106,1100008,,,,,,,2025-02-17,1,,,,,トヨダシサンウンヨウガイシャ,0
1765,8010703007572,新規,0,2025-02-17,2025-02-17,合同会社京都東福寺堂,,合同会社,東京都,品川区,西五反田２丁目３１番５号,,13,109,1410031,,,,,,,2025-02-17,1,,,,,キョウトトウフクジドウ,0
1766,8010801035847,新規,0,2025-02-17,2025-02-17,株式会社エバンス,,株式会社,東京都,大田区,田園調布１丁目３７番５号,,13,111,1450071,,,,,,,2025-02-17,1,,,,,エバンス,0
1768,8010901056784,新規,0,2025-02-17,2025-02-17,株式会社マイパレ,,株式会社,東京都,世田谷区,代沢５丁目２１－１８ハウスアンブレラ２０１,,13,112,1550032,,,,,,,2025-02-17,1,,,,,マイパレ,0
1772,8011001167613,新規,0,2025-02-17,2025-02-17,株式会社オースエッジ,,株式会社,東京都,渋谷区,渋谷２丁目１９－１５宮益坂ビルディング６０９,,13,113,1500002,,,,,,,2025-02-17,1,,,,,オースエッジ,0
1773,8011001167621,新規,0,2025-02-17,2025-02-17,株式会社ｉ４ｌａｂｏ,,株式会社,東京都,渋谷区,神南１丁目１１番４号ＦＰＧリンクス神南５階,,13,113,1500041,,,,,,,2025-02-17,1,,,,,アイフォーラボ,0
1774,8011001167761,新規,0,2025-02-17,2025-02-17,アイマックス株式会社,,株式会社,東京都,目黒区,自由が丘３丁目６番１１－１０１号,,13,110,1520035,,,,,,,2025-02-17,1,,,,,アイマックス,0
1775,8011001167836,新規,0,2025-02-17,2025-02-17,株式会社Ｋ．ＬＵＰ　ＪＡＰＡＮ,,株式会社,東京都,渋谷区,道玄坂１丁目１２番１号渋谷マークシティＷ２２階,,13,113,1500043,,,,,,,2025-02-17,1,,,,,ケーエルユーピージャパン,0
1777,8011003020943,新規,0,2025-02-17,2025-02-17,アナリーズ合同会社,,合同会社,東京都,渋谷区,広尾１丁目１０番５号日興パレス広尾プラザ１００２号,,13,113,1500012,,,,,,,2025-02-17,1,,,,,アナリーズ,0
1778,8011003020968,新規,0,2025-02-17,2025-02-17,ロード・ソールズ合同会社,,合同会社,東京都,渋谷区,富ヶ谷１丁目１４－１４スタンフォードアネックスビル３・４階,,13,113,1510063,,,,,,,2025-02-17,1,,,,,ロードソールズ,0
1779,8011003020984,新規,0,2025-02-17,2025-02-17,合同会社Ｒ＆Ｔ,,合同会社,東京都,渋谷区,恵比寿４丁目２５番１号恵比寿の杜センターレジデンス６０２,,13,113,1500013,,,,,,,2025-02-17,1,,,,,アールアンドティー,0
1783,8011101110646,新規,0,2025-02-17,2025-02-17,Ｊａｎｕｓ　Ｐａｒｔｎｅｒｓ株式会社,,株式会社,東京都,新宿区,下落合３丁目２０番３号,,13,104,1610033,,,,,,,2025-02-17,1,,,,,ヤヌスパートナーズ,0
1784,8011105011337,新規,0,2025-02-17,2025-02-17,一般社団法人メディカルイノベーション,,その他の設立登記法人,東京都,新宿区,新宿１丁目５－１３溝呂木第１ビル１Ｆ,,13,104,1600022,,,,,,,2025-02-17,1,,,,,メディカルイノベーション,0
1789,8011303005421,新規,0,2025-02-17,2025-02-17,合同会社ＡＣＴＩＶＥ　ＶＡＬＵＥ,,合同会社,東京都,杉並区,方南２丁目１０番１４号シティテラス杉並方南町Ｓ３０９,,13,115,1680062,,,,,,,2025-02-17,1,,,,,アクティブバリュー,0
1790,8011401026823,新規,0,2025-02-17,2025-02-17,株式会社Ｈｉｎｄ　Ｔｒａｄｉｎｇ,,株式会社,東京都,板橋区,板橋３丁目４番３号１１０５,,13,119,1730004,,,,,,,2025-02-17,1,,,,,ハインドトレーディング,0
1791,8011403004620,新規,0,2025-02-17,2025-02-17,合同会社エヌコネクト,,合同会社,東京都,板橋区,南常盤台１丁目１１番６号レフア南常盤台１０１号室,,13,119,1740072,,,,,,,2025-02-17,1,,,,,エヌコネクト,0
1797,8011803006687,新規,0,2025-02-17,2025-02-17,Ｙｕｋｉ　Ｆｏｒｔ合同会社,,合同会社,東京都,葛飾区,奥戸３丁目１９－１８,,13,122,1240022,,,,,,,2025-02-17,1,,,,,ユキフォート,0
1798,8012401042785,新規,0,2025-02-17,2025-02-17,株式会社ＵＰＷＡＲＤＳ,,株式会社,東京都,多摩市,永山６丁目４‐２,,13,224,2060025,,,,,,,2025-02-17,1,,,,,アップワーズ,0
1801,8012803003617,新規,0,2025-02-17,2025-02-17,合同会社Ｓｔｕｄｉｏ　Ｓａｎｒｅｎｐ,,合同会社,東京都,日野市,日野台２丁目３０－１,,13,212,1910003,,,,,,,2025-02-17,1,,,,,スタジオサンレンプ,0
1816,8020003027832,新規,0,2025-02-17,2025-02-17,合同会社ＢＯＳＳ,,合同会社,神奈川県,横浜市緑区,霧が丘３丁目６番地３１,,14,113,2260016,,,,,,,2025-02-17,1,,,,,ボス,0
1833,8030001164858,新規,0,2025-02-17,2025-02-17,株式会社ロジカルフォース,,株式会社,埼玉県,新座市,大和田１丁目７番７号,,11,230,3520004,,,,,,,2025-02-17,1,,,,,ロジカルフォース,0
1836,8030005022038,新規,0,2025-02-17,2025-02-17,クローエッジ司法書士法人,,その他の設立登記法人,埼玉県,さいたま市南区,沼影１丁目１０番１－２５１２号,,11,108,3360027,,,,,,,2025-02-17,1,,,,,クローエッジ,0
1840,8040001137383,新規,0,2025-02-17,2025-02-17,株式会社ＳＮＫジャパン,,株式会社,千葉県,浦安市,高洲１丁目１番２９－７０３号ライオンズマンション新浦安ベイマークス,,12,227,2790023,,,,,,,2025-02-17,1,,,,,エスエヌケージャパン,0
1841,8040001137400,新規,0,2025-02-17,2025-02-17,ＪＳ　ＪＡＰＡＮ　ＥＮＴＥＲＰＲＩＳＥ株式会社,,株式会社,千葉県,野田市,木間ケ瀬５４４２番地７,,12,208,2700222,,,,,,,2025-02-17,1,,,,,ジェイエスジャパンエンタープライズ,0
1842,8040001137409,新規,0,2025-02-17,2025-02-17,和心国際医療支援株式会社,,株式会社,千葉県,松戸市,本町１－２３Ｗ松戸７階７１７,,12,207,2710091,,,,,,,2025-02-17,1,,,,,ワシンコクサイイリョウシエン,0
1845,8040003026840,新規,0,2025-02-17,2025-02-17,ＧＫ合同会社,,合同会社,千葉県,船橋市,本町３丁目３４－１５－１０２号,,12,204,2730005,,,,,,,2025-02-17,1,,,,,ジーケー,0
1848,8050001056178,新規,0,2025-02-17,2025-02-17,株式会社ファーム・マネージメント・サポート,,株式会社,茨城県,つくば市,東２丁目４番地３３,,08,220,3050046,,,,,,,2025-02-17,1,,,,,ファームマネージメントサポート,0
1860,8070003005791,新規,0,2025-02-17,2025-02-17,合同会社道標,,合同会社,群馬県,伊勢崎市,境下渕名２８７８番地４１号,,10,204,3700103,,,,,,,2025-02-17,1,,,,,ミチシルベ,0
1861,8080001026756,新規,0,2025-02-17,2025-02-17,コスモトランスポート株式会社,,株式会社,静岡県,静岡市駿河区,小鹿１６７２番地の１,,22,102,4228021,,,,,,,2025-02-17,1,,,,,コスモトランスポート,0
1865,8100001019022,新規,0,2025-02-17,2025-02-17,株式会社サンワ,,株式会社,長野県,茅野市,玉川９２７番地２２６,,20,214,3910011,,,,,,,2025-02-17,1,,,,,サンワ,0
1880,8120005024792,新規,0,2025-02-17,2025-02-17,特定非営利活動法人バリ島里親会,,その他の設立登記法人,大阪府,大阪市西区,北堀江１丁目７－４四ツ橋永八ビル８Ｆ,,27,106,5500014,,,,,,,2025-02-17,1,,,,,バリトウサトオヤカイ,0
1887,8120901050438,新規,0,2025-02-17,2025-02-17,株式会社エストラスト,,株式会社,大阪府,豊中市,立花町１丁目９番５号,,27,203,5600025,,,,,,,2025-02-17,1,,,,,エストラスト,0
1888,8120901050446,新規,0,2025-02-17,2025-02-17,１００湘株式会社,,株式会社,大阪府,高槻市,郡家新町１番４３号２Ｃ号室,,27,207,5691136,,,,,,,2025-02-17,1,,,,,ヒャクショウ,0
1917,8190001032000,新規,0,2025-02-17,2025-02-17,株式会社田中電設,,株式会社,三重県,津市,島崎町１５８番地２０,,24,201,5140002,,,,,,,2025-02-17,1,,,,,タナカデンセツ,0
1919,8190003004939,新規,0,2025-02-17,2025-02-17,合同会社エコ・ブラン,,合同会社,三重県,松阪市,射和町４６１番地３,,24,204,5192145,,,,,,,2025-02-17,1,,,,,エコブラン,0
1921,8200005013721,新規,0,2025-02-17,2025-02-17,一般社団法人ミライク,,その他の設立登記法人,岐阜県,羽島市,竹鼻町狐穴１３８１番地１,,21,209,5016232,,,,,,,2025-02-17,1,,,,,ミライク,0
1926,8240001064541,新規,0,2025-02-17,2025-02-17,株式会社栗原ロックフィールド,,株式会社,広島県,広島市安佐北区,三入東２丁目３８番１３号,,34,106,7310212,,,,,,,2025-02-17,1,,,,,クリハラロックフィールド,0
1928,8240005015895,新規,0,2025-02-17,2025-02-17,土地家屋調査士法人ウェルアップ,,その他の設立登記法人,広島県,広島市安佐南区,上安２丁目３３番８号,,34,105,7310154,,,,,,,2025-02-17,1,,,,,ウェルアップ,0
1930,8250001021005,新規,0,2025-02-17,2025-02-17,株式会社陽不動産,,株式会社,山口県,周南市,大字櫛ヶ浜１１６番地の３,,35,215,7450805,,,,,,,2025-02-17,1,,,,,ヒナタフドウサン,0
1935,8270003001713,新規,0,2025-02-17,2025-02-17,ＭＩＵ合同会社,,合同会社,鳥取県,鳥取市,田園町４丁目３６９番地１,,31,201,6800803,,,,,,,2025-02-17,1,,,,,ミュウ,0
1946,8290001108946,新規,0,2025-02-17,2025-02-17,株式会社ＦＹ通信,,株式会社,福岡県,福岡市東区,千早５丁目３０番６－９０３号,,40,131,8130044,,,,,,,2025-02-17,1,,,,,エフワイツウシン,0
1951,8290005019652,新規,0,2025-02-17,2025-02-17,一般社団法人ＹｏｕｒＣｏｌｏｒｓ,,その他の設立登記法人,福岡県,福津市,中央５丁目２１番５－２０１号,,40,224,8113217,,,,,,,2025-02-17,1,,,,,ユアカラーズ,0
1955,8310003004942,新規,0,2025-02-17,2025-02-17,合同会社ヨーイ,,合同会社,長崎県,諫早市,宗方町６４４番地６,,42,204,8540035,,,,,,,2025-02-17,1,,,,,ヨーイ,0
1956,8310003004950,新規,0,2025-02-17,2025-02-17,合同会社ＳＥＩ,,合同会社,長崎県,諫早市,宗方町５７２番地１,,42,204,8540035,,,,,,,2025-02-17,1,,,,,セイ,0
1961,8340001027125,新規,0,2025-02-17,2025-02-17,株式会社ＹＵＪＩ,,株式会社,鹿児島県,鹿児島市,上福元町６１１０番地７,,46,201,8910116,,,,,,,2025-02-17,1,,,,,ユウジ,0
1968,8360001034796,新規,0,2025-02-17,2025-02-17,株式会社隆希,,株式会社,沖縄県,浦添市,勢理客２丁目１１番９号,,47,208,9012122,,,,,,,2025-02-17,1,,,,,リュウキ,0
1969,8360003014697,新規,0,2025-02-17,2025-02-17,杜ノ坐合同会社,,合同会社,沖縄県,中頭郡北谷町,字浜川１１７番地５５エンズサーフサイド北谷コースト１００１,,47,326,9040112,,,,,,,2025-02-17,1,,,,,モリノザ,0
1971,8390001017880,新規,0,2025-02-17,2025-02-17,株式会社レガシィ,,株式会社,山形県,天童市,大字山口４３７２,,06,210,9940101,,,,,,,2025-02-17,1,,,,,レガシィ,0
1978,8470001020587,新規,0,2025-02-17,2025-02-17,株式会社可農生,,株式会社,香川県,さぬき市,志度９６番地１東棟,,37,206,7692101,,,,,,,2025-02-17,1,,,,,カノウセイ,0
1979,8490001010966,新規,0,2025-02-17,2025-02-17,株式会社経営計理,,株式会社,高知県,高知市,幸町１３番１８号,,39,201,7800045,,,,,,,2025-02-17,1,,,,,ケイエイケイリ,0
1985,8700150129206,新規,0,2025-02-17,2025-02-17,ｈａｎｇｚｈｏｕｍｕｆａｎｄｉａｎｚｉｓｈａｎｇｗｕｙｏｕｘｉａｎｇｏｎｇｓｉ,,外国会社等,,,,,,,,ｚｈｅｊｉａｎｇｓｈｅｎｇｈａｎｇｚｈｏｕｓｈｉｘｉｈｕｑｕｇｕｄｕｎｌｕ６７３ｈａｏｒｕｉｂｏｇｕｏｊｉＡｚｕｏ１１３９ｓｈｉ,,,,,,2025-02-17,1,,,,,ハンゾウムファンデンシショウムユウゲンコウシ,0
2000,9010003046411,新規,0,2025-02-17,2025-02-17,ＬＥＶＥＣＨＹファンド２２号合同会社,,合同会社,東京都,千代田区,紀尾井町３－８第２紀尾井町ビル９０１アクシス綜合会計事務所内,,13,101,1020094,,,,,,,2025-02-17,1,,,,,レベチーファンドニジュウニゴウ,0
2004,9010101016522,新規,0,2025-02-17,2025-02-17,シカヌマ建設株式会社,,株式会社,東京都,八王子市,追分町９－１０,,13,201,1920056,,,,,,,2025-02-17,1,,,,,シカヌマケンセツ,0
2012,9010401188169,新規,0,2025-02-17,2025-02-17,ＭＩＱ　ｓｏｌｕｔｉｏｎＳ株式会社,,株式会社,東京都,港区,赤坂９丁目１番７号赤坂レジデンシャルホテル９４５号,,13,103,1070052,,,,,,,2025-02-17,1,,,,,エムアイキューソリューションズ,0
2013,9010401188219,新規,0,2025-02-17,2025-02-17,ネコクル株式会社,,株式会社,東京都,港区,赤坂２丁目１４－１１天翔赤坂ビル６階６０２－Ｇ号室,,13,103,1070052,,,,,,,2025-02-17,1,,,,,ネコクル,0
2015,9010403034420,新規,0,2025-02-17,2025-02-17,笠ヶ岳合同会社,,合同会社,東京都,港区,六本木１丁目６番１号泉ガーデンタワーＫＰＭＧ税理士法人内,,13,103,1060032,,,,,,,2025-02-17,1,,,,,カサガタケ,0
2022,9010601066793,新規,0,2025-02-17,2025-02-17,ＨＩＫＡＲＩ株式会社,,株式会社,東京都,墨田区,向島３丁目２２－７オーケービル３Ｆ,,13,107,1310033,,,,,,,2025-02-17,1,,,,,ヒカリ,0
2027,9010703007555,新規,0,2025-02-17,2025-02-17,浜田ゴルフリンクス合同会社,,合同会社,東京都,品川区,東品川４丁目１２番４号,,13,109,1400002,,,,,,,2025-02-17,1,,,,,ハマダゴルフリンクス,0
2036,9011003020942,新規,0,2025-02-17,2025-02-17,ＴＵＤＯＲ　ＣＯＮＳＵＬＴＩＮＧ合同会社,,合同会社,東京都,渋谷区,道玄坂１丁目１０番８号渋谷道玄坂東急ビル２Ｆ－Ｃ,,13,113,1500043,,,,,,,2025-02-17,1,,,,,チューダーコンサルテイング,0
2037,9011003020950,新規,0,2025-02-17,2025-02-17,アブルーム合同会社,,合同会社,東京都,渋谷区,渋谷２丁目１９－１５宮益坂ビルディング６０９,,13,113,1500002,,,,,,,2025-02-17,1,,,,,アブルーム,0
2039,9011101110637,新規,0,2025-02-17,2025-02-17,好購運株式会社,,株式会社,東京都,新宿区,西新宿３丁目３番１３号西新宿水間ビル２Ｆ,,13,104,1600023,,,,,,,2025-02-17,1,,,,,ハウゴウウィン,0
2041,9011103015529,新規,0,2025-02-17,2025-02-17,合同会社ＭＡＧＡＲ　ＧＲＯＵＰ,,合同会社,東京都,新宿区,百人町２丁目１６－３三香レジデンス１０２,,13,104,1690073,,,,,,,2025-02-17,1,,,,,マガルグループ,0
2047,9011401026822,新規,0,2025-02-17,2025-02-17,株式会社Ｔ‐ｈｏｌｄｅｒ,,株式会社,東京都,板橋区,中板橋２２番１０号オーパスレジデンス中板橋１１０７,,13,119,1730016,,,,,,,2025-02-17,1,,,,,ティーホルダー,0
2051,9011503006417,新規,0,2025-02-17,2025-02-17,合同会社十一月,,合同会社,東京都,荒川区,荒川５丁目３２番１２号パーチェＭＴ２０４,,13,118,1160002,,,,,,,2025-02-17,1,,,,,ジュウイチガツ,0
2059,9011801045637,新規,0,2025-02-17,2025-02-17,辰辰株式会社,,株式会社,東京都,足立区,西新井本町１丁目２７番６号太平ビル３０５号室,,13,121,1230845,,,,,,,2025-02-17,1,,,,,シンシン,0
2064,9013101009628,新規,0,2025-02-17,2025-02-17,株式会社アクシア通商,,株式会社,東京都,福生市,大字福生８８６番地１グランツ福生６０１号室,,13,218,1970011,,,,,,,2025-02-17,1,,,,,アクシアツウショウ,0
2065,9013301053780,新規,0,2025-02-17,2025-02-17,株式会社プール,,株式会社,東京都,豊島区,東池袋１丁目４２番地４号,,13,116,1700013,,,,,,,2025-02-17,1,,,,,プール,0
2081,9021001084476,新規,0,2025-02-17,2025-02-17,株式会社情熱の風,,株式会社,神奈川県,藤沢市,鵠沼石上１丁目５－９メガサンエスビル６階,00138013,14,205,2510025,,,,,,,2025-02-17,1,,,,,ジョウネツノカゼ,0
2085,9021003015561,新規,0,2025-02-17,2025-02-17,合資会社荒本商店,,合資会社,神奈川県,三浦郡葉山町,木古庭４７９番地,,14,301,2400114,,,,,,,2025-02-17,1,,,,,,0
2093,9030001164808,新規,0,2025-02-17,2025-02-17,スマイル・リンク・コミニケーションズ株式会社,,株式会社,埼玉県,春日部市,中央１丁目４３番地１４細井ビル３階,,11,214,3440067,,,,,,,2025-02-17,1,,,,,スマイルリンクコミニケーションズ,0
2094,9030001164865,新規,0,2025-02-17,2025-02-17,株式会社月下氷人,,株式会社,埼玉県,さいたま市大宮区,仲町１丁目３３番地２野口ビル３階,,11,103,3300845,,,,,,,2025-02-17,1,,,,,ゲッカヒョウジン,0
2095,9030001164881,新規,0,2025-02-17,2025-02-17,地域再エネ開発株式会社,,株式会社,埼玉県,上尾市,五番町３番地３マ・トール上尾ソレイユテラス８０１,,11,219,3620024,,,,,,,2025-02-17,1,,,,,チイキサイエネカイハツ,0
2099,9030003026122,新規,0,2025-02-17,2025-02-17,合同会社ＫＮプラス,,合同会社,埼玉県,さいたま市緑区,美園３丁目１５番地１フェリーチェＡ２０１,,11,109,3360967,,,,,,,2025-02-17,1,,,,,ケイエヌプラス,0
2106,9040001137408,新規,0,2025-02-17,2025-02-17,株式会社ａｎｎａｌｓ,,株式会社,千葉県,千葉市中央区,南町２丁目１５番１９号ＭＴＫビル８階Ａ室,,12,101,2600842,,,,,,,2025-02-17,1,,,,,アノルズ,0
2112,9050001056177,新規,0,2025-02-17,2025-02-17,Ｙ‐Ｔｅｃ株式会社,,株式会社,茨城県,牛久市,新地町２８７番地,,08,219,3001225,,,,,,,2025-02-17,1,,,,,ワイテック,0
2146,9120003028638,新規,0,2025-02-17,2025-02-17,合同会社ＡＤＡＰ,,合同会社,大阪府,大阪市北区,梅田１丁目２番２号大阪駅前第２ビル１２－１２,,27,127,5300001,,,,,,,2025-02-17,1,,,,,アダップ,0
2149,9120101071077,新規,0,2025-02-17,2025-02-17,株式会社令和,,株式会社,大阪府,貝塚市,澤７５５番地６,,27,208,5970062,,,,,,,2025-02-17,1,,,,,レイワ,0
2152,9120901050395,新規,0,2025-02-17,2025-02-17,株式会社縁森,,株式会社,大阪府,茨木市,東奈良２丁目１７番１８号フジイマンション１０１号室,,27,211,5670861,,,,,,,2025-02-17,1,,,,,エンシン,0
2155,9130001078997,新規,0,2025-02-17,2025-02-17,株式会社子勝,,株式会社,京都府,京都市南区,上鳥羽南唐戸町７番地５０６,,26,107,6018107,,,,,,,2025-02-17,1,,,,,コカツ,0
2160,9140001137422,新規,0,2025-02-17,2025-02-17,ＹＵＭＥＦＵＪＩ株式会社,,株式会社,兵庫県,神戸市西区,学園東町７丁目２１番地の６,,28,111,6512102,,,,,,,2025-02-17,1,,,,,ユメフジ,0
2161,9150001027886,新規,0,2025-02-17,2025-02-17,株式会社ビズム,,株式会社,奈良県,生駒市,小瀬町８９３－１６,,29,209,6300223,,,,,,,2025-02-17,1,,,,,ビズム,0
2168,9180001165444,新規,0,2025-02-17,2025-02-17,株式会社ＲＥＤ,,株式会社,愛知県,名古屋市中村区,名駅４丁目２４番５号第２森ビル４０１,,23,105,4500002,,,,,,,2025-02-17,1,,,,,レッド,0
2169,9180001165452,新規,0,2025-02-17,2025-02-17,株式会社ＬＩＦＩＮＯ,,株式会社,愛知県,名古屋市名東区,社が丘３丁目１７１７番地ラファエル社が丘２０１号,,23,115,4650051,,,,,,,2025-02-17,1,,,,,リフィノ,0
2176,9200001043440,新規,0,2025-02-17,2025-02-17,アスビジョン株式会社,,株式会社,岐阜県,揖斐郡池田町,市橋５０３番地の１,,21,404,5032427,,,,,,,2025-02-17,1,,,,,アスビジョン,0
2180,9240001064532,新規,0,2025-02-17,2025-02-17,株式会社ＥＯＬＣ．Ｓ,,株式会社,広島県,広島市安佐北区,可部南４丁目６番１９号,,34,106,7310223,,,,,,,2025-02-17,1,,,,,エオルクス,0
2181,9240001064540,新規,0,2025-02-17,2025-02-17,祐の光株式会社,,株式会社,広島県,福山市,柳津町７２９番地,,34,207,7290114,,,,,,,2025-02-17,1,,,,,ユウノヒカリ,0
2183,9260001039920,新規,0,2025-02-17,2025-02-17,株式会社陽だまりだいきち堂,,株式会社,岡山県,岡山市北区,川入８９３番地１,,33,101,7010161,,,,,,,2025-02-17,1,,,,,ヒダマリダイキチドウ,0
2192,9290001109010,新規,0,2025-02-17,2025-02-17,株式会社ｃｈｏｔｔｏ,,株式会社,福岡県,福岡市中央区,高砂２丁目１番４号,,40,133,8100011,,,,,,,2025-02-17,1,,,,,チョット,0
2193,9290001109019,新規,0,2025-02-17,2025-02-17,株式会社Ａｒｔｈｒｏｎ,,株式会社,福岡県,福岡市西区,九大新町４－１,,40,135,8190388,,,,,,,2025-02-17,1,,,,,アルスロン,0
2197,9290003016436,新規,0,2025-02-17,2025-02-17,合同会社Ｌｏｕｉｓ　Ｃｏｍｐａｎｙ,,合同会社,福岡県,福岡市城南区,干隈２丁目２７番６－２０６号,,40,136,8140132,,,,,,,2025-02-17,1,,,,,ルイカンパニー,0
2202,9300001014084,新規,0,2025-02-17,2025-02-17,株式会社喜幸,,株式会社,佐賀県,佐賀市,本庄町大字鹿子５７７番地５,,41,201,8400025,,,,,,,2025-02-17,1,,,,,キコウ,0
2209,9360001034795,新規,0,2025-02-17,2025-02-17,株式会社９４開発,,株式会社,沖縄県,南城市,大里字稲嶺１８８９番地１,,47,215,9011204,,,,,,,2025-02-17,1,,,,,キュウヨンカイハツ,0
2213,9400001016938,新規,0,2025-02-17,2025-02-17,上田中央駐車場株式会社,,株式会社,岩手県,盛岡市,上田１丁目１番４号,,03,201,0200066,,,,,,,2025-02-17,1,,,,,ウエダチュウオウチュウシャジョウ,0
2215,9410001014057,新規,0,2025-02-17,2025-02-17,プレスエイチ株式会社,,株式会社,秋田県,能代市,二ツ井町字沢口２１－１,,05,202,0183104,,,,,,,2025-02-17,1,,,,,,0
2217,9430005015149,新規,0,2025-02-17,2025-02-17,一般社団法人空知ワイン協会,,その他の設立登記法人,北海道,岩見沢市,宝水３６４番地３,,01,210,0680000,,,,,,,2025-02-17,1,,,,,ソラチワインキョウカイ,0
2224,9500001026142,新規,0,2025-02-17,2025-02-17,株式会社Ｈ＆Ｒコンサルティング,,株式会社,愛媛県,松山市,古川西２丁目７番３４号エルフォーガーデン西椿５０１号,,38,201,7900944,,,,,,,2025-02-17,1,,,,,エイチアンドアールコンサルティング,0
2226,9700150129205,新規,0,2025-02-17,2025-02-17,ｓｈｅｎｚｈｅｎｓｈｉｄｕｙｕａｎｄｉａｎｚｉｓｈａｎｇｗｕｙｏｕｘｉａｎｇｏｎｇｓｉ,,外国会社等,,,,,,,,ｓｈｅｎｚｈｅｎｓｈｉｌｏｎｇｈｕａｑｕｄａｌａｎｇｊｉｅｄａｏｔａｏｙｕａｎｓｈｅｑｕｄｉａｏｙｕｔａｉｇｏｎｇｙｅｑｕＮｄｏｎｇｊｉｎｗｅｉｄａｓｈａ３１３,,,,,,2025-02-17,1,,,,,シェンジェンシードゥーユエンディエンズーシャンウーヨウシエンゴンスー,0
