sequenceNumber,corporateNumber,process,correct,updateDate,changeDate,name,nameImageId,kind,prefectureName,cityName,streetNumber,addressImageId,prefectureCode,cityCode,postCode,addressOutside,addressOutsideImageId,closeDate,closeCause,successorCorporateNumber,changeCause,assignmentDate,latest,enName,enPrefectureName,enCityName,enAddressOutside,furigana,hihyoji
11,1010001241054,新規,0,2023-12-26,2023-12-26,株式会社ｅＳｈｏｃａｎ,,株式会社,東京都,千代田区,丸の内２丁目５－１,,13,101,1000005,,,,,,,2023-12-26,1,,,,,イショウカン,0
13,1010003042533,新規,0,2023-12-26,2023-12-26,合同会社ブライトネスアンドオンリー,,合同会社,東京都,中央区,銀座７丁目１３番６号サガミビル２階０１号室,,13,102,1040061,,,,,,,2023-12-26,1,,,,,ブライトネスアンドオンリー,0
22,1010401179357,新規,0,2023-12-26,2023-12-26,ＡＩＢＴＲＵＳＴ株式会社,,株式会社,東京都,港区,六本木４丁目９番２－７０４号,,13,103,1060032,,,,,,,2023-12-26,1,,,,,アイビートラスト,0
27,1010403031656,新規,0,2023-12-26,2023-12-26,Ｋ．Ｏ．合同会社,,合同会社,東京都,港区,南青山３丁目１番３６号青山丸竹ビル６Ｆ,,13,103,1070062,,,,,,,2023-12-26,1,,,,,ケーオー,0
32,1010503007267,新規,0,2023-12-26,2023-12-26,ＩＣＩＣａ　Ｈｏｌｄｉｎｇｓ合同会社,,合同会社,東京都,台東区,柳橋１丁目１５番４号,,13,106,1110052,,,,,,,2023-12-26,1,,,,,イチカホールディングス,0
34,1010601064391,新規,0,2023-12-26,2023-12-26,株式会社ＶＥＲＤＡＮ,,株式会社,東京都,江東区,豊洲６丁目２番３１－２１０９号,,13,108,1350061,,,,,,,2023-12-26,1,,,,,ヴェルダン,0
37,1010901054431,新規,0,2023-12-26,2023-12-26,ＰＢコンサルティング株式会社,,株式会社,東京都,世田谷区,千歳台２丁目１２番１９号,,13,112,1570071,,,,,,,2023-12-26,1,,,,,ピービーコンサルティング,0
39,1010903008682,新規,0,2023-12-26,2023-12-26,合同会社ＳＭＹ,,合同会社,東京都,世田谷区,桜丘５丁目１２番１１号,,13,112,1560054,,,,,,,2023-12-26,1,,,,,サミー,0
40,1010905004564,新規,0,2023-12-26,2023-12-26,一般財団法人山田長満記念館,,その他の設立登記法人,東京都,世田谷区,成城６丁目２８番１８号,,13,112,1570066,,,,,,,2023-12-26,1,,,,,ヤマダオサミツキネンカン,0
49,1011001158882,新規,0,2023-12-26,2023-12-26,株式会社サクラダ,,株式会社,東京都,目黒区,柿の木坂１丁目３３番２３号,,13,110,1520022,,,,,,,2023-12-26,1,,,,,サクラダ,0
50,1011001158949,新規,0,2023-12-26,2023-12-26,株式会社Ｈ＆Ｓ,,株式会社,東京都,渋谷区,代々木２丁目２３番１号－１００１,,13,113,1510053,,,,,,,2023-12-26,1,,,,,エイチアンドエス,0
53,1011003018168,新規,0,2023-12-26,2023-12-26,合同会社ｇｅｃｋｏ．,,合同会社,東京都,目黒区,中目黒５丁目１２番９号,,13,110,1530061,,,,,,,2023-12-26,1,,,,,ジェコ,0
57,1011101105314,新規,0,2023-12-26,2023-12-26,株式会社ａｔｓｕｍｉ,,株式会社,東京都,新宿区,西新宿３丁目３番１３号西新宿水間ビル２Ｆ,,13,104,1600023,,,,,,,2023-12-26,1,,,,,アツミ,0
58,1011101105611,新規,0,2023-12-26,2023-12-26,株式会社ＭＡＹＡ,,株式会社,東京都,新宿区,大久保２丁目１８番１７号豊コーポラス２０２,,13,104,1690072,,,,,,,2023-12-26,1,,,,,マヤ,0
65,1011801043573,新規,0,2023-12-26,2023-12-26,株式会社Ｔｗｅｎｔｙｔｈｒｅｅ　Ｇｒｏｕｐ,,株式会社,東京都,足立区,千住寿町１７番４号ＴｏｐＬａｎｄ千住寿町３０１,,13,121,1200033,,,,,,,2023-12-26,1,,,,,トウェンティスリーグループ,0
72,1013301051825,新規,0,2023-12-26,2023-12-26,株式会社ＦＯＯＫ,,株式会社,東京都,豊島区,南池袋２丁目３３番７号,,13,116,1710022,,,,,,,2023-12-26,1,,,,,フック,0
79,1020001155063,新規,0,2023-12-26,2023-12-26,株式会社バッテリーシェアリングサービス,,株式会社,神奈川県,横浜市港北区,新吉田町２１１,,14,109,2230056,,,,,,,2023-12-26,1,,,,,バッテリーシェアリングサービス,0
80,1020005016237,新規,0,2023-12-26,2023-12-26,医療法人社団清雅会,,その他の設立登記法人,神奈川県,横浜市中区,海岸通５丁目２５番地２シャレール海岸通２階,,14,104,2310002,,,,,,,2023-12-26,1,,,,,セイガカイ,0
82,1021001081051,新規,0,2023-12-26,2023-12-26,株式会社盛恵,,株式会社,神奈川県,座間市,相模が丘５丁目５番７－１００４号,,14,216,2520001,,,,,,,2023-12-26,1,,,,,モリケイ,0
83,1021001081068,新規,0,2023-12-26,2023-12-26,株式会社Ａｎｄ　Ｐｕｒｅ,,株式会社,神奈川県,秦野市,南矢名１丁目２番１号産興クリニックビル１Ｆ,,14,211,2570003,,,,,,,2023-12-26,1,,,,,アンドピュア,0
84,1021003013936,新規,0,2023-12-26,2023-12-26,合同会社マネタイズ,,合同会社,神奈川県,藤沢市,鵠沼海岸５丁目５番１～２号,,14,205,2510037,,,,,,,2023-12-26,1,,,,,マネタイズ,0
85,1021003013944,新規,0,2023-12-26,2023-12-26,コンフォート合同会社,,合同会社,神奈川県,伊勢原市,沼目２丁目２０番３９号,,14,214,2591126,,,,,,,2023-12-26,1,,,,,コンフォート,0
90,1030001157884,新規,0,2023-12-26,2023-12-26,株式会社メディアックス,,株式会社,埼玉県,さいたま市見沼区,大和田町１丁目１４６２,,11,104,3370053,,,,,,,2023-12-26,1,,,,,メディアックス,0
93,1030003023291,新規,0,2023-12-26,2023-12-26,エムワークス合同会社,,合同会社,埼玉県,川口市,南鳩ヶ谷１丁目２１番１５号,,11,203,3340013,,,,,,,2023-12-26,1,,,,,エムワークス,0
97,1040001131277,新規,0,2023-12-26,2023-12-26,ＮＮＮ株式会社,,株式会社,千葉県,柏市,加賀２丁目１５番７号,,12,217,2770051,,,,,,,2023-12-26,1,,,,,スリーエヌ,0
101,1050001054031,新規,0,2023-12-26,2023-12-26,株式会社ＺＥＲＯ,,株式会社,茨城県,常陸太田市,田渡町１００番地の１,,08,212,3130026,,,,,,,2023-12-26,1,,,,,ゼロ,0
103,1070001041226,新規,0,2023-12-26,2023-12-26,株式会社Ｍ＆Ｆコーポレーション,,株式会社,群馬県,邑楽郡千代田町,大字新福寺４３４番地４,,10,523,3700505,,,,,,,2023-12-26,1,,,,,エムアンドエフコーポレーション,0
111,1080001026052,新規,0,2023-12-26,2023-12-26,株式会社ラーニングライト,,株式会社,静岡県,静岡市葵区,瀬名川３丁目１８番７２－６号,,22,101,4200913,,,,,,,2023-12-26,1,,,,,ラーニングライト,0
113,1080103002950,新規,0,2023-12-26,2023-12-26,合同会社ＤＡＬＵＭＡ,,合同会社,静岡県,御殿場市,御殿場４６４番地の１シティハイム勝又２０７,,22,215,4120028,,,,,,,2023-12-26,1,,,,,ダルマ,0
117,1090001018478,新規,0,2023-12-26,2023-12-26,株式会社村松総合建設,,株式会社,山梨県,笛吹市,御坂町夏目原１４８番地５,,19,211,4060804,,,,,,,2023-12-26,1,,,,,ムラマツソウゴウケンセツ,0
120,1100005013102,新規,0,2023-12-26,2023-12-26,一般社団法人野生動物総合対策センター共生,,その他の設立登記法人,長野県,北佐久郡御代田町,大字草越１７９番地１４,,20,323,3890202,,,,,,,2023-12-26,1,,,,,ヤセイドウブツソウゴウタイサクセンターキョウセイ,0
121,1110001038060,新規,0,2023-12-26,2023-12-26,株式会社ｉｓｉｓ,,株式会社,新潟県,長岡市,東宮内町３１９７番地１,,15,202,9401102,,,,,,,2023-12-26,1,,,,,イシス,0
129,1120001260927,新規,0,2023-12-26,2023-12-26,株式会社ワンリンクマウンテン,,株式会社,大阪府,枚方市,堂山３丁目２３番３号,,27,210,5730007,,,,,,,2023-12-26,1,,,,,ワンリンクマウンテン,0
130,1120001260943,新規,0,2023-12-26,2023-12-26,株式会社Ｎｅｏ　ｃｒａｆｔ,,株式会社,大阪府,大阪市北区,曾根崎２丁目６－２ＳＴ曽根崎ビル３Ｆ,,27,127,5300057,,,,,,,2023-12-26,1,,,,,ネオクラフト,0
131,1120001260968,新規,0,2023-12-26,2023-12-26,株式会社Ｌｉｖ　Ｈｅａｒｔｓ,,株式会社,大阪府,大阪市北区,菅栄町１３－９－８０１,,27,127,5300031,,,,,,,2023-12-26,1,,,,,リブハーツ,0
139,1120101068790,新規,0,2023-12-26,2023-12-26,株式会社ムーブオン,,株式会社,大阪府,堺市北区,蔵前町２丁１７－３３,,27,146,5918004,,,,,,,2023-12-26,1,,,,,ムーブオン,0
140,1120901048538,新規,0,2023-12-26,2023-12-26,株式会社ＴＯＫＵＨＡＬ．ｅｙｅｌａｓｈｓａｌｏｎ,,株式会社,大阪府,豊中市,本町１丁目１０番９号小林ビル２Ｆ,,27,203,5600021,,,,,,,2023-12-26,1,,,,,トクハルアイラッシュサロン,0
141,1120901048570,新規,0,2023-12-26,2023-12-26,株式会社ｓｏｓｏ,,株式会社,大阪府,箕面市,桜井２丁目２－２５,,27,220,5620043,,,,,,,2023-12-26,1,,,,,ソソ,0
143,1122003002761,新規,0,2023-12-26,2023-12-26,合同会社みんなちがってみんないい,,合同会社,大阪府,東大阪市,荒川３丁目１５－２６,,27,227,5770843,,,,,,,2023-12-26,1,,,,,ミンナチガッテミンナイイ,0
155,1140003019972,新規,0,2023-12-26,2023-12-26,ＢＲＥＡＫ　ＳＨＯＴ合同会社,,合同会社,兵庫県,神戸市北区,唐櫃台４丁目１７－３－３０４,,28,109,6511332,,,,,,,2023-12-26,1,,,,,ブレイクショット,0
156,1140003019980,新規,0,2023-12-26,2023-12-26,合同会社シーシーエス,,合同会社,兵庫県,神戸市兵庫区,新開地４丁目１番１６号１Ｆ,,28,105,6520811,,,,,,,2023-12-26,1,,,,,シーシーエス,0
157,1160003003074,新規,0,2023-12-26,2023-12-26,合同会社ナッツ,,合同会社,滋賀県,彦根市,日夏町２９５６番地１,,25,202,5220047,,,,,,,2023-12-26,1,,,,,ナッツ,0
159,1170001017950,新規,0,2023-12-26,2023-12-26,株式会社ＬＥＲＫ,,株式会社,和歌山県,和歌山市,鳴神９８７番地１１,,30,201,6408303,,,,,,,2023-12-26,1,,,,,ラーク,0
168,1180001159420,新規,0,2023-12-26,2023-12-26,株式会社フェアトレードＪＡＰＡＮ,,株式会社,愛知県,長久手市,山越１２４番地１,,23,238,4801111,,,,,,,2023-12-26,1,,,,,フェアトレードジャパン,0
169,1180001159461,新規,0,2023-12-26,2023-12-26,株式会社エンライ,,株式会社,愛知県,清須市,春日焼田１０２番地,,23,233,4520962,,,,,,,2023-12-26,1,,,,,エンライ,0
170,1180001159528,新規,0,2023-12-26,2023-12-26,株式会社Ａｓｋａｌパートナーズ,,株式会社,愛知県,一宮市,祐久字九百坪１７－１,,23,203,4940017,,,,,,,2023-12-26,1,,,,,アスカルパートナーズ,0
171,1180001159536,新規,0,2023-12-26,2023-12-26,株式会社ミキ,,株式会社,愛知県,名古屋市千種区,今池１丁目８番８号,,23,101,4640850,,,,,,,2023-12-26,1,,,,,ミキ,0
175,1180003026172,新規,0,2023-12-26,2023-12-26,合同会社玉屋,,合同会社,愛知県,名古屋市昭和区,川原通２丁目２番地シティオ川名２０１号,,23,107,4660853,,,,,,,2023-12-26,1,,,,,タマヤ,0
176,1180303005958,新規,0,2023-12-26,2023-12-26,ミナミトラスト合同会社,,合同会社,愛知県,岡崎市,池金町字下池田１０番地５,,23,202,4443501,,,,,,,2023-12-26,1,,,,,ミナミトラスト,0
207,1290001104175,新規,0,2023-12-26,2023-12-26,株式会社ＳＴＡＮＣＥ,,株式会社,福岡県,古賀市,青柳町１１１６番地,,40,223,8113133,,,,,,,2023-12-26,1,,,,,スタンス,0
214,1290003014793,新規,0,2023-12-26,2023-12-26,合同会社ロードリンク,,合同会社,福岡県,福岡市城南区,別府６丁目１１－１アップルツリー２０１号,,40,136,8140104,,,,,,,2023-12-26,1,,,,,ロードリンク,0
216,1290801030166,新規,0,2023-12-26,2023-12-26,ＴＲＵＳＴＹ　ＧＲＯＵＰ株式会社,,株式会社,福岡県,北九州市小倉南区,長行東２丁目１５－１,,40,107,8030273,,,,,,,2023-12-26,1,,,,,トラスティグループ,0
219,1290803004564,新規,0,2023-12-26,2023-12-26,ひびきラボ合同会社,,合同会社,福岡県,北九州市八幡西区,光貞台１丁目１番１号本城西団地１号棟１０６号,,40,109,8070805,,,,,,,2023-12-26,1,,,,,ヒビキラボ,0
220,1290805009693,新規,0,2023-12-26,2023-12-26,医療法人青木会,,その他の設立登記法人,福岡県,中間市,太賀１丁目１３番１号,,40,215,8090015,,,,,,,2023-12-26,1,,,,,アオキカイ,0
224,1340001026174,新規,0,2023-12-26,2023-12-26,株式会社谷山医歯薬研究所,,株式会社,鹿児島県,鹿児島市,谷山中央１丁目４１０４番地１４レジリエント・ハマダ２階,,46,201,8910141,,,,,,,2023-12-26,1,,,,,タニヤマイシヤクケンキュウショ,0
231,1370001050774,新規,0,2023-12-26,2023-12-26,株式会社ＳＧＮ,,株式会社,宮城県,岩沼市,下野郷字新南長沼３０番地の７,,04,211,9892421,,,,,,,2023-12-26,1,,,,,エスジーエヌ,0
232,1370005010741,新規,0,2023-12-26,2023-12-26,ＮＰＯ法人ＢＡＬＬＯＯＮ,,その他の設立登記法人,宮城県,栗原市,築館字照越八ツ沢３８番地１６,,04,213,9872233,,,,,,,2023-12-26,1,,,,,バルーン,0
237,1390001017458,新規,0,2023-12-26,2023-12-26,株式会社ＡＬＬ　ＷＩＮ　ＤＩＮＩＮＧ,,株式会社,山形県,新庄市,若葉町１５番３号２階,,06,205,9960025,,,,,,,2023-12-26,1,,,,,オールウィンダイニング,0
245,1430001090731,新規,0,2023-12-26,2023-12-26,株式会社ネクスト,,株式会社,北海道,札幌市中央区,北一条西１９丁目２－１,,01,101,0600001,,,,,,,2023-12-26,1,,,,,ネクスト,0
254,1470001019958,新規,0,2023-12-26,2023-12-26,株式会社ぴっぴ,,株式会社,香川県,綾歌郡綾川町,小野甲１１７４番地３０,,37,387,7612307,,,,,,,2023-12-26,1,,,,,ピッピ,0
256,1480005007000,新規,0,2023-12-26,2023-12-26,特定非営利活動法人ＭＩＴＲＡ　ＳＥＴＡＲＡ,,その他の設立登記法人,徳島県,徳島市,新浜本町３丁目６番３５－１２,,36,201,7708007,,,,,,,2023-12-26,1,,,,,ミトラセタラ,0
260,1500001025382,新規,0,2023-12-26,2023-12-26,株式会社えざき商事,,株式会社,愛媛県,松山市,空港通１丁目８番１６号,,38,201,7900054,,,,,,,2023-12-26,1,,,,,エザキショウジ,0
267,2010001240988,新規,0,2023-12-26,2023-12-26,株式会社ＺｅｂｒａＱｕａｎｔｕｍ,,株式会社,東京都,中央区,銀座１丁目２２番１１号銀座大竹ビジデンス２Ｆ,,13,102,1040061,,,,,,,2023-12-26,1,,,,,ゼブラクオンタム,0
268,2010001241103,新規,0,2023-12-26,2023-12-26,株式会社ワブ,,株式会社,東京都,中央区,銀座６丁目１３番１６号銀座ＷａｌｌビルＵＣＦ５階,,13,102,1040061,,,,,,,2023-12-26,1,,,,,ワブ,0
270,2010003042540,新規,0,2023-12-26,2023-12-26,合同会社ＡＬＥＲＯ８１,,合同会社,東京都,千代田区,神田錦町１丁目２１番１号,,13,101,1010054,,,,,,,2023-12-26,1,,,,,アレーロエイティーワン,0
275,2010005037679,新規,0,2023-12-26,2023-12-26,一般社団法人野田ロジスティクス,,その他の設立登記法人,東京都,千代田区,丸の内３丁目１番１号東京共同会計事務所内,,13,101,1000005,,,,,,,2023-12-26,1,,,,,ノダロジスティクス,0
277,2010401179414,新規,0,2023-12-26,2023-12-26,株式会社ＹＣＢ　Ｈｏｌｄｉｎｇｓ,,株式会社,東京都,港区,南青山３丁目１番３号スプライン青山東急ビル３階,,13,103,1070062,,,,,,,2023-12-26,1,,,,,ワイシービーホールディングス,0
278,2010401179422,新規,0,2023-12-26,2023-12-26,株式会社ＭＡＰＥ,,株式会社,東京都,港区,南青山２丁目２番１５号ウィン青山９４２,,13,103,1070062,,,,,,,2023-12-26,1,,,,,メイプ,0
280,2010405022818,新規,0,2023-12-26,2023-12-26,元赤坂特定目的会社,,その他の設立登記法人,東京都,港区,虎ノ門３丁目２２番１０－２０１号,,13,103,1050001,,,,,,,2023-12-26,1,,,,,モトアカサカ,0
284,2010501051530,新規,0,2023-12-26,2023-12-26,株式会社ＹＯＫＯＭＡＥｅｔＢＯＵＡＹＡＤ,,株式会社,東京都,台東区,松が谷４丁目２４－３正田ビル,,13,106,1110036,,,,,,,2023-12-26,1,,,,,ヨコマエエボウアヤド,0
286,2010601064390,新規,0,2023-12-26,2023-12-26,株式会社ＳＡＩ,,株式会社,東京都,江東区,新木場１丁目７番２３号,,13,108,1360082,,,,,,,2023-12-26,1,,,,,サイ,0
290,2010901054430,新規,0,2023-12-26,2023-12-26,株式会社ＭＩＣＴＡ,,株式会社,東京都,世田谷区,太子堂５丁目５番１３号,,13,112,1540004,,,,,,,2023-12-26,1,,,,,ミクタ,0
296,2011001158898,新規,0,2023-12-26,2023-12-26,Ｃｏ‐Ｇｌｏｂａｌ株式会社,,株式会社,東京都,目黒区,東山１丁目２１番１２－２０７号ザ・パークハウス中目黒プレイス,,13,110,1530043,,,,,,,2023-12-26,1,,,,,コーグローバル,0
297,2011001158997,新規,0,2023-12-26,2023-12-26,株式会社ＤＯＯＲＯＯＭ,,株式会社,東京都,渋谷区,円山町５番５号Ｎａｖｉ渋谷Ｖ３階,,13,113,1500044,,,,,,,2023-12-26,1,,,,,ドアーム,0
301,2011003018175,新規,0,2023-12-26,2023-12-26,合同会社ウィズライト,,合同会社,東京都,目黒区,自由が丘２丁目１６－１２ＲＪ３,,13,110,1520035,,,,,,,2023-12-26,1,,,,,ウィズライト,0
310,2011101105602,新規,0,2023-12-26,2023-12-26,株式会社近商リサーチバンク,,株式会社,東京都,新宿区,新宿２丁目９番２２号多摩川新宿ビル,,13,104,1600022,,,,,,,2023-12-26,1,,,,,オウショウリサーチバンク,0
311,2011101105619,新規,0,2023-12-26,2023-12-26,株式会社ＲＥＶＥＲＳＩ　ＰＲＯＭＯＴＩＯＮ,,株式会社,東京都,新宿区,西新宿３丁目７番２６号１１０１,,13,104,1600023,,,,,,,2023-12-26,1,,,,,リバーシプロモーション,0
312,2011101105643,新規,0,2023-12-26,2023-12-26,株式会社Ｃｒｏｓｓｌｉｎｋ,,株式会社,東京都,新宿区,西新宿７丁目１０番１７号,,13,104,1600023,,,,,,,2023-12-26,1,,,,,クロスリンク,0
313,2011103013902,新規,0,2023-12-26,2023-12-26,合同会社リバーシェルフ,,合同会社,東京都,新宿区,若宮町１７番地,,13,104,1620827,,,,,,,2023-12-26,1,,,,,リバーシェルフ,0
337,2013301051824,新規,0,2023-12-26,2023-12-26,株式会社グイド,,株式会社,東京都,豊島区,西池袋３丁目２５－２,,13,116,1710021,,,,,,,2023-12-26,1,,,,,グイド,0
338,2013301051832,新規,0,2023-12-26,2023-12-26,株式会社ＢＳＰ,,株式会社,東京都,豊島区,南池袋２丁目４９番７号,,13,116,1710022,,,,,,,2023-12-26,1,,,,,ビーエスピー,0
340,2013303006933,新規,0,2023-12-26,2023-12-26,Ｔｒｙｋｅｎ　Ｊａｐａｎ合同会社,,合同会社,東京都,豊島区,南長崎６丁目２４番１０号,,13,116,1710052,,,,,,,2023-12-26,1,,,,,トライケンジャパン,0
341,2013305003557,新規,0,2023-12-26,2023-12-26,弁護士法人スカイ綜合法律事務所,,その他の設立登記法人,東京都,豊島区,池袋２丁目３７－４アークビル５階,,13,116,1710014,,,,,,,2023-12-26,1,,,,,スカイソウゴウホウリツジムショ,0
349,2020001155046,新規,0,2023-12-26,2023-12-26,株式会社ファミリオン,,株式会社,神奈川県,横浜市栄区,犬山町５９番１号‐１Ｆ,,14,115,2470026,,,,,,,2023-12-26,1,,,,,ファミリオン,0
350,2020001155054,新規,0,2023-12-26,2023-12-26,株式会社ＳＩＮＧＳ,,株式会社,神奈川県,横浜市港北区,新吉田東１丁目６４番６号,,14,109,2230058,,,,,,,2023-12-26,1,,,,,シングス,0
351,2020001155062,新規,0,2023-12-26,2023-12-26,ＯＮＥ　ＤＥＳＩＧＮ株式会社,,株式会社,神奈川県,川崎市麻生区,向原１丁目１６－２２,,14,137,2150007,,,,,,,2023-12-26,1,,,,,ワンデザイン,0
352,2020001155070,新規,0,2023-12-26,2023-12-26,Ｈｏｕｓｅ　ｏｆ　ｃｏｍｉｃｓ　Ｊａｐａｎ株式会社,,株式会社,神奈川県,横浜市中区,本牧和田９番７号,,14,104,2310827,,,,,,,2023-12-26,1,,,,,ハウスオブコミックスジャパン,0
354,2020003025263,新規,0,2023-12-26,2023-12-26,ＤＩＳテック・ジャパン合同会社,,合同会社,神奈川県,横浜市西区,みなとみらい３丁目６番３号,,14,103,2200012,,,,,,,2023-12-26,1,,,,,ディーアイエステックジャパン,0
355,2020005016236,新規,0,2023-12-26,2023-12-26,一般社団法人居場所づくり濱なかま,,その他の設立登記法人,神奈川県,横浜市港北区,鳥山町１０１３番,,14,109,2220035,,,,,,,2023-12-26,1,,,,,イバショヅクリハマナカマ,0
356,2021001081018,新規,0,2023-12-26,2023-12-26,株式会社共育倶楽部,,株式会社,神奈川県,大和市,下鶴間６９８－３ユニティつきみ野２０３,,14,213,2420001,,,,,,,2023-12-26,1,,,,,キョウイククラブ,0
357,2021001081059,新規,0,2023-12-26,2023-12-26,株式会社ｔｏｉｒｏ,,株式会社,神奈川県,伊勢原市,池端４７３番地の４,,14,214,2591144,,,,,,,2023-12-26,1,,,,,トイロ,0
358,2021001081075,新規,0,2023-12-26,2023-12-26,アールズ株式会社,,株式会社,神奈川県,伊勢原市,串橋３６４番地の１３,,14,214,2591136,,,,,,,2023-12-26,1,,,,,アールズ,0
361,2021003013951,新規,0,2023-12-26,2023-12-26,合同会社大木介護保険タクシーそよ風,,合同会社,神奈川県,大和市,柳橋２丁目１９番地３４,,14,213,2420022,,,,,,,2023-12-26,1,,,,,オオキカイゴホケンタクシーソヨカゼ,0
369,2030003023274,新規,0,2023-12-26,2023-12-26,合同会社ドラゴンツイスト,,合同会社,埼玉県,さいたま市南区,内谷６丁目７番１５号,,11,108,3360034,,,,,,,2023-12-26,1,,,,,ドラゴンツイスト,0
376,2050001054030,新規,0,2023-12-26,2023-12-26,株式会社スマートテックジャパン,,株式会社,茨城県,つくば市,大舟戸１８１番地１,,08,220,3001267,,,,,,,2023-12-26,1,,,,,スマートテックジャパン,0
378,2050005013370,新規,0,2023-12-26,2023-12-26,一般社団法人すず音,,その他の設立登記法人,茨城県,つくば市,上境４５３番地,,08,220,3050011,,,,,,,2023-12-26,1,,,,,スズネ,0
379,2070001041225,新規,0,2023-12-26,2023-12-26,ＭＡ株式会社,,株式会社,群馬県,邑楽郡邑楽町,大字中野３６５０番地１,,10,525,3700603,,,,,,,2023-12-26,1,,,,,エムエー,0
381,2080401026915,新規,0,2023-12-26,2023-12-26,笑福亭株式会社,,株式会社,静岡県,掛川市,宮脇１３９４番地,,22,213,4360086,,,,,,,2023-12-26,1,,,,,ショウフクテイ,0
384,2090001018477,新規,0,2023-12-26,2023-12-26,ＪＨ株式会社,,株式会社,山梨県,甲府市,丸の内２丁目２番１号ＣＲＯＳＳ５００、１Ｆ,,19,201,4000031,,,,,,,2023-12-26,1,,,,,ジェイエイチ,0
397,2120001260918,新規,0,2023-12-26,2023-12-26,株式会社ＴＥＳＯＲＯ,,株式会社,大阪府,門真市,東田町１８－６－５０５,,27,223,5710034,,,,,,,2023-12-26,1,,,,,テゾーロ,0
406,2120003025575,新規,0,2023-12-26,2023-12-26,ＹＡＥＬ合同会社,,合同会社,大阪府,大阪市住之江区,北加賀屋２丁目７番２０号マンションフジタケ２０２,,27,125,5590011,,,,,,,2023-12-26,1,,,,,ワイエーイーエル,0
407,2120101068773,新規,0,2023-12-26,2023-12-26,２９４レンタカー株式会社,,株式会社,大阪府,松原市,別所２丁目２－１３,,27,217,5800005,,,,,,,2023-12-26,1,,,,,フクシレンタカー,0
408,2120101068781,新規,0,2023-12-26,2023-12-26,Ｋアナライズ株式会社,,株式会社,大阪府,藤井寺市,藤ケ丘４丁目８番６号,,27,226,5830017,,,,,,,2023-12-26,1,,,,,ケーアナライズ,0
412,2120901048537,新規,0,2023-12-26,2023-12-26,株式会社トータルシステムズ,,株式会社,大阪府,豊中市,上新田１丁目２４番Ｃ－１０３号,,27,203,5600085,,,,,,,2023-12-26,1,,,,,トータルシステムズ,0
413,2120901048545,新規,0,2023-12-26,2023-12-26,株式会社ｉｃｈｉ,,株式会社,大阪府,豊中市,本町１丁目１１－３０－４０９,,27,203,5600021,,,,,,,2023-12-26,1,,,,,イチ,0
414,2120901048561,新規,0,2023-12-26,2023-12-26,株式会社Ｈ・Ｋ,,株式会社,大阪府,吹田市,千里丘上５番３５号,,27,205,5650811,,,,,,,2023-12-26,1,,,,,エイチケー,0
419,2130001075968,新規,0,2023-12-26,2023-12-26,しまだい興業株式会社,,株式会社,京都府,京都市中京区,御池通東洞院西入ル仲保利町１９１番地,,26,104,6040000,,,,,,,2023-12-26,1,,,,,シマダイコウギョウ,0
420,2130001076017,新規,0,2023-12-26,2023-12-26,株式会社Ｄｉｒｅｃｔ　Ｓｕｎ　Ｅｎｅｒｇｙ研究所,,株式会社,京都府,京都市伏見区,醍醐大高町７番地３,,26,109,6011311,,,,,,,2023-12-26,1,,,,,ダイレクトサンエナジーケンキュウショ,0
424,2140001132792,新規,0,2023-12-26,2023-12-26,株式会社大稀,,株式会社,兵庫県,川西市,西多田２丁目５番１３号,,28,217,6660138,,,,,,,2023-12-26,1,,,,,ダイキ,0
428,2140003019971,新規,0,2023-12-26,2023-12-26,合同会社ＴＯＰＳｔａｇｅ,,合同会社,兵庫県,神戸市北区,道場町生野１１７２－７５９,,28,109,6511503,,,,,,,2023-12-26,1,,,,,トップステージ,0
429,2140003019988,新規,0,2023-12-26,2023-12-26,合同会社ソモラネ,,合同会社,兵庫県,川西市,鼓が滝１丁目２１番２０号,,28,217,6660123,,,,,,,2023-12-26,1,,,,,ソモラネ,0
433,2150001026969,新規,0,2023-12-26,2023-12-26,株式会社ワイズ,,株式会社,奈良県,生駒市,喜里が丘３丁目６番１１号,,29,209,6300248,,,,,,,2023-12-26,1,,,,,ワイズ,0
440,2180001159527,新規,0,2023-12-26,2023-12-26,株式会社フィオーレ,,株式会社,愛知県,名古屋市昭和区,前山町３丁目２１番地２０５号,,23,107,4660821,,,,,,,2023-12-26,1,,,,,フィオーレ,0
454,2220001025749,新規,0,2023-12-26,2023-12-26,株式会社ＩＭ,,株式会社,石川県,白山市,宮永町５３番地,,17,210,9240017,,,,,,,2023-12-26,1,,,,,アイエム,0
456,2240003006472,新規,0,2023-12-26,2023-12-26,合同会社モノミライ,,合同会社,広島県,東広島市,黒瀬楢原東１丁目４－８,,34,212,7392628,,,,,,,2023-12-26,1,,,,,モノミライ,0
458,2260001038573,新規,0,2023-12-26,2023-12-26,向陽開発株式会社,,株式会社,岡山県,岡山市南区,福浜町５７０番地,,33,104,7028035,,,,,,,2023-12-26,1,,,,,コウヨウカイハツ,0
459,2260001038607,新規,0,2023-12-26,2023-12-26,株式会社Ｂｅｅ’ｓ,,株式会社,岡山県,岡山市北区,青江１丁目１８番５－１号,,33,101,7000941,,,,,,,2023-12-26,1,,,,,ビーズ,0
471,2290001104174,新規,0,2023-12-26,2023-12-26,株式会社ハルズミ設備,,株式会社,福岡県,福岡市南区,折立町８－１２,,40,134,8111303,,,,,,,2023-12-26,1,,,,,ハルズミ,0
472,2290001104182,新規,0,2023-12-26,2023-12-26,アベニューホールディングス株式会社,,株式会社,福岡県,朝倉市,甘木２３３４番地の２,,40,228,8380068,,,,,,,2023-12-26,1,,,,,アベニューホールディングス,0
487,2290801030165,新規,0,2023-12-26,2023-12-26,株式会社ＡＫＩＴ,,株式会社,福岡県,遠賀郡遠賀町,大字鬼津３６６０番地,,40,384,8114341,,,,,,,2023-12-26,1,,,,,アキト,0
491,2310001018768,新規,0,2023-12-26,2023-12-26,株式会社ｋｒａａｎ,,株式会社,長崎県,長崎市,つつじが丘１丁目１２番２１号,,42,201,8510102,,,,,,,2023-12-26,1,,,,,カラーン,0
492,2310003004700,新規,0,2023-12-26,2023-12-26,５６アカウントサービス合同会社,,合同会社,長崎県,長崎市,万屋町５－３３長門商会ビル４０６,,42,201,8500852,,,,,,,2023-12-26,1,,,,,ゴロクアカウントサービス,0
494,2320001020203,新規,0,2023-12-26,2023-12-26,株式会社アルボレス,,株式会社,大分県,大分市,中央町１丁目１番２４号ヨミービル４Ｆ,,44,201,8700035,,,,,,,2023-12-26,1,,,,,アルボレス,0
497,2340001026165,新規,0,2023-12-26,2023-12-26,株式会社ベストマッチ不動産,,株式会社,鹿児島県,霧島市,国分中央４丁目２番２５号,,46,218,8994332,,,,,,,2023-12-26,1,,,,,ベストマッチフドウサン,0
498,2340001026173,新規,0,2023-12-26,2023-12-26,株式会社アイコン,,株式会社,鹿児島県,鹿児島市,東坂元４丁目５９番６号,,46,201,8920861,,,,,,,2023-12-26,1,,,,,アイコン,0
505,2360001032970,新規,0,2023-12-26,2023-12-26,株式会社リッチライフ沖縄,,株式会社,沖縄県,中頭郡中城村,字南上原１００６番地１南風ＡＰ１Ｆ,,47,328,9012424,,,,,,,2023-12-26,1,,,,,リッチライフオキナワ,0
506,2360001032979,新規,0,2023-12-26,2023-12-26,株式会社ｍａｄｅｒａ,,株式会社,沖縄県,中頭郡西原町,上原２丁目２８番地の２プレサンスロジェ西原レーヴ６０１号,,47,329,9030125,,,,,,,2023-12-26,1,,,,,マデラ,0
510,2370001050708,新規,0,2023-12-26,2023-12-26,株式会社松山ソーイング,,株式会社,宮城県,大崎市,松山千石字広岡台５番地の１,,04,215,9871304,,,,,,,2023-12-26,1,,,,,マツヤマソーイング,0
523,2430001090730,新規,0,2023-12-26,2023-12-26,株式会社にこいろ,,株式会社,北海道,札幌市白石区,東札幌三条２丁目１－３８,,01,104,0030003,,,,,,,2023-12-26,1,,,,,ニコイロ,0
530,2450001009638,新規,0,2023-12-26,2023-12-26,株式会社西脇土木,,株式会社,北海道,紋別郡雄武町,字北幌内２４４番地,,01,563,0981821,,,,,,,2023-12-26,1,,,,,,0
531,2450001014183,新規,0,2023-12-26,2023-12-26,株式会社ノーススペース,,株式会社,北海道,上川郡愛別町,字金富３２５番地,,01,456,0781411,,,,,,,2023-12-26,1,,,,,ノーススペース,0
536,2480001012333,新規,0,2023-12-26,2023-12-26,株式会社阿波の穂,,株式会社,徳島県,徳島市,安宅２丁目２番５７号,,36,201,7700863,,,,,,,2023-12-26,1,,,,,アワノホ,0
541,2500001025381,新規,0,2023-12-26,2023-12-26,株式会社ＣＴ‐ａｃｔｉｖｅ,,株式会社,愛媛県,松山市,湊町４丁目１１番地６スタービル２階,,38,201,7900012,,,,,,,2023-12-26,1,,,,,シーティーアクティブ,0
553,3010001241102,新規,0,2023-12-26,2023-12-26,株式会社ステミ,,株式会社,東京都,千代田区,大手町１丁目６番１号大手町ビル３Ｆ,,13,101,1000004,,,,,,,2023-12-26,1,,,,,ステミ,0
555,3010005037678,新規,0,2023-12-26,2023-12-26,一般社団法人三ヶ尾物流開発,,その他の設立登記法人,東京都,千代田区,有楽町２丁目１０番１号株式会社アセットソリューション内,,13,101,1000006,,,,,,,2023-12-26,1,,,,,サンガオブツリュウカイハツ,0
563,3010401179446,新規,0,2023-12-26,2023-12-26,ネクゼラ株式会社,,株式会社,東京都,港区,赤坂９丁目７番２号,,13,103,1070052,,,,,,,2023-12-26,1,,,,,ネクゼラ,0
572,3010801034630,新規,0,2023-12-26,2023-12-26,練馬エンジニアリング株式会社,,株式会社,東京都,大田区,西糀谷４丁目２５番３号荒井ハイツ２０３号,,13,111,1440034,,,,,,,2023-12-26,1,,,,,ネリマエンジニアリング,0
580,3011001158947,新規,0,2023-12-26,2023-12-26,株式会社ウィルビーボート,,株式会社,東京都,渋谷区,東２丁目１４－２６令和小路１０８,,13,113,1500011,,,,,,,2023-12-26,1,,,,,ウィルビーボート,0
581,3011001159004,新規,0,2023-12-26,2023-12-26,株式会社アティックサウンズ,,株式会社,東京都,渋谷区,神宮前６丁目２３番４号桑野ビル２階,,13,113,1500001,,,,,,,2023-12-26,1,,,,,アティックサウンズ,0
586,3011003018166,新規,0,2023-12-26,2023-12-26,合同会社木戸本店,,合同会社,東京都,渋谷区,神宮前６丁目２３番４号桑野ビル２階,,13,113,1500001,,,,,,,2023-12-26,1,,,,,キドホンテン,0
588,3011101105584,新規,0,2023-12-26,2023-12-26,株式会社Ａ’ｓ　Ｐｌａｎｎｉｎｇ,,株式会社,東京都,新宿区,袋町６番地プラウド神楽坂ヒルトップ４０６,,13,104,1620828,,,,,,,2023-12-26,1,,,,,エーズプランニング,0
589,3011101105626,新規,0,2023-12-26,2023-12-26,株式会社ＴＡＢＡＴＡＳ,,株式会社,東京都,新宿区,新宿４丁目１番６号田畑ビル３Ｆ,,13,104,1600022,,,,,,,2023-12-26,1,,,,,タバタス,0
590,3011101105642,新規,0,2023-12-26,2023-12-26,株式会社ＳＡＮＫＯ　ＩＮＴＥＲＮＡＴＩＯＮＡＬ,,株式会社,東京都,新宿区,高田馬場１丁目２８番１０号バンフォーレ三慶ビル２Ｆ,,13,104,1690075,,,,,,,2023-12-26,1,,,,,サンコーインターナショナル,0
591,3011103013892,新規,0,2023-12-26,2023-12-26,ａ‐ｐａ‐ｈａｕｓ合同会社,,合同会社,東京都,新宿区,新宿１丁目３６－２新宿第７葉山ビル３Ｆ,,13,104,1600022,,,,,,,2023-12-26,1,,,,,アーパーハウス,0
592,3011103013901,新規,0,2023-12-26,2023-12-26,合同会社６Ｖ,,合同会社,東京都,新宿区,西新宿３丁目３番１３号西新宿水間ビル６階,,13,104,1600023,,,,,,,2023-12-26,1,,,,,ロクブイ,0
594,3011201025138,新規,0,2023-12-26,2023-12-26,Ａｆｔｅｒｎｏｏｎ株式会社,,株式会社,東京都,中野区,中央３丁目３９番３０号,,13,114,1640011,,,,,,,2023-12-26,1,,,,,アフタヌーン,0
604,3011503005894,新規,0,2023-12-26,2023-12-26,合同会社みや美,,合同会社,東京都,荒川区,町屋３丁目４番３号２階,,13,118,1160001,,,,,,,2023-12-26,1,,,,,ミヤビ,0
611,3012303001919,新規,0,2023-12-26,2023-12-26,合同会社シュプリームライフ,,合同会社,東京都,町田市,玉川学園８丁目１番２２号カーム玉川学園ＩＩ,00133111,13,209,1940041,,,,,,,2023-12-26,1,,,,,シュプリームライフ,0
613,3012403006322,新規,0,2023-12-26,2023-12-26,木下技建合同会社,,合同会社,東京都,府中市,四谷３丁目１２－１９－３０５,,13,206,1830035,,,,,,,2023-12-26,1,,,,,キノシタギケン,0
614,3012403006347,新規,0,2023-12-26,2023-12-26,合同会社戸塚,,合同会社,東京都,小金井市,本町５丁目３５番１０号,,13,210,1840004,,,,,,,2023-12-26,1,,,,,トツカ,0
621,3013301051823,新規,0,2023-12-26,2023-12-26,トーマツ株式会社,,株式会社,東京都,豊島区,駒込４丁目８番１５－１０３号,,13,116,1700003,,,,,,,2023-12-26,1,,,,,トーマツ,0
623,3013303006932,新規,0,2023-12-26,2023-12-26,合同会社Ｂｌｕｅ　Ｃｏｎｓｕｌｔｉｎｇ,,合同会社,東京都,豊島区,南長崎１丁目２２番４号,,13,116,1710052,,,,,,,2023-12-26,1,,,,,ブルーコンサルティング,0
626,3020001154988,新規,0,2023-12-26,2023-12-26,株式会社セレスト,,株式会社,神奈川県,川崎市幸区,南加瀬２丁目５番８号平林ビル１Ｆ,,14,132,2120055,,,,,,,2023-12-26,1,,,,,セレスト,0
627,3020001155004,新規,0,2023-12-26,2023-12-26,華斉新智株式会社,,株式会社,神奈川県,川崎市川崎区,本町２丁目１１番地２４グレイス川崎１０２,,14,131,2100001,,,,,,,2023-12-26,1,,,,,カセイシンチ,0
628,3020001155061,新規,0,2023-12-26,2023-12-26,株式会社笑仲理,,株式会社,神奈川県,横浜市西区,高島２丁目１１番２号スカイメナー横浜５１９,,14,103,2200011,,,,,,,2023-12-26,1,,,,,エナリ,0
633,3020005016235,新規,0,2023-12-26,2023-12-26,一般社団法人神奈川県無人機協会,,その他の設立登記法人,神奈川県,横浜市緑区,長津田２丁目２３番２５号,,14,113,2260027,,,,,,,2023-12-26,1,,,,,カナガワケンムジンキキョウカイ,0
634,3021001081074,新規,0,2023-12-26,2023-12-26,株式会社ＳＨコーポレーション,,株式会社,神奈川県,厚木市,上依知１７番地５－１０１,,14,212,2430801,,,,,,,2023-12-26,1,,,,,エスエイチコーポレーション,0
660,3080001000501,新規,0,2023-12-26,2023-12-26,株式会社岩田商会,,株式会社,静岡県,静岡市駿河区,広野２丁目６番４号,,22,102,4210121,,,,,,,2023-12-26,1,,,,,イワタショウカイ,0
665,3090001018476,新規,0,2023-12-26,2023-12-26,株式会社イチゴノオカ,,株式会社,山梨県,中央市,西花輪３６８４番地３,,19,214,4093843,,,,,,,2023-12-26,1,,,,,イチゴノオカ,0
669,3100003007327,新規,0,2023-12-26,2023-12-26,合同会社ＬａＳｈｉｃｕ,,合同会社,長野県,千曲市,大字桜堂４３４－１,,20,218,3870012,,,,,,,2023-12-26,1,,,,,ラシク,0
672,3110005017034,新規,0,2023-12-26,2023-12-26,一般社団法人ふくふく,,その他の設立登記法人,新潟県,新潟市北区,松浜本町２丁目３番４号,,15,101,9503125,,,,,,,2023-12-26,1,,,,,フクフク,0
679,3120001260917,新規,0,2023-12-26,2023-12-26,ＪＡＴＡＢＡＳＥ株式会社,,株式会社,大阪府,大阪市東成区,玉津１丁目３番２１号,,27,115,5370023,,,,,,,2023-12-26,1,,,,,ジェーターベース,0
680,3120001260933,新規,0,2023-12-26,2023-12-26,株式会社ミラリッチ,,株式会社,大阪府,大阪市淀川区,西中島３丁目１８番３号,,27,123,5320011,,,,,,,2023-12-26,1,,,,,ミラリッチ,0
684,3120101068723,新規,0,2023-12-26,2023-12-26,株式会社Ｍ‐ＳＴＡＴＥ,,株式会社,大阪府,松原市,大堀３丁目２番６号,,27,217,5800006,,,,,,,2023-12-26,1,,,,,エムステイト,0
685,3120101068764,新規,0,2023-12-26,2023-12-26,株式会社ノイジッツ,,株式会社,大阪府,岸和田市,土生町２丁目２９番３号ステラビルディング３階,,27,202,5960825,,,,,,,2023-12-26,1,,,,,ノイジッツ,0
689,3120903004982,新規,0,2023-12-26,2023-12-26,ロータスルーツ合同会社,,合同会社,大阪府,箕面市,小野原東６丁目１番１７号,,27,220,5620031,,,,,,,2023-12-26,1,,,,,ロータスルーツ,0
697,3130001076040,新規,0,2023-12-26,2023-12-26,株式会社京丹波フーズ,,株式会社,京都府,京都市中京区,錦小路通御幸町西入鍛冶屋町２１５番地ＳＡＫＩＺＯ鍛治屋町,,26,104,6048052,,,,,,,2023-12-26,1,,,,,キョウタンバフーズ,0
703,3140001132734,新規,0,2023-12-26,2023-12-26,株式会社上垣土木,,株式会社,兵庫県,養父市,大屋町蔵垣９８４番地１,,28,222,6670321,,,,,,,2023-12-26,1,,,,,ウエガキドボク,0
704,3140001132809,新規,0,2023-12-26,2023-12-26,株式会社パインブック,,株式会社,兵庫県,宝塚市,仁川旭ガ丘７番２５号,,28,214,6650065,,,,,,,2023-12-26,1,,,,,,0
709,3150001026968,新規,0,2023-12-26,2023-12-26,株式会社寛,,株式会社,奈良県,天理市,石上町２６番地２,,29,204,6320011,,,,,,,2023-12-26,1,,,,,カン,0
710,3170001017949,新規,0,2023-12-26,2023-12-26,株式会社石見組,,株式会社,和歌山県,和歌山市,北田辺丁６６番地,,30,201,6408252,,,,,,,2023-12-26,1,,,,,イワミグミ,0
716,3180001159534,新規,0,2023-12-26,2023-12-26,株式会社ＡｔｏＮ,,株式会社,愛知県,名古屋市西区,名駅２丁目３４番１７号セントラル名古屋１１０１号,,23,104,4510045,,,,,,,2023-12-26,1,,,,,エートン,0
719,3180003026154,新規,0,2023-12-26,2023-12-26,合同会社襷,,合同会社,愛知県,名古屋市中川区,的場町３丁目５２番地,,23,110,4540862,,,,,,,2023-12-26,1,,,,,タスキ,0
724,3180301038165,新規,0,2023-12-26,2023-12-26,株式会社ヒロショウ,,株式会社,愛知県,西尾市,新在家１丁目１０４番地,,23,213,4450878,,,,,,,2023-12-26,1,,,,,ヒロショウ,0
730,3200003006194,新規,0,2023-12-26,2023-12-26,ＪＯＲＥＧ合同会社,,合同会社,岐阜県,揖斐郡大野町,大字稲畑１１１番地１,,21,403,5010511,,,,,,,2023-12-26,1,,,,,ジョーレグ,0
736,3230003002125,新規,0,2023-12-26,2023-12-26,学凛アカデミー合同会社,,合同会社,富山県,射水市,三ケ２５０１番地１,,16,211,9390341,,,,,,,2023-12-26,1,,,,,ガクリンアカデミー,0
739,3240001062599,新規,0,2023-12-26,2023-12-26,株式会社連保,,株式会社,広島県,広島市南区,的場町１丁目７番２０号,,34,103,7320824,,,,,,,2023-12-26,1,,,,,レンポ,0
744,3260003004531,新規,0,2023-12-26,2023-12-26,合同会社Ｌｏｇ　Ｐｒｏｍｏｔｉｏｎ,,合同会社,岡山県,和気郡和気町,大中山１４３５番地６,,33,346,7090432,,,,,,,2023-12-26,1,,,,,ログプロモーション,0
749,3290001104165,新規,0,2023-12-26,2023-12-26,南国株式会社,,株式会社,福岡県,福岡市博多区,博多駅南６丁目１３番４号,,40,132,8120016,,,,,,,2023-12-26,1,,,,,ナンゴクホリデイ,0
753,3290005019236,新規,0,2023-12-26,2023-12-26,医療法人マーレ,,その他の設立登記法人,福岡県,春日市,下白水北７丁目１６,,40,218,8160854,,,,,,,2023-12-26,1,,,,,マーレ,0
760,3320001020202,新規,0,2023-12-26,2023-12-26,株式会社アルビウスジャパン,,株式会社,大分県,大分市,東春日町１７番２０号,,44,201,8700037,,,,,,,2023-12-26,1,,,,,アルビウスジャパン,0
769,3360001033002,新規,0,2023-12-26,2023-12-26,株式会社プロミネンスリュウキュウ,,株式会社,沖縄県,沖縄市,知花４丁目４５番２４号,,47,211,9042143,,,,,,,2023-12-26,1,,,,,プロミネンスリュウキュウ,0
780,3420003002857,新規,0,2023-12-26,2023-12-26,合同会社縁,,合同会社,青森県,上北郡六戸町,大字犬落瀬字後田６番地,,02,405,0392371,,,,,,,2023-12-26,1,,,,,エニシ,0
789,3450001014182,新規,0,2023-12-26,2023-12-26,株式会社眞心建,,株式会社,北海道,旭川市,二条通２０丁目１０１９番地の２,,01,204,0788212,,,,,,,2023-12-26,1,,,,,マシンケン,0
794,3480001012332,新規,0,2023-12-26,2023-12-26,株式会社ベリーメイトファーム,,株式会社,徳島県,阿波市,市場町市場字町筋３１７番地１,,36,206,7711604,,,,,,,2023-12-26,1,,,,,ベリーメイトファーム,0
798,3500001025389,新規,0,2023-12-26,2023-12-26,株式会社ｗａｉ,,株式会社,愛媛県,松山市,三番町７丁目２番地２ブランノワール三番町１階,,38,201,7900003,,,,,,,2023-12-26,1,,,,,ワイ,0
799,3700150123097,新規,0,2023-12-26,2023-12-26,Ｍａｔｔｓｏｎ　Ｔｅｃｈｎｏｌｏｇｙ，Ｉｎｃ．,,外国会社等,,,,,,,,４７１３１　Ｂａｙｓｉｄｅ　Ｐｋｗｙ，Ｆｒｅｍｏｎｔ，ＣＡ　９４５３８，ＵＳＡ,,,,,,2023-12-26,1,,,,,マトソンテクノロジーインク,0
804,4010001241092,新規,0,2023-12-26,2023-12-26,Ｈｉｌｇａｒｄ株式会社,,株式会社,東京都,中央区,銀座１丁目１２番４号Ｎ＆ＥＢＬＤ．７階,,13,102,1040061,,,,,,,2023-12-26,1,,,,,ヒルガード,0
805,4010001241118,新規,0,2023-12-26,2023-12-26,Ｒｅｐｏｒｔ　Ｏｃｅａｎ株式会社,,株式会社,東京都,中央区,八丁堀４丁目４番４号３階,,13,102,1040032,,,,,,,2023-12-26,1,,,,,レポートオーシャン,0
807,4010003042530,新規,0,2023-12-26,2023-12-26,合同会社ササキ,,合同会社,東京都,千代田区,外神田４丁目７番２号小林ビル５階,,13,101,1010021,,,,,,,2023-12-26,1,,,,,ササキ,0
808,4010003042539,新規,0,2023-12-26,2023-12-26,合同会社ＡＬＥＲＯ８０,,合同会社,東京都,千代田区,神田錦町１丁目２１番１号,,13,101,1010054,,,,,,,2023-12-26,1,,,,,アレーロエイティー,0
823,4010503007272,新規,0,2023-12-26,2023-12-26,合同会社ＬＩＧＡＲＥ,,合同会社,東京都,台東区,橋場１丁目１７番６号ＦＬＡＸ浅草２０４,,13,106,1110023,,,,,,,2023-12-26,1,,,,,レガーレ,0
833,4011001158938,新規,0,2023-12-26,2023-12-26,株式会社ＣＡＭＯ,,株式会社,東京都,渋谷区,代官山町８－７スクエア代官山,,13,113,1500034,,,,,,,2023-12-26,1,,,,,カモ,0
834,4011001158995,新規,0,2023-12-26,2023-12-26,株式会社ＬＳ工房,,株式会社,東京都,渋谷区,道玄坂１丁目１７番７号いちのビル５階,,13,113,1500043,,,,,,,2023-12-26,1,,,,,エルエスコウボウ,0
839,4011101105633,新規,0,2023-12-26,2023-12-26,宝川実業株式会社,,株式会社,東京都,新宿区,四谷三栄町１２番４４号東洋四谷ビルＢ１－２,,13,104,1600008,,,,,,,2023-12-26,1,,,,,ホウセンジツギョウ,0
851,4011803006014,新規,0,2023-12-26,2023-12-26,合同会社こばやし塾,,合同会社,東京都,足立区,中央本町２丁目３番１１号,,13,121,1200011,,,,,,,2023-12-26,1,,,,,コバヤシジュク,0
853,4012401041361,新規,0,2023-12-26,2023-12-26,ワールドフューチャーズ株式会社,,株式会社,東京都,府中市,府中町１丁目１５番地の１シティハウス府中けやき通り７０３,,13,206,1830055,,,,,,,2023-12-26,1,,,,,ワールドフューチャーズ,0
856,4012801022861,新規,0,2023-12-26,2023-12-26,株式会社Ｔ＆Ｅ,,株式会社,東京都,国分寺市,南町２丁目１１番８号シャローム国分寺２０６室,,13,214,1850021,,,,,,,2023-12-26,1,,,,,ティーアンドイー,0
866,4020001155011,新規,0,2023-12-26,2023-12-26,株式会社Ｓｏｌｅｉｌ　Ｇ,,株式会社,神奈川県,横浜市西区,南幸２丁目１２－６ストークみきビル５０１,,14,103,2200005,,,,,,,2023-12-26,1,,,,,ソレイユジー,0
867,4020001155060,新規,0,2023-12-26,2023-12-26,株式会社Ｓｔａｒｇａｚｅ,,株式会社,神奈川県,横浜市港北区,篠原東２丁目３番２３号,,14,109,2220022,,,,,,,2023-12-26,1,,,,,スターゲイズ,0
868,4020001155069,新規,0,2023-12-26,2023-12-26,株式会社テラミー,,株式会社,神奈川県,横浜市金沢区,柴町３９１番地２ＭＣＬ金沢文庫７０１号,,14,108,2360012,,,,,,,2023-12-26,1,,,,,テラミー,0
869,4020001155077,新規,0,2023-12-26,2023-12-26,株式会社ＴＮＭ,,株式会社,神奈川県,横浜市磯子区,磯子３丁目４番２３号,,14,107,2350016,,,,,,,2023-12-26,1,,,,,ティーエヌエム,0
873,4021001081073,新規,0,2023-12-26,2023-12-26,株式会社ｆｌｅｕｒ．,,株式会社,神奈川県,相模原市緑区,西橋本５丁目２－１３－６０７,,14,151,2520131,,,,,,,2023-12-26,1,,,,,フルール,0
875,4021003013941,新規,0,2023-12-26,2023-12-26,合同会社ホルモン,,合同会社,神奈川県,藤沢市,鵠沼海岸２丁目１６番５～４１５号,00133110,14,205,2510037,,,,,,,2023-12-26,1,,,,,ホルモン,0
884,4030001157790,新規,0,2023-12-26,2023-12-26,株式会社フリーゼット,,株式会社,埼玉県,上尾市,大字西門前２８８番地１－１５号,,11,219,3620005,,,,,,,2023-12-26,1,,,,,フリーゼット,0
888,4030003023297,新規,0,2023-12-26,2023-12-26,合同会社ＫＵＷ,,合同会社,埼玉県,川口市,安行出羽２丁目３番５号,,11,203,3340052,,,,,,,2023-12-26,1,,,,,ケーユーダブリュー,0
889,4030003023306,新規,0,2023-12-26,2023-12-26,合同会社トトロハウス,,合同会社,埼玉県,入間市,大字上藤沢３２９番地１１,,11,225,3580013,,,,,,,2023-12-26,1,,,,,トトロハウス,0
892,4050003008024,新規,0,2023-12-26,2023-12-26,ＳＨＥＮＯ　ＬＡＮＫＡ　ＥＮＴＥＲＰＲＩＳＥＳ合同会社,,合同会社,茨城県,筑西市,西保末字深町２３０番２,,08,227,3080105,,,,,,,2023-12-26,1,,,,,シェノランカエンタープライセス,0
898,4070001041223,新規,0,2023-12-26,2023-12-26,株式会社ＳＴＲＩＫＥ　Ｌａｂｏ,,株式会社,群馬県,みどり市,大間々町大間々２１４番地２６,,10,212,3760101,,,,,,,2023-12-26,1,,,,,ストライクラボ,0
902,4080101024424,新規,0,2023-12-26,2023-12-26,株式会社ビーフィールド,,株式会社,静岡県,三島市,梅名５８６番地の３,,22,206,4110816,,,,,,,2023-12-26,1,,,,,ビーフィールド,0
907,4080401026913,新規,0,2023-12-26,2023-12-26,株式会社りあん,,株式会社,静岡県,磐田市,野箱２７１番地,,22,211,4380065,,,,,,,2023-12-26,1,,,,,リアン,0
914,4110002035260,新規,0,2023-12-26,2023-12-26,有限会社小松屋林業,,有限会社,新潟県,南魚沼市,一村尾１８３１番地２,,15,226,9497316,,,,,,,2023-12-26,1,,,,,コマツヤリンギョウ,0
916,4120001023554,新規,0,2023-12-26,2023-12-26,三光レンズ工業株式会社,,株式会社,大阪府,大阪市天王寺区,小橋町２番１号,,27,109,5430028,,,,,,,2023-12-26,1,,,,,サンコウレンズコウギョウ,0
921,4120001260899,新規,0,2023-12-26,2023-12-26,株式会社Ｍａｋｅ．ａ．ｗｉｓｈ,,株式会社,大阪府,大阪市西区,本田２丁目１番２号４０１,,27,106,5500022,,,,,,,2023-12-26,1,,,,,メイクアウィッシュ,0
922,4120003025565,新規,0,2023-12-26,2023-12-26,Ｃａｓｉ　Ｊａｐａｎ合同会社,,合同会社,大阪府,大阪市中央区,南本町３丁目３番２３号インペリアル船場３０２号,,27,128,5410054,,,,,,,2023-12-26,1,,,,,カシジャパン,0
926,4120101068763,新規,0,2023-12-26,2023-12-26,株式会社ＨＴグローバルフーズ,,株式会社,大阪府,堺市北区,南花田町４１７－３（２０２）,,27,146,5918011,,,,,,,2023-12-26,1,,,,,エイチティグローバルフーズ,0
927,4120101068771,新規,0,2023-12-26,2023-12-26,株式会社工画美術社,,株式会社,大阪府,堺市西区,上６３０－１３,,27,144,5938311,,,,,,,2023-12-26,1,,,,,コウガビジュツシャ,0
928,4120101068788,新規,0,2023-12-26,2023-12-26,株式会社ダブルループ,,株式会社,大阪府,河内長野市,南青葉台２番３６号,,27,216,5860067,,,,,,,2023-12-26,1,,,,,ダブルループ,0
929,4120103005599,新規,0,2023-12-26,2023-12-26,合同会社カシズキ,,合同会社,大阪府,堺市堺区,七道東町１４５番地,,27,141,5900913,,,,,,,2023-12-26,1,,,,,カシズキ,0
932,4122001037682,新規,0,2023-12-26,2023-12-26,株式会社フェイズ,,株式会社,大阪府,東大阪市,新庄１丁目１１番２９号,,27,227,5780963,,,,,,,2023-12-26,1,,,,,フェイズ,0
937,4130001075990,新規,0,2023-12-26,2023-12-26,株式会社ＰＥＡＣＥ１,,株式会社,京都府,京都市伏見区,桃山町正宗４４番地１６,,26,109,6120856,,,,,,,2023-12-26,1,,,,,ピースワン,0
942,4140002000872,新規,0,2023-12-26,2023-12-26,有限会社ワークス,,有限会社,兵庫県,芦屋市,大東町２番１２号,,28,206,6590023,,,,,,,2023-12-26,1,,,,,ワークス,0
948,4140003019978,新規,0,2023-12-26,2023-12-26,合同会社ヨネドット,,合同会社,兵庫県,神戸市中央区,中島通３丁目４番１１号,,28,110,6510052,,,,,,,2023-12-26,1,,,,,ヨネドット,0
950,4150001026967,新規,0,2023-12-26,2023-12-26,株式会社メスキュード奈良,,株式会社,奈良県,大和高田市,大字吉井１７２番地,,29,202,6350059,,,,,,,2023-12-26,1,,,,,メスキュードナラ,0
953,4170001017948,新規,0,2023-12-26,2023-12-26,株式会社ＫＩＭＵＫＥＮ,,株式会社,和歌山県,和歌山市,梅原２７３番地１,,30,201,6408452,,,,,,,2023-12-26,1,,,,,キムケン,0
962,4180001159483,新規,0,2023-12-26,2023-12-26,株式会社岡福設備,,株式会社,愛知県,名古屋市中村区,川前町５３４番地ルミーナ川前１０１号,,23,105,4530865,,,,,,,2023-12-26,1,,,,,オカフクセツビ,0
976,4180005020476,新規,0,2023-12-26,2023-12-26,一般社団法人Ｓｈａｒｅｒｒｙ　Ｓｐａｃｅ,,その他の設立登記法人,愛知県,名古屋市瑞穂区,神穂町５－３９,,23,108,4670847,,,,,,,2023-12-26,1,,,,,シェアリースペース,0
978,4180303005955,新規,0,2023-12-26,2023-12-26,合同会社理常,,合同会社,愛知県,みよし市,黒笹いずみ３丁目１０番地２,,23,236,4700232,,,,,,,2023-12-26,1,,,,,リジョウ,0
983,4200003006193,新規,0,2023-12-26,2023-12-26,合同会社ｗｅａｖｉｓｔ,,合同会社,岐阜県,中津川市,中津川８６３番地の２５,,21,206,5080001,,,,,,,2023-12-26,1,,,,,ウィービスト,0
986,4220001025747,新規,0,2023-12-26,2023-12-26,株式会社Ｒｅａｃｔ,,株式会社,石川県,金沢市,横川３丁目１６１番地,,17,201,9218163,,,,,,,2023-12-26,1,,,,,リアクト,0
989,4240001062598,新規,0,2023-12-26,2023-12-26,株式会社橋渡サービス,,株式会社,広島県,山県郡北広島町,大朝４８７０番地２,,34,369,7312104,,,,,,,2023-12-26,1,,,,,ハシワタリサービス,0
992,4240003006470,新規,0,2023-12-26,2023-12-26,合同会社ＩＪＣｒｅａｔｅ,,合同会社,広島県,廿日市市,大野９６０－２７,,34,213,7390488,,,,,,,2023-12-26,1,,,,,アイジェイクリエイト,0
1003,4290001104180,新規,0,2023-12-26,2023-12-26,株式会社Ｍｅｒｃｕｒｙ,,株式会社,福岡県,福岡市早良区,飯倉３丁目３８番２０号,,40,137,8140161,,,,,,,2023-12-26,1,,,,,マーキュリー,0
1009,4290003014790,新規,0,2023-12-26,2023-12-26,合同会社クロスオーバー,,合同会社,福岡県,福岡市中央区,今川２丁目６番３５号,,40,133,8100054,,,,,,,2023-12-26,1,,,,,クロスオーバー,0
1010,4290003014799,新規,0,2023-12-26,2023-12-26,合同会社ｖａｃａｎｃｅｓ,,合同会社,福岡県,筑紫野市,上古賀３丁目１６番２号,,40,217,8180041,,,,,,,2023-12-26,1,,,,,バカンス,0
1012,4290005019235,新規,0,2023-12-26,2023-12-26,医療法人ＭＥＤＩ‐Ｋ,,その他の設立登記法人,福岡県,糟屋郡粕屋町,原町１丁目７番８号,,40,349,8112307,,,,,,,2023-12-26,1,,,,,メディケイ,0
1024,4330001031602,新規,0,2023-12-26,2023-12-26,株式会社結オフィス,,株式会社,熊本県,熊本市中央区,九品寺２丁目８番２８－３０３号,,43,101,8620976,,,,,,,2023-12-26,1,,,,,,0
1025,4330005010734,新規,0,2023-12-26,2023-12-26,一般社団法人子ども大学くまもと,,その他の設立登記法人,熊本県,熊本市東区,戸島町１１７７番地３,,43,102,8618031,,,,,,,2023-12-26,1,,,,,コドモコダイガククマモト,0
1027,4340001026163,新規,0,2023-12-26,2023-12-26,株式会社上村家,,株式会社,鹿児島県,薩摩川内市,向田本町１１番１０号浜ビル１階１０２,,46,215,8950021,,,,,,,2023-12-26,1,,,,,ウエムラヤ,0
1029,4350001018721,新規,0,2023-12-26,2023-12-26,みやわき株式会社,,株式会社,宮崎県,延岡市,三須町７６９番地１,,45,203,8820881,,,,,,,2023-12-26,1,,,,,ミヤワキ,0
1030,4360001032993,新規,0,2023-12-26,2023-12-26,株式会社キュイタウン,,株式会社,沖縄県,宮古島市,上野字宮国１１０７－５,,47,214,9060203,,,,,,,2023-12-26,1,,,,,キュイタウン,0
1031,4360001033001,新規,0,2023-12-26,2023-12-26,株式会社Ｃｌｅａｎ　Ｗｏｒｋｓ,,株式会社,沖縄県,宮古島市,城辺字西里添２６１番地１,,47,214,9060106,,,,,,,2023-12-26,1,,,,,クリーンワークス,0
1033,4360003013579,新規,0,2023-12-26,2023-12-26,合同会社シアターウル,,合同会社,沖縄県,石垣市,字大川６２番地,,47,207,9070022,,,,,,,2023-12-26,1,,,,,シアターウル,0
1035,4380001006467,新規,0,2023-12-26,2023-12-26,福島グリーン開発株式会社,,株式会社,福島県,郡山市,安積町荒井字猫田１１番地５,,07,203,9630111,,,,,,,2023-12-26,1,,,,,フクシマグリーンカイハツ,0
1037,4380001034212,新規,0,2023-12-26,2023-12-26,ＡＳＩＦ　ＴＲＡＤＩＮＧ株式会社,,株式会社,福島県,二本松市,板目沢４２番地Ａ棟,,07,210,9640015,,,,,,,2023-12-26,1,,,,,アシフトレーディング,0
1038,4380003005640,新規,0,2023-12-26,2023-12-26,服部合資会社,,合資会社,福島県,白河市,勘定町２７番地,,07,205,9610956,,,,,,,2023-12-26,1,,,,,,0
1042,4420001018524,新規,0,2023-12-26,2023-12-26,株式会社Ｈｅｌｌｏ　Ａｎｄｙ,,株式会社,青森県,弘前市,大字東長町２６番地３,,02,202,0368343,,,,,,,2023-12-26,1,,,,,ハローアンディ,0
1045,4430001090720,新規,0,2023-12-26,2023-12-26,オンテック北海道株式会社,,株式会社,北海道,札幌市白石区,栄通１３丁目４－２８－２０１,,01,104,0030021,,,,,,,2023-12-26,1,,,,,オンテックホッカイドウ,0
1056,4450001014181,新規,0,2023-12-26,2023-12-26,ナカフまちづくり株式会社,,株式会社,北海道,空知郡中富良野町,字中富良野ベベルイ,,01,461,0710711,,,,,,,2023-12-26,1,,,,,ナカフマチヅクリ,0
1059,4460105002271,新規,0,2023-12-26,2023-12-26,ＮＰＯ法人ノーギアパワーリフティング協会,,その他の設立登記法人,北海道,帯広市,西三条南２丁目８番地２,,01,207,0800013,,,,,,,2023-12-26,1,,,,,,0
1066,5010001241026,新規,0,2023-12-26,2023-12-26,株式会社コタビ,,株式会社,東京都,中央区,銀座１丁目２２番１１号銀座大竹ビジデンス２Ｆ,,13,102,1040061,,,,,,,2023-12-26,1,,,,,コタビ,0
1067,5010001241034,新規,0,2023-12-26,2023-12-26,Ｂａｌａｎｃｅ＆Ｃｏｎｓｕｌｔｉｎｇ株式会社,,株式会社,東京都,中央区,晴海２丁目２番４２－４５０８号,,13,102,1040053,,,,,,,2023-12-26,1,,,,,バランスアンドコンサルティング,0
1068,5010001241100,新規,0,2023-12-26,2023-12-26,株式会社エフズメーカー,,株式会社,東京都,千代田区,丸の内１丁目１１番１号パシフィックセンチュリープレイス１３Ｆ,,13,101,1000005,,,,,,,2023-12-26,1,,,,,エフズメーカー,0
1072,5010003042538,新規,0,2023-12-26,2023-12-26,合同会社ＡＬＥＲＯ７９,,合同会社,東京都,千代田区,神田錦町１丁目２１番１号,,13,101,1010054,,,,,,,2023-12-26,1,,,,,アレーロセブンティーナイン,0
1074,5010005037668,新規,0,2023-12-26,2023-12-26,一般社団法人アレーロ・プラス２,,その他の設立登記法人,東京都,千代田区,神田錦町１丁目２１番１号,,13,101,1010054,,,,,,,2023-12-26,1,,,,,アレーロプラスツー,0
1086,5010401179452,新規,0,2023-12-26,2023-12-26,ゼレンストラテジー株式会社,,株式会社,東京都,港区,赤坂９丁目７番１号ミッドタウン・タワー３７階,,13,103,1070052,,,,,,,2023-12-26,1,,,,,ゼレンストラテジー,0
1089,5010503007255,新規,0,2023-12-26,2023-12-26,合同会社ｍｏｄｉｆｉｃａ,,合同会社,東京都,台東区,東上野１丁目８－５,,13,106,1100015,,,,,,,2023-12-26,1,,,,,モディフィカ,0
1119,5011001158961,新規,0,2023-12-26,2023-12-26,株式会社ルールマジク,,株式会社,東京都,渋谷区,渋谷２丁目１９－１５宮益坂ビルディング６０９,,13,113,1500002,,,,,,,2023-12-26,1,,,,,ルールマジク,0
1120,5011001158978,新規,0,2023-12-26,2023-12-26,エレウノ株式会社,,株式会社,東京都,目黒区,鷹番１丁目６番１６号ＥＴＥＲＮＡＴＡＫＡＢＡＮ２０３,,13,110,1520004,,,,,,,2023-12-26,1,,,,,エレウノ,0
1121,5011001159076,新規,0,2023-12-26,2023-12-26,Ｚｏｏ　Ｌａｂｏ．株式会社,,株式会社,東京都,渋谷区,代官山町８－７Ｄａｉｗａ代官山ビル,,13,113,1500034,,,,,,,2023-12-26,1,,,,,ズーラボ,0
1122,5011003018148,新規,0,2023-12-26,2023-12-26,合同会社ＥｍｏＣｒｉ,,合同会社,東京都,渋谷区,東２丁目２７番２－６０２号ＥＳＴ,,13,113,1500011,,,,,,,2023-12-26,1,,,,,エモクリ,0
1123,5011101105616,新規,0,2023-12-26,2023-12-26,太乙古美術株式会社,,株式会社,東京都,新宿区,四谷三栄町１２－４４－Ｂ１－３,,13,104,1600008,,,,,,,2023-12-26,1,,,,,タイイツコビジュツ,0
1124,5011101105624,新規,0,2023-12-26,2023-12-26,株式会社キャッツコート,,株式会社,東京都,新宿区,百人町２丁目１１番８号レクエルド１０３,,13,104,1690073,,,,,,,2023-12-26,1,,,,,キャッツコート,0
1126,5011103013908,新規,0,2023-12-26,2023-12-26,合同会社Ｎ　ＦＡＢＲＩＣ,,合同会社,東京都,新宿区,高田馬場２丁目９－１２第一柴原ビル１Ｆ,,13,104,1690075,,,,,,,2023-12-26,1,,,,,エヌファブリック,0
1128,5011201025136,新規,0,2023-12-26,2023-12-26,株式会社神田,,株式会社,東京都,中野区,中央２丁目４８番１０ウエリスアーバン中野坂上４２１号,,13,114,1640011,,,,,,,2023-12-26,1,,,,,カンダ,0
1135,5011301029268,新規,0,2023-12-26,2023-12-26,ＤＷＩＮＧＳ株式会社,,株式会社,東京都,杉並区,南荻窪３丁目５番５号,,13,115,1670052,,,,,,,2023-12-26,1,,,,,ディーウィングス,0
1146,5012801022852,新規,0,2023-12-26,2023-12-26,株式会社でんき工房,,株式会社,東京都,東大和市,中央２丁目８６７番地の１８,,13,220,2070015,,,,,,,2023-12-26,1,,,,,デンキコウボウ,0
1147,5013301051821,新規,0,2023-12-26,2023-12-26,株式会社スタイレックス・デベロップメント,,株式会社,東京都,豊島区,高田３丁目３０番１５号,,13,116,1710033,,,,,,,2023-12-26,1,,,,,スタイレックスデベロップメント,0
1154,5020001155068,新規,0,2023-12-26,2023-12-26,株式会社ｓｏａＨ,,株式会社,神奈川県,横浜市金沢区,富岡西６丁目２３番１０号,,14,108,2360052,,,,,,,2023-12-26,1,,,,,ソア,0
1159,5020003025120,新規,0,2023-12-26,2023-12-26,ＳＫ合同会社,,合同会社,神奈川県,川崎市幸区,戸手本町１丁目１２２番地３,,14,132,2120023,,,,,,,2023-12-26,1,,,,,エスケー,0
1160,5020003025260,新規,0,2023-12-26,2023-12-26,合同会社ＫＭＯ,,合同会社,神奈川県,横浜市港北区,樽町１丁目２２番６７－１号フォンテーヌＢ２０１,,14,109,2220001,,,,,,,2023-12-26,1,,,,,ケーエムオ,0
1161,5021001081056,新規,0,2023-12-26,2023-12-26,株式会社浜田建設,,株式会社,神奈川県,大和市,下鶴間２１５９番地,,14,213,2420001,,,,,,,2023-12-26,1,,,,,ハマダケンセツ,0
1162,5021001081080,新規,0,2023-12-26,2023-12-26,ラス・スーパーフライホールディングス株式会社,,株式会社,神奈川県,厚木市,長谷字柳町２６０番地３５,,14,212,2430036,,,,,,,2023-12-26,1,,,,,ラススーパーフライホールディングス,0
1167,5021003013940,新規,0,2023-12-26,2023-12-26,Ｆ＆Ｍ合同会社,,合同会社,神奈川県,南足柄市,怒田３１４番地２,,14,217,2500106,,,,,,,2023-12-26,1,,,,,エフアンドエム,0
1174,5030001157798,新規,0,2023-12-26,2023-12-26,株式会社サイクル・トゥー・サークル,,株式会社,埼玉県,蓮田市,東６丁目２番３号佐々木ビル１階,,11,238,3490111,,,,,,,2023-12-26,1,,,,,サイクルトゥーサークル,0
1179,5030003022975,新規,0,2023-12-26,2023-12-26,合同会社ジャンボ,,合同会社,埼玉県,川口市,大字安行領根岸９０５番地ビレッジハウス根岸２号棟２０３号,,11,203,3330834,,,,,,,2023-12-26,1,,,,,ジャンボ,0
1180,5030003023321,新規,0,2023-12-26,2023-12-26,ＣＡＴＳ　ＥＩＺＵＭ合同会社,,合同会社,埼玉県,戸田市,本町２丁目６番５－１０６号,,11,224,3350023,,,,,,,2023-12-26,1,,,,,キャッツエイズム,0
1187,5060001036644,新規,0,2023-12-26,2023-12-26,株式会社恒泰商事,,株式会社,栃木県,日光市,小代１５６７－３,,09,206,3211107,,,,,,,2023-12-26,1,,,,,コウタイショウジ,0
1192,5080103002947,新規,0,2023-12-26,2023-12-26,合同会社マーラー,,合同会社,静岡県,賀茂郡南伊豆町,加納１１９７－３,,22,304,4150304,,,,,,,2023-12-26,1,,,,,マーラー,0
1195,5090001018482,新規,0,2023-12-26,2023-12-26,Ｓ＆Ｙ株式会社,,株式会社,山梨県,中央市,山之神１３３－４５,,19,214,4093845,,,,,,,2023-12-26,1,,,,,エスアンドワイ,0
1201,5100003007325,新規,0,2023-12-26,2023-12-26,合同会社Ｆｏｃｕｓ　Ｎｅｔｗｏｒｋ,,合同会社,長野県,安曇野市,穂高有明９２９４番地６,,20,220,3998301,,,,,,,2023-12-26,1,,,,,フォーカスネットワーク,0
1211,5120001260948,新規,0,2023-12-26,2023-12-26,株式会社ＹＫ’５,,株式会社,大阪府,大阪市港区,磯路２丁目２－２０サニーハイツ１Ｆ,,27,107,5520003,,,,,,,2023-12-26,1,,,,,ワイケイズファイブ,0
1220,5120103005598,新規,0,2023-12-26,2023-12-26,合同会社Ｓｎｏｗ　ｐｅａｓ,,合同会社,大阪府,富田林市,富田林町１１番２３号,,27,214,5840033,,,,,,,2023-12-26,1,,,,,スノウピーズ,0
1224,5120901048550,新規,0,2023-12-26,2023-12-26,ダイレクトリーチ株式会社,,株式会社,大阪府,高槻市,別所本町１７番４－２２７号,,27,207,5691112,,,,,,,2023-12-26,1,,,,,ダイレクトリーチ,0
1243,5140003019969,新規,0,2023-12-26,2023-12-26,合同会社真心ダイニング,,合同会社,兵庫県,神戸市中央区,琴ノ緒町５丁目２－２三信ビルＢ１,,28,110,6510094,,,,,,,2023-12-26,1,,,,,マゴコロダイニング,0
1244,5140003019977,新規,0,2023-12-26,2023-12-26,宝海プラン合同会社,,合同会社,兵庫県,明石市,小久保１２０番地の５５Ｃ－３０４号,,28,203,6730005,,,,,,,2023-12-26,1,,,,,ホウカイプラン,0
1247,5140005026864,新規,0,2023-12-26,2023-12-26,医療法人かつら耳鼻咽喉科,,その他の設立登記法人,兵庫県,川西市,火打１丁目１６番６号オアシスタウンキセラ川西２階,,28,217,6660017,,,,,,,2023-12-26,1,,,,,カツラジビインコウカ,0
1248,5140005026872,新規,0,2023-12-26,2023-12-26,医療法人社団三和会黒石歯科医院,,その他の設立登記法人,兵庫県,加古郡稲美町,加古４３０２,,28,381,6751105,,,,,,,2023-12-26,1,,,,,ミワカイクロイシシカイイン,0
1250,5150005009538,新規,0,2023-12-26,2023-12-26,医療法人桜梅桃李,,その他の設立登記法人,奈良県,生駒郡三郷町,勢野北１丁目２番２０号,,29,343,6360815,,,,,,,2023-12-26,1,,,,,オウバイトウリ,0
1255,5180001159524,新規,0,2023-12-26,2023-12-26,株式会社Ａｄｖａｎｃｅｄ　Ｓｏｕｔｈ　Ｃｅｎｔｒａｌ,,株式会社,愛知県,名古屋市中川区,運河町３１２番地,,23,110,4540001,,,,,,,2023-12-26,1,,,,,アドバンストサウスセントラル,0
1258,5180003026160,新規,0,2023-12-26,2023-12-26,合同会社一心,,合同会社,愛知県,名古屋市昭和区,雪見町２丁目７番地の２アンプルールフェールＶｅｒｔＩＩ１０１号,00133114,23,107,4660005,,,,,,,2023-12-26,1,,,,,イッシン,0
1260,5180303005954,新規,0,2023-12-26,2023-12-26,田中電機・衣浦合同会社,,合同会社,愛知県,碧南市,明石町１０番地マツダロジスティクス（株）衣浦センター内２Ｆ,,23,209,4470866,,,,,,,2023-12-26,1,,,,,タナカデンキキヌウラ,0
1272,5230001020151,新規,0,2023-12-26,2023-12-26,株式会社Ｊ　ｃｒｅａｔｉｏｎ,,株式会社,富山県,射水市,小島３７２４番地,,16,211,9390274,,,,,,,2023-12-26,1,,,,,ジェイクリエイション,0
1278,5260001038612,新規,0,2023-12-26,2023-12-26,株式会社Ｗｅｓｔ,,株式会社,岡山県,倉敷市,福江１４４６番地２,,33,202,7100145,,,,,,,2023-12-26,1,,,,,ウエスト,0
1288,5290005019234,新規,0,2023-12-26,2023-12-26,一般社団法人ＫＳｍｅｉｗａ,,その他の設立登記法人,福岡県,太宰府市,大字北谷９５２番地,,40,221,8180114,,,,,,,2023-12-26,1,,,,,ケイエスメイワ,0
1289,5290801030162,新規,0,2023-12-26,2023-12-26,Ｓ＆Ｓ株式会社,,株式会社,福岡県,北九州市門司区,大字恒見１３５９番地１９,,40,101,8000117,,,,,,,2023-12-26,1,,,,,エスアンドエス,0
1290,5300001013560,新規,0,2023-12-26,2023-12-26,アルファーム株式会社,,株式会社,佐賀県,佐賀市,金立町大字千布４９２２番地,,41,201,8490905,,,,,,,2023-12-26,1,,,,,アルファーム,0
1291,5310001018757,新規,0,2023-12-26,2023-12-26,株式会社豊通商,,株式会社,長崎県,佐世保市,早岐１丁目１４番１０－６０１号,,42,202,8593215,,,,,,,2023-12-26,1,,,,,ユタカツウショウ,0
1301,5350001018729,新規,0,2023-12-26,2023-12-26,株式会社ディルド,,株式会社,宮崎県,宮崎市,上野町１番３号アルテマイスタードルチェ１００２号,,45,201,8800011,,,,,,,2023-12-26,1,,,,,ディルド,0
1308,5370003006424,新規,0,2023-12-26,2023-12-26,合同会社プログレス,,合同会社,宮城県,多賀城市,山王字中山王４番地の８グロワールメゾン１０２号室,,04,209,9850852,,,,,,,2023-12-26,1,,,,,プログレス,0
1310,5380001034211,新規,0,2023-12-26,2023-12-26,株式会社ｏｂｂｌｉｇａｔｏ,,株式会社,福島県,いわき市,小名浜字吹松７番地の５,,07,204,9718101,,,,,,,2023-12-26,1,,,,,オブリガート,0
1312,5420003002855,新規,0,2023-12-26,2023-12-26,レイバリー合同会社,,合同会社,青森県,八戸市,西白山台４丁目１番２－２号,,02,203,0391113,,,,,,,2023-12-26,1,,,,,レイバリー,0
1318,5470001019954,新規,0,2023-12-26,2023-12-26,株式会社ＬＯＯＰ,,株式会社,香川県,高松市,朝日町５丁目５番３８号,,37,201,7600065,,,,,,,2023-12-26,1,,,,,ループ,0
1319,5500001025387,新規,0,2023-12-26,2023-12-26,株式会社紺堂工業,,株式会社,愛媛県,松山市,古三津６丁目３番１７号,,38,201,7918067,,,,,,,2023-12-26,1,,,,,コンドウコウギョウ,0
1321,5700150123095,新規,0,2023-12-26,2023-12-26,スイスマリンＰｔｅＬｔｄ,,外国会社等,東京都,千代田区,神田錦町３丁目７番,,13,101,1010054,シンガポール共和国コリア―キィー５０番地ＯＵＥベイフロント４階１号室,,,,,,2023-12-26,1,,,,,スイスマリンピーテイーイーリミテツド,0
1329,6010001240803,新規,0,2023-12-26,2023-12-26,株式会社Ｅｎｒｕｃｈ　Ｙｏｕｒ　Ｔｒａｖｅｌ,,株式会社,東京都,中央区,銀座１丁目１２番４号Ｎ＆ＥＢＬＤ．６Ｆ,,13,102,1040061,,,,,,,2023-12-26,1,,,,,エンリッチユアトラベル,0
1330,6010001240910,新規,0,2023-12-26,2023-12-26,株式会社ノウハウス,,株式会社,東京都,中央区,八丁堀２丁目１番７号神鋼レジスタービル２階Ｅ室,,13,102,1040032,,,,,,,2023-12-26,1,,,,,ノウハウス,0
1331,6010001240927,新規,0,2023-12-26,2023-12-26,株式会社Ｆｕｎ,,株式会社,東京都,千代田区,神田鍛冶町３丁目７番２１－３０３号,,13,101,1010045,,,,,,,2023-12-26,1,,,,,ファン,0
1332,6010001241090,新規,0,2023-12-26,2023-12-26,株式会社エムソル,,株式会社,東京都,千代田区,三番町２４－２５,,13,101,1020075,,,,,,,2023-12-26,1,,,,,エムソル,0
1333,6010001241116,新規,0,2023-12-26,2023-12-26,株式会社ＡｉｒＢｉｚ,,株式会社,東京都,中央区,銀座１丁目２２番１１号銀座大竹ビジデンス２Ｆ,,13,102,1040061,,,,,,,2023-12-26,1,,,,,エアビズ,0
1341,6010003042537,新規,0,2023-12-26,2023-12-26,合同会社ＡＬＥＲＯ７８,,合同会社,東京都,千代田区,神田錦町１丁目２１番１号,,13,101,1010054,,,,,,,2023-12-26,1,,,,,アレーロセブンティーエイト,0
1345,6010005037667,新規,0,2023-12-26,2023-12-26,オー・ティー・ツー特定目的会社,,その他の設立登記法人,東京都,千代田区,丸の内３丁目１番１号東京共同会計事務所内,,13,101,1000005,,,,,,,2023-12-26,1,,,,,オーティーツー,0
1352,6010401179419,新規,0,2023-12-26,2023-12-26,盤古株式会社,,株式会社,東京都,港区,白金６丁目１６番２５－１８１１号,,13,103,1080072,,,,,,,2023-12-26,1,,,,,バンコ,0
1354,6010403031651,新規,0,2023-12-26,2023-12-26,合同会社龍延,,合同会社,東京都,港区,愛宕２丁目５番１号,,13,103,1050002,,,,,,,2023-12-26,1,,,,,リュウエン,0
1356,6010501051527,新規,0,2023-12-26,2023-12-26,株式会社ムービーフル,,株式会社,東京都,台東区,元浅草３丁目７番１号,,13,106,1110041,,,,,,,2023-12-26,1,,,,,ムービーフル,0
1359,6010601064404,新規,0,2023-12-26,2023-12-26,株式会社ｃ‐ａｇｅｎｃｙ,,株式会社,東京都,江東区,豊洲４丁目９－１３－６１０,,13,108,1350061,,,,,,,2023-12-26,1,,,,,シーエージェンシー,0
1366,6010901054419,新規,0,2023-12-26,2023-12-26,株式会社十柱戯,,株式会社,東京都,世田谷区,砧１丁目１３－２０,,13,112,1570073,,,,,,,2023-12-26,1,,,,,ジッチュウギ,0
1368,6010903008686,新規,0,2023-12-26,2023-12-26,合同会社個人,,合同会社,東京都,世田谷区,瀬田３丁目６番６－１１０２号,,13,112,1580095,,,,,,,2023-12-26,1,,,,,コジン,0
1372,6011001159067,新規,0,2023-12-26,2023-12-26,株式会社ＴＲＩＬＬＩＯＮ,,株式会社,東京都,渋谷区,道玄坂１丁目１０番８号渋谷道玄坂東急ビル２Ｆ－Ｃ,,13,113,1500043,,,,,,,2023-12-26,1,,,,,トリリオン,0
1373,6011001159091,新規,0,2023-12-26,2023-12-26,税務キーパー株式会社,,株式会社,東京都,渋谷区,円山町５番５号Ｎａｖｉ渋谷Ｖ３階,,13,113,1500044,,,,,,,2023-12-26,1,,,,,ゼイムキーパー,0
1378,6011003018147,新規,0,2023-12-26,2023-12-26,神の買い物合同会社,,合同会社,東京都,渋谷区,道玄坂１丁目１０番８号渋谷道玄坂東急ビル２Ｆ－Ｃ,,13,113,1500043,,,,,,,2023-12-26,1,,,,,カミノカイモノ,0
1379,6011005010317,新規,0,2023-12-26,2023-12-26,一般社団法人Ｃｌｕｂ　Ｓｕｐｐｏｒｔ,,その他の設立登記法人,東京都,渋谷区,幡ヶ谷２丁目９番１１号幡ヶ谷ＤＫビル２Ｆ,,13,113,1510072,,,,,,,2023-12-26,1,,,,,クラブサポート,0
1387,6011101105565,新規,0,2023-12-26,2023-12-26,ＡＩＬＯＶＥＹＯＵ株式会社,,株式会社,東京都,新宿区,榎町７３番地１４プラウドフラット神楽坂ＩＩＩ６０２,00133120,13,104,1620806,,,,,,,2023-12-26,1,,,,,アイラブユー,0
1388,6011103013907,新規,0,2023-12-26,2023-12-26,ＦＵＴＵＲＥ　Ｉ　ＷＯＲＫＳ合同会社,,合同会社,東京都,新宿区,西新宿３丁目３－１３西新宿水間ビル６階,,13,104,1600023,,,,,,,2023-12-26,1,,,,,フューチャーアイワークス,0
1391,6011301029275,新規,0,2023-12-26,2023-12-26,姫安株式会社,,株式会社,東京都,杉並区,阿佐谷南１丁目４７番２１号,,13,115,1660004,,,,,,,2023-12-26,1,,,,,ヒメヤス,0
1398,6012403006344,新規,0,2023-12-26,2023-12-26,ＫＣオフィス合同会社,,合同会社,東京都,三鷹市,井口４丁目６番１３号,,13,204,1810011,,,,,,,2023-12-26,1,,,,,ケーシーオフィス,0
1399,6012703002877,新規,0,2023-12-26,2023-12-26,合同会社Ｂｅｒｒｙ　Ｆａｒｍ　Ｔｏｋｙｏ,,合同会社,東京都,清瀬市,梅園３丁目７番５号,,13,221,2040024,,,,,,,2023-12-26,1,,,,,ベリーファームトーキョー,0
1406,6013301051820,新規,0,2023-12-26,2023-12-26,株式会社リステラ,,株式会社,東京都,豊島区,池袋１丁目１３番５号パーク・レジデンス４０２号,,13,116,1700014,,,,,,,2023-12-26,1,,,,,リステラ,0
1407,6013301051829,新規,0,2023-12-26,2023-12-26,株式会社ブルーローズ,,株式会社,東京都,豊島区,東池袋２丁目６０－３,,13,116,1700013,,,,,,,2023-12-26,1,,,,,ブルーローズ,0
1417,6020003025251,新規,0,2023-12-26,2023-12-26,合同会社アラリエル,,合同会社,神奈川県,横浜市西区,浅間町１丁目４番３号ウィザードビル４０２,,14,103,2200072,,,,,,,2023-12-26,1,,,,,アラリエル,0
1419,6021001081063,新規,0,2023-12-26,2023-12-26,すまいる株式会社,,株式会社,神奈川県,横須賀市,野比２丁目４３－３１,,14,201,2390841,,,,,,,2023-12-26,1,,,,,スマイル,0
1420,6021003013948,新規,0,2023-12-26,2023-12-26,Ｋ‐ＨＣＭ合同会社,,合同会社,神奈川県,三浦郡葉山町,長柄１４６１番地の２２９,,14,301,2400113,,,,,,,2023-12-26,1,,,,,ケーエイチシーエム,0
1427,6030001157888,新規,0,2023-12-26,2023-12-26,ＴＨＤ株式会社,,株式会社,埼玉県,秩父郡長瀞町,大字岩田８７７番地,,11,363,3691311,,,,,,,2023-12-26,1,,,,,ティーエイチディー,0
1430,6030003023254,新規,0,2023-12-26,2023-12-26,合同会社Ｂ・Ｒ,,合同会社,埼玉県,越谷市,赤山本町３－２４ライオンズグローベル越谷ステーションプラザ１２０１号,,11,222,3430808,,,,,,,2023-12-26,1,,,,,ビーアール,0
1431,6030003023287,新規,0,2023-12-26,2023-12-26,合同会社ＪＰ　ＦＯＲＷＡＲＤ,,合同会社,埼玉県,さいたま市見沼区,大字南中丸４３番地９サニーガーデン光１０２,,11,104,3370041,,,,,,,2023-12-26,1,,,,,ジェイピーフォワード,0
1433,6040001131446,新規,0,2023-12-26,2023-12-26,株式会社ＴＭＷ,,株式会社,千葉県,松戸市,大金平５丁目３５５番地の１２,,12,207,2700006,,,,,,,2023-12-26,1,,,,,ティーエムダブリュー,0
1434,6040001131537,新規,0,2023-12-26,2023-12-26,株式会社ＲＥＡＣＨ,,株式会社,千葉県,東金市,東上宿６－２４－Ａ－４,,12,213,2830067,,,,,,,2023-12-26,1,,,,,リーチ,0
1445,6080101024430,新規,0,2023-12-26,2023-12-26,Ｄａｉｋｏｋｕｔｅｎ株式会社,,株式会社,静岡県,御殿場市,新橋１６６１番地の３サンエスポワール２０２,,22,215,4120043,,,,,,,2023-12-26,1,,,,,ダイコクテン,0
1447,6100001037075,新規,0,2023-12-26,2023-12-26,株式会社ＳＧウッドパートナーズ,,株式会社,長野県,長野市,吉田５丁目２５番７号,,20,201,3810043,,,,,,,2023-12-26,1,,,,,エスジーウッドパートナーズ,0
1448,6100001037083,新規,0,2023-12-26,2023-12-26,小諸倉庫ホールディングス株式会社,,株式会社,長野県,小諸市,赤坂２丁目３番１号,,20,208,3840011,,,,,,,2023-12-26,1,,,,,コモロソウコホールディングス,0
1462,6120001260872,新規,0,2023-12-26,2023-12-26,楽泉株式会社,,株式会社,大阪府,大阪市住吉区,苅田３丁目１４番２０－３１３号,,27,120,5580011,,,,,,,2023-12-26,1,,,,,ライズミ,0
1463,6120001260914,新規,0,2023-12-26,2023-12-26,株式会社ａｉｔｏｂｉ,,株式会社,大阪府,大阪市東成区,中道２丁目１番２５号ロイヤル森之宮２０２号,,27,115,5370025,,,,,,,2023-12-26,1,,,,,アイトビ,0
1464,6120001260930,新規,0,2023-12-26,2023-12-26,維諾株式会社,,株式会社,大阪府,大阪市西成区,山王２丁目５番１８－９０２号室,,27,122,5570001,,,,,,,2023-12-26,1,,,,,イダク,0
1470,6120003025530,新規,0,2023-12-26,2023-12-26,ＣＨＥＥＭＡ　ＴＲＡＤＩＮＧ合同会社,,合同会社,大阪府,大阪市東淀川区,柴島２丁目１３－１５バスティオーネ柴島２０５号,,27,114,5330024,,,,,,,2023-12-26,1,,,,,チーマトレーディング,0
1475,6120901048517,新規,0,2023-12-26,2023-12-26,株式会社長谷川電気,,株式会社,大阪府,茨木市,真砂２丁目１０番２号,,27,211,5670851,,,,,,,2023-12-26,1,,,,,ハセガワデンキ,0
1476,6120901048541,新規,0,2023-12-26,2023-12-26,株式会社Ｄ’ｓ,,株式会社,大阪府,摂津市,千里丘７丁目８－６,,27,224,5660001,,,,,,,2023-12-26,1,,,,,ディーズ,0
1479,6122003002757,新規,0,2023-12-26,2023-12-26,ＮＡＫＡＤＡ　ＫＡＮＡ合同会社,,合同会社,大阪府,八尾市,八尾木東３丁目３７－１０３,,27,212,5810028,,,,,,,2023-12-26,1,,,,,ナカダカナ,0
1487,6130001076013,新規,0,2023-12-26,2023-12-26,株式会社ＶＩＹＯＮ　ＳＣＭ　ＪＡＰＡＮ,,株式会社,京都府,京都市下京区,玉津島町２９４番地,,26,106,6008427,,,,,,,2023-12-26,1,,,,,ビーヤンエスシーエムジャパン,0
1499,6140001132822,新規,0,2023-12-26,2023-12-26,株式会社龍美,,株式会社,兵庫県,加古郡稲美町,加古１８１２番地の９,,28,381,6751105,,,,,,,2023-12-26,1,,,,,タツミ,0
1504,6140003019951,新規,0,2023-12-26,2023-12-26,合同会社葵,,合同会社,兵庫県,三田市,けやき台５丁目１番地３,,28,219,6691321,,,,,,,2023-12-26,1,,,,,アオイ,0
1505,6140003019976,新規,0,2023-12-26,2023-12-26,ナチュラルハウス合同会社,,合同会社,兵庫県,尼崎市,御園１丁目９番１５－１０６号ベル・デ・ガーデン,,28,202,6610984,,,,,,,2023-12-26,1,,,,,ナチュラルハウス,0
1506,6140003019984,新規,0,2023-12-26,2023-12-26,合同会社ＴＳＫ,,合同会社,兵庫県,姫路市,書写８０６番地８,,28,201,6712201,,,,,,,2023-12-26,1,,,,,ティーエスケー,0
1507,6140005026839,新規,0,2023-12-26,2023-12-26,一般社団法人３６９マインドアカデミー,,その他の設立登記法人,兵庫県,神戸市中央区,磯上通８丁目１番２９号カサベラビルＣ＆Ｍ４０３号室,,28,110,6510086,,,,,,,2023-12-26,1,,,,,ミロクマインドアカデミー,0
1508,6140005026871,新規,0,2023-12-26,2023-12-26,医療法人幸友会,,その他の設立登記法人,兵庫県,神戸市中央区,北長狭通４丁目１番２号,,28,110,6500012,,,,,,,2023-12-26,1,,,,,コウユウカイ,0
1511,6150001026965,新規,0,2023-12-26,2023-12-26,ＡＯ株式会社,,株式会社,奈良県,生駒市,真弓１丁目９番１９号,,29,209,6300122,,,,,,,2023-12-26,1,,,,,エイオー,0
1512,6150003003153,新規,0,2023-12-26,2023-12-26,合同会社章,,合同会社,奈良県,葛城市,竹内３５６番地１２,,29,211,6392155,,,,,,,2023-12-26,1,,,,,アキ,0
1526,6180001159523,新規,0,2023-12-26,2023-12-26,株式会社ケーアイ・クリエイト,,株式会社,愛知県,一宮市,千秋町浮野字屋敷１７０番地の７,,23,203,4910806,,,,,,,2023-12-26,1,,,,,ケーアイクリエイト,0
1528,6180301038170,新規,0,2023-12-26,2023-12-26,株式会社ＹＴ,,株式会社,愛知県,田原市,高松町荒古６７番地１,,23,231,4413501,,,,,,,2023-12-26,1,,,,,ワイティー,0
1532,6200001042016,新規,0,2023-12-26,2023-12-26,ＷＥＬＬＸＩＡ　ＩＭＡＳＥ株式会社,,株式会社,岐阜県,岐阜市,浪花町１丁目６－１,,21,201,5008301,,,,,,,2023-12-26,1,,,,,ウェルシアイマセ,0
1537,6210001019582,新規,0,2023-12-26,2023-12-26,株式会社フードラボ,,株式会社,福井県,福井市,西開発４丁目５０１番地,,18,201,9100843,,,,,,,2023-12-26,1,,,,,フードラボ,0
1543,6240003006469,新規,0,2023-12-26,2023-12-26,合同会社Ｋａｊｅｅｋ　ｓｔｙｌｅ,,合同会社,広島県,広島市南区,稲荷町１－１１－９０４,,34,103,7320827,,,,,,,2023-12-26,1,,,,,カジークスタイル,0
1546,6260001038603,新規,0,2023-12-26,2023-12-26,株式会社井上ファーム,,株式会社,岡山県,井原市,芳井町西三原２３４２番地１,,33,207,7142234,,,,,,,2023-12-26,1,,,,,イノウエファーム,0
1551,6290001104187,新規,0,2023-12-26,2023-12-26,株式会社ＴｙｐｅＰｌｕｓ,,株式会社,福岡県,福岡市中央区,天神２丁目２番１２号Ｔ＆Ｊビルディング７Ｆ,,40,133,8100001,,,,,,,2023-12-26,1,,,,,タイププラス,0
1552,6290003014789,新規,0,2023-12-26,2023-12-26,合同会社Ｍａｒｉｉ,,合同会社,福岡県,福岡市博多区,博多駅前１丁目２３番２号ＰａｒｋＦｒｏｎｔ博多駅前１丁目５Ｆ－Ｂ,,40,132,8120011,,,,,,,2023-12-26,1,,,,,マリィ,0
1554,6290005019233,新規,0,2023-12-26,2023-12-26,特定非営利活動法人ｍｉｅ,,その他の設立登記法人,福岡県,福岡市東区,多の津５丁目４５番５号蝶和ビルＩＩ２０２号,00133119,40,131,8130034,,,,,,,2023-12-26,1,,,,,ミー,0
1558,6290805009697,新規,0,2023-12-26,2023-12-26,ＮＰＯ法人福岡ひきこもり・社会的孤立支援推進機構,,その他の設立登記法人,福岡県,北九州市若松区,高須西１丁目１２番９号,,40,103,8080146,,,,,,,2023-12-26,1,,,,,フクオカヒキコモリシャカイテキコリツシエンスイシンキコウ,0
1560,6320003004266,新規,0,2023-12-26,2023-12-26,合同会社ＭＵＡ　ＴＨＥ　ＭＯＮＳＴＥＲ,,合同会社,大分県,大分市,大字神崎８５番１,,44,201,8700100,,,,,,,2023-12-26,1,,,,,ムーアザモンスター,0
1564,6360001032991,新規,0,2023-12-26,2023-12-26,株式会社ｔｏｍａｒｉｇｉ,,株式会社,沖縄県,沖縄市,中央１丁目３番１３号林ビル１Ｆ,,47,211,9040004,,,,,,,2023-12-26,1,,,,,トマリギ,0
1572,6420001018530,新規,0,2023-12-26,2023-12-26,株式会社ココカラ,,株式会社,青森県,青森市,青葉１丁目５番地３,,02,201,0300846,,,,,,,2023-12-26,1,,,,,ココカラ,0
1577,6430005014855,新規,0,2023-12-26,2023-12-26,一般社団法人日本心のバリアフリー協会,,その他の設立登記法人,北海道,札幌市厚別区,厚別西一条４丁目７番２２号,,01,108,0040061,,,,,,,2023-12-26,1,,,,,ニホンココロノバリアフリーキョウカイ,0
1580,6470001019961,新規,0,2023-12-26,2023-12-26,アトラス株式会社,,株式会社,香川県,三豊市,高瀬町下勝間１２５０番地３１,,37,208,7670011,,,,,,,2023-12-26,1,,,,,アトラス,0
1583,6500001025386,新規,0,2023-12-26,2023-12-26,株式会社ＯＮＥ,,株式会社,愛媛県,伊予市,市場甲７９６番地１,,38,210,7993122,,,,,,,2023-12-26,1,,,,,,0
1584,6700150065460,新規,0,2023-12-26,2015-10-09,串間市衛生自治会,,その他,宮崎県,串間市,大字西方５５５０番地,,45,207,8880001,,,,,,,2015-10-09,1,,,,,クシマシエイセイジチカイ,0
1595,7010001240843,新規,0,2023-12-26,2023-12-26,株式会社びーどろ,,株式会社,東京都,中央区,佃２丁目２番１１号イーストタワー２１０２,,13,102,1040051,,,,,,,2023-12-26,1,,,,,ビードロ,0
1596,7010001241081,新規,0,2023-12-26,2023-12-26,株式会社ＭＡ,,株式会社,東京都,千代田区,富士見２丁目１０番２号飯田橋グラン・ブルーム４階,,13,101,1020071,,,,,,,2023-12-26,1,,,,,エムエー,0
1600,7010003042536,新規,0,2023-12-26,2023-12-26,合同会社ＡＬＥＲＯ７７,,合同会社,東京都,千代田区,神田錦町１丁目２１番１号,,13,101,1010054,,,,,,,2023-12-26,1,,,,,アレーロセブンティーセブン,0
1601,7010003042560,新規,0,2023-12-26,2023-12-26,合同会社Ｌａｉｍ,,合同会社,東京都,中央区,日本橋堀留町１丁目６－１２ラシクラスＩｎｆｉｎａ日本橋４０１,,13,102,1030012,,,,,,,2023-12-26,1,,,,,ライム,0
1611,7010401179401,新規,0,2023-12-26,2023-12-26,株式会社ｍｙ,,株式会社,東京都,港区,北青山３丁目１５番１６号,,13,103,1070061,,,,,,,2023-12-26,1,,,,,エムワイ,0
1624,7010601064411,新規,0,2023-12-26,2023-12-26,Ｇｒｅｅｎ　Ｍａｎｇｏ株式会社,,株式会社,東京都,墨田区,東向島４丁目４番１１－３０３号,,13,107,1310032,,,,,,,2023-12-26,1,,,,,グリーンマンゴー,0
1633,7011001158910,新規,0,2023-12-26,2023-12-26,株式会社Ｂｈ　ｓｔｙｌｅ表参道,,株式会社,東京都,渋谷区,神宮前４丁目１９番８号,,13,113,1500001,,,,,,,2023-12-26,1,,,,,ベーハースタイルオモテサンドウ,0
1634,7011001158927,新規,0,2023-12-26,2023-12-26,株式会社適人,,株式会社,東京都,渋谷区,恵比寿１丁目１３－１０恵比寿壱番館４０８,,13,113,1500013,,,,,,,2023-12-26,1,,,,,テキジン,0
1635,7011001158935,新規,0,2023-12-26,2023-12-26,株式会社ミライ,,株式会社,東京都,渋谷区,道玄坂１丁目１０番８号渋谷道玄坂東急ビル２Ｆ－Ｃ,,13,113,1500043,,,,,,,2023-12-26,1,,,,,ミライ,0
1636,7011001158951,新規,0,2023-12-26,2023-12-26,株式会社ＣｏｏＫｅｒ,,株式会社,東京都,目黒区,目黒２丁目１２番１３－４０２号ハイシティ目黒弐番館,,13,110,1530063,,,,,,,2023-12-26,1,,,,,クッカー,0
1637,7011001159000,新規,0,2023-12-26,2023-12-26,株式会社エースカイ,,株式会社,東京都,渋谷区,円山町５番５号Ｎａｖｉ渋谷Ｖ３階,,13,113,1500044,,,,,,,2023-12-26,1,,,,,エースカイ,0
1639,7011003018154,新規,0,2023-12-26,2023-12-26,ＷＡＭＳ合同会社,,合同会社,東京都,目黒区,柿の木坂１丁目２７－６田中ビル２０１,,13,110,1520022,,,,,,,2023-12-26,1,,,,,ワムズ,0
1640,7011003018162,新規,0,2023-12-26,2023-12-26,コミッターズ合同会社,,合同会社,東京都,渋谷区,神宮前６丁目２３番４号桑野ビル２階,,13,113,1500001,,,,,,,2023-12-26,1,,,,,コミッターズ,0
1644,7011101105597,新規,0,2023-12-26,2023-12-26,ゴールデンマンダラ株式会社,,株式会社,東京都,新宿区,西新宿３丁目７番１号新宿パークタワーＮ３０階,,13,104,1600023,,,,,,,2023-12-26,1,,,,,ゴールデンマンダラ,0
1645,7011103013897,新規,0,2023-12-26,2023-12-26,合同会社ｉｎｄｉｇｏ,,合同会社,東京都,新宿区,北新宿４丁目１７番１０号中村マンション３０１,,13,104,1690074,,,,,,,2023-12-26,1,,,,,インディゴ,0
1662,7013301051811,新規,0,2023-12-26,2023-12-26,株式会社ＯＦＦＩＣＥ　ＹＵＩＫＡＯＲＩ,,株式会社,東京都,豊島区,巣鴨１丁目９番１号グランド東邦ビル１Ｆ,,13,116,1700002,,,,,,,2023-12-26,1,,,,,オフィスユイカオリ,0
1663,7013301051828,新規,0,2023-12-26,2023-12-26,太陽産業株式会社,,株式会社,東京都,豊島区,池袋本町１丁目４５番１９号スマイル池袋１０２,,13,116,1700011,,,,,,,2023-12-26,1,,,,,タイヨウサンギョウ,0
1669,7020001155058,新規,0,2023-12-26,2023-12-26,波心株式会社,,株式会社,神奈川県,横浜市鶴見区,鶴見中央２丁目２１番３－５１２号,,14,101,2300051,,,,,,,2023-12-26,1,,,,,ハシン,0
1678,7020005016223,新規,0,2023-12-26,2023-12-26,一般社団法人家庭養鶏協会,,その他の設立登記法人,神奈川県,横浜市保土ケ谷区,桜ケ丘１－１０－１９,,14,106,,,,,,,,2023-12-26,1,,,,,カテイヨウケイキョウカイ,0
1683,7021001081054,新規,0,2023-12-26,2023-12-26,翔豐商事株式会社,,株式会社,神奈川県,相模原市緑区,橋本７丁目１２番１３号－Ａ室,,14,151,2520143,,,,,,,2023-12-26,1,,,,,ショウホウショウジ,0
1684,7021003013897,新規,0,2023-12-26,2023-12-26,合同会社カーオートマティック,,合同会社,神奈川県,厚木市,森の里４丁目２９―１,,14,212,2430122,,,,,,,2023-12-26,1,,,,,カーオートマティック,0
1693,7030003023303,新規,0,2023-12-26,2023-12-26,合同会社ＴＵＳ,,合同会社,埼玉県,さいたま市緑区,大字中尾１１４７番地,,11,109,3360932,,,,,,,2023-12-26,1,,,,,ティーユーエス,0
1704,7060001036659,新規,0,2023-12-26,2023-12-26,株式会社ウェルプレイス,,株式会社,栃木県,宇都宮市,簗瀬４丁目１０番１６号,,09,201,3210934,,,,,,,2023-12-26,1,,,,,ウェルプレイス,0
1715,7100001037082,新規,0,2023-12-26,2023-12-26,株式会社ココカラ始まる,,株式会社,長野県,南佐久郡小海町,大字小海３９４２番地２,,20,303,3841102,,,,,,,2023-12-26,1,,,,,ココカラハジマル,0
1716,7100001037090,新規,0,2023-12-26,2023-12-26,株式会社Ｌｅａｐ　ｏｎ,,株式会社,長野県,諏訪市,岡村２丁目１２番２６号,,20,206,3920005,,,,,,,2023-12-26,1,,,,,リープオン,0
1717,7100002016416,新規,0,2023-12-26,2023-12-26,有限会社ペンションシルフィード,,有限会社,長野県,小県郡長和町,大門字姫木平３５１８番２４９８,,20,350,3860601,,,,,,,2023-12-26,1,,,,,ペンションシルフィード,0
1721,7110001038063,新規,0,2023-12-26,2023-12-26,株式会社タック警備,,株式会社,新潟県,新潟市中央区,南出来島１丁目１０番７号,,15,103,9500963,,,,,,,2023-12-26,1,,,,,タックケイビ,0
1724,7120001260913,新規,0,2023-12-26,2023-12-26,株式会社スナックレモネード,,株式会社,大阪府,大阪市北区,梅田１丁目２番２号大阪駅前第２ビル１２－１２,,27,127,5300001,,,,,,,2023-12-26,1,,,,,スナックレモネード,0
1730,7120901048532,新規,0,2023-12-26,2023-12-26,株式会社ｍａｎｆｕｋｕ,,株式会社,大阪府,高槻市,真上町５丁目４３－２－２０４,,27,207,5691121,,,,,,,2023-12-26,1,,,,,マンフク,0
1732,7122001037688,新規,0,2023-12-26,2023-12-26,株式会社日本コスメティックス,,株式会社,大阪府,大東市,灰塚４丁目４番２４号,00133113,27,218,5740043,,,,,,,2023-12-26,1,,,,,ニホンコスメティックス,0
1745,7140001132813,新規,0,2023-12-26,2023-12-26,株式会社ＭＯＴＨＥＲ,,株式会社,兵庫県,姫路市,龍野町１丁目２０番地シャンティ船場３０３号室,,28,201,6700032,,,,,,,2023-12-26,1,,,,,マザー,0
1746,7140005026838,新規,0,2023-12-26,2023-12-26,一般社団法人播磨文化遺産トラスト,,その他の設立登記法人,兵庫県,姫路市,勝原区朝日谷１６７番地５,,28,201,6711204,,,,,,,2023-12-26,1,,,,,ハリマブンカイサントラスト,0
1747,7140005026870,新規,0,2023-12-26,2023-12-26,医療法人社団ゆあさ乳腺クリニック,,その他の設立登記法人,兵庫県,加古川市,加古川町寺家町３０３ニッケパークタウンクリニックモール加古川２階,,28,210,6750066,,,,,,,2023-12-26,1,,,,,ユアサニュウセンクリニック,0
1748,7150001026972,新規,0,2023-12-26,2023-12-26,株式会社ｎａｔｕｒａｌ　ＨＯＭＥ,,株式会社,奈良県,北葛城郡王寺町,明神１丁目１番１２号,,29,425,6360022,,,,,,,2023-12-26,1,,,,,ナチュラルホーム,0
1763,7180001159472,新規,0,2023-12-26,2023-12-26,株式会社翔建,,株式会社,愛知県,豊明市,西川町横井５番地１,,23,229,4701121,,,,,,,2023-12-26,1,,,,,ショウケン,0
1764,7180001159480,新規,0,2023-12-26,2023-12-26,株式会社ＭＩＴＡＭＵ,,株式会社,愛知県,江南市,般若町中山１３６番地,,23,217,4838018,,,,,,,2023-12-26,1,,,,,ミタム,0
1765,7180001159489,新規,0,2023-12-26,2023-12-26,株式会社牧添工務店,,株式会社,愛知県,江南市,東野町郷前１４３番地１,,23,217,4838421,,,,,,,2023-12-26,1,,,,,マキゾエコウムテン,0
1766,7180001159506,新規,0,2023-12-26,2023-12-26,株式会社ウルス,,株式会社,愛知県,名古屋市緑区,大高町字本銭瓶１３番地の１０,,23,114,4598001,,,,,,,2023-12-26,1,,,,,ウルス,0
1767,7180001159522,新規,0,2023-12-26,2023-12-26,ＮＵＡＣＥＬＬ　ＪＡＰＡＮ株式会社,,株式会社,愛知県,瀬戸市,鹿乗町３２３番地の２,,23,204,4890007,,,,,,,2023-12-26,1,,,,,ヌアセルジャパン,0
1772,7190001030979,新規,0,2023-12-26,2023-12-26,山水塗装株式会社,,株式会社,三重県,四日市市,京町２番１７号,,24,202,5100032,,,,,,,2023-12-26,1,,,,,サンスイトソウ,0
1774,7200001042007,新規,0,2023-12-26,2023-12-26,株式会社Ｒｅ’ｐｌｕｓ,,株式会社,岐阜県,高山市,三福寺町４４６３番地,,21,203,5060807,,,,,,,2023-12-26,1,,,,,リプラス,0
1775,7200001042015,新規,0,2023-12-26,2023-12-26,株式会社ＩＺＡＴ　ＴＲＡＤＩＮＧ,,株式会社,岐阜県,各務原市,各務東町７丁目１９７番地,,21,213,5090103,,,,,,,2023-12-26,1,,,,,イザットトレーディング,0
1781,7260001038610,新規,0,2023-12-26,2023-12-26,株式会社スマイル,,株式会社,岡山県,倉敷市,新田２９６３番地１,,33,202,7100038,,,,,,,2023-12-26,1,,,,,スマイル,0
1789,7290001104095,新規,0,2023-12-26,2023-12-26,株式会社ｊ‐ＷＯＲＬＤ,,株式会社,福岡県,福岡市博多区,店屋町３番１９号コープ古小路５０１号,,40,132,8120025,,,,,,,2023-12-26,1,,,,,ジェーワールド,0
1790,7290001104104,新規,0,2023-12-26,2023-12-26,株式会社幸尚,,株式会社,福岡県,久留米市,津福本町７０８番地１,,40,203,8300047,,,,,,,2023-12-26,1,,,,,コウショウ,0
1792,7290003014747,新規,0,2023-12-26,2023-12-26,合同会社堀下アセットマネジメント,,合同会社,福岡県,福岡市東区,松崎３丁目６番３３－２０１号,,40,131,8130035,,,,,,,2023-12-26,1,,,,,ホリシタアセットマネジメント,0
1800,7290805009696,新規,0,2023-12-26,2023-12-26,医療法人杏星会,,その他の設立登記法人,福岡県,北九州市小倉北区,清水１丁目１２番１４号,,40,106,8030841,,,,,,,2023-12-26,1,,,,,キョウセイカイ,0
1803,7320001020198,新規,0,2023-12-26,2023-12-26,株式会社ダルマ,,株式会社,大分県,宇佐市,大字長洲４２４６番地１,,44,211,8720001,,,,,,,2023-12-26,1,,,,,ダルマ,0
1807,7330001031599,新規,0,2023-12-26,2023-12-26,株式会社Ｒａｉｓｅ,,株式会社,熊本県,熊本市中央区,坪井４丁目１－１コマキビル６０１,,43,101,8600863,,,,,,,2023-12-26,1,,,,,レイズ,0
1808,7330003010139,新規,0,2023-12-26,2023-12-26,合同会社ライトグリーン,,合同会社,熊本県,熊本市東区,画図町大字所島８番地３,,43,102,8620946,,,,,,,2023-12-26,1,,,,,ライトグリーン,0
1811,7350001018727,新規,0,2023-12-26,2023-12-26,株式会社グリーンモンスターズ,,株式会社,宮崎県,児湯郡新富町,大字下富田３３３７番地,,45,402,8891404,,,,,,,2023-12-26,1,,,,,グリーンモンスターズ,0
1812,7350005006199,新規,0,2023-12-26,2023-12-26,一般社団法人ｍｉｎａｔｏ,,その他の設立登記法人,宮崎県,延岡市,北浦町古江２４２９番地,,45,203,8890301,,,,,,,2023-12-26,1,,,,,ミナト,0
1814,7360001032999,新規,0,2023-12-26,2023-12-26,株式会社Ｍａｒｅｅｂａ,,株式会社,沖縄県,宮古島市,下地字与那覇１０９６番地１,,47,214,9060305,,,,,,,2023-12-26,1,,,,,マリーバ,0
1818,7400003003192,新規,0,2023-12-26,2023-12-26,合同会社ＫＦ＆Ｐａｒｔｎｅｒｓ,,合同会社,岩手県,盛岡市,西青山３丁目３２番地６号,,03,201,0200132,,,,,,,2023-12-26,1,,,,,ケーエフアンドパートナーズ,0
1821,7420001018521,新規,0,2023-12-26,2023-12-26,株式会社Ｒｅａｌｉｚｅ,,株式会社,青森県,弘前市,大字城東４丁目７番地９,,02,202,0368095,,,,,,,2023-12-26,1,,,,,リアライズ,0
1822,7420005007875,新規,0,2023-12-26,2023-12-26,医療法人スマイルビジョンめとき眼科クリニック,,その他の設立登記法人,青森県,弘前市,大字北横町５０番地１,,02,202,0368046,,,,,,,2023-12-26,1,,,,,スマイルビジョンメトキガンカクリニック,0
1827,7430003015788,新規,0,2023-12-26,2023-12-26,テッククラフト合同会社,,合同会社,北海道,札幌市南区,北ノ沢１丁目１１番１５号,,01,106,0050832,,,,,,,2023-12-26,1,,,,,テッククラフト,0
1835,7470003002543,新規,0,2023-12-26,2023-12-26,合同会社Ｆｒｏｑｏｏ,,合同会社,香川県,高松市,春日町２７５番地３,,37,201,7610101,,,,,,,2023-12-26,1,,,,,フロックー,0
1849,8010001241072,新規,0,2023-12-26,2023-12-26,株式会社ｇｌｏｗＴａｌｅｎｔ,,株式会社,東京都,中央区,銀座１丁目１２番４号Ｎ＆ＥＢＬＤ．６Ｆ,,13,102,1040061,,,,,,,2023-12-26,1,,,,,グロータレント,0
1850,8010003042428,新規,0,2023-12-26,2023-12-26,合同会社ＡＺＹＬ,,合同会社,東京都,文京区,本郷４丁目３７番１２号ザ・パークハビオ本郷菊坂４０２号室,,13,105,1130033,,,,,,,2023-12-26,1,,,,,アジール,0
1851,8010003042543,新規,0,2023-12-26,2023-12-26,Ｄｒｉｌｌ　Ｑｕｉｐ　Ｊａｐａｎ合同会社,,合同会社,東京都,中央区,日本橋３丁目２番１４号新槇町ビル別館第一２階,,13,102,1030027,,,,,,,2023-12-26,1,,,,,ドリルクイップジャパン,0
1852,8010003042551,新規,0,2023-12-26,2023-12-26,合同会社アリーナ,,合同会社,東京都,中央区,日本橋３丁目２番１４号新槇町ビル別館第一１階,,13,102,1030027,,,,,,,2023-12-26,1,,,,,アリーナ,0
1870,8010401179391,新規,0,2023-12-26,2023-12-26,株式会社Ｙｏｂｅｋ,,株式会社,東京都,港区,北青山１丁目３番１号アールキューブ青山３階,,13,103,1070061,,,,,,,2023-12-26,1,,,,,ヨベク,0
1871,8010401179417,新規,0,2023-12-26,2023-12-26,和頤合株式会社,,株式会社,東京都,港区,西麻布４丁目１１番２８号麻布エンパイアマンション４０１号室,,13,103,1060031,,,,,,,2023-12-26,1,,,,,ワイアイ,0
1873,8010405022804,新規,0,2023-12-26,2023-12-26,弁護士法人青山北町法律事務所,,その他の設立登記法人,東京都,港区,北青山３丁目１２番７号秋月ビル５０２,,13,103,1070061,,,,,,,2023-12-26,1,,,,,アオヤマキタマチホウリツジムショ,0
1874,8010405022820,新規,0,2023-12-26,2023-12-26,一般社団法人カルチャーアンドエンタテインメント産業振興会,,その他の設立登記法人,東京都,港区,南青山３丁目１番３号,,13,103,1070062,,,,,,,2023-12-26,1,,,,,カルチャーアンドエンタテインメントサンギョウシンコウカイ,0
1877,8010603010552,新規,0,2023-12-26,2023-12-26,合同会社ＤｏＤｏＤｏ,,合同会社,東京都,江東区,東雲１丁目９番１１号－１１０３,,13,108,1350062,,,,,,,2023-12-26,1,,,,,ドゥドゥドゥ,0
1881,8010801034650,新規,0,2023-12-26,2023-12-26,デジタルラウンジ株式会社,,株式会社,東京都,大田区,大森東２丁目２７番１５号,,13,111,1430012,,,,,,,2023-12-26,1,,,,,デジタルラウンジ,0
1889,8011001158950,新規,0,2023-12-26,2023-12-26,Ｏｒｗｏｏｄ株式会社,,株式会社,東京都,渋谷区,恵比寿南２丁目１２－１レジデンスサザンＥＶＩＳ４０１,,13,113,1500022,,,,,,,2023-12-26,1,,,,,オルウッド,0
1893,8011101105489,新規,0,2023-12-26,2023-12-26,Ｓ．Ｔ．Ａ．Ｒ．Ｓ　Ｅｎｔｅｒｔａｉｎｍｅｎｔ株式会社,,株式会社,東京都,新宿区,河田町３番５１号,,13,104,1620054,,,,,,,2023-12-26,1,,,,,スターズエンターテインメント,0
1894,8011103013905,新規,0,2023-12-26,2023-12-26,合同会社Ｃｈｒｏｍｅ,,合同会社,東京都,新宿区,西新宿３丁目３番１３号６階,,13,104,1600023,,,,,,,2023-12-26,1,,,,,クローム,0
1896,8011203004259,新規,0,2023-12-26,2023-12-26,合同会社Ｕｓｐａｒｋｌｅ,,合同会社,東京都,中野区,東中野１丁目１７番３号,,13,114,1640003,,,,,,,2023-12-26,1,,,,,ユースパークル,0
1897,8011301029273,新規,0,2023-12-26,2023-12-26,株式会社和田サイクル,,株式会社,東京都,杉並区,桃井４丁目１番１号,,13,115,1670034,,,,,,,2023-12-26,1,,,,,ワダサイクル,0
1909,8012401041358,新規,0,2023-12-26,2023-12-26,ＨＷＡＩＥＲ　ＪＡＰＡＮ株式会社,,株式会社,東京都,府中市,白糸台２丁目３２番２号ロイヤルウッドマンション２０３号室,,13,206,1830011,,,,,,,2023-12-26,1,,,,,ファイヤージャパン,0
1914,8012801022858,新規,0,2023-12-26,2023-12-26,株式会社ＮＩＮＥ,,株式会社,東京都,立川市,柴崎町３丁目４番３号,,13,202,1900023,,,,,,,2023-12-26,1,,,,,ナイン,0
1917,8013301051827,新規,0,2023-12-26,2023-12-26,株式会社一旺,,株式会社,東京都,豊島区,東池袋５丁目７番１号ＤＲＳ第三ビル７０１号,,13,116,1700013,,,,,,,2023-12-26,1,,,,,イオン,0
1931,8020001155065,新規,0,2023-12-26,2023-12-26,Ｉ‐ｐｌｕｓｐｌｕｓ株式会社,,株式会社,神奈川県,川崎市麻生区,白山５丁目１番７－３０６号,,14,137,2150014,,,,,,,2023-12-26,1,,,,,アイプラスプラス,0
1932,8020001155073,新規,0,2023-12-26,2023-12-26,株式会社Ｅｘｆｕｌ,,株式会社,神奈川県,横浜市鶴見区,鶴見中央１丁目３１番２２－７０６号,,14,101,2300051,,,,,,,2023-12-26,1,,,,,エクスフル,0
1937,8020005016239,新規,0,2023-12-26,2023-12-26,一般社団法人子どもの未来へつながる食育ラボ,,その他の設立登記法人,神奈川県,横浜市港北区,仲手原２丁目３５番１３号,,14,109,2220023,,,,,,,2023-12-26,1,,,,,コドモノミライヘツナガルショクイクラボ,0
1947,8030001157853,新規,0,2023-12-26,2023-12-26,株式会社ＳＣ,,株式会社,埼玉県,草加市,住吉２丁目１番１５－５０９号,,11,221,3400014,,,,,,,2023-12-26,1,,,,,エスシー,0
1948,8030001157886,新規,0,2023-12-26,2023-12-26,株式会社焼鳥ぱくぱく,,株式会社,埼玉県,本庄市,若泉３丁目２２番８号ティーアＢ２０１,,11,211,3670055,,,,,,,2023-12-26,1,,,,,ヤキトリパクパク,0
1949,8030001157894,新規,0,2023-12-26,2023-12-26,株式会社不知火,,株式会社,埼玉県,新座市,野火止５丁目１５番３１号コーポサンリバー野火止２０６号室,,11,230,3520011,,,,,,,2023-12-26,1,,,,,シラヌイ,0
1950,8030001157969,新規,0,2023-12-26,2023-12-26,株式会社ＫＯＥＲ,,株式会社,埼玉県,久喜市,葛梅１丁目２番地１６,,11,232,3400214,,,,,,,2023-12-26,1,,,,,コエル,0
1954,8030003023293,新規,0,2023-12-26,2023-12-26,合同会社トラストワン,,合同会社,埼玉県,川口市,大字東内野２８１－４,,11,203,3330821,,,,,,,2023-12-26,1,,,,,トラストワン,0
1959,8040003023953,新規,0,2023-12-26,2023-12-26,ＨＡＩＤＥＲ　ＴＲＡＤＩＮＧ合同会社,,合同会社,千葉県,我孫子市,都１７番地１桜井ハイツ２０３号,,12,222,2701102,,,,,,,2023-12-26,1,,,,,ハイデルトレーディング,0
1966,8060001036666,新規,0,2023-12-26,2023-12-26,株式会社ｆｒｅｅ　ｓｃｉｓｓｏｒｓ,,株式会社,栃木県,宇都宮市,本町９番１号,,09,201,3200033,,,,,,,2023-12-26,1,,,,,フリーシザース,0
1968,8070001041228,新規,0,2023-12-26,2023-12-26,株式会社ＨＬＣＳひまわり,,株式会社,群馬県,佐波郡玉村町,大字福島１０８０番地１,,10,464,3701105,,,,,,,2023-12-26,1,,,,,エイチエルシーエスヒマワリ,0
1970,8080101024429,新規,0,2023-12-26,2023-12-26,株式会社ＴａｋＥｘ,,株式会社,静岡県,富士市,松岡１４９７番地の１０,,22,210,4160909,,,,,,,2023-12-26,1,,,,,テイクス,0
1974,8090003002457,新規,0,2023-12-26,2023-12-26,合同会社ＶＥＬＯＣＥ,,合同会社,山梨県,富士吉田市,上吉田４丁目７番２－１号,,19,202,4030005,,,,,,,2023-12-26,1,,,,,ヴェローチェ,0
1976,8100001037081,新規,0,2023-12-26,2023-12-26,株式会社シナノグローバルガーデン,,株式会社,長野県,長野市,大字高田４６０番地１ヴァンカートル３０５,,20,201,3810034,,,,,,,2023-12-26,1,,,,,シナノグローバルガーデン,0
1992,8120001260945,新規,0,2023-12-26,2023-12-26,株式会社ダイニングフュージョン,,株式会社,大阪府,大阪市中央区,島之内２丁目９番２６号１階,,27,128,5420082,,,,,,,2023-12-26,1,,,,,ダイニングフュージョン,0
1995,8120005003870,新規,0,2023-12-26,2023-12-26,財団法人大阪勤労者信用基金協会,,その他の設立登記法人,大阪府,大阪市中央区,北浜東３番１４号大阪府立労働センター内,,27,128,5400031,,,,,,,2023-12-26,1,,,,,オオサカキンロウシャシンヨウキキンキョウカイ,0
2001,8120101068776,新規,0,2023-12-26,2023-12-26,株式会社永屋不動産,,株式会社,大阪府,堺市北区,東雲東町１丁６番２号,,27,146,5918041,,,,,,,2023-12-26,1,,,,,ナガヤフドウサン,0
2011,8130001076011,新規,0,2023-12-26,2023-12-26,復齋株式会社,,株式会社,京都府,京都市東山区,本町６丁目１４コーポセブン３０５号室,,26,105,6050981,,,,,,,2023-12-26,1,,,,,フクサイ,0
2018,8140001132795,新規,0,2023-12-26,2023-12-26,インフィニティオーシャンブルー株式会社,,株式会社,兵庫県,芦屋市,朝日ケ丘町６番１３－１０６号,,28,206,6590012,,,,,,,2023-12-26,1,,,,,インフィニティオーシャンブルー,0
2019,8140001132804,新規,0,2023-12-26,2023-12-26,株式会社ＶＩＶＲＥ　ＣＡＲＤ,,株式会社,兵庫県,神戸市中央区,磯辺通１丁目１番１８号カサベラ国際プラザビル７０７,,28,110,6510084,,,,,,,2023-12-26,1,,,,,ビブルカード,0
2020,8140001132820,新規,0,2023-12-26,2023-12-26,サイナスメディカル株式会社,,株式会社,兵庫県,神戸市灘区,永手町５丁目２番１４号,,28,102,6570027,,,,,,,2023-12-26,1,,,,,サイナスメディカル,0
2023,8140005026861,新規,0,2023-12-26,2023-12-26,医療法人社団勲章会,,その他の設立登記法人,兵庫県,神戸市中央区,北長狭通５丁目７番１７号,,28,110,6500012,,,,,,,2023-12-26,1,,,,,クンショウカイ,0
2036,8180001159488,新規,0,2023-12-26,2023-12-26,エスネクスト株式会社,,株式会社,愛知県,春日井市,西本町２丁目１１番地１４,,23,206,4860958,,,,,,,2023-12-26,1,,,,,エスネクスト,0
2037,8180001159538,新規,0,2023-12-26,2023-12-26,株式会社ＧＭＴ,,株式会社,愛知県,名古屋市港区,寛政町２丁目８番地の１,,23,111,4550066,,,,,,,2023-12-26,1,,,,,ジーエムティ,0
2041,8180005020472,新規,0,2023-12-26,2023-12-26,医療法人桂葉会,,その他の設立登記法人,愛知県,半田市,住吉町２丁目１６５番地,,23,205,4750862,,,,,,,2023-12-26,1,,,,,ケイヨウカイ,0
2046,8180301038169,新規,0,2023-12-26,2023-12-26,株式会社Ｅ‐ｃａｔｃｈ,,株式会社,愛知県,豊橋市,天伯町字八田平２８番地３３,,23,201,4418122,,,,,,,2023-12-26,1,,,,,イーグルキャッチ,0
2053,8210003001735,新規,0,2023-12-26,2023-12-26,Ｍコンサル合同会社,,合同会社,福井県,福井市,殿下町第３６号７番地,,18,201,9188216,,,,,,,2023-12-26,1,,,,,エムコンサル,0
2058,8240003006467,新規,0,2023-12-26,2023-12-26,合同会社セレクト,,合同会社,広島県,三原市,頼兼２丁目８番１８－１０３号,,34,204,7230054,,,,,,,2023-12-26,1,,,,,セレクト,0
2075,8290001104103,新規,0,2023-12-26,2023-12-26,株式会社シェフスタートアップ,,株式会社,福岡県,春日市,春日原南町４丁目１１番地フェリス春日３階,,40,218,8160803,,,,,,,2023-12-26,1,,,,,シェフスタートアップ,0
2082,8300003002055,新規,0,2023-12-26,2023-12-26,ざわざわ農園合同会社,,合同会社,佐賀県,三養基郡基山町,大字園部１６９１番地１,,41,341,8410203,,,,,,,2023-12-26,1,,,,,ザワザワノウエン,0
2084,8310001018770,新規,0,2023-12-26,2023-12-26,株式会社ＨＩＫＡＲＩ．Ｔ．Ｗ,,株式会社,長崎県,長崎市,戸石町６８７番地２,,42,201,8510113,,,,,,,2023-12-26,1,,,,,ヒカリティーダブリュウ,0
2088,8330001031598,新規,0,2023-12-26,2023-12-26,株式会社ロイヤルカード,,株式会社,熊本県,熊本市南区,薄場２丁目１４番１０号Ｂ－１０１,,43,104,8614131,,,,,,,2023-12-26,1,,,,,ロイヤルカード,0
2095,8360001032998,新規,0,2023-12-26,2023-12-26,株式会社Ｍ　ＧＲＯＵＰ,,株式会社,沖縄県,うるま市,字赤道６１９番地,,47,213,9042245,,,,,,,2023-12-26,1,,,,,エムグループ,0
2101,8380001034209,新規,0,2023-12-26,2023-12-26,株式会社Ｒａｃｃｏｏｎｃｉｅｒ,,株式会社,福島県,耶麻郡猪苗代町,字新地５６６２－１,,07,408,9693113,,,,,,,2023-12-26,1,,,,,ラクーンシェ,0
2106,8410001013679,新規,0,2023-12-26,2023-12-26,株式会社ｎｏｋｏｓｓ,,株式会社,秋田県,秋田市,中通１丁目４番４－１１０２号,,05,201,0100001,,,,,,,2023-12-26,1,,,,,ノコス,0
2111,8430001090700,新規,0,2023-12-26,2023-12-26,ＩＴＡＣ株式会社,,株式会社,北海道,江別市,大麻北町５２３－９１,,01,217,0690861,,,,,,,2023-12-26,1,,,,,アイタック,0
2112,8430001090725,新規,0,2023-12-26,2023-12-26,株式会社ＭＡＪＵ　ＢＥＲＳＡＭＡ,,株式会社,北海道,余市郡余市町,梅川町６７４番地４,,01,408,0460023,,,,,,,2023-12-26,1,,,,,マジュブルサマ,0
2114,8470003002542,新規,0,2023-12-26,2023-12-26,合同会社ｃｌｅｆ．建築設計事務所,,合同会社,香川県,綾歌郡綾川町,陶４６６６番地７,,37,387,7612103,,,,,,,2023-12-26,1,,,,,クレケンチクセッケイジムショ,0
2115,8480001012336,新規,0,2023-12-26,2023-12-26,みなみえる株式会社,,株式会社,徳島県,海部郡美波町,奥河内字寺前１２５番地２３,,36,387,7792305,,,,,,,2023-12-26,1,,,,,,0
2116,8480003002062,新規,0,2023-12-26,2023-12-26,合同会社ＨＩＴ,,合同会社,徳島県,鳴門市,撫養町小桑島字前浜７４番地,,36,202,7720012,,,,,,,2023-12-26,1,,,,,ヒット,0
2132,9010001241113,新規,0,2023-12-26,2023-12-26,株式会社Ｄｅｌｉｇｈｔ,,株式会社,東京都,中央区,銀座１丁目２２番１１号銀座大竹ビジデンス２Ｆ,,13,102,1040061,,,,,,,2023-12-26,1,,,,,ディライト,0
2134,9010003042526,新規,0,2023-12-26,2023-12-26,合同会社Ｒｅｓｅｒｖｅｄ,,合同会社,東京都,中央区,銀座１丁目１２番４号Ｎ＆ＥＢＬＤ．６Ｆ,,13,102,1040061,,,,,,,2023-12-26,1,,,,,リザーブド,0
2135,9010003042542,新規,0,2023-12-26,2023-12-26,咲華合同会社,,合同会社,東京都,中央区,銀座７丁目１３番６号サガミビル２階,,13,102,1040061,,,,,,,2023-12-26,1,,,,,サクハナ,0
2136,9010003042550,新規,0,2023-12-26,2023-12-26,合同会社ｃｏｅｕｒｋａｗａｎａ,,合同会社,東京都,中央区,銀座８丁目３番１１号和恒ビル,,13,102,1040061,,,,,,,2023-12-26,1,,,,,ケオルカワナ,0
2143,9010401179432,新規,0,2023-12-26,2023-12-26,株式会社レベンタ,,株式会社,東京都,港区,赤坂８丁目７番１８－１０３号,,13,103,1070052,,,,,,,2023-12-26,1,,,,,レベンタ,0
2150,9010601064384,新規,0,2023-12-26,2023-12-26,ジャキープロパティマネジメント株式会社,,株式会社,東京都,江東区,南砂５丁目８番１３－１００１号,,13,108,1360076,,,,,,,2023-12-26,1,,,,,ジャキープロパティマネジメント,0
2151,9010601064392,新規,0,2023-12-26,2023-12-26,株式会社２２３,,株式会社,東京都,墨田区,横川４丁目４－４・１階,,13,107,1300003,,,,,,,2023-12-26,1,,,,,ニーニーサン,0
2156,9010901054408,新規,0,2023-12-26,2023-12-26,ｋｉｍｉ株式会社,,株式会社,東京都,世田谷区,北沢２丁目２２番９号パロス下北沢１０４,,13,112,1550031,,,,,,,2023-12-26,1,,,,,キミ,0
2165,9011001158842,新規,0,2023-12-26,2023-12-26,ファロー株式会社,,株式会社,東京都,渋谷区,桜丘町１２－８渋谷コーポラス９０１,,13,113,1500031,,,,,,,2023-12-26,1,,,,,ファロー,0
2166,9011001158958,新規,0,2023-12-26,2023-12-26,株式会社リモマネ,,株式会社,東京都,渋谷区,道玄坂１丁目１０番８号渋谷道玄坂東急ビル２Ｆ－Ｃ,,13,113,1500043,,,,,,,2023-12-26,1,,,,,リモマネ,0
2167,9011001158990,新規,0,2023-12-26,2023-12-26,株式会社ＺＹＵＧＥＭ　ＪＡＰＡＮ,,株式会社,東京都,渋谷区,円山町１４－９ＦＬＥＧ渋谷１０３,,13,113,1500044,,,,,,,2023-12-26,1,,,,,ジュゲムジャパン,0
2174,9011403004215,新規,0,2023-12-26,2023-12-26,合同会社鬼姫狂団,,合同会社,東京都,板橋区,南常盤台１丁目１１－６レフア南常盤台１０１号室,,13,119,1740072,,,,,,,2023-12-26,1,,,,,オニヒメキョウダン,0
2179,9012301013712,新規,0,2023-12-26,2023-12-26,Ｇｒｅａｔ　Ｃｏｌｌａｂｏｒａｔｉｏｎ株式会社,,株式会社,東京都,町田市,成瀬が丘１丁目２６番１３号,,13,209,1940011,,,,,,,2023-12-26,1,,,,,グレートコラボレーション,0
2182,9012401041349,新規,0,2023-12-26,2023-12-26,株式会社慶,,株式会社,東京都,三鷹市,新川３丁目８－３６－５,,13,204,1810004,,,,,,,2023-12-26,1,,,,,ケイ,0
2185,9012801022865,新規,0,2023-12-26,2023-12-26,エイトウェーブ株式会社,,株式会社,東京都,昭島市,緑町１丁目１５番６号,,13,207,1960004,,,,,,,2023-12-26,1,,,,,エイトウェーブ,0
2188,9013305003559,新規,0,2023-12-26,2023-12-26,一般社団法人キッズクラフト,,その他の設立登記法人,東京都,豊島区,西池袋５丁目１３－１８Ａｔｔｉｃ,,13,116,1710021,,,,,,,2023-12-26,1,,,,,キッズクラフト,0
2192,9020001155048,新規,0,2023-12-26,2023-12-26,株式会社クロスワン,,株式会社,神奈川県,横浜市神奈川区,金港町５番地１４クアドリフォリオ８階,,14,102,2210056,,,,,,,2023-12-26,1,,,,,クロスワン,0
2193,9020001155064,新規,0,2023-12-26,2023-12-26,株式会社マシーンサービス,,株式会社,神奈川県,横浜市都筑区,見花山２７番８号,,14,118,2240066,,,,,,,2023-12-26,1,,,,,マシーンサービス,0
2194,9020003025249,新規,0,2023-12-26,2023-12-26,合同会社光,,合同会社,神奈川県,横浜市瀬谷区,五貫目町１９番地４９,,14,114,2460008,,,,,,,2023-12-26,1,,,,,,0
2195,9020005016238,新規,0,2023-12-26,2023-12-26,医療法人社団Ｙ　ａｎｄ　Ｓ,,その他の設立登記法人,神奈川県,横浜市港北区,新羽町１６８６番地１Ｕ～ｍｕＮＥＷＷＩＮＧＩＩＩ３０２号室,00133112,14,109,2230057,,,,,,,2023-12-26,1,,,,,ワイアンドエス,0
2199,9021003013937,新規,0,2023-12-26,2023-12-26,リブラ合同会社,,合同会社,神奈川県,藤沢市,藤沢６０７番地の１,,14,205,2510052,,,,,,,2023-12-26,1,,,,,リブラ,0
2209,9030001157695,新規,0,2023-12-26,2023-12-26,嘉文株式会社,,株式会社,埼玉県,川口市,芝５丁目５番１２号ロッキー芝１階,,11,203,3330866,,,,,,,2023-12-26,1,,,,,カブン,0
2210,9030001157910,新規,0,2023-12-26,2023-12-26,株式会社Ｔ・Ｙ・Ｃ,,株式会社,埼玉県,朝霞市,根岸台２丁目１５番３５号,,11,227,3510005,,,,,,,2023-12-26,1,,,,,ティーワイシー,0
2214,9030003023276,新規,0,2023-12-26,2023-12-26,合同会社ＭＵＫＵＴＯＵ,,合同会社,埼玉県,さいたま市浦和区,元町１丁目２６－２,,11,107,3300073,,,,,,,2023-12-26,1,,,,,ムクトウ,0
2221,9050001053884,新規,0,2023-12-26,2023-12-26,株式会社和,,株式会社,茨城県,つくばみらい市,富士見ヶ丘１丁目１８番地２,,08,235,3002417,,,,,,,2023-12-26,1,,,,,ナゴミ,0
2223,9060003004851,新規,0,2023-12-26,2023-12-26,合同会社ＳＡＨＩ　ＩＮＴＥＲＮＡＴＩＯＮＡＬ,,合同会社,栃木県,栃木市,岩舟町新里１３０３番地２、３６号室,,09,203,3294316,,,,,,,2023-12-26,1,,,,,サイインターナショナル,0
2229,9070001041219,新規,0,2023-12-26,2023-12-26,株式会社ヤジマ,,株式会社,群馬県,藤岡市,上大塚９８４番地１,,10,209,3750054,,,,,,,2023-12-26,1,,,,,ヤジマ,0
2230,9070001041227,新規,0,2023-12-26,2023-12-26,株式会社Ｏｎｅ　Ｌｉｆｅ,,株式会社,群馬県,邑楽郡大泉町,大字寄木戸５０７番地２,,10,524,3700535,,,,,,,2023-12-26,1,,,,,ワンライフ,0
2231,9070003005213,新規,0,2023-12-26,2023-12-26,ウィルジャパン合同会社,,合同会社,群馬県,太田市,鳥山下町６３８番地１ニューエルディムＭＩＮＡＭＩ２０２号,,10,205,3730063,,,,,,,2023-12-26,1,,,,,ウィルジャパン,0
2235,9100001037080,新規,0,2023-12-26,2023-12-26,株式会社Ａ．Ｓ．ＭＯＴＯＲＳ,,株式会社,長野県,長野市,宮沖３２１１番地１松巳荘Ａ－６,,20,201,3800952,,,,,,,2023-12-26,1,,,,,エーエスモータース,0
2248,9120001260903,新規,0,2023-12-26,2023-12-26,リタコーポレーション株式会社,,株式会社,大阪府,大阪市平野区,瓜破３丁目２番２５号ヴィラナリー平野３０３,,27,126,5470024,,,,,,,2023-12-26,1,,,,,リタコーポレーション,0
2249,9120001260928,新規,0,2023-12-26,2023-12-26,株式会社ゼータ,,株式会社,大阪府,大阪市北区,曾根崎新地１丁目１１番９号京屋ビル４Ｆ,,27,127,5300002,,,,,,,2023-12-26,1,,,,,ゼータ,0
2250,9120001260944,新規,0,2023-12-26,2023-12-26,発光予株式会社,,株式会社,大阪府,大阪市中央区,島之内１丁目１４－８長堀小谷マンション２０３,,27,128,5420082,,,,,,,2023-12-26,1,,,,,ハッコウヨ,0
2254,9120101068791,新規,0,2023-12-26,2023-12-26,株式会社美英,,株式会社,大阪府,堺市堺区,出島海岸通１丁２番１０号,,27,141,5900833,,,,,,,2023-12-26,1,,,,,ビエイ,0
2256,9122001037686,新規,0,2023-12-26,2023-12-26,株式会社Ａ．Ｆｒａｍｅ,,株式会社,大阪府,八尾市,本町４丁目７番１３号,,27,212,5810003,,,,,,,2023-12-26,1,,,,,エーフレーム,0
2263,9130001075986,新規,0,2023-12-26,2023-12-26,株式会社ＢＯＢ　Ｈｏｍｅ,,株式会社,京都府,宇治市,木幡平尾２７番地の９９,,26,204,6110002,,,,,,,2023-12-26,1,,,,,ボブホーム,0
2264,9130001076010,新規,0,2023-12-26,2023-12-26,株式会社彩,,株式会社,京都府,舞鶴市,字行永２１８０番地１１,,26,202,6250052,,,,,,,2023-12-26,1,,,,,サイ,0
2270,9140001132794,新規,0,2023-12-26,2023-12-26,株式会社Ｐｉｅｎａ,,株式会社,兵庫県,姫路市,東延末２丁目８０番地エスリード姫路セミリア４０３,,28,201,6700965,,,,,,,2023-12-26,1,,,,,ピエナ,0
2273,9140005026869,新規,0,2023-12-26,2023-12-26,医療法人昌和会,,その他の設立登記法人,兵庫県,神戸市兵庫区,荒田町１丁目５番８号２Ｆ,,28,105,6520032,,,,,,,2023-12-26,1,,,,,ショウワカイ,0
2288,9180001159280,新規,0,2023-12-26,2023-12-26,株式会社建匠,,株式会社,愛知県,知多郡美浜町,大字布土字明山１７０番地１,,23,446,4702401,,,,,,,2023-12-26,1,,,,,ケンショウ,0
2289,9180001159512,新規,0,2023-12-26,2023-12-26,株式会社Ｓｋｉｎｈｅａｄ,,株式会社,愛知県,名古屋市東区,東桜２丁目１７番２５号,,23,102,4610005,,,,,,,2023-12-26,1,,,,,スキンヘッド,0
2290,9180001159520,新規,0,2023-12-26,2023-12-26,株式会社縁塗装,,株式会社,愛知県,常滑市,市場町４丁目７１番地,,23,216,4790828,,,,,,,2023-12-26,1,,,,,エニシトソウ,0
2291,9180001159529,新規,0,2023-12-26,2023-12-26,株式会社デジギークス,,株式会社,愛知県,名古屋市西区,城北町３丁目５番地,,23,104,4510023,,,,,,,2023-12-26,1,,,,,デジギークス,0
2292,9180001159537,新規,0,2023-12-26,2023-12-26,株式会社時今,,株式会社,愛知県,名古屋市中区,栄３丁目１１番１８号ミドリヤビル２階,,23,106,4600008,,,,,,,2023-12-26,1,,,,,ジコン,0
2298,9200003006189,新規,0,2023-12-26,2023-12-26,合同会社糸国商店,,合同会社,岐阜県,加茂郡八百津町,和知８６２－１,,21,505,5050305,,,,,,,2023-12-26,1,,,,,イトクニショウテン,0
2306,9250001020443,新規,0,2023-12-26,2023-12-26,株式会社Ｍｕｙｂｉｅｎ,,株式会社,山口県,岩国市,由宇町港１丁目１３番５号,,35,208,7401424,,,,,,,2023-12-26,1,,,,,ムイビエン,0
2307,9250001020451,新規,0,2023-12-26,2023-12-26,株式会社アトモディカ,,株式会社,山口県,山口市,矢原町７番１８号,,35,203,7530825,,,,,,,2023-12-26,1,,,,,,0
2310,9260001038609,新規,0,2023-12-26,2023-12-26,株式会社ＶＮＰ,,株式会社,岡山県,岡山市中区,桑野１５０番地３５,,33,102,7028002,,,,,,,2023-12-26,1,,,,,ヴィエヌピー,0
2323,9290001104184,新規,0,2023-12-26,2023-12-26,株式会社広隆ビル,,株式会社,福岡県,福岡市中央区,渡辺通１丁目８番１７－２０５号,,40,133,8100004,,,,,,,2023-12-26,1,,,,,コウリュウビル,0
2333,9290003014803,新規,0,2023-12-26,2023-12-26,ＫＲＯＷ合同会社,,合同会社,福岡県,久留米市,荒木町荒木１９０５番地４,,40,203,8300063,,,,,,,2023-12-26,1,,,,,クロウ,0
2334,9290801030167,新規,0,2023-12-26,2023-12-26,株式会社ｐｏ‐ｎｏ,,株式会社,福岡県,北九州市八幡西区,東鳴水１丁目２番１９－２号,,40,109,8060051,,,,,,,2023-12-26,1,,,,,ポノ,0
2337,9290805009694,新規,0,2023-12-26,2023-12-26,医療法人ありまつ矯正歯科医院,,その他の設立登記法人,福岡県,北九州市八幡西区,黒崎３丁目１番７号アースコート黒崎駅前ＢＬＤＧ．２階,,40,109,8060021,,,,,,,2023-12-26,1,,,,,アリマツキョウセイシカイイン,0
2348,9340001026175,新規,0,2023-12-26,2023-12-26,川口内装株式会社,,株式会社,鹿児島県,南さつま市,加世田小湊８１７６－１３,,46,220,8971122,,,,,,,2023-12-26,1,,,,,カワグチナイソウ,0
2350,9350005006197,新規,0,2023-12-26,2023-12-26,無限責任假屋負債整理組合,,その他の設立登記法人,宮崎県,日南市,,,45,204,8870000,,,,,,,2023-12-26,1,,,,,,0
2353,9370001050775,新規,0,2023-12-26,2023-12-26,株式会社土壌ＣＬＥＡＮ,,株式会社,宮城県,仙台市青葉区,中山４丁目１番１０号,,04,101,9810952,,,,,,,2023-12-26,1,,,,,ドジョウクリーン,0
2368,9430001090724,新規,0,2023-12-26,2023-12-26,株式会社Ｃｈｅｒｉｓｈ,,株式会社,北海道,札幌市西区,琴似一条５丁目３番１８号,,01,107,0630811,,,,,,,2023-12-26,1,,,,,チェリッシュ,0
2369,9430001090732,新規,0,2023-12-26,2023-12-26,株式会社ケアタイムズ,,株式会社,北海道,札幌市豊平区,平岸三条８丁目４番３号メゾンドシャルム４１０号室,,01,105,0620933,,,,,,,2023-12-26,1,,,,,ケアタイムズ,0
2374,9430003015794,新規,0,2023-12-26,2023-12-26,合同会社企々會々,,合同会社,北海道,札幌市中央区,南一条西１６丁目１番地３２３春野ビル３Ｆ,,01,101,0600061,,,,,,,2023-12-26,1,,,,,キキカイカイ,0
2377,9460301005189,新規,0,2023-12-26,2023-12-26,長尾カーメンテナンス株式会社,,株式会社,北海道,網走郡美幌町,字栄町４丁目５番地１５,,01,543,0920012,,,,,,,2023-12-26,1,,,,,ナガオカーメンテナンス,0
2379,9470001019959,新規,0,2023-12-26,2023-12-26,株式会社カメハウス,,株式会社,香川県,高松市,国分寺町福家甲３１５８番地５,,37,201,7690103,,,,,,,2023-12-26,1,,,,,カメハウス,0
2380,9480001012335,新規,0,2023-12-26,2023-12-26,株式会社Ｏｎｅ　Ｖｉｌｅｃｔｉｏｎ,,株式会社,徳島県,板野郡北島町,鯛浜字西中野８番地１ティラーノＧ１０２号,,36,402,7710204,,,,,,,2023-12-26,1,,,,,ワンヴィレクション,0
