sequenceNumber,corporateNumber,process,correct,updateDate,changeDate,name,nameImageId,kind,prefectureName,cityName,streetNumber,addressImageId,prefectureCode,cityCode,postCode,addressOutside,addressOutsideImageId,closeDate,closeCause,successorCorporateNumber,changeCause,assignmentDate,latest,enName,enPrefectureName,enCityName,enAddressOutside,furigana,hihyoji
40,1010405020847,登記記録の閉鎖等,0,2025-05-08,2025-04-07,一般社団法人カーボンニュートラル総合研究所,,その他の設立登記法人,東京都,港区,浜松町２丁目２番１５号浜松町ダイヤビル２Ｆ,,13,103,1050013,,,2025-04-07,清算の結了等,,,2022-03-29,1,,,,,カーボンニュートラルソウゴウケンキュウジョ,0
43,1010501042877,登記記録の閉鎖等,0,2025-05-08,2025-04-14,株式会社ライフエナジー,,株式会社,東京都,台東区,東上野３丁目３番３号プラチナビルＢ１階,,13,106,1100015,,,2025-04-14,清算の結了等,,,2018-07-27,1,,,,,ライフエナジー,0
56,1010803001218,登記記録の閉鎖等,0,2025-05-08,2025-04-21,合同会社アーバンネット,,合同会社,東京都,大田区,大森本町２丁目４番２２号,,13,111,1430011,,,2025-04-21,清算の結了等,,,2015-10-05,1,,,,,アーバンネット,0
79,1012403002942,登記記録の閉鎖等,0,2025-05-08,2025-04-25,合同会社ＤＩＶＩＮＥ　ＦＯＲＭ,,合同会社,東京都,武蔵野市,吉祥寺南町３丁目２４番５号,,13,203,1800003,,,2025-04-25,清算の結了等,,,2017-01-18,1,,,,,ディヴァインフォルム,0
99,1021002036319,登記記録の閉鎖等,0,2025-05-08,2025-05-07,有限会社バックオフィス,,有限会社,神奈川県,厚木市,旭町５丁目４３番１３－２０３号,,14,212,2430014,,,2025-05-07,清算の結了等,,,2015-10-05,1,,,,,バックオフィス,0
111,1030002083287,登記記録の閉鎖等,0,2025-05-08,2025-05-01,有限会社コスモ測地設計,,有限会社,埼玉県,北本市,宮内２丁目１４７番地,,11,233,3640002,,,2025-05-01,清算の結了等,,,2015-10-05,1,,,,,コスモソクチセッケイ,0
128,1060001024925,登記記録の閉鎖等,0,2025-05-08,2025-04-25,株式会社水仙,,株式会社,栃木県,那須塩原市,若草町１１８番地６４８,,09,213,3250032,,,2025-04-25,清算の結了等,,,2015-10-05,1,,,,,スイセン,0
134,1070001009033,登記記録の閉鎖等,0,2025-05-08,2025-05-01,株式会社昭萬,,株式会社,群馬県,高崎市,請地町１３番地１,,10,202,3700067,,,2025-05-01,清算の結了等,,,2015-10-05,1,,,,,ショウマン,0
161,1120001109397,登記記録の閉鎖等,0,2025-05-08,2025-04-21,ジーワン株式会社,,株式会社,東京都,渋谷区,桜丘町１４－１,,13,113,1500031,,,2025-04-21,合併による解散等,7010401003263,令和７年４月１日東京都港区赤坂二丁目２１番１２号株式会社医薬情報ネット（7010401003263）に合併し解散,2015-10-05,1,,,,,ジーワン,0
167,1120002045559,登記記録の閉鎖等,0,2025-05-08,2025-05-01,有限会社ベストソリューション,,有限会社,大阪府,大阪市東住吉区,北田辺４丁目１５番１７号,,27,121,5460044,,,2025-05-01,合併による解散等,6120002005384,令和７年５月１日大阪市東住吉区北田辺四丁目１５番１７号株式会社共伸興産（6120002005384）に合併し解散,2015-10-05,1,,,,,ベストソリューション,0
195,1150005006539,登記記録の閉鎖等,0,2025-05-08,2025-05-02,特定非営利活動法人日本代替医療保健機構,,その他の設立登記法人,奈良県,葛城市,西辻２４６番地３,00044046,29,211,6392125,,,2025-05-02,清算の結了等,,,2015-10-05,1,,,,,ニホンダイタイイリョウホケンキコウ,0
201,1180001141072,登記記録の閉鎖等,0,2025-05-08,2025-04-17,株式会社ＡＳＬＥＡＤ,,株式会社,愛知県,名古屋市緑区,水広３丁目８０８番地の１,,23,114,4580848,,,2025-04-17,清算の結了等,,,2020-05-14,1,,,,,アスリード,0
202,1180001158488,登記記録の閉鎖等,0,2025-05-08,2025-04-25,Ｓｕｎｎｙ　Ｌａｂ株式会社,,株式会社,愛知県,名古屋市中村区,名駅２丁目３８番２号オーキッドビル８階,,23,105,4500002,,,2025-04-25,清算の結了等,,,2023-10-16,1,,,,,サニーラボ,0
215,1190001021983,登記記録の閉鎖等,0,2025-05-08,2025-04-25,株式会社ＪＩＮＺＡＩ,,株式会社,三重県,鈴鹿市,平野町６２１番地の３,,24,207,5130835,,,2025-04-25,清算の結了等,,,2015-10-05,1,,,,,ジンザイ,0
229,1240001016441,登記記録の閉鎖等,0,2025-05-08,2025-05-02,株式会社ＥＣＳ,,株式会社,広島県,広島市南区,金屋町３番１３号,,34,103,7320825,,,2025-05-02,合併による解散等,8010701021113,令和７年４月１日東京都品川区西五反田二丁目１１番８号株式会社エフプラス（8010701021113）に合併し解散,2015-10-05,1,,,,,イーシーエス,0
234,1240005015101,登記記録の閉鎖等,0,2025-05-08,2025-04-28,特定非営利活動法人Ｒｅ　Ｓｔｅｐ,,その他の設立登記法人,広島県,福山市,東陽台１丁目１１番９号,,34,207,7210912,,,2025-04-28,清算の結了等,,,2020-10-21,1,,,,,リステップ,0
238,1270001007306,登記記録の閉鎖等,0,2025-05-08,2025-05-01,株式会社アカマツ,,株式会社,鳥取県,日野郡日野町,貝原１３番地１,,31,402,6894501,,,2025-05-01,合併による解散等,4270001003962,令和７年５月１日鳥取県日野郡日野町高尾２３８番地レイズワン株式会社（4270001003962）に合併し解散,2017-07-21,1,,,,,アカマツ,0
252,1290802025917,登記記録の閉鎖等,0,2025-05-08,2025-05-01,有限会社アールアンドケイ,,有限会社,福岡県,田川郡福智町,伊方２４８０番地１,,40,610,8221211,,,2025-05-01,清算の結了等,,,2015-10-05,1,,,,,アールアンドケイ,0
253,1300001007038,登記記録の閉鎖等,0,2025-05-08,2025-05-02,株式会社未来システム開発,,株式会社,佐賀県,西松浦郡有田町,本町乙３０５９－４,,41,401,8440018,,,2025-05-02,清算の結了等,,,2015-10-05,1,,,,,ミライシステムカイハツ,0
265,1360003009794,登記記録の閉鎖等,0,2025-05-08,2025-04-22,合同会社靖組,,合同会社,沖縄県,宜野湾市,赤道１丁目８番７号,,47,205,9012205,,,2025-04-22,清算の結了等,,,2019-10-02,1,,,,,ヤスグミ,0
268,1360005003267,登記記録の閉鎖等,0,2025-05-08,2025-04-22,沖縄砕石事業協同組合,,その他の設立登記法人,沖縄県,名護市,字山入端２番地,,47,209,9050008,,,2025-04-22,清算の結了等,,,2015-10-05,1,,,,,オキナワサイセキ,0
289,1430002003709,登記記録の閉鎖等,0,2025-05-08,2025-04-30,有限会社大川表具店,,有限会社,北海道,札幌市西区,発寒七条７丁目３番２０号,,01,107,0630827,,,2025-04-30,清算の結了等,,,2015-10-05,1,,,,,オオカワヒョウグテン,0
307,2010001034093,登記記録の閉鎖等,0,2025-05-08,2025-04-15,株式会社東京技能者協会,,株式会社,東京都,千代田区,岩本町３丁目２番２号,,13,101,1010032,,,2025-04-15,清算の結了等,,,2015-10-05,1,,,,,トウキョウギノウシャキョウカイ,0
309,2010001125529,登記記録の閉鎖等,0,2025-05-08,2025-04-23,エービット株式会社,,株式会社,東京都,墨田区,石原３丁目２０番９号,,13,107,1300011,,,2025-04-23,清算の結了等,,,2015-10-05,1,,,,,エービット,0
311,2010001160831,登記記録の閉鎖等,0,2025-05-08,2025-04-14,株式会社アスペクト,,株式会社,東京都,台東区,上野７丁目１１番６号,,13,106,1100005,,,2025-04-14,清算の結了等,,,2015-10-05,1,,,,,,0
319,2010003019992,登記記録の閉鎖等,0,2025-05-08,2025-04-14,合同会社アセット投資事業４６１号,,合同会社,東京都,中央区,日本橋１丁目４番１号日本橋一丁目ビルディング,,13,102,1030027,,,2025-04-14,清算の結了等,,,2015-10-05,1,,,,,アセットトウシジギョウヨンロクイチゴウ,0
321,2010005030650,登記記録の閉鎖等,0,2025-05-08,2025-05-01,一般社団法人ＬＩＧＮＵＭ,,その他の設立登記法人,東京都,中央区,日本橋２丁目５番１号,,13,102,1030027,,,2025-05-01,清算の結了等,,,2019-08-26,1,,,,,リグナム,0
333,2010403019312,登記記録の閉鎖等,0,2025-05-08,2025-04-07,合同会社浅草プロパティーズ,,合同会社,東京都,港区,虎ノ門２丁目６番１号虎ノ門ヒルズステーションタワー,,13,103,1050001,,,2025-04-07,清算の結了等,,,2018-09-13,1,,,,,アサクサプロパティーズ,0
340,2010601063855,登記記録の閉鎖等,0,2025-05-08,2025-04-23,株式会社あめとゆき,,株式会社,東京都,墨田区,八広６丁目１番１－１１０４号,,13,107,1310041,,,2025-04-23,清算の結了等,,,2023-09-27,1,,,,,アメトユキ,0
361,2011802015661,登記記録の閉鎖等,0,2025-05-08,2025-05-01,有限会社田村商店,,有限会社,東京都,足立区,皿沼３丁目１番６号,,13,121,1230862,,,2025-05-01,清算の結了等,,,2015-10-05,1,,,,,タムラショウテン,0
364,2011805001659,登記記録の閉鎖等,0,2025-05-08,2025-04-24,特定非営利活動法人国際養護人脈交流援助会,,その他の設立登記法人,東京都,足立区,鹿浜２丁目２０番１８号エースビル２Ｆ,,13,121,1230864,,,2025-04-24,清算の結了等,,,2015-10-05,1,,,,,コクサイヨウゴジンミャクコウリュウエンジョカイ,0
372,2012802003227,登記記録の閉鎖等,0,2025-05-08,2025-04-23,有限会社シマネ製作所,,有限会社,東京都,昭島市,宮沢町２丁目２４番１２号,,13,207,1960024,,,2025-04-23,清算の結了等,,,2015-10-05,1,,,,,,0
373,2013202003164,登記記録の閉鎖等,0,2025-05-08,2025-04-07,有限会社神生不動産,,有限会社,東京都,目黒区,鷹番３丁目７番１４号,,13,110,1520004,,,2025-04-07,清算の結了等,,,2015-10-05,1,,,,,シンセイフドウサン,0
378,2020001019614,登記記録の閉鎖等,0,2025-05-08,2025-04-28,株式会社遠藤製作所,00009297,株式会社,神奈川県,横浜市港北区,新吉田町２０４番地,,14,109,2230056,,,2025-04-28,清算の結了等,,,2015-10-05,1,,,,,エンドウセイサクジョ,0
404,2021001030387,登記記録の閉鎖等,0,2025-05-08,2025-04-30,株式会社アクティブ,,株式会社,東京都,町田市,原町田３丁目２番６号,,13,209,1940013,,,2025-04-30,合併による解散等,6030001102282,令和７年４月１日東京都千代田区岩本町三丁目４番３号株式会社ネクストエンタープライズ（6030001102282）に合併し解散,2015-10-05,1,,,,,アクティブ,0
420,2040001021857,登記記録の閉鎖等,0,2025-05-08,2025-04-18,株式会社生活文化舎,,株式会社,千葉県,船橋市,東船橋２丁目２番２号,,12,204,2730002,,,2025-04-18,清算の結了等,,,2015-10-05,1,,,,,セイカツブンカシャ,0
430,2060002019592,登記記録の閉鎖等,0,2025-05-08,2025-04-25,ウエダ・デンタル・ラボラトリー有限会社,,有限会社,栃木県,鹿沼市,栄町１丁目３５番地２３,,09,205,3220028,,,2025-04-25,清算の結了等,,,2015-10-05,1,,,,,ウエダデンタルラボラトリー,0
506,2180003020802,登記記録の閉鎖等,0,2025-05-08,2025-04-25,合同会社Ｈｅｌｌｏ，ｍｙ　ｆｒｉｅｎｄ,,合同会社,愛知県,小牧市,大字小牧原新田２７０４番地,,23,219,4850012,,,2025-04-25,清算の結了等,,,2020-02-03,1,,,,,ハローマイフレンド,0
511,2180302026087,登記記録の閉鎖等,0,2025-05-08,2025-04-28,有限会社神谷エネックス,,有限会社,愛知県,西尾市,平坂町上縄１３９番地２,,23,213,4440305,,,2025-04-28,清算の結了等,,,2015-10-05,1,,,,,カミヤエネックス,0
513,2190002007832,登記記録の閉鎖等,0,2025-05-08,2025-04-28,有限会社みやびのそら,,有限会社,三重県,鈴鹿市,寺家２丁目１５番１０号,,24,207,5100254,,,2025-04-28,清算の結了等,,,2015-10-05,1,,,,,ミヤビノソラ,0
518,2210002001659,登記記録の閉鎖等,0,2025-05-08,2025-05-02,有限会社インテリアフジタ,,有限会社,福井県,福井市,成和２丁目１２０３番地,,18,201,9188239,,,2025-05-02,清算の結了等,,,2015-10-05,1,,,,,インテリアフジタ,0
519,2210002011583,登記記録の閉鎖等,0,2025-05-08,2025-05-02,有限会社川端文栄堂,,有限会社,福井県,越前市,平出２丁目４番７号,,18,209,9150803,,,2025-05-02,清算の結了等,,,2015-10-05,1,,,,,カワバタブンエイドウ,0
549,2290005007299,登記記録の閉鎖等,0,2025-05-08,2025-04-30,医療法人久保山脳神経外科医院,,その他の設立登記法人,福岡県,朝倉市,柿原７９３番地,,40,228,8380026,,,2025-04-30,清算の結了等,,,2015-10-05,1,,,,,クボヤマノウシンケイゲカイイン,0
553,2290802013722,登記記録の閉鎖等,0,2025-05-08,2025-05-01,有限会社かない食品,,有限会社,福岡県,北九州市八幡西区,香月西３丁目２番１２号,,40,109,8071103,,,2025-05-01,合併による解散等,4290801012806,令和７年５月１日北九州市八幡西区香月西三丁目２番１２号株式会社ゆう美（4290801012806）に合併し解散,2015-10-05,1,,,,,カナイショクヒン,0
562,2330001021200,登記記録の閉鎖等,0,2025-05-08,2025-04-25,株式会社ＫＮポーク,,株式会社,熊本県,菊池市,旭志伊坂２６０番地,,43,210,8691206,,,2025-04-25,清算の結了等,,,2015-10-05,1,,,,,ケイエヌポーク,0
578,2380001006270,登記記録の閉鎖等,0,2025-05-08,2025-05-02,株式会社ピーエーエム,,株式会社,福島県,郡山市,八山田６丁目５７番地,,07,203,9638052,,,2025-05-02,合併による解散等,2370001003186,令和７年４月１８日仙台市若林区卸町二丁目１１番地３株式会社シバタインテック（2370001003186）に合併し解散,2015-10-05,1,,,,,ピーエーエム,0
601,2460001005801,登記記録の閉鎖等,0,2025-05-08,2025-05-01,株式会社カラークリエイト,,株式会社,北海道,釧路市,暁町１２番２１号,,01,206,0850054,,,2025-05-01,合併による解散等,9460003000827,令和７年４月２１日北海道釧路市暁町１２番２１号合同会社Ｒｅａｌｉｄｅａ（9460003000827）に合併し解散,2023-06-14,1,,,,,カラークリエイト,0
617,3010001053092,登記記録の閉鎖等,0,2025-05-08,2025-04-14,株式会社波輝,,株式会社,東京都,中央区,銀座５丁目１番先,,13,102,1040061,,,2025-04-14,清算の結了等,,,2015-10-05,1,,,,,ナミキ,0
634,3010401140250,登記記録の閉鎖等,0,2025-05-08,2025-04-04,リノベシアアーキテクト株式会社,,株式会社,東京都,港区,芝浦１丁目９番３号,,13,103,1050023,,,2025-04-04,清算の結了等,,,2018-08-14,1,,,,,リノベシアアーキテクト,0
635,3010401166675,登記記録の閉鎖等,0,2025-05-08,2025-04-07,モリソン製薬株式会社,,株式会社,東京都,港区,赤坂７丁目９－４,,13,103,1070052,,,2025-04-07,清算の結了等,,,2022-04-06,1,,,,,モリソンセイヤク,0
637,3010402035549,登記記録の閉鎖等,0,2025-05-08,2025-04-04,有限会社アクトパワー,,有限会社,東京都,港区,芝浦２丁目１番１１－７０３号,,13,103,1080023,,,2025-04-04,清算の結了等,,,2015-10-05,1,,,,,,0
650,3010701018188,登記記録の閉鎖等,0,2025-05-08,2025-04-09,株式会社Ｔ．Ｅ．Ｋ．,,株式会社,東京都,品川区,荏原１丁目５番１９号,,13,109,1420063,,,2025-04-09,清算の結了等,,,2015-10-05,1,,,,,ティーイーケイ,0
656,3010801007198,登記記録の閉鎖等,0,2025-05-08,2025-04-22,株式会社だるま堂,,株式会社,東京都,大田区,上池台１丁目１１番２号,,13,111,1450064,,,2025-04-22,清算の結了等,,,2015-10-05,1,,,,,ダルマドウ,0
661,3010902014878,登記記録の閉鎖等,0,2025-05-08,2025-05-02,有限会社宮内工務店,,有限会社,東京都,世田谷区,粕谷３丁目２４番２０号,,13,112,1570063,,,2025-05-02,清算の結了等,,,2015-10-05,1,,,,,ミヤウチコウムテン,0
670,3011001132027,登記記録の閉鎖等,0,2025-05-08,2025-04-03,Ｒｏｕｔｅ４株式会社,,株式会社,東京都,渋谷区,笹塚１丁目５５番７号マルエスファーストビル,,13,113,1510073,,,2025-04-03,清算の結了等,,,2020-01-27,1,,,,,ルートフォー,0
671,3011001153502,登記記録の閉鎖等,0,2025-05-08,2025-04-11,株式会社スポーツオアシス,,株式会社,東京都,墨田区,両国２丁目１０番１４号,,13,107,1300026,,,2025-04-11,合併による解散等,3010601020797,令和７年４月１日東京都墨田区両国二丁目１０番１４号株式会社ルネサンス（3010601020797）に合併し解散,2023-04-05,1,,,,,スポーツオアシス,0
707,3020001121328,登記記録の閉鎖等,0,2025-05-08,2025-04-17,株式会社碧和舎,,株式会社,神奈川県,横浜市磯子区,杉田５丁目２３番２号,,14,107,2350033,,,2025-04-17,清算の結了等,,,2017-05-16,1,,,,,ヘキワシャ,0
720,3030001063107,登記記録の閉鎖等,0,2025-05-08,2025-05-02,株式会社昌見屋,,株式会社,埼玉県,南埼玉郡宮代町,字東８１７番地２,,11,442,3450814,,,2025-05-02,清算の結了等,,,2015-10-05,1,,,,,マサミヤ,0
731,3030002095925,登記記録の閉鎖等,0,2025-05-08,2025-05-01,株式会社新星,,株式会社,埼玉県,東松山市,松山町１丁目４番２４号,,11,212,3550018,,,2025-05-01,合併による解散等,6030001070752,令和７年５月１日埼玉県東松山市松山町一丁目４番２４号株式会社大村製作所（6030001070752）に合併し解散,2015-10-05,1,,,,,シンセイ,0
735,3040003012589,登記記録の閉鎖等,0,2025-05-08,2025-04-18,ＺＡＩＮＡ　ＴＲＡＤＩＮＧ合同会社,,合同会社,千葉県,八街市,八街は１番地９６,,12,230,2891107,,,2025-04-18,清算の結了等,,,2018-12-11,1,,,,,ザイナトレーディング,0
736,3040005004411,登記記録の閉鎖等,0,2025-05-08,2025-04-17,特定非営利活動法人鎌ヶ谷たすけあいの会,,その他の設立登記法人,千葉県,鎌ケ谷市,初富本町２丁目１２番１９号,,12,224,2730125,,,2025-04-17,清算の結了等,,,2015-10-05,1,,,,,カマガヤタスケアイノカイ,0
737,3050002001518,登記記録の閉鎖等,0,2025-05-08,2025-04-25,有限会社佐藤製作所,,有限会社,茨城県,水戸市,東野町字東割２７３番地１９号,,08,201,3100846,,,2025-04-25,清算の結了等,,,2015-10-05,1,,,,,サトウセイサクショ,0
738,3050002010840,登記記録の閉鎖等,0,2025-05-08,2025-04-25,有限会社マックスフード,,有限会社,茨城県,笠間市,泉２番地３２,,08,216,3190209,,,2025-04-25,清算の結了等,,,2015-10-05,1,,,,,マックスフード,0
755,3080401004275,登記記録の閉鎖等,0,2025-05-08,2025-04-28,株式会社袴田工業,,株式会社,静岡県,浜松市中央区,入野町１００４０番地の１,,22,138,4328061,,,2025-04-28,清算の結了等,,,2015-10-05,1,,,,,ハカマタコウギョウ,0
759,3080402007161,登記記録の閉鎖等,0,2025-05-08,2025-04-30,有限会社富士木工所,,有限会社,静岡県,浜松市中央区,湖東町１８１５番地の４１,,22,138,4311103,,,2025-04-30,清算の結了等,,,2015-10-05,1,,,,,フジモッコウショ,0
815,3140001012853,登記記録の閉鎖等,0,2025-05-08,2025-04-30,株式会社金生堂,,株式会社,兵庫県,神戸市兵庫区,東山町２丁目８番９号,,28,105,6520042,,,2025-04-30,清算の結了等,,,2015-10-05,1,,,,,キンセイドウ,0
824,3180001005531,登記記録の閉鎖等,0,2025-05-08,2025-04-30,株式会社富士通アドバンストシステムズ,,株式会社,愛知県,名古屋市中村区,名駅１丁目１番３号,,23,105,4500002,,,2025-04-30,合併による解散等,1020001071491,令和７年４月１日川崎市中原区上小田中四丁目１番１号富士通株式会社（1020001071491）に合併し解散,2015-10-05,1,,,,,フジツウアドバンストシステムズ,0
825,3180001039777,登記記録の閉鎖等,0,2025-05-08,2025-04-28,株式会社ブルーウォーター,,株式会社,愛知県,北名古屋市,鹿田流６２番地の１,,23,234,4810004,,,2025-04-28,清算の結了等,,,2015-10-05,1,,,,,ブルーウォーター,0
828,3180001104795,登記記録の閉鎖等,0,2025-05-08,2025-04-30,株式会社鈴和工芸,,株式会社,愛知県,名古屋市東区,徳川１丁目８番３４号,,23,102,4610025,,,2025-04-30,清算の結了等,,,2015-10-05,1,,,,,スズワコウゲイ,0
849,3190001005522,登記記録の閉鎖等,0,2025-05-08,2025-05-01,株式会社マルヤマ,,株式会社,三重県,鈴鹿市,高岡台１丁目７番１０号,,24,207,5130019,,,2025-05-01,清算の結了等,,,2015-10-05,1,,,,,マルヤマ,0
850,3190001014267,登記記録の閉鎖等,0,2025-05-08,2025-04-25,株式会社イシン,,株式会社,三重県,四日市市,大井手３丁目６番３号,,24,202,5100835,,,2025-04-25,清算の結了等,,,2015-10-05,1,,,,,イシン,0
851,3190001015414,登記記録の閉鎖等,0,2025-05-08,2025-04-30,大和建産株式会社,,株式会社,三重県,四日市市,大字西阿倉川１６２０番地,,24,202,5100812,,,2025-04-30,清算の結了等,,,2015-10-05,1,,,,,ダイワケンサン,0
853,3190002002072,登記記録の閉鎖等,0,2025-05-08,2025-04-28,有限会社駒田フラワーガーデン,,有限会社,三重県,津市,芸濃町椋本１８２５番地,,24,201,5142211,,,2025-04-28,清算の結了等,,,2015-10-05,1,,,,,コマダフラワーガーデン,0
882,3290001024314,登記記録の閉鎖等,0,2025-05-08,2025-04-22,株式会社南海,,株式会社,福岡県,福岡市南区,的場２丁目４１番５号,,40,134,8111314,,,2025-04-22,清算の結了等,,,2015-10-05,1,,,,,,0
897,3310001007860,登記記録の閉鎖等,0,2025-05-08,2025-05-02,諫早乳業株式会社,,株式会社,長崎県,諫早市,正久寺町１１８番地,,42,204,8590302,,,2025-05-02,清算の結了等,,,2015-10-05,1,,,,,イサハヤニュウギョウ,0
916,3380002009783,登記記録の閉鎖等,0,2025-05-08,2025-04-24,有限会社三楽書道会,,有限会社,福島県,郡山市,麓山１丁目１６番３号,,07,203,9638876,,,2025-04-24,清算の結了等,,,2015-10-05,1,,,,,サンラクショドウカイ,0
922,3400502000776,登記記録の閉鎖等,0,2025-05-08,2025-04-17,有限会社日産材木店,,有限会社,岩手県,西磐井郡平泉町,平泉字伽羅楽６３番地３,,03,402,0294102,,,2025-04-17,清算の結了等,,,2015-10-05,1,,,,,ニッサンザイモクテン,0
926,3420001002009,登記記録の閉鎖等,0,2025-05-08,2025-04-25,萬成企業株式会社,,株式会社,青森県,青森市,花園１丁目２８番６号,,02,201,0300966,,,2025-04-25,清算の結了等,,,2015-10-05,1,,,,,,0
928,3420001008708,登記記録の閉鎖等,0,2025-05-08,2025-04-24,株式会社ナガタ,,株式会社,青森県,つがる市,木造千代町７２番地１,,02,209,0383145,,,2025-04-24,清算の結了等,,,2015-10-05,1,,,,,,0
932,3430003007450,登記記録の閉鎖等,0,2025-05-08,2025-04-28,株式会社あいふるサポート,,株式会社,北海道,虻田郡留寿都村,字留寿都１５６番地３５,,01,397,0481731,,,2025-04-28,清算の結了等,,,2016-03-18,1,,,,,アイフルサポート,0
943,3470005003436,登記記録の閉鎖等,0,2025-05-08,2025-04-01,社会福祉法人林田保育園,,その他の設立登記法人,香川県,坂出市,林田町３２３０番地１,,37,203,7620012,,,2025-04-01,合併による解散等,1470005005236,令和７年４月１日香川県丸亀市飯山町川原字北岸１８５番地１社会福祉法人浩福会（1470005005236）に合併し解散,2015-10-05,1,,,,,ハヤシダホイクエン,0
946,3500002022542,登記記録の閉鎖等,0,2025-05-08,2025-05-01,有限会社宇和島スズキ整備工場,,有限会社,愛媛県,宇和島市,祝森甲４６６４番地,,38,203,7980078,,,2025-05-01,合併による解散等,2500001015317,令和７年５月１日愛媛県宇和島市祝森甲４６６６番地１株式会社トラック１バン（2500001015317）に合併し解散,2015-10-05,1,,,,,ウワジマスズキセイビコウジョウ,0
957,4010001218751,登記記録の閉鎖等,0,2025-05-08,2025-04-14,株式会社ＯＯＣ,,株式会社,東京都,中央区,日本橋本町３丁目３－６ワカ末ビル７階,,13,102,1030023,,,2025-04-14,清算の結了等,,,2021-06-11,1,,,,,オーオーシー,0
966,4010101015578,登記記録の閉鎖等,0,2025-05-08,2025-04-28,龍城商事株式会社,,株式会社,東京都,八王子市,東町１０－３－１０１,,13,201,1920082,,,2025-04-28,清算の結了等,,,2023-04-06,1,,,,,リュウジョウショウジ,0
968,4010103000933,登記記録の閉鎖等,0,2025-05-08,2025-04-30,ダルクラデス合同会社,,合同会社,東京都,八王子市,万町１６番地１ヴィアーレＮＯ．１－１０１号,,13,201,1920903,,,2025-04-30,清算の結了等,,,2016-02-22,1,,,,,ダルクラデス,0
982,4010502014971,登記記録の閉鎖等,0,2025-05-08,2025-04-14,有限会社加瀬製作所,,有限会社,東京都,台東区,松が谷３丁目５番６号,,13,106,1110036,,,2025-04-14,清算の結了等,,,2015-10-05,1,,,,,カセセイサクショ,0
1008,4011701021453,登記記録の閉鎖等,0,2025-05-08,2025-04-25,株式会社ＦＲＩＥＮＤＳＨＩＰ,,株式会社,東京都,江戸川区,船堀３丁目１６番７－３０５号,,13,123,1340091,,,2025-04-25,清算の結了等,,,2018-01-15,1,,,,,フレンドシップ,0
1017,4012401011224,登記記録の閉鎖等,0,2025-05-08,2025-04-30,株式会社サン・タナカ,,株式会社,東京都,武蔵野市,境１丁目２２番９号,,13,203,1800022,,,2025-04-30,清算の結了等,,,2015-10-05,1,,,,,サンタナカ,0
1023,4013301018499,登記記録の閉鎖等,0,2025-05-08,2025-04-15,兆光株式会社,,株式会社,東京都,豊島区,要町３丁目３７番１号,,13,116,1710043,,,2025-04-15,清算の結了等,,,2015-10-05,1,,,,,チョウコウ,0
1030,4020001130014,登記記録の閉鎖等,0,2025-05-08,2025-04-14,株式会社アス企画,,株式会社,神奈川県,川崎市幸区,小倉１番地１－Ｆ－２２１,,14,132,2120054,,,2025-04-14,清算の結了等,,,2019-02-21,1,,,,,アスキカク,0
1039,4020003004892,登記記録の閉鎖等,0,2025-05-08,2025-04-17,合同会社スタジオロエス,,合同会社,神奈川県,横浜市緑区,寺山町３６７番地,,14,113,2260013,,,2025-04-17,清算の結了等,,,2015-10-05,1,,,,,スタジオロエス,0
1073,4090002002239,登記記録の閉鎖等,0,2025-05-08,2025-04-24,有限会社長坂エステート,,有限会社,山梨県,甲府市,相生１丁目９番３号,,19,201,4000858,,,2025-04-24,清算の結了等,,,2015-10-05,1,,,,,ナガサカエステート,0
1078,4100005010914,登記記録の閉鎖等,0,2025-05-08,2025-04-28,一般社団法人ペットの幸せと暮らしを考える女性たちの会,,その他の設立登記法人,長野県,上田市,菅平高原１２７８番地２８３８,,20,203,3862204,,,2025-04-28,清算の結了等,,,2015-10-05,1,,,,,ペットノシアワセトクラシヲカンガエルジョセイタチノカイ,0
1099,4120005017858,登記記録の閉鎖等,0,2025-05-08,2025-04-28,一般社団法人ＪＥＩＳＯ,,その他の設立登記法人,大阪府,大阪市城東区,東中浜９丁目４番４号,,27,118,5360023,,,2025-04-28,清算の結了等,,,2015-10-05,1,,,,,ジェイソ,0
1111,4120901043783,登記記録の閉鎖等,0,2025-05-08,2025-04-22,株式会社ＩＩＤＡ,,株式会社,大阪府,豊中市,中桜塚４丁目８番１－４０２号,00130677,27,203,5610881,,,2025-04-22,清算の結了等,,,2021-01-22,1,,,,,イイダ,0
1121,4130005016603,登記記録の閉鎖等,0,2025-05-08,2025-05-07,税理士法人橋本・森崎事務所,,その他の設立登記法人,京都府,京都市下京区,東洞院通七条下る塩小路町５２４番地１パデシオン京都駅前２０５,,26,106,6008212,,,2025-05-07,清算の結了等,,,2022-10-07,1,,,,,ハシモトモリサキジムシヨ,0
1123,4140001021688,登記記録の閉鎖等,0,2025-05-08,2025-05-01,株式会社神明ロジスティクス,,株式会社,兵庫県,神戸市中央区,栄町通６丁目１番２１号,,28,110,6500023,,,2025-05-01,合併による解散等,9010001191011,令和７年４月１日東京都中央区日本橋小網町１６番１５号株式会社神明（9010001191011）に合併し解散,2015-10-05,1,,,,,シンメイロジスティクス,0
1127,4140002035076,登記記録の閉鎖等,0,2025-05-08,2025-04-30,有限会社イマイテレット,,有限会社,兵庫県,丹波篠山市,郡家１３０番地１７,,28,221,6692341,,,2025-04-30,清算の結了等,,,2015-10-05,1,,,,,イマイテレット,0
1131,4150005006734,登記記録の閉鎖等,0,2025-05-08,2025-04-28,特定非営利活動法人やまと自然と虫の会,,その他の設立登記法人,奈良県,橿原市,和田町１１－１７サングローリー１０７,,29,205,6340041,,,2025-04-28,清算の結了等,,,2015-10-05,1,,,,,ヤマトシゼントムシノカイ,0
1137,4180001065178,登記記録の閉鎖等,0,2025-05-08,2025-05-07,株式会社前進,,株式会社,愛知県,日進市,岩崎台２丁目１９０９番地６,,23,230,4700135,,,2025-05-07,清算の結了等,,,2015-10-05,1,,,,,ゼンシン,0
1161,4220001012464,登記記録の閉鎖等,0,2025-05-08,2025-04-30,丸西産業株式会社,,株式会社,石川県,小松市,一針町ワ６５番地１,,17,203,9230043,,,2025-04-30,清算の結了等,,,2015-10-05,1,,,,,マルニシサンギョウ,0
1174,4260001024118,登記記録の閉鎖等,0,2025-05-08,2025-04-24,ユニブライト株式会社,,株式会社,岡山県,岡山市北区,学南町２丁目８番２９号,,33,101,7000011,,,2025-04-24,清算の結了等,,,2015-10-05,1,,,,,ユニブライト,0
1211,4370001017498,登記記録の閉鎖等,0,2025-05-08,2025-04-21,株式会社壽商会,,株式会社,宮城県,黒川郡大和町,落合報恩寺字根柄１４番地,,04,421,9813402,,,2025-04-21,清算の結了等,,,2015-10-05,1,,,,,コトブキショウカイ,0
1220,4390002007538,登記記録の閉鎖等,0,2025-05-08,2025-04-23,有限会社すしまる,,有限会社,山形県,酒田市,日吉町２丁目３番８号,,06,204,9980037,,,2025-04-23,清算の結了等,,,2015-10-05,1,,,,,,0
1228,4420001018235,登記記録の閉鎖等,0,2025-05-08,2025-04-30,衆誠産業株式会社,,株式会社,青森県,三戸郡三戸町,大字梅内字竹林１４８番地１,,02,441,0390112,,,2025-04-30,清算の結了等,,,2023-04-26,1,,,,,シュウセイサンギョウ,0
1250,5010001207167,登記記録の閉鎖等,0,2025-05-08,2025-04-04,Ｍｉｒａｉ　ＳＶ株式会社,,株式会社,東京都,港区,赤坂８丁目６番９－８０２号,,13,103,1070052,,,2025-04-04,清算の結了等,,,2020-01-31,1,,,,,ミライエスブイ,0
1272,5010401119391,登記記録の閉鎖等,0,2025-05-08,2025-04-01,株式会社ファイブフォー,,株式会社,東京都,千代田区,九段南２丁目３番１０号ＢＣプラザ３階,,13,101,1020074,,,2025-04-01,合併による解散等,7010401029713,令和７年３月３１日東京都千代田区九段南二丁目３番１０号ＢＣプラザ３階株式会社八木クリエイティブ（7010401029713）に合併し解散,2015-10-05,1,,,,,ファイブフォー,0
1301,5011001146776,登記記録の閉鎖等,0,2025-05-08,2025-04-03,ＭＭエステート株式会社,,株式会社,東京都,目黒区,目黒本町２丁目１９番２０号,,13,110,1520002,,,2025-04-03,清算の結了等,,,2022-04-06,1,,,,,エムエムエステート,0
1307,5011005001341,登記記録の閉鎖等,0,2025-05-08,2025-04-25,タール製品等取扱業協同組合,,その他の設立登記法人,東京都,練馬区,貫井１丁目２３番２０－６１２号,,13,120,1760021,,,2025-04-25,清算の結了等,,,2015-10-05,1,,,,,タールセイヒントウトリアツカイギョウ,0
1309,5011101068664,登記記録の閉鎖等,0,2025-05-08,2025-04-14,株式会社ネクスト,,株式会社,東京都,台東区,東上野１丁目８－２オーイズミ東上野ビル東館８階,,13,106,1100015,,,2025-04-14,清算の結了等,,,2015-10-05,1,,,,,ネクスト,0
1320,5011702006782,登記記録の閉鎖等,0,2025-05-08,2025-04-25,有限会社泰光運輸,,有限会社,東京都,江戸川区,船堀７丁目９番２号,,13,123,1340091,,,2025-04-25,清算の結了等,,,2015-10-05,1,,,,,タイコウウンユ,0
1352,5020002076486,登記記録の閉鎖等,0,2025-05-08,2025-04-28,有限会社Ｋ－ＳＰＡＣＥ,,有限会社,神奈川県,横浜市旭区,上白根町１４３７番地７,,14,112,2410001,,,2025-04-28,清算の結了等,,,2015-10-05,1,,,,,ケイスペース,0
1367,5030002064184,登記記録の閉鎖等,0,2025-05-08,2025-05-01,三友商事有限会社,,有限会社,埼玉県,朝霞市,田島２丁目１３番１０号,,11,227,3510032,,,2025-05-01,清算の結了等,,,2015-10-05,1,,,,,サンユウショウジ,0
1374,5040001074217,登記記録の閉鎖等,0,2025-05-08,2025-04-17,株式会社東条冷機,,株式会社,千葉県,鴨川市,広場９３１番地の１,,12,223,2960044,,,2025-04-17,清算の結了等,,,2015-10-05,1,,,,,トウジョウレイキ,0
1387,5060001014724,登記記録の閉鎖等,0,2025-05-08,2025-04-24,株式会社スーパーテック,,株式会社,栃木県,下都賀郡野木町,大字友沼５３２３番地１４,,09,364,3290101,,,2025-04-24,清算の結了等,,,2015-10-05,1,,,,,スーパーテック,0
1391,5070002001258,登記記録の閉鎖等,0,2025-05-08,2025-04-30,有限会社オリンピアモータース,,有限会社,群馬県,前橋市,上佐鳥町１６番地,,10,201,3710816,,,2025-04-30,清算の結了等,,,2015-10-05,1,,,,,オリンピアモータース,0
1429,5122001015349,登記記録の閉鎖等,0,2025-05-08,2025-04-30,株式会社サニー化学,,株式会社,大阪府,大東市,野崎４丁目９番２８号,,27,218,5740015,,,2025-04-30,清算の結了等,,,2015-10-05,1,,,,,サニーカガク,0
1450,5170001006446,登記記録の閉鎖等,0,2025-05-08,2025-05-02,株式会社アドバンス・コミュニケーションズ,,株式会社,和歌山県,和歌山市,伝法橋南ノ丁６－２３、２階,,30,201,6408204,,,2025-05-02,清算の結了等,,,2015-10-05,1,,,,,アドバンスコミュニケーションズ,0
1462,5180002053107,登記記録の閉鎖等,0,2025-05-08,2025-04-28,有限会社エスアールアイ,,有限会社,愛知県,名古屋市北区,龍ノ口町２丁目４番地の３,,23,103,4620869,,,2025-04-28,清算の結了等,,,2015-10-05,1,,,,,エスアールアイ,0
1464,5180301010824,登記記録の閉鎖等,0,2025-05-08,2025-04-25,市盛株式会社,,株式会社,愛知県,蒲郡市,豊岡町前野３番地１,,23,214,4430011,,,2025-04-25,清算の結了等,,,2015-10-05,1,,,,,イチモリ,0
1495,5290001077013,登記記録の閉鎖等,0,2025-05-08,2025-04-22,株式会社鳶裕組,,株式会社,福岡県,大野城市,上大利３丁目８番２１号森山アパート２０１号,,40,219,8160955,,,2025-04-22,清算の結了等,,,2017-03-06,1,,,,,,0
1519,5370001018108,登記記録の閉鎖等,0,2025-05-08,2025-04-14,株式会社Ｔｈｉｎｋ２１,,株式会社,宮城県,黒川郡大和町,もみじケ丘３丁目５番地の５,,04,421,9813622,,,2025-04-14,清算の結了等,,,2015-10-05,1,,,,,シンクニジュウイチ,0
1520,5370001019568,登記記録の閉鎖等,0,2025-05-08,2025-04-21,Ｇｒｅｅｎ－Ｒｏｏｍ株式会社,,株式会社,宮城県,黒川郡大和町,もみじケ丘３丁目２３番地の７,,04,421,9813622,,,2025-04-21,清算の結了等,,,2015-10-05,1,,,,,グリーンルーム,0
1529,5390002015845,登記記録の閉鎖等,0,2025-05-08,2025-04-22,有限会社ワダサッシセンター,,有限会社,山形県,寒河江市,高田３丁目８０番地の１,,06,206,9910013,,,2025-04-22,清算の結了等,,,2015-10-05,1,,,,,ワダサッシセンター,0
1535,5410002009456,登記記録の閉鎖等,0,2025-05-08,2025-04-30,有限会社鷹巣プロパン住設,,有限会社,秋田県,北秋田市,住吉町２番２７号,,05,213,0183322,,,2025-04-30,清算の結了等,,,2015-10-05,1,,,,,タカノスプロパンジュウセツ,0
1566,6010003031671,登記記録の閉鎖等,0,2025-05-08,2025-04-15,パトリオット合同会社,,合同会社,東京都,中央区,日本橋１丁目４番１号日本橋一丁目ビルディング,,13,102,1030027,,,2025-04-15,清算の結了等,,,2020-02-19,1,,,,,パトリオット,0
1569,6010005019509,登記記録の閉鎖等,0,2025-05-08,2025-05-01,税理士法人アウェイク総合会計事務所,,その他の設立登記法人,東京都,中央区,勝どき６丁目３番２－４７１５号,,13,102,1040054,,,2025-05-01,清算の結了等,,,2015-10-05,1,,,,,アウェイクソウゴウカイケイジムショ,0
1585,6010503006561,登記記録の閉鎖等,0,2025-05-08,2025-04-14,クラフトブルーイング＆テクノロジーズ合同会社,,合同会社,東京都,台東区,松が谷２丁目２－５シントミプラザ稲荷町２０２,,13,106,1110036,,,2025-04-14,清算の結了等,,,2022-04-12,1,,,,,クラフトブルーイングアンドテクノロジーズ,0
1590,6010603006024,登記記録の閉鎖等,0,2025-05-08,2025-04-24,合同会社ティス,,合同会社,東京都,江東区,亀戸３丁目５６番９号２０３,,13,108,1360071,,,2025-04-24,清算の結了等,,,2015-10-05,1,,,,,ティス,0
1592,6010801022995,登記記録の閉鎖等,0,2025-05-08,2025-04-22,株式会社重森,,株式会社,東京都,大田区,池上４丁目２０番６号イースタンパレス池上４０２号,,13,111,1460082,,,2025-04-22,清算の結了等,,,2015-10-05,1,,,,,シゲモリ,0
1593,6010901032184,登記記録の閉鎖等,0,2025-05-08,2025-05-02,株式会社Ｄ－Ｐｒｉｎｔ,,株式会社,東京都,世田谷区,砧８丁目１２番８－３０２号,,13,112,1570073,,,2025-05-02,清算の結了等,,,2015-10-05,1,,,,,ディープリント,0
1601,6011101074769,登記記録の閉鎖等,0,2025-05-08,2025-04-11,株式会社Ｃ＆Ｆロジホールディングス,,株式会社,東京都,新宿区,若松町３３番８号,,13,104,1620056,,,2025-04-11,合併による解散等,7012401011964,令和７年４月１日東京都新宿区若松町３３番８号名糖運輸株式会社（7012401011964）に合併し解散,2015-10-05,1,,,,,シーアンドエフロジホールディングス,0
1608,6011701011080,登記記録の閉鎖等,0,2025-05-08,2025-04-30,株式会社オールテッツ,,株式会社,東京都,江戸川区,松江１丁目１０番２０号,,13,123,1320025,,,2025-04-30,清算の結了等,,,2015-10-05,1,,,,,,0
1612,6012301011371,登記記録の閉鎖等,0,2025-05-08,2025-04-28,株式会社ＢＵＳＩＮＥＳＳ　ＣＯＯＲＤＩＮＡＴＩＯＮ　ＪＡＰＡＮ,,株式会社,東京都,町田市,鶴川３丁目１９番地８,,13,209,1950061,,,2025-04-28,清算の結了等,,,2018-05-11,1,,,,,ビジネスコーディネーションジャパン,0
1617,6012402017706,登記記録の閉鎖等,0,2025-05-08,2025-04-25,有限会社ペコハウス,,有限会社,東京都,武蔵野市,西久保１丁目３１番２号,,13,203,1800013,,,2025-04-25,清算の結了等,,,2015-10-05,1,,,,,ペコハウス,0
1635,6020002028420,登記記録の閉鎖等,0,2025-05-08,2025-04-28,有限会社八百愛商店,,有限会社,神奈川県,横浜市神奈川区,平川町５番地の８,,14,102,2210812,,,2025-04-28,清算の結了等,,,2015-10-05,1,,,,,ヤオアイショウテン,0
1637,6020002070802,登記記録の閉鎖等,0,2025-05-08,2025-04-10,有限会社イーエムピアノネットワーク,,有限会社,神奈川県,横浜市保土ケ谷区,川辺町二丁目１６の２０８号,,14,106,2400001,,,2025-04-10,清算の結了等,,,2015-10-05,1,,,,,イーエムピアノネットワーク,0
1660,6040001097745,登記記録の閉鎖等,0,2025-05-08,2025-04-25,株式会社ＫＮトライ,,株式会社,東京都,江東区,亀戸３丁目３１番７号,,13,108,1360071,,,2025-04-25,清算の結了等,,,2016-11-18,1,,,,,ケイエヌトライ,0
1671,6070001001778,登記記録の閉鎖等,0,2025-05-08,2025-05-01,住友キャピタル株式会社,,株式会社,群馬県,前橋市,元総社町２丁目４番地７,,10,201,3710846,,,2025-05-01,清算の結了等,,,2015-10-05,1,,,,,スミトモキャピタル,0
1675,6070002024919,登記記録の閉鎖等,0,2025-05-08,2025-04-30,有限会社村田ステンレス工業所,,有限会社,群馬県,桐生市,相生町５丁目３０９番地の１,,10,203,3760011,,,2025-04-30,清算の結了等,,,2015-10-05,1,,,,,ムラタステンレスコウギョウショ,0
1686,6080403002448,登記記録の閉鎖等,0,2025-05-08,2025-04-30,合資会社丹羽モータース,,合資会社,静岡県,菊川市,半済９５６番地の２,,22,224,4390019,,,2025-04-30,清算の結了等,,,2015-10-05,1,,,,,ニワモータース,0
1687,6080403003000,登記記録の閉鎖等,0,2025-05-08,2025-04-25,ＣＵＯＲＥ　ＨＡＩＲ合同会社,,合同会社,静岡県,浜松市浜名区,横須賀１４７番地の１,,22,139,4340036,,,2025-04-25,清算の結了等,,,2015-10-05,1,,,,,クオーレヘアー,0
1740,6180303004096,登記記録の閉鎖等,0,2025-05-08,2025-04-30,合同会社Ｌｉｆｅ　Ａｃｔｉｖａｔｏｒ,,合同会社,愛知県,刈谷市,半城土町西裏７２番地１１,,23,210,4480804,,,2025-04-30,清算の結了等,,,2018-06-18,1,,,,,ライフアクティベータ,0
1749,6240003004555,登記記録の閉鎖等,0,2025-05-08,2025-05-01,スクラム合同会社,,合同会社,広島県,広島市南区,段原３丁目９番２５号,,34,103,7320811,,,2025-05-01,清算の結了等,,,2020-02-17,1,,,,,スクラム,0
1752,6290002003149,登記記録の閉鎖等,0,2025-05-08,2025-04-22,有限会社博多ベッツ,,有限会社,福岡県,福岡市南区,長住５丁目１番１号,,40,134,8111362,,,2025-04-22,清算の結了等,,,2015-10-05,1,,,,,ハカタベッツ,0
1768,6330002021757,登記記録の閉鎖等,0,2025-05-08,2025-04-25,有限会社向陽技研,,有限会社,熊本県,荒尾市,八幡台１丁目２１番１５号,,43,204,8640164,,,2025-04-25,清算の結了等,,,2015-10-05,1,,,,,コウヨウギケン,0
1770,6340002003218,登記記録の閉鎖等,0,2025-05-08,2025-04-30,有限会社九装,,有限会社,鹿児島県,鹿児島市,日之出町１１番２２号,,46,201,8900086,,,2025-04-30,合併による解散等,4340001024217,令和７年４月３０日鹿児島市日之出町１１番２２号株式会社旺花（4340001024217）に合併し解散,2015-10-05,1,,,,,キュウソウ,0
1777,6360002022406,登記記録の閉鎖等,0,2025-05-08,2025-04-18,有限会社ワイド企画,,有限会社,沖縄県,宮古島市,平良字西里３３９番地,,47,214,9060012,,,2025-04-18,合併による解散等,6360001013819,令和７年３月１８日沖縄県宮古島市平良字西里３３７番地株式会社宮古毎日新聞社（6360001013819）に合併し解散,2015-10-05,1,,,,,ワイドキカク,0
1783,6380001006597,登記記録の閉鎖等,0,2025-05-08,2025-05-01,本田建設株式会社,,株式会社,福島県,郡山市,小原田３丁目１８番７号アネックスミカド８０５,,07,203,9638835,,,2025-05-01,合併による解散等,5380001006706,令和７年５月１日福島県郡山市小原田三丁目１８番７号アネックスミカド８０５株式会社御角本社（5380001006706）に合併し解散,2015-10-05,1,,,,,ホンダケンセツ,0
1802,6460102006083,登記記録の閉鎖等,0,2025-05-08,2025-04-30,有限会社小沢板金工業,,有限会社,北海道,足寄郡足寄町,北五条１丁目２５番地,,01,647,0893705,,,2025-04-30,清算の結了等,,,2015-10-05,1,,,,,オザワバンキンコウギョウ,0
1821,7010001139739,登記記録の閉鎖等,0,2025-05-08,2025-05-01,株式会社スクデット,,株式会社,東京都,中央区,銀座３丁目９番１１号,,13,102,1040061,,,2025-05-01,合併による解散等,4011001063659,令和７年４月１日東京都渋谷区恵比寿南三丁目５番７号株式会社ＤＧビジネステクノロジー（4011001063659）に合併し解散,2015-10-05,1,,,,,スクデット,0
1845,7010401134802,登記記録の閉鎖等,0,2025-05-08,2025-04-04,バイオビーワン株式会社,,株式会社,東京都,港区,赤坂２丁目１６番６号,,13,103,1070052,,,2025-04-04,清算の結了等,,,2017-11-08,1,BioBeOne Inc.,Tokyo,"2-16-6, Akasaka, Minato-ku",,バイオビーワン,0
1846,7010401136022,登記記録の閉鎖等,0,2025-05-08,2025-04-04,クリプトエックス株式会社,,株式会社,東京都,港区,赤坂２丁目１８番１号赤坂ヒルサイドビル４階,,13,103,1070052,,,2025-04-04,清算の結了等,,,2018-01-18,1,,,,,クリプトエックス,0
1864,7010701030817,登記記録の閉鎖等,0,2025-05-08,2025-04-04,バイテックグリーンエナジー株式会社,,株式会社,東京都,港区,港南２丁目１０番９号,,13,103,1080075,,,2025-04-04,合併による解散等,7010701022780,令和７年４月１日東京都港区港南二丁目１０番９号株式会社レスター（7010701022780）に合併し解散,2015-10-05,1,,,,,バイテックグリーンエナジー,0
1869,7011003004559,登記記録の閉鎖等,0,2025-05-08,2025-04-03,合同会社マスターピース,,合同会社,東京都,目黒区,南２丁目８番６号,,13,110,1520013,,,2025-04-03,清算の結了等,,,2015-10-05,1,,,,,マスターピース,0
1881,7011201022759,登記記録の閉鎖等,0,2025-05-08,2025-04-28,Ａ．Ｃ．Ｅ．株式会社,,株式会社,東京都,中野区,中野４丁目１１番５号中野第２スカイハイツ１０５号,,13,114,1640001,,,2025-04-28,清算の結了等,,,2021-02-17,1,,,,,エーシーイー,0
1884,7011301027303,登記記録の閉鎖等,0,2025-05-08,2025-04-28,株式会社ＨＡＮＡ企画,,株式会社,東京都,杉並区,西荻南３丁目２５番８号第９０オーナーズビル地下１階,,13,115,1670053,,,2025-04-28,清算の結了等,,,2021-11-10,1,,,,,ハナキカク,0
1919,7020003020796,登記記録の閉鎖等,0,2025-05-08,2025-04-15,合同会社アイストコーポレーション,,合同会社,神奈川県,横浜市神奈川区,大野町１－８アルテ横浜１８０３,,14,102,2210055,,,2025-04-15,清算の結了等,,,2021-11-10,1,,,,,アイストコーポレーション,0
1940,7030002075642,登記記録の閉鎖等,0,2025-05-08,2025-04-30,有限会社渡辺酒店,,有限会社,埼玉県,川越市,南大塚２丁目７番地１,,11,201,3501162,,,2025-04-30,清算の結了等,,,2015-10-05,1,,,,,ワタナベサケテン,0
1949,7040002073983,登記記録の閉鎖等,0,2025-05-08,2025-04-18,有限会社大昇,,有限会社,千葉県,野田市,中野台９１２番地の４６,,12,208,2780035,,,2025-04-18,清算の結了等,,,2015-10-05,1,,,,,ダイショウ,0
1951,7060001022213,登記記録の閉鎖等,0,2025-05-08,2025-04-23,株式会社新発,,株式会社,栃木県,宇都宮市,鶴田町５７４番地２グランドハイツ鶴田４１２号室,,09,201,3200851,,,2025-04-23,清算の結了等,,,2015-10-05,1,,,,,シンハツ,0
1953,7060002017914,登記記録の閉鎖等,0,2025-05-08,2025-04-24,有限会社滝田産業,,有限会社,栃木県,真岡市,古山８３５番地,,09,209,3214535,,,2025-04-24,清算の結了等,,,2015-10-05,1,,,,,タキタサンギョウ,0
1960,7080101014538,登記記録の閉鎖等,0,2025-05-08,2025-04-30,株式会社ナカダ,,株式会社,静岡県,下田市,柿崎２４番１２号,,22,219,4150013,,,2025-04-30,清算の結了等,,,2015-10-05,1,,,,,ナカダ,0
1965,7080402017256,登記記録の閉鎖等,0,2025-05-08,2025-04-28,有限会社掛川製作所,,有限会社,静岡県,掛川市,杉谷南１丁目２２番地の１０,,22,213,4360030,,,2025-04-28,清算の結了等,,,2015-10-05,1,,,,,カケガワセイサクショ,0
1996,7130001002216,登記記録の閉鎖等,0,2025-05-08,2025-05-02,理研化学工業株式会社,,株式会社,京都府,京都市右京区,梅津構口町１１番地の１２,,26,108,6150912,,,2025-05-02,清算の結了等,,,2015-10-05,1,,,,,リケンカガクコウギョウ,0
1998,7130001027072,登記記録の閉鎖等,0,2025-05-08,2025-05-02,株式会社ペンギンファクトリー,,株式会社,京都府,京都市下京区,中堂寺粟田町９３番地,,26,106,6008815,,,2025-05-02,清算の結了等,,,2015-10-05,1,,,,,ペンギンファクトリー,0
2002,7130002030884,登記記録の閉鎖等,0,2025-05-08,2025-04-28,有限会社山本商店,,有限会社,京都府,城陽市,富野北垣内６３番地の１３,,26,207,6100111,,,2025-04-28,清算の結了等,,,2015-10-05,1,,,,,ヤマモトショウテン,0
2020,7180001067130,登記記録の閉鎖等,0,2025-05-08,2025-04-28,東名ホーミング株式会社,,株式会社,愛知県,日進市,浅田町下小深田６番地の１,,23,230,4700124,,,2025-04-28,清算の結了等,,,2015-10-05,1,,,,,トウメイホーミング,0
2021,7180001075661,登記記録の閉鎖等,0,2025-05-08,2025-04-28,株式会社小笠原運送,,株式会社,愛知県,小牧市,大字舟津字上針田１２５１番地の３,,23,219,4850073,,,2025-04-28,清算の結了等,,,2015-10-05,1,,,,,オガサワラウンソウ,0
2023,7180001126555,登記記録の閉鎖等,0,2025-05-08,2025-04-28,ＢＵテクノ株式会社,,株式会社,愛知県,名古屋市南区,丹後通２丁目２番地,,23,112,4570801,,,2025-04-28,清算の結了等,,,2017-02-10,1,,,,,ビーユーテクノ,0
2033,7180002050787,登記記録の閉鎖等,0,2025-05-08,2025-04-28,有限会社メディアプランニング,,有限会社,愛知県,名古屋市中区,新栄３丁目２０番２７号,,23,106,4600007,,,2025-04-28,清算の結了等,,,2015-10-05,1,,,,,メディアプランニング,0
2036,7180302007652,登記記録の閉鎖等,0,2025-05-08,2025-04-30,有限会社三園荒物店,,有限会社,愛知県,豊橋市,鍛冶町１００番地,,23,201,4400802,,,2025-04-30,清算の結了等,,,2025-02-25,1,,,,,サンエンアラモノテン,0
2041,7190002004858,登記記録の閉鎖等,0,2025-05-08,2025-05-01,有限会社ヘップバーン,,有限会社,三重県,亀山市,阿野田町２３２５番地,,24,210,5190137,,,2025-05-01,清算の結了等,,,2015-10-05,1,,,,,ヘップバーン,0
2045,7200002008626,登記記録の閉鎖等,0,2025-05-08,2025-04-30,有限会社岐阜西住宅設備,,有限会社,岐阜県,岐阜市,小西郷３丁目７６番地,,21,201,5011176,,,2025-04-30,清算の結了等,,,2015-10-05,1,,,,,ギフニシジュウタクセツビ,0
2066,7290801002291,登記記録の閉鎖等,0,2025-05-08,2025-05-07,大栄青果株式会社,,株式会社,福岡県,北九州市小倉北区,西港町９４番地９,,40,106,8030801,,,2025-05-07,清算の結了等,,,2015-10-05,1,,,,,ダイエイセイカ,0
2067,7290801003793,登記記録の閉鎖等,0,2025-05-08,2025-05-07,株式会社山田青果,,株式会社,福岡県,北九州市小倉北区,西港町９４番９,,40,106,8030801,,,2025-05-07,清算の結了等,,,2015-10-05,1,,,,,ヤマダセイカ,0
2068,7290801029194,登記記録の閉鎖等,0,2025-05-08,2025-04-28,シャルル株式会社,,株式会社,福岡県,北九州市小倉北区,浅野３丁目８番１号ＡＩＭビル６Ｆ,,40,106,8020001,,,2025-04-28,清算の結了等,,,2023-01-16,1,,,,,シャルル,0
2078,7340001007986,登記記録の閉鎖等,0,2025-05-08,2025-04-14,霧島興産株式会社,,株式会社,鹿児島県,霧島市,霧島大窪７３１番地２,,46,218,8994203,,,2025-04-14,清算の結了等,,,2015-10-05,1,,,,,,0
2087,7370002004906,登記記録の閉鎖等,0,2025-05-08,2025-04-22,有限会社クスリのあい,,有限会社,宮城県,仙台市太白区,向山２丁目１８番７号朝日プラザ向山１階,,04,104,9820841,,,2025-04-22,清算の結了等,,,2015-10-05,1,,,,,クスリノアイ,0
2091,7370602003299,登記記録の閉鎖等,0,2025-05-08,2025-04-21,有限会社眞島塗装興業,,有限会社,宮城県,多賀城市,笠神２丁目１４番４４号,,04,209,9850831,,,2025-04-21,清算の結了等,,,2015-10-05,1,,,,,マジマトソウコウギョウ,0
2098,7380002032113,登記記録の閉鎖等,0,2025-05-08,2025-05-01,有限会社新会津印刷所,,有限会社,福島県,会津若松市,大町１丁目８番２４号,,07,202,9650042,,,2025-05-01,合併による解散等,7380001017461,令和７年５月１日福島県会津若松市町北町大字上荒久田字鈴木１６３番地三洋印刷株式会社（7380001017461）に合併し解散,2015-10-05,1,,,,,シンアイヅインサツジョ,0
2106,7410002003399,登記記録の閉鎖等,0,2025-05-08,2025-05-02,有限会社保坂土木,,有限会社,秋田県,秋田市,飯島字飯島水尻３３７番地,,05,201,0110911,,,2025-05-02,清算の結了等,,,2015-10-05,1,,,,,ホサカドボク,0
2110,7430001047486,登記記録の閉鎖等,0,2025-05-08,2025-04-28,記虎自動車工業株式会社,,株式会社,北海道,夕張郡長沼町,宮下２丁目２番３号,,01,428,0691341,,,2025-04-28,清算の結了等,,,2015-10-05,1,,,,,キトラジドウシャコウギョウ,0
2139,8010001205085,登記記録の閉鎖等,0,2025-05-08,2025-04-15,コスモエレベーターシステム株式会社,,株式会社,東京都,千代田区,神田美倉町３番地,,13,101,1010038,,,2025-04-15,清算の結了等,,,2019-11-07,1,,,,,コスモエレベーターシステム,0
2155,8010401050783,登記記録の閉鎖等,0,2025-05-08,2025-04-30,株式会社富士通総研,,株式会社,東京都,大田区,新蒲田１丁目１７番２５号,,13,111,1440054,,,2025-04-30,合併による解散等,1020001071491,令和７年４月１日川崎市中原区上小田中四丁目１番１号富士通株式会社（1020001071491）に合併し解散,2015-10-05,1,,,,,フジツウソウケン,0
2174,8010801006872,登記記録の閉鎖等,0,2025-05-08,2025-04-25,株式会社高木システム,,株式会社,東京都,大田区,北千束２丁目２７番１５号,,13,111,1450062,,,2025-04-25,合併による解散等,1013201000403,令和７年４月１日東京都港区港南二丁目１６番４号株式会社クレスコ・ジェイキューブ（1013201000403）に合併し解散,2015-10-05,1,,,,,タカギシステム,0
2196,8011101050371,登記記録の閉鎖等,0,2025-05-08,2025-04-22,株式会社ループ,,株式会社,東京都,大田区,山王１丁目３６番３号,,13,111,1430023,,,2025-04-22,清算の結了等,,,2015-10-05,1,,,,,ループ,0
2202,8011301001934,登記記録の閉鎖等,0,2025-05-08,2025-04-28,協栄紙工株式会社,,株式会社,東京都,杉並区,高井戸西１丁目２２番３６－６号,,13,115,1680071,,,2025-04-28,清算の結了等,,,2015-10-05,1,,,,,キョウエイシコウ,0
2215,8011801019352,登記記録の閉鎖等,0,2025-05-08,2025-04-30,株式会社黒澤明アカデミー,,株式会社,東京都,足立区,千住１丁目４番１号,,13,121,1200034,,,2025-04-30,清算の結了等,,,2015-10-05,1,,,,,クロサワアキラアカデミー,0
2216,8011802017149,登記記録の閉鎖等,0,2025-05-08,2025-05-01,有限会社ノダ,,有限会社,東京都,足立区,六木４丁目２番３号,,13,121,1210052,,,2025-05-01,清算の結了等,,,2015-10-05,1,,,,,ノダ,0
2223,8013201005420,登記記録の閉鎖等,0,2025-05-08,2025-04-01,株式会社ホリ・エージェンシー,,株式会社,東京都,目黒区,下目黒１丁目２番５号,,13,110,1530064,,,2025-04-01,合併による解散等,8013201007359,令和７年４月１日東京都目黒区下目黒一丁目２番５号株式会社ホリプロ・ブッキング・エージェンシー（8013201007359）に合併し解散,2015-10-05,1,,,,,ホリエージェンシー,0
2263,8030002108384,登記記録の閉鎖等,0,2025-05-08,2025-05-01,有限会社和田工業,,有限会社,埼玉県,川口市,差間２丁目２番２１号,,11,203,3330816,,,2025-05-01,清算の結了等,,,2015-10-05,1,,,,,ワダコウギョウ,0
2266,8040001055528,登記記録の閉鎖等,0,2025-05-08,2025-04-17,株式会社ロータス・エンタープライズ,,株式会社,千葉県,市原市,五井２１１７番地２,,12,219,2900056,,,2025-04-17,清算の結了等,,,2015-10-05,1,,,,,ロータスエンタープライズ,0
2270,8040005006923,登記記録の閉鎖等,0,2025-05-08,2025-04-11,特定非営利活動法人ケアグループあい・あい,,その他の設立登記法人,千葉県,白井市,根１２９番地,,12,232,2701431,,,2025-04-11,清算の結了等,,,2015-10-05,1,,,,,ケアグループアイアイ,0
2275,8060002017962,登記記録の閉鎖等,0,2025-05-08,2025-04-24,有限会社北城設計,,有限会社,栃木県,真岡市,久下田西１丁目３８番地,,09,209,3214522,,,2025-04-24,清算の結了等,,,2015-10-05,1,,,,,ホウジョウセッケイ,0
2280,8080101011591,登記記録の閉鎖等,0,2025-05-08,2025-04-10,中部ホンダ販売株式会社,,株式会社,静岡県,富士宮市,浅間町５番７号,,22,207,4180032,,,2025-04-10,清算の結了等,,,2015-10-05,1,,,,,チュウブホンダハンバイ,0
2292,8120001003057,登記記録の閉鎖等,0,2025-05-08,2025-04-18,株式会社岡屋,,株式会社,大阪府,大阪市西成区,天下茶屋２丁目１７番１８号,,27,122,5570014,,,2025-04-18,清算の結了等,,,2015-10-05,1,,,,,オカヤ,0
2293,8120001015366,登記記録の閉鎖等,0,2025-05-08,2025-04-21,株式会社ダイケー,,株式会社,大阪府,豊中市,新千里西町３丁目１６番４号,,27,203,5600083,,,2025-04-21,清算の結了等,,,2015-10-05,1,,,,,ダイケー,0
2296,8120001171366,登記記録の閉鎖等,0,2025-05-08,2025-04-17,株式会社恒和食品,,株式会社,大阪府,大阪市淀川区,十三東１丁目１７番２４号,,27,123,5320023,,,2025-04-17,清算の結了等,,,2015-10-05,1,,,,,,0
2316,8130001020869,登記記録の閉鎖等,0,2025-05-08,2025-05-01,株式会社佐々浪ファマシー,,株式会社,京都府,京都市中京区,河原町通蛸薬師下る塩屋町３２９番地,,26,104,6048027,,,2025-05-01,清算の結了等,,,2015-10-05,1,,,,,ササナミファーマシー,0
2321,8130005007210,登記記録の閉鎖等,0,2025-05-08,2025-04-14,白土生産森林組合,,その他の設立登記法人,京都府,船井郡京丹波町,下山上野１３番地,,26,407,6220201,,,2025-04-14,清算の結了等,,,2015-10-05,1,,,,,シラド,0
2328,8140005024436,登記記録の閉鎖等,0,2025-05-08,2025-05-02,特定非営利活動法人ＪＡＰＡＮ　ＰＡＬＥＴＴＥ,,その他の設立登記法人,滋賀県,野洲市,吉地１２２４番地ループふぁいぶＡ棟１０５号,,25,210,5202413,,,2025-05-02,清算の結了等,,,2019-01-09,1,,,,,ジャパンパレット,0
2334,8180001099395,登記記録の閉鎖等,0,2025-05-08,2025-04-28,東海システムソリューション株式会社,,株式会社,愛知県,あま市,七宝町遠島鳥居先１８３番地１０,,23,237,4970002,,,2025-04-28,清算の結了等,,,2015-10-05,1,,,,,トウカイシステムソリューション,0
2349,8180005017469,登記記録の閉鎖等,0,2025-05-08,2025-04-28,特定非営利活動法人来夢の森,,その他の設立登記法人,愛知県,知多郡東浦町,大字緒川字宝前庵１３番地の１４,,23,442,4702102,,,2025-04-28,清算の結了等,,,2017-09-11,1,,,,,ライムノモリ,0
2351,8180301032725,登記記録の閉鎖等,0,2025-05-08,2025-04-30,株式会社産永社,,株式会社,愛知県,岡崎市,丸山町字アラ田４１番地１,,23,202,4440006,,,2025-04-30,清算の結了等,,,2019-07-02,1,,,,,サンエイシャ,0
2353,8180302003659,登記記録の閉鎖等,0,2025-05-08,2025-04-30,有限会社ヒロカネ,,有限会社,愛知県,岡崎市,牧平町字社口５番地１,,23,202,4443624,,,2025-04-30,清算の結了等,,,2015-10-05,1,,,,,ヒロカネ,0
2357,8190005006685,登記記録の閉鎖等,0,2025-05-08,2025-04-10,株式会社三重きのこ園,,株式会社,三重県,松阪市,高須町３２１４番地,,24,204,5150104,,,2025-04-10,清算の結了等,,,2015-10-05,1,,,,,ミエキノコエン,0
2369,8240005012694,登記記録の閉鎖等,0,2025-05-08,2025-05-07,一般社団法人スポーツ育成会,,その他の設立登記法人,広島県,三次市,畠敷町９２３番地,,34,209,7280006,,,2025-05-07,清算の結了等,,,2015-10-05,1,,,,,スポーツイクセイカイ,0
2378,8290001049439,登記記録の閉鎖等,0,2025-05-08,2025-04-22,株式会社原武商店,,株式会社,福岡県,久留米市,荒木町荒木字西の原９２８番地,,40,203,8300063,,,2025-04-22,清算の結了等,,,2015-10-05,1,,,,,ハラタケショウテン,0
2387,8290802014161,登記記録の閉鎖等,0,2025-05-08,2025-05-02,有限会社サンエツ,,有限会社,福岡県,北九州市八幡西区,御開２丁目１番１８号,,40,109,8070806,,,2025-05-02,清算の結了等,,,2015-10-05,1,,,,,サンエツ,0
2408,8400001016187,登記記録の閉鎖等,0,2025-05-08,2025-04-18,株式会社木村商店,,株式会社,岩手県,下閉伊郡山田町,北浜町９６番地４,,03,482,0281331,,,2025-04-18,清算の結了等,,,2023-04-03,1,,,,,キムラショウテン,0
2433,8490002009198,登記記録の閉鎖等,0,2025-05-08,2025-05-01,有限会社菱田ベーカリー,,有限会社,高知県,宿毛市,和田３４０番地１,,39,208,7880052,,,2025-05-01,合併による解散等,7460101006835,令和７年３月３１日東京都千代田区神田錦町二丁目２番地１株式会社こむぎの（7460101006835）に合併し解散,2015-10-05,1,,,,,ヒシダベーカリー,0
2441,9010001076047,登記記録の閉鎖等,0,2025-05-08,2025-04-11,ＭＳＫ保険センター株式会社,,株式会社,東京都,千代田区,神田駿河台３丁目９番地,,13,101,1010062,,,2025-04-11,合併による解散等,1010001030440,令和７年４月１日東京都千代田区神田駿河台三丁目９番地三井住友海上エイジェンシー・サービス株式会社（1010001030440）に合併し解散,2015-10-05,1,,,,,エムエスケーホケンセンター,0
2482,9010701009529,登記記録の閉鎖等,0,2025-05-08,2025-04-22,三芳金属株式会社,,株式会社,東京都,大田区,多摩川２丁目２７番２１号,,13,111,1460095,,,2025-04-22,清算の結了等,,,2015-10-05,1,,,,,ミヨシキンゾク,0
2493,9011002036683,登記記録の閉鎖等,0,2025-05-08,2025-04-03,有限会社ノード,,有限会社,東京都,渋谷区,広尾１丁目１４番１５号クオリア広尾１１０７,,13,113,1500012,,,2025-04-03,清算の結了等,,,2015-10-05,1,,,,,ノード,0
2509,9011801042361,登記記録の閉鎖等,0,2025-05-08,2025-04-30,株式会社アールイーテクノ,,株式会社,東京都,足立区,西新井４丁目４番２号,,13,121,1230841,,,2025-04-30,清算の結了等,,,2023-05-11,1,,,,,アールイーテクノ,0
2512,9011802015325,登記記録の閉鎖等,0,2025-05-08,2025-05-01,田口峰工業有限会社,,有限会社,東京都,足立区,島根４丁目５番１号,,13,121,1210815,,,2025-05-01,清算の結了等,,,2015-10-05,1,,,,,タグチミネコウギョウ,0
2529,9020002005417,登記記録の閉鎖等,0,2025-05-08,2025-04-25,有限会社伊藤精工,,有限会社,神奈川県,横浜市都筑区,折本町１２８８番１,,14,118,2240043,,,2025-04-25,清算の結了等,,,2015-10-05,1,,,,,イトウセイコウ,0
2530,9020002020416,登記記録の閉鎖等,0,2025-05-08,2025-04-16,有限会社アイエムエー建築設計亊務所,,有限会社,神奈川県,横浜市旭区,笹野台１丁目１４番１８号,,14,112,2410816,,,2025-04-16,清算の結了等,,,2015-10-05,1,,,,,アイエムエーケンチクセッケイジムショ,0
2541,9030001053069,登記記録の閉鎖等,0,2025-05-08,2025-05-01,株式会社カレントコーポレーション,,株式会社,埼玉県,春日部市,緑町３丁目５番５号,,11,214,3440063,,,2025-05-01,清算の結了等,,,2015-10-05,1,,,,,カレントコーポレーション,0
2544,9030001106875,登記記録の閉鎖等,0,2025-05-08,2025-05-01,株式会社ディール,,株式会社,埼玉県,所沢市,御幸町１－２５,,11,208,3591115,,,2025-05-01,清算の結了等,,,2015-10-05,1,,,,,ディール,0
2551,9030002040900,登記記録の閉鎖等,0,2025-05-08,2025-05-01,有限会社アライ,,有限会社,埼玉県,加須市,中央２丁目８番３７号,,11,210,3470055,,,2025-05-01,清算の結了等,,,2015-10-05,1,,,,,アライ,0
2554,9030002080418,登記記録の閉鎖等,0,2025-05-08,2025-05-01,有限会社阿部工商,,有限会社,埼玉県,本庄市,小島南１丁目３番１０号,,11,211,3670062,,,2025-05-01,清算の結了等,,,2015-10-05,1,,,,,アベコウショウ,0
2572,9070001007608,登記記録の閉鎖等,0,2025-05-08,2025-04-30,大輪商工株式会社,,株式会社,群馬県,高崎市,下和田町２丁目１番地１,,10,202,3700846,,,2025-04-30,清算の結了等,,,2015-10-05,1,,,,,ダイリンショウコウ,0
2574,9070002030699,登記記録の閉鎖等,0,2025-05-08,2025-04-25,有限会社フードショップクリバラ,,有限会社,群馬県,邑楽郡千代田町,大字赤岩１１７４番地の１,,10,523,3700503,,,2025-04-25,清算の結了等,,,2015-10-05,1,,,,,フードショップクリバラ,0
2604,9120001193145,登記記録の閉鎖等,0,2025-05-08,2025-04-17,株式会社勝栄建業,,株式会社,大阪府,交野市,向井田１丁目４５番９号,,27,230,5760065,,,2025-04-17,清算の結了等,,,2015-10-05,1,,,,,ショウエイケンギョウ,0
2618,9120105008513,登記記録の閉鎖等,0,2025-05-08,2025-04-30,一般社団法人日本自己表現トレーニング協会,,その他の設立登記法人,大阪府,松原市,河合１丁目１番１１号,,27,217,5800022,,,2025-04-30,清算の結了等,,,2016-05-31,1,,,,,ニホンジコヒョウゲントレーニングキョウカイ,0
2639,9140003019123,登記記録の閉鎖等,0,2025-05-08,2025-04-30,合同会社兵庫総合研究所,,合同会社,兵庫県,姫路市,砥堀３７番地６,,28,201,6700802,,,2025-04-30,清算の結了等,,,2023-05-22,1,,,,,ヒョウゴソウゴウケンキュウショ,0
2640,9140005023379,登記記録の閉鎖等,0,2025-05-08,2025-05-02,一般社団法人高朗会,,その他の設立登記法人,大阪府,大阪市東住吉区,中野４丁目１２番２３号メゾン中野１階,,27,121,5460012,,,2025-05-02,清算の結了等,,,2017-02-01,1,,,,,コウロウカイ,0
2649,9180001135546,登記記録の閉鎖等,0,2025-05-08,2025-04-28,ハートストリングス株式会社,,株式会社,愛知県,名古屋市中川区,戸田西３丁目４３４番地,,23,110,4540967,,,2025-04-28,清算の結了等,,,2019-02-22,1,,,,,ハートストリングス,0
2662,9190001007802,登記記録の閉鎖等,0,2025-05-08,2025-04-25,株式会社マルミフーズ,,株式会社,三重県,鳥羽市,白木町２６０番地２,,24,211,5170043,,,2025-04-25,清算の結了等,,,2015-10-05,1,,,,,マルミフーズ,0
2664,9190002018179,登記記録の閉鎖等,0,2025-05-08,2025-04-30,有限会社六石,,有限会社,三重県,いなべ市,北勢町東村字小山１３９３番地の１,,24,214,5110432,,,2025-04-30,清算の結了等,,,2015-10-05,1,,,,,ロッコク,0
2683,9260001001574,登記記録の閉鎖等,0,2025-05-08,2025-04-24,株式会社岡田薬局,,株式会社,岡山県,岡山市北区,大学町２番１６号,,33,101,7000906,,,2025-04-24,清算の結了等,,,2015-10-05,1,,,,,オカダヤッキョク,0
2686,9260002020722,登記記録の閉鎖等,0,2025-05-08,2025-04-28,有限会社やもり興建,,有限会社,岡山県,倉敷市,玉島黒崎１５００番地の１,,33,202,7138126,,,2025-04-28,清算の結了等,,,2015-10-05,1,,,,,ヤモリコウケン,0
2691,9290002002552,登記記録の閉鎖等,0,2025-05-08,2025-04-22,有限会社鮮魚うえだ,,有限会社,福岡県,福岡市南区,若久１丁目３３番１３号,,40,134,8150042,,,2025-04-22,清算の結了等,,,2015-10-05,1,,,,,,0
2707,9320003004445,登記記録の閉鎖等,0,2025-05-08,2025-04-23,合同会社ファイブサン,,合同会社,大分県,津久見市,中央町６番１８号,,44,207,8792441,,,2025-04-23,清算の結了等,,,2024-08-05,1,,,,,ファイブサン,0
2717,9370002011586,登記記録の閉鎖等,0,2025-05-08,2025-04-18,有限会社新富,,有限会社,宮城県,仙台市青葉区,一番町２丁目４番１２号,,04,101,9800811,,,2025-04-18,清算の結了等,,,2015-10-05,1,,,,,シントミ,0
2720,9380005001939,登記記録の閉鎖等,0,2025-05-08,2025-04-28,特定非営利活動法人エフちゃんねる,,その他の設立登記法人,福島県,福島市,荒井北３丁目１０番地の３,,07,201,9602102,,,2025-04-28,清算の結了等,,,2015-10-05,1,,,,,エフチャンネル,0
2721,9390002008151,登記記録の閉鎖等,0,2025-05-08,2025-04-22,有限会社渡部食品,,有限会社,山形県,酒田市,漆曽根字四合田４７番地,,06,204,9998164,,,2025-04-22,清算の結了等,,,2015-10-05,1,,,,,ワタナベショクヒン,0
2723,9400005007909,登記記録の閉鎖等,0,2025-05-08,2025-04-14,農事組合法人中ノ森,,その他の設立登記法人,岩手県,奥州市,胆沢小山字佐布７２番地,,03,215,0230402,,,2025-04-14,清算の結了等,,,2018-06-25,1,,,,,ナカノモリ,0
2741,9450003000737,登記記録の閉鎖等,0,2025-05-08,2025-04-22,合資会社オオバ,,合資会社,北海道,苫前郡羽幌町,南大通２丁目６番地,,01,484,0784108,,,2025-04-22,清算の結了等,,,2015-10-05,1,,,,,,0
