sequenceNumber,corporateNumber,process,correct,updateDate,changeDate,name,nameImageId,kind,prefectureName,cityName,streetNumber,addressImageId,prefectureCode,cityCode,postCode,addressOutside,addressOutsideImageId,closeDate,closeCause,successorCorporateNumber,changeCause,assignmentDate,latest,enName,enPrefectureName,enCityName,enAddressOutside,furigana,hihyoji
12,1010001260995,新規,0,2026-02-06,2026-02-06,株式会社Ｅ＆Ｕ,,株式会社,東京都,文京区,湯島３丁目１３番５号鶴文舎ビル３階,,13,105,1130034,,,,,,,2026-02-06,1,,,,,イーアンドユー,0
13,1010001262414,新規,0,2026-02-06,2026-02-06,株式会社ミスローズ,,株式会社,東京都,千代田区,麹町４丁目５番地２０ＫＳビル８階,,13,101,1020083,,,,,,,2026-02-06,1,,,,,ミスローズ,0
14,1010001262422,新規,0,2026-02-06,2026-02-06,ＦＵＳＩＯＮ　ＥＮＴＥＲＴＡＩＮＭＥＮＴ株式会社,,株式会社,東京都,中央区,新川２丁目２７番４－２８０６号,,13,102,1040033,,,,,,,2026-02-06,1,,,,,フュージョンエンターテイメント,0
15,1010001262455,新規,0,2026-02-06,2026-02-06,株式会社Ｅｌｓｔ．Ｄ．Ｍ,,株式会社,東京都,千代田区,永田町２丁目９番４号,,13,101,1000014,,,,,,,2026-02-06,1,,,,,エルストディーエム,0
16,1010001262521,新規,0,2026-02-06,2026-02-06,隼ファシリティサービス株式会社,,株式会社,東京都,千代田区,一番町６相模屋本社ビル７階,,13,101,1020082,,,,,,,2026-02-06,1,,,,,ハヤブサファシリティサービス,0
17,1010001262678,新規,0,2026-02-06,2026-02-06,ＢｌｕｅＰｅａｋＴｅｃｈ株式会社,,株式会社,東京都,千代田区,神田神保町２丁目１０－３１ＩＷビル１Ｆ,,13,101,1010051,,,,,,,2026-02-06,1,,,,,ブルーピークテック,0
22,1010003050180,新規,0,2026-02-06,2026-02-06,合同会社ゴーワンジャパン,,合同会社,東京都,中央区,日本橋室町４丁目３番９号,,13,102,1030022,,,,,,,2026-02-06,1,,,,,ゴーワンジャパン,0
29,1010401196294,新規,0,2026-02-06,2026-02-06,ＧＯＯＤ　ＮＥＷ株式会社,,株式会社,東京都,港区,東麻布１丁目３番８号,,13,103,1060044,,,,,,,2026-02-06,1,,,,,グッドニュー,0
30,1010401196303,新規,0,2026-02-06,2026-02-06,ＡＳＵＬＯビジネスサポート株式会社,,株式会社,東京都,港区,南青山３丁目１番３６号青山丸竹ビル６Ｆ,,13,103,1070062,,,,,,,2026-02-06,1,,,,,アスロビジネスサポート,0
31,1010401196311,新規,0,2026-02-06,2026-02-06,株式会社ＨＲ７,,株式会社,東京都,港区,南麻布２丁目３番１１－７０２号,,13,103,1060047,,,,,,,2026-02-06,1,,,,,エイチアールセブン,0
32,1010401196328,新規,0,2026-02-06,2026-02-06,Ｆｕｔａｂａ　Ｌａｂ株式会社,,株式会社,東京都,港区,南青山３丁目１番３６号青山丸竹ビル６Ｆ,,13,103,1070062,,,,,,,2026-02-06,1,,,,,フタバラボ,0
33,1010401196344,新規,0,2026-02-06,2026-02-06,株式会社和薫,,株式会社,東京都,港区,北青山１丁目３番１号アールキューブ青山３階,,13,103,1070061,,,,,,,2026-02-06,1,,,,,ワクン,0
34,1010401196352,新規,0,2026-02-06,2026-02-06,株式会社ＳＷＩＦＥＸ,,株式会社,東京都,港区,新橋５丁目１２番７号東通新橋ビル３階,,13,103,1050004,,,,,,,2026-02-06,1,,,,,スウィフェックス,0
35,1010401196360,新規,0,2026-02-06,2026-02-06,Ｈｕｇｇｅ＆Ｃｏ．株式会社,,株式会社,東京都,港区,南青山２丁目５番１７号ＰＯＬＡ青山ビルディング８Ｆ,,13,103,1070062,,,,,,,2026-02-06,1,,,,,ヒュッゲアンドカンパニー,0
38,1010403037240,新規,0,2026-02-06,2026-02-06,クレアシオン・ボンド合同会社,,合同会社,東京都,港区,赤坂９丁目７番１号,,13,103,1070052,,,,,,,2026-02-06,1,,,,,クレアシオンボンド,0
39,1010405025342,新規,0,2026-02-06,2026-02-06,ＧＡＲＮＥＴ守谷一般社団法人,,その他の設立登記法人,東京都,港区,六本木１丁目６番１号泉ガーデンタワー１２階,,13,103,1060032,,,,,,,2026-02-06,1,,,,,ガーネットモリヤ,0
45,1010601068665,新規,0,2026-02-06,2026-02-06,株式会社ＣＯＭＯＴＯＭＯ,,株式会社,東京都,江東区,有明３丁目７－２６有明フロンティアビルＢ棟９階,,13,108,1350063,,,,,,,2026-02-06,1,,,,,コモトモ,0
46,1010701049004,新規,0,2026-02-06,2026-02-06,株式会社ＴＲＹ,,株式会社,東京都,品川区,南品川１丁目５番１号塩原ビル１階,,13,109,1400004,,,,,,,2026-02-06,1,,,,,トライ,0
50,1010803005714,新規,0,2026-02-06,2026-02-06,合同会社ｒａｋｕｄａ　ｗｏｒｋｓ,,合同会社,東京都,大田区,池上２丁目１６－９,,13,111,1460082,,,,,,,2026-02-06,1,,,,,ラクダワークス,0
54,1010903010606,新規,0,2026-02-06,2026-02-06,ノアテクノロジーズ合同会社,,合同会社,東京都,世田谷区,太子堂４丁目１８番１５号マガザン三軒茶屋２－３Ｆ－３,,13,112,1540004,,,,,,,2026-02-06,1,,,,,ノアテクノロジーズ,0
55,1010905004894,新規,0,2026-02-06,2026-02-06,特定非営利活動法人移植ＡＹＡＴＯＭＯ　Ｐｌｕｓ,,その他の設立登記法人,東京都,世田谷区,玉川４丁目５番７号ＥＬＭＯ二子玉川２０２号室,,13,112,1580094,,,,,,,2026-02-06,1,,,,,イショクアヤトモプラス,0
60,1011001175317,新規,0,2026-02-06,2026-02-06,株式会社ＡＧＮＴ．ＳＰＩＮＮＥＲ,,株式会社,東京都,渋谷区,道玄坂１丁目１０－８渋谷道玄坂東急ビル２Ｆ‐Ｃ,,13,113,1500043,,,,,,,2026-02-06,1,,,,,エージェントスピナー,0
61,1011001175333,新規,0,2026-02-06,2026-02-06,株式会社ＫＯＵ　ＲＩＣＥ　ＷＯＲＫＳ,,株式会社,東京都,渋谷区,元代々木町５１番６号,,13,113,1510062,,,,,,,2026-02-06,1,,,,,コウライスワークス,0
62,1011001175341,新規,0,2026-02-06,2026-02-06,Ａ４２Ｓｔｕｄｉｏ株式会社,,株式会社,東京都,渋谷区,円山町５番３号ＭＩＥＵＸ渋谷ビル８階,,13,113,1500044,,,,,,,2026-02-06,1,,,,,エーフォーティーツースタジオ,0
63,1011001175523,新規,0,2026-02-06,2026-02-06,株式会社ＳｔｒａＴｈｉｎｋ,,株式会社,東京都,渋谷区,恵比寿西２丁目４番８号ウィンド恵比寿ビル８Ｆ,,13,113,1500021,,,,,,,2026-02-06,1,,,,,ストラシンク,0
66,1011101114653,新規,0,2026-02-06,2026-02-06,尚一学株式会社,,株式会社,東京都,新宿区,西新宿３丁目３番１３号西新宿水間ビル６階,,13,104,1600023,,,,,,,2026-02-06,1,,,,,ショウイチガク,0
80,1011503006861,新規,0,2026-02-06,2026-02-06,合同会社Ａｚｕｘ,,合同会社,東京都,北区,赤羽１丁目７－９赤羽第一葉山ビル４Ｆ,,13,117,1150045,,,,,,,2026-02-06,1,,,,,アザックス,0
88,1011801047426,新規,0,2026-02-06,2026-02-06,株式会社天佑,,株式会社,東京都,足立区,竹の塚５丁目１番１８号ワイ・エスビル３０２,,13,121,1210813,,,,,,,2026-02-06,1,,,,,テンユウ,0
91,1011803007320,新規,0,2026-02-06,2026-02-06,ファシリティ・エイド合同会社,,合同会社,東京都,足立区,千住３丁目５６,,13,121,1200034,,,,,,,2026-02-06,1,,,,,ファシリティエイド,0
106,1020001166952,新規,0,2026-02-06,2026-02-06,株式会社ＳｉｌｖｅｒＸ,,株式会社,神奈川県,横浜市神奈川区,二本榎４番２号,,14,102,2210813,,,,,,,2026-02-06,1,,,,,シルバーエックス,0
107,1020001167001,新規,0,2026-02-06,2026-02-06,Ｊａｐａｎ　Ｐａｄｅｌ　Ｌｅａｇｕｅ株式会社,,株式会社,神奈川県,川崎市中原区,今井仲町８番３６－２０６号,,14,133,2110065,,,,,,,2026-02-06,1,,,,,ジャパンパデルリーグ,0
108,1020003030280,新規,0,2026-02-06,2026-02-06,合同会社ＭＯＮＳＴＥＲ　ＤＲＩＶＥ,,合同会社,神奈川県,川崎市麻生区,片平４丁目５－１３カターラＫ２０６,,14,137,2150023,,,,,,,2026-02-06,1,,,,,モンスタードライブ,0
116,1030001170813,新規,0,2026-02-06,2026-02-06,株式会社ＬＩＦＥ　ＮＯＶＡ,,株式会社,埼玉県,新座市,東１丁目１０番６号,,11,230,3520002,,,,,,,2026-02-06,1,,,,,ライフノバ,0
117,1030001170846,新規,0,2026-02-06,2026-02-06,株式会社さなの木,,株式会社,埼玉県,さいたま市大宮区,桜木町２丁目３番地大宮マルイ７階,,11,103,3300854,,,,,,,2026-02-06,1,,,,,サナノキ,0
118,1030001170895,新規,0,2026-02-06,2026-02-06,株式会社友進,,株式会社,埼玉県,蓮田市,大字閏戸７５３番地１,,11,238,3490133,,,,,,,2026-02-06,1,,,,,ユウシン,0
119,1030001170912,新規,0,2026-02-06,2026-02-06,Ｓｏｌｖａｇｅ株式会社,,株式会社,埼玉県,三郷市,中央５丁目１番地４ラヴィエール３０７,,11,237,3410038,,,,,,,2026-02-06,1,,,,,ソルヴェージ,0
125,1040001142365,新規,0,2026-02-06,2026-02-06,ＥＮＲＯＳＥ株式会社,,株式会社,千葉県,佐倉市,西志津８丁目２１番１５号,,12,212,2850845,,,,,,,2026-02-06,1,,,,,エンローズ,0
129,1040003029370,新規,0,2026-02-06,2026-02-06,合同会社三和工業,,合同会社,千葉県,銚子市,中央町９番地の３２,,12,202,2880041,,,,,,,2026-02-06,1,,,,,サンワコウギョウ,0
130,1040003029412,新規,0,2026-02-06,2026-02-06,順発合同会社,,合同会社,千葉県,八千代市,萱田町字萱田道７９７番１０－Ｍ－２０４,,12,221,2760044,,,,,,,2026-02-06,1,,,,,ジュンハツ,0
137,1070001043800,新規,0,2026-02-06,2026-02-06,北関建設株式会社,,株式会社,群馬県,高崎市,田町７５番地５－９０４号,,10,202,3700824,,,,,,,2026-02-06,1,,,,,ホッカンケンセツ,0
139,1070003006292,新規,0,2026-02-06,2026-02-06,ＦＡＲＭ５２９合同会社,,合同会社,群馬県,甘楽郡下仁田町,大字上小坂甲６３８番地,,10,382,3702621,,,,,,,2026-02-06,1,,,,,ファームゴニキュウ,0
140,1070005010466,新規,0,2026-02-06,2026-02-06,一般社団法人ケアする病院ネットワーク,,その他の設立登記法人,群馬県,沼田市,久屋原町３４５番地１,,10,206,3780005,,,,,,,2026-02-06,1,,,,,ケアスルビョウインネットワーク,0
142,1080001027414,新規,0,2026-02-06,2026-02-06,株式会社アズワーク,,株式会社,静岡県,島田市,東町４９１番地,,22,209,4270011,,,,,,,2026-02-06,1,,,,,アズワーク,0
144,1080101026068,新規,0,2026-02-06,2026-02-06,マネーピボット株式会社,,株式会社,静岡県,御殿場市,神山１９３６番地の５,,22,215,4120033,,,,,,,2026-02-06,1,,,,,マネーピボット,0
147,1080405007796,新規,0,2026-02-06,2026-02-06,特定非営利活動法人浜名湖・庄内半島ドリーム,,その他の設立登記法人,静岡県,浜松市中央区,和地町６３１６番地,,22,138,4311115,,,,,,,2026-02-06,1,,,,,ハマナコショウナイハントウドリーム,0
152,1110001039892,新規,0,2026-02-06,2026-02-06,株式会社やすふぁーむ,,株式会社,新潟県,燕市,小高１１３４番地,,15,213,9591241,,,,,,,2026-02-06,1,,,,,ヤスファーム,0
161,1120001283936,新規,0,2026-02-06,2026-02-06,株式会社Ｈｅａｌｔｈｃａｒｅ　Ａｎｄ　Ｔｈｉｒｄｐｌａｃｅ　Ｌｉｎｋ,,株式会社,大阪府,大阪市鶴見区,放出東３丁目２１－４０－２０５,,27,124,5380044,,,,,,,2026-02-06,1,,,,,ヘルスケアサードプレイスリンク,0
162,1120001283944,新規,0,2026-02-06,2026-02-06,株式会社タキザワ,,株式会社,大阪府,寝屋川市,池田３丁目１番４６号,,27,215,5720039,,,,,,,2026-02-06,1,,,,,タキザワ,0
167,1120101073155,新規,0,2026-02-06,2026-02-06,株式会社ｃａｐｉ　ｄｅｓｉｇｎ,,株式会社,大阪府,堺市中区,小阪５９５番地,,27,142,5998276,,,,,,,2026-02-06,1,,,,,カピデザイン,0
168,1120101073163,新規,0,2026-02-06,2026-02-06,Ｚホールディングス株式会社,,株式会社,大阪府,堺市堺区,出島西町３番地２０,,27,141,5900831,,,,,,,2026-02-06,1,,,,,ゼットホールディングス,0
170,1120901052184,新規,0,2026-02-06,2026-02-06,株式会社Ｙ．Ｄ．Ｋ山本電気,,株式会社,大阪府,高槻市,深沢町１丁目１０番１４号,,27,207,5690035,,,,,,,2026-02-06,1,,,,,ワイディーケイヤマモトデンキ,0
171,1120901052192,新規,0,2026-02-06,2026-02-06,株式会社マコトエステート,,株式会社,大阪府,豊中市,庄内西町２丁目２５番１６－６０６号,,27,203,5610832,,,,,,,2026-02-06,1,,,,,マコトエステート,0
174,1120903006064,新規,0,2026-02-06,2026-02-06,合同会社Ｒｉｓｅ　Ｏｎｅ,,合同会社,大阪府,豊中市,柴原町３丁目５番４０－１０１号,,27,203,5600055,,,,,,,2026-02-06,1,,,,,ライズワン,0
180,1130001081546,新規,0,2026-02-06,2026-02-06,株式会社京愛物流,,株式会社,京都府,城陽市,市辺五島５１番地の４フロンティア２０１,,26,207,6100114,,,,,,,2026-02-06,1,,,,,ケイアイブツリュウ,0
181,1130001081570,新規,0,2026-02-06,2026-02-06,株式会社はなと不動産,,株式会社,京都府,城陽市,久世下大谷１４４番地の３,,26,207,6100102,,,,,,,2026-02-06,1,,,,,ハナトフドウサン,0
187,1140001141596,新規,0,2026-02-06,2026-02-06,株式会社オニアート,,株式会社,兵庫県,神戸市垂水区,仲田１丁目８番２４－２０８号,,28,108,6550034,,,,,,,2026-02-06,1,,,,,オニアート,0
188,1140001141654,新規,0,2026-02-06,2026-02-06,株式会社Ｐｌｕｓ‐ｋｎｏｔ,,株式会社,兵庫県,芦屋市,西芦屋町８番１９号３０１,00142485,28,206,6590085,,,,,,,2026-02-06,1,,,,,プラスノット,0
189,1140001141662,新規,0,2026-02-06,2026-02-06,株式会社Ｙｓ，Ｐｒｏ,,株式会社,兵庫県,西脇市,小坂町横溝１３８番地の４,,28,213,6770017,,,,,,,2026-02-06,1,,,,,ワイズプロ,0
190,1140001141670,新規,0,2026-02-06,2026-02-06,株式会社ＫＹＥＮ,,株式会社,兵庫県,神戸市北区,花山中尾台３丁目１７番地の１１,,28,109,6511202,,,,,,,2026-02-06,1,,,,,カイエン,0
197,1140003023165,新規,0,2026-02-06,2026-02-06,合同会社Ｌｕｇｉ,,合同会社,兵庫県,神戸市須磨区,若木町３丁目６－３,,28,107,6540014,,,,,,,2026-02-06,1,,,,,ルギ,0
199,1150001028702,新規,0,2026-02-06,2026-02-06,株式会社ＬＡＮＤＧＯＲＩ,,株式会社,奈良県,生駒市,鹿ノ台西１丁目１番１８号,,29,209,6300114,,,,,,,2026-02-06,1,,,,,ランドゴリ,0
213,1180301040668,新規,0,2026-02-06,2026-02-06,株式会社トラストワーク岡崎,,株式会社,愛知県,岡崎市,百々西町６番地６,,23,202,4442117,,,,,,,2026-02-06,1,,,,,トラストワークオカザキ,0
214,1180301040676,新規,0,2026-02-06,2026-02-06,株式会社スズキ企画,,株式会社,愛知県,安城市,桜町５番３号,,23,212,4460041,,,,,,,2026-02-06,1,,,,,スズキキカク,0
217,1190001032873,新規,0,2026-02-06,2026-02-06,株式会社中部クリーンテック,,株式会社,三重県,四日市市,西新地１４番１号太平洋四日市ビル５Ｆ‐Ｃ,,24,202,5100087,,,,,,,2026-02-06,1,,,,,チュウブクリーンテック,0
223,1220001027135,新規,0,2026-02-06,2026-02-06,株式会社ＧＯＩＮＧ,,株式会社,石川県,羽咋市,次場町ツ６７番地２,,17,207,9250028,,,,,,,2026-02-06,1,,,,,ゴーイング,0
224,1220003004223,新規,0,2026-02-06,2026-02-06,麦田建設合同会社,,合同会社,石川県,金沢市,疋田２丁目１２９番地,,17,201,9200003,,,,,,,2026-02-06,1,,,,,ムギタケンセツ,0
234,1240003007587,新規,0,2026-02-06,2026-02-06,合同会社エンファンプラス,,合同会社,広島県,広島市東区,牛田早稲田４丁目７番１２－３０８号,,34,102,7320062,,,,,,,2026-02-06,1,,,,,エンファンプラス,0
235,1250003003899,新規,0,2026-02-06,2026-02-06,合同会社Ｔ企画,,合同会社,山口県,宇部市,明神町２丁目９番２７号,,35,202,7550008,,,,,,,2026-02-06,1,,,,,,0
236,1260001040976,新規,0,2026-02-06,2026-02-06,株式会社ＢＲＩＤＧＥ　ｉｎｓｉｇｈｔ,,株式会社,岡山県,岡山市北区,北長瀬本町２７番６号,,33,101,7000961,,,,,,,2026-02-06,1,,,,,ブリッジインサイト,0
241,1290001113052,新規,0,2026-02-06,2026-02-06,株式会社ハッピーライフ,,株式会社,福岡県,久留米市,国分町１２５０番地１－３０３,,40,203,8390863,,,,,,,2026-02-06,1,,,,,,0
243,1290003018027,新規,0,2026-02-06,2026-02-06,錦寧貿易合同会社,,合同会社,福岡県,福岡市中央区,警固１丁目４－１１フローレス警固４０３号室,,40,133,8100023,,,,,,,2026-02-06,1,,,,,,0
245,1290803005257,新規,0,2026-02-06,2026-02-06,合同会社Ｇ‐ＴＡＫ,,合同会社,福岡県,鞍手郡鞍手町,大字八尋１４４６番地,,40,402,8071308,,,,,,,2026-02-06,1,,,,,ジータック,0
247,1310001019949,新規,0,2026-02-06,2026-02-06,株式会社ＹＡＭＡＴＯＫＵ,,株式会社,長崎県,佐世保市,白岳町５０番地４,,42,202,8571164,,,,,,,2026-02-06,1,,,,,ヤマトク,0
252,1320001021573,新規,0,2026-02-06,2026-02-06,株式会社鈴成,,株式会社,大分県,大分市,大字関園１１７番地の８,,44,201,8700115,,,,,,,2026-02-06,1,,,,,スズナリ,0
256,1340003005085,新規,0,2026-02-06,2026-02-06,合同会社アシアット,,合同会社,鹿児島県,霧島市,隼人町内山田３丁目１番６７号,,46,218,8995106,,,,,,,2026-02-06,1,,,,,アシアット,0
261,1370001053447,新規,0,2026-02-06,2026-02-06,株式会社セールストリビュート,,株式会社,宮城県,仙台市青葉区,中央４丁目４番１９号２階,,04,101,9800021,,,,,,,2026-02-06,1,,,,,セールストリビュート,0
262,1370001053455,新規,0,2026-02-06,2026-02-06,株式会社食遊ＧＲＯＵＰ,,株式会社,宮城県,仙台市青葉区,国分町２丁目５番１８号コロニアルハウス４Ｆ,,04,101,9800803,,,,,,,2026-02-06,1,,,,,ショクユウグループ,0
265,1370003007467,新規,0,2026-02-06,2026-02-06,合同会社ＫＯＫＯＮＯＮＥ,,合同会社,宮城県,亘理郡亘理町,逢隈牛袋字西河原２４番地１２,00142487,04,361,9892302,,,,,,,2026-02-06,1,,,,,ココノネ,0
267,1400003003644,新規,0,2026-02-06,2026-02-06,合同会社プリズムスカイ,,合同会社,岩手県,一関市,青葉１丁目６番４号シャトレー壱號館１０２,,03,209,0210031,,,,,,,2026-02-06,1,,,,,プリズムスカイ,0
269,1430001096183,新規,0,2026-02-06,2026-02-06,０９ＢＡＳＥ株式会社,,株式会社,北海道,札幌市白石区,平和通９丁目北３－１－１,,01,104,0030029,,,,,,,2026-02-06,1,,,,,ゼロナインベース,0
274,1450001014853,新規,0,2026-02-06,2026-02-06,株式会社ふらのＤＭＣ,,株式会社,北海道,富良野市,本町２番２７号,,01,229,0760031,,,,,,,2026-02-06,1,,,,,フラノディーエムシー,0
277,1480001013076,新規,0,2026-02-06,2026-02-06,株式会社ＳＨＥＬＢＹ,,株式会社,徳島県,板野郡藍住町,矢上字春日１０３番地７,,36,403,7711252,,,,,,,2026-02-06,1,,,,,シェルビー,0
285,1700150134204,新規,0,2026-02-06,2026-02-06,謙商旅股斌有限公司,00142496,外国会社等,,,,,,,,台湾台北市中正区紹興北街３號３樓,,,,,,2026-02-06,1,,,,,ケンシヨウリヨコフンユウゲンコウシ,0
286,1700150134311,新規,0,2026-02-06,2026-02-06,Ｍａｄｕｒａｎｇａ　Ｉｎｔｅｒｎａｔｉｏｎａｌ,,外国会社等,京都府,八幡市,八幡月夜田４５番地の５,,26,210,6148047,ＮＯ．０４，ＭＡＤＵＲＡＮＧＡ，ＭＡＤＡＧＡＬＬＡＲＯＡＤ，ＫＩＲＩＢＡＭＵＮＡ，ＩＢＢＡＧＡＭＵＷＡ,,,,,,2026-02-06,1,,,,,マドウランガインターナシヨナル,0
294,2010001262339,新規,0,2026-02-06,2026-02-06,株式会社東京社会サービス,,株式会社,東京都,千代田区,神田須田町１丁目７番８号ＶＯＲＴ秋葉原ＩＶ２Ｆ,00142482,13,101,1010041,,,,,,,2026-02-06,1,,,,,トウキョウシャカイサービス,0
295,2010001262388,新規,0,2026-02-06,2026-02-06,株式会社アグリデザイン研究所,,株式会社,東京都,文京区,本郷２丁目４番２－７０２号,,13,105,1130033,,,,,,,2026-02-06,1,,,,,アグリデザインケンキュウジョ,0
296,2010001262586,新規,0,2026-02-06,2026-02-06,株式会社ニコルビ,,株式会社,東京都,千代田区,四番町４番地９（新東京国際リーガル内）,,13,101,1020081,,,,,,,2026-02-06,1,,,,,ニコルビ,0
297,2010001262603,新規,0,2026-02-06,2026-02-06,株式会社ＣＯＲＥＬＩＮＥ,,株式会社,東京都,千代田区,丸の内３丁目２番２号,,13,101,1000005,,,,,,,2026-02-06,1,,,,,コアライン,0
302,2010003050056,新規,0,2026-02-06,2026-02-06,Ｓａｍｖｉｄ合同会社,,合同会社,東京都,中央区,日本橋室町１丁目１１番１２号日本橋水野ビル７階,,13,102,1030022,,,,,,,2026-02-06,1,,,,,サンヴィッド,0
303,2010003050205,新規,0,2026-02-06,2026-02-06,合同会社ＲＩＣＰＪ３,,合同会社,東京都,千代田区,霞が関３丁目２番５号,,13,101,1000013,,,,,,,2026-02-06,1,,,,,アールアイシーピージェースリー,0
304,2010003050279,新規,0,2026-02-06,2026-02-06,ＨｉｓｔｏＲｙ合同会社,,合同会社,東京都,中央区,日本橋大伝馬町７番３号,,13,102,1030011,,,,,,,2026-02-06,1,,,,,ヒストリー,0
311,2010401196319,新規,0,2026-02-06,2026-02-06,株式会社Ａｍｉｅｌ,,株式会社,東京都,港区,海岸１丁目１３番２０－８０６,,13,103,1050022,,,,,,,2026-02-06,1,,,,,アミエル,0
312,2010401196327,新規,0,2026-02-06,2026-02-06,株式会社チャンチート・ジャポン,,株式会社,東京都,港区,西麻布２丁目１３番１９－６０２号,,13,103,1060031,,,,,,,2026-02-06,1,,,,,チャンチートジャポン,0
313,2010401196335,新規,0,2026-02-06,2026-02-06,栄旬株式会社,,株式会社,東京都,港区,芝５丁目１３番１１号,,13,103,1080014,,,,,,,2026-02-06,1,,,,,エイジュン,0
314,2010401196343,新規,0,2026-02-06,2026-02-06,株式会社ｆｅｌｉｃｉａ,,株式会社,東京都,港区,赤坂６丁目９番１７号赤坂メープルヒル５階,,13,103,1070052,,,,,,,2026-02-06,1,,,,,フェリシア,0
315,2010401196351,新規,0,2026-02-06,2026-02-06,ＬＳ‐ＳＨＩＰ第９９号株式会社,,株式会社,東京都,港区,六本木１丁目６番１号,,13,103,1060032,,,,,,,2026-02-06,1,,,,,エルエスシップダイキュウジュウキュウゴウ,0
317,2010403037248,新規,0,2026-02-06,2026-02-06,合同会社本初之海,,合同会社,東京都,港区,南麻布１丁目７－２４朝日南麻布マンション１００２号室,,13,103,1060047,,,,,,,2026-02-06,1,,,,,ホンショノウミ,0
318,2010403037289,新規,0,2026-02-06,2026-02-06,合同会社かがやき,,合同会社,東京都,港区,虎ノ門１丁目２３番１号,,13,103,1050001,,,,,,,2026-02-06,1,,,,,カガヤキ,0
324,2010501055408,新規,0,2026-02-06,2026-02-06,株式会社ＧｌｏｂｅＥ,,株式会社,東京都,台東区,浅草１丁目１３番５号,,13,106,1110032,,,,,,,2026-02-06,1,,,,,グロービー,0
325,2010501055416,新規,0,2026-02-06,2026-02-06,株式会社ＪＴＭ,,株式会社,東京都,台東区,東上野３丁目１８番１号ＴＨＥＢＬＯＯＭＵＥＮＯ３１０号,,13,106,1100015,,,,,,,2026-02-06,1,,,,,ジェイティエム,0
333,2010701048995,新規,0,2026-02-06,2026-02-06,株式会社つづくアドバイザー,,株式会社,東京都,品川区,東大井１丁目１５番１０号,,13,109,1400011,,,,,,,2026-02-06,1,,,,,ツヅクアドバイザー,0
334,2010701049003,新規,0,2026-02-06,2026-02-06,株式会社ＮＯＴＥＥ,,株式会社,東京都,品川区,東五反田６―１０―２２―６３０,,13,109,1400000,,,,,,,2026-02-06,1,,,,,ノーティー,0
339,2010801036999,新規,0,2026-02-06,2026-02-06,株式会社一心,,株式会社,東京都,大田区,西六郷１丁目１９番１４号,,13,111,1440056,,,,,,,2026-02-06,1,,,,,イッシン,0
340,2010801037023,新規,0,2026-02-06,2026-02-06,株式会社山王モバイル,,株式会社,東京都,大田区,中央３丁目１２番７号,,13,111,1430024,,,,,,,2026-02-06,1,,,,,サンノウモバイル,0
341,2010801037031,新規,0,2026-02-06,2026-02-06,株式会社スクエア,,株式会社,東京都,大田区,上池台２丁目４０番５号,,13,111,1450064,,,,,,,2026-02-06,1,,,,,スクエア,0
343,2010803005713,新規,0,2026-02-06,2026-02-06,東亜ホームズ合同会社,,合同会社,東京都,大田区,山王１丁目２１番５号,,13,111,1430023,,,,,,,2026-02-06,1,,,,,トウアホームズ,0
347,2010901058869,新規,0,2026-02-06,2026-02-06,Ｃｏｔｅｌ　ＡＩ株式会社,,株式会社,東京都,世田谷区,池尻２丁目２０番１２－１０１号,,13,112,1540001,,,,,,,2026-02-06,1,,,,,コーテルエーアイ,0
348,2010901058927,新規,0,2026-02-06,2026-02-06,株式会社ＧＡＭＭＡ　Ａｒｃｈｉｔｅｃｔｓ,,株式会社,東京都,世田谷区,上野毛１丁目１４番１０－２０１号,,13,112,1580093,,,,,,,2026-02-06,1,,,,,ガンマアーキテクツ,0
349,2010903010613,新規,0,2026-02-06,2026-02-06,バダスデザイン合同会社,,合同会社,東京都,世田谷区,上北沢３丁目７番１１号,,13,112,1560057,,,,,,,2026-02-06,1,,,,,バダスデザイン,0
357,2011001175316,新規,0,2026-02-06,2026-02-06,株式会社アスリートプラス,,株式会社,東京都,渋谷区,元代々木町８番７号,,13,113,1510062,,,,,,,2026-02-06,1,,,,,アスリートプラス,0
358,2011001175340,新規,0,2026-02-06,2026-02-06,株式会社Ｍｉｌｌｅ　Ｐｌａｉｓｉｒ,,株式会社,東京都,渋谷区,恵比寿３丁目３６番１２号,,13,113,1500013,,,,,,,2026-02-06,1,,,,,ミルプレジール,0
362,2011003023497,新規,0,2026-02-06,2026-02-06,Ｃ８６Ｊａｐａｎ合同会社,,合同会社,東京都,渋谷区,神南１丁目１１－４ＦＰＧリンクス神南５階,,13,113,1500041,,,,,,,2026-02-06,1,,,,,シーハチロクジャパン,0
363,2011003023588,新規,0,2026-02-06,2026-02-06,トッパワークス合同会社,,合同会社,東京都,渋谷区,恵比寿西２丁目８番４号ＥＸ恵比寿西ビル５階,,13,113,1500021,,,,,,,2026-02-06,1,,,,,トッパワークス,0
364,2011005011368,新規,0,2026-02-06,2026-02-06,税理士法人Ｅｎｇｉｎｉｃ,,その他の設立登記法人,東京都,渋谷区,鶯谷町七丁目７番ＯＨビル３０４,,13,113,1500032,,,,,,,2026-02-06,1,,,,,エンジニック,0
368,2011103016962,新規,0,2026-02-06,2026-02-06,ビーイー・エナトランス合同会社,,合同会社,東京都,新宿区,西新宿１丁目２５番１号,,13,104,1600023,,,,,,,2026-02-06,1,,,,,ビーイーエナトランス,0
373,2011201026954,新規,0,2026-02-06,2026-02-06,株式会社アイビー,,株式会社,東京都,中野区,大和町４丁目１０番２０号,,13,114,1650034,,,,,,,2026-02-06,1,,,,,アイビー,0
381,2011601029367,新規,0,2026-02-06,2026-02-06,株式会社レノンズ,,株式会社,東京都,練馬区,西大泉２丁目１９番１２号,,13,120,1780065,,,,,,,2026-02-06,1,,,,,レノンズ,0
383,2011701029151,新規,0,2026-02-06,2026-02-06,レゾンデートル株式会社,,株式会社,東京都,江戸川区,西小岩５丁目１１番１４号,,13,123,1330057,,,,,,,2026-02-06,1,,,,,レゾンデートル,0
386,2011703004516,新規,0,2026-02-06,2026-02-06,合同会社ＩＫＡＳＫＩＬＬ,,合同会社,東京都,江戸川区,船堀７丁目２０番１６－１０５号,,13,123,1340091,,,,,,,2026-02-06,1,,,,,イカスキル,0
387,2011801047409,新規,0,2026-02-06,2026-02-06,株式会社ＬＥＩＬＩＦＥ,,株式会社,東京都,足立区,梅島１丁目２５番１９－１０６号,,13,121,1210816,,,,,,,2026-02-06,1,,,,,レイライフ,0
388,2011801047417,新規,0,2026-02-06,2026-02-06,株式会社吉美,,株式会社,東京都,足立区,綾瀬４丁目３１番１２号,,13,121,1200005,,,,,,,2026-02-06,1,,,,,ヨシミ,0
389,2011803007286,新規,0,2026-02-06,2026-02-06,合同会社コスメコネクト,,合同会社,東京都,葛飾区,東金町３丁目１７番１０号ＫＢＳ－Ｃ－１１,,13,122,1250041,,,,,,,2026-02-06,1,,,,,コスメコネクト,0
394,2012401044102,新規,0,2026-02-06,2026-02-06,ＴＲＩ‐ＨＡＷＫＳ株式会社,,株式会社,東京都,三鷹市,牟礼５丁目８番５０号　‐２３,,13,204,1810002,,,,,,,2026-02-06,1,,,,,トライホークス,0
395,2012403007602,新規,0,2026-02-06,2026-02-06,合同会社ケンディオ,,合同会社,東京都,小金井市,貫井南町１丁目２４－２３－２階,,13,210,1840014,,,,,,,2026-02-06,1,,,,,ケンディオ,0
399,2012801024521,新規,0,2026-02-06,2026-02-06,株式会社プロップス,,株式会社,東京都,国分寺市,西恋ヶ窪３丁目３番地６,,13,214,1850013,,,,,,,2026-02-06,1,,,,,プロップス,0
401,2020001166984,新規,0,2026-02-06,2026-02-06,株式会社ＭＩＮＡＴＯ訪問マッサージ,,株式会社,神奈川県,横浜市神奈川区,子安通２丁目２４６番地,,14,102,2210021,,,,,,,2026-02-06,1,,,,,,0
402,2020001167009,新規,0,2026-02-06,2026-02-06,株式会社ＢＲＯ企画,,株式会社,神奈川県,横浜市緑区,霧が丘２丁目４番地２４,,14,113,2260016,,,,,,,2026-02-06,1,,,,,ビーアールオーキカク,0
403,2020001167033,新規,0,2026-02-06,2026-02-06,株式会社オオヤイケダ,,株式会社,神奈川県,横浜市都筑区,加賀原１丁目３７番２号,,14,118,2240055,,,,,,,2026-02-06,1,,,,,オオヤイケダ,0
406,2020003030338,新規,0,2026-02-06,2026-02-06,ＧＯＡＴ合同会社,,合同会社,神奈川県,横浜市都筑区,荏田東４丁目３８番１８号,,14,118,2240006,,,,,,,2026-02-06,1,,,,,ゴート,0
408,2021001087460,新規,0,2026-02-06,2026-02-06,株式会社ウィンリペアー,,株式会社,神奈川県,横須賀市,船越町３丁目３３番地７－７０７号室,,14,201,2370076,,,,,,,2026-02-06,1,,,,,ウィンリペアー,0
419,2030001170911,新規,0,2026-02-06,2026-02-06,株式会社ｍｊｃ,,株式会社,埼玉県,上尾市,柏座１丁目１番２１号２Ｆ,,11,219,3620075,,,,,,,2026-02-06,1,,,,,エムジェーシー,0
421,2030003028604,新規,0,2026-02-06,2026-02-06,ＰＣＣプライムパートナーズ合同会社,,合同会社,埼玉県,北葛飾郡松伏町,大字松伏２３７０番地８,,11,465,3430111,,,,,,,2026-02-06,1,,,,,ピーシーシープライムパートナーズ,0
426,2040001142273,新規,0,2026-02-06,2026-02-06,株式会社Ｌｅｉ,,株式会社,千葉県,流山市,南流山３丁目２番地２２ＫＭビル３０１,,12,220,2700163,,,,,,,2026-02-06,1,,,,,レイ,0
427,2040001142298,新規,0,2026-02-06,2026-02-06,Ｈａｎｄｙｍａｎ　ｓｅｒｖｉｃｅ株式会社,,株式会社,千葉県,船橋市,松が丘４丁目４１番１４号,,12,204,2740064,,,,,,,2026-02-06,1,,,,,ハンディマンサービス,0
428,2040001142372,新規,0,2026-02-06,2026-02-06,株式会社ＣＡＢＯＳＣＨ＆ＮＥＥＤ,,株式会社,千葉県,佐倉市,生谷１５１５－１９,,12,212,2850836,,,,,,,2026-02-06,1,,,,,カボッシュアンドニード,0
435,2070001043790,新規,0,2026-02-06,2026-02-06,株式会社みなかみトラベル,,株式会社,群馬県,利根郡みなかみ町,湯原７３４番地１３,,10,449,3791617,,,,,,,2026-02-06,1,,,,,ミナカミトラベル,0
437,2070003006291,新規,0,2026-02-06,2026-02-06,合同会社ワイエス,,合同会社,群馬県,前橋市,小相木町７６９－４エディフィスＳＫＹ１０３,,10,201,3710831,,,,,,,2026-02-06,1,,,,,ワイエス,0
441,2080001027405,新規,0,2026-02-06,2026-02-06,株式会社ＤＡＲＵＭＡ,,株式会社,静岡県,静岡市駿河区,西平松４６２番地の１,,22,102,4228016,,,,,,,2026-02-06,1,,,,,ダルマ,0
456,2100003008607,新規,0,2026-02-06,2026-02-06,合同会社ｆｒｉｓｃｕｍ,,合同会社,長野県,北佐久郡御代田町,大字塩野５６４番地７,,20,323,3890201,,,,,,,2026-02-06,1,,,,,フリスカム,0
470,2120001283919,新規,0,2026-02-06,2026-02-06,株式会社ＶＩＡＲＴＡ,,株式会社,大阪府,大阪市浪速区,大国２丁目１６番１９号Ｊｏ－ＲｉｎＲｅｓｉｄｅｎｃｅ１０２号,,27,111,5560014,,,,,,,2026-02-06,1,,,,,ビアルタ,0
471,2120001284041,新規,0,2026-02-06,2026-02-06,Ｐｈａｒｏｓ株式会社,,株式会社,大阪府,大阪市中央区,備後町４丁目２番３号,,27,128,5410051,,,,,,,2026-02-06,1,,,,,ファロス,0
475,2120005025391,新規,0,2026-02-06,2026-02-06,一般社団法人アルカ・フェリス,,その他の設立登記法人,大阪府,大阪市港区,海岸通１丁目５番１０号大阪文化館２階,,27,107,5520022,,,,,,,2026-02-06,1,,,,,アルカフェリス,0
476,2120101073154,新規,0,2026-02-06,2026-02-06,ＣＹＣトラベル株式会社,,株式会社,大阪府,堺市西区,上７１７番地１,,27,144,5938311,,,,,,,2026-02-06,1,,,,,シーワイシートラベル,0
477,2120101073162,新規,0,2026-02-06,2026-02-06,株式会社アロハス,,株式会社,大阪府,泉佐野市,下瓦屋４丁目３番２５号ドミールまつなみ１Ｆ,,27,213,5980062,,,,,,,2026-02-06,1,,,,,アロハス,0
479,2120901052191,新規,0,2026-02-06,2026-02-06,株式会社ＪＵＳＴ,,株式会社,大阪府,箕面市,瀬川３丁目４番１６号,,27,220,5620045,,,,,,,2026-02-06,1,,,,,ジャスト,0
487,2130001081529,新規,0,2026-02-06,2026-02-06,株式会社ピザ・リトルパーティー,,株式会社,京都府,京都市南区,吉祥院石原開町３５番地,,26,107,6018365,,,,,,,2026-02-06,1,,,,,ピザリトルパーティー,0
488,2130001081594,新規,0,2026-02-06,2026-02-06,株式会社Ｌｉｆｅ　Ｓｈｉｆｔ,,株式会社,京都府,宇治市,木幡熊小路１２－３４,,26,204,6110002,,,,,,,2026-02-06,1,,,,,ライフシフト,0
493,2140001141637,新規,0,2026-02-06,2026-02-06,姫野フロンティアテック株式会社,,株式会社,兵庫県,三木市,府内１５番地,,28,215,6730415,,,,,,,2026-02-06,1,,,,,ヒメノフロンティアテック,0
494,2140001141661,新規,0,2026-02-06,2026-02-06,株式会社赤松レンタカー,,株式会社,兵庫県,西宮市,東町２丁目９番８－９１０号,,28,204,6620922,,,,,,,2026-02-06,1,,,,,アカマツレンタカー,0
496,2150001028718,新規,0,2026-02-06,2026-02-06,明豊技建株式会社,,株式会社,奈良県,大和郡山市,城の台町１３番地１１,,29,203,6391008,,,,,,,2026-02-06,1,,,,,メイホウギケン,0
499,2170001018972,新規,0,2026-02-06,2026-02-06,株式会社Ｕｎｉｔｅｄ　Ｗｏｒｋｓ,,株式会社,和歌山県,和歌山市,雑賀崎１９１８番地,,30,201,6410062,,,,,,,2026-02-06,1,,,,,ユナイテッドワークス,0
507,2180001170467,新規,0,2026-02-06,2026-02-06,宇和株式会社,,株式会社,愛知県,名古屋市東区,東桜２丁目３番７号１１０３号室,,23,102,4610005,,,,,,,2026-02-06,1,,,,,ウワ,0
508,2180001170558,新規,0,2026-02-06,2026-02-06,株式会社ＴＫＤ３２,,株式会社,愛知県,名古屋市東区,白壁３丁目２７番８号,,23,102,4610011,,,,,,,2026-02-06,1,,,,,ティーケーディーサンジュウニ,0
509,2180001170574,新規,0,2026-02-06,2026-02-06,中部空調株式会社,,株式会社,愛知県,名古屋市守山区,大字上志段味字東谷２０９２番地の７,,23,113,4630001,,,,,,,2026-02-06,1,,,,,チュウブクウチョウ,0
510,2180001170582,新規,0,2026-02-06,2026-02-06,株式会社アミュレット,,株式会社,愛知県,名古屋市中村区,名駅３丁目４番１０号アルティメイト名駅１ｓｔ２階,,23,105,4500002,,,,,,,2026-02-06,1,,,,,アミュレット,0
514,2180303006889,新規,0,2026-02-06,2026-02-06,合同会社ＨＯＲＩＺＯＮ,,合同会社,愛知県,豊橋市,江島町１２６番地５,,23,201,4418111,,,,,,,2026-02-06,1,,,,,ホライズン,0
515,2190001032889,新規,0,2026-02-06,2026-02-06,株式会社ＥＮＲＩＣＨ,,株式会社,三重県,鈴鹿市,上箕田２丁目１０番４０号,,24,207,5130056,,,,,,,2026-02-06,1,,,,,エンリッチ,0
522,2200003007219,新規,0,2026-02-06,2026-02-06,フィデス合同会社,,合同会社,岐阜県,可児市,羽崎５２２番地１ウイングパレスＣ,,21,214,5090222,,,,,,,2026-02-06,1,,,,,フィデス,0
523,2220001027150,新規,0,2026-02-06,2026-02-06,株式会社Ｃｏｎｎｅｃｔ,,株式会社,石川県,金沢市,八田町東５８６番地,,17,201,9203104,,,,,,,2026-02-06,1,,,,,コネクト,0
525,2240001066139,新規,0,2026-02-06,2026-02-06,株式会社ルートＧｒｏｕｐ,,株式会社,広島県,広島市東区,光町２丁目６番４１号,,34,102,7320052,,,,,,,2026-02-06,1,,,,,ルートグループ,0
526,2240001066147,新規,0,2026-02-06,2026-02-06,スカイツリーグループ株式会社,,株式会社,広島県,尾道市,長江１丁目２３番４号,,34,205,7220046,,,,,,,2026-02-06,1,,,,,スカイツリーグループ,0
531,2260001040975,新規,0,2026-02-06,2026-02-06,株式会社ｃｏｍｐａｓｓ,,株式会社,岡山県,岡山市北区,錦町８番１１号フェリスビル５ＦＢ,,33,101,7000902,,,,,,,2026-02-06,1,,,,,コンパス,0
532,2260003005506,新規,0,2026-02-06,2026-02-06,合同会社瀬里奈,,合同会社,岡山県,総社市,井手２３３－１０,,33,208,7191125,,,,,,,2026-02-06,1,,,,,,0
539,2290001113019,新規,0,2026-02-06,2026-02-06,株式会社エンターテイツ,,株式会社,福岡県,福岡市博多区,博多駅南２丁目１０番１４－２０５号,,40,132,8120016,,,,,,,2026-02-06,1,,,,,エンターテイツ,0
540,2290001113076,新規,0,2026-02-06,2026-02-06,株式会社ＤＭＯキャピタル,,株式会社,福岡県,福岡市中央区,大名２丁目１０番３１－６０１号,,40,133,8100041,,,,,,,2026-02-06,1,,,,,ディーエムオーキャピタル,0
542,2290003018018,新規,0,2026-02-06,2026-02-06,合同会社ハーベストリンクス,,合同会社,福岡県,春日市,昇町１丁目４３番地,,40,218,8160851,,,,,,,2026-02-06,1,,,,,ハーベストリンクス,0
551,2300001014504,新規,0,2026-02-06,2026-02-06,株式会社ハート,,株式会社,佐賀県,伊万里市,大坪町甲２８８１番地１,,41,205,8480021,,,,,,,2026-02-06,1,,,,,ハート,0
552,2310003005178,新規,0,2026-02-06,2026-02-06,合同会社五御,,合同会社,長崎県,対馬市,美津島町鷄知甲１１３４番地,00142491,42,209,8170000,,,,,,,2026-02-06,1,,,,,ゴオン,0
562,2340003005092,新規,0,2026-02-06,2026-02-06,合同会社ネクサス,,合同会社,鹿児島県,鹿児島市,向陽２丁目２９番５号,,46,201,8900038,,,,,,,2026-02-06,1,,,,,ネクサス,0
563,2350001019936,新規,0,2026-02-06,2026-02-06,株式会社ＭＫＫ,,株式会社,宮崎県,宮崎市,大字浮田１３９０－２,,45,201,8802104,,,,,,,2026-02-06,1,,,,,エムケイケイ,0
564,2360001036344,新規,0,2026-02-06,2026-02-06,株式会社エイチアンドケイ,,株式会社,沖縄県,豊見城市,字田頭１８２番地２,,47,212,9010234,,,,,,,2026-02-06,1,,,,,エイチアンドケイ,0
573,2370001053454,新規,0,2026-02-06,2026-02-06,株式会社南桜場ファーム,,株式会社,宮城県,登米市,中田町上沼字沢田１３０番地,,04,212,9870602,,,,,,,2026-02-06,1,,,,,ミナミサクラバファーム,0
578,2380001035848,新規,0,2026-02-06,2026-02-06,アグリ・テック株式会社,,株式会社,福島県,二本松市,針道字佐勢ノ宮２２番地１,,07,210,9640202,,,,,,,2026-02-06,1,,,,,アグリテック,0
586,2430001096199,新規,0,2026-02-06,2026-02-06,株式会社ステラシン・モルランタ,,株式会社,北海道,札幌市豊平区,中の島二条２丁目４番１０－６１２号,,01,105,0620922,,,,,,,2026-02-06,1,,,,,ステラシンモルランタ,0
587,2430001096208,新規,0,2026-02-06,2026-02-06,株式会社彩和,,株式会社,北海道,石狩市,花川北六条４丁目１番,,01,235,0613216,,,,,,,2026-02-06,1,,,,,イロハ,0
588,2430003018564,新規,0,2026-02-06,2026-02-06,アキナイまちプロジェクト合同会社,,合同会社,北海道,小樽市,花園３丁目１１番１２号グリーンロードハイムＢ１１号室,,01,203,0470024,,,,,,,2026-02-06,1,,,,,アキナイマチプロジェクト,0
589,2430003018572,新規,0,2026-02-06,2026-02-06,合同会社福祉みらい,,合同会社,北海道,岩見沢市,栗沢町由良７４０番地１３４,,01,210,0680111,,,,,,,2026-02-06,1,,,,,フクシミライ,0
590,2430005015403,新規,0,2026-02-06,2026-02-06,一般社団法人しごとのゆめ時間,,その他の設立登記法人,北海道,札幌市南区,常盤二条２丁目７番１０号,,01,106,0050852,,,,,,,2026-02-06,1,,,,,シゴトノユメジカン,0
591,2460103001780,新規,0,2026-02-06,2026-02-06,合同会社ＮＥＸＯＲＡ,,合同会社,北海道,帯広市,西二十条南４丁目２１－３コーポディン１０１号室,,01,207,0802470,,,,,,,2026-02-06,1,,,,,ネクソラ,0
594,2470003003067,新規,0,2026-02-06,2026-02-06,合同会社ＲＩＳＥ　ＧＲＯＵＰ,,合同会社,香川県,丸亀市,土居町２丁目１６番１７号京極通マンション１０４号室,,37,202,7630012,,,,,,,2026-02-06,1,,,,,ライズグループ,0
595,2480003002381,新規,0,2026-02-06,2026-02-06,合同会社ＢＡＳＥ　ＷＯＲＫＳ,,合同会社,徳島県,板野郡松茂町,笹木野字八山開拓１６８番地７,,36,401,7710219,,,,,,,2026-02-06,1,,,,,ベースワークス,0
596,2490003002091,新規,0,2026-02-06,2026-02-06,合同会社ｔｕｎａｇｉ,,合同会社,高知県,高知市,長浜１５０２番地２ヴィラシャルマンＩＩ・１０１号室,00142488,39,201,7810270,,,,,,,2026-02-06,1,,,,,ツナギ,0
605,3010001262354,新規,0,2026-02-06,2026-02-06,株式会社ＳｔａｒＰａｙ‐Ｅｎｔｅｒｔａｉｎｍｅｎｔ,,株式会社,東京都,中央区,八丁堀３丁目３番５号,,13,102,1040032,,,,,,,2026-02-06,1,,,,,スターペイエンターテインメント,0
606,3010001262379,新規,0,2026-02-06,2026-02-06,株式会社エムシーワイ,,株式会社,東京都,中央区,日本橋浜町２丁目３７－４Ｆ,,13,102,1030007,,,,,,,2026-02-06,1,,,,,エムシーワイ,0
607,3010001262387,新規,0,2026-02-06,2026-02-06,株式会社Ｓｏｎｉｃ　Ｐｅａｋ,,株式会社,東京都,中央区,銀座１丁目１２番４号Ｎ＆ＥＢＬＤ．６Ｆ,,13,102,1040061,,,,,,,2026-02-06,1,,,,,ソニックピーク,0
608,3010001262585,新規,0,2026-02-06,2026-02-06,Ｅｖｅｎ　Ｒｅａｌｉｔｉｅｓ株式会社,,株式会社,東京都,中央区,銀座１丁目２２番１１号銀座大竹ビジデンス２Ｆ,,13,102,1040061,,,,,,,2026-02-06,1,,,,,イーブンリアリティーズ,0
609,3010001262593,新規,0,2026-02-06,2026-02-06,ＡＩ活用株式会社,,株式会社,東京都,中央区,銀座８丁目６番２５号３階,,13,102,1040061,,,,,,,2026-02-06,1,,,,,エーアイカツヨウ,0
611,3010003050187,新規,0,2026-02-06,2026-02-06,合同会社吉川三郷ロジオペレーションズ,,合同会社,東京都,中央区,銀座１丁目１２－４Ｎ＆ＥＢＬＤ．７階,,13,102,1040061,,,,,,,2026-02-06,1,,,,,ヨシカワミサトロジオペレーションズ,0
612,3010003050204,新規,0,2026-02-06,2026-02-06,合同会社スカク,,合同会社,東京都,文京区,千石４丁目１４番９号,,13,105,1120011,,,,,,,2026-02-06,1,,,,,スカク,0
613,3010003050286,新規,0,2026-02-06,2026-02-06,ＮＣコバルトム合同会社,,合同会社,東京都,千代田区,霞が関３丁目２番５号,,13,101,1000013,,,,,,,2026-02-06,1,,,,,エヌシーコバルトム,0
624,3010401196078,新規,0,2026-02-06,2026-02-06,株式会社クロノシフト,,株式会社,東京都,港区,南青山３丁目１番３６号青山丸竹ビル６Ｆ,,13,103,1070062,,,,,,,2026-02-06,1,,,,,クロノシフト,0
625,3010401196318,新規,0,2026-02-06,2026-02-06,株式会社ダルト,,株式会社,東京都,港区,南青山３丁目２番２号,,13,103,1070062,,,,,,,2026-02-06,1,,,,,ダルト,0
626,3010401196326,新規,0,2026-02-06,2026-02-06,チラシ配り株式会社,,株式会社,東京都,港区,六本木３丁目１６番１２号,,13,103,1060032,,,,,,,2026-02-06,1,,,,,チラシクバリ,0
627,3010401196334,新規,0,2026-02-06,2026-02-06,Ｒｏｔｏｔｉｌｔ株式会社,,株式会社,東京都,港区,六本木１丁目１０番３号,,13,103,1060032,,,,,,,2026-02-06,1,,,,,ロートチルト,0
628,3010401196350,新規,0,2026-02-06,2026-02-06,ＬＳ‐ＳＨＩＰ第９８号株式会社,,株式会社,東京都,港区,六本木１丁目６番１号,,13,103,1060032,,,,,,,2026-02-06,1,,,,,エルエスシップダイキュウジュウハチゴウ,0
629,3010403037288,新規,0,2026-02-06,2026-02-06,合同会社やまびこ,,合同会社,東京都,港区,虎ノ門１丁目２３番１号,,13,103,1050001,,,,,,,2026-02-06,1,,,,,ヤマビコ,0
631,3010503008098,新規,0,2026-02-06,2026-02-06,東方投資合同会社,,合同会社,東京都,台東区,松が谷１丁目４番６－５０２号ライオンズマンション上野松が谷,,13,106,1110036,,,,,,,2026-02-06,1,,,,,トウホウトウシ,0
636,3010601068639,新規,0,2026-02-06,2026-02-06,株式会社ＴＩＡＮＬＡＬＡ,,株式会社,東京都,江東区,東砂５丁目５番６号Ｋビル２０８号室,,13,108,1360074,,,,,,,2026-02-06,1,,,,,テンラーラー,0
637,3010601068688,新規,0,2026-02-06,2026-02-06,ＫＡＩＴＯ株式会社,,株式会社,東京都,墨田区,墨田２丁目４１番１５－３０３号エンゼルスタシア墨田,,13,107,1310031,,,,,,,2026-02-06,1,,,,,カイト,0
638,3010603012058,新規,0,2026-02-06,2026-02-06,合同会社ａｎｄ　ｗｈｉｔｅ,,合同会社,東京都,墨田区,立花５丁目１３番地３号,,13,107,1310043,,,,,,,2026-02-06,1,,,,,アンドホワイト,0
643,3010701049002,新規,0,2026-02-06,2026-02-06,株式会社ＳＬＣ準備会社,,株式会社,東京都,品川区,上大崎３丁目１番１号,,13,109,1410021,,,,,,,2026-02-06,1,,,,,エスエルシージュンビカイシャ,0
645,3010803005712,新規,0,2026-02-06,2026-02-06,合同会社ヤマト総研,,合同会社,東京都,大田区,新蒲田１丁目１６番１－６１５号,,13,111,1440054,,,,,,,2026-02-06,1,,,,,ヤマトソウケン,0
648,3010901058876,新規,0,2026-02-06,2026-02-06,株式会社ｆｉｖｅ　ｓｉｓｔｅｒｓ,,株式会社,東京都,世田谷区,野沢１丁目３５－５,,13,112,1540003,,,,,,,2026-02-06,1,,,,,ファイブシスターズ,0
649,3010901058892,新規,0,2026-02-06,2026-02-06,株式会社百才,,株式会社,東京都,世田谷区,太子堂４丁目１８番１５号３Ｆ－３,,13,112,1540004,,,,,,,2026-02-06,1,,,,,ヒャクサイ,0
650,3010903010595,新規,0,2026-02-06,2026-02-06,合同会社スノーアセット,,合同会社,東京都,世田谷区,野沢４丁目７番１号,,13,112,1540003,,,,,,,2026-02-06,1,,,,,スノーアセット,0
656,3011001175496,新規,0,2026-02-06,2026-02-06,株式会社ＭＯＣＨＩＴＥＣ,,株式会社,東京都,渋谷区,神南１丁目１１－４ＦＰＧリンクス神南５階,,13,113,1500041,,,,,,,2026-02-06,1,,,,,モチテック,0
658,3011005011350,新規,0,2026-02-06,2026-02-06,一般社団法人エスモード校友会,,その他の設立登記法人,東京都,渋谷区,恵比寿３丁目２９番６号,,13,113,1500013,,,,,,,2026-02-06,1,,,,,エスモードコウユウカイ,0
666,3011701029150,新規,0,2026-02-06,2026-02-06,株式会社ＪＡＡＣ　ＳＯＬＵＴＩＯＮＳ,,株式会社,東京都,江戸川区,船堀２丁目１５番３号,,13,123,1340091,,,,,,,2026-02-06,1,,,,,ジャックソリューションズ,0
671,3011801047408,新規,0,2026-02-06,2026-02-06,株式会社肉の大熊屋本店,,株式会社,東京都,足立区,関原３丁目２４番１６号,,13,121,1230852,,,,,,,2026-02-06,1,,,,,ニクノオオクマヤホンテン,0
673,3011805003514,新規,0,2026-02-06,2026-02-06,一般社団法人ゴルフ指導力育成協会,,その他の設立登記法人,東京都,足立区,西保木間２丁目１５番１８号,,13,121,1210812,,,,,,,2026-02-06,1,,,,,ゴルフシドウリョクイクセイキョウカイ,0
682,3020001167008,新規,0,2026-02-06,2026-02-06,株式会社ガリバーホールディングス,,株式会社,神奈川県,横浜市神奈川区,新浦島町１丁目１番地２５,,14,102,2210031,,,,,,,2026-02-06,1,,,,,ガリバーホールディングス,0
683,3020001167032,新規,0,2026-02-06,2026-02-06,ＭＡＲＵＴＡアセット株式会社,,株式会社,神奈川県,横浜市神奈川区,六角橋５丁目５番２５号,,14,102,2210802,,,,,,,2026-02-06,1,,,,,マルタアセット,0
684,3020001167073,新規,0,2026-02-06,2026-02-06,スイッチバック株式会社,,株式会社,神奈川県,横浜市中区,本郷町３丁目１５３―１７,,14,104,2310843,,,,,,,2026-02-06,1,,,,,スイッチバック,0
696,3030001170877,新規,0,2026-02-06,2026-02-06,サイバーレジデンシャル株式会社,,株式会社,埼玉県,八潮市,大字鶴ケ曽根１５８９番地８,,11,234,3400802,,,,,,,2026-02-06,1,,,,,サイバーレジデンシャル,0
697,3030001170902,新規,0,2026-02-06,2026-02-06,株式会社フジモトホールディングス,,株式会社,埼玉県,さいたま市桜区,西堀１丁目１２番２５号,,11,106,3380832,,,,,,,2026-02-06,1,,,,,フジモトホールディングス,0
701,3040001142339,新規,0,2026-02-06,2026-02-06,株式会社ハイパー・インダストリーズ,,株式会社,千葉県,東金市,関内４５５番地１,,12,213,2830014,,,,,,,2026-02-06,1,,,,,ハイパーインダストリーズ,0
702,3040001142396,新規,0,2026-02-06,2026-02-06,株式会社サマールビー,,株式会社,千葉県,千葉市美浜区,稲毛海岸１丁目２番地５号３０３,,12,106,2610005,,,,,,,2026-02-06,1,,,,,サマールビー,0
707,3070001043798,新規,0,2026-02-06,2026-02-06,ＫＩＳＯＸ株式会社,,株式会社,群馬県,太田市,新田市町１０５番地５１,,10,205,3700304,,,,,,,2026-02-06,1,,,,,キソックス,0
712,3080003003650,新規,0,2026-02-06,2026-02-06,ＮＩＣＨＩＢＡ合同会社,,合同会社,静岡県,静岡市駿河区,大谷１丁目５番２５号ボナール１０２,,22,102,4228017,,,,,,,2026-02-06,1,,,,,ニチバ,0
715,3100003008606,新規,0,2026-02-06,2026-02-06,合同会社ハコブネ,,合同会社,長野県,千曲市,大字屋代９５６番地１フジハイツ２０３,,20,218,3870007,,,,,,,2026-02-06,1,,,,,ハコブネ,0
725,3120001283760,新規,0,2026-02-06,2026-02-06,ＫＲ　Ａｄｖｉｓｏｒｙ株式会社,,株式会社,大阪府,大阪市中央区,南船場３丁目２番２２号おおきに南船場ビル２０５,,27,128,5420081,,,,,,,2026-02-06,1,,,,,ケイアールアドバイザリー,0
730,3120003031845,新規,0,2026-02-06,2026-02-06,合同会社ハンディフロー,,合同会社,大阪府,大阪市中央区,南船場３丁目２番２２号おおきに南船場ビル２０５号室,,27,128,5420081,,,,,,,2026-02-06,1,,,,,ハンディフロー,0
732,3120101072799,新規,0,2026-02-06,2026-02-06,株式会社星光,,株式会社,大阪府,岸和田市,小松里町２３１７番地－１０１号,,27,202,5960821,,,,,,,2026-02-06,1,,,,,セイコウ,0
733,3120101073153,新規,0,2026-02-06,2026-02-06,株式会社８ｂｒｉｄｇｅ,,株式会社,大阪府,和泉市,池田下町１０８０番地の５,,27,219,5940032,,,,,,,2026-02-06,1,,,,,エイトブリッジ,0
734,3120103006978,新規,0,2026-02-06,2026-02-06,合同会社ＨＡＶＥＮ,,合同会社,大阪府,羽曳野市,西浦３丁目１６番１７号,,27,222,5830861,,,,,,,2026-02-06,1,,,,,ヘイヴン,0
736,3120901052199,新規,0,2026-02-06,2026-02-06,株式会社ＭＩイノベーション,,株式会社,大阪府,吹田市,千里山西４丁目９番３号４０１,,27,205,5650851,,,,,,,2026-02-06,1,,,,,エムアイイノベーション,0
739,3120903006054,新規,0,2026-02-06,2026-02-06,合同会社Ｔｓｕｕｂｏｋ,,合同会社,大阪府,吹田市,千里丘北１番１８－５０４,,27,205,5650815,,,,,,,2026-02-06,1,,,,,ツーボック,0
741,3122001040183,新規,0,2026-02-06,2026-02-06,株式会社ＵＮＴＥＴＨＥＲＥＤ,,株式会社,大阪府,東大阪市,足代新町二丁目１９番２階,,27,227,5770057,,,,,,,2026-02-06,1,,,,,アンテザード,0
745,3140001141652,新規,0,2026-02-06,2026-02-06,中村工業株式会社,,株式会社,兵庫県,姫路市,大塩町７８２番地１３,,28,201,6710101,,,,,,,2026-02-06,1,,,,,ナカムラコウギョウ,0
748,3140003023163,新規,0,2026-02-06,2026-02-06,Ｐｕｒｉｔｙ＆Ｃｏ．合同会社,,合同会社,兵庫県,神戸市中央区,磯辺通４丁目１番２８－１４１７号,,28,110,6510084,,,,,,,2026-02-06,1,,,,,プリティアンドコー,0
749,3150001028709,新規,0,2026-02-06,2026-02-06,株式会社アクシアクリエイティブ,,株式会社,奈良県,奈良市,朱雀１丁目２２番地の２,,29,201,6310806,,,,,,,2026-02-06,1,,,,,アクシアクリエイティブ,0
751,3150005009762,新規,0,2026-02-06,2026-02-06,一般社団法人アトミ信託,,その他の設立登記法人,奈良県,奈良市,西千代ヶ丘１丁目２３番３１号,,29,201,6310046,,,,,,,2026-02-06,1,,,,,アトミシンタク,0
763,3180001170557,新規,0,2026-02-06,2026-02-06,株式会社ＴＫＤ７２,,株式会社,愛知県,名古屋市中区,丸の内２丁目１６番８号,,23,106,4600002,,,,,,,2026-02-06,1,,,,,ティーケーディーナナジュウニ,0
768,3180301040674,新規,0,2026-02-06,2026-02-06,株式会社アイランドフラワー,,株式会社,愛知県,豊田市,駒新町大坂７９番地１,,23,211,4730926,,,,,,,2026-02-06,1,,,,,アイランドフラワー,0
769,3180303006888,新規,0,2026-02-06,2026-02-06,合同会社パナステージアライ,,合同会社,愛知県,豊川市,豊栄町３１番地の１,,23,207,4420014,,,,,,,2026-02-06,1,,,,,パナステージアライ,0
771,3190001032888,新規,0,2026-02-06,2026-02-06,株式会社ＡＣＵＴＥ,,株式会社,三重県,津市,一身田豊野１４０６‐８６,,24,201,5140115,,,,,,,2026-02-06,1,,,,,アクテ,0
774,3200001044700,新規,0,2026-02-06,2026-02-06,株式会社ＮＦＡＭ,,株式会社,岐阜県,大垣市,木戸町９５７番地１４２,,21,202,5030973,,,,,,,2026-02-06,1,,,,,エヌエフエーエム,0
777,3230001021275,新規,0,2026-02-06,2026-02-06,株式会社ミギウデ,,株式会社,富山県,高岡市,関大町２番１１－１０１号コーポ静ＩＩ,00142484,16,202,9330869,,,,,,,2026-02-06,1,,,,,ミギウデ,0
781,3240001066121,新規,0,2026-02-06,2026-02-06,株式会社ケイテック,,株式会社,広島県,尾道市,正徳町５番５号,,34,205,7220004,,,,,,,2026-02-06,1,,,,,ケイテック,0
782,3240001066146,新規,0,2026-02-06,2026-02-06,ＭＹ　ｃａｒｒｙ株式会社,,株式会社,広島県,福山市,新涯町３丁目２２番３６号,,34,207,7210955,,,,,,,2026-02-06,1,,,,,エムワイキャリー,0
788,3250003003897,新規,0,2026-02-06,2026-02-06,合同会社まごころ,,合同会社,山口県,宇部市,明神町２丁目９番２７号,,35,202,7550008,,,,,,,2026-02-06,1,,,,,マゴコロ,0
790,3260001040974,新規,0,2026-02-06,2026-02-06,株式会社ＧＲＯＷＳ,,株式会社,岡山県,岡山市南区,洲崎２丁目１５番４５－２号,,33,104,7028042,,,,,,,2026-02-06,1,,,,,,0
791,3260001040982,新規,0,2026-02-06,2026-02-06,株式会社Ａ．Ｒ．Ｅ,,株式会社,岡山県,倉敷市,西坂７９１番地１,,33,202,7100004,,,,,,,2026-02-06,1,,,,,エイアールイー,0
798,3290801032219,新規,0,2026-02-06,2026-02-06,ＪＴＥＣＨ株式会社,,株式会社,福岡県,遠賀郡岡垣町,吉木西１丁目４－１,,40,383,8114242,,,,,,,2026-02-06,1,,,,,ジェイテック,0
802,3320001021571,新規,0,2026-02-06,2026-02-06,殿畑双葉堂株式会社,,株式会社,大分県,中津市,大字植野５２４番地１,,44,203,8790103,,,,,,,2026-02-06,1,,,,,トノハタフタバドウ,0
807,3340003005091,新規,0,2026-02-06,2026-02-06,ヒロシワークス合同会社,,合同会社,鹿児島県,鹿児島市,紫原７丁目２６番１８号エースビル３０１号,,46,201,8900082,,,,,,,2026-02-06,1,,,,,ヒロシワークス,0
821,3380001035847,新規,0,2026-02-06,2026-02-06,株式会社Ｙ企画,,株式会社,福島県,郡山市,安積荒井本町１６５番地,,07,203,9630116,,,,,,,2026-02-06,1,,,,,ワイキカク,0
822,3380001035863,新規,0,2026-02-06,2026-02-06,株式会社福土舎,,株式会社,福島県,南相馬市,小高区本町１丁目８７小高パイオニアヴィレッジ内,,07,212,9792124,,,,,,,2026-02-06,1,,,,,フクドシャ,0
825,3420003003236,新規,0,2026-02-06,2026-02-06,合同会社昂美開発,,合同会社,青森県,青森市,幸畑２丁目１２番３号,,02,201,0300943,,,,,,,2026-02-06,1,,,,,コウビカイハツコウ,0
835,3480001013082,新規,0,2026-02-06,2026-02-06,株式会社Ｔｒｕｓｔｅｐ,,株式会社,徳島県,徳島市,上八万町西山１８０９番地,,36,201,7708041,,,,,,,2026-02-06,1,,,,,トラステップ,0
836,3490001011275,新規,0,2026-02-06,2026-02-06,株式会社ＹＣＢ,,株式会社,高知県,高知市,高須３丁目３番３８号サンフィールド高須１０２号,,39,201,7818104,,,,,,,2026-02-06,1,,,,,ワイシービー,0
838,3500001026767,新規,0,2026-02-06,2026-02-06,株式会社カイコウ,,株式会社,愛媛県,北宇和郡鬼北町,大字永野市６１番地２,,38,488,7981333,,,,,,,2026-02-06,1,,,,,カイコウ,0
839,3500001026775,新規,0,2026-02-06,2026-02-06,小柳塗防建業株式会社,,株式会社,愛媛県,伊予市,下吾川１３４０番地３,,38,210,7993111,,,,,,,2026-02-06,1,,,,,オヤナギトボウケンギョウ,0
849,4010001262337,新規,0,2026-02-06,2026-02-06,株式会社ＯＮＤＯ,,株式会社,東京都,中央区,勝どき４丁目６番１－１５１４号,,13,102,1040054,,,,,,,2026-02-06,1,,,,,オンド,0
850,4010001262428,新規,0,2026-02-06,2026-02-06,Ｚａｐ株式会社,,株式会社,東京都,文京区,本郷１丁目５番１７号三洋ビル２１号室,,13,105,1130033,,,,,,,2026-02-06,1,,,,,ザップ,0
851,4010001262502,新規,0,2026-02-06,2026-02-06,株式会社ストック,,株式会社,東京都,中央区,東日本橋３丁目５番８号,,13,102,1030004,,,,,,,2026-02-06,1,,,,,ストック,0
858,4010003050310,新規,0,2026-02-06,2026-02-06,合同会社プロダクション２６,,合同会社,東京都,文京区,根津１丁目１番１５－１１０１号,,13,105,1130031,,,,,,,2026-02-06,1,,,,,プロダクションニジュウロク,0
862,4010005041340,新規,0,2026-02-06,2026-02-06,一般社団法人ＥＶワイヤレス給電協議会,,その他の設立登記法人,東京都,千代田区,大手町１丁目９番５号大手町フィナンシャルシティノースタワー２２階,,13,101,1000004,,,,,,,2026-02-06,1,,,,,イーブイワイヤレスキュウデンキョウギカイ,0
863,4010103002748,新規,0,2026-02-06,2026-02-06,ネクストデパーチャー合同会社,,合同会社,東京都,八王子市,みつい台１丁目１８番１３号,,13,201,1920014,,,,,,,2026-02-06,1,,,,,ネクストデパーチャー,0
869,4010401195574,新規,0,2026-02-06,2026-02-06,Ａｓｔｅｒａ　Ｃｏｎｓｕｌｔｉｎｇ株式会社,,株式会社,東京都,港区,六本木１丁目３番３９－１００５号,,13,103,1060032,,,,,,,2026-02-06,1,,,,,アステラコンサルティング,0
870,4010401196242,新規,0,2026-02-06,2026-02-06,株式会社イートリンク,,株式会社,東京都,港区,港南２丁目１６－１品川イーストワンタワー７Ｆ,,13,103,1080075,,,,,,,2026-02-06,1,,,,,イートリンク,0
871,4010401196325,新規,0,2026-02-06,2026-02-06,株式会社ＦＴ　Ｐａｒｔｎｅｒｓ,,株式会社,東京都,港区,六本木３丁目１６－１２六本木ＫＳビル５Ｆ,,13,103,1060032,,,,,,,2026-02-06,1,,,,,エフティーパートナーズ,0
872,4010401196341,新規,0,2026-02-06,2026-02-06,株式会社Ａｃｔｏｒ,,株式会社,東京都,港区,南青山３丁目１番３６号,,13,103,1070062,,,,,,,2026-02-06,1,,,,,アクター,0
873,4010401196358,新規,0,2026-02-06,2026-02-06,株式会社ＹＭＳ,,株式会社,東京都,港区,三田４丁目１９番２５－３０７号,,13,103,1080073,,,,,,,2026-02-06,1,,,,,ワイエムエス,0
874,4010401196440,新規,0,2026-02-06,2026-02-06,株式会社セールス・ソース・マーケティング,,株式会社,東京都,港区,南青山２丁目２番１５号,,13,103,1070062,,,,,,,2026-02-06,1,,,,,セールスソースマーケティング,0
876,4010403037238,新規,0,2026-02-06,2026-02-06,Ｐ＆Ｄアセットマネジメント合同会社,,合同会社,東京都,港区,海岸１丁目５番２０号,,13,103,1050022,,,,,,,2026-02-06,1,,,,,ピーアンドディーアセットマネジメント,0
877,4010403037254,新規,0,2026-02-06,2026-02-06,ＣＭ　Ａｓｉａ合同会社,,合同会社,東京都,港区,海岸１丁目２－３汐留芝離宮ビルディング２１階,,13,103,1050022,,,,,,,2026-02-06,1,,,,,シーエムアジア,0
883,4010601068687,新規,0,2026-02-06,2026-02-06,株式会社Ｔ‐ＴＯＫＹＯ,,株式会社,東京都,墨田区,立花５丁目３３番２号,,13,107,1310043,,,,,,,2026-02-06,1,,,,,ティートウキョウ,0
898,4011001175330,新規,0,2026-02-06,2026-02-06,ＢｌｕｅＡｒｃｈ株式会社,,株式会社,東京都,目黒区,駒場４丁目６番１号東京大学駒場ＩＩキャンパス連携研究棟５１２号室,00142483,13,110,1530041,,,,,,,2026-02-06,1,,,,,ブルーアーチ,0
902,4011003023495,新規,0,2026-02-06,2026-02-06,合同会社藤野商品,,合同会社,東京都,渋谷区,円山町５番３号ＭＩＥＵＸ渋谷ビル８階,,13,113,1500044,,,,,,,2026-02-06,1,,,,,フジノショウヒン,0
903,4011003023504,新規,0,2026-02-06,2026-02-06,合同会社ＴＲＯ,,合同会社,東京都,渋谷区,広尾１丁目２番１号ヒカリビル４階,,13,113,1500012,,,,,,,2026-02-06,1,,,,,ティーアールオー,0
909,4011201026944,新規,0,2026-02-06,2026-02-06,株式会社ＬＡＦＦ　ＳＴＹＬＥ,,株式会社,東京都,中野区,中野５丁目６０番４号三井ビル地下１階,,13,114,1640001,,,,,,,2026-02-06,1,,,,,ラフスタイル,0
922,4012303002288,新規,0,2026-02-06,2026-02-06,合同会社大川工業,,合同会社,東京都,町田市,原町田２丁目３２－１８,,13,209,1940013,,,,,,,2026-02-06,1,,,,,オオカワコウギョウ,0
923,4012401044100,新規,0,2026-02-06,2026-02-06,株式会社はしのカンパニー,,株式会社,東京都,多摩市,貝取２丁目２番地６－４０４,,13,224,2060012,,,,,,,2026-02-06,1,,,,,ハシノカンパニー,0
924,4012401044117,新規,0,2026-02-06,2026-02-06,株式会社高嶺,,株式会社,東京都,多摩市,和田３８８－９,,13,224,2060001,,,,,,,2026-02-06,1,,,,,タカネ,0
926,4012403007600,新規,0,2026-02-06,2026-02-06,合同会社希八,,合同会社,東京都,武蔵野市,西久保３丁目１３－２６,,13,203,1800013,,,,,,,2026-02-06,1,,,,,キハチ,0
935,4020001167007,新規,0,2026-02-06,2026-02-06,ＭＫ‐Ｎ株式会社,,株式会社,神奈川県,川崎市高津区,溝口４丁目１６番１号,,14,134,2130001,,,,,,,2026-02-06,1,,,,,マークエヌ,0
940,4020003030303,新規,0,2026-02-06,2026-02-06,Ｅｓｓｏｒ合同会社,,合同会社,神奈川県,横浜市保土ケ谷区,東川島町５５番地３９,,14,106,2400041,,,,,,,2026-02-06,1,,,,,エソール,0
944,4030003028593,新規,0,2026-02-06,2026-02-06,合同会社心音,,合同会社,埼玉県,戸田市,上戸田２丁目６番６－１００１,,11,224,3350022,,,,,,,2026-02-06,1,,,,,ココネ,0
945,4030003028602,新規,0,2026-02-06,2026-02-06,ＹＵＫＩ合同会社,,合同会社,埼玉県,さいたま市浦和区,前地１丁目１３番１７号ガーデンコート１４０５,,11,107,3300053,,,,,,,2026-02-06,1,,,,,ユウキ,0
949,4040001142305,新規,0,2026-02-06,2026-02-06,株式会社ＳＴＵＤＩＯＳＥＮ　ＡＲＣＨＩＴＥＣＴＳ,,株式会社,千葉県,流山市,江戸川台東４丁目３３７－１,,12,220,2700111,,,,,,,2026-02-06,1,,,,,スタジオセンアーキテクツ,0
950,4040001142370,新規,0,2026-02-06,2026-02-06,株式会社アチャラナータ,,株式会社,千葉県,市川市,大洲２丁目１６番２号,,12,203,2720032,,,,,,,2026-02-06,1,,,,,アチャラナータ,0
953,4050001057956,新規,0,2026-02-06,2026-02-06,株式会社ＴＥＡＭＲ,,株式会社,茨城県,水戸市,上水戸３丁目８－７,,08,201,3100041,,,,,,,2026-02-06,1,,,,,チームアール,0
956,4050003009922,新規,0,2026-02-06,2026-02-06,合同会社ＳＡＳ,,合同会社,茨城県,小美玉市,小川３８番地,,08,236,3113423,,,,,,,2026-02-06,1,,,,,エスエーエス,0
970,4080101026065,新規,0,2026-02-06,2026-02-06,株式会社アヲロア,,株式会社,静岡県,富士市,柚木３３０番地の１,,22,210,4160908,,,,,,,2026-02-06,1,,,,,アヲロア,0
972,4080401028422,新規,0,2026-02-06,2026-02-06,ＴＫアグリサポート株式会社,,株式会社,静岡県,湖西市,鷲津３３４番地の１８,,22,221,4310431,,,,,,,2026-02-06,1,,,,,ティケーアグリサポート,0
995,4120001283974,新規,0,2026-02-06,2026-02-06,ミサゴタウンデザイン株式会社,,株式会社,大阪府,寝屋川市,香里新町２９番１３号香里ロータリービル,,27,215,5720085,,,,,,,2026-02-06,1,,,,,ミサゴタウンデザイン,0
996,4120001283982,新規,0,2026-02-06,2026-02-06,株式会社ＯＫ,,株式会社,大阪府,大阪市西成区,潮路１丁目８番１２号,,27,122,5570052,,,,,,,2026-02-06,1,,,,,オッケー,0
1000,4120003031844,新規,0,2026-02-06,2026-02-06,Ｎｅｔｔ合同会社,,合同会社,大阪府,大阪市北区,梅田１丁目２番２号大阪駅前第２ビル１２－１２,,27,127,5300001,,,,,,,2026-02-06,1,,,,,ネット,0
1001,4120003031877,新規,0,2026-02-06,2026-02-06,合同会社コティクス,,合同会社,大阪府,大阪市東住吉区,西今川３丁目１９番１３号,,27,121,5460042,,,,,,,2026-02-06,1,,,,,コティクス,0
1002,4120101073152,新規,0,2026-02-06,2026-02-06,株式会社サンキュー,,株式会社,大阪府,高石市,綾園１丁目１４番４号,,27,225,5920014,,,,,,,2026-02-06,1,,,,,サンキュー,0
1003,4120103006977,新規,0,2026-02-06,2026-02-06,合同会社ＳＫ,,合同会社,大阪府,堺市西区,上野芝向ヶ丘町５丁２３番１３号,,27,144,5938303,,,,,,,2026-02-06,1,,,,,エスケー,0
1008,4130001081568,新規,0,2026-02-06,2026-02-06,株式会社ニエフ,,株式会社,京都府,京都市中京区,壬生坊城町４７番地２階,,26,104,6048804,,,,,,,2026-02-06,1,,,,,ニエフ,0
1014,4140003023170,新規,0,2026-02-06,2026-02-06,ＧＰＭコンサルティング合同会社,,合同会社,兵庫県,芦屋市,奥池南町４５－５,,28,206,6590004,,,,,,,2026-02-06,1,,,,,ジーピーエムコンサルティング,0
1017,4150001028699,新規,0,2026-02-06,2026-02-06,株式会社ＳＵＮＸ,,株式会社,奈良県,大和高田市,大字池田３６１番地４,,29,202,6350077,,,,,,,2026-02-06,1,,,,,サンクス,0
1018,4150001028708,新規,0,2026-02-06,2026-02-06,株式会社成栄技建,,株式会社,奈良県,橿原市,雲梯町２５６番地の１,,29,205,6340834,,,,,,,2026-02-06,1,,,,,セイエイギケン,0
1019,4170001018970,新規,0,2026-02-06,2026-02-06,Ｗｈｉｔｅｓｔｏｎｅ株式会社,,株式会社,和歌山県,紀の川市,貴志川町長山１２２－３,,30,208,6400416,,,,,,,2026-02-06,1,,,,,ホワイトストーン,0
1029,4180003029726,新規,0,2026-02-06,2026-02-06,合同会社ＥＤＩＴＨ,,合同会社,愛知県,春日井市,勝川町７丁目３７,,23,206,4860945,,,,,,,2026-02-06,1,,,,,イーディス,0
1030,4180003029734,新規,0,2026-02-06,2026-02-06,合同会社テイクイート,,合同会社,愛知県,名古屋市名東区,宝が丘２６６番地の１,,23,115,4650043,,,,,,,2026-02-06,1,,,,,テイクイート,0
1033,4190001032895,新規,0,2026-02-06,2026-02-06,株式会社ＳａｎＯｕ不動産,,株式会社,三重県,鈴鹿市,磯山１丁目８番４０号,,24,207,5100256,,,,,,,2026-02-06,1,,,,,サンオウフドウサン,0
1034,4190003005346,新規,0,2026-02-06,2026-02-06,合同会社リバイバル,,合同会社,三重県,津市,芸濃町林１６８７番地５７,,24,201,5142202,,,,,,,2026-02-06,1,,,,,リバイバル,0
1035,4190005012118,新規,0,2026-02-06,2026-02-06,ＮＰＯ法人あそぼに,,その他の設立登記法人,三重県,津市,榊原町７２７５番地２,,24,201,5141251,,,,,,,2026-02-06,1,,,,,アソボニ,0
1037,4220001027149,新規,0,2026-02-06,2026-02-06,株式会社一九三,,株式会社,石川県,鹿島郡中能登町,武部オ部３２番地１,,17,407,9291802,,,,,,,2026-02-06,1,,,,,イチキュウサン,0
1038,4220001027157,新規,0,2026-02-06,2026-02-06,ＡＲＥＡ株式会社,,株式会社,石川県,能美市,大浜町ヤ１番地４,,17,211,9290122,,,,,,,2026-02-06,1,,,,,エリア,0
1040,4230001021282,新規,0,2026-02-06,2026-02-06,株式会社十雲,,株式会社,富山県,富山市,奥田町２１番９号,,16,201,9300818,,,,,,,2026-02-06,1,,,,,トクモ,0
1046,4250001021537,新規,0,2026-02-06,2026-02-06,株式会社早川水産,,株式会社,山口県,長門市,通７６番地９,,35,211,7594107,,,,,,,2026-02-06,1,,,,,ハヤカワスイサン,0
1047,4250003003896,新規,0,2026-02-06,2026-02-06,合同会社純サービス,,合同会社,山口県,宇部市,明神町２丁目９番２７号,,35,202,7550008,,,,,,,2026-02-06,1,,,,,,0
1052,4290001113009,新規,0,2026-02-06,2026-02-06,アンティークリノベーション株式会社,,株式会社,福岡県,福岡市東区,馬出５丁目２５番１０－１０３号プリムローズ,,40,131,8120054,,,,,,,2026-02-06,1,,,,,アンティークリノベーション,0
1061,4320001021570,新規,0,2026-02-06,2026-02-06,株式会社うすきライフ不動産,,株式会社,大分県,臼杵市,大字福良３７番地の１,,44,206,8750053,,,,,,,2026-02-06,1,,,,,ウスキライフフドウサン,0
1062,4330001033978,新規,0,2026-02-06,2026-02-06,株式会社グローバル樋口道場,,株式会社,熊本県,熊本市中央区,新大江３丁目１９番８号,,43,101,8620972,,,,,,,2026-02-06,1,,,,,グローバルヒグチドウジョウ,0
1066,4360001036342,新規,0,2026-02-06,2026-02-06,ＦＣ琉球さくら株式会社,,株式会社,沖縄県,那覇市,奥武山町５１番地２沖縄県体協スポーツ会館５０９号,,47,201,9000026,,,,,,,2026-02-06,1,,,,,エフシーリュウキュウサクラ,0
1071,4370003007456,新規,0,2026-02-06,2026-02-06,合同会社安和野リンク,,合同会社,宮城県,石巻市,蛇田字中埣２６番地２,,04,202,9860861,,,,,,,2026-02-06,1,,,,,アワノリンク,0
1072,4380001035854,新規,0,2026-02-06,2026-02-06,株式会社一粒万倍,,株式会社,福島県,白河市,板橋平成１番地,,07,205,9610016,,,,,,,2026-02-06,1,,,,,イチリュウマンバイ,0
1075,4390003002496,新規,0,2026-02-06,2026-02-06,合同会社農園坪池,,合同会社,山形県,酒田市,横代字千代桜１６１番地,,06,204,9980804,,,,,,,2026-02-06,1,,,,,,0
1081,4430001096197,新規,0,2026-02-06,2026-02-06,Ｔ．Ａ．ａｇｒｉ株式会社,,株式会社,北海道,札幌市厚別区,厚別東二条５丁目２番１９号,,01,108,0040002,,,,,,,2026-02-06,1,,,,,ティーエーアグリ,0
1082,4430003018562,新規,0,2026-02-06,2026-02-06,合同会社ＮｅｘｔＬｏｇｉ,,合同会社,北海道,札幌市北区,あいの里四条２丁目５－２３,,01,102,0028074,,,,,,,2026-02-06,1,,,,,ネクストロジ,0
1083,4440003001757,新規,0,2026-02-06,2026-02-06,合同会社尾江建設,,合同会社,北海道,二海郡八雲町,内浦町２０番地４,,01,346,0493104,,,,,,,2026-02-06,1,,,,,オエケンセツ,0
1086,4460103001787,新規,0,2026-02-06,2026-02-06,合同会社久保田,,合同会社,北海道,帯広市,西二十一条南４丁目１４―１,,01,207,0802471,,,,,,,2026-02-06,1,,,,,クボタ,0
1087,4490003002098,新規,0,2026-02-06,2026-02-06,合同会社ｈｉｙｏｒｉ,,合同会社,高知県,高知市,新田町１番１５号,,39,201,7818004,,,,,,,2026-02-06,1,,,,,ヒヨリ,0
1088,4700150134309,新規,0,2026-02-06,2026-02-06,宇都宮ジャパンカップサイクルロードレース実行委員会,,その他,栃木県,宇都宮市,旭１丁目１番５号,,09,201,3200818,,,,,,,2026-02-06,1,,,,,ウツノミヤジャパンカップサイクルロードレースジッコウイインカイ,0
1095,5010001262360,新規,0,2026-02-06,2026-02-06,株式会社ＯＨＴＡＮ,,株式会社,東京都,千代田区,大手町１丁目６－１大手町ビル２Ｆ,,13,101,1000004,,,,,,,2026-02-06,1,,,,,オータン,0
1096,5010001262385,新規,0,2026-02-06,2026-02-06,株式会社まどかプロ,,株式会社,東京都,文京区,白山４丁目３７－２６クレヴィア文京白山６０３号,,13,105,1120001,,,,,,,2026-02-06,1,,,,,マドカプロ,0
1097,5010001262410,新規,0,2026-02-06,2026-02-06,株式会社ＩＴトリビュート,,株式会社,東京都,中央区,日本橋室町１丁目１１－１２日本橋水野ビル７階,,13,102,1030022,,,,,,,2026-02-06,1,,,,,アイティートリビュート,0
1098,5010001262542,新規,0,2026-02-06,2026-02-06,東＿ＨｏｍｅＸ株式会社,00142499,株式会社,東京都,千代田区,神田須田町１丁目２１－４－５Ｆ,,13,101,1010041,,,,,,,2026-02-06,1,,,,,トウホウホームエクス,0
1099,5010001262583,新規,0,2026-02-06,2026-02-06,株式会社ブレンドワークスコンサルティング,,株式会社,東京都,千代田区,丸の内１丁目１１番１号パシフィックセンチュリープレイス丸の内１３階,,13,101,1000005,,,,,,,2026-02-06,1,,,,,ブレンドワークスコンサルティング,0
1103,5010005041331,新規,0,2026-02-06,2026-02-06,一般社団法人ゴルフ支援振興機構,,その他の設立登記法人,東京都,千代田区,外神田１丁目１８番１３号秋葉原ダイビル６階,,13,101,1010021,,,,,,,2026-02-06,1,,,,,ゴルフシエンシンコウキコウ,0
1104,5010005041364,新規,0,2026-02-06,2026-02-06,一般社団法人オルタナ３１,,その他の設立登記法人,東京都,千代田区,丸の内１丁目４番１号東京共同会計事務所内,,13,101,1000005,,,,,,,2026-02-06,1,,,,,オルタナサンジュウイチ,0
1112,5010401196316,新規,0,2026-02-06,2026-02-06,株式会社ｆｕｎｃｔｉｏｎＨＵＢ,,株式会社,東京都,港区,虎ノ門２丁目２－１住友不動産虎ノ門タワー１６Ｆ,,13,103,1050001,,,,,,,2026-02-06,1,,,,,ファンクションハブ,0
1113,5010401196324,新規,0,2026-02-06,2026-02-06,センスキャン株式会社,,株式会社,東京都,港区,芝浦３丁目３番６号東京科学大学キャンパス・イノベーションセンターＩＮＤＥＳＴ,,13,103,1080023,,,,,,,2026-02-06,1,,,,,センスキャン,0
1114,5010401196349,新規,0,2026-02-06,2026-02-06,ＬＳ‐ＳＨＩＰ第９７号株式会社,,株式会社,東京都,港区,六本木１丁目６番１号,,13,103,1060032,,,,,,,2026-02-06,1,,,,,エルエスシップダイキュウジュウナナゴウ,0
1115,5010401196357,新規,0,2026-02-06,2026-02-06,株式会社ＨＩＮＡ,,株式会社,東京都,港区,東新橋１丁目１０番１号ツインパークスＬ棟１１０９号室,,13,103,1050021,,,,,,,2026-02-06,1,,,,,ヒナ,0
1119,5010403037195,新規,0,2026-02-06,2026-02-06,ＭＬＸ合同会社,,合同会社,東京都,港区,南青山２丁目２－１５－１１０３,,13,103,1070062,,,,,,,2026-02-06,1,,,,,エムエルエックス,0
1120,5010403037212,新規,0,2026-02-06,2026-02-06,合同会社リフアクト,,合同会社,東京都,港区,南青山３丁目１－３６青山丸竹ビル６Ｆ,,13,103,1070062,,,,,,,2026-02-06,1,,,,,リフアクト,0
1121,5010403037237,新規,0,2026-02-06,2026-02-06,ＦＩＫＡＦＩＫＡ合同会社,,合同会社,東京都,港区,港南２丁目１１番１７－５０８号,,13,103,1080075,,,,,,,2026-02-06,1,,,,,フィーカフィーカ,0
1123,5010601068686,新規,0,2026-02-06,2026-02-06,Ｔａｋｅ　Ｏｖｅｒ　Ｇｅｏｓｐａｔｉａｌ株式会社,,株式会社,東京都,江東区,豊洲６丁目２番３１－１９１７号,,13,108,1350061,,,,,,,2026-02-06,1,,,,,テイクオーバージオスペーシャル,0
1127,5010701049009,新規,0,2026-02-06,2026-02-06,Ｄｏｌｃｅ　ｖｉｔｅ株式会社,,株式会社,東京都,品川区,南大井６丁目１８―１,,13,109,1400013,,,,,,,2026-02-06,1,,,,,ドルチェヴェータ,0
1128,5010701049025,新規,0,2026-02-06,2026-02-06,ＡＤＳエンタテイメント株式会社,,株式会社,東京都,品川区,南大井５丁目４－４,,13,109,1400013,,,,,,,2026-02-06,1,,,,,エーディーエスエンタテイメント,0
1132,5010901058932,新規,0,2026-02-06,2026-02-06,株式会社ＤＡＥＮＡ,,株式会社,東京都,世田谷区,池尻４丁目３６番９号,,13,112,1540001,,,,,,,2026-02-06,1,,,,,ダエナ,0
1135,5010903010602,新規,0,2026-02-06,2026-02-06,合同会社たまご,,合同会社,東京都,世田谷区,太子堂４丁目１８－１５マガザン三軒茶屋２－３Ｆ－３,,13,112,1540004,,,,,,,2026-02-06,1,,,,,タマゴ,0
1136,5010903010619,新規,0,2026-02-06,2026-02-06,リュケイアン合同会社,,合同会社,東京都,世田谷区,上馬５丁目１５番７号,,13,112,1540011,,,,,,,2026-02-06,1,,,,,リュケイアン,0
1147,5011001175263,新規,0,2026-02-06,2026-02-06,株式会社ｍａｒｂｌｅ．,,株式会社,東京都,渋谷区,神南１丁目１１番１号渋谷市野ビルＢ１Ｆ,,13,113,1500041,,,,,,,2026-02-06,1,,,,,マーブル,0
1148,5011001175305,新規,0,2026-02-06,2026-02-06,Ｉｄｏｌ　Ｓｃｈｏｏｌ　Ｊａｐａｎ株式会社,,株式会社,東京都,渋谷区,広尾５丁目１４番２号,,13,113,1500012,,,,,,,2026-02-06,1,,,,,アイドルスクールジャパン,0
1149,5011001175503,新規,0,2026-02-06,2026-02-06,グルメ・プレジール株式会社,,株式会社,東京都,渋谷区,宇田川町３３番１３号楠原ビル３Ｆ,,13,113,1500042,,,,,,,2026-02-06,1,,,,,グルメプレジール,0
1153,5011005011349,新規,0,2026-02-06,2026-02-06,一般社団法人ＭＡＴ周産期ケア,,その他の設立登記法人,東京都,目黒区,下目黒２丁目２１番２４－２０１号,,13,110,1530064,,,,,,,2026-02-06,1,,,,,マットシュウサンキケア,0
1154,5011005011357,新規,0,2026-02-06,2026-02-06,一般社団法人日本介護美容協会,,その他の設立登記法人,東京都,渋谷区,神宮前１丁目１５番１５号タガミ神宮前ビル３階,,13,113,1500001,,,,,,,2026-02-06,1,,,,,ニホンカイゴビヨウキョウカイ,0
1160,5011105011711,新規,0,2026-02-06,2026-02-06,一般社団法人工藝文化振興会,,その他の設立登記法人,東京都,新宿区,矢来町７１番地新潮社倉庫ｓｏｋｏ２階Ａ区画,,13,104,1620805,,,,,,,2026-02-06,1,,,,,コウゲイブンカシンコウカイ,0
1162,5011201026943,新規,0,2026-02-06,2026-02-06,株式会社運Ｐｒｏ,,株式会社,東京都,中野区,白鷺２丁目２９番３４号カーサ・ソレアード１・１０２,,13,114,1650035,,,,,,,2026-02-06,1,,,,,ハコプロ,0
1168,5011801047406,新規,0,2026-02-06,2026-02-06,株式会社パスレル,,株式会社,東京都,葛飾区,東立石４丁目１２番５号フローレンスナカムラ１０２号,,13,122,1240013,,,,,,,2026-02-06,1,,,,,パスレル,0
1173,5012301014706,新規,0,2026-02-06,2026-02-06,株式会社大福,,株式会社,東京都,町田市,小野路町２４０４番地１コンパートメントモトジマ２００,,13,209,1950064,,,,,,,2026-02-06,1,,,,,ダイフク,0
1182,5012401044099,新規,0,2026-02-06,2026-02-06,株式会社松下クリーンメンテナンス,,株式会社,東京都,府中市,宮西町５丁目６番地の２アローランドマンション２０３,,13,206,1830022,,,,,,,2026-02-06,1,,,,,マツシタクリーンメンテナンス,0
1184,5012803003990,新規,0,2026-02-06,2026-02-06,合同会社松本ゼミ,,合同会社,東京都,日野市,三沢４４番地の２,,13,212,1910032,,,,,,,2026-02-06,1,,,,,マツモトゼミ,0
1187,5020001167014,新規,0,2026-02-06,2026-02-06,株式会社ｆｉｄｅｌｉｓ,,株式会社,神奈川県,横浜市神奈川区,六角橋２丁目３４番１７号リブゼ横浜白楽２０４号,,14,102,2210802,,,,,,,2026-02-06,1,,,,,フィデリス,0
1190,5021001087474,新規,0,2026-02-06,2026-02-06,株式会社フォルテホーム,,株式会社,神奈川県,座間市,座間１丁目３１２６番地の１,,14,216,2520027,,,,,,,2026-02-06,1,,,,,フォルテホーム,0
1193,5030001170917,新規,0,2026-02-06,2026-02-06,福田建設株式会社,,株式会社,埼玉県,飯能市,大字笠縫１５１番地８,,11,209,3570045,,,,,,,2026-02-06,1,,,,,フクダケンセツ,0
1200,5030003028601,新規,0,2026-02-06,2026-02-06,合同会社ＮＥＳＴ,,合同会社,埼玉県,戸田市,喜沢１丁目３８－１２－３０１,,11,224,3350013,,,,,,,2026-02-06,1,,,,,ネスト,0
1204,5040001142353,新規,0,2026-02-06,2026-02-06,株式会社アリアクリーン,,株式会社,千葉県,船橋市,夏見５丁目８番１号,,12,204,2730865,,,,,,,2026-02-06,1,,,,,アリアクリーン,0
1209,5050001057955,新規,0,2026-02-06,2026-02-06,茨ビー株式会社,,株式会社,茨城県,北茨城市,関本町富士ケ丘７２３番地１,,08,215,3191725,,,,,,,2026-02-06,1,,,,,イバラビー,0
1214,5060003005952,新規,0,2026-02-06,2026-02-06,合同会社ｓｔｏｒｉａ,,合同会社,栃木県,下野市,石橋１７３番地,,09,216,3290511,,,,,,,2026-02-06,1,,,,,ストーリア,0
1216,5070001043788,新規,0,2026-02-06,2026-02-06,株式会社グリーンウイングスＧＵＮＭＡ,,株式会社,群馬県,前橋市,本町２丁目１３番１１号,,10,201,3710023,,,,,,,2026-02-06,1,,,,,グリーンウイングスグンマ,0
1217,5070001043805,新規,0,2026-02-06,2026-02-06,株式会社グランドヴァレー,,株式会社,群馬県,高崎市,芝塚町１８７４番地１２－６０１,,10,202,3700064,,,,,,,2026-02-06,1,,,,,グランドヴァレー,0
1219,5070003006289,新規,0,2026-02-06,2026-02-06,合同会社てつなぎ,,合同会社,群馬県,佐波郡玉村町,大字下新田７１４番地１ヴィラツツミＡ,,10,464,3701132,,,,,,,2026-02-06,1,,,,,テツナギ,0
1220,5080001027410,新規,0,2026-02-06,2026-02-06,株式会社あすなろウエストゲート,,株式会社,静岡県,島田市,金谷東１丁目１２３５番地の１,,22,209,4280013,,,,,,,2026-02-06,1,,,,,アスナロウエストゲート,0
1244,5120001283973,新規,0,2026-02-06,2026-02-06,株式会社イズリオ,,株式会社,大阪府,大阪市北区,中之島４丁目３番２０－３００６号,,27,127,5300005,,,,,,,2026-02-06,1,,,,,イズリオ,0
1245,5120001284022,新規,0,2026-02-06,2026-02-06,百山不動産株式会社,,株式会社,大阪府,大阪市西区,南堀江２丁目５番１号エイトビル８階,,27,106,5500015,,,,,,,2026-02-06,1,,,,,ビャクザンフドウサン,0
1248,5120003031851,新規,0,2026-02-06,2026-02-06,合同会社ＳＴＬサービス,,合同会社,大阪府,門真市,北巣本町１６番２３号,,27,223,5710073,,,,,,,2026-02-06,1,,,,,エスティエルサービス,0
1249,5120005025389,新規,0,2026-02-06,2026-02-06,一般社団法人ＶＲクリエイター協会,,その他の設立登記法人,大阪府,大阪市北区,梅田１丁目２番２号大阪駅前第２ビル１２－１２,,27,127,5300001,,,,,,,2026-02-06,1,,,,,ブイアールクリエイターキョウカイ,0
1250,5120005025397,新規,0,2026-02-06,2026-02-06,ジャンヌダルク社会保険労務士法人,,その他の設立登記法人,大阪府,大阪市西区,川口２丁目７番３３号,,27,106,5500021,,,,,,,2026-02-06,1,,,,,ジャンヌダルク,0
1251,5120103006984,新規,0,2026-02-06,2026-02-06,合同会社トワ,,合同会社,大阪府,松原市,松ケ丘１丁目４番２１号,,27,217,5800042,,,,,,,2026-02-06,1,,,,,トワ,0
1253,5120901052197,新規,0,2026-02-06,2026-02-06,アークグランデ株式会社,,株式会社,大阪府,箕面市,箕面６丁目１０番７号ＡＲＫ－Ｔ’ｓ１０１,,27,220,5620001,,,,,,,2026-02-06,1,,,,,アークグランデ,0
1258,5130001081542,新規,0,2026-02-06,2026-02-06,加藤防災株式会社,,株式会社,京都府,京都市西京区,桂千代原町９７番地１２,,26,111,6158085,,,,,,,2026-02-06,1,,,,,カトウボウサイ,0
1267,5140001141650,新規,0,2026-02-06,2026-02-06,ＨＵＫＵＴＯＵＫＯＮ　ＲＥＡＬＴＹ株式会社,,株式会社,兵庫県,神戸市中央区,中町通３丁目１番５－３０２号,,28,110,6500027,,,,,,,2026-02-06,1,,,,,フクトウコンリアルティ,0
1268,5140001141675,新規,0,2026-02-06,2026-02-06,株式会社Ｌａｕｇｈ　Ｔｅｃ,,株式会社,兵庫県,尼崎市,浜田町２丁目８８番地の１パークヒルズＩＩ１０１,00142497,28,202,6600062,,,,,,,2026-02-06,1,,,,,ラフテック,0
1269,5140001141700,新規,0,2026-02-06,2026-02-06,株式会社モバネクスト,,株式会社,兵庫県,神戸市中央区,磯辺通２丁目２－１０ｏｎｅｋｎｏｔｔｒａｄｅｓ神戸ビル１００６号室,,28,110,6510084,,,,,,,2026-02-06,1,,,,,モバネクスト,0
1270,5140003023178,新規,0,2026-02-06,2026-02-06,Ｊ’ｓ　Ｐｌａｎｎｉｎｇ　Ｃｏｎｓｕｌｔａｎｔ合同会社,,合同会社,兵庫県,尼崎市,武庫元町２丁目２３番１－３０９号,,28,202,6610043,,,,,,,2026-02-06,1,,,,,ジェイズプランニングコンサルタント,0
1271,5140003023186,新規,0,2026-02-06,2026-02-06,ＮＥＸＵＳ合同会社,,合同会社,兵庫県,美方郡香美町,香住区香住１５６０,,28,585,6696544,,,,,,,2026-02-06,1,,,,,ネクサス,0
1274,5160001027393,新規,0,2026-02-06,2026-02-06,株式会社ｚｅｕｓ　ｓｏｕｌ　ｗｏｏｄ,,株式会社,滋賀県,草津市,新浜町３００・１３５区画,,25,206,5250067,,,,,,,2026-02-06,1,,,,,ゼウスソウルウッド,0
1278,5170003002385,新規,0,2026-02-06,2026-02-06,合同会社Ｓｉｌｖｅｒｍａｎ　Ｓａｃｈｓ,,合同会社,和歌山県,和歌山市,朝日７３－２,,30,201,6400344,,,,,,,2026-02-06,1,,,,,シルバーマンサックス,0
1288,5180001170530,新規,0,2026-02-06,2026-02-06,ＴＫＣ株式会社,,株式会社,愛知県,尾張旭市,桜ケ丘町２丁目７７番地,,23,226,4880859,,,,,,,2026-02-06,1,,,,,ティーケーシー,0
1289,5180001170555,新規,0,2026-02-06,2026-02-06,タカダファッション株式会社,,株式会社,愛知県,名古屋市中区,錦２丁目７番７号,,23,106,4600003,,,,,,,2026-02-06,1,,,,,タカダファッション,0
1300,5190001032878,新規,0,2026-02-06,2026-02-06,株式会社ＲｅｌｉＯｒａｌ,,株式会社,三重県,桑名市,大字西別所１２００番地１７１,,24,205,5110851,,,,,,,2026-02-06,1,,,,,リリオーラル,0
1301,5190001032886,新規,0,2026-02-06,2026-02-06,株式会社サンハイツ,,株式会社,三重県,桑名市,大字播磨２４６７番地,,24,205,5110862,,,,,,,2026-02-06,1,,,,,サンハイツ,0
1302,5190003005345,新規,0,2026-02-06,2026-02-06,創笑フーズ合同会社,,合同会社,三重県,津市,大門３０‐１１,,24,201,5140027,,,,,,,2026-02-06,1,,,,,ソウショウフーズ,0
1303,5190005012117,新規,0,2026-02-06,2026-02-06,一般社団法人しまねこ,,その他の設立登記法人,三重県,志摩市,大王町波切９７５番地５,,24,215,5170603,,,,,,,2026-02-06,1,,,,,シマネコ,0
1304,5200001044698,新規,0,2026-02-06,2026-02-06,株式会社Ｔｒｉａｎｇｌｅ,,株式会社,岐阜県,羽島郡岐南町,上印食８丁目１０４番地,,21,302,5016001,,,,,,,2026-02-06,1,,,,,トライアングル,0
1320,5270001009389,新規,0,2026-02-06,2026-02-06,オサキアセット株式会社,,株式会社,鳥取県,鳥取市,新７２番地２,,31,201,6800861,,,,,,,2026-02-06,1,,,,,オサキアセット,0
1328,5290001113081,新規,0,2026-02-06,2026-02-06,ＹＵＲＩ株式会社,,株式会社,福岡県,福岡市中央区,大名２丁目６番５０号福岡大名ガーデンシティ８Ｆ,,40,133,8100041,,,,,,,2026-02-06,1,,,,,ユリ,0
1336,5300001014501,新規,0,2026-02-06,2026-02-06,ＧＡホールディングス株式会社,,株式会社,佐賀県,唐津市,菜畑３２２１番地１３８,,41,202,8470844,,,,,,,2026-02-06,1,,,,,ジーエーホールディングス,0
1337,5310001019953,新規,0,2026-02-06,2026-02-06,株式会社ナナイロ,,株式会社,長崎県,西彼杵郡長与町,吉無田郷２０１１番地２９アールグレイ長与１０１,,42,307,8512126,,,,,,,2026-02-06,1,,,,,ナナイロ,0
1347,5330001033977,新規,0,2026-02-06,2026-02-06,株式会社有田,,株式会社,熊本県,八代市,迎町１丁目７号２２番地,,43,202,8660055,,,,,,,2026-02-06,1,,,,,アリタ,0
1364,5360001036358,新規,0,2026-02-06,2026-02-06,株式会社秀翠農園,,株式会社,沖縄県,国頭郡宜野座村,字惣慶１２１６番地,,47,313,9041303,,,,,,,2026-02-06,1,,,,,シュウスイノウエン,0
1367,5380001035853,新規,0,2026-02-06,2026-02-06,株式会社悠光,,株式会社,福島県,西白河郡矢吹町,田内４８０番地,,07,466,9690288,,,,,,,2026-02-06,1,,,,,ユウコウ,0
1376,5430005015400,新規,0,2026-02-06,2026-02-06,特定非営利活動法人日高スポーツクラブ,,その他の設立登記法人,北海道,沙流郡日高町,字緑町２６番地の４５,,01,601,0592122,,,,,,,2026-02-06,1,,,,,ヒダカスポーツクラブ,0
1377,5460103001786,新規,0,2026-02-06,2026-02-06,合同会社ＭＯＲＩＮＯＳ,,合同会社,北海道,帯広市,西十四条南１４丁目３番地３,,01,207,0800024,,,,,,,2026-02-06,1,,,,,モリノス,0
1381,5480001013080,新規,0,2026-02-06,2026-02-06,株式会社咲久楽,,株式会社,徳島県,徳島市,北沖洲３丁目７番２７－１２号,,36,201,7700872,,,,,,,2026-02-06,1,,,,,サクラ,0
1393,6010001262368,新規,0,2026-02-06,2026-02-06,株式会社ボスマテリアル,,株式会社,東京都,中央区,日本橋室町１丁目１１番１２号日本橋水野ビル７階,,13,102,1030022,,,,,,,2026-02-06,1,,,,,,0
1394,6010001262384,新規,0,2026-02-06,2026-02-06,株式会社コンコルディアパートナーズ,,株式会社,東京都,千代田区,神田神保町２丁目１９番,,13,101,1010051,,,,,,,2026-02-06,1,,,,,コンコルディアパートナーズ,0
1395,6010001262392,新規,0,2026-02-06,2026-02-06,株式会社ｑｕａｎｔａｒａ,,株式会社,東京都,千代田区,麹町４丁目３－１６紅谷ビル４Ｆ,,13,101,1020083,,,,,,,2026-02-06,1,,,,,クアンタラ,0
1403,6010003050275,新規,0,2026-02-06,2026-02-06,Ｄｅｌａｒｋｉ　Ｂｒａｎｄｓ合同会社,,合同会社,東京都,中央区,銀座３丁目４番１号大倉別館５Ｆ,,13,102,1040061,,,,,,,2026-02-06,1,,,,,デラーキブランズ,0
1406,6010005041339,新規,0,2026-02-06,2026-02-06,一般社団法人ＫＮＩＴ２,,その他の設立登記法人,東京都,中央区,日本橋１丁目４番１号日本橋一丁目ビルディング,,13,102,1030027,,,,,,,2026-02-06,1,,,,,ニットツー,0
1407,6010005041355,新規,0,2026-02-06,2026-02-06,一般社団法人神谷町１３,,その他の設立登記法人,東京都,千代田区,丸の内１丁目４番１号東京共同会計事務所内,,13,101,1000005,,,,,,,2026-02-06,1,,,,,カミヤチョウジュウサン,0
1408,6010005041363,新規,0,2026-02-06,2026-02-06,一般社団法人ＴＫＧ,,その他の設立登記法人,東京都,千代田区,丸の内１丁目４番１号東京共同会計事務所内,,13,101,1000005,,,,,,,2026-02-06,1,,,,,ティーケージー,0
1409,6010101017077,新規,0,2026-02-06,2026-02-06,ユニバーサル企画株式会社,,株式会社,東京都,八王子市,散田町５丁目１５番１２－１０１号,,13,201,1930832,,,,,,,2026-02-06,1,,,,,ユニバーサルキカク,0
1410,6010103002754,新規,0,2026-02-06,2026-02-06,つなげるトラベル合同会社,,合同会社,東京都,八王子市,三崎町４番１１号トーネンビル５階,,13,201,1920084,,,,,,,2026-02-06,1,,,,,ツナゲルトラベル,0
1415,6010401196348,新規,0,2026-02-06,2026-02-06,ＬＳ‐ＳＨＩＰ第９６号株式会社,,株式会社,東京都,港区,六本木１丁目６番１号,,13,103,1060032,,,,,,,2026-02-06,1,,,,,エルエスシップダイキュウジュウロクゴウ,0
1416,6010401196389,新規,0,2026-02-06,2026-02-06,株式会社ＡＣＥ　ＦＣＢＡＮＫ,,株式会社,東京都,港区,高輪４丁目２０番８－３０１号,,13,103,1080074,,,,,,,2026-02-06,1,,,,,エースエフシーバンク,0
1421,6010403037252,新規,0,2026-02-06,2026-02-06,那須岳合同会社,,合同会社,東京都,港区,六本木１丁目６番１号泉ガーデンタワーＫＰＭＧ税理士法人内,,13,103,1060032,,,,,,,2026-02-06,1,,,,,ナスダケ,0
1423,6010501055412,新規,0,2026-02-06,2026-02-06,株式会社エンブレム,,株式会社,東京都,台東区,台東４丁目２５番３号４Ｆ,,13,106,1100016,,,,,,,2026-02-06,1,,,,,エンブレム,0
1424,6010601068685,新規,0,2026-02-06,2026-02-06,マメ太郎ホールディングス株式会社,,株式会社,東京都,墨田区,押上１丁目３２番７号,,13,107,1310045,,,,,,,2026-02-06,1,,,,,マメタロウホールディングス,0
1425,6010601068702,新規,0,2026-02-06,2026-02-06,株式会社ＭＫコンサルティング,,株式会社,東京都,墨田区,太平１丁目１３番４号,,13,107,1300012,,,,,,,2026-02-06,1,,,,,エムケーコンサルティング,0
1427,6010603012039,新規,0,2026-02-06,2026-02-06,Ｃａｎ　ａ　ｌｏｔ合同会社,,合同会社,東京都,墨田区,両国１丁目１３－４アイル東京リバーサイド６０３,,13,107,1300026,,,,,,,2026-02-06,1,,,,,キャンアロット,0
1433,6010801037028,新規,0,2026-02-06,2026-02-06,株式会社ＥＧＮＩＸ,,株式会社,東京都,大田区,矢口３丁目２８番１号,,13,111,1460093,,,,,,,2026-02-06,1,,,,,エグニクス,0
1434,6010901058915,新規,0,2026-02-06,2026-02-06,株式会社メレナ,,株式会社,東京都,世田谷区,喜多見７丁目８－２,,13,112,1570067,,,,,,,2026-02-06,1,,,,,メレナ,0
1442,6011001175312,新規,0,2026-02-06,2026-02-06,株式会社ノーマライズ,,株式会社,東京都,渋谷区,道玄坂１丁目１０番８号渋谷道玄坂東急ビル２Ｆ‐Ｃ,,13,113,1500043,,,,,,,2026-02-06,1,,,,,ノーマライズ,0
1443,6011001175337,新規,0,2026-02-06,2026-02-06,株式会社ｓｔａｎｄ,,株式会社,東京都,目黒区,自由が丘２丁目１６番１２号ＲＪ３,,13,110,1520035,,,,,,,2026-02-06,1,,,,,スタンド,0
1449,6011101114780,新規,0,2026-02-06,2026-02-06,グルーポ・トヨ・ジャパン株式会社,,株式会社,東京都,新宿区,弁天町２０番地ヴィラティック早稲田２０２号室,,13,104,1620851,,,,,,,2026-02-06,1,,,,,グルーポトヨジャパン,0
1453,6011103017065,新規,0,2026-02-06,2026-02-06,ＡＴ合同会社,,合同会社,東京都,新宿区,市谷本村町３番１９－８０５号,,13,104,1620845,,,,,,,2026-02-06,1,,,,,エーティー,0
1457,6011503006857,新規,0,2026-02-06,2026-02-06,合同会社プラスワン,,合同会社,東京都,北区,中里３丁目２３番３号,,13,117,1140015,,,,,,,2026-02-06,1,,,,,プラスワン,0
1459,6011601029339,新規,0,2026-02-06,2026-02-06,株式会社ＴＥＮＯＳ　ｐａｒｔｎｅｒｓ,,株式会社,東京都,練馬区,練馬１丁目１１番２号,,13,120,1760001,,,,,,,2026-02-06,1,,,,,テノスパートナーズ,0
1465,6011801047396,新規,0,2026-02-06,2026-02-06,弘誠コンサルティング株式会社,,株式会社,東京都,足立区,大谷田１丁目４３－２８－２０１,,13,121,1200001,,,,,,,2026-02-06,1,,,,,コウセイコンサルティング,0
1467,6011803007316,新規,0,2026-02-06,2026-02-06,合同会社ワンダフルメイク,,合同会社,東京都,葛飾区,新小岩１丁目２０番６号,,13,122,1240024,,,,,,,2026-02-06,1,,,,,ワンダフルメイク,0
1471,6012401044115,新規,0,2026-02-06,2026-02-06,株式会社ＰＬＡＹＥＮＣＥ,,株式会社,東京都,稲城市,大丸３７４番地２,,13,225,2060801,,,,,,,2026-02-06,1,,,,,プレイエンス,0
1480,6020001167013,新規,0,2026-02-06,2026-02-06,株式会社イコカジャパン,,株式会社,神奈川県,横浜市金沢区,釜利谷東１丁目１１－１０,,14,108,2360042,,,,,,,2026-02-06,1,,,,,イコカジャパン,0
1481,6020001167021,新規,0,2026-02-06,2026-02-06,ピントクル株式会社,,株式会社,神奈川県,川崎市中原区,上小田中６丁目２５番１号,,14,133,2110053,,,,,,,2026-02-06,1,,,,,ピントクル,0
1490,6030003028591,新規,0,2026-02-06,2026-02-06,エムアイサービス合同会社,,合同会社,埼玉県,さいたま市緑区,太田窪１丁目２番２６号,,11,109,3360936,,,,,,,2026-02-06,1,,,,,エムアイサービス,0
1495,6040003029399,新規,0,2026-02-06,2026-02-06,美世合同会社,,合同会社,千葉県,市川市,中国分４丁目１７－４,,12,203,2720835,,,,,,,2026-02-06,1,,,,,ミヨ,0
1496,6050001057938,新規,0,2026-02-06,2026-02-06,株式会社Ｋ‐ＴＥＣ,,株式会社,茨城県,潮来市,徳島１７５１番地２,,08,223,3112418,,,,,,,2026-02-06,1,,,,,ケイテック,0
1532,6120001283881,新規,0,2026-02-06,2026-02-06,株式会社カワサキアセットマネージメント,,株式会社,大阪府,大阪市阿倍野区,播磨町３丁目６番２０－８０９号,,27,119,5450022,,,,,,,2026-02-06,1,,,,,カワサキアセットマネージメント,0
1533,6120001283948,新規,0,2026-02-06,2026-02-06,株式会社ＨＯＰＥ‐ＡＩ,,株式会社,大阪府,大阪市西区,靱本町１丁目１０番７－３１１０号,,27,106,5500004,,,,,,,2026-02-06,1,,,,,ホープエイアイ,0
1534,6120001283956,新規,0,2026-02-06,2026-02-06,株式会社ＦＫメディカル,,株式会社,大阪府,大阪市中央区,久太郎町２丁目１番４－４１１０号,,27,128,5410056,,,,,,,2026-02-06,1,,,,,エフケーメディカル,0
1541,6120103006983,新規,0,2026-02-06,2026-02-06,合同会社ＯＩ・テック,,合同会社,大阪府,松原市,岡５丁目１番５９号,,27,217,5800014,,,,,,,2026-02-06,1,,,,,オーアイドットテック,0
1556,6130005017582,新規,0,2026-02-06,2026-02-06,一般社団法人京都自然教室ネイチャーガイド,,その他の設立登記法人,京都府,京都市伏見区,桃山町下野２９番地３０,,26,109,6128021,,,,,,,2026-02-06,1,,,,,キョウトシゼンキョウシツネイチャーガイド,0
1559,6140001141641,新規,0,2026-02-06,2026-02-06,株式会社Ｒｅ‐ｍｏｎｔｅ,,株式会社,兵庫県,神戸市兵庫区,下沢通６丁目２－１２,,28,105,6520047,,,,,,,2026-02-06,1,,,,,リモンテ,0
1563,6140003023177,新規,0,2026-02-06,2026-02-06,合同会社ＮＥＸＩＡ,,合同会社,兵庫県,姫路市,大津区勘兵衛町１丁目２１番地,,28,201,6711132,,,,,,,2026-02-06,1,,,,,ネクシア,0
1575,6180003029740,新規,0,2026-02-06,2026-02-06,合同会社あさひ内装,,合同会社,愛知県,名古屋市守山区,天子田２丁目９０７番地の１,,23,113,4630037,,,,,,,2026-02-06,1,,,,,アサヒナイソウ,0
1577,6180303006885,新規,0,2026-02-06,2026-02-06,合同会社ＬａＬａ,,合同会社,愛知県,刈谷市,野田町音神１１番地１４ガレージハウスＫ７号,,23,210,4480803,,,,,,,2026-02-06,1,,,,,ララ,0
1579,6190001032885,新規,0,2026-02-06,2026-02-06,株式会社月輪,,株式会社,三重県,伊勢市,吹上１丁目３番９号,,24,203,5160073,,,,,,,2026-02-06,1,,,,,ツキノワ,0
1580,6190003005344,新規,0,2026-02-06,2026-02-06,伊賀の和農園合同会社,,合同会社,三重県,伊賀市,猪田１３６７番地の１,,24,216,5180123,,,,,,,2026-02-06,1,,,,,イガノワノウエン,0
1587,6220003004219,新規,0,2026-02-06,2026-02-06,合同会社ＥＮ　Ｍａｋｅ　Ｈｏｌｄｉｎｇｓ,,合同会社,石川県,白山市,上柏野町３４番地１,,17,210,9240035,,,,,,,2026-02-06,1,,,,,エンメイクホールディングス,0
1588,6230001021272,新規,0,2026-02-06,2026-02-06,株式会社立山耕舎,,株式会社,富山県,中新川郡立山町,古川４５番地,,16,323,9300254,,,,,,,2026-02-06,1,,,,,タテヤマコウシャ,0
1592,6240001066143,新規,0,2026-02-06,2026-02-06,常石地所株式会社,,株式会社,広島県,尾道市,浦崎町１３６４番地６,,34,205,7200551,,,,,,,2026-02-06,1,,,,,ツネイシジショ,0
1593,6240003007590,新規,0,2026-02-06,2026-02-06,創知パートナーズ合同会社,,合同会社,広島県,安芸郡府中町,青崎東１１番８－３０１号サンヒルズマンションＣ棟,,34,302,7350015,,,,,,,2026-02-06,1,,,,,ソウチパートナーズ,0
1603,6260001040971,新規,0,2026-02-06,2026-02-06,株式会社ＴｅｅｅｎＳ,,株式会社,岡山県,岡山市中区,浜３丁目４番３９号サーパス住吉公園３０６号,,33,102,7038256,,,,,,,2026-02-06,1,,,,,ティーンズ,0
1604,6260005011572,新規,0,2026-02-06,2026-02-06,企業組合美咲町物産センター,,その他の設立登記法人,岡山県,久米郡美咲町,原田３１００番地１,,33,666,7093717,,,,,,,2026-02-06,1,,,,,ミサキチョウブッサンセンター,0
1605,6270001009388,新規,0,2026-02-06,2026-02-06,株式会社ＭＫＤＥＳＩＧＮ,,株式会社,鳥取県,鳥取市,松並町２丁目３７２番地３,,31,201,6800801,,,,,,,2026-02-06,1,,,,,エムケーデザイン,0
1617,6290001113048,新規,0,2026-02-06,2026-02-06,株式会社ＭｙｕＭｙｕ,,株式会社,福岡県,福岡市博多区,銀天町２丁目２番５号,,40,132,8120879,,,,,,,2026-02-06,1,,,,,ミュウミュウ,0
1622,6320001021511,新規,0,2026-02-06,2026-02-06,株式会社Ｋ３,,株式会社,大分県,大分市,下郡南４丁目１番６－８０６号三和コーポ下郡,,44,201,8700955,,,,,,,2026-02-06,1,,,,,ケースリー,0
1623,6320001021569,新規,0,2026-02-06,2026-02-06,宇佐ダイナー株式会社,,株式会社,大分県,宇佐市,大字岩崎５３２番地の１,,44,211,8791132,,,,,,,2026-02-06,1,,,,,ウサダイナー,0
1627,6330003011427,新規,0,2026-02-06,2026-02-06,合同会社ピアフォルム,,合同会社,熊本県,玉名市,山田１８３４番地３,,43,206,8650066,,,,,,,2026-02-06,1,,,,,ピアフォルム,0
1629,6340003005089,新規,0,2026-02-06,2026-02-06,合同会社エフィシエント,,合同会社,鹿児島県,いちき串木野市,港町二丁目４８番地１２,,46,219,8960043,,,,,,,2026-02-06,1,,,,,エフィシエント,0
1634,6370001053467,新規,0,2026-02-06,2026-02-06,株式会社ＦＲＯＮＴＩＥＲ,,株式会社,宮城県,仙台市青葉区,中央２丁目２番１０号仙都会館５Ｆ,,04,101,9800021,,,,,,,2026-02-06,1,,,,,フロンティア,0
1635,6380001035852,新規,0,2026-02-06,2026-02-06,株式会社アンザイ,,株式会社,福島県,郡山市,喜久田町字菖蒲池２５番地の１,,07,203,9630551,,,,,,,2026-02-06,1,,,,,アンザイ,0
1639,6420001019413,新規,0,2026-02-06,2026-02-06,株式会社ＷＯＲＫ　ＦＯＲＣＥ,,株式会社,青森県,東津軽郡平内町,大字浅所字雷電林１３０番地,,02,301,0393312,,,,,,,2026-02-06,1,,,,,ワークフォース,0
1640,6420003003225,新規,0,2026-02-06,2026-02-06,合同会社Ｄｉｇｚ,,合同会社,青森県,弘前市,大字土手町１０３,,02,202,0368182,,,,,,,2026-02-06,1,,,,,ディグズ,0
1649,6460103001785,新規,0,2026-02-06,2026-02-06,合同会社叶,,合同会社,北海道,帯広市,西十三条南３４丁目４番地１１,,01,207,0800023,,,,,,,2026-02-06,1,,,,,カナタ,0
1650,6470003003071,新規,0,2026-02-06,2026-02-06,モリックス合同会社,,合同会社,香川県,高松市,浜ノ町７３番９－６０１号,,37,201,7600011,,,,,,,2026-02-06,1,,,,,,0
1652,6480003002386,新規,0,2026-02-06,2026-02-06,合同会社神山農産,,合同会社,徳島県,板野郡藍住町,富吉字穂実３５番地４ティラーノ藍住Ｅ号,,36,403,7711232,,,,,,,2026-02-06,1,,,,,カミヤマノウサン,0
1653,6490003002096,新規,0,2026-02-06,2026-02-06,合同会社ＶＥＬＦＣ,,合同会社,高知県,高知市,寿町１番５号,,39,201,7800043,,,,,,,2026-02-06,1,,,,,ヴェルフ,0
1666,7010001262342,新規,0,2026-02-06,2026-02-06,株式会社ＡＩＲＩ,,株式会社,東京都,中央区,銀座１丁目１２番４号Ｎ＆ＥＢＬＤ．６Ｆ,,13,102,1040061,,,,,,,2026-02-06,1,,,,,アイリ,0
1667,7010001262375,新規,0,2026-02-06,2026-02-06,株式会社ＳＡＴＯ,,株式会社,東京都,千代田区,神田須田町１丁目７番８号ＶＯＲＴ秋葉原ＩＶ２Ｆ,00142498,13,101,1010041,,,,,,,2026-02-06,1,,,,,サトー,0
1668,7010001262391,新規,0,2026-02-06,2026-02-06,Ａｉｋｉａ株式会社,,株式会社,東京都,文京区,千石４丁目１４番９号,,13,105,1120011,,,,,,,2026-02-06,1,,,,,アイキア,0
1669,7010001262482,新規,0,2026-02-06,2026-02-06,明和創株式会社,,株式会社,東京都,文京区,白山１丁目１９番６号シンク白山ビル,,13,105,1130001,,,,,,,2026-02-06,1,,,,,メイワソウ,0
1670,7010001262581,新規,0,2026-02-06,2026-02-06,Ｓａｉｌ　Ｆｉｒｓｔ株式会社,,株式会社,東京都,中央区,銀座１丁目１２番４号Ｎ＆ＥＢＬＤ．７階,,13,102,1040061,,,,,,,2026-02-06,1,,,,,セイルファースト,0
1673,7010003050175,新規,0,2026-02-06,2026-02-06,合同会社ＣＲＵＳＨ,,合同会社,東京都,中央区,東日本橋３丁目１番４－１３０３号,,13,102,1030004,,,,,,,2026-02-06,1,,,,,クラッシュ,0
1674,7010003050266,新規,0,2026-02-06,2026-02-06,合同会社レジデンスセブン,,合同会社,東京都,千代田区,霞が関３丁目２番５号,,13,101,1000013,,,,,,,2026-02-06,1,,,,,レジデンスセブン,0
1675,7010003050316,新規,0,2026-02-06,2026-02-06,合同会社ＡＯＩ,,合同会社,東京都,千代田区,丸の内１丁目４番１号東京共同会計事務所内,,13,101,1000005,,,,,,,2026-02-06,1,,,,,アオイ,0
1677,7010005041338,新規,0,2026-02-06,2026-02-06,一般社団法人ＡＩ・ＤＸおすすめ協会,,その他の設立登記法人,東京都,千代田区,九段南４丁目６番１３号ニュー九段マンション５０３,,13,101,1020074,,,,,,,2026-02-06,1,,,,,エーアイディーエックスオススメキョウカイ,0
1683,7010401196289,新規,0,2026-02-06,2026-02-06,株式会社ホーミーズ,,株式会社,東京都,港区,芝４丁目７番６号芝ビルディング７０４,,13,103,1080014,,,,,,,2026-02-06,1,,,,,ホーミーズ,0
1684,7010401196297,新規,0,2026-02-06,2026-02-06,株式会社ＹＲＨ,,株式会社,東京都,港区,南青山３丁目１番３６号青山丸竹ビル６Ｆ,,13,103,1070062,,,,,,,2026-02-06,1,,,,,,0
1685,7010401196322,新規,0,2026-02-06,2026-02-06,ＭＡＩＣ株式会社,,株式会社,東京都,港区,北青山１丁目３－３三橋ビル３階,,13,103,1070061,,,,,,,2026-02-06,1,,,,,メイク,0
1686,7010401196330,新規,0,2026-02-06,2026-02-06,ＰＹＯインベストメント株式会社,,株式会社,東京都,港区,芝５丁目２７番４号,,13,103,1080014,,,,,,,2026-02-06,1,,,,,ピーワイオーインベストメント,0
1687,7010401196339,新規,0,2026-02-06,2026-02-06,株式会社薪鳥古香和,,株式会社,東京都,港区,赤坂３丁目１０番１２－６０８号,,13,103,1070052,,,,,,,2026-02-06,1,,,,,マキトリフルカワ,0
1690,7010403037235,新規,0,2026-02-06,2026-02-06,合同会社とらまる堂,,合同会社,東京都,港区,南青山２丁目２番１５号ＷＩＮ青山５３１,,13,103,1070062,,,,,,,2026-02-06,1,,,,,トラマルドウ,0
1692,7010601068668,新規,0,2026-02-06,2026-02-06,ＳＫマネジメント株式会社,,株式会社,東京都,江東区,福住１丁目６番５号,,13,108,1350032,,,,,,,2026-02-06,1,,,,,エスケーマネジメント,0
1693,7010603012054,新規,0,2026-02-06,2026-02-06,日麗豊禾合同会社,,合同会社,東京都,墨田区,八広２丁目８９番１０号,,13,107,1310041,,,,,,,2026-02-06,1,,,,,ニチレイホウカ,0
1696,7010701049007,新規,0,2026-02-06,2026-02-06,株式会社未来産業創造研究所,,株式会社,東京都,品川区,東大井５丁目２４番１６－２１７号,,13,109,1400011,,,,,,,2026-02-06,1,,,,,ミライサンギョウソウゾウケンキュウジョ,0
1698,7010801037027,新規,0,2026-02-06,2026-02-06,株式会社京ＫＩＮ,,株式会社,東京都,大田区,西蒲田７丁目４番６号シティ蒲田ビル３階,,13,111,1440051,,,,,,,2026-02-06,1,,,,,キンキン,0
1699,7010901058897,新規,0,2026-02-06,2026-02-06,株式会社いきる,,株式会社,東京都,世田谷区,用賀４丁目９―１２ＢＩＺｃｏｍｆｏｒｔ用賀０２号室,,13,112,1580097,,,,,,,2026-02-06,1,,,,,イキル,0
1700,7010901058922,新規,0,2026-02-06,2026-02-06,株式会社ＴＳＵＭＵＧＩ‐ＥＮ,,株式会社,東京都,世田谷区,祖師谷３丁目８－１１リエゾンＭ１階,,13,112,1570072,,,,,,,2026-02-06,1,,,,,ツムギエン,0
1704,7011001175179,新規,0,2026-02-06,2026-02-06,株式会社Ｔｕｍｍｙ,,株式会社,東京都,渋谷区,恵比寿西２丁目４番８号ウィンド恵比寿ビル８Ｆ,,13,113,1500021,,,,,,,2026-02-06,1,,,,,タミー,0
1705,7011003023492,新規,0,2026-02-06,2026-02-06,Ｆｉｎｈａｙ　Ｊａｐａｎ合同会社,,合同会社,東京都,渋谷区,桜丘町３番３号,,13,113,1500031,,,,,,,2026-02-06,1,,,,,フィンヘイジャパン,0
1708,7011101114581,新規,0,2026-02-06,2026-02-06,株式会社Ｆｕｔａｒｉ,,株式会社,東京都,新宿区,高田馬場４丁目２９番２５号パークシティ高田馬場６２６,,13,104,1690075,,,,,,,2026-02-06,1,,,,,フタリ,0
1709,7011103017064,新規,0,2026-02-06,2026-02-06,合同会社ＢｌｏｏｍＸ,,合同会社,東京都,新宿区,新宿２丁目１３番１０号４０１,,13,104,1600022,,,,,,,2026-02-06,1,,,,,ブルームエックス,0
1710,7011201026941,新規,0,2026-02-06,2026-02-06,株式会社モビルフォース・ファクトリー,,株式会社,東京都,中野区,野方５丁目２９番５号ＳＫビル４０１,,13,114,1650027,,,,,,,2026-02-06,1,,,,,モビルフォースファクトリー,0
1713,7011301031239,新規,0,2026-02-06,2026-02-06,株式会社Ｒｏｃｏｃｏ　Ｍｉｎｅｔｔｅ,,株式会社,東京都,杉並区,高円寺北３丁目４番１０号伊勢市ビル２階,,13,115,1660002,,,,,,,2026-02-06,1,,,,,ロココミネット,0
1723,7011603004999,新規,0,2026-02-06,2026-02-06,合同会社ＢｉｏＳｋｅｔ,,合同会社,東京都,練馬区,中村北２丁目１０－１４エコヴィレッジ中村橋４０２,,13,120,1760023,,,,,,,2026-02-06,1,,,,,バイオスケット,0
1727,7012401044097,新規,0,2026-02-06,2026-02-06,株式会社ＳＨリバース,,株式会社,東京都,小金井市,中町２丁目２０番１４号,,13,210,1840012,,,,,,,2026-02-06,1,,,,,エスエイチリバース,0
1728,7012401044114,新規,0,2026-02-06,2026-02-06,株式会社Ａｇｅ,,株式会社,東京都,調布市,仙川町１丁目１３番地９,,13,208,1820002,,,,,,,2026-02-06,1,,,,,アージェ,0
1742,7020001166963,新規,0,2026-02-06,2026-02-06,株式会社ラクタノ,,株式会社,神奈川県,横浜市西区,浅間町１丁目４番３号ウィザードビル４０２,,14,103,2200072,,,,,,,2026-02-06,1,,,,,ラクタノ,0
1744,7020003030300,新規,0,2026-02-06,2026-02-06,合同会社ＯＴ,,合同会社,神奈川県,川崎市高津区,梶ケ谷１丁目４番地３リオ梶ヶ谷ＩＩ５０３,00142479,14,134,2130015,,,,,,,2026-02-06,1,,,,,オーティー,0
1749,7021003017064,新規,0,2026-02-06,2026-02-06,合同会社錦創,,合同会社,神奈川県,相模原市南区,若松５丁目１３－１７－２,,14,153,2520334,,,,,,,2026-02-06,1,,,,,キンソウ,0
1760,7040003029373,新規,0,2026-02-06,2026-02-06,ＮＫ　Ｓｃｉｅｎｃｅ合同会社,,合同会社,千葉県,印西市,滝野１丁目９番７号,,12,231,2702329,,,,,,,2026-02-06,1,,,,,エヌケーサイエンス,0
1761,7040003029407,新規,0,2026-02-06,2026-02-06,カヤック合同会社,,合同会社,千葉県,柏市,新富町２丁目１７番４３号２０１,,12,217,2770856,,,,,,,2026-02-06,1,,,,,カヤック,0
1762,7040003029464,新規,0,2026-02-06,2026-02-06,桜楓建設合同会社,,合同会社,千葉県,木更津市,港南台１丁目７番地１２,,12,206,2920827,,,,,,,2026-02-06,1,,,,,オウフウケンセツ,0
1765,7050001057953,新規,0,2026-02-06,2026-02-06,株式会社Ｆｅｌｉａ,,株式会社,茨城県,つくば市,千現１丁目３番地２キャピタルつくば５０３,,08,220,3050047,,,,,,,2026-02-06,1,,,,,フェリア,0
1767,7050005013754,新規,0,2026-02-06,2026-02-06,一般社団法人ＨＹＧＧＥ　ＤＥＳＩＧＮ,,その他の設立登記法人,茨城県,取手市,新町１丁目９番地１号５０１区画,,08,217,3020024,,,,,,,2026-02-06,1,,,,,ヒュッゲデザイン,0
1768,7060001038993,新規,0,2026-02-06,2026-02-06,株式会社ＡＹＡＬＡホールディングス,,株式会社,栃木県,那須烏山市,田野倉７７９番地１,,09,215,3210526,,,,,,,2026-02-06,1,,,,,アヤラホールディングス,0
1769,7060003005950,新規,0,2026-02-06,2026-02-06,ＡＳＹＡＳＹ合同会社,,合同会社,栃木県,栃木市,境町２１番１号ポレスターステーションシティ栃木１３０３号,,09,203,3280043,,,,,,,2026-02-06,1,,,,,アシア,0
1771,7070003006287,新規,0,2026-02-06,2026-02-06,ＡＲＣＡＮＡ　ＩＭＰＥＲＩＵＭ合同会社,,合同会社,群馬県,邑楽郡大泉町,仙石３丁目１９番２０号,,10,524,3700533,,,,,,,2026-02-06,1,,,,,アルカナインペリアム,0
1782,7090001019727,新規,0,2026-02-06,2026-02-06,株式会社ＹＭエコドリーム,,株式会社,山梨県,中央市,臼井阿原９２３番地１５,,19,214,4093844,,,,,,,2026-02-06,1,,,,,ワイエムエコドリーム,0
1786,7110001039887,新規,0,2026-02-06,2026-02-06,株式会社やまはち,,株式会社,新潟県,小千谷市,大字三仏生３２８３番地,,15,208,9470051,,,,,,,2026-02-06,1,,,,,ヤマハチ,0
1795,7120001283897,新規,0,2026-02-06,2026-02-06,信日不動産株式会社,,株式会社,大阪府,大阪市西区,新町１丁目７番５－１００２号,,27,106,5500013,,,,,,,2026-02-06,1,,,,,シンジツフドウサン,0
1796,7120001283922,新規,0,2026-02-06,2026-02-06,株式会社ＳＴＯＲＹ,,株式会社,大阪府,大阪市中央区,南船場４丁目１０番５号７０２,,27,128,5420081,,,,,,,2026-02-06,1,,,,,ストーリー,0
1797,7120001283939,新規,0,2026-02-06,2026-02-06,株式会社ＲＥＡＬ　ＤＥＡＬ,,株式会社,大阪府,大阪市西区,土佐堀２丁目３－１３－２５０４,,27,106,5500001,,,,,,,2026-02-06,1,,,,,リアルディール,0
1798,7120001283971,新規,0,2026-02-06,2026-02-06,ＹＯＳＨＵ　ＧＬＯＢＡＬ　ＩＮＤＵＳＴＲＹ株式会社,,株式会社,大阪府,大阪市中央区,南船場１丁目４番１１号,,27,128,5420081,,,,,,,2026-02-06,1,,,,,ヨシュウグローバルインダストリー,0
1802,7120003031841,新規,0,2026-02-06,2026-02-06,合同会社まこと,,合同会社,大阪府,大阪市北区,西天満１丁目８－９－２６０４,,27,127,5300047,,,,,,,2026-02-06,1,,,,,マコト,0
1803,7120005025395,新規,0,2026-02-06,2026-02-06,一般社団法人ＣＯＳＭＡＬＯＫＡ,,その他の設立登記法人,大阪府,大阪市城東区,鴫野西２丁目５番５－３０６号,,27,118,5360014,,,,,,,2026-02-06,1,,,,,コスマロカ,0
1806,7120101073158,新規,0,2026-02-06,2026-02-06,株式会社ｕｍｉｓａｋｕ　ｏｈａｎａ,,株式会社,大阪府,泉北郡忠岡町,馬瀬３丁目１２番６－１２号,,27,341,5950804,,,,,,,2026-02-06,1,,,,,ウミサクオハナ,0
1809,7120901052204,新規,0,2026-02-06,2026-02-06,ＲａｄｉＬｉｎｋ株式会社,,株式会社,大阪府,豊中市,曽根東町２丁目１２番１８号,,27,203,5610802,,,,,,,2026-02-06,1,,,,,ラジリンク,0
1810,7120901052212,新規,0,2026-02-06,2026-02-06,株式会社ＨＲＴライフベース,,株式会社,大阪府,豊中市,末広町２丁目３番２５号,,27,203,5600024,,,,,,,2026-02-06,1,,,,,エイチアールティライフベース,0
1811,7120903006067,新規,0,2026-02-06,2026-02-06,ＤＡＮ　ＣＯＭＭＥＲＣＥ合同会社,,合同会社,大阪府,摂津市,鳥飼西１丁目６番２号,,27,224,5660072,,,,,,,2026-02-06,1,,,,,ダンコマース,0
1812,7120903006075,新規,0,2026-02-06,2026-02-06,合同会社ＺＥＮＳＨＩＮ善心,,合同会社,大阪府,豊中市,庄内栄町１丁目６－１－６０５,,27,203,5610834,,,,,,,2026-02-06,1,,,,,ゼンシン,0
1816,7130001081557,新規,0,2026-02-06,2026-02-06,ＡＣＫ　Ｃｒａｆｔ株式会社,,株式会社,京都府,京都市中京区,河原町通御池下る下丸屋町３９０番地２ＱＵＥＳＴＩＯＮ内,,26,104,6048006,,,,,,,2026-02-06,1,,,,,アッククラフト,0
1818,7130003011140,新規,0,2026-02-06,2026-02-06,合同会社ＤＩＭ,,合同会社,京都府,京都市北区,小山上花ノ木町５４番地１,,26,101,6038121,,,,,,,2026-02-06,1,,,,,ディーアイエム,0
1826,7140001141599,新規,0,2026-02-06,2026-02-06,株式会社ボスコ,,株式会社,兵庫県,西宮市,殿山町５番１２号,,28,204,6620065,,,,,,,2026-02-06,1,,,,,ボスコ,0
1827,7140001141632,新規,0,2026-02-06,2026-02-06,Ｊ＆Ａ　ＨＯＬＤＩＮＧＳ株式会社,,株式会社,兵庫県,西宮市,柏堂西町１２番１０号,,28,204,6620098,,,,,,,2026-02-06,1,,,,,ジェイアンドエイホールディングス,0
1831,7170001018968,新規,0,2026-02-06,2026-02-06,株式会社Ｌｉｎｋ,,株式会社,和歌山県,和歌山市,舟津町１丁目３－２丸八ビル１Ｆ,,30,201,6408255,,,,,,,2026-02-06,1,,,,,リンク,0
1835,7180001170561,新規,0,2026-02-06,2026-02-06,株式会社和泉,,株式会社,愛知県,大府市,横根町名高山一番地７６,,23,223,4740011,,,,,,,2026-02-06,1,,,,,イズミ,0
1844,7200005013846,新規,0,2026-02-06,2026-02-06,農事組合法人ひだ高山コンポ,,その他の設立登記法人,岐阜県,高山市,久々野町山梨２３０５番地,,21,203,5093206,,,,,,,2026-02-06,1,,,,,ヒダタカヤマコンポ,0
1848,7220001027162,新規,0,2026-02-06,2026-02-06,株式会社明地石材,,株式会社,石川県,能美市,下ノ江町酉１９０番地１,,17,211,9290115,,,,,,,2026-02-06,1,,,,,ミョウチセキザイ,0
1857,7240003007581,新規,0,2026-02-06,2026-02-06,合同会社ともけあ,,合同会社,広島県,広島市安佐南区,大町東３丁目２４番７－３０８号,,34,105,7310124,,,,,,,2026-02-06,1,,,,,トモケア,0
1859,7250001021534,新規,0,2026-02-06,2026-02-06,株式会社あざみ,,株式会社,山口県,岩国市,麻里布町６丁目３番１５号,,35,208,7400018,,,,,,,2026-02-06,1,,,,,アザミ,0
1865,7280001009576,新規,0,2026-02-06,2026-02-06,隠岐島デザイン株式会社,,株式会社,島根県,隠岐郡隠岐の島町,中町目貫の四１０番地内２．１１番地内２,,32,528,6850013,,,,,,,2026-02-06,1,,,,,オキシマデザイン,0
1874,7290001113014,新規,0,2026-02-06,2026-02-06,株式会社ユメノツボミ,,株式会社,福岡県,八女市,柳島１００番地４,,40,210,8340022,,,,,,,2026-02-06,1,,,,,ユメノツボミ,0
1876,7290003017997,新規,0,2026-02-06,2026-02-06,合同会社安寧堂,,合同会社,福岡県,糟屋郡須惠町,大字上須惠９０－１,,40,344,8112114,,,,,,,2026-02-06,1,,,,,アンネイドウ,0
1881,7310001019951,新規,0,2026-02-06,2026-02-06,彰物流株式会社,,株式会社,長崎県,長崎市,茂里町１番１－３０５号,,42,201,8528104,,,,,,,2026-02-06,1,,,,,ショウブツリュウ,0
1885,7340001027943,新規,0,2026-02-06,2026-02-06,株式会社リブ・エナジー,,株式会社,鹿児島県,霧島市,国分新町２丁目１５番５号,,46,218,8994351,,,,,,,2026-02-06,1,,,,,リブエナジー,0
1886,7360001036348,新規,0,2026-02-06,2026-02-06,株式会社Ａｎｎｉｅ,,株式会社,沖縄県,うるま市,字豊原６５３番地,,47,213,9042233,,,,,,,2026-02-06,1,,,,,アニー,0
1887,7360001036364,新規,0,2026-02-06,2026-02-06,株式会社シティインデックスリュウキュウス,,株式会社,沖縄県,浦添市,宮城３丁目２－５,,47,208,9012126,,,,,,,2026-02-06,1,,,,,シティインデックスリュウキュウス,0
1888,7360003015606,新規,0,2026-02-06,2026-02-06,合同会社ＡＳＬＩＯ,,合同会社,沖縄県,うるま市,石川伊波５３０番地１,,47,213,9041115,,,,,,,2026-02-06,1,,,,,アスリオ,0
1896,7380003006248,新規,0,2026-02-06,2026-02-06,合同会社ＳＫ　Ｌｉｎｋｓ,,合同会社,福島県,福島市,鳥谷野字杉ノ内７－２５,,07,201,9608152,,,,,,,2026-02-06,1,,,,,エスケーリンクス,0
1897,7390001018252,新規,0,2026-02-06,2026-02-06,株式会社月山佐藤農園,,株式会社,山形県,鶴岡市,羽黒町手向字百々目木７３番地２１,,06,203,9970211,,,,,,,2026-02-06,1,,,,,ガッサンサトウノウエン,0
1904,7430001096186,新規,0,2026-02-06,2026-02-06,株式会社ＤＯＧＬＡＮＤ,,株式会社,北海道,札幌市西区,小別沢７９番地１,,01,107,0630011,,,,,,,2026-02-06,1,,,,,ドッグランド,0
1908,7430003018535,新規,0,2026-02-06,2026-02-06,合同会社ＵＡジャパン,,合同会社,北海道,札幌市清田区,清田三条３丁目５番１０号清田サンハイム３－１０１号,,01,110,0040843,,,,,,,2026-02-06,1,,,,,ユーエージャパン,0
1909,7430003018551,新規,0,2026-02-06,2026-02-06,合同会社アドジェネ,,合同会社,北海道,札幌市北区,北二十三条西７丁目２番５－２０５号,,01,102,0010023,,,,,,,2026-02-06,1,,,,,アドジェネ,0
1910,7430003018568,新規,0,2026-02-06,2026-02-06,合同会社ＮＯＴＲＡ,,合同会社,北海道,札幌市中央区,南二条西５丁目３１番地１ＲＭＢｌｄ．７０１,,01,101,0600062,,,,,,,2026-02-06,1,,,,,ノートラ,0
1911,7430005015407,新規,0,2026-02-06,2026-02-06,一般社団法人ＣＯＵＧＡＲＳ,,その他の設立登記法人,北海道,札幌市東区,伏古十二条３丁目３番６号,,01,103,0070872,,,,,,,2026-02-06,1,,,,,クーガーズ,0
1918,7490001011271,新規,0,2026-02-06,2026-02-06,株式会社鯖,,株式会社,高知県,四万十市,双海字谷口平ノ山１４１３番地,,39,210,7870153,,,,,,,2026-02-06,1,,,,,サバ,0
1919,7490003002095,新規,0,2026-02-06,2026-02-06,合同会社尊,,合同会社,高知県,南国市,大＿甲１６０９番地１グローイングＩＩ１０５号,00142489,39,204,7830004,,,,,,,2026-02-06,1,,,,,ミコト,0
1920,7500001026771,新規,0,2026-02-06,2026-02-06,株式会社ライズ,,株式会社,愛媛県,松山市,余戸西４丁目８番２３－６号,,38,201,7900046,,,,,,,2026-02-06,1,,,,,ライズ,0
1933,8010001262630,新規,0,2026-02-06,2026-02-06,株式会社融資ラボ,,株式会社,東京都,中央区,日本橋室町４丁目３番１８号,,13,102,1030022,,,,,,,2026-02-06,1,,,,,ユウシラボ,0
1936,8010003050249,新規,0,2026-02-06,2026-02-06,合同会社桜坂４号,,合同会社,東京都,文京区,本郷２丁目３５番１０号本郷瀬川ビル４Ｆ,,13,105,1130033,,,,,,,2026-02-06,1,,,,,サクラザカヨンゴウ,0
1937,8010005041270,新規,0,2026-02-06,2026-02-06,一般社団法人在日モルドバ経済交流協会,,その他の設立登記法人,東京都,中央区,晴海１丁目８番５－５０３,,13,102,1040053,,,,,,,2026-02-06,1,,,,,ザイニチモルドバケイザイコウリュウキョウカイ,0
1938,8010103002752,新規,0,2026-02-06,2026-02-06,ＮＥＲＯＣＡＮＤＯＲＥ合同会社,,合同会社,東京都,八王子市,犬目町３７１―５,,13,201,1930802,,,,,,,2026-02-06,1,,,,,ネロケンドウ,0
1948,8010401196288,新規,0,2026-02-06,2026-02-06,株式会社ＳＯＭＡ,,株式会社,東京都,港区,北青山１丁目３番１号アールキューブ青山３階,,13,103,1070061,,,,,,,2026-02-06,1,,,,,ソーマ,0
1949,8010401196346,新規,0,2026-02-06,2026-02-06,ＬＳ‐ＳＨＩＰ第９５号株式会社,,株式会社,東京都,港区,六本木１丁目６番１号,,13,103,1060032,,,,,,,2026-02-06,1,,,,,エルエスシップダイキュウジュウゴゴウ,0
1950,8010401196354,新規,0,2026-02-06,2026-02-06,株式会社Ｅｍｅｒｇｅｎｔ,,株式会社,東京都,港区,南青山３丁目１番３６号青山丸竹ビル６Ｆ,,13,103,1070062,,,,,,,2026-02-06,1,,,,,エマージェント,0
1951,8010401196370,新規,0,2026-02-06,2026-02-06,９Ｘ株式会社,,株式会社,東京都,港区,浜松町２丁目２－１５浜松町ダイヤビル２Ｆ,,13,103,1050013,,,,,,,2026-02-06,1,,,,,ナインエックス,0
1954,8010403037119,新規,0,2026-02-06,2026-02-06,国際中山エステイト合同会社,,合同会社,東京都,港区,港南２丁目１６番７－３０４,,13,103,1080075,,,,,,,2026-02-06,1,,,,,コクサイナカヤマエステイト,0
1955,8010403037242,新規,0,2026-02-06,2026-02-06,合同会社アフォーダブル・コア１,,合同会社,東京都,港区,芝浦１丁目１番１号,,13,103,1050023,,,,,,,2026-02-06,1,,,,,アフォーダブルコアワン,0
1962,8010601068683,新規,0,2026-02-06,2026-02-06,株式会社犬丸,,株式会社,東京都,江東区,亀戸６丁目３１番２－２４１５号,,13,108,1360071,,,,,,,2026-02-06,1,,,,,イヌマル,0
1963,8010601068691,新規,0,2026-02-06,2026-02-06,株式会社ストーンライズ,,株式会社,東京都,江東区,塩浜２丁目５番１－４１８号,,13,108,1350043,,,,,,,2026-02-06,1,,,,,ストーンライズ,0
1968,8010701048833,新規,0,2026-02-06,2026-02-06,株式会社ＡｉＲｉｓｅ　Ｈｏｌｄｉｎｇｓ,,株式会社,東京都,品川区,上大崎３丁目１－２ブリリアタワーズ目黒ノースレジデンス２７０３,,13,109,1410021,,,,,,,2026-02-06,1,,,,,アイライズホールディングス,0
1970,8010703008125,新規,0,2026-02-06,2026-02-06,新星ＡＩ合同会社,,合同会社,東京都,品川区,東品川３丁目１１番１７－８０９号,,13,109,1400002,,,,,,,2026-02-06,1,,,,,シンセイエーアイ,0
1972,8010801036928,新規,0,2026-02-06,2026-02-06,株式会社Ａｎｃｌｅｃｙ,,株式会社,東京都,大田区,北千束１丁目４０番１９号,,13,111,1450062,,,,,,,2026-02-06,1,,,,,アンクレシー,0
1973,8010801037026,新規,0,2026-02-06,2026-02-06,株式会社エクスプローラーズ,,株式会社,東京都,大田区,南馬込５丁目１６番２１号,,13,111,1430025,,,,,,,2026-02-06,1,,,,,エクスプローラーズ,0
1978,8010901058921,新規,0,2026-02-06,2026-02-06,株式会社ＯＮＥ,,株式会社,東京都,世田谷区,用賀３丁目３番２０－１０５号,,13,112,1580097,,,,,,,2026-02-06,1,,,,,ワン,0
1988,8011001175351,新規,0,2026-02-06,2026-02-06,株式会社オフィスＮＡＫＡＹＡ,,株式会社,東京都,渋谷区,道玄坂１丁目１０番８号渋谷道玄坂東急ビル２Ｆ－Ｃ,,13,113,1500043,,,,,,,2026-02-06,1,,,,,オフィスナカヤ,0
1989,8011001175459,新規,0,2026-02-06,2026-02-06,株式会社オリジネーターホールディングス,,株式会社,東京都,渋谷区,千駄ヶ谷４丁目１９番１２号,,13,113,1510051,,,,,,,2026-02-06,1,,,,,オリジネーターホールディングス,0
1990,8011003023459,新規,0,2026-02-06,2026-02-06,ワイズアセット合同会社,,合同会社,東京都,目黒区,東山２丁目９番２３号,,13,110,1530043,,,,,,,2026-02-06,1,,,,,ワイズアセット,0
1991,8011003023491,新規,0,2026-02-06,2026-02-06,合同会社ＫＳＫ　Ｃａｐｉｔａｌ,,合同会社,東京都,目黒区,自由が丘２丁目１６番１２号ＲＪ３,,13,110,1520035,,,,,,,2026-02-06,1,,,,,ケーエスケーキャピタル,0
1992,8011003023590,新規,0,2026-02-06,2026-02-06,合同会社ＳＴＲＡＴＸ,,合同会社,東京都,渋谷区,神南１丁目１１―４ＦＰＧリンクス神南５階,,13,113,1500041,,,,,,,2026-02-06,1,,,,,ストラテックス,0
1995,8011101114655,新規,0,2026-02-06,2026-02-06,Ｍ＆Ｂ株式会社,,株式会社,東京都,新宿区,新宿６丁目２９番１１号新宿イーストクロスタワー１０Ｆ,,13,104,1600022,,,,,,,2026-02-06,1,,,,,エムアンドビー,0
1996,8011103016899,新規,0,2026-02-06,2026-02-06,合同会社ＯＲＩＧＡＭＩ,,合同会社,東京都,新宿区,西新宿３丁目３番１３号西新宿水間ビル６階,,13,104,1600023,,,,,,,2026-02-06,1,,,,,オリガミ,0
1997,8011301031254,新規,0,2026-02-06,2026-02-06,株式会社グロースメイト,,株式会社,東京都,杉並区,高円寺南２丁目１－１５ジェイパーク高円寺１０１,,13,115,1660003,,,,,,,2026-02-06,1,,,,,グロースメイト,0
2005,8011701029154,新規,0,2026-02-06,2026-02-06,株式会社極真空手東京本部,,株式会社,東京都,江戸川区,小松川２丁目６番２－４０２号,,13,123,1320034,,,,,,,2026-02-06,1,,,,,キョクシンカラテトウキョウホンブ,0
2008,8011703004519,新規,0,2026-02-06,2026-02-06,合同会社東京エムシー,,合同会社,東京都,江戸川区,松江２丁目１９番１９号,,13,123,1320025,,,,,,,2026-02-06,1,,,,,トウキョウエムシー,0
2011,8012401044105,新規,0,2026-02-06,2026-02-06,株式会社ＢＭＯＬ,,株式会社,東京都,府中市,新町２丁目５７番地の５－１０４号,,13,206,1830052,,,,,,,2026-02-06,1,,,,,ビーエムオーエル,0
2032,8021003017063,新規,0,2026-02-06,2026-02-06,合同会社東成工機,,合同会社,神奈川県,相模原市南区,若松５丁目１３－１７－２,,14,153,2520334,,,,,,,2026-02-06,1,,,,,,0
2033,8021003017113,新規,0,2026-02-06,2026-02-06,合同会社Ｔｉｏ,,合同会社,神奈川県,鎌倉市,材木座３丁目１０－１２,,14,204,2480013,,,,,,,2026-02-06,1,,,,,ティオ,0
2037,8030001170831,新規,0,2026-02-06,2026-02-06,ＭＲ企画株式会社,,株式会社,埼玉県,志木市,幸町４丁目１５番５号,,11,228,3530005,,,,,,,2026-02-06,1,,,,,エムアールキカク,0
2038,8030001170880,新規,0,2026-02-06,2026-02-06,株式会社ＳＫホームズ,,株式会社,埼玉県,春日部市,粕壁東１丁目２１番７号,,11,214,3440062,,,,,,,2026-02-06,1,,,,,エスケーホームズ,0
2039,8030001170906,新規,0,2026-02-06,2026-02-06,株式会社アサヒ電工,,株式会社,埼玉県,北本市,荒井３丁目３８２番地１,,11,233,3640026,,,,,,,2026-02-06,1,,,,,アサヒデンコウ,0
2044,8030003028375,新規,0,2026-02-06,2026-02-06,Ｗｏｏｄｖｉｌｌａｇｅ　Ｗｏｒｋｓ合同会社,,合同会社,埼玉県,入間市,東町１丁目６番１４号,,11,225,3580002,,,,,,,2026-02-06,1,,,,,ウッドビレッジワークス,0
2045,8030003028524,新規,0,2026-02-06,2026-02-06,合同会社ゆにら,,合同会社,埼玉県,川越市,脇田本町７番地８（ＧＢザ・シティ川越ミッドスクエア１３０２号室）,,11,201,3501123,,,,,,,2026-02-06,1,,,,,ユニラ,0
2046,8030003028607,新規,0,2026-02-06,2026-02-06,ＳＡＱＵＡ合同会社,,合同会社,埼玉県,蕨市,中央４丁目８番２２号中央コータース２０５号,,11,223,3350004,,,,,,,2026-02-06,1,,,,,サクア,0
2050,8040001142334,新規,0,2026-02-06,2026-02-06,株式会社Ｎｏｉｅ,,株式会社,千葉県,茂原市,長谷１８５番地１,,12,210,2970063,,,,,,,2026-02-06,1,,,,,ノイエ,0
2051,8040001142350,新規,0,2026-02-06,2026-02-06,株式会社ＹＴ,,株式会社,千葉県,袖ケ浦市,神納４１３５番地２５２,,12,229,2990257,,,,,,,2026-02-06,1,,,,,ワイティ,0
2052,8040001142359,新規,0,2026-02-06,2026-02-06,株式会社いんば沼,,株式会社,千葉県,佐倉市,新臼井田７番４号,,12,212,2850862,,,,,,,2026-02-06,1,,,,,インバヌマ,0
2054,8040003029463,新規,0,2026-02-06,2026-02-06,河木金成合同会社,,合同会社,千葉県,木更津市,祇園２丁目３０－３２,,12,206,2920052,,,,,,,2026-02-06,1,,,,,カモクキンセイ,0
2062,8060001038984,新規,0,2026-02-06,2026-02-06,ＳＨＩＧＡ　Ｇｒｏｕｐ株式会社,,株式会社,栃木県,足利市,南町４２５４番地１,,09,202,3260821,,,,,,,2026-02-06,1,,,,,シガグループ,0
2066,8070001043802,新規,0,2026-02-06,2026-02-06,株式会社ＩｍｐｅｒｉａｌＥｎｖｏｙ＆Ｃｏ．,,株式会社,群馬県,館林市,羽附旭町３７５番地の３,,10,207,3740012,,,,,,,2026-02-06,1,,,,,インペリアルエンヴォイアンドカンパニー,0
2070,8080401028427,新規,0,2026-02-06,2026-02-06,株式会社セカンドモーター静岡,,株式会社,静岡県,浜松市中央区,薬師町３３６番地の１,,22,138,4350017,,,,,,,2026-02-06,1,,,,,セカンドモーターシズオカ,0
2071,8080405007798,新規,0,2026-02-06,2026-02-06,一般社団法人静岡県老人保健施設協会,,その他の設立登記法人,静岡県,浜松市中央区,西山町４１１番地２,,22,138,4328001,,,,,,,2026-02-06,1,,,,,シズオカケンロウジンホケンシセツキョウカイ,0
2073,8090001019726,新規,0,2026-02-06,2026-02-06,メディアコーポレーション株式会社,,株式会社,山梨県,甲府市,上阿原町９７１番地１ケアタウン甲府東１０２,,19,201,4000814,,,,,,,2026-02-06,1,,,,,メディアコーポレーション,0
2076,8100003008601,新規,0,2026-02-06,2026-02-06,かりんサポート合同会社,,合同会社,長野県,北佐久郡軽井沢町,大字長倉１５４１番地３０－１０２号,,20,321,3890111,,,,,,,2026-02-06,1,,,,,カリンサポート,0
2088,8120001283921,新規,0,2026-02-06,2026-02-06,メディカルナレッジパートナーズ株式会社,,株式会社,大阪府,大阪市中央区,南久宝寺町４丁目１番２号御堂筋ダイビル４階,,27,128,5410058,,,,,,,2026-02-06,1,,,,,メディカルナレッジパートナーズ,0
2089,8120001283938,新規,0,2026-02-06,2026-02-06,株式会社中医らぼ,,株式会社,大阪府,大阪市住之江区,東加賀屋２丁目５番１３号,,27,125,5590012,,,,,,,2026-02-06,1,,,,,チュウイラボ,0
2092,8120003031865,新規,0,2026-02-06,2026-02-06,合同会社ネクストベース・エステート,,合同会社,大阪府,大阪市都島区,片町２丁目５番６－４０９号,,27,102,5340025,,,,,,,2026-02-06,1,,,,,ネクストベースエステート,0
2093,8120003031898,新規,0,2026-02-06,2026-02-06,合同会社ノーコントロール,,合同会社,大阪府,大阪市浪速区,元町１丁目７‐２６ディオスカーボ難波７０２,,27,111,5560016,,,,,,,2026-02-06,1,,,,,ノーコントロール,0
2097,8120101073149,新規,0,2026-02-06,2026-02-06,株式会社エビス,,株式会社,大阪府,泉佐野市,長滝１２０９番地の１,,27,213,5980034,,,,,,,2026-02-06,1,,,,,エビス,0
2098,8120101073157,新規,0,2026-02-06,2026-02-06,株式会社ハル,,株式会社,大阪府,堺市西区,浜寺公園町１丁８番地３,,27,144,5928346,,,,,,,2026-02-06,1,,,,,ハル,0
2099,8120101073173,新規,0,2026-02-06,2026-02-06,アイワークス株式会社,,株式会社,大阪府,堺市中区,土師町３丁２７番８８号,,27,142,5998238,,,,,,,2026-02-06,1,,,,,アイワークス,0
2104,8122005003875,新規,0,2026-02-06,2026-02-06,一般社団法人北河内薬剤師会,,その他の設立登記法人,大阪府,四條畷市,中野３丁目５番２８号四条畷市立保健センター３階,,27,229,5750052,,,,,,,2026-02-06,1,,,,,キタカワチヤクザイシカイ,0
2108,8130001081556,新規,0,2026-02-06,2026-02-06,ＳｉｇｎｅＳｈｉｆｔ株式会社,,株式会社,京都府,京都市伏見区,堀詰町５４３番地３－２０５,,26,109,6128317,,,,,,,2026-02-06,1,,,,,サイネシフト,0
2111,8140001141648,新規,0,2026-02-06,2026-02-06,株式会社芦屋こころクリエイト,00142486,株式会社,兵庫県,芦屋市,岩園町１２番２３号,,28,206,6590013,,,,,,,2026-02-06,1,,,,,アシヤココロクリエイト,0
2112,8140001141672,新規,0,2026-02-06,2026-02-06,株式会社マンション創生研究所,,株式会社,兵庫県,西宮市,櫨塚町２－２０西宮商工会館３Ｆにしのみや起業家支援センター内,,28,204,6620854,,,,,,,2026-02-06,1,,,,,マンションソウセイケンキュウショ,0
2118,8150001028712,新規,0,2026-02-06,2026-02-06,光渡株式会社,,株式会社,奈良県,橿原市,内膳町３丁目８－５ＢｉｚＷｏｒｋ３０１,,29,205,6340804,,,,,,,2026-02-06,1,,,,,ミツト,0
2120,8170001018975,新規,0,2026-02-06,2026-02-06,株式会社ｂｌｅｎｄ,,株式会社,和歌山県,西牟婁郡白浜町,富田５３６番地１,,30,401,6492325,,,,,,,2026-02-06,1,,,,,ブレンド,0
2125,8180001170552,新規,0,2026-02-06,2026-02-06,株式会社アトラス,,株式会社,愛知県,名古屋市緑区,尾崎山１丁目１１１番地,,23,114,4580024,,,,,,,2026-02-06,1,,,,,アトラス,0
2126,8180001170569,新規,0,2026-02-06,2026-02-06,株式会社Ｂ‐ＦＬＡＴ,,株式会社,愛知県,名古屋市名東区,西山本通２丁目１２番地,,23,115,4650085,,,,,,,2026-02-06,1,,,,,ビーフラット,0
2127,8180003029722,新規,0,2026-02-06,2026-02-06,合同会社やざわ,,合同会社,愛知県,江南市,小折東町旭１７６番地,,23,217,4838125,,,,,,,2026-02-06,1,,,,,ヤザワ,0
2128,8180003029747,新規,0,2026-02-06,2026-02-06,９合同会社,,合同会社,愛知県,名古屋市名東区,藤見が丘１１番地ＴＨＥＢＯＸビルＢ１,,23,115,4650048,,,,,,,2026-02-06,1,,,,,ナイン,0
2131,8180301040661,新規,0,2026-02-06,2026-02-06,株式会社ユーアシスト,,株式会社,愛知県,豊橋市,前田南町１丁目３番地の１（１１０２）,,23,201,4400851,,,,,,,2026-02-06,1,,,,,ユーアシスト,0
2135,8190001032883,新規,0,2026-02-06,2026-02-06,資格サポート三重株式会社,,株式会社,三重県,伊勢市,久世戸町１５番地１,,24,203,5160015,,,,,,,2026-02-06,1,,,,,シカクサポートミエ,0
2138,8200001044687,新規,0,2026-02-06,2026-02-06,株式会社ＦＴ‐ＳＴＡＧＥ,,株式会社,岐阜県,各務原市,那加雄飛ケ丘町１２番地１３,,21,213,5040835,,,,,,,2026-02-06,1,,,,,エフティーステージ,0
2141,8200003007221,新規,0,2026-02-06,2026-02-06,合同会社Ｌｉｚｂｅｌｌ,,合同会社,岐阜県,高山市,山田町２９１－１,,21,203,5060058,,,,,,,2026-02-06,1,,,,,リズベル,0
2142,8200005013845,新規,0,2026-02-06,2026-02-06,一般社団法人瑞浪市観光協会,,その他の設立登記法人,岐阜県,瑞浪市,上平町５丁目５番地の１,,21,208,5096122,,,,,,,2026-02-06,1,,,,,ミズナミシカンコウキョウカイ,0
2143,8210001020489,新規,0,2026-02-06,2026-02-06,株式会社マリンベース,,株式会社,福井県,福井市,大和田１丁目１０１番地,,18,201,9100836,,,,,,,2026-02-06,1,,,,,マリンベース,0
2146,8230003002574,新規,0,2026-02-06,2026-02-06,合同会社ひょうたん,,合同会社,富山県,南砺市,東中江６１２番地,,16,210,9391905,,,,,,,2026-02-06,1,,,,,ヒョウタン,0
2152,8260001040978,新規,0,2026-02-06,2026-02-06,株式会社ＮＥＸＴ　ＩＮＮＯＶＡＴＩＯＮ,,株式会社,岡山県,倉敷市,連島町連島２１１８－１４,,33,202,7128011,,,,,,,2026-02-06,1,,,,,ネクストイノベーション,0
2160,8290001113013,新規,0,2026-02-06,2026-02-06,株式会社ピカイチＴＪ,,株式会社,福岡県,福岡市中央区,警固１丁目１５－５０－３０１,,40,133,8100023,,,,,,,2026-02-06,1,,,,,ピカイチティージェー,0
2168,8290005019999,新規,0,2026-02-06,2026-02-06,一般社団法人空き家みらい,,その他の設立登記法人,福岡県,大野城市,下大利５丁目５－５,,40,219,8160952,,,,,,,2026-02-06,1,,,,,,0
2172,8320001021567,新規,0,2026-02-06,2026-02-06,榮楽商店株式会社,,株式会社,大分県,別府市,南町２番８号,,44,202,8740941,,,,,,,2026-02-06,1,,,,,エイラクショウテン,0
2178,8330001033982,新規,0,2026-02-06,2026-02-06,株式会社桔梗,,株式会社,熊本県,熊本市中央区,渡鹿２丁目８番１１号,,43,101,8620970,,,,,,,2026-02-06,1,,,,,キキョウ,0
2179,8330003011409,新規,0,2026-02-06,2026-02-06,合同会社ＮＩＳＨＩＦＵＪＩ,,合同会社,熊本県,八代市,日奈久塩南町甲４４,,43,202,8695141,,,,,,,2026-02-06,1,,,,,ニシフジ,0
2180,8340001027950,新規,0,2026-02-06,2026-02-06,株式会社オフィスＣＯ・クリエーション,,株式会社,鹿児島県,鹿児島市,真砂本町３番７５－７０７号,,46,201,8900067,,,,,,,2026-02-06,1,,,,,オフィスコクリエーション,0
2183,8360001036355,新規,0,2026-02-06,2026-02-06,株式会社元,,株式会社,沖縄県,那覇市,真嘉比１丁目１番２２号ワイズエステムコートおもろまち駅前３０２,,47,201,9020068,,,,,,,2026-02-06,1,,,,,ゲン,0
2189,8370003007469,新規,0,2026-02-06,2026-02-06,ＫＯＷＡＴＡ　Ｈｏｌｄｉｎｇｓ合同会社,,合同会社,宮城県,仙台市太白区,柳生４丁目２－２佐藤ハイツ１０１,,04,104,9811106,,,,,,,2026-02-06,1,,,,,コワタホールディングス,0
2190,8370005011072,新規,0,2026-02-06,2026-02-06,特定非営利活動法人産後ケアハウスママん家,,その他の設立登記法人,宮城県,仙台市青葉区,宮町５丁目３番１６号,,04,101,9800004,,,,,,,2026-02-06,1,,,,,サンゴケアハウスママンチ,0
2195,8380001035850,新規,0,2026-02-06,2026-02-06,株式会社エヌワン,,株式会社,福島県,郡山市,字上野山２３番地,,07,203,9638816,,,,,,,2026-02-06,1,,,,,エヌワン,0
2198,8380003006247,新規,0,2026-02-06,2026-02-06,合同会社Ｔ‐ＰＡＩＮＴ,,合同会社,福島県,伊達市,保原町字栄町８７番地,,07,213,9600601,,,,,,,2026-02-06,1,,,,,ティーペイント,0
2205,8420001019411,新規,0,2026-02-06,2026-02-06,株式会社ＹＴクラフト,,株式会社,青森県,八戸市,大字妙字野場４１番地４,,02,203,0310814,,,,,,,2026-02-06,1,,,,,ワイティクラフト,0
2206,8430001096185,新規,0,2026-02-06,2026-02-06,加藤企画株式会社,,株式会社,北海道,札幌市東区,北十三条東１４丁目４番２１号,,01,103,0650013,,,,,,,2026-02-06,1,,,,,カトウキカク,0
2207,8430001096193,新規,0,2026-02-06,2026-02-06,株式会社エルア,,株式会社,北海道,札幌市東区,本町一条５丁目４番１８号,,01,103,0650041,,,,,,,2026-02-06,1,,,,,エルア,0
2208,8430001096210,新規,0,2026-02-06,2026-02-06,株式会社Ｒａｐｉｓ,,株式会社,北海道,札幌市手稲区,富丘四条４丁目９－２８,,01,109,0060014,,,,,,,2026-02-06,1,,,,,ラピス,0
2210,8430003018559,新規,0,2026-02-06,2026-02-06,合同会社Ｗｅｓｔ,,合同会社,北海道,札幌市豊平区,西岡五条１１丁目２４番１０号,,01,105,0620035,,,,,,,2026-02-06,1,,,,,ウエスト,0
2211,8430003018567,新規,0,2026-02-06,2026-02-06,合同会社ファイバーサービス,,合同会社,北海道,札幌市中央区,南十三条西６丁目５番１－４１０号,,01,101,0640913,,,,,,,2026-02-06,1,,,,,ファイバーサービス,0
2218,8480001013078,新規,0,2026-02-06,2026-02-06,株式会社ＵＭＫ,,株式会社,徳島県,鳴門市,撫養町黒崎字松島１５番地１２,,36,202,7720001,,,,,,,2026-02-06,1,,,,,ユーエムケー,0
2234,9010001261747,新規,0,2026-02-06,2026-02-06,ティーハウス不動産株式会社,,株式会社,東京都,千代田区,神田小川町３丁目１１番Ｅ／Ｆｒｏｎｔビル６階,,13,101,1010052,,,,,,,2026-02-06,1,,,,,ティーハウスフドウサン,0
2235,9010001262423,新規,0,2026-02-06,2026-02-06,Ｒｅｓｏｎｔｉｅｒ株式会社,,株式会社,東京都,中央区,銀座１丁目１２番４号Ｎ＆ＥＢＬＤ．６Ｆ,,13,102,1040061,,,,,,,2026-02-06,1,,,,,レゾンティア,0
2236,9010001262613,新規,0,2026-02-06,2026-02-06,株式会社ＥＶＥ　ＧＲＡＮＤ,,株式会社,東京都,中央区,銀座８丁目４番２４号銀座藤井ビル３階,,13,102,1040061,,,,,,,2026-02-06,1,,,,,イヴグラン,0
2239,9010003050207,新規,0,2026-02-06,2026-02-06,合同会社カラフリッチ,,合同会社,東京都,千代田区,麹町４丁目５番地ＫＳビル２階,,13,101,1020083,,,,,,,2026-02-06,1,,,,,カラフリッチ,0
2244,9010401196295,新規,0,2026-02-06,2026-02-06,ＭＯＯＮ‐Ｘ　Ｊａｐａｎ株式会社,,株式会社,東京都,港区,高輪４丁目１０番１８号,,13,103,1080074,,,,,,,2026-02-06,1,,,,,ムーンエックスジャパン,0
2245,9010401196329,新規,0,2026-02-06,2026-02-06,株式会社Ｂｕｌｋ　Ｔｅｃｈｎｏｌｏｇｉｅｓ,,株式会社,東京都,港区,南青山３丁目１番３６号青山丸竹ビル６Ｆ,,13,103,1070062,,,,,,,2026-02-06,1,,,,,バルクテクノロジーズ,0
2246,9010401196386,新規,0,2026-02-06,2026-02-06,Ｕｚｕｍａｋｉ　Ｈｏｕｓｅ株式会社,,株式会社,東京都,港区,六本木３丁目１６番１２号六本木ＫＳビル５Ｆ,,13,103,1060032,,,,,,,2026-02-06,1,,,,,ウズマキハウス,0
2251,9010405025343,新規,0,2026-02-06,2026-02-06,ＧＡＲＮＥＴ白金台一般社団法人,,その他の設立登記法人,東京都,港区,六本木１丁目６番１号泉ガーデンタワー１２階,,13,103,1060032,,,,,,,2026-02-06,1,,,,,ガーネットシロカネダイ,0
2254,9010601068666,新規,0,2026-02-06,2026-02-06,株式会社鮨さく井,,株式会社,東京都,墨田区,錦糸１丁目５番１６－１００６号,,13,107,1300013,,,,,,,2026-02-06,1,,,,,スシサクイ,0
2255,9010601068682,新規,0,2026-02-06,2026-02-06,株式会社ＵＲＡＫＡＴＡ,,株式会社,東京都,墨田区,石原３丁目１５番１号ライオンズマンション,,13,107,1300011,,,,,,,2026-02-06,1,,,,,ウラカタ,0
2256,9010601068690,新規,0,2026-02-06,2026-02-06,株式会社営業革命,,株式会社,東京都,墨田区,両国２丁目１１番３‐１００７号スカイコート両国壱番館,,13,107,1300026,,,,,,,2026-02-06,1,,,,,エイギョウカクメイ,0
2261,9010701048997,新規,0,2026-02-06,2026-02-06,千秋楽株式会社,,株式会社,東京都,品川区,旗の台６丁目２８－６クレストラフィーネ旗の台１０２,,13,109,1420064,,,,,,,2026-02-06,1,,,,,センシュウラク,0
2263,9010703008124,新規,0,2026-02-06,2026-02-06,ＮＩＮＡ’Ｓ合同会社,,合同会社,東京都,品川区,小山台１丁目６番４号,,13,109,1420061,,,,,,,2026-02-06,1,,,,,ニナズ,0
2266,9010801037025,新規,0,2026-02-06,2026-02-06,Ａｋａｒｉａ株式会社,,株式会社,東京都,大田区,北嶺町１０－１４ディーベース御嶽山１０２号,,13,111,1450073,,,,,,,2026-02-06,1,,,,,アカリア,0
2268,9010803005715,新規,0,2026-02-06,2026-02-06,合同会社Ｏｆｆｉｃｅプロローグ,,合同会社,東京都,大田区,下丸子１丁目１－１７サンビルディス１０２,,13,111,1460092,,,,,,,2026-02-06,1,,,,,オフィスプロローグ,0
2275,9010903010607,新規,0,2026-02-06,2026-02-06,Ｆｌａｇｓｈｉｐ　Ｗｏｒｋｓ合同会社,,合同会社,東京都,世田谷区,中町５丁目１４－８,,13,112,1580091,,,,,,,2026-02-06,1,,,,,フラッグシップワークス,0
2284,9011001175334,新規,0,2026-02-06,2026-02-06,Ｂｒｉｄｇｅ　ｆｏｒ　Ｌｅａｐ株式会社,,株式会社,東京都,渋谷区,円山町５番５号Ｎａｖｉ渋谷３階,,13,113,1500044,,,,,,,2026-02-06,1,,,,,ブリッジフォーリープ,0
2288,9011105011708,新規,0,2026-02-06,2026-02-06,一般社団法人ＯＫＣグローバル人材教育研究所,,その他の設立登記法人,東京都,新宿区,西新宿１丁目２５番１号,,13,104,1600023,,,,,,,2026-02-06,1,,,,,オーケーシーグローバルジンザイキョウイクケンキュウショ,0
2292,9011801047410,新規,0,2026-02-06,2026-02-06,ＳｅｖｅｎＳｔｏｎｅｓ株式会社,,株式会社,東京都,足立区,竹の塚１丁目２５番７号,,13,121,1210813,,,,,,,2026-02-06,1,,,,,セブンストーンズ,0
2295,9011803007313,新規,0,2026-02-06,2026-02-06,合同会社ひまわりクリエイト,,合同会社,東京都,葛飾区,亀有３丁目１０番１２号,,13,122,1250061,,,,,,,2026-02-06,1,,,,,ヒマワリクリエイト,0
2296,9012301014710,新規,0,2026-02-06,2026-02-06,株式会社ＩＫ．ｗ,,株式会社,東京都,町田市,金森６丁目４５番２０号,,13,209,1940012,,,,,,,2026-02-06,1,,,,,アイケーダブル,0
2313,9020001166929,新規,0,2026-02-06,2026-02-06,株式会社トラスト,,株式会社,神奈川県,横浜市泉区,和泉中央南５丁目２０番１７号,,14,116,2450023,,,,,,,2026-02-06,1,,,,,トラスト,0
2317,9020003030232,新規,0,2026-02-06,2026-02-06,合同会社スターズオンアース,,合同会社,神奈川県,横浜市中区,扇町２丁目８番２号ロワール横濱関内９０１,,14,104,2310027,,,,,,,2026-02-06,1,,,,,スターズオンアース,0
2320,9021003017062,新規,0,2026-02-06,2026-02-06,合同会社瑞星,,合同会社,神奈川県,相模原市南区,若松５丁目１３－１７－２,,14,153,2520334,,,,,,,2026-02-06,1,,,,,,0
2321,9021003017112,新規,0,2026-02-06,2026-02-06,ＨＩＭＡＷＡＲＩ合同会社,,合同会社,神奈川県,伊勢原市,高森１０９０番地１高森サンハイツ１０６,,14,214,2591114,,,,,,,2026-02-06,1,,,,,ヒマワリ,0
2328,9030001170830,新規,0,2026-02-06,2026-02-06,株式会社北辰テクニカ,,株式会社,埼玉県,新座市,菅沢１丁目６番３４号,,11,230,3520017,,,,,,,2026-02-06,1,,,,,ホクシンテクニカ,0
2335,9030003028606,新規,0,2026-02-06,2026-02-06,合同会社エメラルド,,合同会社,埼玉県,熊谷市,上江袋８３５番地２‐２０１,,11,202,3600234,,,,,,,2026-02-06,1,,,,,エメラルド,0
2376,9120001283838,新規,0,2026-02-06,2026-02-06,ライフエージェント株式会社,,株式会社,大阪府,大阪市中央区,本町４丁目８番１号ＳＤ本町ビル７０２号,,27,128,5410053,,,,,,,2026-02-06,1,,,,,ライフエージェント,0
2377,9120001283929,新規,0,2026-02-06,2026-02-06,株式会社卓越,,株式会社,大阪府,大阪市中央区,久太郎町２丁目１番４－３６０１号,,27,128,5410056,,,,,,,2026-02-06,1,,,,,タクエツ,0
2378,9120001283937,新規,0,2026-02-06,2026-02-06,株式会社Ｈｏｌｏｒｉａ,,株式会社,大阪府,大阪市北区,梅田１丁目１番３号大阪駅前第３ビル１１階２号室,,27,127,5300001,,,,,,,2026-02-06,1,,,,,ホロリア,0
2379,9120001283953,新規,0,2026-02-06,2026-02-06,株式会社グランアザー,,株式会社,大阪府,大阪市北区,芝田１丁目４番１７号梅田エステートビル９階,,27,127,5300012,,,,,,,2026-02-06,1,,,,,グランアザー,0
2380,9120001283994,新規,0,2026-02-06,2026-02-06,株式会社グランスター,,株式会社,大阪府,大阪市平野区,加美北９丁目１－１８,,27,126,5470001,,,,,,,2026-02-06,1,,,,,グランスター,0
2383,9120101073164,新規,0,2026-02-06,2026-02-06,株式会社ＮＡＴＵＲＥ　ＣＯＲＥ,,株式会社,大阪府,堺市北区,新金岡町５丁５番１１０号泉マンション３０１号,,27,146,5918021,,,,,,,2026-02-06,1,,,,,ネイチャーコア,0
2390,9120901052193,新規,0,2026-02-06,2026-02-06,株式会社ハッピー,,株式会社,大阪府,高槻市,辻子１丁目２２－２３－Ａ２０１,00142480,27,207,5690036,,,,,,,2026-02-06,1,,,,,ハッピー,0
2400,9140001141647,新規,0,2026-02-06,2026-02-06,株式会社プロットデバイス,,株式会社,兵庫県,尼崎市,潮江５丁目４番１９－３０４号,,28,202,6610976,,,,,,,2026-02-06,1,,,,,プロットデバイス,0
2408,9180001170576,新規,0,2026-02-06,2026-02-06,株式会社ＣＨＵコーポレーション,,株式会社,愛知県,名古屋市北区,楠３丁目４１３番地,,23,103,4620012,,,,,,,2026-02-06,1,,,,,チュウコーポレーション,0
2412,9180003029738,新規,0,2026-02-06,2026-02-06,合同会社ＴＫＳ,,合同会社,愛知県,名古屋市港区,福田１丁目２０６番地クレセントＶＩ２０５号,00142481,23,111,4550887,,,,,,,2026-02-06,1,,,,,ティーケーエス,0
2414,9180301040660,新規,0,2026-02-06,2026-02-06,シー・テクノ株式会社,,株式会社,愛知県,高浜市,論地町１丁目９番地７０,,23,227,4441314,,,,,,,2026-02-06,1,,,,,シーテクノ,0
2415,9180301040669,新規,0,2026-02-06,2026-02-06,株式会社ＲＩＩＺＥ,,株式会社,愛知県,豊川市,東桜木町６９番地,,23,207,4420028,,,,,,,2026-02-06,1,,,,,ライズ,0
2418,9190001032874,新規,0,2026-02-06,2026-02-06,株式会社ナカセツビ,,株式会社,三重県,四日市市,日永西５丁目１４番１７号,,24,202,5100891,,,,,,,2026-02-06,1,,,,,ナカセツビ,0
2423,9220001027160,新規,0,2026-02-06,2026-02-06,株式会社ＡＺＣＯＭＰＡＮＹ,,株式会社,石川県,白山市,新成３丁目２０５番地,,17,210,9240020,,,,,,,2026-02-06,1,,,,,アズカンパニー,0
2426,9250003003900,新規,0,2026-02-06,2026-02-06,合同会社ミツサービス,,合同会社,山口県,宇部市,明神町２丁目９番２７号,,35,202,7550008,,,,,,,2026-02-06,1,,,,,ミツサービス,0
2442,9290001113053,新規,0,2026-02-06,2026-02-06,株式会社ＳＨＩＢＡ,,株式会社,福岡県,福岡市西区,生の松原１丁目２４番２号,,40,135,8190055,,,,,,,2026-02-06,1,,,,,シバ,0
2448,9290003018003,新規,0,2026-02-06,2026-02-06,合同会社Ｎｕｉｔｓｕ,,合同会社,福岡県,福岡市中央区,伊崎４番３０号,,40,133,8100067,,,,,,,2026-02-06,1,,,,,ヌイツ,0
2452,9320001021574,新規,0,2026-02-06,2026-02-06,株式会社エリン,,株式会社,大分県,宇佐市,大字葛原７７３番地の１－８１１号,,44,211,8790443,,,,,,,2026-02-06,1,,,,,エリン,0
2455,9330001033973,新規,0,2026-02-06,2026-02-06,株式会社吉村設備,,株式会社,熊本県,熊本市東区,沼山津３丁目１０番地９８号,,43,102,8612102,,,,,,,2026-02-06,1,,,,,ヨシムラセツビ,0
2464,9350003005135,新規,0,2026-02-06,2026-02-06,ＥＰＩＣ合同会社,,合同会社,宮崎県,延岡市,柚の木田町４５２５番地１,,45,203,8820026,,,,,,,2026-02-06,1,,,,,エピック,0
2467,9360001036321,新規,0,2026-02-06,2026-02-06,株式会社Ｗｉｙ,,株式会社,沖縄県,石垣市,字石垣１１９番地２Ｆ,,47,207,9070023,,,,,,,2026-02-06,1,,,,,ウィー,0
2468,9360001036338,新規,0,2026-02-06,2026-02-06,株式会社ガジュマループ,,株式会社,沖縄県,沖縄市,高原５丁目１番３号３０１号室,,47,211,9042171,,,,,,,2026-02-06,1,,,,,ガジュマループ,0
2469,9370003007468,新規,0,2026-02-06,2026-02-06,合同会社ａｓｓｅｔ法明０１,,合同会社,宮城県,仙台市青葉区,中央４丁目８番８号パークリュクス仙台６０５,,04,101,9800021,,,,,,,2026-02-06,1,,,,,アセットホウメイゼロイチ,0
2476,9430001096168,新規,0,2026-02-06,2026-02-06,Ｚｅｎ　Ａｓｓｅｔｓ株式会社,,株式会社,北海道,虻田郡倶知安町,北二条東１丁目２番８号,,01,400,0440002,,,,,,,2026-02-06,1,,,,,ゼンアセッツ,0
2477,9430001096184,新規,0,2026-02-06,2026-02-06,株式会社かとう農場,,株式会社,北海道,樺戸郡浦臼町,字於札内１９番地の３,,01,431,0610600,,,,,,,2026-02-06,1,,,,,カトウノウジョウ,0
2478,9430001096201,新規,0,2026-02-06,2026-02-06,幌清分割準備会社株式会社,,株式会社,北海道,室蘭市,仲町１２番地,,01,205,0500087,,,,,,,2026-02-06,1,,,,,コーセイブンカツジュンビガイシャ,0
2481,9430003018558,新規,0,2026-02-06,2026-02-06,合同会社フィールドリンク,,合同会社,北海道,札幌市中央区,南一条西１６丁目１番地３２３春野ビル３Ｆ,,01,101,0600061,,,,,,,2026-02-06,1,,,,,フィールドリンク,0
2482,9430003018566,新規,0,2026-02-06,2026-02-06,合同会社Ｗｕｎ‐Ｓ　Ｂａｓｅ　Ｐｌａｎｎｉｎｇ,,合同会社,北海道,石狩市,花川南十条３丁目８７番地１,,01,235,0613210,,,,,,,2026-02-06,1,,,,,ワンズベースプランニング,0
2489,9480003002383,新規,0,2026-02-06,2026-02-06,合同会社ファーストステップ,,合同会社,徳島県,三好郡東みよし町,昼間２８９９番地１,,36,489,7712501,,,,,,,2026-02-06,1,,,,,ファーストステップ,0
2492,9700150134312,新規,0,2026-02-06,2026-02-06,笠間市土地改良区,,その他,茨城県,笠間市,下郷５１４０,,08,216,3190202,,,,,,,2026-02-06,1,,,,,カサマシトチカイリヨウク,0
