sequenceNumber,corporateNumber,process,correct,updateDate,changeDate,name,nameImageId,kind,prefectureName,cityName,streetNumber,addressImageId,prefectureCode,cityCode,postCode,addressOutside,addressOutsideImageId,closeDate,closeCause,successorCorporateNumber,changeCause,assignmentDate,latest,enName,enPrefectureName,enCityName,enAddressOutside,furigana,hihyoji
7,1010001231393,新規,0,2022-12-20,2022-12-20,株式会社徳寧商事,,株式会社,東京都,千代田区,神田淡路町１丁目９－５天翔御茶ノ水ビル４階４１４号室,,13,101,1010063,,,,,,,2022-12-20,1,,,,,トクネイショウジ,0
13,1010005035964,新規,0,2022-12-20,2022-12-20,一般社団法人相続ライフサポート協会,,その他の設立登記法人,東京都,中央区,銀座３丁目７番３号,,13,102,1040061,,,,,,,2022-12-20,1,,,,,ソウゾクライフサポートキョウカイ,0
15,1010103002049,新規,0,2022-12-20,2022-12-20,ＳＵＮＳＨＩＮＥ合同会社,,合同会社,東京都,八王子市,子安町２丁目１３－６藤井ハイツ１２,,13,201,1920904,,,,,,,2022-12-20,1,,,,,サンシャイン,0
23,1010401171421,新規,0,2022-12-20,2022-12-20,株式会社ＴＯＮＥ,,株式会社,東京都,港区,南青山６丁目７番１７号中銀南青山マンシオン７０３,,13,103,1070062,,,,,,,2022-12-20,1,,,,,トーン,0
24,1010401171446,新規,0,2022-12-20,2022-12-20,株式会社としつき,,株式会社,東京都,港区,芝浦４丁目１８番３０号レジディア芝浦７０１,,13,103,1080023,,,,,,,2022-12-20,1,,,,,トシツキ,0
25,1010401171454,新規,0,2022-12-20,2022-12-20,株式会社ＴＳＲ,,株式会社,東京都,港区,白金台５丁目１５番５号トゥワインデール２階,,13,103,1080071,,,,,,,2022-12-20,1,,,,,ティーエスアール,0
28,1010403029155,新規,0,2022-12-20,2022-12-20,合同会社６ｐｍ,,合同会社,東京都,港区,南青山２丁目２番１５号,,13,103,1070062,,,,,,,2022-12-20,1,,,,,シックスピーエム,0
29,1010403029163,新規,0,2022-12-20,2022-12-20,合同会社ｈｏｒｏｒｏ,,合同会社,東京都,港区,浜松町１丁目１３－２ホワイトタワー浜松町７１０号,,13,103,1050013,,,,,,,2022-12-20,1,,,,,ホロロ,0
30,1010403029171,新規,0,2022-12-20,2022-12-20,合同会社氣多幸,,合同会社,東京都,港区,赤坂６丁目１３番１９号,,13,103,1070052,,,,,,,2022-12-20,1,,,,,キタコ,0
33,1010501049765,新規,0,2022-12-20,2022-12-20,金桜株式会社,,株式会社,東京都,台東区,松が谷２丁目９番１－３０５号,,13,106,1110036,,,,,,,2022-12-20,1,,,,,キンオウ,0
38,1010703006507,新規,0,2022-12-20,2022-12-20,ｍｖｌ　ＴＯＫＹＯ合同会社,,合同会社,東京都,品川区,上大崎２丁目２５－２新目黒東急ビル１０階,,13,109,1410021,,,,,,,2022-12-20,1,,,,,エムヴィーエルトウキョウ,0
44,1010803004393,新規,0,2022-12-20,2022-12-20,ＬＩＸＩＴＯ合同会社,,合同会社,東京都,大田区,南雪谷４丁目１６番７－７,,13,111,1450066,,,,,,,2022-12-20,1,,,,,リクシト,0
48,1011001151499,新規,0,2022-12-20,2022-12-20,アルファチャージ株式会社,,株式会社,東京都,渋谷区,東１丁目２６番２０号,,13,113,1500011,,,,,,,2022-12-20,1,,,,,アルファチャージ,0
49,1011001151549,新規,0,2022-12-20,2022-12-20,株式会社ＭＵＳＵＢＩ,,株式会社,東京都,渋谷区,恵比寿南３丁目１番１号,,13,113,1500022,,,,,,,2022-12-20,1,,,,,,0
50,1011001151565,新規,0,2022-12-20,2022-12-20,株式会社Ｃｙｚｕｍ,,株式会社,東京都,渋谷区,神泉町２０－１７クレッセント渋谷神泉３０３,,13,113,1500045,,,,,,,2022-12-20,1,,,,,サイズム,0
53,1011003015933,新規,0,2022-12-20,2022-12-20,合同会社ｄａｎｓｉｍａ,,合同会社,東京都,目黒区,下目黒５丁目１７番１５号,,13,110,1530064,,,,,,,2022-12-20,1,,,,,ダンシマ,0
54,1011003015941,新規,0,2022-12-20,2022-12-20,合同会社ＣＨｉＱ研究所,,合同会社,東京都,渋谷区,猿楽町１８－８ヒルサイドテラスＦ－２０３,,13,113,1500033,,,,,,,2022-12-20,1,,,,,チキュウケンキュウショ,0
56,1011005009875,新規,0,2022-12-20,2022-12-20,一般社団法人ＬＬＳ,,その他の設立登記法人,東京都,渋谷区,恵比寿南３丁目２番１９号エスペランサ恵比寿５０１,,13,113,1500022,,,,,,,2022-12-20,1,,,,,エルエルエス,0
59,1011201024307,新規,0,2022-12-20,2022-12-20,九川東洋株式会社,,株式会社,東京都,中野区,江古田４丁目２５－３－１０３室,,13,114,1650022,,,,,,,2022-12-20,1,,,,,クガワトウヨウ,0
63,1011301028315,新規,0,2022-12-20,2022-12-20,株式会社Ｃｕｒｉｏ．ｌａｂｏ,,株式会社,東京都,杉並区,天沼２丁目１２番１０号,,13,115,1670032,,,,,,,2022-12-20,1,,,,,キュリオラボ,0
65,1011501028775,新規,0,2022-12-20,2022-12-20,株式会社ｒｅｐａｉｒ,,株式会社,東京都,荒川区,町屋２丁目６番１３号グレース弐番館２０１,,13,118,1160001,,,,,,,2022-12-20,1,,,,,リペア,0
74,1012303001763,新規,0,2022-12-20,2022-12-20,合同会社マテリアルズ・サーヴェイ,,合同会社,東京都,町田市,大蔵町２９４０番地２,,13,209,1950062,,,,,,,2022-12-20,1,,,,,マテリアルズサーヴェイ,0
75,1012401039978,新規,0,2022-12-20,2022-12-20,株式会社スリーデントラスト,,株式会社,東京都,調布市,国領町１丁目４２番地２コルティーレ２０５,,13,208,1820022,,,,,,,2022-12-20,1,,,,,スリーデントラスト,0
76,1012401039986,新規,0,2022-12-20,2022-12-20,株式会社ＣＲＯＳＳ　ＬＥＡＦ,,株式会社,東京都,調布市,富士見町１丁目１３番地３６,,13,208,1820033,,,,,,,2022-12-20,1,,,,,クロスリーフ,0
82,1013301050083,新規,0,2022-12-20,2022-12-20,株式会社Ａｓｓｅｔ　Ｃｏｎｓｕｌｔｉｎｇ,,株式会社,東京都,豊島区,東池袋１丁目４３番１０号,,13,116,1700013,,,,,,,2022-12-20,1,,,,,アセットコンサルティング,0
83,1020001149486,新規,0,2022-12-20,2022-12-20,株式会社アクロスグローブ,,株式会社,神奈川県,横浜市港北区,樽町４丁目１２－２２フルール大倉山２０８,,14,109,2220001,,,,,,,2022-12-20,1,,,,,アクロスグローブ,0
86,1021003012450,新規,0,2022-12-20,2022-12-20,カモメドウガ合同会社,,合同会社,神奈川県,海老名市,中新田４丁目４番３－５０８号,,14,215,2430422,,,,,,,2022-12-20,1,,,,,カモメドウガ,0
93,1030001151540,新規,0,2022-12-20,2022-12-20,株式会社龍石,,株式会社,埼玉県,川口市,戸塚東１丁目７番１５－４０５号イーストハウス,,11,203,3330802,,,,,,,2022-12-20,1,,,,,リュウゴク,0
97,1030003020784,新規,0,2022-12-20,2022-12-20,合同会社フラジール,,合同会社,埼玉県,上尾市,大字瓦葺２２１２番地４サンヒルズ東大宮Ｂ－１０２,,11,219,3620022,,,,,,,2022-12-20,1,,,,,フラジール,0
104,1040001126269,新規,0,2022-12-20,2022-12-20,三研堂株式会社,,株式会社,千葉県,柏市,篠籠田１３０２番地２,,12,217,2770862,,,,,,,2022-12-20,1,,,,,サンケンドウ,0
115,1060001035542,新規,0,2022-12-20,2022-12-20,株式会社Ｍ・Ｓオート,,株式会社,栃木県,小山市,大字土塔２６５－１３ピュア１０６号室,,09,208,3230812,,,,,,,2022-12-20,1,,,,,エムエスオート,0
119,1090001017901,新規,0,2022-12-20,2022-12-20,ＭＯＸＩＥ　ＴＲＡＤＩＮＧ株式会社,,株式会社,山梨県,甲府市,宝１丁目１１番２０号,,19,201,4000034,,,,,,,2022-12-20,1,,,,,モキシートレーディング,0
120,1100001035975,新規,0,2022-12-20,2022-12-20,Ｚｅｎ株式会社,,株式会社,長野県,上田市,大手１丁目１２番２３号ＢＩＧＵＥＤＡ４０１号,,20,203,3860024,,,,,,,2022-12-20,1,,,,,ゼン,0
130,1120001251059,新規,0,2022-12-20,2022-12-20,ＨＹ株式会社,,株式会社,大阪府,大阪市西成区,天下茶屋３丁目４番１１号,,27,122,5570014,,,,,,,2022-12-20,1,,,,,エイチワイ,0
131,1120001251109,新規,0,2022-12-20,2022-12-20,株式会社ブロックチェーン,,株式会社,大阪府,大阪市住吉区,遠里小野６丁目１７番１８－４０３号,,27,120,5580032,,,,,,,2022-12-20,1,,,,,ブロックチェーン,0
132,1120001251125,新規,0,2022-12-20,2022-12-20,株式会社ＤＯＥＲＡＩＮＯ,,株式会社,大阪府,大阪市鶴見区,放出東３丁目２１－４０ローレルコート放出２Ｆ,,27,124,5380044,,,,,,,2022-12-20,1,,,,,ドエライノ,0
133,1120001251208,新規,0,2022-12-20,2022-12-20,株式会社ｉＨａｎｄｓ,,株式会社,大阪府,大阪市中央区,南船場１丁目７－８ダイアパレス準慶町５０２,,27,128,5420081,,,,,,,2022-12-20,1,,,,,アイハンズ,0
136,1120003023092,新規,0,2022-12-20,2022-12-20,ＨＯＯＮ合同会社,,合同会社,大阪府,大阪市北区,梅田１丁目２番２号,,27,127,5300001,,,,,,,2022-12-20,1,,,,,ホウオン,0
144,1130003008373,新規,0,2022-12-20,2022-12-20,合同会社Ｐｌｕｉｅ,,合同会社,京都府,京都市下京区,朱雀宝蔵町４４協栄ビル２階京都朱雀スタジオ内,,26,106,6008846,,,,,,,2022-12-20,1,,,,,プリュイ,0
151,1140001128486,新規,0,2022-12-20,2022-12-20,株式会社Ｄ　ｌａｂ,,株式会社,兵庫県,神戸市中央区,北長狭通８丁目６－１４－２０８号室,,28,110,6500012,,,,,,,2022-12-20,1,,,,,ディーラボ,0
153,1140003018487,新規,0,2022-12-20,2022-12-20,Ｅｄｇｅ合同会社,,合同会社,兵庫県,伊丹市,美鈴町１丁目１番地ローヤル美鈴２０１号,,28,207,6640884,,,,,,,2022-12-20,1,,,,,エッジ,0
158,1160003002761,新規,0,2022-12-20,2022-12-20,合同会社喫茶ゆいまーる,,合同会社,滋賀県,東近江市,八日市浜野町３番１号,,25,213,5270011,,,,,,,2022-12-20,1,,,,,キッサユイマール,0
162,1180001154248,新規,0,2022-12-20,2022-12-20,明日にきらめけキッズ株式会社,,株式会社,愛知県,名古屋市千種区,吹上２丁目４番２５号トラフィック吹上５階,,23,101,4640856,,,,,,,2022-12-20,1,,,,,アスニキラメケキッズ,0
163,1180001154272,新規,0,2022-12-20,2022-12-20,宣耀広告株式会社,,株式会社,愛知県,名古屋市中区,錦３丁目５番３０号,,23,106,4600003,,,,,,,2022-12-20,1,,,,,センヨウコウコク,0
168,1180301036922,新規,0,2022-12-20,2022-12-20,株式会社クワハウス,,株式会社,愛知県,額田郡幸田町,大字芦谷字大西３７番地,,23,501,4440116,,,,,,,2022-12-20,1,,,,,クワハウス,0
176,1200001040783,新規,0,2022-12-20,2022-12-20,株式会社ＯＫＢ,,株式会社,岐阜県,各務原市,蘇原中央町３丁目５０番地,,21,213,5040813,,,,,,,2022-12-20,1,,,,,オーケービー,0
179,1240003005938,新規,0,2022-12-20,2022-12-20,合同会社田吾,,合同会社,広島県,広島市西区,南観音３丁目１４番２号,,34,104,7330035,,,,,,,2022-12-20,1,,,,,タゴ,0
184,1270003001471,新規,0,2022-12-20,2022-12-20,合同会社ＡＮＹ,,合同会社,鳥取県,鳥取市,秋里７５６番地８タウニー三島２０３号,,31,201,6800902,,,,,,,2022-12-20,1,,,,,エニー,0
188,1290001099969,新規,0,2022-12-20,2022-12-20,株式会社レガルシィヨクト,,株式会社,福岡県,福岡市中央区,浄水通３番３９号,,40,133,8100028,,,,,,,2022-12-20,1,,,,,レガルシィヨクト,0
191,1290003013317,新規,0,2022-12-20,2022-12-20,Ｈｏｓｐｉｃｅ　ｍｉｎｄ合同会社,,合同会社,福岡県,糟屋郡志免町,田富４丁目６番１号１０１,,40,343,8112204,,,,,,,2022-12-20,1,,,,,ホスピスマインド,0
192,1290003013325,新規,0,2022-12-20,2022-12-20,合同会社ＫＲＭ,,合同会社,福岡県,福岡市中央区,天神４丁目６番２８号天神ファーストビル７階,,40,133,8100001,,,,,,,2022-12-20,1,,,,,ケーアールエム,0
193,1290805009611,新規,0,2022-12-20,2022-12-20,ＮＰＯ法人こま・ココ,,その他の設立登記法人,福岡県,北九州市八幡西区,丸尾町２番１号,,40,109,8070826,,,,,,,2022-12-20,1,,,,,コマココ,0
195,1310001018174,新規,0,2022-12-20,2022-12-20,株式会社ミツカル,,株式会社,長崎県,長崎市,西山１丁目１番１号,,42,201,8500001,,,,,,,2022-12-20,1,,,,,ミツカル,0
196,1320003003974,新規,0,2022-12-20,2022-12-20,合同会社アスールメンテナンス,,合同会社,大分県,大分市,大字森１６６番地の１,,44,201,8700128,,,,,,,2022-12-20,1,,,,,アスールメンテナンス,0
197,1320005010036,新規,0,2022-12-20,2022-12-20,一般社団法人自立支援・地域づくり推進機構,,その他の設立登記法人,大分県,大分市,大字横尾１９３９番地の４,,44,201,8700126,,,,,,,2022-12-20,1,,,,,ジリツシエンチイキヅクリスイシンキコウ,0
198,1330001030417,新規,0,2022-12-20,2022-12-20,株式会社新光企画,,株式会社,熊本県,菊池郡菊陽町,大字辛川１１８４番地１,,43,404,8691107,,,,,,,2022-12-20,1,,,,,シンコウキカク,0
201,1360001031338,新規,0,2022-12-20,2022-12-20,株式会社あさプラン,,株式会社,沖縄県,うるま市,字宮里８９６番地１,,47,213,9042243,,,,,,,2022-12-20,1,,,,,アサプラン,0
210,1390001017103,新規,0,2022-12-20,2022-12-20,ＤＡＩＺＮＥＸＴ株式会社,,株式会社,山形県,最上郡金山町,大字下野明１６９６番地１,,06,361,9995404,,,,,,,2022-12-20,1,,,,,ダイズネクスト,0
211,1390005008981,新規,0,2022-12-20,2022-12-20,医療法人社団ＨＦ,,その他の設立登記法人,山形県,山形市,大字松原３０３番地の１０,,06,201,9902313,,,,,,,2022-12-20,1,,,,,エイチエフ,0
213,1420001018097,新規,0,2022-12-20,2022-12-20,株式会社久花園,,株式会社,青森県,上北郡七戸町,字森ノ上１３番地６,,02,402,0392827,,,,,,,2022-12-20,1,,,,,ヒサカエン,0
218,1430001088073,新規,0,2022-12-20,2022-12-20,大和ホールディングス株式会社,,株式会社,北海道,室蘭市,輪西町１丁目４番８号,,01,205,0500085,,,,,,,2022-12-20,1,,,,,ヤマトホールディングス,0
219,1430003014572,新規,0,2022-12-20,2022-12-20,合同会社ｃｏｎａｍｉ,,合同会社,北海道,虻田郡倶知安町,南四条西２丁目２番地１３５,,01,400,0440034,,,,,,,2022-12-20,1,,,,,コナミ,0
221,1470001019388,新規,0,2022-12-20,2022-12-20,株式会社原色,,株式会社,香川県,仲多度郡琴平町,７０２番地１２,,37,403,7660001,,,,,,,2022-12-20,1,,,,,ゲンショク,0
222,1480005006935,新規,0,2022-12-20,2022-12-20,特定非営利活動法人あわじん,,その他の設立登記法人,徳島県,阿南市,羽ノ浦町古庄大道ノ西２７番地３,,36,204,7791105,,,,,,,2022-12-20,1,,,,,アワジン,0
228,1700150087939,新規,0,2022-12-20,2018-03-08,創剤フォーラム,,その他,北海道,札幌市白石区,東札幌二条５丁目７－１Ｍａｉｓｏｎ２５　２０３号,,01,104,0030002,,,,,,,2018-03-08,1,,,,,ソウザイフオーラム,0
230,1700150112639,新規,0,2022-12-20,2022-11-08,次世代音響創造Ｌａｂｏ,,その他,東京都,清瀬市,松山２丁目４－２０ソナーレアリサ２０７,,13,221,2040022,,,,,,,2022-11-08,1,,,,,ジセダイオンキヨウソウゾウラボ,0
240,2010001231599,新規,0,2022-12-20,2022-12-20,株式会社みつお,,株式会社,東京都,中央区,銀座１丁目２２番１１号銀座大竹ビジデンス２階,,13,102,1040061,,,,,,,2022-12-20,1,,,,,ミツオ,0
250,2010003039355,新規,0,2022-12-20,2022-12-20,ベルジャヤ横浜インベストメント合同会社,,合同会社,東京都,千代田区,丸の内３丁目１番１号東京共同会計事務所内,,13,101,1000005,,,,,,,2022-12-20,1,,,,,ベルジャヤヨコハマインベストメント,0
251,2010003039388,新規,0,2022-12-20,2022-12-20,ＭＯＴ合同会社,,合同会社,東京都,中央区,銀座１丁目１２―４Ｎ＆Ｅ＿ＢＬＤ．７階,,13,102,1040061,,,,,,,2022-12-20,1,,,,,エムオーティ,0
253,2010005035963,新規,0,2022-12-20,2022-12-20,一般社団法人介護・生活質向上機構,,その他の設立登記法人,東京都,中央区,銀座７丁目１３番６号,,13,102,1040061,,,,,,,2022-12-20,1,,,,,カイゴセイカツシツコウジョウキコウ,0
263,2010401171461,新規,0,2022-12-20,2022-12-20,株式会社ミチテラス,,株式会社,東京都,港区,赤坂２丁目５番８号ヒューリックＪＰ赤坂ビル,,13,103,1070052,,,,,,,2022-12-20,1,,,,,ミチテラス,0
267,2010405021670,新規,0,2022-12-20,2022-12-20,一般財団法人ＩＮＰＥＸ　ＪＯＤＣＯ財団,,その他の設立登記法人,東京都,港区,赤坂５丁目３番１号,,13,103,1070052,,,,,,,2022-12-20,1,,,,,インペックスジョドコ,0
269,2010501049764,新規,0,2022-12-20,2022-12-20,株式会社Ｎ’ｓ　Ｇｒｏｕｐ　Ｌｔｄ．,,株式会社,東京都,台東区,台東３丁目５番１０－５０５号ダイアパレス御徒町第３,,13,106,1100016,,,,,,,2022-12-20,1,,,,,エンズグループリミテッド,0
276,2010801033534,新規,0,2022-12-20,2022-12-20,株式会社ＵｎｉＬｉｎｋ,,株式会社,東京都,大田区,東馬込２丁目１８－１０ガーデンテラス馬込プレミアム１０３,,13,111,1430022,,,,,,,2022-12-20,1,,,,,ユニリンク,0
288,2011001151390,新規,0,2022-12-20,2022-12-20,株式会社ｅｎｋａｋｅ,,株式会社,東京都,渋谷区,東２丁目２７番４号エビス東ハイツ６０３,,13,113,1500011,,,,,,,2022-12-20,1,,,,,,0
289,2011001151548,新規,0,2022-12-20,2022-12-20,株式会社緑コーポレーション,,株式会社,東京都,目黒区,緑が丘１丁目２番３号,,13,110,1520034,,,,,,,2022-12-20,1,,,,,ミドリコーポレーション,0
290,2011003015965,新規,0,2022-12-20,2022-12-20,ＡＳアソシエーツ合同会社,,合同会社,東京都,渋谷区,恵比寿４丁目２０番４号恵比寿ガーデンプレイスグラススクエアＢ１Ｆ、ＬＢ－３１,,13,113,1500013,,,,,,,2022-12-20,1,,,,,エーエスアソシエーツ,0
292,2011101101196,新規,0,2022-12-20,2022-12-20,Ｔｏｍａｔｏ　Ｉｎｔｅｒａｃｔｉｖｅ株式会社,,株式会社,東京都,新宿区,西新宿１丁目２６番２号新宿野村ビル３２階,,13,104,1600023,,,,,,,2022-12-20,1,,,,,トマトインタラクティブ,0
293,2011201024306,新規,0,2022-12-20,2022-12-20,ジンデンノロジー株式会社,,株式会社,東京都,中野区,江古田４丁目２５番３－１０５室,,13,114,1650022,,,,,,,2022-12-20,1,,,,,ジンデンノロジー,0
296,2011301028314,新規,0,2022-12-20,2022-12-20,株式会社ＳＨＡＩＮＯＮ　ＴＯＫＹＯ,,株式会社,東京都,杉並区,堀ノ内１丁目１４－２－３０２,,13,115,1660013,,,,,,,2022-12-20,1,,,,,シェノントウキョウ,0
300,2011801041709,新規,0,2022-12-20,2022-12-20,Ｊ＆Ｌ商事株式会社,,株式会社,東京都,足立区,千住緑町２丁目２７番７－１０６号,,13,121,1200044,,,,,,,2022-12-20,1,,,,,ジェイアンドエルショウジ,0
302,2012301013256,新規,0,2022-12-20,2022-12-20,株式会社Ｆ．Ａ．Ｄ．,,株式会社,東京都,町田市,高ヶ坂４丁目３６番１号,,13,209,1940014,,,,,,,2022-12-20,1,,,,,エフエーディー,0
319,2020003022921,新規,0,2022-12-20,2022-12-20,合同会社ＲＩＮＧＯ,,合同会社,神奈川県,横浜市旭区,笹野台１丁目８番１０号,,14,112,2410816,,,,,,,2022-12-20,1,,,,,リンゴ,0
320,2020005015782,新規,0,2022-12-20,2022-12-20,一般社団法人テイルウィンド,,その他の設立登記法人,神奈川県,横浜市戸塚区,上倉田町８２２番地２,,14,110,2440816,,,,,,,2022-12-20,1,,,,,テイルウインド,0
325,2021001077759,新規,0,2022-12-20,2022-12-20,グローワーク株式会社,,株式会社,神奈川県,横須賀市,小矢部２丁目２０番１４号ベルハイツ衣笠２０１,,14,201,2380026,,,,,,,2022-12-20,1,,,,,グローワーク,0
331,2030003020791,新規,0,2022-12-20,2022-12-20,合同会社ＯＳＡＫＡ,,合同会社,埼玉県,川口市,元郷５丁目２６番１３号グリンハイツカタノＡ２０２,,11,203,3320011,,,,,,,2022-12-20,1,,,,,オオサカ,0
336,2040001126301,新規,0,2022-12-20,2022-12-20,椎乃庭株式会社,,株式会社,千葉県,千葉市若葉区,桜木２丁目２７－７,,12,104,2640028,,,,,,,2022-12-20,1,,,,,シイノニワ,0
344,2040003021475,新規,0,2022-12-20,2022-12-20,味輪合同会社,,合同会社,千葉県,船橋市,三山８丁目２９番１０号三山ハイツ２０３号,,12,204,2740072,,,,,,,2022-12-20,1,,,,,ミリン,0
347,2050001052117,新規,0,2022-12-20,2022-12-20,ＳＵ　ＢＯ　ＬＯＮＧ株式会社,,株式会社,茨城県,桜川市,真壁町東矢貝２０８－２６,,08,231,3004429,,,,,,,2022-12-20,1,,,,,スボロング,0
351,2070001039938,新規,0,2022-12-20,2022-12-20,株式会社悠進,,株式会社,群馬県,太田市,飯塚町８４１番地３,,10,205,3730817,,,,,,,2022-12-20,1,,,,,ユウシン,0
352,2070001039946,新規,0,2022-12-20,2022-12-20,株式会社ＳＭＧ　ＪＡＰＡＮ,,株式会社,群馬県,館林市,北成島町１７７３番地の２レストプレイスＡ－１０１,,10,207,3740057,,,,,,,2022-12-20,1,,,,,エスエムジージャパン,0
367,2120001251108,新規,0,2022-12-20,2022-12-20,株式会社セカンドライブ,,株式会社,大阪府,大阪市東淀川区,東中島１丁目１７番５号ステュディオ新大阪１１４８号室,,27,114,5330033,,,,,,,2022-12-20,1,,,,,セカンドライブ,0
368,2120001251124,新規,0,2022-12-20,2022-12-20,株式会社Ｍ’ｓｈｏｍｅ,,株式会社,大阪府,大阪市生野区,中川２丁目２番２９号,,27,116,5440005,,,,,,,2022-12-20,1,,,,,エムズホーム,0
369,2120001251198,新規,0,2022-12-20,2022-12-20,株式会社またたび,,株式会社,大阪府,大阪市此花区,梅香１丁目２３番２１号,,27,104,5540013,,,,,,,2022-12-20,1,,,,,マタタビ,0
370,2120001251207,新規,0,2022-12-20,2022-12-20,アオバ建設株式会社,,株式会社,大阪府,大阪市住吉区,大領４丁目１０番２８号,,27,120,5580001,,,,,,,2022-12-20,1,,,,,アオバケンセツ,0
371,2120001251231,新規,0,2022-12-20,2022-12-20,三顧商事株式会社,,株式会社,大阪府,大阪市浪速区,下寺３丁目１－１４エクレール夕陽ケ丘５号２０２号室,,27,111,5560001,,,,,,,2022-12-20,1,,,,,サンコショウジ,0
377,2120101066694,新規,0,2022-12-20,2022-12-20,株式会社健晴,,株式会社,大阪府,堺市北区,新金岡町３丁６番１８号,,27,146,5918021,,,,,,,2022-12-20,1,,,,,ケンセイ,0
378,2120101066703,新規,0,2022-12-20,2022-12-20,株式会社シントシール,,株式会社,大阪府,堺市中区,八田北町１０番地６６,,27,142,5998262,,,,,,,2022-12-20,1,,,,,シントシール,0
393,2140001128394,新規,0,2022-12-20,2022-12-20,株式会社アークス電工,,株式会社,兵庫県,豊岡市,日高町上郷７８２番地の２,,28,209,6695324,,,,,,,2022-12-20,1,,,,,アークスデンコウ,0
394,2140003018437,新規,0,2022-12-20,2022-12-20,合同会社ＴＷＩＬＹ,,合同会社,兵庫県,姫路市,砥堀１１７６－１７,,28,201,6700802,,,,,,,2022-12-20,1,,,,,トゥイリー,0
395,2140003018494,新規,0,2022-12-20,2022-12-20,合同会社呂昌,,合同会社,兵庫県,高砂市,伊保崎南２４番１５号,,28,216,6760075,,,,,,,2022-12-20,1,,,,,リョショウ,0
397,2140005026413,新規,0,2022-12-20,2022-12-20,ＮＰＯ法人ＰＥＡＣＥ　ＡＳＩＡ,,その他の設立登記法人,兵庫県,三田市,富士が丘５丁目９番地１６,,28,219,6691547,,,,,,,2022-12-20,1,,,,,ピースアジア,0
405,2160001024716,新規,0,2022-12-20,2022-12-20,株式会社サンライフ,,株式会社,滋賀県,大津市,西の庄１９番１０号,,25,201,5200818,,,,,,,2022-12-20,1,,,,,サンライフ,0
408,2160005011149,新規,0,2022-12-20,2022-12-20,一般社団法人日本易学中道会,,その他の設立登記法人,滋賀県,大津市,和邇北浜１０３５番地の４,,25,201,5200521,,,,,,,2022-12-20,1,,,,,ニホンエキガクチュウドウカイ,0
414,2180001154271,新規,0,2022-12-20,2022-12-20,株式会社エムケー・機工,,株式会社,愛知県,名古屋市緑区,大高町字川添３８番地の３,,23,114,4598001,,,,,,,2022-12-20,1,,,,,エムケーキコウ,0
419,2180301036896,新規,0,2022-12-20,2022-12-20,株式会社ライフタスク,,株式会社,愛知県,豊橋市,北岩田２丁目３番地４１,,23,201,4400031,,,,,,,2022-12-20,1,,,,,ライフタスク,0
436,2280001008847,新規,0,2022-12-20,2022-12-20,株式会社Ａ．Ｇ　ＨＯＯＤ,,株式会社,島根県,出雲市,上島町２２９４－２,,32,203,6930101,,,,,,,2022-12-20,1,,,,,エージーフッド,0
438,2290001099984,新規,0,2022-12-20,2022-12-20,フロンテック販売分割準備株式会社,,株式会社,福岡県,宗像市,池田１７４０番地,,40,220,8113515,,,,,,,2022-12-20,1,,,,,フロンテックハンバイブンカツジュンビ,0
444,2320005010035,新規,0,2022-12-20,2022-12-20,一般社団法人ＳａｆｅＣａｒｅ　Ｊａｐａｎ,,その他の設立登記法人,大分県,大分市,青葉台３丁目２２－７,,44,201,8700875,,,,,,,2022-12-20,1,,,,,セイフケアジャパン,0
445,2330001030416,新規,0,2022-12-20,2022-12-20,Ｔ・ネット株式会社,,株式会社,熊本県,熊本市中央区,花畑町１番１４号,,43,101,8600806,,,,,,,2022-12-20,1,,,,,ティーネット,0
455,2360003012566,新規,0,2022-12-20,2022-12-20,合同会社ゆがふ,,合同会社,沖縄県,沖縄市,園田２丁目１９番６号,,47,211,9040022,,,,,,,2022-12-20,1,,,,,ユガフ,0
460,2380001033348,新規,0,2022-12-20,2022-12-20,山田塗装株式会社,,株式会社,福島県,白河市,金勝寺１番地６,,07,205,9610083,,,,,,,2022-12-20,1,,,,,ヤマダトソウ,0
466,2410001013346,新規,0,2022-12-20,2022-12-20,株式会社大潟村松橋ファーム,,株式会社,秋田県,南秋田郡大潟村,字東２丁目３番地１１,,05,368,0100442,,,,,,,2022-12-20,1,,,,,オオガタムラマツハシファーム,0
469,2420003002635,新規,0,2022-12-20,2022-12-20,らいおんハート合同会社,,合同会社,青森県,八戸市,内丸３丁目３－２１秋田屋ビル１Ｆ,,02,203,0310075,,,,,,,2022-12-20,1,,,,,ライオンハート,0
480,2700150112811,新規,0,2022-12-20,2022-11-14,かなでかなえ,,その他,東京都,町田市,広袴町１０３,,13,209,1950052,,,,,,,2022-11-14,1,,,,,カナデカナエ,0
488,3010001231706,新規,0,2022-12-20,2022-12-20,Ｍａｒｉ　Ｌａｂｏ株式会社,,株式会社,東京都,中央区,勝どき１丁目８番１号,,13,102,1040054,,,,,,,2022-12-20,1,,,,,マリラボ,0
489,3010001231747,新規,0,2022-12-20,2022-12-20,株式会社ＲＥＶＥＲＢ,,株式会社,東京都,文京区,本郷６丁目３番９号,,13,105,1130033,,,,,,,2022-12-20,1,,,,,リバーブ,0
492,3010003039313,新規,0,2022-12-20,2022-12-20,合同会社Ｇａｉａｒｃｈｓ．,,合同会社,東京都,中央区,日本橋１丁目１３番１号日鉄日本橋ビル３階ＷＡＷ日本橋,,13,102,1030027,,,,,,,2022-12-20,1,,,,,ガイアークス,0
497,3010401171444,新規,0,2022-12-20,2022-12-20,株式会社オリガミ,,株式会社,東京都,港区,三田５丁目１３番１６号ＲＯＣＫＣＯＵＲＴ三田３０１,,13,103,1080073,,,,,,,2022-12-20,1,,,,,オリガミ,0
498,3010401171460,新規,0,2022-12-20,2022-12-20,株式会社アリア,,株式会社,東京都,港区,浜松町１丁目１７番３号シダフォレスト浜松町３階,,13,103,1050013,,,,,,,2022-12-20,1,,,,,アリア,0
499,3010401171477,新規,0,2022-12-20,2022-12-20,株式会社ブレインリガケーション,,株式会社,東京都,港区,虎ノ門１丁目１６番１６号,,13,103,1050001,,,,,,,2022-12-20,1,,,,,ブレインリガケーション,0
500,3010403029161,新規,0,2022-12-20,2022-12-20,合同会社Ｇｏｒｂｅｅ,,合同会社,東京都,港区,赤坂２丁目１７番６５－１０６号,,13,103,1070052,,,,,,,2022-12-20,1,,,,,ゴルビー,0
504,3010503006820,新規,0,2022-12-20,2022-12-20,合同会社ＭＫ５,,合同会社,東京都,台東区,千束２丁目１３番３メイボク細川ビル２０８号,,13,106,1110031,,,,,,,2022-12-20,1,,,,,エムケーファイブ,0
505,3010601062336,新規,0,2022-12-20,2022-12-20,株式会社風量測定,,株式会社,東京都,墨田区,東向島３丁目１７番１３号,,13,107,1310032,,,,,,,2022-12-20,1,,,,,フウリョウソクテイ,0
508,3010701043608,新規,0,2022-12-20,2022-12-20,株式会社ｖｅｒｓａｔｉｌｅ,,株式会社,東京都,品川区,荏原３丁目８番１４－４０２号,,13,109,1420063,,,,,,,2022-12-20,1,,,,,ヴァーサタイル,0
510,3010801033533,新規,0,2022-12-20,2022-12-20,株式会社メメント・モリー,,株式会社,東京都,大田区,山王２丁目３６番９号山王サクラマンション４０２,,13,111,1430023,,,,,,,2022-12-20,1,,,,,メメントモリー,0
518,3011001151349,新規,0,2022-12-20,2022-12-20,嘉逸株式会社,,株式会社,東京都,渋谷区,幡ヶ谷２丁目３番１０号,,13,113,1510072,,,,,,,2022-12-20,1,,,,,カイツ,0
519,3011001151514,新規,0,2022-12-20,2022-12-20,株式会社和,,株式会社,東京都,渋谷区,本町５丁目６番３号,,13,113,1510071,,,,,,,2022-12-20,1,,,,,ナゴミ,0
520,3011001151588,新規,0,2022-12-20,2022-12-20,ゼニス株式会社,,株式会社,東京都,渋谷区,渋谷２丁目２４番１２号渋谷スクランブルスクエア３７階,,13,113,1500002,,,,,,,2022-12-20,1,,,,,ゼニス,0
525,3011003015956,新規,0,2022-12-20,2022-12-20,合同会社ジョイプロモーション,,合同会社,東京都,目黒区,目黒１丁目１２番１１号,,13,110,1530063,,,,,,,2022-12-20,1,,,,,ジョイプロモーション,0
530,3011103012515,新規,0,2022-12-20,2022-12-20,合同会社ゴールドキャピタル,,合同会社,東京都,新宿区,新宿１丁目３０―１６―３０５,,13,104,1600022,,,,,,,2022-12-20,1,,,,,ゴールドキャピタル,0
533,3011203003967,新規,0,2022-12-20,2022-12-20,合同会社諸岡左官店,,合同会社,東京都,中野区,大和町３丁目４４番１９号,,13,114,1650034,,,,,,,2022-12-20,1,,,,,モロオカサカンテン,0
535,3011501028773,新規,0,2022-12-20,2022-12-20,株式会社Ｃａｓａｂｌａｎｃａ　Ｔｅｃｈｎｏｌｏｇｙ,,株式会社,東京都,荒川区,西尾久６丁目１７－１,,13,118,1160011,,,,,,,2022-12-20,1,,,,,カサブランカテクノロジー,0
540,3012401039984,新規,0,2022-12-20,2022-12-20,株式会社ノイス,,株式会社,東京都,武蔵野市,中町３丁目７番５－５２１号テラス武蔵野中町,,13,203,1800006,,,,,,,2022-12-20,1,,,,,ノイス,0
543,3012801022037,新規,0,2022-12-20,2022-12-20,株式会社ヴェルト２１,,株式会社,東京都,立川市,富士見町１丁目５番１３号,,13,202,1900013,,,,,,,2022-12-20,1,,,,,ヴェルトニジュウイチ,0
545,3020001149476,新規,0,2022-12-20,2022-12-20,株式会社ＸｉＯＮ,,株式会社,神奈川県,横浜市西区,みなとみらい４丁目５番３号,,14,103,2200012,,,,,,,2022-12-20,1,,,,,シオン,0
548,3020005015781,新規,0,2022-12-20,2022-12-20,特定非営利活動法人ハンドレッドスマイル,,その他の設立登記法人,神奈川県,横浜市港北区,篠原北２丁目９番９号,,14,109,2220021,,,,,,,2022-12-20,1,,,,,ハンドレッドスマイル,0
553,3021003012523,新規,0,2022-12-20,2022-12-20,合同会社アベル,,合同会社,神奈川県,相模原市中央区,鹿沼台１丁目１３－５,,14,152,2520233,,,,,,,2022-12-20,1,,,,,アベル,0
558,3030001151349,新規,0,2022-12-20,2022-12-20,株式会社ＡＬＬ,,株式会社,埼玉県,ふじみ野市,苗間２５１－６,,11,245,3560052,,,,,,,2022-12-20,1,,,,,オール,0
571,3070001039937,新規,0,2022-12-20,2022-12-20,株式会社もちごめ,,株式会社,群馬県,高崎市,貝沢町４４番地１ｍｏｋｕｒｅｉＡ号,,10,202,3700042,,,,,,,2022-12-20,1,,,,,モチゴメ,0
573,3080001025358,新規,0,2022-12-20,2022-12-20,株式会社東興商事,,株式会社,静岡県,焼津市,大住１２４２,,22,212,4250072,,,,,,,2022-12-20,1,,,,,トウコウショウジ,0
577,3110001037184,新規,0,2022-12-20,2022-12-20,しあわせ家族カンパニー株式会社,,株式会社,新潟県,長岡市,鳥越丙５５０番地,,15,202,9402316,,,,,,,2022-12-20,1,,,,,シアワセカゾクカンパニー,0
586,3120001251148,新規,0,2022-12-20,2022-12-20,Ａ‐ｃｈａｎｃｅ株式会社,,株式会社,大阪府,大阪市北区,梅田１丁目１－３大阪駅前第３ビル２９階１－１－１号室,,27,127,5300001,,,,,,,2022-12-20,1,,,,,エーチャンス,0
587,3120001251172,新規,0,2022-12-20,2022-12-20,株式会社ＥＬワーク,,株式会社,大阪府,大阪市北区,天神橋７丁目１番１６号,,27,127,5310041,,,,,,,2022-12-20,1,,,,,エルワーク,0
588,3120003023124,新規,0,2022-12-20,2022-12-20,合同会社インナープリズム,,合同会社,大阪府,寝屋川市,打上元町３０番３号,,27,215,5720858,,,,,,,2022-12-20,1,,,,,インナープリズム,0
589,3120003023132,新規,0,2022-12-20,2022-12-20,合同会社Ｒ４,,合同会社,大阪府,大阪市中央区,徳井町１丁目２番１－６０４号,,27,128,5400025,,,,,,,2022-12-20,1,,,,,アールフォー,0
597,3120101066693,新規,0,2022-12-20,2022-12-20,株式会社花田美装,,株式会社,大阪府,岸和田市,南町３０番２４－２０３号,,27,202,5960067,,,,,,,2022-12-20,1,,,,,ハナダビソウ,0
599,3120901046886,新規,0,2022-12-20,2022-12-20,株式会社ＯＷＬ,,株式会社,大阪府,豊中市,南桜塚４丁目９番１３号,,27,203,5610882,,,,,,,2022-12-20,1,,,,,アウル,0
600,3120903004413,新規,0,2022-12-20,2022-12-20,合同会社ＰＩＮＥ,,合同会社,大阪府,吹田市,五月が丘南１１番８号,,27,205,5650832,,,,,,,2022-12-20,1,,,,,パイン,0
601,3122001036512,新規,0,2022-12-20,2022-12-20,日本プロセス開発株式会社,,株式会社,大阪府,東大阪市,御厨南２丁目４番１８号フィールドパークＩＩ番館３０１号,00128849,27,227,5770034,,,,,,,2022-12-20,1,,,,,ニホンプロセスカイハツ,0
603,3130001073327,新規,0,2022-12-20,2022-12-20,株式会社ふじ,,株式会社,京都府,京都市上京区,下横町２１０番地１８,,26,102,6028373,,,,,,,2022-12-20,1,,,,,フジ,0
612,3140001128377,新規,0,2022-12-20,2022-12-20,ＡＩＥ　Ｊａｐａｎ株式会社,,株式会社,兵庫県,神戸市中央区,東町１１６番地,,28,110,6500031,,,,,,,2022-12-20,1,,,,,エーアイイージャパン,0
613,3140001128443,新規,0,2022-12-20,2022-12-20,インセンスコンサルティング株式会社,,株式会社,兵庫県,神戸市垂水区,平磯４丁目１－４スタイルキューブ３０１号室,,28,108,6550892,,,,,,,2022-12-20,1,,,,,インセンスコンサルティング,0
617,3160001024715,新規,0,2022-12-20,2022-12-20,興不動産株式会社,,株式会社,滋賀県,近江八幡市,上田町１８１番地１４,,25,204,5230015,,,,,,,2022-12-20,1,,,,,コウフドウサン,0
624,3180001154270,新規,0,2022-12-20,2022-12-20,ＭＥＲＲＯ　Ｔｅｃｈｎｏｌｏｇｙ　Ｉｎｓｔｉｔｕｔｅ株式会社,,株式会社,愛知県,名古屋市東区,東桜２丁目１７番２５号レジディア東桜ＩＩ８０４号,00128850,23,102,4610005,,,,,,,2022-12-20,1,,,,,メロウテクノロジーインスティテュート,0
647,3240001060826,新規,0,2022-12-20,2022-12-20,株式会社國重工房,,株式会社,広島県,広島市安佐南区,安東４丁目２８番１９号,,34,105,7310153,,,,,,,2022-12-20,1,,,,,クニシゲコウボウ,0
656,3260003004127,新規,0,2022-12-20,2022-12-20,合同会社Ｓｉｌｖｅｒ　Ｓｔａｔｅ,,合同会社,岡山県,岡山市北区,平野６２２‐２３ＷＯＲＫＳＰＡＣＥ平野２０１,,33,101,7010151,,,,,,,2022-12-20,1,,,,,シルバーステート,0
657,3260005011179,新規,0,2022-12-20,2022-12-20,一般社団法人アプローチ,,その他の設立登記法人,岡山県,倉敷市,宮前３７２番地,,33,202,7100065,,,,,,,2022-12-20,1,,,,,アプローチ,0
663,3290001099918,新規,0,2022-12-20,2022-12-20,株式会社Ａｒ　Ｔｒａｄｅ,,株式会社,福岡県,筑紫野市,二日市中央６丁目６４０番地１（５階５０５号）,,40,217,8180072,,,,,,,2022-12-20,1,,,,,エイアールトレード,0
664,3290001099950,新規,0,2022-12-20,2022-12-20,株式会社安部,,株式会社,福岡県,福岡市博多区,千代３丁目４９番８号,,40,132,8120044,,,,,,,2022-12-20,1,,,,,アベ,0
665,3290001099975,新規,0,2022-12-20,2022-12-20,株式会社永久,,株式会社,福岡県,太宰府市,水城２丁目２番１０号,,40,221,8180131,,,,,,,2022-12-20,1,,,,,トワ,0
666,3290001099983,新規,0,2022-12-20,2022-12-20,フロンテックＰＲＯ分割準備株式会社,,株式会社,福岡県,宗像市,池田１６２５番地１,,40,220,8113515,,,,,,,2022-12-20,1,,,,,フロンテックプロブンカツジュンビ,0
676,3330001030415,新規,0,2022-12-20,2022-12-20,株式会社金子商会,,株式会社,熊本県,菊池郡大津町,美咲野４丁目２１番１３号,,43,403,8691237,,,,,,,2022-12-20,1,,,,,カネコショウカイ,0
681,3360001031336,新規,0,2022-12-20,2022-12-20,琉球観光株式会社,,株式会社,沖縄県,豊見城市,字与根５番地６,,47,212,9010224,,,,,,,2022-12-20,1,,,,,リュウキュウカンコウ,0
682,3360003012573,新規,0,2022-12-20,2022-12-20,合同会社巴組,,合同会社,沖縄県,宮古島市,平良字東仲宗根２９１番地２－２Ｆ,,47,214,9060007,,,,,,,2022-12-20,1,,,,,トモエグミ,0
683,3380001033347,新規,0,2022-12-20,2022-12-20,株式会社トラストワン,,株式会社,福島県,いわき市,渡辺町田部字川原３６番地の１,,07,204,9728334,,,,,,,2022-12-20,1,,,,,トラストワン,0
689,3400001016092,新規,0,2022-12-20,2022-12-20,株式会社エス・ジー・ビー,,株式会社,岩手県,北上市,村崎野２２地割８３番地２０,,03,206,0240004,,,,,,,2022-12-20,1,,,,,エスジービー,0
703,3430003014570,新規,0,2022-12-20,2022-12-20,合同会社ＣＡＲＰＥ　ＤＩＥＭ,,合同会社,北海道,札幌市中央区,南十条西２１丁目６番１３号,,01,101,0640810,,,,,,,2022-12-20,1,,,,,カルペディエム,0
706,3490003001720,新規,0,2022-12-20,2022-12-20,合同会社ｄｅｌｉｇｈｔ,,合同会社,高知県,安芸市,川北乙７８７番地１,,39,203,7840044,,,,,,,2022-12-20,1,,,,,ディライト,0
711,3500005008547,新規,0,2022-12-20,2022-12-20,医療法人いのうえ歯科,,その他の設立登記法人,愛媛県,松山市,立花３丁目３番４５号アイエム立花ビル１階,,38,201,7900966,,,,,,,2022-12-20,1,,,,,イノウエシカ,0
729,4010001231705,新規,0,2022-12-20,2022-12-20,ログライン株式会社,,株式会社,東京都,中央区,銀座１丁目１２番地４Ｎ＆ＥＢＬＤ．７階,,13,102,1040061,,,,,,,2022-12-20,1,,,,,ログライン,0
730,4010001231713,新規,0,2022-12-20,2022-12-20,株式会社モノストリ,,株式会社,東京都,千代田区,神田佐久間町３丁目２１番５号ヒガシカンダビル３０７号,,13,101,1010025,,,,,,,2022-12-20,1,,,,,モノストリ,0
731,4010001231762,新規,0,2022-12-20,2022-12-20,ウィスタリアン株式会社,,株式会社,東京都,千代田区,内幸町１丁目３番３号,,13,101,1000011,,,,,,,2022-12-20,1,,,,,ウィスタリアン,0
735,4010003039378,新規,0,2022-12-20,2022-12-20,ＰＦ東広島合同会社,,合同会社,東京都,千代田区,大手町２丁目３番２号,,13,101,1000004,,,,,,,2022-12-20,1,,,,,ピーエフヒガシヒロシマ,0
750,4010401171451,新規,0,2022-12-20,2022-12-20,株式会社ＨＤ　Ｍｉｒａｉ,,株式会社,東京都,港区,元赤坂１丁目１番１６号,,13,103,1070051,,,,,,,2022-12-20,1,,,,,エイチディーミライ,0
751,4010401171468,新規,0,2022-12-20,2022-12-20,株式会社ＩＴＤ,,株式会社,東京都,港区,港南２丁目１１番１７－１２１４号,,13,103,1080075,,,,,,,2022-12-20,1,,,,,アイティーディー,0
752,4010401171476,新規,0,2022-12-20,2022-12-20,株式会社ＭＫ１号,,株式会社,東京都,港区,元麻布３丁目７番５号３１４,,13,103,1060046,,,,,,,2022-12-20,1,,,,,エムケイイチゴウ,0
757,4010405021669,新規,0,2022-12-20,2022-12-20,一般社団法人ＭＡＭＭＯＴＨ　ＪＡＰＡＮ,,その他の設立登記法人,東京都,港区,六本木５丁目１３番１１号スペーシア麻布十番１２０１,,13,103,1060032,,,,,,,2022-12-20,1,,,,,マンモスジャパン,0
760,4010505003369,新規,0,2022-12-20,2022-12-20,一般社団法人Ｎａｔｕｒａｌ　Ｃａｐｉｔａｌ,,その他の設立登記法人,東京都,台東区,浅草橋３丁目１８番１号,,13,106,1110053,,,,,,,2022-12-20,1,,,,,ナチュラルキャピタル,0
762,4010701043631,新規,0,2022-12-20,2022-12-20,株式会社Ｒ７,,株式会社,東京都,品川区,東五反田４丁目４番３号,,13,109,1410022,,,,,,,2022-12-20,1,,,,,アールセブン,0
763,4010703006512,新規,0,2022-12-20,2022-12-20,合同会社愛音のはな,,合同会社,東京都,品川区,南品川３丁目４番１－４０９号,,13,109,1400004,,,,,,,2022-12-20,1,,,,,アイネノハナ,0
765,4010803004390,新規,0,2022-12-20,2022-12-20,Ｍｉｏ＆Ｏｃｅａｎ合同会社,,合同会社,東京都,大田区,池上５丁目７－５－４０７,,13,111,1460082,,,,,,,2022-12-20,1,,,,,ミオアンドオーシャン,0
769,4010903007855,新規,0,2022-12-20,2022-12-20,マツネツ合同会社,,合同会社,東京都,世田谷区,松原２丁目３６番１０号育成ビル５階,,13,112,1560043,,,,,,,2022-12-20,1,,,,,マツネツ,0
772,4011001151546,新規,0,2022-12-20,2022-12-20,株式会社ＲｅａｄｙＧＯ,,株式会社,東京都,渋谷区,神泉町２０番２１号,,13,113,1500045,,,,,,,2022-12-20,1,,,,,,0
773,4011001151579,新規,0,2022-12-20,2022-12-20,株式会社ａｔｅｌｉｅｒ　ＳＨＩＧＵＣＨＩ,,株式会社,東京都,渋谷区,西原１丁目７番２号フラワーマンション３０７,,13,113,1510066,,,,,,,2022-12-20,1,,,,,アトリエシグチ,0
774,4011001151587,新規,0,2022-12-20,2022-12-20,株式会社ジャパン・ピープル・チーム,,株式会社,東京都,目黒区,下目黒１丁目２番２２－４０９号,,13,110,1530064,,,,,,,2022-12-20,1,,,,,ジャパンピープルチーム,0
778,4011003015939,新規,0,2022-12-20,2022-12-20,ＩＳＴＡＲＩ　Ｇｌｏｂａｌ　Ｊａｐａｎ合同会社,,合同会社,東京都,渋谷区,桜丘町２６番１号渋谷セルリアンタワー１５階,,13,113,1500031,,,,,,,2022-12-20,1,,,,,イスタリグローバルジャパン,0
783,4011103012514,新規,0,2022-12-20,2022-12-20,合同会社ＳｈａｄｏｗＣｏｍｐａｎｙ,,合同会社,東京都,新宿区,西新宿３丁目３番１３号西新宿水間ビル２Ｆ,,13,104,1600023,,,,,,,2022-12-20,1,,,,,シャドウカンパニー,0
784,4011105010499,新規,0,2022-12-20,2022-12-20,一般社団法人インフラ新素材協会,,その他の設立登記法人,東京都,新宿区,改代町２６番地１,,13,104,1620802,,,,,,,2022-12-20,1,,,,,インフラシンゾザイキョウカイ,0
786,4011301028320,新規,0,2022-12-20,2022-12-20,株式会社Ｓａｄａｌｓｕｕｄ,,株式会社,東京都,杉並区,高井戸西２丁目１８番２号エコロジー高井戸プロセンチュリー４０４,,13,115,1680071,,,,,,,2022-12-20,1,,,,,サダルスウド,0
787,4011303004609,新規,0,2022-12-20,2022-12-20,合同会社ｖａｌｏｒ,,合同会社,東京都,杉並区,上荻２丁目３０番１５号,,13,115,1670043,,,,,,,2022-12-20,1,,,,,バロール,0
795,4012301013254,新規,0,2022-12-20,2022-12-20,明和国際株式会社,,株式会社,東京都,町田市,能ヶ谷１丁目４－１０,,13,209,1950053,,,,,,,2022-12-20,1,,,,,メイワコクサイ,0
812,4021001077757,新規,0,2022-12-20,2022-12-20,株式会社ＣＥＮＴＵＰ,,株式会社,神奈川県,相模原市中央区,相模原２丁目１番１２－２７０１号,,14,152,2520231,,,,,,,2022-12-20,1,,,,,セントアップ,0
821,4030003020773,新規,0,2022-12-20,2022-12-20,インテリア庄和合同会社,,合同会社,埼玉県,春日部市,大衾２０１番地７,,11,214,3440116,,,,,,,2022-12-20,1,,,,,インテリアショウワ,0
822,4030003020781,新規,0,2022-12-20,2022-12-20,ＴＡＭＵＲＡ合同会社,,合同会社,埼玉県,草加市,西町５２０－６,,11,221,3400035,,,,,,,2022-12-20,1,,,,,,0
830,4040001126217,新規,0,2022-12-20,2022-12-20,Ｅｇｒｅｔ株式会社,,株式会社,千葉県,鎌ケ谷市,東初富１丁目６番１０号,,12,224,2730122,,,,,,,2022-12-20,1,,,,,イーグレット,0
831,4040001126308,新規,0,2022-12-20,2022-12-20,ＫＡＮＥＹＡＭＡ株式会社,,株式会社,千葉県,我孫子市,若松１５３－１,,12,222,2701147,,,,,,,2022-12-20,1,,,,,カネヤマ,0
845,4080005007500,新規,0,2022-12-20,2022-12-20,特定非営利活動法人ＭＩＮＯＲＩ,,その他の設立登記法人,静岡県,静岡市葵区,馬場町５６番地の３,,22,101,4200867,,,,,,,2022-12-20,1,,,,,ミノリ,0
848,4080403004677,新規,0,2022-12-20,2022-12-20,ゆるっとハート合同会社,,合同会社,静岡県,浜松市北区,初生町９６２番地の１,,22,135,4338112,,,,,,,2022-12-20,1,,,,,ユルットハート,0
852,4100005012951,新規,0,2022-12-20,2022-12-20,特定非営利活動法人国際多文化教育推進協会,,その他の設立登記法人,長野県,北佐久郡軽井沢町,大字長倉３０１１番地１２,,20,321,3890111,,,,,,,2022-12-20,1,,,,,コクサイタブンカキョウイクスイシンキョウカイ,0
865,4120001251114,新規,0,2022-12-20,2022-12-20,株式会社Ｌｉｖｅ　Ｓｈｉｎｅ,,株式会社,大阪府,守口市,藤田町１丁目７番７号,,27,209,5700014,,,,,,,2022-12-20,1,,,,,ライブシャイン,0
866,4120001251122,新規,0,2022-12-20,2022-12-20,株式会社Ｃｏｔｏｆ,,株式会社,大阪府,大阪市東住吉区,湯里１丁目１番６号,,27,121,5460013,,,,,,,2022-12-20,1,,,,,コトフ,0
867,4120001251147,新規,0,2022-12-20,2022-12-20,株式会社プルメリア,,株式会社,大阪府,大阪市北区,梅田１丁目２番２号大阪駅前第２ビル１２－１２,,27,127,5300001,,,,,,,2022-12-20,1,,,,,プルメリア,0
868,4120001251205,新規,0,2022-12-20,2022-12-20,輝正株式会社,,株式会社,大阪府,大阪市住吉区,長居東２丁目２－２８－４０２,,27,120,5580004,,,,,,,2022-12-20,1,,,,,テルマサ,0
871,4120003023115,新規,0,2022-12-20,2022-12-20,合同会社ｏｎｅｓ,,合同会社,大阪府,大阪市平野区,加美東４丁目１６－２－２０１,,27,126,5470002,,,,,,,2022-12-20,1,,,,,ワンズ,0
874,4120101066692,新規,0,2022-12-20,2022-12-20,株式会社ＴＡＧ,,株式会社,大阪府,和泉市,唐国町３丁目１４番２６号,,27,219,5941151,,,,,,,2022-12-20,1,,,,,タグ,0
879,4122001036511,新規,0,2022-12-20,2022-12-20,スタイルジャパン株式会社,,株式会社,大阪府,東大阪市,上石切町２丁目１２番１４号,,27,227,5798012,,,,,,,2022-12-20,1,,,,,スタイルジャパン,0
884,4130003008387,新規,0,2022-12-20,2022-12-20,Ｏｐｅｎｌｙ合同会社,,合同会社,京都府,京都市左京区,田中門前町２番地コーポ寫楽４０３号室,,26,103,6068225,,,,,,,2022-12-20,1,,,,,オープンリー,0
890,4140001128426,新規,0,2022-12-20,2022-12-20,株式会社ケイステージ,,株式会社,兵庫県,たつの市,神岡町寄井１５３番地,,28,229,6794114,,,,,,,2022-12-20,1,,,,,ケイステージ,0
891,4140001128491,新規,0,2022-12-20,2022-12-20,株式会社ウィステリア,,株式会社,兵庫県,神戸市長田区,水笠通３丁目１番１－１００５号,,28,106,6530842,,,,,,,2022-12-20,1,,,,,ウィステリア,0
893,4140003018468,新規,0,2022-12-20,2022-12-20,合同会社Ｒ＆Ｍ,,合同会社,兵庫県,西宮市,若山町８番３５－２０９号,,28,204,6638016,,,,,,,2022-12-20,1,,,,,アールエム,0
894,4140005026411,新規,0,2022-12-20,2022-12-20,一般社団法人ｔａｒｕ,,その他の設立登記法人,兵庫県,神戸市中央区,中山手通４丁目１６－１４－２Ｆ,,28,110,6500004,,,,,,,2022-12-20,1,,,,,タル,0
895,4160001024714,新規,0,2022-12-20,2022-12-20,ＵＫコーポレーション株式会社,,株式会社,滋賀県,大津市,真野５丁目１６番２９号ジョイフル岡本２０２号,,25,201,5200232,,,,,,,2022-12-20,1,,,,,ユーケーコーポレーション,0
899,4180001154138,新規,0,2022-12-20,2022-12-20,株式会社明照会労働衛生コンサルタント事務所,,株式会社,愛知県,名古屋市東区,葵２丁目３番１５号,,23,102,4610004,,,,,,,2022-12-20,1,,,,,メイショウカイロウドウエイセイコンサルタントジムショ,0
900,4180001154261,新規,0,2022-12-20,2022-12-20,株式会社Ｓａｐ,,株式会社,愛知県,名古屋市緑区,大清水２丁目１０１番地の３,,23,114,4580805,,,,,,,2022-12-20,1,,,,,サップ,0
901,4180001154286,新規,0,2022-12-20,2022-12-20,株式会社Ｓ　ＰＬＵＳ　ＯＮＥ,,株式会社,愛知県,名古屋市守山区,鳥神町２１１,,23,113,4630088,,,,,,,2022-12-20,1,,,,,エスプラスワン,0
903,4180003024594,新規,0,2022-12-20,2022-12-20,合同会社Ｌｏｃｋ　ｅｙｅｓ,,合同会社,愛知県,名古屋市中川区,十一番町２丁目１番地六番町シティハウス１１０３号,,23,110,4540056,,,,,,,2022-12-20,1,,,,,ロックアイズ,0
926,4290001099958,新規,0,2022-12-20,2022-12-20,ケーエスケー株式会社,,株式会社,福岡県,福岡市南区,野間４丁目１７番３５号,,40,134,8150041,,,,,,,2022-12-20,1,,,,,ケーエスケー,0
928,4290003013322,新規,0,2022-12-20,2022-12-20,合同会社ｙｕｒｉｉｒｏ,,合同会社,福岡県,福岡市東区,舞松原２丁目２４番１４号,,40,131,8130042,,,,,,,2022-12-20,1,,,,,ユリイロ,0
931,4310001018171,新規,0,2022-12-20,2022-12-20,株式会社Ｐｉｉ,,株式会社,長崎県,長崎市,金屋町７番１２号,,42,201,8500037,,,,,,,2022-12-20,1,,,,,ピー,0
941,4360003012572,新規,0,2022-12-20,2022-12-20,合同会社レオオハナ,,合同会社,沖縄県,石垣市,字新川２２９７番地１８,,47,207,9070024,,,,,,,2022-12-20,1,,,,,レオオハナ,0
942,4370001049392,新規,0,2022-12-20,2022-12-20,株式会社ＳＩフォーム,,株式会社,宮城県,塩竈市,みのが丘１番３３－１４号,,04,203,9850073,,,,,,,2022-12-20,1,,,,,エスアイフォーム,0
943,4370005010581,新規,0,2022-12-20,2022-12-20,医療法人Ｃｈｅｒｒｙ,,その他の設立登記法人,宮城県,仙台市太白区,あすと長町１丁目２番１号仙台長町メディカルプラザ３階,,04,104,9820007,,,,,,,2022-12-20,1,,,,,チェリー,0
945,4380001033346,新規,0,2022-12-20,2022-12-20,株式会社ｓｌｏｗｓｎｏｗ,,株式会社,福島県,郡山市,安積町長久保３丁目２番地の９,,07,203,9630105,,,,,,,2022-12-20,1,,,,,スロウスノウ,0
954,4430001088079,新規,0,2022-12-20,2022-12-20,株式会社多田企画,,株式会社,北海道,小樽市,緑３丁目５番２１号,,01,203,0470034,,,,,,,2022-12-20,1,,,,,タダキカク,0
962,4700150113428,新規,0,2022-12-20,2022-12-20,Ｓｈｅｎｚｈｅｎ　Ｙａｗｅｉ　Ｔｒａｄｉｎｇ　Ｃｏｍｐａｎｙ,,外国会社等,,,,,,,,２０５，Ｎｏ．２，Ｊｉｎｈｕａ　Ｉｎｄｕｓｔｒｉａｌ　Ｚｏｎｅ，Ｎｏ．２，Ｘｉｎｈｅ　Ｓｔｒｅｅｔ，Ｍａ　Ａｎｔａｎｇ　Ｃｏｍｍｕｎｉｔｙ，２０５，Ｂａｎｔｉａｎ　Ｓｔｒｅｅｔ　Ｓｈｅｎｚｈｅｎｓｈｉ，ｇｕａｎｇｄｏｎｇｓｈｅｎｇ　Ｃｈｉｎａ,,,,,,2022-12-20,1,,,,,シンセンヤウェイトレーディングカンパニー,0
975,5010001231662,新規,0,2022-12-20,2022-12-20,株式会社Ｍ１ＧｅＴ,,株式会社,東京都,中央区,銀座１丁目２２番１１号銀座大竹ビジデンス２階,,13,102,1040061,,,,,,,2022-12-20,1,,,,,エムワンゲット,0
976,5010001231704,新規,0,2022-12-20,2022-12-20,株式会社ＲＥＡＢＩＬＩＴＹ,,株式会社,東京都,中央区,八丁堀４丁目８番１号,,13,102,1040032,,,,,,,2022-12-20,1,,,,,リアビリティ,0
977,5010001231712,新規,0,2022-12-20,2022-12-20,株式会社アウルテクノロジー,,株式会社,東京都,中央区,日本橋本町２丁目６番１号日本橋本町プラザビル８Ｆ,,13,102,1030023,,,,,,,2022-12-20,1,,,,,アウルテクノロジー,0
978,5010001231720,新規,0,2022-12-20,2022-12-20,東京科学技術総合研究所株式会社,,株式会社,東京都,中央区,銀座１丁目２２番１１号銀座大竹ビジデンス２階,,13,102,1040061,,,,,,,2022-12-20,1,,,,,トウキョウカガクギジュツソウゴウケンキュウジョ,0
983,5010003039344,新規,0,2022-12-20,2022-12-20,東京蓄電池発電合同会社,,合同会社,東京都,千代田区,丸の内１丁目７番１２号サピアタワー１８階,,13,101,1000005,,,,,,,2022-12-20,1,,,,,トウキョウチクデンチハツデン,0
984,5010003039385,新規,0,2022-12-20,2022-12-20,合同会社ブレイブリー,,合同会社,東京都,中央区,銀座１丁目２２番１１号銀座大竹ビジデンス２階,,13,102,1040061,,,,,,,2022-12-20,1,,,,,ブレイブリー,0
992,5010401171418,新規,0,2022-12-20,2022-12-20,株式会社プレミアム,,株式会社,東京都,港区,南麻布２丁目５番２０号ステージファースト南麻布８０３,,13,103,1060047,,,,,,,2022-12-20,1,,,,,プレミアム,0
993,5010401171434,新規,0,2022-12-20,2022-12-20,ニュークエスト株式会社,,株式会社,東京都,港区,赤坂８丁目１１番２６号,,13,103,1070052,,,,,,,2022-12-20,1,,,,,ニュークエスト,0
994,5010401171459,新規,0,2022-12-20,2022-12-20,ＧＡＬＡコミュニケーション株式会社,,株式会社,東京都,港区,南青山１丁目２０番２号,,13,103,1070062,,,,,,,2022-12-20,1,,,,,ガラコミュニケーション,0
997,5010405021684,新規,0,2022-12-20,2022-12-20,一般社団法人レジデンシャルオー,,その他の設立登記法人,東京都,港区,西新橋１丁目２番９号メンターキャピタル税理士法人内,,13,103,1050003,,,,,,,2022-12-20,1,,,,,レジデンシャルオー,0
1005,5010703006494,新規,0,2022-12-20,2022-12-20,Ｎｏ　Ｌｉｄ合同会社,,合同会社,東京都,品川区,西五反田１丁目２６番２号五反田サンハイツ９１１,,13,109,1410031,,,,,,,2022-12-20,1,,,,,ノーリッド,0
1008,5010801033531,新規,0,2022-12-20,2022-12-20,株式会社ＩＣ,,株式会社,東京都,大田区,南六郷３丁目２０番１号,,13,111,1440045,,,,,,,2022-12-20,1,,,,,アイシー,0
1012,5010901052175,新規,0,2022-12-20,2022-12-20,株式会社Ｋ＆Ｎ　Ｃｏｒｐｏｒａｔｉｏｎ,,株式会社,東京都,世田谷区,深沢１丁目２１番７号,,13,112,1580081,,,,,,,2022-12-20,1,,,,,ケイアンドエヌコーポレーション,0
1015,5010903007846,新規,0,2022-12-20,2022-12-20,ａｌｌｔｏａｌｌ合同会社,,合同会社,東京都,世田谷区,松原１丁目１８番２０号,,13,112,1560043,,,,,,,2022-12-20,1,,,,,オールトウオール,0
1020,5011001151487,新規,0,2022-12-20,2022-12-20,株式会社アップデートサポート,,株式会社,東京都,渋谷区,渋谷１丁目１７番８号,,13,113,1500002,,,,,,,2022-12-20,1,,,,,アップデートサポート,0
1021,5011001151529,新規,0,2022-12-20,2022-12-20,株式会社エトワ,,株式会社,東京都,渋谷区,神宮前６丁目２３番４号桑野ビル２階,,13,113,1500001,,,,,,,2022-12-20,1,,,,,エトワ,0
1022,5011001151553,新規,0,2022-12-20,2022-12-20,株式会社ＬＯＮＥ　ＰＩＮＥ　ＭＡＬＬ,,株式会社,東京都,渋谷区,上原３丁目３８番３号共和マンション３０１,,13,113,1510064,,,,,,,2022-12-20,1,,,,,ローンパインモール,0
1023,5011001151561,新規,0,2022-12-20,2022-12-20,株式会社ＲｅＦｌｏｗ,,株式会社,東京都,渋谷区,神宮前３丁目３５－１３－３０２,,13,113,1500001,,,,,,,2022-12-20,1,,,,,リフロー,0
1024,5011001151586,新規,0,2022-12-20,2022-12-20,ＮＳＹ株式会社,,株式会社,東京都,渋谷区,恵比寿２丁目１４－１３,,13,113,1500013,,,,,,,2022-12-20,1,,,,,エヌエスワイ,0
1029,5011201024311,新規,0,2022-12-20,2022-12-20,株式会社ＫＴＳ,,株式会社,東京都,中野区,中野５丁目２４番１９－７０８号,,13,114,1640001,,,,,,,2022-12-20,1,,,,,ケーティーエス,0
1030,5011203003965,新規,0,2022-12-20,2022-12-20,合同会社ＢＲＴＣ,,合同会社,東京都,中野区,弥生町１丁目３８番６号林見ビル４０２,,13,114,1640013,,,,,,,2022-12-20,1,,,,,ビーアールティーシー,0
1032,5011303004608,新規,0,2022-12-20,2022-12-20,合同会社ポレポレ,,合同会社,東京都,杉並区,高円寺南１丁目１２番７号コスモリード東高円寺レジデンス２０１,,13,115,1660003,,,,,,,2022-12-20,1,,,,,ポレポレ,0
1036,5011801041714,新規,0,2022-12-20,2022-12-20,株式会社Ｒｉｖｅｒｆｉｅ,,株式会社,東京都,足立区,西新井４丁目２番１０号,,13,121,1230841,,,,,,,2022-12-20,1,,,,,リバフィー,0
1039,5012301013253,新規,0,2022-12-20,2022-12-20,株式会社ナバカン,,株式会社,東京都,町田市,南成瀬８丁目１３番地１０,,13,209,1940045,,,,,,,2022-12-20,1,,,,,ナバカン,0
1053,5020001149482,新規,0,2022-12-20,2022-12-20,錦和産業株式会社,,株式会社,神奈川県,横浜市西区,北幸１丁目１１番１号水信ビル７階,,14,103,2200004,,,,,,,2022-12-20,1,,,,,キンワサンギョウ,0
1056,5020003022919,新規,0,2022-12-20,2022-12-20,ＫＩＤＳ　Ｒ　ＵＳ　ＡＣＡＤＥＭＹ合同会社,,合同会社,神奈川県,横浜市南区,白妙町５丁目６９,,14,105,2320023,,,,,,,2022-12-20,1,,,,,キッザラスアカデミー,0
1059,5021001077764,新規,0,2022-12-20,2022-12-20,Ｅｌｅｃｔ　Ｂｕｉｌｄ株式会社,,株式会社,神奈川県,厚木市,鳶尾２丁目５番１０号,,14,212,2430204,,,,,,,2022-12-20,1,,,,,エレクトビルド,0
1067,5030001151504,新規,0,2022-12-20,2022-12-20,ＣｒｏｓｓＲｉｖｅｒ株式会社,,株式会社,埼玉県,川越市,新富町１丁目１２番地１３アーバンビルクレアモール４Ｆ,,11,201,3500043,,,,,,,2022-12-20,1,,,,,クロスリバー,0
1068,5030001151520,新規,0,2022-12-20,2022-12-20,株式会社ＡＤＶＡＮＣＥ　ＷＯＲＫＳ,,株式会社,埼玉県,さいたま市岩槻区,大字釣上新田１２３番地１４,,11,110,3390025,,,,,,,2022-12-20,1,,,,,アドバンスワークス,0
1085,5040001126216,新規,0,2022-12-20,2022-12-20,株式会社星工業,,株式会社,千葉県,市原市,西国吉９９３番地６８,,12,219,2900231,,,,,,,2022-12-20,1,,,,,ホシコウギョウ,0
1086,5040003021497,新規,0,2022-12-20,2022-12-20,合同会社Ｒａｐｐｏｒｔ,,合同会社,千葉県,柏市,柏１３６５－８－８１１,,12,217,2770005,,,,,,,2022-12-20,1,,,,,ラポール,0
1087,5040003021530,新規,0,2022-12-20,2022-12-20,合同会社Ｌａｍｅｅｓ　Ｔｒａｄｉｎｇ,,合同会社,千葉県,野田市,木間ケ瀬４５５４,,12,208,2700222,,,,,,,2022-12-20,1,,,,,ラミーストレーディング,0
1091,5050005013186,新規,0,2022-12-20,2022-12-20,一般社団法人全国健康増進おうちデイ普及協議会,,その他の設立登記法人,茨城県,坂東市,岩井２９３８番地１,,08,228,3060631,,,,,,,2022-12-20,1,,,,,ゼンコクケンコウゾウシンオウチデイフキュウキョウギカイ,0
1096,5070003004763,新規,0,2022-12-20,2022-12-20,合同会社アズマール,,合同会社,群馬県,高崎市,飯塚町３１０番地３,,10,202,3700069,,,,,,,2022-12-20,1,,,,,アズマール,0
1101,5080403004676,新規,0,2022-12-20,2022-12-20,合同会社ＣｔｏＣ,,合同会社,静岡県,浜松市北区,三方原町１０８８番地の２４,,22,135,4338105,,,,,,,2022-12-20,1,,,,,シートゥーシー,0
1110,5120001250841,新規,0,2022-12-20,2022-12-20,株式会社ＡＮＤ　ＷＨＩＴＥ,,株式会社,大阪府,大阪市中央区,西心斎橋２丁目３番７号西井ビル２Ｆ,,27,128,5420086,,,,,,,2022-12-20,1,,,,,アンドホワイト,0
1111,5120001251138,新規,0,2022-12-20,2022-12-20,株式会社Ｕｍａｄｅａ,,株式会社,大阪府,大阪市中央区,瓦町４丁目３番１４号御堂アーバンライフ１０１１,,27,128,5410048,,,,,,,2022-12-20,1,,,,,ウマディア,0
1112,5120001251170,新規,0,2022-12-20,2022-12-20,株式会社近藤晃弘建築都市設計事務所,,株式会社,大阪府,大阪市西区,京町堀２丁目１３－１ギャラリー京町堀ビルディング４１３号,,27,106,5500003,,,,,,,2022-12-20,1,,,,,コンドウアキヒロケンチクトシセッケイジムショ,0
1113,5120001251204,新規,0,2022-12-20,2022-12-20,ＳＹ　ＨＯＵＳＥ株式会社,,株式会社,大阪府,大阪市中央区,久太郎町１丁目５－３１－６０２,,27,128,5410056,,,,,,,2022-12-20,1,,,,,エスワイハウス,0
1114,5120001251212,新規,0,2022-12-20,2022-12-20,株式会社Ｉｎｆｉｎｉｔｏ　Ｍｅｄｉｃａｌ,,株式会社,大阪府,大阪市西区,京町堀１丁目３番１号ワイズビスタビル４階,,27,106,5500003,,,,,,,2022-12-20,1,,,,,インフィニトメディカル,0
1119,5120101066691,新規,0,2022-12-20,2022-12-20,株式会社アサイ,,株式会社,大阪府,富田林市,若松町西１丁目１８４６番地１,,27,214,5840025,,,,,,,2022-12-20,1,,,,,アサイ,0
1123,5120901046884,新規,0,2022-12-20,2022-12-20,株式会社丸一商事,,株式会社,大阪府,豊中市,千成町１丁目７番９号,,27,203,5610829,,,,,,,2022-12-20,1,,,,,マルイチショウジ,0
1128,5130001073300,新規,0,2022-12-20,2022-12-20,株式会社ウィステリア,,株式会社,京都府,向日市,寺戸町岸ノ下２３番５,,26,208,6170002,,,,,,,2022-12-20,1,,,,,ウィステリア,0
1148,5180001154260,新規,0,2022-12-20,2022-12-20,株式会社ラーソ,,株式会社,愛知県,名古屋市天白区,池場２丁目６０５番地グリーンハウスマキＢ１０１号,,23,116,4680055,,,,,,,2022-12-20,1,,,,,ラーソ,0
1156,5180305009425,新規,0,2022-12-20,2022-12-20,医療法人鍛成会,,その他の設立登記法人,愛知県,豊川市,宿町野川１０番地５,,23,207,4410101,,,,,,,2022-12-20,1,,,,,タンセイカイ,0
1159,5200003005772,新規,0,2022-12-20,2022-12-20,合同会社ａｔｔｒａｉｔ,,合同会社,岐阜県,羽島市,上中町長間１０９３番地６,,21,209,5016311,,,,,,,2022-12-20,1,,,,,アトレ,0
1166,5240001060816,新規,0,2022-12-20,2022-12-20,株式会社ダイヤモンドサービス,,株式会社,広島県,福山市,佐波町７１４６番地３,,34,207,7200835,,,,,,,2022-12-20,1,,,,,ダイヤモンドサービス,0
1167,5240001060824,新規,0,2022-12-20,2022-12-20,株式会社エムエム,,株式会社,広島県,広島市西区,井口４丁目６番１号,,34,104,7330842,,,,,,,2022-12-20,1,,,,,エムエム,0
1169,5240003005934,新規,0,2022-12-20,2022-12-20,ｓｈｏｐｐｙＪＡＰＡＮ合同会社,,合同会社,広島県,広島市安芸区,畑賀２丁目２４番２－２０２号,,34,107,7360088,,,,,,,2022-12-20,1,,,,,ショッピージャパン,0
1173,5290001099957,新規,0,2022-12-20,2022-12-20,株式会社Ｒｏｗｉｎｇ,,株式会社,福岡県,福岡市東区,多の津４丁目９番１－５０３号沖ビル,,40,131,8130034,,,,,,,2022-12-20,1,,,,,ローイング,0
1174,5290001099973,新規,0,2022-12-20,2022-12-20,株式会社ＧＲＥＥＮＷＡＹ,,株式会社,福岡県,福岡市中央区,鳥飼３丁目１２番１４－３０２号,,40,133,8100053,,,,,,,2022-12-20,1,,,,,,0
1178,5310001018154,新規,0,2022-12-20,2022-12-20,株式会社クロスエージェント,,株式会社,長崎県,長崎市,古川町６番３２－６０２号,,42,201,8500851,,,,,,,2022-12-20,1,,,,,クロスエージェント,0
1181,5330001030413,新規,0,2022-12-20,2022-12-20,株式会社ゼクシオホールディングス,,株式会社,熊本県,熊本市南区,城南町宮地１００２番地の１,,43,104,8614202,,,,,,,2022-12-20,1,,,,,ゼクシオホールディングス,0
1182,5330003009637,新規,0,2022-12-20,2022-12-20,西島合同会社,,合同会社,熊本県,玉名市,玉名８６３番地,,43,206,8650005,,,,,,,2022-12-20,1,,,,,ニシジマ,0
1188,5360001031326,新規,0,2022-12-20,2022-12-20,株式会社ハウスラボ,,株式会社,沖縄県,浦添市,伊祖４丁目１０－１３メゾン伊祖２０１号,,47,208,9012132,,,,,,,2022-12-20,1,,,,,ハウスラボ,0
1189,5360001031342,新規,0,2022-12-20,2022-12-20,まいまいシーサー株式会社,,株式会社,沖縄県,国頭郡本部町,字山川９６９番地誠もち店美ら海工房２階,,47,308,9050205,,,,,,,2022-12-20,1,,,,,マイマイシーサー,0
1196,5370003005921,新規,0,2022-12-20,2022-12-20,ＢＬＴＭ合同会社,,合同会社,宮城県,仙台市太白区,向山２丁目１番３９号キャステール向山１０３,,04,104,9820841,,,,,,,2022-12-20,1,,,,,ビーエルティーエム,0
1197,5370005010580,新規,0,2022-12-20,2022-12-20,医療法人ルナ会,,その他の設立登記法人,宮城県,仙台市青葉区,中央３丁目６番１２号仙台南町通ビル６階,,04,101,9800021,,,,,,,2022-12-20,1,,,,,ルナカイ,0
1220,5430001088078,新規,0,2022-12-20,2022-12-20,株式会社Ｍｉｌｌｅｋｅｙ,,株式会社,北海道,札幌市南区,澄川三条２丁目５番７号ＢＲＯＯＫ．ＢＬＤ２Ｆ,,01,106,0050003,,,,,,,2022-12-20,1,,,,,ミルキー,0
1224,5430003014569,新規,0,2022-12-20,2022-12-20,合同会社ＴＯＫＩＡ,,合同会社,北海道,札幌市中央区,南三条西８丁目３番地２ＫＤＸレジデンス４０７号,,01,101,0600063,,,,,,,2022-12-20,1,,,,,トキア,0
1237,5700150113294,新規,0,2022-12-20,2022-12-07,金沢市立諸江児童館振興協力会,,その他,石川県,金沢市,北安江２丁目２２－４４,,17,201,9200022,,,,,,,2022-12-07,1,,,,,カナザワシリツモロエジドウカンシンコウキヨウリヨクカイ,0
1238,5700150113427,新規,0,2022-12-20,2022-12-20,Ｓｈｅｎｚｈｅｎｓｈｉ　Ｙｉｄｅ　Ｐｈｏｔｏｇｒａｐｈｉｃ　Ｅｑｕｉｐｍｅｎｔ　Ｃｏ．，Ｌｔｄ,,外国会社等,,,,,,,,４Ｆ４０１２，Ｓｈｅｎｚｈｏｕ　Ｃｏｍｐｕｔｅｒ　Ｂｕｉｌｄｉｎｇ，Ｍａｄａｍｅ　Ｃｕｒｉｅ　Ａｖｅｎｕｅ，Ｖａｎｋｅ　Ｃｉｔｙ　Ｃｏｍｍｕｎｉｔｙ，Ｂａｎｔｉａｎ　Ｓｔｒｅｅｔ　Ｓｈｅｎｚｈｅｎ，Ｇｕａｎｇｄｏｎｇ，Ｃｈｉｎａ,,,,,,2022-12-20,1,,,,,シンセンシイデフォトグラフィックイクイップメントカンパニーリミテッド,0
1250,6010001231653,新規,0,2022-12-20,2022-12-20,株式会社ゼロライン,,株式会社,東京都,文京区,湯島３丁目４１番１２号ウエノイレブンビル８階,,13,105,1130034,,,,,,,2022-12-20,1,,,,,ゼロライン,0
1251,6010001231703,新規,0,2022-12-20,2022-12-20,エンデバー・ユナイテッド・パートナーズ・２８株式会社,,株式会社,東京都,千代田区,丸の内２丁目５番１号丸の内二丁目ビル６階,,13,101,1000005,,,,,,,2022-12-20,1,,,,,エンデバーユナイテッドパートナーズトゥエンティエイト,0
1252,6010001231752,新規,0,2022-12-20,2022-12-20,株式会社日本再生エネルギープロジェクト,,株式会社,東京都,千代田区,神田神保町１丁目１４番３号,,13,101,1010051,,,,,,,2022-12-20,1,,,,,ニホンサイセイエネルギープロジェクト,0
1254,6010003039376,新規,0,2022-12-20,2022-12-20,アクティブリーシング２３号合同会社,,合同会社,東京都,千代田区,麹町４丁目７番２号,,13,101,1020083,,,,,,,2022-12-20,1,,,,,アクティブリーシングニジュウサンゴウ,0
1257,6010005035951,新規,0,2022-12-20,2022-12-20,ＭＥＣ舞浜ホテル開発特定目的会社,,その他の設立登記法人,東京都,中央区,日本橋１丁目４番１号日本橋一丁目ビルディング,,13,102,1030027,,,,,,,2022-12-20,1,,,,,メックマイハマホテルカイハツ,0
1267,6010401171441,新規,0,2022-12-20,2022-12-20,株式会社リビルド,,株式会社,東京都,港区,北青山３丁目５番１４号６階,,13,103,1070061,,,,,,,2022-12-20,1,,,,,リビルド,0
1276,6010501049728,新規,0,2022-12-20,2022-12-20,株式会社Ｃ．Ａ．Ｔ,,株式会社,東京都,台東区,台東３丁目２１－５ＶＥＮＴＩ２０５号,,13,106,1100016,,,,,,,2022-12-20,1,,,,,シーエイティー,0
1277,6010501049777,新規,0,2022-12-20,2022-12-20,株式会社オキュラボ,,株式会社,東京都,台東区,元浅草４丁目５番１８号,,13,106,1110041,,,,,,,2022-12-20,1,,,,,オキュラボ,0
1282,6010701043605,新規,0,2022-12-20,2022-12-20,俊和株式会社,,株式会社,東京都,品川区,西五反田７丁目１３番５号ＤＫ五反田４階４１４号室,,13,109,1410031,,,,,,,2022-12-20,1,,,,,シュンワ,0
1283,6010701043621,新規,0,2022-12-20,2022-12-20,株式会社ＫＡ,,株式会社,東京都,品川区,北品川６丁目５番８号プライムメゾン御殿山ＷＥＳＴ３０４,,13,109,1410001,,,,,,,2022-12-20,1,,,,,ケーエー,0
1288,6011001151528,新規,0,2022-12-20,2022-12-20,株式会社インクルテック,,株式会社,東京都,渋谷区,神宮前３丁目３８番１４号アンジェラ神宮前１Ｆ,,13,113,1500001,,,,,,,2022-12-20,1,,,,,インクルテック,0
1289,6011001151544,新規,0,2022-12-20,2022-12-20,株式会社シジョウ,,株式会社,東京都,渋谷区,神泉町１３番１２号菱和パレス渋谷西壱番館９０３,,13,113,1500045,,,,,,,2022-12-20,1,,,,,シジョウ,0
1290,6011001151552,新規,0,2022-12-20,2022-12-20,株式会社アルファ,,株式会社,東京都,渋谷区,道玄坂２丁目２０－３モンテ道玄坂２Ｆ,,13,113,1500043,,,,,,,2022-12-20,1,,,,,アルファ,0
1291,6011001151585,新規,0,2022-12-20,2022-12-20,株式会社ＳＩＭＰＬＥ,,株式会社,東京都,渋谷区,神宮前６丁目２３番４号桑野ビル２階,,13,113,1500001,,,,,,,2022-12-20,1,,,,,シンプル,0
1292,6011001151593,新規,0,2022-12-20,2022-12-20,株式会社ＡｎｓｗｅｒＣｒｅｗＬａｂｏｒａｔｏｒｙ,,株式会社,東京都,渋谷区,渋谷２丁目１９番１５号宮益坂ビルディング６０９,,13,113,1500002,,,,,,,2022-12-20,1,,,,,アンサークルーラボラトリー,0
1294,6011003015929,新規,0,2022-12-20,2022-12-20,合同会社ｔｅａ‐ｍｏ,,合同会社,東京都,渋谷区,上原１丁目３３番１３号,,13,113,1510064,,,,,,,2022-12-20,1,,,,,ティーモ,0
1295,6011003015961,新規,0,2022-12-20,2022-12-20,サンスポット合同会社,,合同会社,東京都,渋谷区,神宮前６丁目２３番４号桑野ビル２階,,13,113,1500001,,,,,,,2022-12-20,1,,,,,サンスポット,0
1302,6011201024310,新規,0,2022-12-20,2022-12-20,株式会社ＡＤＢＤ,,株式会社,東京都,中野区,新井１丁目３６番１号,,13,114,1650026,,,,,,,2022-12-20,1,,,,,エーディービーディー,0
1303,6011203003964,新規,0,2022-12-20,2022-12-20,合同会社ＵＰ,,合同会社,東京都,中野区,上高田３丁目２７番９号１階,,13,114,1640002,,,,,,,2022-12-20,1,,,,,アップ,0
1304,6011301028319,新規,0,2022-12-20,2022-12-20,株式会社イデアキャスト,,株式会社,東京都,杉並区,和田３丁目２８番１８号,,13,115,1660012,,,,,,,2022-12-20,1,,,,,イデアキャスト,0
1305,6011303004607,新規,0,2022-12-20,2022-12-20,合同会社秀泉亭,,合同会社,東京都,杉並区,西荻北３丁目２３番５号,,13,115,1670042,,,,,,,2022-12-20,1,,,,,シュウセンテイ,0
1310,6011503005388,新規,0,2022-12-20,2022-12-20,ＫＨＡＤＩＪＡＨ合同会社,,合同会社,東京都,荒川区,東日暮里６丁目２６番３第一藤井荘２０４号,,13,118,1160014,,,,,,,2022-12-20,1,,,,,カディザ,0
1314,6012401039981,新規,0,2022-12-20,2022-12-20,株式会社ｂｅａｕｔｙ　ｗｉｓｄｏｍ,,株式会社,東京都,稲城市,大丸３０２番地の２,,13,225,2060801,,,,,,,2022-12-20,1,,,,,ビューティーウィズダム,0
1331,6021001077755,新規,0,2022-12-20,2022-12-20,株式会社ミル・サーブ・インターナショナル,,株式会社,神奈川県,厚木市,妻田東１丁目１６番４２号,,14,212,2430813,,,,,,,2022-12-20,1,,,,,ミルサーブインターナショナル,0
1332,6021001077763,新規,0,2022-12-20,2022-12-20,株式会社ＡｔｈｅｎａＤｅｓｉｇｎ,,株式会社,神奈川県,厚木市,鳶尾２丁目５－１０,,14,212,2430204,,,,,,,2022-12-20,1,,,,,アテナデザイン,0
1334,6021005012700,新規,0,2022-12-20,2022-12-20,一般社団法人ＭＰＣ,,その他の設立登記法人,神奈川県,小田原市,下新田２２２番地５号アーバンシティ小田原鴨宮１００３,,14,206,2500878,,,,,,,2022-12-20,1,,,,,エムピィーシー,0
1375,6120001251120,新規,0,2022-12-20,2022-12-20,ＷＥＢ３株式会社,,株式会社,大阪府,大阪市中央区,南船場１丁目１２番２２－４０２号室,,27,128,5420081,,,,,,,2022-12-20,1,,,,,ウェブスリー,0
1376,6120001251161,新規,0,2022-12-20,2022-12-20,株式会社Ｇ．Ｇ．Ｒ,,株式会社,大阪府,枚方市,香里ケ丘２丁目４番地の１（６－１２０２）,,27,210,5730084,,,,,,,2022-12-20,1,,,,,ジージーアール,0
1381,6120003023096,新規,0,2022-12-20,2022-12-20,合同会社元氣,,合同会社,大阪府,大阪市淀川区,東三国２丁目３２番１４号モンテ新大阪８０２号室,,27,123,5320002,,,,,,,2022-12-20,1,,,,,ゲンキ,0
1388,6120903004427,新規,0,2022-12-20,2022-12-20,合同会社ＩｏＴ本舗,,合同会社,大阪府,豊中市,永楽荘１丁目６番２４号,,27,203,5600051,,,,,,,2022-12-20,1,,,,,アイオーティーホンポ,0
1396,6130003008377,新規,0,2022-12-20,2022-12-20,ダイヤＣａｒｓ合同会社,,合同会社,京都府,京都市山科区,大宅古海道町５９－４７,,26,110,6078177,,,,,,,2022-12-20,1,,,,,ダイヤカーズ,0
1407,6140001128440,新規,0,2022-12-20,2022-12-20,株式会社Ｃｏｌｏｒ　Ｄａｙｓ,,株式会社,兵庫県,宝塚市,末成町１８番１－１号,,28,214,6650044,,,,,,,2022-12-20,1,,,,,カラーデイズ,0
1408,6140003018490,新規,0,2022-12-20,2022-12-20,ゆらりっと福祉合同会社,,合同会社,兵庫県,神戸市垂水区,乙木１丁目４番１５号,,28,108,6550882,,,,,,,2022-12-20,1,,,,,ユラリットフクシ,0
1410,6150001026016,新規,0,2022-12-20,2022-12-20,株式会社ならや,,株式会社,奈良県,奈良市,富雄北１丁目３番５号第１キタダビル４階,,29,201,6310076,,,,,,,2022-12-20,1,,,,,ナラヤ,0
1411,6150001026032,新規,0,2022-12-20,2022-12-20,株式会社Ｓｔｏｒｙ,,株式会社,奈良県,大和高田市,片塩町１３番１２号,,29,202,6350085,,,,,,,2022-12-20,1,,,,,ストーリー,0
1415,6170001017401,新規,0,2022-12-20,2022-12-20,株式会社ＳＰＥＥＤ‐ＣＲＥＡＴＯＲｓ,,株式会社,和歌山県,有田市,宮原町滝川原４６２,,30,204,6490435,,,,,,,2022-12-20,1,,,,,スピードクリエイターズ,0
1426,6180001154268,新規,0,2022-12-20,2022-12-20,ブライラント株式会社,,株式会社,愛知県,春日井市,堀ノ内町３丁目９番地６グランデオス１０６号,,23,206,4860829,,,,,,,2022-12-20,1,,,,,ブライラント,0
1430,6200001040787,新規,0,2022-12-20,2022-12-20,株式会社ＹＯ,,株式会社,岐阜県,各務原市,蘇原中央町３丁目５０番地,,21,213,5040813,,,,,,,2022-12-20,1,,,,,ワイオー,0
1431,6200001040795,新規,0,2022-12-20,2022-12-20,株式会社テンカ,,株式会社,岐阜県,岐阜市,弁天町１丁目２０番地２,,21,201,5008307,,,,,,,2022-12-20,1,,,,,テンカ,0
1434,6220001025183,新規,0,2022-12-20,2022-12-20,株式会社ハクイエンターテインメントホールディングス,,株式会社,石川県,羽咋市,千里浜町ホ１８０番地,,17,207,9250054,,,,,,,2022-12-20,1,,,,,ハクイエンターテインメントホールディングス,0
1437,6240001060823,新規,0,2022-12-20,2022-12-20,株式会社馬上畜産,,株式会社,広島県,安芸郡熊野町,城之堀６丁目１０番３３号,,34,307,7314215,,,,,,,2022-12-20,1,,,,,バジョウチクサン,0
1444,6240003005941,新規,0,2022-12-20,2022-12-20,合同会社ＹＳＫ,,合同会社,広島県,広島市西区,井口明神２丁目１３番８号２０１号,,34,104,7330841,,,,,,,2022-12-20,1,,,,,ワイエスケー,0
1456,6290003013329,新規,0,2022-12-20,2022-12-20,ＦＩＤＥＳ合同会社,,合同会社,福岡県,福岡市東区,千早４丁目１４番１号,,40,131,8130044,,,,,,,2022-12-20,1,,,,,フィデス,0
1460,6330001030412,新規,0,2022-12-20,2022-12-20,株式会社リュディックホーム,,株式会社,熊本県,熊本市南区,城南町宮地１００２番地の１,,43,104,8614202,,,,,,,2022-12-20,1,,,,,リュディックホーム,0
1465,6360003012579,新規,0,2022-12-20,2022-12-20,合同会社狩俣ファーム,,合同会社,沖縄県,宮古郡多良間村,字塩川１５５番地,,47,375,9060601,,,,,,,2022-12-20,1,,,,,カリマタファーム,0
1476,6410001013342,新規,0,2022-12-20,2022-12-20,株式会社今氏製作所,,株式会社,秋田県,横手市,黒川字浦島１０９番地,,05,203,0130826,,,,,,,2022-12-20,1,,,,,イマウジセイサクショ,0
1493,6700150113426,新規,0,2022-12-20,2022-12-20,Ｈｅｆｅｉ　Ｙｕｚｈｉ　Ｆｅｉｔｅｎｇ　Ｎｅｔｗｏｒｋ　Ｔｅｃｈｎｏｌｏｇｙ　Ｃｏ．，Ｌｔｄ,,外国会社等,,,,,,,,Ｎｏ．Ａ６８３，４ｔｈ　Ｆｌｏｏｒ，ＧＦ　Ｄｉｓｔｒｉｃｔ，Ｂｕｉｌｄｉｎｇ　３，Ｐｈａｓｅ　ＩＩＩ，Ｅ－ｃｏｍｍｅｒｃｅ　Ｐａｒｋ，Ｗｅｎｓｈｕｉ　Ｒｏａｄ，Ｈｅｆｅｉ　ｃｉｔｙ，Ａｎｈｕｉ　ｓｈｅｎｇ，Ｃｈｉｎａ,,,,,,2022-12-20,1,,,,,ゴウヒウチヒトウネットワークテクノロジーカンパニーリミテッド,0
1508,7010001231702,新規,0,2022-12-20,2022-12-20,株式会社ケイズナイン,,株式会社,東京都,中央区,八丁堀３丁目１４番２号,,13,102,1040032,,,,,,,2022-12-20,1,,,,,ケイズナイン,0
1514,7010003039375,新規,0,2022-12-20,2022-12-20,アクティブリーシング２２号合同会社,,合同会社,東京都,千代田区,麹町４丁目７番２号,,13,101,1020083,,,,,,,2022-12-20,1,,,,,アクティブリーシングニジュウニゴウ,0
1515,7010003039383,新規,0,2022-12-20,2022-12-20,ＮａｎＹａｎｇ　Ｓｕｎ　Ｋｅｅ合同会社,,合同会社,東京都,千代田区,神田三崎町３丁目５番９号天翔水道橋ビル２階２１２号室,,13,101,1010061,,,,,,,2022-12-20,1,,,,,ナンヤンサンキー,0
1521,7010401171416,新規,0,2022-12-20,2022-12-20,株式会社ＳＷＥＥ,,株式会社,東京都,港区,南青山４丁目１８番１１号フォレストヒルズイーストウィング２Ｆ,,13,103,1070062,,,,,,,2022-12-20,1,,,,,スウィー,0
1522,7010401171465,新規,0,2022-12-20,2022-12-20,株式会社Ｋプリメーラ,,株式会社,東京都,港区,北青山２丁目７番２０号,,13,103,1070061,,,,,,,2022-12-20,1,,,,,ケイプリメーラ,0
1524,7010403029166,新規,0,2022-12-20,2022-12-20,再進エネルギー合同会社,,合同会社,東京都,港区,白金台２丁目２０番３号ピエール・リヴィエール白金台ＩＩ２０１,00128847,13,103,1080071,,,,,,,2022-12-20,1,,,,,サイシンエネルギー,0
1525,7010403029174,新規,0,2022-12-20,2022-12-20,ＡＴＩＬＡ合同会社,,合同会社,東京都,港区,浜松町１丁目２３－４隆江ビル１Ｆ,,13,103,1050013,,,,,,,2022-12-20,1,,,,,アティラ,0
1531,7010501049776,新規,0,2022-12-20,2022-12-20,株式会社Ｓｕｅｅｅｎ,,株式会社,東京都,台東区,上野５丁目１６－１６天美ビル２階,,13,106,1100005,,,,,,,2022-12-20,1,,,,,スウェーン,0
1550,7011301028318,新規,0,2022-12-20,2022-12-20,株式会社アルモニースタッフ,,株式会社,東京都,杉並区,和田１丁目２７番８－２０３号,,13,115,1660012,,,,,,,2022-12-20,1,,,,,アルモニースタッフ,0
1554,7011303004606,新規,0,2022-12-20,2022-12-20,アートジャンキー合同会社,,合同会社,東京都,杉並区,方南１丁目５番１２号２階,,13,115,1680062,,,,,,,2022-12-20,1,,,,,アートジャンキー,0
1559,7011801041712,新規,0,2022-12-20,2022-12-20,株式会社ＳＩＴＥ　ＷＯＲＫＳ,,株式会社,東京都,葛飾区,奥戸７丁目１１番１０号,,13,122,1240022,,,,,,,2022-12-20,1,,,,,サイトワークス,0
1560,7012303001758,新規,0,2022-12-20,2022-12-20,合同会社Ａｚサポート,,合同会社,東京都,町田市,成瀬が丘２丁目１番３号ナルセ３３ハイム１－Ｂ・Ｃ,,13,209,1940011,,,,,,,2022-12-20,1,,,,,アズサポート,0
1561,7012403005741,新規,0,2022-12-20,2022-12-20,合同会社プケレ,,合同会社,東京都,多摩市,鶴牧２丁目２４番地の３－１１０,,13,224,2060034,,,,,,,2022-12-20,1,,,,,プケレ,0
1562,7012701017406,新規,0,2022-12-20,2022-12-20,株式会社ＵＰ　ＦＩＥＬＤ,,株式会社,東京都,西東京市,東町５丁目２番２２号,,13,229,2020012,,,,,,,2022-12-20,1,,,,,アップフィールド,0
1563,7012801022041,新規,0,2022-12-20,2022-12-20,株式会社プライム,,株式会社,東京都,国立市,富士見台２丁目１１－９－１０１,,13,215,1860003,,,,,,,2022-12-20,1,,,,,プライム,0
1569,7020001149464,新規,0,2022-12-20,2022-12-20,株式会社ＳｏｎａＧｒａｆ,,株式会社,神奈川県,横浜市西区,みなとみらい４丁目４番２号横浜ブルーアベニュー１２Ｆ,,14,103,2200012,,,,,,,2022-12-20,1,,,,,ソナグラフ,0
1574,7021001077762,新規,0,2022-12-20,2022-12-20,株式会社真樹組,,株式会社,神奈川県,大和市,上和田２５２８番地３,,14,213,2420014,,,,,,,2022-12-20,1,,,,,マサキグミ,0
1583,7030003020746,新規,0,2022-12-20,2022-12-20,合同会社Ｍｉｓｏ　ｇｕｉｌｄ,,合同会社,埼玉県,川口市,南鳩ヶ谷３丁目２３番１号レゾン・フォルテ３０２号室,,11,203,3340013,,,,,,,2022-12-20,1,,,,,ミソギルド,0
1584,7030003020779,新規,0,2022-12-20,2022-12-20,合同会社ゆるうと,,合同会社,埼玉県,狭山市,柏原３４０５－１２７狭山ニュータウン８７－５,,11,215,3501335,,,,,,,2022-12-20,1,,,,,ユルウト,0
1588,7040001126206,新規,0,2022-12-20,2022-12-20,株式会社ＴＯＮＹＦＡＣＴＯＲＹ,,株式会社,千葉県,柏市,柏４丁目１０番１－６０９号,,12,217,2770005,,,,,,,2022-12-20,1,,,,,トニーファクトリー,0
1589,7040001126255,新規,0,2022-12-20,2022-12-20,株式会社Ｒ,,株式会社,千葉県,千葉市稲毛区,小仲台６丁目３番１８号,,12,103,2630043,,,,,,,2022-12-20,1,,,,,アール,0
1593,7050001052120,新規,0,2022-12-20,2022-12-20,株式会社Ｋｏｏｇａ,,株式会社,茨城県,古河市,大堤１１８１,,08,204,3060236,,,,,,,2022-12-20,1,,,,,クーガ,0
1628,7120003023095,新規,0,2022-12-20,2022-12-20,合同会社ナカシー,,合同会社,大阪府,大阪市北区,野崎町三丁目１番プレミアス梅田３０２号,,27,127,5300055,,,,,,,2022-12-20,1,,,,,ナカシー,0
1629,7120003023112,新規,0,2022-12-20,2022-12-20,合同会社ＤＯＲＩＳ,,合同会社,大阪府,大阪市生野区,中川２丁目１番３ライオンズマンション今里１０３号,,27,116,5440005,,,,,,,2022-12-20,1,,,,,ドリス,0
1630,7120003023120,新規,0,2022-12-20,2022-12-20,日越総合サービス合同会社,,合同会社,大阪府,大阪市西成区,玉出中２丁目９番６号西成区玉出中二丁目ビル２０２号室,,27,122,5570044,,,,,,,2022-12-20,1,,,,,ニチエツソウゴウサービス,0
1635,7120103004986,新規,0,2022-12-20,2022-12-20,合同会社ニコニコ,,合同会社,大阪府,堺市美原区,北余部４５番２４号,,27,147,5870051,,,,,,,2022-12-20,1,,,,,ニコニコ,0
1639,7120903004426,新規,0,2022-12-20,2022-12-20,ＳＫスミス・コンサルティング合同会社,,合同会社,大阪府,豊中市,中桜塚４丁目７番１６－１０４号,,27,203,5610881,,,,,,,2022-12-20,1,,,,,エスケースミスコンサルティング,0
1641,7122001036500,新規,0,2022-12-20,2022-12-20,株式会社エイチアールシー,,株式会社,大阪府,東大阪市,菱屋東３丁目７番１１号,,27,227,5780948,,,,,,,2022-12-20,1,,,,,エイチアールシー,0
1643,7130001073281,新規,0,2022-12-20,2022-12-20,ＣＡｇａｒｄｅｎ株式会社,,株式会社,京都府,久世郡久御山町,森三丁１７番地,,26,322,6130024,,,,,,,2022-12-20,1,,,,,シーエイガーデン,0
1648,7140001128464,新規,0,2022-12-20,2022-12-20,株式会社エーレックス,,株式会社,兵庫県,西宮市,戸田町１番５号,,28,204,6620916,,,,,,,2022-12-20,1,,,,,エーレックス,0
1649,7140001128480,新規,0,2022-12-20,2022-12-20,株式会社ＢＡＬＡＮＣＥ　ＮＩＮＥ,,株式会社,兵庫県,姫路市,豊富町御蔭１９４２番地５,,28,201,6792122,,,,,,,2022-12-20,1,,,,,バランスナイン,0
1650,7140001128489,新規,0,2022-12-20,2022-12-20,株式会社中川設備,,株式会社,兵庫県,西宮市,山口町上山口１３０６番地２５,,28,204,6511421,,,,,,,2022-12-20,1,,,,,ナカガワセツビ,0
1653,7140003018481,新規,0,2022-12-20,2022-12-20,ＳＵＮＮＹＤＡＹ合同会社,,合同会社,兵庫県,神戸市長田区,駒ケ林町４丁目２番６号,,28,106,6530043,,,,,,,2022-12-20,1,,,,,サニーデイ,0
1672,7180003024625,新規,0,2022-12-20,2022-12-20,合同会社ハピレン,,合同会社,愛知県,名古屋市瑞穂区,平郷町５丁目４番地の２,,23,108,4670879,,,,,,,2022-12-20,1,,,,,ハピレン,0
1682,7200001040786,新規,0,2022-12-20,2022-12-20,株式会社ＡＯ,,株式会社,岐阜県,各務原市,蘇原中央町３丁目５０番地,,21,213,5040813,,,,,,,2022-12-20,1,,,,,エーオー,0
1684,7200003005770,新規,0,2022-12-20,2022-12-20,ＡＭＥＥＮＡ　ＥＮＴＥＲＰＲＩＳＥＳ合同会社,,合同会社,岐阜県,土岐市,肥田浅野朝日町１丁目１７番地フォーブル浅野Ａ２階２０３号室,,21,212,5095117,,,,,,,2022-12-20,1,,,,,アミーナエンタープライセス,0
1690,7240001060822,新規,0,2022-12-20,2022-12-20,株式会社ＴＥＣＨＮＯ　ＫＡＴＣＨ,,株式会社,広島県,東広島市,安芸津町風早３１２５番地５,,34,212,7392403,,,,,,,2022-12-20,1,,,,,テクノカッチ,0
1703,7300001013170,新規,0,2022-12-20,2022-12-20,株式会社呉竹,,株式会社,佐賀県,鹿島市,浜町乙２７８２番地１,,41,207,8491322,,,,,,,2022-12-20,1,,,,,クレタケ,0
1713,7350001018090,新規,0,2022-12-20,2022-12-20,株式会社オーチャンズ,,株式会社,宮崎県,東臼杵郡美郷町,西郷田代１７７６番地１,,45,431,8831101,,,,,,,2022-12-20,1,,,,,オーチャンズ,0
1714,7360001031332,新規,0,2022-12-20,2022-12-20,ｋ‐ｆｏｏｄｐｌａｎｎｉｎｇ株式会社,,株式会社,沖縄県,那覇市,港町２丁目１４－２４,,47,201,9000001,,,,,,,2022-12-20,1,,,,,ケーフードプランニング,0
1716,7370005010579,新規,0,2022-12-20,2022-12-20,医療法人関節外科スポーツクリニック,,その他の設立登記法人,宮城県,石巻市,あゆみ野５丁目２番地１,,04,202,9860850,,,,,,,2022-12-20,1,,,,,カンセツゲカスポーツクリニック,0
1723,7410003003729,新規,0,2022-12-20,2022-12-20,鹿印合同会社,,合同会社,秋田県,鹿角郡小坂町,小坂字五十刈４番地１,,05,303,0170201,,,,,,,2022-12-20,1,,,,,シカジルシ,0
1735,7460001005755,新規,0,2022-12-20,2022-12-20,ＳＵＦＹＡＡＮ　ＴＲＡＤＩＮＧ株式会社,,株式会社,北海道,釧路市,千代ノ浦１番３０号,,01,206,0850823,,,,,,,2022-12-20,1,,,,,ソフィヤーントレーディング,0
1739,7700150113425,新規,0,2022-12-20,2022-12-20,ｙｉｗｕｓｈｉ　ｂｏｔｉｎｇｆｕｚｈｕａｎｇ　ｙｏｕｘｉａｎｇｏｎｇｓｉ,,外国会社等,,,,,,,,ｄａｃｈｅｎｚｈｅｎ，ｄｉａｎｍｅｎｌｉ１０ｈａｏ３０１，ｙｉｗｕｓｈｉ，ｚｈｅｊｉａｎｇｓｈｅｎｇ，Ｃｈｉｎａ,,,,,,2022-12-20,1,,,,,イーウーシハクテイフクソウユウゲンコウシ,0
1740,7700150113433,新規,0,2022-12-20,2022-12-20,Ｙｉｗｕ　Ｘｉｅｈｏｕ　Ｊｅｗｅｌｒｙ　Ｃｏ．Ｌｔｄ,,外国会社等,,,,,,,,Ｒｏｏｍ　２０２，Ｕｎｉｔ２Ｎｏ．２２，Ｊｉｎ　Ｄｕ　Ｈａｏ　Ｙｕａｎ，Ｙｉｗｕ　Ｚｈｅｊｉａｎｇ，Ｃｈｉｎａ,,,,,,2022-12-20,1,,,,,イーウーカイコウジュエリーカンパニーリミテッド,0
1747,8010001231726,新規,0,2022-12-20,2022-12-20,株式会社メディカルブリッジ,,株式会社,東京都,千代田区,麹町１丁目３番地２３‐５０１,,13,101,1020083,,,,,,,2022-12-20,1,,,,,メディカルブリッジ,0
1751,8010005035933,新規,0,2022-12-20,2022-12-20,Ｏｒｉｇｉｎａｔｏｒ　Ｐｒｏｆｉｌｅ技術研究組合,,その他の設立登記法人,東京都,千代田区,大手町１丁目７番１号株式会社読売新聞東京本社,,13,101,1000004,,,,,,,2022-12-20,1,,,,,オリジネータープロファイル,0
1756,8010401171423,新規,0,2022-12-20,2022-12-20,株式会社ＰＬＡＮ　Ａ,,株式会社,東京都,港区,港南２丁目４－１３,,13,103,1080075,,,,,,,2022-12-20,1,,,,,プランエー,0
1757,8010401171489,新規,0,2022-12-20,2022-12-20,株式会社ＪＧ１６,,株式会社,東京都,港区,虎ノ門１丁目３番１号,,13,103,1050001,,,,,,,2022-12-20,1,,,,,ジェイジージュウロク,0
1763,8010501049767,新規,0,2022-12-20,2022-12-20,株式会社ＴＯＭＯＹＡ,,株式会社,東京都,台東区,松が谷２丁目９番１－３０２号,,13,106,1110036,,,,,,,2022-12-20,1,,,,,トモヤ,0
1764,8010501049775,新規,0,2022-12-20,2022-12-20,株式会社啓和,,株式会社,東京都,台東区,上野６丁目７番１６号,,13,106,1100005,,,,,,,2022-12-20,1,,,,,ケイワ,0
1778,8011001151526,新規,0,2022-12-20,2022-12-20,Ｓｔｅｌｌａｔｏ株式会社,,株式会社,東京都,目黒区,碑文谷５丁目２－５Ｔ＆Ａビル５Ｆ,,13,110,1520003,,,,,,,2022-12-20,1,,,,,ステラート,0
1779,8011001151542,新規,0,2022-12-20,2022-12-20,株式会社ブランシュノワール,,株式会社,東京都,目黒区,鷹番１丁目１０－１,,13,110,1520004,,,,,,,2022-12-20,1,,,,,ブランシュノワール,0
1780,8011003015943,新規,0,2022-12-20,2022-12-20,合同会社ＡＨ,,合同会社,東京都,渋谷区,神宮前３丁目２３番３号７階,,13,113,1500001,,,,,,,2022-12-20,1,,,,,エーエイチ,0
1782,8011005009877,新規,0,2022-12-20,2022-12-20,一般社団法人仲屋,,その他の設立登記法人,東京都,渋谷区,恵比寿西２丁目８番４号平陽ビル４Ｆ,,13,113,1500021,,,,,,,2022-12-20,1,,,,,ナカヤ,0
1787,8011101101232,新規,0,2022-12-20,2022-12-20,株式会社神澤商事,,株式会社,東京都,新宿区,西早稲田３丁目３０番１８－６０６号,,13,104,1690051,,,,,,,2022-12-20,1,,,,,カンザワショウジ,0
1789,8011103012436,新規,0,2022-12-20,2022-12-20,合同会社スマイルＦＵＮ,,合同会社,東京都,新宿区,西新宿３丁目５番１２号トーカン新宿第二キャステール３１０号室,,13,104,1600023,,,,,,,2022-12-20,1,,,,,スマイルファン,0
1796,8011501028769,新規,0,2022-12-20,2022-12-20,株式会社小田原屋,,株式会社,東京都,北区,上十条３丁目２４番２号ボンメゾンＩＩ１０１号,00128843,13,117,1140034,,,,,,,2022-12-20,1,,,,,オダワラヤ,0
1797,8011503005403,新規,0,2022-12-20,2022-12-20,フロー合同会社,,合同会社,東京都,北区,中里３丁目２２－３－５０３,,13,117,1140015,,,,,,,2022-12-20,1,,,,,フロー,0
1798,8011801041711,新規,0,2022-12-20,2022-12-20,株式会社三浦建築板金,,株式会社,東京都,足立区,扇２丁目２６番８号,,13,121,1230873,,,,,,,2022-12-20,1,,,,,ミウラケンチクバンキン,0
1800,8011803005417,新規,0,2022-12-20,2022-12-20,合同会社ＪＡＧＵＡＲ,,合同会社,東京都,足立区,弘道１丁目２１番１３号,,13,121,1200013,,,,,,,2022-12-20,1,,,,,ジャグア,0
1803,8012703002603,新規,0,2022-12-20,2022-12-20,合同会社ミルア,,合同会社,東京都,西東京市,南町３丁目１６番３号,,13,229,1880012,,,,,,,2022-12-20,1,,,,,ミルア,0
1804,8012801022040,新規,0,2022-12-20,2022-12-20,株式会社Ｋ‐Ｎ　ＥＮＴＥＲＰＲＩＳＥ,,株式会社,東京都,国立市,中１丁目１０番地の５,,13,215,1860004,,,,,,,2022-12-20,1,,,,,ケーエヌエンタープライズ,0
1817,8021003012527,新規,0,2022-12-20,2022-12-20,合同会社ＦｕｔｕｒｅＣｒｅａｔｉｏｎ,,合同会社,神奈川県,鎌倉市,小袋谷１丁目５－１９,,14,204,2470055,,,,,,,2022-12-20,1,,,,,,0
1818,8021005012698,新規,0,2022-12-20,2022-12-20,一般社団法人日高昆布アートラボ,,その他の設立登記法人,神奈川県,相模原市緑区,相原１丁目１８番３９号,,14,151,2520141,,,,,,,2022-12-20,1,,,,,ヒダカコンブアートラボ,0
1824,8030001151435,新規,0,2022-12-20,2022-12-20,株式会社こばやし住装,,株式会社,埼玉県,越谷市,大字南荻島８７０番地,,11,222,3430804,,,,,,,2022-12-20,1,,,,,コバヤシジュウソウ,0
1825,8030001151542,新規,0,2022-12-20,2022-12-20,株式会社幸福田,,株式会社,埼玉県,川口市,芝２丁目２９番２５号,,11,203,3330866,,,,,,,2022-12-20,1,,,,,コウフクダ,0
1831,8030003020794,新規,0,2022-12-20,2022-12-20,合同会社イーマケサポート,,合同会社,埼玉県,朝霞市,溝沼２丁目３番３１－３１１号,,11,227,3510023,,,,,,,2022-12-20,1,,,,,イーマケサポート,0
1840,8040003021536,新規,0,2022-12-20,2022-12-20,ＤＵＳＨＡＮＴＨＡ　ＥＮＴＥＲＰＲＩＳＥ合同会社,,合同会社,千葉県,山武市,大木５７９番地５８,,12,237,2891211,,,,,,,2022-12-20,1,,,,,ドゥシャンタエンタープライズ,0
1844,8060001035544,新規,0,2022-12-20,2022-12-20,株式会社Ｇｒｏｗ,,株式会社,栃木県,那須烏山市,興野８４０番地,,09,215,3210611,,,,,,,2022-12-20,1,,,,,グロウ,0
1857,8090001017878,新規,0,2022-12-20,2022-12-20,株式会社ＢＥＬＬＥＡＰ,,株式会社,山梨県,甲府市,増坪町４１７番地１５,,19,201,4000832,,,,,,,2022-12-20,1,,,,,ベリープ,0
1860,8100001035977,新規,0,2022-12-20,2022-12-20,株式会社ＳＥＬ,,株式会社,長野県,松本市,中央２丁目５番１３号２Ｆ,,20,202,3900811,,,,,,,2022-12-20,1,,,,,エスイーエル,0
1865,8120001251085,新規,0,2022-12-20,2022-12-20,株式会社アドアロー,,株式会社,大阪府,大阪市西区,靱本町３丁目８番５－１００３号,,27,106,5500004,,,,,,,2022-12-20,1,,,,,アドアロー,0
1866,8120001251168,新規,0,2022-12-20,2022-12-20,株式会社司,,株式会社,大阪府,大阪市西区,江戸堀２丁目１番１号江戸堀センタービルＢ１ＦＢ－６,,27,106,5500002,,,,,,,2022-12-20,1,,,,,ツカサ,0
1867,8120001251192,新規,0,2022-12-20,2022-12-20,株式会社Ｓｍａｒｔ　Ｆｏｒｃｅ,,株式会社,大阪府,大阪市福島区,吉野２丁目１３番１０号,,27,103,5530006,,,,,,,2022-12-20,1,,,,,スマートフォース,0
1868,8120001251234,新規,0,2022-12-20,2022-12-20,株式会社ＯＮＥ,,株式会社,大阪府,大阪市中央区,東心斎橋２丁目７番１８号暫ビル７階,,27,128,5420083,,,,,,,2022-12-20,1,,,,,ワン,0
1871,8120003023111,新規,0,2022-12-20,2022-12-20,合同会社アイシーズ,,合同会社,大阪府,大阪市中央区,西心斎橋１丁目１０番５号ＤＨビル４階,,27,128,5420086,,,,,,,2022-12-20,1,,,,,アイシーズ,0
1873,8120005023357,新規,0,2022-12-20,2022-12-20,弁理士法人野口新生特許事務所,,その他の設立登記法人,大阪府,大阪市浪速区,元町２丁目８番１号ラポール難波９階,,27,111,5560016,,,,,,,2022-12-20,1,,,,,ノグチシンセイトッキョジムショ,0
1876,8120901046873,新規,0,2022-12-20,2022-12-20,株式会社ドリームフォレスト,,株式会社,大阪府,吹田市,千里丘下１１番２８号,,27,205,5650813,,,,,,,2022-12-20,1,,,,,ドリームフォレスト,0
1891,8140001128430,新規,0,2022-12-20,2022-12-20,桜とさくら株式会社,,株式会社,兵庫県,神戸市北区,山田町小部字向井谷２０番,,28,109,6511101,,,,,,,2022-12-20,1,,,,,サクラトサクラ,0
1892,8140001128463,新規,0,2022-12-20,2022-12-20,ＧＲ．ｉｎｓｕｒａｎｃｅ株式会社,,株式会社,兵庫県,神戸市中央区,磯辺通３丁目２番１１号三宮ファーストビル６階,,28,110,6510084,,,,,,,2022-12-20,1,,,,,ジーアールインシュアランス,0
1894,8140003018489,新規,0,2022-12-20,2022-12-20,合同会社ｇｙｏｎｉｎｂｅｎ,,合同会社,兵庫県,神戸市中央区,中山手通４丁目１６－１４－２Ｆ,,28,110,6500004,,,,,,,2022-12-20,1,,,,,ギョウニンベン,0
1895,8140003018497,新規,0,2022-12-20,2022-12-20,こぐまファーマシー合同会社,,合同会社,兵庫県,加古川市,野口町古大内５９番地の６,,28,210,6750014,,,,,,,2022-12-20,1,,,,,コグマファーマシー,0
1901,8170001017416,新規,0,2022-12-20,2022-12-20,ＲＯＹＳ株式会社,,株式会社,和歌山県,橋本市,菖蒲谷２３２番地の１１,,30,203,6480082,,,,,,,2022-12-20,1,,,,,ロイズ,0
1910,8180001154258,新規,0,2022-12-20,2022-12-20,株式会社エムアイ,,株式会社,愛知県,名古屋市中区,栄５丁目２７番３号,,23,106,4600008,,,,,,,2022-12-20,1,,,,,エムアイ,0
1911,8180001154274,新規,0,2022-12-20,2022-12-20,高瀬モータース株式会社,00128845,株式会社,愛知県,名古屋市港区,小碓４丁目１２７番地の１,,23,111,4550801,,,,,,,2022-12-20,1,,,,,タカセモータース,0
1916,8180003024624,新規,0,2022-12-20,2022-12-20,合同会社アイ,,合同会社,愛知県,津島市,東柳原町３丁目１７番地,,23,208,4960045,,,,,,,2022-12-20,1,,,,,アイ,0
1920,8200001040785,新規,0,2022-12-20,2022-12-20,株式会社ＮＯ,,株式会社,岐阜県,各務原市,蘇原中央町３丁目５０番地,,21,213,5040813,,,,,,,2022-12-20,1,,,,,エヌオー,0
1921,8200001040793,新規,0,2022-12-20,2022-12-20,株式会社ダイヤ,,株式会社,岐阜県,瑞穂市,別府１６８３－１,,21,216,5010222,,,,,,,2022-12-20,1,,,,,ダイヤ,0
1924,8230001019645,新規,0,2022-12-20,2022-12-20,株式会社Ｒｕｍｂｕ,,株式会社,富山県,氷見市,柳田９３４番地１アラックスビル氷見１階,,16,205,9350031,,,,,,,2022-12-20,1,,,,,ルムブ,0
1939,8290801029136,新規,0,2022-12-20,2022-12-20,株式会社ＨＫＹ,,株式会社,福岡県,北九州市小倉北区,赤坂１丁目１０番３０号,,40,106,8020032,,,,,,,2022-12-20,1,,,,,エイチケイワイ,0
1944,8330001030419,新規,0,2022-12-20,2022-12-20,株式会社鹿角堂本舗,,株式会社,熊本県,熊本市東区,画図町大字所島７２５番地１,,43,102,8620946,,,,,,,2022-12-20,1,,,,,ロッカクドウホンポ,0
1949,8350005006124,新規,0,2022-12-20,2022-12-20,協同組合もろつかわーく,,その他の設立登記法人,宮崎県,東臼杵郡諸塚村,大字家代２６４０番地３,,45,429,8831301,,,,,,,2022-12-20,1,,,,,モロツカワーク,0
1958,8380001033342,新規,0,2022-12-20,2022-12-20,株式会社ＨＡＲＵＫＡ,,株式会社,福島県,会津若松市,材木町２丁目３番４４号,,07,202,9650853,,,,,,,2022-12-20,1,,,,,ハルカ,0
1963,8410003003728,新規,0,2022-12-20,2022-12-20,合同会社Ｌｉｂｅｒｔｙ,,合同会社,秋田県,秋田市,泉南３丁目３番１号２Ｆ,,05,201,0100918,,,,,,,2022-12-20,1,,,,,リバティ,0
1965,8420003002613,新規,0,2022-12-20,2022-12-20,合同会社Ｃｕｏｒｅ・Ｌｕｃｅ,,合同会社,青森県,八戸市,大字白銀町字三島上４１番地２３,,02,203,0310822,,,,,,,2022-12-20,1,,,,,クオレルーチェ,0
1973,8430001088075,新規,0,2022-12-20,2022-12-20,株式会社Ｃ．Ａ．Ｍ．Ｐ,,株式会社,北海道,札幌市中央区,南一条東２丁目２番５号,,01,101,0600051,,,,,,,2022-12-20,1,,,,,キャンプ,0
1977,8440003001497,新規,0,2022-12-20,2022-12-20,合同会社川島塗装,,合同会社,北海道,山越郡長万部町,字大浜６番地,,01,347,0493511,,,,,,,2022-12-20,1,,,,,カワシマトソウ,0
1984,8700150113432,新規,0,2022-12-20,2022-12-20,ＦＵＬＬＥＲＴＯＮ　ＩＮＴＥＲＮＡＴＩＯＮＡＬ　ＬＩＭＩＴＥＤ,,外国会社等,,,,,,,,Ｒｍ　０８，９／Ｆ，Ｃｈｅｖａｌｉｅｒ　Ｃｏｍｍｅｒｃｉａｌ　Ｃｅｎｔｒｅ，８　Ｗａｎｇ　Ｈｏｉ　Ｒｏａｄ，Ｋｏｗｌｏｏｎ　Ｂａｙ，Ｋｏｗｌｏｏｎ，Ｈｏｎｇ　Ｋｏｎｇ,,,,,,2022-12-20,1,,,,,フラートンインターナショナルリミテッド,0
1992,9010001231725,新規,0,2022-12-20,2022-12-20,株式会社ロッキー,,株式会社,東京都,千代田区,丸の内３丁目２－２丸の内二重橋ビル,,13,101,1000005,,,,,,,2022-12-20,1,,,,,ロッキー,0
2003,9010401171422,新規,0,2022-12-20,2022-12-20,株式会社鋼,,株式会社,東京都,港区,港南２丁目４－１３,,13,103,1080075,,,,,,,2022-12-20,1,,,,,ハガネ,0
2004,9010401171447,新規,0,2022-12-20,2022-12-20,株式会社ＬＡ　ＯＲＧ,,株式会社,東京都,港区,芝浦４丁目２２番１－２９１７号,,13,103,1080023,,,,,,,2022-12-20,1,,,,,ラオルグ,0
2005,9010401171455,新規,0,2022-12-20,2022-12-20,株式会社ＨｏｂｂｙＮｉｎｊａ,,株式会社,東京都,港区,南青山３丁目１番３６号青山丸竹ビル６Ｆ,,13,103,1070062,,,,,,,2022-12-20,1,,,,,ホビーニンジャ,0
2006,9010403029189,新規,0,2022-12-20,2022-12-20,ケルベロスリパブリック合同会社,,合同会社,東京都,港区,南青山３丁目１番３６号青山丸竹ビル６Ｆ,,13,103,1070062,,,,,,,2022-12-20,1,,,,,ケルベロスリパブリック,0
2010,9010501049766,新規,0,2022-12-20,2022-12-20,京連商事株式会社,,株式会社,東京都,台東区,松が谷２丁目９番１－３０７号,,13,106,1110036,,,,,,,2022-12-20,1,,,,,キョウレンショウジ,0
2014,9010601062339,新規,0,2022-12-20,2022-12-20,エスナレッジ株式会社,,株式会社,東京都,墨田区,両国４丁目２８番２－２０１号,,13,107,1300026,,,,,,,2022-12-20,1,,,,,エスナレッジ,0
2020,9010703006508,新規,0,2022-12-20,2022-12-20,合同会社松下,,合同会社,東京都,品川区,上大崎３丁目１番１号目黒セントラルスクエア１５階,,13,109,1410021,,,,,,,2022-12-20,1,,,,,マツシタ,0
2022,9010803004394,新規,0,2022-12-20,2022-12-20,城東住宅サービス合同会社,,合同会社,東京都,大田区,大森北２丁目１９番５号グレイスコート大森海岸１３０１,,13,111,1430016,,,,,,,2022-12-20,1,,,,,ジョウトウジュウタクサービス,0
2024,9011001151500,新規,0,2022-12-20,2022-12-20,株式会社ブルーオーシャン,,株式会社,東京都,渋谷区,広尾５丁目４番１６号ＥＡＴ・ＰＬＡＹ・ＷＯＲＫＳ３階,,13,113,1500012,,,,,,,2022-12-20,1,,,,,ブルーオーシャン,0
2025,9011001151525,新規,0,2022-12-20,2022-12-20,株式会社Ｇｒａｄｅｕｐ,,株式会社,東京都,渋谷区,円山町５番５号Ｎａｖｉ渋谷Ｖ３階,,13,113,1500044,,,,,,,2022-12-20,1,,,,,グレードアップ,0
2026,9011003015967,新規,0,2022-12-20,2022-12-20,合同会社ＲｅＴｈｉｎｋＣＳ,,合同会社,東京都,渋谷区,渋谷２丁目１９－１５宮益坂ビルディング６０９,,13,113,1500002,,,,,,,2022-12-20,1,,,,,リシンクシーエス,0
2031,9011101101223,新規,0,2022-12-20,2022-12-20,ＡＶＩＳＴＡＬ株式会社,,株式会社,東京都,新宿区,新宿１丁目３６－２新宿第七葉山ビル３Ｆ,,13,104,1600022,,,,,,,2022-12-20,1,,,,,アビスタル,0
2034,9011301028316,新規,0,2022-12-20,2022-12-20,株式会社シンクリエイト,,株式会社,東京都,杉並区,上高井戸１丁目５番２７号,,13,115,1680074,,,,,,,2022-12-20,1,,,,,シンクリエイト,0
2037,9011501028776,新規,0,2022-12-20,2022-12-20,Ｊａｐａｎ　Ｃａｐｉｔａｌ　Ｐａｒｔｎｅｒｓ株式会社,,株式会社,東京都,荒川区,南千住５丁目１１番３号,,13,118,1160003,,,,,,,2022-12-20,1,,,,,ジャパンキャピタルパートナーズ,0
2039,9011603003776,新規,0,2022-12-20,2022-12-20,ＣＲＥＡＴＩＶＥ・ＰＲＯＭＯＴＩＯＮ合同会社,,合同会社,東京都,練馬区,春日町２丁目８番２０号ＧＥＮＯＶＩＡ練馬春日町ｓｋｙｇａｒｄｅｎ６１３号室,,13,120,1790074,,,,,,,2022-12-20,1,,,,,クリエイティブプロモーション,0
2041,9011701025887,新規,0,2022-12-20,2022-12-20,株式会社Ｋ２Ｐｉｃｔｕｒｅｓ,,株式会社,東京都,江戸川区,清新町１丁目１番１－２０４号,,13,123,1340087,,,,,,,2022-12-20,1,,,,,ケーツーピクチャーズ,0
2053,9021001077760,新規,0,2022-12-20,2022-12-20,株式会社エムプラス,,株式会社,神奈川県,海老名市,扇町３番６号ＭＡＣセントラルビル２階２－Ｃ号室,,14,215,2430436,,,,,,,2022-12-20,1,,,,,エムプラス,0
2063,9030001151533,新規,0,2022-12-20,2022-12-20,振良株式会社,,株式会社,埼玉県,春日部市,新宿新田３０３番地６９,,11,214,3440113,,,,,,,2022-12-20,1,,,,,シンリョウ,0
2064,9030001151541,新規,0,2022-12-20,2022-12-20,株式会社レインボー,,株式会社,埼玉県,さいたま市桜区,桜田３丁目３－１浦和中央市場内Ｎ棟１号,,11,106,3380833,,,,,,,2022-12-20,1,,,,,レインボー,0
2074,9030003020785,新規,0,2022-12-20,2022-12-20,合同会社Ｈ＆Ｑ,,合同会社,埼玉県,吉川市,美南２丁目２４番地１－８２０号室,,11,243,3420038,,,,,,,2022-12-20,1,,,,,エイチアンドキュー,0
2080,9040003021535,新規,0,2022-12-20,2022-12-20,合同会社ＫＵＭＡＮＮ,,合同会社,千葉県,成田市,宗吾４丁目２６－８,,12,211,2860004,,,,,,,2022-12-20,1,,,,,クーマン,0
2106,9120001251118,新規,0,2022-12-20,2022-12-20,武徳国際船舶供應株式会社,,株式会社,大阪府,大阪市西成区,天下茶屋１丁目１－１６－３０４,,27,122,5570014,,,,,,,2022-12-20,1,,,,,ブトクコクサイセンパクキョウオウ,0
2107,9120001251183,新規,0,2022-12-20,2022-12-20,＿＿株式会社,00128844,株式会社,大阪府,大阪市浪速区,元町２丁目５番２７号３０７号室,,27,111,5560016,,,,,,,2022-12-20,1,,,,,コンクン,0
2108,9120001251191,新規,0,2022-12-20,2022-12-20,株式会社ｇｒａｎｄ　ｄｅｓｉｇｎ,,株式会社,大阪府,大阪市福島区,吉野２丁目１３番１０号,,27,103,5530006,,,,,,,2022-12-20,1,,,,,グランドデザイン,0
2109,9120001251233,新規,0,2022-12-20,2022-12-20,株式会社さくらいろ,,株式会社,大阪府,枚方市,津田元町１丁目１５番５号,,27,210,5730127,,,,,,,2022-12-20,1,,,,,サクライロ,0
2112,9120005023356,新規,0,2022-12-20,2022-12-20,ＮＰＯ法人ｈａｐｐｙ　ｊｕｎｋ,,その他の設立登記法人,大阪府,大阪市東成区,東中本２丁目４－２６－１Ｆ,,27,115,5370021,,,,,,,2022-12-20,1,,,,,ハッピージュンク,0
2115,9120101066688,新規,0,2022-12-20,2022-12-20,株式会社Ｃ．Ｔ．Ｓ,,株式会社,大阪府,阪南市,和泉鳥取８８１番地の６,,27,232,5990213,,,,,,,2022-12-20,1,,,,,シーティーエス,0
2116,9120103004984,新規,0,2022-12-20,2022-12-20,合同会社オール,,合同会社,大阪府,堺市北区,金岡町２７８２－７,,27,146,5918022,,,,,,,2022-12-20,1,,,,,オール,0
2130,9140001128462,新規,0,2022-12-20,2022-12-20,維登株式会社,,株式会社,兵庫県,姫路市,大津区天満１２６７番地,,28,201,6711143,,,,,,,2022-12-20,1,,,,,イトウ,0
2131,9140001128479,新規,0,2022-12-20,2022-12-20,Ｎａｗａｂ　Ｓａｈｉ株式会社,,株式会社,兵庫県,神戸市長田区,雲雀ケ丘３丁目６－５ヴィラナリー雲雀ヶ丘５号棟２０７,,28,106,6530879,,,,,,,2022-12-20,1,,,,,ナワブサヒ,0
2134,9140005026407,新規,0,2022-12-20,2022-12-20,一般社団法人千の愛,,その他の設立登記法人,兵庫県,芦屋市,精道町６番４号,,28,206,6590064,,,,,,,2022-12-20,1,,,,,センノアイ,0
2152,9200001040784,新規,0,2022-12-20,2022-12-20,株式会社ＳＯ,,株式会社,岐阜県,各務原市,蘇原中央町３丁目５０番地,,21,213,5040813,,,,,,,2022-12-20,1,,,,,エスオー,0
2157,9230001019644,新規,0,2022-12-20,2022-12-20,国土資源再生株式会社,,株式会社,富山県,中新川郡上市町,広野２９９８番２,,16,322,9300412,,,,,,,2022-12-20,1,,,,,コクドシゲンサイセイ,0
2170,9290001099879,新規,0,2022-12-20,2022-12-20,株式会社ワイズリバティ,,株式会社,福岡県,うきは市,吉井町福永１３－１ｇｒａｃｅＦ２０４,,40,225,8391305,,,,,,,2022-12-20,1,,,,,ワイズリバティ,0
2171,9290001099986,新規,0,2022-12-20,2022-12-20,株式会社ＳＡＫＡＩ,,株式会社,福岡県,福岡市早良区,西新４丁目１番１号２１０１号,,40,137,8140002,,,,,,,2022-12-20,1,,,,,サカイ,0
2174,9290801029135,新規,0,2022-12-20,2022-12-20,株式会社くろせ米,,株式会社,福岡県,京都郡みやこ町,犀川久富１６７３番地,,40,625,8240205,,,,,,,2022-12-20,1,,,,,クロセマイ,0
2178,9320001019478,新規,0,2022-12-20,2022-12-20,株式会社大分トロイカ,,株式会社,大分県,大分市,大字下判田１２１５番地の１,,44,201,8701112,,,,,,,2022-12-20,1,,,,,オオイタトロイカ,0
2179,9330001030418,新規,0,2022-12-20,2022-12-20,株式会社シバオウ,,株式会社,熊本県,玉名市,山田１９８２－２,,43,206,8650066,,,,,,,2022-12-20,1,,,,,シバオウ,0
2186,9360001031339,新規,0,2022-12-20,2022-12-20,Ａｓｐｉｒｅ株式会社,,株式会社,沖縄県,那覇市,牧志２丁目１７－２７－４０１,,47,201,9000013,,,,,,,2022-12-20,1,,,,,エスパイア,0
2190,9370003005926,新規,0,2022-12-20,2022-12-20,合同会社ｋｉｋａｋｕｙａ,,合同会社,宮城県,仙台市泉区,泉中央３丁目１４番地の９,,04,105,9813133,,,,,,,2022-12-20,1,,,,,キカクヤ,0
2198,9420001018098,新規,0,2022-12-20,2022-12-20,株式会社青森フクシンホームケアーズ,,株式会社,青森県,青森市,赤坂２丁目５番５号,,02,201,0300956,,,,,,,2022-12-20,1,,,,,アオモリフクシンホームケアーズ,0
2206,9430001088058,新規,0,2022-12-20,2022-12-20,株式会社ＲＩＺＥ,,株式会社,北海道,苫小牧市,美原町３丁目３番１０号,,01,213,0591262,,,,,,,2022-12-20,1,,,,,ライズ,0
2209,9430003014573,新規,0,2022-12-20,2022-12-20,Ｋ．Ｒ．Ｋ．Ｃ合同会社,,合同会社,北海道,札幌市中央区,南一条西１１丁目３２７－１２センターパーキングビル４０１,,01,101,0600061,,,,,,,2022-12-20,1,,,,,ケーアールケーシー,0
2216,9480003001906,新規,0,2022-12-20,2022-12-20,合同会社プロメディックコンサルタンツ,,合同会社,徳島県,徳島市,北田宮３丁目１番１－４０５号,,36,201,7700003,,,,,,,2022-12-20,1,,,,,プロメディックコンサルタンツ,0
