sequenceNumber,corporateNumber,process,correct,updateDate,changeDate,name,nameImageId,kind,prefectureName,cityName,streetNumber,addressImageId,prefectureCode,cityCode,postCode,addressOutside,addressOutsideImageId,closeDate,closeCause,successorCorporateNumber,changeCause,assignmentDate,latest,enName,enPrefectureName,enCityName,enAddressOutside,furigana,hihyoji
8,1010001249535,新規,0,2024-11-12,2024-11-12,株式会社Ｏｎｅｓｐｉｒｅ,,株式会社,東京都,千代田区,九段南１丁目５番６号りそな九段ビル５階ＫＳフロア,,13,101,1020074,,,,,,,2024-11-12,1,,,,,ワンスパイア,0
9,1010001249915,新規,0,2024-11-12,2024-11-12,株式会社タエコニ,,株式会社,東京都,小笠原村,母島字元地ＹＫびれっじ１０１,,13,421,1002211,,,,,,,2024-11-12,1,,,,,タエコニ,0
18,1010003045387,新規,0,2024-11-12,2024-11-12,ＰｗＣ関税貿易アドバイザリー合同会社,,合同会社,東京都,千代田区,大手町１丁目２番１号,,13,101,1000004,,,,,,,2024-11-12,1,,,,,ピーダブリューシーカンゼイボウエキアドバイザリー,0
19,1010003045412,新規,0,2024-11-12,2024-11-12,合同会社ＣＲＵＩＳＥ,,合同会社,東京都,中央区,銀座７丁目１３－２１,,13,102,1040061,,,,,,,2024-11-12,1,,,,,クルーズ,0
20,1010003045420,新規,0,2024-11-12,2024-11-12,合同会社Ａｎｄａｌｕｘｕｒｙ,,合同会社,東京都,中央区,京橋１丁目３番２号,,13,102,1040031,,,,,,,2024-11-12,1,,,,,アンダルゥシュリィ,0
33,1010401185966,新規,0,2024-11-12,2024-11-12,エーゼリック株式会社,,株式会社,東京都,港区,北青山１丁目３番１号アールキューブ青山３階,,13,103,1070061,,,,,,,2024-11-12,1,,,,,エーゼリック,0
34,1010401186270,新規,0,2024-11-12,2024-11-12,株式会社ＡＴＰＬＯＮ,,株式会社,東京都,港区,南青山３丁目１番３６号青山丸竹ビル６階,,13,103,1070062,,,,,,,2024-11-12,1,,,,,アトピロン,0
35,1010401186279,新規,0,2024-11-12,2024-11-12,株式会社シバ吉,,株式会社,東京都,港区,芝大門２丁目２－１ＡＣＮ芝大門ビルディング６Ｆ・７Ｆ,,13,103,1050012,,,,,,,2024-11-12,1,,,,,シバキチ,0
42,1010601066248,新規,0,2024-11-12,2024-11-12,永順株式会社,,株式会社,東京都,江東区,亀戸３丁目６２番１０－２０１号,,13,108,1360071,,,,,,,2024-11-12,1,,,,,エイジュン,0
46,1010901056279,新規,0,2024-11-12,2024-11-12,Ｔ．Ｄ．Ｃ‐Ｍｏｒｅ株式会社,,株式会社,東京都,世田谷区,上祖師谷６丁目１４番２２号ブランテラサ１０２,,13,112,1570065,,,,,,,2024-11-12,1,,,,,ティーディーシーモア,0
54,1011003020355,新規,0,2024-11-12,2024-11-12,合同会社Ｃｏ‐Ｌａｂｏ,,合同会社,東京都,目黒区,中目黒５丁目３－１３プランドール中目黒１０８号室,,13,110,1530061,,,,,,,2024-11-12,1,,,,,コラボ,0
55,1011003020405,新規,0,2024-11-12,2024-11-12,ブラックベル合同会社,,合同会社,東京都,渋谷区,道玄坂１丁目１０番８号渋谷道玄坂東急ビル２Ｆ‐Ｃ,,13,113,1500043,,,,,,,2024-11-12,1,,,,,ブラックベル,0
60,1011101109521,新規,0,2024-11-12,2024-11-12,株式会社Ａｄｄ　Ｒｏａｄ,,株式会社,東京都,新宿区,西新宿３丁目３番１３号西新宿水間ビル６階,,13,104,1600023,,,,,,,2024-11-12,1,,,,,アドロード,0
63,1011103015156,新規,0,2024-11-12,2024-11-12,合同会社シクミテック,,合同会社,東京都,新宿区,西新宿３丁目５番１２号トーカン新宿第２キャステール２０９号室,,13,104,1600023,,,,,,,2024-11-12,1,,,,,シクミテック,0
66,1011401026490,新規,0,2024-11-12,2024-11-12,株式会社ボブス,,株式会社,東京都,板橋区,大山金井町１６－８メゾンゴールド２０６,,13,119,1730024,,,,,,,2024-11-12,1,,,,,ボブス,0
72,1011803006545,新規,0,2024-11-12,2024-11-12,ＧＡＺＩＦＹ合同会社,,合同会社,東京都,葛飾区,立石４丁目１２－５メイクハウス立石１０３号室,,13,122,1240012,,,,,,,2024-11-12,1,,,,,ガジファイ,0
75,1012801023565,新規,0,2024-11-12,2024-11-12,株式会社ＮＯＩＥ,,株式会社,東京都,国分寺市,新町１丁目６番地１４,,13,214,1850004,,,,,,,2024-11-12,1,,,,,ノイエ,0
79,1020001160014,新規,0,2024-11-12,2024-11-12,株式会社ＮＥＯ,,株式会社,神奈川県,横浜市中区,根岸旭台５０番地５,,14,104,2310854,,,,,,,2024-11-12,1,,,,,ネオ,0
83,1020003027228,新規,0,2024-11-12,2024-11-12,合同会社フォレストフィールド,,合同会社,神奈川県,横浜市神奈川区,金港町５－１４クアドリフォリオ８階,,14,102,2210056,,,,,,,2024-11-12,1,,,,,フォレストフィールド,0
88,1021001083741,新規,0,2024-11-12,2024-11-12,株式会社ＬｉｔｔｌｅＲｕｎ,,株式会社,神奈川県,藤沢市,大庭５０９４番地の５,,14,205,2510861,,,,,,,2024-11-12,1,,,,,リトルラン,0
89,1021003015230,新規,0,2024-11-12,2024-11-12,カニストフェリス合同会社,,合同会社,神奈川県,相模原市緑区,下九沢２９５８番地７プレンティーハイム２０５号,,14,151,2520134,,,,,,,2024-11-12,1,,,,,カニストフェリス,0
96,1030001163338,新規,0,2024-11-12,2024-11-12,順景株式会社,,株式会社,埼玉県,川口市,本町４丁目３番６－５０１号,,11,203,3320012,,,,,,,2024-11-12,1,,,,,ジュンケイ,0
97,1030001163354,新規,0,2024-11-12,2024-11-12,株式会社ＡＳＴＥＸ,,株式会社,埼玉県,久喜市,古久喜１９５－１２,,11,232,3460001,,,,,,,2024-11-12,1,,,,,アステックス,0
98,1030001163362,新規,0,2024-11-12,2024-11-12,長栄株式会社,,株式会社,埼玉県,さいたま市浦和区,大東１丁目１６番１９号,,11,107,3300043,,,,,,,2024-11-12,1,,,,,チョウエイ,0
99,1030001163379,新規,0,2024-11-12,2024-11-12,株式会社夢,,株式会社,埼玉県,春日部市,赤沼１３５５番地,,11,214,3440015,,,,,,,2024-11-12,1,,,,,ユメ,0
100,1030001163404,新規,0,2024-11-12,2024-11-12,ショウブ電設株式会社,,株式会社,埼玉県,加須市,中種足９８１番地５,,11,210,3470114,,,,,,,2024-11-12,1,,,,,ショウブデンセツ,0
101,1030001163412,新規,0,2024-11-12,2024-11-12,株式会社アルシェット,,株式会社,埼玉県,さいたま市大宮区,桜木町１丁目１９５番地１大宮ソラミチＫＯＺ４階,,11,103,3300854,,,,,,,2024-11-12,1,,,,,アルシェット,0
107,1030003025296,新規,0,2024-11-12,2024-11-12,ＥＣＳ合同会社,,合同会社,埼玉県,さいたま市浦和区,東仲町１５－８－５０１,,11,107,3300056,,,,,,,2024-11-12,1,,,,,イーシーエス,0
108,1030003025437,新規,0,2024-11-12,2024-11-12,レイジェス合同会社,,合同会社,埼玉県,さいたま市見沼区,大字風渡野３１３－７,,11,104,3370017,,,,,,,2024-11-12,1,,,,,レイジェス,0
120,1060003005320,新規,0,2024-11-12,2024-11-12,優那合同会社,,合同会社,栃木県,宇都宮市,岩曽町１３７７－１０２,,09,201,3210973,,,,,,,2024-11-12,1,,,,,ユウナ,0
121,1070003005658,新規,0,2024-11-12,2024-11-12,合同会社Ｇｉｒａｓｏｌ,,合同会社,群馬県,館林市,広内町５番４７号,,10,207,3740062,,,,,,,2024-11-12,1,,,,,ヒラソル,0
147,1120001270001,新規,0,2024-11-12,2024-11-12,明和株式会社,,株式会社,大阪府,大阪市西区,江之子島１丁目７番３－７１１号室,,27,106,5500006,,,,,,,2024-11-12,1,,,,,メイワ,0
148,1120001270174,新規,0,2024-11-12,2024-11-12,大国株式会社,,株式会社,大阪府,大阪市北区,西天満４丁目３番１１号西天満ＦＵＫＵＥビル６０２,,27,127,5300047,,,,,,,2024-11-12,1,,,,,ダイコク,0
150,1120003027952,新規,0,2024-11-12,2024-11-12,理科楽舎合同会社,,合同会社,大阪府,大阪市北区,梅田１丁目１－３大阪駅前第３ビル２９階１－１－１号室,,27,127,5300001,,,,,,,2024-11-12,1,,,,,リカガクシャ,0
153,1120903005371,新規,0,2024-11-12,2024-11-12,合同会社クォーツ,,合同会社,大阪府,茨木市,新中条町１番３０号ターミナルズ茨木５０２号,,27,211,5670872,,,,,,,2024-11-12,1,,,,,クォーツ,0
155,1122001038634,新規,0,2024-11-12,2024-11-12,株式会社ＤＥＥＰＳＥＡ,,株式会社,大阪府,東大阪市,下小阪４丁目５－２０－４０５,,27,227,5770803,,,,,,,2024-11-12,1,,,,,ディープシー,0
157,1122003003033,新規,0,2024-11-12,2024-11-12,合同会社ＺＡＰ,,合同会社,大阪府,東大阪市,森河内東１丁目１２番１３号,,27,227,5770062,,,,,,,2024-11-12,1,,,,,ザップ,0
159,1130001078328,新規,0,2024-11-12,2024-11-12,Ｎｉｓｋａｌａ　Ｖｅｎｔｕｒｅｓ株式会社,,株式会社,京都府,京都市下京区,五条通油小路西入ル北側小泉町１１３－１パティオ林８０２号室,,26,106,6000000,,,,,,,2024-11-12,1,,,,,ニシカラベンチャーズ,0
160,1130001078336,新規,0,2024-11-12,2024-11-12,株式会社Ｍ　ｓｔｙｌｅ,,株式会社,京都府,京都市伏見区,久我御旅町４番地１１６,,26,109,6128493,,,,,,,2024-11-12,1,,,,,エムスタイル,0
161,1130001078344,新規,0,2024-11-12,2024-11-12,株式会社かずし電気設備,,株式会社,京都府,京都市右京区,嵯峨釈迦堂藤ノ木町８－８,00136973,26,108,6168447,,,,,,,2024-11-12,1,,,,,カズシデンキセツビ,0
171,1140001136308,新規,0,2024-11-12,2024-11-12,株式会社カジテック,,株式会社,兵庫県,加東市,北野９８番地,,28,228,6790205,,,,,,,2024-11-12,1,,,,,カジテック,0
172,1140001136381,新規,0,2024-11-12,2024-11-12,株式会社ＹＵＴＡＫＡ,,株式会社,兵庫県,神戸市東灘区,御影中町４丁目５番１８号,,28,101,6580054,,,,,,,2024-11-12,1,,,,,ユタカ,0
173,1140001136398,新規,0,2024-11-12,2024-11-12,株式会社Ｍ＆Ｄ,,株式会社,兵庫県,神戸市西区,伊川谷町有瀬６９６－４７－２０１,,28,111,6512113,,,,,,,2024-11-12,1,,,,,エムアンドディー,0
174,1140001136407,新規,0,2024-11-12,2024-11-12,株式会社レヴェル,,株式会社,兵庫県,神戸市中央区,磯辺通３丁目２－１７ワールド三宮ビル８階,,28,110,6510084,,,,,,,2024-11-12,1,,,,,レヴェル,0
180,1140003021318,新規,0,2024-11-12,2024-11-12,合同会社ｌ’ｕｎｉＱｕｅ．,,合同会社,兵庫県,西宮市,熊野町９－２１－５０５,,28,204,6638103,,,,,,,2024-11-12,1,,,,,ユニック,0
181,1140005027263,新規,0,2024-11-12,2024-11-12,一般社団法人酉友,,その他の設立登記法人,兵庫県,西宮市,浜町１３番１０号,,28,204,6620942,,,,,,,2024-11-12,1,,,,,ユウ,0
186,1160003003330,新規,0,2024-11-12,2024-11-12,Ｓａｌｏｎ　Ｓａｎａ合同会社,,合同会社,滋賀県,長浜市,田村町８６１竹中ビル３０６,,25,203,5260829,,,,,,,2024-11-12,1,,,,,サロンサナ,0
187,1170001018379,新規,0,2024-11-12,2024-11-12,株式会社ランテック,,株式会社,和歌山県,和歌山市,西田井４３２番地２,,30,201,6496335,,,,,,,2024-11-12,1,,,,,ランテック,0
191,1180001164065,新規,0,2024-11-12,2024-11-12,株式会社ＶＩＳＣＡ,,株式会社,愛知県,名古屋市中区,栄３丁目１２番地６インペリアルプラザビルＢ１階,,23,106,4600008,,,,,,,2024-11-12,1,,,,,ヴィスカ,0
192,1180001164073,新規,0,2024-11-12,2024-11-12,株式会社ダムバニー,,株式会社,愛知県,名古屋市中村区,諏訪町１丁目５番１６号,,23,105,4530062,,,,,,,2024-11-12,1,,,,,ダムバニー,0
193,1180001164081,新規,0,2024-11-12,2024-11-12,株式会社名古屋ライテック,,株式会社,愛知県,名古屋市港区,七番町５丁目１０番地,,23,111,4550001,,,,,,,2024-11-12,1,,,,,ナゴヤライテック,0
194,1180001164115,新規,0,2024-11-12,2024-11-12,株式会社ｇａｒｕｍｏ,,株式会社,愛知県,名古屋市中村区,名駅４丁目２４番５号第２森ビル４０１,,23,105,4500002,,,,,,,2024-11-12,1,,,,,ガルモ,0
195,1180003027575,新規,0,2024-11-12,2024-11-12,合同会社Ｋ．フォレスト,,合同会社,愛知県,海部郡大治町,大字西條字柳原４１番地の１,,23,424,4901144,,,,,,,2024-11-12,1,,,,,ケイフォレスト,0
196,1180003027583,新規,0,2024-11-12,2024-11-12,合同会社Ｐｈａｓｍｅ,,合同会社,愛知県,小牧市,大字北外山１９６２番地１１２,,23,219,4850023,,,,,,,2024-11-12,1,,,,,ファズム,0
197,1180301039223,新規,0,2024-11-12,2024-11-12,株式会社日向,,株式会社,愛知県,岡崎市,箱柳町字川南西３番地５,,23,202,4440001,,,,,,,2024-11-12,1,,,,,ヒナタ,0
202,1190003004854,新規,0,2024-11-12,2024-11-12,國分自動車合同会社,,合同会社,三重県,伊賀市,西湯舟２３７６番地７,,24,216,5181301,,,,,,,2024-11-12,1,,,,,コクブジドウシャ,0
203,1200001043118,新規,0,2024-11-12,2024-11-12,株式会社ＫＩＳＯＮＡ,,株式会社,岐阜県,中津川市,駒場１４５７番地の１３,,21,206,5080011,,,,,,,2024-11-12,1,,,,,キソナ,0
208,1240001064102,新規,0,2024-11-12,2024-11-12,株式会社零壱,,株式会社,広島県,三次市,畠敷町１６６４番地１６,,34,209,7280006,,,,,,,2024-11-12,1,,,,,ゼロワン,0
213,1240003006936,新規,0,2024-11-12,2024-11-12,合同会社五味五感,,合同会社,広島県,福山市,神辺町大字新湯野３３番地８,,34,207,7202122,,,,,,,2024-11-12,1,,,,,ゴミゴカン,0
216,1260001039630,新規,0,2024-11-12,2024-11-12,Ｏ’ｚバックアップ津山株式会社,,株式会社,岡山県,津山市,大田８６番地５,,33,203,7080806,,,,,,,2024-11-12,1,,,,,オーズバックアップツヤマ,0
218,1260003004954,新規,0,2024-11-12,2024-11-12,サンホームズプロダクツジャパン合同会社,,合同会社,岡山県,倉敷市,児島柳田町１３２９番地１８号,,33,202,7110936,,,,,,,2024-11-12,1,,,,,サンホームズプロダクツジャパン,0
219,1260003004962,新規,0,2024-11-12,2024-11-12,合同会社Ａ．ＭＡＺＩＯ,,合同会社,岡山県,倉敷市,庄新町４番２－８号,,33,202,7010102,,,,,,,2024-11-12,1,,,,,アメイジオ,0
224,1290003016039,新規,0,2024-11-12,2024-11-12,ウェブラース合同会社,,合同会社,福岡県,福岡市中央区,天神１丁目９－１７福岡天神フコク生命ビル１５階,,40,133,8100001,,,,,,,2024-11-12,1,,,,,ウェブラース,0
230,1320001020798,新規,0,2024-11-12,2024-11-12,株式会社渡辺活魚,,株式会社,大分県,佐伯市,米水津大字小浦３３４番地１,,44,205,8761404,,,,,,,2024-11-12,1,,,,,ワタナベカツギョ,0
236,1340001026934,新規,0,2024-11-12,2024-11-12,株式会社康成水産,,株式会社,鹿児島県,垂水市,中俣１９６番地１３,,46,214,8912102,,,,,,,2024-11-12,1,,,,,コウセイスイサン,0
238,1340003004657,新規,0,2024-11-12,2024-11-12,合同会社Ｍ‐ＴＥＣＨ,,合同会社,鹿児島県,鹿児島市,岡之原町３１４６番地１,,46,201,8911201,,,,,,,2024-11-12,1,,,,,エムテック,0
240,1370001051921,新規,0,2024-11-12,2024-11-12,株式会社ＲＰＭ,,株式会社,宮城県,仙台市青葉区,一番町１丁目１２番３９－５０５号,,04,101,9800811,,,,,,,2024-11-12,1,,,,,アールピーエム,0
241,1370003006816,新規,0,2024-11-12,2024-11-12,ウォント合同会社,,合同会社,宮城県,石巻市,大瓜字小福地１３番地,,04,202,9860005,,,,,,,2024-11-12,1,,,,,ウォント,0
244,1380001034900,新規,0,2024-11-12,2024-11-12,株式会社コーイングス,,株式会社,福島県,会津若松市,飯寺南２丁目４番１号レジオンド・ヌールＩＩ２０２,00136974,07,202,9650840,,,,,,,2024-11-12,1,,,,,コーイングス,0
247,1400001016846,新規,0,2024-11-12,2024-11-12,株式会社Ｍ’Ｓ,,株式会社,岩手県,上閉伊郡大槌町,小鎚第１４地割５４番地,,03,461,0281121,,,,,,,2024-11-12,1,,,,,エムズ,0
248,1400001016854,新規,0,2024-11-12,2024-11-12,株式会社ＡＧＵＲＥ　ｐｌｕｓ,,株式会社,岩手県,盛岡市,境田町５番１７号,,03,201,0200041,,,,,,,2024-11-12,1,,,,,アグレプラス,0
260,1430001093040,新規,0,2024-11-12,2024-11-12,株式会社ハローワールド,,株式会社,北海道,札幌市中央区,南一条西１６丁目１番地３２３春野ビル３Ｆ,,01,101,0600061,,,,,,,2024-11-12,1,,,,,ハローワールド,0
261,1430003016973,新規,0,2024-11-12,2024-11-12,合同会社Ｒｉｎ,,合同会社,北海道,札幌市豊平区,平岸四条７丁目１０番１７－３０１号,,01,105,0620934,,,,,,,2024-11-12,1,,,,,リン,0
263,1430005015107,新規,0,2024-11-12,2024-11-12,天理教北実分教会,,その他の設立登記法人,北海道,美唄市,東五条北６丁目１番９号,,01,215,0720006,,,,,,,2024-11-12,1,,,,,テンリキョウホクジツブンキョウカイ,0
264,1462501001017,新規,0,2024-11-12,2024-11-12,株式会社シン・ベッツ,,株式会社,北海道,野付郡別海町,別海川上町２０番地の４６,,01,691,0860215,,,,,,,2024-11-12,1,,,,,シンベッツ,0
268,1490003001953,新規,0,2024-11-12,2024-11-12,合同会社いつも,,合同会社,高知県,土佐市,蓮池７４８番地５,,39,205,7811105,,,,,,,2024-11-12,1,,,,,,0
270,1700150127777,新規,0,2024-11-12,2024-11-12,Ｓｉｒｉｕｓ　Ｉｎｔｅｒｎａｔｉｏｎａｌ　Ｃｏｒｐｏｒａｔｅ　Ｍｅｍｂｅｒ　Ｌｉｍｉｔｅｄ,,外国会社等,,,,,,,,Ｏｎｅ　Ｌｉｍｅ　Ｓｔｒｅｅｔ，Ｌｏｎｄｏｎ　ＥＣ３Ｍ　７ＨＡ　ＵＫ,,,,,,2024-11-12,1,,,,,シリウスインターナシヨナルコーポレートメンバーリミテツド,0
293,2010101016396,新規,0,2024-11-12,2024-11-12,株式会社そしじ,,株式会社,東京都,八王子市,大塚６３８－１－１０８,,13,201,1920352,,,,,,,2024-11-12,1,,,,,ソシジ,0
305,2010501053163,新規,0,2024-11-12,2024-11-12,谷中クラフトコーラ株式会社,,株式会社,東京都,台東区,上野６丁目１番６号御徒町グリーンハイツ１００５号,,13,106,1100005,,,,,,,2024-11-12,1,,,,,ヤナカクラフトコーラ,0
311,2010605004392,新規,0,2024-11-12,2024-11-12,一般社団法人日本チャイルドアンドマザーケア協会,,その他の設立登記法人,東京都,江東区,北砂３丁目４番２７号,,13,108,1360073,,,,,,,2024-11-12,1,,,,,ニホンチャイルドアンドマザーケアキョウカイ,0
314,2010901056294,新規,0,2024-11-12,2024-11-12,ＦＬＹ　Ｓｈｏｒｉ株式会社,,株式会社,東京都,世田谷区,三宿１丁目４番２１号,,13,112,1540005,,,,,,,2024-11-12,1,,,,,フライショリ,0
320,2011001165688,新規,0,2024-11-12,2024-11-12,コードラフト株式会社,,株式会社,東京都,渋谷区,円山町５番５号Ｎａｖｉ渋谷Ｖ３階,,13,113,1500044,,,,,,,2024-11-12,1,,,,,コードラフト,0
321,2011001165746,新規,0,2024-11-12,2024-11-12,株式会社月桃,,株式会社,東京都,渋谷区,道玄坂１丁目１０番８号渋谷道玄坂東急ビル２Ｆ－Ｃ,,13,113,1500043,,,,,,,2024-11-12,1,,,,,ゲット,0
324,2011101109470,新規,0,2024-11-12,2024-11-12,株式会社ステイプ,,株式会社,東京都,新宿区,西新宿３丁目３番１３号西新宿水間ビル２Ｆ,,13,104,1600023,,,,,,,2024-11-12,1,,,,,ステイプ,0
325,2011101109529,新規,0,2024-11-12,2024-11-12,Ａｉ　Ｓａｋｕｒａ株式会社,,株式会社,東京都,新宿区,大久保１丁目２番１号,,13,104,1690072,,,,,,,2024-11-12,1,,,,,アイサクラ,0
326,2011203004529,新規,0,2024-11-12,2024-11-12,合同会社高橋企画,,合同会社,東京都,中野区,鷺宮６丁目２８‐２パレステージ鷺宮１１７,,13,114,1650032,,,,,,,2024-11-12,1,,,,,タカハシキカク,0
335,2011801045131,新規,0,2024-11-12,2024-11-12,金橋株式会社,,株式会社,東京都,葛飾区,東四つ木４丁目２番１２号,,13,122,1240014,,,,,,,2024-11-12,1,,,,,キンバシ,0
338,2011803006544,新規,0,2024-11-12,2024-11-12,合同会社Ｃａｎｖａｓ,,合同会社,東京都,足立区,千住緑町２丁目４番３号ＣＲＡＳＴＩＮＥ千住緑町２階,,13,121,1200044,,,,,,,2024-11-12,1,,,,,キャンバス,0
342,2012401042477,新規,0,2024-11-12,2024-11-12,株式会社三代目鳥松,,株式会社,東京都,府中市,住吉町１丁目４８番３号木村ビル１階,,13,206,1830034,,,,,,,2024-11-12,1,,,,,サンダイメトリマツ,0
351,2020001160021,新規,0,2024-11-12,2024-11-12,Ｎスマイル株式会社,,株式会社,神奈川県,横浜市中区,扇町２丁目４－２横浜関内京浜ビル９０３,,14,104,2310027,,,,,,,2024-11-12,1,,,,,エヌスマイル,0
352,2020001160054,新規,0,2024-11-12,2024-11-12,ＭＩＮＤ　ＩＮ　ＡＷＥ株式会社,,株式会社,神奈川県,横浜市神奈川区,新町２番地２クリオ神奈川新町壱番館２０５号,,14,102,2210043,,,,,,,2024-11-12,1,,,,,マインドインオー,0
360,2021001083757,新規,0,2024-11-12,2024-11-12,株式会社風里,,株式会社,神奈川県,横須賀市,大滝町２丁目９番地２階,,14,201,2380008,,,,,,,2024-11-12,1,,,,,フウリ,0
363,2021005013215,新規,0,2024-11-12,2024-11-12,学校法人日本財団ドワンゴ学園,,その他の設立登記法人,神奈川県,逗子市,新宿３丁目１２番１１号,,14,208,2490007,,,,,,,2024-11-12,1,,,,,ニッポンザイダンドワンゴガクエン,0
369,2030001163353,新規,0,2024-11-12,2024-11-12,株式会社ＳｕｎＦｌｏｗｅｒ,,株式会社,埼玉県,川口市,中青木２丁目１８番２２－２０８号,,11,203,3320032,,,,,,,2024-11-12,1,,,,,サンフラワー,0
370,2030001163361,新規,0,2024-11-12,2024-11-12,株式会社タイヨウ,,株式会社,埼玉県,越谷市,宮本町３丁目９－５,,11,222,3430806,,,,,,,2024-11-12,1,,,,,タイヨウ,0
371,2030001163394,新規,0,2024-11-12,2024-11-12,株式会社ひいろ,,株式会社,埼玉県,川越市,大字木野目４０１番地４,,11,201,3500016,,,,,,,2024-11-12,1,,,,,ヒイロ,0
375,2030003025469,新規,0,2024-11-12,2024-11-12,合同会社ＨＩＴＯＨＡＫＯ,,合同会社,埼玉県,所沢市,西所沢１丁目１７－１３－２０２,,11,208,3591144,,,,,,,2024-11-12,1,,,,,ヒトハコ,0
381,2040001136085,新規,0,2024-11-12,2024-11-12,リベロテック株式会社,,株式会社,千葉県,市原市,五井西４丁目２２番地１７,,12,219,2900038,,,,,,,2024-11-12,1,,,,,リベロテック,0
384,2040003026169,新規,0,2024-11-12,2024-11-12,合同会社湘南運送,,合同会社,千葉県,千葉市若葉区,みつわ台５丁目５番１号ＣＩＴＹ５６ドエルクロコ３０２号,,12,104,2640032,,,,,,,2024-11-12,1,,,,,ショウナンウンソウ,0
385,2040003026177,新規,0,2024-11-12,2024-11-12,ライフクリエイトマネジメント合同会社,,合同会社,千葉県,成田市,本城３１－５,,12,211,2860114,,,,,,,2024-11-12,1,,,,,ライフクリエイトマネジメント,0
394,2070003005657,新規,0,2024-11-12,2024-11-12,合同会社Ｆｏｒｅｖｅｒ,,合同会社,群馬県,太田市,新田木崎町１２６２番地６,,10,205,3700321,,,,,,,2024-11-12,1,,,,,フォーエバー,0
415,2120001270058,新規,0,2024-11-12,2024-11-12,康維株式会社,,株式会社,大阪府,大阪市港区,港晴４丁目１４番５号港晴パールシティビル,,27,107,5520023,,,,,,,2024-11-12,1,,,,,コウイ,0
416,2120001270165,新規,0,2024-11-12,2024-11-12,恒通株式会社,,株式会社,大阪府,大阪市淀川区,木川西１丁目６番２７号,,27,123,5320013,,,,,,,2024-11-12,1,,,,,コウツウ,0
417,2120001270181,新規,0,2024-11-12,2024-11-12,株式会社イリアル,,株式会社,大阪府,大阪市北区,梅田１丁目２－２大阪駅前第２ビル１２－１２,,27,127,5300001,,,,,,,2024-11-12,1,,,,,イリアル,0
418,2120001270215,新規,0,2024-11-12,2024-11-12,株式会社八五,,株式会社,大阪府,大阪市住吉区,大領５丁目８番１０号,,27,120,5580001,,,,,,,2024-11-12,1,,,,,ヤチゴ,0
419,2120001270256,新規,0,2024-11-12,2024-11-12,株式会社ディー・アイ西日本,,株式会社,大阪府,大阪市福島区,吉野３丁目６番１４号,,27,103,5530006,,,,,,,2024-11-12,1,,,,,ディーアイニシニホン,0
420,2120003027943,新規,0,2024-11-12,2024-11-12,マネージライフ合同会社,,合同会社,大阪府,大阪市北区,梅田１丁目２番２号大阪駅前第２ビル１２－１２,,27,127,5300001,,,,,,,2024-11-12,1,,,,,マネージライフ,0
428,2120903005412,新規,0,2024-11-12,2024-11-12,合同会社ＴＳＵＢＡＳＡ．Ｃ,,合同会社,大阪府,吹田市,垂水町１丁目３６番１２－１号,,27,205,5640062,,,,,,,2024-11-12,1,,,,,ツバサドットシー,0
432,2122003003032,新規,0,2024-11-12,2024-11-12,ＪＮＰａｎｄａ合同会社,,合同会社,大阪府,東大阪市,足代北２丁目１３番８号ナバマンション５０５,,27,227,5770058,,,,,,,2024-11-12,1,,,,,ジェイエヌパンダ,0
435,2130001078343,新規,0,2024-11-12,2024-11-12,株式会社Ｍ‐Ｌａｂｏ,,株式会社,京都府,城陽市,寺田乾出北２６番地,,26,207,6100121,,,,,,,2024-11-12,1,,,,,エムラボ,0
436,2130001078351,新規,0,2024-11-12,2024-11-12,株式会社ＳＨＩＭＯＨＡ,,株式会社,京都府,京都市下京区,玉津島町松原通室町東入２９４コモンルーム四条烏丸,,26,106,6008427,,,,,,,2024-11-12,1,,,,,シモハ,0
446,2140001136397,新規,0,2024-11-12,2024-11-12,株式会社ｐａｓｓｉｖｅ　ｉｎｃｏｍｅ,,株式会社,兵庫県,洲本市,由良２丁目３番８号,,28,205,6562541,,,,,,,2024-11-12,1,,,,,パッシブインカム,0
447,2140001136406,新規,0,2024-11-12,2024-11-12,株式会社キョウウン,,株式会社,兵庫県,神戸市東灘区,住吉宮町４丁目１番１５号－６０１,,28,101,6580053,,,,,,,2024-11-12,1,,,,,キョウウン,0
448,2140001136422,新規,0,2024-11-12,2024-11-12,華瑞ビジネス株式会社,,株式会社,兵庫県,三田市,宮脇１５１,,28,219,6691317,,,,,,,2024-11-12,1,,,,,カズイビジネス,0
449,2140003021317,新規,0,2024-11-12,2024-11-12,カミーユ経営パーラー合同会社,,合同会社,兵庫県,西宮市,段上町７丁目５番４４号,,28,204,6638006,,,,,,,2024-11-12,1,,,,,カミーユケイエイパーラー,0
450,2140005027262,新規,0,2024-11-12,2024-11-12,一般社団法人西宮タイガース,,その他の設立登記法人,兵庫県,西宮市,甲東園２丁目４番１０－２０３号,,28,204,6620812,,,,,,,2024-11-12,1,,,,,ニシノミヤタイガース,0
453,2170001018378,新規,0,2024-11-12,2024-11-12,株式会社ソレアド,,株式会社,和歌山県,西牟婁郡上富田町,朝来３２０番地の１３,,30,404,6492105,,,,,,,2024-11-12,1,,,,,ソレアド,0
454,2170003002124,新規,0,2024-11-12,2024-11-12,合同会社ＮＯＢＯＲＵ,,合同会社,和歌山県,有田郡湯浅町,大字湯浅２０６５番地２４,,30,361,6430004,,,,,,,2024-11-12,1,,,,,ノボル,0
458,2180001164056,新規,0,2024-11-12,2024-11-12,株式会社Ｔ３,,株式会社,愛知県,名古屋市中区,栄１丁目７番２８号,,23,106,4600008,,,,,,,2024-11-12,1,,,,,ティースリー,0
459,2180001164072,新規,0,2024-11-12,2024-11-12,株式会社京,,株式会社,愛知県,名古屋市中川区,本前田町１９５番地,,23,110,4540914,,,,,,,2024-11-12,1,,,,,キョウ,0
460,2180001164080,新規,0,2024-11-12,2024-11-12,株式会社グランディール,,株式会社,愛知県,あま市,森３丁目３番地８,,23,237,4901107,,,,,,,2024-11-12,1,,,,,グランディール,0
462,2180003027582,新規,0,2024-11-12,2024-11-12,合同会社利健,,合同会社,愛知県,一宮市,笹野字東出野立３６番地,,23,203,4910131,,,,,,,2024-11-12,1,,,,,リケン,0
463,2180003027590,新規,0,2024-11-12,2024-11-12,合同会社ＡｓＮｅｓｔ,,合同会社,愛知県,名古屋市昭和区,長戸町６丁目１番地の１６,,23,107,4660848,,,,,,,2024-11-12,1,,,,,アスネスト,0
467,2180301039230,新規,0,2024-11-12,2024-11-12,ＳＥＬＥＮＥ　ＳＰＡＣＥ株式会社,,株式会社,愛知県,みよし市,三好丘旭３丁目１番地１０,,23,236,4700203,,,,,,,2024-11-12,1,,,,,セレネスペース,0
470,2200001043117,新規,0,2024-11-12,2024-11-12,Ｎａｔｕｒａｌ　Ｒｅｔｕｒｎ株式会社,,株式会社,岐阜県,中津川市,駒場１６６６番地の１４１８,,21,206,5080011,,,,,,,2024-11-12,1,,,,,ナチュラルリターン,0
471,2200001043125,新規,0,2024-11-12,2024-11-12,株式会社タカオロジスティクス,,株式会社,岐阜県,岐阜市,西明見町１７番地の１,,21,201,5008444,,,,,,,2024-11-12,1,,,,,タカオロジスティクス,0
473,2220003003876,新規,0,2024-11-12,2024-11-12,合同会社ＹＭＫ,,合同会社,石川県,羽咋市,粟生町フ２番地１,,17,207,9250045,,,,,,,2024-11-12,1,,,,,ワイエムケイ,0
476,2240001064084,新規,0,2024-11-12,2024-11-12,エスケー株式会社,,株式会社,広島県,福山市,川口町１丁目１８番２３－１号,,34,207,7200822,,,,,,,2024-11-12,1,,,,,エスケー,0
477,2240001064092,新規,0,2024-11-12,2024-11-12,ｍａｓｈｉｒｏ株式会社,,株式会社,広島県,尾道市,向島町５５５７番地１７,,34,205,7220073,,,,,,,2024-11-12,1,,,,,マシロ,0
478,2240001064101,新規,0,2024-11-12,2024-11-12,株式会社ＩＴＡＤＡＫＩ,,株式会社,広島県,広島市西区,中広町２丁目２４番５号,,34,104,7330012,,,,,,,2024-11-12,1,,,,,イタダキ,0
492,2290001107870,新規,0,2024-11-12,2024-11-12,株式会社パル企画,,株式会社,福岡県,福岡市中央区,大宮２丁目２番１８－７０３号,,40,133,8100013,,,,,,,2024-11-12,1,,,,,パルキカク,0
493,2290001107904,新規,0,2024-11-12,2024-11-12,株式会社ＬＨアセットグループ,,株式会社,福岡県,久留米市,合川町１１４番地１２,,40,203,8390861,,,,,,,2024-11-12,1,,,,,,0
495,2290803004877,新規,0,2024-11-12,2024-11-12,合同会社エコウエスト,,合同会社,福岡県,北九州市小倉北区,片野３丁目１－２５－７０１,,40,106,8020064,,,,,,,2024-11-12,1,,,,,エコウエスト,0
498,2340001026925,新規,0,2024-11-12,2024-11-12,ＮＡＮＳＡＹアスコン株式会社,,株式会社,鹿児島県,鹿児島市,宇宿２丁目８番２６号,,46,201,8900073,,,,,,,2024-11-12,1,,,,,ナンセイアスコン,0
499,2340005009785,新規,0,2024-11-12,2024-11-12,一般社団法人あおぞら,,その他の設立登記法人,鹿児島県,志布志市,志布志町志布志２丁目２５５８番地６,,46,221,8997103,,,,,,,2024-11-12,1,,,,,アオゾラ,0
501,2350003004779,新規,0,2024-11-12,2024-11-12,合同会社きぼう,,合同会社,宮崎県,小林市,南西方５２６６番地１,,45,205,8860005,,,,,,,2024-11-12,1,,,,,キボウ,0
504,2360003014439,新規,0,2024-11-12,2024-11-12,石垣島みやなが農園合同会社,,合同会社,沖縄県,石垣市,字大川１５１６番３,,47,207,9070022,,,,,,,2024-11-12,1,,,,,イシガキジマミヤナガノウエン,0
507,2370001051895,新規,0,2024-11-12,2024-11-12,Ｔ‐Ａｃｒｏｓｓ　Ｒｉｖｅｒ株式会社,,株式会社,宮城県,仙台市青葉区,一番町３丁目６番５号,,04,101,9800811,,,,,,,2024-11-12,1,,,,,ティーアクロスリバー,0
514,2400001016853,新規,0,2024-11-12,2024-11-12,株式会社ＨＹレンタリース,,株式会社,岩手県,滝沢市,外山３６１番地７,,03,216,0200643,,,,,,,2024-11-12,1,,,,,エイチワイレンタリース,0
523,2430001093023,新規,0,2024-11-12,2024-11-12,Ｄｒａｇｏｎ　Ｍａｉ株式会社,,株式会社,北海道,虻田郡倶知安町,ニセコひらふ一条３丁目２番１６号,,01,400,0440080,,,,,,,2024-11-12,1,,,,,ドラゴンマイ,0
524,2430001093048,新規,0,2024-11-12,2024-11-12,株式会社ＴＹＮ,,株式会社,北海道,札幌市白石区,米里三条１丁目６番１３－１０２号,,01,104,0030873,,,,,,,2024-11-12,1,,,,,ティーワイエヌ,0
525,2430001093056,新規,0,2024-11-12,2024-11-12,株式会社クランプ,,株式会社,北海道,札幌市豊平区,平岸三条１５丁目１番１号シェモア平岸１Ｆ,,01,105,0620933,,,,,,,2024-11-12,1,,,,,クランプ,0
526,2430001093072,新規,0,2024-11-12,2024-11-12,株式会社ジョイント,,株式会社,北海道,札幌市手稲区,金山一条３丁目１４－２２,,01,109,0060041,,,,,,,2024-11-12,1,,,,,ジョイント,0
527,2430003016989,新規,0,2024-11-12,2024-11-12,ＨＭパートナー合同会社,,合同会社,北海道,札幌市清田区,清田十条４丁目１３番８号,,01,110,0040840,,,,,,,2024-11-12,1,,,,,エイチエムパートナー,0
530,2700150127776,新規,0,2024-11-12,2024-11-12,資生國際貿易股斌有限公司,00136880,外国会社等,,,,,,,,台北市中正區懷寧街９０号９Ｆ,,,,,,2024-11-12,1,,,,,シセイコクサイボウエキグフンユウゲンカイシヤ,0
534,3010001249665,新規,0,2024-11-12,2024-11-12,株式会社ベスト・ロジスティクス・パートナーズ,,株式会社,東京都,文京区,小石川１丁目１番１号,,13,105,1120002,,,,,,,2024-11-12,1,,,,,ベストロジスティクスパートナーズ,0
535,3010001249731,新規,0,2024-11-12,2024-11-12,株式会社ｅｒｉｖｅｒ．ｊｐ,,株式会社,東京都,中央区,銀座１丁目２２番１１号銀座大竹ビジデンス２Ｆ,,13,102,1040061,,,,,,,2024-11-12,1,,,,,エリバージェーピー,0
536,3010001249756,新規,0,2024-11-12,2024-11-12,株式会社レジナカ,,株式会社,東京都,千代田区,神田和泉町１－６－１６ヤマトビル４０５,,13,101,1010024,,,,,,,2024-11-12,1,,,,,レジナカ,0
556,3010003045410,新規,0,2024-11-12,2024-11-12,合同会社Ｋｎｏｗｌｅｄｇｅ　Ｔｒａｎｓｆｅｒ,,合同会社,東京都,千代田区,神田須田町１丁目７番地８ＶＯＲＴ秋葉原ＩＶ２Ｆ,00136963,13,101,1010041,,,,,,,2024-11-12,1,,,,,ナレッジトランスファー,0
572,3010403033774,新規,0,2024-11-12,2024-11-12,合同会社ｋ,,合同会社,東京都,港区,三田１丁目３－４０,,13,103,1080073,,,,,,,2024-11-12,1,,,,,ケイ,0
578,3010501053162,新規,0,2024-11-12,2024-11-12,日本瑞安株式会社,,株式会社,東京都,台東区,台東２丁目２７番３号ＮＳＫビル１０Ｆ,,13,106,1100016,,,,,,,2024-11-12,1,,,,,ニホンズイアン,0
581,3010505003568,新規,0,2024-11-12,2024-11-12,一般社団法人ケアラーサポーターズ,,その他の設立登記法人,東京都,台東区,竜泉２丁目７番７号東京ビューマークス２００２,,13,106,1100012,,,,,,,2024-11-12,1,,,,,ケアラーサポーターズ,0
587,3010705003698,新規,0,2024-11-12,2024-11-12,一般社団法人いくたま,,その他の設立登記法人,東京都,品川区,上大崎３丁目１番１号目黒セントラルスクエア１５階,,13,109,1410021,,,,,,,2024-11-12,1,,,,,イクタマ,0
590,3010901056285,新規,0,2024-11-12,2024-11-12,株式会社Ｓｅｅｄｅｒ　Ｊａｐａｎ,,株式会社,東京都,世田谷区,砧２丁目５番９号,,13,112,1570073,,,,,,,2024-11-12,1,,,,,シーダージャパン,0
596,3011001165753,新規,0,2024-11-12,2024-11-12,株式会社ＨＩＹＯ,,株式会社,東京都,渋谷区,広尾５丁目２５番２－６０２号クレストコート広尾,,13,113,1500012,,,,,,,2024-11-12,1,,,,,ヒヨ,0
597,3011001165778,新規,0,2024-11-12,2024-11-12,株式会社Ｐｏｍｐｏｎ,,株式会社,東京都,目黒区,三田１丁目３番６－３０５号,,13,110,1530062,,,,,,,2024-11-12,1,,,,,ポンポン,0
598,3011001165877,新規,0,2024-11-12,2024-11-12,株式会社猫目家,,株式会社,東京都,目黒区,自由が丘２丁目８‐２９，ディアナガーデン自由が丘３０４,,13,110,1520035,,,,,,,2024-11-12,1,,,,,ネコメヤ,0
600,3011003020378,新規,0,2024-11-12,2024-11-12,合同会社ワンエイティ,,合同会社,東京都,目黒区,中央町１丁目３番６号サマースノー２０１,,13,110,1520001,,,,,,,2024-11-12,1,,,,,ワンエイティ,0
601,3011003020411,新規,0,2024-11-12,2024-11-12,合同会社ＬｉｇｈｔＢｒｉｄｇｅ,,合同会社,東京都,渋谷区,道玄坂１丁目１０番８号渋谷道玄坂東急ビル２Ｆ‐Ｃ,,13,113,1500043,,,,,,,2024-11-12,1,,,,,ライトブリッジ,0
604,3011101109461,新規,0,2024-11-12,2024-11-12,ＹＡＮＡＧＩホールディングス株式会社,,株式会社,東京都,新宿区,百人町２丁目１１番２４号,,13,104,1690073,,,,,,,2024-11-12,1,,,,,ヤナギホールディングス,0
605,3011103015162,新規,0,2024-11-12,2024-11-12,合同会社源,,合同会社,東京都,新宿区,百人町１丁目９－２０セゾン百人町１０５,,13,104,1690073,,,,,,,2024-11-12,1,,,,,ゲン,0
610,3011801045139,新規,0,2024-11-12,2024-11-12,株式会社福瑞徳,,株式会社,東京都,足立区,大谷田３丁目７番２４号モナーク山本２０１号,,13,121,1200001,,,,,,,2024-11-12,1,,,,,フクズイトク,0
612,3011803006543,新規,0,2024-11-12,2024-11-12,ｉｎｆｏｃｕｓ合同会社,,合同会社,東京都,足立区,中央本町１丁目１１－７ＣＥＮＴＵＲＹ梅島６０３,,13,121,1200011,,,,,,,2024-11-12,1,,,,,インフォーカス,0
613,3011805003415,新規,0,2024-11-12,2024-11-12,税理士法人プライムパートナーズ,,その他の設立登記法人,東京都,足立区,千住曙町４１番１－２８０６号,,13,121,1200023,,,,,,,2024-11-12,1,,,,,プライムパートナーズ,0
614,3012401042468,新規,0,2024-11-12,2024-11-12,株式会社Ｒｕｂｉｃｏｎ,,株式会社,東京都,武蔵野市,西久保１丁目４－１０ＢＡＳＥ白樺３階,,13,203,1800013,,,,,,,2024-11-12,1,,,,,ルビコン,0
616,3012701018548,新規,0,2024-11-12,2024-11-12,株式会社インサイト,,株式会社,東京都,東村山市,本町２丁目１９番地５５,,13,213,1890014,,,,,,,2024-11-12,1,,,,,インサイト,0
619,3012801023563,新規,0,2024-11-12,2024-11-12,株式会社鈴木,,株式会社,東京都,立川市,曙町２丁目１６番７号,,13,202,1900012,,,,,,,2024-11-12,1,,,,,スズキ,0
623,3013301053381,新規,0,2024-11-12,2024-11-12,株式会社Ｐａｓｔｅｌ,,株式会社,東京都,豊島区,池袋本町２丁目１７－２５リベルテラス池袋本町１０６,,13,116,1700011,,,,,,,2024-11-12,1,,,,,パステル,0
641,3020003027259,新規,0,2024-11-12,2024-11-12,合同会社セカンド,,合同会社,神奈川県,横浜市保土ケ谷区,岩間町１丁目６番地８,,14,106,2400004,,,,,,,2024-11-12,1,,,,,セカンド,0
647,3021001083723,新規,0,2024-11-12,2024-11-12,株式会社湘南商業,,株式会社,神奈川県,藤沢市,本鵠沼２丁目４番１５号,,14,205,2510028,,,,,,,2024-11-12,1,,,,,ショウナンショウギョウ,0
648,3021001083748,新規,0,2024-11-12,2024-11-12,株式会社シーピネス,,株式会社,神奈川県,逗子市,池子２丁目４番６８号,,14,208,2490003,,,,,,,2024-11-12,1,,,,,シーピネス,0
652,3021003015212,新規,0,2024-11-12,2024-11-12,山頂商会合同会社,,合同会社,神奈川県,秦野市,北矢名４９０番地コーポ府川１階１号室,,14,211,2570006,,,,,,,2024-11-12,1,,,,,サンチョウショウカイ,0
653,3021003015220,新規,0,2024-11-12,2024-11-12,合同会社Ｍｉｇｇ,,合同会社,神奈川県,鎌倉市,材木座５丁目１１番４８号材木座ハウス３０４,,14,204,2480013,,,,,,,2024-11-12,1,,,,,ミグ,0
654,3021003015229,新規,0,2024-11-12,2024-11-12,合同会社ＩＹＡＳＨＩ　ＴＥＣＨ,,合同会社,神奈川県,横須賀市,秋谷３丁目７番２５－３０７号,,14,201,2400105,,,,,,,2024-11-12,1,,,,,イヤシテック,0
657,3030001163245,新規,0,2024-11-12,2024-11-12,蝶工坊株式会社,,株式会社,埼玉県,吉川市,美南２丁目２０－１５,,11,243,3420038,,,,,,,2024-11-12,1,,,,,チョウコウボウ,0
658,3030001163336,新規,0,2024-11-12,2024-11-12,株式会社ＬｕｍｉｎａＬｉｎｋ,,株式会社,埼玉県,さいたま市見沼区,大字蓮沼１５３７－１－１０１,,11,104,3370015,,,,,,,2024-11-12,1,,,,,ルミナリンク,0
659,3030001163352,新規,0,2024-11-12,2024-11-12,Ｆｕｔｕｒｅ　Ｍｙｏ　Ｇｒｏｕｐ株式会社,,株式会社,埼玉県,川口市,並木元町２番７－２０２号並木町ビル,,11,203,3320033,,,,,,,2024-11-12,1,,,,,,0
660,3030001163377,新規,0,2024-11-12,2024-11-12,バリューワークス株式会社,,株式会社,埼玉県,八潮市,中央２丁目６番地１５榎本ビル２階,,11,234,3400816,,,,,,,2024-11-12,1,,,,,バリューワークス,0
661,3030001163435,新規,0,2024-11-12,2024-11-12,株式会社ＡＹＤＩＮ,,株式会社,埼玉県,川口市,戸塚鋏町３５番１２号,,11,203,3330805,,,,,,,2024-11-12,1,,,,,アイディン,0
664,3030003025451,新規,0,2024-11-12,2024-11-12,ａｔＯｎｅ合同会社,,合同会社,埼玉県,越谷市,大字大房１１６０－４５,,11,222,3430027,,,,,,,2024-11-12,1,,,,,アットワン,0
665,3030003025468,新規,0,2024-11-12,2024-11-12,クロレ合同会社,,合同会社,埼玉県,所沢市,大字下安松６３７番地の６,,11,208,3590024,,,,,,,2024-11-12,1,,,,,クロレ,0
666,3030003025476,新規,0,2024-11-12,2024-11-12,合同会社ＧｒｏｗｔｈＰｏｉｎｔ,,合同会社,埼玉県,三郷市,彦成３丁目１２－１３三郷団地４０７,,11,237,3410003,,,,,,,2024-11-12,1,,,,,グロースポイント,0
667,3030005021936,新規,0,2024-11-12,2024-11-12,一般社団法人国際リフレクソロジー普及協会,,その他の設立登記法人,埼玉県,さいたま市中央区,大戸５丁目１１番１４号,,11,105,3380012,,,,,,,2024-11-12,1,,,,,コクサイリフレクソロジーフキュウキョウカイ,0
670,3040001136126,新規,0,2024-11-12,2024-11-12,株式会社道,,株式会社,千葉県,船橋市,海神５丁目２９番５２－２１１号,,12,204,2730021,,,,,,,2024-11-12,1,,,,,ミチ,0
671,3040001136134,新規,0,2024-11-12,2024-11-12,株式会社ワンダーヴィー,,株式会社,千葉県,松戸市,根本４６１番地弁天会館３０３号室,,12,207,2710077,,,,,,,2024-11-12,1,,,,,ワンダーヴィー,0
676,3050001055614,新規,0,2024-11-12,2024-11-12,株式会社Ｂｉ　Ａｐｐｅａｌ,,株式会社,茨城県,牛久市,牛久町２４４－３,,08,219,3001221,,,,,,,2024-11-12,1,,,,,ビアピール,0
677,3050001055688,新規,0,2024-11-12,2024-11-12,マックスすまいる不動産株式会社,,株式会社,茨城県,坂東市,猫実９７０番地,,08,228,3060616,,,,,,,2024-11-12,1,,,,,マックススマイルフドウサン,0
686,3070003005656,新規,0,2024-11-12,2024-11-12,合同会社ＮＥＷ　ＴＲＡＤＩＮＧ,,合同会社,群馬県,太田市,由良町１１２６番地２ウェルナ　ウ５－１０２号,,10,205,3730036,,,,,,,2024-11-12,1,,,,,ニュートレーディング,0
687,3070005010324,新規,0,2024-11-12,2024-11-12,一般社団法人日本ソーラーパネル再資源化機構,,その他の設立登記法人,群馬県,安中市,郷原２３５９番地２,,10,211,3790135,,,,,,,2024-11-12,1,,,,,,0
697,3090003002676,新規,0,2024-11-12,2024-11-12,合同会社ＮＯＡＨ,,合同会社,山梨県,甲府市,中央１丁目１２番４３号ＫＩビル２Ｆ,,19,201,4000032,,,,,,,2024-11-12,1,,,,,,0
699,3100001038019,新規,0,2024-11-12,2024-11-12,Ａｂａｓｔ株式会社,,株式会社,長野県,長野市,合戦場２丁目１１８番地２,,20,201,3888008,,,,,,,2024-11-12,1,,,,,アバスト,0
712,3120001269330,新規,0,2024-11-12,2024-11-12,株式会社Ｄｒｅａｍ　Ｉｓｌａｎｄ,,株式会社,大阪府,大阪市阿倍野区,阿倍野筋５丁目３番２２－４０３号,,27,119,5450052,,,,,,,2024-11-12,1,,,,,ドリームアイランド,0
713,3120001270164,新規,0,2024-11-12,2024-11-12,元道技術株式会社,,株式会社,大阪府,大阪市中央区,南久宝寺町１丁目６－６ＣＯＮＣＯＭ南久宝寺５０１,,27,128,5410058,,,,,,,2024-11-12,1,,,,,モトミチギジュツ,0
714,3120001270189,新規,0,2024-11-12,2024-11-12,株式会社ヒシキ,,株式会社,大阪府,大阪市中央区,谷町６丁目２番４０号,,27,128,5420012,,,,,,,2024-11-12,1,,,,,ヒシキ,0
715,3120001270230,新規,0,2024-11-12,2024-11-12,株式会社喜島工業,,株式会社,大阪府,大阪市東淀川区,豊里６丁目５番２７号,,27,114,5330013,,,,,,,2024-11-12,1,,,,,キジマコウギョウ,0
716,3120001270239,新規,0,2024-11-12,2024-11-12,日本旅運株式会社,,株式会社,大阪府,大阪市福島区,福島６丁目１９番１２号ダンテＳＫ梅田４０６号,,27,103,5530003,,,,,,,2024-11-12,1,,,,,ニホンリョウン,0
718,3120003027876,新規,0,2024-11-12,2024-11-12,合同会社あいあい吉田ステーション,,合同会社,大阪府,大阪市鶴見区,焼野２丁目１０番５０,,27,124,5380037,,,,,,,2024-11-12,1,,,,,アイアイヨシダステーション,0
719,3120005024616,新規,0,2024-11-12,2024-11-12,一般財団法人ＯＴＧ財団,,その他の設立登記法人,大阪府,大阪市西区,立売堀３丁目１番１号,,27,106,5500012,,,,,,,2024-11-12,1,,,,,オーティージーザイダン,0
722,3120101070563,新規,0,2024-11-12,2024-11-12,南株式会社,,株式会社,大阪府,泉南市,兎田４７５番地,,27,228,5900501,,,,,,,2024-11-12,1,,,,,ミナミ,0
738,3130001078342,新規,0,2024-11-12,2024-11-12,株式会社一網打尽,,株式会社,京都府,南丹市,美山町盛郷佐野前１５番地,,26,213,6010764,,,,,,,2024-11-12,1,,,,,イチモウダジン,0
745,3140001136388,新規,0,2024-11-12,2024-11-12,株式会社Ｅａｓｔ　Ｍｏｕｎｔ,,株式会社,兵庫県,西宮市,東山台３丁目４１－１２,,28,204,6691133,,,,,,,2024-11-12,1,,,,,イーストマウント,0
746,3140001136405,新規,0,2024-11-12,2024-11-12,株式会社ｄｏｔ　ｃｕｅ,,株式会社,兵庫県,神戸市垂水区,五色山５丁目８番２２－１号,,28,108,6550035,,,,,,,2024-11-12,1,,,,,ドットキュー,0
749,3140003021308,新規,0,2024-11-12,2024-11-12,合同会社拓‐ＴＡＫＵ,,合同会社,兵庫県,西宮市,名塩南台２丁目１２番地５,,28,204,6691132,,,,,,,2024-11-12,1,,,,,タク,0
750,3140003021316,新規,0,2024-11-12,2024-11-12,ＩＧＴ合同会社,,合同会社,兵庫県,神戸市北区,鹿の子台北町３丁目２番２５号,,28,109,6511513,,,,,,,2024-11-12,1,,,,,アイジーティ,0
755,3150003003420,新規,0,2024-11-12,2024-11-12,合同会社ｎｏｂｓｆａｃｔｏｒｙ,,合同会社,奈良県,生駒郡三郷町,勢野北５丁目３番３３号,,29,343,6360815,,,,,,,2024-11-12,1,,,,,ノブズファクトリー,0
758,3160001026348,新規,0,2024-11-12,2024-11-12,株式会社谷石油ガス店,,株式会社,滋賀県,近江八幡市,御所内町２１７番地,,25,204,5230003,,,,,,,2024-11-12,1,,,,,タニセキユガステン,0
760,3170001018377,新規,0,2024-11-12,2024-11-12,株式会社エスコート,,株式会社,和歌山県,西牟婁郡上富田町,岩田１６０１番地の１,,30,404,6492102,,,,,,,2024-11-12,1,,,,,エスコート,0
761,3180001163998,新規,0,2024-11-12,2024-11-12,株式会社スタードリーム,,株式会社,愛知県,名古屋市中区,栄５丁目３番４号,,23,106,4600008,,,,,,,2024-11-12,1,,,,,スタードリーム,0
762,3180001164071,新規,0,2024-11-12,2024-11-12,株式会社ミズノ,,株式会社,愛知県,春日井市,大手町１６２２番地２,,23,206,4860807,,,,,,,2024-11-12,1,,,,,ミズノ,0
763,3180001164121,新規,0,2024-11-12,2024-11-12,株式会社キャリア・デベロッパーズ,,株式会社,愛知県,名古屋市中区,金山１丁目２－４,,23,106,4600022,,,,,,,2024-11-12,1,,,,,キャリアデベロッパーズ,0
768,3180003027607,新規,0,2024-11-12,2024-11-12,合同会社ダブルアップ,,合同会社,愛知県,名古屋市緑区,大清水３丁目９０４番地の３,,23,114,4580805,,,,,,,2024-11-12,1,,,,,ダブルアップ,0
770,3180301039205,新規,0,2024-11-12,2024-11-12,株式会社ＳＨＯＢＩ,,株式会社,愛知県,豊橋市,旭町１２０番地３,,23,201,4400057,,,,,,,2024-11-12,1,,,,,ショービ,0
771,3180301039221,新規,0,2024-11-12,2024-11-12,株式会社ワタナベテック,,株式会社,愛知県,高浜市,屋敷町１丁目１番地５,,23,227,4441331,,,,,,,2024-11-12,1,,,,,ワタナベテック,0
775,3200001043116,新規,0,2024-11-12,2024-11-12,株式会社ナチュラルヘルスサポート,,株式会社,岐阜県,多治見市,希望ケ丘１丁目２３６番地の３,,21,204,5070008,,,,,,,2024-11-12,1,,,,,ナチュラルヘルスサポート,0
776,3200001043124,新規,0,2024-11-12,2024-11-12,株式会社石原,,株式会社,岐阜県,郡上市,大和町剣８８４番地８,,21,219,5014612,,,,,,,2024-11-12,1,,,,,イシハラ,0
785,3240001064100,新規,0,2024-11-12,2024-11-12,株式会社Ｄａｎｄｉ,,株式会社,広島県,竹原市,福田町２５３６番地５,,34,203,7292312,,,,,,,2024-11-12,1,,,,,ダンジ,0
801,3300001013967,新規,0,2024-11-12,2024-11-12,株式会社有明大博コンストラクション,,株式会社,佐賀県,佐賀市,高木瀬東６丁目１２番１号,,41,201,8490922,,,,,,,2024-11-12,1,,,,,アリアケタイハクコンストラクション,0
806,3340003004655,新規,0,2024-11-12,2024-11-12,合同会社大樹,,合同会社,鹿児島県,日置市,伊集院町下谷口１９０１番地１,,46,216,8992501,,,,,,,2024-11-12,1,,,,,ダイジュ,0
808,3350001019282,新規,0,2024-11-12,2024-11-12,日光創建株式会社,,株式会社,宮崎県,都城市,都島町１２５４番地１,,45,202,8850083,,,,,,,2024-11-12,1,,,,,ニッコウソウケン,0
810,3350003004778,新規,0,2024-11-12,2024-11-12,合同会社あなたの惑星は美しいですか,,合同会社,宮崎県,宮崎市,橘通東３丁目７番４号ＭＡＹコート２Ｆ,,45,201,8800805,,,,,,,2024-11-12,1,,,,,アナタノホシハウツクシイデスカ,0
813,3370001051886,新規,0,2024-11-12,2024-11-12,株式会社ＤＥＬＵＸＥ,,株式会社,宮城県,仙台市青葉区,一番町３丁目１番１５号巴屋ビル３Ｆ,,04,101,9800811,,,,,,,2024-11-12,1,,,,,デラックス,0
814,3370001051911,新規,0,2024-11-12,2024-11-12,株式会社ＰＬＡＮＮＥＲ,,株式会社,宮城県,仙台市宮城野区,白鳥２丁目７番２号,,04,102,9830006,,,,,,,2024-11-12,1,,,,,プランナー,0
817,3400001016852,新規,0,2024-11-12,2024-11-12,株式会社ＷＡＭ,,株式会社,岩手県,盛岡市,みたけ２丁目７－３６,,03,201,0200122,,,,,,,2024-11-12,1,,,,,ダブリュエーエム,0
825,3430001093030,新規,0,2024-11-12,2024-11-12,株式会社あらきファーム,,株式会社,北海道,勇払郡厚真町,字富野３８１番地の２１,,01,581,0591747,,,,,,,2024-11-12,1,,,,,アラキファーム,0
826,3430001093047,新規,0,2024-11-12,2024-11-12,株式会社サニーズベース,,株式会社,北海道,札幌市厚別区,厚別西五条２丁目１２番７号,,01,108,0040065,,,,,,,2024-11-12,1,,,,,サニーズベース,0
827,3430001093055,新規,0,2024-11-12,2024-11-12,株式会社柊建設工業,,株式会社,北海道,滝川市,緑町３丁目３番２２号,,01,225,0730023,,,,,,,2024-11-12,1,,,,,ヒイラギケンセツコウギョウ,0
829,3430003016988,新規,0,2024-11-12,2024-11-12,合同会社Ｅｑｕｉ,,合同会社,北海道,札幌市南区,真駒内上町５丁目７番１８号,,01,106,0050012,,,,,,,2024-11-12,1,,,,,エクイ,0
834,3700150127825,新規,0,2024-11-12,2024-11-12,富士見二丁目３番地区市街地再開発組合,,その他,東京都,千代田区,富士見２丁目３番２号,,13,101,1020071,,,,,,,2024-11-12,1,,,,,フジミニチヨウメサンバンチクシガイチサイカイハツクミアイ,0
835,3700150127858,新規,0,2024-11-12,2024-11-12,酒田創意くふう展実行委員会,,その他,山形県,酒田市,本町２丁目２－４５　酒田市教育委員会学校教育課内,,06,204,9980043,,,,,,,2024-11-12,1,,,,,サカタソウイクフウテンジッコウイインカイ,0
839,4010001249648,新規,0,2024-11-12,2024-11-12,株式会社ＤＤＪ,,株式会社,東京都,千代田区,丸の内１丁目８－１丸の内トラストタワーＮ館１９階,,13,101,1000005,,,,,,,2024-11-12,1,,,,,ディーディージェイ,0
840,4010001249706,新規,0,2024-11-12,2024-11-12,ＸＳＴＯ株式会社,,株式会社,東京都,千代田区,神田佐久間町３丁目２１番インターアクトビル３Ｆ,,13,101,1010025,,,,,,,2024-11-12,1,,,,,エックスエスティーオー,0
841,4010001249813,新規,0,2024-11-12,2024-11-12,株式会社ＦＳＣ,,株式会社,東京都,中央区,築地１丁目５番８－１２０５号,,13,102,1040045,,,,,,,2024-11-12,1,,,,,エフエスシー,0
873,4010401186185,新規,0,2024-11-12,2024-11-12,株式会社Ｒｅｒａｉｓｅ,,株式会社,東京都,港区,六本木３丁目１４－１３ＵＦビル１－４Ｆ,,13,103,1060032,,,,,,,2024-11-12,1,,,,,リレイズ,0
877,4010503007628,新規,0,2024-11-12,2024-11-12,合同会社ラーニング・ランニング,,合同会社,東京都,台東区,浅草橋５丁目２－３鈴和ビル２Ｆ,,13,106,1110053,,,,,,,2024-11-12,1,,,,,ラーニングランニング,0
878,4010603011190,新規,0,2024-11-12,2024-11-12,ｋｉ‐ｗｉ合同会社,,合同会社,東京都,江東区,亀戸６丁目５番地１０－６０３号,,13,108,1360071,,,,,,,2024-11-12,1,,,,,キウイ,0
887,4011001165686,新規,0,2024-11-12,2024-11-12,Ｎａｄｏ　Ｈｅａｌｔｈ株式会社,,株式会社,東京都,渋谷区,代々木１丁目３０番１４号天翔代々木ＡＮＮＥＸビル４０３号室,,13,113,1510053,,,,,,,2024-11-12,1,,,,,ナドヘルス,0
888,4011001165694,新規,0,2024-11-12,2024-11-12,株式会社ＣＲＥＡ,,株式会社,東京都,渋谷区,上原２丁目４２番１０号ＦＡＲＥウエハラノイエＥＡＳＴ２０１,,13,113,1510064,,,,,,,2024-11-12,1,,,,,クレア,0
892,4011101109502,新規,0,2024-11-12,2024-11-12,昭和鍼灸マッサージ株式会社,,株式会社,東京都,新宿区,新宿５丁目１８番２０号ルックハイツ新宿８０３号,,13,104,1600022,,,,,,,2024-11-12,1,,,,,ショウワシンキュウマッサージ,0
899,4011703004027,新規,0,2024-11-12,2024-11-12,Ｃｏｓｆｕｎ合同会社,,合同会社,東京都,江戸川区,南小岩３丁目１－１４プランドールＭ１１６室,,13,123,1330056,,,,,,,2024-11-12,1,,,,,コスファン,0
902,4011803006542,新規,0,2024-11-12,2024-11-12,合同会社まごころ,,合同会社,東京都,足立区,梅田１丁目５－１グレースシャンブル５０１,,13,121,1230851,,,,,,,2024-11-12,1,,,,,マゴコロ,0
903,4012401042475,新規,0,2024-11-12,2024-11-12,株式会社來生多,,株式会社,東京都,武蔵野市,境１丁目３番４号あゆみビル１階,,13,203,1800022,,,,,,,2024-11-12,1,,,,,クウタ,0
904,4012403006841,新規,0,2024-11-12,2024-11-12,勇商事合同会社,,合同会社,東京都,三鷹市,下連雀３丁目４４番１７－１９０２号,,13,204,1810013,,,,,,,2024-11-12,1,,,,,ユウショウジ,0
913,4020001160028,新規,0,2024-11-12,2024-11-12,染舞株式会社,,株式会社,神奈川県,川崎市幸区,南幸町１丁目４２番地１９,,14,132,2120016,,,,,,,2024-11-12,1,,,,,センブ,0
914,4020001160052,新規,0,2024-11-12,2024-11-12,株式会社フィジオリハ湘南,,株式会社,神奈川県,横浜市戸塚区,品濃町５３８番地１０岡島ビル７０２,,14,110,2440801,,,,,,,2024-11-12,1,,,,,フィジオリハショウナン,0
916,4020003027183,新規,0,2024-11-12,2024-11-12,合同会社ベル,,合同会社,神奈川県,横浜市磯子区,岡村２丁目１２番１６号,,14,107,2350021,,,,,,,2024-11-12,1,,,,,ベル,0
917,4020003027225,新規,0,2024-11-12,2024-11-12,合同会社ＳＬＯＫ,,合同会社,神奈川県,横浜市緑区,西八朔町３７－１０５,,14,113,2260024,,,,,,,2024-11-12,1,,,,,スロック,0
927,4021001083730,新規,0,2024-11-12,2024-11-12,Ｄｉ設備株式会社,,株式会社,神奈川県,綾瀬市,落合北４丁目１６－５,,14,218,2521116,,,,,,,2024-11-12,1,,,,,ディアイセツビ,0
939,4030001163351,新規,0,2024-11-12,2024-11-12,エスアール株式会社,,株式会社,埼玉県,さいたま市南区,別所５丁目６番８号,,11,108,3360021,,,,,,,2024-11-12,1,,,,,エスアール,0
940,4030001163384,新規,0,2024-11-12,2024-11-12,株式会社冨松測量設計,,株式会社,埼玉県,坂戸市,芦山町８番地２３,,11,239,3500273,,,,,,,2024-11-12,1,,,,,トミマツソクリョウセッケイ,0
941,4030001163392,新規,0,2024-11-12,2024-11-12,トヲアマリ株式会社,,株式会社,埼玉県,戸田市,中町２丁目１番３号,,11,224,3350012,,,,,,,2024-11-12,1,,,,,トヲアマリ,0
942,4030001163418,新規,0,2024-11-12,2024-11-12,株式会社Ｋプランニング,,株式会社,埼玉県,所沢市,大字山口１１３６－１９,,11,208,3591145,,,,,,,2024-11-12,1,,,,,ケイプランニング,0
943,4030001163434,新規,0,2024-11-12,2024-11-12,株式会社秋桜地所,,株式会社,埼玉県,久喜市,南５丁目５番２０号,,11,232,3460004,,,,,,,2024-11-12,1,,,,,コスモスジショ,0
948,4030003025450,新規,0,2024-11-12,2024-11-12,合同会社アズールスカイ,,合同会社,埼玉県,桶川市,大字川田谷３４５５番地の３,,11,231,3630027,,,,,,,2024-11-12,1,,,,,アズールスカイ,0
949,4030003025459,新規,0,2024-11-12,2024-11-12,合同会社Ｓｐｏｒｔｅｍ,,合同会社,埼玉県,川口市,前川２丁目３０－８,,11,203,3330842,,,,,,,2024-11-12,1,,,,,スポーテム,0
955,4040001136091,新規,0,2024-11-12,2024-11-12,株式会社知恩園,,株式会社,千葉県,香取郡東庄町,夏目３１４３番地,,12,349,2890625,,,,,,,2024-11-12,1,,,,,チオンエン,0
956,4040001136100,新規,0,2024-11-12,2024-11-12,ＤｏｙｏｕＢｅｅ株式会社,,株式会社,千葉県,山武市,富田トの４７１番地１関東ビル１Ｆ,,12,237,2891321,,,,,,,2024-11-12,1,,,,,ドゥユービー,0
957,4040001136125,新規,0,2024-11-12,2024-11-12,ＢＲＹＭＡＸ　ＰＡＲＴＳ株式会社,,株式会社,千葉県,八千代市,八千代台北３丁目１２番１１号グランテージＣ棟１０１号,,12,221,2760031,,,,,,,2024-11-12,1,,,,,ブライマックスパーツ,0
959,4040003026175,新規,0,2024-11-12,2024-11-12,合同会社Ｉｎｓｐｉｒａｔｉｏｎ,,合同会社,千葉県,千葉市中央区,浜野町８９２番地４ＡＱＵＥ２１１０１号,,12,101,2600824,,,,,,,2024-11-12,1,,,,,インスピレーション,0
965,4050001055687,新規,0,2024-11-12,2024-11-12,株式会社深谷自動車,,株式会社,茨城県,常陸太田市,真弓町９２０番地５,,08,212,3130022,,,,,,,2024-11-12,1,,,,,フカヤジドウシャ,0
966,4050001055695,新規,0,2024-11-12,2024-11-12,Ｙ’ｓ株式会社,,株式会社,茨城県,古河市,鴻巣８５７番地３６,,08,204,3060041,,,,,,,2024-11-12,1,,,,,ワイズ,0
968,4050003008791,新規,0,2024-11-12,2024-11-12,合同会社トンボ,,合同会社,茨城県,つくば市,学園南１丁目１２番１号,,08,220,3050818,,,,,,,2024-11-12,1,,,,,トンボ,0
977,4080401027572,新規,0,2024-11-12,2024-11-12,株式会社エネシス,,株式会社,静岡県,浜松市中央区,高丘西２丁目２３番１２号,,22,138,4338118,,,,,,,2024-11-12,1,,,,,エネシス,0
981,4090001018995,新規,0,2024-11-12,2024-11-12,株式会社だいふく,,株式会社,山梨県,甲府市,大里町２０２１番地,,19,201,4000053,,,,,,,2024-11-12,1,,,,,ダイフク,0
987,4110001038834,新規,0,2024-11-12,2024-11-12,株式会社ゆうしの相談,,株式会社,新潟県,新潟市中央区,西堀前通１１番町１６３８‐２,,15,103,9518062,,,,,,,2024-11-12,1,,,,,ユウシノソウダン,0
989,4110005017157,新規,0,2024-11-12,2024-11-12,一般社団法人北陸融雪技術協会,,その他の設立登記法人,新潟県,新潟市中央区,新光町６番地１,,15,103,9500965,,,,,,,2024-11-12,1,,,,,ホクリクユウセツギジュツキョウカイ,0
998,4120001270048,新規,0,2024-11-12,2024-11-12,Ｔｒｉｎｉｔｙ　Ｉｎｖｅｓｔ　Ｍａｋｅｒｓ　Ｉｎｔｅｒｎａｔｉｏｎａｌ株式会社,,株式会社,大阪府,大阪市北区,西天満３丁目６－３５ＮＩＳＨＩＴＥＮＭＡＧＴＣＢＬＤＧ３０１,,27,127,5300047,,,,,,,2024-11-12,1,,,,,トリニティインベストメイカーズインターナショナル,0
999,4120001270163,新規,0,2024-11-12,2024-11-12,睿制株式会社,,株式会社,大阪府,大阪市中央区,島之内２丁目１０番１２号７０２号室,,27,128,5420082,,,,,,,2024-11-12,1,,,,,エイセイ,0
1000,4120001270188,新規,0,2024-11-12,2024-11-12,株式会社振新,,株式会社,大阪府,大阪市西成区,北津守４丁目４－１５,,27,122,5570061,,,,,,,2024-11-12,1,,,,,フリシン,0
1001,4120001270205,新規,0,2024-11-12,2024-11-12,ＳＩＤＥＳ　ＣＯＲＥ株式会社,,株式会社,大阪府,大阪市西区,京町堀１丁目１４番２５号京二ビル２０１,,27,106,5500003,,,,,,,2024-11-12,1,,,,,サイズコア,0
1002,4120001270238,新規,0,2024-11-12,2024-11-12,株式会社ＪＡＰＡＮ　ＬＩＮＫ,,株式会社,大阪府,大阪市浪速区,難波中２丁目８番９５号はるさわビル３階,,27,111,5560011,,,,,,,2024-11-12,1,,,,,ジャパンリンク,0
1003,4120001270246,新規,0,2024-11-12,2024-11-12,株式会社ジェイフードサービス,,株式会社,大阪府,大阪市西成区,天下茶屋３丁目２３番９号,,27,122,5570014,,,,,,,2024-11-12,1,,,,,ジェイフードサービス,0
1006,4120003027941,新規,0,2024-11-12,2024-11-12,合同会社Ａ‐Ｔａｌｅ,,合同会社,大阪府,大阪市中央区,南船場３丁目２番２２号おおきに南船場ビル２０５,,27,128,5420081,,,,,,,2024-11-12,1,,,,,アテール,0
1016,4130001078333,新規,0,2024-11-12,2024-11-12,株式会社Ａ＆Ｃｏ．,,株式会社,京都府,京都市左京区,岩倉花園町６４０番地１６,,26,103,6060024,,,,,,,2024-11-12,1,,,,,エーアンドコー,0
1021,4140001136395,新規,0,2024-11-12,2024-11-12,相中株式会社,,株式会社,兵庫県,姫路市,御立東１丁目１８－８,,28,201,6700072,,,,,,,2024-11-12,1,,,,,アイナカ,0
1028,4140003021307,新規,0,2024-11-12,2024-11-12,Ｓａｙｒａｍ合同会社,,合同会社,兵庫県,神戸市中央区,下山手通７丁目５－８,,28,110,6500011,,,,,,,2024-11-12,1,,,,,サイラム,0
1032,4160001026347,新規,0,2024-11-12,2024-11-12,株式会社志徳,,株式会社,滋賀県,大津市,大江３丁目４番７号,,25,201,5202141,,,,,,,2024-11-12,1,,,,,シトク,0
1041,4180001164013,新規,0,2024-11-12,2024-11-12,株式会社クランリー,,株式会社,愛知県,名古屋市北区,如意１丁目１２９番地の４,,23,103,4620007,,,,,,,2024-11-12,1,,,,,クランリークランリー,0
1042,4180001164070,新規,0,2024-11-12,2024-11-12,Ｓａｒａｔｏｇａ　Ｅｓｔａｔｅ株式会社,,株式会社,愛知県,名古屋市昭和区,恵方町２丁目２１番地の２,,23,107,4660037,,,,,,,2024-11-12,1,,,,,サラトガエステート,0
1043,4180001164104,新規,0,2024-11-12,2024-11-12,株式会社ＥＮＤＯＪＩ　ＢＲＥＷＩＮＧ,,株式会社,愛知県,名古屋市西区,那古野２丁目２０番２２号円頓寺横丁１ＦＡ・Ｂ,,23,104,4510042,,,,,,,2024-11-12,1,,,,,エンドウジブルーイング,0
1045,4180003027572,新規,0,2024-11-12,2024-11-12,合同会社Ｅｎ,,合同会社,愛知県,一宮市,木曽川町外割田四の通り２２番地,,23,203,4930007,,,,,,,2024-11-12,1,,,,,エン,0
1046,4180003027589,新規,0,2024-11-12,2024-11-12,アンドファイン合同会社,,合同会社,愛知県,名古屋市中村区,名駅４丁目２４番５号第２森ビル４０１,,23,105,4500002,,,,,,,2024-11-12,1,,,,,アンドファイン,0
1056,4220003003882,新規,0,2024-11-12,2024-11-12,合同会社コネクト,,合同会社,石川県,金沢市,増泉１丁目１８番７号サンシャインビル２０２,,17,201,9218025,,,,,,,2024-11-12,1,,,,,コネクト,0
1069,4290001107927,新規,0,2024-11-12,2024-11-12,株式会社ＧＳＣ,,株式会社,福岡県,福岡市中央区,六本松３丁目１３－２,,40,133,8100044,,,,,,,2024-11-12,1,,,,,ジーエスシー,0
1071,4290005019557,新規,0,2024-11-12,2024-11-12,一般社団法人全国選抜高校テニス大会事務局,,その他の設立登記法人,福岡県,福岡市博多区,博多駅前３丁目２番１号日本生命博多駅前ビル５階,,40,132,8120011,,,,,,,2024-11-12,1,,,,,ゼンコクセンバツコウコウテニスタイカイジムキョク,0
1074,4300003002199,新規,0,2024-11-12,2024-11-12,合同会社ＣＨＡ‐３ＩＮＧ,,合同会社,佐賀県,杵島郡江北町,大字佐留志２３５９番地,,41,424,8490502,,,,,,,2024-11-12,1,,,,,チャーミング,0
1082,4340001026931,新規,0,2024-11-12,2024-11-12,株式会社良弘興業,,株式会社,鹿児島県,出水市,大野原町９０７番地４,,46,208,8990216,,,,,,,2024-11-12,1,,,,,ヨシヒロコウギョウ,0
1087,4370001051893,新規,0,2024-11-12,2024-11-12,株式会社なないろ会計,,株式会社,宮城県,仙台市若林区,なないろの里２丁目２７番地の２４,,04,103,9840017,,,,,,,2024-11-12,1,,,,,ナナイロカイケイ,0
1100,4430001093054,新規,0,2024-11-12,2024-11-12,株式会社ＴＯＹＳ　ＣＲＥＷ,,株式会社,北海道,札幌市中央区,南十二条西１２丁目１番２号,,01,101,0640912,,,,,,,2024-11-12,1,,,,,トイズクルー,0
1103,4460001005948,新規,0,2024-11-12,2024-11-12,ニレカムファーム株式会社,,株式会社,北海道,厚岸郡浜中町,茶内西１０線１７１番地,,01,663,0881369,,,,,,,2024-11-12,1,,,,,ニレカムファーム,0
1108,4500001025990,新規,0,2024-11-12,2024-11-12,イセカフーズ株式会社,,株式会社,愛媛県,喜多郡内子町,内子４２７１番地９,,38,422,7913301,,,,,,,2024-11-12,1,,,,,イセカフーズ,0
1110,4700150127857,新規,0,2024-11-12,2024-11-12,バジェット４ライフプライベートリミテッド,,外国会社等,岐阜県,大垣市,興福地町１丁目６６番地７,,21,202,5032203,スリランカ民主社会主義共和国、キャンディ、スドゥフンポラ、ヴィハーラ・マワタ１４,,,,,,2024-11-12,1,,,,,バジエツトフオーライフプライベートリミテツド,0
1119,5010001249762,新規,0,2024-11-12,2024-11-12,株式会社リブレキャリア,,株式会社,東京都,千代田区,九段北１丁目３－１日宝九段下ビル９ｆ,,13,101,1020073,,,,,,,2024-11-12,1,,,,,リブレキャリア,0
1120,5010001249770,新規,0,2024-11-12,2024-11-12,メナ水素株式会社,,株式会社,東京都,中央区,日本橋室町１丁目１１番１２号日本橋水野ビル７階,,13,102,1030022,,,,,,,2024-11-12,1,,,,,メナスイソ,0
1132,5010003045334,新規,0,2024-11-12,2024-11-12,合同会社ＲｅＰｒｏ,,合同会社,東京都,中央区,銀座１丁目２２－１１銀座大竹ビジデンス２Ｆ,,13,102,1040061,,,,,,,2024-11-12,1,,,,,リプロ,0
1133,5010003045441,新規,0,2024-11-12,2024-11-12,合同会社ＮＡＮＡ,,合同会社,東京都,中央区,銀座１丁目１２番４号Ｎ＆Ｅ．ＢＬＤ．６Ｆ,,13,102,1040061,,,,,,,2024-11-12,1,,,,,ナナ,0
1155,5010501053136,新規,0,2024-11-12,2024-11-12,東方緑洲株式会社,,株式会社,東京都,台東区,三筋１丁目１５－６ＮＫＫ実業ビル２０５室,,13,106,1110055,,,,,,,2024-11-12,1,,,,,トウホウリョクシュウ,0
1156,5010503007635,新規,0,2024-11-12,2024-11-12,ワールドライト合同会社,,合同会社,東京都,台東区,下谷２丁目１５番１２号４０２号室,,13,106,1100004,,,,,,,2024-11-12,1,,,,,ワールドライト,0
1158,5010603011181,新規,0,2024-11-12,2024-11-12,合同会社どらぽす,,合同会社,東京都,墨田区,向島４丁目１１―２亀田荘１Ｆ,,13,107,1310033,,,,,,,2024-11-12,1,,,,,ドラポス,0
1163,5011001165693,新規,0,2024-11-12,2024-11-12,ナビルスホールディングス株式会社,,株式会社,東京都,渋谷区,千駄ヶ谷５丁目３４番７号ＮＸ新宿ビル８階,,13,113,1510051,,,,,,,2024-11-12,1,,,,,ナビルスホールディングス,0
1164,5011001165702,新規,0,2024-11-12,2024-11-12,チロリット・ジャパン株式会社,,株式会社,東京都,渋谷区,恵比寿４丁目２０番３号恵比寿ガーデンプレイスタワー１８階,,13,113,1500013,,,,,,,2024-11-12,1,,,,,チロリットジャパン,0
1165,5011001165784,新規,0,2024-11-12,2024-11-12,株式会社竹内啓建築設計事務所,,株式会社,東京都,渋谷区,代官山町９番１０号ｃｏ－ｌａｂ代官山,,13,113,1500034,,,,,,,2024-11-12,1,,,,,タケウチケイケンチクセッケイジムショ,0
1166,5011001165859,新規,0,2024-11-12,2024-11-12,株式会社ＧＥＮＺ　ＩＮＣ,,株式会社,東京都,渋谷区,恵比寿１丁目３４番１１号,,13,113,1500013,,,,,,,2024-11-12,1,,,,,ゲンツインク,0
1167,5011003020376,新規,0,2024-11-12,2024-11-12,Ｎｎｉｅｖｅ合同会社,,合同会社,東京都,渋谷区,渋谷２丁目１９番１５号宮益坂ビルディング６０９,,13,113,1500002,,,,,,,2024-11-12,1,,,,,ニエベ,0
1170,5011101109476,新規,0,2024-11-12,2024-11-12,株式会社ｆｕｎｌａｂ,,株式会社,東京都,新宿区,西新宿３丁目３番１３号西新宿水間ビル２階,,13,104,1600023,,,,,,,2024-11-12,1,,,,,ファンラボ,0
1171,5011101109484,新規,0,2024-11-12,2024-11-12,Ｅｎｂａｎ株式会社,,株式会社,東京都,新宿区,高田馬場２丁目１４番９号明芳ビル２０１,,13,104,1690075,,,,,,,2024-11-12,1,,,,,エンバン,0
1172,5011101109492,新規,0,2024-11-12,2024-11-12,株式会社メンテホールディングス,,株式会社,東京都,新宿区,高田馬場１丁目１６番１５号,,13,104,1690075,,,,,,,2024-11-12,1,,,,,メンテホールディングス,0
1177,5011105011232,新規,0,2024-11-12,2024-11-12,弁理士法人ｉ‐ＭＩＲＡＩ,,その他の設立登記法人,東京都,新宿区,新宿１丁目５－４ＹＫＢマイクガーデン,,13,104,1600022,,,,,,,2024-11-12,1,,,,,アイミライ,0
1184,5011801045129,新規,0,2024-11-12,2024-11-12,ヴェルダッド株式会社,,株式会社,東京都,足立区,青井５丁目１１番４０－６０７号,,13,121,1210012,,,,,,,2024-11-12,1,,,,,ヴェルダッド,0
1187,5011805003413,新規,0,2024-11-12,2024-11-12,特定非営利活動法人産学プロジェクト,,その他の設立登記法人,東京都,足立区,柳原２丁目３９番４号,,13,121,1200022,,,,,,,2024-11-12,1,,,,,サンガクプロジェクト,0
1192,5012403006832,新規,0,2024-11-12,2024-11-12,合同会社ライラック,,合同会社,東京都,武蔵野市,吉祥寺北町１丁目２３番９号Ｂ‐１,,13,203,1800001,,,,,,,2024-11-12,1,,,,,ライラック,0
1194,5012801023553,新規,0,2024-11-12,2024-11-12,株式会社ＴＳプラン,,株式会社,東京都,武蔵村山市,残堀５丁目１４番地の３２,,13,223,2080034,,,,,,,2024-11-12,1,,,,,ティーエスプラン,0
1201,5020001160019,新規,0,2024-11-12,2024-11-12,株式会社フレイス,,株式会社,神奈川県,横浜市青葉区,青葉台２丁目３５番地３０,,14,117,2270062,,,,,,,2024-11-12,1,,,,,フレイス,0
1202,5020001160068,新規,0,2024-11-12,2024-11-12,プロシード株式会社,,株式会社,神奈川県,横浜市中区,太田町２丁目２１番地２新関内ビル３０１,,14,104,2310011,,,,,,,2024-11-12,1,,,,,プロシード,0
1207,5020003027199,新規,0,2024-11-12,2024-11-12,ＩＫＥＣＨＵＫＷＵ　ＡＵＴＯ　ＥＭＰＩＲＥ合同会社,,合同会社,神奈川県,横浜市西区,浅間町１丁目４番３号ウィザードビル４０２,,14,103,2200072,,,,,,,2024-11-12,1,,,,,イケシュクオートエンパイアー,0
1208,5020003027224,新規,0,2024-11-12,2024-11-12,ＳＬＳ合同会社,,合同会社,神奈川県,横浜市中区,長者町９丁目１６９番地翆葉ビルディングＩＩ８階,00136966,14,104,2310033,,,,,,,2024-11-12,1,,,,,エスエルエス,0
1209,5020005016596,新規,0,2024-11-12,2024-11-12,ワールド睦協同組合,,その他の設立登記法人,神奈川県,横浜市港北区,師岡町５９８番地,,14,109,2220002,,,,,,,2024-11-12,1,,,,,ワールドムツミ,0
1213,5021001083762,新規,0,2024-11-12,2024-11-12,モウマク株式会社,,株式会社,神奈川県,茅ヶ崎市,東海岸北５丁目５番４号,,14,207,2530053,,,,,,,2024-11-12,1,,,,,モウマク,0
1219,5021005013220,新規,0,2024-11-12,2024-11-12,一般社団法人源氏山公園の歴史的遺産と景観を守る会,,その他の設立登記法人,神奈川県,鎌倉市,梶原５丁目１６番１２号,,14,204,2470063,,,,,,,2024-11-12,1,,,,,ゲンジヤマコウエンノレキシテキイサントケイカンヲマモルカイ,0
1227,5030001163284,新規,0,2024-11-12,2024-11-12,株式会社リアリー,,株式会社,埼玉県,八潮市,大字大曽根１４７番地３,,11,234,3400834,,,,,,,2024-11-12,1,,,,,リアリー,0
1228,5030001163350,新規,0,2024-11-12,2024-11-12,株式会社丸正,,株式会社,埼玉県,比企郡鳩山町,鳩ヶ丘２丁目１番１号,,11,348,3500312,,,,,,,2024-11-12,1,,,,,マルショウ,0
1229,5030001163367,新規,0,2024-11-12,2024-11-12,＿盟株式会社,00136962,株式会社,埼玉県,川口市,幸町３丁目８－１０鈴木ビル５０１号,,11,203,3320016,,,,,,,2024-11-12,1,,,,,シンメイ,0
1230,5030001163383,新規,0,2024-11-12,2024-11-12,株式会社しふこも,,株式会社,埼玉県,さいたま市中央区,下落合３丁目１１番３号,,11,105,3380002,,,,,,,2024-11-12,1,,,,,シフコモ,0
1234,5030003025458,新規,0,2024-11-12,2024-11-12,大熊工業合同会社,,合同会社,埼玉県,さいたま市桜区,大字大久保領家３５４番地１,,11,106,3380826,,,,,,,2024-11-12,1,,,,,オオクマコウギョウ,0
1235,5030003025466,新規,0,2024-11-12,2024-11-12,Ｎｉｐｐｏｎ　Ｍｅｄｉｔｅｃｈ　ａｎｄ　Ｃｏｎｓｕｌｔｉｎｇ合同会社,,合同会社,埼玉県,越谷市,南越谷４丁目１１－５トラビ南越谷７Ｆ,,11,222,3430845,,,,,,,2024-11-12,1,,,,,ニッポンメディテックアンドコンサルティング,0
1237,5030005021934,新規,0,2024-11-12,2024-11-12,ＮＰＯ法人由宇,,その他の設立登記法人,埼玉県,志木市,上宗岡５丁目１８番１８－７０４号,,11,228,3530001,,,,,,,2024-11-12,1,,,,,ユウ,0
1240,5040001136116,新規,0,2024-11-12,2024-11-12,株式会社Ｈｏｌｏ　Ｉ　Ｍｕａ,,株式会社,千葉県,船橋市,大穴南２丁目２１番１７号,,12,204,2740067,,,,,,,2024-11-12,1,,,,,ホロイムア,0
1241,5040001136140,新規,0,2024-11-12,2024-11-12,株式会社水の郷さわら,,株式会社,千葉県,香取市,佐原イ３９８１番地１,,12,236,2870003,,,,,,,2024-11-12,1,,,,,ミズノサトサワラ,0
1250,5040003026174,新規,0,2024-11-12,2024-11-12,合同会社ＫＥＮ,,合同会社,千葉県,市川市,北方町４丁目１８０９番２号,,12,203,2720811,,,,,,,2024-11-12,1,,,,,ケン,0
1252,5050001055678,新規,0,2024-11-12,2024-11-12,株式会社ＫＧＣ,,株式会社,茨城県,東茨城郡城里町,大字阿波山３５番地の２,,08,310,3114344,,,,,,,2024-11-12,1,,,,,ケイジーシー,0
1253,5050001055686,新規,0,2024-11-12,2024-11-12,株式会社ＫＯＮＯＭＩ,,株式会社,茨城県,龍ケ崎市,川原代町１２３４番地１７,,08,208,3010005,,,,,,,2024-11-12,1,,,,,コノミ,0
1257,5060003005317,新規,0,2024-11-12,2024-11-12,合同会社マロニエ開発,,合同会社,栃木県,宇都宮市,岩曽町１４２７番地２サンシティマガミ１０３号,,09,201,3210973,,,,,,,2024-11-12,1,,,,,マロニエカイハツ,0
1258,5060005010265,新規,0,2024-11-12,2024-11-12,一般社団法人ＳＦ　ＮＩＫＫＯ,,その他の設立登記法人,栃木県,日光市,中宮祠２４７８番地３０,,09,206,3211661,,,,,,,2024-11-12,1,,,,,エスエフニッコウ,0
1272,5110001038833,新規,0,2024-11-12,2024-11-12,株式会社リベルタ,,株式会社,新潟県,妙高市,大字田切２０４－１セレージュ新赤倉２２４,,15,217,9492102,,,,,,,2024-11-12,1,,,,,リベルタ,0
1288,5120001270179,新規,0,2024-11-12,2024-11-12,潤良株式会社,,株式会社,大阪府,大阪市阿倍野区,丸山通２丁目３番２０号,,27,119,5450042,,,,,,,2024-11-12,1,,,,,ジュンリョウ,0
1289,5120001270187,新規,0,2024-11-12,2024-11-12,ＮＳＲホールディングス株式会社,,株式会社,大阪府,枚方市,高田２丁目３１－５,,27,210,5730073,,,,,,,2024-11-12,1,,,,,エヌエスアールホールディングス,0
1290,5120001270229,新規,0,2024-11-12,2024-11-12,株式会社シリウス,,株式会社,大阪府,大阪市西区,立売堀５丁目６番１５号,,27,106,5500012,,,,,,,2024-11-12,1,,,,,シリウス,0
1295,5120003027924,新規,0,2024-11-12,2024-11-12,プラス・ワン合同会社,,合同会社,大阪府,大阪市中央区,船場中央３丁目２－８船場センタービル８号館２１４,,27,128,5410055,,,,,,,2024-11-12,1,,,,,プラスワン,0
1296,5120003027949,新規,0,2024-11-12,2024-11-12,合同会社楼才,,合同会社,大阪府,大阪市中央区,内久宝寺町４丁目４－７ビエラコート内久宝寺３０４,,27,128,5400013,,,,,,,2024-11-12,1,,,,,ロウザイ,0
1297,5120005024614,新規,0,2024-11-12,2024-11-12,一般社団法人本町三丁目,,その他の設立登記法人,大阪府,大阪市北区,角田町１番１２号阪急ファイブアネックスビル５階,,27,127,5300017,,,,,,,2024-11-12,1,,,,,ホンマチサンチョウメ,0
1301,5120105009928,新規,0,2024-11-12,2024-11-12,一般社団法人ｎｉｃｏ,,その他の設立登記法人,大阪府,高石市,千代田１丁目９番２２号,,27,225,5920005,,,,,,,2024-11-12,1,,,,,ニコ,0
1303,5120905006653,新規,0,2024-11-12,2024-11-12,一般社団法人関西福祉訪問理美容協会,,その他の設立登記法人,大阪府,池田市,菅原町２番地４ピースビル３０１,,27,204,5630055,,,,,,,2024-11-12,1,,,,,カンサイフクシホウモンリビヨウキョウカイ,0
1311,5130003009995,新規,0,2024-11-12,2024-11-12,合同会社ＴＨＥ　ＥＹＥＢＲＯＷ京都,,合同会社,京都府,京都市下京区,七条新町西入ル夷之町６８６番地３コタニビル８０２,,26,106,6000000,,,,,,,2024-11-12,1,,,,,ザアイブロウキョウト,0
1319,5140001136403,新規,0,2024-11-12,2024-11-12,株式会社赤がき,,株式会社,兵庫県,神戸市兵庫区,荒田町２丁目４番６－１号,,28,105,6520032,,,,,,,2024-11-12,1,,,,,アカガキ,0
1320,5140001136428,新規,0,2024-11-12,2024-11-12,株式会社上鉄,,株式会社,兵庫県,川西市,一庫２丁目３番４７号,,28,217,6660153,,,,,,,2024-11-12,1,,,,,ウエテツ,0
1325,5140005027268,新規,0,2024-11-12,2024-11-12,ぼくらのキャンバス社会保険労務士法人,,その他の設立登記法人,兵庫県,神戸市中央区,海岸通４丁目３－１７清和ビル３８号,,28,110,6500024,,,,,,,2024-11-12,1,,,,,ボクラノキャンバス,0
1326,5180001164061,新規,0,2024-11-12,2024-11-12,食卓Ｌａｂｏ株式会社,,株式会社,愛知県,稲沢市,祖父江町二俣柳原９番地１,,23,220,4950013,,,,,,,2024-11-12,1,,,,,ショクタクラボ,0
1327,5180001164086,新規,0,2024-11-12,2024-11-12,株式会社ｚｕｔｔｏ,,株式会社,愛知県,名古屋市中川区,高畑５丁目６８番地,,23,110,4540911,,,,,,,2024-11-12,1,,,,,ズット,0
1334,5200005013682,新規,0,2024-11-12,2024-11-12,きらぼし行政書士法人,,その他の設立登記法人,岐阜県,羽島市,福寿町本郷２丁目１４６番地,,21,209,5016254,,,,,,,2024-11-12,1,,,,,キラボシ,0
1337,5230001020614,新規,0,2024-11-12,2024-11-12,株式会社ＳＤサポート,,株式会社,富山県,射水市,黒河２７０２番地３１,,16,211,9390311,,,,,,,2024-11-12,1,,,,,エスディーサポート,0
1339,5240001064098,新規,0,2024-11-12,2024-11-12,株式会社Ｓｌｏｔｈ,,株式会社,広島県,広島市中区,三川町１０番１８号５Ｆ,,34,101,7300029,,,,,,,2024-11-12,1,,,,,スロース,0
1340,5240003006940,新規,0,2024-11-12,2024-11-12,ｔｏｆｆｅｅ合同会社,,合同会社,広島県,呉市,広両谷３丁目７－２９,,34,202,7370123,,,,,,,2024-11-12,1,,,,,トフィ,0
1349,5260001039643,新規,0,2024-11-12,2024-11-12,和田電工企画株式会社,,株式会社,岡山県,岡山市南区,植松９７番地７,,33,104,7100151,,,,,,,2024-11-12,1,,,,,ワダデンコウキカク,0
1354,5270003001682,新規,0,2024-11-12,2024-11-12,合同会社ＴＯＳＨＩ,,合同会社,鳥取県,米子市,米原７丁目２番１２号,,31,202,6830804,,,,,,,2024-11-12,1,,,,,トシ,0
1358,5290801031029,新規,0,2024-11-12,2024-11-12,株式会社Ｌｉｌｙ,,株式会社,福岡県,北九州市小倉北区,井堀１丁目１３番６号,,40,106,8030835,,,,,,,2024-11-12,1,,,,,リリー,0
1366,5330001032649,新規,0,2024-11-12,2024-11-12,ＳＡＮ・フードサービス株式会社,,株式会社,熊本県,熊本市中央区,平成３丁目１６番１９号,,43,101,8600833,,,,,,,2024-11-12,1,,,,,サンフードサービス,0
1370,5340001026930,新規,0,2024-11-12,2024-11-12,株式会社ＹＡＺ,,株式会社,鹿児島県,鹿児島市,川上町４６０番地１,,46,201,8920875,,,,,,,2024-11-12,1,,,,,ヤズ,0
1372,5340003004653,新規,0,2024-11-12,2024-11-12,合同会社飯野べぶクリニック,,合同会社,鹿児島県,鹿屋市,笠之原町３９番１８－１号,,46,203,8930023,,,,,,,2024-11-12,1,,,,,イイノベブクリニック,0
1373,5350001019280,新規,0,2024-11-12,2024-11-12,ＲＳＰコンサルティング株式会社,,株式会社,宮崎県,宮崎市,江南３丁目１６番３号,,45,201,8800944,,,,,,,2024-11-12,1,,,,,アールエスピーコンサルティング,0
1385,5370005010853,新規,0,2024-11-12,2024-11-12,一般社団法人技術検定受検支援センター,,その他の設立登記法人,宮城県,仙台市宮城野区,銀杏町２５番６号コーポ石仁２０２,,04,102,9830047,,,,,,,2024-11-12,1,,,,,ギジュツケンテイジュケンシエンセンター,0
1396,5390003002306,新規,0,2024-11-12,2024-11-12,Ａｉｌｌｂｅ合同会社,,合同会社,山形県,山形市,若宮３丁目７番３０－１４０１号ドゥペール吉原弐番館,,06,201,9902453,,,,,,,2024-11-12,1,,,,,アイルビー,0
1398,5420001018911,新規,0,2024-11-12,2024-11-12,株式会社ヤマヨ,,株式会社,青森県,八戸市,江陽４丁目１０番２４号,,02,203,0310801,,,,,,,2024-11-12,1,,,,,ヤマヨ,0
1404,5430001093029,新規,0,2024-11-12,2024-11-12,株式会社石崎農園,,株式会社,北海道,勇払郡むかわ町,穂別４８８番地４,,01,586,0540211,,,,,,,2024-11-12,1,,,,,イシザキノウエン,0
1405,5430001093045,新規,0,2024-11-12,2024-11-12,株式会社ＵＰ　ｒｉｖｅｒ,,株式会社,北海道,札幌市中央区,南五条西４丁目５－２クリスタルビル２階,,01,101,0640805,,,,,,,2024-11-12,1,,,,,アップリバー,0
1406,5430001093053,新規,0,2024-11-12,2024-11-12,ケイソーテクノス株式会社,,株式会社,北海道,札幌市手稲区,手稲本町五条２丁目１６番７号,,01,109,0060025,,,,,,,2024-11-12,1,,,,,ケイソーテクノス,0
1413,5430003016978,新規,0,2024-11-12,2024-11-12,合同会社光緑,,合同会社,北海道,札幌市清田区,北野七条５丁目１０番１９号,,01,110,0040867,,,,,,,2024-11-12,1,,,,,コウロク,0
1414,5430003016986,新規,0,2024-11-12,2024-11-12,合同会社ＹＨ,,合同会社,北海道,北広島市,中央３丁目７番地７,,01,234,0611121,,,,,,,2024-11-12,1,,,,,ワイエイチ,0
1415,5430003016994,新規,0,2024-11-12,2024-11-12,合同会社Ｙプロジェクト,,合同会社,北海道,札幌市中央区,南十一条西２１丁目４番１－４０３号,,01,101,0640811,,,,,,,2024-11-12,1,,,,,ワイプロジェクト,0
1418,5490001010903,新規,0,2024-11-12,2024-11-12,株式会社エスポリス,,株式会社,高知県,南国市,大＿甲３９４番地１,00136965,39,204,7830004,,,,,,,2024-11-12,1,,,,,,0
1421,5700150127856,新規,0,2024-11-12,2024-11-12,ＶＩＳＩＯＮ　ＬＡＮＫＡ　ＥＮＴＥＲＰＲＩＳＥＳ,,外国会社等,千葉県,柏市,藤ケ谷２１５番地６,,12,217,2770931,スリランカ民主社会主義共和国、プッタラム、ワナタヴィルワ、１３マイルポスト,,,,,,2024-11-12,1,,,,,ビジヨンランカエンタープライゼス,0
1428,6010001249605,新規,0,2024-11-12,2024-11-12,ＴＥＣ　ＦＡＲＭ株式会社,,株式会社,東京都,文京区,本郷１丁目３２－３－８０３室,,13,105,1130033,,,,,,,2024-11-12,1,,,,,テックファーム,0
1438,6010003045333,新規,0,2024-11-12,2024-11-12,ＦＩＶＥＳＴＡＲ合同会社,,合同会社,東京都,文京区,大塚２丁目１７番２号プティメゾン３０１号室,00136967,13,105,1120012,,,,,,,2024-11-12,1,,,,,ファイブスター,0
1439,6010003045432,新規,0,2024-11-12,2024-11-12,合同会社Ｙ＆Ｙ,,合同会社,東京都,中央区,京橋２丁目１２－９寺沢ビル７階,,13,102,1040031,,,,,,,2024-11-12,1,,,,,ワイアンドワイ,0
1455,6010005039069,新規,0,2024-11-12,2024-11-12,弁護士法人国会通り法律事務所,,その他の設立登記法人,東京都,千代田区,日比谷公園１番３号,,13,101,1000012,,,,,,,2024-11-12,1,,,,,コッカイドオリホウリツジムショ,0
1456,6010101016392,新規,0,2024-11-12,2024-11-12,Ｊ＆Ｊ株式会社,,株式会社,東京都,八王子市,南大沢５丁目２１番地７４,,13,201,1920364,,,,,,,2024-11-12,1,,,,,,0
1467,6010503007634,新規,0,2024-11-12,2024-11-12,合同会社リトルシシ,,合同会社,東京都,台東区,三ノ輪１丁目５番１号サトウプラザ３０２,,13,106,1100011,,,,,,,2024-11-12,1,,,,,リトルシシ,0
1468,6010703007434,新規,0,2024-11-12,2024-11-12,いくたま合同会社,,合同会社,東京都,品川区,上大崎３丁目１番１号目黒セントラルスクエア１５階,,13,109,1410021,,,,,,,2024-11-12,1,,,,,イクタマ,0
1481,6011001165742,新規,0,2024-11-12,2024-11-12,株式会社トップリーチ,,株式会社,東京都,渋谷区,恵比寿西２丁目４番８号ウィンド恵比寿ビル８Ｆ,,13,113,1500021,,,,,,,2024-11-12,1,,,,,トップリーチ,0
1482,6011001165775,新規,0,2024-11-12,2024-11-12,株式会社Ｅｅｌ　Ｇａｍｅ　Ｓｔｕｄｉｏ,,株式会社,東京都,渋谷区,広尾１丁目７番２０号ＤＯＴビル２Ｆ,,13,113,1500012,,,,,,,2024-11-12,1,,,,,イールゲームスタジオ,0
1483,6011001165858,新規,0,2024-11-12,2024-11-12,株式会社空装,,株式会社,東京都,渋谷区,本町４丁目２３番５号ガーディナ初台３０５,,13,113,1510071,,,,,,,2024-11-12,1,,,,,クウソウ,0
1484,6011001165908,新規,0,2024-11-12,2024-11-12,株式会社ＮＰＳＷ,,株式会社,東京都,渋谷区,代々木１丁目２５番地５ＢＩＺＳＭＡＲＴ代々木,,13,113,1510053,,,,,,,2024-11-12,1,,,,,エヌピーエスダブリュー,0
1485,6011003020367,新規,0,2024-11-12,2024-11-12,エージーオー合同会社,,合同会社,東京都,渋谷区,道玄坂１丁目１０番８号渋谷道玄坂東急ビル２Ｆ－Ｃ,,13,113,1500043,,,,,,,2024-11-12,1,,,,,エージーオー,0
1487,6011101109459,新規,0,2024-11-12,2024-11-12,株式会社月の雅,,株式会社,東京都,新宿区,西新宿４丁目８番１１－２０１号,,13,104,1600023,,,,,,,2024-11-12,1,,,,,ツキノミヤビ,0
1488,6011101109467,新規,0,2024-11-12,2024-11-12,株式会社エイジェックＡＤプロモーション,,株式会社,東京都,新宿区,西新宿１丁目２５番１号新宿センタービル４６階,,13,104,1600023,,,,,,,2024-11-12,1,,,,,エイジェックアドプロモーション,0
1489,6011101109491,新規,0,2024-11-12,2024-11-12,株式会社Ｍｏｇｕｕ,,株式会社,東京都,新宿区,愛住町１１番地１－２０２号室,,13,104,1600005,,,,,,,2024-11-12,1,,,,,モグー,0
1490,6011101109500,新規,0,2024-11-12,2024-11-12,咲花商事株式会社,,株式会社,東京都,新宿区,西新宿６丁目１２番１６号天空ＭＵＲＡ１１０５号室,,13,104,1600023,,,,,,,2024-11-12,1,,,,,サクハナショウジ,0
1494,6011105011231,新規,0,2024-11-12,2024-11-12,一般社団法人コア・シックス,,その他の設立登記法人,東京都,新宿区,西新宿８丁目５番１号,,13,104,1600023,,,,,,,2024-11-12,1,,,,,コアシックス,0
1498,6011503006295,新規,0,2024-11-12,2024-11-12,合同会社ＴＡＫＡＲＡ,,合同会社,東京都,北区,王子本町１丁目５番１６－２０４号サニーハイツ王子本町,,13,117,1140022,,,,,,,2024-11-12,1,,,,,タカラ,0
1499,6011603004513,新規,0,2024-11-12,2024-11-12,合同会社誉れ,,合同会社,東京都,練馬区,大泉学園町６丁目１５番３４号,,13,120,1780061,,,,,,,2024-11-12,1,,,,,ホマレ,0
1503,6011701027795,新規,0,2024-11-12,2024-11-12,株式会社セブンシーズトゥーランズ,,株式会社,東京都,江戸川区,中葛西６丁目１８番１０－１００５号,,13,123,1340083,,,,,,,2024-11-12,1,,,,,セブンシーズトゥーランズ,0
1511,6012701018553,新規,0,2024-11-12,2024-11-12,クインテット株式会社,,株式会社,東京都,西東京市,富士町４丁目２８番１４号ヒカリハイツ２０１号,,13,229,2020014,,,,,,,2024-11-12,1,,,,,クインテット,0
1513,6012803003544,新規,0,2024-11-12,2024-11-12,合同会社Ｒ＆Ｂ,,合同会社,東京都,日野市,東豊田３丁目２６－１７－５０２,,13,212,1910052,,,,,,,2024-11-12,1,,,,,アールアンドビー,0
1521,6020001159984,新規,0,2024-11-12,2024-11-12,株式会社レアリア,,株式会社,神奈川県,横浜市金沢区,東朝比奈３丁目１５番１－２２４,,14,108,2360033,,,,,,,2024-11-12,1,,,,,レアリア,0
1526,6020003027223,新規,0,2024-11-12,2024-11-12,ＳＵＮＲＩＤＥ合同会社,,合同会社,神奈川県,横浜市鶴見区,北寺尾１丁目９番３１号,,14,101,2300074,,,,,,,2024-11-12,1,,,,,サンライド,0
1529,6021001083745,新規,0,2024-11-12,2024-11-12,公悦株式会社,,株式会社,神奈川県,伊勢原市,高森４丁目３番２５号,,14,214,2591114,,,,,,,2024-11-12,1,,,,,コウエツ,0
1530,6021001083753,新規,0,2024-11-12,2024-11-12,株式会社リメイクホーム,,株式会社,神奈川県,大和市,福田５丁目５番地１４,,14,213,2420024,,,,,,,2024-11-12,1,,,,,リメイクホーム,0
1532,6021003015218,新規,0,2024-11-12,2024-11-12,合同会社ＷＩＮＤＷＡＶＥＳ,,合同会社,神奈川県,藤沢市,辻堂西海岸１丁目２－１５,,14,205,2510046,,,,,,,2024-11-12,1,,,,,ウィンドウェーブス,0
1544,6030001163275,新規,0,2024-11-12,2024-11-12,ＭＤ空気株式会社,,株式会社,埼玉県,さいたま市西区,大字内野本郷９２７番地３－１０２,,11,101,3310045,,,,,,,2024-11-12,1,,,,,エムディークウキ,0
1545,6030001163358,新規,0,2024-11-12,2024-11-12,株式会社ブラストビルド,,株式会社,埼玉県,さいたま市大宮区,三橋４丁目９０９番地４,,11,103,3300856,,,,,,,2024-11-12,1,,,,,ブラストビルド,0
1546,6030001163366,新規,0,2024-11-12,2024-11-12,三火株式会社,,株式会社,埼玉県,蕨市,錦町５丁目１３－４２,,11,223,3350005,,,,,,,2024-11-12,1,,,,,サンヒ,0
1547,6030001163374,新規,0,2024-11-12,2024-11-12,ＡＫＡ山株式会社,,株式会社,埼玉県,さいたま市西区,大字内野本郷９２７番地３－２０１,,11,101,3310045,,,,,,,2024-11-12,1,,,,,アカヤマ,0
1548,6030001163390,新規,0,2024-11-12,2024-11-12,凛楓建設工業株式会社,,株式会社,埼玉県,鴻巣市,糠田１５６０番地８,,11,217,3650059,,,,,,,2024-11-12,1,,,,,リンカケンセツコウギョウ,0
1549,6030001163416,新規,0,2024-11-12,2024-11-12,株式会社和道,,株式会社,埼玉県,さいたま市浦和区,岸町７丁目６番１３号全埼玉県パンビル４－Ｂ号室,,11,107,3300064,,,,,,,2024-11-12,1,,,,,ワドウ,0
1550,6030001163432,新規,0,2024-11-12,2024-11-12,株式会社プロス管理,,株式会社,埼玉県,さいたま市桜区,栄和２丁目２４番８号,,11,106,3380823,,,,,,,2024-11-12,1,,,,,プロスカンリ,0
1563,6040003026173,新規,0,2024-11-12,2024-11-12,三石合同会社,,合同会社,千葉県,千葉市花見川区,大日町１２５３番地,,12,102,2620004,,,,,,,2024-11-12,1,,,,,ミツイシ,0
1565,6050001055628,新規,0,2024-11-12,2024-11-12,株式会社ＫＥＮＪＵ,,株式会社,茨城県,土浦市,東都和８番２号,,08,203,3000067,,,,,,,2024-11-12,1,,,,,ケンジュ,0
1575,6060001037641,新規,0,2024-11-12,2024-11-12,株式会社アスカ開発,,株式会社,栃木県,宇都宮市,豊郷台２丁目３４番地１０,,09,201,3200003,,,,,,,2024-11-12,1,,,,,アスカカイハツ,0
1578,6070003005653,新規,0,2024-11-12,2024-11-12,合同会社ＡＫＮＲ　ＥＮＴＥＲＰＲＩＳＥＳ,,合同会社,群馬県,桐生市,新里町鶴ヶ谷１４４番地１０,,10,203,3760132,,,,,,,2024-11-12,1,,,,,アーケーエヌアールエンタープライセス,0
1584,6090001018985,新規,0,2024-11-12,2024-11-12,つけたろう株式会社,,株式会社,山梨県,大月市,猿橋町伊良原２２１番地２,,19,206,4090613,,,,,,,2024-11-12,1,,,,,ツケタロウ,0
1585,6100001038016,新規,0,2024-11-12,2024-11-12,株式会社インターコート藤,,株式会社,長野県,長野市,大字南長野字山王１２２１番地８の１,,20,201,3810000,,,,,,,2024-11-12,1,,,,,インターコートフジ,0
1588,6100003007852,新規,0,2024-11-12,2024-11-12,合同会社ＷＭＦ,,合同会社,長野県,飯田市,川路２６５８,,20,205,3992431,,,,,,,2024-11-12,1,,,,,ワールドマネージメントフラクタル,0
1605,6120001270145,新規,0,2024-11-12,2024-11-12,日農株式会社,,株式会社,大阪府,大阪市城東区,関目５丁目１９番９号関目花博公館５１２Ａ,,27,118,5360008,,,,,,,2024-11-12,1,,,,,ヒノウ,0
1606,6120001270194,新規,0,2024-11-12,2024-11-12,株式会社デリシア,,株式会社,大阪府,大阪市北区,同心２丁目５番１６号岡本ビル３０３号室,,27,127,5300035,,,,,,,2024-11-12,1,,,,,デリシア,0
1607,6120001270203,新規,0,2024-11-12,2024-11-12,株式会社中澤建築設計事務所,,株式会社,大阪府,大阪市北区,大淀中１丁目１６番１６号,,27,127,5310076,,,,,,,2024-11-12,1,,,,,ナカザワケンチクセッケイジムショ,0
1608,6120001270228,新規,0,2024-11-12,2024-11-12,株式会社スピカ,,株式会社,大阪府,大阪市西区,立売堀５丁目６番１５号,,27,106,5500012,,,,,,,2024-11-12,1,,,,,スピカ,0
1609,6120001270236,新規,0,2024-11-12,2024-11-12,日本蘿瑞株式会社,,株式会社,大阪府,大阪市西成区,梅南２丁目２－２６－２０１号,,27,122,5570033,,,,,,,2024-11-12,1,,,,,ニホンラズイ,0
1614,6120003027956,新規,0,2024-11-12,2024-11-12,合同会社ＥＳＭＥＤＩＣＳ,,合同会社,大阪府,大阪市中央区,難波千日前４番９号,,27,128,5420075,,,,,,,2024-11-12,1,,,,,エスメディックス,0
1620,6120901050027,新規,0,2024-11-12,2024-11-12,シノベート株式会社,,株式会社,大阪府,吹田市,豊津町１５番３０－１１０１号,,27,205,5640051,,,,,,,2024-11-12,1,,,,,シノベート,0
1625,6130003009994,新規,0,2024-11-12,2024-11-12,右京水道設備合同会社,,合同会社,京都府,京都市右京区,太秦前ノ田町１９番地５,,26,108,6168146,,,,,,,2024-11-12,1,,,,,ウキョウスイドウセツビ,0
1636,6140001136393,新規,0,2024-11-12,2024-11-12,株式会社Ｌｉｌｌｙ,,株式会社,兵庫県,尼崎市,戸ノ内町２丁目４番３０号,,28,202,6610961,,,,,,,2024-11-12,1,,,,,リリー,0
1637,6140001136410,新規,0,2024-11-12,2024-11-12,株式会社ｅｎ　ｃａｒｅ,,株式会社,兵庫県,加古川市,尾上町口里１５６番地の４,,28,210,6750022,,,,,,,2024-11-12,1,,,,,エンケア,0
1648,6140003021313,新規,0,2024-11-12,2024-11-12,合同会社おとしぇあ,,合同会社,兵庫県,神戸市中央区,磯辺通１丁目１番１８号カサベラ国際プラザビル７０７号室,,28,110,6510084,,,,,,,2024-11-12,1,,,,,オトシェア,0
1653,6160001026345,新規,0,2024-11-12,2024-11-12,モリソンインターナショナル株式会社,,株式会社,滋賀県,大津市,富士見台３１番３７－３０３号,,25,201,5200846,,,,,,,2024-11-12,1,,,,,モリソンインターナショナル,0
1660,6180001164060,新規,0,2024-11-12,2024-11-12,株式会社白原板金,,株式会社,愛知県,一宮市,木曽川町門間字西大坪３６番地ラディーチェ２０１,,23,203,4930002,,,,,,,2024-11-12,1,,,,,シラハラバンキン,0
1661,6180001164077,新規,0,2024-11-12,2024-11-12,株式会社サカエスカイビル,,株式会社,愛知県,名古屋市千種区,春里町２丁目１２番２６号,,23,101,4640038,,,,,,,2024-11-12,1,,,,,サカエスカイビル,0
1662,6180001164085,新規,0,2024-11-12,2024-11-12,株式会社ベルフローレ,,株式会社,愛知県,尾張旭市,庄中町１丁目８番地８,,23,226,4880838,,,,,,,2024-11-12,1,,,,,ベルフローレ,0
1665,6180003027587,新規,0,2024-11-12,2024-11-12,体調不良児対応型保育事業そよかぜ合同会社,,合同会社,愛知県,名古屋市中区,千代田３丁目４－７マルゼンビル１階,,23,106,4600012,,,,,,,2024-11-12,1,,,,,タイチョウフリョウジタイオウガタホイクジギョウソヨカゼ,0
1666,6180003027604,新規,0,2024-11-12,2024-11-12,ＲＩＮ合同会社,,合同会社,愛知県,名古屋市中川区,豊成町１番２‐２１５号,,23,110,4540803,,,,,,,2024-11-12,1,,,,,リン,0
1675,6200001043121,新規,0,2024-11-12,2024-11-12,株式会社Ｒｅ‐ＢＯＲＮ,,株式会社,岐阜県,大垣市,林町１０丁目８２番地２,,21,202,5030015,,,,,,,2024-11-12,1,,,,,リボーン,0
1684,6230001020613,新規,0,2024-11-12,2024-11-12,ＡＳＩＡ　ＪＡＰＡＮ株式会社,,株式会社,富山県,射水市,二の丸町５番１３号,,16,211,9340026,,,,,,,2024-11-12,1,,,,,アジアジャパン,0
1689,6240001064080,新規,0,2024-11-12,2024-11-12,創安警備株式会社,,株式会社,広島県,広島市東区,山根町２７番１号トーカンマンション山根町Ｃ棟１４１１,,34,102,7320048,,,,,,,2024-11-12,1,,,,,ソウアンケイビ,0
1690,6240001064106,新規,0,2024-11-12,2024-11-12,株式会社ライン松浦,,株式会社,広島県,福山市,東手城町１丁目３０番３５号,,34,207,7210962,,,,,,,2024-11-12,1,,,,,ラインマツウラ,0
1709,6290001107966,新規,0,2024-11-12,2024-11-12,カナエ株式会社,,株式会社,福岡県,福岡市博多区,博多駅前４丁目３３－１１－７１５号,,40,132,8120011,,,,,,,2024-11-12,1,,,,,カナエ,0
1717,6300001013972,新規,0,2024-11-12,2024-11-12,株式会社ＳＨＩＢＵＩ,,株式会社,佐賀県,神埼郡吉野ヶ里町,大曲１５０２番地１,,41,327,8420103,,,,,,,2024-11-12,1,,,,,シブイ,0
1720,6320001020802,新規,0,2024-11-12,2024-11-12,株式会社Ｊｉｎ,,株式会社,大分県,由布市,庄内町大龍２１２５番地４コーポ大竜,,44,213,8795413,,,,,,,2024-11-12,1,,,,,ジン,0
1722,6320005010196,新規,0,2024-11-12,2024-11-12,一般社団法人Ｃｏｃｃｏｌｅ　Ｃａｒｅ,,その他の設立登記法人,大分県,大分市,星和台２丁目２２番１０号エトワール・ホウタク３０１,,44,201,8701114,,,,,,,2024-11-12,1,,,,,コッコレケア,0
1723,6330001032648,新規,0,2024-11-12,2024-11-12,宮本農園株式会社,,株式会社,熊本県,熊本市南区,城南町鰐瀬１８６８－３９,,43,104,8614222,,,,,,,2024-11-12,1,,,,,ミヤモトノウエン,0
1732,6360003014451,新規,0,2024-11-12,2024-11-12,合同会社ガチャキン,,合同会社,沖縄県,宜野湾市,大謝名５丁目１６番３４号,,47,205,9012225,,,,,,,2024-11-12,1,,,,,ガチャキン,0
1735,6370001051891,新規,0,2024-11-12,2024-11-12,株式会社ｉｍｐｒｅｓｓｉｖｅ,,株式会社,宮城県,仙台市青葉区,昭和町１番３７号,,04,101,9810913,,,,,,,2024-11-12,1,,,,,インプレッシブ,0
1736,6370001051909,新規,0,2024-11-12,2024-11-12,株式会社東光電機,,株式会社,宮城県,仙台市太白区,長町南３丁目１３－１３,,04,104,9820012,,,,,,,2024-11-12,1,,,,,トウコウデンキ,0
1739,6370003006811,新規,0,2024-11-12,2024-11-12,合同会社栗環,,合同会社,宮城県,栗原市,栗駒岩ケ崎神南１５番地３,,04,213,9895301,,,,,,,2024-11-12,1,,,,,クリカン,0
1745,6380003005886,新規,0,2024-11-12,2024-11-12,合同会社ＥＭＺＥＱ,,合同会社,福島県,白河市,昭和町１５６番地１トレンドビル２０２号室,,07,205,9610971,,,,,,,2024-11-12,1,,,,,エムゼック,0
1750,6430001093028,新規,0,2024-11-12,2024-11-12,ＢＮＳ　Ｓｐｏｒｔｓ株式会社,,株式会社,北海道,札幌市豊平区,旭町６丁目２番１号サンハイツ木の花４０１号室,,01,105,0620911,,,,,,,2024-11-12,1,,,,,ビーエヌエススポーツ,0
1751,6430001093044,新規,0,2024-11-12,2024-11-12,株式会社べ,,株式会社,北海道,札幌市中央区,南七条西１３丁目２－１,,01,101,0640807,,,,,,,2024-11-12,1,,,,,ベ,0
1752,6430001093069,新規,0,2024-11-12,2024-11-12,株式会社アールズパートナーズ,,株式会社,北海道,千歳市,梅ケ丘１丁目３番２４号,,01,224,0660025,,,,,,,2024-11-12,1,,,,,アールズパートナーズ,0
1763,6500003003365,新規,0,2024-11-12,2024-11-12,合同会社ブライト,,合同会社,愛媛県,松山市,三番町２丁目４番地１,,38,201,7900003,,,,,,,2024-11-12,1,,,,,ブライト,0
1769,7010001249736,新規,0,2024-11-12,2024-11-12,株式会社トレシア,,株式会社,東京都,中央区,銀座１丁目１２－４Ｎ＆ＥＢＬＤ．７階,,13,102,1040061,,,,,,,2024-11-12,1,,,,,トレシア,0
1770,7010001249777,新規,0,2024-11-12,2024-11-12,森＿株式会社,00136964,株式会社,東京都,文京区,水道２丁目９番８号江戸川ハイツ２１５号室,,13,105,1120005,,,,,,,2024-11-12,1,,,,,シンシュウ,0
1784,7010003045423,新規,0,2024-11-12,2024-11-12,大府リテールマネージメント合同会社,,合同会社,東京都,千代田区,丸の内１丁目１１番１号,,13,101,1000005,,,,,,,2024-11-12,1,,,,,オオブリテールマネージメント,0
1792,7010103002448,新規,0,2024-11-12,2024-11-12,合同会社ｏｃｔｅｔ,,合同会社,東京都,八王子市,中町３番１３号ＯＫビル地下１階,,13,201,1920085,,,,,,,2024-11-12,1,,,,,オクテット,0
1797,7010401186216,新規,0,2024-11-12,2024-11-12,株式会社ソルナセ,,株式会社,東京都,港区,白金６丁目１２－２７ＥＩＷＡ白金１Ｆ,,13,103,1080072,,,,,,,2024-11-12,1,,,,,ソルナセ,0
1798,7010401186298,新規,0,2024-11-12,2024-11-12,合特株式会社,,株式会社,東京都,港区,芝浦２丁目１２番３号８０３号室,,13,103,1080023,,,,,,,2024-11-12,1,,,,,ゴウトク,0
1799,7010401186372,新規,0,2024-11-12,2024-11-12,株式会社Ａｄｄａｘｉｔ,,株式会社,東京都,港区,南青山４丁目１８－１１フォレストヒルズイーストウィング２Ｆ,,13,103,1070062,,,,,,,2024-11-12,1,,,,,アダクジット,0
1800,7010403033721,新規,0,2024-11-12,2024-11-12,合同会社宙船,,合同会社,東京都,港区,北青山３丁目５番１４号７階,,13,103,1070061,,,,,,,2024-11-12,1,,,,,ソラフネ,0
1811,7010901056232,新規,0,2024-11-12,2024-11-12,株式会社リセンシア,,株式会社,東京都,世田谷区,千歳台１丁目３１番８－３１４号,,13,112,1570071,,,,,,,2024-11-12,1,,,,,リセンシア,0
1821,7011003020374,新規,0,2024-11-12,2024-11-12,イテンマニュファクチャリング合同会社,,合同会社,東京都,渋谷区,恵比寿西２丁目４番８号ウィンド恵比寿ビル８Ｆ,,13,113,1500021,,,,,,,2024-11-12,1,,,,,イテンマニュファクチャリング,0
1827,7011201025919,新規,0,2024-11-12,2024-11-12,ウェンディ＆ウィリー株式会社,,株式会社,東京都,中野区,中野５丁目１番９号ｍｙｐｌａｎ中野Ａ２０５号室,,13,114,1640001,,,,,,,2024-11-12,1,,,,,ウェンディアンドウィリー,0
1830,7011701027794,新規,0,2024-11-12,2024-11-12,株式会社ジョーステック,,株式会社,東京都,江戸川区,西葛西５丁目７番６号５階５０５室,,13,123,1340088,,,,,,,2024-11-12,1,,,,,ジョーステック,0
1831,7011701027803,新規,0,2024-11-12,2024-11-12,株式会社ＳＵＮＲＩＳＥＴＲＩ,,株式会社,東京都,江戸川区,平井１丁目１５番９号メゾン・ド・エラワン１０２,,13,123,1320035,,,,,,,2024-11-12,1,,,,,サンライズトライ,0
1835,7011801045127,新規,0,2024-11-12,2024-11-12,光輝株式会社,,株式会社,東京都,足立区,千住東１丁目４番１１－２０２号,,13,121,1200025,,,,,,,2024-11-12,1,,,,,コウキ,0
1836,7011803006548,新規,0,2024-11-12,2024-11-12,合同会社田弥,,合同会社,東京都,足立区,東和４丁目８番１２－１０１号,,13,121,1200003,,,,,,,2024-11-12,1,,,,,タヤ,0
1838,7012301014150,新規,0,2024-11-12,2024-11-12,株式会社ＥＮＩＳＨＩ,,株式会社,東京都,町田市,原町田２丁目９番８号高ヶ坂橋ビル１階,,13,209,1940013,,,,,,,2024-11-12,1,,,,,エニシ,0
1839,7012401042472,新規,0,2024-11-12,2024-11-12,１１ｘ株式会社,,株式会社,東京都,武蔵野市,吉祥寺南町１丁目６番１８－３０５号ルネ吉祥寺,,13,203,1800003,,,,,,,2024-11-12,1,,,,,イレブンエックス,0
1840,7012403006839,新規,0,2024-11-12,2024-11-12,合同会社なか美,,合同会社,東京都,武蔵野市,吉祥寺本町１丁目２６番１号－１階,,13,203,1800004,,,,,,,2024-11-12,1,,,,,ナカミ,0
1842,7012803003543,新規,0,2024-11-12,2024-11-12,合同会社殿ヶ谷,,合同会社,東京都,国分寺市,南町３丁目４番１８号寺田ビル３０２号室,,13,214,1850021,,,,,,,2024-11-12,1,,,,,トノガヤ,0
1848,7020001159934,新規,0,2024-11-12,2024-11-12,２ｎｄ８株式会社,,株式会社,神奈川県,横浜市青葉区,鉄町１０７１－３エルシエロＢ２０１,,14,117,2250025,,,,,,,2024-11-12,1,,,,,セカンドエイト,0
1849,7020001160058,新規,0,2024-11-12,2024-11-12,株式会社Ｂｏｎｈｅｕｒ,,株式会社,神奈川県,横浜市神奈川区,六角橋３丁目１３番３号ウィステリア２０３号,,14,102,2210802,,,,,,,2024-11-12,1,,,,,ボヌール,0
1852,7020005016594,新規,0,2024-11-12,2024-11-12,一般社団法人泉区音楽スポーツ文化振興会,,その他の設立登記法人,神奈川県,横浜市泉区,中田南４丁目２０番６号,,14,116,2450014,,,,,,,2024-11-12,1,,,,,イズミクオンガクスポーツブンカシンコウカイ,0
1856,7021005013219,新規,0,2024-11-12,2024-11-12,一般社団法人日本スティック競技振興協会,,その他の設立登記法人,神奈川県,大和市,中央林間７丁目９番５－１０７号,,14,213,2420007,,,,,,,2024-11-12,1,,,,,ニホンスティックキョウギシンコウキョウカイ,0
1868,7030001163258,新規,0,2024-11-12,2024-11-12,株式会社Ｈｉ‐Ｂ建設,,株式会社,埼玉県,さいたま市岩槻区,城町２丁目４－１６,,11,110,3390053,,,,,,,2024-11-12,1,,,,,ハイビーケンセツ,0
1869,7030001163349,新規,0,2024-11-12,2024-11-12,株式会社千結び,,株式会社,埼玉県,久喜市,古久喜８４５番地１ライオンズガーデン久喜店舗棟２号室,,11,232,3460001,,,,,,,2024-11-12,1,,,,,センムスビ,0
1870,7030001163357,新規,0,2024-11-12,2024-11-12,厚朴株式会社,,株式会社,埼玉県,八潮市,大字西袋６７６番地２２号２階,,11,234,3400833,,,,,,,2024-11-12,1,,,,,コウボク,0
1871,7030001163365,新規,0,2024-11-12,2024-11-12,株式会社ＤＡＩＴＯ,,株式会社,埼玉県,入間市,大字野田２２４番地２７,,11,225,3580054,,,,,,,2024-11-12,1,,,,,ダイトウ,0
1872,7030001163415,新規,0,2024-11-12,2024-11-12,株式会社やないＮｅｘｔ　Ｈｏｍｅ,,株式会社,埼玉県,さいたま市見沼区,東大宮１丁目３０番地６－２階,,11,104,3370051,,,,,,,2024-11-12,1,,,,,ヤナイネクストホーム,0
1873,7030001163423,新規,0,2024-11-12,2024-11-12,株式会社プリン,,株式会社,埼玉県,入間郡三芳町,大字上富１５４７番地１０,,11,324,3540045,,,,,,,2024-11-12,1,,,,,プリン,0
1875,7030003025448,新規,0,2024-11-12,2024-11-12,合同会社コネップ,,合同会社,埼玉県,新座市,野寺２丁目１６番７号,,11,230,3520034,,,,,,,2024-11-12,1,,,,,コネップ,0
1876,7030003025456,新規,0,2024-11-12,2024-11-12,錦潼合同会社,,合同会社,埼玉県,川口市,西川口２丁目１５－３,,11,203,3320021,,,,,,,2024-11-12,1,,,,,キンドウ,0
1877,7030003025464,新規,0,2024-11-12,2024-11-12,ＯＧ合同会社,,合同会社,埼玉県,草加市,清門１丁目３７７番地４グリナージュイースト２０１号,,11,221,3400055,,,,,,,2024-11-12,1,,,,,オージー,0
1878,7030003025472,新規,0,2024-11-12,2024-11-12,合同会社西埼玉暮らしの編集社,,合同会社,埼玉県,所沢市,西所沢１丁目１７番地１３号吉祥荘２階１号室,,11,208,3591144,,,,,,,2024-11-12,1,,,,,ニシサイタマクラシノヘンシュウシャ,0
1883,7040001136089,新規,0,2024-11-12,2024-11-12,株式会社貴盛,,株式会社,千葉県,富里市,七栄２９８番地８７,,12,233,2860221,,,,,,,2024-11-12,1,,,,,タカモリ,0
1884,7040001136139,新規,0,2024-11-12,2024-11-12,株式会社太平洋商事,,株式会社,千葉県,銚子市,愛宕町３２０１番地,,12,202,2880007,,,,,,,2024-11-12,1,,,,,タイヘイヨウショウジ,0
1896,7070003005644,新規,0,2024-11-12,2024-11-12,合同会社ランデヴー,,合同会社,群馬県,太田市,龍舞町５９６１番地,,10,205,3730806,,,,,,,2024-11-12,1,,,,,ランデヴー,0
1897,7070003005652,新規,0,2024-11-12,2024-11-12,Ｊａｐａｎ　Ｕｎｉｖｅｒｓａｌ　Ｔｒａｄｅｒｓ合同会社,,合同会社,群馬県,邑楽郡邑楽町,大字赤堀４０３５番地２階４号室,,10,525,3700614,,,,,,,2024-11-12,1,,,,,ジャパンユニバーサルトレーダース,0
1905,7110001038831,新規,0,2024-11-12,2024-11-12,株式会社Ｎ．５,,株式会社,新潟県,長岡市,古正寺２丁目１１,,15,202,9402106,,,,,,,2024-11-12,1,,,,,,0
1923,7120001270144,新規,0,2024-11-12,2024-11-12,騰久株式会社,,株式会社,大阪府,大阪市東成区,深江北３丁目４番２１号エクラ深江橋８１０Ａ,,27,115,5370001,,,,,,,2024-11-12,1,,,,,トウキュウ,0
1924,7120001270169,新規,0,2024-11-12,2024-11-12,福春株式会社,,株式会社,大阪府,大阪市西成区,鶴見橋２丁目６番２０号ル・シエル鶴見橋２０１号,,27,122,5570031,,,,,,,2024-11-12,1,,,,,フクハル,0
1925,7120001270193,新規,0,2024-11-12,2024-11-12,晴天株式会社,,株式会社,大阪府,大阪市北区,南森町１丁目４番１１－５０５号,,27,127,5300054,,,,,,,2024-11-12,1,,,,,セイテン,0
1927,7120003027955,新規,0,2024-11-12,2024-11-12,合同会社ＧＭＤＰゲートウェイ,,合同会社,大阪府,交野市,天野が原町２丁目４９番１０号,,27,230,5760034,,,,,,,2024-11-12,1,,,,,ジーエムディーピーゲートウェイ,0
1928,7120005024612,新規,0,2024-11-12,2024-11-12,一般社団法人みんかな,,その他の設立登記法人,大阪府,大阪市西成区,岸里１丁目１番７４号,,27,122,5570041,,,,,,,2024-11-12,1,,,,,ミンカナ,0
1930,7120101070568,新規,0,2024-11-12,2024-11-12,株式会社メタロジック,,株式会社,大阪府,岸和田市,荒木町２丁目１２－１６,,27,202,5960004,,,,,,,2024-11-12,1,,,,,メタロジック,0
1952,7140001136376,新規,0,2024-11-12,2024-11-12,株式会社ヒーリングツアージャパン,,株式会社,兵庫県,神戸市東灘区,向洋町中６丁目９神戸ファッションマート４Ｎ－０７－３,,28,101,6580032,,,,,,,2024-11-12,1,,,,,ヒーリングツアージャパン,0
1953,7140001136392,新規,0,2024-11-12,2024-11-12,株式会社Ａｑｕａ・ｃｏｃｏ,,株式会社,兵庫県,神戸市須磨区,友が丘８丁目１２５番地,,28,107,6540142,,,,,,,2024-11-12,1,,,,,アクアココ,0
1954,7140001136401,新規,0,2024-11-12,2024-11-12,Ａｉｍｉ株式会社,,株式会社,兵庫県,神戸市東灘区,岡本３丁目４番１４号ジオ岡本レジデンス４０４号室,,28,101,6580072,,,,,,,2024-11-12,1,,,,,アイミー,0
1959,7140003021304,新規,0,2024-11-12,2024-11-12,合同会社Ｆａｉ　ｕｎ　ｓａｌｔｏ　Ｋ,,合同会社,兵庫県,神戸市垂水区,舞多聞西１丁目２番８号,,28,108,6550051,,,,,,,2024-11-12,1,,,,,ファイアンサルトケー,0
1960,7140003021312,新規,0,2024-11-12,2024-11-12,河島通信合同会社,,合同会社,兵庫県,神戸市灘区,上河原通３丁目４番１４－４０１号,,28,102,6570055,,,,,,,2024-11-12,1,,,,,カワシマツウシン,0
1973,7180001164068,新規,0,2024-11-12,2024-11-12,株式会社ＳＡＸＳＩＡＲＣ,,株式会社,愛知県,名古屋市中村区,名駅３丁目４番１０号アルティメイト名駅１ｓｔ２階,,23,105,4500002,,,,,,,2024-11-12,1,,,,,サクシアーク,0
1974,7180001164076,新規,0,2024-11-12,2024-11-12,株式会社エコイー,,株式会社,愛知県,犬山市,大字五郎丸字新田組１６番地４,,23,215,4840066,,,,,,,2024-11-12,1,,,,,エコイー,0
1975,7180001164101,新規,0,2024-11-12,2024-11-12,株式会社ＯＲＴＵＳ,,株式会社,愛知県,名古屋市西区,牛島町６番１号名古屋ルーセントタワー４０Ｆ,,23,104,4510046,,,,,,,2024-11-12,1,,,,,オルタス,0
1988,7220001026321,新規,0,2024-11-12,2024-11-12,株式会社かずまふぁーむ,,株式会社,石川県,白山市,寄新保町３０番地,,17,210,9240844,,,,,,,2024-11-12,1,,,,,カズマファーム,0
1991,7240001064088,新規,0,2024-11-12,2024-11-12,株式会社ポノ・ケア,,株式会社,広島県,福山市,水呑町１６１番地３８,,34,207,7200832,,,,,,,2024-11-12,1,,,,,ポノケア,0
1992,7240001064096,新規,0,2024-11-12,2024-11-12,株式会社トップグラフィア,,株式会社,広島県,尾道市,西藤町２５９１番地１,,34,205,7290142,,,,,,,2024-11-12,1,,,,,トップグラフィア,0
1993,7240001064105,新規,0,2024-11-12,2024-11-12,株式会社ツルノコーポレーション,,株式会社,広島県,広島市中区,大手町３丁目８番１１号,,34,101,7300051,,,,,,,2024-11-12,1,,,,,ツルノコーポレーション,0
1995,7240003006939,新規,0,2024-11-12,2024-11-12,オフィスエヌ合同会社,,合同会社,広島県,広島市佐伯区,海老園３丁目１４番１１号,,34,108,7315135,,,,,,,2024-11-12,1,,,,,オフィスエヌ,0
1998,7260001039625,新規,0,2024-11-12,2024-11-12,株式会社岡本倉庫,,株式会社,岡山県,井原市,下出部町２丁目４－９下出部テナント４号室,,33,207,7150022,,,,,,,2024-11-12,1,,,,,オカモトソウコ,0
1999,7260001039633,新規,0,2024-11-12,2024-11-12,卯喜工業株式会社,,株式会社,岡山県,倉敷市,児島味野４丁目１２番３３号,,33,202,7110913,,,,,,,2024-11-12,1,,,,,ウズキコウギョウ,0
2000,7260001039641,新規,0,2024-11-12,2024-11-12,株式会社大安地所,,株式会社,岡山県,岡山市北区,大安寺南町１丁目７番２１号ＶＩＰイノウエ２階西,,33,101,7000064,,,,,,,2024-11-12,1,,,,,ダイアンジショ,0
2002,7260003004965,新規,0,2024-11-12,2024-11-12,エネステーション合同会社,,合同会社,岡山県,井原市,西江原町９２１番地１,,33,207,7150006,,,,,,,2024-11-12,1,,,,,エネステーション,0
2011,7290001107908,新規,0,2024-11-12,2024-11-12,株式会社測設,,株式会社,福岡県,糟屋郡志免町,志免２丁目２８番１０号,,40,343,8112202,,,,,,,2024-11-12,1,,,,,ソクセツ,0
2012,7290001107916,新規,0,2024-11-12,2024-11-12,株式会社菊水,,株式会社,福岡県,太宰府市,水城２丁目７番１号,,40,221,8180131,,,,,,,2024-11-12,1,,,,,キクスイ,0
2013,7290001107965,新規,0,2024-11-12,2024-11-12,株式会社三水,,株式会社,福岡県,福岡市南区,的場２丁目３５番１７－９０１号,,40,134,8111314,,,,,,,2024-11-12,1,,,,,サンスイ,0
2015,7290003016025,新規,0,2024-11-12,2024-11-12,合同会社Ｋ．Ｈ．Ｙ,,合同会社,福岡県,福岡市中央区,大名２丁目２番７号大名センタービル６Ｆ,,40,133,8100041,,,,,,,2024-11-12,1,,,,,ケイエイチワイ,0
2016,7290005019538,新規,0,2024-11-12,2024-11-12,一般社団法人承縁,,その他の設立登記法人,福岡県,福岡市東区,和白東１丁目１番１－１０１７号,,40,131,8110214,,,,,,,2024-11-12,1,,,,,ショウエン,0
2017,7290005019554,新規,0,2024-11-12,2024-11-12,一般社団法人監理団体全国連絡協議会,,その他の設立登記法人,福岡県,福岡市博多区,比恵町１番１８－４１０号,,40,132,8120014,,,,,,,2024-11-12,1,,,,,カンリダンタイゼンコクレンラクキョウギカイ,0
2023,7320001020784,新規,0,2024-11-12,2024-11-12,旭化成ライフサイエンスＭＴ株式会社,,株式会社,大分県,大分市,大字里２１１１番２,,44,201,8700303,,,,,,,2024-11-12,1,,,,,アサヒカセイライフサイエンスエムティ,0
2024,7320001020801,新規,0,2024-11-12,2024-11-12,株式会社ＡＩＣリゾート,,株式会社,大分県,大分市,中央町１丁目１番２２号,,44,201,8700035,,,,,,,2024-11-12,1,,,,,エイアイシーリゾート,0
2026,7320005010195,新規,0,2024-11-12,2024-11-12,一般社団法人ＥＮＧＩＮＥ,,その他の設立登記法人,大分県,大分市,富士見が丘西３丁目２番１８号,,44,201,8701177,,,,,,,2024-11-12,1,,,,,エンジン,0
2031,7330003010642,新規,0,2024-11-12,2024-11-12,合同会社瑛蓮,,合同会社,熊本県,熊本市中央区,島崎１丁目１７番５０号アルリシャー島崎１００１,,43,101,8600073,,,,,,,2024-11-12,1,,,,,エレン,0
2033,7340001026920,新規,0,2024-11-12,2024-11-12,株式会社あがり屋,,株式会社,鹿児島県,鹿児島市,千日町９番４号天文館Ｋビル１Ｆ,,46,201,8920843,,,,,,,2024-11-12,1,,,,,アガリヤ,0
2038,7360005007130,新規,0,2024-11-12,2024-11-12,一般社団法人Ｄ‐ＬＩＧＨＴ　ＯＫＩＮＡＷＡ,,その他の設立登記法人,沖縄県,うるま市,字赤道７３６番地３,,47,213,9042245,,,,,,,2024-11-12,1,,,,,ディーライトオキナワ,0
2053,7430003016992,新規,0,2024-11-12,2024-11-12,合同会社ｎｉｓｓｙ,,合同会社,北海道,札幌市中央区,南五条西３丁目１１番地美松ビル３Ｆ,,01,101,0640805,,,,,,,2024-11-12,1,,,,,ニッシー,0
2057,7450001014443,新規,0,2024-11-12,2024-11-12,株式会社輝星,,株式会社,北海道,士別市,大通東１丁目１６０２番地６１,,01,220,0950019,,,,,,,2024-11-12,1,,,,,キセイ,0
2060,7480001012650,新規,0,2024-11-12,2024-11-12,株式会社雨晴製作所,,株式会社,徳島県,徳島市,多家良町池谷９７番地,,36,201,7714264,,,,,,,2024-11-12,1,,,,,アメハレセイサクショ,0
2062,7480003002204,新規,0,2024-11-12,2024-11-12,合同会社ＭＩＨＯＫＩ,,合同会社,徳島県,鳴門市,撫養町黒崎字八幡８８番地２,,36,202,7720001,,,,,,,2024-11-12,1,,,,,ミホキ,0
2069,8010001249628,新規,0,2024-11-12,2024-11-12,六合株式会社,,株式会社,東京都,中央区,京橋１丁目１９番４号,,13,102,1040031,,,,,,,2024-11-12,1,,,,,ロクゴウ,0
2070,8010001249685,新規,0,2024-11-12,2024-11-12,株式会社日企,,株式会社,東京都,千代田区,神田多町２丁目１番地,,13,101,1010046,,,,,,,2024-11-12,1,,,,,ニッキ,0
2071,8010001249735,新規,0,2024-11-12,2024-11-12,株式会社ＭＯＴＩＶＡＴＥＤ,,株式会社,東京都,中央区,銀座１丁目１２番４号Ｎ＆Ｅ－ＢＬＤ．６Ｆ,,13,102,1040061,,,,,,,2024-11-12,1,,,,,モチベーテッド,0
2081,8010003045422,新規,0,2024-11-12,2024-11-12,大府リテールプロパティー合同会社,,合同会社,東京都,千代田区,丸の内１丁目１１番１号,,13,101,1000005,,,,,,,2024-11-12,1,,,,,オオブリテールプロパティー,0
2092,8010005039026,新規,0,2024-11-12,2024-11-12,一般社団法人日本ビジュアルマーチャンダイジング協会,,その他の設立登記法人,東京都,中央区,銀座２丁目１４番５号,,13,102,1040061,,,,,,,2024-11-12,1,,,,,,0
2093,8010005039050,新規,0,2024-11-12,2024-11-12,一般社団法人日中企業危機管理協会,,その他の設立登記法人,東京都,中央区,銀座１丁目１２－４Ｎ＆Ｅ－ＢＬＤ７階,,13,102,1040061,,,,,,,2024-11-12,1,,,,,ニッチュウキギョウキキカンリキョウカイ,0
2094,8010101016399,新規,0,2024-11-12,2024-11-12,株式会社蒼,,株式会社,東京都,八王子市,千人町２丁目１９－１１高野貸店舗１階西側Ｂ号,,13,201,1930835,,,,,,,2024-11-12,1,,,,,アオイ,0
2101,8010501053133,新規,0,2024-11-12,2024-11-12,株式会社レアルプロパティ,,株式会社,東京都,台東区,台東１丁目１６番３号,,13,106,1100016,,,,,,,2024-11-12,1,,,,,レアルプロパティ,0
2103,8010503007632,新規,0,2024-11-12,2024-11-12,合同会社ａｌｗａｙｓｎｅｅｔ,,合同会社,東京都,台東区,浅草橋５丁目９－１０アルテシモストーリア４０１,,13,106,1110053,,,,,,,2024-11-12,1,,,,,オールウェイズニート,0
2106,8010603011204,新規,0,2024-11-12,2024-11-12,あいひな合同会社,,合同会社,東京都,江東区,東雲１丁目５番３０－１４０１号,,13,108,1350062,,,,,,,2024-11-12,1,,,,,アイヒナ,0
2108,8010801035558,新規,0,2024-11-12,2024-11-12,株式会社ＡＬＡＣＲＡＮ,,株式会社,東京都,大田区,仲池上１丁目７番１９－２０５号,,13,111,1460081,,,,,,,2024-11-12,1,,,,,アラクラン,0
2118,8011001165699,新規,0,2024-11-12,2024-11-12,株式会社Ｐｅｏｐｌｅ　Ｃｅｎｔｅｒｅｄ,,株式会社,東京都,渋谷区,渋谷２丁目１９‐１５宮益坂ビルディング６０９,,13,113,1500002,,,,,,,2024-11-12,1,,,,,ピープルセンタード,0
2122,8011101109449,新規,0,2024-11-12,2024-11-12,にこたんまーく株式会社,,株式会社,東京都,新宿区,西新宿３丁目３番１３号西新宿水間ビル６階,,13,104,1600023,,,,,,,2024-11-12,1,,,,,ニコタンマーク,0
2123,8011101109465,新規,0,2024-11-12,2024-11-12,株式会社ふるや商会,,株式会社,東京都,新宿区,大京町１２番地,,13,104,1600015,,,,,,,2024-11-12,1,,,,,フルヤショウカイ,0
2124,8011101109481,新規,0,2024-11-12,2024-11-12,楽神株式会社,,株式会社,東京都,新宿区,歌舞伎町１丁目１６番１号新宿ＥＸ２ビル３階,,13,104,1600021,,,,,,,2024-11-12,1,,,,,ラクシン,0
2125,8011101109498,新規,0,2024-11-12,2024-11-12,株式会社ＡＳＴＩＥ,,株式会社,東京都,新宿区,西新宿３丁目３番１３号西新宿水間ビル２Ｆ,,13,104,1600023,,,,,,,2024-11-12,1,,,,,アスティ,0
2126,8011101109507,新規,0,2024-11-12,2024-11-12,株式会社マシットスター,,株式会社,東京都,新宿区,西新宿３丁目３番１３号西新宿水間ビル２Ｆ,,13,104,1600023,,,,,,,2024-11-12,1,,,,,マシットスター,0
2127,8011101109515,新規,0,2024-11-12,2024-11-12,株式会社ＧＥ　Ｃｏｎｓｕｌｔｉｎｇ,,株式会社,東京都,新宿区,西新宿３丁目３番１３号西新宿水間ビル２階,,13,104,1600023,,,,,,,2024-11-12,1,,,,,ジーイーコンサルティング,0
2128,8011103015166,新規,0,2024-11-12,2024-11-12,ＳＡＹＯＮＥＸ　ＧＬＯＢＡＬ合同会社,,合同会社,東京都,新宿区,西新宿１丁目２０番３号,,13,104,1600023,,,,,,,2024-11-12,1,,,,,サヨヌックスグローバル,0
2143,8012701018551,新規,0,2024-11-12,2024-11-12,株式会社いちぶんのいち,,株式会社,東京都,西東京市,新町２丁目１番１７号,,13,229,2020023,,,,,,,2024-11-12,1,,,,,イチブンノイチ,0
2151,8020001160057,新規,0,2024-11-12,2024-11-12,Ｓｓｅｎｃｅ株式会社,,株式会社,神奈川県,横浜市西区,浅間町１丁目４番３号ウィザードビル４０２,,14,103,2200072,,,,,,,2024-11-12,1,,,,,エッセンス,0
2154,8020003027196,新規,0,2024-11-12,2024-11-12,ジオイド合同会社,,合同会社,神奈川県,川崎市幸区,新塚越１番地２サウザンドシティ１－８０１,,14,132,2120027,,,,,,,2024-11-12,1,,,,,ジオイド,0
2161,8021001083735,新規,0,2024-11-12,2024-11-12,アイケイオートモバイル株式会社,,株式会社,神奈川県,愛甲郡愛川町,田代９１４番地の１,,14,401,2430306,,,,,,,2024-11-12,1,,,,,アイケイオートモバイル,0
2162,8021001083751,新規,0,2024-11-12,2024-11-12,株式会社大屋敷ホールディングス,,株式会社,神奈川県,茅ヶ崎市,茅ヶ崎２丁目２番３号,,14,207,2530041,,,,,,,2024-11-12,1,,,,,オオヤシキホールディングス,0
2167,8021003015208,新規,0,2024-11-12,2024-11-12,ＹＡＳＨＡ　ＭＯＴＯＲＳ合同会社,,合同会社,神奈川県,伊勢原市,上粕屋２０７０－１５ニューアスカ２０５号室,,14,214,2591141,,,,,,,2024-11-12,1,,,,,ヤシャモータース,0
2168,8021003015216,新規,0,2024-11-12,2024-11-12,合同会社とりかえる,,合同会社,神奈川県,相模原市南区,上鶴間５丁目２番７号,,14,153,2520302,,,,,,,2024-11-12,1,,,,,トリカエル,0
2175,8030001163298,新規,0,2024-11-12,2024-11-12,株式会社Ｅｌｅｖａｎｔ,,株式会社,埼玉県,さいたま市南区,鹿手袋６丁目５番４０－２号,,11,108,3360031,,,,,,,2024-11-12,1,,,,,エレヴァント,0
2176,8030001163315,新規,0,2024-11-12,2024-11-12,株式会社吉澤興業,,株式会社,埼玉県,北足立郡伊奈町,内宿台２丁目６０番地２,,11,301,3620812,,,,,,,2024-11-12,1,,,,,ヨシザワコウギョウ,0
2177,8030001163348,新規,0,2024-11-12,2024-11-12,株式会社みつば薬局,,株式会社,埼玉県,川口市,川口５丁目１９－１,,11,203,3320015,,,,,,,2024-11-12,1,,,,,ミツバヤッキョク,0
2178,8030001163372,新規,0,2024-11-12,2024-11-12,株式会社ソラリス,,株式会社,埼玉県,行田市,門井町２丁目１４番地２,,11,206,3610044,,,,,,,2024-11-12,1,,,,,ソラリス,0
2179,8030001163380,新規,0,2024-11-12,2024-11-12,株式会社みかももケアサポート,,株式会社,埼玉県,川口市,飯塚３丁目７番４号,,11,203,3320023,,,,,,,2024-11-12,1,,,,,ミカモモケアサポート,0
2180,8030001163414,新規,0,2024-11-12,2024-11-12,株式会社ＫＩＮＤ,,株式会社,埼玉県,飯能市,大字中山３１７番地１６,,11,209,3570006,,,,,,,2024-11-12,1,,,,,カインド,0
2185,8030003025455,新規,0,2024-11-12,2024-11-12,ＨＡＮＤ合同会社,,合同会社,埼玉県,越谷市,蒲生東町４番４８号,,11,222,3430841,,,,,,,2024-11-12,1,,,,,ハンド,0
2195,8040001136071,新規,0,2024-11-12,2024-11-12,株式会社キャメロット,,株式会社,千葉県,成田市,中台３丁目３番地２アルファグランデ成田八番街１００１,,12,211,2860015,,,,,,,2024-11-12,1,,,,,キャメロット,0
2196,8040001136088,新規,0,2024-11-12,2024-11-12,株式会社次元工房,,株式会社,千葉県,流山市,おおたかの森北１丁目４番地の１ソライエグラン流山おおたかの森８４３,,12,220,2700119,,,,,,,2024-11-12,1,,,,,ジゲンコウボウ,0
2197,8040001136105,新規,0,2024-11-12,2024-11-12,株式会社ＭＴＣ,,株式会社,千葉県,君津市,北子安２丁目２３番１１号,,12,225,2991161,,,,,,,2024-11-12,1,,,,,エムティーシー,0
2202,8050003008805,新規,0,2024-11-12,2024-11-12,合同会社エイト,,合同会社,茨城県,東茨城郡城里町,大字石塚７４３番地の１,,08,310,3114303,,,,,,,2024-11-12,1,,,,,エイト,0
2207,8060003005322,新規,0,2024-11-12,2024-11-12,合同会社堀藤商店,,合同会社,栃木県,那須塩原市,大原間２２８番地,,09,213,3293153,,,,,,,2024-11-12,1,,,,,ホリフジショウテン,0
2222,8090001018975,新規,0,2024-11-12,2024-11-12,株式会社ＲＵＮＷＡＹ,,株式会社,山梨県,富士吉田市,新西原４丁目１０番地１７,,19,202,4030017,,,,,,,2024-11-12,1,,,,,,0
2238,8120001270168,新規,0,2024-11-12,2024-11-12,ＳＭＩＬＥ貿易株式会社,,株式会社,大阪府,大阪市東淀川区,東中島１丁目１７番５号ステュディオ新大阪９５０号,,27,114,5330033,,,,,,,2024-11-12,1,,,,,スマイルボウエキ,0
2239,8120001270218,新規,0,2024-11-12,2024-11-12,株式会社誠和ハウス,,株式会社,大阪府,大阪市中央区,谷町６丁目４番８号２０５－２Ａ号室,,27,128,5420012,,,,,,,2024-11-12,1,,,,,セイワハウス,0
2240,8120001270226,新規,0,2024-11-12,2024-11-12,ＺＨ株式会社,,株式会社,大阪府,大阪市都島区,中野町１丁目７番７号,,27,102,5340027,,,,,,,2024-11-12,1,,,,,ゼットエイチ,0
2244,8120003027938,新規,0,2024-11-12,2024-11-12,合同会社ＹＳＫ‐Ａ,,合同会社,大阪府,大阪市北区,豊崎３丁目１６番１６－３１１１号,,27,127,5310072,,,,,,,2024-11-12,1,,,,,ワイエスケーエイ,0
2245,8120003027954,新規,0,2024-11-12,2024-11-12,合同会社ＨＴ,,合同会社,大阪府,大阪市生野区,新今里３丁目３番７号エトワールビル６Ａ号,,27,116,5440001,,,,,,,2024-11-12,1,,,,,エイチティー,0
2247,8122001038628,新規,0,2024-11-12,2024-11-12,株式会社ＳＥＣＯＮＤ,,株式会社,大阪府,柏原市,石川町８－３５,,27,221,5820029,,,,,,,2024-11-12,1,,,,,セカンド,0
2248,8122003003035,新規,0,2024-11-12,2024-11-12,合同会社ａｌｆａｂｅｔ,,合同会社,大阪府,東大阪市,小阪２丁目１０番１０－４０２号,,27,227,5770801,,,,,,,2024-11-12,1,,,,,アルファベット,0
2252,8130001078338,新規,0,2024-11-12,2024-11-12,株式会社Ｄ‐ＡＣＴＩＶＥ,,株式会社,京都府,京都市伏見区,下鳥羽南円面田町４番地オークアイランド２０５号室,,26,109,6128499,,,,,,,2024-11-12,1,,,,,ディアクティブ,0
2254,8130003010001,新規,0,2024-11-12,2024-11-12,合同会社Ｒｕｍｉｔｓ,,合同会社,京都府,亀岡市,西つつじケ丘霧島台２丁目１１番１２号,,26,206,6210844,,,,,,,2024-11-12,1,,,,,ルーミッツ,0
2262,8140001136409,新規,0,2024-11-12,2024-11-12,スマート不動産管理株式会社,,株式会社,兵庫県,神戸市垂水区,王居殿２丁目７番４号,,28,108,6550883,,,,,,,2024-11-12,1,,,,,スマートフドウサンカンリ,0
2268,8150001027672,新規,0,2024-11-12,2024-11-12,ギャラクシーオート株式会社,,株式会社,奈良県,宇陀市,榛原三宮寺１０８番地の２,,29,212,6330227,,,,,,,2024-11-12,1,,,,,ギャラクシーオート,0
2270,8160001026335,新規,0,2024-11-12,2024-11-12,ＡＨ　Ｃａｒｓ　Ｉｎｔｅｒｎａｔｉｏｎａｌ株式会社,,株式会社,滋賀県,東近江市,石塔町８３０番地,,25,213,5291501,,,,,,,2024-11-12,1,,,,,エーエイチカーズインターナショナル,0
2271,8160001026343,新規,0,2024-11-12,2024-11-12,株式会社創伸園,,株式会社,滋賀県,東近江市,垣見町３１５番地,,25,213,5211221,,,,,,,2024-11-12,1,,,,,ソウシンエン,0
2272,8170001018372,新規,0,2024-11-12,2024-11-12,株式会社ＷＥＯＮ,,株式会社,和歌山県,和歌山市,新雑賀町１５番１ＦＢ,,30,201,6408101,,,,,,,2024-11-12,1,,,,,ウェオン,0
2275,8180001164059,新規,0,2024-11-12,2024-11-12,株式会社太田,,株式会社,愛知県,春日井市,出川町前平２１７４番地３,,23,206,4870025,,,,,,,2024-11-12,1,,,,,オオタ,0
2276,8180001164067,新規,0,2024-11-12,2024-11-12,株式会社みとり,,株式会社,愛知県,名古屋市港区,惟信町５丁目２１番地の１,,23,111,4550823,,,,,,,2024-11-12,1,,,,,ミトリ,0
2277,8180001164075,新規,0,2024-11-12,2024-11-12,株式会社Ｖａｌｌ,,株式会社,愛知県,名古屋市東区,泉３丁目７番１０号,,23,102,4610001,,,,,,,2024-11-12,1,,,,,ヴァル,0
2278,8180001164100,新規,0,2024-11-12,2024-11-12,ＡＳＰＩＤＡ株式会社,,株式会社,愛知県,名古屋市中村区,名駅４丁目６番２３号,,23,105,4500002,,,,,,,2024-11-12,1,,,,,アスピダ,0
2281,8180003027610,新規,0,2024-11-12,2024-11-12,合同会社Ｍａｒｕ,,合同会社,愛知県,名古屋市中村区,名駅３丁目４－１０アルティメイト名駅１ｓｔ２階,,23,105,4500002,,,,,,,2024-11-12,1,,,,,マル,0
2283,8190001031794,新規,0,2024-11-12,2024-11-12,株式会社前野建築企画グループ,,株式会社,三重県,津市,南中央６番６号,,24,201,5140832,,,,,,,2024-11-12,1,,,,,マエノケンチクキカクグループ,0
2292,8240001064070,新規,0,2024-11-12,2024-11-12,株式会社ニタカ,,株式会社,広島県,福山市,南手城町４丁目１５番３９号,,34,207,7210963,,,,,,,2024-11-12,1,,,,,ニタカ,0
2293,8240001064095,新規,0,2024-11-12,2024-11-12,シニアフィットサービス株式会社,,株式会社,広島県,福山市,西深津町４丁目５－２０,,34,207,7210975,,,,,,,2024-11-12,1,,,,,シニアフィットサービス,0
2302,8290003016024,新規,0,2024-11-12,2024-11-12,合同会社Ｋ．Ｈ．Ｚ,,合同会社,福岡県,福岡市中央区,大名２丁目２番７号大名センタービル６Ｆ,,40,133,8100041,,,,,,,2024-11-12,1,,,,,ケイエイチゼット,0
2303,8290003016057,新規,0,2024-11-12,2024-11-12,合同会社黒跡,,合同会社,福岡県,福岡市中央区,港１丁目８－３パリス大濠ベイタウン３０４号,,40,133,8100075,,,,,,,2024-11-12,1,,,,,クロアト,0
2304,8290801031026,新規,0,2024-11-12,2024-11-12,株式会社ＴＡＵ,,株式会社,福岡県,北九州市小倉南区,山手２丁目６番２号,,40,107,8020982,,,,,,,2024-11-12,1,,,,,ティーエーユー,0
2305,8290801031034,新規,0,2024-11-12,2024-11-12,株式会社七草,,株式会社,福岡県,北九州市小倉北区,片野４丁目１７番２号,,40,106,8020064,,,,,,,2024-11-12,1,,,,,ナナクサ,0
2306,8300001013962,新規,0,2024-11-12,2024-11-12,株式会社エントロード,,株式会社,佐賀県,鳥栖市,本鳥栖町１４８２番地１－１０２,,41,203,8410026,,,,,,,2024-11-12,1,,,,,エントロード,0
2309,8320003004512,新規,0,2024-11-12,2024-11-12,ピコア合同会社,,合同会社,大分県,日田市,天瀬町女子畑１１６６番地３,,44,204,8794123,,,,,,,2024-11-12,1,,,,,ピコア,0
2318,8350003004781,新規,0,2024-11-12,2024-11-12,合同会社フェンフィルズ,,合同会社,宮崎県,宮崎市,大字新名爪８－５４,,45,201,8800124,,,,,,,2024-11-12,1,,,,,フェンフィルズ,0
2324,8370001051898,新規,0,2024-11-12,2024-11-12,株式会社アスシード,,株式会社,宮城県,仙台市太白区,東中田４丁目１２番１２号,,04,104,9811107,,,,,,,2024-11-12,1,,,,,アスシード,0
2334,8410001013992,新規,0,2024-11-12,2024-11-12,株式会社アルノホールディングス,,株式会社,秋田県,秋田市,泉北１丁目３番２号,,05,201,0100916,,,,,,,2024-11-12,1,,,,,アルノホールディングス,0
2338,8430001092977,新規,0,2024-11-12,2024-11-12,ＨＡＬＩＫＯ株式会社,,株式会社,北海道,虻田郡倶知安町,字樺山３８番地１９,,01,400,0440078,,,,,,,2024-11-12,1,,,,,ハリコ,0
2339,8430001093042,新規,0,2024-11-12,2024-11-12,株式会社大空,,株式会社,北海道,室蘭市,幸町４番３号,,01,205,0510016,,,,,,,2024-11-12,1,,,,,オオゾラ,0
2340,8430001093050,新規,0,2024-11-12,2024-11-12,Ｎｉｉコンサルティング株式会社,,株式会社,北海道,千歳市,新富２丁目１番２０－３号,,01,224,0660037,,,,,,,2024-11-12,1,,,,,エヌアイアイコンサルティング,0
2342,8430003016983,新規,0,2024-11-12,2024-11-12,合同会社よしむらプラス,,合同会社,北海道,札幌市北区,あいの里二条２丁目７番１６号,,01,102,0028072,,,,,,,2024-11-12,1,,,,,ヨシムラプラス,0
2343,8430005015109,新規,0,2024-11-12,2024-11-12,ニセコヴィレッジ管理組合法人,,その他の設立登記法人,北海道,虻田郡ニセコ町,字ニセコ３８６番地２４,,01,395,0481511,,,,,,,2024-11-12,1,,,,,ニセコヴィレッジ,0
2349,8470003002749,新規,0,2024-11-12,2024-11-12,合同会社ｋｏｔｏｒｉ,,合同会社,香川県,東かがわ市,土居１０５番地,,37,207,7692516,,,,,,,2024-11-12,1,,,,,コトリ,0
2351,8490003001955,新規,0,2024-11-12,2024-11-12,合同会社ｉｓｍ,,合同会社,高知県,高知市,瀬戸南町２丁目８番５０号,,39,201,7810253,,,,,,,2024-11-12,1,,,,,イズム,0
2352,8500003003363,新規,0,2024-11-12,2024-11-12,合同会社ＧＢＰ,,合同会社,愛媛県,松山市,二番町２丁目３番地５－４階,,38,201,7900002,,,,,,,2024-11-12,1,,,,,ジービーピー,0
2360,9010001249726,新規,0,2024-11-12,2024-11-12,株式会社マリーゴールド,,株式会社,東京都,中央区,銀座１丁目１２番４号Ｎ＆ＥＢＬＤ．６階,,13,102,1040061,,,,,,,2024-11-12,1,,,,,マリーゴールド,0
2361,9010001249759,新規,0,2024-11-12,2024-11-12,ＯＫＡＧＥ株式会社,,株式会社,東京都,文京区,本駒込１丁目１６番１５号,,13,105,1130021,,,,,,,2024-11-12,1,,,,,オカゲ,0
2362,9010001249767,新規,0,2024-11-12,2024-11-12,サーブシップ株式会社,,株式会社,東京都,千代田区,神田佐久間町１丁目１６－１大橋ビル５０３,,13,101,1010025,,,,,,,2024-11-12,1,,,,,サーブシップ,0
2376,9010003045421,新規,0,2024-11-12,2024-11-12,仁友合同会社,,合同会社,東京都,千代田区,麹町２丁目２番２２号（Ｃ／ＯＪｏｏ－ｒｅａｌｅｓｔａｔｅ－ｏｆｆｉｃｅ）,,13,101,1020083,,,,,,,2024-11-12,1,,,,,ジンユウ,0
2387,9010005039074,新規,0,2024-11-12,2024-11-12,Ｚｅｎｉｔｈ特定目的会社,,その他の設立登記法人,東京都,千代田区,霞が関３丁目２番５号,,13,101,1000013,,,,,,,2024-11-12,1,,,,,ゼニス,0
2388,9010103002446,新規,0,2024-11-12,2024-11-12,合同会社薫風,,合同会社,東京都,八王子市,上柚木３丁目５番地５－４０１,,13,201,1920373,,,,,,,2024-11-12,1,,,,,クンプウ,0
2399,9010501053132,新規,0,2024-11-12,2024-11-12,ヴェルディ株式会社,,株式会社,東京都,台東区,台東１丁目１６番３号,,13,106,1100016,,,,,,,2024-11-12,1,,,,,ヴェルディ,0
2400,9010501053181,新規,0,2024-11-12,2024-11-12,株式会社皓文,,株式会社,東京都,台東区,橋場２丁目８－１－Ｂ２０１,,13,106,1110023,,,,,,,2024-11-12,1,,,,,コウブン,0
2414,9011001165772,新規,0,2024-11-12,2024-11-12,株式会社ＢＬＵＥ　ＯＣＥＡＮ,,株式会社,東京都,渋谷区,渋谷２丁目７－１４中村ビル５Ｆ,,13,113,1500002,,,,,,,2024-11-12,1,,,,,ブルーオーシャン,0
2415,9011001165855,新規,0,2024-11-12,2024-11-12,株式会社クルム,,株式会社,東京都,渋谷区,渋谷２丁目１９番１５号宮益坂ビルディング６０９,,13,113,1500002,,,,,,,2024-11-12,1,,,,,クルム,0
2416,9011001165888,新規,0,2024-11-12,2024-11-12,株式会社Ｃｏｌｔｕｓ,,株式会社,東京都,渋谷区,道玄坂１丁目１０番８号渋谷道玄坂東急ビル２Ｆ－Ｃ,,13,113,1500043,,,,,,,2024-11-12,1,,,,,コルタス,0
2417,9011101109464,新規,0,2024-11-12,2024-11-12,株式会社五洋ランド,,株式会社,東京都,新宿区,大京町１２番地,,13,104,1600015,,,,,,,2024-11-12,1,,,,,ゴヨウランド,0
2418,9011101109530,新規,0,2024-11-12,2024-11-12,ＹＵＤＥＴＡＭＡＧＯ株式会社,,株式会社,東京都,新宿区,新宿５丁目１－１ローヤルマンションビル１００４,,13,104,1600022,,,,,,,2024-11-12,1,,,,,ユデタマゴ,0
2422,9011701027801,新規,0,2024-11-12,2024-11-12,Ｂｅｓｔ　Ｏｃｅａｎ株式会社,,株式会社,東京都,江戸川区,江戸川６丁目４０番１４－２１２号,,13,123,1340013,,,,,,,2024-11-12,1,,,,,ベストオーシャン,0
2423,9011801045125,新規,0,2024-11-12,2024-11-12,株式会社ＨＫｔｗｉｎｓ,,株式会社,東京都,足立区,関原２丁目２－６クリアメゾン関原１Ｂ,,13,121,1230852,,,,,,,2024-11-12,1,,,,,エイチケーツウィンズ,0
2426,9012401042462,新規,0,2024-11-12,2024-11-12,ＫＭ　Ｒｅｑｕｅｓｔ　Ｓｅｒｖｉｃｅ株式会社,,株式会社,東京都,府中市,日新町２丁目３４番１号,,13,206,1830036,,,,,,,2024-11-12,1,,,,,ケイエムリクエストサービス,0
2429,9012801023566,新規,0,2024-11-12,2024-11-12,株式会社Ｎｉｘｕｓ,,株式会社,東京都,立川市,富士見町３丁目４番１６号,,13,202,1900013,,,,,,,2024-11-12,1,,,,,ニクサス,0
2440,9020001159916,新規,0,2024-11-12,2024-11-12,福江株式会社,,株式会社,神奈川県,横浜市磯子区,杉田４丁目７－６日神パレス杉田Ａ棟３１０号室,,14,107,2350033,,,,,,,2024-11-12,1,,,,,フクエ,0
2447,9021001083759,新規,0,2024-11-12,2024-11-12,ｓｈｉｋｉｓｏ株式会社,,株式会社,神奈川県,横須賀市,ハイランド１丁目２９番１６号,,14,201,2390833,,,,,,,2024-11-12,1,,,,,シキソウ,0
2449,9021003015215,新規,0,2024-11-12,2024-11-12,合同会社センター,,合同会社,神奈川県,愛甲郡愛川町,中津６５９－７,,14,401,2430303,,,,,,,2024-11-12,1,,,,,センター,0
2450,9021003015223,新規,0,2024-11-12,2024-11-12,合同会社車や田んぼ,,合同会社,神奈川県,小田原市,小台２６９番地,,14,206,2500858,,,,,,,2024-11-12,1,,,,,クルマヤタンボ,0
2451,9021003015231,新規,0,2024-11-12,2024-11-12,彩栄合同会社,,合同会社,神奈川県,海老名市,上今泉５丁目４番３２号,,14,215,2430431,,,,,,,2024-11-12,1,,,,,サイエイ,0
2462,9030001163322,新規,0,2024-11-12,2024-11-12,株式会社松本工業,,株式会社,埼玉県,北本市,中央４丁目４２番地プレディアンスフォート北本１０４,,11,233,3640031,,,,,,,2024-11-12,1,,,,,マツモトコウギョウ,0
2463,9030001163339,新規,0,2024-11-12,2024-11-12,株式会社ＷＯＺＥＬ,,株式会社,埼玉県,川口市,大字芝７０５０番地の１３－Ａ,,11,203,3330866,,,,,,,2024-11-12,1,,,,,ウォゼル,0
2464,9030001163347,新規,0,2024-11-12,2024-11-12,株式会社ＫＵＭ,,株式会社,埼玉県,比企郡吉見町,大字北吉見２４８８番地５,,11,347,3550155,,,,,,,2024-11-12,1,,,,,クム,0
2465,9030001163396,新規,0,2024-11-12,2024-11-12,株式会社ＴＯＰ　ＨＩＧＨ　ＲＯＬＬＥＲ,,株式会社,埼玉県,川口市,栄町３丁目８番３号２Ｆ,,11,203,3320017,,,,,,,2024-11-12,1,,,,,トップハイローラー,0
2467,9030003025446,新規,0,2024-11-12,2024-11-12,合同会社ＴＡＳＵＫＩ,,合同会社,埼玉県,桶川市,若宮１丁目２－１０ノーブル桶川５０４号,,11,231,3630022,,,,,,,2024-11-12,1,,,,,タスキ,0
2468,9030003025454,新規,0,2024-11-12,2024-11-12,合同会社シンセロ,,合同会社,埼玉県,戸田市,新曽南３丁目６番１－１５２２号,,11,224,3350026,,,,,,,2024-11-12,1,,,,,シンセロ,0
2469,9030003025462,新規,0,2024-11-12,2024-11-12,ありんこ合同会社,,合同会社,埼玉県,大里郡寄居町,大字富田３９６８番地９,,11,408,3691216,,,,,,,2024-11-12,1,,,,,アリンコ,0
2470,9030003025479,新規,0,2024-11-12,2024-11-12,合同会社ガナーズテック,,合同会社,埼玉県,川口市,朝日３丁目１５番２９号,,11,203,3320001,,,,,,,2024-11-12,1,,,,,ガナーズテック,0
2474,9040001136070,新規,0,2024-11-12,2024-11-12,株式会社ｃｏｎｎｅｃｔｉｏｎ,,株式会社,千葉県,千葉市若葉区,若松町４１４番地１０スカイハイツ１０２号,,12,104,2640021,,,,,,,2024-11-12,1,,,,,コネクション,0
2475,9040001136120,新規,0,2024-11-12,2024-11-12,Ｅｎｗｅａｖｅ株式会社,,株式会社,千葉県,流山市,おおたかの森北２丁目３１－７,,12,220,2700119,,,,,,,2024-11-12,1,,,,,,0
2485,9050003008804,新規,0,2024-11-12,2024-11-12,合同会社ＳＭＩＬＥＹ　ＣＬＥＡＮＩＮＧ,,合同会社,茨城県,取手市,新取手１丁目４１－２,,08,217,3020031,,,,,,,2024-11-12,1,,,,,スマイリークリーニング,0
2491,9060003005321,新規,0,2024-11-12,2024-11-12,いやさか合同会社,,合同会社,栃木県,宇都宮市,城南１丁目２－７,,09,201,3210117,,,,,,,2024-11-12,1,,,,,イヤサカ,0
2493,9070001042357,新規,0,2024-11-12,2024-11-12,株式会社Ｎａｇｉ　Ｉｄｅａｌ,,株式会社,群馬県,吾妻郡中之条町,大字中之条町４４１番地１８,,10,421,3770424,,,,,,,2024-11-12,1,,,,,ナギアイディアル,0
2522,9120001270150,新規,0,2024-11-12,2024-11-12,株式会社Ｈｅａｌｔｈｃａｒｅ　ｄａｔａ　ｕｓａｇｅ,,株式会社,大阪府,大阪市天王寺区,筆ケ崎町５番５２号,,27,109,5430027,,,,,,,2024-11-12,1,,,,,ヘルスケアデータユーセージ,0
2523,9120001270225,新規,0,2024-11-12,2024-11-12,株式会社Ｇｒａｂ　ｈｕｎｔ,,株式会社,大阪府,大阪市浪速区,桜川１丁目６－２５－７０２,,27,111,5560022,,,,,,,2024-11-12,1,,,,,グラブハント,0
2524,9120003027978,新規,0,2024-11-12,2024-11-12,本町三丁目合同会社,,合同会社,大阪府,大阪市北区,角田町１番１２号阪急ファイブアネックスビル５階,,27,127,5300017,,,,,,,2024-11-12,1,,,,,ホンマチサンチョウメ,0
2529,9120903005414,新規,0,2024-11-12,2024-11-12,合同会社マリーナサブ,,合同会社,大阪府,茨木市,安威２丁目３８番１０号,,27,211,5670001,,,,,,,2024-11-12,1,,,,,マリーナサブ,0
2531,9122001038635,新規,0,2024-11-12,2024-11-12,株式会社オークン,,株式会社,大阪府,東大阪市,足代北１丁目１８番２０号３Ｃ,,27,227,5770058,,,,,,,2024-11-12,1,,,,,オークン,0
2533,9122003003034,新規,0,2024-11-12,2024-11-12,合同会社ＨＥＡＬ,,合同会社,大阪府,東大阪市,森河内東１丁目１２番１３号,,27,227,5770062,,,,,,,2024-11-12,1,,,,,ヒール,0
2538,9130001078295,新規,0,2024-11-12,2024-11-12,株式会社ストスク,,株式会社,京都府,京都市西京区,大原野北春日町１０６４番地,,26,111,6101152,,,,,,,2024-11-12,1,,,,,ストスク,0
2539,9130001078329,新規,0,2024-11-12,2024-11-12,金都企業投資株式会社,,株式会社,京都府,京都市南区,東九条北烏丸町２４番地８,,26,107,6018017,,,,,,,2024-11-12,1,,,,,キントキギョウトウシ,0
2547,9140001136325,新規,0,2024-11-12,2024-11-12,株式会社ＲＥＰＬＡＹ,,株式会社,兵庫県,神戸市東灘区,御影塚町１丁目２番９－３号,,28,101,6580044,,,,,,,2024-11-12,1,,,,,リプレイ,0
2548,9140001136416,新規,0,2024-11-12,2024-11-12,株式会社Ｔｒｅｅ,,株式会社,兵庫県,神戸市中央区,加納町２丁目１０－１３ロイヤルヒル北野８０２,,28,110,6500001,,,,,,,2024-11-12,1,,,,,ツリー,0
2549,9140001136424,新規,0,2024-11-12,2024-11-12,株式会社ヒデリオ,,株式会社,兵庫県,芦屋市,浜町８番４－１号,,28,206,6590025,,,,,,,2024-11-12,1,,,,,ヒデリオ,0
2552,9140003021310,新規,0,2024-11-12,2024-11-12,ＳＥＡＦＬＯ　ＪＡＰＡＮ合同会社,,合同会社,兵庫県,神戸市兵庫区,西出町２８－４,,28,105,6520822,,,,,,,2024-11-12,1,,,,,シーフロジャパン,0
2554,9150001027671,新規,0,2024-11-12,2024-11-12,Ｃｏｐａｉｎ株式会社,,株式会社,奈良県,葛城市,八川１８８番地８,,29,211,6392163,,,,,,,2024-11-12,1,,,,,コパン,0
2555,9160001026350,新規,0,2024-11-12,2024-11-12,株式会社こんびにえんす,,株式会社,滋賀県,彦根市,山之脇町９８番地１５,,25,202,5220038,,,,,,,2024-11-12,1,,,,,コンビニエンス,0
2557,9180001164058,新規,0,2024-11-12,2024-11-12,株式会社ＡＮＫｄｅｓｉｇｎ,,株式会社,愛知県,名古屋市中川区,吉津２丁目６１４番地（２０２号）,,23,110,4540981,,,,,,,2024-11-12,1,,,,,エーエヌケーデザイン,0
2558,9180001164066,新規,0,2024-11-12,2024-11-12,株式会社ＴｏＭｏ＆ＬＯＴＴ,,株式会社,愛知県,名古屋市中区,大須４丁目２番４７号赤門ビル４階,,23,106,4600011,,,,,,,2024-11-12,1,,,,,トモアンドロット,0
2559,9180001164074,新規,0,2024-11-12,2024-11-12,株式会社Ｓ．Ｓ．Ｃｒｅａｔｏｒｓ,,株式会社,愛知県,名古屋市中村区,名駅４丁目２４番５号第２森ビル４０１,,23,105,4500002,,,,,,,2024-11-12,1,,,,,エスエスクリエイターズ,0
2560,9180001164090,新規,0,2024-11-12,2024-11-12,株式会社Ｒｅ,,株式会社,愛知県,名古屋市瑞穂区,平郷町５丁目３番地の６,,23,108,4670879,,,,,,,2024-11-12,1,,,,,アールイー,0
2566,9180301039224,新規,0,2024-11-12,2024-11-12,株式会社プリベイル,,株式会社,愛知県,安城市,小川町山中１４４番地１,,23,212,4441162,,,,,,,2024-11-12,1,,,,,プリベイル,0
2567,9180303006338,新規,0,2024-11-12,2024-11-12,ＯＭＡＭＯＲＩ合同会社,,合同会社,愛知県,豊田市,上渡合町前田２８１番地１,,23,211,4700462,,,,,,,2024-11-12,1,,,,,オマモリ,0
2569,9200001043119,新規,0,2024-11-12,2024-11-12,三和都市開発コンサル設計株式会社,,株式会社,岐阜県,中津川市,茄子川２０７７番地の１７９,,21,206,5099132,,,,,,,2024-11-12,1,,,,,ミツワトシカイハツコンサルセッケイ,0
2572,9240001064094,新規,0,2024-11-12,2024-11-12,シルバーサポートサービス株式会社,,株式会社,広島県,福山市,霞町２丁目２－２,,34,207,7200812,,,,,,,2024-11-12,1,,,,,シルバーサポートサービス,0
2573,9240001064103,新規,0,2024-11-12,2024-11-12,株式会社ＯＰＣＩ,,株式会社,広島県,広島市西区,打越町１２番１９号朝日プラザ横川駅前３０３号室,,34,104,7330004,,,,,,,2024-11-12,1,,,,,オーピーシーアイ,0
2576,9260003004963,新規,0,2024-11-12,2024-11-12,Ｃｒｏｗｎ‐Ｐｒｏ合同会社,,合同会社,岡山県,瀬戸内市,長船町福岡５６０番地６,,33,212,7014265,,,,,,,2024-11-12,1,,,,,クラウンプロ,0
2579,9290001107914,新規,0,2024-11-12,2024-11-12,株式会社ＶＩＥＴＷＩＣＥ,,株式会社,福岡県,福岡市中央区,大名１丁目３番３２－７０２号,,40,133,8100041,,,,,,,2024-11-12,1,,,,,ヴィートゥワイス,0
2580,9290001107922,新規,0,2024-11-12,2024-11-12,ＡｓｏｒＡ株式会社,,株式会社,福岡県,柳川市,三橋町白鳥１４７番地２,,40,207,8320815,,,,,,,2024-11-12,1,,,,,アソラ,0
2581,9290003016056,新規,0,2024-11-12,2024-11-12,合同会社ＦＩＣ,,合同会社,福岡県,筑紫野市,二日市北３丁目１番７号,,40,217,8180056,,,,,,,2024-11-12,1,,,,,エフアイシー,0
2589,9340001026919,新規,0,2024-11-12,2024-11-12,株式会社Ａｒｔ糸織,,株式会社,鹿児島県,鹿児島市,緑ヶ丘町２８番１号,,46,201,8911274,,,,,,,2024-11-12,1,,,,,,0
2590,9340001026927,新規,0,2024-11-12,2024-11-12,ＭＡＥＮＯ株式会社,,株式会社,鹿児島県,鹿児島市,春山町２５１０番地２,,46,201,8992704,,,,,,,2024-11-12,1,,,,,マエノ,0
2608,9430001093058,新規,0,2024-11-12,2024-11-12,北海道漁業資源管理株式会社,,株式会社,北海道,札幌市中央区,北三条西７丁目１番地第一水産ビル５階,,01,101,0600003,,,,,,,2024-11-12,1,,,,,ホッカイドウギョギョウシゲンカンリ,0
2609,9430001093074,新規,0,2024-11-12,2024-11-12,株式会社りぶる,,株式会社,北海道,札幌市東区,北二十一条東２３丁目５番７号,,01,103,0650021,,,,,,,2024-11-12,1,,,,,リブル,0
2610,9430003016990,新規,0,2024-11-12,2024-11-12,Ｓａｔｏｂｉｇ合同会社,,合同会社,北海道,札幌市清田区,北野三条３丁目１６番１３号,,01,110,0040863,,,,,,,2024-11-12,1,,,,,サトビッグ,0
2618,9470001020462,新規,0,2024-11-12,2024-11-12,株式会社ｔｈｒｅｅｅ,,株式会社,香川県,仲多度郡多度津町,大字青木８０１番地１２,,37,404,7640033,,,,,,,2024-11-12,1,,,,,スリー,0
2619,9480001012649,新規,0,2024-11-12,2024-11-12,株式会社カムカムスプリング,,株式会社,徳島県,阿南市,見能林町北野３４番地４,,36,204,7740017,,,,,,,2024-11-12,1,,,,,カムカムスプリング,0
2622,9500001025994,新規,0,2024-11-12,2024-11-12,株式会社ＡＲＩＳＥＢＯ,,株式会社,愛媛県,今治市,松本町２丁目５番地２３,,38,202,7940041,,,,,,,2024-11-12,1,,,,,アリセボ,0
