sequenceNumber,corporateNumber,process,correct,updateDate,changeDate,name,nameImageId,kind,prefectureName,cityName,streetNumber,addressImageId,prefectureCode,cityCode,postCode,addressOutside,addressOutsideImageId,closeDate,closeCause,successorCorporateNumber,changeCause,assignmentDate,latest,enName,enPrefectureName,enCityName,enAddressOutside,furigana,hihyoji
7,1010001189731,登記記録の閉鎖等,0,2022-11-29,2022-11-22,株式会社エクスコイン,,株式会社,東京都,港区,芝５丁目１３番１６号,,13,103,1080014,,,2022-11-22,清算の結了等,,,2018-02-22,1,,,,,エクスコイン,0
12,1010003033912,登記記録の閉鎖等,0,2022-11-29,2022-11-22,合同会社札仙プロパティ,,合同会社,東京都,千代田区,内幸町２丁目１番６号,,13,101,1000011,,,2022-11-22,清算の結了等,,,2021-01-12,1,,,,,サッセンプロパティ,0
20,1010501025683,登記記録の閉鎖等,0,2022-11-29,2022-11-28,株式会社宝石インフォメーションサービス,,株式会社,東京都,台東区,上野５丁目２５番１６号,,13,106,1100005,,,2022-11-28,清算の結了等,,,2015-10-05,1,,,,,ホウセキインフォメーションサービス,0
45,1011101093245,登記記録の閉鎖等,0,2022-11-29,2022-11-24,株式会社ソイル＆シード,,株式会社,東京都,新宿区,西新宿２丁目４番１号,,13,104,1600023,,,2022-11-24,清算の結了等,,,2020-11-24,1,,,,,ソイルアンドシード,0
50,1011201011858,登記記録の閉鎖等,0,2022-11-29,2022-11-28,ＧＯＯＤ　ＲＥＬＩＳＨ株式会社,,株式会社,東京都,中野区,弥生町３丁目１５番６号,,13,114,1640013,,,2022-11-28,清算の結了等,,,2015-10-05,1,,,,,グッドレリッシュ,0
53,1011501011343,登記記録の閉鎖等,0,2022-11-29,2022-11-18,株式会社エフエムプラン,,株式会社,東京都,北区,田端３丁目２２番４号,,13,117,1140014,,,2022-11-18,清算の結了等,,,2015-10-05,1,,,,,エフエムプラン,0
57,1011602006507,登記記録の閉鎖等,0,2022-11-29,2022-11-24,有限会社田中屋,,有限会社,東京都,練馬区,関町北１丁目２３番１５号,,13,120,1770051,,,2022-11-24,清算の結了等,,,2015-10-05,1,,,,,タナカヤ,0
72,1013201016259,登記記録の閉鎖等,0,2022-11-29,2022-11-22,株式会社フォーミュラ,,株式会社,東京都,目黒区,目黒４丁目１４番１６－４０８号,,13,110,1530063,,,2022-11-22,清算の結了等,,,2015-10-05,1,,,,,フォーミュラ,0
81,1013302002240,登記記録の閉鎖等,0,2022-11-29,2022-11-10,有限会社川崎プロセス,,有限会社,東京都,豊島区,高田２丁目５番２３号,,13,116,1710033,,,2022-11-10,清算の結了等,,,2022-05-16,1,,,,,カワサキプロセス,0
83,1013305001768,登記記録の閉鎖等,0,2022-11-29,2022-11-14,特定非営利活動法人国際芸術協会,,その他の設立登記法人,東京都,豊島区,千川２丁目２３番地３号２０１号室,,13,116,1710041,,,2022-11-14,清算の結了等,,,2015-10-05,1,,,,,,0
87,1020002057647,登記記録の閉鎖等,0,2022-11-29,2022-11-22,有限会社ウェーブ,,有限会社,神奈川県,横浜市都筑区,牛久保１丁目１０番１８号,,14,118,2240012,,,2022-11-22,清算の結了等,,,2015-10-05,1,,,,,ウェーブ,0
136,1070001039229,登記記録の閉鎖等,0,2022-11-29,2022-11-17,株式会社田舎リゾート,,株式会社,群馬県,桐生市,広沢町４丁目２４３０番地,,10,203,3760013,,,2022-11-17,清算の結了等,,,2022-05-16,1,,,,,イナカリゾート,0
142,1100003004929,登記記録の閉鎖等,0,2022-11-29,2022-11-16,Ａ　ＧＯＯＤ　ＤＡＹ　ＫＡＲＵＩＺＡＷＡ　ＦＯＲＥＳＴ合同会社,,合同会社,長野県,北佐久郡軽井沢町,大字追分字浅間山１４０３番地,,20,321,3890115,,,2022-11-16,合併による解散等,9290001076498,令和４年６月１日福岡市中央区春吉一丁目１１番３６号Ａ　ＧＯＯＤ　ＤＡＹ株式会社（9290001076498）に合併し解散,2018-03-19,1,,,,,アグッドデイカルイザワフォレスト,0
144,1110003001529,登記記録の閉鎖等,0,2022-11-29,2022-11-24,合名会社文栄堂,,合名会社,新潟県,妙高市,朝日町１丁目８番２号,,15,217,9440043,,,2022-11-24,清算の結了等,,,2015-10-05,1,,,,,ブンエイドウ,0
164,1120901042796,登記記録の閉鎖等,0,2022-11-29,2022-11-28,株式会社晴風,,株式会社,大阪府,豊中市,玉井町３丁目１０番２号,,27,203,5600026,,,2022-11-28,清算の結了等,,,2020-06-02,1,,,,,ハルカ,0
173,1140001057751,登記記録の閉鎖等,0,2022-11-29,2022-11-24,ルックライク株式会社,,株式会社,東京都,中央区,銀座１丁目２２番１１号銀座大竹ビジデンス２階,,13,102,1040061,,,2022-11-24,清算の結了等,,,2015-10-05,1,,,,,ルックライク,0
180,1140005021605,登記記録の閉鎖等,0,2022-11-29,2022-11-28,土地家屋調査士法人ＴＡＰ,,その他の設立登記法人,兵庫県,神戸市中央区,磯辺通３丁目１番２号－８０３,,28,110,6510084,,,2022-11-28,清算の結了等,,,2015-10-05,1,,,,,ティーエーピー,0
192,1180303002625,登記記録の閉鎖等,0,2022-11-29,2022-11-24,合同会社住研,,合同会社,愛知県,みよし市,莇生町土取２９９番地,,23,236,4700206,,,2022-11-24,清算の結了等,,,2015-10-05,1,,,,,ジュウケン,0
199,1200001008640,登記記録の閉鎖等,0,2022-11-29,2022-11-28,株式会社沢田工業,,株式会社,岐阜県,岐阜市,正木中４丁目１番２２号,,21,201,5020882,,,2022-11-28,清算の結了等,,,2015-10-05,1,,,,,,0
202,1220002000941,登記記録の閉鎖等,0,2022-11-29,2022-11-28,有限会社アンデイ・セカンド,,有限会社,石川県,金沢市,神宮寺２丁目１１番６号,,17,201,9200806,,,2022-11-28,清算の結了等,,,2015-10-05,1,,,,,アンデイセカンド,0
204,1250002001838,登記記録の閉鎖等,0,2022-11-29,2022-11-25,有限会社若葉ボデー,,有限会社,山口県,山口市,阿東徳佐中２７４８番地の１,,35,203,7591512,,,2022-11-25,清算の結了等,,,2015-10-05,1,,,,,ワカバボデー,0
221,1290003004167,登記記録の閉鎖等,0,2022-11-29,2022-11-24,合同会社オーロラ,,合同会社,福岡県,久留米市,善導寺町飯田４６０番地３,,40,203,8390824,,,2022-11-24,清算の結了等,,,2015-10-05,1,,,,,オーロラ,0
233,1340002023195,登記記録の閉鎖等,0,2022-11-29,2022-11-28,有限会社アイアイ総合保険,,有限会社,鹿児島県,出水市,福ノ江町１０４８番地,,46,208,8990133,,,2022-11-28,清算の結了等,,,2015-10-05,1,,,,,アイアイソウゴウホケン,0
254,1500002019739,登記記録の閉鎖等,0,2022-11-29,2022-11-18,有限会社日本企業サービス,,有限会社,愛媛県,今治市,波方町樋口甲１４８９番地,00008181,38,202,7992102,,,2022-11-18,合併による解散等,3500001013138,令和４年１１月１日愛媛県今治市波方町樋口甲１４８９番地株式会社日企サービス（3500001013138）に合併し解散,2015-10-05,1,,,,,ニホンキギョウサービス,0
259,2010001162877,登記記録の閉鎖等,0,2022-11-29,2022-11-21,新電力サービス株式会社,,株式会社,東京都,中央区,銀座７丁目１３番６号サガミビル２Ｆ,,13,102,1040061,,,2022-11-21,清算の結了等,,,2015-10-05,1,,,,,,0
263,2010001170574,登記記録の閉鎖等,0,2022-11-29,2022-11-24,株式会社ＭＩＲＡＩ,,株式会社,東京都,新宿区,三栄町８番地森山ビル東館４０６号室,,13,104,1600008,,,2022-11-24,清算の結了等,,,2015-10-05,1,,,,,ミライ,0
265,2010001206064,登記記録の閉鎖等,0,2022-11-29,2022-11-24,ｃｒｙｓｔａｌｚ株式会社,,株式会社,東京都,中央区,日本橋兜町９番５号ＪＷＳ兜町ビル４２２,,13,102,1030026,,,2022-11-24,清算の結了等,,,2019-12-13,1,,,,,クリスタルズ,0
267,2010001221253,登記記録の閉鎖等,0,2022-11-29,2022-11-24,株式会社かたくら,,株式会社,東京都,中央区,明石町６番４号,,13,102,1040044,,,2022-11-24,清算の結了等,,,2021-09-24,1,,,,,カタクラ,0
282,2010401006444,登記記録の閉鎖等,0,2022-11-29,2022-11-21,株式会社オハラ,,株式会社,東京都,港区,南青山５丁目７番１７号,,13,103,1070062,,,2022-11-21,清算の結了等,,,2015-10-05,1,,,,,オハラ,0
295,2010502017068,登記記録の閉鎖等,0,2022-11-29,2022-11-28,有限会社工房ニシグチ,,有限会社,東京都,台東区,上野５丁目８番１０－１０１号,,13,106,1100005,,,2022-11-28,清算の結了等,,,2015-10-05,1,,,,,コウボウニシグチ,0
296,2010502019808,登記記録の閉鎖等,0,2022-11-29,2022-11-25,有限会社ネットマネージメント,,有限会社,東京都,台東区,浅草６丁目４４番４－４０２号,,13,106,1110032,,,2022-11-25,清算の結了等,,,2015-10-05,1,,,,,ネットマネージメント,0
299,2010602019039,登記記録の閉鎖等,0,2022-11-29,2022-11-21,有限会社タマノアート,,有限会社,東京都,江東区,東陽５丁目２番１５号,,13,108,1350016,,,2022-11-21,清算の結了等,,,2015-10-05,1,,,,,タマノアート,0
303,2010701022637,登記記録の閉鎖等,0,2022-11-29,2022-11-22,株式会社グッドマックスジャパン,,株式会社,東京都,町田市,鶴間１丁目２２番地７１,,13,209,1940004,,,2022-11-22,清算の結了等,,,2015-10-05,1,,,,,グッドマックスジャパン,0
325,2011701004311,登記記録の閉鎖等,0,2022-11-29,2022-11-21,株式会社スハマ,,株式会社,東京都,港区,白金台３丁目４番２１号,,13,103,1080071,,,2022-11-21,清算の結了等,,,2015-10-05,1,,,,,スハマ,0
334,2013202004468,登記記録の閉鎖等,0,2022-11-29,2022-11-24,有限会社童門,,有限会社,東京都,目黒区,五本木２丁目４９番２０－１０２号学芸大学パークホームズ,,13,110,1530053,,,2022-11-24,清算の結了等,,,2015-10-05,1,,,,,ドウモン,0
353,2021002060953,登記記録の閉鎖等,0,2022-11-29,2022-11-25,有限会社宮清,,有限会社,神奈川県,中郡二宮町,山西８６６番地,,14,342,2590124,,,2022-11-25,清算の結了等,,,2015-10-05,1,,,,,ミヤセイ,0
367,2030002096214,登記記録の閉鎖等,0,2022-11-29,2022-11-24,有限会社東松山薬局,,有限会社,埼玉県,東松山市,大字上野本１２９番地３,,11,212,3550073,,,2022-11-24,清算の結了等,,,2015-10-05,1,,,,,ヒガシマツヤマヤッキョク,0
368,2030002097088,登記記録の閉鎖等,0,2022-11-29,2022-11-21,有限会社宇津木保険事務所,,有限会社,埼玉県,東松山市,箭弓町１丁目１７番１４号,00017486,11,212,3550028,,,2022-11-21,清算の結了等,,,2015-10-05,1,,,,,ウツギホケンジムショ,0
375,2060001033140,登記記録の閉鎖等,0,2022-11-29,2022-11-22,株式会社ピックアップ・ラボ,,株式会社,栃木県,小山市,大字生駒３６３番地,,09,208,3230051,,,2022-11-22,清算の結了等,,,2020-11-18,1,,,,,ピックアップラボ,0
378,2070001010543,登記記録の閉鎖等,0,2022-11-29,2022-11-25,株式会社共立,,株式会社,群馬県,高崎市,足門町１３０９番地,,10,202,3703531,,,2022-11-25,清算の結了等,,,2015-10-05,1,,,,,キョウリツ,0
382,2110003004480,登記記録の閉鎖等,0,2022-11-29,2022-11-22,合同会社大福,,合同会社,新潟県,三条市,西裏館３丁目２番２２－１０８号,,15,204,9550082,,,2022-11-22,清算の結了等,,,2021-05-18,1,,,,,ダァフゥ,0
398,2120102003663,登記記録の閉鎖等,0,2022-11-29,2022-11-28,有限会社日本人工知能開発研究所,,有限会社,大阪府,堺市北区,奥本町２丁１２番地,,27,146,5918007,,,2022-11-28,清算の結了等,,,2015-10-05,1,,,,,ニホンジンコウチノウカイハツケンキュウショ,0
410,2130001007418,登記記録の閉鎖等,0,2022-11-29,2022-11-24,株式会社チヒロ管理,,株式会社,京都府,京都市左京区,二条通川端東入孫橋町７番地４二条ビル,,26,103,6068385,,,2022-11-24,清算の結了等,,,2015-10-05,1,,,,,チヒロカンリ,0
412,2130001048973,登記記録の閉鎖等,0,2022-11-29,2022-11-21,株式会社大英製作所,00036602,株式会社,京都府,京都市北区,上賀茂南大路町２２番地,,26,101,6038074,,,2022-11-21,清算の結了等,,,2015-10-05,1,,,,,ダイエイセイサクショ,0
438,2180305006986,登記記録の閉鎖等,0,2022-11-29,2022-11-07,寶珠寺,,その他の設立登記法人,愛知県,西尾市,和泉町６０番地,,23,213,4450824,,,2022-11-07,合併による解散等,1180305006921,令和４年１１月７日愛知県西尾市伊藤一丁目９番地３大槎律寺（1180305006921）に合併し解散,2015-10-05,1,,,,,ホウシュジ,0
442,2200002003532,登記記録の閉鎖等,0,2022-11-29,2022-11-28,有限会社日本空手衣製販,,有限会社,岐阜県,岐阜市,金園町１０丁目２６番地吉村ビル４Ｆ－Ａ,,21,201,5008113,,,2022-11-28,清算の結了等,,,2015-10-05,1,,,,,ニホンカラテギセイハン,0
447,2230001009115,登記記録の閉鎖等,0,2022-11-29,2022-11-24,不動建設株式会社,,株式会社,富山県,小矢部市,綾子５２３９番地,,16,209,9320833,,,2022-11-24,清算の結了等,,,2015-10-05,1,,,,,フドウケンセツ,0
452,2260001012322,登記記録の閉鎖等,0,2022-11-29,2022-11-25,株式会社ソフィオ,,株式会社,岡山県,岡山市中区,平井１２２８番地３,,33,102,7038282,,,2022-11-25,清算の結了等,,,2015-10-05,1,,,,,ソフィオ,0
454,2290001080523,登記記録の閉鎖等,0,2022-11-29,2022-11-25,株式会社ＯＮＥ　ＴＯ　ＯＮＥ,,株式会社,福岡県,福岡市中央区,赤坂１丁目７番２３号赤坂弁護士ビル３Ｆ,,40,133,8100042,,,2022-11-25,清算の結了等,,,2018-02-15,1,,,,,,0
476,2370002002567,登記記録の閉鎖等,0,2022-11-29,2022-11-24,有限会社オオカワ,,有限会社,宮城県,仙台市太白区,郡山字上野３番地の１,,04,104,9820003,,,2022-11-24,清算の結了等,,,2015-10-05,1,,,,,オオカワ,0
494,2420005004150,登記記録の閉鎖等,0,2022-11-29,2022-11-09,天理教林分教会,,その他の設立登記法人,青森県,つがる市,木造林妻田１２番地,,02,209,0383276,,,2022-11-09,合併による解散等,7420005003734,令和４年１１月９日青森県北津軽郡鶴田町大字鶴田字相原３８７番地天理教水元分教会（7420005003734）に合併し解散,2015-10-05,1,,,,,テンリキョウハヤシブンキョウカイ,0
498,2460002002178,登記記録の閉鎖等,0,2022-11-29,2022-11-25,有限会社ナミヒラ自動車塗装,,有限会社,北海道,釧路郡釧路町,北都１丁目１０番地５,,01,661,0880617,,,2022-11-25,清算の結了等,,,2015-10-05,1,,,,,ナミヒラジドウシャトソウ,0
501,2470002000189,登記記録の閉鎖等,0,2022-11-29,2022-11-25,丸島水産有限会社,,有限会社,香川県,高松市,庵治町６３９３番地２８,,37,201,7610130,,,2022-11-25,清算の結了等,,,2015-10-05,1,,,,,,0
511,3010001218579,登記記録の閉鎖等,0,2022-11-29,2022-11-25,株式会社トクモール,,株式会社,東京都,中央区,日本橋大伝馬町１１－８フジスタービルディング日本橋３階Ａ,,13,102,1030011,,,2022-11-25,清算の結了等,,,2021-06-04,1,,,,,トクモール,0
531,3010401038379,登記記録の閉鎖等,0,2022-11-29,2022-11-22,ブルーチップスタッフ株式会社,,株式会社,東京都,港区,新橋４丁目２７番９号,,13,103,1050004,,,2022-11-22,清算の結了等,,,2015-10-05,1,,,,,ブルーチップスタッフ,0
546,3010601055141,登記記録の閉鎖等,0,2022-11-29,2022-11-22,株式会社ＩＧ,,株式会社,東京都,江東区,東陽５丁目３０番１５号,,13,108,1350016,,,2022-11-22,清算の結了等,,,2019-03-05,1,,,,,アイジー,0
548,3010602006382,登記記録の閉鎖等,0,2022-11-29,2022-11-22,有限会社森戸製作所,,有限会社,東京都,江東区,牡丹３丁目１２番７号,,13,108,1350046,,,2022-11-22,清算の結了等,,,2015-10-05,1,,,,,モリトセイサクショ,0
567,3011005007258,登記記録の閉鎖等,0,2022-11-29,2022-11-17,ＢｌｕｅＯｃｅａｎ税理士法人,,その他の設立登記法人,東京都,渋谷区,恵比寿西２丁目３番１５号エビスエイトビル２階,,13,113,1500021,,,2022-11-17,清算の結了等,,,2017-07-13,1,,,,,ブルーオーシャン,0
571,3011302016110,登記記録の閉鎖等,0,2022-11-29,2022-11-21,有限会社イーコンテナ,,有限会社,東京都,杉並区,荻窪１丁目３７番３号,,13,115,1670051,,,2022-11-21,清算の結了等,,,2015-10-05,1,,,,,イーコンテナ,0
578,3011602006513,登記記録の閉鎖等,0,2022-11-29,2022-11-24,有限会社田中屋ビル,,有限会社,東京都,練馬区,関町北１丁目２３番１５号,,13,120,1770051,,,2022-11-24,清算の結了等,,,2015-10-05,1,,,,,タナカヤビル,0
607,3020001081943,登記記録の閉鎖等,0,2022-11-29,2022-11-22,アズレックス株式会社,,株式会社,東京都,品川区,西五反田８丁目１番２号第２平森ビル４階,,13,109,1410031,,,2022-11-22,合併による解散等,7280001003166,令和４年１１月２１日島根県出雲市江田町４０番地１株式会社イーグリッド（7280001003166）に合併し解散,2015-10-05,1,,,,,アズレックス,0
622,3030001022228,登記記録の閉鎖等,0,2022-11-29,2022-11-21,株式会社新生塩ビ,,株式会社,埼玉県,戸田市,氷川町２丁目８番７号,,11,224,3350027,,,2022-11-21,清算の結了等,,,2015-10-05,1,,,,,シンセイエンビ,0
623,3030001062521,登記記録の閉鎖等,0,2022-11-29,2022-11-21,株式会社航運ネットシステム,,株式会社,埼玉県,北本市,朝日２丁目１７４番地,,11,233,3640011,,,2022-11-21,清算の結了等,,,2015-10-05,1,,,,,,0
642,3040003017704,登記記録の閉鎖等,0,2022-11-29,2022-11-17,合同会社リージョナルコマースコンサルティング,,合同会社,千葉県,柏市,南逆井２丁目２５番１９号,,12,217,2770043,,,2022-11-17,清算の結了等,,,2021-05-10,1,,,,,リージョナルコマースコンサルティング,0
651,3070001028411,登記記録の閉鎖等,0,2022-11-29,2022-11-28,万福メディアワークス株式会社,,株式会社,群馬県,伊勢崎市,東小保方町３１０４番地１,,10,204,3792234,,,2022-11-28,清算の結了等,,,2015-10-05,1,,,,,,0
659,3100005001344,登記記録の閉鎖等,0,2022-11-29,2022-11-24,長野県コンクリート製品協同組合,,その他の設立登記法人,長野県,上高井郡小布施町,大字雁田１２６２番地１,,20,541,3810211,,,2022-11-24,清算の結了等,,,2015-10-05,1,,,,,ナガノケンコンクリートセイヒン,0
685,3122001001185,登記記録の閉鎖等,0,2022-11-29,2022-11-17,株式会社オーケー物流サービス,,株式会社,大阪府,東大阪市,水走３丁目７番２７号,,27,227,5780921,,,2022-11-17,清算の結了等,,,2015-10-05,1,,,,,オーケーブツリュウサービス,0
701,3150001010278,登記記録の閉鎖等,0,2022-11-29,2022-11-24,アスカトレーディング株式会社,,株式会社,京都府,木津川市,相楽台１丁目４番地２－６１１号,,26,214,6190223,,,2022-11-24,清算の結了等,,,2015-10-05,1,,,,,アスカトレーディング,0
724,3200001006683,登記記録の閉鎖等,0,2022-11-29,2022-11-28,株式会社美山観光ヤナ,,株式会社,岐阜県,山県市,青波９６６番地,,21,215,5012256,,,2022-11-28,清算の結了等,,,2015-10-05,1,,,,,ミヤマカンコウヤナ,0
728,3220002006227,登記記録の閉鎖等,0,2022-11-29,2022-11-25,有限会社ヨシダ段ボール,,有限会社,石川県,金沢市,寺中町ロ８０番地,,17,201,9200341,,,2022-11-25,清算の結了等,,,2015-10-05,1,,,,,ヨシダダンボール,0
738,3290001035451,登記記録の閉鎖等,0,2022-11-29,2022-11-24,株式会社オネスタス,,株式会社,福岡県,福岡市中央区,西公園４番４６－５０２号,,40,133,8100061,,,2022-11-24,清算の結了等,,,2015-10-05,1,,,,,オネスタス,0
741,3290003004504,登記記録の閉鎖等,0,2022-11-29,2022-11-24,合同会社カレン,,合同会社,福岡県,久留米市,草野町吉木２５４２番地,,40,203,8390836,,,2022-11-24,清算の結了等,,,2015-10-05,1,,,,,カレン,0
749,3310002004948,登記記録の閉鎖等,0,2022-11-29,2022-11-28,有限会社ベンテクニカルサービス,,有限会社,長崎県,長崎市,女の都３丁目１４番５号,,42,201,8528144,,,2022-11-28,清算の結了等,,,2015-10-05,1,,,,,ベンテクニカルサービス,0
754,3330002025570,登記記録の閉鎖等,0,2022-11-29,2022-11-24,有限会社味道園,,有限会社,熊本県,八代市,本町１丁目１番２７号,,43,202,8660861,,,2022-11-24,清算の結了等,,,2015-10-05,1,,,,,ミドウエン,0
760,3360002007970,登記記録の閉鎖等,0,2022-11-29,2022-11-14,有限会社タカラホーム,,有限会社,沖縄県,豊見城市,字渡橋名１５９番地,,47,212,9010222,,,2022-11-14,清算の結了等,,,2022-08-04,1,,,,,,0
772,3420005005024,登記記録の閉鎖等,0,2022-11-29,2022-11-09,天理教津軽里分教会,,その他の設立登記法人,青森県,南津軽郡大鰐町,大字唐牛字沼田７４番地,,02,362,0380204,,,2022-11-09,合併による解散等,2420005004555,令和４年１１月９日青森県弘前市大字祢宜町１番地３天理教禰宜町分教会（2420005004555）に合併し解散,2015-10-05,1,,,,,テンリキョウツガルサトブンキョウカイ,0
776,3430005007259,登記記録の閉鎖等,0,2022-11-29,2022-11-07,天理教十富分教会,,その他の設立登記法人,北海道,樺戸郡新十津川町,字吉野５６番地２,,01,432,0731322,,,2022-11-07,合併による解散等,9430005007261,令和４年１１月７日北海道樺戸郡新十津川町字中央８３番地４天理教新十津川分教会（9430005007261）に合併し解散,2015-10-05,1,,,,,テンリキョウトオトミブンキョウカイ,0
777,3430005011806,登記記録の閉鎖等,0,2022-11-29,2022-11-25,特定非営利活動法人明日佳スポーツ・クラブ,,その他の設立登記法人,北海道,札幌市中央区,南三条西１４丁目１番地１,,01,101,0600063,,,2022-11-25,清算の結了等,,,2015-10-05,1,,,,,アスカスポーツクラブ,0
778,3470001006335,登記記録の閉鎖等,0,2022-11-29,2022-11-25,株式会社シーリンク,,株式会社,香川県,高松市,郷東町３７０番地４９,,37,201,7618031,,,2022-11-25,清算の結了等,,,2015-10-05,1,,,,,シーリンク,0
795,4010001200387,登記記録の閉鎖等,0,2022-11-29,2022-11-18,株式会社龍,,株式会社,東京都,中央区,銀座３丁目４番地,,13,102,1040061,,,2022-11-18,清算の結了等,,,2019-05-07,1,,,,,リュウ,0
801,4010003033678,登記記録の閉鎖等,0,2022-11-29,2022-11-25,合同会社新高円寺プロパティ,,合同会社,東京都,千代田区,内幸町２丁目１番６号,,13,101,1000011,,,2022-11-25,清算の結了等,,,2020-12-09,1,,,,,シンコウエンジプロパティ,0
805,4010401126810,登記記録の閉鎖等,0,2022-11-29,2022-11-18,株式会社Ｄｉｍｅｔａｒ,,株式会社,東京都,港区,高輪４丁目２３番６ハイホーム高輪７０８号,,13,103,1080074,,,2022-11-18,清算の結了等,,,2016-09-02,1,,,,,,0
810,4010402000642,登記記録の閉鎖等,0,2022-11-29,2022-11-22,有限会社アヅマ理髪館,,有限会社,東京都,港区,赤坂２丁目１９番５号,,13,103,1070052,,,2022-11-22,清算の結了等,,,2015-10-05,1,,,,,,0
832,4011001124849,登記記録の閉鎖等,0,2022-11-29,2022-11-21,株式会社Ｐｏｍｍｅ　Ｒｏｕｇｅ,,株式会社,東京都,渋谷区,幡ヶ谷２丁目２番１８号－２０２,,13,113,1510072,,,2022-11-21,清算の結了等,,,2018-10-23,1,,,,,ポムルージュ,0
868,4020001049205,登記記録の閉鎖等,0,2022-11-29,2022-11-24,サンレイミー株式会社,,株式会社,神奈川県,横浜市戸塚区,品濃町５２４番地９,,14,110,2440801,,,2022-11-24,清算の結了等,,,2015-10-05,1,,,,,サンレイミー,0
885,4020003015171,登記記録の閉鎖等,0,2022-11-29,2022-11-24,合同会社ＤＡＩＳＨＩＺＥＮ　ＤＲＯＮＥ,,合同会社,神奈川県,川崎市中原区,小杉陣屋町２丁目１３番１３号,,14,133,2110062,,,2022-11-24,清算の結了等,,,2018-11-08,1,,,,,ダイシゼンドローン,0
901,4030002013200,登記記録の閉鎖等,0,2022-11-29,2022-11-21,ミクマ商事有限会社,,有限会社,埼玉県,さいたま市西区,三橋６丁目４６８番地２,,11,101,3310052,,,2022-11-21,清算の結了等,,,2015-10-05,1,,,,,ミクマショウジ,0
906,4030002055754,登記記録の閉鎖等,0,2022-11-29,2022-11-21,有限会社サクマ,,有限会社,埼玉県,桶川市,大字倉田１３８番地１,,11,231,3630006,,,2022-11-21,清算の結了等,,,2015-10-05,1,,,,,サクマ,0
931,4120001196573,登記記録の閉鎖等,0,2022-11-29,2022-11-25,株式会社ＡＧＥ関西,,株式会社,兵庫県,神戸市中央区,御幸通８丁目１－６神戸国際会館２２Ｆ,,28,110,6510087,,,2022-11-25,清算の結了等,,,2016-03-07,1,,,,,エージーイーカンサイ,0
952,4122002003188,登記記録の閉鎖等,0,2022-11-29,2022-11-25,有限会社帝翔,,有限会社,大阪府,東大阪市,西石切町５丁目４番１７号,,27,227,5798013,,,2022-11-25,清算の結了等,,,2015-10-05,1,,,,,テイショウ,0
978,4200002027174,登記記録の閉鎖等,0,2022-11-29,2022-11-25,有限会社梅田石油店,,有限会社,岐阜県,下呂市,野尻９６８番地,,21,220,5092313,,,2022-11-25,清算の結了等,,,2015-10-05,1,,,,,ウメダセキユテン,0
987,4220005000829,登記記録の閉鎖等,0,2022-11-29,2022-11-25,妙源寺,,その他の設立登記法人,石川県,金沢市,十三間町１０３番地,,17,201,9200976,,,2022-11-25,清算の結了等,,,2015-10-05,1,,,,,ミョウゲンジ,0
996,4250001002702,登記記録の閉鎖等,0,2022-11-29,2022-11-24,株式会社ジーンズ．,,株式会社,山口県,防府市,大字田島４１１番地の６,,35,206,7470834,,,2022-11-24,清算の結了等,,,2015-10-05,1,,,,,ジーンズ,0
999,4260001006801,登記記録の閉鎖等,0,2022-11-29,2022-11-28,やる気株式会社,,株式会社,岡山県,岡山市中区,西川原５２番地の８,,33,102,7038258,,,2022-11-28,清算の結了等,,,2015-10-05,1,,,,,ヤルキ,0
1018,4340001007048,登記記録の閉鎖等,0,2022-11-29,2022-11-28,株式会社竿山商店,,株式会社,鹿児島県,鹿児島市,千日町８番１４号貴剛ビルＢ１Ｆ,,46,201,8920843,,,2022-11-28,清算の結了等,,,2015-10-05,1,,,,,サオヤマショウテン,0
1019,4340005002177,登記記録の閉鎖等,0,2022-11-29,2022-11-24,特定非営利活動法人鹿児島ボラネット,,その他の設立登記法人,鹿児島県,鹿児島市,新屋敷町４番２４号６０１,,46,201,8920838,,,2022-11-24,清算の結了等,,,2015-10-05,1,,,,,カゴシマボラネット,0
1031,4360003009478,登記記録の閉鎖等,0,2022-11-29,2022-11-22,合同会社Ｏｎｅ　Ｓｋｙ　Ｈｏｕｓｅ,,合同会社,沖縄県,宜野湾市,嘉数４丁目１３－１０,,47,205,9012226,,,2022-11-22,清算の結了等,,,2019-04-18,1,,,,,ワンスカイハウス,0
1038,4370002014750,登記記録の閉鎖等,0,2022-11-29,2022-11-28,東北観光有限会社,,有限会社,宮城県,仙台市若林区,大和町５丁目２３番１０－３０４号,,04,103,9840042,,,2022-11-28,清算の結了等,,,2015-10-05,1,,,,,トウホクカンコウ,0
1044,4400001008576,登記記録の閉鎖等,0,2022-11-29,2022-11-17,トラスト・プランニング株式会社,,株式会社,岩手県,盛岡市,三ツ割５丁目９番１７号,,03,201,0200011,,,2022-11-17,清算の結了等,,,2015-10-05,1,,,,,トラストプランニング,0
1048,4430001046838,登記記録の閉鎖等,0,2022-11-29,2022-11-21,ヨシモト産業株式会社,,株式会社,北海道,美唄市,大通西一条南６丁目１番７号,,01,215,0720023,,,2022-11-21,清算の結了等,,,2015-10-05,1,,,,,ヨシモトサンギョウ,0
1049,4430001087675,登記記録の閉鎖等,0,2022-11-29,2022-11-18,丸和建設株式会社,,株式会社,北海道,札幌市中央区,南七条西１０丁目１０２５番地,,01,101,0640807,,,2022-11-18,清算の結了等,,,2022-10-28,1,,,,,マルワケンセツ,0
1073,5010003035335,登記記録の閉鎖等,0,2022-11-29,2022-11-22,合同会社トリニティ・ワン,,合同会社,東京都,千代田区,内幸町２丁目１番６号,,13,101,1000011,,,2022-11-22,清算の結了等,,,2021-08-02,1,,,,,トリニティワン,0
1110,5011302000285,登記記録の閉鎖等,0,2022-11-29,2022-11-21,有限会社アールイー,,有限会社,東京都,杉並区,上荻１丁目１４番１２号,,13,115,1670043,,,2022-11-21,清算の結了等,,,2015-10-05,1,,,,,アールイー,0
1126,5012701003382,登記記録の閉鎖等,0,2022-11-29,2022-11-24,岡本管材株式会社,,株式会社,東京都,東久留米市,下里４丁目１番３５－２０４,,13,222,2030043,,,2022-11-24,清算の結了等,,,2015-10-05,1,,,,,,0
1134,5020001053965,登記記録の閉鎖等,0,2022-11-29,2022-11-24,株式会社Ｇｉｚａ　Ｈｏｍｅ,,株式会社,神奈川県,横浜市神奈川区,菅田町２０８９,,14,102,2210864,,,2022-11-24,清算の結了等,,,2015-10-05,1,,,,,ギザホーム,0
1152,5030001038899,登記記録の閉鎖等,0,2022-11-29,2022-11-22,新明工業株式会社,,株式会社,埼玉県,草加市,八幡町３１６番地１４,,11,221,3400006,,,2022-11-22,清算の結了等,,,2015-10-05,1,,,,,シンメイコウギョウ,0
1167,5040002046776,登記記録の閉鎖等,0,2022-11-29,2022-11-17,有限会社ゼフィール,,有限会社,千葉県,松戸市,松戸新田３番地の３ゼファーヒルズ松戸フィオリーナ５０７号,,12,207,2702241,,,2022-11-17,清算の結了等,,,2015-10-05,1,,,,,ゼフィール,0
1172,5060001005582,登記記録の閉鎖等,0,2022-11-29,2022-11-22,カード総合研究所株式会社,,株式会社,栃木県,宇都宮市,西２丁目６番１８号,,09,201,3200861,,,2022-11-22,清算の結了等,,,2015-10-05,1,,,,,カードソウゴウケンキュウジョ,0
1190,5120001005741,登記記録の閉鎖等,0,2022-11-29,2022-11-25,株式会社大一,,株式会社,大阪府,大阪市阿倍野区,播磨町１丁目２０番７号,,27,119,5450022,,,2022-11-25,清算の結了等,,,2015-10-05,1,,,,,ダイイチ,0
1222,5130001044152,登記記録の閉鎖等,0,2022-11-29,2022-11-24,株式会社ＮＤプロフィット,,株式会社,京都府,舞鶴市,字京田６３番地,,26,202,6240823,,,2022-11-24,清算の結了等,,,2015-10-05,1,,,,,エヌディプロフィット,0
1254,5200001035185,登記記録の閉鎖等,0,2022-11-29,2022-11-28,株式会社ギユウ,,株式会社,岐阜県,岐阜市,豊岡町６番地３,,21,201,5008374,,,2022-11-28,清算の結了等,,,2018-05-18,1,,,,,ギユウ,0
1265,5240001006331,登記記録の閉鎖等,0,2022-11-29,2022-11-24,株式会社たけむら,,株式会社,広島県,広島市佐伯区,八幡東４丁目１番１４号,,34,108,7315115,,,2022-11-24,清算の結了等,,,2015-10-05,1,,,,,タケムラ,0
1271,5270002000553,登記記録の閉鎖等,0,2022-11-29,2022-11-28,有限会社協幸,,有限会社,鳥取県,鳥取市,賀露町北２丁目２番１号,,31,201,6800907,,,2022-11-28,清算の結了等,,,2015-10-05,1,,,,,キョウコウ,0
1279,5320001010787,登記記録の閉鎖等,0,2022-11-29,2022-11-25,サンハウス建設工業株式会社,,株式会社,大分県,中津市,中殿町３丁目１６番地の７,,44,203,8710030,,,2022-11-25,清算の結了等,,,2015-10-05,1,,,,,サンハウスケンセツコウギョウ,0
1288,5360003010732,登記記録の閉鎖等,0,2022-11-29,2022-11-14,合同会社ＦＢＷＭ,,合同会社,沖縄県,名護市,城２丁目４番２４号エアリーたか１０５,,47,209,9050013,,,2022-11-14,清算の結了等,,,2020-12-03,1,,,,,エフビューム,0
1302,5440002007556,登記記録の閉鎖等,0,2022-11-29,2022-11-22,有限会社小澤設備,,有限会社,北海道,亀田郡七飯町,大川２丁目２６番８号,,01,337,0411122,,,2022-11-22,清算の結了等,,,2015-10-05,1,,,,,オザワセツビ,0
1303,5440002007845,登記記録の閉鎖等,0,2022-11-29,2022-11-22,有限会社アイリス,,有限会社,北海道,北斗市,開発２２５番地の７,,01,236,0411213,,,2022-11-22,清算の結了等,,,2015-10-05,1,,,,,アイリス,0
1324,6010401008189,登記記録の閉鎖等,0,2022-11-29,2022-11-18,協立美術印刷株式会社,,株式会社,東京都,港区,東麻布１丁目１９番６号,,13,103,1060044,,,2022-11-18,清算の結了等,,,2015-10-05,1,,,,,キョウリツビジュツインサツ,0
1329,6010401124606,登記記録の閉鎖等,0,2022-11-29,2022-11-21,株式会社マインドライン,,株式会社,東京都,港区,芝４丁目１８－４－１２０６,,13,103,1080014,,,2022-11-21,清算の結了等,,,2016-05-10,1,,,,,,0
1343,6010602013013,登記記録の閉鎖等,0,2022-11-29,2022-11-18,有限会社克章工業,,有限会社,東京都,墨田区,八広３丁目８番１５号,,13,107,1310041,,,2022-11-18,清算の結了等,,,2015-10-05,1,,,,,カツアキコウギョウ,0
1348,6010701038497,登記記録の閉鎖等,0,2022-11-29,2022-11-24,株式会社レスターキャステック,,株式会社,東京都,品川区,東品川３丁目６番５号,,13,109,1400002,,,2022-11-24,合併による解散等,2010001136410,令和４年１１月１日東京都中央区日本橋人形町一丁目８番４号東商共同ビルカードサービス株式会社（2010001136410）に合併し解散,2019-11-28,1,,,,,レスターキャステック,0
1353,6011001037066,登記記録の閉鎖等,0,2022-11-29,2022-11-17,株式会社レッツクリエイション,,株式会社,東京都,港区,芝公園３丁目４番３０号,,13,103,1050011,,,2022-11-17,合併による解散等,7011001042206,令和４年１１月１日東京都渋谷区代々木二丁目１０番８号株式会社ジー・ピー・アセット（7011001042206）に合併し解散,2015-10-05,1,,,,,レッツクリエイション,0
1358,6011001119509,登記記録の閉鎖等,0,2022-11-29,2022-11-25,パンクメディア株式会社,,株式会社,東京都,世田谷区,三宿１丁目１４－８三宿バドスクエア１１３,,13,112,1540005,,,2022-11-25,清算の結了等,,,2017-12-05,1,,,,,パンクメディア,0
1371,6011102003446,登記記録の閉鎖等,0,2022-11-29,2022-11-25,有限会社菊月堂,,有限会社,東京都,新宿区,高田馬場２丁目１６番３号,,13,104,1690075,,,2022-11-25,清算の結了等,,,2015-10-05,1,,,,,キクゲツドウ,0
1372,6011102010095,登記記録の閉鎖等,0,2022-11-29,2022-11-25,有限会社パール座,,有限会社,東京都,新宿区,高田馬場３丁目３番８号,,13,104,1690075,,,2022-11-25,清算の結了等,,,2015-10-05,1,,,,,パールザ,0
1374,6011201012629,登記記録の閉鎖等,0,2022-11-29,2022-11-15,株式会社ニックスインターナショナル,,株式会社,東京都,杉並区,井草２丁目２９番１１号,,13,115,1670021,,,2022-11-15,清算の結了等,,,2015-10-05,1,,,,,ニックスインターナショナル,0
1379,6011502005802,登記記録の閉鎖等,0,2022-11-29,2022-11-21,有限会社みどり工芸社,,有限会社,東京都,北区,上十条４丁目１０－１０,,13,117,1140034,,,2022-11-21,清算の結了等,,,2015-10-05,1,,,,,ミドリコウゲイシャ,0
1383,6011701020544,登記記録の閉鎖等,0,2022-11-29,2022-11-25,株式会社夏川商事,,株式会社,東京都,江戸川区,小松川４丁目７３番地１８,,13,123,1320034,,,2022-11-25,清算の結了等,,,2017-01-30,1,,,,,ナツカワショウジ,0
1418,6021002031983,登記記録の閉鎖等,0,2022-11-29,2022-11-25,有限会社霜島畜産,,有限会社,神奈川県,厚木市,上古沢１８３４番地,,14,212,2430215,,,2022-11-25,清算の結了等,,,2015-10-05,1,,,,,シモジマチクサン,0
1430,6030002075445,登記記録の閉鎖等,0,2022-11-29,2022-11-21,有限会社山内測量,,有限会社,埼玉県,川越市,新宿町６丁目２８番地４３,,11,201,3501124,,,2022-11-21,清算の結了等,,,2015-10-05,1,,,,,ヤマウチソクリョウ,0
1433,6030003014435,登記記録の閉鎖等,0,2022-11-29,2022-11-22,合同会社アサガオ,,合同会社,埼玉県,さいたま市浦和区,本太１丁目３９番８－６０３号,,11,107,3300052,,,2022-11-22,清算の結了等,,,2019-11-25,1,,,,,アサガオ,0
1450,6070001031247,登記記録の閉鎖等,0,2022-11-29,2022-11-28,株式会社ａｙｌｓ,,株式会社,群馬県,伊勢崎市,東小保方町３１０４番地１,,10,204,3792234,,,2022-11-28,清算の結了等,,,2015-10-05,1,,,,,,0
1452,6070002015819,登記記録の閉鎖等,0,2022-11-29,2022-11-25,有限会社小泉酒店,,有限会社,群馬県,高崎市,吉井町下長根３３９番地,,10,202,3702121,,,2022-11-25,清算の結了等,,,2015-10-05,1,,,,,コイズミサケテン,0
1461,6110001026300,登記記録の閉鎖等,0,2022-11-29,2022-11-28,株式会社コミテック,,株式会社,新潟県,南魚沼市,原字大道通２６４番３,,15,226,9496755,,,2022-11-28,清算の結了等,,,2015-10-05,1,,,,,,0
1463,6120001001236,登記記録の閉鎖等,0,2022-11-29,2022-11-25,株式会社シャロン,,株式会社,大阪府,大阪市旭区,中宮１丁目７－１５シャロンハイツ１０４号,,27,117,5350003,,,2022-11-25,清算の結了等,,,2015-10-05,1,,,,,シャロン,0
1484,6140001085203,登記記録の閉鎖等,0,2022-11-29,2022-11-22,株式会社行司工務店,,株式会社,兵庫県,淡路市,多賀９８２番地,,28,226,6561521,,,2022-11-22,清算の結了等,,,2015-10-05,1,,,,,ギョウジコウムテン,0
1485,6140001113104,登記記録の閉鎖等,0,2022-11-29,2022-11-22,株式会社日興鋳材,,株式会社,兵庫県,明石市,東朝霧丘８番４号,,28,203,6730854,,,2022-11-22,清算の結了等,,,2019-03-27,1,,,,,ニッコウチュウザイ,0
1495,6180305007576,登記記録の閉鎖等,0,2022-11-29,2022-10-31,天理教設樂分教会,,その他の設立登記法人,愛知県,新城市,豊島字外畑１４番地の３,,23,221,4411345,,,2022-10-31,合併による解散等,2180305003026,令和４年１０月３１日愛知県豊橋市花田町字斉藤７０番地の６天理教八名分教会（2180305003026）に合併し解散,2015-10-05,1,,,,,テンリキョウシタラブンキョウカイ,0
1500,6200002001771,登記記録の閉鎖等,0,2022-11-29,2022-11-28,有限会社後藤設備,,有限会社,岐阜県,岐阜市,早田町３丁目４６番地の２,,21,201,5020845,,,2022-11-28,清算の結了等,,,2015-10-05,1,,,,,ゴトウセツビ,0
1501,6210001007612,登記記録の閉鎖等,0,2022-11-29,2022-11-28,ノウチ編織株式会社,,株式会社,福井県,坂井市,丸岡町舟寄第８９号１０番地,,18,210,9100381,,,2022-11-28,清算の結了等,,,2015-10-05,1,,,,,ノウチヘンショク,0
1503,6210002009112,登記記録の閉鎖等,0,2022-11-29,2022-11-28,有限会社フロンティア,,有限会社,福井県,福井市,和田中２丁目１６０２番地の３,,18,201,9188236,,,2022-11-28,清算の結了等,,,2015-10-05,1,,,,,フロンティア,0
1510,6240002049584,登記記録の閉鎖等,0,2022-11-29,2022-11-24,有限会社平田ストア,,有限会社,広島県,竹原市,忠海中町２丁目８番５号,,34,203,7292316,,,2022-11-24,清算の結了等,,,2015-10-05,1,,,,,,0
1532,6330003002888,登記記録の閉鎖等,0,2022-11-29,2022-11-21,合資会社芥川商店,,合資会社,熊本県,宇土市,本町４丁目４６番地,,43,211,8690431,,,2022-11-21,清算の結了等,,,2015-10-05,1,,,,,アクタガワショウテン,0
1534,6330005007043,登記記録の閉鎖等,0,2022-11-29,2022-11-08,天理教苓州分教会,,その他の設立登記法人,熊本県,天草市,本渡町本戸馬場１５６１番地１,,43,215,8630002,,,2022-11-08,合併による解散等,7330005007042,令和４年１１月８日熊本県天草市浄南町５番１６号天理教北天草分教会（7330005007042）に合併し解散,2015-10-05,1,,,,,テンリキョウレイシュウブンキョウカイ,0
1537,6340005004196,登記記録の閉鎖等,0,2022-11-29,2022-11-28,特定非営利活動法人福祉ネットワークサービス,,その他の設立登記法人,鹿児島県,鹿児島市,宮之浦町４０３２番地１４,,46,201,8911305,,,2022-11-28,清算の結了等,,,2015-10-05,1,,,,,フクシネットワークサービス,0
1538,6350001011930,登記記録の閉鎖等,0,2022-11-29,2022-11-25,株式会社ａｇｅｎｔ７１５,,株式会社,宮崎県,宮崎市,吾妻町１２３番地セントヒルズ宮崎７０４号,,45,201,8800864,,,2022-11-25,清算の結了等,,,2015-10-05,1,,,,,,0
1552,6420002016839,登記記録の閉鎖等,0,2022-11-29,2022-11-24,有限会社トーショク,,有限会社,青森県,十和田市,大字三本木字野崎１番地,,02,206,0340001,,,2022-11-24,清算の結了等,,,2015-10-05,1,,,,,トーショク,0
1557,6450001008850,登記記録の閉鎖等,0,2022-11-29,2022-11-24,伊藤商行株式会社,,株式会社,北海道,留萌市,潮静１丁目１番地の３,,01,212,0770013,,,2022-11-24,清算の結了等,,,2022-01-17,1,,,,,イトウショウコウ,0
1574,7010003013033,登記記録の閉鎖等,0,2022-11-29,2022-11-24,合同会社ＴＣ３,,合同会社,東京都,千代田区,永田町２丁目１１番１号,,13,101,1000014,,,2022-11-24,清算の結了等,,,2015-10-05,1,,,,,ティーシースリー,0
1576,7010003019022,登記記録の閉鎖等,0,2022-11-29,2022-11-18,大仙太陽光センター合同会社,,合同会社,東京都,港区,新橋５丁目３４番６号,,13,103,1050004,,,2022-11-18,合併による解散等,6010401110655,令和４年１１月１８日東京都港区新橋五丁目３４番６号大仙太陽光センター株式会社（6010401110655）に合併し解散,2015-10-05,1,,,,,ダイセンタイヨウコウセンター,0
1600,7010902000115,登記記録の閉鎖等,0,2022-11-29,2022-11-25,アイケミカル有限会社,,有限会社,東京都,世田谷区,給田４丁目３番９号,,13,112,1570064,,,2022-11-25,清算の結了等,,,2015-10-05,1,,,,,アイケミカル,0
1638,7020001073053,登記記録の閉鎖等,0,2022-11-29,2022-11-22,株式会社三光精工,,株式会社,神奈川県,川崎市川崎区,水江町６番９号,,14,131,2100866,,,2022-11-22,清算の結了等,,,2015-10-05,1,,,,,サンコウセイコウ,0
1640,7020001085627,登記記録の閉鎖等,0,2022-11-29,2022-11-24,株式会社ライズカンパニー,,株式会社,神奈川県,川崎市宮前区,小台１丁目１７番地５号,,14,136,2160007,,,2022-11-24,清算の結了等,,,2015-10-05,1,,,,,ライズカンパニー,0
1663,7030001080924,登記記録の閉鎖等,0,2022-11-29,2022-11-24,株式会社テクノリッチ,,株式会社,埼玉県,川口市,元郷１丁目１番２１号６０９,,11,203,3320011,,,2022-11-24,清算の結了等,,,2015-10-05,1,,,,,テクノリッチ,0
1664,7030001084875,登記記録の閉鎖等,0,2022-11-29,2022-11-22,株式会社松竹園,,株式会社,埼玉県,熊谷市,肥塚１２１５番地１,,11,202,3600015,,,2022-11-22,清算の結了等,,,2015-10-05,1,,,,,ショウチクエン,0
1692,7080102011575,登記記録の閉鎖等,0,2022-11-29,2022-11-18,有限会社前川商店,,有限会社,静岡県,三島市,本町１番８号,,22,206,4110855,,,2022-11-18,清算の結了等,,,2015-10-05,1,,,,,マエカワショウテン,0
1695,7100001016103,登記記録の閉鎖等,0,2022-11-29,2022-11-15,株式会社筑摩工業,,株式会社,長野県,塩尻市,大字大門８６８番地１３１,,20,215,3990744,,,2022-11-15,清算の結了等,,,2015-10-05,1,,,,,チクマコウギョウ,0
1699,7110001003109,登記記録の閉鎖等,0,2022-11-29,2022-11-25,滝口薬品商事株式会社,,株式会社,新潟県,新潟市東区,南紫竹１丁目１番１８号,,15,102,9500854,,,2022-11-25,清算の結了等,,,2015-10-05,1,,,,,タキグチヤクヒンショウジ,0
1702,7110002021118,登記記録の閉鎖等,0,2022-11-29,2022-11-28,有限会社山本材木店,,有限会社,新潟県,柏崎市,大字大湊１９６番地２,,15,205,9450403,,,2022-11-28,清算の結了等,,,2015-10-05,1,,,,,ヤマモトザイモクテン,0
1707,7120001212484,登記記録の閉鎖等,0,2022-11-29,2022-11-28,株式会社スタッキング,,株式会社,大阪府,豊中市,春日町１丁目５番１０号,,27,203,5600052,,,2022-11-28,清算の結了等,,,2018-04-10,1,,,,,スタッキング,0
1709,7120001235543,登記記録の閉鎖等,0,2022-11-29,2022-11-28,株式会社Ｏｎｅ’ｓ　ｏｎｅ,,株式会社,大阪府,大阪市東淀川区,井高野２丁目１番４５号シャトレ秋桜３０５号,,27,114,5330001,,,2022-11-28,清算の結了等,,,2021-02-26,1,,,,,ワンズワン,0
1720,7130001003065,登記記録の閉鎖等,0,2022-11-29,2022-11-21,株式会社サンユウ,,株式会社,京都府,京都市上京区,一条通御前通西入２丁目西町１１７番地,,26,102,6028374,,,2022-11-21,清算の結了等,,,2015-10-05,1,,,,,サンユウ,0
1751,7180305007575,登記記録の閉鎖等,0,2022-11-29,2022-10-31,天理教上豊川分教会,,その他の設立登記法人,愛知県,新城市,日吉字浜井場９番地の４,,23,221,4411322,,,2022-10-31,合併による解散等,2180305003026,令和４年１０月３１日愛知県豊橋市花田町字斉藤７０番地の６天理教八名分教会（2180305003026）に合併し解散,2015-10-05,1,,,,,,0
1762,7250001015981,登記記録の閉鎖等,0,2022-11-29,2022-11-21,株式会社周南プラントメンテ,,株式会社,山口県,周南市,河東町６番１６－９０２号,,35,215,7450845,,,2022-11-21,清算の結了等,,,2016-05-24,1,,,,,シュウナンプラントメンテ,0
1782,7290002017981,登記記録の閉鎖等,0,2022-11-29,2022-11-24,有限会社アピス,,有限会社,福岡県,福岡市博多区,麦野５丁目６番６－２０３号,,40,132,8120882,,,2022-11-24,清算の結了等,,,2015-10-05,1,,,,,アピス,0
1797,7370001038590,登記記録の閉鎖等,0,2022-11-29,2022-11-28,株式会社リケン工業,,株式会社,北海道,小樽市,東雲町１番２０１号,,01,203,0470026,,,2022-11-28,清算の結了等,,,2015-10-05,1,,,,,リケンコウギョウ,0
1799,7380001008948,登記記録の閉鎖等,0,2022-11-29,2022-11-22,株式会社スタジオプリマ,,株式会社,福島県,郡山市,山根町８番７号,,07,203,9638832,,,2022-11-22,清算の結了等,,,2015-10-05,1,,,,,スタジオプリマ,0
1804,7410001001271,登記記録の閉鎖等,0,2022-11-29,2022-11-24,サービスエース株式会社,,株式会社,秋田県,秋田市,河辺神内字坂ノ下３４番地２,,05,201,0192631,,,2022-11-24,清算の結了等,,,2015-10-05,1,,,,,サービスエース,0
1808,7420002006062,登記記録の閉鎖等,0,2022-11-29,2022-11-24,有限会社赤坂工務店,,有限会社,青森県,八戸市,大字豊崎町字滝谷４９番地,,02,203,0391109,,,2022-11-24,清算の結了等,,,2015-10-05,1,,,,,アカサカコウムテン,0
1813,7430003013486,登記記録の閉鎖等,0,2022-11-29,2022-11-21,合同会社Ｔｒｉｄｅｎｔ　ｕｐ,,合同会社,北海道,札幌市厚別区,厚別中央四条４丁目３番２号ロアジスＩ　１０３号,00125256,01,108,0040054,,,2022-11-21,清算の結了等,,,2021-12-28,1,,,,,トライデントアップ,0
1825,8010001174223,登記記録の閉鎖等,0,2022-11-29,2022-11-21,ナバルテック・アジア・アンド・パシフィック株式会社,,株式会社,東京都,港区,六本木６丁目１０番１号,,13,103,1060032,,,2022-11-21,清算の結了等,,,2016-03-15,1,,,,,ナバルテックアジアアンドパシフィック,0
1836,8010005027451,登記記録の閉鎖等,0,2022-11-29,2022-11-28,一般社団法人ＲＥＸＣＯ１号,,その他の設立登記法人,東京都,千代田区,丸の内３丁目１番１号東京共同会計事務所内,,13,101,1000005,,,2022-11-28,清算の結了等,,,2017-09-13,1,,,,,レクスコイチゴウ,0
1856,8010702010701,登記記録の閉鎖等,0,2022-11-29,2022-11-24,有限会社北沢技術事務所,,有限会社,東京都,品川区,西五反田２丁目１４番１３号,,13,109,1410031,,,2022-11-24,清算の結了等,,,2015-10-05,1,,,,,キタザワギジュツジムショ,0
1872,8011003013261,登記記録の閉鎖等,0,2022-11-29,2022-11-14,合同会社ロケットダック,,合同会社,東京都,渋谷区,幡ヶ谷３丁目３９番１２号渋谷ウェストビル１階,,13,113,1510072,,,2022-11-14,清算の結了等,,,2021-08-27,1,,,,,ロケットダック,0
1908,8020005001331,登記記録の閉鎖等,0,2022-11-29,2022-11-24,医療法人岡本産婦人科医院,,その他の設立登記法人,神奈川県,横浜市金沢区,能見台通１５番３号,,14,108,2360053,,,2022-11-24,清算の結了等,,,2015-10-05,1,,,,,オカモトサンフジンカイイン,0
1928,8040001093940,登記記録の閉鎖等,0,2022-11-29,2022-11-21,株式会社土庄,,株式会社,千葉県,野田市,木野崎１７５８番地の４,,12,208,2780002,,,2022-11-21,合併による解散等,7050001048531,令和４年１１月１日茨城県水戸市双葉台四丁目２９番３号株式会社フジシマ（7050001048531）に合併し解散,2016-02-05,1,,,,,トノショウ,0
1936,8040002076085,登記記録の閉鎖等,0,2022-11-29,2022-11-21,有限会社藤井建装,,有限会社,千葉県,市原市,八幡１４９４番地３,,12,219,2900062,,,2022-11-21,清算の結了等,,,2015-10-05,1,,,,,,0
1946,8050005002293,登記記録の閉鎖等,0,2022-11-29,2022-11-07,稲荷神社,,その他の設立登記法人,茨城県,ひたちなか市,平磯町９８６番地,,08,221,3111203,,,2022-11-07,合併による解散等,1050005002300,令和４年１１月７日茨城県ひたちなか市富士ノ上２番１号橿原神宮（1050005002300）に合併し解散,2015-10-05,1,,,,,イナニジンジャ,0
1953,8080101011600,登記記録の閉鎖等,0,2022-11-29,2022-11-25,寺田七郎薬品株式会社,,株式会社,静岡県,富士宮市,東町１３番５号,,22,207,4180077,,,2022-11-25,清算の結了等,,,2015-10-05,1,,,,,テラダシチロウヤクヒン,0
1973,8120902015951,登記記録の閉鎖等,0,2022-11-29,2022-11-25,有限会社貴田自動車整備工場,,有限会社,大阪府,豊能郡能勢町,野間稲地１３０番地,,27,322,5630133,,,2022-11-25,清算の結了等,,,2015-10-05,1,,,,,キダジドウシャセイビコウジョウ,0
1978,8130001050882,登記記録の閉鎖等,0,2022-11-29,2022-11-24,株式会社みやび,,株式会社,京都府,京都市北区,紫竹上高才町１１番地,,26,101,6038117,,,2022-11-24,清算の結了等,,,2015-10-05,1,,,,,ミヤビ,0
1990,8140002064294,登記記録の閉鎖等,0,2022-11-29,2022-11-21,有限会社ウエダ,,有限会社,兵庫県,川西市,矢問東町１番２０号,,28,217,6660132,,,2022-11-21,清算の結了等,,,2015-10-05,1,,,,,ウエダ,0
1996,8170003001228,登記記録の閉鎖等,0,2022-11-29,2022-11-25,合同会社プロスパリティ,,合同会社,和歌山県,和歌山市,寺内５５３番地１エルドラド寺内２階２０５号室,,30,201,6408311,,,2022-11-25,清算の結了等,,,2018-05-07,1,,,,,プロスパリティ,0
1997,8170005004039,登記記録の閉鎖等,0,2022-11-29,2022-11-24,特定非営利活動法人熊野曼陀羅,,その他の設立登記法人,和歌山県,西牟婁郡白浜町,２８７２番地の５,,30,401,6492211,,,2022-11-24,清算の結了等,,,2015-10-05,1,,,,,クマノマンダラ,0
1998,8170005006885,登記記録の閉鎖等,0,2022-11-29,2022-11-24,田原村農業會,00122329,その他の設立登記法人,和歌山県,東牟婁郡串本町,田原６２６番地１,,30,428,6494112,,,2022-11-24,清算の結了等,,,2021-03-11,1,,,,,タハラムラノウギョウカイ,0
2010,8210005004026,登記記録の閉鎖等,0,2022-11-29,2022-11-28,一般財団法人丸岡織物会館,,その他の設立登記法人,福井県,坂井市,丸岡町谷町１丁目２７番地,,18,210,9100245,,,2022-11-28,清算の結了等,,,2015-10-05,1,,,,,マルオカオリモノカイカン,0
2017,8260001001410,登記記録の閉鎖等,0,2022-11-29,2022-11-28,大倉企業株式会社,,株式会社,岡山県,岡山市北区,二日市町２９番地,,33,101,7000843,,,2022-11-28,清算の結了等,,,2015-10-05,1,,,,,オオクラキギョウ,0
2030,8290002016272,登記記録の閉鎖等,0,2022-11-29,2022-11-25,有限会社智燃,,有限会社,福岡県,福岡市博多区,吉塚３丁目９番９号,,40,132,8120041,,,2022-11-25,清算の結了等,,,2015-10-05,1,,,,,チネン,0
2032,8290002053992,登記記録の閉鎖等,0,2022-11-29,2022-11-24,有限会社マルタックス,,有限会社,福岡県,柳川市,大和町豊原１９０番地の４,,40,207,8390242,,,2022-11-24,清算の結了等,,,2015-10-05,1,,,,,,0
2038,8300001011140,登記記録の閉鎖等,0,2022-11-29,2022-11-16,Ｊｏｙｓｏｎ　Ｓａｆｅｔｙ　Ｓｙｓｔｅｍｓ　Ｋｙｕｓｈｕ株式会社,,株式会社,佐賀県,多久市,東多久町大字別府２１９５番地４,,41,204,8460012,,,2022-11-16,合併による解散等,3010701035266,令和４年１１月１日東京都品川区東品川二丁目３番１４号東京フロントテラスＪｏｙｓｏｎ　Ｓａｆｅｔｙ　Ｓｙｓｔｅｍｓ　Ｊａｐａｎ株式会社（3010701035266）に合併し解散,2018-01-30,1,,,,,ジョイソンセーフティシステムズキュウシュウ,0
2055,8410002002945,登記記録の閉鎖等,0,2022-11-29,2022-11-25,有限会社ノーヱチ薬品,,有限会社,秋田県,秋田市,土崎港北２丁目１３番１３号,,05,201,0110941,,,2022-11-25,清算の結了等,,,2015-10-05,1,,,,,,0
2063,8460301004068,登記記録の閉鎖等,0,2022-11-29,2022-11-25,株式会社セレモニーアシスト,,株式会社,北海道,北見市,北進町６丁目１１番１８号,,01,208,0900052,,,2022-11-25,清算の結了等,,,2015-10-05,1,,,,,セレモニーアシスト,0
2083,9010103001456,登記記録の閉鎖等,0,2022-11-29,2022-11-28,合同会社ブルースター,,合同会社,東京都,八王子市,大谷町４１２番地２２,,13,201,1920034,,,2022-11-28,清算の結了等,,,2019-10-01,1,,,,,,0
2089,9010401144816,登記記録の閉鎖等,0,2022-11-29,2022-11-24,株式会社レックス東京,,株式会社,東京都,港区,赤坂２丁目１４番３４号,,13,103,1070052,,,2022-11-24,合併による解散等,5010501039309,令和４年９月３０日東京都台東区根岸一丁目５番５号株式会社グッドワン（5010501039309）に合併し解散,2019-04-05,1,,,,,レックストウキョウ,0
2095,9010403023704,登記記録の閉鎖等,0,2022-11-29,2022-11-21,合同会社ＭＪＴフーズ,,合同会社,東京都,港区,芝大門２丁目６番１１号,,13,103,1050012,,,2022-11-21,清算の結了等,,,2020-09-10,1,,,,,エムジェイティーフーズ,0
2104,9010603009718,登記記録の閉鎖等,0,2022-11-29,2022-11-22,すまいるん合同会社,,合同会社,東京都,墨田区,緑２丁目２－２－２０１Ｙ’ｓＳＱＵＡＲＥ両国,,13,107,1300021,,,2022-11-22,清算の結了等,,,2022-09-09,1,,,,,スマイルン,0
2107,9010801017687,登記記録の閉鎖等,0,2022-11-29,2022-11-21,株式会社アイ・エス・エム,,株式会社,東京都,大田区,田園調布５丁目２６番１５号,,13,111,1450071,,,2022-11-21,清算の結了等,,,2015-10-05,1,,,,,アイエスエム,0
2148,9013402006885,登記記録の閉鎖等,0,2022-11-29,2022-11-21,有限会社ブライトストーン,,有限会社,東京都,日野市,豊田３丁目２１番地の１１,,13,212,1910053,,,2022-11-21,清算の結了等,,,2015-10-05,1,,,,,ブライトストーン,0
2158,9020002105670,登記記録の閉鎖等,0,2022-11-29,2022-11-24,有限会社ラピスネット,,有限会社,神奈川県,川崎市川崎区,日進町１番地サンスクエア川崎５－１４０８,,14,131,2100024,,,2022-11-24,清算の結了等,,,2015-10-05,1,,,,,ラピスネット,0
2166,9021001057143,登記記録の閉鎖等,0,2022-11-29,2022-11-22,アルファドック株式会社,,株式会社,神奈川県,中郡大磯町,石神台３丁目２０番２０号,,14,341,2590113,,,2022-11-22,合併による解散等,1010001159032,令和４年１１月１日東京都中央区日本橋本町四丁目１番１３号株式会社アルファＴＫＧ（1010001159032）に合併し解散,2015-10-05,1,,,,,アルファドック,0
2188,9050003006007,登記記録の閉鎖等,0,2022-11-29,2022-11-24,欣栄商事合同会社,,合同会社,茨城県,水戸市,河和田町４４０５－３１－１Ｆ,,08,201,3114153,,,2022-11-24,清算の結了等,,,2021-08-03,1,,,,,キンエイショウジ,0
2190,9050005002301,登記記録の閉鎖等,0,2022-11-29,2022-11-07,草薙神社,,その他の設立登記法人,茨城県,ひたちなか市,海門町１丁目１番８号,,08,221,3111222,,,2022-11-07,合併による解散等,1050005002309,令和４年１１月７日茨城県ひたちなか市湊中央一丁目２番１号天満宮（1050005002309）に合併し解散,2015-10-05,1,,,,,クサナギジンジャ,0
2197,9070005000724,登記記録の閉鎖等,0,2022-11-29,2022-11-24,医療法人本間小児科内科医院,,その他の設立登記法人,群馬県,前橋市,文京町４丁目２２番１８号,,10,201,3710801,,,2022-11-24,清算の結了等,,,2015-10-05,1,,,,,,0
2199,9080101008281,登記記録の閉鎖等,0,2022-11-29,2022-11-28,大山電気株式会社,,株式会社,静岡県,富士市,久沢１５９７番地の６,,22,210,4190202,,,2022-11-28,清算の結了等,,,2015-10-05,1,,,,,オオヤマデンキ,0
2208,9120001031305,登記記録の閉鎖等,0,2022-11-29,2022-11-28,株式会社ナナヤ製作所,,株式会社,大阪府,大阪市住之江区,平林北２丁目６番１０号,,27,125,5590026,,,2022-11-28,清算の結了等,,,2015-10-05,1,,,,,ナナヤセイサクショ,0
2212,9120001215205,登記記録の閉鎖等,0,2022-11-29,2022-11-24,株式会社アイセット,,株式会社,大阪府,大阪市中央区,久太郎町２丁目５番６－８０４号,,27,128,5410056,,,2022-11-24,合併による解散等,1120001165077,令和４年１１月２４日大阪市中央区久太郎町二丁目５番６号ウェルビング株式会社（1120001165077）に合併し解散,2018-08-08,1,,,,,アイセット,0
2237,9130002034594,登記記録の閉鎖等,0,2022-11-29,2022-11-24,有限会社舞鶴館,,有限会社,京都府,舞鶴市,字余部下７６７番地,,26,202,6250087,,,2022-11-24,清算の結了等,,,2015-10-05,1,,,,,マイヅルカン,0
2244,9140005018800,登記記録の閉鎖等,0,2022-11-29,2022-11-28,宝塚テクノタウン協同組合,,その他の設立登記法人,兵庫県,宝塚市,高司４丁目３番２７号神谷興産株式会社内,,28,214,6650051,,,2022-11-28,清算の結了等,,,2015-10-05,1,,,,,タカラヅカテクノタウン,0
2247,9160001012144,登記記録の閉鎖等,0,2022-11-29,2022-11-22,株式会社シューエイシー,,株式会社,滋賀県,高島市,新旭町旭２丁目５番地の４レコルト旭１０１号,,25,212,5201501,,,2022-11-22,清算の結了等,,,2015-10-05,1,,,,,シューエイシー,0
2265,9180302011561,登記記録の閉鎖等,0,2022-11-29,2022-11-28,有限会社日本アソシエ,,有限会社,愛知県,豊橋市,天伯町字三和９７番地,,23,201,4418122,,,2022-11-28,清算の結了等,,,2015-10-05,1,,,,,ニホンアソシエ,0
2266,9180302013731,登記記録の閉鎖等,0,2022-11-29,2022-11-14,西岡建設有限会社,,有限会社,愛知県,豊川市,国府町上坊入４５番地の５,,23,207,4420854,,,2022-11-14,清算の結了等,,,2015-10-05,1,,,,,ニシオカケンセツ,0
2273,9210001010506,登記記録の閉鎖等,0,2022-11-29,2022-11-18,株式会社河瀬,,株式会社,福井県,敦賀市,相生町２１番１７号,,18,202,9140062,,,2022-11-18,清算の結了等,,,2015-10-05,1,,,,,カワセ,0
2276,9230002003812,登記記録の閉鎖等,0,2022-11-29,2022-11-28,有限会社ユービックジャパーン,,有限会社,富山県,富山市,新川原町４番１４号,,16,201,9300024,,,2022-11-28,清算の結了等,,,2015-10-05,1,,,,,ユービックジャパーン,0
2289,9290001028012,登記記録の閉鎖等,0,2022-11-29,2022-11-25,株式会社ＶａｌｕｅＳｕｍ,,株式会社,福岡県,那珂川市,中原２丁目１３２番地真和ビル３０１号,,40,231,8111213,,,2022-11-25,清算の結了等,,,2015-10-05,1,,,,,,0
2300,9290003004168,登記記録の閉鎖等,0,2022-11-29,2022-11-24,合同会社アルバトロス,,合同会社,福岡県,久留米市,善導寺町飯田４６０番地３,,40,203,8390824,,,2022-11-24,清算の結了等,,,2015-10-05,1,,,,,アルバトロス,0
2310,9330001011509,登記記録の閉鎖等,0,2022-11-29,2022-11-24,株式会社やましょう酒類販売,,株式会社,熊本県,玉名市,大倉７５２番地の１,,43,206,8650023,,,2022-11-24,清算の結了等,,,2015-10-05,1,,,,,ヤマショウサケルイハンバイ,0
2315,9330005007115,登記記録の閉鎖等,0,2022-11-29,2022-11-08,天理教東天草分教会,,その他の設立登記法人,熊本県,天草市,御所浦町御所浦３５６９番地の２,,43,215,8660313,,,2022-11-08,合併による解散等,3330005007211,令和４年１１月８日熊本県上天草市松島町阿村１１７２番地天理教阿村分教会（3330005007211）に合併し解散,2015-10-05,1,,,,,テンリキョウヒガシアマクサブンキョウカイ,0
2341,9460302001963,登記記録の閉鎖等,0,2022-11-29,2022-11-28,有限会社北斗産業,,有限会社,北海道,北見市,北進町７丁目５番２０号,,01,208,0900052,,,2022-11-28,清算の結了等,,,2015-10-05,1,,,,,ホクトサンギョウ,0
2344,9500002000807,登記記録の閉鎖等,0,2022-11-29,2022-11-28,有限会社新玉経営研究所,,有限会社,愛媛県,松山市,平和通５丁目２番地７,,38,201,7900807,,,2022-11-28,清算の結了等,,,2015-10-05,1,,,,,アラタマケイエイケンキュウショ,0
2346,9500005005150,登記記録の閉鎖等,0,2022-11-29,2022-11-15,天理教賀米岡分教会,,その他の設立登記法人,愛媛県,今治市,菊間町佐方３４８番地,,38,202,7992301,,,2022-11-15,合併による解散等,7500005005152,令和４年１１月１５日愛媛県今治市菊間町浜１０８３番地天理教菊間分教会（7500005005152）に合併し解散,2015-10-05,1,,,,,テンリキョウカメオカブンキョウカイ,0
