sequenceNumber,corporateNumber,process,correct,updateDate,changeDate,name,nameImageId,kind,prefectureName,cityName,streetNumber,addressImageId,prefectureCode,cityCode,postCode,addressOutside,addressOutsideImageId,closeDate,closeCause,successorCorporateNumber,changeCause,assignmentDate,latest,enName,enPrefectureName,enCityName,enAddressOutside,furigana,hihyoji
9,1010003032823,登記記録の閉鎖等,0,2024-12-27,2024-12-16,パシフィックビュー合同会社,,合同会社,東京都,中央区,銀座１丁目２２番１１号２階,,13,102,1040061,,,2024-12-16,清算の結了等,,,2020-08-27,1,,,,,パシフィックビュー,0
19,1010403020106,登記記録の閉鎖等,0,2024-12-27,2024-12-18,リボーン合同会社,,合同会社,福島県,福島市,宮代字植田前１８－１７,,07,201,9600116,,,2024-12-18,清算の結了等,,,2019-02-01,1,,,,,リボーン,0
32,1010901020961,登記記録の閉鎖等,0,2024-12-27,2024-12-12,株式会社ＳＯＵＰ,,株式会社,東京都,世田谷区,豪徳寺１丁目１４番１１号,,13,112,1540021,,,2024-12-12,清算の結了等,,,2015-10-05,1,,,,,,0
34,1011001038993,登記記録の閉鎖等,0,2024-12-27,2024-12-24,エイブルビジネスシステム株式会社,,株式会社,東京都,町田市,旭町３丁目１６番２０号,,13,209,1940023,,,2024-12-24,清算の結了等,,,2015-10-05,1,,,,,エイブルビジネスシステム,0
58,1011701002043,登記記録の閉鎖等,0,2024-12-27,2024-12-25,華興トレーディング株式会社,,株式会社,東京都,江戸川区,中葛西５丁目３２番５号,,13,123,1340083,,,2024-12-25,清算の結了等,,,2015-10-05,1,,,,,カコウトレーディング,0
61,1011702011448,登記記録の閉鎖等,0,2024-12-27,2024-12-24,有限会社むさし野設備,,有限会社,東京都,江戸川区,東葛西２丁目３番１８号,,13,123,1340084,,,2024-12-24,清算の結了等,,,2015-10-05,1,,,,,ムサシノセツビ,0
72,1020001118813,登記記録の閉鎖等,0,2024-12-27,2024-12-19,株式会社飯島設備,,株式会社,神奈川県,横浜市港北区,綱島西２丁目１番７号,,14,109,2230053,,,2024-12-19,清算の結了等,,,2016-12-02,1,,,,,イイジマセツビ,0
109,1050002001742,登記記録の閉鎖等,0,2024-12-27,2024-12-23,有限会社ジャルダン,,有限会社,茨城県,水戸市,谷津町字細田１番地２８,,08,201,3114164,,,2024-12-23,清算の結了等,,,2015-10-05,1,,,,,ジャルダン,0
116,1060002026342,登記記録の閉鎖等,0,2024-12-27,2024-12-23,有限会社菊池塗装工業,,有限会社,栃木県,大田原市,両郷１５１７番地,,09,210,3240201,,,2024-12-23,清算の結了等,,,2015-10-05,1,,,,,キクチトソウコウギョウ,0
135,1110001017808,登記記録の閉鎖等,0,2024-12-27,2024-12-24,ユーテック株式会社,,株式会社,新潟県,柏崎市,藤元町１５番４号,,15,205,9450026,,,2024-12-24,清算の結了等,,,2015-10-05,1,,,,,ユーテック,0
138,1110002010472,登記記録の閉鎖等,0,2024-12-27,2024-12-24,有限会社メディスン・アイティー,,有限会社,新潟県,新潟市南区,月潟５５番地１,,15,106,9501304,,,2024-12-24,清算の結了等,,,2015-10-05,1,,,,,メディスンアイティー,0
165,1130002005339,登記記録の閉鎖等,0,2024-12-27,2024-12-25,有限会社サロン・ド・ルールド,,有限会社,京都府,京都市左京区,下鴨本町３番地２,,26,103,6060862,,,2024-12-25,清算の結了等,,,2015-10-05,1,,,,,サロンドルールド,0
166,1130002034379,登記記録の閉鎖等,0,2024-12-27,2024-12-25,株式会社フジタ土木,,株式会社,京都府,舞鶴市,字七日市１１番地,,26,202,6240822,,,2024-12-25,清算の結了等,,,2015-10-05,1,,,,,フジタドボク,0
176,1150005000450,登記記録の閉鎖等,0,2024-12-27,2024-12-24,明倫教本廳,,その他の設立登記法人,奈良県,奈良市,菅原町７０９番地の１,,29,201,6310842,,,2024-12-24,清算の結了等,,,2015-10-05,1,,,,,メイリンキョウホンチョウ,0
183,1180001060875,登記記録の閉鎖等,0,2024-12-27,2024-12-23,菊ビル株式会社,,株式会社,愛知県,名古屋市中区,丸の内２丁目１２番８号,,23,106,4600002,,,2024-12-23,清算の結了等,,,2015-10-05,1,,,,,キクビル,0
194,1200001018912,登記記録の閉鎖等,0,2024-12-27,2024-12-25,株式会社朝日工務店,,株式会社,岐阜県,関市,下有知２９５番地の１,,21,205,5013217,,,2024-12-25,清算の結了等,,,2015-10-05,1,,,,,アサヒコウムテン,0
198,1200002004201,登記記録の閉鎖等,0,2024-12-27,2024-12-25,有限会社北西部開発,,有限会社,岐阜県,岐阜市,折立３１５番地２,,21,201,5011132,,,2024-12-25,清算の結了等,,,2015-10-05,1,,,,,ホクセイブカイハツ,0
199,1200002013193,登記記録の閉鎖等,0,2024-12-27,2024-12-25,有限会社丸一電機,,有限会社,岐阜県,大垣市,島里１丁目９番地の５,,21,202,5030935,,,2024-12-25,清算の結了等,,,2015-10-05,1,,,,,マルイチデンキ,0
208,1240001059119,登記記録の閉鎖等,0,2024-12-27,2024-12-25,株式会社ロゼ,,株式会社,広島県,広島市安佐南区,古市２丁目１７－３－１０１,,34,105,7310123,,,2024-12-25,清算の結了等,,,2022-01-07,1,,,,,ロゼ,0
214,1250001000171,登記記録の閉鎖等,0,2024-12-27,2024-12-13,協和医療開発株式会社,,株式会社,東京都,千代田区,大手町１丁目９番２号,,13,101,1000004,,,2024-12-13,清算の結了等,,,2015-10-05,1,,,,,キョウワイリョウカイハツ,0
221,1290001068288,登記記録の閉鎖等,0,2024-12-27,2024-12-09,恵比寿ｄｏ株式会社,,株式会社,福岡県,福岡市東区,馬出２丁目１９番５－２０２号,,40,131,8120054,,,2024-12-09,清算の結了等,,,2015-10-05,1,,,,,エビスドウ,0
234,1300003001939,登記記録の閉鎖等,0,2024-12-27,2024-12-10,合同会社アルバ,,合同会社,東京都,港区,虎ノ門３丁目１８番６号６１４号室,,13,103,1050001,,,2024-12-10,清算の結了等,,,2023-02-16,1,,,,,アルバ,0
242,1320002003257,登記記録の閉鎖等,0,2024-12-27,2024-12-26,有限会社椎原工業,,有限会社,大分県,大分市,大字日吉原１番地の３１,,44,201,8700301,,,2024-12-26,清算の結了等,,,2015-10-05,1,,,,,シイハラコウギョウ,0
247,1370001031287,登記記録の閉鎖等,0,2024-12-27,2024-12-19,株式会社東進管工,,株式会社,宮城県,仙台市青葉区,南吉成６丁目２番地の５,,04,101,9893204,,,2024-12-19,清算の結了等,,,2015-10-05,1,,,,,,0
257,1380002032977,登記記録の閉鎖等,0,2024-12-27,2024-12-18,有限会社舟木電気工事,,有限会社,福島県,会津若松市,町北町大字上荒久田字鈴木８６番地５,,07,202,9650053,,,2024-12-18,清算の結了等,,,2015-10-05,1,,,,,フナキデンキコウジ,0
262,1400001014536,登記記録の閉鎖等,0,2024-12-27,2024-12-20,株式会社誠建,,株式会社,岩手県,大船渡市,猪川町字冨岡１００番地１,,03,203,0220004,,,2024-12-20,清算の結了等,,,2019-03-18,1,,,,,セイケン,0
274,1460001005769,登記記録の閉鎖等,0,2024-12-27,2024-12-26,株式会社鶴居バイオガスエナジー,,株式会社,北海道,阿寒郡鶴居村,字雪裡原野５５０番地３２,,01,667,0851200,,,2024-12-26,清算の結了等,,,2023-02-16,1,,,,,ツルイバイオガスエナジー,0
304,2010401028546,登記記録の閉鎖等,0,2024-12-27,2024-12-10,株式会社三河家,,株式会社,東京都,港区,赤坂３丁目１３番４号,,13,103,1070052,,,2024-12-10,清算の結了等,,,2015-10-05,1,,,,,ミカワヤ,0
305,2010401086528,登記記録の閉鎖等,0,2024-12-27,2024-12-11,東大インタラクトＰＦＩ株式会社,,株式会社,東京都,港区,東新橋１丁目９番１号,,13,103,1050021,,,2024-12-11,清算の結了等,,,2015-10-05,1,,,,,トウダイインタラクトピーエフアイ,0
334,2011201004803,登記記録の閉鎖等,0,2024-12-27,2024-12-25,株式会社プチドール乙女屋,,株式会社,東京都,中野区,中野５丁目４５番１号,,13,114,1640001,,,2024-12-25,清算の結了等,,,2015-10-05,1,,,,,プチドールオトメヤ,0
347,2012402016208,登記記録の閉鎖等,0,2024-12-27,2024-12-24,有限会社一俊舎,,有限会社,東京都,武蔵野市,吉祥寺南町２丁目１９番３号,,13,203,1800003,,,2024-12-24,清算の結了等,,,2015-10-05,1,,,,,イッシュンシャ,0
353,2020001015828,登記記録の閉鎖等,0,2024-12-27,2024-12-26,ビジネット株式会社,,株式会社,神奈川県,鎌倉市,玉縄５丁目３１番地１０,,14,204,2470071,,,2024-12-26,清算の結了等,,,2015-10-05,1,,,,,ビジネット,0
359,2020002056631,登記記録の閉鎖等,0,2024-12-27,2024-12-16,有限会社エコロジー・プロ,,有限会社,神奈川県,横浜市青葉区,市ケ尾町１１５４番地２市ケ尾プラザビル４１２号,,14,117,2250024,,,2024-12-16,清算の結了等,,,2015-10-05,1,,,,,エコロジープロ,0
360,2020002088749,登記記録の閉鎖等,0,2024-12-27,2024-12-16,有限会社ケイ・カンパニー,,有限会社,神奈川県,川崎市高津区,溝口１丁目１２番１５号,,14,134,2130001,,,2024-12-16,清算の結了等,,,2015-10-05,1,,,,,ケイカンパニー,0
373,2021002028496,登記記録の閉鎖等,0,2024-12-27,2024-12-26,Ｐ＆Ｐシステム有限会社,,有限会社,神奈川県,相模原市南区,相南３丁目２６番１５号,,14,153,2520312,,,2024-12-26,清算の結了等,,,2015-10-05,1,,,,,ピーアンドピーシステム,0
429,2130001041177,登記記録の閉鎖等,0,2024-12-27,2024-12-23,株式会社土田土木,,株式会社,京都府,福知山市,字天田小字犬丸２０４番地３,,26,201,6200000,,,2024-12-23,合併による解散等,7130001041404,令和６年１２月１５日京都府福知山市字鋳物師３１番地２協同株式会社（7130001041404）に合併し解散,2015-10-05,1,,,,,ツチダドボク,0
440,2140002029559,登記記録の閉鎖等,0,2024-12-27,2024-12-23,有限会社ファクシー,,有限会社,兵庫県,明石市,上ノ丸３丁目１２番２１号,,28,203,6730846,,,2024-12-23,清算の結了等,,,2015-10-05,1,,,,,ファクシー,0
442,2140002041571,登記記録の閉鎖等,0,2024-12-27,2024-12-17,高千穂産業有限会社,,有限会社,兵庫県,尼崎市,食満１丁目６番３－２０１号,,28,202,6610982,,,2024-12-17,清算の結了等,,,2015-10-05,1,,,,,タカチホサンギョウ,0
460,2180002065773,登記記録の閉鎖等,0,2024-12-27,2024-12-20,有限会社キャピタル,,有限会社,愛知県,春日井市,春日井町字七ツ割６８番地の３,,23,206,4860963,,,2024-12-20,清算の結了等,,,2015-10-05,1,,,,,キャピタル,0
462,2180301022112,登記記録の閉鎖等,0,2024-12-27,2024-12-25,ワイエスライン株式会社,,株式会社,愛知県,豊橋市,藤並町字相生２番地１,,23,201,4418114,,,2024-12-25,清算の結了等,,,2015-10-05,1,,,,,ワイエスライン,0
472,2220002015872,登記記録の閉鎖等,0,2024-12-27,2024-12-25,有限会社大背戸商事,,有限会社,石川県,鳳珠郡能登町,字鵜川１９字１４、１５番地,,17,463,9270302,,,2024-12-25,清算の結了等,,,2015-10-05,1,,,,,オオセトショウジ,0
474,2230001010650,登記記録の閉鎖等,0,2024-12-27,2024-12-25,日通高岡運輸株式会社,,株式会社,富山県,高岡市,四屋８３０番地の１,,16,202,9330949,,,2024-12-25,清算の結了等,,,2015-10-05,1,,,,,ニッツウタカオカウンユ,0
483,2290001031055,登記記録の閉鎖等,0,2024-12-27,2024-12-09,株式会社ボディコープ,,株式会社,福岡県,福岡市中央区,天神２丁目３番３６号,,40,133,8100001,,,2024-12-09,清算の結了等,,,2015-10-05,1,,,,,ボディコープ,0
491,2290002008440,登記記録の閉鎖等,0,2024-12-27,2024-12-11,田中設計事務所有限会社,,有限会社,福岡県,福岡市早良区,高取１丁目１番５３号,,40,137,8140011,,,2024-12-11,清算の結了等,,,2015-10-05,1,,,,,タナカセッケイジムショ,0
493,2290003010494,登記記録の閉鎖等,0,2024-12-27,2024-12-13,合同会社アライブ,,合同会社,福岡県,糟屋郡宇美町,障子岳南２丁目２３番２号,,40,341,8112126,,,2024-12-13,清算の結了等,,,2020-10-13,1,,,,,アライブ,0
505,2320001000378,登記記録の閉鎖等,0,2024-12-27,2024-12-25,アートハウス株式会社,,株式会社,大分県,大分市,原新町１８番１７号,,44,201,8700912,,,2024-12-25,清算の結了等,,,2015-10-05,1,,,,,,0
520,2380001016567,登記記録の閉鎖等,0,2024-12-27,2024-12-17,株式会社双北造園,,株式会社,福島県,双葉郡浪江町,大字室原字八龍内３７番地,,07,547,9791506,,,2024-12-17,清算の結了等,,,2015-10-05,1,,,,,ソウホクゾウエン,0
540,2460305001298,登記記録の閉鎖等,0,2024-12-27,2024-12-26,特定非営利活動法人ソウルメイト,,その他の設立登記法人,北海道,北見市,桜町６丁目４２番５号,,01,208,0900804,,,2024-12-26,清算の結了等,,,2015-10-05,1,,,,,ソウルメイト,0
549,3010001142143,登記記録の閉鎖等,0,2024-12-27,2024-12-16,株式会社オアシス,,株式会社,東京都,神津島村,２３３番地６,,13,364,1000601,,,2024-12-16,清算の結了等,,,2015-10-05,1,,,,,オアシス,0
588,3011405000069,登記記録の閉鎖等,0,2024-12-27,2024-12-20,医療法人社団成和会,,その他の設立登記法人,東京都,板橋区,成増１丁目１番１号,,13,119,1750094,,,2024-12-20,清算の結了等,,,2015-10-05,1,,,,,セイワカイ,0
592,3011602006216,登記記録の閉鎖等,0,2024-12-27,2024-12-19,有限会社ダイヤフィルトレイション,,有限会社,東京都,練馬区,上石神井４丁目２９番８号,,13,120,1770044,,,2024-12-19,清算の結了等,,,2015-10-05,1,,,,,ダイヤフィルトレイション,0
608,3020001148825,登記記録の閉鎖等,0,2024-12-27,2024-12-12,株式会社磯貝,,株式会社,神奈川県,横浜市西区,高島２丁目１１番２号スカイメナー横浜５１９,,14,103,2200011,,,2024-12-12,清算の結了等,,,2022-11-09,1,,,,,イソガイ,0
634,3040003025814,登記記録の閉鎖等,0,2024-12-27,2024-12-23,合同会社りあん,,合同会社,千葉県,千葉市中央区,星久喜町１１９１番地２８,,12,101,2600808,,,2024-12-23,清算の結了等,,,2024-09-18,1,,,,,リアン,0
645,3080402010231,登記記録の閉鎖等,0,2024-12-27,2024-12-24,有限会社ナッツ,,有限会社,静岡県,浜松市中央区,芳川町３０３番地,,22,138,4300813,,,2024-12-24,清算の結了等,,,2015-10-05,1,,,,,ナッツ,0
648,3100001016189,登記記録の閉鎖等,0,2024-12-27,2024-12-25,株式会社冷設工業,,株式会社,長野県,松本市,大字里山辺３６７５番地８,,20,202,3900221,,,2024-12-25,清算の結了等,,,2015-10-05,1,,,,,レイセツコウギョウ,0
670,3120102003290,登記記録の閉鎖等,0,2024-12-27,2024-12-25,敏建設有限会社,,有限会社,大阪府,堺市堺区,住吉橋町１丁７番１３号朝日プラザ堺６００５号,,27,141,5900973,,,2024-12-25,清算の結了等,,,2015-10-05,1,,,,,,0
673,3122002009541,登記記録の閉鎖等,0,2024-12-27,2024-12-25,有限会社エースプラスチック,,有限会社,大阪府,東大阪市,高井田西３丁目２番１８号,,27,227,5770067,,,2024-12-25,合併による解散等,6120001023073,令和６年１２月２１日大阪市東成区中道一丁目１０番１７号共栄プラスチツク株式会社（6120001023073）に合併し解散,2015-10-05,1,,,,,エースプラスチック,0
674,3122002016884,登記記録の閉鎖等,0,2024-12-27,2024-12-17,Ｋｉｎｔ有限会社,,有限会社,大阪府,八尾市,南太子堂３丁目１番２号,,27,212,5810056,,,2024-12-17,清算の結了等,,,2015-10-05,1,,,,,ケーイント,0
675,3130001007004,登記記録の閉鎖等,0,2024-12-27,2024-12-25,株式会社西村兄弟印刷所,,株式会社,京都府,京都市左京区,新柳馬場通仁王門下る菊鉾町３２１番地,,26,103,6068364,,,2024-12-25,清算の結了等,,,2015-10-05,1,,,,,ニシムラキョウダイインサツショ,0
700,3160001009955,登記記録の閉鎖等,0,2024-12-27,2024-12-25,株式会社昭和堂,,株式会社,滋賀県,東近江市,八日市本町１４番２６号,,25,213,5270012,,,2024-12-25,清算の結了等,,,2015-10-05,1,,,,,ショウワドウ,0
716,3180303001971,登記記録の閉鎖等,0,2024-12-27,2024-12-19,合資会社寿美屋,,合資会社,愛知県,安城市,御幸本町８番１０号,,23,212,4460032,,,2024-12-19,清算の結了等,,,2015-10-05,1,,,,,スミヤ,0
762,3340002004318,登記記録の閉鎖等,0,2024-12-27,2024-12-24,有限会社山装,,有限会社,鹿児島県,鹿児島市,錦江町１０番３０号,,46,201,8920836,,,2024-12-24,清算の結了等,,,2015-10-05,1,,,,,ヤマソウ,0
769,3370003002425,登記記録の閉鎖等,0,2024-12-27,2024-12-19,合同会社メイクプロ,,合同会社,宮城県,仙台市青葉区,中山６丁目９番１５号,,04,101,9810952,,,2024-12-19,清算の結了等,,,2015-10-05,1,,,,,メイクプロ,0
775,3400001004997,登記記録の閉鎖等,0,2024-12-27,2024-12-20,株式会社春の隣,,株式会社,岩手県,盛岡市,上堂４丁目１１番８号,,03,201,0200125,,,2024-12-20,清算の結了等,,,2015-10-05,1,,,,,ハルノトナリ,0
778,3400002013080,登記記録の閉鎖等,0,2024-12-27,2024-12-17,有限会社ライフフィールド・ゼロ,,有限会社,岩手県,久慈市,長内町第３０地割７３番地６,,03,207,0280041,,,2024-12-17,清算の結了等,,,2015-10-05,1,,,,,ライフフィールドゼロ,0
781,3430001059329,登記記録の閉鎖等,0,2024-12-27,2024-12-26,株式会社札幌リハステーション輝,,株式会社,北海道,札幌市豊平区,美園一条６丁目３番１２号フルール美園１Ｆ,,01,105,0620001,,,2024-12-26,清算の結了等,,,2015-10-05,1,,,,,サッポロリハステーションカガヤキ,0
786,3460101001311,登記記録の閉鎖等,0,2024-12-27,2024-12-25,日通帯広運輸株式会社,,株式会社,北海道,帯広市,西二十条南１丁目１番地１０,,01,207,0802470,,,2024-12-25,清算の結了等,,,2015-10-05,1,,,,,ニッツウオビヒロウンユ,0
788,3470001008455,登記記録の閉鎖等,0,2024-12-27,2024-12-26,株式会社讃岐げんき家,,株式会社,香川県,善通寺市,金蔵寺町１７５５番地１,,37,204,7650031,,,2024-12-26,清算の結了等,,,2015-10-05,1,,,,,サヌキゲンキヤ,0
801,4010001156167,登記記録の閉鎖等,0,2024-12-27,2024-12-13,ＬＳサポート株式会社,,株式会社,東京都,千代田区,神田練塀町５５番地１６０６号,,13,101,1010022,,,2024-12-13,清算の結了等,,,2015-10-05,1,,,,,,0
807,4010002022921,登記記録の閉鎖等,0,2024-12-27,2024-12-23,有限会社富山商会,,有限会社,千葉県,市川市,北方町４丁目２３３７番地４,,12,203,2720811,,,2024-12-23,清算の結了等,,,2015-10-05,1,,,,,トヤマショウカイ,0
871,4040003016267,登記記録の閉鎖等,0,2024-12-27,2024-12-23,合同会社ソーラープランナー,,合同会社,千葉県,市原市,五井東３丁目６番地１３,,12,219,2900055,,,2024-12-23,清算の結了等,,,2020-10-16,1,,,,,ソーラープランナー,0
880,4080001013246,登記記録の閉鎖等,0,2024-12-27,2024-12-24,株式会社平松鋼業,,株式会社,静岡県,島田市,野田１１１５番地の５,,22,209,4270007,,,2024-12-24,清算の結了等,,,2015-10-05,1,,,,,ヒラマツコウギョウ,0
882,4080102001760,登記記録の閉鎖等,0,2024-12-27,2024-12-25,有限会社シンワ工業,,有限会社,静岡県,沼津市,本郷町２番１０号,,22,203,4100817,,,2024-12-25,清算の結了等,,,2015-10-05,1,,,,,シンワコウギョウ,0
919,4130001034906,登記記録の閉鎖等,0,2024-12-27,2024-12-23,田中建設株式会社,,株式会社,京都府,南丹市,園部町木崎土手下１０番地,,26,213,6220000,,,2024-12-23,合併による解散等,7130001041404,令和６年１２月１５日京都府福知山市字鋳物師３１番地２協同株式会社（7130001041404）に合併し解散,2015-10-05,1,,,,,タナカケンセツ,0
951,4180001075458,登記記録の閉鎖等,0,2024-12-27,2024-12-20,株式会社足立電子システム,,株式会社,愛知県,小牧市,藤島町居屋敷２２７番地,,23,219,4850067,,,2024-12-20,清算の結了等,,,2015-10-05,1,,,,,アダチデンシシステム,0
952,4180001087916,登記記録の閉鎖等,0,2024-12-27,2024-12-20,株式会社トップ,,株式会社,愛知県,岩倉市,大地町深田２０番地,,23,228,4820026,,,2024-12-20,合併による解散等,7180001087756,令和６年１２月２０日愛知県岩倉市大地町深田２０番地愛北鋼業株式会社（7180001087756）に合併し解散,2015-10-05,1,,,,,トップ,0
957,4180002020636,登記記録の閉鎖等,0,2024-12-27,2024-12-23,有限会社ＮｉｆｅＨｏｍｅ,,有限会社,愛知県,北名古屋市,西春駅前１丁目２６番地,,23,234,4810040,,,2024-12-23,清算の結了等,,,2015-10-05,1,,,,,ニフェホーム,0
959,4180002086818,登記記録の閉鎖等,0,2024-12-27,2024-12-23,有限会社敬愛,,有限会社,愛知県,大府市,東新町３丁目１番地の１,,23,223,4740073,,,2024-12-23,清算の結了等,,,2015-10-05,1,,,,,ケイアイ,0
972,4250002015785,登記記録の閉鎖等,0,2024-12-27,2024-12-25,有限会社竹村新聞舗,,有限会社,山口県,下松市,東柳１丁目１番８号,,35,207,7440017,,,2024-12-25,清算の結了等,,,2015-10-05,1,,,,,タケムラシンブンポ,0
975,4260003001627,登記記録の閉鎖等,0,2024-12-27,2024-12-23,合同会社クリア・エージェント,,合同会社,岡山県,岡山市北区,蕃山町４番５号,,33,101,7000818,,,2024-12-23,清算の結了等,,,2015-10-05,1,,,,,クリアエージェント,0
1013,4400002012016,登記記録の閉鎖等,0,2024-12-27,2024-12-18,有限会社丸正ベニヤ,,有限会社,岩手県,上閉伊郡大槌町,大町４番１８号,,03,461,0281112,,,2024-12-18,清算の結了等,,,2015-10-05,1,,,,,マルショウベニヤ,0
1018,4420005004958,登記記録の閉鎖等,0,2024-12-27,2024-12-24,医療法人聖英会,,その他の設立登記法人,青森県,黒石市,大字前町４９番地,,02,204,0360367,,,2024-12-24,清算の結了等,,,2015-10-05,1,,,,,セイエイカイ,0
1023,4430003007202,登記記録の閉鎖等,0,2024-12-27,2024-12-26,合同会社ピッカーニャ,,合同会社,北海道,札幌市中央区,南七条西５丁目１－１１,,01,101,0640807,,,2024-12-26,清算の結了等,,,2015-11-30,1,,,,,ピッカーニャ,0
1034,4500002011742,登記記録の閉鎖等,0,2024-12-27,2024-12-23,有限会社大平産業,,有限会社,愛媛県,大洲市,平野町野田３４０２番地１,,38,207,7950021,,,2024-12-23,清算の結了等,,,2015-10-05,1,,,,,オオヒラサンギョウ,0
1042,5010001101634,登記記録の閉鎖等,0,2024-12-27,2024-12-16,株式会社はま美,,株式会社,東京都,中央区,日本橋浜町３丁目２６－８宮東ビル,,13,102,1030007,,,2024-12-16,清算の結了等,,,2015-10-05,1,,,,,ハマミ,0
1062,5010401074141,登記記録の閉鎖等,0,2024-12-27,2024-12-06,ハウスプラス住宅保証株式会社,,株式会社,東京都,港区,海岸１丁目１１番１号,,13,103,1050022,,,2024-12-06,合併による解散等,1010401039503,令和６年１２月１日東京都港区海岸一丁目１１番１号ハウスプラス住宅保証株式会社（1010401039503）に合併し解散,2015-10-05,1,,,,,ハウスプラスジュウタクホショウ,0
1084,5010901031567,登記記録の閉鎖等,0,2024-12-27,2024-12-23,株式会社ハビタトラベル,,株式会社,東京都,世田谷区,池尻３丁目２８番１９号,,13,112,1540001,,,2024-12-23,清算の結了等,,,2015-10-05,1,,,,,,0
1132,5020001060581,登記記録の閉鎖等,0,2024-12-27,2024-12-19,侯信産業株式会社,,株式会社,神奈川県,横浜市鶴見区,矢向１丁目２０番６２－６０３号,,14,101,2300001,,,2024-12-19,清算の結了等,,,2015-10-05,1,,,,,コウシンサンギョウ,0
1134,5020002058261,登記記録の閉鎖等,0,2024-12-27,2024-12-16,有限会社スリーアロー,,有限会社,神奈川県,横浜市港北区,日吉本町１丁目２０番１６号,,14,109,2230062,,,2024-12-16,清算の結了等,,,2015-10-05,1,,,,,スリーアロー,0
1135,5021001010725,登記記録の閉鎖等,0,2024-12-27,2024-12-19,株式会社風雅舎,,株式会社,神奈川県,横浜市西区,高島２丁目３番２２号,,14,103,2200011,,,2024-12-19,清算の結了等,,,2015-10-05,1,,,,,フウガシャ,0
1137,5021001057485,登記記録の閉鎖等,0,2024-12-27,2024-12-25,株式会社星の家住宅管理,,株式会社,神奈川県,相模原市南区,大野台４丁目２２番２１号,,14,153,2520331,,,2024-12-25,合併による解散等,4021002027769,令和６年１２月２５日神奈川県相模原市中央区中央一丁目１４番１０号株式会社スターハウジング（4021002027769）に合併し解散,2015-10-05,1,,,,,ホシノイエジュウタクカンリ,0
1138,5021001070711,登記記録の閉鎖等,0,2024-12-27,2024-12-26,コムフィット株式会社,,株式会社,神奈川県,藤沢市,遠藤４４８９番地の１０５,,14,205,2520816,,,2024-12-26,清算の結了等,,,2020-08-27,1,,,,,コムフィット,0
1163,5040002075370,登記記録の閉鎖等,0,2024-12-27,2024-12-23,有限会社村上重機,,有限会社,千葉県,市原市,中３７５番地４５,,12,219,2900226,,,2024-12-23,清算の結了等,,,2015-10-05,1,,,,,ムラカミジュウキ,0
1165,5050001034830,登記記録の閉鎖等,0,2024-12-27,2024-12-23,株式会社戎,,株式会社,茨城県,土浦市,中村南６丁目５番３０号サニータウン中村南Ａ－１０２,,08,203,3000843,,,2024-12-23,清算の結了等,,,2015-10-05,1,,,,,エビス,0
1171,5070003000985,登記記録の閉鎖等,0,2024-12-27,2024-12-16,株式会社ジャックソフト,,株式会社,東京都,中央区,日本橋室町１丁目１１番１２号日本橋水野ビル７階,,13,102,1030022,,,2024-12-16,清算の結了等,,,2015-10-05,1,,,,,ジャックソフト,0
1176,5100002018166,登記記録の閉鎖等,0,2024-12-27,2024-12-25,有限会社日本アルプス国際観光,,有限会社,長野県,中野市,大字草間１１５１番地,,20,211,3830053,,,2024-12-25,清算の結了等,,,2015-10-05,1,,,,,ニホンアルプスコクサイカンコウ,0
1189,5120001215910,登記記録の閉鎖等,0,2024-12-27,2024-12-26,プリマビジネス株式会社,,株式会社,大阪府,大阪市福島区,鷺洲５丁目１２番１－２０１号,,27,103,5530002,,,2024-12-26,清算の結了等,,,2018-09-13,1,,,,,プリマビジネス,0
1198,5120101045968,登記記録の閉鎖等,0,2024-12-27,2024-12-25,株式会社土居人材派遣事務所,,株式会社,大阪府,泉南郡岬町,深日３２７６番地の３２,,27,366,5990303,,,2024-12-25,清算の結了等,,,2015-10-05,1,,,,,ドイジンザイハケンジムショ,0
1207,5140002035570,登記記録の閉鎖等,0,2024-12-27,2024-12-24,有限会社木村建設,,有限会社,兵庫県,加古川市,加古川町南備後１６８番地の１,,28,210,6750033,,,2024-12-24,清算の結了等,,,2015-10-05,1,,,,,,0
1212,5150005000538,登記記録の閉鎖等,0,2024-12-27,2024-12-26,医療法人愛生会（社団）,,その他の設立登記法人,奈良県,奈良市,赤膚町１０３２番地,,29,201,6308035,,,2024-12-26,清算の結了等,,,2015-10-05,1,,,,,アイセイカイ,0
1215,5180001066943,登記記録の閉鎖等,0,2024-12-27,2024-12-23,株式会社東郷ケーブル,,株式会社,愛知県,みよし市,莇生町原２３番地３,,23,236,4700206,,,2024-12-23,清算の結了等,,,2015-10-05,1,,,,,トウゴウケーブル,0
1221,5180002063741,登記記録の閉鎖等,0,2024-12-27,2024-12-20,有限会社いろり,,有限会社,愛知県,長久手市,蟹原８１２番地,,23,238,4801142,,,2024-12-20,清算の結了等,,,2015-10-05,1,,,,,イロリ,0
1236,5240002018961,登記記録の閉鎖等,0,2024-12-27,2024-12-24,有限会社フロッグエンタープライス,,有限会社,広島県,広島市中区,千田町１丁目１５番４－１２０６号,,34,101,7300052,,,2024-12-24,清算の結了等,,,2015-10-05,1,,,,,フロッグエンタープライス,0
1240,5250002019249,登記記録の閉鎖等,0,2024-12-27,2024-12-25,有限会社アイマーク,,有限会社,山口県,岩国市,尾津町２丁目１４番５９号,,35,208,7400032,,,2024-12-25,清算の結了等,,,2015-10-05,1,,,,,アイマーク,0
1269,5340001013887,登記記録の閉鎖等,0,2024-12-27,2024-12-23,株式会社栗脇工業,,株式会社,鹿児島県,鹿屋市,野里町１９２２番地,,46,203,8930055,,,2024-12-23,清算の結了等,,,2015-10-05,1,,,,,クリワキコウギョウ,0
1276,5360001026904,登記記録の閉鎖等,0,2024-12-27,2024-12-23,ＧＯＯＤ　ＦＯＲ　ＹＯＵ株式会社,,株式会社,福岡県,福岡市南区,花畑３丁目３９番２６号,,40,134,8111356,,,2024-12-23,清算の結了等,,,2020-03-06,1,,,,,グッドフォーユー,0
1288,5380002026538,登記記録の閉鎖等,0,2024-12-27,2024-12-24,有限会社ヤマショウ企画,,有限会社,福島県,いわき市,鹿島町久保１丁目１１番地６,,07,204,9718144,,,2024-12-24,合併による解散等,2380001012871,令和６年１２月１日福島県いわき市鹿島町久保一丁目１１番地６小松電工株式会社（2380001012871）に合併し解散,2015-10-05,1,,,,,ヤマショウキカク,0
1290,5380003005061,登記記録の閉鎖等,0,2024-12-27,2024-12-11,合同会社Ａｗａｋｅ,,合同会社,福島県,会津若松市,慶山１丁目７－７８,,07,202,9650812,,,2024-12-11,清算の結了等,,,2021-11-26,1,,,,,アウェイク,0
1296,5410002009175,登記記録の閉鎖等,0,2024-12-27,2024-12-23,有限会社サービステクノ．ナラ,,有限会社,秋田県,大館市,岩瀬字玉石９番地,,05,204,0183501,,,2024-12-23,清算の結了等,,,2015-10-05,1,,,,,サービステクノナラ,0
1297,5420001010570,登記記録の閉鎖等,0,2024-12-27,2024-12-25,株式会社八代,,株式会社,青森県,弘前市,大字南富田町８番地７,,02,202,0368172,,,2024-12-25,清算の結了等,,,2015-10-05,1,,,,,ヤシロ,0
1307,5430005012653,登記記録の閉鎖等,0,2024-12-27,2024-12-26,一般社団法人あすかの会,,その他の設立登記法人,北海道,札幌市中央区,南一条西１０丁目４番地１６３スペチアーレプリーモ１Ｆ,,01,101,0600061,,,2024-12-26,清算の結了等,,,2015-11-19,1,,,,,アスカノカイ,0
1311,5470001000071,登記記録の閉鎖等,0,2024-12-27,2024-12-25,株式会社石の店クリエーション,,株式会社,香川県,高松市,牟礼町牟礼２８９９番地３,,37,201,7610121,,,2024-12-25,清算の結了等,,,2015-10-05,1,,,,,イシノミセクリエーション,0
1317,5480001008865,登記記録の閉鎖等,0,2024-12-27,2024-12-24,株式会社ジラソーレ,,株式会社,徳島県,徳島市,末広２丁目１－８３,,36,201,7700866,,,2024-12-24,清算の結了等,,,2015-10-05,1,,,,,ジラソーレ,0
1334,6010001138048,登記記録の閉鎖等,0,2024-12-27,2024-12-16,株式会社アーバンクエスト,,株式会社,東京都,中央区,日本橋人形町３丁目５番８－４０１号,,13,102,1030013,,,2024-12-16,清算の結了等,,,2015-10-05,1,,,,,アーバンクエスト,0
1344,6010401086160,登記記録の閉鎖等,0,2024-12-27,2024-12-10,バークレイズ・ウェルス・サービシズ株式会社,,株式会社,東京都,港区,六本木６丁目１０番１号,,13,103,1060032,,,2024-12-10,清算の結了等,,,2015-10-05,1,,,,,バークレイズウェルスサービシズ,0
1349,6010402012108,登記記録の閉鎖等,0,2024-12-27,2024-12-06,マッケンラスターインターナショナル有限会社,,有限会社,東京都,港区,浜松町２丁目１１番２号,,13,103,1050013,,,2024-12-06,清算の結了等,,,2015-10-05,1,,,,,,0
1400,6021001079090,登記記録の閉鎖等,0,2024-12-27,2024-12-25,おざわ株式会社,,株式会社,神奈川県,小田原市,小八幡１丁目８番４０号,,14,206,2560815,,,2024-12-25,清算の結了等,,,2023-05-18,1,,,,,オザワ,0
1405,6021003011489,登記記録の閉鎖等,0,2024-12-27,2024-12-25,Ｔ‐ＢＲＩＤＧＥ合同会社,,合同会社,神奈川県,相模原市南区,相模大野６丁目２３－１５プラザシティ相模大野２０２,,14,153,2520303,,,2024-12-25,清算の結了等,,,2022-03-17,1,,,,,ティーブリッジ,0
1407,6021005009300,登記記録の閉鎖等,0,2024-12-27,2024-12-25,ランド測量登記土地家屋調査士法人,,その他の設立登記法人,神奈川県,藤沢市,大鋸１２２３番地２４,,14,205,2510002,,,2024-12-25,清算の結了等,,,2015-10-05,1,,,,,ランドソクリョウトウキ,0
1413,6030001158507,登記記録の閉鎖等,0,2024-12-27,2024-12-13,株式会社Ａｉｒｆｅｅｄ,,株式会社,埼玉県,久喜市,上内１３４１番地８,,11,232,3400211,,,2024-12-13,清算の結了等,,,2024-02-05,1,,,,,エアフィード,0
1417,6030002044680,登記記録の閉鎖等,0,2024-12-27,2024-12-25,有限会社草加軒,,有限会社,埼玉県,草加市,柳島町８４６番地,,11,221,3400033,,,2024-12-25,清算の結了等,,,2015-10-05,1,,,,,ソウカケン,0
1422,6040001092481,登記記録の閉鎖等,0,2024-12-27,2024-12-20,株式会社ユークス,,株式会社,千葉県,千葉市花見川区,幕張町５丁目４１７番地１７エステ・シティ海浜幕張５－８０４号,,12,102,2620032,,,2024-12-20,清算の結了等,,,2015-10-27,1,,,,,ユークス,0
1441,6080001018342,登記記録の閉鎖等,0,2024-12-27,2024-12-24,株式会社アンクル・ベアー,,株式会社,静岡県,静岡市清水区,江尻台町１２番１２号,,22,103,4240044,,,2024-12-24,清算の結了等,,,2015-10-05,1,,,,,アンクルベアー,0
1444,6080002001917,登記記録の閉鎖等,0,2024-12-27,2024-12-25,株式会社ケンビット,,株式会社,静岡県,静岡市駿河区,高松１丁目１４番１６号,,22,102,4228034,,,2024-12-25,合併による解散等,7080001010364,令和６年１２月２５日静岡市駿河区高松一丁目１４番１６号株式会社インターイメージ（7080001010364）に合併し解散,2015-10-05,1,,,,,ケンビット,0
1471,6120102006472,登記記録の閉鎖等,0,2024-12-27,2024-12-24,有限会社秀邦建設,,有限会社,大阪府,堺市南区,美木多上２３４１番地の１,,27,145,5900136,,,2024-12-24,清算の結了等,,,2015-10-05,1,,,,,シュウホウケンセツ,0
1474,6120901009650,登記記録の閉鎖等,0,2024-12-27,2024-12-23,株式会社竹内家具,,株式会社,大阪府,摂津市,東別府２丁目８番８号,,27,224,5660042,,,2024-12-23,清算の結了等,,,2015-10-05,1,,,,,タケウチカグ,0
1476,6122001025289,登記記録の閉鎖等,0,2024-12-27,2024-12-25,株式会社なごみ,,株式会社,大阪府,大阪市西区,本田３丁目２番１号,,27,106,5500022,,,2024-12-25,清算の結了等,,,2015-10-05,1,,,,,ナゴミ,0
1482,6140001054752,登記記録の閉鎖等,0,2024-12-27,2024-12-23,日本フードプラン株式会社,,株式会社,愛媛県,今治市,吉海町正味１９０番地１,,38,202,7942117,,,2024-12-23,清算の結了等,,,2015-10-05,1,,,,,ニホンフードプラン,0
1483,6140001105142,登記記録の閉鎖等,0,2024-12-27,2024-12-24,ミューズウエスト株式会社,,株式会社,兵庫県,神戸市中央区,加納町６丁目３－１アーバンライフ神戸三宮ザ・タワー１Ｆ,,28,110,6500001,,,2024-12-24,清算の結了等,,,2017-02-20,1,,,,,ミューズウエスト,0
1493,6170005001483,登記記録の閉鎖等,0,2024-12-27,2024-12-26,医療法人タナカ眼科,,その他の設立登記法人,和歌山県,和歌山市,福町３７番地,,30,201,6408043,,,2024-12-26,清算の結了等,,,2015-10-05,1,,,,,タナカガンカ,0
1496,6180001102045,登記記録の閉鎖等,0,2024-12-27,2024-12-20,株式会社ヒルサイド猫洞,,株式会社,愛知県,名古屋市千種区,猫洞通１丁目１０番地の２,,23,101,4640032,,,2024-12-20,清算の結了等,,,2015-10-05,1,,,,,ヒルサイドネコホラ,0
1504,6180002079167,登記記録の閉鎖等,0,2024-12-27,2024-12-23,株式会社ユートップ,,株式会社,愛知県,一宮市,大和町妙興寺字二反割３６番地の１,,23,203,4910922,,,2024-12-23,清算の結了等,,,2015-10-05,1,,,,,ユートップ,0
1509,6180301025053,登記記録の閉鎖等,0,2024-12-27,2024-12-19,株式会社Ｍｏｔｈｅｒ,,株式会社,愛知県,豊橋市,飯村町字西山７番地５７７,,23,201,4400833,,,2024-12-19,清算の結了等,,,2015-10-05,1,,,,,マザー,0
1513,6190002014214,登記記録の閉鎖等,0,2024-12-27,2024-12-24,有限会社南豊生花,,有限会社,三重県,松阪市,大垣内町６３番地,,24,204,5150114,,,2024-12-24,清算の結了等,,,2015-10-05,1,,,,,ナンポウセイカ,0
1514,6200001012786,登記記録の閉鎖等,0,2024-12-27,2024-12-24,株式会社中部ソイルベスト,,株式会社,岐阜県,各務原市,鵜沼東町５丁目１８５番地,,21,213,5090126,,,2024-12-24,清算の結了等,,,2015-10-05,1,,,,,チュウブソイルベスト,0
1521,6220002006983,登記記録の閉鎖等,0,2024-12-27,2024-12-25,有限会社平木クリーニング店,,有限会社,石川県,金沢市,福久東１丁目８６番地,,17,201,9203123,,,2024-12-25,清算の結了等,,,2015-10-05,1,,,,,ヒラギクリーニングテン,0
1525,6230002010522,登記記録の閉鎖等,0,2024-12-27,2024-12-24,有限会社クザワ,,有限会社,富山県,高岡市,福岡町赤丸１０１４番地の４,,16,202,9390101,,,2024-12-24,清算の結了等,,,2015-10-05,1,,,,,クザワ,0
1526,6240001019596,登記記録の閉鎖等,0,2024-12-27,2024-12-25,株式会社ＭＡＫＥ－ＵＰ　ＳＴＵＤＩＯ,,株式会社,広島県,広島市中区,袋町２－１５－４０２,,34,101,7300036,,,2024-12-25,清算の結了等,,,2015-10-05,1,,,,,メイクアップスタジオ,0
1546,6290002014749,登記記録の閉鎖等,0,2024-12-27,2024-12-10,勝野商事有限会社,,有限会社,福岡県,福岡市博多区,銀天町１丁目３番４６号,,40,132,8120879,,,2024-12-10,清算の結了等,,,2015-10-05,1,,,,,カツノショウジ,0
1563,6370302003303,登記記録の閉鎖等,0,2024-12-27,2024-12-23,有限会社佐藤建設,,有限会社,宮城県,東松島市,大塩字清水沢１５番地１,,04,214,9810505,,,2024-12-23,清算の結了等,,,2015-10-05,1,,,,,サトウケンセツ,0
1578,6430002047379,登記記録の閉鎖等,0,2024-12-27,2024-12-26,有限会社オーデント,,有限会社,北海道,恵庭市,白樺町１丁目１１番５号,,01,231,0611412,,,2024-12-26,清算の結了等,,,2015-10-05,1,,,,,オーデント,0
1587,6460301003749,登記記録の閉鎖等,0,2024-12-27,2024-12-26,株式会社オープン・トレイル,,株式会社,北海道,網走市,字潮見２５８番地の１,,01,211,0930042,,,2024-12-26,清算の結了等,,,2015-10-05,1,,,,,オープントレイル,0
1601,7010001064276,登記記録の閉鎖等,0,2024-12-27,2024-12-16,株式会社スピンドル,,株式会社,東京都,千代田区,神田司町２丁目２番地,,13,101,1010048,,,2024-12-16,清算の結了等,,,2015-10-05,1,SPINDLE INC.,Tokyo,"2-2,Kandatsukasamachi, Chiyoda ku",,スピンドル,0
1613,7010001176492,登記記録の閉鎖等,0,2024-12-27,2024-12-13,株式会社サード・ステージ,,株式会社,東京都,足立区,西新井栄町２丁目７番５号,,13,121,1230843,,,2024-12-13,合併による解散等,5011801012013,令和６年１２月１日東京都足立区西新井栄町二丁目７番５号松岡商事株式会社（5011801012013）に合併し解散,2016-06-20,1,,,,,サードステージ,0
1614,7010001190626,登記記録の閉鎖等,0,2024-12-27,2024-12-16,株式会社秋場技研,,株式会社,東京都,千代田区,外神田３丁目６番５号,,13,101,1010021,,,2024-12-16,清算の結了等,,,2018-03-29,1,,,,,アキバギケン,0
1637,7010501021017,登記記録の閉鎖等,0,2024-12-27,2024-12-19,株式会社エスジー,,株式会社,東京都,台東区,上野７丁目６番５号,,13,106,1100005,,,2024-12-19,清算の結了等,,,2015-10-05,1,,,,,エスジー,0
1644,7010901004059,登記記録の閉鎖等,0,2024-12-27,2024-12-24,コーワ商事株式会社,,株式会社,東京都,世田谷区,奥沢６丁目２２番１３－７０１号,,13,112,1580083,,,2024-12-24,清算の結了等,,,2015-10-05,1,,,,,コーワショウジ,0
1648,7011001068036,登記記録の閉鎖等,0,2024-12-27,2024-12-02,株式会社ブルームテクノロジー,,株式会社,東京都,目黒区,青葉台３丁目６番２８号,,13,110,1530042,,,2024-12-02,合併による解散等,1011001059528,令和６年１２月１日東京都目黒区青葉台三丁目６番２８号株式会社コアテック（1011001059528）に合併し解散,2015-10-05,1,,,,,ブルームテクノロジー,0
1659,7011102010359,登記記録の閉鎖等,0,2024-12-27,2024-12-18,有限会社早川商店,,有限会社,東京都,新宿区,富久町３７番１号,,13,104,1620067,,,2024-12-18,清算の結了等,,,2015-10-05,1,,,,,ハヤカワショウテン,0
1686,7020001027249,登記記録の閉鎖等,0,2024-12-27,2024-12-18,株式会社盛晃,,株式会社,神奈川県,横浜市中区,弥生町３丁目３５番地,,14,104,2310058,,,2024-12-18,清算の結了等,,,2015-10-05,1,,,,,セイコウ,0
1693,7020002090436,登記記録の閉鎖等,0,2024-12-27,2024-12-17,有限会社保坂精研,,有限会社,神奈川県,川崎市高津区,久地２５２番地,,14,134,2130032,,,2024-12-17,清算の結了等,,,2015-10-05,1,,,,,ホサカセイケン,0
1707,7030002090360,登記記録の閉鎖等,0,2024-12-27,2024-12-19,対中国投資コンサルタント有限会社,,有限会社,埼玉県,吉川市,大字小松川６６９番５,,11,243,3420043,,,2024-12-19,清算の結了等,,,2015-10-05,1,,,,,タイチュウゴクトウシコンサルタント,0
1711,7040001001895,登記記録の閉鎖等,0,2024-12-27,2024-12-23,株式会社クライミングジャパン,,株式会社,千葉県,千葉市中央区,本千葉町１０番２３号ＤＩＫマンション８０１号,,12,101,2600014,,,2024-12-23,清算の結了等,,,2015-10-05,1,,,,,クライミングジャパン,0
1714,7040003017527,登記記録の閉鎖等,0,2024-12-27,2024-12-23,合同会社アラック,,合同会社,千葉県,船橋市,三咲２丁目８番３１号,,12,204,2740812,,,2024-12-23,清算の結了等,,,2021-04-23,1,,,,,アラック,0
1725,7080102019453,登記記録の閉鎖等,0,2024-12-27,2024-12-20,有限会社魚吉ひもの店,,有限会社,静岡県,伊東市,湯川２丁目４番１８号,,22,208,4140002,,,2024-12-20,清算の結了等,,,2015-10-05,1,,,,,ウオキチヒモノテン,0
1729,7110002034169,登記記録の閉鎖等,0,2024-12-27,2024-12-19,有限会社松木製作所,,有限会社,新潟県,魚沼市,長堀新田４７１番地８,,15,225,9460107,,,2024-12-19,清算の結了等,,,2015-10-05,1,,,,,マツキセイサクショ,0
1730,7120001016002,登記記録の閉鎖等,0,2024-12-27,2024-12-23,ピーイーシエンジニアリング株式会社,,株式会社,兵庫県,芦屋市,浜町１３番１６－５０１号,,28,206,6590025,,,2024-12-23,清算の結了等,,,2015-10-05,1,,,,,ピーイーシエンジニアリング,0
1731,7120001019277,登記記録の閉鎖等,0,2024-12-27,2024-12-26,株式会社渡辺工務店,,株式会社,大阪府,大阪市生野区,桃谷３丁目２番４１号,,27,116,5440034,,,2024-12-26,清算の結了等,,,2015-10-05,1,,,,,ワタナベコウムテン,0
1732,7120001058572,登記記録の閉鎖等,0,2024-12-27,2024-12-26,株式会社丸万,,株式会社,大阪府,大阪市北区,角田町９番２９号,,27,127,5300017,,,2024-12-26,清算の結了等,,,2015-10-05,1,,,,,マルマン,0
1738,7120001243950,登記記録の閉鎖等,0,2024-12-27,2024-12-26,株式会社ＳＴＡＲＧＡＴＥ,,株式会社,大阪府,大阪市北区,梅田１丁目２番２－２００号大阪駅前第２ビル２階３の１の２,,27,127,5300001,,,2024-12-26,清算の結了等,,,2022-02-21,1,,,,,スターゲート,0
1742,7120002034597,登記記録の閉鎖等,0,2024-12-27,2024-12-23,有限会社エヌユウアンドジェイ,,有限会社,大阪府,大阪市中央区,日本橋１丁目９番１１号弥生プラザ日本橋７０２号,,27,128,5420073,,,2024-12-23,清算の結了等,,,2015-10-05,1,,,,,エヌユウアンドジェイ,0
1752,7120901025614,登記記録の閉鎖等,0,2024-12-27,2024-12-23,ホクセツ工業株式会社,,株式会社,大阪府,豊中市,原田南２丁目１１番１０号,,27,203,5610805,,,2024-12-23,清算の結了等,,,2015-10-05,1,,,,,ホクセツコウギョウ,0
1756,7130001017833,登記記録の閉鎖等,0,2024-12-27,2024-12-24,大京住販株式会社,,株式会社,京都府,京都市下京区,梅小路東町７２番地の９,,26,106,6008857,,,2024-12-24,清算の結了等,,,2015-10-05,1,,,,,ダイキョウジュウハン,0
1787,7180005004617,登記記録の閉鎖等,0,2024-12-27,2024-12-23,東尾張食糧販売協同組合,,その他の設立登記法人,愛知県,名古屋市守山区,新守西１９０５番地,,23,113,4630069,,,2024-12-23,清算の結了等,,,2015-10-05,1,,,,,ヒガシオワリショクリョウハンバイ,0
1793,7200001015565,登記記録の閉鎖等,0,2024-12-27,2024-12-19,株式会社スズヤ,,株式会社,岐阜県,海津市,平田町今尾３０４２番地,,21,221,5030321,,,2024-12-19,清算の結了等,,,2015-10-05,1,,,,,スズヤ,0
1797,7200002011217,登記記録の閉鎖等,0,2024-12-27,2024-12-25,有限会社丸三渡辺組,,有限会社,岐阜県,羽島市,上中町長間１３７３番地,,21,209,5016311,,,2024-12-25,清算の結了等,,,2015-10-05,1,,,,,マルサンワタナベグミ,0
1798,7220005000231,登記記録の閉鎖等,0,2024-12-27,2024-12-25,公益財団法人いしかわまちづくり技術センター,,その他の設立登記法人,石川県,金沢市,直江南２丁目１番地,,17,201,9208214,,,2024-12-25,清算の結了等,,,2015-10-05,1,,,,,イシカワマチヅクリギジュツセンター,0
1802,7250001020222,登記記録の閉鎖等,0,2024-12-27,2024-12-17,Ｄｉｇｉｔ　Ｌａｂ株式会社,,株式会社,山口県,山口市,徳地船路９３９,,35,203,7470342,,,2024-12-17,清算の結了等,,,2023-08-15,1,,,,,デジットラボ,0
1811,7260005001341,登記記録の閉鎖等,0,2024-12-27,2024-12-25,岡山市温泉協同組合,,その他の設立登記法人,岡山県,岡山市南区,郡１５４０番地,,33,104,7028011,,,2024-12-25,清算の結了等,,,2015-10-05,1,,,,,オカヤマシオンセン,0
1818,7290001083760,登記記録の閉鎖等,0,2024-12-27,2024-12-13,株式会社リフォームＤＡＹＳ,,株式会社,福岡県,福岡市東区,香椎照葉３丁目２番２－１１２９号,,40,131,8130017,,,2024-12-13,清算の結了等,,,2018-12-28,1,,,,,リフォームデイズ,0
1819,7290001085906,登記記録の閉鎖等,0,2024-12-27,2024-12-11,株式会社Ｏ－Ｔａｐ,,株式会社,福岡県,大牟田市,大字手鎌１４１０番地８,,40,202,8360004,,,2024-12-11,清算の結了等,,,2019-07-19,1,,,,,オータップ,0
1822,7290002033731,登記記録の閉鎖等,0,2024-12-27,2024-12-11,有限会社白石商事,,有限会社,福岡県,古賀市,花見東７丁目３番１３号,,40,223,8113112,,,2024-12-11,清算の結了等,,,2015-10-05,1,,,,,シライシショウジ,0
1823,7290002048432,登記記録の閉鎖等,0,2024-12-27,2024-12-11,有限会社いづみ,,有限会社,福岡県,久留米市,東町３４番地の１,,40,203,8300032,,,2024-12-11,清算の結了等,,,2015-10-05,1,,,,,イズミ,0
1824,7290002053886,登記記録の閉鎖等,0,2024-12-27,2024-12-13,有限会社福山木工所,,有限会社,福岡県,大川市,大字一木１０５０番地の７,,40,212,8310034,,,2024-12-13,清算の結了等,,,2015-10-05,1,,,,,,0
1827,7290003006711,登記記録の閉鎖等,0,2024-12-27,2024-12-11,合同会社ＣＡＲＥＦＲＥＥ,,合同会社,福岡県,大野城市,仲畑４丁目１８－１０－６０１号,,40,219,8160921,,,2024-12-11,清算の結了等,,,2016-09-29,1,,,,,,0
1834,7310002001082,登記記録の閉鎖等,0,2024-12-27,2024-12-25,有限会社海産物丸一,,有限会社,長崎県,長崎市,戸町４丁目３２番３号,,42,201,8500952,,,2024-12-25,清算の結了等,,,2015-10-05,1,,,,,カイサンブツマルイチ,0
1837,7340001025138,登記記録の閉鎖等,0,2024-12-27,2024-12-25,株式会社アールティー,,株式会社,鹿児島県,鹿児島市,荒田１丁目４０番１４号,,46,201,8900054,,,2024-12-25,清算の結了等,,,2022-11-02,1,,,,,アールティー,0
1841,7350001016012,登記記録の閉鎖等,0,2024-12-27,2024-12-24,さくら環境株式会社,,株式会社,宮崎県,都城市,宮丸町３００２番地３,,45,202,8850078,,,2024-12-24,清算の結了等,,,2019-09-05,1,,,,,サクラカンキョウ,0
1842,7350002002317,登記記録の閉鎖等,0,2024-12-27,2024-12-23,有限会社まるこ,,有限会社,宮崎県,宮崎市,下北方町字井尻５３７５番地,,45,201,8800035,,,2024-12-23,清算の結了等,,,2015-10-05,1,,,,,マルコ,0
1850,7380002002157,登記記録の閉鎖等,0,2024-12-27,2024-12-16,有限会社タカモク,,有限会社,福島県,福島市,佐原字下林１７番地,,07,201,9602158,,,2024-12-16,清算の結了等,,,2015-10-05,1,,,,,タカモク,0
1853,7380002032435,登記記録の閉鎖等,0,2024-12-27,2024-12-13,有限会社千葉産業,,有限会社,福島県,大沼郡会津美里町,旭杉原字漆原３９６番地,,07,447,9696226,,,2024-12-13,清算の結了等,,,2015-10-05,1,,,,,チバサンギョウ,0
1871,7450003002140,登記記録の閉鎖等,0,2024-12-27,2024-12-24,合同会社ワイズ・メイト,,合同会社,北海道,旭川市,末広一条９丁目１番２６号,,01,204,0718131,,,2024-12-24,清算の結了等,,,2021-10-06,1,,,,,ワイズメイト,0
1876,7500001023950,登記記録の閉鎖等,0,2024-12-27,2024-12-24,株式会社スカイウォーク,,株式会社,愛媛県,東温市,田窪２０６３番地６,,38,215,7910212,,,2024-12-24,清算の結了等,,,2022-01-19,1,,,,,スカイウォーク,0
1882,8010001197315,登記記録の閉鎖等,0,2024-12-27,2024-12-16,株式会社アシスト,,株式会社,東京都,中央区,日本橋室町１丁目１１番１２号日本橋水野ビル７階,,13,102,1030022,,,2024-12-16,清算の結了等,,,2018-12-26,1,,,,,アシスト,0
1902,8010403030271,登記記録の閉鎖等,0,2024-12-27,2024-10-15,ちるバース合同会社,,合同会社,東京都,港区,南青山３丁目１番３６号青山丸竹ビル６Ｆ,,13,103,1070062,,,2024-10-15,清算の結了等,,,2023-06-12,1,,,,,チルバース,0
1910,8010801002946,登記記録の閉鎖等,0,2024-12-27,2024-12-23,菊川運送株式会社,,株式会社,東京都,大田区,東糀谷１丁目１３番１９号,,13,111,1440033,,,2024-12-23,清算の結了等,,,2015-10-05,1,,,,,キクカワウンソウ,0
1913,8011001017900,登記記録の閉鎖等,0,2024-12-27,2024-12-16,日本特殊測器株式会社,,株式会社,東京都,千代田区,神田三崎町３丁目９番３号,,13,101,1010061,,,2024-12-16,清算の結了等,,,2015-10-05,1,,,,,ニホントクシュソッキ,0
1915,8011001107965,登記記録の閉鎖等,0,2024-12-27,2024-12-03,株式会社クリスタルビル,,株式会社,東京都,目黒区,自由が丘２丁目７番１０－３０２号,,13,110,1520035,,,2024-12-03,清算の結了等,,,2015-10-30,1,,,,,クリスタルビル,0
1935,8011801021110,登記記録の閉鎖等,0,2024-12-27,2024-12-25,一水工業株式会社,,株式会社,東京都,足立区,辰沼２丁目１４番２１号,,13,121,1210054,,,2024-12-25,清算の結了等,,,2015-10-05,1,,,,,イッスイコウギョウ,0
1969,8030002088370,登記記録の閉鎖等,0,2024-12-27,2024-12-25,株式会社山賀,,株式会社,埼玉県,越谷市,七左町６丁目１０－１,,11,222,3430851,,,2024-12-25,清算の結了等,,,2015-10-05,1,,,,,ヤマガ,0
1979,8050001035355,登記記録の閉鎖等,0,2024-12-27,2024-12-23,株式会社ＫＬＥＮＯＴ　Ｒ,,株式会社,茨城県,水戸市,元吉田町１０４６番地３,,08,201,3100836,,,2024-12-23,清算の結了等,,,2015-10-05,1,,,,,,0
1980,8050002032913,登記記録の閉鎖等,0,2024-12-27,2024-12-23,有限会社荒井源太郎商店,,有限会社,茨城県,龍ケ崎市,４８７２番地,,08,208,3010000,,,2024-12-23,清算の結了等,,,2015-10-05,1,,,,,,0
1990,8100005011545,登記記録の閉鎖等,0,2024-12-27,2024-12-26,医療法人楽明会,,その他の設立登記法人,長野県,塩尻市,大字広丘野村２０５４番地６,,20,215,3990702,,,2024-12-26,清算の結了等,,,2015-10-05,1,,,,,ラクメイカイ,0
1996,8120001180879,登記記録の閉鎖等,0,2024-12-27,2024-12-24,株式会社ココステージ,,株式会社,大阪府,吹田市,朝日が丘町２６番３－１０５号,,27,205,5640083,,,2024-12-24,清算の結了等,,,2015-10-05,1,,,,,ココステージ,0
2007,8122001035807,登記記録の閉鎖等,0,2024-12-27,2024-12-20,株式会社ＧＨＰ,,株式会社,大阪府,八尾市,高美町６丁目８番４７号,,27,212,5810017,,,2024-12-20,清算の結了等,,,2022-04-25,1,,,,,ジーエイチピー,0
2009,8130001027567,登記記録の閉鎖等,0,2024-12-27,2024-12-20,株式会社洙樂庵,,株式会社,京都府,向日市,鶏冠井町西金村３番地１,,26,208,6170004,,,2024-12-20,合併による解散等,4130001019436,令和６年１２月１９日京都府向日市鶏冠井町西金村３番地１京都食品株式会社（4130001019436）に合併し解散,2015-10-05,1,,,,,シュラクアン,0
2010,8130001045131,登記記録の閉鎖等,0,2024-12-27,2024-12-26,レッズアルファ株式会社,,株式会社,京都府,京都市右京区,山越東町２６番地２１,,26,108,6168194,,,2024-12-26,清算の結了等,,,2015-10-05,1,,,,,レッズアルファ,0
2031,8160001022813,登記記録の閉鎖等,0,2024-12-27,2024-12-26,株式会社Ｈｅａｒｔ　ｆｕｌｌ　Ｌｉｆｅ,,株式会社,滋賀県,守山市,水保町１２５５番地９８,,25,207,5240102,,,2024-12-26,清算の結了等,,,2020-10-13,1,,,,,,0
2044,8180002018362,登記記録の閉鎖等,0,2024-12-27,2024-12-19,有限会社住い造りセンター,,有限会社,愛知県,名古屋市中川区,江松５丁目１７３番地,,23,110,4540954,,,2024-12-19,清算の結了等,,,2015-10-05,1,,,,,スマイツクリセンター,0
2075,8280002001597,登記記録の閉鎖等,0,2024-12-27,2024-12-26,有限会社長岡屋,,有限会社,島根県,松江市,白潟本町４２番地,,32,201,6900000,,,2024-12-26,清算の結了等,,,2015-10-05,1,,,,,ナガオカヤ,0
2090,8290003005720,登記記録の閉鎖等,0,2024-12-27,2024-12-09,株式会社オクターブミュージック,,株式会社,福岡県,福岡市博多区,博多駅前２丁目１７番２６号オオエスビル,,40,132,8120011,,,2024-12-09,清算の結了等,,,2015-10-05,1,,,,,オクターブミュージック,0
2092,8290005014562,登記記録の閉鎖等,0,2024-12-27,2024-12-17,ＮＰＯ法人ふくおか介護予防ネットワーク,,その他の設立登記法人,福岡県,福岡市早良区,百道浜３丁目９番３３－２１０８号,,40,137,8140001,,,2024-12-17,清算の結了等,,,2015-10-05,1,,,,,,0
2119,8380002016230,登記記録の閉鎖等,0,2024-12-27,2024-12-19,有限会社共伸工芸,,有限会社,福島県,二本松市,太田字楽内１２１番地２,,07,210,9640111,,,2024-12-19,清算の結了等,,,2015-10-05,1,,,,,キョウシンコウゲイ,0
2120,8380002035016,登記記録の閉鎖等,0,2024-12-27,2024-12-17,有限会社内條電機,,有限会社,福島県,喜多方市,松山町村松字上原２４８８番地の７,,07,208,9660902,,,2024-12-17,清算の結了等,,,2015-10-05,1,,,,,ナイジョウデンキ,0
2123,8400002001873,登記記録の閉鎖等,0,2024-12-27,2024-12-18,有限会社大輝工業,,有限会社,岩手県,盛岡市,本宮１丁目１１番１５号,,03,201,0200866,,,2024-12-18,清算の結了等,,,2015-10-05,1,,,,,ダイキコウギョウ,0
2137,8460305001607,登記記録の閉鎖等,0,2024-12-27,2024-12-25,しれとこ森林整備事業協同組合,,その他の設立登記法人,北海道,斜里郡斜里町,字中斜里１８番地２９,,01,545,0994142,,,2024-12-25,清算の結了等,,,2015-10-05,1,,,,,シレトコシンリンセイビジギョウ,0
2139,8470001002569,登記記録の閉鎖等,0,2024-12-27,2024-12-25,大同設備工業株式会社,,株式会社,香川県,高松市,春日町９４番地,,37,201,7610101,,,2024-12-25,清算の結了等,,,2015-10-05,1,,,,,ダイドウセツビコウギョウ,0
2151,9010001098090,登記記録の閉鎖等,0,2024-12-27,2024-12-13,ＶＩＰテレビ株式会社,,株式会社,東京都,中央区,日本橋浜町２丁目６１－６,,13,102,1030007,,,2024-12-13,清算の結了等,,,2015-10-05,1,,,,,ブイアイピーテレビ,0
2152,9010001127436,登記記録の閉鎖等,0,2024-12-27,2024-12-13,アストロンシッピング株式会社,,株式会社,東京都,中央区,晴海１丁目６番１－２４１３号,,13,102,1040053,,,2024-12-13,清算の結了等,,,2015-10-05,1,,,,,アストロンシッピング,0
2159,9010001244280,登記記録の閉鎖等,0,2024-12-27,2024-12-16,株式会社フォアノート,,株式会社,東京都,中央区,日本橋室町１丁目１１番１２号日本橋水野ビル７階,,13,102,1030022,,,2024-12-16,清算の結了等,,,2024-04-24,1,,,,,フォアノート,0
2196,9011001147309,登記記録の閉鎖等,0,2024-12-27,2024-12-02,ＡＤＴ株式会社,,株式会社,東京都,渋谷区,神宮前６丁目２３番４号,,13,113,1500001,,,2024-12-02,清算の結了等,,,2022-05-09,1,,,,,エーディーティー,0
2200,9011005007863,登記記録の閉鎖等,0,2024-12-27,2024-12-24,小俣社会保険労務士法人,,その他の設立登記法人,東京都,世田谷区,粕谷３丁目１６番１８号,,13,112,1570063,,,2024-12-24,清算の結了等,,,2018-10-16,1,,,,,オマタ,0
2201,9011101072183,登記記録の閉鎖等,0,2024-12-27,2024-12-18,ポータルアプリ株式会社,,株式会社,東京都,新宿区,新宿２丁目８番１－８０１号,,13,104,1600022,,,2024-12-18,清算の結了等,,,2015-10-05,1,,,,,ポータルアプリ,0
2214,9011802007149,登記記録の閉鎖等,0,2024-12-27,2024-12-24,有限会社増渕曲硝子,00057303,有限会社,東京都,葛飾区,お花茶屋１丁目６番７号,,13,122,1240003,,,2024-12-24,清算の結了等,,,2015-10-05,1,,,,,マスブチマゲガラス,0
2240,9020002080096,登記記録の閉鎖等,0,2024-12-27,2024-12-19,有限会社フィードエンジニアリング,,有限会社,神奈川県,横浜市鶴見区,上末吉１丁目３番１号横浜三ツ池パークホームズ４１４,,14,101,2300011,,,2024-12-19,清算の結了等,,,2015-10-05,1,,,,,フィードエンジニアリング,0
2252,9030001102437,登記記録の閉鎖等,0,2024-12-27,2024-12-25,創栄株式会社,,株式会社,埼玉県,川口市,栄町３丁目１１番１８号,,11,203,3320017,,,2024-12-25,清算の結了等,,,2015-10-05,1,,,,,ソウエイ,0
2258,9030003023433,登記記録の閉鎖等,0,2024-12-27,2024-12-25,敬合堂合同会社,,合同会社,埼玉県,鴻巣市,吹上富士見４丁目５番２２号,,11,217,3690121,,,2024-12-25,清算の結了等,,,2024-01-19,1,,,,,ケイアイドウ,0
2262,9040001000516,登記記録の閉鎖等,0,2024-12-27,2024-12-24,石井幸商亊株式会社,,株式会社,千葉県,千葉市緑区,あすみが丘７丁目４３番地６,,12,105,2670066,,,2024-12-24,清算の結了等,,,2015-10-05,1,,,,,イシイサチショウジ,0
2268,9040002049222,登記記録の閉鎖等,0,2024-12-27,2024-12-23,有限会社矢口工業,,有限会社,千葉県,松戸市,上矢切１１４８番地の１１,,12,207,2710094,,,2024-12-23,清算の結了等,,,2015-10-05,1,,,,,ヤグチコウギョウ,0
2277,9050001052481,登記記録の閉鎖等,0,2024-12-27,2024-12-24,アマテラスホールディングス株式会社,,株式会社,千葉県,柏市,旭町１丁目３－３ＳＫヴィラＩＩ８０４,00131776,12,217,2770852,,,2024-12-24,清算の結了等,,,2023-03-20,1,,,,,アマテラスホールディングス,0
2292,9120001193558,登記記録の閉鎖等,0,2024-12-27,2024-12-25,株式会社ミムプラス,,株式会社,大阪府,大阪市北区,茶屋町４番２号－４０１,,27,127,5300013,,,2024-12-25,清算の結了等,,,2015-10-05,1,,,,,ミムプラス,0
2302,9120005010486,登記記録の閉鎖等,0,2024-12-27,2024-12-25,医療法人正祥会,,その他の設立登記法人,大阪府,大阪市北区,梅田２丁目４番３７号西梅田上島ビル４Ｆ,,27,127,5300001,,,2024-12-25,清算の結了等,,,2015-10-05,1,,,,,セイショウカイ,0
2311,9130001016668,登記記録の閉鎖等,0,2024-12-27,2024-12-25,株式会社榎工業,,株式会社,京都府,京都市下京区,西大路通花屋町南入掛越町６６番地,,26,106,6000000,,,2024-12-25,清算の結了等,,,2015-10-05,1,,,,,,0
2329,9160001014685,登記記録の閉鎖等,0,2024-12-27,2024-12-26,株式会社坐空,,株式会社,滋賀県,草津市,大路１丁目４番１２号大丸ソイビル１階,,25,206,5250032,,,2024-12-26,清算の結了等,,,2015-10-05,1,,,,,,0
2330,9160003002399,登記記録の閉鎖等,0,2024-12-27,2024-12-24,株式会社Ｎｅｘｔ　Ｏｂｖｉｏｕｓ,,株式会社,滋賀県,守山市,伊勢町６２１番地シャルマンフルールＩ３０１号,00135284,25,207,5240036,,,2024-12-24,清算の結了等,,,2021-10-08,1,,,,,ネクストアヴィウス,0
2343,9200001018129,登記記録の閉鎖等,0,2024-12-27,2024-12-25,殖産開発株式会社,,株式会社,岐阜県,加茂郡八百津町,丸山１５１２番地の２,,21,505,5050300,,,2024-12-25,清算の結了等,,,2015-10-05,1,,,,,ショクサンカイハツ,0
2353,9230001000281,登記記録の閉鎖等,0,2024-12-27,2024-12-25,株式会社稲荷鉄工所,,株式会社,富山県,富山市,綾田町１丁目２２番２０号,,16,201,9300845,,,2024-12-25,清算の結了等,,,2015-10-05,1,,,,,イナリテッコウショ,0
2361,9290001060568,登記記録の閉鎖等,0,2024-12-27,2024-12-13,株式会社日本総合美容研究所,,株式会社,福岡県,福岡市中央区,高砂１丁目２０番１０号,,40,133,8100011,,,2024-12-13,清算の結了等,,,2015-10-05,1,,,,,,0
2368,9290002024357,登記記録の閉鎖等,0,2024-12-27,2024-12-10,有限会社オズ,,有限会社,福岡県,福岡市東区,名島４丁目２６番９－５０９号,,40,131,8130043,,,2024-12-10,清算の結了等,,,2015-10-05,1,,,,,オズ,0
2394,9390001007864,登記記録の閉鎖等,0,2024-12-27,2024-12-25,株式会社山村,,株式会社,山形県,鶴岡市,錦町２０番１５号,,06,203,9970031,,,2024-12-25,清算の結了等,,,2015-10-05,1,,,,,ヤマムラ,0
2410,9470002003400,登記記録の閉鎖等,0,2024-12-27,2024-12-25,有限会社四国ビルハード,,有限会社,香川県,高松市,元山町９５４番地１,,37,201,7610311,,,2024-12-25,清算の結了等,,,2015-10-05,1,,,,,,0
2412,9490001000512,登記記録の閉鎖等,0,2024-12-27,2024-12-25,株式会社グリーンビル,,株式会社,高知県,高知市,福井町１１９８番地１,,39,201,7800965,,,2024-12-25,清算の結了等,,,2015-10-05,1,,,,,グリーンビル,0
