sequenceNumber,corporateNumber,process,correct,updateDate,changeDate,name,nameImageId,kind,prefectureName,cityName,streetNumber,addressImageId,prefectureCode,cityCode,postCode,addressOutside,addressOutsideImageId,closeDate,closeCause,successorCorporateNumber,changeCause,assignmentDate,latest,enName,enPrefectureName,enCityName,enAddressOutside,furigana,hihyoji
8,1010001260054,新規,0,2025-11-10,2025-11-10,株式会社Ｉ’ｍｐｏｓｓｉｂｌｅ,,株式会社,東京都,中央区,日本橋室町１丁目１１番１２号日本橋水野ビル７階,,13,102,1030022,,,,,,,2025-11-10,1,,,,,インポッシブル,0
9,1010001260062,新規,0,2025-11-10,2025-11-10,ＪＰＡ第３６７号株式会社,,株式会社,東京都,千代田区,霞が関３丁目２番１号,,13,101,1000013,,,,,,,2025-11-10,1,,,,,ジェイピーエーダイサンビャクロクジュウナナゴウ,0
10,1010003049297,新規,0,2025-11-10,2025-11-10,Ｏｔａ　Ａｚｕｌ１７合同会社,,合同会社,東京都,中央区,京橋２丁目１２番６号ＡＯＪ税理士法人内,,13,102,1040031,,,,,,,2025-11-10,1,,,,,オウタアズルジュウナナ,0
11,1010003049306,新規,0,2025-11-10,2025-11-10,合同会社ＣＢ４,,合同会社,東京都,中央区,日本橋１丁目４番１号,,13,102,1030027,,,,,,,2025-11-10,1,,,,,シービーフォー,0
12,1010003049314,新規,0,2025-11-10,2025-11-10,アラクス合同会社,,合同会社,東京都,千代田区,三番町２６番地１ザ・パークハウスグラン三番町２６－１５０４号,,13,101,1020075,,,,,,,2025-11-10,1,,,,,アラクス,0
13,1010005040898,新規,0,2025-11-10,2025-11-10,医療法人社団Ｐｒｉｍｅ　Ａｉｄ,,その他の設立登記法人,東京都,千代田区,鍛冶町２丁目６番２号上野ビルディング２階,,13,101,1010044,,,,,,,2025-11-10,1,,,,,プライムエイド,0
14,1010103002692,新規,0,2025-11-10,2025-11-10,合同会社伸彩,,合同会社,東京都,八王子市,丹木町１丁目１３５番地１,,13,201,1920003,,,,,,,2025-11-10,1,,,,,シンサイ,0
20,1010405024988,新規,0,2025-11-10,2025-11-10,一般社団法人アソート,,その他の設立登記法人,東京都,港区,元赤坂１丁目１番７－１２０９号株式会社赤坂国際会計内,,13,103,1070051,,,,,,,2025-11-10,1,,,,,アソート,0
26,1010603011912,新規,0,2025-11-10,2025-11-10,Ｋｏａ合同会社,,合同会社,東京都,墨田区,向島３丁目３番３‐８０６号,,13,107,1310033,,,,,,,2025-11-10,1,,,,,コア,0
32,1010901058416,新規,0,2025-11-10,2025-11-10,株式会社Ｃ＆Ｓテクノ,,株式会社,東京都,世田谷区,羽根木１丁目３番１１号,,13,112,1560042,,,,,,,2025-11-10,1,,,,,シーアンドエステクノ,0
40,1011001173163,新規,0,2025-11-10,2025-11-10,株式会社Ｊａｐａｎｅｓｅ　Ｖｏｉｃｅ　Ｏｖｅｒ　Ｓｅｒｖｉｃｅ,,株式会社,東京都,渋谷区,道玄坂１丁目１６－６二葉ビル８ｂ,,13,113,1500043,,,,,,,2025-11-10,1,,,,,ジャパニーズボイスオーバーサービス,0
41,1011001173337,新規,0,2025-11-10,2025-11-10,Ｓｈｕ　Ｈａ　Ｒｅｓｏｒｔｓ＆Ｓｔｏｒｉｅｓ株式会社,,株式会社,東京都,渋谷区,神宮前６丁目３４番１５号モンターナビル,,13,113,1500001,,,,,,,2025-11-10,1,,,,,シュハリゾーツアンドストーリーズ,0
42,1011001173378,新規,0,2025-11-10,2025-11-10,ＷｅＳａｌｅｓ株式会社,,株式会社,東京都,渋谷区,恵比寿西２丁目８－４ＥＸ恵比寿西ビル５Ｆ,,13,113,1500021,,,,,,,2025-11-10,1,,,,,ウィーセールス,0
43,1011003022913,新規,0,2025-11-10,2025-11-10,合同会社Ｒｉｌｔｏ,,合同会社,東京都,渋谷区,恵比寿西２丁目４番８号ウィンド恵比寿ビル８Ｆ,,13,113,1500021,,,,,,,2025-11-10,1,,,,,リルト,0
45,1011101113853,新規,0,2025-11-10,2025-11-10,株式会社グレネード,,株式会社,東京都,新宿区,北新宿４丁目３２－４－５０３,,13,104,1690074,,,,,,,2025-11-10,1,,,,,グレネード,0
46,1011101113886,新規,0,2025-11-10,2025-11-10,株式会社Ａｄｒｉｓｅ,,株式会社,東京都,新宿区,西新宿３丁目３番１３号西新宿水間ビル６階,,13,104,1600023,,,,,,,2025-11-10,1,,,,,アドライズ,0
48,1011201026765,新規,0,2025-11-10,2025-11-10,テンダーブリーズツアーズ株式会社,,株式会社,東京都,中野区,本町４丁目４４－１３西京城西ビル２Ｆ－６,,13,114,1640012,,,,,,,2025-11-10,1,,,,,テンダーブリーズツアーズ,0
50,1011401027555,新規,0,2025-11-10,2025-11-10,株式会社Ｌｉｎｅｒａ,,株式会社,東京都,板橋区,大原町２９番５号ウィステリア１０２,,13,119,1740061,,,,,,,2025-11-10,1,,,,,リネラ,0
51,1011701028922,新規,0,2025-11-10,2025-11-10,株式会社ＡＷＡＮ商会,,株式会社,東京都,江戸川区,清新町１丁目４番１５－６０３号,,13,123,1340087,,,,,,,2025-11-10,1,,,,,アワンショウカイ,0
55,1012301014585,新規,0,2025-11-10,2025-11-10,アールシステム株式会社,,株式会社,東京都,町田市,小山田桜台２丁目５番地２３－１０３,,13,209,1940204,,,,,,,2025-11-10,1,,,,,アールシステム,0
56,1012305002157,新規,0,2025-11-10,2025-11-10,ＮＰＯ法人Ｋ＆Ｋ,,その他の設立登記法人,東京都,町田市,金森東１丁目２３番８号,,13,209,1940015,,,,,,,2025-11-10,1,,,,,ケーアンドケー,0
59,1012701019143,新規,0,2025-11-10,2025-11-10,ＡＲＴＭＵ　ＴＥＣＨＮＯＬＯＧＹ株式会社,,株式会社,東京都,東久留米市,上の原２丁目６番１９号,,13,222,2030001,,,,,,,2025-11-10,1,,,,,アトムテクノロジー,0
72,1020001165525,新規,0,2025-11-10,2025-11-10,Ｍ‐ＤＥＥＰ株式会社,,株式会社,神奈川県,横浜市西区,浅間町１丁目４番３号,,14,103,2200072,,,,,,,2025-11-10,1,,,,,エムディープ,0
73,1020001165681,新規,0,2025-11-10,2025-11-10,株式会社義和商事,,株式会社,神奈川県,横浜市鶴見区,朝日町２丁目６７番地１ＹＤ鶴見マンションＢ棟６１４号室,,14,101,2300033,,,,,,,2025-11-10,1,,,,,アキワショウジ,0
77,1020003029645,新規,0,2025-11-10,2025-11-10,合同会社静かな心,,合同会社,神奈川県,横浜市鶴見区,下野谷町１丁目２０番地１・６１２号,,14,101,2300047,,,,,,,2025-11-10,1,,,,,シズカナココロ,0
84,1021003016732,新規,0,2025-11-10,2025-11-10,合同会社プロスピードサービス,,合同会社,神奈川県,相模原市緑区,上九沢３０２番地１６,,14,151,2520136,,,,,,,2025-11-10,1,,,,,プロスピードサービス,0
88,1030001169558,新規,0,2025-11-10,2025-11-10,ＴＫＡＭ‐ＨＤ株式会社,,株式会社,埼玉県,久喜市,除堀１３２１番地の１,,11,232,3460027,,,,,,,2025-11-10,1,,,,,ティーケイエーエムエイチディー,0
89,1030001169566,新規,0,2025-11-10,2025-11-10,株式会社Ｌｉｅｎ　Ｃａｓｔｌｅ,,株式会社,埼玉県,川口市,芝富士１丁目２０番１５号,,11,203,3330854,,,,,,,2025-11-10,1,,,,,リアンキャッスル,0
90,1030001169574,新規,0,2025-11-10,2025-11-10,末永興産株式会社,,株式会社,埼玉県,戸田市,大字新曽１５０３番地の３,,11,224,3350021,,,,,,,2025-11-10,1,,,,,スエナガコウサン,0
91,1030001169582,新規,0,2025-11-10,2025-11-10,株式会社Ｎｅｃｏ,,株式会社,埼玉県,さいたま市大宮区,下町２丁目５１番地３,,11,103,3300844,,,,,,,2025-11-10,1,,,,,ネコ,0
92,1030001169590,新規,0,2025-11-10,2025-11-10,株式会社クリーンアゲインサービス,,株式会社,埼玉県,川越市,かすみ野３丁目１７番地４,,11,201,3501174,,,,,,,2025-11-10,1,,,,,クリーンアゲインサービス,0
93,1030001169608,新規,0,2025-11-10,2025-11-10,Ｇｌｏｂａｌ　Ｔｉｋｅｔ　Ｎｅｔｗｏｒｋ株式会社,,株式会社,埼玉県,さいたま市大宮区,桜木町１丁目２６６番地３,,11,103,3300854,,,,,,,2025-11-10,1,,,,,グローバルチケットネットワーク,0
94,1030001169640,新規,0,2025-11-10,2025-11-10,株式会社ＲＥＡＬ　ＧＲＯＵＰ,,株式会社,埼玉県,久喜市,菖蒲町三箇８１７－２,,11,232,3460104,,,,,,,2025-11-10,1,,,,,リアルグループ,0
100,1030003027986,新規,0,2025-11-10,2025-11-10,ハナコーポレーション合同会社,,合同会社,埼玉県,川口市,大字西立野５５５番地の５の４１５号,,11,203,3330813,,,,,,,2025-11-10,1,,,,,ハナコーポレーション,0
101,1030003028043,新規,0,2025-11-10,2025-11-10,合同会社バンガード・マインド・パートナーズ,,合同会社,埼玉県,川口市,川口４丁目２番３６－８０３号,,11,203,3320015,,,,,,,2025-11-10,1,,,,,バンガードマインドパートナーズ,0
102,1030003028051,新規,0,2025-11-10,2025-11-10,合同会社マウス,,合同会社,埼玉県,さいたま市見沼区,大和田町１丁目１２３０番地２９ｆａｖｅｕｒ１０１,,11,104,3370053,,,,,,,2025-11-10,1,,,,,マウス,0
127,1070003006185,新規,0,2025-11-10,2025-11-10,キヨリ合同会社,,合同会社,群馬県,桐生市,川内町２丁目７３番地の３,,10,203,3760041,,,,,,,2025-11-10,1,,,,,,0
130,1080001027257,新規,0,2025-11-10,2025-11-10,株式会社丸長,,株式会社,静岡県,牧之原市,波津１１７４番地,,22,226,4210523,,,,,,,2025-11-10,1,,,,,マルチョウ,0
131,1080401028251,新規,0,2025-11-10,2025-11-10,株式会社ＭＩＹＡＢＩ,,株式会社,静岡県,磐田市,安久路２丁目２番地７,,22,211,4380017,,,,,,,2025-11-10,1,,,,,ミヤビ,0
138,1100005013416,新規,0,2025-11-10,2025-11-10,一般社団法人住まいと居場所と交流の会,,その他の設立登記法人,長野県,茅野市,塚原２丁目１７番１４号,,20,214,3910002,,,,,,,2025-11-10,1,,,,,スマイトイバショトコウリュウノカイ,0
150,1120001281675,新規,0,2025-11-10,2025-11-10,株式会社ｆｏｏｘ,,株式会社,大阪府,大阪市北区,豊崎３丁目１１番６－１００６号,,27,127,5310072,,,,,,,2025-11-10,1,,,,,フークス,0
151,1120001281758,新規,0,2025-11-10,2025-11-10,株式会社エクスウィル,,株式会社,大阪府,大阪市東住吉区,東田辺１丁目７番９号,,27,121,5460032,,,,,,,2025-11-10,1,,,,,エクスウィル,0
152,1120001281766,新規,0,2025-11-10,2025-11-10,株式会社Ｎｏｔｏａ,,株式会社,大阪府,大阪市阿倍野区,阿倍野筋２丁目４番５６号,,27,119,5450052,,,,,,,2025-11-10,1,,,,,ノトア,0
153,1120001281774,新規,0,2025-11-10,2025-11-10,Ｒｅ’リーフ不動産管理株式会社,,株式会社,大阪府,大阪市北区,梅田２丁目６番２０号パシフィックマークス西梅田ビル４Ｆ,,27,127,5300001,,,,,,,2025-11-10,1,,,,,レリーフフドウサンカンリ,0
154,1120001281808,新規,0,2025-11-10,2025-11-10,株式会社フローラ,,株式会社,大阪府,枚方市,東山１丁目５７番１号,,27,210,5731114,,,,,,,2025-11-10,1,,,,,フローラ,0
155,1120001281816,新規,0,2025-11-10,2025-11-10,株式会社アベノミクス,,株式会社,大阪府,大阪市中央区,谷町３丁目１番２４号,,27,128,5400012,,,,,,,2025-11-10,1,,,,,アベノミクス,0
156,1120001281824,新規,0,2025-11-10,2025-11-10,株式会社ＧＯ　ＯＮ,,株式会社,大阪府,大阪市中央区,日本橋２丁目２０番３－１１０２号,,27,128,5420073,,,,,,,2025-11-10,1,,,,,ゴーオン,0
157,1120001281832,新規,0,2025-11-10,2025-11-10,株式会社シファライフ,,株式会社,大阪府,大阪市天王寺区,伶人町５－１０,,27,109,5430061,,,,,,,2025-11-10,1,,,,,シファライフ,0
158,1120001281849,新規,0,2025-11-10,2025-11-10,株式会社Ｕｎｉｔｙ,,株式会社,大阪府,大阪市住吉区,遠里小野３丁目１番１９－５０５号,,27,120,5580032,,,,,,,2025-11-10,1,,,,,ユニティ,0
159,1120001281865,新規,0,2025-11-10,2025-11-10,株式会社順達,,株式会社,大阪府,大阪市中央区,島之内２丁目１１番１４号,,27,128,5420082,,,,,,,2025-11-10,1,,,,,ジュンタツ,0
164,1120003031186,新規,0,2025-11-10,2025-11-10,合同会社ＹＷ,,合同会社,大阪府,大阪市中央区,東心斎橋１丁目１３番２２号１Ｆ,,27,128,5420083,,,,,,,2025-11-10,1,,,,,ワイダブリュー,0
165,1120003031203,新規,0,2025-11-10,2025-11-10,合同会社シュロチク,,合同会社,大阪府,大阪市西淀川区,花川２丁目１６番１８号,,27,113,5550023,,,,,,,2025-11-10,1,,,,,シュロチク,0
167,1120005025236,新規,0,2025-11-10,2025-11-10,一般社団法人残土リサイクル推進協会,,その他の設立登記法人,大阪府,大阪市中央区,伏見町３丁目１番１号,,27,128,5410044,,,,,,,2025-11-10,1,,,,,ザンドリサイクルスイシンキョウカイ,0
169,1120101072751,新規,0,2025-11-10,2025-11-10,株式会社安本組,,株式会社,大阪府,岸和田市,春木本町１７番６号,,27,202,5960034,,,,,,,2025-11-10,1,,,,,ヤスモトグミ,0
180,1130001080960,新規,0,2025-11-10,2025-11-10,株式会社ＭＯＭＯ,,株式会社,京都府,京都市中京区,木屋町通四条上る下樵木町２０４番地４啓和ビル２Ｆ,,26,104,6048016,,,,,,,2025-11-10,1,,,,,モモ,0
181,1130001080969,新規,0,2025-11-10,2025-11-10,株式会社ＬＫＳ,,株式会社,京都府,京都市右京区,西京極堤下町３－１－６０７,,26,108,6150835,,,,,,,2025-11-10,1,,,,,エルケーエス,0
184,1130003010916,新規,0,2025-11-10,2025-11-10,合同会社西天満小田根屋,,合同会社,京都府,京田辺市,花住坂３丁目１０番地６花住坂ガーデン弐番館１０５,,26,211,6100352,,,,,,,2025-11-10,1,,,,,ニシテンマオダネヤ,0
186,1130005017513,新規,0,2025-11-10,2025-11-10,一般社団法人量子計算理論スクール,,その他の設立登記法人,京都府,京都市北区,大宮玄琢北東町５番地８４,,26,101,6038461,,,,,,,2025-11-10,1,,,,,リョウシケイサンリロンスクール,0
194,1140005027684,新規,0,2025-11-10,2025-11-10,特定非営利活動法人Ｃｏ‐ＺＡＰＰＡ,,その他の設立登記法人,兵庫県,姫路市,石倉５４番地７,,28,201,6712231,,,,,,,2025-11-10,1,,,,,コザッパ,0
195,1150001028537,新規,0,2025-11-10,2025-11-10,ささき不動産株式会社,,株式会社,奈良県,生駒市,生駒台南８１番地,,29,209,6300202,,,,,,,2025-11-10,1,,,,,ササキフドウサン,0
197,1170001018866,新規,0,2025-11-10,2025-11-10,ＳＦＹ警備保障株式会社,,株式会社,和歌山県,岩出市,根来１７０９－１,,30,209,6496202,,,,,,,2025-11-10,1,,,,,エスエフワイケイビホショウ,0
203,1180001169329,新規,0,2025-11-10,2025-11-10,知遊ｔｅｃｈ株式会社,,株式会社,愛知県,名古屋市中川区,高畑４丁目６７番地アクティブ溝口Ｂ号,,23,110,4540911,,,,,,,2025-11-10,1,,,,,チユーテック,0
204,1180001169403,新規,0,2025-11-10,2025-11-10,Ｅｃｏ‐Ｌｉｆｅ株式会社,,株式会社,愛知県,知多郡東浦町,大字森岡字岡田川３１番地の６,,23,442,4702101,,,,,,,2025-11-10,1,,,,,エコライフ,0
205,1180001169411,新規,0,2025-11-10,2025-11-10,株式会社ルミナヴィスタ,,株式会社,愛知県,小牧市,大字本庄６番地２メリオラＦ,,23,219,4850821,,,,,,,2025-11-10,1,,,,,ルミナヴィスタ,0
213,1190001032667,新規,0,2025-11-10,2025-11-10,株式会社ＦＥＬＩＮＤ,,株式会社,三重県,名張市,緑が丘中２６４番地,,24,208,5180755,,,,,,,2025-11-10,1,,,,,フェリント,0
219,1200003007129,新規,0,2025-11-10,2025-11-10,合同会社プログレス,,合同会社,岐阜県,中津川市,付知町４３２１番地３,,21,206,5080351,,,,,,,2025-11-10,1,,,,,プログレス,0
220,1200005013810,新規,0,2025-11-10,2025-11-10,一般財団法人白梅奨学財団,,その他の設立登記法人,岐阜県,岐阜市,加納南陽町３丁目１７番地,,21,201,5008276,,,,,,,2025-11-10,1,,,,,ハクバイショウガクザイダン,0
226,1240001065744,新規,0,2025-11-10,2025-11-10,株式会社美昇工業,,株式会社,広島県,広島市佐伯区,石内東２丁目６番８号,,34,108,7315162,,,,,,,2025-11-10,1,,,,,ビショウコウギョウ,0
228,1240003007471,新規,0,2025-11-10,2025-11-10,合同会社広一土地建物,,合同会社,広島県,広島市安佐北区,口田南１丁目２２番４２－５号,,34,106,7391733,,,,,,,2025-11-10,1,,,,,ヒロイチトチタテモノ,0
245,1290001112062,新規,0,2025-11-10,2025-11-10,株式会社江崎商店,,株式会社,福岡県,みやま市,瀬高町東津留５３９番地６,,40,229,8350017,,,,,,,2025-11-10,1,,,,,エサキショウテン,0
246,1290001112070,新規,0,2025-11-10,2025-11-10,株式会社Ｅｌｉｏ,,株式会社,福岡県,福岡市中央区,薬院３丁目１３番１５－４０３号ジェミニ薬院,,40,133,8100022,,,,,,,2025-11-10,1,,,,,エリオ,0
247,1290001112120,新規,0,2025-11-10,2025-11-10,株式会社ＺＥＲＯ　ＯＮＥ,,株式会社,福岡県,福岡市城南区,堤１丁目１３番３８号,,40,136,8140151,,,,,,,2025-11-10,1,,,,,ゼロワン,0
253,1290003017680,新規,0,2025-11-10,2025-11-10,石井アセット合同会社,,合同会社,福岡県,福岡市西区,愛宕浜２丁目３番１１－１５０６号,,40,135,8190013,,,,,,,2025-11-10,1,,,,,イシイアセット,0
262,1340001027767,新規,0,2025-11-10,2025-11-10,株式会社つまがり種鶏,,株式会社,鹿児島県,垂水市,二川１８３０番地２,,46,214,8994633,,,,,,,2025-11-10,1,,,,,ツマガリシュケイ,0
266,1340005009919,新規,0,2025-11-10,2025-11-10,生活協同組合屋久島安房電気,,その他の設立登記法人,鹿児島県,熊毛郡屋久島町,安房１６０番地１０,,46,505,8914311,,,,,,,2025-11-10,1,,,,,ヤクシマアンボウデンキ,0
271,1370001053216,新規,0,2025-11-10,2025-11-10,株式会社ＭＩＲＡＩ　ＳＰＡＣＥ,,株式会社,宮城県,仙台市青葉区,一番町１丁目９番１号,,04,101,9800811,,,,,,,2025-11-10,1,,,,,ミライスペース,0
273,1380001035683,新規,0,2025-11-10,2025-11-10,だいきちリンクス株式会社,,株式会社,福島県,南会津郡只見町,大字蒲生字上原１１６８番地,,07,367,9680414,,,,,,,2025-11-10,1,,,,,ダイキチリンクス,0
274,1380001035691,新規,0,2025-11-10,2025-11-10,株式会社セブンファースト,,株式会社,福島県,郡山市,日和田町字小山田２０ブライトタウン１０３,,07,203,9630534,,,,,,,2025-11-10,1,,,,,セブンファースト,0
279,1400001017225,新規,0,2025-11-10,2025-11-10,株式会社クローバー,,株式会社,岩手県,花巻市,一日市６番１２号,,03,205,0250073,,,,,,,2025-11-10,1,,,,,クローバー,0
281,1430001095598,新規,0,2025-11-10,2025-11-10,Ｂ．Ｂ．Ｂｕｉｌｔ株式会社,,株式会社,北海道,札幌市西区,発寒十二条５丁目５番３号,,01,107,0630832,,,,,,,2025-11-10,1,,,,,ビービービルト,0
282,1430001095623,新規,0,2025-11-10,2025-11-10,株式会社令和トランスポート,,株式会社,北海道,札幌市北区,太平四条４丁目７番２６号,,01,102,0028004,,,,,,,2025-11-10,1,,,,,,0
290,1470001020965,新規,0,2025-11-10,2025-11-10,株式会社ＩＴＫ,,株式会社,香川県,高松市,元山町９４３番地１,,37,201,7610311,,,,,,,2025-11-10,1,,,,,アイティーケイ,0
295,1700150132397,新規,0,2025-11-10,2025-11-10,福州龍騰偉業機電有限公司,,外国会社等,,,,,,,,福建省福州市倉山区建新鎮冠浦路１５２号２３号廠房１層,,,,,,2025-11-10,1,,,,,フクシユウリユウトウイギヨウキデンユウゲンコウシ,0
296,1700150132505,新規,0,2025-11-10,2025-11-10,Ａｉｒａｓｉａ　Ｂｅｒｈａｄ,,外国会社等,,,,,,,,ＲｅｄＱ，Ｊａｌａｎ　Ｐｅｋｅｌｉｌｉｎｇ　５，Ｌａｐａｎｇａｎ　Ｔｅｒｂａｎｇ　Ａｎｔａｒａｂａｎｇｓａ　Ｋｕａｌａ　Ｌｕｍｐｕｒ　（ｋｌｉａ２）６４０００　ＫＬＩＡ，Ｓｅｌａｎｇｏｒ　Ｄａｒｕｌ　Ｅｈｓａｎ，Ｍａｌａｙｓｉａ,,,,,,2025-11-10,1,,,,,エアアジアベハツド,0
305,2010001260053,新規,0,2025-11-10,2025-11-10,株式会社ワンクラウド,,株式会社,東京都,千代田区,神田三崎町３丁目１０番２号,,13,101,1010061,,,,,,,2025-11-10,1,,,,,ワンクラウド,0
306,2010001260061,新規,0,2025-11-10,2025-11-10,ＪＰＡ第３６６号株式会社,,株式会社,東京都,千代田区,霞が関３丁目２番１号,,13,101,1000013,,,,,,,2025-11-10,1,,,,,ジェイピーエーダイサンビャクロクジュウロクゴウ,0
307,2010003048769,新規,0,2025-11-10,2025-11-10,合同会社ネットワークデザイン,,合同会社,東京都,中央区,銀座１丁目２２－１１,,13,102,1040061,,,,,,,2025-11-10,1,,,,,ネットワークデザイン,0
308,2010003049180,新規,0,2025-11-10,2025-11-10,合同会社印西市瀬戸蓄電所,,合同会社,東京都,千代田区,紀尾井町４番１号ニューオータニガーデンコート１２Ｆ,,13,101,1020094,,,,,,,2025-11-10,1,,,,,インザイシセトチクデンショ,0
309,2010003049296,新規,0,2025-11-10,2025-11-10,ＦＬインベストメント２号合同会社,,合同会社,東京都,中央区,京橋２丁目１２番６号ＡＯＪ税理士法人内,,13,102,1040031,,,,,,,2025-11-10,1,,,,,エフエルインベストメントニゴウ,0
310,2010003049305,新規,0,2025-11-10,2025-11-10,宮崎高原ソーラー合同会社,,合同会社,東京都,中央区,日本橋１丁目４番１号,,13,102,1030027,,,,,,,2025-11-10,1,,,,,ミヤザキコウゲンソーラー,0
311,2010003049321,新規,0,2025-11-10,2025-11-10,合同会社シーボックス,,合同会社,東京都,千代田区,神田神保町２丁目１０番３１号ＩＷビル１Ｆ,,13,101,1010051,,,,,,,2025-11-10,1,,,,,シーボックス,0
312,2010005040906,新規,0,2025-11-10,2025-11-10,弁理士法人ゾンデルホフ＆アインゼル特許事務所,,その他の設立登記法人,東京都,千代田区,丸の内１丁目６番２号新丸の内センタービルディング,,13,101,1000005,,,,,,,2025-11-10,1,,,,,ゾンデルホフアンドアインゼルトッキョジムショ,0
322,2010401194231,新規,0,2025-11-10,2025-11-10,Ｊａｄｅ　Ａｕｄｉｏ　Ｊａｐａｎ株式会社,,株式会社,東京都,港区,浜松町２丁目２番１５号浜松町ダイヤビル２階,,13,103,1050013,,,,,,,2025-11-10,1,,,,,ジェイドオーディオジャパン,0
323,2010401194355,新規,0,2025-11-10,2025-11-10,株式会社メディレイサー,,株式会社,東京都,港区,北青山１丁目３番１号アールキューブ青山３階,,13,103,1070061,,,,,,,2025-11-10,1,,,,,メディレイサー,0
325,2010403036448,新規,0,2025-11-10,2025-11-10,ＣＳ北海道名寄ＥＳＳ合同会社,,合同会社,東京都,港区,虎ノ門２丁目４番７号Ｔ－ＬＩＴＥ１３階,,13,103,1050001,,,,,,,2025-11-10,1,,,,,シーエスホッカイドウナヨロイーエスエス,0
326,2010403036480,新規,0,2025-11-10,2025-11-10,合同会社シーズンインザサン,,合同会社,東京都,港区,海岸３丁目２番１５号パークフラッツ芝浦２０７号室,,13,103,1080022,,,,,,,2025-11-10,1,,,,,シーズンインザサン,0
327,2010403036539,新規,0,2025-11-10,2025-11-10,高麗橋インベストメント合同会社,,合同会社,東京都,港区,元赤坂１丁目１番７－１２０９号株式会社赤坂国際会計内,,13,103,1070051,,,,,,,2025-11-10,1,,,,,コウライバシインベストメント,0
330,2010405024987,新規,0,2025-11-10,2025-11-10,一般社団法人高麗橋インベストメント,,その他の設立登記法人,東京都,港区,元赤坂１丁目１番７－１２０９号株式会社赤坂国際会計内,,13,103,1070051,,,,,,,2025-11-10,1,,,,,コウライバシインベストメント,0
333,2010601068202,新規,0,2025-11-10,2025-11-10,カイカインターナショナル株式会社,,株式会社,東京都,江東区,東陽２丁目２Ｂ．Ｅ．ＧＲＡＮＤ木場５０２号,,13,108,1350016,,,,,,,2025-11-10,1,,,,,カイカインターナショナル,0
336,2010701048574,新規,0,2025-11-10,2025-11-10,株式会社黒駒藤内,,株式会社,東京都,品川区,上大崎２丁目９番２５号小林コンパウンドＡ棟,,13,109,1410021,,,,,,,2025-11-10,1,,,,,クロコマトウナイ,0
339,2010901058407,新規,0,2025-11-10,2025-11-10,株式会社Ｍｉｌｉｓｈ,,株式会社,東京都,世田谷区,成城８丁目１１番１２号,,13,112,1570066,,,,,,,2025-11-10,1,,,,,ミリッシュ,0
343,2011001173377,新規,0,2025-11-10,2025-11-10,株式会社Ｏｒｉｓ,,株式会社,東京都,渋谷区,松濤２丁目１５－５秀和松濤レジデンス３０１,,13,113,1500046,,,,,,,2025-11-10,1,,,,,オリス,0
344,2011001173476,新規,0,2025-11-10,2025-11-10,株式会社Ｄの事象,,株式会社,東京都,渋谷区,神南１丁目１１－４ＦＰＧリンクス神南５階,,13,113,1500041,,,,,,,2025-11-10,1,,,,,ディーノジショウ,0
345,2011003022846,新規,0,2025-11-10,2025-11-10,合同会社Ｍａｙｔａｍ,,合同会社,東京都,目黒区,自由が丘２丁目１６番１２号ＲＪ３,,13,110,1520035,,,,,,,2025-11-10,1,,,,,メイタム,0
346,2011005011260,新規,0,2025-11-10,2025-11-10,一般社団法人Ｌｉｏｎ,,その他の設立登記法人,東京都,渋谷区,神宮前１丁目５番８号,,13,113,1500001,,,,,,,2025-11-10,1,,,,,ライオン,0
350,2011101113522,新規,0,2025-11-10,2025-11-10,株式会社ＣＬＯＶＥＲＬＩＮＫ,,株式会社,東京都,新宿区,西新宿３丁目３－１３西新宿水間ビル６階,,13,104,1600023,,,,,,,2025-11-10,1,,,,,クローバーリンク,0
351,2011105011656,新規,0,2025-11-10,2025-11-10,司法書士法人アレス,,その他の設立登記法人,東京都,新宿区,西新宿７丁目１１番９号バルビゾン８７番館８階,,13,104,1600023,,,,,,,2025-11-10,1,,,,,アレス,0
352,2011201026764,新規,0,2025-11-10,2025-11-10,Ｔｒｉｐｌｅ‐Ｃ株式会社,,株式会社,東京都,中野区,沼袋２丁目１６番３号ハウスアローランド２０１,,13,114,1650025,,,,,,,2025-11-10,1,,,,,トリプルシー,0
356,2011301031029,新規,0,2025-11-10,2025-11-10,株式会社ＤＥ,,株式会社,東京都,杉並区,高井戸東４丁目１１番９号,,13,115,1680072,,,,,,,2025-11-10,1,,,,,ディーイー,0
364,2011601029152,新規,0,2025-11-10,2025-11-10,ＲＩＳＥ株式会社,,株式会社,東京都,練馬区,大泉学園町５丁目５番１５号,,13,120,1780061,,,,,,,2025-11-10,1,,,,,ライズ,0
368,2011701028913,新規,0,2025-11-10,2025-11-10,ＥＮ　Ｌｉｎｋ株式会社,,株式会社,東京都,江戸川区,北葛西２丁目１１－２,,13,123,1340081,,,,,,,2025-11-10,1,,,,,エンリンク,0
370,2012301014592,新規,0,2025-11-10,2025-11-10,株式会社電子創成舎,,株式会社,東京都,町田市,原町田４丁目１１－１３天野ビル４Ｆ,,13,209,1940013,,,,,,,2025-11-10,1,,,,,デンシソウセイシャ,0
371,2012303002240,新規,0,2025-11-10,2025-11-10,合同会社ソノオト,,合同会社,東京都,町田市,三輪緑山１丁目３３番地６,,13,209,1950055,,,,,,,2025-11-10,1,,,,,ソノオト,0
375,2012701019175,新規,0,2025-11-10,2025-11-10,株式会社Ｌｅｔｉｃｉａ,,株式会社,東京都,西東京市,ひばりが丘３丁目３番２２号三和ビル２Ｆ,,13,229,2020001,,,,,,,2025-11-10,1,,,,,レティシア,0
376,2012703003409,新規,0,2025-11-10,2025-11-10,合同会社つながり,,合同会社,東京都,東村山市,久米川町３丁目１０－４２タウンハウスＤ棟２号室,,13,213,1890003,,,,,,,2025-11-10,1,,,,,ツナガリ,0
387,2020001165697,新規,0,2025-11-10,2025-11-10,株式会社ＫＯＮＥ,,株式会社,神奈川県,横浜市西区,浅間町１丁目４番３号ウィザードビル４０２,,14,103,2200072,,,,,,,2025-11-10,1,,,,,ケーワン,0
391,2020003029735,新規,0,2025-11-10,2025-11-10,Ｆｒｅｅｆｏｒｍ合同会社,,合同会社,神奈川県,横浜市中区,本牧町１丁目１４９番地３,,14,104,2310806,,,,,,,2025-11-10,1,,,,,フリーフォーム,0
392,2020003029743,新規,0,2025-11-10,2025-11-10,合同会社エナジーキャピタル,,合同会社,神奈川県,川崎市中原区,市ノ坪４４９番地３シティタワー武蔵小杉３３０６,,14,133,2110016,,,,,,,2025-11-10,1,,,,,エナジーキャピタル,0
393,2020003029751,新規,0,2025-11-10,2025-11-10,合同会社Ｙ．Ｋエンタープライズ,,合同会社,神奈川県,横浜市鶴見区,鶴見中央１丁目２番４号ＧＳプラザ鶴見駅前地下１階,,14,101,2300051,,,,,,,2025-11-10,1,,,,,ワイドットケーエンタープライズ,0
407,2030001169268,新規,0,2025-11-10,2025-11-10,株式会社史進堂,,株式会社,埼玉県,和光市,下新倉３丁目１５－６６ハピネス和光３０２,,11,229,3510111,,,,,,,2025-11-10,1,,,,,シシンドウ,0
408,2030001169532,新規,0,2025-11-10,2025-11-10,株式会社フルライセンス,,株式会社,埼玉県,入間郡毛呂山町,若山２丁目１９番地６,,11,326,3500462,,,,,,,2025-11-10,1,,,,,フルライセンス,0
409,2030001169623,新規,0,2025-11-10,2025-11-10,株式会社Ｔ，ｓ,,株式会社,埼玉県,秩父市,柳田町２番３０号,,11,207,3680015,,,,,,,2025-11-10,1,,,,,ティーズ,0
414,2030003028034,新規,0,2025-11-10,2025-11-10,合同会社Ｎｏｒｓｕｎ　Ｖｉｌｌａｇｅ,,合同会社,埼玉県,さいたま市見沼区,東大宮５丁目２‐３メゾンアサヒ２０１,,11,104,3370051,,,,,,,2025-11-10,1,,,,,ノーサンビレッジ,0
415,2030003028042,新規,0,2025-11-10,2025-11-10,ＭＯＣ　Ｌａｂｓ合同会社,,合同会社,埼玉県,蓮田市,緑町２丁目９－９,,11,238,3490104,,,,,,,2025-11-10,1,,,,,エムオーシーラボ,0
416,2030003028050,新規,0,2025-11-10,2025-11-10,合同会社Ｇｒｅｅｎエナジー,,合同会社,埼玉県,所沢市,大字山口１０８３番地の４,,11,208,3591145,,,,,,,2025-11-10,1,,,,,グリーンエナジー,0
420,2040003028776,新規,0,2025-11-10,2025-11-10,ＤｉａｖｏｌｏＳ合同会社,,合同会社,千葉県,千葉市中央区,祐光２丁目６－９－１１０１,,12,101,2600007,,,,,,,2025-11-10,1,,,,,ディアボロス,0
421,2050001057561,新規,0,2025-11-10,2025-11-10,株式会社ＲＩＯ　ＪＡＰＡＮ,,株式会社,茨城県,下妻市,皆葉１６８６番地４,,08,210,3040822,,,,,,,2025-11-10,1,,,,,リオジャパン,0
422,2060001038742,新規,0,2025-11-10,2025-11-10,株式会社貴乃花商事,,株式会社,栃木県,鹿沼市,深程１６９２番地,,09,205,3220302,,,,,,,2025-11-10,1,,,,,タカノハナショウジ,0
430,2090001019599,新規,0,2025-11-10,2025-11-10,株式会社内藤カッター,,株式会社,山梨県,甲府市,太田町２７番２号,,19,201,4000865,,,,,,,2025-11-10,1,,,,,ナイトウカッター,0
433,2100001039100,新規,0,2025-11-10,2025-11-10,たおや堂株式会社,,株式会社,長野県,長野市,大字鶴賀２２１４番地１０,,20,201,3800907,,,,,,,2025-11-10,1,,,,,タオヤドウ,0
447,2120001281732,新規,0,2025-11-10,2025-11-10,億美株式会社,,株式会社,大阪府,大阪市中央区,瓦屋町３丁目７番２０号,,27,128,5420066,,,,,,,2025-11-10,1,,,,,オクビ,0
448,2120001281773,新規,0,2025-11-10,2025-11-10,株式会社ＥＭＢＬＥＭ,,株式会社,大阪府,大阪市大正区,平尾５丁目４番１１号,,27,108,5510012,,,,,,,2025-11-10,1,,,,,エンブレム,0
449,2120001281807,新規,0,2025-11-10,2025-11-10,前川情報通信システム株式会社,,株式会社,大阪府,大阪市港区,市岡１丁目１－１－１１０４,,27,107,5520012,,,,,,,2025-11-10,1,,,,,マエカワジョウホウツウシンシステム,0
450,2120001281815,新規,0,2025-11-10,2025-11-10,株式会社新谷組,,株式会社,大阪府,大阪市住之江区,泉１丁目２番５号,,27,125,5590023,,,,,,,2025-11-10,1,,,,,シンタニグミ,0
451,2120001281864,新規,0,2025-11-10,2025-11-10,株式会社万和管理,,株式会社,大阪府,大阪市中央区,久太郎町１丁目４番８号,,27,128,5410056,,,,,,,2025-11-10,1,,,,,マンワカンリ,0
454,2120101072750,新規,0,2025-11-10,2025-11-10,株式会社泉南マリン,,株式会社,大阪府,泉南市,岡田６丁目１－１６５９－７,,27,228,5900531,,,,,,,2025-11-10,1,,,,,センナンマリン,0
458,2120901051747,新規,0,2025-11-10,2025-11-10,株式会社チアフル,,株式会社,大阪府,箕面市,稲２丁目１１番１２号,,27,220,5620015,,,,,,,2025-11-10,1,,,,,チアフル,0
459,2120901051755,新規,0,2025-11-10,2025-11-10,株式会社パーシアス,,株式会社,大阪府,池田市,伏尾台３丁目８番地の９,,27,204,5630017,,,,,,,2025-11-10,1,,,,,パーシアス,0
470,2140001140663,新規,0,2025-11-10,2025-11-10,株式会社雅彩,,株式会社,兵庫県,神戸市西区,和井取１０番８号,,28,111,6512120,,,,,,,2025-11-10,1,,,,,ミヤビイロ,0
471,2140003022810,新規,0,2025-11-10,2025-11-10,合同会社飛章,,合同会社,兵庫県,神戸市垂水区,神陵台９丁目２番１８号,,28,108,6550041,,,,,,,2025-11-10,1,,,,,ヒショウ,0
476,2150001028528,新規,0,2025-11-10,2025-11-10,株式会社ＥＩＳＥＴＳＵ,,株式会社,奈良県,宇陀市,榛原長峯８０１番地の１,,29,212,6330203,,,,,,,2025-11-10,1,,,,,エイセツ,0
479,2160003003643,新規,0,2025-11-10,2025-11-10,合同会社三方良,,合同会社,滋賀県,大津市,比叡辻２丁目４－５,,25,201,5200104,,,,,,,2025-11-10,1,,,,,サンポウヨシ,0
484,2180001169328,新規,0,2025-11-10,2025-11-10,株式会社シーズンクリエイト,,株式会社,愛知県,名古屋市中区,門前町５－１１南大須アート会館,,23,106,4600018,,,,,,,2025-11-10,1,,,,,シーズンクリエイト,0
485,2180001169385,新規,0,2025-11-10,2025-11-10,株式会社ＧＬｉＭｕｔｈ,,株式会社,愛知県,東海市,中央町６丁目１５４番地の２,,23,222,4760013,,,,,,,2025-11-10,1,,,,,グリムート,0
503,2180301040386,新規,0,2025-11-10,2025-11-10,株式会社豚笑,,株式会社,愛知県,田原市,野田町坂下３０番地,,23,231,4413432,,,,,,,2025-11-10,1,,,,,トンショウ,0
515,2240005016008,新規,0,2025-11-10,2025-11-10,一般社団法人ＦＵＮ　ＡＣＡＤＥＭＹ,,その他の設立登記法人,広島県,広島市安佐南区,長束西５丁目１４番５号,,34,105,7310136,,,,,,,2025-11-10,1,,,,,ファンアカデミー,0
517,2250001021407,新規,0,2025-11-10,2025-11-10,Ｌｙａ株式会社,,株式会社,山口県,山口市,幸町一丁目３０番５号,,35,203,7530826,,,,,,,2025-11-10,1,,,,,リア,0
518,2250001021415,新規,0,2025-11-10,2025-11-10,渡壁建装株式会社,,株式会社,山口県,宇部市,川添２丁目１番１２号,,35,202,7550074,,,,,,,2025-11-10,1,,,,,ワタカベケンソウ,0
523,2260005011543,新規,0,2025-11-10,2025-11-10,一般社団法人岡山ガス共助会,,その他の設立登記法人,岡山県,岡山市中区,桜橋１丁目１番１号,,33,102,7038285,,,,,,,2025-11-10,1,,,,,オカヤマガスキョウジョカイ,0
537,2290001112152,新規,0,2025-11-10,2025-11-10,株式会社ケイム工業,,株式会社,福岡県,久留米市,三潴町高三潴１９３３番地１,,40,203,8300103,,,,,,,2025-11-10,1,,,,,ケイムコウギョウ,0
544,2300003002374,新規,0,2025-11-10,2025-11-10,ＴＡＲＯＳ　Ｉｎｎｏｖａｔｉｏｎ合同会社,,合同会社,佐賀県,佐賀市,鬼丸町１８番１８号コーポ園田１０４号,,41,201,8400021,,,,,,,2025-11-10,1,,,,,タローズイノベーション,0
545,2340001027766,新規,0,2025-11-10,2025-11-10,川俣電気株式会社,,株式会社,鹿児島県,霧島市,隼人町小田６２５番地１,,46,218,8995105,,,,,,,2025-11-10,1,,,,,カワマタデンキ,0
547,2340003005010,新規,0,2025-11-10,2025-11-10,合同会社ＶＥＧＥ＆ｍｅ,,合同会社,鹿児島県,鹿児島市,上荒田町８－１１ＶＩＰ甲南２Ｆ,,46,201,8900055,,,,,,,2025-11-10,1,,,,,ベジアンドミー,0
562,2370005011020,新規,0,2025-11-10,2025-11-10,泉本田町ガーデンヒルズ団地管理組合法人,,その他の設立登記法人,宮城県,仙台市泉区,本田町３３番２６号,,04,105,9813107,,,,,,,2025-11-10,1,,,,,イズミホンダチョウガーデンヒルズ,0
566,2380001035682,新規,0,2025-11-10,2025-11-10,株式会社ｕｔａｔｏ　ｃｒｅａｔｅ,,株式会社,福島県,郡山市,安積町日出山字大洲河原１５５番地の１,,07,203,9630101,,,,,,,2025-11-10,1,,,,,ウタトクリエイト,0
569,2380003006178,新規,0,2025-11-10,2025-11-10,合同会社ネクストイノベーション,,合同会社,福島県,会津若松市,湊町大字共和字上馬渡４２６番地,,07,202,9650202,,,,,,,2025-11-10,1,,,,,ネクストイノベーション,0
574,2430001095614,新規,0,2025-11-10,2025-11-10,株式会社上木屋,,株式会社,北海道,札幌市清田区,平岡一条４丁目５番２０号サンシティ平岡１１０号室,,01,110,0040871,,,,,,,2025-11-10,1,,,,,ウエキヤ,0
579,2440003001726,新規,0,2025-11-10,2025-11-10,合同会社ファインデイズバーガー,,合同会社,北海道,函館市,元町１４番１２－１０３号元町パークサイド,,01,202,0400054,,,,,,,2025-11-10,1,,,,,ファインデイズバーガー,0
585,2700150132396,新規,0,2025-11-10,2025-11-10,東莞市均泰塑＿五金製品有限公司,00141451,外国会社等,,,,,,,,東莞市鳳崗鎮金鳳凰工業区,,,,,,2025-11-10,1,,,,,トウカンシキンタイソコウゴキンセイヒンユウゲンコウシ,0
586,2700150132917,新規,0,2025-11-10,2025-11-10,花山手自治会,,その他,兵庫県,神戸市北区,花山中尾台３丁目１番１号,,28,109,6511202,,,,,,,2025-11-10,1,,,,,ハナヤマテジチカイ,0
592,3010001259895,新規,0,2025-11-10,2025-11-10,株式会社ＨＩＫＡＲＵ,,株式会社,東京都,中央区,晴海３丁目１３番２－１６１０号,,13,102,1040053,,,,,,,2025-11-10,1,,,,,ヒカル,0
593,3010001260028,新規,0,2025-11-10,2025-11-10,株式会社ｒｅａｌｉｚｅ,,株式会社,東京都,文京区,小石川２丁目２５番１２号,,13,105,1120002,,,,,,,2025-11-10,1,,,,,リアライズ,0
594,3010001260060,新規,0,2025-11-10,2025-11-10,ＪＰＡ第３６５号株式会社,,株式会社,東京都,千代田区,霞が関３丁目２番１号,,13,101,1000013,,,,,,,2025-11-10,1,,,,,ジェイピーエーダイサンビャクロクジュウゴゴウ,0
595,3010001260077,新規,0,2025-11-10,2025-11-10,筑波建設株式会社,,株式会社,東京都,千代田区,神田三崎町２丁目１０－１１（ｐｅｇビル）４Ｂ－４室,,13,101,1010061,,,,,,,2025-11-10,1,,,,,ツクバケンセツ,0
596,3010001260085,新規,0,2025-11-10,2025-11-10,しえんメンタルヘルスＬａｂ．株式会社,,株式会社,東京都,千代田区,四番町２番地１クレール東郷坂１Ｆ,,13,101,1020081,,,,,,,2025-11-10,1,,,,,シエンメンタルヘルスラボ,0
597,3010001260093,新規,0,2025-11-10,2025-11-10,ハレノヒハレ会計株式会社,,株式会社,東京都,千代田区,丸の内１丁目３番４号丸の内テラス４０５,,13,101,1000005,,,,,,,2025-11-10,1,,,,,ハレノヒハレカイケイ,0
598,3010001260151,新規,0,2025-11-10,2025-11-10,創拓株式会社,,株式会社,東京都,文京区,千石４丁目２６番２号サンサン千石第一ビル５０９,,13,105,1120011,,,,,,,2025-11-10,1,,,,,ソウタク,0
600,3010003049295,新規,0,2025-11-10,2025-11-10,合同会社ＧｒｅｅｎＦｉｔ,,合同会社,東京都,中央区,日本橋室町１丁目１１番１２号日本橋水野ビル７階,,13,102,1030022,,,,,,,2025-11-10,1,,,,,グリーンフィット,0
604,3010005040896,新規,0,2025-11-10,2025-11-10,一般社団法人正和トラスト,,その他の設立登記法人,東京都,中央区,日本橋馬喰町１丁目４番８号,,13,102,1030002,,,,,,,2025-11-10,1,,,,,セイワトラスト,0
610,3010401193876,新規,0,2025-11-10,2025-11-10,株式会社ＲｅＥｓｓｅｎｃｅ,,株式会社,東京都,港区,浜松町２丁目２番１５号浜松町ダイヤビル２Ｆ,,13,103,1050013,,,,,,,2025-11-10,1,,,,,リエッセンス,0
611,3010401194362,新規,0,2025-11-10,2025-11-10,ネクサイトキャピタル株式会社,,株式会社,東京都,港区,港南２丁目１６番１号品川イーストワンタワー４Ｆ,,13,103,1080075,,,,,,,2025-11-10,1,,,,,ネクサイトキャピタル,0
612,3010403036447,新規,0,2025-11-10,2025-11-10,ＣＳ群馬ＣＣＥＳＳ合同会社,,合同会社,東京都,港区,虎ノ門２丁目４番７号Ｔ－ＬＩＴＥ１３階,,13,103,1050001,,,,,,,2025-11-10,1,,,,,シーエスグンマシーシーイーエスエス,0
613,3010403036463,新規,0,2025-11-10,2025-11-10,鳳栄合同会社,,合同会社,東京都,港区,三田５丁目７－８、９１６,,13,103,1080073,,,,,,,2025-11-10,1,,,,,ホウエイ,0
618,3010501054994,新規,0,2025-11-10,2025-11-10,ツヴァイブリューダージャパン株式会社,,株式会社,東京都,台東区,池之端２丁目９番７号,,13,106,1100008,,,,,,,2025-11-10,1,,,,,ツヴァイブリューダージャパン,0
623,3010701048557,新規,0,2025-11-10,2025-11-10,株式会社はじめ,,株式会社,東京都,品川区,南大井５丁目１１－１３大森永谷マンション６１３号,,13,109,1400013,,,,,,,2025-11-10,1,,,,,ハジメ,0
626,3010801036759,新規,0,2025-11-10,2025-11-10,株式会社源長,,株式会社,東京都,大田区,蒲田１丁目２６番６号,,13,111,1440052,,,,,,,2025-11-10,1,,,,,ゲンチョウ,0
628,3010901058406,新規,0,2025-11-10,2025-11-10,株式会社採用部長,,株式会社,東京都,世田谷区,松原１丁目４３－４リブスペース明大前２０３,,13,112,1560043,,,,,,,2025-11-10,1,,,,,サイヨウブチョウ,0
631,3011001173401,新規,0,2025-11-10,2025-11-10,株式会社ＡＩ　Ｎａｔｉｖｅ,,株式会社,東京都,渋谷区,円山町５番３号ＭＩＥＵＸ渋谷ビル８階,,13,113,1500044,,,,,,,2025-11-10,1,,,,,エーアイネイティブ,0
632,3011001173525,新規,0,2025-11-10,2025-11-10,ヒルミックス株式会社,,株式会社,東京都,渋谷区,広尾５丁目２番１４号,,13,113,1500012,,,,,,,2025-11-10,1,,,,,ヒルミックス,0
633,3011001173673,新規,0,2025-11-10,2025-11-10,株式会社ＵＫ,,株式会社,東京都,渋谷区,神泉町１０番１５号アネックス神泉３０１,,13,113,1500045,,,,,,,2025-11-10,1,,,,,ユーケー,0
638,3011003022845,新規,0,2025-11-10,2025-11-10,合同会社オルテンシア,,合同会社,東京都,渋谷区,広尾４丁目１番２７号,,13,113,1500012,,,,,,,2025-11-10,1,,,,,オルテンシア,0
639,3011003022928,新規,0,2025-11-10,2025-11-10,合同会社ノラハコ,,合同会社,東京都,渋谷区,円山町５番３号ＭＩＥＵＸ渋谷ビル８階,,13,113,1500044,,,,,,,2025-11-10,1,,,,,ノラハコ,0
642,3011101113802,新規,0,2025-11-10,2025-11-10,株式会社ｍｏｔ,,株式会社,東京都,新宿区,西新宿３丁目１３－３西新宿水間ビル６Ｆ,,13,104,1600023,,,,,,,2025-11-10,1,,,,,モート,0
643,3011101113819,新規,0,2025-11-10,2025-11-10,株式会社ＹＥＳ　ＥＳＴＡＴＥ,,株式会社,東京都,新宿区,西新宿４丁目３１番３－８０４号,,13,104,1600023,,,,,,,2025-11-10,1,,,,,イエスエステート,0
645,3011103016615,新規,0,2025-11-10,2025-11-10,合同会社カジュアルコネクト,,合同会社,東京都,新宿区,西新宿７丁目１０－１７ダンカンプラザＢ館３０４,,13,104,1600023,,,,,,,2025-11-10,1,,,,,カジュアルコネクト,0
646,3011103016680,新規,0,2025-11-10,2025-11-10,Ｅａｓｙ　Ｊａｍ　Ｌｉｆｅ合同会社,,合同会社,東京都,新宿区,西新宿３丁目３番１３号西新宿水間ビル２Ｆ,,13,104,1600023,,,,,,,2025-11-10,1,,,,,イージージャムライフ,0
653,3011403004930,新規,0,2025-11-10,2025-11-10,日本人材紹介合同会社,,合同会社,東京都,板橋区,蓮根３丁目２６番１２－３３６号,,13,119,1740046,,,,,,,2025-11-10,1,,,,,,0
668,3012701019174,新規,0,2025-11-10,2025-11-10,エムアイサポート株式会社,,株式会社,東京都,東村山市,富士見町１丁目１２番地２ヴィラージュ・ヴェール５－１００５,,13,213,1890024,,,,,,,2025-11-10,1,,,,,エムアイサポート,0
670,3012703003408,新規,0,2025-11-10,2025-11-10,合同会社ＸＹＺ,,合同会社,東京都,東村山市,栄町２丁目１８番地３カクチビルＢ１ＦＡ,,13,213,1890013,,,,,,,2025-11-10,1,,,,,エックスワイゼット,0
675,3020001165738,新規,0,2025-11-10,2025-11-10,株式会社ケイテックインベストメント,,株式会社,神奈川県,横浜市戸塚区,川上町９０番地６,,14,110,2440805,,,,,,,2025-11-10,1,,,,,ケイテックインベストメント,0
676,3020001165746,新規,0,2025-11-10,2025-11-10,株式会社インセイン,,株式会社,神奈川県,横浜市都筑区,仲町台３丁目１２番２－１０９号,,14,118,2240041,,,,,,,2025-11-10,1,,,,,インセイン,0
681,3020003029692,新規,0,2025-11-10,2025-11-10,ＨＯＬＤＭＥ　ＪＡＰＡＮ合同会社,,合同会社,神奈川県,川崎市宮前区,初山１丁目３０番８５号,,14,136,2160026,,,,,,,2025-11-10,1,,,,,ホールドミージャパン,0
682,3020003029701,新規,0,2025-11-10,2025-11-10,合同会社宗太ＳＯＴＡ,,合同会社,神奈川県,川崎市高津区,向ケ丘１６６－１１メゾンドリッシュＤ,,14,134,2130035,,,,,,,2025-11-10,1,,,,,ソウタ,0
683,3020003029750,新規,0,2025-11-10,2025-11-10,合同会社アプティ,,合同会社,神奈川県,横浜市港北区,高田西１丁目６番２１－３１０号,,14,109,2230066,,,,,,,2025-11-10,1,,,,,アプティ,0
684,3020005017027,新規,0,2025-11-10,2025-11-10,一般財団法人山本昭一繊維加工記念館,,その他の設立登記法人,神奈川県,横浜市神奈川区,三ツ沢上町２番地２３,,14,102,2210856,,,,,,,2025-11-10,1,,,,,ヤマモトアキカズセンイカコウキネンカン,0
695,3030001169556,新規,0,2025-11-10,2025-11-10,株式会社Ｋｅｙ,,株式会社,埼玉県,さいたま市大宮区,仲町３丁目４６番地,,11,103,3300845,,,,,,,2025-11-10,1,,,,,キー,0
696,3030001169564,新規,0,2025-11-10,2025-11-10,株式会社吉祥,,株式会社,埼玉県,所沢市,大字松郷１４２番地の１,,11,208,3590027,,,,,,,2025-11-10,1,,,,,キッショウ,0
697,3030001169589,新規,0,2025-11-10,2025-11-10,タイヨウ防災設備株式会社,,株式会社,埼玉県,吉川市,高久２丁目１番地１アルブル２０３号室,,11,243,3420035,,,,,,,2025-11-10,1,,,,,タイヨウボウサイセツビ,0
700,3030003028017,新規,0,2025-11-10,2025-11-10,合同会社Ｍｅｌｏｖｉｖｏ,,合同会社,埼玉県,川口市,元郷５丁目９番２３号,,11,203,3320011,,,,,,,2025-11-10,1,,,,,メロヴィーヴォ,0
701,3030005022331,新規,0,2025-11-10,2025-11-10,一般社団法人つなぐ,,その他の設立登記法人,埼玉県,越谷市,大字南荻島４１９６番地６,,11,222,3430804,,,,,,,2025-11-10,1,,,,,ツナグ,0
704,3040003028924,新規,0,2025-11-10,2025-11-10,ＳＯＵＬＮＯＶＡ合同会社,,合同会社,千葉県,市川市,八幡５丁目７番１８号,,12,203,2720021,,,,,,,2025-11-10,1,,,,,ソウルノヴァ,0
708,3050001057569,新規,0,2025-11-10,2025-11-10,株式会社ＲＥＩＺ　ＡＲＴ,,株式会社,茨城県,土浦市,中村南６丁目１番１３－２号,,08,203,3000843,,,,,,,2025-11-10,1,,,,,ライツアート,0
710,3050003009733,新規,0,2025-11-10,2025-11-10,合同会社ｂ‐ｆｌａｔ,,合同会社,茨城県,つくば市,春日３丁目５番１２号アメニティＫＡＳＵＧＡ２０３号,,08,220,3050821,,,,,,,2025-11-10,1,,,,,ビーフラット,0
714,3080403005379,新規,0,2025-11-10,2025-11-10,合同会社ＣＵＢＥ,,合同会社,静岡県,浜松市中央区,有玉南町１８６７‐１,,22,138,4313122,,,,,,,2025-11-10,1,,,,,キューブ,0
715,3090001019598,新規,0,2025-11-10,2025-11-10,株式会社ｂｅｆｉｎｅ,,株式会社,山梨県,甲府市,丸の内２丁目１０番１６号,,19,201,4000031,,,,,,,2025-11-10,1,,,,,ビーファイン,0
739,3120001280948,新規,0,2025-11-10,2025-11-10,星火株式会社,,株式会社,大阪府,大阪市北区,東天満２丁目２－５第２新興ビル７０３室,,27,127,5300044,,,,,,,2025-11-10,1,,,,,セイカ,0
740,3120001281310,新規,0,2025-11-10,2025-11-10,株式会社ＭＩＲＡＩＺ・２,,株式会社,大阪府,大阪市北区,浪花町１２番２１号,,27,127,5300022,,,,,,,2025-11-10,1,,,,,ミライズツー,0
741,3120001281772,新規,0,2025-11-10,2025-11-10,株式会社Ｖｉｒｓ,,株式会社,大阪府,大阪市淀川区,十八条２丁目１０番４３号セントアンビエラ２階,,27,123,5320001,,,,,,,2025-11-10,1,,,,,ヴィルス,0
742,3120001281789,新規,0,2025-11-10,2025-11-10,株式会社Ｃ‐Ｂｒｉｄｇｅ,,株式会社,大阪府,大阪市中央区,南本町３丁目２番１１号日幸ビル２階Ａ号室,,27,128,5410054,,,,,,,2025-11-10,1,,,,,シーブリッジ,0
743,3120001281839,新規,0,2025-11-10,2025-11-10,株式会社ＡＲＩＡ,,株式会社,大阪府,大阪市西区,南堀江２丁目１０番１５－１５０４号,,27,106,5500015,,,,,,,2025-11-10,1,,,,,アリア,0
750,3120005025234,新規,0,2025-11-10,2025-11-10,一般社団法人神戸三宮スポーツクラブ,,その他の設立登記法人,大阪府,大阪市生野区,巽西４丁目２番１４号ミルキーウェイ２０５,00141441,27,116,5440012,,,,,,,2025-11-10,1,,,,,コウベサンノミヤスポーツクラブ,0
751,3120101072733,新規,0,2025-11-10,2025-11-10,株式会社Ｇｒｏｗｔｈ,,株式会社,大阪府,岸和田市,田治米町６２８番地の７,,27,202,5960805,,,,,,,2025-11-10,1,,,,,グロース,0
753,3120103006838,新規,0,2025-11-10,2025-11-10,合同会社Ｎパワー３号,,合同会社,大阪府,泉佐野市,貝田町１丁目１８番６号２０３号室,,27,213,5980076,,,,,,,2025-11-10,1,,,,,エヌパワーサンゴウ,0
756,3120901051754,新規,0,2025-11-10,2025-11-10,株式会社結陽,,株式会社,大阪府,豊中市,夕日丘２丁目１２番４号ヴィラ夕日丘１０２号,,27,203,5610864,,,,,,,2025-11-10,1,,,,,ユウヒ,0
758,3122001039861,新規,0,2025-11-10,2025-11-10,株式会社川中Ｈｏｌｄｉｎｇｓ,,株式会社,大阪府,大東市,御領４丁目３番２号,,27,218,5740064,,,,,,,2025-11-10,1,,,,,カワナカホールディングス,0
759,3122001039886,新規,0,2025-11-10,2025-11-10,株式会社ＫＴＰ,,株式会社,大阪府,東大阪市,吉田本町３丁目１４番６号,,27,227,5780982,,,,,,,2025-11-10,1,,,,,ケーティーピー,0
763,3130001080967,新規,0,2025-11-10,2025-11-10,株式会社なごみリンク,,株式会社,京都府,城陽市,寺田水度坂１５番地の９プレサンスロジェ京都城陽２０４号,,26,207,6100121,,,,,,,2025-11-10,1,,,,,ナゴミリンク,0
771,3140001140638,新規,0,2025-11-10,2025-11-10,株式会社福,,株式会社,兵庫県,神戸市兵庫区,東山町１丁目１番１４号２Ｆ,,28,105,6520042,,,,,,,2025-11-10,1,,,,,フク,0
772,3140001140670,新規,0,2025-11-10,2025-11-10,株式会社奥広,,株式会社,兵庫県,神戸市中央区,三宮町２丁目１０番２１－２号,,28,110,6500021,,,,,,,2025-11-10,1,,,,,オクヒロ,0
778,3150005009738,新規,0,2025-11-10,2025-11-10,特定非営利活動法人ささえ,,その他の設立登記法人,奈良県,奈良市,六条西１丁目４番４６－６号,,29,201,6308044,,,,,,,2025-11-10,1,,,,,ササエ,0
788,3180003029339,新規,0,2025-11-10,2025-11-10,合同会社モトヤマデンタルパートナーズ,,合同会社,愛知県,名古屋市千種区,東山通１丁目１０番地の１,,23,101,4640807,,,,,,,2025-11-10,1,,,,,モトヤマデンタルパートナーズ,0
789,3180301040393,新規,0,2025-11-10,2025-11-10,株式会社ルナル,,株式会社,愛知県,安城市,和泉町中根山２３番地３,,23,212,4441221,,,,,,,2025-11-10,1,,,,,ルナル,0
793,3190001032665,新規,0,2025-11-10,2025-11-10,株式会社イクエイション,,株式会社,三重県,伊勢市,二見町山田原６９番地２２,,24,203,5190604,,,,,,,2025-11-10,1,,,,,イクエイション,0
794,3200001044411,新規,0,2025-11-10,2025-11-10,株式会社アルナレ,,株式会社,岐阜県,岐阜市,茜部大野２丁目１１４番地１ネオフルール２０１号室,,21,201,5008261,,,,,,,2025-11-10,1,,,,,アルナレ,0
796,3200003007127,新規,0,2025-11-10,2025-11-10,合同会社ＥｆｏｒＲエステート,,合同会社,岐阜県,美濃加茂市,中富町１丁目１番３号,,21,211,5050033,,,,,,,2025-11-10,1,,,,,イーフォアアールエステート,0
814,3240001065750,新規,0,2025-11-10,2025-11-10,Ｎｅｘｔ　Ｇｒｉｄ株式会社,,株式会社,広島県,福山市,沼隈町大字常石１０８３番地,,34,207,7200313,,,,,,,2025-11-10,1,,,,,ネクストグリッド,0
825,3290001112135,新規,0,2025-11-10,2025-11-10,株式会社Ｆ．ＬＡＢ,,株式会社,福岡県,福岡市東区,香椎駅前２丁目１２番４０号ＴＳビル２Ｆ,,40,131,8130013,,,,,,,2025-11-10,1,,,,,エフラボ,0
831,3290003017662,新規,0,2025-11-10,2025-11-10,合同会社ｓｅｌｆｌｏｖｅ,,合同会社,福岡県,福岡市西区,愛宕浜２丁目３－１１リベーラガーデンオーシャンウィング１２０１,,40,135,8190013,,,,,,,2025-11-10,1,,,,,セルフラブ,0
837,3290803005206,新規,0,2025-11-10,2025-11-10,合同会社雄亜,,合同会社,福岡県,田川郡香春町,大字中津原１５６６番地４,,40,601,8221405,,,,,,,2025-11-10,1,,,,,ユウア,0
857,3360001036005,新規,0,2025-11-10,2025-11-10,ＨＡＮＡＭＩＩ株式会社,,株式会社,沖縄県,名護市,字宇茂佐４２８－２４,,47,209,9050006,,,,,,,2025-11-10,1,,,,,ハナミー,0
863,3370001053222,新規,0,2025-11-10,2025-11-10,株式会社Ｃｕｄｄｌｅ　Ｐｌａｎｎｉｎｇ,,株式会社,宮城県,仙台市青葉区,八幡５丁目６－５－６０５,,04,101,9800871,,,,,,,2025-11-10,1,,,,,カドルプランニング,0
871,3380001035681,新規,0,2025-11-10,2025-11-10,株式会社ＧＲＯＵＳＥ,,株式会社,福島県,郡山市,駅前２丁目７－１６第３増子ビル１Ｆ,,07,203,9638002,,,,,,,2025-11-10,1,,,,,グラウス,0
875,3380003006177,新規,0,2025-11-10,2025-11-10,美創合同会社,,合同会社,福島県,会津若松市,館馬町８番２０号市営住宅１棟７号,,07,202,9650835,,,,,,,2025-11-10,1,,,,,ビソウ,0
887,3430001095605,新規,0,2025-11-10,2025-11-10,日吉ホールディングス株式会社,,株式会社,北海道,札幌市白石区,菊水元町八条１丁目１３番２８号,,01,104,0030828,,,,,,,2025-11-10,1,,,,,ヒヨシホールディングス,0
890,3450001014769,新規,0,2025-11-10,2025-11-10,株式会社角谷呉服店,,株式会社,北海道,天塩郡幌延町,三条南１丁目１番地,,01,520,0983213,,,,,,,2025-11-10,1,,,,,カドヤゴフクテン,0
891,3450001014785,新規,0,2025-11-10,2025-11-10,株式会社やまに地所,,株式会社,北海道,富良野市,朝日町１３番６号,,01,229,0760026,,,,,,,2025-11-10,1,,,,,ヤマニジショ,0
894,3470001020971,新規,0,2025-11-10,2025-11-10,株式会社Ｃｏｎｎｅｃｔ,,株式会社,香川県,高松市,田村町２２２番地３,,37,201,7618057,,,,,,,2025-11-10,1,,,,,コネクト,0
897,3480001013000,新規,0,2025-11-10,2025-11-10,株式会社水都自動車商会,,株式会社,徳島県,徳島市,北山町船附３３番地の１,,36,201,7708032,,,,,,,2025-11-10,1,,,,,スイトジドウシャショウカイ,0
901,3700150132916,新規,0,2025-11-10,2025-11-10,中山市富鴻迪科技有限公司,,外国会社等,,,,,,,,中山市横欄鎮永興北路１号之一第１幢首層５＿,00141450,,,,,2025-11-10,1,,,,,チユウザンシフコウテキカギユウゲンコウシ,0
908,4010001260019,新規,0,2025-11-10,2025-11-10,株式会社Ｖ軽井沢,,株式会社,東京都,千代田区,富士見２丁目１０番２号,,13,101,1020071,,,,,,,2025-11-10,1,,,,,ブイカルイザワ,0
909,4010001260027,新規,0,2025-11-10,2025-11-10,株式会社イー・クリエイト・ユーバー・エージェンシー,,株式会社,東京都,千代田区,内幸町１丁目３番１号幸ビルディング９階,,13,101,1000011,,,,,,,2025-11-10,1,,,,,イークリエイトユーバーエージェンシー,0
910,4010001260035,新規,0,2025-11-10,2025-11-10,株式会社ミツウロコアグリ,,株式会社,東京都,中央区,京橋３丁目１番１号,,13,102,1040031,,,,,,,2025-11-10,1,,,,,ミツウロコアグリ,0
911,4010001260092,新規,0,2025-11-10,2025-11-10,株式会社Ｂｏ‐ｃｈｉｌａ,,株式会社,東京都,中央区,銀座１丁目１２番４号Ｎ＆ＥＢＬＤ．６Ｆ,,13,102,1040061,,,,,,,2025-11-10,1,,,,,ボーチラ,0
912,4010001260134,新規,0,2025-11-10,2025-11-10,株式会社Ｗａｋｕｔｓｕｋｕ,,株式会社,東京都,中央区,銀座７丁目１３番６号サガミビル２階,,13,102,1040061,,,,,,,2025-11-10,1,,,,,ワクツク,0
913,4010001260159,新規,0,2025-11-10,2025-11-10,株式会社Ｊａｐａｎ　Ｖｅｔｅｒｉｎａｒｙ　Ｎｅｘｕｓ,,株式会社,東京都,千代田区,丸の内１丁目９番２号,,13,101,1000005,,,,,,,2025-11-10,1,,,,,ジャパンヴェテリナリーネクサス,0
914,4010003049286,新規,0,2025-11-10,2025-11-10,末廣合同会社,,合同会社,東京都,文京区,本郷５丁目１－１１ＫＩＩＨＯＵＳＥ（キーハウス）２０２,,13,105,1130033,,,,,,,2025-11-10,1,,,,,スエヒロ,0
916,4010005040912,新規,0,2025-11-10,2025-11-10,一般社団法人アメジスト,,その他の設立登記法人,東京都,千代田区,二番町３番地麹町スクエア株式会社シリウス・アドバイザリー内,,13,101,1020084,,,,,,,2025-11-10,1,,,,,アメジスト,0
917,4010005040920,新規,0,2025-11-10,2025-11-10,一般社団法人エスエフシー,,その他の設立登記法人,東京都,千代田区,霞が関３丁目２番５号,,13,101,1000013,,,,,,,2025-11-10,1,,,,,エスエフシー,0
919,4010101016956,新規,0,2025-11-10,2025-11-10,株式会社ＨＡＳＥＡ,,株式会社,東京都,八王子市,松が谷５２番地６－４０４,,13,201,1920354,,,,,,,2025-11-10,1,,,,,ハセア,0
921,4010401194403,新規,0,2025-11-10,2025-11-10,ＳＨＩＮＡＳ株式会社,,株式会社,東京都,港区,三田２丁目１４番７－２０４号ローレル三田,,13,103,1080073,,,,,,,2025-11-10,1,,,,,シナズ,0
922,4010403036561,新規,0,2025-11-10,2025-11-10,Ｅｎｉｓｈｉ　Ｋｙｏｔｏ　Ｎｉｊｏ合同会社,,合同会社,東京都,港区,虎ノ門５丁目１番４号,,13,103,1050001,,,,,,,2025-11-10,1,,,,,エニシキョウトニジョウ,0
924,4010405025001,新規,0,2025-11-10,2025-11-10,一般社団法人バテリア恵庭,,その他の設立登記法人,東京都,港区,虎ノ門５丁目３番２０号株式会社アカウンティング・マネジメント・サービス内,,13,103,1050001,,,,,,,2025-11-10,1,,,,,バテリアエニワ,0
926,4010701048564,新規,0,2025-11-10,2025-11-10,株式会社新カキガラ商事,,株式会社,東京都,品川区,大崎３丁目６番２１－５０３号,,13,109,1410032,,,,,,,2025-11-10,1,,,,,シンカキガラショウジ,0
936,4011001173301,新規,0,2025-11-10,2025-11-10,株式会社Ａプロダクツ,,株式会社,東京都,渋谷区,道玄坂１丁目１０番８号,,13,113,1500043,,,,,,,2025-11-10,1,,,,,エープロダクツ,0
937,4011001173400,新規,0,2025-11-10,2025-11-10,株式会社ターズ,,株式会社,東京都,渋谷区,富ヶ谷２丁目４番１号,,13,113,1510063,,,,,,,2025-11-10,1,,,,,ターズ,0
938,4011003022836,新規,0,2025-11-10,2025-11-10,リーフエナジー合同会社,,合同会社,東京都,渋谷区,道玄坂１丁目１０番８号道玄坂東急ビル２Ｆ－Ｃ,,13,113,1500043,,,,,,,2025-11-10,1,,,,,リーフエナジー,0
939,4011003022927,新規,0,2025-11-10,2025-11-10,合同会社ヤード,,合同会社,東京都,渋谷区,千駄ヶ谷３丁目３－１６－２０５,,13,113,1510051,,,,,,,2025-11-10,1,,,,,ヤード,0
940,4011003022943,新規,0,2025-11-10,2025-11-10,合同会社Ｏｆｆｉｃｅ　ＺＥＲＯ,,合同会社,東京都,渋谷区,南平台町５番１２号,,13,113,1500036,,,,,,,2025-11-10,1,,,,,オフィスゼロ,0
941,4011005011259,新規,0,2025-11-10,2025-11-10,一般社団法人Ｔｉｇｅｒ,,その他の設立登記法人,東京都,渋谷区,神宮前１丁目５番８号,,13,113,1500001,,,,,,,2025-11-10,1,,,,,タイガー,0
944,4011201026762,新規,0,2025-11-10,2025-11-10,株式会社ヴィンカ,,株式会社,東京都,中野区,中央３丁目１２番１５号,,13,114,1640011,,,,,,,2025-11-10,1,,,,,ヴィンカ,0
945,4011301031027,新規,0,2025-11-10,2025-11-10,株式会社マルヘイ商店,,株式会社,東京都,杉並区,天沼３丁目３６番１１号,,13,115,1670032,,,,,,,2025-11-10,1,,,,,マルヘイショウテン,0
948,4011401027552,新規,0,2025-11-10,2025-11-10,株式会社Ｌｉｌ,,株式会社,東京都,板橋区,大山町３３番１号,,13,119,1730023,,,,,,,2025-11-10,1,,,,,リル,0
953,4011801046994,新規,0,2025-11-10,2025-11-10,株式会社ＬＥＯ建築設計事務所,,株式会社,東京都,足立区,青井３丁目１６番４号,,13,121,1200012,,,,,,,2025-11-10,1,,,,,レオケンチクセッケイジムショ,0
956,4012401043787,新規,0,2025-11-10,2025-11-10,株式会社Ｆｅｗ,,株式会社,東京都,調布市,国領町１丁目４番地３コーポエバーグリーン２０３,,13,208,1820022,,,,,,,2025-11-10,1,,,,,フュー,0
958,4012701019173,新規,0,2025-11-10,2025-11-10,株式会社楽悠遊,,株式会社,東京都,西東京市,保谷町６丁目２５番８号ドルフ保谷本町３Ｆ,,13,229,2020015,,,,,,,2025-11-10,1,,,,,ラクユウユウ,0
970,4020001165687,新規,0,2025-11-10,2025-11-10,ＲａｄｏＮｅｔ株式会社,,株式会社,神奈川県,横浜市中区,花咲町１丁目４ベルメゾン桜木４１５,,14,104,2310063,,,,,,,2025-11-10,1,,,,,ラドネット,0
971,4020001165729,新規,0,2025-11-10,2025-11-10,株式会社支保,,株式会社,神奈川県,横浜市神奈川区,七島町６番地１４アムール横浜２０３号,,14,102,2210061,,,,,,,2025-11-10,1,,,,,シホ,0
972,4020001165737,新規,0,2025-11-10,2025-11-10,アンジェ百合丘株式会社,,株式会社,神奈川県,川崎市麻生区,百合丘１丁目１８番地９,,14,137,2150011,,,,,,,2025-11-10,1,,,,,アンジェユリガオカ,0
985,4030001169506,新規,0,2025-11-10,2025-11-10,株式会社ティーズ・ブレーン,,株式会社,埼玉県,ふじみ野市,福岡中央２丁目１１番１８号,,11,245,3560031,,,,,,,2025-11-10,1,,,,,ティーズブレーン,0
986,4030001169555,新規,0,2025-11-10,2025-11-10,株式会社ガンバードアップ,,株式会社,埼玉県,川口市,並木３丁目７－１グレースマンションＩＩ２０９,00141453,11,203,3320034,,,,,,,2025-11-10,1,,,,,ガンバードアップ,0
987,4030001169588,新規,0,2025-11-10,2025-11-10,株式会社ＡＩＲＴＥＸ,,株式会社,埼玉県,春日部市,藤塚７７１番地１６,,11,214,3440011,,,,,,,2025-11-10,1,,,,,エアテックス,0
988,4030001169605,新規,0,2025-11-10,2025-11-10,未来プラント株式会社,,株式会社,埼玉県,川口市,大字安行北谷６６８番地の４ボナールＡ２０２号,,11,203,3340054,,,,,,,2025-11-10,1,,,,,ミライプラント,0
989,4030001169621,新規,0,2025-11-10,2025-11-10,ＨＭＡ国際株式会社,,株式会社,埼玉県,入間市,下藤沢４丁目５番地５エクシード藤沢３０２,,11,225,3580011,,,,,,,2025-11-10,1,,,,,エイチエムエーコクサイ,0
994,4030003028024,新規,0,2025-11-10,2025-11-10,紫誠綜業合同会社,,合同会社,埼玉県,八潮市,大字木曽根１３３２番地１１,,11,234,3400813,,,,,,,2025-11-10,1,,,,,シセイソウギョウ,0
1002,4040001141265,新規,0,2025-11-10,2025-11-10,株式会社フォレスト不動産,,株式会社,千葉県,木更津市,東太田３丁目９番２９号,,12,206,2920043,,,,,,,2025-11-10,1,,,,,フォレストフドウサン,0
1007,4040003028923,新規,0,2025-11-10,2025-11-10,合同会社Ｔｅｒｒａｆｕｎ,,合同会社,千葉県,千葉市美浜区,若葉３丁目１番地１幕張ベイパークスカイグランドタワー３１０７号,,12,106,2610014,,,,,,,2025-11-10,1,,,,,テラファン,0
1009,4050001057576,新規,0,2025-11-10,2025-11-10,株式会社ＦＩＶＥ　ＯＣＥＡＮ,,株式会社,茨城県,ひたちなか市,湊本町５２１７番地７,,08,221,3111221,,,,,,,2025-11-10,1,,,,,ファイブオーシャン,0
1012,4060001038749,新規,0,2025-11-10,2025-11-10,ＳＦＫＴ００６株式会社,,株式会社,栃木県,栃木市,藤岡町藤岡５１７番地,,09,203,3231104,,,,,,,2025-11-10,1,,,,,エスエフケイティーゼロゼロロク,0
1017,4070003006182,新規,0,2025-11-10,2025-11-10,ＭＵＳＡ　ＧＩＬＬ　ＴＲＡＤＩＮＧ合同会社,,合同会社,群馬県,前橋市,若宮町４丁目１９－２トマルコーポ２０３号室,,10,201,3710032,,,,,,,2025-11-10,1,,,,,,0
1021,4100001039098,新規,0,2025-11-10,2025-11-10,株式会社ブンイチ,,株式会社,長野県,小諸市,大字滋野甲７７０番地１２,,20,208,3840809,,,,,,,2025-11-10,1,,,,,ブンイチ,0
1045,4120001281557,新規,0,2025-11-10,2025-11-10,株式会社ＢＵＹＯＮ,,株式会社,大阪府,大阪市中央区,農人橋１丁目４番３１－６Ｂ,,27,128,5400011,,,,,,,2025-11-10,1,,,,,バイオン,0
1046,4120001281714,新規,0,2025-11-10,2025-11-10,Ｆ‐Ｌａｒｉｅ株式会社,,株式会社,大阪府,大阪市福島区,福島１丁目４番４－２Ａ号,,27,103,5530003,,,,,,,2025-11-10,1,,,,,フラリエ,0
1047,4120001281796,新規,0,2025-11-10,2025-11-10,株式会社北浜ファイナンスデザイン,,株式会社,大阪府,大阪市中央区,今橋２丁目２番１１－３０２号,,27,128,5410042,,,,,,,2025-11-10,1,,,,,キタハマファイナンスデザイン,0
1048,4120001281805,新規,0,2025-11-10,2025-11-10,株式会社ＵＣネットテクノロジー,,株式会社,大阪府,大阪市西区,靱本町３丁目９－９奥内第２ビル５０７号室,,27,106,5500004,,,,,,,2025-11-10,1,,,,,ユーシーネットテクノロジー,0
1049,4120001281838,新規,0,2025-11-10,2025-11-10,九域株式会社,,株式会社,大阪府,大阪市中央区,南船場１丁目１０番１６号長堀橋シティハイツ４０４号,,27,128,5420081,,,,,,,2025-11-10,1,,,,,クイキ,0
1050,4120001281887,新規,0,2025-11-10,2025-11-10,株式会社篇々,,株式会社,大阪府,大阪市福島区,鷺洲５丁目６‐４１‐２０１,,27,103,5530002,,,,,,,2025-11-10,1,,,,,ヘンペン,0
1054,4120101072740,新規,0,2025-11-10,2025-11-10,株式会社ＡＳＣＥＮＤ,,株式会社,大阪府,泉佐野市,鶴原３丁目７番２３号,,27,213,5980071,,,,,,,2025-11-10,1,,,,,アセンド,0
1055,4120101072773,新規,0,2025-11-10,2025-11-10,株式会社ポエムウエスト,,株式会社,大阪府,堺市西区,鳳西町１丁８８番地１吉祥８８Ｃ号室,,27,144,5938326,,,,,,,2025-11-10,1,,,,,ポエムウエスト,0
1056,4120103006837,新規,0,2025-11-10,2025-11-10,合同会社Ｎパワー２号,,合同会社,大阪府,泉佐野市,貝田町１丁目１８番６号２０２号室,,27,213,5980076,,,,,,,2025-11-10,1,,,,,エヌパワーニゴウ,0
1058,4120901051753,新規,0,2025-11-10,2025-11-10,株式会社Ｗｅｂおかん,,株式会社,大阪府,吹田市,寿町１丁目１１番１５号,,27,205,5640036,,,,,,,2025-11-10,1,,,,,ウェブオカン,0
1061,4122001039860,新規,0,2025-11-10,2025-11-10,株式会社碧い海,,株式会社,大阪府,東大阪市,森河内西２丁目９番２３号,,27,227,5770061,,,,,,,2025-11-10,1,,,,,アオイウミ,0
1062,4122003003377,新規,0,2025-11-10,2025-11-10,合同会社Ｓｔｅｌｌａ,,合同会社,大阪府,東大阪市,楠根３丁目１４番６号グランドールＫ４０６号,,27,227,5770006,,,,,,,2025-11-10,1,,,,,ステラ,0
1066,4130001081007,新規,0,2025-11-10,2025-11-10,株式会社安寿興産,,株式会社,京都府,綴喜郡宇治田原町,大字岩山小字口浄戸２２番地１,,26,344,6100261,,,,,,,2025-11-10,1,,,,,アンジュコウサン,0
1067,4130003010921,新規,0,2025-11-10,2025-11-10,合同会社ＮＩＳＯＥ,,合同会社,京都府,京都市上京区,新烏丸通下切通シ上る新烏丸頭町１８０番地グラスド御所２０８,,26,102,6020861,,,,,,,2025-11-10,1,,,,,ニソエ,0
1073,4160001027196,新規,0,2025-11-10,2025-11-10,株式会社ＯＧＵＬＩＮＥ,,株式会社,滋賀県,守山市,播磨田町１８３７番地の２,,25,207,5240012,,,,,,,2025-11-10,1,,,,,オグリーヌ,0
1074,4160001027213,新規,0,2025-11-10,2025-11-10,株式会社Ｓｔｒａｉｇｈｔ,,株式会社,滋賀県,栗東市,上鈎４１４番地,,25,208,5203022,,,,,,,2025-11-10,1,,,,,ストレート,0
1084,4180001169326,新規,0,2025-11-10,2025-11-10,株式会社福宿,,株式会社,愛知県,一宮市,猿海道２丁目１４番１号,,23,203,4910838,,,,,,,2025-11-10,1,,,,,フクヤド,0
1085,4180001169482,新規,0,2025-11-10,2025-11-10,株式会社ジーニス,,株式会社,愛知県,名古屋市天白区,梅が丘１丁目７０４番地,,23,116,4680004,,,,,,,2025-11-10,1,,,,,ジーニス,0
1089,4180003029313,新規,0,2025-11-10,2025-11-10,Ｊｅｎｍａ　Ｓｔｕｄｉｏ合同会社,,合同会社,愛知県,名古屋市守山区,小六町１２番２号,,23,113,4630054,,,,,,,2025-11-10,1,,,,,ジェンマスタジオ,0
1091,4180005021301,新規,0,2025-11-10,2025-11-10,一般社団法人日本フィンガースケートボード協会,,その他の設立登記法人,愛知県,名古屋市南区,元鳴尾町１３１－３,,23,112,4570065,,,,,,,2025-11-10,1,,,,,ニホンフィンガースケートボードキョウカイ,0
1093,4180301040401,新規,0,2025-11-10,2025-11-10,株式会社ｍｏｔｔｏ,,株式会社,愛知県,豊田市,若林西町茶屋間６６番地２,,23,211,4730917,,,,,,,2025-11-10,1,,,,,モット,0
1099,4190001032664,新規,0,2025-11-10,2025-11-10,長久ホールディングス株式会社,,株式会社,三重県,度会郡南伊勢町,東宮２６４７番地７７,,24,472,5161309,,,,,,,2025-11-10,1,,,,,チョウキュウホールディングス,0
1107,4200001044410,新規,0,2025-11-10,2025-11-10,Ｃｏｃｏｋａｒａ株式会社,,株式会社,岐阜県,岐阜市,木田７番地,,21,201,5011135,,,,,,,2025-11-10,1,,,,,ココカラ,0
1113,4220001027009,新規,0,2025-11-10,2025-11-10,國井ウェルネスマネジメント株式会社,,株式会社,石川県,金沢市,本町２丁目１８番２８号（プレミア金沢駅前・１１０１号）,,17,201,9200853,,,,,,,2025-11-10,1,,,,,クニイウェルネスマネジメント,0
1123,4240003007469,新規,0,2025-11-10,2025-11-10,合同会社ＱｕａＳＭＩＥ,,合同会社,広島県,広島市中区,大手町１丁目１番２６号大手町一番ビル３０５,,34,101,7300051,,,,,,,2025-11-10,1,,,,,カスミー,0
1126,4250001021413,新規,0,2025-11-10,2025-11-10,株式会社Ｉｆ,,株式会社,山口県,防府市,大字江泊４６８番地の２,,35,206,7470014,,,,,,,2025-11-10,1,,,,,イフ,0
1137,4290001112068,新規,0,2025-11-10,2025-11-10,株式会社典礼倶楽部,,株式会社,福岡県,福岡市中央区,黒門８番２４－７０４号,,40,133,8100055,,,,,,,2025-11-10,1,,,,,テンレイクラブ,0
1138,4290001112084,新規,0,2025-11-10,2025-11-10,株式会社ＴＯＰＰＩＮＧ,,株式会社,福岡県,福岡市中央区,大名１丁目８番２７－２０２号ニューリバー大名,,40,133,8100041,,,,,,,2025-11-10,1,,,,,トッピング,0
1139,4290001112101,新規,0,2025-11-10,2025-11-10,株式会社ＫＲＭ,,株式会社,福岡県,飯塚市,川津５４３番地２,,40,205,8200067,,,,,,,2025-11-10,1,,,,,ケイアールエム,0
1140,4290001112126,新規,0,2025-11-10,2025-11-10,株式会社メタルプロセス,,株式会社,福岡県,みやま市,高田町上楠田１８４８番地４,,40,229,8390225,,,,,,,2025-11-10,1,,,,,メタルプロセス,0
1141,4290001112134,新規,0,2025-11-10,2025-11-10,株式会社ミューテック,,株式会社,福岡県,糟屋郡宇美町,若草１丁目２５番３号,,40,341,8112124,,,,,,,2025-11-10,1,,,,,ミューテック,0
1142,4290003017678,新規,0,2025-11-10,2025-11-10,合同会社ブリッジライン,,合同会社,福岡県,福岡市東区,名島２丁目３２番２号宮本ビル２０５号,,40,131,8130043,,,,,,,2025-11-10,1,,,,,ブリッジライン,0
1149,4290803005205,新規,0,2025-11-10,2025-11-10,合同会社暖か,,合同会社,福岡県,北九州市八幡西区,楠橋南１丁目３番３号,,40,109,8071143,,,,,,,2025-11-10,1,,,,,,0
1150,4290805009872,新規,0,2025-11-10,2025-11-10,弁護士法人豊前総合法律事務所,,その他の設立登記法人,福岡県,豊前市,青豊１９番地１４スペースＩ,00141455,40,214,8280028,,,,,,,2025-11-10,1,,,,,ブゼンソウゴウホウリツジムショ,0
1155,4330003011305,新規,0,2025-11-10,2025-11-10,ＭＴＫグローバル合同会社,,合同会社,熊本県,熊本市北区,龍田１丁目２４－４１アーバンライフ２２　１０３号,,43,105,8618006,,,,,,,2025-11-10,1,,,,,エムティーケーグローバル,0
1156,4340001027756,新規,0,2025-11-10,2025-11-10,株式会社杉優鹿児島,,株式会社,鹿児島県,姶良郡湧水町,木場２８２９番地１,,46,452,8996201,,,,,,,2025-11-10,1,,,,,スギユウカゴシマ,0
1157,4340001027764,新規,0,2025-11-10,2025-11-10,いわしたファーム株式会社,,株式会社,鹿児島県,南九州市,頴娃町別府１９８１番地６,,46,223,8910704,,,,,,,2025-11-10,1,,,,,イワシタファーム,0
1160,4340003005009,新規,0,2025-11-10,2025-11-10,合同会社萬友舎,,合同会社,鹿児島県,大島郡与論町,大字朝戸１３９６－２,,46,535,8919304,,,,,,,2025-11-10,1,,,,,バンユウシャ,0
1167,4360003015369,新規,0,2025-11-10,2025-11-10,アミタス合同会社,,合同会社,沖縄県,名護市,字三原２６０番地１,,47,209,9052264,,,,,,,2025-11-10,1,,,,,アミタス,0
1176,4380001035680,新規,0,2025-11-10,2025-11-10,株式会社イシイ塗装工業,,株式会社,福島県,西白河郡泉崎村,大字関和久字下原１２番地２,,07,464,9690102,,,,,,,2025-11-10,1,,,,,イシイトソウコウギョウ,0
1177,4380005013030,新規,0,2025-11-10,2025-11-10,一般社団法人桑折まちづくりネット,,その他の設立登記法人,福島県,伊達郡桑折町,字北町６６番地の２,,07,301,9691601,,,,,,,2025-11-10,1,,,,,コオリマチヅクリネット,0
1184,4430001095595,新規,0,2025-11-10,2025-11-10,株式会社荒井創建,,株式会社,北海道,札幌市白石区,菊水八条１丁目５番１－２０８号,,01,104,0030808,,,,,,,2025-11-10,1,,,,,アライソウケン,0
1191,4500001026618,新規,0,2025-11-10,2025-11-10,株式会社永井設計事務所,,株式会社,愛媛県,松山市,今在家２丁目１０番２３号,,38,201,7911106,,,,,,,2025-11-10,1,,,,,ナガイセッケイジムショ,0
1192,4700150132915,新規,0,2025-11-10,2025-11-10,ベルコート管理組合,,その他,栃木県,宇都宮市,陽東６丁目７－１,,09,201,3210904,,,,,,,2025-11-10,1,,,,,ベルコートカンリクミアイ,0
1200,5010001259679,新規,0,2025-11-10,2025-11-10,株式会社マッチングリンク,,株式会社,東京都,中央区,銀座１丁目１２番４号Ｎ＆ＥＢＬＤ．６Ｆ,,13,102,1040061,,,,,,,2025-11-10,1,,,,,マッチングリンク,0
1201,5010001259852,新規,0,2025-11-10,2025-11-10,株式会社ＰＭカンパニー,,株式会社,東京都,中央区,銀座１丁目１２－４Ｎ＆ＥＢＬＤ．７階,,13,102,1040061,,,,,,,2025-11-10,1,,,,,ピーエムカンパニー,0
1202,5010001260018,新規,0,2025-11-10,2025-11-10,きさらぎ株式会社,,株式会社,東京都,中央区,銀座７丁目１３番２０号銀座ＴＨビル９階,,13,102,1040061,,,,,,,2025-11-10,1,,,,,キサラギ,0
1203,5010001260059,新規,0,2025-11-10,2025-11-10,ＪＰＡ第３６４号株式会社,,株式会社,東京都,千代田区,霞が関３丁目２番１号,,13,101,1000013,,,,,,,2025-11-10,1,,,,,ジェイピーエーダイサンビャクロクジュウヨンゴウ,0
1204,5010001260091,新規,0,2025-11-10,2025-11-10,ＡＳ６‐２５０１株式会社,,株式会社,東京都,千代田区,丸の内２丁目４番１号丸の内ビルディング２７階,,13,101,1000005,,,,,,,2025-11-10,1,,,,,エーエスロクニーゴーゼロイチ,0
1205,5010001260117,新規,0,2025-11-10,2025-11-10,株式会社ビッツパワー・ジャパン,,株式会社,東京都,文京区,大塚６丁目１４番１３号１階,,13,105,1120012,,,,,,,2025-11-10,1,,,,,ビッツパワージャパン,0
1207,5010003049145,新規,0,2025-11-10,2025-11-10,合同会社フロントア,,合同会社,東京都,中央区,銀座１丁目２２－１１,,13,102,1040061,,,,,,,2025-11-10,1,,,,,フロントア,0
1208,5010003049302,新規,0,2025-11-10,2025-11-10,合同会社ＰＬＡＮ‐Ｂ,,合同会社,東京都,中央区,日本橋室町１丁目２－６日本橋大栄ビル７階,,13,102,1030022,,,,,,,2025-11-10,1,,,,,プランビー,0
1209,5010003049310,新規,0,2025-11-10,2025-11-10,合同会社こころより,,合同会社,東京都,文京区,本郷１丁目３３番３－６０７号,,13,105,1130033,,,,,,,2025-11-10,1,,,,,ココロヨリ,0
1211,5010005040911,新規,0,2025-11-10,2025-11-10,一般社団法人オニキス,,その他の設立登記法人,東京都,千代田区,二番町３番地麹町スクエア株式会社シリウス・アドバイザリー内,,13,101,1020084,,,,,,,2025-11-10,1,,,,,オニキス,0
1215,5010403036560,新規,0,2025-11-10,2025-11-10,ＳＰＡＲＫ合同会社,,合同会社,東京都,港区,虎ノ門５丁目１番４号,,13,103,1050001,,,,,,,2025-11-10,1,,,,,スパーク,0
1216,5010405025000,新規,0,2025-11-10,2025-11-10,一般社団法人バテリア白石,,その他の設立登記法人,東京都,港区,虎ノ門５丁目３番２０号株式会社アカウンティング・マネジメント・サービス内,,13,103,1050001,,,,,,,2025-11-10,1,,,,,バテリアシロイシ,0
1222,5010703007996,新規,0,2025-11-10,2025-11-10,合同会社オリジナルペット,,合同会社,東京都,品川区,大崎４丁目１－７,,13,109,1410032,,,,,,,2025-11-10,1,,,,,オリジナルペット,0
1228,5010903010387,新規,0,2025-11-10,2025-11-10,合同会社Ｓｈｉｎｄｏ,,合同会社,東京都,世田谷区,太子堂４丁目１８番１５号マガザン三軒茶屋２‐３Ｆ‐３,,13,112,1540004,,,,,,,2025-11-10,1,,,,,シンドウ,0
1236,5011001172987,新規,0,2025-11-10,2025-11-10,株式会社リタシス,,株式会社,東京都,渋谷区,千駄ヶ谷５丁目１５－６マークス北参道４Ｆ,,13,113,1510051,,,,,,,2025-11-10,1,,,,,リタシス,0
1237,5011001173366,新規,0,2025-11-10,2025-11-10,株式会社ＮＯＯＯ,,株式会社,東京都,目黒区,目黒本町３丁目１９番１９号,,13,110,1520002,,,,,,,2025-11-10,1,,,,,ヌー,0
1238,5011001173390,新規,0,2025-11-10,2025-11-10,ファイブアールズ株式会社,,株式会社,東京都,渋谷区,神泉町２０－２１クロスシー渋谷神泉ビル,,13,113,1500045,,,,,,,2025-11-10,1,,,,,ファイブアールズ,0
1239,5011001173548,新規,0,2025-11-10,2025-11-10,株式会社ばぶ,,株式会社,東京都,渋谷区,渋谷２丁目１９－１５宮益坂ビルディング６０９,,13,113,1500002,,,,,,,2025-11-10,1,,,,,バブ,0
1240,5011003022884,新規,0,2025-11-10,2025-11-10,Ｌｉｏｎ　ＧＰ合同会社,,合同会社,東京都,渋谷区,神宮前１丁目５番８号,,13,113,1500001,,,,,,,2025-11-10,1,,,,,ライオンジーピー,0
1242,5011101113866,新規,0,2025-11-10,2025-11-10,株式会社Ｏｎｅ‐ｔｏ‐Ｍａｎｙ,,株式会社,東京都,新宿区,西新宿８丁目１１番１０号星野ビル,,13,104,1600023,,,,,,,2025-11-10,1,,,,,ワントゥーメニー,0
1244,5011103016621,新規,0,2025-11-10,2025-11-10,ＳＰＩＤＥＲ　ＩＰ合同会社,,合同会社,東京都,新宿区,新宿１丁目２４番１号藤和ハイタウン新宿８０９号室,,13,104,1600022,,,,,,,2025-11-10,1,,,,,スパイダーアイピー,0
1245,5011103016679,新規,0,2025-11-10,2025-11-10,合同会社ｍａｇ,,合同会社,東京都,新宿区,神楽坂４丁目３番地近江屋ビル２階,,13,104,1620825,,,,,,,2025-11-10,1,,,,,マグ,0
1248,5011403004929,新規,0,2025-11-10,2025-11-10,フォレストムービング合同会社,,合同会社,東京都,板橋区,大門１０番地１１号,,13,119,1750085,,,,,,,2025-11-10,1,,,,,フォレストムービング,0
1251,5011605002680,新規,0,2025-11-10,2025-11-10,ＫＳＫソフィア社会保険労務士法人,,その他の設立登記法人,東京都,練馬区,石神井町２丁目１３番１７号龍英ビル３Ｆ,,13,120,1770041,,,,,,,2025-11-10,1,,,,,ケーエスケーソフィア,0
1252,5011701028910,新規,0,2025-11-10,2025-11-10,株式会社マツモトクラブ,,株式会社,東京都,江戸川区,平井４丁目９番２号－３Ｆ,,13,123,1320035,,,,,,,2025-11-10,1,,,,,マツモトクラブ,0
1254,5011801047034,新規,0,2025-11-10,2025-11-10,株式会社ＸＴＥＲＬＡ,,株式会社,東京都,足立区,六木３丁目２５番６号,,13,121,1210052,,,,,,,2025-11-10,1,,,,,エクステラ,0
1257,5012403007442,新規,0,2025-11-10,2025-11-10,合同会社ＳＳＫ企画,,合同会社,東京都,多摩市,愛宕４丁目２２－２０センターヒルズＢＬＤ２０１号室,,13,224,2060041,,,,,,,2025-11-10,1,,,,,エスエスケーキカク,0
1259,5012701019172,新規,0,2025-11-10,2025-11-10,小平東部・萩山公園ＰＦＩ株式会社,,株式会社,東京都,小平市,学園西町３丁目２８番２１号,,13,211,1870045,,,,,,,2025-11-10,1,,,,,コダイラトウブハギヤマコウエンピーエフアイ,0
1260,5012703003406,新規,0,2025-11-10,2025-11-10,合同会社ＹＵＩ‐ＯＲＩ,,合同会社,東京都,西東京市,新町４丁目６番３号ダイアパレスプロヴァンシア武蔵境２０７,,13,229,2020023,,,,,,,2025-11-10,1,,,,,ユイオリ,0
1264,5013303007953,新規,0,2025-11-10,2025-11-10,合同会社Ｓｕｃｃｅｓｓｏｒ,,合同会社,東京都,豊島区,池袋本町１丁目１７番４号９０３号室,,13,116,1700011,,,,,,,2025-11-10,1,,,,,サクセサ,0
1271,5020001165736,新規,0,2025-11-10,2025-11-10,株式会社新村電気,,株式会社,神奈川県,横浜市鶴見区,平安町２丁目４番地９野沢ビル４０２,,14,101,2300031,,,,,,,2025-11-10,1,,,,,ニイムラデンキ,0
1272,5020001165744,新規,0,2025-11-10,2025-11-10,ＯＲＡＮＧＥ　ＳＹＳＴＥＭＳ株式会社,,株式会社,神奈川県,川崎市川崎区,東田町８番地パレール川崎レッド館３Ｆ,,14,131,2100005,,,,,,,2025-11-10,1,,,,,オレンジシステムズ,0
1278,5020003029740,新規,0,2025-11-10,2025-11-10,Ｋａｎｂｅ合同会社,,合同会社,神奈川県,横浜市鶴見区,上の宮２丁目５番１号,,14,101,2300075,,,,,,,2025-11-10,1,,,,,カンベ,0
1293,5030001169554,新規,0,2025-11-10,2025-11-10,株式会社ＢＡＬＬＯＯＮ,,株式会社,埼玉県,蓮田市,大字黒浜３８５２番地５,,11,238,3490101,,,,,,,2025-11-10,1,,,,,バルーン,0
1294,5030001169587,新規,0,2025-11-10,2025-11-10,株式会社ＫＥＮ　ＹＵ,,株式会社,埼玉県,八潮市,大字八條５１８番地１,,11,234,3400801,,,,,,,2025-11-10,1,,,,,ケンユー,0
1295,5030001169595,新規,0,2025-11-10,2025-11-10,株式会社原井工業,,株式会社,埼玉県,新座市,野寺４丁目３番１６－３号,,11,230,3520034,,,,,,,2025-11-10,1,,,,,ハライコウギョウ,0
1296,5030001169612,新規,0,2025-11-10,2025-11-10,株式会社ジェニファー,,株式会社,埼玉県,川越市,大字藤間１９２番地５埼京工機ビル４Ｆ,,11,201,3501142,,,,,,,2025-11-10,1,,,,,ジェニファー,0
1298,5030003027999,新規,0,2025-11-10,2025-11-10,合同会社スターライト,,合同会社,埼玉県,川越市,砂新田４丁目１番地２３,,11,201,3501137,,,,,,,2025-11-10,1,,,,,スターライト,0
1327,5080101025883,新規,0,2025-11-10,2025-11-10,佐野サービス株式会社,,株式会社,静岡県,富士宮市,長貫８６９番地の２,,22,207,4190315,,,,,,,2025-11-10,1,,,,,サノサービス,0
1333,5110001039699,新規,0,2025-11-10,2025-11-10,株式会社柳都ＫＯＭＯＲＥＢＩ,,株式会社,新潟県,新潟市中央区,三和町４番２１号,,15,103,9500081,,,,,,,2025-11-10,1,,,,,リュウトコモレビ,0
1350,5120001281746,新規,0,2025-11-10,2025-11-10,株式会社くらし企画ホールディングス,,株式会社,大阪府,枚方市,高田２丁目２０番１７号,,27,210,5730073,,,,,,,2025-11-10,1,,,,,クラシキカクホールディングス,0
1351,5120001281762,新規,0,2025-11-10,2025-11-10,株式会社Ｃｙｐｌｕｓ,,株式会社,大阪府,大阪市北区,東天満２丁目２番７－３０３号,,27,127,5300044,,,,,,,2025-11-10,1,,,,,シープラス,0
1352,5120001281787,新規,0,2025-11-10,2025-11-10,大左産業株式会社,,株式会社,大阪府,大阪市中央区,谷町６丁目４番３４号、２０５号室,,27,128,5420012,,,,,,,2025-11-10,1,,,,,ダイササンギョウ,0
1353,5120001281812,新規,0,2025-11-10,2025-11-10,株式会社Ｒ,,株式会社,大阪府,門真市,末広町３９－２５ナカトミハイツ６０３,,27,223,5710030,,,,,,,2025-11-10,1,,,,,アール,0
1354,5120001281861,新規,0,2025-11-10,2025-11-10,佳信株式会社,,株式会社,大阪府,大阪市中央区,瓦屋町１丁目１２番１号,,27,128,5420066,,,,,,,2025-11-10,1,,,,,カシン,0
1357,5120003031174,新規,0,2025-11-10,2025-11-10,合同会社ＯＮＹＯＮ,,合同会社,大阪府,大阪市北区,万歳町３番３９号ロジュマンタワー梅田１３０１,,27,127,5300028,,,,,,,2025-11-10,1,,,,,オニオン,0
1358,5120003031208,新規,0,2025-11-10,2025-11-10,合同会社コスモス,,合同会社,大阪府,大阪市平野区,長吉出戸１丁目５番１０－５０２号,,27,126,5470011,,,,,,,2025-11-10,1,,,,,コスモス,0
1360,5120103006836,新規,0,2025-11-10,2025-11-10,合同会社Ｎパワー１号,,合同会社,大阪府,泉佐野市,貝田町１丁目１８番６号２０１号室,,27,213,5980076,,,,,,,2025-11-10,1,,,,,エヌパワーイチゴウ,0
1362,5120901051744,新規,0,2025-11-10,2025-11-10,株式会社日通レアメタル,,株式会社,大阪府,茨木市,下井町２番９号,,27,211,5670066,,,,,,,2025-11-10,1,,,,,ニッツウレアメタル,0
1370,5130001080965,新規,0,2025-11-10,2025-11-10,株式会社ＢＡＬＡＳＵＲＩＹＡ,,株式会社,京都府,京都市右京区,山ノ内御堂殿町３４番地７メゾン・ラ・ポール２０１,,26,108,6150091,,,,,,,2025-11-10,1,,,,,バラスリヤ,0
1371,5130001080973,新規,0,2025-11-10,2025-11-10,株式会社Ａｇｎｅｓｅ,,株式会社,京都府,京都市下京区,五条通新町東入東錺屋町１６７番地ビューフォート五条烏丸８０３,,26,106,6008107,,,,,,,2025-11-10,1,,,,,アニエーゼ,0
1373,5130003010912,新規,0,2025-11-10,2025-11-10,ワタシノ２話合同会社,,合同会社,京都府,京都市西京区,嵐山東一川町１７番地８,,26,111,6160002,,,,,,,2025-11-10,1,,,,,ワタシノニワ,0
1377,5140001140727,新規,0,2025-11-10,2025-11-10,株式会社ひとし不動産管理,,株式会社,兵庫県,神戸市北区,唐櫃台１丁目３５番９号ユニハイム神戸唐櫃台９号棟３０４号室,,28,109,6511332,,,,,,,2025-11-10,1,,,,,ヒトシフドウサンカンリ,0
1378,5140003022808,新規,0,2025-11-10,2025-11-10,エルピスアセットマネジメント合同会社,,合同会社,兵庫県,川西市,丸山台１丁目４番地の３,,28,217,6660152,,,,,,,2025-11-10,1,,,,,エルピスアセットマネジメント,0
1379,5140003022816,新規,0,2025-11-10,2025-11-10,合同会社ＹＴ・ＦＵＫＵＹＵ,,合同会社,兵庫県,伊丹市,池尻３丁目２２４番地３－２Ｆ,,28,207,6640027,,,,,,,2025-11-10,1,,,,,ワイティフクユ,0
1383,5150001028533,新規,0,2025-11-10,2025-11-10,株式会社たつや,,株式会社,奈良県,天理市,田部町４６１番地１,,29,204,6320017,,,,,,,2025-11-10,1,,,,,タツヤ,0
1394,5180001169382,新規,0,2025-11-10,2025-11-10,ＲｕｎＳｔｒａｔｅｇｙ株式会社,,株式会社,愛知県,名古屋市中川区,柳川町１６番１６号アモーレグランデ八熊Ｎ棟Ｎ１号,,23,110,4540014,,,,,,,2025-11-10,1,,,,,ランストラテジー,0
1395,5180001169449,新規,0,2025-11-10,2025-11-10,株式会社ｕｎｅｎｄｌｉｃｈ,,株式会社,愛知県,名古屋市中村区,名駅南２丁目７番８号,,23,105,4500003,,,,,,,2025-11-10,1,,,,,アンエンドリッチ,0
1401,5180003029312,新規,0,2025-11-10,2025-11-10,合同会社ｏｎｌｙ　ｏｎｅ　ｃｏｎｃｅｐｔ,,合同会社,愛知県,東海市,名和町八幡東１１番地の１,,23,222,4760002,,,,,,,2025-11-10,1,,,,,オンリーワンコンセプト,0
1404,5180301040400,新規,0,2025-11-10,2025-11-10,株式会社ＢＫ．ｃｒｅａｔｅ,,株式会社,愛知県,安城市,三河安城町１丁目１０番地３,,23,212,4460056,,,,,,,2025-11-10,1,,,,,ビーケークリエイト,0
1408,5190001032663,新規,0,2025-11-10,2025-11-10,株式会社ＴＯＭＩＳＡＷＡ,,株式会社,三重県,名張市,梅が丘北１番町１１６番地,,24,208,5180746,,,,,,,2025-11-10,1,,,,,トミサワ,0
1410,5190005012083,新規,0,2025-11-10,2025-11-10,一般社団法人Ｍａｔｓｕｓａｋａ　Ｂｕｌｌｓ,,その他の設立登記法人,三重県,松阪市,中町１９５２番地岡寺山継松寺,,24,204,5150083,,,,,,,2025-11-10,1,,,,,マツサカブルズ,0
1418,5230001021174,新規,0,2025-11-10,2025-11-10,株式会社ＲＥＢＯＲＮ,,株式会社,富山県,富山市,四ツ葉町８番２号,,16,201,9300841,,,,,,,2025-11-10,1,,,,,リボーン,0
1443,5290001112091,新規,0,2025-11-10,2025-11-10,株式会社セイケント,,株式会社,福岡県,福岡市西区,大字千里４４２番地１,,40,135,8190374,,,,,,,2025-11-10,1,,,,,セイケント,0
1444,5290001112100,新規,0,2025-11-10,2025-11-10,株式会社ヒルズライフ,,株式会社,福岡県,福岡市東区,和白丘３丁目１８番７－１０１号,,40,131,8110213,,,,,,,2025-11-10,1,,,,,ヒルズライフ,0
1445,5290001112109,新規,0,2025-11-10,2025-11-10,株式会社ＮｅｏＷａｙ,,株式会社,福岡県,福岡市東区,唐原６丁目１番２９号,,40,131,8130001,,,,,,,2025-11-10,1,,,,,ネオウェイ,0
1458,5320003004820,新規,0,2025-11-10,2025-11-10,合同会社アニマリウム,,合同会社,大分県,日田市,淡窓１丁目２番５０号,,44,204,8770012,,,,,,,2025-11-10,1,,,,,アニマリウム,0
1460,5330001033738,新規,0,2025-11-10,2025-11-10,株式会社あすあか,,株式会社,熊本県,熊本市東区,長嶺西１丁目７番地１号,,43,102,8618037,,,,,,,2025-11-10,1,,,,,アスアカ,0
1461,5330003011304,新規,0,2025-11-10,2025-11-10,合同会社藤のヴィラ,,合同会社,熊本県,阿蘇市,乙姫１３３５,,43,214,8692226,,,,,,,2025-11-10,1,,,,,フジノヴィラ,0
1463,5340001027755,新規,0,2025-11-10,2025-11-10,株式会社ｃａｒｆｕｒａ,,株式会社,鹿児島県,日置市,吹上町中原２９５１番地,,46,216,8993301,,,,,,,2025-11-10,1,,,,,カルフーラ,0
1464,5340001027763,新規,0,2025-11-10,2025-11-10,株式会社グルスト,,株式会社,鹿児島県,薩摩川内市,宮里町２２５５番地,,46,215,8950056,,,,,,,2025-11-10,1,,,,,グルスト,0
1465,5340001027771,新規,0,2025-11-10,2025-11-10,株式会社ｃｏｒｄｉａ,,株式会社,鹿児島県,霧島市,隼人町真孝２７７番地１号,,46,218,8995102,,,,,,,2025-11-10,1,,,,,コルディア,0
1472,5350003005064,新規,0,2025-11-10,2025-11-10,合同会社龍栄丸,,合同会社,宮崎県,延岡市,島浦町６５２番地１,,45,203,8820096,,,,,,,2025-11-10,1,,,,,リュウエイマル,0
1494,5440001009710,新規,0,2025-11-10,2025-11-10,株式会社竹下工業,,株式会社,北海道,函館市,美原２丁目２７番７号,,01,202,0410806,,,,,,,2025-11-10,1,,,,,タケシタコウギョウ,0
1500,6010001259975,新規,0,2025-11-10,2025-11-10,株式会社Ｏｃｔ．Ｐａｔｈ,,株式会社,東京都,千代田区,外神田１丁目６番１号外神田ビル４階,,13,101,1010021,,,,,,,2025-11-10,1,,,,,オクトパス,0
1501,6010001260025,新規,0,2025-11-10,2025-11-10,株式会社ＴｅｒｒａＬａｙｅｒ,,株式会社,東京都,千代田区,麹町１丁目３番地６ダイアン麹町ビル６０５,,13,101,1020083,,,,,,,2025-11-10,1,,,,,テラレイヤー,0
1502,6010001260041,新規,0,2025-11-10,2025-11-10,株式会社Ｈｙｍｉｘ,,株式会社,東京都,千代田区,六番町６－４ＬＨ番町スクエアビル５階,,13,101,1020085,,,,,,,2025-11-10,1,,,,,ハイミックス,0
1503,6010001260058,新規,0,2025-11-10,2025-11-10,ＪＰＡ第３６３号株式会社,,株式会社,東京都,千代田区,霞が関３丁目２番１号,,13,101,1000013,,,,,,,2025-11-10,1,,,,,ジェイピーエーダイサンビャクロクジュウサンゴウ,0
1504,6010001260074,新規,0,2025-11-10,2025-11-10,ＪＰＡ第３７９号株式会社,,株式会社,東京都,千代田区,霞が関３丁目２番１号,,13,101,1000013,,,,,,,2025-11-10,1,,,,,ジェイピーエーダイサンビャクナナジュウキュウゴウ,0
1505,6010001260132,新規,0,2025-11-10,2025-11-10,Ａｘｉｓｐｈｅｒｅ　Ｈｏｌｄｉｎｇｓ株式会社,,株式会社,東京都,中央区,日本橋兜町５番１号３階,,13,102,1030026,,,,,,,2025-11-10,1,,,,,アクシスフィアホールディングス,0
1509,6010003049276,新規,0,2025-11-10,2025-11-10,リトリート・ジャパン合同会社,,合同会社,東京都,中央区,銀座１丁目１２番４号Ｎ＆ＥＢＬＤ．６Ｆ,,13,102,1040061,,,,,,,2025-11-10,1,,,,,,0
1511,6010005040885,新規,0,2025-11-10,2025-11-10,弁護士法人フォルティス法律事務所,,その他の設立登記法人,東京都,千代田区,九段北４丁目３番２２号ファームボンド九段ビル４Ｆ,,13,101,1020073,,,,,,,2025-11-10,1,,,,,フォルティスホウリツジムショ,0
1512,6010005040910,新規,0,2025-11-10,2025-11-10,一般社団法人クリスタル,,その他の設立登記法人,東京都,千代田区,二番町３番地麹町スクエア株式会社シリウス・アドバイザリー内,,13,101,1020084,,,,,,,2025-11-10,1,,,,,クリスタル,0
1536,6010701048562,新規,0,2025-11-10,2025-11-10,株式会社ＲａｄｉａｎｔＣｏＣｏ,,株式会社,東京都,品川区,東品川２丁目２番４号７階,,13,109,1400002,,,,,,,2025-11-10,1,,,,,レディアントココ,0
1537,6010701048587,新規,0,2025-11-10,2025-11-10,株式会社ＲｅＰｅａｒｌ,,株式会社,東京都,品川区,東五反田１丁目９－２ダイアパレス３Ｆ,,13,109,1410022,,,,,,,2025-11-10,1,,,,,リパール,0
1542,6010901058411,新規,0,2025-11-10,2025-11-10,株式会社Ｈｕｍｍｉｎｇｂｉｒｄ　Ｓｔｕｄｉｏ,,株式会社,東京都,世田谷区,下馬６丁目５０－２５,,13,112,1540002,,,,,,,2025-11-10,1,,,,,ハミングバードスタジオ,0
1543,6010901058428,新規,0,2025-11-10,2025-11-10,株式会社ＡＤＤＩＣＴ,,株式会社,東京都,世田谷区,給田３丁目３３番２３－３０４号,,13,112,1570064,,,,,,,2025-11-10,1,,,,,アディクト,0
1544,6010903010386,新規,0,2025-11-10,2025-11-10,ＨＡＲＡＹＡ　ｂａｓｅ合同会社,,合同会社,東京都,世田谷区,千歳台４丁目１８―６,,13,112,1570071,,,,,,,2025-11-10,1,,,,,ハラヤベース,0
1547,6011001173407,新規,0,2025-11-10,2025-11-10,Ｂｉａｘｉｓ株式会社,,株式会社,東京都,目黒区,大橋２丁目４番１６－４１２号,,13,110,1530044,,,,,,,2025-11-10,1,,,,,ビアクシス,0
1548,6011001173646,新規,0,2025-11-10,2025-11-10,株式会社ｉｎ２,,株式会社,東京都,渋谷区,円山町５番３号ＭＩＥＵＸ渋谷ビル８階,,13,113,1500044,,,,,,,2025-11-10,1,,,,,インツー,0
1549,6011003022883,新規,0,2025-11-10,2025-11-10,Ｌｉｏｎ　ＬＰ合同会社,,合同会社,東京都,渋谷区,神宮前１丁目５番８号,,13,113,1500001,,,,,,,2025-11-10,1,,,,,ライオンエルピー,0
1550,6011003022925,新規,0,2025-11-10,2025-11-10,合同会社ＴＣＢＮ＆Ｃｏ．,,合同会社,東京都,渋谷区,神南１丁目１１－４ＦＰＧリンクス神南５階,,13,113,1500041,,,,,,,2025-11-10,1,,,,,ティーシービーエヌアンドカンパニー,0
1557,6011103016653,新規,0,2025-11-10,2025-11-10,合同会社かぎろい,,合同会社,東京都,新宿区,新宿６丁目９番５号サーブ・シティ新宿１０２,,13,104,1600022,,,,,,,2025-11-10,1,,,,,カギロイ,0
1558,6011103016686,新規,0,2025-11-10,2025-11-10,神宮前４３６開発合同会社,,合同会社,東京都,新宿区,四谷４丁目３２番８号ＹＫＢサニービル６階,,13,104,1600004,,,,,,,2025-11-10,1,,,,,ジングウマエヨンサンロクカイハツ,0
1559,6011305003078,新規,0,2025-11-10,2025-11-10,一般財団法人チャイルド・ファンド・ジャパン,,その他の設立登記法人,東京都,杉並区,善福寺２丁目１７番５号,,13,115,1670041,,,,,,,2025-11-10,1,,,,,チャイルドファンドジャパン,0
1560,6011401027534,新規,0,2025-11-10,2025-11-10,Ｃａｌｅｒｉｅ　Ｊａｐａｎ株式会社,,株式会社,東京都,板橋区,徳丸３丁目３３番１６号マンション東武練馬１０１－１室,,13,119,1750083,,,,,,,2025-11-10,1,,,,,キャレリージャパン,0
1578,6020001165652,新規,0,2025-11-10,2025-11-10,株式会社ブラウロジスティクス,,株式会社,神奈川県,横浜市戸塚区,鳥が丘８８番地１２,,14,110,2440001,,,,,,,2025-11-10,1,,,,,ブラウロジスティクス,0
1579,6020001165685,新規,0,2025-11-10,2025-11-10,株式会社堺屋,,株式会社,神奈川県,川崎市川崎区,下並木６７番地６,,14,131,2100025,,,,,,,2025-11-10,1,,,,,サカイヤ,0
1580,6020001165693,新規,0,2025-11-10,2025-11-10,株式会社ＫＩＮＡＲＩ,,株式会社,神奈川県,川崎市多摩区,登戸新町４３２番地リビエール井田４０２,,14,135,2140013,,,,,,,2025-11-10,1,,,,,キナリ,0
1581,6020001165710,新規,0,2025-11-10,2025-11-10,株式会社Ｈｏｌｏｍｕａ,,株式会社,神奈川県,横浜市西区,北幸２丁目１０番４８号むつみビル３階,,14,103,2200004,,,,,,,2025-11-10,1,,,,,ホロムア,0
1586,6020003029756,新規,0,2025-11-10,2025-11-10,井伊総合商事合同会社,,合同会社,神奈川県,横浜市旭区,市沢町８１５―４３,,14,112,2410014,,,,,,,2025-11-10,1,,,,,イイソウゴウショウジ,0
1589,6020005017032,新規,0,2025-11-10,2025-11-10,特定非営利活動法人リトルチャンプス,,その他の設立登記法人,神奈川県,横浜市中区,石川町１丁目５２番地１１,,14,104,2310868,,,,,,,2025-11-10,1,,,,,リトルチャンプス,0
1599,6030001169553,新規,0,2025-11-10,2025-11-10,株式会社ＮＮＢ,,株式会社,埼玉県,越谷市,レイクタウン１丁目１５番地６,,11,222,3430828,,,,,,,2025-11-10,1,,,,,エヌエヌビー,0
1600,6030001169578,新規,0,2025-11-10,2025-11-10,株式会社ＲＭ‐ＣＯＭＰＡＮＹ,,株式会社,埼玉県,春日部市,金崎１０６１－９,,11,214,3440117,,,,,,,2025-11-10,1,,,,,アールエムカンパニー,0
1601,6030001169586,新規,0,2025-11-10,2025-11-10,株式会社乙巳也,,株式会社,埼玉県,川口市,大字安行領根岸１８４番地の１,,11,203,3330834,,,,,,,2025-11-10,1,,,,,キノトミヤ,0
1602,6030001169603,新規,0,2025-11-10,2025-11-10,株式会社Ａ＆Ｊホールディングス,,株式会社,埼玉県,幸手市,大字中野１５８番地１,,11,240,3400142,,,,,,,2025-11-10,1,,,,,エーアンドジェーホールディングス,0
1603,6030001169636,新規,0,2025-11-10,2025-11-10,株式会社Ｎｉｐｐｏｎ　Ｇａｔｅｗａｙ　Ｉｎｔｅｒｎａｔｉｏｎａｌ,,株式会社,埼玉県,越谷市,東越谷３丁目４番１８号ハイツ越谷４０１,,11,222,3430023,,,,,,,2025-11-10,1,,,,,ニッポンゲートウェイインターナショナル,0
1613,6040001141354,新規,0,2025-11-10,2025-11-10,ＣＯＬＡ株式会社,,株式会社,千葉県,船橋市,湊町２丁目８番４０－３１０４号,,12,204,2730011,,,,,,,2025-11-10,1,,,,,コーラ,0
1629,6060003005836,新規,0,2025-11-10,2025-11-10,合同会社ＡＬＬＥＴＡ,,合同会社,栃木県,佐野市,大橋町３２２４番地２７,,09,204,3270003,,,,,,,2025-11-10,1,,,,,アレッタ,0
1632,6080003003598,新規,0,2025-11-10,2025-11-10,ＫＡＩ合同会社,,合同会社,静岡県,焼津市,利右衛門２６５３番１,,22,212,4210212,,,,,,,2025-11-10,1,,,,,カイ,0
1640,6100003008454,新規,0,2025-11-10,2025-11-10,合同会社ジーエフエル,,合同会社,長野県,松本市,大字笹賀５０３２番地,,20,202,3990033,,,,,,,2025-11-10,1,,,,,ジーエフエル,0
1661,6120001281737,新規,0,2025-11-10,2025-11-10,ＲｅＮｅｘ株式会社,,株式会社,大阪府,大阪市北区,梅田２丁目４番９号,,27,127,5300001,,,,,,,2025-11-10,1,,,,,レネックス,0
1662,6120001281753,新規,0,2025-11-10,2025-11-10,株式会社ＬＡ　ＰＡＢＬＯＮＡ,,株式会社,大阪府,大阪市北区,中津１丁目１１番２４号,,27,127,5310071,,,,,,,2025-11-10,1,,,,,ラパブロナ,0
1663,6120001281828,新規,0,2025-11-10,2025-11-10,Ｐｒｏｓｐｅｒｉａ株式会社,,株式会社,大阪府,大阪市福島区,吉野３丁目１８－５,,27,103,5530006,,,,,,,2025-11-10,1,,,,,プロスペリア,0
1667,6120003031181,新規,0,2025-11-10,2025-11-10,合同会社ＭＭＣ,,合同会社,大阪府,大阪市此花区,常吉１丁目１番６０号,,27,104,5540052,,,,,,,2025-11-10,1,,,,,エムエムシー,0
1669,6120101072755,新規,0,2025-11-10,2025-11-10,株式会社三重総合製作所,,株式会社,大阪府,藤井寺市,小山８丁目１９番２号,,27,226,5830033,,,,,,,2025-11-10,1,,,,,ミエソウゴウセイサクショ,0
1670,6120103006835,新規,0,2025-11-10,2025-11-10,合同会社タートル,,合同会社,大阪府,堺市中区,辻之１２７３番地１８,00141454,27,142,5998245,,,,,,,2025-11-10,1,,,,,タートル,0
1671,6120103006843,新規,0,2025-11-10,2025-11-10,ＳＫテック合同会社,,合同会社,大阪府,堺市東区,日置荘西町１丁２５番１７号,,27,143,5998114,,,,,,,2025-11-10,1,,,,,エスケーテック,0
1675,6120903005937,新規,0,2025-11-10,2025-11-10,ＳＮＳ広告最適化合同会社,,合同会社,大阪府,吹田市,江坂町３丁目２３番２２号Ｓｔａｙ　Ｅｓａｋａ２０２号,,27,205,5640063,,,,,,,2025-11-10,1,,,,,エスエヌエスコウコクサイテキカ,0
1681,6130001080956,新規,0,2025-11-10,2025-11-10,株式会社山下新壽園,,株式会社,京都府,京田辺市,普賢寺公家谷７番地,,26,211,6100322,,,,,,,2025-11-10,1,,,,,ヤマシタシンジュエン,0
1682,6130001080989,新規,0,2025-11-10,2025-11-10,株式会社竹田パートナーズ,,株式会社,京都府,京都市南区,東九条南石田町３１番地１,,26,107,6018033,,,,,,,2025-11-10,1,,,,,タケダパートナーズ,0
1694,6150001028532,新規,0,2025-11-10,2025-11-10,株式会社ＳｉＮＧ　ＰＥＡＣＥ,,株式会社,奈良県,生駒郡平群町,上庄３丁目１２番３号,,29,342,6360905,,,,,,,2025-11-10,1,,,,,シングピース,0
1701,6180001169349,新規,0,2025-11-10,2025-11-10,株式会社コアボックスインターナショナル,,株式会社,愛知県,名古屋市中村区,名駅３丁目４番１０号,,23,105,4500002,,,,,,,2025-11-10,1,,,,,コアボックスインターナショナル,0
1712,6190005012082,新規,0,2025-11-10,2025-11-10,一般社団法人鈴鹿カルチャーステーション,,その他の設立登記法人,三重県,鈴鹿市,阿古曽町１４番２８号,,24,207,5130828,,,,,,,2025-11-10,1,,,,,スズカカルチャーステーション,0
1725,6230001021173,新規,0,2025-11-10,2025-11-10,株式会社ＯＮＥＬＩＮＥ,,株式会社,富山県,富山市,堀川町２９３番地８,,16,201,9398072,,,,,,,2025-11-10,1,,,,,ワンライン,0
1735,6290001112082,新規,0,2025-11-10,2025-11-10,Ａ‐ＰＡＮ株式会社,,株式会社,福岡県,福岡市中央区,笹丘３丁目２６番４号,,40,133,8100034,,,,,,,2025-11-10,1,,,,,アパン,0
1736,6290001112090,新規,0,2025-11-10,2025-11-10,株式会社マルコ商会,,株式会社,福岡県,福岡市博多区,博多駅前１丁目２３－２ＰａｒｋＦｒｏｎｔ５Ｆ－Ｂ,,40,132,8120011,,,,,,,2025-11-10,1,,,,,マルコショウカイ,0
1737,6290001112099,新規,0,2025-11-10,2025-11-10,Ｒｏｏｆｅｒｓ株式会社,,株式会社,福岡県,糟屋郡宇美町,障子岳南２丁目１５番３３号,,40,341,8112126,,,,,,,2025-11-10,1,,,,,ルーファーズ,0
1742,6290003017701,新規,0,2025-11-10,2025-11-10,合同会社ＣＬＡＲＩＯＮ,,合同会社,福岡県,久留米市,山川野口町１２番２７号エルフォルクレオン２０２号,,40,203,8390816,,,,,,,2025-11-10,1,,,,,クラリオン,0
1745,6290801032018,新規,0,2025-11-10,2025-11-10,Ａ１ｎｎｏｖａｔｉｏｎ株式会社,,株式会社,福岡県,田川郡香春町,大字香春１８４５,,40,601,8221406,,,,,,,2025-11-10,1,,,,,エーアイノベーション,0
1749,6340001027762,新規,0,2025-11-10,2025-11-10,ＪＳＡ株式会社,,株式会社,鹿児島県,日置市,東市来町長里６０３８番地,,46,216,8992202,,,,,,,2025-11-10,1,,,,,ジェイエスエー,0
1750,6340003005007,新規,0,2025-11-10,2025-11-10,合同会社Ｈｅａｒｔｆｕｌｌ,,合同会社,鹿児島県,鹿児島市,草牟田１丁目２－１３ウェーブビル１０１,,46,201,8900014,,,,,,,2025-11-10,1,,,,,ハートフル,0
1755,6360005007313,新規,0,2025-11-10,2025-11-10,一般社団法人世界ウチナーンチュ・ビジネス・ネットワーク沖縄,,その他の設立登記法人,沖縄県,那覇市,首里石嶺町４丁目４８３番地３,,47,201,9030804,,,,,,,2025-11-10,1,,,,,セカイウチナーンチュビジネスネットワークオキナワ,0
1760,6380001035679,新規,0,2025-11-10,2025-11-10,株式会社梨の樹,,株式会社,福島県,白河市,久田野夕顔山１３番地,,07,205,9610011,,,,,,,2025-11-10,1,,,,,ナシノキ,0
1764,6380005013029,新規,0,2025-11-10,2025-11-10,特定非営利活動法人空き家サポートすまいるばんげ,,その他の設立登記法人,福島県,河沼郡会津坂下町,字東南町裏甲３９６８番地２コーポ桜１０１,,07,421,9696544,,,,,,,2025-11-10,1,,,,,アキヤサポートスマイルバンゲ,0
1771,6430001095602,新規,0,2025-11-10,2025-11-10,株式会社ＮＡＫＡＫＵＲＡＦＡＲＭ,,株式会社,北海道,新冠郡新冠町,字万世１８２番地の７,,01,604,0592426,,,,,,,2025-11-10,1,,,,,ナカクラファーム,0
1772,6430001095627,新規,0,2025-11-10,2025-11-10,株式会社火曜日,,株式会社,北海道,札幌市中央区,南二条西３丁目１２－５,,01,101,0600062,,,,,,,2025-11-10,1,,,,,,0
1774,6430003018313,新規,0,2025-11-10,2025-11-10,合同会社リアン,,合同会社,北海道,札幌市清田区,平岡三条６丁目１４番１０号,,01,110,0040873,,,,,,,2025-11-10,1,,,,,リアン,0
1789,7010001259999,新規,0,2025-11-10,2025-11-10,株式会社Ｉｎｃｒｕｉｓｅ,,株式会社,東京都,中央区,銀座１丁目１２－４Ｎ＆ＥＢＬＤ７階,,13,102,1040061,,,,,,,2025-11-10,1,,,,,インクルーズ,0
1790,7010001260057,新規,0,2025-11-10,2025-11-10,ＪＰＡ第３６２号株式会社,,株式会社,東京都,千代田区,霞が関３丁目２番１号,,13,101,1000013,,,,,,,2025-11-10,1,,,,,ジェイピーエーダイサンビャクロクジュウニゴウ,0
1791,7010001260073,新規,0,2025-11-10,2025-11-10,ＪＰＡ第３７８号株式会社,,株式会社,東京都,千代田区,霞が関３丁目２番１号,,13,101,1000013,,,,,,,2025-11-10,1,,,,,ジェイピーエーダイサンビャクナナジュウハチゴウ,0
1808,7010405024999,新規,0,2025-11-10,2025-11-10,一般社団法人京都二条ホテル,,その他の設立登記法人,東京都,港区,虎ノ門５丁目１番４号,,13,103,1050001,,,,,,,2025-11-10,1,,,,,キョウトニジョウホテル,0
1813,7010601068247,新規,0,2025-11-10,2025-11-10,株式会社ブルーヘッジ,,株式会社,東京都,江東区,大島１丁目２９番３号精巧堂１Ｆ,,13,108,1360072,,,,,,,2025-11-10,1,,,,,ブルーヘッジ,0
1816,7010701048586,新規,0,2025-11-10,2025-11-10,株式会社ＭＵネスティア,,株式会社,東京都,品川区,南品川３丁目５－１１,,13,109,1400004,,,,,,,2025-11-10,1,,,,,ミューネスティア,0
1821,7010901058410,新規,0,2025-11-10,2025-11-10,ＲＥＳＥＥＤ株式会社,,株式会社,東京都,世田谷区,深沢１丁目１５番３号セジュール・ウィット２０２,,13,112,1580081,,,,,,,2025-11-10,1,,,,,リシード,0
1827,7011001172779,新規,0,2025-11-10,2025-11-10,株式会社ＷｅＡｄｖａｎｃｅ,,株式会社,東京都,目黒区,中町１丁目２４番１８号,,13,110,1530065,,,,,,,2025-11-10,1,,,,,ウィアドバンス,0
1828,7011001173505,新規,0,2025-11-10,2025-11-10,株式会社ＮＥＸＶＡＬＵＥ,,株式会社,東京都,渋谷区,神宮前６丁目２３番１７号,,13,113,1500001,,,,,,,2025-11-10,1,,,,,ネクスバリュー,0
1829,7011001173637,新規,0,2025-11-10,2025-11-10,背中酒販株式会社,,株式会社,東京都,渋谷区,本町１丁目６０番３号ＫＢＤタックビル１０５,,13,113,1510071,,,,,,,2025-11-10,1,,,,,セナカシュハン,0
1831,7011003022882,新規,0,2025-11-10,2025-11-10,Ｔｉｇｅｒ　ＧＰ合同会社,,合同会社,東京都,渋谷区,神宮前１丁目５番８号,,13,113,1500001,,,,,,,2025-11-10,1,,,,,タイガージーピー,0
1833,7011101113798,新規,0,2025-11-10,2025-11-10,株式会社ミラネット技研,,株式会社,東京都,新宿区,北新宿３丁目１０番１０－７１１号－Ｎ,,13,104,1690074,,,,,,,2025-11-10,1,,,,,ミラネットギケン,0
1834,7011101113864,新規,0,2025-11-10,2025-11-10,株式会社ＹＯＩ,,株式会社,東京都,新宿区,百人町２丁目１番４６号清林荘７号室,,13,104,1690073,,,,,,,2025-11-10,1,,,,,ヨイ,0
1835,7011101113889,新規,0,2025-11-10,2025-11-10,株式会社マスターズ,,株式会社,東京都,新宿区,新宿４丁目３番１７号,,13,104,1600022,,,,,,,2025-11-10,1,,,,,マスターズ,0
1850,7012701019179,新規,0,2025-11-10,2025-11-10,株式会社蕾進,,株式会社,東京都,東久留米市,滝山２丁目５番３～３０２,,13,222,2030033,,,,,,,2025-11-10,1,,,,,ライシン,0
1852,7012805003376,新規,0,2025-11-10,2025-11-10,一般社団法人キャリコンプラス,,その他の設立登記法人,東京都,日野市,万願寺１丁目２０番地グランドメゾン日野万願寺３０２,,13,212,1910024,,,,,,,2025-11-10,1,,,,,,0
1861,7020001165718,新規,0,2025-11-10,2025-11-10,株式会社ＺＥＮＮ　ｄｅｓｉｇｎ,,株式会社,神奈川県,横浜市中区,根岸町３丁目２２７番地ホワイトアイル根岸１０３号,,14,104,2310836,,,,,,,2025-11-10,1,,,,,ゼンデザイン,0
1862,7020001165726,新規,0,2025-11-10,2025-11-10,株式会社Ｎｉｃｏｌ,,株式会社,神奈川県,川崎市多摩区,生田３丁目８番２０－４１１号,,14,135,2140038,,,,,,,2025-11-10,1,,,,,ニコル,0
1868,7020005017031,新規,0,2025-11-10,2025-11-10,一般社団法人魂響,,その他の設立登記法人,神奈川県,横浜市鶴見区,市場西中町６番１０号,,14,101,2300023,,,,,,,2025-11-10,1,,,,,タマユラ,0
1871,7021003016801,新規,0,2025-11-10,2025-11-10,合同会社ＳＯＲＡ,,合同会社,神奈川県,秦野市,北矢名５２４番地５－１０２,,14,211,2570006,,,,,,,2025-11-10,1,,,,,ソラ,0
1875,7030001169536,新規,0,2025-11-10,2025-11-10,もふもふエンターテインメント株式会社,,株式会社,埼玉県,川越市,西小仙波町１丁目３番地１１,,11,201,3500035,,,,,,,2025-11-10,1,,,,,モフモフエンターテインメント,0
1876,7030001169569,新規,0,2025-11-10,2025-11-10,株式会社壮杏造園,,株式会社,埼玉県,三郷市,彦成３丁目１２番１８三郷団地２０３,,11,237,3410003,,,,,,,2025-11-10,1,,,,,ソウアンゾウエン,0
1877,7030001169577,新規,0,2025-11-10,2025-11-10,株式会社ＲＩＢロジスティックス,,株式会社,埼玉県,さいたま市西区,大字飯田新田６２５番地１,,11,101,3310068,,,,,,,2025-11-10,1,,,,,アールアイビーロジスティックス,0
1878,7030001169585,新規,0,2025-11-10,2025-11-10,和久モータース株式会社,,株式会社,埼玉県,羽生市,東４丁目６番１１号,,11,216,3480052,,,,,,,2025-11-10,1,,,,,ワクモータース,0
1879,7030001169610,新規,0,2025-11-10,2025-11-10,株式会社タロウ,,株式会社,埼玉県,久喜市,東大輪１２１３番地１０,,11,232,3400202,,,,,,,2025-11-10,1,,,,,タロウ,0
1896,7040003028945,新規,0,2025-11-10,2025-11-10,西川合同会社,,合同会社,千葉県,船橋市,藤原７丁目２５番２６号,,12,204,2730047,,,,,,,2025-11-10,1,,,,,ニシカワ,0
1901,7050003009746,新規,0,2025-11-10,2025-11-10,合同会社ＰＡＲＴＳ　ＭＡＲＴ,,合同会社,茨城県,牛久市,ひたち野西２丁目１０番４－ウエストサイドストラーダ１０３,,08,219,3001206,,,,,,,2025-11-10,1,,,,,パーツマート,0
1902,7050003009754,新規,0,2025-11-10,2025-11-10,合同会社ＡＹ工業,,合同会社,茨城県,鉾田市,箕輪２１６４番地,,08,234,3111401,,,,,,,2025-11-10,1,,,,,エーワイコウギョウ,0
1907,7070001043530,新規,0,2025-11-10,2025-11-10,株式会社プラン・ドゥ・スペース,,株式会社,群馬県,高崎市,江木町９９１番地１,,10,202,3700046,,,,,,,2025-11-10,1,,,,,プランドゥスペース,0
1908,7070005010444,新規,0,2025-11-10,2025-11-10,めいわ行政書士法人,,その他の設立登記法人,群馬県,高崎市,問屋町４丁目７番地８,,10,202,3700006,,,,,,,2025-11-10,1,,,,,メイワ,0
1910,7080105006548,新規,0,2025-11-10,2025-11-10,税理士法人アクアリウス,,その他の設立登記法人,静岡県,富士市,加島町８番２６－１号,,22,210,4160912,,,,,,,2025-11-10,1,,,,,アクアリウス,0
1913,7090001019603,新規,0,2025-11-10,2025-11-10,株式会社フィーリア,,株式会社,山梨県,中央市,布施１９９０番地ウィルピア２０３,,19,214,4093841,,,,,,,2025-11-10,1,,,,,フィーリア,0
1940,7120001281686,新規,0,2025-11-10,2025-11-10,安心株式会社,,株式会社,大阪府,大阪市都島区,都島本通３丁目２４番６－２０２号,,27,102,5340021,,,,,,,2025-11-10,1,,,,,アンシン,0
1941,7120001281736,新規,0,2025-11-10,2025-11-10,株式会社ＵＳＣ,,株式会社,大阪府,大阪市天王寺区,六万体町３番２１－１４０２号,,27,109,5430074,,,,,,,2025-11-10,1,,,,,ユーエスシー,0
1942,7120001281760,新規,0,2025-11-10,2025-11-10,株式会社ＫＡＩＳＥＩ　ＳＥＲＶＩＣＥ,,株式会社,大阪府,大阪市北区,中之島６丁目４番１号,,27,127,5300005,,,,,,,2025-11-10,1,,,,,カイセイサービス,0
1943,7120001281777,新規,0,2025-11-10,2025-11-10,株式会社ＭＥＥＴ,,株式会社,大阪府,大阪市中央区,備後町３丁目６番２号大雅ビル１０階,,27,128,5410051,,,,,,,2025-11-10,1,,,,,ミート,0
1944,7120001281793,新規,0,2025-11-10,2025-11-10,株式会社Ｃｅｎｔｒａｌ　Ｇｒｏｕｐ,,株式会社,大阪府,大阪市淀川区,西中島４丁目４番２０－９０１号,,27,123,5320011,,,,,,,2025-11-10,1,,,,,セントラルグループ,0
1945,7120001281876,新規,0,2025-11-10,2025-11-10,大鵬株式会社,,株式会社,大阪府,大阪市阿倍野区,天王寺町南２丁目２２番３号５０５号室,,27,119,5450002,,,,,,,2025-11-10,1,,,,,タイホウ,0
1949,7120005025239,新規,0,2025-11-10,2025-11-10,一般社団法人なみはや整形外傷研究会,,その他の設立登記法人,大阪府,大阪市阿倍野区,旭町１丁目４番３号,,27,119,5450051,,,,,,,2025-11-10,1,,,,,ナミハヤセイケイガイショウケンキュウカイ,0
1951,7120101072746,新規,0,2025-11-10,2025-11-10,株式会社繋ぐ工房,,株式会社,大阪府,貝塚市,津田北町１７番１５号,,27,208,5970013,,,,,,,2025-11-10,1,,,,,ツナグコウボウ,0
1952,7120101072754,新規,0,2025-11-10,2025-11-10,株式会社スタジオボウヤ,,株式会社,大阪府,泉大津市,清水町２番１３号,,27,206,5950043,,,,,,,2025-11-10,1,,,,,スタジオボウヤ,0
1959,7120903005936,新規,0,2025-11-10,2025-11-10,合同会社ＭＡＨＫ　ＨＯＭＥ,,合同会社,大阪府,高槻市,淀の原町５６番１６号,,27,207,5690001,,,,,,,2025-11-10,1,,,,,マークホーム,0
1960,7122001039858,新規,0,2025-11-10,2025-11-10,株式会社ＯＡ,,株式会社,大阪府,東大阪市,新池島町３丁目７番－１０－２０６号,,27,227,5798065,,,,,,,2025-11-10,1,,,,,オーエー,0
1961,7122003003382,新規,0,2025-11-10,2025-11-10,ナイガイ合同会社,,合同会社,大阪府,東大阪市,加納８丁目１１番５号,,27,227,5780901,,,,,,,2025-11-10,1,,,,,ナイガイ,0
1965,7130001081004,新規,0,2025-11-10,2025-11-10,ＢＬＡＮＫ　Ａｎｄ株式会社,,株式会社,京都府,京都市西京区,桂下豆田町１番地８,,26,111,6158076,,,,,,,2025-11-10,1,,,,,ブランクアンド,0
1974,7140001140642,新規,0,2025-11-10,2025-11-10,株式会社ネクストリアルティ,,株式会社,兵庫県,西宮市,甲子園口３丁目２５番９－３号,,28,204,6638113,,,,,,,2025-11-10,1,,,,,ネクストリアルティ,0
1975,7140001140700,新規,0,2025-11-10,2025-11-10,株式会社グランメール,,株式会社,兵庫県,伊丹市,緑ケ丘４丁目４０番地,,28,207,6640012,,,,,,,2025-11-10,1,,,,,グランメール,0
1977,7160001027210,新規,0,2025-11-10,2025-11-10,株式会社ＮＯＶＡＧＡＴＥ,,株式会社,滋賀県,野洲市,小篠原２３９３番地,,25,210,5202331,,,,,,,2025-11-10,1,,,,,ノヴァゲート,0
1978,7170003002334,新規,0,2025-11-10,2025-11-10,ＨＥＲＯ　ＰＲＯＪＥＣＴ合同会社,,合同会社,和歌山県,和歌山市,黒田１８５－３Ｋｅｙｓｉｔｅ２Ｆ,,30,201,6408341,,,,,,,2025-11-10,1,,,,,ヒーロープロジェクト,0
1982,7180001169323,新規,0,2025-11-10,2025-11-10,株式会社コリアハウス,,株式会社,愛知県,名古屋市中川区,乗越町１丁目８番地,,23,110,4540813,,,,,,,2025-11-10,1,,,,,コリアハウス,0
1983,7180001169430,新規,0,2025-11-10,2025-11-10,ＦＫＳ株式会社,,株式会社,愛知県,春日井市,上条町５丁目１５６番地,,23,206,4860833,,,,,,,2025-11-10,1,,,,,エフケーエス,0
1989,7180301040398,新規,0,2025-11-10,2025-11-10,東三河ＤｅｎｔａｌＷｏｒｋＮａｖｉ株式会社,,株式会社,愛知県,豊橋市,大橋通１丁目１０２番地３テツビル３Ｆ,,23,201,4400076,,,,,,,2025-11-10,1,,,,,ヒガシミカワデンタルワークナビ,0
2000,7220002013839,新規,0,2025-11-10,2025-11-10,有限会社シンワ運輸サービス,,有限会社,石川県,七尾市,池崎町壱号６番地の１,,17,202,9260831,,,,,,,2025-11-10,1,,,,,,0
2010,7240001065747,新規,0,2025-11-10,2025-11-10,株式会社広島報徳,,株式会社,広島県,広島市安芸区,矢野東２丁目３１番２３号,,34,107,7360083,,,,,,,2025-11-10,1,,,,,ヒロシマホウトク,0
2013,7240003007466,新規,0,2025-11-10,2025-11-10,ライフキャリアコンサルティング合同会社,,合同会社,広島県,尾道市,浦崎町３５４２番地１,,34,205,7200551,,,,,,,2025-11-10,1,,,,,ライフキャリアコンサルティング,0
2018,7260003005410,新規,0,2025-11-10,2025-11-10,合同会社Ｙｎｅｃｔ,,合同会社,岡山県,岡山市中区,西川原３０６番地３－３１３,,33,102,7038258,,,,,,,2025-11-10,1,,,,,イネクト,0
2026,7290801032000,新規,0,2025-11-10,2025-11-10,株式会社ＣＨＥＲＩＥ,,株式会社,福岡県,北九州市小倉北区,竪町２丁目４－２サンシャインプリンセス五番街Ｂ号,,40,106,8030818,,,,,,,2025-11-10,1,,,,,シェリー,0
2027,7290801032017,新規,0,2025-11-10,2025-11-10,株式会社ｉＫ,,株式会社,福岡県,北九州市小倉北区,須賀町２１番１－４１４,,40,106,8020034,,,,,,,2025-11-10,1,,,,,アイケイ,0
2033,7330003011302,新規,0,2025-11-10,2025-11-10,合同会社乃美華,,合同会社,熊本県,熊本市北区,清水岩倉１丁目１７番１０号,,43,105,8618084,,,,,,,2025-11-10,1,,,,,ノミバナ,0
2043,7370003007362,新規,0,2025-11-10,2025-11-10,合同会社夢光,,合同会社,宮城県,仙台市宮城野区,幸町３丁目２番１０－１０５号,,04,102,9830836,,,,,,,2025-11-10,1,,,,,ユメミツ,0
2048,7390001018153,新規,0,2025-11-10,2025-11-10,株式会社山形リアライズ,,株式会社,山形県,山形市,みはらしの丘２丁目１７番地２,,06,201,9902317,,,,,,,2025-11-10,1,,,,,ヤマガタリアライズ,0
2053,7430001095626,新規,0,2025-11-10,2025-11-10,株式会社Ｃｒｅｓｔ,,株式会社,北海道,札幌市中央区,南一条西８丁目１４番地３札幌第二スカイビル４階Ａ室,,01,101,0600061,,,,,,,2025-11-10,1,,,,,クレスト,0
2057,7470001020951,新規,0,2025-11-10,2025-11-10,株式会社匠技建,,株式会社,香川県,坂出市,林田町２８１８番地５,,37,203,7620012,,,,,,,2025-11-10,1,,,,,タクミギケン,0
2066,8010001259775,新規,0,2025-11-10,2025-11-10,和慧株式会社,,株式会社,東京都,千代田区,丸の内１丁目９番２号グラントウキョウサウスタワー,,13,101,1000005,,,,,,,2025-11-10,1,,,,,ワケイ,0
2067,8010001259940,新規,0,2025-11-10,2025-11-10,三能新能源日本株式会社,,株式会社,東京都,千代田区,神田岩本町４番地７＋ＳＨＩＦＴＫＡＮＤＡ３階,,13,101,1010033,,,,,,,2025-11-10,1,,,,,サンノウシンノウゲンニホン,0
2068,8010001260056,新規,0,2025-11-10,2025-11-10,ＪＰＡ第３６１号株式会社,,株式会社,東京都,千代田区,霞が関３丁目２番１号,,13,101,1000013,,,,,,,2025-11-10,1,,,,,ジェイピーエーダイサンビャクロクジュウイチゴウ,0
2069,8010001260072,新規,0,2025-11-10,2025-11-10,ＪＰＡ第３７７号株式会社,,株式会社,東京都,千代田区,霞が関３丁目２番１号,,13,101,1000013,,,,,,,2025-11-10,1,,,,,ジェイピーエーダイサンビャクナナジュウナナゴウ,0
2070,8010001260097,新規,0,2025-11-10,2025-11-10,ニチリョクライフケア株式会社,,株式会社,東京都,中央区,八重洲１丁目７番２０号,,13,102,1030028,,,,,,,2025-11-10,1,,,,,ニチリョクライフケア,0
2071,8010001260114,新規,0,2025-11-10,2025-11-10,ＭＫホールディングス株式会社,,株式会社,東京都,千代田区,大手町１丁目５番１号,,13,101,1000004,,,,,,,2025-11-10,1,,,,,エムケイホールディングス,0
2073,8010003049290,新規,0,2025-11-10,2025-11-10,ＣＡＮＶＡＳＳ１合同会社,,合同会社,東京都,千代田区,霞が関３丁目２番５号,,13,101,1000013,,,,,,,2025-11-10,1,,,,,キャンバスワン,0
2074,8010003049299,新規,0,2025-11-10,2025-11-10,合同会社あんみつ堂,,合同会社,東京都,中央区,銀座１丁目２２－１１銀座大竹ビジデンス２階,,13,102,1040061,,,,,,,2025-11-10,1,,,,,アンミツドウ,0
2075,8010003049340,新規,0,2025-11-10,2025-11-10,ＣＯＲＡＬ合同会社,,合同会社,東京都,中央区,日本橋室町１丁目１１番１２号日本橋水野ビル７階,,13,102,1030022,,,,,,,2025-11-10,1,,,,,コーラル,0
2077,8010005040917,新規,0,2025-11-10,2025-11-10,一般社団法人クリスタルホールディングスフォー,,その他の設立登記法人,東京都,千代田区,丸の内１丁目４番１号東京共同会計事務所内,,13,101,1000005,,,,,,,2025-11-10,1,,,,,クリスタルホールディングスフォー,0
2080,8010401194226,新規,0,2025-11-10,2025-11-10,株式会社金属核科学研究所,,株式会社,東京都,港区,芝１丁目９番１０号,,13,103,1050014,,,,,,,2025-11-10,1,,,,,キンゾクカクカガクケンキュウジョ,0
2082,8010405024998,新規,0,2025-11-10,2025-11-10,ＳＰＡＲＫ一般社団法人,,その他の設立登記法人,東京都,港区,虎ノ門５丁目１番４号,,13,103,1050001,,,,,,,2025-11-10,1,,,,,スパーク,0
2091,8010701048577,新規,0,2025-11-10,2025-11-10,ＡｘｉａＮｅｘｔ株式会社,,株式会社,東京都,品川区,中延４丁目１３番３号,,13,109,1420053,,,,,,,2025-11-10,1,,,,,アクシアネクスト,0
2092,8010805003222,新規,0,2025-11-10,2025-11-10,学校法人梅光学園,,その他の設立登記法人,東京都,大田区,東矢口１丁目６番１４号,,13,111,1460094,,,,,,,2025-11-10,1,,,,,バイコウガクエン,0
2096,8011001173388,新規,0,2025-11-10,2025-11-10,株式会社サイド,,株式会社,東京都,渋谷区,円山町５番５号Ｎａｖｉ渋谷Ｖ３階,00141442,13,113,1500044,,,,,,,2025-11-10,1,,,,,サイド,0
2098,8011003022799,新規,0,2025-11-10,2025-11-10,Ｔｏｋｙｏ４合同会社,,合同会社,東京都,渋谷区,初台１丁目３８番８号２０１,,13,113,1510061,,,,,,,2025-11-10,1,,,,,トウキョウフォー,0
2099,8011003022881,新規,0,2025-11-10,2025-11-10,Ｔｉｇｅｒ　ＬＰ合同会社,,合同会社,東京都,渋谷区,神宮前１丁目５番８号,,13,113,1500001,,,,,,,2025-11-10,1,,,,,タイガーエルピー,0
2100,8011005011222,新規,0,2025-11-10,2025-11-10,一般社団法人日本ファンファーレオーケストラ協会,,その他の設立登記法人,東京都,渋谷区,代々木３丁目３３番７号フォレストタウン参宮橋５０２,,13,113,1510053,,,,,,,2025-11-10,1,,,,,ニホンファンファーレオーケストラキョウカイ,0
2101,8011005011230,新規,0,2025-11-10,2025-11-10,ＧＪＤＣＶ４特定目的会社,,その他の設立登記法人,東京都,渋谷区,恵比寿１丁目２０番２号７０４号室嶋本公認会計士事務所気付,,13,113,1500013,,,,,,,2025-11-10,1,,,,,ジージェイディーシーブイフォー,0
2102,8011101017180,新規,0,2025-11-10,2025-11-10,株式会社バウハウスデザイン,,株式会社,東京都,新宿区,歌舞伎町２丁目４２番１１号,,13,104,1600021,,,,,,,2025-11-10,1,,,,,バウハウスデザイン,0
2105,8011101113888,新規,0,2025-11-10,2025-11-10,ＮＫホールディングス株式会社,,株式会社,東京都,新宿区,市谷山伏町２番３号,,13,104,1620857,,,,,,,2025-11-10,1,,,,,エヌケーホールディングス,0
2106,8011101113896,新規,0,2025-11-10,2025-11-10,ガーベラリアルエステート株式会社,,株式会社,東京都,新宿区,愛住町１９番地,,13,104,1600005,,,,,,,2025-11-10,1,,,,,ガーベラリアルエステート,0
2109,8011205002715,新規,0,2025-11-10,2025-11-10,一般社団法人スズキコージ美術館,,その他の設立登記法人,東京都,中野区,中央１丁目４０番４号,,13,114,1640011,,,,,,,2025-11-10,1,,,,,スズキコージビジュツカン,0
2117,8011701028908,新規,0,2025-11-10,2025-11-10,株式会社コーケン,,株式会社,東京都,江戸川区,南篠崎町３丁目６番３号,,13,123,1330065,,,,,,,2025-11-10,1,,,,,コーケン,0
2118,8011801047007,新規,0,2025-11-10,2025-11-10,株式会社ＮａｒａｎＴｏｏｎｏ,,株式会社,東京都,足立区,西新井本町５丁目１２番１９号秀和西新井レジデンス２１４,,13,121,1230845,,,,,,,2025-11-10,1,,,,,ナラントーノ,0
2119,8012401043791,新規,0,2025-11-10,2025-11-10,株式会社ＬＯＯＰ,,株式会社,東京都,府中市,宮西町１丁目１４番地の２,,13,206,1830022,,,,,,,2025-11-10,1,,,,,ループ,0
2122,8012701019178,新規,0,2025-11-10,2025-11-10,株式会社ガストロジー,,株式会社,東京都,西東京市,住吉町２丁目１２番９号,,13,229,2020005,,,,,,,2025-11-10,1,,,,,ガストロジー,0
2123,8012801024342,新規,0,2025-11-10,2025-11-10,株式会社ＶＡＬＩＫ,,株式会社,東京都,国立市,西２丁目１４番地の３７プチラパンＡ,,13,215,1860005,,,,,,,2025-11-10,1,,,,,バリク,0
2134,8020001165725,新規,0,2025-11-10,2025-11-10,株式会社熔岩焼肉快晴,,株式会社,神奈川県,横浜市磯子区,杉田４丁目８番６号シティー５、２Ｆ,,14,107,2350033,,,,,,,2025-11-10,1,,,,,ヨウガンヤキニクカイセイ,0
2139,8020003029762,新規,0,2025-11-10,2025-11-10,Ｌａ　Ｐｉｇｎｅｌｌａ合同会社,,合同会社,神奈川県,横浜市旭区,今宿南町１８１８番地１０,,14,112,2410034,,,,,,,2025-11-10,1,,,,,ラピニェッラ,0
2142,8021001086804,新規,0,2025-11-10,2025-11-10,ジャンボステ株式会社,,株式会社,神奈川県,藤沢市,鵠沼石上１丁目７―８ビックライズビル５Ｆ,,14,205,2510025,,,,,,,2025-11-10,1,,,,,ジャンボステ,0
2154,8030001169568,新規,0,2025-11-10,2025-11-10,株式会社ＲＥＭＵＲＵ,,株式会社,埼玉県,深谷市,樫合３８９番地２,,11,218,3660816,,,,,,,2025-11-10,1,,,,,リムル,0
2155,8030001169576,新規,0,2025-11-10,2025-11-10,Ｓｔａｒ　Ｖｉｌｌａｇｅ株式会社,,株式会社,埼玉県,さいたま市緑区,大字大門５３８,,11,109,3360963,,,,,,,2025-11-10,1,,,,,スターヴィレッジ,0
2156,8030001169634,新規,0,2025-11-10,2025-11-10,Ｄａｉｎｏｋｉ環境サービス株式会社,,株式会社,埼玉県,越谷市,七左町４丁目１５－１０,,11,222,3430851,,,,,,,2025-11-10,1,,,,,ダイノキカンキョウサービス,0
2157,8030001169642,新規,0,2025-11-10,2025-11-10,株式会社日本パワー,,株式会社,埼玉県,草加市,青柳７丁目６番１２号,,11,221,3400002,,,,,,,2025-11-10,1,,,,,ニッポンパワー,0
2167,8030003028045,新規,0,2025-11-10,2025-11-10,Ａｙｕｍｉ合同会社,,合同会社,埼玉県,熊谷市,押切２５６９番地１,,11,202,3600111,,,,,,,2025-11-10,1,,,,,アユミ,0
2174,8040003028944,新規,0,2025-11-10,2025-11-10,合同会社やどりぎ,,合同会社,千葉県,木更津市,木更津３丁目６－３,,12,206,2920056,,,,,,,2025-11-10,1,,,,,ヤドリギ,0
2178,8050003009745,新規,0,2025-11-10,2025-11-10,合同会社大幸組,,合同会社,茨城県,那珂郡東海村,大字舟石川４３３番地３,,08,341,3191111,,,,,,,2025-11-10,1,,,,,ダイコウグミ,0
2187,8080001027250,新規,0,2025-11-10,2025-11-10,株式会社アトリエＢｉｔｅ　ｍａｒｋ,,株式会社,静岡県,島田市,旭３丁目３７番１３号,,22,209,4270018,,,,,,,2025-11-10,1,,,,,アトリエバイトマーク,0
2194,8100001039103,新規,0,2025-11-10,2025-11-10,東亜コンサルティング株式会社,,株式会社,長野県,松本市,五常７７４２番地,,20,202,3997401,,,,,,,2025-11-10,1,,,,,トウアコンサルティング,0
2197,8100003008469,新規,0,2025-11-10,2025-11-10,合同会社アークレスト,,合同会社,長野県,松本市,大字岡田松岡２７０番地４フォーレス・コバヤシ２０１,,20,202,3900312,,,,,,,2025-11-10,1,,,,,アークレスト,0
2212,8120001281743,新規,0,2025-11-10,2025-11-10,山珍宝株式会社,,株式会社,大阪府,大阪市中央区,千日前１丁目６－６明日香ビル５７室,,27,128,5420074,,,,,,,2025-11-10,1,,,,,サンチンホウ,0
2213,8120001281801,新規,0,2025-11-10,2025-11-10,株式会社ＲｅＭｅｎｄ,,株式会社,大阪府,大阪市中央区,南船場３丁目２番２２号おおきに南船場ビル２０５,,27,128,5420081,,,,,,,2025-11-10,1,,,,,リメンド,0
2214,8120001281834,新規,0,2025-11-10,2025-11-10,株式会社新しいきもの着付け教室,,株式会社,大阪府,大阪市北区,梅田２丁目２－２ヒルトンプラザウエストオフィスタワー１９階,,27,127,5300001,,,,,,,2025-11-10,1,,,,,アタラシイキモノキツケキョウシツ,0
2218,8120003031196,新規,0,2025-11-10,2025-11-10,ＯＪＪ　ＣＯＬＬＥＣＴＩＯＮＳ合同会社,,合同会社,大阪府,大阪市中央区,島之内２丁目６番５号第三エクセルビル３７,,27,128,5420082,,,,,,,2025-11-10,1,,,,,オージェージェーコレクションズ,0
2219,8120101072761,新規,0,2025-11-10,2025-11-10,株式会社明進建設,,株式会社,大阪府,堺市北区,新金岡町３丁４番８号,,27,146,5918021,,,,,,,2025-11-10,1,,,,,メイシンケンセツ,0
2221,8120105010081,新規,0,2025-11-10,2025-11-10,一般社団法人障がい児・者のお父ちゃんつぶやきの会,,その他の設立登記法人,大阪府,岸和田市,門前町３丁目４番１５号,,27,202,5960828,,,,,,,2025-11-10,1,,,,,ショウガイジシャノオトウチャンツブヤキノカイ,0
2228,8130001080979,新規,0,2025-11-10,2025-11-10,北ＳＡＮ株式会社,,株式会社,京都府,京都市右京区,西院清水町１５４番地４,,26,108,6150052,,,,,,,2025-11-10,1,,,,,キタサン,0
2239,8140005027686,新規,0,2025-11-10,2025-11-10,一般社団法人関西家族信託協会,,その他の設立登記法人,兵庫県,伊丹市,野間７丁目１１番地４ＬＩＺＥ伊丹ビル４階,,28,207,6640873,,,,,,,2025-11-10,1,,,,,カンサイカゾクシンタクキョウカイ,0
2240,8160003003638,新規,0,2025-11-10,2025-11-10,合同会社風知,,合同会社,滋賀県,大津市,皇子が丘１丁目１６番１２号,,25,201,5200025,,,,,,,2025-11-10,1,,,,,,0
2241,8160005011465,新規,0,2025-11-10,2025-11-10,医療法人いりかわ耳鼻咽喉科,,その他の設立登記法人,滋賀県,草津市,南草津５丁目４番地１４,,25,206,5250050,,,,,,,2025-11-10,1,,,,,イリカワジビインコウカ,0
2254,8180001169330,新規,0,2025-11-10,2025-11-10,株式会社帝国グループ,,株式会社,愛知県,名古屋市中村区,名駅１丁目１番１号ＪＰタワー名古屋２１階,,23,105,4500002,,,,,,,2025-11-10,1,,,,,テイコクグループ,0
2255,8180001169396,新規,0,2025-11-10,2025-11-10,株式会社ＳＵＭＲＩＳＥ,,株式会社,愛知県,名古屋市中区,松原３丁目７番１５号,,23,106,4600017,,,,,,,2025-11-10,1,,,,,スムライズ,0
2261,8190001032669,新規,0,2025-11-10,2025-11-10,株式会社ヴェルデラッソ松阪,,株式会社,三重県,松阪市,高町６７２番地１,,24,204,5150011,,,,,,,2025-11-10,1,,,,,ヴェルデラッソマツサカ,0
2267,8220003004159,新規,0,2025-11-10,2025-11-10,ＧＲＡＰＨＩＣ　ＷＯＲＫ合同会社,,合同会社,石川県,野々市市,新庄２丁目２９５番地１,,17,212,9218824,,,,,,,2025-11-10,1,,,,,グラフィックワーク,0
2271,8240001065746,新規,0,2025-11-10,2025-11-10,株式会社アシスト,,株式会社,広島県,福山市,神辺町大字新湯野６番地１０,,34,207,7202122,,,,,,,2025-11-10,1,,,,,アシスト,0
2274,8240003007473,新規,0,2025-11-10,2025-11-10,合同会社ＡＬＩＮＥ,,合同会社,広島県,広島市安佐南区,祇園１丁目３番２４号アーバン田部ＩＩＩ１階,00141444,34,105,7310138,,,,,,,2025-11-10,1,,,,,アライン,0
2283,8290001112147,新規,0,2025-11-10,2025-11-10,株式会社ｌｅｇｉｔ,,株式会社,福岡県,糟屋郡須惠町,大字新原８９－１,,40,344,8112111,,,,,,,2025-11-10,1,,,,,レジット,0
2286,8290003017641,新規,0,2025-11-10,2025-11-10,合同会社ＣＳＳ,,合同会社,福岡県,福岡市中央区,大名２丁目２番８－８０４号,,40,133,8100041,,,,,,,2025-11-10,1,,,,,シーエスエス,0
2287,8290003017682,新規,0,2025-11-10,2025-11-10,Ｙアセット合同会社,,合同会社,福岡県,福岡市西区,愛宕浜２丁目３番１１－１５０６号,,40,135,8190013,,,,,,,2025-11-10,1,,,,,ワイアセット,0
2294,8320001021427,新規,0,2025-11-10,2025-11-10,株式会社ソーリン,,株式会社,大分県,大分市,大字寒田７９３番地の１９シャーメゾン見晴台Ｄ２０３,,44,201,8701123,,,,,,,2025-11-10,1,,,,,ソーリン,0
2296,8350001019798,新規,0,2025-11-10,2025-11-10,株式会社サンライズ船ヶ山,,株式会社,宮崎県,宮崎市,吉村町大田ケ島甲４０１番地９,,45,201,8800841,,,,,,,2025-11-10,1,,,,,サンライズフナガヤマ,0
2305,8380001035685,新規,0,2025-11-10,2025-11-10,株式会社齋藤工業所,,株式会社,福島県,福島市,蓬莱町六丁目１３番８号,00141459,07,201,9600000,,,,,,,2025-11-10,1,,,,,サイトウコウギョウショ,0
2312,8430001095609,新規,0,2025-11-10,2025-11-10,ＳＫＧＲＯＵＰ株式会社,,株式会社,北海道,札幌市厚別区,厚別町山本１０６４,,01,108,0040069,,,,,,,2025-11-10,1,,,,,エスケーグループ,0
2313,8430001095625,新規,0,2025-11-10,2025-11-10,株式会社ＩＭ防水工業,,株式会社,北海道,恵庭市,美咲野１丁目１５番１号,,01,231,0611427,,,,,,,2025-11-10,1,,,,,アイエムボウスイコウギョウ,0
2317,8440001009708,新規,0,2025-11-10,2025-11-10,株式会社わがや,,株式会社,北海道,函館市,松風町５番１２号,,01,202,0400035,,,,,,,2025-11-10,1,,,,,ワガヤ,0
2322,8480003002351,新規,0,2025-11-10,2025-11-10,ＧＭＳ合同会社,,合同会社,徳島県,徳島市,南昭和町１丁目２３－３０４,,36,201,7700944,,,,,,,2025-11-10,1,,,,,ジーエムエス,0
2332,9010001259808,新規,0,2025-11-10,2025-11-10,リリーブラン株式会社,,株式会社,東京都,千代田区,六番町１０－１－７０１,,13,101,1020085,,,,,,,2025-11-10,1,,,,,リリーブラン,0
2333,9010001260047,新規,0,2025-11-10,2025-11-10,株式会社リベラＡＩコンサルティング,,株式会社,東京都,千代田区,麹町４丁目８番地１麹町クリスタルシティ東館２階,00141452,13,101,1020083,,,,,,,2025-11-10,1,,,,,リベラエーアイコンサルティング,0
2334,9010001260055,新規,0,2025-11-10,2025-11-10,ＪＰＡ第３６０号株式会社,,株式会社,東京都,千代田区,霞が関３丁目２番１号,,13,101,1000013,,,,,,,2025-11-10,1,,,,,ジェイピーエーダイサンビャクロクジュウゴウ,0
2335,9010001260063,新規,0,2025-11-10,2025-11-10,ＪＰＡ第３６８号株式会社,,株式会社,東京都,千代田区,霞が関３丁目２番１号,,13,101,1000013,,,,,,,2025-11-10,1,,,,,ジェイピーエーダイサンビャクロクジュウハチゴウ,0
2336,9010001260071,新規,0,2025-11-10,2025-11-10,ＪＰＡ第３７６号株式会社,,株式会社,東京都,千代田区,霞が関３丁目２番１号,,13,101,1000013,,,,,,,2025-11-10,1,,,,,ジェイピーエーダイサンビャクナナジュウロクゴウ,0
2337,9010001260113,新規,0,2025-11-10,2025-11-10,ＪＨＯＭＥ株式会社,,株式会社,東京都,中央区,湊２丁目１５－１４,,13,102,1040043,,,,,,,2025-11-10,1,,,,,ジェイホーム,0
2338,9010001260170,新規,0,2025-11-10,2025-11-10,株式会社ｂｏｘｘ,,株式会社,東京都,千代田区,外神田３丁目１４－５久郷ビル３階Ｂ,,13,101,1010021,,,,,,,2025-11-10,1,,,,,ボックス,0
2341,9010003049298,新規,0,2025-11-10,2025-11-10,合同会社アイランドシップ７号,,合同会社,東京都,中央区,京橋２丁目１２番６号ＡＯＪ税理士法人内,,13,102,1040031,,,,,,,2025-11-10,1,,,,,アイランドシップナナゴウ,0
2342,9010003049307,新規,0,2025-11-10,2025-11-10,合同会社ＬＵＮＡｉｙ,,合同会社,東京都,中央区,銀座１丁目１２番４号６Ｆ,,13,102,1040061,,,,,,,2025-11-10,1,,,,,ルナイ,0
2343,9010003049315,新規,0,2025-11-10,2025-11-10,サステナ・カタリスト合同会社,,合同会社,東京都,中央区,日本橋室町１丁目７番１号スルガビル７階,,13,102,1030022,,,,,,,2025-11-10,1,,,,,サステナカタリスト,0
2344,9010003049348,新規,0,2025-11-10,2025-11-10,合同会社ＨＭＺＥＨ９,,合同会社,東京都,中央区,銀座４丁目６番１号三幸アセットマネジメント株式会社内,,13,102,1040061,,,,,,,2025-11-10,1,,,,,エイチエムゼッチナイン,0
2346,9010005040908,新規,0,2025-11-10,2025-11-10,ＫＭＲ一般社団法人,,その他の設立登記法人,東京都,中央区,日本橋１丁目４番１号日本橋一丁目ビルディング,,13,102,1030027,,,,,,,2025-11-10,1,,,,,ケイエムアール,0
2347,9010103002693,新規,0,2025-11-10,2025-11-10,ダンデライオンラボラトリー合同会社,,合同会社,東京都,八王子市,狭間町１４５８－５グリーンパーク八王子２０１,,13,201,1930941,,,,,,,2025-11-10,1,,,,,ダンデライオンラボラトリー,0
2351,9010401194357,新規,0,2025-11-10,2025-11-10,Ｆｕｌｃｒｕｍ　Ａｃｏｕｓｔｉｃ　Ｊａｐａｎ株式会社,,株式会社,東京都,港区,港南２丁目１６番１号品川イーストワンタワー,,13,103,1080075,,,,,,,2025-11-10,1,,,,,フルクラムアコースティックジャパン,0
2354,9010403036540,新規,0,2025-11-10,2025-11-10,アソート合同会社,,合同会社,東京都,港区,元赤坂１丁目１番７－１２０９号株式会社赤坂国際会計内,,13,103,1070051,,,,,,,2025-11-10,1,,,,,アソート,0
2356,9010405024898,新規,0,2025-11-10,2025-11-10,一般社団法人日本アクティブドローン協会,,その他の設立登記法人,東京都,港区,白金台４丁目７番４号白金台ＳＴビル７Ｆ,,13,103,1080071,,,,,,,2025-11-10,1,,,,,ニホンアクティブドローンキョウカイ,0
2362,9010601068253,新規,0,2025-11-10,2025-11-10,株式会社ＵＡＣ,,株式会社,東京都,江東区,亀戸７丁目２４番４号ハイツ栄１０１,,13,108,1360071,,,,,,,2025-11-10,1,,,,,ユーエーシー,0
2376,9011001173494,新規,0,2025-11-10,2025-11-10,株式会社ＨＡＯＮ,,株式会社,東京都,渋谷区,神宮前６丁目２３番４号桑野ビル２階,,13,113,1500001,,,,,,,2025-11-10,1,,,,,ハオン,0
2377,9011001173602,新規,0,2025-11-10,2025-11-10,株式会社レヴィアン,,株式会社,東京都,渋谷区,大山町２６番１－１０２号,,13,113,1510065,,,,,,,2025-11-10,1,,,,,レヴィアン,0
2382,9011005011238,新規,0,2025-11-10,2025-11-10,一般社団法人日本ＰＭＵ推進機構,,その他の設立登記法人,東京都,目黒区,鷹番３丁目１４番４号,,13,110,1520004,,,,,,,2025-11-10,1,,,,,ニホンピーエムユースイシンキコウ,0
2389,9011801047014,新規,0,2025-11-10,2025-11-10,株式会社スクスク,,株式会社,東京都,葛飾区,東金町６丁目６番２号,,13,122,1250041,,,,,,,2025-11-10,1,,,,,スクスク,0
2402,9020001165609,新規,0,2025-11-10,2025-11-10,株式会社アイアイ,,株式会社,神奈川県,川崎市中原区,井田杉山町２９－１３－２０１,,14,133,2110036,,,,,,,2025-11-10,1,,,,,アイアイ,0
2411,9020005017021,新規,0,2025-11-10,2025-11-10,特定非営利活動法Ｉｎｔｅｒｎａｔｉｏｎａｌ　Ｃｏｍｐｕｔｅｒ　Ｓｃｉｅｎｃｅ　Ｅｄｕｃａｔｉｏｎ　Ｃｏｎｓｏｒｔｉｕｍ,,その他の設立登記法人,神奈川県,横浜市青葉区,青葉台１丁目１３－１,,14,117,2270062,,,,,,,2025-11-10,1,,,,,インターナショナルコンピューターエデュケーションコンソーシアム,0
2423,9030001169567,新規,0,2025-11-10,2025-11-10,株式会社ＳＥＡ　ＧＲＯＵＮＤ,,株式会社,埼玉県,川越市,大字山田６５４番地１,,11,201,3500822,,,,,,,2025-11-10,1,,,,,シーグラウンド,0
2424,9030001169583,新規,0,2025-11-10,2025-11-10,株式会社葵,,株式会社,埼玉県,朝霞市,東弁財１丁目６番２３号グリーンガーデン朝霞台１０１,,11,227,3510022,,,,,,,2025-11-10,1,,,,,アオイ,0
2425,9030001169600,新規,0,2025-11-10,2025-11-10,ルディムス株式会社,,株式会社,埼玉県,富士見市,大字下南畑３９５２番地１１,,11,235,3540004,,,,,,,2025-11-10,1,,,,,ルディムス,0
2426,9030001169617,新規,0,2025-11-10,2025-11-10,株式会社喜京屋新兵衛,,株式会社,埼玉県,越谷市,越ヶ谷本町４番２９号,,11,222,3430818,,,,,,,2025-11-10,1,,,,,キキョウヤシンベエ,0
2431,9030005022326,新規,0,2025-11-10,2025-11-10,特定非営利活動法人地域連携ロコモ・フレイル研究会,,その他の設立登記法人,埼玉県,北足立郡伊奈町,大字小室１０２８１都築学園日本薬科大学,,11,301,3620806,,,,,,,2025-11-10,1,,,,,チイキレンケイロコモフレイルケンキュウカイ,0
2434,9040001141252,新規,0,2025-11-10,2025-11-10,株式会社Ｆｕｌｌｈｅａｌ,,株式会社,千葉県,船橋市,薬円台２丁目１１番１号,,12,204,2740077,,,,,,,2025-11-10,1,,,,,フルヒール,0
2435,9040001141285,新規,0,2025-11-10,2025-11-10,株式会社ＬＳＯ,,株式会社,千葉県,流山市,南流山６丁目２９番地の１南流山壱番街２－５０２,,12,220,2700163,,,,,,,2025-11-10,1,,,,,エルエスオー,0
2437,9050001057563,新規,0,2025-11-10,2025-11-10,株式会社インプレスライフ,,株式会社,茨城県,那珂郡東海村,大字船場６８０番地６,,08,341,3191115,,,,,,,2025-11-10,1,,,,,インプレスライフ,0
2444,9070001043529,新規,0,2025-11-10,2025-11-10,株式会社ノザワ商会,,株式会社,群馬県,北群馬郡榛東村,大字広馬場３８１６番地９,,10,344,3703504,,,,,,,2025-11-10,1,,,,,ノザワショウカイ,0
2446,9070003006178,新規,0,2025-11-10,2025-11-10,合同会社相談支援ツバメ,,合同会社,群馬県,伊勢崎市,田中島町１４００番地６グランディールビルアネックス２０６号,,10,204,3720802,,,,,,,2025-11-10,1,,,,,,0
2448,9080001027258,新規,0,2025-11-10,2025-11-10,ハツミアセットマネジメント株式会社,,株式会社,静岡県,島田市,野田１５１８番地の７,,22,209,4270007,,,,,,,2025-11-10,1,,,,,ハツミアセットマネジメント,0
2452,9100003008468,新規,0,2025-11-10,2025-11-10,合同会社Ｒｅｌａｉｓｅ,,合同会社,長野県,北安曇郡池田町,大字会染１１８８８番地６,,20,481,3998602,,,,,,,2025-11-10,1,,,,,リレイズ,0
2477,9120001281809,新規,0,2025-11-10,2025-11-10,ＹＯＲＩＭＩＣＨＩ株式会社,,株式会社,大阪府,大阪市北区,梅田１丁目１１番４－Ｂ２００号,,27,127,5300001,,,,,,,2025-11-10,1,,,,,ヨリミチ,0
2478,9120001281817,新規,0,2025-11-10,2025-11-10,株式会社ネクストブリッジ,,株式会社,大阪府,大阪市西区,京町堀１丁目４番１６号センチュリービル８階,,27,106,5500003,,,,,,,2025-11-10,1,,,,,ネクストブリッジ,0
2483,9120003031204,新規,0,2025-11-10,2025-11-10,合同会社ワンフォワード,,合同会社,大阪府,大阪市中央区,南船場３丁目２番２２号おおきに南船場ビル２０５,,27,128,5420081,,,,,,,2025-11-10,1,,,,,ワンフォワード,0
2487,9122003003380,新規,0,2025-11-10,2025-11-10,合同会社ＹＡＭＡＮＯ,,合同会社,大阪府,東大阪市,南四条町５番５号２０６号室,,27,227,5798054,,,,,,,2025-11-10,1,,,,,ヤマノ,0
2491,9130001080961,新規,0,2025-11-10,2025-11-10,株式会社ＳｈｙＮｅ,,株式会社,京都府,南丹市,園部町大河内ノロ９番地９,,26,213,6220065,,,,,,,2025-11-10,1,,,,,シャイニー,0
2492,9130001080978,新規,0,2025-11-10,2025-11-10,アセットマネジメントカンパニー株式会社,,株式会社,京都府,京都市西京区,嵐山朝月町２４番地９,,26,111,6160022,,,,,,,2025-11-10,1,,,,,アセットマネジメントカンパニー,0
2493,9130001081002,新規,0,2025-11-10,2025-11-10,株式会社ＤＡＶＡ,,株式会社,京都府,京都市下京区,七条通油小路東入大黒町２２７番地第２キョートビル４０２,,26,106,6008223,,,,,,,2025-11-10,1,,,,,ダバ,0
2495,9130003010917,新規,0,2025-11-10,2025-11-10,ｍｃ２２コンサルティング合同会社,,合同会社,京都府,京都市中京区,橋弁慶町２２７番地第１２長谷ビル７階,,26,104,6048151,,,,,,,2025-11-10,1,,,,,エムシーツーツーコンサルティング,0
2497,9140001140731,新規,0,2025-11-10,2025-11-10,ＨＩＲＯ　ＡＵＴＯ株式会社,,株式会社,兵庫県,神戸市垂水区,舞子台７丁目３番２－９０５号,,28,108,6550046,,,,,,,2025-11-10,1,,,,,ヒロオート,0
2512,9180001169346,新規,0,2025-11-10,2025-11-10,株式会社ヤノハス,,株式会社,愛知県,名古屋市中村区,太閤３丁目９番５号ＷｈｉｔｅＨｉｌｌｓＷｅｓｔ１０３,,23,105,4530801,,,,,,,2025-11-10,1,,,,,ヤノハス,0
2513,9180001169437,新規,0,2025-11-10,2025-11-10,株式会社トライド,,株式会社,愛知県,常滑市,井戸田町１丁目１６２番地の１,,23,216,4790812,,,,,,,2025-11-10,1,,,,,トライド,0
2519,9180003029333,新規,0,2025-11-10,2025-11-10,合同会社ＭＡＥＤＡレンタカー,,合同会社,愛知県,稲沢市,西溝口町南郷３番地,,23,220,4928452,,,,,,,2025-11-10,1,,,,,マエダレンタカー,0
2520,9180005021305,新規,0,2025-11-10,2025-11-10,一般社団法人諏訪実行組合,,その他の設立登記法人,愛知県,愛西市,諏訪町郷東１０５番地１,,23,232,4968011,,,,,,,2025-11-10,1,,,,,スワジッコウクミアイ,0
2530,9200005013811,新規,0,2025-11-10,2025-11-10,一般社団法人アルプス薬品共助会,,その他の設立登記法人,岐阜県,飛騨市,古川町向町２丁目１０番５０号,,21,217,5094241,,,,,,,2025-11-10,1,,,,,アルプスヤクヒンキョウジョカイ,0
2534,9220003004158,新規,0,2025-11-10,2025-11-10,合同会社兵吾,,合同会社,石川県,金沢市,若草町１２番２号,,17,201,9218111,,,,,,,2025-11-10,1,,,,,ヒョウゴ,0
2543,9240001065753,新規,0,2025-11-10,2025-11-10,株式会社ＤｏｔＰｅａｋ,,株式会社,広島県,広島市西区,庚午南１丁目３２番２５－２０３号,,34,104,7330823,,,,,,,2025-11-10,1,,,,,ドットピーク,0
2545,9250001021409,新規,0,2025-11-10,2025-11-10,株式会社進共プラント,,株式会社,山口県,岩国市,玖珂町７９０番地３,,35,208,7420344,,,,,,,2025-11-10,1,,,,,シンキョウプラント,0
2547,9250003003842,新規,0,2025-11-10,2025-11-10,合同会社ＣＨＡＮＯＯＲＩ,,合同会社,山口県,光市,浅江２丁目５番１号,,35,210,7430021,,,,,,,2025-11-10,1,,,,,チャヌリ,0
2555,9290001112088,新規,0,2025-11-10,2025-11-10,小松美建株式会社,,株式会社,福岡県,春日市,塚原台３丁目４４番地１,,40,218,8160841,,,,,,,2025-11-10,1,,,,,コマツビケン,0
2556,9290001112096,新規,0,2025-11-10,2025-11-10,ＥＺＵＫＡＲＩＭＯ株式会社,,株式会社,福岡県,福岡市中央区,大名１丁目１番９－１２０７号,,40,133,8100041,,,,,,,2025-11-10,1,,,,,エズカリモ,0
2558,9290003017681,新規,0,2025-11-10,2025-11-10,Ｋアセット合同会社,,合同会社,福岡県,福岡市西区,愛宕浜２丁目３番１１－１５０６号,,40,135,8190013,,,,,,,2025-11-10,1,,,,,ケイアセット,0
2562,9320003004817,新規,0,2025-11-10,2025-11-10,合同会社国東未来ファーム,,合同会社,大分県,国東市,国東町小原１１０８番地１,,44,214,8730511,,,,,,,2025-11-10,1,,,,,クニサキミライファーム,0
2565,9330003011300,新規,0,2025-11-10,2025-11-10,合同会社Ｋｗｏｒｋ,,合同会社,熊本県,熊本市中央区,京町本丁６番５２－３１４号プレミスト京町本丁,,43,101,8600081,,,,,,,2025-11-10,1,,,,,ケイワーク,0
2567,9340001027768,新規,0,2025-11-10,2025-11-10,株式会社Ｔｈｉｎｋ,,株式会社,鹿児島県,鹿児島市,宇宿３丁目１４番１４－１１０１号,,46,201,8900073,,,,,,,2025-11-10,1,,,,,シンク,0
2571,9340003005012,新規,0,2025-11-10,2025-11-10,合同会社ほたる,,合同会社,鹿児島県,鹿児島市,南林寺町２０番２８号スイートエリア南林寺１００２号,,46,201,8920834,,,,,,,2025-11-10,1,,,,,ホタル,0
2576,9360001035967,新規,0,2025-11-10,2025-11-10,株式会社Ｗｈｉｔｅ　ｐｉｎｋ,,株式会社,沖縄県,那覇市,首里儀保町４丁目４５－３,,47,201,9030821,,,,,,,2025-11-10,1,,,,,ホワイトピンク,0
2578,9370001053209,新規,0,2025-11-10,2025-11-10,株式会社Ｔメディカル,,株式会社,宮城県,仙台市若林区,若林７丁目１２番４０号,,04,103,9840826,,,,,,,2025-11-10,1,,,,,ティーメディカル,0
2580,9370003007360,新規,0,2025-11-10,2025-11-10,合同会社はなえの会社,,合同会社,宮城県,仙台市太白区,長町５丁目２番６－７１０号,,04,104,9820011,,,,,,,2025-11-10,1,,,,,ハナエノカイシャ,0
2582,9380001035684,新規,0,2025-11-10,2025-11-10,熊谷住建株式会社,,株式会社,福島県,いわき市,好間町北好間字上野８７番地の３,,07,204,9701145,,,,,,,2025-11-10,1,,,,,クマガイジュウケン,0
2594,9430001095599,新規,0,2025-11-10,2025-11-10,ハピネスホールディングス株式会社,,株式会社,北海道,札幌市白石区,菊水三条２丁目４番１号,,01,104,0030803,,,,,,,2025-11-10,1,,,,,ハピネスホールディングス,0
2595,9430001095608,新規,0,2025-11-10,2025-11-10,株式会社Ｇ　ＴＥＣＨ　ＪＡＰＡＮ,,株式会社,北海道,岩見沢市,五条東８丁目１番地９１,,01,210,0680005,,,,,,,2025-11-10,1,,,,,ジーテックジャパン,0
2596,9430001095616,新規,0,2025-11-10,2025-11-10,株式会社高昭牧場,,株式会社,北海道,浦河郡浦河町,字野深２８８番地の４５,,01,607,0593454,,,,,,,2025-11-10,1,,,,,コウショウボクジョウ,0
2597,9430001095624,新規,0,2025-11-10,2025-11-10,株式会社リヴェルデ,,株式会社,北海道,札幌市中央区,円山西町２丁目１２番９号,,01,101,0640944,,,,,,,2025-11-10,1,,,,,リヴェルデ,0
2608,9700150132398,新規,0,2025-11-10,2025-11-10,ＳＩＭＰＬＥ　ＨＯＭＥ（ＨＫ）ＣＯ．，ＬＩＭＩＴＥＤ,,外国会社等,,,,,,,,香港九龍新蒲崗大有街３号万迪広場１９Ｈ,,,,,,2025-11-10,1,,,,,シンプルホームホンコンシーオーリミテツド,0
2609,9700150132885,新規,0,2025-11-10,2025-11-10,ＴＲＵＳＴＥＤ　ＭＯＴＯＲＳ,,外国会社等,千葉県,八街市,八街ほ１１３－４３ドミール桃園１０１,,12,230,2891115,スリランカ民主社会主義共和国、キャンディ、カトゥガストタ、ラナワナロード、Ｎｏ．６８／９,,,,,,2025-11-10,1,,,,,トラステツドモータース,0
