sequenceNumber,corporateNumber,process,correct,updateDate,changeDate,name,nameImageId,kind,prefectureName,cityName,streetNumber,addressImageId,prefectureCode,cityCode,postCode,addressOutside,addressOutsideImageId,closeDate,closeCause,successorCorporateNumber,changeCause,assignmentDate,latest,enName,enPrefectureName,enCityName,enAddressOutside,furigana,hihyoji
9,1010401046094,登記記録の閉鎖等,0,2023-03-30,2023-03-16,ローデンストック・ジャパン株式会社,,株式会社,東京都,港区,芝大門１丁目２番１号,,13,103,1050012,,,2023-03-16,清算の結了等,,,2015-10-05,1,,,,,ローデンストックジャパン,0
16,1010501009100,登記記録の閉鎖等,0,2023-03-30,2023-03-28,東洋ゴム商事株式会社,,株式会社,東京都,台東区,上野桜木１丁目１１番１４号,,13,106,1100002,,,2023-03-28,清算の結了等,,,2015-10-05,1,,,,,トウヨウゴムショウジ,0
25,1011001138447,登記記録の閉鎖等,0,2023-03-30,2023-03-27,サンタデリバリー株式会社,,株式会社,京都府,京都市中京区,壬生朱雀町２７番地１,,26,104,6048871,,,2023-03-27,清算の結了等,,,2021-02-09,1,,,,,サンタデリバリー,0
35,1011501001567,登記記録の閉鎖等,0,2023-03-30,2023-03-28,株式会社コトブキ繊維,,株式会社,東京都,北区,東十条３丁目１３番５号,,13,117,1140001,,,2023-03-28,清算の結了等,,,2015-10-05,1,,,,,コトブキセンイ,0
36,1011601006441,登記記録の閉鎖等,0,2023-03-30,2023-03-27,株式会社マルヨシ,,株式会社,東京都,練馬区,北町２丁目３７番２号,,13,120,1790081,,,2023-03-27,清算の結了等,,,2015-10-05,1,,,,,マルヨシ,0
46,1020001102783,登記記録の閉鎖等,0,2023-03-30,2023-03-27,株式会社城新,,株式会社,神奈川県,横浜市旭区,中沢１丁目４０番６号,,14,112,2410814,,,2023-03-27,清算の結了等,,,2015-10-05,1,,,,,ジョウシン,0
52,1021001054602,登記記録の閉鎖等,0,2023-03-30,2023-03-27,オフィスカネコ株式会社,,株式会社,神奈川県,大和市,林間２丁目１９番８号,,14,213,2420003,,,2023-03-27,清算の結了等,,,2015-10-05,1,,,,,オフィスカネコ,0
63,1030002071192,登記記録の閉鎖等,0,2023-03-30,2023-03-27,有限会社アイリス,,有限会社,埼玉県,春日部市,新宿新田２２８番地９９,,11,214,3440113,,,2023-03-27,清算の結了等,,,2015-10-05,1,,,,,アイリス,0
67,1040001046954,登記記録の閉鎖等,0,2023-03-30,2023-03-23,千葉柳沢株式会社,,株式会社,千葉県,佐倉市,西志津５丁目１１番２８号,,12,212,2850845,,,2023-03-23,清算の結了等,,,2015-10-05,1,,,,,チバヤナギサワ,0
69,1040001077685,登記記録の閉鎖等,0,2023-03-30,2023-03-27,株式会社プラス,,株式会社,千葉県,我孫子市,白山２丁目８番１５号,,12,222,2701154,,,2023-03-27,清算の結了等,,,2015-10-05,1,,,,,プラス,0
87,1080105000250,登記記録の閉鎖等,0,2023-03-30,2023-03-28,沼津市土地開発公社,,その他の設立登記法人,静岡県,沼津市,御幸町１６番１号,,22,203,4100832,,,2023-03-28,清算の結了等,,,2015-10-05,1,,,,,ヌマヅシ,0
93,1110002014969,登記記録の閉鎖等,0,2023-03-30,2023-03-29,有限会社神田工業,,有限会社,新潟県,北蒲原郡聖籠町,大字別條１番地６０,,15,307,9570125,,,2023-03-29,清算の結了等,,,2015-10-05,1,,,,,カンダコウギョウ,0
129,1160001006839,登記記録の閉鎖等,0,2023-03-30,2023-03-23,ＴＹＷＫ株式会社,,株式会社,滋賀県,米原市,醒井字垣内４７９番地,,25,214,5210035,,,2023-03-23,清算の結了等,,,2015-10-05,1,,,,,ティーワイダブリューケイ,0
130,1160001014619,登記記録の閉鎖等,0,2023-03-30,2023-03-27,株式会社ＳＥＲＩＳＵＩ,,株式会社,滋賀県,草津市,矢橋町１２５２番地５,,25,206,5250066,,,2023-03-27,清算の結了等,,,2015-10-05,1,,,,,セリスイ,0
144,1180303005157,登記記録の閉鎖等,0,2023-03-30,2023-03-29,合同会社ＣＬＯＶＥＲ２１,,合同会社,愛知県,豊田市,神池町２丁目１２３６番地７３２,,23,211,4710804,,,2023-03-29,清算の結了等,,,2021-11-04,1,,,,,クローバートゥエンティーワン,0
155,1200001026072,登記記録の閉鎖等,0,2023-03-30,2023-03-29,北都サービス神岡株式会社,,株式会社,岐阜県,飛騨市,神岡町殿１０２０番地,,21,217,5061121,,,2023-03-29,清算の結了等,,,2015-10-05,1,,,,,ホクトサービスカミオカ,0
170,1260001006283,登記記録の閉鎖等,0,2023-03-30,2023-03-27,マルク商事株式会社,,株式会社,岡山県,岡山市北区,問屋町９番地１０３,,33,101,7000977,,,2023-03-27,清算の結了等,,,2015-10-05,1,,,,,マルクショウジ,0
184,1340001005764,登記記録の閉鎖等,0,2023-03-30,2023-03-29,株式会社Ｇ－ＳＴＹＬＥ,,株式会社,鹿児島県,鹿児島市,下荒田４丁目４０番４号,,46,201,8900056,,,2023-03-29,清算の結了等,,,2015-10-05,1,,,,,,0
187,1360002008384,登記記録の閉鎖等,0,2023-03-30,2023-03-27,有限会社アルファ不動産鑑定,,有限会社,沖縄県,那覇市,牧志２丁目１２番９号,,47,201,9000013,,,2023-03-27,清算の結了等,,,2015-10-05,1,,,,,,0
188,1370001004111,登記記録の閉鎖等,0,2023-03-30,2023-03-22,株式会社幹,,株式会社,東京都,豊島区,池袋３丁目３４番７号,,13,116,1710014,,,2023-03-22,清算の結了等,,,2015-10-05,1,,,,,ミキ,0
194,1430001018419,登記記録の閉鎖等,0,2023-03-30,2023-03-28,株式会社陸王,,株式会社,北海道,札幌市中央区,南二十一条西１１丁目１番１号,,01,101,0640921,,,2023-03-28,清算の結了等,,,2022-06-07,1,,,,,リクオウ,0
195,1430001024524,登記記録の閉鎖等,0,2023-03-30,2023-03-24,株式会社新晃商事,,株式会社,北海道,札幌市南区,北ノ沢１８４２番地,,01,106,0050832,,,2023-03-24,合併による解散等,6430001024412,令和５年３月２４日札幌市豊平区美園八条八丁目３番１９号株式会社ダイアン企業（6430001024412）に合併し解散,2015-10-05,1,,,,,シンコウショウジ,0
206,1460301000503,登記記録の閉鎖等,0,2023-03-30,2023-03-28,株式会社柴田組,,株式会社,北海道,北見市,栄町３丁目２番地９,,01,208,0900832,,,2023-03-28,清算の結了等,,,2015-10-05,1,,,,,シバタグミ,0
221,2010002053175,登記記録の閉鎖等,0,2023-03-30,2023-03-27,マーキュリー・エアクラフト有限会社,,有限会社,東京都,千代田区,丸の内１丁目５番１号,,13,101,1000005,,,2023-03-27,清算の結了等,,,2015-10-05,1,,,,,マーキュリーエアクラフト,0
227,2010402007144,登記記録の閉鎖等,0,2023-03-30,2023-03-17,有限会社スタジオエムアンドエヌ,,有限会社,東京都,港区,西麻布２丁目７番５号,,13,103,1060031,,,2023-03-17,清算の結了等,,,2015-10-05,1,,,,,スタジオエムアンドエヌ,0
246,2010903007097,登記記録の閉鎖等,0,2023-03-30,2023-03-28,Ｕｎｉ　Ｑｕｅｅｎ　Ｓｕｎ合同会社,,合同会社,東京都,世田谷区,駒沢公園１番１号Ｔｏｔｅ駒沢公園３Ｆ,,13,112,1540013,,,2023-03-28,清算の結了等,,,2022-01-24,1,,,,,ユニクイーンサン,0
288,2020002054271,登記記録の閉鎖等,0,2023-03-30,2023-03-16,薬師寺空調設備有限会社,,有限会社,神奈川県,横浜市旭区,上白根町１２０８番地３８,,14,112,2410001,,,2023-03-16,清算の結了等,,,2015-10-05,1,,,,,ヤクシジクウチョウセツビ,0
295,2030001036410,登記記録の閉鎖等,0,2023-03-30,2023-03-27,八潮建設株式会社,,株式会社,埼玉県,八潮市,大字伊草１７７番地１０,,11,234,3400806,,,2023-03-27,清算の結了等,,,2018-02-26,1,,,,,ヤシオケンセツ,0
298,2030001080937,登記記録の閉鎖等,0,2023-03-30,2023-03-27,株式会社謝名宝,,株式会社,埼玉県,川口市,栄町１丁目１２番２３号,,11,203,3320017,,,2023-03-27,清算の結了等,,,2015-10-05,1,,,,,ジャナホウ,0
308,2040001046730,登記記録の閉鎖等,0,2023-03-30,2023-03-22,株式会社久保銘木,,株式会社,千葉県,佐倉市,馬渡１１６６番地５,,12,212,2850804,,,2023-03-22,清算の結了等,,,2015-10-05,1,,,,,クボメイボク,0
315,2040003018918,登記記録の閉鎖等,0,2023-03-30,2023-03-22,シンギュラリティ合同会社,,合同会社,千葉県,木更津市,金田東４丁目４－２１ｉｎＣＥＬＬ木更津Ｆ号室,,12,206,2920009,,,2023-03-22,清算の結了等,,,2021-11-11,1,,,,,シンギュラリティ,0
324,2070001004941,登記記録の閉鎖等,0,2023-03-30,2023-03-20,株式会社ウォールストリート,,株式会社,群馬県,前橋市,鳥羽町１４９番地３,,10,201,3710845,,,2023-03-20,清算の結了等,,,2015-10-05,1,,,,,ウォールストリート,0
325,2070002020500,登記記録の閉鎖等,0,2023-03-30,2023-03-27,有限会社長田農機商会,,有限会社,群馬県,伊勢崎市,境下渕名甲１８３１番地,,10,204,3700103,,,2023-03-27,清算の結了等,,,2015-10-05,1,,,,,ナガタノウキショウカイ,0
326,2080001021952,登記記録の閉鎖等,0,2023-03-30,2023-03-29,藤枝ＩＴｂｏｏｋ株式会社,,株式会社,静岡県,藤枝市,前島１丁目７番１０号,,22,214,4260067,,,2023-03-29,清算の結了等,,,2017-12-06,1,,,,,フジエダアイティブック,0
328,2080402000167,登記記録の閉鎖等,0,2023-03-30,2023-03-29,有限会社アイ電社,,有限会社,静岡県,浜松市中区,花川町１２５８－１,,22,131,4338109,,,2023-03-29,清算の結了等,,,2015-10-05,1,,,,,アイデンシャ,0
331,2100002035189,登記記録の閉鎖等,0,2023-03-30,2023-03-29,有限会社小松電工研究所,,有限会社,長野県,上伊那郡辰野町,大字赤羽５６１番地,,20,382,3990424,,,2023-03-29,清算の結了等,,,2015-10-05,1,,,,,コマツデンコウケンキュウショ,0
380,2180002020472,登記記録の閉鎖等,0,2023-03-30,2023-03-27,有限会社タカミ,,有限会社,愛知県,名古屋市熱田区,白鳥３丁目６番１７号,,23,109,4560035,,,2023-03-27,合併による解散等,6180001022227,令和５年３月２５日名古屋市熱田区白鳥三丁目６番２２号株式会社シーピーアール（6180001022227）に合併し解散,2015-10-05,1,,,,,タカミ,0
385,2180302008151,登記記録の閉鎖等,0,2023-03-30,2023-03-20,有限会社千成,,有限会社,愛知県,豊橋市,飯村南２丁目２６番地の８,,23,201,4400835,,,2023-03-20,清算の結了等,,,2015-10-05,1,,,,,センナリ,0
387,2180302021187,登記記録の閉鎖等,0,2023-03-30,2023-03-27,有限会社愛知情報センター,,有限会社,愛知県,豊田市,大林町１４丁目７番地８,,23,211,4730902,,,2023-03-27,清算の結了等,,,2015-10-05,1,,,,,アイチジョウホウセンター,0
397,2230001004611,登記記録の閉鎖等,0,2023-03-30,2023-03-29,テイカファーマ株式会社,,株式会社,富山県,富山市,荒川１丁目３番２７号,,16,201,9300982,,,2023-03-29,合併による解散等,4230001001763,令和５年３月２１日富山市荒川一丁目３番２７号テイカ製薬株式会社（4230001001763）に合併し解散,2015-10-05,1,,,,,テイカファーマ,0
406,2250001018733,登記記録の閉鎖等,0,2023-03-30,2023-03-27,株式会社イリス,,株式会社,山口県,下関市,彦島塩浜町３丁目７番１７号,,35,201,7500086,,,2023-03-27,清算の結了等,,,2021-03-02,1,,,,,イリス,0
408,2260001017081,登記記録の閉鎖等,0,2023-03-30,2023-03-29,株式会社ヒラ,,株式会社,岡山県,倉敷市,三田３５３番地,,33,202,7100001,,,2023-03-29,清算の結了等,,,2015-10-05,1,,,,,ヒラ,0
421,2290801012139,登記記録の閉鎖等,0,2023-03-30,2023-03-29,アジアン貿易株式会社,,株式会社,福岡県,北九州市小倉北区,三萩野２丁目６番２０号,,40,106,8020065,,,2023-03-29,清算の結了等,,,2015-10-05,1,,,,,,0
433,2350002015174,登記記録の閉鎖等,0,2023-03-30,2023-03-28,有限会社友和物産,,有限会社,鹿児島県,曽於市,末吉町深川８５６８番地７,,46,217,8998606,,,2023-03-28,清算の結了等,,,2015-10-05,1,,,,,ユウワブッサン,0
458,2470002009107,登記記録の閉鎖等,0,2023-03-30,2023-03-29,有限会社アイズ,,有限会社,香川県,高松市,木太町２５５４番地３,,37,201,7600080,,,2023-03-29,清算の結了等,,,2015-10-05,1,,,,,アイズ,0
459,2470002011566,登記記録の閉鎖等,0,2023-03-30,2023-03-29,有限会社近代農業センター,,有限会社,香川県,丸亀市,田村町５６４番地１,,37,202,7630071,,,2023-03-29,清算の結了等,,,2015-10-05,1,,,,,キンダイノウギョウセンター,0
462,2490005003559,登記記録の閉鎖等,0,2023-03-30,2023-03-13,医療法人はな会,,その他の設立登記法人,高知県,土佐市,高岡町甲２０１８番地２,,39,205,7811101,,,2023-03-13,清算の結了等,,,2015-10-05,1,,,,,ハナカイ,0
481,3010403018040,登記記録の閉鎖等,0,2023-03-30,2023-03-20,合同会社トリニティハワイ,,合同会社,東京都,港区,虎ノ門３丁目２２番１０－２０１号,,13,103,1050001,,,2023-03-20,清算の結了等,,,2018-02-06,1,,,,,トリニティハワイ,0
482,3010403023924,登記記録の閉鎖等,0,2023-03-30,2023-03-17,合同会社ＡＺＭＦＲ２,,合同会社,東京都,港区,虎ノ門５丁目１番４号,,13,103,1050001,,,2023-03-17,清算の結了等,,,2020-10-14,1,,,,,エーゼットエムエフアールツー,0
526,3021002043817,登記記録の閉鎖等,0,2023-03-30,2023-03-24,有限会社相武台南部,,有限会社,神奈川県,座間市,栗原中央３丁目３１番１５号,,14,216,2520014,,,2023-03-24,清算の結了等,,,2015-10-05,1,,,,,ソウブダイナンブ,0
537,3030002030106,登記記録の閉鎖等,0,2023-03-30,2023-03-27,有限会社たくみ電機,,有限会社,埼玉県,所沢市,青葉台１３０４番地４５,,11,208,3591105,,,2023-03-27,清算の結了等,,,2015-10-05,1,,,,,,0
544,3040001048486,登記記録の閉鎖等,0,2023-03-30,2023-03-23,株式会社アルバローザ,,株式会社,千葉県,四街道市,みそら１丁目４０番１０号,,12,228,2840023,,,2023-03-23,清算の結了等,,,2015-10-05,1,,,,,アルバローザ,0
574,3100001029678,登記記録の閉鎖等,0,2023-03-30,2023-03-29,株式会社バチスタフード,,株式会社,長野県,塩尻市,大字広丘吉田１２２９番地８,,20,215,3990701,,,2023-03-29,清算の結了等,,,2016-10-11,1,,,,,バチスタフード,0
604,3120102006995,登記記録の閉鎖等,0,2023-03-30,2023-03-27,有限会社和田商事,,有限会社,大阪府,堺市中区,土塔町３００７番地１,,27,142,5998234,,,2023-03-27,合併による解散等,7120101008048,令和５年３月２１日大阪府堺市中区土塔町３００７番地１和田博株式会社（7120101008048）に合併し解散,2015-10-05,1,,,,,ワダショウジ,0
615,3170005001164,登記記録の閉鎖等,0,2023-03-30,2023-03-30,医療法人宮崎クリニック,00045745,その他の設立登記法人,和歌山県,和歌山市,友田町２丁目１５３番地,,30,201,6408342,,,2023-03-30,清算の結了等,,,2015-10-05,1,,,,,ミヤザキクリニック,0
616,3180001084823,登記記録の閉鎖等,0,2023-03-30,2023-03-22,株式会社ジーケーエンジニアリング,,株式会社,愛知県,一宮市,大赤見２９０９番地,,23,203,4910015,,,2023-03-22,清算の結了等,,,2015-10-05,1,,,,,ジーケーエンジニアリング,0
622,3180301036276,登記記録の閉鎖等,0,2023-03-30,2023-03-23,株式会社ＭＮＫＫ,,株式会社,愛知県,西尾市,田貫町西之川１１３,,23,213,4440301,,,2023-03-23,清算の結了等,,,2022-06-02,1,,,,,エムエヌケイケイ,0
635,3230001008074,登記記録の閉鎖等,0,2023-03-30,2023-03-22,株式会社ペルペティア,,株式会社,富山県,滑川市,北野４９５番地,,16,206,9360806,,,2023-03-22,清算の結了等,,,2015-10-05,1,,,,,ペルペティア,0
639,3240002028616,登記記録の閉鎖等,0,2023-03-30,2023-03-28,有限会社ランドスケープ,,有限会社,広島県,東広島市,河内町河戸１５０４－１,,34,212,7392204,,,2023-03-28,清算の結了等,,,2015-10-05,1,,,,,ランドスケープ,0
640,3240002029052,登記記録の閉鎖等,0,2023-03-30,2023-03-29,有限会社サムオート,,有限会社,広島県,東広島市,西条町土与丸４０５番地３,,34,212,7390003,,,2023-03-29,清算の結了等,,,2015-10-05,1,,,,,,0
643,3260001001200,登記記録の閉鎖等,0,2023-03-30,2023-03-28,岡山都市整備株式会社,,株式会社,岡山県,岡山市北区,表町２丁目１番１号,,33,101,7000822,,,2023-03-28,清算の結了等,,,2015-10-05,1,,,,,オカヤマトシセイビ,0
686,4010403020268,登記記録の閉鎖等,0,2023-03-30,2023-03-20,ＳＣＧ４８合同会社,,合同会社,東京都,港区,虎ノ門４丁目１番２８号,,13,103,1050001,,,2023-03-20,清算の結了等,,,2019-02-27,1,,,,,エスシージーフォーティエイト,0
687,4010403023923,登記記録の閉鎖等,0,2023-03-30,2023-03-17,合同会社ＡＺＭＦＲ１,,合同会社,東京都,港区,虎ノ門５丁目１番４号,,13,103,1050001,,,2023-03-17,清算の結了等,,,2020-10-14,1,,,,,エーゼットエムエフアールワン,0
691,4010601057244,登記記録の閉鎖等,0,2023-03-30,2023-03-23,株式会社ＡＱＵＡ,,株式会社,東京都,江東区,豊洲２丁目５番２－１５０４号,,13,108,1350061,,,2023-03-23,清算の結了等,,,2020-04-21,1,,,,,アクア,0
709,4011101001980,登記記録の閉鎖等,0,2023-03-30,2023-03-29,インテグレートテクニカルサービス株式会社,,株式会社,東京都,新宿区,新宿５丁目１３番１３号,,13,104,1600022,,,2023-03-29,清算の結了等,,,2015-10-05,1,,,,,インテグレートテクニカルサービス,0
710,4011101087962,登記記録の閉鎖等,0,2023-03-30,2023-03-27,株式会社ＧｒｏｗｉｎｇＷａｙ,,株式会社,東京都,千代田区,一ツ橋１丁目１番１号,,13,101,1000003,,,2023-03-27,清算の結了等,,,2019-06-07,1,,,,,グロウウィングウェイ,0
723,4011502004574,登記記録の閉鎖等,0,2023-03-30,2023-03-23,有限会社ねこの手,,有限会社,東京都,北区,栄町１０番１０号,,13,117,1140005,,,2023-03-23,清算の結了等,,,2015-10-05,1,,,,,,0
750,4021001030377,登記記録の閉鎖等,0,2023-03-30,2023-03-28,株式会社マースコーア,,株式会社,神奈川県,座間市,相模が丘６丁目３１番３３号,,14,216,2520001,,,2023-03-28,清算の結了等,,,2015-10-05,1,,,,,マースコーア,0
756,4030001047182,登記記録の閉鎖等,0,2023-03-30,2023-03-27,株式会社京和,,株式会社,埼玉県,和光市,下新倉６丁目７番１５号,,11,229,3510111,,,2023-03-27,清算の結了等,,,2015-10-05,1,,,,,キョウワ,0
757,4030001076867,登記記録の閉鎖等,0,2023-03-30,2023-03-27,株式会社光土建,,株式会社,埼玉県,川口市,大字道合５６５番地の４,,11,203,3330835,,,2023-03-27,清算の結了等,,,2015-10-05,1,,,,,ヒカリドケン,0
764,4030005018015,登記記録の閉鎖等,0,2023-03-30,2023-03-29,日立ハイテクファインシステムズ労働組合,,その他の設立登記法人,埼玉県,児玉郡上里町,大字嘉美１６００番地,,11,385,3690307,,,2023-03-29,清算の結了等,,,2016-06-21,1,,,,,ヒタチハイテクファインシステムズ,0
769,4040002045399,登記記録の閉鎖等,0,2023-03-30,2023-03-22,有限会社クボタ縫製,,有限会社,千葉県,松戸市,二ツ木１４０３番地の１,,12,207,2700027,,,2023-03-22,清算の結了等,,,2015-10-05,1,,,,,クボタホウセイ,0
781,4070001001466,登記記録の閉鎖等,0,2023-03-30,2023-03-28,株式会社サロン・ド・モコ,,株式会社,群馬県,前橋市,南町４丁目４番３号,,10,201,3710805,,,2023-03-28,清算の結了等,,,2015-10-05,1,,,,,サロンドモコ,0
804,4120002029708,登記記録の閉鎖等,0,2023-03-30,2023-03-29,エム．エム．コンスル有限会社,,有限会社,大阪府,大阪市北区,鶴野町４番Ａ６０４号,,27,127,5300014,,,2023-03-29,清算の結了等,,,2015-10-05,1,,,,,エムエムコンスル,0
828,4180001107095,登記記録の閉鎖等,0,2023-03-30,2023-03-28,株式会社丸椛商店,,株式会社,岐阜県,可児市,緑７丁目２０番地,,21,214,5090263,,,2023-03-28,清算の結了等,,,2015-10-05,1,,,,,,0
839,4180302007705,登記記録の閉鎖等,0,2023-03-30,2023-03-27,有限会社三和製作所,,有限会社,愛知県,豊橋市,大岩町字前荒田６８番地の４,,23,201,4413147,,,2023-03-27,清算の結了等,,,2015-10-05,1,,,,,サンワセイサクショ,0
844,4230003001695,登記記録の閉鎖等,0,2023-03-30,2023-03-29,ＯＫサービス合同会社,,合同会社,富山県,高岡市,清水町１丁目９番１６号,,16,202,9330866,,,2023-03-29,清算の結了等,,,2021-06-30,1,,,,,オーケーサービス,0
850,4250001001869,登記記録の閉鎖等,0,2023-03-30,2023-03-28,株式会社イシダ,,株式会社,山口県,防府市,国分寺町２番１０号,,35,206,7470021,,,2023-03-28,清算の結了等,,,2015-10-05,1,,,,,イシダ,0
851,4250002006330,登記記録の閉鎖等,0,2023-03-30,2023-03-29,有限会社マスモト,,有限会社,山口県,宇部市,大字妻崎開作字開七八ノ割１２８７番地５２,,35,202,7590204,,,2023-03-29,清算の結了等,,,2015-10-05,1,,,,,マスモト,0
862,4310001011135,登記記録の閉鎖等,0,2023-03-30,2023-03-28,株式会社ワイ・コーポレーション,,株式会社,長崎県,五島市,三尾野町３１１番地８,,42,211,8530014,,,2023-03-28,合併による解散等,1310001011071,令和５年３月２７日長崎県五島市三尾野町３１１番地８五島ヤクルト販売株式会社（1310001011071）に合併し解散,2015-10-05,1,,,,,ワイコーポレーション,0
868,4340002005430,登記記録の閉鎖等,0,2023-03-30,2023-03-29,有限会社催馬楽電設,,有限会社,鹿児島県,鹿児島市,坂元町５１番２９－３号,,46,201,8920862,,,2023-03-29,清算の結了等,,,2015-10-05,1,,,,,セバルデンセツ,0
876,4390001014741,登記記録の閉鎖等,0,2023-03-30,2023-03-27,光の湊株式会社,,株式会社,山形県,酒田市,幸町１丁目３番１号,,06,204,9980023,,,2023-03-27,清算の結了等,,,2017-01-10,1,,,,,ヒカリノミナト,0
887,4480002008733,登記記録の閉鎖等,0,2023-03-30,2023-03-29,有限会社ＫＤテック,,有限会社,徳島県,徳島市,北沖洲４丁目８番５０号,,36,201,7700872,,,2023-03-29,清算の結了等,,,2015-10-05,1,,,,,,0
888,4490001007925,登記記録の閉鎖等,0,2023-03-30,2023-03-29,株式会社障害者総合支援センター遊,,株式会社,高知県,香美市,土佐山田町宝町１丁目１番７号,,39,212,7820034,,,2023-03-29,清算の結了等,,,2015-10-05,1,,,,,ショウガイシャソウゴウシエンセンターユウ,0
892,5010001115790,登記記録の閉鎖等,0,2023-03-30,2023-03-24,日本橋サカス株式会社,,株式会社,東京都,中央区,日本橋室町４丁目２番１４号,,13,102,1030022,,,2023-03-24,清算の結了等,,,2015-10-05,1,,,,,ニホンバシサカス,0
896,5010001173194,登記記録の閉鎖等,0,2023-03-30,2023-03-27,株式会社ソルシア,,株式会社,神奈川県,横浜市青葉区,あざみ野１丁目２１番４号,,14,117,2250011,,,2023-03-27,清算の結了等,,,2016-01-28,1,,,,,ソルシア,0
913,5010403019615,登記記録の閉鎖等,0,2023-03-30,2023-03-20,合同会社あさぎり,,合同会社,東京都,港区,虎ノ門３丁目２２番１０－２０１号,,13,103,1050001,,,2023-03-20,清算の結了等,,,2018-11-08,1,,,,,アサギリ,0
930,5010902004142,登記記録の閉鎖等,0,2023-03-30,2023-03-28,有限会社金子時計店,,有限会社,東京都,世田谷区,桜新町２丁目１０番３号,,13,112,1540015,,,2023-03-28,清算の結了等,,,2015-10-05,1,,,,,カネコトケイテン,0
935,5011001108512,登記記録の閉鎖等,0,2023-03-30,2023-03-29,株式会社ＷＡＲＡＳＣＯ,,株式会社,東京都,渋谷区,南平台町４－８南平台アジアマンション３０１,,13,113,1500036,,,2023-03-29,清算の結了等,,,2015-12-07,1,,,,,ワラスコ,0
943,5011101083622,登記記録の閉鎖等,0,2023-03-30,2023-03-29,株式会社東京漢方堂,,株式会社,東京都,新宿区,四谷３丁目６番３の１,,13,104,1600004,,,2023-03-29,清算の結了等,,,2018-03-27,1,,,,,トウキョウカンポウドウ,0
949,5011105007057,登記記録の閉鎖等,0,2023-03-30,2023-03-28,一般社団法人ティーダホールディングス２,,その他の設立登記法人,東京都,新宿区,西新宿２丁目１番１号新宿三井ビル５０階,,13,104,1600023,,,2023-03-28,清算の結了等,,,2015-12-04,1,,,,,ティーダホールディングスツー,0
970,5012401013780,登記記録の閉鎖等,0,2023-03-30,2023-03-27,株式会社殖産興業,,株式会社,東京都,小金井市,梶野町１丁目５番９号,,13,210,1840002,,,2023-03-27,清算の結了等,,,2015-10-05,1,,,,,ショクサンコウギョウ,0
1002,5040002031720,登記記録の閉鎖等,0,2023-03-30,2023-03-24,有限会社ビー・テクノロジー,,有限会社,千葉県,船橋市,海神町南１丁目１６１０番地１－１１０８号,,12,204,2730024,,,2023-03-24,清算の結了等,,,2015-10-05,1,,,,,ビーテクノロジー,0
1037,5120101037461,登記記録の閉鎖等,0,2023-03-30,2023-03-29,株式会社藤浪建材店,,株式会社,大阪府,岸和田市,岡山町２１７番地,,27,202,5960814,,,2023-03-29,清算の結了等,,,2015-10-05,1,,,,,フジナミケンザイテン,0
1065,5160001021826,登記記録の閉鎖等,0,2023-03-30,2023-03-29,藤田環境開発株式会社,,株式会社,滋賀県,栗東市,綣５丁目１４番１８号,,25,208,5203031,,,2023-03-29,清算の結了等,,,2019-07-29,1,,,,,フジタカンキョウカイハツ,0
1072,5180001118752,登記記録の閉鎖等,0,2023-03-30,2023-03-24,株式会社リックス,,株式会社,愛知県,名古屋市守山区,森孝１丁目１７１１番地,,23,113,4630035,,,2023-03-24,清算の結了等,,,2015-10-05,1,,,,,リックス,0
1100,5260005003422,登記記録の閉鎖等,0,2023-03-30,2023-03-27,協同組合茶屋町共同店舗,,その他の設立登記法人,岡山県,倉敷市,茶屋町６０１番地の２,,33,202,7101101,,,2023-03-27,清算の結了等,,,2015-10-05,1,,,,,チャヤマチキョウドウテンポ,0
1122,5370005009326,登記記録の閉鎖等,0,2023-03-30,2023-03-28,一般社団法人青笹不動尊奉賛会,,その他の設立登記法人,宮城県,仙台市青葉区,藤松１１番７号,,04,101,9810921,,,2023-03-28,清算の結了等,,,2017-10-06,1,,,,,アオササフドウソンホウサンカイ,0
1154,6010001057470,登記記録の閉鎖等,0,2023-03-30,2023-03-28,株式会社松下,,株式会社,東京都,板橋区,大谷口北町３６番２号,,13,119,1730031,,,2023-03-28,合併による解散等,9010703006508,令和５年３月２１日東京都品川区上大崎三丁目１番１号目黒セントラルスクエア１５階合同会社松下（9010703006508）に合併し解散,2015-10-05,1,,,,,,0
1175,6010403018599,登記記録の閉鎖等,0,2023-03-30,2023-03-14,ユニバーサルライフサポート合同会社,,合同会社,東京都,港区,三田３丁目４番３号ＲＩＰＬ９,,13,103,1080073,,,2023-03-14,清算の結了等,,,2018-05-16,1,,,,,ユニバーサルライフサポート,0
1176,6010403026024,登記記録の閉鎖等,0,2023-03-30,2023-03-20,合同会社エスエフワン,,合同会社,東京都,港区,虎ノ門３丁目２２番１０－２０１号,,13,103,1050001,,,2023-03-20,清算の結了等,,,2021-08-31,1,,,,,エスエフワン,0
1181,6010601056260,登記記録の閉鎖等,0,2023-03-30,2023-03-24,株式会社シンリョク,,株式会社,東京都,墨田区,錦糸２丁目１２番３号,,13,107,1300013,,,2023-03-24,清算の結了等,,,2019-10-10,1,,,,,シンリョク,0
1193,6011001135035,登記記録の閉鎖等,0,2023-03-30,2023-03-29,株式会社クロマニョン,,株式会社,東京都,渋谷区,渋谷２丁目２番１７号ＴｒａｎｃｅＷＯＲＫＳ青山ビル三階,,13,113,1500002,,,2023-03-29,清算の結了等,,,2020-07-31,1,,,,,クロマニョン,0
1217,6012801008842,登記記録の閉鎖等,0,2023-03-30,2023-03-24,株式会社ダイワ,,株式会社,東京都,武蔵村山市,残堀４丁目１１３番地の８,,13,223,2080034,,,2023-03-24,清算の結了等,,,2015-10-05,1,,,,,ダイワ,0
1222,6013401006162,登記記録の閉鎖等,0,2023-03-30,2023-03-28,株式会社ＢｅｅＷｏｒｋｓ,,株式会社,東京都,多摩市,中沢２丁目１６番地の４,,13,224,2060036,,,2023-03-28,清算の結了等,,,2015-10-05,1,,,,,ビーワークス,0
1223,6020001044591,登記記録の閉鎖等,0,2023-03-30,2023-03-24,スーインジャパン株式会社,,株式会社,愛知県,名古屋市中区,富士見町１６番地８,,23,106,4600014,,,2023-03-24,清算の結了等,,,2015-10-05,1,,,,,スーインジャパン,0
1231,6030001049598,登記記録の閉鎖等,0,2023-03-30,2023-03-29,株式会社クリオテクノス,,株式会社,埼玉県,新座市,栗原６丁目３番１１号,,11,230,3520035,,,2023-03-29,清算の結了等,,,2015-10-05,1,,,,,クリオテクノス,0
1237,6030001096285,登記記録の閉鎖等,0,2023-03-30,2023-03-28,パンコムネット株式会社,,株式会社,埼玉県,新座市,野火止３丁目１１番３号,,11,230,3520011,,,2023-03-28,清算の結了等,,,2015-10-05,1,,,,,パンコムネット,0
1241,6030002057451,登記記録の閉鎖等,0,2023-03-30,2023-03-24,インターフェイス有限会社,,有限会社,東京都,板橋区,赤塚１丁目２２番１５号,,13,119,1750092,,,2023-03-24,清算の結了等,,,2015-10-05,1,,,,,インターフェイス,0
1242,6030002058722,登記記録の閉鎖等,0,2023-03-30,2023-03-27,有限会社信和建設工業,,有限会社,埼玉県,朝霞市,北原２丁目１０番１５号,,11,227,3510036,,,2023-03-27,清算の結了等,,,2015-10-05,1,,,,,シンワケンセツコウギョウ,0
1259,6050001039829,登記記録の閉鎖等,0,2023-03-30,2023-03-28,株式会社茨城日化ユーザーサポート,,株式会社,茨城県,ひたちなか市,大字田彦４３４番地１,,08,221,3120063,,,2023-03-28,合併による解散等,2050001006576,令和５年３月２５日茨城県水戸市吉沢町３０１番地の４茨城日化サービス株式会社（2050001006576）に合併し解散,2015-10-05,1,,,,,イバラキニッカユーザーサポート,0
1274,6070003003698,登記記録の閉鎖等,0,2023-03-30,2023-03-28,合同会社ｉｆｏｒｅｓｔ,,合同会社,群馬県,高崎市,吉井町下長根１８５番地,,10,202,3702121,,,2023-03-28,清算の結了等,,,2020-03-05,1,,,,,アイフォレスト,0
1277,6080001023978,登記記録の閉鎖等,0,2023-03-30,2023-03-28,株式会社ラグー,,株式会社,静岡県,静岡市駿河区,中田本町５６番３２号,,22,102,4228043,,,2023-03-28,合併による解散等,8080402017107,令和５年３月１日静岡県浜松市中区高丘北三丁目３４番４０号株式会社トワーズ（8080402017107）に合併し解散,2021-02-09,1,,,,,ラグー,0
1281,6100001018769,登記記録の閉鎖等,0,2023-03-30,2023-03-28,ティクス株式会社,,株式会社,長野県,諏訪市,大字湖南３８２３番地１,,20,206,3920131,,,2023-03-28,清算の結了等,,,2015-10-05,1,,,,,ティクス,0
1284,6110001000981,登記記録の閉鎖等,0,2023-03-30,2023-03-28,北日本バータル株式会社,,株式会社,新潟県,新潟市中央区,上大川前通１２番町２７１４番地,,15,103,9518068,,,2023-03-28,清算の結了等,,,2015-10-05,1,,,,,キタニホンバータル,0
1321,6140003014597,登記記録の閉鎖等,0,2023-03-30,2023-03-28,合同会社山下企画,,合同会社,兵庫県,伊丹市,千僧５丁目９１番地１，１１－５０３号,,28,207,6640898,,,2023-03-28,清算の結了等,,,2020-01-10,1,,,,,ヤマシタキカク,0
1328,6180001023927,登記記録の閉鎖等,0,2023-03-30,2023-03-27,デイエル工業株式会社,,株式会社,愛知県,名古屋市天白区,元八事５丁目７７番地,,23,116,4680066,,,2023-03-27,清算の結了等,,,2015-10-05,1,,,,,デイエルコウギョウ,0
1337,6180005010558,登記記録の閉鎖等,0,2023-03-30,2023-03-27,医療法人田中内科医院,,その他の設立登記法人,愛知県,稲沢市,祖父江町祖父江北川原７３番地,,23,220,4950001,,,2023-03-27,清算の結了等,,,2015-10-05,1,,,,,タナカナイカイイン,0
1341,6190001024429,登記記録の閉鎖等,0,2023-03-30,2023-03-27,株式会社中川パワーズ,,株式会社,三重県,四日市市,西日野町４１６２番地３,,24,202,5100943,,,2023-03-27,清算の結了等,,,2017-03-06,1,,,,,ナカガワパワーズ,0
1344,6200002011151,登記記録の閉鎖等,0,2023-03-30,2023-03-29,有限会社フジ,,有限会社,岐阜県,羽島郡笠松町,下本町２６番地,,21,303,5016052,,,2023-03-29,清算の結了等,,,2015-10-05,1,,,,,フジ,0
1349,6210005001082,登記記録の閉鎖等,0,2023-03-30,2023-03-28,清寶院,,その他の設立登記法人,福井県,福井市,花月３丁目６番５号,,18,201,9100022,,,2023-03-28,清算の結了等,,,2015-10-05,1,,,,,セイホウイン,0
1369,6360003009261,登記記録の閉鎖等,0,2023-03-30,2023-03-23,合同会社Ａｓａ　Ｏｋｉ,,合同会社,沖縄県,沖縄市,上地２丁目１８番７号,,47,211,9040031,,,2023-03-23,清算の結了等,,,2018-12-27,1,,,,,アサオキ,0
1379,6430001027927,登記記録の閉鎖等,0,2023-03-30,2023-03-24,株式会社倉一,,株式会社,北海道,札幌市東区,北十八条東１８丁目１番２号,,01,103,0650018,,,2023-03-24,清算の結了等,,,2015-10-05,1,,,,,クライチ,0
1382,6430001067007,登記記録の閉鎖等,0,2023-03-30,2023-03-20,株式会社Ｓ設計,,株式会社,東京都,港区,浜松町２丁目２番１５号,,13,103,1050013,,,2023-03-20,清算の結了等,,,2015-10-05,1,,,,,エスセッケイ,0
1399,7010001184058,登記記録の閉鎖等,0,2023-03-30,2023-03-27,株式会社四季折々,,株式会社,北海道,札幌市中央区,北三条西７丁目１－１,,01,101,0600003,,,2023-03-27,合併による解散等,5013301034735,令和５年３月２０日東京都中央区日本橋人形町一丁目５番１３号ヒューマンデザイン株式会社（5013301034735）に合併し解散,2017-06-13,1,,,,,シキオリオリ,0
1416,7010403024539,登記記録の閉鎖等,0,2023-03-30,2023-03-17,合同会社ＡＺＭＦＲ３,,合同会社,東京都,港区,虎ノ門５丁目１番４号,,13,103,1050001,,,2023-03-17,清算の結了等,,,2021-01-22,1,,,,,エーゼットエムエフアールスリー,0
1477,7030003005862,登記記録の閉鎖等,0,2023-03-30,2023-03-23,合同会社Ｔ＆ｇｒｅｅｎ,,合同会社,東京都,豊島区,池袋２丁目３７番２号ＫＤビル２－７０２,,13,116,1710014,,,2023-03-23,清算の結了等,,,2015-10-05,1,,,,,,0
1507,7120005013466,登記記録の閉鎖等,0,2023-03-30,2023-03-23,特定非営利活動法人寝屋川市駅周辺まちづくりネットワーク,,その他の設立登記法人,大阪府,寝屋川市,東大利町１１番１号,,27,215,5720042,,,2023-03-23,清算の結了等,,,2015-10-05,1,,,,,ネヤガワシエキシュウヘンマチズクリネットワーク,0
1514,7122005001368,登記記録の閉鎖等,0,2023-03-30,2023-03-29,特定非営利活動法人清徳会,,その他の設立登記法人,大阪府,東大阪市,大蓮北３丁目３番１４号,,27,227,5770826,,,2023-03-29,清算の結了等,,,2015-10-05,1,,,,,セイトクカイ,0
1529,7160001018300,登記記録の閉鎖等,0,2023-03-30,2023-03-29,株式会社ＦＭＤ,,株式会社,滋賀県,大津市,陽明町１３番５号,,25,201,5200226,,,2023-03-29,清算の結了等,,,2015-10-05,1,,,,,エフエムディ,0
1537,7180002054945,登記記録の閉鎖等,0,2023-03-30,2023-03-24,有限会社ディーアール,,有限会社,愛知県,名古屋市名東区,高社２丁目２３５番地,,23,115,4650095,,,2023-03-24,清算の結了等,,,2015-10-05,1,,,,,ディーアール,0
1560,7240003003787,登記記録の閉鎖等,0,2023-03-30,2023-03-28,合同会社ターチャン,,合同会社,広島県,安芸郡府中町,桃山２丁目１７番１１－３１３号,,34,302,7350026,,,2023-03-28,清算の結了等,,,2018-01-24,1,,,,,ターチャン,0
1564,7250002005916,登記記録の閉鎖等,0,2023-03-30,2023-03-27,有限会社吉沢建築事務所,,有限会社,山口県,宇部市,北琴芝２丁目８番９号,,35,202,7550036,,,2023-03-27,清算の結了等,,,2015-10-05,1,,,,,ヨシザワケンチクジムショ,0
1573,7290002044051,登記記録の閉鎖等,0,2023-03-30,2023-03-24,有限会社タミテック,,有限会社,福岡県,朝倉市,馬田１２９１番地,,40,228,8380058,,,2023-03-24,清算の結了等,,,2015-10-05,1,,,,,タミテック,0
1578,7300001010457,登記記録の閉鎖等,0,2023-03-30,2023-03-27,株式会社アラマキホーム,,株式会社,佐賀県,佐賀市,鍋島町大字鍋島１３５４番地２,,41,201,8490938,,,2023-03-27,清算の結了等,,,2016-08-30,1,,,,,アラマキホーム,0
1585,7330002025154,登記記録の閉鎖等,0,2023-03-30,2023-03-28,有限会社ＢＰＲ技術研究所,,有限会社,熊本県,宇城市,小川町南部田２０８番地,,43,213,8690605,,,2023-03-28,清算の結了等,,,2015-10-05,1,,,,,ビーピーアールギジュツケンキュウショ,0
1593,7360001026910,登記記録の閉鎖等,0,2023-03-30,2023-03-22,株式会社めんそーれ,,株式会社,沖縄県,宜野湾市,普天間２丁目１２番１４号,,47,205,9012202,,,2023-03-22,合併による解散等,8360003006323,令和５年３月２１日沖縄県宜野湾市普天間二丁目１２番１４号おしどりハウス合同会社（8360003006323）に合併し解散,2020-03-11,1,,,,,メンソーレ,0
1595,7370001022272,登記記録の閉鎖等,0,2023-03-30,2023-03-14,株式会社和伝,,株式会社,千葉県,浦安市,鉄鋼通り２丁目１番３号,,12,227,2790025,,,2023-03-14,合併による解散等,2040001034231,令和５年２月１６日千葉県浦安市鉄鋼通り二丁目１番３号株式会社建庄（2040001034231）に合併し解散,2015-10-05,1,,,,,ワデン,0
1602,7430001037280,登記記録の閉鎖等,0,2023-03-30,2023-03-23,株式会社フォレスト,,株式会社,北海道,札幌市中央区,北一条西２８丁目４番１０号,,01,101,0640821,,,2023-03-23,清算の結了等,,,2015-10-05,1,,,,,フォレスト,0
1616,7470002015356,登記記録の閉鎖等,0,2023-03-30,2023-03-28,有限会社リバーサイド,,有限会社,香川県,坂出市,川津町７３４番地３,,37,203,7620025,,,2023-03-28,清算の結了等,,,2015-10-05,1,,,,,リバーサイド,0
1624,8010002030037,登記記録の閉鎖等,0,2023-03-30,2023-03-24,有限会社友紀美術,,有限会社,東京都,文京区,水道１丁目４番１５号,,13,105,1120005,,,2023-03-24,清算の結了等,,,2015-10-05,1,,,,,ユウキビジュツ,0
1656,8010903007001,登記記録の閉鎖等,0,2023-03-30,2023-03-28,Ｕｎｉ　Ｑｕｅｅｎ　Ａｉｒ合同会社,,合同会社,東京都,世田谷区,駒沢公園１番１号Ｔｏｔｅ駒沢公園３Ｆ,,13,112,1540013,,,2023-03-28,清算の結了等,,,2021-12-10,1,,,,,ユニクイーンエアー,0
1662,8011101013048,登記記録の閉鎖等,0,2023-03-30,2023-03-29,株式会社中央ランディック,,株式会社,東京都,新宿区,百人町１丁目２０番１７号,,13,104,1690073,,,2023-03-29,清算の結了等,,,2015-10-05,1,,,,,,0
1679,8020001087829,登記記録の閉鎖等,0,2023-03-30,2023-03-27,エムアンドワイマネージメント株式会社,,株式会社,神奈川県,横浜市港北区,新吉田東４丁目１番１４号,,14,109,2230058,,,2023-03-27,清算の結了等,,,2015-10-05,1,,,,,エムアンドワイマネージメント,0
1691,8030001039696,登記記録の閉鎖等,0,2023-03-30,2023-03-27,株式会社エコネットサービス,,株式会社,埼玉県,八潮市,大字西袋１１８８番地７,,11,234,3400833,,,2023-03-27,清算の結了等,,,2015-10-05,1,,,,,エコネットサービス,0
1718,8080002001782,登記記録の閉鎖等,0,2023-03-30,2023-03-29,有限会社クローバーアルミ,,有限会社,静岡県,静岡市駿河区,下川原５丁目３４番４０－２号,,22,102,4210113,,,2023-03-29,清算の結了等,,,2015-10-05,1,,,,,クローバーアルミ,0
1719,8080402016109,登記記録の閉鎖等,0,2023-03-30,2023-03-29,有限会社旭電機,,有限会社,静岡県,浜松市北区,三ヶ日町都筑２３２９番地の５,,22,135,4311402,,,2023-03-29,清算の結了等,,,2015-10-05,1,,,,,,0
1731,8120001136848,登記記録の閉鎖等,0,2023-03-30,2023-03-28,株式会社日本ソマティックライフ,,株式会社,大阪府,大阪市淀川区,宮原４丁目５番２２－１１０３号,,27,123,5320003,,,2023-03-28,清算の結了等,,,2015-10-05,1,,,,,ニホンソマティックライフ,0
1738,8120002054826,登記記録の閉鎖等,0,2023-03-30,2023-03-28,有限会社モーニングサンライズ,,有限会社,大阪府,大阪市住吉区,長居東３丁目１５番２６－１０６号,,27,120,5580004,,,2023-03-28,清算の結了等,,,2015-10-05,1,,,,,モーニングサンライズ,0
1761,8180001008876,登記記録の閉鎖等,0,2023-03-30,2023-03-24,東海石油企業株式会社,,株式会社,愛知県,名古屋市天白区,鴻の巣１丁目１００３番地,,23,116,4680003,,,2023-03-24,清算の結了等,,,2015-10-05,1,,,,,トウカイセキユキギョウ,0
1764,8180001037561,登記記録の閉鎖等,0,2023-03-30,2023-03-27,大丸石材産業株式会社,,株式会社,愛知県,名古屋市東区,葵３丁目２３番７号,,23,102,4610004,,,2023-03-27,清算の結了等,,,2015-10-05,1,,,,,ダイマルセキザイサンギョウ,0
1766,8180001082830,登記記録の閉鎖等,0,2023-03-30,2023-03-24,株式会社三楽商店,,株式会社,愛知県,一宮市,本町４丁目９番２３号,,23,203,4910859,,,2023-03-24,清算の結了等,,,2015-10-05,1,,,,,サンラクショウテン,0
1767,8180001091170,登記記録の閉鎖等,0,2023-03-30,2023-03-23,株式会社立石組,,株式会社,愛知県,名古屋市南区,泉楽通４丁目７番地の３,,23,112,4570852,,,2023-03-23,清算の結了等,,,2015-10-05,1,,,,,タテイシグミ,0
1773,8180003009716,登記記録の閉鎖等,0,2023-03-30,2023-03-24,杉本商事株式会社,,株式会社,愛知県,東海市,富木島町伏見２丁目３番地の１８フォーレント東海１０５号,,23,222,4760012,,,2023-03-24,清算の結了等,,,2015-10-05,1,,,,,スギモトショウジ,0
1784,8200001015382,登記記録の閉鎖等,0,2023-03-30,2023-03-28,株式会社海津フラワーガーデン,,株式会社,岐阜県,海津市,海津町福江８４番地の１,,21,221,5030628,,,2023-03-28,清算の結了等,,,2015-10-05,1,,,,,カイヅフラワーガーデン,0
1797,8250002000453,登記記録の閉鎖等,0,2023-03-30,2023-03-27,有限会社カワノ,,有限会社,山口県,山口市,秋穂東７６９７番地の７,,35,203,7541101,,,2023-03-27,清算の結了等,,,2015-10-05,1,,,,,カワノ,0
1801,8260005011125,登記記録の閉鎖等,0,2023-03-30,2023-03-28,一般社団法人おかやま食品ロス削減ネットワーク,,その他の設立登記法人,岡山県,岡山市北区,東古松３丁目５番１５号,,33,101,7000921,,,2023-03-28,清算の結了等,,,2022-08-10,1,,,,,オカヤマショクヒンロスサクゲンネットワーク,0
1808,8310001008540,登記記録の閉鎖等,0,2023-03-30,2023-03-29,町田食品株式会社,,株式会社,長崎県,雲仙市,千々石町戊６２１番地,,42,213,8540405,,,2023-03-29,清算の結了等,,,2015-10-05,1,,,,,,0
1809,8310001008689,登記記録の閉鎖等,0,2023-03-30,2023-03-29,株式会社エーアールエフ,,株式会社,長崎県,大村市,雄ケ原町１３１３番地７２,,42,205,8560022,,,2023-03-29,清算の結了等,,,2015-10-05,1,,,,,エーアールエフ,0
1810,8330002029740,登記記録の閉鎖等,0,2023-03-30,2023-03-29,有限会社濱崎水産,00098028,有限会社,熊本県,上天草市,大矢野町中３７３８番地１,,43,212,8693603,,,2023-03-29,清算の結了等,,,2015-10-05,1,,,,,,0
1826,8420002008900,登記記録の閉鎖等,0,2023-03-30,2023-03-27,有限会社松橋こんにゃく店,,有限会社,青森県,八戸市,江陽２丁目１７番４６号,,02,203,0310801,,,2023-03-27,清算の結了等,,,2015-10-05,1,,,,,マツハシコンニャクテン,0
1832,8450002000061,登記記録の閉鎖等,0,2023-03-30,2023-03-28,有限会社あおぞら調剤薬局,,有限会社,北海道,旭川市,曙一条５丁目１番５号曙ビル１階,,01,204,0700061,,,2023-03-28,清算の結了等,,,2015-10-05,1,,,,,アオゾラチョウザイヤッキョク,0
1858,9010403026120,登記記録の閉鎖等,0,2023-03-30,2023-03-20,合同会社セレクション,,合同会社,東京都,港区,赤坂２丁目８番１８号妙和ビル２Ｆ,,13,103,1070052,,,2023-03-20,清算の結了等,,,2021-09-15,1,,,,,セレクション,0
1859,9010403028050,登記記録の閉鎖等,0,2023-03-30,2023-03-20,合同会社メルシーブルー,,合同会社,東京都,港区,南青山２丁目２番１５号,,13,103,1070062,,,2023-03-20,清算の結了等,,,2022-07-11,1,,,,,メルシーブルー,0
1863,9010601039774,登記記録の閉鎖等,0,2023-03-30,2023-03-27,リザード株式会社,,株式会社,東京都,墨田区,向島１丁目２６番１７－２０３号,,13,107,1310033,,,2023-03-27,清算の結了等,,,2015-10-05,1,,,,,リザード,0
1865,9010601060490,登記記録の閉鎖等,0,2023-03-30,2023-03-23,株式会社ドラ,,株式会社,東京都,江東区,豊洲２丁目５番２号,,13,108,1350061,,,2023-03-23,清算の結了等,,,2022-01-17,1,,,,,ドラ,0
1867,9010602028801,登記記録の閉鎖等,0,2023-03-30,2023-03-27,有限会社セントラル・プランニング,,有限会社,東京都,江東区,潮見２丁目６番１－６１０号,,13,108,1350052,,,2023-03-27,清算の結了等,,,2015-10-05,1,,,,,セントラルプランニング,0
1879,9011001111297,登記記録の閉鎖等,0,2023-03-30,2023-03-17,株式会社イミューズ,,株式会社,東京都,渋谷区,上原１丁目４番１０号,,13,113,1510064,,,2023-03-17,清算の結了等,,,2016-06-09,1,,,,,イミューズ,0
1906,9020002039118,登記記録の閉鎖等,0,2023-03-30,2023-03-22,有限会社鶴見広告社,,有限会社,神奈川県,横浜市鶴見区,下野谷町１丁目１番１号,,14,101,2300047,,,2023-03-22,合併による解散等,3020001016552,令和５年３月２１日横浜市鶴見区下野谷町一丁目１番１号株式会社あい企画（3020001016552）に合併し解散,2015-10-05,1,,,,,ツルミコウコクシャ,0
1914,9021003010141,登記記録の閉鎖等,0,2023-03-30,2023-03-24,Ｔｒｉｇｇｅｒ合同会社,,合同会社,東京都,渋谷区,神宮前６丁目２３番４号桑野ビル２階,,13,113,1500001,,,2023-03-24,清算の結了等,,,2021-02-17,1,,,,,トリガー,0
1915,9030001036981,登記記録の閉鎖等,0,2023-03-30,2023-03-27,株式会社ベーカリー麦畑,,株式会社,埼玉県,三郷市,早稲田２丁目１８番地１６,,11,237,3410018,,,2023-03-27,清算の結了等,,,2015-10-05,1,,,,,ベーカリームギバタケ,0
1922,9030002005837,登記記録の閉鎖等,0,2023-03-30,2023-03-28,埼玉魚市場氷販有限会社,,有限会社,埼玉県,さいたま市北区,吉野町２丁目２２６番地１,,11,102,3310811,,,2023-03-28,清算の結了等,,,2015-10-05,1,,,,,サイタマウオイチバヒョウハン,0
1927,9040001076060,登記記録の閉鎖等,0,2023-03-30,2023-03-27,株式会社ラボキ・ファクトリー,,株式会社,千葉県,松戸市,小山４０３番地の２,,12,207,2710093,,,2023-03-27,清算の結了等,,,2015-10-05,1,,,,,ラボキファクトリー,0
1928,9040001076449,登記記録の閉鎖等,0,2023-03-30,2023-03-27,株式会社トーシン興産,,株式会社,千葉県,柏市,豊四季１２６番地７根本コーポ２０３号,,12,217,2770863,,,2023-03-27,清算の結了等,,,2015-10-05,1,,,,,トーシンコウサン,0
1930,9040001125544,登記記録の閉鎖等,0,2023-03-30,2023-03-24,株式会社海老澤工務店,,株式会社,千葉県,松戸市,稔台５３９番地,,12,207,2702231,,,2023-03-24,清算の結了等,,,2022-10-28,1,,,,,エビサワコウムテン,0
1936,9040002065649,登記記録の閉鎖等,0,2023-03-30,2023-03-27,三宜有限会社,,有限会社,千葉県,佐倉市,春路２丁目２７番９,,12,212,2850814,,,2023-03-27,清算の結了等,,,2015-10-05,1,,,,,ミツギ,0
1947,9060001031014,登記記録の閉鎖等,0,2023-03-30,2023-03-28,株式会社貴船,,株式会社,埼玉県,北足立郡伊奈町,大字小室１３９２番地２,,11,301,3620806,,,2023-03-28,清算の結了等,,,2018-10-25,1,,,,,キフネ,0
1951,9070002028586,登記記録の閉鎖等,0,2023-03-30,2023-03-28,有限会社オリオンテック,,有限会社,群馬県,太田市,龍舞町１５８７番地の４１,,10,205,3730806,,,2023-03-28,清算の結了等,,,2015-10-05,1,,,,,オリオンテック,0
1960,9080102004288,登記記録の閉鎖等,0,2023-03-30,2023-03-29,有限会社シンゼン土木,,有限会社,静岡県,裾野市,平松１５１番地の１,,22,220,4101127,,,2023-03-29,清算の結了等,,,2015-10-05,1,,,,,シンゼンドボク,0
1963,9110003002239,登記記録の閉鎖等,0,2023-03-30,2023-03-28,合資会社豊島ロツヂ,,合資会社,新潟県,南魚沼郡湯沢町,大字三国３９番地,,15,461,9496212,,,2023-03-28,清算の結了等,,,2015-10-05,1,,,,,トヨシマロッヂ,0
1968,9120001171407,登記記録の閉鎖等,0,2023-03-30,2023-03-28,株式会社アントム,,株式会社,大阪府,大阪市淀川区,塚本６丁目１番１２号,,27,123,5320026,,,2023-03-28,清算の結了等,,,2015-10-05,1,,,,,アントム,0
1979,9120003017178,登記記録の閉鎖等,0,2023-03-30,2023-03-28,合同会社Ａｘｉａ,,合同会社,大阪府,大阪市中央区,東心斎橋１丁目６－３０－４０１,,27,128,5420083,,,2023-03-28,清算の結了等,,,2020-03-17,1,,,,,アクシア,0
1987,9120905005841,登記記録の閉鎖等,0,2023-03-30,2023-03-28,一般社団法人バイオ研究推進協会,,その他の設立登記法人,大阪府,三島郡島本町,桜井１丁目１３番１号長谷マンション３０１号,,27,301,6180022,,,2023-03-28,清算の結了等,,,2019-01-30,1,,,,,バイオケンキュウスイシンキョウカイ,0
2004,9130005012597,登記記録の閉鎖等,0,2023-03-30,2023-03-28,特定非営利活動法人京都市サッカー協会,,その他の設立登記法人,京都府,京都市北区,大宮南椿原町３５番地の２,,26,101,6038402,,,2023-03-28,清算の結了等,,,2015-10-05,1,,,,,キョウトシサッカーキョウカイ,0
2006,9140001027210,登記記録の閉鎖等,0,2023-03-30,2023-03-29,株式会社佐々木電気工事,,株式会社,兵庫県,神戸市西区,南別府３丁目６番地の２０,,28,111,6512116,,,2023-03-29,清算の結了等,,,2015-10-05,1,,,,,ササキデンキコウジ,0
2026,9180002010392,登記記録の閉鎖等,0,2023-03-30,2023-03-27,メイコー鋳造有限会社,,有限会社,愛知県,名古屋市瑞穂区,内浜町３２番３号,,23,108,4670853,,,2023-03-27,清算の結了等,,,2015-10-05,1,,,,,メイコーチュウゾウ,0
2031,9180302007428,登記記録の閉鎖等,0,2023-03-30,2023-03-22,有限会社小林康男建築,,有限会社,愛知県,豊橋市,梅薮町字折地３８番地,,23,201,4410155,,,2023-03-22,清算の結了等,,,2015-10-05,1,,,,,コバヤシヤスオケンチク,0
2032,9190001003009,登記記録の閉鎖等,0,2023-03-30,2023-03-28,株式会社津センター,,株式会社,三重県,津市,大門７番１５号,,24,201,5140027,,,2023-03-28,清算の結了等,,,2015-10-05,1,,,,,ツセンター,0
2033,9190001004535,登記記録の閉鎖等,0,2023-03-30,2023-03-27,株式会社エム,,株式会社,三重県,尾鷲市,中村町７番７０号,,24,209,5193616,,,2023-03-27,清算の結了等,,,2015-10-05,1,,,,,,0
2036,9190002022825,登記記録の閉鎖等,0,2023-03-30,2023-03-24,有限会社トラベルネットわぁく,,有限会社,三重県,四日市市,石塚町６番９号,,24,202,5100828,,,2023-03-24,清算の結了等,,,2015-10-05,1,,,,,トラベルネットワァク,0
2041,9220005002498,登記記録の閉鎖等,0,2023-03-30,2023-03-28,医療法人社団博洋会,,その他の設立登記法人,石川県,金沢市,古府１丁目１５０番地,,17,201,9200362,,,2023-03-28,清算の結了等,,,2015-10-05,1,,,,,ハクヨウカイ,0
2043,9230001009975,登記記録の閉鎖等,0,2023-03-30,2023-03-28,株式会社ケンセイ,,株式会社,富山県,高岡市,戸出春日４０６番地１１,,16,202,9391112,,,2023-03-28,清算の結了等,,,2015-10-05,1,,,,,ケンセイ,0
2045,9240001036003,登記記録の閉鎖等,0,2023-03-30,2023-03-16,株式会社ラバー,,株式会社,広島県,福山市,神辺町字平野９３４番地２,,34,207,7202116,,,2023-03-16,清算の結了等,,,2015-10-05,1,,,,,ラバー,0
2051,9270001004931,登記記録の閉鎖等,0,2023-03-30,2023-03-27,株式会社創建,,株式会社,鳥取県,東伯郡北栄町,西園４９３番地１,,31,372,6892201,,,2023-03-27,清算の結了等,,,2023-03-06,1,,,,,ソウケン,0
2069,9330001018215,登記記録の閉鎖等,0,2023-03-30,2023-03-29,株式会社まる鮮,,株式会社,熊本県,熊本市西区,田崎町４８４番地,,43,103,8600058,,,2023-03-29,清算の結了等,,,2015-10-05,1,,,,,,0
2089,9470002006304,登記記録の閉鎖等,0,2023-03-30,2023-03-29,有限会社マサミツ企画,,有限会社,香川県,高松市,上之町１丁目４番３６号,,37,201,7618064,,,2023-03-29,清算の結了等,,,2015-10-05,1,,,,,マサミツキカク,0
