sequenceNumber,corporateNumber,process,correct,updateDate,changeDate,name,nameImageId,kind,prefectureName,cityName,streetNumber,addressImageId,prefectureCode,cityCode,postCode,addressOutside,addressOutsideImageId,closeDate,closeCause,successorCorporateNumber,changeCause,assignmentDate,latest,enName,enPrefectureName,enCityName,enAddressOutside,furigana,hihyoji
12,1010002002686,登記記録の閉鎖等,0,2022-05-02,2022-04-13,有限会社笹屋菓子舗,,有限会社,東京都,文京区,根津２丁目１９番１２号,,13,105,1130031,,,2022-04-13,清算の結了等,,,2015-10-05,1,,,,,ササヤカシホ,0
20,1010003030587,登記記録の閉鎖等,0,2022-05-02,2022-04-26,ドリープロパティー合同会社,,合同会社,東京都,千代田区,丸の内１丁目１１番１号,,13,101,1000005,,,2022-04-26,清算の結了等,,,2019-09-10,1,,,,,ドリープロパティー,0
25,1010401114132,登記記録の閉鎖等,0,2022-05-02,2022-03-31,株式会社千代田興業,,株式会社,東京都,港区,六本木５丁目２番５号,,13,103,1060032,,,2022-03-31,清算の結了等,,,2015-10-05,1,,,,,チヨダコウギョウ,0
36,1010403011749,登記記録の閉鎖等,0,2022-05-02,2022-04-13,合同会社リンクス,,合同会社,東京都,港区,西麻布３丁目２番２６－４０１号,,13,103,1060031,,,2022-04-13,清算の結了等,,,2015-10-05,1,,,,,,0
43,1010701018504,登記記録の閉鎖等,0,2022-05-02,2022-04-19,株式会社スクラッチ,,株式会社,東京都,渋谷区,東３丁目９番１９号,,13,113,1500011,,,2022-04-19,合併による解散等,4120001130771,令和４年４月１日大阪市中央区南船場三丁目７番２７号株式会社Ｐｅｎｓｅｕｒ（4120001130771）に合併し解散,2015-10-05,1,,,,,スクラッチ,0
46,1010802008841,登記記録の閉鎖等,0,2022-05-02,2022-04-22,有限会社高橋動物病院,,有限会社,東京都,大田区,西糀谷３丁目１番１２号,,13,111,1440034,,,2022-04-22,清算の結了等,,,2015-10-05,1,,,,,タカハシドウブツビョウイン,0
72,1011105003233,登記記録の閉鎖等,0,2022-05-02,2022-04-25,特定非営利活動法人歯科医療コンシェルジェ協会,,その他の設立登記法人,東京都,新宿区,大久保２丁目６番１７号,,13,104,1690072,,,2022-04-25,清算の結了等,,,2015-10-05,1,,,,,シカイリョウコンシェルジェキョウカイ,0
83,1012801010464,登記記録の閉鎖等,0,2022-05-02,2022-04-22,株式会社スマイル,,株式会社,東京都,立川市,一番町１丁目１１番地の２８,,13,202,1900033,,,2022-04-22,清算の結了等,,,2015-10-05,1,,,,,スマイル,0
91,1020002092009,登記記録の閉鎖等,0,2022-05-02,2022-04-26,有限会社濃沼工業,,有限会社,神奈川県,川崎市多摩区,菅馬場１丁目１４番３０号,,14,135,2140004,,,2022-04-26,清算の結了等,,,2015-10-05,1,,,,,コイヌマコウギョウ,0
107,1030005019965,登記記録の閉鎖等,0,2022-05-02,2022-04-22,特定非営利活動法人あともす,,その他の設立登記法人,埼玉県,春日部市,梅田１丁目６番１９号,,11,214,3440052,,,2022-04-22,清算の結了等,,,2020-06-09,1,,,,,アトモス,0
111,1040001039066,登記記録の閉鎖等,0,2022-05-02,2022-04-25,いわしや医療株式会社,,株式会社,千葉県,流山市,流山８丁目１３２３番地の９,,12,220,2700164,,,2022-04-25,清算の結了等,,,2015-10-05,1,,,,,イワシヤイリョウ,0
116,1040002054758,登記記録の閉鎖等,0,2022-05-02,2022-04-22,有限会社石井商店,,有限会社,千葉県,成田市,上福田２７４番地,,12,211,2860842,,,2022-04-22,清算の結了等,,,2015-10-05,1,,,,,イシイショウテン,0
126,1060005009229,登記記録の閉鎖等,0,2022-05-02,2022-04-22,特定非営利活動法人リスマイリー,,その他の設立登記法人,栃木県,宇都宮市,山本２丁目１８番２２号,,09,201,3200012,,,2022-04-22,清算の結了等,,,2016-09-08,1,,,,,リスマイリー,0
137,1080402022014,登記記録の閉鎖等,0,2022-05-02,2022-04-26,有限会社マルヒロ,,有限会社,静岡県,袋井市,浅羽３２７３番地１,,22,216,4371101,,,2022-04-26,清算の結了等,,,2015-10-05,1,,,,,マルヒロ,0
153,1120001073395,登記記録の閉鎖等,0,2022-05-02,2022-04-25,株式会社アクテイブ・アサヒ,,株式会社,大阪府,大阪市中央区,西心斎橋２丁目１２番２２－８１４号,,27,128,5420086,,,2022-04-25,清算の結了等,,,2015-10-05,1,,,,,アクテイブアサヒ,0
173,1122002004684,登記記録の閉鎖等,0,2022-05-02,2022-04-22,有限会社ミニハウスコーポレーション,,有限会社,大阪府,東大阪市,足代新町４番１号,,27,227,5770057,,,2022-04-22,清算の結了等,,,2015-10-05,1,,,,,ミニハウスコーポレーション,0
186,1140001104520,登記記録の閉鎖等,0,2022-05-02,2022-04-25,株式会社ワールドスペースソリューションズ,,株式会社,兵庫県,神戸市中央区,港島中町６丁目８番１,,28,110,6500046,,,2022-04-25,合併による解散等,2010401001478,令和４年４月１日東京都港区三田三丁目１３番１６号株式会社アスプルンド（2010401001478）に合併し解散,2017-01-04,1,,,,,ワールドスペースソリューションズ,0
198,1180001078513,登記記録の閉鎖等,0,2022-05-02,2022-04-22,株式会社光アート,,株式会社,愛知県,春日井市,大泉寺町４４３番地１７６,,23,206,4860812,,,2022-04-22,清算の結了等,,,2015-10-05,1,,,,,ヒカリアート,0
199,1180001089527,登記記録の閉鎖等,0,2022-05-02,2022-04-25,株式会社エフビー,,株式会社,愛知県,大府市,吉田町６丁目８６番地,,23,223,4740048,,,2022-04-25,清算の結了等,,,2015-10-05,1,,,,,エフビー,0
205,1180001143449,登記記録の閉鎖等,0,2022-05-02,2022-04-19,春見株式会社,,株式会社,愛知県,春日井市,乙輪町２丁目５９番地セトル乙輪５０１号,,23,206,4860832,,,2022-04-19,清算の結了等,,,2020-11-05,1,,,,,ハルミ,0
208,1180002052228,登記記録の閉鎖等,0,2022-05-02,2022-04-25,有限会社井河工務店,,有限会社,愛知県,西春日井郡豊山町,大字青山字金剛２８１番地,,23,342,4800201,,,2022-04-25,清算の結了等,,,2015-10-05,1,,,,,イカワコウムテン,0
245,1290802012072,登記記録の閉鎖等,0,2022-05-02,2022-05-02,有限会社プラスパァ,,有限会社,福岡県,北九州市小倉北区,馬借３丁目３番３６号,,40,106,8020077,,,2022-05-02,清算の結了等,,,2015-10-05,1,,,,,プラスパァ,0
260,1380001008185,登記記録の閉鎖等,0,2022-05-02,2022-04-27,株式会社扇,,株式会社,福島県,郡山市,名郷田１丁目３３番地,,07,203,9638043,,,2022-04-27,清算の結了等,,,2015-10-05,1,,,,,,0
261,1380001026030,登記記録の閉鎖等,0,2022-05-02,2022-04-27,ネクストエンジニアリング株式会社,,株式会社,福島県,いわき市,好間町下好間字大館４７番地,,07,204,9701151,,,2022-04-27,清算の結了等,,,2015-10-05,1,,,,,,0
264,1380002027300,登記記録の閉鎖等,0,2022-05-02,2022-04-27,有限会社えぼし装備,,有限会社,福島県,いわき市,好間町下好間字大館４７番地,,07,204,9701151,,,2022-04-27,清算の結了等,,,2015-10-05,1,,,,,エボシソウビ,0
271,1440001001605,登記記録の閉鎖等,0,2022-05-02,2022-04-25,函館空港ビルデング株式会社,,株式会社,北海道,函館市,高松町５１１番地函館空港内,,01,202,0420952,,,2022-04-25,合併による解散等,7430001079728,令和４年４月１日北海道千歳市美々９８７番地２２北海道エアポート株式会社（7430001079728）に合併し解散,2015-10-05,1,,,,,ハコダテクウコウビルデング,0
297,2010001201445,登記記録の閉鎖等,0,2022-05-02,2022-04-13,グリーンサプライ・パートナーズ株式会社,,株式会社,東京都,千代田区,内幸町１丁目１番３号,,13,101,1000011,,,2022-04-13,清算の結了等,,,2019-06-10,1,,,,,グリーンサプライパートナーズ,0
311,2010401072263,登記記録の閉鎖等,0,2022-05-02,2022-04-22,株式会社ナウスビジネス二十一,,株式会社,千葉県,佐倉市,ユーカリが丘１丁目１番２１号,,12,212,2850858,,,2022-04-22,清算の結了等,,,2015-10-05,1,,,,,ナウスビジネスニジュウイチ,0
340,2010803000937,登記記録の閉鎖等,0,2022-05-02,2022-04-25,合同会社健,,合同会社,東京都,大田区,南久が原２丁目１９番７号,,13,111,1460084,,,2022-04-25,清算の結了等,,,2015-10-05,1,,,,,,0
390,2020002051913,登記記録の閉鎖等,0,2022-05-02,2022-04-25,有限会社ミクニアルミ,,有限会社,神奈川県,横浜市都筑区,早渕１丁目２５番３６号,,14,118,2240025,,,2022-04-25,清算の結了等,,,2015-10-05,1,,,,,ミクニアルミ,0
403,2030001068552,登記記録の閉鎖等,0,2022-05-02,2022-04-22,株式会社ホームアシスト,,株式会社,埼玉県,越谷市,大字平方４７８番地１３,,11,222,3430002,,,2022-04-22,清算の結了等,,,2015-10-05,1,,,,,,0
411,2030003015701,登記記録の閉鎖等,0,2022-05-02,2022-04-26,Ｍａｒｋｅｔｉｎｇ　ＰＬＵＳ合同会社,,合同会社,東京都,北区,赤羽台２丁目３番２－９１０号,,13,117,1150053,,,2022-04-26,清算の結了等,,,2020-08-11,1,,,,,マーケティングプラス,0
413,2040001036789,登記記録の閉鎖等,0,2022-05-02,2022-04-22,株式会社ペレニアル,,株式会社,千葉県,流山市,おおたかの森西１丁目２０番地の１ルフォン流山おおたかの森１３１５,,12,220,2700128,,,2022-04-22,清算の結了等,,,2015-10-05,1,,,,,ペレニアル,0
425,2050001018638,登記記録の閉鎖等,0,2022-05-02,2022-04-25,株式会社嘉和,,株式会社,茨城県,古河市,女沼４００番地の１,,08,204,3060226,,,2022-04-25,清算の結了等,,,2015-10-05,1,,,,,ヨシワ,0
447,2110002027747,登記記録の閉鎖等,0,2022-05-02,2022-04-27,有限会社佐藤瓦工場,,有限会社,新潟県,長岡市,宮原２丁目４番１４号,,15,202,9400083,,,2022-04-27,清算の結了等,,,2015-10-05,1,,,,,サトウカワラコウジョウ,0
453,2120001147529,登記記録の閉鎖等,0,2022-05-02,2022-04-22,大山建設株式会社,,株式会社,大阪府,寝屋川市,高柳７丁目１７番３号,,27,215,5720051,,,2022-04-22,清算の結了等,,,2015-10-05,1,,,,,,0
457,2120001194158,登記記録の閉鎖等,0,2022-05-02,2022-04-22,株式会社ふぁんくしょん,,株式会社,大阪府,枚方市,山之上北町６０番１－１６１３号,,27,210,5730049,,,2022-04-22,清算の結了等,,,2015-10-30,1,,,,,,0
477,2120901018408,登記記録の閉鎖等,0,2022-05-02,2022-04-25,株式会社ＮＡＧＯＭＩミヤヒ,,株式会社,大阪府,大阪市東淀川区,東中島１丁目１７番５号,,27,114,5330033,,,2022-04-25,清算の結了等,,,2015-10-05,1,,,,,,0
495,2180001002612,登記記録の閉鎖等,0,2022-05-02,2022-04-25,中日本建設株式会社,,株式会社,愛知県,名古屋市名東区,本郷２丁目４７番地,,23,115,4650024,,,2022-04-25,清算の結了等,,,2015-10-05,1,,,,,,0
502,2180001124968,登記記録の閉鎖等,0,2022-05-02,2022-04-22,ＯＣＥＡＮ株式会社,,株式会社,愛知県,名古屋市西区,清里町１４１番地,,23,104,4520801,,,2022-04-22,清算の結了等,,,2016-09-29,1,,,,,オーシャン,0
516,2190001007981,登記記録の閉鎖等,0,2022-05-02,2022-04-22,株式会社カワイ,,株式会社,三重県,志摩市,磯部町栗木広２６６番地,,24,215,5170216,,,2022-04-22,清算の結了等,,,2015-10-05,1,,,,,カワイ,0
528,2220002011467,登記記録の閉鎖等,0,2022-05-02,2022-04-25,有限会社北中工業,,有限会社,石川県,能美市,湯谷町ヘ４３番地１５,,17,211,9231104,,,2022-04-25,清算の結了等,,,2015-10-05,1,,,,,キタナカコウギョウ,0
550,2310002004791,登記記録の閉鎖等,0,2022-05-02,2022-05-02,有限会社富士美容室,,有限会社,長崎県,長崎市,浜町３番５号,,42,201,8500853,,,2022-05-02,清算の結了等,,,2015-10-05,1,,,,,フジビヨウシツ,0
554,2330003000012,登記記録の閉鎖等,0,2022-05-02,2022-04-21,合資会社岩本瓦工業,,合資会社,熊本県,熊本市中央区,新屋敷２丁目２１番１１号,,43,101,8620975,,,2022-04-21,清算の結了等,,,2015-10-05,1,,,,,イワモトカワラコウギョウ,0
560,2340005004241,登記記録の閉鎖等,0,2022-05-02,2022-04-28,協同組合種子島専門店会,,その他の設立登記法人,鹿児島県,西之表市,栄町２番地,,46,213,8913112,,,2022-04-28,清算の結了等,,,2015-10-05,1,,,,,タネガシマセンモンテンカイ,0
598,3010001089161,登記記録の閉鎖等,0,2022-05-02,2022-04-12,日本クイント株式会社,,株式会社,東京都,千代田区,神田神保町１丁目１３番地２号文銭堂ビル,,13,101,1010051,,,2022-04-12,合併による解散等,7010001104668,令和４年４月１日東京都千代田区二番町３番地株式会社ＩＴプレナーズジャパン・アジアパシフィック（7010001104668）に合併し解散,2015-10-05,1,,,,,ニホンクイント,0
611,3010401146413,登記記録の閉鎖等,0,2022-05-02,2022-04-13,株式会社Ａｎｄ　Ｔｅｃｈｎｏｌｏｇｉｅｓ,,株式会社,東京都,港区,赤坂４丁目２番３,,13,103,1070052,,,2022-04-13,合併による解散等,4011001072890,令和４年３月３１日東京都港区虎ノ門四丁目１番１３号２階株式会社みらいワークス（4011001072890）に合併し解散,2019-06-24,1,,,,,アンドテクノロジーズ,0
671,3021001022771,登記記録の閉鎖等,0,2022-05-02,2022-04-22,株式会社広川製作所,,株式会社,神奈川県,秦野市,戸川４８番地,,14,211,2591306,,,2022-04-22,清算の結了等,,,2015-10-05,1,,,,,,0
698,3040001102128,登記記録の閉鎖等,0,2022-05-02,2022-04-25,株式会社アリス企画,,株式会社,千葉県,市原市,姉崎９９４番地１,,12,219,2990111,,,2022-04-25,清算の結了等,,,2017-10-11,1,,,,,アリスキカク,0
708,3050002027562,登記記録の閉鎖等,0,2022-05-02,2022-04-25,有限会社山崎一配管興業,,有限会社,茨城県,鹿嶋市,大字根三田１７７番地,,08,222,3140035,,,2022-04-25,清算の結了等,,,2015-10-05,1,,,,,,0
712,3060001030590,登記記録の閉鎖等,0,2022-05-02,2022-04-25,株式会社フラワー,,株式会社,栃木県,小山市,大字喜沢１４７５番地４５,,09,208,3230014,,,2022-04-25,清算の結了等,,,2018-05-31,1,,,,,,0
716,3080001022017,登記記録の閉鎖等,0,2022-05-02,2022-04-26,株式会社タンドラ,,株式会社,静岡県,島田市,本通５丁目４番の８,,22,209,4270022,,,2022-04-26,清算の結了等,,,2018-01-26,1,,,,,タンドラ,0
727,3110002015230,登記記録の閉鎖等,0,2022-05-02,2022-04-25,有限会社高橋捺染工場,,有限会社,新潟県,新発田市,本田癸１２番地,,15,206,9592335,,,2022-04-25,清算の結了等,,,2015-10-05,1,,,,,タカハシナッセンコウジョウ,0
777,3180005014792,登記記録の閉鎖等,0,2022-05-02,2022-04-22,弁護士法人希望,,その他の設立登記法人,愛知県,名古屋市守山区,中新１０番８号,,23,113,4630057,,,2022-04-22,清算の結了等,,,2015-10-05,1,,,,,キボウ,0
779,3180301033430,登記記録の閉鎖等,0,2022-05-02,2022-04-25,株式会社山本組,,株式会社,愛知県,額田郡幸田町,大字芦谷字仲田１７３番地,00118988,23,501,4440116,,,2022-04-25,清算の結了等,,,2020-02-14,1,,,,,ヤマモトグミ,0
785,3190002014448,登記記録の閉鎖等,0,2022-05-02,2022-04-22,マル栄建築有限会社,,有限会社,三重県,松阪市,光町１０４３番地,,24,204,5150051,,,2022-04-22,清算の結了等,,,2015-10-05,1,,,,,マルエイケンチク,0
816,3330001009351,登記記録の閉鎖等,0,2022-05-02,2022-04-19,エヌシー加工株式会社,,株式会社,熊本県,合志市,合生３１８４番地２,,43,216,8611101,,,2022-04-19,清算の結了等,,,2015-10-05,1,,,,,エヌシーカコウ,0
823,3340001004475,登記記録の閉鎖等,0,2022-05-02,2022-04-28,株式会社湯浅建設,,株式会社,鹿児島県,鹿児島市,新屋敷町２１番２３号,,46,201,8920838,,,2022-04-28,清算の結了等,,,2015-10-05,1,,,,,ユアサケンセツ,0
834,3402701000268,登記記録の閉鎖等,0,2022-05-02,2022-04-27,大和田産業株式会社,,株式会社,岩手県,大船渡市,大船渡町字丸森１４番地１,,03,203,0220002,,,2022-04-27,清算の結了等,,,2015-10-05,1,,,,,オオワダサンギョウ,0
848,3480002008016,登記記録の閉鎖等,0,2022-05-02,2022-04-28,林商事有限会社,,有限会社,徳島県,小松島市,小松島町字菖蒲田１５番地の８,,36,203,7730001,,,2022-04-28,清算の結了等,,,2015-10-05,1,,,,,,0
892,4010901023301,登記記録の閉鎖等,0,2022-05-02,2022-04-26,株式会社ＩＳＭ総研,,株式会社,東京都,世田谷区,三軒茶屋１丁目１７番４－２０８号,,13,112,1540024,,,2022-04-26,清算の結了等,,,2015-10-05,1,,,,,アイエスエムソウケン,0
926,4013305002796,登記記録の閉鎖等,0,2022-05-02,2022-04-26,一般社団法人日本社歌協会,,その他の設立登記法人,東京都,豊島区,池袋２丁目６１番８号,,13,116,1710014,,,2022-04-26,清算の結了等,,,2018-05-24,1,,,,,ニホンシャカキョウカイ,0
943,4020002100156,登記記録の閉鎖等,0,2022-05-02,2022-04-25,有限会社戸張造園,,有限会社,神奈川県,川崎市幸区,小倉４丁目２６番３－５０６号,,14,132,2120054,,,2022-04-25,清算の結了等,,,2015-10-05,1,,,,,,0
945,4021001006823,登記記録の閉鎖等,0,2022-05-02,2022-04-26,小山建設株式会社,,株式会社,神奈川県,茅ヶ崎市,円蔵２４４４番地,,14,207,2530084,,,2022-04-26,清算の結了等,,,2015-10-05,1,,,,,コヤマケンセツ,0
946,4021001019627,登記記録の閉鎖等,0,2022-05-02,2022-04-18,協栄産業株式会社,,株式会社,神奈川県,厚木市,旭町１丁目３３番９号,,14,212,2430014,,,2022-04-18,清算の結了等,,,2015-10-05,1,,,,,キョウエイサンギョウ,0
988,4060002022198,登記記録の閉鎖等,0,2022-05-02,2022-04-25,有限会社小松興業,,有限会社,栃木県,那須塩原市,上厚崎５７７番地６,,09,213,3250026,,,2022-04-25,清算の結了等,,,2015-10-05,1,,,,,コマツコウギョウ,0
1022,4120005005895,登記記録の閉鎖等,0,2022-05-02,2022-04-27,此花運輸事業協同組合,,その他の設立登記法人,大阪府,大阪市此花区,朝日２丁目７番８号,,27,104,5540011,,,2022-04-27,清算の結了等,,,2015-10-05,1,,,,,コノハナウンユ,0
1060,4200002012903,登記記録の閉鎖等,0,2022-05-02,2022-04-28,有限会社テイ・エム・エス,,有限会社,岐阜県,大垣市,新馬場町７番地の１,,21,202,5030921,,,2022-04-28,清算の結了等,,,2015-10-05,1,,,,,テイエムエス,0
1162,5010401067962,登記記録の閉鎖等,0,2022-05-02,2022-04-12,モエコツナ石油株式会社,,株式会社,東京都,千代田区,大手町１丁目２番１号,,13,101,1000004,,,2022-04-12,清算の結了等,,,2015-10-05,1,,,,,モエコツナセキユ,0
1165,5010401136387,登記記録の閉鎖等,0,2022-05-02,2022-04-13,株式会社ｈａｖｅ　ａ　ｎｉｃｅ　ｄａｙ,,株式会社,東京都,港区,赤坂２丁目１１番１号,,13,103,1070052,,,2022-04-13,清算の結了等,,,2018-02-02,1,,,,,ハブアナイスデイ,0
1172,5010405007493,登記記録の閉鎖等,0,2022-05-02,2022-04-14,一般社団法人港開発,,その他の設立登記法人,東京都,港区,元赤坂１丁目１番８号株式会社赤坂国際会計内,,13,103,1070051,,,2022-04-14,清算の結了等,,,2015-10-05,1,,,,,ミナトカイハツ,0
1175,5010501030192,登記記録の閉鎖等,0,2022-05-02,2022-04-28,株式会社エフシーレンタル,,株式会社,東京都,台東区,浅草橋５丁目２４番６号,,13,106,1110053,,,2022-04-28,清算の結了等,,,2015-10-05,1,,,,,エフシーレンタル,0
1177,5010601042113,登記記録の閉鎖等,0,2022-05-02,2022-04-19,株式会社ＢＢＣ,,株式会社,東京都,墨田区,東駒形４丁目２２番１０号,,13,107,1300005,,,2022-04-19,清算の結了等,,,2015-10-05,1,,,,,,0
1183,5010701007932,登記記録の閉鎖等,0,2022-05-02,2022-04-25,株式会社ノトス・ライブ,,株式会社,東京都,品川区,東五反田２丁目９番地５号,,13,109,1410022,,,2022-04-25,清算の結了等,,,2015-10-05,1,,,,,ノトスライブ,0
1190,5010801021453,登記記録の閉鎖等,0,2022-05-02,2022-04-25,クーザー株式会社,,株式会社,東京都,大田区,西蒲田３丁目２番１４号,,13,111,1440051,,,2022-04-25,清算の結了等,,,2015-10-05,1,,,,,,0
1215,5011102000873,登記記録の閉鎖等,0,2022-05-02,2022-04-27,有限会社アサヒ塗装工業,,有限会社,東京都,新宿区,西新宿８丁目１４番１７号,,13,104,1600023,,,2022-04-27,清算の結了等,,,2015-10-05,1,,,,,アサヒトソウコウギョウ,0
1218,5011501001836,登記記録の閉鎖等,0,2022-05-02,2022-04-26,佐藤機械株式会社,,株式会社,東京都,北区,豊島２丁目１３番２号,,13,117,1140003,,,2022-04-26,清算の結了等,,,2015-10-05,1,,,,,サトウキカイ,0
1220,5011503004440,登記記録の閉鎖等,0,2022-05-02,2022-04-26,合同会社赤羽管理,,合同会社,東京都,北区,赤羽台３丁目３番２３－１０１号ルーブル赤羽台,,13,117,1150053,,,2022-04-26,清算の結了等,,,2020-07-07,1,,,,,アカバネカンリ,0
1255,5021001005725,登記記録の閉鎖等,0,2022-05-02,2022-04-22,株式会社ユニバーサル・ブレイン,,株式会社,神奈川県,藤沢市,鵠沼石上１丁目１番１号,,14,205,2510025,,,2022-04-22,清算の結了等,,,2015-10-05,1,,,,,ユニバーサルブレイン,0
1266,5030001091972,登記記録の閉鎖等,0,2022-05-02,2022-04-25,株式会社日立ハイテクファインシステムズ,,株式会社,埼玉県,児玉郡上里町,大字嘉美１６００番地,,11,385,3690307,,,2022-04-25,合併による解散等,4010401021648,令和４年４月１日東京都港区虎ノ門一丁目１７番１号株式会社日立ハイテク（4010401021648）に合併し解散,2015-10-05,1,,,,,ヒタチハイテクファインシステムズ,0
1300,5060001023163,登記記録の閉鎖等,0,2022-05-02,2022-04-27,株式会社タイムシェアリング,,株式会社,東京都,渋谷区,代々木１丁目３１番１５号さくらビル,,13,113,1510053,,,2022-04-27,清算の結了等,,,2015-10-05,1,,,,,タイムシェアリング,0
1315,5120001032728,登記記録の閉鎖等,0,2022-05-02,2022-04-27,サンメゾン清水丘株式会社,,株式会社,大阪府,大阪市住吉区,清水丘１丁目８番８号,,27,120,5580033,,,2022-04-27,清算の結了等,,,2015-10-05,1,,,,,サンメゾンシミズガオカ,0
1387,5180005017802,登記記録の閉鎖等,0,2022-05-02,2022-04-27,一般社団法人ヘルスアップ推進協議会,,その他の設立登記法人,愛知県,名古屋市中区,栄２丁目１３番１号名古屋パークプレイス３Ｆ株式会社マイ．ビジネスサービス内,,23,106,4600008,,,2022-04-27,清算の結了等,,,2018-05-17,1,,,,,ヘルスアップスイシンキョウギカイ,0
1393,5190002022754,登記記録の閉鎖等,0,2022-05-02,2022-04-20,有限会社楽道,,有限会社,三重県,津市,安濃町田端上野８７４番地８５,,24,201,5142325,,,2022-04-20,清算の結了等,,,2015-10-05,1,,,,,ラクドウ,0
1401,5220001023188,登記記録の閉鎖等,0,2022-05-02,2022-04-25,フィールドファクトリー株式会社,,株式会社,石川県,金沢市,金石西２丁目５番２０号（ＩＩ－Ｄ号）,00118117,17,201,9200337,,,2022-04-25,清算の結了等,,,2019-11-07,1,,,,,フィールドファクトリー,0
1415,5260001014729,登記記録の閉鎖等,0,2022-05-02,2022-04-25,ホワイトプレス株式会社,,株式会社,岡山県,倉敷市,児島田の口１番１９,,33,202,7110903,,,2022-04-25,清算の結了等,,,2015-10-05,1,,,,,ホワイトプレス,0
1447,5330002006387,登記記録の閉鎖等,0,2022-05-02,2022-04-21,有限会社岳川鮮魚,,有限会社,熊本県,熊本市西区,上代８丁目７番２８号２０１,,43,103,8600068,,,2022-04-21,清算の結了等,,,2015-10-05,1,,,,,タケカワセンギョ,0
1482,5420005000304,登記記録の閉鎖等,0,2022-05-02,2022-04-22,青森市職員生活協同組合,,その他の設立登記法人,青森県,青森市,中央１丁目２２番５号,,02,201,0300822,,,2022-04-22,清算の結了等,,,2015-10-05,1,,,,,アオモリシショクイン,0
1514,6010401114425,登記記録の閉鎖等,0,2022-05-02,2022-03-31,株式会社ティーエヌディー,,株式会社,東京都,港区,赤坂２丁目１７番６５号,,13,103,1070052,,,2022-03-31,清算の結了等,,,2015-10-05,1,,,,,ティーエヌディー,0
1519,6010601039967,登記記録の閉鎖等,0,2022-05-02,2022-04-18,株式会社ライズ,,株式会社,東京都,江東区,古石場１丁目３番７号古山ビル２０１,,13,108,1350045,,,2022-04-18,清算の結了等,,,2015-10-05,1,,,,,ライズ,0
1524,6010603006189,登記記録の閉鎖等,0,2022-05-02,2022-04-15,合同会社アルファデザイン,,合同会社,東京都,江東区,東雲１丁目９番２０－３０６号,,13,108,1350062,,,2022-04-15,清算の結了等,,,2016-02-15,1,,,,,アルファデザイン,0
1536,6011001058178,登記記録の閉鎖等,0,2022-05-02,2022-04-26,株式会社ＣＯＳ－Ｐａ,,株式会社,東京都,板橋区,舟渡１丁目８－１３,,13,119,1740041,,,2022-04-26,清算の結了等,,,2015-10-05,1,,,,,コスパ,0
1552,6011403002997,登記記録の閉鎖等,0,2022-05-02,2022-04-28,合同会社アシスト,,合同会社,東京都,板橋区,南常盤台１丁目１１番６号レフア南常盤台１０１号室,,13,119,1740072,,,2022-04-28,清算の結了等,,,2020-05-20,1,,,,,アシスト,0
1569,6013301031624,登記記録の閉鎖等,0,2022-05-02,2022-04-25,株式会社アーファス,,株式会社,東京都,豊島区,東池袋３丁目７－８セントヒルズ池袋７０３号室,,13,116,1700013,,,2022-04-25,清算の結了等,,,2015-10-05,1,,,,,アーファス,0
1580,6020005010053,登記記録の閉鎖等,0,2022-05-02,2022-04-15,一般社団法人日本サイクルレーシングクラブ協会,,その他の設立登記法人,神奈川県,川崎市多摩区,登戸３１６５番地１,,14,135,2140014,,,2022-04-15,清算の結了等,,,2015-10-05,1,,,,,ニホンサイクルレーシングクラブキョウカイ,0
1601,6030001099098,登記記録の閉鎖等,0,2022-05-02,2022-04-25,株式会社トーラストレーディング,,株式会社,栃木県,那須郡那須町,大字沼野井６３９－２３,,09,407,3293446,,,2022-04-25,清算の結了等,,,2015-10-05,1,,,,,トーラストレーディング,0
1612,6040001098198,登記記録の閉鎖等,0,2022-05-02,2022-04-22,ウエストブロック株式会社,,株式会社,千葉県,千葉市美浜区,打瀬２丁目１２番地,,12,106,2610013,,,2022-04-22,清算の結了等,,,2016-12-26,1,,,,,ウエストブロック,0
1631,6100002022530,登記記録の閉鎖等,0,2022-05-02,2022-04-27,有限会社鵬雲崎そば庄,,有限会社,長野県,松本市,安曇鵬雲崎３５４８番地４１１,,20,202,3901520,,,2022-04-27,清算の結了等,,,2015-10-05,1,,,,,ホウウンザキソバショウ,0
1682,6180001144698,登記記録の閉鎖等,0,2022-05-02,2022-04-27,株式会社ＩＮＡ,,株式会社,愛知県,名古屋市中村区,太閤通９丁目３番地,,23,105,4530811,,,2022-04-27,清算の結了等,,,2021-02-05,1,,,,,アイエヌエー,0
1688,6180005006003,登記記録の閉鎖等,0,2022-05-02,2022-04-27,特定非営利活動法人緑の列島ネットワーク,,その他の設立登記法人,愛知県,日進市,本郷町前川１２４３番地５プリンセスガーデン日進１０２,,23,230,4700121,,,2022-04-27,清算の結了等,,,2015-10-05,1,,,,,ミドリノレットウネットワーク,0
1693,6190001007417,登記記録の閉鎖等,0,2022-05-02,2022-04-21,株式会社松浪,,株式会社,三重県,鳥羽市,相差町１２６７番地の１,,24,211,5170032,,,2022-04-21,清算の結了等,,,2015-10-05,1,,,,,マツナミ,0
1698,6200002026001,登記記録の閉鎖等,0,2022-05-02,2022-04-28,有限会社三駒屋,,有限会社,岐阜県,高山市,丹生川町折敷地２番地９,,21,203,5062103,,,2022-04-28,清算の結了等,,,2015-10-05,1,,,,,,0
1707,6250002000439,登記記録の閉鎖等,0,2022-05-02,2022-04-26,有限会社かつみ電器,,有限会社,山口県,山口市,小郡下郷８５６番地,,35,203,7540002,,,2022-04-26,清算の結了等,,,2015-10-05,1,,,,,,0
1711,6270002000230,登記記録の閉鎖等,0,2022-05-02,2022-04-22,有限会社インテリア蔵光,,有限会社,鳥取県,鳥取市,浜坂７丁目１番４９号,,31,201,6800001,,,2022-04-22,清算の結了等,,,2015-10-05,1,,,,,インテリアクラミツ,0
1712,6270005003494,登記記録の閉鎖等,0,2022-05-02,2022-04-20,農事組合法人陣構果樹生産組合,,その他の設立登記法人,鳥取県,西伯郡大山町,御来屋２５３番地２,,31,386,6893211,,,2022-04-20,清算の結了等,,,2015-10-05,1,,,,,,0
1719,6290002003925,登記記録の閉鎖等,0,2022-05-02,2022-04-26,有限会社ユービーエス,,有限会社,福岡県,福岡市南区,折立町５番５９号,,40,134,8111303,,,2022-04-26,清算の結了等,,,2015-10-05,1,,,,,ユービーエス,0
1727,6320002012253,登記記録の閉鎖等,0,2022-05-02,2022-04-22,有限会社藤田屋,,有限会社,大分県,別府市,秋葉町６番１１号,,44,202,8740937,,,2022-04-22,清算の結了等,,,2015-10-05,1,,,,,フジタヤ,0
1746,6380001018270,登記記録の閉鎖等,0,2022-05-02,2022-04-25,株式会社有紀,,株式会社,福島県,会津若松市,町北町大字上荒久田字宮下６３番地,,07,202,9650053,,,2022-04-25,清算の結了等,,,2015-10-05,1,,,,,ユウキ,0
1748,6380002009228,登記記録の閉鎖等,0,2022-05-02,2022-04-25,有限会社国分農機商会,,有限会社,福島県,郡山市,富久山町久保田字梅田１０６番地,,07,203,9638071,,,2022-04-25,清算の結了等,,,2015-10-05,1,,,,,コクブンノウキショウカイ,0
1766,6430002028420,登記記録の閉鎖等,0,2022-05-02,2022-04-18,有限会社オルセー,,有限会社,北海道,札幌市東区,北二十二条東１６丁目１１番地１,,01,103,0650022,,,2022-04-18,清算の結了等,,,2015-10-05,1,,,,,オルセー,0
1774,6490005000180,登記記録の閉鎖等,0,2022-05-02,2022-04-26,高知中央車体協同組合,,その他の設立登記法人,高知県,高知市,高須３３６番地１,,39,201,7818123,,,2022-04-26,清算の結了等,,,2015-10-05,1,,,,,コウチチュウオウシャタイ,0
1782,7010001075612,登記記録の閉鎖等,0,2022-05-02,2022-04-12,サイバックス株式会社,,株式会社,東京都,中央区,日本橋２丁目１６番５号,,13,102,1030027,,,2022-04-12,合併による解散等,5010001075531,令和４年４月１日東京都中央区日本橋二丁目１６番５号リスクモンスター株式会社（5010001075531）に合併し解散,2015-10-05,1,,,,,サイバックス,0
1783,7010001104073,登記記録の閉鎖等,0,2022-05-02,2022-04-12,株式会社ＡＤＯＳ,,株式会社,東京都,千代田区,五番町１２番７,,13,101,1020076,,,2022-04-12,清算の結了等,,,2015-10-05,1,,,,,,0
1796,7010001202694,登記記録の閉鎖等,0,2022-05-02,2022-04-12,株式会社Ｃｒｅｅｄ会計事務所,,株式会社,東京都,千代田区,神田駿河台１丁目５番６－１１３号,,13,101,1010062,,,2022-04-12,清算の結了等,,,2019-07-24,1,,,,,クリードカイケイジムショ,0
1805,7010005029127,登記記録の閉鎖等,0,2022-05-02,2022-04-27,ハーバーホールディングス一般社団法人,,その他の設立登記法人,東京都,千代田区,九段南３丁目７番７号成和綜合会計事務所内,,13,101,1020074,,,2022-04-27,清算の結了等,,,2018-09-25,1,,,,,ハーバーホールデングス,0
1834,7011001106209,登記記録の閉鎖等,0,2022-05-02,2022-04-20,株式会社イー・シー・インターナショナル,,株式会社,東京都,渋谷区,広尾１丁目１１－２アイオス広尾ビル,,13,113,1500012,,,2022-04-20,合併による解散等,4430001037069,令和４年４月１５日札幌市北区北七条西四丁目８－３北口ヨシヤビル５Ｆ株式会社イー・シー（4430001037069）に合併し解散,2015-10-05,1,,,,,イーシーインターナショナル,0
1835,7011001106893,登記記録の閉鎖等,0,2022-05-02,2022-04-22,テネリータ株式会社,,株式会社,東京都,渋谷区,神宮前６丁目７番１号,,13,113,1500001,,,2022-04-22,合併による解散等,6120001145033,令和４年４月１日大阪市中央区淡路町二丁目３番５号株式会社インコントロ（6120001145033）に合併し解散,2015-10-05,1,,,,,テネリータ,0
1891,7030002037353,登記記録の閉鎖等,0,2022-05-02,2022-04-18,生き生きライフ有限会社,,有限会社,埼玉県,入間市,宮寺１５５６番地２,,11,225,3580014,,,2022-04-18,清算の結了等,,,2015-10-05,1,,,,,イキイキライフ,0
1914,7060002040635,登記記録の閉鎖等,0,2022-05-02,2022-04-26,有限会社雄光設備工業,,有限会社,栃木県,佐野市,犬伏上町２２４６番地２,,09,204,3270806,,,2022-04-26,清算の結了等,,,2015-10-05,1,,,,,ユウコウセツビコウギョウ,0
1918,7100001000032,登記記録の閉鎖等,0,2022-05-02,2022-04-26,株式会社愛甲,,株式会社,長野県,長野市,東鶴賀町３０番地５,,20,201,3800811,,,2022-04-26,清算の結了等,,,2015-10-05,1,,,,,アイコウ,0
1923,7100005006934,登記記録の閉鎖等,0,2022-05-02,2022-04-25,一般社団法人中信民医連事務センター,,その他の設立登記法人,長野県,松本市,巾上１０番５号,,20,202,3900817,,,2022-04-25,清算の結了等,,,2015-10-05,1,,,,,チュウシンミンイレンジムセンター,0
1928,7120001066369,登記記録の閉鎖等,0,2022-05-02,2022-04-11,ダイヘン電機システム株式会社,,株式会社,大阪府,大阪市淀川区,田川２丁目１番１１号,,27,123,5320027,,,2022-04-11,合併による解散等,6120001056461,令和４年４月１日大阪市淀川区田川二丁目１番１１号株式会社ダイヘン（6120001056461）に合併し解散,2015-10-05,1,,,,,ダイヘンデンキシステム,0
1938,7120002023328,登記記録の閉鎖等,0,2022-05-02,2022-04-22,有限会社山口浩設計事務所,,有限会社,大阪府,大阪市旭区,大宮３丁目１９番３－５０５号,,27,117,5350002,,,2022-04-22,清算の結了等,,,2015-10-05,1,,,,,,0
1976,7180002090759,登記記録の閉鎖等,0,2022-05-02,2022-04-25,有限会社成田商店,,有限会社,愛知県,愛西市,柚木町中田面３７８番地の１,,23,232,4960904,,,2022-04-25,清算の結了等,,,2015-10-05,1,,,,,ナリタショウテン,0
1980,7180301016753,登記記録の閉鎖等,0,2022-05-02,2022-04-25,株式会社オールラウンド・カンパニー,,株式会社,愛知県,安城市,藤井町本郷２４番地１,,23,212,4441164,,,2022-04-25,清算の結了等,,,2015-10-05,1,,,,,オールラウンドカンパニー,0
1982,7190001010618,登記記録の閉鎖等,0,2022-05-02,2022-04-20,三重住宅サービス株式会社,,株式会社,三重県,松阪市,駅部田町９０９番地２３,,24,204,5150045,,,2022-04-20,清算の結了等,,,2015-10-05,1,,,,,ミエジュウタクサービス,0
2002,7240005001401,登記記録の閉鎖等,0,2022-05-02,2022-04-27,医療法人ヒノ井医院,,その他の設立登記法人,広島県,広島市安佐南区,祇園１丁目２５番８号,,34,105,7310138,,,2022-04-27,清算の結了等,,,2015-10-05,1,,,,,ヒノイイイン,0
2006,7250002001171,登記記録の閉鎖等,0,2022-05-02,2022-04-27,有限会社西林建設,,有限会社,山口県,山口市,小郡下郷７７０番地の２,,35,203,7540002,,,2022-04-27,清算の結了等,,,2015-10-05,1,,,,,ニシバヤシケンセツ,0
2012,7290001005129,登記記録の閉鎖等,0,2022-05-02,2022-04-26,株式会社九光,,株式会社,福岡県,福岡市早良区,昭代１丁目１０番１号,,40,137,8140012,,,2022-04-26,清算の結了等,,,2015-10-05,1,,,,,キュウコウ,0
2037,7340002022935,登記記録の閉鎖等,0,2022-05-02,2022-04-27,有限会社ミカサ,,有限会社,鹿児島県,出水市,本町６番３号,,46,208,8990205,,,2022-04-27,清算の結了等,,,2015-10-05,1,,,,,,0
2040,7360001014295,登記記録の閉鎖等,0,2022-05-02,2022-04-25,株式会社義鉄工業,,株式会社,神奈川県,川崎市川崎区,殿町２丁目１４番２－１０３号,,14,131,2100821,,,2022-04-25,清算の結了等,,,2015-10-05,1,,,,,ヨシテツコウギョウ,0
2071,7470001006884,登記記録の閉鎖等,0,2022-05-02,2022-04-26,渡辺建設株式会社,,株式会社,香川県,綾歌郡綾川町,畑田３８０番地,,37,387,7612101,,,2022-04-26,清算の結了等,,,2015-10-05,1,,,,,ワタナベケンセツ,0
2073,7470001012602,登記記録の閉鎖等,0,2022-05-02,2022-04-22,株式会社Ｓ＆Ｓ　ＴＲＡＤＩＮＧ　ＣＯＭＰＡＮＹ,,株式会社,香川県,高松市,庵治町６３９３番地４５,,37,201,7610130,,,2022-04-22,合併による解散等,8470001012601,令和４年４月２２日香川県高松市庵治町１６８８番地３株式会社藪水産（8470001012601）に合併し解散,2015-10-05,1,,,,,エスアンドエストレーディングカンパニー,0
2082,8010001062502,登記記録の閉鎖等,0,2022-05-02,2022-04-05,ダイオーポスタルケミカル株式会社,,株式会社,東京都,豊島区,北大塚１丁目１３番４号,,13,116,1700004,,,2022-04-05,合併による解散等,9030001092018,令和４年４月１日東京都豊島区北大塚一丁目１３番４号ダイオーミウラ株式会社（9030001092018）に合併し解散,2015-10-05,1,,,,,ダイオーポスタルケミカル,0
2085,8010001113602,登記記録の閉鎖等,0,2022-05-02,2022-04-12,株式会社ｓｌａｎｇ,,株式会社,東京都,中央区,日本橋横山町７番１９号,,13,102,1030003,,,2022-04-12,清算の結了等,,,2015-10-05,1,,,,,スラング,0
2103,8010402021544,登記記録の閉鎖等,0,2022-05-02,2022-04-12,フューチャーテクスト有限会社,,有限会社,東京都,中央区,日本橋兜町１番１０号日証館４１２号室,,13,102,1030026,,,2022-04-12,清算の結了等,,,2015-10-05,1,,,,,,0
2114,8010901004900,登記記録の閉鎖等,0,2022-05-02,2022-04-27,株式会社サン・メイキング,,株式会社,東京都,世田谷区,大蔵４丁目３番３号,,13,112,1570074,,,2022-04-27,清算の結了等,,,2015-10-05,1,,,,,サンメイキング,0
2115,8010901037735,登記記録の閉鎖等,0,2022-05-02,2022-04-25,株式会社光房,,株式会社,東京都,世田谷区,玉川田園調布１丁目１４番１号,,13,112,1580085,,,2022-04-25,清算の結了等,,,2016-03-14,1,,,,,コウボウ,0
2146,8011503001063,登記記録の閉鎖等,0,2022-05-02,2022-04-27,合資会社澤田製作所,,合資会社,東京都,荒川区,東日暮里３丁目２１番１０号,,13,118,1160014,,,2022-04-27,清算の結了等,,,2015-10-05,1,,,,,サワダセイサクショ,0
2167,8013301042520,登記記録の閉鎖等,0,2022-05-02,2022-04-27,株式会社フォースリアルティ,,株式会社,東京都,江戸川区,江戸川１丁目２９番地,,13,123,1320013,,,2022-04-27,清算の結了等,,,2018-07-04,1,,,,,フォースリアルティ,0
2198,8030003007809,登記記録の閉鎖等,0,2022-05-02,2022-04-21,未・希合同会社,,合同会社,埼玉県,新座市,池田５丁目１０番１９－１号,,11,230,3520015,,,2022-04-21,清算の結了等,,,2015-10-05,1,,,,,ミキ,0
2208,8060001009003,登記記録の閉鎖等,0,2022-05-02,2022-04-27,株式会社ティムズオールジャパン,,株式会社,栃木県,日光市,手岡１０１６番地１,,09,206,3211103,,,2022-04-27,清算の結了等,,,2015-10-05,1,,,,,ティムズオールジャパン,0
2220,8100002026455,登記記録の閉鎖等,0,2022-05-02,2022-04-26,信英電器工業有限会社,,有限会社,長野県,北安曇郡池田町,大字池田２６３５番地,,20,481,3998601,,,2022-04-26,清算の結了等,,,2015-10-05,1,,,,,シンエイデンキコウギョウ,0
2254,8150001007121,登記記録の閉鎖等,0,2022-05-02,2022-04-27,日土地建設株式会社,,株式会社,奈良県,生駒郡平群町,緑ケ丘２丁目２番１号,,29,342,6360941,,,2022-04-27,清算の結了等,,,2015-10-05,1,,,,,ニットチケンセツ,0
2272,8180002044516,登記記録の閉鎖等,0,2022-05-02,2022-04-20,有限会社よみうりアイシィ,,有限会社,愛知県,清須市,須ケ口駅前１丁目１０番地,,23,233,4520912,,,2022-04-20,清算の結了等,,,2015-10-05,1,,,,,ヨミウリアイシィ,0
2281,8190003001317,登記記録の閉鎖等,0,2022-05-02,2022-04-22,合同会社あそ野,,合同会社,三重県,度会郡大紀町,阿曽４３４番地２,,24,471,5192704,,,2022-04-22,清算の結了等,,,2015-10-05,1,,,,,アソノ,0
2288,8200003001521,登記記録の閉鎖等,0,2022-05-02,2022-04-28,山内毛織合資会社,,合資会社,岐阜県,羽島郡笠松町,門前町６１番地,,21,303,5016076,,,2022-04-28,清算の結了等,,,2015-10-05,1,,,,,ヤマウチケオリ,0
2290,8210001007453,登記記録の閉鎖等,0,2022-05-02,2022-04-22,三浜商事株式会社,,株式会社,福井県,坂井市,三国町新保１４号２６番地,,18,210,9130031,,,2022-04-22,清算の結了等,,,2015-10-05,1,,,,,ミハマショウジ,0
2293,8230001006271,登記記録の閉鎖等,0,2022-05-02,2022-04-25,株式会社大清,,株式会社,富山県,富山市,中川原１８２番地１０,,16,201,9398015,,,2022-04-25,清算の結了等,,,2015-10-05,1,,,,,,0
2302,8240002053733,登記記録の閉鎖等,0,2022-05-02,2022-04-27,有限会社三原総合印刷,,有限会社,広島県,三原市,貝野町１番１１号,,34,204,7230043,,,2022-04-27,清算の結了等,,,2015-10-05,1,,,,,ミハラソウゴウインサツ,0
2316,8330001009784,登記記録の閉鎖等,0,2022-05-02,2022-04-20,株式会社大永土地開発,,株式会社,熊本県,菊池郡大津町,大字引水８５６番地の１１,,43,403,8691234,,,2022-04-20,清算の結了等,,,2015-10-05,1,,,,,ダイエイトチカイハツ,0
2322,8350005001785,登記記録の閉鎖等,0,2022-05-02,2022-04-28,特定非営利活動法人みんなのくらしターミナル,,その他の設立登記法人,宮崎県,宮崎市,清武町木原５３４番地２,,45,201,8891601,,,2022-04-28,清算の結了等,,,2015-10-05,1,,,,,ミンナノクラシターミナル,0
2362,9010001109203,登記記録の閉鎖等,0,2022-05-02,2022-04-12,株式会社サイマル・テクニカルコミュニケーションズ,,株式会社,東京都,中央区,銀座７丁目１６番１２号Ｇ－７ビルディング,,13,102,1040061,,,2022-04-12,合併による解散等,6010001109206,令和４年４月１日東京都中央区銀座七丁目１６番１２号Ｇ－７ビルディング株式会社サイマル・インターナショナル（6010001109206）に合併し解散,2015-10-05,1,,,,,サイマルテクニカルコミュニケーションズズ,0
2381,9010401140716,登記記録の閉鎖等,0,2022-05-02,2022-04-13,株式会社Ｎｏｍａｄマスターリース,,株式会社,東京都,港区,虎ノ門４丁目１番２８号,,13,103,1050001,,,2022-04-13,清算の結了等,,,2018-09-10,1,,,,,ノマドマスターリース,0
2384,9010401154930,登記記録の閉鎖等,0,2022-05-02,2022-04-21,株式会社ＡＫＩＮＡＩ,,株式会社,福井県,敦賀市,津内町３丁目８番８号,,18,202,9140056,,,2022-04-21,清算の結了等,,,2020-09-02,1,,,,,アキナイ,0
2385,9010401160846,登記記録の閉鎖等,0,2022-05-02,2022-04-11,株式会社キャニーホールディングス,,株式会社,東京都,港区,虎ノ門５丁目１１番１号オランダヒルズ森タワーＲｏＰ,,13,103,1050001,,,2022-04-11,清算の結了等,,,2021-06-15,1,,,,,キャニーホールディングス,0
2394,9010601046829,登記記録の閉鎖等,0,2022-05-02,2022-04-13,三鋼販東日本株式会社,,株式会社,東京都,港区,東新橋１丁目５番２号,,13,103,1050021,,,2022-04-13,合併による解散等,2010001086325,令和４年４月１日東京都港区東新橋一丁目５番２号エムエム建材販売株式会社（2010001086325）に合併し解散,2015-10-05,1,,,,,サンコウハンヒガシニホン,0
2410,9011001119431,登記記録の閉鎖等,0,2022-05-02,2022-04-27,株式会社かけざん,,株式会社,東京都,渋谷区,渋谷１丁目２０番２６号ユーエスト青山５Ｆ,,13,113,1500002,,,2022-04-27,清算の結了等,,,2017-11-29,1,,,,,カケザン,0
2435,9011601016945,登記記録の閉鎖等,0,2022-05-02,2022-04-26,ラララ株式会社,,株式会社,東京都,練馬区,田柄２丁目３７番４号グランデールＧ．Ｈ．５０１,,13,120,1790073,,,2022-04-26,清算の結了等,,,2015-10-05,1,,,,,ラララ,0
2500,9090001016805,登記記録の閉鎖等,0,2022-05-02,2022-04-26,株式会社ミクリアンジャパン,,株式会社,山梨県,甲府市,上曽根町３６６２番地１７５,,19,201,4001501,,,2022-04-26,清算の結了等,,,2021-01-15,1,,,,,ミクリアンジャパン,0
2509,9100005012006,登記記録の閉鎖等,0,2022-05-02,2022-04-22,一般社団法人南石堂Ａ－１地区優良建築物整備事業組合,,その他の設立登記法人,長野県,長野市,大字南長野南石堂町１４２３番地,,20,201,3800824,,,2022-04-22,清算の結了等,,,2017-03-01,1,,,,,ミナミイシドウエーイチチクユウリョウケンチクブツセイビジギョウクミアイ,0
2543,9130001053868,登記記録の閉鎖等,0,2022-05-02,2022-04-13,ＨＹエネルギー株式会社,,株式会社,東京都,港区,浜松町２丁目２－１５,,13,103,1050013,,,2022-04-13,清算の結了等,,,2015-10-05,1,,,,,エイチワイエネルギー,0
2562,9180001013289,登記記録の閉鎖等,0,2022-05-02,2022-04-22,株式会社文光堂,,株式会社,愛知県,名古屋市北区,水草町２丁目１番地,,23,103,4620042,,,2022-04-22,清算の結了等,,,2015-10-05,1,,,,,,0
2564,9180001026489,登記記録の閉鎖等,0,2022-05-02,2022-04-25,株式会社ナカコウ,,株式会社,愛知県,名古屋市守山区,桔梗平２丁目１７３３番地,,23,113,4630814,,,2022-04-25,清算の結了等,,,2015-10-05,1,,,,,ナカコウ,0
2575,9180002038698,登記記録の閉鎖等,0,2022-05-02,2022-04-25,有限会社シンテックス,,有限会社,愛知県,名古屋市天白区,久方２丁目１５番地の４４,,23,116,4680034,,,2022-04-25,清算の結了等,,,2015-10-05,1,,,,,シンテックス,0
2580,9180003014517,登記記録の閉鎖等,0,2022-05-02,2022-04-21,合同会社セカンド,,合同会社,愛知県,名古屋市瑞穂区,豊岡通３丁目１３番地,,23,108,4670012,,,2022-04-21,清算の結了等,,,2015-10-05,1,,,,,セカンド,0
2585,9180302016296,登記記録の閉鎖等,0,2022-05-02,2022-04-25,有限会社愛知システム,,有限会社,愛知県,安城市,古井町南畔１７番地７,,23,212,4460025,,,2022-04-25,清算の結了等,,,2015-10-05,1,,,,,アイチシステム,0
2599,9230002006831,登記記録の閉鎖等,0,2022-05-02,2022-04-22,有限会社屋敷工務店,,有限会社,富山県,富山市,八尾町福島２０３番地,,16,201,9392376,,,2022-04-22,清算の結了等,,,2015-10-05,1,,,,,ヤシキコウムテン,0
2615,9270002009938,登記記録の閉鎖等,0,2022-05-02,2022-04-21,有限会社柿本農園,,有限会社,鳥取県,倉吉市,志津５３１番地２,,31,203,6820613,,,2022-04-21,清算の結了等,,,2015-10-05,1,,,,,カキモトノウエン,0
2618,9290001068710,登記記録の閉鎖等,0,2022-05-02,2022-04-26,株式会社千代丸,,株式会社,福岡県,春日市,白水ヶ丘６丁目６１番地,,40,218,8160845,,,2022-04-26,清算の結了等,,,2015-10-05,1,,,,,チヨマル,0
2642,9420001011227,登記記録の閉鎖等,0,2022-05-02,2022-04-27,株式会社みどり総合企画,,株式会社,青森県,十和田市,東二番町３番２４号,,02,206,0340017,,,2022-04-27,清算の結了等,,,2015-10-05,1,,,,,ミドリソウゴウキカク,0
2646,9430002041560,登記記録の閉鎖等,0,2022-05-02,2022-04-20,キャビネット有限会社,,有限会社,北海道,札幌市中央区,北五条西１１丁目５番地,,01,101,0600005,,,2022-04-20,清算の結了等,,,2015-10-05,1,,,,,キャビネット,0
2647,9450001002875,登記記録の閉鎖等,0,2022-05-02,2022-04-28,株式会社おちあい,,株式会社,北海道,旭川市,永山六条８丁目１５番１２号,,01,204,0798416,,,2022-04-28,清算の結了等,,,2015-10-05,1,,,,,オチアイ,0
2657,9480001000199,登記記録の閉鎖等,0,2022-05-02,2022-04-27,株式会社イシダ,,株式会社,徳島県,徳島市,南島田町３丁目６番地の４,,36,201,7700053,,,2022-04-27,清算の結了等,,,2015-10-05,1,,,,,イシダ,0
