sequenceNumber,corporateNumber,process,correct,updateDate,changeDate,name,nameImageId,kind,prefectureName,cityName,streetNumber,addressImageId,prefectureCode,cityCode,postCode,addressOutside,addressOutsideImageId,closeDate,closeCause,successorCorporateNumber,changeCause,assignmentDate,latest,enName,enPrefectureName,enCityName,enAddressOutside,furigana,hihyoji
3,1010001077655,登記記録の閉鎖等,0,2024-10-17,2024-10-02,株式会社健康医療ジャーナル,,株式会社,東京都,中央区,新川２丁目２１番１５号ニューハイツ八丁堀１００７,,13,102,1040033,,,2024-10-02,清算の結了等,,,2015-10-05,1,,,,,ケンコウイリョウジャーナル,0
6,1010001152771,登記記録の閉鎖等,0,2024-10-17,2024-10-09,ＮＹＴ株式会社,,株式会社,東京都,千代田区,外神田６丁目１１番８号,,13,101,1010021,,,2024-10-09,合併による解散等,2010001031677,令和６年１０月１日東京都千代田区外神田六丁目１１番８号吉川運輸株式会社（2010001031677）に合併し解散,2015-10-05,1,,,,,エヌワイティー,0
17,1010401052118,登記記録の閉鎖等,0,2024-10-17,2024-10-01,株式会社ピーク・ワン,,株式会社,東京都,千代田区,神田錦町３丁目２３メットライフ神田錦町ビル４階,,13,101,1010054,,,2024-10-01,合併による解散等,8010401030942,令和６年１０月１日東京都千代田区神田錦町３－２３神田錦町安田ビル７階ＳＯＵグローバル＆コミュニケーション株式会社（8010401030942）に合併し解散,2015-10-05,1,"Peak 1 Co., Ltd.",Tokyo,"4F MetLife Kanda-Nishikicho Bldg., 3-23, Kanda-Nishikicho, Chiyoda-ku",,ピークワン,0
36,1010405020327,登記記録の閉鎖等,0,2024-10-17,2024-09-24,一般社団法人ＢＯＬ１,,その他の設立登記法人,東京都,港区,虎ノ門５丁目３番２０号株式会社アカウンティング・マネジメント・サービス内,,13,103,1050001,,,2024-09-24,清算の結了等,,,2021-10-18,1,,,,,ビーオーエルワン,0
55,1011001029365,登記記録の閉鎖等,0,2024-10-17,2024-10-01,株式会社エンターテイメントボウル,,株式会社,東京都,港区,三田３丁目９番１１号,,13,103,1080073,,,2024-10-01,合併による解散等,4011101043890,令和６年１０月１日東京都港区三田三丁目９番１１号株式会社ＣＯＭＢＲＩＤＧＥ＆ＥＢ（4011101043890）に合併し解散,2015-10-05,1,,,,,エンターテイメントボウル,0
76,1012301009726,登記記録の閉鎖等,0,2024-10-17,2024-10-10,Ｋ２ＰＯＷＥＲＤ株式会社,,株式会社,東京都,町田市,中町４丁目３番７号中町ハイツ１１０,,13,209,1940021,,,2024-10-10,清算の結了等,,,2015-10-05,1,,,,,ケーツーパワード,0
83,1013202011028,登記記録の閉鎖等,0,2024-10-17,2024-09-26,有限会社エーアンドケー,,有限会社,東京都,目黒区,中目黒５丁目１２番２０－３０４号,,13,110,1530061,,,2024-09-26,清算の結了等,,,2015-10-05,1,,,,,エーアンドケー,0
84,1013301006564,登記記録の閉鎖等,0,2024-10-17,2024-10-15,株式会社創流デザイン,,株式会社,埼玉県,所沢市,小手指元町３丁目１３番地の１２,,11,208,3591147,,,2024-10-15,清算の結了等,,,2015-10-05,1,,,,,ソウリュウデザイン,0
88,1020001095012,登記記録の閉鎖等,0,2024-10-17,2024-10-09,株式会社友愛,,株式会社,神奈川県,川崎市川崎区,小川町１６番地５,,14,131,2100023,,,2024-10-09,合併による解散等,9010601016609,令和６年１０月１日東京都墨田区両国二丁目１３番２号やよい観光株式会社（9010601016609）に合併し解散,2015-10-05,1,,,,,ユウアイ,0
128,1050002042836,登記記録の閉鎖等,0,2024-10-17,2024-10-07,有限会社山中工芸,,有限会社,茨城県,桜川市,真壁町椎尾６２０番地,,08,231,3004414,,,2024-10-07,清算の結了等,,,2015-10-05,1,,,,,ヤマナカコウゲイ,0
129,1050005011219,登記記録の閉鎖等,0,2024-10-17,2024-10-07,特定非営利活動法人いばらきの犬と猫,,その他の設立登記法人,茨城県,古河市,尾崎４３２５番地３,,08,204,3060101,,,2024-10-07,清算の結了等,,,2015-10-05,1,,,,,イバラキノイヌトネコ,0
132,1070001026185,登記記録の閉鎖等,0,2024-10-17,2024-10-15,株式会社ＧＨＴ,,株式会社,群馬県,高崎市,八千代町３丁目１６番２０号プラザタジマ１０２号,,10,202,3700861,,,2024-10-15,清算の結了等,,,2015-10-05,1,,,,,ジーエイチティー,0
133,1070002023000,登記記録の閉鎖等,0,2024-10-17,2024-10-11,有限会社小内牧場,,有限会社,群馬県,みどり市,笠懸町鹿６６０番地の３,,10,212,3792313,,,2024-10-11,清算の結了等,,,2015-10-05,1,,,,,オナイボクジョウ,0
138,1080401001200,登記記録の閉鎖等,0,2024-10-17,2024-10-08,カサマ工業株式会社,,株式会社,静岡県,浜松市中央区,和合町２２０番地の８９１,,22,138,4338125,,,2024-10-08,清算の結了等,,,2015-10-05,1,,,,,カサマコウギョウ,0
141,1100003005811,登記記録の閉鎖等,0,2024-10-17,2024-09-27,合同会社もりだくさん販売,,合同会社,長野県,飯田市,山本４７０３番地１,,20,205,3950244,,,2024-09-27,清算の結了等,,,2020-09-30,1,,,,,モリダクサンハンバイ,0
142,1110001011892,登記記録の閉鎖等,0,2024-10-17,2024-10-07,村松瓦斯水道株式会社,,株式会社,新潟県,五泉市,本田屋字本田屋７６５番地,,15,218,9591761,,,2024-10-07,合併による解散等,6110001006442,令和６年１０月１日新潟県新潟市江南区曙町二丁目８番１号株式会社エネサンス新潟（6110001006442）に合併し解散,2015-10-05,1,,,,,ムラマツガススイドウ,0
145,1120001012295,登記記録の閉鎖等,0,2024-10-17,2024-10-15,株式会社後藤タイル店,,株式会社,大阪府,大阪市東成区,大今里南３丁目２番５号,,27,115,5370013,,,2024-10-15,清算の結了等,,,2015-10-05,1,,,,,ゴトウタイルテン,0
147,1120001154071,登記記録の閉鎖等,0,2024-10-17,2024-10-08,株式会社Ｓ＆Ｃマネジメント,,株式会社,大阪府,守口市,京阪北本通４番１４号,,27,209,5700094,,,2024-10-08,合併による解散等,7120001069784,令和６年１０月１日大阪市北区中崎三丁目１番２０号株式会社Ｍ＆Ａコンサルタンツ（7120001069784）に合併し解散,2015-10-05,1,,,,,エスアンドシーマネジメント,0
149,1120001192501,登記記録の閉鎖等,0,2024-10-17,2024-10-15,株式会社ＭＮパートナーズ和み会,,株式会社,大阪府,大阪市中央区,北久宝寺町１丁目５番６－５１０号,,27,128,5410057,,,2024-10-15,清算の結了等,,,2015-10-05,1,,,,,エムエヌパートナーズナゴミカイ,0
180,1140001133429,登記記録の閉鎖等,0,2024-10-17,2024-10-11,株式会社Ｌｕａｎａ,,株式会社,兵庫県,神戸市北区,藤原台南町２丁目１２番５号イーストブルー七番館１０２,,28,109,6511303,,,2024-10-11,清算の結了等,,,2024-02-28,1,,,,,ルアナ,0
187,1150003002399,登記記録の閉鎖等,0,2024-10-17,2024-10-15,やまともめん工房合同会社,,合同会社,奈良県,大和高田市,春日町１丁目４番２４号,,29,202,6350067,,,2024-10-15,清算の結了等,,,2021-06-08,1,,,,,ヤマトモメンコウボウ,0
200,1180003023392,登記記録の閉鎖等,0,2024-10-17,2024-10-01,合同会社サルム,,合同会社,愛知県,名古屋市瑞穂区,洲山町２丁目３３番地,,23,108,4670066,,,2024-10-01,合併による解散等,8180001161782,令和６年１０月１日名古屋市北区平安二丁目１４番１号株式会社プラネット（8180001161782）に合併し解散,2022-01-17,1,,,,,サルム,0
201,1180301015959,登記記録の閉鎖等,0,2024-10-17,2024-10-07,株式会社伸交,,株式会社,愛知県,碧南市,新道町２丁目４１番地２,,23,209,4470052,,,2024-10-07,清算の結了等,,,2015-10-05,1,,,,,シンコウ,0
216,1240001004487,登記記録の閉鎖等,0,2024-10-17,2024-10-09,株式会社ＬＡＴ環境設計,,株式会社,広島県,広島市西区,庚午北２丁目１番４号,,34,104,7330821,,,2024-10-09,清算の結了等,,,2015-10-05,1,,,,,ラットカンキョウセッケイ,0
221,1240003005673,登記記録の閉鎖等,0,2024-10-17,2024-10-09,ＰＲＩＭＥ合同会社,,合同会社,広島県,広島市西区,大芝１丁目１９－１９ウィルビル２Ｆ,,34,104,7330001,,,2024-10-09,清算の結了等,,,2022-06-22,1,,,,,プライム,0
226,1290001069468,登記記録の閉鎖等,0,2024-10-17,2024-09-24,日順貿易株式会社,,株式会社,福岡県,糸島市,前原中央２丁目１０－３０,,40,230,8191116,,,2024-09-24,清算の結了等,,,2015-10-05,1,,,,,ニチジュンボウエキ,0
236,1290005016805,登記記録の閉鎖等,0,2024-10-17,2024-10-07,医療法人誠心会,,その他の設立登記法人,福岡県,久留米市,新合川１丁目３番３０号,,40,203,8390865,,,2024-10-07,清算の結了等,,,2018-03-29,1,,,,,セイシンカイ,0
243,1320002015558,登記記録の閉鎖等,0,2024-10-17,2024-10-16,有限会社麻生建設,,有限会社,大分県,杵築市,山香町大字下１３４０番地,,44,210,8791303,,,2024-10-16,清算の結了等,,,2015-10-05,1,,,,,,0
244,1320002019402,登記記録の閉鎖等,0,2024-10-17,2024-10-15,有限会社渡辺電器商会,,有限会社,大分県,日田市,豆田町７番１７号,,44,204,8770005,,,2024-10-15,清算の結了等,,,2015-10-05,1,,,,,,0
251,1360001016495,登記記録の閉鎖等,0,2024-10-17,2024-10-11,株式会社倉善,,株式会社,沖縄県,沖縄市,大里２丁目１６番１９号,,47,211,9042163,,,2024-10-11,清算の結了等,,,2015-10-05,1,,,,,クラゼン,0
264,1440001001786,登記記録の閉鎖等,0,2024-10-17,2024-10-11,株式会社はいや建築設計事務所,,株式会社,北海道,函館市,時任町２６番２２号,,01,202,0400012,,,2024-10-11,清算の結了等,,,2015-10-05,1,,,,,,0
269,1490001010700,登記記録の閉鎖等,0,2024-10-17,2024-10-15,株式会社クリハラガス設備,,株式会社,高知県,高知市,介良甲９８４番地１,,39,201,7815105,,,2024-10-15,清算の結了等,,,2024-02-14,1,,,,,クリハラガスセツビ,0
275,2010001101158,登記記録の閉鎖等,0,2024-10-17,2024-10-01,株式会社新世紀,,株式会社,東京都,文京区,大塚３丁目２０番１号紅屋茗荷谷ビル６Ｆ,00113719,13,105,1120012,,,2024-10-01,清算の結了等,,,2015-10-05,1,,,,,シンセイキ,0
295,2010401078293,登記記録の閉鎖等,0,2024-10-17,2024-10-15,株式会社ＬＯＵＩＳＥ　Ｐａｙｍｅｎｔ,,株式会社,東京都,渋谷区,神宮前２丁目２５番５号別所ビル３階,,13,113,1500001,,,2024-10-15,合併による解散等,8011001057467,令和６年１０月１日東京都新宿区西新宿一丁目２６番２号新宿野村ビル３２階株式会社ｚｏｏｍ（8011001057467）に合併し解散,2015-10-05,1,,,,,ルイズペイメント,0
297,2010401144707,登記記録の閉鎖等,0,2024-10-17,2024-10-10,株式会社鯵ヶ沢洋上風力発電所,,株式会社,青森県,西津軽郡鰺ヶ沢町,大字舞戸町字下富田４番地２１,,02,321,0382761,,,2024-10-10,清算の結了等,,,2019-04-01,1,,,,,アジガサワヨウジョウフウリョクハツデンショ,0
304,2010405016217,登記記録の閉鎖等,0,2024-10-17,2024-09-25,川西ホールディング２一般社団法人,,その他の設立登記法人,東京都,港区,虎ノ門３丁目２２番１０－２０１号,,13,103,1050001,,,2024-09-25,清算の結了等,,,2017-11-13,1,,,,,カワニシホールディングツー,0
315,2010602007217,登記記録の閉鎖等,0,2024-10-17,2024-10-10,長谷川運送有限会社,,有限会社,東京都,江東区,潮見１丁目２６番２号,,13,108,1350052,,,2024-10-10,清算の結了等,,,2015-10-05,1,,,,,ハセガワウンソウ,0
316,2010701036067,登記記録の閉鎖等,0,2024-10-17,2024-10-15,ＡＥＴＦ株式会社,,株式会社,東京都,品川区,上大崎２丁目１３番３０号,,13,109,1410021,,,2024-10-15,清算の結了等,,,2018-07-09,1,,,,,エーイーティーエフ,0
322,2010802019020,登記記録の閉鎖等,0,2024-10-17,2024-10-09,有限会社クレアール,,有限会社,東京都,大田区,新蒲田３丁目４番２号小林ビル１階,,13,111,1440054,,,2024-10-09,清算の結了等,,,2015-10-05,1,,,,,クレアール,0
330,2011001062506,登記記録の閉鎖等,0,2024-10-17,2024-08-05,ベストセキュリテイサービス株式会社,,株式会社,東京都,渋谷区,宇田川町３４番５号,,13,113,1500042,,,2024-08-05,清算の結了等,,,2015-10-05,1,,,,,,0
348,2011501025482,登記記録の閉鎖等,0,2024-10-17,2024-10-10,株式会社Ｌｉｖｅ６０,,株式会社,東京都,北区,上十条４丁目１番３号,,13,117,1140034,,,2024-10-10,清算の結了等,,,2020-01-09,1,,,,,ライブロクジュウ,0
353,2012402002307,登記記録の閉鎖等,0,2024-10-17,2024-10-16,有限会社フォトオフィス八木下,,有限会社,東京都,府中市,白糸台５丁目９番地の５,,13,206,1830011,,,2024-10-16,清算の結了等,,,2015-10-05,1,,,,,フォトオフィスヤギシタ,0
376,2030001121807,登記記録の閉鎖等,0,2024-10-17,2024-10-15,株式会社ＳＩＭ,,株式会社,東京都,八王子市,中野上町２丁目２７－６,,13,201,1920041,,,2024-10-15,清算の結了等,,,2017-08-18,1,,,,,シム,0
392,2050002013266,登記記録の閉鎖等,0,2024-10-17,2024-10-07,有限会社諸岡住総,,有限会社,茨城県,稲敷郡美浦村,大字舟子１８８１番地,,08,442,3000428,,,2024-10-07,清算の結了等,,,2015-10-05,1,,,,,モロオカジュウソウ,0
394,2050002034972,登記記録の閉鎖等,0,2024-10-17,2024-10-09,有限会社ホッグファーム,,有限会社,茨城県,稲敷市,蒲ケ山８６０番地,,08,229,3000522,,,2024-10-09,合併による解散等,3040001067024,令和６年１０月１日千葉県我孫子市布佐一丁目３番地の１株式会社ホッグマシン（3040001067024）に合併し解散,2015-10-05,1,,,,,ホッグファーム,0
406,2080405006830,登記記録の閉鎖等,0,2024-10-17,2024-10-07,特定非営利活動法人園芸セラピーと禅の会,,その他の設立登記法人,静岡県,浜松市中央区,西鴨江町３２６８番地西見寺,,22,138,4328067,,,2024-10-07,清算の結了等,,,2016-02-04,1,,,,,エンゲイセラピートゼンノカイ,0
411,2110001024258,登記記録の閉鎖等,0,2024-10-17,2024-10-07,ニッコー株式会社,,株式会社,新潟県,長岡市,猫興野字村浦１６２番１,,15,202,9540123,,,2024-10-07,清算の結了等,,,2015-10-05,1,,,,,ニッコー,0
416,2120001185990,登記記録の閉鎖等,0,2024-10-17,2024-10-11,ホソカワミクロン化粧品株式会社,,株式会社,大阪府,枚方市,招提田近１丁目９番地,,27,210,5731132,,,2024-10-11,合併による解散等,2120001151786,令和６年１０月１日大阪府枚方市招提田近一丁目９番地ホソカワミクロン株式会社（2120001151786）に合併し解散,2015-10-05,1,,,,,ホソカワミクロンケショウヒン,0
418,2120001192649,登記記録の閉鎖等,0,2024-10-17,2024-10-03,ｗｅｓｔａｙ株式会社,,株式会社,大阪府,大阪市中央区,本町３丁目５番２号辰野本町ビル,,27,128,5410053,,,2024-10-03,合併による解散等,2120001164680,令和６年１０月１日大阪市中央区本町三丁目５番２号辰野本町ビル株式会社ＩＳＴＡＹ（2120001164680）に合併し解散,2015-10-05,1,,,,,ウェステー,0
427,2120002008655,登記記録の閉鎖等,0,2024-10-17,2024-10-15,有限会社福西,,有限会社,大阪府,大阪市城東区,東中浜３丁目１５番４号,,27,118,5360023,,,2024-10-15,清算の結了等,,,2015-10-05,1,,,,,フクニシ,0
428,2120003023744,登記記録の閉鎖等,0,2024-10-17,2024-10-15,サダオホーム合同会社,,合同会社,大阪府,大阪市都島区,都島本通５丁目１０番２８－７０８号,,27,102,5340021,,,2024-10-15,清算の結了等,,,2023-03-31,1,,,,,サダオホーム,0
435,2120005021036,登記記録の閉鎖等,0,2024-10-17,2024-10-10,特定非営利活動法人ＭＳＰチャイルドドリーム基金,,その他の設立登記法人,大阪府,大阪市東淀川区,東中島１丁目２０番１９号,,27,114,5330033,,,2024-10-10,清算の結了等,,,2019-07-24,1,,,,,エムエスピーチャイルドドリームキキン,0
446,2130001001445,登記記録の閉鎖等,0,2024-10-17,2024-10-11,株式会社豊田精機製作所,,株式会社,京都府,京都市右京区,太秦森ケ東町５１番地の６６,,26,108,6168102,,,2024-10-11,清算の結了等,,,2015-10-05,1,,,,,トヨダセイキセイサクショ,0
450,2130002001007,登記記録の閉鎖等,0,2024-10-17,2024-10-15,有限会社高橋写真製版,,有限会社,京都府,京都市右京区,西院北矢掛町９番地２,,26,108,6150026,,,2024-10-15,清算の結了等,,,2015-10-05,1,,,,,,0
485,2180301011560,登記記録の閉鎖等,0,2024-10-17,2024-10-09,株式会社広商,,株式会社,愛知県,蒲郡市,三谷町東１丁目１４２番地,,23,214,4430021,,,2024-10-09,清算の結了等,,,2015-10-05,1,,,,,ヒロショウ,0
494,2200002017516,登記記録の閉鎖等,0,2024-10-17,2024-10-15,有限会社マルコー不動産,,有限会社,岐阜県,可児郡御嵩町,中６９１番地,,21,521,5050121,,,2024-10-15,清算の結了等,,,2015-10-05,1,,,,,マルコーフドウサン,0
495,2200002017862,登記記録の閉鎖等,0,2024-10-17,2024-10-15,有限会社ビーハート,,有限会社,岐阜県,可児市,広眺ケ丘８丁目３４番地,,21,214,5090221,,,2024-10-15,清算の結了等,,,2015-10-05,1,,,,,ビーハート,0
500,2240001030185,登記記録の閉鎖等,0,2024-10-17,2024-09-30,岡本電機株式会社,,株式会社,広島県,福山市,花園町２丁目２番３号,,34,207,7200803,,,2024-09-30,合併による解散等,2240001037874,令和６年９月３０日広島県尾道市美ノ郷町本郷４５５番地８岡本電機株式会社（2240001037874）に合併し解散,2015-10-05,1,,,,,オカモトデンキ,0
507,2250002009871,登記記録の閉鎖等,0,2024-10-17,2024-10-04,有限会社多田伸一商店,,有限会社,山口県,下関市,みもすそ川町９番５号,,35,201,7510813,,,2024-10-04,清算の結了等,,,2015-10-05,1,,,,,タダシンイチショウテン,0
520,2300001000413,登記記録の閉鎖等,0,2024-10-17,2024-10-15,三和工業株式会社,,株式会社,佐賀県,佐賀市,高木瀬西２丁目１３番１９号,,41,201,8490921,,,2024-10-15,清算の結了等,,,2015-10-05,1,,,,,サンワコウギョウ,0
534,2340001015878,登記記録の閉鎖等,0,2024-10-17,2024-10-11,株式会社竹下自動車,,株式会社,鹿児島県,枕崎市,平田町１７５番地,,46,204,8980035,,,2024-10-11,清算の結了等,,,2015-10-05,1,,,,,タケシタジドウシャ,0
537,2340002027121,登記記録の閉鎖等,0,2024-10-17,2024-10-11,有限会社エクセルファーム,,有限会社,鹿児島県,鹿屋市,星塚町４７６２番地１,,46,203,8930041,,,2024-10-11,合併による解散等,9350001008032,令和６年１０月１日宮崎県都城市平江町３７号８番地ジャパンミート株式会社（9350001008032）に合併し解散,2015-10-05,1,,,,,エクセルファーム,0
547,2410003002149,登記記録の閉鎖等,0,2024-10-17,2024-10-11,合資会社深沢商店,,合資会社,秋田県,仙北郡美郷町,六郷字馬町６８番地,,05,434,0191404,,,2024-10-11,清算の結了等,,,2015-10-05,1,,,,,フカサワショウテン,0
550,2430002063974,登記記録の閉鎖等,0,2024-10-17,2024-10-11,株式会社奥山動物医療センター,,株式会社,北海道,室蘭市,中島町２丁目８番１７号,,01,205,0500074,,,2024-10-11,合併による解散等,2120102020683,令和６年９月２７日大阪府岸和田市藤井町一丁目１２番１３号株式会社石塚（2120102020683）に合併し解散,2015-10-05,1,,,,,オクヤマドウブツイリョウセンター,0
558,2460002003192,登記記録の閉鎖等,0,2024-10-17,2024-10-11,有限会社メナード化粧品釧路販社,,有限会社,北海道,釧路市,新栄町１０番４号,,01,206,0850032,,,2024-10-11,清算の結了等,,,2015-10-05,1,,,,,メナードケショウヒンクシロハンシャ,0
571,3010005011798,登記記録の閉鎖等,0,2024-10-17,2024-09-27,ＣＨトーラス一般社団法人,,その他の設立登記法人,東京都,港区,西新橋３丁目１６番１１号,,13,103,1050003,,,2024-09-27,清算の結了等,,,2015-10-05,1,,,,,シーエイチトーラス,0
582,3010405015622,登記記録の閉鎖等,0,2024-10-17,2024-09-25,川西ホールディング１一般社団法人,,その他の設立登記法人,東京都,港区,虎ノ門３丁目２２番１０－２０１号,,13,103,1050001,,,2024-09-25,清算の結了等,,,2017-03-28,1,,,,,カワニシホールディングワン,0
603,3011002002617,登記記録の閉鎖等,0,2024-10-17,2024-09-27,金子分譲住宅有限会社,,有限会社,東京都,渋谷区,幡ヶ谷３丁目３８番１２号,,13,113,1510072,,,2024-09-27,清算の結了等,,,2015-10-05,1,,,,,カネコブンジョウジュウタク,0
610,3011105008404,登記記録の閉鎖等,0,2024-10-17,2024-10-08,春日部下柳特定目的会社,,その他の設立登記法人,東京都,港区,芝５丁目３２番１２号,,13,103,1080014,,,2024-10-08,清算の結了等,,,2018-06-25,1,,,,,カスカベシモヤナギ,0
617,3011501026190,登記記録の閉鎖等,0,2024-10-17,2024-10-10,株式会社まこみ,,株式会社,東京都,荒川区,西日暮里１丁目３番６号エスプリビル１Ｆ,,13,118,1160013,,,2024-10-10,清算の結了等,,,2020-09-15,1,,,,,マコミ,0
624,3013401005968,登記記録の閉鎖等,0,2024-10-17,2024-10-15,株式会社中野経理,,株式会社,東京都,多摩市,永山１丁目１１番２－４０５,,13,224,2060025,,,2024-10-15,清算の結了等,,,2015-10-05,1,,,,,ナカノケイリ,0
626,3020001073370,登記記録の閉鎖等,0,2024-10-17,2024-09-27,株式会社杉山治司商会,,株式会社,神奈川県,川崎市川崎区,日進町２７番地１,,14,131,2100024,,,2024-09-27,清算の結了等,,,2015-10-05,1,,,,,スギヤマハルジショウカイ,0
627,3020001082363,登記記録の閉鎖等,0,2024-10-17,2024-10-11,ケイアンドケイトラスト株式会社,,株式会社,神奈川県,川崎市高津区,末長３丁目２番７－７１６号,,14,134,2130013,,,2024-10-11,合併による解散等,2020001016529,令和６年９月１日福岡県糟屋郡篠栗町大字尾仲５１７番地１－１Ｆアーバンネット株式会社（2020001016529）に合併し解散,2015-10-05,1,,,,,ケイアンドケイトラスト,0
631,3020003017821,登記記録の閉鎖等,0,2024-10-17,2024-10-01,合同会社ＣＢアセットマネジメント,,合同会社,神奈川県,横浜市西区,北幸２丁目８番２９号,,14,103,2200004,,,2024-10-01,清算の結了等,,,2020-05-08,1,,,,,シービーアセットマネジメント,0
639,3030001063981,登記記録の閉鎖等,0,2024-10-17,2024-10-08,埼玉菱油株式会社,,株式会社,埼玉県,越谷市,大間野町２丁目７２番地２,,11,222,3430844,,,2024-10-08,清算の結了等,,,2015-10-05,1,,,,,サイタマリョウユ,0
650,3030002031013,登記記録の閉鎖等,0,2024-10-17,2024-10-07,有限会社フラツシユ,,有限会社,埼玉県,所沢市,小手指南１丁目１番地４８,,11,208,3591146,,,2024-10-07,清算の結了等,,,2015-10-05,1,,,,,フラツシユ,0
696,3120001205764,登記記録の閉鎖等,0,2024-10-17,2024-10-15,株式会社縁ｉｎｇ,,株式会社,大阪府,大阪市北区,梅田２丁目２番２号ヒルトンプラザウエストオフィスタワー１９階,,27,127,5300001,,,2024-10-15,清算の結了等,,,2017-05-19,1,,,,,エニシング,0
702,3120002027506,登記記録の閉鎖等,0,2024-10-17,2024-10-11,有限会社泰廣商会,00030766,有限会社,大阪府,大阪市淀川区,西中島２丁目６番１６号,,27,123,5320011,,,2024-10-11,清算の結了等,,,2015-10-05,1,,,,,タイコウショウカイ,0
732,3150002010095,登記記録の閉鎖等,0,2024-10-17,2024-10-15,有限会社葛城交通,00043585,有限会社,奈良県,葛城市,笛堂２４８番地,,29,211,6392112,,,2024-10-15,清算の結了等,,,2015-10-05,1,,,,,カツラギコウツウ,0
734,3160003002669,登記記録の閉鎖等,0,2024-10-17,2024-10-11,Ｊａｐａｎ　Ｏｒｂｉｃ合同会社,,合同会社,滋賀県,彦根市,新海浜２丁目１０番地５,,25,202,5211136,,,2024-10-11,合併による解散等,8011103011545,令和６年１０月１日東京都新宿区西新宿二丁目３番１号新宿モノリス２８階Ｊａｐａｎ　Ｏｒｂｉｃ合同会社（8011103011545）に合併し解散,2022-09-20,1,,,,,ジャパンオルビック,0
737,3180001106783,登記記録の閉鎖等,0,2024-10-17,2024-10-01,株式会社ＶＩＦ,,株式会社,愛知県,一宮市,北今字地蔵跡３９番地２,,23,203,4940004,,,2024-10-01,清算の結了等,,,2015-10-05,1,,,,,ブイアイエフ,0
745,3190001026956,登記記録の閉鎖等,0,2024-10-17,2024-10-15,株式会社川端建材,,株式会社,三重県,伊勢市,佐八町１７２０番地２,,24,203,5161102,,,2024-10-15,清算の結了等,,,2019-12-16,1,,,,,カワバタケンザイ,0
746,3190003002897,登記記録の閉鎖等,0,2024-10-17,2024-10-15,合同会社リンクス,,合同会社,三重県,鈴鹿市,白子２丁目３１番１２号,,24,207,5100243,,,2024-10-15,合併による解散等,5180003017523,令和６年９月１３日三重県桑名市堤原９２番地ＫＯＭＡＨＯＴＥＬ合同会社（5180003017523）に合併し解散,2018-04-26,1,,,,,リンクス,0
753,3230002012703,登記記録の閉鎖等,0,2024-10-17,2024-10-15,有限会社有磯開発,,有限会社,富山県,氷見市,鞍川９８番地の２,,16,205,9350025,,,2024-10-15,清算の結了等,,,2015-10-05,1,,,,,アリイソカイハツ,0
789,3340001017080,登記記録の閉鎖等,0,2024-10-17,2024-10-10,株式会社ボール,,株式会社,鹿児島県,鹿児島市,松原町１３番１５号シャトーグリーンウッド２０１,,46,201,8920833,,,2024-10-10,清算の結了等,,,2015-10-05,1,,,,,ボール,0
806,3420001005052,登記記録の閉鎖等,0,2024-10-17,2024-10-09,株式会社グローバービルド,,株式会社,青森県,青森市,大字羽白字野木和１５３番地,,02,201,0380058,,,2024-10-09,清算の結了等,,,2015-10-05,1,,,,,グローバービルド,0
807,3420002002981,登記記録の閉鎖等,0,2024-10-17,2024-10-09,有限会社山多多田商店,,有限会社,青森県,青森市,問屋町１丁目９番２３号,,02,201,0300131,,,2024-10-09,清算の結了等,,,2015-10-05,1,,,,,ヤマタタダショウテン,0
808,3420002016916,登記記録の閉鎖等,0,2024-10-17,2024-10-09,有限会社名久井重機,,有限会社,青森県,十和田市,西十四番町３１番４１号,,02,206,0340088,,,2024-10-09,清算の結了等,,,2015-10-05,1,,,,,ナクイジュウキ,0
815,3460101007036,登記記録の閉鎖等,0,2024-10-17,2024-10-11,株式会社でざいんぷらす,,株式会社,北海道,帯広市,西十五条南１５丁目４番地２Ｒｕｂｙ１‐２０５,,01,207,0800025,,,2024-10-11,清算の結了等,,,2021-07-28,1,,,,,デザインプラス,0
816,3460102000452,登記記録の閉鎖等,0,2024-10-17,2024-10-11,有限会社太田カラー現像所,,有限会社,北海道,帯広市,西五条南３４丁目１５番地１,,01,207,0800015,,,2024-10-11,清算の結了等,,,2015-10-05,1,,,,,オオタカラーゲンゾウショ,0
831,4010003040583,登記記録の閉鎖等,0,2024-10-17,2024-10-02,合同会社Ｂａｊａｕ,,合同会社,東京都,中央区,銀座１丁目１２番４号Ｎ＆ＥＢＬＤ．６Ｆ,,13,102,1040061,,,2024-10-02,清算の結了等,,,2023-05-15,1,,,,,バジャウ,0
833,4010005032075,登記記録の閉鎖等,0,2024-10-17,2024-10-11,一般社団法人ＤＥＩマザーランド,,その他の設立登記法人,東京都,千代田区,丸の内３丁目１番１号東京共同会計事務所内,,13,101,1000005,,,2024-10-11,清算の結了等,,,2020-07-29,1,,,,,ディーイーアイマザーランド,0
865,4011001143782,登記記録の閉鎖等,0,2024-10-17,2024-09-24,株式会社ＷＡＴＥＲＴＲＥＥ,,株式会社,東京都,渋谷区,千駄ヶ谷３丁目５番１２号ＥＳビル１Ｆ,,13,113,1510051,,,2024-09-24,清算の結了等,,,2021-11-05,1,,,,,ウオーターツリー,0
869,4011003011434,登記記録の閉鎖等,0,2024-10-17,2024-09-19,Ｎｅｗ　ｌｉｆｅｓｔｙｌｅ合同会社,,合同会社,東京都,渋谷区,恵比寿２丁目３３番６号,,13,113,1500013,,,2024-09-19,清算の結了等,,,2020-07-21,1,,,,,ニューライフスタイル,0
872,4011005001367,登記記録の閉鎖等,0,2024-10-17,2024-09-25,税理士法人協立会計事務所,,その他の設立登記法人,東京都,渋谷区,代々木２丁目３０番４号,,13,113,1510053,,,2024-09-25,清算の結了等,,,2015-10-05,1,,,,,キョウリツカイケイジムショ,0
893,4011705000825,登記記録の閉鎖等,0,2024-10-17,2024-10-10,医療法人社団盛仁会,,その他の設立登記法人,東京都,江戸川区,篠崎町２丁目７番１号イーストハイム篠崎２階,,13,123,1330061,,,2024-10-10,清算の結了等,,,2015-10-05,1,,,,,セイジンカイ,0
898,4012703001369,登記記録の閉鎖等,0,2024-10-17,2024-10-07,合同会社まるラボ,,合同会社,東京都,東久留米市,中央町１丁目７番１号,,13,222,2030054,,,2024-10-07,清算の結了等,,,2016-10-13,1,,,,,マルラボ,0
901,4013303006080,登記記録の閉鎖等,0,2024-10-17,2024-10-07,合同会社Ｂｅａｕｔｙ　ｉｔｅｍ,,合同会社,東京都,豊島区,池袋４丁目２９番６号アクシア池袋１１０１,,13,116,1710014,,,2024-10-07,清算の結了等,,,2022-03-11,1,,,,,ビューティーアイテム,0
902,4020001072834,登記記録の閉鎖等,0,2024-10-17,2024-10-01,向洋電機株式会社,,株式会社,神奈川県,川崎市川崎区,渡田４丁目７番８号,,14,131,2100837,,,2024-10-01,清算の結了等,,,2015-10-05,1,,,,,コウヨウデンキ,0
904,4020001147743,登記記録の閉鎖等,0,2024-10-17,2024-10-01,株式会社ＳＡＮＳ,,株式会社,神奈川県,横浜市中区,常盤町３丁目２２番地３徳栄ビル４－４０３号,,14,104,2310014,,,2024-10-01,合併による解散等,5020001147742,令和６年１０月１日横浜市中区常盤町三丁目２２番地１リバティー常盤町ビル３階Ａ株式会社ＨＡＲＬＳ（5020001147742）に合併し解散,2022-08-16,1,,,,,サンズ,0
920,4030001039493,登記記録の閉鎖等,0,2024-10-17,2024-10-09,ヘイターズラボ株式会社,,株式会社,埼玉県,草加市,八幡町５７７番地７４,,11,221,3400006,,,2024-10-09,清算の結了等,,,2015-10-05,1,,,,,ヘイターズラボ,0
924,4030002046613,登記記録の閉鎖等,0,2024-10-17,2024-10-08,有限会社エフ・アール・ピー工業,,有限会社,埼玉県,八潮市,大字大瀬字根通２０４番地１,,11,234,3400822,,,2024-10-08,清算の結了等,,,2015-10-05,1,,,,,エフアールピーコウギョウ,0
950,4100003005552,登記記録の閉鎖等,0,2024-10-17,2024-10-01,天意合同会社,,合同会社,愛知県,一宮市,奥町字下口西９６番地１グラン・コート一宮奥町４０２号,,23,203,4910201,,,2024-10-01,清算の結了等,,,2020-01-27,1,,,,,テンイ,0
952,4110001009018,登記記録の閉鎖等,0,2024-10-17,2024-10-01,株式会社宗村電工,,株式会社,新潟県,新潟市西区,坂井２丁目２番２４号,,15,107,9502042,,,2024-10-01,清算の結了等,,,2015-10-05,1,,,,,ムネムラデンコウ,0
953,4110001025873,登記記録の閉鎖等,0,2024-10-17,2024-10-08,株式会社新生,,株式会社,新潟県,長岡市,来迎寺３７２２番地,,15,202,9495411,,,2024-10-08,清算の結了等,,,2015-10-05,1,,,,,シンセイ,0
956,4120001013159,登記記録の閉鎖等,0,2024-10-17,2024-10-15,株式会社ナンカイ紙工社,,株式会社,大阪府,大阪市東成区,東今里２丁目４番１３号,,27,115,5370011,,,2024-10-15,清算の結了等,,,2015-10-05,1,,,,,ナンカイシコウシャ,0
964,4120001168614,登記記録の閉鎖等,0,2024-10-17,2024-10-11,株式会社すまいる,,株式会社,大阪府,泉佐野市,高松西１丁目２７３３番地の３,,27,213,5980016,,,2024-10-11,清算の結了等,,,2015-10-05,1,,,,,スマイル,0
999,4180001131525,登記記録の閉鎖等,0,2024-10-17,2024-10-01,株式会社ドゥーザランドリー,,株式会社,愛知県,名古屋市中区,錦２丁目１１番２７号ｔｈ錦ビル１階,,23,106,4600003,,,2024-10-01,合併による解散等,1180001120786,令和６年１０月１日名古屋市中区栄一丁目６番１５号グランドメゾン御園座タワー２３０６号あい株式会社（1180001120786）に合併し解散,2018-03-19,1,,,,,ドゥーザランドリー,0
1003,4180002047167,登記記録の閉鎖等,0,2024-10-17,2024-10-03,有限会社スギヤマ包装,,有限会社,愛知県,名古屋市天白区,高島２丁目２００５番地,,23,116,4680022,,,2024-10-03,清算の結了等,,,2015-10-05,1,,,,,スギヤマホウソウ,0
1020,4230002000005,登記記録の閉鎖等,0,2024-10-17,2024-10-15,有限会社南斗,,有限会社,富山県,富山市,大町１４６番地,,16,201,9398073,,,2024-10-15,清算の結了等,,,2015-10-05,1,,,,,ナントウ,0
1022,4240001021901,登記記録の閉鎖等,0,2024-10-17,2024-10-09,株式会社ＬＡＴ環境クリエイト,,株式会社,広島県,広島市西区,庚午北２丁目１番４号,,34,104,7330821,,,2024-10-09,清算の結了等,,,2015-10-05,1,,,,,ラットカンキョウクリエイト,0
1051,4330002029406,登記記録の閉鎖等,0,2024-10-17,2024-10-08,有限会社正電設備,,有限会社,熊本県,天草市,有明町楠甫４６１５番地,,43,215,8617204,,,2024-10-08,清算の結了等,,,2015-10-05,1,,,,,セイデンセツビ,0
1057,4340002018894,登記記録の閉鎖等,0,2024-10-17,2024-10-10,有限会社河野鰹節商店,,有限会社,鹿児島県,指宿市,山川新生町８７番地,,46,210,8910504,,,2024-10-10,清算の結了等,,,2015-10-05,1,,,,,カワノカツオブシショウテン,0
1059,4360001018992,登記記録の閉鎖等,0,2024-10-17,2024-10-15,藍元屋株式会社,,株式会社,沖縄県,那覇市,おもろまち４丁目１２番３３号,,47,201,9000006,,,2024-10-15,清算の結了等,,,2015-10-05,1,,,,,アイモトヤ,0
1064,4360005000575,登記記録の閉鎖等,0,2024-10-17,2024-10-09,沖縄県建造物耐震耐久性調査協同組合,,その他の設立登記法人,沖縄県,那覇市,字上間２１２番地１,,47,201,9020073,,,2024-10-09,清算の結了等,,,2015-10-05,1,,,,,オキナワケンケンゾウブツタイシンタイキュウセイチョウサ,0
1075,4430002030188,登記記録の閉鎖等,0,2024-10-17,2024-10-09,有限会社爐,,有限会社,北海道,札幌市手稲区,前田七条１５丁目３番３０号,,01,109,0060817,,,2024-10-09,清算の結了等,,,2015-10-05,1,,,,,イロリ,0
1079,4480001004270,登記記録の閉鎖等,0,2024-10-17,2024-10-11,株式会社オザキ整骨院,,株式会社,徳島県,小松島市,中田町字狭間７２番地の１,,36,203,7730015,,,2024-10-11,清算の結了等,,,2015-10-05,1,,,,,オザキセイコツイン,0
1083,4500002018688,登記記録の閉鎖等,0,2024-10-17,2024-10-11,有限会社月原鉄工建設,,有限会社,愛媛県,今治市,国分３丁目１１番３５号,,38,202,7991533,,,2024-10-11,清算の結了等,,,2015-10-05,1,,,,,ツキハラテッコウケンセツ,0
1090,5010001140847,登記記録の閉鎖等,0,2024-10-17,2024-09-10,レジェンディアＢＣ株式会社,,株式会社,東京都,渋谷区,広尾１丁目７番７号,,13,113,1500012,,,2024-09-10,清算の結了等,,,2015-10-05,1,,,,,レジェンディアビーシー,0
1105,5010405019860,登記記録の閉鎖等,0,2024-10-17,2024-09-25,Ｋｙｒｏｎ２一般社団法人,,その他の設立登記法人,東京都,港区,虎ノ門２丁目６番１号,,13,103,1050001,,,2024-09-25,清算の結了等,,,2021-05-31,1,,,,,カイロンツー,0
1106,5010502015044,登記記録の閉鎖等,0,2024-10-17,2024-10-03,有限会社エバー・ウイン,,有限会社,東京都,台東区,小島１丁目８番１号,,13,106,1110056,,,2024-10-03,清算の結了等,,,2015-10-05,1,,,,,エバーウイン,0
1122,5011002005361,登記記録の閉鎖等,0,2024-10-17,2024-09-25,有限会社遠藤享デザイン室,,有限会社,東京都,渋谷区,神宮前３丁目１３番３号,,13,113,1500001,,,2024-09-25,清算の結了等,,,2015-10-05,1,,,,,エンドウススムデザインシツ,0
1126,5011103012133,登記記録の閉鎖等,0,2024-10-17,2024-10-04,合同会社ＫＥＮＺＯＯ,,合同会社,東京都,新宿区,西新宿７丁目７－２６ワコーレ第一ビル２階,,13,104,1600023,,,2024-10-04,清算の結了等,,,2022-09-05,1,,,,,ケンズー,0
1151,5012401003996,登記記録の閉鎖等,0,2024-10-17,2024-10-03,芙蓉建装株式会社,,株式会社,東京都,国立市,東２丁目２０番地の２２,,13,215,1860002,,,2024-10-03,清算の結了等,,,2015-10-05,1,,,,,フヨウケンソウ,0
1162,5020001140788,登記記録の閉鎖等,0,2024-10-17,2024-10-03,株式会社良知経営,,株式会社,神奈川県,川崎市宮前区,宮崎２丁目６番地１０宮崎台ガーデンオフィス２階,,14,136,2160033,,,2024-10-03,合併による解散等,4020001137967,令和６年１０月１日神奈川県川崎市宮前区宮崎二丁目６番地１０宮崎台ガーデンオフィス２階株式会社良知経営（4020001137967）に合併し解散,2021-04-09,1,,,,,リョウチケイエイ,0
1166,5020003013513,登記記録の閉鎖等,0,2024-10-17,2024-10-01,ヒューマンブリッジ合同会社,,合同会社,神奈川県,横浜市神奈川区,星野町８番地１ＭＧＴ－２４０１,,14,102,2210035,,,2024-10-01,清算の結了等,,,2017-11-08,1,,,,,ヒューマンブリッジ,0
1176,5030001004100,登記記録の閉鎖等,0,2024-10-17,2024-10-08,ジェイエイ共済埼玉ビルディング株式会社,,株式会社,埼玉県,さいたま市大宮区,土手町１丁目２番地,,11,103,3300801,,,2024-10-08,清算の結了等,,,2015-10-05,1,,,,,ジェイエイキョウサイサイタマビルディング,0
1185,5030001140944,登記記録の閉鎖等,0,2024-10-17,2024-10-15,株式会社ジェイ・ウインズ,,株式会社,埼玉県,八潮市,大字西袋９０２番地１,,11,234,3400833,,,2024-10-15,合併による解散等,2012701001760,令和６年１０月１日東京都東村山市廻田町一丁目１３番地７株式会社ハラコー（2012701001760）に合併し解散,2021-03-01,1,,,,,ジェイウインズ,0
1221,5110002011376,登記記録の閉鎖等,0,2024-10-17,2024-10-07,有限会社コンドウ塗装,,有限会社,新潟県,新潟市北区,太田甲５２８６番地１,,15,101,9503313,,,2024-10-07,清算の結了等,,,2015-10-05,1,,,,,コンドウトソウ,0
1255,5130001065644,登記記録の閉鎖等,0,2024-10-17,2024-10-11,リバイバルシーズ株式会社,,株式会社,京都府,京都市下京区,中堂寺南町１３４番地ＡＳＴＥＭビル８階,,26,106,6008813,,,2024-10-11,清算の結了等,,,2019-11-07,1,,,,,リバイバルシーズ,0
1277,5160001015373,登記記録の閉鎖等,0,2024-10-17,2024-10-15,株式会社寺田自動車工業所,,株式会社,滋賀県,守山市,赤野井町７６４番地の２,,25,207,5240061,,,2024-10-15,清算の結了等,,,2015-10-05,1,,,,,テラダジドウシャコウギョウショ,0
1294,5210001017604,登記記録の閉鎖等,0,2024-10-17,2024-10-16,株式会社グレイス,,株式会社,福井県,鯖江市,水落町１丁目１６番１２－１０号,,18,207,9160022,,,2024-10-16,清算の結了等,,,2019-06-27,1,,,,,グレイス,0
1296,5230001012058,登記記録の閉鎖等,0,2024-10-17,2024-10-15,株式会社ビー・エム・プロダクツ,,株式会社,富山県,高岡市,中川上町９番８号,,16,202,9330043,,,2024-10-15,清算の結了等,,,2015-10-05,1,,,,,ビーエムプロダクツ,0
1298,5230005007632,登記記録の閉鎖等,0,2024-10-17,2024-10-11,特定非営利活動法人新湊くらし応援団,,その他の設立登記法人,富山県,射水市,本町３丁目１２番地の２８,,16,211,9340011,,,2024-10-11,清算の結了等,,,2015-10-05,1,,,,,シンミナトクラシオウエンダン,0
1307,5240002010539,登記記録の閉鎖等,0,2024-10-17,2024-10-09,有限会社ツールテック,,有限会社,広島県,広島市西区,三篠町３丁目２３番８号,,34,104,7330003,,,2024-10-09,清算の結了等,,,2015-10-05,1,,,,,,0
1323,5310002012742,登記記録の閉鎖等,0,2024-10-17,2024-10-07,有限会社長崎技研,,有限会社,長崎県,東彼杵郡東彼杵町,法音寺郷２２９番地,,42,321,8593804,,,2024-10-07,清算の結了等,,,2015-10-05,1,,,,,ナガサキギケン,0
1338,5370002007794,登記記録の閉鎖等,0,2024-10-17,2024-10-01,有限会社鈴木自動車商会,,有限会社,宮城県,仙台市宮城野区,二の森２番３３号,,04,102,9830838,,,2024-10-01,清算の結了等,,,2015-10-05,1,,,,,スズキジドウシャショウカイ,0
1345,5420002007533,登記記録の閉鎖等,0,2024-10-17,2024-10-11,有限会社総美商会,,有限会社,青森県,八戸市,大字白銀町字大沢頭１３番地の１０,,02,203,0310822,,,2024-10-11,清算の結了等,,,2015-10-05,1,,,,,ソウビショウカイ,0
1348,5450001008356,登記記録の閉鎖等,0,2024-10-17,2024-10-10,株式会社山田建業,,株式会社,北海道,稚内市,声問３丁目１２番１７号,,01,214,0986642,,,2024-10-10,清算の結了等,,,2015-10-05,1,,,,,ヤマダケンギョウ,0
1356,5500005002606,登記記録の閉鎖等,0,2024-10-17,2024-10-04,特定非営利活動法人園でピース,,その他の設立登記法人,愛媛県,松山市,道後喜多町４番６号,,38,201,7900848,,,2024-10-04,清算の結了等,,,2015-10-05,1,,,,,,0
1360,6010001102788,登記記録の閉鎖等,0,2024-10-17,2024-10-02,マイクロウインド株式会社,,株式会社,東京都,千代田区,飯田橋３丁目６番７号,,13,101,1020072,,,2024-10-02,清算の結了等,,,2015-10-05,1,,,,,マイクロウインド,0
1375,6010003040128,登記記録の閉鎖等,0,2024-10-17,2024-10-02,キール合同会社,,合同会社,東京都,中央区,日本橋室町１丁目１１番１２号日本橋水野ビル７階,,13,102,1030022,,,2024-10-02,清算の結了等,,,2023-03-23,1,,,,,キール,0
1383,6010501041610,登記記録の閉鎖等,0,2024-10-17,2024-10-03,株式会社小松溶接,,株式会社,東京都,台東区,松が谷３丁目１９番１２号,,13,106,1110036,,,2024-10-03,清算の結了等,,,2017-09-22,1,,,,,コマツヨウセツ,0
1385,6010601057746,登記記録の閉鎖等,0,2024-10-17,2024-10-09,株式会社やまかわエンタテインメント,,株式会社,東京都,江東区,東砂７丁目５番１９－６１２号,,13,108,1360074,,,2024-10-09,清算の結了等,,,2020-08-03,1,,,,,ヤマカワエンタテインメント,0
1395,6010901041747,登記記録の閉鎖等,0,2024-10-17,2024-10-10,株式会社デジタルコンサルタンツ,,株式会社,東京都,世田谷区,桜丘５丁目２８番４号,,13,112,1560054,,,2024-10-10,清算の結了等,,,2018-03-20,1,,,,,デジタルコンサルタンツ,0
1396,6010901043108,登記記録の閉鎖等,0,2024-10-17,2024-10-10,株式会社ＩＭマネージメント,,株式会社,東京都,世田谷区,成城７丁目２３番６号,,13,112,1570066,,,2024-10-10,清算の結了等,,,2018-11-14,1,,,,,アイエムマネージメント,0
1404,6011001120466,登記記録の閉鎖等,0,2024-10-17,2024-10-07,株式会社Ｇａｌａｘｙ　Ｐａｙｍｅｎｔ,,株式会社,東京都,東村山市,野口町１丁目３番地４小野ビル２０３号室,,13,213,1890022,,,2024-10-07,清算の結了等,,,2018-02-02,1,,,,,ギャラクシーペイメント,0
1405,6011001156361,登記記録の閉鎖等,0,2024-10-17,2024-09-18,株式会社ＴＡＮＡＢＡＴＡ,,株式会社,東京都,渋谷区,上原２丁目２２番６号フォーマットスワン２０２号室,,13,113,1510064,,,2024-09-18,清算の結了等,,,2023-08-21,1,,,,,タナバタ,0
1418,6011102022603,登記記録の閉鎖等,0,2024-10-17,2024-10-04,有限会社東遊パートナー,,有限会社,東京都,新宿区,西早稲田１丁目１６番３号,,13,104,1690051,,,2024-10-04,清算の結了等,,,2015-10-05,1,,,,,トウユウパートナー,0
1433,6012801004115,登記記録の閉鎖等,0,2024-10-17,2024-10-03,株式会社テイ・エイ・エム,,株式会社,東京都,立川市,幸町５丁目８４番地１５,,13,202,1900002,,,2024-10-03,清算の結了等,,,2015-10-05,1,,,,,テイエイエム,0
1435,6012801019055,登記記録の閉鎖等,0,2024-10-17,2024-10-03,株式会社Ｓａｅｋｉ　ＰＬＵＳ,,株式会社,東京都,国立市,西１丁目１１番地の６,,13,215,1860005,,,2024-10-03,清算の結了等,,,2018-10-22,1,,,,,サエキプラス,0
1437,6013201015669,登記記録の閉鎖等,0,2024-10-17,2024-09-24,株式会社テクノクラート,,株式会社,東京都,目黒区,三田２丁目１番１３号,,13,110,1530062,,,2024-09-24,清算の結了等,,,2015-10-05,1,,,,,テクノクラート,0
1440,6020001010783,登記記録の閉鎖等,0,2024-10-17,2024-10-01,和光工業株式会社,,株式会社,神奈川県,横浜市保土ケ谷区,今井町１１２５番地,,14,106,2400035,,,2024-10-01,清算の結了等,,,2015-10-05,1,,,,,ワコウコウギョウ,0
1462,6030001107307,登記記録の閉鎖等,0,2024-10-17,2024-09-30,３Ｈ株式会社,,株式会社,東京都,渋谷区,神宮前５丁目４２番１３号,,13,113,1500001,,,2024-09-30,合併による解散等,7020001089826,令和６年９月３０日東京都渋谷区神宮前五丁目４２番１３号２ｐｌｕｓ８株式会社（7020001089826）に合併し解散,2015-10-05,1,,,,,スリーエイチ,0
1469,6030003017743,登記記録の閉鎖等,0,2024-10-17,2024-10-07,合同会社Ｈａｐｐ　Ｂｒｉｇｈｔｕｒｅ,,合同会社,埼玉県,川口市,川口１丁目３番１－２０５号ライオンズマンション川口第５,,11,203,3320015,,,2024-10-07,清算の結了等,,,2021-08-10,1,,,,,ハップブライチュア,0
1471,6030005016818,登記記録の閉鎖等,0,2024-10-17,2024-10-08,一般社団法人認定支援機関ネットワーク機構,,その他の設立登記法人,埼玉県,狭山市,新狭山２丁目３番地の５４,,11,215,3501331,,,2024-10-08,清算の結了等,,,2015-10-05,1,,,,,ニンテイシエンキカンネットワークキコウ,0
1536,6130001009922,登記記録の閉鎖等,0,2024-10-17,2024-10-15,株式会社アピタスジャパン,,株式会社,京都府,京都市南区,上鳥羽山ノ本町２１１番地,,26,107,6018176,,,2024-10-15,清算の結了等,,,2015-10-05,1,,,,,アピタスジャパン,0
1545,6140002012494,登記記録の閉鎖等,0,2024-10-17,2024-10-11,有限会社リボンサプライ・ミヤモト,,有限会社,兵庫県,神戸市北区,鈴蘭台北町７丁目６番９号,,28,109,6511111,,,2024-10-11,清算の結了等,,,2015-10-05,1,,,,,,0
1546,6140002029365,登記記録の閉鎖等,0,2024-10-17,2024-10-10,有限会社ナグラ,,有限会社,兵庫県,明石市,東藤江１丁目１５番３号,,28,203,6730042,,,2024-10-10,清算の結了等,,,2015-10-05,1,,,,,ナグラ,0
1561,6190001000272,登記記録の閉鎖等,0,2024-10-17,2024-10-15,京口モータース株式会社,,株式会社,三重県,津市,久居桜が丘町１９００番地１５４,,24,201,5141111,,,2024-10-15,清算の結了等,,,2015-10-05,1,,,,,キョウグチモータース,0
1565,6200001000015,登記記録の閉鎖等,0,2024-10-17,2024-10-11,株式会社アイエム篠田,,株式会社,岐阜県,岐阜市,池ノ上町３丁目１３番地,,21,201,5020906,,,2024-10-11,清算の結了等,,,2015-10-05,1,,,,,アイエムシノダ,0
1579,6260002005494,登記記録の閉鎖等,0,2024-10-17,2024-10-10,有限会社セイミツ機工,,有限会社,岡山県,岡山市北区,大安寺南町１丁目１０番１１号,,33,101,7000064,,,2024-10-10,清算の結了等,,,2015-10-05,1,,,,,セイミツキコウ,0
1586,6290805009607,登記記録の閉鎖等,0,2024-10-17,2024-10-11,一般社団法人北九州ＮＦＴネクサス,,その他の設立登記法人,福岡県,北九州市八幡西区,熊手１丁目１番２５号,,40,109,8060028,,,2024-10-11,清算の結了等,,,2022-12-05,1,,,,,キタキュウシュウエヌエフティネクサス,0
1587,6310002013839,登記記録の閉鎖等,0,2024-10-17,2024-10-07,有限会社フクイ建設,,有限会社,長崎県,佐世保市,宇久町平８２２番地の４,,42,202,8574901,,,2024-10-07,清算の結了等,,,2015-10-05,1,,,,,フクイケンセツ,0
1590,6320002000489,登記記録の閉鎖等,0,2024-10-17,2024-10-15,有限会社青山建築事務所,,有限会社,大分県,大分市,大字荏隈字車木１３９４番地の３,,44,201,8700889,,,2024-10-15,清算の結了等,,,2015-10-05,1,,,,,,0
1598,6360001027884,登記記録の閉鎖等,0,2024-10-17,2024-10-11,株式会社ＰｉｎｅＲｏｏｔｓ,,株式会社,兵庫県,神戸市東灘区,岡本５丁目１０番１２号ＴＳコートＤ棟,,28,101,6580072,,,2024-10-11,清算の結了等,,,2020-11-06,1,,,,,パインルーツ,0
1603,6370001019212,登記記録の閉鎖等,0,2024-10-17,2024-10-03,株式会社いえとち情報館,,株式会社,宮城県,仙台市青葉区,貝ケ森２丁目１番１５号,,04,101,9810942,,,2024-10-03,清算の結了等,,,2015-10-05,1,,,,,イエトチジョウホウカン,0
1608,6400002008788,登記記録の閉鎖等,0,2024-10-17,2024-10-02,有限会社電工社,,有限会社,岩手県,花巻市,大迫町大迫第３地割６５番地,,03,205,0283203,,,2024-10-02,清算の結了等,,,2015-10-05,1,,,,,デンコウシャ,0
1613,6420001014785,登記記録の閉鎖等,0,2024-10-17,2024-10-09,蛇沼船長農業試験場株式会社,,株式会社,青森県,三戸郡三戸町,大字梅内字鬢田６４番地２,,02,441,0390112,,,2024-10-09,清算の結了等,,,2015-10-05,1,,,,,ジャヌマセンチョウノウギョウシケンジョウ,0
1614,6420001017103,登記記録の閉鎖等,0,2024-10-17,2024-10-10,株式会社プライム保険サポート,,株式会社,青森県,弘前市,大字品川町６２番地１,,02,202,0368183,,,2024-10-10,清算の結了等,,,2020-08-18,1,,,,,プライムホケンサポート,0
1623,6500002012549,登記記録の閉鎖等,0,2024-10-17,2024-10-11,有限会社奥伊予ブロイラー,,有限会社,愛媛県,西予市,城川町川津南３９４０番地,,38,214,7971704,,,2024-10-11,清算の結了等,,,2015-10-05,1,,,,,オクイヨブロイラー,0
1629,7010001218261,登記記録の閉鎖等,0,2024-10-17,2024-10-02,株式会社美研製薬,,株式会社,東京都,千代田区,神田佐久間町１丁目８番４号アルテール秋葉原７０８,,13,101,1010025,,,2024-10-02,清算の結了等,,,2021-05-24,1,,,,,ビケンセイヤク,0
1641,7010401015036,登記記録の閉鎖等,0,2024-10-17,2024-09-20,株式会社スタジオハーフオンス,,株式会社,東京都,港区,南青山３丁目１５番９号ＭＩＮＯＷＡ表参道３階,,13,103,1070062,,,2024-09-20,清算の結了等,,,2015-10-05,1,,,,,スタジオハーフオンス,0
1642,7010401111702,登記記録の閉鎖等,0,2024-10-17,2024-09-26,株式会社麻布十番杵屋,,株式会社,東京都,港区,麻布十番１丁目６番４号,,13,103,1060045,,,2024-09-26,清算の結了等,,,2015-10-05,1,,,,,アザブジュウバンキネヤ,0
1650,7010403023326,登記記録の閉鎖等,0,2024-10-17,2024-09-25,合同会社富樫,,合同会社,東京都,港区,浜松町２丁目２番１５号,,13,103,1050013,,,2024-09-25,清算の結了等,,,2020-07-21,1,,,,,トガシ,0
1667,7011001138730,登記記録の閉鎖等,0,2024-10-17,2024-09-24,株式会社ＬＩＶＥ　ＬＩＶＥ　ＬＩＶＥ,,株式会社,東京都,渋谷区,渋谷２丁目３番８号倉島渋谷ビル４０１,,13,113,1500002,,,2024-09-24,清算の結了等,,,2021-02-25,1,,,,,ライブライブライブ,0
1669,7011001160800,登記記録の閉鎖等,0,2024-10-17,2024-09-27,ココゾロ株式会社,,株式会社,東京都,渋谷区,道玄坂１丁目１０番８号渋谷道玄坂東急ビル２Ｆ－Ｃ,,13,113,1500043,,,2024-09-27,清算の結了等,,,2024-03-22,1,,,,,ココゾロ,0
1677,7011101061774,登記記録の閉鎖等,0,2024-10-17,2024-10-11,ベリテイ株式会社,,株式会社,東京都,新宿区,舟町７番地,,13,104,1600006,,,2024-10-11,清算の結了等,,,2015-10-05,1,,,,,ベリテイ,0
1695,7011501005661,登記記録の閉鎖等,0,2024-10-17,2024-10-07,株式会社ジーシーティー,,株式会社,東京都,豊島区,駒込１丁目１０番９号コーポフェリーチェ２０２,,13,116,1700003,,,2024-10-07,清算の結了等,,,2015-10-05,1,,,,,ジーシーティー,0
1696,7011601001569,登記記録の閉鎖等,0,2024-10-17,2024-10-10,関東産業株式会社,,株式会社,東京都,練馬区,関町北２丁目３４番６号,,13,120,1770051,,,2024-10-10,清算の結了等,,,2015-10-05,1,,,,,カントウサンギョウ,0
1703,7012801017074,登記記録の閉鎖等,0,2024-10-17,2024-10-03,フジモールド株式会社,,株式会社,東京都,立川市,砂川町６丁目２５番地の２１,,13,202,1900031,,,2024-10-03,清算の結了等,,,2016-02-18,1,,,,,フジモールド,0
1727,7030001005344,登記記録の閉鎖等,0,2024-10-17,2024-10-07,田代建設株式会社,,株式会社,埼玉県,さいたま市大宮区,宮町１丁目３５番地２,,11,103,3300802,,,2024-10-07,清算の結了等,,,2024-03-29,1,,,,,タシロケンセツ,0
1731,7030001060075,登記記録の閉鎖等,0,2024-10-17,2024-10-09,株式会社エレガンス,,株式会社,東京都,世田谷区,赤堤１丁目７番２号－１階,,13,112,1560044,,,2024-10-09,清算の結了等,,,2015-10-05,1,,,,,エレガンス,0
1744,7040002033491,登記記録の閉鎖等,0,2024-10-17,2024-10-08,有限会社貴金属やまぎし,,有限会社,千葉県,市川市,湊新田１丁目７番１０号,,12,203,2720132,,,2024-10-08,清算の結了等,,,2015-10-05,1,,,,,キキンゾクヤマギシ,0
1752,7080401018123,登記記録の閉鎖等,0,2024-10-17,2024-10-16,株式会社浜松日成水産,,株式会社,静岡県,浜松市中央区,領家３丁目８番８号,,22,138,4300852,,,2024-10-16,清算の結了等,,,2015-10-05,1,,,,,,0
1757,7080405000795,登記記録の閉鎖等,0,2024-10-17,2024-10-04,釋宗太子教派西導寺,,その他の設立登記法人,静岡県,浜松市中央区,成子町３４番地,,22,138,4328035,,,2024-10-04,清算の結了等,,,2015-10-05,1,,,,,シャクシュウタイシキョウハサイドウジ,0
1766,7120001051791,登記記録の閉鎖等,0,2024-10-17,2024-10-07,株式会社サマック,,株式会社,大阪府,大阪市東淀川区,豊新２丁目９番２１号,,27,114,5330014,,,2024-10-07,清算の結了等,,,2015-10-05,1,,,,,サマック,0
1780,7120002059529,登記記録の閉鎖等,0,2024-10-17,2024-10-10,有限会社トライアングル,,有限会社,大阪府,大阪市生野区,林寺４丁目１０番３０号,,27,116,5440023,,,2024-10-10,合併による解散等,4120001103926,令和６年９月３０日大阪市東住吉区桑津一丁目８番３号株式会社クローバー３６５（4120001103926）に合併し解散,2015-10-05,1,,,,,トライアングル,0
1787,7120101040026,登記記録の閉鎖等,0,2024-10-17,2024-10-10,西坂構業株式会社,,株式会社,大阪府,泉佐野市,長滝３７０２番地の１,,27,213,5980034,,,2024-10-10,清算の結了等,,,2015-10-05,1,,,,,ニシザカコウギョウ,0
1824,7230001008616,登記記録の閉鎖等,0,2024-10-17,2024-10-16,薮工業株式会社,,株式会社,富山県,南砺市,高瀬２０３番地の１,,16,210,9320252,,,2024-10-16,清算の結了等,,,2015-10-05,1,,,,,ヤブコウギョウ,0
1825,7240001012492,登記記録の閉鎖等,0,2024-10-17,2024-10-09,株式会社ＬＡＴ,,株式会社,広島県,広島市西区,庚午北２丁目５番５号,,34,104,7330821,,,2024-10-09,清算の結了等,,,2015-10-05,1,,,,,ラット,0
1856,7340005008436,登記記録の閉鎖等,0,2024-10-17,2024-10-10,一般社団法人日本住まい管理協会,,その他の設立登記法人,鹿児島県,霧島市,国分中央３丁目４１番６３号オフィス加世田１号,,46,218,8994332,,,2024-10-10,清算の結了等,,,2015-10-05,1,,,,,ニホンスマイカンリキョウカイ,0
1862,7370003001051,登記記録の閉鎖等,0,2024-10-17,2024-10-02,合資会社ＭＡＧネット,,合資会社,宮城県,仙台市泉区,住吉台東５丁目１３番１１号,,04,105,9813222,,,2024-10-02,清算の結了等,,,2015-10-05,1,,,,,マグネット,0
1865,7370802000146,登記記録の閉鎖等,0,2024-10-17,2024-09-30,有限会社小野土建,,有限会社,宮城県,名取市,高舘吉田字中在家１０７番地,,04,207,9811242,,,2024-09-30,清算の結了等,,,2015-10-05,1,,,,,オノドケン,0
1869,7410002008010,登記記録の閉鎖等,0,2024-10-17,2024-10-11,有限会社リケン住機,,有限会社,秋田県,雄勝郡羽後町,西馬音内字本町９２番地,,05,463,0121131,,,2024-10-11,清算の結了等,,,2015-10-05,1,,,,,リケンジュウキ,0
1870,7420001002434,登記記録の閉鎖等,0,2024-10-17,2024-10-08,株式会社トム・メディック,,株式会社,青森県,青森市,大字滝沢字下川原１４番地１,,02,201,0393524,,,2024-10-08,合併による解散等,8430001020392,令和６年１０月１日札幌市白石区本通三丁目北６番１８号株式会社ＳＭＣ（8430001020392）に合併し解散,2015-10-05,1,,,,,トムメディック,0
1874,7450003001448,登記記録の閉鎖等,0,2024-10-17,2024-10-11,合同会社匠,,合同会社,北海道,旭川市,旭町二条９丁目１２８番地１５,,01,204,0700832,,,2024-10-11,清算の結了等,,,2015-10-05,1,,,,,タクミ,0
1884,8010001168225,登記記録の閉鎖等,0,2024-10-17,2024-10-09,ケイクリエイション株式会社,,株式会社,東京都,大田区,羽田空港１丁目６番６号第一綜合ビル４階,,13,111,1440041,,,2024-10-09,清算の結了等,,,2015-10-05,1,,,,,ケイクリエイション,0
1890,8010001223046,登記記録の閉鎖等,0,2024-10-17,2024-09-13,株式会社Ｓｐｉｌａｖｏ,,株式会社,東京都,千代田区,神田須田町２丁目２５ＧＹＢ秋葉原５階５１０,,13,101,1010041,,,2024-09-13,清算の結了等,,,2021-12-07,1,,,,,スピラボ,0
1897,8010002028691,登記記録の閉鎖等,0,2024-10-17,2024-10-01,有限会社ズームエース,,有限会社,東京都,中央区,八重洲１丁目５番１７号,,13,102,1030028,,,2024-10-01,清算の結了等,,,2015-10-05,1,,,,,ズームエース,0
1922,8011001027809,登記記録の閉鎖等,0,2024-10-17,2024-09-27,グレース株式会社,,株式会社,東京都,港区,虎ノ門５丁目１１番１１号虎ノ門ＭＫビル５階,,13,103,1050001,,,2024-09-27,清算の結了等,,,2015-10-05,1,,,,,グレース,0
1931,8011001135025,登記記録の閉鎖等,0,2024-10-17,2024-09-25,東信株式会社,,株式会社,東京都,渋谷区,上原１丁目７番２０号ＳＫ・ＰＬＡＣＥ,,13,113,1510064,,,2024-09-25,清算の結了等,,,2020-08-03,1,,,,,トウシン,0
1933,8011001150957,登記記録の閉鎖等,0,2024-10-17,2024-09-24,ファンズ・インベストメント株式会社,,株式会社,東京都,渋谷区,恵比寿西１丁目１０番１１号,,13,113,1500021,,,2024-09-24,清算の結了等,,,2022-11-14,1,,,,,ファンズインベストメント,0
1943,8011301028044,登記記録の閉鎖等,0,2024-10-17,2024-10-09,日本川上株式会社,,株式会社,東京都,杉並区,梅里２丁目２５番１３号高円寺プラザ２０３号,,13,115,1660011,,,2024-10-09,清算の結了等,,,2022-09-01,1,,,,,ニホンカワカミ,0
1953,8011702005187,登記記録の閉鎖等,0,2024-10-17,2024-10-10,有限会社澤田精機,,有限会社,東京都,江戸川区,中央３丁目１１番７号,,13,123,1320021,,,2024-10-10,清算の結了等,,,2015-10-05,1,,,,,サワダセイキ,0
1963,8013401004882,登記記録の閉鎖等,0,2024-10-17,2024-10-01,株式会社アスティークパートナーズ,,株式会社,東京都,立川市,幸町１丁目２１番地１,,13,202,1900002,,,2024-10-01,合併による解散等,1012801003220,令和６年１０月１日東京都立川市幸町一丁目２１番地１株式会社アスティーク（1012801003220）に合併し解散,2015-10-05,1,,,,,アスティークパートナーズ,0
1964,8020001053302,登記記録の閉鎖等,0,2024-10-17,2024-10-01,榮彩建設株式会社,,株式会社,神奈川県,横浜市鶴見区,駒岡４丁目２１番１３号,,14,101,2300071,,,2024-10-01,合併による解散等,1020001016843,令和６年１０月１日横浜市鶴見区駒岡四丁目２１番１２号株式会社大川（1020001016843）に合併し解散,2015-10-05,1,,,,,エイサイケンセツ,0
1968,8020001148878,登記記録の閉鎖等,0,2024-10-17,2024-10-01,スノードロップ株式会社,,株式会社,神奈川県,横浜市南区,井土ケ谷中町２２番地１９,,14,105,2320052,,,2024-10-01,清算の結了等,,,2022-11-07,1,,,,,スノードロップ,0
1987,8030001032255,登記記録の閉鎖等,0,2024-10-17,2024-10-01,株式会社ユニエース,,株式会社,埼玉県,久喜市,菖蒲町三箇２８８の１,,11,232,3460104,,,2024-10-01,清算の結了等,,,2015-10-05,1,,,,,ユニエース,0
1989,8030001066220,登記記録の閉鎖等,0,2024-10-17,2024-10-08,株式会社さくらフーズライン,,株式会社,埼玉県,越谷市,南越谷４丁目９番６号,,11,222,3430845,,,2024-10-08,清算の結了等,,,2015-10-05,1,,,,,サクラフーズライン,0
1990,8030001073241,登記記録の閉鎖等,0,2024-10-17,2024-10-07,秀栄継手工業株式会社,,株式会社,埼玉県,川口市,南鳩ヶ谷３丁目９番９号,,11,203,3340013,,,2024-10-07,清算の結了等,,,2015-10-05,1,,,,,シュウエイツギテコウギョウ,0
1991,8030001073687,登記記録の閉鎖等,0,2024-10-17,2024-10-08,イ・エム・エンジニアリング株式会社,,株式会社,埼玉県,川口市,並木２丁目３３番１７号,,11,203,3320034,,,2024-10-08,清算の結了等,,,2015-10-05,1,,,,,イエムエンジニアリング,0
1995,8030001132063,登記記録の閉鎖等,0,2024-10-17,2024-09-24,株式会社ＩＮＧ　ＰＬＡＮＮＩＮＧ,,株式会社,東京都,港区,浜松町２丁目２番１５号浜松町ダイヤビル２Ｆ,,13,103,1050013,,,2024-09-24,清算の結了等,,,2019-07-22,1,,,,,アイエヌジープランニング,0
2001,8030002069651,登記記録の閉鎖等,0,2024-10-17,2024-10-08,有限会社押田土建,,有限会社,埼玉県,南埼玉郡宮代町,道佛３丁目１番１３号,,11,442,3450811,,,2024-10-08,清算の結了等,,,2015-10-05,1,,,,,オシダドケン,0
2003,8040001053424,登記記録の閉鎖等,0,2024-10-17,2024-10-15,日鉄機能材製造株式会社,,株式会社,千葉県,木更津市,築地１番地,,12,206,2920835,,,2024-10-15,合併による解散等,9010001098041,令和６年１０月１日東京都中央区日本橋一丁目１３番１号日鉄ケミカル＆マテリアル株式会社（9010001098041）に合併し解散,2015-10-05,1,,,,,ニッテツキノウザイセイゾウ,0
2026,8070002034750,登記記録の閉鎖等,0,2024-10-17,2024-10-15,有限会社桑原薬品,,有限会社,群馬県,沼田市,西原新町１６５番地,,10,206,3780054,,,2024-10-15,清算の結了等,,,2015-10-05,1,,,,,クワバラヤクヒン,0
2031,8110002016736,登記記録の閉鎖等,0,2024-10-17,2024-10-07,有限会社齊藤商会,,有限会社,新潟県,新発田市,佐々木２４５２番地１０,,15,206,9570082,,,2024-10-07,清算の結了等,,,2015-10-05,1,,,,,サイトウショウカイ,0
2032,8110005014811,登記記録の閉鎖等,0,2024-10-17,2024-10-08,一般財団法人新潟県上越婦人会館,,その他の設立登記法人,新潟県,上越市,本町６丁目１番５号,,15,222,9430832,,,2024-10-08,清算の結了等,,,2015-10-05,1,,,,,ニイガタケンジョウエツフジンカイカン,0
2064,8140001067694,登記記録の閉鎖等,0,2024-10-17,2024-10-10,Ｌ＆Ｋインターナショナル株式会社,,株式会社,兵庫県,神戸市灘区,八幡町３丁目６－１７六甲ヴィラ２１８号,,28,102,6570051,,,2024-10-10,清算の結了等,,,2015-10-05,1,,,,,,0
2066,8140001121113,登記記録の閉鎖等,0,2024-10-17,2024-10-10,木村建設株式会社,,株式会社,兵庫県,神戸市中央区,脇浜海岸通３丁目２番１２－８０２号,,28,110,6510073,,,2024-10-10,清算の結了等,,,2021-04-07,1,,,,,キムラケンセツ,0
2070,8140002037309,登記記録の閉鎖等,0,2024-10-17,2024-10-11,有限会社フジ,,有限会社,兵庫県,神戸市西区,桜が丘中町４丁目３番地の１４,,28,111,6512226,,,2024-10-11,清算の結了等,,,2015-10-05,1,,,,,フジ,0
2079,8180001119046,登記記録の閉鎖等,0,2024-10-17,2024-09-30,中銀商社株式会社,,株式会社,愛知県,名古屋市東区,筒井３丁目３４番１５号平岡ビル３Ｂ号室,,23,102,4610003,,,2024-09-30,清算の結了等,,,2015-10-05,1,,,,,チュウギンショウシャ,0
2082,8180003022074,登記記録の閉鎖等,0,2024-10-17,2024-10-01,合同会社アレス,,合同会社,愛知県,名古屋市北区,平安２丁目１４番１号,,23,103,4620819,,,2024-10-01,合併による解散等,8180001161782,令和６年１０月１日名古屋市北区平安二丁目１４番１号株式会社プラネット（8180001161782）に合併し解散,2021-01-29,1,,,,,アレス,0
2085,8180302018541,登記記録の閉鎖等,0,2024-10-17,2024-10-09,有限会社鷹建設工業,,有限会社,愛知県,刈谷市,中山町２丁目１０番地２,,23,210,4480026,,,2024-10-09,清算の結了等,,,2015-10-05,1,,,,,タカケンセツコウギョウ,0
2092,8210001012973,登記記録の閉鎖等,0,2024-10-17,2024-10-11,株式会社新山,,株式会社,福井県,鯖江市,幸町１丁目６番２４号,,18,207,9160018,,,2024-10-11,清算の結了等,,,2015-10-05,1,,,,,シンザン,0
2100,8260002003281,登記記録の閉鎖等,0,2024-10-17,2024-10-10,有限会社グリーンコンタクトレンズセンター,,有限会社,岡山県,岡山市中区,藤原西町１丁目４番２５－１号,,33,102,7038244,,,2024-10-10,清算の結了等,,,2015-10-05,1,,,,,グリーンコンタクトレンズセンター,0
2109,8290802009995,登記記録の閉鎖等,0,2024-10-17,2024-10-11,有限会社タニアルミ建材,,有限会社,福岡県,北九州市門司区,奥田５丁目３番８号,,40,101,8000011,,,2024-10-11,清算の結了等,,,2015-10-05,1,,,,,タニアルミケンザイ,0
2128,8370201002379,登記記録の閉鎖等,0,2024-10-17,2024-10-01,株式会社ホンダセントラル,,株式会社,宮城県,加美郡加美町,字矢越２９４番地の４,,04,445,9814265,,,2024-10-01,合併による解散等,9370001006554,令和６年１０月１日仙台市宮城野区扇町三丁目４番４６号宮城ホンダ販売株式会社（9370001006554）に合併し解散,2015-10-05,1,,,,,ホンダセントラル,0
2137,8420001008505,登記記録の閉鎖等,0,2024-10-17,2024-09-26,十二湖海岸開発株式会社,,株式会社,青森県,西津軽郡深浦町,大字松神字中浜松１０３番地,,02,323,0382206,,,2024-09-26,清算の結了等,,,2015-10-05,1,,,,,ジュウニコカイガンカイハツ,0
2138,8420002013066,登記記録の閉鎖等,0,2024-10-17,2024-10-09,有限会社環和浄化サービスセンター,,有限会社,青森県,弘前市,大字清水森字下川原２番地１２８,,02,202,0368113,,,2024-10-09,清算の結了等,,,2015-10-05,1,,,,,カンワジョウカサービスセンター,0
2142,8480001011032,登記記録の閉鎖等,0,2024-10-17,2024-10-03,ＤａｔａＯＡＳＩＳ株式会社,,株式会社,徳島県,徳島市,富田橋８丁目６番地９０８,,36,201,7700937,,,2024-10-03,清算の結了等,,,2020-06-05,1,,,,,データオアシス,0
2150,9010001113329,登記記録の閉鎖等,0,2024-10-17,2024-10-02,ケイティソフト株式会社,,株式会社,東京都,中央区,銀座１丁目１５番７号ＭＡＣ銀座ビル３階,,13,102,1040061,,,2024-10-02,清算の結了等,,,2015-10-05,1,,,,,ケイティソフト,0
2168,9010405021796,登記記録の閉鎖等,0,2024-10-17,2024-09-27,エリスホールディングス一般社団法人,,その他の設立登記法人,東京都,港区,元赤坂１丁目１番７号,,13,103,1070051,,,2024-09-27,清算の結了等,,,2023-02-08,1,,,,,エリスホールディングス,0
2181,9010801025566,登記記録の閉鎖等,0,2024-10-17,2024-10-09,株式会社孫幸,,株式会社,東京都,大田区,大森中１丁目７番１９号大森パールメゾン１階,,13,111,1430014,,,2024-10-09,清算の結了等,,,2015-10-05,1,,,,,,0
2185,9010901024030,登記記録の閉鎖等,0,2024-10-17,2024-09-24,リバイタルコンサルティング株式会社,,株式会社,東京都,渋谷区,道玄坂１丁目１０番８号渋谷道玄坂東急ビル２Ｆ－Ｃ,,13,113,1500043,,,2024-09-24,清算の結了等,,,2015-10-05,1,,,,,リバイタルコンサルティング,0
2190,9011001104169,登記記録の閉鎖等,0,2024-10-17,2024-09-26,株式会社ＳＨＩＮＴＡＣＯ,,株式会社,東京都,港区,北青山２丁目１２番８－５０３号,,13,103,1070061,,,2024-09-26,清算の結了等,,,2015-10-05,1,,,,,シンタコ,0
2194,9011101098749,登記記録の閉鎖等,0,2024-10-17,2024-10-04,株式会社アクセル,,株式会社,東京都,豊島区,池袋１丁目１６－１７カワムラビル３Ｂ,,13,116,1700014,,,2024-10-04,清算の結了等,,,2022-05-10,1,,,,,アクセル,0
2201,9011301025206,登記記録の閉鎖等,0,2024-10-17,2024-10-03,株式会社ピノキオ・ドリームカンパニー,,株式会社,東京都,杉並区,高円寺南４丁目２６番１６号,,13,115,1660003,,,2024-10-03,合併による解散等,7011301024630,令和６年１０月１日東京都杉並区高円寺南四丁目２６番１６号ＦＰＮまごころホールディングス株式会社（7011301024630）に合併し解散,2019-07-18,1,,,,,ピノキオドリームカンパニー,0
2202,9011401007657,登記記録の閉鎖等,0,2024-10-17,2024-10-11,株式会社秀美,,株式会社,東京都,板橋区,前野町１丁目２９番１０号,,13,119,1740063,,,2024-10-11,合併による解散等,8010001002144,令和６年９月３０日東京都千代田区神田神保町三丁目５番地共同製本株式会社（8010001002144）に合併し解散,2015-10-05,1,,,,,,0
2233,9021002052267,登記記録の閉鎖等,0,2024-10-17,2024-10-16,有限会社瀬戸石材店,00013620,有限会社,神奈川県,小田原市,曽我原１７１番地,,14,206,2500206,,,2024-10-16,清算の結了等,,,2015-10-05,1,,,,,セトセキザイテン,0
2234,9021002068354,登記記録の閉鎖等,0,2024-10-17,2024-10-10,有限会社椿書房,,有限会社,神奈川県,逗子市,逗子７丁目１番６２号,,14,208,2490006,,,2024-10-10,清算の結了等,,,2015-10-05,1,,,,,ツバキショボウ,0
2236,9030001020176,登記記録の閉鎖等,0,2024-10-17,2024-10-11,株式会社キョウセイ,,株式会社,埼玉県,戸田市,笹目北町１番１号,,11,224,3350033,,,2024-10-11,合併による解散等,8010001002144,令和６年９月３０日東京都千代田区神田神保町三丁目５番地共同製本株式会社（8010001002144）に合併し解散,2015-10-05,1,,,,,キョウセイ,0
2237,9030001025910,登記記録の閉鎖等,0,2024-10-17,2024-10-10,株式会社大成設計,,株式会社,東京都,練馬区,下石神井３丁目２４番１０号,,13,120,1770042,,,2024-10-10,清算の結了等,,,2015-10-05,1,,,,,タイセイセッケイ,0
2238,9030001026966,登記記録の閉鎖等,0,2024-10-17,2024-10-07,山洋電機株式会社,,株式会社,埼玉県,入間市,大字二本木５５５番地２,,11,225,3580015,,,2024-10-07,清算の結了等,,,2015-10-05,1,,,,,サンヨウデンキ,0
2239,9030001034655,登記記録の閉鎖等,0,2024-10-17,2024-10-07,株式会社垳田建設,,株式会社,埼玉県,草加市,青柳５丁目４１番２５号,,11,221,3400002,,,2024-10-07,清算の結了等,,,2015-10-05,1,,,,,イゲタケンセツ,0
2248,9030002050536,登記記録の閉鎖等,0,2024-10-17,2024-09-24,有限会社一成通信,,有限会社,埼玉県,草加市,小山１丁目２番２－１０１号,,11,221,3400045,,,2024-09-24,清算の結了等,,,2015-10-05,1,,,,,,0
2266,9050002002122,登記記録の閉鎖等,0,2024-10-17,2024-10-08,有限会社田鍋時計店,,有限会社,茨城県,水戸市,南町３丁目６番３２号,,08,201,3100021,,,2024-10-08,清算の結了等,,,2015-10-05,1,,,,,タナベトケイテン,0
2269,9060001021353,登記記録の閉鎖等,0,2024-10-17,2024-10-11,株式会社正和自動車,,株式会社,栃木県,佐野市,栃本町２８１２番地３,,09,204,3270312,,,2024-10-11,清算の結了等,,,2015-10-05,1,,,,,セイワジドウシャ,0
2270,9060002034180,登記記録の閉鎖等,0,2024-10-17,2024-10-11,有限会社ウツミ・オフィス,,有限会社,栃木県,下都賀郡壬生町,寿町５番５号,,09,361,3210212,,,2024-10-11,清算の結了等,,,2015-10-05,1,,,,,ウツミオフィス,0
2276,9080002005056,登記記録の閉鎖等,0,2024-10-17,2024-10-10,有限会社フジナミビル,,有限会社,静岡県,静岡市葵区,安東１丁目８番２６号,,22,101,4200882,,,2024-10-10,清算の結了等,,,2015-10-05,1,,,,,フジナミビル,0
2278,9100001006085,登記記録の閉鎖等,0,2024-10-17,2024-10-02,株式会社アダチ,,株式会社,長野県,千曲市,大字鋳物師屋７２３番地７,,20,218,3870015,,,2024-10-02,清算の結了等,,,2015-10-05,1,,,,,アダチ,0
2282,9120001015852,登記記録の閉鎖等,0,2024-10-17,2024-10-15,株式会社日刊金属新聞社,,株式会社,大阪府,大阪市中央区,南新町１丁目１番１号,,27,128,5400024,,,2024-10-15,清算の結了等,,,2015-10-05,1,,,,,ニッカンキンゾクシンブンシャ,0
2320,9140005007431,登記記録の閉鎖等,0,2024-10-17,2024-10-15,上月生産森林組合,,その他の設立登記法人,兵庫県,佐用郡佐用町,上月４７８番地,,28,501,6795523,,,2024-10-15,清算の結了等,,,2015-10-05,1,,,,,コウヅキ,0
2322,9150001007558,登記記録の閉鎖等,0,2024-10-17,2024-10-02,アクアミル株式会社,,株式会社,奈良県,生駒市,真弓４丁目１５番１８号,,29,209,6300122,,,2024-10-02,清算の結了等,,,2015-10-05,1,,,,,,0
2329,9180001014353,登記記録の閉鎖等,0,2024-10-17,2024-10-02,株式会社キャスト,,株式会社,東京都,中央区,日本橋室町１丁目１１番７号,,13,102,1030022,,,2024-10-02,清算の結了等,,,2015-10-05,1,,,,,キャスト,0
2336,9180301037137,登記記録の閉鎖等,0,2024-10-17,2024-09-25,トラム株式会社,,株式会社,東京都,中央区,入船１丁目９－８ピエノアーク入船,,13,102,1040042,,,2024-09-25,清算の結了等,,,2023-02-27,1,,,,,トラム,0
2337,9180302011826,登記記録の閉鎖等,0,2024-10-17,2024-10-08,有限会社しろや,,有限会社,愛知県,田原市,高木町中畑下３１番地１,,23,231,4413612,,,2024-10-08,清算の結了等,,,2015-10-05,1,,,,,シロヤ,0
2341,9190003002025,登記記録の閉鎖等,0,2024-10-17,2024-10-11,合同会社はぎわら,,合同会社,三重県,津市,白山町二本木１００１番地４３３,,24,201,5152602,,,2024-10-11,清算の結了等,,,2015-10-05,1,,,,,ハギワラ,0
2377,9330002001871,登記記録の閉鎖等,0,2024-10-17,2024-10-08,有限会社尾関経営コンサルタント,,有限会社,熊本県,熊本市東区,月出７丁目１番６７号,,43,102,8620920,,,2024-10-08,清算の結了等,,,2015-10-05,1,,,,,オゼキケイエイコンサルタント,0
2379,9330002020723,登記記録の閉鎖等,0,2024-10-17,2024-10-11,株式会社ＴＣＫ,,株式会社,福岡県,福岡市東区,二又瀬１番１７号,,40,131,8120066,,,2024-10-11,合併による解散等,5013401005347,令和６年１０月１日東京都多摩市愛宕四丁目２５番地２京西テクノス株式会社（5013401005347）に合併し解散,2015-10-05,1,,,,,ティーシーケイ,0
2381,9340001001558,登記記録の閉鎖等,0,2024-10-17,2024-10-15,株式会社ケイ設計,,株式会社,鹿児島県,鹿児島市,鴨池１丁目２番１４号,,46,201,8900063,,,2024-10-15,清算の結了等,,,2015-10-05,1,,,,,ケイセッケイ,0
2399,9370003005364,登記記録の閉鎖等,0,2024-10-17,2024-09-30,合同会社マハリク,,合同会社,宮城県,仙台市若林区,伊在２丁目１６番地の１０,,04,103,9840038,,,2024-09-30,清算の結了等,,,2021-08-25,1,,,,,マハリク,0
2403,9380002012518,登記記録の閉鎖等,0,2024-10-17,2024-10-01,有限会社水野会計事務所,,有限会社,福島県,郡山市,鳴神２丁目１０９番地の２,,07,203,9630207,,,2024-10-01,清算の結了等,,,2015-10-05,1,,,,,ミズノカイケイジムショ,0
2414,9440002000581,登記記録の閉鎖等,0,2024-10-17,2024-10-11,有限会社エバー,,有限会社,北海道,函館市,新川町２番１２号,,01,202,0400032,,,2024-10-11,清算の結了等,,,2015-10-05,1,,,,,,0
2418,9450002003047,登記記録の閉鎖等,0,2024-10-17,2024-10-11,有限会社杉原工務店,,有限会社,北海道,旭川市,永山十三条２丁目２番２０号,,01,204,0798423,,,2024-10-11,清算の結了等,,,2015-10-05,1,,,,,スギハラコウムテン,0
2419,9450005004075,登記記録の閉鎖等,0,2024-10-17,2024-10-10,特定非営利活動法人コールサービスあんしん,,その他の設立登記法人,北海道,旭川市,永山四条４丁目１番５号,,01,204,0798414,,,2024-10-10,清算の結了等,,,2016-10-07,1,,,,,コールサービスアンシン,0
2425,9480002013167,登記記録の閉鎖等,0,2024-10-17,2024-10-15,有限会社星光産業,,有限会社,徳島県,阿南市,領家町土倉３０番地１,,36,204,7740011,,,2024-10-15,清算の結了等,,,2015-10-05,1,,,,,セイコウサンギョウ,0
2427,9500002016869,登記記録の閉鎖等,0,2024-10-17,2024-10-10,有限会社中越工業,,有限会社,愛媛県,新居浜市,北内町４丁目１０番６６号,,38,205,7920842,,,2024-10-10,清算の結了等,,,2015-10-05,1,,,,,,0
