sequenceNumber,corporateNumber,process,correct,updateDate,changeDate,name,nameImageId,kind,prefectureName,cityName,streetNumber,addressImageId,prefectureCode,cityCode,postCode,addressOutside,addressOutsideImageId,closeDate,closeCause,successorCorporateNumber,changeCause,assignmentDate,latest,enName,enPrefectureName,enCityName,enAddressOutside,furigana,hihyoji
9,1010001259666,新規,0,2025-10-27,2025-10-27,ＳＡＫＵＲＡ　Ｔｏｋｙｏ株式会社,,株式会社,東京都,中央区,銀座１丁目２２番１１号銀座大竹ビジデンス２Ｆ,,13,102,1040061,,,,,,,2025-10-27,1,,,,,サクラトウキョウ,0
10,1010001259798,新規,0,2025-10-27,2025-10-27,ＡｃｃｏｕｎＴｅｃｈ　Ｐａｒｔｎｅｒｓ株式会社,,株式会社,東京都,千代田区,神田神保町３丁目１１番６号神田神保町ビル１０階,,13,101,1010051,,,,,,,2025-10-27,1,,,,,アカアンテックパートナーズ,0
22,1010401193606,新規,0,2025-10-27,2025-10-27,株式会社Ａｌｔａｉｒｉｓ,,株式会社,東京都,港区,南青山５丁目１７番２号,,13,103,1070062,,,,,,,2025-10-27,1,,,,,アルタイル,0
23,1010401193886,新規,0,2025-10-27,2025-10-27,ＷＯＲＫＬＩＮＫ株式会社,,株式会社,東京都,港区,赤坂２丁目２３番１号アークヒルズ・フロントタワーＩｎＣｏｎｔｒｏｌ内,,13,103,1070052,,,,,,,2025-10-27,1,,,,,ワークリンク,0
24,1010401193903,新規,0,2025-10-27,2025-10-27,株式会社イチエン不動産,,株式会社,東京都,港区,北青山２丁目１２番８号ＢＩＺＳＭＡＲＴ青山,,13,103,1070061,,,,,,,2025-10-27,1,,,,,イチエンフドウサン,0
25,1010401193977,新規,0,2025-10-27,2025-10-27,和華蔵株式会社,,株式会社,東京都,港区,新橋６丁目１６番８号,,13,103,1050004,,,,,,,2025-10-27,1,,,,,ワカゾウ,0
31,1010403036390,新規,0,2025-10-27,2025-10-27,ＫｉＤＭＡ合同会社,,合同会社,東京都,港区,北青山２丁目７番１３号,,13,103,1070061,,,,,,,2025-10-27,1,,,,,キドマ,0
32,1010405024815,新規,0,2025-10-27,2025-10-27,一般社団法人神結び,,その他の設立登記法人,東京都,港区,南青山２丁目２番１５号ウィン青山９４２,,13,103,1070062,,,,,,,2025-10-27,1,,,,,カミムスビ,0
33,1010405024922,新規,0,2025-10-27,2025-10-27,一般社団法人ハンマーヘッドキャピタル,,その他の設立登記法人,東京都,港区,芝浦１丁目１番１号,,13,103,1050023,,,,,,,2025-10-27,1,,,,,ハンマーヘッドキャピタル,0
38,1010603011887,新規,0,2025-10-27,2025-10-27,合同会社Ｒｕｍｉｉｍ,,合同会社,東京都,江東区,毛利２丁目３番地９号Ｌ，ＣＡＳＡ住吉５０１,,13,108,1350001,,,,,,,2025-10-27,1,,,,,ルミイム,0
41,1010703007975,新規,0,2025-10-27,2025-10-27,合同会社常盤アセット,,合同会社,東京都,品川区,西大井１丁目１番１－３０７号,,13,109,1400015,,,,,,,2025-10-27,1,,,,,トキワアセット,0
46,1010801036728,新規,0,2025-10-27,2025-10-27,ＢＥＯ株式会社,,株式会社,東京都,大田区,南馬込２丁目７番２７－４１１号,,13,111,1430025,,,,,,,2025-10-27,1,,,,,ベオ,0
50,1011001173064,新規,0,2025-10-27,2025-10-27,株式会社ＤｏｎＷｏｒｒｙ,,株式会社,東京都,目黒区,原町１丁目７番８号ＣｒａｆｔＶｉｌｌａｇｅＮＩＳＨＩＫＯＹＡＭＡ,,13,110,1520011,,,,,,,2025-10-27,1,,,,,ドンウォリー,0
54,1011003022830,新規,0,2025-10-27,2025-10-27,合同会社ＪＡＰＡＮ　ＡＩ蓄電池発電センター６号,,合同会社,東京都,渋谷区,桜丘町２２番１９－４階,,13,113,1500031,,,,,,,2025-10-27,1,,,,,,0
68,1011401027514,新規,0,2025-10-27,2025-10-27,鴻晟株式会社,,株式会社,東京都,板橋区,栄町１８番７－１０５号,,13,119,1730015,,,,,,,2025-10-27,1,,,,,コウセイ,0
69,1011501032752,新規,0,2025-10-27,2025-10-27,ＹＮＴＥＣ株式会社,,株式会社,東京都,荒川区,町屋２丁目５番１６号,,13,118,1160001,,,,,,,2025-10-27,1,,,,,ワイエヌテック,0
74,1012401043749,新規,0,2025-10-27,2025-10-27,株式会社ネクストクルー,,株式会社,東京都,府中市,新町１丁目４３番地の６メゾンパステル１０３号室,,13,206,1830052,,,,,,,2025-10-27,1,,,,,ネクストクルー,0
79,1013301055207,新規,0,2025-10-27,2025-10-27,株式会社ワイエス,,株式会社,東京都,豊島区,雑司が谷３丁目１１番４－１００２号,,13,116,1710032,,,,,,,2025-10-27,1,,,,,ワイエス,0
101,1030003027912,新規,0,2025-10-27,2025-10-27,Ｍａｉｓｏｎ　Ｇａｓｐａｒｄ合同会社,,合同会社,埼玉県,さいたま市北区,土呂町１４５６番地３第２１大宮パークサイドマンション１０５,,11,102,3310804,,,,,,,2025-10-27,1,,,,,メゾンガスパル,0
102,1030003027929,新規,0,2025-10-27,2025-10-27,三和合同会社,,合同会社,埼玉県,蕨市,南町２丁目６番１７号第３エンゼルハイツ３０２号,,11,223,3350003,,,,,,,2025-10-27,1,,,,,サンワ,0
103,1040005022902,新規,0,2025-10-27,2025-10-27,医療法人社団光あるみらい,,その他の設立登記法人,千葉県,千葉市中央区,新田町１番１０号千葉テクノプラザ５階,,12,101,2600027,,,,,,,2025-10-27,1,,,,,ヒカリアルミライ,0
105,1050005013719,新規,0,2025-10-27,2025-10-27,一般社団法人ラブアニマル,,その他の設立登記法人,茨城県,笠間市,下郷４４３９番地１５,,08,216,3190202,,,,,,,2025-10-27,1,,,,,ラブアニマル,0
110,1060001038710,新規,0,2025-10-27,2025-10-27,株式会社翔建設,,株式会社,栃木県,那須塩原市,東三島１丁目１０４番地５,,09,213,3292751,,,,,,,2025-10-27,1,,,,,ショウケンセツ,0
113,1070001043478,新規,0,2025-10-27,2025-10-27,Ｔｅｒｒａｃｅ株式会社,,株式会社,群馬県,前橋市,大友町３丁目２４番地１号ホテル１－２－３前橋マーキュリーＥＡＳＴ７階,,10,201,3710847,,,,,,,2025-10-27,1,,,,,,0
117,1080401028235,新規,0,2025-10-27,2025-10-27,株式会社ベル,,株式会社,静岡県,浜松市中央区,神明町３１４番地の５,,22,138,4300931,,,,,,,2025-10-27,1,,,,,ベル,0
120,1080403005372,新規,0,2025-10-27,2025-10-27,合同会社ｅｒａ‐ｃｏｎｎｅｃｔ,,合同会社,静岡県,浜松市中央区,中田町２１－９,,22,138,4350057,,,,,,,2025-10-27,1,,,,,イーラコネクト,0
121,1090003002926,新規,0,2025-10-27,2025-10-27,合同会社月水金,,合同会社,山梨県,北杜市,小淵沢町上笹尾１６７３番地２,,19,209,4080041,,,,,,,2025-10-27,1,,,,,ゲッスイキン,0
128,1120001281485,新規,0,2025-10-27,2025-10-27,桜クラウドテクノロジー株式会社,,株式会社,大阪府,大阪市北区,梅田１丁目２番２号大阪駅前第二ビル２Ｆ８－１－１,,27,127,5300001,,,,,,,2025-10-27,1,,,,,サクラクラウドテクノロジー,0
136,1120003031013,新規,0,2025-10-27,2025-10-27,合同会社ＴＨＥ　Ｇ,,合同会社,大阪府,大阪市淀川区,塚本５丁目９－１８－３階,,27,123,5320026,,,,,,,2025-10-27,1,,,,,ザージ,0
137,1120003031095,新規,0,2025-10-27,2025-10-27,ＢＩＧ　ｉｎ　Ｊａｐａｎ　ｔｒａｖｅｌ合同会社,,合同会社,大阪府,大阪市都島区,高倉町３丁目６番１－７０２号,,27,102,5340011,,,,,,,2025-10-27,1,,,,,ビッグインジャパントラベル,0
139,1120101072677,新規,0,2025-10-27,2025-10-27,株式会社エコファ,,株式会社,大阪府,和泉市,伯太町４丁目３－１１,,27,219,5940023,,,,,,,2025-10-27,1,,,,,エコファ,0
140,1120101072702,新規,0,2025-10-27,2025-10-27,株式会社ＮＣＰＬＵＳ,,株式会社,大阪府,堺市西区,堀上緑町１丁３番１０号,,27,144,5938305,,,,,,,2025-10-27,1,,,,,エヌシープラス,0
142,1120103006807,新規,0,2025-10-27,2025-10-27,合同会社３６ｑｂ,,合同会社,大阪府,堺市東区,北野田１番地６サウスタワー２１０２号,,27,143,5998123,,,,,,,2025-10-27,1,,,,,ミロキューブ,0
146,1130001080878,新規,0,2025-10-27,2025-10-27,株式会社リトレイル,,株式会社,京都府,京都市左京区,大原野村町４３８番地２,,26,103,6011247,,,,,,,2025-10-27,1,,,,,リトレイル,0
147,1130003010882,新規,0,2025-10-27,2025-10-27,合同会社スタンダード,,合同会社,京都府,京都市山科区,小野葛籠尻町２２番地４－２階,,26,110,6078259,,,,,,,2025-10-27,1,,,,,スタンダード,0
154,1140005027676,新規,0,2025-10-27,2025-10-27,一般社団法人ワーク・ライフ・コンパス,,その他の設立登記法人,兵庫県,神戸市中央区,磯辺通１丁目１番１８号カサベラ国際プラザビル７０７号室,,28,110,6510084,,,,,,,2025-10-27,1,,,,,,0
157,1180001169262,新規,0,2025-10-27,2025-10-27,株式会社ユーダイニング,,株式会社,愛知県,名古屋市中村区,名駅５丁目３３番２１号アクアタウン納屋橋３１０６号,,23,105,4500002,,,,,,,2025-10-27,1,,,,,ユーダイニング,0
158,1180001169279,新規,0,2025-10-27,2025-10-27,アイルック株式会社,,株式会社,愛知県,名古屋市熱田区,新尾頭１丁目４番２０号,,23,109,4560018,,,,,,,2025-10-27,1,,,,,アイルック,0
161,1180003029290,新規,0,2025-10-27,2025-10-27,合同会社アイベル,,合同会社,愛知県,名古屋市守山区,幸心３丁目２０９番地,,23,113,4630079,,,,,,,2025-10-27,1,,,,,アイベル,0
163,1180301040346,新規,0,2025-10-27,2025-10-27,株式会社あい,,株式会社,愛知県,刈谷市,板倉町１丁目２番地８,,23,210,4480801,,,,,,,2025-10-27,1,,,,,アイ,0
167,1180305009742,新規,0,2025-10-27,2025-10-27,一般社団法人生活レスキュー適正表示機構,,その他の設立登記法人,愛知県,蒲郡市,形原町平谷１６番地１,,23,214,4430104,,,,,,,2025-10-27,1,,,,,セイカツレスキューテキセイヒョウジキコウ,0
172,1220001026995,新規,0,2025-10-27,2025-10-27,株式会社たくあん,,株式会社,石川県,金沢市,菊川１丁目２７番３号,,17,201,9200967,,,,,,,2025-10-27,1,,,,,タクアン,0
174,1220003004149,新規,0,2025-10-27,2025-10-27,暮らしコンディショニング合同会社,,合同会社,石川県,金沢市,伏見台３丁目７番１２号,,17,201,9218177,,,,,,,2025-10-27,1,,,,,クラシコンディショニング,0
188,1290001111972,新規,0,2025-10-27,2025-10-27,Ｎ＆Ｋコンサルティング株式会社,,株式会社,福岡県,太宰府市,国分１丁目１番３３－２０８号,,40,221,8180132,,,,,,,2025-10-27,1,,,,,エヌアンドケイコンサルティング,0
194,1290003017573,新規,0,2025-10-27,2025-10-27,合同会社Ｒｅｖｒｉｏ　Ｃａｓｔｉｎｇ,,合同会社,福岡県,福岡市南区,鶴田３丁目２６－６,,40,134,8111352,,,,,,,2025-10-27,1,,,,,レヴリオキャスティング,0
195,1290003017581,新規,0,2025-10-27,2025-10-27,合同会社リブインマネジメント,,合同会社,福岡県,春日市,惣利５丁目９５番地,,40,218,8160813,,,,,,,2025-10-27,1,,,,,,0
200,1290801031973,新規,0,2025-10-27,2025-10-27,株式会社パッショーネソリッソ,,株式会社,福岡県,北九州市八幡西区,黒崎３丁目７番７号,,40,109,8060021,,,,,,,2025-10-27,1,,,,,パッショーネソリッソ,0
202,1320001021409,新規,0,2025-10-27,2025-10-27,宝鐘カンパニー株式会社,,株式会社,大分県,大分市,畑中４丁目７番８号アイリス南大分ＩＩ１０７,00141260,44,201,8700856,,,,,,,2025-10-27,1,,,,,ホウショウカンパニー,0
213,1370001053174,新規,0,2025-10-27,2025-10-27,エンパシー株式会社,,株式会社,宮城県,仙台市泉区,歩坂町５５番１６号アクティブパレス白百合ヶ丘Ｄ５－８号,,04,105,9813106,,,,,,,2025-10-27,1,,,,,エンパシー,0
222,1420001019319,新規,0,2025-10-27,2025-10-27,株式会社なかじま商会,,株式会社,青森県,むつ市,大畑町正津川平１１４番地６７,,02,208,0394402,,,,,,,2025-10-27,1,,,,,ナカジマショウカイ,0
226,1430001095532,新規,0,2025-10-27,2025-10-27,株式会社渡辺,,株式会社,北海道,苫小牧市,北栄町５丁目１番４８号,,01,213,0591304,,,,,,,2025-10-27,1,,,,,ワタナベ,0
230,1460003001072,新規,0,2025-10-27,2025-10-27,合同会社ｅｑｕａｌ,,合同会社,北海道,釧路市,愛国東１丁目１４番地７ロコハウス１Ｆ,,01,206,0850058,,,,,,,2025-10-27,1,,,,,,0
234,1490001011194,新規,0,2025-10-27,2025-10-27,株式会社カミカモス,,株式会社,高知県,高知市,大膳町５７番地１,,39,201,7800926,,,,,,,2025-10-27,1,,,,,,0
237,1700150132703,新規,0,2025-10-27,2025-10-27,ＲＩＤＨＷＡ　ＭＯＴＯＲＳ　ＰＶＴ　ＬＴＤ,,外国会社等,神奈川県,厚木市,山際８６２－１オリエントビルＮＯ．６－２０２号室,,14,212,2430803,スリランカ民主社会主義共和国、２８７、カッパルガマ、カラーウェワ・ヴィジタプラ、アヌラダプラ,,,,,,2025-10-27,1,,,,,リドワモータースプライベツドリミテツド,0
238,1700150132711,新規,0,2025-10-27,2025-10-27,ＣＲＥＳＴ　ＴＲＡＤＩＮＧ　ＬＡＮＫＡ　ＰＶＴ　ＬＴＤ,,外国会社等,神奈川県,座間市,栗原１１３８－１,,14,216,2520013,スリランカ民主社会主義共和国、ＮＯ．８２、第６マイルポスト、キャンディロード、マダワラバザール,,,,,,2025-10-27,1,,,,,クレストトレーデイング,0
248,2010001259649,新規,0,2025-10-27,2025-10-27,ＫＴＣＨ株式会社,,株式会社,東京都,千代田区,神田神保町１丁目８－１神保町ＨＹビル６階,,13,101,1010051,,,,,,,2025-10-27,1,,,,,ケーティーシーエイチ,0
249,2010001259715,新規,0,2025-10-27,2025-10-27,株式会社ＪＤＲＩＶＥ,,株式会社,東京都,中央区,八重洲２丁目１番１号ＹＡＮＭＡＲＴＯＫＹＯ１２階,,13,102,1040028,,,,,,,2025-10-27,1,,,,,ジドライブ,0
250,2010001259748,新規,0,2025-10-27,2025-10-27,中部キャピタル株式会社,,株式会社,東京都,中央区,銀座６丁目１０番１号,,13,102,1040061,,,,,,,2025-10-27,1,,,,,チュウブキャピタル,0
251,2010003049156,新規,0,2025-10-27,2025-10-27,ブルーフレイム１合同会社,,合同会社,東京都,中央区,日本橋１丁目４番１号,,13,102,1030027,,,,,,,2025-10-27,1,,,,,ブルーフレイムワン,0
252,2010005040831,新規,0,2025-10-27,2025-10-27,一般社団法人広告主・パブリッシャー透明性推進協議会,,その他の設立登記法人,東京都,中央区,銀座１丁目２２番１１号銀座大竹ビジデンス２Ｆ,,13,102,1040061,,,,,,,2025-10-27,1,,,,,コウコクヌシパブリッシャートウメイセイスイシンギョウギカイ,0
261,2010401193852,新規,0,2025-10-27,2025-10-27,株式会社Ｎ＆Ｌａｄｙ,,株式会社,東京都,港区,北青山１丁目３番１号アールキューブ青山３階,,13,103,1070061,,,,,,,2025-10-27,1,,,,,エヌレディ,0
262,2010401193869,新規,0,2025-10-27,2025-10-27,ＮＯＲＴＨ＆ＳＯＵＴＨ株式会社,,株式会社,東京都,港区,芝大門１丁目２－１４,,13,103,1050012,,,,,,,2025-10-27,1,,,,,ノースアンドサウス,0
263,2010401193877,新規,0,2025-10-27,2025-10-27,株式会社ＢＷ,,株式会社,東京都,港区,赤坂２丁目１５－１２パール赤坂ビル３０６,,13,103,1070052,,,,,,,2025-10-27,1,,,,,ビーダブル,0
264,2010401193910,新規,0,2025-10-27,2025-10-27,株式会社モンゴル医療協力機構,,株式会社,東京都,港区,南青山１丁目２４番１号,,13,103,1070062,,,,,,,2025-10-27,1,,,,,モンゴルイリョウキョウリョクキコウ,0
265,2010401193927,新規,0,2025-10-27,2025-10-27,株式会社ｋｏｉｋｉ,,株式会社,東京都,港区,北青山１丁目３－３三橋ビル３階,,13,103,1070061,,,,,,,2025-10-27,1,,,,,コイキ,0
266,2010401194033,新規,0,2025-10-27,2025-10-27,株式会社いってらっしゃい,,株式会社,東京都,港区,六本木３丁目８番５－１０３号,,13,103,1060032,,,,,,,2025-10-27,1,,,,,イッテラッシャイ,0
267,2010401194066,新規,0,2025-10-27,2025-10-27,株式会社Ｓａｋｕｒａ　Ｄｒｅａｍ　Ｓｔｕｄｉｏ,,株式会社,東京都,港区,浜松町２丁目２－１５浜松町ダイヤビル２Ｆ,,13,103,1050013,,,,,,,2025-10-27,1,,,,,サクラドリームスタジオ,0
268,2010401194108,新規,0,2025-10-27,2025-10-27,ウイルプラスモトーレン東京株式会社,,株式会社,東京都,港区,芝５丁目１３番１５号,,13,103,1080014,,,,,,,2025-10-27,1,,,,,ウイルプラスモトーレントウキョウ,0
272,2010405024822,新規,0,2025-10-27,2025-10-27,一般社団法人縁愛夢,,その他の設立登記法人,東京都,港区,高輪３丁目１１番３号,,13,103,1080074,,,,,,,2025-10-27,1,,,,,エンアイム,0
274,2010701048533,新規,0,2025-10-27,2025-10-27,株式会社アイデアス,,株式会社,東京都,品川区,西五反田７丁目１番９号五反田ＨＳビル７Ｆ,,13,109,1410031,,,,,,,2025-10-27,1,,,,,アイデアス,0
275,2010801036719,新規,0,2025-10-27,2025-10-27,株式会社ＦＴ,,株式会社,東京都,大田区,山王２丁目１－８山王アーバンライフ３０６,,13,111,1430023,,,,,,,2025-10-27,1,,,,,エフティー,0
276,2010803005589,新規,0,2025-10-27,2025-10-27,合同会社ＮＡＭＡＲＡカンパニー,,合同会社,東京都,大田区,千鳥３丁目２４番７号千鳥ビル３０２,,13,111,1460083,,,,,,,2025-10-27,1,,,,,ナマラカンパニー,0
280,2010903010308,新規,0,2025-10-27,2025-10-27,Ａ‐ｓｉｄｅ合同会社,,合同会社,東京都,世田谷区,野沢４丁目２３―１２―６０１,,13,112,1540003,,,,,,,2025-10-27,1,,,,,エーサイド,0
287,2011001173055,新規,0,2025-10-27,2025-10-27,株式会社ＡＯＫＯＴＯＰ,,株式会社,東京都,渋谷区,恵比寿西２丁目８番４号ＥＸ恵比寿西ビル５階,,13,113,1500021,,,,,,,2025-10-27,1,,,,,アオコトップ,0
288,2011001173088,新規,0,2025-10-27,2025-10-27,株式会社Ｃｏｅｌｉａ,,株式会社,東京都,渋谷区,恵比寿４丁目２０番３号恵比寿ガーデンプレイスタワー１８階,,13,113,1500013,,,,,,,2025-10-27,1,,,,,コエリア,0
289,2011001173096,新規,0,2025-10-27,2025-10-27,Ｏｐｅｎｓｐａｃｅ株式会社,,株式会社,東京都,渋谷区,神南１丁目１１番４号ＦＰＧリンクス神南５階,,13,113,1500041,,,,,,,2025-10-27,1,,,,,オープンスペース,0
294,2011101113654,新規,0,2025-10-27,2025-10-27,株式会社マチュピチュ,,株式会社,東京都,新宿区,南山伏町１番１８－２０２号,,13,104,1620854,,,,,,,2025-10-27,1,,,,,マチュピチュ,0
295,2011101113687,新規,0,2025-10-27,2025-10-27,曜川株式会社,,株式会社,東京都,新宿区,新宿２丁目１２番１６号セントフォービル４０２－Ａ,,13,104,1600022,,,,,,,2025-10-27,1,,,,,ヨウガワ,0
296,2011101113737,新規,0,2025-10-27,2025-10-27,株式会社ＡＣＥ　ＬＩＮＥ,,株式会社,東京都,新宿区,百人町１丁目２２－３－５Ｆ,,13,104,1690073,,,,,,,2025-10-27,1,,,,,エースライン,0
298,2011103016558,新規,0,2025-10-27,2025-10-27,長頸鹿合同会社,,合同会社,東京都,新宿区,百人町３丁目２６番１－５２０号パークアクシス新宿百人町,,13,104,1690073,,,,,,,2025-10-27,1,,,,,キリン,0
299,2011105011615,新規,0,2025-10-27,2025-10-27,一般社団法人日本自然環境研究機構,,その他の設立登記法人,東京都,新宿区,榎町７８番地,,13,104,1620806,,,,,,,2025-10-27,1,,,,,ニホンシゼンカンキョウケンキュウキコウ,0
305,2011403004881,新規,0,2025-10-27,2025-10-27,合同会社巴,,合同会社,東京都,板橋区,東坂下２丁目１０－７－Ｆ８号,,13,119,1740042,,,,,,,2025-10-27,1,,,,,トモエ,0
306,2011803007154,新規,0,2025-10-27,2025-10-27,合同会社アリモプラス,,合同会社,東京都,葛飾区,堀切１丁目２４番１７号,,13,122,1240006,,,,,,,2025-10-27,1,,,,,アリモプラス,0
309,2012401043748,新規,0,2025-10-27,2025-10-27,株式会社らふてる,,株式会社,東京都,小金井市,東町４丁目２０番３号佐藤ビル１階,,13,210,1840011,,,,,,,2025-10-27,1,,,,,ラフテル,0
314,2012803003911,新規,0,2025-10-27,2025-10-27,合同会社トライサイト,,合同会社,東京都,立川市,砂川町８丁目６１番地の１藤和シティホームズ武蔵砂川１０１号,,13,202,1900031,,,,,,,2025-10-27,1,,,,,トライサイト,0
315,2013101009849,新規,0,2025-10-27,2025-10-27,株式会社リンクス,,株式会社,東京都,福生市,大字福生８８３番地３バームハイツ福生弐番館２０１号室,,13,218,1970011,,,,,,,2025-10-27,1,,,,,リンクス,0
323,2020001165474,新規,0,2025-10-27,2025-10-27,永楽商貿株式会社,,株式会社,神奈川県,横浜市神奈川区,神大寺１丁目２１－２０－１０３,,14,102,2210801,,,,,,,2025-10-27,1,,,,,エイラクショウボウ,0
328,2021005013446,新規,0,2025-10-27,2025-10-27,一般社団法人ＴＡＮＫＥ,,その他の設立登記法人,神奈川県,中郡大磯町,大磯３６５番地３,,14,341,2550003,,,,,,,2025-10-27,1,,,,,タンケ,0
334,2030001169417,新規,0,2025-10-27,2025-10-27,越禾源株式会社,,株式会社,埼玉県,富士見市,貝塚１丁目７番７号,,11,235,3540012,,,,,,,2025-10-27,1,,,,,エツカゲン,0
335,2030003027944,新規,0,2025-10-27,2025-10-27,ＳＵＢＨＡＮＡＬＬＡＨ　ＭＯＴＯＲＳ合同会社,,合同会社,埼玉県,蕨市,北町４丁目４番９号,,11,223,3350001,,,,,,,2025-10-27,1,,,,,スブハナラモーターズ,0
343,2040001140987,新規,0,2025-10-27,2025-10-27,ＲＯＹＡＬ株式会社,,株式会社,千葉県,船橋市,二和東１丁目４番６－２号,,12,204,2740805,,,,,,,2025-10-27,1,,,,,ロイヤル,0
345,2040003028611,新規,0,2025-10-27,2025-10-27,合同会社Ｈ＆Ｑ,,合同会社,千葉県,松戸市,古ケ崎４丁目３５４１－２３号,,12,207,2710068,,,,,,,2025-10-27,1,,,,,エイチアンドキュー,0
359,2080401028234,新規,0,2025-10-27,2025-10-27,Ｆｅｌｉｎｋａ株式会社,,株式会社,静岡県,磐田市,加茂９０３番地１,,22,211,4380804,,,,,,,2025-10-27,1,,,,,フェリンカ,0
375,2120001281146,新規,0,2025-10-27,2025-10-27,Ｊａｐａｎ　ＢＮＢ株式会社,,株式会社,大阪府,大阪市浪速区,元町３丁目１－３第６辻本ビル２０１,,27,111,5560016,,,,,,,2025-10-27,1,,,,,ジャパンビーエヌビー,0
376,2120001281443,新規,0,2025-10-27,2025-10-27,ＷＺ株式会社,,株式会社,大阪府,大阪市此花区,春日出北３丁目１３番３７－４０７号,,27,104,5540021,,,,,,,2025-10-27,1,,,,,ダブルゼット,0
377,2120001281476,新規,0,2025-10-27,2025-10-27,株式会社アイエス,,株式会社,大阪府,大阪市東淀川区,南江口３丁目６番１９号,,27,114,5330003,,,,,,,2025-10-27,1,,,,,アイエス,0
380,2120005025219,新規,0,2025-10-27,2025-10-27,一般社団法人まちの架け橋ラボ,,その他の設立登記法人,大阪府,大阪市北区,梅田１丁目２番２号大阪駅前第２ビル１２－１２,,27,127,5300001,,,,,,,2025-10-27,1,,,,,マチノカケハシラボ,0
388,2120103006806,新規,0,2025-10-27,2025-10-27,金康合同会社,,合同会社,大阪府,堺市北区,東三国ヶ丘町４丁２番１０－５０３号室,,27,146,5918046,,,,,,,2025-10-27,1,,,,,キンコウ,0
392,2122001039805,新規,0,2025-10-27,2025-10-27,株式会社Ｎｏ　ｎａｍｅ,,株式会社,大阪府,東大阪市,花園東町２丁目７番７号,,27,227,5780931,,,,,,,2025-10-27,1,,,,,ノーネーム,0
395,2130001080869,新規,0,2025-10-27,2025-10-27,株式会社ＡＹＡＫＡＳＨＩ,,株式会社,京都府,京都市上京区,油小路中立売下ル甲斐守町９７番地,,26,102,6020000,,,,,,,2025-10-27,1,,,,,アヤカシ,0
406,2140003022785,新規,0,2025-10-27,2025-10-27,合同会社堅和,,合同会社,兵庫県,尼崎市,立花町２丁目１５番１１号フジパレス立花町二丁目二番館１０２号,,28,202,6610025,,,,,,,2025-10-27,1,,,,,ケンワ,0
411,2160005011462,新規,0,2025-10-27,2025-10-27,京滋労働組合,,その他の設立登記法人,滋賀県,大津市,あかね町１－８番地,,25,201,5200003,,,,,,,2025-10-27,1,,,,,ケイジ,0
418,2180001169245,新規,0,2025-10-27,2025-10-27,株式会社ワインリパブリック,,株式会社,愛知県,清須市,阿原宮前９６番地大生コーポ１０２,,23,233,4520901,,,,,,,2025-10-27,1,,,,,ワインリパブリック,0
454,2290003017639,新規,0,2025-10-27,2025-10-27,合同会社瞬輝,,合同会社,福岡県,福岡市中央区,清川１丁目１３番１－３０１号カトラス天神南,,40,133,8100005,,,,,,,2025-10-27,1,,,,,シュンキ,0
455,2290801031956,新規,0,2025-10-27,2025-10-27,ｌｅａ株式会社,,株式会社,福岡県,田川市,大字伊田４９７８番地松原２区松原団地３３－４－３,,40,206,8250002,,,,,,,2025-10-27,1,,,,,レア,0
456,2300001014396,新規,0,2025-10-27,2025-10-27,株式会社西部商会,,株式会社,佐賀県,西松浦郡有田町,外尾山丙１６９５番地７,,41,401,8440025,,,,,,,2025-10-27,1,,,,,セイブショウカイ,0
457,2320001021408,新規,0,2025-10-27,2025-10-27,マツオ電工株式会社,,株式会社,大分県,日田市,大字有田９６１番地２,,44,204,8770000,,,,,,,2025-10-27,1,,,,,マツオデンコウ,0
458,2320001021416,新規,0,2025-10-27,2025-10-27,井上酒造株式会社,,株式会社,大分県,日田市,大字大肥２２２０番地の１,,44,204,8770000,,,,,,,2025-10-27,1,,,,,イノウエシュゾウ,0
470,2370001053173,新規,0,2025-10-27,2025-10-27,風かける東北錫花苑育英会株式会社,,株式会社,宮城県,仙台市宮城野区,田子字鳥井１０３番地,,04,102,9830021,,,,,,,2025-10-27,1,,,,,カゼカケルトウホクスズカエンイクエイカイ,0
480,2400003003552,新規,0,2025-10-27,2025-10-27,合同会社ゆめのエステート,,合同会社,岩手県,盛岡市,みたけ３丁目３７番２０号,,03,201,0200122,,,,,,,2025-10-27,1,,,,,ユメノエステート,0
487,2430001095548,新規,0,2025-10-27,2025-10-27,株式会社トップアグリ,,株式会社,北海道,札幌市西区,二十四軒一条３丁目１番５号,,01,107,0630801,,,,,,,2025-10-27,1,,,,,トップアグリ,0
490,2430003018250,新規,0,2025-10-27,2025-10-27,Ｅｉｇｈｔ　Ｃａｓｔｌｅ合同会社,,合同会社,北海道,札幌市中央区,南九条西１０丁目１番５号,,01,101,0640809,,,,,,,2025-10-27,1,,,,,エイトキャッスル,0
491,2430003018267,新規,0,2025-10-27,2025-10-27,合同会社ＹＵＲＡＧＩ,,合同会社,北海道,札幌市北区,拓北四条２丁目１２番１７号,,01,102,0028064,,,,,,,2025-10-27,1,,,,,ユラギ,0
496,2700150132710,新規,0,2025-10-27,2025-10-27,アジア不織布協会,,その他,大阪府,大阪市中央区,備後町２丁目５－８　綿業会館本館４Ｆ,,27,128,5410051,,,,,,,2025-10-27,1,,,,,アジアフショクフキョウカイ,0
508,3010001259664,新規,0,2025-10-27,2025-10-27,株式会社三浦,,株式会社,東京都,中央区,銀座１丁目２２－１１銀座大竹ビジデンス２階,,13,102,1040061,,,,,,,2025-10-27,1,,,,,ミウラ,0
509,3010001259771,新規,0,2025-10-27,2025-10-27,Ｅｒａｎｅｏｓ　Ｊａｐａｎ株式会社,,株式会社,東京都,中央区,日本橋室町４丁目３番９号,,13,102,1030022,,,,,,,2025-10-27,1,,,,,エラネオスジャパン,0
511,3010003049163,新規,0,2025-10-27,2025-10-27,トレジアス合同会社,,合同会社,東京都,千代田区,神田須田町１丁目７番８号ＶＯＲＴ秋葉原ＩＶ２Ｆ,00141272,13,101,1010041,,,,,,,2025-10-27,1,,,,,トレジアス,0
512,3010005040830,新規,0,2025-10-27,2025-10-27,一般社団法人アジア・エグゼクティブ・クラブ,,その他の設立登記法人,東京都,中央区,日本橋室町１丁目１１番１２号日本橋水野ビル７階,,13,102,1030022,,,,,,,2025-10-27,1,,,,,アジアエグゼクティブクラブ,0
513,3010005040839,新規,0,2025-10-27,2025-10-27,一般社団法人ＣＫＦ,,その他の設立登記法人,東京都,千代田区,丸の内１丁目４番１号東京共同会計事務所内,,13,101,1000005,,,,,,,2025-10-27,1,,,,,シーケイエフ,0
529,3010401193711,新規,0,2025-10-27,2025-10-27,株式会社ネクストページ,,株式会社,東京都,港区,赤坂９丁目１番７号赤坂レジデンシャルホテル４０８号,,13,103,1070052,,,,,,,2025-10-27,1,,,,,ネクストページ,0
530,3010401193884,新規,0,2025-10-27,2025-10-27,八幡リース株式会社,,株式会社,東京都,港区,西麻布３丁目２１番１５号,,13,103,1060031,,,,,,,2025-10-27,1,,,,,ヤハタリース,0
531,3010401193926,新規,0,2025-10-27,2025-10-27,株式会社ＪｅｗｅＩＫＴ,,株式会社,東京都,港区,白金６丁目１６番２０－１２０１号,,13,103,1080072,,,,,,,2025-10-27,1,,,,,ジュエルアイケーティー,0
532,3010401193942,新規,0,2025-10-27,2025-10-27,Ｍａｉｓｏｎ　Ｅｌａｎｉｑｕｅ株式会社,,株式会社,東京都,港区,南青山２丁目２番１５号,,13,103,1070062,,,,,,,2025-10-27,1,,,,,メゾンエラニーク,0
533,3010401194032,新規,0,2025-10-27,2025-10-27,株式会社デコレート,,株式会社,東京都,港区,芝浦４丁目１９－１芝浦アイランドケープタワー２４０３,,13,103,1080023,,,,,,,2025-10-27,1,,,,,デコレート,0
538,3010403036307,新規,0,2025-10-27,2025-10-27,合同会社Ｍ企画,,合同会社,東京都,港区,南青山２丁目２番１５－９２９号,,13,103,1070062,,,,,,,2025-10-27,1,,,,,エムキカク,0
539,3010403036455,新規,0,2025-10-27,2025-10-27,合同会社Ｎｅｅｄｌｅｓ,,合同会社,東京都,港区,虎ノ門１丁目１番１８号ヒューリック虎ノ門ビル９階Ｌ＆Ｐ司法書士法人内,,13,103,1050001,,,,,,,2025-10-27,1,,,,,ニードルズ,0
546,3010805003219,新規,0,2025-10-27,2025-10-27,一般社団法人ヤドカリズム,,その他の設立登記法人,東京都,大田区,西蒲田７丁目４８番３号大越ビル３階,,13,111,1440051,,,,,,,2025-10-27,1,,,,,ヤドカリズム,0
555,3011001173046,新規,0,2025-10-27,2025-10-27,株式会社ＭＩＲＯＫＵ　ＡＲＴ,,株式会社,東京都,目黒区,南１丁目３番４号ノヴァ目黒南２０５,,13,110,1520013,,,,,,,2025-10-27,1,,,,,ミロクアート,0
556,3011001173062,新規,0,2025-10-27,2025-10-27,株式会社マウンド,,株式会社,東京都,渋谷区,恵比寿西１丁目３３番１５号,,13,113,1500021,,,,,,,2025-10-27,1,,,,,マウンド,0
557,3011003022829,新規,0,2025-10-27,2025-10-27,合同会社ＪＡＰＡＮ　ＡＩ蓄電池発電センター５号,,合同会社,東京都,渋谷区,桜丘町２２番１９－４階,,13,113,1500031,,,,,,,2025-10-27,1,,,,,ジャパンエーアイチクデンチハツデンセンターゴゴウ,0
562,3011101113653,新規,0,2025-10-27,2025-10-27,Ｉｃｈｉｃａ株式会社,,株式会社,東京都,新宿区,新宿５丁目１８－１１タナカビル２０１,,13,104,1600022,,,,,,,2025-10-27,1,,,,,イチカ,0
563,3011101113694,新規,0,2025-10-27,2025-10-27,祥雲バイオ株式会社,,株式会社,東京都,新宿区,西新宿７丁目２２番３４号新宿原田ビル１（３０３号室）,,13,104,1600023,,,,,,,2025-10-27,1,,,,,ショウウンバイオ,0
564,3011101113728,新規,0,2025-10-27,2025-10-27,早稲田大学インパクト・キャピタル株式会社,,株式会社,東京都,新宿区,西早稲田１丁目２２番３号,,13,104,1690051,,,,,,,2025-10-27,1,,,,,ワセダダイガクインパクトキャピタル,0
571,3011801046946,新規,0,2025-10-27,2025-10-27,株式会社Ｌｏｇｏｓ　Ｔｅｃｈ,,株式会社,東京都,葛飾区,東四つ木３丁目９番８号セレスティア東四つ木ＩＩ２０３号室,00141269,13,122,1240014,,,,,,,2025-10-27,1,,,,,ロゴステック,0
577,3012403007428,新規,0,2025-10-27,2025-10-27,合同会社チャマ,,合同会社,東京都,府中市,是政４丁目２－３ライオンズガーデン府中是政４０２,,13,206,1830014,,,,,,,2025-10-27,1,,,,,チャマ,0
578,3012703003399,新規,0,2025-10-27,2025-10-27,合同会社ＭＡＮＥＫＩ,,合同会社,東京都,東久留米市,滝山７丁目１４番１４号,,13,222,2030033,,,,,,,2025-10-27,1,,,,,マネキ,0
579,3012803003910,新規,0,2025-10-27,2025-10-27,合同会社セントリック,,合同会社,東京都,立川市,柴崎町３丁目５番１１号柴崎町ソシアルビル５階,,13,202,1900023,,,,,,,2025-10-27,1,,,,,セントリック,0
589,3020001165366,新規,0,2025-10-27,2025-10-27,株式会社Ｓ・Ｍ・ＣＯＮＳＵＬＴＡＮＴＳ,,株式会社,神奈川県,横浜市保土ケ谷区,岩井町１番地５アーバンハイツ保土ケ谷３０１号,,14,106,2400023,,,,,,,2025-10-27,1,,,,,エスエムコンサルタンツ,0
595,3021001086536,新規,0,2025-10-27,2025-10-27,株式会社ＡＣＴＳＥＥＤ,,株式会社,神奈川県,高座郡寒川町,一之宮３丁目１８番５２号,,14,321,2530111,,,,,,,2025-10-27,1,,,,,アクトシード,0
596,3021003016532,新規,0,2025-10-27,2025-10-27,合同会社Ｐｏｉｎｔ　Ｎｅｍｏ,,合同会社,神奈川県,中郡二宮町,山西１１９８－１レアル二宮Ａ１０１,,14,342,2590124,,,,,,,2025-10-27,1,,,,,ポイントネモ,0
597,3021005013453,新規,0,2025-10-27,2025-10-27,特定非営利活動法人箱根小田原環境協会,,その他の設立登記法人,神奈川県,足柄下郡箱根町,湯本６２番地の１,,14,382,2500311,,,,,,,2025-10-27,1,,,,,ハコネオダワラカンキョウキョウカイ,0
601,3030001169374,新規,0,2025-10-27,2025-10-27,株式会社ＮｅｘｔＢｏｘ,,株式会社,埼玉県,さいたま市北区,日進町２丁目１２９８番地１ウエルズ日進１０４,,11,102,3310823,,,,,,,2025-10-27,1,,,,,ネクストボックス,0
602,3030001169408,新規,0,2025-10-27,2025-10-27,河道存株式会社,,株式会社,埼玉県,川口市,元郷４丁目２３番１３号,,11,203,3320011,,,,,,,2025-10-27,1,,,,,カワドゾ,0
611,3040001141134,新規,0,2025-10-27,2025-10-27,株式会社弥勒屋,,株式会社,千葉県,佐倉市,井野１９４５番地３９,,12,212,2850855,,,,,,,2025-10-27,1,,,,,ミロクヤ,0
614,3040003028809,新規,0,2025-10-27,2025-10-27,合同会社ＪＯＹＲＩＤＥ,,合同会社,千葉県,浦安市,日の出５丁目６－１－１２１３,,12,227,2790013,,,,,,,2025-10-27,1,,,,,ジョイライド,0
615,3040005022917,新規,0,2025-10-27,2025-10-27,医療法人社団悠煌会,,その他の設立登記法人,千葉県,市原市,姉崎東２丁目２番地６ケイティビル１階、２階,,12,219,2990110,,,,,,,2025-10-27,1,,,,,ユウコウカイ,0
619,3050001057503,新規,0,2025-10-27,2025-10-27,株式会社ＳＡＧグローバル,,株式会社,茨城県,桜川市,真壁町東山田２２６２番地,,08,231,3004415,,,,,,,2025-10-27,1,,,,,エスエージーグローバル,0
630,3080101025869,新規,0,2025-10-27,2025-10-27,株式会社ケイショー建設,,株式会社,静岡県,伊東市,川奈１２９０番地の８５,,22,208,4140044,,,,,,,2025-10-27,1,,,,,ケイショーケンセツ,0
654,3120001281343,新規,0,2025-10-27,2025-10-27,日本ブギウギメディカル株式会社,,株式会社,大阪府,大阪市北区,中津１丁目２－２１明大ビル４０５,,27,127,5310071,,,,,,,2025-10-27,1,,,,,ニホンブギウギメディカル,0
655,3120001281500,新規,0,2025-10-27,2025-10-27,アトリコワークス株式会社,,株式会社,大阪府,大阪市西淀川区,姫島１丁目２８番３号,,27,113,5550033,,,,,,,2025-10-27,1,,,,,アトリコワークス,0
663,3120901051655,新規,0,2025-10-27,2025-10-27,Ｒ．Ａ．ＪＡＰＡＮ株式会社,,株式会社,大阪府,池田市,住吉１丁目４番１４号,,27,204,5630033,,,,,,,2025-10-27,1,,,,,アールエージャパン,0
667,3122001039804,新規,0,2025-10-27,2025-10-27,株式会社ＨＯＴＥＩ,,株式会社,大阪府,東大阪市,南鴻池町２丁目９－１１,,27,227,5780961,,,,,,,2025-10-27,1,,,,,ホテイ,0
674,3140001140506,新規,0,2025-10-27,2025-10-27,株式会社Ｋａｎｏｍａｄｅ,,株式会社,兵庫県,西宮市,松生町１４番２４号,,28,204,6620076,,,,,,,2025-10-27,1,,,,,カノメイド,0
675,3140001140547,新規,0,2025-10-27,2025-10-27,ふくふく不動産株式会社,,株式会社,兵庫県,加古川市,尾上町口里８４－７,,28,210,6750022,,,,,,,2025-10-27,1,,,,,フクフクフドウサン,0
678,3140003022784,新規,0,2025-10-27,2025-10-27,合同会社ＰＬＵＳ　ＥＲ,,合同会社,兵庫県,川西市,小戸１丁目１－１１エステムコート川西能勢口６０４,,28,217,6660014,,,,,,,2025-10-27,1,,,,,プラスイーアール,0
679,3140003022792,新規,0,2025-10-27,2025-10-27,合同会社エレフォート,,合同会社,兵庫県,西宮市,名塩さくら台２丁目１５番地１,,28,204,6691146,,,,,,,2025-10-27,1,,,,,エレフォート,0
680,3160005011461,新規,0,2025-10-27,2025-10-27,医療法人博天堂,,その他の設立登記法人,滋賀県,大津市,真野１丁目１－６２江若交通ビル４Ｆ,,25,201,5200232,,,,,,,2025-10-27,1,,,,,ハクテンドウ,0
687,3180001169178,新規,0,2025-10-27,2025-10-27,株式会社３６５,,株式会社,愛知県,春日井市,春見町５２番地９シティイトウビル１階‐Ａ,,23,206,4860837,,,,,,,2025-10-27,1,,,,,サンロクゴ,0
688,3180001169285,新規,0,2025-10-27,2025-10-27,ＥＵＲＯ　ＪＡＰＡＮ　ＴＲＡＤＩＮＧ株式会社,,株式会社,愛知県,名古屋市港区,小賀須２丁目２００番地,,23,111,4550882,,,,,,,2025-10-27,1,,,,,ユーロジャパントレーディング,0
691,3180003029289,新規,0,2025-10-27,2025-10-27,合同会社ＡＳリアルエステート,,合同会社,愛知県,瀬戸市,中品野町５番地,,23,204,4801218,,,,,,,2025-10-27,1,,,,,エーエスリアルエステート,0
696,3180301040360,新規,0,2025-10-27,2025-10-27,株式会社すんすすん,,株式会社,愛知県,豊橋市,中岩田１丁目２番地１シェソワＡ棟２号,,23,201,4400832,,,,,,,2025-10-27,1,,,,,スンススン,0
698,3190003005231,新規,0,2025-10-27,2025-10-27,合同会社シモックス,,合同会社,三重県,多気郡大台町,下楠３７５－１,,24,443,5192426,,,,,,,2025-10-27,1,,,,,シモックス,0
702,3200003007119,新規,0,2025-10-27,2025-10-27,合同会社ハウスマネジメント今尾,,合同会社,岐阜県,岐阜市,高田３丁目２０番５号,,21,201,5008224,,,,,,,2025-10-27,1,,,,,ハウスマネジメントイマオ,0
706,3220003004147,新規,0,2025-10-27,2025-10-27,ＤＲＡＷ‐ＢＩＯ合同会社,,合同会社,石川県,白山市,河合町チ１０２番地,,17,210,9202373,,,,,,,2025-10-27,1,,,,,ドローバイオ,0
708,3230001021151,新規,0,2025-10-27,2025-10-27,株式会社アールプランニング,,株式会社,富山県,富山市,星井町１丁目７番５号,,16,201,9300065,,,,,,,2025-10-27,1,,,,,アールプランニング,0
721,3290003017357,新規,0,2025-10-27,2025-10-27,合同会社卓森,,合同会社,福岡県,福岡市南区,曰佐４丁目４番５号,,40,134,8111313,,,,,,,2025-10-27,1,,,,,タクモリ,0
722,3290803005197,新規,0,2025-10-27,2025-10-27,合同会社清翔,,合同会社,福岡県,宮若市,水原９２２番地ソレアード２１Ｂ２０１号室,,40,226,8220151,,,,,,,2025-10-27,1,,,,,セイショウ,0
723,3310001019831,新規,0,2025-10-27,2025-10-27,株式会社釜田海星,,株式会社,長崎県,平戸市,田平町里免９７４番地３アメニティ里ＩＩ１０１号室,00141261,42,207,8594807,,,,,,,2025-10-27,1,,,,,カマタカイセイ,0
733,3350003005058,新規,0,2025-10-27,2025-10-27,合同会社ＴＳケア,,合同会社,宮崎県,東諸県郡国富町,大字本庄１７２８番地５,,45,382,8801101,,,,,,,2025-10-27,1,,,,,ティーエスケア,0
748,3430001095530,新規,0,2025-10-27,2025-10-27,シンクラフト株式会社,,株式会社,北海道,札幌市中央区,南一条西１１丁目１番地３００パークヒルズ大通中央２０２号,,01,101,0600061,,,,,,,2025-10-27,1,,,,,シンクラフト,0
749,3440001009704,新規,0,2025-10-27,2025-10-27,株式会社典礼舎真想庵,,株式会社,北海道,函館市,石川町４６１番地１１,,01,202,0410802,,,,,,,2025-10-27,1,,,,,テンレイシャシンソウアン,0
755,3480001012992,新規,0,2025-10-27,2025-10-27,株式会社木内工務店,,株式会社,徳島県,徳島市,昭和町８丁目８７番地の１０３,,36,201,7700942,,,,,,,2025-10-27,1,,,,,キノウチコウムテン,0
760,3700150132684,新規,0,2025-10-27,2025-10-27,ＲＯＳＥＮＺＡ　ＩＮＴＥＲＮＡＴＩＯＮＡＬ　ＴＲＡＤＩＮＧ　ＬＬＣ,,外国会社等,,,,,,,,ＤＮ　Ｍ２９，Ｍ２８　Ｏｆｆｉｃｅ，Ａｌ　Ｄａｎａ　Ｃｅｎｔｒｅ，Ａｌ　Ｒｉｇｇａ，Ｄｕｂａｉ，ＵＡＥ,,,,,,2025-10-27,1,,,,,ロセンザインタナショナルトレーディングエルエルシー,0
772,4010003049096,新規,0,2025-10-27,2025-10-27,合同会社三嶋地所,,合同会社,東京都,中央区,銀座１丁目１２番４号Ｎ＆ＥＢＬＤ．６Ｆ,,13,102,1040061,,,,,,,2025-10-27,1,,,,,ミシマジショ,0
774,4010005040821,新規,0,2025-10-27,2025-10-27,一般財団法人ＧＫＭ　ＪＡＰＡＮ,,その他の設立登記法人,東京都,中央区,築地４丁目３－１２－１００６,,13,102,1040045,,,,,,,2025-10-27,1,,,,,ジーケーエムジャパン,0
775,4010005040838,新規,0,2025-10-27,2025-10-27,一般社団法人白山,,その他の設立登記法人,東京都,千代田区,丸の内１丁目４番１号東京共同会計事務所内,,13,101,1000005,,,,,,,2025-10-27,1,,,,,ハクサン,0
776,4010005040846,新規,0,2025-10-27,2025-10-27,Ｓｐｒｉｎｔ　Ａｒｍ３一般社団法人,,その他の設立登記法人,東京都,千代田区,霞が関３丁目２番５号,,13,101,1000013,,,,,,,2025-10-27,1,,,,,スプリントアームスリー,0
791,4010401193859,新規,0,2025-10-27,2025-10-27,ととのい堂株式会社,,株式会社,東京都,港区,北青山１丁目３－３三橋ビル３階,,13,103,1070061,,,,,,,2025-10-27,1,,,,,トトノイドウ,0
792,4010401193925,新規,0,2025-10-27,2025-10-27,株式会社ＭＡＮＩＬＡ　ＳＡＮＤＨＵＢ　ＣＯＮＳＴＲＵＣＴＩＯＮ　ＪＡＰＡＮ,,株式会社,東京都,港区,浜松町２丁目２番１５号浜松町ダイヤビル２,,13,103,1050013,,,,,,,2025-10-27,1,,,,,マニラサンドハブコンストラクションジャパン,0
793,4010401193933,新規,0,2025-10-27,2025-10-27,ＡＺ株式会社,,株式会社,東京都,港区,六本木３丁目１６番１２号六本木ＫＳビル５Ｆ,,13,103,1060032,,,,,,,2025-10-27,1,,,,,アズ,0
794,4010401194089,新規,0,2025-10-27,2025-10-27,ＮＵＯ　Ａｔｈｌｅｔｉｃｓ　Ｊａｐａｎ株式会社,,株式会社,東京都,港区,六本木１丁目１０番３号,,13,103,1060032,,,,,,,2025-10-27,1,,,,,ニュオアスレチックスジャパン,0
795,4010401194106,新規,0,2025-10-27,2025-10-27,昭和エンジ・ホールディングス株式会社,,株式会社,東京都,港区,港南２丁目１５番３号,,13,103,1080075,,,,,,,2025-10-27,1,,,,,ショウワエンジホールディングス,0
796,4010401194155,新規,0,2025-10-27,2025-10-27,株式会社上杉ＦＡパートナーズ,,株式会社,東京都,港区,芝浦４丁目２２番１－５０８号,,13,103,1080023,,,,,,,2025-10-27,1,,,,,ウエスギエフエーパートナーズ,0
801,4010403036330,新規,0,2025-10-27,2025-10-27,オオタニメソッド合同会社,,合同会社,東京都,港区,芝５丁目２５番９号,,13,103,1080014,,,,,,,2025-10-27,1,,,,,オオタニメソッド,0
802,4010403036454,新規,0,2025-10-27,2025-10-27,合同会社Ｓｗａｐｓ,,合同会社,東京都,港区,虎ノ門１丁目１番１８号ヒューリック虎ノ門ビル９階Ｌ＆Ｐ司法書士法人内,,13,103,1050001,,,,,,,2025-10-27,1,,,,,スワップス,0
803,4010405024820,新規,0,2025-10-27,2025-10-27,税理士法人芝会計事務所,,その他の設立登記法人,東京都,港区,芝４丁目１０番５号５０１,,13,103,1080014,,,,,,,2025-10-27,1,,,,,シバカイケイジムショ,0
804,4010405024936,新規,0,2025-10-27,2025-10-27,一般社団法人Ｋａｊｉｋｉ,,その他の設立登記法人,東京都,港区,虎ノ門１丁目１番１８号ヒューリック虎ノ門ビル９階Ｌ＆Ｐ司法書士法人内,,13,103,1050001,,,,,,,2025-10-27,1,,,,,カジキ,0
810,4010603011884,新規,0,2025-10-27,2025-10-27,Ｐｒｏｓｐｅｒ　ｇｒｏｕｐ合同会社,,合同会社,東京都,江東区,大島３丁目９番４号,,13,108,1360072,,,,,,,2025-10-27,1,,,,,プロスパーグループ,0
812,4010701048523,新規,0,2025-10-27,2025-10-27,株式会社Ｕ‐ＺＩＳ,,株式会社,東京都,品川区,平塚１丁目３番６号,,13,109,1420051,,,,,,,2025-10-27,1,,,,,ユージーズ,0
813,4010801036717,新規,0,2025-10-27,2025-10-27,ラベンダー株式会社,,株式会社,東京都,大田区,田園調布本町２６番９号ＥＭパレス田園調布４０８,,13,111,1450072,,,,,,,2025-10-27,1,,,,,ラベンダー,0
814,4010801036733,新規,0,2025-10-27,2025-10-27,株式会社Ｈｉｒｏｓｈｉ　Ｃａｐｉｔａｌ,,株式会社,東京都,大田区,蒲田４丁目１６番８－６０９号,,13,111,1440052,,,,,,,2025-10-27,1,,,,,ヒロシキャピタル,0
815,4010901058306,新規,0,2025-10-27,2025-10-27,東京プランナー株式会社,,株式会社,東京都,世田谷区,成城７丁目５番１８号,,13,112,1570066,,,,,,,2025-10-27,1,,,,,トウキョウプランナー,0
816,4010901058322,新規,0,2025-10-27,2025-10-27,株式会社グランビオ,,株式会社,東京都,世田谷区,太子堂４丁目１８番１５号マガザン三軒茶屋２－３階３,,13,112,1540004,,,,,,,2025-10-27,1,,,,,グランビオ,0
822,4011001172880,新規,0,2025-10-27,2025-10-27,株式会社ＡＩプラス,,株式会社,東京都,渋谷区,神泉町１０－１０アシジ神泉ビル１０Ｆ,,13,113,1500045,,,,,,,2025-10-27,1,,,,,エーアイプラス,0
823,4011001172914,新規,0,2025-10-27,2025-10-27,株式会社ＴｏＪマーケティング,,株式会社,東京都,渋谷区,円山町５番３号ＭＩＥＵＸ渋谷ビル８階,,13,113,1500044,,,,,,,2025-10-27,1,,,,,トゥジェイマーケティング,0
824,4011001173037,新規,0,2025-10-27,2025-10-27,株式会社Ｏｌｉｖｅ　Ｉｎｔｅｒｎａｔｉｏｎａｌ　Ｊａｐａｎ,,株式会社,東京都,渋谷区,千駄ヶ谷３丁目１４番５号第１６スカイビル６Ｆ,,13,113,1510051,,,,,,,2025-10-27,1,,,,,オリーブインターナショナルジャパン,0
825,4011001173045,新規,0,2025-10-27,2025-10-27,株式会社Ｋｕｂ　ｃｏｎｓｕｌｔｉｎｇ,,株式会社,東京都,渋谷区,道玄坂２丁目２６番３号トップルーム道玄坂４１１号,,13,113,1500043,,,,,,,2025-10-27,1,,,,,カブコンサルティング,0
826,4011001173078,新規,0,2025-10-27,2025-10-27,ケアール株式会社,,株式会社,東京都,目黒区,八雲３丁目１７番２０号,,13,110,1520023,,,,,,,2025-10-27,1,,,,,ケアール,0
827,4011001173086,新規,0,2025-10-27,2025-10-27,株式会社Ｒｅｏｎ,,株式会社,東京都,目黒区,青葉台３丁目１５番１７号ＦＡＲＯ中目黒,,13,110,1530042,,,,,,,2025-10-27,1,,,,,レオン,0
828,4011001173417,新規,0,2025-10-27,2025-10-27,株式会社ＬＩＮＤＡ　ＨＯＰＰ　ＪＡＰＡＮ,,株式会社,東京都,渋谷区,広尾１丁目２番地１号ヒカリビル４階,,13,113,1500012,,,,,,,2025-10-27,1,,,,,リンダホップジャパン,0
830,4011003022737,新規,0,2025-10-27,2025-10-27,合同会社ＩＷＴ,,合同会社,東京都,目黒区,平町１丁目２６番１８－２０４号第一ベルハウス,,13,110,1520032,,,,,,,2025-10-27,1,,,,,アイダブルティ,0
831,4011003022828,新規,0,2025-10-27,2025-10-27,合同会社ＪＡＰＡＮ　ＡＩ蓄電池発電センター４号,,合同会社,東京都,渋谷区,桜丘町２２番１９－４階,,13,113,1500031,,,,,,,2025-10-27,1,,,,,,0
835,4011101113776,新規,0,2025-10-27,2025-10-27,株式会社Ｌａｂｂｙ,,株式会社,東京都,新宿区,西新宿６丁目５番１号新宿アイランドタワー２階,,13,104,1600023,,,,,,,2025-10-27,1,,,,,ラビー,0
836,4011103016572,新規,0,2025-10-27,2025-10-27,ＫａｌｅｉｄｏＬｉｎｋ合同会社,,合同会社,東京都,新宿区,西新宿３丁目３番１３号西新宿水間ビル２階,,13,104,1600023,,,,,,,2025-10-27,1,,,,,カレイドリンク,0
843,4011801046986,新規,0,2025-10-27,2025-10-27,日揮ゴルフ株式会社,,株式会社,東京都,葛飾区,新小岩２丁目６番２号みはるビル４階,,13,122,1240024,,,,,,,2025-10-27,1,,,,,ニッキゴルフ,0
844,4011803007160,新規,0,2025-10-27,2025-10-27,フォレストリバー合同会社,,合同会社,東京都,足立区,古千谷本町１丁目２－２６,,13,121,1210832,,,,,,,2025-10-27,1,,,,,フォレストリバー,0
845,4012301014574,新規,0,2025-10-27,2025-10-27,株式会社Ｓｔａｒｋ８,,株式会社,東京都,町田市,原町田４丁目１１番１３号天野ビル４Ｆ,,13,209,1940013,,,,,,,2025-10-27,1,,,,,スターケイト,0
847,4012401043746,新規,0,2025-10-27,2025-10-27,桜リアルティ株式会社,,株式会社,東京都,多摩市,桜ヶ丘３丁目２５番地の１,,13,224,2060013,,,,,,,2025-10-27,1,,,,,,0
848,4012403007427,新規,0,2025-10-27,2025-10-27,合同会社Ｔ‐Ｆａｃｔｏｒｙ,,合同会社,東京都,武蔵野市,吉祥寺本町２丁目２９番１９号オープンレジデンシア吉祥寺本町テラス２０２,,13,203,1800004,,,,,,,2025-10-27,1,,,,,ティーファクトリー,0
850,4012801024321,新規,0,2025-10-27,2025-10-27,株式会社ｂｌｏｏｍ　ｉｎｔｅｒｉｏｒ,,株式会社,東京都,昭島市,中神町１２９９番地３ディアルベルジェ・エスパシオ３０３号,,13,207,1960022,,,,,,,2025-10-27,1,,,,,ブルームインテリア,0
863,4020001165497,新規,0,2025-10-27,2025-10-27,株式会社オーエスコンサルティング,,株式会社,神奈川県,横浜市南区,真金町２丁目２２番地１３ビッグヴァンステイツ横浜大通り公園２０６号,,14,105,2320021,,,,,,,2025-10-27,1,,,,,オーエスコンサルティング,0
874,4030001169365,新規,0,2025-10-27,2025-10-27,株式会社日本照明技研,,株式会社,埼玉県,蓮田市,椿山１丁目２６番５号,,11,238,3490144,,,,,,,2025-10-27,1,,,,,ニホンショウメイギケン,0
880,4040001141133,新規,0,2025-10-27,2025-10-27,株式会社Ｈｏｍｅ誠和,,株式会社,千葉県,千葉市美浜区,幸町２丁目２１番２１－５０８号,,12,106,2610001,,,,,,,2025-10-27,1,,,,,ホームセイワ,0
882,4040003028799,新規,0,2025-10-27,2025-10-27,合同会社Ｌｉｂｒｙｔｅ,,合同会社,千葉県,市川市,本北方３丁目２４番９号ＨａｐｐｙＯｒａｎｇｅ１０１,,12,203,2720816,,,,,,,2025-10-27,1,,,,,リブライト,0
883,4040003028832,新規,0,2025-10-27,2025-10-27,Ｎａｚａｒ　ｉｎｔｅｒｎａｔｉｏｎａｌ合同会社,,合同会社,千葉県,富里市,中沢１２１２,,12,233,2860222,,,,,,,2025-10-27,1,,,,,ナザルインターナショナル,0
884,4040003028849,新規,0,2025-10-27,2025-10-27,合同会社アトリエ・ヒロ,,合同会社,千葉県,柏市,大津ケ丘３丁目３０番地２,,12,217,2770921,,,,,,,2025-10-27,1,,,,,アトリエヒロ,0
889,4060001038708,新規,0,2025-10-27,2025-10-27,株式会社白井,,株式会社,栃木県,那須塩原市,東小屋１８２番地２,,09,213,3293147,,,,,,,2025-10-27,1,,,,,シライ,0
890,4060003005821,新規,0,2025-10-27,2025-10-27,すずらん合同会社,,合同会社,栃木県,宇都宮市,中戸祭１丁目１２番２７号,,09,201,3200057,,,,,,,2025-10-27,1,,,,,スズラン,0
894,4080101025868,新規,0,2025-10-27,2025-10-27,クオレ保育園株式会社,,株式会社,静岡県,伊豆の国市,長岡１１４４番地の７,,22,225,4102211,,,,,,,2025-10-27,1,,,,,クオレホイクエン,0
914,4120001281012,新規,0,2025-10-27,2025-10-27,アップル・ミュージアム株式会社,,株式会社,大阪府,大阪市北区,梅田１丁目１－３大阪駅前第３ビル２９階１－１－１号室,,27,127,5300001,,,,,,,2025-10-27,1,,,,,アップルミュージアム,0
915,4120001281342,新規,0,2025-10-27,2025-10-27,株式会社地域サポートラボ,,株式会社,大阪府,大阪市北区,梅田１丁目２番２号大阪駅前第２ビル１２－１２,,27,127,5300001,,,,,,,2025-10-27,1,,,,,チイキサポートラボ,0
916,4120001281441,新規,0,2025-10-27,2025-10-27,中宸体育文化株式会社,,株式会社,大阪府,大阪市西成区,千本北２丁目３２番２２号３０２,,27,122,5570053,,,,,,,2025-10-27,1,,,,,チュウシンタイイクブンカ,0
917,4120001281482,新規,0,2025-10-27,2025-10-27,株式会社ＧｏｌｄｅｎＡｒｋ,,株式会社,大阪府,大阪市北区,梅田１丁目２番２号大阪駅前第２ビル１２‐１２,,27,127,5300001,,,,,,,2025-10-27,1,,,,,ゴールデンアーク,0
923,4120103006812,新規,0,2025-10-27,2025-10-27,合同会社ＲｏｏｔＰｉｌｏｔＡＩ,,合同会社,大阪府,堺市中区,土師町５丁１５番１１号,,27,142,5998238,,,,,,,2025-10-27,1,,,,,ルートパイロットエーアイ,0
925,4120903005914,新規,0,2025-10-27,2025-10-27,合同会社Ａｎｍｕ,,合同会社,大阪府,茨木市,郡３丁目１０－６,,27,211,5670072,,,,,,,2025-10-27,1,,,,,アンム,0
932,4130001080735,新規,0,2025-10-27,2025-10-27,株式会社アトムズテクノロジー,,株式会社,京都府,京都市下京区,二帖半敷町６４７番地２オンリー烏丸ビル１Ｆ・２Ｆ,,26,106,6008412,,,,,,,2025-10-27,1,,,,,アトムズテクノロジー,0
934,4130003010896,新規,0,2025-10-27,2025-10-27,Ｊｅｆｆｒｅｙ　Ｅｎｔｅｒｐｒｉｓｅ合同会社,,合同会社,京都府,長岡京市,神足１丁目３番８号,,26,209,6170833,,,,,,,2025-10-27,1,,,,,ジェフリーエンタープライズ,0
942,4140003022734,新規,0,2025-10-27,2025-10-27,合同会社かみねパートナーズ,,合同会社,兵庫県,神戸市東灘区,向洋町中６丁目９番地神戸ファッションマート４Ｎ－０７－６,,28,101,6580032,,,,,,,2025-10-27,1,,,,,カミネパートナーズ,0
943,4160001027163,新規,0,2025-10-27,2025-10-27,株式会社ファースト,,株式会社,滋賀県,愛知郡愛荘町,愛知川７０６番地２カサ・ピスタ１０３号,,25,425,5291331,,,,,,,2025-10-27,1,,,,,ファースト,0
949,4180001169235,新規,0,2025-10-27,2025-10-27,株式会社英東建設,,株式会社,愛知県,名古屋市中川区,打出２丁目１９４番地の１,,23,110,4540926,,,,,,,2025-10-27,1,,,,,エイトウケンセツ,0
950,4180001169276,新規,0,2025-10-27,2025-10-27,グリーンズ株式会社,,株式会社,愛知県,名古屋市中川区,荒江町２３番７号－２,,23,110,4540032,,,,,,,2025-10-27,1,,,,,グリーンズ,0
951,4180001169284,新規,0,2025-10-27,2025-10-27,株式会社ＡＲ　ＴＲＡＤＩＮＧ,,株式会社,愛知県,名古屋市港区,野跡５丁目３番２－３０５号,,23,111,4550845,,,,,,,2025-10-27,1,,,,,エーアールトレーディング,0
955,4180301040343,新規,0,2025-10-27,2025-10-27,株式会社タヌラージコーポレーション,,株式会社,愛知県,岡崎市,田口町字口田４６番地３,,23,202,4443172,,,,,,,2025-10-27,1,,,,,タヌラージコーポレーション,0
968,4230001021150,新規,0,2025-10-27,2025-10-27,ＪＫＢ株式会社,,株式会社,富山県,射水市,海老江浜開１８８番地１,,16,211,9330231,,,,,,,2025-10-27,1,,,,,ジェーケイビー,0
969,4240001065691,新規,0,2025-10-27,2025-10-27,株式会社つづら,,株式会社,広島県,広島市安佐北区,三入３丁目８番３０号,,34,106,7310211,,,,,,,2025-10-27,1,,,,,ツヅラ,0
972,4250001021405,新規,0,2025-10-27,2025-10-27,株式会社Ｔｅｒｒａｓｔａ．,,株式会社,山口県,熊毛郡田布施町,大字下田布施２８３４番地６９,,35,343,7421511,,,,,,,2025-10-27,1,,,,,テラスタ,0
975,4270001009316,新規,0,2025-10-27,2025-10-27,株式会社Ａｔｅｌｉｅｒ　Ｇｒｅｅｎ　Ｃｈａｔｅａｕ　Ｏｄａｋａ,,株式会社,鳥取県,米子市,尾高２３７７番地,,31,202,6893514,,,,,,,2025-10-27,1,,,,,アトリエグリーンシャトーオダカ,0
981,4320001021414,新規,0,2025-10-27,2025-10-27,株式会社馬山,,株式会社,大分県,大分市,都町３丁目７番２７－５０１号アスティオン堀川,,44,201,8700034,,,,,,,2025-10-27,1,,,,,マサン,0
988,4350001019785,新規,0,2025-10-27,2025-10-27,株式会社ルーチェ,,株式会社,宮崎県,宮崎市,中西町１４７番地３,,45,201,8800853,,,,,,,2025-10-27,1,,,,,ルーチェ,0
990,4360001035947,新規,0,2025-10-27,2025-10-27,株式会社下地運輸,,株式会社,沖縄県,石垣市,字平得８５番地１コーポ砂川３－Ｂ,,47,207,9070003,,,,,,,2025-10-27,1,,,,,シモジウンユ,0
991,4360001035955,新規,0,2025-10-27,2025-10-27,株式会社津堅事務用品店,,株式会社,沖縄県,那覇市,泉崎１丁目２２番６号,,47,201,9000021,,,,,,,2025-10-27,1,,,,,ツケンジムヨウヒンテン,0
992,4360003015360,新規,0,2025-10-27,2025-10-27,ＹｏｇｉＢａｂｙＳｐａ＆Ｗｅｌｌｎｅｓｓ合同会社,,合同会社,沖縄県,沖縄市,高原４丁目２１番２３号,,47,211,9042171,,,,,,,2025-10-27,1,,,,,ヨギベビースパアンドウェルネス,0
1014,4500003003623,新規,0,2025-10-27,2025-10-27,ＳｔｙｌｅＫ合同会社,,合同会社,愛媛県,松山市,和泉南４丁目３番２９－２号,,38,201,7900941,,,,,,,2025-10-27,1,,,,,スタイルケー,0
1016,4700150132709,新規,0,2025-10-27,2025-10-27,シュエイーモン株式会社,,外国会社等,埼玉県,ふじみ野市,うれし野１丁目１２－６,,11,245,3560056,ミャンマー連邦共和国、ヤンゴン管区、タムウェ郡区、チャウクミャウン区、アウンミンガラー通り、ニラー・ガヤール（１）、ユニオン３０１番地,,,,,,2025-10-27,1,,,,,シユエイーモンカブシキガイシヤ,0
1029,5010001259605,新規,0,2025-10-27,2025-10-27,ＡＮＤ　ＪＡＰＡＮ株式会社,,株式会社,東京都,中央区,銀座３丁目４番１号大倉別館５階,,13,102,1040061,,,,,,,2025-10-27,1,,,,,アンドジャパン,0
1030,5010001259753,新規,0,2025-10-27,2025-10-27,むさしのクック株式会社,,株式会社,東京都,文京区,千石４丁目２６番１号－１０２,,13,105,1120011,,,,,,,2025-10-27,1,,,,,,0
1031,5010003049186,新規,0,2025-10-27,2025-10-27,合同会社白山,,合同会社,東京都,千代田区,丸の内１丁目４番１号東京共同会計事務所内,,13,101,1000005,,,,,,,2025-10-27,1,,,,,ハクサン,0
1032,5010005040845,新規,0,2025-10-27,2025-10-27,Ｓｐｒｉｎｔ　Ａｓｓｅｔ３Ａ一般社団法人,,その他の設立登記法人,東京都,千代田区,霞が関３丁目２番５号,,13,101,1000013,,,,,,,2025-10-27,1,,,,,スプリントアセットスリーエー,0
1033,5010101016922,新規,0,2025-10-27,2025-10-27,株式会社Ａｌｉｃｅ‐Ｌｉｎｋ,,株式会社,東京都,八王子市,横川町１１１５番地１,,13,201,1930823,,,,,,,2025-10-27,1,,,,,アリスリンク,0
1046,5010401193585,新規,0,2025-10-27,2025-10-27,永代建設株式会社,,株式会社,東京都,港区,六本木６丁目１５番１号けやき坂テラス６階,,13,103,1060032,,,,,,,2025-10-27,1,,,,,エイタイケンセツ,0
1047,5010401193833,新規,0,2025-10-27,2025-10-27,株式会社ＣＵＬＴＩＡ,,株式会社,東京都,港区,麻布台３丁目１－６ＢＬＵＥＢＬＤＧ．ＡＺＡＢＵＤＡＩ２階,,13,103,1060041,,,,,,,2025-10-27,1,,,,,カルティア,0
1048,5010401193882,新規,0,2025-10-27,2025-10-27,株式会社Ｎｅｒｉｎｅ,,株式会社,東京都,港区,北青山１丁目３番１号アールキューブ青山３階,,13,103,1070061,,,,,,,2025-10-27,1,,,,,ネリネ,0
1049,5010401193890,新規,0,2025-10-27,2025-10-27,株式会社Ｔｏｋｙｏ　ＧＯＧＯ　ｂａｓｅ,,株式会社,東京都,港区,六本木３丁目１６番１２号六本木ＫＳビル５Ｆ,,13,103,1060032,,,,,,,2025-10-27,1,,,,,トーキョーゴーゴーベース,0
1050,5010401194071,新規,0,2025-10-27,2025-10-27,株式会社岩本,,株式会社,東京都,港区,北青山１丁目３番１号アールキューブ青山３階,,13,103,1070061,,,,,,,2025-10-27,1,,,,,イワモト,0
1051,5010401194096,新規,0,2025-10-27,2025-10-27,株式会社２０２５,,株式会社,東京都,港区,芝浦４丁目１５番１,,13,103,1080023,,,,,,,2025-10-27,1,,,,,ニセンニジュウゴ,0
1057,5010403036321,新規,0,2025-10-27,2025-10-27,合同会社ボルト・ウェーブ,,合同会社,東京都,港区,西新橋１丁目１８－６クロスオフィス内幸町,,13,103,1050003,,,,,,,2025-10-27,1,,,,,ボルトウェーブ,0
1058,5010403036404,新規,0,2025-10-27,2025-10-27,ウェルスバレー合同会社,,合同会社,東京都,港区,虎ノ門３丁目２２番１０－２０１号,,13,103,1050001,,,,,,,2025-10-27,1,,,,,ウェルスバレー,0
1059,5010403036453,新規,0,2025-10-27,2025-10-27,合同会社Ｄｅｔｅｒｍｉｎｅ,,合同会社,東京都,港区,虎ノ門１丁目１番１８号ヒューリック虎ノ門ビル９階Ｌ＆Ｐ司法書士法人内,,13,103,1050001,,,,,,,2025-10-27,1,,,,,ディターミン,0
1076,5011001173036,新規,0,2025-10-27,2025-10-27,ＧＮＲＬ．ＷＲＫＳ株式会社,,株式会社,東京都,渋谷区,神宮前６丁目２３番４号桑野ビル２階,,13,113,1500001,,,,,,,2025-10-27,1,,,,,ジェネラルワークス,0
1077,5011001173093,新規,0,2025-10-27,2025-10-27,株式会社Ｋｒｅａｔｅ,,株式会社,東京都,渋谷区,道玄坂１丁目１０番８号渋谷道玄坂東急ビル２Ｆ－Ｃ,,13,113,1500043,,,,,,,2025-10-27,1,,,,,クリエイト,0
1078,5011001173110,新規,0,2025-10-27,2025-10-27,Ｉ１株式会社,,株式会社,東京都,渋谷区,道玄坂１丁目１０番８号渋谷道玄坂東急ビル２Ｆ‐Ｃ,,13,113,1500043,,,,,,,2025-10-27,1,,,,,アイワン,0
1081,5011003022736,新規,0,2025-10-27,2025-10-27,Ｔａｍａｇｏ　Ｔｏｗｎ合同会社,,合同会社,東京都,目黒区,下目黒１丁目１番１４号コノトラビル７Ｆ,,13,110,1530064,,,,,,,2025-10-27,1,,,,,タマゴタウン,0
1082,5011003022827,新規,0,2025-10-27,2025-10-27,合同会社ＪＡＰＡＮ　ＡＩ蓄電池発電センター３号,,合同会社,東京都,渋谷区,桜丘町２２番１９－４階,,13,113,1500031,,,,,,,2025-10-27,1,,,,,,0
1086,5011101113668,新規,0,2025-10-27,2025-10-27,松岡投資株式会社,,株式会社,東京都,新宿区,西新宿１丁目７番１号,,13,104,1600023,,,,,,,2025-10-27,1,,,,,マツオカトウシ,0
1087,5011101113676,新規,0,2025-10-27,2025-10-27,株式会社Ｓｃｉｏｌｔｏ,,株式会社,東京都,新宿区,西新宿３丁目３番１３号西新宿水間ビル６階,,13,104,1600023,,,,,,,2025-10-27,1,,,,,ショルト,0
1092,5011603004902,新規,0,2025-10-27,2025-10-27,合同会社ｇａｒｄｅｎｅｒ,,合同会社,東京都,練馬区,錦１丁目３４番１０号,,13,120,1790082,,,,,,,2025-10-27,1,,,,,ガーデナー,0
1095,5011803007151,新規,0,2025-10-27,2025-10-27,ＲＫエンタープライズ合同会社,,合同会社,東京都,葛飾区,宝町２丁目３番４号,,13,122,1240005,,,,,,,2025-10-27,1,,,,,アールケーエンタープライズ,0
1096,5012301014573,新規,0,2025-10-27,2025-10-27,株式会社光安電気,,株式会社,東京都,町田市,金森２丁目１９番３８号,,13,209,1940012,,,,,,,2025-10-27,1,,,,,コウアンデンキ,0
1100,5012701019156,新規,0,2025-10-27,2025-10-27,ＪＵＮＴＥＮ　ＩＮＴＥＲＮＡＴＩＯＮＡＬ株式会社,,株式会社,東京都,西東京市,向台町４丁目２１番３－３号,,13,229,1880013,,,,,,,2025-10-27,1,,,,,ジュンテンインターナショナル,0
1104,5020001165463,新規,0,2025-10-27,2025-10-27,株式会社あおぞら,,株式会社,神奈川県,横浜市鶴見区,豊岡町３番２８号第二竹内ビル７０５号室,,14,101,2300062,,,,,,,2025-10-27,1,,,,,アオゾラ,0
1106,5020003029542,新規,0,2025-10-27,2025-10-27,合同会社グレースケールズ,,合同会社,神奈川県,横浜市都筑区,牛久保１丁目９－１４,,14,118,2240012,,,,,,,2025-10-27,1,,,,,グレースケールズ,0
1107,5020003029658,新規,0,2025-10-27,2025-10-27,合同会社ＡＪプロモーションズ,,合同会社,神奈川県,横浜市旭区,善部町１０３番地４９,,14,112,2410823,,,,,,,2025-10-27,1,,,,,エージェープロモーションズ,0
1108,5021001086666,新規,0,2025-10-27,2025-10-27,株式会社秦野パワーデバイス,,株式会社,神奈川県,秦野市,曽屋１２０４番地,,14,211,2570031,,,,,,,2025-10-27,1,,,,,ハダノパワーデバイス,0
1118,5030003027941,新規,0,2025-10-27,2025-10-27,シグナリア・パートナーズ合同会社,,合同会社,埼玉県,さいたま市大宮区,桜木町２丁目３番地大宮マルイ７階,,11,103,3300854,,,,,,,2025-10-27,1,,,,,シグナリアパートナーズ,0
1119,5040001141090,新規,0,2025-10-27,2025-10-27,株式会社ローヴ,,株式会社,千葉県,船橋市,滝台１丁目６番１号,,12,204,2740074,,,,,,,2025-10-27,1,,,,,ローヴ,0
1120,5040001141108,新規,0,2025-10-27,2025-10-27,結匠技建株式会社,,株式会社,千葉県,船橋市,三咲３丁目４番１５号フォンテーヌＢ棟２０２号,,12,204,2740812,,,,,,,2025-10-27,1,,,,,ユウショウギケン,0
1122,5040003028831,新規,0,2025-10-27,2025-10-27,ＳＭ　ＥＮＴＥＲＰＲＩＳＥＳ合同会社,,合同会社,千葉県,山武市,早船８６８－１－Ｂ,,12,237,2891311,,,,,,,2025-10-27,1,,,,,エスエムエンタープライセス,0
1126,5050001057501,新規,0,2025-10-27,2025-10-27,株式会社Ｂｅ‐Ｗｏｒｌｄ,,株式会社,茨城県,牛久市,柏田町３０３９番地４１,,08,219,3001211,,,,,,,2025-10-27,1,,,,,ビーワールド,0
1130,5080003003590,新規,0,2025-10-27,2025-10-27,合同会社ＭｏｂｉＣｌｅａｎ,,合同会社,静岡県,島田市,金谷泉町２番地の１,,22,209,4280014,,,,,,,2025-10-27,1,,,,,モビクリーン,0
1132,5080101025867,新規,0,2025-10-27,2025-10-27,株式会社アイテクニカル,,株式会社,静岡県,駿東郡長泉町,下土狩１０５３番地の２,,22,342,4110943,,,,,,,2025-10-27,1,,,,,アイテクニカル,0
1138,5100003008447,新規,0,2025-10-27,2025-10-27,ＬＩＢ合同会社,,合同会社,長野県,上田市,古安曽３９２６番地１,,20,203,3861213,,,,,,,2025-10-27,1,,,,,リブ,0
1149,5120001281234,新規,0,2025-10-27,2025-10-27,株式会社Ｆｏｒｍｕｎｏ,,株式会社,大阪府,大阪市中央区,南久宝寺町４丁目４番１号新御堂ビル５０２－１号室,,27,128,5410058,,,,,,,2025-10-27,1,,,,,フォミュノ,0
1150,5120001281523,新規,0,2025-10-27,2025-10-27,ＡＲＥ　ＳＩＭＯＮ　ＤＥＳＩＧＮ株式会社,,株式会社,大阪府,大阪市住吉区,沢之町１丁目４番８号エクシード服部５０２号室,,27,120,5580031,,,,,,,2025-10-27,1,,,,,エアーシモンデザイン,0
1153,5120003031100,新規,0,2025-10-27,2025-10-27,合同会社ウェルフェアケアーセンター,,合同会社,大阪府,大阪市西区,江戸堀１丁目２３番２０号１０１号室,,27,106,5500002,,,,,,,2025-10-27,1,,,,,ウェルフェアケアーセンター,0
1160,5120103006803,新規,0,2025-10-27,2025-10-27,ＢｉａｎｃｏＮｅｒｏ合同会社,,合同会社,大阪府,堺市北区,八下北３番７号,,27,146,5918014,,,,,,,2025-10-27,1,,,,,ビアンコネロ,0
1171,5130003010887,新規,0,2025-10-27,2025-10-27,合同会社ＡＢ‐Ｏｎｅｓｅｌｆ,,合同会社,京都府,京都市下京区,小稲荷町８５－２Ｇｒａｎｄ－Ｋ京都駅前ビル２０１,,26,106,6008208,,,,,,,2025-10-27,1,,,,,エービーワンセルフ,0
1175,5140001140529,新規,0,2025-10-27,2025-10-27,株式会社ＶＩＴＵＲＢＯ,,株式会社,兵庫県,西宮市,戸田町５番２８－１０２号,,28,204,6620916,,,,,,,2025-10-27,1,,,,,ビトルボ,0
1189,5180001169250,新規,0,2025-10-27,2025-10-27,ＦＩＴ株式会社,,株式会社,愛知県,春日井市,白山町４丁目１番地１２,,23,206,4870034,,,,,,,2025-10-27,1,,,,,フィット,0
1190,5180001169275,新規,0,2025-10-27,2025-10-27,株式会社むすび,,株式会社,愛知県,名古屋市東区,東大曽根町２１番９号柏英ビル１Ｆ,,23,102,4610022,,,,,,,2025-10-27,1,,,,,ムスビ,0
1191,5180001169283,新規,0,2025-10-27,2025-10-27,株式会社ＺＨＭ　ＴＲＡＤＩＮＧ,,株式会社,愛知県,弥富市,四郎兵衛１丁目４１番地,,23,235,4901426,,,,,,,2025-10-27,1,,,,,ゼットエイチエムトレーディング,0
1197,5180003029295,新規,0,2025-10-27,2025-10-27,合同会社ＫＩＪＩＴＯＲＡＪＡＰＡＮ,,合同会社,愛知県,名古屋市守山区,大牧町２番３号ナビシティ牛牧５０３号,,23,113,4630085,,,,,,,2025-10-27,1,,,,,キジトラジャパン,0
1202,5200001044368,新規,0,2025-10-27,2025-10-27,ＫＡＷＡＢＥ‐ＬＩＮＥ株式会社,,株式会社,岐阜県,大垣市,大井２丁目５２番地１サンロイヤル大井５０２号,,21,202,5030836,,,,,,,2025-10-27,1,,,,,カワベライン,0
1203,5210001020368,新規,0,2025-10-27,2025-10-27,ｍｏｋｏｍｏｋｏ株式会社,,株式会社,福井県,敦賀市,呉竹町１丁目４２番２４号,,18,202,9140802,,,,,,,2025-10-27,1,,,,,モコモコ,0
1215,5280003002003,新規,0,2025-10-27,2025-10-27,合同会社ウサギの外,,合同会社,島根県,大田市,大田町イ４１３番地９,,32,205,6940000,,,,,,,2025-10-27,1,,,,,ウサギノソト,0
1220,5290001111960,新規,0,2025-10-27,2025-10-27,株式会社ＫＳ興業,,株式会社,福岡県,大川市,大字坂井６２１番地２,,40,212,8310025,,,,,,,2025-10-27,1,,,,,ケイエスコウギョウ,0
1223,5320001021405,新規,0,2025-10-27,2025-10-27,株式会社ＮＩＮＯ,,株式会社,大分県,速見郡日出町,大字平道８１８番地５,,44,341,8791508,,,,,,,2025-10-27,1,,,,,ニノ,0
1227,5340001027730,新規,0,2025-10-27,2025-10-27,アシップトレード株式会社,,株式会社,鹿児島県,鹿児島市,大明丘３丁目４０番１号,,46,201,8920872,,,,,,,2025-10-27,1,,,,,アシップトレード,0
1235,5360001035946,新規,0,2025-10-27,2025-10-27,株式会社ＨＫＹ,,株式会社,沖縄県,那覇市,久茂地３丁目２６－３２ＹＳＣビル２０２,,47,201,9000015,,,,,,,2025-10-27,1,,,,,エイチケイワイ,0
1236,5360001035954,新規,0,2025-10-27,2025-10-27,株式会社まのめ,,株式会社,沖縄県,沖縄市,高原２丁目７番６号ＶｉｅｗｔｅｒｒａｃｅＭ２０２,,47,211,9042171,,,,,,,2025-10-27,1,,,,,マノメ,0
1239,5370003007348,新規,0,2025-10-27,2025-10-27,合同会社ＡＬＬＹ,,合同会社,宮城県,石巻市,明神南１４番地１３,,04,202,9860881,,,,,,,2025-10-27,1,,,,,アライ,0
1261,5450001014767,新規,0,2025-10-27,2025-10-27,株式会社コネクティニュー,,株式会社,北海道,上川郡東神楽町,８号北１番地,,01,453,0711538,,,,,,,2025-10-27,1,,,,,コネクティニュー,0
1264,5470001020953,新規,0,2025-10-27,2025-10-27,株式会社翔栄,,株式会社,香川県,高松市,多肥下町１５７８番地８,,37,201,7618075,,,,,,,2025-10-27,1,,,,,ショウエイ,0
1265,5490001011166,新規,0,2025-10-27,2025-10-27,今村社中株式会社,,株式会社,高知県,吾川郡仁淀川町,岩丸８１７番地,,39,387,7811611,,,,,,,2025-10-27,1,,,,,イマムラシャチュウ,0
1266,5500001026600,新規,0,2025-10-27,2025-10-27,株式会社ＭＯＦＵ,,株式会社,愛媛県,四国中央市,土居町野田乙４６４番地９,,38,213,7990705,,,,,,,2025-10-27,1,,,,,モフ,0
1267,5700150132708,新規,0,2025-10-27,2025-10-27,ＥＣＨＯ　ＰＲＯ　ＭＯＴＯＲＳ,,外国会社等,神奈川県,厚木市,金田７８４番地１５－２０１,,14,212,2430807,スリランカ民主社会主義共和国、ノチチヤガマ、タラウェティヤワ、９３／１,,,,,,2025-10-27,1,,,,,エコプロモータース,0
1271,6010001259711,新規,0,2025-10-27,2025-10-27,Ｊ‐ａｌｇｏ株式会社,,株式会社,東京都,中央区,月島１丁目５番１－３８０３号,,13,102,1040052,,,,,,,2025-10-27,1,,,,,ジェイアルゴ,0
1272,6010001259752,新規,0,2025-10-27,2025-10-27,株式会社プロパティキャリアネクスト,,株式会社,東京都,中央区,日本橋２丁目１番３号,,13,102,1030027,,,,,,,2025-10-27,1,,,,,プロパティキャリアネクスト,0
1273,6010003048996,新規,0,2025-10-27,2025-10-27,Ｌｕｅｕｒ　Ｗｏｒｋｓ合同会社,,合同会社,東京都,中央区,日本橋２丁目１６－４Ｒｅｍｉｘ日本橋６階,,13,102,1030027,,,,,,,2025-10-27,1,,,,,,0
1274,6010003049169,新規,0,2025-10-27,2025-10-27,かのう合同会社,,合同会社,東京都,千代田区,神田佐久間町３丁目２１番地ＭＯＭビル２０１,,13,101,1010025,,,,,,,2025-10-27,1,,,,,カノウ,0
1275,6010005040844,新規,0,2025-10-27,2025-10-27,Ｓｐｒｉｎｔ　ＭＬ３Ａ一般社団法人,,その他の設立登記法人,東京都,千代田区,霞が関３丁目２番５号,,13,101,1000013,,,,,,,2025-10-27,1,,,,,スプリントエムエルスリーエー,0
1287,6010401193931,新規,0,2025-10-27,2025-10-27,ブースト１株式会社,,株式会社,東京都,港区,虎ノ門５丁目９番１号,,13,103,1050001,,,,,,,2025-10-27,1,,,,,ブーストワン,0
1288,6010401194013,新規,0,2025-10-27,2025-10-27,株式会社ＧＭＳ,,株式会社,東京都,港区,赤坂９丁目６番２８号,,13,103,1070052,,,,,,,2025-10-27,1,,,,,ジーエムエス,0
1289,6010401194120,新規,0,2025-10-27,2025-10-27,株式会社ＮＥＸＴ　Ｌｉｎｋｓ,,株式会社,東京都,港区,新橋４丁目２６－５,,13,103,1050004,,,,,,,2025-10-27,1,,,,,ネクストリンクス,0
1290,6010401194203,新規,0,2025-10-27,2025-10-27,株式会社ＨＥＲＥＮ,,株式会社,東京都,港区,虎ノ門５丁目１１番１２号虎ノ門ＡＣＴビル４０５号室,,13,103,1050001,,,,,,,2025-10-27,1,,,,,ヘレン,0
1292,6010403036353,新規,0,2025-10-27,2025-10-27,合同会社シラヌカランド,,合同会社,東京都,港区,芝公園１丁目１番１２号芝公園電気ビルディング７Ｆ,,13,103,1050011,,,,,,,2025-10-27,1,,,,,シラヌカランド,0
1299,6010603011882,新規,0,2025-10-27,2025-10-27,合同会社ｍａｎａｂｕｍａｎ,,合同会社,東京都,江東区,豊洲６丁目５番１号豊洲千客万来２９５号室,,13,108,1350061,,,,,,,2025-10-27,1,,,,,マナブマン,0
1303,6010701048513,新規,0,2025-10-27,2025-10-27,株式会社ゆびおり,,株式会社,東京都,品川区,上大崎３丁目５番８号アクロス目黒タワー１１０２,,13,109,1410021,,,,,,,2025-10-27,1,,,,,ユビオリ,0
1307,6010901058312,新規,0,2025-10-27,2025-10-27,サザンクロス株式会社,,株式会社,東京都,世田谷区,岡本２丁目７番１０号－３,,13,112,1570076,,,,,,,2025-10-27,1,,,,,サザンクロス,0
1309,6010903010361,新規,0,2025-10-27,2025-10-27,Ｍｅｌｉｏｒａ合同会社,,合同会社,東京都,世田谷区,岡本１丁目３７‐１９,,13,112,1570076,,,,,,,2025-10-27,1,,,,,メリオラ,0
1314,6011001173051,新規,0,2025-10-27,2025-10-27,ブリッジピース株式会社,,株式会社,東京都,渋谷区,千駄ヶ谷４丁目１９番１５号,,13,113,1510051,,,,,,,2025-10-27,1,,,,,ブリッジピース,0
1315,6011001173068,新規,0,2025-10-27,2025-10-27,株式会社テオクル,,株式会社,東京都,渋谷区,神南１丁目１１－４ＦＰＧリンクス神南５階,,13,113,1500041,,,,,,,2025-10-27,1,,,,,テオクル,0
1316,6011001173076,新規,0,2025-10-27,2025-10-27,株式会社ＡＩＭ　Ｇｌｏｂａｌ,,株式会社,東京都,渋谷区,恵比寿西２丁目４番８号ウィンド恵比寿ビル８Ｆ,,13,113,1500021,,,,,,,2025-10-27,1,,,,,エイムグローバル,0
1317,6011001173316,新規,0,2025-10-27,2025-10-27,ＦＯＲ　ＯＮＥ　ＰＬＵＳ株式会社,,株式会社,東京都,渋谷区,道玄坂１丁目１０番８号渋谷道玄坂東急ビル２Ｆ―Ｃ,,13,113,1500043,,,,,,,2025-10-27,1,,,,,フォーワンプラス,0
1318,6011003022826,新規,0,2025-10-27,2025-10-27,合同会社ＪＡＰＡＮ　ＡＩ蓄電池発電センター２号,,合同会社,東京都,渋谷区,桜丘町２２番１９－４階,,13,113,1500031,,,,,,,2025-10-27,1,,,,,,0
1319,6011003022834,新規,0,2025-10-27,2025-10-27,合同会社ＪＡＰＡＮ　ＡＩ蓄電池発電センター１０号,,合同会社,東京都,渋谷区,桜丘町２２番１９－４階,,13,113,1500031,,,,,,,2025-10-27,1,,,,,,0
1324,6011101113642,新規,0,2025-10-27,2025-10-27,株式会社ＴＱＧ,,株式会社,東京都,新宿区,大久保１丁目４番２０号三島屋ビル２０１－Ｂ,,13,104,1690072,,,,,,,2025-10-27,1,,,,,ティーキュージー,0
1325,6011101113683,新規,0,2025-10-27,2025-10-27,株式会社ＲＫＩｎｔ,,株式会社,東京都,新宿区,百人町１丁目１７番５号メゾンオグラ６０３,,13,104,1690073,,,,,,,2025-10-27,1,,,,,アールケーイント,0
1326,6011101113774,新規,0,2025-10-27,2025-10-27,株式会社若井貿易,,株式会社,東京都,新宿区,西新宿１丁目２５番１号新宿センタービル４９階,,13,104,1600023,,,,,,,2025-10-27,1,,,,,ワカイボウエキ,0
1331,6011103016570,新規,0,2025-10-27,2025-10-27,合同会社Ｂｌｉｓｓ＆Ｒｅｔｒｅａｔ　Ｊａｐａｎ,,合同会社,東京都,新宿区,西新宿３丁目３番１３号西新宿水間ビル６Ｆ,,13,104,1600023,,,,,,,2025-10-27,1,,,,,ブリスアンドリトリートジャパン,0
1337,6011403004911,新規,0,2025-10-27,2025-10-27,合同会社ライジング,,合同会社,東京都,板橋区,赤塚７丁目２５番３０号ブルームステージ２０２,00141262,13,119,1750092,,,,,,,2025-10-27,1,,,,,ライジング,0
1347,6011803007159,新規,0,2025-10-27,2025-10-27,Ｇｏｏｄｓ合同会社,,合同会社,東京都,葛飾区,東新小岩４丁目７番２－３０３号レクセルガーデン新小岩,,13,122,1240023,,,,,,,2025-10-27,1,,,,,グッズ,0
1348,6012301014572,新規,0,2025-10-27,2025-10-27,ＡＲＳ　ＶＥＬＡ株式会社,,株式会社,東京都,町田市,南町田１丁目４番９号１Ｆ,,13,209,1940005,,,,,,,2025-10-27,1,,,,,アルスヴェラ,0
1358,6020001165454,新規,0,2025-10-27,2025-10-27,株式会社Ｍｉｌｉｖｅ,,株式会社,神奈川県,横浜市都筑区,中川中央１丁目２４番２１号リーブラセンター北２０２,,14,118,2240003,,,,,,,2025-10-27,1,,,,,ミライブ,0
1359,6020001165520,新規,0,2025-10-27,2025-10-27,株式会社アジャスト,,株式会社,神奈川県,横浜市神奈川区,金港町５－１４クアドリフォリオ８Ｆ,,14,102,2210056,,,,,,,2025-10-27,1,,,,,アジャスト,0
1364,6020003029624,新規,0,2025-10-27,2025-10-27,合同会社ＧＭＳパートナーズ,,合同会社,神奈川県,横浜市港北区,新横浜２丁目１７番１１号,,14,109,2220033,,,,,,,2025-10-27,1,,,,,ジーエムエスパートナーズ,0
1374,6030001169347,新規,0,2025-10-27,2025-10-27,日本基幹システム株式会社,,株式会社,埼玉県,秩父市,下宮地町３番８号,,11,207,3680021,,,,,,,2025-10-27,1,,,,,ニホンキカンシステム,0
1375,6030001169355,新規,0,2025-10-27,2025-10-27,ＤＡＲ　ＴＲＡＤＩＮＧ株式会社,,株式会社,埼玉県,深谷市,江原４０４番地１,,11,218,3660012,,,,,,,2025-10-27,1,,,,,ダールトレーディング,0
1376,6030001169371,新規,0,2025-10-27,2025-10-27,株式会社Ｗｉｌｌ,,株式会社,埼玉県,日高市,大字南平沢８７５－３,,11,242,3501206,,,,,,,2025-10-27,1,,,,,ウィル,0
1377,6030001169405,新規,0,2025-10-27,2025-10-27,株式会社世話ミライ,,株式会社,埼玉県,本庄市,東台２丁目７番１４号,,11,211,3670021,,,,,,,2025-10-27,1,,,,,セワミライ,0
1381,6030003027957,新規,0,2025-10-27,2025-10-27,Ｎ．ＡＲＴＭＡＫＥ合同会社,,合同会社,埼玉県,川口市,川口２丁目７番２８－３号,,11,203,3320015,,,,,,,2025-10-27,1,,,,,エヌドットアートメイク,0
1390,6040001141040,新規,0,2025-10-27,2025-10-27,株式会社杜若,,株式会社,千葉県,木更津市,八幡台３丁目１番２８号,,12,206,2920814,,,,,,,2025-10-27,1,,,,,カキツバタ,0
1391,6040001141131,新規,0,2025-10-27,2025-10-27,株式会社ＥＹＬ,,株式会社,千葉県,千葉市稲毛区,長沼町１８９番地５１,,12,103,2630005,,,,,,,2025-10-27,1,,,,,イーワイエル,0
1392,6040003028830,新規,0,2025-10-27,2025-10-27,ＳＡＲＷＡＲ　ＣＯＭＰＡＮＩＥＳ合同会社,,合同会社,千葉県,野田市,古布内字表１１７５番地１８,,12,208,2700221,,,,,,,2025-10-27,1,,,,,サルワーカンパニーズ,0
1396,6050003009714,新規,0,2025-10-27,2025-10-27,ｎａｋａ　ｆａｃｔｏｒｙ合同会社,,合同会社,茨城県,猿島郡境町,８０番地２,,08,546,3060433,,,,,,,2025-10-27,1,,,,,ナカファクトリー,0
1397,6050003009722,新規,0,2025-10-27,2025-10-27,合同会社ＣＲＥＡＩＸ,,合同会社,茨城県,土浦市,中神立町１６番地１６青木ハイツ５－２０１,,08,203,3000016,,,,,,,2025-10-27,1,,,,,クレイクス,0
1398,6060005010388,新規,0,2025-10-27,2025-10-27,一般社団法人地域創生ネットワーク,,その他の設立登記法人,栃木県,那須郡那須町,大字豊原丙１３４０番地,,09,407,3293225,,,,,,,2025-10-27,1,,,,,,0
1424,6120001281448,新規,0,2025-10-27,2025-10-27,株式会社ＧＯ‐ＲＩＲＡ不動産販売,,株式会社,大阪府,大阪市北区,中津１丁目８番１４－５０１号,,27,127,5310071,,,,,,,2025-10-27,1,,,,,ゴリラフドウサンハンバイ,0
1425,6120001281480,新規,0,2025-10-27,2025-10-27,株式会社アイフク,,株式会社,大阪府,大阪市鶴見区,茨田大宮１丁目３番４４号,,27,124,5380031,,,,,,,2025-10-27,1,,,,,アイフク,0
1426,6120001281506,新規,0,2025-10-27,2025-10-27,株式会社エクソン,,株式会社,大阪府,大阪市西区,立売堀４丁目５番１１－１０３号,,27,106,5500012,,,,,,,2025-10-27,1,,,,,エクソン,0
1427,6120001281539,新規,0,2025-10-27,2025-10-27,メディカルブランズ株式会社,,株式会社,大阪府,大阪市北区,梅田１丁目２番２号大阪駅前第２ビル１２－１２,,27,127,5300001,,,,,,,2025-10-27,1,,,,,メディカルブランズ,0
1430,6120003031017,新規,0,2025-10-27,2025-10-27,ディアスモーターズ合同会社,,合同会社,大阪府,大阪市旭区,清水４丁目３－５－３０６号,,27,117,5350021,,,,,,,2025-10-27,1,,,,,ディアスモーターズ,0
1433,6120103006802,新規,0,2025-10-27,2025-10-27,フォーチュンフロー・ロジスティクス合同会社,,合同会社,大阪府,阪南市,尾崎町３丁目７番１３号,,27,232,5990201,,,,,,,2025-10-27,1,,,,,フォーチュンフローロジスティクス,0
1434,6120103006810,新規,0,2025-10-27,2025-10-27,合同会社タック,,合同会社,大阪府,富田林市,津々山台１丁目５番８号,,27,214,5840086,,,,,,,2025-10-27,1,,,,,タック,0
1438,6130003010886,新規,0,2025-10-27,2025-10-27,音声言語処理応用合同会社,,合同会社,京都府,京田辺市,松井ケ丘１丁目１８－３,,26,211,6100353,,,,,,,2025-10-27,1,,,,,オンセイゲンゴショリオウヨウ,0
1447,6170001018853,新規,0,2025-10-27,2025-10-27,株式会社Ｅ‐Ｗｏｒｋｓ,,株式会社,和歌山県,和歌山市,園部９４２番地５,,30,201,6408483,,,,,,,2025-10-27,1,,,,,イーワークス,0
1453,6180001169299,新規,0,2025-10-27,2025-10-27,レイワテクノ中部株式会社,,株式会社,愛知県,名古屋市西区,上名古屋４丁目４番１２号サンオービル５階,,23,104,4510025,,,,,,,2025-10-27,1,,,,,レイワテクノチュウブ,0
1459,6190003005237,新規,0,2025-10-27,2025-10-27,ＧＬＯＡ合同会社,,合同会社,三重県,松阪市,久保町１０５５番地１４エミアス２０１,,24,204,5150044,,,,,,,2025-10-27,1,,,,,グロア,0
1464,6230001021149,新規,0,2025-10-27,2025-10-27,ダイロジネット株式会社,,株式会社,富山県,高岡市,福岡町土屋６９１番地１,,16,202,9390142,,,,,,,2025-10-27,1,,,,,ダイロジネット,0
1473,6280001009536,新規,0,2025-10-27,2025-10-27,株式会社松崎トレーディング,,株式会社,島根県,出雲市,長浜町３３７‐１６,,32,203,6930043,,,,,,,2025-10-27,1,,,,,マツザキトレーディング,0
1474,6280003002002,新規,0,2025-10-27,2025-10-27,合同会社まちの５６番地,,合同会社,島根県,隠岐郡西ノ島町,大字別府５６番地,,32,526,6840302,,,,,,,2025-10-27,1,,,,,マチノゴジュウロクバンチ,0
1479,6290801031969,新規,0,2025-10-27,2025-10-27,ＡＣＥ株式会社,,株式会社,福岡県,北九州市小倉南区,上葛原１丁目１１番１１－４０２号,,40,107,8000255,,,,,,,2025-10-27,1,,,,,エース,0
1480,6290801031977,新規,0,2025-10-27,2025-10-27,株式会社岩崎不動産,00141270,株式会社,福岡県,北九州市小倉南区,守恒本町２丁目６番６号,,40,107,8020971,,,,,,,2025-10-27,1,,,,,イワサキフドウサン,0
1492,6360003015359,新規,0,2025-10-27,2025-10-27,合同会社ｅ‐プラン,,合同会社,沖縄県,名護市,宮里７丁目５番２号,,47,209,9050011,,,,,,,2025-10-27,1,,,,,イープラン,0
1497,6370001053161,新規,0,2025-10-27,2025-10-27,株式会社ＷｏｗＦｕｎ,,株式会社,宮城県,仙台市青葉区,錦ケ丘４丁目１５番地の１,,04,101,9893123,,,,,,,2025-10-27,1,,,,,ワオファン,0
1506,6430001095536,新規,0,2025-10-27,2025-10-27,株式会社ＷａｎＭ,,株式会社,北海道,札幌市中央区,南二条西５丁目３１番地１ＲＭＢｌｄ．７０２,,01,101,0600062,,,,,,,2025-10-27,1,,,,,ワンエム,0
1507,6430001095544,新規,0,2025-10-27,2025-10-27,株式会社ひらなか新聞店,,株式会社,北海道,札幌市豊平区,福住一条５丁目８番２２号,,01,105,0620041,,,,,,,2025-10-27,1,,,,,ヒラナカシンブンテン,0
1509,6430003018255,新規,0,2025-10-27,2025-10-27,合同会社富沢工業,,合同会社,北海道,札幌市西区,福井５丁目１７番３２号,,01,107,0630012,,,,,,,2025-10-27,1,,,,,トミサワコウギョウ,0
1510,6430005015341,新規,0,2025-10-27,2025-10-27,医療法人ＯＭＤ,,その他の設立登記法人,北海道,札幌市厚別区,大谷地東５丁目１‐４３,,01,108,0040041,,,,,,,2025-10-27,1,,,,,オーエムディー,0
1511,6450001014766,新規,0,2025-10-27,2025-10-27,株式会社Ｌｏｗｋｅｙ,,株式会社,北海道,旭川市,大町一条６丁目１４番地の１３７,,01,204,0700841,,,,,,,2025-10-27,1,,,,,ローキー,0
1516,6470001020952,新規,0,2025-10-27,2025-10-27,株式会社ＡｉＲａｉｓｅ,,株式会社,香川県,高松市,上林町６３４番地５,,37,201,7610302,,,,,,,2025-10-27,1,,,,,アイレイズ,0
1519,6500001026599,新規,0,2025-10-27,2025-10-27,深田水産株式会社,,株式会社,愛媛県,宇和島市,戸島２７８３番地,,38,203,7980212,,,,,,,2025-10-27,1,,,,,フカタスイサン,0
1520,6500003003621,新規,0,2025-10-27,2025-10-27,合同会社Ｄｉｃｋｉｎｓｏｎｉａ,,合同会社,愛媛県,松山市,高砂町１丁目５番地２６,,38,201,7900822,,,,,,,2025-10-27,1,,,,,ディッキンソニア,0
1521,6700150132707,新規,0,2025-10-27,2025-10-27,ＡＳＨ　ＹＵＮＡ　ＥＮＴＥＲＰＲＩＳＥＳ,,外国会社等,神奈川県,厚木市,鳶尾５丁目１２番８号Ｃ４－１０２－２Ｂ,,14,212,2430204,スリランカ民主社会主義共和国、アクラナ、クルゴダ、Ｎｏ．９６／２Ｃ,,,,,,2025-10-27,1,,,,,エーエスエイチユナエンタープライズ,0
1527,7010001259603,新規,0,2025-10-27,2025-10-27,株式会社ユーティリティ,,株式会社,東京都,中央区,銀座１丁目１２番４号Ｎ＆ＥＢＬＤ．６Ｆ,,13,102,1040061,,,,,,,2025-10-27,1,,,,,ユーティリティ,0
1528,7010001259818,新規,0,2025-10-27,2025-10-27,株式会社日本生活支援協会,,株式会社,東京都,中央区,銀座１丁目１２番４号Ｎ＆ＥＢＬＤ．６Ｆ,,13,102,1040061,,,,,,,2025-10-27,1,,,,,ニホンセイカツシエンキョウカイ,0
1530,7010003049143,新規,0,2025-10-27,2025-10-27,富山明志合同会社,,合同会社,東京都,文京区,千石４丁目１４番９号,,13,105,1120011,,,,,,,2025-10-27,1,,,,,トヤマメイシ,0
1531,7010003049151,新規,0,2025-10-27,2025-10-27,ＨＥＡＶＥＮ　ＰＬＥＡＳＥ合同会社,,合同会社,東京都,千代田区,神田三崎町３丁目５番９号天翔水道橋ビル２１０号室,,13,101,1010061,,,,,,,2025-10-27,1,,,,,ヘブンプリーズ,0
1532,7010003049184,新規,0,2025-10-27,2025-10-27,ＰＵＲＡＭＥＤＩ合同会社,,合同会社,東京都,中央区,銀座１丁目１２―４Ｎ＆Ｅ‐ＢＬＤ．７階,,13,102,1040061,,,,,,,2025-10-27,1,,,,,プラメディ,0
1539,7010005040843,新規,0,2025-10-27,2025-10-27,ＴＩＸＡ１ＨＯＭＥＳ一般社団法人,,その他の設立登記法人,東京都,千代田区,霞が関３丁目２番５号,,13,101,1000013,,,,,,,2025-10-27,1,,,,,ティクサワンホームズ,0
1540,7010101016929,新規,0,2025-10-27,2025-10-27,共栄道路株式会社,,株式会社,東京都,八王子市,丹木町１丁目８９番地１,,13,201,1920003,,,,,,,2025-10-27,1,,,,,キョウエイドウロ,0
1551,7010401193963,新規,0,2025-10-27,2025-10-27,株式会社白金,,株式会社,東京都,港区,白金１丁目２５番１１－８０８号,,13,103,1080072,,,,,,,2025-10-27,1,,,,,シロカネ,0
1552,7010401194029,新規,0,2025-10-27,2025-10-27,株式会社Ｖｉｓｉｏｎ　Ｌｉｎｋ,,株式会社,東京都,港区,赤坂２丁目２１番１号川本ビル,,13,103,1070052,,,,,,,2025-10-27,1,,,,,ビジョンリンク,0
1559,7010403036328,新規,0,2025-10-27,2025-10-27,ＲＹＭＳＥＮＣＥ合同会社,,合同会社,東京都,港区,三田４丁目１２番１４号Ｂ１,,13,103,1080073,,,,,,,2025-10-27,1,,,,,リムセンス,0
1560,7010405024818,新規,0,2025-10-27,2025-10-27,一般社団法人ビジョナリーテーリング,,その他の設立登記法人,東京都,港区,南青山３丁目１番３６号青山丸竹ビル６階,,13,103,1070062,,,,,,,2025-10-27,1,,,,,ビジョナリーテーリング,0
1565,7010601068197,新規,0,2025-10-27,2025-10-27,株式会社ＭＩＧＩＲＩ,,株式会社,東京都,墨田区,亀沢１丁目１７－１１久須美ビル１Ｆ,,13,107,1300014,,,,,,,2025-10-27,1,,,,,ミギリ,0
1567,7010701048520,新規,0,2025-10-27,2025-10-27,Ｋ’ｓ　Ｌａｂ株式会社,,株式会社,東京都,品川区,西品川１丁目２番１－１０１９号,,13,109,1410033,,,,,,,2025-10-27,1,,,,,ケーズラボ,0
1569,7010703007978,新規,0,2025-10-27,2025-10-27,合同会社アトリエティープラス,,合同会社,東京都,品川区,北品川５丁目３番１―２６１６号,,13,109,1410001,,,,,,,2025-10-27,1,,,,,アトリエティープラス,0
1571,7010803005592,新規,0,2025-10-27,2025-10-27,ノースバリュー・アセット合同会社,,合同会社,東京都,大田区,北糀谷１丁目５番２－４０４号,,13,111,1440032,,,,,,,2025-10-27,1,,,,,ノースバリューアセット,0
1577,7011001173026,新規,0,2025-10-27,2025-10-27,株式会社ＧＲＩＰ．,,株式会社,東京都,渋谷区,恵比寿西２丁目４番８号ウィンド恵比寿ビル８階,,13,113,1500021,,,,,,,2025-10-27,1,,,,,グリップ,0
1578,7011001173050,新規,0,2025-10-27,2025-10-27,株式会社ＰｉｔｃｈＵｐ,,株式会社,東京都,渋谷区,円山町５番３号ＭＩＥＵＸ渋谷ビル８階,,13,113,1500044,,,,,,,2025-10-27,1,,,,,ピッチアップ,0
1579,7011001173075,新規,0,2025-10-27,2025-10-27,フローリッシュ株式会社,,株式会社,東京都,渋谷区,渋谷１丁目２２番１０号ＴＢ宮下ビル５階,,13,113,1500002,,,,,,,2025-10-27,1,,,,,フローリッシュ,0
1580,7011001173100,新規,0,2025-10-27,2025-10-27,株式会社Ｌｕｎａｖｅｓｔ,,株式会社,東京都,渋谷区,円山町５番３号ＭＩＥＵＸ渋谷ビル８階,,13,113,1500044,,,,,,,2025-10-27,1,,,,,ルナベスト,0
1581,7011001173109,新規,0,2025-10-27,2025-10-27,株式会社美紋,,株式会社,東京都,渋谷区,恵比寿西２丁目１７番９号ｏｎｅｓｉｍｐｌｉＣＩＴＹ３Ｆ,,13,113,1500021,,,,,,,2025-10-27,1,,,,,ビモン,0
1583,7011003022528,新規,0,2025-10-27,2025-10-27,合同会社ｅｓｐｒｉｔｓ　ｄｅ　ＬＵＭＩＥＲＥ,,合同会社,東京都,渋谷区,千駄ヶ谷５丁目２６番５号代々木シティホームズ５０４号,,13,113,1510051,,,,,,,2025-10-27,1,,,,,エスプリドルミエール,0
1584,7011003022627,新規,0,2025-10-27,2025-10-27,合同会社Ｌｉｎｋｅｒｓ,,合同会社,東京都,渋谷区,千駄ヶ谷２丁目３６－５－１０２,,13,113,1510051,,,,,,,2025-10-27,1,,,,,リンカーズ,0
1585,7011003022825,新規,0,2025-10-27,2025-10-27,合同会社ＪＡＰＡＮ　ＡＩ蓄電池発電センター１号,,合同会社,東京都,渋谷区,桜丘町２２番１９－４階,,13,113,1500031,,,,,,,2025-10-27,1,,,,,,0
1586,7011003022833,新規,0,2025-10-27,2025-10-27,合同会社ＪＡＰＡＮ　ＡＩ蓄電池発電センター９号,,合同会社,東京都,渋谷区,桜丘町２２番１９－４階,,13,113,1500031,,,,,,,2025-10-27,1,,,,,ジャパンエーアイチクデンチハツデンセンターキュウゴウ,0
1591,7011101113583,新規,0,2025-10-27,2025-10-27,株式会社ＬＩＳＴＥＮ　ｆｒｅａｑｕｅｎｃｙ,,株式会社,東京都,新宿区,新宿４丁目３番１５号レイフラット新宿Ｂ棟３Ｆ,,13,104,1600022,,,,,,,2025-10-27,1,,,,,リッスンフリークエンシー,0
1592,7011101113641,新規,0,2025-10-27,2025-10-27,株式会社ＪＰＴ,,株式会社,東京都,新宿区,百人町１丁目１９番１１号４０４フラッツＴ２,,13,104,1690073,,,,,,,2025-10-27,1,,,,,,0
1602,7011801046950,新規,0,2025-10-27,2025-10-27,株式会社ＭＯＮＫＥＹ　ＰＯＤ,,株式会社,東京都,葛飾区,新宿１丁目１５－１３,,13,122,1250051,,,,,,,2025-10-27,1,,,,,モンキーポッド,0
1610,7011805003493,新規,0,2025-10-27,2025-10-27,一般社団法人ハニホヘトイロ,,その他の設立登記法人,東京都,足立区,西新井本町１丁目２６番９号,,13,121,1230845,,,,,,,2025-10-27,1,,,,,ハニホヘトイロ,0
1613,7012401043743,新規,0,2025-10-27,2025-10-27,エイトリース株式会社,,株式会社,東京都,三鷹市,下連雀３丁目２７番１号,,13,204,1810013,,,,,,,2025-10-27,1,,,,,エイトリース,0
1616,7012803003907,新規,0,2025-10-27,2025-10-27,オルカ合同会社,,合同会社,東京都,国立市,谷保５８８５番地の３,,13,215,1860011,,,,,,,2025-10-27,1,,,,,オルカ,0
1617,7013103001502,新規,0,2025-10-27,2025-10-27,合同会社みたらし,,合同会社,東京都,羽村市,羽西１丁目１０番１６号,,13,227,2050017,,,,,,,2025-10-27,1,,,,,ミタラシ,0
1619,7013301055192,新規,0,2025-10-27,2025-10-27,株式会社グラビティ,,株式会社,東京都,豊島区,東池袋１丁目３４番１号広告塔センタービル６Ｆ,,13,116,1700013,,,,,,,2025-10-27,1,,,,,グラビティ,0
1628,7020001165445,新規,0,2025-10-27,2025-10-27,アクロポリス・サイバー・プロテクト株式会社,,株式会社,神奈川県,横浜市西区,北幸１丁目１１番１号水信ビル７階,,14,103,2200004,,,,,,,2025-10-27,1,,,,,アクロポリスサイバープロテクト,0
1629,7020001165453,新規,0,2025-10-27,2025-10-27,大内物産株式会社,,株式会社,神奈川県,横浜市中区,山手町２２５番地１－１０２号室,,14,104,2310862,,,,,,,2025-10-27,1,,,,,オオウチブッサン,0
1630,7020001165461,新規,0,2025-10-27,2025-10-27,株式会社みなと学園,,株式会社,神奈川県,横浜市西区,北幸２丁目１０番４８号,,14,103,2200004,,,,,,,2025-10-27,1,,,,,ミナトガクエン,0
1631,7020003029664,新規,0,2025-10-27,2025-10-27,合同会社ドミトラ,,合同会社,神奈川県,横浜市金沢区,東朝比奈３丁目１６番金沢八景クローバーハイツＦ棟３０５号室,,14,108,2360033,,,,,,,2025-10-27,1,,,,,ドミトラ,0
1632,7020005017023,新規,0,2025-10-27,2025-10-27,土地家屋調査士法人石川測量設計,,その他の設立登記法人,神奈川県,川崎市川崎区,台町８番１７号,,14,131,2100814,,,,,,,2025-10-27,1,,,,,イシカワソクリョウセッケイ,0
1640,7030001169395,新規,0,2025-10-27,2025-10-27,株式会社ＳＵＮＮＹ,,株式会社,埼玉県,久喜市,栗原１丁目９－２８,,11,232,3460012,,,,,,,2025-10-27,1,,,,,サニー,0
1645,7040001141139,新規,0,2025-10-27,2025-10-27,株式会社カーメイクアイエス,,株式会社,千葉県,野田市,関宿台町２０８８－１,,12,208,2700202,,,,,,,2025-10-27,1,,,,,カーメイクアイエス,0
1646,7040003028747,新規,0,2025-10-27,2025-10-27,ビダランドジャパン合同会社,,合同会社,千葉県,柏市,酒井根１丁目５番地４号,,12,217,2770053,,,,,,,2025-10-27,1,,,,,ビダランドジャパン,0
1647,7040003028821,新規,0,2025-10-27,2025-10-27,合同会社Ｎａｔｕｒａｌ　Ｂ,,合同会社,千葉県,千葉市花見川区,長作町１２６１番地５,,12,102,2620044,,,,,,,2025-10-27,1,,,,,ナチュラルビー,0
1649,7060001038705,新規,0,2025-10-27,2025-10-27,株式会社ＮＳホーム,,株式会社,栃木県,真岡市,島４番地４,,09,209,3214326,,,,,,,2025-10-27,1,,,,,エヌエスホーム,0
1667,7120001281380,新規,0,2025-10-27,2025-10-27,株式会社ｓｔａｒ　ｔｉｍｅ,,株式会社,大阪府,大阪市中央区,南船場３丁目２番２２号おおきに南船場ビル２０５,,27,128,5420081,,,,,,,2025-10-27,1,,,,,スタータイム,0
1678,7120005025222,新規,0,2025-10-27,2025-10-27,一般社団法人日本スポーツ振興,,その他の設立登記法人,大阪府,大阪市中央区,内平野町２丁目３番１１号,,27,128,5400037,,,,,,,2025-10-27,1,,,,,ニホンスポーツシンコウ,0
1681,7120101072688,新規,0,2025-10-27,2025-10-27,株式会社ＤＡＮＪＩ,,株式会社,大阪府,堺市堺区,北花田口町１丁１番２０号,,27,141,5900074,,,,,,,2025-10-27,1,,,,,ダンジ,0
1682,7120103006801,新規,0,2025-10-27,2025-10-27,ＴＮＧ‐ＧＲＯＵＰ合同会社,,合同会社,大阪府,泉佐野市,上之郷３２９８番地の２,,27,213,5980024,,,,,,,2025-10-27,1,,,,,ティーエヌジーグループ,0
1683,7120901051676,新規,0,2025-10-27,2025-10-27,Ｄ．ＡＦＭ株式会社,,株式会社,大阪府,摂津市,千里丘２丁目６番２７号,,27,224,5660001,,,,,,,2025-10-27,1,,,,,ディーエーエフエム,0
1686,7122001039791,新規,0,2025-10-27,2025-10-27,株式会社ナガセファーム,,株式会社,大阪府,東大阪市,柏田西２丁目４番１７号,,27,227,5770835,,,,,,,2025-10-27,1,,,,,ナガセファーム,0
1687,7122003003366,新規,0,2025-10-27,2025-10-27,星の地図合同会社,,合同会社,大阪府,大東市,泉町２丁目４番１号,,27,218,5740024,,,,,,,2025-10-27,1,,,,,ホシノチズ,0
1690,7130001080823,新規,0,2025-10-27,2025-10-27,オテンバケアサービス株式会社,,株式会社,京都府,京都市北区,紫竹栗栖町２５番地２Ｒｅｊｏｉｃｅ紫竹１０１号,,26,101,6038435,,,,,,,2025-10-27,1,,,,,オテンバケアサービス,0
1704,7180001169216,新規,0,2025-10-27,2025-10-27,株式会社コウイチ,,株式会社,愛知県,清須市,西枇杷島町地領１丁目２番地１４,,23,233,4520008,,,,,,,2025-10-27,1,,,,,コウイチ,0
1705,7180001169257,新規,0,2025-10-27,2025-10-27,株式会社タイジャパンファミリー,,株式会社,愛知県,名古屋市天白区,塩釜口１丁目６５７番地の２ザ・センターステージシティハウス八事８０７号,,23,116,4680073,,,,,,,2025-10-27,1,,,,,タイジャパンファミリー,0
1710,7180301040349,新規,0,2025-10-27,2025-10-27,株式会社ＱＵＡＤＲＩＦＯＧＬＩＯ,,株式会社,愛知県,刈谷市,桜町１丁目３７番地,,23,210,4480028,,,,,,,2025-10-27,1,,,,,クアドリフォリオ,0
1711,7180301040357,新規,0,2025-10-27,2025-10-27,株式会社ハートランド,,株式会社,愛知県,安城市,今池町１丁目２番１３号Ｌ－ＫＬＡＳＳＥ３０５,,23,212,4460071,,,,,,,2025-10-27,1,,,,,,0
1713,7190003005228,新規,0,2025-10-27,2025-10-27,Ｎｏｖａｌｅｎｔ合同会社,,合同会社,三重県,伊賀市,長田１９１８,,24,216,5180031,,,,,,,2025-10-27,1,,,,,ノヴァレント,0
1714,7190003005236,新規,0,2025-10-27,2025-10-27,合同会社Ｍａｈａｄ　Ｔｒａｄｉｎｇｓ,,合同会社,三重県,桑名郡木曽岬町,大字白鷺６２８‐５３,,24,303,4980815,,,,,,,2025-10-27,1,,,,,マハドトレーディングズ,0
1724,7220001026973,新規,0,2025-10-27,2025-10-27,株式会社Ｌ‐ＳＱＵＡＲＥ,,株式会社,石川県,鳳珠郡能登町,字波並２０字９５番地２,,17,463,9270442,,,,,,,2025-10-27,1,,,,,エルスクエア,0
1732,7260003005393,新規,0,2025-10-27,2025-10-27,Ｓｔｒｕｃ合同会社,,合同会社,岡山県,岡山市南区,新保４４１番地１７ＰＲＯＭＥＮＡｄＥＳＯＵ１０１,,33,104,7000945,,,,,,,2025-10-27,1,,,,,ストラック,0
1733,7270001009313,新規,0,2025-10-27,2025-10-27,株式会社ＹＳＤプランニング,,株式会社,鳥取県,米子市,皆生温泉３丁目２番１５号,,31,202,6830001,,,,,,,2025-10-27,1,,,,,ワイエスディープランニング,0
1739,7290001111967,新規,0,2025-10-27,2025-10-27,株式会社碧桜,,株式会社,福岡県,糸島市,王丸６６８番地２,,40,230,8191573,,,,,,,2025-10-27,1,,,,,ミオ,0
1740,7290001112024,新規,0,2025-10-27,2025-10-27,景匠宛株式会社,,株式会社,福岡県,糟屋郡篠栗町,大字高田３８３番地１,,40,342,8112401,,,,,,,2025-10-27,1,,,,,ケイショウエン,0
1744,7290801031976,新規,0,2025-10-27,2025-10-27,株式会社ＮＡＳ,,株式会社,福岡県,行橋市,大字常松１１２,,40,213,8240074,,,,,,,2025-10-27,1,,,,,ナス,0
1756,7370001053169,新規,0,2025-10-27,2025-10-27,株式会社ＴｏｕｃｈＳｔａｒ,,株式会社,宮城県,仙台市青葉区,荒巻字青葉４６８番地の１,,04,101,9800845,,,,,,,2025-10-27,1,,,,,タッチスター,0
1770,7430001095527,新規,0,2025-10-27,2025-10-27,株式会社Ｖｉｃｔｏｒｙ　Ｒｏｙａｌｅ,,株式会社,北海道,札幌市中央区,大通西１丁目１３番地ル・トロワ６Ｆ札幌ル・トロワビューティクリニックＶｏｇｕｅ内医療コンサル部,,01,101,0600042,,,,,,,2025-10-27,1,,,,,ヴィクトリーロイヤル,0
1773,7460001006043,新規,0,2025-10-27,2025-10-27,株式会社ＭＩＮＥＬ,,株式会社,北海道,釧路市,昭和町３丁目４番３号,,01,206,0840903,,,,,,,2025-10-27,1,,,,,ミネル,0
1781,7700150132672,新規,0,2025-10-27,2025-10-27,Ｓｈａｎｄｏｎｇ　Ｌｉｚｈｅｎｇ　Ｈｏｍｅ　Ｔｅｃｈｎｏｌｏｇｙ　Ｃｏ．，Ｌｔｄ,,外国会社等,,,,,,,,３－２１０５，Ｂｕｉｌｄｉｎｇ　１，Ｎｏ．８９３６　Ｙｕｅｈｅ　Ｒｏａｄ，Ｃｈｅｎｇｇｕａｎ　Ｓｔｒｅｅｔ，Ｗｅｉｃｈｅｎｇ　Ｄｉｓｔｒｉｃｔ，ＷｅｉｆａｎｇＳｈａｎｄｏｎｇ,,,,,,2025-10-27,1,,,,,シヤンドンリージヨンジヤージーコージーヨウシエンゴンスー,0
1782,7700150132706,新規,0,2025-10-27,2025-10-27,ＡＭＨ　ＭＯＴＯ　ＷＯＲＬＤ　ＰＶＴ　ＬＴＤ,,外国会社等,千葉県,長生郡白子町,五井１２１１番地２５－３,,12,424,2994211,スリランカ民主社会主義共和国、ボレラスガムワ、カトゥワウィラ、Ｎｏ．１１３／４,,,,,,2025-10-27,1,,,,,エーエムエイチモトワールドプライベートリミテツド,0
1790,8010001259040,新規,0,2025-10-27,2025-10-27,エムエムホールディングス株式会社,,株式会社,東京都,千代田区,西神田２丁目５番８号,,13,101,1010065,,,,,,,2025-10-27,1,,,,,エムエムホールディングス,0
1796,8010003049142,新規,0,2025-10-27,2025-10-27,四季＿坊合同会社,00141271,合同会社,東京都,中央区,八丁堀３丁目１－１１九牧王ビル３０３,,13,102,1040032,,,,,,,2025-10-27,1,,,,,シキボウボウ,0
1797,8010003049167,新規,0,2025-10-27,2025-10-27,合同会社レプタルワーク,,合同会社,東京都,千代田区,神田須田町１丁目７番地８ＶＯＲＴ秋葉原ＩＶ２Ｆ,00141273,13,101,1010041,,,,,,,2025-10-27,1,,,,,レプタルワーク,0
1799,8010101016928,新規,0,2025-10-27,2025-10-27,株式会社ｓｏｈａｎ,,株式会社,東京都,八王子市,北野台１丁目３８番６号,,13,201,1920913,,,,,,,2025-10-27,1,,,,,ソーハン,0
1812,8010401193839,新規,0,2025-10-27,2025-10-27,株式会社ＲＫＴｓｕｎａｇｕ,,株式会社,東京都,港区,芝浦３丁目１番２１号,,13,103,1080023,,,,,,,2025-10-27,1,,,,,アールケーツナグ,0
1813,8010401193863,新規,0,2025-10-27,2025-10-27,れもん株式会社,,株式会社,東京都,港区,白金台３丁目１２－２－１０５,,13,103,1080071,,,,,,,2025-10-27,1,,,,,レモン,0
1814,8010401193888,新規,0,2025-10-27,2025-10-27,株式会社ＡｒｔＰｏｒｔ,,株式会社,東京都,港区,北青山１丁目３－３三橋ビル３階,,13,103,1070061,,,,,,,2025-10-27,1,,,,,アートポート,0
1815,8010401193987,新規,0,2025-10-27,2025-10-27,ＡｌｔＳｃｏｐｅ株式会社,,株式会社,東京都,港区,六本木３丁目１６番１２号六本木ＫＳビル５Ｆ,,13,103,1060032,,,,,,,2025-10-27,1,,,,,アルトスコープ,0
1816,8010401194044,新規,0,2025-10-27,2025-10-27,Ｄｒ．Ｌｏｖｅ株式会社,,株式会社,東京都,港区,麻布台３丁目５番３－１５０７号,,13,103,1060041,,,,,,,2025-10-27,1,,,,,ドクターラブ,0
1822,8010403036310,新規,0,2025-10-27,2025-10-27,ＵＵＭ合同会社,,合同会社,東京都,港区,南青山２丁目２番１５号ウィン青山９４２,,13,103,1070062,,,,,,,2025-10-27,1,,,,,ユウユウエム,0
1823,8010403036319,新規,0,2025-10-27,2025-10-27,合同会社Ｃ,,合同会社,東京都,港区,南青山２丁目２番１５号,,13,103,1070062,,,,,,,2025-10-27,1,,,,,シー,0
1831,8010803005591,新規,0,2025-10-27,2025-10-27,合同会社ＩＳＲＪＰ,,合同会社,東京都,大田区,南六郷３丁目１０番１６号六郷ＢＡＳＥ,,13,111,1440045,,,,,,,2025-10-27,1,,,,,アイエスアールジェーピー,0
1835,8010901058319,新規,0,2025-10-27,2025-10-27,株式会社ＣｏｒｅＷｅｌｌｎｅｓｓ,,株式会社,東京都,世田谷区,豪徳寺１丁目２５番３号サザンリーフ豪徳寺１０２,,13,112,1540021,,,,,,,2025-10-27,1,,,,,コアウェルネス,0
1842,8011001173000,新規,0,2025-10-27,2025-10-27,株式会社ＪＤＭ　Ｔｏｕｒｓ,,株式会社,東京都,渋谷区,恵比寿３丁目４１番１号ＴＥＲＲＡＣＥＥＢＩＳＵ３０１,,13,113,1500013,,,,,,,2025-10-27,1,,,,,ジェーディーエムツアーズ,0
1843,8011001173033,新規,0,2025-10-27,2025-10-27,株式会社ＫｅｅｎｏＮ,,株式会社,東京都,渋谷区,千駄ヶ谷５丁目２０－２３,,13,113,1510051,,,,,,,2025-10-27,1,,,,,キーノン,0
1844,8011001173041,新規,0,2025-10-27,2025-10-27,Ｓｏｌｕｎａ　Ｉｎｔｅｒｎａｔｉｏｎａｌ株式会社,,株式会社,東京都,渋谷区,代々木２丁目２３番地１号,,13,113,1510053,,,,,,,2025-10-27,1,,,,,ソルナインターナショナル,0
1845,8011001173058,新規,0,2025-10-27,2025-10-27,株式会社ＩＮＮＥＲ　ＰＯＲＴＥＲＺ,,株式会社,東京都,渋谷区,恵比寿３丁目３９番９－１００３号,,13,113,1500013,,,,,,,2025-10-27,1,,,,,インナーポーターズ,0
1846,8011001173066,新規,0,2025-10-27,2025-10-27,株式会社メグリヴァ,,株式会社,東京都,目黒区,上目黒１丁目１０－５フィールドストーン１０４号,,13,110,1530051,,,,,,,2025-10-27,1,,,,,メグリヴァ,0
1847,8011001173074,新規,0,2025-10-27,2025-10-27,株式会社プライムコア,,株式会社,東京都,渋谷区,円山町１５番３号,,13,113,1500044,,,,,,,2025-10-27,1,,,,,プライムコア,0
1848,8011001173082,新規,0,2025-10-27,2025-10-27,株式会社Ｒｅｖｉａｌ,,株式会社,東京都,渋谷区,広尾１丁目２番地１号ヒカリビル４階,,13,113,1500012,,,,,,,2025-10-27,1,,,,,リヴィアル,0
1849,8011001173090,新規,0,2025-10-27,2025-10-27,株式会社ＵＤＯＮ　ＳＨＩＮ,,株式会社,東京都,渋谷区,代々木２丁目１８番９－５０９号,,13,113,1510053,,,,,,,2025-10-27,1,,,,,ウドンシン,0
1850,8011001173108,新規,0,2025-10-27,2025-10-27,株式会社Ｂｅａｃｏｎ＆Ｃｏ．,,株式会社,東京都,渋谷区,恵比寿南２丁目１９番７号ＶＯＲＴ恵比寿Ｄｕａｌ’ｓ３０２,,13,113,1500022,,,,,,,2025-10-27,1,,,,,ビーコンアンドカンパニー,0
1851,8011003022717,新規,0,2025-10-27,2025-10-27,Ｔｈｘ合同会社,,合同会社,東京都,目黒区,下目黒１丁目１番１４号,,13,110,1530064,,,,,,,2025-10-27,1,,,,,ティエイチエックス,0
1852,8011003022832,新規,0,2025-10-27,2025-10-27,合同会社ＪＡＰＡＮ　ＡＩ蓄電池発電センター８号,,合同会社,東京都,渋谷区,桜丘町２２番１９－４階,,13,113,1500031,,,,,,,2025-10-27,1,,,,,,0
1853,8011005011214,新規,0,2025-10-27,2025-10-27,一般社団法人ＮＢＩ日本ネトラバスティ普及育成協会,,その他の設立登記法人,東京都,渋谷区,恵比寿西２丁目１番７号ミツワマンション６０３,,13,113,1500021,,,,,,,2025-10-27,1,,,,,エヌビーアイニホンネトラバスティフキュウイクセイキョウカイ,0
1855,8011101113657,新規,0,2025-10-27,2025-10-27,Ｎｃｏｄｅ株式会社,,株式会社,東京都,新宿区,西新宿４丁目１番１０号東建ニューハイツ西新宿９０３,,13,104,1600023,,,,,,,2025-10-27,1,,,,,エヌコード,0
1856,8011101113772,新規,0,2025-10-27,2025-10-27,７Ｂｒｉｄｇｅｓ　Ｈｏｌｄｉｎｇｓ株式会社,,株式会社,東京都,新宿区,新宿５丁目１８番２０号ルックハイツ新宿８０３号,,13,104,1600022,,,,,,,2025-10-27,1,,,,,セブンブリッジズホールディングス,0
1861,8011103016585,新規,0,2025-10-27,2025-10-27,合同会社ＬＥＥ　ＳＡＮＧ,,合同会社,東京都,新宿区,西新宿３丁目３番１３号西新宿水間ビル６階,,13,104,1600023,,,,,,,2025-10-27,1,,,,,イサン,0
1862,8011105011642,新規,0,2025-10-27,2025-10-27,イースリー行政書士法人,,その他の設立登記法人,東京都,新宿区,市谷船河原町１１,,13,104,1620826,,,,,,,2025-10-27,1,,,,,イースリー,0
1864,8011301030999,新規,0,2025-10-27,2025-10-27,ＰｒｏｐＮｅｘｔ株式会社,,株式会社,東京都,杉並区,天沼２丁目７番７－３０１号,,13,115,1670032,,,,,,,2025-10-27,1,,,,,プロップネクスト,0
1870,8011501032754,新規,0,2025-10-27,2025-10-27,株式会社Ｎ．Ｎｏｖａ,,株式会社,東京都,荒川区,西日暮里２丁目４０－３日神パレス日暮里８０２,,13,118,1160013,,,,,,,2025-10-27,1,,,,,エヌノヴァ,0
1876,8011803007149,新規,0,2025-10-27,2025-10-27,合同会社ひかりの杜,,合同会社,東京都,葛飾区,鎌倉２丁目２１番１７号,,13,122,1250053,,,,,,,2025-10-27,1,,,,,ヒカリノモリ,0
1877,8012303002235,新規,0,2025-10-27,2025-10-27,合同会社ＪＰオートリース,,合同会社,東京都,町田市,小川２丁目１９番地２６,,13,209,1940003,,,,,,,2025-10-27,1,,,,,ジェイピーオートリース,0
1879,8012401043742,新規,0,2025-10-27,2025-10-27,メディカプロ株式会社,,株式会社,東京都,多摩市,関戸２丁目３２番地１プリメーラ多摩８Ｆ,,13,224,2060011,,,,,,,2025-10-27,1,,,,,メディカプロ,0
1895,8020001165444,新規,0,2025-10-27,2025-10-27,ＳＥＩコーポレートデザイン株式会社,,株式会社,神奈川県,横浜市鶴見区,江ケ崎町１６番１７－３１７号,,14,101,2300002,,,,,,,2025-10-27,1,,,,,セイコーポレートデザイン,0
1896,8020001165519,新規,0,2025-10-27,2025-10-27,株式会社ＳＡＫＵＲＡ　Ｃａｐｉｔａｌ,,株式会社,神奈川県,横浜市港北区,新横浜２丁目５番１０号楓第２ビル９階Ｂ室,,14,109,2220033,,,,,,,2025-10-27,1,,,,,サクラキャピタル,0
1901,8020003029580,新規,0,2025-10-27,2025-10-27,合同会社鎌倉びより,,合同会社,神奈川県,横浜市南区,六ツ川３丁目３０番１０号,,14,105,2320066,,,,,,,2025-10-27,1,,,,,カマクラビヨリ,0
1902,8020003029647,新規,0,2025-10-27,2025-10-27,合同会社八雲,,合同会社,神奈川県,横浜市西区,北幸２丁目１０番４８号むつみビル３階,,14,103,2200004,,,,,,,2025-10-27,1,,,,,ヤクモ,0
1903,8020003029655,新規,0,2025-10-27,2025-10-27,合同会社ライド,,合同会社,神奈川県,横浜市緑区,長津田みなみ台７丁目３番地９,,14,113,2260018,,,,,,,2025-10-27,1,,,,,ライド,0
1905,8021001086671,新規,0,2025-10-27,2025-10-27,株式会社ｒｉｄｄｉｍ　ｃｏｍｐａｎｙ,,株式会社,神奈川県,横須賀市,坂本町５丁目２２番地２Ｆ,,14,201,2380043,,,,,,,2025-10-27,1,,,,,リディムカンパニー,0
1917,8030001169386,新規,0,2025-10-27,2025-10-27,株式会社ＯＫ設備,,株式会社,埼玉県,さいたま市北区,別所町１２０番地５ことぶきハイツＢ－２０１,,11,102,3310821,,,,,,,2025-10-27,1,,,,,オーケーセツビ,0
1922,8030003027955,新規,0,2025-10-27,2025-10-27,Ｃｒｏｓｓ　Ｅｄｇｅ合同会社,,合同会社,埼玉県,さいたま市浦和区,北浦和５丁目７番１３－４０５号,,11,107,3300074,,,,,,,2025-10-27,1,,,,,クロスエッジ,0
1923,8030005022319,新規,0,2025-10-27,2025-10-27,一般社団法人ワンモアピース共創協会,,その他の設立登記法人,埼玉県,熊谷市,石原６４１番地３,,11,202,3600816,,,,,,,2025-10-27,1,,,,,ワンモアピースキョウソウキョウカイ,0
1928,8040001141113,新規,0,2025-10-27,2025-10-27,株式会社雅工業,,株式会社,千葉県,市原市,千種４丁目１番地８,,12,219,2990109,,,,,,,2025-10-27,1,,,,,ミヤビコウギョウ,0
1933,8050003009720,新規,0,2025-10-27,2025-10-27,合同会社龍希モータース,,合同会社,茨城県,結城市,大字上山川５５６４－１,,08,207,3070021,,,,,,,2025-10-27,1,,,,,リュウキモータース,0
1934,8050005013720,新規,0,2025-10-27,2025-10-27,一般社団法人日本コンビニ未来共創支援機構,,その他の設立登記法人,茨城県,つくば市,竹園２丁目１３番地３０,,08,220,3050032,,,,,,,2025-10-27,1,,,,,ニホンコンビニミライキョウソウシエンキコウ,0
1935,8060001038712,新規,0,2025-10-27,2025-10-27,株式会社中曽根,,株式会社,栃木県,鹿沼市,東町２丁目１番１２号,,09,205,3220022,,,,,,,2025-10-27,1,,,,,ナカソネ,0
1937,8060003005818,新規,0,2025-10-27,2025-10-27,合同会社リゾートナス企画,,合同会社,栃木県,那須郡那須町,大字寺子乙８９２番地１３,,09,407,3293215,,,,,,,2025-10-27,1,,,,,リゾートナスキカク,0
1938,8070001043463,新規,0,2025-10-27,2025-10-27,グッドフロー株式会社,,株式会社,群馬県,館林市,松沼町２０番１６号,,10,207,3740056,,,,,,,2025-10-27,1,,,,,グッドフロー,0
1940,8080001027234,新規,0,2025-10-27,2025-10-27,株式会社ららさくら,,株式会社,静岡県,藤枝市,岡部町三輪６１４番地の６,,22,214,4211132,,,,,,,2025-10-27,1,,,,,ララサクラ,0
1942,8080401028237,新規,0,2025-10-27,2025-10-27,株式会社ＴＳコンサル,,株式会社,静岡県,浜松市中央区,野口町５１３番地の１,,22,138,4300919,,,,,,,2025-10-27,1,,,,,ティーエスコンサル,0
1959,8120001281462,新規,0,2025-10-27,2025-10-27,影武者株式会社,,株式会社,大阪府,大阪市都島区,中野町５丁目１３－３、３９０３,,27,102,5340027,,,,,,,2025-10-27,1,,,,,カゲムシャ,0
1960,8120001281470,新規,0,2025-10-27,2025-10-27,株式会社ｓｕｎａｏ,,株式会社,大阪府,大阪市中央区,北久宝寺一丁目９番６号ネオフィス堺筋本町２０１号,,27,128,5390000,,,,,,,2025-10-27,1,,,,,スナオ,0
1961,8120001281495,新規,0,2025-10-27,2025-10-27,株式会社Ｍｅｅｔ　Ｍｅａｔｓ,,株式会社,大阪府,大阪市北区,堂島１丁目３番３３号新地萬年ビル４Ｆ,,27,127,5300003,,,,,,,2025-10-27,1,,,,,ミートミーツ,0
1969,8120901051675,新規,0,2025-10-27,2025-10-27,株式会社ブライトン,,株式会社,大阪府,茨木市,彩都あさぎ２丁目６番４７号の３,,27,211,5670085,,,,,,,2025-10-27,1,,,,,ブライトン,0
1977,8130001080475,新規,0,2025-10-27,2025-10-27,株式会社ｓａｃｒａ,,株式会社,京都府,八幡市,欽明台西４７番地１３,,26,210,6148297,,,,,,,2025-10-27,1,,,,,サクラ,0
1984,8140001140534,新規,0,2025-10-27,2025-10-27,株式会社デルタ,,株式会社,兵庫県,豊岡市,日高町上石４７番地の２,,28,209,6695331,,,,,,,2025-10-27,1,,,,,デルタ,0
1985,8140001140591,新規,0,2025-10-27,2025-10-27,ＧＣｏｎｎｅｃｔｉｏｎ株式会社,,株式会社,兵庫県,揖保郡太子町,東南１８番地ブリッサ２番館,,28,464,6711523,,,,,,,2025-10-27,1,,,,,ジーコネクション,0
1986,8140003022730,新規,0,2025-10-27,2025-10-27,合同会社チャームサロンミカゲ,,合同会社,兵庫県,神戸市東灘区,御影本町４丁目７番１３号,,28,101,6580046,,,,,,,2025-10-27,1,,,,,チャームサロンミカゲ,0
1988,8170001018851,新規,0,2025-10-27,2025-10-27,株式会社ｒｅｐｏｓ,,株式会社,和歌山県,岩出市,吉田３１７番地の８,00141263,30,209,6496246,,,,,,,2025-10-27,1,,,,,ルポ,0
1995,8180001169264,新規,0,2025-10-27,2025-10-27,Ｔａｊ株式会社,,株式会社,愛知県,弥富市,東末広８丁目４６番地,,23,235,4980063,,,,,,,2025-10-27,1,,,,,タジ,0
2009,8190003005235,新規,0,2025-10-27,2025-10-27,合同会社Ｓｉｐｒａ　Ｔｒａｄｉｎｇｓ,,合同会社,三重県,桑名郡木曽岬町,大字白鷺６２８‐５３,,24,303,4980815,,,,,,,2025-10-27,1,,,,,シプラトレーディングズ,0
2010,8190003005243,新規,0,2025-10-27,2025-10-27,合同会社田辺資敷,,合同会社,三重県,津市,半田５２６番地３,,24,201,5140823,,,,,,,2025-10-27,1,,,,,タナベシシキ,0
2014,8210005010230,新規,0,2025-10-27,2025-10-27,一般社団法人終身サポート協会福ゆかり,,その他の設立登記法人,福井県,福井市,春日町２３９番６号２Ｂ,,18,201,9188107,,,,,,,2025-10-27,1,,,,,シュウシンサポートキョウカイフクユカリ,0
2033,8290001111801,新規,0,2025-10-27,2025-10-27,株式会社Ｋ企画,,株式会社,福岡県,福岡市中央区,渡辺通５丁目１４番１２号南天神ビル３階,,40,133,8100004,,,,,,,2025-10-27,1,,,,,ケイキカク,0
2034,8290001111966,新規,0,2025-10-27,2025-10-27,順天国際株式会社,,株式会社,福岡県,福岡市中央区,薬院４丁目１８番１５－９０１号,,40,133,8100022,,,,,,,2025-10-27,1,,,,,ジュンテンコクサイ,0
2036,8290003017658,新規,0,2025-10-27,2025-10-27,炎晟電力合同会社,,合同会社,福岡県,福岡市博多区,東那珂２丁目６番１５号７０１,,40,132,8120892,,,,,,,2025-10-27,1,,,,,エンセイデンリョク,0
2040,8290801031975,新規,0,2025-10-27,2025-10-27,株式会社ＮＥＶＩＡ,,株式会社,福岡県,北九州市小倉北区,浅野３丁目８番１号ＡＩＭビル６Ｆ,,40,106,8020001,,,,,,,2025-10-27,1,,,,,ネヴィア,0
2042,8330001033677,新規,0,2025-10-27,2025-10-27,株式会社涼風,,株式会社,熊本県,天草市,有明町大島子２４３０番地,,43,215,8617314,,,,,,,2025-10-27,1,,,,,スズカゼ,0
2043,8330001033693,新規,0,2025-10-27,2025-10-27,株式会社ジーエスシーズ,,株式会社,熊本県,上天草市,松島町阿村２３１番地２,,43,212,8616101,,,,,,,2025-10-27,1,,,,,ジーエスシーズ,0
2049,8370001053176,新規,0,2025-10-27,2025-10-27,株式会社ＴＨＲＥＥ　ＭＡＲＫＳ,,株式会社,宮城県,仙台市青葉区,錦ケ丘５丁目１番地の２錦ケ丘アーバンヒルズリエール２０７,,04,101,9893123,,,,,,,2025-10-27,1,,,,,スリーマークス,0
2050,8370003007345,新規,0,2025-10-27,2025-10-27,ローレンス合同会社,,合同会社,宮城県,伊具郡丸森町,筆甫字鷲平上３７,,04,341,9812201,,,,,,,2025-10-27,1,,,,,ローレンス,0
2068,8430003018261,新規,0,2025-10-27,2025-10-27,合同会社ＵＲＯＳ,,合同会社,北海道,札幌市白石区,北郷七条４丁目８－１６セリオ１０８,,01,104,0030837,,,,,,,2025-10-27,1,,,,,ウロス,0
2069,8450003002734,新規,0,2025-10-27,2025-10-27,ＹＨアセット合同会社,,合同会社,北海道,名寄市,大通北３丁目３－２,,01,221,0960030,,,,,,,2025-10-27,1,,,,,ワイエイチアセット,0
2071,8460003001074,新規,0,2025-10-27,2025-10-27,合同会社ｓｔｅｅｌｏ,,合同会社,北海道,釧路市,文苑４丁目６５番地２公立大前ビル２Ｆ,,01,206,0850063,,,,,,,2025-10-27,1,,,,,,0
2073,8480003002343,新規,0,2025-10-27,2025-10-27,合同会社大福,,合同会社,徳島県,徳島市,南田宮３丁目４－１６竹内ビル２Ｆ,,36,201,7700004,,,,,,,2025-10-27,1,,,,,ダイフク,0
2075,8700150132705,新規,0,2025-10-27,2025-10-27,ＲＡＪ　ＡＵＴＯ　ＬＩＮＥ,,外国会社等,神奈川県,厚木市,下荻野１３５３番地５－２０１,,14,212,2430203,スリランカ民主社会主義共和国、ワラカムラ、ウクウェラワスタ、Ｎｏ．１２４／４／Ｃ,,,,,,2025-10-27,1,,,,,ラジオートライン,0
2084,9010001259741,新規,0,2025-10-27,2025-10-27,ＡＤＶＡＮＣＥ株式会社,,株式会社,東京都,中央区,築地５丁目４番１９号,,13,102,1040045,,,,,,,2025-10-27,1,,,,,アドバンス,0
2095,9010401193887,新規,0,2025-10-27,2025-10-27,株式会社ＲＥＫＩ,,株式会社,東京都,港区,六本木３丁目１１番１０号,,13,103,1060032,,,,,,,2025-10-27,1,,,,,レキ,0
2096,9010401193978,新規,0,2025-10-27,2025-10-27,株式会社Ｂｕｉｌｄ　Ｆｏｒｃｅ,,株式会社,東京都,港区,芝浦１丁目１３番１０号第３東運ビル４Ｆ,,13,103,1050023,,,,,,,2025-10-27,1,,,,,ビルドフォース,0
2097,9010401194051,新規,0,2025-10-27,2025-10-27,虎ノ門ＴＡＭＡ株式会社,,株式会社,東京都,港区,虎ノ門１丁目１７番１号,,13,103,1050001,,,,,,,2025-10-27,1,,,,,トラノモンタマ,0
2098,9010401194101,新規,0,2025-10-27,2025-10-27,株式会社Ｓｕｐｅｒ　Ｈｕｍａｎ,,株式会社,東京都,港区,南麻布５丁目１－１１レジデンスクイズ広尾１１０１号室,,13,103,1060047,,,,,,,2025-10-27,1,,,,,スーパーヒューマン,0
2107,9010405024915,新規,0,2025-10-27,2025-10-27,一般社団法人ウェルスバレー,,その他の設立登記法人,東京都,港区,虎ノ門３丁目２２番１０－２０１号,,13,103,1050001,,,,,,,2025-10-27,1,,,,,ウェルスバレー,0
2110,9010601068179,新規,0,2025-10-27,2025-10-27,トツプアライアンス株式会社,,株式会社,東京都,江東区,北砂４丁目２１番１０号,,13,108,1360073,,,,,,,2025-10-27,1,,,,,トツプアライアンス,0
2111,9010601068187,新規,0,2025-10-27,2025-10-27,ＯＳＣ建設株式会社,,株式会社,東京都,墨田区,墨田２丁目１０番２０号,,13,107,1310031,,,,,,,2025-10-27,1,,,,,オーエスシーケンセツ,0
2112,9010603011888,新規,0,2025-10-27,2025-10-27,合同会社ｃｏｍｍｅｄｉａ,,合同会社,東京都,江東区,東陽１丁目１１番３号,,13,108,1350016,,,,,,,2025-10-27,1,,,,,コンメディア,0
2121,9010801036720,新規,0,2025-10-27,2025-10-27,株式会社ちーむヨシイチ,,株式会社,東京都,大田区,本羽田２丁目１３番２３号,,13,111,1440044,,,,,,,2025-10-27,1,,,,,チームヨシイチ,0
2123,9010901058326,新規,0,2025-10-27,2025-10-27,株式会社ポチカジ世田谷,,株式会社,東京都,世田谷区,太子堂４丁目１８番１５号マガザン三軒茶屋２－３Ｆ－３,,13,112,1540004,,,,,,,2025-10-27,1,,,,,ポチカジセタガヤ,0
2126,9010903010342,新規,0,2025-10-27,2025-10-27,合同会社Ｎｏｒｄｂｌｕｅ,,合同会社,東京都,世田谷区,松原３丁目３８―９,,13,112,1560043,,,,,,,2025-10-27,1,,,,,ノードブルー,0
2128,9011001172570,新規,0,2025-10-27,2025-10-27,人学堂株式会社,,株式会社,東京都,目黒区,目黒３丁目４－１３－３０２号室,,13,110,1530063,,,,,,,2025-10-27,1,,,,,ジンガクドウ,0
2129,9011001173032,新規,0,2025-10-27,2025-10-27,株式会社ＫＡＷＡＩＩ,,株式会社,東京都,渋谷区,恵比寿西２丁目４番８号ウィンド恵比寿ビル８Ｆ,,13,113,1500021,,,,,,,2025-10-27,1,,,,,カワイイ,0
2130,9011001173049,新規,0,2025-10-27,2025-10-27,株式会社Ｄ’ＳＭＡＳＨ　ＳＥＳ,,株式会社,東京都,渋谷区,道玄坂１丁目１０－８渋谷道玄坂東急ビル２Ｆ－Ｃ,,13,113,1500043,,,,,,,2025-10-27,1,,,,,,0
2131,9011001173065,新規,0,2025-10-27,2025-10-27,株式会社ハチロクキャリア,,株式会社,東京都,渋谷区,三丁目６番２号エクラート渋谷５Ｆ,,13,113,1500000,,,,,,,2025-10-27,1,,,,,ハチロクキャリア,0
2132,9011001173073,新規,0,2025-10-27,2025-10-27,株式会社Ｊｕｎｏ,,株式会社,東京都,渋谷区,道玄坂１丁目１０番８号渋谷道玄坂東急ビル２Ｆ－Ｃ,,13,113,1500043,,,,,,,2025-10-27,1,,,,,ジュノ,0
2133,9011001173081,新規,0,2025-10-27,2025-10-27,株式会社ＢＴＳ　ＳＥＭＩ　ＪＡＰＡＮ,,株式会社,東京都,渋谷区,代々木４丁目３１番４号キャッスル新宿１１０２号室,,13,113,1510053,,,,,,,2025-10-27,1,,,,,ビーティエスセミジャパン,0
2134,9011001173214,新規,0,2025-10-27,2025-10-27,株式会社ＧＧＪ,,株式会社,東京都,渋谷区,東１丁目２６番３２号ブロード南青ホームズ１０１,,13,113,1500011,,,,,,,2025-10-27,1,,,,,ジージージェイ,0
2135,9011003022831,新規,0,2025-10-27,2025-10-27,合同会社ＪＡＰＡＮ　ＡＩ蓄電池発電センター７号,,合同会社,東京都,渋谷区,桜丘町２２番１９－４階,,13,113,1500031,,,,,,,2025-10-27,1,,,,,,0
2138,9011103016568,新規,0,2025-10-27,2025-10-27,合同会社ＫＩＺＵＮＡ　ｃａｐｉｔａｌ,,合同会社,東京都,新宿区,神楽坂６丁目１９番地神楽坂Ｎビル２Ｆ,,13,104,1620825,,,,,,,2025-10-27,1,,,,,キズナキャピタル,0
2139,9011103016576,新規,0,2025-10-27,2025-10-27,合同会社未来配送,,合同会社,東京都,新宿区,市谷台町１８番５号川上荘２号棟１Ｆ,,13,104,1620066,,,,,,,2025-10-27,1,,,,,ミライハイソウ,0
2140,9011303005759,新規,0,2025-10-27,2025-10-27,合同会社ｌｕｍｏｓ,,合同会社,東京都,杉並区,南荻窪１丁目２１番１３号オクトフォーリア１０１,,13,115,1670052,,,,,,,2025-10-27,1,,,,,ルーモス,0
2148,9011801046949,新規,0,2025-10-27,2025-10-27,株式会社Ｎｏｖａ　Ｒｉｓｅ,,株式会社,東京都,足立区,西伊興１丁目１０番２４号,,13,121,1210824,,,,,,,2025-10-27,1,,,,,ノヴァライズ,0
2151,9012303002234,新規,0,2025-10-27,2025-10-27,合同会社ＣＬＵＢＴＯＷＮ　ＣＡＰＩＴＡＬ,,合同会社,東京都,町田市,原町田６丁目１４番８号東亜ビル１階Ｂ区画,,13,209,1940013,,,,,,,2025-10-27,1,,,,,クラブタウンキャピタル,0
2154,9013301055199,新規,0,2025-10-27,2025-10-27,＿晟株式会社,00141264,株式会社,東京都,豊島区,池袋４丁目２９－１１－６０７号,,13,116,1710014,,,,,,,2025-10-27,1,,,,,キンセイ,0
2161,9020001165088,新規,0,2025-10-27,2025-10-27,ＢＡＲＢＵＳＡ．ＣＯ株式会社,,株式会社,神奈川県,横浜市保土ケ谷区,仏向町５８５番地１０,,14,106,2400044,,,,,,,2025-10-27,1,,,,,バルブサコー,0
2166,9030001169336,新規,0,2025-10-27,2025-10-27,株式会社Ｌｏｏｎ　Ｅｙｅｓ　Ｓｔｕｄｉｏ　Ｊａｐａｎ,,株式会社,埼玉県,さいたま市見沼区,大和田町１丁目１９０３番地６,,11,104,3370053,,,,,,,2025-10-27,1,,,,,ローンアイズスタジオジャパン,0
2167,9030001169352,新規,0,2025-10-27,2025-10-27,株式会社サンブライト,,株式会社,埼玉県,草加市,瀬崎７丁目１１番３号コーポ浅古２０１号,,11,221,3400022,,,,,,,2025-10-27,1,,,,,サンブライト,0
2173,9030003027954,新規,0,2025-10-27,2025-10-27,合同会社つなたま,,合同会社,埼玉県,さいたま市大宮区,桜木町２丁目３番地大宮マルイ７階,,11,103,3300854,,,,,,,2025-10-27,1,,,,,ツナタマ,0
2175,9040001140428,新規,0,2025-10-27,2025-10-27,株式会社せんりょう薬局,,株式会社,千葉県,千葉市中央区,南町１丁目１５番１７号ダイアパレス京葉蘇我Ｖ４０９号,00141268,12,101,2600842,,,,,,,2025-10-27,1,,,,,センリョウヤッキョク,0
2176,9040001140493,新規,0,2025-10-27,2025-10-27,ＴＦＪ株式会社,,株式会社,千葉県,八街市,吉倉５９２番地２２,,12,230,2891133,,,,,,,2025-10-27,1,,,,,ティーエフジェイ,0
2177,9040001141112,新規,0,2025-10-27,2025-10-27,さくら住宅設備株式会社,,株式会社,千葉県,柏市,篠籠田１１２４番地１,,12,217,2770862,,,,,,,2025-10-27,1,,,,,サクラジュウタクセツビ,0
2180,9040003028860,新規,0,2025-10-27,2025-10-27,がんのさとし合同会社,,合同会社,千葉県,松戸市,常盤平１丁目５番地の１９メゾン伊藤１０２,,12,207,2702261,,,,,,,2025-10-27,1,,,,,ガンノサトシ,0
2186,9060001038711,新規,0,2025-10-27,2025-10-27,株式会社茜工業,,株式会社,栃木県,真岡市,上高間木２丁目３２番地４ニューコーポシノザキＨ１０６号,,09,209,3214337,,,,,,,2025-10-27,1,,,,,アカネコウギョウ,0
2191,9080105006546,新規,0,2025-10-27,2025-10-27,一般社団法人沼津御用邸前の海岸から地球を綺麗にする会,,その他の設立登記法人,静岡県,沼津市,下香貫大久保２３１４番地の７,,22,203,4100822,,,,,,,2025-10-27,1,,,,,ヌマヅゴヨウテイマエノカイガンカラチキュウヲキレイニスルカイ,0
2206,9120001281445,新規,0,2025-10-27,2025-10-27,株式会社リリィ,,株式会社,大阪府,大阪市北区,梅田１丁目１番３号大阪駅前第３ビル２９階１－１－１号室,,27,127,5300001,,,,,,,2025-10-27,1,,,,,リリィ,0
2207,9120001281453,新規,0,2025-10-27,2025-10-27,日進国際株式会社,,株式会社,大阪府,大阪市淀川区,新高１丁目１５番３４－６０４号,,27,123,5320033,,,,,,,2025-10-27,1,,,,,ニッシンコクサイ,0
2208,9120001281503,新規,0,2025-10-27,2025-10-27,株式会社ＧＩ,,株式会社,大阪府,大阪市此花区,高見３丁目１８番１０号,,27,104,5540001,,,,,,,2025-10-27,1,,,,,ジーアイ,0
2214,9120101072686,新規,0,2025-10-27,2025-10-27,株式会社グループホーム,,株式会社,大阪府,堺市西区,草部１４８０番地,,27,144,5938312,,,,,,,2025-10-27,1,,,,,グループホーム,0
2222,9122001039807,新規,0,2025-10-27,2025-10-27,株式会社積商店,,株式会社,大阪府,東大阪市,足代北２丁目３番１７－３０４号,,27,227,5770058,,,,,,,2025-10-27,1,,,,,セキショウテン,0
2223,9122001039815,新規,0,2025-10-27,2025-10-27,ＡＲ　ＪＡＰＡＮ株式会社,,株式会社,大阪府,柏原市,旭ケ丘３丁目１－３５,,27,221,5820026,,,,,,,2025-10-27,1,,,,,エーアールジャパン,0
2228,9130001080879,新規,0,2025-10-27,2025-10-27,株式会社神電工,,株式会社,京都府,京都市西京区,嵐山東海道町３１－１５,,26,111,6160012,,,,,,,2025-10-27,1,,,,,シンデンコウ,0
2234,9150005009732,新規,0,2025-10-27,2025-10-27,社会保険労務士法人中村事務所,,その他の設立登記法人,奈良県,奈良市,高天町４８番地の６森田ビル２Ｆ,,29,201,6308241,,,,,,,2025-10-27,1,,,,,ナカムラジムショ,0
2236,9170001018850,新規,0,2025-10-27,2025-10-27,株式会社よきかな,,株式会社,和歌山県,橋本市,高野口町名古曽５７７番地の４,,30,203,6497203,,,,,,,2025-10-27,1,,,,,ヨキカナ,0
2241,9180001169180,新規,0,2025-10-27,2025-10-27,株式会社ＨＮ　ＡＳＩＡ　ＥＸＰＯＲＴ,,株式会社,愛知県,半田市,岩滑高山町４丁目６０番地,,23,205,4750962,,,,,,,2025-10-27,1,,,,,エイチエヌアジアエキスポート,0
2242,9180001169255,新規,0,2025-10-27,2025-10-27,株式会社ソリネ,,株式会社,愛知県,名古屋市西区,那古野２丁目１４番１号なごのキャンパス,,23,104,4510042,,,,,,,2025-10-27,1,,,,,ソリネ,0
2243,9180001169271,新規,0,2025-10-27,2025-10-27,株式会社ＦＡ,,株式会社,愛知県,名古屋市中区,栄５丁目１８番１１号,,23,106,4600008,,,,,,,2025-10-27,1,,,,,エフエー,0
2249,9180301040347,新規,0,2025-10-27,2025-10-27,株式会社山滝,,株式会社,愛知県,高浜市,神明町３丁目１４番地５,,23,227,4441305,,,,,,,2025-10-27,1,,,,,サンリュウ,0
2252,9180305009743,新規,0,2025-10-27,2025-10-27,一般社団法人音の遊園地,,その他の設立登記法人,愛知県,岡崎市,松橋町１丁目１０番地１８４,,23,202,4442113,,,,,,,2025-10-27,1,,,,,オトノユウエンチ,0
2258,9220001026988,新規,0,2025-10-27,2025-10-27,株式会社ＬＯＣＡＬ　ＧＯＡＬｓ,,株式会社,石川県,金沢市,香林坊２丁目１番地１・２Ｆコワーキングスクエア金沢香林坊,,17,201,9200961,,,,,,,2025-10-27,1,,,,,ローカルゴールズ,0
2260,9240001065687,新規,0,2025-10-27,2025-10-27,株式会社ＮｅｕｒｏＷｏｒｋｓ,,株式会社,広島県,広島市安佐南区,山本５丁目７３－４,,34,105,7310137,,,,,,,2025-10-27,1,,,,,ニューロワークス,0
2269,9290001111825,新規,0,2025-10-27,2025-10-27,株式会社あさひ,,株式会社,福岡県,福岡市中央区,今泉２丁目３－３８ピュア天神２０３号,,40,133,8100021,,,,,,,2025-10-27,1,,,,,アサヒ,0
2270,9290001111882,新規,0,2025-10-27,2025-10-27,株式会社Ｅｖｏｌｔｒａ,,株式会社,福岡県,福岡市博多区,博多駅東３丁目６番１３－７０５号ＭＯＤＥＲＮＰＡＬＡＺＺＯ博多ｒｉｖａｌ,,40,132,8120013,,,,,,,2025-10-27,1,,,,,エヴォルトラ,0
2271,9290001111899,新規,0,2025-10-27,2025-10-27,株式会社ブライトライフ,,株式会社,福岡県,嘉穂郡桂川町,大字土師２２０８番地３,,40,421,8200607,,,,,,,2025-10-27,1,,,,,ブライトライフ,0
2272,9290001111998,新規,0,2025-10-27,2025-10-27,株式会社おかげさま,,株式会社,福岡県,福岡市南区,大池１丁目９番４号,,40,134,8150073,,,,,,,2025-10-27,1,,,,,オカゲサマ,0
2278,9290003017640,新規,0,2025-10-27,2025-10-27,合同会社アポマネージ,,合同会社,福岡県,福岡市博多区,博多駅南５丁目２３番６－９０４号第８ケイコーマンション駅南,,40,132,8120016,,,,,,,2025-10-27,1,,,,,アポマネージ,0
2279,9290003017649,新規,0,2025-10-27,2025-10-27,合同会社快運,,合同会社,福岡県,福岡市東区,原田４丁目３０番２７－４０３号アンピール箱崎東,,40,131,8120063,,,,,,,2025-10-27,1,,,,,カイウン,0
2282,9290801031974,新規,0,2025-10-27,2025-10-27,株式会社メディコム,,株式会社,福岡県,北九州市八幡西区,穴生２丁目７番３号,,40,109,8060049,,,,,,,2025-10-27,1,,,,,メディコム,0
2303,9360003015356,新規,0,2025-10-27,2025-10-27,合同会社蒼匠,,合同会社,沖縄県,島尻郡八重瀬町,字新城１４２８－４－１０３,,47,362,9010503,,,,,,,2025-10-27,1,,,,,ソウショウ,0
2306,9370001053175,新規,0,2025-10-27,2025-10-27,株式会社ＧＡＲＡＹＡ,,株式会社,宮城県,仙台市若林区,沖野２丁目１４番３５号,,04,103,9840831,,,,,,,2025-10-27,1,,,,,ガラヤ,0
2320,9400001017218,新規,0,2025-10-27,2025-10-27,株式会社山是,,株式会社,岩手県,紫波郡紫波町,日詰字石田１１９番地１,,03,321,0283305,,,,,,,2025-10-27,1,,,,,ヤマコレ,0
2326,9430001095525,新規,0,2025-10-27,2025-10-27,株式会社ＧＥＮＫＩＤＳ,,株式会社,北海道,札幌市豊平区,平岸二条８丁目４－１－４０５,,01,105,0620932,,,,,,,2025-10-27,1,,,,,ゲンキッズ,0
2331,9430003018269,新規,0,2025-10-27,2025-10-27,合同会社アストラ,,合同会社,北海道,札幌市豊平区,豊平三条４丁目１番２４－３０５号,,01,105,0620903,,,,,,,2025-10-27,1,,,,,アストラ,0
2337,9700150132704,新規,0,2025-10-27,2025-10-27,ＮＡＭＡ　ＭＯＴＯＲＳ,,外国会社等,千葉県,夷隅郡大多喜町,下大多喜３２４５番地１－１,,12,441,2980202,スリランカ民主社会主義共和国、ピリマタラワ、アランベガマ、Ｎｏ．６９,,,,,,2025-10-27,1,,,,,ナマモータース,0
