sequenceNumber,corporateNumber,process,correct,updateDate,changeDate,name,nameImageId,kind,prefectureName,cityName,streetNumber,addressImageId,prefectureCode,cityCode,postCode,addressOutside,addressOutsideImageId,closeDate,closeCause,successorCorporateNumber,changeCause,assignmentDate,latest,enName,enPrefectureName,enCityName,enAddressOutside,furigana,hihyoji
7,1010001237572,新規,0,2023-08-08,2023-08-08,株式会社Ｕｂｕｓｕｎａ,,株式会社,東京都,千代田区,神田神保町３丁目１９番１号,,13,101,1010051,,,,,,,2023-08-08,1,,,,,ウブスナ,0
8,1010001237580,新規,0,2023-08-08,2023-08-08,株式会社アイタイム,,株式会社,東京都,中央区,銀座１丁目４番６号,,13,102,1040061,,,,,,,2023-08-08,1,,,,,アイタイム,0
9,1010001237597,新規,0,2023-08-08,2023-08-08,さくらビジネスコンサルティング株式会社,,株式会社,東京都,千代田区,岩本町２丁目４番５－Ｒ１００７号,,13,101,1010032,,,,,,,2023-08-08,1,,,,,サクラビジネスコンサルティング,0
11,1010003041320,新規,0,2023-08-08,2023-08-08,マリベーテ合同会社,,合同会社,東京都,中央区,銀座１丁目１２番４号Ｎ＆Ｅ・ＢＬＤ．６Ｆ,,13,102,1040061,,,,,,,2023-08-08,1,,,,,マリベーテ,0
12,1010005037069,新規,0,2023-08-08,2023-08-08,Ｈｅｌｉｏｓ特定目的会社,,その他の設立登記法人,東京都,千代田区,丸の内３丁目１番１号東京共同会計事務所内,,13,101,1000005,,,,,,,2023-08-08,1,,,,,ヘリオス,0
13,1010101015754,新規,0,2023-08-08,2023-08-08,株式会社ブークレバック工業,,株式会社,東京都,八王子市,元本郷町４丁目１１－７,,13,201,1920051,,,,,,,2023-08-08,1,,,,,ブークレバックコウギョウ,0
14,1010101015770,新規,0,2023-08-08,2023-08-08,株式会社鵬心,,株式会社,東京都,八王子市,八日町８番１号ビュータワー八王子９０８号,,13,201,1920071,,,,,,,2023-08-08,1,,,,,ホウシン,0
19,1010401176172,新規,0,2023-08-08,2023-08-08,株式会社ＩＸホールディングス,,株式会社,東京都,港区,赤坂９丁目７番１号,,13,103,1070052,,,,,,,2023-08-08,1,,,,,アイエックスホールディングス,0
20,1010401176321,新規,0,2023-08-08,2023-08-08,株式会社ＨＥＲ　Ｌｏｇｉｓｔｉｃｓ＆Ｐｌａｎｎｉｎｇ,,株式会社,東京都,港区,北青山１丁目３番１号アールキューブ青山３階,,13,103,1070061,,,,,,,2023-08-08,1,,,,,ハーロジスティクスアンドプランニング,0
22,1010501050871,新規,0,2023-08-08,2023-08-08,株式会社ダイダロス,,株式会社,東京都,台東区,西浅草３丁目２２－３浅草タワー３４０６,,13,106,1110035,,,,,,,2023-08-08,1,,,,,ダイダロス,0
23,1010601063559,新規,0,2023-08-08,2023-08-08,株式会社友來コーポレーション,,株式会社,東京都,墨田区,立川３丁目２番６号立川ビル２階,,13,107,1300023,,,,,,,2023-08-08,1,,,,,ユウキコーポレーション,0
25,1010701044673,新規,0,2023-08-08,2023-08-08,ＦＬＵＫＥ株式会社,,株式会社,東京都,品川区,西大井６丁目１番１号,,13,109,1400015,,,,,,,2023-08-08,1,,,,,フルーク,0
29,1010903008369,新規,0,2023-08-08,2023-08-08,合同会社しじみ,,合同会社,東京都,世田谷区,桜丘１丁目１６番１１号,,13,112,1560054,,,,,,,2023-08-08,1,,,,,シジミ,0
36,1011001156028,新規,0,2023-08-08,2023-08-08,ライフパートナーイケダ株式会社,,株式会社,東京都,目黒区,目黒１丁目２４番１２号,,13,110,1530063,,,,,,,2023-08-08,1,,,,,ライフパートナーイケダ,0
37,1011001156135,新規,0,2023-08-08,2023-08-08,株式会社ＨＴＭ　ＪＡＰＡＮ,,株式会社,東京都,渋谷区,神宮前５丁目２２－２－３０２,,13,113,1500001,,,,,,,2023-08-08,1,,,,,エイチティーエムジャパン,0
40,1011003017310,新規,0,2023-08-08,2023-08-08,合同会社ＮｅｘｔＶｉｒａｌ,,合同会社,東京都,渋谷区,円山町２６番７号ＴＫＦＬＡＴＳ渋谷１０１０,,13,113,1500044,,,,,,,2023-08-08,1,,,,,ネクストバイラル,0
45,1011101103870,新規,0,2023-08-08,2023-08-08,株式会社まいでびグループ,,株式会社,東京都,新宿区,５－１１－１３富士新宿ビル４階,,13,104,1600000,,,,,,,2023-08-08,1,,,,,マイデビグループ,0
47,1011103013358,新規,0,2023-08-08,2023-08-08,ＯＭ　Ｃｒｅａｔｉｖｅ合同会社,,合同会社,東京都,新宿区,西新宿３丁目３番１３号西新宿水間ビル２Ｆ,,13,104,1600023,,,,,,,2023-08-08,1,,,,,オーエムクリエイティブ,0
54,1011403004073,新規,0,2023-08-08,2023-08-08,ＶＦ　Ｐｒｏｐｅｒｔｉｅｓ合同会社,,合同会社,東京都,板橋区,高島平７丁目７番地４号ラフィーネヤマミツ２０３号室,,13,119,1750082,,,,,,,2023-08-08,1,,,,,ヴイエフプロパティーズ,0
59,1012301013554,新規,0,2023-08-08,2023-08-08,株式会社ＵＭＩＳＯＲＡ,,株式会社,東京都,町田市,金森東４丁目４０番３号,,13,209,1940015,,,,,,,2023-08-08,1,,,,,ウミソラ,0
64,1012401040845,新規,0,2023-08-08,2023-08-08,株式会社Ｄ・Ｔ・Ｋ・Ｃ,,株式会社,東京都,稲城市,平尾２丁目８１番地の６,,13,225,2060823,,,,,,,2023-08-08,1,,,,,ディーティーケイシー,0
69,1013101009222,新規,0,2023-08-08,2023-08-08,株式会社マナビ・クリエーション,,株式会社,東京都,あきる野市,戸倉６５８番地,,13,228,1900173,,,,,,,2023-08-08,1,,,,,マナビクリエーション,0
71,1013301051148,新規,0,2023-08-08,2023-08-08,株式会社望雲商会,,株式会社,東京都,豊島区,南池袋１丁目１３番１５－８０４号,,13,116,1710022,,,,,,,2023-08-08,1,,,,,ボウウンショウカイ,0
72,1013301051164,新規,0,2023-08-08,2023-08-08,ＰＯＲＴＭＡＮ経理事務所株式会社,,株式会社,東京都,豊島区,南大塚３丁目３４番４号,,13,116,1700005,,,,,,,2023-08-08,1,,,,,ポートマンケイリジムショ,0
73,1013303006736,新規,0,2023-08-08,2023-08-08,合同会社Ｒ＆Ｌ,,合同会社,東京都,豊島区,上池袋４丁目４３－１４メインステージ板橋ウエスト３０８,,13,116,1700012,,,,,,,2023-08-08,1,,,,,アールアンドエル,0
76,1020001152770,新規,0,2023-08-08,2023-08-08,株式会社長津ホールディングス,,株式会社,神奈川県,川崎市中原区,中丸子５７,,14,133,2110012,,,,,,,2023-08-08,1,,,,,,0
77,1020001152804,新規,0,2023-08-08,2023-08-08,株式会社ミトラ,,株式会社,神奈川県,横浜市西区,北幸２丁目１２番２６号フェリーチェ横浜レジデンスＲ００７,,14,103,2200004,,,,,,,2023-08-08,1,,,,,ミトラ,0
78,1020001152861,新規,0,2023-08-08,2023-08-08,バブルス株式会社,,株式会社,神奈川県,横浜市戸塚区,上矢部町２８４８番地１ビッグヴァン戸塚弐番館２０１号,00131433,14,110,2450053,,,,,,,2023-08-08,1,,,,,バブルス,0
79,1020001152878,新規,0,2023-08-08,2023-08-08,Ｒｉｃｅｌｌ株式会社,,株式会社,神奈川県,横浜市青葉区,美しが丘１丁目１３番地１０吉村ビル１０７号,,14,117,2250002,,,,,,,2023-08-08,1,,,,,リセル,0
82,1021001079789,新規,0,2023-08-08,2023-08-08,株式会社ｔｒｉｃｏ,,株式会社,神奈川県,秦野市,今川町１番地の５藤和ハイタウン２Ｆ,,14,211,2570051,,,,,,,2023-08-08,1,,,,,トリコ,0
83,1021001079806,新規,0,2023-08-08,2023-08-08,株式会社湘南ＷＯＲＫＳ,,株式会社,神奈川県,茅ヶ崎市,萩園２１１４－１４９,,14,207,2530071,,,,,,,2023-08-08,1,,,,,ショウナンワークス,0
84,1021001079830,新規,0,2023-08-08,2023-08-08,桂長株式会社,,株式会社,神奈川県,中郡二宮町,中里２丁目２８－２２,,14,342,2590131,,,,,,,2023-08-08,1,,,,,ケイチョウ,0
85,1021003013399,新規,0,2023-08-08,2023-08-08,ＫＫサービス合同会社,,合同会社,神奈川県,大和市,中央林間１丁目２２－２,,14,213,2420007,,,,,,,2023-08-08,1,,,,,ケイケイサービス,0
86,1021005012878,新規,0,2023-08-08,2023-08-08,一般社団法人ＫｏｓｍｏｓＯｎｅ＆Ｃｏ．,,その他の設立登記法人,神奈川県,三浦郡葉山町,堀内６０３番地の８,,14,301,2400112,,,,,,,2023-08-08,1,,,,,コスモスワンコ,0
98,1030003022384,新規,0,2023-08-08,2023-08-08,合同会社トラベア,,合同会社,埼玉県,川口市,大字安行原２５６２番地の５,,11,203,3340057,,,,,,,2023-08-08,1,,,,,トラベア,0
109,1040001129569,新規,0,2023-08-08,2023-08-08,プリンテッドエレクトロニクス株式会社,,株式会社,千葉県,千葉市美浜区,浜田１丁目３番コロンブスシティ１２２９,,12,106,2610025,,,,,,,2023-08-08,1,,,,,プリンテッドエレクトロニクス,0
116,1060001036227,新規,0,2023-08-08,2023-08-08,株式会社荒町商会,,株式会社,栃木県,大田原市,親園２５２２番地,,09,210,3240044,,,,,,,2023-08-08,1,,,,,アラマチショウカイ,0
124,1080001025780,新規,0,2023-08-08,2023-08-08,Ｆａｍ’ｓ株式会社,,株式会社,静岡県,藤枝市,南駿河台６丁目１番３－９号,,22,214,4260078,,,,,,,2023-08-08,1,,,,,ファムズ,0
129,1080403004845,新規,0,2023-08-08,2023-08-08,合同会社秀,,合同会社,静岡県,浜松市南区,芳川町４３番地,,22,134,4300813,,,,,,,2023-08-08,1,,,,,ヒデ,0
130,1090001018255,新規,0,2023-08-08,2023-08-08,株式会社ぬり太郎,,株式会社,山梨県,甲府市,国母８丁目８番１７号フレグランスＵＡ１０２,,19,201,4000043,,,,,,,2023-08-08,1,,,,,ヌリタロウ,0
134,1100003007139,新規,0,2023-08-08,2023-08-08,ＷＡＢＵ合同会社,,合同会社,長野県,埴科郡坂城町,大字坂城４５４４,,20,521,3890601,,,,,,,2023-08-08,1,,,,,ワブ,0
148,1120001256958,新規,0,2023-08-08,2023-08-08,晴川株式会社,,株式会社,大阪府,大阪市東住吉区,杭全１丁目１７－１７Ｔｉｎａ天王寺東ビル６０４室,,27,121,5460002,,,,,,,2023-08-08,1,,,,,ハレカワ,0
149,1120001257056,新規,0,2023-08-08,2023-08-08,株式会社ＫＲＳ,,株式会社,大阪府,枚方市,牧野本町２丁目１７番１４号,,27,210,5731144,,,,,,,2023-08-08,1,,,,,ケーアールエス,0
150,1120001257064,新規,0,2023-08-08,2023-08-08,株式会社Ｅ．ＤｅｓａｙＴｒａｄｉｎｇ,,株式会社,大阪府,大阪市港区,田中３丁目６番７号,,27,107,5520005,,,,,,,2023-08-08,1,,,,,エーデッセイトレーディング,0
151,1120001257097,新規,0,2023-08-08,2023-08-08,株式会社キュリオサポート,,株式会社,大阪府,大阪市西区,江戸堀３丁目１番１４－８０６号,,27,106,5500002,,,,,,,2023-08-08,1,,,,,キュリオサポート,0
153,1120003024644,新規,0,2023-08-08,2023-08-08,合同会社ＴＹＴ　ｃｏｒｐｏｒａｔｉｏｎ,,合同会社,大阪府,大阪市西区,南堀江２丁目１－１５－２０４,,27,106,5500015,,,,,,,2023-08-08,1,,,,,ティーワイティーコーポーレーション,0
154,1120003024702,新規,0,2023-08-08,2023-08-08,合同会社ふぇぶらりーＷＯＲＫＳ,,合同会社,大阪府,大阪市北区,梅田１丁目２番２号大阪駅前第２ビル１２‐１２,,27,127,5300001,,,,,,,2023-08-08,1,,,,,フェブラリーワークス,0
156,1120101068023,新規,0,2023-08-08,2023-08-08,株式会社ｍｉｃＲｏｂｅ　ｌａｂ,,株式会社,大阪府,堺市南区,桃山台４丁２１番４－３０１号,,27,145,5900141,,,,,,,2023-08-08,1,,,,,マイクロウブラボ,0
163,1122001037256,新規,0,2023-08-08,2023-08-08,株式会社山祐興業,,株式会社,大阪府,東大阪市,川俣本町１４番７号,,27,227,5770064,,,,,,,2023-08-08,1,,,,,サンユウコウギョウ,0
167,1130001074905,新規,0,2023-08-08,2023-08-08,株式会社ＳＵＺＵＫＥＮ,,株式会社,京都府,京都市南区,吉祥院定成町３３番地１０,,26,107,6018322,,,,,,,2023-08-08,1,,,,,スズケン,0
172,1140001131085,新規,0,2023-08-08,2023-08-08,七星産業株式会社,,株式会社,兵庫県,神戸市灘区,新在家南町３丁目３番１５－３０４号,,28,102,6570864,,,,,,,2023-08-08,1,,,,,ナナホシサンギョウ,0
173,1140001131093,新規,0,2023-08-08,2023-08-08,株式会社馬場企画,,株式会社,兵庫県,西宮市,名塩２丁目１３番１６号,,28,204,6691147,,,,,,,2023-08-08,1,,,,,ババキカク,0
174,1140001131135,新規,0,2023-08-08,2023-08-08,株式会社Ｌａｕｇｈ　Ｃｏｒｎｅｒ,,株式会社,兵庫県,加西市,下万願寺町小池６２５－２,,28,220,6752452,,,,,,,2023-08-08,1,,,,,ラフコーナー,0
175,1140003019386,新規,0,2023-08-08,2023-08-08,合同会社ちまはが,,合同会社,兵庫県,西宮市,甲陽園本庄町２番４７－４０３号,,28,204,6620015,,,,,,,2023-08-08,1,,,,,チマハガ,0
177,1160001025244,新規,0,2023-08-08,2023-08-08,株式会社ネクサスリープ,,株式会社,滋賀県,大津市,梅林１丁目１５番３１号ＢＥＴＴＥＲＬＩＦＥビル２階,,25,201,5200051,,,,,,,2023-08-08,1,,,,,ネクサスリープ,0
178,1160003002951,新規,0,2023-08-08,2023-08-08,合同会社オカザキ,,合同会社,滋賀県,蒲生郡日野町,大字西大路２８８３番地３,,25,383,5291628,,,,,,,2023-08-08,1,,,,,オカザキ,0
182,1180001157523,新規,0,2023-08-08,2023-08-08,株式会社ＳＳＰ,,株式会社,愛知県,名古屋市港区,小碓３丁目２０番地,,23,111,4550801,,,,,,,2023-08-08,1,,,,,エスエスピー,0
183,1180001157548,新規,0,2023-08-08,2023-08-08,Ｂ．Ｉ．Ｓ株式会社,,株式会社,愛知県,名古屋市南区,南陽通６丁目１番地,,23,112,4570856,,,,,,,2023-08-08,1,,,,,ビーアイエス,0
185,1180003025587,新規,0,2023-08-08,2023-08-08,合同会社ファミリーパイン,,合同会社,愛知県,名古屋市中区,大須２丁目３０番８号,,23,106,4600011,,,,,,,2023-08-08,1,,,,,ファミリーパイン,0
187,1180301037631,新規,0,2023-08-08,2023-08-08,株式会社Ｎコンサルティング,,株式会社,愛知県,碧南市,幸町１丁目１８番地,,23,209,4470043,,,,,,,2023-08-08,1,,,,,エヌコンサルティング,0
188,1180301037656,新規,0,2023-08-08,2023-08-08,株式会社Ｔｒｕｓｔ,,株式会社,愛知県,蒲郡市,形原町北新田１６番地セジュール形北Ａー２０１,,23,214,4430104,,,,,,,2023-08-08,1,,,,,トラスト,0
195,1190001030638,新規,0,2023-08-08,2023-08-08,株式会社ＬＡ　ｖｉｔａ,,株式会社,三重県,松阪市,中林町３９７番地２プルミエラム－ルＢ２０１,,24,204,5152111,,,,,,,2023-08-08,1,,,,,ラヴィータ,0
199,1200001041591,新規,0,2023-08-08,2023-08-08,株式会社Ｇ‐Ｂｒｉｇｈｔ,,株式会社,岐阜県,岐阜市,柳津町梅松４丁目１１５番地‐１１０,,21,201,5016105,,,,,,,2023-08-08,1,,,,,ジーブライト,0
202,1210001019414,新規,0,2023-08-08,2023-08-08,Ｋ＆Ｋ株式会社,,株式会社,福井県,福井市,高木中央２丁目３５０６番地１,,18,201,9100804,,,,,,,2023-08-08,1,,,,,ケーアンドケー,0
203,1210003001683,新規,0,2023-08-08,2023-08-08,合同会社ウヤマ塗装,,合同会社,福井県,勝山市,北郷町新町１０番地１号,,18,206,9110051,,,,,,,2023-08-08,1,,,,,ウヤマトソウ,0
204,1220001025535,新規,0,2023-08-08,2023-08-08,株式会社若岡左官,,株式会社,石川県,白山市,山島台５丁目６６番地,,17,210,9240836,,,,,,,2023-08-08,1,,,,,ワカオカサカン,0
205,1220001025543,新規,0,2023-08-08,2023-08-08,株式会社フクダ,,株式会社,石川県,野々市市,二日市５丁目５２番地,,17,212,9218809,,,,,,,2023-08-08,1,,,,,フクダ,0
206,1220003003563,新規,0,2023-08-08,2023-08-08,合同会社金沢美術学院,,合同会社,石川県,金沢市,有松５丁目８番２６号,,17,201,9218161,,,,,,,2023-08-08,1,,,,,,0
207,1230001019940,新規,0,2023-08-08,2023-08-08,株式会社ぽぽち,,株式会社,富山県,富山市,藤木７３６番地２４,,16,201,9300936,,,,,,,2023-08-08,1,,,,,ポポチ,0
214,1240001061933,新規,0,2023-08-08,2023-08-08,株式会社Ｓａｎｋｅｉ,,株式会社,広島県,広島市佐伯区,五日市駅前３丁目５番３３号コラールＭ・Ｓ２０２,,34,108,7315125,,,,,,,2023-08-08,1,,,,,サンケイ,0
215,1240001061941,新規,0,2023-08-08,2023-08-08,株式会社ホープ,,株式会社,広島県,廿日市市,佐方５３２番地７,,34,213,7380001,,,,,,,2023-08-08,1,,,,,ホープ,0
224,1260001038186,新規,0,2023-08-08,2023-08-08,株式会社Ｍ．Ｐ．Ａ,,株式会社,岡山県,岡山市南区,泉田４丁目５番１２号,,33,104,7000944,,,,,,,2023-08-08,1,,,,,エムピーエー,0
225,1260001038203,新規,0,2023-08-08,2023-08-08,株式会社Ｚｅｍｅ,,株式会社,岡山県,岡山市北区,佐山２３１６番地４,,33,101,7011205,,,,,,,2023-08-08,1,,,,,ゼメ,0
229,1290001102542,新規,0,2023-08-08,2023-08-08,株式会社ＢＯＴＡＮＩＣＡＬ,,株式会社,福岡県,福岡市西区,姪浜駅南３丁目１９番３号リヴァサイドのだ１Ｆ,,40,135,8190006,,,,,,,2023-08-08,1,,,,,ボタニカル,0
230,1290001102550,新規,0,2023-08-08,2023-08-08,株式会社万侑,,株式会社,福岡県,福岡市博多区,中洲２丁目１番１１号７階,,40,132,8100801,,,,,,,2023-08-08,1,,,,,マンユウ,0
231,1290001102591,新規,0,2023-08-08,2023-08-08,株式会社ＰＬＵＳ,,株式会社,福岡県,福岡市中央区,小笹５丁目４番６７号,,40,133,8100033,,,,,,,2023-08-08,1,,,,,プラス,0
232,1290001102641,新規,0,2023-08-08,2023-08-08,飛鳥保険サービス株式会社,,株式会社,福岡県,福岡市博多区,東那珂３丁目１１番１５号,00131442,40,132,8120892,,,,,,,2023-08-08,1,,,,,アスカホケンサービス,0
233,1290003014199,新規,0,2023-08-08,2023-08-08,スターク合同会社,,合同会社,福岡県,糟屋郡須惠町,大字上須惠２８６番地３９,,40,344,8112114,,,,,,,2023-08-08,1,,,,,スターク,0
234,1290801029761,新規,0,2023-08-08,2023-08-08,一駒株式会社,,株式会社,福岡県,北九州市八幡東区,諏訪１丁目１０番３号,,40,108,8050006,,,,,,,2023-08-08,1,,,,,イチコマ,0
236,1300001013424,新規,0,2023-08-08,2023-08-08,株式会社ＤｒａｇｏｉｎｇＳｐｏｒｔｓ,,株式会社,佐賀県,佐賀市,南佐賀１丁目１０番１７号,,41,201,8400016,,,,,,,2023-08-08,1,,,,,ドラゴーイングスポーツ,0
238,1310001018546,新規,0,2023-08-08,2023-08-08,Ｂｅｓｔｙｌｅ長崎株式会社,,株式会社,長崎県,長崎市,界２丁目５番６号,,42,201,8510122,,,,,,,2023-08-08,1,,,,,ビースタイルナガサキ,0
239,1310003004619,新規,0,2023-08-08,2023-08-08,合同会社多笑,,合同会社,長崎県,西海市,西彼町大串郷１３１０番地１,,42,212,8513424,,,,,,,2023-08-08,1,,,,,タワラ,0
242,1330001031118,新規,0,2023-08-08,2023-08-08,株式会社にじいろ,,株式会社,熊本県,菊池郡大津町,大字杉水７４２番地３９,,43,403,8691236,,,,,,,2023-08-08,1,,,,,ニジイロ,0
246,1350001018476,新規,0,2023-08-08,2023-08-08,株式会社武田商事牧場,,株式会社,宮崎県,串間市,大字串間６３３番地９,,45,207,8880004,,,,,,,2023-08-08,1,,,,,タケダショウジボクジョウ,0
247,1350001018492,新規,0,2023-08-08,2023-08-08,マナノア株式会社,,株式会社,宮崎県,宮崎市,東大淀２丁目２番４４号マサミツビル南宮崎駅前,,45,201,8800901,,,,,,,2023-08-08,1,,,,,マナノア,0
248,1350001018501,新規,0,2023-08-08,2023-08-08,株式会社Ｐ．Ｖ．Ｓ,,株式会社,宮崎県,宮崎市,神宮東３丁目９番１号,,45,201,8800056,,,,,,,2023-08-08,1,,,,,ピィブイエス,0
249,1360001032360,新規,0,2023-08-08,2023-08-08,株式会社ＷＲ,,株式会社,沖縄県,豊見城市,字瀬長９５番地１,,47,212,9010233,,,,,,,2023-08-08,1,,,,,ダブルアール,0
250,1360001032369,新規,0,2023-08-08,2023-08-08,株式会社ケラマ観光,,株式会社,沖縄県,島尻郡渡嘉敷村,字阿波連１７０番地３,,47,353,9013502,,,,,,,2023-08-08,1,,,,,ケラマカンコウ,0
252,1370001050254,新規,0,2023-08-08,2023-08-08,株式会社Ｓａｌｌｙ　Ａｃｃｏｕｎｔ,,株式会社,宮城県,仙台市青葉区,中央２丁目２番１０号,,04,101,9800021,,,,,,,2023-08-08,1,,,,,サリーアカウント,0
253,1370001050262,新規,0,2023-08-08,2023-08-08,ＡＦＺＡＮ　ＡＳＳＯＣＩＡＴＥＳ株式会社,,株式会社,宮城県,仙台市青葉区,山手町９番３２号ＦパレスＩＩ－２０１号,00131437,04,101,9810967,,,,,,,2023-08-08,1,,,,,アフザンアソシエイト,0
254,1370001050270,新規,0,2023-08-08,2023-08-08,株式会社Ｓｔｕｄｙ‐Ｗｏｒｋ,,株式会社,宮城県,多賀城市,留ケ谷１丁目２６番１３号,,04,209,9850871,,,,,,,2023-08-08,1,,,,,スタディーワーク,0
264,1390001017342,新規,0,2023-08-08,2023-08-08,株式会社ＯＶＥＲ　ＬＡＰ,,株式会社,山形県,東根市,神町北１丁目５番１２－３５号,,06,211,9993762,,,,,,,2023-08-08,1,,,,,オーバーラップ,0
265,1400001016342,新規,0,2023-08-08,2023-08-08,株式会社ＴＹＳ,,株式会社,岩手県,一関市,厳美町字滝ノ上２４６－５,,03,209,0210101,,,,,,,2023-08-08,1,,,,,ティーワイエス,0
271,1430001089699,新規,0,2023-08-08,2023-08-08,株式会社ＲＬホールディングス,,株式会社,北海道,小樽市,高島５丁目４番１０号,,01,203,0470048,,,,,,,2023-08-08,1,,,,,アールエルホールディングス,0
272,1430003015331,新規,0,2023-08-08,2023-08-08,合同会社ミハルデザイン,,合同会社,北海道,札幌市西区,西野四条９丁目２番３－２０１号,,01,107,0630034,,,,,,,2023-08-08,1,,,,,ミハルデザイン,0
277,1470001019743,新規,0,2023-08-08,2023-08-08,株式会社ツバメファーム,,株式会社,香川県,綾歌郡綾川町,滝宮２３０１番地２,,37,387,7612305,,,,,,,2023-08-08,1,,,,,ツバメファーム,0
278,1470005006515,新規,0,2023-08-08,2023-08-08,能布谷神社,,その他の設立登記法人,香川県,三豊市,財田町財田上６１９８番地,,37,208,7690401,,,,,,,2023-08-08,1,,,,,,0
279,1480001012177,新規,0,2023-08-08,2023-08-08,株式会社オオマツ,,株式会社,徳島県,徳島市,大松町大久保１０５番地,,36,201,7708022,,,,,,,2023-08-08,1,,,,,オオマツ,0
281,1480003002011,新規,0,2023-08-08,2023-08-08,合同会社ｍａｎｉｍａｎｉ,,合同会社,徳島県,板野郡北島町,鯛浜字川久保１２０番地７,,36,402,7710204,,,,,,,2023-08-08,1,,,,,マニマニ,0
287,1700150118875,新規,0,2023-08-08,2023-08-08,ｘｉａｍｅｎｗｅｉｋｅｔｅｌｉｍａｏｙｉｙｏｕｘｉａｎｇｏｎｇｓｉ,,外国会社等,,,,,,,,ｂｉｎ　ｓｈｕｉ　ｚｈｏｎｇ　ｅｒ　ｌｉ　２１　ｈａｏ　８０８　ｓｈｉ，ｊｉ　ｍｅｉ　ｑｕ，ｘｉａ　ｍｅｎ,,,,,,2023-08-08,1,,,,,シャーメンウェイコーターリーマオイーヨウシエンゴンスー,0
288,1700150118891,新規,0,2023-08-08,2023-08-08,ＧｕａｎｇＺｈｏｕＳｈｉ　ＸｉＤｏｕＤｏｕ　ＭａｏＹｉ　ＹｏｕＸｉａｎＧｏｎｇＳｉ,,外国会社等,,,,,,,,ＨｅｌｏｎｇｊｉｅＨｅｌｏｎｇｙｉｈｅｎｇｌｕ１ｈａｏＤｉ６ｃｅｎｇ６００９ｈａｏ，Ｂａｉｙｕｎｑｕ，Ｇｕａｎｇｚｈｏｕｓｈｉ，Ｇｕａｎｇｄｏｎｇｓｈｅｎｇ,,,,,,2023-08-08,1,,,,,グアンヂョウシシドウドウマオイユウゲンコウシ,0
291,2010001237522,新規,0,2023-08-08,2023-08-08,株式会社記帳代行,,株式会社,東京都,中央区,銀座１丁目１２番４号Ｎ＆Ｅ・ＢＬＤ．６Ｆ,,13,102,1040061,,,,,,,2023-08-08,1,,,,,キチョウダイコウ,0
292,2010001237530,新規,0,2023-08-08,2023-08-08,株式会社ＦＨＣ,,株式会社,東京都,中央区,佃２丁目２番１０,,13,102,1040051,,,,,,,2023-08-08,1,,,,,エフエイチシー,0
293,2010001237571,新規,0,2023-08-08,2023-08-08,株式会社ＯＮＥ　ＳＴＯＰ,,株式会社,東京都,中央区,銀座１丁目１２番４号Ｎ＆ＥＢＬＤ．６Ｆ,,13,102,1040061,,,,,,,2023-08-08,1,,,,,ワンストップ,0
298,2010005037076,新規,0,2023-08-08,2023-08-08,一般社団法人ＫＵＪＩＣＯＭ,,その他の設立登記法人,東京都,千代田区,神田多町２丁目９番地２エルプレイス千代田淡路町９０１号,,13,101,1010046,,,,,,,2023-08-08,1,,,,,クジコム,0
299,2010101015753,新規,0,2023-08-08,2023-08-08,株式会社ＭＫブランディング,,株式会社,東京都,八王子市,南大沢５丁目４番地南大沢レジデンス１００３号,,13,201,1920364,,,,,,,2023-08-08,1,,,,,ブランディング,0
300,2010101015761,新規,0,2023-08-08,2023-08-08,株式会社ｋｓ　ｗｏｒｋｓ,,株式会社,東京都,八王子市,館町１８７９番地２５０,,13,201,1930944,,,,,,,2023-08-08,1,,,,,ケーエスワークス,0
301,2010103002188,新規,0,2023-08-08,2023-08-08,合同会社イマジネックス,,合同会社,東京都,八王子市,東中野５５１番地１３,,13,201,1920351,,,,,,,2023-08-08,1,,,,,イマジネックス,0
306,2010401176196,新規,0,2023-08-08,2023-08-08,Ｔａｌｅｎｔ　Ｉｎｓｉｇｈｔ株式会社,,株式会社,東京都,港区,芝浦３丁目１７番１１号天翔オフィス田町９１０号,,13,103,1080023,,,,,,,2023-08-08,1,,,,,タレントインサイト,0
307,2010401176205,新規,0,2023-08-08,2023-08-08,株式会社ブルーミング,,株式会社,東京都,港区,南青山３丁目１番３６号青山丸竹ビル６Ｆ,,13,103,1070062,,,,,,,2023-08-08,1,,,,,ブルーミング,0
308,2010401176246,新規,0,2023-08-08,2023-08-08,株式会社タカガリ,,株式会社,東京都,港区,赤坂５丁目４番１５号,,13,103,1070052,,,,,,,2023-08-08,1,,,,,タカガリ,0
309,2010401176279,新規,0,2023-08-08,2023-08-08,イイネ株式会社,,株式会社,東京都,港区,虎ノ門４丁目３番２０号神谷町ＭＴビル１４Ｆ,,13,103,1050001,,,,,,,2023-08-08,1,,,,,イイネ,0
310,2010401176295,新規,0,2023-08-08,2023-08-08,ＡＩＬＬＡ株式会社,,株式会社,東京都,港区,愛宕２丁目５番１号愛宕グリーンヒルズＭＯＲＩタワー３４Ｆ,,13,103,1050002,,,,,,,2023-08-08,1,,,,,アイラ,0
311,2010403030649,新規,0,2023-08-08,2023-08-08,ネクストカラー合同会社,,合同会社,東京都,港区,六本木５丁目１３番１１号,,13,103,1060032,,,,,,,2023-08-08,1,,,,,ネクストカラー,0
312,2010501050870,新規,0,2023-08-08,2023-08-08,株式会社トラディ,,株式会社,東京都,台東区,竜泉１丁目１３番２－１１０１号メインステージ入谷ＩＩ,00131444,13,106,1100012,,,,,,,2023-08-08,1,,,,,トラディ,0
315,2010603010285,新規,0,2023-08-08,2023-08-08,ＴＩＥＳ合同会社,,合同会社,東京都,江東区,東陽２丁目２番１４号,,13,108,1350016,,,,,,,2023-08-08,1,,,,,タイズ,0
316,2010901053606,新規,0,2023-08-08,2023-08-08,株式会社Ｇｒａｃｅ,,株式会社,東京都,世田谷区,新町１丁目３４番１２号,,13,112,1540014,,,,,,,2023-08-08,1,,,,,グレース,0
322,2011001155994,新規,0,2023-08-08,2023-08-08,株式会社トイスキー,,株式会社,東京都,目黒区,下目黒１丁目６番２１号,,13,110,1530064,,,,,,,2023-08-08,1,,,,,トイスキー,0
323,2011001156183,新規,0,2023-08-08,2023-08-08,株式会社白玉,,株式会社,東京都,目黒区,大橋１丁目７番９号パークフラッツ中目黒８０３,,13,110,1530044,,,,,,,2023-08-08,1,,,,,シロタマ,0
324,2011001156217,新規,0,2023-08-08,2023-08-08,ＮＡＰＤＳ株式会社,,株式会社,東京都,渋谷区,千駄ヶ谷３丁目１１番８号（ＴＯＳグループ内）,,13,113,1510051,,,,,,,2023-08-08,1,,,,,ノットアピーディーエス,0
327,2011003017342,新規,0,2023-08-08,2023-08-08,合同会社ビジネス・インスピレーター,,合同会社,東京都,渋谷区,神宮前６丁目２３－４桑野ビル２階,,13,113,1500001,,,,,,,2023-08-08,1,,,,,ビジネスインスピレーター,0
330,2011101103903,新規,0,2023-08-08,2023-08-08,日本興和株式会社,,株式会社,東京都,新宿区,西新宿３丁目２番２７号,,13,104,1600023,,,,,,,2023-08-08,1,,,,,ニホンコウワ,0
331,2011101103928,新規,0,2023-08-08,2023-08-08,株式会社カルテットキャピタル,,株式会社,東京都,新宿区,神楽坂５丁目３２番地八潮第二ビル５Ｆ,,13,104,1620825,,,,,,,2023-08-08,1,,,,,カルテットキャピタル,0
333,2011103013357,新規,0,2023-08-08,2023-08-08,ＥＲＩＣＡ　ＩＮＴＥＲＮＡＴＩＯＮＡＬ合同会社,,合同会社,東京都,新宿区,早稲田鶴巻町５１８－１第８・ＩＫビル１Ｆ,,13,104,1620041,,,,,,,2023-08-08,1,,,,,エリカインターナショナル,0
334,2011201024826,新規,0,2023-08-08,2023-08-08,株式会社ｍｉｌｌｅ　ｅｓｔａｔｉ,,株式会社,東京都,中野区,上高田３丁目１５番８号,,13,114,1640002,,,,,,,2023-08-08,1,,,,,ミッレエスターティ,0
337,2011703003559,新規,0,2023-08-08,2023-08-08,合同会社Ｒｏａｓ,,合同会社,東京都,江戸川区,鹿骨２丁目１７番９号,,13,123,1330073,,,,,,,2023-08-08,1,,,,,ロアス,0
343,2012403006109,新規,0,2023-08-08,2023-08-08,ブリッサアンドティエラ・ジャパン合同会社,,合同会社,東京都,武蔵野市,吉祥寺本町１丁目５番１号吉祥寺ＰＡＲＣＯ８ＦＳｋｉｉＭａ内,,13,203,1800004,,,,,,,2023-08-08,1,,,,,ブリッサアンドティエラジャパン,0
345,2012803003151,新規,0,2023-08-08,2023-08-08,合同会社オフィス渡辺,,合同会社,東京都,立川市,一番町１丁目５１－４６,,13,202,1900033,,,,,,,2023-08-08,1,,,,,オフィスワタナベ,0
349,2020001152803,新規,0,2023-08-08,2023-08-08,株式会社パレット,,株式会社,神奈川県,横浜市緑区,霧が丘４丁目２３番地２,,14,113,2260016,,,,,,,2023-08-08,1,,,,,パレット,0
350,2020001152811,新規,0,2023-08-08,2023-08-08,ＪＧＤＣ株式会社,,株式会社,神奈川県,川崎市川崎区,東扇島２１西棟６階,,14,131,2100869,,,,,,,2023-08-08,1,,,,,ジェイジーディーシー,0
351,2020001152860,新規,0,2023-08-08,2023-08-08,株式会社つなぐ,,株式会社,神奈川県,横浜市旭区,南希望が丘７６番地１７,,14,112,2410824,,,,,,,2023-08-08,1,,,,,ツナグ,0
356,2021001079788,新規,0,2023-08-08,2023-08-08,株式会社シンソウ,,株式会社,神奈川県,平塚市,四之宮４丁目７番１４号,,14,203,2540014,,,,,,,2023-08-08,1,,,,,シンソウ,0
357,2021001079796,新規,0,2023-08-08,2023-08-08,株式会社ＷＲ　ＰＬＡＮＮＩＮＧ,,株式会社,神奈川県,藤沢市,本鵠沼３丁目４－１０,,14,205,2510028,,,,,,,2023-08-08,1,,,,,ダブルアールプランニング,0
358,2021001079838,新規,0,2023-08-08,2023-08-08,株式会社Ｏ‐ＴＥＣＨ,,株式会社,神奈川県,厚木市,妻田北２丁目１４番２４号,,14,212,2430812,,,,,,,2023-08-08,1,,,,,オーテック,0
363,2021003013398,新規,0,2023-08-08,2023-08-08,合同会社スティール,,合同会社,神奈川県,厚木市,妻田西１丁目２番２５号ラ・ルーム妻田西１０２,,14,212,2430815,,,,,,,2023-08-08,1,,,,,スティール,0
364,2021005012877,新規,0,2023-08-08,2023-08-08,一般社団法人承継飼養サポートセンター,,その他の設立登記法人,神奈川県,鎌倉市,西鎌倉１丁目３番１０号,,14,204,2480035,,,,,,,2023-08-08,1,,,,,ショウケイシヨウサポートセンター,0
383,2050003007713,新規,0,2023-08-08,2023-08-08,合同会社あること,,合同会社,茨城県,牛久市,田宮町４８５―１,,08,219,3001236,,,,,,,2023-08-08,1,,,,,アルコト,0
384,2060001036234,新規,0,2023-08-08,2023-08-08,株式会社石川エクステリア,,株式会社,栃木県,真岡市,高勢町２丁目２６４番地,,09,209,3214341,,,,,,,2023-08-08,1,,,,,イシカワエクステリア,0
386,2060003004676,新規,0,2023-08-08,2023-08-08,リメイカーズ合同会社,,合同会社,栃木県,塩谷郡高根沢町,大字亀梨４６８番地,,09,386,3291211,,,,,,,2023-08-08,1,,,,,リメイカーズ,0
387,2070001040730,新規,0,2023-08-08,2023-08-08,株式会社Ｓ‐ＳＴＹＬＥ,,株式会社,群馬県,前橋市,下沖町１１４番地１３,,10,201,3710011,,,,,,,2023-08-08,1,,,,,エススタイル,0
392,2080001025788,新規,0,2023-08-08,2023-08-08,株式会社ｋｏｂａｃｈｉ,,株式会社,静岡県,島田市,横井２丁目１２番５９－３０３号,,22,209,4270024,,,,,,,2023-08-08,1,,,,,コバチ,0
398,2080401026659,新規,0,2023-08-08,2023-08-08,株式会社ＭＤＴ,,株式会社,静岡県,浜松市中区,板屋町２番地シティタワー浜松５０４,,22,131,4300928,,,,,,,2023-08-08,1,,,,,エムディーティー,0
404,2100001036667,新規,0,2023-08-08,2023-08-08,株式会社あっと,,株式会社,長野県,長野市,稲里町田牧１１３番地,,20,201,3812214,,,,,,,2023-08-08,1,,,,,アット,0
405,2100001036675,新規,0,2023-08-08,2023-08-08,株式会社Ｓｈｉｎｅｕｓ,,株式会社,長野県,長野市,松岡２丁目１３番１０号,,20,201,3810026,,,,,,,2023-08-08,1,,,,,シャイナス,0
406,2100003007138,新規,0,2023-08-08,2023-08-08,ＦＰＡ総合研究所合同会社,,合同会社,長野県,松本市,梓川倭２３１１番地４,,20,202,3901701,,,,,,,2023-08-08,1,,,,,エフピーエーソウゴウケンキュウショ,0
414,2120003024651,新規,0,2023-08-08,2023-08-08,Ｍ＆Ｇ合同会社,,合同会社,大阪府,大阪市中央区,千日前２丁目６番１１号２Ｆ／３Ｆ北側,,27,128,5420074,,,,,,,2023-08-08,1,,,,,エムアンドジー,0
417,2120005023809,新規,0,2023-08-08,2023-08-08,ＮＰＯ法人手話の実,,その他の設立登記法人,大阪府,大阪市中央区,瓦町３丁目４－１０日宝御堂ビル４１０,,27,128,5410048,,,,,,,2023-08-08,1,,,,,シュワノミ,0
418,2120101068022,新規,0,2023-08-08,2023-08-08,ミナミ工業株式会社,,株式会社,大阪府,泉大津市,寿町３番４０－１０号,,27,206,5950014,,,,,,,2023-08-08,1,,,,,,0
419,2120101068039,新規,0,2023-08-08,2023-08-08,ｔａｋｅｆｏｒｅｓｔ株式会社,,株式会社,大阪府,堺市西区,上５９４番地１３,,27,144,5938311,,,,,,,2023-08-08,1,,,,,タケフォレスト,0
420,2120105009749,新規,0,2023-08-08,2023-08-08,一般社団法人ソーシャルデザインえみのわ,,その他の設立登記法人,大阪府,泉佐野市,土丸９３番地,,27,213,5980022,,,,,,,2023-08-08,1,,,,,ソーシャルデザインエミノワ,0
421,2120901047877,新規,0,2023-08-08,2023-08-08,株式会社あーるぷらん,,株式会社,大阪府,吹田市,千里山松が丘７番５号,,27,205,5650843,,,,,,,2023-08-08,1,,,,,アールプラン,0
422,2120901047927,新規,0,2023-08-08,2023-08-08,株式会社江坂ＷＯＲＫＳ,,株式会社,大阪府,吹田市,垂水町１丁目５４番１３号,,27,205,5640062,,,,,,,2023-08-08,1,,,,,エサカワークス,0
423,2122001037247,新規,0,2023-08-08,2023-08-08,株式会社ＩＭＩマネジメント,,株式会社,大阪府,東大阪市,長田中２丁目１番７－４０７号,,27,227,5770013,,,,,,,2023-08-08,1,,,,,アイエムアイマネジメント,0
428,2130001074912,新規,0,2023-08-08,2023-08-08,株式会社ＳＡＮＤＯＷ,,株式会社,京都府,京都市伏見区,深草開土町１番地,,26,109,6120806,,,,,,,2023-08-08,1,,,,,サンドウ,0
434,2140001131068,新規,0,2023-08-08,2023-08-08,株式会社ａｍｅｔｉｓｔａ,,株式会社,兵庫県,神戸市中央区,北野町３丁目２番１５号ＫＡＴＯＶＩＬＬＡ１Ｆ,,28,110,6500002,,,,,,,2023-08-08,1,,,,,アメティスタ,0
435,2140001131142,新規,0,2023-08-08,2023-08-08,ＮＫＫ　Ｃｏｎｓｕｌｔｉｎｇ　Ｊａｐａｎ株式会社,,株式会社,兵庫県,加西市,馬渡谷町２８１番地,,28,220,6752414,,,,,,,2023-08-08,1,,,,,エヌケーケーコンサルティングジャパン,0
438,2140003019377,新規,0,2023-08-08,2023-08-08,合同会社リバティブ,,合同会社,兵庫県,姫路市,大津区天満５３８番地１０８,,28,201,6711143,,,,,,,2023-08-08,1,,,,,リバティブ,0
441,2150001026606,新規,0,2023-08-08,2023-08-08,株式会社ｃａｌａｍａｒｉ,,株式会社,奈良県,奈良市,朱雀４丁目１番地２４,,29,201,6310806,,,,,,,2023-08-08,1,,,,,カラマリ,0
443,2160001025251,新規,0,2023-08-08,2023-08-08,ガットリベロホールディングス株式会社,,株式会社,滋賀県,大津市,千石台２２番２号,,25,201,5200028,,,,,,,2023-08-08,1,,,,,ガットリベロホールディングス,0
446,2170003001910,新規,0,2023-08-08,2023-08-08,合同会社ロケットレッカー,,合同会社,和歌山県,和歌山市,磯の浦５５５番地１５５,,30,201,6400114,,,,,,,2023-08-08,1,,,,,ロケットレッカー,0
448,2180001157539,新規,0,2023-08-08,2023-08-08,株式会社エイトアンビー,,株式会社,愛知県,名古屋市北区,辻町７丁目２６番地,,23,103,4620032,,,,,,,2023-08-08,1,,,,,エイトアンビー,0
456,2180301037630,新規,0,2023-08-08,2023-08-08,ＲｉｖｅｒＳｔｏｎｅ技術研究所株式会社,,株式会社,愛知県,みよし市,三好丘旭４丁目３番地２７,,23,236,4700203,,,,,,,2023-08-08,1,,,,,リバーストーンギジュツケンシュウショ,0
457,2180301037639,新規,0,2023-08-08,2023-08-08,株式会社ＳＥＣＯＮＤ,,株式会社,愛知県,西尾市,熊味町小松島６３番地,,23,213,4450071,,,,,,,2023-08-08,1,,,,,セカンド,0
458,2180301037655,新規,0,2023-08-08,2023-08-08,株式会社ＰＥＡＫ　ＥＡＺＹ,,株式会社,愛知県,岡崎市,羽根町字陣場１３７番地１,,23,202,4440815,,,,,,,2023-08-08,1,,,,,ピークイージー,0
464,2190001030637,新規,0,2023-08-08,2023-08-08,マルモリビンザ株式会社,,株式会社,三重県,鈴鹿市,神戸２丁目１５番１８号かんべ再開発ビル１Ｆ,,24,207,5130801,,,,,,,2023-08-08,1,,,,,マルモリビンザ,0
467,2200001041574,新規,0,2023-08-08,2023-08-08,株式会社グラシアス,,株式会社,岐阜県,羽島市,福寿町浅平４丁目１１８番地福寿サテライトオフィス２階西号室,,21,209,5016255,,,,,,,2023-08-08,1,,,,,グラシアス,0
468,2200001041582,新規,0,2023-08-08,2023-08-08,株式会社ＡＭＣ　Ｔｒａｄｉｎｇ,,株式会社,岐阜県,羽島市,福寿町平方１２丁目３４番地２,,21,209,5016257,,,,,,,2023-08-08,1,,,,,エーエムシートレーディング,0
474,2200003006047,新規,0,2023-08-08,2023-08-08,合同会社ＯＺ,,合同会社,岐阜県,岐阜市,長良１０９２番地１１,,21,201,5020071,,,,,,,2023-08-08,1,,,,,オズ,0
475,2210001019421,新規,0,2023-08-08,2023-08-08,荒木管財株式会社,,株式会社,福井県,三方郡美浜町,山上第３号４０番地の６,,18,442,9191207,,,,,,,2023-08-08,1,,,,,アラキカンザイ,0
478,2240001061916,新規,0,2023-08-08,2023-08-08,株式会社細田,,株式会社,広島県,広島市中区,舟入幸町５番１０‐１０２号,,34,101,7300844,,,,,,,2023-08-08,1,,,,,ホソダ,0
479,2240001061924,新規,0,2023-08-08,2023-08-08,株式会社エヌアイシー,,株式会社,広島県,東広島市,安芸津町三津３５７２の１,,34,212,7392402,,,,,,,2023-08-08,1,,,,,エヌアイシー,0
480,2240001061957,新規,0,2023-08-08,2023-08-08,株式会社しさくせいち,,株式会社,広島県,広島市南区,京橋町１番７号アスティ広島京橋ビルディング,,34,103,7320828,,,,,,,2023-08-08,1,,,,,シサクセイチ,0
481,2240001061965,新規,0,2023-08-08,2023-08-08,Ａ‐Ｓｔｙｌｅ株式会社,,株式会社,広島県,福山市,春日町５丁目８－１１－３０１,,34,207,7210907,,,,,,,2023-08-08,1,,,,,エースタイル,0
483,2260001038210,新規,0,2023-08-08,2023-08-08,株式会社ＫＡＮＡＭＥ,,株式会社,岡山県,岡山市北区,大供１丁目２番２３号,,33,101,7000913,,,,,,,2023-08-08,1,,,,,カナメ,0
484,2260001038219,新規,0,2023-08-08,2023-08-08,株式会社ユニコーン,,株式会社,岡山県,笠岡市,新賀２６６４番地の１,,33,205,7140005,,,,,,,2023-08-08,1,,,,,ユニコーン,0
489,2290001102590,新規,0,2023-08-08,2023-08-08,株式会社ＨＥＡＤ　ＦＡＭＩＬＹ,,株式会社,福岡県,糟屋郡志免町,別府西２丁目２３番５－２０８号,,40,343,8112232,,,,,,,2023-08-08,1,,,,,ヘッドファミリー,0
490,2290001102624,新規,0,2023-08-08,2023-08-08,株式会社Ｂａｒｒｕｕｎａ,,株式会社,福岡県,福岡市中央区,渡辺通５丁目１番１８号,,40,133,8100004,,,,,,,2023-08-08,1,,,,,バルーナ,0
494,2290003014207,新規,0,2023-08-08,2023-08-08,合同会社湯布院プロジェクト１,,合同会社,福岡県,福岡市南区,平和２丁目２４番２７号,,40,134,8150071,,,,,,,2023-08-08,1,,,,,ユフインプロジェクトワン,0
495,2290003014215,新規,0,2023-08-08,2023-08-08,合同会社Ｆ＆ＴＴ,,合同会社,福岡県,福岡市中央区,唐人町１丁目１２番３１－１２０３号,,40,133,8100063,,,,,,,2023-08-08,1,,,,,エフアンドティーティー,0
498,2290801029760,新規,0,2023-08-08,2023-08-08,株式会社ＴＲＹＦＵＬＬＯ,,株式会社,福岡県,北九州市小倉北区,浅野２丁目１３－２３幹線ビル１号館６０１号室,,40,106,8020001,,,,,,,2023-08-08,1,,,,,トライフロウ,0
499,2290801029769,新規,0,2023-08-08,2023-08-08,株式会社天昇,,株式会社,福岡県,直方市,大字頓野１１３０番地４,,40,204,8220002,,,,,,,2023-08-08,1,,,,,テンショウ,0
500,2290801029785,新規,0,2023-08-08,2023-08-08,株式会社ＴＯＢ,,株式会社,福岡県,北九州市小倉南区,中曽根東１丁目８番４６号,,40,107,8000213,,,,,,,2023-08-08,1,,,,,ティーオービー,0
501,2290803004480,新規,0,2023-08-08,2023-08-08,合同会社ライトライト,,合同会社,福岡県,遠賀郡水巻町,伊左座３丁目７番２８号,,40,382,8070056,,,,,,,2023-08-08,1,,,,,ライトライト,0
502,2300003002011,新規,0,2023-08-08,2023-08-08,合同会社ＮＯＷＡ,,合同会社,佐賀県,佐賀市,三瀬村杠１４９６番地３,,41,201,8420303,,,,,,,2023-08-08,1,,,,,,0
509,2350001018491,新規,0,2023-08-08,2023-08-08,株式会社グローイング,,株式会社,宮崎県,宮崎市,江南２丁目１２番１６号,,45,201,8800944,,,,,,,2023-08-08,1,,,,,グローイング,0
511,2360001032351,新規,0,2023-08-08,2023-08-08,株式会社ＳＵＮＲＩＳＥ　ＪＡＰＡＮ,,株式会社,沖縄県,糸満市,字潮平５２４番地２,,47,210,9010302,,,,,,,2023-08-08,1,,,,,サンライズジャパン,0
512,2360001032392,新規,0,2023-08-08,2023-08-08,株式会社Ｇａｍｓｈａｒａ,,株式会社,沖縄県,那覇市,曙３丁目８番１７号１０１号室,,47,201,9000002,,,,,,,2023-08-08,1,,,,,ガムシャラ,0
513,2360001032401,新規,0,2023-08-08,2023-08-08,カフーワールド株式会社,,株式会社,沖縄県,那覇市,久茂地１丁目１番１号９階,,47,201,9000015,,,,,,,2023-08-08,1,,,,,カフーワールド,0
514,2360003013192,新規,0,2023-08-08,2023-08-08,合同会社ピオニーピリア,,合同会社,沖縄県,浦添市,勢理客１丁目２０番１９号,,47,208,9012122,,,,,,,2023-08-08,1,,,,,ピオニーピリア,0
517,2360005006888,新規,0,2023-08-08,2023-08-08,一般社団法人沖縄民藝術シーサー協会,,その他の設立登記法人,沖縄県,那覇市,壺屋１丁目７－９,,47,201,9020065,,,,,,,2023-08-08,1,,,,,オキナワミンゲイジュツシーサーキョウカイ,0
525,2390001017341,新規,0,2023-08-08,2023-08-08,株式会社Ｔｓｕｍｕｇｉ,,株式会社,山形県,天童市,大字山口４６９番地１１,,06,210,9940101,,,,,,,2023-08-08,1,,,,,ツムギ,0
527,2400001016341,新規,0,2023-08-08,2023-08-08,株式会社Ｎａｒｕａ,,株式会社,岩手県,盛岡市,大通１丁目７番６号ＰＲＥＮＤＲＥ・ＴＨＲＥＥ１０２号室,,03,201,0200022,,,,,,,2023-08-08,1,,,,,ナルア,0
533,2430001089698,新規,0,2023-08-08,2023-08-08,株式会社奏晴,,株式会社,北海道,札幌市中央区,南五条西３丁目１番４号,,01,101,0640805,,,,,,,2023-08-08,1,,,,,ソウセイ,0
537,2430003015330,新規,0,2023-08-08,2023-08-08,ニセコほたる倶楽部合同会社,,合同会社,北海道,虻田郡ニセコ町,字ニセコ３１５番地１３６,,01,395,0481511,,,,,,,2023-08-08,1,,,,,ニセコホタルクラブ,0
542,2470001019742,新規,0,2023-08-08,2023-08-08,株式会社ＧＰ,,株式会社,香川県,高松市,鹿角町３８５番地２,,37,201,7618082,,,,,,,2023-08-08,1,,,,,ジーピー,0
543,2470001019759,新規,0,2023-08-08,2023-08-08,株式会社５４,,株式会社,香川県,高松市,香南町横井５８８番地１,,37,201,7611404,,,,,,,2023-08-08,1,,,,,フィフティフォー,0
545,2480001012176,新規,0,2023-08-08,2023-08-08,ＡＤＶＩＳＴＬＡＢ株式会社,,株式会社,徳島県,徳島市,応神町中原字宮ノ東５０番地の６,,36,201,7711152,,,,,,,2023-08-08,1,,,,,アドビストラボ,0
551,2490001010559,新規,0,2023-08-08,2023-08-08,株式会社ｙｕｙｕｙｕ,,株式会社,高知県,高知市,針木東町５番５号,,39,201,7808086,,,,,,,2023-08-08,1,,,,,ユユユ,0
552,2500001025126,新規,0,2023-08-08,2023-08-08,株式会社ＡＳＨＩＴＡ,,株式会社,愛媛県,松山市,居相１丁目１０番２５－２号,,38,201,7900934,,,,,,,2023-08-08,1,,,,,アシタ,0
553,2700150118874,新規,0,2023-08-08,2023-08-08,ｓｈｅｎｚｈｅｎｓｈｉｔｅｄｉｋｅｓｉｇｕｏｊｉｍａｏｙｉｙｏｕｘｉａｎｇｏｎｇｓｉ,,外国会社等,,,,,,,,ｇｕａｎｇｄｏｎｇｓｈｅｎｇ，ｓｈｅｎｚｈｅｎｓｈｉ，Ｌｏｎｇｇａｎｇ　Ｄｉｓｔｒｉｃｔ，２２９，Ｂｕｉｌｄｉｎｇ　Ｃ，Ｎｏ．３３，Ｚｈｏｎｇｙｕａｎ　Ｒｏａｄ，Ｌｕｏｇａｎｇ　Ｃｏｍｍｕｎｉｔｙ，Ｂｕｊｉ　Ｓｕｂｄｉｓｔｒｉｃｔ,,,,,,2023-08-08,1,,,,,シェンジェンシーターディーコースーグオジーマオイーヨウシエンゴンスー,0
554,2700150118882,新規,0,2023-08-08,2023-08-08,Ｓｈｅｎｚｈｅｎｓｈｉ　Ｃｈｕｂｏｋｅｊｉ　Ｙｏｕｘｉａｎｇｏｎｇｓｉ,,外国会社等,,,,,,,,Ｎｏ．２００８．Ｘｕｅｇａｎｇ　Ｒｏａｄ，Ｇａｎｇｔｏｕ　Ｃｏｍｍｕｎｉｔｙ．Ｂａｎｔｉａｎ　Ｓｔｒｅｅｔ　Ｒｏｏｍ　５０４，５ｔｈ　Ｆｌｏｏｒ，Ｂｕｉｌｄｉｎｇ　Ａ，Ｂａｓｅｕｓ　Ｓｍａｒｔ　Ｐａｒｋ　Ｓｈｅｎｚｈｅｎ　Ｌｏｎｇｇａｎｇ　Ｇｕａｎｇｄｏｎｇ　５１８０００　ＣＮ,,,,,,2023-08-08,1,,,,,シェンヂェンチュブォクァアジーヨウシィェンゴンスー,0
565,3010001237232,新規,0,2023-08-08,2023-08-08,ＥＶ　Ｓｙｓｔｅｍ株式会社,,株式会社,東京都,千代田区,神田猿楽町２丁目８番１１号ＶＯＲＴ水道橋ＩＩＩ９階,00131443,13,101,1010064,,,,,,,2023-08-08,1,,,,,イーブイシステム,0
566,3010001237447,新規,0,2023-08-08,2023-08-08,株式会社Ｒａｄｉａｎｔ　ｍｅ,,株式会社,東京都,中央区,銀座７丁目１３番２０号銀座ＴＨビル９階,,13,102,1040061,,,,,,,2023-08-08,1,,,,,レイディアントミー,0
567,3010001237496,新規,0,2023-08-08,2023-08-08,株式会社レイラ,,株式会社,東京都,中央区,銀座８丁目１８番３号銀座加藤ビル２階,,13,102,1040061,,,,,,,2023-08-08,1,,,,,レイラ,0
568,3010001237554,新規,0,2023-08-08,2023-08-08,株式会社ダーマテック,,株式会社,東京都,中央区,日本橋箱崎町３２番３－１１１２号,,13,102,1030015,,,,,,,2023-08-08,1,,,,,ダーマテック,0
569,3010001237570,新規,0,2023-08-08,2023-08-08,株式会社プリンセスメディカルグループ,,株式会社,東京都,中央区,銀座１丁目１２番４号Ｎ＆ＥＢＬＤ．６Ｆ,,13,102,1040061,,,,,,,2023-08-08,1,,,,,プリンセスメディカルグループ,0
572,3010003041302,新規,0,2023-08-08,2023-08-08,合同会社シルフィード,,合同会社,東京都,中央区,銀座１丁目１２番４号Ｎ＆ＥＢＬＤ６階,,13,102,1040061,,,,,,,2023-08-08,1,,,,,シルフィード,0
573,3010003041319,新規,0,2023-08-08,2023-08-08,合同会社さとう,,合同会社,東京都,中央区,銀座１丁目１２番４号Ｎ＆ＥＢＬＤ．６Ｆ,,13,102,1040061,,,,,,,2023-08-08,1,,,,,サトウ,0
575,3010005037059,新規,0,2023-08-08,2023-08-08,税理士法人エンブレース,,その他の設立登記法人,東京都,千代田区,飯田橋１丁目５番９号精文館ビル２階,,13,101,1020072,,,,,,,2023-08-08,1,,,,,エンブレース,0
576,3010101015752,新規,0,2023-08-08,2023-08-08,株式会社及川技建,,株式会社,東京都,八王子市,大塚２４０番地１３５,,13,201,1920352,,,,,,,2023-08-08,1,,,,,オイカワギケン,0
577,3010101015760,新規,0,2023-08-08,2023-08-08,株式会社天野総合研究所,,株式会社,東京都,八王子市,中野山王１丁目２６－５,,13,201,1920042,,,,,,,2023-08-08,1,,,,,アマノソウゴウケンキュウジョ,0
579,3010103002187,新規,0,2023-08-08,2023-08-08,合同会社ルーツジャパン,,合同会社,東京都,八王子市,台町１丁目２３番１０－６０１号,,13,201,1930931,,,,,,,2023-08-08,1,,,,,ルーツジャパン,0
588,3010401176146,新規,0,2023-08-08,2023-08-08,２４かんご株式会社,,株式会社,東京都,港区,港南１丁目９番３６号,,13,103,1080075,,,,,,,2023-08-08,1,,,,,ニーヨンカンゴ,0
589,3010401176154,新規,0,2023-08-08,2023-08-08,ＭＥＤ　ｃｏｎｓｕｌｔｉｎｇ株式会社,,株式会社,東京都,港区,三田２丁目１番４１号,,13,103,1080073,,,,,,,2023-08-08,1,,,,,エムイーディーコンサルティング,0
590,3010401176162,新規,0,2023-08-08,2023-08-08,ＩＮＶＥＳＴＯＲＳ　ＭＯＴＯＲＳ株式会社,,株式会社,東京都,港区,南青山７丁目１０番７号,,13,103,1070062,,,,,,,2023-08-08,1,,,,,インベスターズモーターズ,0
591,3010401176212,新規,0,2023-08-08,2023-08-08,株式会社Ａｙｕｄａｎ,,株式会社,東京都,港区,北青山１丁目３番１号アールキューブ青山３階,,13,103,1070061,,,,,,,2023-08-08,1,,,,,アユダン,0
592,3010401176286,新規,0,2023-08-08,2023-08-08,グロースナビ株式会社,,株式会社,東京都,港区,北青山１丁目４番１号ランジェ青山９０９号,,13,103,1070061,,,,,,,2023-08-08,1,,,,,グロースナビ,0
593,3010401176360,新規,0,2023-08-08,2023-08-08,プライズ株式会社,,株式会社,東京都,港区,新橋４丁目３１番３号,,13,103,1050004,,,,,,,2023-08-08,1,,,,,プライズ,0
594,3010403030656,新規,0,2023-08-08,2023-08-08,合同会社Ｔａｕｓｅｎｄ,,合同会社,東京都,港区,赤坂３丁目１１番１９号,,13,103,1070052,,,,,,,2023-08-08,1,,,,,タウゼント,0
598,3010503007109,新規,0,2023-08-08,2023-08-08,ＫＭハウジング合同会社,,合同会社,東京都,台東区,下谷２丁目１番３号,,13,106,1100004,,,,,,,2023-08-08,1,,,,,ケーエムハウジング,0
601,3010701044688,新規,0,2023-08-08,2023-08-08,株式会社Ｕ‐ＡＬＦＡ,,株式会社,東京都,品川区,東五反田１丁目６－３いちご東五反田ビル３０７号室,,13,109,1410022,,,,,,,2023-08-08,1,,,,,ユアルファ,0
602,3010703006810,新規,0,2023-08-08,2023-08-08,合同会社Ｓｃｉｎｔｉｌｌｅｒ,,合同会社,東京都,品川区,戸越１丁目２２－１ｉｄｅａｌ戸越銀座２０１,,13,109,1420041,,,,,,,2023-08-08,1,,,,,サンティエ,0
603,3010901053547,新規,0,2023-08-08,2023-08-08,ジャパン・ステイ株式会社,,株式会社,東京都,世田谷区,駒沢２丁目１８番１６－３１３号,,13,112,1540012,,,,,,,2023-08-08,1,,,,,ジャパンステイ,0
614,3011001156050,新規,0,2023-08-08,2023-08-08,株式会社ｎｈｏｕｓｅ,,株式会社,東京都,渋谷区,神宮前２丁目１３番９号ＢＩＲＴＨ神宮前４０５,,13,113,1500001,,,,,,,2023-08-08,1,,,,,エヌハウス,0
615,3011001156141,新規,0,2023-08-08,2023-08-08,株式会社ユニバース,,株式会社,東京都,渋谷区,代々木１丁目３０番１５号,,13,113,1510053,,,,,,,2023-08-08,1,,,,,ユニバース,0
616,3011001156158,新規,0,2023-08-08,2023-08-08,株式会社Ｘｅｒｏ,,株式会社,東京都,渋谷区,神山町５番２０号,,13,113,1500047,,,,,,,2023-08-08,1,,,,,ゼロ,0
617,3011001156216,新規,0,2023-08-08,2023-08-08,株式会社ＳＣＥＬＴＥ,,株式会社,東京都,渋谷区,道玄坂１丁目１０番８号渋谷道玄坂東急ビル２Ｆ－Ｃ,,13,113,1500043,,,,,,,2023-08-08,1,,,,,シェルテ,0
619,3011003017325,新規,0,2023-08-08,2023-08-08,グリームハブ合同会社,,合同会社,東京都,渋谷区,渋谷２丁目１９－１５宮益坂ビルディング６０９,,13,113,1500002,,,,,,,2023-08-08,1,,,,,グリームハブ,0
622,3011101103910,新規,0,2023-08-08,2023-08-08,アテナ・パートナーズ株式会社,,株式会社,東京都,新宿区,西新宿７丁目２１番９号,,13,104,1600023,,,,,,,2023-08-08,1,,,,,アテナパートナーズ,0
626,3011201024833,新規,0,2023-08-08,2023-08-08,ＥＲＭＡＲＦＥＲＲ株式会社,,株式会社,東京都,中野区,中央１丁目２５番５－６０４号ＭＫマンション,,13,114,1640011,,,,,,,2023-08-08,1,,,,,エルマフェル,0
627,3011301028916,新規,0,2023-08-08,2023-08-08,株式会社ＳＨＡＤＯＭＡＮ,,株式会社,東京都,杉並区,西荻北２丁目１２番４号トヨタビル１階,,13,115,1670042,,,,,,,2023-08-08,1,,,,,シャドマン,0
628,3011303004857,新規,0,2023-08-08,2023-08-08,ラトルスネイクアパートメント合同会社,,合同会社,東京都,杉並区,宮前３丁目３３番１３号,,13,115,1680081,,,,,,,2023-08-08,1,,,,,ラトルスネイクアパートメント,0
633,3011603004004,新規,0,2023-08-08,2023-08-08,合同会社Ｃｏｍｍｕｎｉｃａｔｉｏｎ　Ｍｏｎｓｔｅｒ,,合同会社,東京都,練馬区,豊玉中１丁目３８番７号,,13,120,1760013,,,,,,,2023-08-08,1,,,,,コミュニケーションモンスター,0
637,3011801042862,新規,0,2023-08-08,2023-08-08,株式会社ＮＡＲＡＦ,,株式会社,東京都,足立区,栗原１丁目５番１０号３階,,13,121,1230842,,,,,,,2023-08-08,1,,,,,ナラフ,0
638,3012301013552,新規,0,2023-08-08,2023-08-08,株式会社ｎｅｒｏ,,株式会社,東京都,町田市,三輪町１７７６番地１３,,13,209,1950054,,,,,,,2023-08-08,1,,,,,ネロ,0
641,3012401040819,新規,0,2023-08-08,2023-08-08,株式会社アイケーイー,,株式会社,東京都,狛江市,東野川３丁目１７番１－２１１号,,13,219,2010002,,,,,,,2023-08-08,1,,,,,アイケーイー,0
642,3012403006116,新規,0,2023-08-08,2023-08-08,合同会社三浦洋建築設計事務所,,合同会社,東京都,府中市,四谷５丁目４１番２０号グランシティレイディアント東京ウェスト９１５,,13,206,1830035,,,,,,,2023-08-08,1,,,,,ミウラヒロシケンチクセッケイジムショ,0
643,3012701017789,新規,0,2023-08-08,2023-08-08,ＡＮＮＥ’Ｓ　ＧＡＲＤＥＮ株式会社,,株式会社,東京都,西東京市,谷戸町３丁目１４番３号,,13,229,1880001,,,,,,,2023-08-08,1,,,,,アンズガーデン,0
652,3020001152785,新規,0,2023-08-08,2023-08-08,株式会社土屋組,,株式会社,神奈川県,横浜市戸塚区,名瀬町７６５－５Ｃ２０１,,14,110,2450051,,,,,,,2023-08-08,1,,,,,ツチヤグミ,0
653,3020001152802,新規,0,2023-08-08,2023-08-08,ＶＬＩ‐ＥＶ　ＦＩＮＡＮＣＥ　ＪＡＰＡＮ株式会社,,株式会社,神奈川県,川崎市宮前区,犬蔵１丁目２２番２９号,,14,136,2160011,,,,,,,2023-08-08,1,,,,,ブイエルアイイーブイファイナンスジャパン,0
654,3020001152835,新規,0,2023-08-08,2023-08-08,株式会社ＣＢＣ,,株式会社,神奈川県,横浜市中区,太田町２丁目２３番地,,14,104,2310011,,,,,,,2023-08-08,1,,,,,シービーシー,0
655,3020001152884,新規,0,2023-08-08,2023-08-08,ＦＳＷ株式会社,,株式会社,神奈川県,横浜市西区,北幸２丁目１０番２８号むつみビル３Ｆ,,14,103,2200004,,,,,,,2023-08-08,1,,,,,エフエスダブリュー,0
656,3020001152901,新規,0,2023-08-08,2023-08-08,株式会社ｓｙｎ,,株式会社,神奈川県,横浜市神奈川区,青木町１番地１０,,14,102,2210057,,,,,,,2023-08-08,1,,,,,シン,0
657,3020001152967,新規,0,2023-08-08,2023-08-08,株式会社江虎塗防,,株式会社,神奈川県,横浜市緑区,三保町１８９８番地３７,,14,113,2260015,,,,,,,2023-08-08,1,,,,,エトラトボウ,0
659,3020003024322,新規,0,2023-08-08,2023-08-08,合同会社ＭＵＧＥＮ　ＡＵＴＯ　ＮＩＰＰＯＮ,,合同会社,神奈川県,横浜市西区,浅間町１丁目４番３号ウィザードビル４０２,,14,103,2200072,,,,,,,2023-08-08,1,,,,,ムゲンオートニッポン,0
661,3021001079795,新規,0,2023-08-08,2023-08-08,株式会社Ｇｅｎｔｏ,,株式会社,神奈川県,横須賀市,佐原３丁目７番６号,,14,201,2390835,,,,,,,2023-08-08,1,,,,,ゲント,0
662,3021001079829,新規,0,2023-08-08,2023-08-08,株式会社Ｔｅ　Ｔｏ　Ｔｅ,,株式会社,神奈川県,大和市,下鶴間２３４６番地２ワコーつきみ野ビレッジ７０１号,,14,213,2420001,,,,,,,2023-08-08,1,,,,,テトテ,0
664,3021003013430,新規,0,2023-08-08,2023-08-08,フィールドスクエア合同会社,,合同会社,神奈川県,鎌倉市,笛田５丁目１０番１４号,,14,204,2480027,,,,,,,2023-08-08,1,,,,,フィールドスクエア,0
673,3030001154822,新規,0,2023-08-08,2023-08-08,株式会社Ｃｙｂｅｒ　Ｌｅａｄ,,株式会社,埼玉県,越谷市,瓦曽根３丁目９番２２号,,11,222,3430821,,,,,,,2023-08-08,1,,,,,サイバーリード,0
674,3030001154995,新規,0,2023-08-08,2023-08-08,株式会社ＪＡＰＡＮ　ＴＥＣＨＮＯ　ＭＯＴＯＲＳ,,株式会社,埼玉県,入間郡毛呂山町,若山３丁目１３番地１,,11,326,3500462,,,,,,,2023-08-08,1,,,,,ジャパンテクノモータース,0
675,3030001155424,新規,0,2023-08-08,2023-08-08,株式会社音翔,,株式会社,埼玉県,川越市,月吉町３１番地５８,,11,201,3500825,,,,,,,2023-08-08,1,,,,,オンショウ,0
683,3040001129526,新規,0,2023-08-08,2023-08-08,盈百管理諮詢株式会社,,株式会社,千葉県,東金市,堀之内５２７番地５－２０１,,12,213,2830027,,,,,,,2023-08-08,1,,,,,エイヒャクカンリシジュン,0
689,3050001053254,新規,0,2023-08-08,2023-08-08,株式会社ＴＨＥ　ＤＯＧ　ＴＯＷＮ,,株式会社,茨城県,神栖市,日川１９６３番地８９,,08,232,3140114,,,,,,,2023-08-08,1,,,,,ザドックタウン,0
693,3060001036225,新規,0,2023-08-08,2023-08-08,株式会社Ｇｏｏｄ,,株式会社,栃木県,足利市,葉鹿町１２２１番地２,,09,202,3260143,,,,,,,2023-08-08,1,,,,,,0
709,3080001025787,新規,0,2023-08-08,2023-08-08,株式会社設備タツナミ,,株式会社,静岡県,藤枝市,田中３丁目９番７号,,22,214,4260012,,,,,,,2023-08-08,1,,,,,セツビタツナミ,0
710,3080003003023,新規,0,2023-08-08,2023-08-08,Ｇタウルス合同会社,,合同会社,静岡県,静岡市駿河区,有東２丁目１６番５号,,22,102,4228032,,,,,,,2023-08-08,1,,,,,ジータウルス,0
711,3080101024160,新規,0,2023-08-08,2023-08-08,株式会社ＳＥＩＫＯＵ,,株式会社,静岡県,駿東郡清水町,徳倉１０１９番地の８,,22,341,4110917,,,,,,,2023-08-08,1,,,,,セイコウ,0
715,3090001018245,新規,0,2023-08-08,2023-08-08,株式会社ＮＡＣ,,株式会社,山梨県,甲府市,大里町１９８７番地,,19,201,4000053,,,,,,,2023-08-08,1,,,,,エヌエーシー,0
716,3090003002362,新規,0,2023-08-08,2023-08-08,合同会社テトラ,,合同会社,山梨県,山梨市,上石森１４３番地,,19,205,4050014,,,,,,,2023-08-08,1,,,,,テトラ,0
720,3100001036666,新規,0,2023-08-08,2023-08-08,株式会社ｗａｙｐｏｉｎｔ,,株式会社,長野県,佐久市,東立科２２６５－３うぐいすの森Ｇ６１１,,20,217,3850063,,,,,,,2023-08-08,1,,,,,ウェイポイント,0
722,3100003007129,新規,0,2023-08-08,2023-08-08,合同会社ＨＯＫＵＳＡＩ,,合同会社,長野県,松本市,寿台９丁目４－７,,20,202,3990025,,,,,,,2023-08-08,1,,,,,ホクサイ,0
723,3100003007137,新規,0,2023-08-08,2023-08-08,合同会社松金屋グループ,,合同会社,長野県,長野市,大字若槻団地１番地５６３,,20,201,3810051,,,,,,,2023-08-08,1,,,,,マツガネヤグループ,0
732,3120001256948,新規,0,2023-08-08,2023-08-08,日盛貿易株式会社,,株式会社,大阪府,大阪市中央区,島之内２丁目１７番２５号,,27,128,5420082,,,,,,,2023-08-08,1,,,,,ニッセイボウエキ,0
733,3120001257104,新規,0,2023-08-08,2023-08-08,ハイドロフォイル株式会社,,株式会社,大阪府,大阪市北区,鶴野町４番,,27,127,5300014,,,,,,,2023-08-08,1,,,,,ハイドロフォイル,0
734,3120001257129,新規,0,2023-08-08,2023-08-08,株式会社上鈴,,株式会社,大阪府,大阪市此花区,伝法２丁目６－１３,,27,104,5540002,,,,,,,2023-08-08,1,,,,,カミスズ,0
739,3120101067997,新規,0,2023-08-08,2023-08-08,株式会社登羽工業,,株式会社,大阪府,南河内郡河南町,大字東山８２８番地の１,,27,382,5850001,,,,,,,2023-08-08,1,,,,,トウワコウギョウ,0
740,3120101068013,新規,0,2023-08-08,2023-08-08,Ｓｅａ　Ｂｌｏｏｍ株式会社,,株式会社,大阪府,大阪狭山市,狭山４丁目２４５２－１－４０３,,27,231,5890005,,,,,,,2023-08-08,1,,,,,シーブルーム,0
741,3120101068038,新規,0,2023-08-08,2023-08-08,オクダＰＲＯＪＥＣＴ株式会社,,株式会社,大阪府,堺市南区,稲葉２丁２９８０番地３,,27,145,5900156,,,,,,,2023-08-08,1,,,,,オクダプロジェクト,0
742,3120103005377,新規,0,2023-08-08,2023-08-08,合同会社セカンドドリーム,,合同会社,大阪府,泉南市,兎田４３２番地の１,,27,228,5900501,,,,,,,2023-08-08,1,,,,,セカンドドリーム,0
743,3120105009748,新規,0,2023-08-08,2023-08-08,一般社団法人グランマの魔法の手,,その他の設立登記法人,大阪府,富田林市,錦織中１丁目１１番２５号,,27,214,5840068,,,,,,,2023-08-08,1,,,,,グランマノマホウノテ,0
747,3120901047926,新規,0,2023-08-08,2023-08-08,ＫＩＮＡＰＩＳ８株式会社,,株式会社,大阪府,箕面市,彩都粟生南４丁目１番５－９０３号,,27,220,5620028,,,,,,,2023-08-08,1,,,,,キナピスエイト,0
752,3122001037221,新規,0,2023-08-08,2023-08-08,株式会社増田建設,,株式会社,大阪府,東大阪市,荒川２丁目１番１号,,27,227,5770843,,,,,,,2023-08-08,1,,,,,マスダケンセツ,0
753,3122001037254,新規,0,2023-08-08,2023-08-08,株式会社大桝商事,,株式会社,大阪府,東大阪市,永和１丁目９番８号,,27,227,5770809,,,,,,,2023-08-08,1,,,,,オオマスショウジ,0
759,3130003008891,新規,0,2023-08-08,2023-08-08,ＨＡＬＯ合同会社,,合同会社,京都府,綾部市,新庄町太ケ鼻４番地,,26,203,6230363,,,,,,,2023-08-08,1,,,,,ハロ,0
764,3140001131083,新規,0,2023-08-08,2023-08-08,伊万里瀬戸運輸株式会社,,株式会社,兵庫県,神戸市西区,玉津町上池２５５－１,,28,111,6512126,,,,,,,2023-08-08,1,,,,,イマリセトウンユ,0
765,3140001131091,新規,0,2023-08-08,2023-08-08,株式会社ＫＰＭ,,株式会社,兵庫県,神戸市中央区,北長狭通３丁目１番１３号,,28,110,6500012,,,,,,,2023-08-08,1,,,,,ケーピーエム,0
766,3140001131100,新規,0,2023-08-08,2023-08-08,株式会社昌興業,,株式会社,兵庫県,宝塚市,山本丸橋３丁目１３番１０号,,28,214,6650815,,,,,,,2023-08-08,1,,,,,マサコウギョウ,0
767,3140001131133,新規,0,2023-08-08,2023-08-08,永盛貿易株式会社,,株式会社,兵庫県,神戸市中央区,琴ノ緒町１丁目６－２３－２０１,,28,110,6510094,,,,,,,2023-08-08,1,,,,,エイセイ,0
770,3150001026621,新規,0,2023-08-08,2023-08-08,トレマテリアル販売株式会社,,株式会社,奈良県,生駒市,松美台１５０番地５,,29,209,6300241,,,,,,,2023-08-08,1,,,,,トレマテリアルハンバイ,0
775,3160001025250,新規,0,2023-08-08,2023-08-08,株式会社Ｎｅｏｌｉｆｅ,,株式会社,滋賀県,近江八幡市,中小森町３０８番地８,,25,204,5230041,,,,,,,2023-08-08,1,,,,,ネオライフ,0
776,3160001025259,新規,0,2023-08-08,2023-08-08,スカイオーシャン株式会社,,株式会社,滋賀県,大津市,中庄２丁目２－３６,,25,201,5200837,,,,,,,2023-08-08,1,,,,,スカイオーシャン,0
777,3170001017718,新規,0,2023-08-08,2023-08-08,株式会社薫風,,株式会社,和歌山県,田辺市,秋津町１２９８番地の３,,30,206,6460005,,,,,,,2023-08-08,1,,,,,クンプウ,0
778,3180001157505,新規,0,2023-08-08,2023-08-08,株式会社ＭＫＢ,,株式会社,愛知県,名古屋市緑区,太子１丁目１０１番地,,23,114,4580823,,,,,,,2023-08-08,1,,,,,エムケービー,0
782,3180301037638,新規,0,2023-08-08,2023-08-08,豊橋シラスうなぎ株式会社,,株式会社,愛知県,豊橋市,東脇４丁目２３番地１,,23,201,4418083,,,,,,,2023-08-08,1,,,,,トヨハシシラスウナギ,0
783,3180301037654,新規,0,2023-08-08,2023-08-08,株式会社ＴＯＤＯＣ,,株式会社,愛知県,豊川市,末広通３丁目３８番地の１,,23,207,4420029,,,,,,,2023-08-08,1,,,,,トドック,0
784,3180301037679,新規,0,2023-08-08,2023-08-08,株式会社ＳＩＴＥＮ,,株式会社,愛知県,豊田市,保見町清水尻８０番地,,23,211,4700344,,,,,,,2023-08-08,1,,,,,シテン,0
793,3200001041573,新規,0,2023-08-08,2023-08-08,株式会社オキ製作所,,株式会社,岐阜県,安八郡神戸町,大字神戸１５４８番地の３,,21,381,5032305,,,,,,,2023-08-08,1,,,,,オキセイサクショ,0
795,3210003001681,新規,0,2023-08-08,2023-08-08,ＧＵＶ合同会社,,合同会社,福井県,福井市,北四ツ居３丁目２番５号,,18,201,9188205,,,,,,,2023-08-08,1,,,,,ガヴ,0
796,3220005008773,新規,0,2023-08-08,2023-08-08,一般財団法人ペット未来創造協議会,,その他の設立登記法人,石川県,白山市,横江町５２５０番地,,17,210,9240011,,,,,,,2023-08-08,1,,,,,ペットミライソウゾウキョウギカイ,0
798,3230001019955,新規,0,2023-08-08,2023-08-08,興英堂株式会社,,株式会社,富山県,射水市,かもめ台３５番地,,16,211,9330240,,,,,,,2023-08-08,1,,,,,コウエイドウ,0
802,3240001061931,新規,0,2023-08-08,2023-08-08,ティーリンク株式会社,,株式会社,広島県,広島市中区,東白島町１９番８７－１４０４号,,34,101,7300004,,,,,,,2023-08-08,1,,,,,ティーリンク,0
804,3240003006249,新規,0,2023-08-08,2023-08-08,リメンテ合同会社,,合同会社,広島県,広島市東区,福田２丁目２５４４番地１２,,34,102,7320029,,,,,,,2023-08-08,1,,,,,リメンテ,0
806,3260001038201,新規,0,2023-08-08,2023-08-08,ＨＢＬ株式会社,,株式会社,岡山県,倉敷市,連島町連島１１７４番地３０,,33,202,7128011,,,,,,,2023-08-08,1,,,,,エイチビーエル,0
807,3260001038218,新規,0,2023-08-08,2023-08-08,株式会社翡翠不動産,,株式会社,岡山県,岡山市北区,高柳西町２０番１７号,,33,101,7000035,,,,,,,2023-08-08,1,,,,,カワセミフドウサン,0
812,3290001102532,新規,0,2023-08-08,2023-08-08,株式会社Ｈ‐Ｐｌｕｓ　Ｊａｐａｎ,,株式会社,福岡県,福岡市中央区,港３丁目３番２９号,,40,133,8100075,,,,,,,2023-08-08,1,,,,,エイチプラスジャパン,0
813,3290001102549,新規,0,2023-08-08,2023-08-08,株式会社克建興業,,株式会社,福岡県,糟屋郡宇美町,宇美中央４丁目１１番４１号,,40,341,8112128,,,,,,,2023-08-08,1,,,,,,0
814,3290001102565,新規,0,2023-08-08,2023-08-08,丹桜商事株式会社,,株式会社,福岡県,福岡市東区,松香台２丁目６番１－２０６号崎村ビル,,40,131,8130004,,,,,,,2023-08-08,1,,,,,タンオウショウジ,0
815,3290001102573,新規,0,2023-08-08,2023-08-08,株式会社ハイエスト,,株式会社,福岡県,福岡市博多区,祇園町８－１２ロータリー大和６２８,,40,132,8120038,,,,,,,2023-08-08,1,,,,,ハイエスト,0
816,3290001102598,新規,0,2023-08-08,2023-08-08,株式会社クリエスタ,,株式会社,福岡県,福岡市中央区,天神２丁目２番１２号Ｔ＆Ｊビルディング７Ｆ,,40,133,8100001,,,,,,,2023-08-08,1,,,,,クリエスタ,0
817,3290001102607,新規,0,2023-08-08,2023-08-08,株式会社ＨＡＮＡ・時計,,株式会社,福岡県,久留米市,田主丸町田主丸５８７番地１,,40,203,8391233,,,,,,,2023-08-08,1,,,,,ハナトケイ,0
818,3290001102623,新規,0,2023-08-08,2023-08-08,株式会社Ｎ．Ｋ商会,,株式会社,福岡県,福岡市博多区,博多駅前２丁目５番５－７０２号,,40,132,8120011,,,,,,,2023-08-08,1,,,,,エヌケイショウカイ,0
820,3290003014189,新規,0,2023-08-08,2023-08-08,ＳＴＥＰ　ＵＰ　ＤＲＯＮＥ合同会社,,合同会社,福岡県,久留米市,西町１１９３番地５Ｒ－ＢＬＤＧ０２－６０１号,,40,203,8300038,,,,,,,2023-08-08,1,,,,,ステップアップドローン,0
821,3290003014206,新規,0,2023-08-08,2023-08-08,Ｌａ　ｆａｍｉｇｌｉａ合同会社,,合同会社,福岡県,八女郡広川町,大字藤田８４７番地１,,40,544,8340123,,,,,,,2023-08-08,1,,,,,ラファミリア,0
822,3300001013414,新規,0,2023-08-08,2023-08-08,株式会社平川屋ホールディングス,,株式会社,佐賀県,武雄市,北方町大字志久６００番地１,,41,206,8492201,,,,,,,2023-08-08,1,,,,,ヒラカワヤホールディングス,0
823,3310003004617,新規,0,2023-08-08,2023-08-08,合同会社ＪＴ,,合同会社,長崎県,対馬市,上県町佐須奈甲１２６８番地２,,42,209,8171602,,,,,,,2023-08-08,1,,,,,,0
824,3320001019938,新規,0,2023-08-08,2023-08-08,株式会社瑞希建設工業,,株式会社,大分県,大分市,大字森４７１番地の１１,,44,201,8700128,,,,,,,2023-08-08,1,,,,,ミズキケンセツコウギョウ,0
826,3330001031108,新規,0,2023-08-08,2023-08-08,株式会社新生テック,,株式会社,熊本県,熊本市東区,長嶺南６丁目１７番２６－２０２号,,43,102,8618039,,,,,,,2023-08-08,1,,,,,シンセイテック,0
830,3350001018482,新規,0,2023-08-08,2023-08-08,株式会社正彌商店,,株式会社,宮崎県,宮崎市,吉村町南田甲１１１０番地２Ｅ棟,,45,201,8800841,,,,,,,2023-08-08,1,,,,,マサヤショウテン,0
831,3350001018508,新規,0,2023-08-08,2023-08-08,株式会社マナビヤオフィス,,株式会社,宮崎県,宮崎市,生目台東１丁目２９番地１,,45,201,8800942,,,,,,,2023-08-08,1,,,,,マナビヤオフィス,0
833,3360001032375,新規,0,2023-08-08,2023-08-08,新建材沖縄株式会社,,株式会社,沖縄県,島尻郡八重瀬町,字具志頭１３９８番地１,,47,362,9010512,,,,,,,2023-08-08,1,,,,,シンケンザイオキナワ,0
834,3360001032383,新規,0,2023-08-08,2023-08-08,株式会社Ａｒｇｌａｒｔｅ,,株式会社,沖縄県,那覇市,銘苅２丁目４－４７,,47,201,9000004,,,,,,,2023-08-08,1,,,,,アルグラーテ,0
835,3360003013167,新規,0,2023-08-08,2023-08-08,合同会社ショウ建設,,合同会社,沖縄県,うるま市,字江洲１９番地４,,47,213,9042244,,,,,,,2023-08-08,1,,,,,ショウケンセツ,0
836,3360003013175,新規,0,2023-08-08,2023-08-08,合同会社はこさぽ,,合同会社,沖縄県,那覇市,首里金城町２丁目２番地マナーズ首里金城町２０２,,47,201,9030815,,,,,,,2023-08-08,1,,,,,ハコサポ,0
837,3360003013183,新規,0,2023-08-08,2023-08-08,合同会社Ｉｓｈｉｋａｗａ,,合同会社,沖縄県,国頭郡本部町,字崎本部４３０番地,,47,308,9050225,,,,,,,2023-08-08,1,,,,,イシカワ,0
840,3370003006236,新規,0,2023-08-08,2023-08-08,合同会社ヒーローズ・ユニオン,,合同会社,宮城県,仙台市青葉区,中央４丁目２－２６マスカットビル２－４階,,04,101,9800021,,,,,,,2023-08-08,1,,,,,ヒーローズユニオン,0
849,3390001017340,新規,0,2023-08-08,2023-08-08,株式会社ＢＢＨ,,株式会社,山形県,山形市,幸町１８番３８号,,06,201,9900038,,,,,,,2023-08-08,1,,,,,ビービーエイチ,0
850,3390001017349,新規,0,2023-08-08,2023-08-08,株式会社トウワ,,株式会社,山形県,鶴岡市,伊勢原町２５番２号,,06,203,9970802,,,,,,,2023-08-08,1,,,,,トウワ,0
852,3390003002126,新規,0,2023-08-08,2023-08-08,合同会社ジャムコレクション,,合同会社,山形県,新庄市,大字本合海１１５２,,06,205,9960112,,,,,,,2023-08-08,1,,,,,ジャムコレクション,0
853,3400001016340,新規,0,2023-08-08,2023-08-08,株式会社社寺工舎,,株式会社,岩手県,遠野市,松崎町駒木４地割８０番地１,,03,208,0280545,,,,,,,2023-08-08,1,,,,,シャジコウシャ,0
861,3430001089672,新規,0,2023-08-08,2023-08-08,株式会社Ｋ‐ＨＯＭＥ,,株式会社,北海道,札幌市白石区,北郷九条７丁目３番２７号,,01,104,0030839,,,,,,,2023-08-08,1,,,,,ケーホーム,0
862,3430001089680,新規,0,2023-08-08,2023-08-08,株式会社Ｆ９,,株式会社,北海道,札幌市中央区,南二条西２５丁目１番２号,,01,101,0640802,,,,,,,2023-08-08,1,,,,,エフキュー,0
867,3470001019741,新規,0,2023-08-08,2023-08-08,Ｓ１グループ株式会社,,株式会社,香川県,高松市,亀井町４番地３,,37,201,7600050,,,,,,,2023-08-08,1,,,,,エスワングループ,0
868,3470001019758,新規,0,2023-08-08,2023-08-08,株式会社住まいるＦｉｔ,,株式会社,香川県,高松市,国分寺町福家甲２７９７番地１,,37,201,7690103,,,,,,,2023-08-08,1,,,,,スマイルフィット,0
869,3480001012167,新規,0,2023-08-08,2023-08-08,株式会社要,,株式会社,徳島県,阿南市,宝田町今市山の北２５５番地７,,36,204,7740045,,,,,,,2023-08-08,1,,,,,カナメ,0
871,3480005006974,新規,0,2023-08-08,2023-08-08,一般社団法人つるぎ観光協会,,その他の設立登記法人,徳島県,美馬郡つるぎ町,貞光字野口２番地８,,36,468,7794102,,,,,,,2023-08-08,1,,,,,ツルギカンコウキョウカイ,0
874,3490003001803,新規,0,2023-08-08,2023-08-08,合同会社ＫＯＮＯ工業,,合同会社,高知県,高知市,北新田町１９番１３－１０１号,,39,201,7818003,,,,,,,2023-08-08,1,,,,,コウノコウギョウ,0
875,3500001025117,新規,0,2023-08-08,2023-08-08,株式会社共和興業,,株式会社,愛媛県,今治市,郷新屋敷町１丁目１番１３号,,38,202,7940826,,,,,,,2023-08-08,1,,,,,キョウワコウギョウ,0
877,3700150101301,新規,0,2023-08-08,2020-12-08,みらい学童保育クラブ,,その他,愛知県,名古屋市緑区,乗鞍２丁目４０１－５,,23,114,4580004,,,,,,,2020-12-08,1,,,,,ミライガクドウホイククラブ,0
878,3700150118873,新規,0,2023-08-08,2023-08-08,ｓｈｅｎｚｈｅｎｓｈｉｙａｔａｉｘｉｎｇｄｉａｎｚｉｓｈａｎｇｗｕｙｏｕｘｉａｎｇｏｎｇｓｉ,,外国会社等,,,,,,,,ｇｕａｎｇｄｏｎｇｓｈｅｎｇ　ｓｈｅｎｚｈｅｎｓｈｉ　ｌｏｎｇｇａｎｇｑｕｂｕｊｉｊｉｅｄａｏｌｕｏｇａｎｇｓｈｅｑｕｚｈｏｎｇｙｕａｎｌｕ３３ｈａｏＣｄｏｎｇ２１５,,,,,,2023-08-08,1,,,,,シェンジェンシーヤータイシンディエンズーシャンウーヨウシエンゴンスー,0
879,3700150118881,新規,0,2023-08-08,2023-08-08,ｑｕａｎｚｈｏｕｎａｆｕｍａｏｙｉｙｏｕｘｉａｎｇｏｎｇｓｉ,,外国会社等,,,,,,,,ｓｈｉｊｉｎｇｚｈｅｎｙｕａｎｘｉａｃｕｎｗｅｉｈｕｉｙｉｎｇｌｉａｎｇｙｉｎｘｉａｎｇｗｕｈａｏ　ｊｕｎｙｕｅｗａｎ　１２ｈａｏｌｏｕ３０１　ｑｕａｎｚｈｏｕｓｈｉｎａｎａｎｓｈｉ　ｆｕｊｉａｎｓｈｅｎｇ　３６２３４３　ＣＮ,,,,,,2023-08-08,1,,,,,チュェンジョウナフゥマオイーヨウシェンゴンスー,0
888,4010001237561,新規,0,2023-08-08,2023-08-08,株式会社スライブファーム,,株式会社,東京都,中央区,日本橋蛎殻町２丁目１５番９－３０３号,,13,102,1030014,,,,,,,2023-08-08,1,,,,,スライブファーム,0
889,4010003041292,新規,0,2023-08-08,2023-08-08,ダヴィンチェレ合同会社,,合同会社,東京都,文京区,大塚６丁目３番１０号,,13,105,1120012,,,,,,,2023-08-08,1,,,,,ダヴィンチェレ,0
895,4010401176145,新規,0,2023-08-08,2023-08-08,ＳＧＣ株式会社,,株式会社,東京都,港区,高輪４丁目８番２２号,,13,103,1080074,,,,,,,2023-08-08,1,,,,,エスジーシー,0
896,4010401176153,新規,0,2023-08-08,2023-08-08,株式会社ＥＧＯＳ,,株式会社,東京都,港区,西新橋１丁目２－９日比谷セントラルビル１４階,,13,103,1050003,,,,,,,2023-08-08,1,,,,,エゴス,0
897,4010401176161,新規,0,2023-08-08,2023-08-08,ＥＰＬホールディングス株式会社,,株式会社,東京都,港区,三田３丁目７番１８号イトヤマタワー１５階１５３号室,,13,103,1080073,,,,,,,2023-08-08,1,,,,,イーピーエルホールディングス,0
898,4010401176343,新規,0,2023-08-08,2023-08-08,株式会社ＨＩＭＡ,,株式会社,東京都,港区,南青山４丁目２２番１－４０２号,,13,103,1070062,,,,,,,2023-08-08,1,,,,,ヒマ,0
900,4010403030639,新規,0,2023-08-08,2023-08-08,合同会社鳥丸邸,,合同会社,東京都,港区,南青山３丁目４番１２号,,13,103,1070062,,,,,,,2023-08-08,1,,,,,トリマルテイ,0
910,4010601063556,新規,0,2023-08-08,2023-08-08,株式会社ジークロス,,株式会社,東京都,墨田区,江東橋４丁目２７番１４号,,13,107,1300022,,,,,,,2023-08-08,1,,,,,ジークロス,0
912,4010701044695,新規,0,2023-08-08,2023-08-08,レックスフォード株式会社,,株式会社,東京都,品川区,小山４丁目７番１０号,,13,109,1420062,,,,,,,2023-08-08,1,,,,,レックスフォード,0
919,4010901053546,新規,0,2023-08-08,2023-08-08,グーマン・エクスプローラー・ジャパン株式会社,,株式会社,東京都,世田谷区,駒沢２丁目１８番１６－３１３号,,13,112,1540012,,,,,,,2023-08-08,1,,,,,グーマンエクスプローラージャパン,0
924,4011003017316,新規,0,2023-08-08,2023-08-08,ＷＭ　ＵＮＩＴＥＤ　ＣＯＭＰＡＮＹ合同会社,,合同会社,東京都,渋谷区,代々木３丁目２番７号マルモール代々木５０２,,13,113,1510053,,,,,,,2023-08-08,1,,,,,ダブリューエムリミテッドカンパニー,0
929,4011101103918,新規,0,2023-08-08,2023-08-08,株式会社ＰＯＬＬＯＣＫ,,株式会社,東京都,新宿区,西新宿３丁目３番１３号,,13,104,1600023,,,,,,,2023-08-08,1,,,,,ポロック,0
930,4011101103942,新規,0,2023-08-08,2023-08-08,ＡＣＧＢＯＸ株式会社,,株式会社,東京都,新宿区,高田馬場１丁目３１番８高田馬場ダイカンブラザ１００４号,,13,104,1690075,,,,,,,2023-08-08,1,,,,,エーシージーボックス,0
933,4011201024808,新規,0,2023-08-08,2023-08-08,株式会社琴,,株式会社,東京都,中野区,鷺宮６丁目２８番２号,,13,114,1650032,,,,,,,2023-08-08,1,,,,,コト,0
934,4011301028915,新規,0,2023-08-08,2023-08-08,株式会社グランエッジ,,株式会社,東京都,杉並区,高井戸西２丁目８番１号,,13,115,1680071,,,,,,,2023-08-08,1,,,,,グランエッジ,0
935,4011303004856,新規,0,2023-08-08,2023-08-08,合同会社ＴＧＧ,,合同会社,東京都,杉並区,永福２丁目１６－７ウィンズパレ２０１,,13,115,1680064,,,,,,,2023-08-08,1,,,,,ティージージー,0
937,4011701026502,新規,0,2023-08-08,2023-08-08,ＳｅａＳｋｙ株式会社,,株式会社,東京都,江戸川区,東葛西８丁目１９－２０,,13,123,1340084,,,,,,,2023-08-08,1,,,,,シースカイ,0
941,4011803005775,新規,0,2023-08-08,2023-08-08,合同会社ＫｎｉｇｈｔＳｈｏｒｅ,,合同会社,東京都,足立区,梅田８丁目１４番２－９１７号,,13,121,1230851,,,,,,,2023-08-08,1,,,,,ナイトショア,0
943,4012401040818,新規,0,2023-08-08,2023-08-08,株式会社ＡＰＴ,,株式会社,東京都,武蔵野市,境５丁目１３番２号デライトシティＡ－６１９,,13,203,1800022,,,,,,,2023-08-08,1,,,,,アプト,0
944,4012401040842,新規,0,2023-08-08,2023-08-08,株式会社瀧谷興行,,株式会社,東京都,狛江市,駒井町３丁目１０番４号ミルリアン２０１,,13,219,2010016,,,,,,,2023-08-08,1,,,,,タキヤコウギョウ,0
945,4012701017788,新規,0,2023-08-08,2023-08-08,株式会社関和鑑定,,株式会社,東京都,東村山市,恩多町２丁目３２番地１,,13,213,1890011,,,,,,,2023-08-08,1,,,,,カンワカンテイ,0
946,4012703002771,新規,0,2023-08-08,2023-08-08,アイメル合同会社,,合同会社,東京都,清瀬市,中里５丁目１１番地,,13,221,2040003,,,,,,,2023-08-08,1,,,,,アイメル,0
952,4013301051145,新規,0,2023-08-08,2023-08-08,株式会社スクエア,,株式会社,東京都,豊島区,池袋２丁目５３番３号,,13,116,1710014,,,,,,,2023-08-08,1,,,,,スクエア,0
953,4013301051153,新規,0,2023-08-08,2023-08-08,株式会社サトウ,,株式会社,東京都,豊島区,駒込３丁目１番３号,,13,116,1700003,,,,,,,2023-08-08,1,,,,,サトウ,0
958,4020001152826,新規,0,2023-08-08,2023-08-08,株式会社Ｗｅｌｌ‐Ｆｅｄ,,株式会社,神奈川県,横浜市西区,北幸２丁目１０番地２８むつみビル３Ｆ,,14,103,2200004,,,,,,,2023-08-08,1,,,,,ウェルフェド,0
959,4020001152859,新規,0,2023-08-08,2023-08-08,株式会社ガレージショップミューズ,,株式会社,神奈川県,川崎市高津区,下作延６丁目２４番１－６０７号,,14,134,2130033,,,,,,,2023-08-08,1,,,,,ガレージショップミューズ,0
960,4020001152933,新規,0,2023-08-08,2023-08-08,株式会社ｔａｎｉ　ｅｎｔｅｒｔａｉｎｍｅｎｔ,,株式会社,神奈川県,川崎市麻生区,万福寺１丁目１２番１号Ｂ１Ｆ,,14,137,2150004,,,,,,,2023-08-08,1,,,,,タニエンターテイメント,0
961,4020001152941,新規,0,2023-08-08,2023-08-08,株式会社成田総建,,株式会社,神奈川県,川崎市川崎区,大島４丁目２番９－１号,,14,131,2100834,,,,,,,2023-08-08,1,,,,,ナリタソウケン,0
962,4020001152958,新規,0,2023-08-08,2023-08-08,株式会社シェアワーク研究所,,株式会社,神奈川県,横浜市中区,本牧町２丁目３２０番地,,14,104,2310806,,,,,,,2023-08-08,1,,,,,シェアワークケンキュウジョ,0
965,4020003024305,新規,0,2023-08-08,2023-08-08,ポタラ合同会社,,合同会社,神奈川県,横浜市緑区,長津田みなみ台７丁目１８番地１,,14,113,2260018,,,,,,,2023-08-08,1,,,,,ポタラ,0
966,4020003024313,新規,0,2023-08-08,2023-08-08,合同会社サーストン,,合同会社,神奈川県,横浜市港北区,篠原町１５５１番地１９,,14,109,2220026,,,,,,,2023-08-08,1,,,,,サーストン,0
967,4020003024321,新規,0,2023-08-08,2023-08-08,モルフォルナ合同会社,,合同会社,神奈川県,横浜市西区,伊勢町３丁目１１８－１－７０３号,,14,103,2200045,,,,,,,2023-08-08,1,,,,,モルフォルナ,0
968,4020003024338,新規,0,2023-08-08,2023-08-08,合同会社Ｆｉｖｅ　Ｆ,,合同会社,神奈川県,横浜市磯子区,上中里町５７７番地８,,14,107,2350042,,,,,,,2023-08-08,1,,,,,ファイブエフ,0
975,4021001079794,新規,0,2023-08-08,2023-08-08,株式会社Ｍａｕｌ,,株式会社,神奈川県,平塚市,田村５丁目５－６,,14,203,2540013,,,,,,,2023-08-08,1,,,,,モール,0
987,4030001155150,新規,0,2023-08-08,2023-08-08,豪凱株式会社,,株式会社,埼玉県,富士見市,東みずほ台３丁目１番地２１シャトーみずほ２０２号室,,11,235,3540015,,,,,,,2023-08-08,1,,,,,ゴウカイ,0
988,4030001155258,新規,0,2023-08-08,2023-08-08,株式会社３ｔｅｃ,,株式会社,埼玉県,越谷市,大字大道７２８番地１,,11,222,3430035,,,,,,,2023-08-08,1,,,,,サンテック,0
991,4030003022233,新規,0,2023-08-08,2023-08-08,合同会社ＭＥＤ,,合同会社,埼玉県,さいたま市浦和区,常盤１丁目３番９号ロイヤルプラザ常盤２０７,,11,107,3300061,,,,,,,2023-08-08,1,,,,,エムイーディー,0
1000,4040001129574,新規,0,2023-08-08,2023-08-08,株式会社心美建,,株式会社,千葉県,袖ケ浦市,蔵波２７１３番地１４,,12,229,2990243,,,,,,,2023-08-08,1,,,,,シンビケン,0
1001,4040001129616,新規,0,2023-08-08,2023-08-08,Ｓｍｏｏｔｈ株式会社,,株式会社,千葉県,千葉市若葉区,みつわ台５丁目２９－４－５０７,,12,104,2640032,,,,,,,2023-08-08,1,,,,,スムース,0
1008,4040003023081,新規,0,2023-08-08,2023-08-08,Ｃｏｍｐａｓｓ合同会社,,合同会社,千葉県,柏市,篠籠田１２４１－１－Ｂ,,12,217,2770862,,,,,,,2023-08-08,1,,,,,コンパス,0
1010,4050001053245,新規,0,2023-08-08,2023-08-08,株式会社ワイルドライフ,,株式会社,茨城県,古河市,下大野１３１８番地,,08,204,3060204,,,,,,,2023-08-08,1,,,,,ワイルドライフ,0
1012,4060001036249,新規,0,2023-08-08,2023-08-08,株式会社Ｗｅｂｉｌ,,株式会社,栃木県,那須塩原市,南町２－２２,,09,213,3292723,,,,,,,2023-08-08,1,,,,,ウェビル,0
1018,4070001040729,新規,0,2023-08-08,2023-08-08,株式会社木榑記念総業,00131436,株式会社,群馬県,前橋市,上新田町１１９２番地７,,10,201,3710821,,,,,,,2023-08-08,1,,,,,コグレキネンソウギョウ,0
1019,4070001040737,新規,0,2023-08-08,2023-08-08,株式会社上州和彩よしもと,,株式会社,群馬県,前橋市,南町３丁目７番地６,,10,201,3710805,,,,,,,2023-08-08,1,,,,,ジョウシュウワサイヨシモト,0
1024,4070003005052,新規,0,2023-08-08,2023-08-08,ＪＡＮ合同会社,,合同会社,群馬県,邑楽郡大泉町,大字寄木戸１２８４番地の７ソレイユＩ－１０２号,,10,524,3700535,,,,,,,2023-08-08,1,,,,,ジャン,0
1025,4080001025786,新規,0,2023-08-08,2023-08-08,株式会社逸品クリエイト,,株式会社,静岡県,静岡市駿河区,丸子３丁目６６２番地７,,22,102,4210103,,,,,,,2023-08-08,1,,,,,イッピンクリエイト,0
1032,4090001018244,新規,0,2023-08-08,2023-08-08,株式会社秋山製袋,,株式会社,山梨県,甲府市,国母４丁目３番６号,,19,201,4000043,,,,,,,2023-08-08,1,,,,,アキヤマセイタイ,0
1033,4090001018269,新規,0,2023-08-08,2023-08-08,株式会社ＳＴ,,株式会社,山梨県,都留市,井倉７１２番地１,,19,204,4020011,,,,,,,2023-08-08,1,,,,,エスティー,0
1034,4100001036673,新規,0,2023-08-08,2023-08-08,株式会社Ｓｔｒａｗ,,株式会社,長野県,長野市,豊野町蟹沢２６２１番地,,20,201,3891103,,,,,,,2023-08-08,1,,,,,ストロー,0
1035,4100003007128,新規,0,2023-08-08,2023-08-08,合同会社ムツミコネクト,,合同会社,長野県,長野市,大字大町２１５番地,,20,201,3810004,,,,,,,2023-08-08,1,,,,,ムツミコネクト,0
1043,4120001256930,新規,0,2023-08-08,2023-08-08,淺春堂芸術文化株式会社,,株式会社,大阪府,大阪市中央区,東平２丁目２番１１－６０１号,,27,128,5420063,,,,,,,2023-08-08,1,,,,,センシュンドウゲイジュツブンカ,0
1044,4120001257094,新規,0,2023-08-08,2023-08-08,株式会社ＧＮ　Ｂｕｓｉｎｅｓｓ　Ｃｏｎｓｕｌｔｉｎｇ,,株式会社,大阪府,大阪市北区,西天満５丁目１－９大和地所南森町ビル７階,,27,127,5300047,,,,,,,2023-08-08,1,,,,,グランビジネスコンサルティング,0
1045,4120001257177,新規,0,2023-08-08,2023-08-08,株式会社ＭＡＨＡＬＯ　ＨＯＵＳＥ,,株式会社,大阪府,守口市,大久保町４丁目４１番２５号,,27,209,5700012,,,,,,,2023-08-08,1,,,,,マハロハウス,0
1047,4120101068004,新規,0,2023-08-08,2023-08-08,株式会社よつば商会,,株式会社,大阪府,藤井寺市,岡１丁目８番１５－３０４号,,27,226,5830027,,,,,,,2023-08-08,1,,,,,ヨツバショウカイ,0
1048,4120101068020,新規,0,2023-08-08,2023-08-08,Ｎａｒｉ　Ｔｅｃｈ　Ｓｏｌｕｔｉｏｎｓ株式会社,,株式会社,大阪府,泉佐野市,鶴原１７８番地の６,,27,213,5980071,,,,,,,2023-08-08,1,,,,,ナリテックソリューションズ,0
1049,4120101068029,新規,0,2023-08-08,2023-08-08,株式会社松原建工,,株式会社,大阪府,松原市,田井城１丁目７番１８号,,27,217,5800044,,,,,,,2023-08-08,1,,,,,マツバラケンコウ,0
1050,4120101068037,新規,0,2023-08-08,2023-08-08,エターフリー株式会社,,株式会社,大阪府,堺市中区,深井中町１１７４番地２４,,27,142,5998272,,,,,,,2023-08-08,1,,,,,エターフリー,0
1052,4120903004775,新規,0,2023-08-08,2023-08-08,ＣｈｇＮａｖｉ４ＢｅｔｔｅｒＬｉｆｅ合同会社,,合同会社,大阪府,吹田市,上山田８番２３－６０４号,,27,205,5650872,,,,,,,2023-08-08,1,,,,,チェンジナビフォーベターライフ,0
1060,4140003019391,新規,0,2023-08-08,2023-08-08,合同会社ＰｉｎＰｏｉｎｔ,,合同会社,兵庫県,西宮市,西田町１－２２ＮＤビルハイツ２０１号室,,28,204,6620034,,,,,,,2023-08-08,1,,,,,ピンポイント,0
1062,4140005026700,新規,0,2023-08-08,2023-08-08,弁護士法人らい麦法律事務所,,その他の設立登記法人,兵庫県,神戸市中央区,東町１１６神戸パークサイドビル８階,,28,110,6500031,,,,,,,2023-08-08,1,,,,,ライムギホウリツジムショ,0
1066,4170001017725,新規,0,2023-08-08,2023-08-08,株式会社ＡＳＨＩＴＡ製作所,,株式会社,和歌山県,橋本市,古佐田１丁目８－８,,30,203,6480065,,,,,,,2023-08-08,1,,,,,アシタセイサクショ,0
1070,4180003025584,新規,0,2023-08-08,2023-08-08,合同会社花紅葉ぽん太,,合同会社,愛知県,名古屋市南区,笠寺町字西之門５７番地の２,,23,112,4570051,,,,,,,2023-08-08,1,,,,,ハナモミジポンタ,0
1072,4180301037629,新規,0,2023-08-08,2023-08-08,中尾工業株式会社,,株式会社,愛知県,豊川市,金屋町７７番地,,23,207,4420053,,,,,,,2023-08-08,1,,,,,ナカオコウギョウ,0
1077,4190001030627,新規,0,2023-08-08,2023-08-08,株式会社Ｓｏａｒ,,株式会社,三重県,鈴鹿市,東庄内町７７９番地,,24,207,5190272,,,,,,,2023-08-08,1,,,,,ソアー,0
1078,4190001030635,新規,0,2023-08-08,2023-08-08,株式会社Ｈｉｍａｗａｒｉ,,株式会社,三重県,鈴鹿市,江島台２丁目２番１１号,,24,207,5100231,,,,,,,2023-08-08,1,,,,,ヒマワリ,0
1079,4190001030643,新規,0,2023-08-08,2023-08-08,株式会社ＧＯＷＩＬＤ,,株式会社,三重県,鳥羽市,鳥羽１丁目２番１２号,,24,211,5170011,,,,,,,2023-08-08,1,,,,,ゴーワイルド,0
1081,4200001041572,新規,0,2023-08-08,2023-08-08,株式会社丸節建設,,株式会社,岐阜県,郡上市,高鷲町鷲見５１０８番地５,,21,219,5015302,,,,,,,2023-08-08,1,,,,,マルセツケンセツ,0
1082,4200001041580,新規,0,2023-08-08,2023-08-08,株式会社いきいき健康薬局,,株式会社,岐阜県,瑞浪市,松ヶ瀬町１丁目１５番地の２,,21,208,5096134,,,,,,,2023-08-08,1,,,,,イキイキケンコウヤッキョク,0
1083,4200003006045,新規,0,2023-08-08,2023-08-08,Ｏｆｆｉｃｅ　Ｋ合同会社,,合同会社,岐阜県,可児市,川合北１丁目１３１番地－１,,21,214,5090208,,,,,,,2023-08-08,1,,,,,オフィスケイ,0
1084,4210001019411,新規,0,2023-08-08,2023-08-08,株式会社福井ＲＩＤＥコーポレーション,,株式会社,福井県,福井市,日之出５丁目３番３０号,,18,201,9100859,,,,,,,2023-08-08,1,,,,,フクイライドコーポレーション,0
1085,4210003001680,新規,0,2023-08-08,2023-08-08,合同会社Ｆｒａｃｔａｌ,,合同会社,福井県,越前市,横市町１６－２１－３,,18,209,9150094,,,,,,,2023-08-08,1,,,,,フラクタル,0
1090,4220005008772,新規,0,2023-08-08,2023-08-08,一般社団法人北陸呼吸器医療推進機構,,その他の設立登記法人,石川県,金沢市,宝町１３番１号,,17,201,9200934,,,,,,,2023-08-08,1,,,,,ホクリクコキュウイリョウスイシンキコウ,0
1091,4230001019954,新規,0,2023-08-08,2023-08-08,株式会社ｉｚｕｍｉｈｄ,,株式会社,富山県,富山市,新根塚町３丁目１番地２,,16,201,9398205,,,,,,,2023-08-08,1,,,,,イズミエイチディー,0
1093,4230003002066,新規,0,2023-08-08,2023-08-08,合同会社ＣＯＬＬＡＴＺ,,合同会社,富山県,富山市,西荒屋１０２番地４,,16,201,9398251,,,,,,,2023-08-08,1,,,,,コラッツ,0
1100,4240001061897,新規,0,2023-08-08,2023-08-08,株式会社Ａｄｉｓｔａ,,株式会社,広島県,広島市安佐南区,緑井６丁目７番１－８０２号,,34,105,7310103,,,,,,,2023-08-08,1,,,,,アディスタ,0
1101,4240001061971,新規,0,2023-08-08,2023-08-08,株式会社ＨＵＧ,,株式会社,広島県,広島市西区,庚午中４丁目１６番２５‐２号,,34,104,7330822,,,,,,,2023-08-08,1,,,,,ハグ,0
1103,4240003006248,新規,0,2023-08-08,2023-08-08,合同会社コモンスタイル,,合同会社,広島県,東広島市,西条町寺家４８１５番１１号,,34,212,7390041,,,,,,,2023-08-08,1,,,,,コモンスタイル,0
1104,4240003006256,新規,0,2023-08-08,2023-08-08,リクレイム合同会社,,合同会社,広島県,福山市,御幸町大字上岩成６６０番地２,,34,207,7200001,,,,,,,2023-08-08,1,,,,,,0
1105,4240005015627,新規,0,2023-08-08,2023-08-08,税理士法人古永会計,,その他の設立登記法人,広島県,三次市,十日市東３丁目３番２２号マスダランドビル３Ｆ,,34,209,7280013,,,,,,,2023-08-08,1,,,,,フルナガカイケイ,0
1110,4260001038209,新規,0,2023-08-08,2023-08-08,株式会社ナチュラル・メイト,,株式会社,岡山県,浅口市,金光町八重２６２番地２０,,33,216,7190103,,,,,,,2023-08-08,1,,,,,ナチュラルメイト,0
1111,4260001038217,新規,0,2023-08-08,2023-08-08,建築岩井株式会社,,株式会社,岡山県,岡山市中区,平井１丁目１５番３６号,,33,102,7038282,,,,,,,2023-08-08,1,,,,,ケンチクイワイ,0
1116,4290001102564,新規,0,2023-08-08,2023-08-08,株式会社ＦＯＲＬＩＦＥ,,株式会社,福岡県,福岡市博多区,博多駅前２丁目１９番１７号トーカン博多第５ビル３１２号室,,40,132,8120011,,,,,,,2023-08-08,1,,,,,フォーライフ,0
1117,4290001102614,新規,0,2023-08-08,2023-08-08,株式会社Ｔｓｕｍｕｇｉ,,株式会社,福岡県,福岡市中央区,春吉３丁目２１－２８ロマネスクリゾートクラブ西中洲ビル５階,,40,133,8100003,,,,,,,2023-08-08,1,,,,,ツムギ,0
1122,4290005019078,新規,0,2023-08-08,2023-08-08,特定非営利活動法人グリーンハウスフォーオール,,その他の設立登記法人,福岡県,福岡市西区,愛宕２丁目１０番１５－２０６号ライオンズマンション愛宕,,40,135,8190015,,,,,,,2023-08-08,1,,,,,グリーンハウスフォーオール,0
1123,4290801029759,新規,0,2023-08-08,2023-08-08,株式会社デンペン,,株式会社,福岡県,田川市,大字夏吉３５１５番地３,,40,206,8250004,,,,,,,2023-08-08,1,,,,,デンペン,0
1124,4290801029767,新規,0,2023-08-08,2023-08-08,株式会社グットパートナー,,株式会社,福岡県,北九州市八幡西区,黒崎２丁目１番１号７Ｆ,,40,109,8060021,,,,,,,2023-08-08,1,,,,,グットパートナー,0
1125,4290801029775,新規,0,2023-08-08,2023-08-08,株式会社Ｎｅｘｔ　Ｂｒｉｇｈｔ,,株式会社,福岡県,北九州市小倉北区,浅野３丁目８番１号ＡＩＭビル６階,,40,106,8020001,,,,,,,2023-08-08,1,,,,,ネクストブライト,0
1126,4290803004479,新規,0,2023-08-08,2023-08-08,合同会社Ｓｈａｌｕｌｕ,,合同会社,福岡県,北九州市八幡西区,黒崎１丁目８番７号３階,,40,109,8060021,,,,,,,2023-08-08,1,,,,,シャルル,0
1127,4300001013421,新規,0,2023-08-08,2023-08-08,きばる古賀株式会社,,株式会社,佐賀県,武雄市,北方町大字志久２０４０番地２,,41,206,8492201,,,,,,,2023-08-08,1,,,,,キバルコガ,0
1130,4320003004144,新規,0,2023-08-08,2023-08-08,合同会社ＩＭＳＡＴ,,合同会社,大分県,大分市,大字猪野１４１７番地の１,,44,201,8700134,,,,,,,2023-08-08,1,,,,,イムサット,0
1133,4330001031107,新規,0,2023-08-08,2023-08-08,サイドキックス株式会社,,株式会社,熊本県,熊本市中央区,花畑町１番１４号Ａ＆ＭＨＡＮＡＢＡＴＡ３０１号,,43,101,8600806,,,,,,,2023-08-08,1,,,,,サイドキックス,0
1138,4350003004406,新規,0,2023-08-08,2023-08-08,ＦＩＬＭ　ＰＲＯ合同会社,,合同会社,宮崎県,都城市,都原町１３番地１０,,45,202,8850094,,,,,,,2023-08-08,1,,,,,フィルムプロ,0
1140,4360001032382,新規,0,2023-08-08,2023-08-08,株式会社ＳＳＰＪ,,株式会社,沖縄県,島尻郡八重瀬町,字伊覇２８１番地１,,47,362,9010405,,,,,,,2023-08-08,1,,,,,エスエスピージェイ,0
1142,4360003013174,新規,0,2023-08-08,2023-08-08,合同会社Ｋ’Ｓ　ｏｆｆｉｃｅ,,合同会社,沖縄県,浦添市,大平３丁目１７番６号,,47,208,9012113,,,,,,,2023-08-08,1,,,,,ケーズオフィス,0
1143,4370001050268,新規,0,2023-08-08,2023-08-08,株式会社Ｗｅｌｌｔｈｙ,,株式会社,宮城県,遠田郡美里町,北浦字蓮沼浦１１１番地,,04,505,9870005,,,,,,,2023-08-08,1,,,,,ウェルシー,0
1151,4390001017348,新規,0,2023-08-08,2023-08-08,株式会社ＪＷＣ,,株式会社,山形県,山形市,大字常明寺５２３番地１,,06,201,9902381,,,,,,,2023-08-08,1,,,,,ジェイダブリューシー,0
1156,4430001089572,新規,0,2023-08-08,2023-08-08,株式会社ケーエムベース,,株式会社,北海道,石狩市,緑苑台東二条１丁目９１番地,,01,235,0613222,,,,,,,2023-08-08,1,,,,,ケーエムベース,0
1157,4430001089663,新規,0,2023-08-08,2023-08-08,株式会社トラスト,,株式会社,北海道,岩見沢市,幌向町４０５番地９,,01,210,0690383,,,,,,,2023-08-08,1,,,,,トラスト,0
1158,4430001089721,新規,0,2023-08-08,2023-08-08,クレードル興農株式会社,,株式会社,北海道,札幌市西区,発寒十一条５丁目１０番１号,,01,107,0630831,,,,,,,2023-08-08,1,,,,,クレードルコウノウ,0
1164,4430003015337,新規,0,2023-08-08,2023-08-08,合同会社Ｒｅ‐Ｌｉｅｖｅ,,合同会社,北海道,札幌市西区,山の手四条４丁目２番１５号,,01,107,0630004,,,,,,,2023-08-08,1,,,,,レリーヴ,0
1170,4450003002374,新規,0,2023-08-08,2023-08-08,レミュー合同会社,,合同会社,北海道,旭川市,住吉六条２丁目４番５号,,01,204,0700866,,,,,,,2023-08-08,1,,,,,レミュー,0
1174,4480001012166,新規,0,2023-08-08,2023-08-08,ＣａｒｇｏＬｉｎｅ株式会社,,株式会社,徳島県,海部郡海陽町,大里字松ノ本６４番地,,36,388,7750203,,,,,,,2023-08-08,1,,,,,カーゴライン,0
1175,4480005006973,新規,0,2023-08-08,2023-08-08,一般社団法人日本スペイン語協会,,その他の設立登記法人,徳島県,徳島市,新浜本町４丁目２番２６号,,36,201,7708007,,,,,,,2023-08-08,1,,,,,ニホンスペインゴキョウカイ,0
1178,4500001025116,新規,0,2023-08-08,2023-08-08,株式会社大田薬品,,株式会社,愛媛県,大洲市,東大洲７７番地の２,,38,207,7950064,,,,,,,2023-08-08,1,,,,,オオタヤクヒン,0
1181,4500003003078,新規,0,2023-08-08,2023-08-08,合同会社Ｗｉｔｈｄｏｍ,,合同会社,愛媛県,松山市,清水町４丁目２０番地４Ｙ’ｓコート清水町３０３号,,38,201,7900823,,,,,,,2023-08-08,1,,,,,,0
1182,4700150108460,新規,0,2023-08-08,2022-05-02,ムセイオン音楽協会,,その他,大阪府,茨木市,新庄町３番１８号,,27,211,5670884,,,,,,,2022-05-02,1,,,,,ムセイオンオンガクキヨウカイ,0
1183,4700150118872,新規,0,2023-08-08,2023-08-08,ｓｈｅｎ　ｚｈｅｎ　ｓａｎ　ｃｈｅ　ｄｉａｎ　ｚｉ　ｋｅ　ｊｉ　ｙｏｕ　ｘｉａｎ　ｇｏｎｇ　ｓｉ,,外国会社等,,,,,,,,ｓｈｅｎｚｈｅｎｓｈｉｂａｏａｎｑｕｓｈａｊｉｎｇｊｉｅｄａｏｙａｂｉａｎｓｈｅｑｕｙａｂｉａｎｘｕｅｚｉｗｅｉｊｕｊｉｇｏｎｇｙｅｙｕａｎＤｄｏｎｇＣ６１５,,,,,,2023-08-08,1,,,,,シェンジェンサンチョーディエンズーコージーヨウシエンゴンスー,0
1184,4700150118880,新規,0,2023-08-08,2023-08-08,Ｘｉａｍｅｎ　Ｑｉｚｈｏｕ　Ｉｎｄｕｓｔｒｉａｌ　Ｃｏ．，Ｌｔｄ,,外国会社等,,,,,,,,Ｔｏｎｇ’ａｎ　Ｐａｒｋ，Ｔｏｎｇ　Ａｎ　Ｉｎｄｕｓｔｒｉａｌ　Ｃｅｎｔｒａｌｉｚｅｄ　Ｚｏｎｅ，Ｎｏ．６３，３ｒｄ　Ｆｌｏｏｒ　Ｘｉａｍｅｎ　Ｃｉｔｙ　Ｆｕｊｉａｎ３６１１００　ＣＮ,,,,,,2023-08-08,1,,,,,シャアメンチージョウチンゴンジーピンヨウシェンゴンスー,0
1191,5010003041291,新規,0,2023-08-08,2023-08-08,合同会社ＳｙｓＡ,,合同会社,東京都,中央区,銀座１丁目１２番４号Ｎ＆Ｅ．ＢＬＤ．６Ｆ,,13,102,1040061,,,,,,,2023-08-08,1,,,,,エスワイエスエ,0
1194,5010005037065,新規,0,2023-08-08,2023-08-08,一般社団法人日本奢侈品協会,,その他の設立登記法人,東京都,中央区,日本橋茅場町２丁目７番１号ＣＣＩＣビル６階,,13,102,1030025,,,,,,,2023-08-08,1,,,,,ニホンシャシヒンキョウカイ,0
1196,5010101015759,新規,0,2023-08-08,2023-08-08,株式会社東京サプリ,,株式会社,東京都,八王子市,長沼町１３４番地３３４,,13,201,1920907,,,,,,,2023-08-08,1,,,,,トウキョウサプリ,0
1199,5010401176086,新規,0,2023-08-08,2023-08-08,株式会社Ｎｏｉｒ,,株式会社,東京都,港区,芝公園３丁目５番１５号,,13,103,1050011,,,,,,,2023-08-08,1,,,,,ノアール,0
1200,5010401176152,新規,0,2023-08-08,2023-08-08,株式会社オーブ,,株式会社,東京都,港区,南麻布３丁目３番６号,,13,103,1060047,,,,,,,2023-08-08,1,,,,,オーブ,0
1201,5010401176169,新規,0,2023-08-08,2023-08-08,株式会社ＳＰＲｉｎｇ,,株式会社,東京都,港区,港南２丁目１５番１号品川インターシティＡ棟２８階,,13,103,1080075,,,,,,,2023-08-08,1,,,,,スプリング,0
1206,5010403030670,新規,0,2023-08-08,2023-08-08,合同会社Ｃｏｎｃｅｐｔ　Ｗｏｒｋｓ　Ｓｔｕｄｉｏ,,合同会社,東京都,港区,北青山１丁目３番１号アールキューブ青山３階,,13,103,1070061,,,,,,,2023-08-08,1,,,,,コンセプトワークススタジオ,0
1207,5010403030687,新規,0,2023-08-08,2023-08-08,ＣＲＡＩＣＥＯＬ合同会社,,合同会社,東京都,港区,浜松町２丁目２番５号浜松町ダイヤビル２Ｆ,,13,103,1050013,,,,,,,2023-08-08,1,,,,,クラシオール,0
1208,5010503007107,新規,0,2023-08-08,2023-08-08,合同会社ｅｄｇｅ,,合同会社,東京都,台東区,元浅草４丁目９番１０－１００２号,,13,106,1110041,,,,,,,2023-08-08,1,,,,,エッジ,0
1210,5010701044678,新規,0,2023-08-08,2023-08-08,株式会社サルバトーレ・コンサルティング,,株式会社,東京都,品川区,西五反田２丁目１９番１２号,,13,109,1410031,,,,,,,2023-08-08,1,,,,,サルバトーレコンサルティング,0
1213,5010703006809,新規,0,2023-08-08,2023-08-08,合同会社Ｍ＆Ｙオフィス,,合同会社,東京都,品川区,荏原４丁目２番６号山本ビル２０２号室,,13,109,1420063,,,,,,,2023-08-08,1,,,,,エムアンドワイオフィス,0
1216,5010805003043,新規,0,2023-08-08,2023-08-08,オーベル山王管理組合法人,,その他の設立登記法人,東京都,大田区,山王４丁目２番１６号オーベル山王１００号室（管理室）,,13,111,1430023,,,,,,,2023-08-08,1,,,,,オーベルサンノウ,0
1219,5010901053561,新規,0,2023-08-08,2023-08-08,株式会社高橋企画,,株式会社,東京都,世田谷区,玉川台１丁目１０番２号,,13,112,1580096,,,,,,,2023-08-08,1,,,,,タカハシキカク,0
1221,5010903008357,新規,0,2023-08-08,2023-08-08,ＰＬＡＮ．Ｄ合同会社,,合同会社,東京都,世田谷区,奥沢５丁目１４－１２ガーデニア奥沢３０３,,13,112,1580083,,,,,,,2023-08-08,1,,,,,プランディー,0
1223,5011001156148,新規,0,2023-08-08,2023-08-08,Ｆｉｌｌｇｏｏ株式会社,,株式会社,東京都,目黒区,柿の木坂２丁目３０番３号,,13,110,1520022,,,,,,,2023-08-08,1,,,,,フィルグー,0
1224,5011001156164,新規,0,2023-08-08,2023-08-08,株式会社エコーズ,,株式会社,東京都,渋谷区,円山町５番５号,,13,113,1500044,,,,,,,2023-08-08,1,,,,,エコーズ,0
1226,5011003017315,新規,0,2023-08-08,2023-08-08,シュガーマーケティング合同会社,,合同会社,東京都,渋谷区,渋谷２丁目１９－１５宮益坂ビルディング６０９,,13,113,1500002,,,,,,,2023-08-08,1,,,,,シュガーマーケティング,0
1227,5011003017323,新規,0,2023-08-08,2023-08-08,Ｃａｔａｌｙｓｐｈｅｒｅ合同会社,,合同会社,東京都,渋谷区,渋谷２丁目１９－１５宮益坂ビルディング６０９,,13,113,1500002,,,,,,,2023-08-08,1,,,,,キャタリスフィア,0
1230,5011101103859,新規,0,2023-08-08,2023-08-08,株式会社マイルストーン,,株式会社,東京都,新宿区,西新宿７丁目８番１３号,,13,104,1600023,,,,,,,2023-08-08,1,,,,,マイルストーン,0
1231,5011103013346,新規,0,2023-08-08,2023-08-08,合同会社ｅｓｐｏｉｒ,,合同会社,東京都,新宿区,歌舞伎町１丁目２番１５号歌舞伎ソシアルビル７階Ｂ区画,,13,104,1600021,,,,,,,2023-08-08,1,,,,,エスポワール,0
1232,5011103013354,新規,0,2023-08-08,2023-08-08,合同会社秘宝新社,,合同会社,東京都,新宿区,山吹町３５６番地,,13,104,1620801,,,,,,,2023-08-08,1,,,,,ヒホウシンシャ,0
1233,5011105010746,新規,0,2023-08-08,2023-08-08,一般社団法人ナイトワークプロテクト協会,,その他の設立登記法人,東京都,新宿区,新宿５丁目１０番８号第三東邦ビル２０１号室,,13,104,1600022,,,,,,,2023-08-08,1,,,,,ナイトワークプロテクトキョウカイ,0
1236,5011303004855,新規,0,2023-08-08,2023-08-08,合同会社ビルド,,合同会社,東京都,杉並区,上高井戸１丁目２１番２－２０１号,,13,115,1680074,,,,,,,2023-08-08,1,,,,,ビルド,0
1237,5011403004061,新規,0,2023-08-08,2023-08-08,合同会社リンダ,,合同会社,東京都,板橋区,中板橋６番３号ジュネスメゾン中板橋１０５,,13,119,1730016,,,,,,,2023-08-08,1,,,,,リンダ,0
1238,5011403004078,新規,0,2023-08-08,2023-08-08,ＨＵＮＧ　ＨＯＡＮＧ合同会社,,合同会社,東京都,板橋区,前野町４丁目６２番５号大明荘１０３,,13,119,1740063,,,,,,,2023-08-08,1,,,,,フンホアン,0
1240,5011601027038,新規,0,2023-08-08,2023-08-08,てげてげ株式会社,,株式会社,東京都,練馬区,東大泉７丁目２１番２２号,,13,120,1780063,,,,,,,2023-08-08,1,,,,,テゲテゲ,0
1243,5011701026492,新規,0,2023-08-08,2023-08-08,株式会社２０７,,株式会社,東京都,江戸川区,西小岩１丁目１５番１０号,,13,123,1330057,,,,,,,2023-08-08,1,,,,,ニーマルナナ,0
1249,5011803005774,新規,0,2023-08-08,2023-08-08,合同会社ＲＵＳＴ,,合同会社,東京都,足立区,保木間４丁目４番６－１００２号,,13,121,1210064,,,,,,,2023-08-08,1,,,,,ラスト,0
1251,5012303001859,新規,0,2023-08-08,2023-08-08,高瀬橋合同会社,,合同会社,東京都,町田市,高ヶ坂６丁目５番３号,,13,209,1940014,,,,,,,2023-08-08,1,,,,,タカセバシ,0
1252,5012401040841,新規,0,2023-08-08,2023-08-08,株式会社プライマリーインダストリー,,株式会社,東京都,三鷹市,中原３丁目１０番２７号三鷹ＨＬＤＧＳビル,,13,204,1810005,,,,,,,2023-08-08,1,,,,,プライマリーインダストリー,0
1254,5012803003140,新規,0,2023-08-08,2023-08-08,ビッグパール合同会社,,合同会社,東京都,国分寺市,光町１丁目１８番地２７－１０３,,13,214,1850034,,,,,,,2023-08-08,1,,,,,ビッグパール,0
1255,5013301051160,新規,0,2023-08-08,2023-08-08,株式会社アウンプラス,,株式会社,東京都,豊島区,南大塚３丁目２４－２ギターセンタービル３０３,,13,116,1700005,,,,,,,2023-08-08,1,,,,,アウンプラス,0
1260,5020001152767,新規,0,2023-08-08,2023-08-08,ＥＬ　Ｓｈｉｐｐｉｎｇ　Ｊａｐａｎ株式会社,,株式会社,神奈川県,横浜市西区,高島１丁目２－５横濱ゲートタワー３Ｆ－Ｒ１８,,14,103,2200011,,,,,,,2023-08-08,1,,,,,エルシッピングジャパン,0
1261,5020001152833,新規,0,2023-08-08,2023-08-08,株式会社ＯＢＱ企画設計,,株式会社,神奈川県,横浜市青葉区,梅が丘１２番地２９,,14,117,2270052,,,,,,,2023-08-08,1,,,,,オービーキューキカクセッケイ,0
1267,5020003024312,新規,0,2023-08-08,2023-08-08,エイチアンドエイチ合同会社,,合同会社,神奈川県,横浜市西区,浅間町１丁目４番３号ウィザードビル４０２,,14,103,2200072,,,,,,,2023-08-08,1,,,,,エイチアンドエイチ,0
1270,5021001079793,新規,0,2023-08-08,2023-08-08,ハロワン株式会社,,株式会社,神奈川県,伊勢原市,下落合６２９番地の９,,14,214,2591121,,,,,,,2023-08-08,1,,,,,ハロワン,0
1271,5021001079827,新規,0,2023-08-08,2023-08-08,株式会社大内,,株式会社,神奈川県,平塚市,豊原町２８－６八千代ビル１００３,,14,203,2540051,,,,,,,2023-08-08,1,,,,,オオウチ,0
1293,5040001129549,新規,0,2023-08-08,2023-08-08,株式会社ＩＳＨＩ’Ｓ　ＪＡＤＥ,,株式会社,千葉県,勝浦市,部原１５０４番地１ヴァカンシア勝浦１４０８,,12,218,2995223,,,,,,,2023-08-08,1,,,,,イシズジェイド,0
1294,5040001129565,新規,0,2023-08-08,2023-08-08,株式会社早乙女興業,,株式会社,千葉県,鎌ケ谷市,東道野辺４丁目６番１２号,,12,224,2730115,,,,,,,2023-08-08,1,,,,,サオトメコウギョウ,0
1295,5040001129573,新規,0,2023-08-08,2023-08-08,株式会社ＫＴ　ＦＩＥＬＤ,,株式会社,千葉県,野田市,莚打１８７４－１,,12,208,2700232,,,,,,,2023-08-08,1,,,,,ケーティーフィールド,0
1298,5040003023106,新規,0,2023-08-08,2023-08-08,合同会社２７’ｚ,,合同会社,千葉県,船橋市,東中山２丁目６－５リーベスト東中山２０７,,12,204,2730036,,,,,,,2023-08-08,1,,,,,ニーナズ,0
1301,5050001053244,新規,0,2023-08-08,2023-08-08,株式会社ツナグ,,株式会社,茨城県,つくば市,春日３丁目１０番地３,,08,220,3050821,,,,,,,2023-08-08,1,,,,,ツナグ,0
1302,5050001053260,新規,0,2023-08-08,2023-08-08,株式会社丸島工業,,株式会社,茨城県,桜川市,山口１１１番地,,08,231,3091333,,,,,,,2023-08-08,1,,,,,マルシマコウギョウ,0
1306,5060001036231,新規,0,2023-08-08,2023-08-08,株式会社Ｐｒｉｄｅ,,株式会社,栃木県,宇都宮市,西原町５０９番地４秋桜館・西原４０２,,09,201,3200826,,,,,,,2023-08-08,1,,,,,プライド,0
1307,5060003004665,新規,0,2023-08-08,2023-08-08,ＪＡＧＪＩＴ　ＴＲＡＤＩＮＧ合同会社,,合同会社,栃木県,小山市,駅南町４丁目２５－１ハイグレード望光２０５,,09,208,3230822,,,,,,,2023-08-08,1,,,,,ジャグジットトレーディング,0
1312,5070005010157,新規,0,2023-08-08,2023-08-08,医療法人尽珠会,,その他の設立登記法人,群馬県,館林市,赤土町１１９番地２,,10,207,3740053,,,,,,,2023-08-08,1,,,,,ジンジュカイ,0
1313,5080001025785,新規,0,2023-08-08,2023-08-08,株式会社ＶＩＣＴＯＲＹ,,株式会社,静岡県,静岡市葵区,紺屋町１－３－２Ｆ,,22,101,4200852,,,,,,,2023-08-08,1,,,,,ビクトリー,0
1314,5080001025793,新規,0,2023-08-08,2023-08-08,株式会社藤牧組,,株式会社,静岡県,静岡市清水区,梅ヶ谷１２４６番地,,22,103,4240001,,,,,,,2023-08-08,1,,,,,フジマキグミ,0
1315,5080101024159,新規,0,2023-08-08,2023-08-08,株式会社不二,,株式会社,静岡県,沼津市,御幸町２５番１４号,,22,203,4100832,,,,,,,2023-08-08,1,,,,,フジ,0
1316,5080401026656,新規,0,2023-08-08,2023-08-08,マルニ株式会社,,株式会社,静岡県,浜松市中区,住吉２丁目３３番１１号,,22,131,4300906,,,,,,,2023-08-08,1,,,,,マルニ,0
1323,5100001036631,新規,0,2023-08-08,2023-08-08,南信外構株式会社,,株式会社,長野県,上伊那郡南箕輪村,１２２８番地３,,20,385,3994511,,,,,,,2023-08-08,1,,,,,ナンシンガイコウ,0
1325,5110001037752,新規,0,2023-08-08,2023-08-08,株式会社フラップ電装,,株式会社,新潟県,新潟市北区,新崎２丁目８番４号,,15,101,9503134,,,,,,,2023-08-08,1,,,,,フラップデンソウ,0
1334,5120001257267,新規,0,2023-08-08,2023-08-08,株式会社スクセ,,株式会社,大阪府,大阪市中央区,島之内２丁目１４番３０号プラスヴァンドームサントル３０６,,27,128,5420082,,,,,,,2023-08-08,1,,,,,スクセ,0
1337,5120003024632,新規,0,2023-08-08,2023-08-08,合同会社ベストエコサイクル,,合同会社,大阪府,門真市,新橋町２１番２２号,,27,223,5710048,,,,,,,2023-08-08,1,,,,,ベストエコサイクル,0
1339,5120101067995,新規,0,2023-08-08,2023-08-08,株式会社オフィスＡ,,株式会社,大阪府,大阪狭山市,東池尻３丁目９８８番地１－２０１,,27,231,5890004,,,,,,,2023-08-08,1,,,,,オフィスエー,0
1340,5120101068003,新規,0,2023-08-08,2023-08-08,池田装飾株式会社,,株式会社,大阪府,堺市中区,伏尾２９４６－Ｅ号,,27,142,5998254,,,,,,,2023-08-08,1,,,,,イケダソウショク,0
1341,5120101068011,新規,0,2023-08-08,2023-08-08,株式会社ヤマショウ,,株式会社,大阪府,堺市堺区,楠町２丁２番１１号,,27,141,5900836,,,,,,,2023-08-08,1,,,,,ヤマショウ,0
1342,5120101068028,新規,0,2023-08-08,2023-08-08,株式会社メルカドエクシード,,株式会社,大阪府,堺市北区,金岡町８１９番地エミネント金岡１０２号,,27,146,5918022,,,,,,,2023-08-08,1,,,,,メルカドエクシード,0
1343,5120101068036,新規,0,2023-08-08,2023-08-08,ジャパンファッションファクトリー株式会社,,株式会社,大阪府,泉大津市,北豊中町２丁目２番３号,,27,206,5950012,,,,,,,2023-08-08,1,,,,,ジャパンファッションファクトリー,0
1344,5120101068044,新規,0,2023-08-08,2023-08-08,ＨＡＮＥＫＩＮ株式会社,,株式会社,大阪府,堺市堺区,竜神橋町２丁３番１号ステュディオ堺フェニックス７２８号室,,27,141,5900972,,,,,,,2023-08-08,1,,,,,ハネキン,0
1345,5120103005367,新規,0,2023-08-08,2023-08-08,合同会社昊,,合同会社,大阪府,岸和田市,沼町８－１９,,27,202,5960053,,,,,,,2023-08-08,1,,,,,オオゾラ,0
1346,5120103005375,新規,0,2023-08-08,2023-08-08,合同会社ピーアンドエー,,合同会社,大阪府,岸和田市,北町１１番４－３０１号,,27,202,5960056,,,,,,,2023-08-08,1,,,,,ピーアンドエー,0
1348,5120901047932,新規,0,2023-08-08,2023-08-08,株式会社ＴｏｂｅＲｅｂｏ,,株式会社,大阪府,豊中市,曽根南町１丁目２－１９,,27,203,5610804,,,,,,,2023-08-08,1,,,,,トベレボ,0
1349,5120903004782,新規,0,2023-08-08,2023-08-08,ＲＡＢＢＩＴ　ＳＴＵＤＩＯＳ合同会社,,合同会社,大阪府,茨木市,鮎川３丁目７－８,,27,211,5670831,,,,,,,2023-08-08,1,,,,,ラビットストゥディオズ,0
1351,5122001037252,新規,0,2023-08-08,2023-08-08,株式会社Ｅ‐ｒａ,,株式会社,大阪府,東大阪市,新庄南７番２３号,,27,227,5780958,,,,,,,2023-08-08,1,,,,,イーラ,0
1352,5122003002642,新規,0,2023-08-08,2023-08-08,合同会社タイユー技研工業,,合同会社,大阪府,大東市,三箇６丁目２２－１２,,27,218,5740077,,,,,,,2023-08-08,1,,,,,タイユーギケンコウギョウ,0
1362,5140001131081,新規,0,2023-08-08,2023-08-08,株式会社Ｉｓｌａ,,株式会社,兵庫県,西宮市,段上町１丁目１０番２８号,,28,204,6638006,,,,,,,2023-08-08,1,,,,,イスラ,0
1363,5140001131107,新規,0,2023-08-08,2023-08-08,株式会社ウェストアップ,,株式会社,兵庫県,神戸市東灘区,御影郡家２丁目２番１６－２０２号,,28,101,6580048,,,,,,,2023-08-08,1,,,,,ウェストアップ,0
1364,5140001131123,新規,0,2023-08-08,2023-08-08,株式会社ＨＡＲＩＭＡコンサルティング,,株式会社,兵庫県,加古郡播磨町,西野添３丁目７番１５号,,28,382,6750160,,,,,,,2023-08-08,1,,,,,ハリマコンサルティング,0
1375,5160001025249,新規,0,2023-08-08,2023-08-08,セリビオ株式会社,,株式会社,滋賀県,近江八幡市,鷹飼町５６０番地１－１階,,25,204,5230891,,,,,,,2023-08-08,1,,,,,セリビオ,0
1377,5170001017716,新規,0,2023-08-08,2023-08-08,株式会社優,,株式会社,和歌山県,和歌山市,美園町３丁目４番地１グランメール美園６０２,,30,201,6408331,,,,,,,2023-08-08,1,,,,,ユウ,0
1384,5180301037636,新規,0,2023-08-08,2023-08-08,株式会社にじいろ企画,,株式会社,愛知県,碧南市,入船町２丁目３８番地１ＩＳＯＧＡＩグランドエィワンＡ－１０３,,23,209,4470831,,,,,,,2023-08-08,1,,,,,ニジイロキカク,0
1385,5180301037660,新規,0,2023-08-08,2023-08-08,株式会社ＲｉｔａＭｉｒａｃｌｅ,,株式会社,愛知県,豊橋市,東雲町８６番地１,,23,201,4400051,,,,,,,2023-08-08,1,,,,,リタミラクル,0
1386,5180301037669,新規,0,2023-08-08,2023-08-08,株式会社葵クローバー蜂蜜園,,株式会社,愛知県,岡崎市,大門１丁目１４番地３,,23,202,4442135,,,,,,,2023-08-08,1,,,,,アオイクローバーハチミツエン,0
1390,5180303005797,新規,0,2023-08-08,2023-08-08,合同会社ＢＢｆａｃｅ,,合同会社,愛知県,安城市,二本木町長根８２番地１,,23,212,4460054,,,,,,,2023-08-08,1,,,,,ビービーフェイス,0
1392,5190003004405,新規,0,2023-08-08,2023-08-08,Ｂａｌｅｎａ合同会社,,合同会社,三重県,津市,久居万町８６９番地３,,24,201,5141133,,,,,,,2023-08-08,1,,,,,バレーナ,0
1394,5210001019410,新規,0,2023-08-08,2023-08-08,株式会社北陸技能センター,,株式会社,福井県,坂井市,丸岡町猪爪２丁目７１５番地,,18,210,9100303,,,,,,,2023-08-08,1,,,,,ホクリクギノウセンター,0
1395,5230001019953,新規,0,2023-08-08,2023-08-08,株式会社敦桂,,株式会社,富山県,射水市,八塚２３番地５３,,16,211,9390275,,,,,,,2023-08-08,1,,,,,ジュケイ,0
1396,5230001019961,新規,0,2023-08-08,2023-08-08,株式会社竹澤電設,,株式会社,富山県,高岡市,頭川２６５３番地,,16,202,9330978,,,,,,,2023-08-08,1,,,,,タケザワデンセツ,0
1400,5240001061913,新規,0,2023-08-08,2023-08-08,株式会社アクティブ,,株式会社,広島県,広島市西区,己斐本町３丁目１７番１５号,,34,104,7330812,,,,,,,2023-08-08,1,,,,,アクティブ,0
1401,5240001061946,新規,0,2023-08-08,2023-08-08,株式会社建築リデザイン,,株式会社,広島県,広島市西区,三篠町１丁目９番５４－２号,,34,104,7330003,,,,,,,2023-08-08,1,,,,,ケンチクリデザイン,0
1404,5240003006247,新規,0,2023-08-08,2023-08-08,碓井企画合同会社,,合同会社,広島県,広島市中区,鉄砲町３番２号９０１,,34,101,7300017,,,,,,,2023-08-08,1,,,,,ウスイキカク,0
1405,5240005015626,新規,0,2023-08-08,2023-08-08,一般社団法人オルタナティブスペースコア,,その他の設立登記法人,広島県,広島市中区,基町１９番２号４４８,,34,101,7300011,,,,,,,2023-08-08,1,,,,,,0
1409,5250005008851,新規,0,2023-08-08,2023-08-08,一般社団法人権利擁護センター光ネット,,その他の設立登記法人,山口県,光市,浅江２丁目１０番９号,,35,210,7430021,,,,,,,2023-08-08,1,,,,,ケンリヨウゴセンターヒカリネット,0
1411,5260001038190,新規,0,2023-08-08,2023-08-08,株式会社三宝,,株式会社,岡山県,浅口市,寄島町７７３９番地３,,33,216,7140101,,,,,,,2023-08-08,1,,,,,ミタカラ,0
1412,5260001038199,新規,0,2023-08-08,2023-08-08,株式会社一成興業,,株式会社,岡山県,岡山市北区,下伊福上町５番３号,,33,101,7000051,,,,,,,2023-08-08,1,,,,,イッセイコウギョウ,0
1413,5260001038216,新規,0,2023-08-08,2023-08-08,株式会社仁悠,,株式会社,岡山県,倉敷市,吉岡３６８番地１５,,33,202,7100842,,,,,,,2023-08-08,1,,,,,ジンユウ,0
1425,5290001102522,新規,0,2023-08-08,2023-08-08,株式会社ＧＡＲＤＥＮ　ＦＩＥＬＤ,,株式会社,福岡県,春日市,若葉台東３丁目１番地,,40,218,8160821,,,,,,,2023-08-08,1,,,,,ガーデンフィールド,0
1426,5290001102530,新規,0,2023-08-08,2023-08-08,株式会社都翔,,株式会社,福岡県,大野城市,山田３丁目２番１０－１号,,40,219,8160922,,,,,,,2023-08-08,1,,,,,トワ,0
1427,5290001102539,新規,0,2023-08-08,2023-08-08,株式会社グレスアドバンス,,株式会社,福岡県,福岡市博多区,博多駅前１丁目１８番６号,,40,132,8120011,,,,,,,2023-08-08,1,,,,,グレスアドバンス,0
1428,5290001102596,新規,0,2023-08-08,2023-08-08,株式会社ダイヤホールディングス,,株式会社,福岡県,福岡市中央区,春吉２丁目４番１１号,,40,133,8100003,,,,,,,2023-08-08,1,,,,,ダイヤホールディングス,0
1429,5290003014204,新規,0,2023-08-08,2023-08-08,合同会社はなだオフィス,,合同会社,福岡県,福岡市博多区,博多駅前３丁目２５番２４号八百治ビル２階,,40,132,8120011,,,,,,,2023-08-08,1,,,,,ハナダオフィス,0
1430,5290003014212,新規,0,2023-08-08,2023-08-08,合同会社ロック,,合同会社,福岡県,福岡市城南区,七隈４丁目２１－９ディアス城南２０５,,40,136,8140133,,,,,,,2023-08-08,1,,,,,ロック,0
1431,5290003014220,新規,0,2023-08-08,2023-08-08,合同会社インクリメント大分,,合同会社,福岡県,福岡市博多区,博多駅前１丁目２３番２号ＰａｒｋＦｒｏｎｔ博多駅前１丁目５Ｆ－Ｂ,,40,132,8120011,,,,,,,2023-08-08,1,,,,,インクリメントオオイタ,0
1433,5290801029758,新規,0,2023-08-08,2023-08-08,株式会社Ｒｋ　ａｎｄ　Ｃｏ．,,株式会社,福岡県,北九州市門司区,大字畑２２７６番地,,40,101,8000112,,,,,,,2023-08-08,1,,,,,アールケーアンドカンパニー,0
1434,5290801029766,新規,0,2023-08-08,2023-08-08,株式会社フィフティーエイト,,株式会社,福岡県,北九州市小倉北区,米町１丁目１番１号小倉駅前ひびきビル６Ｆ,,40,106,8020003,,,,,,,2023-08-08,1,,,,,フィフティーエイト,0
1435,5290801029782,新規,0,2023-08-08,2023-08-08,株式会社嶋村総業,,株式会社,福岡県,直方市,大字下境２０２３番地５,,40,204,8220007,,,,,,,2023-08-08,1,,,,,シマムラソウギョウ,0
1437,5300003002000,新規,0,2023-08-08,2023-08-08,合同会社丸文堂,,合同会社,佐賀県,佐賀市,駅前中央２丁目４－２７－９０１,,41,201,8400801,,,,,,,2023-08-08,1,,,,,,0
1438,5300003002009,新規,0,2023-08-08,2023-08-08,合同会社念図,,合同会社,佐賀県,唐津市,八幡町７３４－１４４,,41,202,8470102,,,,,,,2023-08-08,1,,,,,ナマズ,0
1445,5330003009926,新規,0,2023-08-08,2023-08-08,合同会社トーラ,,合同会社,熊本県,熊本市東区,長嶺南１丁目３番１１５号,,43,102,8618039,,,,,,,2023-08-08,1,,,,,トーラ,0
1446,5340001025759,新規,0,2023-08-08,2023-08-08,株式会社池上工務店,,株式会社,鹿児島県,大島郡瀬戸内町,大字古仁屋１２８３番地２１７,,46,525,8941508,,,,,,,2023-08-08,1,,,,,イケガミコウムテン,0
1449,5350003004405,新規,0,2023-08-08,2023-08-08,合同会社ＴＭ企画,,合同会社,宮崎県,東臼杵郡美郷町,西郷田代８３３３番地４,,45,431,8831101,,,,,,,2023-08-08,1,,,,,ティーエムキカク,0
1450,5360001032365,新規,0,2023-08-08,2023-08-08,コックス琉球株式会社,,株式会社,沖縄県,浦添市,当山２丁目１４番２号,,47,208,9012104,,,,,,,2023-08-08,1,,,,,コックスリュウキュウ,0
1451,5360003013165,新規,0,2023-08-08,2023-08-08,合同会社Ｇ‐ＯＮＥ沖縄,,合同会社,沖縄県,名護市,宇茂佐の森５丁目２番地９（１０２）,,47,209,9050009,,,,,,,2023-08-08,1,,,,,ジーワンオキナワ,0
1454,5370001050250,新規,0,2023-08-08,2023-08-08,株式会社ＦＯＯＤ　ＦＯＲＣＥ　ＲＥＬＡＴＩＯＮ’Ｓ,,株式会社,宮城県,石巻市,鋳銭場３－６大橋ビル１階,,04,202,9860826,,,,,,,2023-08-08,1,,,,,フードフォースリレーションズ,0
1455,5370001050259,新規,0,2023-08-08,2023-08-08,ＡＬＣ株式会社,,株式会社,宮城県,仙台市泉区,八乙女１丁目１１番地の１２Ｌｅ・Ｃｏｕｒａｇｅ１０５,,04,105,9813112,,,,,,,2023-08-08,1,,,,,エーエルシー,0
1466,5400003003129,新規,0,2023-08-08,2023-08-08,合同会社スターバーハウス,,合同会社,岩手県,盛岡市,加賀野４丁目１７番１０号,,03,201,0200807,,,,,,,2023-08-08,1,,,,,,0
1467,5410001013566,新規,0,2023-08-08,2023-08-08,株式会社緑進,,株式会社,秋田県,秋田市,桜台３丁目１４番２号,,05,201,0100059,,,,,,,2023-08-08,1,,,,,リョクシン,0
1476,5430001089687,新規,0,2023-08-08,2023-08-08,株式会社ＮＴホームサービス,,株式会社,北海道,札幌市手稲区,富丘一条５丁目１４番６号シティハイムドエール１０２号,,01,109,0060011,,,,,,,2023-08-08,1,,,,,エヌティーホームサービス,0
1485,5450001014073,新規,0,2023-08-08,2023-08-08,株式会社前田牧場,,株式会社,北海道,上川郡東神楽町,南３線１３号７番地,,01,453,0711573,,,,,,,2023-08-08,1,,,,,マエダボクジョウ,0
1486,5450003002373,新規,0,2023-08-08,2023-08-08,三景舎合同会社,,合同会社,北海道,旭川市,末広東一条２丁目２番４号,,01,204,0718121,,,,,,,2023-08-08,1,,,,,サンケイシャ,0
1499,5480003002008,新規,0,2023-08-08,2023-08-08,ＴＳＨグループ合同会社,,合同会社,徳島県,徳島市,八万町内浜１４０番地の１１,,36,201,7708076,,,,,,,2023-08-08,1,,,,,ティーエスエイチグループ,0
1504,5500001025123,新規,0,2023-08-08,2023-08-08,株式会社ブルーミン,,株式会社,愛媛県,西条市,丹原町高松甲２９１番地１,,38,206,7910524,,,,,,,2023-08-08,1,,,,,ブルーミン,0
1508,5500003003077,新規,0,2023-08-08,2023-08-08,合同会社ＡＩＲ２,,合同会社,愛媛県,松山市,南吉田町１８５４番地３,,38,201,7918042,,,,,,,2023-08-08,1,,,,,エアツー,0
1509,5700150118871,新規,0,2023-08-08,2023-08-08,ｇｕａｎｇｚｈｏｕｄｕｐａｉｍａｏｙｉｙｏｕｘｉａｎｇｏｎｇｓｉ,,外国会社等,,,,,,,,ＧｕａｎｇＺｈｏｕＳｈｉＢａｉＹｕｎＱｕＪｉｅＦａｎｇＢｅｉＬｕＺｉＹｕａｎＧａｎｇＮａｎｊｉｅ１１ＨａｏＹｉｎＹｕａｎＰｉＪｕＣｈｅｎｇＳｈｏｕＣｅｎｇＣ６Ｄａｎｇ,,,,,,2023-08-08,1,,,,,グワンジョウドウパイマオイーヨウシエンゴンスー,0
1523,6010001237477,新規,0,2023-08-08,2023-08-08,株式会社ブロックチェーン・キャンバス,,株式会社,東京都,文京区,白山２丁目３３番１０号,,13,105,1120001,,,,,,,2023-08-08,1,,,,,ブロックチェーンキャンバス,0
1524,6010001237485,新規,0,2023-08-08,2023-08-08,ＭＯＯＮＲＡＫＥＲＳ　ＴＥＣＨＮＯＬＯＧＩＥＳ株式会社,,株式会社,東京都,中央区,東日本橋２丁目２０番５－１１０５号,,13,102,1030004,,,,,,,2023-08-08,1,,,,,ムーンレイカーズテクノロジーズ,0
1525,6010001237535,新規,0,2023-08-08,2023-08-08,株式会社Ｐｒｏｊｅｃｔｓ．Ｕ,,株式会社,東京都,中央区,日本橋室町１丁目１１番１２号日本橋水野ビル７階,,13,102,1030022,,,,,,,2023-08-08,1,,,,,プロジェクツユウ,0
1526,6010001237576,新規,0,2023-08-08,2023-08-08,ＷＥＩＹＥ株式会社,,株式会社,東京都,中央区,勝どき５丁目１２番４－１２０３号,,13,102,1040054,,,,,,,2023-08-08,1,,,,,ウイエイ,0
1527,6010001237601,新規,0,2023-08-08,2023-08-08,株式会社Ｒｉｓｉｎｇ　Ｓｕｎ,,株式会社,東京都,千代田区,平河町１丁目７番５号ヴィラロイヤル平河７０４号室,,13,101,1020093,,,,,,,2023-08-08,1,,,,,ライジングサン,0
1535,6010005037064,新規,0,2023-08-08,2023-08-08,一般財団法人日中友好事業政策協議会,,その他の設立登記法人,東京都,千代田区,霞が関３丁目７番１号霞が関東急ビル,,13,101,1000013,,,,,,,2023-08-08,1,,,,,ニッチュウユウコウジギョウセイサクキョウギカイ,0
1536,6010101015758,新規,0,2023-08-08,2023-08-08,株式会社ヤマデングループ,,株式会社,東京都,八王子市,めじろ台３丁目４番地６,,13,201,1930833,,,,,,,2023-08-08,1,,,,,ヤマデングループ,0
1540,6010401176085,新規,0,2023-08-08,2023-08-08,ホシノン株式会社,,株式会社,東京都,港区,芝２丁目２８番１１号芝ＭＫビル３階ＬｉｎｋＳｐａｃｅＣ３１２号室,,13,103,1050014,,,,,,,2023-08-08,1,,,,,ホシノン,0
1541,6010401176168,新規,0,2023-08-08,2023-08-08,株式会社ＰＥＭ,,株式会社,東京都,港区,白金５丁目１番２号,,13,103,1080072,,,,,,,2023-08-08,1,,,,,ペム,0
1542,6010401176226,新規,0,2023-08-08,2023-08-08,株式会社ＳＵＳＨＩ　ＣＯＺＹ,,株式会社,東京都,港区,芝浦４丁目１２番２６－７０３号,,13,103,1080023,,,,,,,2023-08-08,1,,,,,スシコージー,0
1543,6010403030637,新規,0,2023-08-08,2023-08-08,合同会社ＩＮ,,合同会社,東京都,港区,六本木１丁目５番３－１１０５号,,13,103,1060032,,,,,,,2023-08-08,1,,,,,アイエヌ,0
1544,6010403030645,新規,0,2023-08-08,2023-08-08,ＢｌｕｅＣｅｎｔｅｒＶｉｌｌａｇｅ合同会社,,合同会社,東京都,港区,芝１丁目１３番１７－１４０６号,,13,103,1050014,,,,,,,2023-08-08,1,,,,,ブルーセンタービレッジ,0
1546,6010501050850,新規,0,2023-08-08,2023-08-08,ＴＡＫＵＭＩインテリジェンス株式会社,,株式会社,東京都,台東区,台東１丁目２ー１タワーレジデンストーキョー１５０２室,,13,106,1100016,,,,,,,2023-08-08,1,,,,,タクミインテリジェンス,0
1547,6010501050867,新規,0,2023-08-08,2023-08-08,ＭＡＨＡＬＯ株式会社,,株式会社,東京都,台東区,千束２丁目２５番４－４０６号エスポワール入谷,,13,106,1110031,,,,,,,2023-08-08,1,,,,,マハロ,0
1556,6010603010281,新規,0,2023-08-08,2023-08-08,合同会社中山平ジオエナジー,,合同会社,東京都,江東区,白河３丁目２番８号,,13,108,1350021,,,,,,,2023-08-08,1,,,,,ナカヤマダイラジオエナジー,0
1557,6010703006808,新規,0,2023-08-08,2023-08-08,合同会社ＴＯＧＡ,,合同会社,東京都,品川区,西品川１丁目２３－１２,,13,109,1410033,,,,,,,2023-08-08,1,,,,,トーガ,0
1562,6010803004629,新規,0,2023-08-08,2023-08-08,合同会社ミチノベ,,合同会社,東京都,大田区,大森北２丁目１９番５号グレイスコート大森海岸７１０,,13,111,1430016,,,,,,,2023-08-08,1,,,,,ミチノベ,0
1566,6010903008356,新規,0,2023-08-08,2023-08-08,ノーザンライツ合同会社,,合同会社,東京都,世田谷区,玉川２丁目８番１２号第２上野毛マープル松原２０１,,13,112,1580094,,,,,,,2023-08-08,1,,,,,ノーザンライツ,0
1572,6011001156106,新規,0,2023-08-08,2023-08-08,サンカクキカク株式会社,,株式会社,東京都,渋谷区,道玄坂１丁目１０番８号渋谷道玄坂東急ビル２Ｆ－Ｃ,,13,113,1500043,,,,,,,2023-08-08,1,,,,,サンカクキカク,0
1573,6011001156122,新規,0,2023-08-08,2023-08-08,株式会社フジリテイル,,株式会社,東京都,渋谷区,渋谷２丁目１９－１５宮益坂ビルディング６０９,,13,113,1500002,,,,,,,2023-08-08,1,,,,,フジリテイル,0
1574,6011001156130,新規,0,2023-08-08,2023-08-08,株式会社ＲＵＭＢＬＥ　ＣＲＵＭＢＬＥ,,株式会社,東京都,渋谷区,神宮前５丁目２９－９めぐみハイマンション５０２,,13,113,1500001,,,,,,,2023-08-08,1,,,,,ランブルクランブル,0
1575,6011001156213,新規,0,2023-08-08,2023-08-08,株式会社Ｒｅａｌｓｅａ,,株式会社,東京都,目黒区,中央町２丁目６番８号,,13,110,1520001,,,,,,,2023-08-08,1,,,,,リアルシー,0
1580,6011101103916,新規,0,2023-08-08,2023-08-08,エスセイル株式会社,,株式会社,東京都,新宿区,新宿２丁目１２番１３号新宿アントレサロンビル２階,,13,104,1600022,,,,,,,2023-08-08,1,,,,,エスセイル,0
1581,6011101103924,新規,0,2023-08-08,2023-08-08,株式会社ライスワーク,,株式会社,東京都,新宿区,新宿２丁目１２番１３号新宿アントレサロンビル２階,,13,104,1600022,,,,,,,2023-08-08,1,,,,,ライスワーク,0
1582,6011101103940,新規,0,2023-08-08,2023-08-08,株式会社ｅｘｐｏｔｅ,,株式会社,東京都,新宿区,富久町２－６ライズ富久１０３号室,,13,104,1620067,,,,,,,2023-08-08,1,,,,,エクスポート,0
1584,6011201024830,新規,0,2023-08-08,2023-08-08,キリン工房株式会社,,株式会社,東京都,中野区,本町１丁目１０番６号,,13,114,1640012,,,,,,,2023-08-08,1,,,,,キリンコウボウ,0
1585,6011303004854,新規,0,2023-08-08,2023-08-08,合同会社シックスウェイ,,合同会社,東京都,杉並区,浜田山２丁目１５番２８号,,13,115,1680065,,,,,,,2023-08-08,1,,,,,,0
1586,6011303004862,新規,0,2023-08-08,2023-08-08,合同会社Ｒｕｕｐｅｋｅ,,合同会社,東京都,杉並区,久我山２丁目１番１２－２号,,13,115,1680082,,,,,,,2023-08-08,1,,,,,ルーペケ,0
1588,6011401025356,新規,0,2023-08-08,2023-08-08,Ｂｌａｎｋ　ｃａｎｖａｓ株式会社,,株式会社,東京都,板橋区,加賀１丁目２番６号－３０４号,,13,119,1730003,,,,,,,2023-08-08,1,,,,,ブランクキャンバス,0
1592,6011701026491,新規,0,2023-08-08,2023-08-08,株式会社松田工務店,,株式会社,東京都,江戸川区,谷河内２丁目１０番１９号,,13,123,1330002,,,,,,,2023-08-08,1,,,,,マツダコウムテン,0
1595,6012401040824,新規,0,2023-08-08,2023-08-08,ＩＦＯ株式会社,,株式会社,東京都,多摩市,関戸６丁目２０番地の６,,13,224,2060011,,,,,,,2023-08-08,1,,,,,アイエフオー,0
1596,6012401040832,新規,0,2023-08-08,2023-08-08,株式会社中村ホーム,,株式会社,東京都,小金井市,東町４丁目３８－２４高橋ビルＢ１,,13,210,1840011,,,,,,,2023-08-08,1,,,,,ナカムラホーム,0
1599,6012701017786,新規,0,2023-08-08,2023-08-08,株式会社長榮,,株式会社,東京都,東久留米市,下里２丁目５番１０号,,13,222,2030043,,,,,,,2023-08-08,1,,,,,チョウエイ,0
1601,6013101009226,新規,0,2023-08-08,2023-08-08,株式会社沖ヒルズ,,株式会社,東京都,羽村市,羽加美４丁目５番１６号,,13,227,2050016,,,,,,,2023-08-08,1,,,,,,0
1608,6020001152898,新規,0,2023-08-08,2023-08-08,株式会社Ｔｈｉｓ　ｉｓ　ｕｓ,,株式会社,神奈川県,横浜市保土ケ谷区,岡沢町１３番地８,,14,106,2400062,,,,,,,2023-08-08,1,,,,,ディスイズアス,0
1611,6020003024311,新規,0,2023-08-08,2023-08-08,合同会社ＲＴ‐Ｌｉｆｅ,,合同会社,神奈川県,川崎市中原区,小杉御殿町１丁目８８４ザグランドレジデンス４２０,,14,133,2110068,,,,,,,2023-08-08,1,,,,,アールティーライフ,0
1612,6020003024352,新規,0,2023-08-08,2023-08-08,ＷＩＬＬ　ＧＲＩＰ合同会社,,合同会社,神奈川県,横浜市中区,桜木町１丁目１０１番地１クロスゲート７階,,14,104,2310062,,,,,,,2023-08-08,1,,,,,ウィルグリップ,0
1613,6021001079792,新規,0,2023-08-08,2023-08-08,ＩＭコンサル株式会社,,株式会社,神奈川県,茅ヶ崎市,東海岸南６丁目４番２３号,,14,207,2530054,,,,,,,2023-08-08,1,,,,,アイエムコンサル,0
1614,6021001079826,新規,0,2023-08-08,2023-08-08,株式会社Ｃａｓｔ　Ｂａｎｎｅｒ　Ａｇｅｎｃｙ,,株式会社,神奈川県,平塚市,撫子原７番３６号,,14,203,2540825,,,,,,,2023-08-08,1,,,,,キャストバナーエージェンシー,0
1615,6021001079859,新規,0,2023-08-08,2023-08-08,株式会社Ｍａｋａｌｅａ,,株式会社,神奈川県,相模原市緑区,川尻５４６９番地１,,14,151,2520111,,,,,,,2023-08-08,1,,,,,マカレア,0
1616,6021001079883,新規,0,2023-08-08,2023-08-08,株式会社大正管財,,株式会社,神奈川県,藤沢市,湘南台４丁目５番地の１０大嶋ビル３階,,14,205,2520804,,,,,,,2023-08-08,1,,,,,タイショウカンザイ,0
1623,6030003022207,新規,0,2023-08-08,2023-08-08,合同会社ＤＩＬ,,合同会社,埼玉県,越谷市,南越谷１丁目１５－１南越谷ラクーン４Ｆ,,11,222,3430845,,,,,,,2023-08-08,1,,,,,ディル,0
1624,6030003022215,新規,0,2023-08-08,2023-08-08,Ｇａｕｒｉ　ＲＫ合同会社,,合同会社,埼玉県,さいたま市浦和区,元町２丁目２番１１号マルブンビル２Ｆ,,11,107,3300073,,,,,,,2023-08-08,1,,,,,ガウリアールケー,0
1625,6030003022223,新規,0,2023-08-08,2023-08-08,ＲＯＳＩ合同会社,,合同会社,埼玉県,さいたま市南区,別所７丁目２番１‐２７１０号,,11,108,3360021,,,,,,,2023-08-08,1,,,,,ロシ,0
1636,6060001036230,新規,0,2023-08-08,2023-08-08,株式会社ながや農園,,株式会社,栃木県,宇都宮市,上田原町１４２０番地,,09,201,3291112,,,,,,,2023-08-08,1,,,,,ナガヤノウエン,0
1638,6060003004672,新規,0,2023-08-08,2023-08-08,Ｓ＆Ｋ　ｃｏｍｒａｄｅ合同会社,,合同会社,栃木県,宇都宮市,石井町３４２７番地３８,,09,201,3210912,,,,,,,2023-08-08,1,,,,,エスケーコムラード,0
1640,6070001040727,新規,0,2023-08-08,2023-08-08,株式会社ＨｏｍｅＢａｓｅ,,株式会社,群馬県,太田市,飯田町６０４番地１,,10,205,3730851,,,,,,,2023-08-08,1,,,,,ホームベース,0
1641,6070001040743,新規,0,2023-08-08,2023-08-08,株式会社ＵＮＩＴＥ,,株式会社,群馬県,安中市,板鼻２１８４番地４,,10,211,3790111,,,,,,,2023-08-08,1,,,,,ユニット,0
1642,6070003005050,新規,0,2023-08-08,2023-08-08,合同会社ＳＷＩＵ　ＤＥＳＩＧＮ,,合同会社,群馬県,高崎市,上室田町４００３－４０２,,10,202,3703346,,,,,,,2023-08-08,1,,,,,スイウデザイン,0
1643,6080001025784,新規,0,2023-08-08,2023-08-08,ＭＫホールディングス株式会社,,株式会社,静岡県,静岡市清水区,渋川３７７番地の３,,22,103,4240053,,,,,,,2023-08-08,1,,,,,エムケーホールディングス,0
1644,6080001025792,新規,0,2023-08-08,2023-08-08,株式会社ＣＡＲＲＹ　ＳＵＰＰＯＲＴ,,株式会社,静岡県,静岡市駿河区,広野３丁目２番１６－４号,,22,102,4210121,,,,,,,2023-08-08,1,,,,,キャリーサポート,0
1645,6080101024158,新規,0,2023-08-08,2023-08-08,株式会社Ｋｉ・Ｚｕ・Ｎａ,,株式会社,静岡県,裾野市,岩波１０５番地の１アークハイツ１０２,,22,220,4101101,,,,,,,2023-08-08,1,,,,,キズナ,0
1653,6100003007134,新規,0,2023-08-08,2023-08-08,合同会社ＢＥＹＯＮＤ,,合同会社,長野県,塩尻市,大門七番町１３－１７,,20,215,3990738,,,,,,,2023-08-08,1,,,,,ビヨンド,0
1664,6120001257175,新規,0,2023-08-08,2023-08-08,ｍ　ａｎｄ　ｎ株式会社,,株式会社,大阪府,大阪市西区,南堀江４丁目３番１号４０２,,27,106,5500015,,,,,,,2023-08-08,1,,,,,エムアンドエヌ,0
1665,6120003024623,新規,0,2023-08-08,2023-08-08,合同会社新希企画,,合同会社,大阪府,大阪市北区,梅田１丁目２番２号大阪駅前第２ビル１２－１２,,27,127,5300001,,,,,,,2023-08-08,1,,,,,アラキキカク,0
1667,6120005023805,新規,0,2023-08-08,2023-08-08,特定非営利活動法人大阪災害ボランティア,,その他の設立登記法人,大阪府,大阪市西成区,山王３丁目１０番２０号西成永信防災会館,,27,122,5570001,,,,,,,2023-08-08,1,,,,,オオサカサイガイボランティア,0
1669,6120101067994,新規,0,2023-08-08,2023-08-08,株式会社Ｂｌｕｅ　ｍｏｏｎ　ｈｏｍｅ,,株式会社,大阪府,大阪狭山市,西山台１丁目２４番１３号２階,,27,231,5890022,,,,,,,2023-08-08,1,,,,,ブルームーンホーム,0
1670,6120101068002,新規,0,2023-08-08,2023-08-08,ジプソホーム株式会社,,株式会社,大阪府,堺市西区,上野芝町１丁２０－１０ジュネス上野芝２０１,,27,144,5938301,,,,,,,2023-08-08,1,,,,,ジプソホーム,0
1671,6120101068019,新規,0,2023-08-08,2023-08-08,アウター株式会社,,株式会社,大阪府,和泉市,富秋町１丁目５番６３号,,27,219,5940082,,,,,,,2023-08-08,1,,,,,アウター,0
1672,6120101068027,新規,0,2023-08-08,2023-08-08,株式会社ＴＫＧ,,株式会社,大阪府,堺市美原区,平尾２８７－３,,27,147,5870022,,,,,,,2023-08-08,1,,,,,ティーケージー,0
1673,6120101068043,新規,0,2023-08-08,2023-08-08,株式会社キュービクルパートナーズ,,株式会社,大阪府,羽曳野市,栄町２番３号,,27,222,5830853,,,,,,,2023-08-08,1,,,,,キュービクルパートナーズ,0
1676,6120103005374,新規,0,2023-08-08,2023-08-08,合同会社ＳＫＹ,,合同会社,大阪府,羽曳野市,羽曳が丘４丁目４番１６号,,27,222,5830864,,,,,,,2023-08-08,1,,,,,スカイ,0
1684,6120901047907,新規,0,2023-08-08,2023-08-08,株式会社トリニティホープ,,株式会社,大阪府,吹田市,南正雀２丁目２２番１０号,,27,205,5640012,,,,,,,2023-08-08,1,,,,,トリニティホープ,0
1685,6120901047923,新規,0,2023-08-08,2023-08-08,株式会社Ｓｃｒａｔｃｈ,,株式会社,大阪府,吹田市,春日４丁目３番３－４０８号,,27,205,5650853,,,,,,,2023-08-08,1,,,,,スクラッチ,0
1687,6120903004773,新規,0,2023-08-08,2023-08-08,合同会社Ａ‐ＮＥＭ,,合同会社,大阪府,豊中市,新千里東町３丁目３番１２０－７１０号,,27,203,5600082,,,,,,,2023-08-08,1,,,,,エーネム,0
1697,6140001131089,新規,0,2023-08-08,2023-08-08,ミッキンホームサービス株式会社,,株式会社,兵庫県,宝塚市,南ひばりガ丘１丁目１４番１６号,,28,214,6650811,,,,,,,2023-08-08,1,,,,,ミッキンホームサービス,0
1698,6140001131139,新規,0,2023-08-08,2023-08-08,潔楽株式会社,,株式会社,兵庫県,神戸市中央区,下山手通２丁目１３番３号建創ビル８Ｆ－３５,,28,110,6500011,,,,,,,2023-08-08,1,,,,,ジェラー,0
1701,6160001025248,新規,0,2023-08-08,2023-08-08,株式会社ホモ・サピエンス,,株式会社,滋賀県,大津市,月輪５丁目１７番１７号,,25,201,5202152,,,,,,,2023-08-08,1,,,,,ホモサピエンス,0
1703,6160003002955,新規,0,2023-08-08,2023-08-08,合同会社コミニタス,,合同会社,滋賀県,草津市,南草津１丁目２番地８１７シャリエパークナード南草津,,25,206,5250050,,,,,,,2023-08-08,1,,,,,コミニタス,0
1710,6180003025599,新規,0,2023-08-08,2023-08-08,合同会社大和ホールディングス,,合同会社,愛知県,名古屋市東区,相生町１１番地,,23,102,4610012,,,,,,,2023-08-08,1,,,,,ヤマトホールディングス,0
1713,6180301037627,新規,0,2023-08-08,2023-08-08,株式会社ＴＭＲ,,株式会社,愛知県,刈谷市,南桜町１丁目７２番地１アルバックスタワー刈谷駅前２３０２号,,23,210,4480841,,,,,,,2023-08-08,1,,,,,ティーエムアール,0
1714,6180301037635,新規,0,2023-08-08,2023-08-08,株式会社ＭＳＧトラスト,,株式会社,愛知県,知立市,逢妻町道瀬山３１番地２１,,23,225,4720021,,,,,,,2023-08-08,1,,,,,エムエスジートラスト,0
1715,6180301037651,新規,0,2023-08-08,2023-08-08,山せ株式会社,,株式会社,愛知県,豊川市,南千両２丁目９０番地グレイスコート１０２号,,23,207,4420008,,,,,,,2023-08-08,1,,,,,ヤマセ,0
1716,6180301037668,新規,0,2023-08-08,2023-08-08,株式会社Ｔｓｕｍｕｇｕ,,株式会社,愛知県,岡崎市,竜美東１丁目４番地２,,23,202,4440878,,,,,,,2023-08-08,1,,,,,ツムグ,0
1718,6180303005788,新規,0,2023-08-08,2023-08-08,合同会社ＹＨＹカンパニー,,合同会社,愛知県,豊田市,小坂本町３丁目４０番地,,23,211,4710034,,,,,,,2023-08-08,1,,,,,ワイエイチワイカンパニー,0
1721,6190001030641,新規,0,2023-08-08,2023-08-08,株式会社エコロジル,,株式会社,三重県,津市,庄田町２３５５番地４５,,24,201,5141255,,,,,,,2023-08-08,1,,,,,エコロジル,0
1724,6200001041587,新規,0,2023-08-08,2023-08-08,株式会社水間経営,,株式会社,岐阜県,瑞穂市,馬場上光町１丁目１２５番ウパーリビル２０３号室,,21,216,5010203,,,,,,,2023-08-08,1,,,,,ミズマケイエイ,0
1727,6200005013500,新規,0,2023-08-08,2023-08-08,保証責任平岩負債整理組合,,その他の設立登記法人,岐阜県,瑞浪市,日吉町,,21,208,5096251,,,,,,,2023-08-08,1,,,,,ホショウセキニンヒライワ,0
1730,6220003003559,新規,0,2023-08-08,2023-08-08,ＰＲＯＧＲＥＳＳ合同会社,,合同会社,石川県,金沢市,堀川町２５‐２２‐２０１,,17,201,9200847,,,,,,,2023-08-08,1,,,,,プログレス,0
1731,6220005008770,新規,0,2023-08-08,2023-08-08,一般社団法人金沢芸術文化研究所,,その他の設立登記法人,石川県,金沢市,里見町４４番地１里見町タウンハイツ２０５号,,17,201,9200998,,,,,,,2023-08-08,1,,,,,カナザワゲイジュツブンカケンキュウジョ,0
1732,6230001019960,新規,0,2023-08-08,2023-08-08,株式会社あさがお企画,,株式会社,富山県,砺波市,深江１丁目１２７番地,,16,208,9391331,,,,,,,2023-08-08,1,,,,,アサガオキカク,0
1736,6240001061920,新規,0,2023-08-08,2023-08-08,ハマモト株式会社,,株式会社,広島県,広島市南区,出島２丁目１４番３７号,,34,103,7340013,,,,,,,2023-08-08,1,,,,,ハマモト,0
1737,6240001061945,新規,0,2023-08-08,2023-08-08,株式会社Ｆｉｒｓｔ,,株式会社,広島県,広島市南区,西蟹屋３丁目２番９‐１２０１号,,34,103,7320804,,,,,,,2023-08-08,1,,,,,ファースト,0
1738,6240001061953,新規,0,2023-08-08,2023-08-08,株式会社Ｕ‐ｆｒｏｎｔｉｅｒ,,株式会社,広島県,広島市中区,吉島町３番２１号,,34,101,7300821,,,,,,,2023-08-08,1,,,,,ユーフロンティア,0
1741,6240005015625,新規,0,2023-08-08,2023-08-08,一般社団法人ＶＥＲＴＥＸ,,その他の設立登記法人,広島県,福山市,駅家町大字弥生ケ丘１０番地４４９,,34,207,7201135,,,,,,,2023-08-08,1,,,,,ヴェルテックス,0
1744,6250001020215,新規,0,2023-08-08,2023-08-08,株式会社おうちの１１９番,,株式会社,山口県,宇部市,若松町３番１４－９０７号,,35,202,7550061,,,,,,,2023-08-08,1,,,,,オウチノヒャクジュウキュウバン,0
1745,6250001020231,新規,0,2023-08-08,2023-08-08,株式会社リョーズテクノ,,株式会社,山口県,岩国市,南岩国町３丁目３３番１１－３号,,35,208,7400034,,,,,,,2023-08-08,1,,,,,リョーズテクノ,0
1749,6260001038215,新規,0,2023-08-08,2023-08-08,株式会社パニック,,株式会社,岡山県,岡山市北区,伊福町４丁目４番３４号,,33,101,7000013,,,,,,,2023-08-08,1,,,,,パニック,0
1751,6280001009008,新規,0,2023-08-08,2023-08-08,株式会社ＹＦＦホールディングス,,株式会社,島根県,安来市,西赤江町７６３番地３,,32,206,6920003,,,,,,,2023-08-08,1,,,,,ワイエフエフホールディングス,0
1759,6290001102595,新規,0,2023-08-08,2023-08-08,アンドエム株式会社,,株式会社,福岡県,福岡市早良区,飯倉２丁目９番５号,,40,137,8140161,,,,,,,2023-08-08,1,,,,,アンドエム,0
1760,6290001102620,新規,0,2023-08-08,2023-08-08,Ｍｉｎｇｌｅｅｅ株式会社,,株式会社,福岡県,福岡市中央区,大名２丁目６－１１,,40,133,8100041,,,,,,,2023-08-08,1,,,,,ミングリー,0
1761,6290001102629,新規,0,2023-08-08,2023-08-08,株式会社雄建,,株式会社,福岡県,糟屋郡粕屋町,駕与丁１丁目３番１１号２階,,40,349,8112309,,,,,,,2023-08-08,1,,,,,ユウケン,0
1762,6290801029765,新規,0,2023-08-08,2023-08-08,株式会社Ｔｉｐｐｅｒｔｈ,,株式会社,福岡県,北九州市小倉北区,神岳１丁目５番２０－３０２号,,40,106,8020045,,,,,,,2023-08-08,1,,,,,ティファレット,0
1769,6310001018558,新規,0,2023-08-08,2023-08-08,株式会社Ｐｅｂｂｌｅ,,株式会社,長崎県,長崎市,江の浦町１４番１７号稲佐山ハイツ３０３,,42,201,8528007,,,,,,,2023-08-08,1,,,,,ペブル,0
1770,6320001019943,新規,0,2023-08-08,2023-08-08,株式会社Ｂｅｅ　Ｕｎｉｔｅｄ,,株式会社,大分県,大分市,舞鶴町１丁目７番２－１０１１号エイルマンション城址公園東,,44,201,8700044,,,,,,,2023-08-08,1,,,,,ビーユナイテッド,0
1775,6330003009925,新規,0,2023-08-08,2023-08-08,合同会社下沖設備,,合同会社,熊本県,熊本市東区,東町４丁目１７番４－３０１号チェリーハイツ健軍,,43,102,8620901,,,,,,,2023-08-08,1,,,,,シモオキセツビ,0
1779,6360001032356,新規,0,2023-08-08,2023-08-08,株式会社東榮工業,,株式会社,沖縄県,沖縄市,字登川４９９番地１ヒルズガーデン仲宗根２０１,,47,211,9042142,,,,,,,2023-08-08,1,,,,,トウエイコウギョウ,0
1780,6360001032380,新規,0,2023-08-08,2023-08-08,株式会社大屋,,株式会社,沖縄県,浦添市,内間５丁目８番７号,,47,208,9012121,,,,,,,2023-08-08,1,,,,,ウフヤ,0
1781,6360001032389,新規,0,2023-08-08,2023-08-08,株式会社トリコ不動産,,株式会社,沖縄県,沖縄市,知花５丁目３３番２２号,,47,211,9042143,,,,,,,2023-08-08,1,,,,,トリコフドウサン,0
1783,6360003013189,新規,0,2023-08-08,2023-08-08,合同会社おきなわ島ｓｈｏｐ,,合同会社,沖縄県,那覇市,おもろまち１丁目１番２５－９２８号,,47,201,9000006,,,,,,,2023-08-08,1,,,,,オキナワシマショップ,0
1784,6370001050266,新規,0,2023-08-08,2023-08-08,株式会社奈須野企画,,株式会社,宮城県,大崎市,古川李埣字土手下４番地,,04,215,9896116,,,,,,,2023-08-08,1,,,,,ナスノキカク,0
1785,6370003006233,新規,0,2023-08-08,2023-08-08,ＡＳＣ合同会社,,合同会社,宮城県,石巻市,中央２丁目１０番地の２,,04,202,9860822,,,,,,,2023-08-08,1,,,,,アスク,0
1793,6380001033889,新規,0,2023-08-08,2023-08-08,株式会社ショート,,株式会社,福島県,会津若松市,北滝沢２丁目５番２６号,,07,202,9650015,,,,,,,2023-08-08,1,,,,,ショート,0
1794,6390001017346,新規,0,2023-08-08,2023-08-08,穂幸重機株式会社,,株式会社,山形県,寒河江市,六供町１丁目６番１０号,,06,206,9910024,,,,,,,2023-08-08,1,,,,,スイコウジュウキ,0
1800,6430001089694,新規,0,2023-08-08,2023-08-08,株式会社ＮＭＦ,,株式会社,北海道,札幌市白石区,北郷二条４丁目６番９号ドリーム２４,,01,104,0030832,,,,,,,2023-08-08,1,,,,,エヌエムエフ,0
1801,6430001089703,新規,0,2023-08-08,2023-08-08,株式会社ＦＢｗｏｒｋｓ,,株式会社,北海道,石狩市,花川北一条５丁目２７０番地,,01,235,0613211,,,,,,,2023-08-08,1,,,,,エフビーワークス,0
1804,6430003015293,新規,0,2023-08-08,2023-08-08,合同会社ＵＰＩ,,合同会社,北海道,札幌市北区,北三十三条西４丁目２－１北３４条ターミナルハイツ４０７,,01,102,0010033,,,,,,,2023-08-08,1,,,,,ユーピーアイ,0
1805,6430003015319,新規,0,2023-08-08,2023-08-08,合同会社ｉＪａｐａｎ,,合同会社,北海道,札幌市中央区,南五条西１５丁目２番３号リズム医大前５０３号室,,01,101,0640805,,,,,,,2023-08-08,1,,,,,アイジャパン,0
1809,6430005014756,新規,0,2023-08-08,2023-08-08,一般社団法人先端経営研究所,,その他の設立登記法人,北海道,小樽市,奥沢４丁目１５－１２,,01,203,0470013,,,,,,,2023-08-08,1,,,,,センタンケイエイケンキュウジョ,0
1813,6450001014072,新規,0,2023-08-08,2023-08-08,株式会社Ｄ企画．,,株式会社,北海道,旭川市,東旭川南二条１丁目２番１８号,,01,204,0788262,,,,,,,2023-08-08,1,,,,,ディーキカク,0
1816,6460401001256,新規,0,2023-08-08,2023-08-08,株式会社ＮＥＭＵＲＯＶｉＢＥＳ,,株式会社,北海道,根室市,宝林町４丁目３０７番地,,01,223,0870024,,,,,,,2023-08-08,1,,,,,ネムロバイブス,0
1817,6462501000963,新規,0,2023-08-08,2023-08-08,アイエムコーポレーション株式会社,,株式会社,北海道,標津郡中標津町,川西３丁目１番地,,01,692,0861151,,,,,,,2023-08-08,1,,,,,アイエムコーポレーション,0
1820,6470001019755,新規,0,2023-08-08,2023-08-08,株式会社２ｎｄ　Ｇａｒａｇｅ,,株式会社,香川県,高松市,太田上町３５３番地２,,37,201,7618074,,,,,,,2023-08-08,1,,,,,セカンドガレージ,0
1824,6500003003076,新規,0,2023-08-08,2023-08-08,合同会社Ａ‐ｐｌｕｓ,,合同会社,愛媛県,松山市,祇園町１１番２２号,,38,201,7900965,,,,,,,2023-08-08,1,,,,,,0
1825,6700150118870,新規,0,2023-08-08,2023-08-08,ＳＯＹＵＫＩ　ＥＬＥＣＴＲＯＮＩＣＳ　ＬＩＭＩＴＥＤ,,外国会社等,,,,,,,,ＵＮＩＴ　１５０７Ｂ，１５／Ｆ，ＥＡＳＴＣＯＲＥ　３９８　ＫＷＵＮ　ＴＯＮＧ　ＲＯＡＤ　ＫＷＵＮ　ＴＯＮＧ　ＫＬ,,,,,,2023-08-08,1,,,,,チュワンジーディエンズーヨウシエンゴンスー,0
1826,6700150118879,新規,0,2023-08-08,2023-08-08,Ａｎｈｕｉ　Ｊｉａｎｎｅｎｇ　Ｍｅｄｉｃａｌ　Ｔｅｃｈｎｏｌｏｇｙ　Ｃｏ．，Ｌｔｄ．,,外国会社等,,,,,,,,Ｇａｏｘｉｎｑｕ　Ｋｅｘｕｅｄａｄａｏ　Ｘｉｎｇｙｕａｎｘｉａｏｑｕ　５２－４０３　Ｈｅｆｅｉ　Ａｎｈｕｉ　２３００００　ＣＮ,,,,,,2023-08-08,1,,,,,アンホイジェンノンイーリャオカージヨウシェンゴンスー,0
1828,7010001237484,新規,0,2023-08-08,2023-08-08,株式会社ＣＯＮＥＥ,,株式会社,東京都,中央区,銀座１丁目１２－４Ｎ＆Ｅ・ＢＬＤ．７階,,13,102,1040061,,,,,,,2023-08-08,1,,,,,コニー,0
1829,7010001237526,新規,0,2023-08-08,2023-08-08,ＧＲＥＳ株式会社,,株式会社,東京都,中央区,日本橋２丁目１－１７、２階・３階丹生ビル,,13,102,1030027,,,,,,,2023-08-08,1,,,,,グレス,0
1830,7010001237575,新規,0,2023-08-08,2023-08-08,株式会社ＧＯＤ　ＭＡＲＴＩＮＩ,,株式会社,東京都,中央区,銀座１丁目２２番１１号銀座大竹ビジデンス２Ｆ,,13,102,1040061,,,,,,,2023-08-08,1,,,,,ゴットマティーニ,0
1831,7010003041331,新規,0,2023-08-08,2023-08-08,ソフィアグローバルコンサルティング合同会社,,合同会社,東京都,中央区,銀座１丁目１２－４Ｎ＆ＥＢＬＤ．７階,,13,102,1040061,,,,,,,2023-08-08,1,,,,,ソフィアグローバルコンサルティング,0
1834,7010101015757,新規,0,2023-08-08,2023-08-08,株式会社シティクレスト,,株式会社,東京都,八王子市,北野台４丁目１番２１号,,13,201,1920913,,,,,,,2023-08-08,1,,,,,シティクレスト,0
1841,7010401176142,新規,0,2023-08-08,2023-08-08,株式会社タカ,,株式会社,東京都,港区,南青山４丁目１５番３－４０２号,,13,103,1070062,,,,,,,2023-08-08,1,,,,,タカ,0
1843,7010403030636,新規,0,2023-08-08,2023-08-08,合同会社ＩＫ,,合同会社,東京都,港区,六本木１丁目５番３－１１０５号,,13,103,1060032,,,,,,,2023-08-08,1,,,,,アイケイ,0
1844,7010405022342,新規,0,2023-08-08,2023-08-08,一般社団法人アジア友好交流支援協会,,その他の設立登記法人,東京都,港区,赤坂９丁目２番１３号－５０５,,13,103,1070052,,,,,,,2023-08-08,1,,,,,アジアユウコウコウリュウシエンキョウカイ,0
1846,7010601063537,新規,0,2023-08-08,2023-08-08,ＫＡＧＥＲＯＵ株式会社,,株式会社,東京都,墨田区,墨田４丁目４６番５－１０１号,,13,107,1310031,,,,,,,2023-08-08,1,,,,,カゲロウ,0
1849,7010701044684,新規,0,2023-08-08,2023-08-08,株式会社ＴＨＲＩＶＥ,,株式会社,東京都,品川区,東五反田４丁目１０番１６－３０１号,,13,109,1410022,,,,,,,2023-08-08,1,,,,,スライブ,0
1850,7010701044692,新規,0,2023-08-08,2023-08-08,株式会社ＴＲＵＥ　ＡＩＭ,,株式会社,東京都,品川区,北品川１丁目２４番２３号,,13,109,1400001,,,,,,,2023-08-08,1,,,,,トゥルーエイム,0
1851,7010703006807,新規,0,2023-08-08,2023-08-08,合同会社日下部企画,,合同会社,東京都,品川区,西五反田３丁目２番１３号目黒さつきビル３０１号,,13,109,1410031,,,,,,,2023-08-08,1,,,,,クサカベキカク,0
1859,7011001156121,新規,0,2023-08-08,2023-08-08,株式会社テンセイ・クリエイト,,株式会社,東京都,渋谷区,渋谷２丁目１０番１５号,,13,113,1500002,,,,,,,2023-08-08,1,,,,,テンセイクリエイト,0
1860,7011001156154,新規,0,2023-08-08,2023-08-08,Ｉｌ　Ｓｔｕｄｉｏ株式会社,,株式会社,東京都,渋谷区,渋谷２丁目２１番１号渋谷ヒカリエ３３階,,13,113,1500002,,,,,,,2023-08-08,1,,,,,アイルスタジオ,0
1861,7011001156179,新規,0,2023-08-08,2023-08-08,株式会社キッカケ,,株式会社,東京都,渋谷区,代官山町１０－７オープンレジデンシア代官山４０１号室,,13,113,1500034,,,,,,,2023-08-08,1,,,,,キッカケ,0
1862,7011001156220,新規,0,2023-08-08,2023-08-08,株式会社Ｏ,,株式会社,東京都,渋谷区,恵比寿西２丁目１９番９号,,13,113,1500021,,,,,,,2023-08-08,1,,,,,オー,0
1863,7011005010167,新規,0,2023-08-08,2023-08-08,一般社団法人坂本図書,,その他の設立登記法人,東京都,渋谷区,千駄ヶ谷３丁目３番８－４階,,13,113,1510051,,,,,,,2023-08-08,1,,,,,サカモトトショ,0
1864,7011101103881,新規,0,2023-08-08,2023-08-08,株式会社ｅｎ‐ｚｉｎ,,株式会社,東京都,新宿区,大京町２２番地１グランファースト新宿御苑,,13,104,1600015,,,,,,,2023-08-08,1,,,,,エンジン,0
1865,7011101103907,新規,0,2023-08-08,2023-08-08,株式会社ＴＲＡＢＡＮＴ,,株式会社,東京都,新宿区,中落合１丁目１０番１８号,,13,104,1610032,,,,,,,2023-08-08,1,,,,,トラバント,0
1866,7011101103915,新規,0,2023-08-08,2023-08-08,株式会社Ｖ・Ｊ・Ｇｏｌｆ,,株式会社,東京都,新宿区,新宿２丁目１番１５号,,13,104,1600022,,,,,,,2023-08-08,1,,,,,ブイジェイゴルフ,0
1867,7011101103931,新規,0,2023-08-08,2023-08-08,株式会社ＯＡＯ,,株式会社,東京都,新宿区,西新宿３丁目３番１３号西新宿水間ビル２Ｆ,,13,104,1600023,,,,,,,2023-08-08,1,,,,,オーエーオー,0
1876,7011603004009,新規,0,2023-08-08,2023-08-08,合同会社フィールドライト,,合同会社,東京都,練馬区,関町北４丁目２１番１９号,,13,120,1770051,,,,,,,2023-08-08,1,,,,,フィールドライト,0
1877,7011801042859,新規,0,2023-08-08,2023-08-08,ａｎｄ　Ｆｉｖｅ株式会社,,株式会社,東京都,葛飾区,新小岩２丁目１番９－７０３号シティテラス新小岩,,13,122,1240024,,,,,,,2023-08-08,1,,,,,アンドファイブ,0
1881,7013301051150,新規,0,2023-08-08,2023-08-08,株式会社盛＿,00131435,株式会社,東京都,豊島区,巣鴨４丁目５番１７号,,13,116,1700002,,,,,,,2023-08-08,1,,,,,セイキン,0
1882,7013301051159,新規,0,2023-08-08,2023-08-08,株式会社ヘリックス,,株式会社,東京都,豊島区,南池袋２丁目４７番２号ワイズビル６階,,13,116,1710022,,,,,,,2023-08-08,1,,,,,ヘリックス,0
1883,7013303006739,新規,0,2023-08-08,2023-08-08,合同会社銀座シシリア学食事業部,,合同会社,東京都,豊島区,南池袋２丁目５番１号,,13,116,1710022,,,,,,,2023-08-08,1,,,,,ギンザシシリアガクショクジギョウブ,0
1886,7020001152749,新規,0,2023-08-08,2023-08-08,株式会社Ｍｙ　ｌｉｆｅ,,株式会社,神奈川県,川崎市麻生区,早野３０３番,,14,137,2150016,,,,,,,2023-08-08,1,,,,,マイライフ,0
1887,7020001152856,新規,0,2023-08-08,2023-08-08,株式会社イクシル,,株式会社,神奈川県,川崎市川崎区,日進町１番地サンスクエア川崎,,14,131,2100024,,,,,,,2023-08-08,1,,,,,イクシル,0
1888,7020001152872,新規,0,2023-08-08,2023-08-08,Ｕｎｄｅｒｌｉｎｅ株式会社,,株式会社,神奈川県,横浜市港北区,高田東４丁目１４番１２号,,14,109,2230065,,,,,,,2023-08-08,1,,,,,アンダーライン,0
1889,7020001152880,新規,0,2023-08-08,2023-08-08,株式会社ＯＮＥＤＲＯＰ,,株式会社,神奈川県,川崎市多摩区,生田２丁目１番６号,,14,135,2140038,,,,,,,2023-08-08,1,,,,,ワンドロップ,0
1892,7020003024327,新規,0,2023-08-08,2023-08-08,合同会社ベルエポック,,合同会社,神奈川県,川崎市幸区,南加瀬３丁目３０番１２号,,14,132,2120055,,,,,,,2023-08-08,1,,,,,ベルエポック,0
1900,7021001079791,新規,0,2023-08-08,2023-08-08,ワンズ株式会社,,株式会社,神奈川県,相模原市中央区,小町通２丁目２番３８号,,14,152,2520217,,,,,,,2023-08-08,1,,,,,ワンズ,0
1901,7021001079817,新規,0,2023-08-08,2023-08-08,Ｍ‐ＴＡＣ株式会社,,株式会社,神奈川県,三浦市,南下浦町上宮田１１９６番地１,,14,210,2380101,,,,,,,2023-08-08,1,,,,,エムタック,0
1902,7021001079825,新規,0,2023-08-08,2023-08-08,株式会社ネクステージ,,株式会社,神奈川県,相模原市南区,松が枝町１９番８号めろんはいむ３階,,14,153,2520313,,,,,,,2023-08-08,1,,,,,ネクステージ,0
1903,7021001079858,新規,0,2023-08-08,2023-08-08,株式会社エスティエル,,株式会社,神奈川県,愛甲郡愛川町,中津７９８番地の６,,14,401,2430303,,,,,,,2023-08-08,1,,,,,エスティエル,0
1904,7021003013402,新規,0,2023-08-08,2023-08-08,合同会社香菜飯店,,合同会社,神奈川県,逗子市,小坪５丁目２３－８－８４２７,,14,208,2490008,,,,,,,2023-08-08,1,,,,,パクチーハンテン,0
1916,7030003022214,新規,0,2023-08-08,2023-08-08,合同会社ＩＮＤＩＶＩＴＹ‐Ｚ,,合同会社,埼玉県,蕨市,塚越１丁目４番２１号,,11,223,3350002,,,,,,,2023-08-08,1,,,,,インディビティーズ,0
1917,7030003022321,新規,0,2023-08-08,2023-08-08,合同会社ＣＲＥＡＭ,,合同会社,埼玉県,吉川市,美南３丁目９－１０和み２－２０２,,11,243,3420038,,,,,,,2023-08-08,1,,,,,クリーム,0
1922,7040001129480,新規,0,2023-08-08,2023-08-08,株式会社ＹＵＲＥＲＡ,,株式会社,千葉県,茂原市,粟生野３４４４番地５,,12,210,2994106,,,,,,,2023-08-08,1,,,,,ユレラ,0
1927,7040005022087,新規,0,2023-08-08,2023-08-08,一般社団法人幸結会,,その他の設立登記法人,千葉県,千葉市中央区,中央４丁目１０番１７号千葉中央ヒミコマンション２０３,,12,101,2600013,,,,,,,2023-08-08,1,,,,,コウユウカイ,0
1931,7050001053250,新規,0,2023-08-08,2023-08-08,株式会社アミナス,,株式会社,茨城県,結城郡八千代町,大字村貫１６５番地４,,08,521,3003563,,,,,,,2023-08-08,1,,,,,アミナス,0
1934,7060001036238,新規,0,2023-08-08,2023-08-08,ツツム・クリエイト株式会社,,株式会社,栃木県,宇都宮市,八幡台２番１２号,,09,201,3200015,,,,,,,2023-08-08,1,,,,,ツツムクリエイト,0
1936,7070001040726,新規,0,2023-08-08,2023-08-08,株式会社なつき工務店,,株式会社,群馬県,渋川市,行幸田４４番地１,,10,208,3770006,,,,,,,2023-08-08,1,,,,,ナツキコウムテン,0
1937,7070001040734,新規,0,2023-08-08,2023-08-08,株式会社眞和建板,,株式会社,群馬県,伊勢崎市,田中島町１４５１番地１８,,10,204,3720802,,,,,,,2023-08-08,1,,,,,シンワケンバン,0
1941,7080001025791,新規,0,2023-08-08,2023-08-08,株式会社ＦＭ８１２Ｙａｉｚｕ,,株式会社,静岡県,焼津市,栄町１丁目４番１０号,,22,212,4250027,,,,,,,2023-08-08,1,,,,,エフエムハチイチニヤイヅ,0
1942,7080003003028,新規,0,2023-08-08,2023-08-08,合同会社Ｃ＆Ｅ,,合同会社,静岡県,藤枝市,駅前１丁目８番５号杉井ビル,,22,214,4260034,,,,,,,2023-08-08,1,,,,,シーアンドイー,0
1943,7080101024157,新規,0,2023-08-08,2023-08-08,株式会社キュレーションエクサ,,株式会社,静岡県,沼津市,原６５５番地の４４,,22,203,4100312,,,,,,,2023-08-08,1,,,,,キュレーションエクサ,0
1945,7080401026654,新規,0,2023-08-08,2023-08-08,エイトサポーターズ株式会社,,株式会社,静岡県,袋井市,愛野１８７４番地の２１,,22,216,4370031,,,,,,,2023-08-08,1,,,,,エイトサポーターズ,0
1946,7080403004848,新規,0,2023-08-08,2023-08-08,ジョンハン合同会社,,合同会社,静岡県,浜松市西区,入野町１６１１９番地の８,,22,133,4328061,,,,,,,2023-08-08,1,,,,,ジョンハン,0
1949,7100003007133,新規,0,2023-08-08,2023-08-08,合同会社ひまわり,,合同会社,長野県,長野市,田町２４１４中沢ビル１Ｆ,,20,201,3810000,,,,,,,2023-08-08,1,,,,,ヒマワリ,0
1950,7100003007141,新規,0,2023-08-08,2023-08-08,合同会社オレンジ,,合同会社,長野県,大町市,大町２９７１番地１,,20,212,3980002,,,,,,,2023-08-08,1,,,,,オレンジ,0
1952,7110001037742,新規,0,2023-08-08,2023-08-08,バズプランニング株式会社,,株式会社,新潟県,新潟市中央区,堀之内５０－１１Ｗｏｗ！Ｓｔａ．ＮＩＩＧＡＴＡ２階,,15,103,9500981,,,,,,,2023-08-08,1,,,,,バズプランニング,0
1957,7120001256952,新規,0,2023-08-08,2023-08-08,株式会社エンデバーキャピタル,,株式会社,大阪府,寝屋川市,菅相塚町１４番９号,00131445,27,215,5720008,,,,,,,2023-08-08,1,,,,,エンデバーキャピタル,0
1958,7120001257026,新規,0,2023-08-08,2023-08-08,柱株式会社,,株式会社,大阪府,大阪市中央区,南船場２丁目９番１－５０２号,,27,128,5420081,,,,,,,2023-08-08,1,,,,,ハシラ,0
1959,7120001257091,新規,0,2023-08-08,2023-08-08,株式会社忍野八海,,株式会社,大阪府,大阪市東淀川区,淡路２丁目１０番１４－１３０４号,,27,114,5330032,,,,,,,2023-08-08,1,,,,,オシノハッカイ,0
1960,7120001257141,新規,0,2023-08-08,2023-08-08,株式会社協栄,,株式会社,大阪府,寝屋川市,萱島南町１番１３号,,27,215,5720825,,,,,,,2023-08-08,1,,,,,キョウエイ,0
1964,7120003024655,新規,0,2023-08-08,2023-08-08,ＢＩＺＧＲＩＴ合同会社,,合同会社,大阪府,大阪市都島区,都島本通４丁目９番１－３０６号,,27,102,5340021,,,,,,,2023-08-08,1,,,,,ビズグリット,0
1966,7120101068026,新規,0,2023-08-08,2023-08-08,株式会社和幸,,株式会社,大阪府,堺市西区,上野芝向ヶ丘町５丁２２番２８号,,27,144,5938303,,,,,,,2023-08-08,1,,,,,ワコウ,0
1967,7120101068034,新規,0,2023-08-08,2023-08-08,株式会社スマートスマイル,,株式会社,大阪府,堺市北区,百舌鳥梅町１丁２番地１７,,27,146,5918032,,,,,,,2023-08-08,1,,,,,スマートスマイル,0
1972,7120901047914,新規,0,2023-08-08,2023-08-08,株式会社Ｙｕｍｉｋｏ,,株式会社,大阪府,高槻市,日吉台四番町２６番１３号,,27,207,5691022,,,,,,,2023-08-08,1,,,,,ユミコ,0
1974,7120903004772,新規,0,2023-08-08,2023-08-08,合同会社テイチュウ,,合同会社,大阪府,吹田市,垂水町１丁目５６番２１－４０５号,,27,205,5640062,,,,,,,2023-08-08,1,,,,,テイチュウ,0
1982,7130001074866,新規,0,2023-08-08,2023-08-08,光陽メンテナンス株式会社,,株式会社,京都府,京都市南区,久世殿城町５４６－１スリーメープル１０２,,26,107,6018205,,,,,,,2023-08-08,1,,,,,コウヨウメンテナンス,0
1983,7130001074932,新規,0,2023-08-08,2023-08-08,株式会社ＳＣＡＬＥＲホールディングス,,株式会社,京都府,京都市中京区,三条通烏丸西入御倉町８５番地１烏丸ビル５階,,26,104,6048166,,,,,,,2023-08-08,1,,,,,スケーラーホールディングス,0
1984,7130001074940,新規,0,2023-08-08,2023-08-08,株式会社リージェンシー,,株式会社,京都府,城陽市,平川中道表５番地の２,,26,207,6100101,,,,,,,2023-08-08,1,,,,,リージェンシー,0
1996,7140001131055,新規,0,2023-08-08,2023-08-08,株式会社Ｇｏｎ　Ｍａｎａｇｅｍｅｎｔ,,株式会社,兵庫県,神戸市東灘区,御影中町７丁目５番地１９号,,28,101,6580054,,,,,,,2023-08-08,1,,,,,ゴンマネジメント,0
1997,7140001131071,新規,0,2023-08-08,2023-08-08,株式会社Ｉｎｖｉｎｃｉｂｌｅ　Ｇａｔｅ,,株式会社,兵庫県,西宮市,甲子園口４丁目５番８－３０６号,,28,204,6638113,,,,,,,2023-08-08,1,,,,,インビンシブルゲイト,0
1998,7140001131088,新規,0,2023-08-08,2023-08-08,株式会社ＭＤＲツール,,株式会社,兵庫県,小野市,王子町７１９－３,,28,218,6751378,,,,,,,2023-08-08,1,,,,,エムディーアールツール,0
2003,7140003019380,新規,0,2023-08-08,2023-08-08,合同会社ｍｏｏｃａｌ,,合同会社,兵庫県,神戸市須磨区,飛松町３丁目６－１４－２０１,,28,107,6540012,,,,,,,2023-08-08,1,,,,,モーカル,0
2009,7160001025247,新規,0,2023-08-08,2023-08-08,株式会社ニシキ電工,,株式会社,滋賀県,犬上郡多賀町,大字多賀５９０番地,,25,443,5220341,,,,,,,2023-08-08,1,,,,,ニシキデンコウ,0
2010,7160001025255,新規,0,2023-08-08,2023-08-08,株式会社ＴＢ,,株式会社,滋賀県,近江八幡市,中小森町７４番地５６,,25,204,5230041,,,,,,,2023-08-08,1,,,,,ティービー,0
2013,7170001017722,新規,0,2023-08-08,2023-08-08,株式会社ファーストインプレッション,,株式会社,和歌山県,和歌山市,手平４丁目６番１４号,,30,201,6408319,,,,,,,2023-08-08,1,,,,,ファーストインプレッション,0
2016,7180001157484,新規,0,2023-08-08,2023-08-08,株式会社シーガルロジ,,株式会社,愛知県,名古屋市中川区,高杉町３３８番地,,23,110,4540936,,,,,,,2023-08-08,1,,,,,シーガルロジ,0
2017,7180001157534,新規,0,2023-08-08,2023-08-08,愛信商事株式会社,,株式会社,愛知県,名古屋市南区,豊１丁目５０番４号,,23,112,4570863,,,,,,,2023-08-08,1,,,,,アイシンショウジ,0
2027,7180003025581,新規,0,2023-08-08,2023-08-08,新世代工業合同会社,,合同会社,愛知県,あま市,篠田乙柳２２番地１,,23,237,4901211,,,,,,,2023-08-08,1,,,,,シンセダイコウギョウ,0
2030,7180301037626,新規,0,2023-08-08,2023-08-08,株式会社ＨＳＫ,,株式会社,愛知県,豊橋市,畑ケ田町字畑ケ田５０番地の８,,23,201,4418121,,,,,,,2023-08-08,1,,,,,エイチエスケイ,0
2031,7180301037634,新規,0,2023-08-08,2023-08-08,株式会社Ａｒｔ　ｍｅｔａｌ　ＧＯＴＯ,,株式会社,愛知県,豊田市,百々町９丁目８６番地４,,23,211,4710008,,,,,,,2023-08-08,1,,,,,アートメタルゴトウ,0
2032,7180301037675,新規,0,2023-08-08,2023-08-08,株式会社プラムチェリー,,株式会社,愛知県,豊田市,金谷町５丁目１３番地,,23,211,4710876,,,,,,,2023-08-08,1,,,,,プラムチェリー,0
2033,7180301037683,新規,0,2023-08-08,2023-08-08,株式会社Ｌｉｎｏ　Ｇｒａｃｅｆｕｌ,,株式会社,愛知県,豊橋市,弥生町字中原５３番地２プレシオーサ・シズ１Ａ,,23,201,4418106,,,,,,,2023-08-08,1,,,,,リノグレイスフル,0
2036,7190001030640,新規,0,2023-08-08,2023-08-08,株式会社江戸屋,,株式会社,三重県,津市,香良洲町１３７０番地,,24,201,5140315,,,,,,,2023-08-08,1,,,,,エドヤ,0
2037,7190003004403,新規,0,2023-08-08,2023-08-08,ＳＨＩＭＩＺＵ　ＭＯＴＯＲＳ合同会社,,合同会社,三重県,鈴鹿市,竹野２丁目１番８号グラート鈴鹿３０６,,24,207,5130025,,,,,,,2023-08-08,1,,,,,シミズモータース,0
2039,7200001041578,新規,0,2023-08-08,2023-08-08,株式会社ＳＫＥＴ,,株式会社,岐阜県,養老郡養老町,押越字神明３５番地４７,,21,341,5031316,,,,,,,2023-08-08,1,,,,,スケット,0
2040,7200001041594,新規,0,2023-08-08,2023-08-08,株式会社ＴＨ,,株式会社,岐阜県,岐阜市,大福町９丁目２２番地,,21,201,5020934,,,,,,,2023-08-08,1,,,,,ティーエイチ,0
2046,7230001019951,新規,0,2023-08-08,2023-08-08,株式会社佐栄,,株式会社,富山県,中新川郡立山町,利田２７７番地６,,16,323,9300275,,,,,,,2023-08-08,1,,,,,サエイ,0
2051,7240001061911,新規,0,2023-08-08,2023-08-08,株式会社Ｚｍａｋｅｒ,,株式会社,広島県,広島市中区,堺町１丁目１番３号,,34,101,7300853,,,,,,,2023-08-08,1,,,,,ゼットメイカー,0
2052,7240001061960,新規,0,2023-08-08,2023-08-08,株式会社ＴＲＵＴＨ,,株式会社,広島県,広島市南区,松原町５番２－１５１３号,,34,103,7320822,,,,,,,2023-08-08,1,,,,,トゥルース,0
2053,7240001061969,新規,0,2023-08-08,2023-08-08,太閤株式会社,,株式会社,広島県,広島市西区,三滝本町２丁目６番６号,,34,104,7330802,,,,,,,2023-08-08,1,,,,,タイコウ,0
2057,7250001020239,新規,0,2023-08-08,2023-08-08,株式会社Ｖｉｔａｌｉｔｙ,,株式会社,山口県,下関市,綾羅木本町８丁目１番３４号グランジュール綾羅木２０１号,,35,201,7510849,,,,,,,2023-08-08,1,,,,,ビタリティー,0
2061,7260001038189,新規,0,2023-08-08,2023-08-08,株式会社Ａｃｏｎｎｅｃｔ,,株式会社,岡山県,倉敷市,連島町西之浦３４番地,,33,202,7128001,,,,,,,2023-08-08,1,,,,,エーコネクト,0
2062,7260001038206,新規,0,2023-08-08,2023-08-08,株式会社宇宙人,,株式会社,岡山県,岡山市北区,中央町４－５中央町プラザ１Ｆ１０１号,,33,101,7000836,,,,,,,2023-08-08,1,,,,,ウチュウジン,0
2066,7290001102529,新規,0,2023-08-08,2023-08-08,株式会社ＷＡＮ　ＡＬＰＨＡ,,株式会社,福岡県,福岡市早良区,室見２丁目６番１０号,,40,137,8140015,,,,,,,2023-08-08,1,,,,,ワンアルファ,0
2067,7290001102537,新規,0,2023-08-08,2023-08-08,Ｏｎｅｎｅｓｓ株式会社,,株式会社,福岡県,糸島市,志摩東貝塚７１２番地１,00131432,40,230,8191324,,,,,,,2023-08-08,1,,,,,ワンネス,0
2068,7290001102553,新規,0,2023-08-08,2023-08-08,株式会社Ｈｉｇｈ‐ｃｏｍｐａｎｙ,,株式会社,福岡県,糸島市,伊都の杜２丁目８番１３号,,40,230,8191130,,,,,,,2023-08-08,1,,,,,ハイカンパニー,0
2069,7290001102561,新規,0,2023-08-08,2023-08-08,株式会社ＳＴＵＤＩＯ　ＪＥＵ,,株式会社,福岡県,筑紫野市,二日市北１丁目８番１－１０３号,,40,217,8180056,,,,,,,2023-08-08,1,,,,,スタジオジュー,0
2070,7290001102636,新規,0,2023-08-08,2023-08-08,株式会社信和,,株式会社,福岡県,福岡市東区,香椎照葉７丁目６番５３号,,40,131,8130017,,,,,,,2023-08-08,1,,,,,シンワ,0
2072,7290003014202,新規,0,2023-08-08,2023-08-08,合同会社ＡＲＣＺ,,合同会社,福岡県,久留米市,御井町２０５７－３,,40,203,8390851,,,,,,,2023-08-08,1,,,,,アークズ,0
2073,7290003014219,新規,0,2023-08-08,2023-08-08,スタジオダスカル合同会社,,合同会社,福岡県,久留米市,野中町７８３番地５サン・グリーン３０２号,,40,203,8390862,,,,,,,2023-08-08,1,,,,,スタジオダスカル,0
2074,7290801029764,新規,0,2023-08-08,2023-08-08,株式会社ナイン,,株式会社,福岡県,宮若市,本城２７１番地１,,40,226,8230003,,,,,,,2023-08-08,1,,,,,ナイン,0
2075,7290801029772,新規,0,2023-08-08,2023-08-08,株式会社ヴェルデ・ポム,,株式会社,福岡県,北九州市小倉北区,足立２丁目５番１号,,40,106,8020042,,,,,,,2023-08-08,1,,,,,ヴェルデポム,0
2076,7290801029780,新規,0,2023-08-08,2023-08-08,住友テックサービス株式会社,,株式会社,福岡県,北九州市八幡西区,折尾５丁目８番３－１０１号,,40,109,8070825,,,,,,,2023-08-08,1,,,,,スミトモテックサービス,0
2082,7300001013419,新規,0,2023-08-08,2023-08-08,株式会社丸三,,株式会社,佐賀県,佐賀市,神野西３丁目１２‐６,,41,201,8400805,,,,,,,2023-08-08,1,,,,,マルサン,0
2083,7300001013427,新規,0,2023-08-08,2023-08-08,株式会社丸高ホールディングス,,株式会社,佐賀県,武雄市,武雄町大字昭和３番地６,,41,206,8430023,,,,,,,2023-08-08,1,,,,,マルタカホールディングス,0
2093,7320001019934,新規,0,2023-08-08,2023-08-08,株式会社Ｇｒｉｇｌａ,,株式会社,大分県,大分市,大字千歳６６０番地,,44,201,8700132,,,,,,,2023-08-08,1,,,,,グリグラ,0
2099,7350001018479,新規,0,2023-08-08,2023-08-08,株式会社山友,,株式会社,宮崎県,延岡市,稲葉崎町４丁目２１５番地２４,,45,203,8820003,,,,,,,2023-08-08,1,,,,,サンユウ,0
2103,7360003013171,新規,0,2023-08-08,2023-08-08,合同会社東新ランド,,合同会社,沖縄県,那覇市,安謝２丁目２８番１６号２階,,47,201,9000003,,,,,,,2023-08-08,1,,,,,トウシンランド,0
2105,7370001050273,新規,0,2023-08-08,2023-08-08,株式会社拓杜,,株式会社,宮城県,仙台市宮城野区,燕沢１丁目２２番３７号シティハイツ６－１０２,,04,102,9830823,,,,,,,2023-08-08,1,,,,,タクト,0
2108,7390001017345,新規,0,2023-08-08,2023-08-08,株式会社山喜ホールディングス,,株式会社,山形県,寒河江市,大字寒河江字赤田３００番地の３,,06,206,9910041,,,,,,,2023-08-08,1,,,,,ヤマキホールディングス,0
2111,7390003002130,新規,0,2023-08-08,2023-08-08,合同会社Ｓｅｅｄｓ　ｏｆ　Ｃｒｅａｔｉｏｎ,,合同会社,山形県,米沢市,城南３丁目４番４６号,,06,202,9920038,,,,,,,2023-08-08,1,,,,,シーズオブクリエイション,0
2112,7400001016337,新規,0,2023-08-08,2023-08-08,株式会社エスリペアワーク,,株式会社,岩手県,盛岡市,上田堤２丁目１８番１３号,,03,201,0200113,,,,,,,2023-08-08,1,,,,,エスリペアワーク,0
2113,7420001018364,新規,0,2023-08-08,2023-08-08,株式会社ＡＣＥシャッター,,株式会社,青森県,五所川原市,大字石岡字藤巻１０５番地１,,02,205,0370005,,,,,,,2023-08-08,1,,,,,エースシャッター,0
2115,7430001089611,新規,0,2023-08-08,2023-08-08,株式会社ＫＯＫ．,,株式会社,北海道,札幌市中央区,南九条西９丁目２番２７号珊瑚マンション２０１号,,01,101,0640809,,,,,,,2023-08-08,1,,,,,ケーオーケードット,0
2116,7430001089710,新規,0,2023-08-08,2023-08-08,株式会社翔樹,,株式会社,北海道,札幌市東区,北二十四条東２丁目１番１０号,,01,103,0650024,,,,,,,2023-08-08,1,,,,,トキ,0
2122,7470001019746,新規,0,2023-08-08,2023-08-08,株式会社マスモトタイヤ,,株式会社,香川県,高松市,由良町５２１番地１,,37,201,7610441,,,,,,,2023-08-08,1,,,,,マスモトタイヤ,0
2123,7700150118878,新規,0,2023-08-08,2023-08-08,ＸＩＮＧＵＡＮＧ　ＰＬＡＳＴＩＣＳ　ＣＯ．，ＬＴＤ．,,外国会社等,,,,,,,,３１７　Ｗｅｉ１９　Ｒｏａｄ　ＹｕｅＱｉｎｇ　Ｉｎｄｕｓｔｒｉａｌ　Ｚｏｎｅ　ＹｕｅＱｉｎｇ,,,,,,2023-08-08,1,,,,,シングワンスーリャオヨウシエンゴンスー,0
2127,8010001237426,新規,0,2023-08-08,2023-08-08,ｉＰＥＡＣＥ２２３株式会社,,株式会社,東京都,中央区,築地１丁目１２－２２コンワビル４階,,13,102,1040045,,,,,,,2023-08-08,1,,,,,アイピーストゥートゥースリー,0
2128,8010001237483,新規,0,2023-08-08,2023-08-08,株式会社デ・西盛,,株式会社,東京都,中央区,銀座７丁目１７番１８－９０１号,,13,102,1040061,,,,,,,2023-08-08,1,,,,,デニシモリ,0
2129,8010001237525,新規,0,2023-08-08,2023-08-08,株式会社ｒｅｎａｍｅ,,株式会社,東京都,千代田区,丸の内１丁目１１－１パシフィックセンチュリープレイス丸の内１３階,,13,101,1000005,,,,,,,2023-08-08,1,,,,,リネーム,0
2131,8010005037054,新規,0,2023-08-08,2023-08-08,社会保険労務士法人プラットローム,,その他の設立登記法人,東京都,中央区,新川１丁目３番２１号,,13,102,1040033,,,,,,,2023-08-08,1,,,,,プラットローム,0
2133,8010101015764,新規,0,2023-08-08,2023-08-08,株式会社シェベル,,株式会社,東京都,八王子市,七国４丁目４７番３２号,,13,201,1920919,,,,,,,2023-08-08,1,,,,,シェベル,0
2136,8010401176141,新規,0,2023-08-08,2023-08-08,ＭＭ　Ｉｎｖｅｓｔｍｅｎｔ株式会社,,株式会社,東京都,港区,南青山６丁目１２番３－７０６号,,13,103,1070062,,,,,,,2023-08-08,1,,,,,エムエムインベストメント,0
2137,8010401176166,新規,0,2023-08-08,2023-08-08,株式会社ＲＩＳＥＮ,,株式会社,東京都,港区,芝２丁目２８番１１号ＬｉｎｋＳｐａｃｅ芝５０９号室,,13,103,1050014,,,,,,,2023-08-08,1,,,,,リズン,0
2138,8010401176232,新規,0,2023-08-08,2023-08-08,ＧＧＩＮ株式会社,,株式会社,東京都,港区,南青山３丁目３番３号,,13,103,1070062,,,,,,,2023-08-08,1,,,,,ジジン,0
2140,8010403030651,新規,0,2023-08-08,2023-08-08,合同会社Ｎ＆Ｍ,,合同会社,東京都,港区,白金台３丁目１３－１５－２０３,,13,103,1080071,,,,,,,2023-08-08,1,,,,,エヌアンドエム,0
2143,8010501050857,新規,0,2023-08-08,2023-08-08,和幕株式会社,,株式会社,東京都,台東区,上野７丁目３番９号,,13,106,1100005,,,,,,,2023-08-08,1,,,,,ワバク,0
2145,8010601063552,新規,0,2023-08-08,2023-08-08,Ｆｉｂｅｒｍａｌｌ株式会社,,株式会社,東京都,墨田区,本所１丁目４番７号栗本ビル,,13,107,1300004,,,,,,,2023-08-08,1,,,,,ファイバーモール,0
2150,8010701044675,新規,0,2023-08-08,2023-08-08,株式会社エストレージャ,,株式会社,東京都,品川区,西五反田１丁目３２番４号,,13,109,1410031,,,,,,,2023-08-08,1,,,,,エストレージャ,0
2151,8010703006806,新規,0,2023-08-08,2023-08-08,合同会社ＡＩＰ,,合同会社,東京都,品川区,上大崎２丁目１１番１０－２０２号,,13,109,1410021,,,,,,,2023-08-08,1,,,,,アイプ,0
2160,8011001156129,新規,0,2023-08-08,2023-08-08,株式会社ＯＡＧ桜和,,株式会社,東京都,渋谷区,笹塚１丁目４８番１９－４０５号,,13,113,1510073,,,,,,,2023-08-08,1,,,,,オーエージーオウワ,0
2161,8011001156137,新規,0,2023-08-08,2023-08-08,ＤＸ総合サポート株式会社,,株式会社,東京都,渋谷区,代々木４丁目３６番１０－３０１号,,13,113,1510053,,,,,,,2023-08-08,1,,,,,ディーエックスソウゴウサポート,0
2165,8011101103856,新規,0,2023-08-08,2023-08-08,大通投資株式会社,,株式会社,東京都,新宿区,西新宿３丁目７番２６号５０７号,,13,104,1600023,,,,,,,2023-08-08,1,,,,,ダイツウトウシ,0
2166,8011101103906,新規,0,2023-08-08,2023-08-08,株式会社ＮＯＴＥＱＵＡＬ,,株式会社,東京都,新宿区,西新宿５丁目１２番２号,,13,104,1600023,,,,,,,2023-08-08,1,,,,,ノットイコール,0
2170,8011401025338,新規,0,2023-08-08,2023-08-08,株式会社ハヤテックス,,株式会社,東京都,板橋区,栄町２６番２０号,,13,119,1730015,,,,,,,2023-08-08,1,,,,,ハヤテックス,0
2176,8011601027027,新規,0,2023-08-08,2023-08-08,株式会社ウォールズ＆ブリッジ,,株式会社,東京都,練馬区,石神井町４丁目１８番３０号,,13,120,1770041,,,,,,,2023-08-08,1,,,,,ウォールズアンドブリッジ,0
2177,8011601027035,新規,0,2023-08-08,2023-08-08,榮興株式会社,,株式会社,東京都,練馬区,関町北１丁目２６番６号,,13,120,1770051,,,,,,,2023-08-08,1,,,,,エイコウ,0
2182,8012801022560,新規,0,2023-08-08,2023-08-08,株式会社レク・エンタープライズ,,株式会社,東京都,立川市,曙町１丁目２６番１３号１階,00131434,13,202,1900012,,,,,,,2023-08-08,1,,,,,レクエンタープライズ,0
2184,8013301051166,新規,0,2023-08-08,2023-08-08,株式会社ＯＮＥＬＩＦＥ,,株式会社,東京都,豊島区,池袋２丁目５９番２号クレール池袋４０３号,,13,116,1710014,,,,,,,2023-08-08,1,,,,,ワンライフ,0
2190,8020001152814,新規,0,2023-08-08,2023-08-08,株式会社財務経営センター,,株式会社,神奈川県,横浜市神奈川区,三ツ沢中町１８番１－６号,,14,102,2210851,,,,,,,2023-08-08,1,,,,,ザイムケイエイセンター,0
2191,8020001152888,新規,0,2023-08-08,2023-08-08,株式会社ＡＳＴＡＲ,,株式会社,神奈川県,横浜市南区,浦舟町１丁目１６－１パークノヴァ横浜阪東橋５１１,,14,105,2320024,,,,,,,2023-08-08,1,,,,,アスター,0
2192,8020001152946,新規,0,2023-08-08,2023-08-08,株式会社ＳＵＮＮＹ　ＤＡＹ,,株式会社,神奈川県,横浜市西区,中央１丁目３５番２１号湘南ビル２０１,,14,103,2200051,,,,,,,2023-08-08,1,,,,,サニーディ,0
2193,8020001152962,新規,0,2023-08-08,2023-08-08,株式会社ナラティブデザイン,,株式会社,神奈川県,横浜市港南区,日野２丁目６０－１４,,14,111,2340051,,,,,,,2023-08-08,1,,,,,ナラティブデザイン,0
2196,8020003024326,新規,0,2023-08-08,2023-08-08,ケアフィット合同会社,,合同会社,神奈川県,横浜市戸塚区,汲沢１丁目５番１－２号,,14,110,2450061,,,,,,,2023-08-08,1,,,,,ケアフィット,0
2201,8021001079790,新規,0,2023-08-08,2023-08-08,ｇｅｎｔｅｎ建設株式会社,,株式会社,神奈川県,藤沢市,辻堂６丁目３番２５号ヴィラたかすな２０３,,14,205,2510047,,,,,,,2023-08-08,1,,,,,ゲンテンケンセツ,0
2202,8021001079840,新規,0,2023-08-08,2023-08-08,株式会社アジリティデベロップメント,,株式会社,神奈川県,平塚市,中原３丁目１番１４－３号,,14,203,2540075,,,,,,,2023-08-08,1,,,,,アジリティデベロップメント,0
2204,8021003013401,新規,0,2023-08-08,2023-08-08,合同会社オフィスボレロ,,合同会社,神奈川県,相模原市緑区,橋本８丁目２９番５１号,,14,151,2520143,,,,,,,2023-08-08,1,,,,,オフィスボレロ,0
2205,8021005012871,新規,0,2023-08-08,2023-08-08,マンション茅ヶ崎管理組合法人,,その他の設立登記法人,神奈川県,茅ヶ崎市,中海岸２丁目５番５号,,14,207,2530055,,,,,,,2023-08-08,1,,,,,マンションチガサキ,0
2213,8030001155048,新規,0,2023-08-08,2023-08-08,ＡＩ・Ｇｅｎｅｒａｔｉｖｅ　Ａｒｔ株式会社,,株式会社,埼玉県,川口市,飯塚２丁目１番３９－２６０２号,,11,203,3320023,,,,,,,2023-08-08,1,,,,,エーアイジェネラティブアート,0
2214,8030001155345,新規,0,2023-08-08,2023-08-08,株式会社ａｎｓｗｅｒ,,株式会社,埼玉県,さいたま市見沼区,大字蓮沼７２０番地２０２,,11,104,3370015,,,,,,,2023-08-08,1,,,,,アンサー,0
2217,8030003022221,新規,0,2023-08-08,2023-08-08,合同会社威源国際貿易,,合同会社,埼玉県,坂戸市,八幡１丁目６番１０号Ａ棟,,11,239,3500223,,,,,,,2023-08-08,1,,,,,イゲンコクサイボウエキ,0
2223,8040001129546,新規,0,2023-08-08,2023-08-08,株式会社Ｔ・Ａサービス,,株式会社,千葉県,船橋市,田喜野井１丁目３２番１８号,,12,204,2740073,,,,,,,2023-08-08,1,,,,,ティーエーサービス,0
2224,8040001129554,新規,0,2023-08-08,2023-08-08,株式会社ＷｈｙＢｏｄｙ,,株式会社,千葉県,佐倉市,宮ノ台１丁目１１番１号,,12,212,2850857,,,,,,,2023-08-08,1,,,,,ワイボディ,0
2225,8040001129587,新規,0,2023-08-08,2023-08-08,株式会社ＹＴＨＩＣＫ,,株式会社,千葉県,市川市,田尻４丁目４番２０号ヴェレーナ原木中山リグレ６０３,,12,203,2720014,,,,,,,2023-08-08,1,,,,,ワイティック,0
2227,8050001053241,新規,0,2023-08-08,2023-08-08,株式会社すぎのや,,株式会社,茨城県,坂東市,岩井４２１５番地の１,,08,228,3060631,,,,,,,2023-08-08,1,,,,,スギノヤ,0
2228,8050001053258,新規,0,2023-08-08,2023-08-08,ワイズ株式会社,,株式会社,茨城県,日立市,金沢町３丁目１８番４号,,08,202,3160015,,,,,,,2023-08-08,1,,,,,ワイズ,0
2229,8050005013308,新規,0,2023-08-08,2023-08-08,一般社団法人日中教育産業促進協会,,その他の設立登記法人,茨城県,つくば市,島名５４１番地６,,08,220,3002655,,,,,,,2023-08-08,1,,,,,ニッチュウキョウイクサンギョウソクシンキョウカイ,0
2231,8060003004679,新規,0,2023-08-08,2023-08-08,ペリカン合同会社,,合同会社,栃木県,足利市,五十部町１３１―２,,09,202,3260843,,,,,,,2023-08-08,1,,,,,ペリカン,0
2234,8070001040717,新規,0,2023-08-08,2023-08-08,株式会社パースジム,,株式会社,群馬県,前橋市,前箱田町３８７－１、１２６号,,10,201,3710835,,,,,,,2023-08-08,1,,,,,,0
2236,8080001025782,新規,0,2023-08-08,2023-08-08,祐建工業株式会社,,株式会社,静岡県,藤枝市,天王町３丁目３番４号,,22,214,4260019,,,,,,,2023-08-08,1,,,,,ユウケンコウギョウ,0
2239,8080401026653,新規,0,2023-08-08,2023-08-08,株式会社ＡＬＢＡＳＴＲＵ　ＬＵＮＡ,,株式会社,静岡県,菊川市,加茂４９７２番地,,22,224,4390031,,,,,,,2023-08-08,1,,,,,アルバストルルナ,0
2240,8090001018249,新規,0,2023-08-08,2023-08-08,株式会社山本基礎,,株式会社,山梨県,甲斐市,大下条１４７９番地７,,19,210,4000126,,,,,,,2023-08-08,1,,,,,ヤマモトキソ,0
2253,8120001257074,新規,0,2023-08-08,2023-08-08,華晨貿易株式会社,,株式会社,大阪府,大阪市港区,南市岡３丁目１０－２グリシーヌ弁天町７０５号室,,27,107,5520011,,,,,,,2023-08-08,1,,,,,カシンボウエキ,0
2254,8120001257090,新規,0,2023-08-08,2023-08-08,株式会社ＩＮＺＭ,,株式会社,大阪府,大阪市都島区,東野田町５丁目２番２３号京橋セントラルビル７階,,27,102,5340024,,,,,,,2023-08-08,1,,,,,イナズマ,0
2255,8120003024456,新規,0,2023-08-08,2023-08-08,合同会社ＥＭＺＥＱ,,合同会社,大阪府,大阪市淀川区,東三国６丁目１６番７号ジョイフル新大阪３０２,,27,123,5320002,,,,,,,2023-08-08,1,,,,,エムゼック,0
2258,8120005023803,新規,0,2023-08-08,2023-08-08,光亜税理士法人,,その他の設立登記法人,大阪府,門真市,末広町３１番８号,,27,223,5710030,,,,,,,2023-08-08,1,,,,,コウア,0
2260,8120101068000,新規,0,2023-08-08,2023-08-08,株式会社Ｒ,,株式会社,大阪府,和泉市,光明台２丁目２２番１２号,,27,219,5941111,,,,,,,2023-08-08,1,,,,,アール,0
2261,8120101068033,新規,0,2023-08-08,2023-08-08,株式会社ＬＰＤ,,株式会社,大阪府,堺市南区,原山台１丁５番７－３０４号,,27,145,5900132,,,,,,,2023-08-08,1,,,,,エルピーディー,0
2262,8120103005372,新規,0,2023-08-08,2023-08-08,合同会社トリプル・ウィン,,合同会社,大阪府,泉大津市,森町２丁目４番１５号,,27,206,5950005,,,,,,,2023-08-08,1,,,,,トリプルウィン,0
2264,8120901024400,新規,0,2023-08-08,2023-08-08,大栄土木興業株式会社,,株式会社,大阪府,豊中市,穂積１丁目９番１８号,,27,203,5610856,,,,,,,2023-08-08,1,,,,,,0
2267,8120901047896,新規,0,2023-08-08,2023-08-08,株式会社ソーシャルケア・ブリッジ,,株式会社,大阪府,豊中市,中桜塚３丁目１０番２３号,,27,203,5610881,,,,,,,2023-08-08,1,,,,,ソーシャルケアブリッジ,0
2272,8130001074849,新規,0,2023-08-08,2023-08-08,株式会社仲田組,,株式会社,京都府,京都市北区,紫野西蓮台野町７１番地４０,,26,101,6038245,,,,,,,2023-08-08,1,,,,,ナカタグミ,0
2275,8130003008879,新規,0,2023-08-08,2023-08-08,合同会社ｍｏｍｏ,,合同会社,京都府,木津川市,城山台６丁目３１番地１２,,26,214,6190218,,,,,,,2023-08-08,1,,,,,モモ,0
2276,8140001131112,新規,0,2023-08-08,2023-08-08,株式会社ＡＣＯＴ,,株式会社,兵庫県,丹波篠山市,東吹３２５番地２,,28,221,6692202,,,,,,,2023-08-08,1,,,,,アコット,0
2277,8140001131129,新規,0,2023-08-08,2023-08-08,Ｍｏｖｉｅｉｎｇ株式会社,,株式会社,兵庫県,神戸市北区,山田町原野字城ケ岡２番地の７ゴールドウッズ箕谷第３ビルＢ１－５号,,28,109,6511252,,,,,,,2023-08-08,1,,,,,ムービング,0
2284,8150005009502,新規,0,2023-08-08,2023-08-08,特定非営利活動法人自立と平和,,その他の設立登記法人,奈良県,生駒郡平群町,初香台２丁目６番２６号,,29,342,6360934,,,,,,,2023-08-08,1,,,,,ジリツトヘイワ,0
2288,8160001025205,新規,0,2023-08-08,2023-08-08,株式会社Ｗｉｓｅ　Ｐｌａｎｎｉｎｇ,,株式会社,滋賀県,大津市,京町４丁目５番１３号澤甚本館ビル,,25,201,5200044,,,,,,,2023-08-08,1,,,,,ワイズプランニング,0
2289,8160001025246,新規,0,2023-08-08,2023-08-08,株式会社サンライズ物流システム,,株式会社,滋賀県,湖南市,吉永３３番地５,,25,211,5203222,,,,,,,2023-08-08,1,,,,,サンライズブツリュウシステム,0
2290,8160001025254,新規,0,2023-08-08,2023-08-08,株式会社マミッシュ８,,株式会社,滋賀県,草津市,追分８丁目１０番１１号,,25,206,5250047,,,,,,,2023-08-08,1,,,,,マミッシュエイト,0
2291,8170001017721,新規,0,2023-08-08,2023-08-08,株式会社観光産業研究所,,株式会社,和歌山県,伊都郡かつらぎ町,大字笠田東９７７番地の４,,30,341,6497161,,,,,,,2023-08-08,1,,,,,ワカヤマカンコウサンギョウケンキュウショ,0
2293,8180001157483,新規,0,2023-08-08,2023-08-08,株式会社Ａｃｔｉｖｅ　Ｃａｒｅｅｒ　Ｄｅｓｉｇｎ,,株式会社,愛知県,名古屋市中村区,名駅１丁目１番１号ＪＰタワー２１階,,23,105,4500002,,,,,,,2023-08-08,1,,,,,アクティブキャリアデザイン,0
2294,8180001157500,新規,0,2023-08-08,2023-08-08,株式会社ＬＪ　Ｐｒｅｃｉｓｉｏｎ,,株式会社,愛知県,名古屋市緑区,諸の木２丁目１１４番地,,23,114,4580817,,,,,,,2023-08-08,1,,,,,エルジェイプレシジョン,0
2295,8180001157541,新規,0,2023-08-08,2023-08-08,株式会社キャラベル,,株式会社,愛知県,日進市,岩崎町竹ノ山１４９番地８６１,,23,230,4700131,,,,,,,2023-08-08,1,,,,,キャラベル,0
2296,8180001157582,新規,0,2023-08-08,2023-08-08,株式会社Ｈｅｌｉｏｓ　Ｉｎｔｅｒｎａｔｉｎａｌ,,株式会社,愛知県,名古屋市中区,丸の内１丁目９番１６号丸の内Ｏｎｅビルディング６階,,23,106,4600002,,,,,,,2023-08-08,1,,,,,ヘリオスインターナショナル,0
2298,8180003025597,新規,0,2023-08-08,2023-08-08,ＡＴＡコンサルティング合同会社,,合同会社,愛知県,尾張旭市,庄南町１丁目８番地１４,,23,226,4880823,,,,,,,2023-08-08,1,,,,,アタコンサルティング,0
2299,8180301037625,新規,0,2023-08-08,2023-08-08,株式会社ＴＭＴ,,株式会社,愛知県,豊田市,若林東町宮間２２番地４,,23,211,4730914,,,,,,,2023-08-08,1,,,,,ティーエムティー,0
2300,8180301037641,新規,0,2023-08-08,2023-08-08,株式会社アルテスタテックス,,株式会社,愛知県,豊川市,宿町金山１１７番地,,23,207,4410101,,,,,,,2023-08-08,1,,,,,アルテスタテックス,0
2301,8180301037658,新規,0,2023-08-08,2023-08-08,マルマツ機工株式会社,,株式会社,愛知県,知立市,山屋敷町見社７９番地３,,23,225,4720022,,,,,,,2023-08-08,1,,,,,マルマツキコウ,0
2304,8190003004402,新規,0,2023-08-08,2023-08-08,合同会社ＳＮ商業,,合同会社,三重県,鈴鹿市,住吉町８３０９番地２,,24,207,5130825,,,,,,,2023-08-08,1,,,,,エスエヌショウギョウ,0
2308,8200003006041,新規,0,2023-08-08,2023-08-08,合同会社岐阜キャピタルパートナーズ,,合同会社,岐阜県,岐阜市,幸ノ町２丁目１９番地３,,21,201,5008409,,,,,,,2023-08-08,1,,,,,ギフキャピタルパートナーズ,0
2309,8210001019408,新規,0,2023-08-08,2023-08-08,株式会社ウッドワークス,,株式会社,福井県,福井市,和田２丁目１０１３番地サンガーデン和田２０５号室,,18,201,9188238,,,,,,,2023-08-08,1,,,,,ウッドワークス,0
2310,8220001025537,新規,0,2023-08-08,2023-08-08,株式会社ルポン,,株式会社,石川県,金沢市,小坂町中２０７番地,,17,201,9200811,,,,,,,2023-08-08,1,,,,,ルポン,0
2311,8220001025545,新規,0,2023-08-08,2023-08-08,株式会社犀星建設,,株式会社,石川県,金沢市,辰巳町ロ１１５番地５,,17,201,9201303,,,,,,,2023-08-08,1,,,,,サイセイケンセツ,0
2312,8230001019959,新規,0,2023-08-08,2023-08-08,株式会社ｉｚｕｍｉｓｕ,,株式会社,富山県,富山市,新根塚町３丁目１番地２,,16,201,9398205,,,,,,,2023-08-08,1,,,,,イズミス,0
2313,8230003002062,新規,0,2023-08-08,2023-08-08,Ｖａｒｉｏｕｓ．ｗｏｒｋ合同会社,,合同会社,富山県,高岡市,野村８４４－１３,,16,202,9330014,,,,,,,2023-08-08,1,,,,,ヴェリアスワーク,0
2316,8240001061927,新規,0,2023-08-08,2023-08-08,双成商事株式会社,,株式会社,広島県,三原市,中之町６丁目２０番２８号,,34,204,7230003,,,,,,,2023-08-08,1,,,,,ソウナリショウジ,0
2317,8240001061935,新規,0,2023-08-08,2023-08-08,株式会社Ｏお,,株式会社,広島県,広島市佐伯区,八幡３丁目２８番３０号,,34,108,7315116,,,,,,,2023-08-08,1,,,,,マルオ,0
2318,8240001061943,新規,0,2023-08-08,2023-08-08,株式会社アイオライト,,株式会社,広島県,広島市西区,南観音８丁目１４番２１－１００４号,,34,104,7330035,,,,,,,2023-08-08,1,,,,,アイオライト,0
2319,8240001061968,新規,0,2023-08-08,2023-08-08,トキワ工業株式会社,,株式会社,広島県,福山市,西深津町５丁目１５番２２号,,34,207,7210975,,,,,,,2023-08-08,1,,,,,,0
2324,8250003003331,新規,0,2023-08-08,2023-08-08,合同会社Ｔｈｒｏｕｇｈ,,合同会社,山口県,下関市,王喜本町５丁目２番３２－３号,,35,201,7501114,,,,,,,2023-08-08,1,,,,,スルー,0
2329,8260001038205,新規,0,2023-08-08,2023-08-08,株式会社リソース,,株式会社,岡山県,岡山市東区,瀬戸町笹岡８０２番地１,,33,103,7090862,,,,,,,2023-08-08,1,,,,,リソース,0
2330,8260001038213,新規,0,2023-08-08,2023-08-08,株式会社エムジェイ通商,,株式会社,岡山県,倉敷市,生坂２２４３番地４,,33,202,7100002,,,,,,,2023-08-08,1,,,,,エムジェイツウショウ,0
2339,8290001102536,新規,0,2023-08-08,2023-08-08,株式会社Ｇｏｏｄｔｉｍｅ　ｅｖｅｒ,,株式会社,福岡県,宗像市,自由ヶ丘５丁目９番７号,,40,220,8114163,,,,,,,2023-08-08,1,,,,,グットタイムエバー,0
2340,8290001102602,新規,0,2023-08-08,2023-08-08,株式会社グランドデザイン,,株式会社,福岡県,福岡市早良区,百道浜１丁目３番７０号,,40,137,8140001,,,,,,,2023-08-08,1,,,,,グランドデザイン,0
2341,8290001102619,新規,0,2023-08-08,2023-08-08,株式会社ＧＯＬＤＧＲＡＴＩＯＮ,,株式会社,福岡県,福岡市中央区,大宮１丁目６番２６－１０２号,,40,133,8100013,,,,,,,2023-08-08,1,,,,,ゴールドグレーション,0
2346,8290003014201,新規,0,2023-08-08,2023-08-08,ＡＳＭ合同会社,,合同会社,福岡県,福岡市早良区,昭代３丁目７番５－１０２号,,40,137,8140012,,,,,,,2023-08-08,1,,,,,エイエスエム,0
2347,8290801029763,新規,0,2023-08-08,2023-08-08,株式会社あさひ計装,,株式会社,福岡県,北九州市小倉北区,南丘２丁目１１番１８号,,40,106,8030863,,,,,,,2023-08-08,1,,,,,アサヒケイソウ,0
2348,8290801029771,新規,0,2023-08-08,2023-08-08,株式会社ＮＡＫＡＧＡＷＡ,,株式会社,福岡県,直方市,大字頓野１３３９番地８,,40,204,8220002,,,,,,,2023-08-08,1,,,,,ナカガワ,0
2353,8310001018556,新規,0,2023-08-08,2023-08-08,株式会社大寿企画,,株式会社,長崎県,長崎市,八幡町３番２４号,,42,201,8500801,,,,,,,2023-08-08,1,,,,,ダイジュキカク,0
2359,8360001032387,新規,0,2023-08-08,2023-08-08,株式会社パーフェクトＦ,,株式会社,沖縄県,那覇市,字松川３６２番地１,,47,201,9020062,,,,,,,2023-08-08,1,,,,,パーフェクトエフ,0
2364,8360003013170,新規,0,2023-08-08,2023-08-08,合同会社ＳＯＲＡ,,合同会社,沖縄県,宮古島市,平良字荷川取６７２番地３,,47,214,9060008,,,,,,,2023-08-08,1,,,,,ソラ,0
2365,8360005006890,新規,0,2023-08-08,2023-08-08,一般社団法人安巧業共栄会,,その他の設立登記法人,沖縄県,うるま市,みどり町４丁目１番８号,,47,213,9042215,,,,,,,2023-08-08,1,,,,,ヤスコウギョウキョウエイカイ,0
2366,8370001050272,新規,0,2023-08-08,2023-08-08,株式会社ＫＳＩ,,株式会社,宮城県,多賀城市,高崎２丁目３番６号フォルテッシモＡ棟,,04,209,9850862,,,,,,,2023-08-08,1,,,,,ケーエスアイ,0
2370,8390001017344,新規,0,2023-08-08,2023-08-08,すまーと株式会社,,株式会社,山形県,酒田市,松原南９番地の１７,,06,204,9980841,,,,,,,2023-08-08,1,,,,,スマート,0
2371,8390005009024,新規,0,2023-08-08,2023-08-08,特定非営利活動法人レイアクト,,その他の設立登記法人,山形県,山形市,七日町１丁目２－５３メゾンドール２０６,,06,201,9900042,,,,,,,2023-08-08,1,,,,,レイアクト,0
2373,8430005014754,新規,0,2023-08-08,2023-08-08,一般社団法人空夢,,その他の設立登記法人,北海道,夕張郡栗山町,角田２６８番地１,,01,429,0691524,,,,,,,2023-08-08,1,,,,,ソラユメ,0
2377,8470001019745,新規,0,2023-08-08,2023-08-08,株式会社水の葉設計社,,株式会社,香川県,丸亀市,垂水町１２６２番地１,,37,202,7630095,,,,,,,2023-08-08,1,,,,,ミズノハセッケイシャ,0
2384,8480001012170,新規,0,2023-08-08,2023-08-08,株式会社ＢＲＡＮＴＥＣ,,株式会社,徳島県,徳島市,西船場町３丁目１２ラビーナス西船場２０３,,36,201,7700901,,,,,,,2023-08-08,1,,,,,ブランテック,0
2385,8480001012179,新規,0,2023-08-08,2023-08-08,ホーネスト株式会社,,株式会社,徳島県,吉野川市,鴨島町喜来２２０番地２,,36,205,7760005,,,,,,,2023-08-08,1,,,,,ホーネスト,0
2387,8500003003074,新規,0,2023-08-08,2023-08-08,合同会社桜と共に生きる,,合同会社,愛媛県,西条市,中奥１号２,,38,206,7930214,,,,,,,2023-08-08,1,,,,,サクラトトモニイキル,0
2388,8700150118869,新規,0,2023-08-08,2023-08-08,ｚｈｏｎｇｓｈａｎｓｈｉｙａｎｇｇｕｏｄｉａｎｚｉｋｅｊｉｙｏｕｘｉａｎｇｏｎｇｓｉ,,外国会社等,,,,,,,,ｘｉａｏｌａｎｚｈｅｎｈｕａｙｕａｎｌｕ９ｈａｏｓａｎｌｏｕｚｈｉｅｒｊｉｓｉｌｏｕ　ｚｈｏｎｇｓｈａｎ　ｇｕａｎｇｄｏｎｇ　５２８４１５　ＣＮ,,,,,,2023-08-08,1,,,,,ジョンシャンシーヤングオディエンズーコージーヨウシエンゴンスー,0
2389,8700150118877,新規,0,2023-08-08,2023-08-08,Ｇｕａｎｇｚｈｏｕ　Ｃａｒ　Ｍｉ　Ｎｉ　Ｔｒａｄｉｎｇ　Ｃｏ．，Ｌｔｄ,,外国会社等,,,,,,,,Ｒｏｏｍ　３０３，Ｎｏ．６２，Ｈｕａｍｅｉ　Ｒｏａｄ，Ｔｉａｎｈｅ　Ｄｉｓｔｒｉｃｔ，Ｇｕａｎｇｚｈｏｕ,,,,,,2023-08-08,1,,,,,グワンジョウチョーミーニーマオイーヨウシエンゴンスー,0
2396,9010001237482,新規,0,2023-08-08,2023-08-08,株式会社Ｅｓｐｏｉｒ,,株式会社,東京都,千代田区,神田須田町１丁目２０番地１ルフォンプログレ神田プレミア４０１号,,13,101,1010041,,,,,,,2023-08-08,1,,,,,エスポワール,0
2397,9010001237524,新規,0,2023-08-08,2023-08-08,美鶴ヒューマンラボ株式会社,,株式会社,東京都,中央区,銀座７丁目１５番８号,,13,102,1040061,,,,,,,2023-08-08,1,,,,,ミツルヒューマンラボ,0
2398,9010001237581,新規,0,2023-08-08,2023-08-08,株式会社Ｍｅｌｉｎ,,株式会社,東京都,中央区,銀座１丁目１２番４号Ｎ＆ＥＢＬＤ．６Ｆ,,13,102,1040061,,,,,,,2023-08-08,1,,,,,メリン,0
2406,9010101015755,新規,0,2023-08-08,2023-08-08,株式会社ｙｕｋｉ,,株式会社,東京都,八王子市,左入町９６３番地３、２Ｆ,,13,201,1920012,,,,,,,2023-08-08,1,,,,,ユウキ,0
2413,9010401176149,新規,0,2023-08-08,2023-08-08,株式会社ＨＳＴ,,株式会社,東京都,港区,西麻布１丁目５番１９号西麻布スクエア３階,,13,103,1060031,,,,,,,2023-08-08,1,,,,,エイチエスティ,0
2414,9010401176157,新規,0,2023-08-08,2023-08-08,ＭＹコンサルティング株式会社,,株式会社,東京都,港区,港南４丁目６番７,,13,103,1080075,,,,,,,2023-08-08,1,,,,,マイコンサルティング,0
2416,9010403030626,新規,0,2023-08-08,2023-08-08,合同会社Ｐ．Ｍ．Ｃ　ＤＥＳＩＧＮ　ＳＴＵＤＩＯ　ＩＮＣ．,,合同会社,東京都,港区,六本木７丁目１２番２号Ｒ７ビルディングＳＰＡＣＥＳ六本木,,13,103,1060032,,,,,,,2023-08-08,1,,,,,ピーエムシーデザインスタジオインク,0
2418,9010501050848,新規,0,2023-08-08,2023-08-08,三和株式会社,,株式会社,東京都,台東区,下谷１丁目５番２－１０１,,13,106,1100004,,,,,,,2023-08-08,1,,,,,サンワ,0
2419,9010501050872,新規,0,2023-08-08,2023-08-08,Ａｐｐｌｕｘ株式会社,,株式会社,東京都,台東区,根岸１丁目６番１２－６０３号,,13,106,1100003,,,,,,,2023-08-08,1,,,,,アップルクス,0
2421,9010503007111,新規,0,2023-08-08,2023-08-08,合同会社ルブレイ,,合同会社,東京都,台東区,下谷２丁目１５番１２号,,13,106,1100004,,,,,,,2023-08-08,1,,,,,ルブレイ,0
2427,9010701044690,新規,0,2023-08-08,2023-08-08,１３株式会社,,株式会社,東京都,品川区,豊町６丁目１２番６号オーキッドレジデンス戸越公園７０１,,13,109,1420042,,,,,,,2023-08-08,1,,,,,ジュウサン,0
2428,9010703006805,新規,0,2023-08-08,2023-08-08,合同会社兵頭,,合同会社,東京都,品川区,大崎２丁目１番２号ウエストレジデンス大崎１２０３,,13,109,1410032,,,,,,,2023-08-08,1,,,,,ヒョウドウ,0
2431,9010803004626,新規,0,2023-08-08,2023-08-08,テルケル合同会社,,合同会社,東京都,大田区,東馬込１丁目２２番４－５０２号,,13,111,1430022,,,,,,,2023-08-08,1,,,,,テルケル,0
2439,9011003017311,新規,0,2023-08-08,2023-08-08,合同会社ミックスデザイン,,合同会社,東京都,渋谷区,神泉町１０番１５号,,13,113,1500045,,,,,,,2023-08-08,1,,,,,ミックスデザイン,0
2443,9011101103871,新規,0,2023-08-08,2023-08-08,株式会社ＸＥＲＯ　Ｇｒｏｕｐ,,株式会社,東京都,新宿区,５－１１－１３富士新宿ビル４階,,13,104,1600000,,,,,,,2023-08-08,1,,,,,ゼログループ,0
2444,9011101103913,新規,0,2023-08-08,2023-08-08,日本大陽株式会社,,株式会社,東京都,新宿区,榎町３４－３榎町ビル７階－２３室,,13,104,1620806,,,,,,,2023-08-08,1,,,,,ニホンダイヨウ,0
2445,9011101103921,新規,0,2023-08-08,2023-08-08,株式会社ｓａｎｗｉｎ,,株式会社,東京都,新宿区,西新宿３丁目３番１３号西新宿水間ビル２Ｆ,,13,104,1600023,,,,,,,2023-08-08,1,,,,,サンウィン,0
2446,9011101103938,新規,0,2023-08-08,2023-08-08,株式会社ＭＭ,,株式会社,東京都,新宿区,百人町１丁目１番４号ＴＫビル５階,,13,104,1690073,,,,,,,2023-08-08,1,,,,,エムエム,0
2448,9011103013342,新規,0,2023-08-08,2023-08-08,ＤＸ　ＨＩＧＨ合同会社,,合同会社,東京都,新宿区,西新宿３丁目３番１３号西新宿水間ビル６階,,13,104,1600023,,,,,,,2023-08-08,1,,,,,ディーエックスハイ,0
2454,9011503005708,新規,0,2023-08-08,2023-08-08,合同会社オクス開発,,合同会社,東京都,北区,上十条５丁目２４番５号,,13,117,1140034,,,,,,,2023-08-08,1,,,,,オクスカイハツ,0
2459,9011801042849,新規,0,2023-08-08,2023-08-08,株式会社インテリアＹ．ｓ,,株式会社,東京都,足立区,六月１丁目２０－３,,13,121,1210814,,,,,,,2023-08-08,1,,,,,インテリアワイズ,0
2460,9011801042857,新規,0,2023-08-08,2023-08-08,株式会社神明水道,,株式会社,東京都,足立区,神明３丁目１１番１１号,,13,121,1210051,,,,,,,2023-08-08,1,,,,,シンメイスイドウ,0
2462,9012401040821,新規,0,2023-08-08,2023-08-08,株式会社コスモドリーム,,株式会社,東京都,調布市,多摩川１丁目２９番地１５調布ザ・センチュリー７２４号室,,13,208,1820025,,,,,,,2023-08-08,1,,,,,コスモドリーム,0
2464,9012803003153,新規,0,2023-08-08,2023-08-08,合同会社Ｆｏｒｔｕｎｅ　Ｒｉｖｅｒ,,合同会社,東京都,日野市,南平４丁目７－２２,,13,212,1910041,,,,,,,2023-08-08,1,,,,,フォーチュンリバー,0
2470,9020001152854,新規,0,2023-08-08,2023-08-08,株式会社トラストプラン,,株式会社,神奈川県,横浜市都筑区,東山田町１２４６番地１,,14,118,2240024,,,,,,,2023-08-08,1,,,,,トラストプラン,0
2471,9020001152862,新規,0,2023-08-08,2023-08-08,株式会社Ａｒｉｎ,,株式会社,神奈川県,横浜市戸塚区,下倉田町５５５番地第一山仁ハイツ４０４,,14,110,2440815,,,,,,,2023-08-08,1,,,,,アリン,0
2472,9020001152879,新規,0,2023-08-08,2023-08-08,株式会社ベルフィーユ,,株式会社,神奈川県,横浜市金沢区,釜利谷東２丁目１４番１３号２階,,14,108,2360042,,,,,,,2023-08-08,1,,,,,ベルフィーユ,0
2473,9020001152961,新規,0,2023-08-08,2023-08-08,株式会社タートルプロサービス,,株式会社,神奈川県,川崎市高津区,久末６８３番地２,,14,134,2130026,,,,,,,2023-08-08,1,,,,,タートルプロサービス,0
2479,9021001079798,新規,0,2023-08-08,2023-08-08,株式会社クラゲハウジング,,株式会社,神奈川県,相模原市中央区,緑が丘１丁目３番２号,,14,152,2520225,,,,,,,2023-08-08,1,,,,,クラゲハウジング,0
2482,9021003013409,新規,0,2023-08-08,2023-08-08,Ｃｈａｒｌｉｅ’ｓ　ＨＯＵＳＥ合同会社,,合同会社,神奈川県,中郡大磯町,東小磯９５５－１２,,14,341,2550004,,,,,,,2023-08-08,1,,,,,チャーリーズハウス,0
2483,9021005012870,新規,0,2023-08-08,2023-08-08,一般社団法人ＵＭＭＵＨＡＢＥＥＢＡＨ　ＦＯＵＮＤＡＴＩＯＮ　ＦＯＲ　ＣＯＭＭＵＮＩＴＹ　ＤＥＶＥＬＯＰＭＥＮＴ,,その他の設立登記法人,神奈川県,座間市,新田宿８５２ラーク座間１０２,,14,216,2520026,,,,,,,2023-08-08,1,,,,,ウンムハビーバファウンデーションフォーコミュニティデベロップメント,0
2484,9021005012879,新規,0,2023-08-08,2023-08-08,特定非営利活動法人ヒマラヤの星たち,,その他の設立登記法人,神奈川県,足柄下郡湯河原町,土肥４丁目８番地の９,,14,384,2590303,,,,,,,2023-08-08,1,,,,,ヒマラヤノホシタチ,0
2488,9030001155047,新規,0,2023-08-08,2023-08-08,株式会社Ｙｏｓｈｉ　Ｈｏｍｅ,,株式会社,埼玉県,草加市,谷塚仲町２９０番地１０,,11,221,3400025,,,,,,,2023-08-08,1,,,,,ヨシホーム,0
2489,9030001155055,新規,0,2023-08-08,2023-08-08,ピクセルメディア株式会社,,株式会社,埼玉県,さいたま市大宮区,大原６丁目６番１９号,,11,103,3300836,,,,,,,2023-08-08,1,,,,,ピクセルメディア,0
2490,9030001155187,新規,0,2023-08-08,2023-08-08,株式会社富一,,株式会社,埼玉県,所沢市,大字山口１４４２番地８,,11,208,3591145,,,,,,,2023-08-08,1,,,,,トミイチ,0
2491,9030001155352,新規,0,2023-08-08,2023-08-08,セコイア株式会社,,株式会社,埼玉県,幸手市,中５丁目５番２０号,,11,240,3400115,,,,,,,2023-08-08,1,,,,,セコイア,0
2492,9030001155385,新規,0,2023-08-08,2023-08-08,株式会社トライフォース,,株式会社,埼玉県,草加市,青柳２丁目３番２２号,,11,221,3400002,,,,,,,2023-08-08,1,,,,,トライフォース,0
2495,9030003022245,新規,0,2023-08-08,2023-08-08,ＹＳＫ合同会社,,合同会社,埼玉県,川越市,大字大袋新田４４６番地５,,11,201,3501167,,,,,,,2023-08-08,1,,,,,ワイエスケイ,0
2496,9030003022278,新規,0,2023-08-08,2023-08-08,合同会社ダイダイダイカンパニー,,合同会社,埼玉県,狭山市,笹井３丁目４番３１号いーぐるえいとＢ２０１,,11,215,3501327,,,,,,,2023-08-08,1,,,,,ダイダイダイカンパニー,0
2500,9040001129545,新規,0,2023-08-08,2023-08-08,浩天株式会社,,株式会社,千葉県,千葉市中央区,道場北１丁目４番３２－３号,,12,101,2600006,,,,,,,2023-08-08,1,,,,,コウテン,0
2501,9040001129561,新規,0,2023-08-08,2023-08-08,株式会社Ｌｕｎａ‐Ｇｉｏ,,株式会社,千葉県,市川市,妙典５丁目１３番３３号,,12,203,2720111,,,,,,,2023-08-08,1,,,,,ルナジオ,0
2506,9050001053281,新規,0,2023-08-08,2023-08-08,株式会社ＫＵＲＡ　ｍａｎａｇｅｍｅｎｔ,,株式会社,茨城県,つくば市,小野川１３番地２１,,08,220,3050053,,,,,,,2023-08-08,1,,,,,クラマネジメント,0
2510,9060001036244,新規,0,2023-08-08,2023-08-08,ＡＣＳ株式会社,,株式会社,栃木県,栃木市,箱森町２４番１４－１０号,,09,203,3280075,,,,,,,2023-08-08,1,,,,,エーシーエス,0
2515,9070001040716,新規,0,2023-08-08,2023-08-08,株式会社ケイプロテクス,,株式会社,群馬県,館林市,青柳町１９５５番地の１,,10,207,3740035,,,,,,,2023-08-08,1,,,,,ケイプロテクス,0
2516,9070001040732,新規,0,2023-08-08,2023-08-08,株式会社アメリオレラボ,,株式会社,群馬県,前橋市,前箱田町３８７－１－１２６号,,10,201,3710835,,,,,,,2023-08-08,1,,,,,アメリオレラボ,0
2520,9080001025781,新規,0,2023-08-08,2023-08-08,株式会社天友,,株式会社,静岡県,静岡市葵区,西千代田町１３番１４号,,22,101,4200847,,,,,,,2023-08-08,1,,,,,テンユウ,0
2521,9080003003026,新規,0,2023-08-08,2023-08-08,合同会社Ｓ＆Ｄ,,合同会社,静岡県,静岡市清水区,高橋南町６番５－３号,,22,103,4240042,,,,,,,2023-08-08,1,,,,,エスアンドディー,0
2522,9080005007553,新規,0,2023-08-08,2023-08-08,レジスト行政書士法人,,その他の設立登記法人,静岡県,静岡市葵区,駿府町１番４７号藤ビル４階,,22,101,4200856,,,,,,,2023-08-08,1,,,,,レジスト,0
2523,9080101024155,新規,0,2023-08-08,2023-08-08,株式会社大博建設,,株式会社,静岡県,富士宮市,北山４３８０番地,,22,207,4180112,,,,,,,2023-08-08,1,,,,,ダイハクケンセツ,0
2524,9080103002869,新規,0,2023-08-08,2023-08-08,合同会社ＭＩＣＲＥＡＲ,,合同会社,静岡県,伊東市,竹の内１丁目３番１２号ベルプラス伊東２Ｆ,,22,208,4140027,,,,,,,2023-08-08,1,,,,,ミクリア,0
2526,9080401026644,新規,0,2023-08-08,2023-08-08,株式会社ＧＡＬＬＥＹＬＡ,,株式会社,静岡県,湖西市,太田１２７６番地の１７０,,22,221,4310404,,,,,,,2023-08-08,1,,,,,ガレーラ,0
2527,9080401026660,新規,0,2023-08-08,2023-08-08,八六商店株式会社,,株式会社,静岡県,浜松市中区,鍛冶町１００番地の１ザザシティ浜松中央会館Ｂ１Ｆ,,22,131,4300933,,,,,,,2023-08-08,1,,,,,ハチロクショウテン,0
2530,9080405007566,新規,0,2023-08-08,2023-08-08,特定非営利活動法人俳句音楽研究会,,その他の設立登記法人,静岡県,浜松市中区,助信町２７番５号,,22,131,4300903,,,,,,,2023-08-08,1,,,,,ハイクオンガクケンキュウカイ,0
2534,9100001036660,新規,0,2023-08-08,2023-08-08,株式会社ＳＡＷＡ,,株式会社,長野県,上田市,中央１丁目８番８号,,20,203,3860012,,,,,,,2023-08-08,1,,,,,サワ,0
2549,9120001257024,新規,0,2023-08-08,2023-08-08,株式会社ミスターベンリー,,株式会社,大阪府,大阪市浪速区,湊町２丁目１番７号,,27,111,5560017,,,,,,,2023-08-08,1,,,,,ミスターベンリー,0
2550,9120001257098,新規,0,2023-08-08,2023-08-08,スタートハイプ株式会社,,株式会社,大阪府,大阪市中央区,淡路町１丁目３番２号紀陽オリエントビル６Ｆ６０６号室,,27,128,5410047,,,,,,,2023-08-08,1,,,,,スタートハイプ,0
2551,9120001257206,新規,0,2023-08-08,2023-08-08,スタイルクリエーション株式会社,,株式会社,大阪府,大阪市北区,東天満２丁目２番５号,,27,127,5300044,,,,,,,2023-08-08,1,,,,,スタイルクリエーション,0
2552,9120001257296,新規,0,2023-08-08,2023-08-08,株式会社共創経営,,株式会社,大阪府,大阪市北区,西天満４丁目３番４号,,27,127,5300047,,,,,,,2023-08-08,1,,,,,キョウソウケイエイ,0
2556,9120003024637,新規,0,2023-08-08,2023-08-08,合同会社Ｐ＆Ｉ,,合同会社,大阪府,大阪市平野区,喜連西１丁目１６番３－１０３号,,27,126,5470026,,,,,,,2023-08-08,1,,,,,ピーアンドアイ,0
2557,9120101068008,新規,0,2023-08-08,2023-08-08,株式会社ＷＩＬＬＯＮＥ,,株式会社,大阪府,堺市堺区,柳之町西１丁１番３０号,,27,141,5900930,,,,,,,2023-08-08,1,,,,,ウイルワン,0
2558,9120101068016,新規,0,2023-08-08,2023-08-08,経営者デザイン株式会社,,株式会社,大阪府,阪南市,鳥取９６１番６,,27,232,5990204,,,,,,,2023-08-08,1,,,,,,0
2559,9120101068040,新規,0,2023-08-08,2023-08-08,株式会社ＤＴＨ　Ｔｒａｖｅｌ　Ｊａｐａｎ,,株式会社,大阪府,堺市西区,北条町２丁１４番１号,,27,144,5938302,,,,,,,2023-08-08,1,,,,,ディーティーエイチジャパン,0
2561,9120103005371,新規,0,2023-08-08,2023-08-08,合同会社ＰＡＲＵ,,合同会社,大阪府,和泉市,府中町８６３番地の１,,27,219,5940071,,,,,,,2023-08-08,1,,,,,パル,0
2565,9122001037216,新規,0,2023-08-08,2023-08-08,株式会社槙野建匠,,株式会社,大阪府,東大阪市,松原１丁目２４番２０号,,27,227,5780922,,,,,,,2023-08-08,1,,,,,マキノケンショウ,0
2566,9122001037224,新規,0,2023-08-08,2023-08-08,株式会社ヘアークリエイションクラフト,,株式会社,大阪府,東大阪市,金岡２丁目１５番１号,,27,227,5770823,,,,,,,2023-08-08,1,,,,,ヘアークリエイションクラフト,0
2568,9130001074880,新規,0,2023-08-08,2023-08-08,株式会社Ｋａｓｈｉｄａ,,株式会社,京都府,京都市左京区,吉田上阿達町７番地１１,,26,103,6068307,,,,,,,2023-08-08,1,,,,,カシダ,0
2573,9140001131094,新規,0,2023-08-08,2023-08-08,株式会社ＴＯＰＧＵＮｃｏｌｏｒｓ,,株式会社,兵庫県,神戸市灘区,鶴甲３丁目１５番２号,,28,102,6570011,,,,,,,2023-08-08,1,,,,,トップガンカラーズ,0
2576,9140005026695,新規,0,2023-08-08,2023-08-08,一般財団法人トモコ財団,,その他の設立登記法人,兵庫県,三田市,大畑字清水３７０番地３,,28,219,6691354,,,,,,,2023-08-08,1,,,,,トモコザイダン,0
2578,9160001025253,新規,0,2023-08-08,2023-08-08,エグゼテック株式会社,,株式会社,滋賀県,近江八幡市,日吉野町３８９番地,,25,204,5230033,,,,,,,2023-08-08,1,,,,,エグゼテック,0
2579,9160003002952,新規,0,2023-08-08,2023-08-08,合同会社みよし,,合同会社,滋賀県,守山市,古高町２９３番地,,25,207,5240044,,,,,,,2023-08-08,1,,,,,ミヨシ,0
2580,9170001017720,新規,0,2023-08-08,2023-08-08,株式会社峠のうなぎ,,株式会社,和歌山県,和歌山市,畑屋敷中ノ丁１４番地,,30,201,6408395,,,,,,,2023-08-08,1,,,,,トウゲノウナギ,0
2584,9180001157482,新規,0,2023-08-08,2023-08-08,株式会社Ａ‐Ｄｒｅａｍ,,株式会社,愛知県,名古屋市守山区,八剣２丁目２００７番地の１,,23,113,4630022,,,,,,,2023-08-08,1,,,,,エードリーム,0
2585,9180001157581,新規,0,2023-08-08,2023-08-08,株式会社ひかり,,株式会社,愛知県,名古屋市中区,丸の内１丁目９番１６号丸の内Ｏｎｅビルディング６階,,23,106,4600002,,,,,,,2023-08-08,1,,,,,ヒカリ,0
2588,9180301037640,新規,0,2023-08-08,2023-08-08,株式会社安城貿易豊橋工場,,株式会社,愛知県,豊橋市,磯辺下地町字下沢７１番６,,23,201,4418144,,,,,,,2023-08-08,1,,,,,アンジョウボウエキトヨハシコウジョウ,0
2589,9180301037657,新規,0,2023-08-08,2023-08-08,株式会社ＢＥＸ,,株式会社,愛知県,豊田市,西山町２丁目６番地３,,23,211,4710062,,,,,,,2023-08-08,1,,,,,ベックス,0
2595,9190001030639,新規,0,2023-08-08,2023-08-08,株式会社Ｓｅｌｆ‐Ｅｓｔｅｅｍ　Ｗｏｒｋｓ,,株式会社,三重県,三重郡菰野町,大字菰野２９５４番地９,,24,341,5101233,,,,,,,2023-08-08,1,,,,,セルフエスティームワークス,0
2600,9200001041592,新規,0,2023-08-08,2023-08-08,株式会社中部創建,,株式会社,岐阜県,本巣郡北方町,高屋白木１丁目２４番地,,21,421,5010454,,,,,,,2023-08-08,1,,,,,チュウブソウケン,0
2601,9210001019415,新規,0,2023-08-08,2023-08-08,株式会社アラリード,,株式会社,福井県,坂井市,丸岡町熊堂３－７－１－１６,,18,210,9100347,,,,,,,2023-08-08,1,,,,,アラリード,0
2602,9210001019423,新規,0,2023-08-08,2023-08-08,株式会社ＫＰＣ,,株式会社,福井県,あわら市,北潟第５９号１６番地３,,18,208,9104272,,,,,,,2023-08-08,1,,,,,ケーピーシー,0
2603,9220001025536,新規,0,2023-08-08,2023-08-08,株式会社Ｌｉｖｅｌｕｓ,,株式会社,石川県,羽咋郡宝達志水町,今浜北２９番地,,17,386,9291344,,,,,,,2023-08-08,1,,,,,リブラス,0
2605,9230003002061,新規,0,2023-08-08,2023-08-08,ワークプラス合同会社,,合同会社,富山県,高岡市,木津１２５３番地７,,16,202,9330857,,,,,,,2023-08-08,1,,,,,ワークプラス,0
2609,9240001061934,新規,0,2023-08-08,2023-08-08,ジェイマックス株式会社,,株式会社,広島県,広島市西区,横川町２丁目１２番１７－１４０２号,,34,104,7330011,,,,,,,2023-08-08,1,,,,,ジェイマックス,0
2610,9240001061959,新規,0,2023-08-08,2023-08-08,ＰａｌｍＴｒｅｅＤｅｓｉｇｎ株式会社,,株式会社,広島県,広島市中区,大手町１丁目１番２０号相生橋ビル７階Ａ号室,,34,101,7300051,,,,,,,2023-08-08,1,,,,,パームツリーデザイン,0
2617,9250001020212,新規,0,2023-08-08,2023-08-08,Ｈａｂｉｔａｔ株式会社,,株式会社,山口県,周南市,大字夜市２５４０番地１,,35,215,7460084,,,,,,,2023-08-08,1,,,,,ハビタット,0
2622,9250003003330,新規,0,2023-08-08,2023-08-08,合同会社ＳＡＭＵＲＡＩ,,合同会社,山口県,下関市,新地町４番２１号,,35,201,7500063,,,,,,,2023-08-08,1,,,,,サムライ,0
2624,9260001038187,新規,0,2023-08-08,2023-08-08,株式会社ＡＰ,,株式会社,岡山県,倉敷市,四十瀬２０５－１－Ｃ１０２,,33,202,7100835,,,,,,,2023-08-08,1,,,,,エーピー,0
2625,9260001038195,新規,0,2023-08-08,2023-08-08,株式会社ＴＯＩＲＯ,,株式会社,岡山県,岡山市東区,吉井３６１番地５,,33,103,7090601,,,,,,,2023-08-08,1,,,,,トイロ,0
2631,9290001102519,新規,0,2023-08-08,2023-08-08,株式会社ウッドサイン,,株式会社,福岡県,三潴郡大木町,大字横溝１２６番地１,,40,522,8300405,,,,,,,2023-08-08,1,,,,,ウッドサイン,0
2632,9290001102535,新規,0,2023-08-08,2023-08-08,株式会社ＩＫＯＫＡ,,株式会社,福岡県,福岡市中央区,草香江２丁目８番３号草香江スカイハイツ１０１,,40,133,8100045,,,,,,,2023-08-08,1,,,,,イコカ,0
2633,9290001102568,新規,0,2023-08-08,2023-08-08,株式会社ＭＡＡＬＩＮＧ,,株式会社,福岡県,福岡市中央区,天神２丁目３番１０号天神パインクレスト７１９号,,40,133,8100001,,,,,,,2023-08-08,1,,,,,マーリング,0
2634,9290001102601,新規,0,2023-08-08,2023-08-08,株式会社Ｋ’ｚテック,,株式会社,福岡県,糟屋郡篠栗町,和田２丁目２９番１２号,,40,342,8112414,,,,,,,2023-08-08,1,,,,,ケイズテック,0
2635,9290001102618,新規,0,2023-08-08,2023-08-08,株式会社ｋｕｕｈａｃｋ,,株式会社,福岡県,福岡市中央区,梅光園１丁目２番１７号,,40,133,8100035,,,,,,,2023-08-08,1,,,,,クウハク,0
2638,9290003014209,新規,0,2023-08-08,2023-08-08,合同会社Ｃ．Ｃ．Ｙ,,合同会社,福岡県,福岡市博多区,店屋町４番８－５０６号,,40,132,8120025,,,,,,,2023-08-08,1,,,,,シーシーワイ,0
2639,9290003014217,新規,0,2023-08-08,2023-08-08,ＦｕｊｉｋａｗａＧＴ合同会社,,合同会社,福岡県,福岡市中央区,地行浜２丁目２番４－３０９号ザ・パークハウス福岡タワーズＷＥＳＴ,,40,133,8100065,,,,,,,2023-08-08,1,,,,,フジカワジーティー,0
2640,9290801029762,新規,0,2023-08-08,2023-08-08,株式会社北九州総合設備,,株式会社,福岡県,北九州市八幡西区,香月中央５丁目５番３号（２０２）,,40,109,8071102,,,,,,,2023-08-08,1,,,,,キタキュウシュウソウゴウセツビ,0
2641,9290801029770,新規,0,2023-08-08,2023-08-08,株式会社Ｔ．Ｈ．Ｓテック,,株式会社,福岡県,京都郡苅田町,大字馬場４１３番地４,,40,621,8000362,,,,,,,2023-08-08,1,,,,,ティーエイチエステック,0
2642,9300001013425,新規,0,2023-08-08,2023-08-08,株式会社ＰＩＣＡＮＥＳＴ,,株式会社,佐賀県,鳥栖市,元町１３３７番地５,,41,203,8410051,,,,,,,2023-08-08,1,,,,,ピカネスト,0
2643,9310001018547,新規,0,2023-08-08,2023-08-08,株式会社村川蒲鉾フーズクリアＨＭ,,株式会社,長崎県,諫早市,鶴田町３５番地,,42,204,8540122,,,,,,,2023-08-08,1,,,,,ムラカワカマボコフーズクリアエイチエム,0
2649,9320001019932,新規,0,2023-08-08,2023-08-08,株式会社ｒｏｋｕ,,株式会社,大分県,大分市,大字迫１００４番地の１,,44,201,8700272,,,,,,,2023-08-08,1,,,,,ロク,0
2658,9350001018477,新規,0,2023-08-08,2023-08-08,株式会社金丸塗装工業,,株式会社,宮崎県,延岡市,南一ケ岡４丁目７番１０号,,45,203,8890506,,,,,,,2023-08-08,1,,,,,カネマルトソウコウギョウ,0
2659,9360001032361,新規,0,2023-08-08,2023-08-08,山本商店沖縄うるま株式会社,,株式会社,沖縄県,うるま市,勝連浜１９番地,,47,213,9042315,,,,,,,2023-08-08,1,,,,,ヤマモトショウテンオキナワウルマ,0
2660,9360001032378,新規,0,2023-08-08,2023-08-08,株式会社與那覇土建,,株式会社,沖縄県,那覇市,首里金城町３丁目６３番地,,47,201,9030815,,,,,,,2023-08-08,1,,,,,ヨナハドケン,0
2665,9390001017343,新規,0,2023-08-08,2023-08-08,結コネクトカンパニー株式会社,,株式会社,山形県,米沢市,中央４丁目１番２１－８０１号,,06,202,9920045,,,,,,,2023-08-08,1,,,,,ユイコネクトカンパニー,0
2669,9420001018354,新規,0,2023-08-08,2023-08-08,Ｎシステムズ株式会社,,株式会社,青森県,八戸市,岬台３丁目１７番１２－３号,,02,203,0310842,,,,,,,2023-08-08,1,,,,,エヌシステムズ,0
2673,9430001089650,新規,0,2023-08-08,2023-08-08,ＺＩＧＡ株式会社,,株式会社,北海道,小樽市,新光５丁目３８番１９号,,01,203,0470152,,,,,,,2023-08-08,1,,,,,ジーガ,0
2674,9430001089659,新規,0,2023-08-08,2023-08-08,株式会社昇り始める,,株式会社,北海道,札幌市東区,北二十二条東８丁目１番１号,,01,103,0650022,,,,,,,2023-08-08,1,,,,,ノボリハジメル,0
2675,9430001089675,新規,0,2023-08-08,2023-08-08,宝源バイオサイエンス株式会社,,株式会社,北海道,恵庭市,恵み野東６丁目１２番７,,01,231,0611371,,,,,,,2023-08-08,1,,,,,ホウゲンバイオサイエンス,0
2680,9430003015316,新規,0,2023-08-08,2023-08-08,合同会社Ｍ３,,合同会社,北海道,札幌市西区,西野十条８丁目１０－６,,01,107,0630040,,,,,,,2023-08-08,1,,,,,エムスリー,0
2683,9470005006516,新規,0,2023-08-08,2023-08-08,一般社団法人おじょも地域福祉支援会,,その他の設立登記法人,香川県,丸亀市,飯山町東坂元１８４３番地４,,37,202,7620081,,,,,,,2023-08-08,1,,,,,オジョモチイキフクシシエンカイ,0
2689,9700150117473,新規,0,2023-08-08,2023-06-15,日本の宿　おもてなし検定委員会,,その他,東京都,品川区,東品川２丁目３－１４東京フロントテラス７階　株式会社ＪＴＢ総合研究所内,,13,109,1400002,,,,,,,2023-06-15,1,,,,,ニホンノヤドオモテナシケンテイイインカイ,0
2690,9700150118868,新規,0,2023-08-08,2023-08-08,Ｃｈａｎｇｌｅ　Ｌｅｊｉ　Ｍｕｓｉｃａｌ　Ｉｎｓｔｒｕｍｅｎｔ　Ｍａｎｕｆａｃｔｕｒｉｎｇ　Ｃｏ．Ｌｔｄ,,外国会社等,,,,,,,,Ｃｈａｎｇｌｅ　Ｃｏｕｎｔｙ　Ｔａｎｇｗｕ　ｔｏｗｎ　Ｃｈａｎｇｇａｏ　Ｒｏａｄ　ａｎｄ　ｌａｒｇｅ　Ｔａｎｇ　Ｓｔｒｅｅｔ　ｉｎｔｅｒｓｅｃｔｉｏｎ　ｎｏｒｔｈ　２００　ｍｅｔｅｒｓ　ｗｅｓｔ　ｏｆ　ｔｈｅ　ｒｏａｄ,,,,,,2023-08-08,1,,,,,チャンラーラージーラーチージーザオグーフェンヨウシエンゴンスー,0
2691,9700150118876,新規,0,2023-08-08,2023-08-08,Ｇｕａｎｇｚｈｏｕ　Ｏｕ　Ｓｕｃｈｅｎｇ　Ｌｉｇｈｔｉｎｇ　Ｔｅｃｈｎｏｌｏｇｙ　Ｃｏ．，Ｌｔｄ．,,外国会社等,,,,,,,,２０１，Ｎｏ．７，１ｓｔ　Ｌａｎｅ，Ｏｕｇａｎｇ　Ｅａｓｔ　Ｓｔｒｅｅｔ，Ｋｅｍｕｌａｎｇ，Ｔｉａｎｈｅ　Ｄｉｓｔｒｉｃｔ，Ｇｕａｎｇｚｈｏｕ,,,,,,2023-08-08,1,,,,,グワンジョウオウスーチョンジャオミンコージーヨウシエンゴンスー,0
