sequenceNumber,corporateNumber,process,correct,updateDate,changeDate,name,nameImageId,kind,prefectureName,cityName,streetNumber,addressImageId,prefectureCode,cityCode,postCode,addressOutside,addressOutsideImageId,closeDate,closeCause,successorCorporateNumber,changeCause,assignmentDate,latest,enName,enPrefectureName,enCityName,enAddressOutside,furigana,hihyoji
8,1010001221329,新規,0,2021-09-27,2021-09-27,株式会社Ｔｈｉｎｇｓ,,株式会社,東京都,文京区,本郷５丁目２５－１８ハイテク本郷ビル１Ｆ,,13,105,1130033,,,,,,,2021-09-27,1,,,,,シングス,0
9,1010001221345,新規,0,2021-09-27,2021-09-27,ディーアールアイ・オーシャンパーク株式会社,,株式会社,東京都,千代田区,丸の内２丁目６番１号,,13,101,1000005,,,,,,,2021-09-27,1,,,,,ディーアールアイオーシャンパーク,0
10,1010001221378,新規,0,2021-09-27,2021-09-27,株式会社ｎｕｂｅｓ,,株式会社,東京都,千代田区,大手町１丁目６－１大手町ビルヂング４階,,13,101,1000004,,,,,,,2021-09-27,1,,,,,ヌーベース,0
13,1010003035891,新規,0,2021-09-27,2021-09-27,合同会社汐留・プロパティーズ,,合同会社,東京都,千代田区,一番町９番地８ひばり会計事務所内,,13,101,1020082,,,,,,,2021-09-27,1,,,,,シオドメプロパティーズ,0
19,1010401162874,新規,0,2021-09-27,2021-09-27,株式会社ｒｏｏｍ,,株式会社,東京都,港区,南麻布４丁目９番１７－３０３号,,13,103,1060047,,,,,,,2021-09-27,1,,,,,ルーム,0
23,1010403026177,新規,0,2021-09-27,2021-09-27,パシフィコ・エナジー徳山合同会社,,合同会社,東京都,港区,六本木３丁目２番１号六本木グランドタワー,,13,103,1060032,,,,,,,2021-09-27,1,,,,,パシフィコエナジートクヤマ,0
24,1010405020236,新規,0,2021-09-27,2021-09-27,一般社団法人緊急事態舞台芸術ネットワーク,,その他の設立登記法人,東京都,港区,北青山３丁目６－７青山パラシオタワー１１階,,13,103,1070061,,,,,,,2021-09-27,1,,,,,キンキュウジタイブタイゲイジュツネットワーク,0
41,1011101096339,新規,0,2021-09-27,2021-09-27,株式会社キングポケット,,株式会社,東京都,新宿区,西新宿１丁目２０－３西新宿高木ビル,,13,104,1600023,,,,,,,2021-09-27,1,,,,,キングポケット,0
42,1011101096363,新規,0,2021-09-27,2021-09-27,株式会社ＹＯＯＨ,,株式会社,東京都,新宿区,舟町１０番地四谷テラス０９,,13,104,1600006,,,,,,,2021-09-27,1,,,,,ヨー,0
43,1011101096371,新規,0,2021-09-27,2021-09-27,株式会社日本健康増進研究所,,株式会社,東京都,新宿区,新宿１丁目２４番７号,,13,104,1600022,,,,,,,2021-09-27,1,,,,,ニホンケンコウゾウシンケンキュウジョ,0
44,1011101096388,新規,0,2021-09-27,2021-09-27,株式会社ドワープ,,株式会社,東京都,新宿区,新宿１丁目２０番３－２０６号,,13,104,1600022,,,,,,,2021-09-27,1,,,,,ドワープ,0
48,1011102031609,新規,0,2021-09-27,2021-09-27,有限会社小渡,,有限会社,東京都,新宿区,左門町１０番地,,13,104,1600017,,,,,,,2021-09-27,1,,,,,オド,0
49,1011103011007,新規,0,2021-09-27,2021-09-27,ＡＪＢコンサルティング合同会社,,合同会社,東京都,新宿区,西早稲田２丁目７番１８号大槻寮２５号室,,13,104,1690051,,,,,,,2021-09-27,1,,,,,エージェービーコンサルティング,0
50,1011103011023,新規,0,2021-09-27,2021-09-27,日中交流ビジネス合同会社,,合同会社,東京都,新宿区,百人町１丁目１８番４号,,13,104,1690073,,,,,,,2021-09-27,1,,,,,ニッチュウコウリュウビジネス,0
51,1011105009957,新規,0,2021-09-27,2021-09-27,一般社団法人旬風会,,その他の設立登記法人,東京都,新宿区,北町３２番地,,13,104,1620834,,,,,,,2021-09-27,1,,,,,シュンプウカイ,0
52,1011303004181,新規,0,2021-09-27,2021-09-27,合同会社ハンドメイドシティ,,合同会社,東京都,杉並区,高円寺南４丁目１０番４－１０１号,,13,115,1660003,,,,,,,2021-09-27,1,,,,,ハンドメイドシティ,0
55,1011803004788,新規,0,2021-09-27,2021-09-27,合同会社モービルカラーズ設計事務所,,合同会社,東京都,葛飾区,西新小岩５丁目１７番２７号,,13,122,1240025,,,,,,,2021-09-27,1,,,,,モービルカラーズセッケイジムショ,0
56,1012403005029,新規,0,2021-09-27,2021-09-27,合同会社ＲｅＤＡＹ’ｓ,,合同会社,東京都,調布市,上石原２丁目２５番３－１０２号,,13,208,1820035,,,,,,,2021-09-27,1,,,,,リデイズ,0
75,1020001143142,新規,0,2021-09-27,2021-09-27,株式会社ＪＨＣ南関東,,株式会社,神奈川県,横浜市中区,翁町１丁目４番地４・４階,,14,104,2310028,,,,,,,2021-09-27,1,,,,,ジェイエイチシーミナミカントウ,0
76,1020001143159,新規,0,2021-09-27,2021-09-27,株式会社エムケイワイ産業,,株式会社,神奈川県,横浜市西区,みなとみらい４丁目４－２横浜ブルーアベニュー１２Ｆ,,14,103,2200012,,,,,,,2021-09-27,1,,,,,エムケイワイサンギョウ,0
86,1030003018003,新規,0,2021-09-27,2021-09-27,リーコーポレーション合同会社,,合同会社,埼玉県,さいたま市浦和区,上木崎６丁目２４－３８ベルピア浦和第一１０２,,11,107,3300071,,,,,,,2021-09-27,1,,,,,リーコーポレーション,0
100,1060003003811,新規,0,2021-09-27,2021-09-27,合同会社ＵＮＩＴＹ　ＧＲＯＵＰ,,合同会社,栃木県,那須塩原市,三区町５９３番地５１,,09,213,3292745,,,,,,,2021-09-27,1,,,,,ユニティグループ,0
105,1080001024444,新規,0,2021-09-27,2021-09-27,株式会社Ｌｉｆｅ　Ｉｓ　Ｂｅａｕｔｉｆｕｌ,,株式会社,静岡県,榛原郡吉田町,住吉５４３６番地の２０５,,22,424,4210301,,,,,,,2021-09-27,1,,,,,ライフイズビューティフル,0
112,1090003001952,新規,0,2021-09-27,2021-09-27,合同会社山口電気,,合同会社,山梨県,甲府市,住吉４丁目１６番３６号,,19,201,4000851,,,,,,,2021-09-27,1,,,,,ヤマグチデンキ,0
125,1120001240598,新規,0,2021-09-27,2021-09-27,株式会社ＴＴＴＭ,,株式会社,大阪府,大阪市淀川区,西中島４丁目５番１号１０Ａ,,27,123,5320011,,,,,,,2021-09-27,1,,,,,ティーティーティーエム,0
126,1120001240615,新規,0,2021-09-27,2021-09-27,株式会社ＭＡＲＯ,,株式会社,大阪府,大阪市福島区,野田２丁目２番１号,,27,103,5530005,,,,,,,2021-09-27,1,,,,,マロ,0
128,1120003020296,新規,0,2021-09-27,2021-09-27,合同会社Ｌｉｎｋ,,合同会社,大阪府,大阪市西成区,天下茶屋２丁目２１番４号マンションＮＡＫＡＴＡ１０１号,,27,122,5570014,,,,,,,2021-09-27,1,,,,,リンク,0
129,1120003020305,新規,0,2021-09-27,2021-09-27,合同会社いろつく,,合同会社,大阪府,大阪市淀川区,野中北１丁目１０－４,,27,123,5320034,,,,,,,2021-09-27,1,,,,,イロツク,0
135,1120101064344,新規,0,2021-09-27,2021-09-27,株式会社ＨａｎａＴｅｃ,,株式会社,大阪府,和泉市,伯太町２丁目２７番６－１０２号,,27,219,5940023,,,,,,,2021-09-27,1,,,,,ハナテック,0
140,1120905006228,新規,0,2021-09-27,2021-09-27,一般社団法人日本国際雇用振興協会,,その他の設立登記法人,大阪府,吹田市,江坂町１丁目１４番４－６０３号,,27,205,5640063,,,,,,,2021-09-27,1,,,,,ニホンコクサイコヨウシンコウキョウカイ,0
144,1122001035185,新規,0,2021-09-27,2021-09-27,株式会社アルテク,,株式会社,大阪府,東大阪市,足代２丁目３番６号,,27,227,5770841,,,,,,,2021-09-27,1,,,,,アルテク,0
152,1140005025829,新規,0,2021-09-27,2021-09-27,一般社団法人ＳＣＩホールディングス,,その他の設立登記法人,兵庫県,神戸市東灘区,御影山手２丁目１０番８号,,28,101,6580065,,,,,,,2021-09-27,1,,,,,エスシーアイホールディングス,0
156,1160001023644,新規,0,2021-09-27,2021-09-27,株式会社モンキーエステート,,株式会社,滋賀県,高島市,安曇川町末広４丁目１７番地,,25,212,5201214,,,,,,,2021-09-27,1,,,,,モンキーエステート,0
157,1160005010985,新規,0,2021-09-27,2021-09-27,医療法人いがらしクリニック,,その他の設立登記法人,滋賀県,守山市,守山６丁目１０番３４号,,25,207,5240022,,,,,,,2021-09-27,1,,,,,,0
159,1170001016787,新規,0,2021-09-27,2021-09-27,株式会社ヤマシタ,,株式会社,和歌山県,田辺市,宝来町１９番７号,,30,206,6460026,,,,,,,2021-09-27,1,,,,,ヤマシタ,0
169,1180003022997,新規,0,2021-09-27,2021-09-27,合同会社Ｒｅ．ａｃｔａ,,合同会社,愛知県,名古屋市港区,高木町４丁目３３番地大昂ビルⅡ,00124322,23,111,4550821,,,,,,,2021-09-27,1,,,,,リアクタ,0
172,1180303005116,新規,0,2021-09-27,2021-09-27,合同会社ＨｉｒｏＣＡＲ’Ｓ,,合同会社,愛知県,豊橋市,南大清水町字元町１９‐２,,23,201,4418132,,,,,,,2021-09-27,1,,,,,ヒロカーズ,0
179,1200001039173,新規,0,2021-09-27,2021-09-27,吉田造園株式会社,,株式会社,岐阜県,関市,上大野３６６番地,,21,205,5013204,,,,,,,2021-09-27,1,,,,,ヨシダゾウエン,0
180,1200001039181,新規,0,2021-09-27,2021-09-27,誠興業株式会社,,株式会社,岐阜県,大垣市,静里町１４１６番地１２,,21,202,5030983,,,,,,,2021-09-27,1,,,,,マコトコウギョウ,0
189,1210001018614,新規,0,2021-09-27,2021-09-27,玉天株式会社,,株式会社,福井県,敦賀市,昭和町１丁目２１番２８号サーマルビル２ＦＡ号室,,18,202,9140812,,,,,,,2021-09-27,1,,,,,タマテン,0
209,1290001094706,新規,0,2021-09-27,2021-09-27,株式会社福岡ジャパンエキスプレス,,株式会社,福岡県,糟屋郡宇美町,大字宇美２４４７番地８,,40,341,8112101,,,,,,,2021-09-27,1,,,,,フクオカジャパンエキスプレス,0
210,1290001094714,新規,0,2021-09-27,2021-09-27,ジャパンマテリアル株式会社,,株式会社,福岡県,朝倉郡筑前町,下高場１６３１番地,,40,447,8380211,,,,,,,2021-09-27,1,,,,,ジャパンマテリアル,0
211,1290001094763,新規,0,2021-09-27,2021-09-27,ひなた建設株式会社,,株式会社,福岡県,古賀市,小竹２８９番地５,,40,223,8113135,,,,,,,2021-09-27,1,,,,,ヒナタケンセツ,0
222,1290003011642,新規,0,2021-09-27,2021-09-27,ＲＩＴＡ合同会社,,合同会社,福岡県,福岡市城南区,別府５丁目１５番５号,,40,136,8140104,,,,,,,2021-09-27,1,,,,,リタ,0
227,1300003001724,新規,0,2021-09-27,2021-09-27,爽設計合同会社,,合同会社,佐賀県,神埼市,神埼町本堀３２７６番地１０,,41,210,8420003,,,,,,,2021-09-27,1,,,,,ソウセッケイ,0
245,1360001029407,新規,0,2021-09-27,2021-09-27,株式会社Ｓ・Ｓｔｙｌｅ,,株式会社,沖縄県,那覇市,字真地３２４番地６０,,47,201,9020072,,,,,,,2021-09-27,1,,,,,エススタイル,0
246,1360003011404,新規,0,2021-09-27,2021-09-27,合同会社ミネラルラボラトリー沖縄,,合同会社,沖縄県,沖縄市,字登川２２７１番地１,,47,211,9042142,,,,,,,2021-09-27,1,,,,,ミネラルラボラトリーオキナワ,0
252,1390003001872,新規,0,2021-09-27,2021-09-27,合同会社高畠あかおにファーム,,合同会社,山形県,東置賜郡高畠町,大字高畠３５６２番地の３５,,06,381,9920351,,,,,,,2021-09-27,1,,,,,タカハタアカオニファーム,0
254,1400003002836,新規,0,2021-09-27,2021-09-27,合同会社菜々色,,合同会社,岩手県,北上市,下江釣子１４地割８７番地１,,03,206,0240073,,,,,,,2021-09-27,1,,,,,ナナイロ,0
255,1430001085013,新規,0,2021-09-27,2021-09-27,株式会社ブラウバウム,,株式会社,北海道,札幌市東区,北四十五条東１５丁目２番１６号,,01,103,0070845,,,,,,,2021-09-27,1,,,,,ブラウバウム,0
256,1430001085021,新規,0,2021-09-27,2021-09-27,ＧＩＩ　ｈｏｌｄｉｎｇｓ株式会社,,株式会社,北海道,札幌市中央区,南十条西７丁目１番１－４０２号,,01,101,0640810,,,,,,,2021-09-27,1,,,,,ジーホールディングス,0
260,1430003013178,新規,0,2021-09-27,2021-09-27,ＭＩＵ　ＣＡＲＥ合同会社,,合同会社,北海道,札幌市厚別区,厚別東二条５丁目３番２５号,,01,108,0040002,,,,,,,2021-09-27,1,,,,,エムアイユーケアー,0
266,1470001018729,新規,0,2021-09-27,2021-09-27,株式会社百寅,,株式会社,香川県,善通寺市,生野町７９６番地３,,37,204,7650053,,,,,,,2021-09-27,1,,,,,ヒャクトラ,0
270,1500001023691,新規,0,2021-09-27,2021-09-27,株式会社マック,,株式会社,愛媛県,今治市,別名４４０番地３,,38,202,7940065,,,,,,,2021-09-27,1,,,,,マック,0
271,1700150104900,新規,0,2021-09-27,2021-09-27,ＨＡＡＮＩＹＡ　ＶＥＨＩＣＬＥ　ＰＡＲＴＳ　ＰＲＩＶＡＴＥ　ＬＩＭＩＴＥＤ,,外国会社等,新潟県,妙高市,大字小濁７３１レンタルスペース２Ｆ－２,,15,217,9440221,スリランカ民主社会主義共和国、キャンディー、ゲリオヤ、カルガムワ、４７０／５／１番,,,,,,2021-09-27,1,,,,,ハーニヤウエヒケルパーツプライベートリミテツド,0
278,2010001221328,新規,0,2021-09-27,2021-09-27,プロパベース株式会社,,株式会社,東京都,中央区,日本橋兜町１７番２号,,13,102,1030026,,,,,,,2021-09-27,1,,,,,プロパベース,0
279,2010001221352,新規,0,2021-09-27,2021-09-27,株式会社ＫＩＴＥ,,株式会社,東京都,千代田区,一ツ橋１丁目１－１パレスサイドビル,,13,101,1000003,,,,,,,2021-09-27,1,,,,,カイト,0
280,2010001221377,新規,0,2021-09-27,2021-09-27,Ｍ＆Ｐアジア株式会社,,株式会社,東京都,千代田区,大手町１丁目５番１号大手町ファーストスクエアイーストタワー３階,,13,101,1000004,,,,,,,2021-09-27,1,,,,,エムアンドピーアジア,0
293,2010401162840,新規,0,2021-09-27,2021-09-27,株式会社アドジェット,,株式会社,東京都,港区,浜松町２丁目２番１５号浜松町ダイヤビル２Ｆ,,13,103,1050013,,,,,,,2021-09-27,1,,,,,アドジェット,0
294,2010401162849,新規,0,2021-09-27,2021-09-27,株式会社宝明和,,株式会社,東京都,港区,浜松町２丁目２番１５号浜松町ダイヤビル２Ｆ,,13,103,1050013,,,,,,,2021-09-27,1,,,,,ホウメイワ,0
295,2010401162881,新規,0,2021-09-27,2021-09-27,Ｗｈｉｔｅ　Ｊａｐａｎ　Ｈｏｌｄｉｎｇｓ株式会社,,株式会社,東京都,港区,虎ノ門２丁目１０番４号オークラプレステージタワー,,13,103,1050001,,,,,,,2021-09-27,1,,,,,ホワイトジャパンホールディングス,0
297,2010403026168,新規,0,2021-09-27,2021-09-27,ジンマー・バイオメット企画合同会社,,合同会社,東京都,港区,芝公園２丁目１１番１号住友不動産芝公園タワー１５階,,13,103,1050011,,,,,,,2021-09-27,1,,,,,ジンマーバイオメットキカク,0
298,2010403026176,新規,0,2021-09-27,2021-09-27,合同会社アレッタ,,合同会社,東京都,港区,六本木７丁目１７番２０号,,13,103,1060032,,,,,,,2021-09-27,1,,,,,アレッタ,0
304,2010703005953,新規,0,2021-09-27,2021-09-27,飯塚服部合同会社,00124325,合同会社,東京都,品川区,大井６丁目９－３２－５０２,,13,109,1400014,,,,,,,2021-09-27,1,,,,,イイヅカハットリ,0
314,2011001142927,新規,0,2021-09-27,2021-09-27,株式会社ＧＯＴＡＮ,,株式会社,東京都,渋谷区,道玄坂２丁目２８番３号,,13,113,1500043,,,,,,,2021-09-27,1,,,,,ゴタン,0
323,2011101096338,新規,0,2021-09-27,2021-09-27,株式会社Ａｚｕｔｉｌｉｚｅ,,株式会社,東京都,新宿区,西新宿６丁目１０番１号日土地西新宿ビル８階,,13,104,1600023,,,,,,,2021-09-27,1,,,,,アズティライズ,0
324,2011101096346,新規,0,2021-09-27,2021-09-27,探る創る株式会社,,株式会社,東京都,新宿区,早稲田鶴巻町５６１番地,,13,104,1620041,,,,,,,2021-09-27,1,,,,,サグルツクル,0
326,2011103011022,新規,0,2021-09-27,2021-09-27,Ｓｈｅｌｌ’ｓ合同会社,,合同会社,東京都,新宿区,西早稲田３丁目３１番１１ニューライフ西早稲田１０２号,,13,104,1690051,,,,,,,2021-09-27,1,,,,,,0
327,2011103011030,新規,0,2021-09-27,2021-09-27,すわのうら合同会社,,合同会社,東京都,新宿区,高田馬場１丁目３２－１０,,13,104,1690075,,,,,,,2021-09-27,1,,,,,スワノウラ,0
330,2011301027191,新規,0,2021-09-27,2021-09-27,株式会社エーゾ,,株式会社,東京都,杉並区,阿佐谷南２丁目２２番６号,,13,115,1660004,,,,,,,2021-09-27,1,,,,,エーゾ,0
331,2011401023685,新規,0,2021-09-27,2021-09-27,株式会社改研,,株式会社,東京都,板橋区,中台１丁目１５番２０号,,13,119,1740064,,,,,,,2021-09-27,1,,,,,カイケン,0
335,2011801039728,新規,0,2021-09-27,2021-09-27,株式会社ＣＧｉｎ財,,株式会社,東京都,足立区,西新井本町３丁目１－３,,13,121,1230845,,,,,,,2021-09-27,1,,,,,シージンザイ,0
342,2012401038319,新規,0,2021-09-27,2021-09-27,株式会社ソフィープロモーション,,株式会社,東京都,狛江市,岩戸北３丁目１７番１０－２０２号,,13,219,2010004,,,,,,,2021-09-27,1,,,,,ソフィープロモーション,0
343,2012401038327,新規,0,2021-09-27,2021-09-27,株式会社ＬｅＴｅｒｒｅ,,株式会社,東京都,武蔵野市,吉祥寺本町２丁目８番４号ｉ－ｏｆｆｉｃｅ吉祥寺,,13,203,1800004,,,,,,,2021-09-27,1,,,,,ルテール,0
358,2020001143083,新規,0,2021-09-27,2021-09-27,株式会社福原板金,,株式会社,神奈川県,川崎市幸区,神明町２丁目２番地１リブゼ川崎フローラルスクエア７０２,,14,132,2120022,,,,,,,2021-09-27,1,,,,,フクハラバンキン,0
359,2020001143141,新規,0,2021-09-27,2021-09-27,株式会社ＵＴＩＬＩＧＡＴＥ,,株式会社,神奈川県,川崎市幸区,南幸町１丁目１番地アネックスイワキ２０５,,14,132,2120016,,,,,,,2021-09-27,1,,,,,ユーティリゲート,0
373,2030001144477,新規,0,2021-09-27,2021-09-27,株式会社ディンクス,,株式会社,埼玉県,三郷市,栄３丁目３００番地,,11,237,3410043,,,,,,,2021-09-27,1,,,,,ディンクス,0
374,2030001144485,新規,0,2021-09-27,2021-09-27,株式会社Ｒｅｇａｌｏ,,株式会社,埼玉県,新座市,東北１丁目１４番１号,,11,230,3520001,,,,,,,2021-09-27,1,,,,,レガーロ,0
375,2030001144510,新規,0,2021-09-27,2021-09-27,ＫＪＧ株式会社,,株式会社,埼玉県,和光市,白子３丁目１９－１７,,11,229,3510101,,,,,,,2021-09-27,1,,,,,ケージェージー,0
376,2030003018002,新規,0,2021-09-27,2021-09-27,合同会社ＡＹＥＳＨＡ　ＴＲＡＤＩＮＧ,,合同会社,埼玉県,加須市,阿良川４６０番地１,,11,210,3470047,,,,,,,2021-09-27,1,,,,,アイーシャトレーディング,0
378,2040001120270,新規,0,2021-09-27,2021-09-27,株式会社フィジオサポート,,株式会社,千葉県,松戸市,二ツ木８４６番地の５,,12,207,2700027,,,,,,,2021-09-27,1,,,,,フィジオサポート,0
380,2050001049880,新規,0,2021-09-27,2021-09-27,株式会社オリーブ,,株式会社,茨城県,東茨城郡城里町,大字小勝３９５番地２,,08,310,3114402,,,,,,,2021-09-27,1,,,,,オリーブ,0
385,2060001034106,新規,0,2021-09-27,2021-09-27,株式会社ケースタイル,,株式会社,栃木県,那須塩原市,埼玉６番地８９１,,09,213,3250033,,,,,,,2021-09-27,1,,,,,ケースタイル,0
396,2090003001951,新規,0,2021-09-27,2021-09-27,合同会社ｓｏｌ,,合同会社,山梨県,甲府市,丸の内２丁目２－１ＣＲＯＳＳ５００、１Ｆ,,19,201,4000031,,,,,,,2021-09-27,1,,,,,ソル,0
411,2120001240580,新規,0,2021-09-27,2021-09-27,株式会社南山,,株式会社,大阪府,大阪市城東区,中浜１丁目１７－１４ルネッサンスシャレード６Ｊ,,27,118,5360024,,,,,,,2021-09-27,1,,,,,ナンザン,0
412,2120001240589,新規,0,2021-09-27,2021-09-27,ジャパンウッドモールド株式会社,,株式会社,大阪府,大阪市住之江区,南港北１丁目３０番３０－３１０２号,,27,125,5590034,,,,,,,2021-09-27,1,,,,,ジャパンウッドモールド,0
413,2120001240614,新規,0,2021-09-27,2021-09-27,株式会社小飯塚保温工業所,00124318,株式会社,大阪府,大阪市平野区,喜連６丁目５番１０号,,27,126,5470027,,,,,,,2021-09-27,1,,,,,コイヅカホオンコウギョウショ,0
414,2120001240630,新規,0,2021-09-27,2021-09-27,株式会社イーグル,,株式会社,大阪府,大阪市北区,兎我野町２番１２号,,27,127,5300056,,,,,,,2021-09-27,1,,,,,イーグル,0
415,2120001240639,新規,0,2021-09-27,2021-09-27,株式会社オフィスＫｅｎ,,株式会社,大阪府,大阪市福島区,福島４丁目５番５７号２０１,,27,103,5530003,,,,,,,2021-09-27,1,,,,,オフィスケン,0
418,2120003020295,新規,0,2021-09-27,2021-09-27,合同会社ＡＰＵ,,合同会社,大阪府,大阪市浪速区,浪速西１丁目８番１０－６１１号,,27,111,5560026,,,,,,,2021-09-27,1,,,,,エーピーユー,0
431,2130001070143,新規,0,2021-09-27,2021-09-27,株式会社西島建設,,株式会社,京都府,綴喜郡井手町,大字井手小字柏原４３番地２,,26,343,6100302,,,,,,,2021-09-27,1,,,,,,0
442,2140003016779,新規,0,2021-09-27,2021-09-27,合同会社吉田精肉店,,合同会社,兵庫県,南あわじ市,福良乙８７番地,,28,224,6560502,,,,,,,2021-09-27,1,,,,,ヨシダセイニクテン,0
445,2140005025828,新規,0,2021-09-27,2021-09-27,一般財団法人内田文庫,,その他の設立登記法人,兵庫県,芦屋市,西芦屋町４番１６号,00124320,28,206,6590085,,,,,,,2021-09-27,1,,,,,ウチダブンコ,0
447,2150001024948,新規,0,2021-09-27,2021-09-27,株式会社生駒賛香,,株式会社,奈良県,生駒市,俵口町６９４番地６,,29,209,6300243,,,,,,,2021-09-27,1,,,,,イコマサンカ,0
448,2160005010984,新規,0,2021-09-27,2021-09-27,税理士法人松尾会計,,その他の設立登記法人,滋賀県,草津市,上笠４丁目３３番１３号,,25,206,5250028,,,,,,,2021-09-27,1,,,,,マツオカイケイ,0
458,2180301035403,新規,0,2021-09-27,2021-09-27,株式会社ＶＲ‐ＬＯＧ,,株式会社,愛知県,安城市,三河安城南町１丁目１５‐８サンテラス三河安城ビル６階,,23,212,4460058,,,,,,,2021-09-27,1,,,,,ブイアールログ,0
460,2190001028697,新規,0,2021-09-27,2021-09-27,株式会社ＲＯＡＤ,,株式会社,三重県,四日市市,尾平町３０８４番地１,,24,202,5120921,,,,,,,2021-09-27,1,,,,,ロード,0
465,2200001039180,新規,0,2021-09-27,2021-09-27,株式会社ＥＥＭＡＮ　ＴＲＡＤＩＮＧ,,株式会社,岐阜県,大垣市,割田１丁目３２２番地,,21,202,5030953,,,,,,,2021-09-27,1,,,,,イーマントレーディング,0
471,2220001024437,新規,0,2021-09-27,2021-09-27,株式会社レティス,,株式会社,石川県,金沢市,増泉４丁目１番１０号（プレミア増泉レジデンス・６０３号）,,17,201,9218025,,,,,,,2021-09-27,1,,,,,レティス,0
476,2240001058615,新規,0,2021-09-27,2021-09-27,株式会社ＣＲＥＳＴ　ＥＩＧＨＴ,,株式会社,広島県,東広島市,西条中央１丁目８番３１号,,34,212,7390025,,,,,,,2021-09-27,1,,,,,クレストエイト,0
482,2280005007440,新規,0,2021-09-27,2021-09-27,一般社団法人栄徳会,,その他の設立登記法人,島根県,雲南市,大東町大東２４０８番地１６,,32,209,6991251,,,,,,,2021-09-27,1,,,,,エイトクカイ,0
497,2300001012631,新規,0,2021-09-27,2021-09-27,九州殿林産業株式会社,,株式会社,佐賀県,佐賀市,富士町大字小副川１１２４番地１,,41,201,8400521,,,,,,,2021-09-27,1,,,,,キュウシュウトノバヤシサンギョウ,0
505,2320001018619,新規,0,2021-09-27,2021-09-27,株式会社ユナイテッドＲｅ,,株式会社,大分県,大分市,公園通り４丁目１６番地の１,,44,201,8700173,,,,,,,2021-09-27,1,,,,,ユナイテッドアールイー,0
515,2360001029406,新規,0,2021-09-27,2021-09-27,株式会社ＳＡＮＡＳコーポレーション,,株式会社,沖縄県,島尻郡南風原町,字宮平４６０番地１,,47,350,9011104,,,,,,,2021-09-27,1,,,,,サナスコーポレーション,0
516,2360001029422,新規,0,2021-09-27,2021-09-27,株式会社バックドア,,株式会社,沖縄県,那覇市,辻２丁目１８番１９号,,47,201,9000037,,,,,,,2021-09-27,1,,,,,バックドア,0
527,2400001015608,新規,0,2021-09-27,2021-09-27,株式会社自然職人館,,株式会社,岩手県,遠野市,宮守町上鱒沢８地割６９,00124336,03,208,0280302,,,,,,,2021-09-27,1,,,,,シゼンショクニンカン,0
528,2410001012967,新規,0,2021-09-27,2021-09-27,エノングループ株式会社,,株式会社,秋田県,にかほ市,金浦字岡の谷地１０６番地,,05,214,0180311,,,,,,,2021-09-27,1,,,,,エノングループ,0
534,2430001085020,新規,0,2021-09-27,2021-09-27,株式会社ヤシ・レーシングランチ,,株式会社,北海道,沙流郡日高町,富川東６丁目１０番１７号,,01,601,0550004,,,,,,,2021-09-27,1,,,,,ヤシレーシングランチ,0
540,2700150104899,新規,0,2021-09-27,2021-09-27,Ｍ．Ｍ．Ｓ．ＬＡＮＫＡ　ＰＲＩＶＡＴＥ　ＬＩＭＩＴＥＤ,,外国会社等,新潟県,妙高市,大字小濁７３１レンタルスペース２Ｆ－１,,15,217,9440221,スリランカ民主社会主義共和国、コロンボ１４、ディマルワッタ、グランドパースロード、１３２／５９８番,,,,,,2021-09-27,1,,,,,エムエムエスランカプライベートリミテツド,0
544,3010001221327,新規,0,2021-09-27,2021-09-27,株式会社ＶｉＶｉＤ,,株式会社,東京都,中央区,日本橋蛎殻町２丁目８－１３カスタリア水天宮４０３,,13,102,1030014,,,,,,,2021-09-27,1,,,,,ビビッド,0
545,3010001221335,新規,0,2021-09-27,2021-09-27,株式会社ＤＴＢ,,株式会社,東京都,千代田区,外神田３丁目１０番８号４階,,13,101,1010021,,,,,,,2021-09-27,1,,,,,ディーティービー,0
546,3010001221384,新規,0,2021-09-27,2021-09-27,スタリス株式会社,,株式会社,東京都,中央区,銀座７丁目１３番６号,,13,102,1040061,,,,,,,2021-09-27,1,,,,,スタリス,0
553,3010401162807,新規,0,2021-09-27,2021-09-27,インターステラコンサルティング株式会社,,株式会社,東京都,港区,麻布十番１丁目５番１０号,,13,103,1060045,,,,,,,2021-09-27,1,,,,,インターステラコンサルティング,0
554,3010401162823,新規,0,2021-09-27,2021-09-27,株式会社ＬＹＯＮ,,株式会社,東京都,港区,浜松町２丁目２番１５号浜松町ダイヤビル２Ｆ,,13,103,1050013,,,,,,,2021-09-27,1,,,,,ライオン,0
555,3010401162831,新規,0,2021-09-27,2021-09-27,アビール株式会社,,株式会社,東京都,港区,東麻布１丁目２３番５号ＰＭＣビル２Ｆ,,13,103,1060044,,,,,,,2021-09-27,1,,,,,アビール,0
556,3010401162880,新規,0,2021-09-27,2021-09-27,株式会社いすみ洋上風力発電,,株式会社,東京都,港区,新橋６丁目１７番２１号住友不動産御成門駅前ビル１０階,,13,103,1050004,,,,,,,2021-09-27,1,,,,,イスミヨウジョウフウリョクハツデン,0
564,3010701041561,新規,0,2021-09-27,2021-09-27,株式会社トレジャーツー,,株式会社,東京都,品川区,戸越５丁目１０番１９号,,13,109,1420041,,,,,,,2021-09-27,1,,,,,トレジャーツー,0
565,3010703005952,新規,0,2021-09-27,2021-09-27,合同会社Ｂｅｌｌａ　ｄｅ　ｌａ　ｎａｄａ,,合同会社,東京都,品川区,大崎３丁目５番３号,,13,109,1410032,,,,,,,2021-09-27,1,,,,,ベジャデラナダ,0
572,3011001142918,新規,0,2021-09-27,2021-09-27,インテリクス株式会社,,株式会社,東京都,渋谷区,道玄坂１丁目１２番１号渋谷マークシティＷ２２階,,13,113,1500043,,,,,,,2021-09-27,1,,,,,インテリクス,0
573,3011001142983,新規,0,2021-09-27,2021-09-27,株式会社Ｍｅｎｔａｌ　Ｒｅｓｏｒｔ,,株式会社,東京都,渋谷区,神宮前２丁目１２番３号,,13,113,1500001,,,,,,,2021-09-27,1,,,,,メンタルリゾート,0
585,3011101096361,新規,0,2021-09-27,2021-09-27,Ｅｘｔｒａｏｒｄｉｎａｒｙ株式会社,,株式会社,東京都,新宿区,西落合１丁目４番９号パークサイド西落合３０２,,13,104,1610031,,,,,,,2021-09-27,1,,,,,イクストローディナリー,0
586,3011101096378,新規,0,2021-09-27,2021-09-27,株式会社Ｓｅｃｏｎｄ,,株式会社,東京都,新宿区,喜久井町３６番地,,13,104,1620044,,,,,,,2021-09-27,1,,,,,セカンド,0
587,3011301027182,新規,0,2021-09-27,2021-09-27,株式会社ｙｏｍｉｚｕ,,株式会社,東京都,杉並区,梅里２丁目１４番３号ＴＩＲＯＩＲ２０３,,13,115,1660011,,,,,,,2021-09-27,1,,,,,ヨミズ,0
588,3011301027199,新規,0,2021-09-27,2021-09-27,株式会社ネクストグリーン,,株式会社,東京都,杉並区,堀ノ内２丁目７番７号プチシャンブル１０１号室,,13,115,1660013,,,,,,,2021-09-27,1,,,,,ネクストグリーン,0
597,3011803004786,新規,0,2021-09-27,2021-09-27,合同会社オーシャン,,合同会社,東京都,葛飾区,立石１丁目２２番１１－１２０４号,,13,122,1240012,,,,,,,2021-09-27,1,,,,,オーシャン,0
598,3012401038326,新規,0,2021-09-27,2021-09-27,株式会社ＰｏＭａ,,株式会社,東京都,調布市,上石原３丁目２９番地１０,,13,208,1820035,,,,,,,2021-09-27,1,,,,,ポマ,0
607,3013101008734,新規,0,2021-09-27,2021-09-27,株式会社三ツ橋電気,,株式会社,東京都,青梅市,新町１丁目１８番地の３４,,13,205,1980024,,,,,,,2021-09-27,1,,,,,ミツハシデンキ,0
650,3030001144427,新規,0,2021-09-27,2021-09-27,株式会社なみま,,株式会社,埼玉県,草加市,長栄４丁目４番地３,,11,221,3400051,,,,,,,2021-09-27,1,,,,,ナミマ,0
657,3030003017993,新規,0,2021-09-27,2021-09-27,Ｇｒａｚｉｅ合同会社,,合同会社,埼玉県,新座市,新堀１丁目１２番１８号サンブリーゼ３０５号室,,11,230,3520032,,,,,,,2021-09-27,1,,,,,グラッツェ,0
665,3060001034121,新規,0,2021-09-27,2021-09-27,株式会社エスカム,,株式会社,栃木県,那須塩原市,五軒町１－９レマックコーポＣ１１１,,09,213,3292753,,,,,,,2021-09-27,1,,,,,エスカム,0
678,3100001034629,新規,0,2021-09-27,2021-09-27,株式会社ＳＤＰｌｕｓ,,株式会社,長野県,飯田市,鼎切石４３９１番地１,,20,205,3950807,,,,,,,2021-09-27,1,,,,,エスディープラス,0
685,3120001240555,新規,0,2021-09-27,2021-09-27,ＲＩＫＫＡコーポレーション株式会社,,株式会社,大阪府,大阪市北区,本庄西１丁目１番７号,,27,127,5310073,,,,,,,2021-09-27,1,,,,,リッカコーポレーション,0
686,3120001240596,新規,0,2021-09-27,2021-09-27,株式会社Ｓ．ＢＲＯＯＭ,,株式会社,大阪府,大阪市中央区,難波３丁目１番２８号,,27,128,5420076,,,,,,,2021-09-27,1,,,,,エスドットブルーム,0
687,3120001240646,新規,0,2021-09-27,2021-09-27,株式会社ＥＳ－ＭＩＲＡＩ,,株式会社,大阪府,大阪市中央区,道修町１丁目４番６号,,27,128,5410045,,,,,,,2021-09-27,1,,,,,イーエスミライ,0
693,3120003020311,新規,0,2021-09-27,2021-09-27,ＥＮ合同会社,,合同会社,大阪府,大阪市城東区,野江２丁目２番１７号,,27,118,5360006,,,,,,,2021-09-27,1,,,,,イーエヌ,0
696,3120005022512,新規,0,2021-09-27,2021-09-27,一般社団法人日本キャンサーアピアランスケア協会,,その他の設立登記法人,大阪府,大阪市中央区,南船場２丁目１０番２１号,,27,128,5420081,,,,,,,2021-09-27,1,,,,,ニホンキャンサーアピアランスケアキョウカイ,0
699,3120103004354,新規,0,2021-09-27,2021-09-27,合同会社ｓｈｅｌｌ　ｖａｌｌｅｙ,,合同会社,大阪府,堺市北区,長曽根町７３４－４吉村ビル１Ｆ,,27,146,5918025,,,,,,,2021-09-27,1,,,,,シェルヴァレイ,0
700,3120105009450,新規,0,2021-09-27,2021-09-27,社会福祉法人のぼり藤,,その他の設立登記法人,大阪府,泉北郡忠岡町,高月南３丁目８番３７号,,27,341,5950802,,,,,,,2021-09-27,1,,,,,ノボリフジ,0
703,3122001035191,新規,0,2021-09-27,2021-09-27,ビートゥージェイグローバライズディ株式会社,,株式会社,大阪府,東大阪市,長堂１丁目３番１４号,,27,227,5770056,,,,,,,2021-09-27,1,,,,,ビートゥージェイグローバライズディ,0
707,3140001123139,新規,0,2021-09-27,2021-09-27,沖代工業株式会社,,株式会社,兵庫県,姫路市,北条口５丁目２２番地,,28,201,6700935,,,,,,,2021-09-27,1,,,,,オキシロコウギョウ,0
714,3160003002388,新規,0,2021-09-27,2021-09-27,合同会社Ｂｉｗａ－Ｌａｂｏ,,合同会社,滋賀県,大津市,和邇高城２７番地の８,,25,201,5200528,,,,,,,2021-09-27,1,,,,,ビワラボ,0
715,3160005010983,新規,0,2021-09-27,2021-09-27,医療法人社団まごころ会,,その他の設立登記法人,滋賀県,栗東市,手原２丁目２番８号,,25,208,5203047,,,,,,,2021-09-27,1,,,,,マゴコロカイ,0
722,3180001147902,新規,0,2021-09-27,2021-09-27,株式会社豪将,,株式会社,愛知県,春日井市,東野町５丁目９番地５,,23,206,4860817,,,,,,,2021-09-27,1,,,,,タケショウ,0
723,3180001147943,新規,0,2021-09-27,2021-09-27,株式会社さこう工務店,,株式会社,愛知県,清須市,廻間２丁目５番地１９,,23,233,4520946,,,,,,,2021-09-27,1,,,,,サコウコウムテン,0
731,3180301035402,新規,0,2021-09-27,2021-09-27,株式会社ＩＴＫ,,株式会社,愛知県,知立市,谷田町南屋下８２番地１ハルシオンデイズＢ１０５号,,23,225,4720013,,,,,,,2021-09-27,1,,,,,アイティーケー,0
742,3240001058639,新規,0,2021-09-27,2021-09-27,株式会社Ｐｅａｃｅ　ｏｆ　ｉ,,株式会社,広島県,広島市東区,牛田早稲田３丁目５－２－２４サトノワテラス北１０４,,34,102,7320062,,,,,,,2021-09-27,1,,,,,ピースオブアイ,0
744,3240003005291,新規,0,2021-09-27,2021-09-27,合同会社りゅうメンタルヘルス・ハラスメント相談産業医・労働衛生コンサルタント事務所,,合同会社,広島県,安芸郡府中町,青崎東３番２号,,34,302,7350015,,,,,,,2021-09-27,1,,,,,リュウメンタルヘルスハラスメントソウダンサンギョウイロウドウエイセイコンサルタントジムショ,0
756,3290003011649,新規,0,2021-09-27,2021-09-27,合同会社フィールドデザイン,,合同会社,福岡県,福津市,福間駅東３丁目１３番１２号,,40,224,8113208,,,,,,,2021-09-27,1,,,,,フィールドデザイン,0
757,3290803003936,新規,0,2021-09-27,2021-09-27,合同会社ａｓａｓ,,合同会社,福岡県,北九州市八幡西区,沖田３丁目１５番１５号,,40,109,8070077,,,,,,,2021-09-27,1,,,,,アスアス,0
762,3310001017488,新規,0,2021-09-27,2021-09-27,株式会社世通商事,,株式会社,長崎県,長崎市,本石灰町３番３号３Ｆ,,42,201,8500901,,,,,,,2021-09-27,1,,,,,セイツウショウジ,0
765,3320001018618,新規,0,2021-09-27,2021-09-27,株式会社九州地熱エネルギー,,株式会社,大分県,大分市,碩田町３丁目１番１号,,44,201,8700048,,,,,,,2021-09-27,1,,,,,キュウシュウチネツエネルギー,0
766,3330001029003,新規,0,2021-09-27,2021-09-27,株式会社フルフラット,,株式会社,熊本県,熊本市東区,戸島１丁目１１番１１号,,43,102,8618041,,,,,,,2021-09-27,1,,,,,フルフラット,0
779,3360001029405,新規,0,2021-09-27,2021-09-27,株式会社みゃーく,,株式会社,沖縄県,宮古島市,平良字西里５９番地１、１Ｆ,,47,214,9060012,,,,,,,2021-09-27,1,,,,,ミャーク,0
780,3360001029413,新規,0,2021-09-27,2021-09-27,株式会社マリンプロジェクト,,株式会社,沖縄県,糸満市,西川町３７番１１号,,47,210,9010304,,,,,,,2021-09-27,1,,,,,マリンプロジェクト,0
781,3360001029421,新規,0,2021-09-27,2021-09-27,株式会社Ｔｈｉｄａ　Ｓｔｏｎｅ,,株式会社,沖縄県,うるま市,みどり町４丁目１２番８号,,47,213,9042215,,,,,,,2021-09-27,1,,,,,ティダストーン,0
782,3360005006516,新規,0,2021-09-27,2021-09-27,一般社団法人沖縄沿海保全同友会,,その他の設立登記法人,沖縄県,中頭郡読谷村,字高志保９０番地,,47,324,9040323,,,,,,,2021-09-27,1,,,,,オキナワエンカイホゼンドウキュウカイ,0
785,3380005012479,新規,0,2021-09-27,2021-09-27,一般社団法人モクティ倶楽部,,その他の設立登記法人,福島県,本宮市,本宮字作田台６８番地１,,07,214,9691111,,,,,,,2021-09-27,1,,,,,モクティクラブ,0
792,3420005007771,新規,0,2021-09-27,2021-09-27,一般社団法人ＥＤＩＴ青森,,その他の設立登記法人,青森県,青森市,大字筒井字八ッ橋１１３番地５０有限会社グラフ青森内,,02,201,0300944,,,,,,,2021-09-27,1,,,,,エディットアオモリ,0
794,3430001084995,新規,0,2021-09-27,2021-09-27,ＹＳホールディングス株式会社,,株式会社,北海道,札幌市中央区,南三条東３丁目１８番地,,01,101,0600053,,,,,,,2021-09-27,1,,,,,ワイエスホールディングス,0
795,3430001085011,新規,0,2021-09-27,2021-09-27,株式会社ＡＥＧＩＳ,,株式会社,北海道,札幌市中央区,北三条西４丁目１－１日本生命札幌ビル１７階,,01,101,0600003,,,,,,,2021-09-27,1,,,,,イージス,0
796,3440003001411,新規,0,2021-09-27,2021-09-27,合同会社ａｓｈ,,合同会社,北海道,函館市,本町１５番８号,,01,202,0400011,,,,,,,2021-09-27,1,,,,,エーエスエイチ,0
811,4010001221359,新規,0,2021-09-27,2021-09-27,株式会社鹿島,,株式会社,東京都,千代田区,丸の内１丁目９番２号グラントウキョウサウスタワー１７階,,13,101,1000005,,,,,,,2021-09-27,1,,,,,カシマ,0
812,4010001221375,新規,0,2021-09-27,2021-09-27,株式会社ＴＯＭＵＰ,,株式会社,東京都,千代田区,神田佐久間河岸９１キューアス秋葉原ビル３０１号,,13,101,1010026,,,,,,,2021-09-27,1,,,,,トムアップ,0
813,4010001221400,新規,0,2021-09-27,2021-09-27,株式会社ＡＥＳ　Ｈｏｌｄｉｎｇｓ,,株式会社,東京都,千代田区,霞が関３丁目２番５号,,13,101,1000013,,,,,,,2021-09-27,1,,,,,エーイーエスホールディングス,0
815,4010003035897,新規,0,2021-09-27,2021-09-27,Ｗａｌｂｒｏ　Ｊａｐａｎ　Ｈｏｌｄｉｎｇｓ合同会社,,合同会社,東京都,中央区,日本橋室町４丁目３番９号,,13,102,1030022,,,,,,,2021-09-27,1,,,,,ウォルブロージャパンホールディングス,0
817,4010005033998,新規,0,2021-09-27,2021-09-27,サイバー・フィジカル・エンジニアリング技術研究組合,,その他の設立登記法人,東京都,千代田区,神田神保町２丁目１４朝日神保町プラザ１１０３号室,,13,101,1010051,,,,,,,2021-09-27,1,,,,,サイバーフィジカルエンジニアリング,0
818,4010401162839,新規,0,2021-09-27,2021-09-27,株式会社ＤＲエージェント,,株式会社,東京都,港区,北青山２丁目７番２０号猪瀬ビル２Ｆ,,13,103,1070061,,,,,,,2021-09-27,1,,,,,,0
819,4010403026166,新規,0,2021-09-27,2021-09-27,フリーダムハウス合同会社,,合同会社,東京都,港区,六本木４丁目１番２－２０１号,,13,103,1060032,,,,,,,2021-09-27,1,,,,,フリーダムハウス,0
820,4010403026174,新規,0,2021-09-27,2021-09-27,ヒロナリコーポレーション合同会社,,合同会社,東京都,港区,西麻布４丁目５番１０－１１０６号,,13,103,1060031,,,,,,,2021-09-27,1,,,,,ヒロナリコーポレーション,0
821,4010403026190,新規,0,2021-09-27,2021-09-27,ジェイ・オー・アイ合同会社,,合同会社,東京都,港区,六本木１丁目６番１号泉ガーデンタワー,,13,103,1060032,,,,,,,2021-09-27,1,,,,,ジェイオーアイ,0
822,4010501047865,新規,0,2021-09-27,2021-09-27,株式会社創信,,株式会社,東京都,台東区,北上野２丁目９番１９－１０２号,,13,106,1100014,,,,,,,2021-09-27,1,,,,,,0
825,4010701041560,新規,0,2021-09-27,2021-09-27,ＴＥＲＲＡＤＡ　ＩＮＶＥＳＴＭＥＮＴ　ＣＯＲＰＯＲＡＴＩＯＮ株式会社,,株式会社,東京都,品川区,東品川２丁目６番１０号,,13,109,1400002,,,,,,,2021-09-27,1,,,,,テラダインベストメントコーポレーション,0
828,4010901049362,新規,0,2021-09-27,2021-09-27,Ｆｉｔ　ｂｅａｕｔｙ株式会社,,株式会社,東京都,世田谷区,太子堂３丁目３８－１－２１９,,13,112,1540004,,,,,,,2021-09-27,1,,,,,フィットビューティー,0
831,4010903006824,新規,0,2021-09-27,2021-09-27,合同会社Ｋｏｎｇ,,合同会社,東京都,世田谷区,中町５丁目１７番２号,,13,112,1580091,,,,,,,2021-09-27,1,,,,,コン,0
847,4011101096344,新規,0,2021-09-27,2021-09-27,株式会社Ｔ．Ｍ　ＷＯＲＫＳ,,株式会社,東京都,新宿区,富久町１５番１号,,13,104,1620067,,,,,,,2021-09-27,1,,,,,ティーエムワークス,0
848,4011101096352,新規,0,2021-09-27,2021-09-27,株式会社スーパークルー,,株式会社,東京都,新宿区,北新宿１丁目２０番１０号,,13,104,1690074,,,,,,,2021-09-27,1,,,,,スーパークルー,0
850,4011103011020,新規,0,2021-09-27,2021-09-27,Ｌｏｔｕｓ合同会社,,合同会社,東京都,新宿区,大久保２丁目２７－８－１０１Ａ,,13,104,1690072,,,,,,,2021-09-27,1,,,,,ロータス,0
851,4011103011029,新規,0,2021-09-27,2021-09-27,合同会社セツゾクスタジオ,,合同会社,東京都,新宿区,西新宿６丁目１５番１号セントラルパークタワー・ラ・トゥール新宿７０１,,13,104,1600023,,,,,,,2021-09-27,1,,,,,セツゾクスタジオ,0
856,4011403003452,新規,0,2021-09-27,2021-09-27,合同会社ＤＭＣ,,合同会社,東京都,板橋区,前野町６丁目２番３号シャルム常盤台３０７号室,,13,119,1740063,,,,,,,2021-09-27,1,,,,,ディーエムシー,0
858,4011501027329,新規,0,2021-09-27,2021-09-27,株式会社タウルス,,株式会社,東京都,荒川区,東尾久３丁目１６番１０号ブランシェ町屋２０２,,13,118,1160012,,,,,,,2021-09-27,1,,,,,タウルス,0
865,4012403005034,新規,0,2021-09-27,2021-09-27,合同会社フライングＢ,,合同会社,東京都,府中市,若松町４丁目５１番１号グリーンパレス府中１０９,,13,206,1830005,,,,,,,2021-09-27,1,,,,,フライングビー,0
871,4013301048042,新規,0,2021-09-27,2021-09-27,株式会社エスエーワークス,,株式会社,東京都,豊島区,東池袋１丁目４２番１４号２８山京ビル７階５号,,13,116,1700013,,,,,,,2021-09-27,1,,,,,エスエーワークス,0
873,4013303005834,新規,0,2021-09-27,2021-09-27,楽楽合同会社,,合同会社,東京都,豊島区,巣鴨１丁目２１番５－５０３号,,13,116,1700002,,,,,,,2021-09-27,1,,,,,ラクラク,0
890,4030001144467,新規,0,2021-09-27,2021-09-27,ＰＡＬＡＤＩＮ　ＲＡＣＩＮＧ株式会社,,株式会社,埼玉県,川口市,坂下町２丁目６番１３号－１Ｆ,,11,203,3340003,,,,,,,2021-09-27,1,,,,,パラディンレーシング,0
891,4030001144483,新規,0,2021-09-27,2021-09-27,株式会社むすび,,株式会社,埼玉県,熊谷市,拾六間５９６番地１２,,11,202,3600846,,,,,,,2021-09-27,1,,,,,ムスビ,0
895,4040001120260,新規,0,2021-09-27,2021-09-27,株式会社ＣＯＷＡＮ’Ｓ,,株式会社,千葉県,八千代市,村上１１１３番地１,,12,221,2760028,,,,,,,2021-09-27,1,,,,,コーワンズ,0
896,4040001120285,新規,0,2021-09-27,2021-09-27,株式会社ケイ－フォース,,株式会社,千葉県,浦安市,高洲５丁目１番Ｃ－６１０号レジアスフォート新浦安,,12,227,2790023,,,,,,,2021-09-27,1,,,,,ケイフォース,0
897,4040001120302,新規,0,2021-09-27,2021-09-27,ＪＡＹＡＤＥＥＲＡ　ＥＮＴＥＲＰＲＩＳＥＳ株式会社,,株式会社,千葉県,白井市,折立５４８番地の１－Ｂ－０１,,12,232,2701404,,,,,,,2021-09-27,1,,,,,ジャヤディーラエンタープライジーズ,0
901,4040003018585,新規,0,2021-09-27,2021-09-27,合同会社ＣＳＫ,,合同会社,千葉県,浦安市,富士見３丁目２６番８号メゾン・パレドール１０７号室,,12,227,2790043,,,,,,,2021-09-27,1,,,,,シーエスケー,0
905,4040005021356,新規,0,2021-09-27,2021-09-27,特定非営利活動法人あわの風,,その他の設立登記法人,千葉県,館山市,北条１１７０番地の３,,12,205,2940045,,,,,,,2021-09-27,1,,,,,,0
907,4050001049879,新規,0,2021-09-27,2021-09-27,株式会社湖口商店,,株式会社,茨城県,常陸大宮市,鷲子３２番地１,,08,225,3192603,,,,,,,2021-09-27,1,,,,,コグチショウテン,0
913,4060005009903,新規,0,2021-09-27,2021-09-27,医療法人ＣＬＡＲＡ,,その他の設立登記法人,栃木県,下都賀郡壬生町,大字壬生甲３３１２番地１,,09,361,3210214,,,,,,,2021-09-27,1,,,,,クララ,0
938,4120001240595,新規,0,2021-09-27,2021-09-27,株式会社イジネス,,株式会社,大阪府,大阪市住吉区,庭井１丁目１１番１３号２０７号,,27,120,5580012,,,,,,,2021-09-27,1,,,,,イジネス,0
939,4120001240604,新規,0,2021-09-27,2021-09-27,藤原ホールディングス株式会社,,株式会社,大阪府,大阪市淀川区,新高１丁目７番３７号,,27,123,5320033,,,,,,,2021-09-27,1,,,,,フジワラホールディングス,0
940,4120001240612,新規,0,2021-09-27,2021-09-27,株式会社スキルデザイン,,株式会社,大阪府,大阪市中央区,北浜２丁目６番１８号淀屋橋スクエア８階,,27,128,5410041,,,,,,,2021-09-27,1,,,,,スキルデザイン,0
941,4120001240629,新規,0,2021-09-27,2021-09-27,株式会社Ｍ＆Ｃ,,株式会社,大阪府,大阪市中央区,船場中央３丁目３番９号船場センタービル９号館,,27,128,5410055,,,,,,,2021-09-27,1,,,,,エムアンドシー,0
942,4120001240645,新規,0,2021-09-27,2021-09-27,株式会社ＰＭチェリッシュ,,株式会社,大阪府,大阪市東淀川区,瑞光３丁目３番２３号,,27,114,5330005,,,,,,,2021-09-27,1,,,,,ピーエムチェリッシュ,0
944,4120003020277,新規,0,2021-09-27,2021-09-27,合同会社Ｉ’ｓＲＥＴ,,合同会社,大阪府,大阪市中央区,本町橋７番２０号,,27,128,5400029,,,,,,,2021-09-27,1,,,,,イズレット,0
945,4120003020293,新規,0,2021-09-27,2021-09-27,Ｍｏｎｄａｙ合同会社,,合同会社,大阪府,大阪市北区,天満２丁目７番１４号,,27,127,5300043,,,,,,,2021-09-27,1,,,,,マンデイ,0
947,4120101064341,新規,0,2021-09-27,2021-09-27,Ｐｏｓｉｔｉｖｅ　Ｒｏｕｔｅ株式会社,,株式会社,大阪府,高石市,千代田５丁目１番２号,,27,225,5920005,,,,,,,2021-09-27,1,,,,,ポジティブルート,0
968,4140003016777,新規,0,2021-09-27,2021-09-27,ミンタス合同会社,,合同会社,兵庫県,伊丹市,東有岡１丁目３１番地,,28,207,6640845,,,,,,,2021-09-27,1,,,,,ミンタス,0
969,4150001024946,新規,0,2021-09-27,2021-09-27,株式会社ミーライ・エデュケーション,,株式会社,奈良県,御所市,大字元町２４番地の２５,,29,208,6392301,,,,,,,2021-09-27,1,,,,,ミーライエデュケーション,0
972,4160003002387,新規,0,2021-09-27,2021-09-27,合同会社清水農園,,合同会社,滋賀県,高島市,今津町深清水９９２番地,,25,212,5201601,,,,,,,2021-09-27,1,,,,,シミズノウエン,0
981,4180001147934,新規,0,2021-09-27,2021-09-27,株式会社ＯＺＡＸＥ,,株式会社,愛知県,名古屋市瑞穂区,井の元町６２番地,,23,108,4670057,,,,,,,2021-09-27,1,,,,,オザックス,0
988,4180301035401,新規,0,2021-09-27,2021-09-27,株式会社Ｇｒｏｗ　Ｗａｎｐ,,株式会社,愛知県,豊橋市,向山町字伝馬２番地８,,23,201,4400864,,,,,,,2021-09-27,1,,,,,グローワンプ,0
992,4190003003770,新規,0,2021-09-27,2021-09-27,リプライ合同会社,,合同会社,三重県,鈴鹿市,白子町３２０３番地の１,,24,207,5100244,,,,,,,2021-09-27,1,,,,,リプライ,0
997,4200001039170,新規,0,2021-09-27,2021-09-27,株式会社Ｅ－ｆｏｒｃｅ,,株式会社,岐阜県,羽島郡岐南町,八剣北１丁目８３番地の１,,21,302,5016011,,,,,,,2021-09-27,1,,,,,イーフォース,0
998,4200001039179,新規,0,2021-09-27,2021-09-27,木村電設株式会社,,株式会社,岐阜県,大垣市,墨俣町墨俣６１２番地,,21,202,5030102,,,,,,,2021-09-27,1,,,,,キムラデンセツ,0
1005,4210003001409,新規,0,2021-09-27,2021-09-27,ｔｅｔｏｔｅ訪問看護ステーション合同会社,,合同会社,福井県,大飯郡高浜町,三明第３号３４番地,,18,481,9192229,,,,,,,2021-09-27,1,,,,,テトテホウモンカンゴステーション,0
1011,4240001058646,新規,0,2021-09-27,2021-09-27,株式会社田中建装,,株式会社,広島県,広島市中区,基町１９番１－９０９号,,34,101,7300011,,,,,,,2021-09-27,1,,,,,タナカケンソウ,0
1016,4290001094728,新規,0,2021-09-27,2021-09-27,Ｎａｎｏｐｌａｎｅｔ　Ｎｅｂｕｌａ株式会社,,株式会社,福岡県,福岡市博多区,博多駅前２丁目１９番１７号トーカン博多第５ビル３１２号室,,40,132,8120011,,,,,,,2021-09-27,1,,,,,ナノプラネットネビュラ,0
1017,4290001094736,新規,0,2021-09-27,2021-09-27,株式会社ＮＩＫＵＪＩＬＬＥ,,株式会社,福岡県,福岡市早良区,百道２丁目４番４１－７０４号レジデンス百道,,40,137,8140006,,,,,,,2021-09-27,1,,,,,ニクジル,0
1026,4290801027829,新規,0,2021-09-27,2021-09-27,株式会社ＭＨＫ　ＴＯＴＡＬ　ＰＲＯＤＵＣＥ,,株式会社,福岡県,北九州市八幡西区,上上津役２丁目４番１５号（１０１）,,40,109,8070072,,,,,,,2021-09-27,1,,,,,エムエイチケイトータルプロデュース,0
1037,4330001029010,新規,0,2021-09-27,2021-09-27,株式会社Ｎｅｗ　Ｇａｔｅ,,株式会社,熊本県,合志市,幾久富１９０９番地１８４４,,43,216,8611112,,,,,,,2021-09-27,1,,,,,ニューゲート,0
1046,4370003005402,新規,0,2021-09-27,2021-09-27,合同会社Ｐｒｉｍａｖｅｒａ,,合同会社,宮城県,気仙沼市,赤岩舘森１６番地４２,,04,205,9880102,,,,,,,2021-09-27,1,,,,,,0
1050,4380005012478,新規,0,2021-09-27,2021-09-27,医療法人清信会,,その他の設立登記法人,福島県,会津若松市,山見町４０－２,,07,202,9650021,,,,,,,2021-09-27,1,,,,,セイシンカイ,0
1063,4430001085019,新規,0,2021-09-27,2021-09-27,株式会社Ｒｅ．ＭＵＫＩＡ,,株式会社,北海道,札幌市豊平区,月寒東一条１５丁目１３－２０－２０３,,01,105,0620051,,,,,,,2021-09-27,1,,,,,リムキア,0
1064,4430001085035,新規,0,2021-09-27,2021-09-27,株式会社ＳＴ．Ｂｒｏｗｎ,,株式会社,北海道,札幌市中央区,南九条西５丁目１番地１５ＳＡＫＵＲＡ－Ｓ９・３Ｆ,,01,101,0640809,,,,,,,2021-09-27,1,,,,,エスティーブラウン,0
1067,4430003013175,新規,0,2021-09-27,2021-09-27,合同会社スカイフィールド,,合同会社,北海道,札幌市中央区,北五条西１０丁目３－１－３２５,,01,101,0600005,,,,,,,2021-09-27,1,,,,,スカイフィールド,0
1068,4460105002222,新規,0,2021-09-27,2021-09-27,特定非営利活動法人地域子育てネットすくさぽ,,その他の設立登記法人,北海道,帯広市,東十一条南９丁目１番地市民活動プラザ六中３Ｆ,,01,207,0800811,,,,,,,2021-09-27,1,,,,,チイキコソダテネットスクサポ,0
1069,4462501000908,新規,0,2021-09-27,2021-09-27,株式会社たまゆら牧場,,株式会社,北海道,標津郡標津町,字川北１５７１番地３,,01,693,0861451,,,,,,,2021-09-27,1,,,,,タマユラボクジョウ,0
1071,4500001023697,新規,0,2021-09-27,2021-09-27,株式会社ｍｉｌｅｓｔｏｎｅ,,株式会社,愛媛県,松山市,北井門３丁目１７番１８号,,38,201,7911105,,,,,,,2021-09-27,1,,,,,マイルストーン,0
1089,5010101014876,新規,0,2021-09-27,2021-09-27,株式会社東,,株式会社,東京都,八王子市,元横山町３丁目１２番５号メゾン元横２０１号,,13,201,1920063,,,,,,,2021-09-27,1,,,,,,0
1097,5010401162879,新規,0,2021-09-27,2021-09-27,株式会社堅実不動産,,株式会社,東京都,港区,赤坂４丁目８番１９号,,13,103,1070052,,,,,,,2021-09-27,1,,,,,ケンジツフドウサン,0
1098,5010401162887,新規,0,2021-09-27,2021-09-27,株式会社大石キャピタル,,株式会社,東京都,港区,元麻布１丁目３番１号,,13,103,1060046,,,,,,,2021-09-27,1,,,,,オオイシキャピタル,0
1099,5010401162895,新規,0,2021-09-27,2021-09-27,株式会社ＢＥＹＳ,,株式会社,東京都,港区,高輪４丁目１７番９－２０４号,,13,103,1080074,,,,,,,2021-09-27,1,,,,,ビーイス,0
1100,5010403026157,新規,0,2021-09-27,2021-09-27,合同会社Ｔｏｋｙｏ　Ｂｒａｉｎ　Ｓｔｕｄｉｏ,,合同会社,東京都,港区,南青山２丁目２番１５号,,13,103,1070062,,,,,,,2021-09-27,1,,,,,トーキョーブレインスタジオ,0
1101,5010403026173,新規,0,2021-09-27,2021-09-27,ＳＯＩＥ合同会社,,合同会社,東京都,港区,六本木７丁目７番７号８Ｆ,,13,103,1060032,,,,,,,2021-09-27,1,,,,,ソワ,0
1102,5010403026181,新規,0,2021-09-27,2021-09-27,合同会社海＆空,,合同会社,東京都,港区,芝４丁目７番６号,,13,103,1080014,,,,,,,2021-09-27,1,,,,,ウミアンドソラ,0
1121,5011001142882,新規,0,2021-09-27,2021-09-27,ＣＯＬＯＲＢＯＸ株式会社,,株式会社,東京都,渋谷区,神宮前６丁目２３番４号,,13,113,1500001,,,,,,,2021-09-27,1,,,,,カラーボックス,0
1122,5011001142899,新規,0,2021-09-27,2021-09-27,Ｉｃｅｂｌｕｅ　Ｗｏｒｌｄ株式会社,,株式会社,東京都,渋谷区,神宮前３丁目３２番２号,,13,113,1500001,,,,,,,2021-09-27,1,,,,,アイスブルーワールド,0
1123,5011001142924,新規,0,2021-09-27,2021-09-27,株式会社Ｋ・Ｋ－ＨＯＰＥ,,株式会社,東京都,渋谷区,千駄ヶ谷５丁目２番３号,,13,113,1510051,,,,,,,2021-09-27,1,,,,,ケーケーホープ,0
1129,5011101096046,新規,0,2021-09-27,2021-09-27,株式会社ｄｕｅｐ,,株式会社,東京都,新宿区,早稲田町７４鱒渕ビル４０１,,13,104,1620042,,,,,,,2021-09-27,1,,,,,デュープ,0
1130,5011101096351,新規,0,2021-09-27,2021-09-27,株式会社スパイステクノロジー,,株式会社,東京都,新宿区,四谷４丁目８番地ライオンズ四谷タワーゲート１１０４,,13,104,1600004,,,,,,,2021-09-27,1,,,,,スパイステクノロジー,0
1131,5011101096376,新規,0,2021-09-27,2021-09-27,株式会社Ｄｒ．Ｆｏｏｄｓ,,株式会社,東京都,新宿区,新宿１丁目３４番１６号,,13,104,1600022,,,,,,,2021-09-27,1,,,,,ドクターフーズ,0
1132,5011101096392,新規,0,2021-09-27,2021-09-27,株式会社トランジスタ,,株式会社,東京都,新宿区,大京町２６番地５１アズミュージック新宿御苑１００１,,13,104,1600015,,,,,,,2021-09-27,1,,,,,トランジスタ,0
1137,5011601025413,新規,0,2021-09-27,2021-09-27,株式会社スマーチル,,株式会社,東京都,練馬区,西大泉１丁目３番１－１０６号,,13,120,1780065,,,,,,,2021-09-27,1,,,,,,0
1141,5011801039733,新規,0,2021-09-27,2021-09-27,株式会社アース,,株式会社,東京都,足立区,谷中１丁目２３－１５,,13,121,1200006,,,,,,,2021-09-27,1,,,,,アース,0
1143,5012401038316,新規,0,2021-09-27,2021-09-27,株式会社ｄｏ－ＣＲＥＡ,,株式会社,東京都,武蔵野市,吉祥寺本町２丁目８番４号ⅰ－ｏｆｆｉｃｅ吉祥寺,00124323,13,203,1800004,,,,,,,2021-09-27,1,,,,,ドゥークレア,0
1144,5012701016681,新規,0,2021-09-27,2021-09-27,株式会社ＵＮＯ,,株式会社,東京都,東村山市,栄町２丁目４－２３グラントルム弐番館１Ｆ,,13,213,1890013,,,,,,,2021-09-27,1,,,,,ウーノ,0
1145,5012703002317,新規,0,2021-09-27,2021-09-27,合同会社吉田企画,00124324,合同会社,東京都,東久留米市,上の原１丁目３番６－３１６号,,13,222,2030001,,,,,,,2021-09-27,1,,,,,ヨシダキカク,0
1151,5013301048041,新規,0,2021-09-27,2021-09-27,ＹＤ．Ｊ株式会社,,株式会社,東京都,豊島区,東池袋１丁目３４番５号いちご東池袋ビル６階,,13,116,1700013,,,,,,,2021-09-27,1,,,,,ワイディジェイ,0
1157,5020001143147,新規,0,2021-09-27,2021-09-27,株式会社スターディオ,,株式会社,神奈川県,横浜市西区,浅間町１丁目２番地６－３０１号,,14,103,2200072,,,,,,,2021-09-27,1,,,,,スターディオ,0
1160,5020003020526,新規,0,2021-09-27,2021-09-27,ＵＸＡ合同会社,,合同会社,神奈川県,川崎市川崎区,京町２丁目１番１８－２１１号アルカサル京町,,14,131,2100848,,,,,,,2021-09-27,1,,,,,ユーサ,0
1161,5020003020534,新規,0,2021-09-27,2021-09-27,ラクサボ合同会社,,合同会社,神奈川県,横浜市西区,北幸１丁目１１番１号水信ビル７階,,14,103,2200004,,,,,,,2021-09-27,1,,,,,ラクサボ,0
1162,5021001073994,新規,0,2021-09-27,2021-09-27,株式会社Ｆホールディングス,,株式会社,神奈川県,三浦市,晴海町８番１４号,,14,210,2380232,,,,,,,2021-09-27,1,,,,,エフホールディングス,0
1163,5021001074019,新規,0,2021-09-27,2021-09-27,Ｌｉｆｅ　Ｒｅｖｅｒｓａｌ株式会社,,株式会社,神奈川県,相模原市南区,東林間４丁目９番２号,,14,153,2520311,,,,,,,2021-09-27,1,,,,,ライフリヴァーサル,0
1174,5030001144433,新規,0,2021-09-27,2021-09-27,Ａｌｉｃｅ株式会社,,株式会社,埼玉県,川口市,川口２丁目１番５号ラ・トゥール川口５０２,,11,203,3320015,,,,,,,2021-09-27,1,,,,,アリス,0
1175,5030001144490,新規,0,2021-09-27,2021-09-27,株式会社ＫＯＭＵＤＥＮ,,株式会社,埼玉県,北足立郡伊奈町,栄２丁目８０番地１栄ビューハイツ２０２,,11,301,3620805,,,,,,,2021-09-27,1,,,,,コムデン,0
1179,5040003018543,新規,0,2021-09-27,2021-09-27,Ｃ．Ｅ．Ｄｅｓｉｇｎ合同会社,,合同会社,千葉県,東金市,押堀１４２７－３,,12,213,2830065,,,,,,,2021-09-27,1,,,,,シーイーデザイン,0
1182,5050001049878,新規,0,2021-09-27,2021-09-27,株式会社海老原造園,,株式会社,茨城県,取手市,稲１１１９番地,,08,217,3020026,,,,,,,2021-09-27,1,,,,,エビハラゾウエン,0
1184,5060001034094,新規,0,2021-09-27,2021-09-27,那須ＯＳＵＳＯＷＡＫＥ株式会社,,株式会社,栃木県,大田原市,若松町５０５－１,,09,210,3240054,,,,,,,2021-09-27,1,,,,,ナスオスソワケ,0
1188,5080001024457,新規,0,2021-09-27,2021-09-27,採用促進機構株式会社,,株式会社,静岡県,静岡市清水区,宮加三１９－１エルヴァス２０３号,,22,103,4240911,,,,,,,2021-09-27,1,,,,,サイヨウソクシンキコウ,0
1190,5080401025352,新規,0,2021-09-27,2021-09-27,ＨＥＡＬＴＨ　ＦＩＲＳＴ株式会社,,株式会社,静岡県,浜松市中区,鹿谷町１２番２２号ＱｕａＴＴｒｏ１０３,,22,131,4328014,,,,,,,2021-09-27,1,,,,,ヘルスファースト,0
1193,5090001017204,新規,0,2021-09-27,2021-09-27,株式会社Ａ・Ｋ・Ｍ,,株式会社,山梨県,南都留郡鳴沢村,９９１１番地１１０,,19,429,4010320,,,,,,,2021-09-27,1,,,,,エーケーエム,0
1215,5120001240504,新規,0,2021-09-27,2021-09-27,ヨド・テック株式会社,,株式会社,大阪府,大阪市西淀川区,中島１丁目１８番３９号,,27,113,5550041,,,,,,,2021-09-27,1,,,,,ヨドテック,0
1216,5120001240594,新規,0,2021-09-27,2021-09-27,株式会社リソースジャパン,,株式会社,大阪府,大阪市浪速区,桜川３丁目５番５号小林ビル,,27,111,5560022,,,,,,,2021-09-27,1,,,,,リソースジャパン,0
1217,5120001240628,新規,0,2021-09-27,2021-09-27,株式会社ＭＡＮＡＳＵ,,株式会社,大阪府,大阪市大正区,三軒家東１丁目６番４号,,27,108,5510002,,,,,,,2021-09-27,1,,,,,マナス,0
1219,5120003020292,新規,0,2021-09-27,2021-09-27,合同会社岡田デザイン研究所,,合同会社,大阪府,大阪市西区,京町堀１丁目１１番７号京旺ビル４階Ｂ号室,,27,106,5500003,,,,,,,2021-09-27,1,,,,,オカダデザインケンキュウショ,0
1222,5120101064340,新規,0,2021-09-27,2021-09-27,株式会社クラフトワーク,,株式会社,大阪府,羽曳野市,野２４９－１,,27,222,5830884,,,,,,,2021-09-27,1,,,,,クラフトワーク,0
1223,5120103004360,新規,0,2021-09-27,2021-09-27,合同会社ＴＫＯ,,合同会社,大阪府,堺市西区,原田１０３番地３ヨーク原田２Ｆ,,27,144,5938317,,,,,,,2021-09-27,1,,,,,ティーケーオー,0
1251,5180001147917,新規,0,2021-09-27,2021-09-27,株式会社ＢＵＺＺ,,株式会社,愛知県,名古屋市中区,富士見町１３番１９号,,23,106,4600014,,,,,,,2021-09-27,1,,,,,バズ,0
1256,5190005011622,新規,0,2021-09-27,2021-09-27,大山税理士法人,,その他の設立登記法人,三重県,四日市市,安島２丁目１０番１６号ミッドビルディング四日市３階,,24,202,5100075,,,,,,,2021-09-27,1,,,,,オオヤマ,0
1266,5240001058629,新規,0,2021-09-27,2021-09-27,株式会社賑わい廿日市,,株式会社,広島県,廿日市市,大野１丁目１番２７号,,34,213,7390434,,,,,,,2021-09-27,1,,,,,ニギワイハツカイチ,0
1267,5240001058645,新規,0,2021-09-27,2021-09-27,株式会社ＤＣＴ　ＦＯＯＤＳ,,株式会社,広島県,広島市安佐北区,三入５丁目５番６号,,34,106,7310211,,,,,,,2021-09-27,1,,,,,ディシィティフーズ,0
1280,5280003001533,新規,0,2021-09-27,2021-09-27,合同会社もりわき会計,,合同会社,島根県,隠岐郡隠岐の島町,飯美１０２番地１,,32,528,6850411,,,,,,,2021-09-27,1,,,,,,0
1288,5290005018376,新規,0,2021-09-27,2021-09-27,アールジャパン協同組合,,その他の設立登記法人,福岡県,福岡市東区,松島３丁目２３番４５号,,40,131,8130062,,,,,,,2021-09-27,1,,,,,アールジャパン,0
1301,5330005010403,新規,0,2021-09-27,2021-09-27,一般社団法人ＭＡＥＤＡ,,その他の設立登記法人,熊本県,熊本市南区,刈草２丁目２番１２号,,43,104,8614134,,,,,,,2021-09-27,1,,,,,マエダ,0
1312,5430001085026,新規,0,2021-09-27,2021-09-27,株式会社Ｓａｎｍｉｎｉｔｙ,,株式会社,北海道,札幌市中央区,南四条西５丁目３番３号,,01,101,0640804,,,,,,,2021-09-27,1,,,,,サンミニティ,0
1318,5470001018725,新規,0,2021-09-27,2021-09-27,株式会社ＭＡＩＯＲＩ,,株式会社,香川県,高松市,楠上町２丁目３番７－３１３号,,37,201,7600075,,,,,,,2021-09-27,1,,,,,マイオリ,0
1319,5470003002041,新規,0,2021-09-27,2021-09-27,合同会社ミュート,,合同会社,香川県,高松市,御坊町４番地１８,,37,201,7600044,,,,,,,2021-09-27,1,,,,,ミュート,0
1324,5480005006857,新規,0,2021-09-27,2021-09-27,一般社団法人那賀商事,,その他の設立登記法人,徳島県,那賀郡那賀町,和食郷字八幡原２９番地５,,36,368,7715203,,,,,,,2021-09-27,1,,,,,ナカショウジ,0
1326,5700150104871,新規,0,2021-09-27,2021-09-27,ＣＥＮＴＲＯ　ＴＲＡＤＩＮＧ　ＰＲＩＶＡＴＥ　ＬＩＭＩＴＥＤ,,外国会社等,神奈川県,厚木市,金田８２７－１２,,14,212,2430807,スリランカ民主社会主義共和国、アクラナ、デマタガハムッラテンナＮｏ．２３４／４,,,,,,2021-09-27,1,,,,,セントロトレーデイングプライベートリミテツド,0
1336,6010001220813,新規,0,2021-09-27,2021-09-27,株式会社ｍｙＰＡＣＥ,,株式会社,東京都,中央区,銀座６丁目７番１５号岩月第２ビル７階,,13,102,1040061,,,,,,,2021-09-27,1,,,,,マイペース,0
1337,6010001221258,新規,0,2021-09-27,2021-09-27,株式会社インテグリティ,,株式会社,東京都,千代田区,九段南１丁目５－６りそな九段ビル５ＦＫＳフロア,,13,101,1020074,,,,,,,2021-09-27,1,,,,,インテグリティ,0
1338,6010001221373,新規,0,2021-09-27,2021-09-27,株式会社Ｄｉｏｃｏｄｅ,,株式会社,東京都,中央区,銀座１丁目２２番１号２Ｆ,,13,102,1040061,,,,,,,2021-09-27,1,,,,,ディオコード,0
1344,6010401162812,新規,0,2021-09-27,2021-09-27,京翔株式会社,,株式会社,東京都,港区,芝大門２丁目１３番３号,,13,103,1050012,,,,,,,2021-09-27,1,,,,,キョウショウ,0
1345,6010401162820,新規,0,2021-09-27,2021-09-27,株式会社萩原鼓十郎商店,,株式会社,東京都,港区,南青山２丁目２番１５号,,13,103,1070062,,,,,,,2021-09-27,1,,,,,ハギハラコジュウロウショウテン,0
1346,6010401162886,新規,0,2021-09-27,2021-09-27,株式会社Ｎ９,,株式会社,東京都,港区,芝３丁目３２番９号,,13,103,1050014,,,,,,,2021-09-27,1,,,,,ナチュラルナイン,0
1347,6010403026172,新規,0,2021-09-27,2021-09-27,ＫＬＥＥＰ合同会社,,合同会社,東京都,港区,虎ノ門５丁目１３番１号虎ノ門４０ＭＴビル７階,,13,103,1050001,,,,,,,2021-09-27,1,,,,,,0
1348,6010403026180,新規,0,2021-09-27,2021-09-27,合同会社ａｎｉｅｎｃｅ,,合同会社,東京都,港区,東麻布２丁目３０－２,,13,103,1060044,,,,,,,2021-09-27,1,,,,,アニエンス,0
1349,6010403026189,新規,0,2021-09-27,2021-09-27,南青山プロパティー１合同会社,,合同会社,東京都,港区,六本木１丁目６番１号泉ガーデンタワー,,13,103,1060032,,,,,,,2021-09-27,1,,,,,ミナミアオヤマプロパティーワン,0
1351,6010501047863,新規,0,2021-09-27,2021-09-27,株式会社ＹＭＳコンサルティング,,株式会社,東京都,台東区,入谷１丁目３１番８－７０１号ウィル・リーベル東京入谷,,13,106,1100013,,,,,,,2021-09-27,1,,,,,ワイエムエスコンサルティング,0
1361,6011001142907,新規,0,2021-09-27,2021-09-27,株式会社ＧＦＯ,,株式会社,東京都,渋谷区,神宮前４丁目６番５号,,13,113,1500001,,,,,,,2021-09-27,1,,,,,ジーエフオー,0
1367,6011101096301,新規,0,2021-09-27,2021-09-27,株式会社青天地所,,株式会社,東京都,新宿区,北新宿１丁目５番２号佐藤ビル６階,,13,104,1690074,,,,,,,2021-09-27,1,,,,,セイテンジショ,0
1368,6011101096334,新規,0,2021-09-27,2021-09-27,名称未設定株式会社,,株式会社,東京都,新宿区,百人町１丁目１０－１５ＪＲ新大久保ビル４Ｆ,,13,104,1690073,,,,,,,2021-09-27,1,,,,,メイショウミセッテイ,0
1369,6011101096350,新規,0,2021-09-27,2021-09-27,株式会社ＰＬＵＳ　ＯＮＥ,,株式会社,東京都,新宿区,西新宿６丁目２０番７－２１１５号,,13,104,1600023,,,,,,,2021-09-27,1,,,,,プラスワン,0
1370,6011101096359,新規,0,2021-09-27,2021-09-27,ＶＳＦ株式会社,,株式会社,東京都,新宿区,高田馬場４丁目１７番１６号,,13,104,1690075,,,,,,,2021-09-27,1,,,,,ブイエスエフ,0
1371,6011103011035,新規,0,2021-09-27,2021-09-27,合同会社Ｕ－Ｆａｔｅ,,合同会社,東京都,新宿区,新宿７丁目１２番１号新宿平和ビル１階,,13,104,1600022,,,,,,,2021-09-27,1,,,,,ユーフェイト,0
1374,6011301027188,新規,0,2021-09-27,2021-09-27,ＧＲＩＴ株式会社,,株式会社,東京都,杉並区,西荻北２丁目３番１２－２０６号ＢＥＬＩＳＴＡ西荻窪,,13,115,1670042,,,,,,,2021-09-27,1,,,,,グリット,0
1376,6011701024727,新規,0,2021-09-27,2021-09-27,株式会社インフィニティコネクト,,株式会社,東京都,江戸川区,篠崎町４丁目１３番１３号－１Ｆ,,13,123,1330061,,,,,,,2021-09-27,1,,,,,インフィニティコネクト,0
1377,6011703002945,新規,0,2021-09-27,2021-09-27,合同会社ＨＩＲＯ,,合同会社,東京都,江戸川区,西葛西２丁目１８番７－６０２号第２ニュー和幸,,13,123,1340088,,,,,,,2021-09-27,1,,,,,ヒロ,0
1392,6020001143146,新規,0,2021-09-27,2021-09-27,株式会社Ｈｉｄａ　Ｙｏｕ,,株式会社,神奈川県,川崎市川崎区,堀之内町５番地６－１階,,14,131,2100003,,,,,,,2021-09-27,1,,,,,ヒダユウ,0
1397,6020003020533,新規,0,2021-09-27,2021-09-27,合同会社つみれプラス,,合同会社,神奈川県,横浜市港北区,新吉田東８丁目５１番１２－４０３号,,14,109,2230058,,,,,,,2021-09-27,1,,,,,ツミレプラス,0
1401,6021001074026,新規,0,2021-09-27,2021-09-27,株式会社ＭＩＯ,,株式会社,神奈川県,相模原市緑区,原宿１丁目５番９号,,14,151,2520102,,,,,,,2021-09-27,1,,,,,ミオ,0
1407,6030001144424,新規,0,2021-09-27,2021-09-27,サクセスライン株式会社,,株式会社,埼玉県,三郷市,彦江１丁目３９番地２,,11,237,3410058,,,,,,,2021-09-27,1,,,,,サクセスライン,0
1408,6030001144465,新規,0,2021-09-27,2021-09-27,株式会社赤とんぼ,,株式会社,埼玉県,川口市,桜町６丁目８番１２号,,11,203,3340001,,,,,,,2021-09-27,1,,,,,アカトンボ,0
1409,6030001144481,新規,0,2021-09-27,2021-09-27,株式会社ＪＢ　ＴＲＵＳＴ　ＩＮＴＥＲＮＡＴＩＯＮＡＬ,,株式会社,埼玉県,蕨市,塚越５丁目４６番１－２０５号,,11,223,3350002,,,,,,,2021-09-27,1,,,,,ジェイビートラストインターナショナル,0
1415,6030003018007,新規,0,2021-09-27,2021-09-27,合同会社ＳＲＹ,,合同会社,埼玉県,狭山市,祇園１５番２１号,,11,215,3501307,,,,,,,2021-09-27,1,,,,,スライ,0
1417,6040001120283,新規,0,2021-09-27,2021-09-27,Ｓ．Ｋ　ＴＲＡＤＩＮＧ株式会社,,株式会社,千葉県,野田市,木間ケ瀬４６７１番地１７,,12,208,2700222,,,,,,,2021-09-27,1,,,,,エスケートレーディング,0
1420,6040003018591,新規,0,2021-09-27,2021-09-27,ＳＡＹＯＮ合同会社,,合同会社,千葉県,柏市,緑台５番地１３恩田コーポ２０３号,,12,217,2770903,,,,,,,2021-09-27,1,,,,,サヨン,0
1422,6050001049877,新規,0,2021-09-27,2021-09-27,株式会社翔馬,,株式会社,茨城県,水戸市,千波町１７１７番地の２０,,08,201,3100851,,,,,,,2021-09-27,1,,,,,ショウマ,0
1436,6090001017203,新規,0,2021-09-27,2021-09-27,株式会社Ｈｅａｒｔ,,株式会社,山梨県,中央市,西花輪２７１番地１,,19,214,4093843,,,,,,,2021-09-27,1,,,,,ハート,0
1440,6100003006243,新規,0,2021-09-27,2021-09-27,合同会社心太郎,,合同会社,長野県,東御市,常田３１６番地１,,20,219,3890515,,,,,,,2021-09-27,1,,,,,コタロウ,0
1447,6120001240593,新規,0,2021-09-27,2021-09-27,株式会社イーサ,,株式会社,大阪府,大阪市北区,梅田１丁目１１番４号大阪駅前第４ビル９階９２３・１６０７号,,27,127,5300001,,,,,,,2021-09-27,1,,,,,イーサ,0
1448,6120001240602,新規,0,2021-09-27,2021-09-27,株式会社ａｎｅｌｌｏ　ｈｏｍｅ,,株式会社,大阪府,交野市,私部西２丁目２番１号ウエストコート１０４,,27,230,5760041,,,,,,,2021-09-27,1,,,,,アネロホーム,0
1449,6120001240610,新規,0,2021-09-27,2021-09-27,株式会社しょうふく,,株式会社,大阪府,大阪市此花区,春日出中２丁目２番２２号,,27,104,5540022,,,,,,,2021-09-27,1,,,,,ショウフク,0
1450,6120001240627,新規,0,2021-09-27,2021-09-27,株式会社カンパイカンパニー,,株式会社,大阪府,枚方市,津田元町２丁目２３番２９号,,27,210,5730127,,,,,,,2021-09-27,1,,,,,カンパイカンパニー,0
1451,6120001240643,新規,0,2021-09-27,2021-09-27,株式会社メタルネットホールディングス,,株式会社,大阪府,大阪市中央区,南船場３丁目２番２２号,,27,128,5420081,,,,,,,2021-09-27,1,,,,,メタルネットホールディングス,0
1454,6120003020291,新規,0,2021-09-27,2021-09-27,合同会社キュンキュン,,合同会社,大阪府,大阪市都島区,善源寺町２丁目２番１－７１５号,,27,102,5340015,,,,,,,2021-09-27,1,,,,,キュンキュン,0
1458,6120101064315,新規,0,2021-09-27,2021-09-27,株式会社イザナギ,,株式会社,大阪府,堺市美原区,多治井１７番地,,27,147,5870012,,,,,,,2021-09-27,1,,,,,イザナギ,0
1459,6120101064348,新規,0,2021-09-27,2021-09-27,株式会社Ｆｏｕｎｄ　Ｎａｔｉｏｎ,,株式会社,大阪府,堺市西区,菱木３丁１９０８番地１,,27,144,5938315,,,,,,,2021-09-27,1,,,,,ファウンドネイション,0
1462,6120901044929,新規,0,2021-09-27,2021-09-27,株式会社ＩＴＳＵＫＩ,,株式会社,大阪府,豊中市,緑丘１丁目２０番８号,,27,203,5600002,,,,,,,2021-09-27,1,,,,,イツキ,0
1463,6120901044937,新規,0,2021-09-27,2021-09-27,株式会社Ｄｎ２,,株式会社,大阪府,吹田市,岸部北５丁目１９番１１号,,27,205,5640001,,,,,,,2021-09-27,1,,,,,ディーエヌツー,0
1468,6130003007503,新規,0,2021-09-27,2021-09-27,合同会社Ｓｆｉｄａ,,合同会社,京都府,京都市下京区,仏光寺通烏丸東入上柳町３３１番地タカノハスクエア４階,,26,106,6008099,,,,,,,2021-09-27,1,,,,,スフィーダ,0
1476,6140001123185,新規,0,2021-09-27,2021-09-27,株式会社マグノリア,,株式会社,兵庫県,西宮市,青木町１３番１１号,,28,204,6620862,,,,,,,2021-09-27,1,,,,,マグノリア,0
1495,6180005019450,新規,0,2021-09-27,2021-09-27,司法書士法人アレクシア,,その他の設立登記法人,愛知県,名古屋市中村区,名駅４丁目１３番７号西柳パークビル４階,,23,105,4500002,,,,,,,2021-09-27,1,,,,,アレクシア,0
1497,6190003003769,新規,0,2021-09-27,2021-09-27,合同会社Ｍ教育ラボ,,合同会社,三重県,津市,長岡町３０５０番地９,,24,201,5140064,,,,,,,2021-09-27,1,,,,,エムキョウイクラボ,0
1503,6200005013252,新規,0,2021-09-27,2021-09-27,一般社団法人縁謝,,その他の設立登記法人,岐阜県,岐阜市,柳津町下佐渡六丁目２０８番地,,21,201,5000000,,,,,,,2021-09-27,1,,,,,エンシャ,0
1507,6270003001351,新規,0,2021-09-27,2021-09-27,合同会社のすけ,,合同会社,鳥取県,鳥取市,国府町新通り２丁目２３５番地,,31,201,6808066,,,,,,,2021-09-27,1,,,,,ノスケ,0
1510,6280001008513,新規,0,2021-09-27,2021-09-27,株式会社メカニックオート,,株式会社,島根県,松江市,馬潟町３６０番地４,,32,201,6900024,,,,,,,2021-09-27,1,,,,,メカニックオート,0
1524,6290805009474,新規,0,2021-09-27,2021-09-27,一般社団法人北九州,,その他の設立登記法人,福岡県,北九州市八幡西区,東鳴水１丁目１０番１１号,,40,109,8060051,,,,,,,2021-09-27,1,,,,,キタキュウシュウ,0
1535,6340001024099,新規,0,2021-09-27,2021-09-27,株式会社リフォレ,,株式会社,鹿児島県,鹿屋市,西祓川町５０９番地５,,46,203,8930025,,,,,,,2021-09-27,1,,,,,リフォレ,0
1536,6340001024116,新規,0,2021-09-27,2021-09-27,ＨＡＢＵ　ＩＮＴＥＲＮＡＴＩＯＮＡＬ，Ｉｎｃ．株式会社,,株式会社,鹿児島県,奄美市,名瀬小浜町２５番１－３０１号,,46,222,8940006,,,,,,,2021-09-27,1,,,,,ハブインターナショナル,0
1540,6340005009344,新規,0,2021-09-27,2021-09-27,特定非営利活動法人健活らいふ,,その他の設立登記法人,鹿児島県,鹿児島市,西田２丁目２８番３号ノーサイドヒルズ７０３,,46,201,8900046,,,,,,,2021-09-27,1,,,,,ケンカツライフ,0
1545,6360001029410,新規,0,2021-09-27,2021-09-27,株式会社Ｒｉｃｅ　Ｆｉｅｌｄｏｌｌｓ,,株式会社,沖縄県,中頭郡中城村,字南上原３６１番地６ＨａｕＴｒｅｅ南上原２０３号,,47,328,9012424,,,,,,,2021-09-27,1,,,,,ライスフィールドールズ,0
1546,6360003011457,新規,0,2021-09-27,2021-09-27,合同会社金城,,合同会社,沖縄県,沖縄市,泡瀬４丁目２６番１２号,,47,211,9042172,,,,,,,2021-09-27,1,,,,,キンジョウ,0
1547,6360003011473,新規,0,2021-09-27,2021-09-27,合同会社ＢＬＵＥ’Ｓ　ＣＯＲＰＯＲＡＴＩＯＮ,,合同会社,沖縄県,宮古島市,平良字下里１０５９番地７,,47,214,9060013,,,,,,,2021-09-27,1,,,,,ブルーズコーポレーション,0
1560,6430001085025,新規,0,2021-09-27,2021-09-27,株式会社プラン・デ・アイズ,,株式会社,北海道,札幌市中央区,宮の森四条１２丁目８－３２,,01,101,0640954,,,,,,,2021-09-27,1,,,,,プランデアイズ,0
1576,7010001221315,新規,0,2021-09-27,2021-09-27,日本大麦食品株式会社,,株式会社,東京都,中央区,日本橋堀留町１丁目９番２号,,13,102,1030012,,,,,,,2021-09-27,1,,,,,ニホンオオムギショクヒン,0
1578,7010003035894,新規,0,2021-09-27,2021-09-27,合同会社エヌアド,,合同会社,東京都,中央区,銀座１丁目２２番１１号銀座大竹ビジデンス２階,,13,102,1040061,,,,,,,2021-09-27,1,,,,,エヌアド,0
1579,7010003035903,新規,0,2021-09-27,2021-09-27,未来投資合同会社,,合同会社,東京都,文京区,向丘１丁目２０番６－４０２号,,13,105,1130023,,,,,,,2021-09-27,1,,,,,ミライトウシ,0
1597,7010401162869,新規,0,2021-09-27,2021-09-27,株式会社Ｏ－ｌｉｎｋｓ,,株式会社,東京都,港区,西麻布３丁目２番１３－６１５号,,13,103,1060031,,,,,,,2021-09-27,1,,,,,オーリンクス,0
1598,7010401162885,新規,0,2021-09-27,2021-09-27,株式会社Ｍ,,株式会社,東京都,港区,北青山２丁目７番１３号３階,,13,103,1070061,,,,,,,2021-09-27,1,,,,,エム,0
1599,7010403026188,新規,0,2021-09-27,2021-09-27,南青山プロパティー２合同会社,,合同会社,東京都,港区,六本木１丁目６番１号泉ガーデンタワー,,13,103,1060032,,,,,,,2021-09-27,1,,,,,,0
1609,7010701041558,新規,0,2021-09-27,2021-09-27,株式会社ＰＡＰＲＩＣＡ,,株式会社,東京都,品川区,上大崎３丁目１－２－１６１５,,13,109,1410021,,,,,,,2021-09-27,1,,,,,パプリカ,0
1610,7010703005940,新規,0,2021-09-27,2021-09-27,Ｆｕｓｓ合同会社,,合同会社,東京都,品川区,平塚３丁目１－９,,13,109,1420051,,,,,,,2021-09-27,1,,,,,ファス,0
1615,7010901049459,新規,0,2021-09-27,2021-09-27,株式会社ＭＫＨ,,株式会社,東京都,世田谷区,瀬田１丁目２９番１５－５０３号,,13,112,1580095,,,,,,,2021-09-27,1,,,,,エムケーエイチ,0
1626,7011001142939,新規,0,2021-09-27,2021-09-27,株式会社Ａｗｅｓｏｍｅ　Ａｒｓ　Ａｃａｄｅｍｉａ,,株式会社,東京都,渋谷区,渋谷２丁目１９－１５宮益坂ビルディング６０９,,13,113,1500002,,,,,,,2021-09-27,1,,,,,オウサムアルスアカデミア,0
1631,7011101096374,新規,0,2021-09-27,2021-09-27,株式会社四谷玩具堂,,株式会社,東京都,新宿区,四谷坂町１１番９－３１３号,,13,104,1600002,,,,,,,2021-09-27,1,,,,,ヨツヤガングドウ,0
1635,7011103011018,新規,0,2021-09-27,2021-09-27,アークリノ合同会社,,合同会社,東京都,新宿区,四谷１丁目６番３号,,13,104,1600004,,,,,,,2021-09-27,1,,,,,アークリノ,0
1636,7011103011034,新規,0,2021-09-27,2021-09-27,合同会社ＣＨＬＡ,,合同会社,東京都,新宿区,大久保１丁目１５番８号,,13,104,1690072,,,,,,,2021-09-27,1,,,,,シーエイチエルエー,0
1640,7011701024726,新規,0,2021-09-27,2021-09-27,株式会社ＭＯＡ商事,,株式会社,東京都,江戸川区,南葛西１丁目３番１７－１０３号,,13,123,1340085,,,,,,,2021-09-27,1,,,,,モアショウジ,0
1668,7021005012303,新規,0,2021-09-27,2021-09-27,一般社団法人メープルビレッジ,,その他の設立登記法人,神奈川県,秦野市,東田原１１３０番地の２,,14,211,2570028,,,,,,,2021-09-27,1,,,,,メープルビレッジ,0
1681,7030001144456,新規,0,2021-09-27,2021-09-27,株式会社リフォミライ,,株式会社,埼玉県,加須市,鳩山町３番地１１,,11,210,3470019,,,,,,,2021-09-27,1,,,,,リフォミライ,0
1682,7030001144480,新規,0,2021-09-27,2021-09-27,株式会社Ｔ５,,株式会社,埼玉県,さいたま市大宮区,北袋町１丁目８０番１号,,11,103,3300835,,,,,,,2021-09-27,1,,,,,ティーファイブ,0
1683,7030001144506,新規,0,2021-09-27,2021-09-27,株式会社ＥＰＯ,,株式会社,埼玉県,草加市,八幡町４６１番地３,,11,221,3400006,,,,,,,2021-09-27,1,,,,,エポ,0
1688,7030003017981,新規,0,2021-09-27,2021-09-27,合同会社たもと,,合同会社,埼玉県,入間市,豊岡１丁目３番２５号半田ビル５階,,11,225,3580003,,,,,,,2021-09-27,1,,,,,タモト,0
1689,7030003017998,新規,0,2021-09-27,2021-09-27,石垣島ＳＴＡＲＳ合同会社,,合同会社,埼玉県,さいたま市中央区,上落合１丁目８番１８－１１０１号,,11,105,3380001,,,,,,,2021-09-27,1,,,,,イシガキジマスターズ,0
1693,7040003018590,新規,0,2021-09-27,2021-09-27,ＳＫＹ合同会社,,合同会社,千葉県,松戸市,常盤平５丁目１８番９号,,12,207,2702261,,,,,,,2021-09-27,1,,,,,スカイ,0
1694,7040005021353,新規,0,2021-09-27,2021-09-27,小金原住宅管理組合法人,,その他の設立登記法人,千葉県,松戸市,小金原７丁目１番の２３,,12,207,2700021,,,,,,,2021-09-27,1,,,,,コガネハラジュウタク,0
1702,7080101022788,新規,0,2021-09-27,2021-09-27,株式会社ＬＯＮＧウェル,,株式会社,静岡県,駿東郡長泉町,下土狩４７０番地の１,,22,342,4110943,,,,,,,2021-09-27,1,,,,,ロングウェル,0
1705,7080403004369,新規,0,2021-09-27,2021-09-27,合同会社Ｓｈａｍａｓｈ,,合同会社,静岡県,掛川市,長谷１丁目３１－２Ｗｏｎｄｅｒ－Ｓｉｔｅ長谷２０１,,22,213,4360047,,,,,,,2021-09-27,1,,,,,シャマシュ,0
1706,7090001017202,新規,0,2021-09-27,2021-09-27,株式会社ｄｏｔ　ｓａｌｅｓ,,株式会社,山梨県,甲府市,岩窪町５１５番地１０,,19,201,4000013,,,,,,,2021-09-27,1,,,,,,0
1710,7100003006242,新規,0,2021-09-27,2021-09-27,合同会社コックスイット,,合同会社,長野県,松本市,埋橋１丁目９－１４－６０８ヴァルトーゼ松本,,20,202,3900813,,,,,,,2021-09-27,1,,,,,コックスイット,0
1713,7110003004583,新規,0,2021-09-27,2021-09-27,合同会社菊理姫,,合同会社,新潟県,新潟市江南区,西町１丁目３番１号,,15,104,9500165,,,,,,,2021-09-27,1,,,,,ククリヒメ,0
1727,7120001240592,新規,0,2021-09-27,2021-09-27,株式会社ｇｏｏｄ　ｆｏｒ,,株式会社,大阪府,大阪市生野区,巽南４丁目８－２９,,27,116,5440015,,,,,,,2021-09-27,1,,,,,グッドフォー,0
1728,7120001240626,新規,0,2021-09-27,2021-09-27,フィット株式会社,,株式会社,大阪府,大阪市中央区,鎗屋町２丁目３番７号,,27,128,5400027,,,,,,,2021-09-27,1,,,,,フィット,0
1729,7120001240634,新規,0,2021-09-27,2021-09-27,株式会社ＭＯ,,株式会社,大阪府,大阪市淀川区,三津屋中２丁目１１番１７号,,27,123,5320036,,,,,,,2021-09-27,1,,,,,エムオー,0
1730,7120003020299,新規,0,2021-09-27,2021-09-27,Ｕｐｓｉｄｅ　Ｐａｒｔｎｅｒｓ合同会社,,合同会社,大阪府,大阪市北区,本庄西１丁目１－７－３３０９,,27,127,5310073,,,,,,,2021-09-27,1,,,,,アップサイドパートナーズ,0
1734,7120101064339,新規,0,2021-09-27,2021-09-27,Ｄｅａｔｓフード株式会社,,株式会社,大阪府,和泉市,府中町１丁目６番１３号３階,,27,219,5940071,,,,,,,2021-09-27,1,,,,,ディーツフード,0
1735,7120103004359,新規,0,2021-09-27,2021-09-27,合同会社ＫＯＫＯ　ＢＲＯＷＳ,,合同会社,大阪府,泉佐野市,羽倉崎２丁目５番３－４０６号,,27,213,5980046,,,,,,,2021-09-27,1,,,,,ココブロウズ,0
1743,7130003007502,新規,0,2021-09-27,2021-09-27,合同会社Ｓｔｒａｎｇｅ　Ｓｅｅｄ　Ｂｅｔｔｉｎｇ,,合同会社,京都府,京都市左京区,吉田神楽岡町８－８６,,26,103,6068311,,,,,,,2021-09-27,1,,,,,ストレンジシードベッティング,0
1747,7140001123127,新規,0,2021-09-27,2021-09-27,株式会社Ｆｒｅｅ　Ｓｔｙｌｅ,,株式会社,兵庫県,姫路市,御国野町西御着４７２番１,,28,201,6710233,,,,,,,2021-09-27,1,,,,,フリースタイル,0
1750,7140003016758,新規,0,2021-09-27,2021-09-27,合同会社ｉｒｏｄｏｒｉ,,合同会社,兵庫県,神戸市灘区,中郷町３丁目４番１３号,,28,102,6570032,,,,,,,2021-09-27,1,,,,,イロドリ,0
1751,7140003016782,新規,0,2021-09-27,2021-09-27,Ｍａｈａｌｏｈａ合同会社,,合同会社,兵庫県,加西市,北条町黒駒３１３番地の４,,28,220,6752313,,,,,,,2021-09-27,1,,,,,マハロハ,0
1755,7140005025823,新規,0,2021-09-27,2021-09-27,聖イエス会加古川教会,,その他の設立登記法人,兵庫県,加古川市,野口町水足１８２７番地１,,28,210,6750019,,,,,,,2021-09-27,1,,,,,セイイエスカイカコガワキョウカイ,0
1758,7150001024943,新規,0,2021-09-27,2021-09-27,フロンティアナック株式会社,,株式会社,奈良県,北葛城郡河合町,泉台２丁目２５－１４,,29,427,6360091,,,,,,,2021-09-27,1,,,,,フロンティアナック,0
1768,7180001147931,新規,0,2021-09-27,2021-09-27,株式会社Ｈａｒｄ　ａｎｄ　ＭＥＬＬＯＷ,,株式会社,愛知県,北名古屋市,六ツ師北屋敷２３１４番地,,23,234,4810001,,,,,,,2021-09-27,1,,,,,ハードアンドメロウ,0
1772,7180301035381,新規,0,2021-09-27,2021-09-27,日光商事株式会社,,株式会社,愛知県,西尾市,戸ケ崎１丁目２番地３９,,23,213,4450075,,,,,,,2021-09-27,1,,,,,ニッコウショウジ,0
1775,7190003003768,新規,0,2021-09-27,2021-09-27,合同会社ふくろう,,合同会社,三重県,亀山市,野村１丁目１０番２６号,,24,210,5190165,,,,,,,2021-09-27,1,,,,,フクロウ,0
1777,7200001039168,新規,0,2021-09-27,2021-09-27,株式会社ラチュール,,株式会社,岐阜県,各務原市,那加栄町２５番地今尾農産ビル３階,,21,213,5040954,,,,,,,2021-09-27,1,,,,,ラチュール,0
1778,7200001039176,新規,0,2021-09-27,2021-09-27,株式会社匠・インテリア,,株式会社,岐阜県,岐阜市,小野３丁目１８番地７,,21,201,5011174,,,,,,,2021-09-27,1,,,,,タクミインテリア,0
1779,7200003005317,新規,0,2021-09-27,2021-09-27,合同会社Ｗｉｄ　Ｇｒａｂ,,合同会社,岐阜県,岐阜市,山県岩西１０３番地,,21,201,5012509,,,,,,,2021-09-27,1,,,,,ウィッドグラブ,0
1785,7220005008596,新規,0,2021-09-27,2021-09-27,行政書士法人茅野事務所,,その他の設立登記法人,石川県,金沢市,西念３丁目２２番２０号,,17,201,9200024,,,,,,,2021-09-27,1,,,,,カヤノジムショ,0
1791,7240001058643,新規,0,2021-09-27,2021-09-27,株式会社ＩＲＯＮ　ＦＲＯＧ－ＬＡＢ,,株式会社,広島県,広島市西区,井口５丁目２７番１－４０９号,,34,104,7330842,,,,,,,2021-09-27,1,,,,,アイアンフロッグラボ,0
1793,7240003005288,新規,0,2021-09-27,2021-09-27,Ｉ　ＡＭ　Ｉ合同会社,,合同会社,広島県,安芸郡府中町,柳ケ丘７７－３６,,34,302,7350014,,,,,,,2021-09-27,1,,,,,アイアムアイ,0
1796,7260001035979,新規,0,2021-09-27,2021-09-27,株式会社ｂｃｂａｓｉｃｓ,,株式会社,岡山県,岡山市南区,妹尾２５６番地２,,33,104,7010205,,,,,,,2021-09-27,1,,,,,ビーシーベイシックス,0
1797,7260001035987,新規,0,2021-09-27,2021-09-27,株式会社Ａｉｍａｂｌｅ,,株式会社,岡山県,岡山市北区,天神町５番２号十月館１階,,33,101,7000814,,,,,,,2021-09-27,1,,,,,エマーブル,0
1800,7270003001334,新規,0,2021-09-27,2021-09-27,合同会社ｊｕｕｒｉ,,合同会社,鳥取県,八頭郡智頭町,大字智頭１５３１番地,,31,328,6891402,,,,,,,2021-09-27,1,,,,,ユーリ,0
1813,7290003011645,新規,0,2021-09-27,2021-09-27,合同会社ＨＥＲＯ,,合同会社,福岡県,福岡市中央区,天神５丁目９－２ファミール天神３０７,,40,133,8100001,,,,,,,2021-09-27,1,,,,,ヒーロー,0
1816,7290801027834,新規,0,2021-09-27,2021-09-27,株式会社田中商店,,株式会社,福岡県,北九州市小倉北区,魚町４丁目４番３号,,40,106,8020006,,,,,,,2021-09-27,1,,,,,タナカショウテン,0
1825,7330003009049,新規,0,2021-09-27,2021-09-27,合同会社Ａｍｕｌｅｔ,,合同会社,熊本県,阿蘇郡南阿蘇村,大字立野４６１番地２２７,,43,433,8691401,,,,,,,2021-09-27,1,,,,,アミュレット,0
1828,7340001024115,新規,0,2021-09-27,2021-09-27,株式会社ＮＡＫＡＮＯ,,株式会社,鹿児島県,鹿屋市,川西町４１０２番地１,,46,203,8930032,,,,,,,2021-09-27,1,,,,,ナカノ,0
1835,7360003011456,新規,0,2021-09-27,2021-09-27,合同会社ＭＳＴ沖縄,,合同会社,沖縄県,那覇市,辻１丁目８番３号,00124328,47,201,9000037,,,,,,,2021-09-27,1,,,,,エムエスティーオキナワ,0
1841,7390001016603,新規,0,2021-09-27,2021-09-27,株式会社アイラ,,株式会社,山形県,山形市,錦町１０番７号,,06,201,9900056,,,,,,,2021-09-27,1,,,,,アイラ,0
1847,7430001085016,新規,0,2021-09-27,2021-09-27,株式会社高はし,,株式会社,北海道,札幌市豊平区,美園六条７丁目３番１号,,01,105,0620006,,,,,,,2021-09-27,1,,,,,タカハシ,0
1848,7430003013180,新規,0,2021-09-27,2021-09-27,ヴィレッジウッドフィルド合同会社,,合同会社,北海道,札幌市豊平区,福住一条４丁目１０番２号,,01,105,0620041,,,,,,,2021-09-27,1,,,,,ヴィレッジウッドフィルド,0
1852,7500003002696,新規,0,2021-09-27,2021-09-27,ネクストワーキング合同会社,,合同会社,愛媛県,松山市,余戸中３丁目３番２９号,,38,201,7900045,,,,,,,2021-09-27,1,,,,,ネクストワーキング,0
1864,8010001221165,新規,0,2021-09-27,2021-09-27,株式会社ＶＡＳＴ　ＢＬＵＥ,,株式会社,東京都,千代田区,丸の内１丁目１番３号日本生命丸の内ガーデンタワー３階,,13,101,1000005,,,,,,,2021-09-27,1,,,,,ヴァストブルー,0
1866,8010003035885,新規,0,2021-09-27,2021-09-27,合同会社ＮＫＹ,,合同会社,東京都,千代田区,富士見１丁目２－３７－２１０５,,13,101,1020071,,,,,,,2021-09-27,1,,,,,エヌケーワイ,0
1867,8010003035902,新規,0,2021-09-27,2021-09-27,ＵＣＩ　Ｌａｂ．合同会社,,合同会社,東京都,中央区,銀座５丁目１２－５白鶴ビルディング２階,,13,102,1040061,,,,,,,2021-09-27,1,,,,,ユーシーアイラボ,0
1869,8010005034010,新規,0,2021-09-27,2021-09-27,一般社団法人ヘリコプター投資協会,,その他の設立登記法人,東京都,千代田区,内幸町２丁目２番３号日比谷国際ビル７階,,13,101,1000011,,,,,,,2021-09-27,1,,,,,,0
1875,8010401162835,新規,0,2021-09-27,2021-09-27,ＫＯＭＯＳＥＮＳ株式会社,,株式会社,東京都,港区,六本木７丁目７番７号Ｔｒｉ－ＳｅｖｅｎＲｏｐｐｏｎｇｉ８階,,13,103,1060032,,,,,,,2021-09-27,1,,,,,コモセンス,0
1876,8010401162884,新規,0,2021-09-27,2021-09-27,株式会社ＢＯＯＳＴ,,株式会社,東京都,港区,港南２丁目１６番１号品川イーストワンタワー４階,,13,103,1080075,,,,,,,2021-09-27,1,,,,,ブースト,0
1879,8010403026170,新規,0,2021-09-27,2021-09-27,合同会社ニーナ,,合同会社,東京都,港区,麻布十番１丁目５番１０号アトラスビル４Ｆ,,13,103,1060045,,,,,,,2021-09-27,1,,,,,ニーナ,0
1880,8010403026179,新規,0,2021-09-27,2021-09-27,合同会社ＦＵＮＤＩＮ,,合同会社,東京都,港区,赤坂９丁目６番２８号アルベルゴ乃木坂９０９,,13,103,1070052,,,,,,,2021-09-27,1,,,,,ファンディン,0
1898,8011101096241,新規,0,2021-09-27,2021-09-27,株式会社レステックラボ,,株式会社,東京都,新宿区,西新宿５丁目２５番１４－６０３号,,13,104,1600023,,,,,,,2021-09-27,1,,,,,レステックラボ,0
1899,8011103011033,新規,0,2021-09-27,2021-09-27,合同会社ＣＨ２Ｏ,,合同会社,東京都,新宿区,大久保１丁目１５番８号,,13,104,1690072,,,,,,,2021-09-27,1,,,,,シーエイチトゥーオー,0
1902,8011201023269,新規,0,2021-09-27,2021-09-27,株式会社閃光,,株式会社,東京都,中野区,中野３丁目３４－３２－１５０８,,13,114,1640001,,,,,,,2021-09-27,1,,,,,センコウ,0
1906,8011701024725,新規,0,2021-09-27,2021-09-27,株式会社ＫＡＴＡＣＨＩ,,株式会社,東京都,江戸川区,松本１丁目２３番１５号,,13,123,1330043,,,,,,,2021-09-27,1,,,,,カタチ,0
1912,8012301012707,新規,0,2021-09-27,2021-09-27,Ｄｅｓａｆｉｏ株式会社,,株式会社,東京都,町田市,忠生３丁目１２番１４号,,13,209,1940035,,,,,,,2021-09-27,1,,,,,デサフィオ,0
1917,8012801021109,新規,0,2021-09-27,2021-09-27,株式会社一の和,,株式会社,東京都,立川市,錦町１丁目４番２０号ＴＳＣビル６Ｆ,,13,202,1900022,,,,,,,2021-09-27,1,,,,,イチノワ,0
1920,8013301048030,新規,0,2021-09-27,2021-09-27,ヒトヒカリフード株式会社,,株式会社,東京都,豊島区,駒込３丁目２４番９号,,13,116,1700003,,,,,,,2021-09-27,1,,,,,ヒトヒカリフード,0
1921,8013301048047,新規,0,2021-09-27,2021-09-27,株式会社ＭＯＹＵ,,株式会社,東京都,豊島区,池袋１丁目７番２４号スパツィオ西山５０７号,,13,116,1700014,,,,,,,2021-09-27,1,,,,,モユ,0
1929,8020001143160,新規,0,2021-09-27,2021-09-27,株式会社ミニフル,,株式会社,神奈川県,横浜市都筑区,中川６丁目１番Ｂ－９０１号,,14,118,2240001,,,,,,,2021-09-27,1,,,,,ミニフル,0
1932,8020003020523,新規,0,2021-09-27,2021-09-27,合同会社ＺＩＱＵ,,合同会社,神奈川県,川崎市高津区,溝口６丁目１４番５－２０３号リバーサウスⅡ,00124317,14,134,2130001,,,,,,,2021-09-27,1,,,,,ジクウ,0
1939,8030001144488,新規,0,2021-09-27,2021-09-27,クイック・ロジ株式会社,,株式会社,埼玉県,さいたま市西区,宮前町７００番地,,11,101,3310046,,,,,,,2021-09-27,1,,,,,クイックロジ,0
1945,8030003017980,新規,0,2021-09-27,2021-09-27,合同会社ラチャナ,,合同会社,埼玉県,日高市,大字高萩７６７番地９４,,11,242,3501213,,,,,,,2021-09-27,1,,,,,ラチャナ,0
1949,8040001120281,新規,0,2021-09-27,2021-09-27,株式会社ＨＥＲＯ　ＬＩＦＥ,,株式会社,千葉県,東金市,幸田１１２０番地ＣａｓａＫｏｕｄａＳ、Ｂ－１０５,,12,213,2830048,,,,,,,2021-09-27,1,,,,,ヒーローライフ,0
1950,8040003018581,新規,0,2021-09-27,2021-09-27,合同会社モオプナリマ,,合同会社,千葉県,流山市,江戸川台西２丁目２４７－５号室,,12,220,2700115,,,,,,,2021-09-27,1,,,,,モオプナリマ,0
1953,8050001049867,新規,0,2021-09-27,2021-09-27,株式会社雅,,株式会社,茨城県,水戸市,酒門町３３２２番３,,08,201,3100841,,,,,,,2021-09-27,1,,,,,ミヤビ,0
1956,8050005012945,新規,0,2021-09-27,2021-09-27,ＵＡゼンセンタカノフーズユニオン,,その他の設立登記法人,茨城県,小美玉市,野田１５４２番地（タカノフーズ株式会社内）,,08,236,3113411,,,,,,,2021-09-27,1,,,,,ユウエイゼンセンタカノフーズユニオン,0
1957,8060003003813,新規,0,2021-09-27,2021-09-27,ミズノエンジニアリングソリューションズ合同会社,,合同会社,栃木県,宇都宮市,ゆいの杜５丁目１８番１５号,,09,201,3213226,,,,,,,2021-09-27,1,,,,,,0
1964,8080005007397,新規,0,2021-09-27,2021-09-27,医療法人社団至仁会,,その他の設立登記法人,静岡県,静岡市葵区,竜南３丁目１１番１３号,,22,101,4200804,,,,,,,2021-09-27,1,,,,,シジンカイ,0
1965,8080101022787,新規,0,2021-09-27,2021-09-27,株式会社友伸ガード,,株式会社,静岡県,富士市,中柏原新田１７４番地,,22,210,4170832,,,,,,,2021-09-27,1,,,,,ユウシンガード,0
1968,8090001017201,新規,0,2021-09-27,2021-09-27,株式会社エーワンサポート,,株式会社,山梨県,甲斐市,長塚３１１番地,,19,210,4000125,,,,,,,2021-09-27,1,,,,,エーワンサポート,0
1983,8120001240567,新規,0,2021-09-27,2021-09-27,嵐池酒造株式会社,,株式会社,大阪府,大阪市生野区,巽北１丁目１番地１号１Ｆ－Ｃ,00124319,27,116,5440004,,,,,,,2021-09-27,1,,,,,ランチシュゾウ,0
1984,8120001240617,新規,0,2021-09-27,2021-09-27,ＳＫＩ株式会社,,株式会社,大阪府,大阪市中央区,久太郎町４丁目２－１５星和シティービル６階,,27,128,5410056,,,,,,,2021-09-27,1,,,,,エスケーアイ,0
1985,8120001240625,新規,0,2021-09-27,2021-09-27,ＧＢコンサルティング株式会社,,株式会社,大阪府,枚方市,松丘町３７番２１－１０２号,,27,210,5730012,,,,,,,2021-09-27,1,,,,,ジービーコンサルティング,0
1989,8120003020298,新規,0,2021-09-27,2021-09-27,ＡＲＣＨＩＶＥＳ合同会社,,合同会社,大阪府,大阪市住之江区,御崎７丁目１５番２５号,,27,125,5590013,,,,,,,2021-09-27,1,,,,,アルシーヴ,0
1992,8120101064338,新規,0,2021-09-27,2021-09-27,株式会社プラスワン,,株式会社,大阪府,堺市西区,菱木３丁２４８０番地,,27,144,5938315,,,,,,,2021-09-27,1,,,,,プラスワン,0
1994,8120103004358,新規,0,2021-09-27,2021-09-27,合同会社Ｒｕｎｎｙｍｅｄｅ,,合同会社,大阪府,阪南市,光陽台４丁目９－２６,,27,232,5990223,,,,,,,2021-09-27,1,,,,,ラニーミード,0
2006,8130001070162,新規,0,2021-09-27,2021-09-27,株式会社近畿信販,,株式会社,京都府,京都市上京区,小川町２０３番地バインオークフィフティーン１０２,,26,102,6020000,,,,,,,2021-09-27,1,,,,,キンキシンパン,0
2010,8130003007501,新規,0,2021-09-27,2021-09-27,浜野建築合同会社,,合同会社,京都府,宮津市,字文珠１７４番地１,,26,205,6260001,,,,,,,2021-09-27,1,,,,,ハマノケンチク,0
2033,8180001147897,新規,0,2021-09-27,2021-09-27,アンレットホールディングス株式会社,,株式会社,愛知県,海部郡蟹江町,宝１丁目２５番地,,23,425,4970030,,,,,,,2021-09-27,1,,,,,アンレットホールディングス,0
2038,8180301035397,新規,0,2021-09-27,2021-09-27,株式会社ｉｘｉ,,株式会社,愛知県,刈谷市,一里山町家下４５番地１,,23,210,4480002,,,,,,,2021-09-27,1,,,,,イクシィ,0
2044,8200001039175,新規,0,2021-09-27,2021-09-27,株式会社ひとやすみ不動産,,株式会社,岐阜県,岐阜市,鹿島町１丁目２番地,,21,201,5008323,,,,,,,2021-09-27,1,,,,,ヒトヤスミフドウサン,0
2045,8200001039183,新規,0,2021-09-27,2021-09-27,株式会社Ｆ＆Ａ,,株式会社,岐阜県,各務原市,鵜沼各務原町４丁目３８番地,,21,213,5090141,,,,,,,2021-09-27,1,,,,,エフアンドエー,0
2053,8230005009171,新規,0,2021-09-27,2021-09-27,一般財団法人とやまハッピースクール設立準備財団,,その他の設立登記法人,富山県,富山市,才覚寺６２５番地,,16,201,9398263,,,,,,,2021-09-27,1,,,,,,0
2073,8290001094732,新規,0,2021-09-27,2021-09-27,株式会社トパーズ,,株式会社,福岡県,福岡市東区,香椎駅東３丁目１５番３６号,,40,131,8130012,,,,,,,2021-09-27,1,,,,,トパーズ,0
2074,8290001094749,新規,0,2021-09-27,2021-09-27,ブランドファースト株式会社,,株式会社,福岡県,福岡市中央区,大名２丁目６番１１号ＦｕｋｕｏｋａＧｒｏｗｔｈＮｅｘｔ,,40,133,8100041,,,,,,,2021-09-27,1,,,,,ブランドファースト,0
2075,8290003011644,新規,0,2021-09-27,2021-09-27,合同会社ＬＣグループ,,合同会社,福岡県,福岡市博多区,住吉５丁目５番１５号住吉パークサイドビル５０６号,,40,132,8120018,,,,,,,2021-09-27,1,,,,,エルシーグループ,0
2082,8290801027833,新規,0,2021-09-27,2021-09-27,株式会社フクダビル,,株式会社,福岡県,京都郡苅田町,大字尾倉３４２５番地４,,40,621,8000353,,,,,,,2021-09-27,1,,,,,フクダビル,0
2088,8310003004166,新規,0,2021-09-27,2021-09-27,合同会社芙蓉宅建ＦＰオフィス,,合同会社,長崎県,長崎市,魚の町６－１３中村ビル２階,,42,201,8500874,,,,,,,2021-09-27,1,,,,,フヨウタッケンエフピーオフィス,0
2094,8330001029007,新規,0,2021-09-27,2021-09-27,株式会社レクリスブリーディング,,株式会社,熊本県,宇土市,長浜町２０７９番地,,43,211,8693171,,,,,,,2021-09-27,1,,,,,レクリスブリーディング,0
2095,8330003009048,新規,0,2021-09-27,2021-09-27,市栄設備合同会社,,合同会社,熊本県,菊池郡菊陽町,沖野２丁目１４番２５号,,43,404,8691115,,,,,,,2021-09-27,1,,,,,イチエイセツビ,0
2099,8340005009342,新規,0,2021-09-27,2021-09-27,一般社団法人カザミドリ,,その他の設立登記法人,鹿児島県,いちき串木野市,荒川２３７０番地２,,46,219,8960065,,,,,,,2021-09-27,1,,,,,カザミドリ,0
2102,8360001029409,新規,0,2021-09-27,2021-09-27,株式会社ＬＯＣＯＲＥＯＮ,,株式会社,沖縄県,那覇市,字天久８８３番地２シービューグランデⅡ８－Ａ号室,00124335,47,201,9000005,,,,,,,2021-09-27,1,,,,,ロコレオン,0
2103,8360003011455,新規,0,2021-09-27,2021-09-27,合同会社ＵＩＤＡＲＡ,,合同会社,沖縄県,沖縄市,与儀３丁目１番７号プレミアムコート与儀パークヒルズ６Ａ,,47,211,9042174,,,,,,,2021-09-27,1,,,,,ウイダラ,0
2104,8370001047624,新規,0,2021-09-27,2021-09-27,株式会社武田内装,,株式会社,宮城県,仙台市若林区,荒井２丁目３番２－１０２号,,04,103,9840032,,,,,,,2021-09-27,1,,,,,タケダナイソウ,0
2122,8430001085015,新規,0,2021-09-27,2021-09-27,株式会社マメゾウピクチャーズ,,株式会社,北海道,札幌市中央区,南四条東５丁目１番２９豊ビル３０６号,,01,101,0600054,,,,,,,2021-09-27,1,,,,,マメゾウピクチャーズ,0
2126,8430003013163,新規,0,2021-09-27,2021-09-27,合同会社ノースグランド,,合同会社,北海道,札幌市中央区,南六条西１２丁目７６１番地５,,01,101,0640806,,,,,,,2021-09-27,1,,,,,ノースグランド,0
2128,8450001013485,新規,0,2021-09-27,2021-09-27,株式会社シニアサポート,,株式会社,北海道,旭川市,末広五条４丁目５番１２号,,01,204,0718135,,,,,,,2021-09-27,1,,,,,シニアサポート,0
2133,8470001018730,新規,0,2021-09-27,2021-09-27,株式会社たんぽぽのわたげ,,株式会社,香川県,高松市,東山崎町９６０番地１,,37,201,7610312,,,,,,,2021-09-27,1,,,,,タンポポノワタゲ,0
2140,8700150104893,新規,0,2021-09-27,2021-09-27,ＤＮＸ　Ｍａｎａｇｅｍｅｎｔ　Ｃｏｍｐａｎｙ,,外国会社等,東京都,千代田区,丸の内１丁目９番２号グラントウキョウサウスタワー９階ワークスタイリング八重洲,,13,101,1000005,アメリカ合衆国９４４０１カリフォルニア州、サン・マテオ、イースト・サード・アベニュー５５,,,,,,2021-09-27,1,,,,,デイーエヌエツクスマネジメントカンパニー,0
2158,9010003035901,新規,0,2021-09-27,2021-09-27,合同会社ユーエス・ギア,,合同会社,東京都,中央区,日本橋小網町１７－１７・４０１,,13,102,1030016,,,,,,,2021-09-27,1,,,,,ユーエスギア,0
2169,9010401162818,新規,0,2021-09-27,2021-09-27,株式会社ｒｏｙｅｘｅ,,株式会社,東京都,港区,南青山３丁目７番１６号,,13,103,1070062,,,,,,,2021-09-27,1,,,,,ロイゼ,0
2170,9010401162834,新規,0,2021-09-27,2021-09-27,株式会社サウナランド,,株式会社,東京都,港区,高輪４丁目２４番５５号,,13,103,1080074,,,,,,,2021-09-27,1,,,,,サウナランド,0
2182,9010701041556,新規,0,2021-09-27,2021-09-27,株式会社アートマン,,株式会社,東京都,品川区,上大崎２丁目２４番１１－９０１号,,13,109,1410021,,,,,,,2021-09-27,1,,,,,アートマン,0
2201,9011101096348,新規,0,2021-09-27,2021-09-27,株式会社德,00124321,株式会社,東京都,新宿区,百人町１丁目２３番２６号みなみビル１Ｆ－Ａ号室,,13,104,1690073,,,,,,,2021-09-27,1,,,,,トク,0
2203,9011103011016,新規,0,2021-09-27,2021-09-27,合同会社ＬｅｅＭａｋｅｓ,,合同会社,東京都,新宿区,北新宿１丁目３０－３０近鉄柏木ハイツ１１４号,,13,104,1690074,,,,,,,2021-09-27,1,,,,,リメイク,0
2204,9011103011032,新規,0,2021-09-27,2021-09-27,合同会社ＣＨＯ,,合同会社,東京都,新宿区,大久保１丁目１５番８号,,13,104,1690072,,,,,,,2021-09-27,1,,,,,シーエイチオー,0
2205,9011105009990,新規,0,2021-09-27,2021-09-27,一般社団法人日本芸能従事者協会,,その他の設立登記法人,東京都,新宿区,西新宿６丁目１２番３０号,,13,104,1600023,,,,,,,2021-09-27,1,,,,,ニホンゲイノウジュウジシャキョウカイ,0
2216,9011803004789,新規,0,2021-09-27,2021-09-27,横尚合同会社,,合同会社,東京都,葛飾区,東新小岩３丁目１５番１号小松川マンション１０２室,,13,122,1240023,,,,,,,2021-09-27,1,,,,,コウショウ,0
2217,9012301012722,新規,0,2021-09-27,2021-09-27,株式会社ＤＡＸ,,株式会社,東京都,町田市,木曽東４丁目３２番３６号,,13,209,1940036,,,,,,,2021-09-27,1,,,,,ダックス,0
2220,9012401038329,新規,0,2021-09-27,2021-09-27,株式会社Ｗｉｔｓ,,株式会社,東京都,調布市,調布ケ丘１丁目１８番地９３ブランズシティ調布５１９,,13,208,1820021,,,,,,,2021-09-27,1,,,,,ウィッツ,0
2228,9020001143135,新規,0,2021-09-27,2021-09-27,株式会社リンクユー,,株式会社,神奈川県,横浜市中区,長者町３丁目７－１０ロジュマン湘南７０４,,14,104,2310033,,,,,,,2021-09-27,1,,,,,リンクユー,0
2229,9020001143143,新規,0,2021-09-27,2021-09-27,株式会社Ｉｃｈｉ,,株式会社,神奈川県,横浜市泉区,岡津町２０６９番地１みやこガーデンクラニア館３０６号室,,14,116,2450003,,,,,,,2021-09-27,1,,,,,イチ,0
2230,9020001143168,新規,0,2021-09-27,2021-09-27,株式会社シャイオス,,株式会社,神奈川県,横浜市神奈川区,栄町１４番地１ライオンズ横浜ポートサイド５０４号,,14,102,2210052,,,,,,,2021-09-27,1,,,,,シャイオス,0
2233,9020003020539,新規,0,2021-09-27,2021-09-27,パウンドフォーパウンド合同会社,,合同会社,神奈川県,横浜市保土ケ谷区,星川２丁目１４番２７号２Ｆ,,14,106,2400006,,,,,,,2021-09-27,1,,,,,パウンドフォーパウンド,0
2249,9030001144438,新規,0,2021-09-27,2021-09-27,株式会社エルエスコーポレーション,,株式会社,埼玉県,さいたま市大宮区,桜木町４丁目３３１－３－１１５,,11,103,3300854,,,,,,,2021-09-27,1,,,,,エルエスコーポレーション,0
2250,9030001144479,新規,0,2021-09-27,2021-09-27,Ｊ’ｚＮＥＸＴ株式会社,,株式会社,埼玉県,入間市,豊岡４丁目６番７号,,11,225,3580003,,,,,,,2021-09-27,1,,,,,ジェイズネクスト,0
2251,9030001144495,新規,0,2021-09-27,2021-09-27,株式会社Ｒｅ．Ｂｅ,,株式会社,埼玉県,上尾市,仲町１丁目５番１４号スワローテール１号室,,11,219,3620035,,,,,,,2021-09-27,1,,,,,リービー,0
2260,9040001120289,新規,0,2021-09-27,2021-09-27,株式会社ｅａｒｔｈ,,株式会社,千葉県,四街道市,千代田５丁目６４番６号,,12,228,2840015,,,,,,,2021-09-27,1,,,,,アース,0
2261,9040003018589,新規,0,2021-09-27,2021-09-27,合同会社プレシャス,,合同会社,千葉県,市川市,南行徳１丁目１１－２２矢島ビル２０３号,,12,203,2720138,,,,,,,2021-09-27,1,,,,,プレシャス,0
2267,9050001049874,新規,0,2021-09-27,2021-09-27,ワイティ株式会社,,株式会社,茨城県,東茨城郡城里町,大字上圷９８４番地,,08,310,3114323,,,,,,,2021-09-27,1,,,,,ワイティ,0
2268,9050001049882,新規,0,2021-09-27,2021-09-27,株式会社未来,,株式会社,茨城県,水戸市,東赤塚４３１５番地１,,08,201,3114142,,,,,,,2021-09-27,1,,,,,ミライ,0
2271,9050003006097,新規,0,2021-09-27,2021-09-27,吉竹商店合同会社,,合同会社,茨城県,水戸市,河和田町２８９６－６,,08,201,3114153,,,,,,,2021-09-27,1,,,,,ヨシタケショウテン,0
2272,9060001034116,新規,0,2021-09-27,2021-09-27,株式会社ニコール,,株式会社,栃木県,宇都宮市,上大曽町４２８番地５,,09,201,3200013,,,,,,,2021-09-27,1,,,,,ニコール,0
2275,9070001038462,新規,0,2021-09-27,2021-09-27,株式会社Ｙケミカル,,株式会社,群馬県,館林市,広内町１１番１３号,,10,207,3740062,,,,,,,2021-09-27,1,,,,,ワイケミカル,0
2277,9080001024445,新規,0,2021-09-27,2021-09-27,株式会社タケダ,,株式会社,静岡県,榛原郡吉田町,住吉５４３６番地の５８０,,22,424,4210301,,,,,,,2021-09-27,1,,,,,タケダ,0
2282,9090003001953,新規,0,2021-09-27,2021-09-27,合同会社畑楽,,合同会社,山梨県,笛吹市,春日居町熊野堂４１５番地グリーンズハラダＧ－１,,19,211,4060012,,,,,,,2021-09-27,1,,,,,,0
2286,9100001034631,新規,0,2021-09-27,2021-09-27,株式会社森資源,,株式会社,長野県,長野市,青木島町大塚字宿３６０番地１,,20,201,3812205,,,,,,,2021-09-27,1,,,,,モリシゲン,0
2296,9120001240616,新規,0,2021-09-27,2021-09-27,株式会社ナビ設計工房,,株式会社,大阪府,大阪市都島区,毛馬町５丁目６番２５号２階,,27,102,5340001,,,,,,,2021-09-27,1,,,,,ナビセッケイコウボウ,0
2297,9120001240624,新規,0,2021-09-27,2021-09-27,株式会社ＥＶパイオニア,,株式会社,大阪府,大阪市中央区,道頓堀１丁目５番９号,,27,128,5420071,,,,,,,2021-09-27,1,,,,,イーブイパイオニア,0
2298,9120001240649,新規,0,2021-09-27,2021-09-27,株式会社サブスクスタジオ,,株式会社,大阪府,大阪市中央区,南本町２丁目２番３号本町ＵＮＩＣＯビル４階,,27,128,5410054,,,,,,,2021-09-27,1,,,,,サブスクスタジオ,0
2302,9120003020289,新規,0,2021-09-27,2021-09-27,合同会社Ｓｅｐｔｅｍｂｅｒ,,合同会社,大阪府,大阪市東住吉区,鷹合１丁目１５番６号,,27,121,5460014,,,,,,,2021-09-27,1,,,,,セプテンバー,0
2303,9120003020306,新規,0,2021-09-27,2021-09-27,合同会社パスカル,,合同会社,大阪府,大阪市阿倍野区,文の里２丁目１３番１８－５０３号,,27,119,5450004,,,,,,,2021-09-27,1,,,,,パスカル,0
2314,9120101064337,新規,0,2021-09-27,2021-09-27,株式会社オフィス・エージェンシー,,株式会社,大阪府,羽曳野市,古市７丁目２番１３号,,27,222,5830852,,,,,,,2021-09-27,1,,,,,オフィスエージェンシー,0
2315,9120101064345,新規,0,2021-09-27,2021-09-27,たなか建装株式会社,,株式会社,大阪府,泉佐野市,南中安松６２６番地の１,,27,213,5980033,,,,,,,2021-09-27,1,,,,,タナカケンソウ,0
2316,9120103004357,新規,0,2021-09-27,2021-09-27,合同会社Ｅ－ＫＯ－ＢＯ,,合同会社,大阪府,藤井寺市,小山６丁目２番１６号,,27,226,5830033,,,,,,,2021-09-27,1,,,,,エーコーボー,0
2321,9122003002184,新規,0,2021-09-27,2021-09-27,合同会社みつひら,,合同会社,大阪府,柏原市,旭ケ丘１丁目１４番３２号,,27,221,5820026,,,,,,,2021-09-27,1,,,,,ミツヒラ,0
2326,9130001070153,新規,0,2021-09-27,2021-09-27,株式会社ｕｒｉｓｔｙｌｅ,,株式会社,京都府,京都市中京区,小結棚町４３５番地ジェイ・プライド四条烏丸８０３号室,,26,104,6048223,,,,,,,2021-09-27,1,,,,,ウリスタイル,0
2327,9130001070161,新規,0,2021-09-27,2021-09-27,株式会社ゆうゆう塾,,株式会社,京都府,京都市西京区,大枝北沓掛町４丁目３７番地の２６,,26,111,6101101,,,,,,,2021-09-27,1,,,,,ユウユウジュク,0
2338,9150003002499,新規,0,2021-09-27,2021-09-27,合同会社Ｓｍｉｌｅ　Ｕｐ,,合同会社,奈良県,橿原市,中曽司町２０８番地の６,,29,205,6340845,,,,,,,2021-09-27,1,,,,,スマイルアップ,0
2342,9170001016788,新規,0,2021-09-27,2021-09-27,株式会社Ｌｉｌｙ,,株式会社,和歌山県,橋本市,妻３６２番地の２,,30,203,6480062,,,,,,,2021-09-27,1,,,,,リリー,0
2352,9180001147938,新規,0,2021-09-27,2021-09-27,株式会社ＲＯＯＴＳ,,株式会社,愛知県,名古屋市中区,丸の内２丁目１－１７ＳＨ丸の内４０６,,23,106,4600002,,,,,,,2021-09-27,1,,,,,ルーツ,0
2356,9180003022998,新規,0,2021-09-27,2021-09-27,合同会社ＨＢ,,合同会社,愛知県,名古屋市中村区,豊国通２丁目８番地グランドール８８の１０３号,,23,105,4530834,,,,,,,2021-09-27,1,,,,,エイチビ,0
2358,9180005019448,新規,0,2021-09-27,2021-09-27,一般社団法人桐の郷,,その他の設立登記法人,愛知県,名古屋市中区,上前津２丁目１４番２５号,,23,106,4600013,,,,,,,2021-09-27,1,,,,,キリノサト,0
2365,9200001039182,新規,0,2021-09-27,2021-09-27,株式会社中日本機工,,株式会社,岐阜県,恵那市,長島町正家１０６１番地６,,21,210,5097203,,,,,,,2021-09-27,1,,,,,ナカニホンキコウ,0
2377,9290001094681,新規,0,2021-09-27,2021-09-27,株式会社シェテル,,株式会社,福岡県,福岡市中央区,大名２丁目１番５０－２０１号,,40,133,8100041,,,,,,,2021-09-27,1,,,,,シェテル,0
2378,9290001094772,新規,0,2021-09-27,2021-09-27,アセット・コンサルティング株式会社,,株式会社,福岡県,福岡市中央区,舞鶴２丁目２番３号,,40,133,8100073,,,,,,,2021-09-27,1,,,,,アセットコンサルティング,0
2387,9310001017490,新規,0,2021-09-27,2021-09-27,株式会社ＳＨＩＲＡＫＡＷＡ,,株式会社,長崎県,佐世保市,早岐１丁目３番１１号伊藤ビル３Ｆ,,42,202,8593215,,,,,,,2021-09-27,1,,,,,シラカワ,0
2400,9360001029416,新規,0,2021-09-27,2021-09-27,株式会社いしずえ,,株式会社,沖縄県,名護市,宮里７丁目２番３４号,,47,209,9050011,,,,,,,2021-09-27,1,,,,,イシズエ,0
2401,9360003011470,新規,0,2021-09-27,2021-09-27,合同会社Ｇｒｏｏｖｙ,,合同会社,沖縄県,石垣市,字川平８６８番地１,,47,207,9070453,,,,,,,2021-09-27,1,,,,,グルービー,0
2404,9370001047623,新規,0,2021-09-27,2021-09-27,株式会社ＩＢＵＫＩ,,株式会社,宮城県,仙台市青葉区,川平１丁目１３番２号テレパレス仙台川平２号棟２０５,,04,101,9810954,,,,,,,2021-09-27,1,,,,,イブキ,0
2410,9390003001873,新規,0,2021-09-27,2021-09-27,Ａ‐Ｒｅｎｔａｌｓ合同会社,,合同会社,山形県,東根市,大字羽入４９７番地５,,06,211,9993776,,,,,,,2021-09-27,1,,,,,エーレンタルズ,0
2424,9430001085014,新規,0,2021-09-27,2021-09-27,株式会社ウィルパーソン,,株式会社,北海道,苫小牧市,木場町２丁目６番１８号,,01,213,0530033,,,,,,,2021-09-27,1,,,,,ウィルパーソン,0
2436,9500001023692,新規,0,2021-09-27,2021-09-27,株式会社天匠,,株式会社,愛媛県,今治市,南日吉町２丁目１番１５号,,38,202,7940056,,,,,,,2021-09-27,1,,,,,テンショウ,0
