sequenceNumber,corporateNumber,process,correct,updateDate,changeDate,name,nameImageId,kind,prefectureName,cityName,streetNumber,addressImageId,prefectureCode,cityCode,postCode,addressOutside,addressOutsideImageId,closeDate,closeCause,successorCorporateNumber,changeCause,assignmentDate,latest,enName,enPrefectureName,enCityName,enAddressOutside,furigana,hihyoji
14,1010003048605,新規,0,2025-09-04,2025-09-04,ＳＥＶ新宿合同会社,,合同会社,東京都,千代田区,丸の内２丁目１番１号ＧＴ東京法律事務所内,,13,101,1000005,,,,,,,2025-09-04,1,,,,,エスイーヴィーシンジュク,0
19,1010401192772,新規,0,2025-09-04,2025-09-04,株式会社スーク,,株式会社,東京都,港区,六本木３丁目１６番１２号六本木ＫＳビル５階,,13,103,1060032,,,,,,,2025-09-04,1,,,,,スーク,0
20,1010401192806,新規,0,2025-09-04,2025-09-04,Ｂｒｉｌｌｉａｎｔ　Ｂｉｚ　Ｌａｂ株式会社,,株式会社,東京都,港区,赤坂７丁目６番４１号赤坂七番館２０７,,13,103,1070052,,,,,,,2025-09-04,1,,,,,ブリリアントビズラボ,0
21,1010401192871,新規,0,2025-09-04,2025-09-04,株式会社ＡＫＲ,,株式会社,東京都,港区,浜松町２丁目２番１５号浜松町ダイヤビル２Ｆ,,13,103,1050013,,,,,,,2025-09-04,1,,,,,エーケーアール,0
36,1010803005524,新規,0,2025-09-04,2025-09-04,合同会社サルーティス,,合同会社,東京都,大田区,南馬込５丁目２２番１－１０５号,,13,111,1430025,,,,,,,2025-09-04,1,,,,,サルーティス,0
48,1011003022310,新規,0,2025-09-04,2025-09-04,ＥＮＥＲＬＵＣＡ合同会社,,合同会社,東京都,渋谷区,道玄坂１丁目１０番８号渋谷道玄坂東急ビル２Ｆ－Ｃ,,13,113,1500043,,,,,,,2025-09-04,1,,,,,エナルカ,0
50,1011005011170,新規,0,2025-09-04,2025-09-04,一般社団法人ＣＮ太陽光Ｍ３号,,その他の設立登記法人,東京都,渋谷区,千駄ヶ谷３丁目１１番８号,,13,113,1510051,,,,,,,2025-09-04,1,,,,,シーエヌタイヨウコウエムサンゴウ,0
56,1011101112863,新規,0,2025-09-04,2025-09-04,株式会社ｈｉｋｉｄａｓｈｉ出版,,株式会社,東京都,新宿区,新宿１丁目３６番２号新宿第七葉山ビル３階,,13,104,1600022,,,,,,,2025-09-04,1,,,,,ヒキダシシュッパン,0
57,1011101113069,新規,0,2025-09-04,2025-09-04,株式会社彩乃,,株式会社,東京都,新宿区,余丁町１番１号,,13,104,1620055,,,,,,,2025-09-04,1,,,,,アヤノ,0
58,1011101113119,新規,0,2025-09-04,2025-09-04,株式会社ジェイ・ケイ・エヌ,,株式会社,東京都,新宿区,下宮比町１番４号,,13,104,1620822,,,,,,,2025-09-04,1,,,,,ジェイケイエヌ,0
62,1011103016369,新規,0,2025-09-04,2025-09-04,クーズコミュニケーションズ合同会社,,合同会社,東京都,新宿区,河田町６番２８号ゴールドハイム２０３号室,,13,104,1620054,,,,,,,2025-09-04,1,,,,,クーズコミュニケーションズ,0
64,1011203004810,新規,0,2025-09-04,2025-09-04,フクマール合同会社,,合同会社,東京都,中野区,南台１丁目１３番９号,,13,114,1640014,,,,,,,2025-09-04,1,,,,,フクマール,0
67,1011301030849,新規,0,2025-09-04,2025-09-04,株式会社Ａｌｌｄｉｍｅｎｓｉｏｎ,,株式会社,東京都,杉並区,高円寺南１丁目４番４１号ラグゼナ東高円寺４０２,,13,115,1660003,,,,,,,2025-09-04,1,,,,,オールディメンション,0
68,1011301030857,新規,0,2025-09-04,2025-09-04,メディアギャング株式会社,,株式会社,東京都,杉並区,下高井戸５丁目９番３５－３０４号,,13,115,1680073,,,,,,,2025-09-04,1,,,,,メディアギャング,0
75,1011701028682,新規,0,2025-09-04,2025-09-04,株式会社ｐｙｏｒｉｉ,,株式会社,東京都,江戸川区,東小岩６丁目３３番１８号ＺＫＹビル１０５号室,,13,123,1330052,,,,,,,2025-09-04,1,,,,,ピョーリ,0
76,1011801046683,新規,0,2025-09-04,2025-09-04,株式会社トラスト,,株式会社,東京都,葛飾区,西水元４丁目１６番５号,,13,122,1250031,,,,,,,2025-09-04,1,,,,,トラスト,0
80,1012801024217,新規,0,2025-09-04,2025-09-04,株式会社ＷＩＮ,,株式会社,東京都,立川市,富士見町５丁目１９番７号コーポルピナス２０６号,,13,202,1900013,,,,,,,2025-09-04,1,,,,,ウィン,0
83,1013301054877,新規,0,2025-09-04,2025-09-04,インヴェスタ株式会社,,株式会社,東京都,豊島区,要町１丁目４５番９号ｅｍｉｏ２０３号室,,13,116,1710043,,,,,,,2025-09-04,1,,,,,インヴェスタ,0
89,1020001164667,新規,0,2025-09-04,2025-09-04,株式会社ＤＡＲＵＭＡ,,株式会社,神奈川県,横浜市港北区,新吉田東１丁目１２番３号,,14,109,2230058,,,,,,,2025-09-04,1,,,,,ダルマ,0
90,1020003029298,新規,0,2025-09-04,2025-09-04,合同会社ＺＥＲＯ,,合同会社,神奈川県,横浜市中区,野毛町２丁目７７番地１ニックハイムリビュレット野毛４０９,,14,104,2310064,,,,,,,2025-09-04,1,,,,,ゼロ,0
94,1021003016501,新規,0,2025-09-04,2025-09-04,ひなた訪問鍼灸院合同会社,,合同会社,神奈川県,横須賀市,船越町７丁目２７番地１,,14,201,2370076,,,,,,,2025-09-04,1,,,,,ヒナタホウモンシンキュウイン,0
95,1030001168428,新規,0,2025-09-04,2025-09-04,株式会社サンカク,,株式会社,埼玉県,さいたま市中央区,上落合９丁目９番４－６０７号,,11,105,3380001,,,,,,,2025-09-04,1,,,,,サンカク,0
96,1030001168469,新規,0,2025-09-04,2025-09-04,株式会社福,,株式会社,埼玉県,桶川市,朝日２丁目２番１５号,,11,231,3630023,,,,,,,2025-09-04,1,,,,,フク,0
97,1030001168477,新規,0,2025-09-04,2025-09-04,株式会社エレフィット,,株式会社,埼玉県,新座市,東２丁目４番１０号,,11,230,3520002,,,,,,,2025-09-04,1,,,,,エレフィット,0
99,1030003027524,新規,0,2025-09-04,2025-09-04,Ａｎｓｈｉｎ合同会社,,合同会社,埼玉県,蓮田市,関山１丁目８番９号,,11,238,3490121,,,,,,,2025-09-04,1,,,,,アンシン,0
101,1040001140336,新規,0,2025-09-04,2025-09-04,株式会社ＢＬＯＯＭ　ＭＡＴＥ,,株式会社,千葉県,八千代市,ゆりのき台３丁目３番地２ＬＩＢＥＲＴＡ１階,,12,221,2760042,,,,,,,2025-09-04,1,,,,,ブルームメイト,0
105,1040003028397,新規,0,2025-09-04,2025-09-04,ＪＡＰＡＮ　ＭＯＴＯＲＳ合同会社,,合同会社,千葉県,四街道市,大日１６３１番－１号,,12,228,2840001,,,,,,,2025-09-04,1,,,,,ジャパンモータース,0
106,1040003028430,新規,0,2025-09-04,2025-09-04,合同会社Ｂｅｌｌａｇｉｏ,,合同会社,千葉県,船橋市,本町４丁目２番１５号第５シンエイビル１階,,12,204,2730005,,,,,,,2025-09-04,1,,,,,ベラージオ,0
109,1050001057190,新規,0,2025-09-04,2025-09-04,株式会社Ａｄ　ａｌｔｉｏｒａ,,株式会社,茨城県,つくばみらい市,紫峰ヶ丘１丁目７番地２ＡＪ－ＭＩＲＡＩ、１Ｃ,,08,235,3002359,,,,,,,2025-09-04,1,,,,,アドアルティオラ,0
110,1050001057199,新規,0,2025-09-04,2025-09-04,ｉ‐ｆａｒｍ株式会社,,株式会社,茨城県,下妻市,伊古立２６２番地,,08,210,3040803,,,,,,,2025-09-04,1,,,,,アイファーム,0
111,1050001057208,新規,0,2025-09-04,2025-09-04,株式会社Ｃｌｉｐ,,株式会社,茨城県,つくば市,台町３丁目１４番地５,,08,220,3050868,,,,,,,2025-09-04,1,,,,,クリップ,0
112,1050001057216,新規,0,2025-09-04,2025-09-04,株式会社ＣＲＵＥ＆Ｃｏ．,,株式会社,茨城県,水戸市,千波町２０２８番地１,,08,201,3100851,,,,,,,2025-09-04,1,,,,,クルーアンドシーオー,0
113,1050001057224,新規,0,2025-09-04,2025-09-04,株式会社木内青果,,株式会社,茨城県,つくば市,鬼ケ窪１８１７番地２,,08,220,3002651,,,,,,,2025-09-04,1,,,,,キウチセイカ,0
115,1070001043305,新規,0,2025-09-04,2025-09-04,株式会社ＴＲＩＭ,,株式会社,群馬県,前橋市,上泉町１７１８番地２,,10,201,3710007,,,,,,,2025-09-04,1,,,,,トリム,0
116,1070001043313,新規,0,2025-09-04,2025-09-04,株式会社ハイサンテクス,,株式会社,群馬県,藤岡市,藤岡１００５番地,,10,209,3750024,,,,,,,2025-09-04,1,,,,,ハイサンテクス,0
121,1090001019492,新規,0,2025-09-04,2025-09-04,株式会社峡北金属,,株式会社,山梨県,北杜市,須玉町若神子２７９８番地１,,19,209,4080112,,,,,,,2025-09-04,1,,,,,キョウホクキンゾク,0
125,1100001038912,新規,0,2025-09-04,2025-09-04,株式会社ｋｏｋｏ’ｓ,,株式会社,長野県,上高井郡小布施町,大字小布施１２５５番地１０,,20,541,3810201,,,,,,,2025-09-04,1,,,,,ココズ,0
126,1110001039554,新規,0,2025-09-04,2025-09-04,菱沼工業株式会社,,株式会社,新潟県,上越市,とよば１６６番地,,15,222,9430146,,,,,,,2025-09-04,1,,,,,ヒシヌマコウギョウ,0
134,1120001279100,新規,0,2025-09-04,2025-09-04,金運屋株式会社,,株式会社,大阪府,大阪市住之江区,北加賀屋１丁目２－２９－２０１,,27,125,5590011,,,,,,,2025-09-04,1,,,,,キンウンヤ,0
135,1120001279397,新規,0,2025-09-04,2025-09-04,株式会社さくらんぼプロジェクト,,株式会社,大阪府,大阪市天王寺区,上本町８丁目７番８号,,27,109,5430001,,,,,,,2025-09-04,1,,,,,サクランボプロジェクト,0
139,1120101072363,新規,0,2025-09-04,2025-09-04,ノダ創建株式会社,,株式会社,大阪府,松原市,上田５丁目３－１４,,27,217,5800016,,,,,,,2025-09-04,1,,,,,ノダソウケン,0
140,1120101072371,新規,0,2025-09-04,2025-09-04,株式会社ｓｏｌｉｄ,,株式会社,大阪府,富田林市,錦織南２丁目１３番１０号,,27,214,5840067,,,,,,,2025-09-04,1,,,,,ソリッド,0
142,1122001039533,新規,0,2025-09-04,2025-09-04,株式会社Ｄｅｆｙｉｎｇ　ｔｈｅ　ｔｉｍｅｓ　ｅｎｔｅｒｔａｉｎｍｅｎｔ,,株式会社,大阪府,東大阪市,衣摺５丁目１７－４－２０５,,27,227,5770827,,,,,,,2025-09-04,1,,,,,デファイングザタイムズエンターテイメント,0
143,1130001080424,新規,0,2025-09-04,2025-09-04,ＮＦ　Ｔｒａｄｉｎｇ株式会社,,株式会社,京都府,京都市右京区,梅津北町６２ー４ソーリーハウス３０３号,,26,108,6150911,,,,,,,2025-09-04,1,,,,,エヌエフトレーディング,0
144,1130001080432,新規,0,2025-09-04,2025-09-04,株式会社晴れるひ,,株式会社,京都府,八幡市,男山松里６番地１８,,26,210,6148364,,,,,,,2025-09-04,1,,,,,ハレルヒ,0
145,1130001080440,新規,0,2025-09-04,2025-09-04,株式会社Ｒｅｓｈｅｅｄ,,株式会社,京都府,京都市上京区,烏丸通鞍馬口下る東入上御霊中町４５１番地１プレミスト京都烏丸鞍馬口３１６号室,,26,102,6020894,,,,,,,2025-09-04,1,,,,,レシード,0
148,1140001139830,新規,0,2025-09-04,2025-09-04,株式会社伊藤ソリューションズパートナー,,株式会社,兵庫県,三田市,けやき台５丁目２５番地３０,,28,219,6691321,,,,,,,2025-09-04,1,,,,,イトウソリューションズパートナー,0
149,1140001139871,新規,0,2025-09-04,2025-09-04,ｌｏｖｅｈｏｍｅ株式会社,,株式会社,兵庫県,神戸市中央区,下山手通５丁目７番７－３１６号,,28,110,6500011,,,,,,,2025-09-04,1,,,,,ラブホーム,0
150,1140001139946,新規,0,2025-09-04,2025-09-04,株式会社杤谷電工,,株式会社,兵庫県,豊岡市,下鶴井１９６１番地,,28,209,6680803,,,,,,,2025-09-04,1,,,,,トチタニデンコウ,0
152,1140003022522,新規,0,2025-09-04,2025-09-04,合同会社モロウ,,合同会社,兵庫県,西宮市,甲子園洲鳥町４番６－６０２号,,28,204,6638151,,,,,,,2025-09-04,1,,,,,モロウ,0
157,1160001027034,新規,0,2025-09-04,2025-09-04,株式会社グランディール,,株式会社,滋賀県,守山市,今浜町２５７３番地６ＭＢパークス今浜第二,,25,207,5240101,,,,,,,2025-09-04,1,,,,,グランディール,0
158,1160001027042,新規,0,2025-09-04,2025-09-04,株式会社クロサーラ,,株式会社,滋賀県,東近江市,甲津畑町９７６番地,,25,213,5270214,,,,,,,2025-09-04,1,,,,,クロサーラ,0
165,1180001168446,新規,0,2025-09-04,2025-09-04,株式会社発向建設,,株式会社,愛知県,半田市,岩滑高山町４丁目８６番地の６,,23,205,4750962,,,,,,,2025-09-04,1,,,,,ハッコウケンセツ,0
166,1180001168470,新規,0,2025-09-04,2025-09-04,株式会社ケー・ファクトリー,,株式会社,愛知県,大府市,共栄町９丁目１番地の１１,,23,223,4740074,,,,,,,2025-09-04,1,,,,,ケーファクトリー,0
167,1180301040156,新規,0,2025-09-04,2025-09-04,株式会社彩華堂,,株式会社,愛知県,高浜市,稗田町４丁目５番地１６リバティ２１,,23,227,4441321,,,,,,,2025-09-04,1,,,,,サイカドウ,0
168,1180301040164,新規,0,2025-09-04,2025-09-04,株式会社ロジスミス・ワークス,,株式会社,愛知県,岡崎市,明大寺町字畔土７番地２フェリカーサ明大寺１０４号,,23,202,4440864,,,,,,,2025-09-04,1,,,,,ロジスミスワークス,0
169,1180303006709,新規,0,2025-09-04,2025-09-04,合同会社みどりや,,合同会社,愛知県,刈谷市,広小路４丁目６番地,,23,210,4480844,,,,,,,2025-09-04,1,,,,,ミドリヤ,0
173,1190003005159,新規,0,2025-09-04,2025-09-04,合同会社さくら,,合同会社,三重県,津市,高茶屋小森上野町１０７４番地１,,24,201,5140816,,,,,,,2025-09-04,1,,,,,サクラ,0
180,1200003007013,新規,0,2025-09-04,2025-09-04,合同会社シームレス・ライフサポート,,合同会社,岐阜県,大垣市,静里町１０２８番地６,,21,202,5030983,,,,,,,2025-09-04,1,,,,,シームレスライフサポート,0
192,1240001065455,新規,0,2025-09-04,2025-09-04,繁森商事株式会社,,株式会社,広島県,福山市,水呑向丘２２９番地２,,34,207,7200833,,,,,,,2025-09-04,1,,,,,シゲモリショウジ,0
194,1240003007389,新規,0,2025-09-04,2025-09-04,合同会社エスペランサ,,合同会社,広島県,安芸郡府中町,桃山１丁目１－４－５０６,,34,302,7350026,,,,,,,2025-09-04,1,,,,,エスペランサ,0
197,1250003003809,新規,0,2025-09-04,2025-09-04,合同会社ＣＬＯＶＥＲ,,合同会社,山口県,山口市,矢原１２８５番地６,,35,203,7530861,,,,,,,2025-09-04,1,,,,,クローバー,0
198,1260001040497,新規,0,2025-09-04,2025-09-04,株式会社いづつや,,株式会社,岡山県,岡山市中区,中納言町６番３０号サンポウ旭川マンション１０４号室,,33,102,7038292,,,,,,,2025-09-04,1,,,,,イヅツヤ,0
208,1290003017400,新規,0,2025-09-04,2025-09-04,合同会社ｕｎｒｕ．,,合同会社,福岡県,福岡市博多区,西春町１丁目４番２８号ル・シャノワールＩＩ・Ａ号室,00140516,40,132,8120873,,,,,,,2025-09-04,1,,,,,アンルー,0
215,1320001021318,新規,0,2025-09-04,2025-09-04,株式会社Ｃｒａｆｔ　Ｓｏｌｕｔｉｏｎ,,株式会社,大分県,大分市,新栄町２－６,,44,201,8700919,,,,,,,2025-09-04,1,,,,,クラフトソリューション,0
219,1340001027627,新規,0,2025-09-04,2025-09-04,株式会社ＪＴＣ,,株式会社,鹿児島県,鹿児島市,西田２丁目２８－８第１１川北ビル５Ｆ,,46,201,8900046,,,,,,,2025-09-04,1,,,,,ジェーティーシー,0
223,1350003005019,新規,0,2025-09-04,2025-09-04,合同会社山下果樹園,,合同会社,宮崎県,西都市,大字三宅６９６４番地１,,45,208,8810005,,,,,,,2025-09-04,1,,,,,ヤマシタカジュエン,0
227,1360001035719,新規,0,2025-09-04,2025-09-04,株式会社新山電気,,株式会社,沖縄県,うるま市,字西原７２７番地７,,47,213,9042204,,,,,,,2025-09-04,1,,,,,ニイヤマデンキ,0
228,1360001035743,新規,0,2025-09-04,2025-09-04,株式会社ＫＡＭＥＹＡ,,株式会社,沖縄県,沖縄市,照屋１丁目４－３－１Ｆ,,47,211,9040011,,,,,,,2025-09-04,1,,,,,カメヤ,0
233,1370001053001,新規,0,2025-09-04,2025-09-04,株式会社Ａｕｔｏ　Ｆｒｅｕｄｅ,,株式会社,宮城県,仙台市宮城野区,扇町７丁目５－６－２,,04,102,9830034,,,,,,,2025-09-04,1,,,,,オートフロイデ,0
251,1430001095136,新規,0,2025-09-04,2025-09-04,ｊｏｙｎ株式会社,,株式会社,北海道,札幌市西区,発寒五条２丁目２－１５,,01,107,0630825,,,,,,,2025-09-04,1,,,,,ジョイン,0
254,1430003018029,新規,0,2025-09-04,2025-09-04,合同会社Ｎｏｖｅａｔｅ,,合同会社,北海道,札幌市北区,新琴似七条２丁目１番４６－５０７号,,01,102,0010907,,,,,,,2025-09-04,1,,,,,ノヴェート,0
259,1470005006647,新規,0,2025-09-04,2025-09-04,一般社団法人香川県企業主導型保育事業者会,,その他の設立登記法人,香川県,高松市,朝日新町１４番１５号,,37,201,7600064,,,,,,,2025-09-04,1,,,,,カガワケンキギョウシュドウガタホイクジギョウシャカイ,0
260,1480001012937,新規,0,2025-09-04,2025-09-04,三和ＨＤ株式会社,,株式会社,徳島県,徳島市,昭和町１丁目７２番地１,,36,201,7700942,,,,,,,2025-09-04,1,,,,,サンワホールディングス,0
261,1490003002043,新規,0,2025-09-04,2025-09-04,信誠楽合同会社,,合同会社,高知県,高知市,長浜６５５７番地１５２,,39,201,7810270,,,,,,,2025-09-04,1,,,,,シンセイラク,0
276,2010001258122,新規,0,2025-09-04,2025-09-04,株式会社ポートボヌール,,株式会社,東京都,中央区,銀座７丁目１３番２０号銀座ＴＨビル９階,,13,102,1040061,,,,,,,2025-09-04,1,,,,,ポートボヌール,0
277,2010001258147,新規,0,2025-09-04,2025-09-04,ＢＵＳＨＩＤＯ株式会社,,株式会社,東京都,文京区,小石川５丁目３９番１１号,,13,105,1120002,,,,,,,2025-09-04,1,,,,,ブシドウ,0
278,2010001258188,新規,0,2025-09-04,2025-09-04,ｅｌａｓｔｉｑ株式会社,,株式会社,東京都,中央区,日本橋室町１丁目１１番１２号日本橋水野ビル７階,,13,102,1030022,,,,,,,2025-09-04,1,,,,,エラスティック,0
279,2010001258246,新規,0,2025-09-04,2025-09-04,森グロース株式会社,,株式会社,東京都,中央区,銀座８丁目１５番２号ＡＣＮ銀座ビル７階,,13,102,1040061,,,,,,,2025-09-04,1,,,,,モリグロース,0
284,2010003048604,新規,0,2025-09-04,2025-09-04,合同会社ＳＷＤ,,合同会社,東京都,千代田区,一番町４－６－１０２一番町中央ビル,,13,101,1020082,,,,,,,2025-09-04,1,,,,,エスダブリューディー,0
287,2010005040625,新規,0,2025-09-04,2025-09-04,一般社団法人トワイライト・シックス,,その他の設立登記法人,東京都,千代田区,内幸町２丁目１番６号,,13,101,1000011,,,,,,,2025-09-04,1,,,,,トワイライトシックス,0
288,2010005040633,新規,0,2025-09-04,2025-09-04,ＧＩリアルティ３一般社団法人,,その他の設立登記法人,東京都,千代田区,内神田１丁目３番７号４０１あすな会計事務所内,,13,101,1010047,,,,,,,2025-09-04,1,,,,,ジーアイリアルティスリー,0
301,2010401192788,新規,0,2025-09-04,2025-09-04,株式会社ＮＯＣＩ,,株式会社,東京都,港区,白金３丁目９番７号,,13,103,1080072,,,,,,,2025-09-04,1,,,,,ノーチ,0
302,2010401192879,新規,0,2025-09-04,2025-09-04,株式会社Ｃｈａｏｏｏ,,株式会社,東京都,港区,浜松町２丁目２番１５号浜松町ダイヤビル２Ｆ,,13,103,1050013,,,,,,,2025-09-04,1,,,,,チャオ,0
303,2010401192887,新規,0,2025-09-04,2025-09-04,株式会社Ｐｏｎｇｏ　Ｗｏｒｋｓ,,株式会社,東京都,港区,北青山１丁目３番１号アールキューブ青山３階,,13,103,1070061,,,,,,,2025-09-04,1,,,,,ポンゴワークス,0
304,2010405024657,新規,0,2025-09-04,2025-09-04,一般社団法人ＣＰＣ　ＢＡＮＫ,,その他の設立登記法人,東京都,港区,高輪２丁目２１番１号ＴＨＥＬＩＮＫＰＩＬＬＡＲ１ＮＯＲＴＨ６・７Ｆ,,13,103,1080074,,,,,,,2025-09-04,1,,,,,シーピーシーバンク,0
306,2010501054665,新規,0,2025-09-04,2025-09-04,株式会社ソルズコーヒー,,株式会社,東京都,台東区,浅草橋３丁目２５番７号,,13,106,1110053,,,,,,,2025-09-04,1,,,,,ソルズコーヒー,0
309,2010801036553,新規,0,2025-09-04,2025-09-04,株式会社リブワークスホールディングス,,株式会社,東京都,大田区,大森西２丁目１８番１号,,13,111,1430015,,,,,,,2025-09-04,1,,,,,リブワークスホールディングス,0
313,2010901058019,新規,0,2025-09-04,2025-09-04,株式会社イエローページセタガヤ,,株式会社,東京都,世田谷区,三軒茶屋１丁目２１番１２号小川マンション９０４,,13,112,1540024,,,,,,,2025-09-04,1,,,,,イエローページセタガヤ,0
326,2011101112961,新規,0,2025-09-04,2025-09-04,株式会社富士金,,株式会社,東京都,新宿区,歌舞伎町２丁目１７番１０号新宿小沼ビル６０１号,,13,104,1600021,,,,,,,2025-09-04,1,,,,,フジキン,0
329,2011103016310,新規,0,2025-09-04,2025-09-04,Ｆｉｉｄｅｅ合同会社,,合同会社,東京都,新宿区,西新宿３丁目３番１３号,,13,104,1600023,,,,,,,2025-09-04,1,,,,,フィーディー,0
331,2011201026599,新規,0,2025-09-04,2025-09-04,株式会社ＳＲＯ,,株式会社,東京都,中野区,中野５丁目６７番７－４０１号,,13,114,1640001,,,,,,,2025-09-04,1,,,,,エスアールオー,0
333,2011301030848,新規,0,2025-09-04,2025-09-04,株式会社なつ＆にゃお,,株式会社,東京都,杉並区,下高井戸４丁目３５番２７号,,13,115,1680073,,,,,,,2025-09-04,1,,,,,ナツアンドニャオ,0
334,2011401027372,新規,0,2025-09-04,2025-09-04,株式会社ｅ,,株式会社,東京都,板橋区,東山町２７番１６号,,13,119,1740073,,,,,,,2025-09-04,1,,,,,イー,0
335,2011403004824,新規,0,2025-09-04,2025-09-04,ユナリエ合同会社,,合同会社,東京都,板橋区,徳丸１丁目９番８号プチ・ドリーム１０２,,13,119,1750083,,,,,,,2025-09-04,1,,,,,ユナリエ,0
336,2011501032512,新規,0,2025-09-04,2025-09-04,大津株式会社,,株式会社,東京都,荒川区,町屋３丁目１－１３－３０９,,13,118,1160001,,,,,,,2025-09-04,1,,,,,オオツ,0
338,2011601028930,新規,0,2025-09-04,2025-09-04,株式会社ＹＤコンサルティング,,株式会社,東京都,練馬区,関町南４丁目１９－６－９０５,,13,120,1770053,,,,,,,2025-09-04,1,,,,,ワイディーコンサルティング,0
339,2011601028955,新規,0,2025-09-04,2025-09-04,東関株式会社,,株式会社,東京都,練馬区,早宮３丁目４０－１１－１０２号室,,13,120,1790085,,,,,,,2025-09-04,1,,,,,トウセキ,0
340,2011603004830,新規,0,2025-09-04,2025-09-04,合同会社アシスト,,合同会社,東京都,練馬区,豊玉南３丁目２６－１４,,13,120,1760014,,,,,,,2025-09-04,1,,,,,アシスト,0
341,2011701028681,新規,0,2025-09-04,2025-09-04,新竹株式会社,,株式会社,東京都,江戸川区,東小岩６丁目３３番１８号ＺＫＹビル２０４号室,,13,123,1330052,,,,,,,2025-09-04,1,,,,,シンチク,0
343,2011801046682,新規,0,2025-09-04,2025-09-04,株式会社ＰＯＳ,,株式会社,東京都,葛飾区,堀切１丁目１８番１３号,,13,122,1240006,,,,,,,2025-09-04,1,,,,,ポス,0
347,2012405005158,新規,0,2025-09-04,2025-09-04,医療法人社団真里会,,その他の設立登記法人,東京都,府中市,住吉町５丁目７番地の２５三浦ビル３階,,13,206,1830034,,,,,,,2025-09-04,1,,,,,シンリカイ,0
350,2013101009790,新規,0,2025-09-04,2025-09-04,株式会社小山工務店,,株式会社,東京都,西多摩郡奥多摩町,小丹波８４２番地,,13,308,1980105,,,,,,,2025-09-04,1,,,,,コヤマコウムテン,0
359,2013301054876,新規,0,2025-09-04,2025-09-04,ＨＴＮ．Ｋｉｚｕｎａ株式会社,,株式会社,東京都,豊島区,上池袋１丁目３１番２３号第２吉岡ビル１０１号,,13,116,1700012,,,,,,,2025-09-04,1,,,,,エイチティーエヌキズナ,0
360,2013303007857,新規,0,2025-09-04,2025-09-04,合同会社Ａｎｙ,,合同会社,東京都,豊島区,南池袋１丁目１６－１５ダイヤゲート池袋５Ｆ,,13,116,1710022,,,,,,,2025-09-04,1,,,,,エニー,0
367,2021001086207,新規,0,2025-09-04,2025-09-04,ワコウズ株式会社,,株式会社,神奈川県,中郡大磯町,東小磯４１１番地の１,,14,341,2550004,,,,,,,2025-09-04,1,,,,,ワコウズ,0
372,2030001168427,新規,0,2025-09-04,2025-09-04,株式会社関東トリックス,,株式会社,埼玉県,東松山市,大字新郷８８番地４０,,11,212,3550071,,,,,,,2025-09-04,1,,,,,カントウトリックス,0
373,2030001168435,新規,0,2025-09-04,2025-09-04,ＬＹ株式会社,,株式会社,埼玉県,三郷市,采女１丁目１４０番地２,,11,237,3410011,,,,,,,2025-09-04,1,,,,,エルワイ,0
374,2030001168451,新規,0,2025-09-04,2025-09-04,株式会社Ｌｉｔｈ,,株式会社,埼玉県,上尾市,大字原市９５９番地４０,,11,219,3620021,,,,,,,2025-09-04,1,,,,,ライズ,0
375,2030001168468,新規,0,2025-09-04,2025-09-04,華益株式会社,,株式会社,埼玉県,川口市,西川口１丁目３０番２０－２１０室,,11,203,3320021,,,,,,,2025-09-04,1,,,,,カエキ,0
380,2040001140368,新規,0,2025-09-04,2025-09-04,ＯＫＩＮＡＷＡ株式会社,,株式会社,千葉県,佐倉市,王子台２丁目３－１－２０３,,12,212,2850837,,,,,,,2025-09-04,1,,,,,オキナワ,0
381,2040001140384,新規,0,2025-09-04,2025-09-04,株式会社ミラクル,,株式会社,千葉県,木更津市,桜井５５５番地４,,12,206,2920822,,,,,,,2025-09-04,1,,,,,ミラクル,0
383,2040003028421,新規,0,2025-09-04,2025-09-04,合同会社コペポーダ,,合同会社,千葉県,船橋市,印内１丁目９番２棟５１０号,,12,204,2730039,,,,,,,2025-09-04,1,,,,,コペポーダ,0
384,2040003028495,新規,0,2025-09-04,2025-09-04,合同会社てとて,,合同会社,千葉県,船橋市,前原東５丁目１５番２２－２０２号,,12,204,2740824,,,,,,,2025-09-04,1,,,,,テトテ,0
388,2050001057198,新規,0,2025-09-04,2025-09-04,和通商株式会社,,株式会社,茨城県,神栖市,下幡木４１０８番地,,08,232,3140131,,,,,,,2025-09-04,1,,,,,カズツウショウ,0
389,2050001057215,新規,0,2025-09-04,2025-09-04,株式会社ＨＡＴＡＹＡパートナーズ,,株式会社,茨城県,水戸市,千波町２０２８番地１,,08,201,3100851,,,,,,,2025-09-04,1,,,,,ハタヤパートナーズ,0
390,2050001057231,新規,0,2025-09-04,2025-09-04,株式会社ＦＩＫソリューション,,株式会社,茨城県,水戸市,千波町１１５６番地藤ビル１Ｆ,,08,201,3100851,,,,,,,2025-09-04,1,,,,,エフアイケイソリューション,0
393,2050003009528,新規,0,2025-09-04,2025-09-04,Ｍｉｔｏｌｏｇｉｅ合同会社,,合同会社,茨城県,水戸市,南町１丁目２－３２Ｍ－Ｗｏｒｋビル３０１号,,08,201,3100021,,,,,,,2025-09-04,1,,,,,ミトロジー,0
394,2050003009536,新規,0,2025-09-04,2025-09-04,合同会社Ｍａｒｕ‐Ｓｈｉｎ,,合同会社,茨城県,古河市,駒羽根１３８９番地６,,08,204,3060221,,,,,,,2025-09-04,1,,,,,マルシン,0
398,2070001043320,新規,0,2025-09-04,2025-09-04,株式会社Ａｏｉ電機システム,,株式会社,群馬県,藤岡市,藤岡８１２番地３,,10,209,3750024,,,,,,,2025-09-04,1,,,,,アオイデンキシステム,0
399,2070003006052,新規,0,2025-09-04,2025-09-04,９０８Ｔｒａｎｓ　ｐｏｒｔ合同会社,,合同会社,群馬県,前橋市,総社町３丁目１０－８,,10,201,3710853,,,,,,,2025-09-04,1,,,,,クレバートランスポート,0
401,2080003003544,新規,0,2025-09-04,2025-09-04,合同会社ＬＩＦＥサポート,,合同会社,静岡県,島田市,旗指５４６番地の４,,22,209,4270048,,,,,,,2025-09-04,1,,,,,ライフサポート,0
403,2080101025754,新規,0,2025-09-04,2025-09-04,株式会社ＮＯＢＬＥ　ＨＥＡＤ,,株式会社,静岡県,富士市,南松野２０６３番地の８,,22,210,4213303,,,,,,,2025-09-04,1,,,,,ノーブルヘッド,0
404,2080401028143,新規,0,2025-09-04,2025-09-04,株式会社ＴＩＭＩＮＧ,,株式会社,静岡県,浜松市中央区,早出町２１８‐２アレーズｃ棟,,22,138,4350054,,,,,,,2025-09-04,1,,,,,タイミング,0
407,2090001019491,新規,0,2025-09-04,2025-09-04,甲南エレベータ株式会社,,株式会社,山梨県,甲府市,宮原町１２４３－１,,19,201,4000058,,,,,,,2025-09-04,1,,,,,,0
410,2100001038911,新規,0,2025-09-04,2025-09-04,株式会社Ｌｕ．ｓｔｒｅ,,株式会社,長野県,伊那市,西町４８７３番地,,20,209,3960026,,,,,,,2025-09-04,1,,,,,ラスタ,0
417,2110003005859,新規,0,2025-09-04,2025-09-04,合同会社アルファステージ,,合同会社,新潟県,三条市,林町１丁目１７番１３号,,15,204,9550061,,,,,,,2025-09-04,1,,,,,アルファステージ,0
418,2110003005875,新規,0,2025-09-04,2025-09-04,Ｃｈｉｔｔｌｅ　Ｈｏｍｅｓ合同会社,,合同会社,新潟県,妙高市,小出雲２丁目４番１２号,,15,217,9440032,,,,,,,2025-09-04,1,,,,,チトレホームズ,0
432,2120003030451,新規,0,2025-09-04,2025-09-04,合同会社コアラ,,合同会社,大阪府,大阪市福島区,福島２丁目１０番１９号メガロコープ福島３１４,,27,103,5530003,,,,,,,2025-09-04,1,,,,,コアラ,0
433,2120005025128,新規,0,2025-09-04,2025-09-04,特定非営利活動法人大阪府防災士会,,その他の設立登記法人,大阪府,枚方市,東中振１丁目２１番１６－２０７号,,27,210,5730093,,,,,,,2025-09-04,1,,,,,オオサカフボウサイシカイ,0
438,2120103006665,新規,0,2025-09-04,2025-09-04,合同会社Ｒｅａｌ　Ｔａｌｋ　Ｃｌｕｂ,,合同会社,大阪府,泉南市,信達市場２３２０番地の２３７,,27,228,5900504,,,,,,,2025-09-04,1,,,,,リアルトーククラブ,0
442,2120905006788,新規,0,2025-09-04,2025-09-04,一般社団法人ふーみん,,その他の設立登記法人,大阪府,箕面市,牧落５丁目８番２－４０７号,,27,220,5620004,,,,,,,2025-09-04,1,,,,,フーミン,0
444,2130001080415,新規,0,2025-09-04,2025-09-04,株式会社Ｏｎｅ　Ｓｔｅｐ,,株式会社,京都府,宇治市,広野町東裏１７番地の１４,,26,204,6110031,,,,,,,2025-09-04,1,,,,,ワンステップ,0
446,2130003010733,新規,0,2025-09-04,2025-09-04,合同会社Ａｕｒａｅ,,合同会社,京都府,京都市下京区,柳馬場通四条下る相之町１０４番地,,26,106,6008071,,,,,,,2025-09-04,1,,,,,オーラ,0
452,2140001139879,新規,0,2025-09-04,2025-09-04,株式会社ミンテック,,株式会社,兵庫県,姫路市,余部区下余部３０８番地７,,28,201,6711261,,,,,,,2025-09-04,1,,,,,ミンテック,0
458,2140005027618,新規,0,2025-09-04,2025-09-04,一般社団法人播磨講習センター,,その他の設立登記法人,兵庫県,姫路市,網干区浜田１０００番地１４６,,28,201,6711242,,,,,,,2025-09-04,1,,,,,ハリマコウシュウセンター,0
459,2150001028379,新規,0,2025-09-04,2025-09-04,株式会社Ａｍｂｏｙ,,株式会社,奈良県,奈良市,西城戸町２４番地貝本ビル１階,,29,201,6308345,,,,,,,2025-09-04,1,,,,,アンボイ,0
461,2160001027033,新規,0,2025-09-04,2025-09-04,株式会社ＢＬＥ,,株式会社,滋賀県,大津市,瀬田６丁目８１－６,,25,201,5202134,,,,,,,2025-09-04,1,,,,,ブレイ,0
468,2180001168437,新規,0,2025-09-04,2025-09-04,株式会社ネクストマネジメント,,株式会社,愛知県,名古屋市中区,新栄２丁目３５番１８号,,23,106,4600007,,,,,,,2025-09-04,1,,,,,ネクストマネジメント,0
469,2180001168461,新規,0,2025-09-04,2025-09-04,アサヒ株式会社,,株式会社,愛知県,名古屋市中村区,井深町４番６２号,,23,105,4530012,,,,,,,2025-09-04,1,,,,,アサヒ,0
470,2180001168494,新規,0,2025-09-04,2025-09-04,株式会社トライム,,株式会社,愛知県,名古屋市中村区,猪之越町１丁目４番１２号－１,,23,105,4530038,,,,,,,2025-09-04,1,,,,,トライム,0
471,2180001168536,新規,0,2025-09-04,2025-09-04,株式会社あん梅,,株式会社,愛知県,名古屋市千種区,今池５丁目３番６号,,23,101,4640850,,,,,,,2025-09-04,1,,,,,アンバイ,0
475,2180003028969,新規,0,2025-09-04,2025-09-04,ＪＰＫ合同会社,,合同会社,愛知県,名古屋市西区,浄心２丁目４番２５号,,23,104,4510061,,,,,,,2025-09-04,1,,,,,ジェーピーケー,0
476,2180003028977,新規,0,2025-09-04,2025-09-04,合同会社サカケン,,合同会社,愛知県,名古屋市熱田区,一番２丁目４１番３号（宝マンション白鳥１００７号）,,23,109,4560053,,,,,,,2025-09-04,1,,,,,サカケン,0
481,2190001032492,新規,0,2025-09-04,2025-09-04,オルセッタネロ株式会社,,株式会社,三重県,伊勢市,神久３丁目５番５５号,,24,203,5160017,,,,,,,2025-09-04,1,,,,,オルセッタネロ,0
484,2200001044197,新規,0,2025-09-04,2025-09-04,株式会社ＳＥＫ　ｓｉｎ,,株式会社,岐阜県,岐阜市,梅園町１１番地２,,21,201,5008371,,,,,,,2025-09-04,1,,,,,エスイーケーシン,0
485,2200001044206,新規,0,2025-09-04,2025-09-04,株式会社Ｃｒｅｓｔ,,株式会社,岐阜県,羽島郡岐南町,徳田５丁目１０２番地（プレゾンハレ１０３号室）,,21,302,5016016,,,,,,,2025-09-04,1,,,,,クレスト,0
487,2200003007004,新規,0,2025-09-04,2025-09-04,合同会社ＡＤＥＥＬ　ＴＲＡＤＩＮＧ,,合同会社,岐阜県,美濃加茂市,本郷町１丁目４番１０号本郷マンション３Ｅ,,21,211,5050027,,,,,,,2025-09-04,1,,,,,アディールトレーディング,0
488,2210001020305,新規,0,2025-09-04,2025-09-04,株式会社三国濱出水産,00140515,株式会社,福井県,坂井市,三国町宿１丁目７番３８号,,18,210,9130056,,,,,,,2025-09-04,1,,,,,ミクニハマデスイサン,0
496,2240001065454,新規,0,2025-09-04,2025-09-04,株式会社アイエムエスピー,,株式会社,広島県,福山市,能島１丁目８番３号,,34,207,7210906,,,,,,,2025-09-04,1,,,,,アイエムエスピー,0
497,2240001065462,新規,0,2025-09-04,2025-09-04,株式会社ｇｌｕｏｎ,,株式会社,広島県,広島市西区,楠木町３丁目１６番１－１０２号,,34,104,7330002,,,,,,,2025-09-04,1,,,,,グルーオン,0
498,2250001021324,新規,0,2025-09-04,2025-09-04,株式会社ＬＯＧ,,株式会社,山口県,下関市,長府満珠新町１番３２号,,35,201,7520948,,,,,,,2025-09-04,1,,,,,ログ,0
507,2290001041186,新規,0,2025-09-04,2025-09-04,株式会社まる倉,,株式会社,福岡県,大野城市,中２丁目３番１号,,40,219,8160906,,,,,,,2025-09-04,1,,,,,マルクラ,0
511,2290001111229,新規,0,2025-09-04,2025-09-04,ユネイブ株式会社,,株式会社,福岡県,福岡市博多区,博多駅前１丁目２３番２号ＰａｒｋＦｒｏｎｔ博多駅前１丁目５Ｆ－Ｂ,,40,132,8120011,,,,,,,2025-09-04,1,,,,,ユネイブ,0
514,2290003017374,新規,0,2025-09-04,2025-09-04,合同会社アーム・レポ・スウィング,,合同会社,福岡県,大牟田市,大字歴木１８０７番地８６３,,40,202,8370924,,,,,,,2025-09-04,1,,,,,アームレポスウィング,0
516,2290801031840,新規,0,2025-09-04,2025-09-04,株式会社ＬＵＣＥ,,株式会社,福岡県,北九州市八幡西区,岡田町７番３０－１００５号,,40,109,8060033,,,,,,,2025-09-04,1,,,,,ルーチェ,0
521,2320005010258,新規,0,2025-09-04,2025-09-04,司法書士法人川岸事務所,,その他の設立登記法人,大分県,大分市,城崎町３丁目２番３０号,,44,201,8700045,,,,,,,2025-09-04,1,,,,,カワギシジムショ,0
524,2350003005018,新規,0,2025-09-04,2025-09-04,合同会社ｙｕｔｏｒｉｅ,,合同会社,宮崎県,東臼杵郡門川町,栄ケ丘３丁目９番地,,45,421,8890615,,,,,,,2025-09-04,1,,,,,ユトリエ,0
530,2360003015222,新規,0,2025-09-04,2025-09-04,合同会社ふうりん,,合同会社,沖縄県,那覇市,古波蔵３丁目１８番１８古蔵アパート３０１号,,47,201,9000024,,,,,,,2025-09-04,1,,,,,フウリン,0
531,2370001053000,新規,0,2025-09-04,2025-09-04,４０４Ｎｏｔ　Ｆｏｕｎｄ株式会社,,株式会社,宮城県,仙台市青葉区,国分町２丁目５番１７号車屋ビル３階Ａ,,04,101,9800803,,,,,,,2025-09-04,1,,,,,ヨンマルヨンノットファウンド,0
532,2370001053009,新規,0,2025-09-04,2025-09-04,株式会社味彩,,株式会社,宮城県,石巻市,立町２丁目５番４５号,,04,202,9860824,,,,,,,2025-09-04,1,,,,,アジサイ,0
541,2430001095218,新規,0,2025-09-04,2025-09-04,株式会社はるわ,,株式会社,北海道,札幌市白石区,本郷通６丁目南２番２４－７０３号,,01,104,0030024,,,,,,,2025-09-04,1,,,,,ハルワ,0
542,2430003018044,新規,0,2025-09-04,2025-09-04,ＲＡＹＡＮ　ＩＮＴＥＲＮＡＴＩＯＮＡＬ合同会社,,合同会社,北海道,苫小牧市,美園町２丁目１０番１０号,,01,213,0530041,,,,,,,2025-09-04,1,,,,,ラヤンインターナショナル,0
543,2430003018085,新規,0,2025-09-04,2025-09-04,合同会社余白乃美,,合同会社,北海道,札幌市北区,北三十三条西９丁目４番５号マイネリーベ２０１号,,01,102,0010033,,,,,,,2025-09-04,1,,,,,ヨハクノビ,0
550,2480003002316,新規,0,2025-09-04,2025-09-04,合同会社ＬＭ,,合同会社,徳島県,阿南市,羽ノ浦町宮倉前田２８番地１２,,36,204,7791102,,,,,,,2025-09-04,1,,,,,エルエム,0
552,2490003002042,新規,0,2025-09-04,2025-09-04,合同会社小野防災,,合同会社,高知県,高知市,北高見町４６番地８,,39,201,7808028,,,,,,,2025-09-04,1,,,,,オノボウサイ,0
561,3010001258187,新規,0,2025-09-04,2025-09-04,株式会社ＦＩＲＥＮＯＸ,,株式会社,東京都,千代田区,神田佐久間河岸５５朝風染常ビル２階,,13,101,1010026,,,,,,,2025-09-04,1,,,,,ファイアノックス,0
562,3010001258229,新規,0,2025-09-04,2025-09-04,Ｋ３株式会社,,株式会社,東京都,中央区,銀座６丁目１３番９号ｂｉｚｃｕｂｅ,,13,102,1040061,,,,,,,2025-09-04,1,,,,,ケースリー,0
565,3010003048578,新規,0,2025-09-04,2025-09-04,合同会社ＫＩＳＥＫＩ,,合同会社,東京都,千代田区,神田小川町３丁目１４番３号イルサ２０４,,13,101,1010052,,,,,,,2025-09-04,1,,,,,キセキ,0
567,3010005040624,新規,0,2025-09-04,2025-09-04,一般社団法人ＰＧ梅田,,その他の設立登記法人,東京都,中央区,日本橋１丁目４番１号,,13,102,1030027,,,,,,,2025-09-04,1,,,,,ピージーウメダ,0
578,3010401192399,新規,0,2025-09-04,2025-09-04,株式会社ＳＨＩＮ,,株式会社,東京都,港区,芝浦１丁目６－４１－１７１２号室,,13,103,1050023,,,,,,,2025-09-04,1,,,,,シン,0
579,3010401192770,新規,0,2025-09-04,2025-09-04,株式会社ＩＤ４Ｍａｎａｇｅｍｅｎｔ,,株式会社,東京都,港区,六本木２丁目２－９－２Ｆ,,13,103,1060032,,,,,,,2025-09-04,1,,,,,アイディフォーマネージメント,0
580,3010401192787,新規,0,2025-09-04,2025-09-04,株式会社ベリーフィールド,,株式会社,東京都,港区,赤坂７丁目５番３４－５１５号,,13,103,1070052,,,,,,,2025-09-04,1,,,,,ベリーフィールド,0
583,3010405024747,新規,0,2025-09-04,2025-09-04,一般社団法人ＣＯＲＥ,,その他の設立登記法人,東京都,港区,西新橋１丁目２番９号メンターキャピタル税理士法人内,,13,103,1050003,,,,,,,2025-09-04,1,,,,,コア,0
610,3011001172279,新規,0,2025-09-04,2025-09-04,株式会社Ｗｉｌｅｓｓ,,株式会社,東京都,渋谷区,神宮前６丁目２９―４原宿Ｋｏｍｉｙａビル６階,,13,113,1500001,,,,,,,2025-09-04,1,,,,,ウィレス,0
614,3011103016326,新規,0,2025-09-04,2025-09-04,合同会社ジェイ・ジー・キュー,,合同会社,東京都,新宿区,下宮比町１番４号,,13,104,1620822,,,,,,,2025-09-04,1,,,,,ジェイジーキュー,0
615,3011103016350,新規,0,2025-09-04,2025-09-04,Ｗａｌｋｉｎｇ　Ｄｒｅａｍ合同会社,,合同会社,東京都,新宿区,西新宿３丁目３番１３号西新宿水間ビル６階,,13,104,1600023,,,,,,,2025-09-04,1,,,,,ウォーキングドリーム,0
617,3011401027371,新規,0,2025-09-04,2025-09-04,株式会社ＵＮＡ,,株式会社,東京都,板橋区,赤塚２丁目３０番６号,,13,119,1750092,,,,,,,2025-09-04,1,,,,,ウナ,0
619,3011403004823,新規,0,2025-09-04,2025-09-04,合同会社ＷＩＮＧ,,合同会社,東京都,板橋区,大山東町２１－５清田ビル２階２－Ｂ－１,,13,119,1730014,,,,,,,2025-09-04,1,,,,,ウィング,0
620,3011501032511,新規,0,2025-09-04,2025-09-04,鴻福株式会社,,株式会社,東京都,荒川区,東尾久２丁目２番９号三祥ビル２１９,,13,118,1160012,,,,,,,2025-09-04,1,,,,,コウフク,0
621,3011601028954,新規,0,2025-09-04,2025-09-04,バンフービ株式会社,,株式会社,東京都,練馬区,北町５丁目５－７かぼちゃの馬車平和台２０２号室,,13,120,1790081,,,,,,,2025-09-04,1,,,,,バンフービ,0
622,3011603004821,新規,0,2025-09-04,2025-09-04,ＭＭエステート合同会社,,合同会社,東京都,練馬区,栄町４番４号マルハチビル３Ｆ,,13,120,1760006,,,,,,,2025-09-04,1,,,,,エムエムエステート,0
624,3011701028689,新規,0,2025-09-04,2025-09-04,株式会社Ｓｔｅａｄｙ　Ｓｔｙｌｅ　Ｌａｂ,,株式会社,東京都,江戸川区,東葛西５丁目１３番１－１４１２号,,13,123,1340084,,,,,,,2025-09-04,1,,,,,ステディースタイルラボ,0
627,3011801046681,新規,0,2025-09-04,2025-09-04,大鳳建設株式会社,,株式会社,東京都,足立区,西新井６丁目３０番６号,,13,121,1230841,,,,,,,2025-09-04,1,,,,,タイホウケンセツ,0
629,3012401043540,新規,0,2025-09-04,2025-09-04,Ｃｕｌｔｕｒｅ　Ｓｈｉｆｔ株式会社,,株式会社,東京都,武蔵野市,関前４丁目１番８号,,13,203,1800014,,,,,,,2025-09-04,1,,,,,カルチャーシフト,0
630,3012403007312,新規,0,2025-09-04,2025-09-04,ＫＯＷ合同会社,,合同会社,東京都,調布市,西つつじケ丘３丁目２６番７号アーバンフラッツＭＡ２０３,,13,208,1820006,,,,,,,2025-09-04,1,,,,,ケーオーダブル,0
631,3012405005157,新規,0,2025-09-04,2025-09-04,医療法人社団ＫＧＤＣ,,その他の設立登記法人,東京都,稲城市,平尾４丁目２４番地の１平尾メディカルヴィレッジ２０１,,13,225,2060823,,,,,,,2025-09-04,1,,,,,ケージーディーシー,0
632,3012701019050,新規,0,2025-09-04,2025-09-04,株式会社エヌ・ラボラトリー,,株式会社,東京都,西東京市,ひばりが丘北１丁目４番４号,,13,229,2020002,,,,,,,2025-09-04,1,,,,,エヌラボラトリー,0
635,3013301054875,新規,0,2025-09-04,2025-09-04,株式会社ＡＳＩＡ　ＹＡＳＵ,,株式会社,東京都,豊島区,目白３丁目２２番５号目白ガーデン１０７号,,13,116,1710031,,,,,,,2025-09-04,1,,,,,アジアヤス,0
636,3013303007856,新規,0,2025-09-04,2025-09-04,合同会社ジェイズバー,,合同会社,東京都,豊島区,池袋２丁目６１番８アゼリア青新ビル１１０１,,13,116,1710014,,,,,,,2025-09-04,1,,,,,ジェイズバー,0
640,3020001164533,新規,0,2025-09-04,2025-09-04,株楽木贈園株式会社,,株式会社,神奈川県,横浜市西区,浅間町１丁目４－３ウィザードビル４０２,,14,103,2200072,,,,,,,2025-09-04,1,,,,,カブラギゾウエン,0
641,3020001164616,新規,0,2025-09-04,2025-09-04,株式会社ｆｃｉ,,株式会社,神奈川県,横浜市神奈川区,金港町５番地１４クアドリフォリオ８階,,14,102,2210056,,,,,,,2025-09-04,1,,,,,エフシーアイ,0
645,3030001168426,新規,0,2025-09-04,2025-09-04,ＴＷホールディングス株式会社,,株式会社,埼玉県,川口市,上青木６丁目３２番２０号,,11,203,3330844,,,,,,,2025-09-04,1,,,,,ティダブリュホールディングス,0
646,3030001168459,新規,0,2025-09-04,2025-09-04,株式会社ＡＩＦＡ,,株式会社,埼玉県,さいたま市大宮区,東町１丁目４６オガワとうちゅうビル２階,,11,103,3300841,,,,,,,2025-09-04,1,,,,,アイファ,0
647,3030001168475,新規,0,2025-09-04,2025-09-04,グランドゥールＫＪ株式会社,,株式会社,埼玉県,さいたま市岩槻区,宮町２丁目６番４７号,,11,110,3390065,,,,,,,2025-09-04,1,,,,,グランドゥールケイジェイ,0
655,3040001140318,新規,0,2025-09-04,2025-09-04,大和アセット株式会社,,株式会社,千葉県,袖ケ浦市,奈良輪２丁目９番地１２,,12,229,2990263,,,,,,,2025-09-04,1,,,,,ヤマトアセット,0
656,3040001140334,新規,0,2025-09-04,2025-09-04,株式会社七栄オフィス,,株式会社,千葉県,富里市,七栄６５４－４０,,12,233,2860221,,,,,,,2025-09-04,1,,,,,ナナエオフィス,0
657,3040001140466,新規,0,2025-09-04,2025-09-04,上坂コンサルティング株式会社,,株式会社,千葉県,佐倉市,上座１４３２番地２０,,12,212,2850854,,,,,,,2025-09-04,1,,,,,ウエサカコンサルティング,0
664,3050001057197,新規,0,2025-09-04,2025-09-04,株式会社コンパスプレイス,,株式会社,茨城県,日立市,多賀町１丁目１５番１１号,,08,202,3160003,,,,,,,2025-09-04,1,,,,,コンパスプレイス,0
665,3050001057214,新規,0,2025-09-04,2025-09-04,株式会社Ｂ．Ｍ．Ｃ　Ａｕｔｏ,,株式会社,茨城県,小美玉市,羽鳥２３５２番地１３４１,,08,236,3190123,,,,,,,2025-09-04,1,,,,,ビーエムシーオート,0
666,3050001057239,新規,0,2025-09-04,2025-09-04,株式会社ＢＵＢＵ工房,,株式会社,茨城県,取手市,寺田４８００番地３,,08,217,3020021,,,,,,,2025-09-04,1,,,,,ブブコウボウ,0
672,3070001043311,新規,0,2025-09-04,2025-09-04,株式会社ＦＲＡＣＣ,,株式会社,群馬県,太田市,新田大根町９３７番地２,,10,205,3700347,,,,,,,2025-09-04,1,,,,,フラック,0
675,3080101025761,新規,0,2025-09-04,2025-09-04,ＮＩＨＯＮＮＥＳＴ株式会社,,株式会社,静岡県,富士宮市,星山２３７番地の２９,,22,207,4180035,,,,,,,2025-09-04,1,,,,,ニホンネスト,0
676,3080401028150,新規,0,2025-09-04,2025-09-04,株式会社ヒーローズグループ本社,,株式会社,静岡県,浜松市中央区,板屋町１１１番地の２アクトタワー１８階,,22,138,4300928,,,,,,,2025-09-04,1,,,,,ヒーローズグループホンシャ,0
680,3090001019490,新規,0,2025-09-04,2025-09-04,株式会社オーベスト,,株式会社,山梨県,南都留郡富士河口湖町,船津５２４４番地,,19,430,4010301,,,,,,,2025-09-04,1,,,,,オーベスト,0
682,3110001039560,新規,0,2025-09-04,2025-09-04,Ｍ＆Ｑホールディングス株式会社,,株式会社,新潟県,柏崎市,大字南条３４５０番地１、２Ｆ,,15,205,9493734,,,,,,,2025-09-04,1,,,,,エムアンドキューホールディングス,0
698,3120001278942,新規,0,2025-09-04,2025-09-04,ＳＵＮＦｌｏｗ株式会社,,株式会社,大阪府,大阪市北区,西天満２丁目６番８号堂島ビルヂング６Ｆ新東京国際リーガル内,,27,127,5300047,,,,,,,2025-09-04,1,,,,,サンフロー,0
699,3120001279321,新規,0,2025-09-04,2025-09-04,之歌株式会社,,株式会社,大阪府,大阪市北区,天満４丁目５番３号,,27,127,5300043,,,,,,,2025-09-04,1,,,,,シカ,0
700,3120001279544,新規,0,2025-09-04,2025-09-04,株式会社いやさかメディカル,,株式会社,大阪府,大阪市西区,南堀江１丁目２６番２７－２０１号,,27,106,5500015,,,,,,,2025-09-04,1,,,,,イヤサカメディカル,0
702,3120003030450,新規,0,2025-09-04,2025-09-04,合同会社Ｌｙｖｉａ　Ｐａｒｔｎｅｒｓ,,合同会社,大阪府,大阪市北区,梅田１丁目２番２号大阪駅前第二ビル１２－１２,,27,127,5300001,,,,,,,2025-09-04,1,,,,,リヴィアパートナーズ,0
703,3120003030491,新規,0,2025-09-04,2025-09-04,ＭＴＮ合同会社,,合同会社,大阪府,大阪市東淀川区,豊新４丁目９番４号植原マンション２０１号室,,27,114,5330014,,,,,,,2025-09-04,1,,,,,エムティーエヌ,0
707,3120103006680,新規,0,2025-09-04,2025-09-04,合同会社あいのもと,,合同会社,大阪府,堺市北区,中百舌鳥町６丁９９８番地３,,27,146,5918023,,,,,,,2025-09-04,1,,,,,アイノモト,0
714,3130001080414,新規,0,2025-09-04,2025-09-04,栄王株式会社,,株式会社,京都府,京都市左京区,八瀬近衛町７６０番地１八瀬グリーンハイム２０６号,,26,103,6011253,,,,,,,2025-09-04,1,,,,,エイオウ,0
716,3130003010732,新規,0,2025-09-04,2025-09-04,合同会社藤太郎,,合同会社,京都府,京都市中京区,富小路通御池下る松下町１３５番地３コスモシティ御池富小路２０６号室,,26,104,6048093,,,,,,,2025-09-04,1,,,,,トウタロウ,0
720,3140001139853,新規,0,2025-09-04,2025-09-04,ＴＯＹＯ　ＦＬＯＯＲＴＥＣ株式会社,,株式会社,兵庫県,芦屋市,涼風町１２番１０号,,28,206,6590036,,,,,,,2025-09-04,1,,,,,トーヨーフロアテック,0
721,3140001139878,新規,0,2025-09-04,2025-09-04,株式会社Ｔｅａｍ　Ｔｈｅ　Ｂｒａｎｄ　Ｐｒｏ,,株式会社,兵庫県,たつの市,御津町釜屋９番地１７マリンハイツ一番館１０１,,28,229,6711341,,,,,,,2025-09-04,1,,,,,チームザブランドプロ,0
737,3180001168436,新規,0,2025-09-04,2025-09-04,株式会社ＯＮＥ,,株式会社,愛知県,尾張旭市,南新町中畑１８番地５,,23,226,4880041,,,,,,,2025-09-04,1,,,,,ワン,0
738,3180001168460,新規,0,2025-09-04,2025-09-04,株式会社ウィンセル,,株式会社,愛知県,丹羽郡扶桑町,大字斎藤字旭３８９番地,,23,362,4800104,,,,,,,2025-09-04,1,,,,,ウィンセル,0
740,3180003028968,新規,0,2025-09-04,2025-09-04,合同会社ＨＹＳメディカル,,合同会社,愛知県,名古屋市名東区,社台２丁目２１９番地の２,,23,115,4650092,,,,,,,2025-09-04,1,,,,,エイチワイエスメディカル,0
741,3180003028976,新規,0,2025-09-04,2025-09-04,合同会社ＩＱＢＡＬ　ＴＲＡＤＩＮＧ,,合同会社,愛知県,岩倉市,栄町１丁目７０番地中圓ビルＤー１,,23,228,4820022,,,,,,,2025-09-04,1,,,,,,0
743,3180301040162,新規,0,2025-09-04,2025-09-04,株式会社三河リフォーム,,株式会社,愛知県,豊川市,中央通３丁目１３番地２,,23,207,4420051,,,,,,,2025-09-04,1,,,,,ミカワリフォーム,0
754,3210001020304,新規,0,2025-09-04,2025-09-04,株式会社福島金属,,株式会社,福井県,福井市,幾久町６番１８号,,18,201,9100014,,,,,,,2025-09-04,1,,,,,フクシマキンゾク,0
757,3220001026903,新規,0,2025-09-04,2025-09-04,株式会社ヤマザキベース,,株式会社,石川県,小松市,長田町ロ２０番地２,,17,203,9230034,,,,,,,2025-09-04,1,,,,,ヤマザキベース,0
758,3220001026911,新規,0,2025-09-04,2025-09-04,株式会社ＢＡＴＡＣ　ＷＯＲＫＳ,,株式会社,石川県,金沢市,堀川町２１番２１－１号,,17,201,9200847,,,,,,,2025-09-04,1,,,,,バタックワークス,0
764,3240001065461,新規,0,2025-09-04,2025-09-04,株式会社えむねっと,,株式会社,広島県,広島市安佐南区,西原８丁目１７番３号,,34,105,7310113,,,,,,,2025-09-04,1,,,,,エムネット,0
779,3290001111384,新規,0,2025-09-04,2025-09-04,刻工業株式会社,,株式会社,福岡県,糸島市,前原中央２丁目９番２７号,,40,230,8191116,,,,,,,2025-09-04,1,,,,,トキコウギョウ,0
790,3290801031815,新規,0,2025-09-04,2025-09-04,Ｐｕｒｅ　Ｌｉｆｅ株式会社,,株式会社,福岡県,北九州市八幡東区,日の出３丁目１番２０号,,40,108,8050004,,,,,,,2025-09-04,1,,,,,ピュアライフ,0
792,3320001021316,新規,0,2025-09-04,2025-09-04,ワタナベリース株式会社,,株式会社,大分県,大分市,大字中判田１２４番地の１,,44,201,8701113,,,,,,,2025-09-04,1,,,,,ワタナベリース,0
793,3330002019275,新規,0,2025-09-04,2025-09-04,有限会社ホテルスター,,有限会社,熊本県,熊本市北区,植木町石川３７６番地,,43,105,8610124,,,,,,,2025-09-04,1,,,,,ホテルスター,0
796,3340001027625,新規,0,2025-09-04,2025-09-04,株式会社ＩＲＯＤＯＲＩ,,株式会社,鹿児島県,霧島市,隼人町見次７７０番地１２,,46,218,8995117,,,,,,,2025-09-04,1,,,,,イロドリ,0
799,3350001019712,新規,0,2025-09-04,2025-09-04,株式会社ＹＡグループ,,株式会社,宮崎県,都城市,牟田町十一丁目９番地居酒屋よし家,,45,202,8850079,,,,,,,2025-09-04,1,,,,,ワイエーグループ,0
801,3350003005017,新規,0,2025-09-04,2025-09-04,合同会社Ｈｏｕｒｙｏｕｍａｒｕ,,合同会社,宮崎県,串間市,大字大納８４５番地,,45,207,8880221,,,,,,,2025-09-04,1,,,,,ホウリョウマル,0
802,3350005006327,新規,0,2025-09-04,2025-09-04,医療法人よしだ眼科クリニック,,その他の設立登記法人,宮崎県,北諸県郡三股町,大字樺山４６１２番地,,45,341,8891901,,,,,,,2025-09-04,1,,,,,ヨシダガンカクリニック,0
804,3360005007282,新規,0,2025-09-04,2025-09-04,ｕｅＨａＲａ社会保険労務士法人,,その他の設立登記法人,沖縄県,那覇市,おもろまち４丁目７番７号ＵＲビル２階,,47,201,9000006,,,,,,,2025-09-04,1,,,,,ウエハラ,0
806,3370003007267,新規,0,2025-09-04,2025-09-04,合同会社つばさ丸,,合同会社,宮城県,仙台市若林区,新寺１丁目７番１―３００７号,,04,103,9840051,,,,,,,2025-09-04,1,,,,,ツバサマル,0
810,3400001017157,新規,0,2025-09-04,2025-09-04,株式会社マリーナメディカルグループ,,株式会社,岩手県,花巻市,桜台２丁目１０番２３号,,03,205,0250064,,,,,,,2025-09-04,1,,,,,マリーナメディカルグループ,0
817,3430001095142,新規,0,2025-09-04,2025-09-04,株式会社ＳＴＵＤ　ＷＯＲＫＳ,,株式会社,北海道,札幌市西区,発寒十二条３丁目９番２０号Ｗａｋｏ－Ｃ号,,01,107,0630832,,,,,,,2025-09-04,1,,,,,スタッドワークス,0
822,3470001020872,新規,0,2025-09-04,2025-09-04,株式会社ＪｉｉＬ,,株式会社,香川県,高松市,木太町２７０５番地１,,37,201,7600080,,,,,,,2025-09-04,1,,,,,,0
827,3490003002041,新規,0,2025-09-04,2025-09-04,合同会社ＲＩＲＥＦＵＬ若竹,,合同会社,高知県,高知市,追手筋１丁目２番１号若竹ビル,,39,201,7800842,,,,,,,2025-09-04,1,,,,,リルフルワカタケ,0
829,3500001026494,新規,0,2025-09-04,2025-09-04,株式会社ＨＢ,,株式会社,愛媛県,松山市,余戸東２丁目１３番３９号余戸徳和ビル２０１,,38,201,7900044,,,,,,,2025-09-04,1,,,,,エイチビー,0
831,3500003003582,新規,0,2025-09-04,2025-09-04,ネオ・マイルストーン合同会社,,合同会社,愛媛県,西条市,氷見丙４７７番地,,38,206,7930073,,,,,,,2025-09-04,1,,,,,ネオマイルストーン,0
840,4010001258203,新規,0,2025-09-04,2025-09-04,Ｐａｌｏｎｏｖａ・ＪＡＰＡＮ株式会社,,株式会社,東京都,千代田区,永田町２丁目４番７号秀和永田町レジデンス３０２,,13,101,1000014,,,,,,,2025-09-04,1,,,,,パロノバジャパン,0
841,4010001258228,新規,0,2025-09-04,2025-09-04,宝誠通商株式会社,,株式会社,東京都,中央区,銀座７丁目１５番１１号,,13,102,1040061,,,,,,,2025-09-04,1,,,,,ホウセイツウショウ,0
845,4010003048577,新規,0,2025-09-04,2025-09-04,ＢＯＮＤアセットマネジメント合同会社,,合同会社,東京都,千代田区,神田和泉町１番地６番１６号ヤマトビル４０５,,13,101,1010024,,,,,,,2025-09-04,1,,,,,ボンドアセットマネジメント,0
846,4010003048585,新規,0,2025-09-04,2025-09-04,ＺＡＧ　ＪＡＰＡＮ合同会社,,合同会社,東京都,千代田区,紀尾井町３番１２号紀尾井町ビル１８階,,13,101,1020094,,,,,,,2025-09-04,1,,,,,ザグジャパン,0
858,4010401192828,新規,0,2025-09-04,2025-09-04,株式会社５ＵＮＤＥＲＳ,,株式会社,東京都,港区,麻布十番１丁目５－６、２Ｆ,,13,103,1060045,,,,,,,2025-09-04,1,,,,,ファイブアンダース,0
861,4010403035951,新規,0,2025-09-04,2025-09-04,ウェストピアインベストメント合同会社,,合同会社,東京都,港区,西新橋１丁目２番９号メンターキャピタル税理士法人内,,13,103,1050003,,,,,,,2025-09-04,1,,,,,ウェストピアインベストメント,0
862,4010501054647,新規,0,2025-09-04,2025-09-04,＿順株式会社,00140519,株式会社,東京都,台東区,東上野６丁目１０番８号７０３リードシー東上野,,13,106,1100015,,,,,,,2025-09-04,1,,,,,,0
869,4010603011760,新規,0,2025-09-04,2025-09-04,合同会社Ｖ．Ｓ,,合同会社,東京都,江東区,住吉２丁目２５番１３号,,13,108,1350002,,,,,,,2025-09-04,1,,,,,バーサス,0
873,4010701048242,新規,0,2025-09-04,2025-09-04,ＫｉｎｇＳｍｉｔｈ科技株式会社,,株式会社,東京都,品川区,東五反田１丁目１９番４号,,13,109,1410022,,,,,,,2025-09-04,1,,,,,キングスミスカギ,0
874,4010701048250,新規,0,2025-09-04,2025-09-04,株式会社ＳＡＫＥ　ＴＯＫＹＯ,,株式会社,東京都,品川区,大崎１丁目１１番２号,,13,109,1410032,,,,,,,2025-09-04,1,,,,,サケトウキョウ,0
875,4010701048259,新規,0,2025-09-04,2025-09-04,株式会社飛鳥,,株式会社,東京都,品川区,大崎３丁目６番２１－２１２号,,13,109,1410032,,,,,,,2025-09-04,1,,,,,アスカ,0
891,4011103016325,新規,0,2025-09-04,2025-09-04,合同会社ジェイ・ジー・ピー,,合同会社,東京都,新宿区,下宮比町１番４号,,13,104,1620822,,,,,,,2025-09-04,1,,,,,ジェイジーピー,0
893,4011105011555,新規,0,2025-09-04,2025-09-04,一般財団法人先端教育振興機構,,その他の設立登記法人,東京都,新宿区,西早稲田１丁目９番２号,,13,104,1690051,,,,,,,2025-09-04,1,,,,,センタンキョウイクシンコウキコウ,0
895,4011201026597,新規,0,2025-09-04,2025-09-04,株式会社ｄｏｓｈｉｎｄｏ　ｊａｐａｎ,,株式会社,東京都,中野区,本町３丁目３１番１１号Ｄａｉｗａ中野坂上ビル８階,,13,114,1640012,,,,,,,2025-09-04,1,,,,,ドウシンドウジャパン,0
896,4011201026622,新規,0,2025-09-04,2025-09-04,株式会社ＹＵＶＩ,,株式会社,東京都,中野区,野方５丁目１８番３号、東南角２階,,13,114,1650027,,,,,,,2025-09-04,1,,,,,ユービ,0
898,4011301030854,新規,0,2025-09-04,2025-09-04,株式会社くらしテック,,株式会社,東京都,杉並区,久我山３丁目２２番１４号,,13,115,1680082,,,,,,,2025-09-04,1,,,,,クラシテック,0
902,4011801046680,新規,0,2025-09-04,2025-09-04,株式会社ＴＳＫ電装サービス,,株式会社,東京都,足立区,古千谷本町１丁目１２番２２号,,13,121,1210832,,,,,,,2025-09-04,1,,,,,ティーエスケーデンソウサービス,0
903,4011803007053,新規,0,2025-09-04,2025-09-04,合同会社ビッグワード,,合同会社,東京都,足立区,加賀２丁目１９番１号,,13,121,1230861,,,,,,,2025-09-04,1,,,,,ビッグワード,0
907,4012801024230,新規,0,2025-09-04,2025-09-04,株式会社ｕｐｔｒａｃｋ,,株式会社,東京都,国立市,西２丁目２３番地の６２,,13,215,1860005,,,,,,,2025-09-04,1,,,,,アップトラック,0
910,4013301054890,新規,0,2025-09-04,2025-09-04,パラウェイフィットネス株式会社,,株式会社,東京都,豊島区,西池袋５丁目４番８号,,13,116,1710021,,,,,,,2025-09-04,1,,,,,パラウェイフィットネス,0
911,4013303007847,新規,0,2025-09-04,2025-09-04,三叉路フィルム合同会社,,合同会社,東京都,豊島区,目白４丁目２９番９号,,13,116,1710031,,,,,,,2025-09-04,1,,,,,サンサロフィルム,0
912,4013303007855,新規,0,2025-09-04,2025-09-04,Ｋｉｎｏｖａ合同会社,,合同会社,東京都,豊島区,要町３丁目２７番４号,,13,116,1710043,,,,,,,2025-09-04,1,,,,,キノバ,0
916,4020001164672,新規,0,2025-09-04,2025-09-04,チヨダ防災株式会社,,株式会社,神奈川県,横浜市港北区,菊名７丁目８番１７号,,14,109,2220011,,,,,,,2025-09-04,1,,,,,チヨダボウサイ,0
917,4020001164706,新規,0,2025-09-04,2025-09-04,株式会社ｔｅｌｌｉｎｇ,,株式会社,神奈川県,横浜市港北区,大豆戸町６１番地グリーンピア１０３,,14,109,2220032,,,,,,,2025-09-04,1,,,,,テリング,0
919,4020003029254,新規,0,2025-09-04,2025-09-04,合同会社ＶＮ　ＴＲＡＤＩＮＧ,,合同会社,神奈川県,横浜市中区,伊勢佐木町６丁目１３６番地１３－５０１,,14,104,2310045,,,,,,,2025-09-04,1,,,,,ブイエヌティトレーディング,0
920,4020005016960,新規,0,2025-09-04,2025-09-04,一般財団法人豊田奨学財団,,その他の設立登記法人,神奈川県,川崎市麻生区,王禅寺東１丁目４番１３号,,14,137,2150018,,,,,,,2025-09-04,1,,,,,トヨダショウガクザイダン,0
922,4021001086221,新規,0,2025-09-04,2025-09-04,株式会社ＫＳＲ,,株式会社,神奈川県,小田原市,中曽根２３３－２,,14,206,2500866,,,,,,,2025-09-04,1,,,,,ケーエスアール,0
926,4021003016498,新規,0,2025-09-04,2025-09-04,合同会社Ｃａｒａｖａｎ　Ｃｏｎｓｕｌｔｉｎｇ,,合同会社,神奈川県,相模原市中央区,相模原３丁目９番１－３０１号,,14,152,2520231,,,,,,,2025-09-04,1,,,,,キャラバンコンサルティング,0
927,4021003016515,新規,0,2025-09-04,2025-09-04,合同会社ステーション,,合同会社,神奈川県,厚木市,寿町２丁目２番５号１４０７,,14,212,2430003,,,,,,,2025-09-04,1,,,,,ステーション,0
931,4030001168391,新規,0,2025-09-04,2025-09-04,ＴＲＩ株式会社,,株式会社,埼玉県,さいたま市緑区,大字三室４３８番地３,,11,109,3360911,,,,,,,2025-09-04,1,,,,,ティーアールアイ,0
932,4030001168425,新規,0,2025-09-04,2025-09-04,株式会社鈴和設計,,株式会社,埼玉県,さいたま市岩槻区,大字上野９３５番地６,,11,110,3390073,,,,,,,2025-09-04,1,,,,,スズワセッケイ,0
933,4030001168458,新規,0,2025-09-04,2025-09-04,株式会社Ｓａｙａ　Ｐｉｘｅｌ,,株式会社,埼玉県,越谷市,レイクタウン８丁目６番地１ブリリア越谷レイクタウン９０３号,,11,222,3430828,,,,,,,2025-09-04,1,,,,,サヤピクセル,0
942,4040003028436,新規,0,2025-09-04,2025-09-04,合同会社ＷＨＡ　Ｔｒａｄｉｎｇ,,合同会社,千葉県,八千代市,勝田３３３,,12,221,2760024,,,,,,,2025-09-04,1,,,,,ダブリューエイチエートレーディング,0
944,4050001057205,新規,0,2025-09-04,2025-09-04,デリクシアフーズ株式会社,,株式会社,茨城県,日立市,日高町４丁目６番２１号,,08,202,3191414,,,,,,,2025-09-04,1,,,,,デリクシアフーズ,0
945,4050001057221,新規,0,2025-09-04,2025-09-04,株式会社弁天十色,,株式会社,茨城県,つくば市,西大沼１２８番地４,,08,220,3050054,,,,,,,2025-09-04,1,,,,,ベンテントイロ,0
951,4080001027122,新規,0,2025-09-04,2025-09-04,株式会社ｉトータルサポート,,株式会社,静岡県,藤枝市,岡出山１丁目１７番１４号,,22,214,4260026,,,,,,,2025-09-04,1,,,,,アイトータルサポート,0
953,4080101025752,新規,0,2025-09-04,2025-09-04,ＪＥＳ　Ｅｎｔｅｒｐｒｉｓｅｓ株式会社,,株式会社,静岡県,富士宮市,杉田５０９番地の１７,,22,207,4180021,,,,,,,2025-09-04,1,,,,,ジェスエンタープライズ,0
957,4110003005873,新規,0,2025-09-04,2025-09-04,ＴｅｒｒａＫａｉ合同会社,,合同会社,新潟県,妙高市,大字杉野沢２４１１番地１,,15,217,9492113,,,,,,,2025-09-04,1,,,,,テラカイ,0
963,4120001279295,新規,0,2025-09-04,2025-09-04,昇瑞株式会社,,株式会社,大阪府,大阪市西成区,山王２丁目２番２０号永益山王ハイツ２－１０１号,,27,122,5570001,,,,,,,2025-09-04,1,,,,,ショウズイ,0
964,4120001279304,新規,0,2025-09-04,2025-09-04,株式会社ミロク,,株式会社,大阪府,大阪市城東区,野江３丁目２４番１９号,,27,118,5360006,,,,,,,2025-09-04,1,,,,,ミロク,0
965,4120001279320,新規,0,2025-09-04,2025-09-04,ＹＵＭＥＫＡ株式会社,,株式会社,大阪府,大阪市天王寺区,味原町１番１７号プラスパーハイツ６０２号室,,27,109,5430023,,,,,,,2025-09-04,1,,,,,ユメカ,0
969,4120003030474,新規,0,2025-09-04,2025-09-04,合同会社パーセント,,合同会社,大阪府,大阪市住之江区,南港中５丁目３番４２－１１０８号,,27,125,5590033,,,,,,,2025-09-04,1,,,,,パーセント,0
976,4120101072360,新規,0,2025-09-04,2025-09-04,株式会社上田産業,,株式会社,大阪府,和泉市,王子町１１１６番地の５,,27,219,5940004,,,,,,,2025-09-04,1,,,,,ウエダサンギョウ,0
977,4120101072385,新規,0,2025-09-04,2025-09-04,株式会社Ｐａｌｅｔｔｅ,,株式会社,大阪府,泉佐野市,大西１丁目１３番１６－２階,,27,213,5980043,,,,,,,2025-09-04,1,,,,,パレット,0
979,4120901051407,新規,0,2025-09-04,2025-09-04,株式会社Ｙ’ｓペイント,,株式会社,大阪府,高槻市,栄町２丁目１７番２号,,27,207,5690825,,,,,,,2025-09-04,1,,,,,ワイズペイント,0
982,4130001080413,新規,0,2025-09-04,2025-09-04,株式会社自然社,,株式会社,京都府,京都市北区,西賀茂大栗町７２片山館３０１号,,26,101,6038828,,,,,,,2025-09-04,1,,,,,シゼンシャ,0
983,4130001080454,新規,0,2025-09-04,2025-09-04,京侘株式会社,,株式会社,京都府,京都市中京区,堀川通六角下る岩上町７４１リライブ堀川２０１Ｂ,,26,104,6048341,,,,,,,2025-09-04,1,,,,,キョウワビ,0
984,4130003010731,新規,0,2025-09-04,2025-09-04,エレバンド合同会社,,合同会社,京都府,京都市北区,紫竹桃ノ本町４５番地１１,,26,101,6038201,,,,,,,2025-09-04,1,,,,,エレバンド,0
986,4130005017444,新規,0,2025-09-04,2025-09-04,特定非営利活動法人ａｔｒｉａ,,その他の設立登記法人,京都府,京都市左京区,田中北春菜町２４番地,,26,103,6068233,,,,,,,2025-09-04,1,,,,,アトリア,0
991,4140001139836,新規,0,2025-09-04,2025-09-04,株式会社ＳＴＡＮＤＡＲＤ,,株式会社,兵庫県,豊岡市,日高町鶴岡３５８番地の４,,28,209,6695313,,,,,,,2025-09-04,1,,,,,スタンダード,0
992,4140001139869,新規,0,2025-09-04,2025-09-04,株式会社熊野不動産鑑定,,株式会社,兵庫県,神戸市兵庫区,上沢通１丁目３番２号湊川公園パークハウス,,28,105,6520046,,,,,,,2025-09-04,1,,,,,クマノフドウサンカンテイ,0
993,4140001139877,新規,0,2025-09-04,2025-09-04,株式会社西部マシナリー,,株式会社,兵庫県,姫路市,飾磨区細江２３２番地１２,,28,201,6728064,,,,,,,2025-09-04,1,,,,,セイブマシナリー,0
994,4140003022544,新規,0,2025-09-04,2025-09-04,合同会社Ｄａｉｓｙ,,合同会社,兵庫県,姫路市,南条２丁目４６,,28,201,6700952,,,,,,,2025-09-04,1,,,,,デイジー,0
995,4150001028377,新規,0,2025-09-04,2025-09-04,株式会社レリフェ,,株式会社,奈良県,奈良市,高天市町１５番地の１ライフ２１ビル,,29,201,6308238,,,,,,,2025-09-04,1,,,,,レリフェ,0
997,4160003003591,新規,0,2025-09-04,2025-09-04,合同会社美洗堂,,合同会社,滋賀県,大津市,際川２丁目５－２０－３１０,,25,201,5200002,,,,,,,2025-09-04,1,,,,,ビセンドウ,0
1011,4180001168344,新規,0,2025-09-04,2025-09-04,三利株式会社,,株式会社,愛知県,名古屋市港区,宝神１丁目６５番地の２東明ビル３階,,23,111,4550832,,,,,,,2025-09-04,1,,,,,サンリ,0
1012,4180001168468,新規,0,2025-09-04,2025-09-04,株式会社ｎｉｄｏｎｅｓ,,株式会社,愛知県,名古屋市名東区,西里町１丁目１６－２,,23,115,4650084,,,,,,,2025-09-04,1,,,,,ニドネス,0
1015,4180003028967,新規,0,2025-09-04,2025-09-04,ＲＡＪＡ　ＴＲＡＤＩＮＧ合同会社,,合同会社,愛知県,名古屋市港区,大手町５丁目３４番地の２,,23,111,4550046,,,,,,,2025-09-04,1,,,,,ラジャートレーディング,0
1016,4180003028975,新規,0,2025-09-04,2025-09-04,合同会社心快伸ホールディングス,,合同会社,愛知県,名古屋市緑区,亀が洞３丁目８０４番地,,23,114,4580804,,,,,,,2025-09-04,1,,,,,ココカイシンホールディングス,0
1017,4180301040178,新規,0,2025-09-04,2025-09-04,株式会社西三河不動産,,株式会社,愛知県,碧南市,緑町３丁目９３番地,,23,209,4470041,,,,,,,2025-09-04,1,,,,,ニシミカワフドウサン,0
1030,4210001020303,新規,0,2025-09-04,2025-09-04,株式会社今城,,株式会社,福井県,福井市,四ツ井１丁目２１番１号,,18,201,9100846,,,,,,,2025-09-04,1,,,,,イマギ,0
1033,4230001021068,新規,0,2025-09-04,2025-09-04,Ｊ．Ｓ　ｃａｒ　ｄｅａｌ　Ｊａｐａｎ株式会社,,株式会社,富山県,射水市,高場新町４丁目５２番地,,16,211,9340034,,,,,,,2025-09-04,1,,,,,ジェーエスカーディールジャパン,0
1038,4240005015981,新規,0,2025-09-04,2025-09-04,一般社団法人Ｂｏｎｅｃｔ,,その他の設立登記法人,広島県,広島市佐伯区,五日市中央７丁目１４番１３－１０１号,,34,108,7315128,,,,,,,2025-09-04,1,,,,,ボネクト,0
1051,4300005007262,新規,0,2025-09-04,2025-09-04,特定非営利活動法人ふるさとみやき,,その他の設立登記法人,佐賀県,三養基郡みやき町,大字江口１２４６番地２,,41,346,8490112,,,,,,,2025-09-04,1,,,,,フルサトミヤキ,0
1052,4310003005077,新規,0,2025-09-04,2025-09-04,合同会社Ｊファースト,,合同会社,長崎県,長崎市,興善町８番１号２０１,,42,201,8500032,,,,,,,2025-09-04,1,,,,,ジェイファースト,0
1064,4350003005016,新規,0,2025-09-04,2025-09-04,合同会社りおん,,合同会社,宮崎県,宮崎市,堀川町１４番５,,45,201,8800873,,,,,,,2025-09-04,1,,,,,リオン,0
1065,4350005006326,新規,0,2025-09-04,2025-09-04,医療法人福々会,,その他の設立登記法人,宮崎県,宮崎市,吉村町大田ケ島甲４０６番地２,,45,201,8800841,,,,,,,2025-09-04,1,,,,,フクフクカイ,0
1067,4360003015220,新規,0,2025-09-04,2025-09-04,合同会社キミニトドケ,,合同会社,沖縄県,豊見城市,字与根８９－５,,47,212,9010224,,,,,,,2025-09-04,1,,,,,キミニトドケ,0
1068,4370001053007,新規,0,2025-09-04,2025-09-04,株式会社熊谷工業,,株式会社,宮城県,石巻市,松並１丁目１５番地１,,04,202,9860028,,,,,,,2025-09-04,1,,,,,クマガイコウギョウ,0
1070,4390003002439,新規,0,2025-09-04,2025-09-04,合同会社花香,,合同会社,山形県,酒田市,駅東１丁目１６番地の１８,,06,204,9980022,,,,,,,2025-09-04,1,,,,,カキョウ,0
1074,4400001017164,新規,0,2025-09-04,2025-09-04,株式会社プレジャースタジオ,,株式会社,岩手県,北上市,北鬼柳２８地割１番地,,03,206,0240072,,,,,,,2025-09-04,1,,,,,プレジャースタジオ,0
1079,4430001095141,新規,0,2025-09-04,2025-09-04,株式会社リンネファーム,,株式会社,北海道,恵庭市,戸磯１２０番地１,,01,231,0611405,,,,,,,2025-09-04,1,,,,,リンネファーム,0
1080,4430001095166,新規,0,2025-09-04,2025-09-04,株式会社ＤＯＮＫＥＹ　ＴＲＡＶＥＬ,,株式会社,北海道,札幌市北区,北九条西４丁目７－４エルムビル５Ｄ－Ｄ室,,01,102,0600809,,,,,,,2025-09-04,1,,,,,ドンキートラベル,0
1087,4500001026493,新規,0,2025-09-04,2025-09-04,株式会社ＮｉｃｏｎＢａｓｅ,,株式会社,愛媛県,松山市,小坂５丁目１０番２４号永田小坂ビル９０１号,,38,201,7900963,,,,,,,2025-09-04,1,,,,,ニコンベース,0
1089,5000020199460,新規,0,2025-09-04,2025-09-04,早川町・身延町・南部町医療事務組合,,地方公共団体,山梨県,南巨摩郡身延町,切石１１７番地１,,19,365,4093304,,,,,,,2025-09-04,1,,,,,ハヤカワチョウミノブチョウナンブチョウイリョウジムクミアイ,0
1097,5010001258185,新規,0,2025-09-04,2025-09-04,株式会社富士酒販,,株式会社,東京都,千代田区,丸の内１丁目４番１号,,13,101,1000005,,,,,,,2025-09-04,1,,,,,フジシュハン,0
1098,5010001258202,新規,0,2025-09-04,2025-09-04,Ｈ＆Ｋ株式会社,,株式会社,東京都,中央区,勝どき５丁目３番１－４９０７号,,13,102,1040054,,,,,,,2025-09-04,1,,,,,エイチアンドケイ,0
1099,5010001258243,新規,0,2025-09-04,2025-09-04,株式会社サイドレア,,株式会社,東京都,千代田区,神田錦町３丁目１３番地７名古路ビル本館１階,,13,101,1010054,,,,,,,2025-09-04,1,,,,,サイドレア,0
1101,5010003048493,新規,0,2025-09-04,2025-09-04,合同会社ＴＦＪ１２,,合同会社,東京都,中央区,新川１丁目１７番１８号,,13,102,1040033,,,,,,,2025-09-04,1,,,,,ティーエフジェイトゥエルブ,0
1102,5010005040630,新規,0,2025-09-04,2025-09-04,一般社団法人ＯＴＳ,,その他の設立登記法人,東京都,千代田区,丸の内１丁目６番１号,,13,101,1000005,,,,,,,2025-09-04,1,,,,,オーティーエス,0
1116,5010501054662,新規,0,2025-09-04,2025-09-04,株式会社アールアイホーム,,株式会社,東京都,台東区,清川２丁目３６番１２－５０１号,,13,106,1110022,,,,,,,2025-09-04,1,,,,,アールアイホーム,0
1117,5010503007949,新規,0,2025-09-04,2025-09-04,Ｘａｖｉｅｒ　Ｍａｒｋｓ　Ｔｏｋｙｏ　Ｃｅｎｔｒａｌ合同会社,,合同会社,東京都,台東区,千束４丁目３９－５,,13,106,1110031,,,,,,,2025-09-04,1,,,,,サヴィエルマークスセントラルトーキョー,0
1118,5010603011768,新規,0,2025-09-04,2025-09-04,ＧＯＵＲＭＥＴ　ＳＥＬＥＣＴＩＯＮ合同会社,,合同会社,東京都,墨田区,横川５丁目１０番１－１３０２号,,13,107,1300003,,,,,,,2025-09-04,1,,,,,グルメセレクション,0
1122,5010801036567,新規,0,2025-09-04,2025-09-04,株式会社Ｄｏｕｐ　Ｒｏｂｏｔｉｃｓ,,株式会社,東京都,大田区,南六郷３丁目１０番１６号六郷ＢＡＳＥ,,13,111,1440045,,,,,,,2025-09-04,1,,,,,ドープロボティクス,0
1128,5011001172343,新規,0,2025-09-04,2025-09-04,株式会社メルドワークス,,株式会社,東京都,渋谷区,円山町５番５号Ｎａｖｉ渋谷Ｖ３階,,13,113,1500044,,,,,,,2025-09-04,1,,,,,メルドワークス,0
1131,5011003022455,新規,0,2025-09-04,2025-09-04,合同会社ＣＮ太陽光Ｍ３号,,合同会社,東京都,渋谷区,千駄ヶ谷３丁目１１番８号,,13,113,1510051,,,,,,,2025-09-04,1,,,,,シーエヌタイヨウコウエムサンゴウ,0
1137,5011101112851,新規,0,2025-09-04,2025-09-04,株式会社ｓａｉｋｕ,,株式会社,東京都,新宿区,舟町１０－１７ビレッジ四谷３ビル２０２,,13,104,1600006,,,,,,,2025-09-04,1,,,,,サイク,0
1138,5011101113107,新規,0,2025-09-04,2025-09-04,ｚｅｎｉｔｈ株式会社,,株式会社,東京都,新宿区,神楽坂３丁目５神楽坂Ｋビル４Ｆ,,13,104,1620825,,,,,,,2025-09-04,1,,,,,ゼニス,0
1139,5011101113115,新規,0,2025-09-04,2025-09-04,株式会社自然人,,株式会社,東京都,新宿区,西新宿１丁目２５番１号,,13,104,1600023,,,,,,,2025-09-04,1,,,,,シゼンジン,0
1141,5011103016308,新規,0,2025-09-04,2025-09-04,Ｇｕｒｕｇｕｒｕ　Ｂｒａｉｎ合同会社,,合同会社,東京都,新宿区,高田馬場１丁目１２番１９号,,13,104,1690075,,,,,,,2025-09-04,1,,,,,グルグルブレイン,0
1149,5011501032518,新規,0,2025-09-04,2025-09-04,寿島株式会社,,株式会社,東京都,荒川区,町屋３丁目２番１号Ｂ１Ｆ,,13,118,1160001,,,,,,,2025-09-04,1,,,,,ジュトウ,0
1151,5011503006668,新規,0,2025-09-04,2025-09-04,Ｔ．Ｔ．Ｍ　Ａｓｉａ　Ｆｏｏｄｓ合同会社,,合同会社,東京都,荒川区,西日暮里２丁目５７番２号Ｋ＆Ｔビル１Ｆ,,13,118,1160013,,,,,,,2025-09-04,1,,,,,ティーティーエムアジアフーズ,0
1154,5011603004828,新規,0,2025-09-04,2025-09-04,鳴嶼合同会社,,合同会社,東京都,練馬区,春日町６丁目１６番１１号フォーチュン光が丘２１２号,,13,120,1790074,,,,,,,2025-09-04,1,,,,,メイショ,0
1155,5011703004364,新規,0,2025-09-04,2025-09-04,空間動力合同会社,,合同会社,東京都,江戸川区,西小岩５丁目１３番１３号小出マンション１６８,,13,123,1330057,,,,,,,2025-09-04,1,,,,,クウカンドウリョク,0
1157,5011801046688,新規,0,2025-09-04,2025-09-04,株式会社晴匠,,株式会社,東京都,足立区,弘道１丁目３８番６号,,13,121,1200013,,,,,,,2025-09-04,1,,,,,セイショウ,0
1158,5011803007052,新規,0,2025-09-04,2025-09-04,しあわせパンダ合同会社,,合同会社,東京都,葛飾区,金町６丁目１－１３号,,13,122,1250042,,,,,,,2025-09-04,1,,,,,シアワセパンダ,0
1162,5013301054873,新規,0,2025-09-04,2025-09-04,株式会社ワタナベルーフ,,株式会社,東京都,豊島区,千早２丁目１２番９号,,13,116,1710044,,,,,,,2025-09-04,1,,,,,ワタナベルーフ,0
1163,5013303007846,新規,0,2025-09-04,2025-09-04,縁輪合同会社,,合同会社,東京都,豊島区,東池袋２丁目６２番８号ＢＩＧオフィスプラザ池袋１２０６号,,13,116,1700013,,,,,,,2025-09-04,1,,,,,エニリン,0
1164,5013303007854,新規,0,2025-09-04,2025-09-04,南洋張陳記合同会社,,合同会社,東京都,豊島区,南大塚３丁目３７－５大塚台パークサイドハイツ４０３,,13,116,1700005,,,,,,,2025-09-04,1,,,,,ナンヨウチョウチンキ,0
1179,5020001164671,新規,0,2025-09-04,2025-09-04,株式会社智湊,,株式会社,神奈川県,川崎市高津区,新作５丁目１１番１－１１８号,,14,134,2130014,,,,,,,2025-09-04,1,,,,,チソウ,0
1180,5020003029303,新規,0,2025-09-04,2025-09-04,合同会社アフィト,,合同会社,神奈川県,川崎市宮前区,神木２丁目１４番地１８,,14,136,2160032,,,,,,,2025-09-04,1,,,,,アフィト,0
1182,5020005016968,新規,0,2025-09-04,2025-09-04,一般社団法人鈴木家保存会,,その他の設立登記法人,神奈川県,横浜市旭区,今宿西町４７８番地,,14,112,2410031,,,,,,,2025-09-04,1,,,,,スズキケホゾンカイ,0
1185,5021001086187,新規,0,2025-09-04,2025-09-04,ＥｎｔｏＳ株式会社,,株式会社,神奈川県,相模原市南区,磯部１８３０番地１８,,14,153,2520327,,,,,,,2025-09-04,1,,,,,エントス,0
1186,5021001086286,新規,0,2025-09-04,2025-09-04,株式会社Ｂｅｌｌ,,株式会社,神奈川県,藤沢市,鵠沼藤が谷２丁目１１番２２号,,14,205,2510031,,,,,,,2025-09-04,1,,,,,ベル,0
1188,5021005013427,新規,0,2025-09-04,2025-09-04,ＮＰＯ法人おいしい給食かまくら,,その他の設立登記法人,神奈川県,鎌倉市,由比ガ浜３丁目６番１９号,,14,204,2480014,,,,,,,2025-09-04,1,,,,,オイシイキュウショクカマクラ,0
1190,5030001168424,新規,0,2025-09-04,2025-09-04,株式会社Ｂｕｔｔｅｒｆｌｙ　Ｒｉｄｇｅ,,株式会社,埼玉県,戸田市,上戸田１丁目２１番２３号戸田市商工会館２０５号室,,11,224,3350022,,,,,,,2025-09-04,1,,,,,バタフライリッジ,0
1191,5030001168432,新規,0,2025-09-04,2025-09-04,株式会社オールリンク,,株式会社,埼玉県,さいたま市中央区,上落合８丁目３番３２号,,11,105,3380001,,,,,,,2025-09-04,1,,,,,オールリンク,0
1194,5030003027520,新規,0,2025-09-04,2025-09-04,合同会社ナガサキ,,合同会社,埼玉県,東松山市,大字東平２２２１番地１,,11,212,3550002,,,,,,,2025-09-04,1,,,,,ナガサキ,0
1200,5040003028427,新規,0,2025-09-04,2025-09-04,ポカラ合同会社,,合同会社,千葉県,佐倉市,王子台１丁目３番地８パレドール臼井１０２,,12,212,2850837,,,,,,,2025-09-04,1,,,,,ポカラ,0
1202,5050001057204,新規,0,2025-09-04,2025-09-04,鈴木商事株式会社,,株式会社,茨城県,常総市,大生郷町２６８０,,08,211,3002521,,,,,,,2025-09-04,1,,,,,スズキショウジ,0
1204,5050003009533,新規,0,2025-09-04,2025-09-04,江盛合同会社,,合同会社,茨城県,稲敷郡阿見町,大字阿見４６６６番地３４０１,,08,443,3000331,,,,,,,2025-09-04,1,,,,,コウセイ,0
1205,5050003009541,新規,0,2025-09-04,2025-09-04,合同会社コメット,,合同会社,茨城県,古河市,仁連１４７３番地,,08,204,3060125,,,,,,,2025-09-04,1,,,,,コメット,0
1207,5060001038541,新規,0,2025-09-04,2025-09-04,株式会社ケアサポートよつば,,株式会社,栃木県,足利市,今福町６９番地７,,09,202,3260842,,,,,,,2025-09-04,1,,,,,ケアサポートヨツバ,0
1210,5070001043301,新規,0,2025-09-04,2025-09-04,ＴＯＹＯキャピタルパートナーズ株式会社,,株式会社,群馬県,北群馬郡吉岡町,大字大久保５８２,,10,345,3703602,,,,,,,2025-09-04,1,,,,,,0
1213,5080101025768,新規,0,2025-09-04,2025-09-04,株式会社イカイホールディングス,,株式会社,静岡県,沼津市,松長７８７番地,,22,203,4100874,,,,,,,2025-09-04,1,,,,,イカイホールディングス,0
1216,5080103003417,新規,0,2025-09-04,2025-09-04,合同会社多賀文庫,,合同会社,静岡県,熱海市,下多賀９０１―１,,22,205,4130102,,,,,,,2025-09-04,1,,,,,タガブンコ,0
1217,5100001038917,新規,0,2025-09-04,2025-09-04,リハプライム長野株式会社,,株式会社,長野県,松本市,平田東１丁目２１番７－３号,,20,202,3990014,,,,,,,2025-09-04,1,,,,,リハプライムナガノ,0
1243,5120901051430,新規,0,2025-09-04,2025-09-04,ＢＥＴＴＥＲＭＡＮ株式会社,,株式会社,大阪府,池田市,菅原町２番４号３階３０４号室,,27,204,5630055,,,,,,,2025-09-04,1,,,,,ベターマン,0
1252,5130003010730,新規,0,2025-09-04,2025-09-04,合同会社ＣＦＬｉＦＥ,,合同会社,京都府,京都市下京区,小稲荷町８５－２Ｇｒａｎｄ－Ｋ京都駅前ビル２０１,,26,106,6008208,,,,,,,2025-09-04,1,,,,,シーエフライフ,0
1259,5140001139876,新規,0,2025-09-04,2025-09-04,ＭＡＲＩＮＯ株式会社,,株式会社,兵庫県,姫路市,花田町高木１６７番地,,28,201,6710256,,,,,,,2025-09-04,1,,,,,マリノ,0
1260,5140001139884,新規,0,2025-09-04,2025-09-04,株式会社アドパイア,,株式会社,兵庫県,神崎郡市川町,田中１１７番地の４,,28,442,6792332,,,,,,,2025-09-04,1,,,,,アドパイア,0
1264,5140003022519,新規,0,2025-09-04,2025-09-04,合同会社ＨＫＴ,,合同会社,兵庫県,尼崎市,大島１丁目２１番２号,,28,202,6600076,,,,,,,2025-09-04,1,,,,,エイチケーティ,0
1265,5140003022535,新規,0,2025-09-04,2025-09-04,合同会社創智,,合同会社,兵庫県,赤穂市,北野中９８番地,,28,212,6780175,,,,,,,2025-09-04,1,,,,,ソウチ,0
1268,5160001027039,新規,0,2025-09-04,2025-09-04,株式会社梅本建設工業,,株式会社,滋賀県,大津市,和邇高城２９０－８,,25,201,5200528,,,,,,,2025-09-04,1,,,,,ウメモトケンセツコウギョウ,0
1269,5160003003590,新規,0,2025-09-04,2025-09-04,合同会社ＦＥＳＴＩＮＡ　ＬＥＮＴＥ,,合同会社,滋賀県,草津市,渋川１丁目２番２６－１００２号,,25,206,5250026,,,,,,,2025-09-04,1,,,,,フェスティーナーレンテー,0
1270,5170003002286,新規,0,2025-09-04,2025-09-04,合同会社Ｈｉｇｈ‐Ｆｉｖｅ,,合同会社,和歌山県,新宮市,下田２丁目４番５号,,30,207,6470042,,,,,,,2025-09-04,1,,,,,ハイファイブ,0
1271,5170005007168,新規,0,2025-09-04,2025-09-04,一般社団法人和歌山県バレーボール協会,,その他の設立登記法人,和歌山県,和歌山市,岩橋１０４３番地８,,30,201,6408301,,,,,,,2025-09-04,1,,,,,ワカヤマケンバレーボールキョウカイ,0
1287,5180001168450,新規,0,2025-09-04,2025-09-04,ＹＳホールディングス株式会社,,株式会社,愛知県,一宮市,公園通５丁目１７番地,,23,203,4910842,,,,,,,2025-09-04,1,,,,,ワイエスホールディングス,0
1288,5180001168483,新規,0,2025-09-04,2025-09-04,株式会社テンポネクスト,,株式会社,愛知県,名古屋市緑区,曽根２丁目１６２番地サイエンスビル３階,,23,114,4580035,,,,,,,2025-09-04,1,,,,,テンポネクスト,0
1289,5180001168509,新規,0,2025-09-04,2025-09-04,株式会社ワンテックス,,株式会社,愛知県,名古屋市西区,長先町２９番地,,23,104,4520838,,,,,,,2025-09-04,1,,,,,ワンテックス,0
1296,5180301040160,新規,0,2025-09-04,2025-09-04,株式会社エス・トラスト,,株式会社,愛知県,豊川市,中央通３丁目１３番地２,,23,207,4420051,,,,,,,2025-09-04,1,,,,,エストラスト,0
1297,5180303006713,新規,0,2025-09-04,2025-09-04,合同会社ジムナスト,,合同会社,愛知県,豊田市,井上町２丁目６番地,,23,211,4700372,,,,,,,2025-09-04,1,,,,,ジムナスト,0
1303,5200001044194,新規,0,2025-09-04,2025-09-04,株式会社ＬＩＲＩＳＥ,,株式会社,岐阜県,多治見市,小泉町５丁目１３６番地の１,,21,204,5070073,,,,,,,2025-09-04,1,,,,,リライズ,0
1304,5200003007001,新規,0,2025-09-04,2025-09-04,ＡＮ　ＮＡＭ合同会社,,合同会社,岐阜県,瑞穂市,馬場上光町３丁目７１番地,,21,216,5010203,,,,,,,2025-09-04,1,,,,,アンナム,0
1308,5230001021059,新規,0,2025-09-04,2025-09-04,ライフサポートプラス株式会社,,株式会社,富山県,小矢部市,芹川４０番地１,,16,209,9320033,,,,,,,2025-09-04,1,,,,,ライフサポートプラス,0
1311,5240001065468,新規,0,2025-09-04,2025-09-04,株式会社ｅｎｎ,,株式会社,広島県,広島市安佐南区,上安１丁目１３番８－２０２号,,34,105,7310154,,,,,,,2025-09-04,1,,,,,エン,0
1312,5240003007385,新規,0,2025-09-04,2025-09-04,合同会社ウィルフロー,,合同会社,広島県,広島市南区,翠５丁目１５番２－３０３号,,34,103,7340005,,,,,,,2025-09-04,1,,,,,ウィルフロー,0
1315,5270001009281,新規,0,2025-09-04,2025-09-04,倉吉水源管理・販売株式会社,,株式会社,鳥取県,倉吉市,蔵内３２０番地１,,31,203,6820932,,,,,,,2025-09-04,1,,,,,クラヨシスイゲンカンリハンバイ,0
1316,5280001009504,新規,0,2025-09-04,2025-09-04,株式会社ＬＩＢＥＲＯ,,株式会社,島根県,安来市,赤江町２３４,,32,206,6920001,,,,,,,2025-09-04,1,,,,,,0
1320,5290001111416,新規,0,2025-09-04,2025-09-04,マイティプランニング株式会社,,株式会社,福岡県,福岡市東区,松田１丁目５番７号,,40,131,8120064,,,,,,,2025-09-04,1,,,,,マイティプランニング,0
1323,5290801031838,新規,0,2025-09-04,2025-09-04,株式会社カトウ,,株式会社,福岡県,鞍手郡小竹町,大字勝野字鼠戸３７７０番１２,,40,401,8201103,,,,,,,2025-09-04,1,,,,,カトウ,0
1326,5320001021314,新規,0,2025-09-04,2025-09-04,株式会社ＴＯＫＩＴＯ,,株式会社,大分県,大分市,大字猪野８４６番地の１５,,44,201,8700134,,,,,,,2025-09-04,1,,,,,トキト,0
1328,5320003004754,新規,0,2025-09-04,2025-09-04,合同会社ＬＵＣＡ,,合同会社,大分県,中津市,沖代町２丁目８番６８号,,44,203,8710021,,,,,,,2025-09-04,1,,,,,ルカ,0
1335,5360001035731,新規,0,2025-09-04,2025-09-04,株式会社住建,,株式会社,沖縄県,名護市,宮里５丁目８１７番地１,,47,209,9050011,,,,,,,2025-09-04,1,,,,,ジュウケン,0
1336,5370001052998,新規,0,2025-09-04,2025-09-04,株式会社伴野建築,,株式会社,宮城県,角田市,横倉字左関１８４番地２８,,04,208,9811512,,,,,,,2025-09-04,1,,,,,バンノケンチク,0
1351,5430001095140,新規,0,2025-09-04,2025-09-04,株式会社健美鏡,,株式会社,北海道,札幌市東区,北九条東３丁目１－５－５０７,,01,103,0600909,,,,,,,2025-09-04,1,,,,,ケンビキョウ,0
1352,5430001095215,新規,0,2025-09-04,2025-09-04,株式会社きずな薬局,,株式会社,北海道,石狩郡当別町,幸町５１番地３０,,01,303,0610217,,,,,,,2025-09-04,1,,,,,キズナヤッキョク,0
1355,5460101007752,新規,0,2025-09-04,2025-09-04,株式会社Ｋｅｎ‐ＥＴファームサポート,,株式会社,北海道,河西郡芽室町,東めむろ二条北２丁目４番地５,,01,637,0820802,,,,,,,2025-09-04,1,,,,,ケンイーティーファームサポート,0
1358,5480003002313,新規,0,2025-09-04,2025-09-04,合同会社ユニバース,,合同会社,徳島県,美馬市,穴吹町三島字三谷１２０２番地３,,36,207,7770003,,,,,,,2025-09-04,1,,,,,ユニバース,0
1377,6010001258135,新規,0,2025-09-04,2025-09-04,株式会社モノマトペ,,株式会社,東京都,千代田区,神田東松下町１０番５翔和神田ビルＩＩ９階,00140525,13,101,1010042,,,,,,,2025-09-04,1,,,,,モノマトペ,0
1378,6010001258168,新規,0,2025-09-04,2025-09-04,株式会社ＫＳ不動産パートナーズ,,株式会社,東京都,中央区,京橋２丁目１４番１号,,13,102,1040031,,,,,,,2025-09-04,1,,,,,ケイエスフドウサンパートナーズ,0
1379,6010001258184,新規,0,2025-09-04,2025-09-04,金瑞株式会社,,株式会社,東京都,中央区,湊３丁目１３－１０－２Ｆ,,13,102,1040043,,,,,,,2025-09-04,1,,,,,キンズイ,0
1380,6010001258192,新規,0,2025-09-04,2025-09-04,豐収株式会社,,株式会社,東京都,千代田区,神田平河町１番地第３東ビル６ＦイーオフィスＡＫＩＢＡ３番館２７号室,,13,101,1010027,,,,,,,2025-09-04,1,,,,,ホウシュウ,0
1381,6010001258201,新規,0,2025-09-04,2025-09-04,Ｂｌｕｅ　Ｔｉｍｅ株式会社,,株式会社,東京都,千代田区,神田紺屋町２８番地ＡＰＥＸ神田ビル５階５０１,,13,101,1010035,,,,,,,2025-09-04,1,,,,,ブルータイム,0
1382,6010001258242,新規,0,2025-09-04,2025-09-04,ヤスイエ株式会社,,株式会社,東京都,千代田区,神田須田町１丁目７番８号ＶＯＲＴ秋葉原ＩＶ２Ｆ,00140526,13,101,1010041,,,,,,,2025-09-04,1,,,,,ヤスイエ,0
1383,6010001258259,新規,0,2025-09-04,2025-09-04,株式会社オモプロ,,株式会社,東京都,文京区,湯島２丁目２０－６エスペランサ２・４Ｆ,,13,105,1130034,,,,,,,2025-09-04,1,,,,,オモプロ,0
1388,6010005040621,新規,0,2025-09-04,2025-09-04,一般社団法人ユナイテッドヘルスケアジャパン,,その他の設立登記法人,東京都,文京区,小石川５丁目３４－１０ＣＯＣＯビル,,13,105,1120002,,,,,,,2025-09-04,1,,,,,ユナイテッドヘルスケアジャパン,0
1397,6010401192801,新規,0,2025-09-04,2025-09-04,株式会社ｈｅａｌｔｈ＆ｃａｓｈｆｌｏｗ,,株式会社,東京都,港区,六本木３丁目１番３０号ＡＢビル６階,,13,103,1060032,,,,,,,2025-09-04,1,,,,,ヘルスアンドキャッシュフロー,0
1398,6010403035941,新規,0,2025-09-04,2025-09-04,レオアセット合同会社,,合同会社,東京都,港区,白金台３丁目１２番１号,,13,103,1080071,,,,,,,2025-09-04,1,,,,,レオアセット,0
1399,6010403035958,新規,0,2025-09-04,2025-09-04,合同会社ＭＵＪＩ　ＥＮＥＲＧＹ,,合同会社,東京都,港区,西新橋１丁目１８－１７,,13,103,1050003,,,,,,,2025-09-04,1,,,,,ムジエナジー,0
1405,6010701048249,新規,0,2025-09-04,2025-09-04,株式会社ＡＩｓｈｏｗ,,株式会社,東京都,品川区,大崎１丁目１１番２号,,13,109,1410032,,,,,,,2025-09-04,1,,,,,アイショウ,0
1406,6010703007888,新規,0,2025-09-04,2025-09-04,合同会社遊心,,合同会社,東京都,品川区,東五反田１丁目２０－１麗佳ビル５階,,13,109,1410022,,,,,,,2025-09-04,1,,,,,アソビゴコロ,0
1421,6011003022495,新規,0,2025-09-04,2025-09-04,合同会社真夜中,,合同会社,東京都,渋谷区,道玄坂１丁目１０番８号渋谷道玄坂東急ビル２Ｆ－Ｃ,,13,113,1500043,,,,,,,2025-09-04,1,,,,,マヨナカ,0
1424,6011101113097,新規,0,2025-09-04,2025-09-04,恩敬株式会社,,株式会社,東京都,新宿区,富久町３２－３東新富久町ビル３０１号室,,13,104,1620067,,,,,,,2025-09-04,1,,,,,オンキョウ,0
1426,6011103016307,新規,0,2025-09-04,2025-09-04,ＴＩＴＡＮ０１合同会社,,合同会社,東京都,新宿区,西新宿２丁目１番１号新宿三井ビル４３階,,13,104,1600023,,,,,,,2025-09-04,1,,,,,タイタンゼロイチ,0
1428,6011301030852,新規,0,2025-09-04,2025-09-04,株式会社Ｓｅｄｕｃｅ,,株式会社,東京都,杉並区,高円寺南４丁目１３番８号,,13,115,1660003,,,,,,,2025-09-04,1,,,,,セデュース,0
1430,6011401027360,新規,0,2025-09-04,2025-09-04,株式会社ＮＳＨＤ,,株式会社,東京都,板橋区,熊野町４０番６号,,13,119,1730025,,,,,,,2025-09-04,1,,,,,エヌエスホールディング,0
1440,6013301054889,新規,0,2025-09-04,2025-09-04,建築市場株式会社,,株式会社,東京都,豊島区,西池袋３丁目１番１５号,,13,116,1710021,,,,,,,2025-09-04,1,,,,,ケンチクイチバ,0
1443,6020001164456,新規,0,2025-09-04,2025-09-04,Ｍ＆Ｃ株式会社,,株式会社,神奈川県,横浜市鶴見区,元宮１丁目６番４号,,14,101,2300004,,,,,,,2025-09-04,1,,,,,エムアンドシー,0
1444,6020001164514,新規,0,2025-09-04,2025-09-04,株式会社Ｓ＆Ｙカンパニー,,株式会社,神奈川県,川崎市宮前区,菅生２丁目１３番５１－５０１号,,14,136,2160015,,,,,,,2025-09-04,1,,,,,エスアンドワイカンパニー,0
1445,6020001164670,新規,0,2025-09-04,2025-09-04,株式会社ワイ・エフ,,株式会社,神奈川県,川崎市中原区,井田中ノ町２１番１９－１号,,14,133,2110034,,,,,,,2025-09-04,1,,,,,ワイエフ,0
1446,6020001164679,新規,0,2025-09-04,2025-09-04,株式会社万久宮崎,00140517,株式会社,神奈川県,川崎市高津区,新作４丁目３番１７号,,14,134,2130014,,,,,,,2025-09-04,1,,,,,マンキュウミヤザキ,0
1449,6020003029046,新規,0,2025-09-04,2025-09-04,合同会社イニシオ,,合同会社,神奈川県,川崎市多摩区,登戸７１３－１－２０５,,14,135,2140014,,,,,,,2025-09-04,1,,,,,イニシオ,0
1458,6030001168415,新規,0,2025-09-04,2025-09-04,興業株式会社,,株式会社,埼玉県,入間郡三芳町,大字藤久保５２６－１朝日センチュリーみずほ台Ｃ棟２０１号室,,11,324,3540041,,,,,,,2025-09-04,1,,,,,コウギョウ,0
1459,6030001168423,新規,0,2025-09-04,2025-09-04,株式会社イーエレクト,,株式会社,埼玉県,越谷市,大成町２丁目１６１番地１スタイルガーデン１０３,,11,222,3430825,,,,,,,2025-09-04,1,,,,,イーエレクト,0
1471,6040001140331,新規,0,2025-09-04,2025-09-04,株式会社グローリーインフィニティ,,株式会社,千葉県,船橋市,芝山２丁目５番７棟２０６号,,12,204,2740816,,,,,,,2025-09-04,1,,,,,グローリーインフィニティ,0
1473,6040003028426,新規,0,2025-09-04,2025-09-04,ＧＩＡ　ＡＮ合同会社,,合同会社,千葉県,東金市,台方６番地４,,12,213,2830811,,,,,,,2025-09-04,1,,,,,ジャアン,0
1475,6050001057087,新規,0,2025-09-04,2025-09-04,株式会社ヨシダ,,株式会社,茨城県,土浦市,下高津３丁目１４番１０号,,08,203,3000812,,,,,,,2025-09-04,1,,,,,ヨシダ,0
1476,6050001057194,新規,0,2025-09-04,2025-09-04,シャイントウィズ株式会社,,株式会社,茨城県,笠間市,吉岡１９７番地２０,,08,216,3190203,,,,,,,2025-09-04,1,,,,,シャイントウィズ,0
1484,6080001027120,新規,0,2025-09-04,2025-09-04,株式会社ルリアン,,株式会社,静岡県,藤枝市,内瀬戸１６番地の３２,,22,214,4260076,,,,,,,2025-09-04,1,,,,,ルリアン,0
1488,6080401028156,新規,0,2025-09-04,2025-09-04,株式会社基希林業,,株式会社,静岡県,浜松市浜名区,三ヶ日町釣４０７番地の３２０,,22,139,4311416,,,,,,,2025-09-04,1,,,,,モトキリンギョウ,0
1492,6100003008371,新規,0,2025-09-04,2025-09-04,竹内美装合同会社,,合同会社,長野県,長野市,差出南１丁目９－１,,20,201,3800948,,,,,,,2025-09-04,1,,,,,タケウチビソウ,0
1495,6110001039558,新規,0,2025-09-04,2025-09-04,株式会社ニュートラルＣＭ,,株式会社,新潟県,新潟市西区,立仏６５番地－１－１０５,,15,107,9501103,,,,,,,2025-09-04,1,,,,,ニュートラルシーエム,0
1504,6120001279277,新規,0,2025-09-04,2025-09-04,四月の夏株式会社,,株式会社,大阪府,大阪市天王寺区,伶人町２－３１ＳｔａｒＯｆｆｉｃｅ大阪天王寺北３０５号室,,27,109,5430061,,,,,,,2025-09-04,1,,,,,シガツノナツ,0
1508,6120003030448,新規,0,2025-09-04,2025-09-04,合同会社ブルーカーム,,合同会社,大阪府,大阪市都島区,御幸町１丁目８番２２号９０２号室,,27,102,5340012,,,,,,,2025-09-04,1,,,,,ブルーカーム,0
1509,6120003030464,新規,0,2025-09-04,2025-09-04,合同会社黒瀬不動産,,合同会社,大阪府,大阪市淀川区,宮原５丁目３番２３－１３０７号,,27,123,5320003,,,,,,,2025-09-04,1,,,,,クロセフドウサン,0
1513,6120101072383,新規,0,2025-09-04,2025-09-04,ＴＡＳＪＡ株式会社,,株式会社,大阪府,泉南市,新家２７８７番地の１３０,,27,228,5900503,,,,,,,2025-09-04,1,,,,,タスジャ,0
1514,6120101072391,新規,0,2025-09-04,2025-09-04,株式会社想守,,株式会社,大阪府,阪南市,鳥取中１２５番地の９,,27,232,5990211,,,,,,,2025-09-04,1,,,,,オマモリ,0
1515,6120103006678,新規,0,2025-09-04,2025-09-04,合同会社Ｒｕｍａｈ　Ｓａｙａ,,合同会社,大阪府,泉北郡忠岡町,忠岡中１丁目３０番１８号,,27,341,5950812,,,,,,,2025-09-04,1,,,,,ルマサヤ,0
1522,6130001080436,新規,0,2025-09-04,2025-09-04,ＴＯＹＡ株式会社,,株式会社,京都府,京都市西京区,上桂北村町２１５番地,,26,111,6158213,,,,,,,2025-09-04,1,,,,,トーヤ,0
1523,6130003010738,新規,0,2025-09-04,2025-09-04,合同会社ＧＩＦＴ,,合同会社,京都府,京都市下京区,小稲荷町８５－２Ｇｒａｎｄ－Ｋ京都駅前ビル２０１,,26,106,6008208,,,,,,,2025-09-04,1,,,,,ギフト,0
1526,6140001139850,新規,0,2025-09-04,2025-09-04,株式会社ＢＬＵＥ　ＢｅＥ,,株式会社,兵庫県,西宮市,仁川町１丁目７番３０号,,28,204,6620811,,,,,,,2025-09-04,1,,,,,ブルービー,0
1527,6140001139859,新規,0,2025-09-04,2025-09-04,株式会社タッカー,,株式会社,兵庫県,西宮市,東山台１丁目１５番地１番館３０５号,,28,204,6691133,,,,,,,2025-09-04,1,,,,,タッカー,0
1528,6140001139875,新規,0,2025-09-04,2025-09-04,株式会社竹村商事,,株式会社,兵庫県,姫路市,飾磨区大浜３２,,28,201,6728062,,,,,,,2025-09-04,1,,,,,タケムラショウジ,0
1531,6140003022526,新規,0,2025-09-04,2025-09-04,合同会社Ｔｏｏｌ　Ｃｒａｚｙ,,合同会社,兵庫県,神戸市長田区,西尻池町５丁目３番２０号,,28,106,6530031,,,,,,,2025-09-04,1,,,,,ツールクレイジー,0
1532,6140003022542,新規,0,2025-09-04,2025-09-04,ＭＫテクノ合同会社,,合同会社,兵庫県,姫路市,兼田１８７番地４,,28,201,6728001,,,,,,,2025-09-04,1,,,,,エムケイテクノ,0
1534,6150003003698,新規,0,2025-09-04,2025-09-04,合同会社Ｎｉｈａｃｈｉ,,合同会社,奈良県,生駒市,萩原町１６１番地１７,,29,209,6300234,,,,,,,2025-09-04,1,,,,,ニハチ,0
1535,6160001027038,新規,0,2025-09-04,2025-09-04,優建設株式会社,,株式会社,滋賀県,犬上郡甲良町,大字法養寺１８０番地１７,,25,442,5220263,,,,,,,2025-09-04,1,,,,,ユウケンセツ,0
1540,6170001018770,新規,0,2025-09-04,2025-09-04,株式会社ＨＦＸ,,株式会社,和歌山県,和歌山市,西庄１０１６番地,,30,201,6400112,,,,,,,2025-09-04,1,,,,,エイチエフエックス,0
1551,6180001168400,新規,0,2025-09-04,2025-09-04,株式会社ＡＲＴ　ＡＲＴ　ＡＲＴ,,株式会社,愛知県,名古屋市中村区,名駅南１丁目１１番１２号Ｋｉｎｊｉｒｏ名駅Ｍｉｎａｍｉビル１Ｆ,,23,105,4500003,,,,,,,2025-09-04,1,,,,,アートアートアート,0
1552,6180001168474,新規,0,2025-09-04,2025-09-04,ねこねこ商事株式会社,,株式会社,愛知県,名古屋市中川区,東起町３丁目２０番地の９,,23,110,4540935,,,,,,,2025-09-04,1,,,,,ネコネコショウジ,0
1553,6180001168490,新規,0,2025-09-04,2025-09-04,株式会社シマイチ,,株式会社,愛知県,名古屋市守山区,向台３丁目２１１０番地,,23,113,4630036,,,,,,,2025-09-04,1,,,,,シマイチ,0
1554,6180001168532,新規,0,2025-09-04,2025-09-04,株式会社アスク,,株式会社,愛知県,名古屋市中村区,名駅４丁目８番２６号エニシオ名駅１６階,,23,105,4500002,,,,,,,2025-09-04,1,,,,,アスク,0
1560,6180003028973,新規,0,2025-09-04,2025-09-04,合同会社珈琲舎諸行無常,,合同会社,愛知県,津島市,百町字新所３番地,,23,208,4960017,,,,,,,2025-09-04,1,,,,,コーヒーシャショギョウムジョウ,0
1561,6180301040168,新規,0,2025-09-04,2025-09-04,株式会社トータルウォッシュ,,株式会社,愛知県,高浜市,二池町３丁目１番地８２,,23,227,4441322,,,,,,,2025-09-04,1,,,,,トータルウォッシュ,0
1581,6250001021320,新規,0,2025-09-04,2025-09-04,株式会社永野造庭園,,株式会社,山口県,宇部市,大字小野６１７９番地,,35,202,7541311,,,,,,,2025-09-04,1,,,,,ナガノゾウテイエン,0
1584,6280005007668,新規,0,2025-09-04,2025-09-04,一般社団法人石見地域循環共生協議会,,その他の設立登記法人,島根県,浜田市,黒川町１５５番地７,,32,202,6970024,,,,,,,2025-09-04,1,,,,,イワミチイキジュンカンキョウセイキョウギカイ,0
1593,6310001019779,新規,0,2025-09-04,2025-09-04,株式会社ちゃんぽん,,株式会社,長崎県,諫早市,栄田町３０番１２号,,42,204,8540081,,,,,,,2025-09-04,1,,,,,チャンポン,0
1596,6320003004753,新規,0,2025-09-04,2025-09-04,合同会社オーエーエス,,合同会社,大分県,大分市,城東町１０番２８号,,44,201,8700153,,,,,,,2025-09-04,1,,,,,オーエーエス,0
1603,6350001019718,新規,0,2025-09-04,2025-09-04,株式会社Ｍファーム,,株式会社,宮崎県,日南市,北郷町郷之原乙５８４番地１,,45,204,8892402,,,,,,,2025-09-04,1,,,,,エムファーム,0
1606,6370001052997,新規,0,2025-09-04,2025-09-04,ウィズライト株式会社,,株式会社,宮城県,仙台市青葉区,折立１丁目１１－３,,04,101,9893161,,,,,,,2025-09-04,1,,,,,ウィズライト,0
1607,6370001053005,新規,0,2025-09-04,2025-09-04,株式会社ＴＥＮＫＯＵ,,株式会社,宮城県,仙台市青葉区,国分町３丁目８番３号新産業ビル４０１,,04,101,9800803,,,,,,,2025-09-04,1,,,,,テンコウ,0
1615,6420001019248,新規,0,2025-09-04,2025-09-04,株式会社ワイピースガレージ,,株式会社,青森県,青森市,大字荒川字柴田３４番地,,02,201,0300111,,,,,,,2025-09-04,1,,,,,ワイピースガレージ,0
1620,6450001014725,新規,0,2025-09-04,2025-09-04,ＭＡＩＮＬＩＮＥ株式会社,,株式会社,北海道,上川郡鷹栖町,北一条１丁目１番１６号,,01,452,0711211,,,,,,,2025-09-04,1,,,,,メインライン,0
1621,6460003001068,新規,0,2025-09-04,2025-09-04,合同会社Ｎｅｖｅｒ‐ｍｉｎｄ,,合同会社,北海道,釧路市,末広町５丁目１３番地,,01,206,0850014,,,,,,,2025-09-04,1,,,,,ネバーマインド,0
1622,6460101007751,新規,0,2025-09-04,2025-09-04,慎花連トラスト株式会社,,株式会社,北海道,帯広市,西五条南４丁目１４番地,,01,207,0800015,,,,,,,2025-09-04,1,,,,,シンカレントラスト,0
1629,6500001026491,新規,0,2025-09-04,2025-09-04,株式会社リアル・クリエイト,,株式会社,愛媛県,新居浜市,磯浦町１６番７号,,38,205,7920002,,,,,,,2025-09-04,1,,,,,リアルクリエイト,0
1644,7010001258175,新規,0,2025-09-04,2025-09-04,Ｘｉａｏ　Ａｉ　Ｍａｏ　Ｙｉ株式会社,,株式会社,東京都,中央区,日本橋馬喰町１丁目６番１４号日本橋一平堂ビル４階,,13,102,1030002,,,,,,,2025-09-04,1,,,,,ショウアイモウイ,0
1645,7010001258183,新規,0,2025-09-04,2025-09-04,エネライフバッテリー・インターナショナル株式会社,,株式会社,東京都,千代田区,二番町９番地３ＴＨＥ・ＢＡＳＥ麹町１階,,13,101,1020084,,,,,,,2025-09-04,1,,,,,エネライフバッテリーインターナショナル,0
1646,7010001258191,新規,0,2025-09-04,2025-09-04,ＳＭＣ株式会社,,株式会社,東京都,千代田区,神田須田町１丁目７番８号ＶＯＲＴ秋葉原ＩＶ２Ｆ,00140528,13,101,1010041,,,,,,,2025-09-04,1,,,,,エスエムシー,0
1647,7010001258233,新規,0,2025-09-04,2025-09-04,株式会社ＱＭ,,株式会社,東京都,中央区,銀座７丁目１０番５号オーブルミナス３階,,13,102,1040061,,,,,,,2025-09-04,1,,,,,キューエム,0
1650,7010003048566,新規,0,2025-09-04,2025-09-04,合同会社Ｂｏｎｖｉｅ,,合同会社,東京都,千代田区,神田和泉町１番地６－１６ヤマトビル４０５,,13,101,1010024,,,,,,,2025-09-04,1,,,,,ボンヴイ,0
1651,7010003048574,新規,0,2025-09-04,2025-09-04,野茂産業合同会社,,合同会社,東京都,千代田区,内幸町２丁目２番２号富国生命ビル渥美坂井法律事務所・外国法共同事業内,,13,101,1000011,,,,,,,2025-09-04,1,,,,,ノモサンギョウ,0
1653,7010005040620,新規,0,2025-09-04,2025-09-04,一般社団法人空き家・空き地再生ラボ,,その他の設立登記法人,東京都,千代田区,神田和泉町１番地６－１６ヤマトビル４０５,,13,101,1010024,,,,,,,2025-09-04,1,,,,,アキヤアキチサイセイラボ,0
1654,7010005040629,新規,0,2025-09-04,2025-09-04,一般社団法人日本芸術療法学会認定芸術療法士資格管理機構,,その他の設立登記法人,東京都,文京区,本郷２丁目３－４大東ビル２０１,,13,105,1130033,,,,,,,2025-09-04,1,,,,,ニホンゲイジュツリョウホウガッカイニンテイゲイジュツリョウホウシシカクカンリキコウ,0
1660,7010401192775,新規,0,2025-09-04,2025-09-04,株式会社Ｕ‐ｉｓｍ,,株式会社,東京都,港区,南青山３丁目１番３６号青山丸竹ビル６Ｆ,,13,103,1070062,,,,,,,2025-09-04,1,,,,,ユーイズム,0
1661,7010401192817,新規,0,2025-09-04,2025-09-04,マイマリンサービス株式会社,,株式会社,東京都,港区,高輪２丁目１４－１８－２０５,,13,103,1080074,,,,,,,2025-09-04,1,,,,,マイマリンサービス,0
1663,7010403035981,新規,0,2025-09-04,2025-09-04,合同会社ＡＫＩＲＯＮ,,合同会社,東京都,港区,北青山１丁目３番１号アールキューブ青山３階,,13,103,1070061,,,,,,,2025-09-04,1,,,,,アキロン,0
1664,7010501054611,新規,0,2025-09-04,2025-09-04,歴馬株式会社,,株式会社,東京都,台東区,台東２丁目３１－１０第２掛川ビル１０６号室,,13,106,1100016,,,,,,,2025-09-04,1,,,,,レキバ,0
1665,7010501054652,新規,0,2025-09-04,2025-09-04,Ｇｉｇａ　Ｓｍｉｌｅ株式会社,,株式会社,東京都,台東区,上野３丁目１６番２号,,13,106,1100005,,,,,,,2025-09-04,1,,,,,ギガスマイル,0
1668,7010603011774,新規,0,2025-09-04,2025-09-04,サカタニ合同会社,,合同会社,東京都,墨田区,江東橋４丁目２７番１４号楽天地ビル３階,,13,107,1300022,,,,,,,2025-09-04,1,,,,,サカタニ,0
1669,7010701048256,新規,0,2025-09-04,2025-09-04,株式会社ＺＥＲＯ１,,株式会社,東京都,品川区,上大崎３丁目３－９目黒駅前秀和レジデンス１０１０,,13,109,1410021,,,,,,,2025-09-04,1,,,,,ゼロワン,0
1671,7010703007895,新規,0,2025-09-04,2025-09-04,合同会社ＫＹコンサルティング,,合同会社,東京都,品川区,西五反田２丁目２２番６－２５０７号,,13,109,1410031,,,,,,,2025-09-04,1,,,,,ケイワイコンサルティング,0
1683,7011001171517,新規,0,2025-09-04,2025-09-04,ＴＲ　Ｓｔｕｄｉｏ株式会社,,株式会社,東京都,目黒区,東山２丁目３－２ＣＯＭ’ＳＦＯＲＵＭ４Ｆ,,13,110,1530043,,,,,,,2025-09-04,1,,,,,ティーアールスタジオ,0
1684,7011001172143,新規,0,2025-09-04,2025-09-04,株式会社トラスト,,株式会社,東京都,渋谷区,本町４丁目４９番１３号東邦西新宿ビル４０２,,13,113,1510071,,,,,,,2025-09-04,1,,,,,トラスト,0
1685,7011003022321,新規,0,2025-09-04,2025-09-04,合同会社Ｍｏｎｏｃｈｒｏｍａ,,合同会社,東京都,渋谷区,広尾２丁目１０番１５号ＥｌＶｅｒａｎｏ広尾１０１,,13,113,1500012,,,,,,,2025-09-04,1,,,,,モノクローマ,0
1691,7011101113096,新規,0,2025-09-04,2025-09-04,杏風株式会社,,株式会社,東京都,新宿区,富久町３２－３東新富久町ビル１０１号室,,13,104,1620067,,,,,,,2025-09-04,1,,,,,キョウフウ,0
1692,7011101113170,新規,0,2025-09-04,2025-09-04,東京中本龍馬株式会社,,株式会社,東京都,新宿区,百人町１丁目１８－８大久保カドビル４０４室１０８号,,13,104,1690073,,,,,,,2025-09-04,1,,,,,トウキョウナカモトリョウマ,0
1693,7011103016280,新規,0,2025-09-04,2025-09-04,合同会社ＭＡＩＳＯＮ１４,,合同会社,東京都,新宿区,西新宿３丁目３番１３号,,13,104,1600023,,,,,,,2025-09-04,1,,,,,メゾンジュウヨン,0
1694,7011103016306,新規,0,2025-09-04,2025-09-04,Ｈｏａｎｇ　Ｋｉｍ合同会社,,合同会社,東京都,新宿区,富久町１－１９シャモット市ヶ谷－１０５,,13,104,1620067,,,,,,,2025-09-04,1,,,,,ホアンキム,0
1695,7011103016355,新規,0,2025-09-04,2025-09-04,合同会社いろどり,,合同会社,東京都,新宿区,須賀町５番地３４,,13,104,1600018,,,,,,,2025-09-04,1,,,,,イロドリ,0
1696,7011201026611,新規,0,2025-09-04,2025-09-04,株式会社陽月,,株式会社,東京都,中野区,弥生町２丁目１８番６号中野新橋ビル,,13,114,1640013,,,,,,,2025-09-04,1,,,,,ヨウゲツ,0
1698,7011401027368,新規,0,2025-09-04,2025-09-04,株式会社ＪＹＯＴＩ,,株式会社,東京都,板橋区,本町１４－１４,,13,119,1730001,,,,,,,2025-09-04,1,,,,,ジョティ,0
1701,7011805003477,新規,0,2025-09-04,2025-09-04,医療法人社団仁道会,,その他の設立登記法人,東京都,足立区,江北３丁目３番１号,,13,121,1230872,,,,,,,2025-09-04,1,,,,,ジンドウカイ,0
1704,7012403007317,新規,0,2025-09-04,2025-09-04,谷戸口商事合同会社,,合同会社,東京都,稲城市,矢野口２３５４番地,,13,225,2060812,,,,,,,2025-09-04,1,,,,,ヤトグチショウジ,0
1710,7013301054888,新規,0,2025-09-04,2025-09-04,株式会社秋和,,株式会社,東京都,豊島区,巣鴨４丁目１９－８－３０１,,13,116,1700002,,,,,,,2025-09-04,1,,,,,アキカズ,0
1711,7013301054896,新規,0,2025-09-04,2025-09-04,株式会社ＲＳＣセキュリティ,,株式会社,東京都,豊島区,東池袋３丁目１－３サンシャインシティ,,13,116,1700013,,,,,,,2025-09-04,1,,,,,アールエスシーセキュリティ,0
1719,7020003029268,新規,0,2025-09-04,2025-09-04,合同会社Ｅ‐ＧｅａｒＺ,,合同会社,神奈川県,横浜市都筑区,北山田５丁目６番２号エステスクエア８０７号室,,14,118,2240021,,,,,,,2025-09-04,1,,,,,イーギアーズ,0
1722,7021001086185,新規,0,2025-09-04,2025-09-04,株式会社ＬＩＫ,,株式会社,神奈川県,伊勢原市,串橋２６６番地の６,,14,214,2591136,,,,,,,2025-09-04,1,,,,,エルアイケー,0
1723,7021001086202,新規,0,2025-09-04,2025-09-04,ブロードビュー株式会社,,株式会社,神奈川県,海老名市,社家５丁目２番５２号,,14,215,2430424,,,,,,,2025-09-04,1,,,,,ブロードビュー,0
1724,7021001086210,新規,0,2025-09-04,2025-09-04,株式会社亀屋,,株式会社,神奈川県,鎌倉市,笹目町９番１号,,14,204,2480015,,,,,,,2025-09-04,1,,,,,カメヤ,0
1731,7021003016537,新規,0,2025-09-04,2025-09-04,スマイルブリッジ・メッド合同会社,,合同会社,神奈川県,相模原市南区,相模大野６丁目１９―２９神奈川アートビル３階３０２号室,,14,153,2520303,,,,,,,2025-09-04,1,,,,,スマイルブリッジメッド,0
1732,7030001168380,新規,0,2025-09-04,2025-09-04,株式会社慈烏,,株式会社,埼玉県,草加市,高砂２丁目１－２０ストーク一番館２階,,11,221,3400015,,,,,,,2025-09-04,1,,,,,カラス,0
1733,7030001168414,新規,0,2025-09-04,2025-09-04,株式会社ＺＵＮＺＵＮ,,株式会社,埼玉県,草加市,旭町２丁目２－５ジュネパレス草加第３－２０３,,11,221,3400053,,,,,,,2025-09-04,1,,,,,ズンズン,0
1734,7030001168430,新規,0,2025-09-04,2025-09-04,株式会社ＨＩＮＡ　ＦＡＲＭ,,株式会社,埼玉県,久喜市,外野３８０番地２,,11,232,3400205,,,,,,,2025-09-04,1,,,,,ヒナファーム,0
1735,7030001168447,新規,0,2025-09-04,2025-09-04,株式会社関東ペイント,,株式会社,埼玉県,蕨市,中央７丁目４－７グリアーレ１０１号,,11,223,3350004,,,,,,,2025-09-04,1,,,,,カントウペイント,0
1736,7030001168471,新規,0,2025-09-04,2025-09-04,株式会社ＺＥＮ,,株式会社,埼玉県,さいたま市南区,曲本２丁目１１番１０号２Ｆ,,11,108,3360033,,,,,,,2025-09-04,1,,,,,ゼン,0
1737,7030003027519,新規,0,2025-09-04,2025-09-04,合同会社アシスト,,合同会社,埼玉県,川口市,東川口２丁目１９番３１号,,11,203,3330801,,,,,,,2025-09-04,1,,,,,アシスト,0
1743,7040001140314,新規,0,2025-09-04,2025-09-04,株式会社ＳＹＣ,,株式会社,千葉県,松戸市,西馬橋３丁目３７番地の１０サニークレメントＩ－２０１号,00140520,12,207,2710044,,,,,,,2025-09-04,1,,,,,エスワイシー,0
1744,7040003028433,新規,0,2025-09-04,2025-09-04,合同会社のぞみ,,合同会社,千葉県,香取市,府馬１９５３番地,,12,236,2890411,,,,,,,2025-09-04,1,,,,,ノゾミ,0
1746,7050001057219,新規,0,2025-09-04,2025-09-04,株式会社ファースト,,株式会社,茨城県,ひたちなか市,大字長砂８７６番地７,,08,221,3120004,,,,,,,2025-09-04,1,,,,,ファースト,0
1747,7050001057227,新規,0,2025-09-04,2025-09-04,株式会社ＤＥＮＲＩＣＫ,,株式会社,茨城県,水戸市,見和２丁目５５０番地２－Ｂ,,08,201,3100911,,,,,,,2025-09-04,1,,,,,デンリック,0
1748,7050003009531,新規,0,2025-09-04,2025-09-04,Ｊｙｐｔｏ合同会社,,合同会社,茨城県,つくば市,学園南２丁目４番３号レーベン研究学園ＮＥＸＩＯ１３０４号室,,08,220,3050818,,,,,,,2025-09-04,1,,,,,ジプト,0
1749,7050005013688,新規,0,2025-09-04,2025-09-04,特定非営利活動法人フルーツガーデン,,その他の設立登記法人,茨城県,取手市,戸頭４丁目７番２１号,,08,217,3020034,,,,,,,2025-09-04,1,,,,,フルーツガーデン,0
1756,7070001043308,新規,0,2025-09-04,2025-09-04,株式会社ルミナス,,株式会社,群馬県,高崎市,本郷町６６番地１,,10,202,3703334,,,,,,,2025-09-04,1,,,,,ルミナス,0
1757,7070001043316,新規,0,2025-09-04,2025-09-04,日本業務向上機構株式会社,,株式会社,群馬県,高崎市,中居町４丁目７番５号エスカイヤ中居５０３,,10,202,3700852,,,,,,,2025-09-04,1,,,,,ニホンギョウムコウジョウキコウ,0
1761,7080001027128,新規,0,2025-09-04,2025-09-04,株式会社スカイナビゲート,,株式会社,静岡県,静岡市葵区,沓谷５丁目５６番地１,,22,101,4200816,,,,,,,2025-09-04,1,,,,,スカイナビゲート,0
1764,7080401028155,新規,0,2025-09-04,2025-09-04,株式会社Ｍａｉｓｏｎ　Ｓｐｅｃｉａｌ　Ｃａｒｅ,,株式会社,静岡県,浜松市中央区,高丘東３丁目２－１メゾニークＡ号室,,22,138,4338117,,,,,,,2025-09-04,1,,,,,メゾンスペシャルケア,0
1765,7090001019487,新規,0,2025-09-04,2025-09-04,株式会社バーニーズ,,株式会社,山梨県,富士吉田市,下吉田３丁目３５番１８号,,19,202,4030004,,,,,,,2025-09-04,1,,,,,バーニーズ,0
1767,7090003002887,新規,0,2025-09-04,2025-09-04,合同会社バリアパス,,合同会社,山梨県,甲府市,大里町３２２５番地８－４０１,,19,201,4000053,,,,,,,2025-09-04,1,,,,,,0
1768,7100001038923,新規,0,2025-09-04,2025-09-04,株式会社ナイン・プエルタ,,株式会社,長野県,佐久市,取出町字野沢道４７２番地,,20,217,3850043,,,,,,,2025-09-04,1,,,,,ナインプエルタ,0
1769,7100003008370,新規,0,2025-09-04,2025-09-04,合同会社更科ファーム,,合同会社,長野県,長野市,篠ノ井岡田７１９番地１,,20,201,3812225,,,,,,,2025-09-04,1,,,,,サラシナファーム,0
1784,7120001279276,新規,0,2025-09-04,2025-09-04,株式会社創智百聯,,株式会社,大阪府,大阪市西成区,天神ノ森１丁目１２,,27,122,5570013,,,,,,,2025-09-04,1,,,,,ソウチヒャクレン,0
1786,7120003030380,新規,0,2025-09-04,2025-09-04,合同会社Ｒｅｉ　Ｍｏｍｅｎｔ,,合同会社,大阪府,大阪市中央区,備後町３丁目１番２号日宝アトラスビル２ＦＢ,,27,128,5410051,,,,,,,2025-09-04,1,,,,,レイモーメント,0
1787,7120003030455,新規,0,2025-09-04,2025-09-04,ＮＴＨ合同会社,,合同会社,大阪府,大阪市住吉区,遠里小野２丁目１番７号プレアール遠里小野１０３号,,27,120,5580032,,,,,,,2025-09-04,1,,,,,エヌティーエイチ,0
1788,7120005025148,新規,0,2025-09-04,2025-09-04,特定非営利活動法人Ｌｉｅｎ,,その他の設立登記法人,大阪府,大阪市福島区,玉川３丁目３番１９号,,27,103,5530004,,,,,,,2025-09-04,1,,,,,リアン,0
1794,7120101072382,新規,0,2025-09-04,2025-09-04,ＡＺＥＬ　Ｓｙｓｔｅｍ株式会社,,株式会社,大阪府,堺市中区,堀上町２７２番地２８,,27,142,5998261,,,,,,,2025-09-04,1,,,,,アーゼルシステム,0
1796,7120103006677,新規,0,2025-09-04,2025-09-04,合同会社朝日屋,,合同会社,大阪府,堺市北区,中百舌鳥町６丁１０３４番地６－２番館１００４号,,27,146,5918023,,,,,,,2025-09-04,1,,,,,アサヒヤ,0
1807,7130001080484,新規,0,2025-09-04,2025-09-04,株式会社ＳＯＭＭＵＮＩＴＹ,,株式会社,京都府,京都市下京区,麩屋町通高辻下る鍵屋町２１９番地２,,26,106,6008057,,,,,,,2025-09-04,1,,,,,ソミュニティ,0
1812,7140001139858,新規,0,2025-09-04,2025-09-04,株式会社Ｆｒｅａｋ　Ｆｒｅｅｋｓ,,株式会社,兵庫県,姫路市,継４２４番地６,,28,201,6728004,,,,,,,2025-09-04,1,,,,,フリークフリークス,0
1813,7140001139866,新規,0,2025-09-04,2025-09-04,株式会社Ｗｅｖａｌ,,株式会社,兵庫県,伊丹市,中央１丁目５番５号ボントンビル４階,,28,207,6640851,,,,,,,2025-09-04,1,,,,,ウィーバル,0
1814,7140001139874,新規,0,2025-09-04,2025-09-04,株式会社ＬＥＶＩＡ　ＥＳＴＡＴＥ,,株式会社,兵庫県,尼崎市,東園田町３丁目１２番地の２９,,28,202,6610953,,,,,,,2025-09-04,1,,,,,レヴィアエステート,0
1815,7140001139882,新規,0,2025-09-04,2025-09-04,株式会社ツルノ,,株式会社,兵庫県,尼崎市,額田町１６番１３号サンガーデンフクダＡ棟１０１号室,,28,202,6610962,,,,,,,2025-09-04,1,,,,,ツルノ,0
1816,7140001139899,新規,0,2025-09-04,2025-09-04,下関通運株式会社,,株式会社,兵庫県,神戸市中央区,八雲通４丁目６番８号２０２号,,28,110,6510078,,,,,,,2025-09-04,1,,,,,シモノセキツウウン,0
1819,7140003022541,新規,0,2025-09-04,2025-09-04,合同会社Ｎｅｏ　Ｎｅｕｒｏ,,合同会社,兵庫県,尼崎市,武庫之荘１丁目２－１６バロンガーデン武庫之荘１０１,,28,202,6610035,,,,,,,2025-09-04,1,,,,,ネオニューロ,0
1821,7150005009718,新規,0,2025-09-04,2025-09-04,特定非営利活動法人ケアマネ応援団,,その他の設立登記法人,奈良県,橿原市,内膳町３丁目８番５号ＢｉｚＷｏｒｋ１０２,,29,205,6340804,,,,,,,2025-09-04,1,,,,,ケアマネオウエンダン,0
1822,7160001027045,新規,0,2025-09-04,2025-09-04,株式会社アドバンス,,株式会社,滋賀県,栗東市,綣５丁目１２番２１号,,25,208,5203031,,,,,,,2025-09-04,1,,,,,アドバンス,0
1835,7180001168424,新規,0,2025-09-04,2025-09-04,株式会社Ｒｅｇｎｏ,,株式会社,愛知県,名古屋市北区,光音寺町１丁目１０６番Ｂ,,23,103,4620053,,,,,,,2025-09-04,1,,,,,レグノ,0
1836,7180001168432,新規,0,2025-09-04,2025-09-04,株式会社トラステージ,,株式会社,愛知県,名古屋市中区,新栄１丁目２８番２１号,,23,106,4600007,,,,,,,2025-09-04,1,,,,,トラステージ,0
1837,7180001168457,新規,0,2025-09-04,2025-09-04,株式会社ＨＩＲＯエンタープライズ,,株式会社,愛知県,稲沢市,矢合町辻初３２２番地,,23,220,4928342,,,,,,,2025-09-04,1,,,,,ヒロエンタープライズ,0
1838,7180001168498,新規,0,2025-09-04,2025-09-04,株式会社ＨＮＲ,,株式会社,愛知県,名古屋市中区,錦３丁目１５番１４号ライオンビル錦館８０１,,23,106,4600003,,,,,,,2025-09-04,1,,,,,エイチエヌアール,0
1843,7180003028931,新規,0,2025-09-04,2025-09-04,Ｋ＆Ｙ不動産管理合同会社,,合同会社,愛知県,名古屋市北区,金城３丁目８番９号（サンハイム中村５０２号）,,23,103,4620847,,,,,,,2025-09-04,1,,,,,ケーアンドワイフドウサンカンリ,0
1848,7200001044192,新規,0,2025-09-04,2025-09-04,万来しろとり株式会社,,株式会社,岐阜県,郡上市,白鳥町白鳥１５７番地３,,21,219,5015121,,,,,,,2025-09-04,1,,,,,バンライシロトリ,0
1859,7230001021065,新規,0,2025-09-04,2025-09-04,株式会社マチベース,,株式会社,富山県,滑川市,上島３２５番地１,,16,206,9360852,,,,,,,2025-09-04,1,,,,,マチベース,0
1860,7230005009494,新規,0,2025-09-04,2025-09-04,特定非営利活動法人高齢者等終身サポート事業所まいるど,,その他の設立登記法人,富山県,富山市,稲荷元町１丁目３番１０号,,16,201,9300010,,,,,,,2025-09-04,1,,,,,コウレイシャトウシュウシンサポートジギョウショマイルド,0
1861,7240001065466,新規,0,2025-09-04,2025-09-04,株式会社ＴＯＭＯＳＨＩＢＩ,,株式会社,広島県,福山市,東桜町１番３４－５０６号,,34,207,7200065,,,,,,,2025-09-04,1,,,,,トモシビ,0
1870,7290001111298,新規,0,2025-09-04,2025-09-04,株式会社内田総合商事,,株式会社,福岡県,福岡市中央区,白金１丁目１２番２－１号,,40,133,8100012,,,,,,,2025-09-04,1,,,,,ウチダソウゴウショウジ,0
1871,7290801031828,新規,0,2025-09-04,2025-09-04,株式会社Ｌａｎｄｌｏｒｄ　Ｃａｐｉｔａｌ,,株式会社,福岡県,北九州市八幡西区,折尾５丁目７番４号,,40,109,8070825,,,,,,,2025-09-04,1,,,,,ランドロードキャピタル,0
1873,7300001014342,新規,0,2025-09-04,2025-09-04,ＥＬＵＷＯＲＫＳ株式会社,,株式会社,佐賀県,佐賀市,呉服元町７―２０Ｓ―ｂｕｉｌｄｉｎｇ３ＦＢ室,,41,201,8400824,,,,,,,2025-09-04,1,,,,,エルワークス,0
1874,7310001019778,新規,0,2025-09-04,2025-09-04,株式会社Ｎｅｘｕｓ,,株式会社,長崎県,佐世保市,花高３丁目４９－５８,,42,202,8593212,,,,,,,2025-09-04,1,,,,,ネクサス,0
1876,7320001021312,新規,0,2025-09-04,2025-09-04,株式会社ＭＭＳ,,株式会社,大分県,別府市,東荘園８丁目３番１０号,,44,202,8740836,,,,,,,2025-09-04,1,,,,,エムエムエス,0
1877,7320003004760,新規,0,2025-09-04,2025-09-04,石川合同会社,,合同会社,大分県,佐伯市,大字狩生３２３３番地,,44,205,8761101,,,,,,,2025-09-04,1,,,,,イシカワ,0
1879,7340005009905,新規,0,2025-09-04,2025-09-04,税理士法人ともにパートナーズ,,その他の設立登記法人,鹿児島県,鹿児島市,山之口町１番１０号鹿児島中央ビル,,46,201,8920844,,,,,,,2025-09-04,1,,,,,トモニパートナーズ,0
1892,7360003015226,新規,0,2025-09-04,2025-09-04,タイムリンク合同会社,,合同会社,沖縄県,糸満市,字潮平２２２番地,,47,210,9010302,,,,,,,2025-09-04,1,,,,,タイムリンク,0
1894,7370001052988,新規,0,2025-09-04,2025-09-04,株式会社ＺｅＮ,,株式会社,宮城県,仙台市若林区,種次字南番古１１５番地,,04,103,9840844,,,,,,,2025-09-04,1,,,,,ゼン,0
1895,7370001053012,新規,0,2025-09-04,2025-09-04,株式会社ＤＯＬＬ　ＴＯＨＯＫＵ,,株式会社,宮城県,仙台市青葉区,中央４丁目１番１号,,04,101,9800021,,,,,,,2025-09-04,1,,,,,ドールトウホク,0
1897,7380005013003,新規,0,2025-09-04,2025-09-04,一般社団法人いわき音楽振興会,,その他の設立登記法人,福島県,いわき市,小名浜字芳浜１１番地の６０,,07,204,9718101,,,,,,,2025-09-04,1,,,,,イワキオンガクシンコウカイ,0
1899,7400001017161,新規,0,2025-09-04,2025-09-04,株式会社ＰＬＵＮＯ＆ＭＯＲＥ,,株式会社,岩手県,一関市,地主町２番８号,,03,209,0210893,,,,,,,2025-09-04,1,,,,,プルノアンドモア,0
1900,7400003003531,新規,0,2025-09-04,2025-09-04,合同会社ベストエイム,,合同会社,岩手県,盛岡市,向中野字幅５２番地９,,03,201,0200851,,,,,,,2025-09-04,1,,,,,ベストエイム,0
1906,7450001014724,新規,0,2025-09-04,2025-09-04,スバル富良野株式会社,,株式会社,北海道,富良野市,弥生町５番２１号,,01,229,0760018,,,,,,,2025-09-04,1,,,,,スバルフラノ,0
1925,8010001258240,新規,0,2025-09-04,2025-09-04,株式会社ＴＭＭコンサルティング,,株式会社,東京都,千代田区,神田佐久間町２丁目１３番地５,,13,101,1010025,,,,,,,2025-09-04,1,,,,,ティーエムエムコンサルティング,0
1929,8010005040628,新規,0,2025-09-04,2025-09-04,一般社団法人オーナーズブック・スリー,,その他の設立登記法人,東京都,千代田区,霞が関３丁目２番５号,,13,101,1000013,,,,,,,2025-09-04,1,,,,,オーナーズブックスリー,0
1931,8010103002645,新規,0,2025-09-04,2025-09-04,合同会社リシェル,,合同会社,東京都,八王子市,元本郷町３丁目１７番１２号庚辰ビル２０２,,13,201,1920051,,,,,,,2025-09-04,1,,,,,リシェル,0
1936,8010401192790,新規,0,2025-09-04,2025-09-04,株式会社ＮＵＴＲＩ,,株式会社,東京都,港区,南麻布３丁目２０番１号Ｄａｉｗａ麻布テラス５Ｆ,,13,103,1060047,,,,,,,2025-09-04,1,,,,,ニュートリ,0
1937,8010401192808,新規,0,2025-09-04,2025-09-04,株式会社ＴＯＭ,,株式会社,東京都,港区,六本木６丁目１番２０号六本木電気ビル７Ｆ,,13,103,1060032,,,,,,,2025-09-04,1,,,,,トム,0
1938,8010401192915,新規,0,2025-09-04,2025-09-04,株式会社ＡＰ８７ホールディングス,,株式会社,東京都,港区,虎ノ門４丁目１番２８号虎ノ門タワーズオフィス１７階,,13,103,1050001,,,,,,,2025-09-04,1,,,,,エーピーハチジュウナナホールディングス,0
1941,8010403035956,新規,0,2025-09-04,2025-09-04,Ｋカンパニー合同会社,,合同会社,東京都,港区,虎ノ門４丁目１番９号,,13,103,1050001,,,,,,,2025-09-04,1,,,,,ケイカンパニー,0
1943,8010501054610,新規,0,2025-09-04,2025-09-04,Ｔｅａｍｐｈｏｎ　Ｅｎｅｒｇｙ　Ｊａｐａｎ株式会社,,株式会社,東京都,台東区,東上野１丁目１５－４（キスワイヤ御徒町ビル）,,13,106,1100015,,,,,,,2025-09-04,1,,,,,,0
1944,8010501054651,新規,0,2025-09-04,2025-09-04,厚朴心株式会社,,株式会社,東京都,台東区,蔵前４丁目１６－６ストーク蔵前Ｍ＆Ｋ４階４１８,,13,106,1110051,,,,,,,2025-09-04,1,,,,,コウボクシン,0
1948,8010601067900,新規,0,2025-09-04,2025-09-04,株式会社ＲＹ事務所,,株式会社,東京都,江東区,豊洲３丁目４番２－２０１１号,,13,108,1350061,,,,,,,2025-09-04,1,,,,,アールワイジムショ,0
1953,8010801036548,新規,0,2025-09-04,2025-09-04,ＫＩＮＯＳＨＩＴＡ株式会社,,株式会社,東京都,大田区,中央５丁目１５番１２号,,13,111,1430024,,,,,,,2025-09-04,1,,,,,キノシタ,0
1954,8010801036556,新規,0,2025-09-04,2025-09-04,株式会社叶進,,株式会社,東京都,大田区,上池台２丁目３１番１０号,,13,111,1450064,,,,,,,2025-09-04,1,,,,,キョウシン,0
1965,8011001172316,新規,0,2025-09-04,2025-09-04,株式会社ユーリアルター,,株式会社,東京都,渋谷区,神泉町２０番２１号クロスシー渋谷神泉ビル,,13,113,1500045,,,,,,,2025-09-04,1,,,,,ユーリアルター,0
1967,8011003022485,新規,0,2025-09-04,2025-09-04,合同会社Ｔｉａｐ,,合同会社,東京都,渋谷区,道玄坂１丁目１０番８号渋谷道玄坂東急ビル２Ｆ―Ｃ,,13,113,1500043,,,,,,,2025-09-04,1,,,,,タイアップ,0
1968,8011101112857,新規,0,2025-09-04,2025-09-04,エポック株式会社,,株式会社,東京都,新宿区,市谷加賀町１丁目２番１－６２７号,,13,104,1620062,,,,,,,2025-09-04,1,,,,,エポック,0
1969,8011103016263,新規,0,2025-09-04,2025-09-04,合同会社Ｓｍａｒｔ　Ｃｒｅｗ,,合同会社,東京都,新宿区,西新宿６丁目５番１号新宿アイランドタワー２階,,13,104,1600023,,,,,,,2025-09-04,1,,,,,スマートクルー,0
1970,8011103016271,新規,0,2025-09-04,2025-09-04,ＮＯＷＡ合同会社,,合同会社,東京都,新宿区,西新宿７丁目１７番１４号,,13,104,1600023,,,,,,,2025-09-04,1,,,,,ノワ,0
1972,8011201026610,新規,0,2025-09-04,2025-09-04,株式会社Ｓｔｕｄｉｏ　Ｍｏｏｎ　Ｒｉｖｅｒ,,株式会社,東京都,中野区,中央２丁目３０番９号山王ＭＧＴビル２２６号室,,13,114,1640011,,,,,,,2025-09-04,1,,,,,スタジオムーンリバー,0
1973,8011301030850,新規,0,2025-09-04,2025-09-04,株式会社Ｒａｐｐｏｒｔｏ,,株式会社,東京都,杉並区,成田東２丁目３９番２７－４０４号,,13,115,1660015,,,,,,,2025-09-04,1,,,,,ラポルト,0
1979,8011401027375,新規,0,2025-09-04,2025-09-04,株式会社ＲＹＵＳＥＩ　ＣＯＭＰＡＮＹ,,株式会社,東京都,板橋区,赤塚６丁目６番１４号１０５,,13,119,1750092,,,,,,,2025-09-04,1,,,,,リュウセイカンパニー,0
1985,8011701028684,新規,0,2025-09-04,2025-09-04,オーシャンジェイコンサルティング＆トレーディング株式会社,,株式会社,東京都,江戸川区,北小岩７丁目２１番４－２０１号,,13,123,1330051,,,,,,,2025-09-04,1,,,,,オーシャンジェイコンサルティングアンドトレーディング,0
1986,8011801046685,新規,0,2025-09-04,2025-09-04,株式会社ＢＺＬ,,株式会社,東京都,足立区,保木間３丁目３５－１２,,13,121,1210064,,,,,,,2025-09-04,1,,,,,ビーゼーエル,0
1987,8011805003476,新規,0,2025-09-04,2025-09-04,医療法人社団珠真会,,その他の設立登記法人,東京都,足立区,梅田７丁目３４番１０号梅島クリニックモール２階,,13,121,1230851,,,,,,,2025-09-04,1,,,,,ジュシンカイ,0
1997,8013301054887,新規,0,2025-09-04,2025-09-04,株式会社可也不動産,,株式会社,東京都,豊島区,東池袋２丁目６２番８号ビックオフィスプラザ５０５,,13,116,1700013,,,,,,,2025-09-04,1,,,,,カヤフドウサン,0
2004,8020001164529,新規,0,2025-09-04,2025-09-04,株式会社Ｍ．Ｍ　Ｐｌａｎｅｔ,,株式会社,神奈川県,横浜市保土ケ谷区,西谷２丁目３２番１号,,14,106,2400054,,,,,,,2025-09-04,1,,,,,エムエムプラネット,0
2006,8020003029267,新規,0,2025-09-04,2025-09-04,ＫＭ合同会社,,合同会社,神奈川県,横浜市鶴見区,矢向４丁目１番１３号,,14,101,2300001,,,,,,,2025-09-04,1,,,,,ケーエム,0
2013,8030001168413,新規,0,2025-09-04,2025-09-04,株式会社Ｍｅｔａｌ　Ｍｅｉｓｔｅｒ,,株式会社,埼玉県,川口市,大字峯１３４,,11,203,3340056,,,,,,,2025-09-04,1,,,,,メタルマイスター,0
2014,8030001168462,新規,0,2025-09-04,2025-09-04,株式会社ロウズ,,株式会社,埼玉県,北葛飾郡松伏町,大字大川戸７４２－５,,11,465,3430106,,,,,,,2025-09-04,1,,,,,ロウズ,0
2015,8030001168470,新規,0,2025-09-04,2025-09-04,株式会社ＴＳＵＮＡＧＩＶＥＲ,,株式会社,埼玉県,朝霞市,仲町２丁目６番２６号,,11,227,3510006,,,,,,,2025-09-04,1,,,,,ツナギバ,0
2016,8030001168479,新規,0,2025-09-04,2025-09-04,株式会社架空芸術未来堂,,株式会社,埼玉県,さいたま市西区,大字指扇２６５５番地３,,11,101,3310047,,,,,,,2025-09-04,1,,,,,カクウゲイジュツミライドウ,0
2019,8030003027501,新規,0,2025-09-04,2025-09-04,合同会社Ｋ・ＭＳ,,合同会社,埼玉県,草加市,新里町６６２,,11,221,3400031,,,,,,,2025-09-04,1,,,,,ケードットエムエス,0
2029,8040001140313,新規,0,2025-09-04,2025-09-04,ＺＡＫＩ株式会社,,株式会社,千葉県,佐倉市,江原台１丁目２２－８－１０３,,12,212,2850825,,,,,,,2025-09-04,1,,,,,ザキ,0
2030,8040001140338,新規,0,2025-09-04,2025-09-04,株式会社ＰＡＤＤＬＥ,,株式会社,千葉県,船橋市,宮本３丁目２番地３４号マイン船橋Ａ棟１０５号室,,12,204,2730003,,,,,,,2025-09-04,1,,,,,パドル,0
2034,8050001057201,新規,0,2025-09-04,2025-09-04,ＫＲＩＳＨＡ株式会社,,株式会社,茨城県,稲敷郡阿見町,大字阿見２６４７－４,,08,443,3000331,,,,,,,2025-09-04,1,,,,,キリサ,0
2035,8050001057226,新規,0,2025-09-04,2025-09-04,株式会社Ｂプラス,,株式会社,茨城県,東茨城郡茨城町,大字中石崎１３６１番地６,,08,302,3113124,,,,,,,2025-09-04,1,,,,,ビープラス,0
2037,8050003009530,新規,0,2025-09-04,2025-09-04,合同会社くじらぐも,,合同会社,茨城県,龍ケ崎市,白羽３丁目２番地１,,08,208,3010841,,,,,,,2025-09-04,1,,,,,クジラグモ,0
2038,8060001038539,新規,0,2025-09-04,2025-09-04,株式会社ほめあい,,株式会社,栃木県,宇都宮市,峰町５７２番地２,,09,201,3210943,,,,,,,2025-09-04,1,,,,,ホメアイ,0
2039,8060003005719,新規,0,2025-09-04,2025-09-04,ＡＫＢＥＲ　ＴＲＡＤＩＮＧ合同会社,,合同会社,栃木県,日光市,山口８０５－９,,09,206,3212343,,,,,,,2025-09-04,1,,,,,アクバルトレーディング,0
2040,8060003005727,新規,0,2025-09-04,2025-09-04,合同会社アトリエ・エヌ＆エム企画,,合同会社,栃木県,大田原市,佐久山１９６０番地５,,09,210,3240032,,,,,,,2025-09-04,1,,,,,アトリエエヌアンドエムキカク,0
2043,8070001043307,新規,0,2025-09-04,2025-09-04,ライズアップ株式会社,,株式会社,群馬県,高崎市,柳川町３５番地,,10,202,3700815,,,,,,,2025-09-04,1,,,,,ライズアップ,0
2044,8070001043315,新規,0,2025-09-04,2025-09-04,ストレスチェック面談支援株式会社,,株式会社,群馬県,高崎市,下之城町５８４番地７０,,10,202,3700854,,,,,,,2025-09-04,1,,,,,ストレスチェックメンダンシエン,0
2048,8080003003547,新規,0,2025-09-04,2025-09-04,安東合同会社,,合同会社,静岡県,静岡市葵区,安東１丁目１３番１５号,,22,101,4200882,,,,,,,2025-09-04,1,,,,,アンドウ,0
2049,8080101025757,新規,0,2025-09-04,2025-09-04,株式会社伊豆高原ローカルフードサービス,,株式会社,静岡県,伊東市,富戸１０２０番地の２７４,,22,208,4130231,,,,,,,2025-09-04,1,,,,,イズコウゲンローカルフードサービス,0
2050,8080101025765,新規,0,2025-09-04,2025-09-04,株式会社ブラストタスク,,株式会社,静岡県,駿東郡清水町,徳倉１８９２番地スカイコート１０１,,22,341,4110917,,,,,,,2025-09-04,1,,,,,ブラストタスク,0
2051,8080103003414,新規,0,2025-09-04,2025-09-04,ＭＩＮＨ　ＨＩＥＮ合同会社,,合同会社,静岡県,沼津市,西間門１８０番地の１セジュール風間Ｃ１０１,,22,203,4100871,,,,,,,2025-09-04,1,,,,,ミンヒエン,0
2064,8120001279218,新規,0,2025-09-04,2025-09-04,龍誠株式会社,,株式会社,大阪府,大阪市城東区,東中浜８丁目５番２３号３０１室,,27,118,5360023,,,,,,,2025-09-04,1,,,,,リュウセイ,0
2065,8120001279267,新規,0,2025-09-04,2025-09-04,株式会社Ｎｅｗ　ｔｉｍｅｓ　ｓｕｐｐｌｙ,,株式会社,大阪府,大阪市北区,西天満１丁目２番２５号ＳＱＵＡＲＥ北浜１Ｆ,,27,127,5300047,,,,,,,2025-09-04,1,,,,,ニュータイムズサプライ,0
2066,8120001279440,新規,0,2025-09-04,2025-09-04,株式会社ＢＯＳＳ,,株式会社,大阪府,大阪市西区,南堀江１丁目３番１２－２２０１号,,27,106,5500015,,,,,,,2025-09-04,1,,,,,ボス,0
2067,8120001279473,新規,0,2025-09-04,2025-09-04,株式会社ｇｒｏｗｅ,,株式会社,大阪府,大阪市北区,梅田１丁目２番２号大阪駅前第２ビル１２－１２,,27,127,5300001,,,,,,,2025-09-04,1,,,,,グロウ,0
2068,8120001279548,新規,0,2025-09-04,2025-09-04,株式会社Ｃｌｉｐｖｅｒｓｅ,,株式会社,大阪府,大阪市北区,曾根崎１丁目３‐６‐５０２,,27,127,5300057,,,,,,,2025-09-04,1,,,,,クリップバース,0
2078,8130001080426,新規,0,2025-09-04,2025-09-04,奇帆株式会社,,株式会社,京都府,京都市北区,西賀茂北川上町６８番１,,26,101,6038816,,,,,,,2025-09-04,1,,,,,キハン,0
2079,8130003010744,新規,0,2025-09-04,2025-09-04,合同会社旺利ｃｏｒｐｏｒａｔｉｏｎ,,合同会社,京都府,京都市下京区,小稲荷町８５番地２Ｇｒａｎｄ－Ｋ京都駅前ビル２０１,,26,106,6008208,,,,,,,2025-09-04,1,,,,,オウリコーポレーション,0
2080,8140001139857,新規,0,2025-09-04,2025-09-04,株式会社竹内エンザイム,,株式会社,兵庫県,神戸市西区,神出町古神６９７番地,,28,111,6512302,,,,,,,2025-09-04,1,,,,,タケウチエンザイム,0
2081,8140001139873,新規,0,2025-09-04,2025-09-04,神戸中央人事労務コンサルティング株式会社,,株式会社,兵庫県,神戸市中央区,磯辺通４丁目２番８号田嶋ビル,,28,110,6510084,,,,,,,2025-09-04,1,,,,,コウベチュウオウジンジロウムコンサルティング,0
2082,8140001139915,新規,0,2025-09-04,2025-09-04,あいヘルスケア株式会社,,株式会社,兵庫県,明石市,松の内２丁目２番地の１ワコーレ西明石ステーションマークス６０２号,,28,203,6730016,,,,,,,2025-09-04,1,,,,,アイヘルスケア,0
2083,8140001139948,新規,0,2025-09-04,2025-09-04,株式会社Ｄ‐ＳＴＵＤＩＯ,,株式会社,兵庫県,南あわじ市,八木鳥井４２３－２１,,28,224,6560433,,,,,,,2025-09-04,1,,,,,ディースタジオ,0
2085,8140003022524,新規,0,2025-09-04,2025-09-04,ＡＺＩＺ　ＡＵＴＯ　ＴＲＡＤＩＮＧ合同会社,,合同会社,兵庫県,神戸市西区,南別府１丁目６－５,,28,111,6512116,,,,,,,2025-09-04,1,,,,,アジズオートトレーディング,0
2086,8140003022540,新規,0,2025-09-04,2025-09-04,合同会社ピアラボ,,合同会社,兵庫県,宝塚市,末成町３９番２３号,,28,214,6650044,,,,,,,2025-09-04,1,,,,,ピアラボ,0
2089,8140005027620,新規,0,2025-09-04,2025-09-04,一般社団法人月心,,その他の設立登記法人,兵庫県,たつの市,龍野町立町３８番地,,28,229,6794164,,,,,,,2025-09-04,1,,,,,ツキゴコロ,0
2092,8160001027036,新規,0,2025-09-04,2025-09-04,株式会社マウンテージ,,株式会社,滋賀県,草津市,笠山４丁目１２番６５－１１１号パレ南笠佐わらび,,25,206,5250072,,,,,,,2025-09-04,1,,,,,マウンテージ,0
2101,8180001168480,新規,0,2025-09-04,2025-09-04,株式会社ＭｏｕｔｈＬｉｎｋ,,株式会社,愛知県,名古屋市中区,栄１丁目４－８カジウラビル４階,,23,106,4600008,,,,,,,2025-09-04,1,,,,,マウスリンク,0
2111,8180303006710,新規,0,2025-09-04,2025-09-04,中部総合管理サービス合同会社,,合同会社,愛知県,豊田市,美里２丁目１３番地４４,,23,211,4710805,,,,,,,2025-09-04,1,,,,,チュウブソウゴウカンリサービス,0
2112,8180303006719,新規,0,2025-09-04,2025-09-04,合同会社ＪＯＵＲＡＮ,,合同会社,愛知県,岡崎市,宇頭町字下山田２－１８,,23,202,4440905,,,,,,,2025-09-04,1,,,,,ジョウラン,0
2120,8200001044183,新規,0,2025-09-04,2025-09-04,岐阜生成ＡＩ活用株式会社,,株式会社,岐阜県,岐阜市,薮田南３丁目７番２０号,,21,201,5008384,,,,,,,2025-09-04,1,,,,,ギフセイセイエーアイカツヨウ,0
2121,8200001044191,新規,0,2025-09-04,2025-09-04,株式会社ＳＮＯＷ＆ＬＩＦＥ,,株式会社,岐阜県,郡上市,高鷲町大鷲２０５１番地１０,,21,219,5015303,,,,,,,2025-09-04,1,,,,,スノウアンドライフ,0
2125,8220001026907,新規,0,2025-09-04,2025-09-04,株式会社ヒルティップトラベルサービス,,株式会社,石川県,加賀市,大聖寺上福田町ト１１番地,,17,206,9220004,,,,,,,2025-09-04,1,,,,,ヒルティップトラベルサービス,0
2128,8230003002491,新規,0,2025-09-04,2025-09-04,ゆきとやま合同会社,,合同会社,富山県,滑川市,柳原１２番地３３,,16,206,9360023,,,,,,,2025-09-04,1,,,,,ユキトヤマ,0
2129,8240001065457,新規,0,2025-09-04,2025-09-04,エステック株式会社,,株式会社,広島県,尾道市,因島田熊町１番地１,,34,205,7222324,,,,,,,2025-09-04,1,,,,,エステック,0
2130,8240001065465,新規,0,2025-09-04,2025-09-04,株式会社ＮｅＣＯ．,,株式会社,広島県,広島市安佐北区,落合南１丁目１１番１６号２Ｆ,,34,106,7391732,,,,,,,2025-09-04,1,,,,,ネコ,0
2133,8240003007390,新規,0,2025-09-04,2025-09-04,合同会社銀杏,,合同会社,広島県,福山市,伏見町４番３３号フジモトビル７Ｆ,,34,207,7200062,,,,,,,2025-09-04,1,,,,,イチョウ,0
2147,8290001111421,新規,0,2025-09-04,2025-09-04,株式会社ＫＩロジ,,株式会社,福岡県,福岡市東区,多の津１丁目３番１号,,40,131,8130034,,,,,,,2025-09-04,1,,,,,ケイアイロジ,0
2154,8300001014341,新規,0,2025-09-04,2025-09-04,ＧＡＭＥ　ＯＮ．株式会社,,株式会社,佐賀県,唐津市,町田１丁目２３４０－１,,41,202,8470821,,,,,,,2025-09-04,1,,,,,ゲームオン,0
2160,8320001021311,新規,0,2025-09-04,2025-09-04,株式会社ミヤサカ,,株式会社,大分県,大分市,大字田尻５８９番地の１,,44,201,8701143,,,,,,,2025-09-04,1,,,,,ミヤサカ,0
2168,8360001035720,新規,0,2025-09-04,2025-09-04,株式会社ＡＬＬ　ＢＬＵＥ　ＯＫＩＮＡＷＡ,,株式会社,沖縄県,国頭郡宜野座村,字惣慶８０４番地,,47,313,9041303,,,,,,,2025-09-04,1,,,,,オールブルーオキナワ,0
2169,8360001035737,新規,0,2025-09-04,2025-09-04,株式会社ＬＩＦＥ＆ＨＯＭＥ,,株式会社,沖縄県,沖縄市,東１丁目４－１８東マンション１０１号,,47,211,9042154,,,,,,,2025-09-04,1,,,,,ライフアンドホーム,0
2171,8360003015225,新規,0,2025-09-04,2025-09-04,合同会社特急社,,合同会社,沖縄県,那覇市,字国場１１７１番地１０大嘉数アパート３０１,,47,201,9020075,,,,,,,2025-09-04,1,,,,,トッキュウシャ,0
2173,8370001052995,新規,0,2025-09-04,2025-09-04,株式会社吉田企画,,株式会社,宮城県,仙台市宮城野区,原町３丁目１番８号原町プラザ２－Ｃ２,,04,102,9830841,,,,,,,2025-09-04,1,,,,,ヨシダキカク,0
2174,8370001053003,新規,0,2025-09-04,2025-09-04,株式会社キノコメ工房,,株式会社,宮城県,加美郡加美町,下新田字太田１２６番地,,04,445,9814222,,,,,,,2025-09-04,1,,,,,キノコメコウボウ,0
2181,8390005009131,新規,0,2025-09-04,2025-09-04,特定非営利活動法人愛キッズ,,その他の設立登記法人,山形県,米沢市,大字下新田１６２８番地の２,,06,202,9920111,,,,,,,2025-09-04,1,,,,,アイキッズ,0
2189,8440001009674,新規,0,2025-09-04,2025-09-04,ＨＯＫＵＥＩ　ＡＲＫ　ＨＬＤＧＳ株式会社,,株式会社,北海道,函館市,石川町５４２番地６,,01,202,0410802,,,,,,,2025-09-04,1,,,,,ホクエイアークホールディングス,0
2190,8470001020876,新規,0,2025-09-04,2025-09-04,株式会社アイル,,株式会社,香川県,高松市,郷東町７９２番地１２２,,37,201,7618031,,,,,,,2025-09-04,1,,,,,アイル,0
2192,8500003003586,新規,0,2025-09-04,2025-09-04,合同会社進和,,合同会社,愛媛県,松山市,築山町７番９号,,38,201,7900864,,,,,,,2025-09-04,1,,,,,シンワ,0
2205,9010001257919,新規,0,2025-09-04,2025-09-04,株式会社Ａｃｔｕｒｅ,,株式会社,東京都,千代田区,神田須田町１丁目７番,,13,101,1010041,,,,,,,2025-09-04,1,,,,,アクチュア,0
2206,9010001258132,新規,0,2025-09-04,2025-09-04,株式会社政策実装センター,,株式会社,東京都,千代田区,神田神保町２丁目１０－３１ＩＷビル１Ｆ,,13,101,1010051,,,,,,,2025-09-04,1,,,,,セイサクジッソウセンター,0
2207,9010001258149,新規,0,2025-09-04,2025-09-04,ＡＲＸ株式会社,,株式会社,東京都,千代田区,神田和泉町１番地６－１６ヤマトビル４０５,,13,101,1010024,,,,,,,2025-09-04,1,,,,,アークス,0
2208,9010001258165,新規,0,2025-09-04,2025-09-04,中通国際エクスプレス株式会社,,株式会社,東京都,千代田区,神田須田町２丁目７－１Ｂｉｚｃｏｒｅ神田須田町ビル２Ｆ,,13,101,1010041,,,,,,,2025-09-04,1,,,,,チュウツウコクサイエクスプレス,0
2209,9010001258215,新規,0,2025-09-04,2025-09-04,株式会社Ｆｏｒ　Ｓｉｘ,,株式会社,東京都,千代田区,一番町１６番地４フォーシーズンズグランデ一番町７０２号,,13,101,1020082,,,,,,,2025-09-04,1,,,,,フォーシックス,0
2211,9010003048639,新規,0,2025-09-04,2025-09-04,ｍＴＡＬＫ合同会社,,合同会社,東京都,千代田区,神田錦町３丁目１５,,13,101,1010054,,,,,,,2025-09-04,1,,,,,エムトーク,0
2214,9010005040627,新規,0,2025-09-04,2025-09-04,一般社団法人横浜ピア８,,その他の設立登記法人,東京都,中央区,銀座１丁目６番１１号アースタックス税理士法人内,,13,102,1040061,,,,,,,2025-09-04,1,,,,,ヨコハマピアエイト,0
2220,9010401192897,新規,0,2025-09-04,2025-09-04,株式会社平凡,,株式会社,東京都,港区,南青山４丁目１番１号,,13,103,1070062,,,,,,,2025-09-04,1,,,,,ヘイボン,0
2225,9010403035939,新規,0,2025-09-04,2025-09-04,ＹＯＵＭＯＲＥ合同会社,,合同会社,東京都,港区,南青山２丁目２番１５号,,13,103,1070062,,,,,,,2025-09-04,1,,,,,ユーモア,0
2228,9010501054650,新規,0,2025-09-04,2025-09-04,鵬豪君励株式会社,,株式会社,東京都,台東区,上野１丁目１０－８アジア商事上野ビル６Ｆ－Ｄ,,13,106,1100005,,,,,,,2025-09-04,1,,,,,ホウゴウクンレイ,0
2229,9010503007978,新規,0,2025-09-04,2025-09-04,合同会社木村,,合同会社,東京都,台東区,蔵前４丁目５番２号,,13,106,1110051,,,,,,,2025-09-04,1,,,,,キムラ,0
2230,9010503007986,新規,0,2025-09-04,2025-09-04,合同会社三ノ輪デイセンター,,合同会社,東京都,台東区,三ノ輪１丁目２６番９号,,13,106,1100011,,,,,,,2025-09-04,1,,,,,ミノワデイセンター,0
2236,9010601067908,新規,0,2025-09-04,2025-09-04,株式会社Ｂｌｏｏｍ　ｉｎ　ｔｉｍｅ,,株式会社,東京都,江東区,南砂４丁目１２番１０－１００５号,,13,108,1360076,,,,,,,2025-09-04,1,,,,,ブルームインタイム,0
2238,9010703007893,新規,0,2025-09-04,2025-09-04,畔田測量合同会社,,合同会社,東京都,品川区,東中延１丁目７番１８号サニーテラス１０２,,13,109,1420052,,,,,,,2025-09-04,1,,,,,アゼタソクリョウ,0
2239,9010801036547,新規,0,2025-09-04,2025-09-04,株式会社サニーバイク,,株式会社,東京都,大田区,東糀谷３丁目１１番１２号,,13,111,1440033,,,,,,,2025-09-04,1,,,,,サニーバイク,0
2240,9010801036555,新規,0,2025-09-04,2025-09-04,株式会社ｋｉｎｄ　ｏｆ　ｈａｐｐｙ,,株式会社,東京都,大田区,西蒲田１丁目６番１９号,,13,111,1440051,,,,,,,2025-09-04,1,,,,,カインドオブハッピー,0
2242,9010901058020,新規,0,2025-09-04,2025-09-04,株式会社ＣａｓｓａＩ,,株式会社,東京都,世田谷区,砧２丁目１６番１－４４６号,,13,112,1570073,,,,,,,2025-09-04,1,,,,,カッサイ,0
2250,9011001172190,新規,0,2025-09-04,2025-09-04,株式会社エンヴァリス,,株式会社,東京都,渋谷区,神泉町２０番２１号,,13,113,1500045,,,,,,,2025-09-04,1,,,,,エンヴァリス,0
2251,9011001172224,新規,0,2025-09-04,2025-09-04,株式会社あにまるず,,株式会社,東京都,渋谷区,渋谷２丁目２４番１２号渋谷スクランブルスクエア３９Ｆ,,13,113,1500002,,,,,,,2025-09-04,1,,,,,アニマルズ,0
2253,9011103016304,新規,0,2025-09-04,2025-09-04,カミカゼ・グレイス・エンジニアリング合同会社,,合同会社,東京都,新宿区,新宿５丁目１０番１０号海老沢ビル２０２,,13,104,1600022,,,,,,,2025-09-04,1,,,,,カミカゼグレイスエンジニアリング,0
2255,9011305003067,新規,0,2025-09-04,2025-09-04,医療法人社団レザレクション,,その他の設立登記法人,東京都,杉並区,高円寺南１丁目７番１号陽輪台高円寺２０４号室,,13,115,1660003,,,,,,,2025-09-04,1,,,,,レザレクション,0
2259,9011603004824,新規,0,2025-09-04,2025-09-04,合同会社ミケ,,合同会社,東京都,練馬区,関町南１丁目１２番３４号ドメーヌリビエラＡ４０２,,13,120,1770053,,,,,,,2025-09-04,1,,,,,ミケ,0
2260,9011801046684,新規,0,2025-09-04,2025-09-04,株式会社ＲＥＰＯＳ,,株式会社,東京都,足立区,綾瀬４丁目６番７号,,13,121,1200005,,,,,,,2025-09-04,1,,,,,ルポ,0
2261,9011805003475,新規,0,2025-09-04,2025-09-04,医療法人社団ケアリボン,,その他の設立登記法人,東京都,足立区,千住旭町４０番２７号トラヤビル５階,,13,121,1200026,,,,,,,2025-09-04,1,,,,,ケアリボン,0
2262,9012403007315,新規,0,2025-09-04,2025-09-04,合同会社Ｒｅｂｏｎｄ,,合同会社,東京都,府中市,新町２丁目２６番地の６８,,13,206,1830052,,,,,,,2025-09-04,1,,,,,リボンド,0
2265,9012803003855,新規,0,2025-09-04,2025-09-04,合同会社ＥＦＦＯＲＴ,,合同会社,東京都,昭島市,宮沢町５１２－１パークホームズ昭島中神９１７号,,13,207,1960024,,,,,,,2025-09-04,1,,,,,エフォート,0
2267,9013301054878,新規,0,2025-09-04,2025-09-04,ＴＲＵＳＴ　ＣＡＲＧＯ　ＭＹＡＮＭＡＲ株式会社,,株式会社,東京都,豊島区,北大塚２丁目３３番１９号Ｔ．Ｍ．グリーンヒルズ２０２号,,13,116,1700004,,,,,,,2025-09-04,1,,,,,トラストカーゴミャンマー,0
2273,9021001086225,新規,0,2025-09-04,2025-09-04,株式会社廣重,,株式会社,神奈川県,藤沢市,本藤沢５丁目２番８号,,14,205,2510875,,,,,,,2025-09-04,1,,,,,ヒロシゲ,0
2282,9021003016502,新規,0,2025-09-04,2025-09-04,合同会社ＨＫ,,合同会社,神奈川県,藤沢市,辻堂元町５丁目９番２０号,,14,205,2510043,,,,,,,2025-09-04,1,,,,,エイチケー,0
2283,9030001168387,新規,0,2025-09-04,2025-09-04,ホビーマッチ株式会社,,株式会社,埼玉県,川口市,大字安行原２５３４番地の１０,,11,203,3340057,,,,,,,2025-09-04,1,,,,,ホビーマッチ,0
2284,9030001168445,新規,0,2025-09-04,2025-09-04,株式会社Ｒ．Ｙ．ＥＮＴＥＲＰＲＩＳＥ,,株式会社,埼玉県,入間市,扇台２丁目１番２１号,,11,225,3580023,,,,,,,2025-09-04,1,,,,,アールワイエンタープライズ,0
2285,9030001168453,新規,0,2025-09-04,2025-09-04,株式会社石井製作所,,株式会社,埼玉県,坂戸市,大字中小坂大穴７５９番地１,,11,239,3500206,,,,,,,2025-09-04,1,,,,,イシイセイサクショ,0
2293,9040001140329,新規,0,2025-09-04,2025-09-04,株式会社相互地所,,株式会社,千葉県,市原市,国分寺台中央１丁目５番地３白い館２０３,,12,219,2900073,,,,,,,2025-09-04,1,,,,,ソウゴジショ,0
2294,9040001140353,新規,0,2025-09-04,2025-09-04,Ｌａｖｏ　Ｉｎｔｅｒｎａｔｉｏｎａｌ株式会社,,株式会社,千葉県,印西市,草深２５３０番地５６,,12,231,2701337,,,,,,,2025-09-04,1,,,,,ラボインターナショナル,0
2295,9040001140394,新規,0,2025-09-04,2025-09-04,株式会社ＺＯＯメディアサービスＥＡＳＴ,,株式会社,千葉県,八街市,八街に１００番地２,,12,230,2891103,,,,,,,2025-09-04,1,,,,,ズーメディアサービスイースト,0
2306,9050001057200,新規,0,2025-09-04,2025-09-04,ＴＨＥ　ＴＡＣＫ　ＲＯＯＭ株式会社,,株式会社,茨城県,稲敷郡美浦村,大字興津４９４番地,,08,442,3000425,,,,,,,2025-09-04,1,,,,,ザタックルーム,0
2307,9050001057209,新規,0,2025-09-04,2025-09-04,農業法人やすらぎファーム株式会社,,株式会社,茨城県,稲敷郡阿見町,大字荒川本郷２８８０番地２,,08,443,3001152,,,,,,,2025-09-04,1,,,,,ノウギョウホウジンヤスラギファーム,0
2308,9050001057217,新規,0,2025-09-04,2025-09-04,株式会社Ｋａｎｏａ,,株式会社,茨城県,水戸市,泉町３丁目５番３号二番街ビル２階,,08,201,3100026,,,,,,,2025-09-04,1,,,,,カノア,0
2309,9050001057225,新規,0,2025-09-04,2025-09-04,グローバルリクルートメント株式会社,,株式会社,茨城県,つくば市,並木２丁目１１番地２４,,08,220,3050044,,,,,,,2025-09-04,1,,,,,グローバルリクルートメント,0
2310,9050005013686,新規,0,2025-09-04,2025-09-04,一般社団法人水戸台湾友好協会,,その他の設立登記法人,茨城県,水戸市,大工町１丁目２番２２号,,08,201,3100031,,,,,,,2025-09-04,1,,,,,ミトタイワンユウコウキョウカイ,0
2316,9060003005726,新規,0,2025-09-04,2025-09-04,ライトニング合同会社,,合同会社,栃木県,小山市,大字乙女６５９番地２７,,09,208,3290214,,,,,,,2025-09-04,1,,,,,ライトニング,0
2317,9070001043306,新規,0,2025-09-04,2025-09-04,株式会社バリウス,,株式会社,群馬県,桐生市,天神町３丁目１２番２３号,,10,203,3760052,,,,,,,2025-09-04,1,,,,,バリウス,0
2318,9070001043322,新規,0,2025-09-04,2025-09-04,株式会社ＹＭ工業,,株式会社,群馬県,富岡市,上丹生２８６１番地１,,10,210,3702461,,,,,,,2025-09-04,1,,,,,ワイエムコウギョウ,0
2319,9070003006070,新規,0,2025-09-04,2025-09-04,合同会社Ｔ＆Ｙ,,合同会社,群馬県,前橋市,下小出町１丁目１９番地１４,,10,201,3710031,,,,,,,2025-09-04,1,,,,,ティーアンドワイ,0
2321,9090001019493,新規,0,2025-09-04,2025-09-04,株式会社丸山養鯉場,,株式会社,山梨県,南アルプス市,江原１３７４番地１,,19,208,4000401,,,,,,,2025-09-04,1,,,,,マルヤマヨウリジョウ,0
2325,9110003005869,新規,0,2025-09-04,2025-09-04,次世代単結晶基板実用加工開発センター合同会社,,合同会社,新潟県,長岡市,袋町３丁目１１０１番地１,,15,202,9400055,,,,,,,2025-09-04,1,,,,,ジセダイタンケッショウキバンジツヨウカコウカイハツセンター,0
2337,9120001279274,新規,0,2025-09-04,2025-09-04,株式会社バレエ言,,株式会社,大阪府,大阪市天王寺区,筆ケ崎町２番１０－６０３号,,27,109,5430027,,,,,,,2025-09-04,1,,,,,バレエゲン,0
2338,9120001279282,新規,0,2025-09-04,2025-09-04,株式会社桜ノ舞,,株式会社,大阪府,大阪市西成区,鶴見橋３丁目４番４号,,27,122,5570031,,,,,,,2025-09-04,1,,,,,サクラノマイ,0
2339,9120001279373,新規,0,2025-09-04,2025-09-04,株式会社エスアール・テクニカ,,株式会社,大阪府,大阪市中央区,淡路町２丁目５番１６号淡路町ビル７Ｆ,,27,128,5410047,,,,,,,2025-09-04,1,,,,,エスアールテクニカ,0
2340,9120003030486,新規,0,2025-09-04,2025-09-04,合同会社ＲＡＳＨＩＫＵ,,合同会社,大阪府,大阪市中央区,南船場３丁目２番２２号おおきに南船場ビル２０５,,27,128,5420081,,,,,,,2025-09-04,1,,,,,ラシク,0
2342,9120101072380,新規,0,2025-09-04,2025-09-04,芝尾農園株式会社,,株式会社,大阪府,堺市北区,金岡町２２３９番地,,27,146,5918022,,,,,,,2025-09-04,1,,,,,シバオノウエン,0
2345,9122001039600,新規,0,2025-09-04,2025-09-04,ＳＴＡＲＴ　ＥＮＤ株式会社,,株式会社,大阪府,四條畷市,岡山２丁目１１番３号,,27,229,5750002,,,,,,,2025-09-04,1,,,,,スタートエンド,0
2350,9130001080409,新規,0,2025-09-04,2025-09-04,株式会社ＦＵＬＡＸＩＳ,,株式会社,京都府,京都市南区,久世上久世町５４２パークテラス桂川６０６,,26,107,6018212,,,,,,,2025-09-04,1,,,,,フラクシス,0
2351,9130003010719,新規,0,2025-09-04,2025-09-04,合同会社ＳＡＮＳＵＩ　ＳＴＡＹ,,合同会社,京都府,京都市下京区,東洞院通綾小路下る扇酒屋町２９３－２シャルマン小森１０７,,26,106,6008095,,,,,,,2025-09-04,1,,,,,サンスイステイ,0
2352,9130003010727,新規,0,2025-09-04,2025-09-04,合同会社八緒,,合同会社,京都府,京都市左京区,新高倉孫橋上る法皇寺町４３２番地,,26,103,6060000,,,,,,,2025-09-04,1,,,,,ヤオ,0
2355,9140001139856,新規,0,2025-09-04,2025-09-04,優櫟貿易株式会社,,株式会社,兵庫県,神戸市中央区,脇浜町３丁目２番３号,,28,110,6510072,,,,,,,2025-09-04,1,,,,,ユウレキボウエキ,0
2356,9140001139864,新規,0,2025-09-04,2025-09-04,株式会社ＹＫ　ＥＮＧ,,株式会社,兵庫県,丹波市,氷上町常楽１０９９番地１第２タカ荘Ｅ号,,28,223,6693602,,,,,,,2025-09-04,1,,,,,ワイケイエンジ,0
2357,9140001139880,新規,0,2025-09-04,2025-09-04,株式会社繁昌コーポレーション,,株式会社,兵庫県,加西市,繁昌町８９４番地,,28,220,6752101,,,,,,,2025-09-04,1,,,,,ハンジョウコーポレーション,0
2358,9140001139897,新規,0,2025-09-04,2025-09-04,エイトウッド株式会社,,株式会社,兵庫県,姫路市,夢前町護持１３６４番地５４８,,28,201,6712136,,,,,,,2025-09-04,1,,,,,エイトウッド,0
2359,9140001139947,新規,0,2025-09-04,2025-09-04,株式会社青柳ニューシングス,,株式会社,兵庫県,神戸市灘区,大土平町１丁目４番１１－７０４号,,28,102,6570014,,,,,,,2025-09-04,1,,,,,アオヤギニューシングス,0
2360,9140003022515,新規,0,2025-09-04,2025-09-04,合同会社聖すけひろ,,合同会社,兵庫県,高砂市,伊保港町１丁目７番２号,,28,216,6760072,,,,,,,2025-09-04,1,,,,,セイスケヒロ,0
2361,9140003022523,新規,0,2025-09-04,2025-09-04,合同会社よりも美しく,,合同会社,兵庫県,神戸市東灘区,本山北町４丁目１０番１０号,,28,101,6580003,,,,,,,2025-09-04,1,,,,,ヨリモウツクシク,0
2362,9140003022531,新規,0,2025-09-04,2025-09-04,合同会社ｉＭＡＧ,,合同会社,兵庫県,南あわじ市,倭文長田２８１番地２０,,28,224,6560152,,,,,,,2025-09-04,1,,,,,アイマグ,0
2363,9150001028380,新規,0,2025-09-04,2025-09-04,株式会社川端建設,,株式会社,奈良県,生駒郡斑鳩町,龍田北６丁目１番１４号,00140518,29,344,6360151,,,,,,,2025-09-04,1,,,,,カワバタケンセツ,0
2364,9150003003695,新規,0,2025-09-04,2025-09-04,合同会社ＭＡＲＯＩ,,合同会社,奈良県,生駒市,小瀬町１０８番３号ジュネスＮ１０２号室,,29,209,6300223,,,,,,,2025-09-04,1,,,,,マロイ,0
2373,9180001168439,新規,0,2025-09-04,2025-09-04,ＷｉｔｈＡｇｉｎｇ株式会社,,株式会社,愛知県,名古屋市緑区,諸の木３丁目２０２３番地,,23,114,4580817,,,,,,,2025-09-04,1,,,,,ウィズエイジング,0
2374,9180001168488,新規,0,2025-09-04,2025-09-04,株式会社ＳＫワイズ,,株式会社,愛知県,清須市,春日小松生５０番地,,23,233,4520961,,,,,,,2025-09-04,1,,,,,エスケイワイズ,0
2375,9180001168505,新規,0,2025-09-04,2025-09-04,株式会社ＦＡＮＣＹＷＯＲＫＳ,,株式会社,愛知県,名古屋市東区,泉１丁目１５番２３号,,23,102,4610001,,,,,,,2025-09-04,1,,,,,ファンシーワーク,0
2384,9180301040157,新規,0,2025-09-04,2025-09-04,株式会社ａｌｆｇｒａｎ,,株式会社,愛知県,安城市,住吉町６丁目８番４号,,23,212,4460072,,,,,,,2025-09-04,1,,,,,アルフグラン,0
2385,9180301040173,新規,0,2025-09-04,2025-09-04,株式会社とみだ葬遺,,株式会社,愛知県,岡崎市,大門３丁目２１番地３,,23,202,4442135,,,,,,,2025-09-04,1,,,,,トミダソウイ,0
2387,9200001044199,新規,0,2025-09-04,2025-09-04,株式会社ＢＡＲＡＱＡ　ＧＬＯＢＡＬ,,株式会社,岐阜県,岐阜市,鹿島町８丁目３９番地第２アトランビル４０２号室,,21,201,5008323,,,,,,,2025-09-04,1,,,,,バラカグローバル,0
2389,9210001020298,新規,0,2025-09-04,2025-09-04,株式会社ＭＴＭ,,株式会社,福井県,敦賀市,野神６７号３番地の１,,18,202,9140121,,,,,,,2025-09-04,1,,,,,エムティーエム,0
2397,9240001065464,新規,0,2025-09-04,2025-09-04,株式会社Ｈｉｒｏｓｈｉｍａ欅Ｓｗｅｅｔｓ,,株式会社,広島県,広島市安佐北区,亀山２丁目２－２５サントピアトムテ１０３,,34,106,7310231,,,,,,,2025-09-04,1,,,,,ヒロシマケヤキスウィーツ,0
2401,9260001040498,新規,0,2025-09-04,2025-09-04,株式会社ｄａｒｒｙ　ｍｅｎｄｙ,,株式会社,岡山県,岡山市北区,中山下１丁目１１番１５号新田第１ビル４０２,,33,101,7000821,,,,,,,2025-09-04,1,,,,,ダリーメンディー,0
2412,9290001111387,新規,0,2025-09-04,2025-09-04,株式会社ＴＳＵＭＵ　ＮＥＴ,,株式会社,福岡県,福岡市中央区,清川３丁目１５番９号リューデサンテ１階,,40,133,8100005,,,,,,,2025-09-04,1,,,,,ツムネット,0
2414,9290003017384,新規,0,2025-09-04,2025-09-04,合同会社大日和,,合同会社,福岡県,春日市,惣利２丁目３２番地メゾン春日南６０２号,,40,218,8160813,,,,,,,2025-09-04,1,,,,,ダイビヨリ,0
2417,9290801031818,新規,0,2025-09-04,2025-09-04,株式会社Ｇｕｉｄａｎｃｅ,,株式会社,福岡県,北九州市小倉北区,紺屋町２番１３号デザイナーズザ旦過１３０１,,40,106,8020081,,,,,,,2025-09-04,1,,,,,ガイダンス,0
2419,9300001014340,新規,0,2025-09-04,2025-09-04,株式会社ＩＮＧホールディングス,,株式会社,佐賀県,佐賀市,新郷本町４４番１,,41,201,8400017,,,,,,,2025-09-04,1,,,,,アイエヌジーホールディングス,0
2422,9310001019776,新規,0,2025-09-04,2025-09-04,株式会社北川,,株式会社,長崎県,五島市,上崎山町６１番地５,,42,211,8530023,,,,,,,2025-09-04,1,,,,,キタガワ,0
2423,9310003005080,新規,0,2025-09-04,2025-09-04,合同会社ＹＯＰ,,合同会社,長崎県,大村市,水主町１丁目９７８番地３５,,42,205,8560827,,,,,,,2025-09-04,1,,,,,ワイオーピー,0
2426,9320001021310,新規,0,2025-09-04,2025-09-04,株式会社アトラス,,株式会社,大分県,別府市,鉄輪東１０番６号,,44,202,8740042,,,,,,,2025-09-04,1,,,,,アトラス,0
2427,9330003011201,新規,0,2025-09-04,2025-09-04,アイスリー合同会社,,合同会社,熊本県,熊本市中央区,花畑町１番１４号Ａ＆Ｍ・ＨＡＮＡＢＡＴＡ３０１号,,43,101,8600806,,,,,,,2025-09-04,1,,,,,アイスリー,0
2429,9340003004939,新規,0,2025-09-04,2025-09-04,ＢｌｕｅＭａｐｌｅ合同会社,,合同会社,鹿児島県,鹿児島市,松陽台町５９番地１,,46,201,8992707,,,,,,,2025-09-04,1,,,,,ブルーメープル,0
2430,9350001019715,新規,0,2025-09-04,2025-09-04,株式会社ＺＥＲＯ　ＢＲＩＤ,,株式会社,宮崎県,延岡市,東本小路１番地８マザーアースマンション６０２,,45,203,8820813,,,,,,,2025-09-04,1,,,,,ゼロブリッド,0
2433,9360001035736,新規,0,2025-09-04,2025-09-04,株式会社ＳＵＮクリーニング,,株式会社,沖縄県,那覇市,識名１丁目１４－１７,,47,201,9020078,,,,,,,2025-09-04,1,,,,,サンクリーニング,0
2434,9360001035744,新規,0,2025-09-04,2025-09-04,株式会社石川デザイン,,株式会社,沖縄県,うるま市,石川東山本町１丁目１５番１３号,,47,213,9041101,,,,,,,2025-09-04,1,,,,,イシカワデザイン,0
2438,9390001018093,新規,0,2025-09-04,2025-09-04,ＹＷＩＳＥ　ＶＩＳＩＯＮ　ＨＯＬＤＩＮＧＳ株式会社,,株式会社,山形県,上山市,松山２丁目６番３９号,,06,207,9993146,,,,,,,2025-09-04,1,,,,,ワイズビジョンホールディングス,0
2439,9390005009130,新規,0,2025-09-04,2025-09-04,特定非営利活動法人スローライフな音楽活動,,その他の設立登記法人,山形県,上山市,石堂６番５０－４号,,06,207,9993231,,,,,,,2025-09-04,1,,,,,,0
2445,9430001095137,新規,0,2025-09-04,2025-09-04,株式会社ゆきとき,,株式会社,北海道,虻田郡倶知安町,南四条東１丁目１０番１１,,01,400,0440014,,,,,,,2025-09-04,1,,,,,ユキトキ,0
2446,9430001095145,新規,0,2025-09-04,2025-09-04,Ａｄｉｆｙ株式会社,,株式会社,北海道,札幌市中央区,南四条西６丁目１３番地１,,01,101,0640804,,,,,,,2025-09-04,1,,,,,アディファイ,0
2447,9430001095211,新規,0,2025-09-04,2025-09-04,株式会社Ｈ．Ｂｕｓｉｎｅｓｓ,,株式会社,北海道,札幌市白石区,中央三条６丁目１番６号,,01,104,0030013,,,,,,,2025-09-04,1,,,,,エイチビジネス,0
2449,9430003018046,新規,0,2025-09-04,2025-09-04,ＴＯＲＯＬＬＥＹ合同会社,,合同会社,北海道,登別市,中央町３丁目１２番地７,,01,230,0590012,,,,,,,2025-09-04,1,,,,,トロリー,0
2453,9700150111443,新規,0,2025-09-04,2022-08-23,和太鼓　暁,,その他,埼玉県,入間郡三芳町,大字藤久保７１２３,,11,324,3540041,,,,,,,2022-08-23,1,,,,,ワダイコアカツキ,0
