sequenceNumber,corporateNumber,process,correct,updateDate,changeDate,name,nameImageId,kind,prefectureName,cityName,streetNumber,addressImageId,prefectureCode,cityCode,postCode,addressOutside,addressOutsideImageId,closeDate,closeCause,successorCorporateNumber,changeCause,assignmentDate,latest,enName,enPrefectureName,enCityName,enAddressOutside,furigana,hihyoji
11,1010401069178,登記記録の閉鎖等,0,2023-04-18,2023-04-03,澪ホールディングス株式会社,,株式会社,東京都,中央区,京橋１丁目１番５号,,13,102,1040031,,,2023-04-03,清算の結了等,,,2015-10-05,1,,,,,ミオホールディングス,0
12,1010401155795,登記記録の閉鎖等,0,2023-04-18,2023-04-03,株式会社アイエフシーパートナーズ,,株式会社,東京都,港区,南青山１丁目１５番２号,,13,103,1070062,,,2023-04-03,合併による解散等,1011001041881,令和５年４月１日東京都港区南青山一丁目１５番２号株式会社アイエフシー・コーポレーション（1011001041881）に合併し解散,2020-10-13,1,,,,,アイエフシーパートナーズ,0
38,1010903005226,登記記録の閉鎖等,0,2023-04-18,2023-04-10,オフィスＡＮＲＩ合同会社,,合同会社,東京都,世田谷区,羽根木１丁目３１番１２号,,13,112,1560042,,,2023-04-10,清算の結了等,,,2019-09-26,1,,,,,オフィスアンリ,0
39,1010905001330,登記記録の閉鎖等,0,2023-04-18,2023-04-03,一般財団法人ＮＨＫエンジニアリングシステム,,その他の設立登記法人,東京都,世田谷区,砧１丁目１０番１１号,,13,112,1570073,,,2023-04-03,合併による解散等,8011005000167,令和５年４月１日東京都世田谷区用賀四丁目１０番１号一般財団法人ＮＨＫ財団（8011005000167）に合併し解散,2015-10-05,1,,,,,エヌエイチケイエンジニアリングシステム,0
67,1011601023874,登記記録の閉鎖等,0,2023-04-18,2023-04-11,株式会社ルミナス,,株式会社,東京都,練馬区,三原台３丁目９番１９号,,13,120,1770031,,,2023-04-11,清算の結了等,,,2019-12-23,1,,,,,ルミナス,0
69,1011702003544,登記記録の閉鎖等,0,2023-04-18,2023-04-10,有限会社久保重金物,,有限会社,東京都,江戸川区,下篠崎町１５番１７号,,13,123,1330064,,,2023-04-10,清算の結了等,,,2015-10-05,1,,,,,クボジュウカナモノ,0
78,1012801017542,登記記録の閉鎖等,0,2023-04-18,2023-04-14,ワイエイシイテクノロジーズ株式会社,,株式会社,東京都,昭島市,武蔵野３丁目１０番６号,,13,207,1960021,,,2023-04-14,合併による解散等,2013101003827,令和５年４月１日東京都青梅市今井三丁目７番地８株式会社ワイエイシイデンコー（2013101003827）に合併し解散,2016-10-11,1,,,,,ワイエイシイテクノロジーズ,0
98,1021003009620,登記記録の閉鎖等,0,2023-04-18,2023-04-10,合同会社ブル,,合同会社,神奈川県,鎌倉市,山ノ内５２０番地,,14,204,2470062,,,2023-04-10,清算の結了等,,,2020-08-13,1,,,,,,0
145,1080402001075,登記記録の閉鎖等,0,2023-04-18,2023-04-13,有限会社植村紙器,,有限会社,静岡県,浜松市中区,富塚町３８４番地の４,00079821,22,131,4328002,,,2023-04-13,清算の結了等,,,2015-10-05,1,,,,,ウエムラシキ,0
149,1100002033549,登記記録の閉鎖等,0,2023-04-18,2023-04-11,ドットコムファーム伊那有限会社,,有限会社,長野県,伊那市,西箕輪５０８６番地１,,20,209,3994501,,,2023-04-11,清算の結了等,,,2015-10-05,1,,,,,ドットコムファームイナ,0
155,1120001018160,登記記録の閉鎖等,0,2023-04-18,2023-04-13,チヨダ金属株式会社,,株式会社,大阪府,大阪市生野区,田島６丁目１２番１５号,,27,116,5440011,,,2023-04-13,清算の結了等,,,2015-10-05,1,,,,,チヨダキンゾク,0
165,1120001199075,登記記録の閉鎖等,0,2023-04-18,2023-04-11,株式会社エコスタイル安芸高田発電所,,株式会社,大阪府,大阪市中央区,道修町１丁目４番６号,,27,128,5410045,,,2023-04-11,清算の結了等,,,2016-06-22,1,,,,,エコスタイルアキタカタハツデンショ,0
234,1200005001278,登記記録の閉鎖等,0,2023-04-18,2023-04-06,岐建企業組合,,その他の設立登記法人,岐阜県,岐阜市,忠節町１丁目１８番地,,21,201,5008801,,,2023-04-06,清算の結了等,,,2015-10-05,1,,,,,ギケン,0
243,1270001000673,登記記録の閉鎖等,0,2023-04-18,2023-04-07,扶桑興業株式会社,,株式会社,鳥取県,鳥取市,扇町３２番地扇町扶桑ビル,,31,201,6800846,,,2023-04-07,合併による解散等,4280001000711,令和５年４月１日島根県松江市白潟本町２３番地松江不動産株式会社（4280001000711）に合併し解散,2015-10-05,1,,,,,フソウコウギョウ,0
256,1290802012700,登記記録の閉鎖等,0,2023-04-18,2023-04-07,株式会社セイカ,,株式会社,福岡県,福岡市博多区,中呉服町１番２６号,,40,132,8120035,,,2023-04-07,清算の結了等,,,2015-10-05,1,,,,,セイカ,0
262,1330005009721,登記記録の閉鎖等,0,2023-04-18,2023-04-06,一般社団法人五木カンパニー,,その他の設立登記法人,熊本県,熊本市南区,城南町坂野９４５番地,,43,104,8614201,,,2023-04-06,清算の結了等,,,2017-08-15,1,,,,,イツキカンパニー,0
275,1400001009742,登記記録の閉鎖等,0,2023-04-18,2023-04-07,株式会社正孝電気,,株式会社,岩手県,盛岡市,神明町６番６号飛島さんきょうプラザ７０９号,,03,201,0200884,,,2023-04-07,清算の結了等,,,2015-10-05,1,,,,,セイコウデンキ,0
284,1430001039869,登記記録の閉鎖等,0,2023-04-18,2023-04-04,株式会社イシカリ,,株式会社,北海道,岩見沢市,栗沢町由良２番地７,,01,210,0680111,,,2023-04-04,合併による解散等,3010001197245,令和５年４月１日札幌市東区北丘珠二条三丁目２番３０号株式会社ホクエイ（3010001197245）に合併し解散,2015-10-05,1,,,,,イシカリ,0
287,1430001082497,登記記録の閉鎖等,0,2023-04-18,2023-04-11,株式会社ノフレコミュニケーションズ,,株式会社,北海道,札幌市中央区,南十条西１５丁目１－１６さいとうスタジオコート１Ｆ,,01,101,0640810,,,2023-04-11,合併による解散等,5010001080952,令和５年４月１日東京都新宿区西新宿三丁目２０番２号株式会社クロス・コミュニケーション（5010001080952）に合併し解散,2020-10-09,1,,,,,ノフレコミュニケーションズ,0
294,1430002059916,登記記録の閉鎖等,0,2023-04-18,2023-04-03,有限会社タニオカ環境緑化,,有限会社,北海道,苫小牧市,日吉町２丁目８番４号,,01,213,0530816,,,2023-04-03,合併による解散等,1430001053044,令和５年４月１日北海道苫小牧市日吉町二丁目８番４号晋康建設株式会社（1430001053044）に合併し解散,2015-10-05,1,,,,,タニオカカンキョウリョクカ,0
307,2010001039431,登記記録の閉鎖等,0,2023-04-18,2023-04-06,世界長ユニオン株式會社,,株式会社,東京都,文京区,本郷３丁目２７番１２号,,13,105,1130033,,,2023-04-06,合併による解散等,5010001000002,令和５年４月１日東京都文京区本郷三丁目２７番１２号オカモト株式会社（5010001000002）に合併し解散,2015-10-05,1,,,,,セカイチョウユニオン,0
315,2010001191216,登記記録の閉鎖等,0,2023-04-18,2023-04-11,株式会社ジェー・オー・アイ,,株式会社,大阪府,大阪市淀川区,宮原３丁目５番３６号,,27,123,5320003,,,2023-04-11,合併による解散等,9122001004455,令和５年３月３１日大阪市淀川区宮原三丁目５番３６号新大阪トラストタワー４階株式会社大新社（9122001004455）に合併し解散,2018-04-27,1,,,,,ジェーオーアイ,0
316,2010001208787,登記記録の閉鎖等,0,2023-04-18,2023-04-13,ＭＭアグロケミカル株式会社,,株式会社,東京都,中央区,日本橋１丁目１９番１号,,13,102,1030027,,,2023-04-13,合併による解散等,3060001000619,令和５年４月１日栃木県宇都宮市岩曽町１２１５番地エムシークロップ＆ライフ化成株式会社（3060001000619）に合併し解散,2020-04-08,1,,,,,エムエムアグロケミカル,0
330,2010401142025,登記記録の閉鎖等,0,2023-04-18,2023-04-03,ヴィーナスパートナーズ株式会社,,株式会社,東京都,港区,六本木１丁目９番１０号アークヒルズ仙石山森タワー２５階,,13,103,1060032,,,2023-04-03,清算の結了等,,,2018-11-12,1,,,,,ヴィーナスパートナーズ,0
345,2010701004635,登記記録の閉鎖等,0,2023-04-18,2023-04-13,サンホームサービス株式会社,,株式会社,東京都,品川区,南品川４丁目７番１６号,,13,109,1400004,,,2023-04-13,合併による解散等,5400001003758,令和５年４月１日岩手県紫波郡矢巾町流通センター南一丁目５番１４号サンリード株式会社（5400001003758）に合併し解散,2015-10-05,1,,,,,サンホームサービス,0
349,2011001045279,登記記録の閉鎖等,0,2023-04-18,2023-04-12,ＴＨＩＮＫ　ＯＵＴ　ＯＦ　ＴＨＥ　ＣＡＳＥ株式会社,,株式会社,東京都,渋谷区,神宮前２丁目７番６－５０４号,,13,113,1500001,,,2023-04-12,清算の結了等,,,2015-10-05,1,,,,,シンクアウトオブザケース,0
356,2011001135823,登記記録の閉鎖等,0,2023-04-18,2023-04-06,株式会社Ｃ－ｂｅｔ,,株式会社,東京都,渋谷区,恵比寿４丁目３番１４号恵比寿ＳＳビル２Ｆ,,13,113,1500013,,,2023-04-06,合併による解散等,9011001119027,令和５年４月１日東京都渋谷区恵比寿四丁目３番１４号恵比寿ＳＳビル２Ｆ株式会社Ｓｋｙｆａｌｌ（9011001119027）に合併し解散,2020-09-11,1,,,,,シーベット,0
366,2011102006626,登記記録の閉鎖等,0,2023-04-18,2023-04-12,有限会社新宿西口商亊,,有限会社,東京都,新宿区,西新宿７丁目１２番３号,,13,104,1600023,,,2023-04-12,清算の結了等,,,2015-10-05,1,,,,,シンジュクニシグチショウジ,0
402,2020001042137,登記記録の閉鎖等,0,2023-04-18,2023-04-06,株式会社テクノグランド,,株式会社,神奈川県,横浜市港北区,新横浜１丁目６番地３,,14,109,2220033,,,2023-04-06,清算の結了等,,,2015-10-05,1,,,,,テクノグランド,0
404,2020001102163,登記記録の閉鎖等,0,2023-04-18,2023-04-07,株式会社クマノミ,,株式会社,神奈川県,横浜市港北区,綱島西２丁目１番７号,,14,109,2230053,,,2023-04-07,清算の結了等,,,2015-10-05,1,,,,,クマノミ,0
453,2070002011433,登記記録の閉鎖等,0,2023-04-18,2023-04-13,有限会社丹羽工業,,有限会社,群馬県,高崎市,飯塚町１５３３番地の２,,10,202,3700069,,,2023-04-13,清算の結了等,,,2015-10-05,1,,,,,ニワコウギョウ,0
460,2110001017617,登記記録の閉鎖等,0,2023-04-18,2023-04-11,株式会社皆川設備工業,,株式会社,新潟県,柏崎市,米山台東４６８４番地２２,,15,205,9450843,,,2023-04-11,清算の結了等,,,2015-10-05,1,,,,,ミナガワセツビコウギョウ,0
462,2110002014852,登記記録の閉鎖等,0,2023-04-18,2023-04-11,有限会社魚清,,有限会社,新潟県,新発田市,富塚町１丁目８番２２号,,15,206,9570062,,,2023-04-11,清算の結了等,,,2015-10-05,1,,,,,ウオセイ,0
464,2110005009008,登記記録の閉鎖等,0,2023-04-18,2023-04-07,願念寺,,その他の設立登記法人,新潟県,上越市,大潟区内雁子２５７番地,,15,222,9493135,,,2023-04-07,清算の結了等,,,2015-10-05,1,,,,,ガンネンジ,0
470,2120001188614,登記記録の閉鎖等,0,2023-04-18,2023-04-11,コウノコーポレーション株式会社,,株式会社,大阪府,大阪市北区,梅田２丁目２番２号１８階,,27,127,5300001,,,2023-04-11,清算の結了等,,,2015-10-05,1,,,,,コウノコーポレーション,0
474,2120001221416,登記記録の閉鎖等,0,2023-04-18,2023-04-06,ヒロメル株式会社,,株式会社,大阪府,吹田市,千里丘北１番１８－１４１０号,,27,205,5650815,,,2023-04-06,清算の結了等,,,2019-06-04,1,,,,,ヒロメル,0
495,2120905006152,登記記録の閉鎖等,0,2023-04-18,2023-04-13,ＮＰＯ法人トイロ,,その他の設立登記法人,大阪府,吹田市,南金田２丁目２４番１０号９０１,,27,205,5640044,,,2023-04-13,清算の結了等,,,2021-03-22,1,,,,,トイロ,0
498,2130002021426,登記記録の閉鎖等,0,2023-04-18,2023-04-10,有限会社ハッピー本部,,有限会社,京都府,京都市西京区,川島野田町６番地１,,26,111,6158121,,,2023-04-10,清算の結了等,,,2015-10-05,1,,,,,ハッピーホンブ,0
509,2140002034303,登記記録の閉鎖等,0,2023-04-18,2023-04-11,有限会社神崎エンジニアリング,,有限会社,兵庫県,赤穂市,尾崎３１４７番地の２２,,28,212,6780221,,,2023-04-11,清算の結了等,,,2015-10-05,1,,,,,カミザキエンジニアリング,0
514,2170001011259,登記記録の閉鎖等,0,2023-04-18,2023-04-17,株式会社リトルハート,,株式会社,和歌山県,橋本市,高野口町名倉４２２番地,,30,203,6497205,,,2023-04-17,清算の結了等,,,2015-10-05,1,,,,,リトルハート,0
519,2180001100052,登記記録の閉鎖等,0,2023-04-18,2023-04-11,株式会社Ｊ・Ｋ・Ｔ,,株式会社,愛知県,春日井市,上条町９丁目４７番地１,,23,206,4860833,,,2023-04-11,清算の結了等,,,2015-10-05,1,,,,,ジェーケーティー,0
528,2180002049958,登記記録の閉鎖等,0,2023-04-18,2023-04-10,有限会社喜多山,,有限会社,愛知県,名古屋市名東区,上社４丁目２９５番地,,23,115,4650025,,,2023-04-10,清算の結了等,,,2015-10-05,1,,,,,キタヤマ,0
542,2230002011235,登記記録の閉鎖等,0,2023-04-18,2023-04-14,有限会社シテイホーム,,有限会社,富山県,高岡市,清水町２丁目６番８号,,16,202,9330866,,,2023-04-14,清算の結了等,,,2015-10-05,1,,,,,シティホーム,0
552,2290001029883,登記記録の閉鎖等,0,2023-04-18,2023-04-10,株式会社アニバーサリー,,株式会社,福岡県,福岡市西区,石丸３丁目１５番２５号,,40,135,8190025,,,2023-04-10,清算の結了等,,,2015-10-05,1,,,,,アニバーサリー,0
560,2290005018544,登記記録の閉鎖等,0,2023-04-18,2023-04-10,一般社団法人Ｎａｔｕｒａｌ　Ｃａｐｉｔａｌ,,その他の設立登記法人,福岡県,福岡市南区,向野２丁目１０番２５号,,40,134,8150035,,,2023-04-10,清算の結了等,,,2022-01-27,1,,,,,ナチュラルキャピタル,0
574,2340002018434,登記記録の閉鎖等,0,2023-04-18,2023-04-12,有限会社モナーク,,有限会社,鹿児島県,薩摩郡さつま町,求名１２３１５番地,,46,392,8952201,,,2023-04-12,清算の結了等,,,2015-10-05,1,,,,,モナーク,0
587,2420002009557,登記記録の閉鎖等,0,2023-04-18,2023-04-10,有限会社石田農機,,有限会社,青森県,三戸郡五戸町,大字浅水字十海塚１番地,,02,442,0391528,,,2023-04-10,清算の結了等,,,2015-10-05,1,,,,,イシダノウキ,0
590,2430001014103,登記記録の閉鎖等,0,2023-04-18,2023-04-04,株式会社ヒルコ,,株式会社,北海道,札幌市白石区,米里三条２丁目５番６号,,01,104,0030873,,,2023-04-04,合併による解散等,3010001197245,令和５年４月１日札幌市東区北丘珠二条三丁目２番３０号株式会社ホクエイ（3010001197245）に合併し解散,2015-10-05,1,,,,,ヒルコ,0
606,2490001000881,登記記録の閉鎖等,0,2023-04-18,2023-04-14,双明企画株式会社,,株式会社,高知県,高知市,はりまや町３丁目１１番２２号,,39,201,7800822,,,2023-04-14,清算の結了等,,,2015-10-05,1,,,,,ソウメイキカク,0
621,3010001060378,登記記録の閉鎖等,0,2023-04-18,2023-04-13,三菱ケミカルシステム株式会社,,株式会社,東京都,墨田区,押上１丁目１番２号,,13,107,1310045,,,2023-04-13,合併による解散等,6010001146760,令和５年４月１日東京都千代田区丸の内一丁目１番１号三菱ケミカル株式会社（6010001146760）に合併し解散,2015-10-05,1,"Mitsubishi Chemical Systems, Inc.",Tokyo,"1-1-2, Oshiage, Sumida ku",,ミツビシケミカルシステム,0
630,3010102011148,登記記録の閉鎖等,0,2023-04-18,2023-04-12,有限会社アイ企画,,有限会社,東京都,八王子市,鹿島７番地２Ｃ－１０１,,13,201,1920353,,,2023-04-12,清算の結了等,,,2015-10-05,1,,,,,アイキカク,0
648,3010501015022,登記記録の閉鎖等,0,2023-04-18,2023-04-11,株式会社ナガセ,,株式会社,広島県,府中市,府中町７４番地の１,,34,208,7260005,,,2023-04-11,清算の結了等,,,2015-10-05,1,,,,,ナガセ,0
651,3010601035597,登記記録の閉鎖等,0,2023-04-18,2023-04-14,株式会社トッパンプロスプリント,,株式会社,東京都,江東区,越中島３丁目５番６号,,13,108,1350044,,,2023-04-14,合併による解散等,3010501029336,令和５年４月１日東京都台東区台東一丁目５番１号株式会社トッパンパッケージプロダクツ（3010501029336）に合併し解散,2015-10-05,1,,,,,トッパンプロスプリント,0
662,3011001125501,登記記録の閉鎖等,0,2023-04-18,2023-04-06,株式会社スカラネクスト,,株式会社,東京都,渋谷区,渋谷２丁目２１番１号,,13,113,1500002,,,2023-04-06,合併による解散等,3011001042250,令和５年４月１日東京都渋谷区渋谷二丁目２１番１号株式会社スカラコミュニケーションズ（3011001042250）に合併し解散,2018-12-06,1,"Scala Next, Inc.",Tokyo,"1-1-39, Hiro, Shibuya ku",,スカラネクスト,0
676,3011202007325,登記記録の閉鎖等,0,2023-04-18,2023-04-14,有限会社中野まつや,,有限会社,東京都,中野区,本町４丁目３８番２６号,,13,114,1640012,,,2023-04-14,清算の結了等,,,2015-10-05,1,,,,,ナカノマツヤ,0
677,3011301005122,登記記録の閉鎖等,0,2023-04-18,2023-04-10,東和通信工業株式会社,,株式会社,東京都,杉並区,西荻北４丁目２番１８号,,13,115,1670042,,,2023-04-10,清算の結了等,,,2015-10-05,1,,,,,トウワツウシンコウギョウ,0
678,3011301020468,登記記録の閉鎖等,0,2023-04-18,2023-04-10,株式会社プレシジョン,,株式会社,東京都,杉並区,堀ノ内３丁目１番１５号コスモ東高円寺ロイヤルフォルム２０７,,13,115,1660013,,,2023-04-10,清算の結了等,,,2015-10-05,1,,,,,プレシジョン,0
681,3011402001318,登記記録の閉鎖等,0,2023-04-18,2023-04-03,株式会社エーアンドエス・サイトウ,,株式会社,東京都,板橋区,常盤台２丁目２０番１８号,,13,119,1740071,,,2023-04-03,合併による解散等,2011401016326,令和５年４月１日東京都板橋区前野町二丁目１４番２号株式会社ＳＴＲ（2011401016326）に合併し解散,2015-10-05,1,,,,,エーアンドエスサイトウ,0
709,3013301044595,登記記録の閉鎖等,0,2023-04-18,2023-04-06,株式会社ＱＳＳ,,株式会社,東京都,豊島区,南池袋１丁目１６－２０ぬかりやビル６Ｆ,,13,116,1710022,,,2023-04-06,清算の結了等,,,2019-10-11,1,,,,,キューエスエス,0
735,3030001064253,登記記録の閉鎖等,0,2023-04-18,2023-04-03,株式会社大東医療ガス,,株式会社,埼玉県,越谷市,大字平方２３６６番地１,,11,222,3430002,,,2023-04-03,合併による解散等,9030001003544,令和５年４月１日埼玉県さいたま市大宮区桜木町一丁目１１番地５株式会社サイサン（9030001003544）に合併し解散,2015-10-05,1,,,,,ダイトウイリョウガス,0
738,3030002017359,登記記録の閉鎖等,0,2023-04-18,2023-04-04,有限会社マイクロフィルム,,有限会社,埼玉県,さいたま市浦和区,北浦和４丁目１番６号,,11,107,3300074,,,2023-04-04,清算の結了等,,,2015-10-05,1,,,,,マイクロフィルム,0
739,3030002107358,登記記録の閉鎖等,0,2023-04-18,2023-04-05,有限会社三浦解体工業,,有限会社,埼玉県,川口市,朝日２丁目２番４号,,11,203,3320001,,,2023-04-05,清算の結了等,,,2015-10-05,1,,,,,ミウラカイタイコウギョウ,0
762,3060002015780,登記記録の閉鎖等,0,2023-04-18,2023-04-06,有限会社登喜和家,,有限会社,栃木県,日光市,下鉢石町８１３番地１,,09,206,3211403,,,2023-04-06,清算の結了等,,,2015-10-05,1,,,,,トキワヤ,0
765,3080102006876,登記記録の閉鎖等,0,2023-04-18,2023-04-12,有限会社ケーティーアール,,有限会社,静岡県,御殿場市,保土沢３３９番地の５,,22,215,4120046,,,2023-04-12,清算の結了等,,,2015-10-05,1,,,,,ケーティーアール,0
780,3120001129484,登記記録の閉鎖等,0,2023-04-18,2023-04-11,株式会社ＡＧＳ,,株式会社,大阪府,大阪市東成区,東中本３丁目１６番２３号,,27,115,5370021,,,2023-04-11,清算の結了等,,,2015-10-05,1,,,,,エージーエス,0
834,3180001125676,登記記録の閉鎖等,0,2023-04-18,2023-04-10,株式会社ピースポット,,株式会社,愛知県,名古屋市緑区,松が根台１８９番地,,23,114,4580843,,,2023-04-10,清算の結了等,,,2016-11-28,1,,,,,ピースポット,0
860,3280005002325,登記記録の閉鎖等,0,2023-04-18,2023-04-11,黒住教門生教会所,,その他の設立登記法人,島根県,安来市,門生町２５３番地,,32,206,6920027,,,2023-04-11,清算の結了等,,,2015-10-05,1,,,,,クロズミキョウカドウキョウカイショ,0
871,3290003010485,登記記録の閉鎖等,0,2023-04-18,2023-04-07,海岳合同会社,,合同会社,東京都,新宿区,新宿２丁目１２番１３号新宿アントレサロンビル２階,,13,104,1600022,,,2023-04-07,清算の結了等,,,2020-10-08,1,,,,,ウミタケ,0
875,3320001012835,登記記録の閉鎖等,0,2023-04-18,2023-04-06,安井プロパン株式会社,,株式会社,大分県,大分市,大字上宗方４１８番地の２,,44,201,8701152,,,2023-04-06,合併による解散等,4320001001077,令和５年４月１日大分市大字下判田３７９８番地の１光伸ガス株式会社（4320001001077）に合併し解散,2015-10-05,1,,,,,ヤスイプロパン,0
877,3330002025876,登記記録の閉鎖等,0,2023-04-18,2023-04-12,有限会社聖愛商事,,有限会社,熊本県,八代市,横手町１５１２番地の３,,43,202,8660873,,,2023-04-12,清算の結了等,,,2015-10-05,1,,,,,セイアイショウジ,0
883,3340002013698,登記記録の閉鎖等,0,2023-04-18,2023-04-17,有限会社ウェルテック,,有限会社,鹿児島県,霧島市,隼人町松永３６７０番地１,,46,218,8995112,,,2023-04-17,清算の結了等,,,2015-10-05,1,,,,,,0
894,3380001008381,登記記録の閉鎖等,0,2023-04-18,2023-04-13,株式会社菅井塗装,,株式会社,福島県,郡山市,笹川３丁目４７番地の３,,07,203,9630108,,,2023-04-13,清算の結了等,,,2015-10-05,1,,,,,スガイトソウ,0
900,3380002034781,登記記録の閉鎖等,0,2023-04-18,2023-04-13,有限会社栗村石材,,有限会社,福島県,耶麻郡北塩原村,大字北山字坂ノ上４９１９番地の２,,07,402,9660404,,,2023-04-13,清算の結了等,,,2015-10-05,1,,,,,クリムラセキザイ,0
913,3430001033614,登記記録の閉鎖等,0,2023-04-18,2023-04-12,株式会社見方,,株式会社,北海道,北広島市,大曲工業団地２丁目１番地３,,01,234,0611274,,,2023-04-12,合併による解散等,7430001027950,令和５年４月１日大阪市中央区南船場二丁目１２番８号エア・ウォーターアグリ＆フーズ株式会社（7430001027950）に合併し解散,2015-10-05,1,,,,,ミカタ,0
923,3460001003044,登記記録の閉鎖等,0,2023-04-18,2023-04-07,佐藤産業株式会社,,株式会社,北海道,厚岸郡厚岸町,字港町６３番地,,01,662,0881128,,,2023-04-07,清算の結了等,,,2015-10-05,1,,,,,サトウサンギョウ,0
935,4010001138116,登記記録の閉鎖等,0,2023-04-18,2023-04-07,株式会社加工用米取引センター,,株式会社,東京都,中央区,日本橋小網町１６番１５号,,13,102,1030016,,,2023-04-07,清算の結了等,,,2015-10-05,1,,,,,カコウヨウマイトリヒキセンター,0
938,4010001182576,登記記録の閉鎖等,0,2023-04-18,2023-04-07,株式会社ユー・トリップ,,株式会社,東京都,墨田区,向島２丁目１４番９号,,13,107,1310033,,,2023-04-07,清算の結了等,,,2017-04-06,1,,,,,ユートリップ,0
952,4010401084587,登記記録の閉鎖等,0,2023-04-18,2023-04-03,株式会社ユニマット不動産,,株式会社,東京都,港区,南青山２丁目１２番１５号,,13,103,1070062,,,2023-04-03,合併による解散等,5010401040829,令和５年４月１日東京都港区南青山二丁目１２番１５号株式会社ユニマット不動産（5010401040829）に合併し解散,2015-10-05,1,,,,,ユニマットフドウサン,0
968,4010501033056,登記記録の閉鎖等,0,2023-04-18,2023-04-14,東亜総合設備株式会社,,株式会社,東京都,台東区,松が谷３丁目１７番５号,,13,106,1110036,,,2023-04-14,清算の結了等,,,2015-10-05,1,,,,,トウアソウゴウセツビ,0
977,4010701026058,登記記録の閉鎖等,0,2023-04-18,2023-04-05,株式会社スターライフ,,株式会社,東京都,品川区,東五反田２丁目５番４－１２０１号,,13,109,1410022,,,2023-04-05,清算の結了等,,,2015-10-05,1,,,,,スターライフ,0
987,4010902008045,登記記録の閉鎖等,0,2023-04-18,2023-04-12,有限会社杉田ふとん店,,有限会社,東京都,世田谷区,給田４丁目３２番３－５０７号,,13,112,1570064,,,2023-04-12,清算の結了等,,,2015-10-05,1,,,,,スギタフトンテン,0
988,4010905000040,登記記録の閉鎖等,0,2023-04-18,2023-04-03,一般財団法人ＮＨＫ放送研修センター,,その他の設立登記法人,東京都,世田谷区,砧１丁目１０番１１号,,13,112,1570073,,,2023-04-03,合併による解散等,8011005000167,令和５年４月１日東京都世田谷区用賀四丁目１０番１号一般財団法人ＮＨＫ財団（8011005000167）に合併し解散,2015-10-05,1,,,,,エヌエイチケイホウソウケンシュウセンター,0
992,4011001108983,登記記録の閉鎖等,0,2023-04-18,2023-04-03,マスターピース株式会社,,株式会社,東京都,港区,浜松町２丁目２番１５号浜松町ダイヤビル２Ｆ,,13,103,1050013,,,2023-04-03,合併による解散等,1011001072712,令和５年４月１日東京都港区浜松町二丁目２番１５号浜松町ダイヤビル２Ｆギルド株式会社（1011001072712）に合併し解散,2016-01-12,1,,,,,マスターピース,0
998,4011101006154,登記記録の閉鎖等,0,2023-04-18,2023-04-13,株式会社ケイティ・クラフト,,株式会社,東京都,新宿区,新宿２丁目７番３－５０７号,,13,104,1600022,,,2023-04-13,清算の結了等,,,2015-10-05,1,,,,,ケイティクラフト,0
1004,4011301018511,登記記録の閉鎖等,0,2023-04-18,2023-04-11,株式会社ＦｕｎＦｕｓｉｏｎ,,株式会社,東京都,渋谷区,笹塚２丁目１番６号,,13,113,1510073,,,2023-04-11,合併による解散等,6011301016389,令和５年４月１日東京都渋谷区笹塚二丁目１番６号株式会社ｆｏｎｆｕｎ（6011301016389）に合併し解散,2015-10-05,1,,,,,ファンフュージョン,0
1013,4011701016429,登記記録の閉鎖等,0,2023-04-18,2023-04-11,株式会社エイエヌ,,株式会社,東京都,江戸川区,松江３丁目１１番１７号,,13,123,1320025,,,2023-04-11,清算の結了等,,,2015-10-05,1,,,,,エイエヌ,0
1016,4011702015958,登記記録の閉鎖等,0,2023-04-18,2023-04-10,有限会社新祐電設,,有限会社,東京都,江戸川区,篠崎町５丁目１１番１０号,,13,123,1330061,,,2023-04-10,清算の結了等,,,2015-10-05,1,,,,,シンユウデンセツ,0
1021,4012301012999,登記記録の閉鎖等,0,2023-04-18,2023-04-06,株式会社Ｓｉｌｋ,,株式会社,東京都,町田市,南成瀬１丁目４番地８,,13,209,1940045,,,2023-04-06,清算の結了等,,,2022-05-24,1,,,,,シルク,0
1023,4012801006567,登記記録の閉鎖等,0,2023-04-18,2023-04-06,株式会社奥隅,,株式会社,埼玉県,新座市,道場２丁目５番１１号,,11,230,3520024,,,2023-04-06,清算の結了等,,,2015-10-05,1,,,,,オクズミ,0
1025,4012803001789,登記記録の閉鎖等,0,2023-04-18,2023-04-11,合同会社Ｋｅｙ助,,合同会社,東京都,日野市,豊田２丁目４９番地の１４,,13,212,1910053,,,2023-04-11,清算の結了等,,,2018-03-30,1,,,,,キイスケ,0
1033,4020001105156,登記記録の閉鎖等,0,2023-04-18,2023-04-05,株式会社ネクサスジャパン,,株式会社,神奈川県,横浜市青葉区,榎が丘７番地２２,,14,117,2270063,,,2023-04-05,合併による解散等,7020001105153,令和５年４月１日横浜市青葉区榎が丘７番地２２株式会社アップガレージグループ（7020001105153）に合併し解散,2015-10-05,1,,,,,ネクサスジャパン,0
1034,4020001146043,登記記録の閉鎖等,0,2023-04-18,2023-04-03,日本システム開発研究所株式会社,,株式会社,神奈川県,横浜市栄区,飯島町５７７番地の３４,,14,115,2440842,,,2023-04-03,清算の結了等,,,2022-04-11,1,,,,,ニホンシステムカイハツケンキュウジョ,0
1055,4021002063582,登記記録の閉鎖等,0,2023-04-18,2023-04-11,有限会社金子,,有限会社,神奈川県,横須賀市,田浦町２丁目７５番地,,14,201,2370075,,,2023-04-11,清算の結了等,,,2015-10-05,1,,,,,カネコ,0
1060,4040001040987,登記記録の閉鎖等,0,2023-04-18,2023-04-05,株式会社ＩＧＡＲＩ,,株式会社,埼玉県,さいたま市緑区,東浦和７丁目３２－１４－３０２,,11,109,3360926,,,2023-04-05,清算の結了等,,,2015-10-05,1,,,,,イガリ,0
1068,4050001023693,登記記録の閉鎖等,0,2023-04-18,2023-04-10,日立鉱山株式会社,,株式会社,茨城県,日立市,宮田町３４５３番地,,08,202,3170055,,,2023-04-10,清算の結了等,,,2015-10-05,1,,,,,,0
1070,4050002033741,登記記録の閉鎖等,0,2023-04-18,2023-04-10,有限会社若泉商店,,有限会社,茨城県,北相馬郡利根町,大字布川字下屋敷２５５３番地の４,,08,564,3001622,,,2023-04-10,清算の結了等,,,2015-10-05,1,,,,,ワカイズミショウテン,0
1081,4080405006969,登記記録の閉鎖等,0,2023-04-18,2023-04-12,一般社団法人防災情報機構,,その他の設立登記法人,静岡県,浜松市中区,鍛冶町１００番地の１ザザシティ浜松中央館,,22,131,4300933,,,2023-04-12,清算の結了等,,,2017-04-17,1,,,,,ボウサイジョウホウキコウ,0
1082,4080405007100,登記記録の閉鎖等,0,2023-04-18,2023-04-13,一般社団法人老成学研究所,,その他の設立登記法人,静岡県,浜松市東区,有玉台４丁目１６番１４号,,22,132,4313126,,,2023-04-13,清算の結了等,,,2018-09-06,1,,,,,ロウセイガクケンキュウジョ,0
1092,4120001210268,登記記録の閉鎖等,0,2023-04-18,2023-04-12,株式会社ＬＡＭ　ｌａｂ,,株式会社,大阪府,大阪市中央区,南船場４丁目１４番１－６０２号,,27,128,5420081,,,2023-04-12,清算の結了等,,,2017-12-22,1,,,,,,0
1126,4180001002445,登記記録の閉鎖等,0,2023-04-18,2023-04-12,ツキマサ産業株式会社,,株式会社,愛知県,名古屋市名東区,引山４丁目４２３番地,,23,115,4650002,,,2023-04-12,清算の結了等,,,2015-10-05,1,,,,,ツキマササンギョウ,0
1155,4190001024521,登記記録の閉鎖等,0,2023-04-18,2023-04-03,昭和印刷株式会社,,株式会社,三重県,桑名市,大字安永１２５１番地,,24,205,5110839,,,2023-04-03,合併による解散等,2190001013443,令和５年４月１日三重県桑名市大字安永９２３番地株式会社アサプリ（2190001013443）に合併し解散,2017-04-05,1,,,,,ショウワインサツ,0
1156,4200001035814,登記記録の閉鎖等,0,2023-04-18,2023-04-10,東邦紙業株式会社,,株式会社,岐阜県,美濃市,長瀬１３２番地,,21,207,5013782,,,2023-04-10,清算の結了等,,,2018-12-26,1,,,,,トウホウシギョウ,0
1168,4250001019507,登記記録の閉鎖等,0,2023-04-18,2023-04-05,株式会社志涼会,,株式会社,山口県,宇部市,恩田町２丁目２６番１－１号,,35,202,7550023,,,2023-04-05,清算の結了等,,,2022-04-25,1,,,,,シリョウカイ,0
1169,4260001021115,登記記録の閉鎖等,0,2023-04-18,2023-04-03,株式会社夢アグリ鏡野,,株式会社,岡山県,苫田郡鏡野町,古川１０００番地,,33,606,7080333,,,2023-04-03,合併による解散等,9260001019617,令和５年４月１日岡山県苫田郡鏡野町井坂５２３番地の７株式会社未来奥津（9260001019617）に合併し解散,2015-10-05,1,,,,,ユメアグリカガミノ,0
1170,4260003002773,登記記録の閉鎖等,0,2023-04-18,2023-04-10,合同会社ｏｖｅｄｅ,,合同会社,岡山県,岡山市北区,建部町品田１３１３番地１１,,33,101,7093141,,,2023-04-10,清算の結了等,,,2019-02-05,1,,,,,オベデ,0
1184,4290801017144,登記記録の閉鎖等,0,2023-04-18,2023-04-13,株式会社エール,,株式会社,福岡県,北九州市小倉北区,緑ケ丘２丁目１２番３６－２０２号,,40,106,8030827,,,2023-04-13,清算の結了等,,,2015-10-05,1,,,,,エール,0
1204,4400002007008,登記記録の閉鎖等,0,2023-04-18,2023-04-07,有限会社アルファ総業,,有限会社,岩手県,紫波郡紫波町,桜町字才土地７３番地３,,03,321,0283307,,,2023-04-07,清算の結了等,,,2015-10-05,1,,,,,アルファソウギョウ,0
1223,4440001002484,登記記録の閉鎖等,0,2023-04-18,2023-04-12,山形水産株式会社,,株式会社,北海道,函館市,高盛町３１番３号,,01,202,0400024,,,2023-04-12,合併による解散等,6011601003319,令和５年４月１日東京都練馬区上石神井三丁目２８番５号株式会社ジョッキ（6011601003319）に合併し解散,2015-10-05,1,,,,,ヤマガタスイサン,0
1228,4490002008063,登記記録の閉鎖等,0,2023-04-18,2023-04-13,有限会社キララコレクション,,有限会社,高知県,高知市,幸町２３番９号,,39,201,7800045,,,2023-04-13,清算の結了等,,,2015-10-05,1,,,,,キララコレクション,0
1241,5010001225879,登記記録の閉鎖等,0,2023-04-18,2023-04-10,エムワイヘルスケア株式会社,,株式会社,東京都,中央区,佃２丁目１２番１－３０２号,,13,102,1040051,,,2023-04-10,清算の結了等,,,2022-04-20,1,,,,,エムワイヘルスケア,0
1244,5010002029981,登記記録の閉鎖等,0,2023-04-18,2023-04-10,エイジェイエンタープライズ有限会社,,有限会社,東京都,千代田区,九段南２丁目４番４号,,13,101,1020074,,,2023-04-10,清算の結了等,,,2015-10-05,1,,,,,エイジェイエンタープライズ,0
1252,5010401111902,登記記録の閉鎖等,0,2023-04-18,2023-04-13,株式会社ＬＩＢＥＲＹ,,株式会社,東京都,渋谷区,東１丁目２８番７号,,13,113,1500011,,,2023-04-13,清算の結了等,,,2015-10-05,1,,,,,リベリー,0
1263,5010501041413,登記記録の閉鎖等,0,2023-04-18,2023-04-12,株式会社５２ＤＥＳＩＧＮ,,株式会社,東京都,台東区,駒形２丁目４番８号,,13,106,1110043,,,2023-04-12,合併による解散等,3010501048170,令和５年４月１日東京都台東区駒形二丁目４番８号モリトアパレル株式会社（3010501048170）に合併し解散,2017-08-04,1,,,,,ゴジュウニデザイン,0
1272,5010705001766,登記記録の閉鎖等,0,2023-04-18,2023-04-05,一般社団法人たてもの保全ＮＥＴ,,その他の設立登記法人,東京都,品川区,西五反田７丁目１番９号五反田ＨＳビル２階,,13,109,1410031,,,2023-04-05,清算の結了等,,,2015-10-05,1,,,,,タテモノホゼンネット,0
1278,5010903003341,登記記録の閉鎖等,0,2023-04-18,2023-04-11,合同会社Ｓｕｎｒｉｓｅｔ,,合同会社,東京都,世田谷区,深沢３丁目１０番８号,,13,112,1580081,,,2023-04-11,清算の結了等,,,2016-10-24,1,,,,,サンライゼット,0
1283,5011001140168,登記記録の閉鎖等,0,2023-04-18,2023-04-12,株式会社ＢＯＲＤＥＲ　ＳＥＥＤ,,株式会社,東京都,渋谷区,恵比寿４丁目２０番３号恵比寿ガーデンプレイスタワー１８階,,13,113,1500013,,,2023-04-12,清算の結了等,,,2021-05-06,1,,,,,ボーダーシード,0
1287,5011002022943,登記記録の閉鎖等,0,2023-04-18,2023-04-07,有限会社白隆舎,,有限会社,東京都,渋谷区,本町２丁目１１番７号,,13,113,1510071,,,2023-04-07,清算の結了等,,,2015-10-05,1,,,,,ハクリュウシャ,0
1315,5011705001260,登記記録の閉鎖等,0,2023-04-18,2023-04-10,特定非営利活動法人サクラふれあいサービス,,その他の設立登記法人,東京都,江戸川区,中葛西５丁目４１番４号ＥＳビル３階,,13,123,1340083,,,2023-04-10,清算の結了等,,,2015-10-05,1,,,,,サクラフレアイサービス,0
1329,5020001007665,登記記録の閉鎖等,0,2023-04-18,2023-04-07,株式会社千代田システム,,株式会社,神奈川県,横浜市戸塚区,汲沢町１２５９番地９,00009190,14,110,2450062,,,2023-04-07,清算の結了等,,,2015-10-05,1,,,,,チヨダシステム,0
1330,5020001100081,登記記録の閉鎖等,0,2023-04-18,2023-04-13,ＭＳ神奈川静岡株式会社,,株式会社,神奈川県,横浜市神奈川区,栄町７番地１,,14,102,2210052,,,2023-04-13,合併による解散等,1010001030440,令和５年４月３日東京都千代田区神田駿河台三丁目９番地三井住友海上エイジェンシー・サービス株式会社（1010001030440）に合併し解散,2015-10-05,1,,,,,エムエスカナガワシズオカ,0
1344,5021003012380,登記記録の閉鎖等,0,2023-04-18,2023-04-13,合同会社ＳｉｔｅＵ,,合同会社,神奈川県,厚木市,幸町五丁目６番地,,14,212,2430012,,,2023-04-13,清算の結了等,,,2022-11-14,1,,,,,サイトユー,0
1376,5050001034731,登記記録の閉鎖等,0,2023-04-18,2023-04-07,株式会社磯原住宅,,株式会社,茨城県,北茨城市,華川町上小津田１７８７番地,,08,215,3191532,,,2023-04-07,清算の結了等,,,2015-10-05,1,,,,,イソハラジュウタク,0
1417,5120002060414,登記記録の閉鎖等,0,2023-04-18,2023-04-12,有限会社ビーンズ,,有限会社,大阪府,大阪市中央区,船越町１丁目３－４,,27,128,5400036,,,2023-04-12,清算の結了等,,,2015-10-05,1,,,,,ビーンズ,0
1446,5150001005805,登記記録の閉鎖等,0,2023-04-18,2023-04-07,株式会社サトナカ,,株式会社,奈良県,大和郡山市,豆腐町４０番地の２,,29,203,6391149,,,2023-04-07,清算の結了等,,,2015-10-05,1,,,,,サトナカ,0
1447,5150001008452,登記記録の閉鎖等,0,2023-04-18,2023-04-03,淀川真空ホールディング株式会社,,株式会社,奈良県,生駒郡安堵町,大字西安堵４７４番地の３,,29,345,6391066,,,2023-04-03,合併による解散等,1150001007219,令和５年４月１日奈良県生駒郡安堵町大字西安堵４７４番地の３淀川真空株式会社（1150001007219）に合併し解散,2015-10-05,1,,,,,ヨドガワシンクウホールディング,0
1449,5170005006921,登記記録の閉鎖等,0,2023-04-18,2023-04-17,特定非営利活動法人アスリートの未来を考える会,,その他の設立登記法人,和歌山県,和歌山市,本脇５３１番地１,,30,201,6400113,,,2023-04-17,清算の結了等,,,2021-08-03,1,,,,,アスリートノミライヲカンガエルカイ,0
1465,5180002017846,登記記録の閉鎖等,0,2023-04-18,2023-04-13,木村電気土木有限会社,,有限会社,愛知県,名古屋市中川区,大畑町１丁目５１番地,,23,110,4540843,,,2023-04-13,清算の結了等,,,2015-10-05,1,,,,,キムラデンキドボク,0
1468,5180303003322,登記記録の閉鎖等,0,2023-04-18,2023-04-05,合同会社ＳＥＥＤ,,合同会社,愛知県,碧南市,相生町２丁目７６番地２,,23,209,4470862,,,2023-04-05,清算の結了等,,,2015-10-05,1,,,,,シード,0
1472,5190001003152,登記記録の閉鎖等,0,2023-04-18,2023-04-03,株式会社オリエンタル,,株式会社,三重県,津市,河芸町上野２１００番地,,24,201,5100304,,,2023-04-03,合併による解散等,2190001013443,令和５年４月１日三重県桑名市大字安永９２３番地株式会社アサプリ（2190001013443）に合併し解散,2015-10-05,1,,,,,オリエンタル,0
1491,5260002013192,登記記録の閉鎖等,0,2023-04-18,2023-04-11,有限会社サンエコ,,有限会社,岡山県,岡山市北区,厚生町３丁目８番１５－２０１号,,33,101,7000985,,,2023-04-11,清算の結了等,,,2015-10-05,1,,,,,サンエコ,0
1496,5280002009172,登記記録の閉鎖等,0,2023-04-18,2023-04-11,有限会社境電気,,有限会社,島根県,江津市,松川町太田３３番地１,,32,207,6950007,,,2023-04-11,清算の結了等,,,2015-10-05,1,,,,,サカイデンキ,0
1505,5300002008865,登記記録の閉鎖等,0,2023-04-18,2023-04-11,有限会社九州合金設計,,有限会社,佐賀県,鳥栖市,田代昌町４９番地,,41,203,8410012,,,2023-04-11,清算の結了等,,,2015-10-05,1,,,,,キュウシュウゴウキンセッケイ,0
1508,5330002026773,登記記録の閉鎖等,0,2023-04-18,2023-04-10,有限会社ベルハウス,,有限会社,熊本県,八代市,鏡町内田１３２４番地の４,,43,202,8694202,,,2023-04-10,清算の結了等,,,2015-10-05,1,,,,,ベルハウス,0
1511,5340003003952,登記記録の閉鎖等,0,2023-04-18,2023-04-13,合同会社岩下建設,,合同会社,鹿児島県,伊佐市,大口山野１２４５番地,,46,224,8952635,,,2023-04-13,清算の結了等,,,2022-11-08,1,,,,,イワシタケンセツ,0
1537,5450001013496,登記記録の閉鎖等,0,2023-04-18,2023-04-13,ＡＷアグリトラスト株式会社,,株式会社,北海道,旭川市,永山北一条１０丁目１３番５号,,01,204,0798451,,,2023-04-13,合併による解散等,2430001083759,令和５年４月１日札幌市中央区北三条西一丁目２番地北海道エア・ウォーター・アグリ株式会社（2430001083759）に合併し解散,2021-10-06,1,,,,,エーダブリュアグリトラスト,0
1553,6010001149103,登記記録の閉鎖等,0,2023-04-18,2023-04-03,ＧＣＬ株式会社,,株式会社,東京都,港区,西新橋１丁目１４番２号,,13,103,1050003,,,2023-04-03,合併による解散等,5010001094498,令和５年４月１日東京都港区西新橋一丁目１４番２号ＧＮＵ株式会社（5010001094498）に合併し解散,2015-10-05,1,,,,,ジーシーエル,0
1590,6010801032111,登記記録の閉鎖等,0,2023-04-18,2023-04-10,株式会社レンテックス,,株式会社,東京都,大田区,下丸子２丁目１１番１号,,13,111,1460092,,,2023-04-10,合併による解散等,8200001003544,令和５年４月１日岐阜市若宮町九丁目１６番地株式会社トーカイ（8200001003544）に合併し解散,2021-07-07,1,,,,,レンテックス,0
1623,6011502013342,登記記録の閉鎖等,0,2023-04-18,2023-04-10,有限会社サンブライト,,有限会社,東京都,北区,東十条５丁目７番１号,,13,117,1140001,,,2023-04-10,清算の結了等,,,2015-10-05,1,,,,,サンブライト,0
1645,6012402003160,登記記録の閉鎖等,0,2023-04-18,2023-04-13,有限会社いずみ,,有限会社,東京都,国分寺市,西町２丁目９番地１７,,13,214,1850035,,,2023-04-13,清算の結了等,,,2015-10-05,1,,,,,イズミ,0
1647,6013301007624,登記記録の閉鎖等,0,2023-04-18,2023-04-13,株式会社テイケイ,,株式会社,東京都,豊島区,南大塚２丁目１０番１号,,13,116,1700005,,,2023-04-13,合併による解散等,7430001069398,令和５年４月１日札幌市白石区東札幌五条二丁目４番３０号株式会社アインファーマシーズ（7430001069398）に合併し解散,2015-10-05,1,,,,,テイケイ,0
1650,6020001042059,登記記録の閉鎖等,0,2023-04-18,2023-04-06,株式会社フィネッセ,,株式会社,神奈川県,横浜市港北区,新横浜１丁目６番地３,,14,109,2220033,,,2023-04-06,清算の結了等,,,2015-10-05,1,,,,,フィネッセ,0
1665,6021001047485,登記記録の閉鎖等,0,2023-04-18,2023-04-10,株式会社ＮＥＸＴＯＮＥ,,株式会社,神奈川県,藤沢市,用田５７５番地の１,,14,205,2520821,,,2023-04-10,清算の結了等,,,2015-10-05,1,,,,,,0
1672,6030001068904,登記記録の閉鎖等,0,2023-04-18,2023-04-06,日本眼鏡株式会社,,株式会社,埼玉県,坂戸市,柳町１３３番地１号エクセルジャパン３Ｆ,,11,239,3500216,,,2023-04-06,清算の結了等,,,2015-10-05,1,,,,,ニホンガンキョウ,0
1686,6030003002885,登記記録の閉鎖等,0,2023-04-18,2023-04-05,合同会社三浦,,合同会社,埼玉県,川越市,岸町２丁目３１番地７号,,11,201,3501131,,,2023-04-05,清算の結了等,,,2015-10-05,1,,,,,ミウラ,0
1695,6050001023238,登記記録の閉鎖等,0,2023-04-18,2023-04-13,株式会社システムデザイン,,株式会社,茨城県,日立市,大みか町４丁目２６番５号,,08,202,3191221,,,2023-04-13,合併による解散等,3010001199720,令和５年４月１日東京都千代田区五番町１２番地１株式会社インフォメーション・ディベロプメント（3010001199720）に合併し解散,2015-10-05,1,,,,,システムデザイン,0
1720,6120001031233,登記記録の閉鎖等,0,2023-04-18,2023-04-11,Ｎｅｘｕｓ　Ｂａｎｋ株式会社,,株式会社,東京都,渋谷区,恵比寿４丁目２０番３号,,13,113,1500013,,,2023-04-11,合併による解散等,2010401094729,令和５年４月１日東京都渋谷区恵比寿四丁目２０番３号Ｊトラスト株式会社（2010401094729）に合併し解散,2015-10-05,1,,,,,ネクサスバンク,0
1724,6120001208293,登記記録の閉鎖等,0,2023-04-18,2023-04-11,株式会社エコスタイルパワープラント１号,,株式会社,大阪府,大阪市中央区,道修町１丁目４番６号,,27,128,5410045,,,2023-04-11,清算の結了等,,,2017-09-22,1,,,,,エコスタイルパワープラントイチゴウ,0
1758,6140002060056,登記記録の閉鎖等,0,2023-04-18,2023-04-11,有限会社関西エアテック,,有限会社,兵庫県,西宮市,分銅町１番１６－１００７号,,28,204,6620042,,,2023-04-11,清算の結了等,,,2015-10-05,1,,,,,カンサイエアテック,0
1773,6180001128057,登記記録の閉鎖等,0,2023-04-18,2023-04-11,株式会社アール,,株式会社,愛知県,名古屋市中区,平和１丁目３－２４,,23,106,4600021,,,2023-04-11,清算の結了等,,,2017-06-02,1,,,,,アール,0
1775,6180001143056,登記記録の閉鎖等,0,2023-04-18,2023-04-10,ＴＳＫマーケティング株式会社,,株式会社,愛知県,名古屋市北区,辻町２丁目５３番３号－グランシャリオ２０２,,23,103,4620032,,,2023-04-10,清算の結了等,,,2020-10-06,1,,,,,ティーエスケーマーケティング,0
1801,6210002014302,登記記録の閉鎖等,0,2023-04-18,2023-04-13,有限会社兼田鉄工所,,有限会社,福井県,小浜市,谷田部第８号１４番地の１,,18,204,9170031,,,2023-04-13,清算の結了等,,,2015-10-05,1,,,,,カネダテッコウショ,0
1803,6230001011232,登記記録の閉鎖等,0,2023-04-18,2023-04-13,高志段ボール株式会社,,株式会社,富山県,高岡市,福岡町一歩二歩９１４番地,,16,202,9390122,,,2023-04-13,清算の結了等,,,2015-10-05,1,,,,,コウシダンボール,0
1827,6330002011543,登記記録の閉鎖等,0,2023-04-18,2023-04-11,有限会社ローネットカワサキ,,有限会社,熊本県,合志市,豊岡２０５４番地６３,,43,216,8611115,,,2023-04-11,清算の結了等,,,2015-10-05,1,,,,,ローネットカワサキ,0
1845,6390001010532,登記記録の閉鎖等,0,2023-04-18,2023-04-06,株式会社コンタクトフーズ,,株式会社,山形県,東置賜郡高畠町,大字夏茂１５２２番地,,06,381,9992172,,,2023-04-06,清算の結了等,,,2015-10-05,1,,,,,コンタクトフーズ,0
1848,6400502000435,登記記録の閉鎖等,0,2023-04-18,2023-04-06,有限会社大賞堂,,有限会社,岩手県,一関市,地主町８番１１号,,03,209,0210893,,,2023-04-06,清算の結了等,,,2015-10-05,1,,,,,タイショウドウ,0
1858,6430001083383,登記記録の閉鎖等,0,2023-04-18,2023-04-03,株式会社アクアメディカル,,株式会社,北海道,札幌市西区,八軒十条東４丁目２番１８号アクア八軒東ビル３階,,01,107,0630870,,,2023-04-03,合併による解散等,1430001046238,令和５年４月１日札幌市西区八軒十条東四丁目２番１８号アクア八軒東ビル株式会社アクア（1430001046238）に合併し解散,2021-02-12,1,,,,,アクアメディカル,0
1861,6430002066065,登記記録の閉鎖等,0,2023-04-18,2023-04-03,有限会社ケーエヌ商事,,有限会社,北海道,室蘭市,築地町１３８番地,,01,205,0510031,,,2023-04-03,清算の結了等,,,2015-10-05,1,,,,,ケーエヌ,0
1874,7010001201408,登記記録の閉鎖等,0,2023-04-18,2023-04-07,株式会社ＥＶＡＮ,,株式会社,神奈川県,横浜市神奈川区,新子安１丁目２番２－Ｃ２０３号,,14,102,2210013,,,2023-04-07,清算の結了等,,,2019-06-07,1,,,,,エバン,0
1895,7010501032674,登記記録の閉鎖等,0,2023-04-18,2023-04-13,ＴＣビジネスサービス株式会社,,株式会社,東京都,台東区,台東２丁目２７番５号,,13,106,1100016,,,2023-04-13,合併による解散等,6010401015821,令和５年４月１日東京都千代田区神田練塀町３番地東京センチュリー株式会社（6010401015821）に合併し解散,2015-10-05,1,,,,,ティーシービジネスサービス,0
1897,7010601039693,登記記録の閉鎖等,0,2023-04-18,2023-04-10,アチーブメントコンサルタンツ株式会社,,株式会社,東京都,墨田区,緑１丁目２４番１０－９０４号,,13,107,1300021,,,2023-04-10,清算の結了等,,,2015-10-05,1,,,,,アチーブメントコンサルタンツ,0
1901,7010701004218,登記記録の閉鎖等,0,2023-04-18,2023-04-03,宇徳ターミナルサービス株式会社,,株式会社,東京都,品川区,八潮２丁目３番１０号,,13,109,1400003,,,2023-04-03,合併による解散等,6010701005687,令和５年４月１日東京都品川区八潮二丁目３番１０号宇徳ターミナル・エンジニアリング株式会社（6010701005687）に合併し解散,2015-10-05,1,,,,,ウトクターミナルサービス,0
1910,7010802008811,登記記録の閉鎖等,0,2023-04-18,2023-04-04,有限会社高橋オフィス,,有限会社,東京都,大田区,矢口２丁目２２番１５号,,13,111,1460093,,,2023-04-04,清算の結了等,,,2015-10-05,1,,,,,タカハシオフィス,0
1916,7011003008659,登記記録の閉鎖等,0,2023-04-18,2023-04-03,ＡｌｐｈａＢｏａｔ合同会社,,合同会社,東京都,渋谷区,渋谷２丁目７番５号,,13,113,1500002,,,2023-04-03,合併による解散等,5010001188770,令和５年４月１日東京都渋谷区渋谷二丁目７番５号ＳＣデジタルメディア株式会社（5010001188770）に合併し解散,2018-04-06,1,,,,,アルファボート,0
1917,7011005007262,登記記録の閉鎖等,0,2023-04-18,2023-04-07,一般社団法人クリーンビジネス協会,,その他の設立登記法人,東京都,目黒区,上目黒２丁目４５番１４号、高架下７９,,13,110,1530051,,,2023-04-07,清算の結了等,,,2017-07-19,1,,,,,クリーンビジネスキョウカイ,0
1925,7011202007180,登記記録の閉鎖等,0,2023-04-18,2023-04-14,有限会社イーシーオー,,有限会社,東京都,中野区,本町６丁目２２番２１号,,13,114,1640012,,,2023-04-14,清算の結了等,,,2015-10-05,1,,,,,,0
1948,7012803002181,登記記録の閉鎖等,0,2023-04-18,2023-04-11,合同会社レミシンク,,合同会社,東京都,昭島市,玉川町１丁目８番１－１０７号,,13,207,1960034,,,2023-04-11,清算の結了等,,,2019-12-25,1,,,,,レミシンク,0
1949,7020001111861,登記記録の閉鎖等,0,2023-04-18,2023-04-06,宝＿株式会社,00010092,株式会社,神奈川県,横浜市鶴見区,鶴見中央４丁目３１番１６号良友ビル,,14,101,2300051,,,2023-04-06,清算の結了等,,,2015-10-05,1,,,,,ホウキン,0
1966,7021003009152,登記記録の閉鎖等,0,2023-04-18,2023-04-13,合同会社テラスコンサルタント,,合同会社,神奈川県,小田原市,国府津５丁目４番３８号,,14,206,2560812,,,2023-04-13,清算の結了等,,,2020-02-25,1,,,,,テラスコンサルタント,0
1981,7050005012302,登記記録の閉鎖等,0,2023-04-18,2023-04-05,一般社団法人みらいのこ,,その他の設立登記法人,茨城県,つくばみらい市,小絹１８５番地３,,08,235,3002445,,,2023-04-05,清算の結了等,,,2018-04-09,1,,,,,ミライノコ,0
1986,7080002010157,登記記録の閉鎖等,0,2023-04-18,2023-04-17,有限会社シルバーウイング,,有限会社,静岡県,静岡市清水区,草薙一里山３番３８号,,22,103,4240884,,,2023-04-17,清算の結了等,,,2015-10-05,1,,,,,シルバーウイング,0
1990,7080402008734,登記記録の閉鎖等,0,2023-04-18,2023-04-12,有限会社葭川商店,,有限会社,静岡県,浜松市中区,海老塚１丁目１５番８号,00080067,22,131,4328033,,,2023-04-12,清算の結了等,,,2015-10-05,1,,,,,ヨシカワショウテン,0
1999,7120001003735,登記記録の閉鎖等,0,2023-04-18,2023-04-13,大宝管財株式会社,,株式会社,大阪府,大阪市西成区,岸里東２丁目１０番８号,,27,122,5570042,,,2023-04-13,清算の結了等,,,2015-10-05,1,,,,,タイホウカンザイ,0
2000,7120001046998,登記記録の閉鎖等,0,2023-04-18,2023-04-13,株式会社フジペック,,株式会社,大阪府,大阪市西区,江戸堀２丁目４番７号,,27,106,5500002,,,2023-04-13,合併による解散等,5400001003758,令和５年４月１日岩手県紫波郡矢巾町流通センター南一丁目５番１４号サンリード株式会社（5400001003758）に合併し解散,2015-10-05,1,,,,,フジペック,0
2008,7120001176903,登記記録の閉鎖等,0,2023-04-18,2023-04-12,株式会社ピーシー,,株式会社,大阪府,大阪市平野区,西脇１丁目９番１号,,27,126,5470035,,,2023-04-12,清算の結了等,,,2015-10-05,1,,,,,ピーシー,0
2009,7120001181382,登記記録の閉鎖等,0,2023-04-18,2023-04-13,ＭＳ関西株式会社,,株式会社,大阪府,大阪市中央区,備後町４丁目１番３号,,27,128,5410051,,,2023-04-13,合併による解散等,1010001030440,令和５年４月３日東京都千代田区神田駿河台三丁目９番地三井住友海上エイジェンシー・サービス株式会社（1010001030440）に合併し解散,2015-10-05,1,,,,,エムエスカンサイ,0
2014,7120001220017,登記記録の閉鎖等,0,2023-04-18,2023-04-13,株式会社ＥＴ環境,,株式会社,大阪府,大阪市中央区,内淡路町１丁目３番６号,,27,128,5400038,,,2023-04-13,清算の結了等,,,2019-04-03,1,,,,,イーティーカンキョウ,0
2035,7122002016897,登記記録の閉鎖等,0,2023-04-18,2023-04-12,有限会社サポートゆう,,有限会社,大阪府,八尾市,南木の本６丁目３５番地の１１,,27,212,5810042,,,2023-04-12,清算の結了等,,,2015-10-05,1,,,,,サポートユウ,0
2043,7150003002352,登記記録の閉鎖等,0,2023-04-18,2023-04-10,合同会社ルミナス,,合同会社,奈良県,天理市,川原城町２６６－１東田ビル３０３,,29,204,6320016,,,2023-04-10,清算の結了等,,,2021-04-01,1,,,,,ルミナス,0
2058,7180003019121,登記記録の閉鎖等,0,2023-04-18,2023-04-13,合同会社ＭＩＲＡＣＬＥ,,合同会社,愛知県,名古屋市中村区,名駅５丁目３３番２１号,,23,105,4500002,,,2023-04-13,清算の結了等,,,2018-07-18,1,,,,,ミラクル,0
2061,7180301017371,登記記録の閉鎖等,0,2023-04-18,2023-04-05,ケイサポート株式会社,,株式会社,愛知県,安城市,城南町１丁目７番地４,,23,212,4460043,,,2023-04-05,清算の結了等,,,2015-10-05,1,,,,,ケイサポート,0
2108,7290005002551,登記記録の閉鎖等,0,2023-04-18,2023-04-10,福岡県砂利協同組合連合会,,その他の設立登記法人,福岡県,福岡市博多区,石城町１番９号,,40,132,8120032,,,2023-04-10,清算の結了等,,,2015-10-05,1,,,,,フクオカケンジャリレンゴウカイ,0
2127,7370001001128,登記記録の閉鎖等,0,2023-04-18,2023-04-11,グレープシティ株式会社,,株式会社,宮城県,仙台市泉区,紫山３丁目１番地の４,,04,105,9813205,,,2023-04-11,合併による解散等,4010001228874,令和５年４月１日東京都千代田区大手町一丁目５番１号グレープシティ株式会社（4010001228874）に合併し解散,2015-10-05,1,,,,,,0
2130,7370002006480,登記記録の閉鎖等,0,2023-04-18,2023-04-10,有限会社仙台ポバール興業,,有限会社,宮城県,仙台市若林区,荒井字藤田北裏上３０番地の２１,,04,103,9840032,,,2023-04-10,清算の結了等,,,2015-10-05,1,,,,,センダイポバールコウギョウ,0
2167,8010001210325,登記記録の閉鎖等,0,2023-04-18,2023-04-07,東忠株式会社,,株式会社,東京都,中央区,築地２丁目１５番１５－５１３号,,13,102,1040045,,,2023-04-07,清算の結了等,,,2020-06-17,1,,,,,トウチュウ,0
2184,8010401099714,登記記録の閉鎖等,0,2023-04-18,2023-03-31,ＡＫＳＫサービス株式会社,,株式会社,東京都,港区,赤坂１丁目１２番３２号,,13,103,1070052,,,2023-03-31,合併による解散等,8010001150001,令和５年３月２３日東京都港区赤坂一丁目１２番３２号ブレイン・アンド・キャピタル・ソリューションズ株式会社（8010001150001）に合併し解散,2015-10-05,1,,,,,エーケーエスケー,0
2186,8010401113739,登記記録の閉鎖等,0,2023-04-18,2023-04-07,株式会社ミューテ,,株式会社,神奈川県,横浜市戸塚区,上倉田町４９８番地１４,,14,110,2440816,,,2023-04-07,清算の結了等,,,2015-10-05,1,,,,,ミューテ,0
2196,8010501044339,登記記録の閉鎖等,0,2023-04-18,2023-04-17,プラントベースジャパン株式会社,,株式会社,東京都,台東区,雷門１丁目１６－８小海ビル３Ｆ,,13,106,1110034,,,2023-04-17,清算の結了等,,,2019-07-03,1,,,,,プラントベースジャパン,0
2197,8010502006635,登記記録の閉鎖等,0,2023-04-18,2023-04-17,高正帽子有限会社,,有限会社,東京都,台東区,浅草橋１丁目２４番１１号,,13,106,1110053,,,2023-04-17,清算の結了等,,,2015-10-05,1,,,,,タカマサボウシ,0
2201,8010701016690,登記記録の閉鎖等,0,2023-04-18,2023-04-05,株式会社アルティーユ・ケア,,株式会社,東京都,品川区,西五反田１丁目２７番４号,,13,109,1410031,,,2023-04-05,清算の結了等,,,2015-10-05,1,,,,,アルティーユケア,0
2215,8011001072292,登記記録の閉鎖等,0,2023-04-18,2023-04-11,株式会社Ｓｗｅｅｔ　Ｏｎｉｏｎ,,株式会社,東京都,渋谷区,上原１丁目１７番７号ＦＲＥＮＩＴＹＨＯＵＳＥ,,13,113,1510064,,,2023-04-11,清算の結了等,,,2015-10-05,1,,,,,スウィートオニオン,0
2231,8011605001944,登記記録の閉鎖等,0,2023-04-18,2023-04-03,一般社団法人ストップ・プリング・ジャパン,,その他の設立登記法人,東京都,練馬区,関町南３丁目６番２８号ボナール２０３,,13,120,1770053,,,2023-04-03,清算の結了等,,,2015-10-05,1,,,,,,0
2247,8020001004684,登記記録の閉鎖等,0,2023-04-18,2023-04-06,株式会社秋本薬局,,株式会社,神奈川県,横浜市旭区,鶴ケ峰１丁目１番８号,,14,112,2410022,,,2023-04-06,清算の結了等,,,2015-10-05,1,,,,,アキモトヤッキョク,0
2248,8020001014155,登記記録の閉鎖等,0,2023-04-18,2023-04-06,株式会社秋本薬局横浜西口店,,株式会社,神奈川県,横浜市西区,南幸２丁目１７番５号西口第２甘糟ビルディング,,14,103,2200005,,,2023-04-06,清算の結了等,,,2015-10-05,1,,,,,アキモトヤッキョクヨコハマニシグチテン,0
2258,8020002035027,登記記録の閉鎖等,0,2023-04-18,2023-04-06,有限会社鳶牧,,有限会社,神奈川県,横浜市港北区,鳥山町１０９０番地,,14,109,2220035,,,2023-04-06,清算の結了等,,,2015-10-05,1,,,,,,0
2263,8021001019482,登記記録の閉鎖等,0,2023-04-18,2023-04-12,株式会社エム・エス・ケイ,,株式会社,神奈川県,厚木市,上依知１２５８番地１,,14,212,2430801,,,2023-04-12,清算の結了等,,,2015-10-05,1,,,,,エムエスケイ,0
2266,8021001046725,登記記録の閉鎖等,0,2023-04-18,2023-04-06,ニッケン産業株式会社,,株式会社,神奈川県,綾瀬市,深谷上８丁目５番９号,,14,218,2521108,,,2023-04-06,清算の結了等,,,2015-10-05,1,,,,,ニッケンサンギョウ,0
2268,8021002009994,登記記録の閉鎖等,0,2023-04-18,2023-04-11,有限会社青木重機工業,,有限会社,神奈川県,茅ヶ崎市,堤１８６４番地４,,14,207,2530006,,,2023-04-11,清算の結了等,,,2015-10-05,1,,,,,アオキジュウキコウギョウ,0
2287,8040002049396,登記記録の閉鎖等,0,2023-04-18,2023-04-03,有限会社ユアーズ,,有限会社,千葉県,松戸市,日暮４丁目９番地の９,,12,207,2702253,,,2023-04-03,清算の結了等,,,2015-10-05,1,,,,,ユアーズ,0
2321,8120001141674,登記記録の閉鎖等,0,2023-04-18,2023-04-10,伊藤産業株式会社,,株式会社,大阪府,大阪市城東区,関目２丁目９番２４－４５号,,27,118,5360008,,,2023-04-10,清算の結了等,,,2015-10-05,1,,,,,イトウサンギョウ,0
2324,8120001204968,登記記録の閉鎖等,0,2023-04-18,2023-04-11,株式会社エコスタイル袋井発電所,,株式会社,大阪府,大阪市中央区,道修町１丁目４番６号,,27,128,5410045,,,2023-04-11,清算の結了等,,,2017-04-14,1,,,,,エコスタイルフクロイハツデンショ,0
2339,8140001008236,登記記録の閉鎖等,0,2023-04-18,2023-04-14,神港食品株式会社,,株式会社,兵庫県,神戸市中央区,布引町３丁目２番２号,,28,110,6510097,,,2023-04-14,清算の結了等,,,2015-10-05,1,,,,,シンコウショクヒン,0
2356,8180001066536,登記記録の閉鎖等,0,2023-04-18,2023-04-11,株式会社Ｊトラスト,,株式会社,愛知県,名古屋市西区,栄生３丁目２２番１号,,23,104,4510052,,,2023-04-11,清算の結了等,,,2015-10-05,1,,,,,ジェイトラスト,0
2366,8180002024988,登記記録の閉鎖等,0,2023-04-18,2023-04-10,山本食品有限会社,,有限会社,愛知県,名古屋市西区,比良２丁目２９９番地,,23,104,4520802,,,2023-04-10,清算の結了等,,,2015-10-05,1,,,,,ヤマモトショクヒン,0
2367,8180002054861,登記記録の閉鎖等,0,2023-04-18,2023-04-12,有限会社コンフォート,,有限会社,愛知県,名古屋市中川区,富田町大字榎津字北新海１５６１番地,,23,110,4540953,,,2023-04-12,清算の結了等,,,2015-10-05,1,,,,,コンフォート,0
2377,8190001027917,登記記録の閉鎖等,0,2023-04-18,2023-04-03,株式会社プロダクツ,,株式会社,三重県,桑名市,大字安永９２３番地,,24,205,5110839,,,2023-04-03,合併による解散等,2190001013443,令和５年４月１日三重県桑名市大字安永９２３番地株式会社アサプリ（2190001013443）に合併し解散,2020-12-24,1,,,,,プロダクツ,0
2384,8200002017510,登記記録の閉鎖等,0,2023-04-18,2023-04-06,有限会社堀部鈑金,,有限会社,岐阜県,可児郡御嵩町,上恵土１１８２番地の１,,21,521,5050126,,,2023-04-06,清算の結了等,,,2015-10-05,1,,,,,ホリベバンキン,0
2386,8210002002528,登記記録の閉鎖等,0,2023-04-18,2023-04-14,有限会社とみや食堂,,有限会社,福井県,福井市,中央１丁目５番７号,,18,201,9100006,,,2023-04-14,清算の結了等,,,2015-10-05,1,,,,,トミヤショクドウ,0
2391,8240001017169,登記記録の閉鎖等,0,2023-04-18,2023-04-10,株式会社シャイン企画,,株式会社,広島県,広島市安芸区,中野２丁目３番４号,,34,107,7390321,,,2023-04-10,清算の結了等,,,2015-10-05,1,,,,,シャインキカク,0
2397,8260001021144,登記記録の閉鎖等,0,2023-04-18,2023-04-03,株式会社ファーム登美,,株式会社,岡山県,苫田郡鏡野町,富西谷１２５番地の１,,33,606,7080701,,,2023-04-03,合併による解散等,9260001019617,令和５年４月１日岡山県苫田郡鏡野町井坂５２３番地の７株式会社未来奥津（9260001019617）に合併し解散,2015-10-05,1,,,,,ファームトミ,0
2406,8290802001044,登記記録の閉鎖等,0,2023-04-18,2023-04-14,有限会社エルエムシイ,,有限会社,福岡県,北九州市小倉北区,神岳２丁目８番２３号,,40,106,8020045,,,2023-04-14,清算の結了等,,,2015-10-05,1,,,,,エルエムシイ,0
2407,8300001010852,登記記録の閉鎖等,0,2023-04-18,2023-04-10,株式会社コスモ６８,,株式会社,佐賀県,西松浦郡有田町,丸尾丙２２７９番地１,,41,401,8440023,,,2023-04-10,清算の結了等,,,2017-06-01,1,,,,,コスモロクジュウハチ,0
2430,8430001013090,登記記録の閉鎖等,0,2023-04-18,2023-04-04,株式会社ノースプラン,,株式会社,北海道,札幌市東区,北丘珠二条３丁目２番３０号,,01,103,0070882,,,2023-04-04,合併による解散等,3010001197245,令和５年４月１日札幌市東区北丘珠二条三丁目２番３０号株式会社ホクエイ（3010001197245）に合併し解散,2015-10-05,1,,,,,ノースプラン,0
2436,8430002066897,登記記録の閉鎖等,0,2023-04-18,2023-04-05,有限会社ファミリー,,有限会社,北海道,札幌市南区,真駒内上町３丁目２番地１４,,01,106,0050012,,,2023-04-05,清算の結了等,,,2021-11-15,1,,,,,ファミリー,0
2450,8500001015781,登記記録の閉鎖等,0,2023-04-18,2023-04-17,山崎石油株式会社,,株式会社,愛媛県,南宇和郡愛南町,深浦１９２０番地,,38,506,7984342,,,2023-04-17,清算の結了等,,,2015-10-05,1,,,,,ヤマザキセキユ,0
2469,9010101001243,登記記録の閉鎖等,0,2023-04-18,2023-04-12,小坂織物株式会社,,株式会社,東京都,八王子市,高尾町１５６０番地,,13,201,1930844,,,2023-04-12,清算の結了等,,,2015-10-05,1,,,,,コサカオリモノ,0
2473,9010401083907,登記記録の閉鎖等,0,2023-04-18,2023-04-03,Ｍａｒｉｔｉｍｅ　Ｉｎｖｅｓｔｍｅｎｔ＆Ｆｉｎａｎｃｅ株式会社,,株式会社,東京都,港区,西新橋１丁目２０番３号,,13,103,1050003,,,2023-04-03,合併による解散等,5010401091368,令和５年４月１日東京都港区西新橋一丁目２０番３号株式会社トランスインベストメント（5010401091368）に合併し解散,2015-10-05,1,,,,,マリタイムインベストメントアンドファイナンス,0
2481,9010402022731,登記記録の閉鎖等,0,2023-04-18,2023-04-13,ＨＧＥ株式会社,,株式会社,東京都,港区,西新橋１丁目３番１号,,13,103,1050003,,,2023-04-13,合併による解散等,7010001171163,令和５年４月１日東京都千代田区神田神保町一丁目１０５番地三菱ＨＣキャピタルエナジー株式会社（7010001171163）に合併し解散,2015-10-05,1,,,,,エイチジーイー,0
2498,9010701039105,登記記録の閉鎖等,0,2023-04-18,2023-04-07,黒田マネジメントサービス株式会社,,株式会社,東京都,品川区,南大井５丁目１７番９号,,13,109,1400013,,,2023-04-07,合併による解散等,2010001186851,令和５年４月１日東京都品川区南大井五丁目１７番９号黒田グループ株式会社（2010001186851）に合併し解散,2020-04-06,1,,,,,クロダマネジメントサービス,0
2541,9011801020301,登記記録の閉鎖等,0,2023-04-18,2023-04-12,株式会社エフ・スリー,,株式会社,東京都,足立区,東和１丁目１３番９号,,13,121,1200003,,,2023-04-12,清算の結了等,,,2015-10-05,1,,,,,エフスリー,0
2576,9021002012980,登記記録の閉鎖等,0,2023-04-18,2023-04-10,有限会社サーフテクノ,,有限会社,神奈川県,茅ヶ崎市,円蔵２丁目８番４５号,,14,207,2530084,,,2023-04-10,清算の結了等,,,2015-10-05,1,,,,,サーフテクノ,0
2590,9040001039406,登記記録の閉鎖等,0,2023-04-18,2023-04-03,株式会社アイビー商事,,株式会社,千葉県,松戸市,東松戸３丁目７番地の２１,,12,207,2702225,,,2023-04-03,合併による解散等,1040001037227,令和５年４月１日千葉県松戸市東松戸三丁目７番地の２１株式会社ＹＫＫ　ＡＰラクシー（1040001037227）に合併し解散,2015-10-05,1,,,,,アイビーショウジ,0
2605,9060001024199,登記記録の閉鎖等,0,2023-04-18,2023-04-06,株式会社オオカワ,,株式会社,栃木県,鹿沼市,口粟野１０７番地,,09,205,3220305,,,2023-04-06,清算の結了等,,,2015-10-05,1,,,,,オオカワ,0
2612,9080002012705,登記記録の閉鎖等,0,2023-04-18,2023-04-14,有限会社ぷらんびー,,有限会社,静岡県,静岡市駿河区,用宗１丁目１９番２５号,,22,102,4210122,,,2023-04-14,清算の結了等,,,2015-10-05,1,,,,,プランビー,0
2614,9080402015084,登記記録の閉鎖等,0,2023-04-18,2023-04-12,有限会社鈴木土木,,有限会社,静岡県,浜松市浜北区,善地６１５番地,,22,136,4340025,,,2023-04-12,清算の結了等,,,2015-10-05,1,,,,,スズキドボク,0
2622,9100002004823,登記記録の閉鎖等,0,2023-04-18,2023-04-11,丸幸建設有限会社,,有限会社,長野県,長野市,大字桜８３３番地の２,,20,201,3800885,,,2023-04-11,清算の結了等,,,2015-10-05,1,,,,,マルコウケンセツ,0
2637,9120003019562,登記記録の閉鎖等,0,2023-04-18,2023-04-11,合同会社Ｂｌｕｔｅ,,合同会社,大阪府,大阪市北区,梅田２丁目５番１３号桜橋第一ビル３０４号,,27,127,5300001,,,2023-04-11,清算の結了等,,,2021-06-03,1,,,,,ブリューテ,0
2664,9140005001566,登記記録の閉鎖等,0,2023-04-18,2023-04-13,一般社団法人兵庫県造園建設業協会,,その他の設立登記法人,兵庫県,神戸市兵庫区,下沢通７丁目２番２８号,,28,105,6520047,,,2023-04-13,清算の結了等,,,2015-10-05,1,,,,,,0
2681,9180002052138,登記記録の閉鎖等,0,2023-04-18,2023-04-10,有限会社柳工作所,,有限会社,愛知県,北名古屋市,六ツ師山の神１５０番地の１,,23,234,4810001,,,2023-04-10,清算の結了等,,,2015-10-05,1,,,,,ヤナギコウサクショ,0
2690,9210002008664,登記記録の閉鎖等,0,2023-04-18,2023-04-14,ディーテック有限会社,,有限会社,福井県,福井市,江守中１丁目１１１番地の２,,18,201,9188025,,,2023-04-14,清算の結了等,,,2015-10-05,1,,,,,ディーテック,0
2697,9230005004411,登記記録の閉鎖等,0,2023-04-18,2023-04-14,協同組合Ｎｅｔ３工事センター,,その他の設立登記法人,富山県,滑川市,開６７６番地,,16,206,9360835,,,2023-04-14,清算の結了等,,,2015-10-05,1,,,,,ネットスリーコウジセンター,0
2704,9260002025300,登記記録の閉鎖等,0,2023-04-18,2023-04-12,有限会社橋本製麺所,00003776,有限会社,岡山県,浅口市,鴨方町小坂東１０番地,,33,216,7190241,,,2023-04-12,清算の結了等,,,2015-10-05,1,,,,,ハシモトセイメンショ,0
2708,9290001023707,登記記録の閉鎖等,0,2023-04-18,2023-04-10,株式会社読売西部情報開発,,株式会社,福岡県,福岡市中央区,赤坂１丁目１６番５号,,40,133,8100042,,,2023-04-10,合併による解散等,9010001031720,令和５年４月１日東京都千代田区平河町二丁目１３番３号株式会社読売情報開発（9010001031720）に合併し解散,2015-10-05,1,,,,,ヨミウリセイブジョウホウカイハツ,0
2733,9340002000740,登記記録の閉鎖等,0,2023-04-18,2023-04-12,有限会社アイシン,,有限会社,鹿児島県,鹿児島市,中央町５番地１５,,46,201,8900053,,,2023-04-12,清算の結了等,,,2015-10-05,1,,,,,アイシン,0
2743,9380001010662,登記記録の閉鎖等,0,2023-04-18,2023-04-14,福島日東シンコー株式会社,,株式会社,福島県,東白川郡塙町,大字西河内字上福沢１番地５,,07,483,9635407,,,2023-04-14,合併による解散等,7210001007611,令和５年４月１日福井県坂井市丸岡町舟寄１１０号１番地１日東シンコー株式会社（7210001007611）に合併し解散,2015-10-05,1,,,,,フクシマニットウシンコー,0
2744,9380001018986,登記記録の閉鎖等,0,2023-04-18,2023-04-07,株式会社楓,,株式会社,東京都,千代田区,麹町３丁目３番地ＫＤＸ麹町ビル４階,,13,101,1020083,,,2023-04-07,清算の結了等,,,2015-10-05,1,,,,,カエデ,0
2747,9410003003090,登記記録の閉鎖等,0,2023-04-18,2023-04-14,合同会社元氣,,合同会社,秋田県,秋田市,新屋高美町１番１４号,,05,201,0101641,,,2023-04-14,清算の結了等,,,2017-06-01,1,,,,,ゲンキ,0
2750,9430001009220,登記記録の閉鎖等,0,2023-04-18,2023-04-04,大栄工業株式会社,,株式会社,北海道,札幌市東区,北丘珠二条３丁目４番１２号,,01,103,0070882,,,2023-04-04,合併による解散等,3010001197245,令和５年４月１日札幌市東区北丘珠二条三丁目２番３０号株式会社ホクエイ（3010001197245）に合併し解散,2015-10-05,1,,,,,ダイエイコウギョウ,0
2751,9430001032619,登記記録の閉鎖等,0,2023-04-18,2023-03-31,ライフプレイス株式会社,,株式会社,北海道,札幌市北区,北二十四条西１６丁目１番１２号,,01,102,0010024,,,2023-03-31,合併による解散等,6430001076321,令和５年３月３１日札幌市北区北二十三条西五丁目１番３７号ＣＬＥＸ株式会社（6430001076321）に合併し解散,2015-10-05,1,,,,,ライフプレイス,0
