sequenceNumber,corporateNumber,process,correct,updateDate,changeDate,name,nameImageId,kind,prefectureName,cityName,streetNumber,addressImageId,prefectureCode,cityCode,postCode,addressOutside,addressOutsideImageId,closeDate,closeCause,successorCorporateNumber,changeCause,assignmentDate,latest,enName,enPrefectureName,enCityName,enAddressOutside,furigana,hihyoji
6,1010001260525,新規,0,2025-11-26,2025-11-26,株式会社ＳＨＩＰ第１０３７号,,株式会社,東京都,千代田区,丸の内２丁目７番２号,,13,101,1000005,,,,,,,2025-11-26,1,,,,,エスエイチアイピーダイセンサンジュウナナゴウ,0
7,1010001260533,新規,0,2025-11-26,2025-11-26,株式会社ＳＨＩＰ第１０４５号,,株式会社,東京都,千代田区,丸の内２丁目７番２号,,13,101,1000005,,,,,,,2025-11-26,1,,,,,エスエイチアイピーダイセンヨンジュウゴゴウ,0
8,1010001260541,新規,0,2025-11-26,2025-11-26,株式会社ＦＬＩＰ第３１５号,,株式会社,東京都,千代田区,丸の内２丁目７番２号,,13,101,1000005,,,,,,,2025-11-26,1,,,,,エフエルアイピーダイサンビャクジュウゴゴウ,0
9,1010001260681,新規,0,2025-11-26,2025-11-26,ＵＭＩストラテジーアンドファイナンス株式会社,,株式会社,東京都,中央区,築地１丁目１２番２２号コンワビル２階,,13,102,1040045,,,,,,,2025-11-26,1,,,,,ユーエムアイストラテジーアンドファイナンス,0
26,1010401194686,新規,0,2025-11-26,2025-11-26,ＬＳ‐ＳＨＩＰ第９４号株式会社,,株式会社,東京都,港区,六本木１丁目６番１号,,13,103,1060032,,,,,,,2025-11-26,1,,,,,エルエスシップダイキュウジュウヨンゴウ,0
27,1010401194760,新規,0,2025-11-26,2025-11-26,久誠株式会社,,株式会社,東京都,港区,六本木６丁目１０番１号六本木ヒルズ森タワー１６Ｆ－１７５５室,,13,103,1060032,,,,,,,2025-11-26,1,,,,,キュウセイ,0
44,1010405025061,新規,0,2025-11-26,2025-11-26,一般社団法人ＭＮ　Ｓｏｌａｒ　Ｓｔａｇｅ,,その他の設立登記法人,東京都,港区,芝浦１丁目１番１号,,13,103,1050023,,,,,,,2025-11-26,1,,,,,エムエヌソーラーステージ,0
46,1010501055094,新規,0,2025-11-26,2025-11-26,ジェイプランニング株式会社,,株式会社,東京都,台東区,元浅草４丁目８番１－８０２号,,13,106,1110041,,,,,,,2025-11-26,1,,,,,ジェイプランニング,0
47,1010601068319,新規,0,2025-11-26,2025-11-26,株式会社ｏｕｒａｉ,,株式会社,東京都,江東区,住吉２丁目２３番３号,,13,108,1350002,,,,,,,2025-11-26,1,,,,,オーライ,0
52,1010803005615,新規,0,2025-11-26,2025-11-26,合同会社ＡＳＰＨＥＲＥ,,合同会社,東京都,大田区,田園調布本町３４番１６－２０５号,,13,111,1450072,,,,,,,2025-11-26,1,,,,,アスフィア,0
56,1010903010449,新規,0,2025-11-26,2025-11-26,合同会社ｈａｎｄｓｈａｋｅ,,合同会社,東京都,世田谷区,奥沢３丁目１４番８号,,13,112,1580083,,,,,,,2025-11-26,1,,,,,ハンドシェイク,0
61,1011001173618,新規,0,2025-11-26,2025-11-26,ＰａｗＶａｘ　Ｊａｐａｎ株式会社,,株式会社,東京都,渋谷区,神南１丁目１１－４ＦＰＧリンクス神南５階,,13,113,1500041,,,,,,,2025-11-26,1,,,,,ポウヴァックスジャパン,0
62,1011001173832,新規,0,2025-11-26,2025-11-26,就労移行ＩＴスクール名古屋株式会社,,株式会社,東京都,渋谷区,道玄坂１丁目１５番１４号ＳＴ渋谷ビル６階,,13,113,1500043,,,,,,,2025-11-26,1,,,,,シュウロウイコウアイティースクールナゴヤ,0
63,1011001173873,新規,0,2025-11-26,2025-11-26,株式会社ＳＯＲＲＩＳＯ,,株式会社,東京都,目黒区,中目黒４丁目６番１－１３０７号,,13,110,1530061,,,,,,,2025-11-26,1,,,,,ソリーソ,0
64,1011003022905,新規,0,2025-11-26,2025-11-26,合同会社ＤｅｌｉｇｈｔＣｏｒｅ,,合同会社,東京都,渋谷区,広尾１丁目２番地１号ヒカリビル４階,,13,113,1500012,,,,,,,2025-11-26,1,,,,,ディライトコア,0
65,1011003022946,新規,0,2025-11-26,2025-11-26,合同会社ＡＬＣ,,合同会社,東京都,渋谷区,恵比寿２丁目２７番１０－１０４号ＺＯＯＭ広尾,,13,113,1500013,,,,,,,2025-11-26,1,,,,,エーエルシー,0
66,1011003022954,新規,0,2025-11-26,2025-11-26,合同会社ポテト,,合同会社,東京都,目黒区,青葉台４丁目７－３エムレジデンス渋谷神泉４０８,,13,110,1530042,,,,,,,2025-11-26,1,,,,,ポテト,0
67,1011003023003,新規,0,2025-11-26,2025-11-26,合同会社サイミン,,合同会社,東京都,渋谷区,道玄坂１丁目１０番８号渋谷道玄坂東急ビル２Ｆ―Ｃ,,13,113,1500043,,,,,,,2025-11-26,1,,,,,サイミン,0
74,1011101113977,新規,0,2025-11-26,2025-11-26,トラストジャパン株式会社,,株式会社,東京都,新宿区,新宿５丁目１８番２０号ルックハイツ新宿８０３号,,13,104,1600022,,,,,,,2025-11-26,1,,,,,トラストジャパン,0
75,1011105011657,新規,0,2025-11-26,2025-11-26,一般社団法人日本ライフコンディショニング協会,,その他の設立登記法人,東京都,新宿区,弁天町２３番地,,13,104,1620851,,,,,,,2025-11-26,1,,,,,ニホンライフコンディショニングキョウカイ,0
76,1011203004892,新規,0,2025-11-26,2025-11-26,合同会社響,,合同会社,東京都,中野区,本町２丁目１０－１４－１０３,,13,114,1640012,,,,,,,2025-11-26,1,,,,,ヒビキ,0
79,1011501032843,新規,0,2025-11-26,2025-11-26,株式会社ＨｉＴＯＴＳＵ,,株式会社,東京都,荒川区,東日暮里５丁目４２番１０－８０２号日暮里アインスタワー,,13,118,1160014,,,,,,,2025-11-26,1,,,,,ヒトツ,0
81,1011601029186,新規,0,2025-11-26,2025-11-26,株式会社拾壹・悦,,株式会社,東京都,練馬区,春日町６丁目１６番１１フォーチュン光が丘２０８号室,,13,120,1790074,,,,,,,2025-11-26,1,,,,,ジュウイチエツ,0
89,1011805003499,新規,0,2025-11-26,2025-11-26,弁護士法人ジェニュイン法律事務所,,その他の設立登記法人,東京都,葛飾区,新小岩３丁目２６番５号,,13,122,1240024,,,,,,,2025-11-26,1,,,,,ジェニュインホウリツジムショ,0
92,1012401043823,新規,0,2025-11-26,2025-11-26,海英俊株式会社,,株式会社,東京都,稲城市,坂浜４丁目２２－２２,,13,225,2060822,,,,,,,2025-11-26,1,,,,,カイエイシュン,0
110,1020001165806,新規,0,2025-11-26,2025-11-26,株式会社ＮＡＳＡＬＡ,,株式会社,神奈川県,横浜市都筑区,大丸三丁目２２番－３０２号,,14,118,2240061,,,,,,,2025-11-26,1,,,,,ナサラ,0
111,1020001165913,新規,0,2025-11-26,2025-11-26,Ｐｌａｉｎｂｒｅｗ株式会社,,株式会社,神奈川県,横浜市神奈川区,金港町５－１４クアドリフォリオ８階,,14,102,2210056,,,,,,,2025-11-26,1,,,,,プレインブリュー,0
112,1020001165979,新規,0,2025-11-26,2025-11-26,ＮＭＨ株式会社,,株式会社,神奈川県,川崎市麻生区,細山４丁目６番５－２号,,14,137,2150001,,,,,,,2025-11-26,1,,,,,エヌエムエイチ,0
118,1020003029521,新規,0,2025-11-26,2025-11-26,高瀬造園合同会社,,合同会社,神奈川県,横浜市西区,北幸２丁目１０番４８号,,14,103,2200004,,,,,,,2025-11-26,1,,,,,タカセゾウエン,0
119,1020003029752,新規,0,2025-11-26,2025-11-26,合同会社ＯＮ．,,合同会社,神奈川県,横浜市西区,北幸２丁目１０番４８号むつみビル３階,,14,103,2200004,,,,,,,2025-11-26,1,,,,,オン,0
124,1021001086835,新規,0,2025-11-26,2025-11-26,株式会社アリュエルトレーディング,,株式会社,神奈川県,相模原市南区,南台３丁目１１番３号,,14,153,2520314,,,,,,,2025-11-26,1,,,,,アリュエルトレーディング,0
131,1030001169814,新規,0,2025-11-26,2025-11-26,株式会社ＲＵＰＩＮＡ,,株式会社,埼玉県,久喜市,久喜東４丁目２３番４７号,,11,232,3460016,,,,,,,2025-11-26,1,,,,,ルピナ,0
139,1030003028159,新規,0,2025-11-26,2025-11-26,小江戸ＦＰ合同会社,,合同会社,埼玉県,川越市,大字砂７１６番地１８,,11,201,3501133,,,,,,,2025-11-26,1,,,,,コエドエフピー,0
140,1030005022341,新規,0,2025-11-26,2025-11-26,一般社団法人Ｍａｒｋｈａ　ａｎｄ　Ｒｅｉ,,その他の設立登記法人,埼玉県,熊谷市,高柳５番地２２,,11,202,3600855,,,,,,,2025-11-26,1,,,,,マルカアンドレイ,0
145,1040001141516,新規,0,2025-11-26,2025-11-26,株式会社まぐろ鎌形,,株式会社,千葉県,船橋市,市場１丁目８番１号,,12,204,2730001,,,,,,,2025-11-26,1,,,,,マグロカマガタ,0
148,1040005022951,新規,0,2025-11-26,2025-11-26,特定非営利活動法人美浜オーシャンクラブ,,その他の設立登記法人,千葉県,千葉市稲毛区,宮野木町９８４番地４参番館２０６,,12,103,2630054,,,,,,,2025-11-26,1,,,,,ミハマオーシャンクラブ,0
151,1060005010392,新規,0,2025-11-26,2025-11-26,医療法人厚倫会,,その他の設立登記法人,栃木県,鹿沼市,上殿町４７１番地６,,09,205,3220045,,,,,,,2025-11-26,1,,,,,コウリンカイ,0
153,1070001043585,新規,0,2025-11-26,2025-11-26,株式会社大隅弘靖,,株式会社,群馬県,邑楽郡大泉町,住吉２７番７号,,10,524,3700521,,,,,,,2025-11-26,1,,,,,オオスミヒロヤス,0
173,1120003031277,新規,0,2025-11-26,2025-11-26,鵬程合同会社,,合同会社,大阪府,大阪市福島区,吉野５丁目９番２２号－５０６号,,27,103,5530006,,,,,,,2025-11-26,1,,,,,ホウテイ,0
180,1122001039938,新規,0,2025-11-26,2025-11-26,欣安株式会社,,株式会社,大阪府,東大阪市,南四条町１２番８号１階,,27,227,5798054,,,,,,,2025-11-26,1,,,,,キンアン,0
188,1140003022893,新規,0,2025-11-26,2025-11-26,合同会社ながれぼし,,合同会社,兵庫県,尼崎市,西昆陽１丁目３番８号,,28,202,6610047,,,,,,,2025-11-26,1,,,,,ナガレボシ,0
192,1170001018890,新規,0,2025-11-26,2025-11-26,株式会社紀州田舎の小さな八百屋さん,,株式会社,和歌山県,御坊市,湯川町財部４８２番地９,,30,205,6440011,,,,,,,2025-11-26,1,,,,,キシュウイナカノチイサナヤオヤサン,0
197,1180001169592,新規,0,2025-11-26,2025-11-26,株式会社今日もボロ勝ち,,株式会社,愛知県,名古屋市中区,松原３丁目１２番５号,,23,106,4600017,,,,,,,2025-11-26,1,,,,,キョウモボロガチ,0
205,1180301040445,新規,0,2025-11-26,2025-11-26,美ＣＯＳＭＥＴＩＣＳ株式会社,,株式会社,愛知県,岡崎市,赤渋町字寺前７番地８,,23,202,4440241,,,,,,,2025-11-26,1,,,,,ミコスメティックス,0
207,1190003005282,新規,0,2025-11-26,2025-11-26,合同会社Ｋｓｔｙｌｅ,,合同会社,三重県,亀山市,川崎町２７４０,,24,210,5190211,,,,,,,2025-11-26,1,,,,,ケイスタイル,0
208,1200001044462,新規,0,2025-11-26,2025-11-26,株式会社ニュートラルボディ,,株式会社,岐阜県,海津市,平田町勝賀２番地２,,21,221,5030302,,,,,,,2025-11-26,1,,,,,ニュートラルボディ,0
216,1240001065819,新規,0,2025-11-26,2025-11-26,クリアソーシャル株式会社,,株式会社,広島県,広島市中区,白島九軒町３番２１－８０１号,,34,101,7300003,,,,,,,2025-11-26,1,,,,,クリアソーシャル,0
217,1240003007496,新規,0,2025-11-26,2025-11-26,Ｔａｋｕｔｏ合同会社,,合同会社,広島県,広島市中区,河原町３番２４－２０２号門本マンション,,34,101,7300856,,,,,,,2025-11-26,1,,,,,タクト,0
218,1250001021440,新規,0,2025-11-26,2025-11-26,株式会社みさき住装,,株式会社,山口県,宇部市,大字東須恵２４０５－３,,35,202,7590206,,,,,,,2025-11-26,1,,,,,ミサキジュウソウ,0
225,1280003002007,新規,0,2025-11-26,2025-11-26,合同会社昊明総産,,合同会社,島根県,邑智郡邑南町,井原１９７３番地１,,32,449,6960101,,,,,,,2025-11-26,1,,,,,コウメイソウサン,0
231,1290001112252,新規,0,2025-11-26,2025-11-26,株式会社ブリスハウジング,,株式会社,福岡県,小郡市,三沢３９３４番地２２,,40,216,8380106,,,,,,,2025-11-26,1,,,,,ブリスハウジング,0
232,1290001112293,新規,0,2025-11-26,2025-11-26,株式会社ロイヤルピース,,株式会社,福岡県,福岡市東区,美和台７丁目２９番３号ワンダフル美和台３０４,,40,131,8110212,,,,,,,2025-11-26,1,,,,,ロイヤルピース,0
243,1320001021458,新規,0,2025-11-26,2025-11-26,第一電気株式会社,,株式会社,大分県,大分市,大字佐賀関２２７６番地,,44,201,8792201,,,,,,,2025-11-26,1,,,,,ダイイチデンキ,0
251,1350003005076,新規,0,2025-11-26,2025-11-26,合同会社唱,,合同会社,宮崎県,宮崎市,高洲町１１５番地７,,45,201,8800852,,,,,,,2025-11-26,1,,,,,ショウ,0
252,1360001036072,新規,0,2025-11-26,2025-11-26,Ｉｓｌａｎｄ　Ｃｌｅａｎ株式会社,,株式会社,沖縄県,中頭郡北谷町,伊平１丁目１３番１４号３０１号室,,47,326,9040102,,,,,,,2025-11-26,1,,,,,アイランドクリーン,0
255,1360003015421,新規,0,2025-11-26,2025-11-26,合同会社でぃありば,,合同会社,沖縄県,石垣市,字大浜３１６番地,,47,207,9070001,,,,,,,2025-11-26,1,,,,,ディアリバ,0
257,1370003007376,新規,0,2025-11-26,2025-11-26,合同会社楽笑,,合同会社,宮城県,宮城郡利府町,菅谷字赤萱４１番地５２,,04,406,9810122,,,,,,,2025-11-26,1,,,,,ラクショウ,0
260,1390003002466,新規,0,2025-11-26,2025-11-26,合同会社誠,,合同会社,山形県,東置賜郡高畠町,大字福沢１８５９番地,,06,381,9992174,,,,,,,2025-11-26,1,,,,,マコト,0
264,1430001095714,新規,0,2025-11-26,2025-11-26,株式会社エヌエー資産管理,,株式会社,北海道,札幌市手稲区,新発寒四条３丁目９番２０号,,01,109,0060804,,,,,,,2025-11-26,1,,,,,エヌエーシサンカンリ,0
265,1430001095722,新規,0,2025-11-26,2025-11-26,株式会社ＫＡＭＥＮＯＡＹＵＭＩ,,株式会社,北海道,虻田郡洞爺湖町,洞爺町４１３番地４レジデンス洞爺Ｂ棟１０１号室,,01,584,0495802,,,,,,,2025-11-26,1,,,,,カメノアユミ,0
266,1430001095730,新規,0,2025-11-26,2025-11-26,Ｂ・Ｂブリッジ株式会社,,株式会社,北海道,札幌市中央区,南三条西１丁目８番地１０ＣＯＮＮＥＣＴＳＡＰＰＯＲＯ４Ｆ,,01,101,0600063,,,,,,,2025-11-26,1,,,,,ビービーブリッジ,0
267,1430001095739,新規,0,2025-11-26,2025-11-26,鈴豊株式会社,,株式会社,北海道,石狩市,生振３６３番地１８,,01,235,0613245,,,,,,,2025-11-26,1,,,,,レイホウ,0
277,1700150133065,新規,0,2025-11-26,2025-11-26,ＡＳＯＳＩＡＳＩ　ＰＥＮＹＥＬＥＮＧＧＡＲＡ　ＰＥＭＡＧＡＮＧＡＮ　ＩＮＤＯＮＥＳＩＡ,,外国会社等,三重県,津市,羽所町７００番地,,24,201,5140009,インドネシア共和国、ジャカルタ特別州中央ジャカルタ地区タナアバン、ゲロラセナヤン９番入口アジアアフリカ通り、ＳＴＣセナヤンビル２階３５号室,,,,,,2025-11-26,1,,,,,アソシアシペニヤレンガラペマガンガンインドネシア,0
283,2010001260490,新規,0,2025-11-26,2025-11-26,株式会社ｉＨａｂｉｔ　Ｊａｐａｎ,,株式会社,東京都,中央区,銀座１丁目１２番４号ＮアンドＥＢＬＤ６Ｆ,,13,102,1040061,,,,,,,2025-11-26,1,,,,,アイハビットジャパン,0
284,2010001260524,新規,0,2025-11-26,2025-11-26,株式会社ＳＨＩＰ第１０３６号,,株式会社,東京都,千代田区,丸の内２丁目７番２号,,13,101,1000005,,,,,,,2025-11-26,1,,,,,エスエイチアイピーダイセンサンジュウロクゴウ,0
285,2010001260532,新規,0,2025-11-26,2025-11-26,株式会社ＳＨＩＰ第１０４４号,,株式会社,東京都,千代田区,丸の内２丁目７番２号,,13,101,1000005,,,,,,,2025-11-26,1,,,,,エスエイチアイピーダイセンヨンジュウヨンゴウ,0
286,2010001260540,新規,0,2025-11-26,2025-11-26,株式会社ＳＨＩＰ第１０５２号,,株式会社,東京都,千代田区,丸の内２丁目７番２号,,13,101,1000005,,,,,,,2025-11-26,1,,,,,エスエイチアイピーダイセンゴジュウニゴウ,0
287,2010001260598,新規,0,2025-11-26,2025-11-26,ｓｙｎｖｉｅ　ｃｏｎｓｕｌｔｉｎｇ株式会社,,株式会社,東京都,千代田区,丸の内１丁目６－６日本生命丸の内ビル２１Ｆ,,13,101,1000005,,,,,,,2025-11-26,1,,,,,シンビーコンサルティング,0
288,2010003048752,新規,0,2025-11-26,2025-11-26,合同会社ビジョンウェブ,,合同会社,東京都,中央区,銀座１丁目２２－１１,,13,102,1040061,,,,,,,2025-11-26,1,,,,,ビジョンウェブ,0
289,2010005040996,新規,0,2025-11-26,2025-11-26,一般社団法人ＢＴＭ,,その他の設立登記法人,東京都,千代田区,丸の内１丁目４番１号東京共同会計事務所内,,13,101,1000005,,,,,,,2025-11-26,1,,,,,ビーティーエム,0
295,2010401194347,新規,0,2025-11-26,2025-11-26,株式会社ＳＥエンターテイメント,,株式会社,東京都,港区,赤坂１丁目５－１５溜池アネックス４Ｆ,,13,103,1070052,,,,,,,2025-11-26,1,,,,,エスイーエンターテイメント,0
296,2010401194636,新規,0,2025-11-26,2025-11-26,株式会社ＡＷＬ　ＣＯＮＳＵＬＴＩＮＧ,,株式会社,東京都,港区,北青山１丁目３番１号アールキューブ青山３階,,13,103,1070061,,,,,,,2025-11-26,1,,,,,オルコンサルティング,0
303,2010403036662,新規,0,2025-11-26,2025-11-26,Ｓｔｅｌｏ　ＪＰ合同会社,,合同会社,東京都,港区,赤坂１丁目１１番４４号赤坂インターシティ５階Ｆｏｒｖｉｓ・Ｍａｚａｒｓ・Ｊａｐａｎ株式会社内,,13,103,1070052,,,,,,,2025-11-26,1,,,,,ステロジェイピー,0
304,2010405024946,新規,0,2025-11-26,2025-11-26,一般社団法人ベストファッション診断協会,,その他の設立登記法人,東京都,港区,北青山１丁目３番１号アールキューブ青山３階,,13,103,1070061,,,,,,,2025-11-26,1,,,,,ベストファッションシンダンキョウカイ,0
311,2010901058506,新規,0,2025-11-26,2025-11-26,株式会社さかえ屋,,株式会社,東京都,世田谷区,等々力３丁目５番７号,,13,112,1580082,,,,,,,2025-11-26,1,,,,,サカエヤ,0
312,2010901058514,新規,0,2025-11-26,2025-11-26,株式会社ＴＲＤ,,株式会社,東京都,世田谷区,羽根木２丁目１７番１１号,,13,112,1560042,,,,,,,2025-11-26,1,,,,,ティーアールディー,0
317,2011001173633,新規,0,2025-11-26,2025-11-26,株式会社ＳＯＬプラネット,,株式会社,東京都,渋谷区,広尾１丁目２番１号ヒカリビル４階,,13,113,1500012,,,,,,,2025-11-26,1,,,,,ソルプラネット,0
318,2011001173658,新規,0,2025-11-26,2025-11-26,株式会社ｒａｄｉｉｉ,,株式会社,東京都,渋谷区,広尾１丁目２番地１号　ヒカリビル４階,,13,113,1500012,,,,,,,2025-11-26,1,,,,,ラディー,0
319,2011001173674,新規,0,2025-11-26,2025-11-26,株式会社タロー浦島,,株式会社,東京都,渋谷区,円山町５番５号Ｎａｖｉ渋谷Ｖ３階,,13,113,1500044,,,,,,,2025-11-26,1,,,,,タローウラシマ,0
323,2011003023010,新規,0,2025-11-26,2025-11-26,合同会社ＩｌｌｕｍｉＢｏｘ,,合同会社,東京都,渋谷区,道玄坂１丁目１０番８号渋谷道玄坂東急ビル２Ｆ－Ｃ,,13,113,1500043,,,,,,,2025-11-26,1,,,,,イルミボックス,0
330,2011103016715,新規,0,2025-11-26,2025-11-26,合同会社Ｔｈｅ　Ｓｔａｎｄａｒｄ,,合同会社,東京都,新宿区,西新宿７丁目７番２３号４階,,13,104,1600023,,,,,,,2025-11-26,1,,,,,ザスタンダード,0
336,2011301031078,新規,0,2025-11-26,2025-11-26,株式会社ヒーロープロデュース,,株式会社,東京都,杉並区,下高井戸１丁目２６番１７号,,13,115,1680073,,,,,,,2025-11-26,1,,,,,ヒーロープロデュース,0
337,2011303005773,新規,0,2025-11-26,2025-11-26,合同会社ＮＹＴ,,合同会社,東京都,杉並区,浜田山４丁目１６番４－３２９号,,13,115,1680065,,,,,,,2025-11-26,1,,,,,エヌワイティー,0
349,2013101009865,新規,0,2025-11-26,2025-11-26,株式会社エムティ・マシナリー,,株式会社,東京都,羽村市,神明台２丁目５番地６７,,13,227,2050023,,,,,,,2025-11-26,1,,,,,エムティーマシナリー,0
361,2020001165953,新規,0,2025-11-26,2025-11-26,株式会社ＡＵＲＩＸ,,株式会社,神奈川県,川崎市川崎区,駅前本町１１番地２川崎フロンティアビル４階,,14,131,2100007,,,,,,,2025-11-26,1,,,,,アウリックス,0
362,2020001165978,新規,0,2025-11-26,2025-11-26,株式会社志新設備,,株式会社,神奈川県,川崎市多摩区,南生田５丁目６番４号,,14,135,2140036,,,,,,,2025-11-26,1,,,,,シシンセツビ,0
363,2020001165986,新規,0,2025-11-26,2025-11-26,株式会社ＴＡＩＳＨＵ,,株式会社,神奈川県,横浜市南区,南太田１丁目４４番１号,,14,105,2320006,,,,,,,2025-11-26,1,,,,,タイシュ,0
372,2021001086850,新規,0,2025-11-26,2025-11-26,株式会社Ｒｅ’ｓ,,株式会社,神奈川県,愛甲郡愛川町,中津４０６７番地２,,14,401,2430303,,,,,,,2025-11-26,1,,,,,リズ,0
375,2021003016822,新規,0,2025-11-26,2025-11-26,ｃｏｓｍｏｓｗｉｎｇ合同会社,,合同会社,神奈川県,三浦郡葉山町,堀内８９０番地沖和荘２０２,,14,301,2400112,,,,,,,2025-11-26,1,,,,,コスモスウィング,0
376,2021003016830,新規,0,2025-11-26,2025-11-26,合同会社リライフホームケア,,合同会社,神奈川県,平塚市,黒部丘２３番７号,,14,203,2540821,,,,,,,2025-11-26,1,,,,,リライフホームケア,0
390,2040001141515,新規,0,2025-11-26,2025-11-26,ＪａｅｒｏＶ株式会社,,株式会社,千葉県,千葉市中央区,富士見１丁目１４－１３千葉大栄ビル８階８１３,,12,101,2600015,,,,,,,2025-11-26,1,,,,,ジェイエアロブイ,0
391,2040001141523,新規,0,2025-11-26,2025-11-26,ＳＯＹＵＺ株式会社,,株式会社,千葉県,木更津市,清見台１丁目１９番３号,,12,206,2920045,,,,,,,2025-11-26,1,,,,,ソユーズ,0
405,2070001043584,新規,0,2025-11-26,2025-11-26,株式会社ＦＵＮＥＡＲＴＨ,,株式会社,群馬県,安中市,安中４３９２番地１,,10,211,3790116,,,,,,,2025-11-26,1,,,,,ファンアース,0
407,2080003003610,新規,0,2025-11-26,2025-11-26,合同会社晴耕雨読,,合同会社,静岡県,静岡市清水区,旭町７番２５号保科ビル４０２,,22,103,4240822,,,,,,,2025-11-26,1,,,,,セイコウウドク,0
413,2100003008466,新規,0,2025-11-26,2025-11-26,ｔｏｍｏｄｏｍｏ合同会社,,合同会社,長野県,塩尻市,大門八番町１－２８シビック・イノベーション拠点スナバ１階,,20,215,3990737,,,,,,,2025-11-26,1,,,,,トモドモ,0
419,2120001280767,新規,0,2025-11-26,2025-11-26,株式会社ＢＥＳＣＵ,,株式会社,大阪府,大阪市北区,大淀中２丁目６番２０号,,27,127,5310076,,,,,,,2025-11-26,1,,,,,ベスク,0
420,2120001282276,新規,0,2025-11-26,2025-11-26,Ｗｅｌｌｂｌｏｏｍｉｎｇ株式会社,,株式会社,大阪府,大阪市北区,梅田１丁目２番２号大阪駅前第２ビル１２－１２,,27,127,5300001,,,,,,,2025-11-26,1,,,,,ウェルブルーミング,0
432,2120901051846,新規,0,2025-11-26,2025-11-26,株式会社激情ホールディングス,,株式会社,大阪府,豊中市,本町５丁目１１番１８号,,27,203,5600021,,,,,,,2025-11-26,1,,,,,ゲキジョウホールディングス,0
436,2130001081082,新規,0,2025-11-26,2025-11-26,株式会社アントルドゥヴァン,,株式会社,京都府,京都市山科区,四ノ宮小金塚８番地３０４,,26,110,6078022,,,,,,,2025-11-26,1,,,,,アントルドゥヴァン,0
450,2170003002339,新規,0,2025-11-26,2025-11-26,合同会社キカウェブ,,合同会社,和歌山県,岩出市,溝川３０４番地（Ｉ－２０２号）,,30,209,6496221,,,,,,,2025-11-26,1,,,,,キカウェブ,0
469,2180301040444,新規,0,2025-11-26,2025-11-26,３ＳｅＡホールディングス株式会社,,株式会社,愛知県,蒲郡市,府相町３丁目５４番地,,23,214,4430054,,,,,,,2025-11-26,1,,,,,スリーシーホールディングス,0
472,2200001044461,新規,0,2025-11-26,2025-11-26,株式会社アイネ,,株式会社,岐阜県,関市,中之保３２３１番地,,21,205,5013511,,,,,,,2025-11-26,1,,,,,アイネ,0
473,2220001027035,新規,0,2025-11-26,2025-11-26,株式会社イナミセツビ,,株式会社,石川県,鳳珠郡能登町,字松波イ字２９番地３,,17,463,9270602,,,,,,,2025-11-26,1,,,,,イナミセツビ,0
475,2220003004172,新規,0,2025-11-26,2025-11-26,合同会社Ｌｕｍｉｎｏｕｓ,,合同会社,石川県,野々市市,下林４丁目５６３番地セルディーナＡ号室,,17,212,9218831,,,,,,,2025-11-26,1,,,,,ルミナス,0
477,2230003002539,新規,0,2025-11-26,2025-11-26,Ｋａｂｅｅｒ　Ｔｒａｄｉｎｇ合同会社,,合同会社,富山県,射水市,堀岡古明神字海岸１７５番地,,16,211,9330224,,,,,,,2025-11-26,1,,,,,カビールトレーディング,0
479,2240001065784,新規,0,2025-11-26,2025-11-26,Ｙ．Ｍ．Ｃ株式会社,,株式会社,広島県,呉市,安浦町三津口６丁目１－５,,34,202,7372502,,,,,,,2025-11-26,1,,,,,ワイエムシー,0
480,2240003007495,新規,0,2025-11-26,2025-11-26,Ｆｒａｎｃｅ合同会社,,合同会社,広島県,広島市中区,河原町３番２４－２０２号門本マンション,,34,101,7300856,,,,,,,2025-11-26,1,,,,,フランス,0
490,2290003017738,新規,0,2025-11-26,2025-11-26,ｈ２Ａｒｃｈｉｔｅｃｔ合同会社,,合同会社,福岡県,福岡市城南区,七隈５丁目１８－３０,,40,136,8140133,,,,,,,2025-11-26,1,,,,,エイチツーアーキテクト,0
491,2290003017746,新規,0,2025-11-26,2025-11-26,合同会社ひまわり,,合同会社,福岡県,福岡市城南区,別府６丁目１９－２ポラリス別府８,,40,136,8140104,,,,,,,2025-11-26,1,,,,,ヒマワリ,0
493,2290805009882,新規,0,2025-11-26,2025-11-26,一般社団法人張華慶大書法藝術館,,その他の設立登記法人,福岡県,北九州市若松区,片山３丁目５番８号,,40,103,8080106,,,,,,,2025-11-26,1,,,,,チョウカケイダイショホウゲイジュツカン,0
497,2330003011331,新規,0,2025-11-26,2025-11-26,井村運送合同会社,,合同会社,熊本県,宇城市,小川町川尻７５３番地１,,43,213,8690623,,,,,,,2025-11-26,1,,,,,イムラウンソウ,0
503,2360001036071,新規,0,2025-11-26,2025-11-26,株式会社ｉ・ｃ　ｐａｎｉ　ｐａｎｉ,,株式会社,沖縄県,沖縄市,比屋根６丁目３４番１０号イシケンマンション４０３,,47,211,9042173,,,,,,,2025-11-26,1,,,,,アイシーパニパニ,0
513,2380001035716,新規,0,2025-11-26,2025-11-26,Ｔｒｉｃｕｂｅ株式会社,,株式会社,福島県,いわき市,常磐湯本町三函１８９番地の３,,07,204,9728321,,,,,,,2025-11-26,1,,,,,トライキューブ,0
516,2390001018166,新規,0,2025-11-26,2025-11-26,旭日商事株式会社,,株式会社,山形県,東根市,温泉町１丁目２２番２４－２－１１３号,,06,211,9993702,,,,,,,2025-11-26,1,,,,,アサヒショウジ,0
517,2390003002465,新規,0,2025-11-26,2025-11-26,合同会社みらいビルド,,合同会社,山形県,米沢市,中田町７５１―１,,06,202,9920011,,,,,,,2025-11-26,1,,,,,ミライビルド,0
518,2400001017232,新規,0,2025-11-26,2025-11-26,株式会社遠野農事,,株式会社,岩手県,遠野市,青笹町糠前２８地割６３番１,,03,208,0280501,,,,,,,2025-11-26,1,,,,,トオノノウジ,0
520,2410001014328,新規,0,2025-11-26,2025-11-26,株式会社ＳＵＲＧＥＯＮＳ’　ＤＥＬＩＧＨＴ,,株式会社,秋田県,秋田市,手形山北町１番１０号,,05,201,0100842,,,,,,,2025-11-26,1,,,,,サージョンズディライト,0
532,2490001011219,新規,0,2025-11-26,2025-11-26,株式会社ＶＥＲＤＥ,,株式会社,高知県,高知市,農人町１－１６－１００１,,39,201,7800825,,,,,,,2025-11-26,1,,,,,ヴェルデ,0
546,3010001260399,新規,0,2025-11-26,2025-11-26,株式会社Ｋｙｏｍｅｉ,,株式会社,東京都,中央区,銀座７丁目１３番２０号銀座ＴＨビル９階,,13,102,1040061,,,,,,,2025-11-26,1,,,,,キョウメイ,0
547,3010001260432,新規,0,2025-11-26,2025-11-26,株式会社スミナ,,株式会社,東京都,中央区,勝どき５丁目１１番１７－１００８号,,13,102,1040054,,,,,,,2025-11-26,1,,,,,スミナ,0
548,3010001260523,新規,0,2025-11-26,2025-11-26,株式会社ＳＨＩＰ第１０３５号,,株式会社,東京都,千代田区,丸の内２丁目７番２号,,13,101,1000005,,,,,,,2025-11-26,1,,,,,エスエイチアイピーダイセンサンジュウゴゴウ,0
549,3010001260531,新規,0,2025-11-26,2025-11-26,株式会社ＳＨＩＰ第１０４３号,,株式会社,東京都,千代田区,丸の内２丁目７番２号,,13,101,1000005,,,,,,,2025-11-26,1,,,,,エスエイチアイピーダイセンヨンジュウサンゴウ,0
550,3010001260597,新規,0,2025-11-26,2025-11-26,株式会社アンラベル,,株式会社,東京都,千代田区,神田和泉町１番地６－１６ヤマトビル４０５,,13,101,1010024,,,,,,,2025-11-26,1,,,,,アンラベル,0
551,3010001260655,新規,0,2025-11-26,2025-11-26,アルシスジャパン株式会社,,株式会社,東京都,中央区,銀座１丁目１２番４号Ｎ＆ＥＢＬＤ．６Ｆ,,13,102,1040061,,,,,,,2025-11-26,1,,,,,アルシスジャパン,0
552,3010001260671,新規,0,2025-11-26,2025-11-26,凌遠株式会社,,株式会社,東京都,中央区,勝どき２丁目１０番１６－７１１号（Ｂ）,,13,102,1040054,,,,,,,2025-11-26,1,,,,,リョウエン,0
553,3010003049493,新規,0,2025-11-26,2025-11-26,グリーンＸ合同会社,,合同会社,東京都,中央区,築地２丁目１５－１５セントラル東銀座１４Ｆ,,13,102,1040045,,,,,,,2025-11-26,1,,,,,グリーンエックス,0
576,3010403036620,新規,0,2025-11-26,2025-11-26,合同会社アッパービレッジ,,合同会社,東京都,港区,麻布十番２丁目１１番５号,,13,103,1060045,,,,,,,2025-11-26,1,,,,,アッパービレッジ,0
579,3010601068325,新規,0,2025-11-26,2025-11-26,株式会社ＰｉｃｔｏｒＬａｂ,,株式会社,東京都,墨田区,緑４丁目３２番７,,13,107,1300021,,,,,,,2025-11-26,1,,,,,ピクターラボ,0
580,3010601068333,新規,0,2025-11-26,2025-11-26,株式会社Ｐａｇａｒａｎ,,株式会社,東京都,江東区,青海２丁目７番４号ｔｈｅＳＯＨＯ１００４号室,,13,108,1350064,,,,,,,2025-11-26,1,,,,,パガラン,0
589,3010903010422,新規,0,2025-11-26,2025-11-26,合同会社ＡＲＰ,,合同会社,東京都,世田谷区,深沢３丁目６番１２号カーサミア深沢３０１,,13,112,1580081,,,,,,,2025-11-26,1,,,,,アルプ,0
590,3010903010439,新規,0,2025-11-26,2025-11-26,龍鳳呈稀合同会社,,合同会社,東京都,世田谷区,太子堂４丁目５番４－６０２号,,13,112,1540004,,,,,,,2025-11-26,1,,,,,ロンフォンチェンシー,0
591,3010903010447,新規,0,2025-11-26,2025-11-26,合同会社ＣＩＰＧｒｏｗｔｈ,,合同会社,東京都,世田谷区,太子堂４丁目１８番１５号マガザン三軒茶屋２－３Ｆ－３,,13,112,1540004,,,,,,,2025-11-26,1,,,,,シーアイピーグロース,0
596,3011001173541,新規,0,2025-11-26,2025-11-26,株式会社ａＮｉｔｒｅｅ,,株式会社,東京都,目黒区,上目黒４丁目３７番１－１０６号,,13,110,1530051,,,,,,,2025-11-26,1,,,,,アニツリー,0
597,3011001173574,新規,0,2025-11-26,2025-11-26,株式会社ｐｒｅｓｅｎｃｅ　ｇａｔｅ,,株式会社,東京都,渋谷区,道玄坂１丁目１６－６二葉ビル８ｂ,,13,113,1500043,,,,,,,2025-11-26,1,,,,,プレゼンスゲート,0
598,3011001173616,新規,0,2025-11-26,2025-11-26,株式会社エイトウィン,,株式会社,東京都,渋谷区,恵比寿西２丁目４番８号ウィンド恵比寿ビル８Ｆ,,13,113,1500021,,,,,,,2025-11-26,1,,,,,エイトウィン,0
599,3011001173896,新規,0,2025-11-26,2025-11-26,株式会社Ｂｅ,,株式会社,東京都,渋谷区,西原２丁目１４番１８号,,13,113,1510066,,,,,,,2025-11-26,1,,,,,ビー,0
600,3011001173962,新規,0,2025-11-26,2025-11-26,株式会社Ｋ　ｃａｐｉｔａｌ,,株式会社,東京都,渋谷区,南平台町１７番１３号ヴァンヴェール南平台１００１,,13,113,1500036,,,,,,,2025-11-26,1,,,,,ケーキャピタル,0
608,3011103016697,新規,0,2025-11-26,2025-11-26,合同会社Ｈｏｌｓｏｍｅ,,合同会社,東京都,新宿区,西新宿３丁目３番１３号西新宿水間ビル６階,,13,104,1600023,,,,,,,2025-11-26,1,,,,,ホルサム,0
609,3011103016706,新規,0,2025-11-26,2025-11-26,ＣＣ合同会社,,合同会社,東京都,新宿区,若葉１丁目２番地５,,13,104,1600011,,,,,,,2025-11-26,1,,,,,シーシー,0
610,3011303005780,新規,0,2025-11-26,2025-11-26,合同会社アセットマネジメント内田,,合同会社,東京都,杉並区,下高井戸５丁目６番７号,,13,115,1680073,,,,,,,2025-11-26,1,,,,,アセットマネジメントウチダ,0
615,3011703004465,新規,0,2025-11-26,2025-11-26,合同会社ｍｋｓ,,合同会社,東京都,江戸川区,平井７丁目５－２３－１０１,,13,123,1320035,,,,,,,2025-11-26,1,,,,,エムケイエス,0
620,3012403007469,新規,0,2025-11-26,2025-11-26,合同会社伴走,,合同会社,東京都,調布市,西つつじケ丘２丁目２４番地８,,13,208,1820006,,,,,,,2025-11-26,1,,,,,バンソウ,0
624,3020001165952,新規,0,2025-11-26,2025-11-26,グランドバンブー株式会社,,株式会社,神奈川県,川崎市中原区,苅宿１１番３０号,,14,133,2110022,,,,,,,2025-11-26,1,,,,,グランドバンブー,0
625,3020001165993,新規,0,2025-11-26,2025-11-26,株式会社Ｂｌｏｏｍ　Ｄａｙｓ,,株式会社,神奈川県,横浜市磯子区,磯子３丁目８番１９－３０６号,,14,107,2350016,,,,,,,2025-11-26,1,,,,,ブルームデイズ,0
633,3020003029809,新規,0,2025-11-26,2025-11-26,合同会社スリーイエロー,,合同会社,神奈川県,横浜市鶴見区,岸谷２丁目１２番１－２１１号,,14,101,2300078,,,,,,,2025-11-26,1,,,,,スリーイエロー,0
634,3020003029817,新規,0,2025-11-26,2025-11-26,ＧＴＡＺ合同会社,,合同会社,神奈川県,横浜市神奈川区,金港町５－１４クアドリフォリオ８階,,14,102,2210056,,,,,,,2025-11-26,1,,,,,ジーティーエーゼット,0
635,3020003029866,新規,0,2025-11-26,2025-11-26,合同会社居宅介護支援事業所ケアサポートこでまり,,合同会社,神奈川県,横浜市鶴見区,矢向６丁目９－２,,14,101,2300001,,,,,,,2025-11-26,1,,,,,キョタクカイゴシエンジギョウショケアサポートコデマリ,0
639,3021001086833,新規,0,2025-11-26,2025-11-26,株式会社ＣＳＫ,,株式会社,神奈川県,中郡大磯町,東小磯９１０番地８,,14,341,2550004,,,,,,,2025-11-26,1,,,,,シーエスケー,0
642,3021003016813,新規,0,2025-11-26,2025-11-26,弘法山神禅院合同会社,,合同会社,神奈川県,秦野市,南矢名１２２９番地の１９,,14,211,2570003,,,,,,,2025-11-26,1,,,,,コウボウヤマシンゼンイン,0
655,3050001057635,新規,0,2025-11-26,2025-11-26,アグリアライアンス株式会社,,株式会社,茨城県,小美玉市,中延１５３４－２,,08,236,3113422,,,,,,,2025-11-26,1,,,,,アグリアライアンス,0
656,3050001057643,新規,0,2025-11-26,2025-11-26,株式会社キッチンＭＯＣＡ,,株式会社,茨城県,水戸市,渡里町２７２７番地２,,08,201,3100902,,,,,,,2025-11-26,1,,,,,キッチンモカ,0
662,3070003006200,新規,0,2025-11-26,2025-11-26,合同会社堀地商店,,合同会社,群馬県,渋川市,金井１２３３番地１６,,10,208,3770027,,,,,,,2025-11-26,1,,,,,ホリチショウテン,0
672,3120001281731,新規,0,2025-11-26,2025-11-26,株式会社レガシー,,株式会社,大阪府,大阪市西区,新町１丁目５－７四ツ橋ビルディング,,27,106,5500013,,,,,,,2025-11-26,1,,,,,レガシー,0
673,3120001282011,新規,0,2025-11-26,2025-11-26,ユニーク研修株式会社,,株式会社,大阪府,大阪市東淀川区,東中島１丁目２０番１２号ユニゾーン新大阪７１０号室,,27,114,5330033,,,,,,,2025-11-26,1,,,,,ユニークケンシュウ,0
691,3140001140893,新規,0,2025-11-26,2025-11-26,株式会社成幸地所,,株式会社,兵庫県,西脇市,西脇７１２番地の１０７,,28,213,6770015,,,,,,,2025-11-26,1,,,,,セイコウジショ,0
695,3170001018889,新規,0,2025-11-26,2025-11-26,まみらいふ株式会社,,株式会社,和歌山県,伊都郡かつらぎ町,大字西渋田４６番地の３,,30,341,6497154,,,,,,,2025-11-26,1,,,,,マミライフ,0
711,3180001169574,新規,0,2025-11-26,2025-11-26,株式会社ＣＮＣ,,株式会社,愛知県,名古屋市緑区,有松愛宕５０３番地メゾンプリメール１０１号,,23,114,4580903,,,,,,,2025-11-26,1,,,,,シーエヌシー,0
712,3180001169640,新規,0,2025-11-26,2025-11-26,株式会社Ｈｉｂａｒｉ,,株式会社,愛知県,尾張旭市,東印場町１丁目１６番地８,,23,226,4880830,,,,,,,2025-11-26,1,,,,,ヒバリ,0
713,3180001169649,新規,0,2025-11-26,2025-11-26,株式会社竹内板金工業,,株式会社,愛知県,名古屋市港区,川園１丁目３１番地の２,,23,111,4550856,,,,,,,2025-11-26,1,,,,,タケウチバンキンコウギョウ,0
719,3180003029421,新規,0,2025-11-26,2025-11-26,合同会社ＨＮコーポレーション,,合同会社,愛知県,名古屋市昭和区,塩付通２丁目２０番地,,23,107,4660022,,,,,,,2025-11-26,1,,,,,エイチエヌコーポレーション,0
738,3220001027026,新規,0,2025-11-26,2025-11-26,株式会社ＳＯＯＬ不動産,,株式会社,石川県,金沢市,須崎町ト６０番地１,,17,201,9200207,,,,,,,2025-11-26,1,,,,,スールフドウサン,0
739,3220001027034,新規,0,2025-11-26,2025-11-26,株式会社タイセイ,,株式会社,石川県,鳳珠郡穴水町,字大町いの６２番地１２,,17,461,9270026,,,,,,,2025-11-26,1,,,,,タイセイ,0
741,3220003004171,新規,0,2025-11-26,2025-11-26,ｒａｃａｎ合同会社,,合同会社,石川県,金沢市,桂町ニ４３番地５,,17,201,9200334,,,,,,,2025-11-26,1,,,,,ラカン,0
744,3230003002538,新規,0,2025-11-26,2025-11-26,合同会社虎鉄,,合同会社,富山県,高岡市,御旅屋町８０番地３階,,16,202,9330029,,,,,,,2025-11-26,1,,,,,コテツ,0
746,3240003007494,新規,0,2025-11-26,2025-11-26,ｎｕｒｓｐｒｏｕｔ合同会社,,合同会社,広島県,呉市,川尻町東３丁目１番３３号,,34,202,7372607,,,,,,,2025-11-26,1,,,,,ナースプラウト,0
747,3250001021439,新規,0,2025-11-26,2025-11-26,株式会社雄恭,,株式会社,山口県,宇部市,松島町１５番２号,,35,202,7550042,,,,,,,2025-11-26,1,,,,,ユウキョウ,0
750,3270003001809,新規,0,2025-11-26,2025-11-26,合同会社ＭＩＲＡＩをつむぐ,,合同会社,鳥取県,鳥取市,末広温泉町１６３番地,,31,201,6800833,,,,,,,2025-11-26,1,,,,,ミライヲツムグ,0
754,3290001112259,新規,0,2025-11-26,2025-11-26,株式会社ｍａｉｓｏｎ３３,,株式会社,福岡県,福岡市中央区,春吉３丁目１３番３３－４０１号,,40,133,8100003,,,,,,,2025-11-26,1,,,,,メゾンサンサン,0
755,3290001112283,新規,0,2025-11-26,2025-11-26,株式会社ＣｏＣｒｅａ,,株式会社,福岡県,福岡市東区,奈多２丁目３３番２８号,,40,131,8110204,,,,,,,2025-11-26,1,,,,,コクレア,0
756,3290001112309,新規,0,2025-11-26,2025-11-26,株式会社矢ケ部ホールディングス,,株式会社,福岡県,筑紫野市,大字吉木２５０８番地１,,40,217,8180004,,,,,,,2025-11-26,1,,,,,ヤカベホールディングス,0
761,3290003017745,新規,0,2025-11-26,2025-11-26,合同会社ＬＵＣＥＮＴ,,合同会社,福岡県,糟屋郡志免町,別府２丁目１１番２０－５０２号,,40,343,8112205,,,,,,,2025-11-26,1,,,,,ルーセント,0
762,3290003017753,新規,0,2025-11-26,2025-11-26,合同会社アラキ商行,,合同会社,福岡県,福岡市東区,和白６丁目１２番１７号,,40,131,8110202,,,,,,,2025-11-26,1,,,,,アラキショウコウ,0
766,3290801032053,新規,0,2025-11-26,2025-11-26,株式会社Ｆｕｎ　Ｌｉｆｅ,,株式会社,福岡県,遠賀郡芦屋町,高浜町４番５号,,40,381,8070122,,,,,,,2025-11-26,1,,,,,ファンライフ,0
767,3300001014420,新規,0,2025-11-26,2025-11-26,株式会社Ａ‐ＳＴＡＧＥ,,株式会社,佐賀県,佐賀市,唐人２丁目３番５号,,41,201,8400813,,,,,,,2025-11-26,1,,,,,エーステージ,0
769,3310003005128,新規,0,2025-11-26,2025-11-26,善蔵合同会社,,合同会社,長崎県,佐世保市,長畑町３８４番地１,,42,202,8593234,,,,,,,2025-11-26,1,,,,,ゼンゾウ,0
774,3360001036070,新規,0,2025-11-26,2025-11-26,株式会社しまじかん,,株式会社,沖縄県,石垣市,字新川２３５５番地１２メゾネットＩＲＥＩ１－Ａ,,47,207,9070024,,,,,,,2025-11-26,1,,,,,シマジカン,0
781,3370003007374,新規,0,2025-11-26,2025-11-26,合同会社あず,,合同会社,宮城県,仙台市泉区,南光台南２丁目２７番２３－３号,,04,105,9818002,,,,,,,2025-11-26,1,,,,,アズ,0
787,3380001035715,新規,0,2025-11-26,2025-11-26,株式会社オートピット,,株式会社,福島県,白河市,金勝寺１３番地３,,07,205,9610083,,,,,,,2025-11-26,1,,,,,オートピット,0
790,3390003002464,新規,0,2025-11-26,2025-11-26,合同会社二号店,,合同会社,山形県,東田川郡庄内町,余目字土堤下３番５,,06,428,9997781,,,,,,,2025-11-26,1,,,,,ニゴウテン,0
797,3430001095729,新規,0,2025-11-26,2025-11-26,ＣＷＩアセットマネジメント株式会社,,株式会社,北海道,札幌市白石区,東札幌一条５丁目１番１－４０３号,,01,104,0030001,,,,,,,2025-11-26,1,,,,,シーダブルアイアセットマネジメント,0
798,3430003018332,新規,0,2025-11-26,2025-11-26,合同会社ＨＡＫＵＴＯ,,合同会社,北海道,札幌市北区,新川六条１６丁目１番５号ハイツクローバー１０４号,,01,102,0010926,,,,,,,2025-11-26,1,,,,,ハクト,0
799,3430003018349,新規,0,2025-11-26,2025-11-26,きたみらい合同会社,,合同会社,北海道,江別市,大麻ひかり町１５番地の１１,,01,217,0690847,,,,,,,2025-11-26,1,,,,,キタミライ,0
800,3430003018357,新規,0,2025-11-26,2025-11-26,合同会社Ｒｏａｃｈ,,合同会社,北海道,札幌市中央区,南四条西８丁目６－８ビックパレス南四条Ａ棟５０２,,01,101,0640804,,,,,,,2025-11-26,1,,,,,ローチ,0
802,3430005015360,新規,0,2025-11-26,2025-11-26,一般社団法人トライアド・ラボ,,その他の設立登記法人,北海道,札幌市中央区,南一条西１６丁目１番地３２３春野ビル３Ｆ,,01,101,0600061,,,,,,,2025-11-26,1,,,,,トライアドラボ,0
810,3480001013009,新規,0,2025-11-26,2025-11-26,株式会社ｕｎＬｉｍｉｔｅｄ．,,株式会社,徳島県,徳島市,川内町平石古田３６番地１,,36,201,7710136,,,,,,,2025-11-26,1,,,,,アンリミテッド,0
811,3500001026643,新規,0,2025-11-26,2025-11-26,株式会社Ｙ　ＳＴＹＬＥ,,株式会社,愛媛県,松山市,上野町甲２６０番地１,,38,201,7911136,,,,,,,2025-11-26,1,,,,,ワイスタイル,0
815,3700150133022,新規,0,2025-11-26,2025-11-26,ＮＥＬＡＮ　ＡＵＴＯ　ＬＩＮＫ,,外国会社等,千葉県,印旛郡酒々井町,馬橋６６９－８サンタマール１０２,,12,322,2850914,スリランカ民主社会主義共和国、バタリーヤ、パシャラ６５番地１号,,,,,,2025-11-26,1,,,,,ネランオートリンク,0
823,4010001260522,新規,0,2025-11-26,2025-11-26,株式会社ＳＨＩＰ第１０３４号,,株式会社,東京都,千代田区,丸の内２丁目７番２号,,13,101,1000005,,,,,,,2025-11-26,1,,,,,エスエイチアイピーダイセンサンジュウヨンゴウ,0
824,4010001260530,新規,0,2025-11-26,2025-11-26,株式会社ＳＨＩＰ第１０４２号,,株式会社,東京都,千代田区,丸の内２丁目７番２号,,13,101,1000005,,,,,,,2025-11-26,1,,,,,エスエイチアイピーダイセンヨンジュウニゴウ,0
825,4010001260539,新規,0,2025-11-26,2025-11-26,株式会社ＳＨＩＰ第１０５１号,,株式会社,東京都,千代田区,丸の内２丁目７番２号,,13,101,1000005,,,,,,,2025-11-26,1,,,,,エスエイチアイピーダイセンゴジュウイチゴウ,0
826,4010001260670,新規,0,2025-11-26,2025-11-26,株式会社ＢＬＯＫＥＥＳ,,株式会社,東京都,千代田区,霞が関３丁目２番６号東京倶楽部ビルディング１１階,00141650,13,101,1000013,,,,,,,2025-11-26,1,,,,,ブロッキーズ,0
828,4010003049518,新規,0,2025-11-26,2025-11-26,合同会社蓄電所７号,,合同会社,東京都,中央区,日本橋茅場町３丁目４番２号ＫＤＸ茅場町ビル４Ｆ,,13,102,1030025,,,,,,,2025-11-26,1,,,,,チクデンショナナゴウ,0
829,4010003049526,新規,0,2025-11-26,2025-11-26,合同会社Ｆｅｌｉｚ,,合同会社,東京都,千代田区,神田和泉町１―６―１６,,13,101,1010024,,,,,,,2025-11-26,1,,,,,フェリス,0
830,4010005040978,新規,0,2025-11-26,2025-11-26,一般社団法人スマートプラス金融革新機構,,その他の設立登記法人,東京都,中央区,銀座３丁目１０番９号ＫＥＣ銀座ビル８階マクシブ総合会計事務所内,,13,102,1040061,,,,,,,2025-11-26,1,,,,,スマートプラスキンユウカクシンキコウ,0
831,4010005040994,新規,0,2025-11-26,2025-11-26,一般社団法人理論医学臨床研究学会,,その他の設立登記法人,東京都,中央区,八重洲１丁目８番１７号,,13,102,1030028,,,,,,,2025-11-26,1,,,,,リロンイガクリンショウケンキュウガッカイ,0
842,4010405025059,新規,0,2025-11-26,2025-11-26,一般社団法人ＦＫ,,その他の設立登記法人,東京都,港区,虎ノ門３丁目４番１０号虎ノ門３５森ビル,,13,103,1050001,,,,,,,2025-11-26,1,,,,,エフケー,0
843,4010501055100,新規,0,2025-11-26,2025-11-26,正章リネン・サプライ株式会社,,株式会社,東京都,台東区,台東４丁目１８番４号ＲＡＩＤ上野御徒町２階,,13,106,1100016,,,,,,,2025-11-26,1,,,,,セイショウリネンサプライ,0
847,4010601068324,新規,0,2025-11-26,2025-11-26,株式会社ＫＡＨＥＲＴＥ,,株式会社,東京都,江東区,新木場１丁目１５番６号,,13,108,1360082,,,,,,,2025-11-26,1,,,,,カヘルテ,0
854,4010701048639,新規,0,2025-11-26,2025-11-26,ＭＩＲＯＫＵ　Ｍｅｄｉｃａｌ　Ｇａｔｅｗａｙ株式会社,,株式会社,東京都,品川区,大井１丁目４２番７号４０１,,13,109,1400014,,,,,,,2025-11-26,1,,,,,ミロクメディカルゲートウェイ,0
855,4010703008013,新規,0,2025-11-26,2025-11-26,Ｂホールディングス合同会社,,合同会社,東京都,品川区,上大崎３丁目１番１号目黒セントラルスクエア１５階,,13,109,1410021,,,,,,,2025-11-26,1,,,,,ビーホールディングス,0
867,4011001173466,新規,0,2025-11-26,2025-11-26,株式会社ＲＰＰＧインタラクティブ,,株式会社,東京都,渋谷区,宇田川町１－１０,,13,113,1500042,,,,,,,2025-11-26,1,,,,,アールピーピージーインタラクティブ,0
868,4011001173615,新規,0,2025-11-26,2025-11-26,株式会社ｎａｌｏｗ,,株式会社,東京都,目黒区,碑文谷５丁目２番５号Ｔ＆Ａビル５階,,13,110,1520003,,,,,,,2025-11-26,1,,,,,ナロウ,0
877,4011103016655,新規,0,2025-11-26,2025-11-26,ＨＡＴ合同会社,,合同会社,東京都,新宿区,喜久井町３６番地,,13,104,1620044,,,,,,,2025-11-26,1,,,,,ハット,0
882,4011301031076,新規,0,2025-11-26,2025-11-26,ＬｉＢＥＲＴＹ株式会社,,株式会社,東京都,杉並区,荻窪３丁目３番１３号ティーハウス１０１,,13,115,1670051,,,,,,,2025-11-26,1,,,,,リバティー,0
904,4013305003794,新規,0,2025-11-26,2025-11-26,一般社団法人ＫＡＩ芸術企画,,その他の設立登記法人,東京都,豊島区,長崎３丁目２－８ラシクラス東長崎１０１号,,13,116,1710051,,,,,,,2025-11-26,1,,,,,カイゲイジュツキカク,0
908,4020001165877,新規,0,2025-11-26,2025-11-26,フェイデッサ株式会社,,株式会社,神奈川県,横浜市西区,浅間町１丁目４番３号ウィザードビル４０２,,14,103,2200072,,,,,,,2025-11-26,1,,,,,フェイデッサ,0
911,4020003029857,新規,0,2025-11-26,2025-11-26,合同会社前田,,合同会社,神奈川県,横浜市緑区,北八朔町１２３４番地,,14,113,2260021,,,,,,,2025-11-26,1,,,,,マエダ,0
912,4020003029865,新規,0,2025-11-26,2025-11-26,合同会社リバーブスペース,,合同会社,神奈川県,川崎市中原区,木月２丁目１７－５和助ビル２Ｆ,,14,133,2110025,,,,,,,2025-11-26,1,,,,,リバーブスペース,0
915,4021001086832,新規,0,2025-11-26,2025-11-26,株式会社ＡＳＡＩ,,株式会社,神奈川県,大和市,上和田１８３６番地４,,14,213,2420014,,,,,,,2025-11-26,1,,,,,,0
916,4021001086857,新規,0,2025-11-26,2025-11-26,株式会社コレカラ,,株式会社,神奈川県,藤沢市,藤沢５４５番地の１９ロワール湘南藤沢１１１号室,,14,205,2510052,,,,,,,2025-11-26,1,,,,,コレカラ,0
920,4021005013460,新規,0,2025-11-26,2025-11-26,一般社団法人つなぐ,,その他の設立登記法人,神奈川県,海老名市,上今泉６丁目４７番４３号,,14,215,2430431,,,,,,,2025-11-26,1,,,,,ツナグ,0
931,4040001141307,新規,0,2025-11-26,2025-11-26,株式会社リリーコレール,,株式会社,千葉県,成田市,花崎町８２８－１１－１１０６,,12,211,2860033,,,,,,,2025-11-26,1,,,,,リリーコレール,0
932,4040001141513,新規,0,2025-11-26,2025-11-26,株式会社ソナル,,株式会社,千葉県,浦安市,高洲１丁目１１番１号,,12,227,2790023,,,,,,,2025-11-26,1,,,,,ソナル,0
952,4100005013413,新規,0,2025-11-26,2025-11-26,一般社団法人あおぞらベース,,その他の設立登記法人,長野県,北佐久郡軽井沢町,大字発地２２３０－１,,20,321,3890113,,,,,,,2025-11-26,1,,,,,アオゾラベース,0
961,4120001282191,新規,0,2025-11-26,2025-11-26,エコノハモバイル株式会社,,株式会社,大阪府,大阪市西区,新町１丁目６番２３号,,27,106,5500013,,,,,,,2025-11-26,1,,,,,エコノハモバイル,0
982,4130003010946,新規,0,2025-11-26,2025-11-26,ＶＥＡＫＩＯＴＯ合同会社,,合同会社,京都府,京都市下京区,西前町３６７番地の８マンションチトセ２０３号室,,26,106,6008083,,,,,,,2025-11-26,1,,,,,ベアキオト,0
983,4130003010954,新規,0,2025-11-26,2025-11-26,合同会社イハナ,,合同会社,京都府,綴喜郡井手町,大字井手小字段ノ下２９番地の４,,26,343,6100302,,,,,,,2025-11-26,1,,,,,イハナ,0
985,4140001140736,新規,0,2025-11-26,2025-11-26,株式会社ノーピア,,株式会社,兵庫県,神戸市中央区,磯辺通１丁目１番１８号カサベラ国際プラザビル７０７号室,,28,110,6510084,,,,,,,2025-11-26,1,,,,,ノーピア,0
986,4140001140884,新規,0,2025-11-26,2025-11-26,株式会社アイツリー,,株式会社,兵庫県,芦屋市,涼風町２０－１６,,28,206,6590036,,,,,,,2025-11-26,1,,,,,アイツリー,0
987,4140001140892,新規,0,2025-11-26,2025-11-26,株式会社わんさ,,株式会社,兵庫県,川西市,萩原台西１丁目４３９番地,,28,217,6660006,,,,,,,2025-11-26,1,,,,,ワンサ,0
988,4140001140901,新規,0,2025-11-26,2025-11-26,株式会社甲北美装,,株式会社,兵庫県,神戸市北区,桂木２丁目７番地の３,,28,109,6511223,,,,,,,2025-11-26,1,,,,,コウホクビソウ,0
992,4140003022890,新規,0,2025-11-26,2025-11-26,合同会社ハイダウェイコネクト,,合同会社,兵庫県,神戸市灘区,琵琶町１丁目１番８号,,28,102,6570041,,,,,,,2025-11-26,1,,,,,ハイダウェイコネクト,0
994,4170005007177,新規,0,2025-11-26,2025-11-26,一般社団法人日本ラストケア協会,,その他の設立登記法人,和歌山県,和歌山市,杭ノ瀬３６８番地１,,30,201,6410001,,,,,,,2025-11-26,1,,,,,ニホンラストケアキョウカイ,0
1004,4180001169615,新規,0,2025-11-26,2025-11-26,株式会社Ｃｌａｒｉｔｙ　Ｗｏｒｋｓ,,株式会社,愛知県,名古屋市中区,千代田５丁目２０－２,,23,106,4600012,,,,,,,2025-11-26,1,,,,,クラリティワークス,0
1005,4180001169656,新規,0,2025-11-26,2025-11-26,株式会社リオエステート,,株式会社,愛知県,名古屋市中区,丸の内１丁目１３番１１号ジャルダン桜橋６Ａ,,23,106,4600002,,,,,,,2025-11-26,1,,,,,リオエステート,0
1009,4180003029420,新規,0,2025-11-26,2025-11-26,合同会社ＳＮＢ,,合同会社,愛知県,名古屋市千種区,千種３丁目２６番１９号アーバンレジデンス吹上３０１号,,23,101,4640858,,,,,,,2025-11-26,1,,,,,エスエヌビー,0
1010,4180005021318,新規,0,2025-11-26,2025-11-26,一般社団法人全国小児歯科開業医会,,その他の設立登記法人,愛知県,名古屋市瑞穂区,瑞穂通４丁目３９番２,,23,108,4670806,,,,,,,2025-11-26,1,,,,,ゼンコクショウニシカカイギョウイカイ,0
1023,4230003002537,新規,0,2025-11-26,2025-11-26,合同会社Ｍ＆Ｍ,,合同会社,富山県,富山市,月岡西緑町３５８,,16,201,9398142,,,,,,,2025-11-26,1,,,,,,0
1024,4240001065799,新規,0,2025-11-26,2025-11-26,Ｄｏｍｅｖｅｓｔ株式会社,,株式会社,広島県,東広島市,西条町寺家７９６３－５ｓ．ａ．ｂｏｘ寺家Ａ棟２０４,,34,212,7390041,,,,,,,2025-11-26,1,,,,,ドームベスト,0
1025,4240001065816,新規,0,2025-11-26,2025-11-26,株式会社リブレス,,株式会社,広島県,広島市安佐南区,長束西２丁目２番２７－２０２号,,34,105,7310136,,,,,,,2025-11-26,1,,,,,リブレス,0
1026,4240001065824,新規,0,2025-11-26,2025-11-26,株式会社Ｅａｒｔｈｗｏｒｋｓ,,株式会社,広島県,東広島市,八本松町原１０８８３番地３２,,34,212,7390151,,,,,,,2025-11-26,1,,,,,アースワークス,0
1027,4240003007493,新規,0,2025-11-26,2025-11-26,Ｓ　Ｄｅｓｉｇｎ　Ｗｏｒｋｓ合同会社,,合同会社,広島県,広島市南区,宇品御幸１丁目９番３‐３０５号,,34,103,7340015,,,,,,,2025-11-26,1,,,,,エスデザインワークス,0
1029,4250001021438,新規,0,2025-11-26,2025-11-26,株式会社ＪＵＤＧＥ,,株式会社,山口県,下関市,川中本町９番１号,,35,201,7510859,,,,,,,2025-11-26,1,,,,,ジャッジ,0
1032,4250005009041,新規,0,2025-11-26,2025-11-26,一般財団法人ソリューション開発,,その他の設立登記法人,山口県,岩国市,麻里布町２丁目７番２３－９０１号,,35,208,7400018,,,,,,,2025-11-26,1,,,,,ソリューションカイハツ,0
1033,4260001040759,新規,0,2025-11-26,2025-11-26,フライトリック株式会社,,株式会社,岡山県,新見市,新見１４９０番地６,,33,210,7180011,,,,,,,2025-11-26,1,,,,,フライトリック,0
1034,4270001009332,新規,0,2025-11-26,2025-11-26,株式会社ＵＫｃｏｎｎｅｃｔ,,株式会社,鳥取県,日野郡日野町,野田２８０番地１,,31,402,6894504,,,,,,,2025-11-26,1,,,,,ユーケーコネクト,0
1036,4270003001808,新規,0,2025-11-26,2025-11-26,合同会社ルミナスウメカワ,,合同会社,鳥取県,西伯郡大山町,門前７５３番地４,,31,386,6893213,,,,,,,2025-11-26,1,,,,,ルミナスウメカワ,0
1039,4290001112225,新規,0,2025-11-26,2025-11-26,めんたいこ開発株式会社,,株式会社,福岡県,古賀市,天神１丁目８番３２号,,40,223,8113101,,,,,,,2025-11-26,1,,,,,メンタイコカイハツ,0
1040,4290001112274,新規,0,2025-11-26,2025-11-26,株式会社ＲＩＣＣＣＡ．,,株式会社,福岡県,柳川市,三橋町中山３９１番地,,40,207,8320811,,,,,,,2025-11-26,1,,,,,リッカ,0
1041,4290003017711,新規,0,2025-11-26,2025-11-26,合同会社Ｏｖｅｒ．Ｒ,,合同会社,福岡県,福岡市南区,大楠１丁目１３番１９－１号エルカンファウーノ２０３号,,40,134,8150082,,,,,,,2025-11-26,1,,,,,オーバル,0
1042,4290003017769,新規,0,2025-11-26,2025-11-26,合同会社ＭＪ,,合同会社,福岡県,那珂川市,大字別所３７９番地１４４,,40,231,8111245,,,,,,,2025-11-26,1,,,,,エムジェイ,0
1048,4290801032052,新規,0,2025-11-26,2025-11-26,株式会社エース・シー,,株式会社,福岡県,北九州市八幡東区,東山１丁目１－１８,,40,108,8050026,,,,,,,2025-11-26,1,,,,,エースシー,0
1060,4370003007373,新規,0,2025-11-26,2025-11-26,合同会社オブジェ,,合同会社,宮城県,仙台市泉区,南光台南２丁目１７番１１号すこやか荘１０１,,04,105,9818002,,,,,,,2025-11-26,1,,,,,オブジェ,0
1061,4370003007381,新規,0,2025-11-26,2025-11-26,イト・ルージュ合同会社,,合同会社,宮城県,柴田郡柴田町,槻木下町２丁目５番２号,,04,323,9891752,,,,,,,2025-11-26,1,,,,,イトルージュ,0
1064,4400005008531,新規,0,2025-11-26,2025-11-26,一般財団法人薬王堂スポーツ未来財団,,その他の設立登記法人,岩手県,盛岡市,盛岡駅西通２丁目９番１号,,03,201,0200045,,,,,,,2025-11-26,1,,,,,ヤクオウドウスポーツミライザイダン,0
1066,4410001014326,新規,0,2025-11-26,2025-11-26,株式会社ウエストサイド,,株式会社,秋田県,男鹿市,野石字浜田２６番地１,,05,206,0100401,,,,,,,2025-11-26,1,,,,,ウエストサイド,0
1072,4430001095728,新規,0,2025-11-26,2025-11-26,株式会社キュラソー,,株式会社,北海道,札幌市中央区,南十三条西１４丁目３番３０－２０２号,,01,101,0640913,,,,,,,2025-11-26,1,,,,,キュラソー,0
1075,4460003001078,新規,0,2025-11-26,2025-11-26,合同会社Ｒｅｃｔｕｓ,,合同会社,北海道,釧路市,白樺台５丁目１３番１６号,,01,206,0850804,,,,,,,2025-11-26,1,,,,,レクトゥス,0
1076,4470003003024,新規,0,2025-11-26,2025-11-26,合同会社和,,合同会社,香川県,仲多度郡琴平町,榎井８１４－１,,37,403,7660004,,,,,,,2025-11-26,1,,,,,,0
1079,4500001026642,新規,0,2025-11-26,2025-11-26,株式会社ＨＯＮＧＵ塗建,,株式会社,愛媛県,今治市,天保山町５丁目１番１５号,,38,202,7940032,,,,,,,2025-11-26,1,,,,,ホングウトケン,0
1086,5010001260538,新規,0,2025-11-26,2025-11-26,株式会社ＳＨＩＰ第１０５０号,,株式会社,東京都,千代田区,丸の内２丁目７番２号,,13,101,1000005,,,,,,,2025-11-26,1,,,,,エスエイチアイピーダイセンゴジュウゴウ,0
1089,5010003049517,新規,0,2025-11-26,2025-11-26,合同会社クラフトエナジー,,合同会社,東京都,千代田区,内幸町１丁目２番１号日土地内幸町ビル,,13,101,1000011,,,,,,,2025-11-26,1,,,,,クラフトエナジー,0
1092,5010005040993,新規,0,2025-11-26,2025-11-26,一般社団法人日本細胞外小胞臨床研究学会,,その他の設立登記法人,東京都,中央区,八重洲１丁目８番１７号,,13,102,1030028,,,,,,,2025-11-26,1,,,,,ニホンサイボウガイショウホウリンショウケンキュウガッカイ,0
1097,5010401194625,新規,0,2025-11-26,2025-11-26,一禾堂株式会社,,株式会社,東京都,港区,新橋１丁目１８－２１第一日比谷ビル４Ｆ－１１,,13,103,1050004,,,,,,,2025-11-26,1,,,,,イチカドウ,0
1098,5010401194674,新規,0,2025-11-26,2025-11-26,株式会社ＤＲＥＳＳ　ｅｎ　ＤＯＲＩＳ,,株式会社,東京都,港区,北青山１丁目３番１号アールキューブ青山３階,,13,103,1070061,,,,,,,2025-11-26,1,,,,,ドレスアンドリス,0
1099,5010401194708,新規,0,2025-11-26,2025-11-26,株式会社ＢＩＧ　ＦＡＣＥ,,株式会社,東京都,港区,麻布十番２丁目７番５号カスタリア麻布十番七面坂４０２,,13,103,1060045,,,,,,,2025-11-26,1,,,,,ビッグフェイス,0
1107,5010403036635,新規,0,2025-11-26,2025-11-26,合同会社ｐｌｕｓ８１,,合同会社,東京都,港区,北青山１丁目３－３三橋ビル３階,,13,103,1070061,,,,,,,2025-11-26,1,,,,,プラスハチイチ,0
1110,5010501055058,新規,0,2025-11-26,2025-11-26,Ａｍｄｏｘ　Ｔｅｃｈｎｏｌｏｇｙ株式会社,,株式会社,東京都,台東区,台東１丁目２４番９号ブライト秋葉原Ｂ１Ｆ,,13,106,1100016,,,,,,,2025-11-26,1,,,,,アムドックステクノロジー,0
1112,5010601068323,新規,0,2025-11-26,2025-11-26,株式会社Ｎｅｘｔ　Ｌｉｎｋ,,株式会社,東京都,江東区,門前仲町１丁目１１番７号－３Ｆ,,13,108,1350048,,,,,,,2025-11-26,1,,,,,ネクストリンク,0
1113,5010601068331,新規,0,2025-11-26,2025-11-26,株式会社リリーパートナーズ,,株式会社,東京都,江東区,豊洲５丁目６番２９－３１１号,,13,108,1350061,,,,,,,2025-11-26,1,,,,,リリーパートナーズ,0
1114,5010701048654,新規,0,2025-11-26,2025-11-26,マーベリック株式会社,,株式会社,東京都,品川区,二葉１丁目５番８号,,13,109,1420043,,,,,,,2025-11-26,1,,,,,マーベリック,0
1117,5010901058528,新規,0,2025-11-26,2025-11-26,株式会社Ｆａｃｔ　ｄｅｓｉｇｎ建築設計事務所,,株式会社,東京都,世田谷区,野沢３丁目６番７号,,13,112,1540003,,,,,,,2025-11-26,1,,,,,ファクトデザインケンチクセッケイジムショ,0
1119,5010903010445,新規,0,2025-11-26,2025-11-26,合同会社ＹＵＭＯＴＯ,,合同会社,東京都,世田谷区,玉川３丁目２０番２号マノア玉川第３ビル５０１号室,,13,112,1580094,,,,,,,2025-11-26,1,,,,,ユモト,0
1123,5011001173440,新規,0,2025-11-26,2025-11-26,株式会社カケラ,,株式会社,東京都,渋谷区,笹塚２丁目１２番１１－５０２号,,13,113,1510073,,,,,,,2025-11-26,1,,,,,カケラ,0
1124,5011001173614,新規,0,2025-11-26,2025-11-26,株式会社ＡＳＴＥＮＯ,,株式会社,東京都,渋谷区,円山町５番５号Ｎａｖｉ渋谷Ｖ３階,,13,113,1500044,,,,,,,2025-11-26,1,,,,,アステノ,0
1125,5011001173853,新規,0,2025-11-26,2025-11-26,上芸屋株式会社,,株式会社,東京都,目黒区,目黒３丁目４番２９号,,13,110,1530063,,,,,,,2025-11-26,1,,,,,ジョウゲイヤ,0
1133,5011103016712,新規,0,2025-11-26,2025-11-26,合同会社アジト,,合同会社,東京都,新宿区,歌舞伎町２丁目１８番５号,,13,104,1600021,,,,,,,2025-11-26,1,,,,,アジト,0
1135,5011203004897,新規,0,2025-11-26,2025-11-26,合同会社アマゾンリリー,,合同会社,東京都,中野区,弥生町５丁目１７－７－２０３,,13,114,1640013,,,,,,,2025-11-26,1,,,,,アマゾンリリー,0
1137,5011303005779,新規,0,2025-11-26,2025-11-26,合同会社Ｐｏｉｎｔ　ｏｆ　Ｖｉｅｗ,,合同会社,東京都,杉並区,高円寺南５丁目９番８号,,13,115,1660003,,,,,,,2025-11-26,1,,,,,ポイントオブビュー,0
1146,5011801047109,新規,0,2025-11-26,2025-11-26,株式会社伸和優,,株式会社,東京都,足立区,花畑４丁目３７番１９号,,13,121,1210061,,,,,,,2025-11-26,1,,,,,シンワユウ,0
1155,5013305003793,新規,0,2025-11-26,2025-11-26,特定非営利活動法人女性予防医療推進機構,,その他の設立登記法人,東京都,豊島区,池袋３丁目３０番２１号マルモビル１階,,13,116,1710014,,,,,,,2025-11-26,1,,,,,ジョセイヨボウイリョウスイシンキコウ,0
1159,5020001165975,新規,0,2025-11-26,2025-11-26,Ｈｕｄｄｌｅｎ株式会社,,株式会社,神奈川県,川崎市宮前区,鷺沼４丁目１３番地５６－３１２号,,14,136,2160004,,,,,,,2025-11-26,1,,,,,ハドルン,0
1165,5020003029807,新規,0,2025-11-26,2025-11-26,合同会社パブリックイート,,合同会社,神奈川県,横浜市緑区,十日市場町８１７番地２ＦＯＲＵＭ８８－４０１号,,14,113,2260025,,,,,,,2025-11-26,1,,,,,パブリックイート,0
1168,5021001086856,新規,0,2025-11-26,2025-11-26,株式会社アミーチ,,株式会社,神奈川県,平塚市,小鍋島６６９番地１,,14,203,2540004,,,,,,,2025-11-26,1,,,,,アミーチ,0
1169,5021001086872,新規,0,2025-11-26,2025-11-26,和．Ｖｉｌｌａ株式会社,,株式会社,神奈川県,平塚市,千石河岸３３番１６号Ａ,,14,203,2540803,,,,,,,2025-11-26,1,,,,,ワヴィラ,0
1171,5021003016828,新規,0,2025-11-26,2025-11-26,胡桃の郷合同会社,,合同会社,神奈川県,南足柄市,塚原４６２７番地５７,,14,217,2500117,,,,,,,2025-11-26,1,,,,,クルミノサト,0
1172,5021005013468,新規,0,2025-11-26,2025-11-26,一般社団法人日台友好協会,,その他の設立登記法人,神奈川県,座間市,小松原２丁目５１－１４南林間ハイム１０７,,14,216,2520002,,,,,,,2025-11-26,1,,,,,ニッタイユウコウキョウカイ,0
1199,5040003029020,新規,0,2025-11-26,2025-11-26,合同会社縁灯,,合同会社,千葉県,千葉市花見川区,幕張本郷３丁目２７番６号プランドール幕張本郷３０５号,,12,102,2620033,,,,,,,2025-11-26,1,,,,,エンアカリ,0
1204,5070001043581,新規,0,2025-11-26,2025-11-26,株式会社ｓａｉｔｏ　ｂｕｓｉｎｅｓｓ　ｃｏｎｓｕｌｔｉｎｇ,,株式会社,群馬県,伊勢崎市,東本町８５－２,,10,204,3720025,,,,,,,2025-11-26,1,,,,,サイトウビジネスコンサルティング,0
1205,5070003006198,新規,0,2025-11-26,2025-11-26,長島商店合同会社,,合同会社,群馬県,邑楽郡明和町,中谷４６番地６,,10,522,3700713,,,,,,,2025-11-26,1,,,,,ナガシマショウテン,0
1206,5080001027294,新規,0,2025-11-26,2025-11-26,株式会社レイプロ,,株式会社,静岡県,静岡市葵区,末広町１０４番の６,,22,101,4200004,,,,,,,2025-11-26,1,,,,,レイプロ,0
1216,5090003002939,新規,0,2025-11-26,2025-11-26,煌星合同会社,,合同会社,山梨県,中巨摩郡昭和町,上河東５４３番地町営常永団地Ｂ棟２０１号,,19,384,4093862,,,,,,,2025-11-26,1,,,,,コウセイ,0
1219,5110001039740,新規,0,2025-11-26,2025-11-26,株式会社ＹＯＮＥ建築事務所,,株式会社,新潟県,長岡市,岩野１７６７番地,,15,202,9495405,,,,,,,2025-11-26,1,,,,,ヨネケンチクジムショ,0
1248,5130001081088,新規,0,2025-11-26,2025-11-26,河野工務店株式会社,,株式会社,京都府,京都市伏見区,景勝町５６番地２２,,26,109,6128307,,,,,,,2025-11-26,1,,,,,カワノコウムテン,0
1249,5130003010953,新規,0,2025-11-26,2025-11-26,合同会社ＪＮＫ,,合同会社,京都府,京都市右京区,花園車道町６番地３,,26,108,6168055,,,,,,,2025-11-26,1,,,,,ジェイエヌケイ,0
1261,5150003003757,新規,0,2025-11-26,2025-11-26,合同会社エフエムヤマト,,合同会社,奈良県,大和高田市,大中南町３番４８号,,29,202,6350092,,,,,,,2025-11-26,1,,,,,エフエムヤマト,0
1262,5170001018879,新規,0,2025-11-26,2025-11-26,株式会社オフィスリリーブ,,株式会社,和歌山県,日高郡みなべ町,堺６７３番地６,,30,391,6450003,,,,,,,2025-11-26,1,,,,,オフィスリリーブ,0
1263,5170001018887,新規,0,2025-11-26,2025-11-26,株式会社ＭＯＮ　ＳＴＥＰ,,株式会社,和歌山県,西牟婁郡すさみ町,周参見４７１８番地,,30,406,6492621,,,,,,,2025-11-26,1,,,,,モンステップ,0
1271,5180001169606,新規,0,2025-11-26,2025-11-26,フジテクノ株式会社,,株式会社,愛知県,半田市,銀座本町２丁目３番地,,23,205,4750874,,,,,,,2025-11-26,1,,,,,フジテクノ,0
1281,5190001032713,新規,0,2025-11-26,2025-11-26,株式会社レゾン,,株式会社,三重県,鈴鹿市,稲生塩屋３丁目５番３６号,,24,207,5100207,,,,,,,2025-11-26,1,,,,,レゾン,0
1282,5200001044459,新規,0,2025-11-26,2025-11-26,ＭＡＹＳＨＯＷＡ株式会社,,株式会社,岐阜県,岐阜市,茜部菱野２丁目３０番地,,21,201,5008268,,,,,,,2025-11-26,1,,,,,メイショウワ,0
1291,5240001065823,新規,0,2025-11-26,2025-11-26,株式会社ＣＡＮＶＡＳ,,株式会社,広島県,東広島市,鏡山２丁目３１３番地,,34,212,7390046,,,,,,,2025-11-26,1,,,,,キャンバス,0
1295,5240003007492,新規,0,2025-11-26,2025-11-26,ＳＫＹＷＡＬＫＥＲ合同会社,,合同会社,広島県,尾道市,東土堂町１１番２５号,,34,205,7220033,,,,,,,2025-11-26,1,,,,,スカイウォーカー,0
1299,5250001021437,新規,0,2025-11-26,2025-11-26,株式会社ＰＡＲＫ．Ｋ,,株式会社,山口県,宇部市,西琴芝１丁目１０番６号,,35,202,7550035,,,,,,,2025-11-26,1,,,,,パークドットケー,0
1308,5290001112240,新規,0,2025-11-26,2025-11-26,株式会社ＭＡＱＴＯ,,株式会社,福岡県,福岡市中央区,天神２丁目２番１２号Ｔ＆Ｊビルディング７Ｆ,,40,133,8100001,,,,,,,2025-11-26,1,,,,,マクト,0
1310,5290003017743,新規,0,2025-11-26,2025-11-26,合同会社しめ日和,,合同会社,福岡県,糟屋郡志免町,志免２丁目７番２１号,,40,343,8112202,,,,,,,2025-11-26,1,,,,,シメビヨリ,0
1318,5330003011329,新規,0,2025-11-26,2025-11-26,合同会社ＲｅＢＩＲＴＨ　ＯＮＥ,,合同会社,熊本県,熊本市中央区,新町３丁目３番２３号,,43,101,8600004,,,,,,,2025-11-26,1,,,,,リバースワン,0
1323,5340005009923,新規,0,2025-11-26,2025-11-26,行政書士法人ＭＳパートナーズ,,その他の設立登記法人,鹿児島県,鹿児島市,緑ヶ丘町４５番６号,,46,201,8911274,,,,,,,2025-11-26,1,,,,,エムエスパートナーズ,0
1324,5350001019818,新規,0,2025-11-26,2025-11-26,ｆｒｅｅｄｏｍ株式会社,,株式会社,宮崎県,宮崎市,大字島之内７３９５番地１はまゆうビル２０１号,,45,201,8800121,,,,,,,2025-11-26,1,,,,,フリーダム,0
1326,5350003005080,新規,0,2025-11-26,2025-11-26,ＭＳ合同会社,,合同会社,宮崎県,宮崎市,橘通西５丁目１番２９八幡屋ビル３２,,45,201,8800001,,,,,,,2025-11-26,1,,,,,エムズ,0
1329,5360001036060,新規,0,2025-11-26,2025-11-26,明神投資株式会社,,株式会社,沖縄県,中頭郡読谷村,字渡具知５５８番地２,,47,324,9040315,,,,,,,2025-11-26,1,,,,,ミョウジントウシ,0
1330,5360001036069,新規,0,2025-11-26,2025-11-26,株式会社マルチ,,株式会社,沖縄県,那覇市,首里石嶺町４丁目１７３番地２１,,47,201,9030804,,,,,,,2025-11-26,1,,,,,マルチ,0
1331,5360001036077,新規,0,2025-11-26,2025-11-26,株式会社琉和エンジニア,,株式会社,沖縄県,島尻郡南風原町,字津嘉山１１２９番地１－１０２号,,47,350,9011117,,,,,,,2025-11-26,1,,,,,リュウワエンジニア,0
1333,5360003015418,新規,0,2025-11-26,2025-11-26,合同会社ＡＮＲＥＶＥ,,合同会社,沖縄県,中頭郡北中城村,字和仁屋８７番地,,47,327,9012312,,,,,,,2025-11-26,1,,,,,アンレーヴ,0
1344,5430001095735,新規,0,2025-11-26,2025-11-26,株式会社エスプリ,,株式会社,北海道,札幌市清田区,清田八条１丁目１２番１号,,01,110,0040848,,,,,,,2025-11-26,1,,,,,エスプリ,0
1345,5430003018355,新規,0,2025-11-26,2025-11-26,合同会社エスクローバー,,合同会社,北海道,札幌市白石区,菊水一条４丁目１番１３号,,01,104,0030801,,,,,,,2025-11-26,1,,,,,エスクローバー,0
1346,5430005015359,新規,0,2025-11-26,2025-11-26,一般社団法人悠,,その他の設立登記法人,北海道,札幌市厚別区,厚別西五条６丁目８－１５グランデュエル１０２号室,,01,108,0040065,,,,,,,2025-11-26,1,,,,,ユウ,0
1351,5470003003023,新規,0,2025-11-26,2025-11-26,合同会社ＭＹＡ,,合同会社,香川県,高松市,郷東町５２５番地３,,37,201,7618031,,,,,,,2025-11-26,1,,,,,エムワイエー,0
1357,6010001260529,新規,0,2025-11-26,2025-11-26,株式会社ＳＨＩＰ第１０４１号,,株式会社,東京都,千代田区,丸の内２丁目７番２号,,13,101,1000005,,,,,,,2025-11-26,1,,,,,エスエイチアイピーダイセンヨンジュウイチゴウ,0
1358,6010001260537,新規,0,2025-11-26,2025-11-26,株式会社ＳＨＩＰ第１０４９号,,株式会社,東京都,千代田区,丸の内２丁目７番２号,,13,101,1000005,,,,,,,2025-11-26,1,,,,,エスエイチアイピーダイセンヨンジュウキュウゴウ,0
1359,6010001260603,新規,0,2025-11-26,2025-11-26,ＨＤＩ株式会社,,株式会社,東京都,中央区,銀座１丁目９番１３号,,13,102,1040061,,,,,,,2025-11-26,1,,,,,エイチディーアイ,0
1363,6010003049177,新規,0,2025-11-26,2025-11-26,合同会社サクラネクサスメディア,,合同会社,東京都,中央区,銀座１丁目１２番４号Ｎ＆ＥＢＬＤ．６Ｆ,,13,102,1040061,,,,,,,2025-11-26,1,,,,,サクラネクサスメディア,0
1364,6010003049409,新規,0,2025-11-26,2025-11-26,春夏合同会社,,合同会社,東京都,千代田区,神田和泉町１－６－１６ヤマトビル４０５,,13,101,1010024,,,,,,,2025-11-26,1,,,,,シュンカ,0
1365,6010003049532,新規,0,2025-11-26,2025-11-26,合同会社ぷりんわーくす,,合同会社,東京都,千代田区,神田須田町１丁目７番８号,,13,101,1010041,,,,,,,2025-11-26,1,,,,,プリンワークス,0
1375,6010401194665,新規,0,2025-11-26,2025-11-26,株式会社ＫＡＧＵＹＡ,,株式会社,東京都,港区,新橋１丁目１８番２１号第一日比谷ビルＴＨＥ‐ＨＵＢ新橋５２０号室,,13,103,1050004,,,,,,,2025-11-26,1,,,,,カグヤ,0
1390,6010701048653,新規,0,2025-11-26,2025-11-26,株式会社データビークルラボ,,株式会社,東京都,品川区,大井１丁目６－３,,13,109,1400014,,,,,,,2025-11-26,1,,,,,データビークルラボ,0
1391,6010703008011,新規,0,2025-11-26,2025-11-26,合同会社ＬＯＶＩＮ,,合同会社,東京都,品川区,荏原３丁目７－８エレガンスＨ４０２,,13,109,1420063,,,,,,,2025-11-26,1,,,,,ロビン,0
1396,6010901058519,新規,0,2025-11-26,2025-11-26,株式会社ＳＦ,,株式会社,東京都,世田谷区,野毛３丁目１番３号,,13,112,1580092,,,,,,,2025-11-26,1,,,,,エスエフ,0
1401,6011001173530,新規,0,2025-11-26,2025-11-26,株式会社ｉｖｅｃ,,株式会社,東京都,渋谷区,道玄坂１丁目１０－８渋谷道玄坂東急ビル２Ｆ－Ｃ,,13,113,1500043,,,,,,,2025-11-26,1,,,,,アイベック,0
1402,6011001173563,新規,0,2025-11-26,2025-11-26,株式会社ｃｒａｆｔｂｉｔ,,株式会社,東京都,渋谷区,神南１丁目１１－４ＦＰＧリンクス神南５階,,13,113,1500041,,,,,,,2025-11-26,1,,,,,クラフトビット,0
1403,6011001174009,新規,0,2025-11-26,2025-11-26,株式会社ＴＥＲＩＹＡＫＩ,,株式会社,東京都,渋谷区,円山町５番３号ＭＩＥＵＸ渋谷ビル８階,,13,113,1500044,,,,,,,2025-11-26,1,,,,,テリヤキ,0
1405,6011003022933,新規,0,2025-11-26,2025-11-26,合同会社ＫＡＤＡＮ,,合同会社,東京都,目黒区,目黒本町６丁目１４－１４ヴィラ目黒１０３,,13,110,1520002,,,,,,,2025-11-26,1,,,,,カダン,0
1406,6011005011265,新規,0,2025-11-26,2025-11-26,一般社団法人日本ＡＩスキル認定協会,,その他の設立登記法人,東京都,目黒区,下目黒６丁目５番２１号シティテラス下目黒１０６,,13,110,1530064,,,,,,,2025-11-26,1,,,,,ニホンエーアイスキルニンテイキョウカイ,0
1410,6011101114005,新規,0,2025-11-26,2025-11-26,匠貿国際商事株式会社,,株式会社,東京都,新宿区,西新宿８丁目１２番１号サンパレス新宿４０３,,13,104,1600023,,,,,,,2025-11-26,1,,,,,タクミトレード,0
1411,6011101114021,新規,0,2025-11-26,2025-11-26,株式会社ＭＥＭＥＮＴＯ　ＭＯＲＩ,,株式会社,東京都,新宿区,新宿２丁目１２番１３号新宿アントレサロンビル２階,,13,104,1600022,,,,,,,2025-11-26,1,,,,,メメントモリ,0
1415,6011203004888,新規,0,2025-11-26,2025-11-26,合同会社ユウリ測量,,合同会社,東京都,中野区,東中野４丁目３番５号アパートメント４３５－２０３号室,,13,114,1640003,,,,,,,2025-11-26,1,,,,,ユウリソクリョウ,0
1417,6011301031074,新規,0,2025-11-26,2025-11-26,Ａｙｉｎ　Ｏｒ株式会社,,株式会社,東京都,杉並区,上荻２丁目７番８号,,13,115,1670043,,,,,,,2025-11-26,1,,,,,アイオール,0
1418,6011303005778,新規,0,2025-11-26,2025-11-26,合同会社ＭＧ,,合同会社,東京都,杉並区,高円寺南４丁目２７番１５号パレドール高円寺２０２,,13,115,1660003,,,,,,,2025-11-26,1,,,,,エムジー,0
1422,6011401027600,新規,0,2025-11-26,2025-11-26,株式会社シェアックス,,株式会社,東京都,板橋区,中丸町１１番２号ワコーレ要町ビル７階,,13,119,1730026,,,,,,,2025-11-26,1,,,,,シェアックス,0
1433,6020003029847,新規,0,2025-11-26,2025-11-26,合同会社ナビオン,,合同会社,神奈川県,横浜市南区,堀ノ内町１丁目７２番地１翔’ｓ蒔田２０３,,14,105,2320042,,,,,,,2025-11-26,1,,,,,ナビオン,0
1434,6021001086822,新規,0,2025-11-26,2025-11-26,Ｖｉｅｔｓｏｒａ株式会社,,株式会社,神奈川県,相模原市南区,上鶴間７丁目８－１－４２４,,14,153,2520302,,,,,,,2025-11-26,1,,,,,ベトソラ,0
1435,6021001086855,新規,0,2025-11-26,2025-11-26,株式会社ＩＭＡＧＩＮＡＬ,,株式会社,神奈川県,鎌倉市,坂ノ下２９番１０－５０６号,,14,204,2480021,,,,,,,2025-11-26,1,,,,,イマジナル,0
1436,6021001086871,新規,0,2025-11-26,2025-11-26,株式会社ルポ,,株式会社,神奈川県,愛甲郡愛川町,中津７４２２番地の３,,14,401,2430303,,,,,,,2025-11-26,1,,,,,ルポ,0
1437,6021003016827,新規,0,2025-11-26,2025-11-26,ＧＭＶＯＲ合同会社,,合同会社,神奈川県,鎌倉市,大船２１１３番地２,,14,204,2470056,,,,,,,2025-11-26,1,,,,,ジーエムボル,0
1438,6021005013467,新規,0,2025-11-26,2025-11-26,一般社団法人Ｉｎｓｐｉｒｅ　Ｃｌｉｎｉｃ,,その他の設立登記法人,神奈川県,相模原市緑区,橋本２丁目１５番１６－７０１号,,14,151,2520143,,,,,,,2025-11-26,1,,,,,インスパイアクリニック,0
1444,6030001169784,新規,0,2025-11-26,2025-11-26,かりゆし笑会株式会社,,株式会社,埼玉県,春日部市,南中曽根４０８番地４,,11,214,3440048,,,,,,,2025-11-26,1,,,,,カリユシショウカイ,0
1456,6030005022345,新規,0,2025-11-26,2025-11-26,一般社団法人はたきち,,その他の設立登記法人,埼玉県,上尾市,大字領家字宮内４０７番地１,,11,219,3620066,,,,,,,2025-11-26,1,,,,,ハタキチ,0
1467,6050001057640,新規,0,2025-11-26,2025-11-26,株式会社イージス,,株式会社,茨城県,水戸市,笠原町９７６番地の１,,08,201,3100852,,,,,,,2025-11-26,1,,,,,イージス,0
1472,6070003006197,新規,0,2025-11-26,2025-11-26,合同会社Ｐちゃん白羽,,合同会社,群馬県,邑楽郡大泉町,朝日２丁目６番１４号ビューラ７－１０１号,,10,524,3700514,,,,,,,2025-11-26,1,,,,,,0
1474,6080001027293,新規,0,2025-11-26,2025-11-26,株式会社ＭＥＤＩＮＡ,,株式会社,静岡県,静岡市葵区,五番町３番地の１２,,22,101,4200075,,,,,,,2025-11-26,1,,,,,メディナ,0
1483,6110005017295,新規,0,2025-11-26,2025-11-26,一般社団法人いろ葉,,その他の設立登記法人,新潟県,新潟市西蒲区,川崎２２番地２０,,15,108,9590432,,,,,,,2025-11-26,1,,,,,イロハ,0
1499,6120003031256,新規,0,2025-11-26,2025-11-26,合同会社ホールバード,,合同会社,大阪府,大阪市東成区,大今里３丁目１３番２０－５０４号,,27,115,5370012,,,,,,,2025-11-26,1,,,,,ホールバード,0
1500,6120003031306,新規,0,2025-11-26,2025-11-26,合同会社ＧＲＯ,,合同会社,大阪府,大阪市中央区,東平２丁目３‐１３‐８０６,,27,128,5420063,,,,,,,2025-11-26,1,,,,,ジーアールオー,0
1510,6122001039933,新規,0,2025-11-26,2025-11-26,株式会社ここまる,,株式会社,大阪府,東大阪市,若江東町２丁目３番２６号,,27,227,5780935,,,,,,,2025-11-26,1,,,,,ココマル,0
1513,6130001081070,新規,0,2025-11-26,2025-11-26,株式会社のら,,株式会社,京都府,京都市左京区,吉田神楽岡町３番地,,26,103,6068311,,,,,,,2025-11-26,1,,,,,ノラ,0
1514,6130001081079,新規,0,2025-11-26,2025-11-26,つも株式会社,,株式会社,京都府,京都市東山区,日吉町２２８番地１,,26,105,6050993,,,,,,,2025-11-26,1,,,,,ツモ,0
1516,6130005017517,新規,0,2025-11-26,2025-11-26,一般社団法人京都魅力発見協会,,その他の設立登記法人,京都府,京都市下京区,釘隠町２５５小川京都ビル,,26,106,6008423,,,,,,,2025-11-26,1,,,,,キョウトミリョクハッケンキョウカイ,0
1551,6180303006811,新規,0,2025-11-26,2025-11-26,Ｍｏｍｅｎｔｓ　Ｓｈａｒｅ合同会社,,合同会社,愛知県,西尾市,羽塚町産畑１－１１,00141641,23,213,4440316,,,,,,,2025-11-26,1,,,,,モーメンツシェア,0
1558,6210001020400,新規,0,2025-11-26,2025-11-26,株式会社藤,,株式会社,福井県,福井市,順化１丁目１６番１０号,,18,201,9100023,,,,,,,2025-11-26,1,,,,,フジ,0
1560,6210003001976,新規,0,2025-11-26,2025-11-26,合同会社グッドラックウェル,,合同会社,福井県,福井市,高木中央２丁目８０１番地４,,18,201,9100804,,,,,,,2025-11-26,1,,,,,グッドラックウェル,0
1564,6230005009504,新規,0,2025-11-26,2025-11-26,一般社団法人アケル,,その他の設立登記法人,富山県,富山市,牛島町１５番１号,,16,201,9300858,,,,,,,2025-11-26,1,,,,,アケル,0
1565,6240001065822,新規,0,2025-11-26,2025-11-26,株式会社ゆいアカデミー,,株式会社,広島県,広島市中区,上八丁堀４－１アーバンビューグランドタワー１１Ｆ,,34,101,7300012,,,,,,,2025-11-26,1,,,,,ユイアカデミー,0
1566,6240001065830,新規,0,2025-11-26,2025-11-26,ＡＤＶＥＮＴＵＲＥ　ＤＥＰＴ　ＪＡＰＡＮ株式会社,,株式会社,広島県,竹原市,吉名町１０７９５番地の１,,34,203,7250013,,,,,,,2025-11-26,1,,,,,アドベンチャーデプトジャパン,0
1567,6250001021436,新規,0,2025-11-26,2025-11-26,株式会社ファーストフロント,,株式会社,山口県,山口市,下市町１１番６号,,35,203,7530058,,,,,,,2025-11-26,1,,,,,ファーストフロント,0
1572,6270003001806,新規,0,2025-11-26,2025-11-26,合同会社アサッテーズ,,合同会社,鳥取県,米子市,吉岡９２番地４,,31,202,6893545,,,,,,,2025-11-26,1,,,,,アサッテーズ,0
1579,6290003017767,新規,0,2025-11-26,2025-11-26,合同会社コンサーブ,,合同会社,福岡県,福岡市博多区,博多駅南５丁目１６番９号,,40,132,8120016,,,,,,,2025-11-26,1,,,,,コンサーブ,0
1581,6290801032059,新規,0,2025-11-26,2025-11-26,株式会社ＮＥＵＲＯＮ,,株式会社,福岡県,北九州市小倉南区,西貫１丁目１１番２８号,,40,107,8000243,,,,,,,2025-11-26,1,,,,,ニューロン,0
1582,6300001014418,新規,0,2025-11-26,2025-11-26,株式会社ｍｓ,,株式会社,佐賀県,佐賀市,柳町６番１８号,,41,201,8400823,,,,,,,2025-11-26,1,,,,,エムエス,0
1584,6320001021453,新規,0,2025-11-26,2025-11-26,株式会社日野建築,,株式会社,大分県,由布市,挾間町医大ヶ丘３丁目２１番地１８,,44,213,8795503,,,,,,,2025-11-26,1,,,,,ヒノケンチク,0
1585,6330001033778,新規,0,2025-11-26,2025-11-26,株式会社ＨＡＮＤＭＡＤＥ発酵,,株式会社,熊本県,上益城郡益城町,大字小池１３９０番地１,,43,443,8612223,,,,,,,2025-11-26,1,,,,,ハンドメイドハッコウ,0
1587,6340001027795,新規,0,2025-11-26,2025-11-26,株式会社トゥモロウ,,株式会社,鹿児島県,出水市,黄金町８０４番地,,46,208,8990125,,,,,,,2025-11-26,1,,,,,トゥモロウ,0
1595,6370001053252,新規,0,2025-11-26,2025-11-26,株式会社ウォーターホープス,,株式会社,宮城県,仙台市青葉区,みやぎ台１丁目１番１３号,,04,101,9893214,,,,,,,2025-11-26,1,,,,,ウォーターホープス,0
1597,6380003006190,新規,0,2025-11-26,2025-11-26,フラレシスト合同会社,,合同会社,福島県,いわき市,郷ケ丘４丁目１６番地の１,,07,204,9708045,,,,,,,2025-11-26,1,,,,,フラレシスト,0
1598,6430001095718,新規,0,2025-11-26,2025-11-26,株式会社梅原水産,,株式会社,北海道,札幌市北区,新川二条４丁目４番２３号,,01,102,0010922,,,,,,,2025-11-26,1,,,,,ウメハラスイサン,0
1599,6430001095734,新規,0,2025-11-26,2025-11-26,株式会社ＳｍａｒｔＴＯＶ,,株式会社,北海道,札幌市中央区,北三条西１８丁目２番地１０ＭＭＡビル,,01,101,0600003,,,,,,,2025-11-26,1,,,,,スマートトーブ,0
1602,6430003018354,新規,0,2025-11-26,2025-11-26,Ｂｉｒｃｈ　Ｎｅｓｔ合同会社,,合同会社,北海道,札幌市西区,山の手三条８丁目３－９－１,,01,107,0630003,,,,,,,2025-11-26,1,,,,,バーチネスト,0
1606,6470003003022,新規,0,2025-11-26,2025-11-26,アクアセキュリティ合同会社,,合同会社,香川県,高松市,寺井町３１８番地６,,37,201,7618085,,,,,,,2025-11-26,1,,,,,,0
1607,6480001013014,新規,0,2025-11-26,2025-11-26,株式会社レグルスグロースカンパニー,,株式会社,徳島県,徳島市,沖浜東２丁目３８番地の３,,36,201,7708053,,,,,,,2025-11-26,1,,,,,レグルスグロースカンパニー,0
1608,6490003002071,新規,0,2025-11-26,2025-11-26,合同会社つなぐ,,合同会社,高知県,高知市,北金田１７－１９,,39,201,7810073,,,,,,,2025-11-26,1,,,,,ツナグ,0
1609,6500001026640,新規,0,2025-11-26,2025-11-26,株式会社Ｌｕｍｉｎａ,,株式会社,愛媛県,松山市,大街道３丁目８番地４シゲミビル２階,,38,201,7900004,,,,,,,2025-11-26,1,,,,,ルミナ,0
1612,7010001260528,新規,0,2025-11-26,2025-11-26,株式会社ＳＨＩＰ第１０４０号,,株式会社,東京都,千代田区,丸の内２丁目７番２号,,13,101,1000005,,,,,,,2025-11-26,1,,,,,エスエイチアイピーダイセンヨンジュウゴウ,0
1613,7010001260536,新規,0,2025-11-26,2025-11-26,株式会社ＳＨＩＰ第１０４８号,,株式会社,東京都,千代田区,丸の内２丁目７番２号,,13,101,1000005,,,,,,,2025-11-26,1,,,,,エスエイチアイピーダイセンヨンジュウハチゴウ,0
1614,7010001260577,新規,0,2025-11-26,2025-11-26,株式会社ＯＶＥＲ,,株式会社,東京都,中央区,日本橋本町３丁目１０番１０－４０２号,,13,102,1030023,,,,,,,2025-11-26,1,,,,,オーバー,0
1615,7010001260627,新規,0,2025-11-26,2025-11-26,株式会社ＫＡＭＩＳＨＩＡ,,株式会社,東京都,中央区,銀座６丁目８番３号銀座尾張町ＴＯＷＥＲ５Ｆ,,13,102,1040061,,,,,,,2025-11-26,1,,,,,カミシア,0
1616,7010001260635,新規,0,2025-11-26,2025-11-26,スターリー・アセットマネジメント株式会社,,株式会社,東京都,千代田区,有楽町１丁目１番２号東京ミッドタウン日比谷日比谷三井タワー３３０２号室,,13,101,1000006,,,,,,,2025-11-26,1,,,,,スターリーアセットマネジメント,0
1617,7010001260643,新規,0,2025-11-26,2025-11-26,株式会社クランピーホールディングス,,株式会社,東京都,中央区,築地２丁目１０番６号Ｄａｉｗａ築地駅前ビル９階,,13,102,1040045,,,,,,,2025-11-26,1,,,,,クランピーホールディングス,0
1618,7010001260651,新規,0,2025-11-26,2025-11-26,株式会社ルミナケア,,株式会社,東京都,中央区,日本橋小伝馬町１２番５号,,13,102,1030001,,,,,,,2025-11-26,1,,,,,ルミナケア,0
1623,7010003049498,新規,0,2025-11-26,2025-11-26,合同会社Ｂ＆Ｍ　ＬＬＣ,,合同会社,東京都,中央区,銀座１丁目１２番４号Ｎ＆ＥＢＬＤ．６Ｆ,,13,102,1040061,,,,,,,2025-11-26,1,,,,,ビーアンドエム,0
1624,7010003049507,新規,0,2025-11-26,2025-11-26,合同会社オフポート,,合同会社,東京都,中央区,新富１丁目８番４号,,13,102,1040041,,,,,,,2025-11-26,1,,,,,オフポート,0
1637,7010403036682,新規,0,2025-11-26,2025-11-26,合同会社ＦＫコーポレーション,,合同会社,東京都,港区,虎ノ門３丁目４番１０号虎ノ門３５森ビル,,13,103,1050001,,,,,,,2025-11-26,1,,,,,エフケーコーポレーション,0
1639,7010501055072,新規,0,2025-11-26,2025-11-26,東京ＬＯＬＡＩ株式会社,,株式会社,東京都,台東区,竜泉３丁目１９－５－１Ｆ,,13,106,1100012,,,,,,,2025-11-26,1,,,,,トウキョウローライ,0
1641,7010601068338,新規,0,2025-11-26,2025-11-26,アリエ祐起元株式会社,,株式会社,東京都,江東区,千石１丁目１２番５号,,13,108,1350015,,,,,,,2025-11-26,1,,,,,アリエユキモト,0
1642,7010603011931,新規,0,2025-11-26,2025-11-26,フードバリューソリューション合同会社,,合同会社,東京都,江東区,東陽２丁目５－１４ジャパンハイツ東陽１Ｆ,,13,108,1350016,,,,,,,2025-11-26,1,,,,,フードバリューソリューション,0
1645,7010805003223,新規,0,2025-11-26,2025-11-26,一般社団法人ＦＵＳＩＯＮＳ,,その他の設立登記法人,東京都,大田区,下丸子２丁目３番１３号,,13,111,1460092,,,,,,,2025-11-26,1,,,,,フュージョンズ,0
1647,7010901058534,新規,0,2025-11-26,2025-11-26,株式会社ＮｕＰｒｉｍｅ,,株式会社,東京都,世田谷区,等々力６丁目７番１４号,,13,112,1580082,,,,,,,2025-11-26,1,,,,,ニュープライム,0
1653,7011001173620,新規,0,2025-11-26,2025-11-26,株式会社Ｄｉｇｉｔａｌ　Ｓａｌｖａｇｅ,,株式会社,東京都,目黒区,大橋１丁目３－５ＲｏｙａｌＡｍｅｎｉｔｙ池尻大橋３０６号室,,13,110,1530044,,,,,,,2025-11-26,1,,,,,デジタルサルベージ,0
1654,7011001173868,新規,0,2025-11-26,2025-11-26,ＢＯＬＤＥＮ．Ｇ株式会社,,株式会社,東京都,渋谷区,富ヶ谷１丁目９番２１号上原ビル６階,,13,113,1510063,,,,,,,2025-11-26,1,,,,,ボルデンドットジー,0
1655,7011001173967,新規,0,2025-11-26,2025-11-26,株式会社ＬＳＧ‐１,,株式会社,東京都,目黒区,下目黒１丁目８番１号,,13,110,1530064,,,,,,,2025-11-26,1,,,,,エルエスジーワン,0
1657,7011003022965,新規,0,2025-11-26,2025-11-26,丸山興業合同会社,,合同会社,東京都,渋谷区,神南１丁目１１－４ＦＰＧリンクス神南５Ｆ,,13,113,1500041,,,,,,,2025-11-26,1,,,,,マルヤマコウギョウ,0
1658,7011005011264,新規,0,2025-11-26,2025-11-26,一般社団法人保育士資格取得支援推進協会,,その他の設立登記法人,東京都,渋谷区,渋谷３丁目６番６号渋谷パークビル７階,,13,113,1500002,,,,,,,2025-11-26,1,,,,,ホイクシシカクシュトクシエンスイシンキョウカイ,0
1661,7011101113963,新規,0,2025-11-26,2025-11-26,株式会社世乃助,,株式会社,東京都,新宿区,新宿１丁目３０番１６号ルネ新宿御苑タワー９０４号室,,13,104,1600022,,,,,,,2025-11-26,1,,,,,ヨノスケ,0
1662,7011101113971,新規,0,2025-11-26,2025-11-26,株式会社碧茶東京,,株式会社,東京都,新宿区,西新宿３丁目３番１３号西新宿水間ビル２Ｆ,,13,104,1600023,,,,,,,2025-11-26,1,,,,,アオチャトウキョウ,0
1664,7011103016693,新規,0,2025-11-26,2025-11-26,ふたぼく合同会社,,合同会社,東京都,新宿区,西新宿３丁目３番１３号西新宿水間ビル２Ｆ,,13,104,1600023,,,,,,,2025-11-26,1,,,,,フタボク,0
1665,7011201026801,新規,0,2025-11-26,2025-11-26,株式会社ＴｐｒｏｊｅｃＴ,,株式会社,東京都,中野区,中野５丁目３２番１１号シティプラザ中野３０３,,13,114,1640001,,,,,,,2025-11-26,1,,,,,ティープロジェクト,0
1668,7011301031081,新規,0,2025-11-26,2025-11-26,株式会社ｓｉｇｍａ　ｏｆｆｉｃｅ,,株式会社,東京都,杉並区,永福２丁目２３番５号ＨＨＨ４Ａ,,13,115,1680064,,,,,,,2025-11-26,1,,,,,シグマオフィス,0
1669,7011303005777,新規,0,2025-11-26,2025-11-26,ＡＩＨＯＮＡＮ合同会社,,合同会社,東京都,杉並区,和泉４丁目３３番６号スリーファイブ２０１,,13,115,1680063,,,,,,,2025-11-26,1,,,,,エーアイホウナン,0
1671,7011401027599,新規,0,2025-11-26,2025-11-26,Ｖｏｉｄｖａｕｌｔ株式会社,,株式会社,東京都,板橋区,成増１丁目１４－９成増グリーンハイツ４０１,,13,119,1750094,,,,,,,2025-11-26,1,,,,,ヴォイドヴォルト,0
1673,7011501032846,新規,0,2025-11-26,2025-11-26,株式会社セルグレイス,,株式会社,東京都,北区,王子４丁目２３番３号２Ｆ,,13,117,1140002,,,,,,,2025-11-26,1,,,,,セルグレイス,0
1674,7011603004925,新規,0,2025-11-26,2025-11-26,合同会社スコルタケア,,合同会社,東京都,練馬区,南大泉５丁目２０－１２オズコーポＡ棟１０１号,,13,120,1780064,,,,,,,2025-11-26,1,,,,,スコルタケア,0
1675,7011801047016,新規,0,2025-11-26,2025-11-26,潤正留学株式会社,,株式会社,東京都,足立区,西新井栄町３丁目８番１４号,,13,121,1230843,,,,,,,2025-11-26,1,,,,,ジュンセイリュウガク,0
1676,7011801047098,新規,0,2025-11-26,2025-11-26,株式会社Ｖｉｓ　Ｖｉｖｅｎｄｉ,,株式会社,東京都,足立区,小台２丁目３２－３,,13,121,1200046,,,,,,,2025-11-26,1,,,,,ヴィスヴィヴェンディ,0
1677,7011801047123,新規,0,2025-11-26,2025-11-26,ムゲン創栄株式会社,,株式会社,東京都,足立区,西保木間１丁目２０－５,,13,121,1210812,,,,,,,2025-11-26,1,,,,,ムゲンソウエイ,0
1679,7013101009869,新規,0,2025-11-26,2025-11-26,株式会社ＥｎＷｏｒｃｓ,,株式会社,東京都,福生市,大字福生７８８－３９,,13,218,1970011,,,,,,,2025-11-26,1,,,,,エンワークス,0
1682,7013301055325,新規,0,2025-11-26,2025-11-26,株式会社Ｊ．Ｅ．Ｐ,,株式会社,東京都,豊島区,池袋４丁目３１番５号,,13,116,1710014,,,,,,,2025-11-26,1,,,,,ジェイイーピー,0
1688,7020001165890,新規,0,2025-11-26,2025-11-26,株式会社ユニティブリッジ,,株式会社,神奈川県,横浜市港北区,小机町１７３番地１ソシアＡ棟１０２,,14,109,2220036,,,,,,,2025-11-26,1,,,,,ユニティブリッジ,0
1689,7020001165899,新規,0,2025-11-26,2025-11-26,株式会社Ｈｅｌｉｘ,,株式会社,神奈川県,横浜市中区,山下町１９４番地外丸ビル３Ｆ,,14,104,2310023,,,,,,,2025-11-26,1,,,,,ヘリックス,0
1690,7020001165916,新規,0,2025-11-26,2025-11-26,ＪＧＳ株式会社,,株式会社,神奈川県,横浜市西区,北幸２丁目１０番４８号,,14,103,2200004,,,,,,,2025-11-26,1,,,,,ジェージーエス,0
1691,7020001165965,新規,0,2025-11-26,2025-11-26,倉崎工藝株式会社,,株式会社,神奈川県,川崎市中原区,小杉町３丁目２６０‐２０,,14,133,2110063,,,,,,,2025-11-26,1,,,,,クラサキコウゲイ,0
1692,7020001166030,新規,0,2025-11-26,2025-11-26,関口不動産株式会社,,株式会社,神奈川県,横浜市神奈川区,三ツ沢東町４番２８－１号,,14,102,2210853,,,,,,,2025-11-26,1,,,,,セキグチフドウサン,0
1702,7021001086813,新規,0,2025-11-26,2025-11-26,アオキ電気株式会社,,株式会社,神奈川県,小田原市,前川２５１番地の１,,14,206,2560813,,,,,,,2025-11-26,1,,,,,アオキデンキ,0
1703,7021001086838,新規,0,2025-11-26,2025-11-26,グロースフィールド株式会社,,株式会社,神奈川県,茅ヶ崎市,東海岸南４丁目８－５ベルピア茅ヶ崎第０４、１０３号室,,14,207,2530054,,,,,,,2025-11-26,1,,,,,グロースフィールド,0
1704,7021001086862,新規,0,2025-11-26,2025-11-26,株式会社ＹＳコネクション,,株式会社,神奈川県,小田原市,穴部１０８番地の７,,14,206,2500053,,,,,,,2025-11-26,1,,,,,ワイエスコネクション,0
1719,7030001169817,新規,0,2025-11-26,2025-11-26,株式会社ＭＡＲＵ,,株式会社,埼玉県,さいたま市南区,曲本４丁目５番３－３０３号,,11,108,3360033,,,,,,,2025-11-26,1,,,,,マル,0
1722,7030003028112,新規,0,2025-11-26,2025-11-26,合同会社Ａｃｔ．,,合同会社,埼玉県,さいたま市南区,大字太田窪２７１８－２１,,11,108,3360015,,,,,,,2025-11-26,1,,,,,アクト,0
1731,7040001141543,新規,0,2025-11-26,2025-11-26,株式会社Ｌａｔｔｅ　Ｏｎｅ,,株式会社,千葉県,浦安市,舞浜２丁目３８―４,,12,227,2790031,,,,,,,2025-11-26,1,,,,,ラテワン,0
1736,7060001038787,新規,0,2025-11-26,2025-11-26,株式会社大栄通商,,株式会社,栃木県,真岡市,下大田和１３５４番地,,09,209,3214413,,,,,,,2025-11-26,1,,,,,ダイエイツウショウ,0
1737,7080001027292,新規,0,2025-11-26,2025-11-26,株式会社ＧＯＡＴ　ＢＲＯＳ,,株式会社,静岡県,焼津市,五ケ堀之内３１８番地の１,,22,212,4250077,,,,,,,2025-11-26,1,,,,,ゴートブロス,0
1739,7080101025915,新規,0,2025-11-26,2025-11-26,株式会社鈴木鉄工,,株式会社,静岡県,賀茂郡南伊豆町,湊３５３番地の１６,,22,304,4150152,,,,,,,2025-11-26,1,,,,,スズキテッコウ,0
1747,7100001039137,新規,0,2025-11-26,2025-11-26,株式会社柳屋商店,,株式会社,長野県,大町市,大町３３０３－１９,,20,212,3980002,,,,,,,2025-11-26,1,,,,,ヤナギヤショウテン,0
1749,7110001039739,新規,0,2025-11-26,2025-11-26,株式会社匠工業,,株式会社,新潟県,三条市,島田３丁目４番１９号,,15,204,9550842,,,,,,,2025-11-26,1,,,,,タクミコウギョウ,0
1750,7110003005978,新規,0,2025-11-26,2025-11-26,合同会社越事務,,合同会社,新潟県,長岡市,大島新町５丁目２番地２２ＳＴハイツ２０２号室,,15,202,9402104,,,,,,,2025-11-26,1,,,,,エツジム,0
1758,7120001282263,新規,0,2025-11-26,2025-11-26,信和ＮＫホールディング株式会社,,株式会社,大阪府,大阪市西淀川区,佃５丁目７番４３号,,27,113,5550001,,,,,,,2025-11-26,1,,,,,シンワエヌケイホールディング,0
1759,7120001282296,新規,0,2025-11-26,2025-11-26,株式会社Ｍｒ．ｓａｓｕｋｅ,,株式会社,大阪府,大阪市中央区,船場中央１丁目３‐２‐１０１大阪デザインセンター内,,27,128,5410055,,,,,,,2025-11-26,1,,,,,ミスターサスケ,0
1760,7120003031222,新規,0,2025-11-26,2025-11-26,Ｕｍｅｒ　Ｔｒａｄｉｎｇ合同会社,,合同会社,大阪府,守口市,大庭町１丁目２－４－３０１号室,,27,209,5700009,,,,,,,2025-11-26,1,,,,,ウメールトレーディング,0
1761,7120003031296,新規,0,2025-11-26,2025-11-26,合同会社カイゲツサプライ,,合同会社,大阪府,守口市,八雲中町１丁目９‐１７,,27,209,5700005,,,,,,,2025-11-26,1,,,,,カイゲツサプライ,0
1762,7120005025271,新規,0,2025-11-26,2025-11-26,弁護士法人中村・平井・田邉法律事務所,,その他の設立登記法人,大阪府,大阪市北区,西天満２丁目８番１号大江ビルヂング５１２号室,,27,127,5300047,,,,,,,2025-11-26,1,,,,,ナカムラヒライタナベホウリツジムショ,0
1770,7120901051841,新規,0,2025-11-26,2025-11-26,株式会社久保運送,,株式会社,大阪府,茨木市,新中条町９番３６号,,27,211,5670872,,,,,,,2025-11-26,1,,,,,クボウンソウ,0
1777,7122001039899,新規,0,2025-11-26,2025-11-26,株式会社ａｎｄ,,株式会社,大阪府,柏原市,法善寺１丁目６番２１号,,27,221,5820005,,,,,,,2025-11-26,1,,,,,アンド,0
1783,7140001140898,新規,0,2025-11-26,2025-11-26,ＳＡＮＢＯ株式会社,,株式会社,兵庫県,神戸市中央区,下山手通８丁目１５番１６－２０４号,,28,110,6500011,,,,,,,2025-11-26,1,,,,,サンボウ,0
1792,7180001169604,新規,0,2025-11-26,2025-11-26,泰和株式会社,,株式会社,愛知県,名古屋市港区,藤前４丁目２１２番地,,23,111,4550855,,,,,,,2025-11-26,1,,,,,タイワ,0
1793,7180001169612,新規,0,2025-11-26,2025-11-26,株式会社アストロ,,株式会社,愛知県,名古屋市中区,錦２丁目７番７号,,23,106,4600003,,,,,,,2025-11-26,1,,,,,アストロ,0
1794,7180001169620,新規,0,2025-11-26,2025-11-26,株式会社建築省エネ計算Ｌａｂ,,株式会社,愛知県,名古屋市千種区,山門町１丁目１２番地の６山門九六六２０１号,,23,101,4640064,,,,,,,2025-11-26,1,,,,,ケンチクショウエネケイサンラボ,0
1795,7180001169645,新規,0,2025-11-26,2025-11-26,株式会社ｉｓｈｉｇｕＲＵＮ,,株式会社,愛知県,名古屋市千種区,池下１丁目９番１１号サンクレイドル池下１５０１号,,23,101,4640067,,,,,,,2025-11-26,1,,,,,イシグラン,0
1796,7180001169653,新規,0,2025-11-26,2025-11-26,株式会社シオン,,株式会社,愛知県,名古屋市中川区,服部５丁目１６１１番地,,23,110,4540976,,,,,,,2025-11-26,1,,,,,シオン,0
1802,7180003029418,新規,0,2025-11-26,2025-11-26,ＡＩゲディソン合同会社,,合同会社,愛知県,名古屋市中村区,名駅３丁目４番１０号アルティメイト名駅１ｓｔ２階,,23,105,4500002,,,,,,,2025-11-26,1,,,,,エーアイゲディソン,0
1811,7180301040448,新規,0,2025-11-26,2025-11-26,中唐株式会社,,株式会社,愛知県,知立市,昭和１丁目１２番地７,,23,225,4720011,,,,,,,2025-11-26,1,,,,,,0
1812,7180303006819,新規,0,2025-11-26,2025-11-26,合同会社やまだ商店,,合同会社,愛知県,岡崎市,橋目町字割塚１７番地の２,,23,202,4440908,,,,,,,2025-11-26,1,,,,,,0
1813,7190001032711,新規,0,2025-11-26,2025-11-26,株式会社ｔｉｍｅ,,株式会社,三重県,鈴鹿市,算所町１２７２番地２－１０１,,24,207,5130805,,,,,,,2025-11-26,1,,,,,タイム,0
1814,7200001044457,新規,0,2025-11-26,2025-11-26,ワタナベホールディングス株式会社,,株式会社,岐阜県,大垣市,三本木４丁目５８番地,,21,202,5030813,,,,,,,2025-11-26,1,,,,,ワタナベホールディングス,0
1815,7200001044465,新規,0,2025-11-26,2025-11-26,株式会社Ｄｒｅａｍ　Ａｒｔ　Ｊａｐａｎ,,株式会社,岐阜県,各務原市,鵜沼東町６丁目３２番地シェラトン中保１Ｂ,,21,213,5090126,,,,,,,2025-11-26,1,,,,,ドリームアートジャパン,0
1821,7240003007490,新規,0,2025-11-26,2025-11-26,合同会社阿部不動産,,合同会社,広島県,広島市南区,青崎２丁目１９－１－４２３,,34,103,7340053,,,,,,,2025-11-26,1,,,,,アベフドウサン,0
1822,7250001021435,新規,0,2025-11-26,2025-11-26,株式会社ＴＣＫ,,株式会社,山口県,山口市,黒川２８０８番地７,,35,203,7530851,,,,,,,2025-11-26,1,,,,,ティーシーケー,0
1827,7290001112271,新規,0,2025-11-26,2025-11-26,株式会社野村断熱,,株式会社,福岡県,久留米市,南１丁目１４番２７－２０２号,,40,203,8300051,,,,,,,2025-11-26,1,,,,,ノムラダンネツ,0
1828,7290003017725,新規,0,2025-11-26,2025-11-26,合同会社カレイドフォージ,,合同会社,福岡県,福岡市早良区,賀茂１丁目４９－１１,,40,137,8140164,,,,,,,2025-11-26,1,,,,,カレイドフォージ,0
1829,7290003017741,新規,0,2025-11-26,2025-11-26,合同会社ｍｅｔａｐｈｏｒ,,合同会社,福岡県,福岡市南区,向新町２丁目２番２９号,,40,134,8111345,,,,,,,2025-11-26,1,,,,,メタファー,0
1830,7290003017758,新規,0,2025-11-26,2025-11-26,Ｗｉｚ　Ｐｒｏｍｏ合同会社,,合同会社,福岡県,福岡市西区,今津２４３４－３,,40,135,8190165,,,,,,,2025-11-26,1,,,,,ウィズプロモ,0
1831,7290805009878,新規,0,2025-11-26,2025-11-26,特定非営利活動法人Ｉ＆Ａ　ＪＡＰＡＮ,,その他の設立登記法人,福岡県,北九州市八幡西区,船越２丁目２番２号,,40,109,8071111,,,,,,,2025-11-26,1,,,,,アイアンドエージャパン,0
1833,7330001033777,新規,0,2025-11-26,2025-11-26,ヨシヤスＨＤ株式会社,,株式会社,熊本県,菊池市,泗水町亀尾３５８８番地,,43,210,8611211,,,,,,,2025-11-26,1,,,,,ヨシヤスホールディングス,0
1835,7340001027803,新規,0,2025-11-26,2025-11-26,株式会社今村防災設備,,株式会社,鹿児島県,鹿児島市,清和３丁目１０番３９号,,46,201,8910109,,,,,,,2025-11-26,1,,,,,イマムラボウサイセツビ,0
1837,7350001019816,新規,0,2025-11-26,2025-11-26,大将株式会社,,株式会社,宮崎県,延岡市,川島町１４５３番地８,,45,203,8820017,,,,,,,2025-11-26,1,,,,,タイショウ,0
1840,7360001036075,新規,0,2025-11-26,2025-11-26,株式会社七八,,株式会社,沖縄県,沖縄市,与儀１丁目３５番１０号Ｉｓｌａｎｄｖｉｅｗ６０１,,47,211,9042174,,,,,,,2025-11-26,1,,,,,ナナハチ,0
1841,7370001053251,新規,0,2025-11-26,2025-11-26,株式会社学勝,,株式会社,宮城県,仙台市青葉区,上杉１丁目１番３０号,,04,101,9800011,,,,,,,2025-11-26,1,,,,,ガクショウ,0
1842,7370003007379,新規,0,2025-11-26,2025-11-26,ルミナス合同会社,,合同会社,宮城県,富谷市,鷹乃杜１丁目１番４号,,04,216,9813351,,,,,,,2025-11-26,1,,,,,ルミナス,0
1854,7430001095741,新規,0,2025-11-26,2025-11-26,株式会社あらいファーム,,株式会社,北海道,勇払郡厚真町,字富里１２１番地,,01,581,0591614,,,,,,,2025-11-26,1,,,,,アライファーム,0
1860,7480001013013,新規,0,2025-11-26,2025-11-26,シップシンク株式会社,,株式会社,徳島県,阿南市,那賀川町日向５番地１４,,36,204,7791119,,,,,,,2025-11-26,1,,,,,シップシンク,0
1864,7700150133043,新規,0,2025-11-26,2025-11-26,ＮＥＷ　ＣＩＴＹ　ＳＥＲＶＩＣＥ　ＳＴＡＴＩＯＮ,,外国会社等,千葉県,東金市,広瀬４２番地５７,,12,213,2830041,スリランカ民主社会主義共和国、ウクウェラ、ワラカムラ、キャンディロード、３／２,,,,,,2025-11-26,1,,,,,ニユーシテイサービスステーシヨン,0
1872,8010001260428,新規,0,2025-11-26,2025-11-26,株式会社ＶＩＶＩＤ　ＣＡＲＥＥＲ,,株式会社,東京都,文京区,小石川４丁目１８番７－４０６,,13,105,1120002,,,,,,,2025-11-26,1,,,,,ビビッドキャリア,0
1873,8010001260527,新規,0,2025-11-26,2025-11-26,株式会社ＳＨＩＰ第１０３９号,,株式会社,東京都,千代田区,丸の内２丁目７番２号,,13,101,1000005,,,,,,,2025-11-26,1,,,,,エスエイチアイピーダイセンサンジュウキュウゴウ,0
1874,8010001260535,新規,0,2025-11-26,2025-11-26,株式会社ＳＨＩＰ第１０４７号,,株式会社,東京都,千代田区,丸の内２丁目７番２号,,13,101,1000005,,,,,,,2025-11-26,1,,,,,エスエイチアイピーダイセンヨンジュウナナゴウ,0
1875,8010003049324,新規,0,2025-11-26,2025-11-26,合同会社Ｏｌａｄｄｉｎ,,合同会社,東京都,中央区,晴海３丁目１３番１－１１０６号,,13,102,1040053,,,,,,,2025-11-26,1,,,,,オラジン,0
1876,8010003049506,新規,0,2025-11-26,2025-11-26,イークラウドＮＥＸＴＧＰ２号合同会社,,合同会社,東京都,中央区,京橋２丁目２番１号京橋エドグランサウス４階トラスティルグループ内,,13,102,1040031,,,,,,,2025-11-26,1,,,,,イークラウドネクストジーピーニゴウ,0
1886,8010401194390,新規,0,2025-11-26,2025-11-26,株式会社ｍｉｎｔ,,株式会社,東京都,港区,北青山１丁目３－３三橋ビル３階,,13,103,1070061,,,,,,,2025-11-26,1,,,,,ミント,0
1887,8010401194696,新規,0,2025-11-26,2025-11-26,ＡＮＤ　ＲＥＬＡＸ株式会社,,株式会社,東京都,港区,南青山２丁目２番１５－５３１号ＷＩＮ青山,,13,103,1070062,,,,,,,2025-11-26,1,,,,,アンドリラックス,0
1904,8010701048643,新規,0,2025-11-26,2025-11-26,株式会社Ｖｉｓｉｏｎａｒｙ　Ｃｏｍｐａｔｈｓ,,株式会社,東京都,品川区,大井１丁目２１番２－６０６号,,13,109,1400014,,,,,,,2025-11-26,1,,,,,ヴィジョナリーコンパス,0
1905,8010705003826,新規,0,2025-11-26,2025-11-26,一般社団法人Ｂホールディングス,,その他の設立登記法人,東京都,品川区,上大崎３丁目１番１号目黒セントラルスクエア１５階,,13,109,1410021,,,,,,,2025-11-26,1,,,,,ビーホールディングス,0
1920,8011001173660,新規,0,2025-11-26,2025-11-26,株式会社ＷＡＫＩＺＡＳＨＩ,,株式会社,東京都,渋谷区,笹塚１丁目２１‐１７シティプラザ笹塚４０４,,13,113,1510073,,,,,,,2025-11-26,1,,,,,ワキザシ,0
1921,8011001174015,新規,0,2025-11-26,2025-11-26,株式会社ユスラ,,株式会社,東京都,渋谷区,東３丁目２２―１４グランファースト恵比寿８Ｆ,,13,113,1500011,,,,,,,2025-11-26,1,,,,,ユスラ,0
1929,8011201026800,新規,0,2025-11-26,2025-11-26,株式会社ＫＬＡＴＨＡ,,株式会社,東京都,中野区,中央５丁目８番２５号,,13,114,1640011,,,,,,,2025-11-26,1,,,,,ケラタ,0
1930,8011301031080,新規,0,2025-11-26,2025-11-26,日本計測工業ホールディングス株式会社,,株式会社,東京都,杉並区,浜田山４丁目１０番１号,,13,115,1680065,,,,,,,2025-11-26,1,,,,,ニホンケイソクコウギョウホールディングス,0
1932,8011403004950,新規,0,2025-11-26,2025-11-26,合同会社ＳＴ,,合同会社,東京都,板橋区,前野町１丁目４０番１１号,,13,119,1740063,,,,,,,2025-11-26,1,,,,,エスティー,0
1937,8011701028932,新規,0,2025-11-26,2025-11-26,Ｐｈｉｘｉ株式会社,,株式会社,東京都,江戸川区,小松川１丁目５番１－２０２号,,13,123,1320034,,,,,,,2025-11-26,1,,,,,フィクシー,0
1938,8011801047089,新規,0,2025-11-26,2025-11-26,株式会社田沢工業,,株式会社,東京都,葛飾区,鎌倉３丁目４番１号,,13,122,1250053,,,,,,,2025-11-26,1,,,,,タザワコウギョウ,0
1939,8011801047097,新規,0,2025-11-26,2025-11-26,株式会社不二商会,,株式会社,東京都,足立区,千住柳町３４－１３,,13,121,1200032,,,,,,,2025-11-26,1,,,,,フジショウカイ,0
1940,8012303002251,新規,0,2025-11-26,2025-11-26,合同会社ｓｈｉｎｓｈｉｎ,,合同会社,東京都,町田市,小川１丁目１―１２,,13,209,1940003,,,,,,,2025-11-26,1,,,,,シンシン,0
1942,8012401043833,新規,0,2025-11-26,2025-11-26,大野工業株式会社,,株式会社,東京都,調布市,布田４丁目２３番地８ライオンズヴィアーレ調布第２・５０４,,13,208,1820024,,,,,,,2025-11-26,1,,,,,オオノコウギョウ,0
1950,8020001165956,新規,0,2025-11-26,2025-11-26,株式会社永輝商事,,株式会社,神奈川県,川崎市幸区,戸手４丁目１０番１－２０３号フジトピア川崎,,14,132,2120005,,,,,,,2025-11-26,1,,,,,エイキショウジ,0
1951,8020001165997,新規,0,2025-11-26,2025-11-26,株式会社Ｐａｎｏｒｉａ,,株式会社,神奈川県,横浜市西区,浅間町１丁目４番３号ウィザードビル４０２,,14,103,2200072,,,,,,,2025-11-26,1,,,,,パノリア,0
1954,8020003029853,新規,0,2025-11-26,2025-11-26,合同会社ＯＮＯＭ,,合同会社,神奈川県,横浜市西区,浅間町１丁目４番３号ウィザードビル４０２,,14,103,2200072,,,,,,,2025-11-26,1,,,,,オノム,0
1958,8021001086853,新規,0,2025-11-26,2025-11-26,ルミエール・ジャパン株式会社,,株式会社,神奈川県,相模原市中央区,中央３丁目７番６号,,14,152,2520239,,,,,,,2025-11-26,1,,,,,ルミエールジャパン,0
1963,8021003016817,新規,0,2025-11-26,2025-11-26,合同会社ＮＩカンパニー,,合同会社,神奈川県,茅ヶ崎市,浜須賀１０番５１号,,14,207,2530035,,,,,,,2025-11-26,1,,,,,エヌアイカンパニー,0
1964,8021003016825,新規,0,2025-11-26,2025-11-26,Ｍ’ｓ合同会社,,合同会社,神奈川県,平塚市,袖ケ浜１７番３７号,,14,203,2540813,,,,,,,2025-11-26,1,,,,,エムズ,0
1974,8030001169824,新規,0,2025-11-26,2025-11-26,株式会社ＯＮＥ　ＳＰＩＣＥ,,株式会社,埼玉県,富士見市,大字鶴馬２６０９番地２ユードリーム鶴瀬ステーションワンズ１５０４,,11,235,3540021,,,,,,,2025-11-26,1,,,,,ワンスパイス,0
1975,8030001169857,新規,0,2025-11-26,2025-11-26,株式会社ＧＬＡＮＴＨ　ＶＩＲＴＥ,,株式会社,埼玉県,さいたま市岩槻区,美園東１丁目１－１－１２１１,,11,110,3390028,,,,,,,2025-11-26,1,,,,,グランスヴァート,0
1985,8040001141526,新規,0,2025-11-26,2025-11-26,株式会社アセットデザイン嶋田事務所,,株式会社,千葉県,流山市,おおたかの森西１丁目５番地の６－６０３,,12,220,2700128,,,,,,,2025-11-26,1,,,,,アセットデザインシマダジムショ,0
2002,8070001043587,新規,0,2025-11-26,2025-11-26,株式会社セカンドライフ,,株式会社,群馬県,桐生市,宮前町１丁目４番２５号エコネクスト宮前１３,,10,203,3760046,,,,,,,2025-11-26,1,,,,,セカンドライフ,0
2003,8080001027291,新規,0,2025-11-26,2025-11-26,株式会社Ｌｅｓｓ　ｉｓ　Ｍｏｒｅ,,株式会社,静岡県,静岡市葵区,栄町２番地５アークビルディング５０２,,22,101,4200859,,,,,,,2025-11-26,1,,,,,レスイズモア,0
2008,8090001019619,新規,0,2025-11-26,2025-11-26,クレアース株式会社,,株式会社,山梨県,甲府市,下曽根町２７８１番地１,,19,201,4001508,,,,,,,2025-11-26,1,,,,,クレアース,0
2020,8120005025270,新規,0,2025-11-26,2025-11-26,特定非営利活動法人Ｒｏｏｔ　ｆｏｒ　Ｃｈｉｌｄｒｅｎ,,その他の設立登記法人,大阪府,大阪市生野区,田島１丁目２番７号,,27,116,5440011,,,,,,,2025-11-26,1,,,,,ルートフォーチルドレン,0
2031,8122005003859,新規,0,2025-11-26,2025-11-26,特定非営利活動法人ＪＡＭＷＥＩ世界平和医師団,,その他の設立登記法人,大阪府,東大阪市,西堤本通西３丁目３番３号,,27,227,5770046,,,,,,,2025-11-26,1,,,,,ジャムウェイセカイヘイワイシダン,0
2032,8130001081052,新規,0,2025-11-26,2025-11-26,株式会社ゲームバックアシティ,,株式会社,京都府,京都市北区,上賀茂今井河原町１０－２０,,26,101,6038063,,,,,,,2025-11-26,1,,,,,ゲームバックアシティ,0
2034,8140001140856,新規,0,2025-11-26,2025-11-26,株式会社Ｅ‐ｓｔｕｄｉｏ,,株式会社,兵庫県,芦屋市,伊勢町５番２８－２０３号,,28,206,6590052,,,,,,,2025-11-26,1,,,,,イースタジオ,0
2035,8140001140897,新規,0,2025-11-26,2025-11-26,株式会社ＴＳＵＫＡＳＡ,,株式会社,兵庫県,神戸市中央区,熊内町８丁目１番１５－４０４号,,28,110,6510056,,,,,,,2025-11-26,1,,,,,ツカサ,0
2041,8140003022895,新規,0,2025-11-26,2025-11-26,合同会社ＡｄＰｉｌ,,合同会社,兵庫県,神戸市西区,池上５丁目９番地の１ポレール伊川ＩＩＩ３０１号,00141643,28,111,6512111,,,,,,,2025-11-26,1,,,,,アドピル,0
2043,8140005027711,新規,0,2025-11-26,2025-11-26,特定非営利活動法人さんだねこＣＬＵＢ,,その他の設立登記法人,兵庫県,三田市,加茂４４９番地１０,,28,219,6691311,,,,,,,2025-11-26,1,,,,,サンダネコクラブ,0
2046,8170001018884,新規,0,2025-11-26,2025-11-26,株式会社トナリス,,株式会社,和歌山県,橋本市,市脇１丁目３番１８号,,30,203,6480073,,,,,,,2025-11-26,1,,,,,トナリス,0
2053,8180001169594,新規,0,2025-11-26,2025-11-26,株式会社Ｃｌａｒｉｏ,,株式会社,愛知県,名古屋市中区,丸の内２丁目１５－３２オープンレジデンシアＴＨＥＭＩＤＭＡＲＫ４０５号,,23,106,4600002,,,,,,,2025-11-26,1,,,,,クラリオ,0
2054,8180001169611,新規,0,2025-11-26,2025-11-26,株式会社善松,,株式会社,愛知県,名古屋市名東区,豊が丘１７１０番地の１,,23,115,4650035,,,,,,,2025-11-26,1,,,,,ゼンショウ,0
2055,8180001169669,新規,0,2025-11-26,2025-11-26,株式会社ケアサポート,,株式会社,愛知県,江南市,般若町東山３７８番地３,,23,217,4838012,,,,,,,2025-11-26,1,,,,,ケアサポート,0
2061,8180003029417,新規,0,2025-11-26,2025-11-26,合同会社Ａｖｅｎｉｒ,,合同会社,愛知県,名古屋市中区,大須４丁目１５－４７－２０３,,23,106,4600011,,,,,,,2025-11-26,1,,,,,アヴェニール,0
2068,8180301040439,新規,0,2025-11-26,2025-11-26,株式会社ＭＩＮＥＺＡＷＡ　ＨＯＬＤＩＮＧＳ,,株式会社,愛知県,岡崎市,井田南町４番地５,,23,202,4440068,,,,,,,2025-11-26,1,,,,,ミネザワホールディングス,0
2072,8180303006818,新規,0,2025-11-26,2025-11-26,ＪＥ　Ｃａｐｉｔａｌ　Ｈｏｌｄｉｎｇｓ合資会社,,合資会社,愛知県,豊川市,豊川町辺通２７番地の２,,23,207,4420033,,,,,,,2025-11-26,1,,,,,ジェーイーキャピタルホールディングス,0
2082,8200001044456,新規,0,2025-11-26,2025-11-26,株式会社Ｎｅｘｕｓ　Ｇｒｏｕｎｄ,,株式会社,岐阜県,不破郡垂井町,宮代２５０９番地の１,,21,361,5032124,,,,,,,2025-11-26,1,,,,,ネクサスグランド,0
2083,8200001044464,新規,0,2025-11-26,2025-11-26,Ｕ株式会社,,株式会社,岐阜県,岐阜市,六条南２丁目５番２０号,,21,201,5008358,,,,,,,2025-11-26,1,,,,,ユー,0
2100,8290001112254,新規,0,2025-11-26,2025-11-26,株式会社明昇開発,,株式会社,福岡県,福岡市中央区,地行浜２丁目２番３号４階,,40,133,8100065,,,,,,,2025-11-26,1,,,,,メイショウカイハツ,0
2101,8290001112270,新規,0,2025-11-26,2025-11-26,株式会社オーロライマジネーション,,株式会社,福岡県,小郡市,小郡５５３番地７,,40,216,8380141,,,,,,,2025-11-26,1,,,,,オーロライマジネーション,0
2102,8290001112279,新規,0,2025-11-26,2025-11-26,株式会社ＧＲＡＮＤ,,株式会社,福岡県,福岡市南区,柏原６丁目１９番２４号,,40,134,8111353,,,,,,,2025-11-26,1,,,,,グランド,0
2103,8290001112287,新規,0,2025-11-26,2025-11-26,株式会社ＲＥＥＦ　ＣＵＲＲＥＮＴ,,株式会社,福岡県,福岡市西区,生松台３丁目１５番１１号,,40,135,8190044,,,,,,,2025-11-26,1,,,,,リーフカレント,0
2107,8290003017757,新規,0,2025-11-26,2025-11-26,ココナカンパニー合同会社,,合同会社,福岡県,福岡市博多区,博多駅前１丁目２３番２号ＰａｒｋＦｒｏｎｔ５Ｆ‐Ｂ,,40,132,8120011,,,,,,,2025-11-26,1,,,,,ココナカンパニー,0
2108,8290005019883,新規,0,2025-11-26,2025-11-26,一般社団法人ほしぞら,,その他の設立登記法人,福岡県,福岡市南区,中尾３丁目４番１４号,,40,134,8111364,,,,,,,2025-11-26,1,,,,,ホシゾラ,0
2110,8290801032049,新規,0,2025-11-26,2025-11-26,ＳＦＦ株式会社,,株式会社,福岡県,北九州市八幡西区,吉祥寺町７－６－２０３,,40,109,8071114,,,,,,,2025-11-26,1,,,,,エスエフエフ,0
2115,8320001021451,新規,0,2025-11-26,2025-11-26,アクアユース株式会社,,株式会社,大分県,大分市,明野高尾２丁目６番７号,,44,201,8700162,,,,,,,2025-11-26,1,,,,,アクアユース,0
2117,8320003004834,新規,0,2025-11-26,2025-11-26,合同会社コウサク,,合同会社,大分県,日田市,大字三和１５２番地２,,44,204,8770000,,,,,,,2025-11-26,1,,,,,コウサク,0
2124,8360001036074,新規,0,2025-11-26,2025-11-26,株式会社クリエイト建設,,株式会社,沖縄県,うるま市,勝連南風原３１４３番地４４,,47,213,9042311,,,,,,,2025-11-26,1,,,,,クリエイトケンセツ,0
2125,8370003007378,新規,0,2025-11-26,2025-11-26,マエスペス合同会社,,合同会社,宮城県,富谷市,鷹乃杜１丁目１番４号,,04,216,9813351,,,,,,,2025-11-26,1,,,,,マエスペス,0
2126,8370003007386,新規,0,2025-11-26,2025-11-26,Ａｉｌ．Ｈ合同会社,,合同会社,宮城県,岩沼市,土ケ崎１丁目２番５４号,,04,211,9892451,,,,,,,2025-11-26,1,,,,,アイルドットエッチ,0
2132,8430001095740,新規,0,2025-11-26,2025-11-26,株式会社ＲＡＲＡＱ,,株式会社,北海道,札幌市中央区,南一条西１丁目１３番１－８０５号,,01,101,0600061,,,,,,,2025-11-26,1,,,,,ララク,0
2135,8460301005322,新規,0,2025-11-26,2025-11-26,株式会社ありがとう水産,,株式会社,北海道,斜里郡斜里町,字以久科北５６番地２,,01,545,0994126,,,,,,,2025-11-26,1,,,,,アリガトウスイサン,0
2141,8500001026639,新規,0,2025-11-26,2025-11-26,株式会社結珠,,株式会社,愛媛県,宇和島市,津島町上畑地甲３２７番地,,38,203,7983323,,,,,,,2025-11-26,1,,,,,ユイジュ,0
2142,8500003003636,新規,0,2025-11-26,2025-11-26,合同会社魚雅,,合同会社,愛媛県,松山市,三津１丁目３番９号,,38,201,7918061,,,,,,,2025-11-26,1,,,,,ウオマサ,0
2143,8700150132936,新規,0,2025-11-26,2025-11-13,労働協同組合おはな,,その他,大分県,中津市,大字加来字加来原２２８３－５６７,,44,203,8710152,,,,,,,2025-11-13,1,,,,,ロウドウキヨウドウクミアイオハナ,0
2144,8700150133042,新規,0,2025-11-26,2025-11-26,ＧＲＥＥＮ　ＶＩＥＷ　ＴＲＡＤＩＮＧ　ＰＶＴ　ＬＴＤ,,外国会社等,千葉県,山武市,椎崎１００２番地３－Ｄ,,12,237,2891205,スリランカ民主社会主義共和国、キャンディ、ウェレンボダ、ワタデニヤ、アッパラゴダロード、Ｎｏ．２０３／３／１,,,,,,2025-11-26,1,,,,,グリーンビユートレーデイングプライベートリミテツド,0
2149,9010001260501,新規,0,2025-11-26,2025-11-26,株式会社ノアクリエイティブ,,株式会社,東京都,千代田区,三番町５番地１０,,13,101,1020075,,,,,,,2025-11-26,1,,,,,ノアクリエイティブ,0
2150,9010001260526,新規,0,2025-11-26,2025-11-26,株式会社ＳＨＩＰ第１０３８号,,株式会社,東京都,千代田区,丸の内２丁目７番２号,,13,101,1000005,,,,,,,2025-11-26,1,,,,,エスエイチアイピーダイセンサンジュウハチゴウ,0
2151,9010001260534,新規,0,2025-11-26,2025-11-26,株式会社ＳＨＩＰ第１０４６号,,株式会社,東京都,千代田区,丸の内２丁目７番２号,,13,101,1000005,,,,,,,2025-11-26,1,,,,,エスエイチアイピーダイセンヨンジュウロクゴウ,0
2152,9010001260542,新規,0,2025-11-26,2025-11-26,株式会社ＦＬＩＰ第３１６号,,株式会社,東京都,千代田区,丸の内２丁目７番２号,,13,101,1000005,,,,,,,2025-11-26,1,,,,,エフエルアイピーダイサンビャクジュウロクゴウ,0
2153,9010001260666,新規,0,2025-11-26,2025-11-26,株式会社インフィニード,,株式会社,東京都,中央区,日本橋人形町２丁目３４番５号３Ｆ,,13,102,1030013,,,,,,,2025-11-26,1,,,,,インフィニード,0
2154,9010003049521,新規,0,2025-11-26,2025-11-26,アプキー合同会社,,合同会社,東京都,中央区,銀座１丁目２２番１１号銀座大竹ビジデンス２Ｆ,,13,102,1040061,,,,,,,2025-11-26,1,,,,,アプキー,0
2159,9010105002353,新規,0,2025-11-26,2025-11-26,特定非営利活動法人ａｎｉｆａｒｅ,,その他の設立登記法人,東京都,八王子市,南浅川町４０３０番地－２階,,13,201,1930846,,,,,,,2025-11-26,1,,,,,アニフェア,0
2167,9010401194539,新規,0,2025-11-26,2025-11-26,株式会社ＬＡＹＵＰ,,株式会社,東京都,港区,白金台４丁目２番１１号,,13,103,1080071,,,,,,,2025-11-26,1,,,,,レイアップ,0
2168,9010401194737,新規,0,2025-11-26,2025-11-26,株式会社Ｂａｔｈ,,株式会社,東京都,港区,浜松町２丁目２番１５号浜松町ダイヤビル２Ｆ,,13,103,1050013,,,,,,,2025-11-26,1,,,,,バス,0
2188,9010701048650,新規,0,2025-11-26,2025-11-26,ジャパンウエルスＵＰアドバイザリー株式会社,,株式会社,東京都,品川区,中延２丁目３番４号アトラス品川中延４１７,,13,109,1420053,,,,,,,2025-11-26,1,,,,,ジャパンウエルスアップアドバイザリー,0
2189,9010701048659,新規,0,2025-11-26,2025-11-26,サーマウントテック株式会社,,株式会社,東京都,品川区,東品川２丁目２番４号天王洲ファーストタワー７階７１３号室,,13,109,1400002,,,,,,,2025-11-26,1,,,,,サーマウントテック,0
2192,9010803005616,新規,0,2025-11-26,2025-11-26,合同会社ＭＳＲ,,合同会社,東京都,大田区,雪谷大塚町１番１５号,,13,111,1450067,,,,,,,2025-11-26,1,,,,,エムエスアール,0
2196,9011001173288,新規,0,2025-11-26,2025-11-26,株式会社２４ＲＯＯＭｓ,,株式会社,東京都,渋谷区,道玄坂１丁目１０番８号渋谷道玄坂東急ビル２Ｆ－Ｃ,,13,113,1500043,,,,,,,2025-11-26,1,,,,,ニーヨンルーム,0
2197,9011001173833,新規,0,2025-11-26,2025-11-26,福祉総合研究所株式会社,,株式会社,東京都,渋谷区,道玄坂１丁目１５番１４号ＳＴ渋谷ビル６階,,13,113,1500043,,,,,,,2025-11-26,1,,,,,フクシソウゴウケンキュウジョ,0
2198,9011003022939,新規,0,2025-11-26,2025-11-26,合同会社Ｓｏｎｏｒｉｓ,,合同会社,東京都,渋谷区,道玄坂１丁目１０番８号渋谷道玄坂東急ビル２Ｆ－Ｃ,,13,113,1500043,,,,,,,2025-11-26,1,,,,,ソノリス,0
2201,9011101114002,新規,0,2025-11-26,2025-11-26,株式会社フードクラフト,,株式会社,東京都,新宿区,西落合２丁目１８番２０号,,13,104,1610031,,,,,,,2025-11-26,1,,,,,フードクラフト,0
2203,9011203004893,新規,0,2025-11-26,2025-11-26,合同会社ＶＩＭＡＫＳ,,合同会社,東京都,中野区,新井１丁目１６－１４、２０３,,13,114,1650026,,,,,,,2025-11-26,1,,,,,ウィマクス,0
2206,9011301031030,新規,0,2025-11-26,2025-11-26,デュナミス株式会社,,株式会社,東京都,杉並区,高円寺南３丁目２４番４号ヴェントノール２０１,,13,115,1660003,,,,,,,2025-11-26,1,,,,,デュナミス,0
2209,9011501032836,新規,0,2025-11-26,2025-11-26,ダゴロバイオテクノロジー株式会社,,株式会社,東京都,荒川区,南千住３丁目２７－２浅草ビル５０８,,13,118,1160003,,,,,,,2025-11-26,1,,,,,ダゴロバイオテクノロジー,0
2212,9011801047088,新規,0,2025-11-26,2025-11-26,株式会社Ｍｉｒａｃｌｅ,,株式会社,東京都,足立区,千住仲町２３番１号４階,,13,121,1200036,,,,,,,2025-11-26,1,,,,,ミラクル,0
2216,9012401043857,新規,0,2025-11-26,2025-11-26,株式会社オーマックスエンタープライズ,,株式会社,東京都,狛江市,岩戸南１丁目４番１２－５０５号,,13,219,2010005,,,,,,,2025-11-26,1,,,,,オーマックスエンタープライズ,0
2221,9013101009867,新規,0,2025-11-26,2025-11-26,株式会社はぴた,,株式会社,東京都,羽村市,羽７４１番地９８,,13,227,2050012,,,,,,,2025-11-26,1,,,,,,0
2230,9020001165815,新規,0,2025-11-26,2025-11-26,チカエプロモーション株式会社,,株式会社,神奈川県,横浜市西区,戸部本町３８番５－９０１号,,14,103,2200041,,,,,,,2025-11-26,1,,,,,チカエプロモーション,0
2231,9020001165897,新規,0,2025-11-26,2025-11-26,株式会社ｙｕｕｗａ,,株式会社,神奈川県,川崎市川崎区,京町３丁目３２番１３号,,14,131,2100848,,,,,,,2025-11-26,1,,,,,ユウワ,0
2236,9020003029811,新規,0,2025-11-26,2025-11-26,合同会社ミライプラスラボ,,合同会社,神奈川県,横浜市西区,北幸２丁目１０番４８号むつみビル３階,,14,103,2200004,,,,,,,2025-11-26,1,,,,,ミライプラスラボ,0
2237,9020003029852,新規,0,2025-11-26,2025-11-26,ＨＡＲＡＫＥＮ　ＡＳＳＥＴＳ合同会社,,合同会社,神奈川県,横浜市青葉区,美しが丘５丁目３４番地２レ・ジェイド美しが丘２０２,,14,117,2250002,,,,,,,2025-11-26,1,,,,,ハラケンアセット,0
2241,9021001086828,新規,0,2025-11-26,2025-11-26,株式会社ＵＴＡＫＯＭＡＲＯ,,株式会社,神奈川県,横須賀市,グリーンハイツ６番７－５０４号,,14,201,2390846,,,,,,,2025-11-26,1,,,,,ウタコマロ,0
2242,9021001086869,新規,0,2025-11-26,2025-11-26,株式会社Ｒｅｆｉｎｄ,,株式会社,神奈川県,逗子市,逗子１丁目８番１３号,,14,208,2490006,,,,,,,2025-11-26,1,,,,,リファインド,0
2258,9040001141509,新規,0,2025-11-26,2025-11-26,株式会社ＴＨＤ市川,,株式会社,千葉県,市川市,南大野３丁目８番５号－３１１号,,12,203,2720804,,,,,,,2025-11-26,1,,,,,ティーエイチディーイチカワ,0
2259,9040001141525,新規,0,2025-11-26,2025-11-26,ペプチクイーン株式会社,,株式会社,千葉県,君津市,大中３３７番地,,12,225,2920522,,,,,,,2025-11-26,1,,,,,ペプチクイーン,0
2261,9040005022952,新規,0,2025-11-26,2025-11-26,特定非営利活動法人遠隔医療災害支援機構,,その他の設立登記法人,千葉県,柏市,明原１丁目１１番８号サンパチビル３階,,12,217,2770843,,,,,,,2025-11-26,1,,,,,エンカクイリョウサイガイシエンキコウ,0
2265,9060001038785,新規,0,2025-11-26,2025-11-26,株式会社ゆーらんど,,株式会社,栃木県,栃木市,沼和田町２２番１９号,,09,203,3280042,,,,,,,2025-11-26,1,,,,,ユーランド,0
2283,9120001282204,新規,0,2025-11-26,2025-11-26,株式会社ネクスフィン,,株式会社,大阪府,大阪市北区,西天満３丁目６番２１号ＡＸＩＳ東梅田ビル７０１号室,,27,127,5300047,,,,,,,2025-11-26,1,,,,,ネクスフィン,0
2285,9120003031278,新規,0,2025-11-26,2025-11-26,瑞豊合同会社,,合同会社,大阪府,大阪市東淀川区,豊新５丁目１９番１８号－４０５号,,27,114,5330014,,,,,,,2025-11-26,1,,,,,ズイホウ,0
2294,9120901051864,新規,0,2025-11-26,2025-11-26,株式会社ＴＲＩＦＯＲＴ,,株式会社,大阪府,吹田市,千里山竹園１丁目５番８号,,27,205,5650852,,,,,,,2025-11-26,1,,,,,トライフォート,0
2295,9122003003406,新規,0,2025-11-26,2025-11-26,合同会社ＬＸ,,合同会社,大阪府,東大阪市,東鴻池町４丁目７番２９号エストステーブル１０７,,27,227,5780973,,,,,,,2025-11-26,1,,,,,エルエックス,0
2298,9130001081027,新規,0,2025-11-26,2025-11-26,和食流通株式会社,,株式会社,京都府,京都市北区,衣笠鏡石町４８番３１,,26,101,6038451,,,,,,,2025-11-26,1,,,,,ワショクリュウツウ,0
2308,9140001140863,新規,0,2025-11-26,2025-11-26,株式会社縁翔,,株式会社,兵庫県,伊丹市,西台１丁目１番１号,,28,207,6640858,,,,,,,2025-11-26,1,,,,,エンショウ,0
2309,9140003022812,新規,0,2025-11-26,2025-11-26,Ｍａｉｓｏｎ　ＵＭＡＫＡＴＳＵ合同会社,,合同会社,兵庫県,神戸市中央区,生田町１丁目２番４号サンシャトー三宮５０１,,28,110,6510092,,,,,,,2025-11-26,1,,,,,メゾンウマカツ,0
2310,9140003022886,新規,0,2025-11-26,2025-11-26,合同会社ＭＹＫ,,合同会社,兵庫県,姫路市,塩町１２６シャンブル大蔵前３０１,,28,201,6700904,,,,,,,2025-11-26,1,,,,,エムワイケイ,0
2311,9140003022894,新規,0,2025-11-26,2025-11-26,合同会社ＢＥ　ＦＲＥＥ,,合同会社,兵庫県,神戸市灘区,岩屋中町２丁目７番１４－２号,,28,102,6570845,,,,,,,2025-11-26,1,,,,,ビーフリー,0
2323,9180003029416,新規,0,2025-11-26,2025-11-26,合同会社旭源,,合同会社,愛知県,名古屋市南区,鶴見通２丁目３番地の２,,23,112,4570807,,,,,,,2025-11-26,1,,,,,キョクゲン,0
2336,9200003007154,新規,0,2025-11-26,2025-11-26,東濃総業合同会社,,合同会社,岐阜県,土岐市,駄知町１７９７番地の１３１,,21,212,5095401,,,,,,,2025-11-26,1,,,,,トウノウソウギョウ,0
2346,9240001065811,新規,0,2025-11-26,2025-11-26,株式会社エイト,,株式会社,広島県,広島市佐伯区,美の里１丁目４番２５号,,34,108,7315137,,,,,,,2025-11-26,1,,,,,エイト,0
2348,9260003005417,新規,0,2025-11-26,2025-11-26,合同会社イノチテラスのさと,,合同会社,岡山県,久米郡久米南町,北庄３８６３番地,,33,663,7093601,,,,,,,2025-11-26,1,,,,,イノチテラスノサト,0
2351,9280003002008,新規,0,2025-11-26,2025-11-26,ナミリギフト合同会社,,合同会社,島根県,浜田市,宇野町４８０‐２,,32,202,6950102,,,,,,,2025-11-26,1,,,,,ナミリギフト,0
2355,9290001112237,新規,0,2025-11-26,2025-11-26,Ａｕｔｅｃｈ株式会社,,株式会社,福岡県,福岡市博多区,博多駅前１丁目２３－２・ＰａｒｋＦｒｏｎｔ５Ｆ－Ｂ,,40,132,8120011,,,,,,,2025-11-26,1,,,,,オーテック,0
2356,9290001112294,新規,0,2025-11-26,2025-11-26,株式会社Ｌｉｎｏａ,,株式会社,福岡県,福岡市中央区,渡辺通３丁目６番１５号１Ｆ,,40,133,8100004,,,,,,,2025-11-26,1,,,,,リノア,0
2360,9290003017748,新規,0,2025-11-26,2025-11-26,Ｊａｐａｎ　Ｖｏｙａｇｅ　Ｔｒａｄｉｎｇ合同会社,,合同会社,福岡県,福岡市中央区,渡辺通２丁目３番１９号ロマネスク天神南６０３号室,,40,133,8100004,,,,,,,2025-11-26,1,,,,,ジャパンボヤージュトレーディング,0
2361,9320001021450,新規,0,2025-11-26,2025-11-26,ｏｗｎｌｉｆｅ株式会社,,株式会社,大分県,別府市,田の湯町３番７号アライアンスタワーＺ４階,,44,202,8740909,,,,,,,2025-11-26,1,,,,,オウンライフ,0
2365,9360001036073,新規,0,2025-11-26,2025-11-26,株式会社就労支援センターホープ,,株式会社,沖縄県,沖縄市,美原１丁目５番１号,,47,211,9042155,,,,,,,2025-11-26,1,,,,,シュウロウシエンセンターホープ,0
2366,9370003007385,新規,0,2025-11-26,2025-11-26,合同会社歩歩,,合同会社,宮城県,仙台市太白区,八木山本町１丁目３８－５メゾン翔２０１号,,04,104,9820801,,,,,,,2025-11-26,1,,,,,フフ,0
2372,9400001017234,新規,0,2025-11-26,2025-11-26,株式会社マジェッタ,,株式会社,岩手県,紫波郡紫波町,高水寺字稲村２７番地３,,03,321,0283303,,,,,,,2025-11-26,1,,,,,マジェッタ,0
2376,9430001095723,新規,0,2025-11-26,2025-11-26,株式会社工藤農園,,株式会社,北海道,勇払郡厚真町,字鯉沼１７１番地の１５,,01,581,0591751,,,,,,,2025-11-26,1,,,,,クドウノウエン,0
2383,9490001011220,新規,0,2025-11-26,2025-11-26,セイコー不動産株式会社,,株式会社,高知県,高知市,はりまや町３丁目１９番１１号,,39,201,7800822,,,,,,,2025-11-26,1,,,,,セイコーフドウサン,0
2385,9500001026638,新規,0,2025-11-26,2025-11-26,玉井石油株式会社,,株式会社,愛媛県,西条市,樋之口６５番地４,,38,206,7930043,,,,,,,2025-11-26,1,,,,,タマイセキユ,0
2386,9700150133041,新規,0,2025-11-26,2025-11-26,ＬＡＮＫＡ　ＡＵＴＯ　ＧＲＩＤ,,外国会社等,千葉県,山武市,木原９３８番地８,,12,237,2891212,スリランカ民主社会主義共和国、ビジタプラ、ベリヤッカラ、Ｎｏ．１９８,,,,,,2025-11-26,1,,,,,ランカオートグリツド,0
