sequenceNumber,corporateNumber,process,correct,updateDate,changeDate,name,nameImageId,kind,prefectureName,cityName,streetNumber,addressImageId,prefectureCode,cityCode,postCode,addressOutside,addressOutsideImageId,closeDate,closeCause,successorCorporateNumber,changeCause,assignmentDate,latest,enName,enPrefectureName,enCityName,enAddressOutside,furigana,hihyoji
2,1010001167183,登記記録の閉鎖等,0,2025-03-13,2025-02-28,ＪＰＣ第１６号株式会社,,株式会社,東京都,千代田区,霞が関３丁目２番１号,,13,101,1000013,,,2025-02-28,清算の結了等,,,2015-10-05,1,,,,,ジェイピーシーダイジュウロクゴウ,0
11,1010003034910,登記記録の閉鎖等,0,2025-03-13,2025-02-27,東京さくらプロパティー合同会社,,合同会社,東京都,千代田区,丸の内１丁目１１番１号,,13,101,1000005,,,2025-02-27,清算の結了等,,,2021-05-27,1,,,,,トウキョウサクラプロパティー,0
29,1010403033553,登記記録の閉鎖等,0,2025-03-13,2025-03-05,Ｆｕｋａｕｒａ　Ａｃｑｕｉｓｉｔｉｏｎ　Ｃｏｍｐａｎｙ合同会社,,合同会社,東京都,港区,赤坂１丁目１１番４４号赤坂インターシティ,,13,103,1070052,,,2025-03-05,合併による解散等,9010403026558,令和７年３月５日東京都港区赤坂一丁目１１番地４４号赤坂インターシティ合同会社グリーンパワー深浦ホールディングス（9010403026558）に合併し解散,2024-10-09,1,,,,,フカウラアクイジションカンパニー,0
30,1010501033315,登記記録の閉鎖等,0,2025-03-13,2025-03-03,株式会社大都販売東京,,株式会社,東京都,台東区,東上野１丁目１番１４号,,13,106,1100015,,,2025-03-03,合併による解散等,7010501033318,令和７年３月１日東京都台東区東上野一丁目１番１４号大都販売株式会社（7010501033318）に合併し解散,2015-10-05,1,,,,,ダイトハンバイトウキョウ,0
32,1010502022804,登記記録の閉鎖等,0,2025-03-13,2025-03-03,有限会社大都販売水戸,,有限会社,東京都,台東区,東上野１丁目１番１４号,,13,106,1100015,,,2025-03-03,合併による解散等,7010501033318,令和７年３月１日東京都台東区東上野一丁目１番１４号大都販売株式会社（7010501033318）に合併し解散,2015-10-05,1,,,,,ダイトハンバイミト,0
33,1010502022812,登記記録の閉鎖等,0,2025-03-13,2025-03-03,有限会社大都販売名古屋,,有限会社,東京都,台東区,東上野１丁目１番１４号,,13,106,1100015,,,2025-03-03,合併による解散等,7010501033318,令和７年３月１日東京都台東区東上野一丁目１番１４号大都販売株式会社（7010501033318）に合併し解散,2015-10-05,1,,,,,ダイトハンバイナゴヤ,0
34,1010503005485,登記記録の閉鎖等,0,2025-03-13,2025-03-03,インナーグロープロダクション合同会社,,合同会社,東京都,台東区,上野７丁目３番９号,,13,106,1100005,,,2025-03-03,清算の結了等,,,2019-01-08,1,,,,,インナーグロープロダクション,0
35,1010601003201,登記記録の閉鎖等,0,2025-03-13,2025-03-03,株式会社神和製作所,,株式会社,千葉県,船橋市,二宮１丁目２４番１８号,,12,204,2740823,,,2025-03-03,清算の結了等,,,2015-10-05,1,,,,,シンワセイサクショ,0
51,1010903000375,登記記録の閉鎖等,0,2025-03-13,2025-03-10,合資会社藤波書店,,合資会社,東京都,世田谷区,池尻２丁目３１番１５号,,13,112,1540001,,,2025-03-10,清算の結了等,,,2015-10-05,1,,,,,フジナミショテン,0
54,1011101009184,登記記録の閉鎖等,0,2025-03-13,2025-03-03,清水観光株式会社,,株式会社,東京都,新宿区,百人町１丁目４番２５号,,13,104,1690073,,,2025-03-03,清算の結了等,,,2015-10-05,1,,,,,シミズカンコウ,0
55,1011101088591,登記記録の閉鎖等,0,2025-03-13,2025-03-03,ヴィーネクスト株式会社,,株式会社,東京都,新宿区,新宿６丁目１０番１号４階,,13,104,1600022,,,2025-03-03,清算の結了等,,,2019-08-09,1,,,,,ヴィーネクスト,0
56,1011101094020,登記記録の閉鎖等,0,2025-03-13,2025-03-03,株式会社エムアンドエム,,株式会社,東京都,新宿区,左門町１４番地３,,13,104,1600017,,,2025-03-03,清算の結了等,,,2021-02-12,1,,,,,エムアンドエム,0
66,1011405001465,登記記録の閉鎖等,0,2025-03-13,2025-03-06,特定非営利活動法人一臂会,,その他の設立登記法人,東京都,板橋区,西台３丁目１４番１－２０１号タウンコートＫ,,13,119,1750045,,,2025-03-06,清算の結了等,,,2015-10-05,1,,,,,イッピカイ,0
74,1012401024939,登記記録の閉鎖等,0,2025-03-13,2025-03-11,府中ホーム株式会社,,株式会社,東京都,府中市,若松町１丁目１番４号ライトルヴェ５０３号,,13,206,1830005,,,2025-03-11,清算の結了等,,,2015-10-05,1,,,,,,0
83,1013301033815,登記記録の閉鎖等,0,2025-03-13,2025-03-10,株式会社慧正地所,,株式会社,東京都,武蔵野市,吉祥寺本町３丁目１３番３号,,13,203,1800004,,,2025-03-10,清算の結了等,,,2015-10-05,1,,,,,ケイセイジショ,0
109,1030001123639,登記記録の閉鎖等,0,2025-03-13,2025-03-10,株式会社きんとうん,,株式会社,埼玉県,上尾市,愛宕１丁目２番２１－１０号,,11,219,3620034,,,2025-03-10,清算の結了等,,,2017-12-27,1,,,,,キントウン,0
110,1030001146854,登記記録の閉鎖等,0,2025-03-13,2025-03-10,株式会社Ｓｔｒｉｘｅｓ,,株式会社,埼玉県,川口市,西川口３丁目３３番１７号木村ハイツ３０１号,,11,203,3320021,,,2025-03-10,清算の結了等,,,2022-02-21,1,,,,,ストリクシーズ,0
134,1080005007503,登記記録の閉鎖等,0,2025-03-13,2025-03-10,一般社団法人ホワイトメディア認定協会,,その他の設立登記法人,東京都,中央区,銀座１丁目１２番４号Ｎ＆Ｅ－ＢＬＤ．７階,,13,102,1040061,,,2025-03-10,清算の結了等,,,2023-01-06,1,,,,,ホワイトメディアニンテイキョウカイ,0
137,1080401023624,登記記録の閉鎖等,0,2025-03-13,2025-03-04,株式会社コネクト,,株式会社,静岡県,浜松市中央区,増楽町５７６番地の１２,,22,138,4328062,,,2025-03-04,清算の結了等,,,2019-05-13,1,,,,,コネクト,0
144,1110005016327,登記記録の閉鎖等,0,2025-03-13,2025-03-07,一般社団法人國際書導士協会,,その他の設立登記法人,新潟県,新潟市東区,小金町１丁目７番２７号,,15,102,9500026,,,2025-03-07,清算の結了等,,,2018-11-15,1,,,,,コクサイショドウシキョウカイ,0
166,1140001046548,登記記録の閉鎖等,0,2025-03-13,2025-03-06,田中テント株式会社,,株式会社,兵庫県,養父市,八鹿町八鹿５５８番地の２１,,28,222,6670021,,,2025-03-06,清算の結了等,,,2015-10-05,1,,,,,タナカテント,0
193,1180301002296,登記記録の閉鎖等,0,2025-03-13,2025-02-28,株式会社オカザキエンジニアリング,,株式会社,愛知県,岡崎市,上六名３丁目１０番地１５,,23,202,4440858,,,2025-02-28,合併による解散等,1180301012857,令和７年２月２８日愛知県安城市東端町青ノ山１９番地１株式会社建和（1180301012857）に合併し解散,2015-10-05,1,,,,,オカザキエンジニアリング,0
201,1240001001435,登記記録の閉鎖等,0,2025-03-13,2025-03-03,エヌケーエンジニアリング株式会社,,株式会社,広島県,広島市西区,上天満町１１番３号,,34,104,7330021,,,2025-03-03,合併による解散等,3240001007430,令和７年３月１日広島市西区上天満町１１番３号東亜熱研株式会社（3240001007430）に合併し解散,2015-10-05,1,,,,,エヌケーエンジニアリング,0
204,1250001008446,登記記録の閉鎖等,0,2025-03-13,2025-03-10,株式会社恵比寿屋ドットネット,,株式会社,山口県,長門市,東深川７４番地１０,,35,211,7594101,,,2025-03-10,清算の結了等,,,2015-10-05,1,,,,,エビスヤドットネット,0
207,1260001022181,登記記録の閉鎖等,0,2025-03-13,2025-03-10,株式会社カセヤマ,,株式会社,岡山県,玉野市,用吉１７５０番地の１,,33,204,7060132,,,2025-03-10,清算の結了等,,,2015-10-05,1,,,,,カセヤマ,0
209,1260002024103,登記記録の閉鎖等,0,2025-03-13,2025-03-10,有限会社ヨシザワコンサル,,有限会社,岡山県,総社市,清音古地１６３番地,,33,208,7191174,,,2025-03-10,清算の結了等,,,2015-10-05,1,,,,,ヨシザワコンサル,0
214,1310001009405,登記記録の閉鎖等,0,2025-03-13,2025-03-10,株式会社野岳セカンドライフ支援センター,,株式会社,長崎県,大村市,野岳町１４６３番地９,,42,205,8560003,,,2025-03-10,清算の結了等,,,2015-10-05,1,,,,,ノダケセカンドライフシエンセンター,0
247,1430002062589,登記記録の閉鎖等,0,2025-03-13,2025-03-05,有限会社中野漁業,,有限会社,北海道,幌泉郡えりも町,字えりも岬１３４番地,,01,609,0580342,,,2025-03-05,清算の結了等,,,2015-10-05,1,,,,,ナカノギョギョウ,0
266,2010001141550,登記記録の閉鎖等,0,2025-03-13,2025-03-10,株式会社美工ＩＭＣ,,株式会社,東京都,中央区,日本橋小網町７番２号,,13,102,1030016,,,2025-03-10,合併による解散等,6120001046685,令和７年３月１日大阪市西区阿波座一丁目１０番６号株式会社美工（6120001046685）に合併し解散,2015-10-05,1,,,,,,0
267,2010001178931,登記記録の閉鎖等,0,2025-03-13,2025-02-28,ＪＰＡ第４８号株式会社,,株式会社,東京都,千代田区,霞が関３丁目２番１号,,13,101,1000013,,,2025-02-28,清算の結了等,,,2016-10-14,1,,,,,ジェイピーエーダイヨンジュウハチゴウ,0
269,2010001184194,登記記録の閉鎖等,0,2025-03-13,2025-02-28,株式会社フィートエンターテイメント,,株式会社,東京都,千代田区,大手町１丁目１番３号１６階,,13,101,1000004,,,2025-02-28,清算の結了等,,,2017-06-13,1,,,,,フィートエンターテイメント,0
276,2010003039999,登記記録の閉鎖等,0,2025-03-13,2025-02-28,Ｏｍｏｒｉ　ＭＭ合同会社,,合同会社,東京都,中央区,銀座２丁目１０番８号マニエラ銀座ビル４階,,13,102,1040061,,,2025-02-28,清算の結了等,,,2023-03-08,1,,,,,オオモリエムエム,0
290,2010401142842,登記記録の閉鎖等,0,2025-03-13,2025-02-20,株式会社縁,,株式会社,東京都,港区,浜松町２丁目２番１５号,,13,103,1050013,,,2025-02-20,清算の結了等,,,2018-12-26,1,,,,,ユカリ,0
298,2010502022803,登記記録の閉鎖等,0,2025-03-13,2025-03-03,有限会社大都販売新潟,,有限会社,東京都,台東区,東上野１丁目１番１４号,,13,106,1100015,,,2025-03-03,合併による解散等,7010501033318,令和７年３月１日東京都台東区東上野一丁目１番１４号大都販売株式会社（7010501033318）に合併し解散,2015-10-05,1,,,,,ダイトハンバイニイガタ,0
299,2010502022811,登記記録の閉鎖等,0,2025-03-13,2025-03-03,有限会社大都販売金沢,,有限会社,東京都,台東区,東上野１丁目１番１４号,,13,106,1100015,,,2025-03-03,合併による解散等,7010501033318,令和７年３月１日東京都台東区東上野一丁目１番１４号大都販売株式会社（7010501033318）に合併し解散,2015-10-05,1,,,,,ダイトハンバイカナザワ,0
306,2010801034086,登記記録の閉鎖等,0,2025-03-13,2025-02-28,株式会社ラディショナル,,株式会社,東京都,大田区,大森北５丁目９番１１号濱崎屋ビル２Ｆ,,13,111,1430016,,,2025-02-28,清算の結了等,,,2023-06-26,1,,,,,ラディショナル,0
309,2010802019326,登記記録の閉鎖等,0,2025-03-13,2025-02-28,有限会社パシフィックマネジメントグループ,,有限会社,東京都,大田区,北嶺町４１番１３号,,13,111,1450073,,,2025-02-28,清算の結了等,,,2015-10-05,1,,,,,パシフィックマネジメントグループ,0
333,2011302016607,登記記録の閉鎖等,0,2025-03-13,2025-03-10,有限会社コスモスコーポレーション,,有限会社,東京都,世田谷区,喜多見５丁目４番１６号シャルマンＩＩ１０３,00137653,13,112,1570067,,,2025-03-10,清算の結了等,,,2015-10-05,1,,,,,コスモスコーポレーション,0
355,2013101007761,登記記録の閉鎖等,0,2025-03-13,2025-03-07,株式会社ＲＹＵ　ＭＯＴＯＲ　ＣＯＭＰＡＮＹ,,株式会社,東京都,青梅市,根ヶ布２丁目１３７０番地の１９１,,13,205,1980004,,,2025-03-07,清算の結了等,,,2018-01-15,1,,,,,リュウモーターカンパニー,0
362,2020001087727,登記記録の閉鎖等,0,2025-03-13,2025-03-04,株式会社ＫＩＮＧＳＴＯＮＥＳ,,株式会社,神奈川県,横浜市西区,北幸２丁目３番１９号,,14,103,2200004,,,2025-03-04,清算の結了等,,,2015-10-05,1,,,,,キングストーンズ,0
373,2020003017335,登記記録の閉鎖等,0,2025-03-13,2025-03-03,ＹＵパートナーズ合同会社,,合同会社,神奈川県,川崎市高津区,新作６丁目１１番１７－１０２号プラウド武蔵新城,,14,134,2130014,,,2025-03-03,清算の結了等,,,2020-02-27,1,,,,,ワイユーパートナーズ,0
385,2021002022227,登記記録の閉鎖等,0,2025-03-13,2025-03-11,有限会社タニコシ,,有限会社,神奈川県,相模原市中央区,相模原５丁目３番２１－７０１号,,14,152,2520231,,,2025-03-11,清算の結了等,,,2015-10-05,1,,,,,タニコシ,0
389,2030001074385,登記記録の閉鎖等,0,2025-03-13,2025-03-10,金子商事株式会社,,株式会社,埼玉県,川口市,大字安行５５６番地の５,,11,203,3340059,,,2025-03-10,清算の結了等,,,2015-10-05,1,,,,,カネコショウジ,0
394,2030002025222,登記記録の閉鎖等,0,2025-03-13,2025-03-11,有限会社細野水道興業,,有限会社,埼玉県,戸田市,大字新曽３９０番地の３,,11,224,3350021,,,2025-03-11,清算の結了等,,,2015-10-05,1,,,,,ホソノスイドウコウギョウ,0
421,2120001157791,登記記録の閉鎖等,0,2025-03-13,2025-03-10,株式会社智頭エンジニアリング,,株式会社,大阪府,門真市,向島町１番８号,,27,223,5710051,,,2025-03-10,清算の結了等,,,2015-10-05,1,,,,,チヅエンジニアリング,0
457,2150001019477,登記記録の閉鎖等,0,2025-03-13,2025-03-12,株式会社ＲＥＲＩＺＥ,,株式会社,奈良県,奈良市,柏木町１６９－３,,29,201,6308031,,,2025-03-12,清算の結了等,,,2015-10-05,1,,,,,リライズ,0
464,2180002031726,登記記録の閉鎖等,0,2025-03-13,2025-03-06,有限会社サラージュ,,有限会社,愛知県,名古屋市瑞穂区,密柑山町２丁目２３番地,,23,108,4670041,,,2025-03-06,清算の結了等,,,2015-10-05,1,,,,,サラージュ,0
473,2240001007423,登記記録の閉鎖等,0,2025-03-13,2025-03-03,トーア実業株式会社,,株式会社,広島県,広島市西区,上天満町１１番３号,,34,104,7330021,,,2025-03-03,合併による解散等,3240001007430,令和７年３月１日広島市西区上天満町１１番３号東亜熱研株式会社（3240001007430）に合併し解散,2015-10-05,1,,,,,トーアジツギョウ,0
492,2320001015863,登記記録の閉鎖等,0,2025-03-13,2025-03-12,株式会社隼斗,,株式会社,大分県,臼杵市,大字佐志生字田井２０９１番地５,,44,206,8750001,,,2025-03-12,清算の結了等,,,2017-08-14,1,,,,,ハヤト,0
497,2340001013007,登記記録の閉鎖等,0,2025-03-13,2025-03-10,株式会社ワンステップ,,株式会社,鹿児島県,鹿児島市,南林寺町１９番地３号２Ｂ,,46,201,8920834,,,2025-03-10,清算の結了等,,,2015-10-05,1,,,,,,0
505,2370005000601,登記記録の閉鎖等,0,2025-03-13,2025-02-25,天理教東仙葉分教会,,その他の設立登記法人,宮城県,仙台市若林区,成田町１２３番地の３,,04,103,9840056,,,2025-02-25,合併による解散等,1380005007712,令和７年２月１７日福島県双葉郡浪江町大字権現堂字町頭１番地天理教浪江分教會（1380005007712）に合併し解散,2015-10-05,1,,,,,テンリキョウヒガシセンヨウブンキョウカイ,0
514,2430001006975,登記記録の閉鎖等,0,2025-03-13,2025-03-06,株式会社佐藤自動車商会,,株式会社,北海道,札幌市中央区,大通東８丁目１番地,,01,101,0600041,,,2025-03-06,清算の結了等,,,2015-11-26,1,,,,,サトウジドウシャショウカイ,0
538,3010001164501,登記記録の閉鎖等,0,2025-03-13,2025-02-28,ＪＰＡ第２４号株式会社,,株式会社,東京都,千代田区,霞が関３丁目２番１号,,13,101,1000013,,,2025-02-28,清算の結了等,,,2015-10-05,1,,,,,ジェイピーエーダイニジュウヨウンゴウ,0
540,3010001184061,登記記録の閉鎖等,0,2025-03-13,2025-03-03,株式会社ＮＥＣＯＳ,,株式会社,東京都,中央区,日本橋２丁目２番３号ＲＩＳＨＥビルＵＣＦ４Ｆ,,13,102,1030027,,,2025-03-03,清算の結了等,,,2017-06-06,1,,,,,ネコス,0
556,3010401179446,登記記録の閉鎖等,0,2025-03-13,2025-02-21,トゥーゲント株式会社,,株式会社,東京都,港区,赤坂９丁目７番２号,,13,103,1070052,,,2025-02-21,清算の結了等,,,2023-12-26,1,,,,,トゥーゲント,0
563,3010502022802,登記記録の閉鎖等,0,2025-03-13,2025-03-03,有限会社大都販売郡山,,有限会社,東京都,台東区,東上野１丁目１番１４号,,13,106,1100015,,,2025-03-03,合併による解散等,7010501033318,令和７年３月１日東京都台東区東上野一丁目１番１４号大都販売株式会社（7010501033318）に合併し解散,2015-10-05,1,,,,,ダイトハンバイコオリヤマ,0
564,3010502022810,登記記録の閉鎖等,0,2025-03-13,2025-03-03,有限会社大都販売松本,,有限会社,東京都,台東区,東上野１丁目１番１４号,,13,106,1100015,,,2025-03-03,合併による解散等,7010501033318,令和７年３月１日東京都台東区東上野一丁目１番１４号大都販売株式会社（7010501033318）に合併し解散,2015-10-05,1,,,,,ダイトハンバイマツモト,0
565,3010502022819,登記記録の閉鎖等,0,2025-03-13,2025-03-03,有限会社大都販売鹿児島,,有限会社,東京都,台東区,東上野１丁目１番１４号,,13,106,1100015,,,2025-03-03,合併による解散等,7010501033318,令和７年３月１日東京都台東区東上野一丁目１番１４号大都販売株式会社（7010501033318）に合併し解散,2015-10-05,1,,,,,ダイトハンバイカゴシマ,0
568,3010603010160,登記記録の閉鎖等,0,2025-03-13,2025-02-28,合同会社ＳＳＴ,,合同会社,東京都,中央区,銀座１丁目１２番４号Ｎ＆ＥＢＬＤ．６Ｆ,,13,102,1040061,,,2025-02-28,清算の結了等,,,2023-05-19,1,,,,,エスエスティー,0
604,3011702006834,登記記録の閉鎖等,0,2025-03-13,2025-03-07,大増運輸有限会社,,有限会社,東京都,江戸川区,南小岩６丁目６番２号,,13,123,1330056,,,2025-03-07,清算の結了等,,,2015-10-05,1,,,,,ダイマスウンユ,0
626,3021001016427,登記記録の閉鎖等,0,2025-03-13,2025-03-12,光実業株式会社,,株式会社,神奈川県,相模原市緑区,小渕２２１番地１,,14,151,2520184,,,2025-03-12,清算の結了等,,,2015-10-05,1,,,,,ヒカリジツギョウ,0
634,3030001049270,登記記録の閉鎖等,0,2025-03-13,2025-03-10,株式会社大一,,株式会社,埼玉県,和光市,本町９番４０号,,11,229,3510114,,,2025-03-10,清算の結了等,,,2015-10-05,1,,,,,ダイイチ,0
636,3030001130856,登記記録の閉鎖等,0,2025-03-13,2025-03-07,株式会社９ＤＲＡＧＯ,,株式会社,埼玉県,八潮市,大字垳３２３番地－１０２,,11,234,3400824,,,2025-03-07,清算の結了等,,,2019-05-15,1,,,,,ナインドラゴ,0
646,3030002039915,登記記録の閉鎖等,0,2025-03-13,2025-03-10,有限会社溝口設備工業,,有限会社,埼玉県,幸手市,中１丁目２番６号,,11,240,3400115,,,2025-03-10,清算の結了等,,,2015-10-05,1,,,,,ミゾグチセツビコウギョウ,0
663,3040002014990,登記記録の閉鎖等,0,2025-03-13,2025-03-07,株式会社アイプランニング,,株式会社,東京都,墨田区,亀沢１丁目４番１７号,,13,107,1300014,,,2025-03-07,合併による解散等,5011101076634,令和７年３月１日東京都墨田区亀沢一丁目４番１７号株式会社ノベルティコレクション（5011101076634）に合併し解散,2015-10-05,1,,,,,アイプランニング,0
681,3120001228063,登記記録の閉鎖等,0,2025-03-13,2025-03-10,株式会社Ｂｅｅｕｐ,,株式会社,大阪府,門真市,栄町２番１２号ルミエールビル３Ｆ,,27,223,5710047,,,2025-03-10,清算の結了等,,,2020-03-27,1,,,,,ビーアップ,0
700,3120901039948,登記記録の閉鎖等,0,2025-03-13,2025-03-03,株式会社ＬａＱｏｏ,,株式会社,大阪府,高槻市,上土室１丁目１０番６－２０４号,,27,207,5691044,,,2025-03-03,清算の結了等,,,2018-05-22,1,,,,,ラクー,0
703,3130001044451,登記記録の閉鎖等,0,2025-03-13,2025-03-10,株式会社ジェイメディカル,,株式会社,京都府,京都市下京区,室町通塩小路上る東塩小路町５７９－１,,26,106,6008216,,,2025-03-10,合併による解散等,7430001069398,令和７年３月１日札幌市白石区東札幌五条二丁目４番３０号株式会社アインファーマシーズ（7430001069398）に合併し解散,2015-10-05,1,,,,,ジェイメディカル,0
706,3130002034591,登記記録の閉鎖等,0,2025-03-13,2025-03-11,有限会社ホンダウイング筒井,,有限会社,京都府,舞鶴市,字溝尻８１番地,,26,202,6250035,,,2025-03-11,清算の結了等,,,2015-10-05,1,,,,,ホンダウイングツツイ,0
707,3130003007555,登記記録の閉鎖等,0,2025-03-13,2025-03-10,合同会社オリオン,,合同会社,京都府,京都市上京区,今出川通烏丸東入相国寺門前町６４７番地８,,26,102,6020898,,,2025-03-10,合併による解散等,8180001161782,令和７年３月１日名古屋市北区平安二丁目１４番１号株式会社プラネット（8180001161782）に合併し解散,2021-10-20,1,,,,,オリオン,0
738,3220001024782,登記記録の閉鎖等,0,2025-03-13,2025-03-06,株式会社ＢＰＯマネジメント,,株式会社,石川県,金沢市,広岡２丁目１２番６号,,17,201,9200031,,,2025-03-06,合併による解散等,4220001024237,令和７年３月１日石川県金沢市広岡二丁目１２番６号株式会社ＣＣイノベーション（4220001024237）に合併し解散,2022-04-06,1,,,,,ビーピーオーマネジメント,0
762,3330001008436,登記記録の閉鎖等,0,2025-03-13,2025-03-06,株式会社設備企画,,株式会社,熊本県,熊本市南区,御幸笛田７丁目８番２０号,,43,104,8614172,,,2025-03-06,清算の結了等,,,2015-10-05,1,,,,,セツビキカク,0
766,3340003004399,登記記録の閉鎖等,0,2025-03-13,2025-03-11,ＲＥＢＩＲＴＨ　ＮＥＴ　ＳＹＳＴＥＭ合同会社,,合同会社,鹿児島県,鹿屋市,今坂町１２４３１番地３１西原台ハイツ１０２号,,46,203,8930057,,,2025-03-11,清算の結了等,,,2024-03-12,1,,,,,リバースネットシステム,0
773,3370001041482,登記記録の閉鎖等,0,2025-03-13,2025-03-05,株式会社グローバルアシストホールディングス,,株式会社,福島県,郡山市,桑野５丁目１１番７,,07,203,9638025,,,2025-03-05,合併による解散等,5380001009171,令和７年３月１日福島県郡山市桑野五丁目１１番７株式会社ベストコ（5380001009171）に合併し解散,2017-05-24,1,,,,,グローバルアシストホールディングス,0
787,3430001040429,登記記録の閉鎖等,0,2025-03-13,2025-03-07,株式会社リフォームの雅工房,,株式会社,北海道,札幌市北区,篠路四条２丁目９番６号,,01,102,0028024,,,2025-03-07,清算の結了等,,,2015-10-05,1,,,,,リフォームノミヤビコウボウ,0
808,4010001153800,登記記録の閉鎖等,0,2025-03-13,2025-02-20,アクティブ・コネクター株式会社,,株式会社,東京都,渋谷区,千駄ヶ谷５丁目２７番５,,13,113,1510051,,,2025-02-20,合併による解散等,2011001156968,令和７年２月１日東京都渋谷区千駄ヶ谷五丁目２７番５株式会社ＰｅｏｐｌｅＸ（2011001156968）に合併し解散,2015-10-05,1,,,,,アクティブコネクター,0
815,4010401086096,登記記録の閉鎖等,0,2025-03-13,2025-02-28,８号館ＰＦＩ株式会社,,株式会社,東京都,中央区,京橋２丁目１６番１号,,13,102,1040031,,,2025-02-28,清算の結了等,,,2015-10-05,1,,,,,ハチゴウカンピーエフアイ,0
822,4010502022801,登記記録の閉鎖等,0,2025-03-13,2025-03-03,有限会社大都販売仙台,,有限会社,東京都,台東区,東上野１丁目１番１４号,,13,106,1100015,,,2025-03-03,合併による解散等,7010501033318,令和７年３月１日東京都台東区東上野一丁目１番１４号大都販売株式会社（7010501033318）に合併し解散,2015-10-05,1,,,,,ダイトハンバイセンダイ,0
823,4010502022818,登記記録の閉鎖等,0,2025-03-13,2025-03-03,有限会社大都販売福岡,,有限会社,東京都,台東区,東上野１丁目１番１４号,,13,106,1100015,,,2025-03-03,合併による解散等,7010501033318,令和７年３月１日東京都台東区東上野一丁目１番１４号大都販売株式会社（7010501033318）に合併し解散,2015-10-05,1,,,,,ダイトハンバイフクオカ,0
828,4010702007866,登記記録の閉鎖等,0,2025-03-13,2025-02-26,丸隆商事有限会社,,有限会社,東京都,品川区,大崎４丁目２番１３－１１３号,,13,109,1410032,,,2025-02-26,清算の結了等,,,2015-10-05,1,,,,,マルタカショウジ,0
830,4010901025066,登記記録の閉鎖等,0,2025-03-13,2025-03-03,株式会社エービーシーインターナショナル,,株式会社,千葉県,千葉市緑区,おゆみ野中央９丁目８番地１４,,12,105,2660032,,,2025-03-03,清算の結了等,,,2015-10-05,1,,,,,エービーシーインターナショナル,0
857,4012802004727,登記記録の閉鎖等,0,2025-03-13,2025-03-03,有限会社千葉製作所,,有限会社,東京都,武蔵村山市,中原１丁目３２番地の５,,13,223,2080035,,,2025-03-03,清算の結了等,,,2015-10-05,1,,,,,,0
886,4030002113801,登記記録の閉鎖等,0,2025-03-13,2025-03-07,有限会社東食,,有限会社,埼玉県,熊谷市,佐谷田３７６７番地１,,11,202,3600023,,,2025-03-07,清算の結了等,,,2015-10-05,1,,,,,トウショク,0
913,4100002020429,登記記録の閉鎖等,0,2025-03-13,2025-03-07,スマート工業株式会社,,株式会社,栃木県,宇都宮市,鶴田町６２１－５２,,09,201,3200851,,,2025-03-07,清算の結了等,,,2015-10-05,1,,,,,スマートコウギョウ,0
914,4100002033348,登記記録の閉鎖等,0,2025-03-13,2025-03-04,有限会社ミヤシマ,,有限会社,長野県,伊那市,荒井４３３８番地１０,,20,209,3960025,,,2025-03-04,清算の結了等,,,2015-10-05,1,,,,,ミヤシマ,0
921,4120001189395,登記記録の閉鎖等,0,2025-03-13,2025-03-11,グローイング株式会社,,株式会社,大阪府,大阪市福島区,野田４丁目５番９号オーシャンビル３階,,27,103,5530005,,,2025-03-11,合併による解散等,9120001104564,令和７年２月２８日兵庫県川西市加茂六丁目８９番地１株式会社創食（9120001104564）に合併し解散,2015-10-05,1,,,,,グローイング,0
965,4180301027547,登記記録の閉鎖等,0,2025-03-13,2025-03-10,株式会社未在,,株式会社,愛知県,岡崎市,明大寺本町４丁目８番地１,,23,202,4440860,,,2025-03-10,清算の結了等,,,2015-10-05,1,,,,,ミザイ,0
973,4220002009749,登記記録の閉鎖等,0,2025-03-13,2025-03-06,有限会社カツミアセットマネジメント,,有限会社,石川県,金沢市,高尾台１丁目２２０番地,,17,201,9218155,,,2025-03-06,清算の結了等,,,2015-10-05,1,,,,,カツミアセットマネジメント,0
978,4240002041717,登記記録の閉鎖等,0,2025-03-13,2025-03-10,田中フアミリー有限会社,,有限会社,広島県,福山市,野上町１丁目９番３号,,34,207,7200815,,,2025-03-10,清算の結了等,,,2015-10-05,1,,,,,タナカファミリー,0
986,4270002008606,登記記録の閉鎖等,0,2025-03-13,2025-03-12,有限会社カワケン,,有限会社,鳥取県,日野郡日南町,下石見７６７番地１,,31,401,6895665,,,2025-03-12,清算の結了等,,,2015-10-05,1,,,,,,0
997,4320002012759,登記記録の閉鎖等,0,2025-03-13,2025-03-11,有限会社吉武電設,,有限会社,大分県,別府市,上野口町３０番６号,,44,202,8740905,,,2025-03-11,清算の結了等,,,2015-10-05,1,,,,,,0
1000,4330002018359,登記記録の閉鎖等,0,2025-03-13,2025-03-06,有限会社江上工作所,,有限会社,熊本県,山鹿市,山鹿４３５番地の１８,,43,208,8610501,,,2025-03-06,清算の結了等,,,2015-10-05,1,,,,,エガミコウサクショ,0
1032,4450001010791,登記記録の閉鎖等,0,2025-03-13,2025-03-05,株式会社ライフサービス福田,,株式会社,北海道,深川市,四条１３番５号,,01,228,0740004,,,2025-03-05,清算の結了等,,,2015-10-05,1,,,,,,0
1050,5010001170431,登記記録の閉鎖等,0,2025-03-13,2025-02-28,ＪＰＶ第２号株式会社,,株式会社,東京都,千代田区,霞が関３丁目２番１号,,13,101,1000013,,,2025-02-28,清算の結了等,,,2015-10-05,1,,,,,ジェイピーブイダイニゴウ,0
1057,5010003034832,登記記録の閉鎖等,0,2025-03-13,2025-02-27,ＤＡＩＬＰホールディングＩ合同会社,,合同会社,東京都,千代田区,丸の内１丁目４番１号東京共同会計事務所内,,13,101,1000005,,,2025-02-27,清算の結了等,,,2021-05-17,1,,,,,ディーエーアイエルピーホールディングワン,0
1060,5010005032396,登記記録の閉鎖等,0,2025-03-13,2025-03-10,名古屋みなとロジスティクス特定目的会社,,その他の設立登記法人,東京都,中央区,日本橋１丁目４番１号,,13,102,1030027,,,2025-03-10,清算の結了等,,,2020-10-08,1,,,,,ナゴヤミナトロジスティクス,0
1070,5010502022800,登記記録の閉鎖等,0,2025-03-13,2025-03-03,有限会社大都販売盛岡,,有限会社,東京都,台東区,東上野１丁目１番１４号,,13,106,1100015,,,2025-03-03,合併による解散等,7010501033318,令和７年３月１日東京都台東区東上野一丁目１番１４号大都販売株式会社（7010501033318）に合併し解散,2015-10-05,1,,,,,ダイトハンバイモリオカ,0
1071,5010502022809,登記記録の閉鎖等,0,2025-03-13,2025-03-03,有限会社大都販売静岡,,有限会社,東京都,台東区,東上野１丁目１番１４号,,13,106,1100015,,,2025-03-03,合併による解散等,7010501033318,令和７年３月１日東京都台東区東上野一丁目１番１４号大都販売株式会社（7010501033318）に合併し解散,2015-10-05,1,,,,,ダイトハンバイシズオカ,0
1072,5010502022817,登記記録の閉鎖等,0,2025-03-13,2025-03-03,有限会社大都販売米子,,有限会社,東京都,台東区,東上野１丁目１番１４号,,13,106,1100015,,,2025-03-03,合併による解散等,7010501033318,令和７年３月１日東京都台東区東上野一丁目１番１４号大都販売株式会社（7010501033318）に合併し解散,2015-10-05,1,,,,,ダイトハンバイヨナゴ,0
1075,5010801011743,登記記録の閉鎖等,0,2025-03-13,2025-03-03,株式会社宗川工務店,,株式会社,東京都,大田区,南馬込５丁目３番１７号,,13,111,1430025,,,2025-03-03,清算の結了等,,,2015-10-05,1,,,,,ムネカワコウムテン,0
1076,5010801021214,登記記録の閉鎖等,0,2025-03-13,2025-02-28,株式会社滝井アセットマネジメント,,株式会社,東京都,大田区,東雪谷１丁目２３番９号,,13,111,1450065,,,2025-02-28,清算の結了等,,,2015-10-05,1,,,,,,0
1079,5011001159349,登記記録の閉鎖等,0,2025-03-13,2025-01-23,ＦＡＩＲ’Ｓ　ＦＡＩＲ株式会社,,株式会社,東京都,渋谷区,恵比寿西１丁目３３番３号,,13,113,1500021,,,2025-01-23,清算の結了等,,,2024-01-12,1,,,,,フェアズフェア,0
1108,5012802005419,登記記録の閉鎖等,0,2025-03-13,2025-03-03,有限会社榎本豆腐店,,有限会社,東京都,東大和市,狭山２丁目１３７７番地の１,,13,220,2070003,,,2025-03-03,清算の結了等,,,2015-10-05,1,,,,,エノモトトウフテン,0
1119,5021005007263,登記記録の閉鎖等,0,2025-03-13,2025-02-21,天理教元藤澤分教会,,その他の設立登記法人,神奈川県,平塚市,長持字鷺田１４７番地の１,,14,203,2591217,,,2025-02-21,合併による解散等,9021005006369,令和７年２月２１日神奈川県足柄上郡松田町松田惣領１９６６番地宗教法人天理教松田分教会（9021005006369）に合併し解散,2015-10-05,1,,,,,,0
1121,5030001104734,登記記録の閉鎖等,0,2025-03-13,2025-03-10,株式会社共栄,,株式会社,埼玉県,草加市,瀬崎３丁目２７番３－２０２号,,11,221,3400022,,,2025-03-10,清算の結了等,,,2015-10-05,1,,,,,キョウエイ,0
1132,5030005003098,登記記録の閉鎖等,0,2025-03-13,2025-02-20,天理教穂保作分教会,,その他の設立登記法人,埼玉県,蕨市,南町２丁目１８番１５号,,11,223,3350003,,,2025-02-20,合併による解散等,8011505000253,令和７年２月１４日東京都北区滝野川一丁目８６番１号天理教麹町大教会（8011505000253）に合併し解散,2015-10-05,1,,,,,,0
1139,5040003018411,登記記録の閉鎖等,0,2025-03-13,2025-03-07,クリプトエージェント合同会社,,合同会社,千葉県,千葉市緑区,椎名崎町６７１番地１２,,12,105,2660016,,,2025-03-07,清算の結了等,,,2021-08-31,1,,,,,クリプトエージェント,0
1187,5140001030878,登記記録の閉鎖等,0,2025-03-13,2025-02-25,株式会社永光,,株式会社,兵庫県,神戸市北区,道場町生野字砥谷１１８１－２３,,28,109,6511503,,,2025-02-25,合併による解散等,6140001030167,令和７年２月２５日神戸市北区道場町生野字砥谷１１８１－２３株式会社光明（6140001030167）に合併し解散　,2015-10-05,1,,,,,エイコウ,0
1188,5140001066179,登記記録の閉鎖等,0,2025-03-13,2025-03-07,三陽商事株式会社,,株式会社,兵庫県,姫路市,安富町安志２６１番地,,28,201,6712401,,,2025-03-07,清算の結了等,,,2015-10-05,1,,,,,サンヨウショウジ,0
1222,5200001019270,登記記録の閉鎖等,0,2025-03-13,2025-03-10,関エンドレス株式会社,,株式会社,岐阜県,関市,西神野６９９番地の１,,21,205,5013202,,,2025-03-10,清算の結了等,,,2015-10-05,1,,,,,セキエンドレス,0
1247,5290001080264,登記記録の閉鎖等,0,2025-03-13,2025-03-12,株式会社ｓｏｌｏＷＥＢ,,株式会社,福岡県,福岡市中央区,大名１丁目２番２０号８階,,40,133,8100041,,,2025-03-12,清算の結了等,,,2018-01-16,1,,,,,ソロウェブ,0
1285,5430001071694,登記記録の閉鎖等,0,2025-03-13,2025-03-06,株式会社北海道大伸水産,,株式会社,北海道,札幌市中央区,北八条西２１丁目１番２６号,,01,101,0600008,,,2025-03-06,清算の結了等,,,2016-06-01,1,,,,,ホッカイドウタイシンスイサン,0
1286,5430001072619,登記記録の閉鎖等,0,2025-03-13,2025-03-07,北海道洋行株式会社,,株式会社,北海道,札幌市中央区,南二条西５丁目１０番２サンワード南２西５ビル９階,,01,101,0600062,,,2025-03-07,清算の結了等,,,2016-11-01,1,,,,,ホッカイドウヨウコウ,0
1301,6010001013911,登記記録の閉鎖等,0,2025-03-13,2025-03-03,株式会社咸亨酒店,,株式会社,東京都,千代田区,神田神保町２丁目２番地,,13,101,1010051,,,2025-03-03,合併による解散等,8010001182696,令和７年３月１日東京都千代田区神田神保町二丁目２番地株式会社新世界（8010001182696）に合併し解散,2015-10-05,1,,,,,カンキョウシュテン,0
1304,6010001177079,登記記録の閉鎖等,0,2025-03-13,2025-02-28,ＪＰＣ第２０号株式会社,,株式会社,東京都,千代田区,霞が関３丁目２番１号,,13,101,1000013,,,2025-02-28,清算の結了等,,,2016-07-22,1,,,,,ジェイピーシーダイニジュウゴウ,0
1305,6010001188472,登記記録の閉鎖等,0,2025-03-13,2025-02-28,ＪＰＡ第１０７号株式会社,,株式会社,東京都,千代田区,霞が関３丁目２番１号,,13,101,1000013,,,2025-02-28,清算の結了等,,,2017-12-20,1,,,,,ジェイピーエーダイヒャクナナゴウ,0
1306,6010001192953,登記記録の閉鎖等,0,2025-03-13,2025-02-28,ＪＰＡ第１２９号株式会社,,株式会社,東京都,千代田区,霞が関３丁目２番１号,,13,101,1000013,,,2025-02-28,清算の結了等,,,2018-07-03,1,,,,,ジェイピーエーダイヒャクニジュウキュウゴウ,0
1308,6010001234879,登記記録の閉鎖等,0,2025-03-13,2025-02-28,株式会社ＫＳＴ５,,株式会社,東京都,千代田区,内幸町２丁目１番６号,,13,101,1000011,,,2025-02-28,清算の結了等,,,2023-04-28,1,,,,,ケイエスティーファイブ,0
1315,6010003033379,登記記録の閉鎖等,0,2025-03-13,2025-02-28,ＡＣＡエナジー２号合同会社,,合同会社,東京都,千代田区,平河町２丁目１６番９号永田町グラスゲート６階,,13,101,1020093,,,2025-02-28,清算の結了等,,,2020-10-27,1,,,,,エーシーエーエナジーニゴウ,0
1325,6010401160147,登記記録の閉鎖等,0,2025-03-13,2025-02-20,株式会社ＭＣＵ,,株式会社,東京都,港区,西新橋２丁目２２番地１号ル・グラシエルＢＬＧＤ４号館７階,,13,103,1050003,,,2025-02-20,清算の結了等,,,2021-05-20,1,,,,,エムシーユー,0
1332,6010502022799,登記記録の閉鎖等,0,2025-03-13,2025-03-03,有限会社大都販売青森,,有限会社,東京都,台東区,東上野１丁目１番１４号,,13,106,1100015,,,2025-03-03,合併による解散等,7010501033318,令和７年３月１日東京都台東区東上野一丁目１番１４号大都販売株式会社（7010501033318）に合併し解散,2015-10-05,1,,,,,ダイトハンバイアオモリ,0
1333,6010502022808,登記記録の閉鎖等,0,2025-03-13,2025-03-03,有限会社大都販売横浜,,有限会社,東京都,台東区,東上野１丁目１番１４号,,13,106,1100015,,,2025-03-03,合併による解散等,7010501033318,令和７年３月１日東京都台東区東上野一丁目１番１４号大都販売株式会社（7010501033318）に合併し解散,2015-10-05,1,,,,,ダイトハンバイヨコハマ,0
1334,6010502022816,登記記録の閉鎖等,0,2025-03-13,2025-03-03,有限会社大都販売岡山,,有限会社,東京都,台東区,東上野１丁目１番１４号,,13,106,1100015,,,2025-03-03,合併による解散等,7010501033318,令和７年３月１日東京都台東区東上野一丁目１番１４号大都販売株式会社（7010501033318）に合併し解散,2015-10-05,1,,,,,ダイトハンバイオカヤマ,0
1350,6011002007860,登記記録の閉鎖等,0,2025-03-13,2025-02-14,有限会社宅間國博写真事務所,,有限会社,東京都,渋谷区,代々木４丁目３１番２号,,13,113,1510053,,,2025-02-14,清算の結了等,,,2015-10-05,1,,,,,タクマクニヒロシャシンジムショ,0
1352,6011005009433,登記記録の閉鎖等,0,2025-03-13,2025-02-13,特定非営利活動法人ささえ,,その他の設立登記法人,東京都,渋谷区,東３丁目２２番８号サワダビル４Ｆ,,13,113,1500011,,,2025-02-13,清算の結了等,,,2022-02-24,1,,,,,ササエ,0
1368,6012701010246,登記記録の閉鎖等,0,2025-03-13,2025-03-03,株式会社中央住建,,株式会社,東京都,調布市,入間町２丁目２９番地２９エステートハイムＡ－２０１,,13,208,1820004,,,2025-03-03,合併による解散等,8012701002836,令和７年２月２３日東京都調布市入間町二丁目２９番地２９エステートハイムＡ－２０１株式会社サンハウジング（8012701002836）に合併し解散,2015-10-05,1,,,,,チュウオウジュウケン,0
1374,6020001103505,登記記録の閉鎖等,0,2025-03-13,2025-03-04,株式会社ＥＳパワー,,株式会社,神奈川県,横浜市鶴見区,矢向３丁目２０番２８号,,14,101,2300001,,,2025-03-04,清算の結了等,,,2015-10-05,1,,,,,イーエスパワー,0
1394,6021002033468,登記記録の閉鎖等,0,2025-03-13,2025-03-11,有限会社諸星兄弟商会,,有限会社,神奈川県,厚木市,松枝１丁目４番１０号,,14,212,2430005,,,2025-03-11,清算の結了等,,,2015-10-05,1,,,,,モロホシキョウダイショウカイ,0
1411,6040005001604,登記記録の閉鎖等,0,2025-03-13,2025-03-04,特定非営利活動法人たすけあいこんにちわ,,その他の設立登記法人,千葉県,千葉市花見川区,花園１丁目６番７号,,12,102,2620025,,,2025-03-04,清算の結了等,,,2015-10-05,1,,,,,タスケアイコンニチワ,0
1419,6080101017046,登記記録の閉鎖等,0,2025-03-13,2025-03-07,つくし資源コンサル株式会社,,株式会社,静岡県,沼津市,平町９番１号,,22,203,4100036,,,2025-03-07,清算の結了等,,,2015-10-05,1,,,,,ツクシシゲンコンサル,0
1495,6250001003277,登記記録の閉鎖等,0,2025-03-13,2025-03-07,株式会社シャープ設備,,株式会社,山口県,宇部市,大字妻崎開作６４７番地,,35,202,7590204,,,2025-03-07,清算の結了等,,,2015-10-05,1,,,,,,0
1509,6310002015785,登記記録の閉鎖等,0,2025-03-13,2025-03-10,有限会社浜口海産,,有限会社,長崎県,雲仙市,吾妻町本村名２０４番地１,,42,213,8591101,,,2025-03-10,清算の結了等,,,2015-10-05,1,,,,,ハマグチカイサン,0
1520,6360001024964,登記記録の閉鎖等,0,2025-03-13,2025-03-11,株式会社うちなーてっく,,株式会社,沖縄県,那覇市,久茂地２丁目２番２号タイムスビル２階,,47,201,9000015,,,2025-03-11,清算の結了等,,,2018-12-07,1,,,,,ウチナーテック,0
1522,6360005006620,登記記録の閉鎖等,0,2025-03-13,2025-03-04,沖縄マーケティングＤＸ事業協同組合,,その他の設立登記法人,沖縄県,那覇市,首里石嶺町４丁目４４番地丸新ビル３０２,,47,201,9030804,,,2025-03-04,清算の結了等,,,2022-05-06,1,,,,,オキナワマーケティングディーエックス,0
1531,6400001015100,登記記録の閉鎖等,0,2025-03-13,2025-03-03,株式会社旭日建設工業,,株式会社,岩手県,和賀郡西和賀町,沢内字猿橋３５地割１２４番地１,,03,366,0295615,,,2025-03-03,清算の結了等,,,2020-07-21,1,,,,,アサヒケンセツコウギョウ,0
1532,6400002007732,登記記録の閉鎖等,0,2025-03-13,2025-03-03,有限会社八幡平サーキット・サンマリノグランプリ,,有限会社,岩手県,八幡平市,松尾寄木第１地割５９０番地３３３,,03,214,0287302,,,2025-03-03,清算の結了等,,,2015-10-05,1,,,,,ハチマンタイサーキットサンマリノグランプリ,0
1536,6430001040442,登記記録の閉鎖等,0,2025-03-13,2025-03-07,株式会社クリエイティブ・マネジメント,,株式会社,北海道,札幌市厚別区,厚別北三条４丁目８番３－１００６号,,01,108,0040073,,,2025-03-07,清算の結了等,,,2015-10-05,1,,,,,クリエイティブマネジメント,0
1537,6430001062866,登記記録の閉鎖等,0,2025-03-13,2025-03-03,合同会社楽桜舎,,合同会社,北海道,札幌市中央区,大通西２５丁目１番２号,,01,101,0640820,,,2025-03-03,合併による解散等,5430001062867,令和７年３月１日札幌市中央区大通西二十一丁目１番１２号合同会社サンタクロース（5430001062867）に合併し解散,2015-10-05,1,,,,,ラクオウシャ,0
1546,6460102002801,登記記録の閉鎖等,0,2025-03-13,2025-03-10,有限会社広岡建設,,有限会社,北海道,帯広市,西五条南２４丁目１７番地,,01,207,0800015,,,2025-03-10,清算の結了等,,,2015-10-05,1,,,,,,0
1554,6500002016649,登記記録の閉鎖等,0,2025-03-13,2025-03-11,有限会社高橋工業,,有限会社,愛媛県,新居浜市,田の上３丁目２番２９号,,38,205,7920888,,,2025-03-11,清算の結了等,,,2015-10-05,1,,,,,,0
1559,7010001034584,登記記録の閉鎖等,0,2025-03-13,2025-03-07,株式会社齋藤興業,,株式会社,東京都,千代田区,神田須田町２丁目１７番地１８,,13,101,1010041,,,2025-03-07,合併による解散等,5010001009919,令和７年３月１日埼玉県川口市栄町三丁目１３番１－２８０４号株式会社エスピーエム（5010001009919）に合併し解散,2015-10-05,1,,,,,,0
1561,7010001173317,登記記録の閉鎖等,0,2025-03-13,2025-02-28,ＪＰＡ第３１号株式会社,,株式会社,東京都,千代田区,霞が関３丁目２番１号,,13,101,1000013,,,2025-02-28,清算の結了等,,,2016-02-02,1,,,,,ジェイピーエーダイサンジュウイチゴウ,0
1562,7010001188471,登記記録の閉鎖等,0,2025-03-13,2025-02-28,ＪＰＡ第１０６号株式会社,,株式会社,東京都,千代田区,霞が関３丁目２番１号,,13,101,1000013,,,2025-02-28,清算の結了等,,,2017-12-20,1,,,,,ジェイピーエーダイヒャクロクゴウ,0
1566,7010003016060,登記記録の閉鎖等,0,2025-03-13,2025-03-03,オルガノンジャパン・ホールディングス合同会社,,合同会社,東京都,港区,南青山１丁目２４番３号ＷｅＷｏｒｋＮｏｇｉｚａｋａ,,13,103,1070062,,,2025-03-03,合併による解散等,9010001208707,令和７年３月１日東京都港区南青山一丁目２４番３号ＷｅＷｏｒｋＮｏｇｉｚａｋａオルガノン株式会社（9010001208707）に合併し解散,2015-10-05,1,,,,,オルガノンジャパンホールディングス,0
1567,7010003038352,登記記録の閉鎖等,0,2025-03-13,2025-02-28,合同会社ＫＲＦ１０３,,合同会社,東京都,千代田区,内幸町２丁目１番６号,,13,101,1000011,,,2025-02-28,清算の結了等,,,2022-08-19,1,,,,,ケイアールエフヒャクサン,0
1583,7010502022798,登記記録の閉鎖等,0,2025-03-13,2025-03-03,有限会社大都販売札幌,,有限会社,東京都,台東区,東上野１丁目１番１４号,,13,106,1100015,,,2025-03-03,合併による解散等,7010501033318,令和７年３月１日東京都台東区東上野一丁目１番１４号大都販売株式会社（7010501033318）に合併し解散,2015-10-05,1,,,,,ダイトハンバイサッポッロ,0
1584,7010502022815,登記記録の閉鎖等,0,2025-03-13,2025-03-03,有限会社大都販売松山,,有限会社,東京都,台東区,東上野１丁目１番１４号,,13,106,1100015,,,2025-03-03,合併による解散等,7010501033318,令和７年３月１日東京都台東区東上野一丁目１番１４号大都販売株式会社（7010501033318）に合併し解散,2015-10-05,1,,,,,ダイトハンバイマツヤマ,0
1587,7010602033927,登記記録の閉鎖等,0,2025-03-13,2025-03-07,株式会社ＷＤＳ,,株式会社,東京都,江戸川区,東小松川４丁目４４番９号船堀プラレールビル６階,,13,123,1320033,,,2025-03-07,清算の結了等,,,2015-10-05,1,,,,,,0
1624,7020001039384,登記記録の閉鎖等,0,2025-03-13,2025-03-03,株式会社ハッピネス,,株式会社,神奈川県,横浜市南区,中里３丁目５－３０中里ドーム１Ｆ,,14,105,2320063,,,2025-03-03,清算の結了等,,,2015-10-05,1,,,,,ハッピネス,0
1627,7020001149464,登記記録の閉鎖等,0,2025-03-13,2025-03-04,株式会社ＳｏｎａＧｒａｆ,,株式会社,神奈川県,横浜市西区,みなとみらい４丁目４番２号横浜ブルーアベニュー１２Ｆ,,14,103,2200012,,,2025-03-04,清算の結了等,,,2022-12-20,1,,,,,ソナグラフ,0
1638,7021002037393,登記記録の閉鎖等,0,2025-03-13,2025-03-11,有限会社青木設備工業,,有限会社,神奈川県,秦野市,立野台１丁目１４番地の１４,,14,211,2570017,,,2025-03-11,清算の結了等,,,2015-10-05,1,,,,,アオキセツビコウギョウ,0
1642,7030001125332,登記記録の閉鎖等,0,2025-03-13,2025-03-07,株式会社スタイルゲート,,株式会社,東京都,墨田区,亀沢１丁目４番１７号,,13,107,1300014,,,2025-03-07,合併による解散等,5010601012537,令和７年３月１日東京都墨田区亀沢一丁目４番１７号東京ビジネスマシン株式会社（5010601012537）に合併し解散,2018-04-24,1,,,,,スタイルゲート,0
1650,7030002059513,登記記録の閉鎖等,0,2025-03-13,2025-03-10,有限会社アポロ工芸,,有限会社,埼玉県,志木市,幸町４丁目１９番１０号,,11,228,3530005,,,2025-03-10,清算の結了等,,,2015-10-05,1,,,,,,0
1651,7030002072441,登記記録の閉鎖等,0,2025-03-13,2025-03-10,有限会社エーワンボディワークス,,有限会社,埼玉県,川越市,熊野町１６番地１２,,11,201,3501146,,,2025-03-10,清算の結了等,,,2015-10-05,1,,,,,エーワンボディワークス,0
1661,7050001027675,登記記録の閉鎖等,0,2025-03-13,2025-03-06,都路建設株式会社,,株式会社,茨城県,取手市,長兵衛新田２２１番地,,08,217,3020002,,,2025-03-06,清算の結了等,,,2015-10-05,1,,,,,ミヤコジケンセツ,0
1680,7120001088297,登記記録の閉鎖等,0,2025-03-13,2025-03-10,福井勝株式会社,,株式会社,大阪府,大阪市中央区,船場中央２丁目１番４－３２２号,,27,128,5410055,,,2025-03-10,清算の結了等,,,2015-10-05,1,,,,,フクイカツ,0
1681,7120001220553,登記記録の閉鎖等,0,2025-03-13,2025-03-10,株式会社ビーコネクト,,株式会社,大阪府,大阪市浪速区,日本橋３丁目４番９号エグゼレジデンスタワー２００３号,,27,111,5560005,,,2025-03-10,清算の結了等,,,2019-04-24,1,,,,,ビーコネクト,0
1706,7130001037526,登記記録の閉鎖等,0,2025-03-13,2025-03-11,株式会社京佃煮舗きやら,,株式会社,京都府,京都市上京区,今出川通千本西入南上善寺町１７１番地,,26,102,6028321,,,2025-03-11,清算の結了等,,,2015-10-05,1,,,,,キョウツクダニホキヤラ,0
1709,7140001008006,登記記録の閉鎖等,0,2025-03-13,2025-03-06,株式会社さのや商店,,株式会社,兵庫県,神戸市中央区,国香通１丁目１番１７号,,28,110,6510066,,,2025-03-06,清算の結了等,,,2015-10-05,1,,,,,サノヤショウテン,0
1710,7140001037979,登記記録の閉鎖等,0,2025-03-13,2025-03-06,株式会社リフォース,,株式会社,兵庫県,明石市,二見町西二見駅前３丁目８６番地,,28,203,6740095,,,2025-03-06,清算の結了等,,,2015-10-05,1,,,,,リフォース,0
1722,7180001016599,登記記録の閉鎖等,0,2025-03-13,2025-03-07,幸栄産業株式会社,,株式会社,愛知県,名古屋市守山区,東禅寺１４０１番地,,23,113,4630019,,,2025-03-07,合併による解散等,4200001022606,令和７年３月１日岐阜県多治見市宝町二丁目３９番地の１株式会社平成観光（4200001022606）に合併し解散,2015-10-05,1,,,,,コウエイサンギョウ,0
1723,7180001104156,登記記録の閉鎖等,0,2025-03-13,2025-03-10,株式会社インターセクション,,株式会社,滋賀県,草津市,東矢倉２丁目３－１５－７,,25,206,5250054,,,2025-03-10,清算の結了等,,,2015-10-05,1,,,,,インターセクション,0
1736,7200001019797,登記記録の閉鎖等,0,2025-03-13,2025-03-10,関プロモート株式会社,,株式会社,岐阜県,関市,西神野６９９番地８,,21,205,5013202,,,2025-03-10,清算の結了等,,,2015-10-05,1,,,,,セキプロモート,0
1737,7200001027692,登記記録の閉鎖等,0,2025-03-13,2025-03-10,ＴＫＪサポート株式会社,,株式会社,岐阜県,可児市,緑ケ丘２丁目２６４番地１,,21,214,5090231,,,2025-03-10,清算の結了等,,,2015-10-05,1,,,,,ティーケージェイサポート,0
1738,7200001030151,登記記録の閉鎖等,0,2025-03-13,2025-03-10,株式会社ＣＴＦカラー岐阜,,株式会社,岐阜県,岐阜市,岩地１丁目２番１９号,,21,201,5008225,,,2025-03-10,清算の結了等,,,2015-10-05,1,,,,,シーティーエフカラーギフ,0
1740,7200005012889,登記記録の閉鎖等,0,2025-03-13,2025-03-10,一般社団法人占い接客術ひとよみ,,その他の設立登記法人,岐阜県,中津川市,付知町６９５６番地１,,21,206,5080351,,,2025-03-10,清算の結了等,,,2019-01-11,1,,,,,ウラナイセッキャクジュツヒトヨミ,0
1762,7290002015853,登記記録の閉鎖等,0,2025-03-13,2025-03-10,有限会社杉田プロカラー,,有限会社,福岡県,福岡市博多区,下川端町１番１８号,,40,132,8120027,,,2025-03-10,合併による解散等,3290001013977,令和７年３月１０日福岡市博多区上川端町１４番１９号株式会社杉田写真館（3290001013977）に合併し解散,2015-10-05,1,,,,,スギタプロカラー,0
1768,7340001003936,登記記録の閉鎖等,0,2025-03-13,2025-03-10,株式会社正貴建設,,株式会社,鹿児島県,鹿児島市,紫原１丁目５１番１１号,,46,201,8900082,,,2025-03-10,清算の結了等,,,2015-10-05,1,,,,,マサキケンセツ,0
1778,7350005003527,登記記録の閉鎖等,0,2025-03-13,2025-02-21,天理教都城分教会,,その他の設立登記法人,宮崎県,都城市,今町８７９５番地６,,45,202,8850064,,,2025-02-21,合併による解散等,8350005003526,令和７年２月２１日宮崎県都城市早鈴町４街区１号天理教南都城分教会（8350005003526）に合併し解散,2015-10-05,1,,,,,テンリキョウミヤコノジョウブンキョウカイ,0
1780,7370002005268,登記記録の閉鎖等,0,2025-03-13,2025-03-05,有限会社ジョイスタ,,有限会社,宮城県,仙台市宮城野区,銀杏町７番１９号,,04,102,9830047,,,2025-03-05,清算の結了等,,,2015-10-05,1,,,,,ジョイスタ,0
1793,7400002010099,登記記録の閉鎖等,0,2025-03-13,2025-03-03,有限会社トランスクルーコーポレーション,,有限会社,岩手県,北上市,相去町舘下１番地２３,,03,206,0240051,,,2025-03-03,清算の結了等,,,2015-10-05,1,,,,,トランスクルーコーポレーション,0
1813,7490001006536,登記記録の閉鎖等,0,2025-03-13,2025-03-10,大恵商事株式会社,,株式会社,高知県,香南市,吉川町古川９８７番地１,,39,211,7815242,,,2025-03-10,合併による解散等,8490001000430,令和７年３月１０日高知市幸町１５番７号株式会社北岡商事（8490001000430）に合併し解散,2015-10-05,1,,,,,ダイケイショウジ,0
1828,8010001183843,登記記録の閉鎖等,0,2025-03-13,2025-02-28,ＪＰＡ第７２号株式会社,,株式会社,東京都,千代田区,霞が関３丁目２番１号,,13,101,1000013,,,2025-02-28,清算の結了等,,,2017-05-31,1,,,,,ジェイピーエーダイナナジュウニゴウ,0
1839,8010003031918,登記記録の閉鎖等,0,2025-03-13,2025-02-27,ＤＡＩＬＰホールディング合同会社,,合同会社,東京都,千代田区,丸の内１丁目４番１号東京共同会計事務所内,,13,101,1000005,,,2025-02-27,清算の結了等,,,2020-03-18,1,,,,,ディーエーアイエルピーホールディング,0
1840,8010003038203,登記記録の閉鎖等,0,2025-03-13,2025-02-28,ジャパン・ドミトリー１合同会社,,合同会社,東京都,千代田区,丸の内１丁目４番１号東京共同会計事務所内,,13,101,1000005,,,2025-02-28,清算の結了等,,,2022-07-28,1,,,,,ジャパンドミトリーワン,0
1851,8010501026147,登記記録の閉鎖等,0,2025-03-13,2025-03-07,株式会社グローバル,,株式会社,茨城県,つくばみらい市,伊奈東５２番地１２,,08,235,3002308,,,2025-03-07,清算の結了等,,,2015-10-05,1,,,,,グローバル,0
1852,8010501033317,登記記録の閉鎖等,0,2025-03-13,2025-03-03,株式会社大都販売広島,,株式会社,東京都,台東区,東上野１丁目１番１４号,,13,106,1100015,,,2025-03-03,合併による解散等,7010501033318,令和７年３月１日東京都台東区東上野一丁目１番１４号大都販売株式会社（7010501033318）に合併し解散,2015-10-05,1,,,,,ダイトハンバイヒロシマ,0
1853,8010502022806,登記記録の閉鎖等,0,2025-03-13,2025-03-03,有限会社大都販売千葉,,有限会社,東京都,台東区,東上野１丁目１番１４号,,13,106,1100015,,,2025-03-03,合併による解散等,7010501033318,令和７年３月１日東京都台東区東上野一丁目１番１４号大都販売株式会社（7010501033318）に合併し解散,2015-10-05,1,,,,,ダイトハンバイチバ,0
1855,8010701023522,登記記録の閉鎖等,0,2025-03-13,2025-03-11,株式会社ふれ愛ドゥライフサービス,,株式会社,東京都,品川区,南品川５丁目３番１０号,,13,109,1400004,,,2025-03-11,合併による解散等,5120001158234,令和７年３月１日大阪府門真市大字門真１０４８番地パナソニックエイジフリー株式会社（5120001158234）に合併し解散,2015-10-05,1,,,,,フレアイドゥライフサービス,0
1895,8021002038366,登記記録の閉鎖等,0,2025-03-13,2025-03-11,有限会社田沢彫刻所,,有限会社,神奈川県,秦野市,菩提６７番地の３,,14,211,2591302,,,2025-03-11,清算の結了等,,,2015-10-05,1,,,,,タザワチョウコクショ,0
1896,8021002049512,登記記録の閉鎖等,0,2025-03-13,2025-03-10,株式会社秋本興業,,株式会社,神奈川県,綾瀬市,早川２６９６番地の１１,,14,218,2521123,,,2025-03-10,合併による解散等,1021001028928,令和７年３月１日神奈川県綾瀬市早川２６９６番地の１１秋本食品株式会社（1021001028928）に合併し解散,2015-10-05,1,,,,,アキモトコウギョウ,0
1903,8030002042336,登記記録の閉鎖等,0,2025-03-13,2025-03-07,有限会社田村モータース,,有限会社,埼玉県,加須市,北下新井３８６番地,,11,210,3491134,,,2025-03-07,清算の結了等,,,2015-10-05,1,,,,,タムラモータース,0
1904,8030002086151,登記記録の閉鎖等,0,2025-03-13,2025-03-10,有限会社三幸電機製作所,,有限会社,埼玉県,越谷市,大字大道４４６番地,,11,222,3430035,,,2025-03-10,清算の結了等,,,2015-10-05,1,,,,,,0
1923,8080002009017,登記記録の閉鎖等,0,2025-03-13,2025-03-07,有限会社アイ・エス技工,,有限会社,静岡県,静岡市清水区,草薙杉道１丁目９番２５号,,22,103,4240885,,,2025-03-07,清算の結了等,,,2015-10-05,1,,,,,アイエスギコウ,0
1935,8120001119167,登記記録の閉鎖等,0,2025-03-13,2025-03-11,株式会社レイズ,,株式会社,和歌山県,和歌山市,元寺町３丁目２１,,30,201,6408024,,,2025-03-11,合併による解散等,8120001187346,令和７年３月３日大阪市天王寺区上本町六丁目２－２６株式会社シーヒューマン（8120001187346）に合併し解散,2015-10-05,1,,,,,レイズ,0
1936,8120001166283,登記記録の閉鎖等,0,2025-03-13,2025-03-10,ダイワビルサービス株式会社,,株式会社,大阪府,大阪市中央区,谷町７丁目１番３９号,,27,128,5420012,,,2025-03-10,清算の結了等,,,2015-10-05,1,,,,,ダイワビルサービス,0
1954,8120901026909,登記記録の閉鎖等,0,2025-03-13,2025-03-03,株式会社ユニカムドラッグ,,株式会社,大阪府,大東市,明美の里町１番７１号,,27,218,5740003,,,2025-03-03,合併による解散等,9122001015015,令和７年３月２日大阪府大東市明美の里町１番７１号株式会社アカカベ（9122001015015）に合併し解散,2015-10-05,1,,,,,ユニカムドラッグ,0
1961,8140001090936,登記記録の閉鎖等,0,2025-03-13,2025-03-10,株式会社トーワ,,株式会社,兵庫県,丹波市,氷上町柿柴３３３番地,,28,223,6693611,,,2025-03-10,清算の結了等,,,2015-10-05,1,,,,,トーワ,0
1962,8140001096520,登記記録の閉鎖等,0,2025-03-13,2025-03-07,株式会社ぷらすＣＯＣＯ,,株式会社,兵庫県,神戸市西区,伊川谷町有瀬１２０９－１,,28,111,6512113,,,2025-03-07,清算の結了等,,,2015-10-05,1,,,,,プラスココ,0
1990,8200005006386,登記記録の閉鎖等,0,2025-03-13,2025-03-10,特定非営利活動法人条里の里づくり,,その他の設立登記法人,岐阜県,揖斐郡大野町,大字野１２４６番地,,21,403,5010504,,,2025-03-10,清算の結了等,,,2015-10-05,1,,,,,ジョウリノサトヅクリ,0
1991,8210001016314,登記記録の閉鎖等,0,2025-03-13,2025-03-07,株式会社ＯＲＡＮＧＥ,,株式会社,福井県,鯖江市,御幸町２丁目７番１０号,,18,207,9160015,,,2025-03-07,清算の結了等,,,2016-04-19,1,,,,,オレンジ,0
2003,8250001002979,登記記録の閉鎖等,0,2025-03-13,2025-03-12,宇部蒲鉾株式会社,,株式会社,山口県,宇部市,大字川上６９７番地の２０,,35,202,7550084,,,2025-03-12,清算の結了等,,,2015-10-05,1,,,,,ウベカマボコ,0
2011,8290002056616,登記記録の閉鎖等,0,2025-03-13,2025-03-03,有限会社クボタ,,有限会社,福岡県,うきは市,吉井町八和田９５７番地の１,,40,225,8391308,,,2025-03-03,清算の結了等,,,2015-10-05,1,,,,,クボタ,0
2013,8290801019376,登記記録の閉鎖等,0,2025-03-13,2025-03-05,株式会社イケダ測建,,株式会社,福岡県,北九州市小倉北区,神岳１丁目１番１９号,,40,106,8020045,,,2025-03-05,清算の結了等,,,2015-10-05,1,,,,,イケダソッケン,0
2025,8340001024072,登記記録の閉鎖等,0,2025-03-13,2025-03-10,株式会社ＳＨＡＲＫ,,株式会社,鹿児島県,鹿児島市,宇宿９丁目７番２号,,46,201,8900073,,,2025-03-10,清算の結了等,,,2021-09-03,1,,,,,シャーク,0
2028,8350002017470,登記記録の閉鎖等,0,2025-03-13,2025-03-07,有限会社辻橋経営経理事務所,00100938,有限会社,宮崎県,串間市,寺里１丁目６番地１４,,45,207,8880011,,,2025-03-07,清算の結了等,,,2015-10-05,1,,,,,ツジハシケイエイケイリジムショ,0
2036,8370001017908,登記記録の閉鎖等,0,2025-03-13,2025-03-03,株式会社ＤＣＴ・ＨＤ六右衛門,,株式会社,宮城県,黒川郡大郷町,粕川字山中４０番地,,04,422,9813502,,,2025-03-03,清算の結了等,,,2015-10-05,1,,,,,ディーシーティエイチディロクエモン,0
2038,8380002032962,登記記録の閉鎖等,0,2025-03-13,2025-03-03,有限会社藤屋,,有限会社,福島県,耶麻郡猪苗代町,大字千代田字千代田甲１８２番地,,07,408,9693133,,,2025-03-03,清算の結了等,,,2015-10-05,1,,,,,フジヤ,0
2061,9010001022059,登記記録の閉鎖等,0,2025-03-13,2025-03-10,株式会社武川建築設計事務所,,株式会社,東京都,世田谷区,梅丘２丁目１６番１４号,,13,112,1540022,,,2025-03-10,清算の結了等,,,2015-10-05,1,,,,,タケカワケンチクセッケイジムショ,0
2062,9010001188750,登記記録の閉鎖等,0,2025-03-13,2025-02-28,ＪＰＯ第２号株式会社,,株式会社,東京都,千代田区,霞が関３丁目２番１号,,13,101,1000013,,,2025-02-28,清算の結了等,,,2018-01-09,1,,,,,ジェイピーオーダイニゴウ,0
2070,9010001250923,登記記録の閉鎖等,0,2025-03-13,2025-03-03,プロシアネクスト株式会社,,株式会社,東京都,中央区,日本橋富沢町６番４号,,13,102,1030006,,,2025-03-03,合併による解散等,8010001249652,令和７年３月１日東京都中央区日本橋富沢町６番４号プロシアＩＴマネジメント株式会社（8010001249652）に合併し解散,2024-12-27,1,,,,,プロシアネクスト,0
2076,9010002018964,登記記録の閉鎖等,0,2025-03-13,2025-02-27,有限会社銀座グラナダ,,有限会社,東京都,中央区,銀座６丁目７番１６号,,13,102,1040061,,,2025-02-27,清算の結了等,,,2015-10-05,1,,,,,ギンザグラナダ,0
2077,9010003024251,登記記録の閉鎖等,0,2025-03-13,2025-02-28,合同会社アイデアブルワリー,,合同会社,東京都,中央区,築地４丁目３番１１号,,13,102,1040045,,,2025-02-28,清算の結了等,,,2016-10-13,1,,,,,アイデアブルワリー,0
2090,9010403033554,登記記録の閉鎖等,0,2025-03-13,2025-03-05,Ｓｕｍｉｔａ　Ｔｏｎｏ　Ａｃｑｕｉｓｉｔｉｏｎ　Ｃｏｍｐａｎｙ合同会社,,合同会社,東京都,港区,赤坂１丁目１１番４４号赤坂インターシティ,,13,103,1070052,,,2025-03-05,合併による解散等,1010403025278,令和７年３月５日東京都港区赤坂一丁目１１番４４号赤坂インターシティ合同会社グリーンパワー住田遠野ホールディングス（1010403025278）に合併し解散,2024-10-09,1,,,,,スミタトオノアクイジションカンパニー,0
2093,9010501033316,登記記録の閉鎖等,0,2025-03-13,2025-03-03,株式会社大都販売大阪,,株式会社,東京都,台東区,東上野１丁目１番１４号,,13,106,1100015,,,2025-03-03,合併による解散等,7010501033318,令和７年３月１日東京都台東区東上野一丁目１番１４号大都販売株式会社（7010501033318）に合併し解散,2015-10-05,1,,,,,ダイトハンバイオオサカ,0
2094,9010502022805,登記記録の閉鎖等,0,2025-03-13,2025-03-03,有限会社大都販売さいたま,,有限会社,東京都,台東区,東上野１丁目１番１４号,,13,106,1100015,,,2025-03-03,合併による解散等,7010501033318,令和７年３月１日東京都台東区東上野一丁目１番１４号大都販売株式会社（7010501033318）に合併し解散,2015-10-05,1,,,,,ダイトハンバイサイタマ,0
2098,9010602020659,登記記録の閉鎖等,0,2025-03-13,2025-03-10,有限会社石田工業所,,有限会社,東京都,墨田区,東駒形３丁目１４番１０号,,13,107,1300005,,,2025-03-10,清算の結了等,,,2015-10-05,1,,,,,イシダコウギョウショ,0
2103,9010701039039,登記記録の閉鎖等,0,2025-03-13,2025-03-04,株式会社セカンドアロー,,株式会社,東京都,品川区,東五反田１丁目７番６号,,13,109,1410022,,,2025-03-04,合併による解散等,9010701035145,令和７年３月１日東京都品川区東五反田一丁目７番６号株式会社串カツ田中（9010701035145）に合併し解散,2020-03-27,1,,,,,セカンドアロー,0
2126,9011801036719,登記記録の閉鎖等,0,2025-03-13,2025-02-28,株式会社コーポＫ,,株式会社,東京都,中央区,銀座１丁目２２番１１号銀座大竹ビジデンス２Ｆ,,13,102,1040061,,,2025-02-28,清算の結了等,,,2019-10-04,1,,,,,コーポケイ,0
2150,9020002028054,登記記録の閉鎖等,0,2025-03-13,2025-03-10,有限会社ベル商事,,有限会社,滋賀県,高島市,安曇川町下小川２３８２番地８,,25,212,5201223,,,2025-03-10,清算の結了等,,,2015-10-05,1,,,,,ベルショウジ,0
2160,9021002048629,登記記録の閉鎖等,0,2025-03-13,2025-03-10,有限会社Ｍ・Ｙ・Ｓ,,有限会社,神奈川県,海老名市,河原口２丁目２０番５号,,14,215,2430433,,,2025-03-10,合併による解散等,5021002045365,令和７年３月１０日神奈川県海老名市河原口二丁目１９番３号株式会社都元商事（5021002045365）に合併し解散,2015-10-05,1,,,,,エムワイエス,0
2174,9030003014589,登記記録の閉鎖等,0,2025-03-13,2025-03-10,Ａｆｆｉｎｉｔｙ合同会社,,合同会社,埼玉県,所沢市,けやき台１丁目１０番地の４メゾンけやき台２０３,,11,208,3591118,,,2025-03-10,清算の結了等,,,2020-01-06,1,,,,,アフィニティ,0
2183,9050001039826,登記記録の閉鎖等,0,2025-03-13,2025-03-03,株式会社食のイノベーター,,株式会社,茨城県,龍ケ崎市,字寺後３９５１番地,,08,208,3010000,,,2025-03-03,合併による解散等,2050001040055,令和７年３月１日茨城県龍ケ崎市字寺後３９５１番地株式会社寺田商店（2050001040055）に合併し解散,2015-10-05,1,,,,,ショクノイノベーター,0
2203,9080401003932,登記記録の閉鎖等,0,2025-03-13,2025-03-05,二橋建設株式会社,,株式会社,静岡県,浜松市中央区,城北２丁目１２番１号,,22,138,4328011,,,2025-03-05,清算の結了等,,,2015-10-05,1,,,,,ニハシケンセツ,0
2259,9200001038093,登記記録の閉鎖等,0,2025-03-13,2025-03-10,株式会社真和建設,,株式会社,岐阜県,下呂市,蛇之尾１０１９番地,,21,220,5092423,,,2025-03-10,清算の結了等,,,2020-12-10,1,,,,,シンワケンセツ,0
2264,9210002009605,登記記録の閉鎖等,0,2025-03-13,2025-03-11,有限会社広田組,,有限会社,福井県,大野市,吉第６号１６番地,,18,205,9120401,,,2025-03-11,清算の結了等,,,2015-10-05,1,,,,,ヒロタグミ,0
2273,9250001016128,登記記録の閉鎖等,0,2025-03-13,2025-03-12,株式会社Ｐｅａｃｅ　Ｍｉｌｌｉｏｎ,,株式会社,山口県,山口市,中央５丁目６番３０号,,35,203,7530074,,,2025-03-12,清算の結了等,,,2016-08-12,1,,,,,ピースミリオン,0
2276,9280005006196,登記記録の閉鎖等,0,2025-03-13,2025-03-12,鑓免生産森林組合,00004986,その他の設立登記法人,島根県,仁多郡奥出雲町,中村４５７番地１７,,32,343,6991831,,,2025-03-12,清算の結了等,,,2015-10-05,1,,,,,ヤリメ,0
2286,9290801020119,登記記録の閉鎖等,0,2025-03-13,2025-03-03,株式会社アクサス,,株式会社,福岡県,直方市,大字頓野３８１３番地１,,40,204,8220002,,,2025-03-03,合併による解散等,8290801014138,令和７年３月１日福岡県直方市大字頓野３８１３番地の１株式会社山公地産（8290801014138）に合併し解散,2015-10-05,1,,,,,アクサス,0
2300,9370003006008,登記記録の閉鎖等,0,2025-03-13,2025-02-25,合同会社ＭＣＬ,,合同会社,宮城県,仙台市太白区,桜木町２３―１,,04,104,9820835,,,2025-02-25,清算の結了等,,,2023-02-28,1,,,,,エムシーエル,0
2319,9450002000688,登記記録の閉鎖等,0,2025-03-13,2025-03-07,有限会社イトウ洋服店,,有限会社,北海道,旭川市,大町一条１丁目９番地の４７４,,01,204,0700841,,,2025-03-07,清算の結了等,,,2015-10-05,1,,,,,,0
