sequenceNumber,corporateNumber,process,correct,updateDate,changeDate,name,nameImageId,kind,prefectureName,cityName,streetNumber,addressImageId,prefectureCode,cityCode,postCode,addressOutside,addressOutsideImageId,closeDate,closeCause,successorCorporateNumber,changeCause,assignmentDate,latest,enName,enPrefectureName,enCityName,enAddressOutside,furigana,hihyoji
1,1010001018584,新規,0,2025-01-07,2025-01-07,ショウエイプロス株式会社,,株式会社,東京都,千代田区,平河町２丁目２番１号,,13,101,1020093,,,,,,,2025-01-07,1,,,,,ショウエイプロス,0
7,1010001250988,新規,0,2025-01-07,2025-01-07,株式会社Ｓｌｙ,,株式会社,東京都,中央区,銀座１丁目１２番４号Ｎ＆ＥＢＬＤＧ．６Ｆ,,13,102,1040061,,,,,,,2025-01-07,1,,,,,スライ,0
8,1010001251053,新規,0,2025-01-07,2025-01-07,株式会社Ｙ’ｓｈａｒｅ,,株式会社,東京都,千代田区,内神田１丁目１８番１３号内神田中央ビル８階,,13,101,1010047,,,,,,,2025-01-07,1,,,,,ワイズシェア,0
9,1010001251061,新規,0,2025-01-07,2025-01-07,辻・本郷ＣＦＯ株式会社,00137512,株式会社,東京都,中央区,八重洲２丁目２番１号東京ミッドタウン八重洲八重洲セントラルタワー３２階,,13,102,1040028,,,,,,,2025-01-07,1,,,,,ツジホンゴウシーエフオー,0
10,1010001251086,新規,0,2025-01-07,2025-01-07,Ｔｈｅ　Ｐｅａｋ　Ｖｉｅｗ株式会社,,株式会社,東京都,中央区,八丁堀４丁目４番４号３階,,13,102,1040032,,,,,,,2025-01-07,1,,,,,ザピークビュー,0
11,1010001251103,新規,0,2025-01-07,2025-01-07,株式会社ＴＯＰ　ＯＦ　ＴＯＰ,,株式会社,東京都,文京区,小石川１丁目１４－３ザ・タワー小石川８０１,,13,105,1120002,,,,,,,2025-01-07,1,,,,,トップオブトップ,0
12,1010001251111,新規,0,2025-01-07,2025-01-07,株式会社スナッグ,,株式会社,東京都,中央区,銀座４丁目１０番１２号銀座サマリヤビル３Ｆ,,13,102,1040061,,,,,,,2025-01-07,1,,,,,スナッグ,0
15,1010003045916,新規,0,2025-01-07,2025-01-07,合同会社ライトハウス１号,,合同会社,東京都,千代田区,霞が関３丁目２番５号,,13,101,1000013,,,,,,,2025-01-07,1,,,,,ライトハウスイチゴウ,0
16,1010003045940,新規,0,2025-01-07,2025-01-07,Ｂｏｎａ　Ｆｉｄｅ　Ｇｒｏｕｐ　Ｊａｐａｎ合同会社,,合同会社,東京都,千代田区,五番町１２番地７－２０４３,,13,101,1020076,,,,,,,2025-01-07,1,,,,,ボナファイドグループジャパン,0
17,1010005039346,新規,0,2025-01-07,2025-01-07,Ｊｉｎｇｕｍａｅ１２３一般社団法人,,その他の設立登記法人,東京都,千代田区,霞が関３丁目２番５号,,13,101,1000013,,,,,,,2025-01-07,1,,,,,ジングウマエワンツースリー,0
18,1010005039354,新規,0,2025-01-07,2025-01-07,一般社団法人ＭＥホテルファンド,,その他の設立登記法人,東京都,千代田区,霞が関３丁目２番５号,,13,101,1000013,,,,,,,2025-01-07,1,,,,,エムイーホテルファンド,0
25,1010601066529,新規,0,2025-01-07,2025-01-07,株式会社ＡＺ　ＴＲＡＤＩＮＧ,,株式会社,東京都,江東区,豊洲５丁目６番２９－１２０２号,,13,108,1350061,,,,,,,2025-01-07,1,,,,,アズトレーディング,0
26,1010601066537,新規,0,2025-01-07,2025-01-07,株式会社はなぶさ,,株式会社,東京都,江東区,亀戸６丁目３１番１－２２０３号,,13,108,1360071,,,,,,,2025-01-07,1,,,,,ハナブサ,0
27,1010601066545,新規,0,2025-01-07,2025-01-07,株式会社ラヴィッツ,,株式会社,東京都,江東区,清澄１丁目３番９－７１７号,,13,108,1350024,,,,,,,2025-01-07,1,,,,,ラヴィッツ,0
28,1010601066553,新規,0,2025-01-07,2025-01-07,株式会社ＶＡＣＡＮＣＥ,,株式会社,東京都,江東区,海辺１７番４号,,13,108,1350012,,,,,,,2025-01-07,1,,,,,ヴァカンス,0
29,1010601066561,新規,0,2025-01-07,2025-01-07,株式会社ｅｇｇＳｕｎ,,株式会社,東京都,江東区,南砂１丁目１９番１－２０３号,,13,108,1360076,,,,,,,2025-01-07,1,,,,,エッグサン,0
30,1010603011301,新規,0,2025-01-07,2025-01-07,合同会社ユニークスキル,,合同会社,東京都,江東区,東雲１丁目９番１２－９０６号,,13,108,1350062,,,,,,,2025-01-07,1,,,,,ユニークスキル,0
37,1010801035721,新規,0,2025-01-07,2025-01-07,株式会社未来そら,,株式会社,東京都,大田区,田園調布南１６番３号,,13,111,1450076,,,,,,,2025-01-07,1,,,,,ミライソラ,0
41,1010901056584,新規,0,2025-01-07,2025-01-07,株式会社オトグラフ,,株式会社,東京都,世田谷区,羽根木１丁目３０番８号,,13,112,1560042,,,,,,,2025-01-07,1,,,,,オトグラフ,0
42,1010901056601,新規,0,2025-01-07,2025-01-07,株式会社ＲＩＧ,,株式会社,東京都,世田谷区,岡本３丁目３番４号,,13,112,1570076,,,,,,,2025-01-07,1,,,,,リグ,0
43,1010903009615,新規,0,2025-01-07,2025-01-07,合同会社ＩＧＮＡＴＩＯＮ,,合同会社,東京都,世田谷区,世田谷４丁目１４番２７－９０１号,,13,112,1540017,,,,,,,2025-01-07,1,,,,,イグネーション,0
46,1011001166778,新規,0,2025-01-07,2025-01-07,株式会社Ｆｕｌｌ　Ｂｅｔ　Ｍａｒｋｅｔｉｎｇ,,株式会社,東京都,渋谷区,円山町３番６号Ｅ・スペースタワー６階,,13,113,1500044,,,,,,,2025-01-07,1,,,,,フルベットマーケティング,0
47,1011001166803,新規,0,2025-01-07,2025-01-07,Ａｌｙｓｓｅ株式会社,,株式会社,東京都,目黒区,青葉台１丁目２０番２号,,13,110,1530042,,,,,,,2025-01-07,1,,,,,アリッセ,0
48,1011001166811,新規,0,2025-01-07,2025-01-07,載翊新材料株式会社,,株式会社,東京都,目黒区,八雲５丁目１４番５号,,13,110,1520023,,,,,,,2025-01-07,1,,,,,サイヨクシンザイリョウ,0
49,1011001166828,新規,0,2025-01-07,2025-01-07,株式会社ｅｇｇ　ｐｌａｎｔ,,株式会社,東京都,渋谷区,代々木１丁目１２番４号,,13,113,1510053,,,,,,,2025-01-07,1,,,,,エッグプラント,0
50,1011001166860,新規,0,2025-01-07,2025-01-07,いろは株式会社,,株式会社,東京都,目黒区,下目黒１丁目１番１４号コノトラビル７Ｆ,,13,110,1530064,,,,,,,2025-01-07,1,,,,,イロハ,0
51,1011001166902,新規,0,2025-01-07,2025-01-07,株式会社ＡＳＡＹＵＦＵ発酵舎,,株式会社,東京都,目黒区,中目黒１丁目１番１１号島田ビル１階,,13,110,1530061,,,,,,,2025-01-07,1,,,,,アサユフハッコウシャ,0
52,1011001166943,新規,0,2025-01-07,2025-01-07,株式会社ＩＥ,,株式会社,東京都,目黒区,鷹番３丁目８番１号ＲＨｉｌｌｓ２０１,,13,110,1520004,,,,,,,2025-01-07,1,,,,,アイイー,0
55,1011003020636,新規,0,2025-01-07,2025-01-07,合同会社ニコニコ,,合同会社,東京都,渋谷区,恵比寿西２丁目４番８号ウィンド恵比寿ビル８Ｆ,,13,113,1500021,,,,,,,2025-01-07,1,,,,,ニコニコ,0
58,1011103015346,新規,0,2025-01-07,2025-01-07,合同会社帝,,合同会社,東京都,新宿区,西新宿４丁目８番３１号ＬＡＰｉＳ西新宿五丁目３０３,,13,104,1600023,,,,,,,2025-01-07,1,,,,,ミカド,0
61,1011201026030,新規,0,2025-01-07,2025-01-07,株式会社ヴィアナＫ,,株式会社,東京都,中野区,東中野１丁目３３番１２号,,13,114,1640003,,,,,,,2025-01-07,1,,,,,ヴィアナケイ,0
65,1011401026706,新規,0,2025-01-07,2025-01-07,株式会社メルク,,株式会社,東京都,板橋区,蓮根２丁目１７番１０－１０２号,,13,119,1740046,,,,,,,2025-01-07,1,,,,,メルク,0
72,1012303002092,新規,0,2025-01-07,2025-01-07,Ｋｅｎ　ＡｃｃＴｅｃｈ合同会社,,合同会社,東京都,町田市,原町田４丁目１１－１３天野ビル４Ｆ,,13,209,1940013,,,,,,,2025-01-07,1,,,,,ケンアクテック,0
74,1012701018632,新規,0,2025-01-07,2025-01-07,Ｘ・ＣＳ株式会社,,株式会社,東京都,東久留米市,神宝町１丁目１６番２７号,,13,222,2030002,,,,,,,2025-01-07,1,,,,,エックスシーエス,0
75,1012703003161,新規,0,2025-01-07,2025-01-07,合同会社ヨセワン,,合同会社,東京都,西東京市,中町４丁目９番２８－２０１号,,13,229,2020013,,,,,,,2025-01-07,1,,,,,ヨセワン,0
76,1013101009593,新規,0,2025-01-07,2025-01-07,株式会社つなぐ,,株式会社,東京都,福生市,北田園２丁目１８番地２喜一ビル,,13,218,1970005,,,,,,,2025-01-07,1,,,,,ツナグ,0
82,1020001160724,新規,0,2025-01-07,2025-01-07,盛源株式会社,,株式会社,神奈川県,横浜市中区,尾上町３丁目３９番地尾上町ビル１Ｆ,,14,104,2310015,,,,,,,2025-01-07,1,,,,,モリモト,0
83,1020001160781,新規,0,2025-01-07,2025-01-07,株式会社Ｎ＆Ｓ管理,,株式会社,神奈川県,横浜市港南区,日野中央１丁目３番３０－５０２号,,14,111,2340053,,,,,,,2025-01-07,1,,,,,エヌアンドエスカンリ,0
87,1021001084021,新規,0,2025-01-07,2025-01-07,株式会社Ｅ‐ｉｓｌａｎｄ,,株式会社,神奈川県,相模原市南区,西大沼２丁目４８番２号,,14,153,2520332,,,,,,,2025-01-07,1,,,,,イーアイランド,0
89,1021003015412,新規,0,2025-01-07,2025-01-07,クリエイティブ・キューズ合同会社,,合同会社,神奈川県,鎌倉市,材木座６丁目６－１４,,14,204,2480013,,,,,,,2025-01-07,1,,,,,クリエイティブキューズ,0
90,1030001164195,新規,0,2025-01-07,2025-01-07,株式会社入江商事,,株式会社,埼玉県,羽生市,南４丁目５番１１号,,11,216,3480053,,,,,,,2025-01-07,1,,,,,イリエショウジ,0
91,1030001164212,新規,0,2025-01-07,2025-01-07,株式会社セントソフィア加須,,株式会社,埼玉県,加須市,馬内６８３－１,,11,210,3470043,,,,,,,2025-01-07,1,,,,,セントソフィアカゾ,0
92,1030001164220,新規,0,2025-01-07,2025-01-07,株式会社晟和宏業,,株式会社,埼玉県,さいたま市浦和区,岸町２丁目３番１－１０５号,,11,107,3300064,,,,,,,2025-01-07,1,,,,,セイワコウギョウ,0
93,1030001164229,新規,0,2025-01-07,2025-01-07,ＬＩＦＥ　ＲＯＯＦ株式会社,,株式会社,埼玉県,川口市,大字石神４９９番地の２,,11,203,3330823,,,,,,,2025-01-07,1,,,,,ライフルーフ,0
95,1030003025809,新規,0,2025-01-07,2025-01-07,合同会社Ａｌｐｈａｂｅｔ,,合同会社,埼玉県,さいたま市南区,別所２丁目１７番８号,,11,108,3360021,,,,,,,2025-01-07,1,,,,,アルファベット,0
101,1040001136730,新規,0,2025-01-07,2025-01-07,ＣＲＥＡＶＥ株式会社,,株式会社,千葉県,船橋市,松が丘５丁目６番１号,,12,204,2740064,,,,,,,2025-01-07,1,,,,,クリエーブ,0
102,1040001136747,新規,0,2025-01-07,2025-01-07,株式会社金子商事,,株式会社,千葉県,船橋市,小室町９０２番地Ｂ－１棟４０３号,,12,204,2701471,,,,,,,2025-01-07,1,,,,,カネコショウジ,0
103,1040001136763,新規,0,2025-01-07,2025-01-07,株式会社北総アグリアシスト,,株式会社,千葉県,印西市,岩戸３５４９番地１,,12,231,2701616,,,,,,,2025-01-07,1,,,,,ホクソウアグリアシスト,0
104,1040001136788,新規,0,2025-01-07,2025-01-07,株式会社サナリィ・エンターテインメント,,株式会社,千葉県,市川市,菅野１丁目２２番１２号,,12,203,2720824,,,,,,,2025-01-07,1,,,,,サナリィエンターテインメント,0
105,1040001136846,新規,0,2025-01-07,2025-01-07,株式会社Ｍｏｂｉｌｉｓ,,株式会社,千葉県,松戸市,稔台８丁目４１－２,,12,207,2702231,,,,,,,2025-01-07,1,,,,,モビリス,0
107,1040003026509,新規,0,2025-01-07,2025-01-07,合同会社鳩山,,合同会社,千葉県,松戸市,上本郷３３２３番地ドリームコーポ２０１号,,12,207,2710064,,,,,,,2025-01-07,1,,,,,ハトヤマ,0
108,1040003026525,新規,0,2025-01-07,2025-01-07,Ｒｏｙａｌ資本ｉｎｔｅｒｎａｔｉｏｎａｌ合同会社,,合同会社,千葉県,山武市,親田１７－１３,,12,237,2891332,,,,,,,2025-01-07,1,,,,,ロイヤルシホンインターナショナル,0
110,1050001055938,新規,0,2025-01-07,2025-01-07,株式会社ＣＯＣＯ,,株式会社,茨城県,北相馬郡利根町,大字布川２５３番地４４６,,08,564,3001622,,,,,,,2025-01-07,1,,,,,ココ,0
111,1050001055954,新規,0,2025-01-07,2025-01-07,くーぴー株式会社,,株式会社,茨城県,久慈郡大子町,大字西金６２８番地,,08,364,3193362,,,,,,,2025-01-07,1,,,,,クーピー,0
112,1050001055962,新規,0,2025-01-07,2025-01-07,株式会社佐助,,株式会社,茨城県,神栖市,大野原３丁目１０番８号,,08,232,3140144,,,,,,,2025-01-07,1,,,,,サスケ,0
113,1060001037778,新規,0,2025-01-07,2025-01-07,株式会社創日,,株式会社,栃木県,小山市,駅南町１丁目６番１５号,,09,208,3230822,,,,,,,2025-01-07,1,,,,,ソウジツ,0
114,1060001037786,新規,0,2025-01-07,2025-01-07,株式会社ＡＤＭＡＮＺ,,株式会社,栃木県,小山市,大字出井１９４２番地２０,,09,208,3230808,,,,,,,2025-01-07,1,,,,,アドマンズ,0
115,1060001037794,新規,0,2025-01-07,2025-01-07,株式会社マルボシ,,株式会社,栃木県,宇都宮市,鶴田町２１２６番地５,,09,201,3200851,,,,,,,2025-01-07,1,,,,,マルボシ,0
121,1080101025227,新規,0,2025-01-07,2025-01-07,株式会社カーメイク・ベンチャーＭＹＡＫ,,株式会社,静岡県,賀茂郡東伊豆町,稲取３１９番地の１,,22,301,4130411,,,,,,,2025-01-07,1,,,,,カーメイクベンチャーエムワイエーケー,0
122,1080103003230,新規,0,2025-01-07,2025-01-07,修善寺和紙合同会社,,合同会社,静岡県,伊豆市,修善寺９３７番地の９,,22,222,4102416,,,,,,,2025-01-07,1,,,,,シュゼンジワシ,0
123,1080401027674,新規,0,2025-01-07,2025-01-07,株式会社ＬＡＮＡ,,株式会社,静岡県,浜松市浜名区,神宮寺町９－２０,,22,139,4312216,,,,,,,2025-01-07,1,,,,,ラナ,0
131,1110005017168,新規,0,2025-01-07,2025-01-07,一般社団法人ヨリミチ,,その他の設立登記法人,新潟県,東蒲原郡阿賀町,津川１７７－１,,15,385,9594402,,,,,,,2025-01-07,1,,,,,ヨリミチ,0
138,1120001271511,新規,0,2025-01-07,2025-01-07,サンユーエンジ株式会社,,株式会社,大阪府,大阪市城東区,新喜多１丁目７番２５号,,27,118,5360015,,,,,,,2025-01-07,1,,,,,サンユーエンジ,0
139,1120001271536,新規,0,2025-01-07,2025-01-07,Ｙｕｋａ’ｓ　Ｆｏｏｄｉｅ　Ｓｋｙ株式会社,,株式会社,大阪府,大阪市天王寺区,大道２丁目５－１１ハウスカプチーノ１階,,27,109,5430052,,,,,,,2025-01-07,1,,,,,ユカズフウディスカイ,0
140,1120001271569,新規,0,2025-01-07,2025-01-07,晟達株式会社,,株式会社,大阪府,大阪市城東区,鴫野西１丁目８番３１－２０２号,,27,118,5360014,,,,,,,2025-01-07,1,,,,,セイタツ,0
141,1120001271668,新規,0,2025-01-07,2025-01-07,株式会社オドルトソノサキ,,株式会社,大阪府,大阪市北区,浪花町１－１８シンコーメゾン扇町５０２,,27,127,5300022,,,,,,,2025-01-07,1,,,,,オドルトソノサキ,0
142,1120003028249,新規,0,2025-01-07,2025-01-07,曙合同会社,,合同会社,大阪府,枚方市,伊加賀緑町６番１５号,,27,210,5730067,,,,,,,2025-01-07,1,,,,,アケボノ,0
143,1120003028265,新規,0,2025-01-07,2025-01-07,Ｃｏｅ　Ｃｏｒｐ合同会社,,合同会社,大阪府,大阪市東淀川区,西淡路５丁目１番１号２０４－１２号,,27,114,5330031,,,,,,,2025-01-07,1,,,,,コーコープ,0
144,1120003028273,新規,0,2025-01-07,2025-01-07,合同会社ダイコクサービス,,合同会社,大阪府,大阪市福島区,玉川２丁目９番２６号,,27,103,5530004,,,,,,,2025-01-07,1,,,,,ダイコクサービス,0
147,1120101070846,新規,0,2025-01-07,2025-01-07,株式会社達美,,株式会社,大阪府,泉佐野市,りんくう往来南３番地７ＫＡＢりんくうビル９階,,27,213,5980047,,,,,,,2025-01-07,1,,,,,タツミ,0
158,1140001136902,新規,0,2025-01-07,2025-01-07,株式会社石田電機工業,,株式会社,兵庫県,姫路市,飾磨区若宮町２０番地１,,28,201,6728095,,,,,,,2025-01-07,1,,,,,イシダデンキコウギョウ,0
159,1140001136910,新規,0,2025-01-07,2025-01-07,株式会社エングレイシー,,株式会社,兵庫県,洲本市,物部１丁目１０番３号,,28,205,6560051,,,,,,,2025-01-07,1,,,,,エングレイシー,0
160,1140003021482,新規,0,2025-01-07,2025-01-07,合同会社すずらん,,合同会社,兵庫県,芦屋市,大東町１１番２０－４１２号,,28,206,6590023,,,,,,,2025-01-07,1,,,,,スズラン,0
161,1150001027778,新規,0,2025-01-07,2025-01-07,ＬＥＮＺＯ株式会社,,株式会社,奈良県,生駒市,高山町８９１６－５,,29,209,6300101,,,,,,,2025-01-07,1,,,,,レンゾ,0
162,1150001027794,新規,0,2025-01-07,2025-01-07,株式会社美嘉興業,,株式会社,奈良県,吉野郡大淀町,大字北野１０６番地の８,,29,442,6393125,,,,,,,2025-01-07,1,,,,,ミヨシコウギョウ,0
163,1160001026449,新規,0,2025-01-07,2025-01-07,株式会社Ｓｔｙｌｅ　Ｊａｍ,,株式会社,滋賀県,大津市,今堅田２丁目２５－１９、２Ｆ,,25,201,5200241,,,,,,,2025-01-07,1,,,,,スタイルジャム,0
164,1160001026457,新規,0,2025-01-07,2025-01-07,株式会社アグリ夢工光,,株式会社,滋賀県,近江八幡市,魚屋町中１６番地,,25,204,5230868,,,,,,,2025-01-07,1,,,,,アグリユメコウコウ,0
175,1180005020883,新規,0,2025-01-07,2025-01-07,一般社団法人ルリアン,,その他の設立登記法人,愛知県,名古屋市緑区,鎌倉台２丁目７１４番地,,23,114,4580829,,,,,,,2025-01-07,1,,,,,ルリアン,0
178,1180301039396,新規,0,2025-01-07,2025-01-07,株式会社Ｖｅｃｔｏｒ　Ｌｉｆｅ　Ｊａｐａｎ,,株式会社,愛知県,額田郡幸田町,大字大草字北谷道７９番地,,23,501,4440103,,,,,,,2025-01-07,1,,,,,ベクトルライフジャパン,0
179,1180301039405,新規,0,2025-01-07,2025-01-07,株式会社庄島商事,,株式会社,愛知県,豊田市,駒場町雲目１７番地,,23,211,4730925,,,,,,,2025-01-07,1,,,,,ショウジマショウジ,0
180,1180303006386,新規,0,2025-01-07,2025-01-07,ＢＩＧ　ＢＲＩＤＧＥ合同会社,,合同会社,愛知県,西尾市,楠村町北荒子１１番地７,,23,213,4440325,,,,,,,2025-01-07,1,,,,,ビッグブリッジ,0
183,1200001043290,新規,0,2025-01-07,2025-01-07,株式会社Ｎｅｘｔ　ｂｅ,,株式会社,岐阜県,美濃加茂市,太田町４１番地,,21,211,5050041,,,,,,,2025-01-07,1,,,,,ネクストビー,0
189,1210001020017,新規,0,2025-01-07,2025-01-07,株式会社みきのや,,株式会社,福井県,鯖江市,東米岡１丁目４番１１号,,18,207,9160012,,,,,,,2025-01-07,1,,,,,ミキノヤ,0
194,1240001064309,新規,0,2025-01-07,2025-01-07,Ｙ’ｓ株式会社,,株式会社,広島県,尾道市,因島中庄２３９４番地２,,34,205,7220000,,,,,,,2025-01-07,1,,,,,ワイズ,0
197,1260001039770,新規,0,2025-01-07,2025-01-07,株式会社ＮＥＶＥＲ　ＥＮＯＵＧＨ,,株式会社,岡山県,岡山市北区,田町２丁目３番１３号,,33,101,7000825,,,,,,,2025-01-07,1,,,,,ネバーイナフ,0
198,1260001039779,新規,0,2025-01-07,2025-01-07,瀬戸内建築株式会社,,株式会社,岡山県,瀬戸内市,邑久町山田庄１２０番地１８,,33,212,7014246,,,,,,,2025-01-07,1,,,,,セトウチケンチク,0
204,1290001108449,新規,0,2025-01-07,2025-01-07,株式会社壺やフーズ,,株式会社,福岡県,福岡市早良区,西新５丁目６番６号,,40,137,8140002,,,,,,,2025-01-07,1,,,,,ツボヤフーズ,0
205,1290001108465,新規,0,2025-01-07,2025-01-07,株式会社木,,株式会社,福岡県,宗像市,赤間３丁目９番１号ロイヤルタワーパーク赤間１－Ａ,,40,220,8114146,,,,,,,2025-01-07,1,,,,,モク,0
206,1290001108473,新規,0,2025-01-07,2025-01-07,株式会社メディカループ,,株式会社,福岡県,福岡市博多区,東光寺町２丁目１番２６号,,40,132,8120896,,,,,,,2025-01-07,1,,,,,メディカループ,0
207,1290001108507,新規,0,2025-01-07,2025-01-07,檸檬の株式会社,,株式会社,福岡県,福岡市中央区,薬院３丁目９－８薬院ウエストヴィレッジ２Ｆ,,40,133,8100022,,,,,,,2025-01-07,1,,,,,レモンノ,0
212,1290801031156,新規,0,2025-01-07,2025-01-07,株式会社ＳＩＸＴＹ　ＢＲＯＴＨＥＲＺ,,株式会社,福岡県,北九州市若松区,塩屋４丁目２３番１６号,,40,103,8080131,,,,,,,2025-01-07,1,,,,,シックスティブラザーズ,0
213,1290801031172,新規,0,2025-01-07,2025-01-07,株式会社Ｐｉａｌｉｓ,,株式会社,福岡県,北九州市小倉南区,徳力１丁目１３番６－２０２号,,40,107,8020974,,,,,,,2025-01-07,1,,,,,ピアリス,0
220,1310003004916,新規,0,2025-01-07,2025-01-07,合同会社ｓｅｒｅｎｅ,,合同会社,長崎県,諫早市,山川町３６番地２,,42,204,8540074,,,,,,,2025-01-07,1,,,,,セリーン,0
221,1320003004551,新規,0,2025-01-07,2025-01-07,合同会社ＬＧ．ｄｎ,,合同会社,大分県,大分市,西新地１丁目１番３８号リベラル大洲１０７,,44,201,8700901,,,,,,,2025-01-07,1,,,,,レフトゴロドットディーエヌ,0
223,1330001032768,新規,0,2025-01-07,2025-01-07,株式会社悠設,,株式会社,熊本県,熊本市東区,下江津４丁目７番６号,,43,102,8620960,,,,,,,2025-01-07,1,,,,,ユウセツ,0
225,1330003010706,新規,0,2025-01-07,2025-01-07,ワールドコネクトニッポン合同会社,,合同会社,熊本県,熊本市中央区,中央街４－２６フローラ銀座ビル２０１号,,43,101,8600802,,,,,,,2025-01-07,1,,,,,ワールドコネクトニッポン,0
233,1340003004707,新規,0,2025-01-07,2025-01-07,ＭａｒｉＧｏｌｄ合同会社,,合同会社,鹿児島県,鹿児島市,郡元２丁目２番２４号,,46,201,8900065,,,,,,,2025-01-07,1,,,,,マリーゴールド,0
234,1350001019334,新規,0,2025-01-07,2025-01-07,株式会社エスポワール,,株式会社,宮崎県,宮崎市,堀川町１１番地２,,45,201,8800873,,,,,,,2025-01-07,1,,,,,エスポワール,0
235,1350001019342,新規,0,2025-01-07,2025-01-07,株式会社ＣＡ‐ＲＯ,,株式会社,宮崎県,宮崎市,恒久南３丁目１２番地２４,,45,201,8800915,,,,,,,2025-01-07,1,,,,,カーロ,0
236,1360001034588,新規,0,2025-01-07,2025-01-07,株式会社大志,,株式会社,沖縄県,宜野湾市,普天間２丁目３１番１１号恵アパート２０１号,,47,205,9012202,,,,,,,2025-01-07,1,,,,,タイシ,0
237,1360001034621,新規,0,2025-01-07,2025-01-07,Ｉｎｃｕｂａｔｅ　Ｉｄｅａ株式会社,,株式会社,沖縄県,宜野湾市,我如古２丁目１番１６号スフェレ．デル．ドラゴＩＩ２０１,00137519,47,205,9012214,,,,,,,2025-01-07,1,,,,,インキュベートアイディア,0
238,1360003014555,新規,0,2025-01-07,2025-01-07,合同会社結円,,合同会社,沖縄県,うるま市,石川東山２丁目２２番地１－２Ｆ,,47,213,9041102,,,,,,,2025-01-07,1,,,,,ユイマアル,0
239,1360003014563,新規,0,2025-01-07,2025-01-07,合同会社未来計画,,合同会社,沖縄県,島尻郡南風原町,字宮平３９９番地７,,47,350,9011104,,,,,,,2025-01-07,1,,,,,ミライケイカク,0
240,1360003014571,新規,0,2025-01-07,2025-01-07,合同会社ハンブルライト,,合同会社,沖縄県,那覇市,牧志２丁目１７ー２７ー４０１,,47,201,9000013,,,,,,,2025-01-07,1,,,,,ハンブルライト,0
246,1380001035007,新規,0,2025-01-07,2025-01-07,株式会社ＨＬＢ総業,,株式会社,福島県,郡山市,富久山町福原字左内９０番地の２,,07,203,9638061,,,,,,,2025-01-07,1,,,,,エイチエルビーソウギョウ,0
247,1380003005924,新規,0,2025-01-07,2025-01-07,合同会社おこしたい,,合同会社,福島県,石川郡玉川村,大字蒜生字羽根石１２８番地の１コート・グレアＩＩＩ２０２号,00137520,07,502,9636314,,,,,,,2025-01-07,1,,,,,オコシタイ,0
249,1390003002334,新規,0,2025-01-07,2025-01-07,合同会社ツナギヤ,,合同会社,山形県,鶴岡市,本町１丁目４番３５号,,06,203,9970034,,,,,,,2025-01-07,1,,,,,ツナギヤ,0
251,1410001014023,新規,0,2025-01-07,2025-01-07,株式会社インテリジェンス,,株式会社,秋田県,山本郡三種町,鹿渡字焼野１６９番地１,,05,348,0182104,,,,,,,2025-01-07,1,,,,,インテリジェンス,0
253,1420001018964,新規,0,2025-01-07,2025-01-07,山竹猪農業株式会社,,株式会社,青森県,青森市,浪岡大字女鹿沢字西花岡５４番地２,,02,201,0381331,,,,,,,2025-01-07,1,,,,,ヤマタケイノウギョウ,0
264,1440001009549,新規,0,2025-01-07,2025-01-07,株式会社ＲｉＴＡ,,株式会社,北海道,函館市,桔梗町４１８番地４０９,,01,202,0410801,,,,,,,2025-01-07,1,,,,,リタ,0
267,1500001026050,新規,0,2025-01-07,2025-01-07,株式会社ＧＯＲＩＬＬＡ,,株式会社,愛媛県,松山市,道後喜多町８番８号,,38,201,7900848,,,,,,,2025-01-07,1,,,,,ゴリラ,0
269,1700150031104,新規,0,2025-01-07,2015-10-09,滋賀県学校保健会,,その他,滋賀県,大津市,京町４丁目１－１県　教育委員会事務局　保健体育課　内,,25,201,5200044,,,,,,,2015-10-09,1,,,,,シガケンガツコウホケンカイ,0
283,2010001250954,新規,0,2025-01-07,2025-01-07,フロンティアパワーアジア株式会社,,株式会社,東京都,千代田区,九段南１丁目５番６号りそな九段ビル５Ｆ,,13,101,1020074,,,,,,,2025-01-07,1,,,,,フロンティアパワーアジア,0
284,2010001251060,新規,0,2025-01-07,2025-01-07,株式会社ＣＳＣプロモーション,,株式会社,東京都,千代田区,麹町３丁目５番地２,,13,101,1020083,,,,,,,2025-01-07,1,,,,,シーエスシープロモーション,0
285,2010001251069,新規,0,2025-01-07,2025-01-07,株式会社ＳａｋＡＩ　Ｎｅｘｕｓ,,株式会社,東京都,中央区,銀座８丁目１０－５ＤＥＮＳＡＮビルＧ－１１５７１６,,13,102,1040061,,,,,,,2025-01-07,1,,,,,サカイネクサス,0
291,2010003045956,新規,0,2025-01-07,2025-01-07,合同会社ハンブンコ,,合同会社,東京都,中央区,銀座１丁目２２番１１号２階,,13,102,1040061,,,,,,,2025-01-07,1,,,,,ハンブンコ,0
294,2010005039345,新規,0,2025-01-07,2025-01-07,Ｊｉｎｇｕｍａｅ１２３特定目的会社,,その他の設立登記法人,東京都,千代田区,霞が関３丁目２番５号,,13,101,1000013,,,,,,,2025-01-07,1,,,,,ジングウマエワンツースリー,0
295,2010005039353,新規,0,2025-01-07,2025-01-07,一般社団法人神社創建プロジェクト,,その他の設立登記法人,東京都,千代田区,神田須田町１丁目１６番５号,,13,101,1010041,,,,,,,2025-01-07,1,,,,,ジンジャソウケンプロジェクト,0
311,2010601066536,新規,0,2025-01-07,2025-01-07,株式会社ｉｔｏＡ,,株式会社,東京都,江東区,新砂３丁目４番３号,,13,108,1360075,,,,,,,2025-01-07,1,,,,,イトア,0
312,2010601066544,新規,0,2025-01-07,2025-01-07,株式会社ふかがわ経営企画,,株式会社,東京都,江東区,富岡２丁目１１－１８リードシー門前仲町４Ｆ,,13,108,1350047,,,,,,,2025-01-07,1,,,,,フカガワケイエイキカク,0
313,2010603011309,新規,0,2025-01-07,2025-01-07,和雲合同会社,,合同会社,東京都,墨田区,太平２丁目１３－１１－３０２号トップ錦糸町,,13,107,1300012,,,,,,,2025-01-07,1,,,,,ワクモ,0
317,2010801035720,新規,0,2025-01-07,2025-01-07,株式会社ＲＥＳＨ,,株式会社,東京都,大田区,田園調布２丁目４０番８号,,13,111,1450071,,,,,,,2025-01-07,1,,,,,リッシュ,0
320,2010901056583,新規,0,2025-01-07,2025-01-07,株式会社ＨｉｉＬｕｎｅ,,株式会社,東京都,世田谷区,太子堂４丁目１８番１５号マガザン三軒茶屋２－３Ｆ－３,,13,112,1540004,,,,,,,2025-01-07,1,,,,,ヒールネ,0
321,2010901056591,新規,0,2025-01-07,2025-01-07,株式会社クーネクスト,,株式会社,東京都,世田谷区,上野毛４丁目２３番６号クランカ＃４,,13,112,1580093,,,,,,,2025-01-07,1,,,,,クーネクスト,0
326,2011001166612,新規,0,2025-01-07,2025-01-07,株式会社ＦＯＲＭＡＮＡ,,株式会社,東京都,渋谷区,道玄坂１丁目１０番８号渋谷道玄坂東急ビル２Ｆ－Ｃ,,13,113,1500043,,,,,,,2025-01-07,1,,,,,フォルマナ,0
327,2011001166629,新規,0,2025-01-07,2025-01-07,株式会社ＯＵＤ,,株式会社,東京都,渋谷区,恵比寿西２丁目８番４号ＥＸ恵比寿西ビル５階,,13,113,1500021,,,,,,,2025-01-07,1,,,,,ウード,0
328,2011001166744,新規,0,2025-01-07,2025-01-07,株式会社エビスワークス,,株式会社,東京都,渋谷区,代官山町９－１０（ＳｏｄａＣＣｏ）ｃｏ－ｌａｂ代官山,,13,113,1500034,,,,,,,2025-01-07,1,,,,,エビスワークス,0
329,2011001166793,新規,0,2025-01-07,2025-01-07,株式会社ＥＬＩＸＩＲ　ＬＡＢ,,株式会社,東京都,渋谷区,渋谷２丁目１９－１５宮益坂ビルディング６０９,,13,113,1500002,,,,,,,2025-01-07,1,,,,,エリクサーラボ,0
330,2011001166819,新規,0,2025-01-07,2025-01-07,株式会社ＢＥ　ＬＥＶＥＬ,,株式会社,東京都,渋谷区,千駄ヶ谷５丁目３０番１２号２Ｆ,,13,113,1510051,,,,,,,2025-01-07,1,,,,,ビーレベル,0
331,2011001166868,新規,0,2025-01-07,2025-01-07,ロクタル株式会社,,株式会社,東京都,渋谷区,道玄坂１丁目１０番８号渋谷道玄坂東急ビル２Ｆ－Ｃ,,13,113,1500043,,,,,,,2025-01-07,1,,,,,ロクタル,0
332,2011001166934,新規,0,2025-01-07,2025-01-07,株式会社ｃｏｕｌｅ７ｕｒ,,株式会社,東京都,渋谷区,恵比寿南２丁目４番１９号,,13,113,1500022,,,,,,,2025-01-07,1,,,,,クルール,0
333,2011001166967,新規,0,2025-01-07,2025-01-07,株式会社ＡＮＮＡ　ＣＨＯＩ,,株式会社,東京都,渋谷区,富ヶ谷１丁目７番９－２０１号,,13,113,1510063,,,,,,,2025-01-07,1,,,,,アンナチョイ,0
335,2011003020684,新規,0,2025-01-07,2025-01-07,野村農園合同会社,,合同会社,東京都,渋谷区,渋谷２丁目１９－１５宮益坂ビルディング６０９,,13,113,1500002,,,,,,,2025-01-07,1,,,,,ノムラノウエン,0
336,2011003020692,新規,0,2025-01-07,2025-01-07,Ｍｉｒａｃｕｌｕｍ合同会社,,合同会社,東京都,渋谷区,道玄坂１丁目１０番８号渋谷道玄坂東急ビル２Ｆ－Ｃ,,13,113,1500043,,,,,,,2025-01-07,1,,,,,ミラクルーム,0
337,2011003020718,新規,0,2025-01-07,2025-01-07,Ｖｅｌｖｅｔ　Ｕｎｄｅｒｇｒｏｕｎｄ合同会社,,合同会社,東京都,目黒区,東山２丁目２番５－１００６号,,13,110,1530043,,,,,,,2025-01-07,1,,,,,ヴェルヴェットアンダーグラウンド,0
338,2011003020750,新規,0,2025-01-07,2025-01-07,合同会社Ｆａｃｔｏｒｉａｌ,,合同会社,東京都,目黒区,青葉台１丁目１１番１４号,,13,110,1530042,,,,,,,2025-01-07,1,,,,,ファクトリアル,0
343,2011101109958,新規,0,2025-01-07,2025-01-07,ＥＹＥ商事株式会社,,株式会社,東京都,新宿区,中落合２丁目２３番１４号,,13,104,1610032,,,,,,,2025-01-07,1,,,,,アイショウジ,0
344,2011101110131,新規,0,2025-01-07,2025-01-07,Ｒｅｖｅｒｓａｌ株式会社,,株式会社,東京都,新宿区,大京町２６－１－９０９,,13,104,1600015,,,,,,,2025-01-07,1,,,,,リバーサル,0
346,2011701027948,新規,0,2025-01-07,2025-01-07,株式会社アロマジャパン,,株式会社,東京都,江戸川区,中葛西８丁目７番７号,,13,123,1340083,,,,,,,2025-01-07,1,,,,,アロマジャパン,0
351,2012803003589,新規,0,2025-01-07,2025-01-07,２２Ｂａｋｅｒｙ合同会社,,合同会社,東京都,国分寺市,富士本１丁目２２番地３－１０１号,,13,214,1850031,,,,,,,2025-01-07,1,,,,,ニーニーベーカリー,0
352,2013301053597,新規,0,2025-01-07,2025-01-07,株式会社ＯＫＡＭＯＴＯ,,株式会社,東京都,豊島区,西池袋２丁目２９号１１番エルフ池袋１Ｆ－１,,13,116,1710021,,,,,,,2025-01-07,1,,,,,オカモト,0
353,2013303007460,新規,0,2025-01-07,2025-01-07,Ｌｉｙａｎａｇｅ　Ａｕｔｏ　Ｔｒａｄｉｎｇ合同会社,,合同会社,東京都,豊島区,南池袋１丁目９番１８号３３７号室,,13,116,1710022,,,,,,,2025-01-07,1,,,,,リヤナゲオートトレーディング,0
366,2021001084078,新規,0,2025-01-07,2025-01-07,普瑞時空信息技術株式会社,,株式会社,神奈川県,秦野市,南矢名２２２３番地の４東海ビル２０２Ａ,,14,211,2570003,,,,,,,2025-01-07,1,,,,,フズイジクウシンソクギジュツ,0
369,2030001164211,新規,0,2025-01-07,2025-01-07,株式会社セントソフィア浦和,,株式会社,埼玉県,さいたま市桜区,大字大久保領家７１４－４,,11,106,3380826,,,,,,,2025-01-07,1,,,,,セントソフィアウラワ,0
370,2030001164244,新規,0,2025-01-07,2025-01-07,株式会社ＢｉｎｄＷｏｒｋｅｒ,,株式会社,埼玉県,さいたま市南区,大字太田窪２８２１番地６,,11,108,3360015,,,,,,,2025-01-07,1,,,,,バインドワーカー,0
374,2030003025816,新規,0,2025-01-07,2025-01-07,共生システムアンドサービス合同会社,,合同会社,埼玉県,和光市,西大和団地４番２号コンフォール和光西大和３－５１０,,11,229,3510105,,,,,,,2025-01-07,1,,,,,キョウセイシステムアンドサービス,0
382,2040001136738,新規,0,2025-01-07,2025-01-07,株式会社ＳＵＰＥＲ　ＤＥＡＬＳ　ＡＵＴＯ　ＪＡＰＡＮ,,株式会社,千葉県,柏市,手賀１４２５番地１,,12,217,2701465,,,,,,,2025-01-07,1,,,,,スーパーディールズオートジャパン,0
383,2040001136746,新規,0,2025-01-07,2025-01-07,株式会社アキヨプロ,,株式会社,千葉県,千葉市若葉区,都賀の台１丁目３０番６号,,12,104,2640033,,,,,,,2025-01-07,1,,,,,アキヨプロ,0
384,2040001136770,新規,0,2025-01-07,2025-01-07,アール・エス・ベース株式会社,,株式会社,千葉県,野田市,岩名２０１５番地３９－３０２号,,12,208,2780055,,,,,,,2025-01-07,1,,,,,アールエスベース,0
385,2040001136779,新規,0,2025-01-07,2025-01-07,株式会社寿総業,,株式会社,千葉県,柏市,南逆井４丁目７番１８号,,12,217,2770043,,,,,,,2025-01-07,1,,,,,コトブキソウギョウ,0
386,2040001136837,新規,0,2025-01-07,2025-01-07,株式会社守備職人,,株式会社,千葉県,船橋市,馬込町１０１０番地３０,,12,204,2730851,,,,,,,2025-01-07,1,,,,,シュビショクニン,0
387,2040005022612,新規,0,2025-01-07,2025-01-07,一般社団法人ケイワイ共助・福祉会,,その他の設立登記法人,千葉県,松戸市,松戸１４５６番地,,12,207,2710092,,,,,,,2025-01-07,1,,,,,ケイワイキョウジョフクシカイ,0
389,2050001055937,新規,0,2025-01-07,2025-01-07,エナジーフロー株式会社,,株式会社,茨城県,水戸市,見川３丁目７５３番地３,,08,201,3100912,,,,,,,2025-01-07,1,,,,,エナジーフロー,0
390,2050001055945,新規,0,2025-01-07,2025-01-07,株式会社本多工業,,株式会社,茨城県,ひたちなか市,大字市毛１２３１番地６,,08,221,3120033,,,,,,,2025-01-07,1,,,,,ホンダコウギョウ,0
395,2060003005377,新規,0,2025-01-07,2025-01-07,合同会社皆川,,合同会社,栃木県,矢板市,木幡２５８６番地２,,09,211,3292142,,,,,,,2025-01-07,1,,,,,ミナガワ,0
399,2080101025226,新規,0,2025-01-07,2025-01-07,株式会社ＨＢ,,株式会社,静岡県,富士市,厚原２１５６番地,,22,210,4190201,,,,,,,2025-01-07,1,,,,,エッチビー,0
401,2080401027649,新規,0,2025-01-07,2025-01-07,株式会社ＡＲＴ,,株式会社,静岡県,浜松市中央区,天王町７８１番地サンシャイン天王Ｉ１０３号室,00137518,22,138,4350052,,,,,,,2025-01-07,1,,,,,エーアールティー,0
402,2080401027657,新規,0,2025-01-07,2025-01-07,株式会社Ｂｌｕｅ　Ｆｉｅｌｄ　Ｆｉｔｎｅｓｓ,,株式会社,静岡県,浜松市浜名区,中瀬５０９７番地の１の１,,22,139,4340012,,,,,,,2025-01-07,1,,,,,ブルーフィールドフィットネス,0
405,2100001038176,新規,0,2025-01-07,2025-01-07,株式会社ＨＵＳＳＡＩＮ　ＴＲＡＤＩＮＧ,,株式会社,長野県,千曲市,大字力石１１番地,,20,218,3890824,,,,,,,2025-01-07,1,,,,,フセイントレーディング,0
407,2100005013274,新規,0,2025-01-07,2025-01-07,一般社団法人心身貢献寿命サポート協会,,その他の設立登記法人,長野県,須坂市,墨坂南３丁目５－２４,,20,207,3820098,,,,,,,2025-01-07,1,,,,,シンシンコウケンジュミョウサポートキョウカイ,0
409,2110001038976,新規,0,2025-01-07,2025-01-07,株式会社佐藤塾,,株式会社,新潟県,新潟市東区,太平４丁目６番地７,,15,102,9500005,,,,,,,2025-01-07,1,,,,,サトウジュク,0
410,2110005017167,新規,0,2025-01-07,2025-01-07,一般社団法人こどもおとなカレッジ,,その他の設立登記法人,新潟県,小千谷市,上ノ山１丁目１－２３,,15,208,9470026,,,,,,,2025-01-07,1,,,,,コドモオトナカレッジ,0
417,2120001271519,新規,0,2025-01-07,2025-01-07,株式会社Ｂｅｅ　ｑｕｉｃｋ,,株式会社,大阪府,寝屋川市,高宮栄町１９番１６号,,27,215,5720846,,,,,,,2025-01-07,1,,,,,ビークイック,0
418,2120001271667,新規,0,2025-01-07,2025-01-07,株式会社ＥＬＰＪ　ＴＥＣＨＮＯＬＯＧＹ,,株式会社,大阪府,大阪市天王寺区,堂ケ芝２丁目１４番８号西池ビル２０２,,27,109,5430033,,,,,,,2025-01-07,1,,,,,イーエルピージェイテクノロジー,0
419,2120001271683,新規,0,2025-01-07,2025-01-07,株式会社ＴＲＹＵＳ,,株式会社,大阪府,大阪市平野区,平野東４丁目７番５号,,27,126,5470043,,,,,,,2025-01-07,1,,,,,トライアス,0
423,2120003028280,新規,0,2025-01-07,2025-01-07,ＧｌｏｂａｌＳｕｐｐｏｒｔ合同会社,,合同会社,大阪府,大阪市東住吉区,桑津３丁目２６－２天王寺ジェイオ－ビル３階,,27,121,5460041,,,,,,,2025-01-07,1,,,,,グローバルサポート,0
424,2120005024690,新規,0,2025-01-07,2025-01-07,一般社団法人身長発育士協会,,その他の設立登記法人,大阪府,大阪市都島区,都島本通２丁目１５番１号宝コーポ２０３号,,27,102,5340021,,,,,,,2025-01-07,1,,,,,シンチョウハツイクシキョウカイ,0
430,2120901050229,新規,0,2025-01-07,2025-01-07,株式会社ＭＧＳ物流,,株式会社,大阪府,茨木市,横江１丁目６番１３号,,27,211,5670865,,,,,,,2025-01-07,1,,,,,エムジーエスブツリュウ,0
436,2130001078665,新規,0,2025-01-07,2025-01-07,株式会社オートソーイングソリューション,,株式会社,京都府,京都市下京区,仏光寺通烏丸東入上柳町３３１タカノハスクエア５４２号室,,26,106,6008099,,,,,,,2025-01-07,1,,,,,オートソーイングソリューション,0
437,2130001078707,新規,0,2025-01-07,2025-01-07,株式会社メルラボ,,株式会社,京都府,京都市下京区,小稲荷町８５－２Ｇｒａｎｄ－Ｋ京都駅前ビル２０１,,26,106,6008208,,,,,,,2025-01-07,1,,,,,メルラボ,0
438,2130003010097,新規,0,2025-01-07,2025-01-07,合同会社リーベ,,合同会社,京都府,京都市上京区,上御霊竪町４４７番地２５,,26,102,6020896,,,,,,,2025-01-07,1,,,,,リーベ,0
439,2130003010122,新規,0,2025-01-07,2025-01-07,合同会社電脳一屋,,合同会社,京都府,京都市伏見区,日野野色町８５－２６,,26,109,6011415,,,,,,,2025-01-07,1,,,,,デンノウハジメヤ,0
440,2130005017264,新規,0,2025-01-07,2025-01-07,一般社団法人ｎａｍｉｋａｚｅ　ｃｏｍｍｕｎｉｔｉｅｓ,,その他の設立登記法人,京都府,京都市上京区,千本通二条下る聚楽町８５０番地エクスフォート京都聚楽町２０４号室,,26,102,6028156,,,,,,,2025-01-07,1,,,,,ナミカゼコミュニティーズ,0
447,2140001136918,新規,0,2025-01-07,2025-01-07,株式会社ＴＥＮＫ,,株式会社,兵庫県,神戸市東灘区,住吉本町１丁目７番８号アバニティ住吉３ＦＡ,,28,101,6580051,,,,,,,2025-01-07,1,,,,,テンク,0
448,2140001136926,新規,0,2025-01-07,2025-01-07,株式会社Ｒｅ．Ｌｉｆｅ,,株式会社,兵庫県,加東市,天神１５２９番地,,28,228,6731311,,,,,,,2025-01-07,1,,,,,リライフ,0
449,2140003021473,新規,0,2025-01-07,2025-01-07,ＫＨＦ合同会社,,合同会社,兵庫県,神戸市垂水区,朝谷町１９番地の７,,28,108,6550862,,,,,,,2025-01-07,1,,,,,ケイエイチエフ,0
450,2140003021481,新規,0,2025-01-07,2025-01-07,合同会社天鐘,,合同会社,兵庫県,加古川市,平岡町新在家１７４５番地の３１１,,28,210,6750101,,,,,,,2025-01-07,1,,,,,テンショウ,0
453,2150001027793,新規,0,2025-01-07,2025-01-07,ハローグルーヴ株式会社,,株式会社,奈良県,生駒市,東生駒２丁目４０３番地１ＳＡＷＡＤＡビル２Ｆ,,29,209,6300213,,,,,,,2025-01-07,1,,,,,ハローグルーヴ,0
454,2150001027802,新規,0,2025-01-07,2025-01-07,株式会社大宮塗装,,株式会社,奈良県,奈良市,恋の窪２丁目３番１０号,,29,201,6308136,,,,,,,2025-01-07,1,,,,,オオミヤトソウ,0
458,2160001026456,新規,0,2025-01-07,2025-01-07,株式会社エミフェル,,株式会社,滋賀県,大津市,朝日が丘１丁目１５番２２号,,25,201,5200052,,,,,,,2025-01-07,1,,,,,エミフェル,0
459,2160001026464,新規,0,2025-01-07,2025-01-07,株式会社トモニ,,株式会社,滋賀県,近江八幡市,市井町５１番地１,,25,204,5230851,,,,,,,2025-01-07,1,,,,,トモニ,0
461,2170005007121,新規,0,2025-01-07,2025-01-07,一般社団法人和歌山メディカルネットワーク,,その他の設立登記法人,和歌山県,和歌山市,和歌浦東３丁目５番２９番地,,30,201,6410021,,,,,,,2025-01-07,1,,,,,ワカヤマメディカルネットワーク,0
464,2180001164758,新規,0,2025-01-07,2025-01-07,株式会社セカンド,,株式会社,愛知県,名古屋市中区,千代田３丁目１１番９号Ｔ＆Ｔビル２階,,23,106,4600012,,,,,,,2025-01-07,1,,,,,セカンド,0
465,2180001164774,新規,0,2025-01-07,2025-01-07,帝國住建株式会社,,株式会社,愛知県,名古屋市中村区,並木２丁目２２番地の２,,23,105,4530856,,,,,,,2025-01-07,1,,,,,テイコクジュウケン,0
466,2180001164782,新規,0,2025-01-07,2025-01-07,株式会社ＡＭＯＶＥ,,株式会社,愛知県,一宮市,島崎１丁目７－３,,23,203,4910834,,,,,,,2025-01-07,1,,,,,エイムーブ,0
467,2180001164832,新規,0,2025-01-07,2025-01-07,株式会社ｉｆｏｏｄｓ,,株式会社,愛知県,名古屋市中川区,吉津１丁目２１０９番地,,23,110,4540981,,,,,,,2025-01-07,1,,,,,アイフーズ,0
475,2180301039387,新規,0,2025-01-07,2025-01-07,株式会社ＴＲＡＮＳ,,株式会社,愛知県,岡崎市,稲熊町字５丁目１１５番地１,,23,202,4440071,,,,,,,2025-01-07,1,,,,,トランス,0
476,2180301039404,新規,0,2025-01-07,2025-01-07,Ｂｕｒｎｗｅｓｔ株式会社,,株式会社,愛知県,みよし市,三好町前部垣内１３番地１,,23,236,4700224,,,,,,,2025-01-07,1,,,,,バーンウエスト,0
477,2180301039412,新規,0,2025-01-07,2025-01-07,株式会社インテリアダイ,,株式会社,愛知県,豊橋市,西幸町字幸８５番地１,,23,201,4418113,,,,,,,2025-01-07,1,,,,,インテリアダイ,0
479,2190003004903,新規,0,2025-01-07,2025-01-07,中北商事合同会社,,合同会社,三重県,桑名市,大字小貝須４４７番地４,,24,205,5110841,,,,,,,2025-01-07,1,,,,,ナカキタショウジ,0
482,2210003001872,新規,0,2025-01-07,2025-01-07,合同会社ＨＹ資産管理,,合同会社,福井県,坂井市,三国町平山第５４号１番地,,18,210,9130004,,,,,,,2025-01-07,1,,,,,エイチワイシサンカンリ,0
487,2240001064349,新規,0,2025-01-07,2025-01-07,株式会社Ｃｏｎｔｒａｉｌ,,株式会社,広島県,広島市中区,東平塚町８番８号,,34,101,7300025,,,,,,,2025-01-07,1,,,,,コントレイル,0
491,2250001020953,新規,0,2025-01-07,2025-01-07,株式会社光正,,株式会社,山口県,光市,室積８丁目３番１号,,35,210,7430007,,,,,,,2025-01-07,1,,,,,コウセイ,0
504,2290001108506,新規,0,2025-01-07,2025-01-07,株式会社ｍｅｌｊｕ,,株式会社,福岡県,福岡市中央区,天神２丁目２番１２号Ｔ＆Ｊビルディング７Ｆ,,40,133,8100001,,,,,,,2025-01-07,1,,,,,メルジュ,0
505,2290003016244,新規,0,2025-01-07,2025-01-07,原翔合同会社,,合同会社,福岡県,福岡市西区,内浜２丁目１０番１９号,,40,135,8190005,,,,,,,2025-01-07,1,,,,,ハラショウ,0
507,2290801031171,新規,0,2025-01-07,2025-01-07,株式会社シティネット九州,,株式会社,福岡県,北九州市小倉北区,中井２丁目４番１－１３０２号,,40,106,8030836,,,,,,,2025-01-07,1,,,,,シティネットキュウシュウ,0
517,2330001032775,新規,0,2025-01-07,2025-01-07,日創エステート株式会社,,株式会社,熊本県,熊本市南区,田井島３丁目２番４８号１ＦＡ,,43,104,8620965,,,,,,,2025-01-07,1,,,,,ニッソウエステート,0
518,2330003010696,新規,0,2025-01-07,2025-01-07,合同会社白水会,,合同会社,熊本県,熊本市南区,南高江６丁目１９番７０号,,43,104,8614106,,,,,,,2025-01-07,1,,,,,ハクスイカイ,0
520,2350003004812,新規,0,2025-01-07,2025-01-07,合同会社七七七,,合同会社,宮崎県,都城市,牟田町２０街区１０号,,45,202,8850079,,,,,,,2025-01-07,1,,,,,キラク,0
522,2360001034620,新規,0,2025-01-07,2025-01-07,株式会社クリアランス,,株式会社,沖縄県,那覇市,安里１丁目２番６号,,47,201,9020067,,,,,,,2025-01-07,1,,,,,クリアランス,0
523,2360005007151,新規,0,2025-01-07,2025-01-07,リコンシル特定目的会社,,その他の設立登記法人,沖縄県,宮古島市,下地字与那覇１３８２番地１２,,47,214,9060305,,,,,,,2025-01-07,1,,,,,リコンシル,0
526,2370003006872,新規,0,2025-01-07,2025-01-07,合同会社Ｋｏｋｋｏ　Ｆａｒｍやまぎし,,合同会社,宮城県,遠田郡涌谷町,字北田１５９番地２,,04,501,9870131,,,,,,,2025-01-07,1,,,,,コッコファームヤマギシ,0
527,2370003006880,新規,0,2025-01-07,2025-01-07,合同会社東北自然腸活ラボ,,合同会社,宮城県,仙台市太白区,柳生６丁目１３番地の１,,04,104,9811106,,,,,,,2025-01-07,1,,,,,トウホクシゼンチョウカツラボ,0
528,2380001035006,新規,0,2025-01-07,2025-01-07,株式会社ミルキーアセットカンパニー,,株式会社,福島県,郡山市,神明町５番３７号Ｄ’クラディア神明１１０１号,,07,203,9638013,,,,,,,2025-01-07,1,,,,,ミルキーアセットカンパニー,0
529,2400001016903,新規,0,2025-01-07,2025-01-07,喜乃食品株式会社,,株式会社,岩手県,盛岡市,南仙北２丁目１６番４１号,,03,201,0200863,,,,,,,2025-01-07,1,,,,,ヨシノショクヒン,0
530,2410001014022,新規,0,2025-01-07,2025-01-07,Ｆｉｒｍａ　Ｒ＆Ｄａｎｉｅｌ株式会社,,株式会社,秋田県,能代市,万町２番２０号ＴＫビル１Ｆ,,05,202,0160804,,,,,,,2025-01-07,1,,,,,フィルマアールアンドダニエル,0
531,2420001018963,新規,0,2025-01-07,2025-01-07,株式会社ＧＯＯＤ　ＬＯＯＰ,,株式会社,青森県,平川市,碇ヶ関湯向川添２９番地４,,02,210,0380101,,,,,,,2025-01-07,1,,,,,グッドループ,0
536,2430001093403,新規,0,2025-01-07,2025-01-07,株式会社ベンチマーク,,株式会社,北海道,石狩市,花川南八条３丁目３７０番地,,01,235,0613208,,,,,,,2025-01-07,1,,,,,ベンチマーク,0
537,2430001093436,新規,0,2025-01-07,2025-01-07,株式会社ヲタクエスト,,株式会社,北海道,札幌市中央区,北五条西１１丁目１５－４,,01,101,0600005,,,,,,,2025-01-07,1,,,,,ヲタクエスト,0
541,2430003017137,新規,0,2025-01-07,2025-01-07,合同会社ＳＥＳＳＩＯＮＳ,,合同会社,北海道,札幌市白石区,菊水一条１丁目３番１４号シティペトルシュカ１Ｆ,,01,104,0030801,,,,,,,2025-01-07,1,,,,,セッションズ,0
544,2460101007648,新規,0,2025-01-07,2025-01-07,株式会社雅商事,,株式会社,北海道,河西郡芽室町,東二条南７丁目１番地２,,01,637,0820052,,,,,,,2025-01-07,1,,,,,ミヤビショウジ,0
549,2470001020519,新規,0,2025-01-07,2025-01-07,株式会社藤本工業,,株式会社,香川県,高松市,高松町４６８番地３,,37,201,7610104,,,,,,,2025-01-07,1,,,,,フジモトコウギョウ,0
550,2470001020527,新規,0,2025-01-07,2025-01-07,ＳＴＥ株式会社,,株式会社,香川県,高松市,香西北町４９２番地７,,37,201,7618011,,,,,,,2025-01-07,1,,,,,,0
564,2500001026058,新規,0,2025-01-07,2025-01-07,ＷＡＴＥＲ　ＲＩＣＨ　ＦＩＥＬＤ株式会社,,株式会社,愛媛県,宇和島市,三間町迫目４２０番地,,38,203,7981113,,,,,,,2025-01-07,1,,,,,ウォーターリッチフィールド,0
577,3010001251051,新規,0,2025-01-07,2025-01-07,株式会社二二九七,,株式会社,東京都,千代田区,神田三崎町２丁目１０番１１号（Ｐｅｇビル）４Ａ－５号室,,13,101,1010061,,,,,,,2025-01-07,1,,,,,ツヅクナ,0
578,3010001251068,新規,0,2025-01-07,2025-01-07,陳家私菜株式会社,,株式会社,東京都,千代田区,丸の内３丁目７番１０号,,13,101,1000005,,,,,,,2025-01-07,1,,,,,チンカシサイ,0
579,3010001251076,新規,0,2025-01-07,2025-01-07,友南株式会社,,株式会社,東京都,中央区,日本橋浜町２丁目５７番１号ブリリアンス日本橋浜町公園２０５,,13,102,1030007,,,,,,,2025-01-07,1,,,,,ユウナン,0
580,3010001251084,新規,0,2025-01-07,2025-01-07,ＴＯＷＡ株式会社,,株式会社,東京都,中央区,日本橋室町１丁目１１番１２号日本橋水野ビル７階,,13,102,1030022,,,,,,,2025-01-07,1,,,,,トーワ,0
584,3010003045922,新規,0,2025-01-07,2025-01-07,合同会社ＳＵＮＮＹ＆ＧＯ,,合同会社,東京都,中央区,銀座１丁目２２番１１号２Ｆ,,13,102,1040061,,,,,,,2025-01-07,1,,,,,サニーアンドゴー,0
587,3010005039360,新規,0,2025-01-07,2025-01-07,一般社団法人ＧＡＲＮＥＴ０１,,その他の設立登記法人,東京都,千代田区,霞が関３丁目２番５号,,13,101,1000013,,,,,,,2025-01-07,1,,,,,ガーネットゼロワン,0
594,3010503007686,新規,0,2025-01-07,2025-01-07,合同会社Ｌｙｎｕｔｏ,,合同会社,東京都,台東区,浅草４丁目３３番９－６０３号,,13,106,1110032,,,,,,,2025-01-07,1,,,,,リニュート,0
596,3010601066527,新規,0,2025-01-07,2025-01-07,ダイヤモンドソリューションズ株式会社,,株式会社,東京都,江東区,新大橋１丁目１２番１３号,,13,108,1350007,,,,,,,2025-01-07,1,,,,,ダイヤモンドソリューションズ,0
597,3010601066535,新規,0,2025-01-07,2025-01-07,株式会社センコウ,,株式会社,東京都,墨田区,太平１丁目４番８号,,13,107,1300012,,,,,,,2025-01-07,1,,,,,センコウ,0
598,3010603011299,新規,0,2025-01-07,2025-01-07,合同会社７４Ｐｌｕｓ,,合同会社,東京都,墨田区,千歳１丁目５番１－４０７号,,13,107,1300025,,,,,,,2025-01-07,1,,,,,セブンフォープラス,0
599,3010605004400,新規,0,2025-01-07,2025-01-07,一般社団法人街いく探検隊,,その他の設立登記法人,東京都,江東区,豊洲４丁目９番１３－１３０３号,,13,108,1350061,,,,,,,2025-01-07,1,,,,,マチイクタンケンタイ,0
608,3010901056574,新規,0,2025-01-07,2025-01-07,株式会社りぼん事務所,,株式会社,東京都,世田谷区,奥沢１丁目５番９号,,13,112,1580083,,,,,,,2025-01-07,1,,,,,リボンジムショ,0
609,3010901056582,新規,0,2025-01-07,2025-01-07,株式会社ＴＯＺ,,株式会社,東京都,世田谷区,上祖師谷７丁目２８－１５,,13,112,1570065,,,,,,,2025-01-07,1,,,,,ティーオーゼット,0
613,3011001166801,新規,0,2025-01-07,2025-01-07,株式会社ｓＭＹｌｅ,,株式会社,東京都,目黒区,下目黒２丁目２番２号,,13,110,1530064,,,,,,,2025-01-07,1,,,,,スマイル,0
614,3011001166850,新規,0,2025-01-07,2025-01-07,ＴＧＨ株式会社,,株式会社,東京都,渋谷区,富ヶ谷１丁目４９番２１－１５０９号,,13,113,1510063,,,,,,,2025-01-07,1,,,,,ティージーエイチ,0
615,3011001166900,新規,0,2025-01-07,2025-01-07,株式会社ＡＫＹＯ,,株式会社,東京都,渋谷区,道玄坂１丁目１６番６号二葉ビル８ｂ,,13,113,1500043,,,,,,,2025-01-07,1,,,,,アキョウ,0
616,3011001166917,新規,0,2025-01-07,2025-01-07,株式会社ＲＥＰＡＮ,,株式会社,東京都,目黒区,下目黒１丁目１番１４号コノトラビル７Ｆ,,13,110,1530064,,,,,,,2025-01-07,1,,,,,レパン,0
617,3011003020691,新規,0,2025-01-07,2025-01-07,合同会社ハレハル,,合同会社,東京都,渋谷区,道玄坂１丁目１０番８号渋谷道玄坂東急ビル２Ｆ－Ｃ,,13,113,1500043,,,,,,,2025-01-07,1,,,,,ハレハル,0
620,3011101110139,新規,0,2025-01-07,2025-01-07,株式会社ネオリアル,,株式会社,東京都,新宿区,歌舞伎町２丁目１４番８号７階Ｌｉｌｙ＆Ｌｏｔｕｓ内,,13,104,1600021,,,,,,,2025-01-07,1,,,,,ネオリアル,0
621,3011101110171,新規,0,2025-01-07,2025-01-07,株式会社ＢＯＳパートナーズ,,株式会社,東京都,新宿区,高田馬場１丁目１６番２１号,,13,104,1690075,,,,,,,2025-01-07,1,,,,,ビーオーエスパートナーズ,0
627,3011401026704,新規,0,2025-01-07,2025-01-07,株式会社セントソフィア東京,,株式会社,東京都,板橋区,赤塚５丁目１６－９,,13,119,1750092,,,,,,,2025-01-07,1,,,,,セントソフィアトウキョウ,0
628,3011401026712,新規,0,2025-01-07,2025-01-07,株式会社ヴィトラス,,株式会社,東京都,板橋区,小豆沢２丁目２２番１６号,,13,119,1740051,,,,,,,2025-01-07,1,,,,,ヴィトラス,0
629,3011501031554,新規,0,2025-01-07,2025-01-07,ｋＲｍ株式会社,,株式会社,東京都,北区,浮間１丁目１５番１２号,,13,117,1150051,,,,,,,2025-01-07,1,,,,,クルム,0
630,3011701027939,新規,0,2025-01-07,2025-01-07,ディアーズ株式会社,,株式会社,東京都,江戸川区,船堀２丁目７番３３号,,13,123,1340091,,,,,,,2025-01-07,1,,,,,ディアーズ,0
631,3011701027947,新規,0,2025-01-07,2025-01-07,江刺功業株式会社,,株式会社,東京都,江戸川区,江戸川１丁目１４番２９号,,13,123,1320013,,,,,,,2025-01-07,1,,,,,エサシコウギョウ,0
634,3012301014212,新規,0,2025-01-07,2025-01-07,株式会社４４２,,株式会社,東京都,町田市,小野路町２４１９番地１,,13,209,1950064,,,,,,,2025-01-07,1,,,,,ヨンヨンニ,0
636,3012401042617,新規,0,2025-01-07,2025-01-07,株式会社ＴＯＫＹＯ　ＮＯＫＡ,,株式会社,東京都,調布市,深大寺南町４丁目３７番地４,,13,208,1820013,,,,,,,2025-01-07,1,,,,,トウキョウノウカ,0
642,3012801023670,新規,0,2025-01-07,2025-01-07,株式会社ＰＨＥＭＥ,,株式会社,東京都,立川市,曙町２丁目３２番３号立川三和ビル１０１,,13,202,1900012,,,,,,,2025-01-07,1,,,,,フェメ,0
643,3012803003596,新規,0,2025-01-07,2025-01-07,Ｙｏｕ＆Ｙｏｕ合同会社,,合同会社,東京都,国分寺市,光町１丁目４２番地２２ルーチェ国立ノード３０５,,13,214,1850034,,,,,,,2025-01-07,1,,,,,ユーアンドユー,0
646,3013301053596,新規,0,2025-01-07,2025-01-07,株式会社ハンドネクスト不動産,,株式会社,東京都,豊島区,池袋２丁目３３番８号,,13,116,1710014,,,,,,,2025-01-07,1,,,,,ハンドネクストフドウサン,0
653,3020001160730,新規,0,2025-01-07,2025-01-07,株式会社ＫＡＩＹＯＳＥ　Ｗｏｒｋｓ,,株式会社,神奈川県,横浜市緑区,寺山町５２５番地２１,,14,113,2260013,,,,,,,2025-01-07,1,,,,,カイヨセワークス,0
657,3020005016672,新規,0,2025-01-07,2025-01-07,特定非営利活動法人とろっこ,,その他の設立登記法人,神奈川県,横浜市旭区,鶴ケ峰本町１丁目２番１０号２階,,14,112,2410021,,,,,,,2025-01-07,1,,,,,トロッコ,0
663,3030001164219,新規,0,2025-01-07,2025-01-07,株式会社ＲｅＮｅｘｔ,,株式会社,埼玉県,越谷市,大字南荻島３７２５番地１－Ｂ１０１,,11,222,3430804,,,,,,,2025-01-07,1,,,,,リネクスト,0
664,3030001164243,新規,0,2025-01-07,2025-01-07,株式会社クラシ,,株式会社,埼玉県,草加市,吉町２丁目２－１０,,11,221,3400017,,,,,,,2025-01-07,1,,,,,クラシ,0
667,3030003025807,新規,0,2025-01-07,2025-01-07,合同会社ｐｒｅｓｅｎｔ,,合同会社,埼玉県,蓮田市,見沼町８番地１９号,,11,238,3490127,,,,,,,2025-01-07,1,,,,,プレゼント,0
669,3040001136729,新規,0,2025-01-07,2025-01-07,株式会社アドバンスジャパン,,株式会社,千葉県,我孫子市,南新木１丁目３８番地の１０,,12,222,2701119,,,,,,,2025-01-07,1,,,,,アドバンスジャパン,0
670,3040001136778,新規,0,2025-01-07,2025-01-07,株式会社ｓｅａｓｗｅｅｔ,,株式会社,千葉県,長生郡一宮町,東浪見７１８０番地１アクアマリンセカンド１０２,,12,421,2994303,,,,,,,2025-01-07,1,,,,,シィースウィート,0
671,3040001136836,新規,0,2025-01-07,2025-01-07,サクナ株式会社,,株式会社,千葉県,柏市,南増尾２丁目３番１３号,,12,217,2770054,,,,,,,2025-01-07,1,,,,,サクナ,0
672,3040001136844,新規,0,2025-01-07,2025-01-07,株式会社Ｎｅｘｔ　Ｍｏｍｅｎｔ,,株式会社,千葉県,千葉市中央区,弁天３丁目２番１５号,,12,101,2600045,,,,,,,2025-01-07,1,,,,,ネクストモーメント,0
674,3040003026507,新規,0,2025-01-07,2025-01-07,合同会社ＭＯＯＮ　ＡＲＣ　Ｃｏｍｐａｎｙ,,合同会社,千葉県,市原市,姉崎西２丁目９番地９リヴィエール内藤１０２号室,,12,219,2990119,,,,,,,2025-01-07,1,,,,,ムーンアークカンパニー,0
675,3040003026523,新規,0,2025-01-07,2025-01-07,ＪＭＡ合同会社,,合同会社,千葉県,長生郡一宮町,東野１５番地２４,,12,421,2994306,,,,,,,2025-01-07,1,,,,,ジェイエムエー,0
679,3050001055944,新規,0,2025-01-07,2025-01-07,株式会社Ｒｅｈａ　Ｃａｍｐ,,株式会社,茨城県,つくば市,みどりの中央１４番地５５,,08,220,3050882,,,,,,,2025-01-07,1,,,,,リハキャンプ,0
680,3050001055952,新規,0,2025-01-07,2025-01-07,東京ガス日立リビングサービス株式会社,,株式会社,茨城県,日立市,幸町１丁目２２番２号,,08,202,3170073,,,,,,,2025-01-07,1,,,,,トウキョウガスヒタチリビングサービス,0
681,3050001055960,新規,0,2025-01-07,2025-01-07,株式会社シルクマテリアル,,株式会社,茨城県,結城市,大字久保田１８０番地２,,08,207,3070012,,,,,,,2025-01-07,1,,,,,シルクマテリアル,0
682,3060001037776,新規,0,2025-01-07,2025-01-07,株式会社よぴ,,株式会社,栃木県,矢板市,中２０１２番地２０,,09,211,3292135,,,,,,,2025-01-07,1,,,,,ヨピ,0
691,3080005007658,新規,0,2025-01-07,2025-01-07,一般社団法人Ｄｅｅｐ　Ｚｅａｌ,,その他の設立登記法人,静岡県,静岡市駿河区,谷田７番２０号ＭＡＰＬＥ・ＹＡＤＡ、ＦＩＩ２０３,00137541,22,102,4228002,,,,,,,2025-01-07,1,,,,,ディープジール,0
692,3080101025225,新規,0,2025-01-07,2025-01-07,株式会社アンポンヨコハマ,,株式会社,静岡県,富士市,中央町３丁目２番３号,,22,210,4170052,,,,,,,2025-01-07,1,,,,,アンポンヨコハマ,0
695,3080401027664,新規,0,2025-01-07,2025-01-07,株式会社伊藤会計,,株式会社,静岡県,浜松市中央区,松城町２０８番地の６、３Ｆ,,22,138,4300947,,,,,,,2025-01-07,1,,,,,イトウカイケイ,0
696,3080403005172,新規,0,2025-01-07,2025-01-07,ＨＩＭＡＮＣＨＵ合同会社,,合同会社,静岡県,磐田市,中泉１２６７番地の４昭和ビル３０７号室,,22,211,4380078,,,,,,,2025-01-07,1,,,,,ヒマンツ,0
700,3110003005619,新規,0,2025-01-07,2025-01-07,合同会社工房ゆめ色パレット,,合同会社,新潟県,長岡市,来迎寺甲２６６４番地１９,,15,202,9495411,,,,,,,2025-01-07,1,,,,,コウボウユメイロパレット,0
713,3120001271435,新規,0,2025-01-07,2025-01-07,株式会社エクセレンス,,株式会社,大阪府,大阪市港区,南市岡１丁目８番２２号内田文化１０１Ｃ,,27,107,5520011,,,,,,,2025-01-07,1,,,,,エクセレンス,0
714,3120001271526,新規,0,2025-01-07,2025-01-07,株式会社Ｌｉｅｎ,,株式会社,大阪府,大阪市天王寺区,上汐５丁目７番１１－８０１号,,27,109,5430002,,,,,,,2025-01-07,1,,,,,リアン,0
715,3120001271534,新規,0,2025-01-07,2025-01-07,Ａ　Ｄｅｎｔａｌ　Ｌａｂ株式会社,,株式会社,大阪府,大阪市中央区,谷町６丁目３番１９号,,27,128,5420012,,,,,,,2025-01-07,1,,,,,アデンタルラボ,0
716,3120001271575,新規,0,2025-01-07,2025-01-07,株式会社くるり,,株式会社,大阪府,大阪市西区,靱本町１丁目１４番１９号清記ビル４階西館北室,,27,106,5500004,,,,,,,2025-01-07,1,,,,,クルリ,0
717,3120001271583,新規,0,2025-01-07,2025-01-07,株式会社結聯堂,,株式会社,大阪府,大阪市西成区,玉出中２丁目９番６－１０１号,,27,122,5570044,,,,,,,2025-01-07,1,,,,,ケツレンドウ,0
718,3120001271600,新規,0,2025-01-07,2025-01-07,ＧＦコミュニティ株式会社,,株式会社,大阪府,大阪市中央区,玉造１丁目２１番１７号,,27,128,5400004,,,,,,,2025-01-07,1,,,,,ジーエフコミュニティ,0
719,3120001271633,新規,0,2025-01-07,2025-01-07,朝田株式会社,,株式会社,大阪府,大阪市北区,西天満５丁目１５－８－４Ｆ,,27,127,5300047,,,,,,,2025-01-07,1,,,,,アサダ,0
720,3120003028239,新規,0,2025-01-07,2025-01-07,合同会社むすび,,合同会社,大阪府,寝屋川市,秦町２０番４－１０３号,,27,215,5720848,,,,,,,2025-01-07,1,,,,,ムスビ,0
721,3120005024673,新規,0,2025-01-07,2025-01-07,一般社団法人ＷＢＪ,,その他の設立登記法人,大阪府,大阪市阿倍野区,西田辺町１丁目８番１３号,,27,119,5450014,,,,,,,2025-01-07,1,,,,,ウェルビーイングサポートジャパン,0
722,3120005024681,新規,0,2025-01-07,2025-01-07,一般社団法人全日本インバウンド協会,,その他の設立登記法人,大阪府,大阪市中央区,南船場４丁目１０番５号南船場ＳＯＨＯビル７０２,,27,128,5420081,,,,,,,2025-01-07,1,,,,,ゼンニホンインバウンドキョウカイ,0
725,3120101070844,新規,0,2025-01-07,2025-01-07,農家井ノ元株式会社,,株式会社,大阪府,和泉市,仏並町５４３番地の３,,27,219,5941136,,,,,,,2025-01-07,1,,,,,ノウカイノモト,0
728,3120901050236,新規,0,2025-01-07,2025-01-07,株式会社エヌワイ設備,,株式会社,大阪府,豊中市,上野東３丁目１７番３６号,,27,203,5600013,,,,,,,2025-01-07,1,,,,,エヌワイセツビ,0
729,3120901050252,新規,0,2025-01-07,2025-01-07,株式会社みけしゅん,,株式会社,大阪府,豊中市,柴原町２丁目１２番１２号,,27,203,5600055,,,,,,,2025-01-07,1,,,,,ミケシュン,0
730,3120903005493,新規,0,2025-01-07,2025-01-07,合同会社ミチコンサルティング,,合同会社,大阪府,豊中市,永楽荘１丁目１５番１２号,,27,203,5600051,,,,,,,2025-01-07,1,,,,,ミチコンサルティング,0
734,3130003010105,新規,0,2025-01-07,2025-01-07,Ｂ＆Ｂ　ＧＬＯＢＡＬ　ＩＭＰＥＸ合同会社,,合同会社,京都府,綾部市,位田町田岸４８番地,,26,203,6230221,,,,,,,2025-01-07,1,,,,,ビーアンドビーグローバルインペックス,0
735,3130005017263,新規,0,2025-01-07,2025-01-07,特定非営利活動法人Ｄｈａｍｍａ　Ｒｕｋｋｈａ,,その他の設立登記法人,京都府,京都市左京区,田中西浦町４１番地第八若竹寮６号室,,26,103,6068217,,,,,,,2025-01-07,1,,,,,ダンマルッカ,0
737,3140001136941,新規,0,2025-01-07,2025-01-07,株式会社Ａｉｌｅ,,株式会社,兵庫県,養父市,大屋町筏３００番地,,28,222,6670322,,,,,,,2025-01-07,1,,,,,エイル,0
738,3140003021431,新規,0,2025-01-07,2025-01-07,堀オーソドンティクス合同会社,,合同会社,兵庫県,淡路市,志筑７３３－２１,,28,226,6562131,,,,,,,2025-01-07,1,,,,,ホリオーソドンティクス,0
739,3140003021480,新規,0,2025-01-07,2025-01-07,合同会社ＭＵＰＵＰＩ,,合同会社,兵庫県,西宮市,松園町１０番５１号,,28,204,6620053,,,,,,,2025-01-07,1,,,,,ムプピ,0
740,3140003021497,新規,0,2025-01-07,2025-01-07,合同会社ＺＥＲＯ,,合同会社,兵庫県,姫路市,阿保甲９０番地１,,28,201,6700944,,,,,,,2025-01-07,1,,,,,ゼロ,0
744,3150005009655,新規,0,2025-01-07,2025-01-07,一般社団法人奈良先端医工科学連携機構,,その他の設立登記法人,奈良県,生駒市,高山町８９１６番地の５,,29,209,6300101,,,,,,,2025-01-07,1,,,,,ナラセンタンイコウカガクレンケイキコウ,0
748,3170001018435,新規,0,2025-01-07,2025-01-07,株式会社ライフサポートあゆみ,,株式会社,和歌山県,紀の川市,粉河５４４番地３,,30,208,6496531,,,,,,,2025-01-07,1,,,,,ライフサポートアユミ,0
749,3170003002148,新規,0,2025-01-07,2025-01-07,合同会社ＭＣＬ,,合同会社,和歌山県,和歌山市,伝法橋南ノ丁６番５号,,30,201,6408204,,,,,,,2025-01-07,1,,,,,エムシーエル,0
756,3180001164682,新規,0,2025-01-07,2025-01-07,ＬＧＨ株式会社,,株式会社,愛知県,名古屋市名東区,牧の原１丁目１４０２番地の１,,23,115,4650072,,,,,,,2025-01-07,1,,,,,エルジーエイチ,0
757,3180001164740,新規,0,2025-01-07,2025-01-07,株式会社Ｓｈａｌｌｏｗｅｌｌ,,株式会社,愛知県,名古屋市天白区,元植田１丁目１７０４番地の１,,23,116,4680009,,,,,,,2025-01-07,1,,,,,シャロウェル,0
758,3180001164773,新規,0,2025-01-07,2025-01-07,株式会社アバンダンスファーム,,株式会社,愛知県,小牧市,城山１丁目５番地１サンハイツ中央台Ｄ棟５０１号,,23,219,4850812,,,,,,,2025-01-07,1,,,,,アバンダンスファーム,0
761,3180003027821,新規,0,2025-01-07,2025-01-07,合同会社縁ムスビ,,合同会社,愛知県,名古屋市中村区,名駅４丁目２４番５号第２森ビル４０１,,23,105,4500002,,,,,,,2025-01-07,1,,,,,エンムスビ,0
762,3180005020898,新規,0,2025-01-07,2025-01-07,医療法人緑の風,,その他の設立登記法人,愛知県,一宮市,大和町苅安賀字山王２８番,,23,203,4910934,,,,,,,2025-01-07,1,,,,,ミドリノカゼ,0
763,3180301039403,新規,0,2025-01-07,2025-01-07,株式会社ＭＢ,,株式会社,愛知県,碧南市,相生町１丁目１４番地,,23,209,4470862,,,,,,,2025-01-07,1,,,,,エムビー,0
772,3210001020015,新規,0,2025-01-07,2025-01-07,株式会社あいさぽ,,株式会社,福井県,敦賀市,藤ケ丘町６－１１,,18,202,9140017,,,,,,,2025-01-07,1,,,,,アイサポ,0
773,3210003001871,新規,0,2025-01-07,2025-01-07,合同会社のみち,,合同会社,福井県,坂井市,坂井町五本第５号１１番地,,18,210,9190507,,,,,,,2025-01-07,1,,,,,ノミチ,0
778,3220001026416,新規,0,2025-01-07,2025-01-07,株式会社鮮魚・野菜よし道商店,,株式会社,石川県,金沢市,中橋町２番６号,,17,201,9200035,,,,,,,2025-01-07,1,,,,,センギョヤサイヨシミチショウテン,0
780,3220003003917,新規,0,2025-01-07,2025-01-07,合同会社北陸総合企画,,合同会社,石川県,七尾市,上府中町セ部１０番地３,,17,202,9260053,,,,,,,2025-01-07,1,,,,,ホクリクソウゴウキカク,0
786,3240001064331,新規,0,2025-01-07,2025-01-07,潤茂株式会社,,株式会社,広島県,竹原市,下野町３１６２番地６,,34,203,7250012,,,,,,,2025-01-07,1,,,,,ヒロシゲ,0
787,3240003007008,新規,0,2025-01-07,2025-01-07,合同会社ａｕｍ,,合同会社,広島県,広島市安佐南区,安東４丁目３７番１２号,,34,105,7310153,,,,,,,2025-01-07,1,,,,,アウン,0
789,3250001020952,新規,0,2025-01-07,2025-01-07,株式会社ティビア,,株式会社,山口県,下関市,王司神田６丁目２番８号,,35,201,7520911,,,,,,,2025-01-07,1,,,,,ティビア,0
790,3250001020960,新規,0,2025-01-07,2025-01-07,株式会社ＷＡＬＤＹ,,株式会社,山口県,山口市,平井２３６番地１,,35,203,7530831,,,,,,,2025-01-07,1,,,,,ヴァルティ,0
794,3260001039769,新規,0,2025-01-07,2025-01-07,株式会社ダブリュー,,株式会社,岡山県,倉敷市,福田町浦田２３９１番地６５,,33,202,7128031,,,,,,,2025-01-07,1,,,,,ダブリュー,0
804,3290001108397,新規,0,2025-01-07,2025-01-07,株式会社アサヒ工業所,,株式会社,福岡県,小郡市,小郡８４８番地７,,40,216,8380141,,,,,,,2025-01-07,1,,,,,アサヒコウギョウショ,0
805,3290001108439,新規,0,2025-01-07,2025-01-07,株式会社誠愛,,株式会社,福岡県,飯塚市,相田２５９番地１９－１０１号,,40,205,8200052,,,,,,,2025-01-07,1,,,,,セイアイ,0
806,3290001108463,新規,0,2025-01-07,2025-01-07,株式会社ｅｒｅ,,株式会社,福岡県,福岡市博多区,博多駅前４丁目５番６号ラフレシール博多６階,,40,132,8120011,,,,,,,2025-01-07,1,,,,,エレ,0
811,3290801031162,新規,0,2025-01-07,2025-01-07,アンリーシュ・ワールドリー株式会社,,株式会社,福岡県,北九州市小倉北区,浅野１丁目１－１ビエラ小倉１Ｆ　ＤＩＳＣＯＶＥＲＹ－１５２号,,40,106,8020001,,,,,,,2025-01-07,1,,,,,アンリーシュワールドリー,0
813,3290803004942,新規,0,2025-01-07,2025-01-07,アークマリン玄海合同会社,,合同会社,福岡県,北九州市八幡西区,永犬丸南町３丁目１４番５号,,40,109,8070845,,,,,,,2025-01-07,1,,,,,アークマリンゲンカイ,0
815,3300001014040,新規,0,2025-01-07,2025-01-07,株式会社ＶＯＹＡＧＥ,,株式会社,佐賀県,鳥栖市,本鳥栖町７０４番地１１,,41,203,8410026,,,,,,,2025-01-07,1,,,,,ボヤージュ,0
816,3310001019393,新規,0,2025-01-07,2025-01-07,株式会社アイス,,株式会社,長崎県,佐世保市,大塔町６０１番地１２,,42,202,8571161,,,,,,,2025-01-07,1,,,,,アイス,0
817,3320001020879,新規,0,2025-01-07,2025-01-07,株式会社カゲミツ,,株式会社,大分県,大分市,田室町７番８号,,44,201,8700816,,,,,,,2025-01-07,1,,,,,カゲミツ,0
821,3330001032774,新規,0,2025-01-07,2025-01-07,株式会社ダダケン不動産,,株式会社,熊本県,熊本市東区,新生１丁目１１番６－２０１号,,43,102,8620908,,,,,,,2025-01-07,1,,,,,ダダケンフドウサン,0
822,3330001032782,新規,0,2025-01-07,2025-01-07,株式会社藤原建設,,株式会社,熊本県,阿蘇郡南阿蘇村,大字久石１６９１番地２,,43,433,8691412,,,,,,,2025-01-07,1,,,,,フジワラケンセツ,0
825,3350001019349,新規,0,2025-01-07,2025-01-07,株式会社平成会館,,株式会社,宮崎県,都城市,鷹尾１丁目２３番１９号,,45,202,8850081,,,,,,,2025-01-07,1,,,,,ヘイセイカイカン,0
827,3360003014545,新規,0,2025-01-07,2025-01-07,琉球くくる合同会社,,合同会社,沖縄県,那覇市,久米２丁目３－１５ＪＲ九州ビルディング５Ｆ,,47,201,9000033,,,,,,,2025-01-07,1,,,,,リュウキュウククル,0
837,3410001014021,新規,0,2025-01-07,2025-01-07,株式会社ＱＵＭＯＯ,,株式会社,秋田県,秋田市,広面字野添７４番地７,,05,201,0100041,,,,,,,2025-01-07,1,,,,,クモ,0
840,3430001093402,新規,0,2025-01-07,2025-01-07,セカンドステップ株式会社,,株式会社,北海道,札幌市東区,北四十七条東９丁目２番１６号,,01,103,0070847,,,,,,,2025-01-07,1,,,,,セカンドステップ,0
841,3430001093419,新規,0,2025-01-07,2025-01-07,株式会社Ｔｒｙｆｕｓｅ,,株式会社,北海道,札幌市厚別区,大谷地東３丁目３番２－１４０８号,,01,108,0040041,,,,,,,2025-01-07,1,,,,,トライフューズ,0
842,3430001093427,新規,0,2025-01-07,2025-01-07,あさひ電工株式会社,,株式会社,北海道,苫小牧市,字錦岡９７番地,,01,213,0591275,,,,,,,2025-01-07,1,,,,,アサヒデンコウ,0
845,3430003017152,新規,0,2025-01-07,2025-01-07,ＡＲＭＡＮ　ＣＯＲＰＯＲＡＴＩＯＮ　ＨＯＫＫＡＩＤＯ合同会社,,合同会社,北海道,苫小牧市,拓勇西町５丁目６番１４号コーポアウル２０３号,,01,213,0591302,,,,,,,2025-01-07,1,,,,,アルマンコーポレーションホッカイドウ,0
846,3450001014488,新規,0,2025-01-07,2025-01-07,たべもの株式会社,,株式会社,北海道,上川郡鷹栖町,１２線十四号５番地,,01,452,0711252,,,,,,,2025-01-07,1,,,,,タベモノ,0
847,3460103001672,新規,0,2025-01-07,2025-01-07,合同会社日々の,,合同会社,北海道,河西郡芽室町,東一条２丁目２－１,,01,637,0820011,,,,,,,2025-01-07,1,,,,,ヒビノ,0
849,3490001010938,新規,0,2025-01-07,2025-01-07,カイロスジャパン株式会社,,株式会社,高知県,高知市,本町５丁目６番３６－８０３号,,39,201,7800870,,,,,,,2025-01-07,1,,,,,,0
853,3500005008753,新規,0,2025-01-07,2025-01-07,一般社団法人愛媛県医師会勤務会員の会,,その他の設立登記法人,愛媛県,松山市,三番町４丁目５番地３愛媛県医師会館内,,38,201,7900003,,,,,,,2025-01-07,1,,,,,エヒメケンイシカイキンムカイインノカイ,0
865,4010001250944,新規,0,2025-01-07,2025-01-07,セントリックス株式会社,,株式会社,東京都,中央区,銀座１丁目１２－４－６Ｆ,,13,102,1040061,,,,,,,2025-01-07,1,,,,,セントリックス,0
866,4010001251067,新規,0,2025-01-07,2025-01-07,株式会社ＣｈａｎｃｅＦｏｒＣｈａｎｇｅ,,株式会社,東京都,中央区,銀座１丁目１２番４号Ｎ＆ＥＢＬＤ．６Ｆ,,13,102,1040061,,,,,,,2025-01-07,1,,,,,チャンスフォオチェンジ,0
867,4010001251109,新規,0,2025-01-07,2025-01-07,タイムワールドホールディングス株式会社,,株式会社,東京都,中央区,京橋３丁目７番１号,,13,102,1040031,,,,,,,2025-01-07,1,,,,,タイムワールドホールディングス,0
871,4010005039343,新規,0,2025-01-07,2025-01-07,一般社団法人ＲＵＬＥＭＡＫＥＲＳ　ＤＡＯ,,その他の設立登記法人,東京都,千代田区,平河町２丁目５番３号ＭＩＤＯＲＩ．ｓｏＮＡＧＡＴＡＣＨＯ,,13,101,1020093,,,,,,,2025-01-07,1,,,,,ルールメイカーズダオ,0
872,4010005039351,新規,0,2025-01-07,2025-01-07,一般社団法人エスエフビー,,その他の設立登記法人,東京都,千代田区,神田神保町１丁目１１番地さくら綜合事務所内,,13,101,1010051,,,,,,,2025-01-07,1,,,,,エスエフビー,0
876,4010401187373,新規,0,2025-01-07,2025-01-07,株式会社ハッピーエンド,,株式会社,東京都,港区,南青山６丁目１５番６号,,13,103,1070062,,,,,,,2025-01-07,1,,,,,ハッピーエンド,0
879,4010601066526,新規,0,2025-01-07,2025-01-07,株式会社ペルソナマーケット,,株式会社,東京都,江東区,東砂８丁目９番１２－２０２号,,13,108,1360074,,,,,,,2025-01-07,1,,,,,ペルソナマーケット,0
885,4010901056581,新規,0,2025-01-07,2025-01-07,株式会社エトダ,,株式会社,東京都,世田谷区,上北沢１丁目２０番２６－１０３号,,13,112,1560057,,,,,,,2025-01-07,1,,,,,エトダ,0
893,4011001166791,新規,0,2025-01-07,2025-01-07,株式会社Ｙｅｌｌｏｗ　Ｓｐｏｏｎ,,株式会社,東京都,渋谷区,渋谷２丁目１９－１５宮益坂ビルディング６０９,,13,113,1500002,,,,,,,2025-01-07,1,,,,,イエロースプーン,0
894,4011001166809,新規,0,2025-01-07,2025-01-07,株式会社ＩｎｓｉｄｅＭｕｓｉｃ,,株式会社,東京都,渋谷区,道玄坂１丁目１０番８号渋谷道玄坂東急ビル２Ｆ－Ｃ,,13,113,1500043,,,,,,,2025-01-07,1,,,,,インサイドミュージック,0
895,4011001166858,新規,0,2025-01-07,2025-01-07,川電コーポレーション株式会社,,株式会社,東京都,目黒区,青葉台１丁目２６番１－８０６号,,13,110,1530042,,,,,,,2025-01-07,1,,,,,カワデンコーポレーション,0
896,4011001166882,新規,0,2025-01-07,2025-01-07,Ｂａｙｍｏｎ株式会社,,株式会社,東京都,渋谷区,神宮前１丁目５番８号,,13,113,1500001,,,,,,,2025-01-07,1,,,,,ベイモン,0
897,4011001166890,新規,0,2025-01-07,2025-01-07,株式会社プチ・モンド,,株式会社,東京都,渋谷区,恵比寿西２丁目８番４号ＥＸ恵比寿西ビル５階,,13,113,1500021,,,,,,,2025-01-07,1,,,,,プチモンド,0
898,4011001166916,新規,0,2025-01-07,2025-01-07,ＴＲｅＭ株式会社,,株式会社,東京都,渋谷区,道玄坂１丁目１０―８渋谷道玄坂東急ビル２ＦーＣ,,13,113,1500043,,,,,,,2025-01-07,1,,,,,ティーレム,0
899,4011001166932,新規,0,2025-01-07,2025-01-07,周永易神堂株式会社,,株式会社,東京都,目黒区,目黒１丁目５番１９号目黒第一ビル２０５,,13,110,1530063,,,,,,,2025-01-07,1,,,,,シュウエイエキシンドウ,0
900,4011001166949,新規,0,2025-01-07,2025-01-07,株式会社未病先防,,株式会社,東京都,渋谷区,恵比寿南３丁目２番１１号,,13,113,1500022,,,,,,,2025-01-07,1,,,,,ミビョウセンボウ,0
901,4011003020658,新規,0,2025-01-07,2025-01-07,合同会社ＶＥＰＰ,,合同会社,東京都,渋谷区,渋谷２丁目１９－１５宮益坂ビルディング６０９,,13,113,1500002,,,,,,,2025-01-07,1,,,,,ブイイーピーピー,0
902,4011003020682,新規,0,2025-01-07,2025-01-07,合同会社おもろい,,合同会社,東京都,渋谷区,神南１丁目１１－４ＦＰＧリンクス神南５階,,13,113,1500041,,,,,,,2025-01-07,1,,,,,オモロイ,0
903,4011003020708,新規,0,2025-01-07,2025-01-07,Ｓｕｕｎｔｏ　Ｊａｐａｎ合同会社,,合同会社,東京都,渋谷区,神南１丁目１１ー４ＦＰＧリンクス神南５階,,13,113,1500041,,,,,,,2025-01-07,1,,,,,スントジャパン,0
917,4011701027938,新規,0,2025-01-07,2025-01-07,ｉｓｍ８ｐｌｕｓ　ｆ株式会社,,株式会社,東京都,江戸川区,南葛西６丁目２１番２１号南葛西アゼリアハウス５０２,,13,123,1340085,,,,,,,2025-01-07,1,,,,,アイエスエムエイトプラスエフ,0
918,4011701027954,新規,0,2025-01-07,2025-01-07,株式会社ＭＩＵＲＡ,,株式会社,東京都,江戸川区,平井３丁目２３番２４号,,13,123,1320035,,,,,,,2025-01-07,1,,,,,ミウラ,0
919,4012301014211,新規,0,2025-01-07,2025-01-07,株式会社ｃｏｌｏｒ　ｌｉｆｅ,,株式会社,東京都,町田市,玉川学園８丁目６番２６号,,13,209,1940041,,,,,,,2025-01-07,1,,,,,カラーライフ,0
922,4012401042616,新規,0,2025-01-07,2025-01-07,株式会社Ｒｅ．Ｆｏｃｕｓ,,株式会社,東京都,府中市,多磨町１丁目３９番地の６２,,13,206,1830002,,,,,,,2025-01-07,1,,,,,リフォーカス,0
925,4012703003159,新規,0,2025-01-07,2025-01-07,Ｒａｉｎｂｏｗ　Ｗｏｒｌｄ合同会社,,合同会社,東京都,西東京市,向台町６丁目１２－１７,,13,229,1880013,,,,,,,2025-01-07,1,,,,,レインボーワールド,0
926,4012803003587,新規,0,2025-01-07,2025-01-07,Ｉｎ　ｓｔｅｐ合同会社,,合同会社,東京都,国分寺市,西元町１丁目１番２０号国分寺パークハウス１０５,,13,214,1850023,,,,,,,2025-01-07,1,,,,,インステップ,0
928,4013301053604,新規,0,2025-01-07,2025-01-07,株式会社オービット,,株式会社,東京都,豊島区,西池袋１丁目４番１０号,,13,116,1710021,,,,,,,2025-01-07,1,,,,,オービット,0
946,4020001160779,新規,0,2025-01-07,2025-01-07,株式会社エイシン,,株式会社,神奈川県,横浜市西区,南幸２丁目１２－１１,,14,103,2200005,,,,,,,2025-01-07,1,,,,,エイシン,0
947,4020001160812,新規,0,2025-01-07,2025-01-07,株式会社ＭＡＧＯＮＯＴＥ,,株式会社,神奈川県,横浜市西区,浅間町１丁目４番地３ウィザードビル４０２,,14,103,2200072,,,,,,,2025-01-07,1,,,,,マゴノテ,0
953,4020003027299,新規,0,2025-01-07,2025-01-07,Ｏｃｎ合同会社,,合同会社,神奈川県,横浜市鶴見区,駒岡４丁目１３－６６,,14,101,2300071,,,,,,,2025-01-07,1,,,,,オーシーエヌ,0
954,4020003027539,新規,0,2025-01-07,2025-01-07,合同会社ＴＵＮＡ　ＡＮＤ,,合同会社,神奈川県,川崎市中原区,上平間２４１番地５,,14,133,2110013,,,,,,,2025-01-07,1,,,,,ツナアンド,0
966,4030001164176,新規,0,2025-01-07,2025-01-07,株式会社もちきち,,株式会社,埼玉県,春日部市,大枝６１３－１２,,11,214,3440023,,,,,,,2025-01-07,1,,,,,モチキチ,0
967,4030001164218,新規,0,2025-01-07,2025-01-07,株式会社Ｄｅ‐Ｔｒｕｓｔｙ,,株式会社,埼玉県,日高市,猿田上ノ台１番地７,,11,242,3501237,,,,,,,2025-01-07,1,,,,,ディートラスティ,0
970,4030003025814,新規,0,2025-01-07,2025-01-07,合同会社四方吉,,合同会社,埼玉県,比企郡吉見町,大字田甲１９０６番地,,11,347,3550167,,,,,,,2025-01-07,1,,,,,ヨモキチ,0
971,4030003025839,新規,0,2025-01-07,2025-01-07,Ｓａｋｅトレーディング合同会社,,合同会社,埼玉県,さいたま市浦和区,元町１丁目８―１２,,11,107,3300073,,,,,,,2025-01-07,1,,,,,サケトレーディング,0
975,4040001136744,新規,0,2025-01-07,2025-01-07,株式会社クリエイトオン,,株式会社,千葉県,旭市,ニの３６６６番地８,,12,215,2892504,,,,,,,2025-01-07,1,,,,,クリエイトオン,0
976,4040001136793,新規,0,2025-01-07,2025-01-07,株式会社円蔵,,株式会社,千葉県,市川市,妙典４丁目１４番１号,,12,203,2720111,,,,,,,2025-01-07,1,,,,,エンゾウ,0
977,4040001136843,新規,0,2025-01-07,2025-01-07,株式会社越後谷電工,,株式会社,千葉県,野田市,山崎７８３番地の２５,,12,208,2780022,,,,,,,2025-01-07,1,,,,,エチゴヤデンコウ,0
978,4040001136892,新規,0,2025-01-07,2025-01-07,株式会社ＫＣ　Ｐａｒｔｎｅｒｓ,,株式会社,千葉県,千葉市美浜区,浜田１丁目４番地２０７号,,12,106,2610025,,,,,,,2025-01-07,1,,,,,ケーシーパートナーズ,0
979,4040003026489,新規,0,2025-01-07,2025-01-07,合同会社ＡＲＭＳ,,合同会社,千葉県,勝浦市,浜勝浦２８８番地８ハイツ牧野２０１,,12,218,2995233,,,,,,,2025-01-07,1,,,,,アームズ,0
980,4040003026506,新規,0,2025-01-07,2025-01-07,合同会社ＮＡＭＥＫＩ,,合同会社,千葉県,千葉市緑区,土気町３３９番地３－５０７号,,12,105,2670061,,,,,,,2025-01-07,1,,,,,ナメキ,0
981,4040003026530,新規,0,2025-01-07,2025-01-07,合同会社吉野新聞舗,,合同会社,千葉県,香取市,佐原イ３８４９番地１０,,12,236,2870003,,,,,,,2025-01-07,1,,,,,,0
982,4040003026547,新規,0,2025-01-07,2025-01-07,合同会社ＮＡＲＩＷＡＩ,,合同会社,千葉県,香取郡多古町,多古５６８－２Ｆ,,12,347,2892241,,,,,,,2025-01-07,1,,,,,ナリワイ,0
983,4050001055943,新規,0,2025-01-07,2025-01-07,株式会社ｇｅｎｉｕｓ,,株式会社,茨城県,水戸市,栄町２丁目４番１０号麓水１０２号,,08,201,3100064,,,,,,,2025-01-07,1,,,,,ジーニアス,0
984,4050001055951,新規,0,2025-01-07,2025-01-07,株式会社Ｍａｒｕｙａ,,株式会社,茨城県,石岡市,三村１３８２－１２,,08,205,3150048,,,,,,,2025-01-07,1,,,,,マルヤ,0
985,4050003008916,新規,0,2025-01-07,2025-01-07,葵コーポレーション合同会社,,合同会社,茨城県,ひたちなか市,大字稲田１２５４番地３,,08,221,3120061,,,,,,,2025-01-07,1,,,,,アオイコーポレーション,0
986,4060001037775,新規,0,2025-01-07,2025-01-07,株式会社Ｄａｒｅ　Ｓｐａｒｋ,,株式会社,栃木県,宇都宮市,中央５丁目１３番７号,,09,201,3200806,,,,,,,2025-01-07,1,,,,,デアスパーク,0
991,4080001026693,新規,0,2025-01-07,2025-01-07,佐渡めおと岩観光サービス株式会社,,株式会社,静岡県,静岡市駿河区,池田２２８３番地の３,,22,102,4228005,,,,,,,2025-01-07,1,,,,,サドメオトイワカンコウサービス,0
992,4080101025224,新規,0,2025-01-07,2025-01-07,メドキュレーション株式会社,,株式会社,静岡県,駿東郡長泉町,下土狩４６０番地の３ＥＫＩＲＯ３Ｆ,,22,342,4110943,,,,,,,2025-01-07,1,,,,,,0
994,4080401027671,新規,0,2025-01-07,2025-01-07,株式会社Ｇｏｒｉｌａｌａ,,株式会社,静岡県,浜松市浜名区,西美薗２５７９番地,,22,139,4340033,,,,,,,2025-01-07,1,,,,,ゴリララ,0
998,4100001038166,新規,0,2025-01-07,2025-01-07,株式会社ＴＫコーポレーション,,株式会社,長野県,松本市,野溝木工１丁目１０番３０－８号,,20,202,3990005,,,,,,,2025-01-07,1,,,,,ティーケイコーポレーション,0
999,4100005013272,新規,0,2025-01-07,2025-01-07,特定非営利活動法人信州縄文の里茅野,,その他の設立登記法人,長野県,茅野市,北山８３１２番地１,,20,214,3910301,,,,,,,2025-01-07,1,,,,,シンシュウジョウモンノサトチノ,0
1003,4110003005618,新規,0,2025-01-07,2025-01-07,合同会社大島商店,,合同会社,新潟県,上越市,上源入６３３番地６,,15,222,9420052,,,,,,,2025-01-07,1,,,,,オオシマショウテン,0
1006,4110005017165,新規,0,2025-01-07,2025-01-07,一般社団法人ｇｒｏｗ　ｕｐ,,その他の設立登記法人,新潟県,見附市,本町２丁目６－２０,,15,211,9540053,,,,,,,2025-01-07,1,,,,,,0
1016,4120001271525,新規,0,2025-01-07,2025-01-07,株式会社ターゲットテック,,株式会社,大阪府,大阪市淀川区,西中島６丁目３番３２号,,27,123,5320011,,,,,,,2025-01-07,1,,,,,ターゲットテック,0
1017,4120001271673,新規,0,2025-01-07,2025-01-07,株式会社ＡＯＭ,,株式会社,大阪府,大阪市中央区,久太郎町３丁目１番２７号船場大西ビル２階,,27,128,5410056,,,,,,,2025-01-07,1,,,,,エーオーエム,0
1020,4120003028270,新規,0,2025-01-07,2025-01-07,マグロンデザイン合同会社,,合同会社,大阪府,大阪市北区,中津２丁目４番地１６第２田渕ビル４０３号室,,27,127,5310071,,,,,,,2025-01-07,1,,,,,マグロンデザイン,0
1025,4120901050243,新規,0,2025-01-07,2025-01-07,株式会社Ｄｒｅａｍ,,株式会社,大阪府,豊中市,庄内栄町１丁目７番３号,,27,203,5610834,,,,,,,2025-01-07,1,,,,,ドリーム,0
1026,4120903005501,新規,0,2025-01-07,2025-01-07,合同会社ｍｉｏ＆ｍａｎｏ　Ｎ,,合同会社,大阪府,摂津市,千里丘新町５－２２－１４３９,,27,224,5660002,,,,,,,2025-01-07,1,,,,,ミオアンドマノエヌ,0
1030,4130001078696,新規,0,2025-01-07,2025-01-07,株式会社ＢＲＩＤＧＥ,,株式会社,京都府,京都市中京区,竹屋町通西洞院西入東竹屋町４１７番地２,,26,104,6040085,,,,,,,2025-01-07,1,,,,,ブリッジ,0
1033,4140001136899,新規,0,2025-01-07,2025-01-07,株式会社ＥＫＡ神戸,,株式会社,兵庫県,神戸市中央区,布引町１丁目１番８－８０３号,,28,110,6510097,,,,,,,2025-01-07,1,,,,,エカコウベ,0
1034,4140001136908,新規,0,2025-01-07,2025-01-07,アンベルス株式会社,,株式会社,兵庫県,加古川市,加古川町寺家町６０６番地,,28,210,6750066,,,,,,,2025-01-07,1,,,,,アンベルス,0
1035,4140001136940,新規,0,2025-01-07,2025-01-07,株式会社ＸＢＲＡＩＮ,,株式会社,兵庫県,西宮市,戸田町５番３０－１３０５号,,28,204,6620916,,,,,,,2025-01-07,1,,,,,エクスブレイン,0
1040,4160001026462,新規,0,2025-01-07,2025-01-07,株式会社Ａ＆Ｈ,,株式会社,滋賀県,大津市,朝日が丘１丁目４番１６号,,25,201,5200052,,,,,,,2025-01-07,1,,,,,エーアンドエイチ,0
1044,4180001164797,新規,0,2025-01-07,2025-01-07,光株式会社,,株式会社,愛知県,名古屋市中区,大須１丁目２５番５７－９０２号,,23,106,4600011,,,,,,,2025-01-07,1,,,,,ヒカリ,0
1045,4180001164806,新規,0,2025-01-07,2025-01-07,Ｙａｋ株式会社,,株式会社,愛知県,名古屋市南区,豊田５丁目４番７号,,23,112,4570841,,,,,,,2025-01-07,1,,,,,ワイエイケイ,0
1049,4180301039402,新規,0,2025-01-07,2025-01-07,株式会社カグラプラス,,株式会社,愛知県,豊橋市,佐藤１丁目３番地の５,,23,201,4400853,,,,,,,2025-01-07,1,,,,,カグラプラス,0
1050,4220001026398,新規,0,2025-01-07,2025-01-07,株式会社參,,株式会社,石川県,小松市,東町８８番地,,17,203,9230923,,,,,,,2025-01-07,1,,,,,サン,0
1051,4220001026407,新規,0,2025-01-07,2025-01-07,株式会社晴るる,,株式会社,石川県,白山市,鶴来新町タ２８番地１,,17,210,9202126,,,,,,,2025-01-07,1,,,,,ハルル,0
1054,4240001064330,新規,0,2025-01-07,2025-01-07,株式会社ＫＡＭＥ,,株式会社,広島県,広島市西区,観音本町２丁目６番３２号,,34,104,7330033,,,,,,,2025-01-07,1,,,,,カメ,0
1058,4240003007007,新規,0,2025-01-07,2025-01-07,合同会社ライスファームみのり,,合同会社,広島県,三原市,久井町和草１７７４番地,,34,204,7221412,,,,,,,2025-01-07,1,,,,,ライスファームミノリ,0
1060,4250003003624,新規,0,2025-01-07,2025-01-07,合同会社ＡＫＩ,,合同会社,山口県,下松市,大字河内５６１－６－１－１０４,,35,207,7440061,,,,,,,2025-01-07,1,,,,,アキ,0
1082,4290001108355,新規,0,2025-01-07,2025-01-07,星＿株式会社,00137516,株式会社,福岡県,福岡市早良区,祖原１０番１３－４０１号,,40,137,8140005,,,,,,,2025-01-07,1,,,,,ホシツキ,0
1083,4290001108470,新規,0,2025-01-07,2025-01-07,株式会社ＣＫ車輌,,株式会社,福岡県,福岡市南区,若久３丁目１番２５号,,40,134,8150042,,,,,,,2025-01-07,1,,,,,シーケイシャリョウ,0
1084,4290001108520,新規,0,2025-01-07,2025-01-07,Ｄｅｆｒａｇｍｅｎｔａｔｉｏｎ．株式会社,,株式会社,福岡県,福岡市中央区,天神３丁目１０－３２－９０７,,40,133,8100001,,,,,,,2025-01-07,1,,,,,デフラグメンテーション,0
1085,4290003016267,新規,0,2025-01-07,2025-01-07,合同会社ＤＥＫＩＲＵＫＯＴＯ,,合同会社,福岡県,福岡市東区,水谷２丁目５３番１－１７０８号,,40,131,8130041,,,,,,,2025-01-07,1,,,,,デキルコト,0
1088,4290803004941,新規,0,2025-01-07,2025-01-07,合同会社西日本産業,,合同会社,福岡県,北九州市八幡西区,本城４丁目１番３６号,,40,109,8070801,,,,,,,2025-01-07,1,,,,,ニシニホンサンギョウ,0
1089,4290805009798,新規,0,2025-01-07,2025-01-07,医療法人ＬＡＢＲＡ,,その他の設立登記法人,福岡県,北九州市八幡西区,岸の浦１丁目３番１１号,,40,109,8060034,,,,,,,2025-01-07,1,,,,,ラブラ,0
1092,4320003004549,新規,0,2025-01-07,2025-01-07,合同会社清ふじ,,合同会社,大分県,大分市,都町２丁目２３番１号,,44,201,8700034,,,,,,,2025-01-07,1,,,,,キヨフジ,0
1099,4330001032765,新規,0,2025-01-07,2025-01-07,株式会社ＮＩ,,株式会社,熊本県,熊本市東区,画図町大字下無田１４６０番地,,43,102,8620945,,,,,,,2025-01-07,1,,,,,エヌアイ,0
1101,4330003010694,新規,0,2025-01-07,2025-01-07,合同会社獅子虎,,合同会社,熊本県,熊本市中央区,大江１丁目２３番１６号,,43,101,8620971,,,,,,,2025-01-07,1,,,,,シシトラ,0
1104,4350001019348,新規,0,2025-01-07,2025-01-07,Ｎｏｖｅｌ　Ｅｓｔａｔｅ株式会社,,株式会社,宮崎県,都城市,高城町桜木１４７２番地３,,45,202,8851204,,,,,,,2025-01-07,1,,,,,ノベルエステイト,0
1105,4350003004810,新規,0,2025-01-07,2025-01-07,合同会社Ｐｏｎｏ,,合同会社,宮崎県,延岡市,野地町６丁目３２８８番地７パルウエスト１０２号室,,45,203,8820802,,,,,,,2025-01-07,1,,,,,ポノ,0
1110,4360001034619,新規,0,2025-01-07,2025-01-07,株式会社グローバルステージ,,株式会社,沖縄県,南城市,大里字古堅１２６０番地４,,47,215,9011207,,,,,,,2025-01-07,1,,,,,グローバルステージ,0
1111,4360003014560,新規,0,2025-01-07,2025-01-07,パワーオブコネクション合同会社,,合同会社,沖縄県,那覇市,字安里３８８番地１３４,,47,201,9020067,,,,,,,2025-01-07,1,,,,,パワーオブコネクション,0
1112,4370001052074,新規,0,2025-01-07,2025-01-07,株式会社エレベート,,株式会社,宮城県,仙台市青葉区,堤通雨宮町１２－１６チサンマンション雨宮町５０１,,04,101,9810914,,,,,,,2025-01-07,1,,,,,エレベート,0
1113,4370001052099,新規,0,2025-01-07,2025-01-07,株式会社中華飯店,,株式会社,宮城県,仙台市青葉区,旭ケ丘３丁目２５番１０号,,04,101,9810904,,,,,,,2025-01-07,1,,,,,チュウカハンテン,0
1114,4370003006879,新規,0,2025-01-07,2025-01-07,Ｂｕｉｌｄｕｐ合同会社,,合同会社,宮城県,宮城郡松島町,磯崎字華園１１１番地の１ドエル華園１０２,,04,401,9810212,,,,,,,2025-01-07,1,,,,,ビルドアップ,0
1119,4380001035004,新規,0,2025-01-07,2025-01-07,泉潤株式会社,,株式会社,福島県,郡山市,駅前１丁目７番１０号,,07,203,9638002,,,,,,,2025-01-07,1,,,,,センジュン,0
1120,4380003005921,新規,0,2025-01-07,2025-01-07,合同会社Ｒｅｌａｘ＆Ｂｅａｕｔｙ,,合同会社,福島県,郡山市,富久山町八山田字土布池１１番地３６号,,07,203,9638051,,,,,,,2025-01-07,1,,,,,リラックスアンドビューティー,0
1123,4400001016901,新規,0,2025-01-07,2025-01-07,株式会社葵,,株式会社,岩手県,紫波郡矢巾町,流通センター南４丁目１８番１８号,,03,322,0200891,,,,,,,2025-01-07,1,,,,,アオイ,0
1130,4430001093401,新規,0,2025-01-07,2025-01-07,株式会社レコハイ,,株式会社,北海道,札幌市西区,西野一条９丁目６番１２号,,01,107,0630031,,,,,,,2025-01-07,1,,,,,レコハイ,0
1131,4430001093434,新規,0,2025-01-07,2025-01-07,株式会社ＭＡＲＵＰ,,株式会社,北海道,札幌市南区,南沢六条２丁目９番８号,,01,106,0050826,,,,,,,2025-01-07,1,,,,,マルップ,0
1134,4430003017143,新規,0,2025-01-07,2025-01-07,合同会社鍋嶋工業,,合同会社,北海道,札幌市厚別区,厚別西四条１丁目８番３－９０４号,,01,108,0040064,,,,,,,2025-01-07,1,,,,,ナベシマコウギョウ,0
1135,4430003017151,新規,0,2025-01-07,2025-01-07,ＦＡＲＶＩＮ　ＣＯＲＰＯＲＡＴＩＯＮ　ＨＯＫＫＡＩＤＯ合同会社,,合同会社,北海道,苫小牧市,拓勇西町５丁目６番１４号コーポアウル２０３号,,01,213,0591302,,,,,,,2025-01-07,1,,,,,ファルビンコーポレーションホッカイドウ,0
1136,4450001014487,新規,0,2025-01-07,2025-01-07,株式会社光輝,,株式会社,北海道,紋別市,幸町４丁目２番２７号,,01,219,0940005,,,,,,,2025-01-07,1,,,,,コウキ,0
1140,4470003002785,新規,0,2025-01-07,2025-01-07,ＵＭＥＷＯＲＫＳ合同会社,,合同会社,香川県,高松市,サンポート２番１号高松シンボルタワータワー棟４・５階,,37,201,7600019,,,,,,,2025-01-07,1,,,,,ウメワークス,0
1141,4490001010929,新規,0,2025-01-07,2025-01-07,株式会社キャラクターショット,,株式会社,高知県,高知市,十津３丁目３番８号,,39,201,7810114,,,,,,,2025-01-07,1,,,,,キャラクターショット,0
1152,5010001250927,新規,0,2025-01-07,2025-01-07,株式会社ＰＲＯＬＥＸＴ,,株式会社,東京都,中央区,日本橋３丁目２番１５号,,13,102,1030027,,,,,,,2025-01-07,1,,,,,プロレクスト,0
1158,5010005039359,新規,0,2025-01-07,2025-01-07,一般社団法人山中湖,,その他の設立登記法人,東京都,千代田区,霞が関３丁目２番５号,,13,101,1000013,,,,,,,2025-01-07,1,,,,,ヤマナカコ,0
1168,5010501053417,新規,0,2025-01-07,2025-01-07,株式会社海舟資本ホールディングス,,株式会社,東京都,台東区,鳥越２丁目７番５号,,13,106,1110054,,,,,,,2025-01-07,1,,,,,カイシュウシホンホールディングス,0
1172,5010601066525,新規,0,2025-01-07,2025-01-07,ＵＺＵ株式会社,,株式会社,東京都,墨田区,文花２丁目１０番２－１０１号,,13,107,1310044,,,,,,,2025-01-07,1,,,,,ウズ,0
1173,5010601066533,新規,0,2025-01-07,2025-01-07,株式会社Ｈａｐｐｉｌｉｏｎ,,株式会社,東京都,江東区,森下３丁目４番１４号,,13,108,1350004,,,,,,,2025-01-07,1,,,,,ハピリオン,0
1174,5010601066541,新規,0,2025-01-07,2025-01-07,株式会社ＧｅＲａＲｕ,,株式会社,東京都,墨田区,文花１丁目１８－１３,,13,107,1310044,,,,,,,2025-01-07,1,,,,,ゲラル,0
1175,5010603011297,新規,0,2025-01-07,2025-01-07,ＢＯＯＮＥ合同会社,,合同会社,東京都,江東区,富岡２丁目１１－１８リードシー門前仲町４Ｆ,,13,108,1350047,,,,,,,2025-01-07,1,,,,,ブーン,0
1176,5010603011306,新規,0,2025-01-07,2025-01-07,トビラボ合同会社,,合同会社,東京都,墨田区,太平４丁目１－１Ｂｒｉｌｌｉａタワー東京３４１４号室,,13,107,1300012,,,,,,,2025-01-07,1,,,,,トビラボ,0
1185,5011001166816,新規,0,2025-01-07,2025-01-07,Ｔ‐ｃｏｌｌｅｃｔ株式会社,,株式会社,東京都,渋谷区,渋谷２丁目１９番１５号宮益坂ビルディング６０９,,13,113,1500002,,,,,,,2025-01-07,1,,,,,ティーコレクト,0
1186,5011001166824,新規,0,2025-01-07,2025-01-07,株式会社ＨＥＥＫ,,株式会社,東京都,目黒区,中町２丁目９番１２号,,13,110,1530065,,,,,,,2025-01-07,1,,,,,ヒーク,0
1187,5011001166840,新規,0,2025-01-07,2025-01-07,株式会社スタジオアメノ,,株式会社,東京都,渋谷区,渋谷２丁目１９番１５号宮益坂ビルディング６０９号室,,13,113,1500002,,,,,,,2025-01-07,1,,,,,スタジオアメノ,0
1188,5011001166873,新規,0,2025-01-07,2025-01-07,株式会社ワイケーティープランニング,,株式会社,東京都,目黒区,東が丘１丁目２５番１７号,,13,110,1520021,,,,,,,2025-01-07,1,,,,,ワイケーティープランニング,0
1189,5011001166881,新規,0,2025-01-07,2025-01-07,株式会社ｎｉｃｏ,,株式会社,東京都,渋谷区,恵比寿西２丁目４番８号ウィンド恵比寿ビル８Ｆ,,13,113,1500021,,,,,,,2025-01-07,1,,,,,ニコ,0
1190,5011001166898,新規,0,2025-01-07,2025-01-07,株式会社心臓,,株式会社,東京都,渋谷区,渋谷２丁目１９番１５号宮益坂ビルディング６０９,,13,113,1500002,,,,,,,2025-01-07,1,,,,,シンゾウ,0
1192,5011003020723,新規,0,2025-01-07,2025-01-07,合同会社エンジェルワークス,,合同会社,東京都,渋谷区,道玄坂１丁目１０番８号渋谷道玄坂東急ビル２Ｆ－Ｃ,,13,113,1500043,,,,,,,2025-01-07,1,,,,,エンジェルワークス,0
1194,5011005010821,新規,0,2025-01-07,2025-01-07,一般社団法人暗号資産教育協議会,,その他の設立登記法人,東京都,渋谷区,神宮前６丁目１９番１５号高野第一ビル５階Ｂ区画,,13,113,1500001,,,,,,,2025-01-07,1,,,,,アンゴウシサンキョウイクキョウギカイ,0
1200,5011203004567,新規,0,2025-01-07,2025-01-07,合同会社５７３,,合同会社,東京都,中野区,本町４丁目３８番６号,,13,114,1640012,,,,,,,2025-01-07,1,,,,,コナミ,0
1205,5011503006362,新規,0,2025-01-07,2025-01-07,合同会社ｌｉｖｅ　ｙｏｕｒ　ｌｉｆｅ,,合同会社,東京都,荒川区,西日暮里１丁目３７－１３,,13,118,1160013,,,,,,,2025-01-07,1,,,,,ライブユアライフ,0
1208,5011701027945,新規,0,2025-01-07,2025-01-07,株式会社セントソフィア江戸川,,株式会社,東京都,江戸川区,西一之江３丁目１２－９,,13,123,1320023,,,,,,,2025-01-07,1,,,,,セントソフィアエドガワ,0
1211,5012301014210,新規,0,2025-01-07,2025-01-07,株式会社Ｓｔｕｄｉｏかきものや,,株式会社,東京都,町田市,南町田１丁目２６番８号,,13,209,1940005,,,,,,,2025-01-07,1,,,,,スタジオカキモノヤ,0
1213,5012801023669,新規,0,2025-01-07,2025-01-07,株式会社くまふく,,株式会社,東京都,昭島市,東町４丁目１５番５号,,13,207,1960033,,,,,,,2025-01-07,1,,,,,クマフク,0
1214,5012803003594,新規,0,2025-01-07,2025-01-07,合同会社Ｓｏｗ．ｒｅａｐ,,合同会社,東京都,国分寺市,西町３丁目５番地１８号,,13,214,1850035,,,,,,,2025-01-07,1,,,,,ソウリープ,0
1215,5013101009598,新規,0,2025-01-07,2025-01-07,株式会社ゼンエイ,,株式会社,東京都,西多摩郡日の出町,大字平井２５０８番地６,,13,305,1900182,,,,,,,2025-01-07,1,,,,,ゼンエイ,0
1217,5013303007466,新規,0,2025-01-07,2025-01-07,合同会社Ｂｉｒｋｅ,,合同会社,東京都,豊島区,西池袋３丁目２９－４ジェスト７ビル地下１階,,13,116,1710021,,,,,,,2025-01-07,1,,,,,ビルケ,0
1223,5020001160729,新規,0,2025-01-07,2025-01-07,ＮＮＤ株式会社,,株式会社,神奈川県,横浜市港北区,樽町４丁目１６番４－６号,,14,109,2220001,,,,,,,2025-01-07,1,,,,,エヌエヌディー,0
1224,5020001160836,新規,0,2025-01-07,2025-01-07,株式会社ＲＥＢＴＥＡＭ,,株式会社,神奈川県,横浜市西区,浅間町１丁目４番３号ウィザードビル４０２,,14,103,2200072,,,,,,,2025-01-07,1,,,,,リブチーム,0
1228,5021001084091,新規,0,2025-01-07,2025-01-07,株式会社月虹,,株式会社,神奈川県,厚木市,岡田３０８０番地３,,14,212,2430021,,,,,,,2025-01-07,1,,,,,ゲッコウ,0
1229,5021001084141,新規,0,2025-01-07,2025-01-07,株式会社Ｓｏｉｒｅ,,株式会社,神奈川県,横須賀市,長浦町３丁目９１番地１０,,14,201,2370072,,,,,,,2025-01-07,1,,,,,ソワレ,0
1240,5030001164159,新規,0,2025-01-07,2025-01-07,株式会社シャローズ・クリエーション,,株式会社,埼玉県,川口市,東川口１丁目２７番３０－５０７号ソライエ東川口プレミアムレジデンス,,11,203,3330801,,,,,,,2025-01-07,1,,,,,シャローズクリエーション,0
1241,5030001164200,新規,0,2025-01-07,2025-01-07,株式会社コスモ設計,,株式会社,埼玉県,戸田市,大字新曽３１８番地の１,,11,224,3350021,,,,,,,2025-01-07,1,,,,,コスモセッケイ,0
1242,5030001164217,新規,0,2025-01-07,2025-01-07,株式会社ＣＥＲＥＺＯ,,株式会社,埼玉県,川越市,三光町３１番地１（メゾン前川２０３号室）,,11,201,3500067,,,,,,,2025-01-07,1,,,,,セレッソ,0
1246,5040001136743,新規,0,2025-01-07,2025-01-07,株式会社ＥＤＯＹＡ,,株式会社,千葉県,松戸市,二ツ木２５１番地,,12,207,2700027,,,,,,,2025-01-07,1,,,,,エドヤ,0
1247,5040001136768,新規,0,2025-01-07,2025-01-07,新日本家具株式会社,,株式会社,千葉県,千葉市花見川区,長作町６３４番地１エミネンス１０１号,,12,102,2620044,,,,,,,2025-01-07,1,,,,,シンニホンカグ,0
1248,5040001136826,新規,0,2025-01-07,2025-01-07,株式会社ＬＣリトリート,,株式会社,千葉県,館山市,佐野２１９番地,,12,205,2940225,,,,,,,2025-01-07,1,,,,,エルシーリトリート,0
1249,5040001136842,新規,0,2025-01-07,2025-01-07,ＨＡＬＩＭＺＡＩ　ＩＭＲＡＮ株式会社,,株式会社,千葉県,山武市,沖渡６５８番地１２－１号,,12,237,2891225,,,,,,,2025-01-07,1,,,,,ハリンザイイムラン,0
1254,5050001055942,新規,0,2025-01-07,2025-01-07,トキワグループ株式会社,,株式会社,茨城県,土浦市,田中２丁目１４番５号,,08,203,3000048,,,,,,,2025-01-07,1,,,,,トキワグループ,0
1255,5050001055950,新規,0,2025-01-07,2025-01-07,株式会社ＯＮＯ　ＹＡＲ　ＴＲＡＤＩＮＧ,,株式会社,茨城県,東茨城郡茨城町,大字前田１７０６－１,,08,302,3113115,,,,,,,2025-01-07,1,,,,,オノヤールトレーディング,0
1258,5060001037774,新規,0,2025-01-07,2025-01-07,株式会社管蓮,,株式会社,栃木県,那須塩原市,野間７４番地１,,09,213,3250014,,,,,,,2025-01-07,1,,,,,カンレン,0
1259,5060001037782,新規,0,2025-01-07,2025-01-07,株式会社リングジベル,,株式会社,栃木県,真岡市,長田４丁目１４番地２２,,09,209,3214364,,,,,,,2025-01-07,1,,,,,リングジベル,0
1262,5070005010339,新規,0,2025-01-07,2025-01-07,一般社団法人前橋コンディショナー,,その他の設立登記法人,群馬県,前橋市,山王町８番地１３,,10,201,3792123,,,,,,,2025-01-07,1,,,,,マエバシコンディショナー,0
1268,5080401027662,新規,0,2025-01-07,2025-01-07,株式会社イシヅカ室内,,株式会社,静岡県,浜松市中央区,広沢２丁目１番２０４号広沢パークマンション,,22,138,4328013,,,,,,,2025-01-07,1,,,,,イシヅカシツナイ,0
1271,5100001038165,新規,0,2025-01-07,2025-01-07,株式会社ＲＯＣＫＹ　ＴＲＡＤＩＮＧ,,株式会社,長野県,安曇野市,豊科４２８９番地４,,20,220,3998205,,,,,,,2025-01-07,1,,,,,ロッキートレーディング,0
1272,5100001038173,新規,0,2025-01-07,2025-01-07,株式会社ｅｙｅｓ住環,,株式会社,長野県,諏訪市,大字上諏訪１３１００番地７２,,20,206,3920003,,,,,,,2025-01-07,1,,,,,アイズジュウカン,0
1286,5120001271490,新規,0,2025-01-07,2025-01-07,株式会社テックスクエア,,株式会社,大阪府,大阪市中央区,南船場３丁目２番２２号,,27,128,5420081,,,,,,,2025-01-07,1,,,,,テックスクエア,0
1287,5120001271672,新規,0,2025-01-07,2025-01-07,株式会社ＧｉｖｅｒＰｌｕｓ,,株式会社,大阪府,大阪市西区,本田４丁目３番５－２０１号,,27,106,5500022,,,,,,,2025-01-07,1,,,,,ギバープラス,0
1288,5120001271722,新規,0,2025-01-07,2025-01-07,株式会社ＵＮＬＩＭＩＴＥＤ,,株式会社,大阪府,大阪市中央区,松屋町３番２３－１４０６号,,27,128,5420067,,,,,,,2025-01-07,1,,,,,アンリミテッド,0
1292,5120101070826,新規,0,2025-01-07,2025-01-07,株式会社ＦＫＮ,,株式会社,大阪府,高石市,取石６丁目１８番８号,,27,225,5920013,,,,,,,2025-01-07,1,,,,,エフケーエヌ,0
1293,5120101070842,新規,0,2025-01-07,2025-01-07,株式会社今田,,株式会社,大阪府,堺市南区,新檜尾台３丁３番２－２０９号,,27,145,5900143,,,,,,,2025-01-07,1,,,,,イマダ,0
1294,5120101070850,新規,0,2025-01-07,2025-01-07,ＮＡＮＪＯ株式会社,,株式会社,大阪府,堺市南区,大庭寺１０８番地,,27,145,5900153,,,,,,,2025-01-07,1,,,,,ナンジョウ,0
1303,5140001136898,新規,0,2025-01-07,2025-01-07,株式会社Ｄ．Ｃ．,,株式会社,兵庫県,神戸市須磨区,多井畑南町２７番地の６,,28,107,6540132,,,,,,,2025-01-07,1,,,,,ディーシー,0
1304,5140001136907,新規,0,2025-01-07,2025-01-07,株式会社ＣｈｕｍＴｅｃｈ,,株式会社,兵庫県,神戸市中央区,磯辺通１丁目１番１８号カサベラ国際プラザビル７０７号室,,28,110,6510084,,,,,,,2025-01-07,1,,,,,チャムテック,0
1305,5140001136923,新規,0,2025-01-07,2025-01-07,株式会社ＡＴＳ,,株式会社,兵庫県,神戸市須磨区,若木町３丁目７番１８号２０１,,28,107,6540014,,,,,,,2025-01-07,1,,,,,エーティーエス,0
1307,5150001027790,新規,0,2025-01-07,2025-01-07,株式会社エイム,,株式会社,奈良県,生駒市,鹿ノ台西１丁目４番地８,,29,209,6300114,,,,,,,2025-01-07,1,,,,,エイム,0
1309,5160001026461,新規,0,2025-01-07,2025-01-07,株式会社Ｄｅｅｆｉｅｌ,,株式会社,滋賀県,大津市,月輪３丁目６１番１５号,,25,201,5202152,,,,,,,2025-01-07,1,,,,,ディフィール,0
1310,5160003003368,新規,0,2025-01-07,2025-01-07,ビジネスデザインソリューションズ合同会社,,合同会社,滋賀県,大津市,仰木の里東２丁目７番１４号,,25,201,5200248,,,,,,,2025-01-07,1,,,,,ビジネスデザインソリューションズ,0
1311,5170001018441,新規,0,2025-01-07,2025-01-07,ＲＹＯ設計株式会社,,株式会社,和歌山県,和歌山市,木広町４丁目８番地,,30,201,6408328,,,,,,,2025-01-07,1,,,,,リョウセッケイ,0
1317,5180001164672,新規,0,2025-01-07,2025-01-07,株式会社ＺＥＲＯ,,株式会社,愛知県,名古屋市中川区,富船町３丁目１番地の１（ソーラスフロント富船９０６号）,,23,110,4540823,,,,,,,2025-01-07,1,,,,,ゼロ,0
1318,5180001164722,新規,0,2025-01-07,2025-01-07,Ｅｖｅｒｙｄａｙ　Ｎｕｒｓｉｎｇ　Ｃａｒｅ‐Ｏｉｊａ株式会社,,株式会社,愛知県,名古屋市緑区,姥子山１丁目１１１番地,,23,114,4580830,,,,,,,2025-01-07,1,,,,,エブリデイナーシングケアオイジャー,0
1319,5180001164739,新規,0,2025-01-07,2025-01-07,ＭＴ丈夫工業株式会社,,株式会社,愛知県,一宮市,浅野字卯ノ木３９番地２,,23,203,4910871,,,,,,,2025-01-07,1,,,,,エムティージョウブコウギョウ,0
1320,5180001164796,新規,0,2025-01-07,2025-01-07,株式会社Ｃａｐｒｉｃｅ,,株式会社,愛知県,名古屋市守山区,下志段味５丁目２９０７番地,,23,113,4630003,,,,,,,2025-01-07,1,,,,,カプリス,0
1321,5180001164813,新規,0,2025-01-07,2025-01-07,株式会社ＨＡＧＡＮＥ,,株式会社,愛知県,一宮市,大赤見字若年東１３番地,,23,203,4910015,,,,,,,2025-01-07,1,,,,,ハガネ,0
1322,5180001164821,新規,0,2025-01-07,2025-01-07,アースリアリティ株式会社,,株式会社,愛知県,名古屋市南区,道徳通２丁目５１道徳ビル１Ｆ,,23,112,4570846,,,,,,,2025-01-07,1,,,,,アースリアリティ,0
1324,5180003027828,新規,0,2025-01-07,2025-01-07,ＳＳＳ合同会社,,合同会社,愛知県,名古屋市守山区,金屋２丁目３９６番地の８,,23,113,4630072,,,,,,,2025-01-07,1,,,,,エスエスエス,0
1328,5180301039401,新規,0,2025-01-07,2025-01-07,株式会社ｃｏｅｖｏＡＩ,,株式会社,愛知県,高浜市,論地町２丁目２番地２８８,,23,227,4441314,,,,,,,2025-01-07,1,,,,,コーエボエイアイ,0
1330,5190001031913,新規,0,2025-01-07,2025-01-07,株式会社ＡＲＣＳ,,株式会社,三重県,松阪市,飯高町宮前６０１,,24,204,5151502,,,,,,,2025-01-07,1,,,,,アークス,0
1336,5210001020013,新規,0,2025-01-07,2025-01-07,株式会社リゲル,,株式会社,福井県,福井市,御幸３丁目１１番１０号,,18,201,9100854,,,,,,,2025-01-07,1,,,,,リゲル,0
1337,5210001020021,新規,0,2025-01-07,2025-01-07,株式会社ヘッドスプリングＤＭＳ,,株式会社,福井県,坂井市,春江町境第１７号６番地,,18,210,9190434,,,,,,,2025-01-07,1,,,,,ヘッドスプリングディーエムエス,0
1342,5220001026406,新規,0,2025-01-07,2025-01-07,株式会社ツーノ,,株式会社,石川県,白山市,殿町４５番地,,17,210,9240885,,,,,,,2025-01-07,1,,,,,ツーノ,0
1346,5240001064338,新規,0,2025-01-07,2025-01-07,株式会社セイデン,,株式会社,広島県,広島市中区,東白島町１９番７６号,,34,101,7300004,,,,,,,2025-01-07,1,,,,,セイデン,0
1363,5250003003623,新規,0,2025-01-07,2025-01-07,合同会社ａｚｕｆａｒｍ,,合同会社,山口県,下松市,瑞穂町２丁目６番３号,,35,207,7440075,,,,,,,2025-01-07,1,,,,,アズファーム,0
1373,5280003001905,新規,0,2025-01-07,2025-01-07,合同会社ＣｏｄｅＮａｍｅ,,合同会社,島根県,鹿足郡吉賀町,有飯８６番地,,32,505,6995506,,,,,,,2025-01-07,1,,,,,コードネーム,0
1377,5290001108453,新規,0,2025-01-07,2025-01-07,ｗａｂａ株式会社,,株式会社,福岡県,福岡市中央区,大手門２丁目４番３６－１２０４号,,40,133,8100074,,,,,,,2025-01-07,1,,,,,ワバ,0
1378,5290001108503,新規,0,2025-01-07,2025-01-07,株式会社高文技研設備,,株式会社,福岡県,春日市,須玖北４丁目１０番地１００１,,40,218,8160864,,,,,,,2025-01-07,1,,,,,コウブンギケンセツビ,0
1383,5290003016233,新規,0,2025-01-07,2025-01-07,宮大工養成塾福岡校合同会社,,合同会社,福岡県,福岡市博多区,下呉服町５番２１号,,40,132,8120034,,,,,,,2025-01-07,1,,,,,ミヤダイクヨウセイジュクフクオカコウ,0
1387,5290803004940,新規,0,2025-01-07,2025-01-07,松下合同会社,,合同会社,福岡県,北九州市若松区,塩屋４丁目１番４－７０５号,,40,103,8080131,,,,,,,2025-01-07,1,,,,,マツシタ,0
1388,5300001014039,新規,0,2025-01-07,2025-01-07,株式会社ＧＥＮＫＡＩ,,株式会社,佐賀県,伊万里市,松島町９５番地１はかせビル３０１,,41,205,8480045,,,,,,,2025-01-07,1,,,,,ゲンカイ,0
1391,5320003004548,新規,0,2025-01-07,2025-01-07,合同会社ＨＡＢＥＸ,,合同会社,大分県,大分市,大字森５６１番地の２,,44,201,8700128,,,,,,,2025-01-07,1,,,,,ハベックス,0
1394,5330001032764,新規,0,2025-01-07,2025-01-07,株式会社Ｍａｎａ,,株式会社,熊本県,熊本市中央区,新町４丁目５番１８号,,43,101,8600004,,,,,,,2025-01-07,1,,,,,マナ,0
1395,5330001032780,新規,0,2025-01-07,2025-01-07,株式会社レガーメサイン,,株式会社,熊本県,熊本市中央区,水前寺２丁目１６番１号,,43,101,8620950,,,,,,,2025-01-07,1,,,,,レガーメサイン,0
1397,5340001027037,新規,0,2025-01-07,2025-01-07,マグノリア株式会社,,株式会社,鹿児島県,霧島市,牧園町宿窪田９４１番地１,,46,218,8996507,,,,,,,2025-01-07,1,,,,,マグノリア,0
1398,5350001019347,新規,0,2025-01-07,2025-01-07,株式会社横川アドバンスグループ,,株式会社,宮崎県,東臼杵郡門川町,上町２丁目９番地１１,,45,421,8890614,,,,,,,2025-01-07,1,,,,,ヨコガワアドバンスグループ,0
1399,5360001034592,新規,0,2025-01-07,2025-01-07,株式会社ＡＫｉＮＡＷＡＮ,,株式会社,沖縄県,宜野湾市,真志喜１丁目２３－１６・３Ｆ,,47,205,9012224,,,,,,,2025-01-07,1,,,,,アキナワン,0
1400,5360001034618,新規,0,2025-01-07,2025-01-07,セブンファームズＪＰ株式会社,,株式会社,沖縄県,島尻郡南風原町,字照屋９番地３号－１０２号,,47,350,9011116,,,,,,,2025-01-07,1,,,,,セブンファームズジャパン,0
1402,5360003014551,新規,0,2025-01-07,2025-01-07,合同会社Ｓｕｎ　Ｒｉｓｅ,,合同会社,沖縄県,中頭郡北谷町,字宮城３番地２８６（３Ｆ）,,47,326,9040113,,,,,,,2025-01-07,1,,,,,サンライズ,0
1403,5360003014576,新規,0,2025-01-07,2025-01-07,合同会社井上工業,,合同会社,沖縄県,南城市,玉城字中山７７番地,,47,215,9010605,,,,,,,2025-01-07,1,,,,,イノウエコウギョウ,0
1407,5370003006878,新規,0,2025-01-07,2025-01-07,合同会社Ｓａｉｄｏ,,合同会社,宮城県,仙台市青葉区,本町１丁目５－２８,,04,101,9800014,,,,,,,2025-01-07,1,,,,,サイド,0
1410,5400003003368,新規,0,2025-01-07,2025-01-07,胆沢農産合同会社,,合同会社,岩手県,奥州市,胆沢小山字北大畑平１４１番地,,03,215,0230402,,,,,,,2025-01-07,1,,,,,イサワノウサン,0
1413,5410003004027,新規,0,2025-01-07,2025-01-07,合同会社Ｏｒｉｇｉｎｅ,,合同会社,秋田県,秋田市,上北手百崎字二タ子沢５４番地,,05,201,0101407,,,,,,,2025-01-07,1,,,,,オリジン,0
1421,5430001093400,新規,0,2025-01-07,2025-01-07,株式会社芝ファーム,,株式会社,北海道,札幌市中央区,北五条西６丁目１番地２３北海道通信ビル８階,,01,101,0600005,,,,,,,2025-01-07,1,,,,,シバファーム,0
1422,5430003017142,新規,0,2025-01-07,2025-01-07,合同会社ＳＡＲＡＳＨＩＮＡ　ＭＩＫＡＳＡ,,合同会社,北海道,三笠市,幾春別町１丁目１７４番地更科食堂,,01,222,0682116,,,,,,,2025-01-07,1,,,,,サラシナミカサ,0
1427,5470001020516,新規,0,2025-01-07,2025-01-07,ササモトホールディングス株式会社,,株式会社,香川県,三豊市,三野町大見甲１８０番地１,,37,208,7670031,,,,,,,2025-01-07,1,,,,,ササモトホールディングス,0
1431,5490001010936,新規,0,2025-01-07,2025-01-07,株式会社ＹＯＫＯＢＡＴＡＫＥ‐ｉｃｅ,,株式会社,高知県,高岡郡佐川町,乙１８３８番地３,,39,402,7891202,,,,,,,2025-01-07,1,,,,,ヨコバタケアイス,0
1432,5500001026047,新規,0,2025-01-07,2025-01-07,株式会社八作Ｑ,,株式会社,愛媛県,松山市,土居田町４２８番地,,38,201,7900056,,,,,,,2025-01-07,1,,,,,ハチサク,0
1446,6010001250991,新規,0,2025-01-07,2025-01-07,ニホネックス株式会社,,株式会社,東京都,千代田区,霞が関３丁目２番５号,,13,101,1000013,,,,,,,2025-01-07,1,,,,,ニホネックス,0
1447,6010001251081,新規,0,2025-01-07,2025-01-07,ＲｅＮｏｖａ　Ｊａｐａｎ株式会社,,株式会社,東京都,中央区,新富１丁目６番５－３１１号,,13,102,1040041,,,,,,,2025-01-07,1,,,,,レノヴァジャパン,0
1448,6010001251098,新規,0,2025-01-07,2025-01-07,アシスト株式会社,,株式会社,東京都,千代田区,神田錦町３丁目１９番４号,,13,101,1010054,,,,,,,2025-01-07,1,,,,,アシスト,0
1449,6010001251156,新規,0,2025-01-07,2025-01-07,株式会社ことなり,,株式会社,東京都,千代田区,丸の内１丁目１１－１パシフィックセンチュリープレイス丸の内１３階,,13,101,1000005,,,,,,,2025-01-07,1,,,,,コトナリ,0
1456,6010005039366,新規,0,2025-01-07,2025-01-07,一般社団法人ＬＥＶＥＣＨＹ２０号,,その他の設立登記法人,東京都,千代田区,紀尾井町３－８第２紀尾井町ビル９０１アクシス綜合会計事務所内,,13,101,1020094,,,,,,,2025-01-07,1,,,,,レベチーニジュウゴウ,0
1461,6010501053440,新規,0,2025-01-07,2025-01-07,Ｃｏｌｏｒｉｎｇ　Ｐｒｅｓｅｎｔ株式会社,,株式会社,東京都,台東区,東上野２丁目１４番５－１３０６号,,13,106,1100015,,,,,,,2025-01-07,1,,,,,カラーリングプレゼント,0
1467,6010601066532,新規,0,2025-01-07,2025-01-07,株式会社ブラックボックスジャパン,,株式会社,東京都,江東区,北砂４丁目４０番１１号菱沼方,,13,108,1360073,,,,,,,2025-01-07,1,,,,,ブラックボックスジャパン,0
1468,6010601066540,新規,0,2025-01-07,2025-01-07,ＧＣパートナーズ株式会社,,株式会社,東京都,江東区,木場６丁目４番２号ＫＩビル,,13,108,1350042,,,,,,,2025-01-07,1,,,,,ジーシーパートナーズ,0
1469,6010601066549,新規,0,2025-01-07,2025-01-07,株式会社Ｋａｎａｒｉａ　Ｃｏｎｓｕｌｔｉｎｇ,,株式会社,東京都,江東区,東陽２丁目２番１４－１３２７号,,13,108,1350016,,,,,,,2025-01-07,1,,,,,カナリアコンサルティング,0
1470,6010801035717,新規,0,2025-01-07,2025-01-07,株式会社ＡＪＹ,,株式会社,東京都,大田区,大森北１丁目１３番１１号,,13,111,1430016,,,,,,,2025-01-07,1,,,,,エージェーワイ,0
1472,6010901056571,新規,0,2025-01-07,2025-01-07,株式会社あまね,,株式会社,東京都,世田谷区,新町２丁目３８番７号,,13,112,1540014,,,,,,,2025-01-07,1,,,,,アマネ,0
1473,6010903009602,新規,0,2025-01-07,2025-01-07,合同会社Ｅａｓｔｅｒｎ　Ｇｒａｐｈｉｃｓ　Ｃｏ．,,合同会社,東京都,世田谷区,等々力２丁目５番２８号Ｔ・Ａ・Ｂハウス２０１,,13,112,1580082,,,,,,,2025-01-07,1,,,,,イースタングラフィックスカンパニー,0
1475,6011001166550,新規,0,2025-01-07,2025-01-07,株式会社ｔａｓｈｉｄｅｌｅｋ．,,株式会社,東京都,渋谷区,恵比寿西２丁目４番８号ウィンド恵比寿ビル８Ｆ,,13,113,1500021,,,,,,,2025-01-07,1,,,,,タシデレ,0
1476,6011001166807,新規,0,2025-01-07,2025-01-07,Ｄｉｇｉｔａｌ　Ｃｌｉｍａｔｅ　Ｊａｐａｎ株式会社,,株式会社,東京都,渋谷区,桜丘町１番４号,,13,113,1500031,,,,,,,2025-01-07,1,,,,,デジタルクライメートジャパン,0
1477,6011001166864,新規,0,2025-01-07,2025-01-07,株式会社ＡＸｉＳＴ,,株式会社,東京都,渋谷区,神宮前６丁目２９番４号原宿ｋｏｍｉｙａビル６階,,13,113,1500001,,,,,,,2025-01-07,1,,,,,アクシスト,0
1478,6011001166872,新規,0,2025-01-07,2025-01-07,アルファスピカ株式会社,,株式会社,東京都,渋谷区,道玄坂１丁目１０番８号渋谷道玄坂東急ビル２Ｆ－Ｃ,,13,113,1500043,,,,,,,2025-01-07,1,,,,,アルファスピカ,0
1479,6011001166880,新規,0,2025-01-07,2025-01-07,ＳＡＩＫＯ株式会社,,株式会社,東京都,渋谷区,渋谷２丁目１０番６号山田青山ビル３Ｆ,,13,113,1500002,,,,,,,2025-01-07,1,,,,,サイコウ,0
1480,6011001166922,新規,0,2025-01-07,2025-01-07,株式会社ａｎｅｉｌｏ,,株式会社,東京都,渋谷区,恵比寿１丁目９番１０－９０２号,,13,113,1500013,,,,,,,2025-01-07,1,,,,,アネイロ,0
1481,6011003020689,新規,0,2025-01-07,2025-01-07,合同会社Ａｒｔｉｎｅｘ,,合同会社,東京都,渋谷区,鶯谷町１４－４－３０７,,13,113,1500032,,,,,,,2025-01-07,1,,,,,アーティネクス,0
1482,6011003020706,新規,0,2025-01-07,2025-01-07,合同会社Ｃｏｎｎｅｃｔｉｏｎ,,合同会社,東京都,渋谷区,神南１丁目１１－４ＦＰＧリンクス神南５階,,13,113,1500041,,,,,,,2025-01-07,1,,,,,コネクション,0
1483,6011003020714,新規,0,2025-01-07,2025-01-07,合同会社フロンティア,,合同会社,東京都,渋谷区,渋谷２丁目１９－１５宮益坂ビルディング６０９,,13,113,1500002,,,,,,,2025-01-07,1,,,,,フロンティア,0
1484,6011003020730,新規,0,2025-01-07,2025-01-07,合同会社ワンブレイク,,合同会社,東京都,目黒区,中町１丁目６番１７号,,13,110,1530065,,,,,,,2025-01-07,1,,,,,ワンブレイク,0
1487,6011501031551,新規,0,2025-01-07,2025-01-07,株式会社Ｃｏｎｎｅｃｔｉｃａ,,株式会社,東京都,荒川区,東日暮里６丁目５８番１０号,,13,118,1160014,,,,,,,2025-01-07,1,,,,,コネクティカ,0
1489,6011701027944,新規,0,2025-01-07,2025-01-07,株式会社ＬＩＶＩＴＡＳ,,株式会社,東京都,江戸川区,東葛西６丁目１５番１９号,,13,123,1340084,,,,,,,2025-01-07,1,,,,,リヴィタス,0
1491,6012401042622,新規,0,2025-01-07,2025-01-07,株式会社Ｌａｎａ,,株式会社,東京都,武蔵野市,吉祥寺南町２丁目１３番３号,,13,203,1800003,,,,,,,2025-01-07,1,,,,,ラナ,0
1492,6012403006897,新規,0,2025-01-07,2025-01-07,バックステージ合同会社,,合同会社,東京都,三鷹市,井の頭５丁目７番２号,,13,204,1810001,,,,,,,2025-01-07,1,,,,,バックステージ,0
1493,6013101009597,新規,0,2025-01-07,2025-01-07,キシノ自販株式会社,,株式会社,東京都,西多摩郡瑞穂町,大字長岡長谷部３１４－１,,13,303,1901231,,,,,,,2025-01-07,1,,,,,キシノジハン,0
1496,6013301053585,新規,0,2025-01-07,2025-01-07,競馬福助株式会社,,株式会社,東京都,豊島区,池袋本町１丁目１７番４号,,13,116,1700011,,,,,,,2025-01-07,1,,,,,ケイバフクスケ,0
1497,6013301053593,新規,0,2025-01-07,2025-01-07,Ｍｉｇｉｓｈｉ株式会社,,株式会社,東京都,豊島区,池袋２丁目２４番２号１４０２号,,13,116,1710014,,,,,,,2025-01-07,1,,,,,ミギシ,0
1498,6013301053602,新規,0,2025-01-07,2025-01-07,株式会社ＺＩＯＮ,,株式会社,東京都,豊島区,要町３丁目２３番１２号．クレセントビルＢ１,,13,116,1710043,,,,,,,2025-01-07,1,,,,,ザイオン,0
1499,6013303007465,新規,0,2025-01-07,2025-01-07,合同会社ｔｒｕｔｈ　ｏｎｅ,,合同会社,東京都,豊島区,南長崎１丁目６番７号グランプラス西目白２０２号,,13,116,1710052,,,,,,,2025-01-07,1,,,,,トゥルースワン,0
1504,6020001160728,新規,0,2025-01-07,2025-01-07,株式会社Ｒｉｓｅ,,株式会社,神奈川県,川崎市麻生区,下麻生２丁目２０番２８号,,14,137,2150022,,,,,,,2025-01-07,1,,,,,ライズ,0
1515,6020003027537,新規,0,2025-01-07,2025-01-07,トータルコンサルティングサービス合同会社,,合同会社,神奈川県,川崎市高津区,梶ケ谷２丁目１１番地１ヴィークコート梶ヶ谷４０５,,14,134,2130015,,,,,,,2025-01-07,1,,,,,トータルコンサルティングサービス,0
1517,6021001084140,新規,0,2025-01-07,2025-01-07,株式会社ＨｅａｌｔｈｙＭ３,,株式会社,神奈川県,藤沢市,辻堂２丁目９番３号辻堂プルミエビル８Ｆ,,14,205,2510047,,,,,,,2025-01-07,1,,,,,ヘルシーエムスリー,0
1524,6030001164182,新規,0,2025-01-07,2025-01-07,株式会社Ｕｎｒｉｖａｌｌｅｄ,,株式会社,埼玉県,和光市,本町３番１３号タウンコートエクセル２階,,11,229,3510114,,,,,,,2025-01-07,1,,,,,アンライバルド,0
1525,6030001164208,新規,0,2025-01-07,2025-01-07,株式会社Ｂｉｌｌｓ,,株式会社,埼玉県,川口市,大字石神１２８５番地の７,,11,203,3330823,,,,,,,2025-01-07,1,,,,,ビルズ,0
1526,6030001164216,新規,0,2025-01-07,2025-01-07,株式会社Ｗｉｌｌ,,株式会社,埼玉県,入間市,久保稲荷２丁目１１番地８,,11,225,3580024,,,,,,,2025-01-07,1,,,,,ウィル,0
1527,6030001164232,新規,0,2025-01-07,2025-01-07,株式会社アウトライブ,,株式会社,埼玉県,児玉郡上里町,大字嘉美９９番地２,,11,385,3690307,,,,,,,2025-01-07,1,,,,,アウトライブ,0
1528,6030001164240,新規,0,2025-01-07,2025-01-07,山本工業株式会社,,株式会社,埼玉県,越谷市,川柳町１丁目８２番地１,,11,222,3430827,,,,,,,2025-01-07,1,,,,,ヤマモトコウギョウ,0
1533,6040001136742,新規,0,2025-01-07,2025-01-07,株式会社パサージュ,,株式会社,千葉県,柏市,大津ケ丘３丁目３４番地１３,,12,217,2770921,,,,,,,2025-01-07,1,,,,,パサージュ,0
1534,6040001136750,新規,0,2025-01-07,2025-01-07,株式会社三栄エステート,,株式会社,千葉県,市原市,光風台２丁目２４１番地,,12,219,2900255,,,,,,,2025-01-07,1,,,,,サンエイエステート,0
1535,6040001136767,新規,0,2025-01-07,2025-01-07,株式会社ＳＳＳ,,株式会社,千葉県,山武郡横芝光町,栗山７６５番地１２,,12,410,2891733,,,,,,,2025-01-07,1,,,,,スリーエス,0
1536,6040001136809,新規,0,2025-01-07,2025-01-07,株式会社ＨＡＭＡＳＨＯ,,株式会社,千葉県,船橋市,二和東６丁目２４番１１号,,12,204,2740805,,,,,,,2025-01-07,1,,,,,ハマショウ,0
1537,6040001136841,新規,0,2025-01-07,2025-01-07,株式会社ＴＲＵＳＴ‐ＷＯＲＫＳ．,,株式会社,千葉県,旭市,仁玉２１１３－１,,12,215,2892525,,,,,,,2025-01-07,1,,,,,トラストワークス,0
1538,6040001136916,新規,0,2025-01-07,2025-01-07,株式会社Ｒｅｍｉｋｓ,,株式会社,千葉県,東金市,南上宿３１―２,,12,213,2830066,,,,,,,2025-01-07,1,,,,,リミックス,0
1543,6040003026487,新規,0,2025-01-07,2025-01-07,合同会社Ｓａｌｕｔｅ,,合同会社,千葉県,流山市,おおたかの森北１丁目５番地の２ＳＥＲＥＮＡおおたかの森１Ｆ,,12,220,2700119,,,,,,,2025-01-07,1,,,,,サルーテ,0
1544,6040003026504,新規,0,2025-01-07,2025-01-07,合同会社ＫＮ,,合同会社,千葉県,大網白里市,駒込１２０３番地３－２階,,12,239,2993235,,,,,,,2025-01-07,1,,,,,ケイエヌ,0
1545,6040003026520,新規,0,2025-01-07,2025-01-07,市原農園合同会社,,合同会社,千葉県,市原市,安須２３９番地３,,12,219,2900253,,,,,,,2025-01-07,1,,,,,イチハラノウエン,0
1546,6040003026553,新規,0,2025-01-07,2025-01-07,合同会社ＳＵＲＰＲＥＳＳ,,合同会社,千葉県,船橋市,湊町２丁目１２－２４湊町日本橋ビル６Ｆ,,12,204,2730011,,,,,,,2025-01-07,1,,,,,サプレス,0
1548,6050001055933,新規,0,2025-01-07,2025-01-07,ＢＡＩＧ　ＯＹＡＭＡ　ＭＯＴＯＲ株式会社,,株式会社,茨城県,古河市,上和田１１７番地１,,08,204,3060122,,,,,,,2025-01-07,1,,,,,ベーグオヤマモーター,0
1549,6050001055958,新規,0,2025-01-07,2025-01-07,クリーン・マネジメントラボ株式会社,,株式会社,茨城県,日立市,弁天町１丁目２２番９号,,08,202,3170072,,,,,,,2025-01-07,1,,,,,クリーンマネジメントラボ,0
1555,6070005010338,新規,0,2025-01-07,2025-01-07,医療法人友和会,,その他の設立登記法人,群馬県,安中市,原市３８７５番地,,10,211,3790133,,,,,,,2025-01-07,1,,,,,ユウワカイ,0
1556,6080101025230,新規,0,2025-01-07,2025-01-07,株式会社リオネクト,,株式会社,静岡県,三島市,長伏１２０番地の５,,22,206,4110824,,,,,,,2025-01-07,1,,,,,リオネクト,0
1557,6080401027661,新規,0,2025-01-07,2025-01-07,株式会社シマダエフイー,,株式会社,静岡県,浜松市中央区,幸２丁目５２番１０号,,22,138,4338123,,,,,,,2025-01-07,1,,,,,シマダエフイー,0
1558,6100001038172,新規,0,2025-01-07,2025-01-07,株式会社Ｃｏｎｎｅｃｔｉｎｇ　Ｈａｐｐｉｎｅｓｓ,,株式会社,長野県,小諸市,荒町１丁目６番２０号,,20,208,3840014,,,,,,,2025-01-07,1,,,,,コネクティングハピネス,0
1575,6120001271548,新規,0,2025-01-07,2025-01-07,株式会社ＮＩＡＷＡＳＥ．ＪＡＰＡＮ,,株式会社,大阪府,大阪市北区,茶屋町１２番６号エスパシオン梅田ビル２階,,27,127,5300013,,,,,,,2025-01-07,1,,,,,ニアワセジャパン,0
1576,6120001271556,新規,0,2025-01-07,2025-01-07,ファスネストホールディングス株式会社,,株式会社,大阪府,大阪市福島区,吉野５丁目２番２６号,,27,103,5530006,,,,,,,2025-01-07,1,,,,,ファスネストホールディングス,0
1577,6120001271663,新規,0,2025-01-07,2025-01-07,ＬＩＦＴＩ　ｂａｎｋ株式会社,,株式会社,大阪府,大阪市北区,梅田２丁目４番１３号阪神産経桜橋ビル５階,,27,127,5300001,,,,,,,2025-01-07,1,,,,,リフティバンク,0
1580,6120003028269,新規,0,2025-01-07,2025-01-07,合同会社ウィード,,合同会社,大阪府,枚方市,須山町９番１２号,,27,210,5731164,,,,,,,2025-01-07,1,,,,,ウィード,0
1581,6120003028277,新規,0,2025-01-07,2025-01-07,Ａｓｐｉｒｅ　ｘ　Ｎｅｘｕｓ合同会社,,合同会社,大阪府,大阪市北区,梅田１丁目２番２号大阪駅前第２ビル１２－１２,,27,127,5300001,,,,,,,2025-01-07,1,,,,,アスパイアネクサス,0
1582,6120003028285,新規,0,2025-01-07,2025-01-07,わらいぶくろ合同会社,,合同会社,大阪府,大阪市北区,梅田１丁目１－３大阪駅前第３ビル２３０７,,27,127,5300001,,,,,,,2025-01-07,1,,,,,ワライブクロ,0
1583,6120101070833,新規,0,2025-01-07,2025-01-07,株式会社まるた,,株式会社,大阪府,堺市西区,平岡町２４番地１,,27,144,5938307,,,,,,,2025-01-07,1,,,,,マルタ,0
1585,6120901050241,新規,0,2025-01-07,2025-01-07,Ｉ＆Ｔ株式会社,,株式会社,大阪府,吹田市,内本町１丁目１５番１５号,,27,205,5640032,,,,,,,2025-01-07,1,,,,,アイアンドティー,0
1586,6120903005499,新規,0,2025-01-07,2025-01-07,合同会社えん人,,合同会社,大阪府,茨木市,大字銭原１４８,,27,211,5680087,,,,,,,2025-01-07,1,,,,,エンジン,0
1587,6122001038761,新規,0,2025-01-07,2025-01-07,株式会社東洋ヘルス,,株式会社,大阪府,東大阪市,太平寺１丁目７－８,,27,227,5770844,,,,,,,2025-01-07,1,,,,,トウヨウヘルス,0
1595,6140001136823,新規,0,2025-01-07,2025-01-07,ＭＡＸＩＳホールディングス株式会社,,株式会社,兵庫県,尼崎市,宮内町１丁目３４番地,,28,202,6600877,,,,,,,2025-01-07,1,,,,,マクシスホールディングス,0
1596,6140001136872,新規,0,2025-01-07,2025-01-07,キタヒラ株式会社,,株式会社,兵庫県,加古川市,平岡町二俣９０５番地の１０６,,28,210,6750111,,,,,,,2025-01-07,1,,,,,キタヒラ,0
1597,6140001136906,新規,0,2025-01-07,2025-01-07,トレード株式会社,,株式会社,兵庫県,丹波篠山市,牛ケ瀬１４４－３、２階,,28,221,6692106,,,,,,,2025-01-07,1,,,,,トレード,0
1598,6140001136914,新規,0,2025-01-07,2025-01-07,株式会社岸上組,,株式会社,兵庫県,姫路市,網干区坂上３１７－５－１０３,,28,201,6711223,,,,,,,2025-01-07,1,,,,,キシガミグミ,0
1601,6140003021445,新規,0,2025-01-07,2025-01-07,合同会社ｂｕｋｈｔ,,合同会社,兵庫県,神戸市中央区,磯辺通１丁目１番１８号カサベラ国際プラザビル７０７,,28,110,6510084,,,,,,,2025-01-07,1,,,,,ブフト,0
1605,6150001027798,新規,0,2025-01-07,2025-01-07,ＯＴＯ株式会社,,株式会社,奈良県,葛城市,八川１９７番地１,,29,211,6392163,,,,,,,2025-01-07,1,,,,,オト,0
1607,6150003003467,新規,0,2025-01-07,2025-01-07,合同会社ＢＡＴＡ,,合同会社,奈良県,奈良市,西紀寺町３２番地の４,,29,201,6308307,,,,,,,2025-01-07,1,,,,,バタ,0
1608,6160001026460,新規,0,2025-01-07,2025-01-07,株式会社Ｒ．ｐｒｏｊｅｃｔ,,株式会社,滋賀県,大津市,枝１丁目５番３号,,25,201,5202275,,,,,,,2025-01-07,1,,,,,アールプロジェクト,0
1614,6180001164770,新規,0,2025-01-07,2025-01-07,株式会社キャリアライズ,,株式会社,愛知県,清須市,西枇杷島町城並３丁目１８番地２３,,23,233,4520011,,,,,,,2025-01-07,1,,,,,キャリアライズ,0
1615,6180001164779,新規,0,2025-01-07,2025-01-07,株式会社ソウカントク,,株式会社,愛知県,春日井市,上条町６丁目１１番地プリムローズＢ１０５号,,23,206,4860833,,,,,,,2025-01-07,1,,,,,ソウカントク,0
1624,6180301039400,新規,0,2025-01-07,2025-01-07,碧電気株式会社,,株式会社,愛知県,碧南市,源氏町１丁目３番地,,23,209,4470886,,,,,,,2025-01-07,1,,,,,アオイデンキ,0
1627,6210001020012,新規,0,2025-01-07,2025-01-07,株式会社カペラ,,株式会社,福井県,福井市,御幸３丁目１１番１０号,,18,201,9100854,,,,,,,2025-01-07,1,,,,,カペラ,0
1633,6240001064320,新規,0,2025-01-07,2025-01-07,株式会社Ｅｓｔｉｍｍｏ,,株式会社,広島県,広島市西区,己斐中３丁目５番２号,,34,104,7330813,,,,,,,2025-01-07,1,,,,,エスティモ,0
1634,6240001064345,新規,0,2025-01-07,2025-01-07,ユウケン株式会社,,株式会社,広島県,広島市佐伯区,五月が丘４丁目２９番２号,,34,108,7315101,,,,,,,2025-01-07,1,,,,,ユウケン,0
1636,6250003003622,新規,0,2025-01-07,2025-01-07,合同会社おかもと社会福祉士事務所,,合同会社,山口県,下関市,一の宮本町１丁目７番１１－４号,,35,201,7510808,,,,,,,2025-01-07,1,,,,,オカモトシャカイフクシシジムショ,0
1647,6290001108493,新規,0,2025-01-07,2025-01-07,ハラダダイニング株式会社,,株式会社,福岡県,福岡市早良区,昭代１丁目１７番１９号,,40,137,8140012,,,,,,,2025-01-07,1,,,,,ハラダダイニング,0
1648,6290001108502,新規,0,2025-01-07,2025-01-07,株式会社にこらす,,株式会社,福岡県,福岡市南区,皿山２丁目１－３１,,40,134,8111365,,,,,,,2025-01-07,1,,,,,ニコラス,0
1652,6300001014038,新規,0,2025-01-07,2025-01-07,株式会社ビオルネ,,株式会社,佐賀県,佐賀市,久保田町大字久保田１６５２番地２,,41,201,8490204,,,,,,,2025-01-07,1,,,,,ビオルネ,0
1655,6320003004547,新規,0,2025-01-07,2025-01-07,合同会社オバタ産業,,合同会社,大分県,大分市,日吉町２番２３号,,44,201,8700918,,,,,,,2025-01-07,1,,,,,オバタサンギョウ,0
1657,6330001032763,新規,0,2025-01-07,2025-01-07,株式会社ＹＵ‐ＳＨＩＮ,,株式会社,熊本県,熊本市東区,画図町大字下無田１３５番地９,,43,102,8620945,,,,,,,2025-01-07,1,,,,,ユーシン,0
1658,6330001032771,新規,0,2025-01-07,2025-01-07,株式会社輝道,,株式会社,熊本県,玉名市,立願寺５６４番地,,43,206,8650061,,,,,,,2025-01-07,1,,,,,テルミチ,0
1660,6350003004817,新規,0,2025-01-07,2025-01-07,合同会社夏生ファーム,,合同会社,宮崎県,都城市,牟田町７街区１８号ミューズコート店舗２階２０９号,,45,202,8850079,,,,,,,2025-01-07,1,,,,,ナツキファーム,0
1664,6360001034591,新規,0,2025-01-07,2025-01-07,もーみー・株式会社・クリエイト,,株式会社,沖縄県,名護市,東江４丁目２３番２０－５０１号西森アパート,,47,209,9050021,,,,,,,2025-01-07,1,,,,,モーミークリエイト,0
1665,6360001034617,新規,0,2025-01-07,2025-01-07,株式会社ファイブハンズ,,株式会社,沖縄県,那覇市,おもろまち１丁目１番２５－１８２３号,,47,201,9000006,,,,,,,2025-01-07,1,,,,,ファイブハンズ,0
1666,6360003014550,新規,0,2025-01-07,2025-01-07,合同会社ＩＮＴＥ　ＨＯＭＥ,,合同会社,沖縄県,中頭郡嘉手納町,字屋良９３４番地２０,,47,325,9040202,,,,,,,2025-01-07,1,,,,,インテホーム,0
1667,6360005007156,新規,0,2025-01-07,2025-01-07,税理士法人しろま,,その他の設立登記法人,沖縄県,宜野湾市,真志喜１丁目２番７号,,47,205,9012224,,,,,,,2025-01-07,1,,,,,シロマ,0
1668,6370001052089,新規,0,2025-01-07,2025-01-07,株式会社ウッディライフ,,株式会社,宮城県,仙台市青葉区,愛子東３丁目１０番６号,,04,101,9893127,,,,,,,2025-01-07,1,,,,,ウッディライフ,0
1670,6370003006877,新規,0,2025-01-07,2025-01-07,Ｐａｍｂｏ合同会社,,合同会社,宮城県,仙台市青葉区,高松２丁目１６番９号,,04,101,9810907,,,,,,,2025-01-07,1,,,,,パンボー,0
1675,6430001093408,新規,0,2025-01-07,2025-01-07,スカイブルー株式会社,,株式会社,北海道,札幌市北区,北三十五条西８丁目１番８号,,01,102,0010035,,,,,,,2025-01-07,1,,,,,スカイブルー,0
1676,6430001093424,新規,0,2025-01-07,2025-01-07,株式会社ティーアール,,株式会社,北海道,札幌市中央区,南五条西４丁目１番地１８ニュー美松ビル４Ｆ,,01,101,0640805,,,,,,,2025-01-07,1,,,,,ティーアール,0
1678,6430003017133,新規,0,2025-01-07,2025-01-07,合同会社アセットスペース,,合同会社,北海道,札幌市中央区,南十四条西１９丁目１番４６－１００７号プレミアステージ啓明,,01,101,0640914,,,,,,,2025-01-07,1,,,,,アセットスペース,0
1679,6430003017158,新規,0,2025-01-07,2025-01-07,合同会社コソサポ,,合同会社,北海道,札幌市手稲区,手稲本町一条１丁目３番４１号,,01,109,0060021,,,,,,,2025-01-07,1,,,,,コソサポ,0
1681,6460005001586,新規,0,2025-01-07,2025-01-07,一般社団法人ドリームサポートネットワーク,,その他の設立登記法人,北海道,釧路市,文苑２丁目９番４号,,01,206,0850063,,,,,,,2025-01-07,1,,,,,ドリームサポートネットワーク,0
1689,7010001251056,新規,0,2025-01-07,2025-01-07,星星電力日本株式会社,,株式会社,東京都,千代田区,丸の内１丁目４番１号丸の内永楽ビル２６０５号室,,13,101,1000005,,,,,,,2025-01-07,1,,,,,ホシボシデンリョクジャパン,0
1696,7010003045885,新規,0,2025-01-07,2025-01-07,栞アドバイザリー合同会社,,合同会社,東京都,中央区,日本橋室町１丁目１１番１２号日本橋水野ビル７階,,13,102,1030022,,,,,,,2025-01-07,1,,,,,シオリアドバイザリー,0
1697,7010003045927,新規,0,2025-01-07,2025-01-07,合同会社Ｔ‐ｌａｂ,,合同会社,東京都,千代田区,内神田１丁目４番１号,,13,101,1010047,,,,,,,2025-01-07,1,,,,,ティーラボ,0
1698,7010003045968,新規,0,2025-01-07,2025-01-07,ｅモビラ合同会社,,合同会社,東京都,文京区,向丘１丁目７－１１,,13,105,1130023,,,,,,,2025-01-07,1,,,,,イーモビラ,0
1699,7010003045976,新規,0,2025-01-07,2025-01-07,宮崎県都農バッテリー合同会社,,合同会社,東京都,千代田区,霞が関３丁目２番５号霞が関ビルディング３３階,,13,101,1000013,,,,,,,2025-01-07,1,,,,,ミヤザキケンツノバッテリー,0
1701,7010005039365,新規,0,2025-01-07,2025-01-07,一般社団法人ＬＥＶＥＣＨＹ１９号,,その他の設立登記法人,東京都,千代田区,紀尾井町３－８第２紀尾井町ビル９０１アクシス綜合会計事務所内,,13,101,1020094,,,,,,,2025-01-07,1,,,,,レベチージュウキュウゴウ,0
1704,7010403034050,新規,0,2025-01-07,2025-01-07,Ｋｉｎｔｓｕｇｉ　Ｇｒｏｕｐ合同会社,,合同会社,東京都,港区,赤坂４丁目７－６赤坂ビジネスコート３階３１１Ｇ号室,,13,103,1070052,,,,,,,2025-01-07,1,,,,,キンツギグループ,0
1705,7010405023910,新規,0,2025-01-07,2025-01-07,ＡＳＡ　ＧＬＯＢＡＬ行政書士法人,,その他の設立登記法人,東京都,港区,虎ノ門２丁目１０番４号,,13,103,1050001,,,,,,,2025-01-07,1,,,,,エーエスエーグローバル,0
1710,7010601066531,新規,0,2025-01-07,2025-01-07,株式会社ＰＥＲＦＥＣＴ,,株式会社,東京都,墨田区,千歳１丁目５番１－４０７号,,13,107,1300025,,,,,,,2025-01-07,1,,,,,パーフェクト,0
1714,7010801035699,新規,0,2025-01-07,2025-01-07,備前商事株式会社,,株式会社,東京都,大田区,南千束２丁目２３番１８号,,13,111,1450063,,,,,,,2025-01-07,1,,,,,ビゼンショウジ,0
1717,7010903009618,新規,0,2025-01-07,2025-01-07,合同会社ひふみ,,合同会社,東京都,世田谷区,赤堤５丁目１９番６号,,13,112,1560044,,,,,,,2025-01-07,1,,,,,ヒフミ,0
1719,7011001166780,新規,0,2025-01-07,2025-01-07,株式会社Ｆｕｅｒｔｅ　ｙ　Ｂｅｌｌａ,,株式会社,東京都,渋谷区,道玄坂１丁目１０番８号渋谷道玄坂東急ビル２Ｆ－Ｃ,,13,113,1500043,,,,,,,2025-01-07,1,,,,,フェイリテイーベラ,0
1720,7011001166830,新規,0,2025-01-07,2025-01-07,蔵山新道株式会社,,株式会社,東京都,渋谷区,道玄坂１丁目１０番８号渋谷道玄坂東急ビル２Ｆ－Ｃ,,13,113,1500043,,,,,,,2025-01-07,1,,,,,クラヤマシンドウ,0
1721,7011001166855,新規,0,2025-01-07,2025-01-07,株式会社ＴＡＲＡＲＥＢＡ,,株式会社,東京都,目黒区,中目黒１丁目３番８号渡辺ビル６階,,13,110,1530061,,,,,,,2025-01-07,1,,,,,タラレバ,0
1722,7011001166905,新規,0,2025-01-07,2025-01-07,アバンダンス・レジデンシャル株式会社,,株式会社,東京都,渋谷区,恵比寿西２丁目４番８号ウィンド恵比寿ビル８Ｆ,,13,113,1500021,,,,,,,2025-01-07,1,,,,,アバンダンスレジデンシャル,0
1723,7011001166913,新規,0,2025-01-07,2025-01-07,株式会社ＬＡＬＡＬａｉ,,株式会社,東京都,渋谷区,恵比寿西２丁目４番８号ウィンド恵比寿ビル８Ｆ,,13,113,1500021,,,,,,,2025-01-07,1,,,,,ララライ,0
1724,7011001166938,新規,0,2025-01-07,2025-01-07,株式会社Ｑｒａｆｔ,,株式会社,東京都,渋谷区,神南１丁目１１―４ＦＰＧリンクス神南５階,,13,113,1500041,,,,,,,2025-01-07,1,,,,,クラフト,0
1725,7011001166987,新規,0,2025-01-07,2025-01-07,ＡＮＴＩＴＬＥＤ株式会社,,株式会社,東京都,渋谷区,千駄ヶ谷２丁目２９番７－４０３号,,13,113,1510051,,,,,,,2025-01-07,1,,,,,アンタイトル,0
1726,7011001167003,新規,0,2025-01-07,2025-01-07,ｍｏｎｏｙａ株式会社,,株式会社,東京都,渋谷区,猿楽町１７番１０号代官山アートビレッジ２Ｃ,,13,113,1500033,,,,,,,2025-01-07,1,,,,,モノヤ,0
1727,7011003020721,新規,0,2025-01-07,2025-01-07,合同会社則重則秀の会,,合同会社,東京都,目黒区,東山２丁目１３番５－３０４号,,13,110,1530043,,,,,,,2025-01-07,1,,,,,ノリシゲノリヒデノカイ,0
1728,7011003020754,新規,0,2025-01-07,2025-01-07,合同会社ＡＬＱＵＥＭＩＳＴ,,合同会社,東京都,渋谷区,神宮前６丁目２３‐４桑野ビル２Ｆ,,13,113,1500001,,,,,,,2025-01-07,1,,,,,アルケミスト,0
1734,7011101110135,新規,0,2025-01-07,2025-01-07,株式会社デュアルライフ,,株式会社,東京都,新宿区,西新宿３丁目３番１３号西新宿水間ビル６階,,13,104,1600023,,,,,,,2025-01-07,1,,,,,デュアルライフ,0
1743,7011401026700,新規,0,2025-01-07,2025-01-07,東澤株式会社,,株式会社,東京都,板橋区,中丸町１６番１６号,,13,119,1730026,,,,,,,2025-01-07,1,,,,,トウサワ,0
1746,7011501031542,新規,0,2025-01-07,2025-01-07,株式会社凪沙,,株式会社,東京都,北区,赤羽北２丁目２４番１３号,,13,117,1150052,,,,,,,2025-01-07,1,,,,,ナギサ,0
1747,7011503006369,新規,0,2025-01-07,2025-01-07,合同会社Ｄｅｖａ,,合同会社,東京都,北区,志茂４丁目２８番１８号,,13,117,1150042,,,,,,,2025-01-07,1,,,,,ディーバ,0
1750,7011603004561,新規,0,2025-01-07,2025-01-07,合同会社もきゃっと,,合同会社,東京都,練馬区,旭町１丁目１５番１９号,,13,120,1790071,,,,,,,2025-01-07,1,,,,,モキャット,0
1752,7011701027935,新規,0,2025-01-07,2025-01-07,株式会社メルフォード,,株式会社,東京都,江戸川区,中葛西７丁目２０番５号－７０１号室,,13,123,1340083,,,,,,,2025-01-07,1,,,,,メルフォード,0
1753,7011701027943,新規,0,2025-01-07,2025-01-07,新世紀株式会社,,株式会社,東京都,江戸川区,本一色１丁目２４番２１号,,13,123,1330044,,,,,,,2025-01-07,1,,,,,シンセイキ,0
1754,7012301014209,新規,0,2025-01-07,2025-01-07,株式会社東京メディカルデバイス・エージェンシー,,株式会社,東京都,町田市,成瀬８丁目１７番２号,,13,209,1940044,,,,,,,2025-01-07,1,,,,,トウキョウメディカルデバイスエージェンシー,0
1757,7012403006896,新規,0,2025-01-07,2025-01-07,合同会社ＣＯＬＯＲＳ,,合同会社,東京都,府中市,白糸台５丁目１２－４コーポシャンティ１－５,,13,206,1830011,,,,,,,2025-01-07,1,,,,,カラーズ,0
1758,7012405005070,新規,0,2025-01-07,2025-01-07,一般社団法人国際協力育成会,,その他の設立登記法人,東京都,調布市,八雲台１丁目４番４号,,13,208,1820015,,,,,,,2025-01-07,1,,,,,コクサイキョウリョクイクセイカイ,0
1759,7012801023667,新規,0,2025-01-07,2025-01-07,株式会社関口測量,,株式会社,東京都,昭島市,武蔵野３丁目５番１号,,13,207,1960021,,,,,,,2025-01-07,1,,,,,セキグチソクリョウ,0
1760,7013101009596,新規,0,2025-01-07,2025-01-07,株式会社Ｌｕｃｅｒｅ,,株式会社,東京都,西多摩郡日の出町,大字大久野１０３２－１,,13,305,1900181,,,,,,,2025-01-07,1,,,,,ルチェーレ,0
1763,7013301053576,新規,0,2025-01-07,2025-01-07,株式会社ＭＡＲ,,株式会社,東京都,豊島区,東池袋２丁目６２番８号ＢＩＧオフィスプラザ池袋１１０２号室,,13,116,1700013,,,,,,,2025-01-07,1,,,,,エムエーアル,0
1764,7013301053601,新規,0,2025-01-07,2025-01-07,株式会社Ｒｅａｃｈ　Ｐａｒｔｎｅｒｓ,,株式会社,東京都,豊島区,巣鴨４丁目１４番１５－２０５号,,13,116,1700002,,,,,,,2025-01-07,1,,,,,リーチパートナーズ,0
1765,7013303007464,新規,0,2025-01-07,2025-01-07,合同会社ＺＥＲＯ　Ｖｉｓｉｏｎ,,合同会社,東京都,豊島区,東池袋２丁目６０－２池袋パークハイツ２Ｆ,,13,116,1700013,,,,,,,2025-01-07,1,,,,,ゼロビジョン,0
1773,7020001160834,新規,0,2025-01-07,2025-01-07,ｐｅｂｂｌｅ株式会社,,株式会社,神奈川県,川崎市高津区,溝口６丁目２０番９－５号,,14,134,2130001,,,,,,,2025-01-07,1,,,,,ペブル,0
1775,7020003027593,新規,0,2025-01-07,2025-01-07,合同会社ネクストソリューションズ,,合同会社,神奈川県,横浜市南区,大岡２丁目３１－２大岡インターナショナルレジデンス３０９,,14,105,2320061,,,,,,,2025-01-07,1,,,,,ネクストソリューションズ,0
1782,7021001084123,新規,0,2025-01-07,2025-01-07,株式会社ｎｏｄｏｍａｒｕ　ｐｌｕｓ,,株式会社,神奈川県,綾瀬市,大上８丁目１１番２４号,,14,218,2521104,,,,,,,2025-01-07,1,,,,,ノドマルプラス,0
1783,7021001084131,新規,0,2025-01-07,2025-01-07,株式会社ＬＩＢＥＲＴＡプランニング,,株式会社,神奈川県,厚木市,元町７番１３号Ｎビル３０３,,14,212,2430002,,,,,,,2025-01-07,1,,,,,リベルタプランニング,0
1787,7030001164149,新規,0,2025-01-07,2025-01-07,株式会社るぽぜ,,株式会社,埼玉県,鶴ヶ島市,大字脚折字上向１８１２－８,,11,241,3502213,,,,,,,2025-01-07,1,,,,,ルポゼ,0
1788,7030001164198,新規,0,2025-01-07,2025-01-07,株式会社千葉家,,株式会社,埼玉県,吉川市,高富１丁目１３番４号,,11,243,3420036,,,,,,,2025-01-07,1,,,,,チバヤ,0
1789,7030003025761,新規,0,2025-01-07,2025-01-07,中原合同会社,,合同会社,埼玉県,所沢市,大字神米金１９６番地の２１,,11,208,3590005,,,,,,,2025-01-07,1,,,,,ナカハラ,0
1790,7030003025778,新規,0,2025-01-07,2025-01-07,合同会社立和,,合同会社,埼玉県,川越市,仲町３番地２２,,11,201,3500065,,,,,,,2025-01-07,1,,,,,リューワ,0
1791,7030003025786,新規,0,2025-01-07,2025-01-07,合同会社ＮＭＴ,,合同会社,埼玉県,さいたま市岩槻区,大字鹿室９９６番地５,,11,110,3390001,,,,,,,2025-01-07,1,,,,,エヌエムティ,0
1792,7030003025811,新規,0,2025-01-07,2025-01-07,合同会社ＫＪ,,合同会社,埼玉県,越谷市,越ヶ谷１丁目１４番地２１越谷道のビル１階,,11,222,3430813,,,,,,,2025-01-07,1,,,,,ケイジェイ,0
1796,7040001136741,新規,0,2025-01-07,2025-01-07,株式会社よしかね,,株式会社,千葉県,船橋市,宮本６丁目３１番２０号,,12,204,2730003,,,,,,,2025-01-07,1,,,,,ヨシカネ,0
1797,7040001136766,新規,0,2025-01-07,2025-01-07,株式会社にしたに,,株式会社,千葉県,市川市,新田２丁目４番１３号パレスフィールド新田１０１号室,,12,203,2720035,,,,,,,2025-01-07,1,,,,,ニシタニ,0
1798,7040001136782,新規,0,2025-01-07,2025-01-07,株式会社ｃｌｏｖｅｒ,,株式会社,千葉県,柏市,豊四季１６７番地４１,,12,217,2770863,,,,,,,2025-01-07,1,,,,,クローバー,0
1799,7040001136808,新規,0,2025-01-07,2025-01-07,ミルブル株式会社,,株式会社,千葉県,千葉市若葉区,小倉台６丁目１１番１０号,,12,104,2640006,,,,,,,2025-01-07,1,,,,,ミルブル,0
1800,7040001136832,新規,0,2025-01-07,2025-01-07,株式会社ＭＩＲＡＩ　ＧＲＵＩＳ,,株式会社,千葉県,鎌ケ谷市,東道野辺４丁目７番３３－９号,,12,224,2730115,,,,,,,2025-01-07,1,,,,,ミライグルース,0
1801,7040001136840,新規,0,2025-01-07,2025-01-07,株式会社Ｍａｉｌｅ,,株式会社,千葉県,千葉市中央区,川戸町３７５番地１,,12,101,2600802,,,,,,,2025-01-07,1,,,,,マイル,0
1802,7040005022616,新規,0,2025-01-07,2025-01-07,一般社団法人未来まちづくりパートナーズ,,その他の設立登記法人,千葉県,柏市,若柴１７８番地４柏の葉キャンパス１４８街区２ショップ＆オフィス棟６Ｆ,,12,217,2770871,,,,,,,2025-01-07,1,,,,,ミライマチヅクリパートナーズ,0
1806,7050001055940,新規,0,2025-01-07,2025-01-07,株式会社ノトア,,株式会社,茨城県,日立市,若葉町３丁目２番６号,,08,202,3170063,,,,,,,2025-01-07,1,,,,,ノトア,0
1807,7050001055949,新規,0,2025-01-07,2025-01-07,株式会社オウショー,,株式会社,茨城県,水戸市,開江町１５７１番地の２,,08,201,3114144,,,,,,,2025-01-07,1,,,,,オウショー,0
1808,7050001055957,新規,0,2025-01-07,2025-01-07,株式会社ハンサム・コーポレーション,,株式会社,茨城県,笠間市,石井１００９番地６,,08,216,3091613,,,,,,,2025-01-07,1,,,,,ハンサムコーポレーション,0
1809,7050001055998,新規,0,2025-01-07,2025-01-07,株式会社さくらストラテジー,,株式会社,茨城県,東茨城郡大洗町,磯浜町１４２番地,,08,309,3111301,,,,,,,2025-01-07,1,,,,,サクラストラテジー,0
1813,7060001037789,新規,0,2025-01-07,2025-01-07,株式会社ＲＡＲＥ　ＦＯＲＭ,,株式会社,栃木県,宇都宮市,宝木本町１６９８番地１,,09,201,3200075,,,,,,,2025-01-07,1,,,,,レアフォーム,0
1814,7060001037797,新規,0,2025-01-07,2025-01-07,株式会社愁電工,,株式会社,栃木県,宇都宮市,細谷町５２８番地２ブリーズドゥース細谷Ｃ,,09,201,3200074,,,,,,,2025-01-07,1,,,,,シュウデンコウ,0
1822,7080401027669,新規,0,2025-01-07,2025-01-07,萩原建物管理株式会社,,株式会社,静岡県,浜松市中央区,中島４丁目１１番１０号,,22,138,4300856,,,,,,,2025-01-07,1,,,,,ハギワラタテモノカンリ,0
1824,7100001038171,新規,0,2025-01-07,2025-01-07,株式会社ＩＴＫ,,株式会社,長野県,下伊那郡高森町,下市田１６４６番地２ブランシェバンブー１０２号,,20,403,3993103,,,,,,,2025-01-07,1,,,,,アイティーケー,0
1827,7100003007926,新規,0,2025-01-07,2025-01-07,合同会社関モータース,,合同会社,長野県,諏訪市,大字湖南１３８９番地１,,20,206,3920131,,,,,,,2025-01-07,1,,,,,セキモータース,0
1838,7120001271506,新規,0,2025-01-07,2025-01-07,株式会社笹岡興業,,株式会社,大阪府,大阪市生野区,巽南４丁目８番２６号,00137522,27,116,5440015,,,,,,,2025-01-07,1,,,,,ササオカコウギョウ,0
1839,7120001271522,新規,0,2025-01-07,2025-01-07,株式会社Ｐｈａｒｍａｓｓｉｓｔ,,株式会社,大阪府,大阪市阿倍野区,天王寺町南３丁目１２番９号,,27,119,5450002,,,,,,,2025-01-07,1,,,,,ファーマシスト,0
1840,7120001271596,新規,0,2025-01-07,2025-01-07,株式会社ナーガザ,,株式会社,大阪府,大阪市中央区,東心斎橋２丁目４番１９号玉屋町ギャラクシービル３号館５０８号室,,27,128,5420083,,,,,,,2025-01-07,1,,,,,ナーガザ,0
1841,7120001271613,新規,0,2025-01-07,2025-01-07,古賀ホールディングス株式会社,,株式会社,大阪府,大阪市中央区,北浜東４番３３号北浜ネクスビルディング１７階,,27,128,5400031,,,,,,,2025-01-07,1,,,,,コガホールディングス,0
1842,7120001271646,新規,0,2025-01-07,2025-01-07,株式会社シバノ技建,,株式会社,大阪府,寝屋川市,昭栄町１番１８号,,27,215,5720834,,,,,,,2025-01-07,1,,,,,シバノギケン,0
1844,7120003028227,新規,0,2025-01-07,2025-01-07,クロステック合同会社,,合同会社,大阪府,大阪市北区,天神西町８－７山田きずなビル１階,,27,127,5300045,,,,,,,2025-01-07,1,,,,,クロステック,0
1845,7120003028251,新規,0,2025-01-07,2025-01-07,合同会社ｎｅｘｔＷａｌｌ,,合同会社,大阪府,大阪市西区,新町１丁目２４－８ノース四ツ橋２０３号,,27,106,5500013,,,,,,,2025-01-07,1,,,,,ネクストウォール,0
1846,7120005024678,新規,0,2025-01-07,2025-01-07,行政書士法人ＫＡＮＤＡ,,その他の設立登記法人,大阪府,大阪市淀川区,西中島４丁目７番３０号,,27,123,5320011,,,,,,,2025-01-07,1,,,,,カンダ,0
1850,7120101070832,新規,0,2025-01-07,2025-01-07,株式会社ＬＯＶＥノヴァＲＩＺＩＮＧ,,株式会社,大阪府,藤井寺市,小山７丁目１２３４番地の５,,27,226,5830033,,,,,,,2025-01-07,1,,,,,ラブノヴァライジング,0
1851,7120101070840,新規,0,2025-01-07,2025-01-07,株式会社進化論,,株式会社,大阪府,和泉市,府中町７丁目３番４０－１２１１号,,27,219,5940071,,,,,,,2025-01-07,1,,,,,シンカロン,0
1852,7120101070849,新規,0,2025-01-07,2025-01-07,株式会社ビッグブルーム,,株式会社,大阪府,和泉市,父鬼町１２８番地,,27,219,5941132,,,,,,,2025-01-07,1,,,,,ビッグブルーム,0
1853,7120105009950,新規,0,2025-01-07,2025-01-07,一般社団法人ＳＣＣ,,その他の設立登記法人,大阪府,泉大津市,助松町３丁目２番１７－４０２号,,27,206,5950071,,,,,,,2025-01-07,1,,,,,エスシーシー,0
1857,7120901050232,新規,0,2025-01-07,2025-01-07,株式会社ＳｍａｒｔＷｏｍａｎ,,株式会社,大阪府,吹田市,江坂町１丁目１４番３３号ＴＣＳビル,,27,205,5640063,,,,,,,2025-01-07,1,,,,,スマートウーマン,0
1858,7122001038760,新規,0,2025-01-07,2025-01-07,株式会社あやのこうじ布芸社,,株式会社,大阪府,大東市,中垣内３丁目５番６号,,27,218,5740013,,,,,,,2025-01-07,1,,,,,アヤノコウジフゲイシャ,0
1859,7130001078702,新規,0,2025-01-07,2025-01-07,株式会社ＭＡＬＵＴＳＵ,,株式会社,京都府,舞鶴市,字福来１５８番地２,,26,202,6240905,,,,,,,2025-01-07,1,,,,,マルツ,0
1864,7140001136905,新規,0,2025-01-07,2025-01-07,株式会社ＢＬＵＥＰＲＩＮＴ,,株式会社,兵庫県,神戸市灘区,六甲山町北六甲４５１２番地の６９０,,28,102,6570101,,,,,,,2025-01-07,1,,,,,ブループリント,0
1865,7140001136913,新規,0,2025-01-07,2025-01-07,株式会社ＫＳＤ,,株式会社,兵庫県,姫路市,車崎３丁目３番２号,,28,201,6700058,,,,,,,2025-01-07,1,,,,,ケーエスディー,0
1866,7140001136921,新規,0,2025-01-07,2025-01-07,グリーンテクノロジー株式会社,,株式会社,兵庫県,尼崎市,崇徳院１丁目７番地の２,,28,202,6600071,,,,,,,2025-01-07,1,,,,,グリーンテクノロジー,0
1867,7140001136938,新規,0,2025-01-07,2025-01-07,ｍｉｌｌｏ株式会社,,株式会社,兵庫県,神戸市東灘区,御影塚町２丁目４－９,,28,101,6580044,,,,,,,2025-01-07,1,,,,,ミロ,0
1869,7140003021469,新規,0,2025-01-07,2025-01-07,合同会社トリコシマリン,,合同会社,兵庫県,西宮市,西宮浜１丁目４６番地神戸マリーナ,,28,204,6620934,,,,,,,2025-01-07,1,,,,,トリコシマリン,0
1870,7140003021493,新規,0,2025-01-07,2025-01-07,合同会社といろ,,合同会社,兵庫県,姫路市,東山１５１サングリーンハイツＡ２０１,,28,201,6728014,,,,,,,2025-01-07,1,,,,,トイロ,0
1871,7140005027332,新規,0,2025-01-07,2025-01-07,内海事業協同組合,,その他の設立登記法人,兵庫県,神戸市中央区,京町７２番地新クレセントビル６階,,28,110,6500034,,,,,,,2025-01-07,1,,,,,ナイカイ,0
1876,7150001027789,新規,0,2025-01-07,2025-01-07,株式会社栄徳屋,00137521,株式会社,奈良県,橿原市,中曽司町１９７番地の１２,,29,205,6340845,,,,,,,2025-01-07,1,,,,,エイトクヤ,0
1879,7160003003374,新規,0,2025-01-07,2025-01-07,合同会社ＳＨＩＬＯ,,合同会社,滋賀県,近江八幡市,八木町４０２番地,,25,204,5230051,,,,,,,2025-01-07,1,,,,,シロ,0
1880,7170001018431,新規,0,2025-01-07,2025-01-07,クオリティＡＩ株式会社,,株式会社,和歌山県,西牟婁郡白浜町,中１７０１番３,,30,401,6492333,,,,,,,2025-01-07,1,,,,,クオリティエーアイ,0
1887,7180001164729,新規,0,2025-01-07,2025-01-07,加藤化学株式会社,,株式会社,愛知県,名古屋市千種区,今池３丁目４番１８号パートナーズ今池１２０１,,23,101,4640850,,,,,,,2025-01-07,1,,,,,カトウカガク,0
1888,7180001164836,新規,0,2025-01-07,2025-01-07,株式会社Ｌａ　ｓｏｒｔｅ,,株式会社,愛知県,名古屋市中村区,名駅３丁目４－１０アルティメイト名駅１ｓｔ２階,,23,105,4500002,,,,,,,2025-01-07,1,,,,,ラソルテ,0
1891,7180003027792,新規,0,2025-01-07,2025-01-07,合同会社ＤＷイノベーション,,合同会社,愛知県,名古屋市緑区,兵庫１丁目１３２６番地,,23,114,4580802,,,,,,,2025-01-07,1,,,,,ディーダブリューイノベーション,0
1892,7180005020886,新規,0,2025-01-07,2025-01-07,医療法人橋本クリニック,,その他の設立登記法人,愛知県,名古屋市瑞穂区,汐路町２丁目１番地２,,23,108,4670003,,,,,,,2025-01-07,1,,,,,ハシモトクリニック,0
1894,7180301039390,新規,0,2025-01-07,2025-01-07,株式会社バギー,,株式会社,愛知県,田原市,中山町新開５７番地１,,23,231,4413615,,,,,,,2025-01-07,1,,,,,バギー,0
1895,7180301039399,新規,0,2025-01-07,2025-01-07,株式会社Ｃｏｎｏｈａｎａ,,株式会社,愛知県,豊田市,竹生町２丁目４番地５,,23,211,4710077,,,,,,,2025-01-07,1,,,,,コノハナ,0
1899,7190001031911,新規,0,2025-01-07,2025-01-07,株式会社まごころ,,株式会社,三重県,津市,一志町高野１６０番地７４１,,24,201,5152504,,,,,,,2025-01-07,1,,,,,マゴコロ,0
1906,7210003001868,新規,0,2025-01-07,2025-01-07,合同会社ｋｅｅｐ,,合同会社,福井県,三方郡美浜町,坂尻第１８号５番地の１,,18,442,9191208,,,,,,,2025-01-07,1,,,,,キープ,0
1910,7230001020686,新規,0,2025-01-07,2025-01-07,株式会社ブルーバード,,株式会社,富山県,高岡市,和田２６３番地の１,,16,202,9330832,,,,,,,2025-01-07,1,,,,,ブルーバード,0
1911,7240001064336,新規,0,2025-01-07,2025-01-07,株式会社Ｈｙｐｅｒ　Ｋｒａｆｔ　Ａｕｔｏ,,株式会社,広島県,東広島市,豊栄町清武２４４９番地２９,,34,212,7392313,,,,,,,2025-01-07,1,,,,,ハイパークラフトオート,0
1912,7240001064344,新規,0,2025-01-07,2025-01-07,株式会社ダスティアーツ,,株式会社,広島県,広島市安佐南区,毘沙門台２丁目３番１６号,,34,105,7310152,,,,,,,2025-01-07,1,,,,,ダスティアーツ,0
1913,7240001064360,新規,0,2025-01-07,2025-01-07,株式会社佐々木建築工房,,株式会社,広島県,広島市南区,宇品神田４丁目８番２０号,,34,103,7340004,,,,,,,2025-01-07,1,,,,,ササキケンチクコウボウ,0
1916,7240003007004,新規,0,2025-01-07,2025-01-07,合同会社高博屋,00137517,合同会社,広島県,三原市,西宮１丁目１６－２６,,34,204,7230064,,,,,,,2025-01-07,1,,,,,タカヒロヤ,0
1917,7240003007012,新規,0,2025-01-07,2025-01-07,ＷＩＳＴ合同会社,,合同会社,広島県,広島市中区,大手町１丁目１－２０相生橋ビル７階Ａ号室,,34,101,7300051,,,,,,,2025-01-07,1,,,,,ウィスト,0
1925,7270001009115,新規,0,2025-01-07,2025-01-07,株式会社カーライフサポートショップ・ディーン,,株式会社,鳥取県,鳥取市,用瀬町別府４０番地２,,31,201,6891211,,,,,,,2025-01-07,1,,,,,カーライフサポートショップディーン,0
1926,7280001009329,新規,0,2025-01-07,2025-01-07,株式会社卜下農園,,株式会社,島根県,松江市,東出雲町錦新町６丁目７番１６号,,32,201,6990110,,,,,,,2025-01-07,1,,,,,ウラシタノウエン,0
1931,7290001108526,新規,0,2025-01-07,2025-01-07,株式会社ＴＴＰＲＥＳＩＤＥＮＴ,,株式会社,福岡県,大牟田市,大字歴木１８０７番地６２９,,40,202,8370924,,,,,,,2025-01-07,1,,,,,ティーティープレジデント,0
1932,7290003016248,新規,0,2025-01-07,2025-01-07,九州スーパーカー研究所合同会社,,合同会社,福岡県,久留米市,野中町１１２３番地５,,40,203,8390862,,,,,,,2025-01-07,1,,,,,キュウシュウスーパーカーケンキュウジョ,0
1934,7290801031167,新規,0,2025-01-07,2025-01-07,株式会社ミヤコ保全サービス,,株式会社,福岡県,京都郡苅田町,大字与原１９４５番地２２,,40,621,8000323,,,,,,,2025-01-07,1,,,,,ミヤコホゼンサービス,0
1937,7290803004939,新規,0,2025-01-07,2025-01-07,合同会社エスピーワン,,合同会社,福岡県,北九州市小倉北区,片野４丁目４番３１号,,40,106,8020064,,,,,,,2025-01-07,1,,,,,エスピーワン,0
1941,7310001019398,新規,0,2025-01-07,2025-01-07,株式会社ＬＬＣ,,株式会社,長崎県,長崎市,古川町６番３７－７０１号,,42,201,8500851,,,,,,,2025-01-07,1,,,,,エルエルシー,0
1945,7330001032762,新規,0,2025-01-07,2025-01-07,株式会社クマキ,,株式会社,熊本県,山鹿市,方保田１６４１番地,,43,208,8610382,,,,,,,2025-01-07,1,,,,,クマキ,0
1946,7330001032779,新規,0,2025-01-07,2025-01-07,株式会社たけむら,,株式会社,熊本県,熊本市中央区,京町２丁目８－１９,,43,101,8600078,,,,,,,2025-01-07,1,,,,,タケムラ,0
1948,7330003010700,新規,0,2025-01-07,2025-01-07,合同会社シエル,,合同会社,熊本県,熊本市中央区,中央街８番４号,,43,101,8600802,,,,,,,2025-01-07,1,,,,,シエル,0
1951,7350001019337,新規,0,2025-01-07,2025-01-07,株式会社コンテナキング,,株式会社,宮崎県,西諸県郡高原町,大字広原１０４５番地１,,45,361,8894411,,,,,,,2025-01-07,1,,,,,コンテナキング,0
1952,7350001019345,新規,0,2025-01-07,2025-01-07,株式会社Ｈｉｎａｔａライフアセットマネジメント,,株式会社,宮崎県,宮崎市,佐土原町東上那珂２３３６番地,,45,201,8800303,,,,,,,2025-01-07,1,,,,,ヒナタライフアセットマネジメント,0
1953,7350003004816,新規,0,2025-01-07,2025-01-07,合同会社Ｂｏｎｎｙ,,合同会社,宮崎県,宮崎市,清水３丁目４番地１,,45,201,8800021,,,,,,,2025-01-07,1,,,,,ボニー,0
1954,7360001034590,新規,0,2025-01-07,2025-01-07,ＫＩＮＧ　ＡＵＴＯ　ＲＥＰＡＩＲ株式会社,,株式会社,沖縄県,糸満市,西崎町３丁目４５８番地コーポ平成２０３,,47,210,9010306,,,,,,,2025-01-07,1,,,,,キングオートリペア,0
1955,7360001034599,新規,0,2025-01-07,2025-01-07,Ａ‐ｐｅｘ　ｐｌｕｓ株式会社,,株式会社,沖縄県,石垣市,字平得８９１－１３カーサファミリア,,47,207,9070003,,,,,,,2025-01-07,1,,,,,エーペックスプラス,0
1956,7360001034608,新規,0,2025-01-07,2025-01-07,株式会社ＥＮＹ,,株式会社,沖縄県,名護市,字為又１２２０番地７１フルーツランド２号館Ｃ区画,,47,209,9050005,,,,,,,2025-01-07,1,,,,,エニー,0
1957,7360001034616,新規,0,2025-01-07,2025-01-07,株式会社Ｉｎｎｏｖｉａ,,株式会社,沖縄県,沖縄市,中央１丁目７－８,,47,211,9040004,,,,,,,2025-01-07,1,,,,,イノヴィア,0
1960,7360003014566,新規,0,2025-01-07,2025-01-07,合同会社ＴＲＡＩＮ　ＯＮＥＳＥＬＦ,,合同会社,沖縄県,沖縄市,住吉１丁目４番１６号新垣店舗２Ｆ,,47,211,9040003,,,,,,,2025-01-07,1,,,,,トレインワンセルフ,0
1961,7360005007155,新規,0,2025-01-07,2025-01-07,一般社団法人シオン,,その他の設立登記法人,沖縄県,那覇市,松川２丁目１６番１号,,47,201,9020062,,,,,,,2025-01-07,1,,,,,シオン,0
1970,7400001016907,新規,0,2025-01-07,2025-01-07,Ｋｕｒａコンサルティング株式会社,,株式会社,岩手県,盛岡市,東安庭１丁目２－１８,,03,201,0200824,,,,,,,2025-01-07,1,,,,,クラコンサルティング,0
1971,7410001014026,新規,0,2025-01-07,2025-01-07,株式会社タノジデザイン,,株式会社,秋田県,秋田市,桜１丁目５番１１号,,05,201,0100042,,,,,,,2025-01-07,1,,,,,,0
1972,7420003003042,新規,0,2025-01-07,2025-01-07,合同会社エバーライト,,合同会社,青森県,つがる市,稲垣町沼崎船橋１番地３４,,02,209,0370106,,,,,,,2025-01-07,1,,,,,エバーライト,0
1975,7430001093415,新規,0,2025-01-07,2025-01-07,株式会社グリーンリーフ,,株式会社,北海道,札幌市北区,篠路町上篠路２６０番地１８,,01,102,0028052,,,,,,,2025-01-07,1,,,,,グリーンリーフ,0
1976,7430001093423,新規,0,2025-01-07,2025-01-07,株式会社翔正企画,,株式会社,北海道,札幌市東区,北四十一条東１９丁目３番３号,,01,103,0070841,,,,,,,2025-01-07,1,,,,,ショウセイキカク,0
1979,7450003002586,新規,0,2025-01-07,2025-01-07,バルコンサルティング合同会社,,合同会社,北海道,上川郡美瑛町,幸町２丁目５番１５号,,01,459,0710214,,,,,,,2025-01-07,1,,,,,バルコンサルティング,0
1983,7700150016925,新規,0,2025-01-07,2015-10-09,新座市産業観光協会,,その他,埼玉県,新座市,野火止１丁目１－１,,11,230,3520011,,,,,,,2015-10-09,1,,,,,ニイザシサンギヨウカンコウキヨウカイ,0
1988,8010001250973,新規,0,2025-01-07,2025-01-07,株式会社ミッション,,株式会社,東京都,中央区,日本橋兜町９番５号,,13,102,1030026,,,,,,,2025-01-07,1,,,,,ミッション,0
1989,8010001251063,新規,0,2025-01-07,2025-01-07,株式会社ＮＯＢ,,株式会社,東京都,文京区,後楽１丁目４番１４号後楽森ビル３階,,13,105,1120004,,,,,,,2025-01-07,1,,,,,エヌオービー,0
1990,8010001251071,新規,0,2025-01-07,2025-01-07,株式会社Ｒｅｇａａｒ,,株式会社,東京都,中央区,日本橋人形町３丁目６番３号,,13,102,1030013,,,,,,,2025-01-07,1,,,,,レガー,0
1993,8010003045918,新規,0,2025-01-07,2025-01-07,合同会社ＣＡ‐１,,合同会社,東京都,千代田区,神田神保町１丁目１１番地さくら綜合事務所内,,13,101,1010051,,,,,,,2025-01-07,1,,,,,シーエーワン,0
1996,8010005039356,新規,0,2025-01-07,2025-01-07,一般社団法人ＧＡＲＮＥＴ０２,,その他の設立登記法人,東京都,千代田区,霞が関３丁目２番５号,,13,101,1000013,,,,,,,2025-01-07,1,,,,,ガーネットゼロツー,0
2011,8010601066530,新規,0,2025-01-07,2025-01-07,株式会社ＭＡＩＫＡＩ,,株式会社,東京都,墨田区,立花１丁目５番９号,,13,107,1310043,,,,,,,2025-01-07,1,,,,,マイカイ,0
2012,8010601066539,新規,0,2025-01-07,2025-01-07,株式会社Ｓｗｉｎ　ｇｒｏｕｐ,,株式会社,東京都,墨田区,本所１丁目７番３－９０４号,,13,107,1300004,,,,,,,2025-01-07,1,,,,,スウィングループ,0
2014,8010603011303,新規,0,2025-01-07,2025-01-07,Ｇ合同会社,,合同会社,東京都,江東区,新大橋１丁目１番１３号,,13,108,1350007,,,,,,,2025-01-07,1,,,,,ジー,0
2020,8010901056586,新規,0,2025-01-07,2025-01-07,株式会社Ｇｉｆｔｅｄ,,株式会社,東京都,世田谷区,駒沢３丁目１４番６号ポルトボヌールコトホギ４０２,,13,112,1540012,,,,,,,2025-01-07,1,,,,,ギフテッド,0
2021,8010901056603,新規,0,2025-01-07,2025-01-07,株式会社Ｒ３６９,,株式会社,東京都,世田谷区,三軒茶屋２丁目６番１０号,,13,112,1540024,,,,,,,2025-01-07,1,,,,,アールミロク,0
2023,8011001166788,新規,0,2025-01-07,2025-01-07,株式会社Ｓｏｃｉａｌ　Ｓａｎｃｔｕｍ,,株式会社,東京都,目黒区,目黒１丁目３－２１－３０６,,13,110,1530063,,,,,,,2025-01-07,1,,,,,,0
2024,8011001166796,新規,0,2025-01-07,2025-01-07,株式会社ＹＨＫ,,株式会社,東京都,渋谷区,渋谷２丁目１９―１５宮益坂ビルディング６０９,,13,113,1500002,,,,,,,2025-01-07,1,,,,,ワイエイチケー,0
2025,8011001166805,新規,0,2025-01-07,2025-01-07,株式会社ｙａｄｏｒｉ,,株式会社,東京都,渋谷区,恵比寿西２丁目４番８号ウィンド恵比寿ビル８Ｆ,,13,113,1500021,,,,,,,2025-01-07,1,,,,,,0
2026,8011001166838,新規,0,2025-01-07,2025-01-07,株式会社ＣＵ,,株式会社,東京都,渋谷区,恵比寿４丁目２０番３号,,13,113,1500013,,,,,,,2025-01-07,1,,,,,シーユー,0
2027,8011001166846,新規,0,2025-01-07,2025-01-07,株式会社ＳＥＮＰＯ,,株式会社,東京都,渋谷区,道玄坂１丁目１０番８号渋谷道玄坂東急ビル２Ｆ－Ｃ,,13,113,1500043,,,,,,,2025-01-07,1,,,,,センポー,0
2028,8011001166854,新規,0,2025-01-07,2025-01-07,株式会社ロッシュリミット,,株式会社,東京都,渋谷区,神南１丁目１１番４号ＦＰＧリンクス神南５階,,13,113,1500041,,,,,,,2025-01-07,1,,,,,ロッシュリミット,0
2029,8011001166912,新規,0,2025-01-07,2025-01-07,株式会社ｆ　ｐｌｕｓ,,株式会社,東京都,目黒区,青葉台４丁目７番１号プラトーヴェール６階,,13,110,1530042,,,,,,,2025-01-07,1,,,,,エフプラス,0
2030,8011001166920,新規,0,2025-01-07,2025-01-07,ＡＧＡＬ株式会社,,株式会社,東京都,渋谷区,恵比寿西２丁目８番４号ＥＸ恵比寿西ビル５階,,13,113,1500021,,,,,,,2025-01-07,1,,,,,アガル,0
2031,8011001166961,新規,0,2025-01-07,2025-01-07,地域デザイン株式会社,,株式会社,東京都,渋谷区,神宮前５丁目３９番７号,,13,113,1500001,,,,,,,2025-01-07,1,,,,,チイキデザイン,0
2032,8011003020687,新規,0,2025-01-07,2025-01-07,合同会社Ｐｒｏｄｕｃｔｉｏｎ　ＴＫ,,合同会社,東京都,目黒区,上目黒５丁目１８番４号,,13,110,1530051,,,,,,,2025-01-07,1,,,,,プロダクションティーケー,0
2033,8011005010843,新規,0,2025-01-07,2025-01-07,一般社団法人ＲＥＳＡＵＣＥプロジェクト,,その他の設立登記法人,東京都,渋谷区,神宮前２丁目２４番４号,,13,113,1500001,,,,,,,2025-01-07,1,,,,,リソースプロジェクト,0
2037,8011401026690,新規,0,2025-01-07,2025-01-07,イグニスバレー株式会社,,株式会社,東京都,板橋区,中丸町４－７－６０４,,13,119,1730026,,,,,,,2025-01-07,1,,,,,イグニスバレー,0
2039,8011501031541,新規,0,2025-01-07,2025-01-07,株式会社三田のもり教育研究所,,株式会社,東京都,荒川区,東日暮里６丁目５９番１４号,,13,118,1160014,,,,,,,2025-01-07,1,,,,,ミタノモリキョウイクケンキュウジョ,0
2041,8011603004560,新規,0,2025-01-07,2025-01-07,ＡＵＲＩＱ合同会社,,合同会社,東京都,練馬区,旭丘２丁目２２番地１号チェリーテラス旭丘１０５,,13,120,1760005,,,,,,,2025-01-07,1,,,,,オーリック,0
2043,8011703004072,新規,0,2025-01-07,2025-01-07,合同会社友貿易,,合同会社,東京都,江戸川区,南小岩２丁目９番２号,,13,123,1330056,,,,,,,2025-01-07,1,,,,,トモボウエキ,0
2044,8012303002094,新規,0,2025-01-07,2025-01-07,合同会社ＬＶ３ＧＨＯＳＴ,,合同会社,東京都,町田市,小野路町２５８０番２１号,,13,209,1950064,,,,,,,2025-01-07,1,,,,,レベルサンゴースト,0
2045,8012401042637,新規,0,2025-01-07,2025-01-07,株式会社トーマス・ジャパン,,株式会社,東京都,稲城市,百村５３０番地の６,,13,225,2060804,,,,,,,2025-01-07,1,,,,,トーマスジャパン,0
2049,8012803003591,新規,0,2025-01-07,2025-01-07,合同会社Ｄｒｅａｍ　Ｓｕｐｐｏｒｔ,,合同会社,東京都,立川市,錦町１丁目４番４号サニービル２ＦＣＳ－２３１,,13,202,1900022,,,,,,,2025-01-07,1,,,,,ドリームサポート,0
2050,8013101009595,新規,0,2025-01-07,2025-01-07,株式会社Ｔａｍａｙａ　Ｃｒｅａｔｕｒｅｓ,,株式会社,東京都,羽村市,栄町３丁目３番３さくらモール２階,,13,227,2050002,,,,,,,2025-01-07,1,,,,,タマヤクリーチャーズ,0
2052,8013301053583,新規,0,2025-01-07,2025-01-07,川吉株式会社,,株式会社,東京都,豊島区,東池袋３丁目１－４メゾンサンシャイン１２３７,,13,116,1700013,,,,,,,2025-01-07,1,,,,,カワヨシ,0
2053,8013301053600,新規,0,2025-01-07,2025-01-07,株式会社ＡＣＥ１,,株式会社,東京都,豊島区,池袋２丁目３７番５号藤和ビル３Ｆ,,13,116,1710014,,,,,,,2025-01-07,1,,,,,エースワン,0
2054,8013303007463,新規,0,2025-01-07,2025-01-07,合同会社啓介,,合同会社,東京都,豊島区,千早３丁目３番５号,,13,116,1710044,,,,,,,2025-01-07,1,,,,,ケイスケ,0
2056,8020001160841,新規,0,2025-01-07,2025-01-07,株式会社Ｈｉｇｈ　Ｐｒｏ,,株式会社,神奈川県,横浜市金沢区,能見台３丁目５１番地１ふれあいの街Ｊ棟６０５号,,14,108,2360057,,,,,,,2025-01-07,1,,,,,ハイプロ,0
2058,8020003027527,新規,0,2025-01-07,2025-01-07,ＩＬ合同会社,,合同会社,神奈川県,横浜市中区,石川町１丁目１３番地２トーセイ石川町ビルＴＨＥＨＵＢ横浜元町２０３,,14,104,2310868,,,,,,,2025-01-07,1,,,,,アイエル,0
2064,8021001084147,新規,0,2025-01-07,2025-01-07,宇賀電気株式会社,,株式会社,神奈川県,小田原市,柳新田１２９番地の２０,,14,206,2500857,,,,,,,2025-01-07,1,,,,,ウガデンキ,0
2069,8030001164164,新規,0,2025-01-07,2025-01-07,Ｃｏｒｐｏｒａｔｅ　Ｄｅｖｅｌｏｐｍｅｎｔ株式会社,,株式会社,埼玉県,さいたま市浦和区,高砂３丁目１０番地４八千代ビルＭｉｏ高砂,,11,107,3300063,,,,,,,2025-01-07,1,,,,,コーポレートディベロップメント,0
2070,8030001164206,新規,0,2025-01-07,2025-01-07,株式会社ｅｙｅ‐ｅｙｅ,,株式会社,埼玉県,さいたま市桜区,田島２丁目１５－１ロイヤルシャトー西浦和１０３,,11,106,3380837,,,,,,,2025-01-07,1,,,,,アイアイ,0
2071,8030001164222,新規,0,2025-01-07,2025-01-07,株式会社Ｔｓｕｎａｇｕ,,株式会社,埼玉県,さいたま市南区,内谷１丁目８番１０号,,11,108,3360034,,,,,,,2025-01-07,1,,,,,ツナグ,0
2072,8030001164239,新規,0,2025-01-07,2025-01-07,株式会社サニー,,株式会社,埼玉県,さいたま市岩槻区,太田２丁目４番７－２号,,11,110,3390052,,,,,,,2025-01-07,1,,,,,サニー,0
2073,8030001164247,新規,0,2025-01-07,2025-01-07,株式会社Ｚｏｏｍ　Ｚｏｏｍ,,株式会社,埼玉県,志木市,柏町１丁目２０番４３号,,11,228,3530007,,,,,,,2025-01-07,1,,,,,ズンズン,0
2075,8030003025802,新規,0,2025-01-07,2025-01-07,合同会社ＯＯＭＩ,,合同会社,埼玉県,新座市,栗原６丁目６番９号ヴィラ・エンシャム１０１号室,,11,230,3520035,,,,,,,2025-01-07,1,,,,,オオミ,0
2076,8030003025819,新規,0,2025-01-07,2025-01-07,合同会社ｋｉｒｕｃａ,,合同会社,埼玉県,さいたま市中央区,新中里５丁目２０番９－１０３号,,11,105,3380011,,,,,,,2025-01-07,1,,,,,キルカ,0
2077,8040001136740,新規,0,2025-01-07,2025-01-07,株式会社ＡＲＸメンテナンス,,株式会社,千葉県,千葉市花見川区,横戸町１２４６番地４,,12,102,2620001,,,,,,,2025-01-07,1,,,,,アークスメンテナンス,0
2078,8040001136749,新規,0,2025-01-07,2025-01-07,株式会社白子縁,,株式会社,千葉県,長生郡白子町,北高根３７５３番地５,,12,424,2994217,,,,,,,2025-01-07,1,,,,,シラコエン,0
2079,8040001136765,新規,0,2025-01-07,2025-01-07,エイト株式会社,,株式会社,千葉県,八街市,朝日２３５番地３,,12,230,2891101,,,,,,,2025-01-07,1,,,,,エイト,0
2080,8040001136807,新規,0,2025-01-07,2025-01-07,株式会社セントソフィア行徳,,株式会社,千葉県,市川市,広尾２丁目５－１,,12,203,2720146,,,,,,,2025-01-07,1,,,,,セントソフィアギョウトク,0
2081,8040001136831,新規,0,2025-01-07,2025-01-07,株式会社デニラボ,,株式会社,千葉県,柏市,若柴１７８番地４柏の葉キャンパス１４８街区１パークシティ柏の葉キャンパスザ・ゲートタワーウェスト３階Ｖ１３２,,12,217,2770871,,,,,,,2025-01-07,1,,,,,デニラボ,0
2084,8040003026485,新規,0,2025-01-07,2025-01-07,合同会社サードプレイス,,合同会社,千葉県,市川市,市川南１丁目８番６－５０４号（ＹＳＤビル）,,12,203,2720033,,,,,,,2025-01-07,1,,,,,サードプレイス,0
2089,8050001055956,新規,0,2025-01-07,2025-01-07,ザ・ロイヤルゴルフクラブ株式会社,,株式会社,茨城県,鉾田市,大蔵２００番地,,08,234,3112117,,,,,,,2025-01-07,1,,,,,ザロイヤルゴルフクラブ,0
2090,8050001055964,新規,0,2025-01-07,2025-01-07,株式会社Ａｒｓ　Ａｃａｄｅｍｉｃａ,,株式会社,茨城県,つくば市,天王台１丁目１番地１筑波大学人文社会系棟,,08,220,3050006,,,,,,,2025-01-07,1,,,,,アルスアカデミカ,0
2093,8060001037788,新規,0,2025-01-07,2025-01-07,株式会社ｂｏｙｈｏｏｄ,,株式会社,栃木県,宇都宮市,西原町３２８９番地１９,,09,201,3200826,,,,,,,2025-01-07,1,,,,,ボーイフッド,0
2097,8080003003365,新規,0,2025-01-07,2025-01-07,パークラフツ合同会社,,合同会社,静岡県,静岡市清水区,中之郷１丁目５番３３号,,22,103,4240888,,,,,,,2025-01-07,1,,,,,パークラフツ,0
2098,8080401027668,新規,0,2025-01-07,2025-01-07,浜松メタルワークス株式会社,,株式会社,静岡県,浜松市中央区,向宿１丁目２番１号,,22,138,4300851,,,,,,,2025-01-07,1,,,,,ハママツメタルワークス,0
2099,8090001019065,新規,0,2025-01-07,2025-01-07,株式会社バイオグラス,,株式会社,山梨県,甲府市,北口１丁目５番２６号ラブリハイツ甲府３０４,,19,201,4000024,,,,,,,2025-01-07,1,,,,,,0
2101,8100001038162,新規,0,2025-01-07,2025-01-07,ＳＣホールディングス株式会社,,株式会社,長野県,須坂市,墨坂１丁目１番８号,,20,207,3820099,,,,,,,2025-01-07,1,,,,,エスシーホールディングス,0
2102,8100001038170,新規,0,2025-01-07,2025-01-07,株式会社アゼカゼ,,株式会社,長野県,松本市,大字寿豊丘１１０２番地の３,,20,202,3990021,,,,,,,2025-01-07,1,,,,,アゼカゼ,0
2103,8100003007925,新規,0,2025-01-07,2025-01-07,合同会社白馬猿倉小水力発電,,合同会社,長野県,北安曇郡白馬村,大字北城１２３１９番地１,,20,485,3999301,,,,,,,2025-01-07,1,,,,,ハクバサルクラショウスイリョクハツデン,0
2104,8110001038970,新規,0,2025-01-07,2025-01-07,株式会社慶,,株式会社,新潟県,新潟市西区,山田２０３０番地６,,15,107,9501101,,,,,,,2025-01-07,1,,,,,ケイ,0
2106,8110003005622,新規,0,2025-01-07,2025-01-07,ＨＮ合同会社,,合同会社,新潟県,長岡市,江陽２丁目２番６号,,15,202,9402015,,,,,,,2025-01-07,1,,,,,エイチエヌ,0
2113,8120001271141,新規,0,2025-01-07,2025-01-07,株式会社ザッカライフ日本,,株式会社,大阪府,大阪市福島区,福島５丁目６－１６、２階２０４,,27,103,5530003,,,,,,,2025-01-07,1,,,,,ザッカライフニッポン,0
2114,8120001271496,新規,0,2025-01-07,2025-01-07,ＭＦカンパニー株式会社,,株式会社,大阪府,大阪市大正区,三軒家東２丁目８番１９－１１０６号,,27,108,5510002,,,,,,,2025-01-07,1,,,,,エムエフカンパニー,0
2115,8120001271513,新規,0,2025-01-07,2025-01-07,Ｐｌａｎｔｏｏｔｈ株式会社,,株式会社,大阪府,大阪市中央区,高麗橋１丁目７番７－３５０７号,,27,128,5410043,,,,,,,2025-01-07,1,,,,,プラントゥース,0
2116,8120001271538,新規,0,2025-01-07,2025-01-07,仁誠株式会社,,株式会社,大阪府,大阪市西淀川区,千舟２丁目７番１８号パルクメゾン千舟公園５２１号,,27,113,5550013,,,,,,,2025-01-07,1,,,,,ジンセイ,0
2117,8120001271546,新規,0,2025-01-07,2025-01-07,株式会社ＡＣＴ,,株式会社,大阪府,大阪市北区,梅田１丁目２番２号大阪駅前第２ビル１２－１２,,27,127,5300001,,,,,,,2025-01-07,1,,,,,アクト,0
2118,8120001271579,新規,0,2025-01-07,2025-01-07,株式会社賢幸,,株式会社,大阪府,大阪市西成区,松２丁目５番２１号,,27,122,5570034,,,,,,,2025-01-07,1,,,,,ケンコウ,0
2119,8120001271661,新規,0,2025-01-07,2025-01-07,株式会社成和建物管理,,株式会社,大阪府,大阪市東成区,深江南３丁目１９－２７,,27,115,5370002,,,,,,,2025-01-07,1,,,,,セイワタテモノカンリ,0
2121,8120003028234,新規,0,2025-01-07,2025-01-07,合同会社ｍｕｕ．,,合同会社,大阪府,大阪市北区,浪花町１４－１ＴＹ天六５０５,,27,127,5300022,,,,,,,2025-01-07,1,,,,,ムー,0
2122,8120003028267,新規,0,2025-01-07,2025-01-07,合同会社Ｂｅｙｏｎｄ,,合同会社,大阪府,大阪市平野区,加美正覚寺２丁目９番２７号,,27,126,5470006,,,,,,,2025-01-07,1,,,,,ビヨンド,0
2128,8120101070848,新規,0,2025-01-07,2025-01-07,株式会社カラダコンシェルジュ,,株式会社,大阪府,和泉市,肥子町２丁目３－３１あすかビル１０１,,27,219,5940076,,,,,,,2025-01-07,1,,,,,カラダコンシェルジュ,0
2129,8120901050231,新規,0,2025-01-07,2025-01-07,はちわれ不動産株式会社,,株式会社,大阪府,吹田市,藤白台５丁目７番７１－５０１号,,27,205,5650873,,,,,,,2025-01-07,1,,,,,ハチワレフドウサン,0
2130,8120903005497,新規,0,2025-01-07,2025-01-07,ビールヤ合同会社,,合同会社,大阪府,高槻市,富田町３丁目３番１３号,,27,207,5690814,,,,,,,2025-01-07,1,,,,,ビールヤ,0
2138,8140001136862,新規,0,2025-01-07,2025-01-07,株式会社Ｑｕａｒｔｅｔ　Ｃｏｒｐ．,,株式会社,兵庫県,神戸市垂水区,高丸４丁目８番５号,,28,108,6550016,,,,,,,2025-01-07,1,,,,,クワルテコーポレーション,0
2139,8140001136879,新規,0,2025-01-07,2025-01-07,株式会社Ｓ．Ｔ　ＨＯＭＥ,,株式会社,兵庫県,加西市,別所町３５５番地の１,,28,220,6752462,,,,,,,2025-01-07,1,,,,,エスティーホーム,0
2140,8140001136904,新規,0,2025-01-07,2025-01-07,クッシーラ株式会社,,株式会社,兵庫県,明石市,王子２丁目１番４号,,28,203,6730022,,,,,,,2025-01-07,1,,,,,クッシーラ,0
2142,8140003021476,新規,0,2025-01-07,2025-01-07,合同会社ＧＥＯＮＥストア,,合同会社,兵庫県,伊丹市,中央１丁目５番５号,,28,207,6640851,,,,,,,2025-01-07,1,,,,,ジーイーワンストア,0
2144,8160001026467,新規,0,2025-01-07,2025-01-07,ＡＧＬマニュファクチャリング滋賀株式会社,,株式会社,滋賀県,東近江市,青野町４６００番地,,25,213,5270232,,,,,,,2025-01-07,1,,,,,エージーエルマニュファクチャリングシガ,0
2147,8160003003373,新規,0,2025-01-07,2025-01-07,合同会社小林芳三商店,,合同会社,滋賀県,大津市,茶が崎４番１－４１９号,,25,201,5200023,,,,,,,2025-01-07,1,,,,,コバヤシヨシゾウショウテン,0
2157,8180001164728,新規,0,2025-01-07,2025-01-07,株式会社ＫＳホールディングス,,株式会社,愛知県,名古屋市東区,赤塚町１番２０号,,23,102,4610026,,,,,,,2025-01-07,1,,,,,ケイエスホールディングス,0
2158,8180001164744,新規,0,2025-01-07,2025-01-07,ルヴァルザ株式会社,,株式会社,愛知県,名古屋市中区,大井町６番１１号,,23,106,4600015,,,,,,,2025-01-07,1,,,,,ルヴァルザ,0
2159,8180001164752,新規,0,2025-01-07,2025-01-07,ＫＤＥ株式会社,,株式会社,愛知県,名古屋市名東区,八前２丁目１６０９番地,,23,115,4650018,,,,,,,2025-01-07,1,,,,,ケーディーイー,0
2160,8180001164819,新規,0,2025-01-07,2025-01-07,株式会社ＡＩｒｋａｉｚ,,株式会社,愛知県,清須市,上条２丁目１７番地１３,,23,233,4520944,,,,,,,2025-01-07,1,,,,,エアカイズ,0
2164,8180005020902,新規,0,2025-01-07,2025-01-07,医療法人橙,,その他の設立登記法人,愛知県,名古屋市瑞穂区,豊岡通３丁目６－２ＭＭＩＺＵＨＯビル１Ｆ,,23,108,4670012,,,,,,,2025-01-07,1,,,,,ダイダイ,0
2173,8210001020019,新規,0,2025-01-07,2025-01-07,福井撤去株式会社,,株式会社,福井県,鯖江市,有定町３丁目６番１２号３階,,18,207,9160057,,,,,,,2025-01-07,1,,,,,フクイテッキョ,0
2181,8240001064319,新規,0,2025-01-07,2025-01-07,アート・カーズ株式会社,,株式会社,広島県,広島市中区,東千田町１丁目１番５５－１２０６号ｈｉｔｏｔｏ広島ＴｈｅＴｏｗｅｒ,,34,101,7300053,,,,,,,2025-01-07,1,,,,,アートカーズ,0
2200,8290001108434,新規,0,2025-01-07,2025-01-07,株式会社Ｍｏｎｅｙ　Ｃｏｌｌｅｇｅ,,株式会社,福岡県,福岡市博多区,中洲３丁目６番２３号,,40,132,8100801,,,,,,,2025-01-07,1,,,,,マネーカレッジ,0
2201,8290001108442,新規,0,2025-01-07,2025-01-07,株式会社バウマネジメント,,株式会社,福岡県,久留米市,大善寺大橋１丁目１２番１１－１０２号,,40,203,8300079,,,,,,,2025-01-07,1,,,,,バウマネジメント,0
2202,8290001108467,新規,0,2025-01-07,2025-01-07,株式会社九重,,株式会社,福岡県,福岡市早良区,原５丁目１５番７号,,40,137,8140022,,,,,,,2025-01-07,1,,,,,ココノ,0
2203,8290001108475,新規,0,2025-01-07,2025-01-07,株式会社ユニヴェール,,株式会社,福岡県,糟屋郡志免町,田富２丁目４番１０号,,40,343,8112204,,,,,,,2025-01-07,1,,,,,ユニヴェール,0
2206,8290003016230,新規,0,2025-01-07,2025-01-07,合同会社ｆｒｏｇ,,合同会社,福岡県,福岡市東区,下原４丁目１５番１０号,,40,131,8130002,,,,,,,2025-01-07,1,,,,,フロッグ,0
2207,8290003016239,新規,0,2025-01-07,2025-01-07,合同会社スナフキン,,合同会社,福岡県,福岡市中央区,天神４丁目６－２８天神ファーストビル７階,,40,133,8100001,,,,,,,2025-01-07,1,,,,,スナフキン,0
2208,8290005019603,新規,0,2025-01-07,2025-01-07,一般社団法人少子高齢化問題対策慈業団,,その他の設立登記法人,福岡県,福岡市中央区,大名２丁目６－５０大名ガーデンシティ８階,,40,133,8100041,,,,,,,2025-01-07,1,,,,,ショウシコウレイカモンダイタイサクジギョウダン,0
2210,8290801031166,新規,0,2025-01-07,2025-01-07,株式会社ＰＡＩＮＴ‐ＴＥＣ,,株式会社,福岡県,遠賀郡遠賀町,大字今古賀６６０番地の２,,40,384,8114303,,,,,,,2025-01-07,1,,,,,ペイントテック,0
2222,8310001019397,新規,0,2025-01-07,2025-01-07,株式会社Ｍ，ＳＥＡＬ’Ｓ,,株式会社,長崎県,西彼杵郡長与町,平木場郷１６９３番地１,,42,307,8512123,,,,,,,2025-01-07,1,,,,,エムシールズ,0
2224,8310003004918,新規,0,2025-01-07,2025-01-07,合同会社Ｔｈｒｅｅ・Ｓｅａ三海,,合同会社,長崎県,島原市,高島２丁目７２４０番地１１,,42,203,8550801,,,,,,,2025-01-07,1,,,,,スリーシー,0
2231,8330003010708,新規,0,2025-01-07,2025-01-07,スカイロジスティクスラボ合同会社,,合同会社,熊本県,熊本市東区,錦ケ丘２３番５号,,43,102,8620912,,,,,,,2025-01-07,1,,,,,スカイロジスティクスラボ,0
2235,8340001027042,新規,0,2025-01-07,2025-01-07,株式会社ＮＡＫＡＴＡ,,株式会社,鹿児島県,鹿児島市,加治屋町１５番１３号ウエストリバー加治屋６０１号,,46,201,8920846,,,,,,,2025-01-07,1,,,,,ナカタ,0
2237,8350003004815,新規,0,2025-01-07,2025-01-07,ぷろてくと合同会社,,合同会社,宮崎県,都城市,早鈴町４街区１５号ルミエール早鈴１－Ａ,,45,202,8850055,,,,,,,2025-01-07,1,,,,,プロテクト,0
2238,8360001034598,新規,0,2025-01-07,2025-01-07,オキナワールド株式会社,,株式会社,沖縄県,国頭郡恩納村,字安富祖１３５５番地２,,47,311,9040402,,,,,,,2025-01-07,1,,,,,オキナワールド,0
2239,8360003014557,新規,0,2025-01-07,2025-01-07,合同会社琉球Ｆｒｅｅｓｔｙｌｅ,,合同会社,沖縄県,浦添市,前田１丁目１４番２号,,47,208,9012102,,,,,,,2025-01-07,1,,,,,リュウキュウフリースタイル,0
2240,8360003014565,新規,0,2025-01-07,2025-01-07,合同会社ＢｅａｃｈＯｋｉｎａｗａ．,,合同会社,沖縄県,うるま市,石川１丁目５０－３９－２０１,,47,213,9041106,,,,,,,2025-01-07,1,,,,,ビーチオキナワ,0
2241,8370001052087,新規,0,2025-01-07,2025-01-07,株式会社ギルドライブ,,株式会社,宮城県,仙台市青葉区,国分町１丁目８番１３号,,04,101,9800803,,,,,,,2025-01-07,1,,,,,ギルドライブ,0
2243,8380003005901,新規,0,2025-01-07,2025-01-07,合同会社ビトルホーン,,合同会社,福島県,西白河郡西郷村,大字小田倉字原中４０,,07,461,9618061,,,,,,,2025-01-07,1,,,,,ビトルホーン,0
2244,8380003005926,新規,0,2025-01-07,2025-01-07,合同会社ハンザワ組,,合同会社,福島県,福島市,笹谷字北中條９番地の２,,07,201,9600241,,,,,,,2025-01-07,1,,,,,ハンザワグミ,0
2245,8400001016897,新規,0,2025-01-07,2025-01-07,株式会社ふじ,,株式会社,岩手県,八幡平市,安比高原１７０番地１４メゾンＡＰＰＩ２－３１６号室,,03,214,0287306,,,,,,,2025-01-07,1,,,,,フジ,0
2246,8410001014025,新規,0,2025-01-07,2025-01-07,株式会社星座社,,株式会社,秋田県,秋田市,南通亀の町１番８号,,05,201,0100011,,,,,,,2025-01-07,1,,,,,セイザシャ,0
2248,8430001093364,新規,0,2025-01-07,2025-01-07,株式会社ハングアウト,,株式会社,北海道,江別市,あけぼの町３４番１３号,,01,217,0670025,,,,,,,2025-01-07,1,,,,,ハングアウト,0
2249,8430001093406,新規,0,2025-01-07,2025-01-07,株式会社オフィスワタナベ,,株式会社,北海道,江別市,あさひが丘３７番地の１７,,01,217,0690826,,,,,,,2025-01-07,1,,,,,オフィスワタナベ,0
2250,8430001093414,新規,0,2025-01-07,2025-01-07,Ｎ‐ｔｅｃｎｏＬｉｆｅ株式会社,,株式会社,北海道,札幌市東区,東苗穂七条３丁目７番１９号,,01,103,0070807,,,,,,,2025-01-07,1,,,,,エヌテクノライフ,0
2251,8430001093422,新規,0,2025-01-07,2025-01-07,スリーアーキデザイン株式会社,,株式会社,北海道,札幌市東区,東苗穂十三条４丁目５番３７号,,01,103,0070813,,,,,,,2025-01-07,1,,,,,スリーアーキデザイン,0
2255,8430005015133,新規,0,2025-01-07,2025-01-07,一般社団法人ＯＲＩＦＩＯＲ,,その他の設立登記法人,北海道,札幌市中央区,南四条西１１丁目１２９１番地８１ノーベルコートＳ４－３０１号,,01,101,0640804,,,,,,,2025-01-07,1,,,,,オリーフィオ,0
2265,9010001251054,新規,0,2025-01-07,2025-01-07,株式会社ビッグビートホールディングス,,株式会社,東京都,千代田区,紀尾井町４番１号ニューオータニガーデンコート２２階,,13,101,1020094,,,,,,,2025-01-07,1,,,,,ビッグビートホールディングス,0
2266,9010001251062,新規,0,2025-01-07,2025-01-07,株式会社扉,,株式会社,東京都,中央区,京橋２丁目２番１号,,13,102,1040031,,,,,,,2025-01-07,1,,,,,トビラ,0
2267,9010001251087,新規,0,2025-01-07,2025-01-07,株式会社フォーサイト,,株式会社,東京都,千代田区,神田和泉町一番地６－１６,,13,101,1010024,,,,,,,2025-01-07,1,,,,,フォーサイト,0
2277,9010005039347,新規,0,2025-01-07,2025-01-07,一般社団法人ＡＩロボット協会,,その他の設立登記法人,東京都,文京区,本郷５丁目２４番５号ナガセ本郷ビル,,13,105,1130033,,,,,,,2025-01-07,1,,,,,エーアイロボットキョウカイ,0
2278,9010005039355,新規,0,2025-01-07,2025-01-07,一般社団法人キキョウ,,その他の設立登記法人,東京都,千代田区,霞が関３丁目２番５号,,13,101,1000013,,,,,,,2025-01-07,1,,,,,キキョウ,0
2283,9010401187419,新規,0,2025-01-07,2025-01-07,株式会社ＵＫ３,,株式会社,東京都,港区,港南４丁目２番７－３５２０号,,13,103,1080075,,,,,,,2025-01-07,1,,,,,ユーケイスリー,0
2286,9010601066521,新規,0,2025-01-07,2025-01-07,ＰＲＯＬＩＮＫ株式会社,,株式会社,東京都,江東区,東陽３丁目５－４ＳＹＬＡ東陽町９Ｆ,,13,108,1350016,,,,,,,2025-01-07,1,,,,,プロリンク,0
2287,9010601066538,新規,0,2025-01-07,2025-01-07,株式会社Ｄｏｎｅｒ,,株式会社,東京都,墨田区,江東橋５丁目１６－１２－４Ｆ,,13,107,1300022,,,,,,,2025-01-07,1,,,,,ドネル,0
2288,9010601066546,新規,0,2025-01-07,2025-01-07,株式会社ＰＲＯＪＥＣＴ　Ｋ,,株式会社,東京都,江東区,有明１丁目４番２０－３１２８号,,13,108,1350063,,,,,,,2025-01-07,1,,,,,プロジェクトケー,0
2292,9010603011302,新規,0,2025-01-07,2025-01-07,合同会社４９８９,,合同会社,東京都,江東区,千田１５－９,,13,108,1350013,,,,,,,2025-01-07,1,,,,,シクハク,0
2294,9010703007522,新規,0,2025-01-07,2025-01-07,Ｇ＆Ｓ　Ｐａｒｔｎｅｒ合同会社,,合同会社,東京都,品川区,小山１丁目１番９号イニシアイオ武蔵小山２１１,,13,109,1420062,,,,,,,2025-01-07,1,,,,,ジーアンドエスパートナー,0
2295,9010801035706,新規,0,2025-01-07,2025-01-07,株式会社クレイン,,株式会社,東京都,大田区,西蒲田６丁目１８番９－３０４号,,13,111,1440051,,,,,,,2025-01-07,1,,,,,クレイン,0
2301,9011001166779,新規,0,2025-01-07,2025-01-07,Ｓ８株式会社,,株式会社,東京都,渋谷区,渋谷１丁目６番８号清水学園ビルＢ１,,13,113,1500002,,,,,,,2025-01-07,1,,,,,エスエイト,0
2302,9011001166795,新規,0,2025-01-07,2025-01-07,株式会社Ｔｒｕｅ　Ａｉｍ,,株式会社,東京都,渋谷区,渋谷２丁目１９－１５宮益坂ビルディング６０９,,13,113,1500002,,,,,,,2025-01-07,1,,,,,トゥルーエイム,0
2303,9011001166845,新規,0,2025-01-07,2025-01-07,ブラボーダ株式会社,,株式会社,東京都,渋谷区,上原１丁目３０番２号,,13,113,1510064,,,,,,,2025-01-07,1,,,,,ブラボーダ,0
2304,9011001166861,新規,0,2025-01-07,2025-01-07,株式会社ドライブデマンド,,株式会社,東京都,目黒区,目黒本町５丁目１番１４号,,13,110,1520002,,,,,,,2025-01-07,1,,,,,ドライブデマンド,0
2305,9011001166886,新規,0,2025-01-07,2025-01-07,株式会社ＩＳＨ,,株式会社,東京都,渋谷区,神宮前４丁目１０番１号シェズモイ２０５号室,,13,113,1500001,,,,,,,2025-01-07,1,,,,,イッシュ,0
2306,9011001166903,新規,0,2025-01-07,2025-01-07,エフケーワイ株式会社,,株式会社,東京都,渋谷区,恵比寿西１丁目３３番２７－６０２号ザ・パークハウス代官山レジデンス,,13,113,1500021,,,,,,,2025-01-07,1,,,,,エフケーワイ,0
2307,9011001166928,新規,0,2025-01-07,2025-01-07,株式会社ＣＯＮＴ‐ＲＯＬＬ,,株式会社,東京都,渋谷区,神宮前３丁目３０番１２号,,13,113,1500001,,,,,,,2025-01-07,1,,,,,コントロール,0
2308,9011001166944,新規,0,2025-01-07,2025-01-07,ＦｏｒｃｅＢｒｉｄｇｅ株式会社,,株式会社,東京都,渋谷区,渋谷２丁目１９―１５宮益坂ビルディング６０９,,13,113,1500002,,,,,,,2025-01-07,1,,,,,フォースブリッジ,0
2309,9011003020612,新規,0,2025-01-07,2025-01-07,ＣＡＳＴＬＥ合同会社,,合同会社,東京都,渋谷区,道玄坂１丁目１０番８号渋谷道玄坂東急ビル２Ｆ－Ｃ,,13,113,1500043,,,,,,,2025-01-07,1,,,,,キャッスル,0
2310,9011003020728,新規,0,2025-01-07,2025-01-07,ｂｅｉｎｇ　ｔｈｅｒｅ合同会社,,合同会社,東京都,渋谷区,道玄坂１丁目１０番８号渋谷道玄坂東急ビル２Ｆ‐Ｃ,,13,113,1500043,,,,,,,2025-01-07,1,,,,,ビーイングゼア,0
2311,9011003020744,新規,0,2025-01-07,2025-01-07,Ｂａｋｂａｎｋ合同会社,,合同会社,東京都,渋谷区,恵比寿２丁目８―７,,13,113,1500013,,,,,,,2025-01-07,1,,,,,バクバンク,0
2315,9011101110133,新規,0,2025-01-07,2025-01-07,株式会社タートン,,株式会社,東京都,新宿区,西早稲田２丁目１２番３号－２０４,,13,104,1690051,,,,,,,2025-01-07,1,,,,,タートン,0
2318,9011201026031,新規,0,2025-01-07,2025-01-07,株式会社ＬＡＮＥ’Ｓ　ＴＯＫＹＯ,,株式会社,東京都,中野区,大和町３丁目４１番９号,,13,114,1650034,,,,,,,2025-01-07,1,,,,,レインズトウキョウ,0
2319,9011203004563,新規,0,2025-01-07,2025-01-07,合同会社シナリオ,,合同会社,東京都,中野区,沼袋１丁目１番４号,,13,114,1650025,,,,,,,2025-01-07,1,,,,,シナリオ,0
2331,9011501031549,新規,0,2025-01-07,2025-01-07,株式会社ＹａｍａＴｏ,,株式会社,東京都,荒川区,西日暮里６丁目３７番１号,,13,118,1160013,,,,,,,2025-01-07,1,,,,,ヤマト,0
2333,9011703004063,新規,0,2025-01-07,2025-01-07,匠産業合同会社,,合同会社,東京都,江戸川区,篠崎町５丁目９番９号,,13,123,1330061,,,,,,,2025-01-07,1,,,,,タクミサンギョウ,0
2340,9012403006894,新規,0,2025-01-07,2025-01-07,合同会社Ｅｍｏｔｒｕｓｔ,,合同会社,東京都,武蔵野市,中町１丁目３１番５―１０３,,13,203,1800006,,,,,,,2025-01-07,1,,,,,エモトラスト,0
2345,9013301053574,新規,0,2025-01-07,2025-01-07,Ｄコネクション株式会社,,株式会社,東京都,豊島区,南長崎５丁目１８番１２号一志荘１０１号,,13,116,1710052,,,,,,,2025-01-07,1,,,,,,0
2346,9013301053582,新規,0,2025-01-07,2025-01-07,株式会社ＡＳＩＡ　ＫＩＮＧ,,株式会社,東京都,豊島区,巣鴨３丁目３４番３号西村商店第二ビル２階,,13,116,1700002,,,,,,,2025-01-07,1,,,,,アジアキング,0
2347,9013301053608,新規,0,2025-01-07,2025-01-07,株式会社ＷＴコンサルティング,,株式会社,東京都,豊島区,南池袋２丁目１８番９号マ・シャンブル南池袋２階Ａ号室,,13,116,1710022,,,,,,,2025-01-07,1,,,,,ダブルティーコンサルティング,0
2348,9013303007462,新規,0,2025-01-07,2025-01-07,合同会社ＮＥＸＳＩＡ,,合同会社,東京都,豊島区,千川２丁目２番７号,,13,116,1710041,,,,,,,2025-01-07,1,,,,,ネクシア,0
2349,9013303007470,新規,0,2025-01-07,2025-01-07,合同会社Ｓｏｌ,,合同会社,東京都,豊島区,東池袋１丁目３４番５号いちご東池袋ビル６階,,13,116,1700013,,,,,,,2025-01-07,1,,,,,ソーレ,0
2356,9020003027534,新規,0,2025-01-07,2025-01-07,スリーアール合同会社,,合同会社,神奈川県,横浜市戸塚区,前田町２７０番地５、１０４号,,14,110,2440804,,,,,,,2025-01-07,1,,,,,スリーアール,0
2357,9020003027591,新規,0,2025-01-07,2025-01-07,合同会社アンカープライド長津田,,合同会社,神奈川県,横浜市緑区,長津田３丁目５番２３号,,14,113,2260027,,,,,,,2025-01-07,1,,,,,アンカープライドナガツタ,0
2359,9021003015405,新規,0,2025-01-07,2025-01-07,ＹＯＵ‐ＣＯＭ　ＩＮＦＩＮＩＴＹ合同会社,,合同会社,神奈川県,藤沢市,西富４１８番地の２３,,14,205,2510001,,,,,,,2025-01-07,1,,,,,ユーカムインフィニティ,0
2360,9021003015413,新規,0,2025-01-07,2025-01-07,ＥｎＴＯＰＯＳ合同会社,,合同会社,神奈川県,逗子市,新宿１丁目５番１４号,,14,208,2490007,,,,,,,2025-01-07,1,,,,,エントポス,0
2361,9021003015421,新規,0,2025-01-07,2025-01-07,合同会社オルバス,,合同会社,神奈川県,藤沢市,鵠沼松が岡４丁目１６－１３,,14,205,2510038,,,,,,,2025-01-07,1,,,,,オルバス,0
2363,9030001164205,新規,0,2025-01-07,2025-01-07,株式会社Ｋ’Ｏｎｅ,,株式会社,埼玉県,南埼玉郡宮代町,宮代２丁目９番２号,,11,442,3450823,,,,,,,2025-01-07,1,,,,,ケイワン,0
2364,9030001164213,新規,0,2025-01-07,2025-01-07,株式会社モノマ,,株式会社,埼玉県,鴻巣市,広田３６１３番地,,11,217,3650005,,,,,,,2025-01-07,1,,,,,モノマ,0
2365,9030005021988,新規,0,2025-01-07,2025-01-07,農事組合法人Ｄ１０,,その他の設立登記法人,埼玉県,東松山市,大字松山２３０９番地３,,11,212,3550005,,,,,,,2025-01-07,1,,,,,ディーイチマル,0
2368,9040001136731,新規,0,2025-01-07,2025-01-07,田村商事株式会社,,株式会社,千葉県,市川市,南大野２丁目１２番２８号,,12,203,2720804,,,,,,,2025-01-07,1,,,,,タムラショウジ,0
2369,9040001136764,新規,0,2025-01-07,2025-01-07,株式会社Ｖ．Ｏ,,株式会社,千葉県,習志野市,奏の杜１丁目１６番３号,,12,216,2750028,,,,,,,2025-01-07,1,,,,,ブイオー,0
2371,9040003026501,新規,0,2025-01-07,2025-01-07,合同会社Ｃｅｒｃａ,,合同会社,千葉県,市原市,光風台１丁目１９２番地,,12,219,2900255,,,,,,,2025-01-07,1,,,,,セルカ,0
2375,9050001055947,新規,0,2025-01-07,2025-01-07,ＬＩＭＰＩＵ株式会社,,株式会社,茨城県,つくば市,松代３丁目８番地１１ヴェイル松代Ａ１０６号,,08,220,3050035,,,,,,,2025-01-07,1,,,,,リムピウ,0
2376,9050001055955,新規,0,2025-01-07,2025-01-07,上大迫製麺株式会社,,株式会社,茨城県,つくばみらい市,絹の台２丁目１４番地３,,08,235,3002436,,,,,,,2025-01-07,1,,,,,カミオオサコセイメン,0
2377,9050001055963,新規,0,2025-01-07,2025-01-07,ＡＭＡシビル株式会社,,株式会社,茨城県,ひたちなか市,大字馬渡２５２５番地４０１,,08,221,3120012,,,,,,,2025-01-07,1,,,,,エーエムエーシビル,0
2378,9060001037770,新規,0,2025-01-07,2025-01-07,ＪＨＷホールディングス株式会社,,株式会社,栃木県,河内郡上三川町,大字上三川３２２４番地１,,09,301,3290611,,,,,,,2025-01-07,1,,,,,ジェイエイチダブリューホールディングス,0
2379,9060001037779,新規,0,2025-01-07,2025-01-07,株式会社舘野建築,,株式会社,栃木県,小山市,大字南和泉４２５番地３,,09,208,3230816,,,,,,,2025-01-07,1,,,,,タテノケンチク,0
2380,9060001037787,新規,0,2025-01-07,2025-01-07,株式会社ボルテック,,株式会社,栃木県,足利市,南大町２４５番地２,,09,202,3260836,,,,,,,2025-01-07,1,,,,,ボルテック,0
2381,9060001037795,新規,0,2025-01-07,2025-01-07,株式会社Ａｅｇｉｓ　Ｐａｒｔｎｅｒｓ,,株式会社,栃木県,宇都宮市,中戸祭町６１２番地１６エテルノ・Ｙ２０１号,,09,201,3200052,,,,,,,2025-01-07,1,,,,,イージスパートナーズ,0
2384,9070003005741,新規,0,2025-01-07,2025-01-07,合同会社シンシア,,合同会社,群馬県,高崎市,上佐野町７３２番地７,,10,202,3700857,,,,,,,2025-01-07,1,,,,,シンシア,0
2387,9100001038161,新規,0,2025-01-07,2025-01-07,株式会社ミソラ,,株式会社,長野県,塩尻市,大字宗賀７１番地２０５,,20,215,3996461,,,,,,,2025-01-07,1,,,,,ミソラ,0
2389,9110001038961,新規,0,2025-01-07,2025-01-07,株式会社ヒューランド,,株式会社,新潟県,新潟市江南区,曽川甲２１５番地１３,,15,104,9501136,,,,,,,2025-01-07,1,,,,,ヒューランド,0
2390,9110001038978,新規,0,2025-01-07,2025-01-07,株式会社ＯＭ　ＳＨＩＶＡ　ＴＲＡＤＥＲＳ,,株式会社,新潟県,北蒲原郡聖籠町,大字藤寄２８８０番地１,,15,307,9570127,,,,,,,2025-01-07,1,,,,,オムシバトレイダーズ,0
2393,9120001271355,新規,0,2025-01-07,2025-01-07,ＷＥＮＤＩ株式会社,,株式会社,大阪府,大阪市住之江区,安立２丁目７番２号宝楽トレジャー４０１号,,27,125,5590003,,,,,,,2025-01-07,1,,,,,ウェンディ,0
2394,9120001271504,新規,0,2025-01-07,2025-01-07,Ｇｌｏｂａｌ　Ｕｒｂａｎ　Ｍｉｎｅ　Ｂａｎｋ　Ｇｒｏｕｐ株式会社,,株式会社,大阪府,大阪市西区,新町１丁目５番７号,,27,106,5500013,,,,,,,2025-01-07,1,,,,,グローバルアーバンマインバンクグループ,0
2395,9120001271529,新規,0,2025-01-07,2025-01-07,株式会社ＶＰ,,株式会社,大阪府,大阪市東淀川区,井高野４丁目３番６１号ピアシティ１Ｆ,,27,114,5330001,,,,,,,2025-01-07,1,,,,,ブイピー,0
2396,9120001271578,新規,0,2025-01-07,2025-01-07,グリーン株式会社,,株式会社,大阪府,大阪市生野区,桃谷３丁目１０番１１号御幸森マンション４０２,,27,116,5440034,,,,,,,2025-01-07,1,,,,,グリーン,0
2399,9120101070830,新規,0,2025-01-07,2025-01-07,株式会社一美,,株式会社,大阪府,堺市北区,百舌鳥梅北町４丁４番地２,,27,146,5918031,,,,,,,2025-01-07,1,,,,,イチビ,0
2401,9120105009949,新規,0,2025-01-07,2025-01-07,一般財団法人りんくう医療技術国際親交財団,,その他の設立登記法人,大阪府,泉佐野市,りんくう往来南３番地の４１,,27,213,5980047,,,,,,,2025-01-07,1,,,,,リンクウイリョウギジュツコクサイシンコウザイダン,0
2405,9120901050214,新規,0,2025-01-07,2025-01-07,株式会社ＥＮＬＥＡＤ,,株式会社,大阪府,高槻市,中川町５－１３－４０２,,27,207,5690066,,,,,,,2025-01-07,1,,,,,エンリード,0
2406,9120901050247,新規,0,2025-01-07,2025-01-07,ＡＳＴＲＯ警備保障株式会社,,株式会社,大阪府,吹田市,南金田２丁目８番１１号,,27,205,5640044,,,,,,,2025-01-07,1,,,,,アストロケイビホショウ,0
2407,9120901050255,新規,0,2025-01-07,2025-01-07,株式会社山本金物,,株式会社,大阪府,茨木市,真砂２丁目１２番１９号ラフィーヌ真砂２０２号室,,27,211,5670851,,,,,,,2025-01-07,1,,,,,ヤマモトカナモノ,0
2410,9122005003800,新規,0,2025-01-07,2025-01-07,司法書士法人リーガルパートナー,,その他の設立登記法人,大阪府,八尾市,山本町北３丁目３番６号,,27,212,5810831,,,,,,,2025-01-07,1,,,,,リーガルパートナー,0
2413,9130001078650,新規,0,2025-01-07,2025-01-07,ＣＫ　ＭＯＴＯＲＳ　ＪＡＰＡＮ株式会社,,株式会社,京都府,京都市北区,大宮中総門口町１５番地２－１７号室,,26,101,6038834,,,,,,,2025-01-07,1,,,,,シーケイモーターズジャパン,0
2414,9130001078700,新規,0,2025-01-07,2025-01-07,株式会社Ｆｒｅｅｓｉａ,,株式会社,京都府,長岡京市,長岡１丁目８番７号ベルメゾンナカムラ１階,,26,209,6170823,,,,,,,2025-01-07,1,,,,,フリージア,0
2417,9150003003464,新規,0,2025-01-07,2025-01-07,合同会社好川写真事務所,,合同会社,奈良県,生駒市,東生駒月見町２０７－３６１－Ｌ２０２,,29,209,6300214,,,,,,,2025-01-07,1,,,,,ヨシカワシャシンジムショ,0
2426,9180001164677,新規,0,2025-01-07,2025-01-07,株式会社ＴＧ,,株式会社,愛知県,名古屋市中区,金山３丁目１番２号（スリーアイランドタワー金山７０２号）,,23,106,4600022,,,,,,,2025-01-07,1,,,,,ティージー,0
2427,9180001164719,新規,0,2025-01-07,2025-01-07,株式会社ラックロード,,株式会社,愛知県,豊明市,新田町子持松６番地１０サイドウェイ１０１号,,23,229,4701112,,,,,,,2025-01-07,1,,,,,ラックロード,0
2428,9180001164776,新規,0,2025-01-07,2025-01-07,ロジスポート株式会社,,株式会社,愛知県,名古屋市中川区,東中島町４丁目２７番地,,23,110,4540866,,,,,,,2025-01-07,1,,,,,ロジスポート,0
2429,9180001164792,新規,0,2025-01-07,2025-01-07,株式会社ＳＹＦｕＴ,,株式会社,愛知県,名古屋市中区,上前津２丁目１番２５号,,23,106,4600013,,,,,,,2025-01-07,1,,,,,シフト,0
2430,9180003027816,新規,0,2025-01-07,2025-01-07,合同会社Ｅ‐Ｌａｂｏ,,合同会社,愛知県,名古屋市中区,栄３丁目７－４トーシンサクラビル１０Ｆ,,23,106,4600008,,,,,,,2025-01-07,1,,,,,イーラボ,0
2434,9180005020892,新規,0,2025-01-07,2025-01-07,一般社団法人高齢者あんしんサポートセンター,,その他の設立登記法人,愛知県,名古屋市緑区,鳴海町字下汐田１６７番１号,,23,114,4580801,,,,,,,2025-01-07,1,,,,,コウレイシャアンシンサポートセンター,0
2442,9210001020018,新規,0,2025-01-07,2025-01-07,Ｍａｖｉｔａ　Ｊａｐａｎ株式会社,,株式会社,福井県,福井市,南四ツ居２丁目５番１２号,,18,201,9188204,,,,,,,2025-01-07,1,,,,,マヴィータジャパン,0
2445,9230001020684,新規,0,2025-01-07,2025-01-07,とやまベジタフル株式会社,,株式会社,富山県,富山市,婦中町浜子１３５２番地,,16,201,9392746,,,,,,,2025-01-07,1,,,,,トヤマベジタフル,0
2446,9230001020692,新規,0,2025-01-07,2025-01-07,株式会社ＫＢＳモビリティサービス,,株式会社,富山県,富山市,窪本町４番１号,,16,201,9300843,,,,,,,2025-01-07,1,,,,,ケービーエスモビリティサービス,0
2452,9240001064334,新規,0,2025-01-07,2025-01-07,株式会社シーニック,,株式会社,広島県,広島市東区,中山上１丁目９番３５号,,34,102,7320027,,,,,,,2025-01-07,1,,,,,シーニック,0
2453,9240001064350,新規,0,2025-01-07,2025-01-07,株式会社Ｒｅｘ,,株式会社,広島県,広島市西区,古江上１丁目３８２－１０－５０６,,34,104,7330875,,,,,,,2025-01-07,1,,,,,レックス,0
2454,9240003007010,新規,0,2025-01-07,2025-01-07,合同会社インターコンサルティング,,合同会社,広島県,広島市安佐南区,相田３丁目２８番１２号,,34,105,7310141,,,,,,,2025-01-07,1,,,,,インターコンサルティング,0
2457,9260001039771,新規,0,2025-01-07,2025-01-07,株式会社ＷＯＬＦ,,株式会社,岡山県,岡山市北区,田町２丁目６－５サンシャインプラザ２０１,,33,101,7000825,,,,,,,2025-01-07,1,,,,,ウルフ,0
2465,9290001108417,新規,0,2025-01-07,2025-01-07,株式会社ＲｅｖｉｖｅＷｏｒｋｓ,,株式会社,福岡県,福岡市南区,老司３丁目４４番２１号,,40,134,8111346,,,,,,,2025-01-07,1,,,,,リバイブワークス,0
2466,9290001108433,新規,0,2025-01-07,2025-01-07,Ｍｙ　Ｍｏｖｅ株式会社,,株式会社,福岡県,福岡市博多区,吉塚本町１０番８－５１５号,,40,132,8120046,,,,,,,2025-01-07,1,,,,,マイムーブ,0
2467,9290001108441,新規,0,2025-01-07,2025-01-07,株式会社ＳＵＡ,,株式会社,福岡県,福岡市中央区,天神４丁目６番２８号天神ファーストビル７階,,40,133,8100001,,,,,,,2025-01-07,1,,,,,スア,0
2468,9290001108458,新規,0,2025-01-07,2025-01-07,ヨシダオンライン株式会社,,株式会社,福岡県,福岡市西区,大町団地１３番４０６号,,40,135,8190021,,,,,,,2025-01-07,1,,,,,ヨシダオンライン,0
2469,9290001108466,新規,0,2025-01-07,2025-01-07,株式会社ミース,,株式会社,福岡県,福岡市中央区,赤坂１丁目６番２３－１号プロスペリタ赤坂４Ｆ,,40,133,8100042,,,,,,,2025-01-07,1,,,,,ミース,0
2471,9290003016246,新規,0,2025-01-07,2025-01-07,エントロープ合同会社,,合同会社,福岡県,福岡市中央区,天神２丁目２番１２号Ｔ＆Ｊビルディング７Ｆ,,40,133,8100001,,,,,,,2025-01-07,1,,,,,エントロープ,0
2478,9300001014027,新規,0,2025-01-07,2025-01-07,株式会社ｌｅｃｉｅｌ,,株式会社,佐賀県,唐津市,浜玉町浜崎１１９番地７ベイサイドコッティＩ２０１,00137539,41,202,8495131,,,,,,,2025-01-07,1,,,,,ルシェル,0
2479,9300001014035,新規,0,2025-01-07,2025-01-07,株式会社ＴＲＡＮＳ．陸送,,株式会社,佐賀県,小城市,三日月町織島２４２４番地,,41,208,8450023,,,,,,,2025-01-07,1,,,,,トランスリクソウ,0
2481,9310001019388,新規,0,2025-01-07,2025-01-07,株式会社海博,,株式会社,長崎県,対馬市,美津島町鷄知甲１３１５番地,00137525,42,209,8170000,,,,,,,2025-01-07,1,,,,,カイハク,0
2482,9320001020881,新規,0,2025-01-07,2025-01-07,Ｄ＆Ｈ株式会社,,株式会社,大分県,宇佐市,大字中原５９番地の１,,44,211,8790463,,,,,,,2025-01-07,1,,,,,ディーアンドエイチ,0
2483,9320003004544,新規,0,2025-01-07,2025-01-07,えんきょ合同会社,,合同会社,大分県,竹田市,大字竹田町２７５番地,,44,208,8780012,,,,,,,2025-01-07,1,,,,,エンキョ,0
2484,9320005010210,新規,0,2025-01-07,2025-01-07,司法書士法人萩原事務所,,その他の設立登記法人,大分県,大分市,大州浜１丁目９番６号,,44,201,8700906,,,,,,,2025-01-07,1,,,,,ハギワラジムショ,0
2485,9330001032769,新規,0,2025-01-07,2025-01-07,Ｂｅｈｏｍｅ株式会社,,株式会社,熊本県,熊本市南区,平田２丁目１６番２２号,,43,104,8600826,,,,,,,2025-01-07,1,,,,,ビーホーム,0
2486,9330003010707,新規,0,2025-01-07,2025-01-07,合同会社翔蓮,,合同会社,熊本県,上益城郡益城町,大字下陳２３０番地３,,43,443,8612206,,,,,,,2025-01-07,1,,,,,ショウレン,0
2489,9340001027041,新規,0,2025-01-07,2025-01-07,株式会社ＶＥＬＯＣＥ,,株式会社,鹿児島県,鹿児島市,慈眼寺町３０番１９号,,46,201,8910146,,,,,,,2025-01-07,1,,,,,ヴェローチェ,0
2491,9350003004814,新規,0,2025-01-07,2025-01-07,ＨＩＲＯ・ｍｅｅｔ・ｕｐ合同会社,,合同会社,宮崎県,日南市,油津２丁目９番１２号,,45,204,8870001,,,,,,,2025-01-07,1,,,,,ヒーローミートアップ,0
2493,9360001034589,新規,0,2025-01-07,2025-01-07,株式会社Ｄ’ＦＯＲＣＥ,,株式会社,沖縄県,中頭郡中城村,字泊３６０番地,,47,328,9012402,,,,,,,2025-01-07,1,,,,,ディーフォース,0
2495,9360003014556,新規,0,2025-01-07,2025-01-07,合同会社ステイクロースライフ,,合同会社,沖縄県,宜野湾市,我如古１丁目５３番３１号,,47,205,9012214,,,,,,,2025-01-07,1,,,,,ステイクロースライフ,0
2497,9370001052086,新規,0,2025-01-07,2025-01-07,仙南商事株式会社,,株式会社,宮城県,柴田郡大河原町,大谷字町向１２６－４オーガビル２階,,04,321,9891201,,,,,,,2025-01-07,1,,,,,センナンショウジ,0
2500,9380005012903,新規,0,2025-01-07,2025-01-07,ダイメイ協同組合,,その他の設立登記法人,福島県,いわき市,中央台飯野４丁目１８番地の１ヴィレッジコート２階Ｆ号室,,07,204,9708044,,,,,,,2025-01-07,1,,,,,ダイメイ,0
2501,9400003003372,新規,0,2025-01-07,2025-01-07,合同会社ハピネスチェーン,,合同会社,岩手県,盛岡市,南仙北１丁目９番４６号,,03,201,0200863,,,,,,,2025-01-07,1,,,,,ハピネスチェーン,0
2502,9410001014024,新規,0,2025-01-07,2025-01-07,株式会社Ｒｅ．Ｌａｃｈｉｃｃ,,株式会社,秋田県,秋田市,泉北４丁目７番１３号,,05,201,0100916,,,,,,,2025-01-07,1,,,,,リラシック,0
2503,9420003003040,新規,0,2025-01-07,2025-01-07,合同会社まもり,,合同会社,青森県,十和田市,大字深持字山ノ下１０８番地１号,,02,206,0340106,,,,,,,2025-01-07,1,,,,,マモリ,0
2505,9430001093363,新規,0,2025-01-07,2025-01-07,株式会社スタービング,,株式会社,北海道,札幌市中央区,南四条東５丁目３番地１２エンドレスリバーサイド３１５号,,01,101,0600054,,,,,,,2025-01-07,1,,,,,スタービング,0
2506,9430001093396,新規,0,2025-01-07,2025-01-07,株式会社ＲＲＲ,,株式会社,北海道,千歳市,栄町７丁目７番４号,,01,224,0660061,,,,,,,2025-01-07,1,,,,,スリーアール,0
2507,9430001093421,新規,0,2025-01-07,2025-01-07,株式会社Ｕｌｙｓｓｅｓ,,株式会社,北海道,千歳市,自由ケ丘２丁目３番７号,,01,224,0660072,,,,,,,2025-01-07,1,,,,,ユリシス,0
2510,9430003017155,新規,0,2025-01-07,2025-01-07,合同会社Ｓｈａｌｏｍ　Ｓｈａｒｅ　Ｈｏｕｓｅ,,合同会社,北海道,札幌市白石区,北郷一条３丁目１番６１号,,01,104,0030831,,,,,,,2025-01-07,1,,,,,シャロームシェアハウス,0
2513,9470001020520,新規,0,2025-01-07,2025-01-07,株式会社Ｉ‐ｓｉｓ,,株式会社,香川県,高松市,東山崎町４１５番地１２,,37,201,7610312,,,,,,,2025-01-07,1,,,,,イーシス,0
2517,9500003003395,新規,0,2025-01-07,2025-01-07,合同会社伯方リゾート,,合同会社,愛媛県,今治市,旭町４丁目１－８,,38,202,7940042,,,,,,,2025-01-07,1,,,,,ハカタリゾート,0
