sequenceNumber,corporateNumber,process,correct,updateDate,changeDate,name,nameImageId,kind,prefectureName,cityName,streetNumber,addressImageId,prefectureCode,cityCode,postCode,addressOutside,addressOutsideImageId,closeDate,closeCause,successorCorporateNumber,changeCause,assignmentDate,latest,enName,enPrefectureName,enCityName,enAddressOutside,furigana,hihyoji
6,1010001257430,新規,0,2025-08-08,2025-08-08,株式会社ｍａ・ｒｏｔｔｅ,,株式会社,東京都,中央区,湊３丁目８番１－３０２号,,13,102,1040043,,,,,,,2025-08-08,1,,,,,マロット,0
7,1010001257570,新規,0,2025-08-08,2025-08-08,株式会社ＮＥＢＵＫＡ,,株式会社,東京都,中央区,勝どき１丁目７番１号勝どきサンスクエアＢ１０３－２号室,,13,102,1040054,,,,,,,2025-08-08,1,,,,,ネブカ,0
8,1010001257579,新規,0,2025-08-08,2025-08-08,株式会社ＧＹ２ｔａｂｌｅ,,株式会社,東京都,千代田区,神田三崎町２丁目１５番１０号,,13,101,1010061,,,,,,,2025-08-08,1,,,,,ジーワイツーテーブル,0
13,1010003048241,新規,0,2025-08-08,2025-08-08,合同会社ＵＡ東京０５,,合同会社,東京都,中央区,日本橋２丁目１番１８号,,13,102,1030027,,,,,,,2025-08-08,1,,,,,ユーエートウキョウゼロゴ,0
14,1010003048266,新規,0,2025-08-08,2025-08-08,合同会社ＫＥＧ,,合同会社,東京都,中央区,勝どき４丁目６番１号,,13,102,1040054,,,,,,,2025-08-08,1,,,,,ケーイージー,0
15,1010003048324,新規,0,2025-08-08,2025-08-08,Ｗｅｓｔ　Ｓｔｒｅｅｔ　Ｊａｐａｎ　Ｒｅａｌ　Ｅｓｔａｔｅ　Ａｄｖｉｓｏｒｓ　Ｏｎｓｈｏｒｅ合同会社,,合同会社,東京都,中央区,日本橋１丁目４番１号日本橋一丁目ビルディング,,13,102,1030027,,,,,,,2025-08-08,1,,,,,ウエストストリートジャパンリアルエステートアドバイザーズオンショア,0
16,1010003048349,新規,0,2025-08-08,2025-08-08,小千谷ＢＥＳＳ合同会社,,合同会社,東京都,千代田区,丸の内１丁目４番１号東京共同会計事務所内,,13,101,1000005,,,,,,,2025-08-08,1,,,,,オヂヤベス,0
19,1010103002627,新規,0,2025-08-08,2025-08-08,合同会社時,,合同会社,東京都,八王子市,緑町３６８―１７,,13,201,1930932,,,,,,,2025-08-08,1,,,,,トキ,0
24,1010401191782,新規,0,2025-08-08,2025-08-08,株式会社Ｎｙｅｌｌａ,,株式会社,東京都,港区,北青山１丁目３－３三橋ビル３階,,13,103,1070061,,,,,,,2025-08-08,1,,,,,ニエラ,0
25,1010401192186,新規,0,2025-08-08,2025-08-08,株式会社不動産事業価値研究所,,株式会社,東京都,港区,南青山５丁目１１番１４号Ｈ＆Ｍ南青山ＥＡＳＴ３０１号,,13,103,1070062,,,,,,,2025-08-08,1,,,,,フドウサンジギョウカチケンキュウジョ,0
26,1010401192368,新規,0,2025-08-08,2025-08-08,株式会社ＭＩＹＡＢＩ２５２,,株式会社,東京都,港区,西麻布４丁目１８－４－４０１,,13,103,1060031,,,,,,,2025-08-08,1,,,,,ミヤビトゥエンティファイブプラス,0
27,1010401192384,新規,0,2025-08-08,2025-08-08,株式会社Ｗｅｂｂ,,株式会社,東京都,港区,三田１丁目３番４０号,,13,103,1080073,,,,,,,2025-08-08,1,,,,,ウェッブ,0
28,1010501054484,新規,0,2025-08-08,2025-08-08,株式会社ａ　ｍｏｍｅｎｔ,,株式会社,東京都,台東区,寿４丁目４番１号,,13,106,1110042,,,,,,,2025-08-08,1,,,,,アモーメント,0
30,1010601067733,新規,0,2025-08-08,2025-08-08,株式会社Ａ’ｓ　ＶＩＳＩＯＮ　ＷＯＲＫＳ,,株式会社,東京都,江東区,東砂７丁目５番２２－８０２号,,13,108,1360074,,,,,,,2025-08-08,1,,,,,エーズビジョンワークス,0
31,1010601067782,新規,0,2025-08-08,2025-08-08,株式会社ＮａｎａＲｏｕｔｅ,,株式会社,東京都,墨田区,東向島６丁目５５－９,,13,107,1310032,,,,,,,2025-08-08,1,,,,,ナナルート,0
32,1010603011722,新規,0,2025-08-08,2025-08-08,東京興業国際合同会社,,合同会社,東京都,墨田区,業平２丁目１６番４号ホーユウコンフォルト隅田公園７０１号,,13,107,1300002,,,,,,,2025-08-08,1,,,,,トウキョウコウギョウコクサイ,0
33,1010701048121,新規,0,2025-08-08,2025-08-08,ＫＳＷホールディングス株式会社,,株式会社,東京都,品川区,南大井６丁目２１－１２－６Ｆ,,13,109,1400013,,,,,,,2025-08-08,1,,,,,ケイエスダブリューホールディングス,0
34,1010701048138,新規,0,2025-08-08,2025-08-08,株式会社トラウン,,株式会社,東京都,品川区,南大井２丁目１２番１－２０４号,,13,109,1400013,,,,,,,2025-08-08,1,,,,,トラウン,0
35,1010703007851,新規,0,2025-08-08,2025-08-08,合同会社アルチザン・ジャパン,,合同会社,東京都,品川区,大井３丁目９番９－３１１号,,13,109,1400014,,,,,,,2025-08-08,1,,,,,アルチザンジャパン,0
37,1010801036463,新規,0,2025-08-08,2025-08-08,株式会社ユキ・クリエイト,,株式会社,東京都,大田区,西蒲田７丁目２５番１０号,,13,111,1440051,,,,,,,2025-08-08,1,,,,,ユキクリエイト,0
39,1010805003195,新規,0,2025-08-08,2025-08-08,一般社団法人つながり応援,,その他の設立登記法人,東京都,大田区,大森東４丁目１６番１７号,,13,111,1430012,,,,,,,2025-08-08,1,,,,,ツナガリオウエン,0
40,1010901057896,新規,0,2025-08-08,2025-08-08,株式会社メディバランス,,株式会社,東京都,世田谷区,代沢１丁目３０番５号,,13,112,1550032,,,,,,,2025-08-08,1,,,,,メディバランス,0
44,1010903010168,新規,0,2025-08-08,2025-08-08,バンディーズ合同会社,,合同会社,東京都,世田谷区,奥沢５丁目３５番８号,,13,112,1580083,,,,,,,2025-08-08,1,,,,,バンディーズ,0
46,1011003022120,新規,0,2025-08-08,2025-08-08,合同会社Ｆ＆Ｘ,,合同会社,東京都,渋谷区,神南１丁目１１－４ＦＰＧリンクス神南５階,,13,113,1500041,,,,,,,2025-08-08,1,,,,,エフアンドエックス,0
47,1011201026550,新規,0,2025-08-08,2025-08-08,株式会社タイムゾーン,,株式会社,東京都,中野区,上鷺宮１丁目７－２２－４０３号,,13,114,1650031,,,,,,,2025-08-08,1,,,,,タイムゾーン,0
49,1011305003058,新規,0,2025-08-08,2025-08-08,一般社団法人日本中国朝鮮族芸術協会ＮＣＣＡ,,その他の設立登記法人,東京都,杉並区,和田２丁目４７番２８号,,13,115,1660012,,,,,,,2025-08-08,1,,,,,ニホンチュウゴクチョウセンゾクゲイジュツキョウカイエヌシシエイ,0
50,1011501032348,新規,0,2025-08-08,2025-08-08,株式会社Ｃｏｄｅｌｉｔｈ,,株式会社,東京都,荒川区,東日暮里２丁目１１番１１号Ｈｅｕｒｅｕｘ東日暮里４０２,,13,118,1160014,,,,,,,2025-08-08,1,,,,,,0
59,1012401043443,新規,0,2025-08-08,2025-08-08,株式会社小金井ベース,,株式会社,東京都,小金井市,本町５丁目１８番８号メゾン・エスポワール１Ｂ,,13,210,1840004,,,,,,,2025-08-08,1,,,,,コガネイベース,0
61,1012701019011,新規,0,2025-08-08,2025-08-08,株式会社ＳＲＣ,,株式会社,東京都,小平市,上水本町５丁目２３番１－１１７号,,13,211,1870022,,,,,,,2025-08-08,1,,,,,エスアールシー,0
63,1012801024159,新規,0,2025-08-08,2025-08-08,株式会社ＡＤＭＵＳ,,株式会社,東京都,日野市,万願寺３丁目５１－１２ＴＢパレス２０１,,13,212,1910024,,,,,,,2025-08-08,1,,,,,アドムス,0
66,1013301054729,新規,0,2025-08-08,2025-08-08,株式会社ＮＰＴ,,株式会社,東京都,豊島区,東池袋２丁目６２番８号ＢＩＧオフィスプラザ池袋１２０６,,13,116,1700013,,,,,,,2025-08-08,1,,,,,エヌピーティー,0
68,1020001164171,新規,0,2025-08-08,2025-08-08,株式会社Ｌｕｎｏ,,株式会社,神奈川県,川崎市中原区,小杉町３丁目７－７ｂ’ＣＡＳＡ武蔵小杉５０１,,14,133,2110063,,,,,,,2025-08-08,1,,,,,ルーノ,0
69,1020001164188,新規,0,2025-08-08,2025-08-08,株式会社ｆｒｅｅｌｙ,,株式会社,神奈川県,横浜市都筑区,牛久保東２丁目１６番９号,,14,118,2240014,,,,,,,2025-08-08,1,,,,,フリーリー,0
70,1020001164205,新規,0,2025-08-08,2025-08-08,株式会社アルチザンリーブル,,株式会社,神奈川県,横浜市西区,北幸１丁目１１番１号水信ビル７階,,14,103,2200004,,,,,,,2025-08-08,1,,,,,アルチザンリーブル,0
71,1020001164221,新規,0,2025-08-08,2025-08-08,エンポイント株式会社,,株式会社,神奈川県,横浜市西区,岡野１丁目１番１－４０４号,,14,103,2200073,,,,,,,2025-08-08,1,,,,,エンポイント,0
72,1020001164246,新規,0,2025-08-08,2025-08-08,地域無線通信システム株式会社,,株式会社,神奈川県,川崎市麻生区,上麻生２丁目１１番６号,,14,137,2150021,,,,,,,2025-08-08,1,,,,,チイキムセンツウシンシステム,0
73,1020001164254,新規,0,2025-08-08,2025-08-08,株式会社クロザキコーポレーション,,株式会社,神奈川県,横浜市緑区,三保町１２６７番地２,,14,113,2260015,,,,,,,2025-08-08,1,,,,,クロザキコーポレーション,0
74,1020001164262,新規,0,2025-08-08,2025-08-08,株式会社ファミール,,株式会社,神奈川県,横浜市泉区,新橋町１１４番地,,14,116,2450009,,,,,,,2025-08-08,1,,,,,ファミール,0
80,1020003029075,新規,0,2025-08-08,2025-08-08,Ｂｅｒａｎｉｃｏ合同会社,,合同会社,神奈川県,横浜市旭区,東希望が丘２１８番地４５,,14,112,2410826,,,,,,,2025-08-08,1,,,,,ベラニコ,0
81,1020003029109,新規,0,2025-08-08,2025-08-08,ＮＹ合同会社,,合同会社,神奈川県,横浜市都筑区,東方町９３７番地,,14,118,2240045,,,,,,,2025-08-08,1,,,,,エヌワイ,0
83,1021001085985,新規,0,2025-08-08,2025-08-08,株式会社ＫＴＲエステート,,株式会社,神奈川県,小田原市,飯田岡５０番地１アーバンリヴ１０１,,14,206,2500854,,,,,,,2025-08-08,1,,,,,ケイティーアールエステート,0
84,1021003016402,新規,0,2025-08-08,2025-08-08,合同会社ＩＫＤ,,合同会社,神奈川県,相模原市緑区,大島４６８６－１３,,14,151,2520135,,,,,,,2025-08-08,1,,,,,アイケーディー,0
91,1030001167966,新規,0,2025-08-08,2025-08-08,株式会社Ｍ３モーターズ,,株式会社,埼玉県,吉川市,新栄２丁目１７番地５,,11,243,3420059,,,,,,,2025-08-08,1,,,,,エムスリーモーターズ,0
92,1030001168007,新規,0,2025-08-08,2025-08-08,株式会社ＰＥＮＴＡＳ　ＦＬＯＲＡ　ＪＡＰＡＮ,,株式会社,埼玉県,川口市,大字道合１２８１番地５,,11,203,3330835,,,,,,,2025-08-08,1,,,,,ペンタスフローラジャパン,0
93,1030001168031,新規,0,2025-08-08,2025-08-08,ＪＰＳ　ＴＲＡＤＩＮＧ株式会社,,株式会社,埼玉県,熊谷市,妻沼中央１７番地２セルシオール２Ｂ２０３,,11,202,3600204,,,,,,,2025-08-08,1,,,,,ジェイピーエストレーディング,0
94,1030001168048,新規,0,2025-08-08,2025-08-08,株式会社ミリオン薬局,,株式会社,埼玉県,川口市,大字藤兵衛新田３９番地,,11,203,3330803,,,,,,,2025-08-08,1,,,,,ミリオンヤッキョク,0
95,1030001168056,新規,0,2025-08-08,2025-08-08,櫻畔生活株式会社,,株式会社,埼玉県,草加市,氷川町２３－６,,11,221,3400034,,,,,,,2025-08-08,1,,,,,オウハンセイカツ,0
99,1030003027342,新規,0,2025-08-08,2025-08-08,合同会社プレミール,,合同会社,埼玉県,朝霞市,溝沼５丁目８番６号,,11,227,3510023,,,,,,,2025-08-08,1,,,,,プレミール,0
100,1030003027350,新規,0,2025-08-08,2025-08-08,合同会社ａ．ｆ,,合同会社,埼玉県,三郷市,戸ケ崎３丁目３９３番地５,,11,237,3410044,,,,,,,2025-08-08,1,,,,,エーエフ,0
101,1030003027375,新規,0,2025-08-08,2025-08-08,合同会社ＳＴＡＹ　ＧＯＬＤ,,合同会社,埼玉県,さいたま市大宮区,桜木町４丁目９３４番地３,,11,103,3300854,,,,,,,2025-08-08,1,,,,,ステイゴールド,0
104,1040001139907,新規,0,2025-08-08,2025-08-08,ペアリッシュブルワリー株式会社,,株式会社,千葉県,白井市,根１１５番地の６,,12,232,2701431,,,,,,,2025-08-08,1,,,,,ペアリッシュブルワリー,0
105,1040001139956,新規,0,2025-08-08,2025-08-08,株式会社ロジック,,株式会社,千葉県,柏市,若柴１７８番地４柏の葉キャンパス１４８街区２パークアクシス柏の葉９０７号,,12,217,2770871,,,,,,,2025-08-08,1,,,,,ロジック,0
106,1040001139972,新規,0,2025-08-08,2025-08-08,株式会社暁紅,,株式会社,千葉県,千葉市若葉区,東寺山町４２３番地１エステ・スクエア千葉Ａ－１１０６,,12,104,2640035,,,,,,,2025-08-08,1,,,,,ギョウコウ,0
107,1040003028216,新規,0,2025-08-08,2025-08-08,合同会社紅小町ファーム,,合同会社,千葉県,香取市,沢１３７２番地１,,12,236,2870105,,,,,,,2025-08-08,1,,,,,ベニコマチファーム,0
109,1050005013677,新規,0,2025-08-08,2025-08-08,一般社団法人こどものＳＯＮＯＲＡ,,その他の設立登記法人,茨城県,牛久市,柏田町１０３０番地,,08,219,3001211,,,,,,,2025-08-08,1,,,,,コドモノソノーラ,0
111,1060001038487,新規,0,2025-08-08,2025-08-08,株式会社鈴木農場,,株式会社,栃木県,宇都宮市,平出町５４４６番地,,09,201,3210901,,,,,,,2025-08-08,1,,,,,スズキノウジョウ,0
112,1060001038495,新規,0,2025-08-08,2025-08-08,株式会社ＹＯＲＯＺＵＹＡ,,株式会社,栃木県,宇都宮市,東宿郷２丁目１７番１０号,,09,201,3210953,,,,,,,2025-08-08,1,,,,,ヨロズヤ,0
114,1060003005675,新規,0,2025-08-08,2025-08-08,合同会社いつもここから,,合同会社,栃木県,宇都宮市,駒生１丁目６番１１号,,09,201,3200066,,,,,,,2025-08-08,1,,,,,イツモココカラ,0
115,1060003005683,新規,0,2025-08-08,2025-08-08,合同会社宇都宮を盛り上げ隊,,合同会社,栃木県,宇都宮市,御幸町３２８－２,,09,201,3210984,,,,,,,2025-08-08,1,,,,,ウツノミヤヲモリアゲタイ,0
120,1090001019451,新規,0,2025-08-08,2025-08-08,株式会社Ａ’ｚ,,株式会社,山梨県,笛吹市,御坂町夏目原１７４番地１,,19,211,4060804,,,,,,,2025-08-08,1,,,,,エーズ,0
121,1090003002868,新規,0,2025-08-08,2025-08-08,合同会社キングスパワー,,合同会社,山梨県,南都留郡忍野村,内野４３０番地,,19,424,4010512,,,,,,,2025-08-08,1,,,,,キングスパワー,0
122,1100001038788,新規,0,2025-08-08,2025-08-08,株式会社ＵＮＩＴＥＤ　ＯＲＢ,,株式会社,長野県,北佐久郡立科町,大字芦田八ケ野１０３７番地,,20,324,3842309,,,,,,,2025-08-08,1,,,,,ユナイテッドオーブ,0
123,1100001038854,新規,0,2025-08-08,2025-08-08,なんかいい株式会社,,株式会社,長野県,松本市,南原２丁目１４番３０号,,20,202,3900846,,,,,,,2025-08-08,1,,,,,ナンカイイ,0
126,1110001039471,新規,0,2025-08-08,2025-08-08,株式会社ミツバ住設,,株式会社,新潟県,新潟市中央区,新和１丁目６番２０号アーク笹出,,15,103,9500972,,,,,,,2025-08-08,1,,,,,ミツバジュウセツ,0
146,1120001278424,新規,0,2025-08-08,2025-08-08,良也株式会社,,株式会社,大阪府,大阪市都島区,都島本通３丁目１８番４号２階２０８－１１号室,,27,102,5340021,,,,,,,2025-08-08,1,,,,,リョウヤ,0
147,1120001278531,新規,0,2025-08-08,2025-08-08,潤膚株式会社,,株式会社,大阪府,大阪市東成区,深江南１丁目１０－１２ハイネスヒガシビル２０７,,27,115,5370002,,,,,,,2025-08-08,1,,,,,ジュンフ,0
148,1120001278622,新規,0,2025-08-08,2025-08-08,株式会社ハピネスエンタープライズ,,株式会社,大阪府,大阪市天王寺区,上本町５丁目２－１１,,27,109,5430001,,,,,,,2025-08-08,1,,,,,ハピネスエンタープライズ,0
149,1120001278688,新規,0,2025-08-08,2025-08-08,枚方アクアパートナー株式会社,,株式会社,大阪府,枚方市,中宮北町１７番５号,,27,210,5731194,,,,,,,2025-08-08,1,,,,,ヒラカタアクアパートナー,0
150,1120001278713,新規,0,2025-08-08,2025-08-08,株式会社クラボ,,株式会社,大阪府,大阪市北区,梅田１丁目２番２号大阪駅前第２ビル１２‐１２,,27,127,5300001,,,,,,,2025-08-08,1,,,,,クラボ,0
152,1120003030213,新規,0,2025-08-08,2025-08-08,合同会社Ｌｕｃｅｎｔ,,合同会社,大阪府,大阪市北区,梅田１丁目１－３大阪駅前第３ビル２９階１－１－１号室,,27,127,5300001,,,,,,,2025-08-08,1,,,,,ルセント,0
155,1120101072248,新規,0,2025-08-08,2025-08-08,株式会社Ｗｅｌｌｎｅｓｓ＆Ａ,,株式会社,大阪府,岸和田市,尾生町１４２８番地,,27,202,5960816,,,,,,,2025-08-08,1,,,,,ウェルネスアンドエー,0
156,1120103006617,新規,0,2025-08-08,2025-08-08,合同会社ＴＰ,,合同会社,大阪府,堺市西区,鳳西町２丁２９９番地の３－２階Ａ,,27,144,5938326,,,,,,,2025-08-08,1,,,,,ティーピー,0
159,1122001039509,新規,0,2025-08-08,2025-08-08,株式会社ｅｔ．ＲＩＳＥ,,株式会社,大阪府,東大阪市,西堤本通西３丁目９番３号,,27,227,5770046,,,,,,,2025-08-08,1,,,,,エトライズ,0
169,1140001139509,新規,0,2025-08-08,2025-08-08,Ｂｒａｎｄ　Ｖａｌｏｒ株式会社,,株式会社,兵庫県,朝来市,新井６３０－９,,28,225,6793431,,,,,,,2025-08-08,1,,,,,ブランドヴァラー,0
170,1140001139599,新規,0,2025-08-08,2025-08-08,株式会社本多商店,,株式会社,兵庫県,尼崎市,琴浦町１１１番地,,28,202,6600074,,,,,,,2025-08-08,1,,,,,ホンダショウテン,0
173,1140003022415,新規,0,2025-08-08,2025-08-08,合同会社ＴＮＪ　Ｔｒａｄｉｎｇ,,合同会社,兵庫県,神戸市兵庫区,荒田町３丁目１８－７－２０１号,,28,105,6520032,,,,,,,2025-08-08,1,,,,,ティーエヌジェイトレーディング,0
181,1180301040098,新規,0,2025-08-08,2025-08-08,株式会社Ｔ‐ｗｏｒｋ,,株式会社,愛知県,豊橋市,往完町字郷社東４５番地の１１,,23,201,4418082,,,,,,,2025-08-08,1,,,,,ティーワーク,0
189,1200001044116,新規,0,2025-08-08,2025-08-08,株式会社民救,,株式会社,岐阜県,瑞浪市,下沖町１丁目５,,21,208,5096111,,,,,,,2025-08-08,1,,,,,ミンキュウ,0
190,1200001044132,新規,0,2025-08-08,2025-08-08,川崎重工航空宇宙ビジネスサポート株式会社,,株式会社,岐阜県,各務原市,川崎町２番地,,21,213,5040971,,,,,,,2025-08-08,1,,,,,カワサキジュウコウコウクウウチュウビジネスサポート,0
191,1200001044140,新規,0,2025-08-08,2025-08-08,株式会社にじいろナース,,株式会社,岐阜県,多治見市,赤坂町４丁目５３番地の４,,21,204,5070057,,,,,,,2025-08-08,1,,,,,ニジイロナース,0
192,1210001020272,新規,0,2025-08-08,2025-08-08,ＤＡＩＷＡ　ＭＥＴＡＬ　ＨＤ株式会社,,株式会社,福井県,越前市,五分市町第２８号６番地,,18,209,9150026,,,,,,,2025-08-08,1,,,,,ダイワメタルホールディングス,0
195,1230001021038,新規,0,2025-08-08,2025-08-08,富山スポーツ振興株式会社,,株式会社,富山県,富山市,一番町６番１２号,,16,201,9300061,,,,,,,2025-08-08,1,,,,,トヤマスポーツシンコウ,0
203,1240001065348,新規,0,2025-08-08,2025-08-08,株式会社トリループ,,株式会社,広島県,広島市安佐南区,西原２丁目１９番３７－１２０３号,,34,105,7310113,,,,,,,2025-08-08,1,,,,,トリループ,0
206,1240005015976,新規,0,2025-08-08,2025-08-08,一般社団法人耐硫インフラ協会,,その他の設立登記法人,広島県,広島市中区,南竹屋町５番１２,,34,101,7300049,,,,,,,2025-08-08,1,,,,,タイリュウインフラ,0
212,1260005011503,新規,0,2025-08-08,2025-08-08,一般社団法人岡山県建設発生土リサイクル協会,,その他の設立登記法人,岡山県,岡山市北区,今保１１３番地８,,33,101,7010145,,,,,,,2025-08-08,1,,,,,オカヤマケンケンセツハッセイドリサイクルキョウカイ,0
213,1270001009260,新規,0,2025-08-08,2025-08-08,株式会社花はあんどう,,株式会社,鳥取県,倉吉市,西町２６８０番地,,31,203,6820862,,,,,,,2025-08-08,1,,,,,ハナハアンドウ,0
217,1290001110909,新規,0,2025-08-08,2025-08-08,日本自動制御ロボットシステム株式会社,,株式会社,福岡県,糸島市,高田１丁目８番２号,,40,230,8191102,,,,,,,2025-08-08,1,,,,,ニホンジドウセイギョロボットシステム,0
218,1290001110958,新規,0,2025-08-08,2025-08-08,株式会社ソラリス,,株式会社,福岡県,福岡市博多区,博多駅南４丁目２０番１５－２０５号,,40,132,8120016,,,,,,,2025-08-08,1,,,,,ソラリス,0
220,1290003017185,新規,0,2025-08-08,2025-08-08,ＭＧ合同会社,,合同会社,福岡県,福岡市中央区,高砂２丁目１６－２８シティパレス平尾駅前パート１－１Ｆ,,40,133,8100011,,,,,,,2025-08-08,1,,,,,エムジー,0
222,1300001014315,新規,0,2025-08-08,2025-08-08,株式会社ＢＯＴＡＮＹＵ,,株式会社,佐賀県,鹿島市,大字高津原３５５６番地１,,41,207,8491311,,,,,,,2025-08-08,1,,,,,ボタンユ,0
225,1320001021268,新規,0,2025-08-08,2025-08-08,株式会社バックライン,,株式会社,大分県,中津市,大字高瀬６１２番地１,,44,203,8710026,,,,,,,2025-08-08,1,,,,,バックライン,0
231,1340003004921,新規,0,2025-08-08,2025-08-08,合同会社Ｌｕｍｅａ,,合同会社,鹿児島県,鹿屋市,上谷町１３６０９番地,,46,203,8930061,,,,,,,2025-08-08,1,,,,,ルメア,0
233,1350001019689,新規,0,2025-08-08,2025-08-08,株式会社ＤＩＤＩＴ,,株式会社,宮崎県,都城市,山田町山田９３８０番地,,45,202,8894601,,,,,,,2025-08-08,1,,,,,ディッドイット,0
239,1370003007236,新規,0,2025-08-08,2025-08-08,合同会社オレンジ,,合同会社,宮城県,名取市,ゆりが丘１丁目１５－２,,04,207,9811245,,,,,,,2025-08-08,1,,,,,オレンジ,0
246,1390003002425,新規,0,2025-08-08,2025-08-08,ハルゴ合同会社,,合同会社,山形県,山形市,大字八森８番地,,06,201,9902404,,,,,,,2025-08-08,1,,,,,,0
248,1400003003520,新規,0,2025-08-08,2025-08-08,合同会社そら音舎,,合同会社,岩手県,花巻市,高松第５地割１８番地７,,03,205,0250014,,,,,,,2025-08-08,1,,,,,ソラネシャ,0
251,1410003004138,新規,0,2025-08-08,2025-08-08,合同会社ハマナス商会,,合同会社,秋田県,秋田市,泉南１丁目１番３号泉南ビル２Ｆ,,05,201,0100918,,,,,,,2025-08-08,1,,,,,ハマナスショウカイ,0
255,1430001094955,新規,0,2025-08-08,2025-08-08,嵐岳ＡＬＩＮＥ株式会社,,株式会社,北海道,小樽市,住吉町３番５号,,01,203,0470015,,,,,,,2025-08-08,1,,,,,,0
261,1430003017947,新規,0,2025-08-08,2025-08-08,合同会社絆灯,,合同会社,北海道,苫小牧市,栄町３丁目２番１６号ハイツフィオーレ１０３号,,01,213,0530017,,,,,,,2025-08-08,1,,,,,キズナビ,0
265,1480001012920,新規,0,2025-08-08,2025-08-08,株式会社たすき,,株式会社,徳島県,徳島市,南沖洲１丁目７‐４７‐７,,36,201,7700874,,,,,,,2025-08-08,1,,,,,タスキ,0
268,1490001011137,新規,0,2025-08-08,2025-08-08,株式会社大吉,,株式会社,高知県,高知市,帯屋町１丁目１５番１３号,,39,201,7800841,,,,,,,2025-08-08,1,,,,,ダイキチ,0
273,1500001026463,新規,0,2025-08-08,2025-08-08,Ｊｕｎｇｌｏｂｅ株式会社,,株式会社,愛媛県,西条市,小松町南川甲８８番地６,,38,206,7991102,,,,,,,2025-08-08,1,,,,,ジャングローブ,0
284,2010001257454,新規,0,2025-08-08,2025-08-08,Ｎｅｘｔ　Ｆｕｅｌ　Ｘ株式会社,,株式会社,東京都,中央区,銀座３丁目１３－４銀座スカイビル６階,,13,102,1040061,,,,,,,2025-08-08,1,,,,,ネクストフューエルエックス,0
285,2010001257479,新規,0,2025-08-08,2025-08-08,トヨタ・インベンション・パートナーズ株式会社,,株式会社,東京都,中央区,日本橋室町３丁目２番１号,,13,102,1030022,,,,,,,2025-08-08,1,,,,,トヨタインベンションパートナーズ,0
289,2010003048240,新規,0,2025-08-08,2025-08-08,合同会社ＵＡ東京０６,,合同会社,東京都,中央区,日本橋２丁目１番１８号,,13,102,1030027,,,,,,,2025-08-08,1,,,,,ユーエートウキョウゼロロク,0
290,2010103002626,新規,0,2025-08-08,2025-08-08,ユーフォニア合同会社,,合同会社,東京都,八王子市,長沼町１３４―１７４,,13,201,1920907,,,,,,,2025-08-08,1,,,,,ユーフォニア,0
300,2010401192227,新規,0,2025-08-08,2025-08-08,Ｃｕｓｐ　ＡＩ株式会社,,株式会社,東京都,港区,元麻布３丁目１番６号,,13,103,1060046,,,,,,,2025-08-08,1,,,,,カスプエーアイ,0
301,2010401192284,新規,0,2025-08-08,2025-08-08,株式会社Ｇｅｏｍｏｎｔｏ,,株式会社,東京都,港区,六本木７丁目１２番２号,,13,103,1060032,,,,,,,2025-08-08,1,,,,,ジオモント,0
303,2010403035796,新規,0,2025-08-08,2025-08-08,ブルーインフラ１７号合同会社,,合同会社,東京都,港区,南青山２丁目１３番２号サンライズ青山２Ｆ青山国際税理士法人内,,13,103,1070062,,,,,,,2025-08-08,1,,,,,ブルーインフラジュウナナゴウ,0
305,2010405024649,新規,0,2025-08-08,2025-08-08,一般社団法人高齢者等終身サポート事業者協議会,,その他の設立登記法人,東京都,港区,西新橋１丁目２０番２号,,13,103,1050003,,,,,,,2025-08-08,1,,,,,コウレイシャトウシュウシンサポートジギョウシャキョウギカイ,0
310,2010601067740,新規,0,2025-08-08,2025-08-08,アンデス株式会社,,株式会社,東京都,江東区,北砂４丁目２５番６号,,13,108,1360073,,,,,,,2025-08-08,1,,,,,アンデス,0
312,2010701048129,新規,0,2025-08-08,2025-08-08,ＯｖｅｒＬｉｇｈｔ株式会社,,株式会社,東京都,品川区,西五反田１丁目１１番９号司ビル３Ｂ,,13,109,1410031,,,,,,,2025-08-08,1,,,,,オーバーライト,0
319,2011001171281,新規,0,2025-08-08,2025-08-08,株式会社シンボール,,株式会社,東京都,渋谷区,円山町５番５号Ｎａｖｉ渋谷Ｖ３階,00140226,13,113,1500044,,,,,,,2025-08-08,1,,,,,シンボール,0
329,2011101112656,新規,0,2025-08-08,2025-08-08,晴和管理株式会社,,株式会社,東京都,新宿区,新宿５丁目１８番１０－１４０５号,,13,104,1600022,,,,,,,2025-08-08,1,,,,,セイワカンリ,0
333,2011203004784,新規,0,2025-08-08,2025-08-08,合資会社フラテ中野坂上,,合資会社,東京都,中野区,本町２丁目５番７号,,13,114,1640012,,,,,,,2025-08-08,1,,,,,フラテナカノサカウエ,0
334,2011403004790,新規,0,2025-08-08,2025-08-08,ＡＩｄｅｉａ　Ｓｏｌｕｔｉｏｎｓ合同会社,,合同会社,東京都,板橋区,三園１丁目３８－４,,13,119,1750091,,,,,,,2025-08-08,1,,,,,エイアイデアソリューションズ,0
340,2011801046575,新規,0,2025-08-08,2025-08-08,株式会社ヴォクストリー,,株式会社,東京都,葛飾区,小菅２丁目１１番１号,,13,122,1240001,,,,,,,2025-08-08,1,,,,,ヴォクストリー,0
341,2012301014493,新規,0,2025-08-08,2025-08-08,株式会社ＡＩ　Ｂｒｉｄｇｅ,,株式会社,東京都,町田市,原町田４丁目１１－１３天野ビル４Ｆ,,13,209,1940013,,,,,,,2025-08-08,1,,,,,エーアイブリッジ,0
346,2012801024141,新規,0,2025-08-08,2025-08-08,株式会社ＨＩＫＡＲＩ　ＶＥＮＴＵＲＥＳ,,株式会社,東京都,立川市,羽衣町２丁目２７番１２号,,13,202,1900021,,,,,,,2025-08-08,1,,,,,ヒカリベンチャーズ,0
347,2012801024158,新規,0,2025-08-08,2025-08-08,株式会社沖倉工業,,株式会社,東京都,東大和市,芋窪５丁目１２７４番地の１,,13,220,2070033,,,,,,,2025-08-08,1,,,,,オキクラコウギョウ,0
352,2013301054728,新規,0,2025-08-08,2025-08-08,株式会社タギノ,,株式会社,東京都,豊島区,南長崎５丁目６番９号,,13,116,1710052,,,,,,,2025-08-08,1,,,,,タギノ,0
359,2020001164179,新規,0,2025-08-08,2025-08-08,株式会社ＥＰ　ＮＥＸＵＳ,,株式会社,神奈川県,横浜市青葉区,奈良町２４１５番地１７１,,14,117,2270036,,,,,,,2025-08-08,1,,,,,イーピーネクサス,0
360,2020001164195,新規,0,2025-08-08,2025-08-08,株式会社ホームケアシステム,,株式会社,神奈川県,横浜市青葉区,荏子田２丁目２９番地４号クローバーヒルズＩＡ－３,00140218,14,117,2250005,,,,,,,2025-08-08,1,,,,,ホームケアシステム,0
361,2020001164229,新規,0,2025-08-08,2025-08-08,株式会社風道ホールディングス,,株式会社,神奈川県,川崎市中原区,下沼部１９１２番地グレイシア小杉１０２,,14,133,2110011,,,,,,,2025-08-08,1,,,,,カゼミチホールディングス,0
362,2020001164237,新規,0,2025-08-08,2025-08-08,ＫＤＥＮ株式会社,,株式会社,神奈川県,川崎市中原区,上小田中５丁目８番１６－２号,,14,133,2110053,,,,,,,2025-08-08,1,,,,,ケーデン,0
363,2020001164245,新規,0,2025-08-08,2025-08-08,株式会社ザナドゥ,,株式会社,神奈川県,川崎市宮前区,宮崎１４０番地３,,14,136,2160033,,,,,,,2025-08-08,1,,,,,ザナドゥ,0
364,2020001164253,新規,0,2025-08-08,2025-08-08,株式会社ＹＡＴＯ,,株式会社,神奈川県,横浜市都筑区,中川７丁目８番２０号,,14,118,2240001,,,,,,,2025-08-08,1,,,,,ヤト,0
365,2020001164261,新規,0,2025-08-08,2025-08-08,フォークハーバー株式会社,,株式会社,神奈川県,横浜市南区,別所３丁目１８番１２－１号,,14,105,2320064,,,,,,,2025-08-08,1,,,,,フォークハーバー,0
366,2020001164286,新規,0,2025-08-08,2025-08-08,ＲＵＭｅＬ　ｓｔｕｄｉｏ株式会社,,株式会社,神奈川県,横浜市西区,北幸２丁目４番５号コウノビル７階,,14,103,2200004,,,,,,,2025-08-08,1,,,,,ルメルスタジオ,0
370,2020003029074,新規,0,2025-08-08,2025-08-08,合同会社Ｃ‐ＣＲＡＦＴ,,合同会社,神奈川県,横浜市西区,久保町３６番５－１０１号,,14,103,2200061,,,,,,,2025-08-08,1,,,,,シークラフト,0
371,2020003029090,新規,0,2025-08-08,2025-08-08,合同会社モチりぼん,,合同会社,神奈川県,横浜市西区,浅間町１丁目４番３号ウィザードビル４０２,,14,103,2200072,,,,,,,2025-08-08,1,,,,,モチリボン,0
372,2020003029116,新規,0,2025-08-08,2025-08-08,合同会社マーシュラボ,,合同会社,神奈川県,横浜市緑区,長津田４丁目２０番Ａ－６０９号,,14,113,2260027,,,,,,,2025-08-08,1,,,,,マーシュラボ,0
374,2021001086033,新規,0,2025-08-08,2025-08-08,株式会社Ａｓｃｉｚｅ,,株式会社,神奈川県,相模原市緑区,橋本３丁目１９－２１ハピニスライフＤ－６,,14,151,2520143,,,,,,,2025-08-08,1,,,,,アサイズ,0
376,2021005013405,新規,0,2025-08-08,2025-08-08,一般社団法人ルーツオブマーシャルアーツ協会,,その他の設立登記法人,神奈川県,鎌倉市,小町１丁目９－３島森ビルＢ１Ｆ,,14,204,2480006,,,,,,,2025-08-08,1,,,,,ルーツオブマーシャルアーツキョウカイ,0
384,2030001167981,新規,0,2025-08-08,2025-08-08,アスピリアス株式会社,,株式会社,埼玉県,川口市,東川口４丁目２９番１７号ＭＡＲＩ壱番館１０５号室,,11,203,3330801,,,,,,,2025-08-08,1,,,,,アスピリアス,0
385,2030001168014,新規,0,2025-08-08,2025-08-08,＿航株式会社,00140217,株式会社,埼玉県,川口市,朝日１丁目１７番１号,,11,203,3320001,,,,,,,2025-08-08,1,,,,,イクコウ,0
386,2030001168022,新規,0,2025-08-08,2025-08-08,ＲｅＮＡＴｕｓ株式会社,,株式会社,埼玉県,さいたま市南区,別所５丁目１３番２８号エクセルグリーン２０３,,11,108,3360021,,,,,,,2025-08-08,1,,,,,リナタス,0
387,2030001168047,新規,0,2025-08-08,2025-08-08,株式会社トリネクト,,株式会社,埼玉県,新座市,東北２丁目３１番１４号,,11,230,3520001,,,,,,,2025-08-08,1,,,,,トリネクト,0
388,2030001168055,新規,0,2025-08-08,2025-08-08,寿自動車株式会社,,株式会社,埼玉県,北葛飾郡松伏町,田中２丁目２１番地１３,,11,465,3430117,,,,,,,2025-08-08,1,,,,,コトブキジドウシャ,0
389,2030001168088,新規,0,2025-08-08,2025-08-08,株式会社春蔵,,株式会社,埼玉県,川越市,伊勢原町５丁目５番地５６,,11,201,3501108,,,,,,,2025-08-08,1,,,,,ハルクラ,0
390,2030001168105,新規,0,2025-08-08,2025-08-08,Ｇｏｌｄｅｎ　Ｔｕｒｔｌｅｓ　Ｌａｂ株式会社,,株式会社,埼玉県,さいたま市大宮区,浅間町２丁目４６－３０１,,11,103,3300842,,,,,,,2025-08-08,1,,,,,ゴールデンタートルズラボ,0
395,2030003027366,新規,0,2025-08-08,2025-08-08,合同会社石川,,合同会社,埼玉県,鶴ヶ島市,大字鶴ヶ丘４０３番地１,,11,241,3502204,,,,,,,2025-08-08,1,,,,,イシカワ,0
399,2040001139889,新規,0,2025-08-08,2025-08-08,近代エンジニアリング株式会社,,株式会社,千葉県,我孫子市,天王台１丁目１番２５号天王台スカイプラザ３０１,,12,222,2701143,,,,,,,2025-08-08,1,,,,,キンダイエンジニアリング,0
403,2040003028157,新規,0,2025-08-08,2025-08-08,合同会社Ｗｉｌｌ　ｆａｃｅ,,合同会社,千葉県,千葉市美浜区,幸町２丁目２３番２‐９１０号,,12,106,2610001,,,,,,,2025-08-08,1,,,,,ウィルフェイス,0
413,2060001038486,新規,0,2025-08-08,2025-08-08,ＢＡＳＲＡ　ＧＲＯＵＰ株式会社,,株式会社,栃木県,栃木市,藤岡町甲２１０４番地１,,09,203,3231105,,,,,,,2025-08-08,1,,,,,バスラグループ,0
414,2060003005674,新規,0,2025-08-08,2025-08-08,合同会社大栗青果,,合同会社,栃木県,下都賀郡壬生町,大字国谷２０１１番地,,09,361,3210211,,,,,,,2025-08-08,1,,,,,オオグリセイカ,0
419,2070005010416,新規,0,2025-08-08,2025-08-08,医療法人さくら,,その他の設立登記法人,群馬県,高崎市,上中居町１８１番地５,,10,202,3700851,,,,,,,2025-08-08,1,,,,,サクラ,0
420,2080001027066,新規,0,2025-08-08,2025-08-08,株式会社海野,,株式会社,静岡県,静岡市駿河区,泉町４番２３号,,22,102,4228066,,,,,,,2025-08-08,1,,,,,ウンノ,0
423,2080101025713,新規,0,2025-08-08,2025-08-08,株式会社Ｂｒｉｇｈｔ‐ｅｎ　Ａｇｒｉ,,株式会社,静岡県,沼津市,中沢田４２６番地,,22,203,4100006,,,,,,,2025-08-08,1,,,,,ブライトンアグリ,0
424,2090005007724,新規,0,2025-08-08,2025-08-08,特定非営利活動法人ワインバーグ,,その他の設立登記法人,山梨県,甲州市,勝沼町小佐手２２９６番地,,19,213,4091303,,,,,,,2025-08-08,1,,,,,ワインバーグ,0
439,2120001278621,新規,0,2025-08-08,2025-08-08,Ｓｔｒａｔｏｆｌｏｗ株式会社,,株式会社,大阪府,大阪市東淀川区,上新庄瑞光１－２－１１－４０１,,27,114,5330000,,,,,,,2025-08-08,1,,,,,ストラトフロー,0
440,2120001278670,新規,0,2025-08-08,2025-08-08,株式会社ＴＲＩＳＴＡＲｃｏｍｅｒ,,株式会社,大阪府,大阪市西区,江戸堀１丁目６番１７－４００２号,,27,106,5500002,,,,,,,2025-08-08,1,,,,,トライスターカマー,0
441,2120001278778,新規,0,2025-08-08,2025-08-08,株式会社オンド,,株式会社,大阪府,大阪市北区,大淀南２丁目７‐１,,27,127,5310075,,,,,,,2025-08-08,1,,,,,オンド,0
443,2120003030229,新規,0,2025-08-08,2025-08-08,リモートリンク合同会社,,合同会社,大阪府,大阪市北区,曾根崎２丁目８－５お初天神ＥＡＳＴＢＬＤＧ,,27,127,5300057,,,,,,,2025-08-08,1,,,,,リモートリンク,0
445,2120005025103,新規,0,2025-08-08,2025-08-08,一般社団法人関西圏地盤情報運営機構,,その他の設立登記法人,大阪府,大阪市北区,大淀南２丁目６番１４号浪花ビル２Ｆ,,27,127,5310075,,,,,,,2025-08-08,1,,,,,カンサイケンジバンジョウホウウンエイキコウ,0
448,2120101072214,新規,0,2025-08-08,2025-08-08,株式会社伴埜工業,,株式会社,大阪府,大阪狭山市,大野台６丁目１６番６号,,27,231,5890023,,,,,,,2025-08-08,1,,,,,バンノコウギョウ,0
449,2120103006590,新規,0,2025-08-08,2025-08-08,ジャスミンそら合同会社,,合同会社,大阪府,泉佐野市,日根野６００５－５,,27,213,5980021,,,,,,,2025-08-08,1,,,,,ジャスミンソラ,0
454,2122003003271,新規,0,2025-08-08,2025-08-08,合同会社大阪ロマンメロン生産研究所,,合同会社,大阪府,東大阪市,小阪本町２丁目１番５号,,27,227,5770802,,,,,,,2025-08-08,1,,,,,オオサカロマンメロンセイサンケンキュウショ,0
464,2130001080225,新規,0,2025-08-08,2025-08-08,潤宇株式会社,,株式会社,京都府,京都市下京区,小泉町１１３－１パティオ林８０３室,,26,106,6008480,,,,,,,2025-08-08,1,,,,,ジュンソラ,0
465,2130001080332,新規,0,2025-08-08,2025-08-08,株式会社Ｙ．Ｍ．Ｔ,,株式会社,京都府,京都市下京区,梅小路石橋町６０番４,,26,106,6008855,,,,,,,2025-08-08,1,,,,,ワイエムティー,0
466,2130001080340,新規,0,2025-08-08,2025-08-08,株式会社Ｒａｉｓｅ,,株式会社,京都府,八幡市,八幡樋ノ口１５番地３８,,26,210,6130852,,,,,,,2025-08-08,1,,,,,レイズ,0
469,2140001139549,新規,0,2025-08-08,2025-08-08,ＮＥＯ　ＦＲＯＮＴＩＥＲ株式会社,,株式会社,兵庫県,神戸市東灘区,向洋町中７丁目２番地の３、２番館６１０号,,28,101,6580032,,,,,,,2025-08-08,1,,,,,ネオフロンティア,0
470,2140001139565,新規,0,2025-08-08,2025-08-08,Ｌ．ＴＲＵＳＴ　ＨＯＬＤＩＮＧＳ株式会社,,株式会社,兵庫県,姫路市,朝日町５４番地,,28,201,6700934,,,,,,,2025-08-08,1,,,,,エルトラストホールディングス,0
474,2140003022406,新規,0,2025-08-08,2025-08-08,合同会社ミライク,,合同会社,兵庫県,尼崎市,築地４丁目２番１９号,,28,202,6600858,,,,,,,2025-08-08,1,,,,,ミライク,0
477,2150003003677,新規,0,2025-08-08,2025-08-08,合同会社ビートウイング,,合同会社,奈良県,奈良市,平松２丁目８番４号,,29,201,6310846,,,,,,,2025-08-08,1,,,,,ビートウイング,0
498,2180301040064,新規,0,2025-08-08,2025-08-08,株式会社Ｐｌａｔｚ,,株式会社,愛知県,安城市,相生町１６番１０号,,23,212,4460037,,,,,,,2025-08-08,1,,,,,プラッツ,0
499,2180301040106,新規,0,2025-08-08,2025-08-08,ヨシクラデンキ株式会社,,株式会社,愛知県,岡崎市,合歓木町字西落９３番地２,,23,202,4440232,,,,,,,2025-08-08,1,,,,,ヨシクラデンキ,0
509,2200001044115,新規,0,2025-08-08,2025-08-08,株式会社ＲＩＶＥＲ,,株式会社,岐阜県,岐阜市,細畑６丁目３番１３号,,21,201,5008238,,,,,,,2025-08-08,1,,,,,リバー,0
511,2200003006963,新規,0,2025-08-08,2025-08-08,合同会社Ｃｏｕｒｉｅｒ,,合同会社,岐阜県,高山市,八軒町１丁目１２番地,,21,203,5060012,,,,,,,2025-08-08,1,,,,,クーリエ,0
523,2240005015975,新規,0,2025-08-08,2025-08-08,ＮＰＯ法人動物愛護団体エターナル・ホーム,,その他の設立登記法人,広島県,広島市佐伯区,八幡１丁目６－３２,,34,108,7315116,,,,,,,2025-08-08,1,,,,,ドウブツアイゴダンタイエターナルホーム,0
526,2290001110940,新規,0,2025-08-08,2025-08-08,１７５株式会社,,株式会社,福岡県,福岡市東区,松崎３丁目３３番３８－２０５号,,40,131,8130035,,,,,,,2025-08-08,1,,,,,イナゴ,0
527,2290001110965,新規,0,2025-08-08,2025-08-08,株式会社ＪＡＰＡＮ　ＳＵＰＥＲ　ＴＯＵＲＮＡＭＥＮＴ　ＴＯＵＲ,,株式会社,福岡県,福岡市中央区,大名２丁目１番４２号,,40,133,8100041,,,,,,,2025-08-08,1,,,,,ジャパンスーパートーナメントツアー,0
529,2290003017168,新規,0,2025-08-08,2025-08-08,合同会社Ｍａｋａｈｏｕ,,合同会社,福岡県,福岡市博多区,堅粕３丁目８番１－４１２号,,40,132,8120043,,,,,,,2025-08-08,1,,,,,マカホウ,0
530,2290003017184,新規,0,2025-08-08,2025-08-08,合同会社Ｒｈａ‐ｒｉ,,合同会社,福岡県,福岡市南区,曰佐４丁目２９番２０号,,40,134,8111313,,,,,,,2025-08-08,1,,,,,アールハリー,0
531,2290003017218,新規,0,2025-08-08,2025-08-08,ＣＯＢＡＣＯ合同会社,,合同会社,福岡県,久留米市,大石町３９９番地２,,40,203,8300049,,,,,,,2025-08-08,1,,,,,コバコ,0
546,2360001035602,新規,0,2025-08-08,2025-08-08,株式会社ＲＥＡＬＲＩＳＥ　ＯＫＩＮＡＷＡ,,株式会社,沖縄県,沖縄市,照屋１丁目３９番８号２Ｆ,,47,211,9040011,,,,,,,2025-08-08,1,,,,,リアルライズオキナワ,0
551,2370001052919,新規,0,2025-08-08,2025-08-08,ホワイトリンク株式会社,,株式会社,宮城県,塩竈市,字伊保石２番地４４１シャーメゾンビューコーストＤ２０１,,04,203,9850087,,,,,,,2025-08-08,1,,,,,ホワイトリンク,0
555,2390003002424,新規,0,2025-08-08,2025-08-08,合同会社ＢＡＳＥ,,合同会社,山形県,新庄市,若葉町２２番１３号,,06,205,9960025,,,,,,,2025-08-08,1,,,,,ベース,0
565,2430001094995,新規,0,2025-08-08,2025-08-08,株式会社工藤ＰＭＨ,,株式会社,北海道,札幌市白石区,菊水一条２丁目３番１－１５０１号,,01,104,0030801,,,,,,,2025-08-08,1,,,,,クドウピーエムエイチ,0
566,2430001095052,新規,0,2025-08-08,2025-08-08,株式会社ナカヤマレーシング,,株式会社,北海道,札幌市東区,北三十六条東１４丁目３番１号,,01,103,0070836,,,,,,,2025-08-08,1,,,,,ナカヤマレーシング,0
569,2430003017938,新規,0,2025-08-08,2025-08-08,合同会社ＮＷＣ,,合同会社,北海道,札幌市東区,北十七条東１７丁目３番２３－３０５号,,01,103,0650017,,,,,,,2025-08-08,1,,,,,エヌダブリュウシー,0
576,2480001012911,新規,0,2025-08-08,2025-08-08,株式会社コネクト,,株式会社,徳島県,名東郡佐那河内村,上字宮前８５番地,,36,321,7714102,,,,,,,2025-08-08,1,,,,,コネクト,0
577,2490001011136,新規,0,2025-08-08,2025-08-08,ＩＫメンテナンスサービス株式会社,,株式会社,高知県,高岡郡日高村,沖名８００番地８,,39,410,7812152,,,,,,,2025-08-08,1,,,,,アイケイメンテナンスサービス,0
580,2500003003567,新規,0,2025-08-08,2025-08-08,合同会社ＴａｃｋＳｔｒａｔｅｇｙ,,合同会社,愛媛県,松山市,夏目甲５１８番地２,,38,201,7992437,,,,,,,2025-08-08,1,,,,,タックストラテジー,0
587,3010001257486,新規,0,2025-08-08,2025-08-08,プロウイングホールディングス株式会社,,株式会社,東京都,千代田区,神田鍛冶町３丁目５番８号,,13,101,1010045,,,,,,,2025-08-08,1,,,,,プロウイングホールディングス,0
588,3010001257494,新規,0,2025-08-08,2025-08-08,創元株式会社,,株式会社,東京都,中央区,八丁堀３丁目２７番４号八重洲桜川ビル２階,,13,102,1040032,,,,,,,2025-08-08,1,,,,,ソウゲン,0
591,3010005040500,新規,0,2025-08-08,2025-08-08,一般社団法人ＳＮＦ,,その他の設立登記法人,東京都,文京区,後楽２丁目６番１号,,13,105,1120004,,,,,,,2025-08-08,1,,,,,エスエヌエフ,0
598,3010401192184,新規,0,2025-08-08,2025-08-08,Ａｓｈｃｅｎ株式会社,,株式会社,東京都,港区,六本木３丁目１６番１２号５Ｆ,,13,103,1060032,,,,,,,2025-08-08,1,,,,,アシェン,0
599,3010401192226,新規,0,2025-08-08,2025-08-08,株式会社プルネクス,,株式会社,東京都,港区,浜松町２丁目７番１５号浜松町三電舎ビル７０３号,,13,103,1050013,,,,,,,2025-08-08,1,,,,,プルネクス,0
600,3010401192333,新規,0,2025-08-08,2025-08-08,京都妙法ホテルオペレーションズ株式会社,,株式会社,東京都,港区,赤坂１丁目１２番３２号アーク森ビル３３階,,13,103,1070052,,,,,,,2025-08-08,1,,,,,キョウトミョウホウホテルオペレーションズ,0
601,3010401192366,新規,0,2025-08-08,2025-08-08,株式会社ＤＡＰＯＮＤ,,株式会社,東京都,港区,北青山１丁目３番１号アールキューブ青山３階,,13,103,1070061,,,,,,,2025-08-08,1,,,,,ダポンド,0
602,3010401192390,新規,0,2025-08-08,2025-08-08,竹芝準備５号株式会社,,株式会社,東京都,港区,海岸１丁目７番１号,,13,103,1050022,,,,,,,2025-08-08,1,,,,,タケシバジュンビゴゴウ,0
606,3010403035779,新規,0,2025-08-08,2025-08-08,ＮＥＩＳＡ合同会社,,合同会社,東京都,港区,六本木３丁目１６番１２号六本木ＫＳビル５Ｆ,,13,103,1060032,,,,,,,2025-08-08,1,,,,,ネイサ,0
607,3010403035795,新規,0,2025-08-08,2025-08-08,Ｄｅ　Ｃａｐｉｔａｌ２ｎｄ合同会社,,合同会社,東京都,港区,南青山２丁目２番１５号ＷｉｎＡｏｙａｍａビルＵＣＦ６階,,13,103,1070062,,,,,,,2025-08-08,1,,,,,ディーキャピタルセカンド,0
609,3010501054532,新規,0,2025-08-08,2025-08-08,株式会社ＳＣ,,株式会社,東京都,台東区,柳橋２丁目２番９－１１０１号,,13,106,1110052,,,,,,,2025-08-08,1,,,,,エスシー,0
613,3010601067748,新規,0,2025-08-08,2025-08-08,ＳＹＮＡＰＳＥ　ＤＥＡＬ株式会社,,株式会社,東京都,江東区,白河２丁目１４番２号ＷＯＲＫＬＡＢＥＬ清澄白河４０３,,13,108,1350021,,,,,,,2025-08-08,1,,,,,シナプスディール,0
619,3010701048136,新規,0,2025-08-08,2025-08-08,株式会社ヨコヤマトラスト,,株式会社,東京都,品川区,平塚１丁目７番７号ＭＹビル８階,,13,109,1420051,,,,,,,2025-08-08,1,,,,,ヨコヤマトラスト,0
626,3011001171289,新規,0,2025-08-08,2025-08-08,株式会社スライムリンク,,株式会社,東京都,渋谷区,恵比寿南２丁目３０番１－８０２号ザ・パークハウス恵比寿南,,13,113,1500022,,,,,,,2025-08-08,1,,,,,スライムリンク,0
634,3011105011548,新規,0,2025-08-08,2025-08-08,社会保険労務士法人アルマ,,その他の設立登記法人,東京都,新宿区,北新宿１丁目４番１号,,13,104,1690074,,,,,,,2025-08-08,1,,,,,アルマ,0
635,3011301030789,新規,0,2025-08-08,2025-08-08,エムズライフサーベイ株式会社,,株式会社,東京都,杉並区,本天沼１丁目１番５－１０２号,,13,115,1670031,,,,,,,2025-08-08,1,,,,,エムズライフサーベイ,0
636,3011301030797,新規,0,2025-08-08,2025-08-08,株式会社継志,,株式会社,東京都,杉並区,西荻南４丁目３０－３,,13,115,1670053,,,,,,,2025-08-08,1,,,,,ケイシ,0
637,3011303005665,新規,0,2025-08-08,2025-08-08,合同会社ＬｅａｆＷｏｒｋｓ,,合同会社,東京都,杉並区,阿佐谷北４丁目３番６号ルミナス２０２,,13,115,1660001,,,,,,,2025-08-08,1,,,,,リーフワークス,0
638,3011403004773,新規,0,2025-08-08,2025-08-08,ＡＭＹＪＰ合同会社,,合同会社,東京都,板橋区,向原１丁目１７－２グレースパレス１０２,,13,119,1730036,,,,,,,2025-08-08,1,,,,,エーエムワイジェイピー,0
643,3011803007005,新規,0,2025-08-08,2025-08-08,合同会社７ＣＵＢＥ,,合同会社,東京都,葛飾区,立石８丁目７番８号オークハウス２０２号,,13,122,1240012,,,,,,,2025-08-08,1,,,,,セブンキューブ,0
645,3012401043466,新規,0,2025-08-08,2025-08-08,株式会社グリーンエイトオフィス,,株式会社,東京都,多摩市,乞田６３８番地,,13,224,2060014,,,,,,,2025-08-08,1,,,,,グリーンエイトオフィス,0
646,3012801024157,新規,0,2025-08-08,2025-08-08,株式会社ＶＡＬＡＳ,,株式会社,東京都,武蔵村山市,中央３丁目９８番地の６,,13,223,2080003,,,,,,,2025-08-08,1,,,,,バラス,0
651,3013301054727,新規,0,2025-08-08,2025-08-08,株式会社Ｖｉｌｌａ,,株式会社,東京都,豊島区,南池袋２丁目２６番５号アイアンドイー池袋ビルＭ２階,,13,116,1710022,,,,,,,2025-08-08,1,,,,,ヴィラ,0
658,3020001164211,新規,0,2025-08-08,2025-08-08,株式会社ＦＵＳＥ,,株式会社,神奈川県,横浜市鶴見区,北寺尾６丁目１８－１９,,14,101,2300074,,,,,,,2025-08-08,1,,,,,フューズ,0
659,3020001164228,新規,0,2025-08-08,2025-08-08,株式会社友喜,,株式会社,神奈川県,川崎市川崎区,駅前本町１１番地２川崎フロンティアビル４階,,14,131,2100007,,,,,,,2025-08-08,1,,,,,ユウキ,0
660,3020001164236,新規,0,2025-08-08,2025-08-08,株式会社プテリクス,,株式会社,神奈川県,横浜市西区,浅間町１丁目４番３号ウィザードビル４０２,,14,103,2200072,,,,,,,2025-08-08,1,,,,,プテリクス,0
661,3020001164269,新規,0,2025-08-08,2025-08-08,株式会社琉通,,株式会社,神奈川県,横浜市都筑区,佐江戸町２１３４番地１アクアガーデン３０２,,14,118,2240054,,,,,,,2025-08-08,1,,,,,リュウツウ,0
662,3020001164285,新規,0,2025-08-08,2025-08-08,ビズリル株式会社,,株式会社,神奈川県,横浜市金沢区,並木３丁目７－４－１３０２,,14,108,2360005,,,,,,,2025-08-08,1,,,,,ビズリル,0
663,3020001164319,新規,0,2025-08-08,2025-08-08,株式会社福井工務店,,株式会社,神奈川県,横浜市瀬谷区,相沢２丁目１６番地１７,,14,114,2460013,,,,,,,2025-08-08,1,,,,,フクイコウムテン,0
666,3020003029115,新規,0,2025-08-08,2025-08-08,合同会社尾崎データ分析,00140222,合同会社,神奈川県,横浜市西区,北幸２丁目１０番４８号むつみビル３階,,14,103,2200004,,,,,,,2025-08-08,1,,,,,オザキデータブンセキ,0
668,3021001085942,新規,0,2025-08-08,2025-08-08,ＧＯＡＬＤ株式会社,,株式会社,神奈川県,相模原市中央区,淵野辺１丁目１９番２８－２号,,14,152,2520206,,,,,,,2025-08-08,1,,,,,ゴールド,0
673,3030001167989,新規,0,2025-08-08,2025-08-08,株式会社永華,,株式会社,埼玉県,さいたま市浦和区,元町２丁目３１番８号シャトレ元町４０３,,11,107,3300073,,,,,,,2025-08-08,1,,,,,エイカ,0
674,3030001168021,新規,0,2025-08-08,2025-08-08,株式会社タカコーポレーション,,株式会社,埼玉県,さいたま市大宮区,桜木町２丁目３４０番地１,,11,103,3300854,,,,,,,2025-08-08,1,,,,,タカコーポレーション,0
675,3030001168046,新規,0,2025-08-08,2025-08-08,株式会社Ｐｉｖｏｔ,,株式会社,埼玉県,春日部市,武里中野２３１番地５,,11,214,3440026,,,,,,,2025-08-08,1,,,,,ピボット,0
676,3030001168054,新規,0,2025-08-08,2025-08-08,株式会社セチメ,,株式会社,埼玉県,川口市,上青木２丁目４４番１５号サトウハイツ２０２号,,11,203,3330844,,,,,,,2025-08-08,1,,,,,セチメ,0
677,3030001168079,新規,0,2025-08-08,2025-08-08,ＥＮＯＳＨＩＮ株式会社,,株式会社,埼玉県,加須市,東栄２丁目１２番１６号,,11,210,3470064,,,,,,,2025-08-08,1,,,,,エノシン,0
678,3030001168104,新規,0,2025-08-08,2025-08-08,株式会社Ｓｍａｒｔｉｓｔ,,株式会社,埼玉県,大里郡寄居町,大字桜沢１９１８番地１,,11,408,3691202,,,,,,,2025-08-08,1,,,,,スマーティスト,0
680,3030003027357,新規,0,2025-08-08,2025-08-08,合同会社シバタ企画,,合同会社,埼玉県,日高市,大字女影４５１番地１７,,11,242,3501227,,,,,,,2025-08-08,1,,,,,シバタキカク,0
681,3030003027381,新規,0,2025-08-08,2025-08-08,合同会社Ａｎ’ｚ,,合同会社,埼玉県,草加市,八幡町１０２２番地１２,,11,221,3400006,,,,,,,2025-08-08,1,,,,,アンズ,0
688,3040003028239,新規,0,2025-08-08,2025-08-08,合同会社ｇｒａｎｄ,,合同会社,千葉県,市原市,五井中央西２丁目７番地１５ウルマ駅前ビル地下１階,,12,219,2900081,,,,,,,2025-08-08,1,,,,,グラン,0
692,3050005013675,新規,0,2025-08-08,2025-08-08,特定非営利活動法人土浦わかもののまちプロジェクト,,その他の設立登記法人,茨城県,土浦市,川口１丁目１番地２８号,,08,203,3000033,,,,,,,2025-08-08,1,,,,,ツチウラワカモノノマチプロジェクト,0
694,3060001038477,新規,0,2025-08-08,2025-08-08,株式会社ＡＣＳ,,株式会社,栃木県,那須塩原市,春日町１２１番地１６１,,09,213,3250075,,,,,,,2025-08-08,1,,,,,エーシーエス,0
698,3070001043237,新規,0,2025-08-08,2025-08-08,株式会社継手,,株式会社,群馬県,桐生市,本町６丁目３８０番地,,10,203,3760031,,,,,,,2025-08-08,1,,,,,ツナギテ,0
706,3080101025704,新規,0,2025-08-08,2025-08-08,株式会社マックス,,株式会社,静岡県,富士宮市,淀平町２７５番地の７,,22,207,4180052,,,,,,,2025-08-08,1,,,,,マックス,0
707,3090001019441,新規,0,2025-08-08,2025-08-08,株式会社ＴＪプラミング,,株式会社,山梨県,上野原市,大曽根３７５番地,,19,212,4090131,,,,,,,2025-08-08,1,,,,,ティージェイプラミング,0
726,3120001278595,新規,0,2025-08-08,2025-08-08,株式会社ダブルリックス,,株式会社,大阪府,大阪市中央区,南船場１丁目９番２６号７０２室,,27,128,5420081,,,,,,,2025-08-08,1,,,,,ダブルリックス,0
727,3120001278604,新規,0,2025-08-08,2025-08-08,株式会社ＩＲＵＳＥ,,株式会社,大阪府,大阪市中央区,東心斎橋１丁目１２番３号４Ｆ,,27,128,5420083,,,,,,,2025-08-08,1,,,,,イルセ,0
728,3120001278612,新規,0,2025-08-08,2025-08-08,Ｍａｉｓｏｎ　Ｔａｉｓｈｏ株式会社,,株式会社,大阪府,大阪市北区,梅田１丁目２番２号大阪駅前第２ビル１２－１２,,27,127,5300001,,,,,,,2025-08-08,1,,,,,メゾンタイショウ,0
729,3120001278620,新規,0,2025-08-08,2025-08-08,秋田小成株式会社,,株式会社,大阪府,大阪市東成区,深江北１丁目９番２４号１階,,27,115,5370001,,,,,,,2025-08-08,1,,,,,アキタコナリ,0
730,3120001278629,新規,0,2025-08-08,2025-08-08,株式会社ドリームプレイ,,株式会社,大阪府,大阪市都島区,東野田町４丁目１－５吉升ビル３１０号,,27,102,5340024,,,,,,,2025-08-08,1,,,,,ドリームプレイ,0
732,3120003030228,新規,0,2025-08-08,2025-08-08,合同会社ＰＬＪＥＮＩ,,合同会社,大阪府,大阪市淀川区,東三国１丁目２５番１６号,,27,123,5320002,,,,,,,2025-08-08,1,,,,,プルジェニ,0
739,3120101072213,新規,0,2025-08-08,2025-08-08,株式会社ＲＯ．１ｓｔ,,株式会社,大阪府,和泉市,納花町１４７番地,,27,219,5941116,,,,,,,2025-08-08,1,,,,,アールオードットファースト,0
740,3120101072221,新規,0,2025-08-08,2025-08-08,株式会社想成,,株式会社,大阪府,大阪狭山市,東野中３丁目１１０８番地,,27,231,5890002,,,,,,,2025-08-08,1,,,,,ソウセイ,0
741,3120103006615,新規,0,2025-08-08,2025-08-08,合同会社フェニックス,,合同会社,大阪府,羽曳野市,伊賀６丁目２番１６－Ａ－１０１号,,27,222,5830876,,,,,,,2025-08-08,1,,,,,フェニックス,0
742,3120105010053,新規,0,2025-08-08,2025-08-08,一般社団法人日本ペプチド協会,,その他の設立登記法人,大阪府,大阪狭山市,今熊２丁目１８２３番地,,27,231,5890021,,,,,,,2025-08-08,1,,,,,ニホンペプチドキョウカイ,0
744,3120901051283,新規,0,2025-08-08,2025-08-08,Ｇ‐ＥＳＴＡＴＥ株式会社,,株式会社,大阪府,箕面市,船場東２丁目３番７－３０８号,,27,220,5620035,,,,,,,2025-08-08,1,,,,,ジーエステート,0
745,3120901051291,新規,0,2025-08-08,2025-08-08,株式会社ＡＲＴ　ＢＡＳＥ,,株式会社,大阪府,高槻市,梶原２丁目９番１２号,,27,207,5690091,,,,,,,2025-08-08,1,,,,,アートベース,0
748,3130001080216,新規,0,2025-08-08,2025-08-08,グリーンやすらぎ株式会社,,株式会社,京都府,京都市右京区,京北辻町左近縄手２番地１,00140214,26,108,6010322,,,,,,,2025-08-08,1,,,,,グリーンヤスラギ,0
762,3140005027591,新規,0,2025-08-08,2025-08-08,一般社団法人アジア小児リハビリテーション研究会,,その他の設立登記法人,兵庫県,神戸市東灘区,住吉台２１番１７－２号,,28,101,6580062,,,,,,,2025-08-08,1,,,,,アジアショウニリハビリテーションケンキュウカイ,0
763,3150001028312,新規,0,2025-08-08,2025-08-08,株式会社ｓｅｌｆｍａｄｅ,,株式会社,奈良県,北葛城郡河合町,高塚台３丁目７－８,,29,427,6360071,,,,,,,2025-08-08,1,,,,,セルフメイド,0
779,3180301040096,新規,0,2025-08-08,2025-08-08,株式会社ＰＲＩＤＥ,,株式会社,愛知県,新城市,川田字新平２４番地４,,23,221,4411346,,,,,,,2025-08-08,1,,,,,プライド,0
785,3200001044130,新規,0,2025-08-08,2025-08-08,株式会社有賀建築板金,,株式会社,岐阜県,加茂郡八百津町,和知３３４７番地１１,,21,505,5050305,,,,,,,2025-08-08,1,,,,,アリガケンチクバンキン,0
786,3200003006962,新規,0,2025-08-08,2025-08-08,合同会社エヌ工業,,合同会社,岐阜県,飛騨市,古川町袈裟丸１０６２番地,,21,217,5094203,,,,,,,2025-08-08,1,,,,,エヌコウギョウ,0
789,3210001020270,新規,0,2025-08-08,2025-08-08,株式会社ノア,,株式会社,福井県,敦賀市,色浜２２号３番地シーグレイス敦賀Ｂ１－２,,18,202,9140844,,,,,,,2025-08-08,1,,,,,ノア,0
791,3220001026861,新規,0,2025-08-08,2025-08-08,株式会社ホームタクト,,株式会社,石川県,金沢市,木越１丁目３０１番地,,17,201,9200202,,,,,,,2025-08-08,1,,,,,ホームタクト,0
811,3290001110948,新規,0,2025-08-08,2025-08-08,株式会社Ｌｕｍｉｎｏｕｓ　Ｐｈｏｓ,,株式会社,福岡県,福岡市中央区,天神２丁目２番１２号Ｔ＆Ｊビルディング７Ｆ,,40,133,8100001,,,,,,,2025-08-08,1,,,,,,0
812,3290001111079,新規,0,2025-08-08,2025-08-08,株式会社ナーテックス,,株式会社,福岡県,小郡市,二森１２４４番地３０,,40,216,8380126,,,,,,,2025-08-08,1,,,,,ナーテックス,0
813,3290003017183,新規,0,2025-08-08,2025-08-08,むつみ合同会社,,合同会社,福岡県,宗像市,赤間駅前２丁目２番２－１２０３号,,40,220,8114185,,,,,,,2025-08-08,1,,,,,ムツミ,0
815,3300001014321,新規,0,2025-08-08,2025-08-08,株式会社ＢｒｉｇｈｔＷｏｒｋｓ,,株式会社,佐賀県,佐賀市,与賀町１８番５号,,41,201,8400047,,,,,,,2025-08-08,1,,,,,ブライトワークス,0
819,3320001021258,新規,0,2025-08-08,2025-08-08,株式会社ＨＩＴ,,株式会社,大分県,中津市,大字中殿４８５番地１,,44,203,8710031,,,,,,,2025-08-08,1,,,,,ヒット,0
821,3330001033467,新規,0,2025-08-08,2025-08-08,株式会社ｎａｅファーム,,株式会社,熊本県,八代市,北平和町１５７番地,,43,202,8695166,,,,,,,2025-08-08,1,,,,,ナエファーム,0
824,3340001027550,新規,0,2025-08-08,2025-08-08,ＭＩＵＯＥＡＵ株式会社,,株式会社,鹿児島県,鹿児島市,城山町３番３５－７１４号,,46,201,8920853,,,,,,,2025-08-08,1,,,,,ミュウオウ,0
825,3340001027567,新規,0,2025-08-08,2025-08-08,株式会社エム・クラフト,,株式会社,鹿児島県,鹿児島市,中山町５２７６番地７,,46,201,8910105,,,,,,,2025-08-08,1,,,,,エムクラフト,0
826,3350001019687,新規,0,2025-08-08,2025-08-08,株式会社ＳＳＲ工業,,株式会社,宮崎県,延岡市,上伊形町１０２９番地,,45,203,8890502,,,,,,,2025-08-08,1,,,,,エスエスアールコウギョウ,0
837,3370001052918,新規,0,2025-08-08,2025-08-08,株式会社ワタナベ建工,,株式会社,宮城県,仙台市青葉区,高松３丁目１番２８号,,04,101,9810907,,,,,,,2025-08-08,1,,,,,ワタナベケンコウ,0
839,3380001035517,新規,0,2025-08-08,2025-08-08,株式会社フラット,,株式会社,福島県,いわき市,桜ケ丘２丁目６番地,,07,204,9728324,,,,,,,2025-08-08,1,,,,,フラット,0
841,3380003006111,新規,0,2025-08-08,2025-08-08,合同会社結,,合同会社,福島県,会津若松市,西七日町４番１６号,,07,202,9650045,,,,,,,2025-08-08,1,,,,,ムスビ,0
842,3400001017132,新規,0,2025-08-08,2025-08-08,株式会社いちばん星,,株式会社,岩手県,盛岡市,津志田西２丁目３番２５号,,03,201,0200836,,,,,,,2025-08-08,1,,,,,イチバンボシ,0
852,3430001094994,新規,0,2025-08-08,2025-08-08,コンガリーナ株式会社,,株式会社,北海道,札幌市東区,北二十二条東８丁目３番７号,,01,103,0650022,,,,,,,2025-08-08,1,,,,,コンガリーナ,0
856,3430003017929,新規,0,2025-08-08,2025-08-08,合同会社ＲＲＢ,,合同会社,北海道,札幌市中央区,南二条西５丁目３１－１ＲＭＢｌｄ．７０１,,01,101,0600062,,,,,,,2025-08-08,1,,,,,アールアールビー,0
857,3430003017945,新規,0,2025-08-08,2025-08-08,合同会社ミヤ設備,,合同会社,北海道,札幌市北区,篠路六条４丁目２番５９号,,01,102,0028026,,,,,,,2025-08-08,1,,,,,ミヤセツビ,0
858,3430003017953,新規,0,2025-08-08,2025-08-08,合同会社プライブ,,合同会社,北海道,恵庭市,有明町３丁目３番９号,,01,231,0611431,,,,,,,2025-08-08,1,,,,,プライブ,0
871,3700150131711,新規,0,2025-08-08,2025-08-08,ＣＡＲＺＴＡ　ＨＵＢ　ＴＲＡＤＩＮＧ　ＰＶＴ　ＬＴＤ,,外国会社等,千葉県,香取郡多古町,出沼１５６－４８,,12,347,2892301,スリランカ民主社会主義共和国、Ｎｏ．３４０／６６、バスティアンマーワタ、コロンボ１１,,,,,,2025-08-08,1,,,,,カーズターハブトレーデイングプライベートリミテツド,0
872,3700150131744,新規,0,2025-08-08,2025-08-08,ＢＡＲＡ　ＴＲＡＤＩＮＧ　ＰＲＩＶＡＴＥ　ＬＩＭＩＴＥＤ,,外国会社等,埼玉県,久喜市,太田袋１２５番地,,11,232,3460023,スリランカ民主社会主義共和国、キャンディ、アクラナ、ドダンゴッラ、Ｎｏ．１６５／３,,,,,,2025-08-08,1,,,,,バラトレーデイングプライベートリミテツド,0
878,4010001257452,新規,0,2025-08-08,2025-08-08,株式会社ＡＳマネジメント,,株式会社,東京都,中央区,銀座６丁目７番１５号第二岩月ビル３階,,13,102,1040061,,,,,,,2025-08-08,1,,,,,エーエスマネジメント,0
879,4010001257485,新規,0,2025-08-08,2025-08-08,株式会社ヒナタ,,株式会社,東京都,千代田区,内神田２丁目１１番８号神田西口ビル別館３Ｆ,,13,101,1010047,,,,,,,2025-08-08,1,,,,,ヒナタ,0
880,4010001257527,新規,0,2025-08-08,2025-08-08,株式会社アーニア,,株式会社,東京都,千代田区,神田須田町１丁目７番８号ＶＯＲＴ秋葉原ＩＶ２Ｆ,00140227,13,101,1010041,,,,,,,2025-08-08,1,,,,,アーニア,0
881,4010001257543,新規,0,2025-08-08,2025-08-08,ジェフリーズ証券準備株式会社,,株式会社,東京都,千代田区,有楽町１丁目１番２号東京ミッドタウン日比谷日比谷三井タワー３０階,,13,101,1000006,,,,,,,2025-08-08,1,,,,,ジェフリーズショウケンジュンビ,0
882,4010001257551,新規,0,2025-08-08,2025-08-08,ＣＯＭＩＸ株式会社,,株式会社,東京都,千代田区,神田須田町１丁目７番地８ＶＯＲＴ秋葉原ＩＶ２階,00140228,13,101,1010041,,,,,,,2025-08-08,1,,,,,コミックス,0
886,4010003048239,新規,0,2025-08-08,2025-08-08,合同会社ＵＡ東京０７,,合同会社,東京都,中央区,日本橋２丁目１番１８号,,13,102,1030027,,,,,,,2025-08-08,1,,,,,ユーエートウキョウゼロナナ,0
887,4010005040499,新規,0,2025-08-08,2025-08-08,一般社団法人Ｗｅｓｔ　Ｓｔｒｅｅｔ　Ｊａｐａｎ　Ｒｅａｌ　Ｅｓｔａｔｅ　Ｏｎｓｈｏｒｅ　Ｈｏｌｄｉｎｇｓ,,その他の設立登記法人,東京都,中央区,日本橋１丁目４番１号日本橋一丁目ビルディング,,13,102,1030027,,,,,,,2025-08-08,1,,,,,ウエストストリートジャパンリアルエステートオンショアホールディングス,0
895,4010401192183,新規,0,2025-08-08,2025-08-08,株式会社シビタス,,株式会社,東京都,港区,赤坂７丁目１１番１２－２０８号,,13,103,1070052,,,,,,,2025-08-08,1,,,,,シビタス,0
896,4010401192290,新規,0,2025-08-08,2025-08-08,Ｂｅｌｌｅｗａｖｅ株式会社,,株式会社,東京都,港区,三田１丁目４番６０－１２０７号,,13,103,1080073,,,,,,,2025-08-08,1,,,,,ベルウェーブ,0
897,4010401192365,新規,0,2025-08-08,2025-08-08,株式会社ルカ,,株式会社,東京都,港区,西麻布１丁目４番３６号ロジマン西麻布５０４,,13,103,1060031,,,,,,,2025-08-08,1,,,,,ルカ,0
898,4010401192381,新規,0,2025-08-08,2025-08-08,株式会社豊饒堂,,株式会社,東京都,港区,麻布十番２丁目９番４号ローリエヤマモト５０２,,13,103,1060045,,,,,,,2025-08-08,1,,,,,ホウジョウドウ,0
899,4010403035613,新規,0,2025-08-08,2025-08-08,合同会社ＱＨ,,合同会社,東京都,港区,南麻布４丁目１３番１号,,13,103,1060047,,,,,,,2025-08-08,1,,,,,キューエイチ,0
900,4010403035778,新規,0,2025-08-08,2025-08-08,ウォルター・グリオン・サトウ合同会社,,合同会社,東京都,港区,南青山３丁目１０番１７号,,13,103,1070062,,,,,,,2025-08-08,1,,,,,ウォルターグリオンサトウ,0
901,4010405024655,新規,0,2025-08-08,2025-08-08,ブルーインフラホールディングス１７号一般社団法人,,その他の設立登記法人,東京都,港区,南青山２丁目１３番２号サンライズ青山２Ｆ青山国際税理士法人内,,13,103,1070062,,,,,,,2025-08-08,1,,,,,ブルーインフラホールディングスジュウナナゴウ,0
904,4010601067739,新規,0,2025-08-08,2025-08-08,株式会社ＥＣＣＳ,,株式会社,東京都,江東区,扇橋２丁目１１番１２号ハイツピアレス５０４,,13,108,1350011,,,,,,,2025-08-08,1,,,,,イーシーシーエス,0
907,4010701048085,新規,0,2025-08-08,2025-08-08,株式会社ブレスカンパニージャパン,,株式会社,東京都,品川区,東品川３丁目８番８－１８０２号,,13,109,1400002,,,,,,,2025-08-08,1,,,,,ブレスカンパニージャパン,0
908,4010701048135,新規,0,2025-08-08,2025-08-08,ＢＩＧ　ＢＲＩＤＧＥ　ＦＯＯＤ株式会社,,株式会社,東京都,品川区,西五反田４丁目３番１号かむろ坂サンハイツ５０３号室,,13,109,1410031,,,,,,,2025-08-08,1,,,,,ビッグブリッジフード,0
910,4010703007857,新規,0,2025-08-08,2025-08-08,合同会社北原会計事務所,,合同会社,東京都,品川区,荏原５丁目１１番３号ティモーネグランデ目黒サウス１０１,,13,109,1420063,,,,,,,2025-08-08,1,,,,,キタハラカイケイジムショ,0
919,4011003022290,新規,0,2025-08-08,2025-08-08,合同会社ＫＵＮＯＮＥ,,合同会社,東京都,渋谷区,広尾１丁目２番地１号ヒカリビル４階,,13,113,1500012,,,,,,,2025-08-08,1,,,,,クノネ,0
927,4011401027313,新規,0,2025-08-08,2025-08-08,株式会社ｉｅステート,,株式会社,東京都,板橋区,志村３丁目５番７号,,13,119,1740056,,,,,,,2025-08-08,1,,,,,イエステート,0
930,4011703004340,新規,0,2025-08-08,2025-08-08,合同会社Ｅｌｉｓｅ,,合同会社,東京都,江戸川区,西一之江３丁目１６番１４号,,13,123,1320023,,,,,,,2025-08-08,1,,,,,エライズ,0
934,4011801046532,新規,0,2025-08-08,2025-08-08,株式会社ＩＯＡ,,株式会社,東京都,足立区,梅島２丁目８番１０号,,13,121,1210816,,,,,,,2025-08-08,1,,,,,アイオーエー,0
939,4012401043457,新規,0,2025-08-08,2025-08-08,株式会社ＺＥＬＯＣＯＮＩＴＨ,,株式会社,東京都,武蔵野市,吉祥寺本町１丁目８番１４号マルコポーロビルＢ１Ｆ,,13,203,1800004,,,,,,,2025-08-08,1,,,,,ゼロコニス,0
941,4012403007278,新規,0,2025-08-08,2025-08-08,合同会社もりひろ,,合同会社,東京都,武蔵野市,境４丁目５番１５号,,13,203,1800022,,,,,,,2025-08-08,1,,,,,モリヒロ,0
944,4012703003332,新規,0,2025-08-08,2025-08-08,アイナ合同会社,,合同会社,東京都,清瀬市,中里３丁目１７２９番地６,,13,221,2040003,,,,,,,2025-08-08,1,,,,,アイナゴウドウガイシャ,0
946,4012801024156,新規,0,2025-08-08,2025-08-08,株式会社八重,,株式会社,東京都,武蔵村山市,榎３丁目１７番２号,,13,223,2080022,,,,,,,2025-08-08,1,,,,,ヤエ,0
947,4012805003354,新規,0,2025-08-08,2025-08-08,一般社団法人ＣＯＰＩＡたちかわ,,その他の設立登記法人,東京都,立川市,栄町１丁目１６番地の１プライムガーデン国立１０４号,,13,202,1900003,,,,,,,2025-08-08,1,,,,,コピアタチカワ,0
952,4013301054734,新規,0,2025-08-08,2025-08-08,株式会社ＦＯＣＵＳ,,株式会社,東京都,豊島区,池袋２丁目６４番１４号,,13,116,1710014,,,,,,,2025-08-08,1,,,,,フォーカス,0
959,4020003029089,新規,0,2025-08-08,2025-08-08,ＭＴＫＹ合同会社,,合同会社,神奈川県,横浜市金沢区,長浜１８番地１６７,,14,108,2360011,,,,,,,2025-08-08,1,,,,,エムティーケイワイ,0
960,4020003029097,新規,0,2025-08-08,2025-08-08,ｍ．ｕ．ｍ．ｎ．合同会社,,合同会社,神奈川県,川崎市中原区,上丸子天神町３７９番地２,,14,133,2110007,,,,,,,2025-08-08,1,,,,,エムユーエムエヌ,0
961,4020003029147,新規,0,2025-08-08,2025-08-08,合同会社ＨＵＩＴＳＥＰＴ,,合同会社,神奈川県,川崎市多摩区,南生田７丁目１９―３,,14,135,2140036,,,,,,,2025-08-08,1,,,,,ウィットセット,0
963,4021001085966,新規,0,2025-08-08,2025-08-08,株式会社高田工務,00140216,株式会社,神奈川県,相模原市中央区,清新５丁目２０－３京王清新マンションＣ号棟４０２,,14,152,2520216,,,,,,,2025-08-08,1,,,,,タカダコウム,0
970,4030001167963,新規,0,2025-08-08,2025-08-08,株式会社日本鳳凰製薬,,株式会社,埼玉県,大里郡寄居町,大字立原７０番地,,11,408,3691231,,,,,,,2025-08-08,1,,,,,ニホンホウオウセイヤク,0
971,4030001168004,新規,0,2025-08-08,2025-08-08,株式会社カワノ,,株式会社,埼玉県,久喜市,北青柳６５３番地１,,11,232,3460024,,,,,,,2025-08-08,1,,,,,カワノ,0
972,4030001168020,新規,0,2025-08-08,2025-08-08,株式会社シンライジャパン,,株式会社,埼玉県,蕨市,中央１丁目２８番４号ヴィンテージ蕨２０２号,,11,223,3350004,,,,,,,2025-08-08,1,,,,,シンライジャパン,0
973,4030001168061,新規,0,2025-08-08,2025-08-08,株式会社Ｒｅｍｕｎｅｒａｔｉｏｎ　Ｂｕｒｅａｕ,,株式会社,埼玉県,川越市,宮下町１丁目６番地２９,,11,201,3500052,,,,,,,2025-08-08,1,,,,,リミネレーションビューロー,0
974,4030001168078,新規,0,2025-08-08,2025-08-08,木津不動産管理株式会社,,株式会社,埼玉県,三郷市,戸ケ崎２丁目７０８番地１,,11,237,3410044,,,,,,,2025-08-08,1,,,,,キヅフドウサンカンリ,0
977,4030003027380,新規,0,2025-08-08,2025-08-08,ネクスチュア合同会社,,合同会社,埼玉県,さいたま市浦和区,常盤１０丁目１０番１３－２号,,11,107,3300061,,,,,,,2025-08-08,1,,,,,ネクスチュア,0
986,4040001139920,新規,0,2025-08-08,2025-08-08,株式会社ケーエスワイズ,,株式会社,千葉県,八千代市,八千代台東２丁目３番３号,,12,221,2760032,,,,,,,2025-08-08,1,,,,,ケーエスワイズ,0
988,4040003028205,新規,0,2025-08-08,2025-08-08,合同会社山下事務所,,合同会社,千葉県,八千代市,勝田台３丁目２９－１８,,12,221,2760023,,,,,,,2025-08-08,1,,,,,ヤマシタジムショ,0
989,4040003028287,新規,0,2025-08-08,2025-08-08,合同会社ＢＡＳＳＥＴ,,合同会社,千葉県,千葉市中央区,千葉寺町９７３番地８,,12,101,2600844,,,,,,,2025-08-08,1,,,,,バセット,0
992,4060001038492,新規,0,2025-08-08,2025-08-08,株式会社真美,,株式会社,栃木県,真岡市,田町１４９２番地１,,09,209,3214325,,,,,,,2025-08-08,1,,,,,マナビ,0
995,4070001043236,新規,0,2025-08-08,2025-08-08,株式会社ＷＥＥＫＥＮＤ,,株式会社,群馬県,館林市,近藤町２番地の２５４,,10,207,3740042,,,,,,,2025-08-08,1,,,,,ウィークエンド,0
999,4080001027072,新規,0,2025-08-08,2025-08-08,株式会社リンドバーグ,,株式会社,静岡県,静岡市駿河区,下川原６丁目２６番１７号,,22,102,4210113,,,,,,,2025-08-08,1,,,,,リンドバーグ,0
1003,4080401028091,新規,0,2025-08-08,2025-08-08,ＴＹ　ＲＯＢＯＴＩＣＳ株式会社,,株式会社,静岡県,浜松市浜名区,新都田１丁目９番３号,,22,139,4312103,,,,,,,2025-08-08,1,,,,,ティーワイロボティクス,0
1004,4080401028100,新規,0,2025-08-08,2025-08-08,株式会社Ｉｄｅｓｉｇｎ,,株式会社,静岡県,浜松市中央区,小豆餅２丁目３２番８号,,22,138,4338113,,,,,,,2025-08-08,1,,,,,アイデザイン,0
1005,4090001019449,新規,0,2025-08-08,2025-08-08,株式会社ステンドショップ,,株式会社,山梨県,北杜市,小淵沢町上笹尾３３３２番地４９６,,19,209,4080041,,,,,,,2025-08-08,1,,,,,ステンドショップ,0
1020,4120001278628,新規,0,2025-08-08,2025-08-08,元元株式会社,,株式会社,大阪府,大阪市西成区,天下茶屋２丁目２０番１６－１０４号室,,27,122,5570014,,,,,,,2025-08-08,1,,,,,ゲンゲン,0
1021,4120001278660,新規,0,2025-08-08,2025-08-08,鈴月株式会社,,株式会社,大阪府,大阪市中央区,船場中央２丁目２番５号船場センタービル５号館地下一階Ｂ１２９ＲＯＹＡＬＯＦＦＩＣＥ内,,27,128,5410055,,,,,,,2025-08-08,1,,,,,レイゲツ,0
1023,4120003030227,新規,0,2025-08-08,2025-08-08,合同会社Ｚｅｎｔａデザイン,,合同会社,大阪府,守口市,八雲西町１丁目４０番１－５０７号,,27,209,5700006,,,,,,,2025-08-08,1,,,,,ゼンタデザイン,0
1024,4120003030284,新規,0,2025-08-08,2025-08-08,みやび合同会社,,合同会社,大阪府,守口市,平代町５－２５,,27,209,5700078,,,,,,,2025-08-08,1,,,,,ミヤビ,0
1026,4120101072212,新規,0,2025-08-08,2025-08-08,株式会社アシストＯｎｅ,,株式会社,大阪府,泉大津市,二田町１丁目３番２１号ＵＪＩテラスハウス１０２,,27,206,5950015,,,,,,,2025-08-08,1,,,,,アシストワン,0
1031,4120103006622,新規,0,2025-08-08,2025-08-08,合同会社るっと,,合同会社,大阪府,和泉市,上町７１１－２ヨーク取石４０４号室,,27,219,5940002,,,,,,,2025-08-08,1,,,,,ルット,0
1032,4120901051282,新規,0,2025-08-08,2025-08-08,株式会社谷角建装,,株式会社,大阪府,箕面市,今宮４丁目１９番２６号,,27,220,5620033,,,,,,,2025-08-08,1,,,,,タニカドケンソウ,0
1035,4120903005807,新規,0,2025-08-08,2025-08-08,Ｎａｋｅｄ　Ｒｏａｒ合同会社,,合同会社,大阪府,吹田市,日の出町９番２９－５号,,27,205,5640023,,,,,,,2025-08-08,1,,,,,ネイキッドロア,0
1036,4122001039497,新規,0,2025-08-08,2025-08-08,Ｂｅｙｏｎｄ　Ｍｅｍｏｒｙ株式会社,,株式会社,大阪府,東大阪市,瓢箪山町１番２９号,,27,227,5798051,,,,,,,2025-08-08,1,,,,,ビヨンドメモリー,0
1037,4122001039506,新規,0,2025-08-08,2025-08-08,株式会社シンコネクト,,株式会社,大阪府,八尾市,新家町２丁目１００番地,,27,212,5810811,,,,,,,2025-08-08,1,,,,,シンコネクト,0
1038,4122001039514,新規,0,2025-08-08,2025-08-08,株式会社Ｗａｇｏ,,株式会社,大阪府,東大阪市,足代北２丁目２２番２２号,,27,227,5770058,,,,,,,2025-08-08,1,,,,,ワゴ,0
1042,4130001080231,新規,0,2025-08-08,2025-08-08,株式会社つむぐ,,株式会社,京都府,京都市左京区,田中大堰町１５２番地メゾンＫＯＹＯ２階,,26,103,6068202,,,,,,,2025-08-08,1,,,,,ツムグ,0
1049,4140003022404,新規,0,2025-08-08,2025-08-08,合同会社伊吹電気工事,,合同会社,兵庫県,伊丹市,千僧４丁目１７３番地,,28,207,6640898,,,,,,,2025-08-08,1,,,,,イブキデンキコウジ,0
1050,4140003022412,新規,0,2025-08-08,2025-08-08,合同会社ＧＲＡＣＥ,,合同会社,兵庫県,宝塚市,山本丸橋４丁目７番３号Ａ－２号,,28,214,6650815,,,,,,,2025-08-08,1,,,,,グレイス,0
1051,4140005027590,新規,0,2025-08-08,2025-08-08,一般社団法人日本アウェイクニング協会,,その他の設立登記法人,兵庫県,明石市,中崎２丁目４番１－１１１４号,,28,203,6730883,,,,,,,2025-08-08,1,,,,,ニホンアウェイクニングキョウカイ,0
1065,4180301040095,新規,0,2025-08-08,2025-08-08,志株式会社,,株式会社,愛知県,安城市,赤松町新屋敷１１２番地１,,23,212,4460046,,,,,,,2025-08-08,1,,,,,ココロザシ,0
1070,4200001044096,新規,0,2025-08-08,2025-08-08,和光株式会社,,株式会社,岐阜県,高山市,神田町１丁目４７番地１階東側事務所,,21,203,5060006,,,,,,,2025-08-08,1,,,,,ワコウ,0
1071,4200001044113,新規,0,2025-08-08,2025-08-08,株式会社Ｐｕｌａｍａ,,株式会社,岐阜県,加茂郡川辺町,中川辺８９３番地６,,21,503,5090304,,,,,,,2025-08-08,1,,,,,プラマ,0
1072,4200003006953,新規,0,2025-08-08,2025-08-08,合同会社ＬＵＣＫ,,合同会社,岐阜県,岐阜市,細畑６丁目３番１３号,,21,201,5008238,,,,,,,2025-08-08,1,,,,,ラック,0
1073,4200003006961,新規,0,2025-08-08,2025-08-08,合同会社エヌウィン,,合同会社,岐阜県,多治見市,昭栄町３０番地の５１,,21,204,5070076,,,,,,,2025-08-08,1,,,,,エヌウィン,0
1075,4210005010218,新規,0,2025-08-08,2025-08-08,一般社団法人たけふ地区建設協会,,その他の設立登記法人,福井県,越前市,日野美１丁目２番１３号,,18,209,9150831,,,,,,,2025-08-08,1,,,,,タケフチクケンセツキョウカイ,0
1077,4240001065353,新規,0,2025-08-08,2025-08-08,株式会社Ｍａｒｐｙ　Ｃｏｎｓｕｌｔｉｎｇ,,株式会社,広島県,広島市東区,二葉の里３丁目５番７号ＧＲＡＮＯＤＥ広島３階,,34,102,7320057,,,,,,,2025-08-08,1,,,,,マーピィコンサルティング,0
1096,4300001014320,新規,0,2025-08-08,2025-08-08,株式会社ＴＭＣホールディングス,,株式会社,佐賀県,佐賀市,鍋島町大字森田７７９番地１１,,41,201,8490936,,,,,,,2025-08-08,1,,,,,ティーエムシーホールディングス,0
1101,4330001033482,新規,0,2025-08-08,2025-08-08,うえだ畜産株式会社,,株式会社,熊本県,熊本市北区,植木町古閑１０５２番地,,43,105,8610122,,,,,,,2025-08-08,1,,,,,ウエダチクサン,0
1122,4370001052917,新規,0,2025-08-08,2025-08-08,株式会社Ｔ　ｐｌｕｓ,,株式会社,宮城県,黒川郡大和町,吉岡字東柴崎４３番地,,04,421,9813621,,,,,,,2025-08-08,1,,,,,ティープラス,0
1126,4370003007200,新規,0,2025-08-08,2025-08-08,合同会社ＩＺＵＭＩ　ＳＰＡＣＥ,,合同会社,宮城県,仙台市青葉区,中央２丁目１１―１９仙南ビル４階―Ａ,,04,101,9800021,,,,,,,2025-08-08,1,,,,,イズミスペース,0
1138,4380001035508,新規,0,2025-08-08,2025-08-08,株式会社トライオン,,株式会社,福島県,岩瀬郡鏡石町,五斗蒔町４３番地,,07,342,9690401,,,,,,,2025-08-08,1,,,,,トライオン,0
1140,4400001017131,新規,0,2025-08-08,2025-08-08,株式会社リムーブ,,株式会社,岩手県,九戸郡九戸村,大字山根第９地割１８４番地,,03,506,0286611,,,,,,,2025-08-08,1,,,,,リムーブ,0
1141,4400003003518,新規,0,2025-08-08,2025-08-08,合同会社Ｋ＆Ｍ,,合同会社,岩手県,花巻市,二枚橋町北１丁目１３番地,,03,205,0250313,,,,,,,2025-08-08,1,,,,,ケーアンドエム,0
1145,4430001094952,新規,0,2025-08-08,2025-08-08,株式会社円陽,,株式会社,北海道,札幌市北区,北七条西４丁目１番地１トーカン札幌第一キャステール６０７,,01,102,0600807,,,,,,,2025-08-08,1,,,,,マルヨウ,0
1146,4430001095050,新規,0,2025-08-08,2025-08-08,株式会社菅工業,,株式会社,北海道,札幌市手稲区,新発寒四条４丁目２番３号,,01,109,0060804,,,,,,,2025-08-08,1,,,,,スガコウギョウ,0
1147,4430003017894,新規,0,2025-08-08,2025-08-08,合同会社ＭｅｄＡｌｃ,,合同会社,北海道,札幌市中央区,南八条西１３丁目２番２５号,,01,101,0640808,,,,,,,2025-08-08,1,,,,,メドエーワンシー,0
1148,4430003017944,新規,0,2025-08-08,2025-08-08,合同会社トリニティパス,,合同会社,北海道,札幌市北区,西茨戸四条１丁目２－１７,,01,102,0028034,,,,,,,2025-08-08,1,,,,,トリニティパス,0
1149,4430003017969,新規,0,2025-08-08,2025-08-08,合同会社ｐａｌｅｔｔｅ,,合同会社,北海道,札幌市北区,北七条西５丁目５番地,,01,102,0600807,,,,,,,2025-08-08,1,,,,,パレット,0
1150,4450003002705,新規,0,2025-08-08,2025-08-08,山一管財合同会社,,合同会社,北海道,旭川市,神楽二条１２丁目３番４号,,01,204,0708002,,,,,,,2025-08-08,1,,,,,ヤマイチカンザイ,0
1152,4470001020847,新規,0,2025-08-08,2025-08-08,株式会社ｍａｐｌｅｃｏｌｏｒ,,株式会社,香川県,高松市,木太町１６２９番地１フィエルテ木太３０３,,37,201,7600080,,,,,,,2025-08-08,1,,,,,メイプルカラー,0
1156,4480001012918,新規,0,2025-08-08,2025-08-08,株式会社ＡＳＡＮ,,株式会社,徳島県,徳島市,徳島町城内６‐３８里理ビル２Ｆ,,36,201,7700851,,,,,,,2025-08-08,1,,,,,アサン,0
1158,4480003002306,新規,0,2025-08-08,2025-08-08,合同会社金森,,合同会社,徳島県,阿南市,羽ノ浦町古庄大坪原６１番地４,,36,204,7791105,,,,,,,2025-08-08,1,,,,,カネモリ,0
1160,4490001011134,新規,0,2025-08-08,2025-08-08,株式会社ＴＩＣＴ,,株式会社,高知県,高知市,梅ノ辻５番１号,,39,201,7808011,,,,,,,2025-08-08,1,,,,,ティクト,0
1164,4700150131743,新規,0,2025-08-08,2025-08-08,ＲＡＭＥＥＳ　ＭＯＴＯＲＳ,,外国会社等,神奈川県,厚木市,山際１－６オリエントハイツ５－１０６,,14,212,2430803,スリランカ民主社会主義共和国，ヴィジテプラ、ムスリムコラニ、パルガスウェワ、２９／Ｂ,,,,,,2025-08-08,1,,,,,ラミーズモーターズ,0
1171,5010001257600,新規,0,2025-08-08,2025-08-08,株式会社オーロ,,株式会社,東京都,中央区,銀座８丁目５番６号中島商事ビル８階,,13,102,1040061,,,,,,,2025-08-08,1,,,,,オーロ,0
1172,5010003048238,新規,0,2025-08-08,2025-08-08,合同会社ＵＡ東京０８,,合同会社,東京都,中央区,日本橋２丁目１番１８号,,13,102,1030027,,,,,,,2025-08-08,1,,,,,ユーエートウキョウゼロハチ,0
1173,5010003048345,新規,0,2025-08-08,2025-08-08,ＲＡＩＯＮ　ＣＡＰＩＴＡＬ　ＪＡＰＡＮ６合同会社,,合同会社,東京都,千代田区,神田錦町１丁目２１番地,,13,101,1010054,,,,,,,2025-08-08,1,,,,,ライオンキャピタルジャパンシックス,0
1176,5010005040457,新規,0,2025-08-08,2025-08-08,一般社団法人エービッド技術協会,,その他の設立登記法人,東京都,中央区,銀座２丁目１４番９号ＧＦビル４階,,13,102,1040061,,,,,,,2025-08-08,1,,,,,,0
1177,5010005040507,新規,0,2025-08-08,2025-08-08,小千谷ＢＥＳＳ一般社団法人,,その他の設立登記法人,東京都,千代田区,丸の内１丁目４番１号東京共同会計事務所内,,13,101,1000005,,,,,,,2025-08-08,1,,,,,オヂヤベス,0
1182,5010401192166,新規,0,2025-08-08,2025-08-08,株式会社ＧＯＡＴＹ,,株式会社,東京都,港区,西麻布３丁目２１番２２－９０２号,,13,103,1060031,,,,,,,2025-08-08,1,,,,,ゴーティー,0
1183,5010401192331,新規,0,2025-08-08,2025-08-08,株式会社エリエス・アセットマネジメント,,株式会社,東京都,港区,芝浦２丁目１７－１３保坂興産ビル３階,,13,103,1080023,,,,,,,2025-08-08,1,,,,,エリエスアセットマネジメント,0
1184,5010401192364,新規,0,2025-08-08,2025-08-08,チカラモチ株式会社,,株式会社,東京都,港区,北青山２丁目７番１３号プラセオ青山ビル３Ｆ,,13,103,1070061,,,,,,,2025-08-08,1,,,,,チカラモチ,0
1185,5010401192380,新規,0,2025-08-08,2025-08-08,ＡＨＡＵＲＡ株式会社,,株式会社,東京都,港区,麻布十番１丁目５番１０号,,13,103,1060045,,,,,,,2025-08-08,1,,,,,アハウラ,0
1187,5010403035637,新規,0,2025-08-08,2025-08-08,ヴェルティストスインフォマティクス合同会社,,合同会社,東京都,港区,北青山１丁目３番１号アールキューブ青山３階,,13,103,1070061,,,,,,,2025-08-08,1,,,,,ヴェルティストスインフォマティクス,0
1188,5010403035653,新規,0,2025-08-08,2025-08-08,合同会社ＲＥＮＥＷＡＢＬＥ　ＥＮＥＲＧＹ７号,,合同会社,東京都,港区,新橋５丁目１３番５号,,13,103,1050004,,,,,,,2025-08-08,1,,,,,リニューアブルエナジーナナゴウ,0
1189,5010403035793,新規,0,2025-08-08,2025-08-08,合同会社Ｎ７３,,合同会社,東京都,港区,南麻布５丁目４番１号オパス有栖川テラス６０５,,13,103,1060047,,,,,,,2025-08-08,1,,,,,エヌナナサン,0
1190,5010403035802,新規,0,2025-08-08,2025-08-08,Ｒ１５０ｗｏｒｋｓ合同会社,,合同会社,東京都,港区,浜松町２丁目２番１５号浜松町ダイヤビル２Ｆ,,13,103,1050013,,,,,,,2025-08-08,1,,,,,ルートヒャクゴジュウワークス,0
1191,5010405024654,新規,0,2025-08-08,2025-08-08,一般社団法人ＧＲｅＣ２号,,その他の設立登記法人,東京都,港区,西新橋１丁目２番９号メンターキャピタル税理士法人内,,13,103,1050003,,,,,,,2025-08-08,1,,,,,ジーアールイーシーニゴウ,0
1193,5010503007932,新規,0,2025-08-08,2025-08-08,合同会社ＨＡＺＥＬ　ＬＵＸＵＲＹ,,合同会社,東京都,台東区,東上野１丁目１１－９ワンルーフレジデンス上野御徒町８０１,,13,106,1100015,,,,,,,2025-08-08,1,,,,,ヘーゼルラグジュアリー,0
1195,5010601067746,新規,0,2025-08-08,2025-08-08,株式会社シリウス,,株式会社,東京都,墨田区,錦糸３丁目８番１２号,,13,107,1300013,,,,,,,2025-08-08,1,,,,,シリウス,0
1196,5010601067754,新規,0,2025-08-08,2025-08-08,株式会社Ｊａｐａｎ　Ｌｉｎｋｓ,,株式会社,東京都,墨田区,京島１丁目８番８号,,13,107,1310046,,,,,,,2025-08-08,1,,,,,ジャパンリンクス,0
1198,5010701048134,新規,0,2025-08-08,2025-08-08,株式会社日本アセット戦略機構,,株式会社,東京都,品川区,西五反田７丁目２３番１１号ライオンズマンション西五反田１１０２,,13,109,1410031,,,,,,,2025-08-08,1,,,,,ニホンアセットセンリャクキコウ,0
1200,5010703007856,新規,0,2025-08-08,2025-08-08,合同会社Ｃｏｍｐａｔｈｙ,,合同会社,東京都,品川区,西五反田８丁目６番６号,,13,109,1410031,,,,,,,2025-08-08,1,,,,,コンパシー,0
1201,5010801036476,新規,0,2025-08-08,2025-08-08,株式会社カイロック,,株式会社,東京都,大田区,北千束１丁目６４番２号,,13,111,1450062,,,,,,,2025-08-08,1,,,,,カイロック,0
1206,5010903010172,新規,0,2025-08-08,2025-08-08,合同会社ＹｕＫｅｎ,,合同会社,東京都,世田谷区,宮坂１丁目４番２１号,,13,112,1560051,,,,,,,2025-08-08,1,,,,,ユウケン,0
1207,5010905004809,新規,0,2025-08-08,2025-08-08,一般社団法人デンタルリップアート協会,,その他の設立登記法人,東京都,世田谷区,若林１丁目２０番５号ワコー若林マンション１０３,,13,112,1540023,,,,,,,2025-08-08,1,,,,,デンタルリップアートキョウカイ,0
1210,5011003022166,新規,0,2025-08-08,2025-08-08,合同会社Ｔａｓｕｋｕｓｕ,,合同会社,東京都,渋谷区,道玄坂１丁目１０番８号渋谷道玄坂東急ビル２Ｆ－Ｃ,,13,113,1500043,,,,,,,2025-08-08,1,,,,,タスクス,0
1215,5011101112612,新規,0,2025-08-08,2025-08-08,株式会社ストラボ,,株式会社,東京都,新宿区,西新宿３丁目３番１３号西新宿水間ビル２Ｆ,,13,104,1600023,,,,,,,2025-08-08,1,,,,,ストラボ,0
1216,5011101112661,新規,0,2025-08-08,2025-08-08,ＰＵＲＥＫＩＮ株式会社,,株式会社,東京都,新宿区,歌舞伎町２丁目２５番８号,,13,104,1600021,,,,,,,2025-08-08,1,,,,,プーアキン,0
1217,5011101112835,新規,0,2025-08-08,2025-08-08,株式会社ＩＮＴＥＲＧＲＯＷ,,株式会社,東京都,新宿区,新宿３丁目５―６、６Ｆ,,13,104,1600022,,,,,,,2025-08-08,1,,,,,インターグロー,0
1221,5011501032419,新規,0,2025-08-08,2025-08-08,株式会社リタクト,,株式会社,東京都,北区,王子１丁目９番１号４Ｆ,,13,117,1140002,,,,,,,2025-08-08,1,,,,,リタクト,0
1222,5011503006643,新規,0,2025-08-08,2025-08-08,合同会社シチリア,,合同会社,東京都,北区,神谷２丁目１９－７北区神谷ビル１０１,,13,117,1150043,,,,,,,2025-08-08,1,,,,,シチリア,0
1225,5011601028861,新規,0,2025-08-08,2025-08-08,株式会社Ｌｕｐｉｎａ,,株式会社,東京都,練馬区,春日町４丁目３１番１６号,,13,120,1790074,,,,,,,2025-08-08,1,,,,,ルピナ,0
1229,5011803007003,新規,0,2025-08-08,2025-08-08,合同会社ＮＯＶＡ　ＦＩＧＨＴ　ＬＩＦＥ,,合同会社,東京都,葛飾区,鎌倉４丁目４１－１イノセンス１０３,,13,122,1250053,,,,,,,2025-08-08,1,,,,,ノヴァファイトライフ,0
1231,5013301054725,新規,0,2025-08-08,2025-08-08,高山電気株式会社,00140220,株式会社,東京都,豊島区,南大塚１丁目２３番１９号,,13,116,1700005,,,,,,,2025-08-08,1,,,,,タカヤマデンキ,0
1238,5020001164143,新規,0,2025-08-08,2025-08-08,株式会社ＨＤ２,,株式会社,神奈川県,川崎市宮前区,犬蔵２丁目３９番２－５１５号,,14,136,2160011,,,,,,,2025-08-08,1,,,,,エイチディーツー,0
1239,5020001164168,新規,0,2025-08-08,2025-08-08,株式会社ｗｓｉ,,株式会社,神奈川県,横浜市都筑区,高山１９番２－６０１号,,14,118,2240065,,,,,,,2025-08-08,1,,,,,ダブリューエスアイ,0
1240,5020001164201,新規,0,2025-08-08,2025-08-08,夢翔株式会社,,株式会社,神奈川県,横浜市瀬谷区,下瀬谷３丁目３番地４ラフィーネｙ・ｓ２０２,,14,114,2460035,,,,,,,2025-08-08,1,,,,,ユメト,0
1241,5020001164242,新規,0,2025-08-08,2025-08-08,クックアーチ株式会社,,株式会社,神奈川県,横浜市中区,石川町１丁目１３番地２,,14,104,2310868,,,,,,,2025-08-08,1,,,,,クックアーチ,0
1242,5020001164259,新規,0,2025-08-08,2025-08-08,株式会社平尾工業,,株式会社,神奈川県,横浜市南区,六ツ川３丁目４９番地５,,14,105,2320066,,,,,,,2025-08-08,1,,,,,ヒラオコウギョウ,0
1243,5020001164300,新規,0,2025-08-08,2025-08-08,株式会社猫龍,,株式会社,神奈川県,横浜市港南区,上永谷３丁目１番４９号,,14,111,2330012,,,,,,,2025-08-08,1,,,,,ニャーロン,0
1245,5021001086030,新規,0,2025-08-08,2025-08-08,ＳＡＴ　ｃｏｒｐ．株式会社,,株式会社,神奈川県,相模原市南区,当麻１１０８番地３３－１０３号,,14,153,2520336,,,,,,,2025-08-08,1,,,,,エスエーティーコーポレーション,0
1246,5021001086047,新規,0,2025-08-08,2025-08-08,株式会社ユニバーサル水産,,株式会社,神奈川県,中郡二宮町,緑が丘３丁目２０－１９,,14,342,2590132,,,,,,,2025-08-08,1,,,,,ユニバーサルスイサン,0
1253,5030001167987,新規,0,2025-08-08,2025-08-08,株式会社ｋｓコンサルティング,,株式会社,埼玉県,川越市,大字笠幡２６１４番地,,11,201,3501175,,,,,,,2025-08-08,1,,,,,ケーエスコンサルティング,0
1254,5030001168011,新規,0,2025-08-08,2025-08-08,株式会社ＲＯＩ,,株式会社,埼玉県,加須市,花崎３丁目８番地９まりもテラスＢ棟,,11,210,3470032,,,,,,,2025-08-08,1,,,,,ロイ,0
1255,5030001168044,新規,0,2025-08-08,2025-08-08,株式会社トゥクヌーＳＯＫＡ,,株式会社,埼玉県,草加市,西町６９４－１２,,11,221,3400035,,,,,,,2025-08-08,1,,,,,トゥクヌーソウカ,0
1256,5030001168085,新規,0,2025-08-08,2025-08-08,株式会社エスサポロジ,,株式会社,埼玉県,戸田市,氷川町１丁目１番８号,,11,224,3350027,,,,,,,2025-08-08,1,,,,,エスサポロジ,0
1257,5030001168119,新規,0,2025-08-08,2025-08-08,ファーストディメンション株式会社,,株式会社,埼玉県,富士見市,渡戸３丁目９－１７,,11,235,3540032,,,,,,,2025-08-08,1,,,,,ファーストディメンション,0
1265,5030003027363,新規,0,2025-08-08,2025-08-08,ＧｏＡｈｅａｄ合同会社,,合同会社,埼玉県,川越市,的場１丁目２９番地２４,,11,201,3501101,,,,,,,2025-08-08,1,,,,,ゴーアヘッド,0
1267,5040001139960,新規,0,2025-08-08,2025-08-08,株式会社アマテラス,,株式会社,千葉県,印旛郡酒々井町,中央台２丁目１３番７,,12,322,2850922,,,,,,,2025-08-08,1,,,,,アマテラス,0
1272,5040003028220,新規,0,2025-08-08,2025-08-08,合同会社グリーンオフィス,,合同会社,千葉県,千葉市緑区,おゆみ野南２丁目６番地５－１０１,,12,105,2660033,,,,,,,2025-08-08,1,,,,,グリーンオフィス,0
1274,5050001057088,新規,0,2025-08-08,2025-08-08,株式会社ミトイト,,株式会社,茨城県,ひたちなか市,大字武田４９３番地１,,08,221,3120025,,,,,,,2025-08-08,1,,,,,ミトイト,0
1275,5060001038491,新規,0,2025-08-08,2025-08-08,株式会社Ｙ＆Ｈ,,株式会社,栃木県,さくら市,氏家２１９７番地２,,09,214,3291311,,,,,,,2025-08-08,1,,,,,ワイアンドエイチ,0
1279,5080001027088,新規,0,2025-08-08,2025-08-08,株式会社朝日ビジネスサポート,,株式会社,静岡県,静岡市駿河区,大和２丁目１番９号,,22,102,4228077,,,,,,,2025-08-08,1,,,,,アサヒビジネスサポート,0
1282,5080401028090,新規,0,2025-08-08,2025-08-08,株式会社隼,,株式会社,静岡県,浜松市中央区,天龍川町１０９番地,,22,138,4350013,,,,,,,2025-08-08,1,,,,,ハヤブサ,0
1283,5080401028099,新規,0,2025-08-08,2025-08-08,岩田農園株式会社,,株式会社,静岡県,磐田市,匂坂上４６２番地３,,22,211,4380005,,,,,,,2025-08-08,1,,,,,イワタノウエン,0
1287,5090001019448,新規,0,2025-08-08,2025-08-08,株式会社三之将工業,,株式会社,山梨県,甲府市,羽黒町５番地１２,,19,201,4000071,,,,,,,2025-08-08,1,,,,,サンノスケコウギョウ,0
1290,5100003008323,新規,0,2025-08-08,2025-08-08,ＺＵＫＵ．ｔｅｃ合同会社,,合同会社,長野県,茅野市,豊平５０００番地１,,20,214,3910213,,,,,,,2025-08-08,1,,,,,ズクテック,0
1300,5120001278544,新規,0,2025-08-08,2025-08-08,株式会社中之島プロパティエンタープライズ,,株式会社,大阪府,大阪市福島区,福島１丁目１番４８－３４０７号,,27,103,5530003,,,,,,,2025-08-08,1,,,,,ナカノシマプロパティエンタープライズ,0
1301,5120001278593,新規,0,2025-08-08,2025-08-08,株式会社シャピスト,,株式会社,大阪府,大阪市中央区,南船場３丁目２－２２おおきに南船場ビル２０５,,27,128,5420081,,,,,,,2025-08-08,1,,,,,シャピスト,0
1302,5120001278651,新規,0,2025-08-08,2025-08-08,耀明株式会社,,株式会社,大阪府,大阪市北区,天満４丁目１７－１５－２０２Ｂ,,27,127,5300043,,,,,,,2025-08-08,1,,,,,ヨウメイ,0
1307,5120005025083,新規,0,2025-08-08,2025-08-08,一般社団法人Ｔａｍｐｏｐｏ,,その他の設立登記法人,大阪府,大阪市北区,末広町３番７号,,27,127,5300053,,,,,,,2025-08-08,1,,,,,タンポポ,0
1313,5120101072228,新規,0,2025-08-08,2025-08-08,株式会社Ｎｅｘｔａｋｅ,,株式会社,大阪府,藤井寺市,沢田２丁目５番３３－１０６号,,27,226,5830011,,,,,,,2025-08-08,1,,,,,ネクステイク,0
1314,5120101072236,新規,0,2025-08-08,2025-08-08,株式会社富雄,,株式会社,大阪府,羽曳野市,誉田６丁目９番２０号,,27,222,5830857,,,,,,,2025-08-08,1,,,,,トミオ,0
1315,5120101072244,新規,0,2025-08-08,2025-08-08,株式会社インプルーブエレベーター,,株式会社,大阪府,堺市北区,長曽根町５８６番地２－１０２号,,27,146,5918025,,,,,,,2025-08-08,1,,,,,インプルーブエレベーター,0
1316,5120101072252,新規,0,2025-08-08,2025-08-08,森川電工株式会社,,株式会社,大阪府,岸和田市,池尻町７２２番地１１５,,27,202,5960813,,,,,,,2025-08-08,1,,,,,モリカワデンコウ,0
1322,5120103006613,新規,0,2025-08-08,2025-08-08,合同会社シンセリティ,,合同会社,大阪府,岸和田市,八幡町５番１３号,,27,202,5960023,,,,,,,2025-08-08,1,,,,,シンセリティ,0
1332,5130001080321,新規,0,2025-08-08,2025-08-08,株式会社Ｗａｙ,,株式会社,京都府,京都市南区,八条町４６１番地１八条壬生ライゼホビー０１,,26,107,6018471,,,,,,,2025-08-08,1,,,,,ウェイ,0
1337,5140001139570,新規,0,2025-08-08,2025-08-08,株式会社Ｎ．Ｓ,,株式会社,兵庫県,姫路市,勝原区熊見３７２番地１９,,28,201,6711211,,,,,,,2025-08-08,1,,,,,エヌエス,0
1340,5140003022411,新規,0,2025-08-08,2025-08-08,合同会社Ｎｅｘｔａｌｋ,,合同会社,兵庫県,尼崎市,七松町１丁目３番２－２１０４号,,28,202,6600052,,,,,,,2025-08-08,1,,,,,ネクストーク,0
1347,5160001026981,新規,0,2025-08-08,2025-08-08,日本伴照株式会社,,株式会社,滋賀県,大津市,浜大津２丁目１－３５－５階ＯＳＤ浜大津ビル,,25,201,5200047,,,,,,,2025-08-08,1,,,,,ニホンバンショウ,0
1350,5170001018755,新規,0,2025-08-08,2025-08-08,株式会社ＦＥＲＮＡ,,株式会社,和歌山県,岩出市,岡田７８８－６,,30,209,6496222,,,,,,,2025-08-08,1,,,,,フェルナ,0
1356,5180301040111,新規,0,2025-08-08,2025-08-08,株式会社ＴＴＳ,,株式会社,愛知県,豊田市,御船町山ノ神５６番地２１６,,23,211,4700371,,,,,,,2025-08-08,1,,,,,ティーティーエス,0
1362,5200001044112,新規,0,2025-08-08,2025-08-08,ＹＡＯホールディングス株式会社,,株式会社,岐阜県,養老郡養老町,小倉３３６番地１,,21,341,5031262,,,,,,,2025-08-08,1,,,,,ヤオホールディングス,0
1363,5200001044120,新規,0,2025-08-08,2025-08-08,景行商事株式会社,,株式会社,岐阜県,岐阜市,白山町２丁目２２番地サニーフラッツ１０１号室,,21,201,5008172,,,,,,,2025-08-08,1,,,,,ケイコウショウジ,0
1366,5200003006952,新規,0,2025-08-08,2025-08-08,合同会社沢田組,,合同会社,岐阜県,不破郡垂井町,５７７番地の１,,21,361,5032121,,,,,,,2025-08-08,1,,,,,サワダグミ,0
1368,5210001020269,新規,0,2025-08-08,2025-08-08,株式会社ａｒｃ,,株式会社,福井県,福井市,羽水２丁目１２６番地,,18,201,9188114,,,,,,,2025-08-08,1,,,,,アルク,0
1369,5210003001944,新規,0,2025-08-08,2025-08-08,Ｒｏｏｔ　Ｂａｓｅ合同会社,,合同会社,福井県,坂井市,春江町中庄第４０号１４番地２,,18,210,9190482,,,,,,,2025-08-08,1,,,,,ルートベース,0
1370,5220003004095,新規,0,2025-08-08,2025-08-08,合同会社Ｕｎｉｑｕｅ,,合同会社,石川県,鳳珠郡穴水町,字大町いの１２８番地港町団地（Ｂ４－３）,,17,461,9270026,,,,,,,2025-08-08,1,,,,,ユニーク,0
1373,5230001021034,新規,0,2025-08-08,2025-08-08,株式会社ＯＰＥＮ　ＢＥＩＮＧ,,株式会社,富山県,富山市,清風町１４９番地,,16,201,9318409,,,,,,,2025-08-08,1,,,,,オープンビーイング,0
1377,5240001065328,新規,0,2025-08-08,2025-08-08,株式会社エントハウス,,株式会社,広島県,福山市,北本庄２丁目１６番７号,,34,207,7200074,,,,,,,2025-08-08,1,,,,,エントハウス,0
1379,5260001040436,新規,0,2025-08-08,2025-08-08,株式会社はとぽっぽ,,株式会社,岡山県,備前市,香登本９５６番地１,,33,211,7050012,,,,,,,2025-08-08,1,,,,,ハトポッポ,0
1381,5290001111135,新規,0,2025-08-08,2025-08-08,株式会社ＪＯＫＥＲ,,株式会社,福岡県,福岡市南区,大橋１丁目１３－１２,,40,134,8150033,,,,,,,2025-08-08,1,,,,,ジョーカー,0
1382,5290003017173,新規,0,2025-08-08,2025-08-08,合同会社Ｓｐｅｃｔｒｕｍ,,合同会社,福岡県,福岡市博多区,博多駅中央街５番１１号,,40,132,8120012,,,,,,,2025-08-08,1,,,,,スペクトラム,0
1386,5320003004738,新規,0,2025-08-08,2025-08-08,合同会社ｍｕｎｉ,,合同会社,大分県,大分市,大字常行１５９番地の１,,44,201,8700116,,,,,,,2025-08-08,1,,,,,ムニ,0
1391,5330003011171,新規,0,2025-08-08,2025-08-08,合同会社メアリ,,合同会社,熊本県,熊本市中央区,出水７丁目８１番３１号,,43,101,8620941,,,,,,,2025-08-08,1,,,,,メアリ,0
1393,5340001027565,新規,0,2025-08-08,2025-08-08,株式会社カネヨシ商店,,株式会社,鹿児島県,枕崎市,岩戸町１０５番地,,46,204,8980058,,,,,,,2025-08-08,1,,,,,カネヨシショウテン,0
1396,5370001052908,新規,0,2025-08-08,2025-08-08,株式会社池の内,,株式会社,宮城県,東松島市,小松字池の内１９４番地１,,04,214,9810504,,,,,,,2025-08-08,1,,,,,イケノウチ,0
1397,5370001052916,新規,0,2025-08-08,2025-08-08,株式会社ＡＣＴ　ＢＡＳＥ,,株式会社,宮城県,柴田郡柴田町,大字下名生字新大畑２８番地１,,04,323,9891613,,,,,,,2025-08-08,1,,,,,アクトベイス,0
1407,5430001094943,新規,0,2025-08-08,2025-08-08,株式会社野原や,,株式会社,北海道,札幌市豊平区,美園八条２丁目４番６号,,01,105,0620008,,,,,,,2025-08-08,1,,,,,ノハラヤ,0
1409,5430003017927,新規,0,2025-08-08,2025-08-08,合同会社みちしるべ,,合同会社,北海道,札幌市白石区,川下二条４丁目２番１８号,,01,104,0030862,,,,,,,2025-08-08,1,,,,,ミチシルベ,0
1410,5430003017951,新規,0,2025-08-08,2025-08-08,合同会社吉田企画,,合同会社,北海道,札幌市北区,北三十二条西２丁目２番１８－１０１号,,01,102,0010032,,,,,,,2025-08-08,1,,,,,ヨシダキカク,0
1413,5450001014701,新規,0,2025-08-08,2025-08-08,ＩＴＫシステムズ株式会社,,株式会社,北海道,旭川市,忠和六条６丁目５番２６号,,01,204,0708046,,,,,,,2025-08-08,1,,,,,アイティーケーシステムズ,0
1417,5470001020846,新規,0,2025-08-08,2025-08-08,株式会社Ｍｙｕｌｉｎｋ,,株式会社,香川県,高松市,天神前１０番５号高松セントラルスカイビルディング３Ｆ　ｓｏｕｔｈ,,37,201,7600018,,,,,,,2025-08-08,1,,,,,ミューリンク,0
1428,5700150131370,新規,0,2025-08-08,2025-07-14,鉄道インサイトプロジェクト,,その他,千葉県,千葉市稲毛区,黒砂４丁目８－２１,,12,103,2630042,,,,,,,2025-07-14,1,,,,,テツドウインサイトプロジエクト,0
1429,5700150131585,新規,0,2025-08-08,2025-07-30,令和１０年度全国高等学校総合体育大会愛知県準備委員会,,その他,愛知県,名古屋市中区,三の丸３丁目１番２号　愛知県教育委員会保健体育課内,,23,106,4600001,,,,,,,2025-07-30,1,,,,,レイワジユウネンドゼンコクコウトウガツコウソウゴウタイイクタイカイアイチケンジユンビイインカイ,0
1430,5700150131619,新規,0,2025-08-08,2025-08-01,香川県教育関係職員録編集委員会,,その他,香川県,高松市,天神前６－１,,37,201,7600018,,,,,,,2025-08-01,1,,,,,カガワケンキヨウイクカンケイシヨクインロクヘンシユウイインカイ,0
1431,5700150131692,新規,0,2025-08-08,2025-08-08,Ｓｕｎｔｏｒｙ　Ｉｎｄｉａ　Ｐｒｉｖａｔｅ　Ｌｉｍｉｔｅｄ,,外国会社等,,,,,,,,ＤＬＦ　Ｃｙｂｅｒｃｉｔｙ，Ｔｏｗｅｒ　１０Ｃ，ＤＬＦ　Ｐｈａｓｅ－ＩＩ，ＤＬＦ　ＱＥ　Ｇｕｒｇａｏｎ－１２２００２，Ｈａｒｙａｎａ，Ｉｎｄｉａ,00140213,,,,,2025-08-08,1,,,,,サントリーインデイアプライベートリミテツド,0
1435,6010001257491,新規,0,2025-08-08,2025-08-08,ＹＴ株式会社,,株式会社,東京都,千代田区,神田神保町３丁目７番地,,13,101,1010051,,,,,,,2025-08-08,1,,,,,ワイティー,0
1436,6010003048113,新規,0,2025-08-08,2025-08-08,合同会社ジャパンパワーランド１,,合同会社,東京都,中央区,京橋２丁目１２番６号ＡＯＪ税理士法人内,,13,102,1040031,,,,,,,2025-08-08,1,,,,,ジャパンパワーランドワン,0
1437,6010003048220,新規,0,2025-08-08,2025-08-08,心斎橋筋プロジェクト合同会社,,合同会社,東京都,中央区,銀座１丁目６番１１号土志田ビルディング３Ｆ,,13,102,1040061,,,,,,,2025-08-08,1,,,,,シンサイバシスジプロジェクト,0
1438,6010003048237,新規,0,2025-08-08,2025-08-08,合同会社ＵＡ東京０９,,合同会社,東京都,中央区,日本橋２丁目１番１８号,,13,102,1030027,,,,,,,2025-08-08,1,,,,,ユーエートウキョウゼロキュウ,0
1439,6010003048245,新規,0,2025-08-08,2025-08-08,合同会社ＵＡ東京０１,,合同会社,東京都,中央区,日本橋２丁目１番１８号,,13,102,1030027,,,,,,,2025-08-08,1,,,,,ユーエートウキョウゼロイチ,0
1444,6010005040497,新規,0,2025-08-08,2025-08-08,弁理士法人創英,,その他の設立登記法人,東京都,千代田区,丸の内２丁目１番１号,,13,101,1000005,,,,,,,2025-08-08,1,,,,,ソウエイ,0
1445,6010005040506,新規,0,2025-08-08,2025-08-08,一般社団法人ＶｉａＮｅｘ,,その他の設立登記法人,東京都,千代田区,丸の内１丁目４番１号東京共同会計事務所内,,13,101,1000005,,,,,,,2025-08-08,1,,,,,ヴィアネックス,0
1455,6010401192231,新規,0,2025-08-08,2025-08-08,ワンディーホールディングス株式会社,,株式会社,東京都,港区,西新橋２丁目１１－１３虎ノ門リンク３Ｆ,,13,103,1050003,,,,,,,2025-08-08,1,,,,,ワンディーホールディングス,0
1456,6010401192339,新規,0,2025-08-08,2025-08-08,株式会社２３,,株式会社,東京都,港区,新橋５丁目２９番４号バニモパレス３階,,13,103,1050004,,,,,,,2025-08-08,1,,,,,ニジュウサン,0
1457,6010401192347,新規,0,2025-08-08,2025-08-08,株式会社ＳｔｒａｔＥｄｇｅ　Ｐａｒｔｎｅｒｓ,,株式会社,東京都,港区,南青山２丁目２番１５号ウィン青山９４２,,13,103,1070062,,,,,,,2025-08-08,1,,,,,ストラテッジパートナーズ,0
1458,6010401192363,新規,0,2025-08-08,2025-08-08,株式会社マンション,,株式会社,東京都,港区,北青山１丁目３番１号アールキューブ青山３階,,13,103,1070061,,,,,,,2025-08-08,1,,,,,マンション,0
1459,6010401192371,新規,0,2025-08-08,2025-08-08,株式会社トチタテル,,株式会社,東京都,港区,海岸１丁目４番２２号ＳＮビル,,13,103,1050022,,,,,,,2025-08-08,1,,,,,トチタテル,0
1461,6010403035652,新規,0,2025-08-08,2025-08-08,合同会社ＲＥＮＥＷＡＢＬＥ　ＥＮＥＲＧＹ６号,,合同会社,東京都,港区,新橋５丁目１３番５号,,13,103,1050004,,,,,,,2025-08-08,1,,,,,リニューアブルエナジーロクゴウ,0
1462,6010403035792,新規,0,2025-08-08,2025-08-08,合同会社ＧＲｅＣ２号,,合同会社,東京都,港区,西新橋１丁目２番９号メンターキャピタル税理士法人内,,13,103,1050003,,,,,,,2025-08-08,1,,,,,ジーアールイーシーニゴウ,0
1463,6010405024595,新規,0,2025-08-08,2025-08-08,一般社団法人箱根湯本ホテル,,その他の設立登記法人,東京都,港区,虎ノ門５丁目１番５号,,13,103,1050001,,,,,,,2025-08-08,1,,,,,ハコネユモトホテル,0
1466,6010701048133,新規,0,2025-08-08,2025-08-08,ことばか株式会社,,株式会社,東京都,品川区,東五反田４丁目１番２７－１－２０２号,,13,109,1410022,,,,,,,2025-08-08,1,,,,,コトバカ,0
1468,6010801036483,新規,0,2025-08-08,2025-08-08,ファブリック株式会社,,株式会社,東京都,大田区,東海３丁目２番６号,,13,111,1430001,,,,,,,2025-08-08,1,,,,,ファブリック,0
1472,6010903010171,新規,0,2025-08-08,2025-08-08,ＡＬＴ合同会社,,合同会社,東京都,世田谷区,上北沢５丁目３３番１号,,13,112,1560057,,,,,,,2025-08-08,1,,,,,オルト,0
1476,6011001171022,新規,0,2025-08-08,2025-08-08,株式会社ライスカレープラス,,株式会社,東京都,渋谷区,道玄坂１丁目１２番１号渋谷マークシティウエスト２０階,,13,113,1500043,,,,,,,2025-08-08,1,,,,,ライスカレープラス,0
1481,6011103016199,新規,0,2025-08-08,2025-08-08,合同会社ＰＯＺＥ,,合同会社,東京都,新宿区,西新宿３丁目３－１３西新宿水間ビル２Ｆ,,13,104,1600023,,,,,,,2025-08-08,1,,,,,ポーズ,0
1482,6011201026554,新規,0,2025-08-08,2025-08-08,株式会社エコライフデザイン,,株式会社,東京都,中野区,上高田５丁目３３番１２号,,13,114,1640002,,,,,,,2025-08-08,1,,,,,エコライフデザイン,0
1483,6011301030794,新規,0,2025-08-08,2025-08-08,株式会社ＳＫワイズ,,株式会社,東京都,杉並区,松庵２丁目１３番１５号,,13,115,1670054,,,,,,,2025-08-08,1,,,,,エスケーワイズ,0
1487,6011401027303,新規,0,2025-08-08,2025-08-08,株式会社一信コンサルタント,,株式会社,東京都,板橋区,坂下２丁目１番２３－１１９号,,13,119,1740043,,,,,,,2025-08-08,1,,,,,イッシンコンサルタント,0
1490,6011601028860,新規,0,2025-08-08,2025-08-08,株式会社Ｐｈａｒｍａｃｙ　Ｆａｒｍ,,株式会社,東京都,練馬区,栄町２８－１,,13,120,1760006,,,,,,,2025-08-08,1,,,,,ファーマシーファーム,0
1493,6011801046571,新規,0,2025-08-08,2025-08-08,株式会社エムズフードプランニング,,株式会社,東京都,足立区,千住５丁目２番２－１０３号,,13,121,1200034,,,,,,,2025-08-08,1,,,,,エムズフードプランニング,0
1495,6012401043471,新規,0,2025-08-08,2025-08-08,ＡＦＶ株式会社,,株式会社,東京都,三鷹市,下連雀３丁目３８番４号三鷹産業プラザ５０１Ｂ,,13,204,1810013,,,,,,,2025-08-08,1,,,,,エイエフヴィ,0
1496,6012403007268,新規,0,2025-08-08,2025-08-08,合同会社翔縁,,合同会社,東京都,府中市,美好町３丁目１７－１３メイツ府中１０１,,13,206,1830045,,,,,,,2025-08-08,1,,,,,ショウエン,0
1506,6013301054732,新規,0,2025-08-08,2025-08-08,株式会社ＩＣＯ,,株式会社,東京都,豊島区,池袋２丁目１０番８号,,13,116,1710014,,,,,,,2025-08-08,1,,,,,アイシーオー,0
1507,6013301054740,新規,0,2025-08-08,2025-08-08,株式会社ＫｏｉＰｒｏ,,株式会社,東京都,豊島区,東池袋１丁目３４番５号いちご東池袋ビル６階,,13,116,1700013,,,,,,,2025-08-08,1,,,,,コイプロ,0
1508,6013303007812,新規,0,2025-08-08,2025-08-08,合同会社ＤＦＯ,,合同会社,東京都,豊島区,西巣鴨４丁目３１－６－４０４,,13,116,1700001,,,,,,,2025-08-08,1,,,,,ディーエフオー,0
1513,6020001164282,新規,0,2025-08-08,2025-08-08,東舜株式会社,,株式会社,神奈川県,横浜市青葉区,青葉台１丁目５番４号青葉台サンクスビル３Ｆ,,14,117,2270062,,,,,,,2025-08-08,1,,,,,トウシュン,0
1514,6020001164324,新規,0,2025-08-08,2025-08-08,株式会社伊藤ハイツ,,株式会社,神奈川県,川崎市麻生区,金程４丁目６番１号,,14,137,2150006,,,,,,,2025-08-08,1,,,,,イトウハイツ,0
1521,6021001085997,新規,0,2025-08-08,2025-08-08,Ｃｏｎｆｏｒｃｅ株式会社,,株式会社,神奈川県,相模原市緑区,橋本２丁目１８－１４ＤＲＡＧＯＮ橋本六番館３０５号,,14,151,2520143,,,,,,,2025-08-08,1,,,,,コンフォース,0
1523,6021003016372,新規,0,2025-08-08,2025-08-08,ＲＥＮＯイエ合同会社,,合同会社,神奈川県,横須賀市,池上４丁目１３番５－３号,,14,201,2380035,,,,,,,2025-08-08,1,,,,,レノイエ,0
1524,6021003016380,新規,0,2025-08-08,2025-08-08,合同会社ＨＴ　Ｂｌｕｅ　Ｓｋｙ＆Ｃｏ．,,合同会社,神奈川県,大和市,中央４丁目６番１２ー１号エクセルコート１０１,,14,213,2420021,,,,,,,2025-08-08,1,,,,,エイチティーブルースカイアンドカンパニー,0
1525,6021003016414,新規,0,2025-08-08,2025-08-08,入正合同会社,,合同会社,神奈川県,横須賀市,小川町１９―５富士ビル３階,,14,201,2380004,,,,,,,2025-08-08,1,,,,,イリショウ,0
1533,6030001167961,新規,0,2025-08-08,2025-08-08,株式会社蛍燈,,株式会社,埼玉県,坂戸市,大字中小坂４８４番地,,11,239,3500206,,,,,,,2025-08-08,1,,,,,ホタルビ,0
1534,6030001167978,新規,0,2025-08-08,2025-08-08,アイシーカイ・ジャパン株式会社,,株式会社,埼玉県,川口市,大字前田１２５１番地はとがや南マンション４０３号,,11,203,3340014,,,,,,,2025-08-08,1,,,,,アイシーカイジャパン,0
1535,6030001167986,新規,0,2025-08-08,2025-08-08,株式会社グロウス,,株式会社,埼玉県,入間市,大字下藤沢１１７６番地１０,,11,225,3580011,,,,,,,2025-08-08,1,,,,,グロウス,0
1536,6030001168019,新規,0,2025-08-08,2025-08-08,株式会社アクアテック,,株式会社,埼玉県,新座市,あたご３丁目１０番１４号,,11,230,3520021,,,,,,,2025-08-08,1,,,,,アクアテック,0
1537,6030001168051,新規,0,2025-08-08,2025-08-08,株式会社福縁,,株式会社,埼玉県,熊谷市,久保島２２８４番地７,,11,202,3600831,,,,,,,2025-08-08,1,,,,,フクエン,0
1538,6030001168101,新規,0,2025-08-08,2025-08-08,株式会社一伸,,株式会社,埼玉県,越谷市,伊原１丁目４番２０号ヴェスタルハイム２０１,,11,222,3430831,,,,,,,2025-08-08,1,,,,,イッシン,0
1539,6030001168118,新規,0,2025-08-08,2025-08-08,株式会社ネクストグローリア,,株式会社,埼玉県,蕨市,北町１丁目３－２蕨ロ－ズマンション４０１号室,,11,223,3350001,,,,,,,2025-08-08,1,,,,,ネクストグローリア,0
1542,6030003027354,新規,0,2025-08-08,2025-08-08,合同会社リヴァンス,,合同会社,埼玉県,春日部市,谷原２丁目７番４４,,11,214,3440065,,,,,,,2025-08-08,1,,,,,リヴァンス,0
1543,6030003027379,新規,0,2025-08-08,2025-08-08,合同会社ＴＯＹリハステーション,,合同会社,埼玉県,さいたま市岩槻区,大字釣上新田５８１番地５１,,11,110,3390025,,,,,,,2025-08-08,1,,,,,トイリハステーション,0
1545,6040001139902,新規,0,2025-08-08,2025-08-08,株式会社Ｌａｒｇｅ　Ｆｉｅｌｄ,,株式会社,千葉県,市川市,行徳駅前２丁目２０－１・ＴＳＫアベニュー２階,,12,203,2720133,,,,,,,2025-08-08,1,,,,,ラージフィールド,0
1546,6040001139910,新規,0,2025-08-08,2025-08-08,株式会社Ｍａｇｎｏｌｉａ　Ｕｎｉｔａｓ,,株式会社,千葉県,茂原市,早野３３００番地,,12,210,2970037,,,,,,,2025-08-08,1,,,,,マグノリアユニタス,0
1547,6040001139951,新規,0,2025-08-08,2025-08-08,匠タカラ株式会社,,株式会社,千葉県,千葉市稲毛区,黒砂台３丁目６番１３号,,12,103,2630041,,,,,,,2025-08-08,1,,,,,タクミタカラ,0
1549,6040003028194,新規,0,2025-08-08,2025-08-08,ＫＥＴＵＲＡＨ合同会社,,合同会社,千葉県,山武市,木原１４２０番地５６,,12,237,2891212,,,,,,,2025-08-08,1,,,,,ケトゥラ,0
1555,6050001057062,新規,0,2025-08-08,2025-08-08,Ｔ‐Ｔｒｕｓｔ株式会社,,株式会社,茨城県,つくばみらい市,筒戸２１番地２,,08,235,3002435,,,,,,,2025-08-08,1,,,,,ティートラスト,0
1558,6060001038490,新規,0,2025-08-08,2025-08-08,株式会社ヤナカ韮ファーム,,株式会社,栃木県,鹿沼市,上石川１７５６番地１,,09,205,3220015,,,,,,,2025-08-08,1,,,,,ヤナカニラファーム,0
1559,6060001038499,新規,0,2025-08-08,2025-08-08,株式会社圭設備工業,,株式会社,栃木県,佐野市,若宮下町４番地２,,09,204,3270834,,,,,,,2025-08-08,1,,,,,ケイセツビコウギョウ,0
1562,6070001043242,新規,0,2025-08-08,2025-08-08,株式会社飛騨設備,,株式会社,群馬県,伊勢崎市,東小保方町３７９８番地１１,,10,204,3792234,,,,,,,2025-08-08,1,,,,,ヒダセツビ,0
1564,6080001027087,新規,0,2025-08-08,2025-08-08,株式会社ネクストウィル,,株式会社,静岡県,静岡市葵区,吉野町４番９号,,22,101,4200046,,,,,,,2025-08-08,1,,,,,ネクストウィル,0
1571,6080101025701,新規,0,2025-08-08,2025-08-08,裕致株式会社,,株式会社,静岡県,三島市,中央町３番４７号江戸屋ビル４０１号室,,22,206,4110858,,,,,,,2025-08-08,1,,,,,ユウチ,0
1573,6090003002871,新規,0,2025-08-08,2025-08-08,武川農機合同会社,,合同会社,山梨県,北杜市,武川町三吹１６５２番地,,19,209,4080301,,,,,,,2025-08-08,1,,,,,タケカワノウキ,0
1575,6100001038833,新規,0,2025-08-08,2025-08-08,炭平ホールディングス株式会社,,株式会社,長野県,長野市,大字北長池１６６７番地,,20,201,3810025,,,,,,,2025-08-08,1,,,,,スミヘイホールディングス,0
1586,6120001278626,新規,0,2025-08-08,2025-08-08,株式会社Ｆｏｒｃｕｓ,,株式会社,大阪府,大阪市北区,梅田１丁目２番２号大阪駅前第２ビル１２－１２,,27,127,5300001,,,,,,,2025-08-08,1,,,,,フォーカス,0
1592,6120003030225,新規,0,2025-08-08,2025-08-08,合同会社ベル・サポート,,合同会社,大阪府,大阪市中央区,内本町２丁目１－１９,,27,128,5400026,,,,,,,2025-08-08,1,,,,,ベルサポート,0
1593,6120003030233,新規,0,2025-08-08,2025-08-08,ＡｕｒａＶｉｓｔａ合同会社,,合同会社,大阪府,大阪市平野区,平野南２丁目８番１３－１１０１,,27,126,5470031,,,,,,,2025-08-08,1,,,,,オーラビスタ,0
1597,6120101072227,新規,0,2025-08-08,2025-08-08,台全商事株式会社,,株式会社,大阪府,羽曳野市,野々上２丁目１３番７号,,27,222,5830871,,,,,,,2025-08-08,1,,,,,タイゼンショウジ,0
1598,6120101072243,新規,0,2025-08-08,2025-08-08,株式会社茂伸,,株式会社,大阪府,高石市,取石３丁目４番１８号,,27,225,5920013,,,,,,,2025-08-08,1,,,,,モシン,0
1599,6120103006620,新規,0,2025-08-08,2025-08-08,合同会社ＭＡＲＬＬ,,合同会社,大阪府,和泉市,のぞみ野１丁目１１番１９号２階,,27,219,5941105,,,,,,,2025-08-08,1,,,,,マール,0
1602,6120901051280,新規,0,2025-08-08,2025-08-08,株式会社ＵＮＩＴＥ,,株式会社,大阪府,高槻市,八幡町３番２５号,,27,207,5690051,,,,,,,2025-08-08,1,,,,,ユナイト,0
1604,6122001039495,新規,0,2025-08-08,2025-08-08,株式会社ムーンセブン,,株式会社,大阪府,東大阪市,三ノ瀬１丁目３番１９－３０３号,,27,227,5770849,,,,,,,2025-08-08,1,,,,,ムーンセブン,0
1605,6122001039537,新規,0,2025-08-08,2025-08-08,株式会社まいまい,,株式会社,大阪府,八尾市,本町６丁目１３番７号,,27,212,5810003,,,,,,,2025-08-08,1,,,,,マイマイ,0
1611,6130001080188,新規,0,2025-08-08,2025-08-08,ＭＩＺＡＩ株式会社,,株式会社,京都府,京都市下京区,小稲荷町８５番地２Ｇｒａｎｄ－Ｋ京都駅前ビル２０１,,26,106,6008208,,,,,,,2025-08-08,1,,,,,ミザイ,0
1612,6130001080337,新規,0,2025-08-08,2025-08-08,株式会社アミ,,株式会社,京都府,京都市右京区,太秦和泉式部町４番地３０,,26,108,6168101,,,,,,,2025-08-08,1,,,,,アミ,0
1617,6140003022410,新規,0,2025-08-08,2025-08-08,トレイルベース神戸合同会社,,合同会社,兵庫県,神戸市中央区,御幸通３丁目１番２４－２０１号,,28,110,6510087,,,,,,,2025-08-08,1,,,,,トレイルベースコウベ,0
1623,6180001167823,新規,0,2025-08-08,2025-08-08,宇治川塗装株式会社,,株式会社,愛知県,大府市,北山町３丁目１４０番地の９,,23,223,4740072,,,,,,,2025-08-08,1,,,,,ウジカワトソウ,0
1630,6180301040102,新規,0,2025-08-08,2025-08-08,株式会社カサベラ,,株式会社,愛知県,田原市,中山町北松渕１６番地,,23,231,4413615,,,,,,,2025-08-08,1,,,,,カサベラ,0
1632,6200001044111,新規,0,2025-08-08,2025-08-08,株式会社ＳＵＭＩｗｏｒｋｓ,,株式会社,岐阜県,羽島郡岐南町,野中３丁目１０１番地,,21,302,5016004,,,,,,,2025-08-08,1,,,,,スミワークス,0
1633,6200001044136,新規,0,2025-08-08,2025-08-08,株式会社ＴＡＮＡＫＡ,,株式会社,岐阜県,岐阜市,菅生１丁目４番１４号,,21,201,5020914,,,,,,,2025-08-08,1,,,,,タナカ,0
1634,6200003006951,新規,0,2025-08-08,2025-08-08,合同会社ひだトリビュート,,合同会社,岐阜県,飛騨市,古川町壱之町１２番１４号,,21,217,5094234,,,,,,,2025-08-08,1,,,,,ヒダトリビュート,0
1635,6220001026850,新規,0,2025-08-08,2025-08-08,土井興業株式会社,,株式会社,石川県,鳳珠郡穴水町,字大町リの１０９番地１,,17,461,9270026,,,,,,,2025-08-08,1,,,,,ドイコウギョウ,0
1636,6230001001290,新規,0,2025-08-08,2025-08-08,株式会社ジャクリン,,株式会社,富山県,富山市,西大泉１５番８号,,16,201,9398096,,,,,,,2025-08-08,1,,,,,ジャクリン,0
1639,6230003002477,新規,0,2025-08-08,2025-08-08,合同会社ＩＳコーポレーション,,合同会社,富山県,富山市,五福４６６‐７,,16,201,9300887,,,,,,,2025-08-08,1,,,,,アイエスコーポレーション,0
1643,6240003007351,新規,0,2025-08-08,2025-08-08,合同会社Ｌｅ’ａ　Ｐａｌｅｔｔｅ,,合同会社,広島県,東広島市,西条町御薗宇６７４２番地１,,34,212,7390024,,,,,,,2025-08-08,1,,,,,レアパレット,0
1645,6260001040435,新規,0,2025-08-08,2025-08-08,株式会社ＯＳＡＫＩ,,株式会社,岡山県,瀬戸内市,邑久町虫明４２３７番地,,33,212,7014501,,,,,,,2025-08-08,1,,,,,オサキ,0
1647,6270003001772,新規,0,2025-08-08,2025-08-08,リラックススタイル合同会社,,合同会社,鳥取県,米子市,富益町４番地８４,,31,202,6830103,,,,,,,2025-08-08,1,,,,,リラックススタイル,0
1654,6290001110920,新規,0,2025-08-08,2025-08-08,株式会社リザイア,,株式会社,福岡県,福岡市東区,箱崎３丁目５番１２号,,40,131,8120053,,,,,,,2025-08-08,1,,,,,リザイア,0
1655,6290001110937,新規,0,2025-08-08,2025-08-08,ＬＡＮＤＯＯＲ株式会社,,株式会社,福岡県,糟屋郡須惠町,大字須恵１０２８番地１３,,40,344,8112100,,,,,,,2025-08-08,1,,,,,ランドア,0
1656,6290003017098,新規,0,2025-08-08,2025-08-08,合同会社ＡｉＣＯ,,合同会社,福岡県,福岡市早良区,飯倉３丁目３９番３３号,,40,137,8140161,,,,,,,2025-08-08,1,,,,,アイコ,0
1659,6290801031746,新規,0,2025-08-08,2025-08-08,株式会社ハウス流通センター,,株式会社,福岡県,北九州市小倉北区,馬借３丁目３番３７号,,40,106,8020077,,,,,,,2025-08-08,1,,,,,ハウスリュウツウセンター,0
1660,6290801031779,新規,0,2025-08-08,2025-08-08,株式会社ＭＳＡコーポレーション,,株式会社,福岡県,宮若市,倉久２４２３番地,,40,226,8230017,,,,,,,2025-08-08,1,,,,,エムエスエーコーポレーション,0
1667,6320003004737,新規,0,2025-08-08,2025-08-08,合同会社ハルヒロ水産,,合同会社,大分県,別府市,小倉町５９番１１号ＤスタイルおぐらＢ棟,,44,202,8740842,,,,,,,2025-08-08,1,,,,,ハルヒロスイサン,0
1669,6330001033480,新規,0,2025-08-08,2025-08-08,株式会社三徳屋,,株式会社,熊本県,熊本市中央区,草葉町４番１号コアスクエア上乃裏２０１,,43,101,8600843,,,,,,,2025-08-08,1,,,,,サントクヤ,0
1675,6340001027564,新規,0,2025-08-08,2025-08-08,照タイム株式会社,,株式会社,鹿児島県,鹿児島市,希望ヶ丘町４－８,,46,201,8910107,,,,,,,2025-08-08,1,,,,,ショウタイム,0
1678,6340003004917,新規,0,2025-08-08,2025-08-08,合同会社ＡｒｃａＬｉｖｉｎｇ,,合同会社,鹿児島県,いちき串木野市,曙町２４番地,00140215,46,219,8960001,,,,,,,2025-08-08,1,,,,,アルカリビング,0
1679,6350003004998,新規,0,2025-08-08,2025-08-08,合同会社Ｆｒａｎｋ,,合同会社,宮崎県,児湯郡高鍋町,大字高鍋町８６０番地３,,45,401,8840001,,,,,,,2025-08-08,1,,,,,フランク,0
1685,6380001035497,新規,0,2025-08-08,2025-08-08,株式会社喜毘,,株式会社,福島県,南相馬市,原町区下高平字谷中７９番地,,07,212,9750025,,,,,,,2025-08-08,1,,,,,キビ,0
1700,6430001094942,新規,0,2025-08-08,2025-08-08,株式会社市民サポート北広島,,株式会社,北海道,北広島市,稲穂町西２丁目２番地１９,,01,234,0611124,,,,,,,2025-08-08,1,,,,,シミンサポートキタヒロシマ,0
1701,6430001094959,新規,0,2025-08-08,2025-08-08,株式会社ルミナス,,株式会社,北海道,札幌市東区,伏古十条２丁目９番３－１０１号,,01,103,0070870,,,,,,,2025-08-08,1,,,,,ルミナス,0
1703,6430003017950,新規,0,2025-08-08,2025-08-08,合同会社美,,合同会社,北海道,札幌市南区,澄川四条３丁目６番１３号澄川４．３ビル１０１号室,,01,106,0050004,,,,,,,2025-08-08,1,,,,,チュラ,0
1704,6430003017967,新規,0,2025-08-08,2025-08-08,ゆあなす合同会社,,合同会社,北海道,岩見沢市,美園三条１丁目１番９号,,01,210,0680813,,,,,,,2025-08-08,1,,,,,ユアナス,0
1706,6460001000278,新規,0,2025-08-08,2025-08-08,株式会社カナヤマ,,株式会社,北海道,釧路市,阿寒町阿寒湖温泉１丁目４番２０号,,01,206,0850467,,,,,,,2025-08-08,1,,,,,カナヤマ,0
1707,6480003002304,新規,0,2025-08-08,2025-08-08,合同会社敷島会,,合同会社,徳島県,板野郡上板町,神宅字宮ノ前１－３,,36,405,7711320,,,,,,,2025-08-08,1,,,,,シキシマカイ,0
1714,6700150131584,新規,0,2025-08-08,2025-07-30,社会保障政策懇話会,,その他,東京都,板橋区,小豆沢４丁目２５－９－８０８,,13,119,1740051,,,,,,,2025-07-30,1,,,,,シヤカイホシヨウセイサクコンワカイ,0
1715,6700150131709,新規,0,2025-08-08,2025-08-08,Ｄｏｎｇｇｕａｎ　Ｓｈｉ　Ｄｅ　Ｐｅｎｇ　Ｗａｎｇ　Ｌｕｏ　Ｋｅ　Ｊｉ　Ｙｏｕ　Ｘｉａｎ　Ｇｏｎｇ　Ｓｉ,,外国会社等,,,,,,,,ｇｕａｎｇｄｏｎｇｓｈｅｎｇ　ｄｏｎｇｇｕａｎｓｈｉ　ｈｕｍｅｎｚｈｅｎ　ｈｕｍｅｎｄａｄａｏ　１２５ｈａｏ４１８ｓｈｉ　５２３０００,,,,,,2025-08-08,1,,,,,ドングワンシードゥペンワンルオクージーヨウシェンゴンスー,0
1726,7010001257012,新規,0,2025-08-08,2025-08-08,福音株式会社,,株式会社,東京都,中央区,銀座１丁目１２－４Ｎ＆ＥＢＬＤ．７階,,13,102,1040061,,,,,,,2025-08-08,1,,,,,フクイン,0
1727,7010003048244,新規,0,2025-08-08,2025-08-08,合同会社ＵＡ東京０２,,合同会社,東京都,中央区,日本橋２丁目１番１８号,,13,102,1030027,,,,,,,2025-08-08,1,,,,,ユーエートウキョウゼロニ,0
1728,7010003048343,新規,0,2025-08-08,2025-08-08,ＲＡＩＯＮ　ＣＡＰＩＴＡＬ　ＪＡＰＡＮ７合同会社,,合同会社,東京都,千代田区,神田錦町１丁目２１番地,,13,101,1010054,,,,,,,2025-08-08,1,,,,,ライオンキャピタルジャパンセブン,0
1735,7010401192313,新規,0,2025-08-08,2025-08-08,ＭＡＬレンタカー株式会社,,株式会社,東京都,港区,芝５丁目３３番１１号,,13,103,1080014,,,,,,,2025-08-08,1,,,,,マルレンタカー,0
1736,7010401192354,新規,0,2025-08-08,2025-08-08,株式会社ＡＭＡＲＥＮＡ,,株式会社,東京都,港区,南青山３丁目１番３６号青山丸竹ビル６Ｆ,,13,103,1070062,,,,,,,2025-08-08,1,,,,,アマレナ,0
1737,7010401192370,新規,0,2025-08-08,2025-08-08,株式会社Ｒ＆Ｒ,,株式会社,東京都,港区,六本木３丁目３番２８－１０３号,,13,103,1060032,,,,,,,2025-08-08,1,,,,,アールアンドアール,0
1740,7010403035783,新規,0,2025-08-08,2025-08-08,Ｇｒｕｖｅ　Ｊａｐａｎ合同会社,,合同会社,東京都,港区,六本木３丁目１６番１２号六本木ＫＳビル５階,,13,103,1060032,,,,,,,2025-08-08,1,,,,,グルーヴジャパン,0
1743,7010501054512,新規,0,2025-08-08,2025-08-08,夏和三生株式会社,,株式会社,東京都,台東区,松が谷２丁目１５番８号浅草Ｋ２ビル３０２号室,,13,106,1110036,,,,,,,2025-08-08,1,,,,,カワサンセイ,0
1746,7010601067744,新規,0,2025-08-08,2025-08-08,ＳＤトランスライン株式会社,,株式会社,東京都,江東区,新砂２丁目２番８号,,13,108,1360075,,,,,,,2025-08-08,1,,,,,エスディートランスライン,0
1747,7010603011725,新規,0,2025-08-08,2025-08-08,日中ＥＣ貿易合同会社,,合同会社,東京都,墨田区,文花３丁目２０番１５－３１１号ルネ・フロンティアマークス,,13,107,1310044,,,,,,,2025-08-08,1,,,,,ニッチュウイーシーボウエキ,0
1750,7010701048124,新規,0,2025-08-08,2025-08-08,株式会社コロニーラボ,,株式会社,東京都,品川区,西五反田７丁目１７番５号五反田第３ＮＯＴＥビル３階,,13,109,1410031,,,,,,,2025-08-08,1,,,,,コロニーラボ,0
1751,7010701048132,新規,0,2025-08-08,2025-08-08,ロドデンドロ株式会社,,株式会社,東京都,品川区,西品川１丁目２９番１２号ＣＳＲ品川,,13,109,1410033,,,,,,,2025-08-08,1,,,,,ロドデンドロ,0
1757,7010805003198,新規,0,2025-08-08,2025-08-08,一般社団法人やまとの森,,その他の設立登記法人,東京都,大田区,上池台１丁目１番６号,,13,111,1450064,,,,,,,2025-08-08,1,,,,,ヤマトノモリ,0
1759,7010901057874,新規,0,2025-08-08,2025-08-08,株式会社もののあ,,株式会社,東京都,世田谷区,野沢１丁目２７番１号ＡＸコンパウンド１０３号室,,13,112,1540003,,,,,,,2025-08-08,1,,,,,モノノア,0
1760,7010901057890,新規,0,2025-08-08,2025-08-08,株式会社ベーレンプラッテ,,株式会社,東京都,世田谷区,成城８丁目４番２１号成城クローチェ１１号室,,13,112,1570066,,,,,,,2025-08-08,1,,,,,ベーレンプラッテ,0
1762,7010903010170,新規,0,2025-08-08,2025-08-08,合同会社Ｔａ　Ｖｉｅ　ｅｔ,,合同会社,東京都,世田谷区,北烏山７丁目２５番６－４０６号,,13,112,1570061,,,,,,,2025-08-08,1,,,,,タビエ,0
1771,7011203004788,新規,0,2025-08-08,2025-08-08,イノセントプラス合同会社,,合同会社,東京都,中野区,中野３丁目４２番１０号,,13,114,1640001,,,,,,,2025-08-08,1,,,,,イノセントプラス,0
1784,7011801046579,新規,0,2025-08-08,2025-08-08,日本加工食品製造株式会社,,株式会社,東京都,葛飾区,東立石４丁目１８番８号,,13,122,1240013,,,,,,,2025-08-08,1,,,,,ニホンカコウショクヒンセイゾウ,0
1787,7012303002203,新規,0,2025-08-08,2025-08-08,合同会社野良計畫,,合同会社,東京都,町田市,中町３丁目２４－１６第２富貴荘１０１号室,,13,209,1940021,,,,,,,2025-08-08,1,,,,,ノラケイカク,0
1788,7012801024161,新規,0,2025-08-08,2025-08-08,株式会社ヘバン,,株式会社,東京都,立川市,錦町２丁目１番２１号ヴレッヂ林４０１,,13,202,1900022,,,,,,,2025-08-08,1,,,,,ヘバン,0
1789,7013301054731,新規,0,2025-08-08,2025-08-08,Ｗｏｎｄｅｒ　Ｃｒａｆｔ株式会社,,株式会社,東京都,豊島区,東池袋２丁目６２番８号,,13,116,1700013,,,,,,,2025-08-08,1,,,,,ワンダークラフト,0
1791,7013303007803,新規,0,2025-08-08,2025-08-08,合同会社Ｓｍａｌｌ　Ｗｅｌｌ　Ｇａｔｅ,,合同会社,東京都,豊島区,駒込４丁目３－２０プラウド駒込５１７,,13,116,1700003,,,,,,,2025-08-08,1,,,,,スモールウェルゲート,0
1796,7020001164240,新規,0,2025-08-08,2025-08-08,株式会社イグニッション・ギルド,,株式会社,神奈川県,横浜市中区,太田町２丁目２３番地横浜メディア・ビジネスセンター７Ｆ,,14,104,2310011,,,,,,,2025-08-08,1,,,,,イグニッションギルド,0
1797,7020001164249,新規,0,2025-08-08,2025-08-08,株式会社ハチクロ商事,,株式会社,神奈川県,横浜市神奈川区,広台太田町８番地８ＫＯシティ８８－２０３号,,14,102,2210824,,,,,,,2025-08-08,1,,,,,ハチクロショウジ,0
1798,7020001164273,新規,0,2025-08-08,2025-08-08,株式会社勝吉,,株式会社,神奈川県,横浜市中区,宮川町２丁目５７番地１野毛ガレリア１Ｆ－Ｂ,,14,104,2310065,,,,,,,2025-08-08,1,,,,,カツキチ,0
1801,7020003029086,新規,0,2025-08-08,2025-08-08,Ｐｉｔｏｌｉａ合同会社,,合同会社,神奈川県,横浜市西区,浅間町１丁目４番３号ウィザードビル４０２,,14,103,2200072,,,,,,,2025-08-08,1,,,,,ピトリア,0
1806,7021001086037,新規,0,2025-08-08,2025-08-08,株式会社ＨＴＭホールディングス,,株式会社,神奈川県,海老名市,柏ケ谷４丁目１１番３２号雄山ビル４０６,,14,215,2430402,,,,,,,2025-08-08,1,,,,,エイチティーエムホールディングス,0
1807,7021003016371,新規,0,2025-08-08,2025-08-08,合同会社Ｋ‐Ｅｉｇｈｔ,,合同会社,神奈川県,相模原市緑区,大山町１１―１１デュエルビル２０２,,14,151,2520146,,,,,,,2025-08-08,1,,,,,ケーエイト,0
1818,7030001167944,新規,0,2025-08-08,2025-08-08,ＷｉｔｈＰｅｔ２０２５株式会社,,株式会社,埼玉県,越谷市,瓦曽根３丁目３番７号,,11,222,3430821,,,,,,,2025-08-08,1,,,,,ウィズペットニーゼロニーゴー,0
1819,7030001167985,新規,0,2025-08-08,2025-08-08,埼玉山王株式会社,,株式会社,埼玉県,熊谷市,三ヶ尻３０７２番地２,,11,202,3600843,,,,,,,2025-08-08,1,,,,,サイタマサンオウ,0
1820,7030001168018,新規,0,2025-08-08,2025-08-08,ＨＯＵ株式会社,,株式会社,埼玉県,大里郡寄居町,大字寄居９２番地５・２階,,11,408,3691203,,,,,,,2025-08-08,1,,,,,ホウ,0
1821,7030001168050,新規,0,2025-08-08,2025-08-08,株式会社Ａｃｃｅｌ　Ｂｒｅａｋ,,株式会社,埼玉県,八潮市,中央１丁目１７番地２０,,11,234,3400816,,,,,,,2025-08-08,1,,,,,アクセルブレイク,0
1822,7030001168067,新規,0,2025-08-08,2025-08-08,株式会社ＢＡＳＥ　ＯＮＥ,,株式会社,埼玉県,戸田市,笹目１丁目３３番地の１３,,11,224,3350034,,,,,,,2025-08-08,1,,,,,ベースワン,0
1823,7030001168117,新規,0,2025-08-08,2025-08-08,株式会社ＲＥＺＩＡ,,株式会社,埼玉県,八潮市,八潮１丁目５番１１,,11,234,3400815,,,,,,,2025-08-08,1,,,,,レジア,0
1828,7030003027353,新規,0,2025-08-08,2025-08-08,Ｔ＆Ｒクリーンサービス合同会社,,合同会社,埼玉県,蓮田市,西城３丁目８番地セラーノハイツＡ－２０２号,,11,238,3490145,,,,,,,2025-08-08,1,,,,,ティーアンドアールクリーンサービス,0
1829,7030003027378,新規,0,2025-08-08,2025-08-08,合同会社Ｃｈａｇｏｔａ,,合同会社,埼玉県,川口市,上青木６丁目３６番１４号ベルメノン３０２号室,,11,203,3330844,,,,,,,2025-08-08,1,,,,,チャゴタ,0
1831,7040001139892,新規,0,2025-08-08,2025-08-08,株式会社苅谷,,株式会社,千葉県,匝瑳市,飯倉台二丁目１１番２０号,,12,235,2892148,,,,,,,2025-08-08,1,,,,,カリヤ,0
1832,7040001139950,新規,0,2025-08-08,2025-08-08,株式会社スタープラチナ,,株式会社,千葉県,市川市,真間１丁目２番１５号,,12,203,2720826,,,,,,,2025-08-08,1,,,,,スタープラチナ,0
1839,7040003028227,新規,0,2025-08-08,2025-08-08,合同会社ＥＬＬ,,合同会社,千葉県,流山市,美原３丁目８８番１５番地,,12,220,2700103,,,,,,,2025-08-08,1,,,,,エル,0
1841,7040005022847,新規,0,2025-08-08,2025-08-08,インフォーム協同組合,,その他の設立登記法人,千葉県,浦安市,港３３番地,,12,227,2790024,,,,,,,2025-08-08,1,,,,,インフォーム,0
1848,7060003005678,新規,0,2025-08-08,2025-08-08,ｅＳ合同会社,,合同会社,栃木県,那須塩原市,下永田３丁目１１７４－１３,,09,213,3292712,,,,,,,2025-08-08,1,,,,,エス,0
1849,7080401028097,新規,0,2025-08-08,2025-08-08,株式会社ＳＯＴ,,株式会社,静岡県,浜松市中央区,田町２２４番地の２９イザット第１ビル１階,,22,138,4300944,,,,,,,2025-08-08,1,,,,,エスオーティー,0
1850,7090001019454,新規,0,2025-08-08,2025-08-08,株式会社ドーモ,,株式会社,山梨県,南都留郡富士河口湖町,船津２１５５番地３,,19,430,4010301,,,,,,,2025-08-08,1,,,,,ドーモ,0
1853,7090003002870,新規,0,2025-08-08,2025-08-08,ＣＯＣＯＲＯサービス合同会社,,合同会社,山梨県,甲府市,七沢町３３２番地１０,,19,201,4000825,,,,,,,2025-08-08,1,,,,,,0
1857,7100001038849,新規,0,2025-08-08,2025-08-08,株式会社Ｅｓｅｃｕｒｉｔｙ,,株式会社,長野県,佐久市,中込３０８３番地１ワークプラザビル１階,,20,217,3850051,,,,,,,2025-08-08,1,,,,,イーセキュリティー,0
1858,7100001038857,新規,0,2025-08-08,2025-08-08,日信サポート株式会社,,株式会社,長野県,諏訪郡下諏訪町,１０７番地,,20,361,3930000,,,,,,,2025-08-08,1,,,,,ニッシンサポート,0
1877,7120001278518,新規,0,2025-08-08,2025-08-08,株式会社ＣａｒｅＥａｒｔｈ　Ｍａｒｔ,,株式会社,大阪府,大阪市中央区,内本町２丁目４番１２号中央内本町ビル４階,,27,128,5400026,,,,,,,2025-08-08,1,,,,,ケアアースマート,0
1878,7120001278609,新規,0,2025-08-08,2025-08-08,株式会社ＳＣＰワークス,,株式会社,大阪府,大阪市西成区,南津守７丁目１０番１９－８０２号,,27,122,5570063,,,,,,,2025-08-08,1,,,,,エスシーピーワークス,0
1879,7120001278625,新規,0,2025-08-08,2025-08-08,株式会社リーカーズ,,株式会社,大阪府,交野市,星田北１丁目３３番５号,,27,230,5760017,,,,,,,2025-08-08,1,,,,,リーカーズ,0
1880,7120001278641,新規,0,2025-08-08,2025-08-08,株式会社ＩＮＦＩＮＩＴＹ,,株式会社,大阪府,大阪市中央区,高津１丁目１０番１８号３０１号,,27,128,5420072,,,,,,,2025-08-08,1,,,,,インフィニティ,0
1881,7120001278732,新規,0,2025-08-08,2025-08-08,株式会社ＹＺＹ,,株式会社,大阪府,大阪市中央区,南久宝寺町４丁目４－１新御堂ビル５０２－５,,27,128,5410058,,,,,,,2025-08-08,1,,,,,ワイゼットワイ,0
1887,7120003030265,新規,0,2025-08-08,2025-08-08,合同会社ユモア,,合同会社,大阪府,寝屋川市,香里北之町１番６号,,27,215,5720080,,,,,,,2025-08-08,1,,,,,ユモア,0
1891,7120103006611,新規,0,2025-08-08,2025-08-08,合同会社ａｗｅｓｏｍｅ　ｆｕｔｕｒｅ,,合同会社,大阪府,富田林市,大字彼方４５１番地１,,27,214,5840058,,,,,,,2025-08-08,1,,,,,オーサムフューチャー,0
1894,7122001039494,新規,0,2025-08-08,2025-08-08,株式会社ＨＴＳ,,株式会社,大阪府,東大阪市,長堂１丁目２０番１２号,,27,227,5770056,,,,,,,2025-08-08,1,,,,,エイチティエス,0
1900,7130001080229,新規,0,2025-08-08,2025-08-08,株式会社鳳生,,株式会社,京都府,舞鶴市,字多門院２２番地２,,26,202,6250045,,,,,,,2025-08-08,1,,,,,ホウセイ,0
1908,7140001139560,新規,0,2025-08-08,2025-08-08,株式会社ＲＳＧ,,株式会社,兵庫県,神戸市長田区,五番町２丁目５番地,,28,106,6530003,,,,,,,2025-08-08,1,,,,,アールエスジー,0
1927,7180005021190,新規,0,2025-08-08,2025-08-08,一般社団法人ＫＫ財産管理,,その他の設立登記法人,愛知県,名古屋市昭和区,元宮町５丁目５１番地,,23,107,4660851,,,,,,,2025-08-08,1,,,,,ケーケーザイサンカンリ,0
1929,7180301040092,新規,0,2025-08-08,2025-08-08,株式会社サーレ,,株式会社,愛知県,額田郡幸田町,大字深溝字小山２６番地１,,23,501,4440124,,,,,,,2025-08-08,1,,,,,サーレ,0
1930,7180301040101,新規,0,2025-08-08,2025-08-08,株式会社玉建,,株式会社,愛知県,豊橋市,吾妻町１５番地１,,23,201,4400045,,,,,,,2025-08-08,1,,,,,タマケン,0
1935,7190005012065,新規,0,2025-08-08,2025-08-08,一般社団法人Ｂｅｎｔ　Ｂｅａｎ,,その他の設立登記法人,三重県,津市,久居元町２１５２番地２,,24,201,5141125,,,,,,,2025-08-08,1,,,,,ベントビーン,0
1936,7200001044110,新規,0,2025-08-08,2025-08-08,株式会社Ｓｉｎｏｎ,,株式会社,岐阜県,岐阜市,加納新本町３丁目１番地１ＳＰＡＺＩＯ３０７号室,,21,201,5008463,,,,,,,2025-08-08,1,,,,,シノン,0
1937,7200001044127,新規,0,2025-08-08,2025-08-08,カイロアル国際株式会社,,株式会社,岐阜県,瑞浪市,釜戸町２３４８番地の１,,21,208,5096472,,,,,,,2025-08-08,1,,,,,カイロアルコクサイ,0
1938,7200003006959,新規,0,2025-08-08,2025-08-08,合同会社タグチオート,,合同会社,岐阜県,本巣市,小柿下起１０５１番地,,21,218,5010463,,,,,,,2025-08-08,1,,,,,タグチオート,0
1939,7200003006967,新規,0,2025-08-08,2025-08-08,合同会社しつらえ工房,,合同会社,岐阜県,多治見市,高田町３丁目２７番地の１,,21,204,5070018,,,,,,,2025-08-08,1,,,,,シツラエコウボウ,0
1947,7240001065350,新規,0,2025-08-08,2025-08-08,株式会社Ｃｕｒｅ　Ｒｏｏｔｓ,,株式会社,広島県,広島市安佐南区,祇園７丁目２７番４４－１号,,34,105,7310138,,,,,,,2025-08-08,1,,,,,キュアルーツ,0
1958,7290001111133,新規,0,2025-08-08,2025-08-08,株式会社部屋問屋,,株式会社,福岡県,糟屋郡志免町,別府２丁目１９番１号,,40,343,8112205,,,,,,,2025-08-08,1,,,,,ヘヤドンヤ,0
1963,7310003005058,新規,0,2025-08-08,2025-08-08,合同会社一笑,,合同会社,長崎県,南島原市,布津町丙４５４７番地１,,42,214,8592113,,,,,,,2025-08-08,1,,,,,イッショウ,0
1971,7330001033488,新規,0,2025-08-08,2025-08-08,株式会社Ｂｒｉｄｇｅ９,,株式会社,熊本県,宇土市,走潟町１１８９番地１,,43,211,8690404,,,,,,,2025-08-08,1,,,,,ブリッジナイン,0
1974,7330003011137,新規,0,2025-08-08,2025-08-08,合同会社ＡＳＯ　ＬＡＢ,,合同会社,熊本県,阿蘇市,乙姫３３番,,43,214,8692226,,,,,,,2025-08-08,1,,,,,アソラボ,0
1976,7340001027563,新規,0,2025-08-08,2025-08-08,株式会社ＷＤ,,株式会社,鹿児島県,指宿市,大牟礼３丁目２５番２３－１号,,46,210,8910401,,,,,,,2025-08-08,1,,,,,ダブリューディー,0
1978,7360001035606,新規,0,2025-08-08,2025-08-08,株式会社うるま共創ＰＦＩ,,株式会社,沖縄県,うるま市,みどり町２丁目５番２７号,,47,213,9042215,,,,,,,2025-08-08,1,,,,,ウルマキョウソウピーエフアイ,0
1984,7380003006108,新規,0,2025-08-08,2025-08-08,合同会社エムオウ,,合同会社,福島県,喜多方市,慶徳町山科字山崎３３０７番地,,07,208,9660924,,,,,,,2025-08-08,1,,,,,エムオウ,0
1990,7390001018079,新規,0,2025-08-08,2025-08-08,ＰＳｆｉｔ株式会社,,株式会社,山形県,山形市,緑町４丁目２４－７,,06,201,9900041,,,,,,,2025-08-08,1,,,,,,0
1991,7400001017129,新規,0,2025-08-08,2025-08-08,株式会社佳俊,,株式会社,岩手県,二戸郡一戸町,西法寺字諏訪野６番地１５小野寺アパート８号,,03,524,0285301,,,,,,,2025-08-08,1,,,,,ヨシトシ,0
1992,7400001017137,新規,0,2025-08-08,2025-08-08,株式会社テラオカリペアプロジェクト,,株式会社,岩手県,岩手郡雫石町,笹森１６８－５,,03,301,0200551,,,,,,,2025-08-08,1,,,,,テラオカリペアプロジェクト,0
1993,7400005008504,新規,0,2025-08-08,2025-08-08,農事組合法人ちばファーム,,その他の設立登記法人,岩手県,胆沢郡金ケ崎町,西根石田３５番地,,03,381,0294503,,,,,,,2025-08-08,1,,,,,チバファーム,0
1997,7430003017941,新規,0,2025-08-08,2025-08-08,Ｇｙｏｕｋｏｕ合同会社,,合同会社,北海道,札幌市白石区,中央二条６丁目２番１０号,,01,104,0030012,,,,,,,2025-08-08,1,,,,,ギョウコウ,0
2000,7470001020844,新規,0,2025-08-08,2025-08-08,株式会社ｍｉｎｃｉａ,,株式会社,香川県,木田郡三木町,大字井戸２６９７番地５,,37,341,7610823,,,,,,,2025-08-08,1,,,,,ミンシア,0
2011,7500001026466,新規,0,2025-08-08,2025-08-08,株式会社ＧＡＮＴＡ,,株式会社,愛媛県,今治市,拝志７番１４号,,38,202,7991504,,,,,,,2025-08-08,1,,,,,ガンタ,0
2013,7700150130817,新規,0,2025-08-08,2025-05-30,坂東市産業経済交流施設運営管理組合,,その他,茨城県,坂東市,長須９６２１番地１,,08,228,3060645,,,,,,,2025-05-30,1,,,,,バンドウシサンギヨウケイザイコウリユウシセツウンエイカンリクミアイ,0
2027,8010003048235,新規,0,2025-08-08,2025-08-08,合同会社ＵＡ東京１０,,合同会社,東京都,中央区,日本橋２丁目１番１８号,,13,102,1030027,,,,,,,2025-08-08,1,,,,,ユーエートウキョウイチゼロ,0
2028,8010003048243,新規,0,2025-08-08,2025-08-08,合同会社ＵＡ東京０３,,合同会社,東京都,中央区,日本橋２丁目１番１８号,,13,102,1030027,,,,,,,2025-08-08,1,,,,,ユーエートウキョウゼロサン,0
2029,8010003048350,新規,0,2025-08-08,2025-08-08,合同会社ＶｉａＮｅｘ,,合同会社,東京都,千代田区,丸の内１丁目４番１号東京共同会計事務所内,,13,101,1000005,,,,,,,2025-08-08,1,,,,,ヴィアネックス,0
2032,8010005040470,新規,0,2025-08-08,2025-08-08,一般社団法人心斎橋筋プロジェクト,,その他の設立登記法人,東京都,中央区,銀座１丁目６番１１号土志田ビルディング３Ｆ,,13,102,1040061,,,,,,,2025-08-08,1,,,,,シンサイバシスジプロジェクト,0
2043,8010401192196,新規,0,2025-08-08,2025-08-08,ＲＡＧＮＩＺＥ株式会社,,株式会社,東京都,港区,青山三丁目１番３号,,13,103,1050000,,,,,,,2025-08-08,1,,,,,ラグナイズ,0
2044,8010401192337,新規,0,2025-08-08,2025-08-08,株式会社０８Ｅｑｕｉｔａｓ,,株式会社,東京都,港区,芝浦４丁目１５番１－２７０６号プラウドタワー芝浦,,13,103,1080023,,,,,,,2025-08-08,1,,,,,エイトエクイタス,0
2047,8010501054486,新規,0,2025-08-08,2025-08-08,ＢｌｉｓｓＣｕｂｅ株式会社,,株式会社,東京都,台東区,浅草橋２丁目２８番７号１階,,13,106,1110053,,,,,,,2025-08-08,1,,,,,ブリスキューブ,0
2048,8010501054511,新規,0,2025-08-08,2025-08-08,株式会社Ｍ’ｓ　ＬＩＮＫ,,株式会社,東京都,台東区,東上野６丁目２３番５号第２雨宮ビル７０１,,13,106,1100015,,,,,,,2025-08-08,1,,,,,エムズリンク,0
2049,8010501054528,新規,0,2025-08-08,2025-08-08,株式会社エーケーサービス,,株式会社,東京都,台東区,三筋１丁目６番９号,,13,106,1110055,,,,,,,2025-08-08,1,,,,,エーケーサービス,0
2055,8010603011724,新規,0,2025-08-08,2025-08-08,Ｍｏｄｅｓｔｅ　Ｊａｐａｎ合同会社,,合同会社,東京都,江東区,有明３丁目７番２６号有明フロンティアビルＢ棟９階,,13,108,1350063,,,,,,,2025-08-08,1,,,,,モデストジャパン,0
2056,8010701048131,新規,0,2025-08-08,2025-08-08,オーシャンズ株式会社,,株式会社,東京都,品川区,小山３丁目５番６－４０８号,,13,109,1420062,,,,,,,2025-08-08,1,,,,,オーシャンズ,0
2057,8010801036481,新規,0,2025-08-08,2025-08-08,シバテック株式会社,,株式会社,東京都,大田区,本羽田２丁目１２番２号,,13,111,1440044,,,,,,,2025-08-08,1,,,,,シバテック,0
2064,8011003022270,新規,0,2025-08-08,2025-08-08,合同会社ＢＡＴＯＮ,,合同会社,東京都,渋谷区,円山町５番３号ＭＩＥＵＸ渋谷ビル８階,,13,113,1500044,,,,,,,2025-08-08,1,,,,,バトン,0
2066,8011201026552,新規,0,2025-08-08,2025-08-08,株式会社ＧＦＲＥＤ,,株式会社,東京都,中野区,中野２丁目１９番２号リードシー中野ビル３階ＢＩＺｃｏｍｆｏｒｔ中野南,,13,114,1640001,,,,,,,2025-08-08,1,,,,,ジーフレッド,0
2067,8011201026560,新規,0,2025-08-08,2025-08-08,株式会社めぐり,,株式会社,東京都,中野区,中央４丁目１番３号ボニータ新中野３０１号室,,13,114,1640011,,,,,,,2025-08-08,1,,,,,メグリ,0
2078,8011803007009,新規,0,2025-08-08,2025-08-08,合同会社Ｄｏｉｖａ,,合同会社,東京都,葛飾区,西水元３丁目１８番２７号,,13,122,1250031,,,,,,,2025-08-08,1,,,,,ドウィヴァ,0
2079,8012401043445,新規,0,2025-08-08,2025-08-08,株式会社ＨＡＭＯＮ,,株式会社,東京都,小金井市,本町２丁目２０番８号,,13,210,1840004,,,,,,,2025-08-08,1,,,,,ハモン,0
2080,8012401043461,新規,0,2025-08-08,2025-08-08,株式会社ｋａｋｕ‐ｋａｋｕ　ｌａｂ．,,株式会社,東京都,狛江市,中和泉５丁目２番８－１０３号,,13,219,2010012,,,,,,,2025-08-08,1,,,,,カクカクラボ,0
2081,8012403007274,新規,0,2025-08-08,2025-08-08,ベルジュ合同会社,,合同会社,東京都,調布市,国領町４丁目４９番地１ロイヤルシーダ５０２,,13,208,1820022,,,,,,,2025-08-08,1,,,,,ベルジュ,0
2085,8012801024160,新規,0,2025-08-08,2025-08-08,空論株式会社,,株式会社,東京都,東大和市,狭山５丁目１５４８－７,,13,220,2070003,,,,,,,2025-08-08,1,,,,,クウロン,0
2086,8012803003807,新規,0,2025-08-08,2025-08-08,合同会社Ｍ‐Ａｎａｌｙｔｉｃａ,,合同会社,東京都,国分寺市,北町４丁目３番５０号,,13,214,1850001,,,,,,,2025-08-08,1,,,,,エムアナリティカ,0
2088,8013301054730,新規,0,2025-08-08,2025-08-08,株式会社Ｓｙｍｂｏｌｓ,,株式会社,東京都,豊島区,東池袋１丁目１２－１１ＯＧＳビル９Ｆｍｅｂｙ,,13,116,1700013,,,,,,,2025-08-08,1,,,,,シンボルス,0
2089,8013301054739,新規,0,2025-08-08,2025-08-08,三豊通商株式会社,,株式会社,東京都,豊島区,東池袋３丁目１５番１４－６０８号,,13,116,1700013,,,,,,,2025-08-08,1,,,,,サンポウツウショウ,0
2097,8020001164108,新規,0,2025-08-08,2025-08-08,川崎酒造株式会社,,株式会社,神奈川県,川崎市川崎区,東田町８パレール１Ｆ,,14,131,2100005,,,,,,,2025-08-08,1,,,,,カワサキシュゾウ,0
2098,8020001164132,新規,0,2025-08-08,2025-08-08,フロンヴィルホームズ株式会社,,株式会社,神奈川県,横浜市中区,日本大通１８番地,,14,104,2310021,,,,,,,2025-08-08,1,,,,,フロンヴィルホームズ,0
2099,8020001164181,新規,0,2025-08-08,2025-08-08,株式会社ＫＯＢＡＹＡＳＩＸ,,株式会社,神奈川県,川崎市宮前区,有馬８丁目２０番３号,,14,136,2160003,,,,,,,2025-08-08,1,,,,,コバヤシックス,0
2100,8020001164207,新規,0,2025-08-08,2025-08-08,株式会社エムテクノ,,株式会社,神奈川県,横浜市戸塚区,汲沢町４５１番地２,,14,110,2450062,,,,,,,2025-08-08,1,,,,,エムテクノ,0
2101,8020001164248,新規,0,2025-08-08,2025-08-08,株式会社寿メタル,,株式会社,神奈川県,川崎市中原区,井田三舞町１４番３３－２０２号,,14,133,2110037,,,,,,,2025-08-08,1,,,,,コトブキメタル,0
2102,8020001164280,新規,0,2025-08-08,2025-08-08,株式会社ＴＯＭＯＳＨＩＢＩ,,株式会社,神奈川県,横浜市都筑区,池辺町２２１０号,,14,118,2240053,,,,,,,2025-08-08,1,,,,,トモシビ,0
2109,8020003029077,新規,0,2025-08-08,2025-08-08,ＦＡＨＯＭＥ合同会社,,合同会社,神奈川県,横浜市都筑区,北山田５丁目７―１―９０５,,14,118,2240021,,,,,,,2025-08-08,1,,,,,エフエーホーム,0
2110,8020003029085,新規,0,2025-08-08,2025-08-08,ＦｏＬＷ合同会社,,合同会社,神奈川県,横浜市金沢区,大川７－４－３１１,,14,108,2360043,,,,,,,2025-08-08,1,,,,,フォロー,0
2113,8021001085962,新規,0,2025-08-08,2025-08-08,株式会社騎竜ＨＯＭＥＳ,,株式会社,神奈川県,相模原市南区,下溝字袋沢２５７０番地７,,14,153,2520335,,,,,,,2025-08-08,1,,,,,キリュウホームズ,0
2115,8021003016321,新規,0,2025-08-08,2025-08-08,合同会社ＭＹマネージメント,,合同会社,神奈川県,座間市,広野台１丁目２４番３２－５０４号,,14,216,2520012,,,,,,,2025-08-08,1,,,,,エムワイマネージメント,0
2129,8030001167951,新規,0,2025-08-08,2025-08-08,株式会社スターリング,,株式会社,埼玉県,朝霞市,膝折町４丁目１８番１１－８０６号,,11,227,3510014,,,,,,,2025-08-08,1,,,,,スターリング,0
2130,8030001168000,新規,0,2025-08-08,2025-08-08,株式会社アイビー,,株式会社,埼玉県,比企郡鳩山町,楓ヶ丘２丁目２７－９,,11,348,3500314,,,,,,,2025-08-08,1,,,,,アイビー,0
2131,8030001168017,新規,0,2025-08-08,2025-08-08,ひなた物流サービス株式会社,,株式会社,埼玉県,川口市,東川口１丁目３２番１５号,,11,203,3330801,,,,,,,2025-08-08,1,,,,,ヒナタブツリュウサービス,0
2132,8030001168066,新規,0,2025-08-08,2025-08-08,株式会社イノウエ,,株式会社,埼玉県,朝霞市,本町１丁目３４番４３－４１４号,,11,227,3510011,,,,,,,2025-08-08,1,,,,,イノウエ,0
2133,8030001168099,新規,0,2025-08-08,2025-08-08,株式会社Ｒｉｓｉｎｇ　Ｓｕｎ,,株式会社,埼玉県,さいたま市見沼区,春野１丁目３番１－８０４号,,11,104,3370002,,,,,,,2025-08-08,1,,,,,ライジングサン,0
2134,8030001168108,新規,0,2025-08-08,2025-08-08,株式会社星橋,,株式会社,埼玉県,川口市,芝中田１丁目３－１７セイクレッドツカサ１０１号室,,11,203,3330847,,,,,,,2025-08-08,1,,,,,ホシハシ,0
2137,8030005022236,新規,0,2025-08-08,2025-08-08,一般社団法人相続相談センター,,その他の設立登記法人,埼玉県,所沢市,大字久米５５１番地の３,,11,208,3591131,,,,,,,2025-08-08,1,,,,,ソウゾクソウダンセンター,0
2143,8040001139900,新規,0,2025-08-08,2025-08-08,株式会社むすび,,株式会社,千葉県,市川市,大野町１丁目４０３番地２０,,12,203,2720805,,,,,,,2025-08-08,1,,,,,ムスビ,0
2149,8050001057052,新規,0,2025-08-08,2025-08-08,株式会社ＹＯＬＯ,,株式会社,茨城県,那珂郡東海村,大字石神内宿２１７６番地１２,,08,341,3191102,,,,,,,2025-08-08,1,,,,,ヨーロー,0
2154,8060001038489,新規,0,2025-08-08,2025-08-08,株式会社エコぷら,,株式会社,栃木県,佐野市,北茂呂町２－１４,,09,204,3270827,,,,,,,2025-08-08,1,,,,,エコプラ,0
2155,8060001038497,新規,0,2025-08-08,2025-08-08,株式会社ウィングストン,,株式会社,栃木県,宇都宮市,馬場通り１丁目１番１－３０７号,,09,201,3200026,,,,,,,2025-08-08,1,,,,,ウィングストン,0
2156,8060003005677,新規,0,2025-08-08,2025-08-08,合同会社辻が幸,,合同会社,栃木県,宇都宮市,富士見が丘３丁目２３番６号,,09,201,3200011,,,,,,,2025-08-08,1,,,,,ツジガサチ,0
2157,8070001043224,新規,0,2025-08-08,2025-08-08,株式会社でぐち設計,,株式会社,群馬県,前橋市,日吉町３丁目３１－２０岡田ビル２－Ａ,,10,201,3710017,,,,,,,2025-08-08,1,,,,,デグチセッケイ,0
2161,8070003006039,新規,0,2025-08-08,2025-08-08,モンタレジャパン合同会社,,合同会社,群馬県,伊勢崎市,八斗島町１６２２番地４,,10,204,3720827,,,,,,,2025-08-08,1,,,,,,0
2162,8080001027085,新規,0,2025-08-08,2025-08-08,株式会社ロイヤルタケシタ,,株式会社,静岡県,静岡市葵区,大岩本町２６番３６号,,22,101,4200884,,,,,,,2025-08-08,1,,,,,ロイヤルタケシタ,0
2163,8080003003522,新規,0,2025-08-08,2025-08-08,合同会社アンドリング,,合同会社,静岡県,静岡市清水区,蒲原１丁目１２番１０号,,22,103,4213203,,,,,,,2025-08-08,1,,,,,アンドリング,0
2168,8090001019453,新規,0,2025-08-08,2025-08-08,株式会社Ｂ・Ｊ,,株式会社,山梨県,甲府市,和戸町１１４９番地,,19,201,4000812,,,,,,,2025-08-08,1,,,,,ビージェイ,0
2172,8100001038856,新規,0,2025-08-08,2025-08-08,株式会社ＯＰＥＮ　ＯＫＡＹＡ,,株式会社,長野県,岡谷市,郷田１丁目４番１１号岡谷商工会館２階,,20,204,3940021,,,,,,,2025-08-08,1,,,,,オープンオカヤ,0
2177,8110001039498,新規,0,2025-08-08,2025-08-08,株式会社ｅｒａ,,株式会社,新潟県,新潟市中央区,女池東１丁目５番１３号,,15,103,9500984,,,,,,,2025-08-08,1,,,,,エラ,0
2195,8120001278566,新規,0,2025-08-08,2025-08-08,株式会社エイトプロモーション,,株式会社,大阪府,大阪市東淀川区,南江口３丁目２番４号カサ・アルメリア２０３号,,27,114,5330003,,,,,,,2025-08-08,1,,,,,エイトプロモーション,0
2196,8120001278590,新規,0,2025-08-08,2025-08-08,株式会社曽田財務経営支援,,株式会社,大阪府,大阪市中央区,南船場３丁目２番２２号おおきに南船場ビル２０５,,27,128,5420081,,,,,,,2025-08-08,1,,,,,ソタザイムケイエイシエン,0
2197,8120001278608,新規,0,2025-08-08,2025-08-08,心愛警備株式会社,,株式会社,大阪府,大阪市西成区,天下茶屋３丁目２３－１２,,27,122,5570014,,,,,,,2025-08-08,1,,,,,シンアイケイビ,0
2198,8120001278640,新規,0,2025-08-08,2025-08-08,株式会社ＳＡＮＫＩ,,株式会社,大阪府,大阪市東淀川区,東中島１丁目１７番５－８４９号,,27,114,5330033,,,,,,,2025-08-08,1,,,,,サンキ,0
2199,8120001278649,新規,0,2025-08-08,2025-08-08,株式会社ウィンズ西日本,,株式会社,大阪府,大阪市西区,江戸堀２丁目１番１号江戸堀センタービル９階,,27,106,5500002,,,,,,,2025-08-08,1,,,,,ウィンズニシニホン,0
2202,8120003030215,新規,0,2025-08-08,2025-08-08,桜橋国際合同会社,,合同会社,大阪府,大阪市住吉区,杉本１丁目９番１６－４０１号,,27,120,5580022,,,,,,,2025-08-08,1,,,,,サクラバシコクサイ,0
2203,8120005025056,新規,0,2025-08-08,2025-08-08,医療法人美心会,,その他の設立登記法人,大阪府,大阪市中央区,博労町３丁目６番１５号船場心斎橋筋ＦＵＫＵＢＬＤ．２階,,27,128,5410059,,,,,,,2025-08-08,1,,,,,ビシンカイ,0
2205,8120101072233,新規,0,2025-08-08,2025-08-08,株式会社ルル・クラウン,,株式会社,大阪府,松原市,松ケ丘３丁目１番８号,,27,217,5800042,,,,,,,2025-08-08,1,,,,,ルルクラウン,0
2207,8120103006627,新規,0,2025-08-08,2025-08-08,豪大阪合同会社,,合同会社,大阪府,堺市西区,鳳東町５丁４８７番地１４２,,27,144,5938324,,,,,,,2025-08-08,1,,,,,ゴウオオサカ,0
2208,8120901051279,新規,0,2025-08-08,2025-08-08,二ノ丸株式会社,,株式会社,大阪府,茨木市,彩都やまぶき３丁目８番１６号,,27,211,5670086,,,,,,,2025-08-08,1,,,,,ニノマル,0
2211,8122001039493,新規,0,2025-08-08,2025-08-08,三東精機株式会社,,株式会社,大阪府,東大阪市,川俣１丁目８番２０号,,27,227,5770063,,,,,,,2025-08-08,1,,,,,サントウセイキ,0
2213,8130003010703,新規,0,2025-08-08,2025-08-08,ＡＲＦＡＮ　ＷＡＧＡＨ　ＴＲＡＤＩＮＧ合同会社,,合同会社,京都府,京都市伏見区,深草直違橋８丁目２３５番地,,26,109,6120889,,,,,,,2025-08-08,1,,,,,アルファンワガートレーディング,0
2215,8140001139568,新規,0,2025-08-08,2025-08-08,株式会社ＭＲＹ,,株式会社,兵庫県,芦屋市,山芦屋町２番２２号,00140221,28,206,6590082,,,,,,,2025-08-08,1,,,,,エムアールワイ,0
2216,8140001139601,新規,0,2025-08-08,2025-08-08,株式会社ブライト‐アド,,株式会社,兵庫県,神戸市灘区,城内通５丁目５番２３－６０４号,,28,102,6570836,,,,,,,2025-08-08,1,,,,,ブライトアド,0
2227,8140005027587,新規,0,2025-08-08,2025-08-08,一般社団法人日本ＥＭＤＲ学会,,その他の設立登記法人,兵庫県,加東市,下久米９４２番地１兵庫教育大学発達心理臨床研究センター市井研究室内,,28,228,6731415,,,,,,,2025-08-08,1,,,,,ニホンイーエムディーアールガッカイ,0
2232,8160003003547,新規,0,2025-08-08,2025-08-08,信頼モータース合同会社,,合同会社,滋賀県,甲賀市,甲賀町３１２番地１,,25,209,5280000,,,,,,,2025-08-08,1,,,,,シンライモータース,0
2235,8170005007165,新規,0,2025-08-08,2025-08-08,一般社団法人Ｃ‐ｉｔ,,その他の設立登記法人,和歌山県,和歌山市,本町２丁目２８,,30,201,6408033,,,,,,,2025-08-08,1,,,,,シーイット,0
2243,8180301040091,新規,0,2025-08-08,2025-08-08,株式会社Ｃａｌｍ,,株式会社,愛知県,刈谷市,今岡町荒神１６番地,,23,210,4480008,,,,,,,2025-08-08,1,,,,,カーム,0
2244,8180301040100,新規,0,2025-08-08,2025-08-08,ＷＡＫＵ　ＷＡＫＵ　ＰＬＡＮ株式会社,,株式会社,愛知県,西尾市,城崎町６丁目１番地４,,23,213,4450065,,,,,,,2025-08-08,1,,,,,ワクワクプラン,0
2247,8200001044118,新規,0,2025-08-08,2025-08-08,岐阜株式会社,,株式会社,岐阜県,各務原市,那加栄町１５番地１,,21,213,5040954,,,,,,,2025-08-08,1,,,,,ギフ,0
2248,8200003006966,新規,0,2025-08-08,2025-08-08,寧彩合同会社,,合同会社,岐阜県,飛騨市,古川町上気多５５９番地,,21,217,5094212,,,,,,,2025-08-08,1,,,,,ネイロ,0
2249,8220001026832,新規,0,2025-08-08,2025-08-08,株式会社ＮＣ,,株式会社,石川県,金沢市,玉鉾３丁目２７１ファミーユオカザキ２０３,,17,201,9218002,,,,,,,2025-08-08,1,,,,,エヌシー,0
2261,8290001110968,新規,0,2025-08-08,2025-08-08,株式会社ムラタクリエイト,,株式会社,福岡県,福岡市南区,野間１丁目１９番１６号,,40,134,8150041,,,,,,,2025-08-08,1,,,,,ムラタクリエイト,0
2262,8290003017220,新規,0,2025-08-08,2025-08-08,合同会社浜田,,合同会社,福岡県,筑紫野市,大字古賀６９９番地１４,,40,217,8180047,,,,,,,2025-08-08,1,,,,,ハマダ,0
2272,8340003004923,新規,0,2025-08-08,2025-08-08,まちかどスタンドシグナル合同会社,,合同会社,鹿児島県,霧島市,隼人町真孝４２０番地２,,46,218,8995102,,,,,,,2025-08-08,1,,,,,マチカドスタンドシグナル,0
2273,8340005009895,新規,0,2025-08-08,2025-08-08,一般社団法人林業安全推進協会,,その他の設立登記法人,鹿児島県,曽於市,財部町南俣１１３３４番地１,,46,217,8994101,,,,,,,2025-08-08,1,,,,,リンギョウアンゼンスイシンキョウカイ,0
2274,8350001019690,新規,0,2025-08-08,2025-08-08,株式会社イ‐スタイルズ,,株式会社,宮崎県,宮崎市,薫る坂１丁目１８番２号,,45,201,8800947,,,,,,,2025-08-08,1,,,,,イースタイルズ,0
2275,8350001019699,新規,0,2025-08-08,2025-08-08,株式会社和結,,株式会社,宮崎県,宮崎市,大字金崎２２３４番地,,45,201,8802234,,,,,,,2025-08-08,1,,,,,ワユウ,0
2276,8350003004996,新規,0,2025-08-08,2025-08-08,ソルクスペース合同会社,,合同会社,宮崎県,都城市,郡元町２９５２番地８,,45,202,8850013,,,,,,,2025-08-08,1,,,,,ソルクスペース,0
2278,8360001035530,新規,0,2025-08-08,2025-08-08,ハングアウトクリエーション株式会社,,株式会社,沖縄県,宮古島市,平良字西里２０３２番地３,,47,214,9060012,,,,,,,2025-08-08,1,,,,,ハングアウトクリエーション,0
2286,8400001017128,新規,0,2025-08-08,2025-08-08,株式会社グーガ,,株式会社,岩手県,奥州市,水沢姉体町字山居３９番地４,,03,215,0230831,,,,,,,2025-08-08,1,,,,,グーガ,0
2291,8430001094957,新規,0,2025-08-08,2025-08-08,株式会社ケイ・エム・ケイ,,株式会社,北海道,夕張郡由仁町,東三川４８１番地,,01,427,0691142,,,,,,,2025-08-08,1,,,,,ケイエムケイ,0
2294,8480005007101,新規,0,2025-08-08,2025-08-08,一般社団法人本家蜂須賀,,その他の設立登記法人,徳島県,徳島市,一番町２丁目２８番地２,,36,201,7700833,,,,,,,2025-08-08,1,,,,,ホンケハチスカ,0
2296,8500001026457,新規,0,2025-08-08,2025-08-08,株式会社福栄,,株式会社,愛媛県,西条市,朔日市２０８番地１９,,38,206,7930027,,,,,,,2025-08-08,1,,,,,フクエイ,0
2298,8700150044776,新規,0,2025-08-08,2015-10-09,静岡県高等学校しょうがい児学校ユニオン,,その他,静岡県,静岡市葵区,追手町４５日興ビル３階,,22,101,4200853,,,,,,,2015-10-09,1,,,,,シズオカケンコウトウガツコウシヨウガイジガツコウユニオン,0
2299,8700150058355,新規,0,2025-08-08,2015-10-09,高知県中央西食品衛生協会,,その他,高知県,高岡郡佐川町,甲１２４３－４,,39,402,7891201,,,,,,,2015-10-09,1,,,,,コウチケンチユウオウニシシヨクヒンエイセイキヨウカイ,0
2300,8700150131715,新規,0,2025-08-08,2025-08-08,Ｒ＆Ｒ　ＧＥＮＥＲＡＬ　ＬＡＮＫＡ　ＰＶＴ　ＬＴＤ,,外国会社等,埼玉県,羽生市,大字今泉５４４　イエロ－タウン２,,11,216,3480017,スリランカ民主社会主義共和国バトゥゴダ、カサワッタ、４６０／１０番地,,,,,,2025-08-08,1,,,,,アールアンドアールジエネラルランカプライベツトリミテツド,0
2315,9010001257365,新規,0,2025-08-08,2025-08-08,Ｔｈｉｎｇｓ　Ｒｅｖｏｌｕｔｉｏｎ株式会社,,株式会社,東京都,千代田区,九段北４丁目１番３号,,13,101,1020073,,,,,,,2025-08-08,1,,,,,シングスレボリューション,0
2318,9010003048242,新規,0,2025-08-08,2025-08-08,合同会社ＵＡ東京０４,,合同会社,東京都,中央区,日本橋２丁目１番１８号,,13,102,1030027,,,,,,,2025-08-08,1,,,,,ユーエートウキョウゼロヨン,0
2319,9010003048275,新規,0,2025-08-08,2025-08-08,合同会社袋井プロジェクト,,合同会社,東京都,中央区,日本橋１丁目４番１号,,13,102,1030027,,,,,,,2025-08-08,1,,,,,フクロイプロジェクト,0
2320,9010003048358,新規,0,2025-08-08,2025-08-08,ＮＥＷ　ＲＩＶＥＲ　ＷＩＮＥ合同会社,,合同会社,東京都,中央区,新川２丁目２１番１０号,,13,102,1040033,,,,,,,2025-08-08,1,,,,,ニューリバーワイン,0
2321,9010005040478,新規,0,2025-08-08,2025-08-08,一般社団法人日本常温合材協会,,その他の設立登記法人,東京都,中央区,日本橋堀留町２丁目８番１１－４０１号,,13,102,1030012,,,,,,,2025-08-08,1,,,,,ニッポンジョウオンゴウザイキョウカイ,0
2339,9010401192187,新規,0,2025-08-08,2025-08-08,株式会社アーティストキャリア,,株式会社,東京都,港区,西麻布４丁目１－１麻布霞町ビル２Ｆ,,13,103,1060031,,,,,,,2025-08-08,1,,,,,アーティストキャリア,0
2340,9010401192278,新規,0,2025-08-08,2025-08-08,株式会社Ｎｅｕｌｉｎｋ,,株式会社,東京都,港区,北青山１丁目３番３号三橋ビル３階,,13,103,1070061,,,,,,,2025-08-08,1,,,,,ニューリンク,0
2341,9010401192311,新規,0,2025-08-08,2025-08-08,Ｒａｉｎｅｓｕ　Ｄｉｇｉｔａｌ株式会社,,株式会社,東京都,港区,新橋５丁目１２番１１号天翔オフィス８０９号,,13,103,1050004,,,,,,,2025-08-08,1,,,,,ライネスデジタル,0
2342,9010401192328,新規,0,2025-08-08,2025-08-08,株式会社ＪＩＬＬ,,株式会社,東京都,港区,六本木３丁目７番１号,,13,103,1060032,,,,,,,2025-08-08,1,,,,,ジル,0
2343,9010401192344,新規,0,2025-08-08,2025-08-08,株式会社ＴｏｍｏｒｒｏｗＰｒｏｏｆ,,株式会社,東京都,港区,南青山７丁目１番２７－７０２号,,13,103,1070062,,,,,,,2025-08-08,1,,,,,トゥモロープルーフ,0
2344,9010401192360,新規,0,2025-08-08,2025-08-08,株式会社ＡＹ２,,株式会社,東京都,港区,赤坂８丁目６番９－５０１号,,13,103,1070052,,,,,,,2025-08-08,1,,,,,エイワイツー,0
2346,9010403035798,新規,0,2025-08-08,2025-08-08,Ｃａｄｅａｕｘ　Ｂｅｂｉｎｉａ合同会社,,合同会社,東京都,港区,白金３丁目１番９ー１０１号,,13,103,1080072,,,,,,,2025-08-08,1,,,,,カドーベビニア,0
2349,9010601067742,新規,0,2025-08-08,2025-08-08,株式会社ワラウコーポレーション,,株式会社,東京都,江東区,東雲１丁目９－３２－１７０９,,13,108,1350062,,,,,,,2025-08-08,1,,,,,ワラウコーポレーション,0
2350,9010601067759,新規,0,2025-08-08,2025-08-08,株式会社アニマ,,株式会社,東京都,江東区,豊洲３丁目４番２－２６０６号,,13,108,1350061,,,,,,,2025-08-08,1,,,,,アニマ,0
2351,9010601067775,新規,0,2025-08-08,2025-08-08,株式会社ＧｏＹｏｕｒＷａｙ,,株式会社,東京都,江東区,青海２丁目２番Ｂ－２１７号,,13,108,1350064,,,,,,,2025-08-08,1,,,,,ゴーユアウェイ,0
2352,9010701048089,新規,0,2025-08-08,2025-08-08,株式会社ＧＥＡＲ２,,株式会社,東京都,品川区,東品川５丁目９－１５シティテラス品川イースト７０１,,13,109,1400002,,,,,,,2025-08-08,1,,,,,ギアセカンド,0
2353,9010701048147,新規,0,2025-08-08,2025-08-08,株式会社おんぶにだっこ,,株式会社,東京都,品川区,西五反田１丁目２６番２号五反田サンハイツ９１１,,13,109,1410031,,,,,,,2025-08-08,1,,,,,オンブニダッコ,0
2356,9010801036456,新規,0,2025-08-08,2025-08-08,株式会社ＳＡＬＩＮ,,株式会社,東京都,大田区,蒲田５丁目４５番６号－９０１,,13,111,1440052,,,,,,,2025-08-08,1,,,,,サリン,0
2358,9010901057889,新規,0,2025-08-08,2025-08-08,株式会社十六企画,,株式会社,東京都,世田谷区,北沢２丁目１０番１５号,,13,112,1550031,,,,,,,2025-08-08,1,,,,,ジュウロクキカク,0
2369,9011003022237,新規,0,2025-08-08,2025-08-08,シナルマス・スパイラル・ジャパン・テーマファンド合同会社,,合同会社,東京都,渋谷区,道玄坂１丁目１２番１号渋谷マークシティＷ２２階,,13,113,1500043,,,,,,,2025-08-08,1,,,,,シナルマススパイラルジャパンテーマファンド,0
2372,9011101112666,新規,0,2025-08-08,2025-08-08,カスガ・インベストメント株式会社,,株式会社,東京都,新宿区,四谷３丁目６番１６号星ヶ丘ビル２０１号室,,13,104,1600004,,,,,,,2025-08-08,1,,,,,カスガインベストメント,0
2374,9011403004784,新規,0,2025-08-08,2025-08-08,合同会社エデュケイト,,合同会社,東京都,板橋区,志村１丁目３２番３１号石原ビル２階,,13,119,1740056,,,,,,,2025-08-08,1,,,,,エデュケイト,0
2375,9011403004792,新規,0,2025-08-08,2025-08-08,合同会社アタッチメントラボ,,合同会社,東京都,板橋区,前野町６丁目３１番９号,,13,119,1740063,,,,,,,2025-08-08,1,,,,,アタッチメントラボ,0
2379,9012403007273,新規,0,2025-08-08,2025-08-08,合同会社幸世,,合同会社,東京都,小金井市,本町６丁目２番１０－１４０５号プラウドタワー武蔵小金井クロス,,13,210,1840004,,,,,,,2025-08-08,1,,,,,コウセイ,0
2382,9012803003822,新規,0,2025-08-08,2025-08-08,合同会社ＭＵＳＨＡ,,合同会社,東京都,国分寺市,西町３丁目３１番地１,,13,214,1850035,,,,,,,2025-08-08,1,,,,,ムシャ,0
2385,9013301054738,新規,0,2025-08-08,2025-08-08,株式会社だいてつ,,株式会社,東京都,豊島区,東池袋１丁目１３番１２号,,13,116,1700013,,,,,,,2025-08-08,1,,,,,ダイテツ,0
2386,9013301054754,新規,0,2025-08-08,2025-08-08,株式会社Ｓｍｉｌｅ　ＩＰ　Ｃｏｎｓｕｌｔｉｎｇ,,株式会社,東京都,豊島区,南池袋１丁目１６番１５号ダイヤゲート池袋５階,,13,116,1710022,,,,,,,2025-08-08,1,,,,,スマイルアイピーコンサルティング,0
2392,9020001164107,新規,0,2025-08-08,2025-08-08,株式会社ＨＤ１,,株式会社,神奈川県,川崎市宮前区,犬蔵２丁目３９番２－５１５号,,14,136,2160011,,,,,,,2025-08-08,1,,,,,エイチディーワン,0
2393,9020001164189,新規,0,2025-08-08,2025-08-08,株式会社富士山,,株式会社,神奈川県,横浜市西区,北幸１丁目１１番１号水信ビル７階,,14,103,2200004,,,,,,,2025-08-08,1,,,,,フジヤマ,0
2394,9020001164247,新規,0,2025-08-08,2025-08-08,株式会社ＡＬＰＨＡ,,株式会社,神奈川県,横浜市都筑区,川和町１７１５番地１１,,14,118,2240057,,,,,,,2025-08-08,1,,,,,アルファ,0
2395,9020001164255,新規,0,2025-08-08,2025-08-08,株式会社ＬＩＮＫ　ＵＰ,,株式会社,神奈川県,横浜市緑区,長津田町６１４５番地５,,14,113,2260026,,,,,,,2025-08-08,1,,,,,リンクアップ,0
2401,9020003029118,新規,0,2025-08-08,2025-08-08,ＭｅｄｉＢｏｕｑｕｅｔ合同会社,,合同会社,神奈川県,横浜市西区,平沼２丁目６番６号ライオンズマンション平沼第５・３０４号室,,14,103,2200023,,,,,,,2025-08-08,1,,,,,メディブーケ,0
2402,9021003016411,新規,0,2025-08-08,2025-08-08,合同会社伊豆おかっぱりだいちゃん,,合同会社,神奈川県,足柄下郡湯河原町,吉浜１８４７番地の２７,,14,384,2590312,,,,,,,2025-08-08,1,,,,,イズオカッパリダイチャン,0
2404,9021005013415,新規,0,2025-08-08,2025-08-08,一般社団法人じゅんしん,,その他の設立登記法人,神奈川県,相模原市緑区,橋本６丁目２番３－１２０８号,,14,151,2520143,,,,,,,2025-08-08,1,,,,,ジュンシン,0
2409,9030001167983,新規,0,2025-08-08,2025-08-08,株式会社ブルーカンパニー,,株式会社,埼玉県,川口市,大字安行領根岸１８２６番地の７,,11,203,3330834,,,,,,,2025-08-08,1,,,,,ブルーカンパニー,0
2410,9030001168008,新規,0,2025-08-08,2025-08-08,株式会社スリーポイント・サービス,,株式会社,埼玉県,富士見市,大字勝瀬９５２番地１,,11,235,3540031,,,,,,,2025-08-08,1,,,,,スリーポイントサービス,0
2411,9030001168016,新規,0,2025-08-08,2025-08-08,清水電工株式会社,,株式会社,埼玉県,川口市,戸塚東２丁目１２番９号ヴィラパルフェ戸塚２０２,,11,203,3330802,,,,,,,2025-08-08,1,,,,,シミズデンコウ,0
2412,9030001168024,新規,0,2025-08-08,2025-08-08,株式会社Ｓラボ,,株式会社,埼玉県,所沢市,糀谷２１６－３,,11,208,3591166,,,,,,,2025-08-08,1,,,,,エスラボ,0
2413,9030001168057,新規,0,2025-08-08,2025-08-08,ボトルキャップ株式会社,,株式会社,埼玉県,上尾市,仲町１丁目７番２７号アークエムビル７階－Ａ,,11,219,3620035,,,,,,,2025-08-08,1,,,,,ボトルキャップ,0
2416,9030003027327,新規,0,2025-08-08,2025-08-08,合同会社Ａｂｙｓｓｌｅａｄ,,合同会社,埼玉県,戸田市,上戸田５丁目９番１７号,,11,224,3350022,,,,,,,2025-08-08,1,,,,,アビスリード,0
2417,9030003027351,新規,0,2025-08-08,2025-08-08,日本プロダクトマネージメント合同会社,,合同会社,埼玉県,志木市,本町５丁目２３番２４号第３本吉ビル４階４４７号室,,11,228,3530004,,,,,,,2025-08-08,1,,,,,ニホンプロダクトマネージメント,0
2418,9030003027384,新規,0,2025-08-08,2025-08-08,合同会社アピズム・ヒューマナイト,,合同会社,埼玉県,新座市,畑中１丁目２１－２８,,11,230,3520012,,,,,,,2025-08-08,1,,,,,アピズムヒューマナイト,0
2421,9040001140056,新規,0,2025-08-08,2025-08-08,株式会社ココハル,,株式会社,千葉県,市川市,東大和田２丁目１４番２０号,,12,203,2720026,,,,,,,2025-08-08,1,,,,,ココハル,0
2425,9050005013678,新規,0,2025-08-08,2025-08-08,一般社団法人Ｂｅｓｈａ茨城阿見,,その他の設立登記法人,茨城県,稲敷郡阿見町,うずら野２丁目３０番地４０櫛田ハイツＣ－１０１号,,08,443,3000341,,,,,,,2025-08-08,1,,,,,ビーシャイバラキアミ,0
2427,9060001038488,新規,0,2025-08-08,2025-08-08,勝澤建設株式会社,,株式会社,栃木県,宇都宮市,兵庫塚１丁目９番２６号,,09,201,3210138,,,,,,,2025-08-08,1,,,,,カツサワケンセツ,0
2428,9060001038496,新規,0,2025-08-08,2025-08-08,株式会社Ｚ‐ＬＡＢＯ,,株式会社,栃木県,下野市,祇園２丁目１番地５,00140219,09,216,3290434,,,,,,,2025-08-08,1,,,,,ゼットラボ,0
2430,9060003005676,新規,0,2025-08-08,2025-08-08,合同会社７３オートディテイル,,合同会社,栃木県,宇都宮市,下栗町７０５番地２４,,09,201,3210923,,,,,,,2025-08-08,1,,,,,ナナサンオートディテイル,0
2436,9070001043231,新規,0,2025-08-08,2025-08-08,株式会社グリット,,株式会社,群馬県,富岡市,星田４２番地,,10,210,3702312,,,,,,,2025-08-08,1,,,,,グリット,0
2437,9070001043248,新規,0,2025-08-08,2025-08-08,株式会社シザモア,,株式会社,群馬県,伊勢崎市,連取町３３２６番地１,,10,204,3720812,,,,,,,2025-08-08,1,,,,,,0
2441,9070003006038,新規,0,2025-08-08,2025-08-08,合同会社このみ企画,,合同会社,群馬県,伊勢崎市,安堀町１９０７番地１０,,10,204,3720007,,,,,,,2025-08-08,1,,,,,コノミキカク,0
2442,9080001027084,新規,0,2025-08-08,2025-08-08,株式会社エヌライト,,株式会社,静岡県,静岡市清水区,吉川５５０番地の１,,22,103,4240055,,,,,,,2025-08-08,1,,,,,エヌライト,0
2446,9080401028095,新規,0,2025-08-08,2025-08-08,株式会社ベーシックホールディングス,,株式会社,静岡県,磐田市,大久保４７４番地８,,22,211,4380002,,,,,,,2025-08-08,1,,,,,ベーシックホールディングス,0
2448,9090003002869,新規,0,2025-08-08,2025-08-08,合同会社天翔,,合同会社,山梨県,甲斐市,大下条１５番地１０,,19,210,4000126,,,,,,,2025-08-08,1,,,,,テンショウ,0
2452,9110001039480,新規,0,2025-08-08,2025-08-08,株式会社新潟日報デジタル・イノベーション,,株式会社,新潟県,新潟市中央区,万代３丁目１番１号,,15,103,9500088,,,,,,,2025-08-08,1,,,,,ニイガタニッポウデジタルイノベーション,0
2463,9120001278532,新規,0,2025-08-08,2025-08-08,株式会社ＮｅｘｔＶｉｓｉｏｎ,,株式会社,大阪府,大阪市浪速区,桜川１丁目１番１４号セレニテ難波グランデシュッド１４１１,,27,111,5560022,,,,,,,2025-08-08,1,,,,,ネクストビジョン,0
2464,9120001278615,新規,0,2025-08-08,2025-08-08,株式会社フレーバーリンク,,株式会社,大阪府,大阪市中央区,内本町２丁目４番１０－１２０３号,,27,128,5400026,,,,,,,2025-08-08,1,,,,,フレーバーリンク,0
2465,9120001278656,新規,0,2025-08-08,2025-08-08,株式会社てまひま工房,,株式会社,大阪府,大阪市東成区,中道１丁目８番１３号,,27,115,5370025,,,,,,,2025-08-08,1,,,,,テマヒマコウボウ,0
2466,9120001278672,新規,0,2025-08-08,2025-08-08,星谷園株式会社,,株式会社,大阪府,大阪市都島区,片町２丁目５番６－３１１号,,27,102,5340025,,,,,,,2025-08-08,1,,,,,セイコクエン,0
2474,9120101072249,新規,0,2025-08-08,2025-08-08,株式会社Ｔｅａｌ　Ｒｉｓｅ,,株式会社,大阪府,堺市堺区,石津町３丁７番１９号,,27,141,5900814,,,,,,,2025-08-08,1,,,,,ティールライズ,0
2476,9120103006626,新規,0,2025-08-08,2025-08-08,合同会社ポノプロパティ,,合同会社,大阪府,堺市堺区,向陵中町５丁７番２７号,,27,141,5900024,,,,,,,2025-08-08,1,,,,,ポノプロパティ,0
2483,9120903005785,新規,0,2025-08-08,2025-08-08,合同会社ここじょぶ,,合同会社,大阪府,豊中市,庄内幸町４丁目１４番７号２Ｆ,,27,203,5610833,,,,,,,2025-08-08,1,,,,,ココジョブ,0
2498,9140001139518,新規,0,2025-08-08,2025-08-08,Ｃｌａｓｓｆｉｓｈホールディングス株式会社,,株式会社,兵庫県,西宮市,甲子園五番町１５番６号,,28,204,6638175,,,,,,,2025-08-08,1,,,,,クラスフィッシュホールディングス,0
2501,9140003022408,新規,0,2025-08-08,2025-08-08,合同会社Ｆ‐Ｒｅｓ,,合同会社,兵庫県,伊丹市,西台１丁目１－１伊丹阪急ビル５Ｆ,,28,207,6640858,,,,,,,2025-08-08,1,,,,,エフレス,0
2504,9170001018751,新規,0,2025-08-08,2025-08-08,株式会社和犬,,株式会社,和歌山県,和歌山市,土佐町２丁目５２番地２,,30,201,6408256,,,,,,,2025-08-08,1,,,,,ワケン,0
2505,9170003002258,新規,0,2025-08-08,2025-08-08,合同会社ユーアールエフ,,合同会社,和歌山県,橋本市,隅田町中島４５１番地の２１,,30,203,6480017,,,,,,,2025-08-08,1,,,,,ユーアールエフ,0
2506,9170003002266,新規,0,2025-08-08,2025-08-08,合同会社にかまさ,,合同会社,和歌山県,和歌山市,栄谷２３０番地６,,30,201,6408441,,,,,,,2025-08-08,1,,,,,ニカマサ,0
2514,9180301040090,新規,0,2025-08-08,2025-08-08,ｅｍｏｔｉｏｎ　ｃｏｍｐａｎｙ株式会社,,株式会社,愛知県,豊橋市,上野町字上ノ山７３番地９,,23,201,4418157,,,,,,,2025-08-08,1,,,,,エモーションカンパニー,0
2515,9180301040108,新規,0,2025-08-08,2025-08-08,株式会社セーソク,,株式会社,愛知県,刈谷市,半城土中町２丁目２９番地３,,23,210,4480805,,,,,,,2025-08-08,1,,,,,セーソク,0
2520,9200001044133,新規,0,2025-08-08,2025-08-08,株式会社木村工業,,株式会社,岐阜県,可児郡御嵩町,井尻８９番地８,,21,521,5050115,,,,,,,2025-08-08,1,,,,,キムラコウギョウ,0
2522,9200003006916,新規,0,2025-08-08,2025-08-08,ＲＯＭＡＮ　ＴＲＡＤＩＮＧ合同会社,,合同会社,岐阜県,羽島郡笠松町,桜町９７番地,,21,303,5016098,,,,,,,2025-08-08,1,,,,,ローマントレーディング,0
2523,9200003006957,新規,0,2025-08-08,2025-08-08,合同会社リハナビ,,合同会社,岐阜県,羽島郡笠松町,北及１６８８番地の５,,21,303,5016064,,,,,,,2025-08-08,1,,,,,リハナビ,0
2541,9250003003784,新規,0,2025-08-08,2025-08-08,合同会社アロット,,合同会社,山口県,山口市,小郡平成町３番２１－７０５号,,35,203,7540020,,,,,,,2025-08-08,1,,,,,アロット,0
2544,9270001009261,新規,0,2025-08-08,2025-08-08,株式会社ＭＥＲＩＵＳ,,株式会社,鳥取県,米子市,角盤町２丁目６４番地３Ｆ,,31,202,6830812,,,,,,,2025-08-08,1,,,,,メリウス,0
2554,9290001110926,新規,0,2025-08-08,2025-08-08,株式会社Ｐｌｕｓ　ｒＡｄ,,株式会社,福岡県,福岡市博多区,麦野２丁目４番４号,,40,132,8120882,,,,,,,2025-08-08,1,,,,,プラスラッド,0
2555,9290001110934,新規,0,2025-08-08,2025-08-08,株式会社クラフトキッチン,,株式会社,福岡県,古賀市,薦野１４６６番地,,40,223,8113122,,,,,,,2025-08-08,1,,,,,クラフトキッチン,0
2556,9290001110950,新規,0,2025-08-08,2025-08-08,株式会社フォレスト城,,株式会社,福岡県,八女市,星野村１０３７５番地１,,40,210,8340201,,,,,,,2025-08-08,1,,,,,フォレストジョウ,0
2557,9290001110959,新規,0,2025-08-08,2025-08-08,株式会社Ｓ＆Ｓ,,株式会社,福岡県,筑後市,大字熊野１０２１番地２９,,40,211,8330055,,,,,,,2025-08-08,1,,,,,エスアンドエス,0
2558,9290001110991,新規,0,2025-08-08,2025-08-08,株式会社万物小得,,株式会社,福岡県,福岡市博多区,博多駅前１丁目２３番２号ＰａｒｋＦｒｏｎｔ博多駅前１丁目５Ｆ－Ｂ,,40,132,8120011,,,,,,,2025-08-08,1,,,,,バンブツショウトク,0
2561,9300001014316,新規,0,2025-08-08,2025-08-08,株式会社ＴｒｉｎｉＴｅａ,,株式会社,佐賀県,嬉野市,嬉野町大字岩屋川内乙２１８９番地イ,,41,209,8430304,,,,,,,2025-08-08,1,,,,,トリニティ,0
2569,9310001019727,新規,0,2025-08-08,2025-08-08,株式会社Ｎ‐ｐｌａｎ,,株式会社,長崎県,長崎市,高尾町４６番１３号,,42,201,8528111,,,,,,,2025-08-08,1,,,,,エヌプラン,0
2574,9330001033445,新規,0,2025-08-08,2025-08-08,株式会社ｔｏガイド,,株式会社,熊本県,熊本市東区,長嶺南３丁目７番１１１－１０２号,,43,102,8618039,,,,,,,2025-08-08,1,,,,,トゥガイド,0
2580,9340003004922,新規,0,2025-08-08,2025-08-08,合同会社ＯＫフーズ,,合同会社,鹿児島県,出水市,向江町３３番７号,,46,208,8990206,,,,,,,2025-08-08,1,,,,,オッケーフーズ,0
2587,9370001052920,新規,0,2025-08-08,2025-08-08,株式会社三麓,,株式会社,宮城県,仙台市太白区,茂庭字川添西２４番地の３,,04,104,9820251,,,,,,,2025-08-08,1,,,,,サンロク,0
2592,9400001017135,新規,0,2025-08-08,2025-08-08,株式会社東北未来戦略グループ,,株式会社,岩手県,八幡平市,大更第２５地割１１３番地,,03,214,0287111,,,,,,,2025-08-08,1,,,,,トウホクミライセンリャクグループ,0
2595,9410003004139,新規,0,2025-08-08,2025-08-08,合同会社テックライジング,,合同会社,秋田県,秋田市,飯島道東１丁目４番１８号ライフキャップ飯島道東Ｓ号,,05,201,0110917,,,,,,,2025-08-08,1,,,,,テックライジング,0
2599,9430003017948,新規,0,2025-08-08,2025-08-08,Ｅｉｒａ　Ｊａｐａｎ合同会社,,合同会社,北海道,虻田郡倶知安町,北三条西１丁目１１番地１４,,01,400,0440053,,,,,,,2025-08-08,1,,,,,エイラジャパン,0
