sequenceNumber,corporateNumber,process,correct,updateDate,changeDate,name,nameImageId,kind,prefectureName,cityName,streetNumber,addressImageId,prefectureCode,cityCode,postCode,addressOutside,addressOutsideImageId,closeDate,closeCause,successorCorporateNumber,changeCause,assignmentDate,latest,enName,enPrefectureName,enCityName,enAddressOutside,furigana,hihyoji
3,1010001187438,登記記録の閉鎖等,0,2021-10-18,2021-10-08,株式会社近畿日本ツーリスト関東,,株式会社,東京都,新宿区,西新宿２丁目６番１号,,13,104,1600023,,,2021-10-08,合併による解散等,2010001187437,令和３年１０月１日東京都新宿区西新宿二丁目６番１号近畿日本ツーリスト株式会社（2010001187437）に合併し解散,2017-11-06,1,,,,,キンキニッポンツーリストカントウ,0
10,1010003031156,登記記録の閉鎖等,0,2021-10-18,2021-10-12,合同会社ＧＴＬヘルスケア２,,合同会社,東京都,中央区,日本橋１丁目４番１号,,13,102,1030027,,,2021-10-12,清算の結了等,,,2019-11-28,1,,,,,ジーティーエルヘルスケアツー,0
12,1010005021857,登記記録の閉鎖等,0,2021-10-18,2021-10-12,弁護士法人モントローズ法律事務所,,その他の設立登記法人,東京都,新宿区,新宿２丁目９番２３号ＳＶＡＸ新宿ビルＢ館９階,,13,104,1600022,,,2021-10-12,清算の結了等,,,2015-10-05,1,,,,,モントローズホウリツジムショ,0
14,1010005029446,登記記録の閉鎖等,0,2021-10-18,2021-10-12,浜松ビルマネジメント特定目的会社,,その他の設立登記法人,東京都,中央区,日本橋２丁目７番１号,,13,102,1030027,,,2021-10-12,清算の結了等,,,2018-12-06,1,,,,,ハママツビルマネジメント,0
17,1010401063825,登記記録の閉鎖等,0,2021-10-18,2021-10-05,株式会社ＧＯＤＹ’Ｓ,,株式会社,東京都,港区,芝１丁目２－１クレストプライムタワー芝１２０３,,13,103,1050014,,,2021-10-05,清算の結了等,,,2015-10-05,1,,,,,ゴーディーズ,0
20,1010401073163,登記記録の閉鎖等,0,2021-10-18,2021-10-06,株式会社ＲＨフィナンシャル,,株式会社,埼玉県,入間市,大字下藤沢１０８４番１Ｂ－２１４,,11,225,3580011,,,2021-10-06,清算の結了等,,,2015-10-05,1,,,,,アールエイチフィナンシャル,0
30,1010403015320,登記記録の閉鎖等,0,2021-10-18,2021-10-04,ＭＡＲＥ合同会社,,合同会社,東京都,港区,南青山３丁目１０番４１号,,13,103,1070062,,,2021-10-04,清算の結了等,,,2016-09-14,1,,,,,マレ,0
31,1010403017507,登記記録の閉鎖等,0,2021-10-18,2021-10-04,合同会社桜道７,,合同会社,東京都,港区,西麻布３丁目２番９号サンライズ六本木４Ｃ,,13,103,1060031,,,2021-10-04,清算の結了等,,,2017-10-27,1,,,,,サクラミチナナ,0
43,1010701018867,登記記録の閉鎖等,0,2021-10-18,2021-10-13,フェニックス・テクノロジーズ株式会社,,株式会社,東京都,品川区,西五反田２丁目１２番１９号五反田ＮＮビル８階,,13,109,1410031,,,2021-10-13,清算の結了等,,,2015-10-05,1,,,,,フェニックステクノロジーズ,0
76,1012705001519,登記記録の閉鎖等,0,2021-10-18,2021-10-15,特定非営利活動法人東久留米福祉オンブズの会,,その他の設立登記法人,東京都,東久留米市,八幡町１丁目９番２８号Ｃ－５０１,,13,222,2030042,,,2021-10-15,清算の結了等,,,2015-10-05,1,,,,,ヒガシクルメフクシオンブズノカイ,0
78,1013301020004,登記記録の閉鎖等,0,2021-10-18,2021-10-11,株式会社宣秀,,株式会社,東京都,豊島区,高田３丁目５番５号,,13,116,1710033,,,2021-10-11,清算の結了等,,,2015-10-05,1,,,,,,0
85,1021001045460,登記記録の閉鎖等,0,2021-10-18,2021-10-13,ソニーエンジニアリング株式会社,,株式会社,神奈川県,藤沢市,辻堂新町３丁目３番１号,,14,205,2510042,,,2021-10-13,合併による解散等,6010401067409,令和３年１０月１日東京都港区港南一丁目７番１号ソニーグローバルマニュファクチャリング＆オペレーションズ株式会社（6010401067409）に合併し解散,2015-10-05,1,,,,,ソニーエンジニアリング,0
89,1030001033078,登記記録の閉鎖等,0,2021-10-18,2021-10-05,関東信号産業株式会社,,株式会社,埼玉県,加須市,旗井２丁目３４番地６,,11,210,3491132,,,2021-10-05,清算の結了等,,,2015-10-05,1,,,,,カントウシンゴウサンギョウ,0
113,1030003005174,登記記録の閉鎖等,0,2021-10-18,2021-10-06,ＭＩ開発合同会社,,合同会社,埼玉県,鴻巣市,赤見台３丁目２１番１２号,,11,217,3650064,,,2021-10-06,清算の結了等,,,2015-10-05,1,,,,,エムアイ,0
120,1040002039461,登記記録の閉鎖等,0,2021-10-18,2021-10-08,有限会社商設計デザイン,,有限会社,千葉県,市川市,田尻４丁目９番１６号,,12,203,2720014,,,2021-10-08,清算の結了等,,,2015-10-05,1,,,,,ショウセッケイデザイン,0
131,1080002003505,登記記録の閉鎖等,0,2021-10-18,2021-10-14,有限会社第一重電,,有限会社,静岡県,静岡市駿河区,下川原２丁目３２番１４号,,22,102,4210113,,,2021-10-14,清算の結了等,,,2015-10-05,1,,,,,ダイイチジュウデン,0
135,1080402015257,登記記録の閉鎖等,0,2021-10-18,2021-10-11,有限会社鳥茂,,有限会社,静岡県,浜松市浜北区,小松４６０９番地の２,,22,136,4340042,,,2021-10-11,清算の結了等,,,2015-10-05,1,,,,,トリシゲ,0
143,1110003001363,登記記録の閉鎖等,0,2021-10-18,2021-10-11,長谷川合名会社,,合名会社,新潟県,上越市,北本町１丁目２番１号,,15,222,9430828,,,2021-10-11,清算の結了等,,,2015-10-05,1,,,,,ハセガワ,0
145,1120001017492,登記記録の閉鎖等,0,2021-10-18,2021-10-13,株式会社佐原製作所,,株式会社,奈良県,北葛城郡王寺町,明神１丁目９番４２号,,29,425,6360022,,,2021-10-13,清算の結了等,,,2015-10-05,1,,,,,サハラセイサクショ,0
159,1120101036343,登記記録の閉鎖等,0,2021-10-18,2021-10-13,株式会社小川工務店,,株式会社,大阪府,岸和田市,尾生町３丁目１番２６号,,27,202,5960816,,,2021-10-13,清算の結了等,,,2015-10-05,1,,,,,,0
170,1130001005546,登記記録の閉鎖等,0,2021-10-18,2021-10-14,株式会社みやび,,株式会社,京都府,京都市北区,上賀茂馬ノ目町４１番地の４,,26,101,6038033,,,2021-10-14,清算の結了等,,,2015-10-05,1,,,,,ミヤビ,0
189,1150001016426,登記記録の閉鎖等,0,2021-10-18,2021-10-14,株式会社アイティーエス,,株式会社,奈良県,桜井市,大字谷１６１番地の７,,29,206,6330053,,,2021-10-14,清算の結了等,,,2015-10-05,1,,,,,アイティーエス,0
198,1180001059034,登記記録の閉鎖等,0,2021-10-18,2021-10-11,ワイ・ユウ・ケイ株式会社,,株式会社,神奈川県,川崎市中原区,小杉御殿町２丁目６７番地６,,14,133,2110068,,,2021-10-11,清算の結了等,,,2015-10-05,1,,,,,ワイユウケイ,0
201,1180001085170,登記記録の閉鎖等,0,2021-10-18,2021-10-13,株式会社丸靖,,株式会社,愛知県,一宮市,木曽川町外割田一の通り１９番地,,23,203,4930007,,,2021-10-13,清算の結了等,,,2015-10-05,1,,,,,マルヤス,0
213,1180003020480,登記記録の閉鎖等,0,2021-10-18,2021-10-13,ライブキャリア合同会社,,合同会社,愛知県,犬山市,桃山台１丁目１０番地,,23,215,4840839,,,2021-10-13,清算の結了等,,,2019-10-30,1,,,,,ライブキャリア,0
218,1200002002989,登記記録の閉鎖等,0,2021-10-18,2021-10-14,有限会社中部精麦所,,有限会社,岐阜県,岐阜市,菊地町４丁目１１番地,,21,201,5008345,,,2021-10-14,清算の結了等,,,2015-10-05,1,,,,,チュウブセイバクショ,0
239,1290002019975,登記記録の閉鎖等,0,2021-10-18,2021-10-01,すこやかライフ・システム有限会社,,有限会社,福岡県,筑紫野市,紫１丁目４番１４号,,40,217,8180061,,,2021-10-01,清算の結了等,,,2015-10-05,1,,,,,スコヤカライフシステム,0
265,1430001056831,登記記録の閉鎖等,0,2021-10-18,2021-10-01,株式会社大師堂仏檀店,,株式会社,北海道,室蘭市,中島町１丁目２５番１０号,,01,205,0500074,,,2021-10-01,合併による解散等,3430001053265,令和３年１０月１日北海道苫小牧市双葉町三丁目２５番１３号株式会社めもりある大師堂（3430001053265）に合併し解散,2015-10-05,1,,,,,タイシドウブツダンテン,0
280,2010001090178,登記記録の閉鎖等,0,2021-10-18,2021-10-11,東京三和電業株式会社,,株式会社,東京都,千代田区,神田錦町３丁目６番地,,13,101,1010054,,,2021-10-11,清算の結了等,,,2015-10-05,1,,,,,トウキョウサンワデンギョウ,0
293,2010003017781,登記記録の閉鎖等,0,2021-10-18,2021-10-07,Ｓｕｎ　ａｎｄ　Ｓａｎｄｓ　Ｐｒｏｄｕｃｅｒ合同会社,,合同会社,東京都,千代田区,丸の内１丁目５番１号新丸の内ビルディング１０Ｆ日本創世ビレッジ,,13,101,1000005,,,2021-10-07,清算の結了等,,,2015-10-05,1,,,,,サンアンドサンズプロデューサー,0
337,2011301025971,登記記録の閉鎖等,0,2021-10-18,2021-10-06,株式会社コノ塾,,株式会社,東京都,新宿区,新宿４丁目３－１５レイフラット新宿Ｂ棟３Ｆ,,13,104,1600022,,,2021-10-06,合併による解散等,1011301025510,令和３年９月３０日東京都新宿区新宿４－３－１５レイフラット新宿Ｂ棟３Ｆ株式会社コノセル（1011301025510）に合併し解散,2020-07-01,1,,,,,コノジュク,0
340,2011602010813,登記記録の閉鎖等,0,2021-10-18,2021-10-14,有限会社ラブリー,,有限会社,東京都,練馬区,上石神井１丁目１１番１号,,13,120,1770044,,,2021-10-14,清算の結了等,,,2015-10-05,1,,,,,ラブリー,0
360,2020002044561,登記記録の閉鎖等,0,2021-10-18,2021-10-12,有限会社浜屋福富店,,有限会社,神奈川県,横浜市中区,福富町西通３４番地の１,,14,104,2310042,,,2021-10-12,清算の結了等,,,2015-10-05,1,,,,,ハマヤフクトミテン,0
363,2020005009974,登記記録の閉鎖等,0,2021-10-18,2021-10-11,特定非営利活動法人神＿会,00012141,その他の設立登記法人,神奈川県,横浜市神奈川区,台町１１番地３１,,14,102,2210834,,,2021-10-11,清算の結了等,,,2015-10-05,1,,,,,ジンチュウカイ,0
366,2021001049840,登記記録の閉鎖等,0,2021-10-18,2021-10-14,ＡＩＲ　ＴＲＵＳＴ株式会社,,株式会社,神奈川県,藤沢市,西富５３０番地の１サンプラザ湘南９０５,,14,205,2510001,,,2021-10-14,清算の結了等,,,2015-10-05,1,,,,,,0
368,2021002008523,登記記録の閉鎖等,0,2021-10-18,2021-10-13,有限会社公海,,有限会社,神奈川県,藤沢市,高倉６０６番地の１,,14,205,2520802,,,2021-10-13,清算の結了等,,,2015-10-05,1,,,,,,0
374,2030001031411,登記記録の閉鎖等,0,2021-10-18,2021-10-08,株式会社コスモス,,株式会社,埼玉県,幸手市,中１丁目２番６号,,11,240,3400115,,,2021-10-08,清算の結了等,,,2015-10-05,1,,,,,コスモス,0
375,2030001036229,登記記録の閉鎖等,0,2021-10-18,2021-10-06,株式会社とよだや商店,,株式会社,埼玉県,八潮市,大字西袋１２１６番地の１０,,11,234,3400833,,,2021-10-06,清算の結了等,,,2015-10-05,1,,,,,トヨダヤショウテン,0
381,2030001096801,登記記録の閉鎖等,0,2021-10-18,2021-10-05,麒麟株式会社,,株式会社,埼玉県,川口市,元郷５丁目３番地１１,,11,203,3320011,,,2021-10-05,清算の結了等,,,2015-10-05,1,,,,,キリン,0
391,2030002035097,登記記録の閉鎖等,0,2021-10-18,2021-10-05,有限会社木内環境計画事務所,,有限会社,埼玉県,入間市,久保稲荷１丁目１０番地１扇町屋団地１７－５０３,,11,225,3580024,,,2021-10-05,清算の結了等,,,2015-10-05,1,,,,,キウチカンキョウケイカクジムショ,0
394,2030002098540,登記記録の閉鎖等,0,2021-10-18,2021-10-08,有限会社アオキ,,有限会社,埼玉県,川口市,鳩ヶ谷本町２丁目２番３号,,11,203,3340002,,,2021-10-08,清算の結了等,,,2015-10-05,1,,,,,アオキ,0
395,2030002101213,登記記録の閉鎖等,0,2021-10-18,2021-10-11,有限会社大畑製作所,,有限会社,埼玉県,川口市,大字安行慈林８番地の２１,,11,203,3340071,,,2021-10-11,清算の結了等,,,2015-10-05,1,,,,,オオハタセイサクジョ,0
407,2040001104521,登記記録の閉鎖等,0,2021-10-18,2021-10-08,株式会社ｍｏｒｅ,,株式会社,千葉県,木更津市,江川３８１番地４－Ｂ１０１,,12,206,2920063,,,2021-10-08,清算の結了等,,,2018-05-09,1,,,,,モア,0
428,2080401021635,登記記録の閉鎖等,0,2021-10-18,2021-10-11,株式会社建鐵,,株式会社,静岡県,浜松市東区,篠ケ瀬町５８６番地の１テラス篠ヶ瀬３０１号,,22,132,4350042,,,2021-10-11,清算の結了等,,,2016-07-26,1,,,,,ケンテツ,0
431,2100002032590,登記記録の閉鎖等,0,2021-10-18,2021-10-13,有限会社おかめ堂,,有限会社,長野県,伊那市,荒井３４８１番地,,20,209,3960025,,,2021-10-13,清算の結了等,,,2015-10-05,1,,,,,オカメドウ,0
434,2110002002238,登記記録の閉鎖等,0,2021-10-18,2021-10-12,有限会社小林電気設備,,有限会社,新潟県,新潟市中央区,鳥屋野１丁目２番１２号,,15,103,9500951,,,2021-10-12,清算の結了等,,,2015-10-05,1,,,,,コバヤシデンキセツビ,0
438,2120001049254,登記記録の閉鎖等,0,2021-10-18,2021-10-13,エア技研工業株式会社,,株式会社,大阪府,大阪市西淀川区,大和田１丁目５番１２号,,27,113,5550032,,,2021-10-13,清算の結了等,,,2015-10-05,1,,,,,,0
442,2120001160003,登記記録の閉鎖等,0,2021-10-18,2021-10-05,株式会社ユウゴウネットサービス,,株式会社,大阪府,門真市,桑才新町３３番１１号,,27,223,5710043,,,2021-10-05,清算の結了等,,,2015-10-05,1,,,,,ユウゴウネットサービス,0
446,2120003014297,登記記録の閉鎖等,0,2021-10-18,2021-10-13,合同会社Ｒｅｂｅｌ,,合同会社,兵庫県,神戸市中央区,八幡通４丁目２番９号フラワーロードビル７階,,28,110,6510085,,,2021-10-13,清算の結了等,,,2018-05-30,1,,,,,レベル,0
451,2120102027571,登記記録の閉鎖等,0,2021-10-18,2021-10-14,有限会社サンアップ,,有限会社,大阪府,泉佐野市,葵町３丁目５番１８号,,27,213,5980014,,,2021-10-14,清算の結了等,,,2015-10-05,1,,,,,サンアップ,0
452,2122001018940,登記記録の閉鎖等,0,2021-10-18,2021-10-15,株式会社全伸金属,,株式会社,大阪府,八尾市,宮町６丁目６番２６号,,27,212,5810815,,,2021-10-15,清算の結了等,,,2015-10-05,1,,,,,ゼンシンキンゾク,0
457,2140001025708,登記記録の閉鎖等,0,2021-10-18,2021-10-11,株式会社コベル,,株式会社,兵庫県,神戸市中央区,伊藤町１１９番地,,28,110,6500032,,,2021-10-11,清算の結了等,,,2015-10-05,1,,,,,コベル,0
459,2140001070885,登記記録の閉鎖等,0,2021-10-18,2021-10-12,旭鉱産株式会社,,株式会社,兵庫県,西宮市,塩瀬町生瀬１３５２番１５,,28,204,6691101,,,2021-10-12,清算の結了等,,,2015-10-05,1,,,,,アサヒコウサン,0
477,2170002009772,登記記録の閉鎖等,0,2021-10-18,2021-10-14,有限会社オリジン,,有限会社,和歌山県,田辺市,上万呂１１８番地の１,,30,206,6460002,,,2021-10-14,清算の結了等,,,2015-10-05,1,,,,,オリジン,0
483,2180002077934,登記記録の閉鎖等,0,2021-10-18,2021-10-12,有限会社洋装のカトミ,,有限会社,愛知県,一宮市,本町３丁目１番１２号,,23,203,4910859,,,2021-10-12,清算の結了等,,,2015-10-05,1,,,,,ヨウソウノカトミ,0
485,2180005006122,登記記録の閉鎖等,0,2021-10-18,2021-10-13,特定非営利活動法人エコデザイン市民社会フォーラム,,その他の設立登記法人,愛知県,名古屋市東区,代官町３９番１８号,,23,102,4610002,,,2021-10-13,清算の結了等,,,2015-10-05,1,,,,,エコデザインシミンシャカイフォーラム,0
490,2180303000108,登記記録の閉鎖等,0,2021-10-18,2021-10-13,合名会社岡崎建具合同製作所,,合名会社,愛知県,岡崎市,両町１丁目４９番地,,23,202,4440023,,,2021-10-13,清算の結了等,,,2015-10-05,1,,,,,オカザキタテグゴウドウセイサクショ,0
491,2180303004595,登記記録の閉鎖等,0,2021-10-18,2021-10-12,合同会社Ｔ＆Ｒ,,合同会社,愛知県,名古屋市昭和区,滝川町７９番地,,23,107,4660826,,,2021-10-12,清算の結了等,,,2020-04-06,1,,,,,ティーアンドアール,0
497,2200005001104,登記記録の閉鎖等,0,2021-10-18,2021-10-14,岐阜県精麦工業協同組合,,その他の設立登記法人,岐阜県,岐阜市,菊地町４丁目１１番地,,21,201,5008345,,,2021-10-14,清算の結了等,,,2015-10-05,1,,,,,ギフケンセイバクコウギョウ,0
500,2230002013834,登記記録の閉鎖等,0,2021-10-18,2021-10-11,有限会社丸吉産業,,有限会社,富山県,射水市,二の丸町３４４番地の２,,16,211,9340026,,,2021-10-11,清算の結了等,,,2015-10-05,1,,,,,マルヨシサンギョウ,0
505,2260002008591,登記記録の閉鎖等,0,2021-10-18,2021-10-14,有限会社福壽荘,,有限会社,岡山県,岡山市北区,津倉町１丁目１２番１７号,,33,101,7000014,,,2021-10-14,清算の結了等,,,2015-10-05,1,,,,,フクジュソウ,0
523,2290002047348,登記記録の閉鎖等,0,2021-10-18,2021-10-01,有限会社辻ステンレス厨房設備,00093480,有限会社,福岡県,筑後市,大字久富９３番地の１,,40,211,8330056,,,2021-10-01,清算の結了等,,,2015-10-05,1,,,,,ツジステンレスチュウボウセツビ,0
547,2390001012160,登記記録の閉鎖等,0,2021-10-18,2021-10-12,株式会社美の菊地,,株式会社,山形県,西村山郡大江町,大字小見５００番地の４２,,06,324,9901122,,,2021-10-12,清算の結了等,,,2015-10-05,1,,,,,ビノキクチ,0
555,2440002007369,登記記録の閉鎖等,0,2021-10-18,2021-10-13,有限会社小さな樹,,有限会社,北海道,亀田郡七飯町,大川８丁目６番９号,,01,337,0411122,,,2021-10-13,清算の結了等,,,2015-10-05,1,,,,,チイサナキ,0
558,2700150005437,登記記録の閉鎖等,0,2021-10-18,2021-01-25,全国板硝子商厚生年金基金,,その他,東京都,港区,芝浦３丁目６－７,,13,103,1080023,,,2021-01-25,その他の清算の結了等,,,2015-10-09,1,,,,,ゼンコクイタガラスシヨウコウセイネンキンキキン,0
561,3010001187436,登記記録の閉鎖等,0,2021-10-18,2021-10-08,株式会社ＫＮＴ－ＣＴウエブトラベル,,株式会社,東京都,新宿区,西新宿２丁目６番１号,,13,104,1600023,,,2021-10-08,合併による解散等,2010001187437,令和３年１０月１日東京都新宿区西新宿二丁目６番１号近畿日本ツーリスト株式会社（2010001187437）に合併し解散,2017-11-06,1,,,,,ケイエヌティーシーティーウエブトラベル,0
573,3010003024661,登記記録の閉鎖等,0,2021-10-18,2021-10-06,オスカーＵＳファンディング６合同会社,,合同会社,東京都,千代田区,丸の内３丁目１番１号東京共同会計事務所内,,13,101,1000005,,,2021-10-06,清算の結了等,,,2017-01-16,1,,,,,オスカーユーエスファンディングシックス,0
586,3010501038114,登記記録の閉鎖等,0,2021-10-18,2021-10-05,株式会社オーク,,株式会社,東京都,墨田区,墨田４丁目１番２号,,13,107,1310031,,,2021-10-05,清算の結了等,,,2015-10-05,1,,,,,オーク,0
616,3011302011004,登記記録の閉鎖等,0,2021-10-18,2021-10-13,有限会社ティーエムアソシエイツ,,有限会社,東京都,杉並区,久我山３丁目３番１９号,,13,115,1680082,,,2021-10-13,清算の結了等,,,2015-10-05,1,,,,,ティーエムアソシエイツ,0
631,3012401016422,登記記録の閉鎖等,0,2021-10-18,2021-10-12,株式会社フジオカ,,株式会社,東京都,調布市,仙川町１丁目１番地１０ベルエール調布４０２,,13,208,1820002,,,2021-10-12,清算の結了等,,,2015-10-05,1,,,,,フジオカ,0
633,3012402012759,登記記録の閉鎖等,0,2021-10-18,2021-10-11,有限会社山本デンキ,,有限会社,東京都,調布市,下石原１丁目５番地７,,13,208,1820034,,,2021-10-11,清算の結了等,,,2015-10-05,1,,,,,ヤマモトデンキ,0
664,3030001015090,登記記録の閉鎖等,0,2021-10-18,2021-10-05,株式会社モティーズジャパン,,株式会社,埼玉県,さいたま市北区,日進町２丁目１４３３番地９,,11,102,3310823,,,2021-10-05,清算の結了等,,,2015-10-05,1,,,,,モティーズジャパン,0
671,3030001063511,登記記録の閉鎖等,0,2021-10-18,2021-10-11,株式会社アサヒホームテック,,株式会社,埼玉県,越谷市,大字大吉１０２５番地９,,11,222,3430008,,,2021-10-11,清算の結了等,,,2015-10-05,1,,,,,アサヒホームテック,0
673,3030001078055,登記記録の閉鎖等,0,2021-10-18,2021-10-07,株式会社スタジオ匠,,株式会社,埼玉県,川口市,大字里９８６番地４,,11,203,3340005,,,2021-10-07,清算の結了等,,,2015-10-05,1,,,,,スタジオタクミ,0
683,3030002004480,登記記録の閉鎖等,0,2021-10-18,2021-10-06,有限会社ケイエステクノ,,有限会社,埼玉県,さいたま市緑区,大字中尾２４１０番地,,11,109,3360932,,,2021-10-06,清算の結了等,,,2015-10-05,1,,,,,ケイエステクノ,0
700,3080002001382,登記記録の閉鎖等,0,2021-10-18,2021-10-15,有限会社カーベスト,,有限会社,静岡県,静岡市駿河区,宮本町１番２号,,22,102,4228065,,,2021-10-15,清算の結了等,,,2015-10-05,1,,,,,カーベスト,0
701,3080002014021,登記記録の閉鎖等,0,2021-10-18,2021-10-15,有限会社石川電子,,有限会社,静岡県,島田市,牛尾４４番地の４,,22,209,4280006,,,2021-10-15,清算の結了等,,,2015-10-05,1,,,,,,0
702,3080102010580,登記記録の閉鎖等,0,2021-10-18,2021-10-07,有限会社杉山バラ園,,有限会社,静岡県,駿東郡清水町,堂庭１６８番地の２,,22,341,4110903,,,2021-10-07,清算の結了等,,,2015-10-05,1,,,,,スギヤマバラエン,0
718,3110002030502,登記記録の閉鎖等,0,2021-10-18,2021-10-11,有限会社ホルスコンタクトレンズセンター,,有限会社,新潟県,長岡市,新町２丁目４番１５号,,15,202,9400023,,,2021-10-11,清算の結了等,,,2015-10-05,1,,,,,ホルスコンタクトレンズセンター,0
741,3130001011807,登記記録の閉鎖等,0,2021-10-18,2021-10-13,宮本紙行株式会社,,株式会社,京都府,京都市南区,東九条南河辺町４５番地,,26,107,6018034,,,2021-10-13,清算の結了等,,,2015-10-05,1,,,,,ミヤモトシコウ,0
746,3130002007572,登記記録の閉鎖等,0,2021-10-18,2021-10-14,有限会社中井染工場,,有限会社,京都府,京都市下京区,醒ケ井通仏光寺下る荒神町４５５．４５７番合地,,26,106,6008460,,,2021-10-14,清算の結了等,,,2015-10-05,1,,,,,ナカイソメコウジョウ,0
749,3130002025483,登記記録の閉鎖等,0,2021-10-18,2021-10-15,有限会社アイエスプランニング,,有限会社,京都府,向日市,寺戸町乾垣内５番地の５,,26,208,6170002,,,2021-10-15,清算の結了等,,,2015-10-05,1,,,,,アイエスプランニング,0
756,3140001084455,登記記録の閉鎖等,0,2021-10-18,2021-10-13,株式会社ＳＭＩＬ,,株式会社,兵庫県,伊丹市,森本７丁目１４２,,28,207,6640842,,,2021-10-13,清算の結了等,,,2015-10-05,1,,,,,,0
768,3180001058199,登記記録の閉鎖等,0,2021-10-18,2021-10-15,大和インキ工業株式会社,,株式会社,岐阜県,岐阜市,六条大溝１丁目１番６号,,21,201,5008357,,,2021-10-15,清算の結了等,,,2015-10-05,1,,,,,,0
782,3180002076654,登記記録の閉鎖等,0,2021-10-18,2021-10-12,有限会社鈴木薬局,,有限会社,愛知県,一宮市,城崎通７丁目１４番地,,23,203,4910866,,,2021-10-12,清算の結了等,,,2015-10-05,1,,,,,スズキヤッキョク,0
799,3220001008554,登記記録の閉鎖等,0,2021-10-18,2021-10-07,株式会社田中管財,,株式会社,東京都,中央区,日本橋２丁目１番１４号日本橋加藤ビルディング６階弁護士法人ＰＬＡＺＡ総合法律事務所内,,13,102,1030027,,,2021-10-07,清算の結了等,,,2015-10-05,1,,,,,タナカカンザイ,0
804,3240002051675,登記記録の閉鎖等,0,2021-10-18,2021-10-14,有限会社山口商店,,有限会社,広島県,尾道市,久保２丁目２１番１号,,34,205,7220045,,,2021-10-14,清算の結了等,,,2015-10-05,1,,,,,ヤマグチショウテン,0
809,3260005005833,登記記録の閉鎖等,0,2021-10-18,2021-10-15,高梁酒販協同組合,,その他の設立登記法人,岡山県,高梁市,成羽町下原９９９番地,,33,209,7160111,,,2021-10-15,清算の結了等,,,2015-10-05,1,,,,,タカハシシュハン,0
842,3350002017707,登記記録の閉鎖等,0,2021-10-18,2021-10-14,有限会社上野畜産,,有限会社,宮崎県,小林市,須木下田１３０８番地,,45,205,8860112,,,2021-10-14,清算の結了等,,,2015-10-05,1,,,,,ウエノチクサン,0
849,3370302001805,登記記録の閉鎖等,0,2021-10-18,2021-10-05,日本医療動産有限会社,,有限会社,宮城県,石巻市,駅前北通り３丁目４番１２号,,04,202,9860813,,,2021-10-05,清算の結了等,,,2015-10-05,1,,,,,ニホンイリョウダウサン,0
850,3380001012961,登記記録の閉鎖等,0,2021-10-18,2021-10-12,株式会社サンフレックス永谷園,,株式会社,福島県,いわき市,常磐下船尾町杭出作２３番地の１０,,07,204,9728312,,,2021-10-12,合併による解散等,5010401159314,令和３年１０月１日東京都港区西新橋二丁目３６番１号株式会社永谷園フーズ（5010401159314）に合併し解散,2015-10-05,1,,,,,サンフレックスナガタニエン,0
853,3390001006772,登記記録の閉鎖等,0,2021-10-18,2021-10-12,株式会社花笠食品,,株式会社,山形県,酒田市,砂越字中台１２３番地１,,06,204,9996701,,,2021-10-12,合併による解散等,5010401159314,令和３年１０月１日東京都港区西新橋二丁目３６番１号株式会社永谷園フーズ（5010401159314）に合併し解散,2015-10-05,1,,,,,ハナガサショクヒン,0
864,3430002063973,登記記録の閉鎖等,0,2021-10-18,2021-10-01,有限会社沖本商事,,有限会社,北海道,室蘭市,中島町１丁目２５番１０号,,01,205,0500074,,,2021-10-01,合併による解散等,3430001053265,令和３年１０月１日北海道苫小牧市双葉町三丁目２５番１３号株式会社めもりある大師堂（3430001053265）に合併し解散,2015-10-05,1,,,,,オキモトショウジ,0
874,3700150077120,登記記録の閉鎖等,0,2021-10-18,2021-06-30,虎ノ門一丁目地区市街地再開発組合,,その他,東京都,港区,西新橋２丁目１５番３号,,13,103,1050003,,,2021-06-30,その他の清算の結了等,,,2016-11-14,1,,,,,トラノモンイツチヨウメチクシガイチサイカイハツクミアイ,0
881,4010001178087,登記記録の閉鎖等,0,2021-10-18,2021-10-11,Ｐａｃｋｅｔ　Ｈｏｓｔ株式会社,,株式会社,東京都,千代田区,神田須田町２丁目２５番地ＧＹＢ秋葉原５階,,13,101,1010041,,,2021-10-11,清算の結了等,,,2016-09-05,1,,,,,パケットホスト,0
885,4010002039164,登記記録の閉鎖等,0,2021-10-18,2021-10-11,有限会社麻布永坂シティキャピタル,,有限会社,東京都,千代田区,九段南３丁目７番７号成和綜合会計事務所内,,13,101,1020074,,,2021-10-11,清算の結了等,,,2015-10-05,1,,,,,アザブナガサカシティキャピタル,0
886,4010003024041,登記記録の閉鎖等,0,2021-10-18,2021-10-11,合同会社ＭＢインベストメント１,,合同会社,東京都,千代田区,丸の内３丁目１番１号東京共同会計事務所内,,13,101,1000005,,,2021-10-11,清算の結了等,,,2016-09-01,1,,,,,エムビーインベストメントワン,0
889,4010005026853,登記記録の閉鎖等,0,2021-10-18,2021-10-13,ＪＴＳＩＩ一般社団法人,,その他の設立登記法人,東京都,千代田区,丸の内３丁目１番１号東京共同会計事務所内,,13,101,1000005,,,2021-10-13,清算の結了等,,,2017-05-16,1,,,,,ジェーティーエスツー,0
890,4010005026894,登記記録の閉鎖等,0,2021-10-18,2021-10-13,ＪＴＳＩＩＩ一般社団法人,,その他の設立登記法人,東京都,千代田区,丸の内３丁目１番１号東京共同会計事務所内,,13,101,1000005,,,2021-10-13,清算の結了等,,,2017-05-24,1,,,,,ジェーティーエススリー,0
892,4010102001552,登記記録の閉鎖等,0,2021-10-18,2021-10-14,有限会社岡本センターレス,,有限会社,東京都,八王子市,久保山町２丁目３４番地の３,,13,201,1920023,,,2021-10-14,清算の結了等,,,2015-10-05,1,,,,,,0
902,4010402010658,登記記録の閉鎖等,0,2021-10-18,2021-10-07,有限会社ピーエム・サン,,有限会社,東京都,中央区,東日本橋２丁目１３番５号,,13,102,1030004,,,2021-10-07,清算の結了等,,,2015-10-05,1,,,,,ピーエムサン,0
914,4010801015695,登記記録の閉鎖等,0,2021-10-18,2021-10-11,ビーアンドエイトレーディング株式会社,,株式会社,東京都,大田区,大森中１丁目１４番８号７０１,,13,111,1430014,,,2021-10-11,清算の結了等,,,2015-10-05,1,,,,,ビーアンドエイトレーディング,0
961,4020003001246,登記記録の閉鎖等,0,2021-10-18,2021-10-12,合資会社今井商店,,合資会社,神奈川県,横浜市西区,戸部本町４２番９号,,14,103,2200041,,,2021-10-12,清算の結了等,,,2015-10-05,1,,,,,イマイショウテン,0
971,4030001088185,登記記録の閉鎖等,0,2021-10-18,2021-10-11,ａｗｎｎ株式会社,,株式会社,埼玉県,深谷市,榛沢新田１１１８番地２,,11,218,3690221,,,2021-10-11,清算の結了等,,,2015-10-05,1,,,,,アウン,0
973,4030001118322,登記記録の閉鎖等,0,2021-10-18,2021-10-05,株式会社ルピナス,,株式会社,埼玉県,八潮市,大字鶴ケ曽根９１１番地,,11,234,3400802,,,2021-10-05,清算の結了等,,,2017-01-25,1,,,,,,0
1001,4080002001704,登記記録の閉鎖等,0,2021-10-18,2021-10-15,有限会社旭南高周波,,有限会社,静岡県,静岡市駿河区,西平松４６４番地の１,,22,102,4228016,,,2021-10-15,清算の結了等,,,2015-10-05,1,,,,,,0
1012,4110002034254,登記記録の閉鎖等,0,2021-10-18,2021-10-11,有限会社相川建設工業,,有限会社,新潟県,佐渡市,相川大間町３９番地１,,15,224,9521508,,,2021-10-11,清算の結了等,,,2015-10-05,1,,,,,,0
1028,4120005015102,登記記録の閉鎖等,0,2021-10-18,2021-10-14,一般社団法人公益活動推進協会,,その他の設立登記法人,大阪府,大阪市城東区,中央２丁目１２番１４号,,27,118,5360005,,,2021-10-14,清算の結了等,,,2015-10-05,1,,,,,コウエキカツドウスイシンキョウカイ,0
1029,4120101050886,登記記録の閉鎖等,0,2021-10-18,2021-10-08,株式会社増田工務店,,株式会社,大阪府,堺市北区,常磐町３丁２６番地２７,,27,146,5918001,,,2021-10-08,清算の結了等,,,2015-10-05,1,,,,,マスダコウムテン,0
1055,4180001074609,登記記録の閉鎖等,0,2021-10-18,2021-10-12,株式会社豊田電機商会,,株式会社,愛知県,春日井市,細木町２丁目１３８番地,,23,206,4860937,,,2021-10-12,清算の結了等,,,2015-10-05,1,,,,,トヨタデンキショウカイ,0
1070,4190001007170,登記記録の閉鎖等,0,2021-10-18,2021-10-14,株式会社伊勢禄,,株式会社,三重県,伊勢市,宇治中之切町２６番地,,24,203,5160025,,,2021-10-14,合併による解散等,9190001007851,令和３年１０月１日三重県伊勢市小俣町相合１３０６番地株式会社マスヤグループ本社（9190001007851）に合併し解散,2015-10-05,1,,,,,イセロク,0
1076,4210001016152,登記記録の閉鎖等,0,2021-10-18,2021-10-14,株式会社田村会計,,株式会社,福井県,小浜市,千種１丁目５番２１号,,18,204,9170072,,,2021-10-14,清算の結了等,,,2015-12-02,1,,,,,タムラカイケイ,0
1087,4240001008485,登記記録の閉鎖等,0,2021-10-18,2021-10-15,株式会社ニッソー,,株式会社,広島県,広島市西区,観音本町１丁目２２番２１号,,34,104,7330033,,,2021-10-15,清算の結了等,,,2015-10-05,1,,,,,ニッソー,0
1091,4240002024952,登記記録の閉鎖等,0,2021-10-18,2021-10-15,有限会社ＦＲＥＳＨムラタ,,有限会社,広島県,広島市佐伯区,藤の木３丁目１９番７号,,34,108,7315103,,,2021-10-15,清算の結了等,,,2015-10-05,1,,,,,フレッシュムラタ,0
1093,4260001019976,登記記録の閉鎖等,0,2021-10-18,2021-10-15,津山グリーン建設工業株式会社,,株式会社,岡山県,津山市,日上１６９番地１,,33,203,7080845,,,2021-10-15,清算の結了等,,,2015-10-05,1,,,,,ツヤマグリーンケンセツコウギョウ,0
1094,4260001028861,登記記録の閉鎖等,0,2021-10-18,2021-10-14,エグゼス株式会社,,株式会社,岡山県,岡山市中区,藤崎７０９番地１１,,33,102,7028006,,,2021-10-14,清算の結了等,,,2015-10-05,1,,,,,,0
1116,4300001000907,登記記録の閉鎖等,0,2021-10-18,2021-10-08,株式会社佐賀マツダ,,株式会社,佐賀県,佐賀市,下田町４番６号,,41,201,8400031,,,2021-10-08,合併による解散等,6310001005795,令和３年１０月１日長崎県佐世保市大和町９４３番地１西九州マツダ株式会社（6310001005795）に合併し解散,2015-10-05,1,,,,,サガマツダ,0
1118,4300001007183,登記記録の閉鎖等,0,2021-10-18,2021-10-11,株式会社唐津ゴルフ倶楽部,,株式会社,佐賀県,唐津市,菅牟田６４番地１,,41,202,8470882,,,2021-10-11,合併による解散等,9011101083619,令和３年９月３０日東京都新宿区西新宿六丁目２４番１号株式会社唐津ゴルフ倶楽部（9011101083619）に合併し解散,2015-10-05,1,,,,,カラツゴルフクラブ,0
1127,4340002022772,登記記録の閉鎖等,0,2021-10-18,2021-10-11,有限会社東村住建,,有限会社,鹿児島県,出水市,下鯖町９２０番地１,,46,208,8990123,,,2021-10-11,清算の結了等,,,2015-10-05,1,,,,,ヒガシムラジュウケン,0
1131,4350001011115,登記記録の閉鎖等,0,2021-10-18,2021-10-14,株式会社ジェイ,,株式会社,宮崎県,都城市,都北町７２６２番地,,45,202,8850004,,,2021-10-14,清算の結了等,,,2015-10-05,1,,,,,ジェイ,0
1145,4380002005344,登記記録の閉鎖等,0,2021-10-18,2021-10-12,有限会社県北霊柩,,有限会社,福島県,伊達郡国見町,大字藤田字沢田一３番地の３,,07,303,9691761,,,2021-10-12,清算の結了等,,,2015-10-05,1,,,,,ケンホクレイキュウ,0
1185,5010002018687,登記記録の閉鎖等,0,2021-10-18,2021-10-12,カナザワ・グラフィックス有限会社,,有限会社,東京都,中央区,勝どき２丁目１０番１６－６０９号,,13,102,1040054,,,2021-10-12,清算の結了等,,,2015-10-05,1,,,,,カナザワグラフィックス,0
1199,5010601028533,登記記録の閉鎖等,0,2021-10-18,2021-10-01,東武バスイースト株式会社,,株式会社,東京都,墨田区,押上１丁目１番２号,,13,107,1310045,,,2021-10-01,合併による解散等,7010601028531,令和３年１０月１日東京都墨田区押上一丁目１番２号東武バスセントラル株式会社（7010601028531）に合併し解散,2015-10-05,1,,,,,トウブバスイースト,0
1210,5011001099149,登記記録の閉鎖等,0,2021-10-18,2021-10-04,株式会社リブズパートナーズ,,株式会社,東京都,港区,芝公園１丁目１－１,,13,103,1050011,,,2021-10-04,合併による解散等,3011001099472,令和３年１０月１日東京都港区芝公園１－１－１株式会社リブ（3011001099472）に合併し解散,2015-10-05,1,,,,,リブズパートナーズ,0
1212,5011001131679,登記記録の閉鎖等,0,2021-10-18,2021-10-01,株式会社ｍａｋｅｔｈ,,株式会社,東京都,渋谷区,神宮前４丁目２６－２８,,13,113,1500001,,,2021-10-01,清算の結了等,,,2020-01-15,1,,,,,メイクス,0
1217,5011002027645,登記記録の閉鎖等,0,2021-10-18,2021-09-30,有限会社吉田アソシエイツ,,有限会社,東京都,渋谷区,広尾４丁目１番１１－９０４号,,13,113,1500012,,,2021-09-30,清算の結了等,,,2015-10-05,1,,,,,ヨシダアソシエイツ,0
1242,5020002057643,登記記録の閉鎖等,0,2021-10-18,2021-10-12,有限会社三和商事,,有限会社,神奈川県,横浜市瀬谷区,三ツ境１５番地１２,,14,114,2460022,,,2021-10-12,清算の結了等,,,2015-10-05,1,,,,,サンワショウジ,0
1263,5030002034113,登記記録の閉鎖等,0,2021-10-18,2021-10-04,有限会社戸田,,有限会社,埼玉県,狭山市,大字北入曽４３２番地の１,,11,215,3501315,,,2021-10-04,清算の結了等,,,2015-10-05,1,,,,,トダ,0
1265,5030002102357,登記記録の閉鎖等,0,2021-10-18,2021-10-05,有限会社工藤工務店,,有限会社,埼玉県,川口市,大字榛松１８４３番地,,11,203,3340062,,,2021-10-05,清算の結了等,,,2015-10-05,1,,,,,クドウコウムテン,0
1266,5030003009527,登記記録の閉鎖等,0,2021-10-18,2021-10-05,メテオフォース合同会社,,合同会社,埼玉県,鶴ヶ島市,松ヶ丘５丁目２７番１１号ベルメゾン鶴ヶ島５０５,,11,241,3502205,,,2021-10-05,清算の結了等,,,2016-11-10,1,,,,,,0
1275,5040002014543,登記記録の閉鎖等,0,2021-10-18,2021-10-04,有限会社リョーカイ,,有限会社,千葉県,千葉市中央区,旭町１６番４号３０３,,12,101,2600002,,,2021-10-04,合併による解散等,9040001020902,令和３年１０月１日千葉市中央区旭町１６番４号株式会社タムラ電気（9040001020902）に合併し解散,2015-10-05,1,,,,,リョーカイ,0
1312,5110001031367,登記記録の閉鎖等,0,2021-10-18,2021-10-05,株式会社安田スマイルファーム,,株式会社,新潟県,阿賀野市,六野瀬３１１番地１,,15,223,9592215,,,2021-10-05,清算の結了等,,,2016-03-24,1,,,,,ヤスダスマイルファーム,0
1313,5110001033669,登記記録の閉鎖等,0,2021-10-18,2021-10-11,株式会社ホシノ内装,,株式会社,新潟県,新潟市江南区,袋津６丁目２番５７号,,15,104,9500131,,,2021-10-11,清算の結了等,,,2018-11-30,1,,,,,ホシノナイソウ,0
1321,5120002003249,登記記録の閉鎖等,0,2021-10-18,2021-10-13,有限会社スマイリング,,有限会社,大阪府,大阪市阿倍野区,阪南町３丁目２４番５号,,27,119,5450021,,,2021-10-13,清算の結了等,,,2015-10-05,1,,,,,スマイリング,0
1327,5120902019856,登記記録の閉鎖等,0,2021-10-18,2021-10-14,有限会社丸中商店,,有限会社,大阪府,豊中市,新千里西町３丁目２番地,,27,203,5600083,,,2021-10-14,清算の結了等,,,2015-10-05,1,,,,,マルナカショウテン,0
1334,5130005014762,登記記録の閉鎖等,0,2021-10-18,2021-10-15,特定非営利活動法人みらいねっと,,その他の設立登記法人,京都府,宇治市,小倉町東山３５番１４号フォーブル南陽２０１号室,,26,204,6110042,,,2021-10-15,清算の結了等,,,2016-11-07,1,,,,,ミライネット,0
1371,5180002064970,登記記録の閉鎖等,0,2021-10-18,2021-10-13,有限会社アゼット,,有限会社,愛知県,小牧市,春日寺３丁目２５６番地,,23,219,4850025,,,2021-10-13,清算の結了等,,,2015-10-05,1,,,,,アゼット,0
1437,5470001018527,登記記録の閉鎖等,0,2021-10-18,2021-10-05,株式会社Ｎｅｖｅｒ,,株式会社,香川県,高松市,天神前１０番５号高松セントラルスカイビルディング３Ｆｓｏｕｔｈ,,37,201,7600018,,,2021-10-05,清算の結了等,,,2021-05-20,1,,,,,ネバー,0
1439,5490001009227,登記記録の閉鎖等,0,2021-10-18,2021-10-15,株式会社ソーラーパワー高知,,株式会社,高知県,高知市,はりまや町２丁目１２番１３号４Ｆ,,39,201,7800822,,,2021-10-15,清算の結了等,,,2019-04-03,1,,,,,ソーラーパワーコウチ,0
1441,5700150060875,登記記録の閉鎖等,0,2021-10-18,2021-06-28,西日本新聞エリアグループ佐賀,,その他,佐賀県,佐賀市,本庄町大字本庄２７６番地１６,,41,201,8400027,,,2021-06-28,その他の清算の結了等,,,2015-10-09,1,,,,,ニシニホンシンブンエリアグループサガ,0
1468,6010005023551,登記記録の閉鎖等,0,2021-10-18,2021-10-12,アセット・ワン特定目的会社,,その他の設立登記法人,東京都,中央区,日本橋１丁目４番１号,,13,102,1030027,,,2021-10-12,清算の結了等,,,2015-10-05,1,,,,,アセットワン,0
1474,6010401161079,登記記録の閉鎖等,0,2021-10-18,2021-10-01,株式会社ターゲット・デザイン,,株式会社,東京都,港区,三田２丁目１８番５号,,13,103,1080073,,,2021-10-01,合併による解散等,8010401033128,令和３年１０月１日東京都港区三田二丁目１８番５号株式会社ホライゾン（8010401033128）に合併し解散,2021-06-28,1,,,,,ターゲットデザイン,0
1480,6010701023838,登記記録の閉鎖等,0,2021-10-18,2021-10-11,株式会社セレックス,,株式会社,東京都,大田区,南六郷３丁目１４番６号,,13,111,1440045,,,2021-10-11,清算の結了等,,,2015-10-05,1,,,,,セレックス,0
1485,6010802010289,登記記録の閉鎖等,0,2021-10-18,2021-10-11,有限会社富樫製作所,,有限会社,東京都,大田区,南六郷３丁目２２番１４号,,13,111,1440045,,,2021-10-11,清算の結了等,,,2015-10-05,1,,,,,トガシセイサクショ,0
1512,6012403004273,登記記録の閉鎖等,0,2021-10-18,2021-10-12,ハウスリンクサポート合同会社,,合同会社,東京都,武蔵野市,吉祥寺本町１丁目３１番１１－７０１号,,13,203,1800004,,,2021-10-12,清算の結了等,,,2020-03-19,1,,,,,ハウスリンクサポート,0
1526,6020001135176,登記記録の閉鎖等,0,2021-10-18,2021-10-12,株式会社Ｍデザイン金属,,株式会社,神奈川県,川崎市川崎区,昭和１丁目４番８‐３０１号クリオ川崎大師東門前,,14,131,2100813,,,2021-10-12,清算の結了等,,,2020-03-04,1,,,,,エムデザインキンゾク,0
1535,6020005008849,登記記録の閉鎖等,0,2021-10-18,2021-10-11,ＮＰＯ法人川崎・富川－日韓美術交流会,,その他の設立登記法人,神奈川県,川崎市宮前区,神木本町１丁目２４番１３号,,14,136,2160031,,,2021-10-11,清算の結了等,,,2015-10-05,1,,,,,カワサキプチョンニッカンビジュツコウリュウカイ,0
1559,6030002107479,登記記録の閉鎖等,0,2021-10-18,2021-10-14,有限会社南工業,,有限会社,埼玉県,川口市,前川２丁目９番１号,,11,203,3330842,,,2021-10-14,清算の結了等,,,2015-10-05,1,,,,,ミナミコウギョウ,0
1570,6040002093149,登記記録の閉鎖等,0,2021-10-18,2021-10-08,有限会社メディア・サイアム,,有限会社,千葉県,我孫子市,青山台２丁目１６番７号,,12,222,2701175,,,2021-10-08,清算の結了等,,,2015-10-05,1,,,,,メディアサイアム,0
1571,6040003016488,登記記録の閉鎖等,0,2021-10-18,2021-10-08,ワンズ合同会社,,合同会社,千葉県,成田市,公津の杜１丁目２４番地８,,12,211,2860048,,,2021-10-08,清算の結了等,,,2020-11-19,1,,,,,ワンズ,0
1592,6080402010096,登記記録の閉鎖等,0,2021-10-18,2021-10-11,有限会社アルファーサプライ,,有限会社,静岡県,浜松市中区,早出町１６７７番地の１６,,22,131,4350054,,,2021-10-11,清算の結了等,,,2015-10-05,1,,,,,アルファーサプライ,0
1596,6100005005664,登記記録の閉鎖等,0,2021-10-18,2021-10-14,医療法人愛育会呉屋産婦人科,,その他の設立登記法人,長野県,松本市,村井町北１丁目５番１０号,,20,202,3990035,,,2021-10-14,清算の結了等,,,2015-10-05,1,,,,,アイイクカイゴヤサンフジンカ,0
1623,6140001047178,登記記録の閉鎖等,0,2021-10-18,2021-10-13,株式会社Ｉｍａｌ　Ｓｕｐｐｏｒｔ,,株式会社,兵庫県,揖保郡太子町,東保４６８番地８,,28,464,6711524,,,2021-10-13,清算の結了等,,,2015-10-05,1,,,,,イマルサポート,0
1631,6140002041147,登記記録の閉鎖等,0,2021-10-18,2021-10-13,有限会社新造機重工業,,有限会社,兵庫県,尼崎市,稲葉元町２丁目１番２０－２０１号,,28,202,6600055,,,2021-10-13,清算の結了等,,,2015-10-05,1,,,,,シンゾウキジュウコウギョウ,0
1661,6180002064391,登記記録の閉鎖等,0,2021-10-18,2021-10-13,有限会社リカーショップかとう,,有限会社,愛知県,豊明市,前後町大代１６０１番地の３,,23,229,4701151,,,2021-10-13,清算の結了等,,,2015-10-05,1,,,,,リカーショップカトウ,0
1667,6190002000932,登記記録の閉鎖等,0,2021-10-18,2021-10-15,谷川水道有限会社,,有限会社,三重県,津市,新町２丁目１０番４３号,,24,201,5140042,,,2021-10-15,清算の結了等,,,2015-10-05,1,,,,,タニガワスイドウ,0
1671,6200002020912,登記記録の閉鎖等,0,2021-10-18,2021-10-15,有限会社リンドハワ・トレーディング,,有限会社,岐阜県,岐阜市,西島町１７番２３号－１０２,,21,201,5020912,,,2021-10-15,清算の結了等,,,2015-10-05,1,,,,,,0
1673,6230001000920,登記記録の閉鎖等,0,2021-10-18,2021-10-11,株式会社コスモアッセイ,,株式会社,富山県,富山市,有沢１１６番地の８,,16,201,9300862,,,2021-10-11,清算の結了等,,,2015-10-05,1,,,,,コスモアッセイ,0
1676,6240001008161,登記記録の閉鎖等,0,2021-10-18,2021-10-15,日本美化設備工業株式会社,,株式会社,広島県,広島市安佐南区,上安２丁目１１番２１号,,34,105,7310154,,,2021-10-15,清算の結了等,,,2015-10-05,1,,,,,ニホンビカセツビコウギョウ,0
1708,6340001012830,登記記録の閉鎖等,0,2021-10-18,2021-10-12,株式会社松建設,,株式会社,鹿児島県,南九州市,知覧町瀬世２３９８番地,,46,223,8970305,,,2021-10-12,清算の結了等,,,2015-10-05,1,,,,,マツケンセツ,0
1720,6370002003974,登記記録の閉鎖等,0,2021-10-18,2021-10-04,有限会社三浦,,有限会社,宮城県,仙台市太白区,緑ケ丘３丁目３７番１号,,04,104,9820021,,,2021-10-04,清算の結了等,,,2015-10-05,1,,,,,ミウラ,0
1736,6430001077278,登記記録の閉鎖等,0,2021-10-18,2021-10-08,株式会社サプライ,,株式会社,東京都,台東区,日本堤１丁目２５番６号スズキビル,,13,106,1110021,,,2021-10-08,清算の結了等,,,2018-08-30,1,,,,,サプライ,0
1739,6430002006145,登記記録の閉鎖等,0,2021-10-18,2021-10-12,有限会社京葉テクニカル,,有限会社,北海道,札幌市豊平区,福住二条４丁目１番１－１０７号,,01,105,0620042,,,2021-10-12,清算の結了等,,,2015-10-05,1,,,,,ケイヨウテクニカル,0
1742,6460305001294,登記記録の閉鎖等,0,2021-10-18,2021-10-15,特定非営利活動法人かみところ,,その他の設立登記法人,北海道,北見市,上ところ６８２番地１,,01,208,0991585,,,2021-10-15,清算の結了等,,,2015-10-05,1,,,,,カミトコロ,0
1752,6700150077902,登記記録の閉鎖等,0,2021-10-18,2021-06-30,トピア米原,,その他,北海道,函館市,鉄山町３６－１１,,01,202,0420902,,,2021-06-30,その他の清算の結了等,,,2016-11-24,1,,,,,トピアマイバラ,0
1782,7010602031880,登記記録の閉鎖等,0,2021-10-18,2021-10-06,有限会社ラッセル,,有限会社,埼玉県,草加市,新栄１丁目５番地６,,11,221,3400056,,,2021-10-06,清算の結了等,,,2015-10-05,1,,,,,ラッセル,0
1787,7010803000107,登記記録の閉鎖等,0,2021-10-18,2021-09-21,合資会社魚俊商店,,合資会社,東京都,大田区,東蒲田２丁目２０番１号,,13,111,1440031,,,2021-09-21,清算の結了等,,,2015-10-05,1,,,,,ウオトシショウテン,0
1843,7020001014841,登記記録の閉鎖等,0,2021-10-18,2021-10-13,サン・インターナショナル株式会社,,株式会社,神奈川県,横浜市西区,岡野１丁目１６番１５号,,14,103,2200073,,,2021-10-13,清算の結了等,,,2015-10-05,1,,,,,サンインターナショナル,0
1863,7030001020946,登記記録の閉鎖等,0,2021-10-18,2021-10-06,カワセサービス株式会社,,株式会社,埼玉県,蕨市,塚越５丁目２８番１号,,11,223,3350002,,,2021-10-06,清算の結了等,,,2015-10-05,1,,,,,カワセサービス,0
1864,7030001043815,登記記録の閉鎖等,0,2021-10-18,2021-10-13,株式会社リジッド,,株式会社,埼玉県,北足立郡伊奈町,大字羽貫５６７番地２,,11,301,3620802,,,2021-10-13,清算の結了等,,,2015-10-05,1,,,,,リジッド,0
1867,7030001088018,登記記録の閉鎖等,0,2021-10-18,2021-10-04,古山オートサービス株式会社,,株式会社,埼玉県,行田市,藤原町２丁目３３番地３,,11,206,3610016,,,2021-10-04,清算の結了等,,,2015-10-05,1,,,,,フルヤマオートサービス,0
1879,7030002007835,登記記録の閉鎖等,0,2021-10-18,2021-10-06,有限会社関根電気設備,,有限会社,埼玉県,さいたま市見沼区,大字風渡野６６３番地の１,,11,104,3370017,,,2021-10-06,清算の結了等,,,2015-10-05,1,,,,,セキネデンキセツビ,0
1881,7030002052798,登記記録の閉鎖等,0,2021-10-18,2021-10-05,有限会社エムズプランニング,,有限会社,埼玉県,草加市,旭町４丁目４番１号,,11,221,3400053,,,2021-10-05,清算の結了等,,,2015-10-05,1,,,,,エムズプランニング,0
1882,7030002053441,登記記録の閉鎖等,0,2021-10-18,2021-10-06,有限会社オダガワ,,有限会社,埼玉県,上尾市,仲町１丁目２番１６号,,11,219,3620035,,,2021-10-06,清算の結了等,,,2015-10-05,1,,,,,オダガワ,0
1886,7030005008426,登記記録の閉鎖等,0,2021-10-18,2021-10-06,ふじみ野市土地開発公社,,その他の設立登記法人,埼玉県,ふじみ野市,福岡１丁目１番１号ふじみ野市役所内,,11,245,3560011,,,2021-10-06,清算の結了等,,,2015-10-05,1,,,,,フジミノシ,0
1918,7090002004174,登記記録の閉鎖等,0,2021-10-18,2021-10-13,有限会社山口設備,,有限会社,山梨県,甲斐市,島上条４５２番地,,19,210,4000123,,,2021-10-13,清算の結了等,,,2015-10-05,1,,,,,ヤマグチセツビ,0
1923,7110001026167,登記記録の閉鎖等,0,2021-10-18,2021-10-08,岩手新和株式会社,,株式会社,新潟県,南魚沼市,坂戸４８５番地,,15,226,9496611,,,2021-10-08,合併による解散等,3110001026344,令和３年１０月１日新潟県南魚沼市坂戸４８５番地新和コンクリート工業株式会社（3110001026344）に合併し解散,2015-10-05,1,,,,,イワテシンワ,0
1954,7120901038566,登記記録の閉鎖等,0,2021-10-18,2021-10-11,株式会社ＥＬＭ,,株式会社,東京都,大田区,大森北６丁目３番２２号,,13,111,1430016,,,2021-10-11,清算の結了等,,,2017-06-05,1,,,,,エルム,0
1967,7140001095291,登記記録の閉鎖等,0,2021-10-18,2021-10-13,株式会社治山建設,,株式会社,兵庫県,神戸市北区,日の峰５丁目１０番地の１、２－９０８号,,28,109,6511233,,,2021-10-13,清算の結了等,,,2015-10-05,1,,,,,チサンケンセツ,0
1980,7140005010841,登記記録の閉鎖等,0,2021-10-18,2021-10-14,医療法人社団澄和会犬飼歯科医院,,その他の設立登記法人,兵庫県,尼崎市,武庫元町２丁目１７番３号,,28,202,6610043,,,2021-10-14,清算の結了等,,,2015-10-05,1,,,,,シャダンチョウワカイイヌカイシカイイン,0
1989,7180001137486,登記記録の閉鎖等,0,2021-10-18,2021-10-13,株式会社ルデヤ,,株式会社,愛知県,一宮市,萩原町萩原字上町１１０番地,,23,203,4910353,,,2021-10-13,清算の結了等,,,2019-07-24,1,,,,,ルデヤ,0
1990,7180002052478,登記記録の閉鎖等,0,2021-10-18,2021-10-12,有限会社大協商会,,有限会社,愛知県,名古屋市緑区,鏡田１３１０番地,,23,114,4580803,,,2021-10-12,清算の結了等,,,2015-10-05,1,,,,,ダイキョウショウカイ,0
1992,7180003010971,登記記録の閉鎖等,0,2021-10-18,2021-10-13,合資会社山長鈴木勇商店,,合資会社,愛知県,瀬戸市,さつき台５丁目４０番地２１,,23,204,4890982,,,2021-10-13,清算の結了等,,,2015-10-05,1,,,,,ヤマチョウスズキイサムショウテン,0
2014,7240002001379,登記記録の閉鎖等,0,2021-10-18,2021-10-15,有限会社井手酒店,,有限会社,広島県,広島市安芸区,畑賀３丁目３１番１５号,,34,107,7360088,,,2021-10-15,清算の結了等,,,2015-10-05,1,,,,,イデサケテン,0
2015,7250002003440,登記記録の閉鎖等,0,2021-10-18,2021-10-15,有限会社堀貨物,,有限会社,山口県,防府市,大字上右田１２５３番地の３,,35,206,7470062,,,2021-10-15,清算の結了等,,,2015-10-05,1,,,,,ホリカモツ,0
2029,7290801002944,登記記録の閉鎖等,0,2021-10-18,2021-10-11,株式会社西日本新聞広告社北九州,,株式会社,福岡県,北九州市小倉北区,田町１１番１３号,,40,106,8030817,,,2021-10-11,合併による解散等,3290001009389,令和３年１０月１日福岡市中央区天神一丁目４番１号株式会社西日本新聞広告社（3290001009389）に合併し解散,2015-10-05,1,,,,,ニシニッポンシンブンコウコクシャキタキュウシュウ,0
2035,7340001011435,登記記録の閉鎖等,0,2021-10-18,2021-10-12,株式会社キバル,,株式会社,鹿児島県,鹿児島市,坂之上６丁目１１番２９号,,46,201,8910150,,,2021-10-12,清算の結了等,,,2015-10-05,1,,,,,キバル,0
2047,7370001015210,登記記録の閉鎖等,0,2021-10-18,2021-10-05,仙台エネルギーサービス株式会社,,株式会社,宮城県,仙台市宮城野区,新田２丁目１０番２０－１０６号,,04,102,9830038,,,2021-10-05,清算の結了等,,,2015-10-05,1,,,,,センダイエネルギーサービス,0
2053,7370601002252,登記記録の閉鎖等,0,2021-10-18,2021-10-04,中央工業株式会社,,株式会社,宮城県,多賀城市,八幡１丁目７番２９号,,04,209,9850874,,,2021-10-04,清算の結了等,,,2015-10-05,1,,,,,チュウオウコウギョウ,0
2071,7440002001029,登記記録の閉鎖等,0,2021-10-18,2021-10-14,有限会社カネト櫻庭興業,,有限会社,北海道,函館市,鍛治２丁目５番６号,,01,202,0410852,,,2021-10-14,清算の結了等,,,2015-10-05,1,,,,,カネトサクラバコウギョウ,0
2079,7700150013823,登記記録の閉鎖等,0,2021-10-18,2021-05-25,ワーカーズ・コレクティブ「やどりぎ」,,その他,神奈川県,川崎市多摩区,布田２９－１０,,14,135,2140011,,,2021-05-25,その他の清算の結了等,,,2015-10-09,1,,,,,ワーカーズコレクテイブヤドリギ,0
2080,7700150062696,登記記録の閉鎖等,0,2021-10-18,2021-03-31,宇土八水土地改良区,,その他,熊本県,宇土市,新小路町６９,,43,211,8690433,,,2021-03-31,その他の清算の結了等,,,2015-10-09,1,,,,,ウトハツスイトチカイリヨウク,0
2081,7700150096273,登記記録の閉鎖等,0,2021-10-18,2021-06-10,ぱんだウインドオーケストラ,,その他,東京都,調布市,柴崎１丁目１０－１－３２２,,13,208,1820014,,,2021-06-10,その他の清算の結了等,,,2019-10-16,1,,,,,パンダウインドオーケストラ,0
2085,8010001091889,登記記録の閉鎖等,0,2021-10-18,2021-10-07,株式会社ＨＡＮＳ,,株式会社,東京都,中央区,日本橋人形町２丁目２４番４号,,13,102,1030013,,,2021-10-07,清算の結了等,,,2015-10-05,1,,,,,,0
2088,8010001173745,登記記録の閉鎖等,0,2021-10-18,2021-10-07,株式会社ディザイア,,株式会社,東京都,中央区,銀座６丁目１２番２号東京銀座ビルディング６０３号,,13,102,1040061,,,2021-10-07,清算の結了等,,,2016-02-23,1,,,,,ディザイア,0
2116,8010501046120,登記記録の閉鎖等,0,2021-10-18,2021-10-13,株式会社ＢＡＮＱ,,株式会社,東京都,台東区,東上野３丁目３９番５号第一地所上野ビル５階,,13,106,1100015,,,2021-10-13,清算の結了等,,,2020-08-21,1,,,,,バンク,0
2117,8010602009323,登記記録の閉鎖等,0,2021-10-18,2021-10-05,有限会社大熊製作所,,有限会社,東京都,墨田区,墨田２丁目９番１２号,,13,107,1310031,,,2021-10-05,清算の結了等,,,2015-10-05,1,,,,,オオクマセイサクショ,0
2123,8010902003083,登記記録の閉鎖等,0,2021-10-18,2021-10-13,有限会社オーエーテー,,有限会社,東京都,世田谷区,北沢１丁目３４番５号,,13,112,1550031,,,2021-10-13,清算の結了等,,,2015-10-05,1,,,,,オーエーテー,0
2130,8011003007387,登記記録の閉鎖等,0,2021-10-18,2021-10-01,ＢＭＩＣ合同会社,,合同会社,東京都,目黒区,駒場４丁目４番１３－２３０１号,,13,110,1530041,,,2021-10-01,清算の結了等,,,2017-01-25,1,,,,,ビーエムアイシー,0
2135,8011102012263,登記記録の閉鎖等,0,2021-10-18,2021-10-04,有限会社マルニシ,,有限会社,東京都,新宿区,上落合２丁目８番８号,,13,104,1610034,,,2021-10-04,清算の結了等,,,2015-10-05,1,,,,,マルニシ,0
2171,8020001139175,登記記録の閉鎖等,0,2021-10-18,2021-10-12,株式会社ａｐａｃｅ,,株式会社,神奈川県,横浜市港南区,最戸２丁目１６番１１号,,14,111,2330008,,,2021-10-12,清算の結了等,,,2020-12-23,1,,,,,アペース,0
2176,8021001046527,登記記録の閉鎖等,0,2021-10-18,2021-10-11,株式会社つきがぁ,,株式会社,神奈川県,横須賀市,安浦町２丁目１９番地,,14,201,2380012,,,2021-10-11,清算の結了等,,,2015-10-05,1,,,,,ツキガア,0
2182,8030001025077,登記記録の閉鎖等,0,2021-10-18,2021-10-01,町田商事株式会社,,株式会社,埼玉県,所沢市,北原町８６６番地２４,,11,208,3590004,,,2021-10-01,清算の結了等,,,2015-10-05,1,,,,,マチダショウジ,0
2186,8030001044382,登記記録の閉鎖等,0,2021-10-18,2021-10-07,株式会社欣栄,,株式会社,埼玉県,草加市,西町２１５番地１１,,11,221,3400035,,,2021-10-07,清算の結了等,,,2015-10-05,1,,,,,キンエイ,0
2188,8030001081806,登記記録の閉鎖等,0,2021-10-18,2021-10-12,Ｔ．Ｓプランニング株式会社,,株式会社,埼玉県,川口市,南鳩ヶ谷６丁目８番６号,,11,203,3340013,,,2021-10-12,清算の結了等,,,2015-10-05,1,,,,,ティーエスプランニング,0
2189,8030001081979,登記記録の閉鎖等,0,2021-10-18,2021-10-13,ＥａｓｔＩｓｌａｎｄ株式会社,,株式会社,東京都,台東区,小島２丁目１番１１号井上ビル２階,,13,106,1110056,,,2021-10-13,清算の結了等,,,2015-10-05,1,,,,,イーストアイランド,0
2190,8030001086458,登記記録の閉鎖等,0,2021-10-18,2021-10-11,ティ・ディ・ピー株式会社,,株式会社,埼玉県,深谷市,幡羅町１丁目９番２号,,11,218,3660032,,,2021-10-11,清算の結了等,,,2015-10-05,1,,,,,ティディピー,0
2198,8030002042204,登記記録の閉鎖等,0,2021-10-18,2021-10-06,有限会社平川製作所,,有限会社,埼玉県,加須市,正能字弁天４９３番地,,11,210,3470107,,,2021-10-06,清算の結了等,,,2015-10-05,1,,,,,ヒラカワセイサクジョ,0
2201,8030002058984,登記記録の閉鎖等,0,2021-10-18,2021-10-08,株式会社テスコ,,株式会社,埼玉県,志木市,本町２丁目２番３７号,,11,228,3530004,,,2021-10-08,合併による解散等,9030001046898,令和３年１０月１日埼玉県志木市本町二丁目２番３７号株式会社リンク（9030001046898）に合併し解散,2015-10-05,1,,,,,テスコ,0
2205,8030002103757,登記記録の閉鎖等,0,2021-10-18,2021-10-07,有限会社十二デンタルラボラトリー,,有限会社,埼玉県,川口市,北原台２丁目１５番１８号,,11,203,3330815,,,2021-10-07,清算の結了等,,,2015-10-05,1,,,,,ジュウニデンタルラボラトリー,0
2207,8030003007362,登記記録の閉鎖等,0,2021-10-18,2021-10-12,合同会社ＳＳ,,合同会社,埼玉県,川口市,南鳩ヶ谷７丁目１９番３号,,11,203,3340013,,,2021-10-12,清算の結了等,,,2015-10-05,1,,,,,エスエス,0
2226,8050002011941,登記記録の閉鎖等,0,2021-10-18,2021-10-11,有限会社筒井塗装,,有限会社,茨城県,土浦市,田中１丁目８番２３号,,08,203,3000048,,,2021-10-11,清算の結了等,,,2015-10-05,1,,,,,,0
2228,8060001030693,登記記録の閉鎖等,0,2021-10-18,2021-10-12,株式会社南部開発,,株式会社,栃木県,真岡市,長島２１１番地,,09,209,3214532,,,2021-10-12,清算の結了等,,,2018-07-09,1,,,,,ナンブカイハツ,0
2233,8070002016823,登記記録の閉鎖等,0,2021-10-18,2021-10-12,有限会社佐野電設,,有限会社,群馬県,甘楽郡下仁田町,大字馬山２１７６番地,,10,382,3702603,,,2021-10-12,清算の結了等,,,2015-10-05,1,,,,,サノデンセツ,0
2261,8120101037054,登記記録の閉鎖等,0,2021-10-18,2021-10-13,太泉産業株式会社,,株式会社,大阪府,岸和田市,土生町２丁目２４番１６号,,27,202,5960825,,,2021-10-13,清算の結了等,,,2015-10-05,1,,,,,,0
2266,8120901014211,登記記録の閉鎖等,0,2021-10-18,2021-10-15,株式会社ＨＯＫＯネットワーク,,株式会社,大阪府,吹田市,豊津町４０番１５号,,27,205,5640051,,,2021-10-15,清算の結了等,,,2015-10-05,1,,,,,ホコネットワーク,0
2292,8140001097808,登記記録の閉鎖等,0,2021-10-18,2021-10-11,株式会社花一,,株式会社,兵庫県,神戸市北区,鈴蘭台北町３丁目１７番１６号,,28,109,6511111,,,2021-10-11,清算の結了等,,,2015-10-05,1,,,,,ハナイチ,0
2317,8180301002034,登記記録の閉鎖等,0,2021-10-18,2021-10-15,柳工業株式会社,,株式会社,愛知県,岡崎市,岡町字下野川８５番地１,,23,202,4440005,,,2021-10-15,清算の結了等,,,2015-10-05,1,,,,,ヤナギコウギョウ,0
2326,8200001016711,登記記録の閉鎖等,0,2021-10-18,2021-10-08,株式会社エルア,,株式会社,岐阜県,大垣市,中野町３丁目７番地１,,21,202,5030022,,,2021-10-08,合併による解散等,4200001009958,令和３年１０月１日岐阜県瑞穂市穂積１８１４番１株式会社ジアス（4200001009958）に合併し解散,2015-10-05,1,,,,,エルア,0
2335,8260001007465,登記記録の閉鎖等,0,2021-10-18,2021-10-12,株式会社ニシエイ,,株式会社,岡山県,岡山市北区,御津河内字雲岡１５３－５番地,,33,101,7092123,,,2021-10-12,合併による解散等,5010401159314,令和３年１０月１日東京都港区西新橋二丁目３６番１号株式会社永谷園フーズ（5010401159314）に合併し解散,2015-10-05,1,,,,,ニシエイ,0
2342,8280005003533,登記記録の閉鎖等,0,2021-10-18,2021-10-15,特定非営利活動法人国際交流いずも２１,,その他の設立登記法人,島根県,出雲市,西新町２丁目２４５６番地４フローラいずも内,,32,203,6930037,,,2021-10-15,清算の結了等,,,2015-10-05,1,,,,,コクサイコウリュウイズモニジュウイチ,0
2352,8310001009381,登記記録の閉鎖等,0,2021-10-18,2021-10-15,株式会社ウッドプラン,,株式会社,長崎県,大村市,水主町２丁目６７４－１,,42,205,8560827,,,2021-10-15,清算の結了等,,,2015-10-05,1,,,,,ウッドプラン,0
2364,8360002018988,登記記録の閉鎖等,0,2021-10-18,2021-10-11,有限会社西村左官工業,,有限会社,沖縄県,宜野湾市,大謝名２丁目１３番１６号,,47,205,9012225,,,2021-10-11,清算の結了等,,,2015-10-05,1,,,,,ニシムラサカンコウギョウ,0
2368,8380002030652,登記記録の閉鎖等,0,2021-10-18,2021-10-12,有限会社池田工務店,,有限会社,福島県,双葉郡広野町,大字折木字亀ケ崎１５番地の２,,07,541,9790404,,,2021-10-12,清算の結了等,,,2015-10-05,1,,,,,イケダコウムテン,0
2369,8390001006586,登記記録の閉鎖等,0,2021-10-18,2021-10-13,株式会社マイ・トラベル,,株式会社,山形県,酒田市,錦町４丁目１番地の２,,06,204,9980103,,,2021-10-13,清算の結了等,,,2015-10-05,1,,,,,,0
2372,8400002002368,登記記録の閉鎖等,0,2021-10-18,2021-10-14,有限会社中善商店,,有限会社,岩手県,盛岡市,八幡町７番２４号,,03,201,0200872,,,2021-10-14,清算の結了等,,,2015-10-05,1,,,,,ナカゼンショウテン,0
2376,8430001074471,登記記録の閉鎖等,0,2021-10-18,2021-10-01,株式会社緑祥庵,,株式会社,北海道,札幌市厚別区,大谷地東３丁目１番１号,,01,108,0040041,,,2021-10-01,合併による解散等,8012802006554,令和３年１０月１日札幌市東区北三十二条東十六丁目１番６号オレンジビル１Ｆ株式会社ロイヤルスイーツ（8012802006554）に合併し解散,2017-07-12,1,,,,,リョクショウアン,0
2379,8430003009046,登記記録の閉鎖等,0,2021-10-18,2021-10-15,合同会社脇坂,,合同会社,北海道,小樽市,山田町１－２２,,01,203,0470025,,,2021-10-15,清算の結了等,,,2018-01-17,1,,,,,ワキサカ,0
2385,8450001008857,登記記録の閉鎖等,0,2021-10-18,2021-10-14,梅田繊維株式会社,,株式会社,北海道,留萌市,開運町３丁目５番３号,,01,212,0770042,,,2021-10-14,清算の結了等,,,2015-10-05,1,,,,,ウメダセンイ,0
2390,8500001017778,登記記録の閉鎖等,0,2021-10-18,2021-10-15,株式会社ＴａｎｄＡ,,株式会社,愛媛県,四国中央市,寒川町３８００番地の１,,38,213,7990431,,,2021-10-15,清算の結了等,,,2015-10-05,1,,,,,ティーアンドエー,0
2393,8700150045790,登記記録の閉鎖等,0,2021-10-18,2021-06-30,伊太まちづくり運営協議会,,その他,静岡県,島田市,伊太１３２４番地の１伊太コミュニティーセンター内,,22,209,4270034,,,2021-06-30,その他の清算の結了等,,,2015-10-09,1,,,,,イタマチヅクリウンエイキヨウギカイ,0
2397,9010001028048,登記記録の閉鎖等,0,2021-10-18,2021-10-12,フアーストフアイナンス株式会社,,株式会社,東京都,千代田区,神田神保町１丁目６０番地,,13,101,1010051,,,2021-10-12,清算の結了等,,,2015-10-05,1,,,,,フアーストフアイナンス,0
2421,9010003029969,登記記録の閉鎖等,0,2021-10-18,2021-10-12,合同会社ＧＴＬヘルスケア,,合同会社,東京都,中央区,日本橋１丁目４番１号,,13,102,1030027,,,2021-10-12,清算の結了等,,,2019-06-04,1,,,,,ジーティーエルヘルスケア,0
2435,9010501000596,登記記録の閉鎖等,0,2021-10-18,2021-10-13,アイケイジュエルワーク株式会社,,株式会社,東京都,台東区,台東３丁目１４番８号,,13,106,1100016,,,2021-10-13,清算の結了等,,,2015-10-05,1,,,,,アイケイジュエルワーク,0
2445,9010902023840,登記記録の閉鎖等,0,2021-10-18,2021-10-14,有限会社イチ・スタ,,有限会社,東京都,世田谷区,等々力２丁目８番１３号,,13,112,1580082,,,2021-10-14,清算の結了等,,,2015-10-05,1,,,,,イチスタ,0
2464,9011301017822,登記記録の閉鎖等,0,2021-10-18,2021-10-14,株式会社安芸,,株式会社,東京都,杉並区,久我山４丁目４番６号,,13,115,1680082,,,2021-10-14,清算の結了等,,,2015-10-05,1,,,,,アキ,0
2479,9011802028310,登記記録の閉鎖等,0,2021-10-18,2021-10-14,有限会社なごみ薬局,,有限会社,東京都,足立区,島根３丁目８番１号山一ビル島根Ｉ１階Ａ号,,13,121,1210815,,,2021-10-14,清算の結了等,,,2015-10-05,1,,,,,ナゴミヤッキョク,0
2483,9013101000504,登記記録の閉鎖等,0,2021-10-18,2021-10-13,株式会社栄昌堂,,株式会社,埼玉県,川口市,末広３丁目４番２４号,,11,203,3320006,,,2021-10-13,清算の結了等,,,2015-10-05,1,,,,,エイショウドウ,0
2503,9030001029176,登記記録の閉鎖等,0,2021-10-18,2021-10-06,株式会社テクノ・プライズ,,株式会社,埼玉県,入間市,宮寺２９３６番地５,,11,225,3580014,,,2021-10-06,清算の結了等,,,2015-10-05,1,,,,,テクノプライズ,0
2512,9030001133341,登記記録の閉鎖等,0,2021-10-18,2021-10-05,株式会社ＣＡＲＴＥＮＤＥＲ　ＪＡＰＡＮ,,株式会社,埼玉県,さいたま市中央区,新都心１１番地２,,11,105,3300081,,,2021-10-05,合併による解散等,4030001005124,令和３年９月３０日埼玉県さいたま市中央区新都心１１番地２株式会社タウ（4030001005124）に合併し解散,2019-10-21,1,,,,,カーテンダージャパン,0
2520,9030002083932,登記記録の閉鎖等,0,2021-10-18,2021-10-05,ヤマミ機械有限会社,,有限会社,埼玉県,鴻巣市,大芦７６０番地３,00017229,11,217,3690137,,,2021-10-05,清算の結了等,,,2015-10-05,1,,,,,ヤマミキカイ,0
2523,9030005012566,登記記録の閉鎖等,0,2021-10-18,2021-10-06,医療法人社団はとレディースクリニック,,その他の設立登記法人,埼玉県,川口市,南鳩ヶ谷１丁目１４番１号,,11,203,3340013,,,2021-10-06,清算の結了等,,,2015-10-05,1,,,,,ハトレディースクリニック,0
2531,9040002013070,登記記録の閉鎖等,0,2021-10-18,2021-10-11,有限会社松装工業,,有限会社,千葉県,市原市,瀬又９２６番地７１,,12,219,2900151,,,2021-10-11,清算の結了等,,,2015-10-05,1,,,,,マツソウコウギョウ,0
2537,9060002017870,登記記録の閉鎖等,0,2021-10-18,2021-10-12,有限会社小薬商会,,有限会社,栃木県,真岡市,久下田西１丁目３６番地,,09,209,3214522,,,2021-10-12,清算の結了等,,,2015-10-05,1,,,,,コグスリショウカイ,0
2538,9070001001032,登記記録の閉鎖等,0,2021-10-18,2021-10-13,群馬連合新聞折込株式会社,,株式会社,群馬県,前橋市,古市町１丁目５０番地２４,,10,201,3710844,,,2021-10-13,清算の結了等,,,2015-10-05,1,,,,,グンマレンゴウシンブンオリコミ,0
2550,9110001025828,登記記録の閉鎖等,0,2021-10-18,2021-10-11,ジェイテクノ株式会社,,株式会社,神奈川県,横浜市都筑区,中川４丁目１番１号,,14,118,2240001,,,2021-10-11,清算の結了等,,,2015-10-05,1,,,,,ジェイテクノ,0
2556,9120001045866,登記記録の閉鎖等,0,2021-10-18,2021-10-06,株式会社トピー,,株式会社,大阪府,堺市東区,日置荘原寺町４５８番地１８,,27,143,5998112,,,2021-10-06,清算の結了等,,,2015-10-05,1,,,,,トピー,0
2566,9120002028886,登記記録の閉鎖等,0,2021-10-18,2021-10-12,有限会社青柳自動車工作所,,有限会社,大阪府,大阪市北区,大淀中１丁目６番１３号,,27,127,5310076,,,2021-10-12,清算の結了等,,,2015-10-05,1,,,,,アオヤギジドウシャコウサクショ,0
2594,9200002003146,登記記録の閉鎖等,0,2021-10-18,2021-10-14,有限会社寺本工業,,有限会社,岐阜県,岐阜市,六条江東２丁目１３番１６号,,21,201,5008356,,,2021-10-14,清算の結了等,,,2015-10-05,1,,,,,,0
2595,9200002012279,登記記録の閉鎖等,0,2021-10-18,2021-10-14,有限会社石のみうらや,,有限会社,岐阜県,大垣市,赤坂新町２丁目８２番地の２,,21,202,5032206,,,2021-10-14,清算の結了等,,,2015-10-05,1,,,,,イシノミウラヤ,0
2639,9360005004183,登記記録の閉鎖等,0,2021-10-18,2021-10-11,特定非営利活動法人ぽかぽか,,その他の設立登記法人,沖縄県,糸満市,西崎６丁目４番８号糸満市福祉プラザすこやか館１階,,47,210,9010305,,,2021-10-11,清算の結了等,,,2015-10-05,1,,,,,ポカポカ,0
2665,9470001011172,登記記録の閉鎖等,0,2021-10-18,2021-10-14,瀬戸内サービス株式会社,,株式会社,香川県,さぬき市,津田町鶴羽７７３番地,,37,206,7692402,,,2021-10-14,清算の結了等,,,2015-10-05,1,,,,,セトウチサービス,0
2669,9500002007216,登記記録の閉鎖等,0,2021-10-18,2021-10-15,有限会社由良運送,,有限会社,愛媛県,松山市,由良町８８９番地１,,38,201,7918092,,,2021-10-15,清算の結了等,,,2015-10-05,1,,,,,ユラウンソウ,0
