sequenceNumber,corporateNumber,process,correct,updateDate,changeDate,name,nameImageId,kind,prefectureName,cityName,streetNumber,addressImageId,prefectureCode,cityCode,postCode,addressOutside,addressOutsideImageId,closeDate,closeCause,successorCorporateNumber,changeCause,assignmentDate,latest,enName,enPrefectureName,enCityName,enAddressOutside,furigana,hihyoji
11,1010003037590,登記記録の閉鎖等,0,2024-11-22,2024-11-11,合同会社Ｃ２,,合同会社,東京都,中央区,銀座１丁目２２番１１号,,13,102,1040061,,,2024-11-11,清算の結了等,,,2022-05-09,1,,,,,シーツー,0
15,1010005029834,登記記録の閉鎖等,0,2024-11-22,2024-11-18,医療法人社団ウェルプリベンション,,その他の設立登記法人,東京都,中央区,銀座１丁目２番４号２階,,13,102,1040061,,,2024-11-18,清算の結了等,,,2019-03-08,1,,,,,ウェルプリベンション,0
16,1010005029917,登記記録の閉鎖等,0,2024-11-22,2024-11-18,一般社団法人健康長寿実現推進機構,,その他の設立登記法人,東京都,千代田区,内神田１丁目５番１１号セントラル大手町２０２号,,13,101,1010047,,,2024-11-18,清算の結了等,,,2019-03-28,1,,,,,ケンコウチョウジュジツゲンスイシンキコウ,0
34,1010601048543,登記記録の閉鎖等,0,2024-11-22,2024-11-11,株式会社シンティトロ,,株式会社,東京都,渋谷区,千駄ヶ谷２丁目３９番３千駄ヶ谷ホリタン３０５号,,13,113,1510051,,,2024-11-11,清算の結了等,,,2015-10-05,1,,,,,シンティトロ,0
50,1011001060403,登記記録の閉鎖等,0,2024-11-22,2024-11-20,株式会社エヴリカ,,株式会社,神奈川県,小田原市,蓮正寺１３２番地の９,00134314,14,206,2500865,,,2024-11-20,清算の結了等,,,2015-10-05,1,,,,,エヴリカ,0
63,1011502006152,登記記録の閉鎖等,0,2024-11-22,2024-11-20,有限会社山田電気,,有限会社,東京都,北区,西が丘１丁目４０番８号,,13,117,1150056,,,2024-11-20,清算の結了等,,,2015-10-05,1,,,,,,0
64,1011502015797,登記記録の閉鎖等,0,2024-11-22,2024-11-20,有限会社草雅,,有限会社,東京都,北区,東十条３丁目１２番３号,,13,117,1140001,,,2024-11-20,清算の結了等,,,2015-10-05,1,,,,,ソウガ,0
79,1020001061303,登記記録の閉鎖等,0,2024-11-22,2024-11-19,株式会社ショウホーム,,株式会社,神奈川県,横浜市神奈川区,松見町１丁目３５番地８ＮＩＣハイム横浜大口第一６０１号,,14,102,2210005,,,2024-11-19,清算の結了等,,,2015-10-05,1,,,,,ショウホーム,0
80,1020001067300,登記記録の閉鎖等,0,2024-11-22,2024-11-15,株式会社新東工業,,株式会社,神奈川県,川崎市高津区,千年８１３番地,,14,134,2130022,,,2024-11-15,清算の結了等,,,2015-10-05,1,,,,,シントウコウギョウ,0
87,1020003009242,登記記録の閉鎖等,0,2024-11-22,2024-11-13,合同会社ウエクエ,,合同会社,愛知県,知多市,大興寺字丹波脇４４番地の１１３,,23,224,4780022,,,2024-11-13,清算の結了等,,,2015-10-05,1,,,,,ウエクエ,0
98,1021002027078,登記記録の閉鎖等,0,2024-11-22,2024-11-11,有限会社テクノヒヤリング,,有限会社,神奈川県,相模原市南区,御園５丁目５番３４号,,14,153,2520317,,,2024-11-11,清算の結了等,,,2015-10-05,1,,,,,テクノヒヤリング,0
106,1040001104076,登記記録の閉鎖等,0,2024-11-22,2024-11-20,株式会社Ａ・バルーンスタジオ,,株式会社,千葉県,柏市,松葉町７丁目２番地１,,12,217,2770827,,,2024-11-20,合併による解散等,1011801036305,令和６年１１月８日東京都足立区扇一丁目５０番２９号株式会社阿部商店（1011801036305）に合併し解散,2018-04-03,1,,,,,エーバルーンスタジオ,0
112,1060001012888,登記記録の閉鎖等,0,2024-11-22,2024-11-18,株式会社大田原管財,,株式会社,栃木県,大田原市,中田原８１０番地,,09,210,3240062,,,2024-11-18,清算の結了等,,,2015-10-05,1,,,,,オオタワラカンザイ,0
117,1080002003694,登記記録の閉鎖等,0,2024-11-22,2024-11-18,有限会社高橋食品,,有限会社,静岡県,静岡市駿河区,八幡２丁目１３番１３号,,22,102,4228076,,,2024-11-18,清算の結了等,,,2015-10-05,1,,,,,タカハシショクヒン,0
120,1080401006133,登記記録の閉鎖等,0,2024-11-22,2024-11-19,株式会社湖西ガス,,株式会社,静岡県,湖西市,新居町中之郷３６５３番地の５,,22,221,4310301,,,2024-11-19,清算の結了等,,,2015-10-05,1,,,,,コサイガス,0
122,1100002037104,登記記録の閉鎖等,0,2024-11-22,2024-11-13,有限会社パワーステーション,,有限会社,長野県,下伊那郡松川町,元大島５３５５番地１,,20,402,3993303,,,2024-11-13,清算の結了等,,,2015-10-05,1,,,,,パワーステーション,0
127,1110001025240,登記記録の閉鎖等,0,2024-11-22,2024-11-15,株式会社本間鉄工,,株式会社,新潟県,見附市,下関町乙５８５番地３,,15,211,9540105,,,2024-11-15,清算の結了等,,,2015-10-05,1,,,,,ホンマテッコウ,0
128,1110001036824,登記記録の閉鎖等,0,2024-11-22,2024-11-13,丸千商事株式会社,,株式会社,新潟県,村上市,三之町８番１１号,,15,212,9580837,,,2024-11-13,清算の結了等,,,2022-07-21,1,,,,,マルセンショウジ,0
129,1110002008954,登記記録の閉鎖等,0,2024-11-22,2024-11-15,有限会社新明,,有限会社,新潟県,新発田市,藤塚浜３５８５番地１７９,,15,206,9570231,,,2024-11-15,清算の結了等,,,2015-10-05,1,,,,,シンメイ,0
130,1110003001124,登記記録の閉鎖等,0,2024-11-22,2024-11-15,合資会社角銀,,合資会社,新潟県,村上市,肴町６番２３号,,15,212,9580864,,,2024-11-15,清算の結了等,,,2015-10-05,1,,,,,カドギン,0
131,1110003003764,登記記録の閉鎖等,0,2024-11-22,2024-11-14,合同会社アルク,,合同会社,新潟県,燕市,中央通３丁目６番１５号,,15,213,9591244,,,2024-11-14,清算の結了等,,,2018-09-11,1,,,,,アルク,0
142,1120101002312,登記記録の閉鎖等,0,2024-11-22,2024-11-20,株式会社角谷電気商会,,株式会社,大阪府,堺市西区,鳳西町２丁２３番地の１７,,27,144,5938326,,,2024-11-20,清算の結了等,,,2015-10-05,1,,,,,カドヤデンキショウカイ,0
154,1130002011122,登記記録の閉鎖等,0,2024-11-22,2024-11-20,有限会社ダイニチ製作所,,有限会社,京都府,京都市南区,東九条松田町１９番地,,26,107,6018036,,,2024-11-20,清算の結了等,,,2015-10-05,1,,,,,ダイニチセイサクショ,0
164,1140002014743,登記記録の閉鎖等,0,2024-11-22,2024-11-19,有限会社大日興業,,有限会社,兵庫県,神戸市中央区,加納町４丁目７番４号,,28,110,6500001,,,2024-11-19,清算の結了等,,,2015-10-05,1,,,,,ダイニチコウギョウ,0
166,1150001006492,登記記録の閉鎖等,0,2024-11-22,2024-11-20,株式会社佐藤電気商会,,株式会社,奈良県,天理市,指柳町２７２番地の１,,29,204,6320093,,,2024-11-20,清算の結了等,,,2015-10-05,1,,,,,サトウデンキショウカイ,0
199,1240001053625,登記記録の閉鎖等,0,2024-11-22,2024-11-21,株式会社ＨＲＤ,,株式会社,広島県,福山市,多治米町２丁目９番１０－２号,,34,207,7200824,,,2024-11-21,合併による解散等,1240001057048,令和６年１０月１５日東京都千代田区神田松永町１９番３号ＴＨＡビル１階株式会社ドリームブルー（1240001057048）に合併し解散,2018-12-10,1,,,,,エイチアールディー,0
212,1290001100281,登記記録の閉鎖等,0,2024-11-22,2024-11-19,株式会社ＥＮＺＯ,,株式会社,福岡県,福岡市中央区,大名２丁目２番４２号ケイワン大名５０２,,40,133,8100041,,,2024-11-19,清算の結了等,,,2023-01-24,1,,,,,エンゾウ,0
216,1320002011350,登記記録の閉鎖等,0,2024-11-22,2024-11-20,有限会社小泉水産,,有限会社,大分県,別府市,大字鶴見３１３９番地の６,,44,202,8740840,,,2024-11-20,清算の結了等,,,2015-10-05,1,,,,,コイズミスイサン,0
249,1430002010102,登記記録の閉鎖等,0,2024-11-22,2024-11-18,有限会社白石弘恵商事,,有限会社,北海道,札幌市白石区,北郷二条４丁目６番１２号,,01,104,0030832,,,2024-11-18,清算の結了等,,,2015-10-05,1,,,,,シロイシコウケイショウジ,0
250,1430002031718,登記記録の閉鎖等,0,2024-11-22,2024-11-21,みどり開発有限会社,,有限会社,北海道,札幌市白石区,北郷八条８丁目１番２９号,,01,104,0030838,,,2024-11-21,清算の結了等,,,2015-10-05,1,,,,,ミドリカイハツ,0
270,2010001187602,登記記録の閉鎖等,0,2024-11-22,2024-11-07,株式会社大原オフィスサービス,,株式会社,東京都,千代田区,西神田１丁目１番３号,,13,101,1010065,,,2024-11-07,合併による解散等,3010001012908,令和６年１１月１日東京都千代田区西神田一丁目２番１０号大原出版株式会社（3010001012908）に合併し解散,2017-11-13,1,,,,,オオハラオフィスサービス,0
274,2010002031263,登記記録の閉鎖等,0,2024-11-22,2024-11-08,アドセット有限会社,,有限会社,東京都,中央区,日本橋小網町３番１４号茅場町Ｋ－１ビル６Ｆ,,13,102,1030016,,,2024-11-08,清算の結了等,,,2015-10-05,1,,,,,アドセット,0
327,2011102024446,登記記録の閉鎖等,0,2024-11-22,2024-11-21,有限会社アウタ・スペース,,有限会社,神奈川県,中郡大磯町,西小磯２８７番地の１１６,,14,341,2550005,,,2024-11-21,清算の結了等,,,2015-10-05,1,,,,,アウタスペース,0
342,2011802029629,登記記録の閉鎖等,0,2024-11-22,2024-11-08,有限会社和風屋ドットコム,,有限会社,東京都,千代田区,大手町１丁目５番１号大手町ファーストスクエアイーストタワー４階,,13,101,1000004,,,2024-11-08,清算の結了等,,,2015-10-05,1,,,,,ワフウヤドットコム,0
349,2013302016999,登記記録の閉鎖等,0,2024-11-22,2024-11-19,有限会社友伸産業,,有限会社,東京都,杉並区,本天沼２丁目４１番１８号,,13,115,1670031,,,2024-11-19,清算の結了等,,,2015-10-05,1,,,,,ユウシンサンギョウ,0
361,2020003024521,登記記録の閉鎖等,0,2024-11-22,2024-11-06,ＧＥＥＫＤＥＶＩＣＥＲＥＳＥＡＲＣＨ合同会社,,合同会社,神奈川県,横浜市港南区,大久保２丁目３０番８号,,14,111,2330007,,,2024-11-06,清算の結了等,,,2023-09-05,1,,,,,ギークデバイスリサーチ,0
379,2030003020379,登記記録の閉鎖等,0,2024-11-22,2024-11-20,渡邊農機合同会社,00128095,合同会社,埼玉県,坂戸市,鶴舞１丁目９番１３号,,11,239,3500241,,,2024-11-20,清算の結了等,,,2022-10-12,1,,,,,ワタナベノウキ,0
394,2060001019115,登記記録の閉鎖等,0,2024-11-22,2024-11-07,深町建設株式会社,,株式会社,栃木県,足利市,山川町４３番地２,,09,202,3260021,,,2024-11-07,清算の結了等,,,2024-09-12,1,,,,,フカマチケンセツ,0
396,2070001014189,登記記録の閉鎖等,0,2024-11-22,2024-11-20,株式会社京愛,,株式会社,群馬県,佐波郡玉村町,大字川井２２０番地,,10,464,3701117,,,2024-11-20,清算の結了等,,,2015-10-05,1,,,,,キョウアイ,0
409,2090003002611,登記記録の閉鎖等,0,2024-11-22,2024-11-19,Ｐ‐Ｂａ‐Ｖ合同会社,,合同会社,山梨県,笛吹市,春日居町鎮目６６１番地５,,19,211,4060015,,,2024-11-19,清算の結了等,,,2024-08-02,1,,,,,ピーバービー,0
412,2110001010134,登記記録の閉鎖等,0,2024-11-22,2024-11-15,株式会社ウィル,,株式会社,新潟県,新潟市南区,七軒５８６番地５,,15,106,9501212,,,2024-11-15,清算の結了等,,,2015-10-05,1,,,,,ウィル,0
414,2110005016185,登記記録の閉鎖等,0,2024-11-22,2024-11-13,特定非営利活動法人フードバンクにいがた,,その他の設立登記法人,新潟県,新潟市西区,小針南台３番地１６号葡萄の木,,15,107,9502026,,,2024-11-13,清算の結了等,,,2018-01-04,1,,,,,フードバンクニイガタ,0
425,2120002078806,登記記録の閉鎖等,0,2024-11-22,2024-11-20,有限会社野田組,,有限会社,大阪府,守口市,東町２丁目５番７号,,27,209,5700013,,,2024-11-20,清算の結了等,,,2015-10-05,1,,,,,ノダグミ,0
427,2120005007134,登記記録の閉鎖等,0,2024-11-22,2024-11-20,此花自動車整備協業組合,,その他の設立登記法人,大阪府,大阪市此花区,常吉２丁目５番１３号,,27,104,5540052,,,2024-11-20,清算の結了等,,,2015-10-05,1,,,,,コノハナジドウシャセイビ,0
447,2180001117427,登記記録の閉鎖等,0,2024-11-22,2024-11-13,株式会社Ｍ＆Ｋ,,株式会社,愛知県,名古屋市緑区,神沢１丁目１０５番地,,23,114,4580014,,,2024-11-13,清算の結了等,,,2015-10-05,1,,,,,エムアンドケー,0
452,2180002007164,登記記録の閉鎖等,0,2024-11-22,2024-11-14,有限会社三浦教室,,有限会社,愛知県,名古屋市港区,名四町１４８番地,,23,111,4550053,,,2024-11-14,清算の結了等,,,2015-10-05,1,,,,,ミウラキョウシツ,0
454,2180002060007,登記記録の閉鎖等,0,2024-11-22,2024-11-15,有限会社ＴＡＫＥ電化,,有限会社,愛知県,名古屋市南区,明円町２５７番地の２,,23,112,4570022,,,2024-11-15,清算の結了等,,,2015-10-05,1,,,,,タケデンカ,0
459,2180003024935,登記記録の閉鎖等,0,2024-11-22,2024-11-15,マーレソル合同会社,,合同会社,愛知県,名古屋市中区,大須２丁目１３番２５号丸勝ビル４０１号,,23,106,4600011,,,2024-11-15,清算の結了等,,,2023-03-08,1,,,,,マーレソル,0
460,2180003025025,登記記録の閉鎖等,0,2024-11-22,2024-11-14,合同会社トラストオート,,合同会社,愛知県,名古屋市中川区,東起町５丁目２２番地の１２,,23,110,4540935,,,2024-11-14,清算の結了等,,,2023-03-28,1,,,,,トラストオート,0
461,2180301010141,登記記録の閉鎖等,0,2024-11-22,2024-11-19,日通東愛知運輸株式会社,,株式会社,愛知県,豊川市,牛久保町城下８５番地１,,23,207,4420826,,,2024-11-19,清算の結了等,,,2015-10-05,1,,,,,ニッツウヒガシアイチウンユ,0
468,2220001009330,登記記録の閉鎖等,0,2024-11-22,2024-11-18,株式会社西川建設,,株式会社,石川県,白山市,小川町７１０番地１,,17,210,9240067,,,2024-11-18,清算の結了等,,,2015-10-05,1,,,,,ニシカワケンセツ,0
478,2230001020492,登記記録の閉鎖等,0,2024-11-22,2024-11-07,株式会社山崎ニット,,株式会社,富山県,小矢部市,西中６８１３番地,,16,209,9320805,,,2024-11-07,清算の結了等,,,2024-08-21,1,,,,,ヤマザキニット,0
487,2280002001719,登記記録の閉鎖等,0,2024-11-22,2024-11-18,有限会社乃木調剤薬局,,有限会社,島根県,松江市,田和山町１１１番地,,32,201,6900058,,,2024-11-18,合併による解散等,2070001029807,令和６年１１月１日東京都千代田区大手町一丁目３番１号さくら薬局株式会社（2070001029807）に合併し解散,2015-10-05,1,,,,,ノギチョウザイヤッキョク,0
506,2360001023128,登記記録の閉鎖等,0,2024-11-22,2024-11-21,株式会社トータルＳ＆Ｓ,,株式会社,沖縄県,豊見城市,字真玉橋３７０番地,,47,212,9010201,,,2024-11-21,清算の結了等,,,2017-11-13,1,,,,,,0
511,2380001016451,登記記録の閉鎖等,0,2024-11-22,2024-11-11,株式会社ウエダ建設,,株式会社,福島県,双葉郡浪江町,大字川添字前畑３９番地,,07,547,9791531,,,2024-11-11,清算の結了等,,,2015-10-05,1,,,,,ウエダケンセツ,0
516,2390002010477,登記記録の閉鎖等,0,2024-11-22,2024-11-15,有限会社スズキ縫製,,有限会社,山形県,鶴岡市,家中新町１４番地３１号,,06,203,9970036,,,2024-11-15,清算の結了等,,,2015-10-05,1,,,,,スズキホウセイ,0
518,2420001011786,登記記録の閉鎖等,0,2024-11-22,2024-11-15,ツル産業株式会社,,株式会社,青森県,上北郡六ヶ所村,大字尾駮字二又２３番地２,,02,411,0393212,,,2024-11-15,合併による解散等,3420001011785,令和６年１１月１日青森県上北郡六ヶ所村大字尾駮字二又２３番地２附田建設株式会社（3420001011785）に合併し解散,2015-10-05,1,,,,,ツルサンギョウ,0
525,2430002002932,登記記録の閉鎖等,0,2024-11-22,2024-11-14,有限会社エス・アール・エム,,有限会社,北海道,札幌市豊平区,福住三条１０丁目１１番８号,,01,105,0620043,,,2024-11-14,清算の結了等,,,2015-10-05,1,,,,,エスアールエム,0
527,2430002043902,登記記録の閉鎖等,0,2024-11-22,2024-11-19,有限会社あじわいの花ぶき,,有限会社,北海道,石狩市,花川南三条４丁目２７５番地１,,01,235,0613203,,,2024-11-19,清算の結了等,,,2015-10-05,1,,,,,アジワイノハナブキ,0
554,3010401009090,登記記録の閉鎖等,0,2024-11-22,2024-11-01,株式会社計画研究所コスモプラン,,株式会社,東京都,港区,赤坂７丁目６番４１号赤坂七番館２０９,,13,103,1070052,,,2024-11-01,清算の結了等,,,2015-10-05,1,,,,,ケイカクケンキュウジョコスモプラン,0
555,3010401096278,登記記録の閉鎖等,0,2024-11-22,2024-11-05,株式会社バリューコネクト,,株式会社,東京都,港区,南青山２丁目２番１５号,,13,103,1070062,,,2024-11-05,清算の結了等,,,2015-10-05,1,,,,,,0
558,3010401130739,登記記録の閉鎖等,0,2024-11-22,2024-11-19,株式会社オブジェクティブキャリア,,株式会社,東京都,大田区,東蒲田１丁目５番８号,,13,111,1440031,,,2024-11-19,合併による解散等,3010701026546,令和６年１１月１日東京都港区元赤坂一丁目１番１６号株式会社オブジェクティブコード（3010701026546）に合併し解散,2017-04-12,1,,,,,オブジェクティブキャリア,0
574,3010801005045,登記記録の閉鎖等,0,2024-11-22,2024-11-08,株式会社城南法務総合事務所,,株式会社,東京都,中央区,築地４丁目４番５号,,13,102,1040045,,,2024-11-08,清算の結了等,,,2015-10-05,1,,,,,ジョウナンホウムソウゴウジムショ,0
587,3011001108373,登記記録の閉鎖等,0,2024-11-22,2024-11-08,株式会社Ｖｅｒｖｅ　Ｇｒｏｕｐ,,株式会社,東京都,中央区,京橋３丁目１番１号東京スクエアガーデン１４階,,13,102,1040031,,,2024-11-08,清算の結了等,,,2015-11-25,1,,,,,ヴァーブグループ,0
595,3011002035996,登記記録の閉鎖等,0,2024-11-22,2024-11-08,小泉ソリューション株式会社,,株式会社,東京都,渋谷区,富ヶ谷２丁目２１番１５号,,13,113,1510063,,,2024-11-08,清算の結了等,,,2015-10-05,1,,,,,コイズミソリューション,0
621,3020001063479,登記記録の閉鎖等,0,2024-11-22,2024-11-07,株式会社条美,,株式会社,神奈川県,横浜市西区,南幸２丁目１９番２号第二土屋ビル７,,14,103,2200005,,,2024-11-07,清算の結了等,,,2015-10-05,1,,,,,ジョウビ,0
626,3020001138413,登記記録の閉鎖等,0,2024-11-22,2024-11-13,株式会社Ｍ．Ｋ．Ｈ,,株式会社,神奈川県,横浜市旭区,今宿西町４５１番地１コモンスクエアＡ２０１,,14,112,2410031,,,2024-11-13,清算の結了等,,,2020-11-04,1,,,,,エムケイエイチ,0
640,3021001031871,登記記録の閉鎖等,0,2024-11-22,2024-11-20,株式会社サンワーク,,株式会社,神奈川県,厚木市,金田６７５番地の１ヴァンハウス本厚木２０１,,14,212,2430807,,,2024-11-20,清算の結了等,,,2015-10-05,1,,,,,サンワーク,0
645,3030001048719,登記記録の閉鎖等,0,2024-11-22,2024-11-19,株式会社山崎治療所,00014951,株式会社,埼玉県,富士見市,大字水子４７０８アクシス１０１号,,11,235,3540011,,,2024-11-19,清算の結了等,,,2015-10-05,1,,,,,ヤマザキチリョウショ,0
667,3040002016442,登記記録の閉鎖等,0,2024-11-22,2024-11-15,有限会社リーブル・シゾ,,有限会社,千葉県,千葉市中央区,登戸１丁目２番地１,,12,101,2600032,,,2024-11-15,清算の結了等,,,2015-10-05,1,,,,,リーブルシゾ,0
680,3080401014092,登記記録の閉鎖等,0,2024-11-22,2024-11-18,株式会社樹木,,株式会社,静岡県,浜松市中央区,中野町７０７番地の３,,22,138,4350004,,,2024-11-18,清算の結了等,,,2015-10-05,1,,,,,イツキ,0
693,3120001156660,登記記録の閉鎖等,0,2024-11-22,2024-11-19,株式会社マツバラ,,株式会社,大阪府,守口市,小春町１番１０号,,27,209,5700061,,,2024-11-19,清算の結了等,,,2015-10-05,1,,,,,マツバラ,0
705,3120103004081,登記記録の閉鎖等,0,2024-11-22,2024-10-31,ａｎｅｌａ合同会社,,合同会社,大阪府,岸和田市,池尻町５２２番地の１,,27,202,5960813,,,2024-10-31,清算の結了等,,,2021-03-05,1,,,,,アネラ,0
752,3240001061626,登記記録の閉鎖等,0,2024-11-22,2024-11-21,株式会社プログレス,,株式会社,広島県,広島市中区,本川町１丁目１番２１－５０１号,,34,101,7300802,,,2024-11-21,清算の結了等,,,2023-06-05,1,,,,,プログレス,0
754,3240005012377,登記記録の閉鎖等,0,2024-11-22,2024-11-19,特定非営利活動法人広島市観光アシスタント協会,,その他の設立登記法人,広島県,広島市中区,白島北町１８番１－３３１号,,34,101,7300001,,,2024-11-19,清算の結了等,,,2015-10-05,1,,,,,ヒロシマシカンコウアシスタントキョウカイ,0
762,3290802021146,登記記録の閉鎖等,0,2024-11-22,2024-11-20,有限会社リカーショップさくら,,有限会社,福岡県,宮若市,鶴田字岩河内２０４６番地２０,,40,226,8230002,,,2024-11-20,清算の結了等,,,2015-10-05,1,,,,,リカーショップサクラ,0
765,3310001005492,登記記録の閉鎖等,0,2024-11-22,2024-11-20,ＪＲ九州ハウステンボスホテル株式会社,,株式会社,長崎県,佐世保市,ハウステンボス町１０番,,42,202,8593243,,,2024-11-20,合併による解散等,9290001100324,令和６年１０月１日福岡市博多区博多駅東一丁目１７番１号ＪＲ九州ホテルズアンドリゾーツ株式会社（9290001100324）に合併し解散,2015-10-05,1,,,,,,0
770,3330001032196,登記記録の閉鎖等,0,2024-11-22,2024-11-01,東洋企画株式会社,,株式会社,熊本県,熊本市中央区,中央街６番７号,,43,101,8600802,,,2024-11-01,清算の結了等,,,2024-08-19,1,,,,,トウヨウキカク,0
779,3370002037273,登記記録の閉鎖等,0,2024-11-22,2024-11-14,有限会社さかもと薬品,,有限会社,宮城県,登米市,迫町佐沼字錦１７０番地,,04,212,9870511,,,2024-11-14,清算の結了等,,,2024-11-14,1,,,,,サカモトヤクヒン,0
794,3470002001252,登記記録の閉鎖等,0,2024-11-22,2024-11-20,有限会社ウメキ建興,,有限会社,香川県,高松市,三谷町１７７８番地１,,37,201,7610450,,,2024-11-20,清算の結了等,,,2015-10-05,1,,,,,ウメキケンコウ,0
795,3480002001532,登記記録の閉鎖等,0,2024-11-22,2024-11-20,有限会社佐川青果,,有限会社,徳島県,徳島市,北沖洲４丁目１番３８号,,36,201,7700872,,,2024-11-20,清算の結了等,,,2015-10-05,1,,,,,サガワセイカ,0
804,4010001143784,登記記録の閉鎖等,0,2024-11-22,2024-11-11,ホライゾン・クリエイティブ株式会社,,株式会社,東京都,千代田区,東神田２丁目３番１０号,,13,101,1010031,,,2024-11-11,清算の結了等,,,2015-10-05,1,,,,,ホライゾンクリエイティブ,0
805,4010001210122,登記記録の閉鎖等,0,2024-11-22,2024-11-08,株式会社Ｍｆｉｒｓｔ,,株式会社,東京都,中央区,銀座８丁目６番５号,,13,102,1040061,,,2024-11-08,清算の結了等,,,2020-06-05,1,,,,,エムファースト,0
823,4010401137122,登記記録の閉鎖等,0,2024-11-22,2024-11-19,株式会社オブジェクティブＧＥＮＥＳＩＳ,,株式会社,東京都,大田区,東蒲田１丁目５－８,,13,111,1440031,,,2024-11-19,合併による解散等,3010701026546,令和６年１１月１日東京都港区元赤坂一丁目１番１６号株式会社オブジェクティブコード（3010701026546）に合併し解散,2018-03-12,1,,,,,,0
838,4011001128445,登記記録の閉鎖等,0,2024-11-22,2024-11-01,株式会社アクティバル,,株式会社,東京都,渋谷区,神宮前６丁目２３番４号桑野ビル２階,,13,113,1500001,,,2024-11-01,清算の結了等,,,2019-06-17,1,,,,,アクティバル,0
852,4011201006343,登記記録の閉鎖等,0,2024-11-22,2024-11-20,株式会社エイティワンニュース社,,株式会社,東京都,中野区,中央５丁目４番２５－４０２号,,13,114,1640011,,,2024-11-20,清算の結了等,,,2015-10-05,1,,,,,エイティワンニュースシャ,0
863,4011503004796,登記記録の閉鎖等,0,2024-11-22,2024-11-08,合同会社西禅,,合同会社,東京都,中央区,勝どき６丁目３番２－２９１２号室,,13,102,1040054,,,2024-11-08,清算の結了等,,,2021-06-17,1,,,,,セイゼン,0
867,4011701007956,登記記録の閉鎖等,0,2024-11-22,2024-11-15,株式会社山秋,,株式会社,東京都,江戸川区,西葛西３丁目７番１５号,,13,123,1340088,,,2024-11-15,清算の結了等,,,2015-10-05,1,,,,,サンシュウ,0
874,4011802008218,登記記録の閉鎖等,0,2024-11-22,2024-11-19,有限会社友親建設工業,,有限会社,東京都,葛飾区,お花茶屋３丁目８番１８号,,13,122,1240003,,,2024-11-19,清算の結了等,,,2015-10-05,1,,,,,ユウシンケンセツコウギョウ,0
877,4013101003759,登記記録の閉鎖等,0,2024-11-22,2024-11-18,株式会社タマサービス,,株式会社,東京都,青梅市,今井３丁目３番１１号,,13,205,1980023,,,2024-11-18,合併による解散等,2050001011980,令和６年１１月１日茨城県小美玉市中延１７８８番地株式会社ユーゴー（2050001011980）に合併し解散,2015-10-05,1,,,,,タマサービス,0
884,4020001115840,登記記録の閉鎖等,0,2024-11-22,2024-11-08,株式会社クラウドリィ,,株式会社,神奈川県,川崎市中原区,小杉御殿町２丁目８３番地１クレストフォルム武蔵小杉御殿町５０４,,14,133,2110068,,,2024-11-08,清算の結了等,,,2016-04-21,1,,,,,クラウドリィ,0
899,4030001125260,登記記録の閉鎖等,0,2024-11-22,2024-11-19,株式会社ＨＣスマイル,,株式会社,埼玉県,さいたま市大宮区,桜木町１丁目３６６番地９オープンオフィス大宮駅西口ビル１－５Ｆ,,11,103,3300854,,,2024-11-19,清算の結了等,,,2018-04-20,1,,,,,エイチシースマイル,0
903,4030002066017,登記記録の閉鎖等,0,2024-11-22,2024-11-20,有限会社鹿屋,,有限会社,埼玉県,富士見市,鶴馬１丁目６番５６号,,11,235,3540021,,,2024-11-20,清算の結了等,,,2015-10-05,1,,,,,カノヤ,0
905,4030003015583,登記記録の閉鎖等,0,2024-11-22,2024-11-20,ＣＥＥＭ合同会社,,合同会社,埼玉県,新座市,西堀１丁目４番３１－８号,,11,230,3520031,,,2024-11-20,清算の結了等,,,2020-07-21,1,,,,,シーム,0
925,4080402009999,登記記録の閉鎖等,0,2024-11-22,2024-11-19,有限会社杢谷あきら建築設計事務所,,有限会社,静岡県,浜松市中央区,舞阪町舞阪４３１６番地,,22,138,4310211,,,2024-11-19,清算の結了等,,,2015-10-05,1,,,,,モクタニアキラケンチクセッケイジムショ,0
929,4100002010553,登記記録の閉鎖等,0,2024-11-22,2024-11-14,有限会社共栄,,有限会社,長野県,佐久市,臼田２５１番地３,,20,217,3840301,,,2024-11-14,清算の結了等,,,2015-10-05,1,,,,,キョウエイ,0
932,4110002006930,登記記録の閉鎖等,0,2024-11-22,2024-11-08,有限会社ゆめ企画,,有限会社,新潟県,新潟市江南区,亀田大月２丁目４６５番地５,,15,104,9500162,,,2024-11-08,清算の結了等,,,2015-10-05,1,,,,,ユメキカク,0
937,4120001118569,登記記録の閉鎖等,0,2024-11-22,2024-11-21,株式会社ナカジマ,,株式会社,大阪府,大阪市天王寺区,北山町５番１３号,,27,109,5430035,,,2024-11-21,清算の結了等,,,2015-10-05,1,,,,,ナカジマ,0
969,4180001083931,登記記録の閉鎖等,0,2024-11-22,2024-11-14,株式会社やなぎだ米穀,,株式会社,愛知県,一宮市,今伊勢町馬寄字西切戸４５番地の９,,23,203,4910051,,,2024-11-14,清算の結了等,,,2015-10-05,1,,,,,ヤナギダベイコク,0
978,4180002034900,登記記録の閉鎖等,0,2024-11-22,2024-11-14,有限会社瑞穂ショーエイ,,有限会社,愛知県,名古屋市南区,鶴田１丁目２番２号,,23,112,4570003,,,2024-11-14,清算の結了等,,,2015-10-05,1,,,,,ミズホショーエイ,0
986,4180302026052,登記記録の閉鎖等,0,2024-11-22,2024-11-15,有限会社あさい,,有限会社,愛知県,西尾市,永吉１丁目５８番地２,,23,213,4450870,,,2024-11-15,清算の結了等,,,2015-10-05,1,,,,,アサイ,0
989,4200001013877,登記記録の閉鎖等,0,2024-11-22,2024-11-21,大松製作工業株式会社,,株式会社,岐阜県,大垣市,外野１丁目１１２番地,,21,202,5030933,,,2024-11-21,清算の結了等,,,2015-10-05,1,,,,,,0
1000,4220002011218,登記記録の閉鎖等,0,2024-11-22,2024-11-19,有限会社馬里紗,,有限会社,石川県,小松市,三日市町７番地５,,17,203,9230924,,,2024-11-19,清算の結了等,,,2015-10-05,1,,,,,マリサ,0
1002,4240001025092,登記記録の閉鎖等,0,2024-11-22,2024-11-19,広島積水樹脂株式会社,,株式会社,広島県,庄原市,東城町新福代１９番地,,34,210,7295112,,,2024-11-19,合併による解散等,9120001059651,令和６年１１月１日大阪市北区西天満二丁目４番４号積水樹脂株式会社（9120001059651）に合併し解散,2015-10-05,1,,,,,ヒロシマセキスイジュシ,0
1006,4240002054297,登記記録の閉鎖等,0,2024-11-22,2024-11-20,有限会社ディ・オンリー・ゆみ,,有限会社,広島県,三原市,和田３丁目６番１号,,34,204,7230041,,,2024-11-20,清算の結了等,,,2015-10-05,1,,,,,ディオンリーユミ,0
1017,4290802012631,登記記録の閉鎖等,0,2024-11-22,2024-11-20,有限会社山王商事,,有限会社,福岡県,北九州市八幡東区,荒生田２丁目２番２９号,,40,108,8050015,,,2024-11-20,清算の結了等,,,2015-10-05,1,,,,,サンノウショウジ,0
1021,4300002007117,登記記録の閉鎖等,0,2024-11-22,2024-11-20,有限会社馬場観光タクシー,,有限会社,佐賀県,藤津郡太良町,大字多良１６８８番地５,,41,441,8491602,,,2024-11-20,清算の結了等,,,2015-10-05,1,,,,,ババカンコウタクシー,0
1022,4310002019540,登記記録の閉鎖等,0,2024-11-22,2024-11-20,有限会社やまぐち,,有限会社,長崎県,平戸市,田平町山内免３０８番地,,42,207,8594825,,,2024-11-20,清算の結了等,,,2015-10-05,1,,,,,ヤマグチ,0
1031,4340001021115,登記記録の閉鎖等,0,2024-11-22,2024-11-21,株式会社梅北,,株式会社,鹿児島県,鹿児島市,伊敷台４丁目１７番１９号,,46,201,8900007,,,2024-11-21,清算の結了等,,,2018-04-17,1,,,,,ウメキタ,0
1033,4340005005601,登記記録の閉鎖等,0,2024-11-22,2024-11-19,特定非営利活動法人夢の木,,その他の設立登記法人,鹿児島県,鹿児島市,中山２丁目２９番３－１号,,46,201,8910108,,,2024-11-19,清算の結了等,,,2015-10-05,1,,,,,ユメノキ,0
1039,4370001014157,登記記録の閉鎖等,0,2024-11-22,2024-11-15,株式会社ケイエムプランニング,,株式会社,宮城県,仙台市泉区,高森６丁目１１番地の５,,04,105,9813203,,,2024-11-15,清算の結了等,,,2015-10-05,1,,,,,ケイエムプランニング,0
1052,4390001008289,登記記録の閉鎖等,0,2024-11-22,2024-11-15,株式会社柴崎通信,,株式会社,山形県,鶴岡市,稲生１丁目１番６号エクセレントＲ３４５．１０１号室,,06,203,9970834,,,2024-11-15,清算の結了等,,,2015-10-05,1,,,,,シバサキツウシン,0
1059,4470001015277,登記記録の閉鎖等,0,2024-11-22,2024-11-19,株式会社河田製作所,,株式会社,香川県,丸亀市,金倉町２６３－５,,37,202,7630053,,,2024-11-19,清算の結了等,,,2015-10-05,1,,,,,カワタセイサクショ,0
1060,4470005006289,登記記録の閉鎖等,0,2024-11-22,2024-11-20,一般社団法人ＭＡＫＥ・ＭＩＲＡＣＬＥ,,その他の設立登記法人,香川県,丸亀市,城東町１丁目５番１６号リュミエール城東３番館,,37,202,7630013,,,2024-11-20,清算の結了等,,,2020-08-12,1,,,,,メイクミラクル,0
1066,5010001078195,登記記録の閉鎖等,0,2024-11-22,2024-11-08,株式会社クローバー・ライフ,,株式会社,東京都,中央区,日本橋富沢町４番８号,,13,102,1030006,,,2024-11-08,清算の結了等,,,2015-10-05,1,,,,,クローバーライフ,0
1101,5010802000530,登記記録の閉鎖等,0,2024-11-22,2024-11-13,有限会社アストロクラブ,,有限会社,東京都,大田区,南馬込２丁目２４番２８号,,13,111,1430025,,,2024-11-13,清算の結了等,,,2015-10-05,1,,,,,アストロクラブ,0
1134,5012403004002,登記記録の閉鎖等,0,2024-11-22,2024-11-06,ＲＮ合同会社,,合同会社,東京都,港区,南青山２丁目２番１５号,,13,103,1070062,,,2024-11-06,清算の結了等,,,2019-08-28,1,,,,,アールエヌ,0
1139,5013303006261,登記記録の閉鎖等,0,2024-11-22,2024-11-11,コスモス合同会社,,合同会社,東京都,中央区,銀座４丁目１３番８号岩藤ビル５階,,13,102,1040061,,,2024-11-11,清算の結了等,,,2022-08-12,1,,,,,コスモス,0
1143,5020001081727,登記記録の閉鎖等,0,2024-11-22,2024-11-12,株式会社アン・カンパニー,,株式会社,神奈川県,川崎市高津区,坂戸３丁目９番１６号,,14,134,2130012,,,2024-11-12,清算の結了等,,,2015-10-05,1,,,,,アンカンパニー,0
1150,5020001152965,登記記録の閉鎖等,0,2024-11-22,2024-11-13,株式会社関東住建,,株式会社,神奈川県,横浜市都筑区,仲町台１丁目２番２８号,,14,118,2240041,,,2024-11-13,清算の結了等,,,2023-08-09,1,,,,,カントウジュウケン,0
1161,5021002071568,登記記録の閉鎖等,0,2024-11-22,2024-11-19,有限会社杉山興業所,,有限会社,神奈川県,三浦市,岬陽町３番２７号,,14,210,2380222,,,2024-11-19,清算の結了等,,,2015-10-05,1,,,,,スギヤマコウギョウショ,0
1162,5030001062197,登記記録の閉鎖等,0,2024-11-22,2024-11-19,株式会社藤正,,株式会社,埼玉県,鴻巣市,袋１番地,,11,217,3690131,,,2024-11-19,清算の結了等,,,2015-10-05,1,,,,,フジショウ,0
1171,5040002013248,登記記録の閉鎖等,0,2024-11-22,2024-11-19,有限会社システムアイデザイン研究所,,有限会社,千葉県,千葉市緑区,あすみが丘８丁目１６番地１５,,12,105,2670066,,,2024-11-19,清算の結了等,,,2015-10-05,1,,,,,システムアイデザインケンキュウショ,0
1179,5040005019614,登記記録の閉鎖等,0,2024-11-22,2024-11-19,ＮＰＯ法人居心地心理学,,その他の設立登記法人,千葉県,我孫子市,根戸３４４番地の１９６,,12,222,2701168,,,2024-11-19,清算の結了等,,,2017-07-26,1,,,,,イゴコチシンリガク,0
1191,5080401002302,登記記録の閉鎖等,0,2024-11-22,2024-11-18,株式会社ピュアウイング,,株式会社,静岡県,浜松市中央区,早出町２２５番地の７,,22,138,4350054,,,2024-11-18,清算の結了等,,,2015-10-05,1,,,,,ピュアウイング,0
1192,5080402004207,登記記録の閉鎖等,0,2024-11-22,2024-11-19,有限会社スズキ印刷所,,有限会社,静岡県,浜松市中央区,寺島町３０８番地,,22,138,4300925,,,2024-11-19,清算の結了等,,,2015-10-05,1,,,,,スズキインサツジョ,0
1193,5080402018479,登記記録の閉鎖等,0,2024-11-22,2024-11-19,有限会社まる伊塚本園,,有限会社,静岡県,菊川市,赤土２１８５番地,,22,224,4371507,,,2024-11-19,清算の結了等,,,2015-10-05,1,,,,,マルイツカモトエン,0
1197,5090001011181,登記記録の閉鎖等,0,2024-11-22,2024-11-01,ヴィンテージリゾート株式会社,,株式会社,山梨県,北杜市,須玉町江草３０７２番地,,19,209,4080103,,,2024-11-01,清算の結了等,,,2015-10-05,1,,,,,,0
1206,5110002010576,登記記録の閉鎖等,0,2024-11-22,2024-11-15,有限会社大澤設備,,有限会社,新潟県,新潟市北区,木崎２９６０番地２３,,15,101,9503304,,,2024-11-15,清算の結了等,,,2015-10-05,1,,,,,オオサワセツビ,0
1207,5110002017877,登記記録の閉鎖等,0,2024-11-22,2024-11-15,有限会社八木舘,,有限会社,新潟県,三条市,長野３４５番地,,15,204,9550132,,,2024-11-15,清算の結了等,,,2015-10-05,1,,,,,ヤギカン,0
1208,5110002024246,登記記録の閉鎖等,0,2024-11-22,2024-11-15,有限会社ブティックえま,,有限会社,新潟県,上越市,西本町３丁目９番５号,,15,222,9420004,,,2024-11-15,清算の結了等,,,2015-10-05,1,,,,,ブティックエマ,0
1209,5110005003107,登記記録の閉鎖等,0,2024-11-22,2024-11-15,みどりとおひさまの会事業協同組合,,その他の設立登記法人,新潟県,新潟市西蒲区,国見２７３５番地,,15,108,9590516,,,2024-11-15,清算の結了等,,,2015-10-05,1,,,,,ミドリトオヒサマノカイ,0
1241,5170001007460,登記記録の閉鎖等,0,2024-11-22,2024-11-20,株式会社和歌嶋,,株式会社,和歌山県,有田市,宮崎町１５番地１,,30,204,6490316,,,2024-11-20,清算の結了等,,,2015-10-05,1,,,,,ワカシマ,0
1255,5180001132852,登記記録の閉鎖等,0,2024-11-22,2024-11-15,株式会社メイク,,株式会社,愛知県,名古屋市東区,飯田町１２番地,,23,102,4610013,,,2024-11-15,清算の結了等,,,2018-07-03,1,,,,,メイク,0
1256,5180001153980,登記記録の閉鎖等,0,2024-11-22,2024-11-14,株式会社ＴＥＮＤＡＮＣＥ,,株式会社,愛知県,名古屋市中村区,寿町２６番地カルティア名駅中村日赤８０１,,23,105,4530028,,,2024-11-14,清算の結了等,,,2022-11-30,1,,,,,テンダンス,0
1259,5180002018456,登記記録の閉鎖等,0,2024-11-22,2024-11-14,有限会社大清鉄工,,有限会社,愛知県,名古屋市中川区,尾頭橋４丁目６番２１号,,23,110,4540012,,,2024-11-14,清算の結了等,,,2015-10-05,1,,,,,オオキヨテッコウ,0
1260,5180002071793,登記記録の閉鎖等,0,2024-11-22,2024-11-13,有限会社４０１Ｋコンサルティングリサーチ,,有限会社,愛知県,瀬戸市,西原町２丁目３０番地の２,,23,204,4890972,,,2024-11-13,清算の結了等,,,2015-10-05,1,,,,,ヨンマルイチケイコンサルティングリサーチ,0
1263,5180003026722,登記記録の閉鎖等,0,2024-11-22,2024-11-14,プレアノヴァ合同会社,,合同会社,愛知県,名古屋市中村区,名駅４丁目２４番５号第２森ビル４０１,,23,105,4500002,,,2024-11-14,清算の結了等,,,2024-05-02,1,,,,,プレアノヴァ,0
1268,5180302009270,登記記録の閉鎖等,0,2024-11-22,2024-11-13,有限会社パルメック,,有限会社,愛知県,豊橋市,東岩田３丁目９番地の１３,,23,201,4400033,,,2024-11-13,清算の結了等,,,2015-10-05,1,,,,,パルメック,0
1271,5180305009490,登記記録の閉鎖等,0,2024-11-22,2024-11-13,行政書士法人ａｍ,,その他の設立登記法人,愛知県,岡崎市,牧御堂町字水洗３８番地１,,23,202,4440205,,,2024-11-13,清算の結了等,,,2023-07-07,1,,,,,アム,0
1282,5250003001899,登記記録の閉鎖等,0,2024-11-22,2024-11-18,合同会社アレグレット,,合同会社,山口県,山口市,下小鯖２８５８－１,,35,203,7530212,,,2024-11-18,清算の結了等,,,2016-07-07,1,,,,,,0
1283,5260001018341,登記記録の閉鎖等,0,2024-11-22,2024-11-18,株式会社マルケイショップ,,株式会社,岡山県,井原市,西江原町９４７番地の３,,33,207,7150006,,,2024-11-18,清算の結了等,,,2015-10-05,1,,,,,マルケイショップ,0
1288,5300002011142,登記記録の閉鎖等,0,2024-11-22,2024-11-20,有限会社コラソン,,有限会社,佐賀県,唐津市,和多田南先石８番５号,,41,202,8470081,,,2024-11-20,清算の結了等,,,2015-10-05,1,,,,,コラソン,0
1292,5330001030314,登記記録の閉鎖等,0,2024-11-22,2024-11-15,株式会社スカイドローン,,株式会社,熊本県,上益城郡甲佐町,大字西寒野２７９番地,,43,444,8614609,,,2024-11-15,清算の結了等,,,2022-11-22,1,,,,,スカイドローン,0
1313,5400602001037,登記記録の閉鎖等,0,2024-11-22,2024-11-15,有限会社ナイス測量,,有限会社,岩手県,奥州市,江刺南大通り４番３号,,03,215,0231112,,,2024-11-15,清算の結了等,,,2015-10-05,1,,,,,ナイスソクリョウ,0
1315,5420001015702,登記記録の閉鎖等,0,2024-11-22,2024-11-18,株式会社ハングリー,,株式会社,青森県,弘前市,大字早稲田１丁目６番地１５号,,02,202,0368087,,,2024-11-18,清算の結了等,,,2017-04-26,1,,,,,ハングリー,0
1324,5430002057511,登記記録の閉鎖等,0,2024-11-22,2024-11-12,有限会社倉島牧場,,有限会社,北海道,岩内郡岩内町,字宮園２２５番地,,01,402,0450012,,,2024-11-12,清算の結了等,,,2015-10-05,1,,,,,クラシマボクジョウ,0
1326,5450002001475,登記記録の閉鎖等,0,2024-11-22,2024-11-20,有限会社片山デンキ商会,,有限会社,北海道,旭川市,大町二条１０丁目１７３番地の４４,,01,204,0700842,,,2024-11-20,清算の結了等,,,2015-10-05,1,,,,,カタヤマデンキショウカイ,0
1336,6010001142090,登記記録の閉鎖等,0,2024-11-22,2024-11-08,株式会社ハッスル商店,,株式会社,東京都,千代田区,九段南１丁目５番６号りそな九段ビル,,13,101,1020074,,,2024-11-08,清算の結了等,,,2015-10-05,1,,,,,ハッスルショウテン,0
1338,6010001189504,登記記録の閉鎖等,0,2024-11-22,2024-11-08,株式会社メタワークライフ,,株式会社,東京都,中央区,八丁堀４丁目２番８－１００２,,13,102,1040032,,,2024-11-08,清算の結了等,,,2018-02-08,1,,,,,,0
1343,6010003044335,登記記録の閉鎖等,0,2024-11-22,2024-11-11,合同会社ＲＥＰＴＹ,,合同会社,東京都,中央区,銀座１丁目１２番４号Ｎ＆ＥＢＬＤ．６Ｆ,,13,102,1040061,,,2024-11-11,清算の結了等,,,2024-07-25,1,,,,,リプティー,0
1354,6010401164180,登記記録の閉鎖等,0,2024-11-22,2024-11-01,株式会社ｍｕｒｍｕｒ,,株式会社,東京都,千代田区,神田神保町２丁目１０番地４ＰＭＯ神保町１１階,,13,101,1010051,,,2024-11-01,合併による解散等,4010401163663,令和６年１１月１日東京都千代田区神田神保町二丁目１０番地４ＰＭＯ神保町１１階ＲＥＭＯＷ株式会社（4010401163663）に合併し解散,2021-12-03,1,,,,,マーマー,0
1363,6010501000211,登記記録の閉鎖等,0,2024-11-22,2024-11-18,姉川紙工販売株式会社,,株式会社,東京都,台東区,根岸５丁目８番２９号,,13,106,1100003,,,2024-11-18,清算の結了等,,,2015-10-05,1,,,,,,0
1366,6010601056293,登記記録の閉鎖等,0,2024-11-22,2024-11-18,株式会社ＥＡＲＯＴＯ,,株式会社,東京都,江東区,青海２丁目７番４号ｔｈｅＳＯＨＯ２０９,,13,108,1350064,,,2024-11-18,清算の結了等,,,2019-10-18,1,,,,,イヤオート,0
1372,6010802004984,登記記録の閉鎖等,0,2024-11-22,2024-11-13,有限会社建塗技研,,有限会社,東京都,大田区,南六郷３丁目２１番９－４０２号,,13,111,1440045,,,2024-11-13,清算の結了等,,,2015-10-05,1,,,,,ケントギケン,0
1378,6011001111589,登記記録の閉鎖等,0,2024-11-22,2024-11-13,株式会社かぐれ,,株式会社,東京都,目黒区,自由が丘１丁目３１番８号,,13,110,1520035,,,2024-11-13,清算の結了等,,,2016-06-28,1,,,,,カグレ,0
1400,6011102015631,登記記録の閉鎖等,0,2024-11-22,2024-11-13,有限会社マジカルランプ,,有限会社,神奈川県,横浜市港北区,綱島東５丁目３１番９号,,14,109,2230052,,,2024-11-13,清算の結了等,,,2015-10-05,1,,,,,マジカルランプ,0
1407,6011401023707,登記記録の閉鎖等,0,2024-11-22,2024-11-18,株式会社ＵＴＡＮ　ＨＯＵＳＥ,,株式会社,東京都,板橋区,西台２丁目４１番１３号,,13,119,1750045,,,2024-11-18,清算の結了等,,,2021-10-04,1,,,,,ウータンハウス,0
1421,6012403004133,登記記録の閉鎖等,0,2024-11-22,2024-11-20,ディアディラハス合同会社,,合同会社,東京都,武蔵野市,関前３丁目６－８ライネスハイム武蔵野１０７,,13,203,1800014,,,2024-11-20,清算の結了等,,,2019-12-10,1,,,,,ディアディラハス,0
1427,6013303000461,登記記録の閉鎖等,0,2024-11-22,2024-11-11,合資会社岡島印刷,,合資会社,東京都,豊島区,東池袋５丁目３５番９号,,13,116,1700013,,,2024-11-11,清算の結了等,,,2015-10-05,1,,,,,オカジマインサツ,0
1428,6013303004999,登記記録の閉鎖等,0,2024-11-22,2024-11-12,合同会社壱歩,,合同会社,東京都,豊島区,駒込３丁目１番３号Ａ－１０６,,13,116,1700003,,,2024-11-12,清算の結了等,,,2020-02-26,1,,,,,イッポ,0
1433,6020002074191,登記記録の閉鎖等,0,2024-11-22,2024-11-08,有限会社ティーアンドピー,,有限会社,神奈川県,横浜市鶴見区,江ケ崎町１６番地１７－２０５号,,14,101,2300002,,,2024-11-08,清算の結了等,,,2015-10-05,1,,,,,ティーアンドピー,0
1437,6021005004672,登記記録の閉鎖等,0,2024-11-22,2024-11-08,医療法人社団佳和会,,その他の設立登記法人,東京都,渋谷区,道玄坂１丁目１６番７号ハイウェービル７階,,13,113,1500043,,,2024-11-08,清算の結了等,,,2015-10-05,1,,,,,ケイワカイ,0
1445,6030002087746,登記記録の閉鎖等,0,2024-11-22,2024-11-18,有限会社深井ブロック,,有限会社,埼玉県,越谷市,新越谷１丁目１２番地７,,11,222,3430857,,,2024-11-18,清算の結了等,,,2015-10-05,1,,,,,フカイブロック,0
1448,6030003022842,登記記録の閉鎖等,0,2024-11-22,2024-11-19,合同会社ＥＮＡＢＬＥ,,合同会社,埼玉県,さいたま市浦和区,木崎５丁目６番１５号,,11,107,3300042,,,2024-11-19,清算の結了等,,,2023-10-23,1,,,,,エネイブル,0
1460,6040002041652,登記記録の閉鎖等,0,2024-11-22,2024-11-15,有限会社ベルトーク,,有限会社,千葉県,市川市,南行徳３丁目２６番４号,,12,203,2720138,,,2024-11-15,清算の結了等,,,2015-10-05,1,,,,,ベルトーク,0
1468,6050002016422,登記記録の閉鎖等,0,2024-11-22,2024-11-15,有限会社岡野組,,有限会社,茨城県,小美玉市,花野井８３番地,,08,236,3190124,,,2024-11-15,清算の結了等,,,2015-10-05,1,,,,,オカノグミ,0
1513,6130001076574,登記記録の閉鎖等,0,2024-11-22,2024-11-20,株式会社ＴＯＤＡ,,株式会社,京都府,京都市伏見区,淀下津町１１番地ルナソーレ淀１０１号,,26,109,6130905,,,2024-11-20,清算の結了等,,,2024-03-18,1,,,,,トダ,0
1536,6180301024121,登記記録の閉鎖等,0,2024-11-22,2024-11-13,株式会社オカノ金型,,株式会社,愛知県,豊川市,一宮町宮前１３９番地２,,23,207,4411231,,,2024-11-13,清算の結了等,,,2015-10-05,1,,,,,オカノカナガタ,0
1541,6200001000799,登記記録の閉鎖等,0,2024-11-22,2024-11-20,株式会社大橋屋洋品店,,株式会社,岐阜県,岐阜市,柳ケ瀬通２丁目２２番地,,21,201,5008875,,,2024-11-20,清算の結了等,,,2015-10-05,1,,,,,オオハシヤヨウヒンテン,0
1558,6290001085964,登記記録の閉鎖等,0,2024-11-22,2024-10-22,株式会社ｔｏｎｅｒｉｃｏ,,株式会社,福岡県,福岡市中央区,荒戸２丁目２番１１－６０２号,,40,133,8100062,,,2024-10-22,清算の結了等,,,2019-07-22,1,,,,,トネリコ,0
1567,6290801025203,登記記録の閉鎖等,0,2024-11-22,2024-11-20,ＪＲ九州ステーションホテル小倉株式会社,,株式会社,福岡県,北九州市小倉北区,浅野１丁目１番１号,,40,106,8020001,,,2024-11-20,合併による解散等,9290001100324,令和６年１０月１日福岡市博多区博多駅東一丁目１７番１号ＪＲ九州ホテルズアンドリゾーツ株式会社（9290001100324）に合併し解散,2019-01-04,1,,,,,ジェイアールキュウシュウステーションホテルコクラ,0
1582,6350001008142,登記記録の閉鎖等,0,2024-11-22,2024-11-19,株式会社都北不動産,,株式会社,宮崎県,都城市,都北町６０４１番地１,,45,202,8850004,,,2024-11-19,清算の結了等,,,2015-10-05,1,,,,,トホクフドウサン,0
1603,6440001008199,登記記録の閉鎖等,0,2024-11-22,2024-11-18,株式会社あおぞらコンサルティング,,株式会社,北海道,函館市,高松町１８６番地３１,,01,202,0420952,,,2024-11-18,清算の結了等,,,2017-11-07,1,,,,,アオゾラコンサルティング,0
1612,7010001106367,登記記録の閉鎖等,0,2024-11-22,2024-11-08,株式会社レイヤード,,株式会社,東京都,中央区,銀座８丁目１８番１６号銀座Ｊ８ビル８０１室,,13,102,1040061,,,2024-11-08,清算の結了等,,,2015-10-05,1,,,,,レイヤード,0
1617,7010001212743,登記記録の閉鎖等,0,2024-11-22,2024-11-05,株式会社メンバーズエナジー,,株式会社,東京都,中央区,晴海１丁目８番１０号,,13,102,1040053,,,2024-11-05,合併による解散等,7010701022764,令和６年１１月１日東京都中央区晴海一丁目８番１０号株式会社メンバーズ（7010701022764）に合併し解散,2020-10-06,1,,,,,メンバーズエナジー,0
1630,7010401128242,登記記録の閉鎖等,0,2024-11-22,2024-11-19,株式会社オブジェクティブコンセプト,,株式会社,東京都,大田区,東蒲田１丁目５－８,,13,111,1440031,,,2024-11-19,合併による解散等,3010701026546,令和６年１１月１日東京都港区元赤坂一丁目１番１６号株式会社オブジェクティブコード（3010701026546）に合併し解散,2016-11-17,1,,,,,オブジェクティブコンセプト,0
1633,7010401135809,登記記録の閉鎖等,0,2024-11-22,2024-11-19,株式会社オブジェクティブＵＳＥＲ,,株式会社,東京都,大田区,東蒲田１丁目５－８,,13,111,1440031,,,2024-11-19,合併による解散等,3010701026546,令和６年１１月１日東京都港区元赤坂一丁目１番１６号株式会社オブジェクティブコード（3010701026546）に合併し解散,2018-01-12,1,,,,,オブジェクティブユーザー,0
1646,7010402028623,登記記録の閉鎖等,0,2024-11-22,2024-11-06,有限会社青山安田ビル,,有限会社,東京都,港区,南青山２丁目２７番２２号,,13,103,1070062,,,2024-11-06,清算の結了等,,,2015-10-05,1,,,,,アオヤマヤスダビル,0
1669,7011001013999,登記記録の閉鎖等,0,2024-11-22,2024-10-25,株式会社大和武道具製作所,,株式会社,東京都,渋谷区,本町４丁目１８番３号,,13,113,1510071,,,2024-10-25,清算の結了等,,,2015-10-05,1,,,,,ヤマトブドウグセイサクショ,0
1673,7011001114533,登記記録の閉鎖等,0,2024-11-22,2024-11-01,株式会社ＵＮＷＩＮＤＥＲ,,株式会社,東京都,渋谷区,神宮前６丁目２５－８神宮前コーポラス１１０１,,13,113,1500001,,,2024-11-01,清算の結了等,,,2017-01-30,1,,,,,アンワインダー,0
1683,7011103011546,登記記録の閉鎖等,0,2024-11-22,2024-11-11,合同会社ＵＮＣＮ,,合同会社,東京都,新宿区,東榎町５番地神楽坂Ｓ－ｏｎｅ５０２,,13,104,1620807,,,2024-11-11,清算の結了等,,,2022-03-09,1,,,,,アンチェイン,0
1690,7011501007897,登記記録の閉鎖等,0,2024-11-22,2024-11-19,時田商事株式会社,,株式会社,東京都,荒川区,西尾久７丁目１３番２－２０４号,,13,118,1160011,,,2024-11-19,清算の結了等,,,2015-10-05,1,,,,,トキタショウジ,0
1699,7011802024542,登記記録の閉鎖等,0,2024-11-22,2024-11-15,有限会社本間工業,,有限会社,東京都,江戸川区,松島３丁目４４番１２号,,13,123,1320031,,,2024-11-15,清算の結了等,,,2015-10-05,1,,,,,,0
1715,7020002009964,登記記録の閉鎖等,0,2024-11-22,2024-11-12,三立電機有限会社,,有限会社,神奈川県,横浜市磯子区,滝頭２丁目７番１０号,,14,107,2350012,,,2024-11-12,清算の結了等,,,2015-10-05,1,,,,,サンリツデンキ,0
1736,7030002118698,登記記録の閉鎖等,0,2024-11-22,2024-11-06,有限会社一之助,,有限会社,埼玉県,深谷市,榛沢新田５９番地,,11,218,3690221,,,2024-11-06,清算の結了等,,,2015-10-05,1,,,,,イチノスケ,0
1753,7080101015882,登記記録の閉鎖等,0,2024-11-22,2024-11-20,株式会社オーシャン,,株式会社,静岡県,富士市,今泉３３６６番地の１アドラブール・コートＩＩＩ－２０１号,00134160,22,210,4170001,,,2024-11-20,清算の結了等,,,2015-10-05,1,,,,,オーシャン,0
1754,7080401005484,登記記録の閉鎖等,0,2024-11-22,2024-11-19,安川工機株式会社,,株式会社,静岡県,浜松市中央区,中沢町１４番２３号,,22,138,4300904,,,2024-11-19,清算の結了等,,,2015-10-05,1,,,,,ヤスカワコウキ,0
1760,7090003001749,登記記録の閉鎖等,0,2024-11-22,2024-11-20,グローバルファースト合同会社,,合同会社,山梨県,中央市,山之神１５２９番地２５,,19,214,4093845,,,2024-11-20,清算の結了等,,,2020-10-15,1,,,,,グローバルファースト,0
1763,7110002024038,登記記録の閉鎖等,0,2024-11-22,2024-11-15,有限会社大島電化センター,,有限会社,新潟県,上越市,寺町１丁目１１番２１号,,15,222,9430892,,,2024-11-15,清算の結了等,,,2015-10-05,1,,,,,オオシマデンカセンター,0
1797,7170001003219,登記記録の閉鎖等,0,2024-11-22,2024-11-21,株式会社南里建設,,株式会社,和歌山県,和歌山市,坂田６７番地の６,,30,201,6410003,,,2024-11-21,清算の結了等,,,2015-10-05,1,,,,,,0
1814,7190001009164,登記記録の閉鎖等,0,2024-11-22,2024-11-07,株式会社ブレーン・コーポレーション,,株式会社,栃木県,宇都宮市,平出町３７２９番地１,,09,201,3210901,,,2024-11-07,清算の結了等,,,2015-10-05,1,,,,,ブレーンコーポレーション,0
1834,7250001012839,登記記録の閉鎖等,0,2024-11-22,2024-11-18,株式会社周南興産,,株式会社,山口県,熊毛郡田布施町,大字別府１０３３２番地１,,35,343,7421514,,,2024-11-18,清算の結了等,,,2015-10-05,1,,,,,シュウナンコウサン,0
1843,7260005003643,登記記録の閉鎖等,0,2024-11-22,2024-11-20,医療法人ひとみ会寺谷眼科医院,,その他の設立登記法人,岡山県,倉敷市,児島下の町１０丁目８番４５号,,33,202,7110906,,,2024-11-20,清算の結了等,,,2015-10-05,1,,,,,ヒトミカイテラタニガンカイイン,0
1848,7290003011851,登記記録の閉鎖等,0,2024-11-22,2024-11-07,カンビレイ合同会社,,合同会社,福岡県,福岡市南区,弥永５丁目１７番１４－２０１号,,40,134,8111323,,,2024-11-07,清算の結了等,,,2021-11-17,1,,,,,カンビレイ,0
1858,7330001017598,登記記録の閉鎖等,0,2024-11-22,2024-11-13,株式会社スタジオロンロン,,株式会社,熊本県,熊本市東区,秋津町秋田３４３８番地３３,,43,102,8612105,,,2024-11-13,清算の結了等,,,2015-10-05,1,,,,,スタジオロンロン,0
1873,7390002013855,登記記録の閉鎖等,0,2024-11-22,2024-11-08,有限会社尾形自動車,,有限会社,山形県,東置賜郡高畠町,大字佐沢１８９１番地の２,,06,381,9920265,,,2024-11-08,清算の結了等,,,2015-10-05,1,,,,,オガタジドウシャ,0
1874,7400003001097,登記記録の閉鎖等,0,2024-11-22,2024-11-18,合同会社小暮機械設計,,合同会社,岩手県,滝沢市,大崎９２番地１６,,03,216,0200621,,,2024-11-18,清算の結了等,,,2015-10-05,1,,,,,コグレキカイセッケイ,0
1879,7430001069051,登記記録の閉鎖等,0,2024-11-22,2024-11-19,ネクリス株式会社,,株式会社,北海道,札幌市北区,屯田四条４丁目１番１８号,,01,102,0020854,,,2024-11-19,清算の結了等,,,2015-10-05,1,,,,,ネクリス,0
1889,7500001006955,登記記録の閉鎖等,0,2024-11-22,2024-11-19,株式会社ＩＴソリューションズ愛媛,,株式会社,愛媛県,松山市,天山３丁目７番３８号,,38,201,7900951,,,2024-11-19,清算の結了等,,,2015-10-05,1,,,,,アイティソリューションズエヒメ,0
1895,8010001126694,登記記録の閉鎖等,0,2024-11-22,2024-11-08,株式会社リアルメディアジャパン,,株式会社,東京都,中央区,日本橋兜町１７－２兜町第６葉山ビル４Ｆ,,13,102,1030026,,,2024-11-08,清算の結了等,,,2015-10-05,1,,,,,リアルメディアジャパン,0
1917,8010401135808,登記記録の閉鎖等,0,2024-11-22,2024-11-19,株式会社オブジェクティブフリント,,株式会社,東京都,大田区,東蒲田１丁目５－８,,13,111,1440031,,,2024-11-19,合併による解散等,3010701026546,令和６年１１月１日東京都港区元赤坂一丁目１番１６号株式会社オブジェクティブコード（3010701026546）に合併し解散,2018-01-04,1,,,,,オブジェクティブフリント,0
1929,8010405017903,登記記録の閉鎖等,0,2024-11-22,2024-11-18,一般社団法人一明会,,その他の設立登記法人,東京都,中央区,銀座７丁目３番７号ブランエスパ銀座２階,,13,102,1040061,,,2024-11-18,清算の結了等,,,2019-07-31,1,,,,,イチメイカイ,0
1931,8010601020917,登記記録の閉鎖等,0,2024-11-22,2024-11-18,セントラルサービス株式会社,,株式会社,東京都,墨田区,八広６丁目２９番１３号,,13,107,1310041,,,2024-11-18,清算の結了等,,,2015-10-05,1,,,,,セントラルサービス,0
1945,8011001161533,登記記録の閉鎖等,0,2024-11-22,2024-10-25,ＲＥＣＬＡＰ株式会社,,株式会社,東京都,渋谷区,本町３丁目４８‐５Ｕ‐ＭＡ‐ＦＬＡＴ,,13,113,1510071,,,2024-10-25,清算の結了等,,,2024-04-19,1,,,,,リクラップ,0
1955,8011401022384,登記記録の閉鎖等,0,2024-11-22,2024-11-11,株式会社日本機械ソリューション,,株式会社,東京都,板橋区,大谷口上町８８－３,,13,119,1730032,,,2024-11-11,清算の結了等,,,2020-02-07,1,,,,,ニホンキカイソリューション,0
1957,8011502006897,登記記録の閉鎖等,0,2024-11-22,2024-11-19,有限会社アラシン工営,,有限会社,東京都,荒川区,西尾久５丁目２５番７号,,13,118,1160011,,,2024-11-19,清算の結了等,,,2015-10-05,1,,,,,アラシンコウエイ,0
1967,8011803005656,登記記録の閉鎖等,0,2024-11-22,2024-11-19,合同会社ＭＯＮＳＴＥＲ,,合同会社,東京都,足立区,新田１丁目１６番２号,,13,121,1230865,,,2024-11-19,清算の結了等,,,2023-05-18,1,,,,,モンスター,0
1968,8012401017449,登記記録の閉鎖等,0,2024-11-22,2024-11-12,株式会社エーツークリエイト,,株式会社,神奈川県,川崎市麻生区,片平１５７４番地１アンジュール１,,14,137,2150023,,,2024-11-12,清算の結了等,,,2015-10-05,1,,,,,エーツークリエイト,0
1970,8012705002114,登記記録の閉鎖等,0,2024-11-22,2024-11-06,一般社団法人Ｒａｉｎｂｏｗ　Ｒｅｆｕｇｅｅ　Ｃｏｎｎｅｃｔｉｏｎ　Ｊａｐａｎ,,その他の設立登記法人,東京都,東久留米市,中央町５丁目１３番１５号,,13,222,2030054,,,2024-11-06,清算の結了等,,,2018-11-14,1,,,,,レインボーレフュジーコネクションジャパン,0
1978,8020001153052,登記記録の閉鎖等,0,2024-11-22,2024-11-11,株式会社Ｒ＆Ｔ,,株式会社,神奈川県,川崎市宮前区,犬蔵１丁目４番１４号２Ｆ,,14,136,2160011,,,2024-11-11,清算の結了等,,,2023-08-16,1,,,,,アールアンドティー,0
1988,8021001070717,登記記録の閉鎖等,0,2024-11-22,2024-11-21,株式会社玉井モータース,,株式会社,神奈川県,小田原市,寿町４丁目１０番１４号,,14,206,2500002,,,2024-11-21,清算の結了等,,,2020-08-27,1,,,,,タマイモータース,0
1997,8030001139067,登記記録の閉鎖等,0,2024-11-22,2024-11-13,株式会社ＢＨ　Ｃｏｍｐａｎｙ,,株式会社,神奈川県,横浜市旭区,鶴ケ峰２丁目４－５コーポ鶴ヶ峰２０４号,,14,112,2410022,,,2024-11-13,清算の結了等,,,2020-11-04,1,,,,,ビーエイチカンパニー,0
2008,8040001060536,登記記録の閉鎖等,0,2024-11-22,2024-11-15,株式会社Ｋ　ＤＡＳＨ　ＰＡＲＴＮＥＲ,,株式会社,千葉県,浦安市,今川２丁目１４番１９号,,12,227,2790022,,,2024-11-15,清算の結了等,,,2015-10-05,1,,,,,,0
2021,8080001013218,登記記録の閉鎖等,0,2024-11-22,2024-11-18,株式会社ナカザワ,,株式会社,静岡県,島田市,向島町３０３５番地の１,,22,209,4270045,,,2024-11-18,清算の結了等,,,2015-10-05,1,,,,,ナカザワ,0
2023,8080102010048,登記記録の閉鎖等,0,2024-11-22,2024-11-11,有限会社くさび企画,,有限会社,静岡県,三島市,谷田１４４３番地の４,,22,206,4110801,,,2024-11-11,清算の結了等,,,2024-08-26,1,,,,,クサビキカク,0
2024,8080402013519,登記記録の閉鎖等,0,2024-11-22,2024-11-19,有限会社ＧＡＬＡＰＡＧＯＳ,,有限会社,静岡県,浜松市中央区,初生町１３０３番地の５,,22,138,4338112,,,2024-11-19,清算の結了等,,,2015-10-05,1,,,,,ガラパゴス,0
2030,8120001057103,登記記録の閉鎖等,0,2024-11-22,2024-11-01,株式会社東京サンクスフーズ,,株式会社,東京都,千代田区,内幸町１丁目１番１号帝国ホテル本館,,13,101,1000011,,,2024-11-01,合併による解散等,2120001056812,令和６年１１月１日東京都千代田区内幸町一丁目１番１号帝国ホテル本館株式会社玉樹（2120001056812）に合併し解散,2015-10-05,1,,,,,トウキョウサンクスフーズ,0
2047,8120101054859,登記記録の閉鎖等,0,2024-11-22,2024-11-20,株式会社エチ・アール・エス・ケー,,株式会社,大阪府,堺市西区,鳳西町１丁８９番地４２,,27,144,5938326,,,2024-11-20,清算の結了等,,,2016-05-31,1,,,,,エチアールエスケー,0
2061,8140002033241,登記記録の閉鎖等,0,2024-11-22,2024-11-19,有限会社ののはな保育園,,有限会社,兵庫県,宍粟市,山崎町生谷１４９番地,,28,227,6712517,,,2024-11-19,清算の結了等,,,2015-10-05,1,,,,,ノノハナホイクエン,0
2063,8140003008399,登記記録の閉鎖等,0,2024-11-22,2024-11-18,エナミ合同会社,,合同会社,兵庫県,宝塚市,宮の町３番１５号,,28,214,6650843,,,2024-11-18,清算の結了等,,,2015-10-05,1,,,,,エナミ,0
2065,8180001007110,登記記録の閉鎖等,0,2024-11-22,2024-11-14,株式会社西口,,株式会社,愛知県,名古屋市港区,遠若町２丁目２４番地,,23,111,4550054,,,2024-11-14,清算の結了等,,,2015-10-05,1,,,,,ニシグチ,0
2066,8180001009057,登記記録の閉鎖等,0,2024-11-22,2024-11-15,日進エンジニア株式会社,,株式会社,愛知県,名古屋市昭和区,石仏町２丁目１番地,,23,107,4660023,,,2024-11-15,清算の結了等,,,2015-10-05,1,,,,,ニッシンエンジニア,0
2068,8180001023974,登記記録の閉鎖等,0,2024-11-22,2024-11-13,東海電熱株式会社,,株式会社,愛知県,名古屋市天白区,中平５丁目６０２番地,,23,116,4680014,,,2024-11-13,清算の結了等,,,2015-10-05,1,,,,,トウカイデンネツ,0
2074,8180001136611,登記記録の閉鎖等,0,2024-11-22,2024-11-20,東海テクノメンテナンス株式会社,,株式会社,岐阜県,可児市,鳩吹台３丁目１８５番地,,21,214,5090264,,,2024-11-20,清算の結了等,,,2019-05-17,1,,,,,トウカイテクノメンテナンス,0
2079,8180002066642,登記記録の閉鎖等,0,2024-11-22,2024-11-14,有限会社都竹通信企画,,有限会社,愛知県,春日井市,前並町２丁目８番地の４,,23,206,4860903,,,2024-11-14,清算の結了等,,,2015-10-05,1,,,,,ツズクツウシンキカク,0
2089,8190002005442,登記記録の閉鎖等,0,2024-11-22,2024-11-18,有限会社ゴトウ建設工業,,有限会社,三重県,尾鷲市,野地町１２番３３号,,24,209,5193617,,,2024-11-18,清算の結了等,,,2015-10-05,1,,,,,ゴウトウケンセツコウギョウ,0
2094,8210001000111,登記記録の閉鎖等,0,2024-11-22,2024-11-15,株式会社アラモト,,株式会社,福井県,福井市,光陽１丁目１７番１１号,,18,201,9100026,,,2024-11-15,清算の結了等,,,2015-10-05,1,,,,,アラモト,0
2102,8250002007861,登記記録の閉鎖等,0,2024-11-22,2024-11-18,有限会社西部止水技建,,有限会社,山口県,下関市,長府松小田中町２１番３６号,,35,201,7520935,,,2024-11-18,清算の結了等,,,2015-10-05,1,,,,,セイブシスイギケン,0
2110,8280002006068,登記記録の閉鎖等,0,2024-11-22,2024-11-20,有限会社持田測量,,有限会社,島根県,出雲市,高松町１４２８番地１,,32,203,6930053,,,2024-11-20,清算の結了等,,,2015-10-05,1,,,,,モチダソクリョウ,0
2113,8290001061336,登記記録の閉鎖等,0,2024-11-22,2024-10-22,株式会社九州ｃｏｍｐａｓｓ,,株式会社,福岡県,福岡市中央区,大名１丁目８番３３,,40,133,8100041,,,2024-10-22,清算の結了等,,,2015-10-05,1,,,,,キュウシュウコンパス,0
2114,8290001061740,登記記録の閉鎖等,0,2024-11-22,2024-10-22,株式会社ラフィーネ,,株式会社,福岡県,福岡市早良区,次郎丸１丁目２１番４３号ラフィーネ西嶋ＩＩ,00092787,40,137,8140165,,,2024-10-22,清算の結了等,,,2015-10-05,1,,,,,ラフィーネ,0
2122,8310002017532,登記記録の閉鎖等,0,2024-11-22,2024-11-20,有限会社林田商店,,有限会社,長崎県,大村市,東大村１丁目２３０１番地１２,,42,205,8560032,,,2024-11-20,清算の結了等,,,2015-10-05,1,,,,,ハヤシダショウテン,0
2130,8330003008644,登記記録の閉鎖等,0,2024-11-22,2024-11-13,合同会社３Ｋプロデュース,,合同会社,熊本県,八代市,鏡町北新地１０７９番地３,,43,202,8694225,,,2024-11-13,清算の結了等,,,2020-11-18,1,,,,,サンケープロデュース,0
2136,8370001016851,登記記録の閉鎖等,0,2024-11-22,2024-11-13,株式会社ニレイ,,株式会社,宮城県,仙台市若林区,連坊１丁目５番２号,,04,103,9840052,,,2024-11-13,清算の結了等,,,2015-10-05,1,,,,,ニレイ,0
2143,8390001013723,登記記録の閉鎖等,0,2024-11-22,2024-11-15,株式会社ＲＹＵｃｏｒｐｏｒａｔｉｏｎ,,株式会社,山形県,鶴岡市,文園町１番１６号,,06,203,9970816,,,2024-11-15,清算の結了等,,,2015-10-05,1,,,,,リュウコーポレーション,0
2152,8430001014394,登記記録の閉鎖等,0,2024-11-22,2024-11-19,株式会社ふしみ,,株式会社,北海道,札幌市東区,北三十一条東１３丁目１番２１号,,01,103,0650031,,,2024-11-19,清算の結了等,,,2015-10-05,1,,,,,フシミ,0
2167,9010001088752,登記記録の閉鎖等,0,2024-11-22,2024-11-08,株式会社ロクスリー,,株式会社,東京都,文京区,本郷４丁目１７番９,,13,105,1130033,,,2024-11-08,清算の結了等,,,2015-10-05,1,,,,,,0
2181,9010401058421,登記記録の閉鎖等,0,2024-11-22,2024-11-05,株式会社宝くじネット,,株式会社,東京都,港区,赤坂１丁目５番１５号,,13,103,1070052,,,2024-11-05,清算の結了等,,,2015-10-05,1,,,,,タカラクジネット,0
2182,9010401077859,登記記録の閉鎖等,0,2024-11-22,2024-11-08,エネルギー戦略研究所株式会社,,株式会社,東京都,千代田区,霞が関３丁目２番５号,,13,101,1000013,,,2024-11-08,清算の結了等,,,2015-10-05,1,,,,,エネルギーセンリャクケンキュウジョ,0
2203,9011001068389,登記記録の閉鎖等,0,2024-11-22,2024-11-11,株式会社ｓｃｒａｐ＆ｂｕｉｌｄ,,株式会社,東京都,渋谷区,恵比寿南１丁目１１番１７号,,13,113,1500022,,,2024-11-11,清算の結了等,,,2015-10-05,1,,,,,スクラップアンドビルド,0
2205,9011001124539,登記記録の閉鎖等,0,2024-11-22,2024-11-13,株式会社ＥＩＧＨＴ　ＳＥＮＳＥ,,株式会社,東京都,渋谷区,本町４丁目４１番１２号Ｆマンション１０９,,13,113,1510071,,,2024-11-13,清算の結了等,,,2018-10-05,1,,,,,エイトセンス,0
2213,9011003008590,登記記録の閉鎖等,0,2024-11-22,2024-11-01,合同会社西新宿三丁目,,合同会社,東京都,渋谷区,千駄ヶ谷４丁目２５番２号修養団ＳＹＤビル株式会社フジタ内,,13,113,1510051,,,2024-11-01,清算の結了等,,,2018-03-20,1,,,,,ニシシンジュクサンチョウメ,0
2230,9011702006366,登記記録の閉鎖等,0,2024-11-22,2024-11-14,有限会社静光電設,,有限会社,東京都,江戸川区,中葛西５丁目１２番１３号,,13,123,1340083,,,2024-11-14,清算の結了等,,,2015-10-05,1,,,,,セイコウデンセツ,0
2249,9020001152474,登記記録の閉鎖等,0,2024-11-22,2024-11-13,株式会社匠,,株式会社,神奈川県,横浜市港北区,新横浜１丁目１４番２０号,,14,109,2220033,,,2024-11-13,清算の結了等,,,2023-07-10,1,,,,,タクミ,0
2252,9020002027709,登記記録の閉鎖等,0,2024-11-22,2024-11-01,有限会社ＵＲＡ,,有限会社,神奈川県,川崎市宮前区,有馬１丁目１０番１２号,,14,136,2160003,,,2024-11-01,合併による解散等,8020002087332,令和６年１１月１日川崎市宮前区有馬一丁目１０番１２号株式会社萩原（8020002087332）に合併し解散,2015-10-05,1,,,,,ユーアールエー,0
2261,9021002049511,登記記録の閉鎖等,0,2024-11-22,2024-11-20,有限会社ディグアップ,,有限会社,神奈川県,座間市,相模が丘６丁目３４番２－１１０７号エステ・スクエア小田急相模原ステージＩＩ,00013550,14,216,2520001,,,2024-11-20,清算の結了等,,,2015-10-05,1,,,,,ディグアップ,0
2278,9040002078709,登記記録の閉鎖等,0,2024-11-22,2024-11-18,有限会社牧野商店,,有限会社,千葉県,大網白里市,四天木１３４４番地２,,12,239,2993203,,,2024-11-18,清算の結了等,,,2015-10-05,1,,,,,マキノショウテン,0
2280,9040005001114,登記記録の閉鎖等,0,2024-11-22,2024-11-18,医療法人けんしょう会,,その他の設立登記法人,東京都,中央区,月島１丁目５番１－３４１３号,,13,102,1040052,,,2024-11-18,清算の結了等,,,2015-10-05,1,,,,,ケンショウカイ,0
2293,9070002013778,登記記録の閉鎖等,0,2024-11-22,2024-11-20,有限会社木暮工務店,,有限会社,群馬県,高崎市,棟高町１０６番地２,,10,202,3703521,,,2024-11-20,清算の結了等,,,2015-10-05,1,,,,,コグレコウムテン,0
2295,9070003002904,登記記録の閉鎖等,0,2024-11-22,2024-11-20,合同会社アーセス,,合同会社,群馬県,前橋市,後閑町３６２,,10,201,3710813,,,2024-11-20,清算の結了等,,,2017-05-09,1,,,,,アーセス,0
2302,9080401024466,登記記録の閉鎖等,0,2024-11-22,2024-11-19,株式会社Ｖｉｓｉｔｘ,,株式会社,静岡県,浜松市浜名区,新原２５５５番地の３,,22,139,4340003,,,2024-11-19,清算の結了等,,,2020-08-06,1,,,,,ビジックス,0
2307,9100002009938,登記記録の閉鎖等,0,2024-11-22,2024-11-14,有限会社島谷電業,,有限会社,長野県,千曲市,上山田温泉３丁目１６番地１０,,20,218,3890821,,,2024-11-14,清算の結了等,,,2015-10-05,1,,,,,シマヤデンギョウ,0
2311,9110002009805,登記記録の閉鎖等,0,2024-11-22,2024-11-15,有限会社ユーエスエヌ,,有限会社,新潟県,新潟市秋葉区,新津本町１丁目３番２４号,,15,105,9560864,,,2024-11-15,清算の結了等,,,2015-10-05,1,,,,,ユーエスエヌ,0
2324,9120003019190,登記記録の閉鎖等,0,2024-11-22,2024-11-19,合同会社よしおか,,合同会社,大阪府,大阪市天王寺区,筆ケ崎町２－５０－６２３,,27,109,5430027,,,2024-11-19,清算の結了等,,,2021-04-08,1,,,,,ヨシオカ,0
2350,9140001059138,登記記録の閉鎖等,0,2024-11-22,2024-11-12,株式会社サンホーム,,株式会社,兵庫県,姫路市,船丘町２９８番地日新ビル,,28,201,6700034,,,2024-11-12,清算の結了等,,,2015-10-05,1,,,,,,0
2360,9150001008820,登記記録の閉鎖等,0,2024-11-22,2024-11-18,株式会社ＫＳプロジェクト,,株式会社,大阪府,大阪市東成区,東小橋３丁目１番１５号ＮＫＢビル３Ｆ,,27,115,5370024,,,2024-11-18,清算の結了等,,,2015-10-05,1,,,,,ケイエスプロジェクト,0
2377,9180005006165,登記記録の閉鎖等,0,2024-11-22,2024-11-15,特定非営利活動法人ＩＴＳプラットフォーム２１,,その他の設立登記法人,愛知県,名古屋市天白区,原４丁目１６０１番地の１,,23,116,4680015,,,2024-11-15,清算の結了等,,,2015-10-05,1,,,,,アイティーエスプラットフォームニジュウイチ,0
2383,9180302017583,登記記録の閉鎖等,0,2024-11-22,2024-11-14,有限会社焼肉我が家,,有限会社,愛知県,安城市,東新町５番地７,,23,212,4460018,,,2024-11-14,清算の結了等,,,2015-10-05,1,,,,,ヤキニクワガヤ,0
2394,9220001007550,登記記録の閉鎖等,0,2024-11-22,2024-11-19,株式会社労務管理センター,,株式会社,石川県,金沢市,片町２丁目２９番１１号,,17,201,9200981,,,2024-11-19,清算の結了等,,,2015-10-05,1,,,,,ロウムカンリセンター,0
2401,9240002044863,登記記録の閉鎖等,0,2024-11-22,2024-11-20,有限会社トワニー,,有限会社,広島県,福山市,川口町２丁目１６番５号,,34,207,7200822,,,2024-11-20,清算の結了等,,,2015-10-05,1,,,,,トワニー,0
2404,9260001023395,登記記録の閉鎖等,0,2024-11-22,2024-11-19,株式会社ネムロット,,株式会社,岡山県,岡山市北区,久米１８５番地５,,33,101,7010144,,,2024-11-19,清算の結了等,,,2015-10-05,1,,,,,ネムロット,0
2413,9290001091118,登記記録の閉鎖等,0,2024-11-22,2024-11-13,株式会社Ｍモード・イノベーション,,株式会社,福岡県,福岡市博多区,博多駅前１丁目９番３号博多駅前シティビル１０Ｆ,,40,132,8120011,,,2024-11-13,合併による解散等,2010001065535,令和６年１１月１日東京都千代田区内神田二丁目１５番９号ＴｈｅＫａｎｄａ２８２株式会社ジェイ・クリエイション（2010001065535）に合併し解散,2020-12-01,1,,,,,エムモードイノベーション,0
2415,9290003011874,登記記録の閉鎖等,0,2024-11-22,2024-10-22,ＴＯＨＴＯＹ合同会社,,合同会社,福岡県,福岡市中央区,西公園２－２３Ｂｌｕｅｃｒｏｓｓ９０２,,40,133,8100061,,,2024-10-22,清算の結了等,,,2021-11-30,1,,,,,トートイ,0
2440,9480003000833,登記記録の閉鎖等,0,2024-11-22,2024-11-20,合同会社ケアプランひろお屋,,合同会社,徳島県,美馬郡つるぎ町,貞光字白村５３８番地１,,36,468,7794106,,,2024-11-20,清算の結了等,,,2015-10-05,1,,,,,ケアプランヒロオヤ,0
2442,9480005006696,登記記録の閉鎖等,0,2024-11-22,2024-11-19,一般社団法人リハケアネットワーク,,その他の設立登記法人,徳島県,小松島市,小松島町字北浜１５８番地の３,,36,203,7730001,,,2024-11-19,清算の結了等,,,2019-03-14,1,,,,,リハケアネットワーク,0
