sequenceNumber,corporateNumber,process,correct,updateDate,changeDate,name,nameImageId,kind,prefectureName,cityName,streetNumber,addressImageId,prefectureCode,cityCode,postCode,addressOutside,addressOutsideImageId,closeDate,closeCause,successorCorporateNumber,changeCause,assignmentDate,latest,enName,enPrefectureName,enCityName,enAddressOutside,furigana,hihyoji
20,1010001235262,新規,0,2023-05-12,2023-05-12,株式会社ＵＲＶグローバルミッション,,株式会社,東京都,中央区,京橋２丁目１１番５号パインセントラルビル１０階,,13,102,1040031,,,,,,,2023-05-12,1,,,,,ユーアールブイグローバルミッション,0
25,1010003040561,新規,0,2023-05-12,2023-05-12,アリエス合同会社,,合同会社,東京都,千代田区,丸の内２丁目７番３号東京ビルディング,,13,101,1000005,,,,,,,2023-05-12,1,,,,,アリエス,0
27,1010005036665,新規,0,2023-05-12,2023-05-12,Ｐａｌｅｔｔｅ２一般社団法人,,その他の設立登記法人,東京都,千代田区,丸の内３丁目１番１号東京共同会計事務所内,,13,101,1000005,,,,,,,2023-05-12,1,,,,,パレットツー,0
28,1010101015630,新規,0,2023-05-12,2023-05-12,株式会社ファーストオフィサー,,株式会社,東京都,八王子市,寺町５６番地２サングランデ八王子１１０４号,,13,201,1920073,,,,,,,2023-05-12,1,,,,,ファーストオフィサー,0
33,1010401174201,新規,0,2023-05-12,2023-05-12,鮨イノベーション株式会社,,株式会社,東京都,港区,南青山２丁目２番１５号,,13,103,1070062,,,,,,,2023-05-12,1,,,,,スシイノベーション,0
34,1010401174218,新規,0,2023-05-12,2023-05-12,株式会社ＴＲＹ２０,,株式会社,東京都,港区,浜松町２丁目２－１５浜松町ダイヤビル２Ｆ,,13,103,1050013,,,,,,,2023-05-12,1,,,,,トライトゥエンティ,0
35,1010401174374,新規,0,2023-05-12,2023-05-12,株式会社オフィス八木,,株式会社,東京都,港区,芝浦４丁目２１番１－４６０９号,,13,103,1080023,,,,,,,2023-05-12,1,,,,,オフィスヤギ,0
37,1010403029972,新規,0,2023-05-12,2023-05-12,合同会社ＩＴＡＫ,,合同会社,東京都,港区,三田５丁目２番２２号ザ・パークハウス三田ガーデン２１０１,,13,103,1080073,,,,,,,2023-05-12,1,,,,,アイタック,0
38,1010403030063,新規,0,2023-05-12,2023-05-12,Ｂｉｏｍａｓｓ　Ｐｏｗｅｒ　Ｎｉｎｅ合同会社,,合同会社,東京都,港区,芝３丁目３１番６号サンライズ芝２Ｆ,,13,103,1050014,,,,,,,2023-05-12,1,,,,,バイオマスパワーナイン,0
39,1010403030071,新規,0,2023-05-12,2023-05-12,合同会社ＧＡＬ‐Ｋａｗａｉｉ,,合同会社,東京都,港区,西麻布３丁目２－４３西麻布３２４３ビル３階,,13,103,1060031,,,,,,,2023-05-12,1,,,,,ギャルカワイイ,0
40,1010403030096,新規,0,2023-05-12,2023-05-12,合同会社ＴＫリゾート,,合同会社,東京都,港区,赤坂４丁目８番１９号赤坂フロントタウン３階,,13,103,1070052,,,,,,,2023-05-12,1,,,,,ティーケーリゾート,0
41,1010405022125,新規,0,2023-05-12,2023-05-12,関西ロジスティクス一般社団法人,,その他の設立登記法人,東京都,港区,元赤坂１丁目１番７号,,13,103,1070051,,,,,,,2023-05-12,1,,,,,カンサイロジスティクス,0
43,1010501050442,新規,0,2023-05-12,2023-05-12,株式会社ゴールドステージ,,株式会社,東京都,台東区,上野３丁目２３番１１号,,13,106,1100005,,,,,,,2023-05-12,1,,,,,ゴールドステージ,0
46,1010601063039,新規,0,2023-05-12,2023-05-12,ＳＢＩアートポート株式会社,,株式会社,東京都,江東区,有明３丁目６番１１号東京ファッションタウンビル東館,,13,108,1350063,,,,,,,2023-05-12,1,,,,,エスビーアイアートポート,0
49,1010603010146,新規,0,2023-05-12,2023-05-12,合同会社丸商,,合同会社,東京都,墨田区,墨田１丁目１５番１５－４０８号ライオンズプラザ東向島,,13,107,1310031,,,,,,,2023-05-12,1,,,,,マルショウ,0
52,1010701044228,新規,0,2023-05-12,2023-05-12,Ｃｒｏｓｓ　Ｌｉｎｋ株式会社,,株式会社,東京都,品川区,東品川４丁目１１番３６号,,13,109,1400002,,,,,,,2023-05-12,1,,,,,クロスリンク,0
58,1010901053029,新規,0,2023-05-12,2023-05-12,株式会社今井敦建築研究所,,株式会社,東京都,世田谷区,玉堤１丁目５番２１号,,13,112,1580087,,,,,,,2023-05-12,1,,,,,イマイアツシケンチクケンキュウジョ,0
75,1011101102815,新規,0,2023-05-12,2023-05-12,ＭＯＮＴＡＧＥ株式会社,,株式会社,東京都,新宿区,大京町３１番地１４御苑住宅１階,,13,104,1600015,,,,,,,2023-05-12,1,,,,,モンタージュ,0
76,1011101102823,新規,0,2023-05-12,2023-05-12,株式会社チャットティンカー,,株式会社,東京都,新宿区,四谷４丁目２５番地,,13,104,1600004,,,,,,,2023-05-12,1,,,,,チャットティンカー,0
81,1011103013036,新規,0,2023-05-12,2023-05-12,合同会社トーダス,,合同会社,東京都,新宿区,西新宿３丁目３番１３号西新宿水間ビル２Ｆ,,13,104,1600023,,,,,,,2023-05-12,1,,,,,トーダス,0
89,1011301028686,新規,0,2023-05-12,2023-05-12,株式会社日本未来総合研究所,,株式会社,東京都,杉並区,阿佐谷南２丁目１０番１０号,,13,115,1660004,,,,,,,2023-05-12,1,,,,,ニホンミライソウゴウケンキュウショ,0
90,1011303004751,新規,0,2023-05-12,2023-05-12,合同会社オフィスＧ,,合同会社,東京都,杉並区,阿佐谷北１丁目１番１２号,,13,115,1660001,,,,,,,2023-05-12,1,,,,,オフィスジー,0
97,1011701026232,新規,0,2023-05-12,2023-05-12,一禾建設株式会社,,株式会社,東京都,江戸川区,北小岩５丁目２１番７‐２０１号,,13,123,1330051,,,,,,,2023-05-12,1,,,,,イチカケンセツ,0
103,1011803005646,新規,0,2023-05-12,2023-05-12,合同会社ＢＬＵＥ　ＨＡＮＥＵＬ,,合同会社,東京都,足立区,皿沼２丁目４番１０号,,13,121,1230862,,,,,,,2023-05-12,1,,,,,ブルーハヌル,0
109,1012803003078,新規,0,2023-05-12,2023-05-12,合同会社Ｒｅ．Ｌｉｅｎ,,合同会社,東京都,立川市,柴崎町３丁目４番４号３Ｆ,,13,202,1900023,,,,,,,2023-05-12,1,,,,,リリアン,0
110,1013103001227,新規,0,2023-05-12,2023-05-12,合同会社ＬＵＰＥ,,合同会社,東京都,福生市,大字熊川９９０－７ＡｒｋＨｏｕｓｅＦ－１１０号室,,13,218,1970003,,,,,,,2023-05-12,1,,,,,ルーペ,0
117,1020003023895,新規,0,2023-05-12,2023-05-12,合同会社ｄａｐｐｌｅｄ,,合同会社,神奈川県,横浜市鶴見区,北寺尾１丁目５番２９号,,14,101,2300074,,,,,,,2023-05-12,1,,,,,ダプルド,0
122,1021001079046,新規,0,2023-05-12,2023-05-12,株式会社ＫＯＵＫＥＮ,,株式会社,神奈川県,横須賀市,武１丁目１９番３０号,,14,201,2380313,,,,,,,2023-05-12,1,,,,,コウケン,0
140,1030001153727,新規,0,2023-05-12,2023-05-12,株式会社メイク,,株式会社,埼玉県,八潮市,緑町５丁目１９番地３,,11,234,3400808,,,,,,,2023-05-12,1,,,,,メイク,0
141,1030001153768,新規,0,2023-05-12,2023-05-12,株式会社ＫＩＮＡＲＩ,,株式会社,埼玉県,朝霞市,岡３丁目１７番７号,,11,227,3510007,,,,,,,2023-05-12,1,,,,,キナリ,0
142,1030001153776,新規,0,2023-05-12,2023-05-12,株式会社中川塗装工業,,株式会社,埼玉県,八潮市,緑町５丁目１番地２１－１０１,,11,234,3400808,,,,,,,2023-05-12,1,,,,,ナカガワトソウコウギョウ,0
143,1030001153792,新規,0,2023-05-12,2023-05-12,株式会社ＢＩＧ　ＴＲＥＥ　ＭＯＴＯＲ,,株式会社,埼玉県,久喜市,小右衛門１３９７番地３,,11,232,3491105,,,,,,,2023-05-12,1,,,,,ビッグツリーモーター,0
145,1030003021709,新規,0,2023-05-12,2023-05-12,合同会社エイトビー,,合同会社,埼玉県,草加市,青柳８丁目９番４号,,11,221,3400002,,,,,,,2023-05-12,1,,,,,エイトビー,0
146,1030003021717,新規,0,2023-05-12,2023-05-12,Ｔ＆Ｙ合同会社,,合同会社,埼玉県,さいたま市緑区,大字中尾５０２番地,,11,109,3360932,,,,,,,2023-05-12,1,,,,,ティーアンドワイ,0
147,1030003021725,新規,0,2023-05-12,2023-05-12,合同会社ワールドフレンズ,,合同会社,埼玉県,川口市,大字安行原１４６０番地大栄マンションＡ－３０１号,,11,203,3340057,,,,,,,2023-05-12,1,,,,,ワールドフレンズ,0
150,1040001128356,新規,0,2023-05-12,2023-05-12,株式会社つなぐ,,株式会社,千葉県,野田市,山崎２７０４－６１,,12,208,2780022,,,,,,,2023-05-12,1,,,,,ツナグ,0
153,1040003022615,新規,0,2023-05-12,2023-05-12,ＭＩＡＺＩ　ＫＯＧＹＯ合同会社,,合同会社,千葉県,山武市,埴谷１５１１番地６,,12,237,2891223,,,,,,,2023-05-12,1,,,,,ミアジコウギョウ,0
156,1050005013264,新規,0,2023-05-12,2023-05-12,医療法人千束町歯のクリニック,,その他の設立登記法人,茨城県,土浦市,千束町１番地１号,,08,203,3000046,,,,,,,2023-05-12,1,,,,,センゾクチョウハノクリニック,0
160,1060003004545,新規,0,2023-05-12,2023-05-12,合同会社Ｙ．Ｔ．Ｕ,,合同会社,栃木県,宇都宮市,岩曽町１３９１番地５１ＬｉａＶｉｌｌａｇｅ１０３号室,,09,201,3210973,,,,,,,2023-05-12,1,,,,,ワイティユー,0
161,1060003004553,新規,0,2023-05-12,2023-05-12,合同会社飯塩梅,,合同会社,栃木県,佐野市,柿平町８３６,,09,204,3270515,,,,,,,2023-05-12,1,,,,,イイアンバイ,0
163,1070001040434,新規,0,2023-05-12,2023-05-12,株式会社ＣＡＴＥＮＡＳ,,株式会社,群馬県,前橋市,千代田町２丁目２－１１・２階,,10,201,3710022,,,,,,,2023-05-12,1,,,,,カテナス,0
164,1080103002802,新規,0,2023-05-12,2023-05-12,合同会社Ｌａｎａ．Ｒ,,合同会社,静岡県,御殿場市,東田中２丁目２０,,22,215,4120026,,,,,,,2023-05-12,1,,,,,ラナアール,0
166,1090001018107,新規,0,2023-05-12,2023-05-12,株式会社Ｆ・スタイルＰｌｕｓ,,株式会社,山梨県,中巨摩郡昭和町,清水新居１５０３番地ＮＫビル２０３,,19,384,4093867,,,,,,,2023-05-12,1,,,,,エフスタイルプラス,0
175,1100003007007,新規,0,2023-05-12,2023-05-12,ＷＡＫＯ合同会社,,合同会社,長野県,飯田市,上郷飯沼１６６２番地１,,20,205,3950002,,,,,,,2023-05-12,1,,,,,ワコ,0
176,1110001037525,新規,0,2023-05-12,2023-05-12,大光キャピタル＆コンサルティング株式会社,,株式会社,新潟県,長岡市,東坂之上町１丁目２番地３,,15,202,9400066,,,,,,,2023-05-12,1,,,,,タイコウキャピタルアンドコンサルティング,0
177,1110001037533,新規,0,2023-05-12,2023-05-12,Ｈｏｏｋ　ＵＰ株式会社,,株式会社,新潟県,長岡市,宮関２丁目４－３１,,15,202,9402021,,,,,,,2023-05-12,1,,,,,フックアップ,0
179,1110003005042,新規,0,2023-05-12,2023-05-12,合同会社聡晃造園,,合同会社,新潟県,新潟市江南区,東本町３丁目１番２４号,,15,104,9500126,,,,,,,2023-05-12,1,,,,,ソウコウゾウエン,0
192,1120001254755,新規,0,2023-05-12,2023-05-12,Ｌｉｓａ的屋株式会社,,株式会社,大阪府,大阪市東成区,神路４丁目３－１０スターレジデンス新深江４０６,,27,115,5370003,,,,,,,2023-05-12,1,,,,,リサテキヤ,0
193,1120001254763,新規,0,2023-05-12,2023-05-12,Ｃｏｏｒｄｉｎａｔｉｏｎ株式会社,,株式会社,大阪府,大阪市西区,江之子島１丁目１番９号エルベロワイヤル壱六５１９号室,,27,106,5500006,,,,,,,2023-05-12,1,,,,,コーディネイション,0
194,1120001254862,新規,0,2023-05-12,2023-05-12,株式会社神栄不動産,,株式会社,大阪府,大阪市北区,西天満３丁目４番６号１階,,27,127,5300047,,,,,,,2023-05-12,1,,,,,シンエイフドウサン,0
197,1120003024041,新規,0,2023-05-12,2023-05-12,合同会社麗和,,合同会社,大阪府,大阪市東成区,大今里南１丁目１８番７号大宝今里ロイヤルハイツ３０３号室,,27,115,5370013,,,,,,,2023-05-12,1,,,,,レイワ,0
198,1120101067512,新規,0,2023-05-12,2023-05-12,株式会社ことぶき,,株式会社,大阪府,貝塚市,西町１２番３号,,27,208,5970004,,,,,,,2023-05-12,1,,,,,コトブキ,0
199,1120101067520,新規,0,2023-05-12,2023-05-12,株式会社三好,,株式会社,大阪府,堺市西区,津久野町２丁３６番２８号,,27,144,5938322,,,,,,,2023-05-12,1,,,,,ミヨシ,0
200,1120901047507,新規,0,2023-05-12,2023-05-12,株式会社サネクト,,株式会社,大阪府,豊中市,服部西町２丁目８番８の２－１０３号,,27,203,5610858,,,,,,,2023-05-12,1,,,,,サネクト,0
201,1120901047515,新規,0,2023-05-12,2023-05-12,株式会社ヤマシタテクノス,,株式会社,大阪府,茨木市,水尾２丁目７番２７号の３,,27,211,5670891,,,,,,,2023-05-12,1,,,,,ヤマシタテクノス,0
202,1120905006459,新規,0,2023-05-12,2023-05-12,一般社団法人きららの森,,その他の設立登記法人,大阪府,豊能郡能勢町,平通１５６番地,,27,322,5630356,,,,,,,2023-05-12,1,,,,,キララノモリ,0
205,1122001036935,新規,0,2023-05-12,2023-05-12,ＡＰＲＯＳ株式会社,,株式会社,大阪府,東大阪市,源氏ケ丘１番１３号４０８号室,,27,227,5770822,,,,,,,2023-05-12,1,,,,,アプロス,0
207,1130001074285,新規,0,2023-05-12,2023-05-12,株式会社Ｄｒｉｖｅｎ　Ｍ,,株式会社,京都府,京都市中京区,高倉通夷川上る福屋町７１８番地,,26,104,6040882,,,,,,,2023-05-12,1,,,,,ドリブンエム,0
208,1130001074310,新規,0,2023-05-12,2023-05-12,株式会社みよ,,株式会社,京都府,長岡京市,今里４丁目１５番８号,,26,209,6170814,,,,,,,2023-05-12,1,,,,,ミヨ,0
209,1130001074319,新規,0,2023-05-12,2023-05-12,株式会社オルカ,,株式会社,京都府,京都市東山区,大和大路通七条下る二丁目辰巳町６０３番地４－４０２号室,,26,105,6050000,,,,,,,2023-05-12,1,,,,,オルカ,0
214,1140001130186,新規,0,2023-05-12,2023-05-12,株式会社ＴＡＹ　ＮＧＵＹＥＮ,,株式会社,兵庫県,尼崎市,武庫町３丁目１１番２４号２０３号室,,28,202,6610044,,,,,,,2023-05-12,1,,,,,テイグエン,0
217,1140003019064,新規,0,2023-05-12,2023-05-12,がじぇっと道合同会社,,合同会社,兵庫県,神戸市垂水区,清水が丘３丁目５－１４パレ清水ヶ丘１０２,,28,108,6550031,,,,,,,2023-05-12,1,,,,,ガジェットドウ,0
221,1150003002960,新規,0,2023-05-12,2023-05-12,合同会社ＫＵＭＩ茶菓,,合同会社,奈良県,奈良市,餅飯殿町３５番地,,29,201,6308222,,,,,,,2023-05-12,1,,,,,クミチャカ,0
222,1160001025046,新規,0,2023-05-12,2023-05-12,株式会社ＪＩＮ・ＣＯＮＮＥＣＴＩＯＮ,,株式会社,滋賀県,栗東市,荒張１２７０番地,,25,208,5203003,,,,,,,2023-05-12,1,,,,,ジンコネクション,0
223,1170001017595,新規,0,2023-05-12,2023-05-12,株式会社ＶＥＲＩＴＡ,,株式会社,和歌山県,和歌山市,新堀東２丁目４番４４号,,30,201,6410042,,,,,,,2023-05-12,1,,,,,ベリタ,0
224,1170001017604,新規,0,2023-05-12,2023-05-12,イセイホーム株式会社,,株式会社,和歌山県,和歌山市,元寺町４丁目５黒岩ビル３Ｆ－Ｂ,,30,201,6408024,,,,,,,2023-05-12,1,,,,,イセイホーム,0
235,1180301037367,新規,0,2023-05-12,2023-05-12,株式会社阪東三河,,株式会社,愛知県,岡崎市,美合新町１６番地１７,,23,202,4440801,,,,,,,2023-05-12,1,,,,,バンドウミカワ,0
236,1180301037391,新規,0,2023-05-12,2023-05-12,ＬＩＣＨＴＰＲＯ株式会社,,株式会社,愛知県,豊橋市,大崎町字笠松３８番地３,,23,201,4418073,,,,,,,2023-05-12,1,,,,,リヒトプロ,0
237,1180303005702,新規,0,2023-05-12,2023-05-12,ランクフィールド合同会社,,合同会社,愛知県,豊橋市,山田三番町９番地１,,23,201,4418103,,,,,,,2023-05-12,1,,,,,ランクフィールド,0
247,1200001041278,新規,0,2023-05-12,2023-05-12,信和繊維株式会社,,株式会社,岐阜県,岐阜市,中鶉２丁目２８番地の２,,21,201,5008288,,,,,,,2023-05-12,1,,,,,シンワセンイ,0
248,1200001041294,新規,0,2023-05-12,2023-05-12,株式会社リープ,,株式会社,岐阜県,土岐市,下石町２１９８番地,,21,212,5095202,,,,,,,2023-05-12,1,,,,,リープ,0
249,1200001041311,新規,0,2023-05-12,2023-05-12,株式会社ＮＡＯＲＵ,,株式会社,岐阜県,揖斐郡池田町,池野５８０番地１,,21,404,5032424,,,,,,,2023-05-12,1,,,,,ナオル,0
252,1220001025403,新規,0,2023-05-12,2023-05-12,ミヤコーポ株式会社,,株式会社,石川県,加賀市,野田町松ケ丘１番地１８,,17,206,9220443,,,,,,,2023-05-12,1,,,,,ミヤコーポ,0
254,1220003003514,新規,0,2023-05-12,2023-05-12,合同会社エスエス,,合同会社,石川県,金沢市,鳴和１丁目７番７号メゾンジュネス１０５,,17,201,9200804,,,,,,,2023-05-12,1,,,,,エスエス,0
259,1250001020087,新規,0,2023-05-12,2023-05-12,株式会社ロイヤルカニッシュ,,株式会社,山口県,萩市,大字平安古町４２９番地１,,35,204,7580074,,,,,,,2023-05-12,1,,,,,ロイヤルカニッシュ,0
261,1260001037948,新規,0,2023-05-12,2023-05-12,株式会社アイカンパニー,,株式会社,岡山県,津山市,小原１２３番地９,,33,203,7080001,,,,,,,2023-05-12,1,,,,,アイカンパニー,0
262,1260003004302,新規,0,2023-05-12,2023-05-12,湯浅商店合同会社,,合同会社,岡山県,岡山市北区,牟佐５５５番地５,,33,101,7012141,,,,,,,2023-05-12,1,,,,,ユアサショウテン,0
263,1260003004310,新規,0,2023-05-12,2023-05-12,ｎｏｒｉ．ｃｏｍ合同会社,,合同会社,岡山県,総社市,井尻野１１６８番地６,,33,208,7191154,,,,,,,2023-05-12,1,,,,,ノリコン,0
269,1290001101511,新規,0,2023-05-12,2023-05-12,株式会社メルビルホールディングス,,株式会社,福岡県,福岡市西区,石丸２丁目１１番３６号,,40,135,8190025,,,,,,,2023-05-12,1,,,,,メルビルホールディングス,0
270,1290001101536,新規,0,2023-05-12,2023-05-12,イントモ株式会社,,株式会社,福岡県,糟屋郡粕屋町,大字江辻３９３番地,00130476,40,349,8112313,,,,,,,2023-05-12,1,,,,,イントモ,0
275,1290003013903,新規,0,2023-05-12,2023-05-12,九国アグリソーラー合同会社,,合同会社,福岡県,福岡市博多区,博多駅前１丁目２３番１号ＰａｒｋＦｒｏｎｔ博多駅前１丁目５Ｆ－Ｂ,,40,132,8120011,,,,,,,2023-05-12,1,,,,,キュコクアグリソーラー,0
277,1300003001963,新規,0,2023-05-12,2023-05-12,合同会社創,,合同会社,佐賀県,西松浦郡有田町,戸杓丙７４９番地１,,41,401,8440017,,,,,,,2023-05-12,1,,,,,ソウ,0
279,1320001019766,新規,0,2023-05-12,2023-05-12,ドラスタ株式会社,,株式会社,大分県,大分市,徳島３丁目１６番３号,,44,201,8700109,,,,,,,2023-05-12,1,,,,,ドラスタ,0
282,1330001030854,新規,0,2023-05-12,2023-05-12,ＮＫ７ＮＥＸＴ株式会社,,株式会社,熊本県,熊本市中央区,帯山３丁目１８番６３－２０５号,,43,101,8620924,,,,,,,2023-05-12,1,,,,,エヌケーセブンネクスト,0
284,1340001025580,新規,0,2023-05-12,2023-05-12,株式会社オフィス岩下,,株式会社,鹿児島県,出水市,本町６番１９号モアナビル１階,,46,208,8990205,,,,,,,2023-05-12,1,,,,,オフィスイワシタ,0
291,1360003012955,新規,0,2023-05-12,2023-05-12,農地所有適格法人合同会社かりゆしファーム,,合同会社,沖縄県,名護市,字田井等３４５番地１０５,,47,209,9051147,,,,,,,2023-05-12,1,,,,,カリユシファーム,0
298,1370001049899,新規,0,2023-05-12,2023-05-12,株式会社スタークリムゾン,,株式会社,宮城県,仙台市青葉区,水の森１丁目７番９号,,04,101,9810962,,,,,,,2023-05-12,1,,,,,スタークリムゾン,0
302,1400001016243,新規,0,2023-05-12,2023-05-12,株式会社西原板金,,株式会社,岩手県,北上市,村崎野１４地割４７０番地７２,,03,206,0240004,,,,,,,2023-05-12,1,,,,,ニシハラバンキン,0
303,1400003003082,新規,0,2023-05-12,2023-05-12,合同会社後藤林業,,合同会社,岩手県,一関市,藤沢町新沼字中ノ沢２５番地１,,03,209,0293402,,,,,,,2023-05-12,1,,,,,ゴトウリンギョウ,0
308,1420001018262,新規,0,2023-05-12,2023-05-12,株式会社ａｏｍｏｒｉ　ｓｔａｒｔｕｐ,,株式会社,青森県,青森市,本町５丁目３番３号,,02,201,0300802,,,,,,,2023-05-12,1,,,,,アオモリスタートアップ,0
313,1430001089039,新規,0,2023-05-12,2023-05-12,株式会社友栄,,株式会社,北海道,室蘭市,日の出町３丁目１３－３４,,01,205,0500081,,,,,,,2023-05-12,1,,,,,ユウエイ,0
314,1430001089047,新規,0,2023-05-12,2023-05-12,株式会社ＩＣＨＩＧＥＮ,,株式会社,北海道,札幌市北区,あいの里四条３丁目３番１２号,,01,102,0028074,,,,,,,2023-05-12,1,,,,,イチゲン,0
315,1430001089055,新規,0,2023-05-12,2023-05-12,エスポワール株式会社,,株式会社,北海道,札幌市西区,発寒五条３丁目２番７号,,01,107,0630825,,,,,,,2023-05-12,1,,,,,エスポワール,0
317,1430003015026,新規,0,2023-05-12,2023-05-12,ＣａｔＫｉｎｇ合同会社,,合同会社,北海道,小樽市,桂岡町２５番３０号,,01,203,0470264,,,,,,,2023-05-12,1,,,,,キャットキング,0
319,1430005014711,新規,0,2023-05-12,2023-05-12,一般社団法人北海道カーリング協会,,その他の設立登記法人,北海道,札幌市豊平区,豊平五条１１丁目１－１,,01,105,0620905,,,,,,,2023-05-12,1,,,,,ホッカイドウカーリングキョウカイ,0
322,1470003002417,新規,0,2023-05-12,2023-05-12,合同会社ＳＡＮＴＬＵＸ,,合同会社,香川県,高松市,多肥下町１５８７－６,,37,201,7618075,,,,,,,2023-05-12,1,,,,,,0
324,1480003001979,新規,0,2023-05-12,2023-05-12,合同会社コトハ,,合同会社,徳島県,阿波市,阿波町下原２７番地１,,36,206,7711702,,,,,,,2023-05-12,1,,,,,コトハ,0
325,1490001010477,新規,0,2023-05-12,2023-05-12,株式会社スターアライズ,,株式会社,高知県,高知市,口細山５４番地３４３,,39,201,7800963,,,,,,,2023-05-12,1,,,,,スターアライズ,0
328,1500001024921,新規,0,2023-05-12,2023-05-12,株式会社ＩＮＡＧＡＫＩ,,株式会社,愛媛県,大洲市,若宮８３６番地７,,38,207,7950052,,,,,,,2023-05-12,1,,,,,イナガキ,0
330,1700150116020,新規,0,2023-05-12,2023-05-12,Ｈｅｉｌｏｎｇｊａｎｇ　ｊｉｕｋｅｘｉｎｇ　ｍａｏｙｉｙｏｕｘｉａｎｇｏｎｇｓｉ,,外国会社等,,,,,,,,Ｈｅｉｌｏｎｇｊｉａｎｇｓｈｅｎｇ　ｈａｅｒｂｉｎｓｈｉ　ｎａｎｇａｎｇｑｕ　ｊｉａｎｘｉｎｇｌｕ１２８－２５ｈａｏ３ｄａｎｙｕａｎ３ｃｅｎｇ３０１ｈａｏ,,,,,,2023-05-12,1,,,,,ヘイロンジャンジュケシンマオイユウゲンコウシ,0
331,1700150116029,新規,0,2023-05-12,2023-05-12,ｌｏｎｇｙａｎｓｈｉ　ｘｉｎｌｕｏｑｕ　ｙａｎｘｉｘｉｎｇｍａｏｙｉ　ｙｏｕｘｉａｎｇｏｎｇｓｉ,,外国会社等,,,,,,,,ｘｉｎｌｕｏｑｕｘｉｐｉｊｉｅｄａｏｘｉｓｈａｎｃｕｎｄｅｎｇｇａｏｘｉｌｕ５０３ｈａｏ　Ｅ２ｚｈｕａｎｇ４ｔｉ６０８ｓｈｉ　ｌｏｎｇｙａｎ　ｆｕｊｉａｎ,,,,,,2023-05-12,1,,,,,ロンイェンシシンロクヤンシシンマオイユウゲンコウシ,0
332,1700150116037,新規,0,2023-05-12,2023-05-12,Ｚｈｕｈａｉ　ｙｕｎｚａｏ　Ｔｅｃｈｎｏｌｏｇｙ　Ｃｏ．，Ｌｔｄ．,,外国会社等,,,,,,,,ｈｅｎｇ　ｑｉｎｇ　ｘｉｎ　ｑｕ　ｂａｏ　ｈｕａ　ｌｕ　６　ｈａｏ　１０５　ｓｈｉ－６８３５８　ｊｉ　ｚｈｏｎｇ　ｂａｎ　ｇｏｎｇ　ｑｕ　ｚｈｕ　ｈａｉ　ｓｈｉ　ｇｕａｎｇ　ｄｏｎｇ　ｓｈｅｎｇ,,,,,,2023-05-12,1,,,,,ズハイユンザォテクノロジーカンパニーリミテッド,0
333,1700150116045,新規,0,2023-05-12,2023-05-12,ｓｈｅｎｚｈｅｎｓｈｉｘｉｎｇｍｉｎｇｋｅｊｉｙｏｕｘｉａｎｇｏｎｇｓｉ,,外国会社等,,,,,,,,ｌｏｎｇｈｕａｑｕｄａｌａｎｇｊｉｅｄａｏｔｏｎｇｓｈｅｎｇｓｈｅｑｕ　ｓｈａｎｇｈｅｎｇｌａｎｇｄｉｓｉｇｏｎｇｙｅｑｕ９ｈａｏ４０９　Ｓｈｅｎｚｈｅｎｓｈｉ　ｇｕａｎｇｄｏｎｇ　５１８１１０　ＣＮ,,,,,,2023-05-12,1,,,,,シェンジェンシーシンミンコージーヨウシエンゴンスー,0
334,1700150116053,新規,0,2023-05-12,2023-05-12,ＮＩＮＧＢＯＧＵＡＮＧＹＵＡＮＳＨＥＮＧＤＩＡＮＺＩＳＨＡＮＧＷＵＹＯＵＸＩＡＮＧＯＮＧＳＩ,,外国会社等,,,,,,,,４－９　Ｎｏ．１，Ｌａｎｅ　４２，Ｘｉｎｇｎｉｎｇ　Ｒｏａｄ，Ｙｉｎｚｈｏｕ　Ｄｉｓｔｒｉｃｔ　ＮＩＮＧＢＯ　Ｚｈｅｊｉａｎｇ　３１５０００　ＣＮ,,,,,,2023-05-12,1,,,,,ニンボーグワンユエンションディエンズーシャンウーヨウシエンゴンスー,0
335,1700150116061,新規,0,2023-05-12,2023-05-12,ｃｈａｎｇｎｉｎｇｓｈｉｚｈｉｒｏｎｇｈｕｉｇｕａｎｇｄｉａｎｚｉｓｈａｎｇｗｕＬｔｄ．,,外国会社等,,,,,,,,ｃｈａｎｇｎｉｎｇｓｈｉｙｉｙａｎｇｚｈｅｎｊｉａｏｔｏｎｇｌｕ２６ｈａｏ　ｈｅｎｇｙａｎｇｓｈｉ　ｈｕｎａｎｓｈｅｎｇ　４２１５００　ＣＮ,,,,,,2023-05-12,1,,,,,チャンニンシージーロンフイグワンディエンズーシャンウーヨウシエンゴンスー,0
344,2010001235030,新規,0,2023-05-12,2023-05-12,株式会社ＦｉｒｓｔＲｅａｌ　Ｈｅａｌｔｈｄａｔａ　Ｓｙｓｔｅｍｓ,,株式会社,東京都,中央区,銀座７丁目１６番１４号,,13,102,1040061,,,,,,,2023-05-12,1,,,,,ファーストリアルヘルスデータシステムズ,0
345,2010001235229,新規,0,2023-05-12,2023-05-12,株式会社ＦｒｏｎｔｌｉｎｅＲｅｖ,,株式会社,東京都,中央区,銀座１丁目２７番８号セントラルビル７０３号室,,13,102,1040061,,,,,,,2023-05-12,1,,,,,フロントラインレヴ,0
353,2010005036664,新規,0,2023-05-12,2023-05-12,Ｐａｌｅｔｔｅ１一般社団法人,,その他の設立登記法人,東京都,千代田区,丸の内３丁目１番１号東京共同会計事務所内,,13,101,1000005,,,,,,,2023-05-12,1,,,,,パレットワン,0
362,2010401174225,新規,0,2023-05-12,2023-05-12,芝コーポレートコンサルティング株式会社,,株式会社,東京都,港区,浜松町２丁目２番１５号浜松町ダイヤビル２Ｆ,,13,103,1050013,,,,,,,2023-05-12,1,,,,,シバコーポレートコンサルティング,0
363,2010403030070,新規,0,2023-05-12,2023-05-12,合同会社ｉｔｏ,,合同会社,東京都,港区,赤坂３丁目１０－１２パークアクシス赤坂見附８０２,,13,103,1070052,,,,,,,2023-05-12,1,,,,,アイトゥー,0
366,2010405022124,新規,0,2023-05-12,2023-05-12,ジー・ジェー・シー・ピー・ワン・ホールディング一般社団法人,,その他の設立登記法人,東京都,港区,六本木１丁目９番１０号アークヒルズ仙石山森タワー４０階,,13,103,1060032,,,,,,,2023-05-12,1,,,,,ジージェーシーピーワンホールディング,0
368,2010501050433,新規,0,2023-05-12,2023-05-12,株式会社しらい,,株式会社,東京都,台東区,東上野２丁目１８番９号ファーストビル,,13,106,1100015,,,,,,,2023-05-12,1,,,,,シライ,0
376,2010701044243,新規,0,2023-05-12,2023-05-12,株式会社ＮＥＸＴ　ＳＴＡＧＥ,,株式会社,東京都,品川区,西五反田３丁目６番２３号太平ビル４階,,13,109,1410031,,,,,,,2023-05-12,1,,,,,ネクストステージ,0
387,2011001154344,新規,0,2023-05-12,2023-05-12,株式会社Ｇｒｏｂａｌ　Ａｃｃｅｓｓ,,株式会社,東京都,渋谷区,円山町５番５号Ｎａｖｉ渋谷Ｖ３階,,13,113,1500044,,,,,,,2023-05-12,1,,,,,グローバルアクセス,0
388,2011003016807,新規,0,2023-05-12,2023-05-12,ＳＡＭＡＲＫＡＮＤＯ合同会社,,合同会社,東京都,目黒区,目黒本町６丁目２２番１３号ＮＴ西小山コーポ１０３,,13,110,1520002,,,,,,,2023-05-12,1,,,,,サマルカンド,0
389,2011005010080,新規,0,2023-05-12,2023-05-12,一般社団法人日本メイクアップアーティスト協会ＪＭＡＮ,,その他の設立登記法人,東京都,渋谷区,神宮前１丁目１１番１１号グリーンファンタジア６０６,,13,113,1500001,,,,,,,2023-05-12,1,,,,,ニホンメイクアップアーティストキョウカイジェイマン,0
395,2011101102814,新規,0,2023-05-12,2023-05-12,株式会社新しい風,,株式会社,東京都,新宿区,西五軒町１番１号西五軒町ビル５Ｆ,,13,104,1620812,,,,,,,2023-05-12,1,,,,,アタラシイカゼ,0
396,2011101102822,新規,0,2023-05-12,2023-05-12,株式会社ブランドマーケティング,,株式会社,東京都,新宿区,河田町３番５４,,13,104,1620054,,,,,,,2023-05-12,1,,,,,ブランドマーケティング,0
400,2011303004750,新規,0,2023-05-12,2023-05-12,合同会社ＳＡＩ,,合同会社,東京都,杉並区,和泉３丁目４６番９号,,13,115,1680063,,,,,,,2023-05-12,1,,,,,サイ,0
401,2011403003999,新規,0,2023-05-12,2023-05-12,Ｖｉｔａ　ｍｅｒａｖｉｇｌｉｏｓａ　Ｋ＆Ｍ合同会社,,合同会社,東京都,板橋区,板橋１丁目４９番１０号栗宇ビル１０２号,,13,119,1730004,,,,,,,2023-05-12,1,,,,,ヴィータメラヴィリョーザケイアンドエム,0
403,2011701026223,新規,0,2023-05-12,2023-05-12,株式会社アイビー不動産,,株式会社,東京都,江戸川区,西葛西３丁目７番８－２０２号,,13,123,1340088,,,,,,,2023-05-12,1,,,,,アイビーフドウサン,0
405,2011703003468,新規,0,2023-05-12,2023-05-12,合同会社伊禮コンサルティング,,合同会社,東京都,江戸川区,東葛西６丁目４番１９号ＨＡＲＵＫＡＳ５階,,13,123,1340084,,,,,,,2023-05-12,1,,,,,イレイコンサルティング,0
411,2012801022343,新規,0,2023-05-12,2023-05-12,フォーチュン不動産株式会社,,株式会社,東京都,立川市,富士見町２丁目１２番７号,,13,202,1900013,,,,,,,2023-05-12,1,,,,,フォーチュンフドウサン,0
424,2020001151540,新規,0,2023-05-12,2023-05-12,株式会社エゾガシマレーベル,,株式会社,神奈川県,川崎市川崎区,駅前本町１１番地２川崎フロンティアビル４階,,14,131,2100007,,,,,,,2023-05-12,1,,,,,エゾガシマレーベル,0
425,2020001151557,新規,0,2023-05-12,2023-05-12,株式会社トライズ,,株式会社,神奈川県,横浜市港北区,樽町３丁目６番３７号,,14,109,2220001,,,,,,,2023-05-12,1,,,,,トライズ,0
426,2020001151565,新規,0,2023-05-12,2023-05-12,株式会社藤栄重設,,株式会社,神奈川県,川崎市川崎区,藤崎１丁目１５番３号,,14,131,2100804,,,,,,,2023-05-12,1,,,,,トウエイジュウセツ,0
437,2021001079012,新規,0,2023-05-12,2023-05-12,株式会社Ｓｍｉｌｅｙ,,株式会社,神奈川県,伊勢原市,八幡台２丁目１０番地の２０,,14,214,2591134,,,,,,,2023-05-12,1,,,,,スマイリー,0
438,2021001079037,新規,0,2023-05-12,2023-05-12,ファーイーストジャパン株式会社,,株式会社,神奈川県,藤沢市,鵠沼石上１丁目７－８ビックライズビル５Ｆ,,14,205,2510025,,,,,,,2023-05-12,1,,,,,ファーイーストジャパン,0
445,2030001153701,新規,0,2023-05-12,2023-05-12,大橋商店株式会社,,株式会社,埼玉県,北葛飾郡松伏町,大字大川戸２８２１番地１,,11,465,3430106,,,,,,,2023-05-12,1,,,,,オオハシショウテン,0
446,2030001153775,新規,0,2023-05-12,2023-05-12,株式会社Ｆｕｌｆｉｌｅｘ,,株式会社,埼玉県,志木市,柏町１丁目１８－８,,11,228,3530007,,,,,,,2023-05-12,1,,,,,フルフィレックス,0
447,2030001153800,新規,0,2023-05-12,2023-05-12,株式会社赤堀電設,,株式会社,埼玉県,志木市,下宗岡４丁目４番１５号,,11,228,3530003,,,,,,,2023-05-12,1,,,,,アカホリデンセツ,0
448,2030001153858,新規,0,2023-05-12,2023-05-12,株式会社ＥＮＩＴＹ,,株式会社,埼玉県,所沢市,大字下安松５５５番地の３モクメ所沢Ｆ,,11,208,3590024,,,,,,,2023-05-12,1,,,,,エニティ,0
451,2030003021559,新規,0,2023-05-12,2023-05-12,合同会社アンプランド,,合同会社,埼玉県,越谷市,レイクタウン８丁目６番地１ブリリア越谷レイクタウン１３１０号,,11,222,3430828,,,,,,,2023-05-12,1,,,,,アンプランド,0
452,2030003021724,新規,0,2023-05-12,2023-05-12,ＢＡＳＹＮＡＴ合同会社,,合同会社,埼玉県,蓮田市,東１丁目６番７号第２双葉マンション２０５号,,11,238,3490111,,,,,,,2023-05-12,1,,,,,バスニャト,0
453,2030005021276,新規,0,2023-05-12,2023-05-12,ＮＰＯ法人ＲＩＳＯ,,その他の設立登記法人,埼玉県,さいたま市大宮区,大成町３丁目５４５番地オフィスさきたま２Ｆ,,11,103,3300852,,,,,,,2023-05-12,1,,,,,リソウ,0
454,2040001128363,新規,0,2023-05-12,2023-05-12,株式会社Ｎ＆Ｋ,,株式会社,千葉県,船橋市,本町１丁目１２番２４号第２マンション海老原１階１０１号室,,12,204,2730005,,,,,,,2023-05-12,1,,,,,エヌアンドケー,0
457,2040003022564,新規,0,2023-05-12,2023-05-12,合同会社カツミコーポレーション,,合同会社,千葉県,成田市,並木町２５番地７９,,12,211,2860045,,,,,,,2023-05-12,1,,,,,カツミコーポレーション,0
458,2040005021993,新規,0,2023-05-12,2023-05-12,ＮＰＯ法人元気あふれるまち,,その他の設立登記法人,千葉県,千葉市若葉区,大宮町６２１番地,,12,104,2640016,,,,,,,2023-05-12,1,,,,,ゲンキアフレルマチ,0
459,2040005022018,新規,0,2023-05-12,2023-05-12,ＮＡＯ司法書士法人,,その他の設立登記法人,千葉県,白井市,根１３２番地の１６,,12,232,2701431,,,,,,,2023-05-12,1,,,,,ナオ,0
460,2050001052843,新規,0,2023-05-12,2023-05-12,株式会社白鶴インターナショナル投資,,株式会社,茨城県,下妻市,堀篭９７２－１イオン下妻店,,08,210,3040033,,,,,,,2023-05-12,1,,,,,ハクツルインターナショナルトウシ,0
461,2050005013263,新規,0,2023-05-12,2023-05-12,特定非営利活動法人ＳＥＡ．ｉｎｇ,,その他の設立登記法人,茨城県,つくば市,天久保４丁目９番１号ハイネスグリーン１Ａ,,08,220,3050005,,,,,,,2023-05-12,1,,,,,シーイング,0
465,2060001036003,新規,0,2023-05-12,2023-05-12,株式会社山将工業,,株式会社,栃木県,宇都宮市,御幸ケ原町１０３番地３１,,09,201,3210982,,,,,,,2023-05-12,1,,,,,ヤマショウコウギョウ,0
468,2070001040441,新規,0,2023-05-12,2023-05-12,株式会社エセンティア,,株式会社,群馬県,藤岡市,岡之郷６６３－５,,10,209,3750011,,,,,,,2023-05-12,1,,,,,エセンティア,0
471,2080101023997,新規,0,2023-05-12,2023-05-12,あおき屋株式会社,,株式会社,静岡県,沼津市,新宿町１５番地の５,,22,203,4100048,,,,,,,2023-05-12,1,,,,,アオキヤ,0
473,2080401026477,新規,0,2023-05-12,2023-05-12,まつりのあと株式会社,,株式会社,静岡県,御前崎市,白羽６７２９番地の１,,22,223,4371622,,,,,,,2023-05-12,1,,,,,マツリノアト,0
475,2090001018122,新規,0,2023-05-12,2023-05-12,株式会社菊原塗装店,,株式会社,山梨県,北杜市,小淵沢町１００７８番地１４,,19,209,4080044,,,,,,,2023-05-12,1,,,,,キクハラトソウテン,0
476,2090003002314,新規,0,2023-05-12,2023-05-12,合同会社丸将,,合同会社,山梨県,南アルプス市,飯野３６１１番地１０２,,19,208,4000222,,,,,,,2023-05-12,1,,,,,マルショウ,0
478,2110001037524,新規,0,2023-05-12,2023-05-12,株式会社バトンデザイン,,株式会社,新潟県,南魚沼市,浦佐２７５番地１０,,15,226,9497302,,,,,,,2023-05-12,1,,,,,バトンデザイン,0
479,2110001037532,新規,0,2023-05-12,2023-05-12,株式会社鳳翔,,株式会社,新潟県,新潟市東区,石山３丁目４番２３号,,15,102,9500852,,,,,,,2023-05-12,1,,,,,ホウショウ,0
493,2120001254754,新規,0,2023-05-12,2023-05-12,株式会社ＣＲ,,株式会社,大阪府,交野市,妙見坂７丁目１３番１１号,,27,230,5760021,,,,,,,2023-05-12,1,,,,,シーアール,0
494,2120001254795,新規,0,2023-05-12,2023-05-12,楚喬株式会社,,株式会社,大阪府,大阪市港区,弁天２丁目１４番２５号中野ビル３階Ｂ－２号室,,27,107,5520007,,,,,,,2023-05-12,1,,,,,ソキョウ,0
495,2120001254804,新規,0,2023-05-12,2023-05-12,コレバンサポート株式会社,,株式会社,大阪府,寝屋川市,梅が丘１丁目１７番１－５０３号,,27,215,5720803,,,,,,,2023-05-12,1,,,,,コレバンサポート,0
496,2120001254894,新規,0,2023-05-12,2023-05-12,株式会社ＯＮＥ　ＦＯＲ　ＡＬＬ　ＪＡＰＡＮ,,株式会社,大阪府,大阪市東淀川区,豊新４丁目１番１８－４０２号,,27,114,5330014,,,,,,,2023-05-12,1,,,,,ワンフォーオールジャパン,0
498,2120101067503,新規,0,2023-05-12,2023-05-12,株式会社ゼウス,,株式会社,大阪府,泉佐野市,日根野３４０８－２,,27,213,5980021,,,,,,,2023-05-12,1,,,,,ゼウス,0
502,2120901047506,新規,0,2023-05-12,2023-05-12,株式会社オフィスいろは,,株式会社,大阪府,箕面市,粟生外院１丁目９番３号,,27,220,5620025,,,,,,,2023-05-12,1,,,,,オフィスイロハ,0
506,2122001036950,新規,0,2023-05-12,2023-05-12,株式会社坊也哲,,株式会社,大阪府,東大阪市,西岩田４丁目４番４６号１階,,27,227,5780947,,,,,,,2023-05-12,1,,,,,ボウヤテツ,0
507,2122001036959,新規,0,2023-05-12,2023-05-12,高橋造園株式会社,00130475,株式会社,大阪府,八尾市,上之島町北１丁目１６番地の２２,,27,212,5810845,,,,,,,2023-05-12,1,,,,,タカハシゾウエン,0
513,2130001074318,新規,0,2023-05-12,2023-05-12,株式会社ＦＥＥＬＩＮ’ＷＯＯＤ,,株式会社,京都府,宇治市,小倉町堀池２１－１７,,26,204,6110042,,,,,,,2023-05-12,1,,,,,フィーリンウッド,0
514,2130003008711,新規,0,2023-05-12,2023-05-12,合同会社ＨＹＧＧＥ,,合同会社,京都府,向日市,寺戸町寺田５０番地の１京都桂川つむぎの街ブライトスクエア４２３号,,26,208,6170002,,,,,,,2023-05-12,1,,,,,ヒュッゲ,0
516,2140001130136,新規,0,2023-05-12,2023-05-12,株式会社インプレスワークス,,株式会社,兵庫県,加古郡播磨町,東本荘３丁目６番１０号,,28,382,6750156,,,,,,,2023-05-12,1,,,,,インプレスワークス,0
517,2140001130169,新規,0,2023-05-12,2023-05-12,株式会社エムエフピー,,株式会社,兵庫県,川西市,清和台東３丁目２番７７号,,28,217,6660142,,,,,,,2023-05-12,1,,,,,エムエフピー,0
521,2140003019071,新規,0,2023-05-12,2023-05-12,ＰＶＴ合同会社,,合同会社,兵庫県,神戸市長田区,二葉町３丁目１１番９号,,28,106,6530042,,,,,,,2023-05-12,1,,,,,ピーブイティ,0
522,2140003019088,新規,0,2023-05-12,2023-05-12,合同会社Ｌａ　Ｔｅｒｒｅ,,合同会社,兵庫県,神戸市須磨区,衣掛町５丁目３－９,,28,107,6540048,,,,,,,2023-05-12,1,,,,,ラテール,0
525,2150001026399,新規,0,2023-05-12,2023-05-12,株式会社アダージョ,,株式会社,奈良県,磯城郡田原本町,大字八尾６１１番地の１キャッスルＢ２０３号室,,29,363,6360311,,,,,,,2023-05-12,1,,,,,アダージョ,0
527,2160001025045,新規,0,2023-05-12,2023-05-12,株式会社ダイヤモンドスイング,,株式会社,滋賀県,草津市,大路２丁目６番６号ＡＬＴＡ草津大路ビュー３０３号,,25,206,5250032,,,,,,,2023-05-12,1,,,,,ダイヤモンドスイング,0
530,2170001017594,新規,0,2023-05-12,2023-05-12,株式会社ＡＭＩＤＡ,,株式会社,和歌山県,橋本市,高野口町九重４２１番地,,30,203,6497215,,,,,,,2023-05-12,1,,,,,アミダ,0
531,2170001017603,新規,0,2023-05-12,2023-05-12,ＣＲＡＳＩＯ株式会社,,株式会社,和歌山県,和歌山市,新生町１－１０－２,,30,201,6408325,,,,,,,2023-05-12,1,,,,,クラシオ,0
532,2170005007014,新規,0,2023-05-12,2023-05-12,一般社団法人サンタスピリッツ,,その他の設立登記法人,和歌山県,和歌山市,本町４丁目４３番地１サンビル本町５階,,30,201,6408033,,,,,,,2023-05-12,1,,,,,サンタスピリッツ,0
537,2180001156251,新規,0,2023-05-12,2023-05-12,株式会社アイビ加工,,株式会社,愛知県,名古屋市守山区,脇田町１００２番地,,23,113,4630024,,,,,,,2023-05-12,1,,,,,アイビカコウ,0
545,2180301037366,新規,0,2023-05-12,2023-05-12,株式会社ＳＯＵＫＩ,,株式会社,愛知県,岡崎市,北野町字樫ノ木２３番地５,,23,202,4440951,,,,,,,2023-05-12,1,,,,,ソウキ,0
546,2190001030397,新規,0,2023-05-12,2023-05-12,株式会社川西,,株式会社,三重県,伊勢市,小俣町湯田１０５３番地１─２階,,24,203,5190506,,,,,,,2023-05-12,1,,,,,カワニシ,0
552,2200005013487,新規,0,2023-05-12,2023-05-12,医療法人リリー歯科・矯正歯科クリニック,,その他の設立登記法人,岐阜県,岐阜市,市橋６丁目１１番１号,,21,201,5008381,,,,,,,2023-05-12,1,,,,,リリーシカキョウセイシカクリニック,0
553,2220001025402,新規,0,2023-05-12,2023-05-12,株式会社Ｌｕａｎａ,,株式会社,石川県,金沢市,間明町２丁目１２６番地２,,17,201,9218005,,,,,,,2023-05-12,1,,,,,ルアナ,0
556,2230001019832,新規,0,2023-05-12,2023-05-12,株式会社トアルノウカ,,株式会社,富山県,富山市,中沖７４３番地,,16,201,9300101,,,,,,,2023-05-12,1,,,,,トアルノウカ,0
558,2240001061503,新規,0,2023-05-12,2023-05-12,株式会社カワグチ,,株式会社,広島県,廿日市市,天神１４番１２号,,34,213,7380012,,,,,,,2023-05-12,1,,,,,カワグチ,0
562,2260001037939,新規,0,2023-05-12,2023-05-12,株式会社茶屋町ファーム,,株式会社,岡山県,倉敷市,茶屋町早沖８３０番地,,33,202,7101102,,,,,,,2023-05-12,1,,,,,チャヤマチファーム,0
575,2290001101510,新規,0,2023-05-12,2023-05-12,株式会社ｅｎｒｉｃｈ,,株式会社,福岡県,糸島市,志摩松隈４９６番地４,,40,230,8191306,,,,,,,2023-05-12,1,,,,,エンリッチ,0
576,2290001101527,新規,0,2023-05-12,2023-05-12,株式会社河原測量事務所,,株式会社,福岡県,福岡市早良区,次郎丸５丁目５番２３号,,40,137,8140165,,,,,,,2023-05-12,1,,,,,カワハラソクリョウジムショ,0
577,2290003013902,新規,0,2023-05-12,2023-05-12,合同会社アジャスト,,合同会社,福岡県,福岡市博多区,春町３丁目７番１０－３０２号リーセント春町,,40,132,8120872,,,,,,,2023-05-12,1,,,,,アジャスト,0
579,2290801029521,新規,0,2023-05-12,2023-05-12,株式会社ライフアクロス,,株式会社,福岡県,北九州市八幡西区,陣原１丁目８番１６号,,40,109,8070821,,,,,,,2023-05-12,1,,,,,ライフアクロス,0
580,2310005008682,新規,0,2023-05-12,2023-05-12,社会福祉法人ひびき会,,その他の設立登記法人,長崎県,長崎市,西海町３２６１番地２,,42,201,8513101,,,,,,,2023-05-12,1,,,,,ヒビキカイ,0
581,2320001019757,新規,0,2023-05-12,2023-05-12,株式会社グリーンマム農園,,株式会社,大分県,豊後大野市,三重町宮野字細長１５９番地,,44,212,8797101,,,,,,,2023-05-12,1,,,,,グリーンマムノウエン,0
582,2320001019765,新規,0,2023-05-12,2023-05-12,株式会社ダイマル創建,,株式会社,大分県,宇佐市,大字東大堀２０１番地の３,,44,211,8791121,,,,,,,2023-05-12,1,,,,,ダイマルソウケン,0
583,2320001019773,新規,0,2023-05-12,2023-05-12,檸檬株式会社,,株式会社,大分県,大分市,明野西２丁目４番１２号,,44,201,8700164,,,,,,,2023-05-12,1,,,,,レモン,0
585,2330001030820,新規,0,2023-05-12,2023-05-12,株式会社西原設備設計,,株式会社,熊本県,熊本市西区,池田２丁目５４番３１－２号,,43,103,8600082,,,,,,,2023-05-12,1,,,,,ニシバルセツビセッケイ,0
586,2330001030853,新規,0,2023-05-12,2023-05-12,株式会社いえコレ,,株式会社,熊本県,熊本市中央区,本荘５丁目１０番１８号,,43,101,8600811,,,,,,,2023-05-12,1,,,,,イエコレ,0
594,2360001031997,新規,0,2023-05-12,2023-05-12,株式会社名幸エンジニア,,株式会社,沖縄県,中頭郡北谷町,字砂辺５２６番地９,,47,326,9040111,,,,,,,2023-05-12,1,,,,,ナコウエンジニア,0
595,2360003012946,新規,0,2023-05-12,2023-05-12,合同会社ＡＫＫＡ　ＨＡＫＫＡ,,合同会社,沖縄県,石垣市,浜崎町２丁目５番２５号Ｋｉｎｇビル１Ｆ,,47,207,9070013,,,,,,,2023-05-12,1,,,,,アッカハッカ,0
596,2360003012954,新規,0,2023-05-12,2023-05-12,合同会社ルートブック,,合同会社,沖縄県,那覇市,牧志３丁目２２番４１号エンゼルハイム牧志７０１,,47,201,9000013,,,,,,,2023-05-12,1,,,,,ルートブック,0
605,2380001033678,新規,0,2023-05-12,2023-05-12,株式会社レイズ不動産,,株式会社,福島県,郡山市,桑野４丁目１番地４,,07,203,9638025,,,,,,,2023-05-12,1,,,,,レイズフドウサン,0
612,2400001016242,新規,0,2023-05-12,2023-05-12,株式会社ＫＩＲＩＮＪＩ,,株式会社,岩手県,盛岡市,大通１丁目６番１６号金盛第一ビル１Ｆ,,03,201,0200022,,,,,,,2023-05-12,1,,,,,キリンジ,0
613,2400001016250,新規,0,2023-05-12,2023-05-12,株式会社とまりぎ,,株式会社,岩手県,八幡平市,大更第２５地割１２８番地３,,03,214,0287111,,,,,,,2023-05-12,1,,,,,トマリギ,0
618,2400003003081,新規,0,2023-05-12,2023-05-12,合同会社そらの音,,合同会社,岩手県,盛岡市,前九年２丁目９番１６号,,03,201,0200127,,,,,,,2023-05-12,1,,,,,ソラノオト,0
631,2430001089038,新規,0,2023-05-12,2023-05-12,株式会社ＢＰＩＯ,,株式会社,北海道,札幌市中央区,北四条西２丁目１番地１８邦洋札幌Ｎ４・２ビル１１階,,01,101,0600004,,,,,,,2023-05-12,1,,,,,ビピオ,0
632,2430001089054,新規,0,2023-05-12,2023-05-12,株式会社辰巳重機,,株式会社,北海道,岩見沢市,緑町４丁目８番２号,,01,210,0680046,,,,,,,2023-05-12,1,,,,,タツミジュウキ,0
633,2430001089062,新規,0,2023-05-12,2023-05-12,ＡＴＩＤ北海道株式会社,,株式会社,北海道,札幌市清田区,清田七条１丁目２４番１１号,,01,110,0040847,,,,,,,2023-05-12,1,,,,,アティードホッカイドウ,0
634,2430001089079,新規,0,2023-05-12,2023-05-12,株式会社Ｊｏｕｒｎｅｙ,,株式会社,北海道,札幌市北区,新琴似十二条１５丁目１－１１,,01,102,0010912,,,,,,,2023-05-12,1,,,,,ジャーニー,0
637,2430003015025,新規,0,2023-05-12,2023-05-12,ＮＷＳ合同会社,,合同会社,北海道,札幌市厚別区,厚別町上野幌８２６番地２７,,01,108,0040039,,,,,,,2023-05-12,1,,,,,エヌダブリューエス,0
640,2470001019610,新規,0,2023-05-12,2023-05-12,株式会社佑凰興業,,株式会社,香川県,坂出市,西大浜南２丁目５番６－２０２号,,37,203,7620054,,,,,,,2023-05-12,1,,,,,ユウオウコウギョウ,0
641,2470005006506,新規,0,2023-05-12,2023-05-12,一般社団法人セトラスホールディングスグループ会,,その他の設立登記法人,香川県,高松市,磨屋町８番地１,,37,201,7600026,,,,,,,2023-05-12,1,,,,,セトラスホールディングスグループカイ,0
644,2490001010476,新規,0,2023-05-12,2023-05-12,オネスティ株式会社,,株式会社,高知県,高知市,神田２３１番地１,,39,201,7808040,,,,,,,2023-05-12,1,,,,,オネスティ,0
645,2490003001779,新規,0,2023-05-12,2023-05-12,合同会社濱田農園,,合同会社,高知県,香美市,土佐山田町岩次９１番地,,39,212,7820021,,,,,,,2023-05-12,1,,,,,ハマダノウエン,0
646,2500001024920,新規,0,2023-05-12,2023-05-12,株式会社コイテック,,株式会社,愛媛県,今治市,菊間町浜３１９１番地,,38,202,7992303,,,,,,,2023-05-12,1,,,,,コイテック,0
648,2700150116028,新規,0,2023-05-12,2023-05-12,Ｓｈｅｎｚｈｅｎ　Ｔｕｏｔｅｎｇ　Ｅ－Ｂｕｓｉｎｅｓｓ　Ｃｏ．，Ｌｔｄ．,,外国会社等,,,,,,,,３００１　Ｙｉ　Ｔｉａｎ　Ｒｏａｄ，Ｒｕｉ　Ｈｅ　Ｙｕａｎ，Ｒｕｉ　Ｘｉｎ　Ｇｅ　５Ｄ　Ｆｕ　Ｔｉａｎ　Ｄｉｓｔｒｉｃｔ　Ｇｕａｎｇ　Ｄｏｎｇ　Ｓｈｅｎ　Ｚｈｅｎ,,,,,,2023-05-12,1,,,,,シンセントォウテンイービジネスカンパニーリミテッド,0
649,2700150116036,新規,0,2023-05-12,2023-05-12,ＳｈｅｎＺｈｅｎＳｈｉ　ＫｕＳｈｉＫｅＪｉ　ＹｏｕＸｉａｎＧｏｎｇＳｉ,,外国会社等,,,,,,,,６Ｇ０２，Ｕｎｉｔ　Ｇ，Ｓｈａｎ　Ｈａｉ　Ｊｉｎ　Ｂｕｉｌｄｉｎｇ，Ｘｉｎｇ　Ｈａｉ　Ａｖｅ　ＳｈｅＫｏｕ　Ａｒｅａ，Ｎａｎ　Ｓｈａｎ　Ｄｉｓｔｒｉｃｔ　ＳｈｅｎＺｈｅｎ　ＧｕａｎｇＤｏｎｇ,,,,,,2023-05-12,1,,,,,シンセンシクシケジユウゲンコウシ,0
650,2700150116044,新規,0,2023-05-12,2023-05-12,ｓｈｅｎｚｈｅｎｓｈｉｗｅｉｅｒｊｉｎｇｋｅｊｉｙｏｕｘｉａｎｇｏｎｇｓｉ,,外国会社等,,,,,,,,ｌｏｎｇｈｕａｑｕｆｕｃｈｅｎｇｊｉｅｄａｏｚｈａｎｇｇｅｓｈｅｑｕｚｈａｎｇｇｅｌｕ１４２ｈａｏ１ｄｏｎｇ３０１　ｓｈｅｎｚｈｅｎ　ｇｕａｎｇｄｏｎｇ　５１８０００　ＣＮ,,,,,,2023-05-12,1,,,,,シェンジェンシーウェイアージンコージーヨウシエンゴンスー,0
651,2700150116052,新規,0,2023-05-12,2023-05-12,ｓｈｅｎｚｈｅｎｓｈｉｙｕｎｃｈｅｎｇｚｈｉｓｈａｎｇｋｅｊｉｙｏｕｘｉａｎｇｏｎｇｓｈｉ,,外国会社等,,,,,,,,ｂａｎ　ｔｉａｎ　ｊｉｅ　ｄａｏ　ｎａｎ　ｋｅｎｇ　ｓｈｅ　ｑｕ　ｎａｎ　ｋｅｎｇ　ｎａｎ　ｓａｎ　ｘｉａｎｇ　７　ｈａｏ　Ｂ１０１　ｓｈｅｎ　ｚｈｅｎ　ｓｈｉ　ｌｏｎｇ　ｇａｎｇ　ｑｕ　ｇｕａｎｇ　ｄｏｎｇ　ｓｈｅｎｇ　５１８１２９　ＣＮ,,,,,,2023-05-12,1,,,,,シェンジェンシーインチョンジーシャンコージーヨウシエンゴンスー,0
652,2700150116060,新規,0,2023-05-12,2023-05-12,ＣｈａｎｇＮｉｎｇＳｈｉＬｉＦｅｎｇＤｉｎｇＬｏｎｇＢａｉＨｕｏＹｏｕＸｉａｎＧｏｎｇＳｉ,,外国会社等,,,,,,,,ＣｈａｎｇＮｉｎｇＳｈｉＢａｎＱｉａｏＺｈｅｎＺｈｏｎｇＱｉａｏＣｕｎＷｕＺｕ１５ＨａｏＨｅｎｇＹａｎｇＳｈｉ　ＨｕＮａｎＳｈｅｎｇ　４２１０００　ＣＮ,,,,,,2023-05-12,1,,,,,チャンニンシーリーフォンディンロンバイフオヨウシエンゴンスー,0
663,3010001235137,新規,0,2023-05-12,2023-05-12,ＭＭＥＦ株式会社,,株式会社,東京都,千代田区,神田佐久間町２丁目１８－５アークビル２Ｆ,,13,101,1010025,,,,,,,2023-05-12,1,,,,,エムエムエンジニアリングファーム,0
664,3010001235236,新規,0,2023-05-12,2023-05-12,株式会社Ｓ＆Ｙアドバタイジング,,株式会社,東京都,中央区,銀座１丁目１２番４号Ｎ＆ＥＢＬＤ．６Ｆ,,13,102,1040061,,,,,,,2023-05-12,1,,,,,エスアンドワイアドバタイジング,0
665,3010001235252,新規,0,2023-05-12,2023-05-12,株式会社ＴＭＫ　ＥＸＰＲＥＳＳ,,株式会社,東京都,中央区,晴海２丁目３番３０－２９１９号,,13,102,1040053,,,,,,,2023-05-12,1,,,,,ティーエムケーエクスプレス,0
666,3010001235269,新規,0,2023-05-12,2023-05-12,株式会社ＭＡＳＳ＆ＨＡＣＨＩ,,株式会社,東京都,千代田区,神田神保町１丁目６０番地赤石第一ビル３０３号室,,13,101,1010051,,,,,,,2023-05-12,1,,,,,マスアンドハチ,0
670,3010003040576,新規,0,2023-05-12,2023-05-12,合同会社ストリングスＧＩＮＺＡ,,合同会社,東京都,中央区,銀座４丁目８番１４号陽光銀座ビル２階,,13,102,1040061,,,,,,,2023-05-12,1,,,,,ストリングスギンザ,0
679,3010401174182,新規,0,2023-05-12,2023-05-12,株式会社オーブ,,株式会社,東京都,港区,浜松町２丁目２－１５浜松町ダイヤビル２Ｆ,,13,103,1050013,,,,,,,2023-05-12,1,,,,,オーブ,0
680,3010401174372,新規,0,2023-05-12,2023-05-12,株式会社ＡＰ７６ホールディングス,,株式会社,東京都,港区,虎ノ門４丁目１番２８号虎ノ門タワーズオフィス１７階,,13,103,1050001,,,,,,,2023-05-12,1,,,,,エーピーナナジュウロクホールディングス,0
682,3010403030078,新規,0,2023-05-12,2023-05-12,合同会社ａｉｐｏｓ,,合同会社,東京都,港区,南青山３丁目１番３６号,,13,103,1070062,,,,,,,2023-05-12,1,,,,,アイポス,0
684,3010601063086,新規,0,2023-05-12,2023-05-12,株式会社茂秀,,株式会社,東京都,墨田区,吾妻橋１丁目１０番５号,,13,107,1300001,,,,,,,2023-05-12,1,,,,,モシュウ,0
686,3010603010144,新規,0,2023-05-12,2023-05-12,合同会社３Ｒ,,合同会社,東京都,墨田区,錦糸１丁目２番１号,,13,107,1300013,,,,,,,2023-05-12,1,,,,,スリーアール,0
688,3010701044234,新規,0,2023-05-12,2023-05-12,株式会社ＲＯＫＡ,,株式会社,東京都,品川区,東品川３丁目８番８ラグナタワー２９０８号,,13,109,1400002,,,,,,,2023-05-12,1,,,,,ロカ,0
689,3010703006694,新規,0,2023-05-12,2023-05-12,ＮＡＪＩＭＩ合同会社,,合同会社,東京都,品川区,西五反田８丁目１０－６－１０７,,13,109,1410031,,,,,,,2023-05-12,1,,,,,ナジミ,0
700,3010901053010,新規,0,2023-05-12,2023-05-12,株式会社ＫＲコンサルティング,,株式会社,東京都,世田谷区,野沢２丁目２番１５－２０５号,,13,112,1540003,,,,,,,2023-05-12,1,,,,,ケイアールコンサルティング,0
708,3011001154343,新規,0,2023-05-12,2023-05-12,株式会社アロム,,株式会社,東京都,渋谷区,広尾５丁目１４番２号,,13,113,1500012,,,,,,,2023-05-12,1,,,,,アロム,0
709,3011003016797,新規,0,2023-05-12,2023-05-12,合同会社ミミ,,合同会社,東京都,渋谷区,渋谷３丁目１番９号ＹＡＺＡＷＡビル３階,,13,113,1500002,,,,,,,2023-05-12,1,,,,,ミミ,0
710,3011003016814,新規,0,2023-05-12,2023-05-12,合同会社ｋａｋｅｎａｒｉ,,合同会社,東京都,渋谷区,東２丁目１８番６号松岡ビル２０２号,,13,113,1500011,,,,,,,2023-05-12,1,,,,,カケナリ,0
713,3011101102846,新規,0,2023-05-12,2023-05-12,株式会社ＡＲＭＡＴＹ,,株式会社,東京都,新宿区,新宿２丁目９番１号第３１宮庭マンション９０４,,13,104,1600022,,,,,,,2023-05-12,1,,,,,アルマティ,0
715,3011103013026,新規,0,2023-05-12,2023-05-12,合同会社健康ほぜん,,合同会社,東京都,新宿区,西早稲田１丁目２３番１２－１２０２号,,13,104,1690051,,,,,,,2023-05-12,1,,,,,ケンコウホゼン,0
718,3011205002554,新規,0,2023-05-12,2023-05-12,特定非営利活動法人Ｃｈａｐｐｙ　Ｃｏｒｅ,,その他の設立登記法人,東京都,中野区,中野６丁目２番１９号,,13,114,1640001,,,,,,,2023-05-12,1,,,,,チャッピーコア,0
719,3011301028684,新規,0,2023-05-12,2023-05-12,株式会社ｗａｎｉｎａｒｕ,,株式会社,東京都,杉並区,上井草１丁目４番１号,,13,115,1670023,,,,,,,2023-05-12,1,,,,,ワニナル,0
720,3011303004758,新規,0,2023-05-12,2023-05-12,ＲＯＯＴＥＥＮ合同会社,,合同会社,東京都,杉並区,天沼３丁目１４番８号エスプラ荻窪２０６,,13,115,1670032,,,,,,,2023-05-12,1,,,,,ルーティーン,0
721,3011401025086,新規,0,2023-05-12,2023-05-12,株式会社グランドディージ,,株式会社,東京都,板橋区,加賀１丁目２１－１－１０１７,,13,119,1730003,,,,,,,2023-05-12,1,,,,,,0
722,3011401025128,新規,0,2023-05-12,2023-05-12,株式会社ＨＯＰＥ　Ｇｒｏｕｐ,,株式会社,東京都,板橋区,富士見町１４番５号板橋本町オフィス３０４,,13,119,1740062,,,,,,,2023-05-12,1,,,,,ホープグループ,0
727,3011601026801,新規,0,2023-05-12,2023-05-12,株式会社ＭＳ,,株式会社,東京都,練馬区,北町６丁目２６番１３号,,13,120,1790081,,,,,,,2023-05-12,1,,,,,エムエス,0
731,3011701026230,新規,0,2023-05-12,2023-05-12,北辰商事株式会社,,株式会社,東京都,江戸川区,東葛西６丁目４４番２－１０１号,,13,123,1340084,,,,,,,2023-05-12,1,,,,,ホクシンショウジ,0
733,3011801042375,新規,0,2023-05-12,2023-05-12,株式会社日剛設備工業,,株式会社,東京都,足立区,日ノ出町１１番５号,,13,121,1200021,,,,,,,2023-05-12,1,,,,,ニッコウセツビコウギョウ,0
734,3011801042383,新規,0,2023-05-12,2023-05-12,株式会社レオニダス,,株式会社,東京都,足立区,綾瀬３丁目１４－６ルミエール綾瀬,,13,121,1200005,,,,,,,2023-05-12,1,,,,,レオニダス,0
738,3012701017649,新規,0,2023-05-12,2023-05-12,Ｔｏｍｒａ　Ｂｏｏｋｓ株式会社,,株式会社,東京都,西東京市,泉町３丁目２番７号,,13,229,2020011,,,,,,,2023-05-12,1,,,,,トムラブックス,0
739,3012801022342,新規,0,2023-05-12,2023-05-12,株式会社ａｉｍ．ｓ,,株式会社,東京都,昭島市,大神町４丁目１７番１３号,,13,207,1960013,,,,,,,2023-05-12,1,,,,,エイムス,0
744,3013301050767,新規,0,2023-05-12,2023-05-12,株式会社コドケン,,株式会社,東京都,豊島区,東池袋１丁目３４番５号いちご東池袋ビル６階,,13,116,1700013,,,,,,,2023-05-12,1,,,,,コドケン,0
746,3013303006627,新規,0,2023-05-12,2023-05-12,合同会社ＯＤＯＴ　ＪＡＰＡＮ,,合同会社,東京都,豊島区,駒込３丁目１－３エコプレイス駒込Ｂ－２階２０８号室,,13,116,1700003,,,,,,,2023-05-12,1,,,,,オドットジャパン,0
749,3020001151548,新規,0,2023-05-12,2023-05-12,ＡＣＥ株式会社,,株式会社,神奈川県,川崎市麻生区,下麻生２丁目３４番１９号,,14,137,2150022,,,,,,,2023-05-12,1,,,,,エース,0
750,3020001151572,新規,0,2023-05-12,2023-05-12,株式会社Ｓｐａｒｋｌｅ　Ｈｏｒｓｅ,,株式会社,神奈川県,横浜市西区,高島２丁目１４番１２号崎陽軒ビル・ヨコハマ・ジャスト２号館４Ｆ,,14,103,2200011,,,,,,,2023-05-12,1,,,,,スパークルホース,0
751,3020001151580,新規,0,2023-05-12,2023-05-12,株式会社ＹＯＳＨＩＭＵＮＥ,,株式会社,神奈川県,横浜市中区,長者町２丁目５番地５長者町ビジネスマンション１１０９号室,,14,104,2310033,,,,,,,2023-05-12,1,,,,,ヨシムネ,0
754,3020003023919,新規,0,2023-05-12,2023-05-12,合同会社ビジマップ,,合同会社,神奈川県,横浜市青葉区,荏田北２丁目５番地１２,,14,117,2250015,,,,,,,2023-05-12,1,,,,,ビジマップ,0
759,3021001079044,新規,0,2023-05-12,2023-05-12,株式会社Ｗｉｓｈ,,株式会社,神奈川県,小田原市,桑原１９４番地,,14,206,2500861,,,,,,,2023-05-12,1,,,,,ウィッシュ,0
767,3030001153758,新規,0,2023-05-12,2023-05-12,株式会社ＫＭＰ,,株式会社,埼玉県,さいたま市浦和区,東岸町１５番７－１０４号,,11,107,3300054,,,,,,,2023-05-12,1,,,,,ケーエムピー,0
768,3030001153774,新規,0,2023-05-12,2023-05-12,ＬＧＨ株式会社,,株式会社,埼玉県,吉川市,大字富新田２２番地１６,,11,243,3420037,,,,,,,2023-05-12,1,,,,,エルジーエイチ,0
769,3030001153782,新規,0,2023-05-12,2023-05-12,株式会社プライム・ラボラトリー,,株式会社,埼玉県,狭山市,大字南入曽６５２番１の３サヤマハウスＢ１号室,,11,215,3501316,,,,,,,2023-05-12,1,,,,,プライムラボラトリー,0
770,3030001153799,新規,0,2023-05-12,2023-05-12,株式会社ＨＯＴＡＲＵ　ｐｌｕｓ　Ｓ,,株式会社,埼玉県,川口市,上青木３丁目１６番２５号,,11,203,3330844,,,,,,,2023-05-12,1,,,,,ホタルプラスエス,0
771,3030001153824,新規,0,2023-05-12,2023-05-12,株式会社ルピナス,,株式会社,埼玉県,川越市,大字谷中５５番地８,,11,201,3500836,,,,,,,2023-05-12,1,,,,,ルピナス,0
772,3030001153873,新規,0,2023-05-12,2023-05-12,株式会社ＰＡＤＤＬＥ,,株式会社,埼玉県,さいたま市緑区,美園５丁目４３番地５グリュック美園２０２号室,,11,109,3360967,,,,,,,2023-05-12,1,,,,,パドル,0
777,3030003021715,新規,0,2023-05-12,2023-05-12,合同会社Ｂ．Ｈ　ＪＡＰＡＮ　ＴＲＡＤＩＮＧ,,合同会社,埼玉県,熊谷市,下恩田字山ノ下５－５,,11,202,3600123,,,,,,,2023-05-12,1,,,,,ビーエイチジャパントレーディング,0
778,3030003021731,新規,0,2023-05-12,2023-05-12,合同会社エスプラス,,合同会社,埼玉県,所沢市,大字北秋津７００－１パステルハウス３０５,,11,208,3590038,,,,,,,2023-05-12,1,,,,,エスプラス,0
784,3040001128346,新規,0,2023-05-12,2023-05-12,株式会社テイクワン,,株式会社,千葉県,船橋市,本町４丁目４３番４号エターナル大野３０４号,,12,204,2730005,,,,,,,2023-05-12,1,,,,,テイクワン,0
785,3040001128395,新規,0,2023-05-12,2023-05-12,株式会社ラクティー,,株式会社,千葉県,市川市,末広１丁目７番１８号ラベンダーハイム１０５号,,12,203,2720121,,,,,,,2023-05-12,1,,,,,ラクティー,0
786,3040001128404,新規,0,2023-05-12,2023-05-12,株式会社アイケーツー,,株式会社,千葉県,船橋市,印内町６０３番１,,12,204,2730025,,,,,,,2023-05-12,1,,,,,アイケーツー,0
793,3050001052850,新規,0,2023-05-12,2023-05-12,Ｒａｎ株式会社,,株式会社,茨城県,つくば市,谷田部４３８５番地９,,08,220,3050861,,,,,,,2023-05-12,1,,,,,ラン,0
798,3060001035994,新規,0,2023-05-12,2023-05-12,株式会社リブプロテクト,,株式会社,栃木県,宇都宮市,岩曽町１３６２番地５岩昇ハイツＡ２０２,,09,201,3210973,,,,,,,2023-05-12,1,,,,,リブプロテクト,0
803,3080001025614,新規,0,2023-05-12,2023-05-12,山甚株式会社,,株式会社,静岡県,静岡市葵区,上足洗４丁目６番１号ひまわりハイツ１０２,,22,101,4200841,,,,,,,2023-05-12,1,,,,,ヤマジン,0
804,3080003002982,新規,0,2023-05-12,2023-05-12,合同会社メディエイト,,合同会社,静岡県,静岡市葵区,鷹匠２丁目２１番８号日吉さかえビル４Ｆ－Ｂ３,,22,101,4200839,,,,,,,2023-05-12,1,,,,,メディエイト,0
805,3080101023996,新規,0,2023-05-12,2023-05-12,株式会社ラポール,,株式会社,静岡県,駿東郡長泉町,下土狩１２５番地,,22,342,4110943,,,,,,,2023-05-12,1,,,,,ラポール,0
809,3090001018121,新規,0,2023-05-12,2023-05-12,株式会社ＦＡＬＣＯＮＢＡＳＥ,,株式会社,山梨県,中巨摩郡昭和町,築地新居５５番地５,,19,384,4093853,,,,,,,2023-05-12,1,,,,,ファルコンベース,0
811,3100003007005,新規,0,2023-05-12,2023-05-12,谷口商会合同会社,,合同会社,長野県,上田市,小泉１１０８番地５,,20,203,3861106,,,,,,,2023-05-12,1,,,,,タニグチショウカイ,0
812,3110001037531,新規,0,2023-05-12,2023-05-12,めぐみライフサポート株式会社,,株式会社,新潟県,新潟市北区,美里１丁目１１番地４４,,15,101,9503342,,,,,,,2023-05-12,1,,,,,メグミライフサポート,0
813,3110003005049,新規,0,2023-05-12,2023-05-12,合同会社貢献,,合同会社,新潟県,新潟市中央区,沼垂東４丁目１３番１９号,,15,103,9500075,,,,,,,2023-05-12,1,,,,,コウケン,0
820,3120001254803,新規,0,2023-05-12,2023-05-12,株式会社フィックスアップ,,株式会社,大阪府,大阪市福島区,吉野３丁目６番１４号,,27,103,5530006,,,,,,,2023-05-12,1,,,,,フィックスアップ,0
821,3120001254877,新規,0,2023-05-12,2023-05-12,百盛株式会社,,株式会社,大阪府,大阪市西成区,北津守４丁目４番７５－８１号,,27,122,5570061,,,,,,,2023-05-12,1,,,,,ヒャクモリ,0
831,3120901047521,新規,0,2023-05-12,2023-05-12,株式会社田原,,株式会社,大阪府,豊中市,曽根東町５丁目２番１５号,,27,203,5610802,,,,,,,2023-05-12,1,,,,,タハラ,0
833,3120903004628,新規,0,2023-05-12,2023-05-12,ＶＩＮＴＡＧＥ　ＬＩＮＫＳ合同会社,,合同会社,大阪府,豊中市,日出町１丁目２番１６号,,27,203,5610821,,,,,,,2023-05-12,1,,,,,ヴィンテージリンクス,0
835,3122001036958,新規,0,2023-05-12,2023-05-12,株式会社進和,,株式会社,大阪府,東大阪市,稲田新町２丁目１５番１０－２０１号,,27,227,5770004,,,,,,,2023-05-12,1,,,,,シンワ,0
836,3122003002578,新規,0,2023-05-12,2023-05-12,合同会社デザインアップマーケティング,,合同会社,大阪府,東大阪市,旭町２番５号エスティビル旭町４階４０１号室,,27,227,5798048,,,,,,,2023-05-12,1,,,,,デザインアップマーケティング,0
839,3130003008710,新規,0,2023-05-12,2023-05-12,合同会社Ｌａｒｇｅ　Ｐａｄｄｙｆｉｅｌｄ,,合同会社,京都府,舞鶴市,天台新町２５,,26,202,6240909,,,,,,,2023-05-12,1,,,,,ラージパディーフィールド,0
845,3140001130143,新規,0,2023-05-12,2023-05-12,株式会社リブエイト,,株式会社,兵庫県,神戸市北区,鈴蘭台東町４丁目３番１５号,,28,109,6511112,,,,,,,2023-05-12,1,,,,,リブエイト,0
846,3140001130168,新規,0,2023-05-12,2023-05-12,株式会社ＴＳコーポレーション,,株式会社,兵庫県,洲本市,宇原２２４３番地,,28,205,6560054,,,,,,,2023-05-12,1,,,,,ティーエスコーポレーション,0
849,3140005026619,新規,0,2023-05-12,2023-05-12,一般社団法人大歳家住宅再生会,,その他の設立登記法人,兵庫県,加古川市,別府町新野辺８８１番地の１,,28,210,6750131,,,,,,,2023-05-12,1,,,,,オオトシケジュウタクサイセイカイ,0
851,3150001026398,新規,0,2023-05-12,2023-05-12,ＩＫＥＳＯＵ株式会社,,株式会社,奈良県,北葛城郡広陵町,大字安部５９９番地７,,29,426,6350825,,,,,,,2023-05-12,1,,,,,イケソウ,0
852,3160001025036,新規,0,2023-05-12,2023-05-12,株式会社いろは,,株式会社,滋賀県,栗東市,手原４丁目５番１号名神栗東ビル２０２号室,,25,208,5203047,,,,,,,2023-05-12,1,,,,,イロハ,0
853,3160001025044,新規,0,2023-05-12,2023-05-12,株式会社プロペラキッズ,,株式会社,滋賀県,守山市,守山１丁目４番１４号１Ｆ,,25,207,5240022,,,,,,,2023-05-12,1,,,,,プロペラキッズ,0
855,3170001017602,新規,0,2023-05-12,2023-05-12,株式会社ＴＲＵＳＴＹ,,株式会社,和歌山県,和歌山市,大谷４０９－１,,30,201,6408472,,,,,,,2023-05-12,1,,,,,トラスティ,0
861,3180001156283,新規,0,2023-05-12,2023-05-12,株式会社Ｔｏ　ｂｅ　ｉｎｎｏｖａｔｉｏｎ．,,株式会社,愛知県,江南市,今市場町美和９０番地３,,23,217,4838188,,,,,,,2023-05-12,1,,,,,トゥービーイノベーション,0
872,3180303005700,新規,0,2023-05-12,2023-05-12,合同会社Ｔ‐ＬＩＦＥ,,合同会社,愛知県,豊田市,市木町９丁目１１番地１２,,23,211,4710006,,,,,,,2023-05-12,1,,,,,ティーライフ,0
874,3190001030405,新規,0,2023-05-12,2023-05-12,株式会社Ｖｉｅ,,株式会社,三重県,四日市市,笹川３丁目１４１番地２,,24,202,5100944,,,,,,,2023-05-12,1,,,,,ビィエ,0
884,3210001019313,新規,0,2023-05-12,2023-05-12,株式会社松下圧送工業,,株式会社,福井県,福井市,西谷２丁目１６０６番地,,18,201,9188023,,,,,,,2023-05-12,1,,,,,マツシタアッソウコウギョウ,0
894,3240001061477,新規,0,2023-05-12,2023-05-12,株式会社慶徳,,株式会社,広島県,広島市東区,山根町４１番２号,,34,102,7320048,,,,,,,2023-05-12,1,,,,,ケイトク,0
895,3240001061493,新規,0,2023-05-12,2023-05-12,株式会社中村鶏卵,,株式会社,広島県,広島市佐伯区,楽々園３丁目１５番３７号,,34,108,7315136,,,,,,,2023-05-12,1,,,,,ナカムラケイラン,0
901,3280001008937,新規,0,2023-05-12,2023-05-12,フジタ資源株式会社,,株式会社,島根県,大田市,大田町大田イ２８２番地５,,32,205,6940064,,,,,,,2023-05-12,1,,,,,フジタシゲン,0
909,3290001101468,新規,0,2023-05-12,2023-05-12,株式会社ホネストイノベーション,,株式会社,福岡県,福岡市中央区,平尾１丁目７番４－４０１号,,40,133,8100014,,,,,,,2023-05-12,1,,,,,ホネストイノベーション,0
912,3310001018412,新規,0,2023-05-12,2023-05-12,株式会社ＰＩＫＡプロダクション,,株式会社,長崎県,長崎市,弥生町６－３８－バルサ弥生３０１,,42,201,8500823,,,,,,,2023-05-12,1,,,,,ピカプロダクション,0
913,3310005008681,新規,0,2023-05-12,2023-05-12,一般社団法人ＩＳＨＩＺＵＥ,,その他の設立登記法人,長崎県,長崎市,西出津町２５５４番地,,42,201,8512322,,,,,,,2023-05-12,1,,,,,イシズエ,0
914,3320001019764,新規,0,2023-05-12,2023-05-12,株式会社昌栄板金,,株式会社,大分県,大分市,大字志生木２９６６番地の１,,44,201,8792115,,,,,,,2023-05-12,1,,,,,ショウエイバンキン,0
915,3320003004079,新規,0,2023-05-12,2023-05-12,合同会社ＲｉｖｅｒＵＰ,,合同会社,大分県,佐伯市,蒲江大字蒲江浦２４０３番地３,,44,205,8762401,,,,,,,2023-05-12,1,,,,,リバーアップ,0
918,3330003009845,新規,0,2023-05-12,2023-05-12,クラソ合同会社,,合同会社,熊本県,熊本市南区,川口町１９０７番地３,,43,104,8614123,,,,,,,2023-05-12,1,,,,,クラソ,0
921,3340001025579,新規,0,2023-05-12,2023-05-12,株式会社川路産業,,株式会社,鹿児島県,薩摩川内市,東大小路町３０番２５号,,46,215,8950075,,,,,,,2023-05-12,1,,,,,カワジサンギョウ,0
922,3340005009603,新規,0,2023-05-12,2023-05-12,司法書士法人みなと公園通り,,その他の設立登記法人,鹿児島県,鹿児島市,名山町９番６号１Ｆ,,46,201,8920821,,,,,,,2023-05-12,1,,,,,ミナトコウエントオリ,0
923,3350001018350,新規,0,2023-05-12,2023-05-12,株式会社スーパーワーム,,株式会社,宮崎県,西都市,大字茶臼原１５５４－５,,45,208,8810037,,,,,,,2023-05-12,1,,,,,スーパーワーム,0
925,3360001031988,新規,0,2023-05-12,2023-05-12,株式会社コネクト不動産,,株式会社,沖縄県,名護市,字宇茂佐１７０９番地９４,,47,209,9050006,,,,,,,2023-05-12,1,,,,,コネクトフドウサン,0
926,3360001032004,新規,0,2023-05-12,2023-05-12,株式会社ボーテアイランド,,株式会社,沖縄県,那覇市,おもろまち４丁目９番１号,,47,201,9000006,,,,,,,2023-05-12,1,,,,,ボーテアイランド,0
934,3380001033685,新規,0,2023-05-12,2023-05-12,株式会社高橋電工,,株式会社,福島県,伊達市,霊山町掛田字向戸９４番地１２,,07,213,9600801,,,,,,,2023-05-12,1,,,,,タカハシデンコウ,0
937,3390003002092,新規,0,2023-05-12,2023-05-12,合同会社レイリー,,合同会社,山形県,酒田市,新井田町１１番２号,,06,204,9980041,,,,,,,2023-05-12,1,,,,,レイリー,0
940,3400003003080,新規,0,2023-05-12,2023-05-12,合同会社奧山企画,,合同会社,岩手県,盛岡市,厨川１丁目１３番４号,,03,201,0200124,,,,,,,2023-05-12,1,,,,,オクヤマキカク,0
944,3430001089037,新規,0,2023-05-12,2023-05-12,株式会社奥山の商店,,株式会社,北海道,石狩郡当別町,太美南１５０３番地８３,,01,303,0613778,,,,,,,2023-05-12,1,,,,,オクヤマノショウテン,0
946,3430003015008,新規,0,2023-05-12,2023-05-12,合同会社ＨＡＴ,,合同会社,北海道,札幌市白石区,東札幌二条４丁目１０番２４号,,01,104,0030002,,,,,,,2023-05-12,1,,,,,エイチエーティー,0
947,3430003015016,新規,0,2023-05-12,2023-05-12,Ａ＆Ｓ・ＪＬＡ合同会社,,合同会社,北海道,登別市,富岸町２丁目８番１号Ａ棟１０７号室,,01,230,0590028,,,,,,,2023-05-12,1,,,,,エーアンドエスジェーエルエー,0
948,3440001009258,新規,0,2023-05-12,2023-05-12,株式会社ｍａｇｏ,,株式会社,北海道,函館市,湯川町２丁目４３－４,,01,202,0420932,,,,,,,2023-05-12,1,,,,,マゴ,0
949,3450001013985,新規,0,2023-05-12,2023-05-12,株式会社Ｗａｌｌ,,株式会社,北海道,旭川市,東光二十条７丁目２番５号,,01,204,0788360,,,,,,,2023-05-12,1,,,,,ウォール,0
953,3490003001778,新規,0,2023-05-12,2023-05-12,合同会社ＯｗＯ,,合同会社,高知県,高知市,北久保７番２０号ソレジオ北久保Ｃ棟１０１,,39,201,7810088,,,,,,,2023-05-12,1,,,,,オウォ,0
954,3700150116019,新規,0,2023-05-12,2023-05-12,Ｓｈｅｎｚｈｅｎｓｈｉ　Ｊｉｕｊｉｅ　Ｋｅｊｉ　Ｙｏｕｘｉａｎ　Ｇｏｎｇｓｉ,,外国会社等,,,,,,,,ｓｈｅｎｚｈｅｎｓｈｉ　ｌｏｎｇｇａｎｇｑｕ　ｂａｏｌｏｎｇｊｉｅｄａｏ　ｌｏｎｇｘｉｎｓｈａｑｕ　ｌｏｎｇｓｈｅｎｇｌｕ　１６ｈａｏｌｏｎｇｇａｎｇｄｉａｎｓｈａｎｇｄａｓｈａ　２ｌｏｕＡｑｕ１２ｈａｏ,,,,,,2023-05-12,1,,,,,シンセンシジュジエケジユウゲンコウシ,0
955,3700150116027,新規,0,2023-05-12,2023-05-12,Ｓｈｅｎｚｈｅｎ　Ｓｈｉ　ＷｅｉＴｕ　Ｋｅｊｉ　Ｙｏｕｘｉａｎ　Ｇｏｎｇｓｉ,,外国会社等,,,,,,,,Ｓｈｅｎｈａｉ　ｄａｓｈａ　５０１３Ａ，Ｌｏｎｇｈｕａ　Ｘｉｎｑｕ　Ｍｉｎｚｈｉ　Ｄａｄａｏ，Ｓｈｅｎｚｈｅｎｓｈｉ,,,,,,2023-05-12,1,,,,,シンセンシウェイツケジユウゲンコウシ,0
956,3700150116035,新規,0,2023-05-12,2023-05-12,ｚｈｕ　ｈａｉ　ｌｉｎｇ　ｂｉａｏ　ｋｅ　ｊｉ　ｙｏｕ　ｘｉａｎ　ｇｏｎｇ　ｓｉ,,外国会社等,,,,,,,,ｑｉａｎ　ｓｈａｎ　ｃｕｉ　ｚｈｕ　４　ｊｉｅ　１　ｈａｏ　２　ｄｏｎｇ　６　ｌｏｕ　Ｃ　ｑｕ　ｚｈｕ　ｈａｉ　ｇｕａｎｇ　ｄｏｎｇ,,,,,,2023-05-12,1,,,,,ズハイリンビァオケジユウゲンコウシ,0
957,3700150116043,新規,0,2023-05-12,2023-05-12,Ｚｈｏｕｓｈａｎ　Ｓｈｕｎｃｈｅｎｇｘｉｎｇ　Ｚｉｘｕｎ　Ｇｕａｎｌｉ　Ｃｏ．，Ｌｔｄ,,外国会社等,,,,,,,,Ｚｈｏｕｓｈａｎ　Ｐｏｒｔ　Ｃｏｍｐｒｅｈｅｎｓｉｖｅ　Ｂｏｎｄｅｄ　Ｚｏｎｅ，Ｚｈｅｊｉａｎｇ　Ｐｒｏｖｉｎｃｅ　Ｒｏｏｍ　３０３－１００１７，Ｅｎｔｅｒｐｒｉｓｅ　Ｓｅｒｖｉｃｅ　Ｃｅｎｔｅｒ　Ｚｈｏｕｓｈａｎ　Ｓｈｉ　３１６０００　ＣＮ,,,,,,2023-05-12,1,,,,,ジョウシャンシュンチョンシンズーシングワンリーヨウシエンゴンスー,0
958,3700150116051,新規,0,2023-05-12,2023-05-12,Ｙｉｊｕ　Ｇｕａｎｇｚｈｏｕ　ＤｉａｎＺｉＳｈａｎｇＷｕＹｏｕＸｉａｎＧｏｎｇＳｉ,,外国会社等,,,,,,,,Ｎｏ．Ａ９３，Ｏｆｆｉｃｅ　Ｃａｒｄ　ｏｆ　Ｃｒｅａｔｉｖｅ　１　Ｃｒｏｗｄ　Ｓｐａｃｅ，Ｂｕｉｌｄｉｎｇ　２２０－２３９，Ｎｏ．９　Ｓｈｅｎｚｈｏｕ　Ｒｏａｄ，Ｈｕａｎｇｐｕ　Ｄｉｓｔｒｉｃｔ，Ｇｕａｎｇｚｈｏｕ,,,,,,2023-05-12,1,,,,,イージーグワンジョウディエンズーシャンウーヨウシエンゴンスー,0
973,4010001235276,新規,0,2023-05-12,2023-05-12,Ｃａｒｒｏｓｓｅ　Ｆｉｌｍ株式会社,,株式会社,東京都,中央区,銀座１丁目２２番１１号銀座大竹ビジデンス２Ｆ,,13,102,1040061,,,,,,,2023-05-12,1,,,,,キャロッスフィルム,0
982,4010003040575,新規,0,2023-05-12,2023-05-12,合同会社ＩＲＳ２,,合同会社,東京都,千代田区,内幸町１丁目１番１号,,13,101,1000011,,,,,,,2023-05-12,1,,,,,アイアールエスツー,0
984,4010005036654,新規,0,2023-05-12,2023-05-12,一般社団法人ＫＳＦＲ８,,その他の設立登記法人,東京都,千代田区,内幸町２丁目１番６号,,13,101,1000011,,,,,,,2023-05-12,1,,,,,ケイエスエフアールエイト,0
996,4010401174198,新規,0,2023-05-12,2023-05-12,株式会社アールツーマーケット,,株式会社,東京都,港区,南青山３丁目１番３６号青山丸竹ビル６Ｆ,,13,103,1070062,,,,,,,2023-05-12,1,,,,,アールツーマーケット,0
997,4010401174207,新規,0,2023-05-12,2023-05-12,株式会社ＯＨＡＮＡカンパニー,,株式会社,東京都,港区,高輪２丁目１６番３８号秀和第２高輪レジデンス１階,,13,103,1080074,,,,,,,2023-05-12,1,,,,,オハナカンパニー,0
998,4010401174280,新規,0,2023-05-12,2023-05-12,地方創生株式会社,,株式会社,東京都,港区,赤坂１丁目１番１７号細川ビル８１１号室,,13,103,1070052,,,,,,,2023-05-12,1,,,,,チホウソウセイ,0
1003,4010403030077,新規,0,2023-05-12,2023-05-12,合同会社ＦｒｙＨｅｉｔ,,合同会社,東京都,港区,南青山３丁目１番３６号青山丸竹ビル６Ｆ,,13,103,1070062,,,,,,,2023-05-12,1,,,,,フライハイト,0
1004,4010403030110,新規,0,2023-05-12,2023-05-12,合同会社キャリーライト,,合同会社,東京都,港区,南青山２丁目２‐１５ＷＩＮ青山５３１,,13,103,1070062,,,,,,,2023-05-12,1,,,,,キャリーライト,0
1007,4010603010143,新規,0,2023-05-12,2023-05-12,サニーサービス合同会社,,合同会社,東京都,江東区,豊洲５丁目１番１３－１０１２号,,13,108,1350061,,,,,,,2023-05-12,1,,,,,サニーサービス,0
1010,4010701044233,新規,0,2023-05-12,2023-05-12,株式会社ＪＥＮＴ‐ＩＮ,,株式会社,東京都,品川区,東品川３丁目８番８ラグナタワー２９０８号,,13,109,1400002,,,,,,,2023-05-12,1,,,,,ジェントイン,0
1012,4010703006693,新規,0,2023-05-12,2023-05-12,合同会社オカダ・ワークス,,合同会社,東京都,品川区,西中延２丁目１１番１９号,,13,109,1420054,,,,,,,2023-05-12,1,,,,,オカダワークス,0
1013,4010705003508,新規,0,2023-05-12,2023-05-12,一般社団法人寺田管理,,その他の設立登記法人,東京都,品川区,西五反田７丁目１３番２－２０２号,,13,109,1410031,,,,,,,2023-05-12,1,,,,,テラダカンリ,0
1015,4010901053018,新規,0,2023-05-12,2023-05-12,フジコ不動産株式会社,,株式会社,東京都,世田谷区,玉川３丁目２０番２号マノア玉川第３ビル５０１号室,,13,112,1580094,,,,,,,2023-05-12,1,,,,,フジコフドウサン,0
1023,4011101102820,新規,0,2023-05-12,2023-05-12,株式会社ＳＳＳ,,株式会社,東京都,新宿区,西新宿３丁目３番１３号西新宿水間ビル２Ｆ,,13,104,1600023,,,,,,,2023-05-12,1,,,,,トリプルエス,0
1024,4011101102829,新規,0,2023-05-12,2023-05-12,株式会社ななくさコーポレーション,,株式会社,東京都,新宿区,下落合３丁目１０番２８号,,13,104,1610033,,,,,,,2023-05-12,1,,,,,ナナクサコーポレーション,0
1033,4011301028683,新規,0,2023-05-12,2023-05-12,株式会社ＲＵＳＨ,,株式会社,東京都,杉並区,松ノ木１丁目５番７号クレール松ノ木１０６,,13,115,1660014,,,,,,,2023-05-12,1,,,,,ラッシュ,0
1034,4011301028691,新規,0,2023-05-12,2023-05-12,株式会社Ｎｅｕｒｏｎ,,株式会社,東京都,杉並区,清水３丁目２３番１６号,,13,115,1670033,,,,,,,2023-05-12,1,,,,,,0
1036,4011603003921,新規,0,2023-05-12,2023-05-12,合同会社セレサＬＬＣ,,合同会社,東京都,練馬区,桜台２丁目１４番３号,,13,120,1760002,,,,,,,2023-05-12,1,,,,,セレサエルエルシー,0
1042,4012401040520,新規,0,2023-05-12,2023-05-12,株式会社ＢＨＡＫＴＩ,,株式会社,東京都,府中市,寿町１丁目４‐１７,,13,206,1830056,,,,,,,2023-05-12,1,,,,,バクティ,0
1044,4012805003197,新規,0,2023-05-12,2023-05-12,一般社団法人日本学習支援協会,,その他の設立登記法人,東京都,国立市,東３丁目１９番地の１４,,13,215,1860002,,,,,,,2023-05-12,1,,,,,ニホンガクシュウシエンキョウカイ,0
1056,4020001151555,新規,0,2023-05-12,2023-05-12,株式会社ナチュラルテイスト,,株式会社,神奈川県,川崎市宮前区,西野川２丁目１２番５５号,,14,136,2160044,,,,,,,2023-05-12,1,,,,,ナチュラルテイスト,0
1057,4020001151571,新規,0,2023-05-12,2023-05-12,株式会社データドリブン・ビジネスサポート,,株式会社,神奈川県,横浜市港北区,大倉山３丁目４１番２６－４号,,14,109,2220037,,,,,,,2023-05-12,1,,,,,データドリブンビジネスサポート,0
1058,4020003023876,新規,0,2023-05-12,2023-05-12,Ｓａｂｌｉｅｒ合同会社,,合同会社,神奈川県,横浜市神奈川区,神奈川２丁目１１番地３コスモＡｏｉ東神奈川３０４号,,14,102,2210045,,,,,,,2023-05-12,1,,,,,サブリエ,0
1059,4020005015995,新規,0,2023-05-12,2023-05-12,一般社団法人麻雀女王決定戦実行委員会,,その他の設立登記法人,神奈川県,横浜市神奈川区,片倉５丁目１４番１５号,,14,102,2210865,,,,,,,2023-05-12,1,,,,,マージャンジョオウケッテイセンジッコウイインカイ,0
1061,4021001078994,新規,0,2023-05-12,2023-05-12,プロプラスホーム株式会社,,株式会社,神奈川県,藤沢市,石川４３番地の１,,14,205,2520815,,,,,,,2023-05-12,1,,,,,プロプラスホーム,0
1062,4021001079043,新規,0,2023-05-12,2023-05-12,株式会社ライフプランニング商店建築研究所,,株式会社,神奈川県,平塚市,幸町２１番４号,,14,203,2540804,,,,,,,2023-05-12,1,,,,,ライフプランニングショウテンケンチクケンキュウショ,0
1070,4030001153708,新規,0,2023-05-12,2023-05-12,フェリス株式会社,,株式会社,埼玉県,さいたま市見沼区,大字上山口新田５３番地１,,11,104,3370044,,,,,,,2023-05-12,1,,,,,フェリス,0
1071,4030001153823,新規,0,2023-05-12,2023-05-12,株式会社ハチロク,,株式会社,埼玉県,さいたま市桜区,田島１丁目１５－７浦和西ガーデニア２０３号室,,11,106,3380837,,,,,,,2023-05-12,1,,,,,ハチロク,0
1072,4030001153872,新規,0,2023-05-12,2023-05-12,パンタレイ株式会社,,株式会社,埼玉県,所沢市,くすのき台１丁目１３番２号ガーデンシティ所沢,,11,208,3590037,,,,,,,2023-05-12,1,,,,,パンタレイ,0
1074,4030003021714,新規,0,2023-05-12,2023-05-12,ＷＡＹ合同会社,,合同会社,埼玉県,さいたま市浦和区,岸町４丁目２０－４－１,,11,107,3300064,,,,,,,2023-05-12,1,,,,,ワイ,0
1075,4030003021739,新規,0,2023-05-12,2023-05-12,合同会社ＭＫ２乗,,合同会社,埼玉県,桶川市,朝日３丁目７番１５号,,11,231,3630023,,,,,,,2023-05-12,1,,,,,エムケーニジョウ,0
1078,4040001128337,新規,0,2023-05-12,2023-05-12,株式会社アンタレス,,株式会社,千葉県,佐倉市,ユーカリが丘４丁目１番１号スカイプラザ・モール３Ｆ,,12,212,2850858,,,,,,,2023-05-12,1,,,,,アンタレス,0
1079,4040001128403,新規,0,2023-05-12,2023-05-12,くろねこホームズ株式会社,,株式会社,千葉県,茂原市,下永吉８４７－２,,12,210,2970035,,,,,,,2023-05-12,1,,,,,クロネコホームズ,0
1081,4040003022579,新規,0,2023-05-12,2023-05-12,合同会社医療福祉千葉くらし,,合同会社,千葉県,千葉市中央区,長洲１丁目１０番２４号ライオンズマンション千葉県庁前２－３０１号,,12,101,2600854,,,,,,,2023-05-12,1,,,,,イリョウフクシチバクラシ,0
1082,4040003022595,新規,0,2023-05-12,2023-05-12,ＫＴＳ合同会社,,合同会社,千葉県,千葉市中央区,中央港１丁目２４－１４－９１４,,12,101,2600024,,,,,,,2023-05-12,1,,,,,ケーティーエス,0
1083,4040003022604,新規,0,2023-05-12,2023-05-12,合同会社メディカルソリューションパートナー,,合同会社,千葉県,千葉市花見川区,作新台２丁目２８番４号,,12,102,2620045,,,,,,,2023-05-12,1,,,,,メディカルソリューションパートナー,0
1084,4040003022620,新規,0,2023-05-12,2023-05-12,ナビソム興産合同会社,,合同会社,千葉県,富津市,竹岡１５０―１９,,12,226,2991621,,,,,,,2023-05-12,1,,,,,ナビソムコウサン,0
1085,4040005021991,新規,0,2023-05-12,2023-05-12,医療法人社団絆会,,その他の設立登記法人,千葉県,船橋市,宮本２丁目９番８号,,12,204,2730003,,,,,,,2023-05-12,1,,,,,キズナカイ,0
1089,4060001035993,新規,0,2023-05-12,2023-05-12,株式会社山崎重機,,株式会社,栃木県,宇都宮市,不動前３丁目３番４号,,09,201,3200833,,,,,,,2023-05-12,1,,,,,ヤマザキジュウキ,0
1090,4060003004542,新規,0,2023-05-12,2023-05-12,ＡＹコーポレーション合同会社,,合同会社,栃木県,大田原市,浅香３丁目４番２０号ルナパレス３棟２０２号,,09,210,3240043,,,,,,,2023-05-12,1,,,,,エイワイコーポレーション,0
1094,4070003004921,新規,0,2023-05-12,2023-05-12,Ａｎｅｌａ合同会社,,合同会社,群馬県,利根郡みなかみ町,鹿野沢５７６番地,,10,449,3791611,,,,,,,2023-05-12,1,,,,,,0
1097,4080003002981,新規,0,2023-05-12,2023-05-12,Ｅｎｉ‐Ｔｈｉｎｇ合同会社,,合同会社,静岡県,静岡市駿河区,下島４０７番地の２６,,22,102,4228037,,,,,,,2023-05-12,1,,,,,エニシング,0
1098,4080401026475,新規,0,2023-05-12,2023-05-12,株式会社ｅ‐Ｆｏｏｄｓ,,株式会社,静岡県,浜松市中区,蜆塚１丁目８番２５号成都ビル３Ｆ,,22,131,4328018,,,,,,,2023-05-12,1,,,,,イーフーズ,0
1099,4080401026483,新規,0,2023-05-12,2023-05-12,株式会社Ｙ,,株式会社,静岡県,浜松市中区,鴨江３丁目６９番１２号,,22,131,4328023,,,,,,,2023-05-12,1,,,,,ワイ,0
1102,4090001018120,新規,0,2023-05-12,2023-05-12,株式会社ＴＲＹＦＡＩＴＨ,,株式会社,山梨県,甲斐市,竜王９７１番地６,,19,210,4000118,,,,,,,2023-05-12,1,,,,,トライフェイス,0
1104,4090003002312,新規,0,2023-05-12,2023-05-12,合同会社美食,,合同会社,山梨県,甲斐市,篠原２２４６番地３,,19,210,4000115,,,,,,,2023-05-12,1,,,,,ビショク,0
1105,4100003007004,新規,0,2023-05-12,2023-05-12,合同会社Ｋ‐Ｐｒｏｎｔ,,合同会社,長野県,松本市,大字岡田下岡田１６５－２チアザスマツモト２０１,,20,202,3900313,,,,,,,2023-05-12,1,,,,,ケープロント,0
1109,4110003005048,新規,0,2023-05-12,2023-05-12,合同会社Ｈｏｎｅｓｔ,,合同会社,新潟県,新発田市,中曽根町３丁目１２番５号１９,,15,206,9570067,,,,,,,2023-05-12,1,,,,,オネスト,0
1116,4120001254645,新規,0,2023-05-12,2023-05-12,株式会社ホテル・オーシャン,,株式会社,大阪府,大阪市中央区,平野町１丁目８番１４号,,27,128,5410046,,,,,,,2023-05-12,1,,,,,ホテルオーシャン,0
1117,4120001254819,新規,0,2023-05-12,2023-05-12,株式会社山親不動産,,株式会社,大阪府,大阪市大正区,三軒家西１丁目１６番４－１０５号,,27,108,5510001,,,,,,,2023-05-12,1,,,,,ヤマシンフドウサン,0
1118,4120001254851,新規,0,2023-05-12,2023-05-12,株式会社Ｙ’ｓ　ｃｏｍｐａｎｙ,,株式会社,大阪府,大阪市東淀川区,井高野４丁目６番１５号,,27,114,5330001,,,,,,,2023-05-12,1,,,,,ワイズカンパニー,0
1119,4120001254868,新規,0,2023-05-12,2023-05-12,上汐地所株式会社,,株式会社,大阪府,大阪市天王寺区,上汐３丁目１番２３号,,27,109,5430002,,,,,,,2023-05-12,1,,,,,ウエシオジショ,0
1120,4120003023981,新規,0,2023-05-12,2023-05-12,合同会社ＲｅＳＴ,,合同会社,大阪府,大阪市港区,築港３丁目１０番７号,,27,107,5520021,,,,,,,2023-05-12,1,,,,,リスト,0
1121,4120003024047,新規,0,2023-05-12,2023-05-12,Ｃｅｄａｒ合同会社,,合同会社,大阪府,大阪市浪速区,下寺３丁目１番１４号エクレール夕陽ケ丘５号２１７号室,,27,111,5560001,,,,,,,2023-05-12,1,,,,,シーダー,0
1126,4120101067518,新規,0,2023-05-12,2023-05-12,株式会社ＧＵＹＳ　ＦＡＣＴＯＲＹ,,株式会社,大阪府,堺市西区,鳳中町７丁７番地７,,27,144,5938327,,,,,,,2023-05-12,1,,,,,ガイズファクトリー,0
1129,4120901047520,新規,0,2023-05-12,2023-05-12,株式会社Ｌｅ　ｌｉｅｎ,,株式会社,大阪府,茨木市,庄１丁目２８番５０－８１８号,,27,211,5670806,,,,,,,2023-05-12,1,,,,,ルリヤン,0
1133,4120903004627,新規,0,2023-05-12,2023-05-12,リタ合同会社,,合同会社,大阪府,茨木市,見付山１丁目８番１９号,,27,211,5670035,,,,,,,2023-05-12,1,,,,,リタ,0
1134,4122001036957,新規,0,2023-05-12,2023-05-12,株式会社昇樹園,,株式会社,大阪府,八尾市,服部川７丁目１１番地,,27,212,5810865,,,,,,,2023-05-12,1,,,,,ショウジュエン,0
1135,4122001036965,新規,0,2023-05-12,2023-05-12,株式会社さくら,,株式会社,大阪府,東大阪市,足代３丁目３番１０号,,27,227,5770841,,,,,,,2023-05-12,1,,,,,サクラ,0
1137,4130001074299,新規,0,2023-05-12,2023-05-12,Ｐａｌｓａｒｒａｂｂｉｔ株式会社,,株式会社,京都府,京都市山科区,竹鼻サイカシ町１２番地９,,26,110,6078087,,,,,,,2023-05-12,1,,,,,パルサラビット,0
1144,4140001130183,新規,0,2023-05-12,2023-05-12,ＤＺ株式会社,,株式会社,兵庫県,尼崎市,杭瀬南新町４丁目６番１４号,,28,202,6600822,,,,,,,2023-05-12,1,,,,,ディーゼット,0
1154,4160003002874,新規,0,2023-05-12,2023-05-12,合同会社Ａ‐ＳＯＬＵＴＩＯＮ,,合同会社,滋賀県,大津市,国分１丁目４１番５号,,25,201,5200844,,,,,,,2023-05-12,1,,,,,エーソリューション,0
1155,4170001017601,新規,0,2023-05-12,2023-05-12,株式会社竹中工業,,株式会社,和歌山県,和歌山市,吐前２６７番地１,,30,201,6496275,,,,,,,2023-05-12,1,,,,,タケナカコウギョウ,0
1165,4180003025221,新規,0,2023-05-12,2023-05-12,合同会社ＢＫサクセス,,合同会社,愛知県,名古屋市緑区,大将ケ根１丁目７０３番地,,23,114,4580822,,,,,,,2023-05-12,1,,,,,ビーケイサクセス,0
1168,4180301037389,新規,0,2023-05-12,2023-05-12,ＧＯＬＤＨＩＬＬＳ株式会社,,株式会社,愛知県,安城市,赤松町隅田川３２番地２,,23,212,4460046,,,,,,,2023-05-12,1,,,,,ゴールドヒルズ,0
1171,4180305009475,新規,0,2023-05-12,2023-05-12,医療法人ありがとう会,,その他の設立登記法人,愛知県,安城市,百石町２丁目１１番地４ニューハイツ水野１０１,,23,212,4460044,,,,,,,2023-05-12,1,,,,,アリガトウカイ,0
1175,4190001030404,新規,0,2023-05-12,2023-05-12,株式会社丹頂不動産,,株式会社,三重県,四日市市,平尾町３６２２番地３,,24,202,5121205,,,,,,,2023-05-12,1,,,,,タンチョウフドウサン,0
1176,4190005011821,新規,0,2023-05-12,2023-05-12,三重県オートバイ事業協同組合,,その他の設立登記法人,三重県,桑名市,大字星川８８９番地１,,24,205,5110912,,,,,,,2023-05-12,1,,,,,ミエケンオートバイ,0
1178,4200001041309,新規,0,2023-05-12,2023-05-12,ＴＨＥ　ＢＯＸ株式会社,,株式会社,岐阜県,岐阜市,薮田南１丁目１１番９号,,21,201,5008384,,,,,,,2023-05-12,1,,,,,ザボックス,0
1181,4220001025409,新規,0,2023-05-12,2023-05-12,株式会社Ｍ‐Ｆｉｅｌｄ,,株式会社,石川県,羽咋郡宝達志水町,敷浪４号４９番地２,,17,386,9291415,,,,,,,2023-05-12,1,,,,,エムフィールド,0
1182,4220003003511,新規,0,2023-05-12,2023-05-12,合同会社Ｔ＆Ｙ,,合同会社,石川県,金沢市,七ツ屋町ニ２５‐１５メゾンブルースカイ１０１,,17,201,9200021,,,,,,,2023-05-12,1,,,,,ティーアンドワイ,0
1187,4250001020092,新規,0,2023-05-12,2023-05-12,株式会社Ｎｅｘｔ　Ｅｄ　Ｔｅｃｈ,,株式会社,山口県,下関市,豊田町大字高山３７８番地,,35,201,7500446,,,,,,,2023-05-12,1,,,,,ネクストエドテック,0
1190,4260001037937,新規,0,2023-05-12,2023-05-12,株式会社エヌ・ハート,,株式会社,岡山県,倉敷市,連島町連島５番地１５,,33,202,7128011,,,,,,,2023-05-12,1,,,,,エヌハート,0
1193,4280001008936,新規,0,2023-05-12,2023-05-12,やまき建設株式会社,,株式会社,島根県,浜田市,周布町イ４６番地５,,32,202,6971321,,,,,,,2023-05-12,1,,,,,ヤマキケンセツ,0
1198,4290001101491,新規,0,2023-05-12,2023-05-12,株式会社泉商事,,株式会社,福岡県,飯塚市,目尾１１８８番地３４,,40,205,8200062,,,,,,,2023-05-12,1,,,,,イズミショウジ,0
1199,4290001101525,新規,0,2023-05-12,2023-05-12,株式会社千,,株式会社,福岡県,福岡市博多区,月隈６丁目１２番３８号,,40,132,8120858,,,,,,,2023-05-12,1,,,,,セン,0
1200,4290001101541,新規,0,2023-05-12,2023-05-12,株式会社ＦＫＧ,,株式会社,福岡県,福岡市博多区,博多駅前２丁目１７番１号博多プレステージ本館,,40,132,8120011,,,,,,,2023-05-12,1,,,,,エフケイジー,0
1204,4290003013826,新規,0,2023-05-12,2023-05-12,キリン技術合同会社,,合同会社,福岡県,福岡市博多区,博多駅前１丁目１５－２０ＮＭＦ博多駅前ビル２階,,40,132,8120011,,,,,,,2023-05-12,1,,,,,キリンテクノロジー,0
1209,4300003001960,新規,0,2023-05-12,2023-05-12,Ｒ‐１合同会社,,合同会社,佐賀県,神埼市,神埼町鶴２３５９番地４,,41,210,8420007,,,,,,,2023-05-12,1,,,,,アールワン,0
1211,4320001019755,新規,0,2023-05-12,2023-05-12,株式会社Ｆｌａｓｈ　Ｂａｃｋ　Ｅｎｔｅｒｔａｉｎｅｒ,,株式会社,大分県,中津市,三光臼木１１２５番地２,,44,203,8710112,,,,,,,2023-05-12,1,,,,,フラッシュバックエンターテイナー,0
1212,4320001019771,新規,0,2023-05-12,2023-05-12,株式会社ワンフラット,,株式会社,大分県,大分市,岩田町１丁目１２番１号三和コーポ３０７,,44,201,8700936,,,,,,,2023-05-12,1,,,,,ワンフラット,0
1213,4330003009844,新規,0,2023-05-12,2023-05-12,合同会社セコンド,,合同会社,熊本県,合志市,豊岡２０００番地１９９３,,43,216,8611115,,,,,,,2023-05-12,1,,,,,セコンド,0
1214,4350001018358,新規,0,2023-05-12,2023-05-12,株式会社Ｄｅｓａｆｉｏ　Ｇｒｏｕｐ,,株式会社,宮崎県,宮崎市,阿波岐原町前浜４２７６番地１１１１,,45,201,8800835,,,,,,,2023-05-12,1,,,,,デサフィオグループ,0
1217,4360001031987,新規,0,2023-05-12,2023-05-12,株式会社健康コーポレーション,,株式会社,沖縄県,国頭郡本部町,字豊原３２８番地４,,47,308,9050204,,,,,,,2023-05-12,1,,,,,ケンコウコーポレーション,0
1218,4360001032003,新規,0,2023-05-12,2023-05-12,してほしいこと株式会社,,株式会社,沖縄県,中頭郡北谷町,北谷２丁目８番地５、３－Ｄ,,47,326,9040116,,,,,,,2023-05-12,1,,,,,シテホシイコト,0
1223,4370001049921,新規,0,2023-05-12,2023-05-12,株式会社秋田タイル建装,,株式会社,宮城県,仙台市青葉区,上愛子字大岩４番地の２,,04,101,9893124,,,,,,,2023-05-12,1,,,,,アキタタイルケンソウ,0
1229,4400001016249,新規,0,2023-05-12,2023-05-12,株式会社ＮＥＸＴ　Ｇｒｏｕｐ,,株式会社,岩手県,盛岡市,三ツ割字鉢ノ皮４５番地２５,,03,201,0200011,,,,,,,2023-05-12,1,,,,,ネクストグループ,0
1233,4410003003797,新規,0,2023-05-12,2023-05-12,ケアサロンつむぎ合同会社,,合同会社,秋田県,秋田市,泉南２丁目１番１０号,,05,201,0100918,,,,,,,2023-05-12,1,,,,,,0
1245,4430001089077,新規,0,2023-05-12,2023-05-12,株式会社サンオンウッディー,,株式会社,北海道,札幌市北区,新川四条１１丁目３－１４,,01,102,0010924,,,,,,,2023-05-12,1,,,,,サンオンウッディー,0
1247,4430003015007,新規,0,2023-05-12,2023-05-12,ＫＥＹＴＨ合同会社,,合同会社,北海道,石狩市,花川北六条５丁目１０２,,01,235,0613216,,,,,,,2023-05-12,1,,,,,キース,0
1248,4430003015015,新規,0,2023-05-12,2023-05-12,合同会社タカオカグミ,,合同会社,北海道,札幌市西区,琴似一条７丁目３番２０－４０５号,,01,107,0630811,,,,,,,2023-05-12,1,,,,,タカオカグミ,0
1249,4430003015023,新規,0,2023-05-12,2023-05-12,合同会社セールスリンク,,合同会社,北海道,札幌市中央区,南六条東２丁目１１番地１－９１０号,,01,101,0600056,,,,,,,2023-05-12,1,,,,,セールスリンク,0
1251,4450001013976,新規,0,2023-05-12,2023-05-12,株式会社エムケー工業,,株式会社,北海道,旭川市,永山一条４丁目３番３３号,,01,204,0798411,,,,,,,2023-05-12,1,,,,,,0
1252,4450001013984,新規,0,2023-05-12,2023-05-12,Ｓｅｃｕｒｉｔｙ　Ａｃｅ株式会社,,株式会社,北海道,旭川市,四条通１０丁目２２３４番地の２２旭川４条ビルマンション９０５,,01,204,0700034,,,,,,,2023-05-12,1,,,,,セキュリティーエース,0
1255,4500001024919,新規,0,2023-05-12,2023-05-12,株式会社ＯＲＡＮＧＥ　ＬＡＢＯ．豪,,株式会社,愛媛県,八幡浜市,川上町上泊甲３７０番地２,,38,204,7968051,,,,,,,2023-05-12,1,,,,,オレンジラボゴウ,0
1257,4700150111431,新規,0,2023-05-12,2023-05-12,ｇｕａｎｇｚｈｏｕ　ｄｉｔｅ　ｄｉａｎｚｉｋｅｊｉ　ｙｏｕｘｉａｎｇｏｎｇｓｉ,,外国会社等,,,,,,,,ｇｕａｎｇｚｈｏｕ　ｂａｉｙｕｎｑｕ　ｚｈｏｎｇｌｕｏｔａｎｚｈｅｎ　ｚｈｕｙｉｑｉｎｇｈｏｎｇｌｕ　４０　ｈａｏ　１０２　ｓｈｉ　５１０５５０　ＣＮ,,,,,,2023-05-12,1,,,,,グアンチヨウデイーテデイエンツクージヨウシエンコンス,0
1258,4700150116018,新規,0,2023-05-12,2023-05-12,Ｓｈａｎｇｈａｉ　Ｄｕｃｏ　Ｎｅｔｗｏｒｋ　Ｔｅｃｈｎｏｌｏｇｙ　ＣＯ．，ＬＴＤ,,外国会社等,,,,,,,,Ｒｏｏｍ　３２６２，Ｎｏ．４，Ｌａｎｅ　６５　Ｆｉｒｓｔ　Ｈｕａｎｄｏｎｇ　Ｒｄ　Ｆｅｎｇｊｉｎｇ　Ｔｏｗｎ，Ｊｉｎｓｈａｎ　Ｄｉｓｔｒｉｃｔ　Ｓｈａｎｇｈａｉ,,,,,,2023-05-12,1,,,,,シャンハイディーユーコーネットワークテクノロジーカンパニーリミテッド,0
1259,4700150116026,新規,0,2023-05-12,2023-05-12,Ｓｈｅｎｚｈｅｎ　Ｙｕｎｓｈａｎｇ　Ｘｉａｎｇｙａｎｇ　Ｔｅｃｈｎｏｌｏｇｙ　Ｃｏ．，Ｌｔｄ．,,外国会社等,,,,,,,,Ｓｈｅｎｚｈｅｎ　ｓｈｉ　ｑｉａｎ　ｈａｉ　ｓｈｅｎ　ｇａｎｇ　ｈｅｚｕｏ　ｑｕ　ｑｉａｎ　ｗａｎ　ｙｉｌｕ　１　ｈａｏ　Ａ　ｄｏｎｇ　２０１　ｓｈｅｎｚｈｅｎ　Ｎａｎｓｈａｎ　Ｄｉｓｔｒｉｃｔ,,,,,,2023-05-12,1,,,,,シンセンユンサンシャンヤンテクノロジーカンパニーリミテッド,0
1260,4700150116034,新規,0,2023-05-12,2023-05-12,Ｓｈｅｎｚｈｅｎ　Ｊｉｍｏｋｅ　Ｔｅｃｈｎｏｌｏｇｙ　Ｃｏ．，Ｌｔｄ,,外国会社等,,,,,,,,ｄａ　ｌａｎｇ　ｊｉｅ　ｄａｏ　ｘｉｎ　ｓｈｉ　ｓｈｅ　ｑｕ　ｈｕａ　ｌｉａｎ　ｇｏｎｇ　ｙｅ　ｑｕ　９　ｈａｏ　４　ｃｅｎｇ　ｓｈｅｎ　ｚｈｅｎ　ｓｈｉ　ｌｏｎｇ　ｈｕａ　ｑｕ　５１８１０９ＣＮ,,,,,,2023-05-12,1,,,,,シンセンジモケテクノロジーカンパニーリミテッド,0
1261,4700150116042,新規,0,2023-05-12,2023-05-12,Ｓｈｅｎｚｈｅｎｓｈｉ　Ｚｈｅｎｘｉｎｇｗｅｉｙｅｗｕｊｉｎｚｈｉｐｉｎ　Ｙｏｕｘｉａｎｇｏｎｇｓｉ,,外国会社等,,,,,,,,Ｂａｏ’ａｎｑｕ　ＸｉｘｉａｎｇＪｉｅｄａｏ　ＨｅｚｈｏｕＳｈｅｑｕ，ＨｕａｄｏｎｇＧｏｎｇｙｅｑｕ　Ｄｉｅｒｄｏｎｇ　ＹｉＣｅｎｇ　Ｓｈｅｎｚｈｅｎｓｈｉ　Ｇｕａｎｇｄｏｎｇ　５１８０００　ＣＮ,,,,,,2023-05-12,1,,,,,シェンジェンシージェンシンウェイイエウージンジーピンヨウシエンゴンスー,0
1262,4700150116050,新規,0,2023-05-12,2023-05-12,Ｓｈｅｎｚｈｅｎ　Ｋｅｌｉ　Ｄｕｎ　Ｔｅｃｈｎｏｌｏｇｙ　Ｃｏ．，Ｌｔｄ．,,外国会社等,,,,,,,,１００５，Ｎｏ．７４，Ｚａｏｘｉａ　Ｒｏａｄ，Ｑｉａｏｔｏｕ　Ｃｏｍｍｕｎｉｔｙ，Ｆｕｈａｉ　Ｓｔｒｅｅｔ，Ｂａｏ’ａｎ　Ｄｉｓｔｒｉｃｔ，Ｓｈｅｎｚｈｅｎ,,,,,,2023-05-12,1,,,,,シェンジェンコーリードゥンコージーヨウシエンゴンスー,0
1263,4700150116059,新規,0,2023-05-12,2023-05-12,ｃｈａｎｇｎｉｎｇｓｈｉｇｅｘｉａｙｕａｎｈｕｉｄｉａｎｚｉｓｈａｎｇｗｕｙｏｕｘｉａｎｇｏｎｇｓｉ,,外国会社等,,,,,,,,ｃｈａｎｇｎｉｎｇｓｈｉｑｕａｎｆｅｎｇｊｉｅｄａｏｂａｎｓｈｉｃｈｕ　ｘｕｅｑｉａｎｇｃｕｎｘｉｎｗｕｃｈａｎｇｚｕ１ｈａｏ　ｈｅｎｇｙａｎｇｓｈｉ　ｈｕｎａｎｓｈｅｎｇ　４２１５００　ＣＮ,,,,,,2023-05-12,1,,,,,チャンニンシーゴーシャーユエンフイディエンズーシャンウーヨウシエンゴンスー,0
1279,5010001234913,新規,0,2023-05-12,2023-05-12,ＰＲＩＮＣＥ　ＪＡＰＡＮ株式会社,,株式会社,東京都,中央区,銀座１丁目１２番４号Ｎ＆Ｅ・ＢＬＤ．７階,,13,102,1040061,,,,,,,2023-05-12,1,,,,,プリンスジャパン,0
1286,5010003040574,新規,0,2023-05-12,2023-05-12,仙台駅東口環境不動産プロジェクト合同会社,,合同会社,東京都,中央区,日本橋３丁目１番８号,,13,102,1030027,,,,,,,2023-05-12,1,,,,,センダイエキヒガシグチカンキョウフドウサンプロジェクト,0
1287,5010005036661,新規,0,2023-05-12,2023-05-12,一般社団法人ＺＥＡＬフューチャー,,その他の設立登記法人,東京都,中央区,日本橋室町１丁目１１番６号,,13,102,1030022,,,,,,,2023-05-12,1,,,,,ジールフューチャー,0
1293,5010401174156,新規,0,2023-05-12,2023-05-12,ヘルスタート株式会社,,株式会社,東京都,港区,白金台２丁目２６番１２号,,13,103,1080071,,,,,,,2023-05-12,1,,,,,ヘルスタート,0
1294,5010401174164,新規,0,2023-05-12,2023-05-12,株式会社ステラ,,株式会社,東京都,港区,赤坂９丁目６番２８号アルベルゴ乃木坂８０５,,13,103,1070052,,,,,,,2023-05-12,1,,,,,ステラ,0
1295,5010401174180,新規,0,2023-05-12,2023-05-12,株式会社メモリアインク,,株式会社,東京都,港区,南青山２丁目２番１５号,,13,103,1070062,,,,,,,2023-05-12,1,,,,,メモリアインク,0
1296,5010401174189,新規,0,2023-05-12,2023-05-12,狛オペレーション・グローカル株式会社,,株式会社,東京都,港区,赤坂５丁目２番２０号赤坂パークビル,,13,103,1070052,,,,,,,2023-05-12,1,,,,,コマオペレーショングローカル,0
1297,5010401174255,新規,0,2023-05-12,2023-05-12,株式会社七色錦華,,株式会社,東京都,港区,芝１丁目６番４－１００１号,,13,103,1050014,,,,,,,2023-05-12,1,,,,,ナナイロキンカ,0
1298,5010401174354,新規,0,2023-05-12,2023-05-12,株式会社ＥＳＰＥＲＡＮＺＡ,,株式会社,東京都,港区,西麻布２丁目１３番１２号早野ビル７階,,13,103,1060031,,,,,,,2023-05-12,1,,,,,エスペランサ,0
1300,5010403030068,新規,0,2023-05-12,2023-05-12,合同会社白虎屋,,合同会社,東京都,港区,浜松町２丁目２番１５号浜松町ダイヤビル２Ｆ,,13,103,1050013,,,,,,,2023-05-12,1,,,,,ビャッコヤ,0
1301,5010405022071,新規,0,2023-05-12,2023-05-12,一般社団法人ママ秘書協会,,その他の設立登記法人,東京都,港区,三田３丁目４番３号ＲＩＰＬ９－４０６号室,,13,103,1080073,,,,,,,2023-05-12,1,,,,,ママヒショキョウカイ,0
1302,5010405022113,新規,0,2023-05-12,2023-05-12,一般社団法人ｉＪＰ,,その他の設立登記法人,東京都,港区,六本木５丁目１３番１２－１０５号,,13,103,1060032,,,,,,,2023-05-12,1,,,,,アイジェイピー,0
1304,5010503006991,新規,0,2023-05-12,2023-05-12,ボース合同会社,,合同会社,東京都,台東区,西浅草３丁目４番１１号,,13,106,1110035,,,,,,,2023-05-12,1,,,,,ボース,0
1307,5010701044232,新規,0,2023-05-12,2023-05-12,株式会社コレガレ,,株式会社,東京都,品川区,東品川３丁目８番８ラグナタワー２９０８号,,13,109,1400002,,,,,,,2023-05-12,1,,,,,コレガレ,0
1308,5010701044240,新規,0,2023-05-12,2023-05-12,株式会社クリップピクチャーズ,,株式会社,東京都,品川区,大崎１丁目１番１－２１０７号,,13,109,1410032,,,,,,,2023-05-12,1,,,,,クリップピクチャーズ,0
1309,5010701044249,新規,0,2023-05-12,2023-05-12,Ｎａｉｌ　Ｐａｒｔｎｅｒ　Ｏｓａｋａ株式会社,,株式会社,東京都,品川区,大井１丁目２３－７大井町駅前三井ビル７Ｆ,,13,109,1400014,,,,,,,2023-05-12,1,,,,,ネイルパートナーオオサカ,0
1310,5010703006692,新規,0,2023-05-12,2023-05-12,合同会社仔寅,,合同会社,東京都,品川区,小山４丁目４番７号コスモ武蔵小山ビル８Ｆｎａｇａｙａ８ｆ,,13,109,1420062,,,,,,,2023-05-12,1,,,,,コトラ,0
1311,5010803004539,新規,0,2023-05-12,2023-05-12,合同会社ｍａｔａｔａｖｉ,,合同会社,東京都,大田区,山王２丁目２０番２１号,,13,111,1430023,,,,,,,2023-05-12,1,,,,,マタタビ,0
1319,5010905004478,新規,0,2023-05-12,2023-05-12,一般社団法人人材開発協会,,その他の設立登記法人,東京都,世田谷区,大蔵１丁目３番２９号セボンエトワール砧公園Ｎ１２８,,13,112,1570074,,,,,,,2023-05-12,1,,,,,ジンザイカイハツキョウカイ,0
1324,5011001154218,新規,0,2023-05-12,2023-05-12,株式会社Ｔｒａｃｋ　ｍａｎ,,株式会社,東京都,渋谷区,神宮前２丁目２番３９－８２６号ＴＨＥＣＯＵＲＴ神宮外苑,,13,113,1500001,,,,,,,2023-05-12,1,,,,,トラックマン,0
1325,5011001154325,新規,0,2023-05-12,2023-05-12,株式会社メリウス,,株式会社,東京都,渋谷区,東３丁目２５番３－３１２号,,13,113,1500011,,,,,,,2023-05-12,1,,,,,メリウス,0
1331,5011101102828,新規,0,2023-05-12,2023-05-12,株式会社歌舞喜,,株式会社,東京都,新宿区,新宿７丁目２６－１１－２００５新宿アインスタワー,,13,104,1600022,,,,,,,2023-05-12,1,,,,,カブキ,0
1332,5011101102844,新規,0,2023-05-12,2023-05-12,株式会社リトルポケット,,株式会社,東京都,新宿区,西新宿３丁目８番４号,,13,104,1600023,,,,,,,2023-05-12,1,,,,,リトルポケット,0
1334,5011103013032,新規,0,2023-05-12,2023-05-12,Ａｔｈｅｎａ　Ｄｅｓｉｇｎ　Ｗｏｒｋｓ合同会社,,合同会社,東京都,新宿区,西新宿３丁目３番１３号西新宿水間ビル６階,,13,104,1600023,,,,,,,2023-05-12,1,,,,,アテナデザインワークス,0
1336,5011201024633,新規,0,2023-05-12,2023-05-12,株式会社青い花,,株式会社,東京都,中野区,鷺宮６丁目２０番６号メゾンドフレール２０１,,13,114,1650032,,,,,,,2023-05-12,1,,,,,アオイハナ,0
1337,5011303004748,新規,0,2023-05-12,2023-05-12,合同会社黒帯ゲームズ,,合同会社,東京都,杉並区,阿佐谷北３丁目２７番１０号Ｔ．ＨＡＵＳ３０１,,13,115,1660001,,,,,,,2023-05-12,1,,,,,クロオビゲームズ,0
1338,5011303004756,新規,0,2023-05-12,2023-05-12,メイアセット合同会社,,合同会社,東京都,杉並区,永福３丁目３８番３号,,13,115,1680064,,,,,,,2023-05-12,1,,,,,メイアセット,0
1342,5011601026808,新規,0,2023-05-12,2023-05-12,株式会社琥雄商事,,株式会社,東京都,練馬区,石神井町２丁目８番１号,,13,120,1770041,,,,,,,2023-05-12,1,,,,,コウユウショウジ,0
1352,5012401040528,新規,0,2023-05-12,2023-05-12,株式会社美建ホーム,,株式会社,東京都,三鷹市,大沢３丁目８番９号２号棟,,13,204,1810015,,,,,,,2023-05-12,1,,,,,ビケンホーム,0
1355,5012403005982,新規,0,2023-05-12,2023-05-12,合同会社Ｈｙｃｋ,,合同会社,東京都,調布市,国領町６丁目８番地３５,,13,208,1820022,,,,,,,2023-05-12,1,,,,,ハイク,0
1362,5013301050765,新規,0,2023-05-12,2023-05-12,株式会社ホットセラー,,株式会社,東京都,豊島区,東池袋５丁目７番３号アゼリア東池袋４０１,,13,116,1700013,,,,,,,2023-05-12,1,,,,,ホットセラー,0
1370,5020001151538,新規,0,2023-05-12,2023-05-12,麻婆習慣株式会社,,株式会社,神奈川県,川崎市川崎区,砂子２丁目７－９宮ビル１階,,14,131,2100006,,,,,,,2023-05-12,1,,,,,マーボーシュウカン,0
1371,5020001151554,新規,0,2023-05-12,2023-05-12,株式会社ｓｋｙＦＥ,,株式会社,神奈川県,横浜市鶴見区,馬場７丁目２８番１３－２号,,14,101,2300076,,,,,,,2023-05-12,1,,,,,スカイエフイー,0
1372,5020001151570,新規,0,2023-05-12,2023-05-12,Ｔ‐ＷＩＮＥ　ＣＯＭＰＡＮＹ株式会社,,株式会社,神奈川県,川崎市中原区,小杉陣屋町２丁目１５番２４号,,14,133,2110062,,,,,,,2023-05-12,1,,,,,ティーワインカンパニー,0
1374,5020003023900,新規,0,2023-05-12,2023-05-12,いつきパートナーズ合同会社,,合同会社,神奈川県,横浜市西区,北幸２丁目１０番地２８むつみビル３Ｆ,,14,103,2200004,,,,,,,2023-05-12,1,,,,,イツキパートナーズ,0
1387,5030001153707,新規,0,2023-05-12,2023-05-12,株式会社ＳＨ　ｃｏｍｐａｎｙ,,株式会社,埼玉県,川口市,飯塚４丁目１２番２２号,,11,203,3320023,,,,,,,2023-05-12,1,,,,,エスエイチカンパニー,0
1388,5030001153715,新規,0,2023-05-12,2023-05-12,株式会社コスモプロモーション,,株式会社,埼玉県,狭山市,祇園３番１１－２０１号,,11,215,3501307,,,,,,,2023-05-12,1,,,,,コスモプロモーション,0
1389,5030001153772,新規,0,2023-05-12,2023-05-12,株式会社Ｔ‐ＣＲＥＡＴＥ,,株式会社,埼玉県,さいたま市大宮区,桜木町２丁目１８２番地１日神パレステージ大宮シティ６０２号,,11,103,3300854,,,,,,,2023-05-12,1,,,,,ティークリエイト,0
1390,5030001153797,新規,0,2023-05-12,2023-05-12,ＤＮＢ株式会社,,株式会社,埼玉県,さいたま市緑区,大字代山３９４番地１３,,11,109,3360975,,,,,,,2023-05-12,1,,,,,ディーエヌビー,0
1391,5030001153822,新規,0,2023-05-12,2023-05-12,株式会社Ｅ．Ｍ．Ｉ,,株式会社,埼玉県,草加市,氷川町５９０番地６,,11,221,3400034,,,,,,,2023-05-12,1,,,,,イーエムアイ,0
1395,5030003021721,新規,0,2023-05-12,2023-05-12,合同会社さくらコンサルタント,,合同会社,埼玉県,さいたま市浦和区,駒場１丁目９番６号,,11,107,3300051,,,,,,,2023-05-12,1,,,,,サクラコンサルタント,0
1396,5030003021738,新規,0,2023-05-12,2023-05-12,合同会社アールスリー,,合同会社,埼玉県,新座市,野火止１丁目８番３号,,11,230,3520011,,,,,,,2023-05-12,1,,,,,アールスリー,0
1397,5030005021273,新規,0,2023-05-12,2023-05-12,医療法人社団伸美会,,その他の設立登記法人,埼玉県,川越市,中原町２丁目１２番地２,,11,201,3500042,,,,,,,2023-05-12,1,,,,,シンビカイ,0
1400,5040001128311,新規,0,2023-05-12,2023-05-12,株式会社装健,,株式会社,千葉県,柏市,東上町１番１－５０３号,,12,217,2770011,,,,,,,2023-05-12,1,,,,,ソウケン,0
1401,5040001128352,新規,0,2023-05-12,2023-05-12,株式会社サンテック,,株式会社,千葉県,四街道市,大日１８３８－９,,12,228,2840001,,,,,,,2023-05-12,1,,,,,サンテック,0
1402,5040001128369,新規,0,2023-05-12,2023-05-12,株式会社セイミ環境サービス,,株式会社,千葉県,市川市,稲越２丁目９番１１号,,12,203,2720831,,,,,,,2023-05-12,1,,,,,セイミカンキョウサービス,0
1403,5040001128410,新規,0,2023-05-12,2023-05-12,株式会社草薙工業,,株式会社,千葉県,千葉市中央区,生実町２２５５番地１９,,12,101,2600813,,,,,,,2023-05-12,1,,,,,クサナギコウギョウ,0
1404,5040001128419,新規,0,2023-05-12,2023-05-12,株式会社杉田工業,,株式会社,千葉県,八千代市,高津４０８番地２３,,12,221,2760036,,,,,,,2023-05-12,1,,,,,スギタコウギョウ,0
1406,5040003022594,新規,0,2023-05-12,2023-05-12,ＣＩＴＹ　ＳＴＡＲ合同会社,,合同会社,千葉県,四街道市,栗山２６６番地３４中村ハイツ２０１,,12,228,2840027,,,,,,,2023-05-12,1,,,,,シィティスター,0
1407,5040005021990,新規,0,2023-05-12,2023-05-12,医療法人社団のざき歯科クリニック,,その他の設立登記法人,千葉県,印西市,草深１６１８番１６,,12,231,2701337,,,,,,,2023-05-12,1,,,,,ノザキシカクリニック,0
1415,5060001036000,新規,0,2023-05-12,2023-05-12,株式会社アップライン,,株式会社,栃木県,小山市,大字下石塚２２７番地,,09,208,3230064,,,,,,,2023-05-12,1,,,,,アップライン,0
1421,5080005007540,新規,0,2023-05-12,2023-05-12,一般社団法人ＳＮＳアドバイザー協会,,その他の設立登記法人,静岡県,焼津市,焼津１丁目４番２２号メゾンアルファ５０６,,22,212,4250026,,,,,,,2023-05-12,1,,,,,エスエヌエスアドバイザーキョウカイ,0
1422,5080401026482,新規,0,2023-05-12,2023-05-12,株式会社ＳＯＢＵ　ＡＣＡＤＥＭＹ,,株式会社,静岡県,磐田市,下本郷２００２番地８,,22,211,4380823,,,,,,,2023-05-12,1,,,,,ソブアカデミー,0
1423,5090001018111,新規,0,2023-05-12,2023-05-12,ＰｙｒｕｓＭｅｄｉｘ株式会社,,株式会社,山梨県,笛吹市,八代町南２９５番地,,19,211,4060822,,,,,,,2023-05-12,1,,,,,パイラスメディックス,0
1428,5110001037538,新規,0,2023-05-12,2023-05-12,いろは株式会社,,株式会社,新潟県,阿賀野市,保田２９３３－２－２Ｆ,,15,223,9592221,,,,,,,2023-05-12,1,,,,,イロハ,0
1429,5110003005039,新規,0,2023-05-12,2023-05-12,合同会社南出来島産業医事務所,,合同会社,新潟県,新潟市中央区,南出来島１丁目１４番５号,,15,103,9500963,,,,,,,2023-05-12,1,,,,,ミナミデキジマサンギョウイジムショ,0
1430,5110003005047,新規,0,2023-05-12,2023-05-12,合同会社ＳｔａＲｔ,,合同会社,新潟県,新潟市秋葉区,新津東町１丁目４番４３号,,15,105,9560816,,,,,,,2023-05-12,1,,,,,スタート,0
1442,5120001254719,新規,0,2023-05-12,2023-05-12,９９９９株式会社,,株式会社,大阪府,大阪市西区,江戸堀１丁目２４番１９号,,27,106,5500002,,,,,,,2023-05-12,1,,,,,キューキューキューキュー,0
1443,5120001254792,新規,0,2023-05-12,2023-05-12,株式会社Ｂ６１２,,株式会社,大阪府,大阪市中央区,南久宝町三丁目４番１５－３０６号,,27,128,5390000,,,,,,,2023-05-12,1,,,,,ビーロクイチニ,0
1444,5120001254867,新規,0,2023-05-12,2023-05-12,株式会社Ｒａｉｓｅ　Ｔｒａｄｅ,,株式会社,大阪府,大阪市都島区,網島町８番２７号中口ビル１階,,27,102,5340026,,,,,,,2023-05-12,1,,,,,レイズトレード,0
1446,5120003024038,新規,0,2023-05-12,2023-05-12,莫朗国際合同会社,,合同会社,大阪府,大阪市生野区,巽南５丁目１９番３号,00130466,27,116,5440015,,,,,,,2023-05-12,1,,,,,バクロウコクサイ,0
1447,5120003024062,新規,0,2023-05-12,2023-05-12,合同会社ＧＯＬＤ,,合同会社,大阪府,大阪市淀川区,西中島３丁目１６番１２号３階,,27,123,5320011,,,,,,,2023-05-12,1,,,,,ゴールド,0
1448,5120003024070,新規,0,2023-05-12,2023-05-12,合同会社ピリカ,,合同会社,大阪府,大阪市北区,芝田２丁目８番１１号共栄ビル３階,,27,127,5300012,,,,,,,2023-05-12,1,,,,,ピリカ,0
1449,5120101067517,新規,0,2023-05-12,2023-05-12,株式会社Ｏｌｉｓｔａ,,株式会社,大阪府,松原市,天美我堂３丁目４０番地,,27,217,5800026,,,,,,,2023-05-12,1,,,,,オリスタ,0
1455,5122001036956,新規,0,2023-05-12,2023-05-12,株式会社ＨＡＮＤ,,株式会社,大阪府,八尾市,東久宝寺２丁目７番２号,,27,212,5810002,,,,,,,2023-05-12,1,,,,,ハンド,0
1456,5122001036964,新規,0,2023-05-12,2023-05-12,天澤リフォーム株式会社,,株式会社,大阪府,東大阪市,若江北町３丁目１４番３０号,,27,227,5780945,,,,,,,2023-05-12,1,,,,,アマザワリフォーム,0
1458,5130001074307,新規,0,2023-05-12,2023-05-12,株式会社ＴＨＲＥＥ,,株式会社,京都府,京都市下京区,本覚寺前町８２１－１１０３,,26,106,6008102,,,,,,,2023-05-12,1,,,,,スリー,0
1465,5140001130133,新規,0,2023-05-12,2023-05-12,ＬＯＰ株式会社,,株式会社,兵庫県,西宮市,久保町４番７号,,28,204,6620927,,,,,,,2023-05-12,1,,,,,エルオーピー,0
1466,5140001130182,新規,0,2023-05-12,2023-05-12,株式会社アールテック,,株式会社,兵庫県,姫路市,御国野町国分寺２０７番地１,,28,201,6710234,,,,,,,2023-05-12,1,,,,,アールテック,0
1467,5140001130190,新規,0,2023-05-12,2023-05-12,株式会社クルーゼ,,株式会社,兵庫県,尼崎市,浜３丁目７番１号,,28,202,6610967,,,,,,,2023-05-12,1,,,,,クルーゼ,0
1469,5140003019069,新規,0,2023-05-12,2023-05-12,合同会社あいびー,,合同会社,兵庫県,西宮市,六湛寺町１番１２号ｐｅｒｆｅｃｔｌｉｆｅ西宮４０６,,28,204,6620918,,,,,,,2023-05-12,1,,,,,アイビー,0
1477,5160001025042,新規,0,2023-05-12,2023-05-12,ＴＭＭ株式会社,,株式会社,滋賀県,大津市,京町４丁目５－１３－４０１－Ｂ号室,,25,201,5200044,,,,,,,2023-05-12,1,,,,,ティーエムエム,0
1478,5170001017600,新規,0,2023-05-12,2023-05-12,株式会社Ａｎｄｕ,,株式会社,和歌山県,和歌山市,有家８７番地６,,30,201,6408316,,,,,,,2023-05-12,1,,,,,アンジュ,0
1482,5180001156281,新規,0,2023-05-12,2023-05-12,株式会社セプト,,株式会社,愛知県,春日井市,高蔵寺町北４丁目１番地１５,,23,206,4870016,,,,,,,2023-05-12,1,,,,,セプト,0
1485,5180003025170,新規,0,2023-05-12,2023-05-12,合同会社Ｔ２,,合同会社,愛知県,名古屋市中村区,名駅４丁目２４番５号第２森ビル４０１,,23,105,4500002,,,,,,,2023-05-12,1,,,,,ティーツー,0
1487,5180301037388,新規,0,2023-05-12,2023-05-12,株式会社善衆,,株式会社,愛知県,岡崎市,橋目町字阿知賀２９番地５,,23,202,4440908,,,,,,,2023-05-12,1,,,,,ゼンシュウ,0
1491,5190001030403,新規,0,2023-05-12,2023-05-12,光信工業株式会社,,株式会社,三重県,桑名市,大字江場５３０番地３,,24,205,5110836,,,,,,,2023-05-12,1,,,,,コウシンコウギョウ,0
1492,5200001041308,新規,0,2023-05-12,2023-05-12,株式会社武満,,株式会社,岐阜県,高山市,山口町１３４０番地,,21,203,5060817,,,,,,,2023-05-12,1,,,,,タケミツ,0
1495,5210001019311,新規,0,2023-05-12,2023-05-12,株式会社ロンジ,,株式会社,福井県,福井市,北四ツ居２丁目１３番３号,,18,201,9188205,,,,,,,2023-05-12,1,,,,,ロンジ,0
1497,5220001025408,新規,0,2023-05-12,2023-05-12,株式会社熊谷工業,,株式会社,石川県,金沢市,柳橋町甲４１番地３,,17,201,9203133,,,,,,,2023-05-12,1,,,,,クマガイコウギョウ,0
1504,5240001061491,新規,0,2023-05-12,2023-05-12,株式会社ミナヤル,,株式会社,広島県,尾道市,平原３丁目１３番１７号,,34,205,7220018,,,,,,,2023-05-12,1,,,,,ミナヤル,0
1512,5260005011227,新規,0,2023-05-12,2023-05-12,一般社団法人岡山まちの賑わい創出協会,,その他の設立登記法人,岡山県,岡山市東区,沼１２９５番地１０１,,33,103,7090621,,,,,,,2023-05-12,1,,,,,オカヤママチノニギワイソウシュツキョウカイ,0
1514,5280001008935,新規,0,2023-05-12,2023-05-12,株式会社雄心興業,,株式会社,島根県,鹿足郡吉賀町,蔵木４７４番地１,,32,505,6995504,,,,,,,2023-05-12,1,,,,,ユウシンコウギョウ,0
1516,5290001101508,新規,0,2023-05-12,2023-05-12,株式会社ｅｘａ,,株式会社,福岡県,福岡市東区,香椎照葉４丁目４番８－９０３号,,40,131,8130017,,,,,,,2023-05-12,1,,,,,エクサ,0
1517,5290001101516,新規,0,2023-05-12,2023-05-12,株式会社竹田設備,,株式会社,福岡県,古賀市,天神７丁目１１番１号（ニュープレジール２０１号）,,40,223,8113101,,,,,,,2023-05-12,1,,,,,タケダセツビ,0
1521,5290003013858,新規,0,2023-05-12,2023-05-12,ドウダンツツジ合同会社,,合同会社,福岡県,福岡市博多区,博多駅前１丁目２３番１号５Ｆ‐Ｂ,,40,132,8120011,,,,,,,2023-05-12,1,,,,,ドウダンツツジ,0
1522,5290003013899,新規,0,2023-05-12,2023-05-12,合同会社輝英,,合同会社,福岡県,福岡市東区,和白東５丁目２１番１０－１０２号ＭｕｇｅｌｌｏＵｎｏ,,40,131,8110214,,,,,,,2023-05-12,1,,,,,キエイ,0
1524,5290801029519,新規,0,2023-05-12,2023-05-12,株式会社ＥＸＣＥＥＤ,,株式会社,福岡県,北九州市小倉北区,霧ケ丘３丁目５番１７－１０１号,,40,106,8020052,,,,,,,2023-05-12,1,,,,,エクシード,0
1528,5320001019754,新規,0,2023-05-12,2023-05-12,＿瑞株式会社,00130463,株式会社,大分県,豊後高田市,高田２０３５番地１,,44,209,8790617,,,,,,,2023-05-12,1,,,,,チールイ,0
1529,5330001030859,新規,0,2023-05-12,2023-05-12,ＫＤＩＮ株式会社,,株式会社,熊本県,熊本市中央区,水前寺１丁目３２番１０－４０２号アーバンパレス水前寺駅前,,43,101,8620950,,,,,,,2023-05-12,1,,,,,ケーディアイエヌ,0
1532,5350003004355,新規,0,2023-05-12,2023-05-12,合同会社いろどりホーム,,合同会社,宮崎県,都城市,高城町桜木４０５番地１,,45,202,8851204,,,,,,,2023-05-12,1,,,,,イロドリホーム,0
1535,5360001031994,新規,0,2023-05-12,2023-05-12,株式会社ＫｉｉＮａ,,株式会社,沖縄県,宮古島市,平良字西里２５１番地１ディーライフビル３Ｆ,,47,214,9060012,,,,,,,2023-05-12,1,,,,,キーナ,0
1536,5360001032002,新規,0,2023-05-12,2023-05-12,ＧＳＤＣ　ＪＡＰＡＮ株式会社,,株式会社,沖縄県,浦添市,当山２丁目６番１号,,47,208,9012104,,,,,,,2023-05-12,1,,,,,ジーエスディーシージャパン,0
1546,5400001016248,新規,0,2023-05-12,2023-05-12,株式会社セカンドブリッジ,,株式会社,岩手県,盛岡市,大通３丁目２番２号,,03,201,0200022,,,,,,,2023-05-12,1,,,,,セカンドブリッジ,0
1547,5400005008332,新規,0,2023-05-12,2023-05-12,一般社団法人都市創生研究所,,その他の設立登記法人,岩手県,北上市,大通り２丁目８番２７号,,03,206,0240061,,,,,,,2023-05-12,1,,,,,トシソウセイケンキュウジョ,0
1553,5410003003796,新規,0,2023-05-12,2023-05-12,合同会社ＣＨＩＬ,,合同会社,秋田県,湯沢市,川連町字大舘下山王５２番地２,,05,207,0120105,,,,,,,2023-05-12,1,,,,,チル,0
1557,5430001089051,新規,0,2023-05-12,2023-05-12,株式会社ＣＲＡＦＴ,,株式会社,北海道,江別市,見晴台５番地の１０,,01,217,0670042,,,,,,,2023-05-12,1,,,,,クラフト,0
1558,5430001089076,新規,0,2023-05-12,2023-05-12,株式会社ＤＯＵＢＬＥ　ＴＲＡＤＩＮＧ,,株式会社,北海道,小樽市,港町５－３,,01,203,0470007,,,,,,,2023-05-12,1,,,,,ダブルトレーディング,0
1559,5450001013983,新規,0,2023-05-12,2023-05-12,高橋建業株式会社,00130474,株式会社,北海道,旭川市,豊岡十四条４丁目３番１３号,,01,204,0788244,,,,,,,2023-05-12,1,,,,,タカハシケンギョウ,0
1561,5450003002332,新規,0,2023-05-12,2023-05-12,合同会社ｓｔｅｌｌａｒ,,合同会社,北海道,旭川市,東光三条２丁目１番２５号,,01,204,0788343,,,,,,,2023-05-12,1,,,,,ステラ,0
1566,5470001019616,新規,0,2023-05-12,2023-05-12,株式会社ＩＮＦＩＮＩＴＹ,,株式会社,香川県,高松市,松縄町４１番地１ロイヤルガーデン松縄レインボー通りＩＩ１５０１号,00130465,37,201,7600079,,,,,,,2023-05-12,1,,,,,インフィニティ,0
1572,5490003001776,新規,0,2023-05-12,2023-05-12,合同会社高建,,合同会社,高知県,高知市,神田２３５７番地７２６,,39,201,7808040,,,,,,,2023-05-12,1,,,,,タカケン,0
1575,5500001024918,新規,0,2023-05-12,2023-05-12,十川株式会社,,株式会社,愛媛県,四国中央市,寒川町２３５６番地,,38,213,7990431,,,,,,,2023-05-12,1,,,,,トガワ,0
1576,5700150116017,新規,0,2023-05-12,2023-05-12,ｇｕａｎｇｚｈｏｕ　ｇｅｗｕｄｉａｎｚｉ　ｓｈａｎｇｗｕｙｏｕｘｉａｎｇｏｎｇｓｉ,,外国会社等,,,,,,,,Ｇｕａｎｇｚｈｏｕｓｈｉｔｉａｎｈｅｑｕｌｏｎｇｄｏｎｇｃｈｕａｎｇｙｉｓｉｘｉａｎｇ１ｈａｏ１１４ｓｈｉ　Ｇｕａｎｇｚｈｏｕｓｈｉ　Ｇｕａｎｇｄｏｎｇｓｈｅｎｇ,,,,,,2023-05-12,1,,,,,グァンゾォウゲウデンシシャンウユウゲンコウシ,0
1577,5700150116025,新規,0,2023-05-12,2023-05-12,Ｊｉａｎｇｍｅｎ　Ｈａｏｗｅｎ　Ｔｒａｄｅ　Ｃｏｍｐａｎｙ　Ｌｔｄ．,,外国会社等,,,,,,,,Ｐｅｎｇｊｉａｎｇｑｕ　Ｌｉａｎｇｈｕａｘｉｎｃｕｎｄｏｎｇ　Ｎｏ．４７　２０３　Ａ０７　ＪＩＡＮＧＭＥＮ　ＧＵＡＮＧＤＯＮＧ,,,,,,2023-05-12,1,,,,,ジャンメンハオウェントレートカンパニーリミテッド,0
1578,5700150116033,新規,0,2023-05-12,2023-05-12,ｑｉｎｇｄａｏ　ｓｈａｎｃｈｅｎｇｚｈｉ　ｄｉａｎｚｉｓｈａｎｇｗｕ　ｙｏｕｘｉａｎｇｏｎｇｓｉ,,外国会社等,,,,,,,,ｓｈｉｎａｎｑｕｍｉｎｊｉａｎｇｓｉｌｕ１ｈａｏｇｕｉｈｅｘｉｎｙｕａｎ　５ｈａｏｌｏｕ１ｄａｎｙｕａｎ１２０２ｓｈｉｑｉｎｇｄａｏｓｈｉ　ｓｈａｎｄｏｎｇｓｈｅｎｇ　２６６０００ＣＮ,,,,,,2023-05-12,1,,,,,チンダオシャンチェンジーデンジショウムヨウシェンゴンスー,0
1579,5700150116041,新規,0,2023-05-12,2023-05-12,ＧｕｉＺｈｏｕ　ＳｕｏＺｈｉＭａｏＹｉ　ＹｏｕＸｉａｎＧｏｎｇＳｉ,,外国会社等,,,,,,,,ｇｕｉｚｈｏｕｓｈｅｎｇ　ｚｕｎｙｉｓｈｉ　ｈｕｉｃｈｕａｎｑｕ　ｈａｎｇｚｈｏｕｌｕ　ｘｉｈｕｘｉａｏｑｕ　９ｄｏｎｇ３ｃｅｎｇ３ｈａｏ,,,,,,2023-05-12,1,,,,,グゥイゾォウスォジマオイユウゲンコウシ,0
1580,5700150116058,新規,0,2023-05-12,2023-05-12,ｓｈｅｎｚｈｅｎｃｈｅｌｉａｎｓｈｉｄａｉｄｉａｎｚｉｓｈａｎｇｗｕｙｏｕｘｉａｎｇｏｎｇｓｉ,,外国会社等,,,,,,,,Ｎｏ．８８，Ｑｉｎｇｈｕｉ　Ｒｏａｄ，Ｈｕａｎｇｇｅｋｅｎｇ　Ｃｏｍｍｕｎｉｔｙ，Ｌｏｎｇｃｈｅｎｇ　Ｓｔｒｅｅｔ　２－２１Ａ，Ｂｕｉｌｄｉｎｇ　２６，Ｓｅｎｎａ　Ｔｉｍｅ，Ｚｈｏｎｇｈａｉ　Ｋａｎｇｃｈｅｎｇ　Ｐｈａｓｅ　ＩＩ　Ｓｈｅｎｚｈｅｎ　Ｌｏｎｇｇａｎｇ　Ｄｉｓｔｒｉｃｔ　Ｇｕａｎｇｄｏｎｇ　Ｐｒｏｖｉｎｃｅ　５１８１７２　ＣＮ,00130324,,,,,2023-05-12,1,,,,,シェンジェンチョーリエンシーダイディエンズーシャンウーヨウシエンゴンスー,0
1581,5700150116066,新規,0,2023-05-12,2023-05-12,ＤＯＮＧＧＵＡＮ　ＸＩＮＲＵＩ　ＫＥＪＩ　ＹＯＵＸＩＡＮＧＯＮＧＳＩ,,外国会社等,,,,,,,,ＧＵＡＮＧＤＯＮＧ　ＤＯＮＧＧＵＡＮ　ＴＡＮＧＸＩＡＺＨＥＮ　Ｒｏｏｍ　４０２，Ｂｕｉｌｄｉｎｇ　８，Ｎｏ．２，Ｊｕｌｏｎｇ　Ｒｏａｄ，Ｓｈｉｇｕ,,,,,,2023-05-12,1,,,,,ドングワンシンルイコージーヨウシエンゴンスー,0
1591,6010001235084,新規,0,2023-05-12,2023-05-12,株式会社Ｂｒａｎｄｉｎｇ　Ｗｏｒｋｅｒ,,株式会社,東京都,中央区,銀座６丁目１３番１６号銀座ＷａｌｌＢｕｉｌｄｉｎｇ５Ｆ,,13,102,1040061,,,,,,,2023-05-12,1,,,,,ブランディングワーカー,0
1592,6010001235142,新規,0,2023-05-12,2023-05-12,株式会社ｒｅｄｉｍｉｒ,,株式会社,東京都,中央区,銀座１丁目１２番４号Ｎ＆Ｅ６Ｆ,,13,102,1040061,,,,,,,2023-05-12,1,,,,,レディミール,0
1593,6010001235217,新規,0,2023-05-12,2023-05-12,日本光科株式会社,,株式会社,東京都,中央区,湊１丁目８－１５,,13,102,1040043,,,,,,,2023-05-12,1,,,,,ニホンコウカ,0
1597,6010005036652,新規,0,2023-05-12,2023-05-12,一般財団法人日韓未来パートナーシップ基金,,その他の設立登記法人,東京都,千代田区,大手町１丁目３番２号,,13,101,1000004,,,,,,,2023-05-12,1,,,,,ニッカンミライパートナーシップキキン,0
1610,6010401174205,新規,0,2023-05-12,2023-05-12,株式会社デイリーホームズ,,株式会社,東京都,港区,港南３丁目９番３３－５１０号,,13,103,1080075,,,,,,,2023-05-12,1,,,,,デイリーホームズ,0
1611,6010401174213,新規,0,2023-05-12,2023-05-12,株式会社ガリレオ・プロジェクト,,株式会社,東京都,港区,浜松町２丁目２番１５号浜松町ダイヤビル２Ｆ,,13,103,1050013,,,,,,,2023-05-12,1,,,,,ガリレオプロジェクト,0
1612,6010401174270,新規,0,2023-05-12,2023-05-12,株式会社Ｚｓソリューションズ,,株式会社,東京都,港区,赤坂２丁目１１番１３号ＣＯＭＭＯＮＡｋａｓａｋａ３Ｆ,,13,103,1070052,,,,,,,2023-05-12,1,,,,,ジーズソリュージョンズ,0
1613,6010401174279,新規,0,2023-05-12,2023-05-12,株式会社八芳園ヒューマンリソースマネジメント,,株式会社,東京都,港区,白金台１丁目１番６号,,13,103,1080071,,,,,,,2023-05-12,1,,,,,ハッポウエンヒューマンリソースマネジメント,0
1616,6010403030109,新規,0,2023-05-12,2023-05-12,合同会社からっと,,合同会社,東京都,港区,南青山２丁目２番１５号,,13,103,1070062,,,,,,,2023-05-12,1,,,,,カラット,0
1618,6010501050438,新規,0,2023-05-12,2023-05-12,株式会社Ｏｆｆｉｃｅ　Ｋ,,株式会社,東京都,台東区,上野６丁目１２番２号,,13,106,1100005,,,,,,,2023-05-12,1,,,,,オフィスケイ,0
1619,6010601063067,新規,0,2023-05-12,2023-05-12,ＡＴＭＡＮ株式会社,,株式会社,東京都,江東区,東陽２丁目４番３９号ハローオフィス東陽町５５号室,,13,108,1350016,,,,,,,2023-05-12,1,,,,,アートマン,0
1623,6010803004521,新規,0,2023-05-12,2023-05-12,合同会社ＪＩＮ,,合同会社,東京都,大田区,北千束２丁目２０－７マック千束コート２１４号,,13,111,1450062,,,,,,,2023-05-12,1,,,,,ジン,0
1624,6010803004546,新規,0,2023-05-12,2023-05-12,合同会社ＢｕｍＢｌｅＢｅａｒ,,合同会社,東京都,大田区,下丸子２丁目１２番３－１１０号,,13,111,1460092,,,,,,,2023-05-12,1,,,,,バンブルベア,0
1626,6010901053040,新規,0,2023-05-12,2023-05-12,ＴＨ　Ｃｏｏｋｅ株式会社,,株式会社,東京都,世田谷区,駒沢４丁目１０－５,,13,112,1540012,,,,,,,2023-05-12,1,,,,,ティーエイチクック,0
1634,6011001154349,新規,0,2023-05-12,2023-05-12,株式会社ＦＩＮＡＬ　ＦＯＲＭ,,株式会社,東京都,渋谷区,道玄坂１丁目１０番８号渋谷道玄坂東急ビル２Ｆ－Ｃ,,13,113,1500043,,,,,,,2023-05-12,1,,,,,ファイナルフォーム,0
1635,6011001154365,新規,0,2023-05-12,2023-05-12,株式会社ＢＥ　ＴＥＲＲＡＣＥ,,株式会社,東京都,渋谷区,代々木１丁目１０番７号シャトレー代々木第一２階,,13,113,1510053,,,,,,,2023-05-12,1,,,,,ビーテラス,0
1644,6011101102810,新規,0,2023-05-12,2023-05-12,株式会社ＳｔａｃｋＰｉｌｅｓ,,株式会社,東京都,新宿区,西新宿３丁目３番１３号西新宿水間ビル６階,,13,104,1600023,,,,,,,2023-05-12,1,,,,,スタックパイルズ,0
1645,6011101102819,新規,0,2023-05-12,2023-05-12,ジーエムエイチ株式会社,,株式会社,東京都,新宿区,西新宿６丁目５番１号,,13,104,1600023,,,,,,,2023-05-12,1,,,,,ジーエムエイチ,0
1646,6011101102843,新規,0,2023-05-12,2023-05-12,株式会社リンクスワンコンサルティング,,株式会社,東京都,新宿区,西新宿８丁目１４番２７－２２０１号,,13,104,1600023,,,,,,,2023-05-12,1,,,,,リンクスワンコンサルティング,0
1647,6011103013031,新規,0,2023-05-12,2023-05-12,フトゥールムリサーチ合同会社,,合同会社,東京都,新宿区,市谷船河原町９番地１アクティブタワー市谷１２０２,,13,104,1620826,,,,,,,2023-05-12,1,,,,,フトゥールムリサーチ,0
1649,6011303004755,新規,0,2023-05-12,2023-05-12,合同会社ＡＢＣ‐ＮＥＸＴ,,合同会社,東京都,杉並区,高円寺南３丁目５８番１８号,,13,115,1660003,,,,,,,2023-05-12,1,,,,,エービーシーネクストー,0
1656,6011701026228,新規,0,2023-05-12,2023-05-12,株式会社ＮＡＧＡＴＡ,,株式会社,東京都,江戸川区,北篠崎２丁目１０番６号,,13,123,1330053,,,,,,,2023-05-12,1,,,,,ナガタ,0
1662,6012703002704,新規,0,2023-05-12,2023-05-12,合同会社サマーアイズ,,合同会社,東京都,西東京市,田無町６丁目２番９号５－５０３,,13,229,1880011,,,,,,,2023-05-12,1,,,,,サマーアイズ,0
1664,6012801022348,新規,0,2023-05-12,2023-05-12,株式会社ＩＫＨＷＡＮ,,株式会社,東京都,東大和市,南街２丁目４２番地の１メゾン・エムワン２０２号,,13,220,2070014,,,,,,,2023-05-12,1,,,,,イフワーン,0
1674,6020001151446,新規,0,2023-05-12,2023-05-12,株式会社ＡＮＲ,,株式会社,神奈川県,横浜市泉区,新橋町９４５番地１３,,14,116,2450009,,,,,,,2023-05-12,1,,,,,エーエヌアール,0
1675,6020001151594,新規,0,2023-05-12,2023-05-12,株式会社あかつき興産,,株式会社,神奈川県,川崎市川崎区,貝塚１丁目４番１３号,,14,131,2100014,,,,,,,2023-05-12,1,,,,,アカツキコウサン,0
1681,6020005015985,新規,0,2023-05-12,2023-05-12,一般財団法人社会価値共創財団,,その他の設立登記法人,神奈川県,横浜市中区,北仲通３丁目３３番地,,14,104,2310003,,,,,,,2023-05-12,1,,,,,シャカイカチキョウソウザイダン,0
1682,6020005015993,新規,0,2023-05-12,2023-05-12,一般社団法人ｇｒｙｔｔｅ,,その他の設立登記法人,神奈川県,横浜市中区,伊勢佐木町１丁目３－１イセビル４０６,,14,104,2310045,,,,,,,2023-05-12,1,,,,,グリッテ,0
1684,6021001079000,新規,0,2023-05-12,2023-05-12,株式会社森富,,株式会社,神奈川県,横須賀市,浦賀丘２丁目１２番１０号,,14,201,2390823,,,,,,,2023-05-12,1,,,,,モリトミ,0
1689,6030001153672,新規,0,2023-05-12,2023-05-12,株式会社ナスメディア,,株式会社,埼玉県,入間郡三芳町,大字藤久保３０５番地３－１０２,,11,324,3540041,,,,,,,2023-05-12,1,,,,,ナスメディア,0
1690,6030001153805,新規,0,2023-05-12,2023-05-12,株式会社マインドステップテクノロジーズ,,株式会社,埼玉県,久喜市,久喜北２丁目９－２,,11,232,3460007,,,,,,,2023-05-12,1,,,,,マインドステップテクノロジーズ,0
1691,6030001153895,新規,0,2023-05-12,2023-05-12,株式会社フジサービス,,株式会社,埼玉県,春日部市,内牧３４９７番地９,,11,214,3440051,,,,,,,2023-05-12,1,,,,,フジサービス,0
1692,6030001153929,新規,0,2023-05-12,2023-05-12,株式会社サイエース,,株式会社,埼玉県,越谷市,大字平方３３番地３,,11,222,3430002,,,,,,,2023-05-12,1,,,,,サイエース,0
1693,6030003021712,新規,0,2023-05-12,2023-05-12,ＳＵＮ合同会社,,合同会社,埼玉県,桶川市,北２丁目６－１１Ｂ２０１,,11,231,3630011,,,,,,,2023-05-12,1,,,,,サン,0
1694,6030003021729,新規,0,2023-05-12,2023-05-12,合同会社ＥＭＯＪＩ,,合同会社,埼玉県,さいたま市西区,大字中釘字久保１９６２－２８,,11,101,3310077,,,,,,,2023-05-12,1,,,,,エモジ,0
1696,6030005021256,新規,0,2023-05-12,2023-05-12,弁護士法人田島・佐世法律事務所,,その他の設立登記法人,埼玉県,さいたま市浦和区,高砂２丁目１番１６号浦和大熊ビル６階,,11,107,3300063,,,,,,,2023-05-12,1,,,,,タジマサヨホウリツジムショ,0
1700,6040001128277,新規,0,2023-05-12,2023-05-12,株式会社ＫＥＮＢＩＩ７,,株式会社,千葉県,我孫子市,新木野１丁目１０番３７号,,12,222,2701114,,,,,,,2023-05-12,1,,,,,ケンビイセブン,0
1701,6040001128343,新規,0,2023-05-12,2023-05-12,ｃｒｅｍｉｌｅ株式会社,,株式会社,千葉県,千葉市中央区,道場南２丁目１番５１号,,12,101,2600005,,,,,,,2023-05-12,1,,,,,クリミィル,0
1702,6040003022536,新規,0,2023-05-12,2023-05-12,合同会社Ｖａｍｏｓ,,合同会社,千葉県,市原市,今津朝山２１５番地１サンメイツＩＩ２０２,00130468,12,219,2990106,,,,,,,2023-05-12,1,,,,,バモス,0
1703,6040003022619,新規,0,2023-05-12,2023-05-12,合同会社ＣＨＥＥＥＲＳ,,合同会社,千葉県,佐倉市,染井野６丁目４番地５,,12,212,2850831,,,,,,,2023-05-12,1,,,,,チアーズ,0
1711,6050001052815,新規,0,2023-05-12,2023-05-12,齋藤製作所株式会社,,株式会社,茨城県,桜川市,真壁町飯塚７－１,,08,231,3004417,,,,,,,2023-05-12,1,,,,,サイトウセイサクジョ,0
1715,6060001035950,新規,0,2023-05-12,2023-05-12,恒信株式会社,,株式会社,栃木県,足利市,常盤町７５番地１４,,09,202,3260026,,,,,,,2023-05-12,1,,,,,コウシン,0
1716,6060001035991,新規,0,2023-05-12,2023-05-12,株式会社ＳＴＭＯ,,株式会社,栃木県,那須塩原市,佐野１５２番地２５,,09,213,3293142,,,,,,,2023-05-12,1,,,,,エスティーエムオー,0
1717,6070001040446,新規,0,2023-05-12,2023-05-12,株式会社ダイウェブ,,株式会社,群馬県,桐生市,川内町３丁目２１５－４,,10,203,3760041,,,,,,,2023-05-12,1,,,,,ダイウェブ,0
1719,6070003004944,新規,0,2023-05-12,2023-05-12,合同会社クリフカンパニー,,合同会社,群馬県,高崎市,八幡町１０６９－３,,10,202,3700884,,,,,,,2023-05-12,1,,,,,クリフカンパニー,0
1721,6080001025611,新規,0,2023-05-12,2023-05-12,大浜シーリゾート株式会社,,株式会社,静岡県,静岡市駿河区,馬渕１丁目５番１６号,,22,102,4228063,,,,,,,2023-05-12,1,,,,,オオハマシーリゾート,0
1724,6080101024001,新規,0,2023-05-12,2023-05-12,グリニッチエコロジカル株式会社,,株式会社,静岡県,富士市,今宮１２８番地の２０,,22,210,4170802,,,,,,,2023-05-12,1,,,,,グリニッチエコロジカル,0
1725,6090001018119,新規,0,2023-05-12,2023-05-12,株式会社ＡＫ＆Ｔ,,株式会社,山梨県,笛吹市,石和町河内４７２番地,,19,211,4060043,,,,,,,2023-05-12,1,,,,,エーケーアンドティ,0
1726,6090003002310,新規,0,2023-05-12,2023-05-12,合同会社西山農園,,合同会社,山梨県,甲斐市,名取６７７番地６アパートメントＳＹ２０１号室,,19,210,4000112,,,,,,,2023-05-12,1,,,,,ニシヤマノウエン,0
1731,6110001037529,新規,0,2023-05-12,2023-05-12,あやめ設備工業株式会社,,株式会社,新潟県,新発田市,舟入町３丁目７番３５号,,15,206,9570065,,,,,,,2023-05-12,1,,,,,アヤメセツビコウギョウ,0
1732,6110001037537,新規,0,2023-05-12,2023-05-12,株式会社ｎｏｎ一,,株式会社,新潟県,新潟市中央区,東堀通１７５１－１Ｆ,,15,103,9500000,,,,,,,2023-05-12,1,,,,,ノン,0
1744,6120001254791,新規,0,2023-05-12,2023-05-12,株式会社ヴォエ,,株式会社,大阪府,大阪市中央区,淡路町２丁目１－１０ユニ船場１００６号,,27,128,5410047,,,,,,,2023-05-12,1,,,,,ヴォエ,0
1745,6120001254800,新規,0,2023-05-12,2023-05-12,ＪＰ　ＣＯＮＳＵＬＴＩＮＧ株式会社,,株式会社,大阪府,大阪市生野区,中川４丁目６番３号,,27,116,5440005,,,,,,,2023-05-12,1,,,,,ジェイピーコンサルティング,0
1746,6120001254858,新規,0,2023-05-12,2023-05-12,フルール・ピアリ株式会社,,株式会社,大阪府,大阪市西区,西本町１丁目１１番２１号ミュージックキューブ１Ｆ,,27,106,5500005,,,,,,,2023-05-12,1,,,,,フルールピアリ,0
1749,6120003023922,新規,0,2023-05-12,2023-05-12,ＶＮ合同会社,,合同会社,大阪府,大阪市西成区,花園北１丁目７番１２号加護ビル１Ｆ,,27,122,5570016,,,,,,,2023-05-12,1,,,,,ブイエヌ,0
1750,6120003024037,新規,0,2023-05-12,2023-05-12,Ｒｉ合同会社,,合同会社,大阪府,大阪市鶴見区,鶴見４丁目１－２－２１５,,27,124,5380053,,,,,,,2023-05-12,1,,,,,アールアイ,0
1753,6120101067516,新規,0,2023-05-12,2023-05-12,株式会社ＣＬＥＡＮｅｉｇｅ,,株式会社,大阪府,和泉市,太町２７３番地の３,,27,219,5940003,,,,,,,2023-05-12,1,,,,,クリネージュ,0
1758,6120901047527,新規,0,2023-05-12,2023-05-12,株式会社メイクワン,,株式会社,大阪府,摂津市,鳥飼銘木町１２番１８号,,27,224,5660063,,,,,,,2023-05-12,1,,,,,メイクワン,0
1765,6130001074314,新規,0,2023-05-12,2023-05-12,アボカド株式会社,,株式会社,京都府,久世郡久御山町,中島沖ノ内２０番地,,26,322,6130041,,,,,,,2023-05-12,1,,,,,アボカド,0
1766,6130003008699,新規,0,2023-05-12,2023-05-12,美和プランニング合同会社,,合同会社,京都府,京都市左京区,聖護院山王町１８番地メタボ岡崎８０７,,26,103,6068392,,,,,,,2023-05-12,1,,,,,ミワプランニング,0
1767,6130003008724,新規,0,2023-05-12,2023-05-12,合同会社Ｖｉｎｃｅｎｔ　Ｈａｎｎａ,,合同会社,京都府,八幡市,上津屋中堤１２８,,26,210,6148176,,,,,,,2023-05-12,1,,,,,ヴィンセントハナ,0
1772,6140001130099,新規,0,2023-05-12,2023-05-12,株式会社にしがき商店,,株式会社,兵庫県,西宮市,市庭町９－７サンハイツ香枦園２０６,,28,204,6620975,,,,,,,2023-05-12,1,,,,,ニシガキショウテン,0
1773,6140001130181,新規,0,2023-05-12,2023-05-12,榎本工業株式会社,,株式会社,兵庫県,西宮市,今津大東町４番４号,,28,204,6638221,,,,,,,2023-05-12,1,,,,,エノモトコウギョウ,0
1776,6140003019092,新規,0,2023-05-12,2023-05-12,ＨＳ　ＴＲＡＤＩＮＧ合同会社,,合同会社,兵庫県,神戸市長田区,雲雀ケ丘３丁目６－１ヴィラナリー雲雀ヶ丘１号棟３０５号室,,28,106,6530879,,,,,,,2023-05-12,1,,,,,エイチエストレーディング,0
1778,6150005009479,新規,0,2023-05-12,2023-05-12,農事組合法人ひがしとよ営農組合,,その他の設立登記法人,奈良県,山辺郡山添村,大字岩屋２６６５番地,,29,322,6302232,,,,,,,2023-05-12,1,,,,,ノウジクミアイホウジンヒガシトヨエイノウクミアイ,0
1779,6160001025041,新規,0,2023-05-12,2023-05-12,株式会社秋尾工業,,株式会社,滋賀県,草津市,木川町９０４－２２,,25,206,5250051,,,,,,,2023-05-12,1,,,,,アキオコウギョウ,0
1796,6180001156157,新規,0,2023-05-12,2023-05-12,ＡＴＹホールディングス株式会社,,株式会社,愛知県,名古屋市西区,見寄町１３１番地,,23,104,4520839,,,,,,,2023-05-12,1,,,,,エーティーワイホールディングス,0
1798,6180003025211,新規,0,2023-05-12,2023-05-12,合同会社ＢＡＲＯＱＵＥ　ＷＯＲＫＳ,,合同会社,愛知県,愛西市,須依町喜之助２１４２番地,,23,232,4960902,,,,,,,2023-05-12,1,,,,,バロックワークス,0
1802,6180005020210,新規,0,2023-05-12,2023-05-12,行政書士法人想,,その他の設立登記法人,愛知県,江南市,上奈良町神明２４１番地,,23,217,4838257,,,,,,,2023-05-12,1,,,,,ソウ,0
1807,6180301037387,新規,0,2023-05-12,2023-05-12,株式会社グリーンファーム,,株式会社,愛知県,豊橋市,三ツ相町３４０番地４,,23,201,4418008,,,,,,,2023-05-12,1,,,,,グリーンファーム,0
1818,6200001041307,新規,0,2023-05-12,2023-05-12,株式会社ＥｓｐｏｉｒＡｕｔｏ,,株式会社,岐阜県,可児市,大森２８７０番地,,21,214,5090238,,,,,,,2023-05-12,1,,,,,エスポワールオート,0
1820,6210001019310,新規,0,2023-05-12,2023-05-12,株式会社ＲＡＹ　ＣＡＳＴ,,株式会社,福井県,越前市,本保町第１１号３番地の５,,18,209,9150806,,,,,,,2023-05-12,1,,,,,レイキャスト,0
1821,6220001025407,新規,0,2023-05-12,2023-05-12,今村住宅株式会社,,株式会社,石川県,白山市,森島町あ１６番地２,,17,210,9202131,,,,,,,2023-05-12,1,,,,,イマムラジュウタク,0
1834,6250003003267,新規,0,2023-05-12,2023-05-12,合同会社ＶＯＬＶＯＸ,,合同会社,山口県,宇部市,大字西岐波３６４－３１,,35,202,7550151,,,,,,,2023-05-12,1,,,,,ボルボックス,0
1836,6260001037943,新規,0,2023-05-12,2023-05-12,株式会社Ｓｈｉｎｙａ,,株式会社,岡山県,岡山市北区,大元駅前６番５号,,33,101,7000923,,,,,,,2023-05-12,1,,,,,シンヤ,0
1837,6260001037951,新規,0,2023-05-12,2023-05-12,ニューサイト株式会社,,株式会社,岡山県,津山市,上之町１８５番地ハイツ大野１０１,,33,203,7080831,,,,,,,2023-05-12,1,,,,,ニューサイト,0
1840,6270001008778,新規,0,2023-05-12,2023-05-12,株式会社山陰予防医学研究所,,株式会社,鳥取県,鳥取市,秋里９２３番地７,,31,201,6800902,,,,,,,2023-05-12,1,,,,,サンインヨボウイガクケンキュウジョ,0
1842,6290001101507,新規,0,2023-05-12,2023-05-12,Ａ‐Ｌｉｅｘ　ｈｍ株式会社,,株式会社,福岡県,福岡市博多区,神屋町１－１６,,40,132,8120022,,,,,,,2023-05-12,1,,,,,エーリックス,0
1843,6290001101523,新規,0,2023-05-12,2023-05-12,株式会社仲道設備工業,,株式会社,福岡県,福岡市早良区,原５丁目１６番２１号メイグリーンハイツ５－２－１０１,,40,137,8140022,,,,,,,2023-05-12,1,,,,,ナカミチセツビコウギョウ,0
1846,6290003013898,新規,0,2023-05-12,2023-05-12,合同会社エービーシーマーケット,,合同会社,福岡県,久留米市,荒木町白口３００１番地２８－２０５,,40,203,8300062,,,,,,,2023-05-12,1,,,,,エービーシーマーケット,0
1847,6290005019035,新規,0,2023-05-12,2023-05-12,一般社団法人ＦＲＥＥＤＯＭ,,その他の設立登記法人,福岡県,福岡市西区,上山門１丁目９番２５号,,40,135,8190054,,,,,,,2023-05-12,1,,,,,フリーダム,0
1851,6300001013295,新規,0,2023-05-12,2023-05-12,株式会社ＯＯＴＳＵＢＯ,,株式会社,佐賀県,佐賀市,鍋島３丁目２番４－２０１号,,41,201,8490937,,,,,,,2023-05-12,1,,,,,オオツボ,0
1853,6320001019761,新規,0,2023-05-12,2023-05-12,株式会社Ｃｈｉｒｏｐｒａｃｔｉｃ８,,株式会社,大分県,大分市,大字横尾４２６６番地１,,44,201,8700126,,,,,,,2023-05-12,1,,,,,カイロプラクティックエイト,0
1856,6330001030858,新規,0,2023-05-12,2023-05-12,株式会社ＭＹプロデュース,,株式会社,熊本県,熊本市東区,錦ケ丘３番１５号,,43,102,8620912,,,,,,,2023-05-12,1,,,,,マイプロデュース,0
1857,6330003009842,新規,0,2023-05-12,2023-05-12,合同会社ＮＩＮＥ,,合同会社,熊本県,熊本市南区,城南町下宮地８９６番地４４,,43,104,8614204,,,,,,,2023-05-12,1,,,,,ナイン,0
1859,6350003004354,新規,0,2023-05-12,2023-05-12,合同会社サンライズ,,合同会社,宮崎県,日向市,都町１３－６第７小松ビル２０３号室,,45,206,8830043,,,,,,,2023-05-12,1,,,,,サンライズ,0
1860,6360003012950,新規,0,2023-05-12,2023-05-12,合同会社０１,,合同会社,沖縄県,中頭郡北谷町,字桑江６３５番地１アルファステイツ北谷ヒルズ１４０３号室,,47,326,9040103,,,,,,,2023-05-12,1,,,,,ゼロワン,0
1868,6390001017255,新規,0,2023-05-12,2023-05-12,株式会社Ｌｏｋａｈｉｎａ,,株式会社,山形県,山形市,江南４丁目２番１４号,,06,201,9900863,,,,,,,2023-05-12,1,,,,,ロカヒナ,0
1870,6400001016247,新規,0,2023-05-12,2023-05-12,Ｆｏｒｅｓｔ　Ｏｎｅ株式会社,,株式会社,岩手県,釜石市,小川町４丁目５番５号,,03,211,0260045,,,,,,,2023-05-12,1,,,,,フォレストワン,0
1880,6430001089034,新規,0,2023-05-12,2023-05-12,ＴＩ設備株式会社,,株式会社,北海道,札幌市北区,新川三条１４丁目１２番１０－１０２号,,01,102,0010923,,,,,,,2023-05-12,1,,,,,ティーアイセツビ,0
1881,6430001089075,新規,0,2023-05-12,2023-05-12,札幌フットボールイノベーション株式会社,,株式会社,北海道,札幌市中央区,南四条西１０丁目１０１０番地３－１０２３号,,01,101,0640804,,,,,,,2023-05-12,1,,,,,サッポロフットボールイノベーション,0
1882,6430001089091,新規,0,2023-05-12,2023-05-12,ＦＡＢ　ＲＡＤＩＯ株式会社,,株式会社,北海道,虻田郡倶知安町,ニセコひらふ四条１丁目１番３４号,,01,400,0440087,,,,,,,2023-05-12,1,,,,,ファブラジオ,0
1887,6430005014715,新規,0,2023-05-12,2023-05-12,一般社団法人日本クウェート人道支援協会,,その他の設立登記法人,北海道,札幌市北区,北十四条西１丁目２番６号,,01,102,0010014,,,,,,,2023-05-12,1,,,,,ニホンクウェートジンドウシエンキョウカイ,0
1895,6500003003035,新規,0,2023-05-12,2023-05-12,ウッドストック合同会社,,合同会社,愛媛県,新居浜市,下泉町２丁目５番３号,,38,205,7920813,,,,,,,2023-05-12,1,,,,,ウッドストック,0
1896,6700150116016,新規,0,2023-05-12,2023-05-12,ｂａｉｄａｙｉｓｈａｎｇｍａｏ（ｓｈｅｎｚｈｅｎ）ｙｏｕｘｉａｎｚｅｒｅｎｇｏｎｇｓｉ,,外国会社等,,,,,,,,ｌｏｎｇｇａｎｇｑｕ　ｌｏｎｇｃｈｅｎｇｊｉｅｄａｏ　ｘｉｎｌｉａｎｓｈｅｑｕ　ｒｕｙｉｘｉａｏｑｕ　６ｈａｏ７０２　ｓｈｅｎｚｈｅｎ　ｇｕａｎｇｄｏｎｇ,,,,,,2023-05-12,1,,,,,バイダイシャンマオシンセンユウゲンゼイェンコウシ,0
1897,6700150116024,新規,0,2023-05-12,2023-05-12,ＮｉｎｇＢｏ　ＷｏＪｉａＧｏｎｇＪｕ　ＹｏｕＸｉａｎＧｏｎｇＳｉ,,外国会社等,,,,,,,,Ｎｏ．７９６　Ｙａｏｇａ　Ｒｏａｄ（１０－１４）－（１０－１６）Ｎｉｎｇｂｏ　Ｚｈｅｊｉａｎｇ,,,,,,2023-05-12,1,,,,,ニンボウオジャゴンジュユウゲンコウシ,0
1898,6700150116032,新規,0,2023-05-12,2023-05-12,ｓｈｅｎｚｈｅｎｓｈｉ　ｚｉｌｉａｎｇｋｅｊｉ　ｙｏｕｘｉａｎｇｏｎｇｓｉ,,外国会社等,,,,,,,,ｌｏｎｇｇａｎｇｑｕ　ｂａｎｔｉａｎｊｉｅｄａｏ　ｎａｎｋｅｎｇｓｈｅｑｕ　ｓｈｕｉｋｕｌｕ２ｈａｏ６ｄｏｎｇ３Ｆ　ｓｈｅｎｚｈｅｎｓｈｉ　ｇｕａｎｇｄｏｎｇｓｈｅｎｇ　５１８１２９ＣＮ,,,,,,2023-05-12,1,,,,,シンセンシジリァンケジヨウシェンゴンスー,0
1899,6700150116040,新規,0,2023-05-12,2023-05-12,Ｚｈｕ　Ｈａｉ　Ｋａｉ　Ｓｈｉ　Ｔｅｃｈｎｏｌｏｇｙ　Ｃｏ．，Ｌｔｄ,,外国会社等,,,,,,,,Ｈｅｎｇ　Ｑｉｎ　Ｘｉｎ　Ｑｕ　Ｂａｏ　Ｈｕａ　Ｌｕ　６　Ｈａｏ　１０５－７１０４３　Ｚｈｕ　Ｈａｉ　Ｇｕａｎｇ　Ｄｏｎｇ,,,,,,2023-05-12,1,,,,,ズハイカイシテクノロジーカンパニーリミテッド,0
1900,6700150116049,新規,0,2023-05-12,2023-05-12,ｎｉｎｇｂｏｊｉｎｃｈｕａｎｇｂａｎｇｏｎｇｋｅｊｉｙｏｕｘｉａｎｇｏｎｇｓｉ,,外国会社等,,,,,,,,Ｎｏ．３０，Ｙｕｎｙａｏ　Ｒｏａｄ，Ｙｕｎｌｏｎｇ　Ｔｏｗｎ　Ｎｉｎｇｂｏ　Ｃｉｔｙ　Ｚｈｅｊｉａｎｇ　Ｐｒｏｖｉｎｃｅ　３１５１３５　ＣＮ,,,,,,2023-05-12,1,,,,,ニンボージンチュワンバンゴンコージーヨウシエンゴンスー,0
1901,6700150116057,新規,0,2023-05-12,2023-05-12,ｇｕａｎｇｚｈｏｕｓｈｉｇｏｕｘｉａｎｇｋａｄｉａｎｚｉｓｈａｎｇｗｕｙｏｕｘｉａｎｇｏｎｇｓｉ,,外国会社等,,,,,,,,ｆｅｎｇｚｅｄｏｎｇｌｕ１０６ｈａｏ（ｚｉｂｉａｎ１ｈａｏｌｏｕ）Ｘ１３０１－Ｇ０２０７５５　ｇｕａｎｇｚｈｏｕｓｈｉ　ｎａｎｓｈａｑｕ　ｇｕａｎｇｄｏｎｇｓｈｅｎｇ　５１１４５８　ＣＮ,,,,,,2023-05-12,1,,,,,グワンジョウシーゴウシャンカーディエンズーシャンウーヨウシエンゴンスー,0
1902,6700150116065,新規,0,2023-05-12,2023-05-12,Ｗｕｈａｎ　Ｂｅｌｃｏｍ　Ｔｅｃｈｎｏｌｏｇｙ　Ｃｏ．，Ｌｔｄ,,外国会社等,,,,,,,,Ｒｏｏｍ　７０１，Ｕｎｉｔ　２，Ｎｏ．２７，Ｐｏｌｙ．Ｍｉｌｉｔａｒｙ　Ｃｉｔｙ，Ｂａｉｍｕｌｉｎｇ　Ｄａｑｉａｏ　Ｎｅｗ　Ｄｉｓｔｒｉｃｔ　Ｏｆｆｉｃｅ，Ｊｉａｎｇｘｉａ　Ｄｉｓｔｒｉｃｔ　Ｗｕｈａｎ　Ｈｕｂｅｉ,,,,,,2023-05-12,1,,,,,ウーハンボーリエンコーコージーヨウシエンゴンスー,0
1928,7010005036643,新規,0,2023-05-12,2023-05-12,税理士法人木下会計,,その他の設立登記法人,東京都,千代田区,神田平河町１番第３東ビル９０２号,,13,101,1010027,,,,,,,2023-05-12,1,,,,,キノシタカイケイ,0
1935,7010401174113,新規,0,2023-05-12,2023-05-12,ＷｅｓｔＰａｃ　Ｔｒｕｓｔ　Ｂａｎｋ株式会社,,株式会社,東京都,港区,北青山３丁目２番２号ＡＹビル７階,,13,103,1070061,,,,,,,2023-05-12,1,,,,,ウェストパックトラストバンク,0
1936,7010403030058,新規,0,2023-05-12,2023-05-12,合同会社ＬＹＳ,,合同会社,東京都,港区,３－５－７－２０３,,13,103,1050000,,,,,,,2023-05-12,1,,,,,リス,0
1937,7010501050445,新規,0,2023-05-12,2023-05-12,株式会社ダウン,,株式会社,東京都,台東区,根岸２丁目１８番２号鶯谷永谷マンション５０２号室,,13,106,1100003,,,,,,,2023-05-12,1,,,,,ダウン,0
1942,7010701044230,新規,0,2023-05-12,2023-05-12,グッドメンター株式会社,,株式会社,東京都,品川区,西五反田３丁目１５番６号リードシー目黒不動前ビル８階,,13,109,1410031,,,,,,,2023-05-12,1,,,,,グッドメンター,0
1943,7010801033884,新規,0,2023-05-12,2023-05-12,株式会社ＭＩＲＡＩＲＩＳ,,株式会社,東京都,大田区,蒲田２丁目３－７ビアレセッテ１階,,13,111,1440052,,,,,,,2023-05-12,1,,,,,ミライリス,0
1946,7010901053015,新規,0,2023-05-12,2023-05-12,株式会社プルースト,,株式会社,東京都,世田谷区,太子堂１丁目１２－２７コンフォートテラス１００５号,,13,112,1540004,,,,,,,2023-05-12,1,,,,,プルースト,0
1948,7010903008165,新規,0,2023-05-12,2023-05-12,新日本管理合同会社,,合同会社,東京都,世田谷区,瀬田５丁目３４番１５号,,13,112,1580095,,,,,,,2023-05-12,1,,,,,シンニホンカンリ,0
1952,7011001154307,新規,0,2023-05-12,2023-05-12,Ｈｉｌｉｇｈｔ　Ｂｒａｎｄｓ　Ｊａｐａｎ株式会社,,株式会社,東京都,渋谷区,神宮前４丁目２７番６号１階,,13,113,1500001,,,,,,,2023-05-12,1,,,,,ハイライトブランズジャパン,0
1953,7011001154331,新規,0,2023-05-12,2023-05-12,ＭＤＰ　ＯＦＦＥＲ株式会社,,株式会社,東京都,渋谷区,神宮前５丁目２０番１号モデリアブリュット表参道３０５号室,,13,113,1500001,,,,,,,2023-05-12,1,,,,,エムディーピーオファー,0
1954,7011001154372,新規,0,2023-05-12,2023-05-12,株式会社ＧＯＬＤ　ＦＬＡＧ,,株式会社,東京都,渋谷区,桜丘町２３－１７シティーコート桜丘４０８,,13,113,1500031,,,,,,,2023-05-12,1,,,,,ゴールドフラッグ,0
1955,7011003016769,新規,0,2023-05-12,2023-05-12,ＰＯＬＹＭＥＲＩＺＥ合同会社,,合同会社,東京都,渋谷区,神南１丁目１１番３号,,13,113,1500041,,,,,,,2023-05-12,1,,,,,ポリマライズ,0
1956,7011003016802,新規,0,2023-05-12,2023-05-12,ｇｒａｃｅ　ｍｉｎｄ合同会社,,合同会社,東京都,渋谷区,広尾１丁目１番３６号本国ビル６０３,,13,113,1500012,,,,,,,2023-05-12,1,,,,,グレースマインド,0
1957,7011003016827,新規,0,2023-05-12,2023-05-12,合同会社アルクトス,,合同会社,東京都,目黒区,洗足１丁目２５番１０号,,13,110,1520012,,,,,,,2023-05-12,1,,,,,アルクトス,0
1965,7011101102818,新規,0,2023-05-12,2023-05-12,株式会社三鷹企画,,株式会社,東京都,新宿区,西新宿３丁目３番１３号,,13,104,1600023,,,,,,,2023-05-12,1,,,,,ミタカキカク,0
1966,7011101102834,新規,0,2023-05-12,2023-05-12,株式会社クラウドバース,,株式会社,東京都,新宿区,西新宿３丁目３番１３号西新宿水間ビル２階,,13,104,1600023,,,,,,,2023-05-12,1,,,,,クラウドバース,0
1967,7011101102842,新規,0,2023-05-12,2023-05-12,株式会社シーシー企画,,株式会社,東京都,新宿区,新宿１丁目１５番４号,,13,104,1600022,,,,,,,2023-05-12,1,,,,,シーシーキカク,0
1969,7011303004746,新規,0,2023-05-12,2023-05-12,合同会社水稲花,,合同会社,東京都,杉並区,荻窪２丁目１３番８号２０３号室,,13,115,1670051,,,,,,,2023-05-12,1,,,,,スイトウカ,0
1970,7011303004754,新規,0,2023-05-12,2023-05-12,Ｓｔｕｄｉｏ　Ｃｏｖｅ合同会社,,合同会社,東京都,杉並区,高円寺南３丁目４４－１８藤本方２Ｆ,,13,115,1660003,,,,,,,2023-05-12,1,,,,,スタジオコーヴ,0
1975,7011801042371,新規,0,2023-05-12,2023-05-12,東晴商事株式会社,,株式会社,東京都,足立区,舎人６丁目２番１８号,,13,121,1210831,,,,,,,2023-05-12,1,,,,,トウセイショウジ,0
1978,7011803005649,新規,0,2023-05-12,2023-05-12,スリージェイ企画合同会社,,合同会社,東京都,葛飾区,柴又１丁目３９－１０いずみハイツ柴又４１１,,13,122,1250052,,,,,,,2023-05-12,1,,,,,スリージェイキカク,0
1985,7013301050739,新規,0,2023-05-12,2023-05-12,株式会社Ａｕｔｏｍａｔｉｃ,,株式会社,東京都,豊島区,東池袋３丁目２１番２１－１４０８号,,13,116,1700013,,,,,,,2023-05-12,1,,,,,オートマティック,0
1986,7013301050755,新規,0,2023-05-12,2023-05-12,青科株式会社,,株式会社,東京都,豊島区,南大塚１丁目５０番１１号－２０１,,13,116,1700005,,,,,,,2023-05-12,1,,,,,アオカ,0
1987,7013303006615,新規,0,2023-05-12,2023-05-12,金曜合同会社,,合同会社,東京都,豊島区,池袋２丁目３０－１５三田池袋西コーポ４０２,,13,116,1710014,,,,,,,2023-05-12,1,,,,,キンヨウ,0
1990,7020001151536,新規,0,2023-05-12,2023-05-12,株式会社ベッツイメージング,,株式会社,神奈川県,横浜市西区,北幸２丁目１０番地２８むつみビル３Ｆ,,14,103,2200004,,,,,,,2023-05-12,1,,,,,ベッツイメージング,0
1991,7020001151544,新規,0,2023-05-12,2023-05-12,株式会社エル・シー・ティ,,株式会社,神奈川県,川崎市宮前区,野川本町３丁目３０番４－２０１号,,14,136,2160041,,,,,,,2023-05-12,1,,,,,エルシーティ,0
1992,7020001151569,新規,0,2023-05-12,2023-05-12,株式会社ＳＣＰ,,株式会社,神奈川県,横浜市青葉区,大場町３６６番地２１,,14,117,2250023,,,,,,,2023-05-12,1,,,,,エスシーピー,0
1995,7021001079024,新規,0,2023-05-12,2023-05-12,株式会社Ｈｏｎｚａｎ,,株式会社,神奈川県,茅ヶ崎市,南湖２丁目３番５号,,14,207,2530061,,,,,,,2023-05-12,1,,,,,ホンザン,0
1996,7021003013071,新規,0,2023-05-12,2023-05-12,ＭＵＮＤＡＣＫＥＬ　ＧＬＯＢＡＬ合同会社,,合同会社,神奈川県,海老名市,杉久保北５丁目２７番２－２号,,14,215,2430410,,,,,,,2023-05-12,1,,,,,ムンダケールグローバル,0
1997,7021003013088,新規,0,2023-05-12,2023-05-12,合同会社Ｍｙｖｉｌｌ,,合同会社,神奈川県,大和市,下鶴間３８４番地１エール１０２,,14,213,2420001,,,,,,,2023-05-12,1,,,,,マイウィル,0
2004,7030001153663,新規,0,2023-05-12,2023-05-12,ヴィジターズ株式会社,,株式会社,埼玉県,所沢市,大字北秋津２５５番地の４,,11,208,3590038,,,,,,,2023-05-12,1,,,,,ヴィジターズ,0
2005,7030001153696,新規,0,2023-05-12,2023-05-12,株式会社ＦＬＡＧＳＷＥＥＴ,,株式会社,埼玉県,さいたま市浦和区,仲町２丁目５番１号地下１階Ｍｉｏ浦和,,11,107,3300062,,,,,,,2023-05-12,1,,,,,フラッグスイート,0
2006,7030001153738,新規,0,2023-05-12,2023-05-12,株式会社ビジューネイルズ,,株式会社,埼玉県,朝霞市,浜崎１丁目７－５－１０２号,,11,227,3510033,,,,,,,2023-05-12,1,,,,,ビジューネイルズ,0
2007,7030001153779,新規,0,2023-05-12,2023-05-12,株式会社勝友ツーリスト,,株式会社,埼玉県,戸田市,新曽南１丁目１１－２３宮下ビル３階,,11,224,3350026,,,,,,,2023-05-12,1,,,,,カツトモツーリスト,0
2008,7030001153804,新規,0,2023-05-12,2023-05-12,株式会社ジプシー,,株式会社,埼玉県,越谷市,東町２丁目１６４－４,,11,222,3430826,,,,,,,2023-05-12,1,,,,,ジプシー,0
2009,7030001153861,新規,0,2023-05-12,2023-05-12,株式会社鈴木工業,,株式会社,埼玉県,さいたま市見沼区,大字東宮下６５９番地２４,,11,104,3370012,,,,,,,2023-05-12,1,,,,,スズキコウギョウ,0
2019,7030003021711,新規,0,2023-05-12,2023-05-12,ＣＴＡＮＰＲ合同会社,,合同会社,埼玉県,川口市,西川口１丁目２３番３号ＲＥＧＩＡ４０３号室,,11,203,3320021,,,,,,,2023-05-12,1,,,,,シータンピーアール,0
2020,7030003021728,新規,0,2023-05-12,2023-05-12,イーグル合同会社,,合同会社,埼玉県,越谷市,蒲生寿町１２番地１９,,11,222,3430836,,,,,,,2023-05-12,1,,,,,イーグル,0
2021,7030003021736,新規,0,2023-05-12,2023-05-12,合同会社弥生,,合同会社,埼玉県,越谷市,弥生町３番３８号コマタビル２階,,11,222,3430816,,,,,,,2023-05-12,1,,,,,ヤヨイ,0
2023,7040001128268,新規,0,2023-05-12,2023-05-12,株式会社コンパル,,株式会社,千葉県,習志野市,新栄１丁目２番１３号,,12,216,2750005,,,,,,,2023-05-12,1,,,,,コンパル,0
2024,7040001128359,新規,0,2023-05-12,2023-05-12,株式会社グッドリダンス,,株式会社,千葉県,流山市,おおたかの森北１丁目２５番地の１－２０３号,,12,220,2700119,,,,,,,2023-05-12,1,,,,,グッドリダンス,0
2025,7040001128400,新規,0,2023-05-12,2023-05-12,株式会社希工業,,株式会社,千葉県,市原市,馬立４７１番地１２,,12,219,2900221,,,,,,,2023-05-12,1,,,,,ノゾミコウギョウ,0
2027,7040003022601,新規,0,2023-05-12,2023-05-12,合同会社Ｓｏｍｅ　Ｌｉｆｅ　Ｈｏｍｅ,,合同会社,千葉県,千葉市花見川区,南花園１丁目４４－１０南花園ビル３階,,12,102,2620022,,,,,,,2023-05-12,1,,,,,サムライフホーム,0
2028,7040005021989,新規,0,2023-05-12,2023-05-12,医療法人社団恵伸会,,その他の設立登記法人,千葉県,松戸市,日暮４丁目９番地の１,,12,207,2702253,,,,,,,2023-05-12,1,,,,,ケイシンカイ,0
2029,7050001052830,新規,0,2023-05-12,2023-05-12,ＡＰＳ　ＪＡＰＡＮ株式会社,,株式会社,茨城県,結城市,大字結城１１３９７－１アーバニティー２４－１０１号室,,08,207,3070001,,,,,,,2023-05-12,1,,,,,アプスジャパン,0
2030,7050001052847,新規,0,2023-05-12,2023-05-12,リバーサイト株式会社,,株式会社,茨城県,稲敷市,西代１８７番地６,,08,229,3000726,,,,,,,2023-05-12,1,,,,,リバーサイト,0
2031,7060001035990,新規,0,2023-05-12,2023-05-12,株式会社クシダ,,株式会社,栃木県,佐野市,閑馬町１３３１番地,,09,204,3270321,,,,,,,2023-05-12,1,,,,,クシダ,0
2032,7060001035999,新規,0,2023-05-12,2023-05-12,株式会社さくら美装,,株式会社,栃木県,さくら市,鷲宿７８８番地２,,09,214,3291411,,,,,,,2023-05-12,1,,,,,サクラビソウ,0
2044,7080401026472,新規,0,2023-05-12,2023-05-12,株式会社浜松太陽堂,,株式会社,静岡県,浜松市中区,萩丘４丁目３番８号,,22,131,4338121,,,,,,,2023-05-12,1,,,,,ハママツタイヨウドウ,0
2045,7090001018126,新規,0,2023-05-12,2023-05-12,株式会社ＯＰＡＬ,,株式会社,山梨県,大月市,猿橋町桂台２丁目８番地４,,19,206,4090618,,,,,,,2023-05-12,1,,,,,オパール,0
2049,7100001036398,新規,0,2023-05-12,2023-05-12,株式会社福いち,,株式会社,長野県,塩尻市,大字広丘吉田１１１３番地２ポレスター広丘ブライトマークス１２０１,,20,215,3990701,,,,,,,2023-05-12,1,,,,,フクイチ,0
2057,7110001037528,新規,0,2023-05-12,2023-05-12,エフエイチ・エージェンシー株式会社,,株式会社,新潟県,上越市,藤新田１丁目２番４５号,,15,222,9430816,,,,,,,2023-05-12,1,,,,,エフエイチエージェンシー,0
2058,7110001037536,新規,0,2023-05-12,2023-05-12,株式会社Ｌｉｖ,,株式会社,新潟県,長岡市,中野西丙４７０番地,,15,202,9540175,,,,,,,2023-05-12,1,,,,,リブ,0
2077,7120001254650,新規,0,2023-05-12,2023-05-12,株式会社ＭＭＥ,,株式会社,大阪府,大阪市西区,北堀江１丁目２番１６号,,27,106,5500014,,,,,,,2023-05-12,1,,,,,エムエムイー,0
2078,7120001254766,新規,0,2023-05-12,2023-05-12,株式会社ＴＢＭＰ,,株式会社,大阪府,大阪市東成区,神路３丁目１３番２２号,,27,115,5370003,,,,,,,2023-05-12,1,,,,,ティービーエムピー,0
2079,7120001254799,新規,0,2023-05-12,2023-05-12,千尋株式会社,,株式会社,大阪府,大阪市北区,中崎西２丁目２番１号８階Ｃ’号室,,27,127,5300015,,,,,,,2023-05-12,1,,,,,チヒロ,0
2080,7120001254808,新規,0,2023-05-12,2023-05-12,株式会社ユアエージェンス,,株式会社,大阪府,枚方市,大垣内町２丁目８番地１０号宮村三甲ビル７階,,27,210,5730027,,,,,,,2023-05-12,1,,,,,ユアエージェンス,0
2081,7120001254816,新規,0,2023-05-12,2023-05-12,株式会社いなほ,,株式会社,大阪府,大阪市中央区,久太郎町１丁目５番３１号リアライズ堺筋本町ビル８０４号,,27,128,5410056,,,,,,,2023-05-12,1,,,,,イナホ,0
2082,7120001254849,新規,0,2023-05-12,2023-05-12,株式会社ＮＡＲＵ,,株式会社,大阪府,大阪市北区,鶴野町４番,,27,127,5300014,,,,,,,2023-05-12,1,,,,,ナル,0
2086,7120003024036,新規,0,2023-05-12,2023-05-12,合同会社Ｓ＆Ｎ,,合同会社,大阪府,大阪市都島区,都島北通２丁目１－５ハイツ大東１Ｆ,,27,102,5340014,,,,,,,2023-05-12,1,,,,,エスアンドエヌ,0
2087,7120101067515,新規,0,2023-05-12,2023-05-12,クレスト不動産株式会社,,株式会社,大阪府,岸和田市,八田町２１１番地の１,,27,202,5960841,,,,,,,2023-05-12,1,,,,,クレストフドウサン,0
2100,7140001130180,新規,0,2023-05-12,2023-05-12,株式会社アカシアエンジニアリング,,株式会社,兵庫県,神戸市東灘区,御影塚町２丁目１番６－３０７号,,28,101,6580044,,,,,,,2023-05-12,1,,,,,アカシアエンジニアリング,0
2105,7150001026394,新規,0,2023-05-12,2023-05-12,株式会社アムール,,株式会社,奈良県,北葛城郡王寺町,畠田３丁目１３番９号,,29,425,6360021,,,,,,,2023-05-12,1,,,,,アムール,0
2106,7150001026403,新規,0,2023-05-12,2023-05-12,株式会社Ｌｉｆｅ　Ｆｉｎｅ,,株式会社,奈良県,香芝市,北今市７丁目８６６番地１グレイスコート・香芝Ｂ棟１０２号,,29,210,6390242,,,,,,,2023-05-12,1,,,,,ライフファイン,0
2107,7160001025040,新規,0,2023-05-12,2023-05-12,株式会社Ｃｈａｒｉｓ　Ｌｕｍｉｅｒｅ,,株式会社,滋賀県,守山市,今浜町２６２４番地１８４ＧａｒａｇｅＨｏｕｓｅ守山６号室,,25,207,5240101,,,,,,,2023-05-12,1,,,,,カリスルミエール,0
2118,7180003025227,新規,0,2023-05-12,2023-05-12,合同会社アスカ,,合同会社,愛知県,名古屋市中村区,名駅４丁目２４番５号第２森ビル４０１,,23,105,4500002,,,,,,,2023-05-12,1,,,,,アスカ,0
2119,7180005020218,新規,0,2023-05-12,2023-05-12,一般社団法人世音の会,,その他の設立登記法人,愛知県,知多市,八幡字大平地１２０番地,,23,224,4780001,,,,,,,2023-05-12,1,,,,,セオンノカイ,0
2121,7180301037378,新規,0,2023-05-12,2023-05-12,あぐりっち岩瀬株式会社,,株式会社,愛知県,岡崎市,羽根西１丁目６番地１,,23,202,4440838,,,,,,,2023-05-12,1,,,,,アグリッチイワセ,0
2127,7180303005688,新規,0,2023-05-12,2023-05-12,合同会社ＷＯＬＦ,,合同会社,愛知県,西尾市,一色町赤羽郷中３５番地９,,23,213,4440427,,,,,,,2023-05-12,1,,,,,ウルフ,0
2128,7190001030401,新規,0,2023-05-12,2023-05-12,株式会社裕麻工業,,株式会社,三重県,三重郡川越町,大字豊田１０１９番地３５,,24,344,5108122,,,,,,,2023-05-12,1,,,,,ユウマコウギョウ,0
2130,7190003004320,新規,0,2023-05-12,2023-05-12,合同会社陣田,,合同会社,三重県,三重郡菰野町,大羽根園並木通り６番地２,,24,341,5101244,,,,,,,2023-05-12,1,,,,,ジンダ,0
2131,7200001041297,新規,0,2023-05-12,2023-05-12,株式会社Ｓ工務店,,株式会社,岐阜県,各務原市,那加栄町２５番地１今尾農産ビル４階,,21,213,5040954,,,,,,,2023-05-12,1,,,,,エスコウムテン,0
2133,7210003001645,新規,0,2023-05-12,2023-05-12,合同会社アントワーカーズ,,合同会社,福井県,敦賀市,津内町１丁目８－１１パールハイツ２０１,,18,202,9140056,,,,,,,2023-05-12,1,,,,,アントワーカーズ,0
2135,7220001025397,新規,0,2023-05-12,2023-05-12,株式会社Ｒａｐｔｏｒ,,株式会社,石川県,金沢市,久安１丁目４６８番地,,17,201,9218164,,,,,,,2023-05-12,1,,,,,ラプター,0
2136,7220001025406,新規,0,2023-05-12,2023-05-12,株式会社アラタ,,株式会社,石川県,小松市,土居原町５３４番地１,,17,203,9230921,,,,,,,2023-05-12,1,,,,,アラタ,0
2137,7240001061498,新規,0,2023-05-12,2023-05-12,株式会社戎総建,,株式会社,広島県,広島市佐伯区,屋代３丁目１８番３５－４－１号,,34,108,7315146,,,,,,,2023-05-12,1,,,,,エビスソウケン,0
2138,7240001061507,新規,0,2023-05-12,2023-05-12,株式会社ＤＡＩＣＨＩ,,株式会社,広島県,呉市,中央６丁目３番５号,,34,202,7370051,,,,,,,2023-05-12,1,,,,,ダイチ,0
2140,7260001037942,新規,0,2023-05-12,2023-05-12,株式会社未在コンサルティング,,株式会社,岡山県,岡山市北区,駅前町１丁目８番１号新光ビル岡山５Ｆ,,33,101,7000023,,,,,,,2023-05-12,1,,,,,ミザイコンサルティング,0
2144,7290001101506,新規,0,2023-05-12,2023-05-12,株式会社経理のけいちゃん,,株式会社,福岡県,春日市,春日２丁目２番地２エイリックスタイルジーネクスト春日公園１０５号,,40,218,8160814,,,,,,,2023-05-12,1,,,,,ケイリノケイチャン,0
2148,7290003013914,新規,0,2023-05-12,2023-05-12,フィールドエナジーリサーチ合同会社,,合同会社,福岡県,福岡市中央区,天神４丁目６番２８号天神ファーストビル７階,,40,133,8100001,,,,,,,2023-05-12,1,,,,,フィールドエナジーリサーチ,0
2149,7290005019042,新規,0,2023-05-12,2023-05-12,医療法人松隈産婦人科クリニック,,その他の設立登記法人,福岡県,小郡市,小郡１５０４番地８,,40,216,8380141,,,,,,,2023-05-12,1,,,,,マツクマサンフジンカクリニック,0
2153,7310001018409,新規,0,2023-05-12,2023-05-12,株式会社アンフィル・エステート,,株式会社,長崎県,佐世保市,黒髪町６５１０番地１８７,,42,202,8571152,,,,,,,2023-05-12,1,,,,,アンフィルエステート,0
2154,7310003004571,新規,0,2023-05-12,2023-05-12,合同会社Ｇｒａｎｄｅｕｒ,,合同会社,長崎県,五島市,三井楽町濱ノ畔１２２３番地１,,42,211,8530601,,,,,,,2023-05-12,1,,,,,グランドール,0
2155,7320001019760,新規,0,2023-05-12,2023-05-12,株式会社ＳＡＬＯＮＤ　ＩＮＮＯＶＡＴＩＯＮ,,株式会社,大分県,大分市,府内町３丁目７番３２号,,44,201,8700021,,,,,,,2023-05-12,1,,,,,サロンドイノベーション,0
2156,7320001019769,新規,0,2023-05-12,2023-05-12,株式会社園田設備,,株式会社,大分県,大分市,はなの森１２番地の１４,,44,201,8700880,,,,,,,2023-05-12,1,,,,,ソノダセツビ,0
2157,7320003004083,新規,0,2023-05-12,2023-05-12,合同会社蓮トランスポート,,合同会社,大分県,大分市,大字曲６１１番地の１７,,44,201,8700946,,,,,,,2023-05-12,1,,,,,レントランスポート,0
2161,7330001030857,新規,0,2023-05-12,2023-05-12,Ｆｌｙｉｎｇ　Ｓ株式会社,,株式会社,熊本県,熊本市中央区,新屋敷１丁目２番６号,,43,101,8620975,,,,,,,2023-05-12,1,,,,,フライングエス,0
2162,7330005010665,新規,0,2023-05-12,2023-05-12,一般社団法人アスリート育成センター,,その他の設立登記法人,熊本県,熊本市中央区,新大江３丁目９－３２,,43,101,8620972,,,,,,,2023-05-12,1,,,,,,0
2164,7360001031984,新規,0,2023-05-12,2023-05-12,株式会社ＧＬＯＣＡＬ　ＩＮＮＯＶＡＴＩＯＮ,,株式会社,沖縄県,うるま市,字大田２７６番地１,,47,213,9042224,,,,,,,2023-05-12,1,,,,,グローカルイノベーション,0
2165,7360001032000,新規,0,2023-05-12,2023-05-12,株式会社Ｋ’ｓクリエート,,株式会社,沖縄県,中頭郡北谷町,字港１５－５８,,47,326,9040114,,,,,,,2023-05-12,1,,,,,ケーズクリエート,0
2178,7430001089017,新規,0,2023-05-12,2023-05-12,ロード＆スカイ株式会社,,株式会社,北海道,札幌市南区,川沿四条５丁目２番１４号,,01,106,0050804,,,,,,,2023-05-12,1,,,,,ロードアンドスカイ,0
2179,7430001089033,新規,0,2023-05-12,2023-05-12,株式会社リオン・ファミリオ,,株式会社,北海道,札幌市手稲区,稲穂四条２丁目１３番１０号,,01,109,0060034,,,,,,,2023-05-12,1,,,,,リオンファミリオ,0
2183,7430005014714,新規,0,2023-05-12,2023-05-12,特定非営利活動法人ぽの・ぽの,,その他の設立登記法人,北海道,札幌市白石区,北郷五条５丁目８番５－２０２号,,01,104,0030835,,,,,,,2023-05-12,1,,,,,ポノポノ,0
2186,7450001013981,新規,0,2023-05-12,2023-05-12,株式会社小野電設,,株式会社,北海道,旭川市,春光台一条１丁目４番９号,,01,204,0718141,,,,,,,2023-05-12,1,,,,,オノデンセツ,0
2190,7470001019614,新規,0,2023-05-12,2023-05-12,ワールド興産株式会社,,株式会社,香川県,高松市,伏石町２０１８番地１,,37,201,7618071,,,,,,,2023-05-12,1,,,,,ワールドコウサン,0
2193,7500001024924,新規,0,2023-05-12,2023-05-12,株式会社ｌｉｎｏ,,株式会社,愛媛県,今治市,関前岡村１０１３番地,,38,202,7941101,,,,,,,2023-05-12,1,,,,,リノ,0
2197,7700150116015,新規,0,2023-05-12,2023-05-12,ＱｉｎｇＹｕａｎ　ＺｏｎｇＴｉａｎＭａｏＹｉ　ＹｏｕＸｉａｎＧｏｎｇＳｉ,,外国会社等,,,,,,,,ＸｉｎＣｈｅｎｇＹｉｎＱｕａｎＢｅｉＬｕ　ＱｉＨａｏ　ＱｉｎｇＹｕａｎＳｈｉ　ＹｏｕＺｈｅｎｇＪｕＳｈｅｎｇＣｈａｎＬｏｕ（ＪｉＭａＹｉＳｈｕＺｉＪｉｎｇＪｉＹｕａｎ）ＳｉＣｅｎｇ　４２２Ｈａｏ　ＱｉｎｇＹｕａｎ　ＧｕａｎｇＤｏｎｇ,,,,,,2023-05-12,1,,,,,チンユェンゾンテェンマオイユウゲンコウシ,0
2198,7700150116023,新規,0,2023-05-12,2023-05-12,Ｓｈｅｎｚｈｅｎｓｈｉ　Ｊｉａｓｈｉ　Ｄｉａｎｚｉ　Ｓｈａｎｇｗｕ　Ｙｏｕ　Ｘｉａｎ　Ｇｏｎｇ　Ｓｉ,,外国会社等,,,,,,,,ＬｏｎｇＨｕａ　Ｑｕ　ＬｏｎｇＨｕａ　Ｊｉｅ　Ｄａｏ　Ｂａｎ　Ｓｈｉ　Ｃｈｕ　Ｙｏｕｓｏｎｇ　Ｓｈｅｑｕ　ＤｏｎｇＨｕａｎ　１　Ｌｕ　Ｘｉｎ　Ｚｈｏｎｇ　Ｔａｉ　Ｋｅ　Ｊｉ　Ｙｕａｎ　２　Ｄｏｎｇ　３０７　Ｓｈｅｎｚｈｅｎ　Ｇｕａｎｇｄｏｎｇ,,,,,,2023-05-12,1,,,,,シンセンシジャシデンシシャンウユウゲンコウシ,0
2199,7700150116031,新規,0,2023-05-12,2023-05-12,Ａｐｉｔｏｒ　Ｔｅｃｈｎｏｌｏｇｙ　Ｃｏ．，Ｌｔｄ．,,外国会社等,,,,,,,,３ｒｄ　Ｆｌｏｏｒ，Ｂｕｉｌｄｉｎｇ　Ａ，Ｔｅｎｇｍｉｎ　Ｔｅｃｈｎｏｌｏｇｙ　Ｐａｒｋ　Ｇｏｎｇｈｅ　Ｉｎｄｕｓｔｒｉａｌ　Ｒｏａｄ，Ｘｉｘｉａｎｇ，Ｂａｏａｎ　Ｓｈｅｎｚｈｅｎ　Ｇｕａｎｇｄｏｎｇ　ＣＮ,,,,,,2023-05-12,1,,,,,アピテーテクノロジーカンパニーリミテッド,0
2200,7700150116048,新規,0,2023-05-12,2023-05-12,Ｇｕａｎｇｚｈｏｕ　Ｒｕｉｔｉａｎ　Ｒｅａｌ　Ｅｓｔａｔｅ　Ｉｎｔｅｒｍｅｄｉａｒｙ　Ｓｅｒｖｉｃｅ　Ｃｏ．，Ｌｔｄ．,,外国会社等,,,,,,,,Ｎｏ．１７－９，Ｘｉｎｇｙａ　２ｎｄ　Ｒｏａｄ，Ｓｈｉｌｏｕ　Ｔｏｗｎ，Ｐａｎｙｕ　Ｄｉｓｔｒｉｃｔ，Ｇｕａｎｇｚｈｏｕ,,,,,,2023-05-12,1,,,,,グワンジョウルイティエンファンディーチャンジョンジエフーウーヨウシエンゴンスー,0
2201,7700150116056,新規,0,2023-05-12,2023-05-12,Ｓｈｅｎｚｈｅｎｓｈｉｂｅｔｅｅｒｚｈａｎｓｈｉｙｏｎｇｐｉｎｃｏｌｔｄ,,外国会社等,,,,,,,,ｐｉｎｇｓｈａｎｑｕｍａｌｕａｎｊｉｅｄａｏｄｏｎｇ　ｚｏｎｇｌｕ６ｈａｏｊｕｂａｎｇｇｏｎｇｙｅｙｕａｎｓｉｄｏｎｇｗｕｌｏｕ　ｓｈｅｎｚｈｅｎｓｈｉ　ｇｕａｎｇｄｏｎｇｓｈｅｎｇ　５１８１１８　ＣＮ,,,,,,2023-05-12,1,,,,,シェンジェンシーベイターアージャンシーヨンピンヨウシエンゴンスー,0
2202,7700150116064,新規,0,2023-05-12,2023-05-12,ＤｏｎｇＧｕａｎＳｈｉＺｅｎｇＱｉａｎＭｉＷａｎｇＬｕｏＫｅＪｉＹｏｕＸｉａｎＧｏｎｇＳｉ,,外国会社等,,,,,,,,ＨｕＭｅｎＺｈｅｎＬｏｎｇＹａｎＤｏｎｇＥｒＬｕＢａＸｉａｎｇ２１Ｈａｏ５０２Ｆａｎｇ　ＤｏｎｇＧｕａｎＳｈｉ　ＧｕａｎｇＤｏｎｇＳｈｅｎｇ　５２３８９９　ＣＮ,,,,,,2023-05-12,1,,,,,ドングワンシーゾンチエンミーワンルオコージーヨウシエンゴンスー,0
2208,8010001235272,新規,0,2023-05-12,2023-05-12,株式会社月と文社,,株式会社,東京都,中央区,銀座１丁目１２番４号Ｎ＆Ｅビル６階,,13,102,1040061,,,,,,,2023-05-12,1,,,,,ツキトフミシャ,0
2209,8010001235280,新規,0,2023-05-12,2023-05-12,株式会社Ｓ＆Ｔ,,株式会社,東京都,中央区,月島４丁目８－１５－６１６,,13,102,1040052,,,,,,,2023-05-12,1,,,,,エスアンドティー,0
2213,8010003040555,新規,0,2023-05-12,2023-05-12,ルビー合同会社,,合同会社,東京都,千代田区,丸の内３丁目１番１号東京共同会計事務所内,,13,101,1000005,,,,,,,2023-05-12,1,,,,,ルビー,0
2216,8010005036659,新規,0,2023-05-12,2023-05-12,監査法人エイル,,その他の設立登記法人,東京都,千代田区,神田神保町２丁目１１番１５,,13,101,1010051,,,,,,,2023-05-12,1,,,,,エイル,0
2220,8010401174129,新規,0,2023-05-12,2023-05-12,株式会社Ｕｎｉｔｅｄ　Ｓｅｅｄ,,株式会社,東京都,港区,南青山４丁目８番４号パレス南青山４０３,,13,103,1070062,,,,,,,2023-05-12,1,,,,,ユナイテッドシード,0
2221,8010401174178,新規,0,2023-05-12,2023-05-12,株式会社ＲＥ‐ＭｉＸ,,株式会社,東京都,港区,白金台５丁目４番１３－４０２号,,13,103,1080071,,,,,,,2023-05-12,1,,,,,リミックス,0
2222,8010401174211,新規,0,2023-05-12,2023-05-12,株式会社アントワ,,株式会社,東京都,港区,南青山３丁目１－３６－６Ｆ,,13,103,1070062,,,,,,,2023-05-12,1,,,,,アントワ,0
2225,8010403030073,新規,0,2023-05-12,2023-05-12,Ｃｈｅｖｒｏｎ　Ｎｅｗ　Ｅｎｅｒｇｉｅｓ　Ｊａｐａｎ合同会社,,合同会社,東京都,港区,六本木６丁目１０番１号六本木ヒルズ森タワー,,13,103,1060032,,,,,,,2023-05-12,1,,,,,シェブロンニューエナジーズジャパン,0
2226,8010501050436,新規,0,2023-05-12,2023-05-12,ＯＣＥＡＮ　Ｔｈｒｅｅ株式会社,,株式会社,東京都,台東区,今戸２丁目２４番１２号,,13,106,1110024,,,,,,,2023-05-12,1,,,,,オーシャンスリー,0
2227,8010501050444,新規,0,2023-05-12,2023-05-12,株式会社ＯＰＯＰ,,株式会社,東京都,台東区,浅草橋５丁目２番３号鈴和ビル２階,,13,106,1110053,,,,,,,2023-05-12,1,,,,,オポップ,0
2232,8010603010148,新規,0,2023-05-12,2023-05-12,合同会社ＦＯＵＲＮＩＮＥ,,合同会社,東京都,墨田区,江東橋３丁目５番８号,,13,107,1300022,,,,,,,2023-05-12,1,,,,,フォーナイン,0
2238,8010701044246,新規,0,2023-05-12,2023-05-12,株式会社５ｄｉｍｅｎｓｉｏｎＰｏｃｋｅｔ,,株式会社,東京都,品川区,上大崎３丁目２番１号,,13,109,1410021,,,,,,,2023-05-12,1,,,,,ファイブディメンションポケット,0
2252,8011001154272,新規,0,2023-05-12,2023-05-12,株式会社狸鍋,,株式会社,東京都,渋谷区,道玄坂１丁目１０番８号渋谷道玄坂東急ビル２Ｆ－Ｃ,,13,113,1500043,,,,,,,2023-05-12,1,,,,,タヌキナベ,0
2253,8011001154306,新規,0,2023-05-12,2023-05-12,谷林豊株式会社,,株式会社,東京都,目黒区,青葉台２丁目１６番１２号メゾン鳳月２０８号,,13,110,1530042,,,,,,,2023-05-12,1,,,,,ヤリンホウ,0
2254,8011001154314,新規,0,2023-05-12,2023-05-12,ａＩＤ株式会社,,株式会社,東京都,渋谷区,神宮前５丁目４６番１号,,13,113,1500001,,,,,,,2023-05-12,1,,,,,エーアイディー,0
2255,8011001154322,新規,0,2023-05-12,2023-05-12,株式会社Ｍｅｄｉｃａｌ　ＤＸ,,株式会社,東京都,渋谷区,松濤１丁目２９番２４号シティコート松濤２０２,,13,113,1500046,,,,,,,2023-05-12,1,,,,,メディカルディーエックス,0
2256,8011001154339,新規,0,2023-05-12,2023-05-12,株式会社日日漢方,,株式会社,東京都,渋谷区,大山町４６番１１号大山町アングル２０５,,13,113,1510065,,,,,,,2023-05-12,1,,,,,ニチニチカンポウ,0
2257,8011001154371,新規,0,2023-05-12,2023-05-12,株式会社Ｔａｓｔｅ　Ｌｉｎｋ,,株式会社,東京都,渋谷区,渋谷３丁目１番９号ＹＡＺＡＷＡビル３階,,13,113,1500002,,,,,,,2023-05-12,1,,,,,テイストリンク,0
2262,8011005010067,新規,0,2023-05-12,2023-05-12,一般社団法人Ｓｔｕｄｉｏ１７,,その他の設立登記法人,東京都,渋谷区,神宮前３丁目１番３０号青山ソフトタウン３１５,,13,113,1500001,,,,,,,2023-05-12,1,,,,,スタジオジュウナナ,0
2263,8011101102833,新規,0,2023-05-12,2023-05-12,株式会社ＦＯＯＤ　ＦＯＲＥＳＴ,,株式会社,東京都,新宿区,百人町１丁目１０－１５新大久保駅ビル４Ｆ,,13,104,1690073,,,,,,,2023-05-12,1,,,,,フードフォレスト,0
2266,8011303004745,新規,0,2023-05-12,2023-05-12,合同会社クマダ,,合同会社,東京都,杉並区,浜田山３丁目２７－２３,,13,115,1680065,,,,,,,2023-05-12,1,,,,,クマダ,0
2267,8011303004753,新規,0,2023-05-12,2023-05-12,ＮＬＣ合同会社,,合同会社,東京都,杉並区,西荻北２丁目２３番５号グローリア西荻３０１,,13,115,1670042,,,,,,,2023-05-12,1,,,,,エヌエルシー,0
2270,8011403004001,新規,0,2023-05-12,2023-05-12,合同会社栗原論写真事務所,,合同会社,東京都,板橋区,大山東町４８番２号高野マンション３０１,00130467,13,119,1730014,,,,,,,2023-05-12,1,,,,,クリハラオサムシャシンジムショ,0
2275,8011603003918,新規,0,2023-05-12,2023-05-12,カミエール合同会社,,合同会社,東京都,練馬区,関町東１丁目２１番１８号,,13,120,1770052,,,,,,,2023-05-12,1,,,,,カミエール,0
2279,8011803005648,新規,0,2023-05-12,2023-05-12,日本瑞辰国際合同会社,,合同会社,東京都,足立区,栗原１丁目２１－２,,13,121,1230842,,,,,,,2023-05-12,1,,,,,ニホンズイシンコクサイ,0
2282,8012401040517,新規,0,2023-05-12,2023-05-12,株式会社ロックフォワード・ジャパン,,株式会社,東京都,調布市,布田４丁目２６番地１８,,13,208,1820024,,,,,,,2023-05-12,1,,,,,ロックフォワードジャパン,0
2283,8012401040525,新規,0,2023-05-12,2023-05-12,株式会社スマイルプロット,,株式会社,東京都,調布市,調布ケ丘３丁目３９番地１１調布が丘パーク・ホームズ９０１,,13,208,1820021,,,,,,,2023-05-12,1,,,,,スマイルプロット,0
2284,8012703002702,新規,0,2023-05-12,2023-05-12,合同会社ゴロー,,合同会社,東京都,西東京市,田無町３丁目７番３１－８０２号,,13,229,1880011,,,,,,,2023-05-12,1,,,,,ゴロー,0
2286,8013103001229,新規,0,2023-05-12,2023-05-12,ＭＡＳＴＡ　ＭＡＳＴＩ合同会社,,合同会社,東京都,あきる野市,野辺１２５５―５５,,13,228,1970823,,,,,,,2023-05-12,1,,,,,マスターマスティ,0
2291,8013301050762,新規,0,2023-05-12,2023-05-12,テクノワールド株式会社,,株式会社,東京都,豊島区,西池袋１丁目９番２号,,13,116,1710021,,,,,,,2023-05-12,1,,,,,テクノワールド,0
2294,8020001151452,新規,0,2023-05-12,2023-05-12,エーシーズ株式会社,,株式会社,神奈川県,横浜市西区,浅間町１丁目４番３号ウィザードビル４０２,,14,103,2200072,,,,,,,2023-05-12,1,,,,,エーシーズ,0
2295,8020001151510,新規,0,2023-05-12,2023-05-12,株式会社イゼルローン,,株式会社,神奈川県,横浜市泉区,上飯田町４５４３番地１ステーションハイツ１０２号,,14,116,2450018,,,,,,,2023-05-12,1,,,,,イゼルローン,0
2296,8020001151527,新規,0,2023-05-12,2023-05-12,株式会社Ｑｕａｒｋ,,株式会社,神奈川県,横浜市都筑区,北山田７丁目２－２６－６ルネス・サツキ２０５号室,,14,118,2240021,,,,,,,2023-05-12,1,,,,,クォーク,0
2300,8020003023897,新規,0,2023-05-12,2023-05-12,朝日堂舞台サービス合同会社,,合同会社,神奈川県,横浜市西区,北幸２丁目１０番地２８号むつみビル３Ｆ,,14,103,2200004,,,,,,,2023-05-12,1,,,,,アサヒドウブタイサービス,0
2306,8021003013079,新規,0,2023-05-12,2023-05-12,ＭＡＦＴＹ合同会社,,合同会社,神奈川県,小田原市,栄町１丁目５番１８号オレンヂビル１０４,,14,206,2500011,,,,,,,2023-05-12,1,,,,,マフティー,0
2314,8030001153679,新規,0,2023-05-12,2023-05-12,Ｔｉｍｅ　Ｓｏｌｕｔｉｏｎｓ株式会社,,株式会社,埼玉県,草加市,谷塚仲町１３２番地７,,11,221,3400025,,,,,,,2023-05-12,1,,,,,タイムソリューションズ,0
2315,8030001153745,新規,0,2023-05-12,2023-05-12,株式会社ＫＩＭＩ,,株式会社,埼玉県,川口市,前川２丁目１１番５号,,11,203,3330842,,,,,,,2023-05-12,1,,,,,キミ,0
2316,8030001153753,新規,0,2023-05-12,2023-05-12,株式会社ｆｉｎｅ,,株式会社,埼玉県,川口市,東領家１丁目１０番２５号,,11,203,3320003,,,,,,,2023-05-12,1,,,,,ファイン,0
2317,8030001153761,新規,0,2023-05-12,2023-05-12,高昇株式会社,,株式会社,埼玉県,春日部市,大沼４丁目１０２番地５,,11,214,3440038,,,,,,,2023-05-12,1,,,,,タカショウ,0
2318,8030001153786,新規,0,2023-05-12,2023-05-12,株式会社ａｂｎｏｒｍａｌ,,株式会社,埼玉県,東松山市,元宿１丁目３３番地１５,,11,212,3550063,,,,,,,2023-05-12,1,,,,,アブノーマル,0
2319,8030001153811,新規,0,2023-05-12,2023-05-12,株式会社Ｌｉｔｉｔ,,株式会社,埼玉県,さいたま市大宮区,宮町１丁目８６番１号,,11,103,3300802,,,,,,,2023-05-12,1,,,,,リティット,0
2324,8030003021710,新規,0,2023-05-12,2023-05-12,合同会社Ｙ＆ＥＮＴ,,合同会社,埼玉県,川口市,南前川２丁目１９番６号,,11,203,3330846,,,,,,,2023-05-12,1,,,,,ワイアンドイーエヌティー,0
2325,8030005021254,新規,0,2023-05-12,2023-05-12,社会保険労務士法人シンミドウ,,その他の設立登記法人,埼玉県,さいたま市大宮区,桜木町４丁目２４４番地１都築ビル,,11,103,3300854,,,,,,,2023-05-12,1,,,,,シンミドウ,0
2327,8040001128390,新規,0,2023-05-12,2023-05-12,株式会社ＮＥＸＵＳ,,株式会社,千葉県,千葉市若葉区,桜木北３丁目２０番４１号グレイスコート２０６号,,12,104,2640029,,,,,,,2023-05-12,1,,,,,ネクサス,0
2328,8040001128399,新規,0,2023-05-12,2023-05-12,株式会社ＰＯＮＯＬＡ,,株式会社,千葉県,八千代市,村上１３２５番地１プロムナードＫＩ２０１号室,00130477,12,221,2760028,,,,,,,2023-05-12,1,,,,,ポノラ,0
2329,8040003022468,新規,0,2023-05-12,2023-05-12,合同会社Ｅｎｔａｍｙ,,合同会社,千葉県,柏市,宿連寺４４８番地２７,,12,217,2770826,,,,,,,2023-05-12,1,,,,,エンタミー,0
2332,8050003007484,新規,0,2023-05-12,2023-05-12,合同会社オサム建築,,合同会社,茨城県,常総市,国生１３２１番地２,,08,211,3002741,,,,,,,2023-05-12,1,,,,,オサムケンチク,0
2334,8070001040452,新規,0,2023-05-12,2023-05-12,株式会社Ｂｏｕｑｕｅｔ,,株式会社,群馬県,前橋市,力丸町１２３番地１,,10,201,3792134,,,,,,,2023-05-12,1,,,,,ブーケ,0
2338,8080103002804,新規,0,2023-05-12,2023-05-12,合同会社一二三座,,合同会社,静岡県,伊東市,湯川５６４番地の１５,,22,208,4140002,,,,,,,2023-05-12,1,,,,,ヒフミザ,0
2339,8090001018117,新規,0,2023-05-12,2023-05-12,株式会社ＳＹＯ,,株式会社,山梨県,南アルプス市,下宮地３０３番地１,,19,208,4000405,,,,,,,2023-05-12,1,,,,,エスワイオー,0
2340,8090003002309,新規,0,2023-05-12,2023-05-12,合同会社ＨＢＳ　Ｆａｃｔｏｒｙ,,合同会社,山梨県,西八代郡市川三郷町,大塚４３３３番地１,,19,346,4093611,,,,,,,2023-05-12,1,,,,,エイチビーエスファクトリー,0
2341,8100001036397,新規,0,2023-05-12,2023-05-12,共栄マネジメント株式会社,,株式会社,長野県,上田市,上田１８７１番８,,20,203,3860001,,,,,,,2023-05-12,1,,,,,キョウエイマネジメント,0
2348,8110001037535,新規,0,2023-05-12,2023-05-12,株式会社ＦｏｒｅｓｔＦｏｌｋｓ,,株式会社,新潟県,南魚沼市,片田１５３番地,,15,226,9496404,,,,,,,2023-05-12,1,,,,,フォレストフォークス,0
2357,8120101067514,新規,0,2023-05-12,2023-05-12,株式会社ＮＡＺＵＫＩ,,株式会社,大阪府,泉佐野市,羽倉崎１丁目２番１５号,,27,213,5980046,,,,,,,2023-05-12,1,,,,,ナズキ,0
2358,8120901047517,新規,0,2023-05-12,2023-05-12,ＨＭ技研株式会社,,株式会社,大阪府,箕面市,百楽荘３丁目８番２８号,,27,220,5620042,,,,,,,2023-05-12,1,,,,,エイチエムギケン,0
2359,8120905006460,新規,0,2023-05-12,2023-05-12,一般社団法人日本美術刀剣保存協会大阪支部,,その他の設立登記法人,大阪府,吹田市,高野台３丁目１５番６号,,27,205,5650861,,,,,,,2023-05-12,1,,,,,ニホンビジュツトウケンホゾンキョウカイオオサカシブ,0
2360,8122001036953,新規,0,2023-05-12,2023-05-12,株式会社ドリーム,,株式会社,大阪府,大東市,太子田３丁目１番５号,,27,218,5740045,,,,,,,2023-05-12,1,,,,,ドリーム,0
2362,8122003002581,新規,0,2023-05-12,2023-05-12,合同会社ｅｉｇｈｔ８,,合同会社,大阪府,東大阪市,水走３丁目６－１－５０３ｍａｋｅ第８マンション,,27,227,5780921,,,,,,,2023-05-12,1,,,,,エイト,0
2363,8122005003677,新規,0,2023-05-12,2023-05-12,一般財団法人清水記念財団,,その他の設立登記法人,大阪府,八尾市,大字山畑３７７番地,,27,212,5810864,,,,,,,2023-05-12,1,,,,,シミズキネンザイダン,0
2366,8130001074312,新規,0,2023-05-12,2023-05-12,株式会社ＳＥＡＳＯＮＳ,,株式会社,京都府,京都市中京区,玉蔵町１２１番地美濃利ビル５０３,,26,104,6048211,,,,,,,2023-05-12,1,,,,,シーズンズ,0
2374,8140001130139,新規,0,2023-05-12,2023-05-12,グリーンワークス株式会社,,株式会社,兵庫県,高砂市,阿弥陀町魚橋１０７６番地の８,,28,216,6760822,,,,,,,2023-05-12,1,,,,,グリーンワークス,0
2375,8140001130188,新規,0,2023-05-12,2023-05-12,株式会社ＳＨＯＲＥ,,株式会社,兵庫県,神戸市中央区,八幡通４丁目２番１３号フラワーロード青山ビル９階,,28,110,6510085,,,,,,,2023-05-12,1,,,,,ショア,0
2378,8150001026393,新規,0,2023-05-12,2023-05-12,株式会社プラム,,株式会社,奈良県,奈良市,大宮町６丁目１番地の１０松井ビル１階,,29,201,6308115,,,,,,,2023-05-12,1,,,,,プラム,0
2379,8160005011192,新規,0,2023-05-12,2023-05-12,一般社団法人草野川の郷,,その他の設立登記法人,滋賀県,長浜市,鍛冶屋町６９１番地,,25,203,5260204,,,,,,,2023-05-12,1,,,,,クサノガワノサト,0
2380,8170001017597,新規,0,2023-05-12,2023-05-12,株式会社Ｌｉｎｏ,,株式会社,和歌山県,岩出市,溝川２１４番地の１６,,30,209,6496221,,,,,,,2023-05-12,1,,,,,リノ,0
2390,8180005020217,新規,0,2023-05-12,2023-05-12,アジアトラスト協同組合,,その他の設立登記法人,愛知県,名古屋市中川区,中郷４丁目１５０番地,,23,110,4540921,,,,,,,2023-05-12,1,,,,,アジアトラスト,0
2394,8180301037385,新規,0,2023-05-12,2023-05-12,ＲＡＩＤＥＮ株式会社,,株式会社,愛知県,西尾市,吉良町吉田天笠桂３８番地４９,,23,213,4440516,,,,,,,2023-05-12,1,,,,,ライデン,0
2395,8180303005704,新規,0,2023-05-12,2023-05-12,合同会社プラントン,,合同会社,愛知県,岡崎市,渡町字大榎５３－１,,23,202,4440933,,,,,,,2023-05-12,1,,,,,プラントン,0
2399,8190001030400,新規,0,2023-05-12,2023-05-12,クラフトメイド株式会社,,株式会社,三重県,四日市市,小古曽２丁目２番１５号,,24,202,5100958,,,,,,,2023-05-12,1,,,,,クラフトメイド,0
2402,8200001041305,新規,0,2023-05-12,2023-05-12,ハニー株式会社,,株式会社,岐阜県,不破郡垂井町,表佐２８０６番地の１,,21,361,5032122,,,,,,,2023-05-12,1,,,,,ハニー,0
2405,8200003005951,新規,0,2023-05-12,2023-05-12,ＣＲＧ合同会社,,合同会社,岐阜県,関市,広見２４６７番地８,,21,205,5013263,,,,,,,2023-05-12,1,,,,,シーアールジー,0
2407,8210001019309,新規,0,2023-05-12,2023-05-12,株式会社Ｌｉｆｅ　ｃｏｌｏｒ,,株式会社,福井県,大野市,中据第１５号９番地,,18,205,9120437,,,,,,,2023-05-12,1,,,,,ライフカラー,0
2418,8260001037941,新規,0,2023-05-12,2023-05-12,株式会社メタリハ,,株式会社,岡山県,岡山市北区,庭瀬４９８－２,,33,101,7010153,,,,,,,2023-05-12,1,,,,,メタリハ,0
2427,8290001101505,新規,0,2023-05-12,2023-05-12,株式会社ダンデライオン,,株式会社,福岡県,福岡市西区,愛宕３丁目３番５７号,,40,135,8190015,,,,,,,2023-05-12,1,,,,,ダンデライオン,0
2428,8290001101513,新規,0,2023-05-12,2023-05-12,株式会社Ｌｉｎｏｌａ,,株式会社,福岡県,福岡市博多区,奈良屋町２番１６号,,40,132,8120023,,,,,,,2023-05-12,1,,,,,リノラ,0
2429,8290003013896,新規,0,2023-05-12,2023-05-12,合同会社スカイ,,合同会社,福岡県,嘉麻市,上臼井３２４番地９,,40,227,8200502,,,,,,,2023-05-12,1,,,,,スカイ,0
2430,8290003013905,新規,0,2023-05-12,2023-05-12,合同会社西野デザイン,,合同会社,福岡県,福岡市東区,筥松新町５番１７号,,40,131,8120067,,,,,,,2023-05-12,1,,,,,ニシノデザイン,0
2431,8290005019041,新規,0,2023-05-12,2023-05-12,医療法人やまだ皮ふ科クリニック,,その他の設立登記法人,福岡県,糟屋郡須惠町,大字旅石２３２番１,,40,344,8112221,,,,,,,2023-05-12,1,,,,,ヤマダヒフカクリニック,0
2432,8310001018416,新規,0,2023-05-12,2023-05-12,株式会社ヴリオ,,株式会社,長崎県,長崎市,万屋町５番３２号,,42,201,8500852,,,,,,,2023-05-12,1,,,,,ヴリオ,0
2433,8310003004570,新規,0,2023-05-12,2023-05-12,合同会社ＳＵＤｅ,,合同会社,長崎県,諫早市,小長井町井崎３５番地７,,42,204,8590166,,,,,,,2023-05-12,1,,,,,スーデ,0
2435,8320003004082,新規,0,2023-05-12,2023-05-12,合同会社ブリガン,,合同会社,大分県,大分市,中央町２丁目３－１０二八堂ビル３階６号室,,44,201,8700035,,,,,,,2023-05-12,1,,,,,ブリガン,0
2438,8330001030856,新規,0,2023-05-12,2023-05-12,株式会社ｆｌｙｉｎｇ　Ａ,,株式会社,熊本県,熊本市中央区,安政町６番１２号３Ｆ,,43,101,8600801,,,,,,,2023-05-12,1,,,,,フライングエー,0
2439,8330001030864,新規,0,2023-05-12,2023-05-12,株式会社三栄メディカル,,株式会社,熊本県,熊本市中央区,水道町７番１６号,,43,101,8600844,,,,,,,2023-05-12,1,,,,,サンエイメディカル,0
2441,8340001025574,新規,0,2023-05-12,2023-05-12,株式会社熊野設備,,株式会社,鹿児島県,西之表市,現和６２２４番地５,,46,213,8913103,,,,,,,2023-05-12,1,,,,,クマノセツビ,0
2442,8340001025582,新規,0,2023-05-12,2023-05-12,重田養殖株式会社,,株式会社,鹿児島県,志布志市,有明町蓬原２４４２番地９,00130473,46,221,8997503,,,,,,,2023-05-12,1,,,,,シゲタヨウショク,0
2446,8350001018354,新規,0,2023-05-12,2023-05-12,アオイ功建株式会社,,株式会社,宮崎県,宮崎市,田野町乙９５９７番地５６,,45,201,8891702,,,,,,,2023-05-12,1,,,,,アオイコウケン,0
2459,8430001089016,新規,0,2023-05-12,2023-05-12,株式会社夢屋,,株式会社,北海道,岩内郡岩内町,字宮園２７３番地１,,01,402,0450012,,,,,,,2023-05-12,1,,,,,ユメヤ,0
2460,8430001089040,新規,0,2023-05-12,2023-05-12,辰樹商事株式会社,,株式会社,北海道,室蘭市,中央町３丁目７番１号,,01,205,0510011,,,,,,,2023-05-12,1,,,,,タツキショウジ,0
2466,8450001013980,新規,0,2023-05-12,2023-05-12,株式会社ドゥー・アップ,,株式会社,北海道,旭川市,豊岡五条８丁目２番１４号,,01,204,0788235,,,,,,,2023-05-12,1,,,,,ドゥーアップ,0
2469,8470001019613,新規,0,2023-05-12,2023-05-12,株式会社カエルとねこ,,株式会社,香川県,さぬき市,長尾西２２４０番地１,,37,206,7692302,,,,,,,2023-05-12,1,,,,,カエルトネコ,0
2470,8470003002419,新規,0,2023-05-12,2023-05-12,Ｓ．Ｐｒｏｊｅｃｔ合同会社,,合同会社,香川県,高松市,成合町８６２番地７,,37,201,7618081,,,,,,,2023-05-12,1,,,,,エスプロジェクト,0
2471,8700150116014,新規,0,2023-05-12,2023-05-12,Ｋａｉ　Ｐｉｎｇ　Ｓｈｉ　Ｘｕｅ　Ｎｕｏ　Ｗｅｉ　Ｙｕ　Ｙｏｕ　Ｘｉａｎ　Ｇｏｎｇ　Ｓｉ,,外国会社等,,,,,,,,Ｚｈｏｎｇ　Ｇｕｏ　Ｗｅｉ　Ｙｕ　Ｃｈｅｎｇ　Ｄｉ　Ｙｉ　Ｃｅｎｇ　１Ｂ０７　Ｈａｏ　Ｋａｉ　Ｐｉｎｇ　Ｇｕａｎｇ　Ｄｏｎｇ　Ｓｈｅｎｇ,,,,,,2023-05-12,1,,,,,カイピンシシェノウェイユユウゲンコウシ,0
2472,8700150116022,新規,0,2023-05-12,2023-05-12,ｑｕａｎｚｈｏｕｓｈｉ　ｓｈｕａｎｇｌｉｗａｎｇｌｕｏｋｅｊｉ　ｙｏｕｘｉａｎｇｏｎｇｓｉ,,外国会社等,,,,,,,,ｑｉｎｇｙａｎｇｊｉｅｄａｏ　ｘｉａｘｉｎｇｓｈｅｑｕ　ｑｕａｎａｎｚｈｏｎｇｌｕ　ｇｕｏｍａｏｄｉａｎｎａｏｃｈｅｎｇ　１５２ｈａｏ　ｊｉｎｊｉａｎｇ　ｆｕｊｉａｎ,,,,,,2023-05-12,1,,,,,ツェンゾォウシスゥアンリワンロケジユウゲンコウシ,0
2473,8700150116030,新規,0,2023-05-12,2023-05-12,Ｇｕａｎｇｚｈｏｕ　Ｌａｎｄｓｃａｐｅ　ｃｏｍｍｕｎｉｃａｔｉｏｎ　Ｅｑｕｉｐｍｅｎｔ　Ｃｏ．，Ｌｔｄ．,,外国会社等,,,,,,,,ＮＯ．１０１　Ｎｏ．２　Ｔａｎｗｅｉ　Ｒｏａｄ，Ｌｉｗａｎ　Ｄｉｓｔｒｉｃｔ　Ｇｕａｎｇｚｈｏｕ　Ｇｕａｎｇｄｏｎｇ,,,,,,2023-05-12,1,,,,,グゥアンゾォウランドスケイプコミュニケイションイクイップメントカンパニーリミテッド,0
2474,8700150116039,新規,0,2023-05-12,2023-05-12,ｓｈｅｎｚｈｅｎｓｈｉ　ｊｉａｎｇｌｉｕｅｒｄｅｃａｏｌｉｎｋｅｊｉ　ｙｏｕｘｉａｎｇｏｎｇｓｉ,,外国会社等,,,,,,,,ｍｉｎｚｈｉｊｉｅｄａｏ　ｍｉｎｑｉａｎｇｓｈｅｑｕ　ｘｉａｎｇｎａｎｙｉｑｕ　３６ｄｏｎｇ１０６２　ｓｈｅｎｚｈｅｎｓｈｉ　ｇｕａｎｇｄｏｎｇｓｈｅｎｇ,,,,,,2023-05-12,1,,,,,シンセンシジャンリュウエデェツァオリンケジユウゲンコウシ,0
2475,8700150116047,新規,0,2023-05-12,2023-05-12,Ｃ．ＪＥＴ　ＩＮＴＬ　ＣＯ．，ＬＴＤ．,,外国会社等,,,,,,,,１Ｆ．，Ｎｏ．１４０，Ｓｅｃ．１，Ｔａｉｈｅ　Ｒｄ．，Ｂｅｉｔｕｎ　Ｄｉｓｔ．，Ｔａｉｃｈｕｎｇ　Ｃｉｔｙ　４０６６１，Ｔａｉｗａｎ（Ｒ．Ｏ．Ｃ）,,,,,,2023-05-12,1,,,,,チージエグオジーシーイエヨウシエンゴンスー,0
2476,8700150116055,新規,0,2023-05-12,2023-05-12,Ｄｏｎｇｇｕａｎ　Ｘｉｎｈｅ　Ｔｒａｄｉｎｇ　Ｃｏ．，Ｌｔｄ,,外国会社等,,,,,,,,Ｕｎｉｔ　４０３，Ｂｕｉｌｄｉｎｇ　１，Ｎｏ．８，Ｎｏｒｔｈ　２ｎｄ　Ｓｔｒｅｅｔ，Ｄａｘｉｎ　Ｒｏａｄ，Ｇｅｄｉ　Ｃｏｍｍｕｎｉｔｙ，Ｎａｎｃｈｅｎｇ　Ｓｔｒｅｅｔ，Ｄｏｎｇｇｕａｎ　Ｃｉｔｙ,,,,,,2023-05-12,1,,,,,ドングワンシーシンホーマオイーヨウシエンゴンスー,0
2477,8700150116063,新規,0,2023-05-12,2023-05-12,ＤｏｎｇＧｕａｎＳｈｉＨａｉＺａｉＷｏＷａｎｇＬｕｏＫｅＪｉＹｏｕＸｉａｎＧｏｎｇＳｉ,,外国会社等,,,,,,,,ＨｕＭｅｎＺｈｅｎＨｕＭｅｎＸｉｎＬｉａｎＳｈｉＳａｎＸｉａｎｇ３９Ｈａｏ３０１ＦａｎｇＤｏｎｇＧｕａｎＳｈｉ　ＧｕａｎｇＤｏｎｇＳｈｅｎｇ　５２３８９９　ＣＮ,,,,,,2023-05-12,1,,,,,ドングワンシーハイザイウオワンルオコージーヨウシエンゴンスー,0
2490,9010001235230,新規,0,2023-05-12,2023-05-12,株式会社リジエル,,株式会社,東京都,文京区,本駒込５丁目５６番６号,,13,105,1130021,,,,,,,2023-05-12,1,,,,,リジエル,0
2491,9010001235263,新規,0,2023-05-12,2023-05-12,株式会社ラ・クゥルール,,株式会社,東京都,中央区,銀座１丁目１２番４号Ｎ＆ＥＢＬＤ．７階,,13,102,1040061,,,,,,,2023-05-12,1,,,,,ラクゥルール,0
2492,9010001235271,新規,0,2023-05-12,2023-05-12,株式会社ＫＳＴ６,,株式会社,東京都,千代田区,内幸町２丁目１番６号,,13,101,1000011,,,,,,,2023-05-12,1,,,,,ケイエスティシックス,0
2497,9010005036666,新規,0,2023-05-12,2023-05-12,一般社団法人日本婚活ダイエット協会,,その他の設立登記法人,東京都,中央区,日本橋２丁目１６番３号１８山京ビル９０５号室,,13,102,1030027,,,,,,,2023-05-12,1,,,,,,0
2498,9010401174227,新規,0,2023-05-12,2023-05-12,ＮｏｖａＳｔｅｌｌａ株式会社,,株式会社,東京都,港区,南青山３丁目１番３６号青山丸竹ビル６Ｆ,,13,103,1070062,,,,,,,2023-05-12,1,,,,,ノヴァステラ,0
2500,9010403030064,新規,0,2023-05-12,2023-05-12,Ｂｉｏｍａｓｓ　Ｐｏｗｅｒ　Ｔｅｎ合同会社,,合同会社,東京都,港区,芝３丁目３１番６号サンライズ芝２Ｆ,,13,103,1050014,,,,,,,2023-05-12,1,,,,,バイオマスパワーテン,0
2501,9010403030089,新規,0,2023-05-12,2023-05-12,関西ロジスティクス合同会社,,合同会社,東京都,港区,元赤坂１丁目１番７号,,13,103,1070051,,,,,,,2023-05-12,1,,,,,カンサイロジスティクス,0
2502,9010405022084,新規,0,2023-05-12,2023-05-12,日鉄興和不動産プライベート投資法人,,その他の設立登記法人,東京都,港区,赤坂２丁目２３番１号,,13,103,1070052,,,,,,,2023-05-12,1,,,,,ニッテツコウワフドウサンプライベート,0
2504,9010501050435,新規,0,2023-05-12,2023-05-12,ｔｈａｎｋ　ｇｏｄ　ｆａｃｔｏｒｙ株式会社,,株式会社,東京都,台東区,三筋２丁目１５番３号,,13,106,1110055,,,,,,,2023-05-12,1,,,,,サンクゴッドファクトリー,0
2508,9010601063089,新規,0,2023-05-12,2023-05-12,Ｒｅ‐Ｋａｚ株式会社,,株式会社,東京都,江東区,富岡２丁目１１番１８号リードシー門前仲町４階,,13,108,1350047,,,,,,,2023-05-12,1,,,,,リカズ,0
2509,9010603010147,新規,0,2023-05-12,2023-05-12,Ｂａｚｚ　Ｔｒａｄｉｎｇ合同会社,,合同会社,東京都,江東区,東雲１丁目９番３１ー２２０８号,,13,108,1350062,,,,,,,2023-05-12,1,,,,,バズトレーディング,0
2510,9010701044229,新規,0,2023-05-12,2023-05-12,株式会社貴和,,株式会社,東京都,品川区,北品川２丁目１８番５号,,13,109,1400001,,,,,,,2023-05-12,1,,,,,キワ,0
2511,9010701044237,新規,0,2023-05-12,2023-05-12,株式会社ｓｌｏｗ　ａｎｄ　ｓｔｅａｄｙ,,株式会社,東京都,品川区,荏原６丁目６番１７－１０１号,,13,109,1420063,,,,,,,2023-05-12,1,,,,,スローアンドステディー,0
2512,9010701044245,新規,0,2023-05-12,2023-05-12,株式会社ＫＪＪｕｎｃｔｉｏｎ,,株式会社,東京都,品川区,東中延１丁目４番６－６０２号,,13,109,1420052,,,,,,,2023-05-12,1,,,,,ケイジェイジャンクション,0
2520,9010903008171,新規,0,2023-05-12,2023-05-12,ゴートマン合同会社,,合同会社,東京都,世田谷区,宮坂１丁目６―２６,,13,112,1560051,,,,,,,2023-05-12,1,,,,,ゴートマン,0
2529,9011001154370,新規,0,2023-05-12,2023-05-12,株式会社ギブエイチ,,株式会社,東京都,渋谷区,桜丘町２６－１セルリアンタワー１５階,,13,113,1500031,,,,,,,2023-05-12,1,,,,,ギブエイチ,0
2531,9011101102816,新規,0,2023-05-12,2023-05-12,株式会社ａｎｄ　Ｓ,,株式会社,東京都,新宿区,歌舞伎町１丁目３番１５号ザ・カテリーナビル６Ｆ,,13,104,1600021,,,,,,,2023-05-12,1,,,,,アンドエス,0
2533,9011203004076,新規,0,2023-05-12,2023-05-12,合同会社ＮＥＣＫ　ＷＩＳＴＥＲＩＡ,,合同会社,東京都,中野区,弥生町５丁目２５番１３－１３０２号,,13,114,1640013,,,,,,,2023-05-12,1,,,,,ネックウィステリア,0
2537,9011501029279,新規,0,2023-05-12,2023-05-12,株式会社ＵｒｕｒＵ,,株式会社,東京都,荒川区,町屋４丁目１番２２号,,13,118,1160001,,,,,,,2023-05-12,1,,,,,ウルル,0
2545,9012401040516,新規,0,2023-05-12,2023-05-12,株式会社ＴＭＳ,,株式会社,東京都,稲城市,大丸８５番地１０,,13,225,2060801,,,,,,,2023-05-12,1,,,,,ティーエムエス,0
2546,9012701017651,新規,0,2023-05-12,2023-05-12,株式会社當麻工業,,株式会社,東京都,小平市,小川東町５丁目１３番２３号,,13,211,1870031,,,,,,,2023-05-12,1,,,,,トウマコウギョウ,0
2547,9012803003079,新規,0,2023-05-12,2023-05-12,合同会社喜多ビル,,合同会社,東京都,国分寺市,光町３丁目２８番地１３,,13,214,1850034,,,,,,,2023-05-12,1,,,,,キタビル,0
2559,9020001151518,新規,0,2023-05-12,2023-05-12,株式会社ｂｉｏＥｇｇ,,株式会社,神奈川県,川崎市高津区,下作延４丁目２７番５１号,,14,134,2130033,,,,,,,2023-05-12,1,,,,,ビオエッグ,0
2560,9020001151575,新規,0,2023-05-12,2023-05-12,株式会社Ａｋａｌａｎａ,,株式会社,神奈川県,横浜市青葉区,荏子田２丁目９番地１１,,14,117,2250005,,,,,,,2023-05-12,1,,,,,アカラナ,0
2567,9020003023772,新規,0,2023-05-12,2023-05-12,フルール合同会社,,合同会社,神奈川県,川崎市中原区,市ノ坪２５５番地４,,14,133,2110016,,,,,,,2023-05-12,1,,,,,フルール,0
2568,9020003023896,新規,0,2023-05-12,2023-05-12,合同会社ＷＩＴＨ　ＴＥＲＡＳＳ,,合同会社,神奈川県,横浜市西区,北幸１丁目１１番１号水信ビル７階,,14,103,2200004,,,,,,,2023-05-12,1,,,,,ウィズテラス,0
2569,9020003023913,新規,0,2023-05-12,2023-05-12,合同会社Ｇｒｉｔ,,合同会社,神奈川県,川崎市高津区,溝口１丁目８番１２号カスタムビル３階,,14,134,2130001,,,,,,,2023-05-12,1,,,,,グリット,0
2570,9020005015990,新規,0,2023-05-12,2023-05-12,税理士法人関内会計,,その他の設立登記法人,神奈川県,横浜市中区,住吉町１丁目１４番地第一総業ビル３階,,14,104,2310013,,,,,,,2023-05-12,1,,,,,カンナイカイケイ,0
2576,9021001079014,新規,0,2023-05-12,2023-05-12,株式会社飯島造園土木,,株式会社,神奈川県,藤沢市,遠藤４２２９番地,,14,205,2520816,,,,,,,2023-05-12,1,,,,,イイジマゾウエンドボク,0
2579,9021003013078,新規,0,2023-05-12,2023-05-12,渡邉オフィス合同会社,,合同会社,神奈川県,相模原市中央区,千代田６丁目９番５号,,14,152,2520237,,,,,,,2023-05-12,1,,,,,ワタナベオフィス,0
2586,9030001153728,新規,0,2023-05-12,2023-05-12,株式会社ライズコンストラクション,,株式会社,埼玉県,さいたま市西区,大字佐知川５８２番地３,,11,101,3310064,,,,,,,2023-05-12,1,,,,,ライズコンストラクション,0
2587,9030001153736,新規,0,2023-05-12,2023-05-12,株式会社ＳＩＬＶＥＲ,,株式会社,埼玉県,川口市,西川口３丁目３番３号フィオーレ西川口２０１号,,11,203,3320021,,,,,,,2023-05-12,1,,,,,シルバー,0
2588,9030001153777,新規,0,2023-05-12,2023-05-12,株式会社大島商事,,株式会社,埼玉県,三郷市,戸ケ崎２９２３－５,,11,237,3410044,,,,,,,2023-05-12,1,,,,,オオシマショウジ,0
2589,9030001153793,新規,0,2023-05-12,2023-05-12,株式会社クリーンワーク,,株式会社,埼玉県,入間郡毛呂山町,大字箕和田１番地３４,,11,326,3500437,,,,,,,2023-05-12,1,,,,,クリーンワーク,0
2590,9030001153892,新規,0,2023-05-12,2023-05-12,株式会社ＤＥＲＳＩＭ,,株式会社,埼玉県,川口市,川口５丁目１８番４,,11,203,3320015,,,,,,,2023-05-12,1,,,,,デルスィム,0
2591,9030003021726,新規,0,2023-05-12,2023-05-12,合同会社ＴＹ　Ｈｏｍｅ’ｓ,,合同会社,埼玉県,さいたま市浦和区,常盤２丁目１０番１５号,,11,107,3300061,,,,,,,2023-05-12,1,,,,,ティーワイホームズ,0
2592,9030003021734,新規,0,2023-05-12,2023-05-12,合同会社祈声,,合同会社,埼玉県,さいたま市中央区,新中里１丁目８番４１,,11,105,3380011,,,,,,,2023-05-12,1,,,,,キセイ,0
2593,9030005021261,新規,0,2023-05-12,2023-05-12,一般社団法人地域医療を考える会,,その他の設立登記法人,埼玉県,川口市,弥平１丁目７番１－１００１号川口弥平パーク・ホームズ,,11,203,3320002,,,,,,,2023-05-12,1,,,,,チイキイリョウヲカンガエルカイ,0
2601,9040001128381,新規,0,2023-05-12,2023-05-12,株式会社ＨＫＳ,,株式会社,千葉県,千葉市稲毛区,長沼原町４９７－１０,,12,103,2630001,,,,,,,2023-05-12,1,,,,,エイチケイエス,0
2602,9040001128398,新規,0,2023-05-12,2023-05-12,株式会社Ｃｏｓｍｏｓ　Ｓｅｖｅｎ,,株式会社,千葉県,船橋市,西船１丁目９－１１ヴィラアモリース１０２,,12,204,2730031,,,,,,,2023-05-12,1,,,,,コスモスセブン,0
2603,9040001128407,新規,0,2023-05-12,2023-05-12,英建設工業株式会社,,株式会社,千葉県,富津市,二間塚４－１,,12,226,2930002,,,,,,,2023-05-12,1,,,,,エイケンセツコウギョウ,0
2606,9040003022574,新規,0,2023-05-12,2023-05-12,合同会社すぽっと,,合同会社,千葉県,千葉市花見川区,幕張町５丁目４０８番地５４号アイランド幕張１階,,12,102,2620032,,,,,,,2023-05-12,1,,,,,スポット,0
2607,9040003022582,新規,0,2023-05-12,2023-05-12,合同会社ブラン,,合同会社,千葉県,印西市,原２丁目５番地Ｅ棟３０３号,,12,231,2701335,,,,,,,2023-05-12,1,,,,,ブラン,0
2608,9040003022599,新規,0,2023-05-12,2023-05-12,Ｆ５　Ｔｒａｄｉｎｇ合同会社,,合同会社,千葉県,船橋市,上山町１丁目５５番地エステート上山５号棟２０５,,12,204,2730046,,,,,,,2023-05-12,1,,,,,エフファイブトレーディング,0
2609,9040003022616,新規,0,2023-05-12,2023-05-12,合同会社Ｐｒｉｍａｚｎ,,合同会社,千葉県,船橋市,薬円台１丁目３１番６号,,12,204,2740077,,,,,,,2023-05-12,1,,,,,プリマズン,0
2617,9060001035989,新規,0,2023-05-12,2023-05-12,株式会社グローネス,,株式会社,栃木県,宇都宮市,大通り３丁目１番１１号,,09,201,3200811,,,,,,,2023-05-12,1,,,,,グローネス,0
2618,9060001035997,新規,0,2023-05-12,2023-05-12,株式会社ｓａｃｏ,,株式会社,栃木県,宇都宮市,南大通り３丁目６番１１号さわやグリーンハイツ１０１,,09,201,3210963,,,,,,,2023-05-12,1,,,,,サコ,0
2626,9080101023999,新規,0,2023-05-12,2023-05-12,株式会社ＢＥＮＧＡＬ,,株式会社,静岡県,駿東郡清水町,伏見１５３番地の１サンクレイドル清水柿田川３１３,,22,341,4110907,,,,,,,2023-05-12,1,,,,,ベンガル,0
2634,9100001036396,新規,0,2023-05-12,2023-05-12,通販成約支援株式会社,,株式会社,長野県,長野市,大字東和田８４２番地ＣＯＲＥＯＦＦＩＣＥ３０１号室,,20,201,3810038,,,,,,,2023-05-12,1,,,,,ツウハンセイヤクシエン,0
2635,9100003007008,新規,0,2023-05-12,2023-05-12,合同会社中園,,合同会社,長野県,下伊那郡喬木村,２６３４番地,,20,415,3951100,,,,,,,2023-05-12,1,,,,,ナカゾノ,0
2638,9110001037526,新規,0,2023-05-12,2023-05-12,株式会社雅,,株式会社,新潟県,阿賀野市,外城町２５番３４－７号,,15,223,9592022,,,,,,,2023-05-12,1,,,,,ミヤビ,0
2639,9110001037534,新規,0,2023-05-12,2023-05-12,株式会社あさひ野不動産サポート,,株式会社,新潟県,上越市,吉川区西野島１２８５番地,,15,222,9493434,,,,,,,2023-05-12,1,,,,,アサヒノフドウサンサポート,0
2647,9120001254780,新規,0,2023-05-12,2023-05-12,日本宮崎集団株式会社,,株式会社,大阪府,大阪市浪速区,芦原１丁目１番７号フォレスト難波西１階,00130462,27,111,5560029,,,,,,,2023-05-12,1,,,,,ニホンミヤザキシュウダン,0
2648,9120001254806,新規,0,2023-05-12,2023-05-12,株式会社Ｒｅｆｉｎｅ,,株式会社,大阪府,大阪市北区,梅田１丁目２番２号大阪駅前第二ビル１２－１２,,27,127,5300001,,,,,,,2023-05-12,1,,,,,リファイン,0
2649,9120001254822,新規,0,2023-05-12,2023-05-12,株式会社Ｉ　ＡＭ,,株式会社,大阪府,大阪市福島区,福島６丁目４番１－６０８号,,27,103,5530003,,,,,,,2023-05-12,1,,,,,アイアム,0
2650,9120003023977,新規,0,2023-05-12,2023-05-12,合同会社トレカトレーナーズ,,合同会社,大阪府,大阪市北区,梅田１丁目２番２号大阪駅前第２ビル１２－１２,,27,127,5300001,,,,,,,2023-05-12,1,,,,,トレカトレーナーズ,0
2651,9120003024001,新規,0,2023-05-12,2023-05-12,Ｉｃｈｉｂａ　Ｊａｐａｎ合同会社,,合同会社,大阪府,大阪市中央区,西心斎橋２丁目７番２２－２０１号,,27,128,5420086,,,,,,,2023-05-12,1,,,,,イチバジャパン,0
2652,9120003024067,新規,0,2023-05-12,2023-05-12,合同会社Ｂｏｎｏｒｕｍ,,合同会社,大阪府,大阪市福島区,鷺洲３丁目６番１０号シティタワー大阪福島７０１号,,27,103,5530002,,,,,,,2023-05-12,1,,,,,ボノラム,0
2659,9120901047466,新規,0,2023-05-12,2023-05-12,万家管理株式会社,,株式会社,大阪府,高槻市,郡家新町１番４３号１Ａ室,,27,207,5691136,,,,,,,2023-05-12,1,,,,,バンカカンリ,0
2660,9120901047508,新規,0,2023-05-12,2023-05-12,株式会社原田商会,,株式会社,大阪府,茨木市,宿川原町２番１２号,,27,211,5670055,,,,,,,2023-05-12,1,,,,,ハラダショウカイ,0
2661,9120901047516,新規,0,2023-05-12,2023-05-12,株式会社Ｕｎｉｔｅｄ　Ｇｒｏｗｔｈ,,株式会社,大阪府,豊中市,長興寺南４丁目１番３－２０５号,,27,203,5610874,,,,,,,2023-05-12,1,,,,,ユナイテッドグロース,0
2662,9120901047524,新規,0,2023-05-12,2023-05-12,Ｂｉｎｇｅ株式会社,,株式会社,大阪府,豊中市,北条町１丁目２２－７－４０１,,27,203,5610812,,,,,,,2023-05-12,1,,,,,ビンジ,0
2667,9130001074294,新規,0,2023-05-12,2023-05-12,株式会社Ｌａｇｕｒｕｓ,,株式会社,京都府,京都市伏見区,納屋町１２４－３ユートピアプラザビル６階,,26,109,6128363,,,,,,,2023-05-12,1,,,,,ラグラス,0
2668,9130001074303,新規,0,2023-05-12,2023-05-12,株式会社コム京都,,株式会社,京都府,京都市北区,等持院西町５７,,26,101,6038354,,,,,,,2023-05-12,1,,,,,コムキョウト,0
2669,9130001074311,新規,0,2023-05-12,2023-05-12,株式会社ヴォイスコレクション,,株式会社,京都府,京都市中京区,町頭町１１２番地菊三ビル３０３,,26,104,6048206,,,,,,,2023-05-12,1,,,,,ヴォイスコレクション,0
2671,9130003008721,新規,0,2023-05-12,2023-05-12,合同会社銀葉,,合同会社,京都府,京都市上京区,室町通上立売上る室町頭町２７０番地２,,26,102,6020029,,,,,,,2023-05-12,1,,,,,ギンヨウ,0
2677,9140001130179,新規,0,2023-05-12,2023-05-12,株式会社まこと工務店,,株式会社,兵庫県,神戸市長田区,駒ケ林町３丁目６番５号,,28,106,6530043,,,,,,,2023-05-12,1,,,,,マコトコウムテン,0
2678,9140001130187,新規,0,2023-05-12,2023-05-12,ワイズ株式会社,,株式会社,兵庫県,神戸市北区,泉台３丁目４番地の１、５１０号,,28,109,6511141,,,,,,,2023-05-12,1,,,,,ワイズ,0
2679,9140001130195,新規,0,2023-05-12,2023-05-12,株式会社ＡｄＧｒａｃｅ,,株式会社,兵庫県,神戸市北区,広陵町４丁目９６,,28,109,6511213,,,,,,,2023-05-12,1,,,,,アドグレイス,0
2688,9160001025047,新規,0,2023-05-12,2023-05-12,株式会社レイクロジ,,株式会社,滋賀県,彦根市,地蔵町１０１番地１,,25,202,5220029,,,,,,,2023-05-12,1,,,,,レイクロジ,0
2691,9170003001870,新規,0,2023-05-12,2023-05-12,紀州ライヤ農園合同会社,,合同会社,和歌山県,和歌山市,友田町４丁目１０１番地,,30,201,6408342,,,,,,,2023-05-12,1,,,,,キシュウライヤノウエン,0
2697,9180001156311,新規,0,2023-05-12,2023-05-12,ブライトハーツ株式会社,,株式会社,愛知県,名古屋市中村区,名駅４丁目６番２３号第三堀内ビル９Ｆ,,23,105,4500002,,,,,,,2023-05-12,1,,,,,ブライトハーツ,0
2700,9180003025217,新規,0,2023-05-12,2023-05-12,合同会社ＳＫＰ,,合同会社,愛知県,名古屋市中川区,供米田３丁目７０６番地,,23,110,4540984,,,,,,,2023-05-12,1,,,,,エスケーピー,0
2701,9180003025233,新規,0,2023-05-12,2023-05-12,ＫＴＴクリエーション合同会社,,合同会社,愛知県,名古屋市中村区,名駅４丁目２４番５号第２森ビル４０１,,23,105,4500002,,,,,,,2023-05-12,1,,,,,ケイティティクリエーション,0
2706,9180301037384,新規,0,2023-05-12,2023-05-12,株式会社イノベーション,,株式会社,愛知県,西尾市,富山２丁目３番地３１,,23,213,4440329,,,,,,,2023-05-12,1,,,,,イノベーション,0
2707,9180303005703,新規,0,2023-05-12,2023-05-12,合同会社サムズアップ,,合同会社,愛知県,豊田市,浄水町伊保原６４２番地２,,23,211,4700343,,,,,,,2023-05-12,1,,,,,サムズアップ,0
2710,9190001030399,新規,0,2023-05-12,2023-05-12,株式会社こさく,,株式会社,三重県,伊勢市,御薗町新開５５８－１,,24,203,5160802,,,,,,,2023-05-12,1,,,,,コサク,0
2713,9200001041295,新規,0,2023-05-12,2023-05-12,Ｒ．Ｓｙｓｔｅｍ株式会社,,株式会社,岐阜県,大垣市,赤坂町８１９番地５,,21,202,5032213,,,,,,,2023-05-12,1,,,,,アールシステム,0
2726,9220001025404,新規,0,2023-05-12,2023-05-12,株式会社小松山田修整,,株式会社,石川県,能美市,大浜町ラ８６番地１,,17,211,9290122,,,,,,,2023-05-12,1,,,,,コマツヤマダシュウセイ,0
2727,9220003003515,新規,0,2023-05-12,2023-05-12,合同会社カズプランニング,,合同会社,石川県,かほく市,大崎潮見台８４番地,,17,209,9291127,,,,,,,2023-05-12,1,,,,,カズプランニング,0
2730,9230001019834,新規,0,2023-05-12,2023-05-12,岡田住設株式会社,,株式会社,富山県,魚津市,天神野新３４４番地２,,16,204,9370013,,,,,,,2023-05-12,1,,,,,オカダジュウセツ,0
2731,9230003002012,新規,0,2023-05-12,2023-05-12,合同会社ＬＩＶＳ,,合同会社,富山県,高岡市,鐘紡町８－４５－２０２,,16,202,9330856,,,,,,,2023-05-12,1,,,,,リブス,0
2733,9240001061496,新規,0,2023-05-12,2023-05-12,株式会社Ｅｌ　Ｄｏｒａｄｏ,,株式会社,広島県,広島市安佐北区,落合２丁目３６番１９号,,34,106,7391731,,,,,,,2023-05-12,1,,,,,エルドラド,0
2737,9270003001522,新規,0,2023-05-12,2023-05-12,合同会社ｔａｅｎａｒｕ,,合同会社,鳥取県,東伯郡湯梨浜町,大字田後１４５４－１７,,31,370,6820721,,,,,,,2023-05-12,1,,,,,タエナル,0
2744,9290001101470,新規,0,2023-05-12,2023-05-12,株式会社ＭＡｗａ,,株式会社,福岡県,福岡市博多区,博多駅南２丁目１４－２８－４１１,,40,132,8120016,,,,,,,2023-05-12,1,,,,,マワ,0
2745,9290001101529,新規,0,2023-05-12,2023-05-12,株式会社Ｉｎｍａｒｋ,,株式会社,福岡県,福岡市中央区,白金１丁目９番２２－１００２号,,40,133,8100012,,,,,,,2023-05-12,1,,,,,インマーク,0
2748,9290003013904,新規,0,2023-05-12,2023-05-12,ＮＧＡ　ＣＨＡＮ合同会社,,合同会社,福岡県,福岡市南区,大楠１丁目１２番２０－１０２号リリーム高宮,,40,134,8150082,,,,,,,2023-05-12,1,,,,,ガチャン,0
2749,9290005019040,新規,0,2023-05-12,2023-05-12,医療法人弘照会,,その他の設立登記法人,福岡県,福岡市博多区,住吉４丁目８番２４号,,40,132,8120018,,,,,,,2023-05-12,1,,,,,コウショウカイ,0
2756,9320001019759,新規,0,2023-05-12,2023-05-12,ＵＭＥＮＯ株式会社,,株式会社,大分県,大分市,大字上判田５５００番地の２２,,44,201,8701111,,,,,,,2023-05-12,1,,,,,ウメノ,0
2757,9320001019767,新規,0,2023-05-12,2023-05-12,アップソイルカンパニー株式会社,,株式会社,大分県,大分市,城崎町２丁目４番１９号セゾン城崎５０２,,44,201,8700045,,,,,,,2023-05-12,1,,,,,アップソイルカンパニー,0
2759,9330001030814,新規,0,2023-05-12,2023-05-12,株式会社Ｍｔ．ＴＨＲＥＥ,,株式会社,熊本県,玉名郡長洲町,大字腹赤２７１番地１３,,43,368,8690103,,,,,,,2023-05-12,1,,,,,マウントスリー,0
2760,9330001030839,新規,0,2023-05-12,2023-05-12,株式会社チハラ,,株式会社,熊本県,八代市,鏡町塩浜３０１番地５,,43,202,8694224,,,,,,,2023-05-12,1,,,,,チハラ,0
2761,9330001030855,新規,0,2023-05-12,2023-05-12,もりしょう株式会社,,株式会社,熊本県,熊本市中央区,渡鹿３丁目２番３９号,,43,101,8620970,,,,,,,2023-05-12,1,,,,,モリショウ,0
2762,9330001030863,新規,0,2023-05-12,2023-05-12,株式会社Ｔ・Ｙワークス,,株式会社,熊本県,熊本市中央区,大江４丁目２０番２７－９０３号,,43,101,8620971,,,,,,,2023-05-12,1,,,,,ティーワイワークス,0
2764,9340003004121,新規,0,2023-05-12,2023-05-12,合同会社青龍,,合同会社,鹿児島県,姶良市,平松４９７７番地２,,46,225,8995652,,,,,,,2023-05-12,1,,,,,セイリュウ,0
2769,9360001031999,新規,0,2023-05-12,2023-05-12,ＡｇｒｉＴｅｃｈ株式会社,,株式会社,沖縄県,浦添市,勢理客４丁目１３番１号,,47,208,9012122,,,,,,,2023-05-12,1,,,,,アグリテック,0
2770,9360003012948,新規,0,2023-05-12,2023-05-12,ＫＩＨ　Ｆｏｏｄ＆Ｂｅｖｅｒａｇｅ合同会社,,合同会社,沖縄県,中頭郡北谷町,字吉原７３０－１２米須アパート２０１,,47,326,9040105,,,,,,,2023-05-12,1,,,,,ケーアイエイチフードアンドビバレッジ,0
2773,9370001049941,新規,0,2023-05-12,2023-05-12,株式会社ＡＲＣＥＢＥＴＡ,,株式会社,宮城県,仙台市太白区,長町南３丁目９番１７－２０１号,,04,104,9820012,,,,,,,2023-05-12,1,,,,,アルスベータ,0
2784,9380001033688,新規,0,2023-05-12,2023-05-12,株式会社ＳＡＳ,,株式会社,福島県,福島市,方木田字谷地１７番の１３メゾン・ド・福島１０３,,07,201,9608163,,,,,,,2023-05-12,1,,,,,エスエーエス,0
2787,9400001016244,新規,0,2023-05-12,2023-05-12,株式会社大野自動車整備工場,,株式会社,岩手県,九戸郡洋野町,大野第６２地割３８番地,,03,507,0288802,,,,,,,2023-05-12,1,,,,,オオノジドウシャセイビコウジョウ,0
2793,9430001089031,新規,0,2023-05-12,2023-05-12,株式会社アミーズ,,株式会社,北海道,札幌市厚別区,青葉町４丁目６番１－４０３号,,01,108,0040021,,,,,,,2023-05-12,1,,,,,アミーズ,0
2794,9430001089064,新規,0,2023-05-12,2023-05-12,株式会社ＨＩＤＡＫＡ　ＨＯＲＳＥ　ＨＯＯＤ,,株式会社,北海道,沙流郡日高町,字緑町４１番地の２５,,01,601,0592122,,,,,,,2023-05-12,1,,,,,ヒダカホースフッド,0
2796,9430003015019,新規,0,2023-05-12,2023-05-12,ｈｉｒｏ式・バリューボーダレス合同会社,,合同会社,北海道,札幌市北区,北二十二条西６丁目２番２５－４０６号,,01,102,0010022,,,,,,,2023-05-12,1,,,,,ヒロシキバリューボーダレス,0
2797,9430003015027,新規,0,2023-05-12,2023-05-12,ＡＲＱ合同会社,,合同会社,北海道,磯谷郡蘭越町,蘭越町２２２番地４２,,01,394,0481301,,,,,,,2023-05-12,1,,,,,アルク,0
2798,9430003015051,新規,0,2023-05-12,2023-05-12,ｔｉｇｒｅｃｔ合同会社,,合同会社,北海道,北広島市,輪厚中央４丁目３番地６,,01,234,0611268,,,,,,,2023-05-12,1,,,,,ティグレクト,0
2800,9430005014712,新規,0,2023-05-12,2023-05-12,一般社団法人さっぽろ若者ケアＹＯＲＩＳＯＩ,,その他の設立登記法人,北海道,札幌市南区,南沢六条２丁目５番６号,,01,106,0050826,,,,,,,2023-05-12,1,,,,,サッポロワカモノケアヨリソイ,0
2802,9440001009260,新規,0,2023-05-12,2023-05-12,株式会社ＴａｋｅＳｕｎ,,株式会社,北海道,函館市,桔梗５丁目２２番２５号,,01,202,0410808,,,,,,,2023-05-12,1,,,,,テイクサン,0
2806,9490001010478,新規,0,2023-05-12,2023-05-12,イリス株式会社,,株式会社,高知県,高知市,比島町４丁目７－１１西内方,,39,201,7800066,,,,,,,2023-05-12,1,,,,,イリス,0
2809,9700150116021,新規,0,2023-05-12,2023-05-12,Ｓｈｅｎｚｈｅｎ　Ｒｕｉｗｅｉｙａ　Ｋｅｊｉ　Ｙｏｕｘｉａｎ　Ｇｏｎｇｓｉ,,外国会社等,,,,,,,,８１３，Ｂｕｉｌｄｉｎｇ　Ｄ，Ｌｏｎｇｈｕａ　Ａｐａｒｔｍｅｎｔ，Ｎｏ．９　Ｍｉｎｑｉｎｇ　Ｒｏａｄ　Ｓｏｎｇｈｅ　Ｃｏｍｍｕｎｉｔｙ，Ｌｏｎｇｈｕａ　Ｓｔｒｅｅｔ，Ｌｏｎｇｈｕａ　Ｄｉｓｔｒｉｃｔ，Ｓｈｅｎｚｈｅｎ，ＧｕａｎｇＤｏｎｇ,,,,,,2023-05-12,1,,,,,シンセンルイウェイヤケジユウゲンコウシ,0
2810,9700150116038,新規,0,2023-05-12,2023-05-12,Ｚｈｕｈａｉ　ｓｈｕａｎｇｙａｎ　ｋｅｊｉ　ｙｏｕｘｉａｎ　ｇｏｎｇｓｉ,,外国会社等,,,,,,,,ｘｉａｎｇ　ｚｈｏｕ　ｑｕ　ｃｕｉ　ｚｈｕ　ｓｉ　ｊｉｅ　１　ｈａｏ　２　ｄｏｎｇ　２１７，ｚｈｕｈａｉｓｈｉ　ｇｕａｎｇｄｏｎｇｓｈｅｎｇ,,,,,,2023-05-12,1,,,,,ズハイスァンイェンケジユウゲンコウシ,0
2811,9700150116046,新規,0,2023-05-12,2023-05-12,Ｇｕａｎｇｄｏｎｇ　Ｖｌａｎｄｏ　Ｅ－Ｃｏｍｍｅｒｃｅ　ｃｏ．ＬＴＤ,,外国会社等,,,,,,,,ＲＭ　５０２，ＦＬ　５，ＢＬＤＧ　１６，Ｙｕｅｇａｎｇ　Ｂａｎｋｉｎｇ　Ｏｕｔｓｏｕｒｃｉｎｇ　ＣＴＲ，Ｎｏ．７　Ｋｅｊｉ　１０ｔｈ　ＲＤ，Ｓｏｎｇｓｈａｎｈｕ　Ｈｉｇｈ－ｔｅｃｈ　Ｉｎｄｕｓｔｒｙ　Ｄｅｖｅｌｏｐｍｅｎｔ　Ａｒｅａ　Ｄｏｎｇｇｕａｎ　Ｇｕａｎｇｄｏｎｇ,,,,,,2023-05-12,1,,,,,グワンドンウェイランドゥオディエンズーシャンウーヨウシエンゴンスー,0
2812,9700150116054,新規,0,2023-05-12,2023-05-12,ｘｉａｍｅｎｊｉｕｙｉｘｉｎｇｈｕｉｄｉａｎｚｉｓｈａｎｇｗｕｙｏｕｘｉａｎｇｏｎｇｓｉ,,外国会社等,,,,,,,,Ｒｏｏｍ　１００５－１，Ｎｏ．１１２６　Ｘｉａｈｅ　Ｒｏａｄ，Ｓｉｍｉｎｇ　Ｄｉｓｔｒｉｃｔ，Ｘｉａｍｅｎ　Ｃｉｔｙ　ｆｕｊｉａｎ,,,,,,2023-05-12,1,,,,,シャーメンジューイーシンフイディエンズーシャンウーヨウシエンゴンスー,0
2813,9700150116062,新規,0,2023-05-12,2023-05-12,Ｊｉａｘｉｎｇ　Ｓａｉ　ｅｎ　Ｔｒａｄｉｎｇ　Ｃｏ．，Ｌｔｄ,,外国会社等,,,,,,,,３０６　Ｒｏｏｍ，Ｎｏｒｔｈ　Ｃｅｎｔｒａｌ　Ｂｕｓｉｎｅｓｓ　Ｂｕｉｌｄｉｎｇ　Ｊｉａｘｉｎｇ　Ｚｈｅｊｉａｎｇ　３１４０３３　ＣＮ,,,,,,2023-05-12,1,,,,,ジャーシンサイエンマオイーヨウシエンゴンスー,0
