sequenceNumber,corporateNumber,process,correct,updateDate,changeDate,name,nameImageId,kind,prefectureName,cityName,streetNumber,addressImageId,prefectureCode,cityCode,postCode,addressOutside,addressOutsideImageId,closeDate,closeCause,successorCorporateNumber,changeCause,assignmentDate,latest,enName,enPrefectureName,enCityName,enAddressOutside,furigana,hihyoji
3,1010001084057,登記記録の閉鎖等,0,2025-05-13,2025-04-17,株式会社アルサープ,,株式会社,東京都,千代田区,神田錦町３丁目２１番ちよだＰＦスクウェア１０２１,,13,101,1010054,,,2025-04-17,清算の結了等,,,2015-10-05,1,,,,,アルサープ,0
4,1010001141485,登記記録の閉鎖等,0,2025-05-13,2025-04-21,株式会社フーズサプライ徳洲会,,株式会社,東京都,千代田区,麹町４丁目６番８号ダイニチ麹町ビル内,,13,101,1020083,,,2025-04-21,清算の結了等,,,2015-10-05,1,,,,,フーズサプライトクシュウカイ,0
26,1010503005238,登記記録の閉鎖等,0,2025-05-13,2025-04-18,合同会社エムシーエフ,,合同会社,東京都,台東区,浅草橋５丁目１１番５－４０１号ディナ・スカーラ秋葉原,,13,106,1110053,,,2025-04-18,清算の結了等,,,2018-03-13,1,,,,,エムシーエフ,0
47,1011101016494,登記記録の閉鎖等,0,2025-05-13,2025-05-09,株式会社日本社,,株式会社,東京都,世田谷区,豪徳寺２丁目２番９号,,13,112,1540021,,,2025-05-09,清算の結了等,,,2015-10-05,1,,,,,ニホンシャ,0
54,1011103014471,登記記録の閉鎖等,0,2025-05-13,2025-04-15,Ｂｅｅｌｉｖｅ合同会社,,合同会社,東京都,新宿区,西新宿３丁目３番１３号西新宿水間ビル２Ｆ,,13,104,1600023,,,2025-04-15,清算の結了等,,,2024-05-29,1,,,,,ビリーブ,0
58,1011301001461,登記記録の閉鎖等,0,2025-05-13,2025-05-01,株式会社大瀧邦樂器,00054385,株式会社,東京都,杉並区,阿佐谷南３丁目５番３号,,13,115,1660004,,,2025-05-01,清算の結了等,,,2015-10-05,1,,,,,オオタキホウガッキ,0
65,1011702004443,登記記録の閉鎖等,0,2025-05-13,2025-05-02,有限会社小森工務店,,有限会社,東京都,江戸川区,春江町２丁目５０番５号,,13,123,1320003,,,2025-05-02,清算の結了等,,,2015-10-05,1,,,,,コモリコウムテン,0
74,1012401033519,登記記録の閉鎖等,0,2025-05-13,2025-05-02,ＢＱ　Ｉｎｔｅｒｎａｔｉｏｎａｌ株式会社,,株式会社,東京都,武蔵野市,吉祥寺本町２丁目５番１０号７Ｆ,,13,203,1800004,,,2025-05-02,合併による解散等,2012401039374,令和７年４月１日東京都武蔵野市吉祥寺本町二丁目５番１０号株式会社牛かつもと村（2012401039374）に合併し解散,2018-01-11,1,,,,,ビーキューインターナショナル,0
84,1020001024549,登記記録の閉鎖等,0,2025-05-13,2025-04-15,三ツ澤電設株式会社,,株式会社,神奈川県,横浜市神奈川区,三ツ沢下町１０番１４号,,14,102,2210852,,,2025-04-15,清算の結了等,,,2018-03-05,1,,,,,ミツザワデンセツ,0
93,1020001102569,登記記録の閉鎖等,0,2025-05-13,2025-04-17,株式会社ボンディ,,株式会社,東京都,千代田区,神田和泉町１番地６－１６,,13,101,1010024,,,2025-04-17,清算の結了等,,,2015-10-05,1,,,,,ボンディ,0
99,1020003017716,登記記録の閉鎖等,0,2025-05-13,2025-05-02,合同会社Ｍａｖｉｅ,,合同会社,神奈川県,川崎市中原区,小杉町３丁目６００番地Ｋ３Ａザ・レジデンス２６１３,,14,133,2110063,,,2025-05-02,清算の結了等,,,2020-04-10,1,,,,,マヴィー,0
100,1020003018227,登記記録の閉鎖等,0,2025-05-13,2025-04-22,ｕｎｔａｃｔ合同会社,,合同会社,神奈川県,川崎市川崎区,駅前本町１１番地２川崎フロンティアビル４階,,14,131,2100007,,,2025-04-22,清算の結了等,,,2020-07-20,1,,,,,アンタクト,0
105,1021001032764,登記記録の閉鎖等,0,2025-05-13,2025-05-01,株式会社杉兼商店,,株式会社,神奈川県,小田原市,本町３丁目６番２０号,,14,206,2500012,,,2025-05-01,清算の結了等,,,2015-10-05,1,,,,,スギカネショウテン,0
108,1030001008831,登記記録の閉鎖等,0,2025-05-13,2025-05-07,株式会社よみうり地域サービスセンター,,株式会社,埼玉県,さいたま市大宮区,土手町３丁目２４３番地２岡ビル３階,,11,103,3300801,,,2025-05-07,清算の結了等,,,2015-10-05,1,,,,,ヨミウリチイキサービスセンター,0
109,1030001075137,登記記録の閉鎖等,0,2025-05-13,2025-05-07,サンスター販売株式会社,,株式会社,埼玉県,川口市,青木２丁目６番３５号,,11,203,3320031,,,2025-05-07,清算の結了等,,,2015-10-05,1,,,,,サンスターハンバイ,0
119,1030002047309,登記記録の閉鎖等,0,2025-05-13,2025-05-02,有限会社大星建具,,有限会社,埼玉県,八潮市,中央１丁目７番地１５,,11,234,3400816,,,2025-05-02,清算の結了等,,,2015-10-05,1,,,,,タイセイタテグ,0
134,1040002017244,登記記録の閉鎖等,0,2025-05-13,2025-04-24,有限会社ケー・トラスト,,有限会社,千葉県,千葉市稲毛区,山王町１２番３１,,12,103,2630002,,,2025-04-24,清算の結了等,,,2015-10-05,1,,,,,ケートラスト,0
135,1040002058313,登記記録の閉鎖等,0,2025-05-13,2025-04-22,有限会社鈴木乳業,,有限会社,千葉県,印西市,大森４３６７番地,,12,231,2701327,,,2025-04-22,清算の結了等,,,2015-10-05,1,,,,,スズキニュウギョウ,0
151,1080001024592,登記記録の閉鎖等,0,2025-05-13,2025-05-01,株式会社そこあげ,,株式会社,静岡県,静岡市清水区,蒲原東１７０番地の１,,22,103,4213201,,,2025-05-01,合併による解散等,1080001010221,令和７年５月１日静岡県静岡市清水区蒲原東１４８番地の１駿河重機建設株式会社（1080001010221）に合併し解散,2021-11-19,1,,,,,ソコアゲ,0
152,1080401024432,登記記録の閉鎖等,0,2025-05-13,2025-05-01,３９６Ｊａｐａｎ　ｆｏｏｄ株式会社,,株式会社,静岡県,掛川市,上内田３９６番地,,22,213,4360012,,,2025-05-01,合併による解散等,2080401025578,令和７年５月１日静岡県掛川市上内田３９６番地ＹＳダイニング株式会社（2080401025578）に合併し解散,2020-07-20,1,,,,,サンキュウロクジャパンフード,0
158,1090002014294,登記記録の閉鎖等,0,2025-05-13,2025-05-08,有限会社マヴィ,,有限会社,山梨県,北杜市,小淵沢町上笹尾３３３２番地の４５４,,19,209,4080041,,,2025-05-08,清算の結了等,,,2015-10-05,1,,,,,マヴィ,0
159,1100001037939,登記記録の閉鎖等,0,2025-05-13,2025-05-07,東信電気工事株式会社,,株式会社,長野県,岡谷市,長地権現町４丁目３番１４－１０号,,20,204,3940081,,,2025-05-07,清算の結了等,,,2024-10-22,1,,,,,トウシンデンキコウジ,0
167,1120001036501,登記記録の閉鎖等,0,2025-05-13,2025-04-24,株式会社丸共岡村,,株式会社,大阪府,大阪市福島区,野田１丁目１番８６号大阪市中央卸売市場内,,27,103,5530005,,,2025-04-24,清算の結了等,,,2015-10-05,1,,,,,マルキョウオカムラ,0
170,1120001197954,登記記録の閉鎖等,0,2025-05-13,2025-04-25,株式会社ハウルホーム,,株式会社,大阪府,大阪市福島区,鷺洲４丁目４番２１号１階,,27,103,5530002,,,2025-04-25,清算の結了等,,,2016-04-28,1,,,,,ハウルホーム,0
175,1120001252049,登記記録の閉鎖等,0,2025-05-13,2025-04-18,福川株式会社,,株式会社,大阪府,大阪市淀川区,十三元今里１丁目６番１３－１１２号,,27,123,5320028,,,2025-04-18,清算の結了等,,,2023-01-27,1,,,,,フクカワ,0
202,1122003002670,登記記録の閉鎖等,0,2025-05-13,2025-05-08,ナニワ合同会社,,合同会社,大阪府,八尾市,高美町１丁目２番１号,,27,212,5810017,,,2025-05-08,合併による解散等,8122001028884,令和７年４月１８日神戸市長田区西尻池町三丁目１番６号株式会社ナニワホールディングス（8122001028884）に合併し解散,2023-09-21,1,,,,,ナニワ,0
226,1180001021225,登記記録の閉鎖等,0,2025-05-13,2025-05-01,株式会社山田製作所,,株式会社,愛知県,名古屋市中川区,八家町３丁目５３番地,,23,110,4540835,,,2025-05-01,合併による解散等,3180001076416,令和７年５月１日愛知県小牧市元町三丁目３９番地株式会社富士精機（3180001076416）に合併し解散,2015-10-05,1,,,,,ヤマダセイサクショ,0
245,1200002006420,登記記録の閉鎖等,0,2025-05-13,2025-05-02,有限会社五入道,,有限会社,愛知県,稲沢市,祖父江町中牧江東２７８番地３,,23,220,4950032,,,2025-05-02,清算の結了等,,,2015-10-05,1,,,,,ゴニュウドウ,0
249,1230002007201,登記記録の閉鎖等,0,2025-05-13,2025-05-07,有限会社三建コンサルタント,,有限会社,富山県,中新川郡立山町,前沢１２０８番地,,16,323,9300221,,,2025-05-07,清算の結了等,,,2015-10-05,1,,,,,サンケンコンサルタント,0
259,1240002040127,登記記録の閉鎖等,0,2025-05-13,2025-05-08,川野興業有限会社,,有限会社,広島県,福山市,青葉台３丁目１５番２０号,,34,207,7210911,,,2025-05-08,清算の結了等,,,2015-10-05,1,,,,,カワノコウギョウ,0
266,1280005005131,登記記録の閉鎖等,0,2025-05-13,2025-05-08,益田市木材工業協同組合,00004955,その他の設立登記法人,島根県,益田市,神田町イ６４９番地５,,32,204,6995133,,,2025-05-08,清算の結了等,,,2015-10-05,1,,,,,マスダシモクザイコウギョウ,0
290,1340003002280,登記記録の閉鎖等,0,2025-05-13,2025-05-01,合同会社絆工房ヤマサ,,合同会社,鹿児島県,鹿児島市,錦江町１番４号,,46,201,8920836,,,2025-05-01,合併による解散等,3340001014177,令和７年５月１日鹿児島市錦江町１番４号ヤマサハウス株式会社（3340001014177）に合併し解散,2017-02-23,1,,,,,キズナコウボウヤマサ,0
321,1430002026882,登記記録の閉鎖等,0,2025-05-13,2025-05-01,有限会社ウメキン札幌,,有限会社,北海道,札幌市東区,東苗穂一条２丁目６番１４－２０号,,01,103,0070801,,,2025-05-01,清算の結了等,,,2015-10-05,1,,,,,ウメキンサッポロ,0
331,1480002003002,登記記録の閉鎖等,0,2025-05-13,2025-05-07,有限会社槌長商店,,有限会社,徳島県,徳島市,秋田町１丁目８０番地,,36,201,7700934,,,2025-05-07,清算の結了等,,,2015-10-05,1,,,,,ツチチョウショウテン,0
342,2010003043357,登記記録の閉鎖等,0,2025-05-13,2025-04-17,合同会社経営・人材支援ＡＭＥＹ,,合同会社,東京都,中央区,銀座６丁目３番５号,,13,102,1040061,,,2025-04-17,清算の結了等,,,2024-05-15,1,,,,,ケイエイジンザイシエンアメイ,0
370,2010701014378,登記記録の閉鎖等,0,2025-05-13,2025-04-14,株式会社エフピーアイズ,,株式会社,東京都,品川区,勝島１丁目４番１１号,,13,109,1400012,,,2025-04-14,清算の結了等,,,2015-10-05,1,,,,,エフピーアイズ,0
372,2010703005045,登記記録の閉鎖等,0,2025-05-13,2025-04-14,Ｅｘｕｍ株式会社,,株式会社,東京都,品川区,小山４丁目９－１２－１０１,,13,109,1420062,,,2025-04-14,清算の結了等,,,2019-12-11,1,,,,,エクサム,0
375,2010902000243,登記記録の閉鎖等,0,2025-05-13,2025-04-24,有限会社アーテム,,有限会社,東京都,世田谷区,下馬５丁目２６番２０号,,13,112,1540002,,,2025-04-24,清算の結了等,,,2015-10-05,1,,,,,,0
399,2011701015498,登記記録の閉鎖等,0,2025-05-13,2025-05-01,株式会社ニューオークラ,,株式会社,東京都,江戸川区,西小岩３丁目３４番１７号,,13,123,1330057,,,2025-05-01,合併による解散等,1011701006291,令和７年５月１日東京都江戸川区西小岩一丁目７番６号株式会社アージュホールディングス（1011701006291）に合併し解散,2015-10-05,1,,,,,ニューオークラ,0
407,2012701014853,登記記録の閉鎖等,0,2025-05-13,2025-05-07,株式会社トゥディスプレイ,,株式会社,東京都,小平市,花小金井６丁目４６番７号,,13,211,1870002,,,2025-05-07,清算の結了等,,,2018-06-12,1,,,,,トゥディスプレイ,0
411,2013301049100,登記記録の閉鎖等,0,2025-05-13,2025-04-22,一成株式会社,,株式会社,東京都,台東区,上野３丁目１６－２天翔上野末広町ビル６階６０４－Ａ号室,,13,106,1100005,,,2025-04-22,清算の結了等,,,2022-05-17,1,,,,,イッセイ,0
415,2013305001081,登記記録の閉鎖等,0,2025-05-13,2025-04-21,特定非営利活動法人国土復興支援協会,,その他の設立登記法人,東京都,豊島区,南大塚２丁目４１番１０号,,13,116,1700005,,,2025-04-21,清算の結了等,,,2015-10-05,1,,,,,コクドフッコウシエンキョウカイ,0
425,2020003024042,登記記録の閉鎖等,0,2025-05-13,2025-04-22,合同会社Ｍ＆Ｆカンパニー,,合同会社,神奈川県,横浜市中区,日ノ出町１丁目３６番地マンションアクロス６０４号室,,14,104,2310066,,,2025-04-22,清算の結了等,,,2023-06-14,1,,,,,エムアンドエフカンパニー,0
441,2030002048850,登記記録の閉鎖等,0,2025-05-13,2025-05-07,有限会社坂上塗装店,,有限会社,埼玉県,三郷市,鷹野４丁目３８７番地１,,11,237,3410035,,,2025-05-07,清算の結了等,,,2015-10-05,1,,,,,サカウエトソウテン,0
442,2030002065020,登記記録の閉鎖等,0,2025-05-13,2025-05-12,有限会社アプレット,,有限会社,埼玉県,川越市,大字藤間５４０番地２セザール第二上福岡３０７号,,11,201,3501142,,,2025-05-12,清算の結了等,,,2015-10-05,1,,,,,アプレット,0
474,2080401012824,登記記録の閉鎖等,0,2025-05-13,2025-05-02,株式会社シャーリーズ,,株式会社,静岡県,浜松市中央区,早出町２２７番地の１,,22,138,4350054,,,2025-05-02,清算の結了等,,,2015-10-05,1,,,,,シャーリーズ,0
481,2100005002905,登記記録の閉鎖等,0,2025-05-13,2025-05-07,一般財団法人信州農村開発史研究所,,その他の設立登記法人,長野県,佐久市,甲１４番地,,20,217,3842104,,,2025-05-07,清算の結了等,,,2015-10-05,1,,,,,シンシュウノウソンカイハツシケンキュウジョ,0
482,2110001011818,登記記録の閉鎖等,0,2025-05-13,2025-05-08,株式会社大村,,株式会社,新潟県,五泉市,村松工業団地１丁目２番２０号,,15,218,9591739,,,2025-05-08,合併による解散等,6030001070752,令和７年５月１日埼玉県東松山市松山町一丁目４番２４号株式会社大村製作所（6030001070752）に合併し解散,2015-10-05,1,,,,,オオムラ,0
489,2120001135962,登記記録の閉鎖等,0,2025-05-13,2025-04-17,株式会社ブラボーアド,,株式会社,大阪府,大阪市都島区,都島中通３丁目５番４３－７０６号,,27,102,5340022,,,2025-04-17,清算の結了等,,,2015-10-05,1,,,,,ブラボーアド,0
518,2120905005063,登記記録の閉鎖等,0,2025-05-13,2025-04-24,医療法人宮崎皮フ科,00034136,その他の設立登記法人,大阪府,茨木市,双葉町４番２５号Ｋｅｎ’ｓＨｏｕｓｅ１０１号,,27,211,5670829,,,2025-04-24,清算の結了等,,,2015-10-05,1,,,,,ミヤザキヒフカ,0
520,2122002011011,登記記録の閉鎖等,0,2025-05-13,2025-04-30,有限会社エム・イ・エス,,有限会社,大阪府,大東市,川中新町１５番５０８号,,27,218,5740031,,,2025-04-30,清算の結了等,,,2015-10-05,1,,,,,エムイエス,0
521,2130001010173,登記記録の閉鎖等,0,2025-05-13,2025-05-08,株式会社オートサービス協和,,株式会社,京都府,京都市南区,上鳥羽大溝町２番地,,26,107,6018134,,,2025-05-08,合併による解散等,6120001063243,令和７年５月１日大阪府守口市八雲東町一丁目２１番１０号近畿いすゞ自動車販売株式会社（6120001063243）に合併し解散,2015-10-05,1,,,,,オートサービスキョウワ,0
531,2140001066553,登記記録の閉鎖等,0,2025-05-13,2025-05-01,株式会社ダイハン,,株式会社,兵庫県,三田市,武庫が丘６丁目１８番地９,,28,219,6691544,,,2025-05-01,清算の結了等,,,2015-10-05,1,,,,,ダイハン,0
536,2140001113454,登記記録の閉鎖等,0,2025-05-13,2025-05-01,ＩＶＹホールディング株式会社,,株式会社,兵庫県,姫路市,土山１丁目４番８号,,28,201,6700996,,,2025-05-01,合併による解散等,7140001060089,令和７年５月１日兵庫県姫路市土山一丁目４番８号蔦機械金属株式会社（7140001060089）に合併し解散,2019-04-24,1,,,,,アイビーホールディング,0
546,2150002004981,登記記録の閉鎖等,0,2025-05-13,2025-05-09,有限会社三和設計事務所,,有限会社,奈良県,大和郡山市,千日町１６番地の１,,29,203,6391053,,,2025-05-09,清算の結了等,,,2015-10-05,1,,,,,サンワセッケイジムショ,0
566,2190002017030,登記記録の閉鎖等,0,2025-05-13,2025-05-01,有限会社日の出電気商会,,有限会社,三重県,桑名市,大字蓮花寺１３０２－６番地,,24,205,5110854,,,2025-05-01,清算の結了等,,,2015-10-05,1,,,,,ヒノデデンキショウカイ,0
572,2220002010345,登記記録の閉鎖等,0,2025-05-13,2025-05-07,有限会社大壁製菓,,有限会社,石川県,小松市,川辺町２３番地,,17,203,9230044,,,2025-05-07,清算の結了等,,,2015-10-05,1,,,,,,0
608,2390001001881,登記記録の閉鎖等,0,2025-05-13,2025-04-28,株式会社村上興商,,株式会社,山形県,山形市,大字七浦４９５番地の５,,06,201,9902171,,,2025-04-28,清算の結了等,,,2015-10-05,1,,,,,ムラカミコウショウ,0
620,2480001006120,登記記録の閉鎖等,0,2025-05-13,2025-05-07,株式会社松村工務店,,株式会社,徳島県,徳島市,川内町小松東１９番地の５,,36,201,7710103,,,2025-05-07,清算の結了等,,,2015-10-05,1,,,,,マツムラコウムテン,0
640,3010101001257,登記記録の閉鎖等,0,2025-05-13,2025-05-07,コスモテクニカル株式会社,,株式会社,東京都,八王子市,長房町４２３番地の５６,,13,201,1930824,,,2025-05-07,清算の結了等,,,2015-10-05,1,,,,,コスモテクニカル,0
645,3010401159951,登記記録の閉鎖等,0,2025-05-13,2025-04-01,アルヒ住み替えコンシェルジュ株式会社,,株式会社,東京都,千代田区,平河町１丁目４番３号,,13,101,1020093,,,2025-04-01,合併による解散等,1010001160717,令和７年４月１日東京都千代田区平河町一丁目４番３号ＳＢＩアルヒ株式会社（1010001160717）に合併し解散,2021-05-13,1,,,,,アルヒスミカエコンシェルジュ,0
654,3010802013815,登記記録の閉鎖等,0,2025-05-13,2025-04-30,有限会社丸仁百貨店,,有限会社,東京都,大田区,下丸子３丁目８番１５号,,13,111,1460092,,,2025-04-30,清算の結了等,,,2015-10-05,1,,,,,マルジンヒャッカテン,0
655,3010901053365,登記記録の閉鎖等,0,2025-05-13,2025-05-12,株式会社ソトニ,,株式会社,東京都,世田谷区,玉川３丁目４１番１０号１０３,,13,112,1580094,,,2025-05-12,清算の結了等,,,2023-07-07,1,,,,,ソトニ,0
667,3011005008685,登記記録の閉鎖等,0,2025-05-13,2025-04-07,一般社団法人うごく街,,その他の設立登記法人,東京都,目黒区,上目黒１丁目３番９号藤屋ビル５Ｆ,,13,110,1530051,,,2025-04-07,清算の結了等,,,2020-08-24,1,,,,,ウゴクマチ,0
694,3020002023812,登記記録の閉鎖等,0,2025-05-13,2025-05-01,有限会社佐藤電機,,有限会社,神奈川県,横浜市保土ケ谷区,今井町４２２番地,,14,106,2400035,,,2025-05-01,清算の結了等,,,2015-10-05,1,,,,,サトウデンキ,0
698,3020003009174,登記記録の閉鎖等,0,2025-05-13,2025-04-23,前田アソシエーツ合同会社,,合同会社,神奈川県,横浜市神奈川区,松見町３丁目６０１番地８,,14,102,2210005,,,2025-04-23,清算の結了等,,,2015-10-05,1,,,,,マエダアソシエーツ,0
704,3030001018060,登記記録の閉鎖等,0,2025-05-13,2025-05-07,株式会社トップ,,株式会社,埼玉県,さいたま市岩槻区,大字飯塚１３２１番地,,11,110,3390031,,,2025-05-07,清算の結了等,,,2015-10-05,1,,,,,トップ,0
706,3030001083971,登記記録の閉鎖等,0,2025-05-13,2025-05-01,株式会社すまいる本舗,,株式会社,埼玉県,坂戸市,末広町９番地１７,,11,239,3500272,,,2025-05-01,清算の結了等,,,2015-10-05,1,,,,,スマイルホンポ,0
742,3070002008239,登記記録の閉鎖等,0,2025-05-13,2025-05-07,有限会社拓伸,,有限会社,群馬県,前橋市,上佐鳥町５４４番地１２,,10,201,3710816,,,2025-05-07,清算の結了等,,,2015-10-05,1,,,,,タクシン,0
748,3080405007407,登記記録の閉鎖等,0,2025-05-13,2025-05-01,特定非営利活動法人はたらく・あそぶ・サポートＣｈａｎｃｅ　ｇｉｖｅｒ,,その他の設立登記法人,静岡県,湖西市,吉美９６１番地の６７,,22,221,4310441,,,2025-05-01,清算の結了等,,,2021-12-08,1,,,,,ハタラクアソブサポートチャンスギバー,0
761,3120001029305,登記記録の閉鎖等,0,2025-05-13,2025-04-22,株式会社大東商会,,株式会社,大阪府,大阪市港区,南市岡２丁目１番１６号,,27,107,5520011,,,2025-04-22,清算の結了等,,,2015-10-05,1,,,,,ダイトウショウカイ,0
764,3120001122381,登記記録の閉鎖等,0,2025-05-13,2025-04-25,株式会社ライフプランニング,,株式会社,大阪府,大阪市西区,西本町１丁目７－２１ニシモトビル８階,,27,106,5500005,,,2025-04-25,清算の結了等,,,2015-10-05,1,,,,,,0
771,3120001163649,登記記録の閉鎖等,0,2025-05-13,2025-04-24,株式会社枚松,,株式会社,大阪府,枚方市,大字穂谷２１８６番地の１,,27,210,5730114,,,2025-04-24,清算の結了等,,,2015-10-05,1,,,,,ヒラマツ,0
772,3120001201128,登記記録の閉鎖等,0,2025-05-13,2025-04-24,株式会社ＰＬＡＩＮ,,株式会社,大阪府,大阪市平野区,長吉長原西２丁目１０番２４号,,27,126,5470015,,,2025-04-24,清算の結了等,,,2016-10-07,1,,,,,プレイン,0
775,3120001242683,登記記録の閉鎖等,0,2025-05-13,2025-04-23,株式会社ＳＳＴ,,株式会社,大阪府,枚方市,長尾元町７丁目１６番２０－２０１号,,27,210,5730163,,,2025-04-23,清算の結了等,,,2021-12-24,1,,,,,エスエスティ,0
802,3130001008506,登記記録の閉鎖等,0,2025-05-13,2025-04-24,株式会社仲井商店,,株式会社,京都府,京都市西京区,川島梅園町３４番地,,26,111,6158113,,,2025-04-24,清算の結了等,,,2015-10-05,1,,,,,ナカイショウテン,0
825,3140005024085,登記記録の閉鎖等,0,2025-05-13,2025-05-08,一般社団法人相続・終活支援センター,,その他の設立登記法人,兵庫県,神戸市北区,惣山町３丁目１６－５,,28,109,6511145,,,2025-05-08,清算の結了等,,,2018-04-11,1,,,,,ソウゾクシュウカツシエンセンター,0
830,3160001013271,登記記録の閉鎖等,0,2025-05-13,2025-05-08,株式会社いすゞサービス滋賀,,株式会社,滋賀県,栗東市,大橋５丁目１１番１３号,,25,208,5203046,,,2025-05-08,合併による解散等,6120001063243,令和７年５月１日大阪府守口市八雲東町一丁目２１番１０号近畿いすゞ自動車販売株式会社（6120001063243）に合併し解散,2015-10-05,1,,,,,イスズサービスシガ,0
836,3180001051212,登記記録の閉鎖等,0,2025-05-13,2025-05-01,株式会社ウォンツ,,株式会社,愛知県,名古屋市中区,栄３丁目１０番２２号東朋ビル,,23,106,4600008,,,2025-05-01,合併による解散等,4180001004210,令和７年５月１日名古屋市中区栄三丁目６番１号株式会社マクシスエンジニアリング（4180001004210）に合併し解散,2015-10-05,1,,,,,ウォンツ,0
837,3180001060840,登記記録の閉鎖等,0,2025-05-13,2025-05-01,株式会社伊東設備,,株式会社,愛知県,名古屋市天白区,平針３丁目１４０２番地,,23,116,4680011,,,2025-05-01,清算の結了等,,,2015-10-05,1,,,,,イトウセツビ,0
843,3180001148702,登記記録の閉鎖等,0,2025-05-13,2025-05-02,株式会社エイプリル・アカデミー,,株式会社,愛知県,名古屋市名東区,新宿１丁目３１１－１カルティア名東新宿３０３,,23,115,4650063,,,2025-05-02,清算の結了等,,,2021-11-12,1,,,,,エイプリルアカデミー,0
852,3180002086521,登記記録の閉鎖等,0,2025-05-13,2025-05-02,有限会社ダイヤ,,有限会社,愛知県,常滑市,市場町２丁目５３番地,,23,216,4790828,,,2025-05-02,清算の結了等,,,2015-10-05,1,,,,,ダイヤ,0
895,3350002015685,登記記録の閉鎖等,0,2025-05-13,2025-04-28,有限会社とやま,,有限会社,宮崎県,都城市,山田町中霧島３１１１番地７,,45,202,8894602,,,2025-04-28,清算の結了等,,,2015-10-05,1,,,,,トヤマ,0
913,3430002029917,登記記録の閉鎖等,0,2025-05-13,2025-05-02,有限会社シゲモト,,有限会社,北海道,札幌市豊平区,平岸三条７丁目１１番１７号,,01,105,0620933,,,2025-05-02,清算の結了等,,,2015-10-05,1,,,,,シゲモト,0
927,4010001006792,登記記録の閉鎖等,0,2025-05-13,2025-05-07,株式会社藤本理化,,株式会社,東京都,文京区,向丘１丁目９番２２号,,13,105,1130023,,,2025-05-07,合併による解散等,9330001001716,令和７年５月１日熊本市南区流通団地一丁目４４番地２株式会社ケミカル同仁（9330001001716）に合併し解散,2015-10-05,1,,,,,フジモトリカ,0
934,4010001242009,登記記録の閉鎖等,0,2025-05-13,2025-04-17,株式会社わんがい不動産,,株式会社,東京都,中央区,銀座６丁目１４番８号銀座石井ビル７１８号室,,13,102,1040061,,,2025-04-17,清算の結了等,,,2024-02-08,1,,,,,ワンガイフドウサン,0
951,4010701032304,登記記録の閉鎖等,0,2025-05-13,2025-05-08,Ｍａｅｒｓｋ　Ｃｏｎｔｒａｃｔ　Ｌｏｇｉｓｔｉｃｓ　Ｊａｐａｎ株式会社,,株式会社,千葉県,市川市,二俣６７８番地５５ＥＳＲ市川ディストリビューションセンター,,12,203,2720001,,,2025-05-08,合併による解散等,2010401108067,令和７年５月１日東京都港区赤坂二丁目１７番７号赤坂溜池タワーマースクロジスティクス＆サービスジャパン株式会社（2010401108067）に合併し解散,2016-04-18,1,,,,,マースクコントラクトロジスティクスジャパン,0
952,4010701036387,登記記録の閉鎖等,0,2025-05-13,2025-04-14,株式会社ＮＦＭ,,株式会社,東京都,品川区,東大井１丁目１１番２５－７１１号,,13,109,1400011,,,2025-04-14,清算の結了等,,,2018-09-05,1,,,,,エヌエフエム,0
954,4010705000711,登記記録の閉鎖等,0,2025-05-13,2025-04-14,武蔵小山駅前通り商店街振興組合,,その他の設立登記法人,東京都,品川区,小山３丁目１５番６号,,13,109,1420062,,,2025-04-14,清算の結了等,,,2015-10-05,1,,,,,ムサシコヤマエキマエドオリショウテンガイ,0
956,4010901018004,登記記録の閉鎖等,0,2025-05-13,2025-05-07,株式会社環境計画研究所,,株式会社,東京都,世田谷区,用賀２丁目３５番１３－２０６号,,13,112,1580097,,,2025-05-07,清算の結了等,,,2015-10-05,1,,,,,カンキョウケイカクケンキュウジョ,0
980,4011302003900,登記記録の閉鎖等,0,2025-05-13,2025-05-01,有限会社坂場工業,,有限会社,東京都,杉並区,堀ノ内２丁目３７番３９号,,13,115,1660013,,,2025-05-01,清算の結了等,,,2015-10-05,1,,,,,サカバコウギョウ,0
982,4011405000126,登記記録の閉鎖等,0,2025-05-13,2025-05-07,医療法人社団醫征会,,その他の設立登記法人,東京都,板橋区,常盤台１丁目２９番１１号,,13,119,1740071,,,2025-05-07,清算の結了等,,,2015-10-05,1,,,,,イセイカイ,0
987,4011701001934,登記記録の閉鎖等,0,2025-05-13,2025-05-01,株式会社アート,,株式会社,東京都,江戸川区,西小岩１丁目１１番２６号,,13,123,1330057,,,2025-05-01,合併による解散等,1011701006291,令和７年５月１日東京都江戸川区西小岩一丁目７番６号株式会社アージュホールディングス（1011701006291）に合併し解散,2015-10-05,1,,,,,アート,0
1002,4020002103811,登記記録の閉鎖等,0,2025-05-13,2025-04-24,有限会社ウォールデン,,有限会社,神奈川県,川崎市幸区,下平間２１４番地１,,14,132,2120053,,,2025-04-24,清算の結了等,,,2015-10-05,1,,,,,ウォールデン,0
1006,4021002066882,登記記録の閉鎖等,0,2025-05-13,2025-05-09,有限会社松工務店,,有限会社,神奈川県,横須賀市,岩戸５丁目２３番３号,,14,201,2390844,,,2025-05-09,清算の結了等,,,2015-10-05,1,,,,,マツコウムテン,0
1010,4030001034049,登記記録の閉鎖等,0,2025-05-13,2025-05-07,株式会社エイジア,,株式会社,埼玉県,加須市,鳩山町１１番地１１－２Ｆ,,11,210,3470019,,,2025-05-07,清算の結了等,,,2015-10-05,1,,,,,エイジア,0
1011,4030001041326,登記記録の閉鎖等,0,2025-05-13,2025-04-01,埼玉県食品流通センター株式会社,,株式会社,東京都,中央区,京橋１丁目１４番７号,,13,102,1040031,,,2025-04-01,合併による解散等,1010001118640,令和７年４月１日東京都中央区京橋一丁目１４番７号東京中央青果株式会社（1010001118640）に合併し解散,2015-10-05,1,,,,,サイタマケンショクヒンリュウツウセンター,0
1016,4030002056356,登記記録の閉鎖等,0,2025-05-13,2025-05-07,有限会社共栄電子,,有限会社,埼玉県,北足立郡伊奈町,大字小室８３１２番地１,,11,301,3620806,,,2025-05-07,清算の結了等,,,2015-10-05,1,,,,,キョウエイデンシ,0
1019,4030005007471,登記記録の閉鎖等,0,2025-05-13,2025-05-07,医療法人社団緑陽会,,その他の設立登記法人,埼玉県,春日部市,備後東８丁目５番１号コーポ錦栄１０１,,11,214,3440032,,,2025-05-07,清算の結了等,,,2015-10-05,1,,,,,リョクヨウカイ,0
1027,4040002000032,登記記録の閉鎖等,0,2025-05-13,2025-04-24,有限会社アイエヌ・サンエス企画,,有限会社,千葉県,千葉市若葉区,桜木３丁目９番２７号,,12,104,2640028,,,2025-04-24,清算の結了等,,,2015-10-05,1,,,,,アイエヌサンエスキカク,0
1032,4050002012530,登記記録の閉鎖等,0,2025-05-13,2025-05-07,有限会社アミール,,有限会社,茨城県,稲敷郡阿見町,中郷３丁目１番地８,,08,443,3000337,,,2025-05-07,清算の結了等,,,2015-10-05,1,,,,,アミール,0
1044,4080005004332,登記記録の閉鎖等,0,2025-05-13,2025-05-07,一般社団法人静岡県立大学連合学友会,,その他の設立登記法人,静岡県,静岡市駿河区,谷田５２番１号,,22,102,4228002,,,2025-05-07,清算の結了等,,,2015-10-05,1,,,,,シズオカケンリツダイガクレンゴウガクユウカイ,0
1046,4090002005571,登記記録の閉鎖等,0,2025-05-13,2025-04-25,有限会社貴商,,有限会社,山梨県,中巨摩郡昭和町,清水新居１５５１番地,,19,384,4093867,,,2025-04-25,清算の結了等,,,2015-10-05,1,,,,,キショウ,0
1049,4100002003557,登記記録の閉鎖等,0,2025-05-13,2025-05-08,長野カラー印刷有限会社,,有限会社,長野県,長野市,篠ノ井御幣川字南松島７５０番地,,20,201,3888006,,,2025-05-08,清算の結了等,,,2015-10-05,1,,,,,ナガノカラーインサツ,0
1056,4110002026219,登記記録の閉鎖等,0,2025-05-13,2025-04-24,有限会社クロスタニン糸魚川,,有限会社,新潟県,糸魚川市,中央２丁目１番２０号,,15,216,9410062,,,2025-04-24,清算の結了等,,,2015-10-05,1,,,,,クロスタニンイトイガワ,0
1061,4120001122174,登記記録の閉鎖等,0,2025-05-13,2025-04-25,株式会社燦燦,,株式会社,大阪府,大阪市東成区,東中本２丁目３番２０号４０３号室,,27,115,5370021,,,2025-04-25,清算の結了等,,,2015-10-05,1,,,,,,0
1062,4120001166865,登記記録の閉鎖等,0,2025-05-13,2025-04-25,株式会社ＧＬＡＭ,,株式会社,大阪府,大阪市淀川区,西宮原３丁目２番１号２階,,27,123,5320004,,,2025-04-25,清算の結了等,,,2015-10-05,1,,,,,グラム,0
1084,4120101023215,登記記録の閉鎖等,0,2025-05-13,2025-05-01,株式会社ＴＦマネジメント,,株式会社,大阪府,堺市堺区,遠里小野町２丁４番２６号,,27,141,5900001,,,2025-05-01,合併による解散等,6120101023213,令和７年５月１日大阪府堺市堺区遠里小野町二丁４番２６号株式会社リザインテル（6120101023213）に合併し解散,2015-10-05,1,,,,,ティーエフマネジメント,0
1090,4130001016623,登記記録の閉鎖等,0,2025-05-13,2025-05-09,宇野印刷株式会社,,株式会社,京都府,京都市下京区,黒門通五条上る柿本町５９２番地,,26,106,6008357,,,2025-05-09,清算の結了等,,,2015-10-05,1,,,,,ウノインサツ,0
1097,4140001010872,登記記録の閉鎖等,0,2025-05-13,2025-05-01,マーウェル・インターナショナル株式会社,,株式会社,兵庫県,神戸市中央区,港島中町５丁目１番４,,28,110,6500046,,,2025-05-01,合併による解散等,1140001011007,令和７年５月１日神戸市中央区港島中町五丁目１番１号マリーンエンタープライズ株式会社（1140001011007）に合併し解散,2015-10-05,1,,,,,マーウェルインターナショナル,0
1108,4140002064942,登記記録の閉鎖等,0,2025-05-13,2025-05-02,有限会社リーク,,有限会社,兵庫県,川西市,滝山町６番２１号,,28,217,6660002,,,2025-05-02,清算の結了等,,,2015-10-05,1,,,,,リーク,0
1115,4170002000300,登記記録の閉鎖等,0,2025-05-13,2025-05-12,有限会社伊賀板金工業,,有限会社,和歌山県,和歌山市,松江７１６番地の４９,,30,201,6408421,,,2025-05-12,清算の結了等,,,2015-10-05,1,,,,,イガバンキンコウギョウ,0
1133,4180301038255,登記記録の閉鎖等,0,2025-05-13,2025-05-07,株式会社ラヴィエベル,,株式会社,愛知県,名古屋市西区,上名古屋２丁目１番５号早川ビル１Ｆ,,23,104,4510025,,,2025-05-07,清算の結了等,,,2024-01-24,1,,,,,ラヴィエベル,0
1134,4180302020055,登記記録の閉鎖等,0,2025-05-13,2025-05-01,有限会社シンエイモデル,,有限会社,愛知県,安城市,和泉町郷前３９番地,,23,212,4441221,,,2025-05-01,合併による解散等,5180301013240,令和７年５月１日愛知県安城市和泉町郷前３９番地株式会社平松木型製作所（5180301013240）に合併し解散,2015-10-05,1,,,,,シンエイモデル,0
1138,4200001010965,登記記録の閉鎖等,0,2025-05-13,2025-05-01,双日ロジテック株式会社,,株式会社,岐阜県,羽島郡笠松町,北及１番地,,21,303,5016064,,,2025-05-01,合併による解散等,4120001066297,令和７年５月１日岐阜県羽島郡笠松町北及１番地双日ロジテック株式会社（4120001066297）に合併し解散,2015-10-05,1,,,,,,0
1140,4200002018438,登記記録の閉鎖等,0,2025-05-13,2025-05-12,有限会社伊藤製瓦,,有限会社,岐阜県,関市,東町３丁目３番１０号,,21,205,5013815,,,2025-05-12,清算の結了等,,,2015-10-05,1,,,,,イトウセイガ,0
1143,4200005005235,登記記録の閉鎖等,0,2025-05-13,2025-05-07,浄徳寺,,その他の設立登記法人,岐阜県,養老郡養老町,若宮４２番地,,21,341,5031265,,,2025-05-07,清算の結了等,,,2015-10-05,1,,,,,ジョウトクジ,0
1146,4220002008841,登記記録の閉鎖等,0,2025-05-13,2025-05-07,有限会社松島左官工業所,,有限会社,石川県,白山市,中柏野町７番地１１,,17,210,9240036,,,2025-05-07,清算の結了等,,,2015-10-05,1,,,,,マツシマサカンコウギョウショ,0
1154,4240002047185,登記記録の閉鎖等,0,2025-05-13,2025-05-01,有限会社小林コーポレーション,,有限会社,広島県,福山市,大門町６丁目９番１号,,34,207,7210926,,,2025-05-01,清算の結了等,,,2015-10-05,1,,,,,コバヤシコーポレーション,0
1159,4290001106631,登記記録の閉鎖等,0,2025-05-13,2025-04-01,三すい株式会社,,株式会社,福岡県,福岡市博多区,吉塚１丁目２２番３７－１号,,40,132,8120041,,,2025-04-01,清算の結了等,,,2024-08-13,1,,,,,サンスイ,0
1198,4400002010886,登記記録の閉鎖等,0,2025-05-13,2025-04-21,有限会社陸中まごころ葬祭,,有限会社,岩手県,宮古市,長町１丁目９番８号,,03,202,0270053,,,2025-04-21,清算の結了等,,,2015-10-05,1,,,,,リクチュウマゴコロソウサイ,0
1215,4470001007381,登記記録の閉鎖等,0,2025-05-13,2025-05-08,為実建設株式会社,,株式会社,香川県,丸亀市,福島町１３４番地,,37,202,7630044,,,2025-05-08,清算の結了等,,,2015-10-05,1,,,,,タメザネケンセツ,0
1222,5010001143858,登記記録の閉鎖等,0,2025-05-13,2025-05-07,株式会社セントラルシティ,,株式会社,兵庫県,神戸市中央区,加納町３丁目１番２６号,,28,110,6500001,,,2025-05-07,清算の結了等,,,2015-10-05,1,,,,,セントラルシティ,0
1224,5010001229178,登記記録の閉鎖等,0,2025-05-13,2025-04-11,株式会社ブルーティパワー,,株式会社,東京都,千代田区,神田東松下町１４番地,,13,101,1010042,,,2025-04-11,合併による解散等,4021001072452,令和７年４月１日東京都千代田区神田東松下町１４番地ＢＬＵＥＴＴＩ　ＪＡＰＡＮ株式会社（4021001072452）に合併し解散,2022-09-06,1,,,,,ブルーティパワー,0
1225,5010002020214,登記記録の閉鎖等,0,2025-05-13,2025-05-01,有限会社佐々木商店,,有限会社,東京都,江東区,豊洲１丁目３番２６－１０７,,13,108,1350061,,,2025-05-01,清算の結了等,,,2015-10-05,1,,,,,ササキショウテン,0
1226,5010003028603,登記記録の閉鎖等,0,2025-05-13,2025-04-11,Ａｓｓｕｒａｎｔ　Ｓｅｒｖｉｃｅｓ　Ｊａｐａｎ合同会社,,合同会社,東京都,千代田区,丸の内１丁目８番３号丸の内トラストタワー本館１０階,,13,101,1000005,,,2025-04-11,清算の結了等,,,2018-11-01,1,,,,,アシュラントサービシズジャパン,0
1228,5010003043230,登記記録の閉鎖等,0,2025-05-13,2025-04-18,合同会社ＩＲＳ４,,合同会社,東京都,千代田区,丸の内１丁目４番１号東京共同会計事務所内,,13,101,1000005,,,2025-04-18,清算の結了等,,,2024-03-15,1,,,,,アイアールエスフォー,0
1241,5010501000773,登記記録の閉鎖等,0,2025-05-13,2025-04-15,株式会社稲津＿,00051085,株式会社,東京都,新宿区,富久町１２番１－９０６号,,13,104,1620067,,,2025-04-15,清算の結了等,,,2015-10-05,1,,,,,イナヅマ,0
1247,5010602026313,登記記録の閉鎖等,0,2025-05-13,2025-05-01,有限会社井上冷熱,,有限会社,東京都,墨田区,墨田４丁目２６番６号,,13,107,1310031,,,2025-05-01,清算の結了等,,,2015-10-05,1,,,,,イノウエレイネツ,0
1253,5010701025777,登記記録の閉鎖等,0,2025-05-13,2025-04-14,アルファラベル印刷株式会社,,株式会社,東京都,品川区,荏原６丁目１３番９号,,13,109,1420063,,,2025-04-14,清算の結了等,,,2015-10-05,1,,,,,アルファラベルインサツ,0
1255,5010701045973,登記記録の閉鎖等,0,2025-05-13,2025-04-16,株式会社オンリーアップ,,株式会社,東京都,品川区,南品川５丁目１６－７Ｕ－ｍａｋｅ南品川１Ｆ,,13,109,1400004,,,2025-04-16,清算の結了等,,,2024-05-13,1,,,,,オンリーアップ,0
1258,5010801009416,登記記録の閉鎖等,0,2025-05-13,2025-04-30,新田工業株式会社,,株式会社,東京都,大田区,仲池上１丁目２５番５号,,13,111,1460081,,,2025-04-30,清算の結了等,,,2015-10-05,1,,,,,ニッタコウギョウ,0
1269,5010902003326,登記記録の閉鎖等,0,2025-05-13,2025-05-09,有限会社大原メディカル,,有限会社,東京都,世田谷区,大原１丁目３４番１９号,,13,112,1560041,,,2025-05-09,清算の結了等,,,2015-10-05,1,,,,,,0
1286,5011202010384,登記記録の閉鎖等,0,2025-05-13,2025-05-07,有限会社Ｂｅ　Ｖｉｌｌａｇｅ,,有限会社,東京都,中野区,弥生町６丁目５番３－７０１号,,13,114,1640013,,,2025-05-07,清算の結了等,,,2015-10-05,1,,,,,ビーヴィレッジ,0
1317,5013302002542,登記記録の閉鎖等,0,2025-05-13,2025-04-21,有限会社オプティカルオギノ,,有限会社,東京都,豊島区,南長崎５丁目１６番８号,,13,116,1710052,,,2025-04-21,清算の結了等,,,2015-10-05,1,,,,,オプティカルオギノ,0
1321,5020001100387,登記記録の閉鎖等,0,2025-05-13,2025-04-24,株式会社モダンライティングデザイン,,株式会社,神奈川県,横浜市港北区,日吉３丁目１５番２０－４０１号,,14,109,2230061,,,2025-04-24,清算の結了等,,,2015-10-05,1,,,,,モダンライティングデザイン,0
1334,5020002089802,登記記録の閉鎖等,0,2025-05-13,2025-05-02,藤西電機有限会社,,有限会社,神奈川県,川崎市高津区,下野毛３丁目１４番２２号,,14,134,2130006,,,2025-05-02,清算の結了等,,,2015-10-05,1,,,,,トウザイデンキ,0
1361,5040001088373,登記記録の閉鎖等,0,2025-05-13,2025-04-23,株式会社Ｌ・ヴィレッジ,,株式会社,千葉県,船橋市,大穴北１丁目２９番３号,,12,204,2740068,,,2025-04-23,清算の結了等,,,2015-10-05,1,,,,,エルヴィレッジ,0
1385,5070002013253,登記記録の閉鎖等,0,2025-05-13,2025-05-07,有限会社鈴木進学塾,,有限会社,群馬県,高崎市,箕郷町上芝４３７番地３２,,10,202,3703104,,,2025-05-07,清算の結了等,,,2015-10-05,1,,,,,スズキシンガクジュク,0
1395,5110001032456,登記記録の閉鎖等,0,2025-05-13,2025-04-24,株式会社新潟県央販売,,株式会社,新潟県,燕市,長辰７１３９番地,,15,213,9590139,,,2025-04-24,清算の結了等,,,2017-06-07,1,,,,,ニイガタケンオウハンバイ,0
1401,5120001112125,登記記録の閉鎖等,0,2025-05-13,2025-04-24,株式会社近畿エコロジー,,株式会社,大阪府,大阪市平野区,長吉川辺１丁目北２－２２,,27,126,5470014,,,2025-04-24,清算の結了等,,,2015-10-05,1,,,,,キンキエコロジー,0
1425,5120901018479,登記記録の閉鎖等,0,2025-05-13,2025-04-24,株式会社なにわ労務コンサルタント,,株式会社,大阪府,大阪市北区,天神橋３丁目３番３号南森町イシカワビル３階,,27,127,5300041,,,2025-04-24,清算の結了等,,,2015-10-05,1,,,,,ナニワロウムコンサルタント,0
1433,5120902006730,登記記録の閉鎖等,0,2025-05-13,2025-04-28,有限会社千流,,有限会社,大阪府,摂津市,鶴野４丁目１２－４０,,27,224,5660035,,,2025-04-28,清算の結了等,,,2015-10-05,1,,,,,,0
1441,5130001026984,登記記録の閉鎖等,0,2025-05-13,2025-05-09,株式会社アルファ,,株式会社,京都府,京都市山科区,東野中井ノ上町２１番地の３３,,26,110,6078142,,,2025-05-09,清算の結了等,,,2015-10-05,1,,,,,アルファ,0
1459,5140003003881,登記記録の閉鎖等,0,2025-05-13,2025-05-01,合資会社大学堂薬局,,合資会社,兵庫県,神戸市灘区,船寺通１丁目１番１８号,,28,102,6570842,,,2025-05-01,清算の結了等,,,2015-10-05,1,,,,,ダイガクドウヤッキョク,0
1465,5160001013600,登記記録の閉鎖等,0,2025-05-13,2025-05-08,ベルスタッフ滋賀株式会社,,株式会社,滋賀県,栗東市,大橋５丁目１１番１３号,,25,208,5203046,,,2025-05-08,合併による解散等,6120001063243,令和７年５月１日大阪府守口市八雲東町一丁目２１番１０号近畿いすゞ自動車販売株式会社（6120001063243）に合併し解散,2015-10-05,1,,,,,ベルスタッフシガ,0
1466,5160001017403,登記記録の閉鎖等,0,2025-05-13,2025-05-07,株式会社ＧＲＩＮＤ,,株式会社,滋賀県,大津市,本堅田２丁目１７番１３号,,25,201,5200242,,,2025-05-07,清算の結了等,,,2015-10-05,1,,,,,グリンド,0
1468,5180001061523,登記記録の閉鎖等,0,2025-05-13,2025-04-30,株式会社イギー,,株式会社,愛知県,名古屋市中区,上前津２丁目７番２４号上前津グランドハイツ９０４,,23,106,4600013,,,2025-04-30,合併による解散等,7180002029022,令和７年４月３０日名古屋市中村区名駅五丁目１０番７号花車ビル中館６１７株式会社マーベリックインターナショナル（7180002029022）に合併し解散,2015-10-05,1,,,,,イギー,0
1470,5180001087072,登記記録の閉鎖等,0,2025-05-13,2025-05-01,株式会社如月経営,,株式会社,愛知県,一宮市,木曽川町外割田字北乙五郎６２番地１,,23,203,4930007,,,2025-05-01,合併による解散等,7180001160554,令和７年５月１日愛知県一宮市木曽川町外割田字北乙五郎６２番地１株式会社如月（7180001160554）に合併し解散,2015-10-05,1,,,,,キサラギケイエイ,0
1475,5180002021154,登記記録の閉鎖等,0,2025-05-13,2025-05-07,有限会社宇佐美製作所,,有限会社,愛知県,名古屋市天白区,中砂町４３３番地,,23,116,4680065,,,2025-05-07,清算の結了等,,,2015-10-05,1,,,,,ウサミセイサクショ,0
1476,5180003015782,登記記録の閉鎖等,0,2025-05-13,2025-05-07,合同会社感動設計,,合同会社,愛知県,春日井市,高森台６丁目３番地１３,,23,206,4870032,,,2025-05-07,清算の結了等,,,2015-10-05,1,,,,,カンドウセッケイ,0
1482,5190001017417,登記記録の閉鎖等,0,2025-05-13,2025-05-02,株式会社スズガミネ,,株式会社,三重県,三重郡菰野町,大字永井１７５４番地,,24,341,5101311,,,2025-05-02,清算の結了等,,,2015-10-05,1,,,,,スズガミネ,0
1497,5260005006516,登記記録の閉鎖等,0,2025-05-13,2025-04-28,作州運送事業協同組合,,その他の設立登記法人,岡山県,美作市,位田４８０番地,,33,215,7070052,,,2025-04-28,清算の結了等,,,2015-10-05,1,,,,,サクシュウウンソウ,0
1506,5320001020415,登記記録の閉鎖等,0,2025-05-13,2025-04-28,Ｌｏｃａｌ　Ｖｅｎｔｕｒｅ　Ｃｏｍｍｏｎｓ株式会社,,株式会社,大分県,大分市,府内町１丁目６番４３号,,44,201,8700021,,,2025-04-28,合併による解散等,7320003001766,令和７年４月２８日大分市府内町一丁目６番４３号ＫＩＨＡＲＡ　Ｃｏｍｍｏｎｓ株式会社（7320003001766）に合併し解散,2024-04-11,1,,,,,ローカルベンチャーコモンズ,0
1515,5340002023670,登記記録の閉鎖等,0,2025-05-13,2025-04-24,有限会社前園家具,,有限会社,鹿児島県,南さつま市,加世田本町４９番地１５,,46,220,8970006,,,2025-04-24,清算の結了等,,,2015-10-05,1,,,,,マエソノカグ,0
1522,5390001009831,登記記録の閉鎖等,0,2025-05-13,2025-04-25,北赤湯鉄工株式会社,,株式会社,山形県,米沢市,御廟２丁目３番８号,,06,202,9920055,,,2025-04-25,清算の結了等,,,2015-10-05,1,,,,,キタアカユテッコウ,0
1524,5390002010235,登記記録の閉鎖等,0,2025-05-13,2025-04-30,有限会社淺賀商店,,有限会社,山形県,東田川郡三川町,大字助川字村下２９番地,,06,426,9971331,,,2025-04-30,清算の結了等,,,2015-10-05,1,,,,,アサガショウテン,0
1537,5440002002235,登記記録の閉鎖等,0,2025-05-13,2025-04-24,有限会社すぎめ,,有限会社,宮城県,仙台市宮城野区,原町１丁目３番１４－３０１号,,04,102,9830841,,,2025-04-24,清算の結了等,,,2015-10-05,1,,,,,スギメ,0
1576,6011101005781,登記記録の閉鎖等,0,2025-05-13,2025-04-15,クリーンプロダクツ株式会社,,株式会社,東京都,新宿区,新小川町９番２号,,13,104,1620814,,,2025-04-15,清算の結了等,,,2015-10-05,1,,,,,クリーンプロダクツ,0
1581,6011101106068,登記記録の閉鎖等,0,2025-05-13,2025-04-15,株式会社プルミエソレイユ,,株式会社,東京都,新宿区,西新宿１丁目４番１１号,,13,104,1600023,,,2025-04-15,清算の結了等,,,2024-02-05,1,,,,,プルミエソレイユ,0
1583,6011102016695,登記記録の閉鎖等,0,2025-05-13,2025-04-16,有限会社オオタリース,,有限会社,東京都,新宿区,中井１丁目５番１０号,,13,104,1610035,,,2025-04-16,清算の結了等,,,2015-10-05,1,,,,,オオタリース,0
1585,6011201014856,登記記録の閉鎖等,0,2025-05-13,2025-05-01,株式会社ホームネクスト,,株式会社,東京都,杉並区,高円寺北２丁目１番２４号,,13,115,1660002,,,2025-05-01,合併による解散等,2011301006344,令和７年５月１日東京都杉並区高円寺南四丁目２６番１６号フジミ株式会社（2011301006344）に合併し解散,2015-10-05,1,,,,,ホームネクスト,0
1589,6011401014838,登記記録の閉鎖等,0,2025-05-13,2025-05-08,ヒューグル開発株式会社,,株式会社,東京都,板橋区,蓮根３丁目１４番１３号,00054943,13,119,1740046,,,2025-05-08,合併による解散等,1010001027445,令和７年４月１日東京都千代田区飯田橋四丁目５番７号ヒューグルエレクトロニクス株式会社（1010001027445）に合併し解散,2015-10-05,1,,,,,ヒューグルカイハツ,0
1594,6011801025583,登記記録の閉鎖等,0,2025-05-13,2025-05-08,株式会社ブルーウッド,,株式会社,東京都,足立区,保塚町４番１３号,,13,121,1210072,,,2025-05-08,清算の結了等,,,2015-10-05,1,,,,,ブルーウッド,0
1600,6012802006515,登記記録の閉鎖等,0,2025-05-13,2025-04-30,有限会社ジェイ・アイ・マーケティング,,有限会社,東京都,東大和市,立野３丁目１２４５番地の６,,13,220,2070021,,,2025-04-30,清算の結了等,,,2015-10-05,1,,,,,ジェイアイマーケティング,0
1611,6020002024337,登記記録の閉鎖等,0,2025-05-13,2025-05-02,有限会社トラス商会,,有限会社,神奈川県,横浜市保土ケ谷区,権太坂３丁目９番１－５１１号,,14,106,2400026,,,2025-05-02,清算の結了等,,,2015-10-05,1,,,,,トラスショウカイ,0
1623,6030001016763,登記記録の閉鎖等,0,2025-05-13,2025-05-07,株式会社ネクスト建工,,株式会社,埼玉県,さいたま市桜区,田島１０丁目１番１号,,11,106,3380837,,,2025-05-07,清算の結了等,,,2015-10-05,1,,,,,ネクストケンコウ,0
1631,6040001059340,登記記録の閉鎖等,0,2025-05-13,2025-04-22,東立電設株式会社,,株式会社,千葉県,茂原市,早野２６２９番地,,12,210,2970037,,,2025-04-22,清算の結了等,,,2015-10-05,1,,,,,トウリツデンセツ,0
1654,6080101025387,登記記録の閉鎖等,0,2025-05-13,2025-04-21,南伊豆リゾート開発株式会社,,株式会社,静岡県,下田市,東本郷１丁目４番１１号,,22,219,4150035,,,2025-04-21,清算の結了等,,,2025-03-24,1,,,,,ミナミイズリゾートカイハツ,0
1661,6100002027249,登記記録の閉鎖等,0,2025-05-13,2025-05-07,有限会社青木石油店,00069647,有限会社,長野県,木曽郡南木曽町,吾妻２１８番地の６８,,20,423,3995302,,,2025-05-07,清算の結了等,,,2015-10-05,1,,,,,アオキセキユテン,0
1677,6120001244561,登記記録の閉鎖等,0,2025-05-13,2025-04-24,株式会社Ｋｏｋｉａ,,株式会社,大阪府,大阪市城東区,関目２丁目２番１１号,,27,118,5360008,,,2025-04-24,清算の結了等,,,2022-03-18,1,,,,,コキア,0
1686,6120002065494,登記記録の閉鎖等,0,2025-05-13,2025-04-24,有限会社オプティ・コーポレーション,,有限会社,大阪府,大阪市福島区,福島３丁目９番１４号,,27,103,5530003,,,2025-04-24,清算の結了等,,,2015-10-05,1,,,,,オプティコーポレーション,0
1698,6120902014006,登記記録の閉鎖等,0,2025-05-13,2025-04-25,有限会社戎鉄工所,,有限会社,大阪府,吹田市,千里山西６丁目６２番Ａ－７１６号,,27,205,5650851,,,2025-04-25,清算の結了等,,,2015-10-05,1,,,,,エビステッコウショ,0
1712,6140002001225,登記記録の閉鎖等,0,2025-05-13,2025-05-07,有限会社エピック,,有限会社,兵庫県,神戸市東灘区,御影本町２丁目１９番８号,,28,101,6580046,,,2025-05-07,清算の結了等,,,2015-10-05,1,,,,,,0
1716,6150001026494,登記記録の閉鎖等,0,2025-05-13,2025-05-09,株式会社リベルタ,,株式会社,奈良県,奈良市,法蓮町７５７番地の１４,,29,201,6308113,,,2025-05-09,合併による解散等,5130001036868,令和７年４月２９日京都府木津川市加茂町法花寺野風呂田１５番地株式会社幸喜建設（5130001036868）に合併し解散,2023-06-20,1,,,,,リベルタ,0
1721,6170002002105,登記記録の閉鎖等,0,2025-05-13,2025-05-12,有限会社ゼンユウ,,有限会社,和歌山県,和歌山市,善明寺３５０番地,,30,201,6408471,,,2025-05-12,清算の結了等,,,2015-10-05,1,,,,,ゼンユウ,0
1726,6180001013408,登記記録の閉鎖等,0,2025-05-13,2025-05-01,株式会社ＩＳＯＷＡ中津川,,株式会社,愛知県,春日井市,西屋町字南野池６６番地,,23,206,4860908,,,2025-05-01,合併による解散等,8180001011582,令和７年５月１日愛知県春日井市西屋町字南野池６６番地株式会社ＩＳＯＷＡ（8180001011582）に合併し解散,2015-10-05,1,,,,,イソワナカツガワ,0
1740,6180301033147,登記記録の閉鎖等,0,2025-05-13,2025-05-01,リバティ東海株式会社,,株式会社,愛知県,丹羽郡大口町,余野５丁目２２４番地,,23,361,4800146,,,2025-05-01,清算の結了等,,,2019-11-18,1,,,,,リバティトウカイ,0
1744,6190002006319,登記記録の閉鎖等,0,2025-05-13,2025-05-02,有限会社小林フォーミング,,有限会社,三重県,鈴鹿市,稲生塩屋２丁目２３番１号,,24,207,5100207,,,2025-05-02,清算の結了等,,,2015-10-05,1,,,,,,0
1748,6200001009386,登記記録の閉鎖等,0,2025-05-13,2025-05-08,東海中央サポート株式会社,,株式会社,岐阜県,各務原市,蘇原青雲町５丁目２０番の３ミズノビル２階,,21,213,5040843,,,2025-05-08,清算の結了等,,,2015-10-05,1,,,,,トウカイチュウオウサポート,0
1754,6220002008897,登記記録の閉鎖等,0,2025-05-13,2025-05-08,有限会社石川グリーン,,有限会社,石川県,白山市,小川町５２７番地,,17,210,9240067,,,2025-05-08,清算の結了等,,,2015-10-05,1,,,,,イシカワグリーン,0
1761,6240001061912,登記記録の閉鎖等,0,2025-05-13,2025-05-01,株式会社オオタ電工,,株式会社,広島県,竹原市,下野町２９８５番地１０,,34,203,7250012,,,2025-05-01,清算の結了等,,,2023-08-04,1,,,,,オオタデンコウ,0
1764,6240003003788,登記記録の閉鎖等,0,2025-05-13,2025-05-07,合同会社三優総研,,合同会社,広島県,広島市安佐北区,狩留家町２０１１番地,,34,106,7391753,,,2025-05-07,清算の結了等,,,2018-01-24,1,,,,,サンユウソウケン,0
1765,6240005012622,登記記録の閉鎖等,0,2025-05-13,2025-05-08,農事組合法人大仙,,その他の設立登記法人,広島県,世羅郡世羅町,大字山中福田３３９７番地１,,34,462,7221702,,,2025-05-08,清算の結了等,,,2015-10-05,1,,,,,ダイセン,0
1789,6340002023414,登記記録の閉鎖等,0,2025-05-13,2025-05-02,大浦建設有限会社,,有限会社,鹿児島県,南さつま市,大浦町１２３３番地,,46,220,8971201,,,2025-05-02,清算の結了等,,,2015-10-05,1,,,,,オオウラケンセツ,0
1791,6340002025625,登記記録の閉鎖等,0,2025-05-13,2025-04-28,有限会社辛卯,,有限会社,鹿児島県,鹿屋市,西大手町８１９０番地１,,46,203,8930008,,,2025-04-28,清算の結了等,,,2015-10-05,1,,,,,ジンボウ,0
1797,6370001010880,登記記録の閉鎖等,0,2025-05-13,2025-04-24,株式会社テクノファシリティーズ,,株式会社,宮城県,仙台市青葉区,上杉１丁目１０番４号,,04,101,9800011,,,2025-04-24,清算の結了等,,,2015-10-05,1,,,,,テクノファシリティーズ,0
1799,6380001012769,登記記録の閉鎖等,0,2025-05-13,2025-04-30,株式会社国井海苔店,,株式会社,福島県,いわき市,平中神谷字北鳥沼４４番地の７,,07,204,9708021,,,2025-04-30,清算の結了等,,,2015-10-05,1,,,,,クニイノリテン,0
1818,6460302001917,登記記録の閉鎖等,0,2025-05-13,2025-05-09,有限会社樹林仙波,,有限会社,北海道,北見市,中央三輪３丁目５０２番地１７,,01,208,0900837,,,2025-05-09,清算の結了等,,,2015-10-05,1,,,,,ジュリンセンバ,0
1830,7010001205185,登記記録の閉鎖等,0,2025-05-13,2025-05-09,ｓｐａｃｅｍｏｔｉｏｎ株式会社,,株式会社,東京都,千代田区,大手町１丁目１番１号,,13,101,1000004,,,2025-05-09,合併による解散等,3010001181505,令和７年４月１日東京都新宿区新宿１－１６－９シャンヴィラカテリーナ３ＦＧＲＡＮＤ株式会社（3010001181505）に合併し解散,2019-11-13,1,,,,,スペースモーション,0
1846,7010501023194,登記記録の閉鎖等,0,2025-05-13,2025-04-07,コムラ株式会社,,株式会社,東京都,台東区,根岸２丁目１９番２５号,,13,106,1100003,,,2025-04-07,清算の結了等,,,2015-10-05,1,,,,,コムラ,0
1854,7010601006520,登記記録の閉鎖等,0,2025-05-13,2025-05-07,株式会社夢ふうせん,,株式会社,東京都,江東区,森下２丁目２番５号,,13,108,1350004,,,2025-05-07,清算の結了等,,,2015-10-05,1,,,,,ユメフウセン,0
1855,7010601028052,登記記録の閉鎖等,0,2025-05-13,2025-05-02,株式会社ミキサージュ,,株式会社,東京都,墨田区,業平１丁目３番１号,,13,107,1300002,,,2025-05-02,清算の結了等,,,2015-10-05,1,,,,,ミキサージュ,0
1856,7010601030644,登記記録の閉鎖等,0,2025-05-13,2025-04-30,ジョプスデスク株式会社,,株式会社,東京都,江東区,新砂３丁目１０番８号,,13,108,1360075,,,2025-04-30,清算の結了等,,,2015-10-05,1,,,,,ジョプスデスク,0
1866,7010805002943,登記記録の閉鎖等,0,2025-05-13,2025-04-14,一般社団法人Ｌｕｃｋｓ,,その他の設立登記法人,東京都,新宿区,西新宿３丁目３番１３号西新宿水間ビル６階,,13,104,1600023,,,2025-04-14,清算の結了等,,,2022-05-20,1,,,,,ラックス,0
1881,7011005005142,登記記録の閉鎖等,0,2025-05-13,2025-04-07,特定非営利活動法人楽生,,その他の設立登記法人,東京都,目黒区,下目黒１丁目２番２１号泰山堂ビル８階,,13,110,1530064,,,2025-04-07,清算の結了等,,,2015-10-05,1,,,,,ラクショウ,0
1914,7020001012770,登記記録の閉鎖等,0,2025-05-13,2025-04-25,株式会社協和工務店,,株式会社,神奈川県,横浜市南区,清水ケ丘２３４番地,,14,105,2320007,,,2025-04-25,清算の結了等,,,2015-10-05,1,,,,,キョウワコウムテン,0
1916,7020001103181,登記記録の閉鎖等,0,2025-05-13,2025-04-24,株式会社ＰＥＣ,,株式会社,神奈川県,川崎市中原区,下小田中２丁目３４番８－１０１号,,14,133,2110041,,,2025-04-24,清算の結了等,,,2015-10-05,1,,,,,,0
1942,7030002104260,登記記録の閉鎖等,0,2025-05-13,2025-05-07,有限会社ソーイングウノメ,,有限会社,埼玉県,川口市,柳崎３丁目７番１号,,11,203,3330861,,,2025-05-07,清算の結了等,,,2015-10-05,1,,,,,ソーイングウノメ,0
1945,7030003019862,登記記録の閉鎖等,0,2025-05-13,2025-05-02,合同会社トップギヤコンサルティング,,合同会社,埼玉県,所沢市,東所沢５丁目１番地の８メイツ東所沢駅前６０５,,11,208,3590021,,,2025-05-02,清算の結了等,,,2022-07-25,1,,,,,トップギヤコンサルティング,0
1961,7050001012693,登記記録の閉鎖等,0,2025-05-13,2025-05-01,株式会社ケイネック,,株式会社,茨城県,土浦市,中貫１５０６番地９,,08,203,3000005,,,2025-05-01,清算の結了等,,,2015-10-05,1,,,,,ケイネック,0
1963,7050005007137,登記記録の閉鎖等,0,2025-05-13,2025-04-23,日立鉄工協同組合,,その他の設立登記法人,茨城県,日立市,桜川町２丁目２５番３号,,08,202,3160002,,,2025-04-23,清算の結了等,,,2015-10-05,1,,,,,ヒタチテッコウ,0
1966,7070001019539,登記記録の閉鎖等,0,2025-05-13,2025-04-30,株式会社エコシステム,,株式会社,群馬県,邑楽郡大泉町,富士３丁目２１番２５号,,10,524,3700522,,,2025-04-30,清算の結了等,,,2015-10-05,1,,,,,エコシステム,0
1969,7070002019018,登記記録の閉鎖等,0,2025-05-13,2025-05-08,有限会社佐藤自動車整備工場,,有限会社,群馬県,伊勢崎市,富塚町２０５番地１７,,10,204,3720833,,,2025-05-08,清算の結了等,,,2015-10-05,1,,,,,サトウジドウシャセイビコウジョウ,0
1976,7080402003207,登記記録の閉鎖等,0,2025-05-13,2025-05-01,有限会社サカモト,,有限会社,静岡県,浜松市中央区,福島町５２１番地,,22,138,4300836,,,2025-05-01,清算の結了等,,,2015-10-05,1,,,,,サカモト,0
2014,7122001012823,登記記録の閉鎖等,0,2025-05-13,2025-05-08,株式会社クレイン,,株式会社,大阪府,東大阪市,西石切町１丁目７番２１－４０１号,,27,227,5798013,,,2025-05-08,清算の結了等,,,2015-10-05,1,,,,,クレイン,0
2049,7180001128106,登記記録の閉鎖等,0,2025-05-13,2025-05-07,株式会社ホッタディレクションズ,,株式会社,愛知県,名古屋市中区,栄３丁目８番２１号,,23,106,4600008,,,2025-05-07,清算の結了等,,,2017-06-06,1,,,,,ホッタディレクションズ,0
2062,7180302027634,登記記録の閉鎖等,0,2025-05-13,2025-05-02,有限会社熊谷自動車,,有限会社,愛知県,新城市,平井字藪添１０番地の１,,23,221,4411361,,,2025-05-02,清算の結了等,,,2015-10-05,1,,,,,クマガイジドウシャ,0
2065,7190005000805,登記記録の閉鎖等,0,2025-05-13,2025-04-17,天理教眞井分教会,,その他の設立登記法人,三重県,津市,高野尾町４９４５番地,,24,201,5142221,,,2025-04-17,合併による解散等,8160005002836,令和７年３月１３日滋賀県甲賀市土山町北土山２１９１番地天理教土山分教会（8160005002836）に合併し解散,2015-10-05,1,,,,,テンリキョウマナイブンキョウカイ,0
2069,7220001022130,登記記録の閉鎖等,0,2025-05-13,2025-05-07,株式会社暮らしと介護の相談所,,株式会社,石川県,金沢市,福増町北１３４８番地１,,17,201,9200376,,,2025-05-07,清算の結了等,,,2018-02-26,1,,,,,クラシトカイゴノソウダンジョ,0
2073,7220002014069,登記記録の閉鎖等,0,2025-05-13,2025-05-08,有限会社べんりやさん,,有限会社,石川県,七尾市,佐野町ロ、９９番地１,,17,202,9260013,,,2025-05-08,清算の結了等,,,2015-10-05,1,,,,,ベンリヤサン,0
2114,7390002013590,登記記録の閉鎖等,0,2025-05-13,2025-04-25,有限会社米沢正和,,有限会社,山形県,米沢市,大町４丁目１番５－１号,,06,202,9920031,,,2025-04-25,清算の結了等,,,2015-10-05,1,,,,,ヨネザワセイワ,0
2121,7430001048419,登記記録の閉鎖等,0,2025-05-13,2025-05-01,株式会社空知ウッドテープ,,株式会社,北海道,赤平市,平岸東町２丁目１９番地,,01,218,0791283,,,2025-05-01,合併による解散等,4430001048413,令和７年５月１日北海道赤平市平岸西町六丁目１２番地６空知單板工業株式会社（4430001048413）に合併し解散,2015-10-05,1,,,,,ソラチウッドテープ,0
2131,7460001005318,登記記録の閉鎖等,0,2025-05-13,2025-05-09,株式会社藤真,,株式会社,北海道,釧路市,春採４丁目９番３号,,01,206,0850813,,,2025-05-09,清算の結了等,,,2019-01-08,1,,,,,トウシン,0
2133,7490001000472,登記記録の閉鎖等,0,2025-05-13,2025-05-12,株式会社協連建設,,株式会社,高知県,高知市,中久万５６０番地,,39,201,7800983,,,2025-05-12,清算の結了等,,,2015-10-05,1,,,,,キョウレンケンセツ,0
2138,8010001000032,登記記録の閉鎖等,0,2025-05-13,2025-05-01,株式会社朝日デザイン,,株式会社,東京都,杉並区,高円寺北４丁目２０番４号,,13,115,1660002,,,2025-05-01,清算の結了等,,,2015-10-05,1,,,,,アサヒデザイン,0
2156,8010503006683,登記記録の閉鎖等,0,2025-05-13,2025-04-22,合同会社飛鳥山,,合同会社,東京都,台東区,台東４丁目２９番１３－８０２号,,13,106,1100016,,,2025-04-22,清算の結了等,,,2022-08-15,1,,,,,アスカヤマ,0
2168,8011001132674,登記記録の閉鎖等,0,2025-05-13,2025-04-04,株式会社ブリューアス,,株式会社,東京都,渋谷区,渋谷１丁目２番５号ＭＦＰＲ渋谷ビル,,13,113,1500002,,,2025-04-04,合併による解散等,8011001067994,令和７年４月１日東京都渋谷区渋谷一丁目２番５号株式会社ブリューアス（8011001067994）に合併し解散,2020-03-04,1,,,,,ブリューアス,0
2186,8011301004276,登記記録の閉鎖等,0,2025-05-13,2025-04-30,多摩恒産株式会社,,株式会社,東京都,杉並区,上井草２丁目１番１５号,,13,115,1670023,,,2025-04-30,清算の結了等,,,2015-10-05,1,,,,,タマコウサン,0
2202,8012401000776,登記記録の閉鎖等,0,2025-05-13,2025-05-01,株式会社昌和測量事務所,,株式会社,東京都,府中市,若松町４丁目８番地５,,13,206,1830005,,,2025-05-01,清算の結了等,,,2015-10-05,1,,,,,,0
2208,8020001025994,登記記録の閉鎖等,0,2025-05-13,2025-03-31,カワイ建設工業株式会社,,株式会社,神奈川県,横浜市金沢区,福浦１丁目３番地の７,,14,108,2360004,,,2025-03-31,清算の結了等,,,2015-10-05,1,,,,,,0
2209,8020001057220,登記記録の閉鎖等,0,2025-05-13,2025-04-25,株式会社トゥインクルクリエイト,,株式会社,神奈川県,横浜市港南区,上大岡西３丁目６番１６－３０１号,,14,111,2330002,,,2025-04-25,清算の結了等,,,2015-10-05,1,,,,,トゥインクルクリエイト,0
2210,8020001058367,登記記録の閉鎖等,0,2025-05-13,2025-04-23,三電工業株式会社,,株式会社,神奈川県,横浜市磯子区,洋光台５丁目６番２２－１０２号,,14,107,2350045,,,2025-04-23,清算の結了等,,,2015-10-05,1,,,,,サンデンコウギョウ,0
2220,8020002078455,登記記録の閉鎖等,0,2025-05-13,2025-05-07,有限会社来徳,,有限会社,神奈川県,横浜市磯子区,洋光台２丁目１番２１－１０４号,,14,107,2350045,,,2025-05-07,清算の結了等,,,2015-10-05,1,,,,,ライトク,0
2229,8030001061163,登記記録の閉鎖等,0,2025-05-13,2025-05-07,株式会社優育,,株式会社,埼玉県,児玉郡上里町,大字七本木５７７５番地,,11,385,3690306,,,2025-05-07,清算の結了等,,,2015-10-05,1,,,,,ユウイク,0
2233,8030001131123,登記記録の閉鎖等,0,2025-05-13,2025-05-07,いいクルマ株式会社,,株式会社,埼玉県,鶴ヶ島市,大字上広谷７２１番地１,,11,241,3502203,,,2025-05-07,合併による解散等,5010701037087,令和７年４月３０日神奈川県相模原市中央区星が丘３－５－２３株式会社サークルエム（5010701037087）に合併し解散,2019-06-04,1,,,,,イイクルマ,0
2247,8040002059148,登記記録の閉鎖等,0,2025-05-13,2025-04-21,くろこほーむ有限会社,,有限会社,千葉県,成田市,芦田８４６番地,,12,211,2860831,,,2025-04-21,清算の結了等,,,2015-10-05,1,,,,,クロコホーム,0
2253,8050002003947,登記記録の閉鎖等,0,2025-05-13,2025-05-02,有限会社赤塚製餡所,,有限会社,茨城県,水戸市,大足町１２８４番地の２,,08,201,3190312,,,2025-05-02,清算の結了等,,,2015-10-05,1,,,,,アカツカセイアンジョ,0
2255,8060001023689,登記記録の閉鎖等,0,2025-05-13,2025-04-30,Ｊ’ｓファクトリー株式会社,,株式会社,東京都,江東区,住吉１丁目１９番１号６０５,,13,108,1350002,,,2025-04-30,清算の結了等,,,2015-10-05,1,,,,,ジェイズファクトリー,0
2268,8080102000437,登記記録の閉鎖等,0,2025-05-13,2025-05-02,有限会社ウエストサービス,,有限会社,静岡県,沼津市,共栄町２０番地の５,,22,203,4100064,,,2025-05-02,清算の結了等,,,2015-10-05,1,,,,,ウエストサービス,0
2270,8080105001052,登記記録の閉鎖等,0,2025-05-13,2025-05-02,特定非営利活動法人経営改善支援研究会,,その他の設立登記法人,静岡県,沼津市,松長１１８番地の４,,22,203,4100874,,,2025-05-02,清算の結了等,,,2015-10-05,1,,,,,ケイエイカイゼンシエンケンキュウカイ,0
2287,8120001106388,登記記録の閉鎖等,0,2025-05-13,2025-04-28,株式会社クロダ,,株式会社,大阪府,箕面市,外院３丁目２３番１号,,27,220,5620026,,,2025-04-28,清算の結了等,,,2015-10-05,1,,,,,クロダ,0
2288,8120001110398,登記記録の閉鎖等,0,2025-05-13,2025-05-08,島津サイエンス西日本株式会社,,株式会社,大阪府,大阪市北区,豊崎５丁目４番９号商業第二ビル,,27,127,5310072,,,2025-05-08,合併による解散等,7010501032617,令和７年４月１日東京都台東区浅草橋五丁目２０番８号島津サイエンス株式会社（7010501032617）に合併し解散,2015-10-05,1,,,,,シマヅサイエンスニシニホン,0
2291,8120001198087,登記記録の閉鎖等,0,2025-05-13,2025-04-24,株式会社インサイト,,株式会社,大阪府,大阪市中央区,久太郎町１丁目２－７－３０６,,27,128,5410056,,,2025-04-24,清算の結了等,,,2016-05-09,1,,,,,インサイト,0
2299,8120101061327,登記記録の閉鎖等,0,2025-05-13,2025-05-07,マザーズラブ株式会社,,株式会社,大阪府,堺市西区,上１６２番地１２,,27,144,5938311,,,2025-05-07,清算の結了等,,,2020-03-02,1,,,,,マザーズラブ,0
2303,8120102005514,登記記録の閉鎖等,0,2025-05-13,2025-05-01,有限会社ケティーメディカル,,有限会社,大阪府,堺市南区,庭代台４丁１７番６号,,27,145,5900133,,,2025-05-01,清算の結了等,,,2015-10-05,1,,,,,ケティーメディカル,0
2319,8130001030901,登記記録の閉鎖等,0,2025-05-13,2025-05-08,株式会社リブラ,,株式会社,京都府,長岡京市,梅が丘１丁目１００番地,,26,209,6170841,,,2025-05-08,清算の結了等,,,2015-10-05,1,,,,,リブラ,0
2349,8180001141834,登記記録の閉鎖等,0,2025-05-13,2025-04-30,Ｋｓ　ｐｒｅｓｅｎｔｓ株式会社,,株式会社,愛知県,名古屋市守山区,金屋２丁目８５番地,,23,113,4630072,,,2025-04-30,清算の結了等,,,2020-07-06,1,,,,,ケースプレゼンツ,0
2373,8230001000274,登記記録の閉鎖等,0,2025-05-13,2025-05-07,株式会社イナセホーム,,株式会社,富山県,富山市,町村２７番地の１１,,16,201,9300952,,,2025-05-07,清算の結了等,,,2015-10-05,1,,,,,イナセホーム,0
2374,8230001002386,登記記録の閉鎖等,0,2025-05-13,2025-05-09,日通富山運輸株式会社,,株式会社,富山県,富山市,上野新町４番２１号,,16,201,9318326,,,2025-05-09,清算の結了等,,,2015-10-05,1,,,,,ニッツウトヤマウンユ,0
2392,8300002011560,登記記録の閉鎖等,0,2025-05-13,2025-05-08,有限会社久保酒店,,有限会社,佐賀県,西松浦郡有田町,下山谷乙３３３番地２,,41,401,8494143,,,2025-05-08,清算の結了等,,,2015-10-05,1,,,,,クボサケテン,0
2403,8340001024312,登記記録の閉鎖等,0,2025-05-13,2025-04-28,株式会社ピアノ,,株式会社,鹿児島県,大島郡龍郷町,芦徳６５４番地,,46,527,8940412,,,2025-04-28,清算の結了等,,,2021-12-06,1,,,,,ピアノ,0
2404,8340001024394,登記記録の閉鎖等,0,2025-05-13,2025-04-30,株式会社ＪＥＮＥ,,株式会社,鹿児島県,鹿児島市,山之口町１２番２１号第一アサヒプラザビル４階Ａ号,,46,201,8920844,,,2025-04-30,合併による解散等,9340001024393,令和７年４月３０日鹿児島市山之口町１２番２１号第一アサヒプラザビル４階Ａ号株式会社ＨＡＬＯ（9340001024393）に合併し解散,2022-01-06,1,,,,,ジェネ,0
2409,8350001012299,登記記録の閉鎖等,0,2025-05-13,2025-05-01,株式会社ソーラー西都,,株式会社,宮崎県,都城市,中原町３２街区１号,,45,202,8850032,,,2025-05-01,合併による解散等,9350001011829,令和７年５月１日宮崎県都城市中原町３２街区１号株式会社吉原サンライズ（9350001011829）に合併し解散,2015-10-05,1,,,,,ソーラーサイト,0
2440,8480003001568,登記記録の閉鎖等,0,2025-05-13,2025-05-08,土山バイオマス発電所合同会社,,合同会社,徳島県,阿南市,畭町三田７９番地１,,36,204,7740003,,,2025-05-08,清算の結了等,,,2020-11-10,1,,,,,ツチヤマバイオマスハツデンショ,0
2453,9010401132449,登記記録の閉鎖等,0,2025-05-13,2025-05-07,ネクストリード株式会社,,株式会社,東京都,港区,六本木４丁目３番１１号六本木ユニハウス２２３号,,13,103,1060032,,,2025-05-07,合併による解散等,7010401186629,令和７年５月１日東京都港区六本木一丁目６番１号ＮＸＴホールディングス株式会社（7010401186629）に合併し解散,2017-07-18,1,,,,,ネクストリード,0
2486,9011401023464,登記記録の閉鎖等,0,2025-05-13,2025-05-09,Ｕｎｉｔｅｄ　Ｆｒｏｎｔ株式会社,,株式会社,東京都,板橋区,高島平７丁目６番７号,,13,119,1750082,,,2025-05-09,清算の結了等,,,2021-06-17,1,,,,,ユナイテッドフロント,0
2489,9011403001625,登記記録の閉鎖等,0,2025-05-13,2025-05-08,株式会社ソレアード,,株式会社,東京都,板橋区,高島平８丁目２１番６号,,13,119,1750082,,,2025-05-08,清算の結了等,,,2015-10-05,1,,,,,ソレアード,0
2490,9011602007514,登記記録の閉鎖等,0,2025-05-13,2025-05-01,有限会社長田塗装工業,,有限会社,東京都,練馬区,練馬１丁目２２番１号,,13,120,1760001,,,2025-05-01,清算の結了等,,,2015-10-05,1,,,,,ナガタトソウコウギョウ,0
2502,9012801019523,登記記録の閉鎖等,0,2025-05-13,2025-04-28,株式会社カトウ設備企画,,株式会社,東京都,立川市,曙町３丁目３番５号,00117026,13,202,1900012,,,2025-04-28,清算の結了等,,,2019-07-03,1,,,,,カトウセツビキカク,0
2515,9020001105028,登記記録の閉鎖等,0,2025-05-13,2025-04-22,株式会社シンダイニング,,株式会社,神奈川県,横浜市西区,みなとみらい４丁目９番２号,,14,103,2200012,,,2025-04-22,清算の結了等,,,2015-10-05,1,,,,,シンダイニング,0
2522,9020002000731,登記記録の閉鎖等,0,2025-05-13,2025-05-02,有限会社本郷,,有限会社,神奈川県,横浜市栄区,上郷町５９番地,,14,115,2470013,,,2025-05-02,清算の結了等,,,2015-10-05,1,,,,,ホンゴウ,0
2529,9020002024524,登記記録の閉鎖等,0,2025-05-13,2025-05-02,有限会社パープル・ウイング,,有限会社,神奈川県,横浜市保土ケ谷区,岩井町２９番地,,14,106,2400023,,,2025-05-02,清算の結了等,,,2015-10-05,1,,,,,パープルウイング,0
2553,9040001076647,登記記録の閉鎖等,0,2025-05-13,2025-04-21,株式会社ユミックス,,株式会社,千葉県,木更津市,請西東４丁目７番地１８,,12,206,2920806,,,2025-04-21,清算の結了等,,,2015-10-05,1,,,,,ユミックス,0
2558,9040002078683,登記記録の閉鎖等,0,2025-05-13,2025-04-23,有限会社リアルエステート長島,,有限会社,千葉県,東金市,日吉台３丁目２２番地１３,,12,213,2830803,,,2025-04-23,清算の結了等,,,2015-10-05,1,,,,,リアルエステートナガシマ,0
2572,9050002021171,登記記録の閉鎖等,0,2025-05-13,2025-05-01,有限会社クラフト・オカダ,,有限会社,茨城県,つくば市,西大橋８１番地,,08,220,3050831,,,2025-05-01,清算の結了等,,,2015-10-05,1,,,,,クラフトオカダ,0
2582,9070002034774,登記記録の閉鎖等,0,2025-05-13,2025-05-08,有限会社小池,,有限会社,群馬県,沼田市,横塚町１２０７番地,,10,206,3780002,,,2025-05-08,清算の結了等,,,2015-10-05,1,,,,,コイケ,0
2591,9090003001895,登記記録の閉鎖等,0,2025-05-13,2025-04-25,ＣａｒｅＳｅｅｄ合同会社,,合同会社,山梨県,甲府市,住吉５丁目３－１７Ｊ・Ｉ甲府第一マンション１０１,,19,201,4000851,,,2025-04-25,清算の結了等,,,2021-06-18,1,,,,,,0
2597,9110001019499,登記記録の閉鎖等,0,2025-05-13,2025-04-24,横尾電気工事株式会社,,株式会社,新潟県,上越市,東本町２丁目４番７号,,15,222,9430825,,,2025-04-24,清算の結了等,,,2015-10-05,1,,,,,ヨコオデンキコウジ,0
2601,9110002024531,登記記録の閉鎖等,0,2025-05-13,2025-04-24,有限会社涛真会,,有限会社,新潟県,上越市,大豆１丁目５番３２号,,15,222,9430802,,,2025-04-24,清算の結了等,,,2015-10-05,1,,,,,トウシンカイ,0
2603,9110005012541,登記記録の閉鎖等,0,2025-05-13,2025-04-23,特定非営利活動法人よしたー山古志,,その他の設立登記法人,新潟県,長岡市,高町４丁目８５８番地２３０,,15,202,9400824,,,2025-04-23,清算の結了等,,,2015-10-05,1,,,,,ヨシターヤマコシ,0
2604,9110005015255,登記記録の閉鎖等,0,2025-05-13,2025-04-22,農事組合法人ファームズ島田,,その他の設立登記法人,新潟県,上越市,大字島田下新田８０番地の１,,15,222,9430852,,,2025-04-22,清算の結了等,,,2015-10-05,1,,,,,ファームズシマダ,0
2605,9120001106255,登記記録の閉鎖等,0,2025-05-13,2025-04-24,株式会社アシスト・ケア,,株式会社,大阪府,大阪市東住吉区,矢田２丁目１６番４号,,27,121,5460023,,,2025-04-24,清算の結了等,,,2015-10-05,1,,,,,アシストケア,0
2624,9120003016725,登記記録の閉鎖等,0,2025-05-13,2025-04-23,合同会社双和,,合同会社,大阪府,大阪市天王寺区,四天王寺１丁目６番１６－１００４号,,27,109,5430051,,,2025-04-23,清算の結了等,,,2019-12-18,1,,,,,ソウワ,0
2630,9120901020480,登記記録の閉鎖等,0,2025-05-13,2025-05-08,桜井興業株式会社,,株式会社,大阪府,箕面市,桜６丁目４番１８号,,27,220,5620041,,,2025-05-08,合併による解散等,2120001051160,令和７年５月１日大阪市淀川区西中島一丁目１１番１６号イーグル興産株式会社（2120001051160）に合併し解散,2015-10-05,1,,,,,,0
2634,9122002013587,登記記録の閉鎖等,0,2025-05-13,2025-05-08,有限会社近畿プロス,,有限会社,大阪府,八尾市,老原９丁目１２６番地,,27,212,5810092,,,2025-05-08,清算の結了等,,,2015-10-05,1,,,,,キンキプロス,0
2639,9140001110503,登記記録の閉鎖等,0,2025-05-13,2025-05-07,ＨＯコーポレーション株式会社,,株式会社,兵庫県,加東市,山国２００４番地３５９,,28,228,6731421,,,2025-05-07,清算の結了等,,,2018-06-26,1,,,,,エイチオーコーポレーション,0
2643,9140002063816,登記記録の閉鎖等,0,2025-05-13,2025-05-01,有限会社中村応用生物研究所,,有限会社,兵庫県,伊丹市,下河原１丁目９番３４号,,28,207,6640832,,,2025-05-01,清算の結了等,,,2015-10-05,1,,,,,ナカムラオウヨウセイブツケンキュウジョ,0
2658,9180001047634,登記記録の閉鎖等,0,2025-05-13,2025-05-01,株式会社エムジーモールド,,株式会社,愛知県,名古屋市西区,長先町５９番地,,23,104,4520838,,,2025-05-01,合併による解散等,8180001025418,令和７年５月１日名古屋市西区長先町５９番地ゴトープラスチツク株式会社（8180001025418）に合併し解散,2015-10-05,1,,,,,エムジーモールド,0
2659,9180001071601,登記記録の閉鎖等,0,2025-05-13,2025-04-24,株式会社Ｐｅｒｓｈ,,株式会社,愛知県,名古屋市中区,丸の内３丁目１３番１号セプトン丸の内ビル２Ｆ,,23,106,4600002,,,2025-04-24,清算の結了等,,,2015-10-05,1,,,,,パーシュ,0
2660,9180001108543,登記記録の閉鎖等,0,2025-05-13,2025-05-07,株式会社ＡＣメンテ名古屋,,株式会社,愛知県,名古屋市名東区,若葉台１４０１番地,,23,115,4650015,,,2025-05-07,清算の結了等,,,2015-10-05,1,,,,,エーシーメンテナゴヤ,0
2663,9180002016431,登記記録の閉鎖等,0,2025-05-13,2025-05-02,有限会社東明社,,有限会社,愛知県,稲沢市,片原一色町大山５２番地,,23,220,4928355,,,2025-05-02,清算の結了等,,,2015-10-05,1,,,,,トウメイシャ,0
2664,9180002019780,登記記録の閉鎖等,0,2025-05-13,2025-05-07,有限会社横井産業,,有限会社,愛知県,名古屋市中川区,太平通１丁目１０番地,,23,110,4540838,,,2025-05-07,清算の結了等,,,2015-10-05,1,,,,,ヨコイサンギョウ,0
2669,9180302022740,登記記録の閉鎖等,0,2025-05-13,2025-05-01,テイオウ発条有限会社,,有限会社,愛知県,豊田市,本地町４丁目７番地,,23,211,4710848,,,2025-05-01,清算の結了等,,,2015-10-05,1,,,,,テイオウハツジョウ,0
2673,9200001030827,登記記録の閉鎖等,0,2025-05-13,2025-05-08,株式会社岸本製作所,,株式会社,岐阜県,羽島市,堀津町中屋敷５番地,,21,209,5016337,,,2025-05-08,清算の結了等,,,2015-10-05,1,,,,,キシモトセイサクショ,0
2675,9220002002468,登記記録の閉鎖等,0,2025-05-13,2025-05-09,有限会社ケルン,,有限会社,石川県,金沢市,高柳町２の７番地１,,17,201,9200005,,,2025-05-09,清算の結了等,,,2015-10-05,1,,,,,ケルン,0
2677,9220003003259,登記記録の閉鎖等,0,2025-05-13,2025-05-02,合同会社ＣＯＬＬＥＥＮ　ＰＲＯＪＥＣＴ,,合同会社,石川県,かほく市,高松ケ６１番地,,17,209,9291215,,,2025-05-02,清算の結了等,,,2022-04-26,1,,,,,コリーンプロジェクト,0
2680,9230002011682,登記記録の閉鎖等,0,2025-05-13,2025-04-28,有限会社ナカジョ,,有限会社,富山県,高岡市,戸出町２丁目１０番２６号,,16,202,9391104,,,2025-04-28,清算の結了等,,,2015-10-05,1,,,,,ナカジョ,0
2692,9280003000696,登記記録の閉鎖等,0,2025-05-13,2025-05-12,スサノオ出雲合同会社,,合同会社,島根県,出雲市,斐川町坂田１３４９,,32,203,6990555,,,2025-05-12,清算の結了等,,,2015-10-05,1,,,,,スサノオイズモ,0
2704,9330001030855,登記記録の閉鎖等,0,2025-05-13,2025-05-01,もりしょう株式会社,,株式会社,熊本県,熊本市中央区,渡鹿３丁目２番３９号,,43,101,8620970,,,2025-05-01,合併による解散等,7330001001255,令和７年５月１日熊本市北区下硯川町２２０５番地くまさんガス産業株式会社（7330001001255）に合併し解散,2023-05-12,1,,,,,モリショウ,0
2707,9330002007365,登記記録の閉鎖等,0,2025-05-13,2025-05-01,有限会社冨田興業,,有限会社,熊本県,熊本市東区,長嶺南３丁目４番９５ー６０５号,,43,102,8618039,,,2025-05-01,清算の結了等,,,2015-10-05,1,,,,,トミダコウギョウ,0
2712,9340001027033,登記記録の閉鎖等,0,2025-05-13,2025-05-07,株式会社サスティナブルエアー,,株式会社,鹿児島県,鹿児島市,真砂町３５番６号,,46,201,8900066,,,2025-05-07,清算の結了等,,,2025-01-06,1,,,,,サスティナブルエアー,0
2714,9340002021299,登記記録の閉鎖等,0,2025-05-13,2025-05-01,株式会社ホウエイ,,株式会社,鹿児島県,大島郡宇検村,大字湯湾１０８６番地５,,46,524,8943301,,,2025-05-01,合併による解散等,5340001010546,令和７年５月１日鹿児島県大島郡宇検村湯湾１０８６番地１株式会社大友組（5340001010546）に合併し解散,2015-10-05,1,,,,,ホウエイ,0
2737,9390001013061,登記記録の閉鎖等,0,2025-05-13,2025-04-30,株式会社ＳＥＶＥＮ,,株式会社,山形県,山形市,寿町１８番２５号,,06,201,9902414,,,2025-04-30,清算の結了等,,,2015-10-05,1,,,,,セブン,0
2738,9420002012793,登記記録の閉鎖等,0,2025-05-13,2025-04-30,有限会社アツプルハウス,,有限会社,青森県,弘前市,大字若葉１丁目５番地５,,02,202,0368255,,,2025-04-30,清算の結了等,,,2015-10-05,1,,,,,アップルハウス,0
